{
  "ts_utc": "2025-12-26T19:00:07Z",
  "threshold_m": 150,
  "source": "stations_override.txt (ICAO list) + aviationweather.gov (METAR/TAF raw)",
  "station_count": 159,
  "stations": [
    {
      "icao": "BIKF",
      "alert": "OK",
      "vis_m": 9999,
      "fzfg": false,
      "metar_trigger": false,
      "taf_trigger": false,
      "metar": "METAR BIKF 261830Z 28005KT 9999 BKN031 03/M01 Q1040",
      "taf": "TAF BIKF 261653Z 2618/2718 27012KT 9999 FEW018 BKN033 TX07/2718Z TNM01/2703Z"
    },
    {
      "icao": "BKPR",
      "alert": "OK",
      "vis_m": null,
      "fzfg": false,
      "metar_trigger": false,
      "taf_trigger": false,
      "metar": "",
      "taf": "TAF BKPR 261730Z 2618/2718 02006KT 9999 FEW012 SCT030"
    },
    {
      "icao": "EBCI",
      "alert": "OK",
      "vis_m": 9999,
      "fzfg": false,
      "metar_trigger": false,
      "taf_trigger": false,
      "metar": "METAR EBCI 261850Z 07005KT CAVOK M01/M03 Q1029 NOSIG",
      "taf": "TAF EBCI 261700Z 2618/2724 05008KT CAVOK"
    },
    {
      "icao": "EDDB",
      "alert": "OK",
      "vis_m": 6000,
      "fzfg": false,
      "metar_trigger": false,
      "taf_trigger": false,
      "metar": "METAR EDDB 261850Z AUTO 25005KT 6000 BKN004 OVC010 M02/M03 Q1034 TEMPO 4000 BR",
      "taf": ""
    },
    {
      "icao": "EDDH",
      "alert": "OK",
      "vis_m": 2300,
      "fzfg": false,
      "metar_trigger": false,
      "taf_trigger": false,
      "metar": "METAR EDDH 261850Z AUTO 27003KT 240V310 2300 BR OVC002 00/00 Q1036 TEMPO 0500 FG VV002",
      "taf": "TAF EDDH 261700Z 2618/2724 VRB03KT 2000 BR OVC003"
    },
    {
      "icao": "EDDK",
      "alert": "OK",
      "vis_m": 9999,
      "fzfg": false,
      "metar_trigger": false,
      "taf_trigger": false,
      "metar": "METAR EDDK 261850Z AUTO VRB02KT CAVOK M04/M06 Q1031 NOSIG",
      "taf": "TAF EDDK 261700Z 2618/2724 VRB03KT CAVOK"
    },
    {
      "icao": "EDDN",
      "alert": "OK",
      "vis_m": 9999,
      "fzfg": false,
      "metar_trigger": false,
      "taf_trigger": false,
      "metar": "METAR EDDN 261850Z AUTO VRB02KT CAVOK M02/M04 Q1030 NOSIG",
      "taf": "TAF EDDN 261700Z 2618/2718 06003KT CAVOK"
    },
    {
      "icao": "EDDS",
      "alert": "OK",
      "vis_m": 9999,
      "fzfg": false,
      "metar_trigger": false,
      "taf_trigger": false,
      "metar": "METAR EDDS 261850Z AUTO 09006KT CAVOK M01/M03 Q1027 NOSIG",
      "taf": "TAF EDDS 261700Z 2618/2718 05004KT CAVOK"
    },
    {
      "icao": "EDFH",
      "alert": "OK",
      "vis_m": 9999,
      "fzfg": false,
      "metar_trigger": false,
      "taf_trigger": false,
      "metar": "METAR EDFH 261850Z 12008KT CAVOK M01/M04 Q1028",
      "taf": "TAF EDFH 261700Z 2618/2718 10009KT CAVOK"
    },
    {
      "icao": "EDJA",
      "alert": "OK",
      "vis_m": 8000,
      "fzfg": false,
      "metar_trigger": false,
      "taf_trigger": false,
      "metar": "METAR EDJA 261850Z 06008KT 8000 OVC004 M02/M03 Q1026",
      "taf": "TAF EDJA 261700Z 2618/2703 06010KT 9999 OVC005"
    },
    {
      "icao": "EDLW",
      "alert": "OK",
      "vis_m": 9999,
      "fzfg": false,
      "metar_trigger": false,
      "taf_trigger": false,
      "metar": "METAR EDLW 261850Z 04007KT CAVOK M01/M04 Q1032",
      "taf": "TAF EDLW 261700Z 2618/2718 04004KT CAVOK"
    },
    {
      "icao": "EDNY",
      "alert": "OK",
      "vis_m": 9999,
      "fzfg": false,
      "metar_trigger": false,
      "taf_trigger": false,
      "metar": "METAR EDNY 261850Z AUTO 07007KT 9999 // OVC015/// M01/M03 Q1027",
      "taf": "TAF EDNY 261700Z 2618/2703 03007KT 9999 BKN015"
    },
    {
      "icao": "EDSB",
      "alert": "OK",
      "vis_m": 9999,
      "fzfg": false,
      "metar_trigger": false,
      "taf_trigger": false,
      "metar": "METAR EDSB 261850Z 04008KT CAVOK 01/M02 Q1028",
      "taf": "TAF EDSB 261700Z 2618/2718 03009KT CAVOK"
    },
    {
      "icao": "EETN",
      "alert": "OK",
      "vis_m": 9999,
      "fzfg": false,
      "metar_trigger": false,
      "taf_trigger": false,
      "metar": "METAR EETN 261850Z 31007KT 280V340 9999 OVC005 04/04 Q1021 NOSIG",
      "taf": "TAF EETN 261730Z 2618/2718 33010KT 9999 BKN006"
    },
    {
      "icao": "EFTU",
      "alert": "OK",
      "vis_m": 9999,
      "fzfg": false,
      "metar_trigger": false,
      "taf_trigger": false,
      "metar": "METAR EFTU 261850Z AUTO VRB02KT 9999 BKN001 02/02 Q1022",
      "taf": "TAF EFTU 261725Z 2618/2718 29005KT CAVOK"
    },
    {
      "icao": "EGBB",
      "alert": "OK",
      "vis_m": 9999,
      "fzfg": false,
      "metar_trigger": false,
      "taf_trigger": false,
      "metar": "METAR EGBB 261850Z 04008KT 360V070 CAVOK 04/02 Q1033",
      "taf": "TAF EGBB 261655Z 2618/2718 05010KT 9999 FEW030"
    },
    {
      "icao": "EGGP",
      "alert": "OK",
      "vis_m": 9999,
      "fzfg": false,
      "metar_trigger": false,
      "taf_trigger": false,
      "metar": "METAR EGGP 261850Z 04006KT CAVOK 03/01 Q1035",
      "taf": "TAF EGGP 261656Z 2618/2718 04007KT CAVOK"
    },
    {
      "icao": "EGGW",
      "alert": "OK",
      "vis_m": 8000,
      "fzfg": false,
      "metar_trigger": false,
      "taf_trigger": false,
      "metar": "METAR EGGW 261850Z AUTO 03007KT 010V080 8000 BKN014 02/01 Q1031",
      "taf": ""
    },
    {
      "icao": "EGKK",
      "alert": "OK",
      "vis_m": 9999,
      "fzfg": false,
      "metar_trigger": false,
      "taf_trigger": false,
      "metar": "METAR EGKK 261850Z 05009KT 9999 BKN015 06/03 Q1030",
      "taf": "TAF EGKK 261657Z 2618/2724 06009KT 9999 SCT018"
    },
    {
      "icao": "EGNM",
      "alert": "OK",
      "vis_m": 9999,
      "fzfg": false,
      "metar_trigger": false,
      "taf_trigger": false,
      "metar": "METAR EGNM 261850Z 04008KT 9999 FEW016 03/02 Q1035",
      "taf": "TAF EGNM 261657Z 2618/2718 05008KT 9999 FEW016"
    },
    {
      "icao": "EGPD",
      "alert": "OK",
      "vis_m": 9999,
      "fzfg": false,
      "metar_trigger": false,
      "taf_trigger": false,
      "metar": "METAR EGPD 261850Z COR AUTO VRB02KT 9999 OVC018 05/03 Q1039 NOSIG",
      "taf": "TAF EGPD 261654Z 2618/2718 VRB02KT 9999 BKN020"
    },
    {
      "icao": "EGPF",
      "alert": "OK",
      "vis_m": 9999,
      "fzfg": false,
      "metar_trigger": false,
      "taf_trigger": false,
      "metar": "METAR EGPF 261850Z AUTO 06005KT 9999 OVC026 05/02 Q1038",
      "taf": "TAF EGPF 261700Z 2618/2718 VRB03KT 9999 SCT025"
    },
    {
      "icao": "EHBK",
      "alert": "OK",
      "vis_m": 9999,
      "fzfg": false,
      "metar_trigger": false,
      "taf_trigger": false,
      "metar": "METAR EHBK 261855Z AUTO 04009KT 9999 NCD M02/M04 Q1030 NOSIG",
      "taf": "TAF EHBK 261720Z 2618/2724 05007KT CAVOK"
    },
    {
      "icao": "EHEH",
      "alert": "OK",
      "vis_m": 9999,
      "fzfg": false,
      "metar_trigger": false,
      "taf_trigger": false,
      "metar": "METAR EHEH 261825Z AUTO 04005KT 020V100 9999 NCD M03/M05 Q1032 BLU NOSIG RMK TREND REMOTE BY EHWX",
      "taf": "TAF EHEH 261718Z 2618/2724 06006KT CAVOK"
    },
    {
      "icao": "EKBI",
      "alert": "OK",
      "vis_m": 3600,
      "fzfg": false,
      "metar_trigger": false,
      "taf_trigger": false,
      "metar": "METAR EKBI 261850Z AUTO 28004KT 3600 R09/1300U R27/P1500N BCFG NCD 01/00 Q1035",
      "taf": "TAF EKBI 261731Z 2618/2718 28002KT 6000 NSC"
    },
    {
      "icao": "EKCH",
      "alert": "OK",
      "vis_m": 9999,
      "fzfg": false,
      "metar_trigger": false,
      "taf_trigger": false,
      "metar": "METAR EKCH 261850Z 31005KT 9999 OVC006 04/03 Q1034 BECMG OVC004",
      "taf": "TAF EKCH 261727Z 2618/2718 31005KT 9999 OVC006"
    },
    {
      "icao": "ENAL",
      "alert": "OK",
      "vis_m": 7000,
      "fzfg": false,
      "metar_trigger": false,
      "taf_trigger": false,
      "metar": "METAR ENAL 261850Z 23016KT 7000 -DZ SCT004 BKN006 06/06 Q1033",
      "taf": ""
    },
    {
      "icao": "ENBR",
      "alert": "OK",
      "vis_m": 9999,
      "fzfg": false,
      "metar_trigger": false,
      "taf_trigger": false,
      "metar": "METAR ENBR 261850Z 02006KT 9999 SCT013 02/01 Q1035 NOSIG RMK WIND 1200FT 32018KT",
      "taf": ""
    },
    {
      "icao": "ENGM",
      "alert": "OK",
      "vis_m": 9999,
      "fzfg": false,
      "metar_trigger": false,
      "taf_trigger": false,
      "metar": "METAR ENGM 261850Z 34001KT CAVOK M05/M06 Q1029 NOSIG",
      "taf": "TAF ENGM 261700Z 2618/2718 VRB03KT CAVOK"
    },
    {
      "icao": "ENHD",
      "alert": "OK",
      "vis_m": 9999,
      "fzfg": false,
      "metar_trigger": false,
      "taf_trigger": false,
      "metar": "METAR ENHD 261850Z 34007KT 9999 SCT011 07/05 Q1035",
      "taf": "TAF ENHD 261400Z 2615/2623 32005KT CAVOK"
    },
    {
      "icao": "ENTC",
      "alert": "OK",
      "vis_m": 9999,
      "fzfg": false,
      "metar_trigger": false,
      "taf_trigger": false,
      "metar": "METAR ENTC 261850Z 21019KT 9999 -DZRA SCT015 SCT023 BKN031 05/04 Q1008 TEMPO 4000 RADZ BKN012 RMK WIND 2600FT 19023KT",
      "taf": "TAF ENTC 261700Z 2618/2718 20018KT 9999 -RA FEW020 BKN035"
    },
    {
      "icao": "ENTO",
      "alert": "OK",
      "vis_m": 9999,
      "fzfg": false,
      "metar_trigger": false,
      "taf_trigger": false,
      "metar": "METAR ENTO 261850Z 21004KT CAVOK M00/M00 Q1030 NOSIG",
      "taf": "TAF ENTO 261700Z 2618/2718 20005KT CAVOK"
    },
    {
      "icao": "ENVA",
      "alert": "OK",
      "vis_m": 9999,
      "fzfg": false,
      "metar_trigger": false,
      "taf_trigger": false,
      "metar": "METAR ENVA 261850Z 16002KT 9999 SCT017 BKN026 04/02 Q1029 BECMG 24018KT RMK WIND 670FT 21017KT",
      "taf": "TAF ENVA 261700Z 2618/2718 23008KT 9999 SCT012 BKN025"
    },
    {
      "icao": "ENZV",
      "alert": "OK",
      "vis_m": 9999,
      "fzfg": false,
      "metar_trigger": false,
      "taf_trigger": false,
      "metar": "METAR ENZV 261850Z 00000KT CAVOK M01/M01 Q1035 NOSIG",
      "taf": "TAF ENZV 261700Z 2618/2718 VRB03KT CAVOK"
    },
    {
      "icao": "EPGD",
      "alert": "OK",
      "vis_m": 9999,
      "fzfg": false,
      "metar_trigger": false,
      "taf_trigger": false,
      "metar": "METAR EPGD 261830Z 32007KT 9999 OVC004 05/04 Q1030",
      "taf": "TAF EPGD 261730Z 2618/2718 31010KT 9999 OVC004"
    },
    {
      "icao": "EPKK",
      "alert": "OK",
      "vis_m": 5000,
      "fzfg": false,
      "metar_trigger": false,
      "taf_trigger": false,
      "metar": "METAR EPKK 261830Z 26009KT 5000 BR OVC012 M02/M05 Q1031",
      "taf": "TAF EPKK 261730Z 2618/2718 25006KT 5000 BR OVC012"
    },
    {
      "icao": "EPKT",
      "alert": "OK",
      "vis_m": 4000,
      "fzfg": false,
      "metar_trigger": false,
      "taf_trigger": false,
      "metar": "METAR EPKT 261830Z 30005KT 4000 BR SCT003 OVC005 M03/M04 Q1031",
      "taf": "TAF EPKT 261730Z 2618/2718 31006KT 8000 -SG OVC007"
    },
    {
      "icao": "EPLB",
      "alert": "OK",
      "vis_m": 4000,
      "fzfg": false,
      "metar_trigger": false,
      "taf_trigger": false,
      "metar": "METAR EPLB 261830Z 30009KT 4000 BR OVC003 M01/M01 Q1027",
      "taf": "TAF EPLB 261730Z 2618/2718 29010KT 3000 BR OVC003"
    },
    {
      "icao": "EPMO",
      "alert": "OK",
      "vis_m": 3500,
      "fzfg": false,
      "metar_trigger": false,
      "taf_trigger": false,
      "metar": "METAR EPMO 261830Z 27009KT 3500 BR OVC004 00/00 Q1029",
      "taf": "TAF EPMO 261730Z 2618/2718 27008KT 3000 BR OVC003"
    },
    {
      "icao": "EPPO",
      "alert": "OK",
      "vis_m": 900,
      "fzfg": true,
      "metar_trigger": false,
      "taf_trigger": false,
      "metar": "METAR EPPO 261830Z 29004KT 0900 R28/P2000N -FZDZ FZFG OVC001 M02/M02 Q1033",
      "taf": "TAF EPPO 261730Z 2618/2718 28004KT 1200 -FZDZ BR OVC002"
    },
    {
      "icao": "EPRA",
      "alert": "OK",
      "vis_m": 5000,
      "fzfg": false,
      "metar_trigger": false,
      "taf_trigger": false,
      "metar": "METAR EPRA 261830Z 29009KT 5000 BR OVC003 M01/M02 Q1029",
      "taf": "TAF EPRA 261730Z 2618/2703 29007KT 5000 BR OVC003"
    },
    {
      "icao": "EPRZ",
      "alert": "OK",
      "vis_m": 5000,
      "fzfg": false,
      "metar_trigger": false,
      "taf_trigger": false,
      "metar": "METAR EPRZ 261830Z 28012KT 5000 -FZDZ BR OVC004 M02/M02 Q1028",
      "taf": "TAF EPRZ 261730Z 2618/2718 28012KT 4500 -FZDZ -SG BR OVC004"
    },
    {
      "icao": "EPSC",
      "alert": "OK",
      "vis_m": 700,
      "fzfg": false,
      "metar_trigger": false,
      "taf_trigger": false,
      "metar": "METAR EPSC 261830Z 19002KT 0700 R31/1400U FG OVC002 00/00 Q1033",
      "taf": "TAF EPSC 261730Z 2618/2718 25002KT 3000 BR OVC004"
    },
    {
      "icao": "EPSY",
      "alert": "OK",
      "vis_m": 9999,
      "fzfg": false,
      "metar_trigger": false,
      "taf_trigger": false,
      "metar": "METAR EPSY 261830Z 31006KT 9999 BKN005 OVC010 04/03 Q1028",
      "taf": "TAF EPSY 261730Z 2618/2703 31006KT 9999 BKN004 OVC010"
    },
    {
      "icao": "EPWA",
      "alert": "OK",
      "vis_m": 3700,
      "fzfg": false,
      "metar_trigger": false,
      "taf_trigger": false,
      "metar": "METAR EPWA 261830Z 28008KT 3700 BR OVC002 M01/M01 Q1029 TEMPO 2500 BR",
      "taf": "TAF EPWA 261730Z 2618/2718 28008KT 2500 BR OVC003"
    },
    {
      "icao": "EPWR",
      "alert": "OK",
      "vis_m": 9999,
      "fzfg": false,
      "metar_trigger": false,
      "taf_trigger": false,
      "metar": "METAR EPWR 261830Z 26003KT 9999 BKN007 M02/M05 Q1033",
      "taf": "TAF EPWR 261730Z 2618/2718 26004KT 8000 OVC007"
    },
    {
      "icao": "ESGG",
      "alert": "WARNING",
      "vis_m": 9999,
      "fzfg": true,
      "metar_trigger": false,
      "taf_trigger": true,
      "metar": "METAR ESGG 261850Z 22003KT 9999 R03/P2000N R21/P2000N NSC M01/M01 Q1031",
      "taf": "TAF ESGG 261730Z 2618/2718 VRB02KT 0100 FZFG VV002"
    },
    {
      "icao": "ESKN",
      "alert": "OK",
      "vis_m": 9999,
      "fzfg": false,
      "metar_trigger": false,
      "taf_trigger": false,
      "metar": "METAR ESKN 261850Z 27003KT CAVOK 00/M00 Q1028",
      "taf": "TAF ESKN 261730Z 2618/2718 28005KT CAVOK"
    },
    {
      "icao": "ESMS",
      "alert": "OK",
      "vis_m": 150,
      "fzfg": false,
      "metar_trigger": false,
      "taf_trigger": false,
      "metar": "METAR ESMS 261850Z 33008KT 0150 R17/0700N R35/0650N FG VV001 01/01 Q1032",
      "taf": "TAF ESMS 261727Z 2618/2718 33004KT 0100 FG VV001"
    },
    {
      "icao": "ESSA",
      "alert": "OK",
      "vis_m": 9999,
      "fzfg": false,
      "metar_trigger": false,
      "taf_trigger": false,
      "metar": "METAR ESSA 261850Z 26005KT CAVOK M01/M01 Q1026 NOSIG",
      "taf": "TAF ESSA 261730Z 2618/2718 27004KT CAVOK"
    },
    {
      "icao": "EYKA",
      "alert": "OK",
      "vis_m": 9999,
      "fzfg": false,
      "metar_trigger": false,
      "taf_trigger": false,
      "metar": "METAR EYKA 261850Z 29005KT 260V350 9999 OVC007 03/02 Q1024",
      "taf": "TAF EYKA 261715Z 2618/2718 VRB04KT 5000 BR OVC005"
    },
    {
      "icao": "EYPA",
      "alert": "OK",
      "vis_m": 9999,
      "fzfg": false,
      "metar_trigger": false,
      "taf_trigger": false,
      "metar": "METAR EYPA 261850Z VRB03KT 9999 OVC007 07/06 Q1027",
      "taf": "TAF EYPA 261100Z 2612/2712 36007KT 8000 BKN010"
    },
    {
      "icao": "EYVI",
      "alert": "OK",
      "vis_m": 9999,
      "fzfg": false,
      "metar_trigger": false,
      "taf_trigger": false,
      "metar": "METAR EYVI 261850Z 34011KT 9999 BKN006 02/01 Q1021 NOSIG",
      "taf": "TAF EYVI 261713Z 2618/2718 34010KT 5000 BR OVC005"
    },
    {
      "icao": "GCFV",
      "alert": "OK",
      "vis_m": 9999,
      "fzfg": false,
      "metar_trigger": false,
      "taf_trigger": false,
      "metar": "METAR GCFV 261830Z 28007G17KT 9999 FEW025 SCT049 18/13 Q1019",
      "taf": "TAF GCFV 261400Z 2615/2715 32009KT 9999 SCT030 TX22/2714Z TN14/2706Z"
    },
    {
      "icao": "GCLP",
      "alert": "OK",
      "vis_m": 9999,
      "fzfg": false,
      "metar_trigger": false,
      "taf_trigger": false,
      "metar": "METAR GCLP 261830Z VRB02KT 9999 SCT035 19/12 Q1019 NOSIG",
      "taf": "TAF GCLP 261400Z 2615/2715 36013KT 9999 SCT030 TX20/2714Z TN14/2706Z"
    },
    {
      "icao": "GCTS",
      "alert": "OK",
      "vis_m": 9999,
      "fzfg": false,
      "metar_trigger": false,
      "taf_trigger": false,
      "metar": "METAR GCTS 261830Z 29010KT 9999 SCT044 19/10 Q1019 NOSIG",
      "taf": "TAF GCTS 261400Z 2615/2715 24012KT 9999 FEW035 TX23/2714Z TN15/2706Z"
    },
    {
      "icao": "GMAD",
      "alert": "OK",
      "vis_m": 9999,
      "fzfg": false,
      "metar_trigger": false,
      "taf_trigger": false,
      "metar": "METAR GMAD 261830Z 22003KT 9999 FEW026 SCT083 15/12 Q1017 NOSIG",
      "taf": "TAF GMAD 261700Z 2618/2724 25003KT 9999 FEW026 BKN080"
    },
    {
      "icao": "GMMN",
      "alert": "OK",
      "vis_m": 9999,
      "fzfg": false,
      "metar_trigger": false,
      "taf_trigger": false,
      "metar": "METAR GMMN 261830Z 21005KT 9999 BKN030 12/10 Q1015 NOSIG",
      "taf": "TAF GMMN 261700Z 2618/2724 22006KT 9999 SCT018 SCT030"
    },
    {
      "icao": "GMMX",
      "alert": "OK",
      "vis_m": 9999,
      "fzfg": false,
      "metar_trigger": false,
      "taf_trigger": false,
      "metar": "METAR GMMX 261830Z 25003KT 9999 SCT023 BKN080 12/09 Q1016 NOSIG",
      "taf": "TAF GMMX 261700Z 2618/2724 26006KT 8000 SCT023 BKN090"
    },
    {
      "icao": "HEGN",
      "alert": "OK",
      "vis_m": 9999,
      "fzfg": false,
      "metar_trigger": false,
      "taf_trigger": false,
      "metar": "METAR HEGN 261800Z 29010KT CAVOK 18/08 Q1014 NOSIG",
      "taf": "TAF HEGN 261700Z 2618/2724 29015KT CAVOK"
    },
    {
      "icao": "HEMA",
      "alert": "OK",
      "vis_m": 9999,
      "fzfg": false,
      "metar_trigger": false,
      "taf_trigger": false,
      "metar": "METAR HEMA 261800Z 30010KT CAVOK 19/11 Q1013 NOSIG",
      "taf": "TAF HEMA 261700Z 2618/2724 30014KT CAVOK"
    },
    {
      "icao": "HESH",
      "alert": "OK",
      "vis_m": 9999,
      "fzfg": false,
      "metar_trigger": false,
      "taf_trigger": false,
      "metar": "METAR HESH 261800Z 34009KT CAVOK 21/08 Q1013 NOSIG",
      "taf": "TAF HESH 261700Z 2618/2724 35012KT CAVOK"
    },
    {
      "icao": "HESX",
      "alert": "OK",
      "vis_m": 9999,
      "fzfg": false,
      "metar_trigger": false,
      "taf_trigger": false,
      "metar": "METAR HESX 261800Z 36005KT CAVOK 14/10 Q1017 NOSIG",
      "taf": "TAF HESX 261700Z 2618/2724 33010KT 9999 SCT025"
    },
    {
      "icao": "LATI",
      "alert": "OK",
      "vis_m": 9999,
      "fzfg": false,
      "metar_trigger": false,
      "taf_trigger": false,
      "metar": "METAR LATI 261850Z 00000KT CAVOK 06/01 Q1022 NOSIG",
      "taf": "TAF LATI 261700Z 2618/2718 VRB05KT CAVOK TX15/2712Z TN02/2705Z"
    },
    {
      "icao": "LBPD",
      "alert": "OK",
      "vis_m": 9999,
      "fzfg": false,
      "metar_trigger": false,
      "taf_trigger": false,
      "metar": "METAR LBPD 261830Z AUTO 29017KT 9999 NCD 06/02 Q1020 NOSIG",
      "taf": "TAF LBPD 261700Z 2618/2718 28018KT 9999 SCT020"
    },
    {
      "icao": "LBSF",
      "alert": "OK",
      "vis_m": 9999,
      "fzfg": false,
      "metar_trigger": false,
      "taf_trigger": false,
      "metar": "METAR LBSF 261830Z AUTO 29013KT 9999 OVC012/// 00/M02 Q1023 NOSIG",
      "taf": "TAF LBSF 261700Z 2618/2718 29016KT 9999 SCT012 BKN020"
    },
    {
      "icao": "LBWN",
      "alert": "OK",
      "vis_m": 9999,
      "fzfg": false,
      "metar_trigger": false,
      "taf_trigger": false,
      "metar": "METAR LBWN 261830Z AUTO 26014KT 9999 FEW018/// 01/M02 Q1020 NOSIG",
      "taf": "TAF LBWN 261700Z 2618/2718 26012KT 9999 SCT015 BKN040"
    },
    {
      "icao": "LCLK",
      "alert": "OK",
      "vis_m": 9999,
      "fzfg": false,
      "metar_trigger": false,
      "taf_trigger": false,
      "metar": "METAR LCLK 261830Z 29006KT 230V310 CAVOK 13/11 Q1013 NOSIG",
      "taf": "TAF LCLK 261730Z 2618/2718 29007KT 9999 FEW025 FEW030TCU"
    },
    {
      "icao": "LCPH",
      "alert": "OK",
      "vis_m": 9999,
      "fzfg": false,
      "metar_trigger": false,
      "taf_trigger": false,
      "metar": "METAR LCPH 261830Z 02007KT 9999 FEW025 SCT030 14/10 Q1013 NOSIG",
      "taf": "TAF LCPH 261730Z 2618/2718 33008KT 9999 FEW025 FEW030TCU SCT035"
    },
    {
      "icao": "LEAL",
      "alert": "OK",
      "vis_m": 9999,
      "fzfg": false,
      "metar_trigger": false,
      "taf_trigger": false,
      "metar": "METAR LEAL 261830Z 00000KT 9999 SCT050 13/10 Q1013 NOSIG",
      "taf": "TAF LEAL 261700Z 2618/2718 VRB05KT 9999 SCT040 TX15/2713Z TN07/2706Z"
    },
    {
      "icao": "LEBB",
      "alert": "OK",
      "vis_m": 9999,
      "fzfg": false,
      "metar_trigger": false,
      "taf_trigger": false,
      "metar": "METAR LEBB 261830Z 10003KT 9999 -RA SCT052 BKN062 07/07 Q1017 NOSIG",
      "taf": "TAF LEBB 261700Z 2618/2718 VRB03KT 9999 BKN045 TX14/2714Z TN03/2708Z"
    },
    {
      "icao": "LEBL",
      "alert": "OK",
      "vis_m": 9999,
      "fzfg": false,
      "metar_trigger": false,
      "taf_trigger": false,
      "metar": "METAR LEBL 261830Z 07009KT 9999 SCT030 BKN046 12/12 Q1015 RERA REDZ NOSIG",
      "taf": "TAF LEBL 261700Z 2618/2718 07012KT 9999 SCT014 TX14/2712Z TN11/2706Z"
    },
    {
      "icao": "LECH",
      "alert": "OK",
      "vis_m": 8000,
      "fzfg": false,
      "metar_trigger": false,
      "taf_trigger": false,
      "metar": "METAR LECH 261830Z AUTO 04008KT 8000 -RA SCT021 BKN027 OVC032 08/07 Q1014",
      "taf": ""
    },
    {
      "icao": "LEMD",
      "alert": "OK",
      "vis_m": 9999,
      "fzfg": false,
      "metar_trigger": false,
      "taf_trigger": false,
      "metar": "METAR LEMD 261830Z 21002KT 9999 SCT039 SCT056 06/01 Q1013 NOSIG",
      "taf": "TAF LEMD 261700Z 2618/2724 VRB03KT CAVOK TX12/2715Z TN00/2706Z"
    },
    {
      "icao": "LEMG",
      "alert": "OK",
      "vis_m": 9999,
      "fzfg": false,
      "metar_trigger": false,
      "taf_trigger": false,
      "metar": "METAR LEMG 261830Z VRB02KT 9999 SCT055 11/07 Q1013 NOSIG",
      "taf": "TAF LEMG 261700Z 2618/2718 29006KT 9999 FEW045 TX15/2714Z TN05/2706Z"
    },
    {
      "icao": "LEVC",
      "alert": "OK",
      "vis_m": 9999,
      "fzfg": false,
      "metar_trigger": false,
      "taf_trigger": false,
      "metar": "METAR LEVC 261830Z 05004KT 330V120 9999 FEW035 BKN042 12/08 Q1014 NOSIG",
      "taf": "TAF LEVC 261700Z 2618/2718 VRB04KT 9999 FEW025 BKN035 TX14/2713Z TN07/2706Z"
    },
    {
      "icao": "LEXJ",
      "alert": "OK",
      "vis_m": 9999,
      "fzfg": false,
      "metar_trigger": false,
      "taf_trigger": false,
      "metar": "METAR LEXJ 261830Z VRB02KT 9999 SCT020 08/06 Q1016",
      "taf": "TAF LEXJ 261400Z 2615/2715 VRB03KT 9999 FEW020 TX13/2714Z TN03/2707Z"
    },
    {
      "icao": "LEZG",
      "alert": "OK",
      "vis_m": 1500,
      "fzfg": false,
      "metar_trigger": false,
      "taf_trigger": false,
      "metar": "SPECI LEZG 261845Z 26007KT 1500 +DZ BR BKN004 BKN020 06/06 Q1016 NOSIG",
      "taf": ""
    },
    {
      "icao": "LEZL",
      "alert": "OK",
      "vis_m": 9999,
      "fzfg": false,
      "metar_trigger": false,
      "taf_trigger": false,
      "metar": "METAR LEZL 261830Z 15003KT CAVOK 09/07 Q1014 NOSIG",
      "taf": "TAF LEZL 261400Z 2615/2715 VRB03KT CAVOK TX15/2615Z TN06/2707Z"
    },
    {
      "icao": "LFBD",
      "alert": "OK",
      "vis_m": 9999,
      "fzfg": false,
      "metar_trigger": false,
      "taf_trigger": false,
      "metar": "METAR LFBD 261830Z AUTO 06009KT 9999 BKN046 OVC120 11/05 Q1018 NOSIG",
      "taf": "TAF LFBD 261700Z 2618/2724 06010KT CAVOK TX12/2714Z TN03/2707Z"
    },
    {
      "icao": "LFLL",
      "alert": "OK",
      "vis_m": 4000,
      "fzfg": false,
      "metar_trigger": false,
      "taf_trigger": false,
      "metar": "METAR LFLL 261830Z AUTO 31004KT 280V350 4000 BR OVC003 00/M00 Q1024",
      "taf": ""
    },
    {
      "icao": "LFLS",
      "alert": "OK",
      "vis_m": 7000,
      "fzfg": false,
      "metar_trigger": false,
      "taf_trigger": false,
      "metar": "METAR LFLS 261830Z AUTO 00000KT 7000 NSC M00/M01 Q1023 TEMPO 3000 BR",
      "taf": "TAF LFLS 261400Z 2615/2715 36006KT CAVOK"
    },
    {
      "icao": "LFMN",
      "alert": "OK",
      "vis_m": 9999,
      "fzfg": false,
      "metar_trigger": false,
      "taf_trigger": false,
      "metar": "METAR LFMN 261830Z 32010KT CAVOK 10/04 Q1021 NOSIG",
      "taf": ""
    },
    {
      "icao": "LFOB",
      "alert": "OK",
      "vis_m": 8000,
      "fzfg": false,
      "metar_trigger": false,
      "taf_trigger": false,
      "metar": "METAR LFOB 261830Z AUTO 04005KT 8000 NSC M02/M03 Q1028 NOSIG",
      "taf": "TAF LFOB 261700Z 2618/2718 06008KT 8000 NSC"
    },
    {
      "icao": "LFPO",
      "alert": "OK",
      "vis_m": 9999,
      "fzfg": false,
      "metar_trigger": false,
      "taf_trigger": false,
      "metar": "METAR LFPO 261830Z AUTO 03006KT CAVOK 00/M02 Q1027",
      "taf": "TAF LFPO 261700Z 2618/2724 04007KT CAVOK"
    },
    {
      "icao": "LFSB",
      "alert": "OK",
      "vis_m": 7000,
      "fzfg": false,
      "metar_trigger": false,
      "taf_trigger": false,
      "metar": "METAR LFSB 261830Z AUTO 34007KT 7000 OVC017 M01/M02 Q1027 TEMPO 4000 BR BKN010",
      "taf": "TAF LFSB 261700Z 2618/2718 34004KT 8000 OVC016"
    },
    {
      "icao": "LGAV",
      "alert": "OK",
      "vis_m": 9999,
      "fzfg": false,
      "metar_trigger": false,
      "taf_trigger": false,
      "metar": "METAR LGAV 261850Z 03005KT 9999 FEW020 10/05 Q1021 NOSIG",
      "taf": "TAF LGAV 261700Z 2618/2718 01014KT 9999 FEW018 SCT030 BKN070"
    },
    {
      "icao": "LGTS",
      "alert": "OK",
      "vis_m": 9999,
      "fzfg": false,
      "metar_trigger": false,
      "taf_trigger": false,
      "metar": "METAR LGTS 261850Z 31016KT 9999 FEW025 09/04 Q1022 NOSIG",
      "taf": "TAF LGTS 261700Z 2618/2718 34015KT 9999 FEW025"
    },
    {
      "icao": "LHBP",
      "alert": "OK",
      "vis_m": 9999,
      "fzfg": false,
      "metar_trigger": false,
      "taf_trigger": false,
      "metar": "METAR LHBP 261830Z VRB02KT CAVOK 00/M02 Q1027 NOSIG",
      "taf": "TAF LHBP 261715Z 2618/2718 29006KT CAVOK"
    },
    {
      "icao": "LHDC",
      "alert": "OK",
      "vis_m": 9999,
      "fzfg": false,
      "metar_trigger": false,
      "taf_trigger": false,
      "metar": "METAR LHDC 261815Z AUTO VRB03KT CAVOK 03/01 Q1028",
      "taf": ""
    },
    {
      "icao": "LIBD",
      "alert": "OK",
      "vis_m": 5000,
      "fzfg": false,
      "metar_trigger": false,
      "taf_trigger": false,
      "metar": "METAR LIBD 261850Z 24006KT 5000 BR NSC 06/06 Q1023",
      "taf": "TAF LIBD 261700Z 2618/2718 VRB05KT 9999 SCT020"
    },
    {
      "icao": "LIBG",
      "alert": "OK",
      "vis_m": 9999,
      "fzfg": false,
      "metar_trigger": false,
      "taf_trigger": false,
      "metar": "METAR LIBG 261750Z 02003KT CAVOK 10/10 Q1022",
      "taf": "TAF LIBG 261700Z 2618/2703 03007KT CAVOK"
    },
    {
      "icao": "LIBP",
      "alert": "OK",
      "vis_m": 9999,
      "fzfg": false,
      "metar_trigger": false,
      "taf_trigger": false,
      "metar": "METAR LIBP 261850Z AUTO 24004KT 9999 BKN035/// OVC050/// 09/08 Q1026",
      "taf": "TAF LIBP 261700Z 2618/2718 VRB05KT 9999 OVC025"
    },
    {
      "icao": "LIBR",
      "alert": "OK",
      "vis_m": 9999,
      "fzfg": false,
      "metar_trigger": false,
      "taf_trigger": false,
      "metar": "METAR LIBR 261850Z 01010KT CAVOK 13/08 Q1022",
      "taf": "TAF LIBR 261700Z 2618/2718 03012KT 9999 SCT040"
    },
    {
      "icao": "LICA",
      "alert": "OK",
      "vis_m": 9999,
      "fzfg": false,
      "metar_trigger": false,
      "taf_trigger": false,
      "metar": "METAR LICA 261850Z AUTO 04008KT 9999 NCD 12/09 Q1020",
      "taf": "TAF LICA 261700Z 2618/2718 09013KT CAVOK"
    },
    {
      "icao": "LICC",
      "alert": "OK",
      "vis_m": 9999,
      "fzfg": false,
      "metar_trigger": false,
      "taf_trigger": false,
      "metar": "METAR LICC 261850Z 08019KT 9999 FEW020 SCT070 16/14 Q1018",
      "taf": "TAF LICC 261700Z 2618/2718 07013KT 9999 SCT040"
    },
    {
      "icao": "LICJ",
      "alert": "OK",
      "vis_m": 9999,
      "fzfg": false,
      "metar_trigger": false,
      "taf_trigger": false,
      "metar": "METAR LICJ 261850Z 20004KT 140V240 9999 -RA SCT060 14/11 Q1018",
      "taf": "TAF LICJ 261700Z 2618/2718 07009KT 9999 SCT040"
    },
    {
      "icao": "LIMC",
      "alert": "OK",
      "vis_m": 9999,
      "fzfg": false,
      "metar_trigger": false,
      "taf_trigger": false,
      "metar": "METAR LIMC 261850Z 15004KT 9999 BKN028 06/04 Q1027 NOSIG",
      "taf": "TAF LIMC 261700Z 2618/2724 VRB05KT 9999 FEW030"
    },
    {
      "icao": "LIME",
      "alert": "OK",
      "vis_m": 9999,
      "fzfg": false,
      "metar_trigger": false,
      "taf_trigger": false,
      "metar": "METAR LIME 261850Z VRB01KT 9999 SCT020 BKN030 06/02 Q1027 NOSIG",
      "taf": "TAF LIME 261700Z 2618/2718 VRB05KT 9999 SCT030"
    },
    {
      "icao": "LIMF",
      "alert": "OK",
      "vis_m": 9999,
      "fzfg": false,
      "metar_trigger": false,
      "taf_trigger": false,
      "metar": "METAR LIMF 261850Z 30004KT CAVOK 04/01 Q1026",
      "taf": "TAF LIMF 261700Z 2618/2718 VRB05KT 9999 FEW040"
    },
    {
      "icao": "LIMJ",
      "alert": "OK",
      "vis_m": 9999,
      "fzfg": false,
      "metar_trigger": false,
      "taf_trigger": false,
      "metar": "METAR LIMJ 261850Z 04017KT CAVOK 10/01 Q1024",
      "taf": "TAF LIMJ 261700Z 2618/2718 03015KT CAVOK"
    },
    {
      "icao": "LIPE",
      "alert": "OK",
      "vis_m": 9999,
      "fzfg": false,
      "metar_trigger": false,
      "taf_trigger": false,
      "metar": "METAR LIPE 261850Z 25004KT 9999 BKN035 06/03 Q1028",
      "taf": "TAF LIPE 261700Z 2618/2718 28007KT 9999 BKN025"
    },
    {
      "icao": "LIPH",
      "alert": "OK",
      "vis_m": 9999,
      "fzfg": false,
      "metar_trigger": false,
      "taf_trigger": false,
      "metar": "METAR LIPH 261850Z 01004KT CAVOK 04/01 Q1028",
      "taf": "TAF LIPH 261700Z 2618/2718 VRB04KT CAVOK"
    },
    {
      "icao": "LIPQ",
      "alert": "OK",
      "vis_m": 9999,
      "fzfg": false,
      "metar_trigger": false,
      "taf_trigger": false,
      "metar": "METAR LIPQ 261850Z AUTO 36002KT 9999 NCD 02/M01 Q1028",
      "taf": "TAF LIPQ 261700Z 2618/2718 VRB04KT CAVOK"
    },
    {
      "icao": "LIPR",
      "alert": "OK",
      "vis_m": 9999,
      "fzfg": false,
      "metar_trigger": false,
      "taf_trigger": false,
      "metar": "METAR LIPR 261850Z 30008KT 9999 BKN035 07/04 Q1027",
      "taf": "TAF LIPR 261700Z 2618/2718 30008KT 9999 BKN035"
    },
    {
      "icao": "LIPX",
      "alert": "OK",
      "vis_m": 9999,
      "fzfg": false,
      "metar_trigger": false,
      "taf_trigger": false,
      "metar": "METAR LIPX 261850Z VRB01KT CAVOK 04/03 Q1028",
      "taf": "TAF LIPX 261700Z 2618/2718 VRB05KT 9999 FEW030"
    },
    {
      "icao": "LIPY",
      "alert": "OK",
      "vis_m": 9999,
      "fzfg": false,
      "metar_trigger": false,
      "taf_trigger": false,
      "metar": "METAR LIPY 261850Z AUTO 27003KT 210V310 9999 OVC043/// 08/05 Q1027",
      "taf": "TAF LIPY 261700Z 2618/2718 28007KT 9999 SCT020"
    },
    {
      "icao": "LIPZ",
      "alert": "OK",
      "vis_m": 9999,
      "fzfg": false,
      "metar_trigger": false,
      "taf_trigger": false,
      "metar": "METAR LIPZ 261850Z 04007KT CAVOK 05/01 Q1028 NOSIG",
      "taf": "TAF LIPZ 261700Z 2618/2724 VRB06KT CAVOK"
    },
    {
      "icao": "LIRF",
      "alert": "OK",
      "vis_m": 9999,
      "fzfg": false,
      "metar_trigger": false,
      "taf_trigger": false,
      "metar": "METAR LIRF 261850Z 02007KT CAVOK 10/06 Q1021 NOSIG",
      "taf": "TAF LIRF 261700Z 2618/2724 05012KT CAVOK"
    },
    {
      "icao": "LIRN",
      "alert": "OK",
      "vis_m": 9999,
      "fzfg": false,
      "metar_trigger": false,
      "taf_trigger": false,
      "metar": "METAR LIRN 261850Z 02007KT CAVOK 11/06 Q1021 NOSIG",
      "taf": "TAF LIRN 261700Z 2618/2718 06009KT CAVOK"
    },
    {
      "icao": "LIRP",
      "alert": "OK",
      "vis_m": 9999,
      "fzfg": false,
      "metar_trigger": false,
      "taf_trigger": false,
      "metar": "METAR LIRP 261845Z 12013KT CAVOK 07/02 Q1024 NOSIG",
      "taf": "TAF LIRP 261700Z 2618/2718 11012KT CAVOK"
    },
    {
      "icao": "LIRZ",
      "alert": "OK",
      "vis_m": 9999,
      "fzfg": false,
      "metar_trigger": false,
      "taf_trigger": false,
      "metar": "METAR LIRZ 261850Z AUTO 01011KT 9999 NCD 07/03 Q1024",
      "taf": "TAF LIRZ 261700Z 2618/2718 04011KT 9999 FEW030"
    },
    {
      "icao": "LJLJ",
      "alert": "OK",
      "vis_m": 9999,
      "fzfg": false,
      "metar_trigger": false,
      "taf_trigger": false,
      "metar": "METAR LJLJ 261830Z VRB01KT 9999 FEW013 BKN033 01/00 Q1030 NOSIG",
      "taf": "TAF LJLJ 261700Z 2618/2718 VRB02KT 9999 SCT013 BKN033"
    },
    {
      "icao": "LKMT",
      "alert": "OK",
      "vis_m": 5000,
      "fzfg": false,
      "metar_trigger": false,
      "taf_trigger": false,
      "metar": "METAR LKMT 261830Z 04004KT 5000 BR NSC M04/M04 Q1032 NOSIG",
      "taf": "TAF LKMT 261700Z 2618/2718 06004KT 3500 BR NSC"
    },
    {
      "icao": "LKPR",
      "alert": "OK",
      "vis_m": 9999,
      "fzfg": false,
      "metar_trigger": false,
      "taf_trigger": false,
      "metar": "METAR LKPR 261830Z 24004KT CAVOK M03/M05 Q1031 NOSIG",
      "taf": "TAF LKPR 261700Z 2618/2724 30004KT CAVOK"
    },
    {
      "icao": "LLBG",
      "alert": "OK",
      "vis_m": 9999,
      "fzfg": false,
      "metar_trigger": false,
      "taf_trigger": false,
      "metar": "METAR LLBG 261850Z VRB03KT 9999 FEW038 14/12 Q1015 TEMPO 7000 RA FEW020TCU BKN025",
      "taf": "TAF LLBG 261706Z 2618/2718 VRB04KT 9999 SCT030"
    },
    {
      "icao": "LMML",
      "alert": "OK",
      "vis_m": 9999,
      "fzfg": false,
      "metar_trigger": false,
      "taf_trigger": false,
      "metar": "METAR LMML 261845Z 10011KT 9999 FEW025 15/11 Q1017 NOSIG",
      "taf": "TAF LMML 261700Z 2618/2718 11015KT 9999 FEW020"
    },
    {
      "icao": "LOWW",
      "alert": "OK",
      "vis_m": 9999,
      "fzfg": false,
      "metar_trigger": false,
      "taf_trigger": false,
      "metar": "METAR LOWW 261850Z 30005KT CAVOK M01/M03 Q1030 NOSIG",
      "taf": "TAF LOWW 261715Z 2618/2724 33008KT CAVOK TX02/2713Z TNM02/2702Z"
    },
    {
      "icao": "LPFR",
      "alert": "OK",
      "vis_m": 9999,
      "fzfg": false,
      "metar_trigger": false,
      "taf_trigger": false,
      "metar": "METAR LPFR 261830Z 29004KT CAVOK 12/06 Q1014",
      "taf": "TAF LPFR 261700Z 2618/2718 24007KT CAVOK"
    },
    {
      "icao": "LPMA",
      "alert": "OK",
      "vis_m": 9999,
      "fzfg": false,
      "metar_trigger": false,
      "taf_trigger": false,
      "metar": "METAR LPMA 261830Z 31004KT 250V010 9999 FEW015 17/09 Q1017",
      "taf": "TAF LPMA 261700Z 2618/2718 34008KT 9999 SCT015"
    },
    {
      "icao": "LPPR",
      "alert": "OK",
      "vis_m": 9999,
      "fzfg": false,
      "metar_trigger": false,
      "taf_trigger": false,
      "metar": "METAR LPPR 261830Z 11006KT CAVOK 09/02 Q1013",
      "taf": "TAF LPPR 261700Z 2618/2718 13007KT CAVOK"
    },
    {
      "icao": "LPPS",
      "alert": "OK",
      "vis_m": 9999,
      "fzfg": false,
      "metar_trigger": false,
      "taf_trigger": false,
      "metar": "METAR LPPS 261830Z 29019KT 9999 SCT015 17/08 Q1016",
      "taf": "TAF LPPS 261700Z 2618/2724 30015KT 9999 SCT015"
    },
    {
      "icao": "LPPT",
      "alert": "OK",
      "vis_m": 9999,
      "fzfg": false,
      "metar_trigger": false,
      "taf_trigger": false,
      "metar": "METAR LPPT 261830Z 12003KT 090V190 9999 FEW034 11/06 Q1013",
      "taf": "TAF LPPT 261700Z 2618/2724 18007KT 9999 FEW030"
    },
    {
      "icao": "LQBK",
      "alert": "OK",
      "vis_m": 9999,
      "fzfg": false,
      "metar_trigger": false,
      "taf_trigger": false,
      "metar": "METAR LQBK 261830Z VRB02KT 9999 FEW017 OVC033 02/01 Q1031 NOSIG",
      "taf": "TAF LQBK 261700Z 2618/2718 16003KT 8000 SCT012 BKN035 TX03/2713Z TNM03/2705Z"
    },
    {
      "icao": "LQSA",
      "alert": "OK",
      "vis_m": 9999,
      "fzfg": false,
      "metar_trigger": false,
      "taf_trigger": false,
      "metar": "METAR LQSA 261830Z 31005KT 9999 FEW012 OVC020 02/M01 Q1028 NOSIG",
      "taf": "TAF LQSA 261700Z 2618/2718 VRB02KT 9999 SCT015 BKN025 TX06/2713Z TNM01/2705Z"
    },
    {
      "icao": "LQTZ",
      "alert": "OK",
      "vis_m": 6000,
      "fzfg": false,
      "metar_trigger": false,
      "taf_trigger": false,
      "metar": "METAR LQTZ 261830Z 31002KT 6000 OVC009 01/01 Q1029",
      "taf": "TAF LQTZ 261700Z 2618/2718 29004KT 8000 FEW012 BKN030 TX03/2713Z TNM04/2705Z"
    },
    {
      "icao": "LRBC",
      "alert": "OK",
      "vis_m": 9999,
      "fzfg": false,
      "metar_trigger": false,
      "taf_trigger": false,
      "metar": "METAR LRBC 261830Z 01012KT 340V040 9999 BKN048 01/M01 Q1021",
      "taf": "TAF LRBC 261700Z 2618/2703 36016KT 9999 OVC040"
    },
    {
      "icao": "LRBS",
      "alert": "OK",
      "vis_m": 9999,
      "fzfg": false,
      "metar_trigger": false,
      "taf_trigger": false,
      "metar": "METAR LRBS 261830Z 25004KT CAVOK M02/M03 Q1021 NOSIG",
      "taf": "TAF LRBS 261700Z 2618/2718 24008KT CAVOK"
    },
    {
      "icao": "LRBV",
      "alert": "OK",
      "vis_m": 9999,
      "fzfg": false,
      "metar_trigger": false,
      "taf_trigger": false,
      "metar": "METAR LRBV 261830Z 29017G28KT 260V320 9999 SCT020 BKN044 BKN057 01/M03 Q1022",
      "taf": "TAF LRBV 261700Z 2618/2703 30012KT 9999 BKN020 BKN050"
    },
    {
      "icao": "LRCL",
      "alert": "OK",
      "vis_m": 9999,
      "fzfg": false,
      "metar_trigger": false,
      "taf_trigger": false,
      "metar": "METAR LRCL 261830Z 29013KT 9999 BKN044 02/M07 Q1024",
      "taf": "TAF LRCL 261700Z 2618/2703 30010KT CAVOK"
    },
    {
      "icao": "LRCV",
      "alert": "OK",
      "vis_m": 9999,
      "fzfg": false,
      "metar_trigger": false,
      "taf_trigger": false,
      "metar": "METAR LRCV 261830Z 28009KT CAVOK M01/M02 Q1021",
      "taf": "TAF LRCV 261700Z 2618/2703 29014KT 5000 BR SCT005"
    },
    {
      "icao": "LRIA",
      "alert": "OK",
      "vis_m": 9999,
      "fzfg": false,
      "metar_trigger": false,
      "taf_trigger": false,
      "metar": "METAR LRIA 261830Z 31015KT 9999 OVC014 M00/M02 Q1021",
      "taf": "TAF LRIA 261700Z 2618/2703 32017KT 9999 OVC030"
    },
    {
      "icao": "LROP",
      "alert": "OK",
      "vis_m": 8000,
      "fzfg": false,
      "metar_trigger": false,
      "taf_trigger": false,
      "metar": "METAR LROP 261830Z COR 21004KT 8000 NSC M02/M03 Q1021 NOSIG",
      "taf": "TAF LROP 261700Z 2618/2718 24008KT CAVOK"
    },
    {
      "icao": "LRSB",
      "alert": "OK",
      "vis_m": 9999,
      "fzfg": false,
      "metar_trigger": false,
      "taf_trigger": false,
      "metar": "METAR LRSB 261830Z 34008KT 9999 FEW034 OVC046 01/M01 Q1024",
      "taf": "TAF LRSB 261700Z 2618/2718 VRB04KT 9999 BKN045"
    },
    {
      "icao": "LRSM",
      "alert": "OK",
      "vis_m": 9999,
      "fzfg": false,
      "metar_trigger": false,
      "taf_trigger": false,
      "metar": "METAR LRSM 261830Z AUTO 27005KT 9999 BKN042/// 01/M02 Q1027",
      "taf": "TAF LRSM 261400Z 2615/2624 29008KT CAVOK"
    },
    {
      "icao": "LRSV",
      "alert": "OK",
      "vis_m": 9999,
      "fzfg": false,
      "metar_trigger": false,
      "taf_trigger": false,
      "metar": "METAR LRSV 261830Z 33022G33KT 9999 SCT015 BKN020 M01/M04 Q1020",
      "taf": "TAF LRSV 261700Z 2618/2703 33020KT 9999 BKN025"
    },
    {
      "icao": "LRTM",
      "alert": "OK",
      "vis_m": 9999,
      "fzfg": false,
      "metar_trigger": false,
      "taf_trigger": false,
      "metar": "METAR LRTM 261830Z AUTO 28011KT 9999 R25////// OVC049/// 02/M05 Q1024",
      "taf": "TAF LRTM 261400Z 2615/2624 26012KT CAVOK"
    },
    {
      "icao": "LRTR",
      "alert": "OK",
      "vis_m": 8000,
      "fzfg": false,
      "metar_trigger": false,
      "taf_trigger": false,
      "metar": "METAR LRTR 261830Z 11004KT 8000 BKN017 01/01 Q1028",
      "taf": "TAF LRTR 261700Z 2618/2718 VRB04KT 9999 BKN015"
    },
    {
      "icao": "LTAC",
      "alert": "OK",
      "vis_m": 9999,
      "fzfg": false,
      "metar_trigger": false,
      "taf_trigger": false,
      "metar": "METAR LTAC 261820Z 30005KT 9999 BKN030 BKN080 04/M01 Q1013 NOSIG RMK RWY21C 30005KT 240V320 RWY03L 30006KT RWY21R 29003KT RWY03R 26003KT 230V310 RWY21L 27004KT 240V300",
      "taf": "TAF LTAC 261640Z 2618/2718 VRB02KT 9999 BKN025 BKN080"
    },
    {
      "icao": "LTFM",
      "alert": "OK",
      "vis_m": 9999,
      "fzfg": false,
      "metar_trigger": false,
      "taf_trigger": false,
      "metar": "METAR LTFM 261820Z 23006G16KT 150V250 CAVOK 04/01 Q1019 NOSIG RMK RWY17L 24008KT RWY34L 24007G17KT 190V290 RWY16R 23006KT RWY36 24008KT RWY18 24008KT",
      "taf": "TAF LTFM 261640Z 2618/2724 26008KT 9999 FEW035"
    },
    {
      "icao": "LUKK",
      "alert": "OK",
      "vis_m": 9999,
      "fzfg": false,
      "metar_trigger": false,
      "taf_trigger": false,
      "metar": "METAR LUKK 261830Z 34016KT 310V010 9999 FEW016 OVC038 M01/M03 Q1018 TEMPO 35018G30KT",
      "taf": "TAF LUKK 261721Z 2618/2718 32014KT 9999 BKN015"
    },
    {
      "icao": "LWOH",
      "alert": "OK",
      "vis_m": 9999,
      "fzfg": false,
      "metar_trigger": false,
      "taf_trigger": false,
      "metar": "METAR LWOH 261850Z 32006KT 9999 SCT040 01/M00 Q1022",
      "taf": "TAF LWOH 261750Z 2618/2718 31010KT 9999 SCT040"
    },
    {
      "icao": "LWSK",
      "alert": "OK",
      "vis_m": 9999,
      "fzfg": false,
      "metar_trigger": false,
      "taf_trigger": false,
      "metar": "METAR LWSK 261850Z 02011KT 9999 FEW023 SCT050 02/M01 Q1026 NOSIG",
      "taf": "TAF LWSK 261750Z 2618/2718 01012KT 9999 SCT035"
    },
    {
      "icao": "LYBE",
      "alert": "OK",
      "vis_m": 9999,
      "fzfg": false,
      "metar_trigger": false,
      "taf_trigger": false,
      "metar": "METAR LYBE 261830Z 24006KT 9999 BKN025 01/M01 Q1029 NOSIG",
      "taf": "TAF LYBE 261700Z 2618/2718 26005KT 9999 BKN027 TX04/2713Z TNM00/2706Z"
    },
    {
      "icao": "LYNI",
      "alert": "OK",
      "vis_m": 9999,
      "fzfg": false,
      "metar_trigger": false,
      "taf_trigger": false,
      "metar": "METAR LYNI 261830Z VRB02KT 9999 OVC013 01/M01 Q1028 NOSIG",
      "taf": "TAF LYNI 261700Z 2618/2718 30007KT 9999 SCT010 OVC020 TX02/2712Z TN00/2706Z"
    },
    {
      "icao": "LYPG",
      "alert": "OK",
      "vis_m": 9999,
      "fzfg": false,
      "metar_trigger": false,
      "taf_trigger": false,
      "metar": "METAR LYPG 261830Z 35003KT 310V040 CAVOK 04/01 Q1024 NOSIG",
      "taf": "TAF LYPG 261700Z 2618/2718 34008KT CAVOK TX14/2713Z TN03/2620Z"
    },
    {
      "icao": "LZIB",
      "alert": "OK",
      "vis_m": 9999,
      "fzfg": false,
      "metar_trigger": false,
      "taf_trigger": false,
      "metar": "METAR LZIB 261830Z 26007KT CAVOK 02/M05 Q1029 NOSIG",
      "taf": "TAF LZIB 261715Z 2618/2718 29006KT 9999 FEW045"
    },
    {
      "icao": "LZKZ",
      "alert": "OK",
      "vis_m": 9999,
      "fzfg": false,
      "metar_trigger": false,
      "taf_trigger": false,
      "metar": "METAR LZKZ 261830Z 02008KT 9999 FEW028 BKN037 03/M07 Q1027 NOSIG",
      "taf": "TAF LZKZ 261715Z 2618/2718 VRB02KT 9999 FEW045"
    },
    {
      "icao": "LZTT",
      "alert": "OK",
      "vis_m": 9999,
      "fzfg": false,
      "metar_trigger": false,
      "taf_trigger": false,
      "metar": "METAR LZTT 261830Z 23004KT 200V340 9999 FEW043 M03/M07 Q1025",
      "taf": "TAF LZTT 261715Z 2618/2718 28005KT 9999 FEW070"
    },
    {
      "icao": "OEJN",
      "alert": "OK",
      "vis_m": 9999,
      "fzfg": false,
      "metar_trigger": false,
      "taf_trigger": false,
      "metar": "METAR OEJN 261800Z 35006KT CAVOK 25/22 Q1012 NOSIG",
      "taf": "TAF OEJN 261700Z 2618/2724 34008KT CAVOK"
    },
    {
      "icao": "OEMA",
      "alert": "OK",
      "vis_m": 9999,
      "fzfg": false,
      "metar_trigger": false,
      "taf_trigger": false,
      "metar": "METAR OEMA 261800Z 24002KT CAVOK 23/11 Q1014 NOSIG",
      "taf": "TAF OEMA 261700Z 2618/2724 26008KT 9999 FEW045"
    },
    {
      "icao": "OJAI",
      "alert": "OK",
      "vis_m": 4000,
      "fzfg": false,
      "metar_trigger": false,
      "taf_trigger": false,
      "metar": "METAR OJAI 261800Z 28005KT 4000 HZ NSC 10/05 Q1016 NOSIG",
      "taf": "TAF OJAI 261646Z 2618/2724 28010KT 4000 HZ FEW030"
    },
    {
      "icao": "OMAA",
      "alert": "OK",
      "vis_m": 9999,
      "fzfg": false,
      "metar_trigger": false,
      "taf_trigger": false,
      "metar": "METAR OMAA 261800Z 35004KT 280V030 CAVOK 22/17 Q1015 NOSIG",
      "taf": "TAF OMAA 261700Z 2618/2800 VRB02KT 8000 FEW030"
    },
    {
      "icao": "OMDB",
      "alert": "OK",
      "vis_m": 9999,
      "fzfg": false,
      "metar_trigger": false,
      "taf_trigger": false,
      "metar": "METAR OMDB 261830Z 09005KT CAVOK 21/15 Q1015 NOSIG",
      "taf": "TAF OMDB 261700Z 2618/2800 11005KT 8000 NSC"
    },
    {
      "icao": "UAAA",
      "alert": "OK",
      "vis_m": 1800,
      "fzfg": true,
      "metar_trigger": false,
      "taf_trigger": false,
      "metar": "METAR UAAA 261830Z 03004MPS 1800 R05R/P2000 BR BKN008 OVC034 00/M00 Q1025 TEMPO 0500 FZFG VV002",
      "taf": "TAF UAAA 261701Z 2618/2718 34003G08MPS 1100 BR BKN011CB OVC030 TX00/2709Z TNM03/2701Z"
    },
    {
      "icao": "UBBB",
      "alert": "OK",
      "vis_m": 9999,
      "fzfg": false,
      "metar_trigger": false,
      "taf_trigger": false,
      "metar": "METAR UBBB 261830Z 18004KT 9999 BKN017 06/03 Q1012 NOSIG",
      "taf": "TAF UBBB 261702Z 2618/2718 19006KT 9999 SCT035 TX09/2710Z TN03/2701Z"
    },
    {
      "icao": "UDSG",
      "alert": "OK",
      "vis_m": 1900,
      "fzfg": false,
      "metar_trigger": false,
      "taf_trigger": false,
      "metar": "METAR UDSG 261830Z 31005KT 1900 R02/P2000N BR OVC033 M02/M02 Q1011 NOSIG",
      "taf": "TAF UDSG 261658Z 2618/2718 VRB06KT 3000 BR OVC020"
    },
    {
      "icao": "UDYZ",
      "alert": "OK",
      "vis_m": 1900,
      "fzfg": false,
      "metar_trigger": false,
      "taf_trigger": false,
      "metar": "METAR UDYZ 261830Z 00000KT 1900 R08/P2000N BR BKN046 01/M02 Q1012 NOSIG",
      "taf": "TAF UDYZ 261700Z 2618/2718 VRB06KT 2000 BR BKN030"
    },
    {
      "icao": "UGKO",
      "alert": "OK",
      "vis_m": 9999,
      "fzfg": false,
      "metar_trigger": false,
      "taf_trigger": false,
      "metar": "METAR UGKO 261830Z VRB02KT 9999 SCT024CB OVC030 05/04 Q1013 NOSIG",
      "taf": "TAF UGKO 261700Z 2618/2718 24007KT 9999 OVC050 TX06/2711Z TN02/2717Z"
    }
  ]
}