{
  "ts_utc": "2025-12-24T13:53:04Z",
  "threshold_m": 150,
  "source": "stations_override.txt (ICAO list) + aviationweather.gov (METAR/TAF raw)",
  "station_count": 159,
  "stations": [
    {
      "icao": "BIKF",
      "alert": "OK",
      "vis_m": 5000,
      "fzfg": false,
      "metar_trigger": false,
      "taf_trigger": false,
      "metar": "METAR BIKF 241330Z 19033KT 5000 -DZRA BR OVC007 09/08 Q1012",
      "taf": "TAF BIKF 241331Z 2415/2515 18030G40KT 7000 RADZ SCT010 BKN014 TX09/2415Z TN07/2512Z"
    },
    {
      "icao": "BKPR",
      "alert": "OK",
      "vis_m": 9999,
      "fzfg": false,
      "metar_trigger": false,
      "taf_trigger": false,
      "metar": "METAR BKPR 241330Z 10003KT 050V140 9999 SCT014 BKN050 08/06 Q1014 NOSIG",
      "taf": "TAF BKPR 241130Z 2412/2512 15007KT 9999 SCT012 BKN025"
    },
    {
      "icao": "EBCI",
      "alert": "OK",
      "vis_m": 9999,
      "fzfg": false,
      "metar_trigger": false,
      "taf_trigger": false,
      "metar": "METAR EBCI 241320Z 05017KT 9999 FEW024 01/M04 Q1027 TEMPO 05017G27KT",
      "taf": "TAF EBCI 241120Z 2412/2518 05013KT 9999 FEW025"
    },
    {
      "icao": "EDDB",
      "alert": "OK",
      "vis_m": 9999,
      "fzfg": false,
      "metar_trigger": false,
      "taf_trigger": false,
      "metar": "METAR EDDB 241320Z AUTO 07014KT CAVOK M03/M08 Q1035 NOSIG",
      "taf": "TAF EDDB 241100Z 2412/2512 06010KT CAVOK"
    },
    {
      "icao": "EDDH",
      "alert": "OK",
      "vis_m": 9999,
      "fzfg": false,
      "metar_trigger": false,
      "taf_trigger": false,
      "metar": "METAR EDDH 241320Z AUTO 07015KT 030V090 9999 FEW024 02/M03 Q1036 NOSIG",
      "taf": ""
    },
    {
      "icao": "EDDK",
      "alert": "OK",
      "vis_m": 9999,
      "fzfg": false,
      "metar_trigger": false,
      "taf_trigger": false,
      "metar": "METAR EDDK 241320Z AUTO 06014KT CAVOK 03/M07 Q1028 NOSIG",
      "taf": "TAF EDDK 241100Z 2412/2518 06012KT CAVOK"
    },
    {
      "icao": "EDDN",
      "alert": "OK",
      "vis_m": 9999,
      "fzfg": false,
      "metar_trigger": false,
      "taf_trigger": false,
      "metar": "METAR EDDN 241320Z AUTO 06013KT 020V090 9999 OVC033 01/M06 Q1023 TEMPO 06015G25KT",
      "taf": "TAF EDDN 241100Z 2412/2512 06015G25KT 9999 BKN035"
    },
    {
      "icao": "EDDS",
      "alert": "OK",
      "vis_m": 9999,
      "fzfg": false,
      "metar_trigger": false,
      "taf_trigger": false,
      "metar": "METAR EDDS 241320Z AUTO 05015KT 9999 -SN BKN019 BKN025 OVC043 M00/M04 Q1019 TEMPO 06015G25KT 4000 BKN008",
      "taf": "TAF EDDS 241100Z 2412/2512 05015G25KT 9999 FEW010 BKN020"
    },
    {
      "icao": "EDFH",
      "alert": "OK",
      "vis_m": 9999,
      "fzfg": false,
      "metar_trigger": false,
      "taf_trigger": false,
      "metar": "METAR EDFH 241320Z 05021G31KT 9999 BKN029 BKN034 M01/M07 Q1023",
      "taf": ""
    },
    {
      "icao": "EDJA",
      "alert": "OK",
      "vis_m": 8000,
      "fzfg": false,
      "metar_trigger": false,
      "taf_trigger": false,
      "metar": "METAR EDJA 241320Z COR 05018KT 8000 OVC009 M02/M03 Q1015",
      "taf": "TAF EDJA 241100Z 2412/2421 05015G25KT 6000 OVC007"
    },
    {
      "icao": "EDLW",
      "alert": "OK",
      "vis_m": 9999,
      "fzfg": false,
      "metar_trigger": false,
      "taf_trigger": false,
      "metar": "METAR EDLW 241320Z 03015KT CAVOK M00/M06 Q1030",
      "taf": "TAF EDLW 241100Z 2412/2512 05011KT CAVOK"
    },
    {
      "icao": "EDNY",
      "alert": "OK",
      "vis_m": 9999,
      "fzfg": false,
      "metar_trigger": false,
      "taf_trigger": false,
      "metar": "METAR EDNY 241320Z 04021G31KT 9999 BKN019 OVC026 01/M03 Q1015",
      "taf": "TAF EDNY 241100Z 2412/2421 04015KT 9999 BKN020"
    },
    {
      "icao": "EDSB",
      "alert": "OK",
      "vis_m": 9999,
      "fzfg": false,
      "metar_trigger": false,
      "taf_trigger": false,
      "metar": "METAR EDSB 241320Z 05017KT 9999 FEW035 OVC041 03/M04 Q1020",
      "taf": "TAF EDSB 241100Z 2412/2512 04020G30KT 9999 SCT020 OVC030"
    },
    {
      "icao": "EETN",
      "alert": "OK",
      "vis_m": 9999,
      "fzfg": false,
      "metar_trigger": false,
      "taf_trigger": false,
      "metar": "METAR EETN 241350Z 29009KT 9999 OVC011 01/M01 Q1032 NOSIG",
      "taf": "TAF EETN 241130Z 2412/2512 30012KT 9999 BKN015"
    },
    {
      "icao": "EFTU",
      "alert": "OK",
      "vis_m": 9999,
      "fzfg": false,
      "metar_trigger": false,
      "taf_trigger": false,
      "metar": "METAR EFTU 241350Z AUTO 30003KT 9999 OVC009 00/M01 Q1033",
      "taf": "TAF EFTU 241131Z 2412/2512 30006KT 9999 OVC007"
    },
    {
      "icao": "EGBB",
      "alert": "OK",
      "vis_m": 9999,
      "fzfg": false,
      "metar_trigger": false,
      "taf_trigger": false,
      "metar": "METAR EGBB 241320Z 08015KT 9999 BKN029 05/M01 Q1035",
      "taf": "TAF EGBB 241103Z 2412/2512 07012KT 9999 SCT020"
    },
    {
      "icao": "EGGP",
      "alert": "OK",
      "vis_m": 9999,
      "fzfg": false,
      "metar_trigger": false,
      "taf_trigger": false,
      "metar": "METAR EGGP 241320Z 11010KT 080V140 9999 FEW030 05/M01 Q1037",
      "taf": "TAF EGGP 241054Z 2412/2512 12012KT 9999 SCT025"
    },
    {
      "icao": "EGGW",
      "alert": "OK",
      "vis_m": 9999,
      "fzfg": false,
      "metar_trigger": false,
      "taf_trigger": false,
      "metar": "METAR EGGW 241320Z AUTO 07015KT 9999 FEW028 04/M01 Q1033",
      "taf": "TAF EGGW 241056Z 2412/2512 06013KT 9999 SCT025"
    },
    {
      "icao": "EGKK",
      "alert": "OK",
      "vis_m": 9999,
      "fzfg": false,
      "metar_trigger": false,
      "taf_trigger": false,
      "metar": "METAR EGKK 241320Z 06020KT 9999 FEW032 05/M01 Q1031",
      "taf": "TAF EGKK 241103Z 2412/2518 06018G30KT 9999 SCT025"
    },
    {
      "icao": "EGNM",
      "alert": "OK",
      "vis_m": 9999,
      "fzfg": false,
      "metar_trigger": false,
      "taf_trigger": false,
      "metar": "METAR EGNM 241320Z 08012KT 9999 BKN029 05/M00 Q1037",
      "taf": "TAF EGNM 241055Z 2412/2512 07008KT 9999 SCT025"
    },
    {
      "icao": "EGPD",
      "alert": "OK",
      "vis_m": 9999,
      "fzfg": false,
      "metar_trigger": false,
      "taf_trigger": false,
      "metar": "METAR EGPD 241320Z COR AUTO 20005KT 9999 OVC027 07/03 Q1040 NOSIG",
      "taf": "TAF EGPD 241054Z 2412/2512 20004KT 9999 SCT030"
    },
    {
      "icao": "EGPF",
      "alert": "OK",
      "vis_m": 9999,
      "fzfg": false,
      "metar_trigger": false,
      "taf_trigger": false,
      "metar": "METAR EGPF 241320Z AUTO VRB01KT 9999 NCD 07/03 Q1040",
      "taf": "TAF EGPF 241057Z 2412/2512 09005KT 9999 FEW025"
    },
    {
      "icao": "EHBK",
      "alert": "OK",
      "vis_m": 9999,
      "fzfg": false,
      "metar_trigger": false,
      "taf_trigger": false,
      "metar": "METAR EHBK 241325Z AUTO 05018KT 9999 FEW023/// 01/M04 Q1028 NOSIG",
      "taf": ""
    },
    {
      "icao": "EHEH",
      "alert": "OK",
      "vis_m": 9999,
      "fzfg": false,
      "metar_trigger": false,
      "taf_trigger": false,
      "metar": "METAR EHEH 241325Z AUTO 06014KT 030V090 9999 NCD 02/M04 Q1031 BLU TEMPO 06015G25KT RMK TREND REMOTE BY EHWX",
      "taf": ""
    },
    {
      "icao": "EKBI",
      "alert": "OK",
      "vis_m": 9999,
      "fzfg": false,
      "metar_trigger": false,
      "taf_trigger": false,
      "metar": "METAR EKBI 241320Z AUTO 06006KT 030V090 9999 BKN026/// 02/M04 Q1040",
      "taf": "TAF EKBI 241127Z 2412/2512 05008KT 9999 BKN025"
    },
    {
      "icao": "EKCH",
      "alert": "OK",
      "vis_m": 9999,
      "fzfg": false,
      "metar_trigger": false,
      "taf_trigger": false,
      "metar": "METAR EKCH 241320Z AUTO 04009KT 9999 BKN033/// 01/M04 Q1040 NOSIG",
      "taf": "TAF EKCH 241127Z 2412/2512 05010KT 9999 SCT030"
    },
    {
      "icao": "ENAL",
      "alert": "OK",
      "vis_m": 9999,
      "fzfg": false,
      "metar_trigger": false,
      "taf_trigger": false,
      "metar": "METAR ENAL 241320Z 20010KT 9999 SCT030 BKN062 08/02 Q1038",
      "taf": "TAF ENAL 241100Z 2412/2421 20015KT 9999 BKN040"
    },
    {
      "icao": "ENBR",
      "alert": "OK",
      "vis_m": 9999,
      "fzfg": false,
      "metar_trigger": false,
      "taf_trigger": false,
      "metar": "METAR ENBR 241320Z 08001KT 9999 BKN030 04/02 Q1042 NOSIG RMK WIND 1200FT VRB02KT",
      "taf": "TAF ENBR 241100Z 2412/2512 09005KT 9999 BKN035"
    },
    {
      "icao": "ENGM",
      "alert": "OK",
      "vis_m": 9999,
      "fzfg": false,
      "metar_trigger": false,
      "taf_trigger": false,
      "metar": "METAR ENGM 241320Z VRB01KT CAVOK M05/M07 Q1039 NOSIG",
      "taf": "TAF ENGM 241100Z 2412/2512 VRB03KT CAVOK"
    },
    {
      "icao": "ENHD",
      "alert": "OK",
      "vis_m": 9999,
      "fzfg": false,
      "metar_trigger": false,
      "taf_trigger": false,
      "metar": "METAR ENHD 241320Z AUTO 02005KT 9999 NCD 04/01 Q1041",
      "taf": "TAF ENHD 241100Z 2412/2421 06005KT 9999 FEW030"
    },
    {
      "icao": "ENTC",
      "alert": "OK",
      "vis_m": 9999,
      "fzfg": false,
      "metar_trigger": false,
      "taf_trigger": false,
      "metar": "METAR ENTC 241320Z 21020KT 9999 FEW040 05/01 Q1018 NOSIG RMK WIND 2600FT 21024KT",
      "taf": "TAF ENTC 241100Z 2412/2512 22015KT 9999 FEW020 BKN030"
    },
    {
      "icao": "ENTO",
      "alert": "OK",
      "vis_m": 9999,
      "fzfg": false,
      "metar_trigger": false,
      "taf_trigger": false,
      "metar": "METAR ENTO 241320Z 36003KT CAVOK M04/M07 Q1040 NOSIG",
      "taf": "TAF ENTO 241100Z 2412/2512 35005KT CAVOK"
    },
    {
      "icao": "ENVA",
      "alert": "OK",
      "vis_m": 9999,
      "fzfg": false,
      "metar_trigger": false,
      "taf_trigger": false,
      "metar": "METAR ENVA 241320Z 08005KT 9999 OVC026 00/M00 Q1036 TEMPO 4000 RASN BKN014 RMK WIND 670FT 22006KT",
      "taf": ""
    },
    {
      "icao": "ENZV",
      "alert": "OK",
      "vis_m": 9999,
      "fzfg": false,
      "metar_trigger": false,
      "taf_trigger": false,
      "metar": "METAR ENZV 241320Z 32002KT CAVOK 02/M01 Q1041 NOSIG",
      "taf": "TAF ENZV 241100Z 2412/2512 VRB03KT 9999 FEW030"
    },
    {
      "icao": "EPGD",
      "alert": "OK",
      "vis_m": 9999,
      "fzfg": false,
      "metar_trigger": false,
      "taf_trigger": false,
      "metar": "METAR EPGD 241330Z 08009KT 9999 FEW025 M04/M09 Q1038",
      "taf": "TAF EPGD 241130Z 2412/2512 10012KT CAVOK"
    },
    {
      "icao": "EPKK",
      "alert": "OK",
      "vis_m": 9999,
      "fzfg": false,
      "metar_trigger": false,
      "taf_trigger": false,
      "metar": "METAR EPKK 241330Z 06016KT 9999 BKN015 M03/M07 Q1031",
      "taf": "TAF EPKK 241130Z 2412/2512 05014KT 9999 BKN017"
    },
    {
      "icao": "EPKT",
      "alert": "OK",
      "vis_m": 9999,
      "fzfg": false,
      "metar_trigger": false,
      "taf_trigger": false,
      "metar": "METAR EPKT 241330Z 05012KT 9999 BKN014 M03/M07 Q1031",
      "taf": "TAF EPKT 241130Z 2412/2512 07014KT 9999 OVC018"
    },
    {
      "icao": "EPLB",
      "alert": "OK",
      "vis_m": 9999,
      "fzfg": false,
      "metar_trigger": false,
      "taf_trigger": false,
      "metar": "METAR EPLB 241330Z 07009KT CAVOK M07/M11 Q1035",
      "taf": "TAF EPLB 241130Z 2412/2512 06010KT 9999 SCT018"
    },
    {
      "icao": "EPMO",
      "alert": "OK",
      "vis_m": 9999,
      "fzfg": false,
      "metar_trigger": false,
      "taf_trigger": false,
      "metar": "METAR EPMO 241330Z 07009KT CAVOK M06/M11 Q1037",
      "taf": "TAF EPMO 241130Z 2412/2512 07010KT 9999 FEW020"
    },
    {
      "icao": "EPPO",
      "alert": "OK",
      "vis_m": 9999,
      "fzfg": false,
      "metar_trigger": false,
      "taf_trigger": false,
      "metar": "METAR EPPO 241330Z 07009KT CAVOK M05/M11 Q1036",
      "taf": "TAF EPPO 241130Z 2412/2512 07010KT CAVOK"
    },
    {
      "icao": "EPRA",
      "alert": "OK",
      "vis_m": 9999,
      "fzfg": false,
      "metar_trigger": false,
      "taf_trigger": false,
      "metar": "METAR EPRA 241330Z 05008KT 9999 FEW019 M07/M11 Q1035",
      "taf": "TAF EPRA 241130Z 2412/2421 06010KT 9999 BKN014"
    },
    {
      "icao": "EPRZ",
      "alert": "OK",
      "vis_m": 9999,
      "fzfg": false,
      "metar_trigger": false,
      "taf_trigger": false,
      "metar": "METAR EPRZ 241330Z 06014KT 9999 OVC012 M04/M07 Q1032",
      "taf": "TAF EPRZ 241130Z 2412/2512 05013KT 9999 OVC013"
    },
    {
      "icao": "EPSC",
      "alert": "OK",
      "vis_m": 9999,
      "fzfg": false,
      "metar_trigger": false,
      "taf_trigger": false,
      "metar": "METAR EPSC 241330Z 07005KT 020V100 CAVOK M04/M10 Q1037",
      "taf": "TAF EPSC 241130Z 2412/2512 07007KT CAVOK"
    },
    {
      "icao": "EPSY",
      "alert": "OK",
      "vis_m": 9999,
      "fzfg": false,
      "metar_trigger": false,
      "taf_trigger": false,
      "metar": "METAR EPSY 241330Z 09003KT 050V130 CAVOK M06/M11 Q1038",
      "taf": "TAF EPSY 241130Z 2412/2421 10006KT 9999 SCT020"
    },
    {
      "icao": "EPWA",
      "alert": "OK",
      "vis_m": 9999,
      "fzfg": false,
      "metar_trigger": false,
      "taf_trigger": false,
      "metar": "METAR EPWA 241330Z 05008KT 020V080 CAVOK M06/M11 Q1037 NOSIG",
      "taf": "TAF EPWA 241130Z 2412/2512 06010KT 9999 SCT020"
    },
    {
      "icao": "EPWR",
      "alert": "OK",
      "vis_m": 9999,
      "fzfg": false,
      "metar_trigger": false,
      "taf_trigger": false,
      "metar": "METAR EPWR 241330Z 06009KT 9999 BKN018 M03/M07 Q1033",
      "taf": "TAF EPWR 241130Z 2412/2512 07014KT 9999 SCT020"
    },
    {
      "icao": "ESGG",
      "alert": "OK",
      "vis_m": 9999,
      "fzfg": false,
      "metar_trigger": false,
      "taf_trigger": false,
      "metar": "METAR ESGG 241320Z 00000KT 9999 BKN013 M01/M03 Q1039",
      "taf": "TAF ESGG 241130Z 2412/2512 VRB03KT 9999 OVC008"
    },
    {
      "icao": "ESKN",
      "alert": "OK",
      "vis_m": 9999,
      "fzfg": false,
      "metar_trigger": false,
      "taf_trigger": false,
      "metar": "METAR ESKN 241320Z 27011KT 9999 BKN009 M02/M04 Q1037",
      "taf": "TAF ESKN 241130Z 2412/2512 29009KT 9999 BKN009"
    },
    {
      "icao": "ESMS",
      "alert": "OK",
      "vis_m": 9999,
      "fzfg": false,
      "metar_trigger": false,
      "taf_trigger": false,
      "metar": "METAR ESMS 241320Z 01006KT 9999 BKN029 00/M05 Q1039",
      "taf": "TAF ESMS 241127Z 2412/2512 03008KT 9999 BKN030"
    },
    {
      "icao": "ESSA",
      "alert": "OK",
      "vis_m": 9999,
      "fzfg": false,
      "metar_trigger": false,
      "taf_trigger": false,
      "metar": "METAR ESSA 241320Z 28006KT CAVOK M03/M05 Q1036 NOSIG",
      "taf": "TAF ESSA 241130Z 2412/2512 27008KT CAVOK"
    },
    {
      "icao": "EYKA",
      "alert": "OK",
      "vis_m": 9999,
      "fzfg": false,
      "metar_trigger": false,
      "taf_trigger": false,
      "metar": "METAR EYKA 241350Z 24005KT 200V260 9999 OVC038 M04/M08 Q1038",
      "taf": "TAF EYKA 241100Z 2412/2512 VRB04KT 7000 OVC035"
    },
    {
      "icao": "EYPA",
      "alert": "OK",
      "vis_m": 9999,
      "fzfg": false,
      "metar_trigger": false,
      "taf_trigger": false,
      "metar": "METAR EYPA 241350Z 20004KT 170V280 9999 OVC030 M00/M05 Q1039",
      "taf": "TAF EYPA 241100Z 2412/2512 VRB05KT 7000 OVC035"
    },
    {
      "icao": "EYVI",
      "alert": "OK",
      "vis_m": 9999,
      "fzfg": false,
      "metar_trigger": false,
      "taf_trigger": false,
      "metar": "METAR EYVI 241350Z 30004KT 9999 OVC032 M06/M09 Q1037 NOSIG",
      "taf": "TAF EYVI 241100Z 2412/2512 VRB04KT 8000 BKN035"
    },
    {
      "icao": "GCFV",
      "alert": "OK",
      "vis_m": 9999,
      "fzfg": false,
      "metar_trigger": false,
      "taf_trigger": false,
      "metar": "METAR GCFV 241330Z 28016KT 150V310 9999 FEW025 SCT044 22/13 Q1014",
      "taf": "TAF GCFV 240800Z 2409/2509 30005KT 9999 SCT040 TX21/2414Z TN15/2506Z"
    },
    {
      "icao": "GCLP",
      "alert": "OK",
      "vis_m": 9999,
      "fzfg": false,
      "metar_trigger": false,
      "taf_trigger": false,
      "metar": "METAR GCLP 241330Z 17008KT 130V200 9999 FEW035 22/11 Q1015 NOSIG",
      "taf": ""
    },
    {
      "icao": "GCTS",
      "alert": "OK",
      "vis_m": 9999,
      "fzfg": false,
      "metar_trigger": false,
      "taf_trigger": false,
      "metar": "METAR GCTS 241330Z 15006KT 110V210 9999 FEW040 21/11 Q1016 NOSIG",
      "taf": "TAF GCTS 240800Z 2409/2509 VRB05KT 9999 FEW040 TX24/2414Z TN15/2506Z"
    },
    {
      "icao": "GMAD",
      "alert": "OK",
      "vis_m": 2000,
      "fzfg": false,
      "metar_trigger": false,
      "taf_trigger": false,
      "metar": "METAR GMAD 241330Z 03007KT 2000 R27/0750N -RA SCT006 SCT020 BKN033 13/13 Q1011 NOSIG",
      "taf": "TAF GMAD 241100Z 2412/2518 22008KT 8000 SCT010 BKN016"
    },
    {
      "icao": "GMMN",
      "alert": "OK",
      "vis_m": 9999,
      "fzfg": false,
      "metar_trigger": false,
      "taf_trigger": false,
      "metar": "METAR GMMN 241330Z 26010KT 220V280 9999 BKN014 16/12 Q1008 NOSIG",
      "taf": "TAF GMMN 241100Z 2412/2518 24013KT 9999 SCT010 BKN020"
    },
    {
      "icao": "GMMX",
      "alert": "OK",
      "vis_m": 9999,
      "fzfg": false,
      "metar_trigger": false,
      "taf_trigger": false,
      "metar": "METAR GMMX 241330Z 28014KT 250V310 9999 BKN016 FEW023CB 16/13 Q1009 NOSIG",
      "taf": "TAF GMMX 241100Z 2412/2518 24010KT 6000 SCT016 BKN020"
    },
    {
      "icao": "HEGN",
      "alert": "OK",
      "vis_m": 9999,
      "fzfg": false,
      "metar_trigger": false,
      "taf_trigger": false,
      "metar": "METAR HEGN 241300Z 02004KT CAVOK 23/08 Q1016 NOSIG",
      "taf": "TAF HEGN 241100Z 2412/2518 34012KT CAVOK"
    },
    {
      "icao": "HEMA",
      "alert": "OK",
      "vis_m": 9999,
      "fzfg": false,
      "metar_trigger": false,
      "taf_trigger": false,
      "metar": "METAR HEMA 241300Z 34014KT CAVOK 22/13 Q1015 NOSIG",
      "taf": "TAF HEMA 241100Z 2412/2518 35014KT CAVOK"
    },
    {
      "icao": "HESH",
      "alert": "OK",
      "vis_m": 9999,
      "fzfg": false,
      "metar_trigger": false,
      "taf_trigger": false,
      "metar": "METAR HESH 241300Z 36008KT CAVOK 24/07 Q1016 NOSIG",
      "taf": "TAF HESH 241100Z 2412/2518 01012KT CAVOK"
    },
    {
      "icao": "HESX",
      "alert": "OK",
      "vis_m": 9999,
      "fzfg": false,
      "metar_trigger": false,
      "taf_trigger": false,
      "metar": "METAR HESX 241300Z 06010KT CAVOK 20/07 Q1017 NOSIG",
      "taf": "TAF HESX 241100Z 2412/2518 01008KT CAVOK"
    },
    {
      "icao": "LATI",
      "alert": "OK",
      "vis_m": 9999,
      "fzfg": false,
      "metar_trigger": false,
      "taf_trigger": false,
      "metar": "METAR LATI 241350Z 17004KT 9999 FEW150 15/05 Q1012 NOSIG",
      "taf": "TAF LATI 241100Z 2412/2512 16008KT 9999 FEW040 SCT080 TX17/2412Z TN03/2505Z"
    },
    {
      "icao": "LBPD",
      "alert": "OK",
      "vis_m": 8000,
      "fzfg": false,
      "metar_trigger": false,
      "taf_trigger": false,
      "metar": "METAR LBPD 241330Z AUTO 29002KT 8000 -RA OVC007/// 06/06 Q1020 NOSIG",
      "taf": "TAF LBPD 241100Z 2412/2512 09008KT 3000 RA BKN006 OVC015"
    },
    {
      "icao": "LBSF",
      "alert": "OK",
      "vis_m": 9999,
      "fzfg": false,
      "metar_trigger": false,
      "taf_trigger": false,
      "metar": "METAR LBSF 241330Z 12013KT 9999 -DZ SCT016 BKN020 OVC049 04/02 Q1018 NOSIG",
      "taf": "TAF LBSF 241100Z 2412/2512 11014KT 7000 RA BKN010 OVC020"
    },
    {
      "icao": "LBWN",
      "alert": "OK",
      "vis_m": 9999,
      "fzfg": false,
      "metar_trigger": false,
      "taf_trigger": false,
      "metar": "METAR LBWN 241330Z AUTO 09008KT 9999 -RA FEW025/// BKN037/// 10/07 Q1022 NOSIG",
      "taf": "TAF LBWN 241100Z 2412/2512 11008KT 9999 BKN025 OVC040"
    },
    {
      "icao": "LCLK",
      "alert": "OK",
      "vis_m": 9999,
      "fzfg": false,
      "metar_trigger": false,
      "taf_trigger": false,
      "metar": "METAR LCLK 241330Z 07011KT 9999 -SHRA FEW028TCU SCT030 BKN042 19/14 Q1020 NOSIG RMK RAIN",
      "taf": "TAF LCLK 241130Z 2412/2512 08010KT 9999 FEW025"
    },
    {
      "icao": "LCPH",
      "alert": "OK",
      "vis_m": 9999,
      "fzfg": false,
      "metar_trigger": false,
      "taf_trigger": false,
      "metar": "METAR LCPH 241330Z 16008KT 9999 FEW030 20/14 Q1019 NOSIG",
      "taf": "TAF LCPH 241130Z 2412/2512 15010KT 9999 FEW025"
    },
    {
      "icao": "LEAL",
      "alert": "OK",
      "vis_m": 9999,
      "fzfg": false,
      "metar_trigger": false,
      "taf_trigger": false,
      "metar": "METAR LEAL 241330Z 12004KT 050V170 9999 FEW040 16/07 Q1007 NOSIG",
      "taf": "TAF LEAL 241100Z 2412/2512 32009KT 9999 FEW030 TX16/2412Z TN05/2506Z"
    },
    {
      "icao": "LEBB",
      "alert": "OK",
      "vis_m": 6000,
      "fzfg": false,
      "metar_trigger": false,
      "taf_trigger": false,
      "metar": "METAR LEBB 241330Z 35005KT 6000 -DZ SCT013 OVC017 09/08 Q1013 TEMPO 3000 RA BR",
      "taf": ""
    },
    {
      "icao": "LEBL",
      "alert": "OK",
      "vis_m": 9999,
      "fzfg": false,
      "metar_trigger": false,
      "taf_trigger": false,
      "metar": "METAR LEBL 241330Z 33010G21KT 300V010 CAVOK 15/07 Q1005 NOSIG",
      "taf": "TAF LEBL 241100Z 2412/2512 34008KT 9999 SCT025 TX15/2413Z TN09/2506Z"
    },
    {
      "icao": "LECH",
      "alert": "OK",
      "vis_m": 9999,
      "fzfg": false,
      "metar_trigger": false,
      "taf_trigger": false,
      "metar": "METAR LECH 241330Z AUTO VRB01KT CAVOK 14/02 Q1006",
      "taf": ""
    },
    {
      "icao": "LEMD",
      "alert": "OK",
      "vis_m": 9999,
      "fzfg": false,
      "metar_trigger": false,
      "taf_trigger": false,
      "metar": "METAR LEMD 241330Z 32002KT 9999 SCT034 10/02 Q1008 NOSIG",
      "taf": "TAF LEMD 241100Z 2412/2518 VRB03KT 9999 SCT040 TX10/2415Z TNM00/2506Z"
    },
    {
      "icao": "LEMG",
      "alert": "OK",
      "vis_m": 9999,
      "fzfg": false,
      "metar_trigger": false,
      "taf_trigger": false,
      "metar": "METAR LEMG 241330Z 30003KT 260V320 9999 VCSH FEW015 SCT022 FEW025TCU 13/11 Q1006 NOSIG",
      "taf": "TAF LEMG 241100Z 2412/2512 VRB03KT 9999 FEW030 TX14/2414Z TN07/2506Z"
    },
    {
      "icao": "LEVC",
      "alert": "OK",
      "vis_m": 9999,
      "fzfg": false,
      "metar_trigger": false,
      "taf_trigger": false,
      "metar": "METAR LEVC 241330Z 20003KT 150V290 9999 FEW035 15/03 Q1007 NOSIG",
      "taf": "TAF LEVC 241100Z 2412/2512 27007KT 9999 FEW020 TX15/2412Z TN04/2506Z"
    },
    {
      "icao": "LEXJ",
      "alert": "OK",
      "vis_m": 4300,
      "fzfg": false,
      "metar_trigger": false,
      "taf_trigger": false,
      "metar": "SPECI LEXJ 241337Z 05006KT 350V110 4300 -RA BR BKN014 OVC025 09/07 Q1014",
      "taf": "TAF LEXJ 240800Z 2409/2509 03009KT 9999 SCT015 BKN025 TX11/2415Z TN04/2507Z"
    },
    {
      "icao": "LEZG",
      "alert": "OK",
      "vis_m": 9999,
      "fzfg": false,
      "metar_trigger": false,
      "taf_trigger": false,
      "metar": "METAR LEZG 241330Z 30017KT 270V330 9999 BKN030 12/06 Q1008 NOSIG",
      "taf": "TAF LEZG 241100Z 2412/2512 29010KT 9999 FEW080 TX11/2414Z TN03/2506Z"
    },
    {
      "icao": "LEZL",
      "alert": "OK",
      "vis_m": 9999,
      "fzfg": false,
      "metar_trigger": false,
      "taf_trigger": false,
      "metar": "METAR LEZL 241330Z VRB02KT 9999 SCT020 SCT030 14/09 Q1007 NOSIG",
      "taf": "TAF LEZL 240800Z 2409/2509 04005KT 9999 FEW040 TX14/2415Z TN06/2507Z"
    },
    {
      "icao": "LFBD",
      "alert": "OK",
      "vis_m": 9999,
      "fzfg": false,
      "metar_trigger": false,
      "taf_trigger": false,
      "metar": "METAR LFBD 241330Z AUTO 04016KT 9999 OVC023 05/01 Q1013 TEMPO 03015G25KT",
      "taf": "TAF LFBD 241100Z 2412/2518 02010KT 9999 BKN019 TX07/2414Z TNM02/2507Z"
    },
    {
      "icao": "LFLL",
      "alert": "OK",
      "vis_m": 9999,
      "fzfg": false,
      "metar_trigger": false,
      "taf_trigger": false,
      "metar": "METAR LFLL 241330Z AUTO 35014KT 9999 FEW022 OVC039 04/01 Q1010",
      "taf": "TAF LFLL 240500Z 2406/2512 35009KT 9999 OVC009"
    },
    {
      "icao": "LFLS",
      "alert": "OK",
      "vis_m": 9999,
      "fzfg": false,
      "metar_trigger": false,
      "taf_trigger": false,
      "metar": "METAR LFLS 241330Z AUTO 35004KT 9999 BKN010 BKN015 OVC026 02/01 Q1010",
      "taf": "TAF LFLS 240200Z 2403/2503 36008KT 9999 SCT006 OVC020"
    },
    {
      "icao": "LFMN",
      "alert": "OK",
      "vis_m": 9999,
      "fzfg": false,
      "metar_trigger": false,
      "taf_trigger": false,
      "metar": "METAR LFMN 241330Z VRB05KT 9999 BKN033 BKN090 14/09 Q1003 BECMG 09025KT",
      "taf": "TAF LFMN 240800Z 2409/2515 34012KT 9999 SCT080"
    },
    {
      "icao": "LFOB",
      "alert": "OK",
      "vis_m": 9999,
      "fzfg": false,
      "metar_trigger": false,
      "taf_trigger": false,
      "metar": "METAR LFOB 241330Z AUTO 05020KT 9999 SCT025 02/M03 Q1025 BECMG 05015G25KT",
      "taf": "TAF LFOB 241100Z 2412/2512 05015G25KT 9999 SCT025"
    },
    {
      "icao": "LFPO",
      "alert": "OK",
      "vis_m": 9999,
      "fzfg": false,
      "metar_trigger": false,
      "taf_trigger": false,
      "metar": "METAR LFPO 241330Z AUTO 04018KT 9999 BKN029 03/M03 Q1022 TEMPO 05015G30KT",
      "taf": "TAF LFPO 241100Z 2412/2518 05018KT 9999 BKN025"
    },
    {
      "icao": "LFSB",
      "alert": "OK",
      "vis_m": 9999,
      "fzfg": false,
      "metar_trigger": false,
      "taf_trigger": false,
      "metar": "METAR LFSB 241330Z AUTO 02014KT 340V040 9999 BKN037 OVC045 02/M02 Q1015 TEMPO 01017G27KT",
      "taf": "TAF LFSB 241100Z 2412/2512 36012KT 9999 OVC035"
    },
    {
      "icao": "LGAV",
      "alert": "OK",
      "vis_m": 9000,
      "fzfg": false,
      "metar_trigger": false,
      "taf_trigger": false,
      "metar": "METAR LGAV 241320Z 07004KT 040V100 9000 -RA FEW015 BKN025 15/12 Q1015 NOSIG",
      "taf": "TAF LGAV 241100Z 2412/2512 18010KT 9999 FEW015 BKN025 BKN070"
    },
    {
      "icao": "LGTS",
      "alert": "OK",
      "vis_m": 5000,
      "fzfg": false,
      "metar_trigger": false,
      "taf_trigger": false,
      "metar": "METAR LGTS 241320Z 27003KT 5000 2000SE RA SCT006 BKN020 12/12 Q1016 NOSIG",
      "taf": "TAF LGTS 241100Z 2412/2512 11015KT 8000 FEW012 BKN025"
    },
    {
      "icao": "LHBP",
      "alert": "OK",
      "vis_m": 9999,
      "fzfg": false,
      "metar_trigger": false,
      "taf_trigger": false,
      "metar": "METAR LHBP 241330Z 05009KT 010V070 CAVOK 05/M02 Q1022 NOSIG",
      "taf": "TAF LHBP 241115Z 2412/2512 05007KT 9999 SCT035 BKN070"
    },
    {
      "icao": "LHDC",
      "alert": "OK",
      "vis_m": 9999,
      "fzfg": false,
      "metar_trigger": false,
      "taf_trigger": false,
      "metar": "METAR LHDC 241315Z AUTO 05016KT CAVOK 06/M01 Q1022 NOSIG",
      "taf": "TAF LHDC 241115Z 2412/2421 04018G28KT CAVOK"
    },
    {
      "icao": "LIBD",
      "alert": "OK",
      "vis_m": 9999,
      "fzfg": false,
      "metar_trigger": false,
      "taf_trigger": false,
      "metar": "METAR LIBD 241320Z 16006KT 130V190 CAVOK 16/06 Q1009",
      "taf": "TAF LIBD 241100Z 2412/2512 16010KT 9999 SCT060"
    },
    {
      "icao": "LIBG",
      "alert": "OK",
      "vis_m": 9999,
      "fzfg": false,
      "metar_trigger": false,
      "taf_trigger": false,
      "metar": "METAR LIBG 241250Z 17010KT 9999 FEW030 15/10 Q1009",
      "taf": "TAF LIBG 241100Z 2412/2421 17015KT 9999 SCT025"
    },
    {
      "icao": "LIBP",
      "alert": "OK",
      "vis_m": 9999,
      "fzfg": false,
      "metar_trigger": false,
      "taf_trigger": false,
      "metar": "METAR LIBP 241320Z AUTO 21004KT 180V250 9999 SCT120/// SCT160/// BKN220/// 13/07 Q1006",
      "taf": "TAF LIBP 241100Z 2412/2512 VRB05KT 9999 SCT050"
    },
    {
      "icao": "LIBR",
      "alert": "OK",
      "vis_m": 9999,
      "fzfg": false,
      "metar_trigger": false,
      "taf_trigger": false,
      "metar": "METAR LIBR 241320Z 18009KT 9999 FEW040 15/07 Q1010",
      "taf": "TAF LIBR 241100Z 2412/2512 15013KT 9999 FEW060"
    },
    {
      "icao": "LICA",
      "alert": "OK",
      "vis_m": 9999,
      "fzfg": false,
      "metar_trigger": false,
      "taf_trigger": false,
      "metar": "METAR LICA 241320Z AUTO 05003KT 340V110 9999 NCD 17/04 Q1009",
      "taf": "TAF LICA 241100Z 2412/2512 07012KT 9999 SCT040"
    },
    {
      "icao": "LICC",
      "alert": "OK",
      "vis_m": 9999,
      "fzfg": false,
      "metar_trigger": false,
      "taf_trigger": false,
      "metar": "METAR LICC 241320Z 24011KT 9999 FEW030 17/15 Q1009",
      "taf": "TAF LICC 241100Z 2412/2512 25010KT 9999 SCT030"
    },
    {
      "icao": "LICJ",
      "alert": "OK",
      "vis_m": 9999,
      "fzfg": false,
      "metar_trigger": false,
      "taf_trigger": false,
      "metar": "METAR LICJ 241320Z 21017KT 9999 FEW040 16/06 Q1007",
      "taf": "TAF LICJ 241100Z 2412/2512 21018KT 9999 SCT040"
    },
    {
      "icao": "LIMC",
      "alert": "OK",
      "vis_m": 5000,
      "fzfg": false,
      "metar_trigger": false,
      "taf_trigger": false,
      "metar": "METAR LIMC 241320Z 13010KT 5000 -RA BR BKN008 07/05 Q1009 NOSIG",
      "taf": "TAF LIMC 241100Z 2412/2518 12010KT 6000 RA OVC010"
    },
    {
      "icao": "LIME",
      "alert": "OK",
      "vis_m": 9999,
      "fzfg": false,
      "metar_trigger": false,
      "taf_trigger": false,
      "metar": "METAR LIME 241320Z 15006KT 120V180 9999 -RA SCT005 BKN010 07/06 Q1009 NOSIG",
      "taf": "TAF LIME 241100Z 2412/2512 14010KT 7000 RA SCT010 BKN030"
    },
    {
      "icao": "LIMF",
      "alert": "OK",
      "vis_m": 2500,
      "fzfg": false,
      "metar_trigger": false,
      "taf_trigger": false,
      "metar": "METAR LIMF 241320Z 03008KT 2500 -RA BR BKN005 OVC015 06/05 Q1009",
      "taf": "TAF LIMF 241100Z 2412/2512 03008KT 6000 RA BKN040"
    },
    {
      "icao": "LIMJ",
      "alert": "OK",
      "vis_m": 9999,
      "fzfg": false,
      "metar_trigger": false,
      "taf_trigger": false,
      "metar": "METAR LIMJ 241320Z 03012KT 9999 -RA FEW040 BKN060 12/04 Q1004",
      "taf": "TAF LIMJ 241100Z 2412/2512 05015KT 6000 RA BKN070"
    },
    {
      "icao": "LIPE",
      "alert": "OK",
      "vis_m": 5000,
      "fzfg": false,
      "metar_trigger": false,
      "taf_trigger": false,
      "metar": "METAR LIPE 241320Z 04015KT 5000 -DZ BR BKN006 07/06 Q1008 RERA",
      "taf": "TAF LIPE 241100Z 2412/2512 05012KT 4000 RA BR BKN005"
    },
    {
      "icao": "LIPH",
      "alert": "OK",
      "vis_m": 9999,
      "fzfg": false,
      "metar_trigger": false,
      "taf_trigger": false,
      "metar": "METAR LIPH 241320Z 05015KT 9999 -RA BKN030 07/04 Q1011",
      "taf": "TAF LIPH 241100Z 2412/2512 05015KT 8000 RA BKN030"
    },
    {
      "icao": "LIPQ",
      "alert": "OK",
      "vis_m": 9999,
      "fzfg": false,
      "metar_trigger": false,
      "taf_trigger": false,
      "metar": "METAR LIPQ 241320Z AUTO 08022KT 9999 -DZ OVC058/// 08/00 Q1011",
      "taf": "TAF LIPQ 241100Z 2412/2512 06020G35KT 9999 BKN050"
    },
    {
      "icao": "LIPR",
      "alert": "OK",
      "vis_m": 8000,
      "fzfg": false,
      "metar_trigger": false,
      "taf_trigger": false,
      "metar": "METAR LIPR 241320Z 08015KT 8000 -RA FEW020 BKN050 11/09 Q1005",
      "taf": "TAF LIPR 241100Z 2412/2512 08018G28KT 4000 RA BR BKN010"
    },
    {
      "icao": "LIPX",
      "alert": "OK",
      "vis_m": 9999,
      "fzfg": false,
      "metar_trigger": false,
      "taf_trigger": false,
      "metar": "METAR LIPX 241320Z 07014KT 9999 -RA FEW030 OVC050 07/04 Q1010",
      "taf": "TAF LIPX 241100Z 2412/2512 08015KT 6000 RA BKN050"
    },
    {
      "icao": "LIPY",
      "alert": "OK",
      "vis_m": 9999,
      "fzfg": false,
      "metar_trigger": false,
      "taf_trigger": false,
      "metar": "METAR LIPY 241320Z AUTO 10005KT 070V140 9999 FEW120/// SCT190/// 15/09 Q1005",
      "taf": "TAF LIPY 241100Z 2412/2512 12012KT 8000 FEW020"
    },
    {
      "icao": "LIPZ",
      "alert": "OK",
      "vis_m": 9999,
      "fzfg": false,
      "metar_trigger": false,
      "taf_trigger": false,
      "metar": "METAR LIPZ 241320Z 05018KT 9999 -RA BKN040 06/05 Q1011 NOSIG",
      "taf": "TAF LIPZ 241100Z 2412/2518 05022G32KT 9999 SCT040"
    },
    {
      "icao": "LIRF",
      "alert": "OK",
      "vis_m": 8000,
      "fzfg": false,
      "metar_trigger": false,
      "taf_trigger": false,
      "metar": "METAR LIRF 241320Z 13010KT 110V200 8000 -SHRA SCT015TCU BKN025 11/10 Q1004 RESHRA NOSIG",
      "taf": "TAF LIRF 241100Z 2412/2518 16015KT 9999 RA BKN030"
    },
    {
      "icao": "LIRN",
      "alert": "OK",
      "vis_m": 5000,
      "fzfg": false,
      "metar_trigger": false,
      "taf_trigger": false,
      "metar": "METAR LIRN 241320Z VRB03KT 5000 -TSRA BKN040CB 11/07 Q1008 NOSIG",
      "taf": "TAF LIRN 241100Z 2412/2512 18015KT 9999 SCT040"
    },
    {
      "icao": "LIRP",
      "alert": "OK",
      "vis_m": 9999,
      "fzfg": false,
      "metar_trigger": false,
      "taf_trigger": false,
      "metar": "METAR LIRP 241315Z 06014KT 9999 SCT040 SCT070 13/06 Q1003 NOSIG",
      "taf": "TAF LIRP 241100Z 2412/2512 07012KT 9999 SCT030 SCT070"
    },
    {
      "icao": "LIRZ",
      "alert": "OK",
      "vis_m": 9999,
      "fzfg": false,
      "metar_trigger": false,
      "taf_trigger": false,
      "metar": "METAR LIRZ 241320Z AUTO 22005KT 190V250 9999 FEW043/// BKN055/// 12/07 Q1005",
      "taf": "TAF LIRZ 241100Z 2412/2512 VRB06KT 9999 BKN050"
    },
    {
      "icao": "LJLJ",
      "alert": "OK",
      "vis_m": 9999,
      "fzfg": false,
      "metar_trigger": false,
      "taf_trigger": false,
      "metar": "METAR LJLJ 241330Z 23002KT 9999 -RA FEW004 BKN014 OVC040 02/01 Q1016 NOSIG",
      "taf": "TAF LJLJ 241100Z 2412/2512 VRB02KT 9999 FEW004 BKN020"
    },
    {
      "icao": "LKMT",
      "alert": "OK",
      "vis_m": 9999,
      "fzfg": false,
      "metar_trigger": false,
      "taf_trigger": false,
      "metar": "METAR LKMT 241330Z 04020KT 9999 BKN021 BKN030 M01/M04 Q1028 NOSIG",
      "taf": "TAF LKMT 241100Z 2412/2512 04016KT 9999 BKN025"
    },
    {
      "icao": "LKPR",
      "alert": "OK",
      "vis_m": 9999,
      "fzfg": false,
      "metar_trigger": false,
      "taf_trigger": false,
      "metar": "METAR LKPR 241330Z 07017KT 9999 FEW023 BKN041 M01/M06 Q1027 NOSIG",
      "taf": "TAF LKPR 241100Z 2412/2518 05015KT 9999 BKN040"
    },
    {
      "icao": "LLBG",
      "alert": "OK",
      "vis_m": 9999,
      "fzfg": false,
      "metar_trigger": false,
      "taf_trigger": false,
      "metar": "METAR LLBG 241350Z 32007KT 9999 FEW048 20/13 Q1019 NOSIG",
      "taf": "TAF LLBG 241108Z 2412/2512 32006KT 9999 FEW045"
    },
    {
      "icao": "LMML",
      "alert": "OK",
      "vis_m": 9999,
      "fzfg": false,
      "metar_trigger": false,
      "taf_trigger": false,
      "metar": "METAR LMML 241345Z 23012KT 9999 FEW036 15/07 Q1011 NOSIG",
      "taf": "TAF LMML 241100Z 2412/2512 24017KT 9999 FEW040"
    },
    {
      "icao": "LOWW",
      "alert": "OK",
      "vis_m": 9999,
      "fzfg": false,
      "metar_trigger": false,
      "taf_trigger": false,
      "metar": "METAR LOWW 241320Z 02010KT 9999 FEW036 SCT042 BKN050 02/M01 Q1023 NOSIG",
      "taf": "TAF LOWW 241115Z 2412/2518 01010KT 9999 FEW012 BKN040 TX00/2413Z TNM02/2507Z"
    },
    {
      "icao": "LPFR",
      "alert": "OK",
      "vis_m": 9999,
      "fzfg": false,
      "metar_trigger": false,
      "taf_trigger": false,
      "metar": "METAR LPFR 241330Z 26008KT 9999 FEW020 FEW022CB 14/07 Q1008",
      "taf": "TAF LPFR 241100Z 2412/2512 26007KT 9999 FEW018"
    },
    {
      "icao": "LPMA",
      "alert": "OK",
      "vis_m": 9999,
      "fzfg": false,
      "metar_trigger": false,
      "taf_trigger": false,
      "metar": "METAR LPMA 241330Z 36010KT 310V030 9999 SCT015 17/12 Q1015",
      "taf": "TAF LPMA 241100Z 2412/2512 36012KT 9999 SCT015"
    },
    {
      "icao": "LPPR",
      "alert": "OK",
      "vis_m": 9999,
      "fzfg": false,
      "metar_trigger": false,
      "taf_trigger": false,
      "metar": "METAR LPPR 241330Z 36008KT 9999 FEW030 14/06 Q1011",
      "taf": "TAF LPPR 241100Z 2412/2512 VRB02KT 9999 FEW030"
    },
    {
      "icao": "LPPS",
      "alert": "OK",
      "vis_m": 9999,
      "fzfg": false,
      "metar_trigger": false,
      "taf_trigger": false,
      "metar": "METAR LPPS 241330Z 34016KT 9999 FEW014 SCT030 17/10 Q1014",
      "taf": "TAF LPPS 241100Z 2412/2518 34015KT 9999 SCT015 SCT030"
    },
    {
      "icao": "LPPT",
      "alert": "OK",
      "vis_m": 9999,
      "fzfg": false,
      "metar_trigger": false,
      "taf_trigger": false,
      "metar": "METAR LPPT 241330Z 05011KT 020V080 9999 FEW030 12/07 Q1009",
      "taf": "TAF LPPT 241100Z 2412/2518 06007KT 9999 SCT025"
    },
    {
      "icao": "LQBK",
      "alert": "OK",
      "vis_m": 8000,
      "fzfg": false,
      "metar_trigger": false,
      "taf_trigger": false,
      "metar": "METAR LQBK 241330Z 03006KT 8000 -RA BKN010 OVC017 04/03 Q1017 NOSIG",
      "taf": "TAF LQBK 241100Z 2412/2512 06005KT 4000 -RA BR BKN010 OVC025 TX02/2412Z TN00/2506Z"
    },
    {
      "icao": "LQSA",
      "alert": "OK",
      "vis_m": 6000,
      "fzfg": false,
      "metar_trigger": false,
      "taf_trigger": false,
      "metar": "METAR LQSA 241330Z VRB03KT 6000 -DZ FEW008 BKN015 BKN025 04/04 Q1013 NOSIG",
      "taf": "TAF LQSA 241100Z 2412/2512 VRB02KT 8000 BKN030 TX05/2413Z TNM02/2505Z"
    },
    {
      "icao": "LQTZ",
      "alert": "OK",
      "vis_m": 9999,
      "fzfg": false,
      "metar_trigger": false,
      "taf_trigger": false,
      "metar": "METAR LQTZ 241330Z 11004KT 060V140 9999 BKN007 OVC014 04/03 Q1016",
      "taf": ""
    },
    {
      "icao": "LRBC",
      "alert": "OK",
      "vis_m": 5000,
      "fzfg": false,
      "metar_trigger": false,
      "taf_trigger": false,
      "metar": "METAR LRBC 241330Z 02005KT 5000 -SN BR BKN010 OVC016 00/M00 Q1030",
      "taf": "TAF LRBC 241100Z 2412/2421 02005KT 5000 -SN BR BKN005 OVC010"
    },
    {
      "icao": "LRBS",
      "alert": "OK",
      "vis_m": 5000,
      "fzfg": false,
      "metar_trigger": false,
      "taf_trigger": false,
      "metar": "METAR LRBS 241330Z 05016KT 020V080 5000 -RA BR OVC006 02/02 Q1024 NOSIG",
      "taf": "TAF LRBS 241100Z 2412/2512 05020KT 8000 OVC010"
    },
    {
      "icao": "LRBV",
      "alert": "OK",
      "vis_m": 8000,
      "fzfg": false,
      "metar_trigger": false,
      "taf_trigger": false,
      "metar": "METAR LRBV 241330Z 07018KT 8000 -SN OVC035 02/M01 Q1022",
      "taf": "TAF LRBV 241100Z 2412/2421 07017KT 9999 SCT015 BKN040"
    },
    {
      "icao": "LRCL",
      "alert": "OK",
      "vis_m": 9999,
      "fzfg": false,
      "metar_trigger": false,
      "taf_trigger": false,
      "metar": "METAR LRCL 241330Z VRB02KT 9999 -DZ OVC024 02/00 Q1023",
      "taf": "TAF LRCL 241100Z 2412/2421 08007KT 9999 SCT010 BKN030"
    },
    {
      "icao": "LRCV",
      "alert": "OK",
      "vis_m": 8000,
      "fzfg": false,
      "metar_trigger": false,
      "taf_trigger": false,
      "metar": "METAR LRCV 241330Z 07017KT 8000 -RA SCT005 BKN009 OVC014 04/04 Q1021",
      "taf": "TAF LRCV 241100Z 2412/2421 08017KT 5000 -RA BR BKN005 OVC020"
    },
    {
      "icao": "LRIA",
      "alert": "OK",
      "vis_m": 9999,
      "fzfg": false,
      "metar_trigger": false,
      "taf_trigger": false,
      "metar": "METAR LRIA 241330Z 08008KT 9999 -SN BKN018 01/M01 Q1031",
      "taf": "TAF LRIA 241100Z 2412/2421 06006KT 9999 BKN015 BKN040"
    },
    {
      "icao": "LROP",
      "alert": "OK",
      "vis_m": 7000,
      "fzfg": false,
      "metar_trigger": false,
      "taf_trigger": false,
      "metar": "METAR LROP 241330Z 05022KT 7000 -RA OVC007 03/03 Q1024 NOSIG",
      "taf": "TAF LROP 241100Z 2412/2512 05025KT 8000 OVC010"
    },
    {
      "icao": "LRSB",
      "alert": "OK",
      "vis_m": 7000,
      "fzfg": false,
      "metar_trigger": false,
      "taf_trigger": false,
      "metar": "METAR LRSB 241330Z 10008KT 7000 FEW010 OVC040 03/02 Q1021",
      "taf": "TAF LRSB 241100Z 2412/2512 VRB04KT 5000 BR OVC005"
    },
    {
      "icao": "LRSM",
      "alert": "OK",
      "vis_m": 9999,
      "fzfg": false,
      "metar_trigger": false,
      "taf_trigger": false,
      "metar": "METAR LRSM 241330Z 07010KT 9999 BKN042 05/M01 Q1023",
      "taf": "TAF LRSM 241100Z 2412/2421 06005KT 9999 BKN045"
    },
    {
      "icao": "LRSV",
      "alert": "OK",
      "vis_m": 1500,
      "fzfg": false,
      "metar_trigger": false,
      "taf_trigger": false,
      "metar": "METAR LRSV 241330Z 07010KT 1500 -SN BR OVC003 M02/M02 Q1029",
      "taf": "TAF LRSV 241100Z 2412/2421 08010KT 1500 -SN BR BKN003 OVC025"
    },
    {
      "icao": "LRTM",
      "alert": "OK",
      "vis_m": 8000,
      "fzfg": false,
      "metar_trigger": false,
      "taf_trigger": false,
      "metar": "METAR LRTM 241330Z 07005KT 8000 -RA SCT011 BKN045 04/03 Q1023",
      "taf": "TAF LRTM 241100Z 2412/2421 08006KT 7000 BKN010 OVC030"
    },
    {
      "icao": "LRTR",
      "alert": "OK",
      "vis_m": 9999,
      "fzfg": false,
      "metar_trigger": false,
      "taf_trigger": false,
      "metar": "METAR LRTR 241330Z 07006KT 9999 -RA OVC041 05/04 Q1019 NOSIG",
      "taf": "TAF LRTR 241100Z 2412/2512 09010KT 9999 SCT040"
    },
    {
      "icao": "LTAC",
      "alert": "OK",
      "vis_m": 9999,
      "fzfg": false,
      "metar_trigger": false,
      "taf_trigger": false,
      "metar": "METAR LTAC 241320Z 32005KT 280V340 9999 BKN030 08/02 Q1021 NOSIG RMK RWY21C 28006KT 240V300 RWY03L 31004KT 270V330 RWY21R 27005KT RWY03R 30005KT 270V340 RWY21L 30006KT",
      "taf": "TAF LTAC 241040Z 2412/2512 VRB02KT 9999 BKN025"
    },
    {
      "icao": "LTFM",
      "alert": "OK",
      "vis_m": 9999,
      "fzfg": false,
      "metar_trigger": false,
      "taf_trigger": false,
      "metar": "METAR LTFM 241320Z 08010KT 9999 SCT013 SCT035 BKN120 12/09 Q1020 NOSIG RMK RWY17L 09010KT RWY34L 07010KT RWY16R 09009KT RWY36 08008KT RWY18 09009KT",
      "taf": "TAF LTFM 241040Z 2412/2518 08012KT 9999 SCT012 SCT035 BKN120"
    },
    {
      "icao": "LUKK",
      "alert": "OK",
      "vis_m": 9999,
      "fzfg": false,
      "metar_trigger": false,
      "taf_trigger": false,
      "metar": "METAR LUKK 241330Z 06013KT 9999 OVC021 00/M05 Q1031 NOSIG",
      "taf": "TAF LUKK 241104Z 2412/2512 07012KT 9999 BKN020"
    },
    {
      "icao": "LWOH",
      "alert": "OK",
      "vis_m": 9999,
      "fzfg": false,
      "metar_trigger": false,
      "taf_trigger": false,
      "metar": "METAR LWOH 241350Z 33004KT 300V360 9999 FEW020 SCT030 09/07 Q1014",
      "taf": "TAF LWOH 241130Z 2412/2512 15008KT 9999 FEW020 SCT035"
    },
    {
      "icao": "LWSK",
      "alert": "OK",
      "vis_m": 9000,
      "fzfg": false,
      "metar_trigger": false,
      "taf_trigger": false,
      "metar": "METAR LWSK 241350Z VRB01KT 9000 BKN010 OVC040 09/07 Q1016 NOSIG",
      "taf": "TAF LWSK 241130Z 2412/2512 VRB02KT 5000 BR BKN010 OVC033"
    },
    {
      "icao": "LYBE",
      "alert": "OK",
      "vis_m": 9999,
      "fzfg": false,
      "metar_trigger": false,
      "taf_trigger": false,
      "metar": "METAR LYBE 241330Z 10015KT 9999 -RA SCT012 BKN030 04/01 Q1018 NOSIG",
      "taf": "TAF LYBE 241100Z 2412/2512 11015KT 9999 BKN030 TX06/2413Z TN02/2506Z"
    },
    {
      "icao": "LYNI",
      "alert": "OK",
      "vis_m": 9999,
      "fzfg": false,
      "metar_trigger": false,
      "taf_trigger": false,
      "metar": "METAR LYNI 241330Z 02009KT 350V060 9999 FEW013 BKN035 OVC083 06/03 Q1016 NOSIG",
      "taf": "TAF LYNI 241100Z 2412/2512 08014KT 9999 BKN030 BKN075 TX06/2412Z TN02/2506Z"
    },
    {
      "icao": "LYPG",
      "alert": "OK",
      "vis_m": 9999,
      "fzfg": false,
      "metar_trigger": false,
      "taf_trigger": false,
      "metar": "METAR LYPG 241330Z 30002KT 9999 SCT030 11/09 Q1013 NOSIG",
      "taf": ""
    },
    {
      "icao": "LZIB",
      "alert": "OK",
      "vis_m": 9999,
      "fzfg": false,
      "metar_trigger": false,
      "taf_trigger": false,
      "metar": "METAR LZIB 241330Z 02011KT CAVOK 03/M02 Q1023 NOSIG",
      "taf": "TAF LZIB 241115Z 2412/2512 03009KT 9999 FEW030 SCT045"
    },
    {
      "icao": "LZKZ",
      "alert": "OK",
      "vis_m": 9999,
      "fzfg": false,
      "metar_trigger": false,
      "taf_trigger": false,
      "metar": "METAR LZKZ 241330Z 36022KT CAVOK 00/M04 Q1025 NOSIG",
      "taf": "TAF LZKZ 241115Z 2412/2512 01018KT CAVOK"
    },
    {
      "icao": "LZTT",
      "alert": "OK",
      "vis_m": 9999,
      "fzfg": false,
      "metar_trigger": false,
      "taf_trigger": false,
      "metar": "METAR LZTT 241330Z 06014KT 9999 BKN010 M04/M06 Q1025 NOSIG",
      "taf": "TAF LZTT 241115Z 2412/2512 06010KT 9999 FEW016 SCT035"
    },
    {
      "icao": "OEJN",
      "alert": "OK",
      "vis_m": 9999,
      "fzfg": false,
      "metar_trigger": false,
      "taf_trigger": false,
      "metar": "METAR OEJN 241300Z 28008KT 9999 FEW040 30/22 Q1012 NOSIG",
      "taf": "TAF OEJN 241100Z 2412/2518 30012KT 7000 FEW040"
    },
    {
      "icao": "OEMA",
      "alert": "OK",
      "vis_m": 9999,
      "fzfg": false,
      "metar_trigger": false,
      "taf_trigger": false,
      "metar": "METAR OEMA 241300Z 22005KT 9999 FEW040 27/13 Q1017 NOSIG",
      "taf": "TAF OEMA 241100Z 2412/2518 26010KT 7000 SCT045"
    },
    {
      "icao": "OJAI",
      "alert": "OK",
      "vis_m": 5000,
      "fzfg": false,
      "metar_trigger": false,
      "taf_trigger": false,
      "metar": "METAR OJAI 241300Z 12010KT 5000 HZ NSC 16/06 Q1021 NOSIG",
      "taf": "TAF OJAI 241100Z 2412/2518 12006KT 5000 HZ NSC"
    },
    {
      "icao": "OMAA",
      "alert": "OK",
      "vis_m": 9999,
      "fzfg": false,
      "metar_trigger": false,
      "taf_trigger": false,
      "metar": "METAR OMAA 241300Z 33010KT 9999 FEW045 23/12 Q1016 NOSIG",
      "taf": "TAF OMAA 241100Z 2412/2518 33011KT 8000 NSC"
    },
    {
      "icao": "OMDB",
      "alert": "OK",
      "vis_m": 9999,
      "fzfg": false,
      "metar_trigger": false,
      "taf_trigger": false,
      "metar": "METAR OMDB 241330Z 31009KT CAVOK 23/14 Q1016 NOSIG",
      "taf": "TAF OMDB 241100Z 2412/2518 34010KT 8000 NSC"
    },
    {
      "icao": "UAAA",
      "alert": "OK",
      "vis_m": 2100,
      "fzfg": false,
      "metar_trigger": false,
      "taf_trigger": false,
      "metar": "METAR UAAA 241330Z 36002MPS 2100 BR SCT100 BKN200 M04/M06 Q1026 NOSIG",
      "taf": "TAF UAAA 241104Z 2412/2512 17003MPS 3100 BR FU SCT050 BKN100 TXM02/2508Z TNM06/2501Z"
    },
    {
      "icao": "UBBB",
      "alert": "OK",
      "vis_m": 9999,
      "fzfg": false,
      "metar_trigger": false,
      "taf_trigger": false,
      "metar": "METAR UBBB 241330Z 31006KT 9999 SCT021 09/06 Q1019 NOSIG",
      "taf": "TAF UBBB 241047Z 2412/2512 30006KT 9999 SCT012 BKN030 TX13/2412Z TN06/2501Z"
    },
    {
      "icao": "UDSG",
      "alert": "OK",
      "vis_m": 9999,
      "fzfg": false,
      "metar_trigger": false,
      "taf_trigger": false,
      "metar": "METAR UDSG 241330Z 02001KT 9999 NSC 03/M06 Q1021 NOSIG",
      "taf": "TAF UDSG 241100Z 2412/2512 VRB06KT 9999 SCT050"
    },
    {
      "icao": "UDYZ",
      "alert": "OK",
      "vis_m": 7000,
      "fzfg": false,
      "metar_trigger": false,
      "taf_trigger": false,
      "metar": "METAR UDYZ 241330Z 26002KT 7000 NSC 06/M04 Q1021 NOSIG",
      "taf": "TAF UDYZ 241100Z 2412/2512 VRB04KT 3500 BR NSC"
    },
    {
      "icao": "UGKO",
      "alert": "OK",
      "vis_m": 3200,
      "fzfg": false,
      "metar_trigger": false,
      "taf_trigger": false,
      "metar": "METAR UGKO 241330Z 12004KT 3200 BR SCT032 BKN037 07/06 Q1022 NOSIG",
      "taf": "TAF UGKO 241100Z 2412/2512 26007KT 9999 SCT023 BKN050 TX09/2511Z TN04/2503Z"
    }
  ]
}