{
  "ts_utc": "2026-02-12T02:26:58Z",
  "threshold_m": 150,
  "source": "stations_override.txt (ICAO list) + aviationweather.gov (METAR/TAF raw)",
  "station_count": 159,
  "stations": [
    {
      "icao": "BIKF",
      "alert": "OK",
      "vis_m": 9999,
      "fzfg": false,
      "metar_trigger": false,
      "taf_trigger": false,
      "metar": "METAR BIKF 120200Z 02004KT CAVOK M06/M11 Q1007",
      "taf": "TAF BIKF 120126Z 1203/1303 06008KT CAVOK TXM02/1218Z TNM08/1208Z"
    },
    {
      "icao": "BKPR",
      "alert": "OK",
      "vis_m": null,
      "fzfg": false,
      "metar_trigger": false,
      "taf_trigger": false,
      "metar": "",
      "taf": "TAF BKPR 112330Z 1200/1224 18008KT 9999 SCT015 BKN040"
    },
    {
      "icao": "EBCI",
      "alert": "OK",
      "vis_m": 9999,
      "fzfg": false,
      "metar_trigger": false,
      "taf_trigger": false,
      "metar": "METAR EBCI 120220Z 18006KT 9999 FEW005 BKN007 09/08 Q0973 TEMPO 4000 RADZ",
      "taf": "TAF EBCI 112304Z 1200/1306 17008KT 7000 -RA SCT012 BKN020"
    },
    {
      "icao": "EDDB",
      "alert": "OK",
      "vis_m": 1000,
      "fzfg": false,
      "metar_trigger": false,
      "taf_trigger": false,
      "metar": "METAR EDDB 120220Z AUTO 13003KT 1000 0700 R24R/0900N R24L/1000U DZ BCFG BKN001 04/04 Q0981 NOSIG",
      "taf": "TAF EDDB 112300Z 1200/1224 16004KT 3000 BR OVC002"
    },
    {
      "icao": "EDDH",
      "alert": "OK",
      "vis_m": 6000,
      "fzfg": false,
      "metar_trigger": false,
      "taf_trigger": false,
      "metar": "METAR EDDH 120220Z AUTO 08007KT 6000 -SHRA OVC003 FEW///TCU 01/01 Q0980 TEMPO 2000 SHRA",
      "taf": ""
    },
    {
      "icao": "EDDK",
      "alert": "OK",
      "vis_m": 9999,
      "fzfg": false,
      "metar_trigger": false,
      "taf_trigger": false,
      "metar": "METAR EDDK 120220Z AUTO 12009KT 080V150 9999 -SHRA FEW029 SCT044 FEW///TCU 08/07 Q0976 RESHRA TEMPO RA",
      "taf": "TAF EDDK 112300Z 1200/1306 13009KT 9999 BKN030"
    },
    {
      "icao": "EDDN",
      "alert": "OK",
      "vis_m": 9999,
      "fzfg": false,
      "metar_trigger": false,
      "taf_trigger": false,
      "metar": "METAR EDDN 120220Z AUTO 13008KT 9999 -RA FEW044 06/04 Q0983",
      "taf": "TAF EDDN 112300Z 1200/1224 21005KT 9999 SCT025"
    },
    {
      "icao": "EDDS",
      "alert": "OK",
      "vis_m": 9999,
      "fzfg": false,
      "metar_trigger": false,
      "taf_trigger": false,
      "metar": "METAR EDDS 120220Z AUTO 18007KT 9999 -RA FEW038 06/05 Q0982 RESHRA",
      "taf": "TAF EDDS 112300Z 1200/1224 19006KT 9999 BKN020"
    },
    {
      "icao": "EDFH",
      "alert": "OK",
      "vis_m": 9999,
      "fzfg": false,
      "metar_trigger": false,
      "taf_trigger": false,
      "metar": "METAR EDFH 120220Z 17011KT 9999 -RA FEW009 BKN011 OVC016 07/06 Q0976",
      "taf": "TAF EDFH 112300Z 1200/1224 19010G20KT 9999 SCT005 BKN015"
    },
    {
      "icao": "EDJA",
      "alert": "OK",
      "vis_m": 9999,
      "fzfg": false,
      "metar_trigger": false,
      "taf_trigger": false,
      "metar": "METAR EDJA 120220Z AUTO 20006KT 9999 // FEW014/// BKN032/// OVC038/// 04/03 Q0985",
      "taf": "TAF EDJA 120200Z 1203/1212 20005KT 9999 BKN020 OVC030"
    },
    {
      "icao": "EDLW",
      "alert": "OK",
      "vis_m": 9999,
      "fzfg": false,
      "metar_trigger": false,
      "taf_trigger": false,
      "metar": "METAR EDLW 120220Z AUTO 11005KT 9999 // FEW044/// BKN055/// OVC063/// 08/07 Q0976",
      "taf": "TAF EDLW 111700Z 1118/1218 21009KT 9999 FEW010 OVC030"
    },
    {
      "icao": "EDNY",
      "alert": "OK",
      "vis_m": 9999,
      "fzfg": false,
      "metar_trigger": false,
      "taf_trigger": false,
      "metar": "METAR EDNY 120220Z AUTO VRB03KT 9999 // FEW027/// BKN042/// OVC052/// 05/05 Q0986",
      "taf": "TAF EDNY 120200Z 1203/1212 12003KT 9999 BKN030"
    },
    {
      "icao": "EDSB",
      "alert": "OK",
      "vis_m": 9999,
      "fzfg": false,
      "metar_trigger": false,
      "taf_trigger": false,
      "metar": "METAR EDSB 120220Z AUTO 18016KT 9999 OVC062/// 10/07 Q0980",
      "taf": "TAF EDSB 112300Z 1200/1224 20010KT 9999 BKN030"
    },
    {
      "icao": "EETN",
      "alert": "OK",
      "vis_m": 9999,
      "fzfg": false,
      "metar_trigger": false,
      "taf_trigger": false,
      "metar": "METAR EETN 120220Z 11005KT CAVOK M08/M11 Q0992",
      "taf": "TAF EETN 112330Z 1200/1224 14006KT 9999 BKN040"
    },
    {
      "icao": "EFTU",
      "alert": "OK",
      "vis_m": 9999,
      "fzfg": false,
      "metar_trigger": false,
      "taf_trigger": false,
      "metar": "METAR EFTU 120220Z AUTO 05006KT 010V080 CAVOK M10/M11 Q0992",
      "taf": "TAF EFTU 112328Z 1200/1224 05008KT 9999 -SN SCT040"
    },
    {
      "icao": "EGBB",
      "alert": "OK",
      "vis_m": 9999,
      "fzfg": false,
      "metar_trigger": false,
      "taf_trigger": false,
      "metar": "METAR EGBB 120220Z 28004KT 9999 BKN040 08/06 Q0977",
      "taf": "TAF EGBB 112259Z 1200/1224 28004KT 9999 SCT040"
    },
    {
      "icao": "EGGP",
      "alert": "OK",
      "vis_m": 8000,
      "fzfg": false,
      "metar_trigger": false,
      "taf_trigger": false,
      "metar": "METAR EGGP 120220Z 28006KT 8000 OVC008 07/06 Q0978",
      "taf": "TAF EGGP 112256Z 1200/1224 25002KT 9999 BKN017"
    },
    {
      "icao": "EGGW",
      "alert": "OK",
      "vis_m": 9999,
      "fzfg": false,
      "metar_trigger": false,
      "taf_trigger": false,
      "metar": "METAR EGGW 120220Z AUTO 28009KT 9999 OVC044 07/06 Q0977",
      "taf": "TAF EGGW 112300Z 1200/1224 27004KT 9999 SCT020"
    },
    {
      "icao": "EGKK",
      "alert": "OK",
      "vis_m": 9999,
      "fzfg": false,
      "metar_trigger": false,
      "taf_trigger": false,
      "metar": "METAR EGKK 120220Z 27005KT 9999 FEW006 SCT009 07/07 Q0978",
      "taf": "TAF EGKK 112300Z 1200/1306 VRB03KT 9999 SCT030"
    },
    {
      "icao": "EGNM",
      "alert": "OK",
      "vis_m": null,
      "fzfg": false,
      "metar_trigger": false,
      "taf_trigger": false,
      "metar": "",
      "taf": "TAF EGNM 111702Z 1118/1218 02008KT 9999 SCT005"
    },
    {
      "icao": "EGPD",
      "alert": "OK",
      "vis_m": 9999,
      "fzfg": false,
      "metar_trigger": false,
      "taf_trigger": false,
      "metar": "METAR EGPD 120220Z AUTO 06010KT 030V090 9999 BKN028 OVC034 03/M02 Q0987 TEMPO BKN012",
      "taf": "TAF EGPD 112254Z 1200/1224 09012KT 9999 SCT012 BKN025"
    },
    {
      "icao": "EGPF",
      "alert": "OK",
      "vis_m": 9999,
      "fzfg": false,
      "metar_trigger": false,
      "taf_trigger": false,
      "metar": "METAR EGPF 120220Z COR 06014KT 9999 -RA BKN016 03/01 Q0984 RESG",
      "taf": "TAF EGPF 112303Z 1200/1224 07013KT 9999 BKN025"
    },
    {
      "icao": "EHBK",
      "alert": "OK",
      "vis_m": 9999,
      "fzfg": false,
      "metar_trigger": false,
      "taf_trigger": false,
      "metar": "METAR EHBK 120155Z AUTO 17007KT 130V200 9999 -RA BKN044 09/08 Q0974",
      "taf": "TAF EHBK 112313Z 1200/1306 09007KT 9999 SCT025"
    },
    {
      "icao": "EHEH",
      "alert": "OK",
      "vis_m": 9999,
      "fzfg": false,
      "metar_trigger": false,
      "taf_trigger": false,
      "metar": "METAR EHEH 120155Z AUTO 08007KT 050V110 9999 -RA FEW007 SCT011 BKN016 08/08 Q0974 WHT",
      "taf": "TAF EHEH 112340Z 1200/1306 14005KT OVC040"
    },
    {
      "icao": "EKBI",
      "alert": "OK",
      "vis_m": 9999,
      "fzfg": false,
      "metar_trigger": false,
      "taf_trigger": false,
      "metar": "METAR EKBI 120220Z AUTO 07016KT 9999 OVC008/// M01/M02 Q0984",
      "taf": "TAF EKBI 112327Z 1200/1224 07011KT 9000 BKN004"
    },
    {
      "icao": "EKCH",
      "alert": "OK",
      "vis_m": 9999,
      "fzfg": false,
      "metar_trigger": false,
      "taf_trigger": false,
      "metar": "METAR EKCH 120220Z 07017KT 9999 BKN011 M00/M02 Q0986 TEMPO BKN015",
      "taf": "TAF EKCH 112327Z 1200/1224 06011KT 8000 BKN015"
    },
    {
      "icao": "ENAL",
      "alert": "OK",
      "vis_m": 9999,
      "fzfg": false,
      "metar_trigger": false,
      "taf_trigger": false,
      "metar": "METAR ENAL 120220Z AUTO 16009KT 9999 NCD M02/M07 Q0991",
      "taf": "TAF ENAL 112300Z 1200/1209 17008KT CAVOK"
    },
    {
      "icao": "ENBR",
      "alert": "OK",
      "vis_m": 9999,
      "fzfg": false,
      "metar_trigger": false,
      "taf_trigger": false,
      "metar": "METAR ENBR 120220Z 10003KT 9999 FEW034 BKN044 M03/M08 Q0991 RMK WIND 1200FT 14010KT",
      "taf": "TAF ENBR 112300Z 1200/1224 VRB03KT 9999 FEW020 BKN040"
    },
    {
      "icao": "ENGM",
      "alert": "OK",
      "vis_m": 9999,
      "fzfg": false,
      "metar_trigger": false,
      "taf_trigger": false,
      "metar": "METAR ENGM 120220Z 07005KT 9999 BKN039 M08/M12 Q0993",
      "taf": "TAF ENGM 112300Z 1200/1224 01008KT 9999 -SN BKN025"
    },
    {
      "icao": "ENHD",
      "alert": "OK",
      "vis_m": 9999,
      "fzfg": false,
      "metar_trigger": false,
      "taf_trigger": false,
      "metar": "METAR ENHD 120220Z AUTO 09005KT 9999 OVC042/// M01/M09 Q0991",
      "taf": ""
    },
    {
      "icao": "ENTC",
      "alert": "OK",
      "vis_m": 9999,
      "fzfg": false,
      "metar_trigger": false,
      "taf_trigger": false,
      "metar": "METAR ENTC 120220Z AUTO 24008KT 9999 NCD M08/M11 Q0995 RMK WIND 2600FT 20006KT",
      "taf": "TAF ENTC 112300Z 1200/1224 20005KT CAVOK"
    },
    {
      "icao": "ENTO",
      "alert": "OK",
      "vis_m": 9999,
      "fzfg": false,
      "metar_trigger": false,
      "taf_trigger": false,
      "metar": "METAR ENTO 120220Z AUTO 04009KT 9999 OVC033/// M06/M09 Q0993",
      "taf": "TAF ENTO 112300Z 1200/1224 02008KT 9999 FEW015 BKN030"
    },
    {
      "icao": "ENVA",
      "alert": "OK",
      "vis_m": 9999,
      "fzfg": false,
      "metar_trigger": false,
      "taf_trigger": false,
      "metar": "METAR ENVA 120220Z AUTO 08005KT 9999 NCD M11/M16 Q0994 RMK WIND 670FT 09011KT",
      "taf": "TAF ENVA 112300Z 1200/1224 12008KT CAVOK"
    },
    {
      "icao": "ENZV",
      "alert": "OK",
      "vis_m": 9999,
      "fzfg": false,
      "metar_trigger": false,
      "taf_trigger": false,
      "metar": "METAR ENZV 120220Z AUTO 00000KT 9999 NCD M06/M10 Q0991",
      "taf": "TAF ENZV 112300Z 1200/1224 10005KT 9999 FEW020 BKN040"
    },
    {
      "icao": "EPGD",
      "alert": "CRITICAL",
      "vis_m": 100,
      "fzfg": true,
      "metar_trigger": true,
      "taf_trigger": false,
      "metar": "METAR EPGD 120200Z 07005KT 0100 R29/0450N FZFG VV001 M00/M00 Q0984",
      "taf": "TAF EPGD 112330Z 1200/1224 05004KT 1000 BR OVC002"
    },
    {
      "icao": "EPKK",
      "alert": "OK",
      "vis_m": 9999,
      "fzfg": false,
      "metar_trigger": false,
      "taf_trigger": false,
      "metar": "METAR EPKK 120200Z 23005KT 9999 -RA BKN028 05/03 Q0986",
      "taf": "TAF EPKK 112330Z 1200/1224 24004KT 7000 BKN025"
    },
    {
      "icao": "EPKT",
      "alert": "OK",
      "vis_m": 7000,
      "fzfg": false,
      "metar_trigger": false,
      "taf_trigger": false,
      "metar": "METAR EPKT 120200Z 21012KT 7000 -RA OVC005 06/05 Q0985",
      "taf": "TAF EPKT 112330Z 1200/1224 22012KT 9999 OVC025"
    },
    {
      "icao": "EPLB",
      "alert": "OK",
      "vis_m": 9999,
      "fzfg": false,
      "metar_trigger": false,
      "taf_trigger": false,
      "metar": "METAR EPLB 120200Z 20008KT 9999 -RA SCT021 OVC030 03/02 Q0986",
      "taf": ""
    },
    {
      "icao": "EPMO",
      "alert": "OK",
      "vis_m": 7000,
      "fzfg": false,
      "metar_trigger": false,
      "taf_trigger": false,
      "metar": "METAR EPMO 120200Z 15005KT 7000 -RA SCT029 OVC037 02/01 Q0984",
      "taf": "TAF EPMO 112330Z 1200/1224 15006KT 9999 BKN025"
    },
    {
      "icao": "EPPO",
      "alert": "OK",
      "vis_m": 2600,
      "fzfg": false,
      "metar_trigger": false,
      "taf_trigger": false,
      "metar": "METAR EPPO 120200Z 12004KT 2600 BR OVC001 03/02 Q0983",
      "taf": ""
    },
    {
      "icao": "EPRA",
      "alert": "OK",
      "vis_m": 8000,
      "fzfg": false,
      "metar_trigger": false,
      "taf_trigger": false,
      "metar": "METAR EPRA 120200Z 17007KT 8000 -RA FEW006 BKN016 02/01 Q0985",
      "taf": "TAF EPRA 112330Z 1200/1209 18008KT 8000 -RA BKN016"
    },
    {
      "icao": "EPRZ",
      "alert": "OK",
      "vis_m": 9999,
      "fzfg": false,
      "metar_trigger": false,
      "taf_trigger": false,
      "metar": "METAR EPRZ 120200Z 18010KT 9999 -RA OVC033 05/04 Q0987",
      "taf": "TAF EPRZ 112330Z 1200/1224 20012KT 9999 BKN035"
    },
    {
      "icao": "EPSC",
      "alert": "OK",
      "vis_m": 2100,
      "fzfg": false,
      "metar_trigger": false,
      "taf_trigger": false,
      "metar": "METAR EPSC 120200Z 02003KT 350V050 2100 BR OVC002 01/01 Q0982",
      "taf": "TAF EPSC 112330Z 1200/1224 06003KT 2500 -RA BR OVC002"
    },
    {
      "icao": "EPSY",
      "alert": "OK",
      "vis_m": 2500,
      "fzfg": false,
      "metar_trigger": false,
      "taf_trigger": false,
      "metar": "METAR EPSY 120200Z 00000KT 2500 -RASN BR BKN020 00/00 Q0984",
      "taf": "TAF EPSY 112330Z 1200/1209 VRB02KT 5000 BR BKN030"
    },
    {
      "icao": "EPWA",
      "alert": "OK",
      "vis_m": 9999,
      "fzfg": false,
      "metar_trigger": false,
      "taf_trigger": false,
      "metar": "METAR EPWA 120200Z 14004KT 9999 -RA OVC030 02/00 Q0985 TEMPO 4000 -RA BR",
      "taf": "TAF EPWA 112330Z 1200/1224 16008KT 9999 BKN025"
    },
    {
      "icao": "EPWR",
      "alert": "OK",
      "vis_m": 9999,
      "fzfg": false,
      "metar_trigger": false,
      "taf_trigger": false,
      "metar": "METAR EPWR 120200Z 00000KT 9999 -RA SCT005 BKN018 04/04 Q0983",
      "taf": "TAF EPWR 112330Z 1200/1224 15003KT 9999 FEW006 BKN017"
    },
    {
      "icao": "ESGG",
      "alert": "OK",
      "vis_m": 9999,
      "fzfg": false,
      "metar_trigger": false,
      "taf_trigger": false,
      "metar": "METAR ESGG 120220Z 04009KT 9999 BKN010 OVC037 M04/M06 Q0989",
      "taf": "TAF ESGG 112330Z 1200/1224 04009KT 9999 BKN035"
    },
    {
      "icao": "ESKN",
      "alert": "OK",
      "vis_m": 9999,
      "fzfg": false,
      "metar_trigger": false,
      "taf_trigger": false,
      "metar": "METAR ESKN 120220Z 34006KT 320V020 9999 -SN BKN024 M07/M08 Q0992",
      "taf": "TAF ESKN 112330Z 1200/1224 01007KT 9999 BKN009"
    },
    {
      "icao": "ESMS",
      "alert": "OK",
      "vis_m": 7000,
      "fzfg": false,
      "metar_trigger": false,
      "taf_trigger": false,
      "metar": "METAR ESMS 120220Z 06014KT 7000 OVC005 M01/M01 Q0985",
      "taf": "TAF ESMS 112327Z 1200/1224 06012KT 6000 OVC012"
    },
    {
      "icao": "ESSA",
      "alert": "OK",
      "vis_m": 9999,
      "fzfg": false,
      "metar_trigger": false,
      "taf_trigger": false,
      "metar": "METAR ESSA 120220Z 33005KT CAVOK M09/M11 Q0992 NOSIG",
      "taf": "TAF ESSA 112330Z 1200/1224 35007KT 9999 -SN OVC020"
    },
    {
      "icao": "EYKA",
      "alert": "OK",
      "vis_m": 1500,
      "fzfg": false,
      "metar_trigger": false,
      "taf_trigger": false,
      "metar": "METAR EYKA 120220Z COR 15002KT 1500 -DZ -SNRA BR OVC003 00/00 Q0986",
      "taf": ""
    },
    {
      "icao": "EYPA",
      "alert": "OK",
      "vis_m": 7000,
      "fzfg": false,
      "metar_trigger": false,
      "taf_trigger": false,
      "metar": "METAR EYPA 120220Z 07008KT 7000 OVC015 M05/M08 Q0987",
      "taf": "TAF EYPA 112300Z 1200/1224 VRB05KT 5000 BR SCT010 BKN015"
    },
    {
      "icao": "EYVI",
      "alert": "OK",
      "vis_m": 6000,
      "fzfg": false,
      "metar_trigger": false,
      "taf_trigger": false,
      "metar": "METAR EYVI 120220Z 17007KT 6000 -SN OVC005 M01/M01 Q0986 NOSIG",
      "taf": "TAF EYVI 112306Z 1200/1224 VRB04KT 5000 SN BR BKN005"
    },
    {
      "icao": "GCFV",
      "alert": "OK",
      "vis_m": 9999,
      "fzfg": false,
      "metar_trigger": false,
      "taf_trigger": false,
      "metar": "METAR GCFV 120200Z AUTO 03012KT 9999 OVC010 18/15 Q1025",
      "taf": "TAF GCFV 120200Z 1203/1303 05012KT 9999 BKN016 TX22/1214Z TN17/1206Z"
    },
    {
      "icao": "GCLP",
      "alert": "OK",
      "vis_m": 9999,
      "fzfg": false,
      "metar_trigger": false,
      "taf_trigger": false,
      "metar": "METAR GCLP 120200Z 01016KT 9999 FEW012 SCT020 18/15 Q1025 NOSIG",
      "taf": "TAF GCLP 120200Z 1203/1303 02014KT 9999 SCT015 TX23/1214Z TN17/1206Z"
    },
    {
      "icao": "GCTS",
      "alert": "OK",
      "vis_m": 9999,
      "fzfg": false,
      "metar_trigger": false,
      "taf_trigger": false,
      "metar": "METAR GCTS 120200Z 03003KT 010V070 9999 FEW015 17/14 Q1025 NOSIG",
      "taf": "TAF GCTS 120200Z 1203/1303 04009KT 9999 FEW020 TX25/1214Z TN17/1206Z"
    },
    {
      "icao": "GMAD",
      "alert": "OK",
      "vis_m": 3000,
      "fzfg": false,
      "metar_trigger": false,
      "taf_trigger": false,
      "metar": "METAR GMAD 120200Z 00000KT 3000 BR OVC006 16/16 Q1024 NOSIG",
      "taf": "TAF GMAD 112300Z 1200/1306 12004KT 3000 BR BKN006"
    },
    {
      "icao": "GMMN",
      "alert": "OK",
      "vis_m": 5000,
      "fzfg": false,
      "metar_trigger": false,
      "taf_trigger": false,
      "metar": "METAR GMMN 120200Z 15004KT 5000 SCT005 SCT016 14/13 Q1026 NOSIG",
      "taf": "TAF GMMN 112300Z 1200/1306 VRB01KT 8000 SCT005"
    },
    {
      "icao": "GMMX",
      "alert": "OK",
      "vis_m": 100,
      "fzfg": false,
      "metar_trigger": false,
      "taf_trigger": false,
      "metar": "METAR GMMX 120200Z 30005KT 260V350 0100 FG OVC002 15/15 Q1026 NOSIG",
      "taf": "TAF GMMX 112300Z 1200/1306 24008KT 8000 NSC"
    },
    {
      "icao": "HEGN",
      "alert": "OK",
      "vis_m": 9999,
      "fzfg": false,
      "metar_trigger": false,
      "taf_trigger": false,
      "metar": "METAR HEGN 120200Z 27006KT CAVOK 17/M01 Q1017 NOSIG",
      "taf": "TAF HEGN 112300Z 1200/1306 27008KT 6000 NSC"
    },
    {
      "icao": "HEMA",
      "alert": "OK",
      "vis_m": 9999,
      "fzfg": false,
      "metar_trigger": false,
      "taf_trigger": false,
      "metar": "METAR HEMA 120200Z 28006KT CAVOK 18/06 Q1016 NOSIG",
      "taf": "TAF HEMA 112300Z 1200/1306 28008KT CAVOK"
    },
    {
      "icao": "HESH",
      "alert": "OK",
      "vis_m": 9999,
      "fzfg": false,
      "metar_trigger": false,
      "taf_trigger": false,
      "metar": "METAR HESH 120200Z 34005KT CAVOK 20/08 Q1016 NOSIG",
      "taf": "TAF HESH 112300Z 1200/1306 32008KT 6000 NSC"
    },
    {
      "icao": "HESX",
      "alert": "OK",
      "vis_m": 9999,
      "fzfg": false,
      "metar_trigger": false,
      "taf_trigger": false,
      "metar": "METAR HESX 120200Z 20008KT CAVOK 14/02 Q1015 NOSIG",
      "taf": "TAF HESX 112300Z 1200/1306 20009KT 7000 NSC"
    },
    {
      "icao": "LATI",
      "alert": "OK",
      "vis_m": 8000,
      "fzfg": false,
      "metar_trigger": false,
      "taf_trigger": false,
      "metar": "METAR LATI 120220Z 00000KT 8000 -DZ OVC034 10/08 Q0997 NOSIG",
      "taf": "TAF LATI 112300Z 1200/1224 VRB05KT 9999 -RA SCT035 OVC060 TX15/1212Z TN08/1204Z"
    },
    {
      "icao": "LBPD",
      "alert": "OK",
      "vis_m": 9999,
      "fzfg": false,
      "metar_trigger": false,
      "taf_trigger": false,
      "metar": "METAR LBPD 120200Z AUTO 28007KT 9999 OVC010/// 02/02 Q1000",
      "taf": "TAF LBPD 112300Z 1200/1224 VRB04KT 9999 BKN010"
    },
    {
      "icao": "LBSF",
      "alert": "OK",
      "vis_m": 9999,
      "fzfg": false,
      "metar_trigger": false,
      "taf_trigger": false,
      "metar": "METAR LBSF 120200Z AUTO 08002KT 9999 NSC M00/M01 Q0998 NOSIG",
      "taf": "TAF LBSF 112300Z 1200/1224 10010KT 9999 SCT060"
    },
    {
      "icao": "LBWN",
      "alert": "OK",
      "vis_m": 5000,
      "fzfg": false,
      "metar_trigger": false,
      "taf_trigger": false,
      "metar": "METAR LBWN 120200Z AUTO VRB01KT 5000 BR BKN022/// 03/03 Q1000 TEMPO 4000 BR",
      "taf": "TAF LBWN 112300Z 1200/1224 VRB04KT 9999 BKN023"
    },
    {
      "icao": "LCLK",
      "alert": "OK",
      "vis_m": 9999,
      "fzfg": false,
      "metar_trigger": false,
      "taf_trigger": false,
      "metar": "METAR LCLK 120200Z 21007KT 9999 FEW040 BKN060 13/13 Q1011 NOSIG",
      "taf": "TAF LCLK 112330Z 1200/1300 24009KT 9999 FEW030"
    },
    {
      "icao": "LCPH",
      "alert": "OK",
      "vis_m": 9999,
      "fzfg": false,
      "metar_trigger": false,
      "taf_trigger": false,
      "metar": "METAR LCPH 120200Z AUTO 24009KT 200V260 9999 SCT022 BKN030 OVC041 17/13 Q1011 NOSIG",
      "taf": "TAF LCPH 112330Z 1200/1300 24009KT 9999 FEW025 SCT035"
    },
    {
      "icao": "LEAL",
      "alert": "OK",
      "vis_m": 9999,
      "fzfg": false,
      "metar_trigger": false,
      "taf_trigger": false,
      "metar": "METAR LEAL 120200Z 27018G28KT 240V300 CAVOK 21/11 Q1008 NOSIG",
      "taf": ""
    },
    {
      "icao": "LEBB",
      "alert": "OK",
      "vis_m": 9999,
      "fzfg": false,
      "metar_trigger": false,
      "taf_trigger": false,
      "metar": "METAR LEBB 120200Z AUTO 28013KT 250V330 9999 SCT067 15/05 Q1004",
      "taf": "TAF LEBB 112300Z 1200/1224 28013KT 9999 FEW060 TX16/1214Z TN12/1208Z"
    },
    {
      "icao": "LEBL",
      "alert": "OK",
      "vis_m": 9999,
      "fzfg": false,
      "metar_trigger": false,
      "taf_trigger": false,
      "metar": "METAR LEBL 120200Z 28031G43KT 9999 FEW025 18/06 Q0999 NOSIG",
      "taf": "TAF LEBL 112300Z 1200/1224 28025KT 9999 SCT030 TX20/1212Z TN13/1206Z"
    },
    {
      "icao": "LECH",
      "alert": "OK",
      "vis_m": 9999,
      "fzfg": false,
      "metar_trigger": false,
      "taf_trigger": false,
      "metar": "METAR LECH 120200Z AUTO 28016G27KT 240V340 CAVOK 16/M01 Q1006",
      "taf": ""
    },
    {
      "icao": "LEMD",
      "alert": "OK",
      "vis_m": 9999,
      "fzfg": false,
      "metar_trigger": false,
      "taf_trigger": false,
      "metar": "METAR LEMD 120200Z 26009KT 230V300 CAVOK 10/07 Q1013 NOSIG",
      "taf": ""
    },
    {
      "icao": "LEMG",
      "alert": "OK",
      "vis_m": 9999,
      "fzfg": false,
      "metar_trigger": false,
      "taf_trigger": false,
      "metar": "METAR LEMG 120200Z 27003KT 220V290 9999 BKN050 15/13 Q1018 NOSIG",
      "taf": "TAF LEMG 112300Z 1200/1224 VRB03KT 9999 SCT030 TX23/1214Z TN11/1207Z"
    },
    {
      "icao": "LEVC",
      "alert": "OK",
      "vis_m": 9999,
      "fzfg": false,
      "metar_trigger": false,
      "taf_trigger": false,
      "metar": "METAR LEVC 120200Z 26022KT CAVOK 19/08 Q1008 NOSIG",
      "taf": "TAF LEVC 112300Z 1200/1224 27015KT 9999 FEW045 TX21/1214Z TN15/1206Z"
    },
    {
      "icao": "LEXJ",
      "alert": "OK",
      "vis_m": 5000,
      "fzfg": false,
      "metar_trigger": false,
      "taf_trigger": false,
      "metar": "METAR LEXJ 120200Z AUTO 29033G55KT 5000 HZ SCT060 SCT079 13/05 Q1005",
      "taf": "TAF LEXJ 120200Z 1203/1303 27015KT 9999 FEW050 TX16/1213Z TN10/1207Z"
    },
    {
      "icao": "LEZG",
      "alert": "OK",
      "vis_m": 9999,
      "fzfg": false,
      "metar_trigger": false,
      "taf_trigger": false,
      "metar": "METAR LEZG 120200Z 27030KT CAVOK 15/03 Q1003 NOSIG",
      "taf": "TAF LEZG 112300Z 1200/1224 27015KT 9999 FEW050 TX17/1212Z TN10/1206Z"
    },
    {
      "icao": "LEZL",
      "alert": "OK",
      "vis_m": 8000,
      "fzfg": false,
      "metar_trigger": false,
      "taf_trigger": false,
      "metar": "METAR LEZL 120200Z AUTO 24013KT 8000 SCT014 17/16 Q1020",
      "taf": "TAF LEZL 120200Z 1203/1303 26005KT 9999 SCT030 TX20/1215Z TN13/1207Z"
    },
    {
      "icao": "LFBD",
      "alert": "OK",
      "vis_m": 5000,
      "fzfg": false,
      "metar_trigger": false,
      "taf_trigger": false,
      "metar": "METAR LFBD 120200Z AUTO 28036G56KT 5000 -RA BR BKN016/// OVC023/// ///TCU 11/09 Q0992 TEMPO 1400 TSRA BKN014 BKN025CB",
      "taf": "TAF LFBD 112300Z 1200/1306 26020G35KT 9999 BKN030 TX13/1212Z TN08/1306Z"
    },
    {
      "icao": "LFLL",
      "alert": "OK",
      "vis_m": 9999,
      "fzfg": false,
      "metar_trigger": false,
      "taf_trigger": false,
      "metar": "METAR LFLL 120200Z 20018KT 9999 FEW040 SCT093 BKN160 11/07 Q0987 TEMPO 20025G35KT",
      "taf": "TAF LFLL 112300Z 1200/1306 18020KT CAVOK"
    },
    {
      "icao": "LFLS",
      "alert": "OK",
      "vis_m": 9999,
      "fzfg": false,
      "metar_trigger": false,
      "taf_trigger": false,
      "metar": "METAR LFLS 120200Z AUTO 18015KT 9999 BKN050 BKN066 OVC160 10/06 Q0989",
      "taf": "TAF LFLS 120200Z 1203/1303 20012KT 9999 FEW025 OVC045"
    },
    {
      "icao": "LFMN",
      "alert": "OK",
      "vis_m": 9999,
      "fzfg": false,
      "metar_trigger": false,
      "taf_trigger": false,
      "metar": "METAR LFMN 120200Z VRB03KT 9999 BKN070 13/10 Q0990 BECMG 26015G25KT",
      "taf": "TAF LFMN 120200Z 1203/1309 25015G25KT CAVOK"
    },
    {
      "icao": "LFOB",
      "alert": "OK",
      "vis_m": 5000,
      "fzfg": false,
      "metar_trigger": false,
      "taf_trigger": false,
      "metar": "METAR LFOB 120200Z AUTO 23011KT 5000 -RA BR SCT007/// BKN011/// BKN018/// ///TCU 10/10 Q0974 TEMPO 24020G30KT RA BKN004",
      "taf": "TAF LFOB 112300Z 1200/1224 23012KT 9999 BKN020"
    },
    {
      "icao": "LFPO",
      "alert": "OK",
      "vis_m": 9999,
      "fzfg": false,
      "metar_trigger": false,
      "taf_trigger": false,
      "metar": "METAR LFPO 120200Z AUTO 23011KT 9999 RA BKN014/// OVC021/// ///TCU 10/09 Q0976 TEMPO 22015G35KT 4000 -SHRA",
      "taf": "TAF LFPO 112300Z 1200/1306 19012KT 8000 BKN020"
    },
    {
      "icao": "LFSB",
      "alert": "OK",
      "vis_m": 9999,
      "fzfg": false,
      "metar_trigger": false,
      "taf_trigger": false,
      "metar": "METAR LFSB 120200Z AUTO 19008KT CAVOK 11/05 Q0982 NOSIG",
      "taf": "TAF LFSB 112300Z 1200/1224 23012KT 9999 BKN050"
    },
    {
      "icao": "LGAV",
      "alert": "OK",
      "vis_m": 9999,
      "fzfg": false,
      "metar_trigger": false,
      "taf_trigger": false,
      "metar": "METAR LGAV 120220Z 23006KT 9999 FEW025 13/09 Q0996 NOSIG",
      "taf": "TAF LGAV 112300Z 1200/1224 21015KT 9999 FEW018TCU SCT025"
    },
    {
      "icao": "LGTS",
      "alert": "OK",
      "vis_m": 8000,
      "fzfg": false,
      "metar_trigger": false,
      "taf_trigger": false,
      "metar": "METAR LGTS 120220Z 34005KT 8000 FEW007 BKN025 11/11 Q0996 NOSIG",
      "taf": "TAF LGTS 112300Z 1200/1224 14010KT 9999 FEW010 BKN030"
    },
    {
      "icao": "LHBP",
      "alert": "OK",
      "vis_m": 9999,
      "fzfg": false,
      "metar_trigger": false,
      "taf_trigger": false,
      "metar": "METAR LHBP 120200Z 16005KT CAVOK 05/04 Q0992 NOSIG",
      "taf": "TAF LHBP 112315Z 1200/1224 16005KT 9999 BKN030 BKN080"
    },
    {
      "icao": "LHDC",
      "alert": "OK",
      "vis_m": 9999,
      "fzfg": false,
      "metar_trigger": false,
      "taf_trigger": false,
      "metar": "METAR LHDC 120145Z AUTO 18009KT 150V210 9999 BKN037 06/04 Q0993",
      "taf": ""
    },
    {
      "icao": "LIBD",
      "alert": "OK",
      "vis_m": 9999,
      "fzfg": false,
      "metar_trigger": false,
      "taf_trigger": false,
      "metar": "METAR LIBD 120220Z 25005KT 210V280 CAVOK 09/08 Q0996",
      "taf": "TAF LIBD 112300Z 1200/1224 21006KT 9999 FEW040"
    },
    {
      "icao": "LIBG",
      "alert": "OK",
      "vis_m": null,
      "fzfg": false,
      "metar_trigger": false,
      "taf_trigger": false,
      "metar": "",
      "taf": "TAF LIBG 111700Z 1118/1203 VRB04KT 9999 FEW040"
    },
    {
      "icao": "LIBP",
      "alert": "OK",
      "vis_m": 9999,
      "fzfg": false,
      "metar_trigger": false,
      "taf_trigger": false,
      "metar": "METAR LIBP 120220Z AUTO 22004KT 9999 NCD 04/04 Q0994",
      "taf": "TAF LIBP 112300Z 1200/1224 24008KT 9999 FEW060"
    },
    {
      "icao": "LIBR",
      "alert": "OK",
      "vis_m": 9999,
      "fzfg": false,
      "metar_trigger": false,
      "taf_trigger": false,
      "metar": "METAR LIBR 120220Z VRB02KT CAVOK 10/09 Q0997",
      "taf": "TAF LIBR 112300Z 1200/1224 23006KT 9999 SCT030"
    },
    {
      "icao": "LICA",
      "alert": "OK",
      "vis_m": 9999,
      "fzfg": false,
      "metar_trigger": false,
      "taf_trigger": false,
      "metar": "METAR LICA 120220Z AUTO 25014KT 9999 SCT010/// 15/13 Q1000",
      "taf": "TAF LICA 112300Z 1200/1224 28020G32KT 9999 BKN020"
    },
    {
      "icao": "LICC",
      "alert": "OK",
      "vis_m": 9999,
      "fzfg": false,
      "metar_trigger": false,
      "taf_trigger": false,
      "metar": "METAR LICC 120220Z 27013KT CAVOK 13/09 Q1002",
      "taf": "TAF LICC 112300Z 1200/1224 26016KT 9999 SCT030"
    },
    {
      "icao": "LICJ",
      "alert": "OK",
      "vis_m": 9999,
      "fzfg": false,
      "metar_trigger": false,
      "taf_trigger": false,
      "metar": "METAR LICJ 120220Z 20016KT CAVOK 15/11 Q1001",
      "taf": "TAF LICJ 112300Z 1200/1224 22018KT 9999 SCT020"
    },
    {
      "icao": "LIMC",
      "alert": "OK",
      "vis_m": 8000,
      "fzfg": false,
      "metar_trigger": false,
      "taf_trigger": false,
      "metar": "METAR LIMC 120220Z VRB02KT 8000 BKN050 06/05 Q0990 NOSIG",
      "taf": "TAF LIMC 112300Z 1200/1306 VRB04KT 8000 SCT030"
    },
    {
      "icao": "LIME",
      "alert": "OK",
      "vis_m": 5000,
      "fzfg": false,
      "metar_trigger": false,
      "taf_trigger": false,
      "metar": "METAR LIME 120220Z VRB02KT 5000 BR BKN020 07/07 Q0990 NOSIG",
      "taf": "TAF LIME 112300Z 1200/1224 VRB05KT 7000 SCT020"
    },
    {
      "icao": "LIMF",
      "alert": "OK",
      "vis_m": 9999,
      "fzfg": false,
      "metar_trigger": false,
      "taf_trigger": false,
      "metar": "METAR LIMF 120220Z VRB01KT CAVOK 05/03 Q0990",
      "taf": "TAF LIMF 112300Z 1200/1224 VRB05KT 9999 SCT020"
    },
    {
      "icao": "LIMJ",
      "alert": "OK",
      "vis_m": 9999,
      "fzfg": false,
      "metar_trigger": false,
      "taf_trigger": false,
      "metar": "METAR LIMJ 120220Z 12016KT 9999 SCT025 SCT040 13/11 Q0988",
      "taf": ""
    },
    {
      "icao": "LIPE",
      "alert": "OK",
      "vis_m": 500,
      "fzfg": false,
      "metar_trigger": false,
      "taf_trigger": false,
      "metar": "METAR LIPE 120220Z 07003KT 030V120 0500 R12/1100U R30/2000U FG VV002 08/08 Q0990",
      "taf": "TAF LIPE 112300Z 1200/1224 VRB05KT 3000 BR BKN020"
    },
    {
      "icao": "LIPH",
      "alert": "OK",
      "vis_m": 100,
      "fzfg": false,
      "metar_trigger": false,
      "taf_trigger": false,
      "metar": "METAR LIPH 120220Z AUTO 09003KT 0100 0050W R07/0325N FG VV002 08/08 Q0990",
      "taf": "TAF LIPH 112300Z 1200/1224 04006KT 3000 BR SCT050"
    },
    {
      "icao": "LIPQ",
      "alert": "OK",
      "vis_m": 450,
      "fzfg": false,
      "metar_trigger": false,
      "taf_trigger": false,
      "metar": "METAR LIPQ 120220Z AUTO VRB01KT 0450 R09/0700D FG VV002 09/09 Q0991",
      "taf": "TAF LIPQ 112300Z 1200/1224 VRB04KT 3000 BR SCT030"
    },
    {
      "icao": "LIPR",
      "alert": "OK",
      "vis_m": 2000,
      "fzfg": false,
      "metar_trigger": false,
      "taf_trigger": false,
      "metar": "METAR LIPR 120220Z AUTO VRB02KT 2000 BR BKN055/// 05/05 Q0990",
      "taf": "TAF LIPR 112300Z 1200/1224 15006KT 7000 SCT020"
    },
    {
      "icao": "LIPX",
      "alert": "OK",
      "vis_m": 500,
      "fzfg": false,
      "metar_trigger": false,
      "taf_trigger": false,
      "metar": "METAR LIPX 120150Z 09003KT 0500 R04/1600D FG VV002 06/06 Q0991",
      "taf": "TAF LIPX 112300Z 1200/1224 07006KT 8000 BKN020"
    },
    {
      "icao": "LIPY",
      "alert": "OK",
      "vis_m": 6000,
      "fzfg": false,
      "metar_trigger": false,
      "taf_trigger": false,
      "metar": "METAR LIPY 120220Z AUTO VRB02KT 6000 VV002 06/06 Q0992",
      "taf": "TAF LIPY 112300Z 1200/1224 15006KT 3000 BR SCT040"
    },
    {
      "icao": "LIPZ",
      "alert": "OK",
      "vis_m": 100,
      "fzfg": false,
      "metar_trigger": false,
      "taf_trigger": false,
      "metar": "METAR LIPZ 120220Z 11004KT 0100 R04R/0750N FG VV001 07/07 Q0991 NOSIG",
      "taf": "TAF LIPZ 112300Z 1200/1306 06006KT 7000 SCT050"
    },
    {
      "icao": "LIRF",
      "alert": "OK",
      "vis_m": 5000,
      "fzfg": false,
      "metar_trigger": false,
      "taf_trigger": false,
      "metar": "METAR LIRF 120220Z 11005KT 5000 BR FEW020 09/09 Q0995 NOSIG",
      "taf": "TAF LIRF 112300Z 1200/1306 VRB05KT 9999 FEW020"
    },
    {
      "icao": "LIRN",
      "alert": "OK",
      "vis_m": 9999,
      "fzfg": false,
      "metar_trigger": false,
      "taf_trigger": false,
      "metar": "METAR LIRN 120150Z VRB01KT CAVOK 08/07 Q0998 NOSIG",
      "taf": "TAF LIRN 112300Z 1200/1224 VRB05KT 9999 SCT020"
    },
    {
      "icao": "LIRP",
      "alert": "OK",
      "vis_m": 9999,
      "fzfg": false,
      "metar_trigger": false,
      "taf_trigger": false,
      "metar": "METAR LIRP 120215Z 20010KT 9999 BKN060 14/12 Q0992 NOSIG",
      "taf": "TAF LIRP 112300Z 1200/1224 25012KT 9999 BKN030"
    },
    {
      "icao": "LIRZ",
      "alert": "OK",
      "vis_m": 9999,
      "fzfg": false,
      "metar_trigger": false,
      "taf_trigger": false,
      "metar": "METAR LIRZ 120220Z AUTO VRB02KT 9999 BKN042/// 09/09 Q0993",
      "taf": "TAF LIRZ 112300Z 1200/1224 19008KT 9999 BKN030"
    },
    {
      "icao": "LJLJ",
      "alert": "OK",
      "vis_m": 8000,
      "fzfg": false,
      "metar_trigger": false,
      "taf_trigger": false,
      "metar": "METAR LJLJ 120200Z 31003KT 8000 -RA FEW003 OVC037 06/05 Q0991 NOSIG",
      "taf": "TAF LJLJ 112300Z 1200/1300 VRB02KT 9999 FEW003 BKN045"
    },
    {
      "icao": "LKMT",
      "alert": "OK",
      "vis_m": 9999,
      "fzfg": false,
      "metar_trigger": false,
      "taf_trigger": false,
      "metar": "METAR LKMT 120200Z 21011KT 9999 BKN013 OVC023 07/06 Q0986 NOSIG",
      "taf": "TAF LKMT 112300Z 1200/1224 22010KT 9999 BKN022"
    },
    {
      "icao": "LKPR",
      "alert": "OK",
      "vis_m": 9999,
      "fzfg": false,
      "metar_trigger": false,
      "taf_trigger": false,
      "metar": "METAR LKPR 120200Z 17007KT CAVOK 05/05 Q0984 NOSIG",
      "taf": "TAF LKPR 120200Z 1203/1309 22014KT 9999 BKN032"
    },
    {
      "icao": "LLBG",
      "alert": "OK",
      "vis_m": 9999,
      "fzfg": false,
      "metar_trigger": false,
      "taf_trigger": false,
      "metar": "METAR LLBG 120220Z 16006KT CAVOK 15/08 Q1015 NOSIG",
      "taf": "TAF LLBG 112306Z 1200/1224 14005KT CAVOK"
    },
    {
      "icao": "LMML",
      "alert": "OK",
      "vis_m": 9999,
      "fzfg": false,
      "metar_trigger": false,
      "taf_trigger": false,
      "metar": "METAR LMML 120215Z 25011KT CAVOK 16/12 Q1006 NOSIG",
      "taf": "TAF LMML 112300Z 1200/1224 27018G28KT 9999 FEW020"
    },
    {
      "icao": "LOWW",
      "alert": "OK",
      "vis_m": 9999,
      "fzfg": false,
      "metar_trigger": false,
      "taf_trigger": false,
      "metar": "METAR LOWW 120220Z 17007KT CAVOK 05/03 Q0988 NOSIG",
      "taf": "TAF LOWW 120215Z 1203/1309 20008KT 9999 FEW050 TX10/1309Z TN03/1205Z"
    },
    {
      "icao": "LPFR",
      "alert": "OK",
      "vis_m": 9000,
      "fzfg": false,
      "metar_trigger": false,
      "taf_trigger": false,
      "metar": "METAR LPFR 120200Z 25013KT 9000 SCT002 BKN020 15/15 Q1021",
      "taf": "TAF LPFR 112300Z 1200/1224 25012KT 6000 -RA SCT008 BKN015"
    },
    {
      "icao": "LPMA",
      "alert": "OK",
      "vis_m": 9999,
      "fzfg": false,
      "metar_trigger": false,
      "taf_trigger": false,
      "metar": "METAR LPMA 120200Z 21004KT 140V290 9999 BKN015 17/11 Q1026",
      "taf": "TAF LPMA 112300Z 1200/1224 VRB05KT 9999 SCT015"
    },
    {
      "icao": "LPPR",
      "alert": "OK",
      "vis_m": 9999,
      "fzfg": false,
      "metar_trigger": false,
      "taf_trigger": false,
      "metar": "METAR LPPR 120200Z 27003KT 230V310 9999 FEW015 BKN030 13/09 Q1017",
      "taf": "TAF LPPR 112300Z 1200/1224 26012KT 9999 SCT015 SCT035"
    },
    {
      "icao": "LPPS",
      "alert": "OK",
      "vis_m": 9999,
      "fzfg": false,
      "metar_trigger": false,
      "taf_trigger": false,
      "metar": "METAR LPPS 120200Z 29005KT 9999 SCT014 15/11 Q1026",
      "taf": "TAF LPPS 112300Z 1200/1306 VRB05KT 9999 SCT015"
    },
    {
      "icao": "LPPT",
      "alert": "OK",
      "vis_m": 9999,
      "fzfg": false,
      "metar_trigger": false,
      "taf_trigger": false,
      "metar": "METAR LPPT 120200Z 27007KT 9999 FEW014 BKN028 14/13 Q1020",
      "taf": "TAF LPPT 112300Z 1200/1306 28008KT 9999 SCT008 BKN015"
    },
    {
      "icao": "LQBK",
      "alert": "OK",
      "vis_m": 9999,
      "fzfg": false,
      "metar_trigger": false,
      "taf_trigger": false,
      "metar": "METAR LQBK 120200Z 13003KT 090V160 CAVOK 03/03 Q0993 NOSIG",
      "taf": ""
    },
    {
      "icao": "LQSA",
      "alert": "OK",
      "vis_m": 8000,
      "fzfg": false,
      "metar_trigger": false,
      "taf_trigger": false,
      "metar": "METAR LQSA 120200Z 14001KT 8000 SCT060 04/04 Q0995 NOSIG",
      "taf": ""
    },
    {
      "icao": "LQTZ",
      "alert": "OK",
      "vis_m": 9999,
      "fzfg": false,
      "metar_trigger": false,
      "taf_trigger": false,
      "metar": "METAR LQTZ 120200Z VRB02KT CAVOK 04/03 Q0994",
      "taf": ""
    },
    {
      "icao": "LRBC",
      "alert": "OK",
      "vis_m": 450,
      "fzfg": true,
      "metar_trigger": false,
      "taf_trigger": false,
      "metar": "METAR LRBC 120200Z 17010KT 0450 R16/0500N FZFG VV001 M01/M01 Q0996",
      "taf": "TAF LRBC 112300Z 1200/1209 17010KT 0300 FG OVC001"
    },
    {
      "icao": "LRBS",
      "alert": "OK",
      "vis_m": 4000,
      "fzfg": false,
      "metar_trigger": false,
      "taf_trigger": false,
      "metar": "METAR LRBS 120200Z VRB01KT 4000 BR NSC M01/M01 Q0999 BECMG 2000 BR",
      "taf": "TAF LRBS 112300Z 1200/1224 VRB04KT 3000 BR NSC"
    },
    {
      "icao": "LRBV",
      "alert": "OK",
      "vis_m": 9999,
      "fzfg": false,
      "metar_trigger": false,
      "taf_trigger": false,
      "metar": "METAR LRBV 120200Z AUTO 13009KT 100V180 9999 SCT074/// 05/00 Q0995",
      "taf": "TAF LRBV 112000Z 1121/1206 VRB04KT CAVOK"
    },
    {
      "icao": "LRCL",
      "alert": "OK",
      "vis_m": 9999,
      "fzfg": false,
      "metar_trigger": false,
      "taf_trigger": false,
      "metar": "METAR LRCL 120200Z 00000KT CAVOK 04/02 Q0994",
      "taf": "TAF LRCL 112300Z 1200/1209 VRB04KT CAVOK"
    },
    {
      "icao": "LRCV",
      "alert": "CRITICAL",
      "vis_m": 100,
      "fzfg": true,
      "metar_trigger": true,
      "taf_trigger": false,
      "metar": "METAR LRCV 120200Z 27004KT 0100 R08/0350N FZFG VV001 M02/M02 Q0999",
      "taf": "TAF LRCV 112300Z 1200/1209 VRB04KT 0600 FZFG OVC002"
    },
    {
      "icao": "LRIA",
      "alert": "OK",
      "vis_m": 300,
      "fzfg": true,
      "metar_trigger": false,
      "taf_trigger": false,
      "metar": "METAR LRIA 120200Z 11010KT 0300 R14/0600N FZFG VV001 M00/M01 Q0996",
      "taf": ""
    },
    {
      "icao": "LROP",
      "alert": "OK",
      "vis_m": 3500,
      "fzfg": false,
      "metar_trigger": false,
      "taf_trigger": false,
      "metar": "METAR LROP 120200Z 23003KT 3500 BR NSC M01/M01 Q0998 BECMG 1500 BR",
      "taf": "TAF LROP 112300Z 1200/1224 VRB04KT 3000 BR NSC"
    },
    {
      "icao": "LRSB",
      "alert": "OK",
      "vis_m": 9999,
      "fzfg": false,
      "metar_trigger": false,
      "taf_trigger": false,
      "metar": "METAR LRSB 120200Z VRB01KT CAVOK 01/00 Q0995",
      "taf": "TAF LRSB 112300Z 1200/1224 VRB04KT CAVOK"
    },
    {
      "icao": "LRSM",
      "alert": "OK",
      "vis_m": 9999,
      "fzfg": false,
      "metar_trigger": false,
      "taf_trigger": false,
      "metar": "METAR LRSM 120200Z AUTO 14004KT 9999 BKN031/// OVC055/// 07/05 Q0993",
      "taf": ""
    },
    {
      "icao": "LRSV",
      "alert": "OK",
      "vis_m": 9999,
      "fzfg": false,
      "metar_trigger": false,
      "taf_trigger": false,
      "metar": "METAR LRSV 120200Z 21006KT CAVOK 01/00 Q0992",
      "taf": ""
    },
    {
      "icao": "LRTM",
      "alert": "OK",
      "vis_m": 9999,
      "fzfg": false,
      "metar_trigger": false,
      "taf_trigger": false,
      "metar": "METAR LRTM 120200Z AUTO 09004KT 9999 NCD 03/01 Q0995",
      "taf": "TAF LRTM 112300Z 1200/1209 VRB04KT CAVOK"
    },
    {
      "icao": "LRTR",
      "alert": "OK",
      "vis_m": 9999,
      "fzfg": false,
      "metar_trigger": false,
      "taf_trigger": false,
      "metar": "METAR LRTR 120200Z 11008KT 9999 -RA NSC 05/04 Q0995",
      "taf": "TAF LRTR 112300Z 1200/1224 12006KT CAVOK"
    },
    {
      "icao": "LTAC",
      "alert": "OK",
      "vis_m": 6000,
      "fzfg": false,
      "metar_trigger": false,
      "taf_trigger": false,
      "metar": "METAR LTAC 120220Z 04002KT 6000 SCT025 BKN090 01/00 Q1007 TEMPO FM0300 4000 BR",
      "taf": "TAF LTAC 112240Z 1200/1224 VRB02KT 9999 SCT040 BKN100"
    },
    {
      "icao": "LTFM",
      "alert": "OK",
      "vis_m": 8000,
      "fzfg": false,
      "metar_trigger": false,
      "taf_trigger": false,
      "metar": "METAR LTFM 120220Z 15004KT 8000 FEW040 SCT100 07/05 Q1000 NOSIG",
      "taf": "TAF LTFM 112240Z 1200/1306 15010KT 6000 NSC"
    },
    {
      "icao": "LUKK",
      "alert": "OK",
      "vis_m": 8000,
      "fzfg": false,
      "metar_trigger": false,
      "taf_trigger": false,
      "metar": "METAR LUKK 120200Z 17006KT 120V210 8000 OVC004 02/01 Q0997 NOSIG",
      "taf": "TAF LUKK 112309Z 1200/1224 17009KT 9999 OVC010"
    },
    {
      "icao": "LWOH",
      "alert": "OK",
      "vis_m": null,
      "fzfg": false,
      "metar_trigger": false,
      "taf_trigger": false,
      "metar": "",
      "taf": "TAF LWOH 120220Z 1203/1303 VRB02KT 9999 RA SCT010 OVC040"
    },
    {
      "icao": "LWSK",
      "alert": "OK",
      "vis_m": 3000,
      "fzfg": false,
      "metar_trigger": false,
      "taf_trigger": false,
      "metar": "METAR LWSK 120220Z VRB01KT 3000 DZ BR SCT002 BKN014 OVC040 07/06 Q0997 NOSIG",
      "taf": "TAF LWSK 120220Z 1203/1303 VRB02KT 3000 BR BKN005 BKN010 OVC040"
    },
    {
      "icao": "LYBE",
      "alert": "OK",
      "vis_m": 9999,
      "fzfg": false,
      "metar_trigger": false,
      "taf_trigger": false,
      "metar": "METAR LYBE 120200Z 11005KT CAVOK 07/04 Q0994 NOSIG",
      "taf": "TAF LYBE 112300Z 1200/1224 08005KT CAVOK TX17/1213Z TN05/1206Z"
    },
    {
      "icao": "LYNI",
      "alert": "OK",
      "vis_m": 9999,
      "fzfg": false,
      "metar_trigger": false,
      "taf_trigger": false,
      "metar": "METAR LYNI 120200Z 11007KT CAVOK 07/03 Q0997 NOSIG",
      "taf": "TAF LYNI 112300Z 1200/1224 11005KT 9999 SCT060 TX15/1212Z TN04/1206Z"
    },
    {
      "icao": "LYPG",
      "alert": "OK",
      "vis_m": 1000,
      "fzfg": false,
      "metar_trigger": false,
      "taf_trigger": false,
      "metar": "METAR LYPG 120200Z 21001KT 1000 R18/0900N R36/1300D BR FEW030 SCT050 OVC070 09/09 Q0997 NOSIG",
      "taf": "TAF LYPG 112300Z 1200/1224 36005KT 6000 FEW007 BKN040 OVC070 TX11/1213Z TN08/1205Z"
    },
    {
      "icao": "LZIB",
      "alert": "OK",
      "vis_m": 900,
      "fzfg": false,
      "metar_trigger": false,
      "taf_trigger": false,
      "metar": "METAR LZIB 120200Z 36003KT 0900 R31/1400U R22/1900N FG FEW001 OVC003 02/02 Q0989 TEMPO 0600 FG",
      "taf": ""
    },
    {
      "icao": "LZKZ",
      "alert": "OK",
      "vis_m": 5000,
      "fzfg": false,
      "metar_trigger": false,
      "taf_trigger": false,
      "metar": "METAR LZKZ 120200Z 21005KT 5000 BR OVC004 03/03 Q0991 NOSIG",
      "taf": "TAF LZKZ 112315Z 1200/1300 21005KT 2000 BR FEW003 OVC006"
    },
    {
      "icao": "LZTT",
      "alert": "OK",
      "vis_m": 9999,
      "fzfg": false,
      "metar_trigger": false,
      "taf_trigger": false,
      "metar": "METAR LZTT 120200Z 22005KT 180V250 9999 FEW016 BKN030 05/02 Q0987",
      "taf": "TAF LZTT 112315Z 1200/1300 24011KT 9999 BKN030"
    },
    {
      "icao": "OEJN",
      "alert": "OK",
      "vis_m": 9999,
      "fzfg": false,
      "metar_trigger": false,
      "taf_trigger": false,
      "metar": "METAR OEJN 120200Z 35004KT CAVOK 23/17 Q1012 NOSIG",
      "taf": "TAF OEJN 112300Z 1200/1306 36005KT 7000 FEW040"
    },
    {
      "icao": "OEMA",
      "alert": "OK",
      "vis_m": 9999,
      "fzfg": false,
      "metar_trigger": false,
      "taf_trigger": false,
      "metar": "METAR OEMA 120200Z 11003KT CAVOK 21/09 Q1017 NOSIG",
      "taf": "TAF OEMA 112300Z 1200/1306 VRB03KT CAVOK"
    },
    {
      "icao": "OJAI",
      "alert": "OK",
      "vis_m": 4000,
      "fzfg": false,
      "metar_trigger": false,
      "taf_trigger": false,
      "metar": "METAR OJAI 120200Z 16004KT 4000 BR NSC 06/04 Q1018 NOSIG",
      "taf": "TAF OJAI 112300Z 1200/1306 25012KT 5000 HZ FEW035"
    },
    {
      "icao": "OMAA",
      "alert": "OK",
      "vis_m": 4000,
      "fzfg": false,
      "metar_trigger": false,
      "taf_trigger": false,
      "metar": "METAR OMAA 120200Z 09003KT 4000 HZ FEW007 17/15 Q1017 TEMPO 3000 BR",
      "taf": "TAF OMAA 112300Z 1200/1306 VRB02KT 8000 NSC"
    },
    {
      "icao": "OMDB",
      "alert": "OK",
      "vis_m": 9999,
      "fzfg": false,
      "metar_trigger": false,
      "taf_trigger": false,
      "metar": "METAR OMDB 120200Z 08006G17KT 050V120 CAVOK 21/15 Q1018 NOSIG",
      "taf": "TAF OMDB 112300Z 1200/1306 10007KT 8000 NSC"
    },
    {
      "icao": "UAAA",
      "alert": "OK",
      "vis_m": 1200,
      "fzfg": false,
      "metar_trigger": false,
      "taf_trigger": false,
      "metar": "METAR UAAA 120200Z 34002MPS 1200 R23L/1200D -SHSN BR BKN016CB OVC100 M02/M03 Q1023 NOSIG",
      "taf": "TAF UAAA 112303Z 1200/1224 02003G08MPS 1200 -SN BR BKN011 OVC020 TX00/1209Z TNM03/1203Z"
    },
    {
      "icao": "UBBB",
      "alert": "OK",
      "vis_m": 9999,
      "fzfg": false,
      "metar_trigger": false,
      "taf_trigger": false,
      "metar": "METAR UBBB 120200Z 15006KT CAVOK 03/01 Q1015 NOSIG",
      "taf": "TAF UBBB 112257Z 1200/1224 16010KT 9999 BKN025 TX07/1210Z TN01/1201Z"
    },
    {
      "icao": "UDSG",
      "alert": "OK",
      "vis_m": 600,
      "fzfg": true,
      "metar_trigger": false,
      "taf_trigger": false,
      "metar": "METAR UDSG 120200Z 30003KT 0600 R02/1400N FZFG VV003 M02/M02 Q1014 NOSIG",
      "taf": "TAF UDSG 112258Z 1200/1224 VRB06KT 3000 BR OVC020"
    },
    {
      "icao": "UDYZ",
      "alert": "OK",
      "vis_m": 4000,
      "fzfg": false,
      "metar_trigger": false,
      "taf_trigger": false,
      "metar": "METAR UDYZ 120200Z 35002KT 4000 BR BKN016 02/02 Q1015 NOSIG",
      "taf": "TAF UDYZ 112300Z 1200/1224 VRB04KT 2300 BR BKN020"
    },
    {
      "icao": "UGKO",
      "alert": "OK",
      "vis_m": 9999,
      "fzfg": false,
      "metar_trigger": false,
      "taf_trigger": false,
      "metar": "METAR UGKO 120200Z 09010KT 9999 BKN088 06/00 Q1011 NOSIG",
      "taf": "TAF UGKO 112300Z 1200/1224 08015KT 9999 BKN050 TX17/1211Z TN05/1202Z"
    }
  ]
}