{
  "ts_utc": "2025-12-20T07:26:27Z",
  "threshold_m": 150,
  "source": "stations_override.txt (ICAO list) + aviationweather.gov (METAR/TAF raw)",
  "station_count": 114,
  "stations": [
    {
      "icao": "BIKF",
      "alert": "OK",
      "vis_m": 9999,
      "fzfg": false,
      "metar_trigger": false,
      "taf_trigger": false,
      "metar": "METAR BIKF 200700Z 12024KT 9999 -RA BKN014 BKN031 OVC130 09/07 Q0984",
      "taf": "TAF BIKF 200453Z 2006/2106 12022G38KT 9999 -RA BKN015 OVC025 TX09/2014Z TN04/2023Z"
    },
    {
      "icao": "BKPR",
      "alert": "WARNING",
      "vis_m": null,
      "fzfg": true,
      "metar_trigger": false,
      "taf_trigger": true,
      "metar": "",
      "taf": "TAF BKPR 200530Z 2006/2106 VRB03KT 0100 FZFG OVC001"
    },
    {
      "icao": "EBBR",
      "alert": "OK",
      "vis_m": 3000,
      "fzfg": false,
      "metar_trigger": false,
      "taf_trigger": false,
      "metar": "METAR EBBR 200720Z VRB01KT 3000 BR NSC 02/02 Q1017 NOSIG",
      "taf": "TAF EBBR 200505Z 2006/2112 12005KT 9999 BKN040"
    },
    {
      "icao": "EBCI",
      "alert": "OK",
      "vis_m": 6000,
      "fzfg": false,
      "metar_trigger": false,
      "taf_trigger": false,
      "metar": "METAR EBCI 200720Z 14003KT 110V170 6000 NSC 02/02 Q1017 TEMPO 4000 BR",
      "taf": "TAF EBCI 200505Z 2006/2112 13005KT 9999 BKN030"
    },
    {
      "icao": "EDDB",
      "alert": "OK",
      "vis_m": 9999,
      "fzfg": false,
      "metar_trigger": false,
      "taf_trigger": false,
      "metar": "METAR EDDB 200720Z AUTO 19003KT 160V220 CAVOK 06/06 Q1019 NOSIG",
      "taf": "TAF EDDB 200500Z 2006/2106 VRB02KT 9999 SCT013 BKN025"
    },
    {
      "icao": "EDDH",
      "alert": "OK",
      "vis_m": 650,
      "fzfg": false,
      "metar_trigger": false,
      "taf_trigger": false,
      "metar": "METAR EDDH 200720Z AUTO 20004KT 0650 0300 R23/P2000N R15/0450N FG NSC 02/02 Q1019 TEMPO 1000 BR",
      "taf": ""
    },
    {
      "icao": "EDDK",
      "alert": "OK",
      "vis_m": 500,
      "fzfg": false,
      "metar_trigger": false,
      "taf_trigger": false,
      "metar": "METAR EDDK 200720Z AUTO VRB01KT 0500 0400 R13L/0500N R24/0650D FG SCT002 03/03 Q1018 TEMPO 0300 BKN001",
      "taf": "TAF EDDK 200500Z 2006/2112 VRB01KT 0350 FG OVC003"
    },
    {
      "icao": "EDDN",
      "alert": "OK",
      "vis_m": 9999,
      "fzfg": false,
      "metar_trigger": false,
      "taf_trigger": false,
      "metar": "METAR EDDN 200720Z AUTO VRB02KT CAVOK 01/00 Q1019 NOSIG",
      "taf": "TAF EDDN 200500Z 2006/2106 10004KT CAVOK"
    },
    {
      "icao": "EDFH",
      "alert": "OK",
      "vis_m": 350,
      "fzfg": false,
      "metar_trigger": false,
      "taf_trigger": false,
      "metar": "METAR EDFH 200720Z 12008KT 0350 R21/0800U FG VV/// 06/06 Q1017",
      "taf": "TAF EDFH 200500Z 2006/2106 12007KT 2500 BR SCT001 BKN005"
    },
    {
      "icao": "EDJA",
      "alert": "OK",
      "vis_m": 9999,
      "fzfg": false,
      "metar_trigger": false,
      "taf_trigger": false,
      "metar": "METAR EDJA 200720Z 05002KT CAVOK 00/M01 Q1017",
      "taf": "TAF EDJA 200500Z 2006/2015 VRB03KT CAVOK"
    },
    {
      "icao": "EDLW",
      "alert": "OK",
      "vis_m": 9999,
      "fzfg": false,
      "metar_trigger": false,
      "taf_trigger": false,
      "metar": "METAR EDLW 200720Z 15007KT CAVOK 03/02 Q1018",
      "taf": "TAF EDLW 200500Z 2006/2106 15007KT CAVOK"
    },
    {
      "icao": "EDSB",
      "alert": "OK",
      "vis_m": 6000,
      "fzfg": false,
      "metar_trigger": false,
      "taf_trigger": false,
      "metar": "METAR EDSB 200720Z 19003KT 6000 RA BKN048 07/06 Q1018",
      "taf": "TAF EDSB 200500Z 2006/2106 VRB03KT 9999 SCT040"
    },
    {
      "icao": "EETN",
      "alert": "OK",
      "vis_m": 9000,
      "fzfg": false,
      "metar_trigger": false,
      "taf_trigger": false,
      "metar": "METAR EETN 200720Z 22009KT 9000 -DZ OVC004 07/06 Q1008 REDZ TEMPO 4000 DZ BKN002",
      "taf": "TAF EETN 200530Z 2006/2106 21010KT 5000 BR OVC005"
    },
    {
      "icao": "EFHK",
      "alert": "OK",
      "vis_m": 9999,
      "fzfg": false,
      "metar_trigger": false,
      "taf_trigger": false,
      "metar": "METAR EFHK 200720Z 22008KT 9999 BKN007 06/06 Q1006 BECMG SCT010",
      "taf": "TAF EFHK 200525Z 2006/2106 21011KT 9999 BKN008"
    },
    {
      "icao": "EFTU",
      "alert": "OK",
      "vis_m": 9999,
      "fzfg": false,
      "metar_trigger": false,
      "taf_trigger": false,
      "metar": "METAR EFTU 200720Z AUTO 25011KT 9999 OVC015 06/04 Q1005",
      "taf": ""
    },
    {
      "icao": "EGGW",
      "alert": "OK",
      "vis_m": 300,
      "fzfg": false,
      "metar_trigger": false,
      "taf_trigger": false,
      "metar": "METAR EGGW 200720Z AUTO 16005KT 0300 R25/1300U FG FEW001 OVC010 03/03 Q1013",
      "taf": "TAF EGGW 200459Z 2006/2106 17005KT 0300 FG VV///"
    },
    {
      "icao": "EGKK",
      "alert": "OK",
      "vis_m": 7000,
      "fzfg": false,
      "metar_trigger": false,
      "taf_trigger": false,
      "metar": "METAR EGKK 200720Z 09004KT 7000 1400SE VCFG FEW018 M00/M00 Q1014",
      "taf": "TAF EGKK 200503Z 2006/2112 14003KT CAVOK"
    },
    {
      "icao": "EHEH",
      "alert": "OK",
      "vis_m": 300,
      "fzfg": false,
      "metar_trigger": false,
      "taf_trigger": false,
      "metar": "SPECI EHEH 200702Z AUTO VRB01KT 0300 R21/0700D FG BKN000 OVC150 01/01 Q1018 RED NOSIG RMK LVP B TREND REMOTE BY EHWX",
      "taf": "TAF EHEH 200519Z 2006/2112 VRB02KT 0600 FG BKN001"
    },
    {
      "icao": "EKBI",
      "alert": "OK",
      "vis_m": 9999,
      "fzfg": false,
      "metar_trigger": false,
      "taf_trigger": false,
      "metar": "METAR EKBI 200720Z AUTO 19004KT 9999 SCT020/// 06/05 Q1016",
      "taf": "TAF EKBI 200527Z 2006/2106 24008KT 9999 BKN015"
    },
    {
      "icao": "EKCH",
      "alert": "OK",
      "vis_m": 9999,
      "fzfg": false,
      "metar_trigger": false,
      "taf_trigger": false,
      "metar": "METAR EKCH 200720Z AUTO 22011KT 9999 BKN029/// 07/06 Q1017 TEMPO BKN008",
      "taf": ""
    },
    {
      "icao": "ENTO",
      "alert": "OK",
      "vis_m": 9999,
      "fzfg": false,
      "metar_trigger": false,
      "taf_trigger": false,
      "metar": "METAR ENTO 200720Z 23010KT CAVOK 07/05 Q1006 NOSIG",
      "taf": "TAF ENTO 200500Z 2006/2106 23010KT CAVOK"
    },
    {
      "icao": "EPGD",
      "alert": "OK",
      "vis_m": 9999,
      "fzfg": false,
      "metar_trigger": false,
      "taf_trigger": false,
      "metar": "METAR EPGD 200700Z 27007KT 9999 FEW005 06/06 Q1017",
      "taf": ""
    },
    {
      "icao": "EPKK",
      "alert": "OK",
      "vis_m": 350,
      "fzfg": false,
      "metar_trigger": false,
      "taf_trigger": false,
      "metar": "METAR EPKK 200700Z 22005KT 0350 R25/0800D FG OVC002 02/02 Q1021",
      "taf": "TAF EPKK 200530Z 2006/2106 22005KT 0200 FG VV001"
    },
    {
      "icao": "EPKT",
      "alert": "OK",
      "vis_m": 350,
      "fzfg": false,
      "metar_trigger": false,
      "taf_trigger": false,
      "metar": "METAR EPKT 200700Z 20006KT 0350 R26/0700N FG OVC001 02/02 Q1021",
      "taf": "TAF EPKT 200530Z 2006/2106 20007KT 2500 BR OVC002"
    },
    {
      "icao": "EPWA",
      "alert": "OK",
      "vis_m": 1000,
      "fzfg": false,
      "metar_trigger": false,
      "taf_trigger": false,
      "metar": "METAR EPWA 200700Z 20004KT 170V230 1000 0900W R11/1100U BCFG BR OVC002 02/02 Q1020 TEMPO 0700 FG",
      "taf": "TAF EPWA 200530Z 2006/2106 VRB03KT 1100 BR OVC002"
    },
    {
      "icao": "EPWR",
      "alert": "OK",
      "vis_m": 8000,
      "fzfg": false,
      "metar_trigger": false,
      "taf_trigger": false,
      "metar": "METAR EPWR 200700Z 12003KT 8000 BKN014 01/01 Q1021",
      "taf": ""
    },
    {
      "icao": "ESGG",
      "alert": "OK",
      "vis_m": 6000,
      "fzfg": false,
      "metar_trigger": false,
      "taf_trigger": false,
      "metar": "METAR ESGG 200720Z 23014KT 6000 -RA BKN006 OVC009 07/06 Q1011",
      "taf": "TAF ESGG 200530Z 2006/2106 21014KT 9999 BKN008"
    },
    {
      "icao": "ESKN",
      "alert": "OK",
      "vis_m": 9999,
      "fzfg": false,
      "metar_trigger": false,
      "taf_trigger": false,
      "metar": "METAR ESKN 200720Z 22010KT 9999 SCT028 SCT036 06/04 Q1007",
      "taf": "TAF ESKN 200530Z 2006/2106 22009KT 9999 SCT025"
    },
    {
      "icao": "ESMX",
      "alert": "OK",
      "vis_m": 9999,
      "fzfg": false,
      "metar_trigger": false,
      "taf_trigger": false,
      "metar": "METAR ESMX 200720Z AUTO 23011KT 9999 OVC009/// 06/06 Q1013",
      "taf": ""
    },
    {
      "icao": "EVRA",
      "alert": "OK",
      "vis_m": 6000,
      "fzfg": false,
      "metar_trigger": false,
      "taf_trigger": false,
      "metar": "METAR EVRA 200720Z 19009KT 6000 -RA OVC004 05/04 Q1013 NOSIG",
      "taf": "TAF EVRA 200501Z 2006/2106 19010KT 7000 OVC004"
    },
    {
      "icao": "EYKA",
      "alert": "OK",
      "vis_m": 2000,
      "fzfg": false,
      "metar_trigger": false,
      "taf_trigger": false,
      "metar": "METAR EYKA 200720Z 20006KT 160V260 2000 -RA BR OVC001 02/02 Q1018",
      "taf": ""
    },
    {
      "icao": "EYVI",
      "alert": "OK",
      "vis_m": 500,
      "fzfg": false,
      "metar_trigger": false,
      "taf_trigger": false,
      "metar": "METAR EYVI 200720Z 19012KT 0500 R01/1000N FG VV001 00/M00 Q1018 NOSIG",
      "taf": "TAF EYVI 200501Z 2006/2106 19010KT 0500 FG VV002"
    },
    {
      "icao": "GCLP",
      "alert": "OK",
      "vis_m": 9999,
      "fzfg": false,
      "metar_trigger": false,
      "taf_trigger": false,
      "metar": "METAR GCLP 200700Z 36012KT 9999 SCT030 BKN045 18/11 Q1023 NOSIG",
      "taf": "TAF GCLP 200200Z 2003/2103 36015KT 9999 SCT030 TX21/2014Z TN16/2006Z"
    },
    {
      "icao": "GCTS",
      "alert": "OK",
      "vis_m": 9999,
      "fzfg": false,
      "metar_trigger": false,
      "taf_trigger": false,
      "metar": "METAR GCTS 200700Z 05014KT 9999 SCT030 18/10 Q1023 NOSIG",
      "taf": "TAF GCTS 200200Z 2003/2103 04012KT 9999 SCT030 TX23/2014Z TN16/2006Z"
    },
    {
      "icao": "HECA",
      "alert": "OK",
      "vis_m": 9999,
      "fzfg": false,
      "metar_trigger": false,
      "taf_trigger": false,
      "metar": "METAR HECA 200700Z 07012KT CAVOK 16/07 Q1019 NOSIG",
      "taf": "TAF HECA 200500Z 2006/2112 06010KT 9999 SCT020"
    },
    {
      "icao": "HEGN",
      "alert": "OK",
      "vis_m": 9999,
      "fzfg": false,
      "metar_trigger": false,
      "taf_trigger": false,
      "metar": "METAR HEGN 200600Z 29009KT CAVOK 16/08 Q1019 NOSIG",
      "taf": "TAF HEGN 200500Z 2006/2112 31010KT CAVOK"
    },
    {
      "icao": "HESH",
      "alert": "OK",
      "vis_m": 9999,
      "fzfg": false,
      "metar_trigger": false,
      "taf_trigger": false,
      "metar": "METAR HESH 200600Z 33006KT CAVOK 18/07 Q1019 NOSIG",
      "taf": "TAF HESH 200500Z 2006/2112 34010KT CAVOK"
    },
    {
      "icao": "HESX",
      "alert": "OK",
      "vis_m": 9999,
      "fzfg": false,
      "metar_trigger": false,
      "taf_trigger": false,
      "metar": "METAR HESX 200600Z 09006KT CAVOK 12/09 Q1019 NOSIG",
      "taf": "TAF HESX 200500Z 2006/2112 05010KT 9999 SCT020"
    },
    {
      "icao": "LATI",
      "alert": "OK",
      "vis_m": 9999,
      "fzfg": false,
      "metar_trigger": false,
      "taf_trigger": false,
      "metar": "METAR LATI 200720Z VRB01KT 6000 2900S BCFG NSC 06/05 Q1019 BECMG FM0745 CAVOK",
      "taf": ""
    },
    {
      "icao": "LBSF",
      "alert": "OK",
      "vis_m": 150,
      "fzfg": true,
      "metar_trigger": false,
      "taf_trigger": false,
      "metar": "METAR LBSF 200700Z VRB02KT 0150 R27/0300N FZFG VV001 M03/M03 Q1022 NOSIG",
      "taf": "TAF LBSF 200500Z 2006/2106 VRB03KT 1500 BR SCT002 OVC003"
    },
    {
      "icao": "LBWN",
      "alert": "OK",
      "vis_m": 1200,
      "fzfg": false,
      "metar_trigger": false,
      "taf_trigger": false,
      "metar": "METAR LBWN 200700Z AUTO 27004KT 240V300 1200 1100W R09/1500N BR OVC019/// 04/04 Q1023 TEMPO 0800 BCFG",
      "taf": ""
    },
    {
      "icao": "LCLK",
      "alert": "OK",
      "vis_m": 9999,
      "fzfg": false,
      "metar_trigger": false,
      "taf_trigger": false,
      "metar": "METAR LCLK 200700Z 33004KT 9999 FEW030 17/12 Q1019 NOSIG",
      "taf": "TAF LCLK 200530Z 2006/2106 33006KT 9999 FEW030"
    },
    {
      "icao": "LDDU",
      "alert": "OK",
      "vis_m": 9999,
      "fzfg": false,
      "metar_trigger": false,
      "taf_trigger": false,
      "metar": "METAR LDDU 200700Z 04008KT 330V100 CAVOK 11/03 Q1018 NOSIG",
      "taf": "TAF LDDU 200525Z 2006/2106 02010KT CAVOK TX16/2012Z TN08/2105Z"
    },
    {
      "icao": "LDSP",
      "alert": "OK",
      "vis_m": 9999,
      "fzfg": false,
      "metar_trigger": false,
      "taf_trigger": false,
      "metar": "METAR LDSP 200700Z 04004KT CAVOK 08/08 Q1019 NOSIG",
      "taf": "TAF LDSP 200525Z 2006/2106 VRB02KT CAVOK TX17/2012Z TN07/2105Z"
    },
    {
      "icao": "LDZA",
      "alert": "OK",
      "vis_m": 1000,
      "fzfg": false,
      "metar_trigger": false,
      "taf_trigger": false,
      "metar": "METAR LDZA 200700Z VRB01KT 1000 R04/P2000N R22/P2000N -DZ BR OVC003 02/01 Q1023 NOSIG",
      "taf": "TAF LDZA 200526Z 2006/2106 VRB02KT 0300 FG VV002 TX05/2013Z TN02/2006Z"
    },
    {
      "icao": "LEAL",
      "alert": "OK",
      "vis_m": 9999,
      "fzfg": false,
      "metar_trigger": false,
      "taf_trigger": false,
      "metar": "METAR LEAL 200700Z 30004KT 260V320 CAVOK 10/10 Q1015 NOSIG",
      "taf": "TAF LEAL 200500Z 2006/2106 VRB03KT 9999 FEW015 TX17/2012Z TN11/2006Z"
    },
    {
      "icao": "LEBL",
      "alert": "OK",
      "vis_m": 9000,
      "fzfg": false,
      "metar_trigger": false,
      "taf_trigger": false,
      "metar": "METAR LEBL 200700Z 33008G21KT 290V360 9000 -RA SCT009 SCT028 BKN045 11/11 Q1015 NOSIG",
      "taf": "TAF LEBL 200500Z 2006/2106 34009KT 9999 FEW020 TX14/2012Z TN09/2006Z"
    },
    {
      "icao": "LECH",
      "alert": "OK",
      "vis_m": 7000,
      "fzfg": false,
      "metar_trigger": false,
      "taf_trigger": false,
      "metar": "METAR LECH 200700Z AUTO 19003KT 7000 NSC 06/06 Q1015",
      "taf": ""
    },
    {
      "icao": "LEMD",
      "alert": "OK",
      "vis_m": 8000,
      "fzfg": false,
      "metar_trigger": false,
      "taf_trigger": false,
      "metar": "METAR LEMD 200700Z 36002KT 8000 SCT070 07/07 Q1015 NOSIG",
      "taf": "TAF LEMD 200500Z 2006/2112 VRB04KT 9999 SCT045 TX08/2015Z TN03/2107Z"
    },
    {
      "icao": "LEMG",
      "alert": "OK",
      "vis_m": 800,
      "fzfg": false,
      "metar_trigger": false,
      "taf_trigger": false,
      "metar": "SPECI LEMG 200707Z COR 30005KT 0800 R31/P2000 R12/0800N R13/0400D FG SCT001 09/08 Q1017 NOSIG",
      "taf": ""
    },
    {
      "icao": "LERS",
      "alert": "OK",
      "vis_m": 9999,
      "fzfg": false,
      "metar_trigger": false,
      "taf_trigger": false,
      "metar": "METAR LERS 200700Z 01007KT CAVOK 11/07 Q1015",
      "taf": ""
    },
    {
      "icao": "LEVC",
      "alert": "OK",
      "vis_m": 9999,
      "fzfg": false,
      "metar_trigger": false,
      "taf_trigger": false,
      "metar": "METAR LEVC 200700Z 29003KT CAVOK 07/07 Q1016 NOSIG",
      "taf": "TAF LEVC 200500Z 2006/2106 VRB04KT 9999 FEW015 TX17/2012Z TN07/2006Z"
    },
    {
      "icao": "LFLL",
      "alert": "OK",
      "vis_m": 9999,
      "fzfg": false,
      "metar_trigger": false,
      "taf_trigger": false,
      "metar": "METAR LFLL 200700Z 14009KT 9999 -RA BKN040 SCT070 BKN100 09/08 Q1016 NOSIG",
      "taf": "TAF LFLL 200500Z 2006/2112 14007KT 9999 BKN050"
    },
    {
      "icao": "LFMN",
      "alert": "OK",
      "vis_m": 9999,
      "fzfg": false,
      "metar_trigger": false,
      "taf_trigger": false,
      "metar": "METAR LFMN 200700Z 33010KT 9999 -RA BKN043 BKN086 12/09 Q1018 NOSIG",
      "taf": "TAF LFMN 200200Z 2003/2109 33010KT 9999 FEW040 BKN100"
    },
    {
      "icao": "LFOB",
      "alert": "OK",
      "vis_m": 3800,
      "fzfg": false,
      "metar_trigger": false,
      "taf_trigger": false,
      "metar": "METAR LFOB 200700Z AUTO 00000KT 3800 -RA BR OVC001 04/04 Q1016 TEMPO VV/// BECMG 7000 NSW",
      "taf": "TAF LFOB 200500Z 2006/2106 VRB03KT 3000 BR NSC"
    },
    {
      "icao": "LFPO",
      "alert": "OK",
      "vis_m": 8000,
      "fzfg": false,
      "metar_trigger": false,
      "taf_trigger": false,
      "metar": "METAR LFPO 200700Z 07005KT 8000 -RA OVC009 08/08 Q1015 NOSIG",
      "taf": "TAF LFPO 200500Z 2006/2112 04005KT 9999 BKN012"
    },
    {
      "icao": "LFSB",
      "alert": "OK",
      "vis_m": 9999,
      "fzfg": false,
      "metar_trigger": false,
      "taf_trigger": false,
      "metar": "METAR LFSB 200700Z AUTO VRB02KT 9999 FEW054 BKN086 BKN100 05/04 Q1017 NOSIG",
      "taf": "TAF LFSB 200500Z 2006/2106 VRB03KT 9999 FEW045 BKN065"
    },
    {
      "icao": "LGAV",
      "alert": "OK",
      "vis_m": 9999,
      "fzfg": false,
      "metar_trigger": false,
      "taf_trigger": false,
      "metar": "METAR LGAV 200720Z 24004KT 220V350 9999 FEW025 13/08 Q1020 NOSIG",
      "taf": "TAF LGAV 200500Z 2006/2106 VRB03KT 9999 FEW020"
    },
    {
      "icao": "LGIR",
      "alert": "OK",
      "vis_m": 9999,
      "fzfg": false,
      "metar_trigger": false,
      "taf_trigger": false,
      "metar": "METAR LGIR 200720Z 19004KT 9999 FEW018 BKN080 13/11 Q1019 NOSIG",
      "taf": "TAF LGIR 200500Z 2006/2106 18010KT 9999 SCT020 BKN080"
    },
    {
      "icao": "LGKR",
      "alert": "OK",
      "vis_m": 8000,
      "fzfg": false,
      "metar_trigger": false,
      "taf_trigger": false,
      "metar": "METAR LGKR 200720Z 00000KT 8000 SCT005 09/09 Q1018 NOSIG",
      "taf": "TAF LGKR 200500Z 2006/2106 VRB03KT 9999 SCT020"
    },
    {
      "icao": "LGRP",
      "alert": "OK",
      "vis_m": 9999,
      "fzfg": false,
      "metar_trigger": false,
      "taf_trigger": false,
      "metar": "METAR LGRP 200720Z 00000KT 9999 FEW018 15/11 Q1017 NOSIG",
      "taf": "TAF LGRP 200500Z 2006/2106 VRB05KT 9999 SCT020"
    },
    {
      "icao": "LGTS",
      "alert": "OK",
      "vis_m": 8000,
      "fzfg": false,
      "metar_trigger": false,
      "taf_trigger": false,
      "metar": "METAR LGTS 200720Z VRB03KT 8000 FEW006 04/04 Q1022 NOSIG",
      "taf": "TAF LGTS 200500Z 2006/2106 VRB03KT 8000 FEW010"
    },
    {
      "icao": "LGZA",
      "alert": "OK",
      "vis_m": 9999,
      "fzfg": false,
      "metar_trigger": false,
      "taf_trigger": false,
      "metar": "METAR LGZA 200650Z 00000KT 9999 FEW018 SCT030 BKN080 10/09 Q1018",
      "taf": "TAF LGZA 200500Z 2006/2015 07008KT 9999 FEW012"
    },
    {
      "icao": "LHBP",
      "alert": "OK",
      "vis_m": 6000,
      "fzfg": false,
      "metar_trigger": false,
      "taf_trigger": false,
      "metar": "SPECI LHBP 200711Z 35004KT 6000 OVC009 06/04 Q1022 NOSIG",
      "taf": "TAF LHBP 200515Z 2006/2106 VRB03KT 5000 BR OVC015"
    },
    {
      "icao": "LHDC",
      "alert": "OK",
      "vis_m": 250,
      "fzfg": false,
      "metar_trigger": false,
      "taf_trigger": false,
      "metar": "METAR LHDC 200645Z AUTO 20003KT 150V240 0250 FG VV001 06/05 Q1022 NOSIG",
      "taf": ""
    },
    {
      "icao": "LIBD",
      "alert": "OK",
      "vis_m": 6000,
      "fzfg": false,
      "metar_trigger": false,
      "taf_trigger": false,
      "metar": "METAR LIBD 200720Z 22004KT 6000 FEW040 08/08 Q1019",
      "taf": "TAF LIBD 200500Z 2006/2106 VRB04KT 3000 BR OVC010"
    },
    {
      "icao": "LICC",
      "alert": "OK",
      "vis_m": 9999,
      "fzfg": false,
      "metar_trigger": false,
      "taf_trigger": false,
      "metar": "METAR LICC 200720Z 01004KT 350V050 9999 FEW020 SCT060 BKN100 14/14 Q1015",
      "taf": "TAF LICC 200500Z 2006/2106 08008KT 9999 SCT015 BKN040"
    },
    {
      "icao": "LICJ",
      "alert": "OK",
      "vis_m": 9999,
      "fzfg": false,
      "metar_trigger": false,
      "taf_trigger": false,
      "metar": "METAR LICJ 200720Z 16005KT 9999 BKN070 14/12 Q1014",
      "taf": "TAF LICJ 200500Z 2006/2106 VRB05KT 9999 SCT040"
    },
    {
      "icao": "LIEO",
      "alert": "OK",
      "vis_m": 8000,
      "fzfg": false,
      "metar_trigger": false,
      "taf_trigger": false,
      "metar": "METAR LIEO 200720Z VRB02KT 8000 3000SW VCFG SCT007 SCT015 11/11 Q1017",
      "taf": "TAF LIEO 200500Z 2006/2106 VRB05KT 9999 SCT012"
    },
    {
      "icao": "LIMC",
      "alert": "OK",
      "vis_m": 3000,
      "fzfg": false,
      "metar_trigger": false,
      "taf_trigger": false,
      "metar": "METAR LIMC 200720Z 36005KT 3000 BR BKN015 07/07 Q1021 NOSIG",
      "taf": "TAF LIMC 200500Z 2006/2112 VRB03KT 2000 BR SCT010"
    },
    {
      "icao": "LIME",
      "alert": "OK",
      "vis_m": 9000,
      "fzfg": false,
      "metar_trigger": false,
      "taf_trigger": false,
      "metar": "METAR LIME 200720Z 01004KT 9000 SCT010 BKN045 07/05 Q1021 NOSIG",
      "taf": "TAF LIME 200500Z 2006/2106 VRB03KT 6000 FEW020"
    },
    {
      "icao": "LIPH",
      "alert": "OK",
      "vis_m": 1800,
      "fzfg": false,
      "metar_trigger": false,
      "taf_trigger": false,
      "metar": "METAR LIPH 200720Z 25003KT 1800 BCFG NSC 04/04 Q1021",
      "taf": "TAF LIPH 200500Z 2006/2106 VRB04KT 3000 BR BKN020"
    },
    {
      "icao": "LIPQ",
      "alert": "OK",
      "vis_m": 9999,
      "fzfg": false,
      "metar_trigger": false,
      "taf_trigger": false,
      "metar": "METAR LIPQ 200720Z AUTO 04005KT 9999 NCD 06/05 Q1021",
      "taf": "TAF LIPQ 200500Z 2006/2106 VRB04KT 9000 BKN010"
    },
    {
      "icao": "LIPX",
      "alert": "OK",
      "vis_m": 5000,
      "fzfg": false,
      "metar_trigger": false,
      "taf_trigger": false,
      "metar": "METAR LIPX 200720Z 33002KT 5000 BR FEW015 BKN060 07/06 Q1021",
      "taf": "TAF LIPX 200500Z 2006/2106 VRB03KT 6000 SCT030"
    },
    {
      "icao": "LIPY",
      "alert": "OK",
      "vis_m": 9999,
      "fzfg": false,
      "metar_trigger": false,
      "taf_trigger": false,
      "metar": "METAR LIPY 200720Z AUTO VRB01KT 9999 FEW020/// SCT026/// BKN086/// 09/09 Q1021",
      "taf": "TAF LIPY 200500Z 2006/2106 VRB05KT 8000 OVC005"
    },
    {
      "icao": "LIPZ",
      "alert": "OK",
      "vis_m": 4000,
      "fzfg": false,
      "metar_trigger": false,
      "taf_trigger": false,
      "metar": "METAR LIPZ 200720Z 32003KT 4000 1800SW BCFG FEW025 07/06 Q1021 NOSIG",
      "taf": "TAF LIPZ 200500Z 2006/2112 VRB04KT 7000 BKN020"
    },
    {
      "icao": "LIRA",
      "alert": "OK",
      "vis_m": 9999,
      "fzfg": false,
      "metar_trigger": false,
      "taf_trigger": false,
      "metar": "METAR LIRA 200720Z 04004KT CAVOK 07/06 Q1017",
      "taf": "TAF LIRA 200500Z 2006/2106 VRB05KT CAVOK"
    },
    {
      "icao": "LIRN",
      "alert": "OK",
      "vis_m": 9999,
      "fzfg": false,
      "metar_trigger": false,
      "taf_trigger": false,
      "metar": "METAR LIRN 200720Z 01006KT CAVOK 10/06 Q1017 NOSIG",
      "taf": "TAF LIRN 200500Z 2006/2106 05007KT CAVOK"
    },
    {
      "icao": "LLBG",
      "alert": "OK",
      "vis_m": 9999,
      "fzfg": false,
      "metar_trigger": false,
      "taf_trigger": false,
      "metar": "METAR LLBG 200720Z VRB01KT 9999 BKN040 18/10 Q1020 NOSIG",
      "taf": "TAF LLBG 200504Z 2006/2106 VRB04KT 9999 SCT040"
    },
    {
      "icao": "LMML",
      "alert": "OK",
      "vis_m": 9999,
      "fzfg": false,
      "metar_trigger": false,
      "taf_trigger": false,
      "metar": "METAR LMML 200715Z 11004KT 080V140 9999 -RA FEW009 14/14 Q1014 NOSIG",
      "taf": "TAF LMML 200500Z 2006/2106 18010KT 9999 SCT009 SCT030"
    },
    {
      "icao": "LOWW",
      "alert": "OK",
      "vis_m": 3400,
      "fzfg": false,
      "metar_trigger": false,
      "taf_trigger": false,
      "metar": "METAR LOWW 200720Z 25003KT 200V300 3400 1200S R16/P1500U R29/P1500D -DZ BR FEW000 BKN001 02/01 Q1023 TEMPO 1400 BR",
      "taf": "TAF LOWW 200515Z 2006/2112 VRB03KT 3000 BR SCT002 BKN003 TX03/2112Z TN01/2007Z"
    },
    {
      "icao": "LPFR",
      "alert": "OK",
      "vis_m": 9999,
      "fzfg": false,
      "metar_trigger": false,
      "taf_trigger": false,
      "metar": "METAR LPFR 200700Z VRB01KT 9999 SCT040 08/06 Q1020",
      "taf": "TAF LPFR 200500Z 2006/2106 VRB02KT 9999 SCT030"
    },
    {
      "icao": "LPPR",
      "alert": "OK",
      "vis_m": 9999,
      "fzfg": false,
      "metar_trigger": false,
      "taf_trigger": false,
      "metar": "METAR LPPR 200700Z 13009KT 9999 BKN032 BKN042 08/06 Q1016",
      "taf": "TAF LPPR 200500Z 2006/2106 12008KT 9999 SCT030"
    },
    {
      "icao": "LPPT",
      "alert": "OK",
      "vis_m": 9999,
      "fzfg": false,
      "metar_trigger": false,
      "taf_trigger": false,
      "metar": "METAR LPPT 200700Z 27004KT 9999 SCT035 09/06 Q1018",
      "taf": "TAF LPPT 200500Z 2006/2112 VRB02KT 9999 FEW035"
    },
    {
      "icao": "LQSA",
      "alert": "OK",
      "vis_m": 600,
      "fzfg": false,
      "metar_trigger": false,
      "taf_trigger": false,
      "metar": "METAR LQSA 200700Z 15004KT 0600 R11/0600N FG VV003 00/00 Q1022 NOSIG",
      "taf": ""
    },
    {
      "icao": "LQTZ",
      "alert": "OK",
      "vis_m": 350,
      "fzfg": true,
      "metar_trigger": false,
      "taf_trigger": false,
      "metar": "METAR LQTZ 200700Z 29002KT 0350 R09/0400D FZFG VV002 M01/M01 Q1022",
      "taf": "TAF LQTZ 200500Z 2006/2106 VRB02KT 0300 FZFG VV002 TX10/2013Z TNM02/2106Z"
    },
    {
      "icao": "LRCL",
      "alert": "OK",
      "vis_m": 5000,
      "fzfg": false,
      "metar_trigger": false,
      "taf_trigger": false,
      "metar": "METAR LRCL 200700Z 07004KT 5000 BR BKN005 03/02 Q1023",
      "taf": "TAF LRCL 200500Z 2006/2015 07007KT 3000 BR BKN005 OVC060"
    },
    {
      "icao": "LRCV",
      "alert": "OK",
      "vis_m": 8000,
      "fzfg": false,
      "metar_trigger": false,
      "taf_trigger": false,
      "metar": "METAR LRCV 200700Z 03004KT 8000 MIFG BKN049 02/02 Q1024",
      "taf": "TAF LRCV 200500Z 2006/2015 08007KT 5000 BR NSC"
    },
    {
      "icao": "LRIA",
      "alert": "CRITICAL",
      "vis_m": 100,
      "fzfg": true,
      "metar_trigger": true,
      "taf_trigger": false,
      "metar": "METAR LRIA 200700Z 13005KT 100V160 0100 R14/0400N FZFG VV001 M00/M00 Q1025",
      "taf": "TAF LRIA 200500Z 2006/2015 11006KT 0150 FZFG VV001"
    },
    {
      "icao": "LROP",
      "alert": "OK",
      "vis_m": 200,
      "fzfg": false,
      "metar_trigger": false,
      "taf_trigger": false,
      "metar": "METAR LROP 200700Z 07006KT 0200 R08R/0300N R08L/0300N FG VV002 01/01 Q1025 NOSIG",
      "taf": "TAF LROP 200500Z 2006/2106 06008KT 0150 FG VV001"
    },
    {
      "icao": "LRSB",
      "alert": "OK",
      "vis_m": 250,
      "fzfg": true,
      "metar_trigger": false,
      "taf_trigger": false,
      "metar": "METAR LRSB 200700Z 14002KT 0250 R27/0350N FEW001 SCT003 M02/M02 Q1023 NOSIG",
      "taf": "TAF LRSB 200500Z 2006/2106 VRB04KT 0150 FZFG VV001"
    },
    {
      "icao": "LRTR",
      "alert": "OK",
      "vis_m": 4000,
      "fzfg": false,
      "metar_trigger": false,
      "taf_trigger": false,
      "metar": "METAR LRTR 200700Z 33003KT 4000 BR NSC 04/04 Q1022 BECMG 5000",
      "taf": "TAF LRTR 200500Z 2006/2106 VRB04KT CAVOK"
    },
    {
      "icao": "LTAF",
      "alert": "OK",
      "vis_m": 9999,
      "fzfg": false,
      "metar_trigger": false,
      "taf_trigger": false,
      "metar": "METAR LTAF 200650Z 36004KT 340V040 9999 SCT030 12/03 Q1020 NOSIG RMK RWY23 04005KT 010V070 3CU030",
      "taf": "TAF LTAF 200440Z 2006/2106 VRB02KT CAVOK"
    },
    {
      "icao": "LTAI",
      "alert": "OK",
      "vis_m": 9999,
      "fzfg": false,
      "metar_trigger": false,
      "taf_trigger": false,
      "metar": "METAR LTAI 200650Z 35005KT 9999 FEW025 BKN180 08/03 Q1019 NOSIG RMK RWY18C 34005KT RWY36R 34006KT RWY18L 35004KT 320V020",
      "taf": "TAF LTAI 200440Z 2006/2106 34008KT CAVOK"
    },
    {
      "icao": "LTFM",
      "alert": "OK",
      "vis_m": 9999,
      "fzfg": false,
      "metar_trigger": false,
      "taf_trigger": false,
      "metar": "METAR LTFM 200650Z 03011KT 9999 BKN022 12/07 Q1021 NOSIG RMK RWY17L 04009KT RWY34L 03009KT RWY16R 04010KT RWY36 03011KT RWY18 04010KT",
      "taf": "TAF LTFM 200440Z 2006/2112 05012KT 9999 BKN022"
    },
    {
      "icao": "LUBL",
      "alert": "OK",
      "vis_m": null,
      "fzfg": false,
      "metar_trigger": false,
      "taf_trigger": false,
      "metar": "",
      "taf": ""
    },
    {
      "icao": "LUKK",
      "alert": "OK",
      "vis_m": 3100,
      "fzfg": false,
      "metar_trigger": false,
      "taf_trigger": false,
      "metar": "METAR LUKK 200700Z 07004KT 040V110 3100 BR OVC003 01/00 Q1025 NOSIG",
      "taf": "TAF LUKK 200509Z 2006/2106 VRB04KT 4000 BR OVC003"
    },
    {
      "icao": "LWSK",
      "alert": "OK",
      "vis_m": 500,
      "fzfg": true,
      "metar_trigger": false,
      "taf_trigger": false,
      "metar": "METAR LWSK 200720Z 06002KT 0500 R34/0500N FZFG VV002 M01/M01 Q1023 NOSIG",
      "taf": "TAF LWSK 200550Z 2006/2106 VRB02KT 1200 BR BKN002"
    },
    {
      "icao": "LYBE",
      "alert": "OK",
      "vis_m": 700,
      "fzfg": false,
      "metar_trigger": false,
      "taf_trigger": false,
      "metar": "METAR LYBE 200700Z VRB01KT 0700 R12L/P2000N R30R/0750U FG FEW001 02/01 Q1022 NOSIG",
      "taf": "TAF LYBE 200500Z 2006/2106 24004KT 0300 FG VV001 TX06/2013Z TN01/2006Z"
    },
    {
      "icao": "LZIB",
      "alert": "OK",
      "vis_m": 4500,
      "fzfg": false,
      "metar_trigger": false,
      "taf_trigger": false,
      "metar": "METAR LZIB 200700Z 21004KT 4500 BR OVC010 04/04 Q1022 NOSIG",
      "taf": "TAF LZIB 200515Z 2006/2106 22004KT 9999 BKN010 OVC014"
    },
    {
      "icao": "LZKZ",
      "alert": "OK",
      "vis_m": 6000,
      "fzfg": false,
      "metar_trigger": false,
      "taf_trigger": false,
      "metar": "METAR LZKZ 200700Z 00000KT 6000 3000S BCFG BKN013 BKN033 06/05 Q1021 TEMPO 2500 BR",
      "taf": "TAF LZKZ 200515Z 2006/2106 VRB02KT 9999 FEW016 BKN030"
    },
    {
      "icao": "LZTT",
      "alert": "OK",
      "vis_m": 6000,
      "fzfg": false,
      "metar_trigger": false,
      "taf_trigger": false,
      "metar": "METAR LZTT 200700Z 31009KT 6000 OVC005 01/01 Q1020 TEMPO OVC004",
      "taf": ""
    },
    {
      "icao": "OEJN",
      "alert": "OK",
      "vis_m": 9999,
      "fzfg": false,
      "metar_trigger": false,
      "taf_trigger": false,
      "metar": "METAR OEJN 200700Z 07010KT CAVOK 25/00 Q1014 NOSIG",
      "taf": "TAF OEJN 200500Z 2006/2112 06008KT 7000 NSC"
    },
    {
      "icao": "OEMA",
      "alert": "OK",
      "vis_m": 9999,
      "fzfg": false,
      "metar_trigger": false,
      "taf_trigger": false,
      "metar": "METAR OEMA 200700Z 13003KT CAVOK 13/M04 Q1024 NOSIG",
      "taf": "TAF OEMA 200500Z 2006/2112 09010KT CAVOK"
    },
    {
      "icao": "OERK",
      "alert": "OK",
      "vis_m": 9999,
      "fzfg": false,
      "metar_trigger": false,
      "taf_trigger": false,
      "metar": "METAR OERK 200700Z 33005KT CAVOK 12/M01 Q1021 NOSIG",
      "taf": "TAF OERK 200500Z 2006/2112 30012KT CAVOK"
    },
    {
      "icao": "OJAI",
      "alert": "OK",
      "vis_m": 5000,
      "fzfg": false,
      "metar_trigger": false,
      "taf_trigger": false,
      "metar": "METAR OJAI 200700Z 17003KT 5000 HZ NSC 13/07 Q1021 NOSIG",
      "taf": "TAF OJAI 200434Z 2006/2112 VRB02KT 2000 BR FEW035"
    },
    {
      "icao": "OKBK",
      "alert": "OK",
      "vis_m": null,
      "fzfg": false,
      "metar_trigger": false,
      "taf_trigger": false,
      "metar": "",
      "taf": ""
    },
    {
      "icao": "OMAA",
      "alert": "OK",
      "vis_m": 9999,
      "fzfg": false,
      "metar_trigger": false,
      "taf_trigger": false,
      "metar": "METAR OMAA 200700Z 23010KT 190V260 CAVOK 18/11 Q1018 NOSIG",
      "taf": "TAF OMAA 200500Z 2006/2112 28012KT 9999 FEW040"
    },
    {
      "icao": "UAAA",
      "alert": "OK",
      "vis_m": 2700,
      "fzfg": false,
      "metar_trigger": false,
      "taf_trigger": false,
      "metar": "METAR UAAA 200700Z 25002MPS 2700 BR BKN100 M02/M03 Q1013 NOSIG",
      "taf": "TAF UAAA 200502Z 2006/2106 32003MPS 3100 BR BKN011 OVC100 TX00/2008Z TNM05/2102Z"
    },
    {
      "icao": "UCFM",
      "alert": "OK",
      "vis_m": 1100,
      "fzfg": true,
      "metar_trigger": false,
      "taf_trigger": false,
      "metar": "METAR UCFM 200700Z 22001MPS 1100 0800E R07/1100N BCFG BKN003 M03/M04 Q1014 NOSIG",
      "taf": "TAF UCFM 200501Z 2006/2106 09003MPS 0600 FZFG BKN002"
    },
    {
      "icao": "UDYZ",
      "alert": "OK",
      "vis_m": 3400,
      "fzfg": false,
      "metar_trigger": false,
      "taf_trigger": false,
      "metar": "METAR UDYZ 200700Z 00000KT 3400 BR NSC 00/M03 Q1026 NOSIG",
      "taf": "TAF UDYZ 200500Z 2006/2106 VRB04KT 6000 NSC"
    },
    {
      "icao": "UGTB",
      "alert": "OK",
      "vis_m": 9999,
      "fzfg": false,
      "metar_trigger": false,
      "taf_trigger": false,
      "metar": "METAR UGTB 200700Z 28004KT 240V320 CAVOK 03/M02 Q1025 NOSIG",
      "taf": "TAF UGTB 200500Z 2006/2106 32007KT 9000 SCT065 TX08/2012Z TNM03/2103Z"
    },
    {
      "icao": "UKKK",
      "alert": "OK",
      "vis_m": null,
      "fzfg": false,
      "metar_trigger": false,
      "taf_trigger": false,
      "metar": "",
      "taf": ""
    },
    {
      "icao": "UTTT",
      "alert": "OK",
      "vis_m": null,
      "fzfg": false,
      "metar_trigger": false,
      "taf_trigger": false,
      "metar": "",
      "taf": ""
    }
  ]
}