{
  "ts_utc": "2026-04-18T19:45:35Z",
  "threshold_m": 150,
  "source": "stations_override.txt (ICAO list) + aviationweather.gov (METAR/TAF raw)",
  "station_count": 159,
  "stations": [
    {
      "icao": "BIKF",
      "alert": "OK",
      "vis_m": 9999,
      "fzfg": false,
      "metar_trigger": false,
      "taf_trigger": false,
      "metar": "METAR BIKF 181930Z 08004KT 9999 BKN038 06/M03 Q1015",
      "taf": "TAF BIKF 181619Z 1818/1918 14006KT 9999 SCT035 TX08/1915Z TN00/1903Z"
    },
    {
      "icao": "BKPR",
      "alert": "OK",
      "vis_m": 9999,
      "fzfg": false,
      "metar_trigger": false,
      "taf_trigger": false,
      "metar": "METAR BKPR 181930Z 34006KT CAVOK 12/02 Q1017 NOSIG",
      "taf": "TAF BKPR 181730Z 1818/1918 01008KT CAVOK"
    },
    {
      "icao": "EBCI",
      "alert": "OK",
      "vis_m": 7000,
      "fzfg": false,
      "metar_trigger": false,
      "taf_trigger": false,
      "metar": "METAR EBCI 181920Z 35006KT 7000 BKN007 BKN013 12/10 Q1021 TEMPO 4000 SHRA",
      "taf": "TAF EBCI 181709Z 1818/1924 35006KT 9999 SCT012 BKN035"
    },
    {
      "icao": "EDDB",
      "alert": "OK",
      "vis_m": 9999,
      "fzfg": false,
      "metar_trigger": false,
      "taf_trigger": false,
      "metar": "METAR EDDB 181920Z AUTO 05005KT CAVOK 17/06 Q1018 NOSIG",
      "taf": "TAF EDDB 181700Z 1818/1918 28004KT CAVOK"
    },
    {
      "icao": "EDDH",
      "alert": "OK",
      "vis_m": 9999,
      "fzfg": false,
      "metar_trigger": false,
      "taf_trigger": false,
      "metar": "METAR EDDH 181920Z AUTO 31007KT CAVOK 13/09 Q1019 TEMPO FM2000 BKN008",
      "taf": "TAF EDDH 181700Z 1818/1924 31006KT CAVOK"
    },
    {
      "icao": "EDDK",
      "alert": "OK",
      "vis_m": 9999,
      "fzfg": false,
      "metar_trigger": false,
      "taf_trigger": false,
      "metar": "METAR EDDK 181920Z AUTO 00000KT 9999 4200 -SHRA BR FEW///TCU 13/12 Q1020 TEMPO 4500 SHRA",
      "taf": "TAF EDDK 181700Z 1818/1924 33006KT 9999 BKN040"
    },
    {
      "icao": "EDDN",
      "alert": "OK",
      "vis_m": 9999,
      "fzfg": false,
      "metar_trigger": false,
      "taf_trigger": false,
      "metar": "METAR EDDN 181920Z AUTO 04002KT CAVOK 16/08 Q1018 NOSIG",
      "taf": "TAF EDDN 181700Z 1818/1918 VRB02KT CAVOK"
    },
    {
      "icao": "EDDS",
      "alert": "OK",
      "vis_m": 9999,
      "fzfg": false,
      "metar_trigger": false,
      "taf_trigger": false,
      "metar": "METAR EDDS 181920Z AUTO 32003KT CAVOK 18/08 Q1018 NOSIG",
      "taf": "TAF EDDS 181700Z 1818/1918 30004KT CAVOK"
    },
    {
      "icao": "EDFH",
      "alert": "OK",
      "vis_m": 9999,
      "fzfg": false,
      "metar_trigger": false,
      "taf_trigger": false,
      "metar": "METAR EDFH 181920Z VRB02KT CAVOK 13/08 Q1020",
      "taf": "TAF EDFH 181700Z 1818/1918 34005KT CAVOK"
    },
    {
      "icao": "EDJA",
      "alert": "OK",
      "vis_m": 9999,
      "fzfg": false,
      "metar_trigger": false,
      "taf_trigger": false,
      "metar": "METAR EDJA 181850Z VRB02KT CAVOK 15/07 Q1019",
      "taf": "TAF EDJA 181700Z 1818/1903 VRB03KT CAVOK"
    },
    {
      "icao": "EDLW",
      "alert": "OK",
      "vis_m": 9999,
      "fzfg": false,
      "metar_trigger": false,
      "taf_trigger": false,
      "metar": "METAR EDLW 181920Z VRB02KT 9999 -SHRA FEW014 13/11 Q1020",
      "taf": "TAF EDLW 181700Z 1818/1918 30004KT 9999 BKN030"
    },
    {
      "icao": "EDNY",
      "alert": "OK",
      "vis_m": 9999,
      "fzfg": false,
      "metar_trigger": false,
      "taf_trigger": false,
      "metar": "METAR EDNY 181920Z AUTO 00000KT 9999 // NCD 14/07 Q1019",
      "taf": "TAF EDNY 181700Z 1818/1903 VRB03KT CAVOK"
    },
    {
      "icao": "EDSB",
      "alert": "OK",
      "vis_m": 9999,
      "fzfg": false,
      "metar_trigger": false,
      "taf_trigger": false,
      "metar": "METAR EDSB 181920Z VRB01KT CAVOK 18/09 Q1018",
      "taf": "TAF EDSB 181700Z 1818/1918 23004KT CAVOK"
    },
    {
      "icao": "EETN",
      "alert": "OK",
      "vis_m": 9999,
      "fzfg": false,
      "metar_trigger": false,
      "taf_trigger": false,
      "metar": "METAR EETN 181920Z 07007KT CAVOK 06/M02 Q1023 NOSIG",
      "taf": "TAF EETN 181730Z 1818/1918 07010KT CAVOK"
    },
    {
      "icao": "EFTU",
      "alert": "OK",
      "vis_m": 9999,
      "fzfg": false,
      "metar_trigger": false,
      "taf_trigger": false,
      "metar": "METAR EFTU 181920Z AUTO VRB01KT CAVOK 04/M03 Q1023",
      "taf": "TAF EFTU 181726Z 1818/1918 22008KT CAVOK"
    },
    {
      "icao": "EGBB",
      "alert": "OK",
      "vis_m": 9999,
      "fzfg": false,
      "metar_trigger": false,
      "taf_trigger": false,
      "metar": "METAR EGBB 181920Z 31009KT CAVOK 10/03 Q1024",
      "taf": "TAF EGBB 181701Z 1818/1918 30010KT 9999 SCT035"
    },
    {
      "icao": "EGGP",
      "alert": "OK",
      "vis_m": 9999,
      "fzfg": false,
      "metar_trigger": false,
      "taf_trigger": false,
      "metar": "METAR EGGP 181920Z 31007KT CAVOK 09/04 Q1025",
      "taf": "TAF EGGP 181658Z 1818/1918 30015KT 9999 SCT020"
    },
    {
      "icao": "EGGW",
      "alert": "OK",
      "vis_m": 9999,
      "fzfg": false,
      "metar_trigger": false,
      "taf_trigger": false,
      "metar": "METAR EGGW 181920Z AUTO 31011KT 9999 NCD 11/05 Q1023",
      "taf": "TAF EGGW 181656Z 1818/1918 32008KT CAVOK"
    },
    {
      "icao": "EGKK",
      "alert": "OK",
      "vis_m": 9999,
      "fzfg": false,
      "metar_trigger": false,
      "taf_trigger": false,
      "metar": "METAR EGKK 181920Z 30005KT CAVOK 13/03 Q1022",
      "taf": "TAF EGKK 181656Z 1818/1924 32008KT CAVOK"
    },
    {
      "icao": "EGNM",
      "alert": "OK",
      "vis_m": 9999,
      "fzfg": false,
      "metar_trigger": false,
      "taf_trigger": false,
      "metar": "METAR EGNM 181920Z 27011KT 9999 FEW020 08/03 Q1022",
      "taf": "TAF EGNM 181659Z 1818/1918 27013KT 9999 SCT030"
    },
    {
      "icao": "EGPD",
      "alert": "OK",
      "vis_m": 9999,
      "fzfg": false,
      "metar_trigger": false,
      "taf_trigger": false,
      "metar": "METAR EGPD 181920Z COR AUTO 32006KT 9999 SCT027 SCT043 BKN049 08/04 Q1020 NOSIG",
      "taf": "TAF EGPD 181701Z 1818/1918 28012KT 9999 SCT030"
    },
    {
      "icao": "EGPF",
      "alert": "OK",
      "vis_m": 9999,
      "fzfg": false,
      "metar_trigger": false,
      "taf_trigger": false,
      "metar": "METAR EGPF 181920Z AUTO 28011KT 9999 NCD 09/03 Q1023",
      "taf": "TAF EGPF 181705Z 1818/1918 28014KT 9999 SCT030"
    },
    {
      "icao": "EHBK",
      "alert": "OK",
      "vis_m": 9000,
      "fzfg": false,
      "metar_trigger": false,
      "taf_trigger": false,
      "metar": "METAR EHBK 181925Z AUTO 34005KT 310V010 9000 BKN015CB 13/11 Q1020 NOSIG",
      "taf": "TAF EHBK 181657Z 1818/1924 30005KT 9999 FEW045"
    },
    {
      "icao": "EHEH",
      "alert": "OK",
      "vis_m": 9999,
      "fzfg": false,
      "metar_trigger": false,
      "taf_trigger": false,
      "metar": "METAR EHEH 181925Z AUTO VRB02KT 9999 SCT021 BKN025 OVC032 13/10 Q1021 BLU BECMG CAVOK",
      "taf": "TAF EHEH 181737Z 1818/1924 28004KT BKN030"
    },
    {
      "icao": "EKBI",
      "alert": "OK",
      "vis_m": 9999,
      "fzfg": false,
      "metar_trigger": false,
      "taf_trigger": false,
      "metar": "METAR EKBI 181920Z AUTO 26008KT 9999 OVC004/// 10/09 Q1018",
      "taf": "TAF EKBI 181727Z 1818/1918 28007KT 9999 BKN015"
    },
    {
      "icao": "EKCH",
      "alert": "OK",
      "vis_m": 9999,
      "fzfg": false,
      "metar_trigger": false,
      "taf_trigger": false,
      "metar": "METAR EKCH 181920Z AUTO 13006KT 9999 -RA SCT054/// OVC060/// 08/06 Q1019 TEMPO FEW040CB",
      "taf": "TAF EKCH 181727Z 1818/1918 13007KT CAVOK"
    },
    {
      "icao": "ENAL",
      "alert": "OK",
      "vis_m": 9999,
      "fzfg": false,
      "metar_trigger": false,
      "taf_trigger": false,
      "metar": "METAR ENAL 181920Z 33005KT 280V010 9999 BKN055 09/06 Q1015",
      "taf": "TAF ENAL 181700Z 1818/1903 06008KT 9999 SCT050"
    },
    {
      "icao": "ENBR",
      "alert": "OK",
      "vis_m": 2500,
      "fzfg": false,
      "metar_trigger": false,
      "taf_trigger": false,
      "metar": "METAR ENBR 181920Z 15008KT 2500 VCFG BKN002 06/06 Q1016 RMK WIND 1200FT 18010KT",
      "taf": ""
    },
    {
      "icao": "ENGM",
      "alert": "OK",
      "vis_m": 9999,
      "fzfg": false,
      "metar_trigger": false,
      "taf_trigger": false,
      "metar": "METAR ENGM 181920Z 23003KT CAVOK 11/05 Q1018 NOSIG",
      "taf": "TAF ENGM 181700Z 1818/1918 VRB05KT 9999 -RA BKN045"
    },
    {
      "icao": "ENHD",
      "alert": "OK",
      "vis_m": 7000,
      "fzfg": false,
      "metar_trigger": false,
      "taf_trigger": false,
      "metar": "METAR ENHD 181920Z AUTO 17006KT 090V200 7000 VV002 07/06 Q1016",
      "taf": "TAF ENHD 181400Z 1815/1822 18012KT 9999 FEW010 BKN015"
    },
    {
      "icao": "ENTC",
      "alert": "OK",
      "vis_m": 9999,
      "fzfg": false,
      "metar_trigger": false,
      "taf_trigger": false,
      "metar": "METAR ENTC 181920Z 22008KT CAVOK 07/00 Q1023 RMK WIND 2600FT 18020KT",
      "taf": "TAF ENTC 181700Z 1818/1918 22015KT CAVOK"
    },
    {
      "icao": "ENTO",
      "alert": "OK",
      "vis_m": 2100,
      "fzfg": false,
      "metar_trigger": false,
      "taf_trigger": false,
      "metar": "METAR ENTO 181920Z AUTO 08003KT 040V110 2100 +RA FEW001/// BKN010/// BKN017/// 08/08 Q1018",
      "taf": ""
    },
    {
      "icao": "ENVA",
      "alert": "OK",
      "vis_m": 9999,
      "fzfg": false,
      "metar_trigger": false,
      "taf_trigger": false,
      "metar": "METAR ENVA 181920Z 15014KT CAVOK 13/02 Q1017 RMK WIND 670FT 16021KT",
      "taf": "TAF ENVA 181700Z 1818/1918 14008KT CAVOK"
    },
    {
      "icao": "ENZV",
      "alert": "OK",
      "vis_m": 7000,
      "fzfg": false,
      "metar_trigger": false,
      "taf_trigger": false,
      "metar": "METAR ENZV 181920Z 20008KT 7000 VCFG FEW015TCU 08/07 Q1016 TEMPO 2000 BR SCT002 BKN004",
      "taf": "TAF ENZV 181700Z 1818/1918 17012KT 9999 SCT010 BKN040"
    },
    {
      "icao": "EPGD",
      "alert": "OK",
      "vis_m": 9999,
      "fzfg": false,
      "metar_trigger": false,
      "taf_trigger": false,
      "metar": "METAR EPGD 181930Z VRB01KT CAVOK 07/M00 Q1020",
      "taf": "TAF EPGD 181730Z 1818/1918 VRB03KT CAVOK"
    },
    {
      "icao": "EPKK",
      "alert": "OK",
      "vis_m": 9999,
      "fzfg": false,
      "metar_trigger": false,
      "taf_trigger": false,
      "metar": "METAR EPKK 181930Z 02003KT 320V060 CAVOK 12/04 Q1018",
      "taf": "TAF EPKK 181730Z 1818/1918 06005KT CAVOK"
    },
    {
      "icao": "EPKT",
      "alert": "OK",
      "vis_m": 9999,
      "fzfg": false,
      "metar_trigger": false,
      "taf_trigger": false,
      "metar": "METAR EPKT 181930Z 02001KT CAVOK 08/04 Q1019",
      "taf": "TAF EPKT 181730Z 1818/1918 02004KT CAVOK"
    },
    {
      "icao": "EPLB",
      "alert": "OK",
      "vis_m": 9999,
      "fzfg": false,
      "metar_trigger": false,
      "taf_trigger": false,
      "metar": "METAR EPLB 181930Z 35003KT CAVOK 07/01 Q1018",
      "taf": "TAF EPLB 181730Z 1818/1918 35010KT 9999 SCT045"
    },
    {
      "icao": "EPMO",
      "alert": "OK",
      "vis_m": 9999,
      "fzfg": false,
      "metar_trigger": false,
      "taf_trigger": false,
      "metar": "METAR EPMO 181930Z 27002KT CAVOK 10/01 Q1019",
      "taf": "TAF EPMO 181730Z 1818/1918 36010KT 9999 SCT045"
    },
    {
      "icao": "EPPO",
      "alert": "OK",
      "vis_m": 9999,
      "fzfg": false,
      "metar_trigger": false,
      "taf_trigger": false,
      "metar": "METAR EPPO 181930Z 09005KT CAVOK 12/04 Q1018",
      "taf": "TAF EPPO 181730Z 1818/1918 10002KT CAVOK"
    },
    {
      "icao": "EPRA",
      "alert": "OK",
      "vis_m": 9999,
      "fzfg": false,
      "metar_trigger": false,
      "taf_trigger": false,
      "metar": "METAR EPRA 181930Z 30003KT CAVOK 11/02 Q1018",
      "taf": "TAF EPRA 181730Z 1818/1903 33005KT CAVOK"
    },
    {
      "icao": "EPRZ",
      "alert": "OK",
      "vis_m": 9999,
      "fzfg": false,
      "metar_trigger": false,
      "taf_trigger": false,
      "metar": "METAR EPRZ 181930Z 34004KT CAVOK 09/03 Q1018",
      "taf": "TAF EPRZ 181730Z 1818/1918 34010KT CAVOK"
    },
    {
      "icao": "EPSC",
      "alert": "OK",
      "vis_m": 9999,
      "fzfg": false,
      "metar_trigger": false,
      "taf_trigger": false,
      "metar": "METAR EPSC 181930Z 05005KT CAVOK 14/05 Q1018",
      "taf": "TAF EPSC 181730Z 1818/1918 VRB02KT CAVOK"
    },
    {
      "icao": "EPSY",
      "alert": "OK",
      "vis_m": 9999,
      "fzfg": false,
      "metar_trigger": false,
      "taf_trigger": false,
      "metar": "METAR EPSY 181930Z 02002KT CAVOK 06/M01 Q1019",
      "taf": "TAF EPSY 181730Z 1818/1903 VRB02KT CAVOK"
    },
    {
      "icao": "EPWA",
      "alert": "OK",
      "vis_m": 9999,
      "fzfg": false,
      "metar_trigger": false,
      "taf_trigger": false,
      "metar": "METAR EPWA 181930Z 34004KT CAVOK 12/M01 Q1018 NOSIG",
      "taf": "TAF EPWA 181730Z 1818/1918 36010KT 9999 SCT045"
    },
    {
      "icao": "EPWR",
      "alert": "OK",
      "vis_m": 9999,
      "fzfg": false,
      "metar_trigger": false,
      "taf_trigger": false,
      "metar": "METAR EPWR 181930Z 15003KT CAVOK 13/03 Q1018",
      "taf": "TAF EPWR 181730Z 1818/1918 VRB02KT CAVOK"
    },
    {
      "icao": "ESGG",
      "alert": "OK",
      "vis_m": 9999,
      "fzfg": false,
      "metar_trigger": false,
      "taf_trigger": false,
      "metar": "METAR ESGG 181920Z 16005KT 9999 DZ FEW028 08/04 Q1019",
      "taf": "TAF ESGG 181730Z 1818/1918 21007KT 9999 -DZ BKN035"
    },
    {
      "icao": "ESKN",
      "alert": "OK",
      "vis_m": 9999,
      "fzfg": false,
      "metar_trigger": false,
      "taf_trigger": false,
      "metar": "METAR ESKN 181920Z 12006KT CAVOK 07/03 Q1021",
      "taf": "TAF ESKN 181730Z 1818/1918 12006KT CAVOK"
    },
    {
      "icao": "ESMS",
      "alert": "OK",
      "vis_m": 9999,
      "fzfg": false,
      "metar_trigger": false,
      "taf_trigger": false,
      "metar": "METAR ESMS 181920Z 15005KT 9999 FEW047 09/05 Q1019",
      "taf": "TAF ESMS 181727Z 1818/1918 15005KT CAVOK"
    },
    {
      "icao": "ESSA",
      "alert": "OK",
      "vis_m": 9999,
      "fzfg": false,
      "metar_trigger": false,
      "taf_trigger": false,
      "metar": "METAR ESSA 181920Z 10005KT CAVOK 07/M01 Q1022 NOSIG",
      "taf": "TAF ESSA 181730Z 1818/1918 12008KT CAVOK"
    },
    {
      "icao": "EYKA",
      "alert": "OK",
      "vis_m": 9999,
      "fzfg": false,
      "metar_trigger": false,
      "taf_trigger": false,
      "metar": "METAR EYKA 181920Z VRB02KT CAVOK 10/M02 Q1018",
      "taf": "TAF EYKA 181700Z 1818/1918 VRB04KT 9000 NSC"
    },
    {
      "icao": "EYPA",
      "alert": "OK",
      "vis_m": 9999,
      "fzfg": false,
      "metar_trigger": false,
      "taf_trigger": false,
      "metar": "METAR EYPA 181920Z VRB02KT CAVOK 06/03 Q1020",
      "taf": "TAF EYPA 181701Z 1818/1918 VRB03KT 8000 BKN040"
    },
    {
      "icao": "EYVI",
      "alert": "OK",
      "vis_m": 9999,
      "fzfg": false,
      "metar_trigger": false,
      "taf_trigger": false,
      "metar": "METAR EYVI 181920Z 35001KT CAVOK 03/M01 Q1018 NOSIG",
      "taf": "TAF EYVI 181700Z 1818/1918 01013KT 9000 NSC"
    },
    {
      "icao": "GCFV",
      "alert": "OK",
      "vis_m": 9999,
      "fzfg": false,
      "metar_trigger": false,
      "taf_trigger": false,
      "metar": "METAR GCFV 181930Z 01007KT CAVOK 22/16 Q1012",
      "taf": "TAF GCFV 181400Z 1815/1915 01010KT 8000 NSC TX29/1914Z TN20/1906Z"
    },
    {
      "icao": "GCLP",
      "alert": "OK",
      "vis_m": 9999,
      "fzfg": false,
      "metar_trigger": false,
      "taf_trigger": false,
      "metar": "METAR GCLP 181930Z 36005KT 320V020 CAVOK 25/11 Q1011 NOSIG",
      "taf": "TAF GCLP 181400Z 1815/1915 18007KT 8000 NSC TX27/1914Z TN22/1906Z"
    },
    {
      "icao": "GCTS",
      "alert": "OK",
      "vis_m": 9999,
      "fzfg": false,
      "metar_trigger": false,
      "taf_trigger": false,
      "metar": "METAR GCTS 181930Z 08008KT 9999 BKN130 29/05 Q1011 NOSIG",
      "taf": "TAF GCTS 181400Z 1815/1915 09016KT 8000 NSC TX25/1914Z TN22/1906Z"
    },
    {
      "icao": "GMAD",
      "alert": "OK",
      "vis_m": 8000,
      "fzfg": false,
      "metar_trigger": false,
      "taf_trigger": false,
      "metar": "METAR GMAD 181930Z 25005KT 8000 NSC 26/08 Q1011 NOSIG",
      "taf": "TAF GMAD 181700Z 1818/1924 27012KT 8000 NSC"
    },
    {
      "icao": "GMMN",
      "alert": "OK",
      "vis_m": 9999,
      "fzfg": false,
      "metar_trigger": false,
      "taf_trigger": false,
      "metar": "METAR GMMN 181930Z 07005KT 050V110 CAVOK 19/14 Q1015 NOSIG",
      "taf": "TAF GMMN 181700Z 1818/1924 36010KT CAVOK"
    },
    {
      "icao": "GMMX",
      "alert": "OK",
      "vis_m": 9999,
      "fzfg": false,
      "metar_trigger": false,
      "taf_trigger": false,
      "metar": "METAR GMMX 181930Z 13007KT 100V160 9999 FEW040 SCT100 28/08 Q1014 NOSIG",
      "taf": "TAF GMMX 181700Z 1818/1924 10006KT 8000 SCT090 SCT200"
    },
    {
      "icao": "HEGN",
      "alert": "OK",
      "vis_m": null,
      "fzfg": false,
      "metar_trigger": false,
      "taf_trigger": false,
      "metar": "",
      "taf": "TAF HEGN 181706Z 1818/1924 29014KT CAVOK"
    },
    {
      "icao": "HEMA",
      "alert": "OK",
      "vis_m": null,
      "fzfg": false,
      "metar_trigger": false,
      "taf_trigger": false,
      "metar": "",
      "taf": "TAF HEMA 181706Z 1818/1924 30014KT 9999 SCT025"
    },
    {
      "icao": "HESH",
      "alert": "OK",
      "vis_m": null,
      "fzfg": false,
      "metar_trigger": false,
      "taf_trigger": false,
      "metar": "",
      "taf": "TAF HESH 181706Z 1818/1924 32014KT CAVOK"
    },
    {
      "icao": "HESX",
      "alert": "OK",
      "vis_m": null,
      "fzfg": false,
      "metar_trigger": false,
      "taf_trigger": false,
      "metar": "",
      "taf": "TAF HESX 181706Z 1818/1924 30010KT CAVOK"
    },
    {
      "icao": "LATI",
      "alert": "OK",
      "vis_m": 9999,
      "fzfg": false,
      "metar_trigger": false,
      "taf_trigger": false,
      "metar": "METAR LATI 181920Z 33005KT CAVOK 18/03 Q1012 NOSIG",
      "taf": ""
    },
    {
      "icao": "LBPD",
      "alert": "OK",
      "vis_m": 9999,
      "fzfg": false,
      "metar_trigger": false,
      "taf_trigger": false,
      "metar": "METAR LBPD 181930Z AUTO 14007KT 9999 NCD 11/06 Q1015",
      "taf": "TAF LBPD 181700Z 1818/1918 14010KT 9999 SCT030 BKN060"
    },
    {
      "icao": "LBSF",
      "alert": "OK",
      "vis_m": 9999,
      "fzfg": false,
      "metar_trigger": false,
      "taf_trigger": false,
      "metar": "METAR LBSF 181930Z AUTO 21003KT 9999 NCD 08/06 Q1016 NOSIG",
      "taf": "TAF LBSF 181700Z 1818/1918 VRB04KT 9999 SCT060"
    },
    {
      "icao": "LBWN",
      "alert": "OK",
      "vis_m": 9999,
      "fzfg": false,
      "metar_trigger": false,
      "taf_trigger": false,
      "metar": "METAR LBWN 181930Z AUTO 35003KT 310V010 9999 NSC 09/05 Q1015 NOSIG",
      "taf": "TAF LBWN 181700Z 1818/1918 VRB03KT 9999 SCT040"
    },
    {
      "icao": "LCLK",
      "alert": "OK",
      "vis_m": 9999,
      "fzfg": false,
      "metar_trigger": false,
      "taf_trigger": false,
      "metar": "METAR LCLK 181930Z 29006KT 9999 FEW030 SCT070 17/15 Q1004 NOSIG",
      "taf": "TAF LCLK 181730Z 1818/1918 29007KT 9999 FEW030"
    },
    {
      "icao": "LCPH",
      "alert": "OK",
      "vis_m": 9999,
      "fzfg": false,
      "metar_trigger": false,
      "taf_trigger": false,
      "metar": "METAR LCPH 181930Z 31012KT 9999 SCT012 17/15 Q1006 TEMPO BKN012",
      "taf": "TAF LCPH 181730Z 1818/1918 34008KT 9999 FEW013 SCT025"
    },
    {
      "icao": "LEAL",
      "alert": "OK",
      "vis_m": 9999,
      "fzfg": false,
      "metar_trigger": false,
      "taf_trigger": false,
      "metar": "METAR LEAL 181930Z VRB01KT CAVOK 19/13 Q1019 NOSIG",
      "taf": "TAF LEAL 181700Z 1818/1918 15009KT CAVOK TX25/1912Z TN11/1905Z"
    },
    {
      "icao": "LEBB",
      "alert": "OK",
      "vis_m": 9999,
      "fzfg": false,
      "metar_trigger": false,
      "taf_trigger": false,
      "metar": "METAR LEBB 181930Z VRB02KT 9999 BKN022 BKN030 15/12 Q1022 NOSIG",
      "taf": "TAF LEBB 181700Z 1818/1918 06005KT 9999 SCT020 TX25/1913Z TN10/1901Z"
    },
    {
      "icao": "LEBL",
      "alert": "OK",
      "vis_m": 9999,
      "fzfg": false,
      "metar_trigger": false,
      "taf_trigger": false,
      "metar": "METAR LEBL 181930Z 22006KT 9999 FEW040 18/12 Q1019 NOSIG",
      "taf": "TAF LEBL 181700Z 1818/1918 22009KT 9999 FEW040 TX22/1912Z TN13/1906Z"
    },
    {
      "icao": "LECH",
      "alert": "OK",
      "vis_m": 9999,
      "fzfg": false,
      "metar_trigger": false,
      "taf_trigger": false,
      "metar": "METAR LECH 181930Z AUTO 21003KT 150V270 CAVOK 17/06 Q1020",
      "taf": "TAF LECH 181700Z 1818/1918 VRB04KT CAVOK TX24/1913Z TN13/1905Z"
    },
    {
      "icao": "LEMD",
      "alert": "OK",
      "vis_m": 9999,
      "fzfg": false,
      "metar_trigger": false,
      "taf_trigger": false,
      "metar": "METAR LEMD 181930Z 35005KT CAVOK 21/06 Q1017 NOSIG",
      "taf": "TAF LEMD 181700Z 1818/1924 VRB04KT CAVOK TX28/1916Z TN10/1906Z"
    },
    {
      "icao": "LEMG",
      "alert": "OK",
      "vis_m": 9999,
      "fzfg": false,
      "metar_trigger": false,
      "taf_trigger": false,
      "metar": "METAR LEMG 181930Z 15003KT CAVOK 19/06 Q1018 NOSIG",
      "taf": "TAF LEMG 181700Z 1818/1918 VRB03KT CAVOK TX23/1914Z TN09/1906Z"
    },
    {
      "icao": "LEVC",
      "alert": "OK",
      "vis_m": 9999,
      "fzfg": false,
      "metar_trigger": false,
      "taf_trigger": false,
      "metar": "METAR LEVC 181930Z 07009KT CAVOK 18/11 Q1018 NOSIG",
      "taf": "TAF LEVC 181700Z 1818/1918 09010KT CAVOK TX27/1912Z TN12/1905Z"
    },
    {
      "icao": "LEXJ",
      "alert": "OK",
      "vis_m": 9999,
      "fzfg": false,
      "metar_trigger": false,
      "taf_trigger": false,
      "metar": "METAR LEXJ 181930Z 07003KT 350V140 9999 OVC039 15/11 Q1023",
      "taf": "TAF LEXJ 181400Z 1815/1915 04009KT 9999 SCT016 TX20/1913Z TN12/1904Z"
    },
    {
      "icao": "LEZG",
      "alert": "OK",
      "vis_m": 9999,
      "fzfg": false,
      "metar_trigger": false,
      "taf_trigger": false,
      "metar": "METAR LEZG 181930Z 27008KT 230V290 9999 FEW085 22/13 Q1017 NOSIG",
      "taf": "TAF LEZG 181700Z 1818/1918 10006KT CAVOK TX30/1914Z TN13/1905Z"
    },
    {
      "icao": "LEZL",
      "alert": "OK",
      "vis_m": 9999,
      "fzfg": false,
      "metar_trigger": false,
      "taf_trigger": false,
      "metar": "METAR LEZL 181930Z 26007KT CAVOK 26/10 Q1015 NOSIG",
      "taf": "TAF LEZL 181400Z 1815/1915 VRB03KT CAVOK TX32/1815Z TN13/1906Z"
    },
    {
      "icao": "LFBD",
      "alert": "OK",
      "vis_m": 9999,
      "fzfg": false,
      "metar_trigger": false,
      "taf_trigger": false,
      "metar": "METAR LFBD 181930Z AUTO 33006KT 300V360 CAVOK 17/10 Q1021 NOSIG",
      "taf": "TAF LFBD 181700Z 1818/1924 32010KT CAVOK TX25/1915Z TN12/1906Z"
    },
    {
      "icao": "LFLL",
      "alert": "OK",
      "vis_m": 9999,
      "fzfg": false,
      "metar_trigger": false,
      "taf_trigger": false,
      "metar": "METAR LFLL 181930Z 01005KT CAVOK 19/10 Q1019 NOSIG",
      "taf": "TAF LFLL 181700Z 1818/1924 36006KT CAVOK"
    },
    {
      "icao": "LFLS",
      "alert": "OK",
      "vis_m": 9999,
      "fzfg": false,
      "metar_trigger": false,
      "taf_trigger": false,
      "metar": "METAR LFLS 181930Z AUTO 13004KT CAVOK 14/08 Q1019",
      "taf": "TAF LFLS 181400Z 1815/1915 35006KT CAVOK"
    },
    {
      "icao": "LFMN",
      "alert": "OK",
      "vis_m": 9999,
      "fzfg": false,
      "metar_trigger": false,
      "taf_trigger": false,
      "metar": "METAR LFMN 181930Z 20003KT CAVOK 18/16 Q1017 NOSIG",
      "taf": "TAF LFMN 181400Z 1815/1921 13004KT 9999 FEW040"
    },
    {
      "icao": "LFOB",
      "alert": "OK",
      "vis_m": 9999,
      "fzfg": false,
      "metar_trigger": false,
      "taf_trigger": false,
      "metar": "METAR LFOB 181930Z AUTO 33010KT CAVOK 11/05 Q1022 NOSIG",
      "taf": ""
    },
    {
      "icao": "LFPO",
      "alert": "OK",
      "vis_m": 9999,
      "fzfg": false,
      "metar_trigger": false,
      "taf_trigger": false,
      "metar": "METAR LFPO 181930Z 33012KT 9999 BKN040 14/09 Q1021 NOSIG",
      "taf": "TAF LFPO 181700Z 1818/1924 34012KT CAVOK"
    },
    {
      "icao": "LFSB",
      "alert": "OK",
      "vis_m": 9999,
      "fzfg": false,
      "metar_trigger": false,
      "taf_trigger": false,
      "metar": "METAR LFSB 181930Z AUTO 33005KT CAVOK 18/09 Q1018 NOSIG",
      "taf": "TAF LFSB 181700Z 1818/1918 27004KT CAVOK"
    },
    {
      "icao": "LGAV",
      "alert": "OK",
      "vis_m": 9999,
      "fzfg": false,
      "metar_trigger": false,
      "taf_trigger": false,
      "metar": "METAR LGAV 181920Z 03008KT 9999 FEW025 16/06 Q1014 NOSIG",
      "taf": "TAF LGAV 181700Z 1818/1918 02010KT 9999 FEW025"
    },
    {
      "icao": "LGTS",
      "alert": "OK",
      "vis_m": 9999,
      "fzfg": false,
      "metar_trigger": false,
      "taf_trigger": false,
      "metar": "METAR LGTS 181920Z 10005KT 9999 FEW025 12/12 Q1015 NOSIG",
      "taf": "TAF LGTS 181700Z 1818/1918 12015KT 9999 SCT025 BKN050"
    },
    {
      "icao": "LHBP",
      "alert": "OK",
      "vis_m": 9999,
      "fzfg": false,
      "metar_trigger": false,
      "taf_trigger": false,
      "metar": "METAR LHBP 181930Z VRB01KT CAVOK 10/02 Q1018 NOSIG",
      "taf": "TAF LHBP 181715Z 1818/1918 VRB04KT CAVOK"
    },
    {
      "icao": "LHDC",
      "alert": "OK",
      "vis_m": 9999,
      "fzfg": false,
      "metar_trigger": false,
      "taf_trigger": false,
      "metar": "METAR LHDC 181915Z AUTO 33003KT CAVOK 11/02 Q1017",
      "taf": "TAF LHDC 181415Z 1815/1824 01008KT CAVOK"
    },
    {
      "icao": "LIBD",
      "alert": "OK",
      "vis_m": 9999,
      "fzfg": false,
      "metar_trigger": false,
      "taf_trigger": false,
      "metar": "METAR LIBD 181920Z 30006KT 270V330 CAVOK 16/10 Q1015",
      "taf": "TAF LIBD 181700Z 1818/1918 28008KT CAVOK"
    },
    {
      "icao": "LIBG",
      "alert": "OK",
      "vis_m": null,
      "fzfg": false,
      "metar_trigger": false,
      "taf_trigger": false,
      "metar": "",
      "taf": "TAF LIBG 181400Z 1815/1824 35012KT CAVOK"
    },
    {
      "icao": "LIBP",
      "alert": "OK",
      "vis_m": 9999,
      "fzfg": false,
      "metar_trigger": false,
      "taf_trigger": false,
      "metar": "METAR LIBP 181920Z AUTO VRB02KT 9999 NCD 14/09 Q1018",
      "taf": "TAF LIBP 181700Z 1818/1918 VRB05KT CAVOK"
    },
    {
      "icao": "LIBR",
      "alert": "OK",
      "vis_m": 9999,
      "fzfg": false,
      "metar_trigger": false,
      "taf_trigger": false,
      "metar": "METAR LIBR 181920Z 32013KT CAVOK 16/13 Q1014",
      "taf": "TAF LIBR 181700Z 1818/1918 33016KT CAVOK"
    },
    {
      "icao": "LICA",
      "alert": "OK",
      "vis_m": 9999,
      "fzfg": false,
      "metar_trigger": false,
      "taf_trigger": false,
      "metar": "METAR LICA 181920Z AUTO 19002KT 9999 NCD 15/14 Q1016",
      "taf": "TAF LICA 181700Z 1818/1918 VRB05KT 9999 FEW010"
    },
    {
      "icao": "LICC",
      "alert": "OK",
      "vis_m": 9999,
      "fzfg": false,
      "metar_trigger": false,
      "taf_trigger": false,
      "metar": "METAR LICC 181920Z 08004KT CAVOK 18/15 Q1015",
      "taf": "TAF LICC 181700Z 1818/1918 VRB05KT CAVOK"
    },
    {
      "icao": "LICJ",
      "alert": "OK",
      "vis_m": 9999,
      "fzfg": false,
      "metar_trigger": false,
      "taf_trigger": false,
      "metar": "METAR LICJ 181920Z VRB02KT 9999 FEW010 17/16 Q1016",
      "taf": "TAF LICJ 181700Z 1818/1918 VRB05KT 9999 FEW010"
    },
    {
      "icao": "LIMC",
      "alert": "OK",
      "vis_m": 9999,
      "fzfg": false,
      "metar_trigger": false,
      "taf_trigger": false,
      "metar": "METAR LIMC 181920Z 07001KT CAVOK 17/13 Q1016 NOSIG",
      "taf": "TAF LIMC 181700Z 1818/1924 VRB05KT 9999 SCT050"
    },
    {
      "icao": "LIME",
      "alert": "OK",
      "vis_m": 9999,
      "fzfg": false,
      "metar_trigger": false,
      "taf_trigger": false,
      "metar": "METAR LIME 181920Z AUTO 01004KT 9999 NCD 19/12 Q1017",
      "taf": "TAF LIME 181700Z 1818/1918 VRB05KT 9999 SCT050"
    },
    {
      "icao": "LIMF",
      "alert": "OK",
      "vis_m": 9999,
      "fzfg": false,
      "metar_trigger": false,
      "taf_trigger": false,
      "metar": "METAR LIMF 181920Z 36002KT CAVOK 21/14 Q1017",
      "taf": "TAF LIMF 181700Z 1818/1918 VRB05KT 9999 SCT050"
    },
    {
      "icao": "LIMJ",
      "alert": "OK",
      "vis_m": 9999,
      "fzfg": false,
      "metar_trigger": false,
      "taf_trigger": false,
      "metar": "METAR LIMJ 181920Z AUTO VRB02KT 9999 NCD 19/08 Q1017",
      "taf": "TAF LIMJ 181700Z 1818/1918 VRB05KT CAVOK"
    },
    {
      "icao": "LIPE",
      "alert": "OK",
      "vis_m": 9999,
      "fzfg": false,
      "metar_trigger": false,
      "taf_trigger": false,
      "metar": "METAR LIPE 181920Z 09006KT CAVOK 18/09 Q1017",
      "taf": "TAF LIPE 181700Z 1818/1918 VRB05KT 9999 SCT040"
    },
    {
      "icao": "LIPH",
      "alert": "OK",
      "vis_m": 9999,
      "fzfg": false,
      "metar_trigger": false,
      "taf_trigger": false,
      "metar": "METAR LIPH 181920Z 19003KT 140V230 CAVOK 19/10 Q1017",
      "taf": "TAF LIPH 181700Z 1818/1918 VRB05KT 9999 SCT050"
    },
    {
      "icao": "LIPQ",
      "alert": "OK",
      "vis_m": 9999,
      "fzfg": false,
      "metar_trigger": false,
      "taf_trigger": false,
      "metar": "METAR LIPQ 181920Z AUTO 14006KT 9999 SCT110/// 17/10 Q1017",
      "taf": "TAF LIPQ 181700Z 1818/1918 VRB05KT 9999 SCT060"
    },
    {
      "icao": "LIPR",
      "alert": "OK",
      "vis_m": 9999,
      "fzfg": false,
      "metar_trigger": false,
      "taf_trigger": false,
      "metar": "METAR LIPR 181920Z AUTO 20003KT 9999 NCD 16/08 Q1017",
      "taf": "TAF LIPR 181700Z 1818/1918 VRB05KT 9999 SCT040"
    },
    {
      "icao": "LIPX",
      "alert": "OK",
      "vis_m": 9999,
      "fzfg": false,
      "metar_trigger": false,
      "taf_trigger": false,
      "metar": "METAR LIPX 181920Z 12003KT CAVOK 18/10 Q1017",
      "taf": "TAF LIPX 181700Z 1818/1918 VRB05KT 9999 FEW050"
    },
    {
      "icao": "LIPY",
      "alert": "OK",
      "vis_m": 9999,
      "fzfg": false,
      "metar_trigger": false,
      "taf_trigger": false,
      "metar": "METAR LIPY 181920Z AUTO 18003KT 150V240 9999 NCD 14/09 Q1017",
      "taf": "TAF LIPY 181700Z 1818/1918 VRB05KT 9999 SCT040"
    },
    {
      "icao": "LIPZ",
      "alert": "OK",
      "vis_m": 9999,
      "fzfg": false,
      "metar_trigger": false,
      "taf_trigger": false,
      "metar": "METAR LIPZ 181920Z 20005KT CAVOK 19/11 Q1017 NOSIG",
      "taf": "TAF LIPZ 181700Z 1818/1924 VRB05KT 9999 SCT050"
    },
    {
      "icao": "LIRF",
      "alert": "OK",
      "vis_m": 9999,
      "fzfg": false,
      "metar_trigger": false,
      "taf_trigger": false,
      "metar": "METAR LIRF 181920Z 28007KT CAVOK 18/14 Q1015 NOSIG",
      "taf": "TAF LIRF 181700Z 1818/1924 30010KT CAVOK"
    },
    {
      "icao": "LIRN",
      "alert": "OK",
      "vis_m": 9999,
      "fzfg": false,
      "metar_trigger": false,
      "taf_trigger": false,
      "metar": "METAR LIRN 181920Z 05003KT CAVOK 19/02 Q1016 NOSIG",
      "taf": "TAF LIRN 181700Z 1818/1918 VRB05KT CAVOK"
    },
    {
      "icao": "LIRP",
      "alert": "OK",
      "vis_m": 9999,
      "fzfg": false,
      "metar_trigger": false,
      "taf_trigger": false,
      "metar": "METAR LIRP 181915Z 31003KT CAVOK 17/10 Q1017 NOSIG",
      "taf": "TAF LIRP 181700Z 1818/1918 33010KT CAVOK"
    },
    {
      "icao": "LIRZ",
      "alert": "OK",
      "vis_m": 9999,
      "fzfg": false,
      "metar_trigger": false,
      "taf_trigger": false,
      "metar": "METAR LIRZ 181920Z AUTO 03006KT 9999 NCD 15/06 Q1017",
      "taf": "TAF LIRZ 181700Z 1818/1918 04010KT 9999 FEW080"
    },
    {
      "icao": "LJLJ",
      "alert": "OK",
      "vis_m": 9999,
      "fzfg": false,
      "metar_trigger": false,
      "taf_trigger": false,
      "metar": "METAR LJLJ 181930Z 07001KT CAVOK 14/08 Q1018 NOSIG",
      "taf": "TAF LJLJ 181700Z 1818/1918 30003KT 9999 FEW070"
    },
    {
      "icao": "LKMT",
      "alert": "OK",
      "vis_m": 9999,
      "fzfg": false,
      "metar_trigger": false,
      "taf_trigger": false,
      "metar": "METAR LKMT 181930Z 01002KT CAVOK 12/04 Q1019 NOSIG",
      "taf": "TAF LKMT 181700Z 1818/1918 VRB02KT CAVOK"
    },
    {
      "icao": "LKPR",
      "alert": "OK",
      "vis_m": 9999,
      "fzfg": false,
      "metar_trigger": false,
      "taf_trigger": false,
      "metar": "METAR LKPR 181930Z 00000KT CAVOK 14/06 Q1018 NOSIG",
      "taf": "TAF LKPR 181700Z 1818/1924 27005KT CAVOK"
    },
    {
      "icao": "LLBG",
      "alert": "OK",
      "vis_m": 9999,
      "fzfg": false,
      "metar_trigger": false,
      "taf_trigger": false,
      "metar": "METAR LLBG 181920Z 22005KT 9999 FEW023 SCT050 19/14 Q1009 NOSIG",
      "taf": "TAF LLBG 181702Z 1818/1918 27008KT 9999 FEW020 TX23/1910Z TN16/1903Z"
    },
    {
      "icao": "LMML",
      "alert": "OK",
      "vis_m": 9999,
      "fzfg": false,
      "metar_trigger": false,
      "taf_trigger": false,
      "metar": "METAR LMML 181915Z 26006KT CAVOK 16/15 Q1015 NOSIG",
      "taf": "TAF LMML 181700Z 1818/1918 31006KT 9999 FEW012"
    },
    {
      "icao": "LOWW",
      "alert": "OK",
      "vis_m": 9999,
      "fzfg": false,
      "metar_trigger": false,
      "taf_trigger": false,
      "metar": "METAR LOWW 181920Z 17004KT CAVOK 13/03 Q1018 NOSIG",
      "taf": "TAF LOWW 181715Z 1818/1924 35007KT CAVOK TX20/1913Z TN08/1903Z"
    },
    {
      "icao": "LPFR",
      "alert": "OK",
      "vis_m": 9999,
      "fzfg": false,
      "metar_trigger": false,
      "taf_trigger": false,
      "metar": "METAR LPFR 181930Z VRB01KT CAVOK 17/16 Q1015",
      "taf": "TAF LPFR 181700Z 1818/1918 14008KT CAVOK"
    },
    {
      "icao": "LPMA",
      "alert": "OK",
      "vis_m": 9999,
      "fzfg": false,
      "metar_trigger": false,
      "taf_trigger": false,
      "metar": "METAR LPMA 181930Z 02016KT 9999 FEW013 SCT070 17/13 Q1014",
      "taf": "TAF LPMA 181700Z 1818/1918 02015KT 9999 SCT015"
    },
    {
      "icao": "LPPR",
      "alert": "OK",
      "vis_m": 9999,
      "fzfg": false,
      "metar_trigger": false,
      "taf_trigger": false,
      "metar": "METAR LPPR 181930Z 29003KT CAVOK 17/12 Q1015",
      "taf": "TAF LPPR 181700Z 1818/1918 32007KT CAVOK"
    },
    {
      "icao": "LPPS",
      "alert": "OK",
      "vis_m": 9999,
      "fzfg": false,
      "metar_trigger": false,
      "taf_trigger": false,
      "metar": "METAR LPPS 181930Z 07013KT 040V100 9999 FEW013 16/13 Q1014",
      "taf": "TAF LPPS 181700Z 1818/1924 07012KT 9999 SCT015"
    },
    {
      "icao": "LPPT",
      "alert": "OK",
      "vis_m": 9999,
      "fzfg": false,
      "metar_trigger": false,
      "taf_trigger": false,
      "metar": "METAR LPPT 181930Z 31009KT 290V350 CAVOK 21/13 Q1015",
      "taf": "TAF LPPT 181700Z 1818/1924 30010KT CAVOK"
    },
    {
      "icao": "LQBK",
      "alert": "OK",
      "vis_m": 9999,
      "fzfg": false,
      "metar_trigger": false,
      "taf_trigger": false,
      "metar": "METAR LQBK 181930Z 00000KT CAVOK 11/05 Q1018 NOSIG",
      "taf": "TAF LQBK 181700Z 1818/1918 15005KT CAVOK TX22/1913Z TN06/1904Z"
    },
    {
      "icao": "LQSA",
      "alert": "OK",
      "vis_m": 9999,
      "fzfg": false,
      "metar_trigger": false,
      "taf_trigger": false,
      "metar": "METAR LQSA 181930Z 33004KT CAVOK 12/02 Q1019 NOSIG",
      "taf": "TAF LQSA 181700Z 1818/1918 VRB02KT CAVOK TX23/1913Z TN03/1904Z"
    },
    {
      "icao": "LQTZ",
      "alert": "OK",
      "vis_m": 9999,
      "fzfg": false,
      "metar_trigger": false,
      "taf_trigger": false,
      "metar": "METAR LQTZ 181930Z VRB02KT CAVOK 10/04 Q1019",
      "taf": "TAF LQTZ 181700Z 1818/1918 VRB03KT CAVOK TX21/1913Z TN05/1904Z"
    },
    {
      "icao": "LRBC",
      "alert": "OK",
      "vis_m": 9999,
      "fzfg": false,
      "metar_trigger": false,
      "taf_trigger": false,
      "metar": "METAR LRBC 181930Z 33007KT 9999 FEW040CB BKN052 10/08 Q1016",
      "taf": "TAF LRBC 181700Z 1818/1903 35012KT 9999 BKN045"
    },
    {
      "icao": "LRBS",
      "alert": "OK",
      "vis_m": 9999,
      "fzfg": false,
      "metar_trigger": false,
      "taf_trigger": false,
      "metar": "METAR LRBS 181930Z 11005KT 060V150 9999 FEW022 SCT046 FEW050CB 10/09 Q1016 RESHRA TEMPO 5000 SHRA",
      "taf": "TAF LRBS 181700Z 1818/1918 VRB04KT CAVOK"
    },
    {
      "icao": "LRBV",
      "alert": "OK",
      "vis_m": 9999,
      "fzfg": false,
      "metar_trigger": false,
      "taf_trigger": false,
      "metar": "METAR LRBV 181930Z 23003KT 9999 BKN066 11/03 Q1016",
      "taf": "TAF LRBV 181700Z 1818/1903 VRB04KT CAVOK"
    },
    {
      "icao": "LRCL",
      "alert": "OK",
      "vis_m": 9999,
      "fzfg": false,
      "metar_trigger": false,
      "taf_trigger": false,
      "metar": "METAR LRCL 181930Z 28004KT 240V310 CAVOK 11/02 Q1017",
      "taf": "TAF LRCL 181700Z 1818/1903 32006KT CAVOK"
    },
    {
      "icao": "LRCV",
      "alert": "OK",
      "vis_m": 9999,
      "fzfg": false,
      "metar_trigger": false,
      "taf_trigger": false,
      "metar": "METAR LRCV 181930Z 08008KT CAVOK 13/11 Q1015",
      "taf": "TAF LRCV 181700Z 1818/1903 13010KT 9999 SCT030"
    },
    {
      "icao": "LRIA",
      "alert": "OK",
      "vis_m": 9999,
      "fzfg": false,
      "metar_trigger": false,
      "taf_trigger": false,
      "metar": "METAR LRIA 181930Z 30008KT CAVOK 09/06 Q1015",
      "taf": "TAF LRIA 181700Z 1818/1903 32008KT 9999 SCT035"
    },
    {
      "icao": "LROP",
      "alert": "OK",
      "vis_m": 9999,
      "fzfg": false,
      "metar_trigger": false,
      "taf_trigger": false,
      "metar": "METAR LROP 181930Z 10007KT 070V150 9999 -SHRA FEW048CB 12/09 Q1016 NOSIG",
      "taf": "TAF LROP 181700Z 1818/1918 VRB04KT CAVOK"
    },
    {
      "icao": "LRSB",
      "alert": "OK",
      "vis_m": 9999,
      "fzfg": false,
      "metar_trigger": false,
      "taf_trigger": false,
      "metar": "METAR LRSB 181930Z 27007KT 9999 SCT083 10/04 Q1016",
      "taf": "TAF LRSB 181700Z 1818/1918 32006KT 9999 BKN040"
    },
    {
      "icao": "LRSM",
      "alert": "OK",
      "vis_m": 9999,
      "fzfg": false,
      "metar_trigger": false,
      "taf_trigger": false,
      "metar": "METAR LRSM 181930Z AUTO 35005KT 9999 NCD 10/01 Q1017",
      "taf": "TAF LRSM 181400Z 1815/1824 02010KT CAVOK"
    },
    {
      "icao": "LRSV",
      "alert": "OK",
      "vis_m": 9999,
      "fzfg": false,
      "metar_trigger": false,
      "taf_trigger": false,
      "metar": "METAR LRSV 181930Z 31006KT 9999 SCT048 10/05 Q1016",
      "taf": "TAF LRSV 181700Z 1818/1903 31010KT 9999 SCT040"
    },
    {
      "icao": "LRTM",
      "alert": "OK",
      "vis_m": 9999,
      "fzfg": false,
      "metar_trigger": false,
      "taf_trigger": false,
      "metar": "METAR LRTM 181930Z VRB01KT CAVOK 10/04 Q1016",
      "taf": "TAF LRTM 181700Z 1818/1903 VRB04KT CAVOK"
    },
    {
      "icao": "LRTR",
      "alert": "OK",
      "vis_m": 9999,
      "fzfg": false,
      "metar_trigger": false,
      "taf_trigger": false,
      "metar": "METAR LRTR 181930Z 31007KT CAVOK 10/04 Q1017",
      "taf": "TAF LRTR 181700Z 1818/1918 36008KT CAVOK"
    },
    {
      "icao": "LTAC",
      "alert": "OK",
      "vis_m": 9999,
      "fzfg": false,
      "metar_trigger": false,
      "taf_trigger": false,
      "metar": "METAR LTAC 181920Z 04014KT 9999 SCT040 BKN100 08/01 Q1008 NOSIG RMK RWY21C 03017KT RWY03L 03012KT RWY21R 02015KT RWY03R 02013KT RWY21L 02017KT",
      "taf": "TAF LTAC 181640Z 1818/1918 04008KT 9999 SCT040 BKN100"
    },
    {
      "icao": "LTFM",
      "alert": "OK",
      "vis_m": 8000,
      "fzfg": false,
      "metar_trigger": false,
      "taf_trigger": false,
      "metar": "METAR LTFM 181920Z 34005KT 310V010 8000 SCT006 SCT035 10/09 Q1015 NOSIG RMK RWY17L 30005KT RWY34L 32006KT RWY16R 29004KT RWY36 36004KT 310V030 RWY18 32004KT 260V010",
      "taf": "TAF LTFM 181640Z 1818/1924 01010KT 9999 SCT009 SCT035"
    },
    {
      "icao": "LUKK",
      "alert": "OK",
      "vis_m": 9999,
      "fzfg": false,
      "metar_trigger": false,
      "taf_trigger": false,
      "metar": "METAR LUKK 181930Z 34006KT CAVOK 09/06 Q1014 NOSIG",
      "taf": "TAF LUKK 181704Z 1818/1918 34008KT 9999 SCT040"
    },
    {
      "icao": "LWOH",
      "alert": "OK",
      "vis_m": 9999,
      "fzfg": false,
      "metar_trigger": false,
      "taf_trigger": false,
      "metar": "METAR LWOH 181850Z 03007KT 9999 SCT040 14/00 Q1015",
      "taf": "TAF LWOH 181730Z 1818/1918 35010KT 9999 FEW040"
    },
    {
      "icao": "LWSK",
      "alert": "OK",
      "vis_m": 9999,
      "fzfg": false,
      "metar_trigger": false,
      "taf_trigger": false,
      "metar": "METAR LWSK 181920Z 35004KT 300V030 CAVOK 13/03 Q1016 NOSIG",
      "taf": "TAF LWSK 181730Z 1818/1918 36010KT CAVOK"
    },
    {
      "icao": "LYBE",
      "alert": "OK",
      "vis_m": 9999,
      "fzfg": false,
      "metar_trigger": false,
      "taf_trigger": false,
      "metar": "METAR LYBE 181930Z 34002KT CAVOK 11/02 Q1018 NOSIG",
      "taf": "TAF LYBE 181700Z 1818/1918 32006KT CAVOK TX21/1913Z TN04/1904Z"
    },
    {
      "icao": "LYNI",
      "alert": "OK",
      "vis_m": 9999,
      "fzfg": false,
      "metar_trigger": false,
      "taf_trigger": false,
      "metar": "METAR LYNI 181930Z 33011KT CAVOK 15/M00 Q1016 NOSIG",
      "taf": "TAF LYNI 181700Z 1818/1918 33016KT CAVOK TX21/1912Z TN05/1904Z"
    },
    {
      "icao": "LYPG",
      "alert": "OK",
      "vis_m": 9999,
      "fzfg": false,
      "metar_trigger": false,
      "taf_trigger": false,
      "metar": "METAR LYPG 181930Z 34009KT CAVOK 20/00 Q1014 NOSIG",
      "taf": "TAF LYPG 181700Z 1818/1918 36014KT CAVOK TX26/1913Z TN15/1904Z"
    },
    {
      "icao": "LZIB",
      "alert": "OK",
      "vis_m": 9999,
      "fzfg": false,
      "metar_trigger": false,
      "taf_trigger": false,
      "metar": "METAR LZIB 181930Z 31003KT CAVOK 14/03 Q1018 NOSIG",
      "taf": "TAF LZIB 181715Z 1818/1918 35008KT CAVOK"
    },
    {
      "icao": "LZKZ",
      "alert": "OK",
      "vis_m": 9999,
      "fzfg": false,
      "metar_trigger": false,
      "taf_trigger": false,
      "metar": "METAR LZKZ 181930Z 01009KT CAVOK 14/02 Q1018 NOSIG",
      "taf": "TAF LZKZ 181715Z 1818/1918 02008KT CAVOK"
    },
    {
      "icao": "LZTT",
      "alert": "OK",
      "vis_m": 9999,
      "fzfg": false,
      "metar_trigger": false,
      "taf_trigger": false,
      "metar": "METAR LZTT 181930Z VRB01KT CAVOK 06/01 Q1019",
      "taf": "TAF LZTT 181715Z 1818/1918 08008KT CAVOK"
    },
    {
      "icao": "OEJN",
      "alert": "OK",
      "vis_m": 9999,
      "fzfg": false,
      "metar_trigger": false,
      "taf_trigger": false,
      "metar": "METAR OEJN 181900Z 16012KT CAVOK 35/08 Q1005 NOSIG",
      "taf": "TAF OEJN 181700Z 1818/1924 16012KT 7000 NSC"
    },
    {
      "icao": "OEMA",
      "alert": "OK",
      "vis_m": 8000,
      "fzfg": false,
      "metar_trigger": false,
      "taf_trigger": false,
      "metar": "METAR OEMA 181900Z 19006KT 8000 NSC 32/13 Q1012 NOSIG",
      "taf": "TAF OEMA 181700Z 1818/1924 24006KT 7000 FEW040"
    },
    {
      "icao": "OJAI",
      "alert": "OK",
      "vis_m": null,
      "fzfg": false,
      "metar_trigger": false,
      "taf_trigger": false,
      "metar": "",
      "taf": "TAF OJAI 181700Z 1818/1924 27018KT 2000 BLDU SCT035"
    },
    {
      "icao": "OMAA",
      "alert": "OK",
      "vis_m": null,
      "fzfg": false,
      "metar_trigger": false,
      "taf_trigger": false,
      "metar": "",
      "taf": ""
    },
    {
      "icao": "OMDB",
      "alert": "OK",
      "vis_m": null,
      "fzfg": false,
      "metar_trigger": false,
      "taf_trigger": false,
      "metar": "",
      "taf": ""
    },
    {
      "icao": "UAAA",
      "alert": "OK",
      "vis_m": 4500,
      "fzfg": false,
      "metar_trigger": false,
      "taf_trigger": false,
      "metar": "METAR UAAA 181930Z VRB01MPS 4500 BR FEW100 SCT200 04/03 Q1017 NOSIG",
      "taf": "TAF UAAA 181703Z 1818/1918 20003MPS 3100 BR FU SCT040CB BKN100 TX13/1909Z TN04/1901Z"
    },
    {
      "icao": "UBBB",
      "alert": "OK",
      "vis_m": 9999,
      "fzfg": false,
      "metar_trigger": false,
      "taf_trigger": false,
      "metar": "METAR UBBB 181930Z 16008KT CAVOK 13/12 Q1007 NOSIG",
      "taf": "TAF UBBB 181701Z 1818/1918 15012KT 9999 SCT025 TX19/1909Z TN10/1901Z"
    },
    {
      "icao": "UDSG",
      "alert": "OK",
      "vis_m": 5000,
      "fzfg": false,
      "metar_trigger": false,
      "taf_trigger": false,
      "metar": "METAR UDSG 181930Z 19001KT 5000 -SHRA BR BKN020CB OVC033 07/06 Q1010 NOSIG",
      "taf": ""
    },
    {
      "icao": "UDYZ",
      "alert": "OK",
      "vis_m": 8000,
      "fzfg": false,
      "metar_trigger": false,
      "taf_trigger": false,
      "metar": "METAR UDYZ 181930Z 18003KT 8000 -SHRA OVC043CB 12/10 Q1008 NOSIG",
      "taf": "TAF UDYZ 181700Z 1818/1918 04006KT 9999 SCT040"
    },
    {
      "icao": "UGKO",
      "alert": "OK",
      "vis_m": 9999,
      "fzfg": false,
      "metar_trigger": false,
      "taf_trigger": false,
      "metar": "METAR UGKO 181930Z 28011KT 9999 BKN098 12/07 Q1007 NOSIG",
      "taf": "TAF UGKO 181700Z 1818/1918 26010KT 9999 SCT022 OVC050 TX20/1818Z TN11/1903Z"
    }
  ]
}