{
  "ts_utc": "2026-06-03T20:29:24Z",
  "threshold_m": 150,
  "source": "stations_override.txt (ICAO list) + aviationweather.gov (METAR/TAF raw)",
  "station_count": 159,
  "stations": [
    {
      "icao": "BIKF",
      "alert": "OK",
      "vis_m": 9999,
      "fzfg": false,
      "metar_trigger": false,
      "taf_trigger": false,
      "metar": "METAR BIKF 032000Z 29006KT 240V320 9999 FEW008 BKN031 BKN069 10/08 Q0994",
      "taf": "TAF BIKF 031933Z 0321/0421 28005KT 9999 -DZ SCT015 BKN025 TX12/0418Z TN08/0405Z"
    },
    {
      "icao": "BKPR",
      "alert": "OK",
      "vis_m": null,
      "fzfg": false,
      "metar_trigger": false,
      "taf_trigger": false,
      "metar": "",
      "taf": ""
    },
    {
      "icao": "EBCI",
      "alert": "OK",
      "vis_m": 9999,
      "fzfg": false,
      "metar_trigger": false,
      "taf_trigger": false,
      "metar": "METAR EBCI 032020Z 19015G25KT 9999 FEW010 BKN014 16/14 Q1004 NOSIG",
      "taf": "TAF EBCI 031700Z 0318/0424 20013KT 9999 BKN030"
    },
    {
      "icao": "EDDB",
      "alert": "OK",
      "vis_m": 9999,
      "fzfg": false,
      "metar_trigger": false,
      "taf_trigger": false,
      "metar": "METAR EDDB 032020Z AUTO 17007KT CAVOK 16/10 Q1008 NOSIG",
      "taf": "TAF EDDB 031700Z 0318/0418 18006KT CAVOK"
    },
    {
      "icao": "EDDH",
      "alert": "OK",
      "vis_m": 9999,
      "fzfg": false,
      "metar_trigger": false,
      "taf_trigger": false,
      "metar": "METAR EDDH 032020Z AUTO 20009KT CAVOK 17/12 Q1005 NOSIG",
      "taf": "TAF EDDH 031700Z 0318/0424 23007KT 9999 SCT030"
    },
    {
      "icao": "EDDK",
      "alert": "OK",
      "vis_m": 9999,
      "fzfg": false,
      "metar_trigger": false,
      "taf_trigger": false,
      "metar": "METAR EDDK 032020Z AUTO 13008KT 9999 -SHRA BKN048 FEW///TCU 15/12 Q1007 RESHRA TEMPO SHRA",
      "taf": "TAF EDDK 031700Z 0318/0424 18009KT 9999 SCT030"
    },
    {
      "icao": "EDDN",
      "alert": "OK",
      "vis_m": 9999,
      "fzfg": false,
      "metar_trigger": false,
      "taf_trigger": false,
      "metar": "METAR EDDN 032020Z AUTO 22002KT CAVOK 15/08 Q1012",
      "taf": "TAF EDDN 031700Z 0318/0418 24007KT CAVOK"
    },
    {
      "icao": "EDDS",
      "alert": "OK",
      "vis_m": 9999,
      "fzfg": false,
      "metar_trigger": false,
      "taf_trigger": false,
      "metar": "METAR EDDS 032020Z AUTO VRB02KT CAVOK 15/10 Q1012",
      "taf": "TAF EDDS 031700Z 0318/0418 24010KT 9999 SCT030"
    },
    {
      "icao": "EDFH",
      "alert": "OK",
      "vis_m": 9999,
      "fzfg": false,
      "metar_trigger": false,
      "taf_trigger": false,
      "metar": "METAR EDFH 032020Z 22009KT 9999 -SHRA FEW030 SCT043CB 14/10 Q1009",
      "taf": "TAF EDFH 031700Z 0318/0418 22010KT 9999 SCT030"
    },
    {
      "icao": "EDJA",
      "alert": "OK",
      "vis_m": 9999,
      "fzfg": false,
      "metar_trigger": false,
      "taf_trigger": false,
      "metar": "METAR EDJA 032020Z 20007KT CAVOK 11/10 Q1013",
      "taf": "TAF EDJA 031700Z 0318/0403 22010KT 9999 FEW025"
    },
    {
      "icao": "EDLW",
      "alert": "OK",
      "vis_m": 9999,
      "fzfg": false,
      "metar_trigger": false,
      "taf_trigger": false,
      "metar": "METAR EDLW 032020Z 18010KT 9999 FEW049 16/11 Q1006",
      "taf": "TAF EDLW 031700Z 0318/0418 21011KT 9999 BKN030"
    },
    {
      "icao": "EDNY",
      "alert": "OK",
      "vis_m": 9999,
      "fzfg": false,
      "metar_trigger": false,
      "taf_trigger": false,
      "metar": "METAR EDNY 032020Z AUTO VRB02KT 9999 // SCT046/// BKN070/// 14/11 Q1014",
      "taf": "TAF EDNY 031700Z 0318/0403 22009KT CAVOK"
    },
    {
      "icao": "EDSB",
      "alert": "OK",
      "vis_m": 9999,
      "fzfg": false,
      "metar_trigger": false,
      "taf_trigger": false,
      "metar": "METAR EDSB 032020Z 20006KT CAVOK 17/10 Q1011",
      "taf": "TAF EDSB 031700Z 0318/0418 21010KT 9999 FEW045"
    },
    {
      "icao": "EETN",
      "alert": "OK",
      "vis_m": 9999,
      "fzfg": false,
      "metar_trigger": false,
      "taf_trigger": false,
      "metar": "METAR EETN 032020Z 12004KT CAVOK 15/13 Q1013 NOSIG",
      "taf": "TAF EETN 031730Z 0318/0418 13010KT CAVOK"
    },
    {
      "icao": "EFTU",
      "alert": "OK",
      "vis_m": 9999,
      "fzfg": false,
      "metar_trigger": false,
      "taf_trigger": false,
      "metar": "METAR EFTU 032020Z AUTO 18003KT CAVOK 14/11 Q1012",
      "taf": "TAF EFTU 031724Z 0318/0418 22005KT CAVOK"
    },
    {
      "icao": "EGBB",
      "alert": "OK",
      "vis_m": 9999,
      "fzfg": false,
      "metar_trigger": false,
      "taf_trigger": false,
      "metar": "METAR EGBB 032020Z 22008KT 190V260 9999 SCT035 BKN042 14/10 Q0995",
      "taf": "TAF EGBB 031657Z 0318/0418 23017G29KT 9999 SCT035"
    },
    {
      "icao": "EGGP",
      "alert": "OK",
      "vis_m": 9999,
      "fzfg": false,
      "metar_trigger": false,
      "taf_trigger": false,
      "metar": "METAR EGGP 032020Z 22013G25KT 190V250 9999 BKN030 BKN036 BKN044 14/09 Q0991",
      "taf": "TAF EGGP 031659Z 0318/0418 22015G25KT 9999 FEW015 SCT030"
    },
    {
      "icao": "EGGW",
      "alert": "OK",
      "vis_m": 9999,
      "fzfg": false,
      "metar_trigger": false,
      "taf_trigger": false,
      "metar": "METAR EGGW 032020Z 21012KT 9999 6000W VCSH FEW023CB BKN032 14/12 Q0996",
      "taf": "TAF EGGW 031657Z 0318/0418 22013KT 9999 SCT020"
    },
    {
      "icao": "EGKK",
      "alert": "OK",
      "vis_m": 9999,
      "fzfg": false,
      "metar_trigger": false,
      "taf_trigger": false,
      "metar": "METAR EGKK 032020Z 23013KT 9999 SCT022 SCT029 15/11 Q0999",
      "taf": "TAF EGKK 031656Z 0318/0424 21018G28KT 9999 SCT020"
    },
    {
      "icao": "EGNM",
      "alert": "OK",
      "vis_m": 9999,
      "fzfg": false,
      "metar_trigger": false,
      "taf_trigger": false,
      "metar": "METAR EGNM 032020Z 23010KT 190V260 9999 SCT025 SCT035 13/08 Q0990",
      "taf": "TAF EGNM 031657Z 0318/0418 24016G26KT 9999 FEW012 SCT030"
    },
    {
      "icao": "EGPD",
      "alert": "OK",
      "vis_m": 9999,
      "fzfg": false,
      "metar_trigger": false,
      "taf_trigger": false,
      "metar": "METAR EGPD 032020Z COR AUTO 17007KT 9999 SCT005 12/11 Q0984 NOSIG",
      "taf": ""
    },
    {
      "icao": "EGPF",
      "alert": "OK",
      "vis_m": 9999,
      "fzfg": false,
      "metar_trigger": false,
      "taf_trigger": false,
      "metar": "METAR EGPF 032020Z AUTO 20008KT 9999 FEW024/// //////CB 13/11 Q0984",
      "taf": "TAF EGPF 031704Z 0318/0418 21012KT 9999 BKN025"
    },
    {
      "icao": "EHBK",
      "alert": "OK",
      "vis_m": 9999,
      "fzfg": false,
      "metar_trigger": false,
      "taf_trigger": false,
      "metar": "METAR EHBK 032025Z AUTO 19017KT 170V230 9999 FEW016 SCT036 15/13 Q1005 NOSIG",
      "taf": "TAF EHBK 031717Z 0318/0424 19012KT 9999 -RA BKN025"
    },
    {
      "icao": "EHEH",
      "alert": "OK",
      "vis_m": 9999,
      "fzfg": false,
      "metar_trigger": false,
      "taf_trigger": false,
      "metar": "METAR EHEH 031955Z AUTO 19016KT 140V220 9999 +DZ FEW007 FEW015CB BKN016 BKN020 15/14 Q1003 WHT TEMPO 4000 SHRA RA FEW009 BKN015CB",
      "taf": "TAF EHEH 031730Z 0318/0424 19013KT 9999 SCT035 BKN045"
    },
    {
      "icao": "EKBI",
      "alert": "OK",
      "vis_m": 9999,
      "fzfg": false,
      "metar_trigger": false,
      "taf_trigger": false,
      "metar": "METAR EKBI 032020Z AUTO 16004KT 9999 FEW016/// FEW081/// BKN180/// 13/12 Q1003",
      "taf": "TAF EKBI 032027Z 0321/0421 20010KT 9999 SCT025"
    },
    {
      "icao": "EKCH",
      "alert": "OK",
      "vis_m": 9999,
      "fzfg": false,
      "metar_trigger": false,
      "taf_trigger": false,
      "metar": "METAR EKCH 032020Z AUTO 16010KT 9999 FEW047/// 15/14 Q1006 TEMPO SCT020CB",
      "taf": "TAF EKCH 032027Z 0321/0421 18010KT 9999 SCT025"
    },
    {
      "icao": "ENAL",
      "alert": "OK",
      "vis_m": 9999,
      "fzfg": false,
      "metar_trigger": false,
      "taf_trigger": false,
      "metar": "METAR ENAL 032020Z 19003KT 140V240 CAVOK 16/11 Q0994",
      "taf": "TAF ENAL 031700Z 0318/0403 09008KT 9999 FEW055"
    },
    {
      "icao": "ENBR",
      "alert": "OK",
      "vis_m": 9999,
      "fzfg": false,
      "metar_trigger": false,
      "taf_trigger": false,
      "metar": "METAR ENBR 032020Z 16012KT 9999 SCT010 BKN015CB 13/12 Q0996 RMK WIND 1200FT 16024KT",
      "taf": "TAF ENBR 031700Z 0318/0418 16008KT 9999 FEW012 BKN030"
    },
    {
      "icao": "ENGM",
      "alert": "OK",
      "vis_m": 9999,
      "fzfg": false,
      "metar_trigger": false,
      "taf_trigger": false,
      "metar": "METAR ENGM 032020Z 15005KT 9999 -RA SCT005 BKN008 15/14 Q1002 NOSIG",
      "taf": ""
    },
    {
      "icao": "ENHD",
      "alert": "OK",
      "vis_m": 9999,
      "fzfg": false,
      "metar_trigger": false,
      "taf_trigger": false,
      "metar": "METAR ENHD 032020Z 15013KT 120V180 9999 SCT007 BKN009 OVC014 12/11 Q0997",
      "taf": "TAF ENHD 031400Z 0315/0322 14012KT 9999 -SHRA FEW015 BKN025"
    },
    {
      "icao": "ENTC",
      "alert": "OK",
      "vis_m": 9999,
      "fzfg": false,
      "metar_trigger": false,
      "taf_trigger": false,
      "metar": "METAR ENTC 032020Z 03008KT CAVOK 16/06 Q1005 NOSIG RMK WIND 2600FT 16013KT",
      "taf": "TAF ENTC 031700Z 0318/0418 02005KT CAVOK"
    },
    {
      "icao": "ENTO",
      "alert": "OK",
      "vis_m": 9999,
      "fzfg": false,
      "metar_trigger": false,
      "taf_trigger": false,
      "metar": "METAR ENTO 032020Z 15004KT 9999 BKN005 14/14 Q1002 TEMPO 4000 SHRA BKN005 SCT030CB",
      "taf": ""
    },
    {
      "icao": "ENVA",
      "alert": "OK",
      "vis_m": 9999,
      "fzfg": false,
      "metar_trigger": false,
      "taf_trigger": false,
      "metar": "METAR ENVA 032020Z 09011KT 040V120 CAVOK 21/11 Q0999 RMK WIND 670FT 10013KT",
      "taf": "TAF ENVA 031700Z 0318/0418 12008KT CAVOK"
    },
    {
      "icao": "ENZV",
      "alert": "OK",
      "vis_m": 9999,
      "fzfg": false,
      "metar_trigger": false,
      "taf_trigger": false,
      "metar": "METAR ENZV 032020Z 15013KT 9999 -RA FEW010 SCT022 13/11 Q0997",
      "taf": "TAF ENZV 031700Z 0318/0418 14012KT 9999 -SHRA SCT006 BKN018"
    },
    {
      "icao": "EPGD",
      "alert": "OK",
      "vis_m": 9999,
      "fzfg": false,
      "metar_trigger": false,
      "taf_trigger": false,
      "metar": "METAR EPGD 032000Z 13011KT CAVOK 19/11 Q1008",
      "taf": "TAF EPGD 031730Z 0318/0418 12012KT CAVOK"
    },
    {
      "icao": "EPKK",
      "alert": "OK",
      "vis_m": 9999,
      "fzfg": false,
      "metar_trigger": false,
      "taf_trigger": false,
      "metar": "METAR EPKK 032000Z 29006KT 9999 FEW060CB 16/15 Q1009",
      "taf": ""
    },
    {
      "icao": "EPKT",
      "alert": "OK",
      "vis_m": 9999,
      "fzfg": false,
      "metar_trigger": false,
      "taf_trigger": false,
      "metar": "METAR EPKT 032000Z 26006KT 9999 BKN003 14/14 Q1010",
      "taf": ""
    },
    {
      "icao": "EPLB",
      "alert": "OK",
      "vis_m": 9999,
      "fzfg": false,
      "metar_trigger": false,
      "taf_trigger": false,
      "metar": "METAR EPLB 032000Z 09006KT CAVOK 15/13 Q1010",
      "taf": "TAF EPLB 031730Z 0318/0418 09010KT 9999 SCT035"
    },
    {
      "icao": "EPMO",
      "alert": "OK",
      "vis_m": 9999,
      "fzfg": false,
      "metar_trigger": false,
      "taf_trigger": false,
      "metar": "METAR EPMO 032000Z 09008KT CAVOK 17/13 Q1009",
      "taf": "TAF EPMO 031730Z 0318/0418 09010KT CAVOK"
    },
    {
      "icao": "EPPO",
      "alert": "OK",
      "vis_m": 9999,
      "fzfg": false,
      "metar_trigger": false,
      "taf_trigger": false,
      "metar": "METAR EPPO 032000Z 26003KT 9999 -SHRA SCT005 BKN049CB 15/14 Q1009",
      "taf": "TAF EPPO 031730Z 0318/0418 28010KT 8000 BKN016"
    },
    {
      "icao": "EPRA",
      "alert": "OK",
      "vis_m": 9999,
      "fzfg": false,
      "metar_trigger": false,
      "taf_trigger": false,
      "metar": "METAR EPRA 032000Z 10009KT CAVOK 19/12 Q1009",
      "taf": "TAF EPRA 031730Z 0318/0403 10010KT CAVOK"
    },
    {
      "icao": "EPRZ",
      "alert": "OK",
      "vis_m": 9999,
      "fzfg": false,
      "metar_trigger": false,
      "taf_trigger": false,
      "metar": "METAR EPRZ 032000Z 08007KT CAVOK 17/16 Q1008",
      "taf": "TAF EPRZ 031730Z 0318/0418 08008KT 9999 SCT035TCU"
    },
    {
      "icao": "EPSC",
      "alert": "OK",
      "vis_m": 9999,
      "fzfg": false,
      "metar_trigger": false,
      "taf_trigger": false,
      "metar": "METAR EPSC 032000Z 11005KT 9999 FEW009 SCT050TCU 15/15 Q1008",
      "taf": "TAF EPSC 031730Z 0318/0418 VRB04KT CAVOK"
    },
    {
      "icao": "EPSY",
      "alert": "OK",
      "vis_m": 9999,
      "fzfg": false,
      "metar_trigger": false,
      "taf_trigger": false,
      "metar": "METAR EPSY 032000Z 14004KT 090V180 CAVOK 17/11 Q1010",
      "taf": "TAF EPSY 031730Z 0318/0403 14006KT CAVOK"
    },
    {
      "icao": "EPWA",
      "alert": "OK",
      "vis_m": 9999,
      "fzfg": false,
      "metar_trigger": false,
      "taf_trigger": false,
      "metar": "METAR EPWA 032000Z 11010KT CAVOK 19/13 Q1009 NOSIG",
      "taf": "TAF EPWA 031730Z 0318/0418 10010KT CAVOK"
    },
    {
      "icao": "EPWR",
      "alert": "OK",
      "vis_m": 9999,
      "fzfg": false,
      "metar_trigger": false,
      "taf_trigger": false,
      "metar": "METAR EPWR 032000Z 25004KT 9999 -RA FEW013 SCT043 16/15 Q1010",
      "taf": "TAF EPWR 031730Z 0318/0418 28010KT 9999 OVC045"
    },
    {
      "icao": "ESGG",
      "alert": "OK",
      "vis_m": 9999,
      "fzfg": false,
      "metar_trigger": false,
      "taf_trigger": false,
      "metar": "METAR ESGG 032020Z 16008KT 9999 -RA BKN006 BKN034 14/13 Q1004 REDZ",
      "taf": "TAF ESGG 031730Z 0318/0418 18010KT 9999 -RA SCT012 BKN040"
    },
    {
      "icao": "ESKN",
      "alert": "OK",
      "vis_m": 9999,
      "fzfg": false,
      "metar_trigger": false,
      "taf_trigger": false,
      "metar": "METAR ESKN 032020Z 12007KT CAVOK 15/13 Q1007",
      "taf": "TAF ESKN 031730Z 0318/0418 14012KT CAVOK"
    },
    {
      "icao": "ESMS",
      "alert": "OK",
      "vis_m": 4000,
      "fzfg": false,
      "metar_trigger": false,
      "taf_trigger": false,
      "metar": "METAR ESMS 032020Z 15006KT 4000 BR FEW040 14/14 Q1006",
      "taf": "TAF ESMS 031727Z 0318/0418 18008KT 9999 SCT025"
    },
    {
      "icao": "ESSA",
      "alert": "OK",
      "vis_m": 9999,
      "fzfg": false,
      "metar_trigger": false,
      "taf_trigger": false,
      "metar": "METAR ESSA 032020Z 13010KT CAVOK 15/12 Q1008 NOSIG",
      "taf": "TAF ESSA 031730Z 0318/0418 15010KT CAVOK"
    },
    {
      "icao": "EYKA",
      "alert": "OK",
      "vis_m": 9999,
      "fzfg": false,
      "metar_trigger": false,
      "taf_trigger": false,
      "metar": "METAR EYKA 032020Z 12006KT CAVOK 15/09 Q1012",
      "taf": "TAF EYKA 031703Z 0318/0418 13010KT 9000 NSC"
    },
    {
      "icao": "EYPA",
      "alert": "OK",
      "vis_m": 9999,
      "fzfg": false,
      "metar_trigger": false,
      "taf_trigger": false,
      "metar": "METAR EYPA 032020Z 13007KT CAVOK 19/10 Q1010",
      "taf": "TAF EYPA 031702Z 0318/0418 14010KT 9000 NSC"
    },
    {
      "icao": "EYVI",
      "alert": "OK",
      "vis_m": 9999,
      "fzfg": false,
      "metar_trigger": false,
      "taf_trigger": false,
      "metar": "METAR EYVI 032020Z 15005KT CAVOK 12/09 Q1013 NOSIG",
      "taf": "TAF EYVI 031704Z 0318/0418 16008KT 9000 SCT045"
    },
    {
      "icao": "GCFV",
      "alert": "OK",
      "vis_m": 9999,
      "fzfg": false,
      "metar_trigger": false,
      "taf_trigger": false,
      "metar": "METAR GCFV 032000Z 35016KT 9999 FEW025 21/15 Q1019",
      "taf": "TAF GCFV 032000Z 0321/0421 36014KT 9999 SCT018 TX26/0414Z TN19/0406Z"
    },
    {
      "icao": "GCLP",
      "alert": "OK",
      "vis_m": 9999,
      "fzfg": false,
      "metar_trigger": false,
      "taf_trigger": false,
      "metar": "METAR GCLP 032000Z 36023KT 9999 FEW020 21/15 Q1019 NOSIG",
      "taf": "TAF GCLP 032000Z 0321/0421 36022KT 9999 SCT020 TX26/0414Z TN20/0406Z"
    },
    {
      "icao": "GCTS",
      "alert": "OK",
      "vis_m": 9999,
      "fzfg": false,
      "metar_trigger": false,
      "taf_trigger": false,
      "metar": "METAR GCTS 032000Z 07010KT 9999 FEW022 23/13 Q1020 WS R07 NOSIG",
      "taf": "TAF GCTS 032000Z 0321/0421 03007KT 9999 FEW020 TX28/0414Z TN19/0406Z"
    },
    {
      "icao": "GMAD",
      "alert": "OK",
      "vis_m": 8000,
      "fzfg": false,
      "metar_trigger": false,
      "taf_trigger": false,
      "metar": "METAR GMAD 032000Z 21004KT 8000 NSC 21/16 Q1014 NOSIG",
      "taf": "TAF GMAD 031700Z 0318/0424 20008KT 8000 SCT016"
    },
    {
      "icao": "GMMN",
      "alert": "OK",
      "vis_m": 9999,
      "fzfg": false,
      "metar_trigger": false,
      "taf_trigger": false,
      "metar": "METAR GMMN 032000Z 01009KT 9999 FEW020 19/16 Q1018 NOSIG",
      "taf": "TAF GMMN 031700Z 0318/0424 36014KT CAVOK"
    },
    {
      "icao": "GMMX",
      "alert": "OK",
      "vis_m": 9999,
      "fzfg": false,
      "metar_trigger": false,
      "taf_trigger": false,
      "metar": "METAR GMMX 032000Z 36009KT 310V050 CAVOK 28/15 Q1016 NOSIG",
      "taf": "TAF GMMX 031700Z 0318/0424 34006KT CAVOK"
    },
    {
      "icao": "HEGN",
      "alert": "OK",
      "vis_m": 9999,
      "fzfg": false,
      "metar_trigger": false,
      "taf_trigger": false,
      "metar": "METAR HEGN 032000Z 30007KT CAVOK 33/03 Q1011 NOSIG",
      "taf": "TAF HEGN 031700Z 0318/0424 33010KT CAVOK"
    },
    {
      "icao": "HEMA",
      "alert": "OK",
      "vis_m": 9999,
      "fzfg": false,
      "metar_trigger": false,
      "taf_trigger": false,
      "metar": "METAR HEMA 032000Z 31006KT CAVOK 32/07 Q1010 NOSIG",
      "taf": "TAF HEMA 031700Z 0318/0424 32012KT CAVOK"
    },
    {
      "icao": "HESH",
      "alert": "OK",
      "vis_m": 9999,
      "fzfg": false,
      "metar_trigger": false,
      "taf_trigger": false,
      "metar": "METAR HESH 032000Z 27004KT CAVOK 35/09 Q1011 NOSIG",
      "taf": "TAF HESH 031700Z 0318/0424 35010KT CAVOK"
    },
    {
      "icao": "HESX",
      "alert": "OK",
      "vis_m": 9999,
      "fzfg": false,
      "metar_trigger": false,
      "taf_trigger": false,
      "metar": "METAR HESX 032000Z 06009KT CAVOK 26/13 Q1013 NOSIG",
      "taf": "TAF HESX 031700Z 0318/0424 03010KT 9999 SCT030"
    },
    {
      "icao": "LATI",
      "alert": "OK",
      "vis_m": 9999,
      "fzfg": false,
      "metar_trigger": false,
      "taf_trigger": false,
      "metar": "METAR LATI 032020Z 32018KT 9999 -RA FEW020CB SCT048 BKN078 17/15 Q1009 RETS TEMPO 30014G25KT 3000 TSRA SCT020CB",
      "taf": "TAF LATI 031700Z 0318/0418 27010KT 9999 SCT080 TX27/0411Z TN13/0404Z"
    },
    {
      "icao": "LBPD",
      "alert": "OK",
      "vis_m": 9999,
      "fzfg": false,
      "metar_trigger": false,
      "taf_trigger": false,
      "metar": "METAR LBPD 032000Z AUTO 00000KT 9999 FEW055/// OVC120/// 21/16 Q1009",
      "taf": "TAF LBPD 031700Z 0318/0418 VRB04KT 9999 SCT060"
    },
    {
      "icao": "LBSF",
      "alert": "OK",
      "vis_m": 9999,
      "fzfg": false,
      "metar_trigger": false,
      "taf_trigger": false,
      "metar": "METAR LBSF 032000Z AUTO 10008KT 9999 NSC 19/15 Q1010 NOSIG",
      "taf": "TAF LBSF 031700Z 0318/0418 VRB04KT 9999 SCT050"
    },
    {
      "icao": "LBWN",
      "alert": "OK",
      "vis_m": 9999,
      "fzfg": false,
      "metar_trigger": false,
      "taf_trigger": false,
      "metar": "METAR LBWN 032000Z AUTO 12003KT 080V150 9999 NCD 18/18 Q1010 NOSIG",
      "taf": "TAF LBWN 031700Z 0318/0418 10008KT 9999 SCT040"
    },
    {
      "icao": "LCLK",
      "alert": "OK",
      "vis_m": 9999,
      "fzfg": false,
      "metar_trigger": false,
      "taf_trigger": false,
      "metar": "METAR LCLK 032000Z 34011KT CAVOK 24/16 Q1013 NOSIG",
      "taf": "TAF LCLK 031730Z 0318/0418 32009KT CAVOK"
    },
    {
      "icao": "LCPH",
      "alert": "OK",
      "vis_m": 9999,
      "fzfg": false,
      "metar_trigger": false,
      "taf_trigger": false,
      "metar": "METAR LCPH 032000Z 36005KT CAVOK 20/10 Q1014 NOSIG",
      "taf": "TAF LCPH 031730Z 0318/0418 35009KT CAVOK"
    },
    {
      "icao": "LEAL",
      "alert": "OK",
      "vis_m": 9999,
      "fzfg": false,
      "metar_trigger": false,
      "taf_trigger": false,
      "metar": "METAR LEAL 032000Z 15003KT 110V170 9999 FEW016 23/19 Q1016 NOSIG",
      "taf": "TAF LEAL 031700Z 0318/0418 10012KT 9999 FEW030 TX28/0412Z TN20/0405Z"
    },
    {
      "icao": "LEBB",
      "alert": "OK",
      "vis_m": 9999,
      "fzfg": false,
      "metar_trigger": false,
      "taf_trigger": false,
      "metar": "METAR LEBB 032000Z 05003KT 010V120 9999 BKN040 21/15 Q1016 NOSIG",
      "taf": "TAF LEBB 031700Z 0318/0418 33008KT 9999 SCT035 TX17/0414Z TN16/0406Z"
    },
    {
      "icao": "LEBL",
      "alert": "OK",
      "vis_m": 9999,
      "fzfg": false,
      "metar_trigger": false,
      "taf_trigger": false,
      "metar": "METAR LEBL 032000Z 23011KT 9999 FEW020 22/18 Q1015 NOSIG",
      "taf": "TAF LEBL 031700Z 0318/0418 21010KT 9999 FEW030 TX25/0412Z TN17/0406Z"
    },
    {
      "icao": "LECH",
      "alert": "OK",
      "vis_m": 9999,
      "fzfg": false,
      "metar_trigger": false,
      "taf_trigger": false,
      "metar": "METAR LECH 032000Z AUTO 19006KT CAVOK 20/16 Q1016",
      "taf": "TAF LECH 031700Z 0318/0418 18010KT 9999 FEW050 TX28/0413Z TN15/0405Z"
    },
    {
      "icao": "LEMD",
      "alert": "OK",
      "vis_m": 9999,
      "fzfg": false,
      "metar_trigger": false,
      "taf_trigger": false,
      "metar": "METAR LEMD 032000Z 32006KT CAVOK 28/08 Q1015 NOSIG",
      "taf": "TAF LEMD 031700Z 0318/0424 VRB04KT CAVOK TX30/0416Z TN15/0405Z"
    },
    {
      "icao": "LEMG",
      "alert": "OK",
      "vis_m": 9999,
      "fzfg": false,
      "metar_trigger": false,
      "taf_trigger": false,
      "metar": "METAR LEMG 032000Z 11007KT CAVOK 23/18 Q1016 NOSIG",
      "taf": "TAF LEMG 031700Z 0318/0418 12010KT 9999 FEW030 TX34/0414Z TN19/0406Z"
    },
    {
      "icao": "LEVC",
      "alert": "OK",
      "vis_m": 9999,
      "fzfg": false,
      "metar_trigger": false,
      "taf_trigger": false,
      "metar": "METAR LEVC 032000Z 06008KT 360V080 CAVOK 23/19 Q1015 NOSIG",
      "taf": "TAF LEVC 031700Z 0318/0418 13012KT 9999 FEW030 TX28/0412Z TN18/0405Z"
    },
    {
      "icao": "LEXJ",
      "alert": "OK",
      "vis_m": 9999,
      "fzfg": false,
      "metar_trigger": false,
      "taf_trigger": false,
      "metar": "METAR LEXJ 032000Z VRB01KT 9999 OVC048 20/15 Q1016",
      "taf": "TAF LEXJ 032000Z 0321/0421 29009KT 9999 BKN035 TX19/0414Z TN16/0405Z"
    },
    {
      "icao": "LEZG",
      "alert": "OK",
      "vis_m": 9999,
      "fzfg": false,
      "metar_trigger": false,
      "taf_trigger": false,
      "metar": "METAR LEZG 032000Z 32004KT CAVOK 25/12 Q1014 NOSIG",
      "taf": "TAF LEZG 031700Z 0318/0418 30010KT CAVOK TX30/0415Z TN15/0405Z"
    },
    {
      "icao": "LEZL",
      "alert": "OK",
      "vis_m": 9999,
      "fzfg": false,
      "metar_trigger": false,
      "taf_trigger": false,
      "metar": "METAR LEZL 032000Z 23008KT 190V250 CAVOK 28/13 Q1015 NOSIG",
      "taf": "TAF LEZL 032000Z 0321/0421 22010KT CAVOK TX35/0415Z TN18/0407Z"
    },
    {
      "icao": "LFBD",
      "alert": "OK",
      "vis_m": 9999,
      "fzfg": false,
      "metar_trigger": false,
      "taf_trigger": false,
      "metar": "METAR LFBD 032000Z AUTO 22006KT 9999 SCT026 BKN032 BKN039 18/15 Q1015 NOSIG",
      "taf": "TAF LFBD 031700Z 0318/0424 24010KT 9999 BKN020 TX20/0414Z TN12/0424Z"
    },
    {
      "icao": "LFLL",
      "alert": "OK",
      "vis_m": 9999,
      "fzfg": false,
      "metar_trigger": false,
      "taf_trigger": false,
      "metar": "METAR LFLL 032000Z 14003KT CAVOK 20/09 Q1014 NOSIG",
      "taf": "TAF LFLL 031700Z 0318/0424 12005KT CAVOK"
    },
    {
      "icao": "LFLS",
      "alert": "OK",
      "vis_m": 9999,
      "fzfg": false,
      "metar_trigger": false,
      "taf_trigger": false,
      "metar": "METAR LFLS 032000Z AUTO 09005KT CAVOK 14/10 Q1015",
      "taf": ""
    },
    {
      "icao": "LFMN",
      "alert": "OK",
      "vis_m": 9999,
      "fzfg": false,
      "metar_trigger": false,
      "taf_trigger": false,
      "metar": "METAR LFMN 032000Z 07007KT CAVOK 23/15 Q1009 NOSIG",
      "taf": "TAF LFMN 032000Z 0321/0503 07008KT CAVOK"
    },
    {
      "icao": "LFOB",
      "alert": "OK",
      "vis_m": 9999,
      "fzfg": false,
      "metar_trigger": false,
      "taf_trigger": false,
      "metar": "METAR LFOB 032000Z AUTO 22013KT 190V250 9999 SCT014/// BKN066/// OVC180/// ///CB 18/15 Q1004 TEMPO VRB25G35KT 1200 SHRA BKN009 BKN012CB BKN020",
      "taf": "TAF LFOB 031700Z 0318/0418 20012KT 9999 BKN020 OVC030"
    },
    {
      "icao": "LFPO",
      "alert": "OK",
      "vis_m": 9999,
      "fzfg": false,
      "metar_trigger": false,
      "taf_trigger": false,
      "metar": "METAR LFPO 032000Z AUTO 20010KT 170V240 9999 -RA FEW006 BKN011 BKN018 17/16 Q1007 TEMPO 26015G30KT 4000 -RA",
      "taf": "TAF LFPO 031700Z 0318/0424 26015KT 9999 BKN030"
    },
    {
      "icao": "LFSB",
      "alert": "OK",
      "vis_m": 9999,
      "fzfg": false,
      "metar_trigger": false,
      "taf_trigger": false,
      "metar": "METAR LFSB 032000Z AUTO VRB02KT CAVOK 14/12 Q1013 NOSIG",
      "taf": "TAF LFSB 031700Z 0318/0418 25010KT CAVOK"
    },
    {
      "icao": "LGAV",
      "alert": "OK",
      "vis_m": 9999,
      "fzfg": false,
      "metar_trigger": false,
      "taf_trigger": false,
      "metar": "METAR LGAV 032020Z 20008KT 9999 FEW030 23/13 Q1012 NOSIG",
      "taf": "TAF LGAV 031700Z 0318/0418 VRB05KT 9999 FEW025"
    },
    {
      "icao": "LGTS",
      "alert": "OK",
      "vis_m": 9999,
      "fzfg": false,
      "metar_trigger": false,
      "taf_trigger": false,
      "metar": "METAR LGTS 032020Z 11004KT 9999 FEW020 22/18 Q1009 NOSIG",
      "taf": "TAF LGTS 031700Z 0318/0418 17013KT 9999 FEW025"
    },
    {
      "icao": "LHBP",
      "alert": "OK",
      "vis_m": 9999,
      "fzfg": false,
      "metar_trigger": false,
      "taf_trigger": false,
      "metar": "METAR LHBP 032000Z 32007KT CAVOK 17/15 Q1008 NOSIG",
      "taf": "TAF LHBP 031715Z 0318/0418 31007KT CAVOK"
    },
    {
      "icao": "LHDC",
      "alert": "OK",
      "vis_m": 9999,
      "fzfg": false,
      "metar_trigger": false,
      "taf_trigger": false,
      "metar": "METAR LHDC 031945Z AUTO 02006KT CAVOK 22/15 Q1007",
      "taf": "TAF LHDC 031415Z 0315/0324 17009KT CAVOK"
    },
    {
      "icao": "LIBD",
      "alert": "OK",
      "vis_m": 9999,
      "fzfg": false,
      "metar_trigger": false,
      "taf_trigger": false,
      "metar": "METAR LIBD 032020Z 33004KT 290V010 9999 FEW045 22/18 Q1009",
      "taf": "TAF LIBD 031700Z 0318/0418 35010KT 9999 BKN025"
    },
    {
      "icao": "LIBG",
      "alert": "OK",
      "vis_m": 9999,
      "fzfg": false,
      "metar_trigger": false,
      "taf_trigger": false,
      "metar": "METAR LIBG 032020Z AUTO VRB01KT 9999 NCD 21/19 Q1008",
      "taf": "TAF LIBG 031700Z 0318/0418 19012KT 9999 FEW050"
    },
    {
      "icao": "LIBP",
      "alert": "OK",
      "vis_m": 9999,
      "fzfg": false,
      "metar_trigger": false,
      "taf_trigger": false,
      "metar": "METAR LIBP 032020Z AUTO 24003KT 9999 NCD 16/16 Q1011",
      "taf": "TAF LIBP 031700Z 0318/0418 06010KT 9999 SCT050"
    },
    {
      "icao": "LIBR",
      "alert": "OK",
      "vis_m": 9999,
      "fzfg": false,
      "metar_trigger": false,
      "taf_trigger": false,
      "metar": "METAR LIBR 032020Z 22005KT 160V250 CAVOK 23/18 Q1008",
      "taf": "TAF LIBR 031700Z 0318/0418 20015KT 9999 FEW030"
    },
    {
      "icao": "LICA",
      "alert": "OK",
      "vis_m": 9999,
      "fzfg": false,
      "metar_trigger": false,
      "taf_trigger": false,
      "metar": "METAR LICA 032020Z AUTO 26008KT 9999 FEW045/// 24/21 Q1011",
      "taf": "TAF LICA 031700Z 0318/0418 27012KT 9999 FEW020"
    },
    {
      "icao": "LICC",
      "alert": "OK",
      "vis_m": 9999,
      "fzfg": false,
      "metar_trigger": false,
      "taf_trigger": false,
      "metar": "METAR LICC 032020Z 26008KT CAVOK 25/12 Q1011",
      "taf": "TAF LICC 031700Z 0318/0418 27015KT 9999 SCT040"
    },
    {
      "icao": "LICJ",
      "alert": "OK",
      "vis_m": 9999,
      "fzfg": false,
      "metar_trigger": false,
      "taf_trigger": false,
      "metar": "METAR LICJ 032020Z 23005KT 200V260 CAVOK 23/20 Q1012",
      "taf": "TAF LICJ 031700Z 0318/0418 27016KT CAVOK"
    },
    {
      "icao": "LIMC",
      "alert": "OK",
      "vis_m": 9999,
      "fzfg": false,
      "metar_trigger": false,
      "taf_trigger": false,
      "metar": "METAR LIMC 032020Z VRB02KT CAVOK 19/13 Q1010 NOSIG",
      "taf": "TAF LIMC 031700Z 0318/0424 VRB05KT 9999 FEW020"
    },
    {
      "icao": "LIME",
      "alert": "OK",
      "vis_m": 9999,
      "fzfg": false,
      "metar_trigger": false,
      "taf_trigger": false,
      "metar": "METAR LIME 032020Z 05007KT 030V110 CAVOK 20/10 Q1010 NOSIG",
      "taf": "TAF LIME 031700Z 0318/0418 12008KT CAVOK"
    },
    {
      "icao": "LIMF",
      "alert": "OK",
      "vis_m": 9999,
      "fzfg": false,
      "metar_trigger": false,
      "taf_trigger": false,
      "metar": "METAR LIMF 032020Z 34005KT 310V010 CAVOK 21/13 Q1010",
      "taf": "TAF LIMF 031700Z 0318/0418 VRB05KT CAVOK"
    },
    {
      "icao": "LIMJ",
      "alert": "OK",
      "vis_m": 9999,
      "fzfg": false,
      "metar_trigger": false,
      "taf_trigger": false,
      "metar": "METAR LIMJ 032020Z AUTO 02004KT 9999 NCD 21/14 Q1010",
      "taf": "TAF LIMJ 031700Z 0318/0418 VRB05KT CAVOK"
    },
    {
      "icao": "LIPE",
      "alert": "OK",
      "vis_m": 9999,
      "fzfg": false,
      "metar_trigger": false,
      "taf_trigger": false,
      "metar": "METAR LIPE 032020Z 12012KT CAVOK 20/14 Q1010",
      "taf": ""
    },
    {
      "icao": "LIPH",
      "alert": "OK",
      "vis_m": 9999,
      "fzfg": false,
      "metar_trigger": false,
      "taf_trigger": false,
      "metar": "METAR LIPH 032020Z 24002KT CAVOK 19/14 Q1011",
      "taf": "TAF LIPH 031700Z 0318/0418 VRB05KT 9999 FEW030"
    },
    {
      "icao": "LIPQ",
      "alert": "OK",
      "vis_m": 9999,
      "fzfg": false,
      "metar_trigger": false,
      "taf_trigger": false,
      "metar": "METAR LIPQ 032020Z AUTO 02003KT 9999 NCD 15/15 Q1011",
      "taf": "TAF LIPQ 031700Z 0318/0418 03008KT 9999 BKN040"
    },
    {
      "icao": "LIPR",
      "alert": "OK",
      "vis_m": 9999,
      "fzfg": false,
      "metar_trigger": false,
      "taf_trigger": false,
      "metar": "METAR LIPR 032020Z 20004KT CAVOK 18/14 Q1011",
      "taf": "TAF LIPR 031700Z 0318/0418 32012KT 9999 FEW040"
    },
    {
      "icao": "LIPX",
      "alert": "OK",
      "vis_m": 9999,
      "fzfg": false,
      "metar_trigger": false,
      "taf_trigger": false,
      "metar": "METAR LIPX 032020Z 08005KT 9999 FEW060 20/14 Q1011",
      "taf": "TAF LIPX 031700Z 0318/0418 10010KT CAVOK"
    },
    {
      "icao": "LIPY",
      "alert": "OK",
      "vis_m": 9999,
      "fzfg": false,
      "metar_trigger": false,
      "taf_trigger": false,
      "metar": "METAR LIPY 032020Z AUTO 30003KT 9999 FEW018/// 17/15 Q1011",
      "taf": "TAF LIPY 031700Z 0318/0418 33012KT 9999 FEW060"
    },
    {
      "icao": "LIPZ",
      "alert": "OK",
      "vis_m": 9999,
      "fzfg": false,
      "metar_trigger": false,
      "taf_trigger": false,
      "metar": "METAR LIPZ 032020Z 12003KT CAVOK 19/14 Q1011 NOSIG",
      "taf": "TAF LIPZ 031700Z 0318/0424 11010KT 9999 SCT025"
    },
    {
      "icao": "LIRF",
      "alert": "OK",
      "vis_m": 9999,
      "fzfg": false,
      "metar_trigger": false,
      "taf_trigger": false,
      "metar": "METAR LIRF 032020Z 26005KT 220V290 CAVOK 21/18 Q1010 NOSIG",
      "taf": "TAF LIRF 031700Z 0318/0424 29014KT CAVOK"
    },
    {
      "icao": "LIRN",
      "alert": "OK",
      "vis_m": 8000,
      "fzfg": false,
      "metar_trigger": false,
      "taf_trigger": false,
      "metar": "METAR LIRN 032020Z 26003KT 8000 SCT030 22/17 Q1011 NOSIG",
      "taf": "TAF LIRN 031700Z 0318/0418 VRB05KT 9999 SCT040"
    },
    {
      "icao": "LIRP",
      "alert": "OK",
      "vis_m": 9999,
      "fzfg": false,
      "metar_trigger": false,
      "taf_trigger": false,
      "metar": "METAR LIRP 032015Z 26002KT CAVOK 20/17 Q1011 NOSIG",
      "taf": "TAF LIRP 031700Z 0318/0418 27010KT 9999 SCT030"
    },
    {
      "icao": "LIRZ",
      "alert": "OK",
      "vis_m": 9999,
      "fzfg": false,
      "metar_trigger": false,
      "taf_trigger": false,
      "metar": "METAR LIRZ 032020Z AUTO 36004KT 9999 NCD 18/15 Q1011",
      "taf": ""
    },
    {
      "icao": "LJLJ",
      "alert": "OK",
      "vis_m": 9999,
      "fzfg": false,
      "metar_trigger": false,
      "taf_trigger": false,
      "metar": "METAR LJLJ 032000Z VRB01KT 9999 FEW027 13/12 Q1012 NOSIG",
      "taf": "TAF LJLJ 031700Z 0318/0418 30003KT 9999 FEW045 SCT085"
    },
    {
      "icao": "LKMT",
      "alert": "OK",
      "vis_m": 9999,
      "fzfg": false,
      "metar_trigger": false,
      "taf_trigger": false,
      "metar": "METAR LKMT 032000Z 09003KT 9999 BKN019 OVC036 14/13 Q1011 NOSIG",
      "taf": ""
    },
    {
      "icao": "LKPR",
      "alert": "OK",
      "vis_m": 9999,
      "fzfg": false,
      "metar_trigger": false,
      "taf_trigger": false,
      "metar": "METAR LKPR 032000Z 25007KT CAVOK 13/10 Q1011 NOSIG",
      "taf": "TAF LKPR 032000Z 0321/0503 24008KT CAVOK"
    },
    {
      "icao": "LLBG",
      "alert": "OK",
      "vis_m": 9999,
      "fzfg": false,
      "metar_trigger": false,
      "taf_trigger": false,
      "metar": "METAR LLBG 032020Z 36006KT CAVOK 24/14 Q1014 NOSIG",
      "taf": "TAF LLBG 031705Z 0318/0418 36006KT CAVOK TX33/0411Z TN20/0403Z"
    },
    {
      "icao": "LMML",
      "alert": "OK",
      "vis_m": 9999,
      "fzfg": false,
      "metar_trigger": false,
      "taf_trigger": false,
      "metar": "METAR LMML 032015Z 24008KT CAVOK 23/21 Q1013 NOSIG",
      "taf": "TAF LMML 031700Z 0318/0418 20010KT CAVOK"
    },
    {
      "icao": "LOWW",
      "alert": "OK",
      "vis_m": 9999,
      "fzfg": false,
      "metar_trigger": false,
      "taf_trigger": false,
      "metar": "METAR LOWW 032020Z 31012KT CAVOK 16/12 Q1011 NOSIG",
      "taf": "TAF LOWW 032015Z 0321/0503 30008KT CAVOK TX26/0414Z TN14/0402Z"
    },
    {
      "icao": "LPFR",
      "alert": "OK",
      "vis_m": 9999,
      "fzfg": false,
      "metar_trigger": false,
      "taf_trigger": false,
      "metar": "METAR LPFR 032000Z 31014KT CAVOK 26/16 Q1017",
      "taf": "TAF LPFR 032002Z 0320/0418 31015KT CAVOK"
    },
    {
      "icao": "LPMA",
      "alert": "OK",
      "vis_m": 9999,
      "fzfg": false,
      "metar_trigger": false,
      "taf_trigger": false,
      "metar": "METAR LPMA 032000Z 01010KT 320V080 9999 FEW015 22/14 Q1024",
      "taf": "TAF LPMA 032002Z 0320/0418 36012KT 9999 SCT015"
    },
    {
      "icao": "LPPR",
      "alert": "OK",
      "vis_m": 8000,
      "fzfg": false,
      "metar_trigger": false,
      "taf_trigger": false,
      "metar": "METAR LPPR 032000Z 24004KT 200V270 8000 -DZ BKN002 17/17 Q1020 REDZ",
      "taf": "TAF LPPR 031937Z 0319/0418 26007KT 6000 SCT004 BKN008"
    },
    {
      "icao": "LPPS",
      "alert": "OK",
      "vis_m": null,
      "fzfg": false,
      "metar_trigger": false,
      "taf_trigger": false,
      "metar": "",
      "taf": ""
    },
    {
      "icao": "LPPT",
      "alert": "OK",
      "vis_m": null,
      "fzfg": false,
      "metar_trigger": false,
      "taf_trigger": false,
      "metar": "",
      "taf": ""
    },
    {
      "icao": "LQBK",
      "alert": "OK",
      "vis_m": 9999,
      "fzfg": false,
      "metar_trigger": false,
      "taf_trigger": false,
      "metar": "METAR LQBK 032000Z 29010KT 260V320 9999 SCT015 BKN040 15/11 Q1011 NOSIG",
      "taf": "TAF LQBK 031700Z 0318/0418 29005KT 9999 SCT045 TX23/0414Z TN10/0404Z"
    },
    {
      "icao": "LQSA",
      "alert": "OK",
      "vis_m": 9999,
      "fzfg": false,
      "metar_trigger": false,
      "taf_trigger": false,
      "metar": "METAR LQSA 032000Z VRB02KT 9999 BKN065 13/12 Q1011 NOSIG",
      "taf": "TAF LQSA 031700Z 0318/0418 16006KT 9999 BKN055 TX22/0413Z TN11/0404Z"
    },
    {
      "icao": "LQTZ",
      "alert": "OK",
      "vis_m": 9999,
      "fzfg": false,
      "metar_trigger": false,
      "taf_trigger": false,
      "metar": "METAR LQTZ 032000Z VRB02KT 9999 SCT025 BKN065 15/15 Q1010",
      "taf": "TAF LQTZ 031700Z 0318/0418 33005KT 9999 SCT035 BKN050 TX24/0414Z TN12/0403Z"
    },
    {
      "icao": "LRBC",
      "alert": "OK",
      "vis_m": 9999,
      "fzfg": false,
      "metar_trigger": false,
      "taf_trigger": false,
      "metar": "METAR LRBC 032000Z 00000KT CAVOK 17/16 Q1011",
      "taf": "TAF LRBC 031700Z 0318/0403 VRB04KT CAVOK"
    },
    {
      "icao": "LRBS",
      "alert": "OK",
      "vis_m": 9999,
      "fzfg": false,
      "metar_trigger": false,
      "taf_trigger": false,
      "metar": "METAR LRBS 032000Z 06003KT CAVOK 19/13 Q1009 NOSIG",
      "taf": "TAF LRBS 031700Z 0318/0418 VRB04KT CAVOK"
    },
    {
      "icao": "LRBV",
      "alert": "OK",
      "vis_m": 9999,
      "fzfg": false,
      "metar_trigger": false,
      "taf_trigger": false,
      "metar": "METAR LRBV 032000Z 20004KT 160V260 CAVOK 16/13 Q1011",
      "taf": "TAF LRBV 031700Z 0318/0403 VRB04KT 9999 SCT045"
    },
    {
      "icao": "LRCL",
      "alert": "OK",
      "vis_m": 9999,
      "fzfg": false,
      "metar_trigger": false,
      "taf_trigger": false,
      "metar": "METAR LRCL 032000Z 00000KT CAVOK 15/13 Q1009",
      "taf": "TAF LRCL 031700Z 0318/0403 VRB04KT CAVOK"
    },
    {
      "icao": "LRCV",
      "alert": "OK",
      "vis_m": 9999,
      "fzfg": false,
      "metar_trigger": false,
      "taf_trigger": false,
      "metar": "METAR LRCV 032000Z 11007KT CAVOK 18/16 Q1008",
      "taf": "TAF LRCV 031700Z 0318/0403 10007KT CAVOK"
    },
    {
      "icao": "LRIA",
      "alert": "OK",
      "vis_m": 9999,
      "fzfg": false,
      "metar_trigger": false,
      "taf_trigger": false,
      "metar": "METAR LRIA 032000Z 10009KT CAVOK 17/15 Q1011",
      "taf": "TAF LRIA 031700Z 0318/0403 10008KT 9999 SCT015 SCT030"
    },
    {
      "icao": "LROP",
      "alert": "OK",
      "vis_m": 9999,
      "fzfg": false,
      "metar_trigger": false,
      "taf_trigger": false,
      "metar": "METAR LROP 032000Z 08003KT CAVOK 19/16 Q1009 NOSIG",
      "taf": "TAF LROP 031700Z 0318/0418 VRB04KT CAVOK"
    },
    {
      "icao": "LRSB",
      "alert": "OK",
      "vis_m": 9999,
      "fzfg": false,
      "metar_trigger": false,
      "taf_trigger": false,
      "metar": "METAR LRSB 032000Z 13003KT 110V170 CAVOK 19/12 Q1009",
      "taf": "TAF LRSB 031700Z 0318/0418 VRB04KT CAVOK"
    },
    {
      "icao": "LRSM",
      "alert": "OK",
      "vis_m": 9999,
      "fzfg": false,
      "metar_trigger": false,
      "taf_trigger": false,
      "metar": "METAR LRSM 032000Z AUTO 11004KT 9999 NCD 18/14 Q1008",
      "taf": "TAF LRSM 031700Z 0318/0403 11007KT CAVOK"
    },
    {
      "icao": "LRSV",
      "alert": "OK",
      "vis_m": 9999,
      "fzfg": false,
      "metar_trigger": false,
      "taf_trigger": false,
      "metar": "METAR LRSV 032000Z 08004KT CAVOK 17/15 Q1011",
      "taf": "TAF LRSV 031700Z 0318/0403 09006KT CAVOK"
    },
    {
      "icao": "LRTM",
      "alert": "OK",
      "vis_m": 9999,
      "fzfg": false,
      "metar_trigger": false,
      "taf_trigger": false,
      "metar": "METAR LRTM 032000Z 07003KT CAVOK 15/14 Q1009",
      "taf": "TAF LRTM 031700Z 0318/0403 VRB04KT CAVOK"
    },
    {
      "icao": "LRTR",
      "alert": "OK",
      "vis_m": 9999,
      "fzfg": false,
      "metar_trigger": false,
      "taf_trigger": false,
      "metar": "METAR LRTR 032000Z 16006KT 9999 FEW060CB 18/18 Q1008 NOSIG",
      "taf": "TAF LRTR 031700Z 0318/0418 26010KT 9999 SCT015 SCT040CB"
    },
    {
      "icao": "LTAC",
      "alert": "OK",
      "vis_m": 9999,
      "fzfg": false,
      "metar_trigger": false,
      "taf_trigger": false,
      "metar": "METAR LTAC 032020Z 02005KT 350V070 9999 SCT040 16/09 Q1017 NOSIG RMK RWY21C 36004KT 320V050 RWY03L 02006KT 340V080 RWY21R 34004KT RWY03R 01004KT 330V040 RWY21L 09007KT",
      "taf": "TAF LTAC 031640Z 0318/0418 VRB02KT 9999 SCT040"
    },
    {
      "icao": "LTFM",
      "alert": "OK",
      "vis_m": 9999,
      "fzfg": false,
      "metar_trigger": false,
      "taf_trigger": false,
      "metar": "METAR LTFM 032020Z 20007KT CAVOK 22/14 Q1011 NOSIG RMK RWY17L 20009KT RWY34L 20004KT RWY16R 18006KT RWY36 22008KT RWY18 22010KT",
      "taf": "TAF LTFM 031640Z 0318/0424 07009KT CAVOK"
    },
    {
      "icao": "LUKK",
      "alert": "OK",
      "vis_m": 9999,
      "fzfg": false,
      "metar_trigger": false,
      "taf_trigger": false,
      "metar": "METAR LUKK 032000Z 08004KT 9999 BKN008 16/15 Q1012 NOSIG",
      "taf": "TAF LUKK 031714Z 0318/0418 VRB06KT 9999 SCT015"
    },
    {
      "icao": "LWOH",
      "alert": "OK",
      "vis_m": null,
      "fzfg": false,
      "metar_trigger": false,
      "taf_trigger": false,
      "metar": "",
      "taf": "TAF LWOH 031730Z 0318/0418 VRB03KT 9999 SCT040"
    },
    {
      "icao": "LWSK",
      "alert": "OK",
      "vis_m": 9999,
      "fzfg": false,
      "metar_trigger": false,
      "taf_trigger": false,
      "metar": "METAR LWSK 032020Z 03005KT 9999 SCT050 21/15 Q1009 NOSIG",
      "taf": "TAF LWSK 031730Z 0318/0418 VRB02KT 9999 FEW050"
    },
    {
      "icao": "LYBE",
      "alert": "OK",
      "vis_m": 9999,
      "fzfg": false,
      "metar_trigger": false,
      "taf_trigger": false,
      "metar": "METAR LYBE 032000Z 26011KT 9999 SCT008 17/16 Q1009 NOSIG",
      "taf": "TAF LYBE 031700Z 0318/0418 27012KT 9999 BKN045 TX24/0413Z TN16/0403Z"
    },
    {
      "icao": "LYNI",
      "alert": "OK",
      "vis_m": 9999,
      "fzfg": false,
      "metar_trigger": false,
      "taf_trigger": false,
      "metar": "METAR LYNI 032000Z VRB01KT 9999 FEW040TCU SCT050 20/17 Q1008 RETS NOSIG",
      "taf": "TAF LYNI 031700Z 0318/0418 20010KT 9999 SCT050 TX23/0318Z TN15/0405Z"
    },
    {
      "icao": "LYPG",
      "alert": "OK",
      "vis_m": 9999,
      "fzfg": false,
      "metar_trigger": false,
      "taf_trigger": false,
      "metar": "METAR LYPG 032000Z 22010KT 9999 TSRA FEW027CB BKN034 15/15 Q1012 TEMPO 4000",
      "taf": "TAF LYPG 031700Z 0318/0418 35007KT 9999 SCT030 BKN080 TX29/0413Z TN16/0404Z"
    },
    {
      "icao": "LZIB",
      "alert": "OK",
      "vis_m": 9999,
      "fzfg": false,
      "metar_trigger": false,
      "taf_trigger": false,
      "metar": "METAR LZIB 032000Z 32010KT 9999 -RA FEW020 16/11 Q1011 NOSIG",
      "taf": "TAF LZIB 031715Z 0318/0418 31009KT 9999 FEW015"
    },
    {
      "icao": "LZKZ",
      "alert": "OK",
      "vis_m": 9999,
      "fzfg": false,
      "metar_trigger": false,
      "taf_trigger": false,
      "metar": "METAR LZKZ 032000Z 36006KT CAVOK 19/15 Q1008 NOSIG",
      "taf": "TAF LZKZ 031715Z 0318/0418 02005KT 9999 SCT045"
    },
    {
      "icao": "LZTT",
      "alert": "OK",
      "vis_m": 9999,
      "fzfg": false,
      "metar_trigger": false,
      "taf_trigger": false,
      "metar": "METAR LZTT 032000Z 23007KT 9999 -RA FEW016 SCT033 BKN060 15/13 Q1011",
      "taf": "TAF LZTT 031715Z 0318/0418 24004KT 9999 FEW040 BKN050"
    },
    {
      "icao": "OEJN",
      "alert": "OK",
      "vis_m": 9999,
      "fzfg": false,
      "metar_trigger": false,
      "taf_trigger": false,
      "metar": "METAR OEJN 032000Z 32008KT CAVOK 30/22 Q1007 NOSIG",
      "taf": "TAF OEJN 031700Z 0318/0424 36005KT 7000 NSC"
    },
    {
      "icao": "OEMA",
      "alert": "OK",
      "vis_m": 9999,
      "fzfg": false,
      "metar_trigger": false,
      "taf_trigger": false,
      "metar": "METAR OEMA 032000Z 30007KT CAVOK 38/M04 Q1013 NOSIG",
      "taf": "TAF OEMA 031700Z 0318/0424 28010KT CAVOK"
    },
    {
      "icao": "OJAI",
      "alert": "OK",
      "vis_m": 5000,
      "fzfg": false,
      "metar_trigger": false,
      "taf_trigger": false,
      "metar": "METAR OJAI 032000Z 20004KT 5000 HZ NSC 20/02 Q1018 NOSIG",
      "taf": "TAF OJAI 031700Z 0318/0424 29012KT 5000 HZ NSC"
    },
    {
      "icao": "OMAA",
      "alert": "OK",
      "vis_m": 9999,
      "fzfg": false,
      "metar_trigger": false,
      "taf_trigger": false,
      "metar": "METAR OMAA 032000Z 24006KT 210V270 CAVOK 33/20 Q1002 NOSIG",
      "taf": "TAF OMAA 031700Z 0318/0500 24006KT 8000 NSC"
    },
    {
      "icao": "OMDB",
      "alert": "OK",
      "vis_m": 9999,
      "fzfg": false,
      "metar_trigger": false,
      "taf_trigger": false,
      "metar": "METAR OMDB 032000Z 18007KT CAVOK 32/23 Q1001 NOSIG",
      "taf": "TAF OMDB 031700Z 0318/0500 19007KT 8000 NSC"
    },
    {
      "icao": "UAAA",
      "alert": "OK",
      "vis_m": 9999,
      "fzfg": false,
      "metar_trigger": false,
      "taf_trigger": false,
      "metar": "METAR UAAA 032000Z 19003MPS 160V220 9999 BKN100 19/11 Q1013 NOSIG",
      "taf": "TAF UAAA 031701Z 0318/0418 18003MPS 9999 SCT100 TX30/0409Z TN15/0401Z"
    },
    {
      "icao": "UBBB",
      "alert": "OK",
      "vis_m": 9999,
      "fzfg": false,
      "metar_trigger": false,
      "taf_trigger": false,
      "metar": "METAR UBBB 032000Z 16006KT CAVOK 18/13 Q1016 NOSIG",
      "taf": "TAF UBBB 031702Z 0318/0418 18010KT CAVOK TX23/0410Z TN15/0400Z"
    },
    {
      "icao": "UDSG",
      "alert": "OK",
      "vis_m": 9999,
      "fzfg": false,
      "metar_trigger": false,
      "taf_trigger": false,
      "metar": "METAR UDSG 032000Z 10007KT 9999 -SHRA BKN049CB 12/09 Q1021 NOSIG",
      "taf": "TAF UDSG 031658Z 0318/0418 06006KT 9999 SCT040"
    },
    {
      "icao": "UDYZ",
      "alert": "OK",
      "vis_m": 9999,
      "fzfg": false,
      "metar_trigger": false,
      "taf_trigger": false,
      "metar": "METAR UDYZ 032000Z 03005KT 9999 VCTS SCT043CB 19/09 Q1015 NOSIG",
      "taf": "TAF UDYZ 031700Z 0318/0418 06006KT 9999 SCT040"
    },
    {
      "icao": "UGKO",
      "alert": "OK",
      "vis_m": 9999,
      "fzfg": false,
      "metar_trigger": false,
      "taf_trigger": false,
      "metar": "METAR UGKO 032000Z VRB02KT CAVOK 15/11 Q1015 NOSIG",
      "taf": "TAF UGKO 031700Z 0318/0418 09007KT CAVOK TX27/0411Z TN14/0402Z"
    }
  ]
}