{
  "ts_utc": "2026-03-30T03:33:44Z",
  "threshold_m": 150,
  "source": "stations_override.txt (ICAO list) + aviationweather.gov (METAR/TAF raw)",
  "station_count": 159,
  "stations": [
    {
      "icao": "BIKF",
      "alert": "OK",
      "vis_m": 9999,
      "fzfg": false,
      "metar_trigger": false,
      "taf_trigger": false,
      "metar": "METAR BIKF 300300Z 22009KT 9999 -DZ SCT010 BKN021 03/02 Q0997",
      "taf": "TAF BIKF 300151Z 3003/3103 26008KT 9999 -SHRA FEW015 BKN030 TX04/3013Z TN00/3005Z"
    },
    {
      "icao": "BKPR",
      "alert": "OK",
      "vis_m": 9999,
      "fzfg": false,
      "metar_trigger": false,
      "taf_trigger": false,
      "metar": "METAR BKPR 300330Z 34007KT 9999 BKN040 05/01 Q1013 NOSIG",
      "taf": "TAF BKPR 292330Z 3000/3024 34008KT 9999 BKN040"
    },
    {
      "icao": "EBCI",
      "alert": "OK",
      "vis_m": 9999,
      "fzfg": false,
      "metar_trigger": false,
      "taf_trigger": false,
      "metar": "METAR EBCI 300320Z 27011KT 240V300 9999 FEW018 07/05 Q1018 BECMG 29013KT",
      "taf": "TAF EBCI 292304Z 3000/3106 23015G27KT 9999 SCT006 BKN008"
    },
    {
      "icao": "EDDB",
      "alert": "OK",
      "vis_m": 9999,
      "fzfg": false,
      "metar_trigger": false,
      "taf_trigger": false,
      "metar": "METAR EDDB 300320Z AUTO 19011KT 9999 -RA FEW034 BKN043 05/01 Q1012 TEMPO 22015G25KT",
      "taf": "TAF EDDB 292300Z 3000/3024 20011KT 9999 SCT040"
    },
    {
      "icao": "EDDH",
      "alert": "OK",
      "vis_m": 9999,
      "fzfg": false,
      "metar_trigger": false,
      "taf_trigger": false,
      "metar": "METAR EDDH 300320Z AUTO 23009KT 9999 -SHRA SCT008 BKN023 OVC033 SCT///TCU 05/04 Q1006 RESHRA TEMPO 22015G25KT NSW BKN014",
      "taf": ""
    },
    {
      "icao": "EDDK",
      "alert": "OK",
      "vis_m": 9999,
      "fzfg": false,
      "metar_trigger": false,
      "taf_trigger": false,
      "metar": "METAR EDDK 300320Z AUTO 31026G37KT 9999 FEW012 BKN022 BKN043 06/03 Q1014 RESHRA BECMG 30012KT",
      "taf": "TAF EDDK 292300Z 3000/3106 23010KT 9999 BKN025"
    },
    {
      "icao": "EDDN",
      "alert": "OK",
      "vis_m": 9999,
      "fzfg": false,
      "metar_trigger": false,
      "taf_trigger": false,
      "metar": "METAR EDDN 300320Z AUTO 21009KT 9999 FEW040 04/M02 Q1018",
      "taf": "TAF EDDN 292300Z 3000/3024 17007KT 9999 SCT030"
    },
    {
      "icao": "EDDS",
      "alert": "OK",
      "vis_m": 9999,
      "fzfg": false,
      "metar_trigger": false,
      "taf_trigger": false,
      "metar": "METAR EDDS 300320Z AUTO 20006KT 150V250 9999 -DZ BKN030 BKN040 04/M02 Q1019",
      "taf": "TAF EDDS 292300Z 3000/3024 20005KT 9999 BKN020"
    },
    {
      "icao": "EDFH",
      "alert": "OK",
      "vis_m": 9999,
      "fzfg": false,
      "metar_trigger": false,
      "taf_trigger": false,
      "metar": "METAR EDFH 300320Z 24014KT 210V280 9999 -RA BKN004 03/02 Q1015",
      "taf": "TAF EDFH 292300Z 3000/3024 24015G25KT 9999 BKN015"
    },
    {
      "icao": "EDJA",
      "alert": "OK",
      "vis_m": 9999,
      "fzfg": false,
      "metar_trigger": false,
      "taf_trigger": false,
      "metar": "METAR EDJA 300320Z AUTO 22009KT 9999 // OVC088/// 01/M01 Q1020",
      "taf": "TAF EDJA 300200Z 3003/3012 22010KT CAVOK"
    },
    {
      "icao": "EDLW",
      "alert": "OK",
      "vis_m": 9999,
      "fzfg": false,
      "metar_trigger": false,
      "taf_trigger": false,
      "metar": "METAR EDLW 300320Z 27005KT 230V300 9999 -SNRA OVC006 02/01 Q1012",
      "taf": "TAF EDLW 300320Z 3004/3024 29011KT 9999 BKN007"
    },
    {
      "icao": "EDNY",
      "alert": "OK",
      "vis_m": 9999,
      "fzfg": false,
      "metar_trigger": false,
      "taf_trigger": false,
      "metar": "METAR EDNY 300320Z AUTO 24006KT 9999 // OVC093/// 03/00 Q1022",
      "taf": "TAF EDNY 300200Z 3003/3012 23005KT CAVOK"
    },
    {
      "icao": "EDSB",
      "alert": "OK",
      "vis_m": 9999,
      "fzfg": false,
      "metar_trigger": false,
      "taf_trigger": false,
      "metar": "METAR EDSB 300320Z 19015KT 9999 -RA BKN043 BKN050 06/M00 Q1021",
      "taf": "TAF EDSB 292300Z 3000/3024 21012KT 9999 BKN020"
    },
    {
      "icao": "EETN",
      "alert": "OK",
      "vis_m": 700,
      "fzfg": true,
      "metar_trigger": false,
      "taf_trigger": false,
      "metar": "METAR EETN 300320Z 18006KT 0700 R26/1700D FZFG VV002 M01/M01 Q1013",
      "taf": "TAF EETN 292330Z 3000/3024 19006KT 9999 OVC005"
    },
    {
      "icao": "EFTU",
      "alert": "OK",
      "vis_m": 5000,
      "fzfg": false,
      "metar_trigger": false,
      "taf_trigger": false,
      "metar": "METAR EFTU 300320Z AUTO 18010KT 160V230 5000 OVC002 01/01 Q1010",
      "taf": "TAF EFTU 300237Z 3003/3103 18008KT 9999 BKN003"
    },
    {
      "icao": "EGBB",
      "alert": "OK",
      "vis_m": 9999,
      "fzfg": false,
      "metar_trigger": false,
      "taf_trigger": false,
      "metar": "METAR EGBB 300320Z 29007KT 9999 BKN040 07/01 Q1021",
      "taf": "TAF EGBB 292258Z 3000/3024 29012KT 9999 SCT040"
    },
    {
      "icao": "EGGP",
      "alert": "OK",
      "vis_m": 9999,
      "fzfg": false,
      "metar_trigger": false,
      "taf_trigger": false,
      "metar": "METAR EGGP 300320Z AUTO 28020KT 9999 FEW016/// SCT029/// BKN049/// 07/04 Q1020",
      "taf": "TAF EGGP 292259Z 3000/3024 27018G30KT 9999 SCT030"
    },
    {
      "icao": "EGGW",
      "alert": "OK",
      "vis_m": 9999,
      "fzfg": false,
      "metar_trigger": false,
      "taf_trigger": false,
      "metar": "METAR EGGW 300320Z AUTO 27012KT 9999 OVC049 05/02 Q1020",
      "taf": "TAF EGGW 292253Z 3000/3024 28010KT 9999 FEW035"
    },
    {
      "icao": "EGKK",
      "alert": "OK",
      "vis_m": 9999,
      "fzfg": false,
      "metar_trigger": false,
      "taf_trigger": false,
      "metar": "METAR EGKK 300320Z 25006KT 9999 FEW039 06/05 Q1021",
      "taf": "TAF EGKK 292255Z 3000/3106 24009KT 9999 FEW030"
    },
    {
      "icao": "EGNM",
      "alert": "OK",
      "vis_m": 9999,
      "fzfg": false,
      "metar_trigger": false,
      "taf_trigger": false,
      "metar": "METAR EGNM 300320Z 29014KT 9999 SCT018 04/01 Q1017",
      "taf": "TAF EGNM 292258Z 3000/3024 29015G25KT 9999 SCT030"
    },
    {
      "icao": "EGPD",
      "alert": "OK",
      "vis_m": 9999,
      "fzfg": false,
      "metar_trigger": false,
      "taf_trigger": false,
      "metar": "METAR EGPD 300320Z COR AUTO 26011KT 9999 NCD 04/M01 Q1009 NOSIG",
      "taf": "TAF EGPD 292252Z 3000/3024 28013KT 9999 FEW018"
    },
    {
      "icao": "EGPF",
      "alert": "OK",
      "vis_m": 3400,
      "fzfg": false,
      "metar_trigger": false,
      "taf_trigger": false,
      "metar": "METAR EGPF 300320Z AUTO 28013KT 3400 RA BKN018/// BKN028/// //////TCU 05/03 Q1015",
      "taf": "TAF EGPF 292254Z 3000/3024 27012KT 9999 SCT025"
    },
    {
      "icao": "EHBK",
      "alert": "OK",
      "vis_m": 9999,
      "fzfg": false,
      "metar_trigger": false,
      "taf_trigger": false,
      "metar": "METAR EHBK 300325Z AUTO 27006KT 220V320 9999 NSC 06/04 Q1015",
      "taf": "TAF EHBK 292302Z 3000/3106 23015G25KT 9999 BKN008"
    },
    {
      "icao": "EHEH",
      "alert": "OK",
      "vis_m": 9999,
      "fzfg": false,
      "metar_trigger": false,
      "taf_trigger": false,
      "metar": "METAR EHEH 300325Z AUTO 25005KT 220V280 9999 FEW041 SCT047 04/03 Q1015 BLU",
      "taf": "TAF EHEH 292306Z 3000/3106 23014G28KT 9999 FEW006 SCT008 BKN010"
    },
    {
      "icao": "EKBI",
      "alert": "OK",
      "vis_m": 9000,
      "fzfg": false,
      "metar_trigger": false,
      "taf_trigger": false,
      "metar": "METAR EKBI 300320Z AUTO 26006KT 9000 BKN010/// BKN048/// 03/03 Q1004",
      "taf": "TAF EKBI 300227Z 3003/3103 28010KT 9999 SCT020"
    },
    {
      "icao": "EKCH",
      "alert": "OK",
      "vis_m": 9999,
      "fzfg": false,
      "metar_trigger": false,
      "taf_trigger": false,
      "metar": "METAR EKCH 300320Z 19019KT 9999 FEW012 BKN017 04/03 Q1005 TEMPO 19018G28KT BKN012",
      "taf": "TAF EKCH 300227Z 3003/3103 19018G30KT 9999 BKN012"
    },
    {
      "icao": "ENAL",
      "alert": "OK",
      "vis_m": 9999,
      "fzfg": false,
      "metar_trigger": false,
      "taf_trigger": false,
      "metar": "METAR ENAL 300320Z AUTO 19008KT 9999 FEW027/// SCT040/// 05/01 Q0994",
      "taf": "TAF ENAL 300200Z 3003/3012 19012KT 9999 -SHRA FEW015 BKN025"
    },
    {
      "icao": "ENBR",
      "alert": "OK",
      "vis_m": 9999,
      "fzfg": false,
      "metar_trigger": false,
      "taf_trigger": false,
      "metar": "METAR ENBR 300320Z 13006KT 9999 FEW018 SCT024 BKN028 02/01 Q0998 RMK WIND 1200FT 22011KT",
      "taf": "TAF ENBR 292300Z 3000/3024 16008KT 9999 -SHRA SCT025TCU"
    },
    {
      "icao": "ENGM",
      "alert": "OK",
      "vis_m": 6000,
      "fzfg": false,
      "metar_trigger": false,
      "taf_trigger": false,
      "metar": "METAR ENGM 300320Z 16004KT 6000 -RASN BKN005 01/M00 Q0997",
      "taf": "TAF ENGM 292300Z 3000/3024 16010KT 9000 -RASN SCT003 BKN006"
    },
    {
      "icao": "ENHD",
      "alert": "OK",
      "vis_m": 9999,
      "fzfg": false,
      "metar_trigger": false,
      "taf_trigger": false,
      "metar": "METAR ENHD 300320Z AUTO 26008KT 230V320 9999 SCT019/// BKN025/// BKN035/// 05/03 Q0999",
      "taf": "TAF ENHD 300200Z 3003/3012 27012KT 9999 -SHRA FEW015 SCT025"
    },
    {
      "icao": "ENTC",
      "alert": "OK",
      "vis_m": 9999,
      "fzfg": false,
      "metar_trigger": false,
      "taf_trigger": false,
      "metar": "METAR ENTC 300320Z 04005KT CAVOK M00/M02 Q0998 RMK WIND 2600FT 16020KT",
      "taf": "TAF ENTC 292300Z 3000/3024 VRB03KT 9999 FEW025 SCT035"
    },
    {
      "icao": "ENTO",
      "alert": "OK",
      "vis_m": 9000,
      "fzfg": false,
      "metar_trigger": false,
      "taf_trigger": false,
      "metar": "METAR ENTO 300320Z AUTO 00000KT 9000 // FEW003/// SCT005/// BKN007/// 04/04 Q0996 REDZ RERA",
      "taf": "TAF ENTO 292300Z 3000/3024 19018KT 7000 -RA SCT003 BKN006"
    },
    {
      "icao": "ENVA",
      "alert": "OK",
      "vis_m": 9999,
      "fzfg": false,
      "metar_trigger": false,
      "taf_trigger": false,
      "metar": "METAR ENVA 300320Z 06003KT 020V100 CAVOK 05/M03 Q0994 RMK WIND 670FT 18011KT",
      "taf": "TAF ENVA 292300Z 3000/3024 14008KT 9999 FEW045"
    },
    {
      "icao": "ENZV",
      "alert": "OK",
      "vis_m": 9999,
      "fzfg": false,
      "metar_trigger": false,
      "taf_trigger": false,
      "metar": "METAR ENZV 300320Z 25006KT 9999 FEW015 SCT025 BKN033 05/03 Q1000",
      "taf": "TAF ENZV 292300Z 3000/3024 27012KT 9999 -SHRA SCT015TCU BKN020"
    },
    {
      "icao": "EPGD",
      "alert": "OK",
      "vis_m": 9999,
      "fzfg": false,
      "metar_trigger": false,
      "taf_trigger": false,
      "metar": "METAR EPGD 300330Z 16005KT CAVOK 00/M02 Q1013",
      "taf": "TAF EPGD 292330Z 3000/3024 VRB03KT CAVOK"
    },
    {
      "icao": "EPKK",
      "alert": "OK",
      "vis_m": 7000,
      "fzfg": false,
      "metar_trigger": false,
      "taf_trigger": false,
      "metar": "METAR EPKK 300330Z 26007KT 7000 -RA FEW009 OVC039 04/03 Q1017",
      "taf": "TAF EPKK 300230Z 3003/3103 25007KT 9999 BKN020"
    },
    {
      "icao": "EPKT",
      "alert": "OK",
      "vis_m": 9999,
      "fzfg": false,
      "metar_trigger": false,
      "taf_trigger": false,
      "metar": "METAR EPKT 300330Z VRB02KT 9999 OVC036 02/01 Q1017",
      "taf": ""
    },
    {
      "icao": "EPLB",
      "alert": "OK",
      "vis_m": 9999,
      "fzfg": false,
      "metar_trigger": false,
      "taf_trigger": false,
      "metar": "METAR EPLB 300330Z 30005KT CAVOK 04/01 Q1014",
      "taf": "TAF EPLB 292330Z 3000/3024 32008KT CAVOK"
    },
    {
      "icao": "EPMO",
      "alert": "OK",
      "vis_m": 9999,
      "fzfg": false,
      "metar_trigger": false,
      "taf_trigger": false,
      "metar": "METAR EPMO 300330Z 26002KT CAVOK 01/00 Q1016",
      "taf": "TAF EPMO 292330Z 3000/3024 30010KT CAVOK"
    },
    {
      "icao": "EPPO",
      "alert": "OK",
      "vis_m": 9999,
      "fzfg": false,
      "metar_trigger": false,
      "taf_trigger": false,
      "metar": "METAR EPPO 300330Z 16005KT CAVOK 00/M02 Q1015",
      "taf": "TAF EPPO 292330Z 3000/3024 25003KT CAVOK"
    },
    {
      "icao": "EPRA",
      "alert": "OK",
      "vis_m": 9999,
      "fzfg": false,
      "metar_trigger": false,
      "taf_trigger": false,
      "metar": "METAR EPRA 300330Z 30009KT CAVOK 04/00 Q1015",
      "taf": "TAF EPRA 300230Z 3003/3012 29006KT 9999 BKN040"
    },
    {
      "icao": "EPRZ",
      "alert": "OK",
      "vis_m": 9999,
      "fzfg": false,
      "metar_trigger": false,
      "taf_trigger": false,
      "metar": "METAR EPRZ 300330Z 28010KT 9999 FEW012 05/03 Q1015",
      "taf": "TAF EPRZ 292330Z 3000/3024 28010KT CAVOK"
    },
    {
      "icao": "EPSC",
      "alert": "OK",
      "vis_m": 9999,
      "fzfg": false,
      "metar_trigger": false,
      "taf_trigger": false,
      "metar": "METAR EPSC 300330Z 15009KT CAVOK 04/M00 Q1011",
      "taf": "TAF EPSC 292330Z 3000/3024 18010KT CAVOK"
    },
    {
      "icao": "EPSY",
      "alert": "OK",
      "vis_m": 9999,
      "fzfg": false,
      "metar_trigger": false,
      "taf_trigger": false,
      "metar": "METAR EPSY 300330Z VRB02KT CAVOK M02/M02 Q1015",
      "taf": "TAF EPSY 300230Z 3003/3012 VRB02KT CAVOK"
    },
    {
      "icao": "EPWA",
      "alert": "OK",
      "vis_m": 9999,
      "fzfg": false,
      "metar_trigger": false,
      "taf_trigger": false,
      "metar": "METAR EPWA 300330Z 27005KT CAVOK 01/M00 Q1016 NOSIG",
      "taf": "TAF EPWA 300230Z 3003/3103 30010KT CAVOK"
    },
    {
      "icao": "EPWR",
      "alert": "OK",
      "vis_m": 9999,
      "fzfg": false,
      "metar_trigger": false,
      "taf_trigger": false,
      "metar": "METAR EPWR 300330Z 18005KT CAVOK 04/M00 Q1017",
      "taf": "TAF EPWR 300230Z 3003/3103 22005KT CAVOK"
    },
    {
      "icao": "ESGG",
      "alert": "OK",
      "vis_m": 6000,
      "fzfg": false,
      "metar_trigger": false,
      "taf_trigger": false,
      "metar": "METAR ESGG 300320Z 19016KT 6000 -RA OVC004 03/02 Q1000",
      "taf": "TAF ESGG 300230Z 3003/3103 18015KT 7000 -RA BKN004"
    },
    {
      "icao": "ESKN",
      "alert": "OK",
      "vis_m": 9999,
      "fzfg": false,
      "metar_trigger": false,
      "taf_trigger": false,
      "metar": "METAR ESKN 300320Z 16007KT CAVOK 04/01 Q1007",
      "taf": "TAF ESKN 300230Z 3003/3103 17008KT CAVOK"
    },
    {
      "icao": "ESMS",
      "alert": "OK",
      "vis_m": 9999,
      "fzfg": false,
      "metar_trigger": false,
      "taf_trigger": false,
      "metar": "METAR ESMS 300320Z 19018KT 9999 -RA BKN010 OVC017 04/03 Q1005",
      "taf": "TAF ESMS 300227Z 3003/3103 19018G30KT 9999 BKN012"
    },
    {
      "icao": "ESSA",
      "alert": "OK",
      "vis_m": 9999,
      "fzfg": false,
      "metar_trigger": false,
      "taf_trigger": false,
      "metar": "METAR ESSA 300320Z 16007KT CAVOK 02/M01 Q1006 NOSIG",
      "taf": "TAF ESSA 300230Z 3003/3103 19008KT CAVOK"
    },
    {
      "icao": "EYKA",
      "alert": "OK",
      "vis_m": 9999,
      "fzfg": false,
      "metar_trigger": false,
      "taf_trigger": false,
      "metar": "METAR EYKA 300320Z VRB01KT CAVOK 00/M01 Q1014",
      "taf": "TAF EYKA 292312Z 3000/3024 VRB03KT 9000 NSC"
    },
    {
      "icao": "EYPA",
      "alert": "OK",
      "vis_m": 4300,
      "fzfg": false,
      "metar_trigger": false,
      "taf_trigger": false,
      "metar": "METAR EYPA 300320Z 20007KT 4300 BR OVC002 01/01 Q1015",
      "taf": "TAF EYPA 292313Z 3000/3024 VRB03KT 3000 BR OVC002"
    },
    {
      "icao": "EYVI",
      "alert": "OK",
      "vis_m": 9999,
      "fzfg": false,
      "metar_trigger": false,
      "taf_trigger": false,
      "metar": "METAR EYVI 300320Z 35008KT CAVOK 04/M01 Q1013 NOSIG",
      "taf": "TAF EYVI 292300Z 3000/3024 34006KT 9000 NSC"
    },
    {
      "icao": "GCFV",
      "alert": "OK",
      "vis_m": 9999,
      "fzfg": false,
      "metar_trigger": false,
      "taf_trigger": false,
      "metar": "METAR GCFV 300300Z AUTO 01022KT CAVOK 17/11 Q1017",
      "taf": "TAF GCFV 300200Z 3003/3103 03020KT CAVOK TX21/3014Z TN16/3006Z"
    },
    {
      "icao": "GCLP",
      "alert": "OK",
      "vis_m": 9999,
      "fzfg": false,
      "metar_trigger": false,
      "taf_trigger": false,
      "metar": "METAR GCLP 300300Z 36017KT 9999 BKN025 17/12 Q1018 NOSIG",
      "taf": "TAF GCLP 300200Z 3003/3103 01021KT 9999 SCT025 TX21/3014Z TN17/3006Z"
    },
    {
      "icao": "GCTS",
      "alert": "OK",
      "vis_m": 9999,
      "fzfg": false,
      "metar_trigger": false,
      "taf_trigger": false,
      "metar": "METAR GCTS 300300Z 06011KT 020V090 CAVOK 17/11 Q1018 NOSIG",
      "taf": "TAF GCTS 300200Z 3003/3103 05020KT CAVOK TX24/3014Z TN17/3006Z"
    },
    {
      "icao": "GMAD",
      "alert": "OK",
      "vis_m": 6000,
      "fzfg": false,
      "metar_trigger": false,
      "taf_trigger": false,
      "metar": "METAR GMAD 300330Z 06003KT 6000 NSC 12/12 Q1012 NOSIG",
      "taf": "TAF GMAD 292300Z 3000/3106 03003KT 8000 NSC"
    },
    {
      "icao": "GMMN",
      "alert": "OK",
      "vis_m": 9999,
      "fzfg": false,
      "metar_trigger": false,
      "taf_trigger": false,
      "metar": "METAR GMMN 300330Z 04011KT CAVOK 10/05 Q1020 NOSIG",
      "taf": "TAF GMMN 292300Z 3000/3106 04004KT CAVOK"
    },
    {
      "icao": "GMMX",
      "alert": "OK",
      "vis_m": 9999,
      "fzfg": false,
      "metar_trigger": false,
      "taf_trigger": false,
      "metar": "METAR GMMX 300330Z 07003KT CAVOK 09/05 Q1017 NOSIG",
      "taf": "TAF GMMX 291700Z 2918/3024 04006KT CAVOK"
    },
    {
      "icao": "HEGN",
      "alert": "OK",
      "vis_m": 9999,
      "fzfg": false,
      "metar_trigger": false,
      "taf_trigger": false,
      "metar": "METAR HEGN 300300Z 31007KT 9999 BKN025 20/08 Q1010 NOSIG",
      "taf": "TAF HEGN 292300Z 3000/3106 34015G25KT 9999 SCT025"
    },
    {
      "icao": "HEMA",
      "alert": "OK",
      "vis_m": 9999,
      "fzfg": false,
      "metar_trigger": false,
      "taf_trigger": false,
      "metar": "METAR HEMA 300300Z 32014KT CAVOK 22/17 Q1009 NOSIG",
      "taf": "TAF HEMA 292300Z 3000/3106 33015G25KT 9999 SCT025"
    },
    {
      "icao": "HESH",
      "alert": "OK",
      "vis_m": 9999,
      "fzfg": false,
      "metar_trigger": false,
      "taf_trigger": false,
      "metar": "METAR HESH 300300Z 01004KT CAVOK 20/16 Q1009 NOSIG",
      "taf": "TAF HESH 292300Z 3000/3106 32008KT 9999 SCT025"
    },
    {
      "icao": "HESX",
      "alert": "OK",
      "vis_m": 9999,
      "fzfg": false,
      "metar_trigger": false,
      "taf_trigger": false,
      "metar": "METAR HESX 300300Z 00000KT CAVOK 12/08 Q1012 NOSIG",
      "taf": "TAF HESX 292300Z 3000/3106 03005KT CAVOK"
    },
    {
      "icao": "LATI",
      "alert": "OK",
      "vis_m": 9999,
      "fzfg": false,
      "metar_trigger": false,
      "taf_trigger": false,
      "metar": "METAR LATI 300320Z VRB02KT CAVOK 04/01 Q1012 NOSIG",
      "taf": "TAF LATI 292300Z 3000/3024 VRB03KT CAVOK TX18/3012Z TN04/3004Z"
    },
    {
      "icao": "LBPD",
      "alert": "OK",
      "vis_m": 9999,
      "fzfg": false,
      "metar_trigger": false,
      "taf_trigger": false,
      "metar": "METAR LBPD 300330Z AUTO 28019KT 9999 BKN092/// 10/03 Q1008 NOSIG",
      "taf": "TAF LBPD 292300Z 3000/3024 28020G30KT 9999 SCT040 BKN060"
    },
    {
      "icao": "LBSF",
      "alert": "OK",
      "vis_m": 9999,
      "fzfg": false,
      "metar_trigger": false,
      "taf_trigger": false,
      "metar": "METAR LBSF 300330Z 29011KT 9999 BKN011 OVC025 04/02 Q1011 NOSIG",
      "taf": "TAF LBSF 292300Z 3000/3024 28016KT 9999 SCT020 BKN030 BKN040"
    },
    {
      "icao": "LBWN",
      "alert": "OK",
      "vis_m": 8000,
      "fzfg": false,
      "metar_trigger": false,
      "taf_trigger": false,
      "metar": "METAR LBWN 300330Z AUTO 35010KT 320V020 8000 RA FEW046/// 11/11 Q1003 NOSIG",
      "taf": "TAF LBWN 292300Z 3000/3024 34012KT 7000 RA SCT010 BKN015 OVC025"
    },
    {
      "icao": "LCLK",
      "alert": "OK",
      "vis_m": 9999,
      "fzfg": false,
      "metar_trigger": false,
      "taf_trigger": false,
      "metar": "METAR LCLK 300330Z 27003KT 240V300 9999 FEW025CB FEW030TCU 08/07 Q1007 NOSIG RMK CB TO NE",
      "taf": "TAF LCLK 292330Z 3000/3100 24010KT 9999 FEW030"
    },
    {
      "icao": "LCPH",
      "alert": "OK",
      "vis_m": 9999,
      "fzfg": false,
      "metar_trigger": false,
      "taf_trigger": false,
      "metar": "METAR LCPH 300330Z 31016KT 9999 FEW025CB SCT030 16/08 Q1008 NOSIG RMK CB TO SW",
      "taf": "TAF LCPH 292330Z 3000/3100 29018KT 9999 FEW025 SCT035"
    },
    {
      "icao": "LEAL",
      "alert": "OK",
      "vis_m": 9999,
      "fzfg": false,
      "metar_trigger": false,
      "taf_trigger": false,
      "metar": "METAR LEAL 300300Z 31006KT CAVOK 08/M03 Q1025 NOSIG",
      "taf": "TAF LEAL 292300Z 3000/3024 33007KT 9999 FEW025 TX17/3012Z TN07/3006Z"
    },
    {
      "icao": "LEBB",
      "alert": "OK",
      "vis_m": 9999,
      "fzfg": false,
      "metar_trigger": false,
      "taf_trigger": false,
      "metar": "METAR LEBB 300300Z VRB02KT 9999 FEW036 BKN052 06/04 Q1035 NOSIG",
      "taf": "TAF LEBB 292300Z 3000/3024 31009KT 9999 SCT020 BKN035 TX12/3018Z TN06/3000Z"
    },
    {
      "icao": "LEBL",
      "alert": "OK",
      "vis_m": 9999,
      "fzfg": false,
      "metar_trigger": false,
      "taf_trigger": false,
      "metar": "METAR LEBL 300300Z 34007KT CAVOK 08/M04 Q1024 NOSIG",
      "taf": "TAF LEBL 292300Z 3000/3024 34007KT CAVOK TX21/3012Z TN07/3006Z"
    },
    {
      "icao": "LECH",
      "alert": "OK",
      "vis_m": 9000,
      "fzfg": false,
      "metar_trigger": false,
      "taf_trigger": false,
      "metar": "METAR LECH 300300Z AUTO 04002KT 9000 NCD 08/M04 Q1025",
      "taf": "TAF LECH 292300Z 3000/3024 33015KT 9999 FEW030 TX21/3013Z TN06/3006Z"
    },
    {
      "icao": "LEMD",
      "alert": "OK",
      "vis_m": 9999,
      "fzfg": false,
      "metar_trigger": false,
      "taf_trigger": false,
      "metar": "METAR LEMD 300300Z 06002KT CAVOK 03/M06 Q1029 NOSIG",
      "taf": "TAF LEMD 292300Z 3000/3106 VRB04KT CAVOK TX20/3016Z TN00/3006Z"
    },
    {
      "icao": "LEMG",
      "alert": "OK",
      "vis_m": 9999,
      "fzfg": false,
      "metar_trigger": false,
      "taf_trigger": false,
      "metar": "METAR LEMG 300300Z 29005KT 9999 FEW045 09/04 Q1026 NOSIG",
      "taf": ""
    },
    {
      "icao": "LEVC",
      "alert": "OK",
      "vis_m": 9999,
      "fzfg": false,
      "metar_trigger": false,
      "taf_trigger": false,
      "metar": "METAR LEVC 300300Z 29009KT CAVOK 08/M03 Q1026 NOSIG",
      "taf": "TAF LEVC 292300Z 3000/3024 30009KT 9999 FEW025 TX22/3013Z TN05/3006Z"
    },
    {
      "icao": "LEXJ",
      "alert": "OK",
      "vis_m": 9999,
      "fzfg": false,
      "metar_trigger": false,
      "taf_trigger": false,
      "metar": "METAR LEXJ 300300Z AUTO 23005KT 9999 OVC036 08/03 Q1035",
      "taf": "TAF LEXJ 300200Z 3003/3103 31009KT 9999 BKN025 TX13/3021Z TN07/3003Z"
    },
    {
      "icao": "LEZG",
      "alert": "OK",
      "vis_m": 9999,
      "fzfg": false,
      "metar_trigger": false,
      "taf_trigger": false,
      "metar": "METAR LEZG 300300Z 29019KT CAVOK 07/M00 Q1028 NOSIG",
      "taf": "TAF LEZG 292300Z 3000/3024 34020KT 9999 FEW045 TX17/3014Z TN06/3006Z"
    },
    {
      "icao": "LEZL",
      "alert": "OK",
      "vis_m": 9000,
      "fzfg": false,
      "metar_trigger": false,
      "taf_trigger": false,
      "metar": "METAR LEZL 300300Z AUTO 05004KT 9000 NCD 08/M00 Q1027",
      "taf": "TAF LEZL 300200Z 3003/3103 05008KT CAVOK TX22/3015Z TN08/3007Z"
    },
    {
      "icao": "LFBD",
      "alert": "OK",
      "vis_m": 9999,
      "fzfg": false,
      "metar_trigger": false,
      "taf_trigger": false,
      "metar": "METAR LFBD 300330Z AUTO 23006KT 9999 FEW036 SCT042 BKN080 07/04 Q1032 TEMPO 3000 -RADZ OVC005",
      "taf": "TAF LFBD 292300Z 3000/3106 30005KT CAVOK TX15/3014Z TN04/3002Z"
    },
    {
      "icao": "LFLL",
      "alert": "OK",
      "vis_m": 9999,
      "fzfg": false,
      "metar_trigger": false,
      "taf_trigger": false,
      "metar": "METAR LFLL 300330Z 21003KT CAVOK 04/M00 Q1027 NOSIG",
      "taf": "TAF LFLL 292300Z 3000/3106 VRB04KT CAVOK"
    },
    {
      "icao": "LFLS",
      "alert": "OK",
      "vis_m": 9999,
      "fzfg": false,
      "metar_trigger": false,
      "taf_trigger": false,
      "metar": "METAR LFLS 300330Z AUTO 10003KT 060V130 CAVOK 02/M00 Q1026 NOSIG",
      "taf": "TAF LFLS 300200Z 3003/3103 VRB05KT CAVOK"
    },
    {
      "icao": "LFMN",
      "alert": "OK",
      "vis_m": 9999,
      "fzfg": false,
      "metar_trigger": false,
      "taf_trigger": false,
      "metar": "METAR LFMN 300330Z 35007KT CAVOK 11/M00 Q1018 NOSIG",
      "taf": "TAF LFMN 300200Z 3003/3109 33010KT CAVOK"
    },
    {
      "icao": "LFOB",
      "alert": "OK",
      "vis_m": 9999,
      "fzfg": false,
      "metar_trigger": false,
      "taf_trigger": false,
      "metar": "METAR LFOB 300330Z AUTO 26007KT 9999 FEW009 SCT019 BKN031 07/07 Q1022 TEMPO 4500 -RA BKN013 OVC020 BECMG 32012KT",
      "taf": "TAF LFOB 292300Z 3000/3024 27012KT 9999 BKN017"
    },
    {
      "icao": "LFPO",
      "alert": "OK",
      "vis_m": 8000,
      "fzfg": false,
      "metar_trigger": false,
      "taf_trigger": false,
      "metar": "METAR LFPO 300330Z 28010KT 8000 -DZRA OVC013 08/06 Q1023 TEMPO BKN008",
      "taf": "TAF LFPO 292300Z 3000/3106 25012KT 9999 BKN025"
    },
    {
      "icao": "LFSB",
      "alert": "OK",
      "vis_m": 9999,
      "fzfg": false,
      "metar_trigger": false,
      "taf_trigger": false,
      "metar": "METAR LFSB 300330Z AUTO VRB02KT 9999 -RA BKN056 OVC068 04/00 Q1023 TEMPO 25015G25KT",
      "taf": "TAF LFSB 292302Z 3000/3024 18005KT 9999 FEW040 BKN100"
    },
    {
      "icao": "LGAV",
      "alert": "OK",
      "vis_m": 9999,
      "fzfg": false,
      "metar_trigger": false,
      "taf_trigger": false,
      "metar": "METAR LGAV 300320Z VRB02KT 9999 FEW025 06/03 Q1010 NOSIG",
      "taf": "TAF LGAV 292300Z 3000/3024 VRB05KT 9999 FEW030 SCT070"
    },
    {
      "icao": "LGTS",
      "alert": "OK",
      "vis_m": 9999,
      "fzfg": false,
      "metar_trigger": false,
      "taf_trigger": false,
      "metar": "METAR LGTS 300320Z 32015G25KT 9999 FEW025 11/04 Q1010 NOSIG",
      "taf": "TAF LGTS 292300Z 3000/3024 34015KT 9999 FEW025"
    },
    {
      "icao": "LHBP",
      "alert": "OK",
      "vis_m": 9999,
      "fzfg": false,
      "metar_trigger": false,
      "taf_trigger": false,
      "metar": "METAR LHBP 300330Z 31011KT 9999 -RA OVC047 06/04 Q1014 NOSIG",
      "taf": "TAF LHBP 292315Z 3000/3024 32011KT 9999 -RA OVC045"
    },
    {
      "icao": "LHDC",
      "alert": "OK",
      "vis_m": 9999,
      "fzfg": false,
      "metar_trigger": false,
      "taf_trigger": false,
      "metar": "METAR LHDC 300315Z AUTO 02011KT 340V050 CAVOK 09/04 Q1012 NOSIG",
      "taf": "TAF LHDC 300215Z 3003/3012 02015G25KT CAVOK"
    },
    {
      "icao": "LIBD",
      "alert": "OK",
      "vis_m": 9999,
      "fzfg": false,
      "metar_trigger": false,
      "taf_trigger": false,
      "metar": "METAR LIBD 300320Z 27009KT 9999 FEW030 09/06 Q1014",
      "taf": "TAF LIBD 292300Z 3000/3024 28012KT 9999 SCT030"
    },
    {
      "icao": "LIBG",
      "alert": "OK",
      "vis_m": null,
      "fzfg": false,
      "metar_trigger": false,
      "taf_trigger": false,
      "metar": "",
      "taf": ""
    },
    {
      "icao": "LIBP",
      "alert": "OK",
      "vis_m": 9999,
      "fzfg": false,
      "metar_trigger": false,
      "taf_trigger": false,
      "metar": "METAR LIBP 300320Z AUTO 24004KT 9999 FEW057/// 05/04 Q1017",
      "taf": "TAF LIBP 292300Z 3000/3024 27010KT CAVOK"
    },
    {
      "icao": "LIBR",
      "alert": "OK",
      "vis_m": 9999,
      "fzfg": false,
      "metar_trigger": false,
      "taf_trigger": false,
      "metar": "METAR LIBR 300320Z 28011KT 9999 SCT030 10/07 Q1013",
      "taf": "TAF LIBR 292300Z 3000/3024 33016KT CAVOK"
    },
    {
      "icao": "LICA",
      "alert": "OK",
      "vis_m": 9999,
      "fzfg": false,
      "metar_trigger": false,
      "taf_trigger": false,
      "metar": "METAR LICA 300320Z AUTO 10003KT 9999 FEW200/// 08/07 Q1014",
      "taf": "TAF LICA 292300Z 3000/3024 VRB05KT 9999 SCT030"
    },
    {
      "icao": "LICC",
      "alert": "OK",
      "vis_m": 9999,
      "fzfg": false,
      "metar_trigger": false,
      "taf_trigger": false,
      "metar": "METAR LICC 300320Z 25004KT 9999 BKN080 10/05 Q1014",
      "taf": "TAF LICC 292300Z 3000/3024 VRB05KT 9999 SCT040"
    },
    {
      "icao": "LICJ",
      "alert": "OK",
      "vis_m": 9999,
      "fzfg": false,
      "metar_trigger": false,
      "taf_trigger": false,
      "metar": "METAR LICJ 300320Z 08008KT 9999 FEW030 11/07 Q1014",
      "taf": "TAF LICJ 292300Z 3000/3024 VRB05KT 9999 SCT040"
    },
    {
      "icao": "LIMC",
      "alert": "OK",
      "vis_m": 9999,
      "fzfg": false,
      "metar_trigger": false,
      "taf_trigger": false,
      "metar": "METAR LIMC 300320Z 34003KT 310V020 CAVOK 04/M03 Q1018 NOSIG",
      "taf": "TAF LIMC 292300Z 3000/3106 34006KT CAVOK"
    },
    {
      "icao": "LIME",
      "alert": "OK",
      "vis_m": 9999,
      "fzfg": false,
      "metar_trigger": false,
      "taf_trigger": false,
      "metar": "METAR LIME 300320Z 36004KT CAVOK 08/M01 Q1017 NOSIG",
      "taf": "TAF LIME 292300Z 3000/3024 01006KT CAVOK"
    },
    {
      "icao": "LIMF",
      "alert": "OK",
      "vis_m": 9999,
      "fzfg": false,
      "metar_trigger": false,
      "taf_trigger": false,
      "metar": "METAR LIMF 300320Z 30003KT CAVOK 06/M03 Q1018",
      "taf": "TAF LIMF 292300Z 3000/3024 VRB05KT CAVOK"
    },
    {
      "icao": "LIMJ",
      "alert": "OK",
      "vis_m": 9999,
      "fzfg": false,
      "metar_trigger": false,
      "taf_trigger": false,
      "metar": "METAR LIMJ 300320Z 03013KT CAVOK 12/M05 Q1017",
      "taf": "TAF LIMJ 292300Z 3000/3024 02007KT CAVOK"
    },
    {
      "icao": "LIPE",
      "alert": "OK",
      "vis_m": 9999,
      "fzfg": false,
      "metar_trigger": false,
      "taf_trigger": false,
      "metar": "METAR LIPE 300320Z 25005KT CAVOK 05/01 Q1018",
      "taf": "TAF LIPE 292300Z 3000/3024 VRB05KT CAVOK"
    },
    {
      "icao": "LIPH",
      "alert": "OK",
      "vis_m": 9999,
      "fzfg": false,
      "metar_trigger": false,
      "taf_trigger": false,
      "metar": "METAR LIPH 300320Z AUTO 04001KT 9999 BKN230/// 06/02 Q1017",
      "taf": "TAF LIPH 292300Z 3000/3024 VRB05KT CAVOK"
    },
    {
      "icao": "LIPQ",
      "alert": "OK",
      "vis_m": 9999,
      "fzfg": false,
      "metar_trigger": false,
      "taf_trigger": false,
      "metar": "METAR LIPQ 300320Z AUTO VRB01KT 9999 NCD 02/01 Q1017",
      "taf": "TAF LIPQ 292300Z 3000/3024 VRB05KT CAVOK"
    },
    {
      "icao": "LIPR",
      "alert": "OK",
      "vis_m": 9999,
      "fzfg": false,
      "metar_trigger": false,
      "taf_trigger": false,
      "metar": "METAR LIPR 300320Z AUTO 20005KT 9999 NCD 06/03 Q1017",
      "taf": "TAF LIPR 292300Z 3000/3024 VRB05KT 9999 BKN070"
    },
    {
      "icao": "LIPX",
      "alert": "OK",
      "vis_m": 9999,
      "fzfg": false,
      "metar_trigger": false,
      "taf_trigger": false,
      "metar": "METAR LIPX 300320Z 29004KT CAVOK 07/M02 Q1017",
      "taf": "TAF LIPX 292300Z 3000/3024 VRB05KT CAVOK"
    },
    {
      "icao": "LIPY",
      "alert": "OK",
      "vis_m": 9999,
      "fzfg": false,
      "metar_trigger": false,
      "taf_trigger": false,
      "metar": "METAR LIPY 300320Z AUTO VRB02KT 9999 NCD 04/03 Q1017",
      "taf": "TAF LIPY 292300Z 3000/3024 VRB05KT CAVOK"
    },
    {
      "icao": "LIPZ",
      "alert": "OK",
      "vis_m": 9999,
      "fzfg": false,
      "metar_trigger": false,
      "taf_trigger": false,
      "metar": "METAR LIPZ 300320Z 05004KT CAVOK 07/03 Q1017 NOSIG",
      "taf": "TAF LIPZ 292300Z 3000/3106 VRB05KT CAVOK"
    },
    {
      "icao": "LIRF",
      "alert": "OK",
      "vis_m": 9999,
      "fzfg": false,
      "metar_trigger": false,
      "taf_trigger": false,
      "metar": "METAR LIRF 300320Z 05004KT CAVOK 07/03 Q1016 NOSIG",
      "taf": "TAF LIRF 292300Z 3000/3106 04006KT 9999 FEW030"
    },
    {
      "icao": "LIRN",
      "alert": "OK",
      "vis_m": 9999,
      "fzfg": false,
      "metar_trigger": false,
      "taf_trigger": false,
      "metar": "METAR LIRN 300320Z 02006KT CAVOK 10/03 Q1015 NOSIG",
      "taf": "TAF LIRN 292300Z 3000/3024 05008KT 9999 SCT050"
    },
    {
      "icao": "LIRP",
      "alert": "OK",
      "vis_m": 9999,
      "fzfg": false,
      "metar_trigger": false,
      "taf_trigger": false,
      "metar": "METAR LIRP 300315Z 10002KT CAVOK 06/02 Q1017 NOSIG",
      "taf": "TAF LIRP 292300Z 3000/3024 08003KT CAVOK"
    },
    {
      "icao": "LIRZ",
      "alert": "OK",
      "vis_m": 9999,
      "fzfg": false,
      "metar_trigger": false,
      "taf_trigger": false,
      "metar": "METAR LIRZ 300320Z AUTO 33005KT 9999 NCD 04/01 Q1016",
      "taf": "TAF LIRZ 292300Z 3000/3024 VRB05KT 9999 SCT060"
    },
    {
      "icao": "LJLJ",
      "alert": "OK",
      "vis_m": 9999,
      "fzfg": false,
      "metar_trigger": false,
      "taf_trigger": false,
      "metar": "METAR LJLJ 300300Z 29003KT 260V320 9999 FEW085 M00/M03 Q1018 NOSIG",
      "taf": "TAF LJLJ 292300Z 3000/3100 34005KT 9999 FEW070"
    },
    {
      "icao": "LKMT",
      "alert": "OK",
      "vis_m": 9999,
      "fzfg": false,
      "metar_trigger": false,
      "taf_trigger": false,
      "metar": "METAR LKMT 300330Z 22002KT 9999 OVC040 03/02 Q1018 NOSIG",
      "taf": "TAF LKMT 292300Z 3000/3024 01005KT 9999 BKN030"
    },
    {
      "icao": "LKPR",
      "alert": "OK",
      "vis_m": 9999,
      "fzfg": false,
      "metar_trigger": false,
      "taf_trigger": false,
      "metar": "METAR LKPR 300330Z 19008KT CAVOK 02/M03 Q1017 NOSIG",
      "taf": "TAF LKPR 300200Z 3003/3109 18009KT CAVOK"
    },
    {
      "icao": "LLBG",
      "alert": "OK",
      "vis_m": 9999,
      "fzfg": false,
      "metar_trigger": false,
      "taf_trigger": false,
      "metar": "METAR LLBG 300320Z 20005KT 9999 FEW028 13/10 Q1012 NOSIG RMK RERA",
      "taf": "TAF LLBG 292312Z 3000/3024 16005KT 9999 SCT035 TX19/3012Z TN11/3004Z"
    },
    {
      "icao": "LMML",
      "alert": "OK",
      "vis_m": 9999,
      "fzfg": false,
      "metar_trigger": false,
      "taf_trigger": false,
      "metar": "METAR LMML 300315Z 28002KT CAVOK 09/07 Q1014 NOSIG",
      "taf": "TAF LMML 292300Z 3000/3024 27007KT 9999 SCT025"
    },
    {
      "icao": "LOWW",
      "alert": "OK",
      "vis_m": 9999,
      "fzfg": false,
      "metar_trigger": false,
      "taf_trigger": false,
      "metar": "METAR LOWW 300320Z 31012KT CAVOK 05/01 Q1019 NOSIG",
      "taf": "TAF LOWW 300215Z 3003/3109 32015KT 9999 BKN035 TX09/3012Z TN04/3104Z"
    },
    {
      "icao": "LPFR",
      "alert": "OK",
      "vis_m": 9999,
      "fzfg": false,
      "metar_trigger": false,
      "taf_trigger": false,
      "metar": "METAR LPFR 300300Z 03009KT CAVOK 13/M01 Q1026",
      "taf": "TAF LPFR 292300Z 3000/3024 02010KT CAVOK"
    },
    {
      "icao": "LPMA",
      "alert": "OK",
      "vis_m": 9999,
      "fzfg": false,
      "metar_trigger": false,
      "taf_trigger": false,
      "metar": "METAR LPMA 300300Z 36022G38KT 310V040 9999 FEW015 16/07 Q1024",
      "taf": "TAF LPMA 292300Z 3000/3024 01018G30KT 9999 SCT015"
    },
    {
      "icao": "LPPR",
      "alert": "OK",
      "vis_m": 9999,
      "fzfg": false,
      "metar_trigger": false,
      "taf_trigger": false,
      "metar": "METAR LPPR 300300Z 00000KT CAVOK 09/03 Q1032",
      "taf": "TAF LPPR 292300Z 3000/3024 03010KT CAVOK"
    },
    {
      "icao": "LPPS",
      "alert": "OK",
      "vis_m": 9999,
      "fzfg": false,
      "metar_trigger": false,
      "taf_trigger": false,
      "metar": "METAR LPPS 300300Z 04022KT 360V060 9999 FEW014 15/11 Q1025",
      "taf": "TAF LPPS 292300Z 3000/3106 05017KT 9999 SCT015 SCT030"
    },
    {
      "icao": "LPPT",
      "alert": "OK",
      "vis_m": 9999,
      "fzfg": false,
      "metar_trigger": false,
      "taf_trigger": false,
      "metar": "METAR LPPT 300300Z 02013KT CAVOK 13/M00 Q1029",
      "taf": "TAF LPPT 292300Z 3000/3106 36008KT CAVOK"
    },
    {
      "icao": "LQBK",
      "alert": "OK",
      "vis_m": 9999,
      "fzfg": false,
      "metar_trigger": false,
      "taf_trigger": false,
      "metar": "METAR LQBK 300300Z 27010KT 9999 BKN017 OVC030 05/02 Q1018 NOSIG",
      "taf": "TAF LQBK 292300Z 3000/3024 28008KT 9999 -RA OVC030 TX07/3013Z TN04/3005Z"
    },
    {
      "icao": "LQSA",
      "alert": "OK",
      "vis_m": 9999,
      "fzfg": false,
      "metar_trigger": false,
      "taf_trigger": false,
      "metar": "METAR LQSA 300300Z VRB01KT 9999 -DZ FEW008 OVC018 03/02 Q1016",
      "taf": "TAF LQSA 292300Z 3000/3024 32006KT 9999 SCT020 BKN040 TX05/3013Z TN01/3005Z"
    },
    {
      "icao": "LQTZ",
      "alert": "OK",
      "vis_m": 9999,
      "fzfg": false,
      "metar_trigger": false,
      "taf_trigger": false,
      "metar": "METAR LQTZ 300300Z 29006KT 9999 DZ OVC015 03/03 Q1017",
      "taf": "TAF LQTZ 292300Z 3000/3024 29008KT 5000 -RA BR BKN010 OVC020 TX04/3013Z TN02/3005Z"
    },
    {
      "icao": "LRBC",
      "alert": "OK",
      "vis_m": 9999,
      "fzfg": false,
      "metar_trigger": false,
      "taf_trigger": false,
      "metar": "METAR LRBC 300300Z 34011KT 9999 BKN048 10/08 Q1009",
      "taf": "TAF LRBC 300200Z 3003/3012 34010KT 9999 BKN020"
    },
    {
      "icao": "LRBS",
      "alert": "OK",
      "vis_m": 9999,
      "fzfg": false,
      "metar_trigger": false,
      "taf_trigger": false,
      "metar": "METAR LRBS 300300Z 28004KT CAVOK 09/08 Q1007 NOSIG",
      "taf": "TAF LRBS 292300Z 3000/3024 31006KT 9999 BKN035"
    },
    {
      "icao": "LRBV",
      "alert": "OK",
      "vis_m": 9999,
      "fzfg": false,
      "metar_trigger": false,
      "taf_trigger": false,
      "metar": "METAR LRBV 300300Z AUTO 29010KT 9999 -RA FEW014/// OVC022/// 08/05 Q1009 REDZ",
      "taf": "TAF LRBV 300200Z 3003/3012 27006KT 9999 BKN025"
    },
    {
      "icao": "LRCL",
      "alert": "OK",
      "vis_m": 9999,
      "fzfg": false,
      "metar_trigger": false,
      "taf_trigger": false,
      "metar": "METAR LRCL 300300Z COR 26004KT 9999 OVC056 09/08 Q1010",
      "taf": "TAF LRCL 300200Z 3003/3012 29006KT 9999 OVC045"
    },
    {
      "icao": "LRCV",
      "alert": "OK",
      "vis_m": 9999,
      "fzfg": false,
      "metar_trigger": false,
      "taf_trigger": false,
      "metar": "METAR LRCV 300300Z 27007KT 9999 OVC049 08/07 Q1009",
      "taf": "TAF LRCV 300200Z 3003/3012 26010KT 9999 BKN040"
    },
    {
      "icao": "LRIA",
      "alert": "OK",
      "vis_m": 9999,
      "fzfg": false,
      "metar_trigger": false,
      "taf_trigger": false,
      "metar": "METAR LRIA 300300Z 31012KT CAVOK 09/06 Q1008",
      "taf": "TAF LRIA 300200Z 3003/3012 33012KT CAVOK"
    },
    {
      "icao": "LROP",
      "alert": "OK",
      "vis_m": 9999,
      "fzfg": false,
      "metar_trigger": false,
      "taf_trigger": false,
      "metar": "METAR LROP 300300Z 29007KT CAVOK 09/09 Q1007 NOSIG",
      "taf": "TAF LROP 292300Z 3000/3024 31006KT 9999 BKN035"
    },
    {
      "icao": "LRSB",
      "alert": "OK",
      "vis_m": 8000,
      "fzfg": false,
      "metar_trigger": false,
      "taf_trigger": false,
      "metar": "METAR LRSB 300300Z 27004KT 8000 -RA SCT010 BKN021 OVC028 08/08 Q1010",
      "taf": "TAF LRSB 292300Z 3000/3024 VRB04KT 9999 BKN025"
    },
    {
      "icao": "LRSM",
      "alert": "OK",
      "vis_m": 9999,
      "fzfg": false,
      "metar_trigger": false,
      "taf_trigger": false,
      "metar": "METAR LRSM 300300Z AUTO 33006KT 9999 BKN085/// 09/06 Q1011",
      "taf": "TAF LRSM 300200Z 3003/3012 35008KT 9999 SCT045"
    },
    {
      "icao": "LRSV",
      "alert": "OK",
      "vis_m": 9999,
      "fzfg": false,
      "metar_trigger": false,
      "taf_trigger": false,
      "metar": "METAR LRSV 300300Z 31007KT CAVOK 07/06 Q1009",
      "taf": ""
    },
    {
      "icao": "LRTM",
      "alert": "OK",
      "vis_m": 9999,
      "fzfg": false,
      "metar_trigger": false,
      "taf_trigger": false,
      "metar": "METAR LRTM 300300Z 23006KT 9999 -RA FEW009 08/08 Q1010",
      "taf": "TAF LRTM 300200Z 3003/3012 VRB04KT 9999 SCT040"
    },
    {
      "icao": "LRTR",
      "alert": "OK",
      "vis_m": 3300,
      "fzfg": false,
      "metar_trigger": false,
      "taf_trigger": false,
      "metar": "METAR LRTR 300300Z 33005KT 3300 BR OVC005 09/09 Q1012",
      "taf": "TAF LRTR 292300Z 3000/3024 34008KT 5000 BR BKN010 OVC020"
    },
    {
      "icao": "LTAC",
      "alert": "OK",
      "vis_m": 9999,
      "fzfg": false,
      "metar_trigger": false,
      "taf_trigger": false,
      "metar": "METAR LTAC 300320Z 24010KT 9999 FEW011 SCT040 BKN100 04/02 Q1003 NOSIG RMK RWY21C 23011KT RWY03L 23010KT RWY21R 21012KT RWY03R 24008KT RWY21L 24012KT",
      "taf": "TAF LTAC 292240Z 3000/3024 24012KT 9999 SCT040 BKN100"
    },
    {
      "icao": "LTFM",
      "alert": "OK",
      "vis_m": 8000,
      "fzfg": false,
      "metar_trigger": false,
      "taf_trigger": false,
      "metar": "METAR LTFM 300320Z 26008KT 8000 -RA BKN008 BKN018 08/08 Q1003 NOSIG RMK RWY17L 27011KT RWY34L 25008KT RWY16R 27008KT RWY36 24007KT RWY18 26011KT",
      "taf": "TAF LTFM 292240Z 3000/3106 26012KT 6000 -RA BKN007 BKN020"
    },
    {
      "icao": "LUKK",
      "alert": "OK",
      "vis_m": 9999,
      "fzfg": false,
      "metar_trigger": false,
      "taf_trigger": false,
      "metar": "METAR LUKK 300300Z 35015KT CAVOK 10/06 Q1005 NOSIG",
      "taf": "TAF LUKK 292314Z 3000/3024 35012KT 9999 SCT040"
    },
    {
      "icao": "LWOH",
      "alert": "OK",
      "vis_m": null,
      "fzfg": false,
      "metar_trigger": false,
      "taf_trigger": false,
      "metar": "",
      "taf": "TAF LWOH 300230Z 3003/3103 34005KT 9999 FEW040"
    },
    {
      "icao": "LWSK",
      "alert": "OK",
      "vis_m": 9999,
      "fzfg": false,
      "metar_trigger": false,
      "taf_trigger": false,
      "metar": "METAR LWSK 300320Z 03008KT 9999 BKN045 07/03 Q1013 NOSIG",
      "taf": "TAF LWSK 300230Z 3003/3103 02005KT 9999 BKN050"
    },
    {
      "icao": "LYBE",
      "alert": "OK",
      "vis_m": 5000,
      "fzfg": false,
      "metar_trigger": false,
      "taf_trigger": false,
      "metar": "METAR LYBE 300300Z 28014KT 5000 -RA BR BKN004 06/05 Q1014 NOSIG",
      "taf": "TAF LYBE 292300Z 3000/3024 27012KT 7000 BKN006 BKN027 TX07/3012Z TN04/3006Z"
    },
    {
      "icao": "LYNI",
      "alert": "OK",
      "vis_m": 9999,
      "fzfg": false,
      "metar_trigger": false,
      "taf_trigger": false,
      "metar": "METAR LYNI 300300Z 31006KT 9999 -DZ SCT006 OVC013 05/05 Q1014 NOSIG",
      "taf": "TAF LYNI 292300Z 3000/3024 32006KT 9999 BKN017 BKN030 TX09/3013Z TN04/3006Z"
    },
    {
      "icao": "LYPG",
      "alert": "OK",
      "vis_m": 9999,
      "fzfg": false,
      "metar_trigger": false,
      "taf_trigger": false,
      "metar": "METAR LYPG 300300Z 29007KT CAVOK 08/00 Q1013 NOSIG",
      "taf": "TAF LYPG 292300Z 3000/3024 34008KT CAVOK TX18/3013Z TN07/3004Z"
    },
    {
      "icao": "LZIB",
      "alert": "OK",
      "vis_m": 9999,
      "fzfg": false,
      "metar_trigger": false,
      "taf_trigger": false,
      "metar": "METAR LZIB 300330Z 31005KT 270V060 CAVOK 06/M00 Q1018 NOSIG",
      "taf": ""
    },
    {
      "icao": "LZKZ",
      "alert": "OK",
      "vis_m": 9999,
      "fzfg": false,
      "metar_trigger": false,
      "taf_trigger": false,
      "metar": "METAR LZKZ 300330Z 01010KT CAVOK 08/02 Q1013 NOSIG",
      "taf": "TAF LZKZ 292315Z 3000/3100 01016KT CAVOK"
    },
    {
      "icao": "LZTT",
      "alert": "OK",
      "vis_m": 9999,
      "fzfg": false,
      "metar_trigger": false,
      "taf_trigger": false,
      "metar": "METAR LZTT 300330Z 28012KT 9999 FEW007 BKN012 OVC060 02/01 Q1014",
      "taf": "TAF LZTT 292315Z 3000/3100 26010KT 9999 FEW010 BKN038"
    },
    {
      "icao": "OEJN",
      "alert": "OK",
      "vis_m": 9999,
      "fzfg": false,
      "metar_trigger": false,
      "taf_trigger": false,
      "metar": "METAR OEJN 300300Z 04002KT CAVOK 21/13 Q1008 NOSIG",
      "taf": "TAF OEJN 292300Z 3000/3106 VRB03KT CAVOK"
    },
    {
      "icao": "OEMA",
      "alert": "OK",
      "vis_m": 9999,
      "fzfg": false,
      "metar_trigger": false,
      "taf_trigger": false,
      "metar": "METAR OEMA 300300Z 18004KT CAVOK 23/05 Q1012 NOSIG",
      "taf": "TAF OEMA 292300Z 3000/3106 VRB03KT 9999 SCT040"
    },
    {
      "icao": "OJAI",
      "alert": "OK",
      "vis_m": 4000,
      "fzfg": false,
      "metar_trigger": false,
      "taf_trigger": false,
      "metar": "METAR OJAI 300300Z 16004KT 4000 BR FEW030 07/05 Q1012 NOSIG",
      "taf": "TAF OJAI 292300Z 3000/3106 26010KT 4000 BR FEW025 BKN030"
    },
    {
      "icao": "OMAA",
      "alert": "OK",
      "vis_m": null,
      "fzfg": false,
      "metar_trigger": false,
      "taf_trigger": false,
      "metar": "",
      "taf": ""
    },
    {
      "icao": "OMDB",
      "alert": "OK",
      "vis_m": null,
      "fzfg": false,
      "metar_trigger": false,
      "taf_trigger": false,
      "metar": "",
      "taf": ""
    },
    {
      "icao": "UAAA",
      "alert": "OK",
      "vis_m": 9999,
      "fzfg": false,
      "metar_trigger": false,
      "taf_trigger": false,
      "metar": "METAR UAAA 300300Z 00000MPS 9999 SCT200 12/02 Q1010 NOSIG",
      "taf": "TAF UAAA 292303Z 3000/3024 34002MPS 9999 FEW100 TX25/3010Z TN04/3001Z"
    },
    {
      "icao": "UBBB",
      "alert": "OK",
      "vis_m": 7000,
      "fzfg": false,
      "metar_trigger": false,
      "taf_trigger": false,
      "metar": "METAR UBBB 300330Z 17010KT 7000 OVC002 10/10 Q1000 NOSIG",
      "taf": "TAF UBBB 292304Z 3000/3024 15008KT 0800 FG VV002 TX17/3010Z TN08/3001Z"
    },
    {
      "icao": "UDSG",
      "alert": "OK",
      "vis_m": 9999,
      "fzfg": false,
      "metar_trigger": false,
      "taf_trigger": false,
      "metar": "METAR UDSG 300300Z 10001KT 9999 -SHRA BKN026CB 04/04 Q1002 NOSIG",
      "taf": "TAF UDSG 292258Z 3000/3024 24006KT 9999 BKN040"
    },
    {
      "icao": "UDYZ",
      "alert": "OK",
      "vis_m": 9999,
      "fzfg": false,
      "metar_trigger": false,
      "taf_trigger": false,
      "metar": "METAR UDYZ 300300Z VRB02KT 9999 -SHRA BKN036CB 09/06 Q1001 NOSIG",
      "taf": "TAF UDYZ 292300Z 3000/3024 20004KT 9999 SCT040"
    },
    {
      "icao": "UGKO",
      "alert": "OK",
      "vis_m": 8000,
      "fzfg": false,
      "metar_trigger": false,
      "taf_trigger": false,
      "metar": "METAR UGKO 300300Z VRB02KT 8000 -RA OVC042 10/09 Q1000 NOSIG",
      "taf": "TAF UGKO 292300Z 3000/3024 25007KT 9999 -RA SCT030 BKN050 TX12/3000Z TN09/3024Z"
    }
  ]
}