{
  "ts_utc": "2026-04-10T01:06:36Z",
  "threshold_m": 150,
  "source": "stations_override.txt (ICAO list) + aviationweather.gov (METAR/TAF raw)",
  "station_count": 159,
  "stations": [
    {
      "icao": "BIKF",
      "alert": "OK",
      "vis_m": 9999,
      "fzfg": false,
      "metar_trigger": false,
      "taf_trigger": false,
      "metar": "METAR BIKF 100100Z 20019KT 9999 SCT029 02/M02 Q0992",
      "taf": "TAF BIKF 092245Z 1000/1100 21020G30KT 9999 BKN020 TX04/1015Z TNM00/1006Z"
    },
    {
      "icao": "BKPR",
      "alert": "OK",
      "vis_m": 9999,
      "fzfg": false,
      "metar_trigger": false,
      "taf_trigger": false,
      "metar": "METAR BKPR 100100Z VRB01KT CAVOK 00/M02 Q1017 NOSIG",
      "taf": "TAF BKPR 092330Z 1000/1024 01007KT 9999 SCT050"
    },
    {
      "icao": "EBCI",
      "alert": "OK",
      "vis_m": 9999,
      "fzfg": false,
      "metar_trigger": false,
      "taf_trigger": false,
      "metar": "METAR EBCI 100050Z 32007KT 280V360 9999 BKN040 10/05 Q1018 NOSIG",
      "taf": "TAF EBCI 092313Z 1000/1106 32010KT 9999 SCT020"
    },
    {
      "icao": "EDDB",
      "alert": "OK",
      "vis_m": 9999,
      "fzfg": false,
      "metar_trigger": false,
      "taf_trigger": false,
      "metar": "METAR EDDB 100050Z AUTO 09005KT CAVOK M00/M04 Q1019 NOSIG",
      "taf": "TAF EDDB 092300Z 1000/1024 09005KT CAVOK"
    },
    {
      "icao": "EDDH",
      "alert": "OK",
      "vis_m": 9999,
      "fzfg": false,
      "metar_trigger": false,
      "taf_trigger": false,
      "metar": "METAR EDDH 100050Z AUTO 13014KT 9999 -RA NSC 06/M02 Q1015 TEMPO 12015G25KT RA",
      "taf": "TAF EDDH 092300Z 1000/1106 13011KT 9999 BKN045"
    },
    {
      "icao": "EDDK",
      "alert": "OK",
      "vis_m": 9999,
      "fzfg": false,
      "metar_trigger": false,
      "taf_trigger": false,
      "metar": "METAR EDDK 100050Z AUTO 33016KT 9999 SCT024 BKN029 14/09 Q1015 BECMG 31008KT",
      "taf": "TAF EDDK 092300Z 1000/1106 20006KT CAVOK"
    },
    {
      "icao": "EDDN",
      "alert": "OK",
      "vis_m": 9999,
      "fzfg": false,
      "metar_trigger": false,
      "taf_trigger": false,
      "metar": "METAR EDDN 100050Z AUTO 10003KT 9999 SHRA FEW031 FEW///CB 09/00 Q1015",
      "taf": "TAF EDDN 092300Z 1000/1024 10005KT 9999 FEW045"
    },
    {
      "icao": "EDDS",
      "alert": "OK",
      "vis_m": 9999,
      "fzfg": false,
      "metar_trigger": false,
      "taf_trigger": false,
      "metar": "METAR EDDS 100050Z AUTO 08001KT CAVOK 08/01 Q1014",
      "taf": "TAF EDDS 092300Z 1000/1024 28004KT CAVOK"
    },
    {
      "icao": "EDFH",
      "alert": "OK",
      "vis_m": 9999,
      "fzfg": false,
      "metar_trigger": false,
      "taf_trigger": false,
      "metar": "METAR EDFH 100050Z 25007KT CAVOK 13/08 Q1015",
      "taf": "TAF EDFH 092300Z 1000/1024 20007KT 9999 SCT030"
    },
    {
      "icao": "EDJA",
      "alert": "OK",
      "vis_m": 9999,
      "fzfg": false,
      "metar_trigger": false,
      "taf_trigger": false,
      "metar": "METAR EDJA 100050Z AUTO 19003KT 160V230 9999 // OVC120/// 08/04 Q1016",
      "taf": ""
    },
    {
      "icao": "EDLW",
      "alert": "OK",
      "vis_m": 9999,
      "fzfg": false,
      "metar_trigger": false,
      "taf_trigger": false,
      "metar": "METAR EDLW 100050Z AUTO 27016KT 9999 // BKN013/// OVC032/// 13/11 Q1014",
      "taf": "TAF EDLW 091700Z 0918/1018 09007KT CAVOK"
    },
    {
      "icao": "EDNY",
      "alert": "OK",
      "vis_m": 9999,
      "fzfg": false,
      "metar_trigger": false,
      "taf_trigger": false,
      "metar": "METAR EDNY 100050Z AUTO 11002KT 9999 FEW190/// BKN240/// 08/04 Q1016",
      "taf": "TAF EDNY 091700Z 0918/1003 VRB03KT CAVOK"
    },
    {
      "icao": "EDSB",
      "alert": "OK",
      "vis_m": 9999,
      "fzfg": false,
      "metar_trigger": false,
      "taf_trigger": false,
      "metar": "METAR EDSB 100050Z AUTO 21003KT 9999 // OVC100/// 10/04 Q1015",
      "taf": "TAF EDSB 092300Z 1000/1024 20003KT CAVOK"
    },
    {
      "icao": "EETN",
      "alert": "OK",
      "vis_m": 9999,
      "fzfg": false,
      "metar_trigger": false,
      "taf_trigger": false,
      "metar": "METAR EETN 100050Z 05003KT CAVOK M02/M02 Q1027",
      "taf": "TAF EETN 092330Z 1000/1024 07010KT CAVOK"
    },
    {
      "icao": "EFTU",
      "alert": "OK",
      "vis_m": 9999,
      "fzfg": false,
      "metar_trigger": false,
      "taf_trigger": false,
      "metar": "METAR EFTU 100050Z AUTO 00000KT CAVOK M05/M07 Q1028",
      "taf": "TAF EFTU 092327Z 1000/1024 VRB02KT CAVOK"
    },
    {
      "icao": "EGBB",
      "alert": "OK",
      "vis_m": 9999,
      "fzfg": false,
      "metar_trigger": false,
      "taf_trigger": false,
      "metar": "METAR EGBB 100050Z 25007KT CAVOK 05/00 Q1022",
      "taf": "TAF EGBB 092255Z 1000/1024 28006KT 9999 FEW045"
    },
    {
      "icao": "EGGP",
      "alert": "OK",
      "vis_m": 9999,
      "fzfg": false,
      "metar_trigger": false,
      "taf_trigger": false,
      "metar": "METAR EGGP 100050Z 25012KT 9999 FEW027 SCT033 BKN045 05/01 Q1021",
      "taf": "TAF EGGP 092255Z 1000/1024 28013KT 9999 FEW030"
    },
    {
      "icao": "EGGW",
      "alert": "OK",
      "vis_m": 9999,
      "fzfg": false,
      "metar_trigger": false,
      "taf_trigger": false,
      "metar": "METAR EGGW 100050Z AUTO 26014KT 9999 NCD 05/M00 Q1022",
      "taf": "TAF EGGW 092257Z 1000/1024 27010KT 9999 SCT040"
    },
    {
      "icao": "EGKK",
      "alert": "OK",
      "vis_m": 9999,
      "fzfg": false,
      "metar_trigger": false,
      "taf_trigger": false,
      "metar": "METAR EGKK 100050Z 30014KT CAVOK 08/00 Q1022",
      "taf": "TAF EGKK 092254Z 1000/1106 32012KT CAVOK"
    },
    {
      "icao": "EGNM",
      "alert": "OK",
      "vis_m": 9999,
      "fzfg": false,
      "metar_trigger": false,
      "taf_trigger": false,
      "metar": "METAR EGNM 100050Z 27016KT 9999 FEW030 04/01 Q1017",
      "taf": "TAF EGNM 092256Z 1000/1024 27012KT 9999 FEW025"
    },
    {
      "icao": "EGPD",
      "alert": "OK",
      "vis_m": 9999,
      "fzfg": false,
      "metar_trigger": false,
      "taf_trigger": false,
      "metar": "METAR EGPD 100050Z COR AUTO 27006KT 9999 NCD 04/00 Q1010 NOSIG",
      "taf": "TAF EGPD 092255Z 1000/1024 27009KT 9999 FEW040"
    },
    {
      "icao": "EGPF",
      "alert": "OK",
      "vis_m": 4900,
      "fzfg": false,
      "metar_trigger": false,
      "taf_trigger": false,
      "metar": "METAR EGPF 100050Z AUTO 28017G28KT 250V310 4900 RA SCT017 BKN022 BKN027 05/02 Q1016",
      "taf": ""
    },
    {
      "icao": "EHBK",
      "alert": "OK",
      "vis_m": 9999,
      "fzfg": false,
      "metar_trigger": false,
      "taf_trigger": false,
      "metar": "METAR EHBK 100055Z AUTO 31007KT 260V360 9999 OVC036 11/05 Q1017",
      "taf": "TAF EHBK 092304Z 1000/1106 30010KT 9999 SCT030"
    },
    {
      "icao": "EHEH",
      "alert": "OK",
      "vis_m": 9999,
      "fzfg": false,
      "metar_trigger": false,
      "taf_trigger": false,
      "metar": "METAR EHEH 100055Z AUTO 31006KT 230V010 9999 SCT022 BKN026 OVC170 10/06 Q1017 BLU",
      "taf": "TAF EHEH 092340Z 1000/1106 30010KT 9999 SCT025 BKN045"
    },
    {
      "icao": "EKBI",
      "alert": "OK",
      "vis_m": 9999,
      "fzfg": false,
      "metar_trigger": false,
      "taf_trigger": false,
      "metar": "METAR EKBI 100050Z AUTO 13016G27KT 090V150 9999 SCT078/// OVC100/// 03/M04 Q1014",
      "taf": "TAF EKBI 092327Z 1000/1024 13015KT 9999 BKN045"
    },
    {
      "icao": "EKCH",
      "alert": "OK",
      "vis_m": 9999,
      "fzfg": false,
      "metar_trigger": false,
      "taf_trigger": false,
      "metar": "METAR EKCH 100050Z AUTO 12015KT 9999 NCD 02/M02 Q1021 NOSIG",
      "taf": "TAF EKCH 092327Z 1000/1024 13015KT CAVOK"
    },
    {
      "icao": "ENAL",
      "alert": "OK",
      "vis_m": 9999,
      "fzfg": false,
      "metar_trigger": false,
      "taf_trigger": false,
      "metar": "METAR ENAL 100050Z AUTO 01002KT 9999 -RA OVC041/// 06/05 Q1010",
      "taf": "TAF ENAL 092300Z 1000/1009 35005KT 9999 -RA BKN050"
    },
    {
      "icao": "ENBR",
      "alert": "OK",
      "vis_m": 9999,
      "fzfg": false,
      "metar_trigger": false,
      "taf_trigger": false,
      "metar": "METAR ENBR 100050Z AUTO 15021KT 9999 FEW052/// 07/M03 Q1008 RMK WIND 1200FT 14039KT",
      "taf": "TAF ENBR 092300Z 1000/1024 15020KT 9999 -RA FEW040 SCT050"
    },
    {
      "icao": "ENGM",
      "alert": "OK",
      "vis_m": 9999,
      "fzfg": false,
      "metar_trigger": false,
      "taf_trigger": false,
      "metar": "METAR ENGM 100050Z 09002KT CAVOK M03/M07 Q1019",
      "taf": "TAF ENGM 092300Z 1000/1024 VRB03KT CAVOK"
    },
    {
      "icao": "ENHD",
      "alert": "OK",
      "vis_m": 9999,
      "fzfg": false,
      "metar_trigger": false,
      "taf_trigger": false,
      "metar": "METAR ENHD 100050Z AUTO 16020KT 9999 BKN043/// 06/M00 Q1009",
      "taf": "TAF ENHD 091400Z 0915/0922 14018KT 9999 -RA SCT050"
    },
    {
      "icao": "ENTC",
      "alert": "OK",
      "vis_m": 9999,
      "fzfg": false,
      "metar_trigger": false,
      "taf_trigger": false,
      "metar": "METAR ENTC 100050Z AUTO 27003KT 250V310 9999 NCD 05/M00 Q1015 RMK WIND 2600FT 18009KT",
      "taf": "TAF ENTC 092300Z 1000/1024 20005KT CAVOK"
    },
    {
      "icao": "ENTO",
      "alert": "OK",
      "vis_m": 9999,
      "fzfg": false,
      "metar_trigger": false,
      "taf_trigger": false,
      "metar": "METAR ENTO 100050Z AUTO 00000KT 9999 NCD 03/03 Q1019",
      "taf": "TAF ENTO 092300Z 1000/1024 15008KT CAVOK"
    },
    {
      "icao": "ENVA",
      "alert": "OK",
      "vis_m": 9999,
      "fzfg": false,
      "metar_trigger": false,
      "taf_trigger": false,
      "metar": "METAR ENVA 100050Z AUTO 15017G28KT 110V180 9999 NCD 10/M01 Q1013 RMK WIND 670FT 16021G34KT",
      "taf": "TAF ENVA 092300Z 1000/1024 14015KT CAVOK"
    },
    {
      "icao": "ENZV",
      "alert": "OK",
      "vis_m": 9999,
      "fzfg": false,
      "metar_trigger": false,
      "taf_trigger": false,
      "metar": "METAR ENZV 100050Z AUTO 15026G39KT 9999 NCD 07/M04 Q1009",
      "taf": ""
    },
    {
      "icao": "EPGD",
      "alert": "OK",
      "vis_m": 9999,
      "fzfg": false,
      "metar_trigger": false,
      "taf_trigger": false,
      "metar": "METAR EPGD 100100Z 08002KT CAVOK M02/M02 Q1023",
      "taf": "TAF EPGD 092330Z 1000/1024 VRB02KT CAVOK"
    },
    {
      "icao": "EPKK",
      "alert": "OK",
      "vis_m": 7000,
      "fzfg": false,
      "metar_trigger": false,
      "taf_trigger": false,
      "metar": "METAR EPKK 100100Z 28001KT 7000 FEW031 BKN069 00/M03 Q1020",
      "taf": "TAF EPKK 092330Z 1000/1024 24002KT 7000 BKN030"
    },
    {
      "icao": "EPKT",
      "alert": "OK",
      "vis_m": 5000,
      "fzfg": false,
      "metar_trigger": false,
      "taf_trigger": false,
      "metar": "METAR EPKT 100100Z 06002KT 5000 BR FEW047 M03/M05 Q1019",
      "taf": "TAF EPKT 092330Z 1000/1024 VRB02KT 6000 NSC"
    },
    {
      "icao": "EPLB",
      "alert": "OK",
      "vis_m": 9999,
      "fzfg": false,
      "metar_trigger": false,
      "taf_trigger": false,
      "metar": "METAR EPLB 100100Z 03004KT CAVOK M01/M03 Q1021",
      "taf": "TAF EPLB 092330Z 1000/1024 VRB05KT CAVOK"
    },
    {
      "icao": "EPMO",
      "alert": "OK",
      "vis_m": 9999,
      "fzfg": false,
      "metar_trigger": false,
      "taf_trigger": false,
      "metar": "METAR EPMO 100100Z 06003KT CAVOK M01/M04 Q1022",
      "taf": "TAF EPMO 092330Z 1000/1024 06004KT CAVOK"
    },
    {
      "icao": "EPPO",
      "alert": "OK",
      "vis_m": 9999,
      "fzfg": false,
      "metar_trigger": false,
      "taf_trigger": false,
      "metar": "METAR EPPO 100100Z 07004KT CAVOK M02/M05 Q1021",
      "taf": "TAF EPPO 092330Z 1000/1024 06006KT CAVOK"
    },
    {
      "icao": "EPRA",
      "alert": "OK",
      "vis_m": 9999,
      "fzfg": false,
      "metar_trigger": false,
      "taf_trigger": false,
      "metar": "METAR EPRA 100100Z VRB02KT CAVOK M00/M02 Q1021",
      "taf": "TAF EPRA 092330Z 1000/1009 07005KT 9999 SCT040"
    },
    {
      "icao": "EPRZ",
      "alert": "OK",
      "vis_m": 3000,
      "fzfg": false,
      "metar_trigger": false,
      "taf_trigger": false,
      "metar": "METAR EPRZ 100100Z 28004KT 3000 BR BKN005 00/00 Q1020",
      "taf": ""
    },
    {
      "icao": "EPSC",
      "alert": "OK",
      "vis_m": 9999,
      "fzfg": false,
      "metar_trigger": false,
      "taf_trigger": false,
      "metar": "METAR EPSC 100100Z 10007KT CAVOK M00/M05 Q1021",
      "taf": "TAF EPSC 092330Z 1000/1024 06006KT CAVOK"
    },
    {
      "icao": "EPSY",
      "alert": "OK",
      "vis_m": 9999,
      "fzfg": false,
      "metar_trigger": false,
      "taf_trigger": false,
      "metar": "METAR EPSY 100100Z 03003KT CAVOK M02/M05 Q1022",
      "taf": "TAF EPSY 092330Z 1000/1009 03005KT CAVOK"
    },
    {
      "icao": "EPWA",
      "alert": "OK",
      "vis_m": 9999,
      "fzfg": false,
      "metar_trigger": false,
      "taf_trigger": false,
      "metar": "METAR EPWA 100100Z VRB02KT CAVOK M01/M03 Q1021 NOSIG",
      "taf": "TAF EPWA 092330Z 1000/1024 07006KT CAVOK"
    },
    {
      "icao": "EPWR",
      "alert": "OK",
      "vis_m": 9999,
      "fzfg": false,
      "metar_trigger": false,
      "taf_trigger": false,
      "metar": "METAR EPWR 100100Z VRB01KT CAVOK M03/M05 Q1020",
      "taf": "TAF EPWR 092330Z 1000/1024 VRB02KT CAVOK"
    },
    {
      "icao": "ESGG",
      "alert": "OK",
      "vis_m": 9999,
      "fzfg": false,
      "metar_trigger": false,
      "taf_trigger": false,
      "metar": "METAR ESGG 100050Z 12008KT CAVOK M00/M05 Q1020",
      "taf": "TAF ESGG 092330Z 1000/1024 14009KT CAVOK"
    },
    {
      "icao": "ESKN",
      "alert": "OK",
      "vis_m": 9999,
      "fzfg": false,
      "metar_trigger": false,
      "taf_trigger": false,
      "metar": "METAR ESKN 100050Z 05003KT CAVOK M04/M05 Q1025",
      "taf": "TAF ESKN 092330Z 1000/1024 07004KT CAVOK"
    },
    {
      "icao": "ESMS",
      "alert": "OK",
      "vis_m": 9999,
      "fzfg": false,
      "metar_trigger": false,
      "taf_trigger": false,
      "metar": "METAR ESMS 100050Z 11010KT 9999 OVC016 01/M01 Q1021",
      "taf": "TAF ESMS 092327Z 1000/1024 11010KT CAVOK"
    },
    {
      "icao": "ESSA",
      "alert": "OK",
      "vis_m": 9999,
      "fzfg": false,
      "metar_trigger": false,
      "taf_trigger": false,
      "metar": "METAR ESSA 100050Z 07005KT CAVOK M05/M07 Q1026 NOSIG",
      "taf": "TAF ESSA 092330Z 1000/1024 10004KT CAVOK"
    },
    {
      "icao": "EYKA",
      "alert": "OK",
      "vis_m": 9999,
      "fzfg": false,
      "metar_trigger": false,
      "taf_trigger": false,
      "metar": "METAR EYKA 100050Z 33005KT 9999 OVC043 01/M04 Q1023",
      "taf": "TAF EYKA 092302Z 1000/1024 VRB04KT 9000 BKN040"
    },
    {
      "icao": "EYPA",
      "alert": "OK",
      "vis_m": 9999,
      "fzfg": false,
      "metar_trigger": false,
      "taf_trigger": false,
      "metar": "METAR EYPA 100050Z VRB01KT CAVOK M03/M05 Q1025",
      "taf": "TAF EYPA 092302Z 1000/1024 VRB04KT 9000 NSC"
    },
    {
      "icao": "EYVI",
      "alert": "OK",
      "vis_m": 9999,
      "fzfg": false,
      "metar_trigger": false,
      "taf_trigger": false,
      "metar": "METAR EYVI 100050Z 32004KT 9999 OVC039 00/M03 Q1021 NOSIG",
      "taf": "TAF EYVI 092302Z 1000/1024 VRB04KT 9000 BKN035"
    },
    {
      "icao": "GCFV",
      "alert": "OK",
      "vis_m": 9999,
      "fzfg": false,
      "metar_trigger": false,
      "taf_trigger": false,
      "metar": "METAR GCFV 100100Z AUTO 32010KT CAVOK 17/11 Q1017",
      "taf": ""
    },
    {
      "icao": "GCLP",
      "alert": "OK",
      "vis_m": 9999,
      "fzfg": false,
      "metar_trigger": false,
      "taf_trigger": false,
      "metar": "METAR GCLP 100100Z 35016KT 9999 FEW040 16/12 Q1018 NOSIG",
      "taf": ""
    },
    {
      "icao": "GCTS",
      "alert": "OK",
      "vis_m": 9999,
      "fzfg": false,
      "metar_trigger": false,
      "taf_trigger": false,
      "metar": "METAR GCTS 100100Z 36006KT 330V080 9999 BKN025 16/10 Q1019 NOSIG",
      "taf": "TAF GCTS 092000Z 0921/1021 VRB09KT 9999 SCT030 TX23/1014Z TN15/1006Z"
    },
    {
      "icao": "GMAD",
      "alert": "OK",
      "vis_m": 9999,
      "fzfg": false,
      "metar_trigger": false,
      "taf_trigger": false,
      "metar": "METAR GMAD 100100Z 00000KT 9999 FEW016 SCT026 15/13 Q1012 NOSIG",
      "taf": "TAF GMAD 092300Z 1000/1106 18006KT 6000 SCT020 SCT080"
    },
    {
      "icao": "GMMN",
      "alert": "OK",
      "vis_m": 9999,
      "fzfg": false,
      "metar_trigger": false,
      "taf_trigger": false,
      "metar": "METAR GMMN 100100Z VRB02KT 9999 FEW020 BKN030 11/09 Q1014 NOSIG",
      "taf": "TAF GMMN 092300Z 1000/1106 06006KT 9999 FEW026 SCT100"
    },
    {
      "icao": "GMMX",
      "alert": "OK",
      "vis_m": 6000,
      "fzfg": false,
      "metar_trigger": false,
      "taf_trigger": false,
      "metar": "METAR GMMX 100100Z 26003KT 6000 SCT013 SCT023 11/09 Q1012 NOSIG",
      "taf": "TAF GMMX 092300Z 1000/1106 26008KT 8000 SCT013 BKN023"
    },
    {
      "icao": "HEGN",
      "alert": "OK",
      "vis_m": 9999,
      "fzfg": false,
      "metar_trigger": false,
      "taf_trigger": false,
      "metar": "METAR HEGN 100000Z 29010KT CAVOK 19/M07 Q1014 NOSIG",
      "taf": "TAF HEGN 092300Z 1000/1106 26010KT CAVOK"
    },
    {
      "icao": "HEMA",
      "alert": "OK",
      "vis_m": 9999,
      "fzfg": false,
      "metar_trigger": false,
      "taf_trigger": false,
      "metar": "METAR HEMA 100000Z 24009KT CAVOK 18/09 Q1014 NOSIG",
      "taf": "TAF HEMA 092300Z 1000/1106 27010KT CAVOK"
    },
    {
      "icao": "HESH",
      "alert": "OK",
      "vis_m": 9999,
      "fzfg": false,
      "metar_trigger": false,
      "taf_trigger": false,
      "metar": "METAR HESH 100000Z 34006KT CAVOK 20/13 Q1014 NOSIG",
      "taf": "TAF HESH 092300Z 1000/1106 33010KT CAVOK"
    },
    {
      "icao": "HESX",
      "alert": "OK",
      "vis_m": 9999,
      "fzfg": false,
      "metar_trigger": false,
      "taf_trigger": false,
      "metar": "METAR HESX 100000Z 21006KT CAVOK 15/06 Q1015 NOSIG",
      "taf": "TAF HESX 092300Z 1000/1106 VRB03KT CAVOK"
    },
    {
      "icao": "LATI",
      "alert": "OK",
      "vis_m": 9999,
      "fzfg": false,
      "metar_trigger": false,
      "taf_trigger": false,
      "metar": "METAR LATI 100050Z 16004KT 9999 SCT033 BKN040 07/02 Q1016 NOSIG",
      "taf": "TAF LATI 092300Z 1000/1024 VRB05KT CAVOK TX21/1012Z TN04/1004Z"
    },
    {
      "icao": "LBPD",
      "alert": "OK",
      "vis_m": 9999,
      "fzfg": false,
      "metar_trigger": false,
      "taf_trigger": false,
      "metar": "METAR LBPD 100100Z AUTO 24004KT 9999 BKN076/// 03/01 Q1016",
      "taf": "TAF LBPD 092300Z 1000/1024 29010KT 9999 SCT060"
    },
    {
      "icao": "LBSF",
      "alert": "OK",
      "vis_m": 9999,
      "fzfg": false,
      "metar_trigger": false,
      "taf_trigger": false,
      "metar": "METAR LBSF 100100Z AUTO 29008KT 9999 BKN065/// 02/M04 Q1016 NOSIG",
      "taf": "TAF LBSF 092300Z 1000/1024 VRB03KT 9999 SCT060"
    },
    {
      "icao": "LBWN",
      "alert": "OK",
      "vis_m": 9999,
      "fzfg": false,
      "metar_trigger": false,
      "taf_trigger": false,
      "metar": "METAR LBWN 100100Z AUTO 29004KT 200V320 9999 -SHRA FEW037/// OVC042/// 06/04 Q1016 NOSIG",
      "taf": "TAF LBWN 092300Z 1000/1024 02010KT 9999 SCT025 BKN040"
    },
    {
      "icao": "LCLK",
      "alert": "OK",
      "vis_m": 9999,
      "fzfg": false,
      "metar_trigger": false,
      "taf_trigger": false,
      "metar": "METAR LCLK 100100Z 25007KT CAVOK 15/13 Q1010 NOSIG",
      "taf": "TAF LCLK 092330Z 1000/1100 25009KT 9999 FEW020 SCT050"
    },
    {
      "icao": "LCPH",
      "alert": "OK",
      "vis_m": 9999,
      "fzfg": false,
      "metar_trigger": false,
      "taf_trigger": false,
      "metar": "METAR LCPH 100100Z AUTO 27008KT 250V320 9999 OVC013 17/14 Q1011 NOSIG",
      "taf": "TAF LCPH 092330Z 1000/1100 26007KT 9999 SCT018"
    },
    {
      "icao": "LEAL",
      "alert": "OK",
      "vis_m": 9999,
      "fzfg": false,
      "metar_trigger": false,
      "taf_trigger": false,
      "metar": "METAR LEAL 100100Z VRB01KT CAVOK 18/04 Q1017 NOSIG",
      "taf": "TAF LEAL 092300Z 1000/1024 36004KT CAVOK TX26/1013Z TN14/1006Z"
    },
    {
      "icao": "LEBB",
      "alert": "OK",
      "vis_m": 9999,
      "fzfg": false,
      "metar_trigger": false,
      "taf_trigger": false,
      "metar": "METAR LEBB 100100Z AUTO VRB01KT 9999 BKN018 14/12 Q1023",
      "taf": "TAF LEBB 092300Z 1000/1024 31006KT 9999 FEW010 TX31/1014Z TN11/1006Z"
    },
    {
      "icao": "LEBL",
      "alert": "OK",
      "vis_m": 9999,
      "fzfg": false,
      "metar_trigger": false,
      "taf_trigger": false,
      "metar": "METAR LEBL 100100Z 30006KT 9999 FEW015 15/08 Q1018 NOSIG",
      "taf": "TAF LEBL 092300Z 1000/1024 20005KT 9999 FEW005 TX23/1012Z TN12/1006Z"
    },
    {
      "icao": "LECH",
      "alert": "OK",
      "vis_m": 9000,
      "fzfg": false,
      "metar_trigger": false,
      "taf_trigger": false,
      "metar": "METAR LECH 100100Z AUTO VRB01KT 9000 NCD 13/03 Q1019",
      "taf": "TAF LECH 092300Z 1000/1024 VRB04KT CAVOK TX26/1014Z TN09/1006Z"
    },
    {
      "icao": "LEMD",
      "alert": "OK",
      "vis_m": 9999,
      "fzfg": false,
      "metar_trigger": false,
      "taf_trigger": false,
      "metar": "METAR LEMD 100100Z 35003KT 330V030 CAVOK 15/03 Q1020 NOSIG",
      "taf": "TAF LEMD 092300Z 1000/1106 VRB04KT CAVOK TX29/1015Z TN09/1006Z"
    },
    {
      "icao": "LEMG",
      "alert": "OK",
      "vis_m": 9999,
      "fzfg": false,
      "metar_trigger": false,
      "taf_trigger": false,
      "metar": "METAR LEMG 100100Z 28007KT CAVOK 14/11 Q1013 NOSIG",
      "taf": "TAF LEMG 092300Z 1000/1024 29005KT 9999 FEW020 SCT040 TX24/1014Z TN14/1007Z"
    },
    {
      "icao": "LEVC",
      "alert": "OK",
      "vis_m": 9999,
      "fzfg": false,
      "metar_trigger": false,
      "taf_trigger": false,
      "metar": "METAR LEVC 100100Z 30003KT 250V330 CAVOK 12/06 Q1019 NOSIG",
      "taf": "TAF LEVC 092300Z 1000/1024 29004KT 9999 FEW010 TX26/1013Z TN13/1006Z"
    },
    {
      "icao": "LEXJ",
      "alert": "OK",
      "vis_m": 8000,
      "fzfg": false,
      "metar_trigger": false,
      "taf_trigger": false,
      "metar": "METAR LEXJ 100100Z AUTO 23005KT 8000 OVC017 13/11 Q1023",
      "taf": "TAF LEXJ 092000Z 0921/1021 28007KT 9000 SCT010 TX24/1014Z TN12/1007Z"
    },
    {
      "icao": "LEZG",
      "alert": "OK",
      "vis_m": 9999,
      "fzfg": false,
      "metar_trigger": false,
      "taf_trigger": false,
      "metar": "METAR LEZG 100100Z 28009KT CAVOK 16/06 Q1020 NOSIG",
      "taf": "TAF LEZG 092300Z 1000/1024 29010KT CAVOK TX30/1015Z TN12/1006Z"
    },
    {
      "icao": "LEZL",
      "alert": "OK",
      "vis_m": 8000,
      "fzfg": false,
      "metar_trigger": false,
      "taf_trigger": false,
      "metar": "METAR LEZL 100100Z AUTO 18006KT 8000 NCD 15/13 Q1014",
      "taf": "TAF LEZL 092000Z 0921/1021 21006KT CAVOK TX26/1015Z TN11/1007Z"
    },
    {
      "icao": "LFBD",
      "alert": "OK",
      "vis_m": 750,
      "fzfg": false,
      "metar_trigger": false,
      "taf_trigger": false,
      "metar": "METAR LFBD 100100Z AUTO 24007KT 0750 0650 R23/0800U R05/0900U R29/0800N FG VV/// 14/13 Q1020 TEMPO 0400 FG",
      "taf": "TAF LFBD 092300Z 1000/1106 24008KT 3000 BR BKN002 TX27/1015Z TN12/1005Z"
    },
    {
      "icao": "LFLL",
      "alert": "OK",
      "vis_m": 9999,
      "fzfg": false,
      "metar_trigger": false,
      "taf_trigger": false,
      "metar": "METAR LFLL 100100Z 19003KT 160V270 CAVOK 13/08 Q1017 NOSIG",
      "taf": "TAF LFLL 092300Z 1000/1106 VRB02KT CAVOK"
    },
    {
      "icao": "LFLS",
      "alert": "OK",
      "vis_m": 9999,
      "fzfg": false,
      "metar_trigger": false,
      "taf_trigger": false,
      "metar": "METAR LFLS 100100Z AUTO 09005KT CAVOK 07/05 Q1017",
      "taf": "TAF LFLS 091400Z 0915/1015 09005KT CAVOK"
    },
    {
      "icao": "LFMN",
      "alert": "OK",
      "vis_m": 9999,
      "fzfg": false,
      "metar_trigger": false,
      "taf_trigger": false,
      "metar": "METAR LFMN 100100Z 03005KT 9999 OVC015 15/12 Q1015 NOSIG",
      "taf": "TAF LFMN 092000Z 0921/1103 VRB03KT 9999 FEW012"
    },
    {
      "icao": "LFOB",
      "alert": "OK",
      "vis_m": 9999,
      "fzfg": false,
      "metar_trigger": false,
      "taf_trigger": false,
      "metar": "METAR LFOB 100100Z AUTO 30011KT CAVOK 08/05 Q1021 NOSIG",
      "taf": "TAF LFOB 092300Z 1000/1024 33010KT CAVOK"
    },
    {
      "icao": "LFPO",
      "alert": "OK",
      "vis_m": 9999,
      "fzfg": false,
      "metar_trigger": false,
      "taf_trigger": false,
      "metar": "METAR LFPO 100100Z AUTO 34011KT 300V360 CAVOK 10/05 Q1020 NOSIG",
      "taf": "TAF LFPO 092300Z 1000/1106 33010KT CAVOK"
    },
    {
      "icao": "LFSB",
      "alert": "OK",
      "vis_m": 9999,
      "fzfg": false,
      "metar_trigger": false,
      "taf_trigger": false,
      "metar": "METAR LFSB 100100Z AUTO 11003KT CAVOK 09/06 Q1016 TEMPO SCT080TCU",
      "taf": "TAF LFSB 092300Z 1000/1024 VRB03KT CAVOK"
    },
    {
      "icao": "LGAV",
      "alert": "OK",
      "vis_m": 9999,
      "fzfg": false,
      "metar_trigger": false,
      "taf_trigger": false,
      "metar": "METAR LGAV 100050Z 34002KT 9999 SCT040 10/07 Q1015 NOSIG",
      "taf": "TAF LGAV 092300Z 1000/1024 VRB03KT 9999 SCT030"
    },
    {
      "icao": "LGTS",
      "alert": "OK",
      "vis_m": 9999,
      "fzfg": false,
      "metar_trigger": false,
      "taf_trigger": false,
      "metar": "METAR LGTS 100050Z 11005KT 9999 FEW020 08/05 Q1016 NOSIG",
      "taf": "TAF LGTS 092300Z 1000/1024 34015KT 9999 FEW025"
    },
    {
      "icao": "LHBP",
      "alert": "OK",
      "vis_m": 9999,
      "fzfg": false,
      "metar_trigger": false,
      "taf_trigger": false,
      "metar": "METAR LHBP 100100Z VRB02KT CAVOK M01/M02 Q1019 NOSIG",
      "taf": "TAF LHBP 092315Z 1000/1024 07007KT CAVOK"
    },
    {
      "icao": "LHDC",
      "alert": "OK",
      "vis_m": 9999,
      "fzfg": false,
      "metar_trigger": false,
      "taf_trigger": false,
      "metar": "METAR LHDC 100045Z AUTO 02008KT 340V050 CAVOK 04/M03 Q1018",
      "taf": "TAF LHDC 091415Z 0915/0924 03008KT CAVOK"
    },
    {
      "icao": "LIBD",
      "alert": "OK",
      "vis_m": 9999,
      "fzfg": false,
      "metar_trigger": false,
      "taf_trigger": false,
      "metar": "METAR LIBD 100050Z 23007KT CAVOK 11/03 Q1015",
      "taf": "TAF LIBD 092300Z 1000/1024 22006KT CAVOK"
    },
    {
      "icao": "LIBG",
      "alert": "OK",
      "vis_m": null,
      "fzfg": false,
      "metar_trigger": false,
      "taf_trigger": false,
      "metar": "",
      "taf": "TAF LIBG 091400Z 0915/0924 01012KT CAVOK"
    },
    {
      "icao": "LIBP",
      "alert": "OK",
      "vis_m": 9999,
      "fzfg": false,
      "metar_trigger": false,
      "taf_trigger": false,
      "metar": "METAR LIBP 100050Z AUTO 23004KT 9999 NCD 08/07 Q1015",
      "taf": "TAF LIBP 092300Z 1000/1024 VRB05KT CAVOK"
    },
    {
      "icao": "LIBR",
      "alert": "OK",
      "vis_m": 9999,
      "fzfg": false,
      "metar_trigger": false,
      "taf_trigger": false,
      "metar": "METAR LIBR 100050Z 24004KT CAVOK 10/04 Q1015",
      "taf": "TAF LIBR 092300Z 1000/1024 VRB05KT CAVOK"
    },
    {
      "icao": "LICA",
      "alert": "OK",
      "vis_m": 9999,
      "fzfg": false,
      "metar_trigger": false,
      "taf_trigger": false,
      "metar": "METAR LICA 100050Z AUTO 20002KT 9999 NCD 08/07 Q1017",
      "taf": "TAF LICA 092300Z 1000/1024 26005KT CAVOK"
    },
    {
      "icao": "LICC",
      "alert": "OK",
      "vis_m": 9999,
      "fzfg": false,
      "metar_trigger": false,
      "taf_trigger": false,
      "metar": "METAR LICC 100050Z 26005KT CAVOK 09/04 Q1017",
      "taf": "TAF LICC 092300Z 1000/1024 VRB05KT CAVOK"
    },
    {
      "icao": "LICJ",
      "alert": "OK",
      "vis_m": 9999,
      "fzfg": false,
      "metar_trigger": false,
      "taf_trigger": false,
      "metar": "METAR LICJ 100050Z 21003KT CAVOK 14/06 Q1017",
      "taf": "TAF LICJ 092300Z 1000/1024 VRB05KT CAVOK"
    },
    {
      "icao": "LIMC",
      "alert": "OK",
      "vis_m": 9999,
      "fzfg": false,
      "metar_trigger": false,
      "taf_trigger": false,
      "metar": "METAR LIMC 100050Z 05003KT 020V090 CAVOK 13/08 Q1015 NOSIG",
      "taf": "TAF LIMC 092300Z 1000/1106 VRB05KT CAVOK"
    },
    {
      "icao": "LIME",
      "alert": "OK",
      "vis_m": 9999,
      "fzfg": false,
      "metar_trigger": false,
      "taf_trigger": false,
      "metar": "METAR LIME 100050Z 02003KT CAVOK 10/07 Q1015 NOSIG",
      "taf": "TAF LIME 092300Z 1000/1024 VRB05KT CAVOK"
    },
    {
      "icao": "LIMF",
      "alert": "OK",
      "vis_m": 9999,
      "fzfg": false,
      "metar_trigger": false,
      "taf_trigger": false,
      "metar": "METAR LIMF 100050Z 34006KT CAVOK 15/09 Q1015",
      "taf": "TAF LIMF 092300Z 1000/1024 VRB05KT CAVOK"
    },
    {
      "icao": "LIMJ",
      "alert": "OK",
      "vis_m": 9999,
      "fzfg": false,
      "metar_trigger": false,
      "taf_trigger": false,
      "metar": "METAR LIMJ 100050Z VRB01KT CAVOK 13/11 Q1015",
      "taf": "TAF LIMJ 092300Z 1000/1024 VRB05KT 9000 FEW014"
    },
    {
      "icao": "LIPE",
      "alert": "OK",
      "vis_m": 9999,
      "fzfg": false,
      "metar_trigger": false,
      "taf_trigger": false,
      "metar": "METAR LIPE 100050Z VRB01KT CAVOK 09/M03 Q1015",
      "taf": "TAF LIPE 092300Z 1000/1024 VRB05KT CAVOK"
    },
    {
      "icao": "LIPH",
      "alert": "OK",
      "vis_m": null,
      "fzfg": false,
      "metar_trigger": false,
      "taf_trigger": false,
      "metar": "",
      "taf": "TAF LIPH 092300Z 1000/1024 VRB05KT CAVOK"
    },
    {
      "icao": "LIPQ",
      "alert": "OK",
      "vis_m": 9999,
      "fzfg": false,
      "metar_trigger": false,
      "taf_trigger": false,
      "metar": "METAR LIPQ 100050Z AUTO 04002KT 9999 NCD 05/04 Q1016",
      "taf": "TAF LIPQ 092300Z 1000/1024 VRB05KT CAVOK"
    },
    {
      "icao": "LIPR",
      "alert": "OK",
      "vis_m": 9999,
      "fzfg": false,
      "metar_trigger": false,
      "taf_trigger": false,
      "metar": "METAR LIPR 100050Z AUTO 22003KT 9999 BKN057/// 11/09 Q1015",
      "taf": "TAF LIPR 092300Z 1000/1024 VRB05KT CAVOK"
    },
    {
      "icao": "LIPX",
      "alert": "OK",
      "vis_m": 9999,
      "fzfg": false,
      "metar_trigger": false,
      "taf_trigger": false,
      "metar": "METAR LIPX 100050Z 34003KT CAVOK 09/07 Q1015",
      "taf": "TAF LIPX 092300Z 1000/1024 VRB05KT 9999 FEW040"
    },
    {
      "icao": "LIPY",
      "alert": "OK",
      "vis_m": 9999,
      "fzfg": false,
      "metar_trigger": false,
      "taf_trigger": false,
      "metar": "METAR LIPY 100050Z AUTO VRB02KT 9999 OVC073/// 11/08 Q1015",
      "taf": "TAF LIPY 092300Z 1000/1024 VRB05KT CAVOK"
    },
    {
      "icao": "LIPZ",
      "alert": "OK",
      "vis_m": 9999,
      "fzfg": false,
      "metar_trigger": false,
      "taf_trigger": false,
      "metar": "METAR LIPZ 100050Z 05004KT CAVOK 10/07 Q1016 NOSIG",
      "taf": "TAF LIPZ 092300Z 1000/1106 VRB05KT CAVOK"
    },
    {
      "icao": "LIRF",
      "alert": "OK",
      "vis_m": 7000,
      "fzfg": false,
      "metar_trigger": false,
      "taf_trigger": false,
      "metar": "METAR LIRF 100050Z 08004KT 7000 NSC 09/09 Q1016 TEMPO 4000 BCFG",
      "taf": "TAF LIRF 092300Z 1000/1106 VRB05KT CAVOK"
    },
    {
      "icao": "LIRN",
      "alert": "OK",
      "vis_m": 9999,
      "fzfg": false,
      "metar_trigger": false,
      "taf_trigger": false,
      "metar": "METAR LIRN 100050Z AUTO 06002KT 9999 NCD 12/11 Q1017",
      "taf": "TAF LIRN 092300Z 1000/1024 VRB05KT 9999 SCT015"
    },
    {
      "icao": "LIRP",
      "alert": "OK",
      "vis_m": 8000,
      "fzfg": false,
      "metar_trigger": false,
      "taf_trigger": false,
      "metar": "METAR LIRP 100045Z 11005KT 8000 MIFG NSC 09/08 Q1015 TEMPO 5000",
      "taf": "TAF LIRP 092300Z 1000/1024 12004KT 5000 BR FEW010"
    },
    {
      "icao": "LIRZ",
      "alert": "OK",
      "vis_m": 9999,
      "fzfg": false,
      "metar_trigger": false,
      "taf_trigger": false,
      "metar": "METAR LIRZ 100050Z AUTO 35003KT 9999 NCD 07/04 Q1016",
      "taf": "TAF LIRZ 092300Z 1000/1024 VRB05KT CAVOK"
    },
    {
      "icao": "LJLJ",
      "alert": "OK",
      "vis_m": 9999,
      "fzfg": false,
      "metar_trigger": false,
      "taf_trigger": false,
      "metar": "METAR LJLJ 100100Z 33002KT CAVOK 01/M01 Q1017 NOSIG",
      "taf": "TAF LJLJ 092300Z 1000/1100 VRB02KT CAVOK"
    },
    {
      "icao": "LKMT",
      "alert": "OK",
      "vis_m": 9999,
      "fzfg": false,
      "metar_trigger": false,
      "taf_trigger": false,
      "metar": "METAR LKMT 100100Z VRB02KT CAVOK M03/M04 Q1020 NOSIG",
      "taf": "TAF LKMT 092300Z 1000/1024 VRB02KT CAVOK"
    },
    {
      "icao": "LKPR",
      "alert": "OK",
      "vis_m": 9999,
      "fzfg": false,
      "metar_trigger": false,
      "taf_trigger": false,
      "metar": "METAR LKPR 100100Z 09004KT CAVOK 00/M05 Q1018 NOSIG",
      "taf": "TAF LKPR 092300Z 1000/1106 10006KT CAVOK"
    },
    {
      "icao": "LLBG",
      "alert": "OK",
      "vis_m": 9999,
      "fzfg": false,
      "metar_trigger": false,
      "taf_trigger": false,
      "metar": "METAR LLBG 100050Z VRB01KT CAVOK 13/10 Q1014 NOSIG",
      "taf": "TAF LLBG 092314Z 1000/1024 VRB04KT 9999 SCT025 TX22/1011Z TN13/1003Z"
    },
    {
      "icao": "LMML",
      "alert": "OK",
      "vis_m": 9999,
      "fzfg": false,
      "metar_trigger": false,
      "taf_trigger": false,
      "metar": "METAR LMML 100045Z 22006KT CAVOK 15/10 Q1017 NOSIG",
      "taf": "TAF LMML 092300Z 1000/1024 28008KT CAVOK ."
    },
    {
      "icao": "LOWW",
      "alert": "OK",
      "vis_m": 9999,
      "fzfg": false,
      "metar_trigger": false,
      "taf_trigger": false,
      "metar": "METAR LOWW 100050Z 36005KT CAVOK 00/M04 Q1019 NOSIG",
      "taf": "TAF LOWW 092315Z 1000/1106 36008KT CAVOK TX06/1011Z TN01/1004Z"
    },
    {
      "icao": "LPFR",
      "alert": "OK",
      "vis_m": 9999,
      "fzfg": false,
      "metar_trigger": false,
      "taf_trigger": false,
      "metar": "METAR LPFR 100100Z 26006KT 9999 FEW010 15/13 Q1014",
      "taf": "TAF LPFR 092300Z 1000/1024 03008KT 9999 SCT030"
    },
    {
      "icao": "LPMA",
      "alert": "OK",
      "vis_m": 9999,
      "fzfg": false,
      "metar_trigger": false,
      "taf_trigger": false,
      "metar": "METAR LPMA 100100Z 36018G28KT 9999 BKN015 FEW016TCU 16/12 Q1019",
      "taf": "TAF LPMA 092300Z 1000/1024 36015KT 9999 SCT015"
    },
    {
      "icao": "LPPR",
      "alert": "OK",
      "vis_m": 9999,
      "fzfg": false,
      "metar_trigger": false,
      "taf_trigger": false,
      "metar": "METAR LPPR 100100Z VRB02KT CAVOK 15/13 Q1015",
      "taf": "TAF LPPR 092300Z 1000/1024 VRB02KT CAVOK"
    },
    {
      "icao": "LPPS",
      "alert": "OK",
      "vis_m": 9999,
      "fzfg": false,
      "metar_trigger": false,
      "taf_trigger": false,
      "metar": "METAR LPPS 100100Z 36009KT 9999 SCT010 BKN030 14/13 Q1019",
      "taf": "TAF LPPS 092300Z 1000/1106 34015KT 9999 SCT012 SCT030"
    },
    {
      "icao": "LPPT",
      "alert": "OK",
      "vis_m": 9999,
      "fzfg": false,
      "metar_trigger": false,
      "taf_trigger": false,
      "metar": "METAR LPPT 100100Z 31006KT 270V340 CAVOK 18/12 Q1012",
      "taf": "TAF LPPT 092300Z 1000/1106 23007KT 9999 SCT030"
    },
    {
      "icao": "LQBK",
      "alert": "OK",
      "vis_m": 9999,
      "fzfg": false,
      "metar_trigger": false,
      "taf_trigger": false,
      "metar": "METAR LQBK 100100Z 15003KT CAVOK 01/M02 Q1018 NOSIG",
      "taf": "TAF LQBK 092300Z 1000/1024 17005KT CAVOK TX16/1013Z TNM00/1004Z"
    },
    {
      "icao": "LQSA",
      "alert": "OK",
      "vis_m": 9999,
      "fzfg": false,
      "metar_trigger": false,
      "taf_trigger": false,
      "metar": "METAR LQSA 100100Z 17003KT CAVOK M00/M04 Q1018",
      "taf": "TAF LQSA 092300Z 1000/1024 32006KT 9999 SCT060 TX17/1014Z TNM02/1005Z"
    },
    {
      "icao": "LQTZ",
      "alert": "OK",
      "vis_m": 9999,
      "fzfg": false,
      "metar_trigger": false,
      "taf_trigger": false,
      "metar": "METAR LQTZ 100100Z 06002KT CAVOK M01/M02 Q1018",
      "taf": "TAF LQTZ 092300Z 1000/1024 VRB02KT CAVOK TX15/1013Z TNM02/1004Z"
    },
    {
      "icao": "LRBC",
      "alert": "OK",
      "vis_m": 9999,
      "fzfg": false,
      "metar_trigger": false,
      "taf_trigger": false,
      "metar": "METAR LRBC 100100Z 33010KT 9999 SCT041 02/M03 Q1018",
      "taf": "TAF LRBC 092300Z 1000/1009 34012KT 9999 SCT035"
    },
    {
      "icao": "LRBS",
      "alert": "OK",
      "vis_m": 9999,
      "fzfg": false,
      "metar_trigger": false,
      "taf_trigger": false,
      "metar": "METAR LRBS 100100Z 07006KT 9999 FEW038 05/02 Q1017 NOSIG",
      "taf": "TAF LRBS 092300Z 1000/1024 VRB04KT CAVOK"
    },
    {
      "icao": "LRBV",
      "alert": "OK",
      "vis_m": 2600,
      "fzfg": false,
      "metar_trigger": false,
      "taf_trigger": false,
      "metar": "METAR LRBV 100100Z AUTO 09008KT 2600 +SN FEW003/// SCT013/// BKN019/// M01/M01 Q1016 RESN",
      "taf": "TAF LRBV 092000Z 0921/1006 29006KT 9999 SCT020 BKN040"
    },
    {
      "icao": "LRCL",
      "alert": "OK",
      "vis_m": 9999,
      "fzfg": false,
      "metar_trigger": false,
      "taf_trigger": false,
      "metar": "METAR LRCL 100100Z VRB02KT 9999 FEW063 M01/M04 Q1018",
      "taf": "TAF LRCL 092300Z 1000/1009 VRB04KT CAVOK"
    },
    {
      "icao": "LRCV",
      "alert": "OK",
      "vis_m": 9999,
      "fzfg": false,
      "metar_trigger": false,
      "taf_trigger": false,
      "metar": "METAR LRCV 100100Z 04005KT CAVOK 04/03 Q1017",
      "taf": "TAF LRCV 092300Z 1000/1009 VRB04KT CAVOK"
    },
    {
      "icao": "LRIA",
      "alert": "OK",
      "vis_m": 5000,
      "fzfg": false,
      "metar_trigger": false,
      "taf_trigger": false,
      "metar": "METAR LRIA 100100Z 30009KT 5000 -SNRA SCT004 OVC025 01/00 Q1017",
      "taf": "TAF LRIA 092300Z 1000/1009 31011KT 9999 OVC010"
    },
    {
      "icao": "LROP",
      "alert": "OK",
      "vis_m": 9999,
      "fzfg": false,
      "metar_trigger": false,
      "taf_trigger": false,
      "metar": "METAR LROP 100100Z 10006KT 9999 -RA SCT040 05/M01 Q1017 NOSIG",
      "taf": "TAF LROP 092300Z 1000/1024 VRB04KT CAVOK"
    },
    {
      "icao": "LRSB",
      "alert": "OK",
      "vis_m": 9999,
      "fzfg": false,
      "metar_trigger": false,
      "taf_trigger": false,
      "metar": "METAR LRSB 100100Z 29004KT 250V320 9999 BKN060 01/M01 Q1016",
      "taf": "TAF LRSB 092300Z 1000/1024 VRB04KT 9999 SCT045"
    },
    {
      "icao": "LRSM",
      "alert": "OK",
      "vis_m": 9999,
      "fzfg": false,
      "metar_trigger": false,
      "taf_trigger": false,
      "metar": "METAR LRSM 100100Z AUTO 09003KT 9999 NCD M02/M05 Q1018",
      "taf": "TAF LRSM 092000Z 0921/1006 35006KT CAVOK"
    },
    {
      "icao": "LRSV",
      "alert": "OK",
      "vis_m": 9999,
      "fzfg": false,
      "metar_trigger": false,
      "taf_trigger": false,
      "metar": "METAR LRSV 100100Z 31008KT 9999 -SN BKN030 00/M01 Q1017",
      "taf": "TAF LRSV 092300Z 1000/1009 32010KT 9999 SCT025"
    },
    {
      "icao": "LRTM",
      "alert": "OK",
      "vis_m": 9999,
      "fzfg": false,
      "metar_trigger": false,
      "taf_trigger": false,
      "metar": "METAR LRTM 100100Z VRB02KT 9999 SCT044 M01/M02 Q1017",
      "taf": "TAF LRTM 092300Z 1000/1009 VRB04KT CAVOK"
    },
    {
      "icao": "LRTR",
      "alert": "OK",
      "vis_m": 9999,
      "fzfg": false,
      "metar_trigger": false,
      "taf_trigger": false,
      "metar": "METAR LRTR 100100Z 13004KT CAVOK 02/01 Q1017 NOSIG",
      "taf": "TAF LRTR 092300Z 1000/1024 VRB04KT CAVOK"
    },
    {
      "icao": "LTAC",
      "alert": "OK",
      "vis_m": 9999,
      "fzfg": false,
      "metar_trigger": false,
      "taf_trigger": false,
      "metar": "METAR LTAC 100050Z 22004KT 9999 SCT040 BKN180 00/M02 Q1012 NOSIG RMK RWY21C 19003KT 150V270 RWY03L 23004KT 200V280 RWY21R VRB02KT RWY03R 20003KT 160V230 RWY21L 17004KT",
      "taf": "TAF LTAC 092240Z 1000/1024 VRB02KT 9999 SCT040 BKN100"
    },
    {
      "icao": "LTFM",
      "alert": "OK",
      "vis_m": 9999,
      "fzfg": false,
      "metar_trigger": false,
      "taf_trigger": false,
      "metar": "METAR LTFM 100050Z VRB02KT 9999 SCT035 BKN090 07/02 Q1015 NOSIG RMK RWY17L VRB01KT RWY34L 36003KT RWY16R VRB01KT RWY36 04004KT 350V090 RWY18 VRB02KT",
      "taf": "TAF LTFM 092240Z 1000/1106 VRB02KT 9999 SCT035 BKN090"
    },
    {
      "icao": "LUKK",
      "alert": "OK",
      "vis_m": 9999,
      "fzfg": false,
      "metar_trigger": false,
      "taf_trigger": false,
      "metar": "METAR LUKK 100100Z 34005KT 9999 -RA FEW007 OVC020 03/02 Q1016 TEMPO BKN008",
      "taf": "TAF LUKK 092325Z 1000/1024 32008KT 9999 BKN015"
    },
    {
      "icao": "LWOH",
      "alert": "OK",
      "vis_m": null,
      "fzfg": false,
      "metar_trigger": false,
      "taf_trigger": false,
      "metar": "",
      "taf": "TAF LWOH 092310Z 1000/1024 34005KT CAVOK"
    },
    {
      "icao": "LWSK",
      "alert": "OK",
      "vis_m": 9999,
      "fzfg": false,
      "metar_trigger": false,
      "taf_trigger": false,
      "metar": "METAR LWSK 100050Z 03005KT 290V050 CAVOK 04/M02 Q1018 NOSIG",
      "taf": "TAF LWSK 092310Z 1000/1024 35008KT CAVOK"
    },
    {
      "icao": "LYBE",
      "alert": "OK",
      "vis_m": 9999,
      "fzfg": false,
      "metar_trigger": false,
      "taf_trigger": false,
      "metar": "METAR LYBE 100100Z 20006KT CAVOK 04/00 Q1017 NOSIG",
      "taf": "TAF LYBE 092300Z 1000/1024 23005KT CAVOK TX13/1013Z TN01/1004Z"
    },
    {
      "icao": "LYNI",
      "alert": "OK",
      "vis_m": 9999,
      "fzfg": false,
      "metar_trigger": false,
      "taf_trigger": false,
      "metar": "METAR LYNI 100100Z VRB01KT 9999 SCT050 BKN080 04/M01 Q1018 NOSIG",
      "taf": "TAF LYNI 092300Z 1000/1024 02005KT 9999 SCT060 TX15/1012Z TN00/1004Z"
    },
    {
      "icao": "LYPG",
      "alert": "OK",
      "vis_m": 9999,
      "fzfg": false,
      "metar_trigger": false,
      "taf_trigger": false,
      "metar": "METAR LYPG 100100Z 30003KT 230V340 CAVOK 10/M02 Q1015 NOSIG",
      "taf": "TAF LYPG 092300Z 1000/1024 36005KT CAVOK TX22/1013Z TN06/1004Z"
    },
    {
      "icao": "LZIB",
      "alert": "OK",
      "vis_m": 9999,
      "fzfg": false,
      "metar_trigger": false,
      "taf_trigger": false,
      "metar": "METAR LZIB 100100Z 03005KT CAVOK 01/M05 Q1019 NOSIG",
      "taf": "TAF LZIB 092315Z 1000/1100 04007KT CAVOK"
    },
    {
      "icao": "LZKZ",
      "alert": "OK",
      "vis_m": 9999,
      "fzfg": false,
      "metar_trigger": false,
      "taf_trigger": false,
      "metar": "METAR LZKZ 100100Z VRB02KT CAVOK 01/M05 Q1019 NOSIG",
      "taf": "TAF LZKZ 092315Z 1000/1100 01009KT CAVOK"
    },
    {
      "icao": "LZTT",
      "alert": "OK",
      "vis_m": 9999,
      "fzfg": false,
      "metar_trigger": false,
      "taf_trigger": false,
      "metar": "METAR LZTT 100100Z 00000KT 9999 FEW030 BKN053 M05/M07 Q1017",
      "taf": "TAF LZTT 092315Z 1000/1100 07007KT 9999 BKN045"
    },
    {
      "icao": "OEJN",
      "alert": "OK",
      "vis_m": 9999,
      "fzfg": false,
      "metar_trigger": false,
      "taf_trigger": false,
      "metar": "METAR OEJN 100100Z 36003KT CAVOK 21/11 Q1011 NOSIG",
      "taf": "TAF OEJN 092300Z 1000/1106 VRB03KT CAVOK"
    },
    {
      "icao": "OEMA",
      "alert": "OK",
      "vis_m": 9999,
      "fzfg": false,
      "metar_trigger": false,
      "taf_trigger": false,
      "metar": "METAR OEMA 100100Z 06006KT CAVOK 21/M04 Q1016 NOSIG",
      "taf": "TAF OEMA 092300Z 1000/1106 06005KT CAVOK"
    },
    {
      "icao": "OJAI",
      "alert": "OK",
      "vis_m": 4000,
      "fzfg": false,
      "metar_trigger": false,
      "taf_trigger": false,
      "metar": "METAR OJAI 100000Z 24005KT 4000 HZ NSC 11/08 Q1016 NOSIG",
      "taf": "TAF OJAI 092300Z 1000/1106 25012KT 5000 HZ NSC"
    },
    {
      "icao": "OMAA",
      "alert": "OK",
      "vis_m": null,
      "fzfg": false,
      "metar_trigger": false,
      "taf_trigger": false,
      "metar": "",
      "taf": ""
    },
    {
      "icao": "OMDB",
      "alert": "OK",
      "vis_m": null,
      "fzfg": false,
      "metar_trigger": false,
      "taf_trigger": false,
      "metar": "",
      "taf": ""
    },
    {
      "icao": "UAAA",
      "alert": "OK",
      "vis_m": 9999,
      "fzfg": false,
      "metar_trigger": false,
      "taf_trigger": false,
      "metar": "METAR UAAA 100100Z 12002MPS 9999 BKN050CB OVC100 10/09 Q1020 NOSIG",
      "taf": "TAF UAAA 092302Z 1000/1024 16003G08MPS 9999 BKN050CB OVC100 TX18/1008Z TN08/1001Z"
    },
    {
      "icao": "UBBB",
      "alert": "OK",
      "vis_m": 9999,
      "fzfg": false,
      "metar_trigger": false,
      "taf_trigger": false,
      "metar": "METAR UBBB 100100Z 00000KT CAVOK 07/06 Q1016 NOSIG",
      "taf": "TAF UBBB 092301Z 1000/1024 34006KT CAVOK TX15/1010Z TN07/1001Z"
    },
    {
      "icao": "UDSG",
      "alert": "OK",
      "vis_m": 3000,
      "fzfg": false,
      "metar_trigger": false,
      "taf_trigger": false,
      "metar": "METAR UDSG 100100Z 02003KT 3000 -SHSN BR BKN020CB 00/00 Q1012 NOSIG",
      "taf": ""
    },
    {
      "icao": "UDYZ",
      "alert": "OK",
      "vis_m": 9999,
      "fzfg": false,
      "metar_trigger": false,
      "taf_trigger": false,
      "metar": "METAR UDYZ 100100Z VRB01KT 9999 BKN043CB 07/04 Q1011 NOSIG",
      "taf": "TAF UDYZ 092300Z 1000/1024 03006KT 9999 OVC040"
    },
    {
      "icao": "UGKO",
      "alert": "OK",
      "vis_m": 9999,
      "fzfg": false,
      "metar_trigger": false,
      "taf_trigger": false,
      "metar": "METAR UGKO 100100Z VRB02KT 9999 BKN077 07/01 Q1012 NOSIG",
      "taf": "TAF UGKO 092300Z 1000/1024 08010KT 9999 SCT020 OVC050 TX12/1011Z TN05/1003Z"
    }
  ]
}