{
  "ts_utc": "2026-01-30T14:52:30Z",
  "threshold_m": 150,
  "source": "stations_override.txt (ICAO list) + aviationweather.gov (METAR/TAF raw)",
  "station_count": 159,
  "stations": [
    {
      "icao": "BIKF",
      "alert": "OK",
      "vis_m": 9999,
      "fzfg": false,
      "metar_trigger": false,
      "taf_trigger": false,
      "metar": "METAR BIKF 301430Z 00000KT CAVOK 03/02 Q0999",
      "taf": "TAF BIKF 301332Z 3015/3115 02008KT 9999 FEW040 TX03/3015Z TNM02/3023Z"
    },
    {
      "icao": "BKPR",
      "alert": "OK",
      "vis_m": 9999,
      "fzfg": false,
      "metar_trigger": false,
      "taf_trigger": false,
      "metar": "METAR BKPR 301430Z VRB01KT 9999 SCT015 BKN040 08/05 Q1000 NOSIG",
      "taf": "TAF BKPR 301130Z 3012/3112 01007KT 9999 SCT015 BKN030"
    },
    {
      "icao": "EBCI",
      "alert": "OK",
      "vis_m": 7000,
      "fzfg": false,
      "metar_trigger": false,
      "taf_trigger": false,
      "metar": "METAR EBCI 301420Z COR 15008KT 7000 FEW005 BKN007 04/03 Q0994 NOSIG",
      "taf": "TAF EBCI 301108Z 3012/3118 17007KT 9999 BKN012"
    },
    {
      "icao": "EDDB",
      "alert": "OK",
      "vis_m": 2700,
      "fzfg": false,
      "metar_trigger": false,
      "taf_trigger": false,
      "metar": "METAR EDDB 301420Z AUTO 09009KT 070V130 2700 SN BR OVC010 M01/M03 Q1005 TEMPO 2500 -SN",
      "taf": "TAF EDDB 301100Z 3012/3112 09010KT 5000 -SN OVC010"
    },
    {
      "icao": "EDDH",
      "alert": "OK",
      "vis_m": 9999,
      "fzfg": false,
      "metar_trigger": false,
      "taf_trigger": false,
      "metar": "METAR EDDH 301420Z AUTO 11012KT 070V130 9999 OVC013 M02/M04 Q1004 NOSIG",
      "taf": "TAF EDDH 301100Z 3012/3118 10012KT 9000 OVC012"
    },
    {
      "icao": "EDDK",
      "alert": "OK",
      "vis_m": 9999,
      "fzfg": false,
      "metar_trigger": false,
      "taf_trigger": false,
      "metar": "METAR EDDK 301420Z COR AUTO 12007KT 090V150 9999 OVC015 03/00 Q0998 NOSIG",
      "taf": "TAF EDDK 301100Z 3012/3118 12009KT 9999 OVC013"
    },
    {
      "icao": "EDDN",
      "alert": "OK",
      "vis_m": 9999,
      "fzfg": false,
      "metar_trigger": false,
      "taf_trigger": false,
      "metar": "METAR EDDN 301420Z AUTO 17009KT 9999 BKN009 BKN031 01/M01 Q1001",
      "taf": "TAF EDDN 301100Z 3012/3112 13005KT 8000 BKN005 BKN030"
    },
    {
      "icao": "EDDS",
      "alert": "OK",
      "vis_m": 9999,
      "fzfg": false,
      "metar_trigger": false,
      "taf_trigger": false,
      "metar": "METAR EDDS 301420Z AUTO 11003KT 090V160 9999 FEW018 BKN024 04/01 Q0998 NOSIG",
      "taf": "TAF EDDS 301100Z 3012/3112 VRB03KT 9000 BKN020"
    },
    {
      "icao": "EDFH",
      "alert": "OK",
      "vis_m": 1500,
      "fzfg": true,
      "metar_trigger": false,
      "taf_trigger": false,
      "metar": "METAR EDFH 301420Z 14012KT 1500 0600SW R21/P2000N BR OVC001 01/00 Q0996",
      "taf": "TAF EDFH 301100Z 3012/3112 14014KT 0600 FZFG VV003"
    },
    {
      "icao": "EDJA",
      "alert": "OK",
      "vis_m": 9999,
      "fzfg": false,
      "metar_trigger": false,
      "taf_trigger": false,
      "metar": "METAR EDJA 301420Z 22005KT CAVOK 03/M01 Q0999",
      "taf": "TAF EDJA 301400Z 3015/3024 19003KT CAVOK"
    },
    {
      "icao": "EDLW",
      "alert": "OK",
      "vis_m": 9999,
      "fzfg": false,
      "metar_trigger": false,
      "taf_trigger": false,
      "metar": "METAR EDLW 301420Z 11006KT 060V180 CAVOK 05/00 Q0997",
      "taf": "TAF EDLW 301100Z 3012/3112 11007KT CAVOK"
    },
    {
      "icao": "EDNY",
      "alert": "OK",
      "vis_m": 9999,
      "fzfg": false,
      "metar_trigger": false,
      "taf_trigger": false,
      "metar": "METAR EDNY 301420Z 15003KT 9999 -SN OVC006 02/01 Q1000",
      "taf": "TAF EDNY 301400Z 3015/3024 VRB03KT 9000 BKN006"
    },
    {
      "icao": "EDSB",
      "alert": "OK",
      "vis_m": 8000,
      "fzfg": false,
      "metar_trigger": false,
      "taf_trigger": false,
      "metar": "METAR EDSB 301420Z 07003KT 020V120 8000 OVC024 02/02 Q0999",
      "taf": "TAF EDSB 301100Z 3012/3112 VRB03KT 6000 BKN008 OVC020"
    },
    {
      "icao": "EETN",
      "alert": "OK",
      "vis_m": 9999,
      "fzfg": false,
      "metar_trigger": false,
      "taf_trigger": false,
      "metar": "METAR EETN 301450Z 11002KT CAVOK M14/M15 Q1027 NOSIG",
      "taf": "TAF EETN 301130Z 3012/3112 12003KT 9999 SCT004"
    },
    {
      "icao": "EFTU",
      "alert": "OK",
      "vis_m": 9999,
      "fzfg": false,
      "metar_trigger": false,
      "taf_trigger": false,
      "metar": "METAR EFTU 301420Z AUTO 07005KT CAVOK M11/M14 Q1027",
      "taf": "TAF EFTU 301435Z 3015/3115 07005KT CAVOK"
    },
    {
      "icao": "EGBB",
      "alert": "OK",
      "vis_m": 9999,
      "fzfg": false,
      "metar_trigger": false,
      "taf_trigger": false,
      "metar": "METAR EGBB 301420Z 13011KT 9999 BKN015 09/07 Q0985",
      "taf": ""
    },
    {
      "icao": "EGGP",
      "alert": "OK",
      "vis_m": 7000,
      "fzfg": false,
      "metar_trigger": false,
      "taf_trigger": false,
      "metar": "METAR EGGP 301420Z 12011KT 7000 BKN007 BKN012 06/05 Q0985",
      "taf": ""
    },
    {
      "icao": "EGGW",
      "alert": "OK",
      "vis_m": 9999,
      "fzfg": false,
      "metar_trigger": false,
      "taf_trigger": false,
      "metar": "METAR EGGW 301420Z AUTO 15010KT 9999 BKN016 BKN021 OVC040 09/06 Q0987",
      "taf": "TAF EGGW 301105Z 3012/3112 15008KT 3000 -RA BR BKN002"
    },
    {
      "icao": "EGKK",
      "alert": "OK",
      "vis_m": 9999,
      "fzfg": false,
      "metar_trigger": false,
      "taf_trigger": false,
      "metar": "METAR EGKK 301420Z 14008KT 9999 FEW015 SCT024 10/08 Q0988",
      "taf": "TAF EGKK 301054Z 3012/3118 19008KT 9999 SCT015"
    },
    {
      "icao": "EGNM",
      "alert": "OK",
      "vis_m": 400,
      "fzfg": false,
      "metar_trigger": false,
      "taf_trigger": false,
      "metar": "METAR EGNM 301420Z 09009KT 0400 R14/P1500N -DZ FG VV/// 04/04 Q0987",
      "taf": "TAF EGNM 301100Z 3012/3112 10009KT 6000 BKN004"
    },
    {
      "icao": "EGPD",
      "alert": "OK",
      "vis_m": 9999,
      "fzfg": false,
      "metar_trigger": false,
      "taf_trigger": false,
      "metar": "METAR EGPD 301420Z AUTO 12016KT 9999 SCT014 BKN019 BKN024 04/02 Q0994 TEMPO BKN014",
      "taf": "TAF EGPD 301101Z 3012/3112 13015G25KT 9999 SCT018 BKN030"
    },
    {
      "icao": "EGPF",
      "alert": "OK",
      "vis_m": 9999,
      "fzfg": false,
      "metar_trigger": false,
      "taf_trigger": false,
      "metar": "METAR EGPF 301420Z AUTO 08017KT 9999 BKN023 OVC029 06/01 Q0988",
      "taf": ""
    },
    {
      "icao": "EHBK",
      "alert": "OK",
      "vis_m": 9999,
      "fzfg": false,
      "metar_trigger": false,
      "taf_trigger": false,
      "metar": "METAR EHBK 301425Z COR AUTO 11008KT 9999 OVC024/// 06/03 Q0995 TEMPO -RADZ",
      "taf": "TAF EHBK 301117Z 3012/3118 12005KT CAVOK"
    },
    {
      "icao": "EHEH",
      "alert": "OK",
      "vis_m": null,
      "fzfg": false,
      "metar_trigger": false,
      "taf_trigger": false,
      "metar": "",
      "taf": "TAF EHEH 301153Z 3012/3118 12007KT 9000 SCT008"
    },
    {
      "icao": "EKBI",
      "alert": "OK",
      "vis_m": 9999,
      "fzfg": false,
      "metar_trigger": false,
      "taf_trigger": false,
      "metar": "METAR EKBI 301420Z AUTO 09016KT 9999 OVC011/// M01/M02 Q1006",
      "taf": "TAF EKBI 301427Z 3015/3115 09015KT 9999 BKN016"
    },
    {
      "icao": "EKCH",
      "alert": "OK",
      "vis_m": 9999,
      "fzfg": false,
      "metar_trigger": false,
      "taf_trigger": false,
      "metar": "METAR EKCH 301420Z 09019KT 9999 -SN OVC014 M00/M03 Q1011 BECMG BKN015",
      "taf": "TAF EKCH 301427Z 3015/3115 09018KT 9999 -SN OVC015"
    },
    {
      "icao": "ENAL",
      "alert": "OK",
      "vis_m": 9999,
      "fzfg": false,
      "metar_trigger": false,
      "taf_trigger": false,
      "metar": "METAR ENAL 301420Z 14014KT 9999 FEW040 M01/M12 Q1011",
      "taf": "TAF ENAL 301400Z 3015/3024 14008KT 9999 FEW045"
    },
    {
      "icao": "ENBR",
      "alert": "OK",
      "vis_m": 9999,
      "fzfg": false,
      "metar_trigger": false,
      "taf_trigger": false,
      "metar": "METAR ENBR 301420Z 00000KT CAVOK M03/M10 Q1010 NOSIG RMK WIND 1200FT 33004KT",
      "taf": "TAF ENBR 301100Z 3012/3112 08004KT CAVOK"
    },
    {
      "icao": "ENGM",
      "alert": "OK",
      "vis_m": 9999,
      "fzfg": false,
      "metar_trigger": false,
      "taf_trigger": false,
      "metar": "METAR ENGM 301420Z 01007KT 9999 -SN OVC030 M07/M09 Q1018 NOSIG",
      "taf": "TAF ENGM 301100Z 3012/3112 02008KT 9999 -SN BKN030"
    },
    {
      "icao": "ENHD",
      "alert": "OK",
      "vis_m": 9999,
      "fzfg": false,
      "metar_trigger": false,
      "taf_trigger": false,
      "metar": "METAR ENHD 301420Z 09012KT CAVOK M02/M13 Q1009",
      "taf": "TAF ENHD 301400Z 3015/3023 10015KT CAVOK"
    },
    {
      "icao": "ENTC",
      "alert": "OK",
      "vis_m": 9999,
      "fzfg": false,
      "metar_trigger": false,
      "taf_trigger": false,
      "metar": "METAR ENTC 301420Z 07005KT 030V200 CAVOK M08/M11 Q1021 TEMPO 18010KT RMK WIND 2600FT 17038KT",
      "taf": "TAF ENTC 301100Z 3012/3112 18008KT CAVOK"
    },
    {
      "icao": "ENTO",
      "alert": "OK",
      "vis_m": 9999,
      "fzfg": false,
      "metar_trigger": false,
      "taf_trigger": false,
      "metar": "METAR ENTO 301420Z 04007KT 9999 SCT028 OVC036 M04/M08 Q1016 NOSIG",
      "taf": "TAF ENTO 301100Z 3012/3112 02010KT 9999 -SN FEW012 BKN030"
    },
    {
      "icao": "ENVA",
      "alert": "OK",
      "vis_m": 9999,
      "fzfg": false,
      "metar_trigger": false,
      "taf_trigger": false,
      "metar": "METAR ENVA 301420Z 13014KT 100V160 CAVOK M04/M15 Q1015 NOSIG RMK WIND 670FT 16026G38KT",
      "taf": "TAF ENVA 301100Z 3012/3112 13009KT CAVOK"
    },
    {
      "icao": "ENZV",
      "alert": "OK",
      "vis_m": 9999,
      "fzfg": false,
      "metar_trigger": false,
      "taf_trigger": false,
      "metar": "METAR ENZV 301420Z 10010KT 060V140 9999 SCT046 M01/M12 Q1009 NOSIG",
      "taf": ""
    },
    {
      "icao": "EPGD",
      "alert": "OK",
      "vis_m": 9999,
      "fzfg": false,
      "metar_trigger": false,
      "taf_trigger": false,
      "metar": "METAR EPGD 301430Z 06009KT 9999 BKN006 M08/M09 Q1013",
      "taf": "TAF EPGD 301130Z 3012/3112 07012KT 9999 OVC004"
    },
    {
      "icao": "EPKK",
      "alert": "OK",
      "vis_m": 5000,
      "fzfg": false,
      "metar_trigger": false,
      "taf_trigger": false,
      "metar": "METAR EPKK 301430Z 07012KT 5000 BR OVC006 M01/M02 Q1004",
      "taf": "TAF EPKK 301430Z 3015/3115 06012KT 5000 BR BKN007"
    },
    {
      "icao": "EPKT",
      "alert": "OK",
      "vis_m": 9000,
      "fzfg": false,
      "metar_trigger": false,
      "taf_trigger": false,
      "metar": "METAR EPKT 301430Z 06011KT 9000 SCT009 OVC010 M01/M03 Q1004",
      "taf": "TAF EPKT 301130Z 3012/3112 07010KT 9999 OVC010"
    },
    {
      "icao": "EPLB",
      "alert": "OK",
      "vis_m": 9000,
      "fzfg": false,
      "metar_trigger": false,
      "taf_trigger": false,
      "metar": "METAR EPLB 301430Z 06013KT 9000 OVC009 M05/M06 Q1009",
      "taf": "TAF EPLB 301130Z 3012/3112 08011KT 7000 OVC008"
    },
    {
      "icao": "EPMO",
      "alert": "OK",
      "vis_m": 9999,
      "fzfg": false,
      "metar_trigger": false,
      "taf_trigger": false,
      "metar": "METAR EPMO 301430Z 07015KT 9999 SCT015 M06/M08 Q1011",
      "taf": ""
    },
    {
      "icao": "EPPO",
      "alert": "OK",
      "vis_m": 6000,
      "fzfg": false,
      "metar_trigger": false,
      "taf_trigger": false,
      "metar": "METAR EPPO 301430Z 07011KT 6000 FEW010 OVC028 M04/M06 Q1008",
      "taf": "TAF EPPO 301130Z 3012/3112 08010KT 6000 BKN009"
    },
    {
      "icao": "EPRA",
      "alert": "OK",
      "vis_m": 9999,
      "fzfg": false,
      "metar_trigger": false,
      "taf_trigger": false,
      "metar": "METAR EPRA 301430Z 06012KT 9999 OVC010 M05/M07 Q1009",
      "taf": "TAF EPRA 301430Z 3015/3024 08010KT 8000 OVC011"
    },
    {
      "icao": "EPRZ",
      "alert": "OK",
      "vis_m": 9999,
      "fzfg": false,
      "metar_trigger": false,
      "taf_trigger": false,
      "metar": "METAR EPRZ 301430Z 05014KT 9999 OVC006 M01/M03 Q1006",
      "taf": "TAF EPRZ 301130Z 3012/3112 06012KT 9999 BKN010"
    },
    {
      "icao": "EPSC",
      "alert": "OK",
      "vis_m": 8000,
      "fzfg": false,
      "metar_trigger": false,
      "taf_trigger": false,
      "metar": "METAR EPSC 301430Z 07008KT 8000 BKN007 M04/M05 Q1009",
      "taf": "TAF EPSC 301130Z 3012/3112 08012KT 9999 SCT008 OVC025"
    },
    {
      "icao": "EPSY",
      "alert": "OK",
      "vis_m": 9999,
      "fzfg": false,
      "metar_trigger": false,
      "taf_trigger": false,
      "metar": "METAR EPSY 301430Z 07008KT 030V110 9999 SCT045 M10/M13 Q1013",
      "taf": "TAF EPSY 301430Z 3015/3024 07006KT CAVOK"
    },
    {
      "icao": "EPWA",
      "alert": "OK",
      "vis_m": 9999,
      "fzfg": false,
      "metar_trigger": false,
      "taf_trigger": false,
      "metar": "METAR EPWA 301430Z 06012KT 9999 BKN013 M05/M07 Q1010 NOSIG",
      "taf": "TAF EPWA 301430Z 3015/3115 07011KT 9999 OVC013"
    },
    {
      "icao": "EPWR",
      "alert": "OK",
      "vis_m": 9000,
      "fzfg": false,
      "metar_trigger": false,
      "taf_trigger": false,
      "metar": "METAR EPWR 301430Z 08011KT 9000 BKN014 OVC026 M00/M03 Q1005",
      "taf": "TAF EPWR 301430Z 3015/3115 08010KT 9999 OVC013"
    },
    {
      "icao": "ESGG",
      "alert": "OK",
      "vis_m": 9999,
      "fzfg": false,
      "metar_trigger": false,
      "taf_trigger": false,
      "metar": "METAR ESGG 301420Z 10012KT 9999 BKN031 M04/M11 Q1014",
      "taf": "TAF ESGG 301430Z 3015/3115 10011KT 9999 BKN030"
    },
    {
      "icao": "ESKN",
      "alert": "OK",
      "vis_m": 9999,
      "fzfg": false,
      "metar_trigger": false,
      "taf_trigger": false,
      "metar": "METAR ESKN 301420Z 12010KT 9999 BKN033 M03/M09 Q1021",
      "taf": "TAF ESKN 301430Z 3015/3115 12010KT 9999 BKN035"
    },
    {
      "icao": "ESMS",
      "alert": "OK",
      "vis_m": 9000,
      "fzfg": false,
      "metar_trigger": false,
      "taf_trigger": false,
      "metar": "METAR ESMS 301420Z 09019KT 9000 OVC010 M01/M03 Q1010",
      "taf": "TAF ESMS 301427Z 3015/3115 09018KT 9999 -SN OVC018"
    },
    {
      "icao": "ESSA",
      "alert": "OK",
      "vis_m": 9999,
      "fzfg": false,
      "metar_trigger": false,
      "taf_trigger": false,
      "metar": "METAR ESSA 301420Z 12008KT 9999 SCT035 M04/M11 Q1023 NOSIG",
      "taf": "TAF ESSA 301430Z 3015/3115 12009KT 9999 BKN035"
    },
    {
      "icao": "EYKA",
      "alert": "OK",
      "vis_m": 9999,
      "fzfg": false,
      "metar_trigger": false,
      "taf_trigger": false,
      "metar": "METAR EYKA 301450Z 04007KT 010V070 CAVOK M10/M13 Q1019",
      "taf": "TAF EYKA 301100Z 3012/3112 07007KT 8000 NSC"
    },
    {
      "icao": "EYPA",
      "alert": "OK",
      "vis_m": 9999,
      "fzfg": false,
      "metar_trigger": false,
      "taf_trigger": false,
      "metar": "METAR EYPA 301450Z 07008KT CAVOK M10/M17 Q1020",
      "taf": "TAF EYPA 301100Z 3012/3112 09009KT 8000 NSC"
    },
    {
      "icao": "EYVI",
      "alert": "OK",
      "vis_m": 9999,
      "fzfg": false,
      "metar_trigger": false,
      "taf_trigger": false,
      "metar": "METAR EYVI 301450Z 05008KT CAVOK M12/M15 Q1018 NOSIG",
      "taf": "TAF EYVI 301100Z 3012/3112 06010KT 9000 NSC"
    },
    {
      "icao": "GCFV",
      "alert": "OK",
      "vis_m": 9999,
      "fzfg": false,
      "metar_trigger": false,
      "taf_trigger": false,
      "metar": "METAR GCFV 301430Z 34017KT 300V010 9999 SCT025 22/14 Q1024",
      "taf": "TAF GCFV 301400Z 3015/3115 01014KT 9999 FEW025 TX23/3114Z TN18/3106Z"
    },
    {
      "icao": "GCLP",
      "alert": "OK",
      "vis_m": 9999,
      "fzfg": false,
      "metar_trigger": false,
      "taf_trigger": false,
      "metar": "METAR GCLP 301430Z 36020KT 9999 FEW025 22/14 Q1024 NOSIG",
      "taf": "TAF GCLP 301400Z 3015/3115 01020KT 9999 FEW025 TX22/3114Z TN17/3106Z"
    },
    {
      "icao": "GCTS",
      "alert": "OK",
      "vis_m": 9999,
      "fzfg": false,
      "metar_trigger": false,
      "taf_trigger": false,
      "metar": "METAR GCTS 301430Z 19006KT 150V250 9999 BKN025 21/15 Q1025 NOSIG",
      "taf": "TAF GCTS 301400Z 3015/3115 12012KT 9999 BKN025 TX23/3114Z TN14/3106Z"
    },
    {
      "icao": "GMAD",
      "alert": "OK",
      "vis_m": 8000,
      "fzfg": false,
      "metar_trigger": false,
      "taf_trigger": false,
      "metar": "METAR GMAD 301430Z 23006KT 190V250 8000 BKN026 20/17 Q1021 NOSIG",
      "taf": "TAF GMAD 301100Z 3012/3118 22003KT 8000 SCT010 BKN020"
    },
    {
      "icao": "GMMN",
      "alert": "OK",
      "vis_m": 5000,
      "fzfg": false,
      "metar_trigger": false,
      "taf_trigger": false,
      "metar": "METAR GMMN 301430Z 25012KT 5000 FEW006 BKN013 17/15 Q1021 BECMG 5000 RA",
      "taf": "TAF GMMN 301100Z 3012/3118 24012KT 9999 BKN011"
    },
    {
      "icao": "GMMX",
      "alert": "OK",
      "vis_m": 9999,
      "fzfg": false,
      "metar_trigger": false,
      "taf_trigger": false,
      "metar": "METAR GMMX 301430Z 30003KT 240V350 9999 SCT016 BKN020 17/14 Q1022 NOSIG",
      "taf": "TAF GMMX 301100Z 3012/3118 36006KT 8000 SCT020 SCT080"
    },
    {
      "icao": "HEGN",
      "alert": "OK",
      "vis_m": 9999,
      "fzfg": false,
      "metar_trigger": false,
      "taf_trigger": false,
      "metar": "METAR HEGN 301400Z 12005KT CAVOK 23/11 Q1014 NOSIG",
      "taf": "TAF HEGN 301100Z 3012/3118 08008KT CAVOK"
    },
    {
      "icao": "HEMA",
      "alert": "OK",
      "vis_m": 9999,
      "fzfg": false,
      "metar_trigger": false,
      "taf_trigger": false,
      "metar": "METAR HEMA 301400Z 05006KT CAVOK 23/07 Q1013 NOSIG",
      "taf": "TAF HEMA 301100Z 3012/3118 07008KT CAVOK"
    },
    {
      "icao": "HESH",
      "alert": "OK",
      "vis_m": 9999,
      "fzfg": false,
      "metar_trigger": false,
      "taf_trigger": false,
      "metar": "METAR HESH 301400Z 35008KT CAVOK 23/10 Q1013 NOSIG",
      "taf": "TAF HESH 301100Z 3012/3118 05008KT CAVOK"
    },
    {
      "icao": "HESX",
      "alert": "OK",
      "vis_m": 6000,
      "fzfg": false,
      "metar_trigger": false,
      "taf_trigger": false,
      "metar": "METAR HESX 301400Z 24020KT 6000 NSC 24/02 Q1010 NOSIG",
      "taf": "TAF HESX 301100Z 3012/3118 20012KT 9999 SCT025"
    },
    {
      "icao": "LATI",
      "alert": "OK",
      "vis_m": 9999,
      "fzfg": false,
      "metar_trigger": false,
      "taf_trigger": false,
      "metar": "METAR LATI 301450Z 17007KT 9999 FEW030 BKN070 12/05 Q1001 NOSIG",
      "taf": ""
    },
    {
      "icao": "LBPD",
      "alert": "OK",
      "vis_m": 9999,
      "fzfg": false,
      "metar_trigger": false,
      "taf_trigger": false,
      "metar": "METAR LBPD 301430Z AUTO 30006KT 9999 OVC089/// 11/05 Q0999 NOSIG",
      "taf": "TAF LBPD 301100Z 3012/3112 27012KT 9999 SCT030 BKN050"
    },
    {
      "icao": "LBSF",
      "alert": "OK",
      "vis_m": 9999,
      "fzfg": false,
      "metar_trigger": false,
      "taf_trigger": false,
      "metar": "METAR LBSF 301430Z 29008KT 9999 SCT022 BKN069 OVC086 07/03 Q1000 NOSIG",
      "taf": "TAF LBSF 301100Z 3012/3112 28010KT 9999 FEW012 SCT030 BKN050"
    },
    {
      "icao": "LBWN",
      "alert": "OK",
      "vis_m": 9999,
      "fzfg": false,
      "metar_trigger": false,
      "taf_trigger": false,
      "metar": "METAR LBWN 301430Z 27012G23KT 250V310 9999 -RA BKN014 OVC025 04/03 Q0999 NOSIG",
      "taf": "TAF LBWN 301100Z 3012/3112 34012KT 9999 -RA SCT018 OVC025"
    },
    {
      "icao": "LCLK",
      "alert": "OK",
      "vis_m": 9999,
      "fzfg": false,
      "metar_trigger": false,
      "taf_trigger": false,
      "metar": "METAR LCLK 301430Z 22018KT 9999 FEW030 18/13 Q1007 NOSIG",
      "taf": "TAF LCLK 301130Z 3012/3112 24020KT 8000 FEW030"
    },
    {
      "icao": "LCPH",
      "alert": "OK",
      "vis_m": 9999,
      "fzfg": false,
      "metar_trigger": false,
      "taf_trigger": false,
      "metar": "METAR LCPH 301430Z 27016KT 250V320 9999 FEW025 SCT050 17/12 Q1008 NOSIG",
      "taf": "TAF LCPH 301130Z 3012/3112 26018KT 9999 FEW020 SCT030"
    },
    {
      "icao": "LEAL",
      "alert": "OK",
      "vis_m": 9999,
      "fzfg": false,
      "metar_trigger": false,
      "taf_trigger": false,
      "metar": "METAR LEAL 301400Z 18007KT 150V210 CAVOK 20/05 Q1008 NOSIG",
      "taf": "TAF LEAL 301100Z 3012/3112 27009KT CAVOK TX20/3014Z TN11/3106Z"
    },
    {
      "icao": "LEBB",
      "alert": "OK",
      "vis_m": 9999,
      "fzfg": false,
      "metar_trigger": false,
      "taf_trigger": false,
      "metar": "METAR LEBB 301430Z 22004KT 120V280 9999 FEW040 BKN060 14/07 Q1000 NOSIG",
      "taf": "TAF LEBB 301100Z 3012/3112 22009KT 9999 FEW040 TX14/3013Z TN05/3101Z"
    },
    {
      "icao": "LEBL",
      "alert": "OK",
      "vis_m": 9999,
      "fzfg": false,
      "metar_trigger": false,
      "taf_trigger": false,
      "metar": "METAR LEBL 301430Z 25019KT 9999 FEW020 SCT060 16/08 Q1003 NOSIG",
      "taf": ""
    },
    {
      "icao": "LECH",
      "alert": "OK",
      "vis_m": 9999,
      "fzfg": false,
      "metar_trigger": false,
      "taf_trigger": false,
      "metar": "METAR LECH 301430Z AUTO 19010KT 160V220 CAVOK 16/03 Q1004",
      "taf": ""
    },
    {
      "icao": "LEMD",
      "alert": "OK",
      "vis_m": 9999,
      "fzfg": false,
      "metar_trigger": false,
      "taf_trigger": false,
      "metar": "METAR LEMD 301430Z 21019KT 9999 FEW030 SCT044 11/05 Q1006 NOSIG",
      "taf": "TAF LEMD 301100Z 3012/3118 22010KT 9999 SCT020 TX11/3015Z TN04/3106Z"
    },
    {
      "icao": "LEMG",
      "alert": "OK",
      "vis_m": 9999,
      "fzfg": false,
      "metar_trigger": false,
      "taf_trigger": false,
      "metar": "METAR LEMG 301430Z 17002KT 9999 SCT070 19/10 Q1013 NOSIG",
      "taf": "TAF LEMG 301100Z 3012/3112 29010KT 9999 BKN050 TX21/3015Z TN12/3106Z"
    },
    {
      "icao": "LEVC",
      "alert": "OK",
      "vis_m": 9999,
      "fzfg": false,
      "metar_trigger": false,
      "taf_trigger": false,
      "metar": "METAR LEVC 301430Z 25017KT 220V290 9999 FEW059 17/05 Q1006 NOSIG",
      "taf": "TAF LEVC 301100Z 3012/3112 26010KT CAVOK TX18/3014Z TN10/3106Z"
    },
    {
      "icao": "LEXJ",
      "alert": "OK",
      "vis_m": 8000,
      "fzfg": false,
      "metar_trigger": false,
      "taf_trigger": false,
      "metar": "METAR LEXJ 301430Z VRB02KT 8000 -RA BKN057 OVC077 13/08 Q1000",
      "taf": ""
    },
    {
      "icao": "LEZG",
      "alert": "OK",
      "vis_m": 9999,
      "fzfg": false,
      "metar_trigger": false,
      "taf_trigger": false,
      "metar": "METAR LEZG 301430Z 24018KT 9999 FEW060 13/04 Q1003 NOSIG",
      "taf": "TAF LEZG 301100Z 3012/3112 25012KT CAVOK TX15/3013Z TN06/3106Z"
    },
    {
      "icao": "LEZL",
      "alert": "OK",
      "vis_m": 9999,
      "fzfg": false,
      "metar_trigger": false,
      "taf_trigger": false,
      "metar": "METAR LEZL 301430Z 23012KT 200V270 9999 -RA FEW015 BKN020 BKN040 18/15 Q1013 NOSIG",
      "taf": "TAF LEZL 301400Z 3015/3115 23010KT 9999 BKN020 TX18/3015Z TN10/3107Z"
    },
    {
      "icao": "LFBD",
      "alert": "OK",
      "vis_m": 9999,
      "fzfg": false,
      "metar_trigger": false,
      "taf_trigger": false,
      "metar": "METAR LFBD 301430Z AUTO 21013KT 9999 -RA FEW037/// BKN052/// BKN068/// ///TCU 13/07 Q0998 TEMPO 21015G30KT 3000 SHRA BKN015TCU SCT020CB",
      "taf": "TAF LFBD 301100Z 3012/3118 21010KT 9999 BKN030 TX13/3013Z TN06/3106Z"
    },
    {
      "icao": "LFLL",
      "alert": "OK",
      "vis_m": 9999,
      "fzfg": false,
      "metar_trigger": false,
      "taf_trigger": false,
      "metar": "METAR LFLL 301430Z 13007KT 9999 FEW033 SCT058 12/07 Q1001 NOSIG",
      "taf": "TAF LFLL 301100Z 3012/3118 16008KT 9999 BKN045"
    },
    {
      "icao": "LFLS",
      "alert": "OK",
      "vis_m": 9999,
      "fzfg": false,
      "metar_trigger": false,
      "taf_trigger": false,
      "metar": "METAR LFLS 301430Z AUTO 08011KT CAVOK 08/05 Q1001 NOSIG",
      "taf": "TAF LFLS 301400Z 3015/3115 09008KT 9999 SCT040"
    },
    {
      "icao": "LFMN",
      "alert": "OK",
      "vis_m": 9999,
      "fzfg": false,
      "metar_trigger": false,
      "taf_trigger": false,
      "metar": "METAR LFMN 301430Z 13004KT 100V160 9999 BKN056 SCT260 13/07 Q0999 NOSIG",
      "taf": "TAF LFMN 301400Z 3015/3121 14005KT 9999 FEW025 BKN050"
    },
    {
      "icao": "LFOB",
      "alert": "OK",
      "vis_m": 9999,
      "fzfg": false,
      "metar_trigger": false,
      "taf_trigger": false,
      "metar": "METAR LFOB 301430Z AUTO 18009KT 150V220 9999 BKN022 BKN030 BKN078 11/07 Q0993 TEMPO 4500 RA BKN014 OVC040",
      "taf": "TAF LFOB 301100Z 3012/3112 18008KT 9999 BKN020"
    },
    {
      "icao": "LFPO",
      "alert": "OK",
      "vis_m": 9999,
      "fzfg": false,
      "metar_trigger": false,
      "taf_trigger": false,
      "metar": "METAR LFPO 301430Z 19009KT 160V220 9999 SCT019 SCT033 11/07 Q0994 NOSIG",
      "taf": "TAF LFPO 301100Z 3012/3118 19010KT 9999 SCT012"
    },
    {
      "icao": "LFSB",
      "alert": "OK",
      "vis_m": 9999,
      "fzfg": false,
      "metar_trigger": false,
      "taf_trigger": false,
      "metar": "METAR LFSB 301430Z AUTO 13009KT 9999 FEW019 SCT027 BKN032 06/04 Q0999 TEMPO RA",
      "taf": "TAF LFSB 301100Z 3012/3112 13007KT 8000 BKN030"
    },
    {
      "icao": "LGAV",
      "alert": "OK",
      "vis_m": 9999,
      "fzfg": false,
      "metar_trigger": false,
      "taf_trigger": false,
      "metar": "METAR LGAV 301420Z 24008KT 9999 FEW025 16/06 Q1002 NOSIG",
      "taf": "TAF LGAV 301100Z 3012/3112 25012KT 9999 SCT020"
    },
    {
      "icao": "LGTS",
      "alert": "OK",
      "vis_m": 9999,
      "fzfg": false,
      "metar_trigger": false,
      "taf_trigger": false,
      "metar": "METAR LGTS 301420Z VRB03KT 9999 FEW025 15/07 Q0999 NOSIG",
      "taf": "TAF LGTS 301100Z 3012/3112 34008KT 9999 FEW025"
    },
    {
      "icao": "LHBP",
      "alert": "OK",
      "vis_m": 6000,
      "fzfg": false,
      "metar_trigger": false,
      "taf_trigger": false,
      "metar": "METAR LHBP 301430Z 33003KT 6000 -RA FEW003 OVC016 05/04 Q1002 TEMPO BKN004",
      "taf": "TAF LHBP 301115Z 3012/3112 33005KT 5000 -RADZ BR SCT002 OVC020"
    },
    {
      "icao": "LHDC",
      "alert": "OK",
      "vis_m": 1900,
      "fzfg": false,
      "metar_trigger": false,
      "taf_trigger": false,
      "metar": "METAR LHDC 301415Z AUTO 03006KT 1900 -DZ BR OVC004 03/03 Q1001 BECMG 1200 DZ BR",
      "taf": "TAF LHDC 301415Z 3015/3024 03008KT 7000 -DZ OVC012"
    },
    {
      "icao": "LIBD",
      "alert": "OK",
      "vis_m": 9999,
      "fzfg": false,
      "metar_trigger": false,
      "taf_trigger": false,
      "metar": "METAR LIBD 301420Z 03004KT 340V070 CAVOK 13/06 Q1000",
      "taf": "TAF LIBD 301100Z 3012/3112 02010KT CAVOK"
    },
    {
      "icao": "LIBG",
      "alert": "OK",
      "vis_m": 9999,
      "fzfg": false,
      "metar_trigger": false,
      "taf_trigger": false,
      "metar": "METAR LIBG 301350Z 20004KT 170V230 CAVOK 15/05 Q1000",
      "taf": "TAF LIBG 301400Z 3015/3024 VRB05KT CAVOK"
    },
    {
      "icao": "LIBP",
      "alert": "OK",
      "vis_m": 9999,
      "fzfg": false,
      "metar_trigger": false,
      "taf_trigger": false,
      "metar": "METAR LIBP 301420Z AUTO 05005KT 020V110 9999 NCD 12/08 Q1000",
      "taf": "TAF LIBP 301100Z 3012/3112 VRB05KT CAVOK"
    },
    {
      "icao": "LIBR",
      "alert": "OK",
      "vis_m": 9999,
      "fzfg": false,
      "metar_trigger": false,
      "taf_trigger": false,
      "metar": "METAR LIBR 301420Z 07004KT 040V100 9999 FEW045 13/06 Q1000",
      "taf": "TAF LIBR 301100Z 3012/3112 VRB05KT CAVOK"
    },
    {
      "icao": "LICA",
      "alert": "OK",
      "vis_m": 4100,
      "fzfg": false,
      "metar_trigger": false,
      "taf_trigger": false,
      "metar": "METAR LICA 301420Z AUTO 35005KT 4100 RA BR OVC029/// 11/10 Q1001",
      "taf": "TAF LICA 301100Z 3012/3112 26010KT 8000 SCT015"
    },
    {
      "icao": "LICC",
      "alert": "OK",
      "vis_m": 9999,
      "fzfg": false,
      "metar_trigger": false,
      "taf_trigger": false,
      "metar": "METAR LICC 301420Z 25017KT 9999 FEW030 SCT060 18/14 Q1000",
      "taf": "TAF LICC 301100Z 3012/3112 27012KT 9999 SCT020"
    },
    {
      "icao": "LICJ",
      "alert": "OK",
      "vis_m": 9999,
      "fzfg": false,
      "metar_trigger": false,
      "taf_trigger": false,
      "metar": "METAR LICJ 301420Z 26019KT 9999 VCSH SCT020 BKN030 15/12 Q1002",
      "taf": "TAF LICJ 301100Z 3012/3112 27016G26KT 9999 FEW025"
    },
    {
      "icao": "LIMC",
      "alert": "OK",
      "vis_m": 9999,
      "fzfg": false,
      "metar_trigger": false,
      "taf_trigger": false,
      "metar": "METAR LIMC 301420Z 22005KT 200V260 9999 SCT020 09/04 Q1000 NOSIG",
      "taf": "TAF LIMC 301100Z 3012/3118 VRB05KT 8000 BKN020"
    },
    {
      "icao": "LIME",
      "alert": "OK",
      "vis_m": 7000,
      "fzfg": false,
      "metar_trigger": false,
      "taf_trigger": false,
      "metar": "METAR LIME 301420Z 17005KT 7000 SCT020 09/04 Q1000 NOSIG",
      "taf": "TAF LIME 301100Z 3012/3112 VRB04KT 8000 SCT015"
    },
    {
      "icao": "LIMF",
      "alert": "OK",
      "vis_m": 5000,
      "fzfg": false,
      "metar_trigger": false,
      "taf_trigger": false,
      "metar": "METAR LIMF 301420Z VRB02KT 5000 BR BKN140 06/03 Q1000",
      "taf": "TAF LIMF 301100Z 3012/3112 VRB04KT 4000 BR BKN004"
    },
    {
      "icao": "LIMJ",
      "alert": "OK",
      "vis_m": 9999,
      "fzfg": false,
      "metar_trigger": false,
      "taf_trigger": false,
      "metar": "METAR LIMJ 301420Z 06011KT 9999 FEW020 BKN035 11/04 Q0999",
      "taf": "TAF LIMJ 301100Z 3012/3112 04012KT 9999 SCT030"
    },
    {
      "icao": "LIPE",
      "alert": "OK",
      "vis_m": 5000,
      "fzfg": false,
      "metar_trigger": false,
      "taf_trigger": false,
      "metar": "METAR LIPE 301420Z 23003KT 190V280 5000 BR BKN013 08/05 Q1001",
      "taf": "TAF LIPE 301100Z 3012/3112 VRB04KT 6000 BKN010"
    },
    {
      "icao": "LIPH",
      "alert": "OK",
      "vis_m": 9999,
      "fzfg": false,
      "metar_trigger": false,
      "taf_trigger": false,
      "metar": "METAR LIPH 301420Z 18005KT 140V220 9999 SCT015 09/07 Q1000",
      "taf": "TAF LIPH 301100Z 3012/3112 VRB04KT 6000 BKN010"
    },
    {
      "icao": "LIPQ",
      "alert": "OK",
      "vis_m": 9999,
      "fzfg": false,
      "metar_trigger": false,
      "taf_trigger": false,
      "metar": "METAR LIPQ 301420Z AUTO 26003KT 190V310 9999 NCD 11/06 Q1000",
      "taf": "TAF LIPQ 301100Z 3012/3112 VRB04KT 9999 SCT040"
    },
    {
      "icao": "LIPR",
      "alert": "OK",
      "vis_m": 5000,
      "fzfg": false,
      "metar_trigger": false,
      "taf_trigger": false,
      "metar": "METAR LIPR 301420Z VRB02KT 5000 BR BKN003 04/04 Q1001",
      "taf": "TAF LIPR 301100Z 3012/3112 VRB05KT 0300 FG OVC001"
    },
    {
      "icao": "LIPX",
      "alert": "OK",
      "vis_m": 2000,
      "fzfg": false,
      "metar_trigger": false,
      "taf_trigger": false,
      "metar": "METAR LIPX 301420Z 15003KT 110V200 2000 BR BKN002 05/05 Q1001",
      "taf": "TAF LIPX 301100Z 3012/3112 VRB05KT 0300 FG OVC003"
    },
    {
      "icao": "LIPY",
      "alert": "OK",
      "vis_m": 9999,
      "fzfg": false,
      "metar_trigger": false,
      "taf_trigger": false,
      "metar": "METAR LIPY 301420Z AUTO 34008KT 310V010 9999 BKN013/// 09/08 Q1001",
      "taf": ""
    },
    {
      "icao": "LIPZ",
      "alert": "OK",
      "vis_m": 6000,
      "fzfg": false,
      "metar_trigger": false,
      "taf_trigger": false,
      "metar": "METAR LIPZ 301420Z 22005KT 6000 FEW010 08/06 Q1000 NOSIG",
      "taf": "TAF LIPZ 301100Z 3012/3118 VRB04KT 3000 BR BKN010"
    },
    {
      "icao": "LIRF",
      "alert": "OK",
      "vis_m": 9999,
      "fzfg": false,
      "metar_trigger": false,
      "taf_trigger": false,
      "metar": "METAR LIRF 301420Z 17004KT 140V200 9999 SCT025 14/09 Q0999 NOSIG",
      "taf": "TAF LIRF 301100Z 3012/3118 09007KT 9999 FEW020"
    },
    {
      "icao": "LIRN",
      "alert": "OK",
      "vis_m": 9999,
      "fzfg": false,
      "metar_trigger": false,
      "taf_trigger": false,
      "metar": "METAR LIRN 301420Z 19004KT 9999 FEW040 BKN070 12/08 Q1000 NOSIG",
      "taf": "TAF LIRN 301100Z 3012/3112 VRB06KT 8000 FEW020"
    },
    {
      "icao": "LIRP",
      "alert": "OK",
      "vis_m": 9999,
      "fzfg": false,
      "metar_trigger": false,
      "taf_trigger": false,
      "metar": "METAR LIRP 301415Z 13008KT 9999 -RA SCT020 SCT040 11/10 Q1000 TEMPO 7000 RA",
      "taf": "TAF LIRP 301100Z 3012/3112 09008KT 9999 FEW015 SCT030"
    },
    {
      "icao": "LIRZ",
      "alert": "OK",
      "vis_m": 9999,
      "fzfg": false,
      "metar_trigger": false,
      "taf_trigger": false,
      "metar": "METAR LIRZ 301420Z AUTO VRB02KT 9999 BKN056/// BKN089/// 12/03 Q1000",
      "taf": "TAF LIRZ 301100Z 3012/3112 VRB03KT 8000 FEW050"
    },
    {
      "icao": "LJLJ",
      "alert": "OK",
      "vis_m": 9999,
      "fzfg": false,
      "metar_trigger": false,
      "taf_trigger": false,
      "metar": "METAR LJLJ 301430Z 32003KT 280V340 9999 FEW012 BKN020 BKN035 06/02 Q1000 NOSIG",
      "taf": "TAF LJLJ 301100Z 3012/3112 VRB02KT 9999 BKN020 BKN045"
    },
    {
      "icao": "LKMT",
      "alert": "OK",
      "vis_m": 9999,
      "fzfg": false,
      "metar_trigger": false,
      "taf_trigger": false,
      "metar": "METAR LKMT 301430Z 04006KT 9999 OVC010 00/M01 Q1003 NOSIG",
      "taf": "TAF LKMT 301100Z 3012/3112 02010KT 9999 BKN012 OVC022"
    },
    {
      "icao": "LKPR",
      "alert": "OK",
      "vis_m": 400,
      "fzfg": true,
      "metar_trigger": false,
      "taf_trigger": false,
      "metar": "METAR LKPR 301430Z 04004KT 350V050 0400 R24/1100D R30/0500N FZFG VV002 M01/M01 Q1002 NOSIG",
      "taf": "TAF LKPR 301400Z 3015/3121 05003KT 0400 FZFG VV002"
    },
    {
      "icao": "LLBG",
      "alert": "OK",
      "vis_m": 7000,
      "fzfg": false,
      "metar_trigger": false,
      "taf_trigger": false,
      "metar": "METAR LLBG 301420Z 28011KT 7000 NSC 20/11 Q1011 TEMPO 3000 DU NSC",
      "taf": "TAF LLBG 301103Z 3012/3112 23014KT 8000 NSC"
    },
    {
      "icao": "LMML",
      "alert": "OK",
      "vis_m": 9999,
      "fzfg": false,
      "metar_trigger": false,
      "taf_trigger": false,
      "metar": "METAR LMML 301445Z 28022G32KT 9999 FEW019 16/12 Q1005 NOSIG",
      "taf": "TAF LMML 301100Z 3012/3112 28020G30KT 9999 FEW015"
    },
    {
      "icao": "LOWW",
      "alert": "OK",
      "vis_m": 9999,
      "fzfg": false,
      "metar_trigger": false,
      "taf_trigger": false,
      "metar": "METAR LOWW 301420Z 01007KT 9999 FEW010 SCT013 BKN036 02/M00 Q1002 TEMPO BKN013",
      "taf": "TAF LOWW 301415Z 3015/3121 35007KT 8000 FEW010 BKN015 TX02/3015Z TNM00/3120Z"
    },
    {
      "icao": "LPFR",
      "alert": "OK",
      "vis_m": 8000,
      "fzfg": false,
      "metar_trigger": false,
      "taf_trigger": false,
      "metar": "METAR LPFR 301430Z 26015KT 8000 BKN005 16/15 Q1015",
      "taf": "TAF LPFR 301100Z 3012/3112 23010KT 9999 SCT012"
    },
    {
      "icao": "LPMA",
      "alert": "OK",
      "vis_m": 9999,
      "fzfg": false,
      "metar_trigger": false,
      "taf_trigger": false,
      "metar": "METAR LPMA 301430Z 20006KT 160V240 9999 FEW015 20/15 Q1023",
      "taf": "TAF LPMA 301100Z 3012/3112 VRB05KT 9999 SCT015"
    },
    {
      "icao": "LPPR",
      "alert": "OK",
      "vis_m": 8000,
      "fzfg": false,
      "metar_trigger": false,
      "taf_trigger": false,
      "metar": "METAR LPPR 301430Z 28008KT 220V320 8000 FEW018 FEW025CB BKN030 14/10 Q1005",
      "taf": "TAF LPPR 301100Z 3012/3112 21017KT 9999 SCT025"
    },
    {
      "icao": "LPPS",
      "alert": "OK",
      "vis_m": 9999,
      "fzfg": false,
      "metar_trigger": false,
      "taf_trigger": false,
      "metar": "METAR LPPS 301430Z 28015KT 9999 FEW012 BKN030 19/17 Q1023",
      "taf": "TAF LPPS 301100Z 3012/3118 27013KT 9999 SCT013 BKN030"
    },
    {
      "icao": "LPPT",
      "alert": "OK",
      "vis_m": 9999,
      "fzfg": false,
      "metar_trigger": false,
      "taf_trigger": false,
      "metar": "METAR LPPT 301430Z 25017G27KT 9999 FEW010 BKN016 16/13 Q1011 WS R20",
      "taf": "TAF LPPT 301100Z 3012/3118 25015KT 9999 FEW008 SCT012"
    },
    {
      "icao": "LQBK",
      "alert": "OK",
      "vis_m": 9999,
      "fzfg": false,
      "metar_trigger": false,
      "taf_trigger": false,
      "metar": "METAR LQBK 301430Z VRB01KT 9999 FEW040 08/01 Q1002 NOSIG",
      "taf": "TAF LQBK 301100Z 3012/3112 33005KT CAVOK TX08/3013Z TN02/3105Z"
    },
    {
      "icao": "LQSA",
      "alert": "OK",
      "vis_m": 9999,
      "fzfg": false,
      "metar_trigger": false,
      "taf_trigger": false,
      "metar": "METAR LQSA 301430Z 00000KT 9999 BKN045 07/04 Q1000 NOSIG",
      "taf": "TAF LQSA 301100Z 3012/3112 VRB02KT 9999 SCT012 BKN030 TX07/3013Z TN01/3106Z"
    },
    {
      "icao": "LQTZ",
      "alert": "OK",
      "vis_m": 9999,
      "fzfg": false,
      "metar_trigger": false,
      "taf_trigger": false,
      "metar": "METAR LQTZ 301430Z 34004KT 300V020 9999 FEW025 BKN040 07/03 Q1001",
      "taf": "TAF LQTZ 301100Z 3012/3112 28005KT 9999 SCT015 BKN035 TX08/3013Z TN02/3105Z"
    },
    {
      "icao": "LRBC",
      "alert": "OK",
      "vis_m": 9999,
      "fzfg": false,
      "metar_trigger": false,
      "taf_trigger": false,
      "metar": "METAR LRBC 301430Z COR 35015KT 9999 BKN012 OVC030 01/M01 Q1003",
      "taf": "TAF LRBC 301400Z 3015/3024 35014KT 9999 BKN010 OVC015"
    },
    {
      "icao": "LRBS",
      "alert": "OK",
      "vis_m": 9999,
      "fzfg": false,
      "metar_trigger": false,
      "taf_trigger": false,
      "metar": "METAR LRBS 301430Z 25006KT 9999 BKN014 OVC028 07/04 Q1001 NOSIG",
      "taf": "TAF LRBS 301100Z 3012/3112 25008KT 9999 BKN010"
    },
    {
      "icao": "LRBV",
      "alert": "OK",
      "vis_m": 9999,
      "fzfg": false,
      "metar_trigger": false,
      "taf_trigger": false,
      "metar": "METAR LRBV 301430Z 07006KT 9999 BKN029 OVC036 05/M01 Q0999",
      "taf": "TAF LRBV 301400Z 3015/3024 08006KT 9999 SCT025 BKN030"
    },
    {
      "icao": "LRCL",
      "alert": "OK",
      "vis_m": 9999,
      "fzfg": false,
      "metar_trigger": false,
      "taf_trigger": false,
      "metar": "METAR LRCL 301430Z 08001KT 9999 -RA FEW012 OVC017 04/03 Q1000",
      "taf": "TAF LRCL 301400Z 3015/3024 VRB04KT 9999 OVC015"
    },
    {
      "icao": "LRCV",
      "alert": "OK",
      "vis_m": 9999,
      "fzfg": false,
      "metar_trigger": false,
      "taf_trigger": false,
      "metar": "METAR LRCV 301430Z 31004KT 280V340 9999 BKN014 06/05 Q1000",
      "taf": "TAF LRCV 301400Z 3015/3024 VRB04KT 9999 SCT010 OVC015"
    },
    {
      "icao": "LRIA",
      "alert": "OK",
      "vis_m": 9999,
      "fzfg": false,
      "metar_trigger": false,
      "taf_trigger": false,
      "metar": "METAR LRIA 301430Z 33012KT 9999 OVC007 M01/M02 Q1003",
      "taf": "TAF LRIA 301400Z 3015/3024 33011KT 9999 OVC005"
    },
    {
      "icao": "LROP",
      "alert": "OK",
      "vis_m": 9999,
      "fzfg": false,
      "metar_trigger": false,
      "taf_trigger": false,
      "metar": "METAR LROP 301430Z 24007KT 9999 OVC013 07/03 Q1001 NOSIG",
      "taf": "TAF LROP 301100Z 3012/3112 25008KT 9999 OVC010"
    },
    {
      "icao": "LRSB",
      "alert": "OK",
      "vis_m": 9999,
      "fzfg": false,
      "metar_trigger": false,
      "taf_trigger": false,
      "metar": "METAR LRSB 301430Z 12003KT 9999 SCT012 OVC033 05/03 Q1000",
      "taf": "TAF LRSB 301100Z 3012/3112 VRB04KT 9999 OVC010"
    },
    {
      "icao": "LRSM",
      "alert": "OK",
      "vis_m": 9999,
      "fzfg": false,
      "metar_trigger": false,
      "taf_trigger": false,
      "metar": "METAR LRSM 301430Z 05004KT 030V100 9999 OVC022 06/04 Q1001",
      "taf": "TAF LRSM 301400Z 3015/3024 VRB04KT 9999 OVC025"
    },
    {
      "icao": "LRSV",
      "alert": "OK",
      "vis_m": 9999,
      "fzfg": false,
      "metar_trigger": false,
      "taf_trigger": false,
      "metar": "METAR LRSV 301430Z 35011KT 9999 -SN BKN004 M02/M02 Q1003",
      "taf": "TAF LRSV 301400Z 3015/3024 36012KT 9999 BKN005 OVC010"
    },
    {
      "icao": "LRTM",
      "alert": "OK",
      "vis_m": 1700,
      "fzfg": false,
      "metar_trigger": false,
      "taf_trigger": false,
      "metar": "METAR LRTM 301430Z 13002KT 1700 -DZ BR FEW003 SCT010 BKN022 03/02 Q1000",
      "taf": "TAF LRTM 301400Z 3015/3024 VRB04KT 1500 -DZ BR SCT010 BKN030"
    },
    {
      "icao": "LRTR",
      "alert": "OK",
      "vis_m": 7000,
      "fzfg": false,
      "metar_trigger": false,
      "taf_trigger": false,
      "metar": "METAR LRTR 301430Z 27005KT 7000 FEW003 BKN005 OVC006 04/03 Q1001 NOSIG",
      "taf": "TAF LRTR 301100Z 3012/3112 23006KT 3000 -DZ BR OVC005"
    },
    {
      "icao": "LTAC",
      "alert": "OK",
      "vis_m": 9999,
      "fzfg": false,
      "metar_trigger": false,
      "taf_trigger": false,
      "metar": "METAR LTAC 301420Z 20009KT 9999 FEW019 BKN040 08/05 Q1000 NOSIG RMK RWY21C 19009KT RWY03L 20008KT RWY21R 19010KT RWY03R 18009KT RWY21L 19008KT",
      "taf": ""
    },
    {
      "icao": "LTFM",
      "alert": "OK",
      "vis_m": 7000,
      "fzfg": false,
      "metar_trigger": false,
      "taf_trigger": false,
      "metar": "METAR LTFM 301420Z 34010KT 7000 -SHRA BKN004 BKN025 06/05 Q1000 NOSIG RMK RWY17L 33010KT RWY34L 33010KT RWY16R 33006KT RWY36 34011KT RWY18 34010KT",
      "taf": "TAF LTFM 301040Z 3012/3118 32014KT 9999 -SHRA BKN009 BKN025"
    },
    {
      "icao": "LUKK",
      "alert": "OK",
      "vis_m": 9999,
      "fzfg": false,
      "metar_trigger": false,
      "taf_trigger": false,
      "metar": "METAR LUKK 301430Z 01011KT 9999 -FZRA -SN BKN009 OVC015 M01/M02 Q1001 TEMPO 4000 SN BKN005",
      "taf": "TAF LUKK 301117Z 3012/3112 35014KT 9999 OVC007"
    },
    {
      "icao": "LWOH",
      "alert": "OK",
      "vis_m": 9999,
      "fzfg": false,
      "metar_trigger": false,
      "taf_trigger": false,
      "metar": "METAR LWOH 301450Z 16010KT 9999 FEW015 BKN035 07/03 Q1000",
      "taf": "TAF LWOH 301415Z 3015/3115 16010KT 9999 FEW015 SCT040"
    },
    {
      "icao": "LWSK",
      "alert": "OK",
      "vis_m": 9999,
      "fzfg": false,
      "metar_trigger": false,
      "taf_trigger": false,
      "metar": "METAR LWSK 301450Z 36007KT 9999 FEW040 10/05 Q1000 NOSIG",
      "taf": "TAF LWSK 301415Z 3015/3115 03006KT 9999 FEW030 SCT080"
    },
    {
      "icao": "LYBE",
      "alert": "OK",
      "vis_m": 9999,
      "fzfg": false,
      "metar_trigger": false,
      "taf_trigger": false,
      "metar": "METAR LYBE 301430Z 30007KT 9999 BKN012 OVC027 06/04 Q1002 NOSIG",
      "taf": "TAF LYBE 301100Z 3012/3112 28010KT 9999 BKN010 BKN025 TX07/3013Z TN03/3106Z"
    },
    {
      "icao": "LYNI",
      "alert": "OK",
      "vis_m": 9999,
      "fzfg": false,
      "metar_trigger": false,
      "taf_trigger": false,
      "metar": "METAR LYNI 301430Z 33003KT 9999 FEW015 BKN033 BKN080 07/05 Q1002 NOSIG",
      "taf": "TAF LYNI 301100Z 3012/3112 33008KT 9999 SCT015 BKN030 TX08/3013Z TN04/3106Z"
    },
    {
      "icao": "LYPG",
      "alert": "OK",
      "vis_m": 9999,
      "fzfg": false,
      "metar_trigger": false,
      "taf_trigger": false,
      "metar": "METAR LYPG 301430Z 13004KT 100V160 9999 FEW008 SCT050 11/08 Q1001 NOSIG",
      "taf": "TAF LYPG 301100Z 3012/3112 VRB02KT 9999 FEW010 BKN033 OVC070 TX12/3112Z TN05/3106Z"
    },
    {
      "icao": "LZIB",
      "alert": "OK",
      "vis_m": 9999,
      "fzfg": false,
      "metar_trigger": false,
      "taf_trigger": false,
      "metar": "METAR LZIB 301430Z 30006KT 9999 FEW008 03/M00 Q1002 NOSIG",
      "taf": "TAF LZIB 301115Z 3012/3112 30005KT 9999 FEW010 SCT040"
    },
    {
      "icao": "LZKZ",
      "alert": "OK",
      "vis_m": 9999,
      "fzfg": false,
      "metar_trigger": false,
      "taf_trigger": false,
      "metar": "METAR LZKZ 301430Z 36013KT 9999 FEW028 BKN037 03/M01 Q1002 NOSIG",
      "taf": "TAF LZKZ 301115Z 3012/3112 03013KT 9999 FEW020 BKN040"
    },
    {
      "icao": "LZTT",
      "alert": "OK",
      "vis_m": 3000,
      "fzfg": false,
      "metar_trigger": false,
      "taf_trigger": false,
      "metar": "METAR LZTT 301430Z 05008KT 3000 BR SCT002 OVC003 M02/M03 Q1001 NOSIG",
      "taf": "TAF LZTT 301115Z 3012/3112 06009KT 8000 SCT002 OVC004"
    },
    {
      "icao": "OEJN",
      "alert": "OK",
      "vis_m": 9999,
      "fzfg": false,
      "metar_trigger": false,
      "taf_trigger": false,
      "metar": "METAR OEJN 301400Z 29008KT CAVOK 28/16 Q1012 NOSIG",
      "taf": "TAF OEJN 301100Z 3012/3118 30010KT CAVOK"
    },
    {
      "icao": "OEMA",
      "alert": "OK",
      "vis_m": 9999,
      "fzfg": false,
      "metar_trigger": false,
      "taf_trigger": false,
      "metar": "METAR OEMA 301400Z 25005KT CAVOK 28/00 Q1015 NOSIG",
      "taf": "TAF OEMA 301100Z 3012/3118 25010KT 7000 NSC"
    },
    {
      "icao": "OJAI",
      "alert": "OK",
      "vis_m": 5000,
      "fzfg": false,
      "metar_trigger": false,
      "taf_trigger": false,
      "metar": "METAR OJAI 301400Z 22013KT 5000 HZ NSC 17/03 Q1013 NOSIG",
      "taf": "TAF OJAI 301113Z 3012/3118 23006KT 5000 HZ NSC"
    },
    {
      "icao": "OMAA",
      "alert": "OK",
      "vis_m": 9999,
      "fzfg": false,
      "metar_trigger": false,
      "taf_trigger": false,
      "metar": "METAR OMAA 301430Z 30010KT CAVOK 20/12 Q1017 NOSIG",
      "taf": "TAF OMAA 301100Z 3012/3118 30012KT 8000 FEW045"
    },
    {
      "icao": "OMDB",
      "alert": "OK",
      "vis_m": 9999,
      "fzfg": false,
      "metar_trigger": false,
      "taf_trigger": false,
      "metar": "METAR OMDB 301430Z 27009KT 9999 FEW035 22/14 Q1016 NOSIG",
      "taf": "TAF OMDB 301100Z 3012/3118 27013KT 8000 FEW040"
    },
    {
      "icao": "UAAA",
      "alert": "OK",
      "vis_m": 150,
      "fzfg": true,
      "metar_trigger": false,
      "taf_trigger": false,
      "metar": "METAR UAAA 301430Z 28003MPS 0150 R23L/0600U FZFG VV001 M04/M05 Q1019 NOSIG RMK QBB050",
      "taf": ""
    },
    {
      "icao": "UBBB",
      "alert": "OK",
      "vis_m": 9999,
      "fzfg": false,
      "metar_trigger": false,
      "taf_trigger": false,
      "metar": "METAR UBBB 301430Z 16012KT CAVOK 07/05 Q1008 NOSIG",
      "taf": "TAF UBBB 301054Z 3012/3112 17018KT 5000 BR BKN007 TX09/3012Z TN04/3101Z"
    },
    {
      "icao": "UDSG",
      "alert": "OK",
      "vis_m": 4500,
      "fzfg": false,
      "metar_trigger": false,
      "taf_trigger": false,
      "metar": "METAR UDSG 301430Z 29001KT 4500 BR BKN016 M08/M09 Q1014 NOSIG",
      "taf": "TAF UDSG 301058Z 3012/3112 VRB06KT 2000 BR OVC020"
    },
    {
      "icao": "UDYZ",
      "alert": "OK",
      "vis_m": 2600,
      "fzfg": false,
      "metar_trigger": false,
      "taf_trigger": false,
      "metar": "METAR UDYZ 301430Z 24004KT 2600 BR BKN014 M02/M04 Q1017 NOSIG",
      "taf": "TAF UDYZ 301100Z 3012/3112 VRB04KT 3000 BR BKN020"
    },
    {
      "icao": "UGKO",
      "alert": "OK",
      "vis_m": 9999,
      "fzfg": false,
      "metar_trigger": false,
      "taf_trigger": false,
      "metar": "METAR UGKO 301430Z 09016KT CAVOK 15/M03 Q1003 NOSIG",
      "taf": "TAF UGKO 301100Z 3012/3112 09010KT CAVOK TX17/3012Z TN07/3103Z"
    }
  ]
}