{
  "ts_utc": "2026-03-14T22:48:41Z",
  "threshold_m": 150,
  "source": "stations_override.txt (ICAO list) + aviationweather.gov (METAR/TAF raw)",
  "station_count": 159,
  "stations": [
    {
      "icao": "BIKF",
      "alert": "OK",
      "vis_m": 9999,
      "fzfg": false,
      "metar_trigger": false,
      "taf_trigger": false,
      "metar": "METAR BIKF 142230Z 07025KT 9999 -SN SCT011 OVC022 01/M01 Q0973",
      "taf": "TAF BIKF 142210Z 1500/1600 07027G37KT 9999 BKN030 TX03/1515Z TN00/1500Z"
    },
    {
      "icao": "BKPR",
      "alert": "OK",
      "vis_m": 9999,
      "fzfg": false,
      "metar_trigger": false,
      "taf_trigger": false,
      "metar": "METAR BKPR 142230Z 33004KT CAVOK 06/M01 Q1008 NOSIG",
      "taf": "TAF BKPR 141730Z 1418/1518 VRB05KT CAVOK"
    },
    {
      "icao": "EBCI",
      "alert": "OK",
      "vis_m": 9999,
      "fzfg": false,
      "metar_trigger": false,
      "taf_trigger": false,
      "metar": "METAR EBCI 142220Z 27003KT 240V300 9999 FEW025 03/01 Q1010 NOSIG",
      "taf": "TAF EBCI 141709Z 1418/1524 30010KT 9999 SCT020"
    },
    {
      "icao": "EDDB",
      "alert": "OK",
      "vis_m": 9999,
      "fzfg": false,
      "metar_trigger": false,
      "taf_trigger": false,
      "metar": "METAR EDDB 142220Z AUTO 31008KT 9999 BKN012 OVC048 06/04 Q1005 NOSIG",
      "taf": "TAF EDDB 141700Z 1418/1518 31007KT 9999 BKN025"
    },
    {
      "icao": "EDDH",
      "alert": "OK",
      "vis_m": 9999,
      "fzfg": false,
      "metar_trigger": false,
      "taf_trigger": false,
      "metar": "METAR EDDH 142220Z AUTO 32004KT 9999 BKN023 OVC027 04/03 Q1007 NOSIG",
      "taf": "TAF EDDH 141700Z 1418/1524 30003KT 9999 SCT015 BKN030"
    },
    {
      "icao": "EDDK",
      "alert": "OK",
      "vis_m": 9999,
      "fzfg": false,
      "metar_trigger": false,
      "taf_trigger": false,
      "metar": "METAR EDDK 142220Z AUTO 24003KT 200V270 9999 FEW025 02/02 Q1009 NOSIG",
      "taf": "TAF EDDK 141700Z 1418/1524 28006KT 9999 SCT012 BKN015"
    },
    {
      "icao": "EDDN",
      "alert": "OK",
      "vis_m": 9999,
      "fzfg": false,
      "metar_trigger": false,
      "taf_trigger": false,
      "metar": "METAR EDDN 142220Z AUTO 30006KT CAVOK 04/00 Q1006 NOSIG",
      "taf": "TAF EDDN 141700Z 1418/1518 28010KT 9999 FEW008 BKN020"
    },
    {
      "icao": "EDDS",
      "alert": "OK",
      "vis_m": 9999,
      "fzfg": false,
      "metar_trigger": false,
      "taf_trigger": false,
      "metar": "METAR EDDS 142220Z AUTO 25004KT CAVOK 03/M01 Q1007",
      "taf": "TAF EDDS 141700Z 1418/1518 26005KT 9999 BKN020"
    },
    {
      "icao": "EDFH",
      "alert": "OK",
      "vis_m": 9999,
      "fzfg": false,
      "metar_trigger": false,
      "taf_trigger": false,
      "metar": "METAR EDFH 142220Z 28006KT 9999 FEW002 BKN004 01/01 Q1007",
      "taf": "TAF EDFH 141700Z 1418/1518 28010KT 9999 BKN010"
    },
    {
      "icao": "EDJA",
      "alert": "OK",
      "vis_m": 9999,
      "fzfg": false,
      "metar_trigger": false,
      "taf_trigger": false,
      "metar": "METAR EDJA 142220Z AUTO 22004KT 9999 // FEW004/// OVC093/// 01/00 Q1006",
      "taf": "TAF EDJA 141700Z 1418/1503 29005KT 9999 SCT004 OVC015"
    },
    {
      "icao": "EDLW",
      "alert": "OK",
      "vis_m": 7000,
      "fzfg": false,
      "metar_trigger": false,
      "taf_trigger": false,
      "metar": "METAR EDLW 142220Z AUTO 26005KT 7000 // SCT006/// BKN017/// BKN039/// 04/03 Q1008",
      "taf": "TAF EDLW 141700Z 1418/1518 28005KT 9999 BKN007"
    },
    {
      "icao": "EDNY",
      "alert": "OK",
      "vis_m": 9999,
      "fzfg": false,
      "metar_trigger": false,
      "taf_trigger": false,
      "metar": "METAR EDNY 142220Z AUTO 26004KT 9999 // FEW006/// OVC061/// 02/02 Q1008",
      "taf": "TAF EDNY 141700Z 1418/1503 25005KT 9999 SCT008 OVC025"
    },
    {
      "icao": "EDSB",
      "alert": "OK",
      "vis_m": 9999,
      "fzfg": false,
      "metar_trigger": false,
      "taf_trigger": false,
      "metar": "METAR EDSB 142220Z COR 23005KT 200V270 9999 R21///// FEW031 SCT037 04/02 Q1009",
      "taf": "TAF EDSB 141700Z 1418/1518 21005KT 9999 SCT030"
    },
    {
      "icao": "EETN",
      "alert": "OK",
      "vis_m": 9999,
      "fzfg": false,
      "metar_trigger": false,
      "taf_trigger": false,
      "metar": "METAR EETN 142220Z 18011KT CAVOK 09/M01 Q1009",
      "taf": "TAF EETN 141730Z 1418/1518 18012KT CAVOK"
    },
    {
      "icao": "EFTU",
      "alert": "OK",
      "vis_m": 9000,
      "fzfg": false,
      "metar_trigger": false,
      "taf_trigger": false,
      "metar": "METAR EFTU 142220Z AUTO 19007KT 9000 -RA OVC025 05/04 Q1005",
      "taf": "TAF EFTU 142030Z 1421/1521 19007KT CAVOK"
    },
    {
      "icao": "EGBB",
      "alert": "OK",
      "vis_m": 9999,
      "fzfg": false,
      "metar_trigger": false,
      "taf_trigger": false,
      "metar": "METAR EGBB 142220Z VRB01KT CAVOK 01/M01 Q1011",
      "taf": "TAF EGBB 141701Z 1418/1518 30008KT 9999 FEW045"
    },
    {
      "icao": "EGGP",
      "alert": "OK",
      "vis_m": 9999,
      "fzfg": false,
      "metar_trigger": false,
      "taf_trigger": false,
      "metar": "METAR EGGP 142220Z 17004KT 150V210 CAVOK 05/01 Q1010",
      "taf": "TAF EGGP 141658Z 1418/1518 29010KT 9999 FEW025"
    },
    {
      "icao": "EGGW",
      "alert": "OK",
      "vis_m": 9999,
      "fzfg": false,
      "metar_trigger": false,
      "taf_trigger": false,
      "metar": "METAR EGGW 142220Z AUTO 23004KT 9999 NCD 04/M03 Q1011",
      "taf": "TAF EGGW 141701Z 1418/1518 32011KT 9999 SCT040"
    },
    {
      "icao": "EGKK",
      "alert": "OK",
      "vis_m": 9999,
      "fzfg": false,
      "metar_trigger": false,
      "taf_trigger": false,
      "metar": "METAR EGKK 142220Z VRB02KT CAVOK 02/M01 Q1012",
      "taf": "TAF EGKK 141658Z 1418/1524 32010KT 9999 FEW040"
    },
    {
      "icao": "EGNM",
      "alert": "OK",
      "vis_m": 9999,
      "fzfg": false,
      "metar_trigger": false,
      "taf_trigger": false,
      "metar": "METAR EGNM 142220Z 24007KT CAVOK 03/00 Q1009",
      "taf": "TAF EGNM 141657Z 1418/1518 27012KT 9999 FEW040"
    },
    {
      "icao": "EGPD",
      "alert": "OK",
      "vis_m": 9999,
      "fzfg": false,
      "metar_trigger": false,
      "taf_trigger": false,
      "metar": "METAR EGPD 142220Z COR AUTO 23009KT 9999 NCD 04/M01 Q1003 NOSIG",
      "taf": "TAF EGPD 141657Z 1418/1518 22006KT 9999 FEW045"
    },
    {
      "icao": "EGPF",
      "alert": "OK",
      "vis_m": 9999,
      "fzfg": false,
      "metar_trigger": false,
      "taf_trigger": false,
      "metar": "METAR EGPF 142220Z AUTO 16003KT 110V220 9999 SCT023 05/03 Q1005",
      "taf": "TAF EGPF 141658Z 1418/1518 24009KT 9999 SCT025"
    },
    {
      "icao": "EHBK",
      "alert": "OK",
      "vis_m": 9999,
      "fzfg": false,
      "metar_trigger": false,
      "taf_trigger": false,
      "metar": "METAR EHBK 142225Z AUTO 24004KT 210V270 9999 BKN025 BKN029 BKN033 03/02 Q1009",
      "taf": "TAF EHBK 141711Z 1418/1524 25004KT 9999 SCT025"
    },
    {
      "icao": "EHEH",
      "alert": "OK",
      "vis_m": 7000,
      "fzfg": false,
      "metar_trigger": false,
      "taf_trigger": false,
      "metar": "METAR EHEH 142225Z AUTO 24003KT 7000 BR NCD 01/01 Q1009 WHT",
      "taf": "TAF EHEH 141756Z 1418/1524 25003KT 9999 FEW020 BKN030"
    },
    {
      "icao": "EKBI",
      "alert": "OK",
      "vis_m": 2200,
      "fzfg": false,
      "metar_trigger": false,
      "taf_trigger": false,
      "metar": "METAR EKBI 142220Z AUTO 23006KT 210V270 2200 BR OVC003/// 04/03 Q1007",
      "taf": ""
    },
    {
      "icao": "EKCH",
      "alert": "OK",
      "vis_m": 9999,
      "fzfg": false,
      "metar_trigger": false,
      "taf_trigger": false,
      "metar": "METAR EKCH 142220Z AUTO 34002KT 9999 OVC082/// 04/02 Q1006 NOSIG",
      "taf": "TAF EKCH 142027Z 1421/1521 02007KT 9999 SCT015"
    },
    {
      "icao": "ENAL",
      "alert": "OK",
      "vis_m": 9999,
      "fzfg": false,
      "metar_trigger": false,
      "taf_trigger": false,
      "metar": "METAR ENAL 142220Z 19010KT 9999 BKN035 05/01 Q0998",
      "taf": "TAF ENAL 142000Z 1421/1506 21012KT 9999 FEW030 BKN050"
    },
    {
      "icao": "ENBR",
      "alert": "OK",
      "vis_m": 9999,
      "fzfg": false,
      "metar_trigger": false,
      "taf_trigger": false,
      "metar": "METAR ENBR 142220Z 16012KT 9999 FEW022 03/02 Q1002 RMK WIND 1200FT 19016KT",
      "taf": "TAF ENBR 141700Z 1418/1518 16012KT 9999 FEW010 BKN020"
    },
    {
      "icao": "ENGM",
      "alert": "OK",
      "vis_m": 9999,
      "fzfg": false,
      "metar_trigger": false,
      "taf_trigger": false,
      "metar": "METAR ENGM 142220Z 19005KT 9999 BKN007 02/01 Q1002",
      "taf": "TAF ENGM 141700Z 1418/1518 18008KT 9999 BKN015"
    },
    {
      "icao": "ENHD",
      "alert": "OK",
      "vis_m": 9999,
      "fzfg": false,
      "metar_trigger": false,
      "taf_trigger": false,
      "metar": "METAR ENHD 142220Z AUTO 16008KT 9999 FEW017/// SCT020/// 04/01 Q1003",
      "taf": "TAF ENHD 141400Z 1415/1423 20008KT 9999 FEW015 BKN030"
    },
    {
      "icao": "ENTC",
      "alert": "OK",
      "vis_m": 9999,
      "fzfg": false,
      "metar_trigger": false,
      "taf_trigger": false,
      "metar": "METAR ENTC 142220Z 18008KT CAVOK 03/M02 Q0994 RMK WIND 2600FT 17014KT",
      "taf": "TAF ENTC 141700Z 1418/1518 22009KT 9999 FEW040"
    },
    {
      "icao": "ENTO",
      "alert": "OK",
      "vis_m": 9999,
      "fzfg": false,
      "metar_trigger": false,
      "taf_trigger": false,
      "metar": "METAR ENTO 142220Z AUTO 20010KT 9999 BKN002/// OVC003/// 03/03 Q1004",
      "taf": "TAF ENTO 141700Z 1418/1518 20008KT 0400 FG VV001"
    },
    {
      "icao": "ENVA",
      "alert": "OK",
      "vis_m": 9999,
      "fzfg": false,
      "metar_trigger": false,
      "taf_trigger": false,
      "metar": "METAR ENVA 142220Z 11006KT CAVOK 01/M03 Q0998 RMK WIND 670FT 15012KT",
      "taf": "TAF ENVA 141700Z 1418/1518 11005KT CAVOK"
    },
    {
      "icao": "ENZV",
      "alert": "OK",
      "vis_m": 9999,
      "fzfg": false,
      "metar_trigger": false,
      "taf_trigger": false,
      "metar": "METAR ENZV 142220Z 17006KT 9999 FEW022 02/02 Q1004",
      "taf": ""
    },
    {
      "icao": "EPGD",
      "alert": "OK",
      "vis_m": 9999,
      "fzfg": false,
      "metar_trigger": false,
      "taf_trigger": false,
      "metar": "METAR EPGD 142230Z 14009KT CAVOK 10/01 Q1004",
      "taf": "TAF EPGD 141730Z 1418/1518 16010KT CAVOK"
    },
    {
      "icao": "EPKK",
      "alert": "OK",
      "vis_m": 9999,
      "fzfg": false,
      "metar_trigger": false,
      "taf_trigger": false,
      "metar": "METAR EPKK 142230Z 03004KT 360V070 CAVOK 07/M02 Q1006",
      "taf": "TAF EPKK 142030Z 1421/1521 11004KT CAVOK"
    },
    {
      "icao": "EPKT",
      "alert": "OK",
      "vis_m": 9999,
      "fzfg": false,
      "metar_trigger": false,
      "taf_trigger": false,
      "metar": "METAR EPKT 142230Z 14010KT CAVOK 10/M02 Q1006",
      "taf": "TAF EPKT 141730Z 1418/1518 15009KT CAVOK"
    },
    {
      "icao": "EPLB",
      "alert": "OK",
      "vis_m": 9999,
      "fzfg": false,
      "metar_trigger": false,
      "taf_trigger": false,
      "metar": "METAR EPLB 142230Z 12006KT CAVOK 07/00 Q1010",
      "taf": "TAF EPLB 141730Z 1418/1518 13010KT CAVOK"
    },
    {
      "icao": "EPMO",
      "alert": "OK",
      "vis_m": 9999,
      "fzfg": false,
      "metar_trigger": false,
      "taf_trigger": false,
      "metar": "METAR EPMO 142230Z 12008KT CAVOK 10/M01 Q1007",
      "taf": "TAF EPMO 141730Z 1418/1518 12010KT CAVOK"
    },
    {
      "icao": "EPPO",
      "alert": "OK",
      "vis_m": 9999,
      "fzfg": false,
      "metar_trigger": false,
      "taf_trigger": false,
      "metar": "METAR EPPO 142230Z 24004KT CAVOK 12/02 Q1002",
      "taf": ""
    },
    {
      "icao": "EPRA",
      "alert": "OK",
      "vis_m": 9999,
      "fzfg": false,
      "metar_trigger": false,
      "taf_trigger": false,
      "metar": "METAR EPRA 142230Z 15009KT CAVOK 08/M03 Q1008",
      "taf": "TAF EPRA 142030Z 1421/1506 16008KT CAVOK"
    },
    {
      "icao": "EPRZ",
      "alert": "OK",
      "vis_m": 9999,
      "fzfg": false,
      "metar_trigger": false,
      "taf_trigger": false,
      "metar": "METAR EPRZ 142230Z 09009KT CAVOK 06/00 Q1009",
      "taf": "TAF EPRZ 141730Z 1418/1518 10005KT CAVOK"
    },
    {
      "icao": "EPSC",
      "alert": "OK",
      "vis_m": 9999,
      "fzfg": false,
      "metar_trigger": false,
      "taf_trigger": false,
      "metar": "METAR EPSC 142230Z 35008KT 310V040 9999 BKN003 FEW007TCU 04/03 Q1004",
      "taf": ""
    },
    {
      "icao": "EPSY",
      "alert": "OK",
      "vis_m": 9999,
      "fzfg": false,
      "metar_trigger": false,
      "taf_trigger": false,
      "metar": "METAR EPSY 142230Z 14006KT 100V180 CAVOK 09/M02 Q1007",
      "taf": "TAF EPSY 142030Z 1421/1506 14008KT CAVOK"
    },
    {
      "icao": "EPWA",
      "alert": "OK",
      "vis_m": 9999,
      "fzfg": false,
      "metar_trigger": false,
      "taf_trigger": false,
      "metar": "METAR EPWA 142230Z 13011KT CAVOK 10/M03 Q1007 NOSIG",
      "taf": "TAF EPWA 142030Z 1421/1521 14010KT CAVOK"
    },
    {
      "icao": "EPWR",
      "alert": "OK",
      "vis_m": 9999,
      "fzfg": false,
      "metar_trigger": false,
      "taf_trigger": false,
      "metar": "METAR EPWR 142230Z 13008KT CAVOK 12/03 Q1002",
      "taf": "TAF EPWR 142030Z 1421/1521 13010KT CAVOK"
    },
    {
      "icao": "ESGG",
      "alert": "OK",
      "vis_m": 4600,
      "fzfg": false,
      "metar_trigger": false,
      "taf_trigger": false,
      "metar": "METAR ESGG 142220Z 17004KT 4600 BR OVC003 02/02 Q1005",
      "taf": "TAF ESGG 142030Z 1421/1521 18005KT 5000 OVC003"
    },
    {
      "icao": "ESKN",
      "alert": "OK",
      "vis_m": 9999,
      "fzfg": false,
      "metar_trigger": false,
      "taf_trigger": false,
      "metar": "METAR ESKN 142220Z 28005KT 9999 BKN003 02/02 Q1005",
      "taf": "TAF ESKN 142030Z 1421/1521 30004KT 6000 -RA BKN008"
    },
    {
      "icao": "ESMS",
      "alert": "OK",
      "vis_m": 9999,
      "fzfg": false,
      "metar_trigger": false,
      "taf_trigger": false,
      "metar": "METAR ESMS 142220Z 33004KT CAVOK 03/03 Q1005",
      "taf": "TAF ESMS 142027Z 1421/1521 35012KT 9999 SCT020"
    },
    {
      "icao": "ESSA",
      "alert": "OK",
      "vis_m": 9999,
      "fzfg": false,
      "metar_trigger": false,
      "taf_trigger": false,
      "metar": "METAR ESSA 142220Z 28003KT 9999 FEW003 SCT029 BKN049 01/01 Q1004 NOSIG",
      "taf": ""
    },
    {
      "icao": "EYKA",
      "alert": "OK",
      "vis_m": 9999,
      "fzfg": false,
      "metar_trigger": false,
      "taf_trigger": false,
      "metar": "METAR EYKA 142220Z 14011KT 110V170 CAVOK 09/M04 Q1012",
      "taf": "TAF EYKA 141707Z 1418/1518 14008KT 9000 NSC"
    },
    {
      "icao": "EYPA",
      "alert": "OK",
      "vis_m": 9999,
      "fzfg": false,
      "metar_trigger": false,
      "taf_trigger": false,
      "metar": "METAR EYPA 142220Z 15014KT CAVOK 10/M00 Q1007",
      "taf": "TAF EYPA 141706Z 1418/1518 15008KT 9000 SCT030"
    },
    {
      "icao": "EYVI",
      "alert": "OK",
      "vis_m": 9999,
      "fzfg": false,
      "metar_trigger": false,
      "taf_trigger": false,
      "metar": "METAR EYVI 142220Z 15013KT CAVOK 07/M03 Q1014 NOSIG",
      "taf": "TAF EYVI 141707Z 1418/1518 15011KT 9000 NSC"
    },
    {
      "icao": "GCFV",
      "alert": "OK",
      "vis_m": 9999,
      "fzfg": false,
      "metar_trigger": false,
      "taf_trigger": false,
      "metar": "METAR GCFV 142230Z 02019KT 9999 FEW020 BKN025 17/11 Q1020",
      "taf": "TAF GCFV 142000Z 1421/1521 03016KT 9999 FEW025 TX20/1514Z TN16/1506Z"
    },
    {
      "icao": "GCLP",
      "alert": "OK",
      "vis_m": 9999,
      "fzfg": false,
      "metar_trigger": false,
      "taf_trigger": false,
      "metar": "METAR GCLP 142230Z 01018KT 9999 BKN032 17/11 Q1020 NOSIG",
      "taf": "TAF GCLP 142000Z 1421/1521 01020KT 9999 SCT025 TX20/1514Z TN16/1506Z"
    },
    {
      "icao": "GCTS",
      "alert": "OK",
      "vis_m": 9999,
      "fzfg": false,
      "metar_trigger": false,
      "taf_trigger": false,
      "metar": "METAR GCTS 142230Z 07016KT 9999 FEW030 16/10 Q1020 NOSIG",
      "taf": "TAF GCTS 142000Z 1421/1521 05018KT 9999 FEW030 TX23/1514Z TN16/1506Z"
    },
    {
      "icao": "GMAD",
      "alert": "OK",
      "vis_m": 8000,
      "fzfg": false,
      "metar_trigger": false,
      "taf_trigger": false,
      "metar": "METAR GMAD 142230Z 00000KT 8000 NSC 13/11 Q1016 NOSIG",
      "taf": "TAF GMAD 141700Z 1418/1524 22011KT 6000 NSC"
    },
    {
      "icao": "GMMN",
      "alert": "OK",
      "vis_m": 9999,
      "fzfg": false,
      "metar_trigger": false,
      "taf_trigger": false,
      "metar": "METAR GMMN 142230Z 34004KT 9999 FEW010 BKN027 13/11 Q1020 NOSIG",
      "taf": "TAF GMMN 141700Z 1418/1524 33006KT 9999 BKN030"
    },
    {
      "icao": "GMMX",
      "alert": "OK",
      "vis_m": 8000,
      "fzfg": false,
      "metar_trigger": false,
      "taf_trigger": false,
      "metar": "METAR GMMX 142230Z 07006KT 8000 NSC 13/09 Q1019 NOSIG",
      "taf": "TAF GMMX 141700Z 1418/1524 06006KT 8000 SCT023"
    },
    {
      "icao": "HEGN",
      "alert": "OK",
      "vis_m": 4000,
      "fzfg": false,
      "metar_trigger": false,
      "taf_trigger": false,
      "metar": "METAR HEGN 142200Z 34016KT 4000 SA BKN025 20/06 Q1003 NOSIG",
      "taf": ""
    },
    {
      "icao": "HEMA",
      "alert": "OK",
      "vis_m": 9999,
      "fzfg": false,
      "metar_trigger": false,
      "taf_trigger": false,
      "metar": "METAR HEMA 142200Z 31010KT CAVOK 24/13 Q1004 NOSIG",
      "taf": ""
    },
    {
      "icao": "HESH",
      "alert": "OK",
      "vis_m": 9999,
      "fzfg": false,
      "metar_trigger": false,
      "taf_trigger": false,
      "metar": "METAR HESH 142200Z 00000KT CAVOK 23/19 Q1002 NOSIG",
      "taf": ""
    },
    {
      "icao": "HESX",
      "alert": "OK",
      "vis_m": 9999,
      "fzfg": false,
      "metar_trigger": false,
      "taf_trigger": false,
      "metar": "METAR HESX 142200Z 25010KT CAVOK 13/09 Q1008 NOSIG",
      "taf": ""
    },
    {
      "icao": "LATI",
      "alert": "OK",
      "vis_m": null,
      "fzfg": false,
      "metar_trigger": false,
      "taf_trigger": false,
      "metar": "",
      "taf": "TAF LATI 141700Z 1418/1518 VRB04KT CAVOK TX20/1512Z TN03/1504Z"
    },
    {
      "icao": "LBPD",
      "alert": "OK",
      "vis_m": 9999,
      "fzfg": false,
      "metar_trigger": false,
      "taf_trigger": false,
      "metar": "METAR LBPD 142230Z AUTO 13008KT 9999 NCD 03/01 Q1013",
      "taf": "TAF LBPD 141700Z 1418/1518 10010KT CAVOK"
    },
    {
      "icao": "LBSF",
      "alert": "OK",
      "vis_m": 9999,
      "fzfg": false,
      "metar_trigger": false,
      "taf_trigger": false,
      "metar": "METAR LBSF 142230Z AUTO 09012KT 9999 NCD 03/M01 Q1011 NOSIG",
      "taf": "TAF LBSF 141700Z 1418/1518 10010KT CAVOK"
    },
    {
      "icao": "LBWN",
      "alert": "OK",
      "vis_m": 9999,
      "fzfg": false,
      "metar_trigger": false,
      "taf_trigger": false,
      "metar": "METAR LBWN 142230Z AUTO VRB02KT 9999 BKN012/// 05/04 Q1012 NOSIG",
      "taf": "TAF LBWN 141700Z 1418/1518 06008KT 9999 SCT015"
    },
    {
      "icao": "LCLK",
      "alert": "OK",
      "vis_m": 8000,
      "fzfg": false,
      "metar_trigger": false,
      "taf_trigger": false,
      "metar": "METAR LCLK 142230Z 18016KT 8000 -SHRA SCT020 FEW030CB SCT035 17/15 Q0999 RERA TEMPO 5000 SHRA RMK CB TO N",
      "taf": "TAF LCLK 141730Z 1418/1518 05022KT 9999 SCT025"
    },
    {
      "icao": "LCPH",
      "alert": "OK",
      "vis_m": 7000,
      "fzfg": false,
      "metar_trigger": false,
      "taf_trigger": false,
      "metar": "METAR LCPH 142230Z 16022KT 7000 -SHRA FEW018 BKN029 17/13 Q0996 NOSIG",
      "taf": ""
    },
    {
      "icao": "LEAL",
      "alert": "OK",
      "vis_m": 9999,
      "fzfg": false,
      "metar_trigger": false,
      "taf_trigger": false,
      "metar": "METAR LEAL 142230Z 31008KT 9999 -RA FEW015 BKN050 15/10 Q1008 RERA NOSIG",
      "taf": "TAF LEAL 141700Z 1418/1518 30015KT 9999 FEW020 TX20/1512Z TN08/1506Z"
    },
    {
      "icao": "LEBB",
      "alert": "OK",
      "vis_m": 9999,
      "fzfg": false,
      "metar_trigger": false,
      "taf_trigger": false,
      "metar": "METAR LEBB 142230Z 24004KT 190V300 9999 FEW019 BKN030 BKN041 09/07 Q1015 TEMPO 3000 RA",
      "taf": "TAF LEBB 141700Z 1418/1518 28009KT 9999 SCT015 BKN025 TX12/1512Z TN08/1506Z"
    },
    {
      "icao": "LEBL",
      "alert": "OK",
      "vis_m": 9999,
      "fzfg": false,
      "metar_trigger": false,
      "taf_trigger": false,
      "metar": "METAR LEBL 142230Z 30008KT 9999 FEW015 07/06 Q1006 NOSIG",
      "taf": ""
    },
    {
      "icao": "LECH",
      "alert": "OK",
      "vis_m": 9000,
      "fzfg": false,
      "metar_trigger": false,
      "taf_trigger": false,
      "metar": "METAR LECH 142230Z AUTO 32009G21KT 270V010 9000 NSC 09/M01 Q1008",
      "taf": ""
    },
    {
      "icao": "LEMD",
      "alert": "OK",
      "vis_m": 9999,
      "fzfg": false,
      "metar_trigger": false,
      "taf_trigger": false,
      "metar": "METAR LEMD 142230Z VRB02KT 9999 FEW020 BKN047 09/05 Q1011 NOSIG",
      "taf": ""
    },
    {
      "icao": "LEMG",
      "alert": "OK",
      "vis_m": 9999,
      "fzfg": false,
      "metar_trigger": false,
      "taf_trigger": false,
      "metar": "METAR LEMG 142230Z 30003KT 9999 BKN040 16/10 Q1014 NOSIG",
      "taf": "TAF LEMG 141700Z 1418/1518 29010KT 9999 FEW030 SCT040 TX18/1515Z TN11/1507Z"
    },
    {
      "icao": "LEVC",
      "alert": "OK",
      "vis_m": 9999,
      "fzfg": false,
      "metar_trigger": false,
      "taf_trigger": false,
      "metar": "METAR LEVC 142230Z 32011KT 9999 SCT069 13/04 Q1009 NOSIG",
      "taf": "TAF LEVC 141700Z 1418/1518 VRB04KT 9999 FEW030 BKN060 TX18/1512Z TN08/1506Z"
    },
    {
      "icao": "LEXJ",
      "alert": "OK",
      "vis_m": 9999,
      "fzfg": false,
      "metar_trigger": false,
      "taf_trigger": false,
      "metar": "METAR LEXJ 142230Z AUTO 35007KT 310V050 9999 SCT031 BKN037 BKN050 09/04 Q1015",
      "taf": "TAF LEXJ 142000Z 1421/1521 29009KT 9999 SCT015 BKN025 TX13/1513Z TN09/1505Z"
    },
    {
      "icao": "LEZG",
      "alert": "OK",
      "vis_m": 9999,
      "fzfg": false,
      "metar_trigger": false,
      "taf_trigger": false,
      "metar": "METAR LEZG 142230Z 28017KT 9999 FEW065 BKN085 08/04 Q1011 NOSIG",
      "taf": "TAF LEZG 141700Z 1418/1518 30015KT 9999 FEW050 SCT070 TX13/1514Z TN06/1506Z"
    },
    {
      "icao": "LEZL",
      "alert": "OK",
      "vis_m": 9999,
      "fzfg": false,
      "metar_trigger": false,
      "taf_trigger": false,
      "metar": "METAR LEZL 142230Z 26012KT 9999 OVC029 16/12 Q1015 NOSIG",
      "taf": "TAF LEZL 142000Z 1421/1521 28010KT 9999 SCT035 TX21/1515Z TN10/1507Z"
    },
    {
      "icao": "LFBD",
      "alert": "OK",
      "vis_m": 9999,
      "fzfg": false,
      "metar_trigger": false,
      "taf_trigger": false,
      "metar": "METAR LFBD 142230Z AUTO 31006KT 9999 FEW029 06/04 Q1013 NOSIG",
      "taf": "TAF LFBD 141700Z 1418/1524 29005KT CAVOK TX14/1514Z TN02/1506Z"
    },
    {
      "icao": "LFLL",
      "alert": "OK",
      "vis_m": 9999,
      "fzfg": false,
      "metar_trigger": false,
      "taf_trigger": false,
      "metar": "METAR LFLL 142230Z 35010KT CAVOK 04/02 Q1008 NOSIG",
      "taf": "TAF LFLL 141700Z 1418/1524 36010KT 9999 BKN030"
    },
    {
      "icao": "LFLS",
      "alert": "OK",
      "vis_m": 9999,
      "fzfg": false,
      "metar_trigger": false,
      "taf_trigger": false,
      "metar": "METAR LFLS 142230Z AUTO 36009KT 320V020 9999 BKN012 BKN066 BKN120 03/01 Q1006",
      "taf": ""
    },
    {
      "icao": "LFMN",
      "alert": "OK",
      "vis_m": 9999,
      "fzfg": false,
      "metar_trigger": false,
      "taf_trigger": false,
      "metar": "METAR LFMN 142230Z 11011KT 9999 FEW030 FEW060TCU SCT070 BKN140 13/07 Q0995 NOSIG",
      "taf": "TAF LFMN 142000Z 1421/1603 34012KT 9999 SCT040 BKN100"
    },
    {
      "icao": "LFOB",
      "alert": "OK",
      "vis_m": 9999,
      "fzfg": false,
      "metar_trigger": false,
      "taf_trigger": false,
      "metar": "METAR LFOB 142230Z AUTO 31010KT CAVOK 04/00 Q1012 TEMPO 4000 BR",
      "taf": ""
    },
    {
      "icao": "LFPO",
      "alert": "OK",
      "vis_m": 9999,
      "fzfg": false,
      "metar_trigger": false,
      "taf_trigger": false,
      "metar": "METAR LFPO 142230Z 34006KT CAVOK 04/01 Q1012 NOSIG",
      "taf": "TAF LFPO 141700Z 1418/1524 30005KT CAVOK"
    },
    {
      "icao": "LFSB",
      "alert": "OK",
      "vis_m": 9999,
      "fzfg": false,
      "metar_trigger": false,
      "taf_trigger": false,
      "metar": "METAR LFSB 142230Z AUTO VRB02KT CAVOK 04/02 Q1009 NOSIG",
      "taf": "TAF LFSB 141700Z 1418/1518 17003KT CAVOK"
    },
    {
      "icao": "LGAV",
      "alert": "OK",
      "vis_m": 9999,
      "fzfg": false,
      "metar_trigger": false,
      "taf_trigger": false,
      "metar": "METAR LGAV 142220Z 36005KT 9999 FEW030 07/02 Q1009 NOSIG",
      "taf": "TAF LGAV 141700Z 1418/1518 01008KT 9999 SCT030"
    },
    {
      "icao": "LGTS",
      "alert": "OK",
      "vis_m": 9999,
      "fzfg": false,
      "metar_trigger": false,
      "taf_trigger": false,
      "metar": "METAR LGTS 142220Z 10007KT 9999 FEW020 06/04 Q1010 NOSIG",
      "taf": "TAF LGTS 141700Z 1418/1518 VRB03KT 9999 FEW030"
    },
    {
      "icao": "LHBP",
      "alert": "OK",
      "vis_m": 9999,
      "fzfg": false,
      "metar_trigger": false,
      "taf_trigger": false,
      "metar": "METAR LHBP 142230Z 11005KT CAVOK 07/M00 Q1007 NOSIG",
      "taf": "TAF LHBP 141715Z 1418/1518 12011KT CAVOK"
    },
    {
      "icao": "LHDC",
      "alert": "OK",
      "vis_m": 8000,
      "fzfg": false,
      "metar_trigger": false,
      "taf_trigger": false,
      "metar": "METAR LHDC 142215Z AUTO VRB03KT 8000 NCD 03/M03 Q1009",
      "taf": "TAF LHDC 141415Z 1415/1424 13006KT CAVOK"
    },
    {
      "icao": "LIBD",
      "alert": "OK",
      "vis_m": 9999,
      "fzfg": false,
      "metar_trigger": false,
      "taf_trigger": false,
      "metar": "METAR LIBD 142220Z 10005KT CAVOK 12/10 Q1005",
      "taf": "TAF LIBD 141700Z 1418/1518 16010KT 9999 SCT030"
    },
    {
      "icao": "LIBG",
      "alert": "OK",
      "vis_m": null,
      "fzfg": false,
      "metar_trigger": false,
      "taf_trigger": false,
      "metar": "",
      "taf": "TAF LIBG 141700Z 1418/1503 VRB05KT 9999 SCT020"
    },
    {
      "icao": "LIBP",
      "alert": "OK",
      "vis_m": 9999,
      "fzfg": false,
      "metar_trigger": false,
      "taf_trigger": false,
      "metar": "METAR LIBP 142220Z AUTO VRB02KT 9999 NCD 07/05 Q1002",
      "taf": "TAF LIBP 141700Z 1418/1518 24007KT 9999 FEW060"
    },
    {
      "icao": "LIBR",
      "alert": "OK",
      "vis_m": 9999,
      "fzfg": false,
      "metar_trigger": false,
      "taf_trigger": false,
      "metar": "METAR LIBR 142220Z 16007KT CAVOK 11/09 Q1007",
      "taf": "TAF LIBR 141700Z 1418/1518 20008KT 9999 SCT030"
    },
    {
      "icao": "LICA",
      "alert": "OK",
      "vis_m": 9999,
      "fzfg": false,
      "metar_trigger": false,
      "taf_trigger": false,
      "metar": "METAR LICA 142220Z AUTO 08008KT 9999 NCD 10/09 Q1006",
      "taf": "TAF LICA 141700Z 1418/1518 08014KT 9999 BKN040"
    },
    {
      "icao": "LICC",
      "alert": "OK",
      "vis_m": 9999,
      "fzfg": false,
      "metar_trigger": false,
      "taf_trigger": false,
      "metar": "METAR LICC 142220Z 29007KT 9999 SCT050 12/08 Q1006",
      "taf": "TAF LICC 141700Z 1418/1518 13010KT 9999 SCT030"
    },
    {
      "icao": "LICJ",
      "alert": "OK",
      "vis_m": 9999,
      "fzfg": false,
      "metar_trigger": false,
      "taf_trigger": false,
      "metar": "METAR LICJ 142220Z 20005KT CAVOK 12/05 Q1004",
      "taf": "TAF LICJ 141700Z 1418/1518 06008KT 9999 FEW040"
    },
    {
      "icao": "LIMC",
      "alert": "OK",
      "vis_m": 4000,
      "fzfg": false,
      "metar_trigger": false,
      "taf_trigger": false,
      "metar": "METAR LIMC 142220Z 36015KT 4000 RA BKN015 05/04 Q0999 NOSIG",
      "taf": "TAF LIMC 141700Z 1418/1524 10010KT 4000 RA BKN030"
    },
    {
      "icao": "LIME",
      "alert": "OK",
      "vis_m": 9999,
      "fzfg": false,
      "metar_trigger": false,
      "taf_trigger": false,
      "metar": "METAR LIME 142220Z 07011KT 9999 -RA BKN045 10/07 Q0999 NOSIG",
      "taf": "TAF LIME 141700Z 1418/1518 08010KT 7000 RA BKN040"
    },
    {
      "icao": "LIMF",
      "alert": "OK",
      "vis_m": 9000,
      "fzfg": false,
      "metar_trigger": false,
      "taf_trigger": false,
      "metar": "METAR LIMF 142220Z 34008KT 9000 RA FEW010 OVC030 06/04 Q0998",
      "taf": "TAF LIMF 141700Z 1418/1518 34006KT 4000 RA FEW010 BKN030"
    },
    {
      "icao": "LIMJ",
      "alert": "OK",
      "vis_m": 4000,
      "fzfg": false,
      "metar_trigger": false,
      "taf_trigger": false,
      "metar": "METAR LIMJ 142220Z 11012KT 4000 +RA FEW007 BKN014 BKN035 12/12 Q0996",
      "taf": "TAF LIMJ 141700Z 1418/1518 17016G30KT 9999 RA BKN020"
    },
    {
      "icao": "LIPE",
      "alert": "OK",
      "vis_m": 9999,
      "fzfg": false,
      "metar_trigger": false,
      "taf_trigger": false,
      "metar": "METAR LIPE 142220Z 14012KT CAVOK 14/05 Q1000",
      "taf": "TAF LIPE 141700Z 1418/1518 09007KT 9999 FEW060"
    },
    {
      "icao": "LIPH",
      "alert": "OK",
      "vis_m": 9999,
      "fzfg": false,
      "metar_trigger": false,
      "taf_trigger": false,
      "metar": "METAR LIPH 142220Z AUTO 10007KT 9999 -RA BKN010/// BKN050/// 13/12 Q1002 REDZ",
      "taf": "TAF LIPH 141700Z 1418/1518 06010KT 9000 SCT040"
    },
    {
      "icao": "LIPQ",
      "alert": "OK",
      "vis_m": 9999,
      "fzfg": false,
      "metar_trigger": false,
      "taf_trigger": false,
      "metar": "METAR LIPQ 142220Z AUTO 07003KT 9999 BKN068/// OVC099/// 12/08 Q1004",
      "taf": "TAF LIPQ 141700Z 1418/1518 VRB05KT 9999 SCT040"
    },
    {
      "icao": "LIPR",
      "alert": "OK",
      "vis_m": 9999,
      "fzfg": false,
      "metar_trigger": false,
      "taf_trigger": false,
      "metar": "METAR LIPR 142220Z AUTO 13003KT 100V190 9999 BKN160/// 11/07 Q1001",
      "taf": "TAF LIPR 141700Z 1418/1518 14007KT 9999 SCT040"
    },
    {
      "icao": "LIPX",
      "alert": "OK",
      "vis_m": 9999,
      "fzfg": false,
      "metar_trigger": false,
      "taf_trigger": false,
      "metar": "METAR LIPX 142220Z 07009KT 9999 SCT060 12/10 Q1000",
      "taf": "TAF LIPX 141700Z 1418/1518 09012KT 8000 BKN060"
    },
    {
      "icao": "LIPY",
      "alert": "OK",
      "vis_m": 9999,
      "fzfg": false,
      "metar_trigger": false,
      "taf_trigger": false,
      "metar": "METAR LIPY 142220Z AUTO 20003KT 9999 FEW072/// 10/09 Q1001",
      "taf": "TAF LIPY 141700Z 1418/1518 VRB05KT 9999 SCT060"
    },
    {
      "icao": "LIPZ",
      "alert": "OK",
      "vis_m": 9999,
      "fzfg": false,
      "metar_trigger": false,
      "taf_trigger": false,
      "metar": "METAR LIPZ 142220Z 13014KT 9999 -RA BKN070 13/12 Q1002 NOSIG",
      "taf": "TAF LIPZ 141700Z 1418/1524 15013KT 9999 SCT040"
    },
    {
      "icao": "LIRF",
      "alert": "OK",
      "vis_m": 9999,
      "fzfg": false,
      "metar_trigger": false,
      "taf_trigger": false,
      "metar": "METAR LIRF 142220Z 12012KT 9999 SCT025 BKN055 12/08 Q1002 NOSIG",
      "taf": "TAF LIRF 141700Z 1418/1524 14013KT 9999 BKN025"
    },
    {
      "icao": "LIRN",
      "alert": "OK",
      "vis_m": 9999,
      "fzfg": false,
      "metar_trigger": false,
      "taf_trigger": false,
      "metar": "METAR LIRN 142220Z 19004KT 130V240 9999 SCT030 13/08 Q1005 NOSIG",
      "taf": "TAF LIRN 141700Z 1418/1518 21010KT 9999 BKN030"
    },
    {
      "icao": "LIRP",
      "alert": "OK",
      "vis_m": 9999,
      "fzfg": false,
      "metar_trigger": false,
      "taf_trigger": false,
      "metar": "METAR LIRP 142215Z 10012KT 9999 SCT030 13/08 Q0998 WS RWY 03R NOSIG",
      "taf": "TAF LIRP 141700Z 1418/1518 10012KT 9999 SCT020 SCT050"
    },
    {
      "icao": "LIRZ",
      "alert": "OK",
      "vis_m": 9999,
      "fzfg": false,
      "metar_trigger": false,
      "taf_trigger": false,
      "metar": "METAR LIRZ 142220Z AUTO 19003KT 130V220 9999 NCD 11/07 Q1002",
      "taf": "TAF LIRZ 141700Z 1418/1518 19010KT 9999 BKN030"
    },
    {
      "icao": "LJLJ",
      "alert": "OK",
      "vis_m": 9999,
      "fzfg": false,
      "metar_trigger": false,
      "taf_trigger": false,
      "metar": "METAR LJLJ 142230Z 30002KT 9999 0400SE R30/0900N PRFG FEW001 SCT055 BKN240 05/04 Q1005 NOSIG",
      "taf": "TAF LJLJ 141700Z 1418/1518 VRB02KT 9999 BKN030"
    },
    {
      "icao": "LKMT",
      "alert": "OK",
      "vis_m": 9999,
      "fzfg": false,
      "metar_trigger": false,
      "taf_trigger": false,
      "metar": "METAR LKMT 142230Z 15006KT 110V200 CAVOK 13/00 Q1004 NOSIG",
      "taf": "TAF LKMT 141700Z 1418/1518 18014KT CAVOK"
    },
    {
      "icao": "LKPR",
      "alert": "OK",
      "vis_m": 9999,
      "fzfg": false,
      "metar_trigger": false,
      "taf_trigger": false,
      "metar": "METAR LKPR 142230Z 30009KT CAVOK 06/04 Q1003 NOSIG",
      "taf": "TAF LKPR 142000Z 1421/1603 32010KT CAVOK"
    },
    {
      "icao": "LLBG",
      "alert": "OK",
      "vis_m": 9999,
      "fzfg": false,
      "metar_trigger": false,
      "taf_trigger": false,
      "metar": "METAR LLBG 142220Z 23008KT 9999 BKN050 18/13 Q1005 NOSIG",
      "taf": ""
    },
    {
      "icao": "LMML",
      "alert": "OK",
      "vis_m": 9999,
      "fzfg": false,
      "metar_trigger": false,
      "taf_trigger": false,
      "metar": "METAR LMML 142245Z 16006KT 9999 FEW018 12/10 Q1007 NOSIG",
      "taf": "TAF LMML 141700Z 1418/1518 23010KT 9999 FEW018"
    },
    {
      "icao": "LOWW",
      "alert": "OK",
      "vis_m": 9999,
      "fzfg": false,
      "metar_trigger": false,
      "taf_trigger": false,
      "metar": "METAR LOWW 142220Z 18011KT CAVOK 10/04 Q1004 NOSIG",
      "taf": "TAF LOWW 142015Z 1421/1603 15012KT CAVOK TX14/1515Z TN05/1505Z"
    },
    {
      "icao": "LPFR",
      "alert": "OK",
      "vis_m": 9999,
      "fzfg": false,
      "metar_trigger": false,
      "taf_trigger": false,
      "metar": "METAR LPFR 142230Z 27012KT 9999 FEW006 SCT015 15/13 Q1017",
      "taf": "TAF LPFR 141700Z 1418/1518 30015KT 9999 SCT030"
    },
    {
      "icao": "LPMA",
      "alert": "OK",
      "vis_m": 9999,
      "fzfg": false,
      "metar_trigger": false,
      "taf_trigger": false,
      "metar": "METAR LPMA 142230Z 01011KT 340V040 9999 BKN015 16/11 Q1024",
      "taf": "TAF LPMA 141700Z 1418/1518 01012KT 9999 SCT015"
    },
    {
      "icao": "LPPR",
      "alert": "OK",
      "vis_m": 9999,
      "fzfg": false,
      "metar_trigger": false,
      "taf_trigger": false,
      "metar": "METAR LPPR 142230Z 33010KT 9999 FEW009 12/11 Q1017",
      "taf": "TAF LPPR 141700Z 1418/1518 31012KT 2000 -DZRA BR SCT002 BKN004"
    },
    {
      "icao": "LPPS",
      "alert": "OK",
      "vis_m": 9999,
      "fzfg": false,
      "metar_trigger": false,
      "taf_trigger": false,
      "metar": "METAR LPPS 142230Z 03009KT 350V060 9999 FEW014 BKN030 16/12 Q1025",
      "taf": "TAF LPPS 141700Z 1418/1524 02012KT 9999 SCT015 BKN030"
    },
    {
      "icao": "LPPT",
      "alert": "OK",
      "vis_m": 9999,
      "fzfg": false,
      "metar_trigger": false,
      "taf_trigger": false,
      "metar": "METAR LPPT 142230Z 33010KT 290V360 9999 FEW010 BKN015 13/11 Q1018 WS R02",
      "taf": "TAF LPPT 141700Z 1418/1524 29010KT 9999 SCT008 SCT015"
    },
    {
      "icao": "LQBK",
      "alert": "OK",
      "vis_m": 9999,
      "fzfg": false,
      "metar_trigger": false,
      "taf_trigger": false,
      "metar": "METAR LQBK 142230Z 13003KT CAVOK 08/01 Q1005 NOSIG",
      "taf": "TAF LQBK 141700Z 1418/1518 15005KT CAVOK TX20/1513Z TN04/1505Z"
    },
    {
      "icao": "LQSA",
      "alert": "OK",
      "vis_m": 9999,
      "fzfg": false,
      "metar_trigger": false,
      "taf_trigger": false,
      "metar": "METAR LQSA 142230Z VRB02KT CAVOK 05/00 Q1006",
      "taf": "TAF LQSA 141700Z 1418/1518 16005KT CAVOK TX16/1514Z TN00/1505Z"
    },
    {
      "icao": "LQTZ",
      "alert": "OK",
      "vis_m": 9999,
      "fzfg": false,
      "metar_trigger": false,
      "taf_trigger": false,
      "metar": "METAR LQTZ 142230Z 00000KT CAVOK 06/01 Q1006",
      "taf": "TAF LQTZ 141700Z 1418/1518 VRB02KT CAVOK TX20/1513Z TN00/1505Z"
    },
    {
      "icao": "LRBC",
      "alert": "OK",
      "vis_m": 7000,
      "fzfg": false,
      "metar_trigger": false,
      "taf_trigger": false,
      "metar": "METAR LRBC 142230Z 33003KT 7000 NSC M01/M02 Q1016",
      "taf": "TAF LRBC 142000Z 1421/1506 VRB04KT CAVOK"
    },
    {
      "icao": "LRBS",
      "alert": "OK",
      "vis_m": 8000,
      "fzfg": false,
      "metar_trigger": false,
      "taf_trigger": false,
      "metar": "METAR LRBS 142230Z 04004KT 010V070 8000 NSC 03/02 Q1014 TEMPO 5000 BR",
      "taf": "TAF LRBS 141700Z 1418/1518 06008KT CAVOK"
    },
    {
      "icao": "LRBV",
      "alert": "OK",
      "vis_m": 9999,
      "fzfg": false,
      "metar_trigger": false,
      "taf_trigger": false,
      "metar": "METAR LRBV 142230Z AUTO 12003KT 080V240 9999 NCD 01/M04 Q1012",
      "taf": "TAF LRBV 142000Z 1421/1506 12007KT CAVOK"
    },
    {
      "icao": "LRCL",
      "alert": "OK",
      "vis_m": 9999,
      "fzfg": false,
      "metar_trigger": false,
      "taf_trigger": false,
      "metar": "METAR LRCL 142230Z 09005KT 040V120 CAVOK 05/M05 Q1011",
      "taf": "TAF LRCL 142000Z 1421/1506 09007KT CAVOK"
    },
    {
      "icao": "LRCV",
      "alert": "OK",
      "vis_m": 9999,
      "fzfg": false,
      "metar_trigger": false,
      "taf_trigger": false,
      "metar": "METAR LRCV 142230Z 05008KT CAVOK 03/02 Q1013",
      "taf": "TAF LRCV 142000Z 1421/1506 06012KT CAVOK"
    },
    {
      "icao": "LRIA",
      "alert": "OK",
      "vis_m": 9999,
      "fzfg": false,
      "metar_trigger": false,
      "taf_trigger": false,
      "metar": "METAR LRIA 142230Z 09006KT CAVOK 04/01 Q1016",
      "taf": "TAF LRIA 142000Z 1421/1506 14006KT CAVOK"
    },
    {
      "icao": "LROP",
      "alert": "OK",
      "vis_m": 6000,
      "fzfg": false,
      "metar_trigger": false,
      "taf_trigger": false,
      "metar": "METAR LROP 142230Z 04008KT 6000 NSC 04/02 Q1014 TEMPO 3000 BR",
      "taf": "TAF LROP 141700Z 1418/1518 06008KT CAVOK"
    },
    {
      "icao": "LRSB",
      "alert": "OK",
      "vis_m": 9999,
      "fzfg": false,
      "metar_trigger": false,
      "taf_trigger": false,
      "metar": "METAR LRSB 142230Z 18008KT 150V210 CAVOK 07/M07 Q1010",
      "taf": "TAF LRSB 141700Z 1418/1518 18012KT CAVOK"
    },
    {
      "icao": "LRSM",
      "alert": "OK",
      "vis_m": 9999,
      "fzfg": false,
      "metar_trigger": false,
      "taf_trigger": false,
      "metar": "METAR LRSM 142230Z AUTO 12009KT 9999 NCD 09/M05 Q1010",
      "taf": ""
    },
    {
      "icao": "LRSV",
      "alert": "OK",
      "vis_m": 9999,
      "fzfg": false,
      "metar_trigger": false,
      "taf_trigger": false,
      "metar": "METAR LRSV 142230Z 17008KT CAVOK 01/00 Q1014",
      "taf": "TAF LRSV 142000Z 1421/1506 16012KT CAVOK"
    },
    {
      "icao": "LRTM",
      "alert": "OK",
      "vis_m": 9999,
      "fzfg": false,
      "metar_trigger": false,
      "taf_trigger": false,
      "metar": "METAR LRTM 142230Z AUTO VRB02KT 9999 NCD 03/M05 Q1012",
      "taf": "TAF LRTM 141400Z 1415/1424 12006KT CAVOK"
    },
    {
      "icao": "LRTR",
      "alert": "OK",
      "vis_m": 9999,
      "fzfg": false,
      "metar_trigger": false,
      "taf_trigger": false,
      "metar": "METAR LRTR 142230Z 11006KT CAVOK 04/M01 Q1009",
      "taf": "TAF LRTR 141700Z 1418/1518 17010KT CAVOK"
    },
    {
      "icao": "LTAC",
      "alert": "OK",
      "vis_m": 9999,
      "fzfg": false,
      "metar_trigger": false,
      "taf_trigger": false,
      "metar": "METAR LTAC 142220Z 06007KT CAVOK 04/M06 Q1006 NOSIG RMK RWY21C 02006KT RWY03L 06006KT RWY21R 01007KT RWY03R 04006KT RWY21L 06004KT",
      "taf": "TAF LTAC 141640Z 1418/1518 VRB02KT CAVOK"
    },
    {
      "icao": "LTFM",
      "alert": "OK",
      "vis_m": 9999,
      "fzfg": false,
      "metar_trigger": false,
      "taf_trigger": false,
      "metar": "METAR LTFM 142220Z 06013KT 9999 FEW012 BKN022 08/04 Q1009 NOSIG RMK RWY17L 04008KT RWY34L 04010KT 010V070 RWY16R 04008KT RWY36 06010KT RWY18 06011KT",
      "taf": "TAF LTFM 141640Z 1418/1524 04012KT 9999 BKN023"
    },
    {
      "icao": "LUKK",
      "alert": "OK",
      "vis_m": 9999,
      "fzfg": false,
      "metar_trigger": false,
      "taf_trigger": false,
      "metar": "METAR LUKK 142230Z 06005KT CAVOK 03/00 Q1017 NOSIG",
      "taf": "TAF LUKK 141703Z 1418/1518 VRB05KT CAVOK"
    },
    {
      "icao": "LWOH",
      "alert": "OK",
      "vis_m": null,
      "fzfg": false,
      "metar_trigger": false,
      "taf_trigger": false,
      "metar": "",
      "taf": "TAF LWOH 142010Z 1421/1521 VRB02KT FEW040"
    },
    {
      "icao": "LWSK",
      "alert": "OK",
      "vis_m": 9999,
      "fzfg": false,
      "metar_trigger": false,
      "taf_trigger": false,
      "metar": "METAR LWSK 142220Z 12005KT 060V150 CAVOK 06/01 Q1009 NOSIG",
      "taf": "TAF LWSK 142010Z 1421/1521 VRB02KT CAVOK"
    },
    {
      "icao": "LYBE",
      "alert": "OK",
      "vis_m": 9999,
      "fzfg": false,
      "metar_trigger": false,
      "taf_trigger": false,
      "metar": "METAR LYBE 142230Z 13016KT CAVOK 09/M00 Q1008 NOSIG",
      "taf": "TAF LYBE 141700Z 1418/1518 12016KT CAVOK TX18/1513Z TN07/1505Z"
    },
    {
      "icao": "LYNI",
      "alert": "OK",
      "vis_m": 9999,
      "fzfg": false,
      "metar_trigger": false,
      "taf_trigger": false,
      "metar": "METAR LYNI 142230Z 05005KT 020V100 CAVOK 10/M00 Q1009 NOSIG",
      "taf": "TAF LYNI 141700Z 1418/1518 04005KT CAVOK TX18/1513Z TN03/1505Z"
    },
    {
      "icao": "LYPG",
      "alert": "OK",
      "vis_m": 9999,
      "fzfg": false,
      "metar_trigger": false,
      "taf_trigger": false,
      "metar": "METAR LYPG 142230Z 31003KT CAVOK 08/04 Q1008 NOSIG",
      "taf": "TAF LYPG 141700Z 1418/1518 02005KT CAVOK TX21/1514Z TN06/1505Z"
    },
    {
      "icao": "LZIB",
      "alert": "OK",
      "vis_m": 9999,
      "fzfg": false,
      "metar_trigger": false,
      "taf_trigger": false,
      "metar": "METAR LZIB 142230Z 02005KT CAVOK 06/02 Q1005 NOSIG",
      "taf": "TAF LZIB 141715Z 1418/1518 16008KT CAVOK"
    },
    {
      "icao": "LZKZ",
      "alert": "OK",
      "vis_m": 9999,
      "fzfg": false,
      "metar_trigger": false,
      "taf_trigger": false,
      "metar": "METAR LZKZ 142230Z 36005KT CAVOK 05/M03 Q1009 NOSIG",
      "taf": "TAF LZKZ 141715Z 1418/1518 VRB02KT CAVOK"
    },
    {
      "icao": "LZTT",
      "alert": "OK",
      "vis_m": 9999,
      "fzfg": false,
      "metar_trigger": false,
      "taf_trigger": false,
      "metar": "METAR LZTT 142230Z 25005KT 180V290 CAVOK 01/M04 Q1008",
      "taf": "TAF LZTT 141715Z 1418/1518 27005KT CAVOK"
    },
    {
      "icao": "OEJN",
      "alert": "OK",
      "vis_m": 9999,
      "fzfg": false,
      "metar_trigger": false,
      "taf_trigger": false,
      "metar": "METAR OEJN 142200Z 15010KT CAVOK 29/15 Q1006 NOSIG",
      "taf": "TAF OEJN 141700Z 1418/1524 18008KT 7000 NSC"
    },
    {
      "icao": "OEMA",
      "alert": "OK",
      "vis_m": 9999,
      "fzfg": false,
      "metar_trigger": false,
      "taf_trigger": false,
      "metar": "METAR OEMA 142200Z 20008KT CAVOK 28/12 Q1010 NOSIG",
      "taf": "TAF OEMA 141700Z 1418/1524 22005KT CAVOK"
    },
    {
      "icao": "OJAI",
      "alert": "OK",
      "vis_m": 4000,
      "fzfg": false,
      "metar_trigger": false,
      "taf_trigger": false,
      "metar": "METAR OJAI 142200Z 29006KT 4000 MIFG SCT030 12/09 Q1006 NOSIG",
      "taf": "TAF OJAI 141700Z 1418/1524 21012KT 3500 -RA FEW035TCU SCT045"
    },
    {
      "icao": "OMAA",
      "alert": "OK",
      "vis_m": null,
      "fzfg": false,
      "metar_trigger": false,
      "taf_trigger": false,
      "metar": "",
      "taf": ""
    },
    {
      "icao": "OMDB",
      "alert": "OK",
      "vis_m": null,
      "fzfg": false,
      "metar_trigger": false,
      "taf_trigger": false,
      "metar": "",
      "taf": ""
    },
    {
      "icao": "UAAA",
      "alert": "OK",
      "vis_m": 9999,
      "fzfg": false,
      "metar_trigger": false,
      "taf_trigger": false,
      "metar": "METAR UAAA 142230Z 24003MPS 9999 BKN200 M03/M06 Q1023 NOSIG",
      "taf": "TAF UAAA 141700Z 1418/1518 22003MPS 3100 BR FU SCT100 TX06/1509Z TNM06/1501Z"
    },
    {
      "icao": "UBBB",
      "alert": "OK",
      "vis_m": 9999,
      "fzfg": false,
      "metar_trigger": false,
      "taf_trigger": false,
      "metar": "METAR UBBB 142230Z 12008KT 9999 SCT023 09/06 Q1022 NOSIG",
      "taf": "TAF UBBB 141710Z 1418/1518 15008KT 9999 BKN030 TX12/1510Z TN04/1502Z"
    },
    {
      "icao": "UDSG",
      "alert": "OK",
      "vis_m": 1100,
      "fzfg": false,
      "metar_trigger": false,
      "taf_trigger": false,
      "metar": "METAR UDSG 142230Z 21002KT 1100 R02/P2000U SN BR SCT006 OVC023 00/00 Q1015 NOSIG",
      "taf": "TAF UDSG 141700Z 1418/1518 VRB06KT 1000 BR OVC010"
    },
    {
      "icao": "UDYZ",
      "alert": "OK",
      "vis_m": 9000,
      "fzfg": false,
      "metar_trigger": false,
      "taf_trigger": false,
      "metar": "METAR UDYZ 142230Z 23003KT 9000 BKN024CB 06/05 Q1015 NOSIG",
      "taf": "TAF UDYZ 141700Z 1418/1518 04006KT 6000 BKN040"
    },
    {
      "icao": "UGKO",
      "alert": "OK",
      "vis_m": 9999,
      "fzfg": false,
      "metar_trigger": false,
      "taf_trigger": false,
      "metar": "METAR UGKO 142230Z 08032G47KT CAVOK 12/01 Q1011 NOSIG",
      "taf": "TAF UGKO 141700Z 1418/1518 08031G45KT 9999 BKN080 TX14/1511Z TN10/1503Z"
    }
  ]
}