{
  "ts_utc": "2026-02-22T20:47:02Z",
  "threshold_m": 150,
  "source": "stations_override.txt (ICAO list) + aviationweather.gov (METAR/TAF raw)",
  "station_count": 159,
  "stations": [
    {
      "icao": "BIKF",
      "alert": "OK",
      "vis_m": 9999,
      "fzfg": false,
      "metar_trigger": false,
      "taf_trigger": false,
      "metar": "METAR BIKF 221900Z 06011KT 9999 SCT016 BKN034 BKN064 02/M02 Q0992",
      "taf": "TAF BIKF 221941Z 2221/2321 07007KT 9999 SCT020 BKN035 TX07/2314Z TN01/2302Z"
    },
    {
      "icao": "BKPR",
      "alert": "OK",
      "vis_m": 9999,
      "fzfg": false,
      "metar_trigger": false,
      "taf_trigger": false,
      "metar": "METAR BKPR 221900Z 23003KT 200V270 CAVOK 02/01 Q1025 NOSIG",
      "taf": "TAF BKPR 221730Z 2218/2318 35006KT 9999 FEW050"
    },
    {
      "icao": "EBCI",
      "alert": "OK",
      "vis_m": 9999,
      "fzfg": false,
      "metar_trigger": false,
      "taf_trigger": false,
      "metar": "METAR EBCI 221850Z 23016KT 9999 -RADZ SCT006 BKN008 11/10 Q1018 TEMPO 4000 -RADZ",
      "taf": "TAF EBCI 221720Z 2218/2324 24014KT 9999 SCT005 BKN009"
    },
    {
      "icao": "EDDB",
      "alert": "OK",
      "vis_m": 9999,
      "fzfg": false,
      "metar_trigger": false,
      "taf_trigger": false,
      "metar": "METAR EDDB 221850Z AUTO 26013KT 9999 -SHRA BKN014 OVC019 FEW///TCU 11/10 Q1009 RESHRA TEMPO 26015G25KT BKN015",
      "taf": "TAF EDDB 221700Z 2218/2318 24012KT 9999 SCT010 BKN015"
    },
    {
      "icao": "EDDH",
      "alert": "OK",
      "vis_m": 9999,
      "fzfg": false,
      "metar_trigger": false,
      "taf_trigger": false,
      "metar": "METAR EDDH 221850Z AUTO 28011KT 250V310 9999 BKN011 09/07 Q1009 TEMPO SCT012",
      "taf": "TAF EDDH 221700Z 2218/2324 26010KT 9999 OVC008"
    },
    {
      "icao": "EDDK",
      "alert": "OK",
      "vis_m": 9999,
      "fzfg": false,
      "metar_trigger": false,
      "taf_trigger": false,
      "metar": "METAR EDDK 221850Z AUTO 22006KT 9999 -RA FEW015 SCT033 11/10 Q1016 TEMPO BKN012",
      "taf": "TAF EDDK 221700Z 2218/2324 25010KT 9999 BKN015"
    },
    {
      "icao": "EDDN",
      "alert": "OK",
      "vis_m": 9999,
      "fzfg": false,
      "metar_trigger": false,
      "taf_trigger": false,
      "metar": "METAR EDDN 221850Z AUTO 24010KT 9999 -SHRA BKN013 BKN017 FEW///CB 10/08 Q1018 RESHRA NOSIG",
      "taf": "TAF EDDN 221700Z 2218/2318 25012KT 9999 BKN020"
    },
    {
      "icao": "EDDS",
      "alert": "OK",
      "vis_m": 9999,
      "fzfg": false,
      "metar_trigger": false,
      "taf_trigger": false,
      "metar": "METAR EDDS 221920Z AUTO 24006KT 190V270 9999 FEW028 10/07 Q1019 NOSIG",
      "taf": "TAF EDDS 221700Z 2218/2318 23008KT 9999 BKN030"
    },
    {
      "icao": "EDFH",
      "alert": "OK",
      "vis_m": 6000,
      "fzfg": false,
      "metar_trigger": false,
      "taf_trigger": false,
      "metar": "METAR EDFH 221820Z 25016G28KT 6000 RA OVC005 09/08 Q1018",
      "taf": "TAF EDFH 221700Z 2218/2318 26015G25KT 9999 BKN006"
    },
    {
      "icao": "EDJA",
      "alert": "OK",
      "vis_m": null,
      "fzfg": false,
      "metar_trigger": false,
      "taf_trigger": false,
      "metar": "",
      "taf": "TAF EDJA 221700Z 2218/2303 23013KT 9999 BKN055"
    },
    {
      "icao": "EDLW",
      "alert": "OK",
      "vis_m": 2500,
      "fzfg": false,
      "metar_trigger": false,
      "taf_trigger": false,
      "metar": "METAR EDLW 221820Z 24010KT 220V280 2500 SHRA BR FEW007 BKN011 OVC020 10/09 Q1014",
      "taf": "TAF EDLW 221700Z 2218/2318 24010KT 9999 BKN015"
    },
    {
      "icao": "EDNY",
      "alert": "OK",
      "vis_m": 9999,
      "fzfg": false,
      "metar_trigger": false,
      "taf_trigger": false,
      "metar": "METAR EDNY 221820Z AUTO VRB01KT 9999 // SCT029/// OVC100/// 08/05 Q1023",
      "taf": "TAF EDNY 221700Z 2218/2303 24006KT 9999 OVC030"
    },
    {
      "icao": "EDSB",
      "alert": "OK",
      "vis_m": 9999,
      "fzfg": false,
      "metar_trigger": false,
      "taf_trigger": false,
      "metar": "METAR EDSB 221820Z 20012KT 9999 BKN026 OVC031 11/09 Q1021",
      "taf": "TAF EDSB 221700Z 2218/2318 21012KT 9999 BKN025"
    },
    {
      "icao": "EETN",
      "alert": "OK",
      "vis_m": 9999,
      "fzfg": false,
      "metar_trigger": false,
      "taf_trigger": false,
      "metar": "METAR EETN 221920Z 26006KT CAVOK M05/M06 Q1008 NOSIG",
      "taf": ""
    },
    {
      "icao": "EFTU",
      "alert": "OK",
      "vis_m": 900,
      "fzfg": true,
      "metar_trigger": false,
      "taf_trigger": false,
      "metar": "METAR EFTU 221850Z AUTO 25005KT 0900 R26/P2000D FZFG NCD M08/M09 Q1008",
      "taf": "TAF EFTU 222025Z 2221/2321 26005KT 0600 FZFG NSC"
    },
    {
      "icao": "EGBB",
      "alert": "OK",
      "vis_m": 9999,
      "fzfg": false,
      "metar_trigger": false,
      "taf_trigger": false,
      "metar": "METAR EGBB 221850Z 24008KT 210V270 9999 SCT038 11/05 Q1013",
      "taf": "TAF EGBB 221659Z 2218/2318 24012KT 9999 FEW025"
    },
    {
      "icao": "EGGP",
      "alert": "OK",
      "vis_m": 9999,
      "fzfg": false,
      "metar_trigger": false,
      "taf_trigger": false,
      "metar": "METAR EGGP 221850Z 23013KT 9999 FEW026 10/06 Q1011",
      "taf": "TAF EGGP 221701Z 2218/2318 24013KT 9999 FEW030"
    },
    {
      "icao": "EGGW",
      "alert": "OK",
      "vis_m": 9999,
      "fzfg": false,
      "metar_trigger": false,
      "taf_trigger": false,
      "metar": "METAR EGGW 221850Z AUTO 25020KT 9999 NCD 10/06 Q1014",
      "taf": "TAF EGGW 221659Z 2218/2318 25015KT 9999 FEW030"
    },
    {
      "icao": "EGKK",
      "alert": "OK",
      "vis_m": 9999,
      "fzfg": false,
      "metar_trigger": false,
      "taf_trigger": false,
      "metar": "METAR EGKK 221850Z 22008KT CAVOK 10/09 Q1016",
      "taf": "TAF EGKK 221657Z 2218/2324 23012KT 9999 SCT030"
    },
    {
      "icao": "EGNM",
      "alert": "OK",
      "vis_m": 9999,
      "fzfg": false,
      "metar_trigger": false,
      "taf_trigger": false,
      "metar": "METAR EGNM 221850Z 24016KT 9999 FEW027 09/05 Q1008",
      "taf": "TAF EGNM 221658Z 2218/2318 26014KT 9999 SCT030"
    },
    {
      "icao": "EGPD",
      "alert": "OK",
      "vis_m": 9999,
      "fzfg": false,
      "metar_trigger": false,
      "taf_trigger": false,
      "metar": "METAR EGPD 221850Z COR AUTO 22006KT 9999 SCT042 08/03 Q1000 NOSIG",
      "taf": "TAF EGPD 221655Z 2218/2318 24009KT 9999 FEW035"
    },
    {
      "icao": "EGPF",
      "alert": "OK",
      "vis_m": 9999,
      "fzfg": false,
      "metar_trigger": false,
      "taf_trigger": false,
      "metar": "METAR EGPF 221850Z AUTO 23014KT 9999 SCT047/// //////TCU 07/05 Q1004",
      "taf": "TAF EGPF 221657Z 2218/2318 22009KT 9999 SCT035"
    },
    {
      "icao": "EHBK",
      "alert": "OK",
      "vis_m": 4600,
      "fzfg": false,
      "metar_trigger": false,
      "taf_trigger": false,
      "metar": "METAR EHBK 221825Z AUTO 24011KT 210V270 4600 +DZ FEW002 SCT007 BKN008 11/10 Q1017 TEMPO 4000 -RADZ",
      "taf": ""
    },
    {
      "icao": "EHEH",
      "alert": "OK",
      "vis_m": 9999,
      "fzfg": false,
      "metar_trigger": false,
      "taf_trigger": false,
      "metar": "METAR EHEH 221825Z AUTO 24012KT 210V280 9999 FEW008 SCT010 BKN012 11/10 Q1015 GRN NOSIG RMK TREND REMOTE BY EHWX",
      "taf": "TAF EHEH 221124Z 2212/2318 24012G22KT 8000 -RA FEW006 BKN008 OVC012"
    },
    {
      "icao": "EKBI",
      "alert": "OK",
      "vis_m": 800,
      "fzfg": false,
      "metar_trigger": false,
      "taf_trigger": false,
      "metar": "METAR EKBI 221850Z AUTO 27010KT 0800 R09/P1500N R27/P1500U -RA FG OVC002/// 04/04 Q1005",
      "taf": "TAF EKBI 222027Z 2221/2321 25008KT 7000 SCT003 BKN030"
    },
    {
      "icao": "EKCH",
      "alert": "OK",
      "vis_m": 2000,
      "fzfg": false,
      "metar_trigger": false,
      "taf_trigger": false,
      "metar": "METAR EKCH 221850Z 14009KT 2000 BR -RA VV002 01/01 Q1004 TEMPO 0600 FG",
      "taf": "TAF EKCH 222027Z 2221/2321 17002KT 3000 -RADZ BR BKN004"
    },
    {
      "icao": "ENAL",
      "alert": "OK",
      "vis_m": 9999,
      "fzfg": false,
      "metar_trigger": false,
      "taf_trigger": false,
      "metar": "METAR ENAL 221820Z 13014KT 9999 FEW015 BKN056 01/M02 Q0997",
      "taf": "TAF ENAL 222000Z 2221/2306 13012KT 9999 -RA BKN030"
    },
    {
      "icao": "ENBR",
      "alert": "OK",
      "vis_m": 2500,
      "fzfg": false,
      "metar_trigger": false,
      "taf_trigger": false,
      "metar": "METAR ENBR 221820Z 14015KT 2500 RA SCT003 BKN010 02/01 Q0997 TEMPO 9000 -RA SCT010 BKN020 RMK WIND 1200FT 15022KT",
      "taf": ""
    },
    {
      "icao": "ENGM",
      "alert": "OK",
      "vis_m": 9000,
      "fzfg": false,
      "metar_trigger": false,
      "taf_trigger": false,
      "metar": "METAR ENGM 221820Z VRB02KT 9000 -SN SCT010 BKN024 M05/M06 Q1005 TEMPO 4000 -SN",
      "taf": "TAF ENGM 221700Z 2218/2318 02003KT 8000 -SN BKN025"
    },
    {
      "icao": "ENHD",
      "alert": "OK",
      "vis_m": 9999,
      "fzfg": false,
      "metar_trigger": false,
      "taf_trigger": false,
      "metar": "METAR ENHD 221820Z 17013KT 9999 -RADZ SCT003 BKN005 03/02 Q0999",
      "taf": "TAF ENHD 221400Z 2215/2223 13015KT 8000 -RA SCT005 BKN020"
    },
    {
      "icao": "ENTC",
      "alert": "OK",
      "vis_m": 3500,
      "fzfg": false,
      "metar_trigger": false,
      "taf_trigger": false,
      "metar": "METAR ENTC 221820Z 18011KT 3500 -SHSN VV013 M02/M03 Q1002 TEMPO 6000 -SHSN SCT012 BKN020CB RMK WIND 2600FT 25004KT",
      "taf": ""
    },
    {
      "icao": "ENTO",
      "alert": "OK",
      "vis_m": 3400,
      "fzfg": false,
      "metar_trigger": false,
      "taf_trigger": false,
      "metar": "METAR ENTO 221820Z 01005KT 3400 FZDZ VV016 M03/M03 Q1004 TEMPO 8000 -FZDZ BKN008",
      "taf": ""
    },
    {
      "icao": "ENVA",
      "alert": "OK",
      "vis_m": 9999,
      "fzfg": false,
      "metar_trigger": false,
      "taf_trigger": false,
      "metar": "METAR ENVA 221820Z 08008KT CAVOK 00/M07 Q1000 RMK WIND 670FT 14009KT",
      "taf": "TAF ENVA 221700Z 2218/2318 09010KT CAVOK"
    },
    {
      "icao": "ENZV",
      "alert": "OK",
      "vis_m": 9999,
      "fzfg": false,
      "metar_trigger": false,
      "taf_trigger": false,
      "metar": "METAR ENZV 221820Z 17010KT 9999 BKN016 BKN020 04/02 Q1000 TEMPO BKN014",
      "taf": "TAF ENZV 221700Z 2218/2318 15012KT 9999 SCT020 BKN035"
    },
    {
      "icao": "EPGD",
      "alert": "OK",
      "vis_m": 2700,
      "fzfg": false,
      "metar_trigger": false,
      "taf_trigger": false,
      "metar": "METAR EPGD 221830Z 13010KT 2700 -RA BR BKN002 01/01 Q1007",
      "taf": ""
    },
    {
      "icao": "EPKK",
      "alert": "OK",
      "vis_m": 9999,
      "fzfg": false,
      "metar_trigger": false,
      "taf_trigger": false,
      "metar": "METAR EPKK 221830Z 23006KT 9999 -RA BKN020 05/04 Q1013",
      "taf": "TAF EPKK 222030Z 2221/2321 23006KT 5000 BR OVC016"
    },
    {
      "icao": "EPKT",
      "alert": "OK",
      "vis_m": 8000,
      "fzfg": false,
      "metar_trigger": false,
      "taf_trigger": false,
      "metar": "METAR EPKT 221830Z 22014KT 200V260 8000 -RA OVC004 05/05 Q1012",
      "taf": "TAF EPKT 221730Z 2218/2318 23015KT 5000 -RA BR OVC006"
    },
    {
      "icao": "EPLB",
      "alert": "OK",
      "vis_m": 9999,
      "fzfg": false,
      "metar_trigger": false,
      "taf_trigger": false,
      "metar": "METAR EPLB 221830Z 19007KT 9999 -RA BKN027 03/01 Q1012",
      "taf": "TAF EPLB 221730Z 2218/2318 17005KT 9000 -RA BKN020"
    },
    {
      "icao": "EPMO",
      "alert": "OK",
      "vis_m": 2300,
      "fzfg": false,
      "metar_trigger": false,
      "taf_trigger": false,
      "metar": "METAR EPMO 221830Z 13005KT 2300 -RA BR OVC004 03/03 Q1010",
      "taf": "TAF EPMO 221730Z 2218/2318 15005KT 3000 -RA BR OVC004"
    },
    {
      "icao": "EPPO",
      "alert": "OK",
      "vis_m": 5000,
      "fzfg": false,
      "metar_trigger": false,
      "taf_trigger": false,
      "metar": "METAR EPPO 221830Z 23006KT 5000 -RA BR BKN001 OVC010 08/08 Q1008",
      "taf": ""
    },
    {
      "icao": "EPRA",
      "alert": "OK",
      "vis_m": 8000,
      "fzfg": false,
      "metar_trigger": false,
      "taf_trigger": false,
      "metar": "METAR EPRA 221830Z 17008KT 8000 -RA OVC016 05/04 Q1011",
      "taf": "TAF EPRA 222030Z 2221/2306 22010KT 6000 -RA BKN006 OVC012"
    },
    {
      "icao": "EPRZ",
      "alert": "OK",
      "vis_m": 9999,
      "fzfg": false,
      "metar_trigger": false,
      "taf_trigger": false,
      "metar": "METAR EPRZ 221830Z 20016KT 9999 OVC026 03/00 Q1014",
      "taf": ""
    },
    {
      "icao": "EPSC",
      "alert": "OK",
      "vis_m": 3900,
      "fzfg": false,
      "metar_trigger": false,
      "taf_trigger": false,
      "metar": "METAR EPSC 221830Z 23004KT 200V290 3900 -RA BR OVC001 08/08 Q1006 RERA",
      "taf": "TAF EPSC 221730Z 2218/2318 20004KT 4000 -RA BR BKN002"
    },
    {
      "icao": "EPSY",
      "alert": "OK",
      "vis_m": 9999,
      "fzfg": false,
      "metar_trigger": false,
      "taf_trigger": false,
      "metar": "METAR EPSY 221830Z 13003KT 090V190 9999 -RADZ OVC010 02/00 Q1010",
      "taf": "TAF EPSY 222030Z 2221/2306 14005KT 7000 -RA OVC008"
    },
    {
      "icao": "EPWA",
      "alert": "OK",
      "vis_m": 5000,
      "fzfg": false,
      "metar_trigger": false,
      "taf_trigger": false,
      "metar": "METAR EPWA 221830Z 13008KT 5000 -RA BR BKN002 OVC013 04/04 Q1010 TEMPO 3000 BR",
      "taf": "TAF EPWA 222030Z 2221/2321 15005KT 5000 -RA BR OVC005"
    },
    {
      "icao": "EPWR",
      "alert": "OK",
      "vis_m": 9999,
      "fzfg": false,
      "metar_trigger": false,
      "taf_trigger": false,
      "metar": "METAR EPWR 221830Z 22008KT 9999 -RA BKN024 08/07 Q1011",
      "taf": "TAF EPWR 222030Z 2221/2321 27012KT 9999 BKN025"
    },
    {
      "icao": "ESGG",
      "alert": "OK",
      "vis_m": 3700,
      "fzfg": false,
      "metar_trigger": false,
      "taf_trigger": false,
      "metar": "METAR ESGG 221850Z 14007KT 090V170 3700 -SN BKN003 OVC009 M00/M00 Q1003",
      "taf": "TAF ESGG 222030Z 2221/2321 14006KT 5000 -SN OVC005"
    },
    {
      "icao": "ESKN",
      "alert": "OK",
      "vis_m": 9999,
      "fzfg": false,
      "metar_trigger": false,
      "taf_trigger": false,
      "metar": "METAR ESKN 221850Z 12005KT CAVOK M01/M04 Q1008",
      "taf": "TAF ESKN 222030Z 2221/2321 13008KT CAVOK"
    },
    {
      "icao": "ESMS",
      "alert": "OK",
      "vis_m": 350,
      "fzfg": false,
      "metar_trigger": false,
      "taf_trigger": false,
      "metar": "METAR ESMS 221850Z 12007KT 0350 R17/1500U R35/1400U RA OVC001 01/01 Q1004",
      "taf": "TAF ESMS 222027Z 2221/2321 12005KT 0200 FG BKN001"
    },
    {
      "icao": "ESSA",
      "alert": "OK",
      "vis_m": 9999,
      "fzfg": false,
      "metar_trigger": false,
      "taf_trigger": false,
      "metar": "METAR ESSA 221850Z 08003KT CAVOK M05/M06 Q1008 NOSIG",
      "taf": "TAF ESSA 222030Z 2221/2321 VRB03KT CAVOK"
    },
    {
      "icao": "EYKA",
      "alert": "OK",
      "vis_m": 9999,
      "fzfg": false,
      "metar_trigger": false,
      "taf_trigger": false,
      "metar": "METAR EYKA 221920Z 13002KT CAVOK M03/M04 Q1012",
      "taf": "TAF EYKA 221716Z 2218/2318 VRB04KT 9000 SCT025"
    },
    {
      "icao": "EYPA",
      "alert": "OK",
      "vis_m": 9999,
      "fzfg": false,
      "metar_trigger": false,
      "taf_trigger": false,
      "metar": "METAR EYPA 221920Z 13004KT CAVOK M01/M04 Q1011",
      "taf": "TAF EYPA 221716Z 2218/2318 VRB04KT 9000 SCT025"
    },
    {
      "icao": "EYVI",
      "alert": "OK",
      "vis_m": 4600,
      "fzfg": false,
      "metar_trigger": false,
      "taf_trigger": false,
      "metar": "METAR EYVI 221850Z 21004KT 4600 BR NSC M04/M05 Q1012 NOSIG",
      "taf": "TAF EYVI 221717Z 2218/2318 VRB04KT 5000 BR BKN015"
    },
    {
      "icao": "GCFV",
      "alert": "OK",
      "vis_m": 9999,
      "fzfg": false,
      "metar_trigger": false,
      "taf_trigger": false,
      "metar": "METAR GCFV 221830Z 01006KT CAVOK 21/14 Q1022",
      "taf": ""
    },
    {
      "icao": "GCLP",
      "alert": "OK",
      "vis_m": 9999,
      "fzfg": false,
      "metar_trigger": false,
      "taf_trigger": false,
      "metar": "METAR GCLP 221830Z 06003KT 020V100 CAVOK 22/14 Q1021 NOSIG",
      "taf": "TAF GCLP 222000Z 2221/2321 36012KT CAVOK TX25/2314Z TN19/2306Z"
    },
    {
      "icao": "GCTS",
      "alert": "OK",
      "vis_m": 9999,
      "fzfg": false,
      "metar_trigger": false,
      "taf_trigger": false,
      "metar": "METAR GCTS 221830Z 09008KT CAVOK 26/06 Q1021 NOSIG",
      "taf": "TAF GCTS 222000Z 2221/2321 04005KT CAVOK TX27/2314Z TN19/2306Z"
    },
    {
      "icao": "GMAD",
      "alert": "OK",
      "vis_m": 9999,
      "fzfg": false,
      "metar_trigger": false,
      "taf_trigger": false,
      "metar": "METAR GMAD 221830Z 24011KT CAVOK 24/04 Q1021 NOSIG",
      "taf": "TAF GMAD 221700Z 2218/2324 06007KT CAVOK"
    },
    {
      "icao": "GMMN",
      "alert": "OK",
      "vis_m": 9999,
      "fzfg": false,
      "metar_trigger": false,
      "taf_trigger": false,
      "metar": "METAR GMMN 221830Z 02006KT CAVOK 18/13 Q1025 NOSIG",
      "taf": "TAF GMMN 221700Z 2218/2324 36007KT CAVOK"
    },
    {
      "icao": "GMMX",
      "alert": "OK",
      "vis_m": 9999,
      "fzfg": false,
      "metar_trigger": false,
      "taf_trigger": false,
      "metar": "METAR GMMX 221830Z 08006KT CAVOK 23/06 Q1025 NOSIG",
      "taf": "TAF GMMX 221700Z 2218/2324 08006KT 8000 NSC"
    },
    {
      "icao": "HEGN",
      "alert": "OK",
      "vis_m": null,
      "fzfg": false,
      "metar_trigger": false,
      "taf_trigger": false,
      "metar": "",
      "taf": "TAF HEGN 221700Z 2218/2324 30015KT CAVOK"
    },
    {
      "icao": "HEMA",
      "alert": "OK",
      "vis_m": null,
      "fzfg": false,
      "metar_trigger": false,
      "taf_trigger": false,
      "metar": "",
      "taf": "TAF HEMA 221700Z 2218/2324 31015KT CAVOK"
    },
    {
      "icao": "HESH",
      "alert": "OK",
      "vis_m": null,
      "fzfg": false,
      "metar_trigger": false,
      "taf_trigger": false,
      "metar": "",
      "taf": "TAF HESH 221700Z 2218/2324 35012KT CAVOK"
    },
    {
      "icao": "HESX",
      "alert": "OK",
      "vis_m": null,
      "fzfg": false,
      "metar_trigger": false,
      "taf_trigger": false,
      "metar": "",
      "taf": "TAF HESX 221700Z 2218/2324 33008KT CAVOK"
    },
    {
      "icao": "LATI",
      "alert": "OK",
      "vis_m": 9999,
      "fzfg": false,
      "metar_trigger": false,
      "taf_trigger": false,
      "metar": "METAR LATI 221920Z 11005KT 070V130 CAVOK 07/02 Q1022 NOSIG",
      "taf": "TAF LATI 221100Z 2212/2312 34010KT CAVOK TX16/2312Z TN04/2305Z"
    },
    {
      "icao": "LBPD",
      "alert": "OK",
      "vis_m": 9999,
      "fzfg": false,
      "metar_trigger": false,
      "taf_trigger": false,
      "metar": "METAR LBPD 221830Z AUTO 28014KT 9999 FEW110/// 06/00 Q1023 NOSIG",
      "taf": "TAF LBPD 221700Z 2218/2318 28010KT 9999 NSC"
    },
    {
      "icao": "LBSF",
      "alert": "OK",
      "vis_m": 9999,
      "fzfg": false,
      "metar_trigger": false,
      "taf_trigger": false,
      "metar": "METAR LBSF 221830Z AUTO 30005KT 9999 OVC022/// 03/M01 Q1024 NOSIG",
      "taf": "TAF LBSF 221700Z 2218/2318 29012KT 9999 SCT020 BKN030"
    },
    {
      "icao": "LBWN",
      "alert": "OK",
      "vis_m": 9999,
      "fzfg": false,
      "metar_trigger": false,
      "taf_trigger": false,
      "metar": "METAR LBWN 221830Z AUTO 28009KT 9999 NSC 02/M00 Q1022 NOSIG",
      "taf": "TAF LBWN 221700Z 2218/2318 30010KT CAVOK"
    },
    {
      "icao": "LCLK",
      "alert": "OK",
      "vis_m": 9999,
      "fzfg": false,
      "metar_trigger": false,
      "taf_trigger": false,
      "metar": "METAR LCLK 221830Z 29002KT 9999 FEW030 13/11 Q1013 NOSIG",
      "taf": "TAF LCLK 221730Z 2218/2318 30006KT 9999 FEW025"
    },
    {
      "icao": "LCPH",
      "alert": "OK",
      "vis_m": 9999,
      "fzfg": false,
      "metar_trigger": false,
      "taf_trigger": false,
      "metar": "METAR LCPH 221830Z 02007KT 9999 FEW028 12/09 Q1014 NOSIG",
      "taf": "TAF LCPH 221730Z 2218/2318 01007KT 9999 FEW020"
    },
    {
      "icao": "LEAL",
      "alert": "OK",
      "vis_m": 9999,
      "fzfg": false,
      "metar_trigger": false,
      "taf_trigger": false,
      "metar": "METAR LEAL 221830Z VRB01KT CAVOK 14/07 Q1027 NOSIG",
      "taf": "TAF LEAL 221700Z 2218/2318 VRB04KT CAVOK TX20/2312Z TN08/2306Z"
    },
    {
      "icao": "LEBB",
      "alert": "OK",
      "vis_m": 9999,
      "fzfg": false,
      "metar_trigger": false,
      "taf_trigger": false,
      "metar": "METAR LEBB 221830Z 30005KT 280V340 9999 BKN013 BKN025 12/10 Q1029 TEMPO 3000 BR BKN005",
      "taf": "TAF LEBB 221700Z 2218/2318 10005KT CAVOK TX21/2314Z TN04/2307Z"
    },
    {
      "icao": "LEBL",
      "alert": "OK",
      "vis_m": 9999,
      "fzfg": false,
      "metar_trigger": false,
      "taf_trigger": false,
      "metar": "METAR LEBL 221830Z 22004KT 200V270 CAVOK 14/11 Q1026 NOSIG",
      "taf": "TAF LEBL 221700Z 2218/2318 22010KT CAVOK TX18/2312Z TN07/2306Z"
    },
    {
      "icao": "LECH",
      "alert": "OK",
      "vis_m": 9999,
      "fzfg": false,
      "metar_trigger": false,
      "taf_trigger": false,
      "metar": "METAR LECH 221830Z AUTO 07003KT CAVOK 13/06 Q1027",
      "taf": ""
    },
    {
      "icao": "LEMD",
      "alert": "OK",
      "vis_m": 9999,
      "fzfg": false,
      "metar_trigger": false,
      "taf_trigger": false,
      "metar": "METAR LEMD 221830Z 16004KT 110V210 CAVOK 15/03 Q1028 NOSIG",
      "taf": "TAF LEMD 221700Z 2218/2324 VRB04KT CAVOK TX21/2316Z TN02/2307Z"
    },
    {
      "icao": "LEMG",
      "alert": "OK",
      "vis_m": 9999,
      "fzfg": false,
      "metar_trigger": false,
      "taf_trigger": false,
      "metar": "METAR LEMG 221830Z 14004KT CAVOK 12/07 Q1027 NOSIG",
      "taf": "TAF LEMG 221700Z 2218/2318 VRB03KT CAVOK TX19/2314Z TN06/2307Z"
    },
    {
      "icao": "LEVC",
      "alert": "OK",
      "vis_m": 9999,
      "fzfg": false,
      "metar_trigger": false,
      "taf_trigger": false,
      "metar": "METAR LEVC 221830Z 05003KT 030V090 CAVOK 15/08 Q1027 NOSIG",
      "taf": "TAF LEVC 221700Z 2218/2318 VRB04KT CAVOK TX24/2312Z TN07/2306Z"
    },
    {
      "icao": "LEXJ",
      "alert": "OK",
      "vis_m": 6000,
      "fzfg": false,
      "metar_trigger": false,
      "taf_trigger": false,
      "metar": "SPECI LEXJ 221909Z 31004KT 270V360 6000 BKN013 12/09 Q1029",
      "taf": "TAF LEXJ 222000Z 2221/2321 VRB03KT 9999 SCT020 TX19/2314Z TN05/2306Z"
    },
    {
      "icao": "LEZG",
      "alert": "OK",
      "vis_m": 9999,
      "fzfg": false,
      "metar_trigger": false,
      "taf_trigger": false,
      "metar": "METAR LEZG 221830Z 22007KT CAVOK 13/06 Q1027 NOSIG",
      "taf": "TAF LEZG 221700Z 2218/2318 30009KT CAVOK TX20/2314Z TN05/2306Z"
    },
    {
      "icao": "LEZL",
      "alert": "OK",
      "vis_m": 9999,
      "fzfg": false,
      "metar_trigger": false,
      "taf_trigger": false,
      "metar": "METAR LEZL 221830Z 03003KT 010V120 CAVOK 20/09 Q1025 NOSIG",
      "taf": "TAF LEZL 222000Z 2221/2321 04005KT CAVOK TX23/2315Z TN08/2307Z"
    },
    {
      "icao": "LFBD",
      "alert": "OK",
      "vis_m": 9999,
      "fzfg": false,
      "metar_trigger": false,
      "taf_trigger": false,
      "metar": "METAR LFBD 221830Z AUTO 23005KT CAVOK 11/09 Q1028 BECMG 2000 BR BKN005",
      "taf": ""
    },
    {
      "icao": "LFLL",
      "alert": "OK",
      "vis_m": 9999,
      "fzfg": false,
      "metar_trigger": false,
      "taf_trigger": false,
      "metar": "METAR LFLL 221830Z 36002KT CAVOK 11/07 Q1026 NOSIG",
      "taf": ""
    },
    {
      "icao": "LFLS",
      "alert": "OK",
      "vis_m": 9999,
      "fzfg": false,
      "metar_trigger": false,
      "taf_trigger": false,
      "metar": "METAR LFLS 221830Z AUTO 12003KT CAVOK 09/05 Q1025 NOSIG",
      "taf": "TAF LFLS 221400Z 2215/2315 09005KT CAVOK"
    },
    {
      "icao": "LFMN",
      "alert": "OK",
      "vis_m": 9999,
      "fzfg": false,
      "metar_trigger": false,
      "taf_trigger": false,
      "metar": "METAR LFMN 221830Z 19002KT 9999 FEW017 BKN024 OVC230 14/10 Q1024 NOSIG",
      "taf": "TAF LFMN 222000Z 2221/2403 34010KT 9999 BKN025 BKN200"
    },
    {
      "icao": "LFOB",
      "alert": "OK",
      "vis_m": 9999,
      "fzfg": false,
      "metar_trigger": false,
      "taf_trigger": false,
      "metar": "METAR LFOB 221830Z AUTO 23010KT 9999 OVC009 11/10 Q1020 TEMPO 3000 -RA",
      "taf": "TAF LFOB 221700Z 2218/2318 23012KT 9999 BKN016 OVC025"
    },
    {
      "icao": "LFPO",
      "alert": "OK",
      "vis_m": 8000,
      "fzfg": false,
      "metar_trigger": false,
      "taf_trigger": false,
      "metar": "METAR LFPO 221830Z 23013KT 8000 -RA BKN012 BKN017 11/10 Q1022 NOSIG",
      "taf": "TAF LFPO 221700Z 2218/2324 23012KT 9999 BKN018"
    },
    {
      "icao": "LFSB",
      "alert": "OK",
      "vis_m": 9999,
      "fzfg": false,
      "metar_trigger": false,
      "taf_trigger": false,
      "metar": "METAR LFSB 221830Z AUTO 28003KT 250V310 9999 BKN029 OVC096 10/08 Q1024 NOSIG",
      "taf": "TAF LFSB 221700Z 2218/2318 24006KT 9999 BKN030"
    },
    {
      "icao": "LGAV",
      "alert": "OK",
      "vis_m": 9999,
      "fzfg": false,
      "metar_trigger": false,
      "taf_trigger": false,
      "metar": "METAR LGAV 221820Z 34005KT 310V010 9999 DZ FEW018 BKN025 09/05 Q1022 NOSIG",
      "taf": "TAF LGAV 221700Z 2218/2318 03012KT 9999 FEW018 SCT025"
    },
    {
      "icao": "LGTS",
      "alert": "OK",
      "vis_m": null,
      "fzfg": false,
      "metar_trigger": false,
      "taf_trigger": false,
      "metar": "",
      "taf": "TAF LGTS 221700Z 2218/2318 34015KT 9999 FEW030"
    },
    {
      "icao": "LHBP",
      "alert": "OK",
      "vis_m": 9999,
      "fzfg": false,
      "metar_trigger": false,
      "taf_trigger": false,
      "metar": "METAR LHBP 221830Z 21004KT 9999 BKN047 08/04 Q1020 NOSIG",
      "taf": "TAF LHBP 221715Z 2218/2318 19005KT 9999 SCT040 BKN070"
    },
    {
      "icao": "LHDC",
      "alert": "OK",
      "vis_m": 9000,
      "fzfg": false,
      "metar_trigger": false,
      "taf_trigger": false,
      "metar": "METAR LHDC 221815Z AUTO 18014KT 9000 -SHRA BKN014 BKN037 05/04 Q1022 NOSIG",
      "taf": "TAF LHDC 221715Z 2218/2303 18013KT 8000 OVC015"
    },
    {
      "icao": "LIBD",
      "alert": "OK",
      "vis_m": 9999,
      "fzfg": false,
      "metar_trigger": false,
      "taf_trigger": false,
      "metar": "METAR LIBD 221920Z 26005KT CAVOK 08/06 Q1024",
      "taf": "TAF LIBD 221700Z 2218/2318 VRB06KT CAVOK"
    },
    {
      "icao": "LIBG",
      "alert": "OK",
      "vis_m": null,
      "fzfg": false,
      "metar_trigger": false,
      "taf_trigger": false,
      "metar": "",
      "taf": "TAF LIBG 221700Z 2218/2303 VRB03KT CAVOK"
    },
    {
      "icao": "LIBP",
      "alert": "OK",
      "vis_m": 9999,
      "fzfg": false,
      "metar_trigger": false,
      "taf_trigger": false,
      "metar": "METAR LIBP 221920Z AUTO 21004KT 9999 NCD 07/05 Q1023",
      "taf": "TAF LIBP 221700Z 2218/2318 VRB04KT CAVOK"
    },
    {
      "icao": "LIBR",
      "alert": "OK",
      "vis_m": 9999,
      "fzfg": false,
      "metar_trigger": false,
      "taf_trigger": false,
      "metar": "METAR LIBR 221920Z 33008KT CAVOK 12/06 Q1023",
      "taf": "TAF LIBR 221700Z 2218/2318 32010KT 8000 NSC"
    },
    {
      "icao": "LICA",
      "alert": "OK",
      "vis_m": 9999,
      "fzfg": false,
      "metar_trigger": false,
      "taf_trigger": false,
      "metar": "METAR LICA 221920Z AUTO 24012KT 9999 NCD 13/09 Q1025",
      "taf": "TAF LICA 221700Z 2218/2318 27015KT 9999 FEW020"
    },
    {
      "icao": "LICC",
      "alert": "OK",
      "vis_m": 9999,
      "fzfg": false,
      "metar_trigger": false,
      "taf_trigger": false,
      "metar": "METAR LICC 221920Z 21006KT CAVOK 11/07 Q1025",
      "taf": "TAF LICC 221700Z 2218/2318 14012KT CAVOK"
    },
    {
      "icao": "LICJ",
      "alert": "OK",
      "vis_m": 9999,
      "fzfg": false,
      "metar_trigger": false,
      "taf_trigger": false,
      "metar": "METAR LICJ 221920Z 20003KT 170V270 9999 FEW018 13/09 Q1027",
      "taf": "TAF LICJ 221700Z 2218/2318 33010KT 9999 FEW030"
    },
    {
      "icao": "LIMC",
      "alert": "OK",
      "vis_m": 8000,
      "fzfg": false,
      "metar_trigger": false,
      "taf_trigger": false,
      "metar": "METAR LIMC 221920Z 10002KT 8000 NSC 06/05 Q1022 NOSIG",
      "taf": "TAF LIMC 221700Z 2218/2324 VRB05KT CAVOK"
    },
    {
      "icao": "LIME",
      "alert": "OK",
      "vis_m": 8000,
      "fzfg": false,
      "metar_trigger": false,
      "taf_trigger": false,
      "metar": "METAR LIME 221920Z VRB01KT 8000 NSC 07/05 Q1023 NOSIG",
      "taf": "TAF LIME 221700Z 2218/2318 VRB05KT CAVOK"
    },
    {
      "icao": "LIMF",
      "alert": "OK",
      "vis_m": 9999,
      "fzfg": false,
      "metar_trigger": false,
      "taf_trigger": false,
      "metar": "METAR LIMF 221920Z VRB01KT CAVOK 09/04 Q1022",
      "taf": "TAF LIMF 221700Z 2218/2318 VRB05KT 7000 NSC"
    },
    {
      "icao": "LIMJ",
      "alert": "OK",
      "vis_m": 9999,
      "fzfg": false,
      "metar_trigger": false,
      "taf_trigger": false,
      "metar": "METAR LIMJ 221920Z 12009KT 9999 FEW012 SCT022 BKN036 13/11 Q1024",
      "taf": "TAF LIMJ 221700Z 2218/2318 15010KT 9999 SCT015"
    },
    {
      "icao": "LIPE",
      "alert": "OK",
      "vis_m": 9999,
      "fzfg": false,
      "metar_trigger": false,
      "taf_trigger": false,
      "metar": "METAR LIPE 221920Z 05003KT 010V090 CAVOK 09/08 Q1023",
      "taf": "TAF LIPE 221700Z 2218/2318 VRB04KT CAVOK"
    },
    {
      "icao": "LIPH",
      "alert": "OK",
      "vis_m": 8000,
      "fzfg": false,
      "metar_trigger": false,
      "taf_trigger": false,
      "metar": "METAR LIPH 221920Z VRB02KT 8000 NSC 08/08 Q1023",
      "taf": "TAF LIPH 221700Z 2218/2318 VRB03KT 9999 FEW025"
    },
    {
      "icao": "LIPQ",
      "alert": "OK",
      "vis_m": 8000,
      "fzfg": false,
      "metar_trigger": false,
      "taf_trigger": false,
      "metar": "METAR LIPQ 221920Z AUTO 12002KT 8000 BKN180/// 07/06 Q1023",
      "taf": "TAF LIPQ 221700Z 2218/2318 VRB03KT 8000 FEW035"
    },
    {
      "icao": "LIPR",
      "alert": "OK",
      "vis_m": 9999,
      "fzfg": false,
      "metar_trigger": false,
      "taf_trigger": false,
      "metar": "METAR LIPR 221920Z 24004KT CAVOK 07/06 Q1022",
      "taf": "TAF LIPR 221700Z 2218/2318 VRB05KT CAVOK"
    },
    {
      "icao": "LIPX",
      "alert": "OK",
      "vis_m": 9999,
      "fzfg": false,
      "metar_trigger": false,
      "taf_trigger": false,
      "metar": "METAR LIPX 221950Z 03005KT CAVOK 06/04 Q1023",
      "taf": "TAF LIPX 221700Z 2218/2318 VRB05KT CAVOK"
    },
    {
      "icao": "LIPY",
      "alert": "OK",
      "vis_m": 9999,
      "fzfg": false,
      "metar_trigger": false,
      "taf_trigger": false,
      "metar": "METAR LIPY 221920Z AUTO 19002KT 9999 FEW230/// 08/06 Q1022",
      "taf": "TAF LIPY 221700Z 2218/2318 VRB04KT 8000 NSC"
    },
    {
      "icao": "LIPZ",
      "alert": "OK",
      "vis_m": 9999,
      "fzfg": false,
      "metar_trigger": false,
      "taf_trigger": false,
      "metar": "METAR LIPZ 221920Z 20004KT CAVOK 08/07 Q1023 NOSIG",
      "taf": "TAF LIPZ 221700Z 2218/2324 VRB03KT 8000 FEW025"
    },
    {
      "icao": "LIRF",
      "alert": "OK",
      "vis_m": 9999,
      "fzfg": false,
      "metar_trigger": false,
      "taf_trigger": false,
      "metar": "METAR LIRF 221920Z 25003KT CAVOK 11/10 Q1025 NOSIG",
      "taf": "TAF LIRF 221700Z 2218/2324 29007KT CAVOK"
    },
    {
      "icao": "LIRN",
      "alert": "OK",
      "vis_m": 9999,
      "fzfg": false,
      "metar_trigger": false,
      "taf_trigger": false,
      "metar": "METAR LIRN 221920Z AUTO 07002KT 9999 NCD 12/06 Q1026",
      "taf": "TAF LIRN 221700Z 2218/2318 VRB05KT CAVOK"
    },
    {
      "icao": "LIRP",
      "alert": "OK",
      "vis_m": null,
      "fzfg": false,
      "metar_trigger": false,
      "taf_trigger": false,
      "metar": "",
      "taf": ""
    },
    {
      "icao": "LIRZ",
      "alert": "OK",
      "vis_m": 9999,
      "fzfg": false,
      "metar_trigger": false,
      "taf_trigger": false,
      "metar": "METAR LIRZ 221950Z AUTO 29004KT 9999 NCD 09/06 Q1024",
      "taf": "TAF LIRZ 221700Z 2218/2318 VRB05KT 9999 FEW030"
    },
    {
      "icao": "LJLJ",
      "alert": "OK",
      "vis_m": 9999,
      "fzfg": false,
      "metar_trigger": false,
      "taf_trigger": false,
      "metar": "METAR LJLJ 221930Z VRB01KT CAVOK 04/03 Q1022 NOSIG",
      "taf": "TAF LJLJ 221100Z 2212/2312 VRB02KT 9999 FEW005"
    },
    {
      "icao": "LKMT",
      "alert": "OK",
      "vis_m": null,
      "fzfg": false,
      "metar_trigger": false,
      "taf_trigger": false,
      "metar": "",
      "taf": "TAF LKMT 221700Z 2218/2318 22012KT 7000 -RA BKN012 OVC025"
    },
    {
      "icao": "LKPR",
      "alert": "OK",
      "vis_m": null,
      "fzfg": false,
      "metar_trigger": false,
      "taf_trigger": false,
      "metar": "",
      "taf": "TAF LKPR 222000Z 2221/2403 23018KT 9999 SCT013"
    },
    {
      "icao": "LLBG",
      "alert": "OK",
      "vis_m": 9999,
      "fzfg": false,
      "metar_trigger": false,
      "taf_trigger": false,
      "metar": "METAR LLBG 221950Z 14006KT 9999 BKN025 14/10 Q1015 NOSIG",
      "taf": "TAF LLBG 221703Z 2218/2318 VRB04KT 9999 FEW030"
    },
    {
      "icao": "LMML",
      "alert": "OK",
      "vis_m": 9999,
      "fzfg": false,
      "metar_trigger": false,
      "taf_trigger": false,
      "metar": "METAR LMML 221945Z 31011KT CAVOK 13/10 Q1026 NOSIG",
      "taf": "TAF LMML 221700Z 2218/2318 30011KT 9999 FEW015"
    },
    {
      "icao": "LOWW",
      "alert": "OK",
      "vis_m": 9999,
      "fzfg": false,
      "metar_trigger": false,
      "taf_trigger": false,
      "metar": "METAR LOWW 221950Z 20008KT 9999 1900S BR FEW050 04/03 Q1018 NOSIG",
      "taf": "TAF LOWW 222015Z 2221/2403 20005KT 9000 BKN040 TX13/2313Z TN06/2221Z"
    },
    {
      "icao": "LPFR",
      "alert": "OK",
      "vis_m": 9999,
      "fzfg": false,
      "metar_trigger": false,
      "taf_trigger": false,
      "metar": "METAR LPFR 221930Z 02005KT 360V060 CAVOK 18/04 Q1026",
      "taf": "TAF LPFR 221700Z 2218/2318 10008KT CAVOK"
    },
    {
      "icao": "LPMA",
      "alert": "OK",
      "vis_m": 9999,
      "fzfg": false,
      "metar_trigger": false,
      "taf_trigger": false,
      "metar": "METAR LPMA 221930Z 35004KT CAVOK 17/11 Q1024",
      "taf": "TAF LPMA 221700Z 2218/2318 02010KT 9999 FEW015"
    },
    {
      "icao": "LPPR",
      "alert": "OK",
      "vis_m": 9999,
      "fzfg": false,
      "metar_trigger": false,
      "taf_trigger": false,
      "metar": "METAR LPPR 221930Z VRB01KT CAVOK 11/09 Q1027",
      "taf": "TAF LPPR 221700Z 2218/2318 34007KT CAVOK"
    },
    {
      "icao": "LPPS",
      "alert": "OK",
      "vis_m": 9999,
      "fzfg": false,
      "metar_trigger": false,
      "taf_trigger": false,
      "metar": "METAR LPPS 221930Z 01003KT 320V070 9999 FEW015 15/12 Q1025",
      "taf": "TAF LPPS 221700Z 2218/2324 VRB05KT 9999 FEW015"
    },
    {
      "icao": "LPPT",
      "alert": "OK",
      "vis_m": 9999,
      "fzfg": false,
      "metar_trigger": false,
      "taf_trigger": false,
      "metar": "METAR LPPT 221930Z VRB02KT CAVOK 17/08 Q1026",
      "taf": "TAF LPPT 221700Z 2218/2324 06007KT CAVOK"
    },
    {
      "icao": "LQBK",
      "alert": "OK",
      "vis_m": null,
      "fzfg": false,
      "metar_trigger": false,
      "taf_trigger": false,
      "metar": "",
      "taf": "TAF LQBK 221700Z 2218/2318 VRB02KT CAVOK TX15/2313Z TN02/2306Z"
    },
    {
      "icao": "LQSA",
      "alert": "OK",
      "vis_m": null,
      "fzfg": false,
      "metar_trigger": false,
      "taf_trigger": false,
      "metar": "",
      "taf": ""
    },
    {
      "icao": "LQTZ",
      "alert": "OK",
      "vis_m": null,
      "fzfg": false,
      "metar_trigger": false,
      "taf_trigger": false,
      "metar": "",
      "taf": "TAF LQTZ 221700Z 2218/2318 VRB02KT CAVOK TX13/2313Z TN00/2305Z"
    },
    {
      "icao": "LRBC",
      "alert": "OK",
      "vis_m": 9999,
      "fzfg": false,
      "metar_trigger": false,
      "taf_trigger": false,
      "metar": "METAR LRBC 221930Z VRB01KT 9999 BKN063 00/M01 Q1021",
      "taf": "TAF LRBC 222000Z 2221/2306 VRB04KT 9999 BKN060"
    },
    {
      "icao": "LRBS",
      "alert": "OK",
      "vis_m": 400,
      "fzfg": true,
      "metar_trigger": false,
      "taf_trigger": false,
      "metar": "METAR LRBS 221930Z COR 25006KT 0400 R07/0700N FZFG VV001 M01/M02 Q1023 NOSIG",
      "taf": "TAF LRBS 221700Z 2218/2318 25009KT 0600 FZFG OVC001"
    },
    {
      "icao": "LRBV",
      "alert": "OK",
      "vis_m": 9999,
      "fzfg": false,
      "metar_trigger": false,
      "taf_trigger": false,
      "metar": "METAR LRBV 221930Z VRB02KT 9999 BKN018 BKN031 01/M01 Q1023",
      "taf": "TAF LRBV 222000Z 2221/2306 29005KT 9999 BKN015 BKN030"
    },
    {
      "icao": "LRCL",
      "alert": "OK",
      "vis_m": 9999,
      "fzfg": false,
      "metar_trigger": false,
      "taf_trigger": false,
      "metar": "METAR LRCL 221930Z 05003KT 9999 FEW041 OVC065 04/01 Q1022",
      "taf": "TAF LRCL 222000Z 2221/2306 VRB04KT 9999 SCT025 BKN065"
    },
    {
      "icao": "LRCV",
      "alert": "OK",
      "vis_m": 200,
      "fzfg": true,
      "metar_trigger": false,
      "taf_trigger": false,
      "metar": "METAR LRCV 221930Z 32003KT 290V350 0200 R26/0250N FG VV001 00/00 Q1023",
      "taf": "TAF LRCV 222000Z 2221/2306 VRB04KT 0150 FZFG VV001"
    },
    {
      "icao": "LRIA",
      "alert": "OK",
      "vis_m": 9999,
      "fzfg": false,
      "metar_trigger": false,
      "taf_trigger": false,
      "metar": "METAR LRIA 221930Z 21003KT CAVOK 02/M01 Q1020",
      "taf": "TAF LRIA 222000Z 2221/2306 VRB04KT CAVOK"
    },
    {
      "icao": "LROP",
      "alert": "OK",
      "vis_m": 200,
      "fzfg": true,
      "metar_trigger": false,
      "taf_trigger": false,
      "metar": "METAR LROP 221930Z 26006KT 0200 R08R/0350N R08L/0350N FZFG VV001 M01/M01 Q1023 NOSIG",
      "taf": "TAF LROP 221700Z 2218/2318 26009KT 0150 FZFG VV001"
    },
    {
      "icao": "LRSB",
      "alert": "OK",
      "vis_m": 7000,
      "fzfg": false,
      "metar_trigger": false,
      "taf_trigger": false,
      "metar": "METAR LRSB 221930Z 29002KT 7000 FEW015 BKN063 01/01 Q1023",
      "taf": "TAF LRSB 221700Z 2218/2318 VRB03KT 9999 SCT030 BKN045"
    },
    {
      "icao": "LRSM",
      "alert": "OK",
      "vis_m": 6000,
      "fzfg": false,
      "metar_trigger": false,
      "taf_trigger": false,
      "metar": "METAR LRSM 221930Z AUTO 18005KT 6000 -SHRA BKN018/// BKN021/// 04/02 Q1022",
      "taf": "TAF LRSM 221400Z 2215/2224 VRB04KT 9999 OVC015"
    },
    {
      "icao": "LRSV",
      "alert": "OK",
      "vis_m": 9999,
      "fzfg": false,
      "metar_trigger": false,
      "taf_trigger": false,
      "metar": "METAR LRSV 221930Z 24009KT CAVOK 04/M02 Q1018",
      "taf": "TAF LRSV 222000Z 2221/2306 23008KT CAVOK"
    },
    {
      "icao": "LRTM",
      "alert": "OK",
      "vis_m": 9999,
      "fzfg": false,
      "metar_trigger": false,
      "taf_trigger": false,
      "metar": "METAR LRTM 221930Z AUTO VRB02KT 9999 NCD 02/00 Q1023",
      "taf": "TAF LRTM 221400Z 2215/2224 24004KT 9999 SCT020 BKN030"
    },
    {
      "icao": "LRTR",
      "alert": "OK",
      "vis_m": 9999,
      "fzfg": false,
      "metar_trigger": false,
      "taf_trigger": false,
      "metar": "METAR LRTR 221930Z 13005KT 9999 BKN019 BKN037 04/04 Q1023",
      "taf": "TAF LRTR 221700Z 2218/2318 14007KT 9999 BKN025"
    },
    {
      "icao": "LTAC",
      "alert": "OK",
      "vis_m": 9999,
      "fzfg": false,
      "metar_trigger": false,
      "taf_trigger": false,
      "metar": "METAR LTAC 221920Z 32006KT 9999 SCT040 SCT100 02/M03 Q1015 NOSIG RMK RWY21C 31003KT RWY03L 31005KT RWY21R VRB02KT RWY03R 31006KT RWY21L 29003KT",
      "taf": "TAF LTAC 221040Z 2212/2312 VRB02KT 9999 SCT030 BKN100"
    },
    {
      "icao": "LTFM",
      "alert": "OK",
      "vis_m": 9999,
      "fzfg": false,
      "metar_trigger": false,
      "taf_trigger": false,
      "metar": "METAR LTFM 221920Z 34009KT 9999 BKN014 BKN028 05/02 Q1022 NOSIG RMK RWY17L 35010KT RWY34L 33009KT RWY16R 34007KT RWY36 35009KT RWY18 36010KT",
      "taf": "TAF LTFM 221040Z 2212/2318 36017KT 9999 BKN009 BKN025"
    },
    {
      "icao": "LUKK",
      "alert": "OK",
      "vis_m": 9999,
      "fzfg": false,
      "metar_trigger": false,
      "taf_trigger": false,
      "metar": "METAR LUKK 221930Z 28004KT CAVOK M01/M02 Q1020 NOSIG",
      "taf": "TAF LUKK 221702Z 2218/2318 VRB04KT CAVOK"
    },
    {
      "icao": "LWOH",
      "alert": "OK",
      "vis_m": 9999,
      "fzfg": false,
      "metar_trigger": false,
      "taf_trigger": false,
      "metar": "METAR LWOH 221950Z 04012KT CAVOK 04/M01 Q1023",
      "taf": "TAF LWOH 222020Z 2221/2321 35008KT CAVOK"
    },
    {
      "icao": "LWSK",
      "alert": "OK",
      "vis_m": 9999,
      "fzfg": false,
      "metar_trigger": false,
      "taf_trigger": false,
      "metar": "METAR LWSK 221950Z VRB02KT CAVOK 01/M01 Q1026 NOSIG",
      "taf": "TAF LWSK 222020Z 2221/2321 VRB02KT CAVOK"
    },
    {
      "icao": "LYBE",
      "alert": "OK",
      "vis_m": null,
      "fzfg": false,
      "metar_trigger": false,
      "taf_trigger": false,
      "metar": "",
      "taf": "TAF LYBE 221700Z 2218/2318 16005KT CAVOK TX14/2313Z TN04/2306Z"
    },
    {
      "icao": "LYNI",
      "alert": "OK",
      "vis_m": null,
      "fzfg": false,
      "metar_trigger": false,
      "taf_trigger": false,
      "metar": "",
      "taf": "TAF LYNI 221700Z 2218/2318 18005KT 9999 BKN025 TX13/2313Z TNM01/2305Z"
    },
    {
      "icao": "LYPG",
      "alert": "OK",
      "vis_m": null,
      "fzfg": false,
      "metar_trigger": false,
      "taf_trigger": false,
      "metar": "",
      "taf": "TAF LYPG 221700Z 2218/2318 36007KT CAVOK TX16/2313Z TN02/2305Z"
    },
    {
      "icao": "LZIB",
      "alert": "OK",
      "vis_m": 3000,
      "fzfg": false,
      "metar_trigger": false,
      "taf_trigger": false,
      "metar": "METAR LZIB 221930Z 21007KT 3000 R31/1000D R22/1200U BR FEW002 02/02 Q1018 TEMPO 1200 -RA BR",
      "taf": "TAF LZIB 221715Z 2218/2318 25007KT 3000 -RA BR SCT005 OVC040"
    },
    {
      "icao": "LZKZ",
      "alert": "OK",
      "vis_m": 1500,
      "fzfg": false,
      "metar_trigger": false,
      "taf_trigger": false,
      "metar": "METAR LZKZ 221930Z 22005KT 200V260 1500 -DZ BR OVC003 02/02 Q1019 NOSIG",
      "taf": ""
    },
    {
      "icao": "LZTT",
      "alert": "OK",
      "vis_m": 9999,
      "fzfg": false,
      "metar_trigger": false,
      "taf_trigger": false,
      "metar": "METAR LZTT 221930Z 24013KT 9999 -RA FEW010 BKN066 04/02 Q1014 NOSIG",
      "taf": "TAF LZTT 221715Z 2218/2318 25008KT 9999 FEW010 BKN020"
    },
    {
      "icao": "OEJN",
      "alert": "OK",
      "vis_m": null,
      "fzfg": false,
      "metar_trigger": false,
      "taf_trigger": false,
      "metar": "",
      "taf": "TAF OEJN 221700Z 2218/2324 36006KT 7000 NSC"
    },
    {
      "icao": "OEMA",
      "alert": "OK",
      "vis_m": null,
      "fzfg": false,
      "metar_trigger": false,
      "taf_trigger": false,
      "metar": "",
      "taf": "TAF OEMA 221700Z 2218/2324 23010KT CAVOK"
    },
    {
      "icao": "OJAI",
      "alert": "OK",
      "vis_m": null,
      "fzfg": false,
      "metar_trigger": false,
      "taf_trigger": false,
      "metar": "",
      "taf": "TAF OJAI 221700Z 2218/2324 29012KT 5000 HZ SCT030"
    },
    {
      "icao": "OMAA",
      "alert": "OK",
      "vis_m": 8000,
      "fzfg": false,
      "metar_trigger": false,
      "taf_trigger": false,
      "metar": "METAR OMAA 221930Z 28002KT 8000 NSC 22/20 Q1011 NOSIG",
      "taf": "TAF OMAA 221100Z 2212/2318 31011KT 8000 NSC"
    },
    {
      "icao": "OMDB",
      "alert": "OK",
      "vis_m": null,
      "fzfg": false,
      "metar_trigger": false,
      "taf_trigger": false,
      "metar": "",
      "taf": "TAF OMDB 221700Z 2218/2400 19005KT 8000 NSC"
    },
    {
      "icao": "UAAA",
      "alert": "OK",
      "vis_m": 9999,
      "fzfg": false,
      "metar_trigger": false,
      "taf_trigger": false,
      "metar": "METAR UAAA 221930Z 01002MPS 9999 BKN200 03/M03 Q1014 NOSIG",
      "taf": "TAF UAAA 221700Z 2218/2318 21003MPS 3100 BR FU SCT030 BKN100 TX09/2309Z TNM00/2301Z"
    },
    {
      "icao": "UBBB",
      "alert": "OK",
      "vis_m": 9999,
      "fzfg": false,
      "metar_trigger": false,
      "taf_trigger": false,
      "metar": "METAR UBBB 221930Z 31012KT 9999 FEW012 06/03 Q1016 NOSIG",
      "taf": "TAF UBBB 221701Z 2218/2318 31012KT 9999 BKN012 BKN023 TX09/2310Z TN04/2301Z"
    },
    {
      "icao": "UDSG",
      "alert": "OK",
      "vis_m": null,
      "fzfg": false,
      "metar_trigger": false,
      "taf_trigger": false,
      "metar": "",
      "taf": "TAF UDSG 221700Z 2218/2318 VRB06KT 9999 BKN040"
    },
    {
      "icao": "UDYZ",
      "alert": "OK",
      "vis_m": 6000,
      "fzfg": false,
      "metar_trigger": false,
      "taf_trigger": false,
      "metar": "METAR UDYZ 221930Z 06004KT 6000 SCT043CB 07/01 Q1010 NOSIG",
      "taf": "TAF UDYZ 221700Z 2218/2318 04006KT 6000 SCT040"
    },
    {
      "icao": "UGKO",
      "alert": "OK",
      "vis_m": 6000,
      "fzfg": false,
      "metar_trigger": false,
      "taf_trigger": false,
      "metar": "METAR UGKO 221930Z 27005KT 6000 -RA SCT011 BKN014 OVC017 09/08 Q1014 NOSIG",
      "taf": "TAF UGKO 221100Z 2212/2312 08017KT 9999 BKN050 TX17/2212Z TN07/2303Z"
    }
  ]
}