{
  "ts_utc": "2026-05-06T00:04:06Z",
  "threshold_m": 150,
  "source": "stations_override.txt (ICAO list) + aviationweather.gov (METAR/TAF raw)",
  "station_count": 159,
  "stations": [
    {
      "icao": "BIKF",
      "alert": "OK",
      "vis_m": 9999,
      "fzfg": false,
      "metar_trigger": false,
      "taf_trigger": false,
      "metar": "METAR BIKF 052331Z 03020KT 9999 FEW021 SCT060 BKN090 01/M03 Q1022",
      "taf": "TAF BIKF 052237Z 0600/0700 03018G30KT 9999 FEW030 SCT050 TX06/0615Z TN00/0606Z"
    },
    {
      "icao": "BKPR",
      "alert": "OK",
      "vis_m": 9999,
      "fzfg": false,
      "metar_trigger": false,
      "taf_trigger": false,
      "metar": "METAR BKPR 060000Z 35005KT CAVOK 11/03 Q1016 NOSIG",
      "taf": "TAF BKPR 052330Z 0600/0624 20006KT 9999 FEW060"
    },
    {
      "icao": "EBCI",
      "alert": "OK",
      "vis_m": 4000,
      "fzfg": false,
      "metar_trigger": false,
      "taf_trigger": false,
      "metar": "METAR EBCI 052350Z 02010KT 4000 -RADZ BR SCT004 OVC005 09/08 Q1008 NOSIG",
      "taf": "TAF EBCI 052302Z 0600/0706 01007KT 4000 -RADZ BKN007"
    },
    {
      "icao": "EDDB",
      "alert": "OK",
      "vis_m": 8000,
      "fzfg": false,
      "metar_trigger": false,
      "taf_trigger": false,
      "metar": "METAR EDDB 052350Z AUTO 04007KT 8000 -RA OVC010 12/11 Q1007 TEMPO 4000 RA BKN004",
      "taf": "TAF EDDB 052300Z 0600/0624 03008KT 9000 BKN008"
    },
    {
      "icao": "EDDH",
      "alert": "OK",
      "vis_m": 9999,
      "fzfg": false,
      "metar_trigger": false,
      "taf_trigger": false,
      "metar": "METAR EDDH 052350Z AUTO 05006KT 020V080 CAVOK 10/05 Q1009 NOSIG",
      "taf": "TAF EDDH 052300Z 0600/0706 04007KT 9999 SCT040"
    },
    {
      "icao": "EDDK",
      "alert": "OK",
      "vis_m": 5000,
      "fzfg": false,
      "metar_trigger": false,
      "taf_trigger": false,
      "metar": "METAR EDDK 052350Z AUTO 31006KT 5000 -SHRA BR BKN005 OVC009 FEW///TCU 11/11 Q1006 TEMPO 3000 -RADZ BKN004",
      "taf": "TAF EDDK 052300Z 0600/0706 33007KT 6000 SCT003 OVC006"
    },
    {
      "icao": "EDDN",
      "alert": "OK",
      "vis_m": 9999,
      "fzfg": false,
      "metar_trigger": false,
      "taf_trigger": false,
      "metar": "METAR EDDN 052350Z AUTO 19004KT 9999 FEW026 SCT049 11/10 Q1007",
      "taf": "TAF EDDN 052300Z 0600/0624 25005KT 9999 SCT035"
    },
    {
      "icao": "EDDS",
      "alert": "OK",
      "vis_m": 9999,
      "fzfg": false,
      "metar_trigger": false,
      "taf_trigger": false,
      "metar": "METAR EDDS 052350Z AUTO 22004KT 180V300 CAVOK 11/09 Q1008",
      "taf": "TAF EDDS 052300Z 0600/0624 VRB03KT CAVOK"
    },
    {
      "icao": "EDFH",
      "alert": "OK",
      "vis_m": 9999,
      "fzfg": false,
      "metar_trigger": false,
      "taf_trigger": false,
      "metar": "METAR EDFH 052350Z 21004KT 9999 FEW004 SCT006 BKN014 11/10 Q1006",
      "taf": "TAF EDFH 052300Z 0600/0624 VRB03KT 9999 SCT006 BKN015"
    },
    {
      "icao": "EDJA",
      "alert": "OK",
      "vis_m": 9999,
      "fzfg": false,
      "metar_trigger": false,
      "taf_trigger": false,
      "metar": "METAR EDJA 052350Z AUTO 21008KT 9999 // FEW077/// 09/07 Q1009",
      "taf": "TAF EDJA 051700Z 0518/0603 23007KT CAVOK"
    },
    {
      "icao": "EDLW",
      "alert": "OK",
      "vis_m": 5000,
      "fzfg": false,
      "metar_trigger": false,
      "taf_trigger": false,
      "metar": "METAR EDLW 052350Z AUTO 36006KT 5000 // OVC002/// 11/10 Q1006",
      "taf": "TAF EDLW 051700Z 0518/0618 01005KT 7000 OVC006"
    },
    {
      "icao": "EDNY",
      "alert": "OK",
      "vis_m": 9999,
      "fzfg": false,
      "metar_trigger": false,
      "taf_trigger": false,
      "metar": "METAR EDNY 052350Z AUTO VRB01KT 9999 2500 // BKN082/// 09/09 Q1009",
      "taf": "TAF EDNY 051700Z 0518/0603 24005KT CAVOK"
    },
    {
      "icao": "EDSB",
      "alert": "OK",
      "vis_m": 9999,
      "fzfg": false,
      "metar_trigger": false,
      "taf_trigger": false,
      "metar": "METAR EDSB 052350Z AUTO 22006KT 9999 FEW039/// SCT063/// 12/11 Q1007",
      "taf": "TAF EDSB 052300Z 0600/0624 20007KT 9999 SCT035"
    },
    {
      "icao": "EETN",
      "alert": "OK",
      "vis_m": 9999,
      "fzfg": false,
      "metar_trigger": false,
      "taf_trigger": false,
      "metar": "METAR EETN 052350Z 29006KT CAVOK 03/02 Q1010",
      "taf": "TAF EETN 052330Z 0600/0624 27007KT CAVOK"
    },
    {
      "icao": "EFTU",
      "alert": "OK",
      "vis_m": 9999,
      "fzfg": false,
      "metar_trigger": false,
      "taf_trigger": false,
      "metar": "METAR EFTU 052350Z AUTO 26004KT CAVOK 00/M02 Q1009",
      "taf": "TAF EFTU 052324Z 0600/0624 27004KT CAVOK"
    },
    {
      "icao": "EGBB",
      "alert": "OK",
      "vis_m": 9999,
      "fzfg": false,
      "metar_trigger": false,
      "taf_trigger": false,
      "metar": "METAR EGBB 052350Z 04008KT 9999 BKN019 09/04 Q1015",
      "taf": "TAF EGBB 052253Z 0600/0624 03008KT 9999 SCT025"
    },
    {
      "icao": "EGGP",
      "alert": "OK",
      "vis_m": 9999,
      "fzfg": false,
      "metar_trigger": false,
      "taf_trigger": false,
      "metar": "METAR EGGP 052350Z 06005KT 9999 FEW038 SCT046 07/02 Q1016",
      "taf": "TAF EGGP 052303Z 0600/0624 06007KT 9999 FEW020 SCT035"
    },
    {
      "icao": "EGGW",
      "alert": "OK",
      "vis_m": 9999,
      "fzfg": false,
      "metar_trigger": false,
      "taf_trigger": false,
      "metar": "METAR EGGW 052350Z AUTO 03009KT 9999 BKN016 08/06 Q1013",
      "taf": "TAF EGGW 052301Z 0600/0624 02008KT 9999 SCT030"
    },
    {
      "icao": "EGKK",
      "alert": "OK",
      "vis_m": 9999,
      "fzfg": false,
      "metar_trigger": false,
      "taf_trigger": false,
      "metar": "METAR EGKK 052350Z 03010KT 9999 BKN018 11/08 Q1012",
      "taf": "TAF EGKK 052255Z 0600/0706 03007KT 9999 SCT030"
    },
    {
      "icao": "EGNM",
      "alert": "OK",
      "vis_m": 9999,
      "fzfg": false,
      "metar_trigger": false,
      "taf_trigger": false,
      "metar": "METAR EGNM 052350Z 03007KT 9999 FEW025 05/02 Q1016",
      "taf": "TAF EGNM 052302Z 0600/0624 02007KT 9999 FEW020 SCT035"
    },
    {
      "icao": "EGPD",
      "alert": "OK",
      "vis_m": 9999,
      "fzfg": false,
      "metar_trigger": false,
      "taf_trigger": false,
      "metar": "METAR EGPD 052350Z COR AUTO VRB01KT 9999 NCD 01/M01 Q1018 NOSIG",
      "taf": "TAF EGPD 052255Z 0600/0624 VRB03KT 9999 FEW045"
    },
    {
      "icao": "EGPF",
      "alert": "OK",
      "vis_m": 9999,
      "fzfg": false,
      "metar_trigger": false,
      "taf_trigger": false,
      "metar": "METAR EGPF 052350Z AUTO 06006KT 9999 NCD 07/01 Q1018",
      "taf": "TAF EGPF 052251Z 0600/0624 07010KT 9999 FEW045"
    },
    {
      "icao": "EHBK",
      "alert": "OK",
      "vis_m": 8000,
      "fzfg": false,
      "metar_trigger": false,
      "taf_trigger": false,
      "metar": "METAR EHBK 052355Z AUTO 02010KT 340V050 8000 -RA FEW003/// SCT005/// BKN006/// 09/09 Q1007",
      "taf": "TAF EHBK 052309Z 0600/0706 36007KT 4000 -RA OVC004"
    },
    {
      "icao": "EHEH",
      "alert": "OK",
      "vis_m": 9999,
      "fzfg": false,
      "metar_trigger": false,
      "taf_trigger": false,
      "metar": "METAR EHEH 052325Z AUTO 01007KT 320V040 9999 OVC015 10/07 Q1008 WHT",
      "taf": "TAF EHEH 051733Z 0518/0624 03008KT 9999 OVC015"
    },
    {
      "icao": "EKBI",
      "alert": "OK",
      "vis_m": 9999,
      "fzfg": false,
      "metar_trigger": false,
      "taf_trigger": false,
      "metar": "METAR EKBI 052350Z AUTO 36007KT 9999 NCD 04/01 Q1012",
      "taf": "TAF EKBI 052327Z 0600/0624 01005KT CAVOK"
    },
    {
      "icao": "EKCH",
      "alert": "OK",
      "vis_m": 9999,
      "fzfg": false,
      "metar_trigger": false,
      "taf_trigger": false,
      "metar": "METAR EKCH 052350Z AUTO 02010KT 9999 NCD 09/M00 Q1011 NOSIG",
      "taf": "TAF EKCH 052327Z 0600/0624 01010KT CAVOK"
    },
    {
      "icao": "ENAL",
      "alert": "OK",
      "vis_m": 9999,
      "fzfg": false,
      "metar_trigger": false,
      "taf_trigger": false,
      "metar": "METAR ENAL 052350Z AUTO 21015KT 9999 BKN032/// BKN038/// 03/00 Q1012",
      "taf": "TAF ENAL 052300Z 0600/0609 22012KT 9999 FEW015 SCT050"
    },
    {
      "icao": "ENBR",
      "alert": "OK",
      "vis_m": 9999,
      "fzfg": false,
      "metar_trigger": false,
      "taf_trigger": false,
      "metar": "METAR ENBR 052350Z AUTO 10002KT 9999 FEW039/// 02/M01 Q1014 RMK WIND 1200FT 27005KT",
      "taf": ""
    },
    {
      "icao": "ENGM",
      "alert": "OK",
      "vis_m": 9999,
      "fzfg": false,
      "metar_trigger": false,
      "taf_trigger": false,
      "metar": "METAR ENGM 052350Z 35003KT 320V020 CAVOK M01/M07 Q1011",
      "taf": "TAF ENGM 052300Z 0600/0624 VRB03KT CAVOK"
    },
    {
      "icao": "ENHD",
      "alert": "OK",
      "vis_m": 9999,
      "fzfg": false,
      "metar_trigger": false,
      "taf_trigger": false,
      "metar": "METAR ENHD 052350Z AUTO 06002KT 9999 NCD M00/M03 Q1015",
      "taf": "TAF ENHD 051400Z 0515/0522 32008KT 9999 FEW015 SCT030"
    },
    {
      "icao": "ENTC",
      "alert": "OK",
      "vis_m": 9999,
      "fzfg": false,
      "metar_trigger": false,
      "taf_trigger": false,
      "metar": "METAR ENTC 052350Z AUTO 03005KT 9999 NCD 02/M02 Q1003 RMK WIND 2600FT VRB01KT",
      "taf": "TAF ENTC 052300Z 0600/0624 04008KT 9999 BKN045"
    },
    {
      "icao": "ENTO",
      "alert": "OK",
      "vis_m": 9999,
      "fzfg": false,
      "metar_trigger": false,
      "taf_trigger": false,
      "metar": "METAR ENTO 052350Z AUTO 35007KT 9999 NCD 02/M06 Q1012",
      "taf": "TAF ENTO 052300Z 0600/0624 35008KT CAVOK"
    },
    {
      "icao": "ENVA",
      "alert": "OK",
      "vis_m": 9999,
      "fzfg": false,
      "metar_trigger": false,
      "taf_trigger": false,
      "metar": "METAR ENVA 052350Z AUTO 23009KT 9999 SCT029/// 01/M03 Q1011 RMK WIND 670FT 24012KT",
      "taf": "TAF ENVA 052300Z 0600/0624 22008KT 9999 FEW035"
    },
    {
      "icao": "ENZV",
      "alert": "OK",
      "vis_m": 9999,
      "fzfg": false,
      "metar_trigger": false,
      "taf_trigger": false,
      "metar": "METAR ENZV 052350Z AUTO 33006KT 9999 FEW025/// 04/M01 Q1015",
      "taf": "TAF ENZV 052300Z 0600/0624 33008KT 9999 SCT030"
    },
    {
      "icao": "EPGD",
      "alert": "OK",
      "vis_m": 3700,
      "fzfg": false,
      "metar_trigger": false,
      "taf_trigger": false,
      "metar": "METAR EPGD 060000Z 05002KT 3700 BR BKN002 06/06 Q1010",
      "taf": "TAF EPGD 052330Z 0600/0624 03006KT CAVOK"
    },
    {
      "icao": "EPKK",
      "alert": "OK",
      "vis_m": 9999,
      "fzfg": false,
      "metar_trigger": false,
      "taf_trigger": false,
      "metar": "METAR EPKK 060000Z VRB02KT CAVOK 15/05 Q1006",
      "taf": "TAF EPKK 052330Z 0600/0624 VRB02KT CAVOK"
    },
    {
      "icao": "EPKT",
      "alert": "OK",
      "vis_m": 9999,
      "fzfg": false,
      "metar_trigger": false,
      "taf_trigger": false,
      "metar": "METAR EPKT 060000Z 18007KT CAVOK 18/05 Q1006",
      "taf": "TAF EPKT 052330Z 0600/0624 20010KT CAVOK"
    },
    {
      "icao": "EPLB",
      "alert": "OK",
      "vis_m": 9999,
      "fzfg": false,
      "metar_trigger": false,
      "taf_trigger": false,
      "metar": "METAR EPLB 060000Z 22009KT CAVOK 16/03 Q1007",
      "taf": "TAF EPLB 052330Z 0600/0624 22010KT CAVOK"
    },
    {
      "icao": "EPMO",
      "alert": "OK",
      "vis_m": 9999,
      "fzfg": false,
      "metar_trigger": false,
      "taf_trigger": false,
      "metar": "METAR EPMO 060000Z 02006KT CAVOK 10/07 Q1006",
      "taf": "TAF EPMO 052330Z 0600/0624 04008KT CAVOK"
    },
    {
      "icao": "EPPO",
      "alert": "OK",
      "vis_m": 9999,
      "fzfg": false,
      "metar_trigger": false,
      "taf_trigger": false,
      "metar": "METAR EPPO 060000Z 05008KT CAVOK 11/09 Q1006",
      "taf": "TAF EPPO 052330Z 0600/0624 04006KT CAVOK"
    },
    {
      "icao": "EPRA",
      "alert": "OK",
      "vis_m": 9999,
      "fzfg": false,
      "metar_trigger": false,
      "taf_trigger": false,
      "metar": "METAR EPRA 060000Z 18008KT CAVOK 13/03 Q1006",
      "taf": "TAF EPRA 052330Z 0600/0609 18008KT CAVOK"
    },
    {
      "icao": "EPRZ",
      "alert": "OK",
      "vis_m": 9999,
      "fzfg": false,
      "metar_trigger": false,
      "taf_trigger": false,
      "metar": "METAR EPRZ 060000Z 05004KT CAVOK 14/03 Q1008",
      "taf": "TAF EPRZ 052330Z 0600/0624 13003KT CAVOK"
    },
    {
      "icao": "EPSC",
      "alert": "OK",
      "vis_m": 9999,
      "fzfg": false,
      "metar_trigger": false,
      "taf_trigger": false,
      "metar": "METAR EPSC 060000Z 01004KT 340V040 9999 BKN005 10/09 Q1008",
      "taf": "TAF EPSC 052330Z 0600/0624 03006KT 9999 BKN017"
    },
    {
      "icao": "EPSY",
      "alert": "OK",
      "vis_m": 9999,
      "fzfg": false,
      "metar_trigger": false,
      "taf_trigger": false,
      "metar": "METAR EPSY 060000Z 02008KT CAVOK 09/08 Q1008",
      "taf": "TAF EPSY 052330Z 0600/0609 04006KT CAVOK"
    },
    {
      "icao": "EPWA",
      "alert": "OK",
      "vis_m": 9999,
      "fzfg": false,
      "metar_trigger": false,
      "taf_trigger": false,
      "metar": "METAR EPWA 060000Z 05005KT CAVOK 15/12 Q1006 NOSIG",
      "taf": "TAF EPWA 052330Z 0600/0624 04010KT CAVOK"
    },
    {
      "icao": "EPWR",
      "alert": "OK",
      "vis_m": 9999,
      "fzfg": false,
      "metar_trigger": false,
      "taf_trigger": false,
      "metar": "METAR EPWR 060000Z 28004KT CAVOK 13/10 Q1004",
      "taf": "TAF EPWR 052330Z 0600/0624 03003KT CAVOK"
    },
    {
      "icao": "ESGG",
      "alert": "OK",
      "vis_m": 9999,
      "fzfg": false,
      "metar_trigger": false,
      "taf_trigger": false,
      "metar": "METAR ESGG 052350Z 07003KT CAVOK 01/M04 Q1012",
      "taf": "TAF ESGG 052330Z 0600/0624 VRB03KT CAVOK"
    },
    {
      "icao": "ESKN",
      "alert": "OK",
      "vis_m": 9999,
      "fzfg": false,
      "metar_trigger": false,
      "taf_trigger": false,
      "metar": "METAR ESKN 052350Z VRB02KT CAVOK 00/M04 Q1011",
      "taf": "TAF ESKN 052330Z 0600/0624 29003KT CAVOK"
    },
    {
      "icao": "ESMS",
      "alert": "OK",
      "vis_m": 9999,
      "fzfg": false,
      "metar_trigger": false,
      "taf_trigger": false,
      "metar": "METAR ESMS 052350Z AUTO 34006KT 9999 NCD 03/M04 Q1010",
      "taf": "TAF ESMS 052327Z 0600/0624 35006KT CAVOK"
    },
    {
      "icao": "ESSA",
      "alert": "OK",
      "vis_m": 9999,
      "fzfg": false,
      "metar_trigger": false,
      "taf_trigger": false,
      "metar": "METAR ESSA 052350Z 26002KT CAVOK M02/M03 Q1011 NOSIG",
      "taf": "TAF ESSA 052330Z 0600/0624 VRB03KT CAVOK"
    },
    {
      "icao": "EYKA",
      "alert": "OK",
      "vis_m": 9999,
      "fzfg": false,
      "metar_trigger": false,
      "taf_trigger": false,
      "metar": "METAR EYKA 052350Z VRB01KT 9999 -SHRA BKN085CB 09/08 Q1010",
      "taf": "TAF EYKA 052302Z 0600/0624 VRB03KT 9000 NSC"
    },
    {
      "icao": "EYPA",
      "alert": "OK",
      "vis_m": 9999,
      "fzfg": false,
      "metar_trigger": false,
      "taf_trigger": false,
      "metar": "METAR EYPA 052350Z 06006KT CAVOK 04/04 Q1011",
      "taf": "TAF EYPA 052302Z 0600/0624 VRB03KT 5000 MIFG BR NSC"
    },
    {
      "icao": "EYVI",
      "alert": "OK",
      "vis_m": 9999,
      "fzfg": false,
      "metar_trigger": false,
      "taf_trigger": false,
      "metar": "METAR EYVI 052350Z 02006KT CAVOK 11/07 Q1009 NOSIG",
      "taf": "TAF EYVI 052302Z 0600/0624 VRB03KT 9000 NSC"
    },
    {
      "icao": "GCFV",
      "alert": "OK",
      "vis_m": 9999,
      "fzfg": false,
      "metar_trigger": false,
      "taf_trigger": false,
      "metar": "METAR GCFV 052330Z AUTO 03015KT 9999 BKN016 20/16 Q1015",
      "taf": "TAF GCFV 052000Z 0521/0621 04012KT 9999 FEW025 TX23/0614Z TN18/0606Z"
    },
    {
      "icao": "GCLP",
      "alert": "OK",
      "vis_m": 9999,
      "fzfg": false,
      "metar_trigger": false,
      "taf_trigger": false,
      "metar": "METAR GCLP 052330Z 01013KT 9999 FEW020 20/17 Q1015 NOSIG",
      "taf": ""
    },
    {
      "icao": "GCTS",
      "alert": "OK",
      "vis_m": 9999,
      "fzfg": false,
      "metar_trigger": false,
      "taf_trigger": false,
      "metar": "METAR GCTS 052330Z 09015KT 9999 BKN017 20/16 Q1016 NOSIG",
      "taf": "TAF GCTS 052000Z 0521/0621 05007KT 9999 FEW025 TX24/0614Z TN17/0606Z"
    },
    {
      "icao": "GMAD",
      "alert": "OK",
      "vis_m": 9999,
      "fzfg": false,
      "metar_trigger": false,
      "taf_trigger": false,
      "metar": "METAR GMAD 060000Z 00000KT CAVOK 16/12 Q1012 NOSIG",
      "taf": "TAF GMAD 052300Z 0600/0706 18004KT CAVOK"
    },
    {
      "icao": "GMMN",
      "alert": "OK",
      "vis_m": 9999,
      "fzfg": false,
      "metar_trigger": false,
      "taf_trigger": false,
      "metar": "METAR GMMN 060000Z 02008KT 9999 SCT026 15/10 Q1015 NOSIG",
      "taf": "TAF GMMN 052300Z 0600/0706 04005KT 9999 SCT026"
    },
    {
      "icao": "GMMX",
      "alert": "OK",
      "vis_m": 8000,
      "fzfg": false,
      "metar_trigger": false,
      "taf_trigger": false,
      "metar": "METAR GMMX 060000Z 03003KT 8000 FEW033 SCT200 15/08 Q1014 NOSIG",
      "taf": "TAF GMMX 052300Z 0600/0706 34006KT 9999 SCT080"
    },
    {
      "icao": "HEGN",
      "alert": "OK",
      "vis_m": 9999,
      "fzfg": false,
      "metar_trigger": false,
      "taf_trigger": false,
      "metar": "METAR HEGN 052300Z 28011KT CAVOK 19/04 Q1014 NOSIG",
      "taf": "TAF HEGN 052300Z 0600/0706 29015KT CAVOK"
    },
    {
      "icao": "HEMA",
      "alert": "OK",
      "vis_m": 9999,
      "fzfg": false,
      "metar_trigger": false,
      "taf_trigger": false,
      "metar": "METAR HEMA 052300Z 30009KT CAVOK 20/12 Q1013 NOSIG",
      "taf": "TAF HEMA 052300Z 0600/0706 30015KT CAVOK"
    },
    {
      "icao": "HESH",
      "alert": "OK",
      "vis_m": 9999,
      "fzfg": false,
      "metar_trigger": false,
      "taf_trigger": false,
      "metar": "METAR HESH 052300Z 33013KT CAVOK 22/07 Q1012 NOSIG",
      "taf": "TAF HESH 052300Z 0600/0706 33015KT CAVOK"
    },
    {
      "icao": "HESX",
      "alert": "OK",
      "vis_m": 9999,
      "fzfg": false,
      "metar_trigger": false,
      "taf_trigger": false,
      "metar": "METAR HESX 052300Z 36004KT CAVOK 12/07 Q1017 NOSIG",
      "taf": "TAF HESX 052300Z 0600/0706 35010KT 9999 FEW030"
    },
    {
      "icao": "LATI",
      "alert": "OK",
      "vis_m": 9999,
      "fzfg": false,
      "metar_trigger": false,
      "taf_trigger": false,
      "metar": "METAR LATI 052350Z 17005KT 9999 FEW059 12/07 Q1017 NOSIG",
      "taf": "TAF LATI 052300Z 0600/0624 VRB03KT CAVOK TX24/0611Z TN08/0604Z"
    },
    {
      "icao": "LBPD",
      "alert": "OK",
      "vis_m": 9999,
      "fzfg": false,
      "metar_trigger": false,
      "taf_trigger": false,
      "metar": "METAR LBPD 060000Z AUTO 09010KT 9999 NCD 11/06 Q1015",
      "taf": "TAF LBPD 052300Z 0600/0624 VRB04KT CAVOK"
    },
    {
      "icao": "LBSF",
      "alert": "OK",
      "vis_m": 9999,
      "fzfg": false,
      "metar_trigger": false,
      "taf_trigger": false,
      "metar": "METAR LBSF 060000Z AUTO VRB02KT 9999 NSC 10/06 Q1016 NOSIG",
      "taf": "TAF LBSF 052300Z 0600/0624 VRB04KT CAVOK"
    },
    {
      "icao": "LBWN",
      "alert": "OK",
      "vis_m": 9999,
      "fzfg": false,
      "metar_trigger": false,
      "taf_trigger": false,
      "metar": "METAR LBWN 060000Z AUTO 36003KT 340V040 9999 NCD 06/03 Q1015 NOSIG",
      "taf": "TAF LBWN 052300Z 0600/0624 VRB03KT CAVOK"
    },
    {
      "icao": "LCLK",
      "alert": "OK",
      "vis_m": 9999,
      "fzfg": false,
      "metar_trigger": false,
      "taf_trigger": false,
      "metar": "METAR LCLK 060000Z 30007KT CAVOK 12/08 Q1013 NOSIG",
      "taf": "TAF LCLK 052330Z 0600/0700 30007KT CAVOK"
    },
    {
      "icao": "LCPH",
      "alert": "OK",
      "vis_m": 9999,
      "fzfg": false,
      "metar_trigger": false,
      "taf_trigger": false,
      "metar": "METAR LCPH 060000Z AUTO 01007KT 9999 NCD 12/08 Q1014 NOSIG",
      "taf": "TAF LCPH 052330Z 0600/0700 02008KT CAVOK"
    },
    {
      "icao": "LEAL",
      "alert": "OK",
      "vis_m": 9999,
      "fzfg": false,
      "metar_trigger": false,
      "taf_trigger": false,
      "metar": "METAR LEAL 052330Z VRB01KT CAVOK 17/14 Q1011 NOSIG",
      "taf": "TAF LEAL 052300Z 0600/0624 VRB04KT CAVOK TX23/0612Z TN12/0605Z"
    },
    {
      "icao": "LEBB",
      "alert": "OK",
      "vis_m": 9999,
      "fzfg": false,
      "metar_trigger": false,
      "taf_trigger": false,
      "metar": "METAR LEBB 052330Z AUTO 08003KT 060V140 9999 -RA SCT045 BKN055 OVC068 11/10 Q1014",
      "taf": "TAF LEBB 052300Z 0600/0624 VRB03KT 9999 SCT025 BKN035 TX16/0616Z TN09/0604Z"
    },
    {
      "icao": "LEBL",
      "alert": "OK",
      "vis_m": 9999,
      "fzfg": false,
      "metar_trigger": false,
      "taf_trigger": false,
      "metar": "METAR LEBL 052330Z 01003KT 9999 FEW020 15/11 Q1011 NOSIG",
      "taf": "TAF LEBL 052300Z 0600/0624 33008KT 9999 FEW020 TX20/0613Z TN12/0605Z"
    },
    {
      "icao": "LECH",
      "alert": "OK",
      "vis_m": 9000,
      "fzfg": false,
      "metar_trigger": false,
      "taf_trigger": false,
      "metar": "METAR LECH 052330Z AUTO 02006KT 340V050 9000 NCD 12/08 Q1013",
      "taf": "TAF LECH 052300Z 0600/0624 32007KT 9999 SCT050 BKN060 TX20/0614Z TN07/0605Z"
    },
    {
      "icao": "LEMD",
      "alert": "OK",
      "vis_m": 9999,
      "fzfg": false,
      "metar_trigger": false,
      "taf_trigger": false,
      "metar": "METAR LEMD 052330Z VRB02KT CAVOK 09/03 Q1013 NOSIG",
      "taf": "TAF LEMD 052300Z 0600/0706 VRB04KT 9999 FEW050 TX21/0616Z TN06/0605Z"
    },
    {
      "icao": "LEMG",
      "alert": "OK",
      "vis_m": 9999,
      "fzfg": false,
      "metar_trigger": false,
      "taf_trigger": false,
      "metar": "METAR LEMG 052330Z 29010KT CAVOK 18/06 Q1012 NOSIG",
      "taf": "TAF LEMG 052300Z 0600/0624 29012KT CAVOK TX26/0614Z TN16/0607Z"
    },
    {
      "icao": "LEVC",
      "alert": "OK",
      "vis_m": 9999,
      "fzfg": false,
      "metar_trigger": false,
      "taf_trigger": false,
      "metar": "METAR LEVC 052330Z VRB02KT 9999 FEW044 16/08 Q1012 NOSIG",
      "taf": "TAF LEVC 052300Z 0600/0624 VRB04KT 9999 FEW012 TX22/0612Z TN12/0605Z"
    },
    {
      "icao": "LEXJ",
      "alert": "OK",
      "vis_m": 9000,
      "fzfg": false,
      "metar_trigger": false,
      "taf_trigger": false,
      "metar": "METAR LEXJ 052330Z AUTO 23006KT 200V260 9000 -RA FEW025 SCT045 BKN055 12/10 Q1015",
      "taf": "TAF LEXJ 052000Z 0521/0621 22008KT 9999 FEW020 BKN025 TX18/0614Z TN11/0605Z"
    },
    {
      "icao": "LEZG",
      "alert": "OK",
      "vis_m": 9999,
      "fzfg": false,
      "metar_trigger": false,
      "taf_trigger": false,
      "metar": "METAR LEZG 052330Z 26007KT 9999 FEW060 11/08 Q1014 NOSIG",
      "taf": "TAF LEZG 052300Z 0600/0624 28007KT 9999 SCT070 TX19/0614Z TN09/0605Z"
    },
    {
      "icao": "LEZL",
      "alert": "OK",
      "vis_m": 9000,
      "fzfg": false,
      "metar_trigger": false,
      "taf_trigger": false,
      "metar": "METAR LEZL 052330Z AUTO 33003KT 9000 NCD 16/06 Q1013",
      "taf": "TAF LEZL 052000Z 0521/0621 22010KT CAVOK TX27/0615Z TN11/0607Z"
    },
    {
      "icao": "LFBD",
      "alert": "OK",
      "vis_m": 9999,
      "fzfg": false,
      "metar_trigger": false,
      "taf_trigger": false,
      "metar": "METAR LFBD 060000Z AUTO 24007KT 9999 ///TCU 11/09 Q1011 TEMPO 4000 SHRA BKN010 FEW020CB BKN025TCU",
      "taf": "TAF LFBD 052300Z 0600/0706 21010KT 9999 BKN030 TX17/0614Z TN09/0703Z"
    },
    {
      "icao": "LFLL",
      "alert": "OK",
      "vis_m": 9999,
      "fzfg": false,
      "metar_trigger": false,
      "taf_trigger": false,
      "metar": "METAR LFLL 060000Z 13005KT 9999 -RA NSC 12/10 Q1010 TEMPO 4000 RA",
      "taf": "TAF LFLL 052300Z 0600/0706 16006KT 9999 -RA BKN040"
    },
    {
      "icao": "LFLS",
      "alert": "OK",
      "vis_m": 9999,
      "fzfg": false,
      "metar_trigger": false,
      "taf_trigger": false,
      "metar": "METAR LFLS 060000Z AUTO VRB03KT 9999 -RADZ FEW034/// BKN052/// OVC066/// ///CB 11/10 Q1010",
      "taf": ""
    },
    {
      "icao": "LFMN",
      "alert": "OK",
      "vis_m": 9999,
      "fzfg": false,
      "metar_trigger": false,
      "taf_trigger": false,
      "metar": "METAR LFMN 060000Z COR 04008KT 9999 FEW040 SCT060 OVC100 16/14 Q1010 NOSIG",
      "taf": ""
    },
    {
      "icao": "LFOB",
      "alert": "OK",
      "vis_m": 9999,
      "fzfg": false,
      "metar_trigger": false,
      "taf_trigger": false,
      "metar": "METAR LFOB 060000Z AUTO 34008KT 9999 -RA OVC022 10/09 Q1008 TEMPO 4500 RA",
      "taf": "TAF LFOB 052300Z 0600/0624 03009KT 8000 BKN020 OVC035"
    },
    {
      "icao": "LFPO",
      "alert": "OK",
      "vis_m": 3400,
      "fzfg": false,
      "metar_trigger": false,
      "taf_trigger": false,
      "metar": "METAR LFPO 060000Z AUTO 01007KT 3400 RA BR BKN008/// BKN013/// OVC018/// ///TCU 11/11 Q1008 TEMPO NSW OVC008",
      "taf": "TAF LFPO 052300Z 0600/0706 36008KT 6000 -RA OVC013"
    },
    {
      "icao": "LFSB",
      "alert": "OK",
      "vis_m": 9999,
      "fzfg": false,
      "metar_trigger": false,
      "taf_trigger": false,
      "metar": "METAR LFSB 060000Z AUTO 17005KT CAVOK 11/10 Q1009 TEMPO 3000 BCFG",
      "taf": "TAF LFSB 052300Z 0600/0624 VRB03KT 9999 FEW030 SCT065"
    },
    {
      "icao": "LGAV",
      "alert": "OK",
      "vis_m": 9999,
      "fzfg": false,
      "metar_trigger": false,
      "taf_trigger": false,
      "metar": "METAR LGAV 052350Z VRB02KT CAVOK 11/07 Q1016 NOSIG",
      "taf": "TAF LGAV 052300Z 0600/0624 VRB03KT 9999 FEW025"
    },
    {
      "icao": "LGTS",
      "alert": "OK",
      "vis_m": 9999,
      "fzfg": false,
      "metar_trigger": false,
      "taf_trigger": false,
      "metar": "METAR LGTS 052350Z 29007KT CAVOK 16/12 Q1015 NOSIG",
      "taf": "TAF LGTS 052300Z 0600/0624 VRB03KT 9999 FEW025"
    },
    {
      "icao": "LHBP",
      "alert": "OK",
      "vis_m": 9999,
      "fzfg": false,
      "metar_trigger": false,
      "taf_trigger": false,
      "metar": "METAR LHBP 060000Z 18003KT 150V210 CAVOK 15/08 Q1011 NOSIG",
      "taf": "TAF LHBP 052315Z 0600/0624 18005KT CAVOK"
    },
    {
      "icao": "LHDC",
      "alert": "OK",
      "vis_m": 9999,
      "fzfg": false,
      "metar_trigger": false,
      "taf_trigger": false,
      "metar": "METAR LHDC 052345Z AUTO VRB01KT CAVOK 11/03 Q1011",
      "taf": "TAF LHDC 051415Z 0515/0524 18008KT CAVOK"
    },
    {
      "icao": "LIBD",
      "alert": "OK",
      "vis_m": 9999,
      "fzfg": false,
      "metar_trigger": false,
      "taf_trigger": false,
      "metar": "METAR LIBD 052350Z 17001KT CAVOK 16/14 Q1014",
      "taf": "TAF LIBD 052300Z 0600/0624 17008KT 9999 FEW030"
    },
    {
      "icao": "LIBG",
      "alert": "OK",
      "vis_m": null,
      "fzfg": false,
      "metar_trigger": false,
      "taf_trigger": false,
      "metar": "",
      "taf": "TAF LIBG 051400Z 0515/0524 17008KT 9999 FEW020"
    },
    {
      "icao": "LIBP",
      "alert": "OK",
      "vis_m": 7000,
      "fzfg": false,
      "metar_trigger": false,
      "taf_trigger": false,
      "metar": "METAR LIBP 052350Z AUTO 23003KT 7000 NCD 13/13 Q1013",
      "taf": "TAF LIBP 052300Z 0600/0624 VRB05KT 9999 SCT070"
    },
    {
      "icao": "LIBR",
      "alert": "OK",
      "vis_m": 9999,
      "fzfg": false,
      "metar_trigger": false,
      "taf_trigger": false,
      "metar": "METAR LIBR 052320Z 18007KT CAVOK 16/16 Q1015",
      "taf": "TAF LIBR 052300Z 0600/0624 17013KT 9999 FEW020"
    },
    {
      "icao": "LICA",
      "alert": "OK",
      "vis_m": 9999,
      "fzfg": false,
      "metar_trigger": false,
      "taf_trigger": false,
      "metar": "METAR LICA 052350Z AUTO 07004KT 9999 BKN150/// 17/13 Q1015",
      "taf": "TAF LICA 052300Z 0600/0624 VRB05KT 9999 FEW020"
    },
    {
      "icao": "LICC",
      "alert": "OK",
      "vis_m": 9999,
      "fzfg": false,
      "metar_trigger": false,
      "taf_trigger": false,
      "metar": "METAR LICC 052350Z 36004KT 250V050 CAVOK 18/12 Q1016",
      "taf": "TAF LICC 052300Z 0600/0624 24006KT 9999 FEW030"
    },
    {
      "icao": "LICJ",
      "alert": "OK",
      "vis_m": 9999,
      "fzfg": false,
      "metar_trigger": false,
      "taf_trigger": false,
      "metar": "METAR LICJ 052350Z 20005KT CAVOK 18/14 Q1014",
      "taf": "TAF LICJ 052300Z 0600/0624 VRB05KT CAVOK"
    },
    {
      "icao": "LIMC",
      "alert": "OK",
      "vis_m": 6000,
      "fzfg": false,
      "metar_trigger": false,
      "taf_trigger": false,
      "metar": "METAR LIMC 052350Z 34003KT 6000 BKN005 BKN015 13/13 Q1011 NOSIG",
      "taf": "TAF LIMC 052300Z 0600/0706 VRB05KT 9999 BKN015"
    },
    {
      "icao": "LIME",
      "alert": "OK",
      "vis_m": 9999,
      "fzfg": false,
      "metar_trigger": false,
      "taf_trigger": false,
      "metar": "METAR LIME 052350Z VRB02KT 9999 BKN015 13/13 Q1012 NOSIG",
      "taf": "TAF LIME 052300Z 0600/0624 VRB05KT 9999 SCT020 BKN030"
    },
    {
      "icao": "LIMF",
      "alert": "OK",
      "vis_m": 3000,
      "fzfg": false,
      "metar_trigger": false,
      "taf_trigger": false,
      "metar": "METAR LIMF 052350Z 02003KT 3000 -RA BR BKN007 BKN030 13/12 Q1012",
      "taf": "TAF LIMF 052300Z 0600/0624 VRB05KT 6000 BKN020"
    },
    {
      "icao": "LIMJ",
      "alert": "OK",
      "vis_m": 9999,
      "fzfg": false,
      "metar_trigger": false,
      "taf_trigger": false,
      "metar": "METAR LIMJ 052350Z 02004KT 350V060 9999 FEW024 17/14 Q1010",
      "taf": "TAF LIMJ 052300Z 0600/0624 VRB05KT 9999 BKN030"
    },
    {
      "icao": "LIPE",
      "alert": "OK",
      "vis_m": 2500,
      "fzfg": false,
      "metar_trigger": false,
      "taf_trigger": false,
      "metar": "METAR LIPE 052350Z 05002KT 2500 -DZ BR BKN003 15/15 Q1012",
      "taf": "TAF LIPE 052300Z 0600/0624 09006KT 9999 SCT010"
    },
    {
      "icao": "LIPH",
      "alert": "OK",
      "vis_m": 9999,
      "fzfg": false,
      "metar_trigger": false,
      "taf_trigger": false,
      "metar": "METAR LIPH 052350Z AUTO 03004KT 360V060 9999 BKN012/// 14/13 Q1012",
      "taf": "TAF LIPH 052300Z 0600/0624 06007KT 6000 SCT007 BKN015"
    },
    {
      "icao": "LIPQ",
      "alert": "OK",
      "vis_m": 9999,
      "fzfg": false,
      "metar_trigger": false,
      "taf_trigger": false,
      "metar": "METAR LIPQ 052350Z AUTO 16004KT 9999 BKN016/// 15/14 Q1012",
      "taf": "TAF LIPQ 052300Z 0600/0624 VRB05KT 9999 BKN015"
    },
    {
      "icao": "LIPR",
      "alert": "OK",
      "vis_m": 9999,
      "fzfg": false,
      "metar_trigger": false,
      "taf_trigger": false,
      "metar": "METAR LIPR 052350Z AUTO 17004KT 9999 SCT100/// 15/13 Q1012",
      "taf": "TAF LIPR 052300Z 0600/0624 17012KT 9999 SCT030"
    },
    {
      "icao": "LIPX",
      "alert": "OK",
      "vis_m": 9999,
      "fzfg": false,
      "metar_trigger": false,
      "taf_trigger": false,
      "metar": "METAR LIPX 052350Z 28001KT CAVOK 10/10 Q1012",
      "taf": "TAF LIPX 052300Z 0600/0624 VRB05KT 9999 SCT030"
    },
    {
      "icao": "LIPY",
      "alert": "OK",
      "vis_m": 9999,
      "fzfg": false,
      "metar_trigger": false,
      "taf_trigger": false,
      "metar": "METAR LIPY 052350Z AUTO 15003KT 9999 FEW055/// SCT085/// OVC120/// 16/15 Q1013",
      "taf": "TAF LIPY 052300Z 0600/0624 15007KT 9999 SCT030"
    },
    {
      "icao": "LIPZ",
      "alert": "OK",
      "vis_m": 9999,
      "fzfg": false,
      "metar_trigger": false,
      "taf_trigger": false,
      "metar": "METAR LIPZ 052350Z 02007KT 9999 BKN010 14/13 Q1012 NOSIG",
      "taf": "TAF LIPZ 052300Z 0600/0706 04007KT 6000 SCT007 BKN015"
    },
    {
      "icao": "LIRF",
      "alert": "OK",
      "vis_m": 9999,
      "fzfg": false,
      "metar_trigger": false,
      "taf_trigger": false,
      "metar": "METAR LIRF 052350Z 12008KT 9999 SCT055 17/13 Q1014 NOSIG",
      "taf": "TAF LIRF 052300Z 0600/0706 16015KT 9999 BKN030"
    },
    {
      "icao": "LIRN",
      "alert": "OK",
      "vis_m": 9999,
      "fzfg": false,
      "metar_trigger": false,
      "taf_trigger": false,
      "metar": "METAR LIRN 052350Z VRB02KT CAVOK 16/10 Q1015 NOSIG",
      "taf": "TAF LIRN 052300Z 0600/0624 VRB05KT 9999 SCT050"
    },
    {
      "icao": "LIRP",
      "alert": "OK",
      "vis_m": 9999,
      "fzfg": false,
      "metar_trigger": false,
      "taf_trigger": false,
      "metar": "METAR LIRP 052345Z 04006KT 9999 -RA SCT015CB BKN025 14/13 Q1012 TEMPO 5000 TSRA",
      "taf": "TAF LIRP 051700Z 0518/0618 26007KT 9999 SCT020 BKN040"
    },
    {
      "icao": "LIRZ",
      "alert": "OK",
      "vis_m": 9999,
      "fzfg": false,
      "metar_trigger": false,
      "taf_trigger": false,
      "metar": "METAR LIRZ 052350Z AUTO 16003KT 9999 BKN031/// BKN040/// BKN048/// 16/12 Q1014",
      "taf": "TAF LIRZ 052300Z 0600/0624 VRB05KT 9999 BKN030"
    },
    {
      "icao": "LJLJ",
      "alert": "OK",
      "vis_m": 9999,
      "fzfg": false,
      "metar_trigger": false,
      "taf_trigger": false,
      "metar": "METAR LJLJ 052330Z VRB02KT 9999 FEW010 SCT030 BKN045 13/10 Q1012 NOSIG",
      "taf": "TAF LJLJ 052300Z 0600/0700 VRB02KT 9999 FEW007 SCT025 BKN045"
    },
    {
      "icao": "LKMT",
      "alert": "OK",
      "vis_m": 9999,
      "fzfg": false,
      "metar_trigger": false,
      "taf_trigger": false,
      "metar": "METAR LKMT 060000Z 21008KT CAVOK 16/08 Q1006 NOSIG",
      "taf": "TAF LKMT 052300Z 0600/0624 20010KT CAVOK"
    },
    {
      "icao": "LKPR",
      "alert": "OK",
      "vis_m": 9999,
      "fzfg": false,
      "metar_trigger": false,
      "taf_trigger": false,
      "metar": "METAR LKPR 060000Z 21004KT CAVOK 12/12 Q1006 NOSIG",
      "taf": "TAF LKPR 052300Z 0600/0706 23012KT CAVOK"
    },
    {
      "icao": "LLBG",
      "alert": "OK",
      "vis_m": 9999,
      "fzfg": false,
      "metar_trigger": false,
      "taf_trigger": false,
      "metar": "METAR LLBG 052350Z 15006KT 9999 SCT035 BKN047 16/10 Q1015 NOSIG",
      "taf": "TAF LLBG 052301Z 0600/0624 VRB04KT 9999 SCT030 BKN050 TX22/0611Z TN16/0603Z"
    },
    {
      "icao": "LMML",
      "alert": "OK",
      "vis_m": 9999,
      "fzfg": false,
      "metar_trigger": false,
      "taf_trigger": false,
      "metar": "METAR LMML 052345Z 13011KT 9999 FEW008 17/16 Q1015 NOSIG",
      "taf": "TAF LMML 052300Z 0600/0624 13012KT 9999 FEW012"
    },
    {
      "icao": "LOWW",
      "alert": "OK",
      "vis_m": 9999,
      "fzfg": false,
      "metar_trigger": false,
      "taf_trigger": false,
      "metar": "METAR LOWW 052350Z 16006KT CAVOK 14/09 Q1006 NOSIG",
      "taf": "TAF LOWW 052315Z 0600/0706 16012KT CAVOK TX25/0613Z TN14/0602Z"
    },
    {
      "icao": "LPFR",
      "alert": "OK",
      "vis_m": 9999,
      "fzfg": false,
      "metar_trigger": false,
      "taf_trigger": false,
      "metar": "METAR LPFR 052330Z 35012KT CAVOK 16/10 Q1014",
      "taf": "TAF LPFR 052300Z 0600/0624 33012KT 9999 FEW020"
    },
    {
      "icao": "LPMA",
      "alert": "OK",
      "vis_m": 8000,
      "fzfg": false,
      "metar_trigger": false,
      "taf_trigger": false,
      "metar": "METAR LPMA 052330Z 02013KT 340V050 8000 -RA FEW006 BKN012 15/13 Q1019",
      "taf": "TAF LPMA 052300Z 0600/0624 02013KT 9999 SCT015"
    },
    {
      "icao": "LPPR",
      "alert": "OK",
      "vis_m": 9999,
      "fzfg": false,
      "metar_trigger": false,
      "taf_trigger": false,
      "metar": "METAR LPPR 052330Z 01003KT 9999 FEW018 11/09 Q1017",
      "taf": "TAF LPPR 052300Z 0600/0624 VRB02KT 9999 SCT025"
    },
    {
      "icao": "LPPS",
      "alert": "OK",
      "vis_m": 9999,
      "fzfg": false,
      "metar_trigger": false,
      "taf_trigger": false,
      "metar": "METAR LPPS 052330Z 06009KT 030V090 9999 FEW008 BKN014 15/12 Q1019",
      "taf": "TAF LPPS 052300Z 0600/0706 04013KT 9999 SCT012 BKN030"
    },
    {
      "icao": "LPPT",
      "alert": "OK",
      "vis_m": 9999,
      "fzfg": false,
      "metar_trigger": false,
      "taf_trigger": false,
      "metar": "METAR LPPT 052330Z 34009KT 9999 FEW012 13/10 Q1016",
      "taf": "TAF LPPT 052300Z 0600/0706 34007KT 9999 FEW030"
    },
    {
      "icao": "LQBK",
      "alert": "OK",
      "vis_m": 9999,
      "fzfg": false,
      "metar_trigger": false,
      "taf_trigger": false,
      "metar": "METAR LQBK 052330Z 14004KT 090V220 CAVOK 12/07 Q1012 NOSIG",
      "taf": "TAF LQBK 052300Z 0600/0624 20005KT CAVOK TX25/0613Z TN09/0603Z"
    },
    {
      "icao": "LQSA",
      "alert": "OK",
      "vis_m": 9999,
      "fzfg": false,
      "metar_trigger": false,
      "taf_trigger": false,
      "metar": "METAR LQSA 052330Z 30005KT 260V330 CAVOK 11/07 Q1015",
      "taf": "TAF LQSA 052300Z 0600/0624 VRB02KT CAVOK TX25/0614Z TN08/0604Z"
    },
    {
      "icao": "LQTZ",
      "alert": "OK",
      "vis_m": 9999,
      "fzfg": false,
      "metar_trigger": false,
      "taf_trigger": false,
      "metar": "METAR LQTZ 052330Z VRB02KT CAVOK 11/06 Q1013",
      "taf": "TAF LQTZ 052300Z 0600/0624 10005KT CAVOK TX26/0612Z TN05/0604Z"
    },
    {
      "icao": "LRBC",
      "alert": "OK",
      "vis_m": 9999,
      "fzfg": false,
      "metar_trigger": false,
      "taf_trigger": false,
      "metar": "METAR LRBC 052330Z 17010KT CAVOK 10/06 Q1014",
      "taf": "TAF LRBC 052300Z 0600/0609 17010KT CAVOK"
    },
    {
      "icao": "LRBS",
      "alert": "OK",
      "vis_m": 9999,
      "fzfg": false,
      "metar_trigger": false,
      "taf_trigger": false,
      "metar": "METAR LRBS 052330Z 05005KT CAVOK 13/09 Q1014 NOSIG",
      "taf": "TAF LRBS 052300Z 0600/0624 VRB04KT CAVOK"
    },
    {
      "icao": "LRBV",
      "alert": "OK",
      "vis_m": 9999,
      "fzfg": false,
      "metar_trigger": false,
      "taf_trigger": false,
      "metar": "METAR LRBV 052330Z AUTO VRB02KT 9999 NCD 11/06 Q1014",
      "taf": "TAF LRBV 051700Z 0518/0603 21010KT CAVOK"
    },
    {
      "icao": "LRCL",
      "alert": "OK",
      "vis_m": 9999,
      "fzfg": false,
      "metar_trigger": false,
      "taf_trigger": false,
      "metar": "METAR LRCL 052330Z 24002KT CAVOK 11/04 Q1013",
      "taf": "TAF LRCL 052300Z 0600/0609 VRB04KT CAVOK"
    },
    {
      "icao": "LRCV",
      "alert": "OK",
      "vis_m": 9999,
      "fzfg": false,
      "metar_trigger": false,
      "taf_trigger": false,
      "metar": "METAR LRCV 052330Z 07005KT CAVOK 11/09 Q1013",
      "taf": "TAF LRCV 052300Z 0600/0609 VRB04KT CAVOK"
    },
    {
      "icao": "LRIA",
      "alert": "OK",
      "vis_m": 9999,
      "fzfg": false,
      "metar_trigger": false,
      "taf_trigger": false,
      "metar": "METAR LRIA 052330Z 11009KT CAVOK 12/06 Q1013",
      "taf": "TAF LRIA 052300Z 0600/0609 11010KT CAVOK"
    },
    {
      "icao": "LROP",
      "alert": "OK",
      "vis_m": 9999,
      "fzfg": false,
      "metar_trigger": false,
      "taf_trigger": false,
      "metar": "METAR LROP 052330Z 06007KT CAVOK 12/09 Q1014 NOSIG",
      "taf": "TAF LROP 052300Z 0600/0624 VRB04KT CAVOK"
    },
    {
      "icao": "LRSB",
      "alert": "OK",
      "vis_m": 9999,
      "fzfg": false,
      "metar_trigger": false,
      "taf_trigger": false,
      "metar": "METAR LRSB 052330Z 27003KT CAVOK 08/05 Q1013",
      "taf": "TAF LRSB 052300Z 0600/0624 VRB04KT CAVOK"
    },
    {
      "icao": "LRSM",
      "alert": "OK",
      "vis_m": 9999,
      "fzfg": false,
      "metar_trigger": false,
      "taf_trigger": false,
      "metar": "METAR LRSM 052330Z AUTO 09001KT 9999 NCD 10/04 Q1011",
      "taf": "TAF LRSM 051400Z 0515/0524 VRB04KT CAVOK"
    },
    {
      "icao": "LRSV",
      "alert": "OK",
      "vis_m": 9999,
      "fzfg": false,
      "metar_trigger": false,
      "taf_trigger": false,
      "metar": "METAR LRSV 052330Z 19007KT CAVOK 14/05 Q1012",
      "taf": "TAF LRSV 052300Z 0600/0609 19008KT CAVOK"
    },
    {
      "icao": "LRTM",
      "alert": "OK",
      "vis_m": 9999,
      "fzfg": false,
      "metar_trigger": false,
      "taf_trigger": false,
      "metar": "METAR LRTM 052330Z 07004KT 040V100 CAVOK 09/05 Q1013",
      "taf": "TAF LRTM 052300Z 0600/0609 VRB04KT CAVOK"
    },
    {
      "icao": "LRTR",
      "alert": "OK",
      "vis_m": 9999,
      "fzfg": false,
      "metar_trigger": false,
      "taf_trigger": false,
      "metar": "METAR LRTR 052330Z 35003KT 310V030 CAVOK 11/05 Q1013",
      "taf": "TAF LRTR 052300Z 0600/0624 VRB04KT CAVOK"
    },
    {
      "icao": "LTAC",
      "alert": "OK",
      "vis_m": 9999,
      "fzfg": false,
      "metar_trigger": false,
      "taf_trigger": false,
      "metar": "METAR LTAC 052350Z VRB01KT 9999 SCT040 BKN100 05/03 Q1014 NOSIG RMK RWY21C VRB01KT RWY03L VRB02KT RWY21R VRB01KT RWY03R VRB02KT RWY21L VRB01KT",
      "taf": "TAF LTAC 052240Z 0600/0624 VRB02KT 9999 SCT035 BKN100"
    },
    {
      "icao": "LTFM",
      "alert": "OK",
      "vis_m": 9999,
      "fzfg": false,
      "metar_trigger": false,
      "taf_trigger": false,
      "metar": "METAR LTFM 052350Z 20003KT 140V210 CAVOK 09/07 Q1015 NOSIG RMK RWY17L 00000KT RWY34L 20002KT RWY16R 00000KT RWY36 16003KT RWY18 18002KT",
      "taf": "TAF LTFM 052240Z 0600/0706 VRB02KT CAVOK"
    },
    {
      "icao": "LUKK",
      "alert": "OK",
      "vis_m": 9999,
      "fzfg": false,
      "metar_trigger": false,
      "taf_trigger": false,
      "metar": "METAR LUKK 052330Z 26005KT CAVOK 10/01 Q1014 NOSIG",
      "taf": "TAF LUKK 052304Z 0600/0624 21008KT CAVOK"
    },
    {
      "icao": "LWOH",
      "alert": "OK",
      "vis_m": null,
      "fzfg": false,
      "metar_trigger": false,
      "taf_trigger": false,
      "metar": "",
      "taf": "TAF LWOH 052350Z 0600/0624 33005KT 9999 FEW040 SCT100"
    },
    {
      "icao": "LWSK",
      "alert": "OK",
      "vis_m": 9999,
      "fzfg": false,
      "metar_trigger": false,
      "taf_trigger": false,
      "metar": "METAR LWSK 052350Z VRB02KT CAVOK 10/06 Q1015 NOSIG",
      "taf": "TAF LWSK 052350Z 0600/0624 VRB02KT CAVOK"
    },
    {
      "icao": "LYBE",
      "alert": "OK",
      "vis_m": 9999,
      "fzfg": false,
      "metar_trigger": false,
      "taf_trigger": false,
      "metar": "METAR LYBE 052330Z 13003KT CAVOK 12/07 Q1013 NOSIG",
      "taf": "TAF LYBE 052300Z 0600/0624 17005KT CAVOK TX28/0613Z TN12/0604Z"
    },
    {
      "icao": "LYNI",
      "alert": "OK",
      "vis_m": 9999,
      "fzfg": false,
      "metar_trigger": false,
      "taf_trigger": false,
      "metar": "METAR LYNI 052330Z 09003KT CAVOK 13/05 Q1014 NOSIG",
      "taf": "TAF LYNI 052300Z 0600/0624 10005KT CAVOK TX28/0614Z TN08/0604Z"
    },
    {
      "icao": "LYPG",
      "alert": "OK",
      "vis_m": 9999,
      "fzfg": false,
      "metar_trigger": false,
      "taf_trigger": false,
      "metar": "METAR LYPG 052330Z VRB02KT CAVOK 14/07 Q1017 NOSIG",
      "taf": "TAF LYPG 052300Z 0600/0624 36005KT CAVOK TX24/0613Z TN12/0604Z"
    },
    {
      "icao": "LZIB",
      "alert": "OK",
      "vis_m": 9999,
      "fzfg": false,
      "metar_trigger": false,
      "taf_trigger": false,
      "metar": "METAR LZIB 060000Z 18008KT CAVOK 15/09 Q1007 NOSIG",
      "taf": "TAF LZIB 052315Z 0600/0700 20007KT CAVOK"
    },
    {
      "icao": "LZKZ",
      "alert": "OK",
      "vis_m": 9999,
      "fzfg": false,
      "metar_trigger": false,
      "taf_trigger": false,
      "metar": "METAR LZKZ 060000Z 16003KT CAVOK 10/04 Q1010 NOSIG",
      "taf": "TAF LZKZ 052315Z 0600/0700 21006KT CAVOK"
    },
    {
      "icao": "LZTT",
      "alert": "OK",
      "vis_m": 9999,
      "fzfg": false,
      "metar_trigger": false,
      "taf_trigger": false,
      "metar": "METAR LZTT 060000Z 25010KT CAVOK 14/04 Q1010",
      "taf": "TAF LZTT 052315Z 0600/0700 25009KT CAVOK"
    },
    {
      "icao": "OEJN",
      "alert": "OK",
      "vis_m": 9999,
      "fzfg": false,
      "metar_trigger": false,
      "taf_trigger": false,
      "metar": "METAR OEJN 060000Z 36009KT CAVOK 26/18 Q1008 NOSIG",
      "taf": "TAF OEJN 052300Z 0600/0706 36005KT 7000 FEW040"
    },
    {
      "icao": "OEMA",
      "alert": "OK",
      "vis_m": 9999,
      "fzfg": false,
      "metar_trigger": false,
      "taf_trigger": false,
      "metar": "METAR OEMA 060000Z 34004KT CAVOK 27/M04 Q1012 NOSIG",
      "taf": "TAF OEMA 052300Z 0600/0706 VRB03KT CAVOK"
    },
    {
      "icao": "OJAI",
      "alert": "OK",
      "vis_m": 5000,
      "fzfg": false,
      "metar_trigger": false,
      "taf_trigger": false,
      "metar": "METAR OJAI 052300Z 25003KT 5000 HZ NSC 09/05 Q1017 NOSIG",
      "taf": "TAF OJAI 052231Z 0600/0706 28012KT 5000 HZ SCT030"
    },
    {
      "icao": "OMAA",
      "alert": "OK",
      "vis_m": 9999,
      "fzfg": false,
      "metar_trigger": false,
      "taf_trigger": false,
      "metar": "METAR OMAA 060000Z 08006KT 040V180 CAVOK 28/18 Q1004 NOSIG",
      "taf": "TAF OMAA 052300Z 0600/0706 09005KT 8000 NSC"
    },
    {
      "icao": "OMDB",
      "alert": "OK",
      "vis_m": 9999,
      "fzfg": false,
      "metar_trigger": false,
      "taf_trigger": false,
      "metar": "METAR OMDB 060000Z 04007KT 350V070 CAVOK 30/18 Q1005 NOSIG",
      "taf": "TAF OMDB 052300Z 0600/0706 10005KT 8000 NSC"
    },
    {
      "icao": "UAAA",
      "alert": "OK",
      "vis_m": 9999,
      "fzfg": false,
      "metar_trigger": false,
      "taf_trigger": false,
      "metar": "METAR UAAA 052330Z 17001MPS 9999 SCT100 BKN200 12/07 Q1017 NOSIG",
      "taf": "TAF UAAA 052300Z 0600/0624 16003MPS 9999 SCT050CB BKN100 TX25/0608Z TN10/0601Z"
    },
    {
      "icao": "UBBB",
      "alert": "OK",
      "vis_m": 9999,
      "fzfg": false,
      "metar_trigger": false,
      "taf_trigger": false,
      "metar": "METAR UBBB 060000Z 01006KT CAVOK 11/10 Q1011 NOSIG",
      "taf": "TAF UBBB 052255Z 0600/0624 33010KT 9999 SCT010 FEW040CB TX15/0610Z TN10/0601Z"
    },
    {
      "icao": "UDSG",
      "alert": "OK",
      "vis_m": 9999,
      "fzfg": false,
      "metar_trigger": false,
      "taf_trigger": false,
      "metar": "METAR UDSG 052330Z 25004KT 9999 SCT049CB 06/02 Q1012 NOSIG",
      "taf": "TAF UDSG 052300Z 0600/0624 27006KT 9999 SCT040"
    },
    {
      "icao": "UDYZ",
      "alert": "OK",
      "vis_m": 9999,
      "fzfg": false,
      "metar_trigger": false,
      "taf_trigger": false,
      "metar": "METAR UDYZ 052330Z VRB02KT 9999 FEW046 10/04 Q1009 NOSIG",
      "taf": "TAF UDYZ 052300Z 0600/0624 24006KT 9999 SCT040"
    },
    {
      "icao": "UGKO",
      "alert": "OK",
      "vis_m": 9999,
      "fzfg": false,
      "metar_trigger": false,
      "taf_trigger": false,
      "metar": "METAR UGKO 052330Z 23005KT 9999 FEW019 SCT023 BKN029 12/11 Q1013 NOSIG",
      "taf": "TAF UGKO 052300Z 0600/0624 25007KT 9999 SCT017 BKN050 TX14/0611Z TN11/0602Z"
    }
  ]
}