{
  "ts_utc": "2026-01-05T22:54:59Z",
  "threshold_m": 150,
  "source": "stations_override.txt (ICAO list) + aviationweather.gov (METAR/TAF raw)",
  "station_count": 159,
  "stations": [
    {
      "icao": "BIKF",
      "alert": "OK",
      "vis_m": 9999,
      "fzfg": false,
      "metar_trigger": false,
      "taf_trigger": false,
      "metar": "METAR BIKF 052230Z 06008KT 9999 FEW017 SCT220 M02/M04 Q1016",
      "taf": "TAF BIKF 052231Z 0600/0700 07010KT CAVOK TXM02/0600Z TNM06/0610Z"
    },
    {
      "icao": "BKPR",
      "alert": "OK",
      "vis_m": null,
      "fzfg": false,
      "metar_trigger": false,
      "taf_trigger": false,
      "metar": "",
      "taf": "TAF BKPR 051730Z 0518/0618 18008KT 9999 SCT020 BKN040"
    },
    {
      "icao": "EBCI",
      "alert": "OK",
      "vis_m": 6000,
      "fzfg": false,
      "metar_trigger": false,
      "taf_trigger": false,
      "metar": "METAR EBCI 052220Z 22010KT 6000 R24/1400U -SHSN BKN003 BKN013 M02/M03 Q1012 TEMPO 3000 -SHSN BKN005",
      "taf": "TAF EBCI 051715Z 0518/0624 23007KT 9999 SCT007 BKN011"
    },
    {
      "icao": "EDDB",
      "alert": "OK",
      "vis_m": 9999,
      "fzfg": false,
      "metar_trigger": false,
      "taf_trigger": false,
      "metar": "METAR EDDB 052250Z AUTO 18004KT CAVOK M07/M08 Q1013 NOSIG",
      "taf": "TAF EDDB 051700Z 0518/0618 17004KT 9999 SCT045"
    },
    {
      "icao": "EDDH",
      "alert": "OK",
      "vis_m": 9999,
      "fzfg": false,
      "metar_trigger": false,
      "taf_trigger": false,
      "metar": "METAR EDDH 052250Z AUTO 21008KT 9999 FEW011 OVC017 M01/M02 Q1011 TEMPO BKN012",
      "taf": "TAF EDDH 051700Z 0518/0624 21004KT 9999 BKN015"
    },
    {
      "icao": "EDDK",
      "alert": "OK",
      "vis_m": 9999,
      "fzfg": false,
      "metar_trigger": false,
      "taf_trigger": false,
      "metar": "METAR EDDK 052250Z AUTO 17004KT 9999 BKN026 OVC034 M02/M04 Q1013 NOSIG",
      "taf": "TAF EDDK 051700Z 0518/0624 16007KT 9999 FEW008 BKN020"
    },
    {
      "icao": "EDDN",
      "alert": "OK",
      "vis_m": 9999,
      "fzfg": false,
      "metar_trigger": false,
      "taf_trigger": false,
      "metar": "METAR EDDN 052250Z AUTO 11008KT CAVOK M11/M12 Q1014",
      "taf": "TAF EDDN 051700Z 0518/0618 VRB02KT 9999 SCT030"
    },
    {
      "icao": "EDDS",
      "alert": "OK",
      "vis_m": 9999,
      "fzfg": false,
      "metar_trigger": false,
      "taf_trigger": false,
      "metar": "METAR EDDS 052250Z AUTO 19003KT CAVOK M06/M11 Q1012",
      "taf": "TAF EDDS 051700Z 0518/0618 VRB03KT CAVOK"
    },
    {
      "icao": "EDFH",
      "alert": "OK",
      "vis_m": 8000,
      "fzfg": false,
      "metar_trigger": false,
      "taf_trigger": false,
      "metar": "METAR EDFH 052220Z 24006KT 210V280 8000 -SN FEW002 BKN005 M06/M07 Q1011",
      "taf": "TAF EDFH 051700Z 0518/0618 20006KT 9999 OVC010"
    },
    {
      "icao": "EDJA",
      "alert": "OK",
      "vis_m": 9999,
      "fzfg": false,
      "metar_trigger": false,
      "taf_trigger": false,
      "metar": "METAR EDJA 052220Z AUTO 17006KT 9999 // FEW140/// M14/M16 Q1012",
      "taf": "TAF EDJA 051700Z 0518/0603 22004KT CAVOK"
    },
    {
      "icao": "EDLW",
      "alert": "OK",
      "vis_m": 9999,
      "fzfg": false,
      "metar_trigger": false,
      "taf_trigger": false,
      "metar": "METAR EDLW 052220Z AUTO 21009KT 9999 // FEW019/// OVC030/// M02/M05 Q1011",
      "taf": "TAF EDLW 051700Z 0518/0618 22008KT 9999 BKN020"
    },
    {
      "icao": "EDNY",
      "alert": "OK",
      "vis_m": 9999,
      "fzfg": false,
      "metar_trigger": false,
      "taf_trigger": false,
      "metar": "METAR EDNY 052220Z AUTO 04005KT 9999 // NCD M12/M13 Q1014",
      "taf": "TAF EDNY 051700Z 0518/0603 VRB03KT CAVOK"
    },
    {
      "icao": "EDSB",
      "alert": "OK",
      "vis_m": 9999,
      "fzfg": false,
      "metar_trigger": false,
      "taf_trigger": false,
      "metar": "METAR EDSB 052220Z 25004KT CAVOK M06/M08 Q1014",
      "taf": "TAF EDSB 051700Z 0518/0618 VRB03KT CAVOK"
    },
    {
      "icao": "EETN",
      "alert": "OK",
      "vis_m": 9999,
      "fzfg": false,
      "metar_trigger": false,
      "taf_trigger": false,
      "metar": "METAR EETN 052250Z 16005KT CAVOK M14/M16 Q1020",
      "taf": "TAF EETN 051730Z 0518/0618 VRB02KT CAVOK"
    },
    {
      "icao": "EFTU",
      "alert": "OK",
      "vis_m": 9999,
      "fzfg": false,
      "metar_trigger": false,
      "taf_trigger": false,
      "metar": "METAR EFTU 052250Z AUTO 08002KT CAVOK M21/M23 Q1018",
      "taf": "TAF EFTU 052027Z 0521/0621 VRB02KT CAVOK"
    },
    {
      "icao": "EGBB",
      "alert": "OK",
      "vis_m": 9999,
      "fzfg": false,
      "metar_trigger": false,
      "taf_trigger": false,
      "metar": "METAR EGBB 052220Z 19001KT CAVOK M06/M07 Q1018",
      "taf": "TAF EGBB 051656Z 0518/0618 30005KT 9999 FEW025"
    },
    {
      "icao": "EGGP",
      "alert": "OK",
      "vis_m": 9999,
      "fzfg": false,
      "metar_trigger": false,
      "taf_trigger": false,
      "metar": "METAR EGGP 052220Z 13004KT 9999 FEW034 M03/M05 Q1018",
      "taf": "TAF EGGP 051654Z 0518/0618 31005KT 9999 FEW030"
    },
    {
      "icao": "EGGW",
      "alert": "OK",
      "vis_m": 9999,
      "fzfg": false,
      "metar_trigger": false,
      "taf_trigger": false,
      "metar": "METAR EGGW 052220Z AUTO 30007KT 9999 NCD M04/M06 Q1017",
      "taf": "TAF EGGW 051658Z 0518/0618 31009KT 9999 FEW030"
    },
    {
      "icao": "EGKK",
      "alert": "OK",
      "vis_m": 9999,
      "fzfg": false,
      "metar_trigger": false,
      "taf_trigger": false,
      "metar": "METAR EGKK 052220Z 31005KT CAVOK M02/M05 Q1017",
      "taf": "TAF EGKK 051653Z 0518/0624 30006KT 9999 FEW035"
    },
    {
      "icao": "EGNM",
      "alert": "OK",
      "vis_m": 9999,
      "fzfg": false,
      "metar_trigger": false,
      "taf_trigger": false,
      "metar": "METAR EGNM 052220Z 26005KT 220V290 CAVOK M04/M06 Q1016",
      "taf": "TAF EGNM 051659Z 0518/0618 27009KT 9999 FEW020"
    },
    {
      "icao": "EGPD",
      "alert": "OK",
      "vis_m": 9999,
      "fzfg": false,
      "metar_trigger": false,
      "taf_trigger": false,
      "metar": "METAR EGPD 052220Z COR AUTO 27012KT 9999 NCD M03/M05 Q1014 NOSIG",
      "taf": "TAF EGPD 051653Z 0518/0618 29010KT 9999 FEW012"
    },
    {
      "icao": "EGPF",
      "alert": "OK",
      "vis_m": 9999,
      "fzfg": false,
      "metar_trigger": false,
      "taf_trigger": false,
      "metar": "METAR EGPF 052220Z AUTO 26005KT 9999 NCD M02/M04 Q1017",
      "taf": "TAF EGPF 051655Z 0518/0618 28005KT CAVOK"
    },
    {
      "icao": "EHBK",
      "alert": "OK",
      "vis_m": 9999,
      "fzfg": false,
      "metar_trigger": false,
      "taf_trigger": false,
      "metar": "METAR EHBK 052225Z AUTO 20013KT 9999 OVC016/// M02/M04 Q1012",
      "taf": "TAF EHBK 051721Z 0518/0624 22007KT 9999 BKN008"
    },
    {
      "icao": "EHEH",
      "alert": "OK",
      "vis_m": 8000,
      "fzfg": false,
      "metar_trigger": false,
      "taf_trigger": false,
      "metar": "METAR EHEH 052225Z AUTO 21010KT 8000 BR FEW007 BKN008 OVC009 M01/M03 Q1012 REFZDZ GRN NOSIG RMK TREND REMOTE BY EHWX",
      "taf": ""
    },
    {
      "icao": "EKBI",
      "alert": "OK",
      "vis_m": 9999,
      "fzfg": false,
      "metar_trigger": false,
      "taf_trigger": false,
      "metar": "METAR EKBI 052250Z AUTO 02003KT 9999 FEW006/// BKN037/// M04/M04 Q1010",
      "taf": "TAF EKBI 052027Z 0521/0621 05005KT 9999 FEW006 BKN018"
    },
    {
      "icao": "EKCH",
      "alert": "OK",
      "vis_m": 7000,
      "fzfg": false,
      "metar_trigger": false,
      "taf_trigger": false,
      "metar": "METAR EKCH 052250Z 25005KT 7000 -SN FEW010 BKN052 M01/M02 Q1010 TEMPO 1200 SHSN BKN012 SCT020CB",
      "taf": "TAF EKCH 052027Z 0521/0621 23004KT 8000 SCT030"
    },
    {
      "icao": "ENAL",
      "alert": "OK",
      "vis_m": 9999,
      "fzfg": false,
      "metar_trigger": false,
      "taf_trigger": false,
      "metar": "METAR ENAL 052220Z AUTO 14015KT 9999 NCD M05/M11 Q1011",
      "taf": "TAF ENAL 052000Z 0521/0606 14012KT 9999 SCT040"
    },
    {
      "icao": "ENBR",
      "alert": "OK",
      "vis_m": 9999,
      "fzfg": false,
      "metar_trigger": false,
      "taf_trigger": false,
      "metar": "METAR ENBR 052220Z 08003KT CAVOK M09/M13 Q1011 RMK WIND 1200FT 09002KT",
      "taf": "TAF ENBR 051700Z 0518/0618 07005KT 9999 SCT050"
    },
    {
      "icao": "ENGM",
      "alert": "OK",
      "vis_m": 7000,
      "fzfg": false,
      "metar_trigger": false,
      "taf_trigger": false,
      "metar": "METAR ENGM 052220Z 03005KT 7000 -SN FEW015 BKN049 M09/M11 Q1013",
      "taf": "TAF ENGM 051700Z 0518/0618 02005KT 8000 -SN SCT020 BKN040"
    },
    {
      "icao": "ENHD",
      "alert": "OK",
      "vis_m": 9999,
      "fzfg": false,
      "metar_trigger": false,
      "taf_trigger": false,
      "metar": "METAR ENHD 052220Z 09013KT 9999 -SN OVC018 M03/M05 Q1010",
      "taf": "TAF ENHD 051400Z 0515/0523 11015KT 9999 -SHSN FEW015CB BKN025"
    },
    {
      "icao": "ENTC",
      "alert": "OK",
      "vis_m": 9999,
      "fzfg": false,
      "metar_trigger": false,
      "taf_trigger": false,
      "metar": "METAR ENTC 052220Z 06001KT CAVOK M13/M16 Q1014 RMK WIND 2600FT 12011KT",
      "taf": "TAF ENTC 051700Z 0518/0618 23005KT CAVOK"
    },
    {
      "icao": "ENTO",
      "alert": "OK",
      "vis_m": 9999,
      "fzfg": false,
      "metar_trigger": false,
      "taf_trigger": false,
      "metar": "METAR ENTO 052220Z 01010KT 9999 -SN BKN013 OVC023 M08/M10 Q1012",
      "taf": ""
    },
    {
      "icao": "ENVA",
      "alert": "OK",
      "vis_m": 9999,
      "fzfg": false,
      "metar_trigger": false,
      "taf_trigger": false,
      "metar": "METAR ENVA 052220Z 11009KT CAVOK M17/M19 Q1015 RMK WIND 670FT 10010KT",
      "taf": "TAF ENVA 051700Z 0518/0618 10007KT CAVOK"
    },
    {
      "icao": "ENZV",
      "alert": "OK",
      "vis_m": 9999,
      "fzfg": false,
      "metar_trigger": false,
      "taf_trigger": false,
      "metar": "METAR ENZV 052220Z 10004KT 060V120 9999 FEW031 SCT049 M03/M06 Q1010",
      "taf": ""
    },
    {
      "icao": "EPGD",
      "alert": "OK",
      "vis_m": 9999,
      "fzfg": false,
      "metar_trigger": false,
      "taf_trigger": false,
      "metar": "METAR EPGD 052230Z VRB01KT CAVOK M03/M04 Q1013",
      "taf": "TAF EPGD 051730Z 0518/0618 19006KT 9999 BKN030"
    },
    {
      "icao": "EPKK",
      "alert": "OK",
      "vis_m": 9999,
      "fzfg": false,
      "metar_trigger": false,
      "taf_trigger": false,
      "metar": "METAR EPKK 052230Z VRB01KT CAVOK M03/M07 Q1011",
      "taf": ""
    },
    {
      "icao": "EPKT",
      "alert": "OK",
      "vis_m": 9999,
      "fzfg": false,
      "metar_trigger": false,
      "taf_trigger": false,
      "metar": "METAR EPKT 052230Z 32001KT CAVOK M06/M08 Q1011",
      "taf": "TAF EPKT 051730Z 0518/0618 VRB02KT CAVOK"
    },
    {
      "icao": "EPLB",
      "alert": "OK",
      "vis_m": 9999,
      "fzfg": false,
      "metar_trigger": false,
      "taf_trigger": false,
      "metar": "METAR EPLB 052230Z 06005KT 9999 OVC021 M04/M06 Q1012",
      "taf": "TAF EPLB 051730Z 0518/0618 09005KT CAVOK"
    },
    {
      "icao": "EPMO",
      "alert": "OK",
      "vis_m": 2700,
      "fzfg": false,
      "metar_trigger": false,
      "taf_trigger": false,
      "metar": "METAR EPMO 052230Z 07004KT 2700 MIFG BR NSC M10/M10 Q1014",
      "taf": ""
    },
    {
      "icao": "EPPO",
      "alert": "OK",
      "vis_m": 5000,
      "fzfg": false,
      "metar_trigger": false,
      "taf_trigger": false,
      "metar": "METAR EPPO 052230Z 08001KT 5000 BR BKN036 M06/M08 Q1014",
      "taf": "TAF EPPO 051730Z 0518/0618 16004KT CAVOK"
    },
    {
      "icao": "EPRA",
      "alert": "OK",
      "vis_m": 9999,
      "fzfg": false,
      "metar_trigger": false,
      "taf_trigger": false,
      "metar": "METAR EPRA 052230Z 06004KT CAVOK M05/M08 Q1012",
      "taf": "TAF EPRA 052030Z 0521/0606 05006KT CAVOK"
    },
    {
      "icao": "EPRZ",
      "alert": "OK",
      "vis_m": 9999,
      "fzfg": false,
      "metar_trigger": false,
      "taf_trigger": false,
      "metar": "METAR EPRZ 052230Z 03004KT 9999 FEW017 M03/M06 Q1011",
      "taf": ""
    },
    {
      "icao": "EPSC",
      "alert": "OK",
      "vis_m": 9999,
      "fzfg": false,
      "metar_trigger": false,
      "taf_trigger": false,
      "metar": "METAR EPSC 052230Z 16004KT CAVOK M03/M05 Q1013",
      "taf": "TAF EPSC 051730Z 0518/0618 16006KT 9999 BKN040"
    },
    {
      "icao": "EPSY",
      "alert": "OK",
      "vis_m": 2500,
      "fzfg": true,
      "metar_trigger": false,
      "taf_trigger": false,
      "metar": "METAR EPSY 052230Z 02002KT 2500 0500W PRFG BR NSC M12/M13 Q1015",
      "taf": "TAF EPSY 052030Z 0521/0606 VRB02KT 0300 FZFG NSC"
    },
    {
      "icao": "EPWA",
      "alert": "OK",
      "vis_m": 9999,
      "fzfg": false,
      "metar_trigger": false,
      "taf_trigger": false,
      "metar": "METAR EPWA 052230Z VRB02KT CAVOK M06/M07 Q1014 NOSIG",
      "taf": "TAF EPWA 052030Z 0521/0621 VRB04KT CAVOK"
    },
    {
      "icao": "EPWR",
      "alert": "OK",
      "vis_m": 8000,
      "fzfg": false,
      "metar_trigger": false,
      "taf_trigger": false,
      "metar": "METAR EPWR 052230Z 31003KT 8000 NSC M09/M10 Q1014",
      "taf": "TAF EPWR 052030Z 0521/0621 29003KT CAVOK"
    },
    {
      "icao": "ESGG",
      "alert": "OK",
      "vis_m": 9999,
      "fzfg": false,
      "metar_trigger": false,
      "taf_trigger": false,
      "metar": "METAR ESGG 052220Z 06003KT 010V090 CAVOK M08/M08 Q1010",
      "taf": "TAF ESGG 052030Z 0521/0621 VRB02KT 9999 SCT045"
    },
    {
      "icao": "ESKN",
      "alert": "OK",
      "vis_m": 9999,
      "fzfg": false,
      "metar_trigger": false,
      "taf_trigger": false,
      "metar": "METAR ESKN 052220Z VRB01KT 9999 SCT025 BKN030 M03/M04 Q1011",
      "taf": "TAF ESKN 052030Z 0521/0621 06008KT 8000 -SN BKN030"
    },
    {
      "icao": "ESMS",
      "alert": "OK",
      "vis_m": 4000,
      "fzfg": false,
      "metar_trigger": false,
      "taf_trigger": false,
      "metar": "METAR ESMS 052220Z 00000KT 4000 FEW007 SCT013 BKN018 M02/M02 Q1010",
      "taf": "TAF ESMS 052027Z 0521/0621 18004KT 9999 BKN015"
    },
    {
      "icao": "ESSA",
      "alert": "OK",
      "vis_m": 9999,
      "fzfg": false,
      "metar_trigger": false,
      "taf_trigger": false,
      "metar": "METAR ESSA 052220Z 07009KT CAVOK M06/M09 Q1013 TEMPO 1400 SHSN BKN009",
      "taf": "TAF ESSA 052030Z 0521/0621 04010KT 9999 FEW035"
    },
    {
      "icao": "EYKA",
      "alert": "OK",
      "vis_m": 9000,
      "fzfg": false,
      "metar_trigger": false,
      "taf_trigger": false,
      "metar": "METAR EYKA 052250Z 17004KT 130V210 9000 NSC M06/M06 Q1017",
      "taf": "TAF EYKA 051712Z 0518/0618 VRB04KT 5000 BR BKN015"
    },
    {
      "icao": "EYPA",
      "alert": "OK",
      "vis_m": 8000,
      "fzfg": false,
      "metar_trigger": false,
      "taf_trigger": false,
      "metar": "METAR EYPA 052250Z 15009KT 8000 OVC004 M03/M04 Q1015",
      "taf": ""
    },
    {
      "icao": "EYVI",
      "alert": "OK",
      "vis_m": 7000,
      "fzfg": true,
      "metar_trigger": false,
      "taf_trigger": false,
      "metar": "METAR EYVI 052250Z 12005KT 7000 0100S BCFG NSC M08/M09 Q1017 TEMPO 0350 FZFG SCT002",
      "taf": ""
    },
    {
      "icao": "GCFV",
      "alert": "OK",
      "vis_m": 9999,
      "fzfg": false,
      "metar_trigger": false,
      "taf_trigger": false,
      "metar": "METAR GCFV 052230Z 35015KT 9999 FEW018 16/12 Q1019",
      "taf": "TAF GCFV 052000Z 0521/0621 02014KT 9999 SCT030 TX21/0614Z TN15/0606Z"
    },
    {
      "icao": "GCLP",
      "alert": "OK",
      "vis_m": 9999,
      "fzfg": false,
      "metar_trigger": false,
      "taf_trigger": false,
      "metar": "METAR GCLP 052230Z 02019KT 9999 SCT025 BKN040 18/13 Q1019 NOSIG",
      "taf": "TAF GCLP 052000Z 0521/0621 36017KT 9999 SCT030 TX21/0614Z TN15/0606Z"
    },
    {
      "icao": "GCTS",
      "alert": "OK",
      "vis_m": 9999,
      "fzfg": false,
      "metar_trigger": false,
      "taf_trigger": false,
      "metar": "METAR GCTS 052230Z 07017KT 9999 FEW040 SCT050 17/12 Q1020 NOSIG",
      "taf": "TAF GCTS 052000Z 0521/0621 07014KT 9999 SCT030 TX23/0614Z TN16/0606Z"
    },
    {
      "icao": "GMAD",
      "alert": "OK",
      "vis_m": 9999,
      "fzfg": false,
      "metar_trigger": false,
      "taf_trigger": false,
      "metar": "METAR GMAD 052230Z 28008KT 9999 FEW026 14/11 Q1013 NOSIG",
      "taf": "TAF GMAD 051700Z 0518/0624 27010KT 8000 SCT023TCU SCT080"
    },
    {
      "icao": "GMMN",
      "alert": "OK",
      "vis_m": 9999,
      "fzfg": false,
      "metar_trigger": false,
      "taf_trigger": false,
      "metar": "METAR GMMN 052230Z 28005KT 9999 BKN030 10/07 Q1016 NOSIG",
      "taf": "TAF GMMN 051700Z 0518/0618 32012KT 9999 BKN020 SCT030TCU"
    },
    {
      "icao": "GMMX",
      "alert": "OK",
      "vis_m": 8000,
      "fzfg": false,
      "metar_trigger": false,
      "taf_trigger": false,
      "metar": "METAR GMMX 052230Z 35007KT 310V030 8000 SCT013 BKN020 11/10 Q1016 RERA NOSIG",
      "taf": "TAF GMMX 051700Z 0518/0624 30008KT 8000 BKN023 SCT080"
    },
    {
      "icao": "HEGN",
      "alert": "OK",
      "vis_m": 9999,
      "fzfg": false,
      "metar_trigger": false,
      "taf_trigger": false,
      "metar": "METAR HEGN 052200Z 29005KT CAVOK 16/05 Q1018 NOSIG",
      "taf": "TAF HEGN 051700Z 0518/0624 34012KT CAVOK"
    },
    {
      "icao": "HEMA",
      "alert": "OK",
      "vis_m": 9999,
      "fzfg": false,
      "metar_trigger": false,
      "taf_trigger": false,
      "metar": "METAR HEMA 052200Z 29008KT CAVOK 18/15 Q1017 NOSIG",
      "taf": ""
    },
    {
      "icao": "HESH",
      "alert": "OK",
      "vis_m": 9999,
      "fzfg": false,
      "metar_trigger": false,
      "taf_trigger": false,
      "metar": "METAR HESH 052200Z 34006KT CAVOK 20/14 Q1018 NOSIG",
      "taf": "TAF HESH 051700Z 0518/0624 36010KT CAVOK"
    },
    {
      "icao": "HESX",
      "alert": "OK",
      "vis_m": 6000,
      "fzfg": false,
      "metar_trigger": false,
      "taf_trigger": false,
      "metar": "METAR HESX 052200Z 14002KT 6000 NSC 09/04 Q1019 NOSIG",
      "taf": ""
    },
    {
      "icao": "LATI",
      "alert": "OK",
      "vis_m": 9999,
      "fzfg": false,
      "metar_trigger": false,
      "taf_trigger": false,
      "metar": "METAR LATI 052250Z 16014KT 9999 VCTS -RA FEW025CB OVC048 13/08 Q1005 NOSIG",
      "taf": "TAF LATI 051700Z 0518/0618 14012KT 9999 SCT040 BKN080 TX18/0612Z TN12/0605Z"
    },
    {
      "icao": "LBPD",
      "alert": "OK",
      "vis_m": 9999,
      "fzfg": false,
      "metar_trigger": false,
      "taf_trigger": false,
      "metar": "METAR LBPD 052230Z AUTO 00000KT 9999 SCT120/// BKN140/// OVC160/// 07/07 Q1011",
      "taf": "TAF LBPD 051700Z 0518/0618 VRB03KT 9999 SCT060"
    },
    {
      "icao": "LBSF",
      "alert": "OK",
      "vis_m": 9999,
      "fzfg": false,
      "metar_trigger": false,
      "taf_trigger": false,
      "metar": "METAR LBSF 052230Z AUTO 14003KT 9999 BKN088/// 07/04 Q1010 NOSIG",
      "taf": "TAF LBSF 051700Z 0518/0618 11010KT 9999 SCT040 BKN060"
    },
    {
      "icao": "LBWN",
      "alert": "OK",
      "vis_m": 9999,
      "fzfg": false,
      "metar_trigger": false,
      "taf_trigger": false,
      "metar": "METAR LBWN 052230Z AUTO 11006KT 9999 NSC 10/10 Q1013 NOSIG",
      "taf": "TAF LBWN 051700Z 0518/0618 VRB04KT 9999 BKN040"
    },
    {
      "icao": "LCLK",
      "alert": "OK",
      "vis_m": 9999,
      "fzfg": false,
      "metar_trigger": false,
      "taf_trigger": false,
      "metar": "METAR LCLK 052230Z 34009KT CAVOK 12/09 Q1021 NOSIG",
      "taf": "TAF LCLK 051730Z 0518/0618 34008KT CAVOK"
    },
    {
      "icao": "LCPH",
      "alert": "OK",
      "vis_m": 9999,
      "fzfg": false,
      "metar_trigger": false,
      "taf_trigger": false,
      "metar": "METAR LCPH 052230Z 01007KT CAVOK 11/05 Q1020 NOSIG",
      "taf": "TAF LCPH 051730Z 0518/0618 08008KT 9999 FEW040"
    },
    {
      "icao": "LEAL",
      "alert": "OK",
      "vis_m": 9999,
      "fzfg": false,
      "metar_trigger": false,
      "taf_trigger": false,
      "metar": "METAR LEAL 052230Z 33004KT 290V360 9999 SCT025 OVC035 09/08 Q1010 NOSIG",
      "taf": "TAF LEAL 051700Z 0518/0618 VRB04KT 9999 SCT020 TX12/0614Z TN04/0606Z"
    },
    {
      "icao": "LEBB",
      "alert": "OK",
      "vis_m": 9999,
      "fzfg": false,
      "metar_trigger": false,
      "taf_trigger": false,
      "metar": "METAR LEBB 052230Z 07002KT 9999 SCT049 BKN062 01/M02 Q1016 NOSIG",
      "taf": "TAF LEBB 051700Z 0518/0618 13005KT 9999 FEW030 TX07/0618Z TNM00/0521Z"
    },
    {
      "icao": "LEBL",
      "alert": "OK",
      "vis_m": 9999,
      "fzfg": false,
      "metar_trigger": false,
      "taf_trigger": false,
      "metar": "METAR LEBL 052230Z 33015KT 9999 FEW030 04/M01 Q1010 NOSIG",
      "taf": "TAF LEBL 051700Z 0518/0618 33013KT 9999 FEW030 SCT040 TX11/0613Z TN01/0606Z"
    },
    {
      "icao": "LECH",
      "alert": "OK",
      "vis_m": 9999,
      "fzfg": false,
      "metar_trigger": false,
      "taf_trigger": false,
      "metar": "METAR LECH 052230Z AUTO 36004KT 300V050 CAVOK 02/M07 Q1010",
      "taf": ""
    },
    {
      "icao": "LEMD",
      "alert": "OK",
      "vis_m": 9999,
      "fzfg": false,
      "metar_trigger": false,
      "taf_trigger": false,
      "metar": "METAR LEMD 052230Z 36009KT 330V050 CAVOK M00/M08 Q1012 NOSIG",
      "taf": ""
    },
    {
      "icao": "LEMG",
      "alert": "OK",
      "vis_m": 9999,
      "fzfg": false,
      "metar_trigger": false,
      "taf_trigger": false,
      "metar": "METAR LEMG 052230Z 27015KT 9999 FEW022 SCT070 10/07 Q1009 NOSIG",
      "taf": "TAF LEMG 051700Z 0518/0618 VRB04KT 9999 FEW050 TX12/0614Z TN04/0606Z"
    },
    {
      "icao": "LEVC",
      "alert": "OK",
      "vis_m": 9999,
      "fzfg": false,
      "metar_trigger": false,
      "taf_trigger": false,
      "metar": "METAR LEVC 052230Z 33011KT 9999 OVC062 07/M04 Q1011 NOSIG",
      "taf": "TAF LEVC 051700Z 0518/0618 VRB04KT 9999 BKN015 TX12/0614Z TN00/0606Z"
    },
    {
      "icao": "LEXJ",
      "alert": "OK",
      "vis_m": 3900,
      "fzfg": false,
      "metar_trigger": false,
      "taf_trigger": false,
      "metar": "METAR LEXJ 052230Z AUTO 25011KT 3900 -RA BR FEW013 OVC021 05/03 Q1016 RERA",
      "taf": "TAF LEXJ 052000Z 0521/0621 22005KT 9999 SCT010 BKN040 TX09/0614Z TN03/0523Z"
    },
    {
      "icao": "LEZG",
      "alert": "OK",
      "vis_m": 9999,
      "fzfg": false,
      "metar_trigger": false,
      "taf_trigger": false,
      "metar": "METAR LEZG 052230Z 29013KT 9999 FEW075 01/M05 Q1012 NOSIG",
      "taf": "TAF LEZG 051700Z 0518/0618 31018KT 9999 FEW050 TX07/0615Z TN00/0606Z"
    },
    {
      "icao": "LEZL",
      "alert": "OK",
      "vis_m": 9999,
      "fzfg": false,
      "metar_trigger": false,
      "taf_trigger": false,
      "metar": "METAR LEZL 052230Z 35007KT CAVOK 08/M01 Q1012 NOSIG",
      "taf": "TAF LEZL 052000Z 0521/0621 30004KT CAVOK TX13/0615Z TN02/0607Z"
    },
    {
      "icao": "LFBD",
      "alert": "OK",
      "vis_m": 9999,
      "fzfg": false,
      "metar_trigger": false,
      "taf_trigger": false,
      "metar": "METAR LFBD 052230Z AUTO 19010KT 9999 FEW044 M00/M05 Q1015 NOSIG",
      "taf": ""
    },
    {
      "icao": "LFLL",
      "alert": "OK",
      "vis_m": 9000,
      "fzfg": false,
      "metar_trigger": false,
      "taf_trigger": false,
      "metar": "METAR LFLL 052230Z 34003KT 9000 NSC M06/M07 Q1014 NOSIG",
      "taf": "TAF LFLL 051700Z 0518/0624 34008KT CAVOK"
    },
    {
      "icao": "LFLS",
      "alert": "OK",
      "vis_m": 9999,
      "fzfg": false,
      "metar_trigger": false,
      "taf_trigger": false,
      "metar": "METAR LFLS 052230Z AUTO 01006KT 340V040 CAVOK M05/M07 Q1012",
      "taf": "TAF LFLS 051400Z 0515/0615 36008KT CAVOK"
    },
    {
      "icao": "LFMN",
      "alert": "OK",
      "vis_m": 9999,
      "fzfg": false,
      "metar_trigger": false,
      "taf_trigger": false,
      "metar": "METAR LFMN 052230Z 33011KT 9999 BKN040 06/M00 Q1005 NOSIG",
      "taf": "TAF LFMN 052000Z 0521/0703 32010KT 9999 BKN055 BKN135"
    },
    {
      "icao": "LFOB",
      "alert": "OK",
      "vis_m": 9999,
      "fzfg": true,
      "metar_trigger": false,
      "taf_trigger": false,
      "metar": "METAR LFOB 052230Z AUTO 29007KT 9999 OVC028 M03/M03 Q1016 TEMPO 0500 FZFG VV///",
      "taf": ""
    },
    {
      "icao": "LFPO",
      "alert": "OK",
      "vis_m": 6000,
      "fzfg": false,
      "metar_trigger": false,
      "taf_trigger": false,
      "metar": "METAR LFPO 052230Z AUTO 31005KT 6000 FEW006 BKN032 BKN049 M02/M02 Q1016 TEMPO 2500 BR BKN004",
      "taf": "TAF LFPO 051700Z 0518/0624 26004KT 6000 BKN008"
    },
    {
      "icao": "LFSB",
      "alert": "OK",
      "vis_m": 9999,
      "fzfg": false,
      "metar_trigger": false,
      "taf_trigger": false,
      "metar": "METAR LFSB 052230Z AUTO 18005KT CAVOK M08/M10 Q1015 NOSIG",
      "taf": "TAF LFSB 051700Z 0518/0618 VRB03KT CAVOK"
    },
    {
      "icao": "LGAV",
      "alert": "OK",
      "vis_m": 9999,
      "fzfg": false,
      "metar_trigger": false,
      "taf_trigger": false,
      "metar": "METAR LGAV 052220Z 22012KT 9999 FEW018 SCT030 15/11 Q1015 NOSIG",
      "taf": "TAF LGAV 051700Z 0518/0618 19014KT 9999 FEW018 SCT030 BKN070"
    },
    {
      "icao": "LGTS",
      "alert": "OK",
      "vis_m": 9999,
      "fzfg": false,
      "metar_trigger": false,
      "taf_trigger": false,
      "metar": "METAR LGTS 052220Z 12006KT 9999 SCT035 15/11 Q1012 NOSIG",
      "taf": "TAF LGTS 051700Z 0518/0618 14010KT 9999 SCT030"
    },
    {
      "icao": "LHBP",
      "alert": "OK",
      "vis_m": 3700,
      "fzfg": false,
      "metar_trigger": false,
      "taf_trigger": false,
      "metar": "METAR LHBP 052230Z 33006KT 3700 -SN SCT005 BKN018 OVC044 M02/M03 Q1011 TEMPO 5000",
      "taf": "TAF LHBP 051715Z 0518/0618 35006KT 5000 -SN SCT010 OVC020"
    },
    {
      "icao": "LHDC",
      "alert": "OK",
      "vis_m": 5000,
      "fzfg": false,
      "metar_trigger": false,
      "taf_trigger": false,
      "metar": "METAR LHDC 052215Z AUTO 04003KT 5000 -RASN BR OVC008 M00/M00 Q1009",
      "taf": "TAF LHDC 051715Z 0518/0603 05006KT 4000 -SN SCT012 OVC025"
    },
    {
      "icao": "LIBD",
      "alert": "OK",
      "vis_m": 9999,
      "fzfg": false,
      "metar_trigger": false,
      "taf_trigger": false,
      "metar": "METAR LIBD 052220Z 28005KT 9999 BKN010 12/10 Q1005",
      "taf": "TAF LIBD 051700Z 0518/0618 28007KT 9999 SCT015"
    },
    {
      "icao": "LIBG",
      "alert": "OK",
      "vis_m": null,
      "fzfg": false,
      "metar_trigger": false,
      "taf_trigger": false,
      "metar": "",
      "taf": "TAF LIBG 051700Z 0518/0603 17012KT 9999 SCT030"
    },
    {
      "icao": "LIBP",
      "alert": "OK",
      "vis_m": 9999,
      "fzfg": false,
      "metar_trigger": false,
      "taf_trigger": false,
      "metar": "METAR LIBP 052220Z AUTO VRB02KT 9999 OVC007/// 07/06 Q1007",
      "taf": "TAF LIBP 051700Z 0518/0618 34007KT 9999 OVC008"
    },
    {
      "icao": "LIBR",
      "alert": "OK",
      "vis_m": 8000,
      "fzfg": false,
      "metar_trigger": false,
      "taf_trigger": false,
      "metar": "METAR LIBR 052220Z 21015KT 180V240 8000 BKN015 16/15 Q1004",
      "taf": ""
    },
    {
      "icao": "LICA",
      "alert": "OK",
      "vis_m": 9999,
      "fzfg": false,
      "metar_trigger": false,
      "taf_trigger": false,
      "metar": "METAR LICA 052220Z AUTO 09007KT 9999 NCD 10/10 Q1005",
      "taf": "TAF LICA 051700Z 0518/0618 VRB05KT 9999 SCT050"
    },
    {
      "icao": "LICC",
      "alert": "OK",
      "vis_m": 9999,
      "fzfg": false,
      "metar_trigger": false,
      "taf_trigger": false,
      "metar": "METAR LICC 052220Z 25008KT CAVOK 12/09 Q1006",
      "taf": "TAF LICC 051700Z 0518/0618 26013KT 9999 SCT030"
    },
    {
      "icao": "LICJ",
      "alert": "OK",
      "vis_m": 9999,
      "fzfg": false,
      "metar_trigger": false,
      "taf_trigger": false,
      "metar": "METAR LICJ 052220Z 21018KT CAVOK 17/07 Q1003",
      "taf": "TAF LICJ 051700Z 0518/0618 21016KT 9999 FEW030"
    },
    {
      "icao": "LIMC",
      "alert": "OK",
      "vis_m": 9999,
      "fzfg": false,
      "metar_trigger": false,
      "taf_trigger": false,
      "metar": "METAR LIMC 052220Z 03004KT CAVOK M06/M07 Q1008 NOSIG",
      "taf": "TAF LIMC 051700Z 0518/0624 VRB03KT CAVOK"
    },
    {
      "icao": "LIME",
      "alert": "OK",
      "vis_m": 9999,
      "fzfg": false,
      "metar_trigger": false,
      "taf_trigger": false,
      "metar": "METAR LIME 052220Z 36003KT CAVOK M01/M05 Q1008 NOSIG",
      "taf": "TAF LIME 051700Z 0518/0618 VRB03KT CAVOK"
    },
    {
      "icao": "LIMF",
      "alert": "OK",
      "vis_m": 9999,
      "fzfg": false,
      "metar_trigger": false,
      "taf_trigger": false,
      "metar": "METAR LIMF 052220Z VRB01KT CAVOK M03/M09 Q1008",
      "taf": "TAF LIMF 051700Z 0518/0618 VRB03KT CAVOK"
    },
    {
      "icao": "LIMJ",
      "alert": "OK",
      "vis_m": 9999,
      "fzfg": false,
      "metar_trigger": false,
      "taf_trigger": false,
      "metar": "METAR LIMJ 052220Z 04014KT 360V070 CAVOK 04/M05 Q1006",
      "taf": "TAF LIMJ 051700Z 0518/0618 01014KT CAVOK"
    },
    {
      "icao": "LIPE",
      "alert": "OK",
      "vis_m": 9999,
      "fzfg": false,
      "metar_trigger": false,
      "taf_trigger": false,
      "metar": "METAR LIPE 052220Z 28004KT 9999 BKN040 03/M02 Q1009",
      "taf": "TAF LIPE 051700Z 0518/0618 28007KT 9999 BKN020"
    },
    {
      "icao": "LIPH",
      "alert": "OK",
      "vis_m": 7000,
      "fzfg": false,
      "metar_trigger": false,
      "taf_trigger": false,
      "metar": "METAR LIPH 052220Z AUTO 35003KT 7000 FEW074/// BKN120/// BKN150/// 01/M04 Q1009",
      "taf": "TAF LIPH 051700Z 0518/0618 03006KT 9999 SCT070"
    },
    {
      "icao": "LIPQ",
      "alert": "OK",
      "vis_m": 9999,
      "fzfg": false,
      "metar_trigger": false,
      "taf_trigger": false,
      "metar": "METAR LIPQ 052220Z AUTO 09010KT 9999 OVC048/// 04/M04 Q1008",
      "taf": "TAF LIPQ 051700Z 0518/0618 08008KT 9999 BKN030"
    },
    {
      "icao": "LIPR",
      "alert": "OK",
      "vis_m": 9999,
      "fzfg": false,
      "metar_trigger": false,
      "taf_trigger": false,
      "metar": "METAR LIPR 052220Z AUTO 30012KT 9999 OVC018/// 03/M01 Q1008",
      "taf": "TAF LIPR 051700Z 0518/0618 30012KT 9999 BKN020"
    },
    {
      "icao": "LIPX",
      "alert": "OK",
      "vis_m": 9999,
      "fzfg": false,
      "metar_trigger": false,
      "taf_trigger": false,
      "metar": "METAR LIPX 052220Z 36005KT 340V040 CAVOK M01/M09 Q1009",
      "taf": "TAF LIPX 051700Z 0518/0618 VRB04KT CAVOK"
    },
    {
      "icao": "LIPY",
      "alert": "OK",
      "vis_m": 7000,
      "fzfg": false,
      "metar_trigger": false,
      "taf_trigger": false,
      "metar": "METAR LIPY 052220Z AUTO 29005KT 7000 +DZ OVC017/// 03/02 Q1008",
      "taf": "TAF LIPY 051700Z 0518/0618 32010KT 9999 BKN010"
    },
    {
      "icao": "LIPZ",
      "alert": "OK",
      "vis_m": 9000,
      "fzfg": false,
      "metar_trigger": false,
      "taf_trigger": false,
      "metar": "METAR LIPZ 052220Z 33005KT 320V020 9000 SCT070 02/M03 Q1008 NOSIG",
      "taf": "TAF LIPZ 051700Z 0518/0624 02008KT 9999 SCT070"
    },
    {
      "icao": "LIRF",
      "alert": "OK",
      "vis_m": 9999,
      "fzfg": false,
      "metar_trigger": false,
      "taf_trigger": false,
      "metar": "METAR LIRF 052220Z 08006KT 9999 FEW020 SCT040 10/10 Q1003 NOSIG",
      "taf": "TAF LIRF 051700Z 0518/0624 09008KT 9999 SCT020"
    },
    {
      "icao": "LIRN",
      "alert": "OK",
      "vis_m": 9999,
      "fzfg": false,
      "metar_trigger": false,
      "taf_trigger": false,
      "metar": "METAR LIRN 052220Z 31003KT 9999 SCT070 12/10 Q1003 NOSIG",
      "taf": "TAF LIRN 051700Z 0518/0618 VRB06KT 9999 SCT020 SCT050"
    },
    {
      "icao": "LIRP",
      "alert": "OK",
      "vis_m": 9999,
      "fzfg": false,
      "metar_trigger": false,
      "taf_trigger": false,
      "metar": "METAR LIRP 052215Z 10004KT 9999 FEW040 03/M01 Q1005 NOSIG",
      "taf": "TAF LIRP 051700Z 0518/0618 12008KT 9999 SCT040 BKN070"
    },
    {
      "icao": "LIRZ",
      "alert": "OK",
      "vis_m": 9999,
      "fzfg": false,
      "metar_trigger": false,
      "taf_trigger": false,
      "metar": "METAR LIRZ 052220Z AUTO 35007KT 9999 -RA OVC015/// 05/04 Q1004",
      "taf": "TAF LIRZ 051700Z 0518/0618 01010KT 6000 RA BKN012 BKN020"
    },
    {
      "icao": "LJLJ",
      "alert": "OK",
      "vis_m": 9999,
      "fzfg": false,
      "metar_trigger": false,
      "taf_trigger": false,
      "metar": "METAR LJLJ 052230Z 09003KT 9999 BKN015 OVC055 M03/M04 Q1010 NOSIG",
      "taf": "TAF LJLJ 051700Z 0518/0618 10004KT 7000 -SN SCT020 OVC040"
    },
    {
      "icao": "LKMT",
      "alert": "OK",
      "vis_m": 9999,
      "fzfg": false,
      "metar_trigger": false,
      "taf_trigger": false,
      "metar": "METAR LKMT 052230Z 22002KT CAVOK M04/M06 Q1012 NOSIG",
      "taf": "TAF LKMT 051700Z 0518/0618 18003KT CAVOK"
    },
    {
      "icao": "LKPR",
      "alert": "OK",
      "vis_m": 9999,
      "fzfg": false,
      "metar_trigger": false,
      "taf_trigger": false,
      "metar": "METAR LKPR 052230Z 20007KT CAVOK M08/M11 Q1012 NOSIG",
      "taf": "TAF LKPR 052000Z 0521/0703 23006KT 9999 BKN040"
    },
    {
      "icao": "LLBG",
      "alert": "OK",
      "vis_m": 9999,
      "fzfg": false,
      "metar_trigger": false,
      "taf_trigger": false,
      "metar": "METAR LLBG 052250Z VRB03KT CAVOK 12/06 Q1019 NOSIG",
      "taf": "TAF LLBG 051700Z 0518/0618 VRB03KT CAVOK"
    },
    {
      "icao": "LMML",
      "alert": "OK",
      "vis_m": 8000,
      "fzfg": false,
      "metar_trigger": false,
      "taf_trigger": false,
      "metar": "METAR LMML 052245Z 19008KT 160V220 8000 NSC 17/14 Q1007 NOSIG",
      "taf": "TAF LMML 051700Z 0518/0618 22012KT 8000 NSC"
    },
    {
      "icao": "LOWW",
      "alert": "OK",
      "vis_m": 9999,
      "fzfg": false,
      "metar_trigger": false,
      "taf_trigger": false,
      "metar": "METAR LOWW 052220Z 33010KT 9999 FEW048 BKN050 M03/M09 Q1014 NOSIG",
      "taf": "TAF LOWW 052015Z 0521/0703 33010KT 9999 SCT050 TXM02/0613Z TNM04/0607Z"
    },
    {
      "icao": "LPFR",
      "alert": "OK",
      "vis_m": 9999,
      "fzfg": false,
      "metar_trigger": false,
      "taf_trigger": false,
      "metar": "METAR LPFR 052230Z 35006KT 320V020 CAVOK 08/M02 Q1015",
      "taf": ""
    },
    {
      "icao": "LPMA",
      "alert": "OK",
      "vis_m": 9999,
      "fzfg": false,
      "metar_trigger": false,
      "taf_trigger": false,
      "metar": "METAR LPMA 052230Z 01015KT 320V040 9999 SCT015 FEW018TCU 15/08 Q1024",
      "taf": "TAF LPMA 051700Z 0518/0618 02017KT 9999 SCT015"
    },
    {
      "icao": "LPPR",
      "alert": "OK",
      "vis_m": 9999,
      "fzfg": false,
      "metar_trigger": false,
      "taf_trigger": false,
      "metar": "METAR LPPR 052230Z 34012KT CAVOK 06/02 Q1019",
      "taf": "TAF LPPR 051700Z 0518/0618 02010KT CAVOK"
    },
    {
      "icao": "LPPS",
      "alert": "OK",
      "vis_m": 9999,
      "fzfg": false,
      "metar_trigger": false,
      "taf_trigger": false,
      "metar": "METAR LPPS 052230Z 02018KT 9999 SCT015 SCT030 15/07 Q1025",
      "taf": "TAF LPPS 051700Z 0518/0624 02015KT 9999 SCT015"
    },
    {
      "icao": "LPPT",
      "alert": "OK",
      "vis_m": 9999,
      "fzfg": false,
      "metar_trigger": false,
      "taf_trigger": false,
      "metar": "METAR LPPT 052230Z 01006KT 9999 FEW022 07/05 Q1017",
      "taf": ""
    },
    {
      "icao": "LQBK",
      "alert": "OK",
      "vis_m": 9999,
      "fzfg": false,
      "metar_trigger": false,
      "taf_trigger": false,
      "metar": "METAR LQBK 052230Z 28005KT 9999 -SN FEW010 SCT017 OVC023 M01/M02 Q1011 NOSIG",
      "taf": ""
    },
    {
      "icao": "LQSA",
      "alert": "OK",
      "vis_m": 2000,
      "fzfg": false,
      "metar_trigger": false,
      "taf_trigger": false,
      "metar": "METAR LQSA 052230Z VRB01KT 2000 -RA BKN007 OVC030 00/00 Q1007 BECMG SN BKN004 OVC020",
      "taf": "TAF LQSA 052033Z 0520/0618 30005KT 2000 RA BKN008 OVC030 TX00/0520Z TNM02/0618Z"
    },
    {
      "icao": "LQTZ",
      "alert": "OK",
      "vis_m": 4000,
      "fzfg": false,
      "metar_trigger": false,
      "taf_trigger": false,
      "metar": "METAR LQTZ 052230Z 31006KT 4000 BR OVC004 M01/M01 Q1010",
      "taf": "TAF LQTZ 051700Z 0518/0618 30005KT 5000 BR BKN005 OVC015 TXM00/0613Z TNM03/0605Z"
    },
    {
      "icao": "LRBC",
      "alert": "OK",
      "vis_m": 2000,
      "fzfg": false,
      "metar_trigger": false,
      "taf_trigger": false,
      "metar": "METAR LRBC 052230Z 12002KT 2000 BR OVC002 M00/M02 Q1014",
      "taf": "TAF LRBC 052000Z 0521/0606 VRB03KT 3000 -SN BKN002 OVC010"
    },
    {
      "icao": "LRBS",
      "alert": "OK",
      "vis_m": 400,
      "fzfg": false,
      "metar_trigger": false,
      "taf_trigger": false,
      "metar": "METAR LRBS 052230Z 06006KT 030V090 0400 R07/1400D FG VV001 02/01 Q1013 TEMPO 0300 FG",
      "taf": ""
    },
    {
      "icao": "LRBV",
      "alert": "OK",
      "vis_m": 9999,
      "fzfg": false,
      "metar_trigger": false,
      "taf_trigger": false,
      "metar": "METAR LRBV 052230Z AUTO 14005KT 100V160 9999 BKN045/// 02/M00 Q1009",
      "taf": ""
    },
    {
      "icao": "LRCL",
      "alert": "OK",
      "vis_m": 9999,
      "fzfg": false,
      "metar_trigger": false,
      "taf_trigger": false,
      "metar": "METAR LRCL 052230Z 07006KT 9999 SCT056 OVC066 01/M00 Q1009",
      "taf": "TAF LRCL 052000Z 0521/0606 06010KT 9999 OVC040"
    },
    {
      "icao": "LRCV",
      "alert": "OK",
      "vis_m": 400,
      "fzfg": false,
      "metar_trigger": false,
      "taf_trigger": false,
      "metar": "METAR LRCV 052230Z 09005KT 0400 R26/0500N FG VV002 01/01 Q1013",
      "taf": "TAF LRCV 052000Z 0521/0606 VRB04KT 0500 FG VV001"
    },
    {
      "icao": "LRIA",
      "alert": "OK",
      "vis_m": 1100,
      "fzfg": false,
      "metar_trigger": false,
      "taf_trigger": false,
      "metar": "METAR LRIA 052230Z 12006KT 1100 R14/1800N DZ BR BKN000 OVC002 00/00 Q1014",
      "taf": "TAF LRIA 052000Z 0521/0606 10008KT 3000 -DZ BKN002 OVC010"
    },
    {
      "icao": "LROP",
      "alert": "OK",
      "vis_m": 500,
      "fzfg": false,
      "metar_trigger": false,
      "taf_trigger": false,
      "metar": "METAR LROP 052230Z 08005KT 0500 R08R/1300D R08L/1300D FG OVC001 02/02 Q1013 TEMPO 0300 FG",
      "taf": "TAF LROP 051700Z 0518/0618 05010KT 9999 -RA OVC005"
    },
    {
      "icao": "LRSB",
      "alert": "OK",
      "vis_m": 5000,
      "fzfg": false,
      "metar_trigger": false,
      "taf_trigger": false,
      "metar": "METAR LRSB 052230Z 24006KT 5000 BR FEW085 M01/M02 Q1008",
      "taf": ""
    },
    {
      "icao": "LRSM",
      "alert": "OK",
      "vis_m": 1600,
      "fzfg": false,
      "metar_trigger": false,
      "taf_trigger": false,
      "metar": "METAR LRSM 052230Z AUTO 00000KT 1600 R19/1800U DZ FEW026/// BKN036/// OVC047/// 01/00 Q1009",
      "taf": "TAF LRSM 051400Z 0515/0524 06006KT 9999 BKN035"
    },
    {
      "icao": "LRSV",
      "alert": "OK",
      "vis_m": 400,
      "fzfg": true,
      "metar_trigger": false,
      "taf_trigger": false,
      "metar": "METAR LRSV 052230Z 14015KT 0400 R34/1000D FZFG VV002 M02/M02 Q1011",
      "taf": "TAF LRSV 052000Z 0521/0606 13012KT 1500 BR OVC003"
    },
    {
      "icao": "LRTM",
      "alert": "OK",
      "vis_m": 2900,
      "fzfg": false,
      "metar_trigger": false,
      "taf_trigger": false,
      "metar": "METAR LRTM 052230Z AUTO 09004KT 2900 BKN055/// OVC075/// 00/M00 Q1009 REFZRA",
      "taf": "TAF LRTM 051400Z 0515/0524 VRB04KT 3000 -RASN BR BKN010 OVC025"
    },
    {
      "icao": "LRTR",
      "alert": "OK",
      "vis_m": 800,
      "fzfg": false,
      "metar_trigger": false,
      "taf_trigger": false,
      "metar": "METAR LRTR 052230Z 00000KT 0800 R29/1000D -DZRA FG BKN005 OVC032 01/01 Q1009",
      "taf": "TAF LRTR 051700Z 0518/0618 VRB04KT 5000 -RA BR OVC030"
    },
    {
      "icao": "LTAC",
      "alert": "OK",
      "vis_m": 3500,
      "fzfg": false,
      "metar_trigger": false,
      "taf_trigger": false,
      "metar": "METAR LTAC 052220Z 32002KT 3500 BR NSC M01/M02 Q1021 NOSIG RMK RWY21C 34002KT RWY03L 33002KT RWY21R 32002KT RWY03R 00000KT RWY21L 36002KT",
      "taf": "TAF LTAC 051640Z 0518/0618 VRB02KT CAVOK"
    },
    {
      "icao": "LTFM",
      "alert": "OK",
      "vis_m": 9999,
      "fzfg": false,
      "metar_trigger": false,
      "taf_trigger": false,
      "metar": "METAR LTFM 052220Z 18010KT 9999 SCT040 BKN100 13/06 Q1016 NOSIG RMK RWY17L 18011KT RWY34L 17008KT RWY16R 17012KT RWY36 18010KT RWY18 19012KT",
      "taf": ""
    },
    {
      "icao": "LUKK",
      "alert": "OK",
      "vis_m": 4400,
      "fzfg": true,
      "metar_trigger": false,
      "taf_trigger": false,
      "metar": "METAR LUKK 052230Z 10007KT 4400 BR OVC002 M00/M00 Q1015 REFZRA TEMPO 0800 FZFG OVC001",
      "taf": "TAF LUKK 051705Z 0518/0618 12006KT 5000 SN BKN008"
    },
    {
      "icao": "LWOH",
      "alert": "OK",
      "vis_m": null,
      "fzfg": false,
      "metar_trigger": false,
      "taf_trigger": false,
      "metar": "",
      "taf": "TAF LWOH 052045Z 0521/0621 VRB02KT 9999 -RA SCT020 BKN040"
    },
    {
      "icao": "LWSK",
      "alert": "OK",
      "vis_m": 9999,
      "fzfg": false,
      "metar_trigger": false,
      "taf_trigger": false,
      "metar": "METAR LWSK 052250Z 12014KT 9999 SCT065 OVC090 12/07 Q1010 NOSIG",
      "taf": ""
    },
    {
      "icao": "LYBE",
      "alert": "OK",
      "vis_m": 8000,
      "fzfg": false,
      "metar_trigger": false,
      "taf_trigger": false,
      "metar": "METAR LYBE 052230Z 26005KT 8000 -FZRA BKN005 BKN019 M00/M01 Q1010 NOSIG",
      "taf": "TAF LYBE 051700Z 0518/0618 27005KT 4000 BR BKN005 BKN025 TX00/0518Z TNM01/0606Z"
    },
    {
      "icao": "LYNI",
      "alert": "OK",
      "vis_m": 9999,
      "fzfg": false,
      "metar_trigger": false,
      "taf_trigger": false,
      "metar": "METAR LYNI 052230Z 00000KT 9999 FEW043 BKN090 03/03 Q1008 NOSIG",
      "taf": "TAF LYNI 051700Z 0518/0618 05004KT 9999 BKN080 TX03/0518Z TN01/0606Z"
    },
    {
      "icao": "LYPG",
      "alert": "OK",
      "vis_m": 9999,
      "fzfg": false,
      "metar_trigger": false,
      "taf_trigger": false,
      "metar": "METAR LYPG 052230Z 14010KT 9999 -RA FEW026 BKN040 OVC070 12/09 Q1006 NOSIG",
      "taf": "TAF LYPG 051700Z 0518/0618 14012KT 6000 RA FEW015 BKN040 OVC070 TX14/0613Z TN11/0605Z"
    },
    {
      "icao": "LZIB",
      "alert": "OK",
      "vis_m": 9999,
      "fzfg": false,
      "metar_trigger": false,
      "taf_trigger": false,
      "metar": "METAR LZIB 052230Z 29012KT 9999 FEW041 M03/M07 Q1012 NOSIG",
      "taf": ""
    },
    {
      "icao": "LZKZ",
      "alert": "OK",
      "vis_m": 2400,
      "fzfg": false,
      "metar_trigger": false,
      "taf_trigger": false,
      "metar": "METAR LZKZ 052230Z 03006KT 2400 SN BR OVC014 M02/M03 Q1009 TEMPO 1200 SN OVC009",
      "taf": "TAF LZKZ 051715Z 0518/0618 02006KT 9999 SCT040"
    },
    {
      "icao": "LZTT",
      "alert": "OK",
      "vis_m": 9000,
      "fzfg": false,
      "metar_trigger": false,
      "taf_trigger": false,
      "metar": "METAR LZTT 052230Z 31003KT 9000 -SN FEW033 BKN045 M05/M07 Q1007",
      "taf": "TAF LZTT 051715Z 0518/0618 VRB02KT 9999 SCT055 BKN080"
    },
    {
      "icao": "OEJN",
      "alert": "OK",
      "vis_m": 9999,
      "fzfg": false,
      "metar_trigger": false,
      "taf_trigger": false,
      "metar": "METAR OEJN 052200Z 00000KT CAVOK 25/16 Q1015 NOSIG",
      "taf": "TAF OEJN 051700Z 0518/0624 35006KT 7000 FEW040"
    },
    {
      "icao": "OEMA",
      "alert": "OK",
      "vis_m": 3000,
      "fzfg": false,
      "metar_trigger": false,
      "taf_trigger": false,
      "metar": "METAR OEMA 052200Z 06008KT 3000 DU NSC 21/M01 Q1022 NOSIG",
      "taf": "TAF OEMA 051700Z 0518/0624 09010KT 7000 NSC"
    },
    {
      "icao": "OJAI",
      "alert": "OK",
      "vis_m": 5000,
      "fzfg": false,
      "metar_trigger": false,
      "taf_trigger": false,
      "metar": "METAR OJAI 052200Z 04005KT 5000 HZ NSC 07/01 Q1023 NOSIG",
      "taf": "TAF OJAI 051649Z 0518/0624 VRB02KT 5000 HZ NSC"
    },
    {
      "icao": "OMAA",
      "alert": "OK",
      "vis_m": 9999,
      "fzfg": false,
      "metar_trigger": false,
      "taf_trigger": false,
      "metar": "METAR OMAA 052200Z 31003KT CAVOK 19/15 Q1019 NOSIG",
      "taf": "TAF OMAA 051700Z 0518/0700 05005KT 8000 FEW030"
    },
    {
      "icao": "OMDB",
      "alert": "OK",
      "vis_m": 9999,
      "fzfg": false,
      "metar_trigger": false,
      "taf_trigger": false,
      "metar": "METAR OMDB 052230Z 08003KT 020V100 CAVOK 20/11 Q1019 NOSIG",
      "taf": "TAF OMDB 051700Z 0518/0700 06007KT 8000 FEW035"
    },
    {
      "icao": "UAAA",
      "alert": "OK",
      "vis_m": 4500,
      "fzfg": false,
      "metar_trigger": false,
      "taf_trigger": false,
      "metar": "METAR UAAA 052230Z 00000MPS 4500 BR SCT050 M03/M04 Q1035 NOSIG",
      "taf": "TAF UAAA 051701Z 0518/0618 06003MPS 3100 BR FU BKN011 OVC030 TX01/0609Z TNM03/0602Z"
    },
    {
      "icao": "UBBB",
      "alert": "OK",
      "vis_m": 100,
      "fzfg": false,
      "metar_trigger": false,
      "taf_trigger": false,
      "metar": "METAR UBBB 052230Z 34002KT 0100 R34/0550 R35/0350 FG BKN001 04/04 Q1025 NOSIG",
      "taf": ""
    },
    {
      "icao": "UDSG",
      "alert": "OK",
      "vis_m": 6000,
      "fzfg": false,
      "metar_trigger": false,
      "taf_trigger": false,
      "metar": "METAR UDSG 052230Z 35001KT 6000 NSC M17/M18 Q1030 NOSIG",
      "taf": "TAF UDSG 051700Z 0518/0618 VRB06KT 5000 BR FEW040"
    },
    {
      "icao": "UDYZ",
      "alert": "OK",
      "vis_m": 2900,
      "fzfg": false,
      "metar_trigger": false,
      "taf_trigger": false,
      "metar": "METAR UDYZ 052230Z 05002KT 2900 BR NSC M13/M15 Q1032 NOSIG",
      "taf": "TAF UDYZ 051700Z 0518/0618 VRB04KT 2300 BR NSC"
    },
    {
      "icao": "UGKO",
      "alert": "OK",
      "vis_m": 9999,
      "fzfg": false,
      "metar_trigger": false,
      "taf_trigger": false,
      "metar": "METAR UGKO 052230Z 09006KT CAVOK 03/M00 Q1021 NOSIG",
      "taf": "TAF UGKO 051700Z 0518/0618 08007KT CAVOK TX16/0611Z TN03/0523Z"
    }
  ]
}