{
  "ts_utc": "2026-05-11T20:19:39Z",
  "threshold_m": 150,
  "source": "stations_override.txt (ICAO list) + aviationweather.gov (METAR/TAF raw)",
  "station_count": 159,
  "stations": [
    {
      "icao": "BIKF",
      "alert": "OK",
      "vis_m": 9999,
      "fzfg": false,
      "metar_trigger": false,
      "taf_trigger": false,
      "metar": "METAR BIKF 112000Z 24025KT 9999 SCT045 08/01 Q0997",
      "taf": "TAF BIKF 111937Z 1121/1221 26025G35KT 9999 FEW026 TX09/1214Z TN03/1205Z"
    },
    {
      "icao": "BKPR",
      "alert": "OK",
      "vis_m": 9999,
      "fzfg": false,
      "metar_trigger": false,
      "taf_trigger": false,
      "metar": "METAR BKPR 112000Z 23016KT CAVOK 18/09 Q1010 NOSIG",
      "taf": "TAF BKPR 111730Z 1118/1218 23015KT 9999 FEW050"
    },
    {
      "icao": "EBCI",
      "alert": "OK",
      "vis_m": 9999,
      "fzfg": false,
      "metar_trigger": false,
      "taf_trigger": false,
      "metar": "METAR EBCI 111950Z 31003KT 250V010 9999 FEW035 06/01 Q1011 NOSIG",
      "taf": "TAF EBCI 111710Z 1118/1224 31011KT 9999 FEW035"
    },
    {
      "icao": "EDDB",
      "alert": "OK",
      "vis_m": 9999,
      "fzfg": false,
      "metar_trigger": false,
      "taf_trigger": false,
      "metar": "METAR EDDB 111950Z AUTO 29010KT 9999 OVC037 09/04 Q1001 NOSIG",
      "taf": "TAF EDDB 111700Z 1118/1218 29015G25KT 9999 SCT010 OVC025"
    },
    {
      "icao": "EDDH",
      "alert": "OK",
      "vis_m": 9999,
      "fzfg": false,
      "metar_trigger": false,
      "taf_trigger": false,
      "metar": "METAR EDDH 111950Z AUTO 26003KT 230V290 CAVOK 07/02 Q1001 NOSIG",
      "taf": "TAF EDDH 111700Z 1118/1224 30012KT 9999 BKN030"
    },
    {
      "icao": "EDDK",
      "alert": "OK",
      "vis_m": 9999,
      "fzfg": false,
      "metar_trigger": false,
      "taf_trigger": false,
      "metar": "METAR EDDK 111950Z AUTO 31012KT CAVOK 08/01 Q1008 NOSIG",
      "taf": ""
    },
    {
      "icao": "EDDN",
      "alert": "OK",
      "vis_m": 9999,
      "fzfg": false,
      "metar_trigger": false,
      "taf_trigger": false,
      "metar": "METAR EDDN 111950Z AUTO 30011KT 9999 SCT009 BKN013 OVC021 08/06 Q1005 NOSIG",
      "taf": ""
    },
    {
      "icao": "EDDS",
      "alert": "OK",
      "vis_m": 9999,
      "fzfg": false,
      "metar_trigger": false,
      "taf_trigger": false,
      "metar": "METAR EDDS 111950Z AUTO 28007KT 9999 FEW032 OVC044 06/04 Q1007 TEMPO RA BKN010",
      "taf": "TAF EDDS 111700Z 1118/1218 28008KT 9999 SCT015"
    },
    {
      "icao": "EDFH",
      "alert": "OK",
      "vis_m": 9999,
      "fzfg": false,
      "metar_trigger": false,
      "taf_trigger": false,
      "metar": "METAR EDFH 111950Z 31006KT 9999 FEW037 05/02 Q1007",
      "taf": "TAF EDFH 111700Z 1118/1218 29008KT 9999 SCT015"
    },
    {
      "icao": "EDJA",
      "alert": "OK",
      "vis_m": 9999,
      "fzfg": false,
      "metar_trigger": false,
      "taf_trigger": false,
      "metar": "METAR EDJA 111950Z 26015G28KT 9999 -SHRA SCT014 BKN017TCU OVC027 09/05 Q1005",
      "taf": "TAF EDJA 111700Z 1118/1203 23015G30KT 9999 SCT020 BKN045"
    },
    {
      "icao": "EDLW",
      "alert": "OK",
      "vis_m": 9999,
      "fzfg": false,
      "metar_trigger": false,
      "taf_trigger": false,
      "metar": "METAR EDLW 111950Z 27005KT 230V330 CAVOK 06/01 Q1006",
      "taf": "TAF EDLW 111700Z 1118/1218 28007KT 9999 BKN030"
    },
    {
      "icao": "EDNY",
      "alert": "OK",
      "vis_m": 9999,
      "fzfg": false,
      "metar_trigger": false,
      "taf_trigger": false,
      "metar": "METAR EDNY 111950Z 25008KT 9999 -RA FEW019 SCT046 OVC053 11/09 Q1006",
      "taf": "TAF EDNY 111700Z 1118/1203 25010KT 9999 BKN030"
    },
    {
      "icao": "EDSB",
      "alert": "OK",
      "vis_m": 9999,
      "fzfg": false,
      "metar_trigger": false,
      "taf_trigger": false,
      "metar": "METAR EDSB 111950Z 22003KT 9999 SCT042 08/07 Q1008",
      "taf": "TAF EDSB 111700Z 1118/1218 26005KT 9999 SCT020"
    },
    {
      "icao": "EETN",
      "alert": "OK",
      "vis_m": 9999,
      "fzfg": false,
      "metar_trigger": false,
      "taf_trigger": false,
      "metar": "METAR EETN 111950Z 11008KT CAVOK 12/04 Q1005 NOSIG",
      "taf": "TAF EETN 111730Z 1118/1218 14010KT CAVOK"
    },
    {
      "icao": "EFTU",
      "alert": "OK",
      "vis_m": 9999,
      "fzfg": false,
      "metar_trigger": false,
      "taf_trigger": false,
      "metar": "METAR EFTU 111950Z AUTO 13004KT CAVOK 10/05 Q1004",
      "taf": "TAF EFTU 111730Z 1118/1218 16007KT 9999 BKN040"
    },
    {
      "icao": "EGBB",
      "alert": "OK",
      "vis_m": 9999,
      "fzfg": false,
      "metar_trigger": false,
      "taf_trigger": false,
      "metar": "METAR EGBB 111950Z 09004KT CAVOK 09/M00 Q1015",
      "taf": "TAF EGBB 111704Z 1118/1218 02010KT 9999 FEW045"
    },
    {
      "icao": "EGGP",
      "alert": "OK",
      "vis_m": 9999,
      "fzfg": false,
      "metar_trigger": false,
      "taf_trigger": false,
      "metar": "METAR EGGP 111950Z 30009KT CAVOK 09/M00 Q1015",
      "taf": "TAF EGGP 111653Z 1118/1218 31010KT 9999 FEW045"
    },
    {
      "icao": "EGGW",
      "alert": "OK",
      "vis_m": 9999,
      "fzfg": false,
      "metar_trigger": false,
      "taf_trigger": false,
      "metar": "METAR EGGW 111950Z AUTO 04007KT 9999 NCD 08/M00 Q1014",
      "taf": "TAF EGGW 111701Z 1118/1218 02008KT 9999 BKN045"
    },
    {
      "icao": "EGKK",
      "alert": "OK",
      "vis_m": 9999,
      "fzfg": false,
      "metar_trigger": false,
      "taf_trigger": false,
      "metar": "METAR EGKK 111950Z VRB02KT CAVOK 10/01 Q1014",
      "taf": "TAF EGKK 111647Z 1118/1224 02010KT 9999 SCT030"
    },
    {
      "icao": "EGNM",
      "alert": "OK",
      "vis_m": 9999,
      "fzfg": false,
      "metar_trigger": false,
      "taf_trigger": false,
      "metar": "METAR EGNM 111950Z VRB02KT 9999 FEW047 05/M00 Q1014",
      "taf": "TAF EGNM 111656Z 1118/1218 03005KT 9999 FEW045"
    },
    {
      "icao": "EGPD",
      "alert": "OK",
      "vis_m": 9999,
      "fzfg": false,
      "metar_trigger": false,
      "taf_trigger": false,
      "metar": "METAR EGPD 111950Z COR AUTO 10003KT 9999 NCD 07/M01 Q1012 NOSIG",
      "taf": "TAF EGPD 111659Z 1118/1218 36003KT 9999 SCT045"
    },
    {
      "icao": "EGPF",
      "alert": "OK",
      "vis_m": 9999,
      "fzfg": false,
      "metar_trigger": false,
      "taf_trigger": false,
      "metar": "METAR EGPF 111950Z AUTO 27008KT 9999 NCD 09/01 Q1014",
      "taf": "TAF EGPF 111652Z 1118/1218 27010KT 9999 SCT040"
    },
    {
      "icao": "EHBK",
      "alert": "OK",
      "vis_m": null,
      "fzfg": false,
      "metar_trigger": false,
      "taf_trigger": false,
      "metar": "",
      "taf": "TAF EHBK 111653Z 1118/1224 30010KT 9999 SCT035"
    },
    {
      "icao": "EHEH",
      "alert": "OK",
      "vis_m": 9999,
      "fzfg": false,
      "metar_trigger": false,
      "taf_trigger": false,
      "metar": "METAR EHEH 111955Z AUTO 30005KT 230V030 9999 FEW035 SCT058 07/00 Q1010 BLU TEMPO FEW025CB",
      "taf": "TAF EHEH 111700Z 1118/1224 32010G21KT 9999 SCT070"
    },
    {
      "icao": "EKBI",
      "alert": "OK",
      "vis_m": 9999,
      "fzfg": false,
      "metar_trigger": false,
      "taf_trigger": false,
      "metar": "METAR EKBI 111950Z AUTO 02004KT 9999 BKN053/// BKN110/// 09/03 Q1001",
      "taf": "TAF EKBI 111727Z 1118/1218 10005KT 9999 FEW040"
    },
    {
      "icao": "EKCH",
      "alert": "OK",
      "vis_m": 9999,
      "fzfg": false,
      "metar_trigger": false,
      "taf_trigger": false,
      "metar": "METAR EKCH 111950Z AUTO 33009KT 9999 OVC035/// 08/06 Q0998 NOSIG",
      "taf": "TAF EKCH 111727Z 1118/1218 34010KT 9999 BKN040"
    },
    {
      "icao": "ENAL",
      "alert": "OK",
      "vis_m": 9999,
      "fzfg": false,
      "metar_trigger": false,
      "taf_trigger": false,
      "metar": "METAR ENAL 111950Z 26005KT 9999 FEW020 06/02 Q1007",
      "taf": "TAF ENAL 111700Z 1118/1203 25008KT 9999 FEW030"
    },
    {
      "icao": "ENBR",
      "alert": "OK",
      "vis_m": 9999,
      "fzfg": false,
      "metar_trigger": false,
      "taf_trigger": false,
      "metar": "METAR ENBR 111950Z 33009KT 290V350 CAVOK 06/02 Q1007 RMK WIND 1200FT 34023KT",
      "taf": "TAF ENBR 111700Z 1118/1218 34018KT 9999 FEW020 SCT040"
    },
    {
      "icao": "ENGM",
      "alert": "OK",
      "vis_m": 9999,
      "fzfg": false,
      "metar_trigger": false,
      "taf_trigger": false,
      "metar": "METAR ENGM 111950Z 34004KT 310V010 CAVOK 06/01 Q1004 NOSIG",
      "taf": "TAF ENGM 111700Z 1118/1218 35010KT 9999 SCT040"
    },
    {
      "icao": "ENHD",
      "alert": "OK",
      "vis_m": 9999,
      "fzfg": false,
      "metar_trigger": false,
      "taf_trigger": false,
      "metar": "METAR ENHD 111950Z 34023KT CAVOK 07/03 Q1006",
      "taf": "TAF ENHD 111400Z 1115/1122 34020KT 9999 FEW020"
    },
    {
      "icao": "ENTC",
      "alert": "OK",
      "vis_m": 9999,
      "fzfg": false,
      "metar_trigger": false,
      "taf_trigger": false,
      "metar": "METAR ENTC 111950Z 01006KT 9999 FEW050 08/01 Q1004 NOSIG RMK WIND 2600FT 09005KT",
      "taf": "TAF ENTC 111700Z 1118/1218 22005KT 9999 SCT040"
    },
    {
      "icao": "ENTO",
      "alert": "OK",
      "vis_m": 9999,
      "fzfg": false,
      "metar_trigger": false,
      "taf_trigger": false,
      "metar": "METAR ENTO 111950Z 35011KT 9999 -RA FEW042CB 07/03 Q1003 NOSIG",
      "taf": ""
    },
    {
      "icao": "ENVA",
      "alert": "OK",
      "vis_m": 9999,
      "fzfg": false,
      "metar_trigger": false,
      "taf_trigger": false,
      "metar": "METAR ENVA 111950Z VRB02KT CAVOK 08/M01 Q1006 RMK WIND 670FT 35005KT",
      "taf": "TAF ENVA 111700Z 1118/1218 26008KT 9999 FEW040"
    },
    {
      "icao": "ENZV",
      "alert": "OK",
      "vis_m": 9999,
      "fzfg": false,
      "metar_trigger": false,
      "taf_trigger": false,
      "metar": "METAR ENZV 111950Z 34015KT CAVOK 08/02 Q1005",
      "taf": "TAF ENZV 111700Z 1118/1218 36018KT 9999 FEW040"
    },
    {
      "icao": "EPGD",
      "alert": "OK",
      "vis_m": 9999,
      "fzfg": false,
      "metar_trigger": false,
      "taf_trigger": false,
      "metar": "METAR EPGD 112000Z 15009KT 9999 FEW010 FEW032CB BKN038 15/14 Q0995",
      "taf": "TAF EPGD 111730Z 1118/1218 16014KT CAVOK"
    },
    {
      "icao": "EPKK",
      "alert": "OK",
      "vis_m": 9999,
      "fzfg": false,
      "metar_trigger": false,
      "taf_trigger": false,
      "metar": "METAR EPKK 112000Z VRB02KT CAVOK 13/12 Q0998",
      "taf": "TAF EPKK 111730Z 1118/1218 VRB05KT CAVOK"
    },
    {
      "icao": "EPKT",
      "alert": "OK",
      "vis_m": 9999,
      "fzfg": false,
      "metar_trigger": false,
      "taf_trigger": false,
      "metar": "METAR EPKT 112000Z 20005KT 190V290 CAVOK 15/11 Q0998",
      "taf": "TAF EPKT 111730Z 1118/1218 17010KT 9999 BKN040"
    },
    {
      "icao": "EPLB",
      "alert": "OK",
      "vis_m": 9999,
      "fzfg": false,
      "metar_trigger": false,
      "taf_trigger": false,
      "metar": "METAR EPLB 112000Z 16005KT CAVOK 15/11 Q1000",
      "taf": "TAF EPLB 111730Z 1118/1218 17010KT CAVOK"
    },
    {
      "icao": "EPMO",
      "alert": "OK",
      "vis_m": 9999,
      "fzfg": false,
      "metar_trigger": false,
      "taf_trigger": false,
      "metar": "METAR EPMO 112000Z 13005KT 100V180 CAVOK 14/13 Q0998",
      "taf": "TAF EPMO 111730Z 1118/1218 14008KT CAVOK"
    },
    {
      "icao": "EPPO",
      "alert": "OK",
      "vis_m": 9999,
      "fzfg": false,
      "metar_trigger": false,
      "taf_trigger": false,
      "metar": "METAR EPPO 112000Z 30009KT 9999 -SHRA FEW012 FEW023CB 13/11 Q0998",
      "taf": "TAF EPPO 111730Z 1118/1218 30005KT 9999 SCT040"
    },
    {
      "icao": "EPRA",
      "alert": "OK",
      "vis_m": 9999,
      "fzfg": false,
      "metar_trigger": false,
      "taf_trigger": false,
      "metar": "METAR EPRA 112000Z 15005KT CAVOK 14/13 Q0999",
      "taf": "TAF EPRA 111730Z 1118/1203 16006KT CAVOK"
    },
    {
      "icao": "EPRZ",
      "alert": "OK",
      "vis_m": 9999,
      "fzfg": false,
      "metar_trigger": false,
      "taf_trigger": false,
      "metar": "METAR EPRZ 112000Z 13006KT CAVOK 13/12 Q1000",
      "taf": "TAF EPRZ 111730Z 1118/1218 15013KT 9999 SCT045"
    },
    {
      "icao": "EPSC",
      "alert": "OK",
      "vis_m": 9999,
      "fzfg": false,
      "metar_trigger": false,
      "taf_trigger": false,
      "metar": "METAR EPSC 112000Z 26008KT 9999 BKN016 10/07 Q0998",
      "taf": ""
    },
    {
      "icao": "EPSY",
      "alert": "OK",
      "vis_m": 9999,
      "fzfg": false,
      "metar_trigger": false,
      "taf_trigger": false,
      "metar": "METAR EPSY 112000Z 12004KT 080V160 9999 -SHRA SCT043CB 13/13 Q0998",
      "taf": "TAF EPSY 111730Z 1118/1203 12008KT 9999 SCT040"
    },
    {
      "icao": "EPWA",
      "alert": "OK",
      "vis_m": 9999,
      "fzfg": false,
      "metar_trigger": false,
      "taf_trigger": false,
      "metar": "METAR EPWA 112000Z 14010KT 9999 SCT045 15/13 Q0998 NOSIG",
      "taf": "TAF EPWA 111730Z 1118/1218 15008KT CAVOK"
    },
    {
      "icao": "EPWR",
      "alert": "OK",
      "vis_m": 9999,
      "fzfg": false,
      "metar_trigger": false,
      "taf_trigger": false,
      "metar": "METAR EPWR 112000Z 26005KT 9999 -SHRA FEW014CB BKN018 14/12 Q0999",
      "taf": "TAF EPWR 111730Z 1118/1218 32010KT 9999 BKN040"
    },
    {
      "icao": "ESGG",
      "alert": "OK",
      "vis_m": 9999,
      "fzfg": false,
      "metar_trigger": false,
      "taf_trigger": false,
      "metar": "METAR ESGG 111950Z 05007KT 9999 SCT036 07/03 Q1000",
      "taf": "TAF ESGG 111730Z 1118/1218 08010KT CAVOK"
    },
    {
      "icao": "ESKN",
      "alert": "OK",
      "vis_m": 9999,
      "fzfg": false,
      "metar_trigger": false,
      "taf_trigger": false,
      "metar": "METAR ESKN 111950Z VRB02KT 9999 -RA BKN040 07/06 Q1002",
      "taf": "TAF ESKN 111730Z 1118/1218 03007KT 9999 -RA BKN040"
    },
    {
      "icao": "ESMS",
      "alert": "OK",
      "vis_m": 9999,
      "fzfg": false,
      "metar_trigger": false,
      "taf_trigger": false,
      "metar": "METAR ESMS 111950Z 31009KT 9999 BKN012 08/08 Q0997",
      "taf": "TAF ESMS 111727Z 1118/1218 34012KT 9999 SCT030"
    },
    {
      "icao": "ESSA",
      "alert": "OK",
      "vis_m": 9999,
      "fzfg": false,
      "metar_trigger": false,
      "taf_trigger": false,
      "metar": "METAR ESSA 111950Z 02008KT 9999 -RA BKN047 OVC061 07/05 Q1003 NOSIG",
      "taf": "TAF ESSA 111730Z 1118/1218 03009KT CAVOK"
    },
    {
      "icao": "EYKA",
      "alert": "OK",
      "vis_m": 9999,
      "fzfg": false,
      "metar_trigger": false,
      "taf_trigger": false,
      "metar": "METAR EYKA 111950Z 12012KT CAVOK 13/07 Q1003",
      "taf": "TAF EYKA 111700Z 1118/1218 12010KT 9000 NSC"
    },
    {
      "icao": "EYPA",
      "alert": "OK",
      "vis_m": 9999,
      "fzfg": false,
      "metar_trigger": false,
      "taf_trigger": false,
      "metar": "METAR EYPA 111950Z 14010KT 9999 -SHRA FEW063CB 15/07 Q0999",
      "taf": "TAF EYPA 111700Z 1118/1218 12010KT 9000 NSC"
    },
    {
      "icao": "EYVI",
      "alert": "OK",
      "vis_m": 9999,
      "fzfg": false,
      "metar_trigger": false,
      "taf_trigger": false,
      "metar": "METAR EYVI 111950Z 14012KT CAVOK 10/06 Q1004 NOSIG",
      "taf": "TAF EYVI 111700Z 1118/1218 13010KT 9000 NSC"
    },
    {
      "icao": "GCFV",
      "alert": "OK",
      "vis_m": 9999,
      "fzfg": false,
      "metar_trigger": false,
      "taf_trigger": false,
      "metar": "METAR GCFV 112000Z 05005KT 9999 FEW030 SCT045 20/15 Q1018",
      "taf": "TAF GCFV 111400Z 1115/1215 07008KT 9999 BKN035 TX24/1214Z TN17/1206Z"
    },
    {
      "icao": "GCLP",
      "alert": "OK",
      "vis_m": 9999,
      "fzfg": false,
      "metar_trigger": false,
      "taf_trigger": false,
      "metar": "METAR GCLP 112000Z 01009KT 9999 BKN050 20/14 Q1018 NOSIG",
      "taf": "TAF GCLP 111400Z 1115/1215 05006KT 9999 FEW025 BKN035 TX23/1214Z TN16/1206Z"
    },
    {
      "icao": "GCTS",
      "alert": "OK",
      "vis_m": 9999,
      "fzfg": false,
      "metar_trigger": false,
      "taf_trigger": false,
      "metar": "METAR GCTS 112000Z 08012KT 9999 FEW050 20/15 Q1018 WS R07 NOSIG",
      "taf": "TAF GCTS 111400Z 1115/1215 06008KT 9999 SCT040 TX24/1214Z TN16/1206Z"
    },
    {
      "icao": "GMAD",
      "alert": "OK",
      "vis_m": 9999,
      "fzfg": false,
      "metar_trigger": false,
      "taf_trigger": false,
      "metar": "METAR GMAD 112000Z 22014KT CAVOK 20/09 Q1018 NOSIG",
      "taf": "TAF GMAD 111700Z 1118/1224 25012KT CAVOK"
    },
    {
      "icao": "GMMN",
      "alert": "OK",
      "vis_m": 9999,
      "fzfg": false,
      "metar_trigger": false,
      "taf_trigger": false,
      "metar": "METAR GMMN 112000Z 34007KT 9999 FEW030 17/11 Q1018 NOSIG",
      "taf": "TAF GMMN 111700Z 1118/1224 34010KT 9999 FEW030"
    },
    {
      "icao": "GMMX",
      "alert": "OK",
      "vis_m": 9999,
      "fzfg": false,
      "metar_trigger": false,
      "taf_trigger": false,
      "metar": "METAR GMMX 112000Z 30010KT 260V340 9999 FEW026 21/09 Q1017 NOSIG",
      "taf": "TAF GMMX 111700Z 1118/1224 32008KT 8000 NSC"
    },
    {
      "icao": "HEGN",
      "alert": "OK",
      "vis_m": 9999,
      "fzfg": false,
      "metar_trigger": false,
      "taf_trigger": false,
      "metar": "METAR HEGN 112000Z 33007KT CAVOK 28/M01 Q1012 NOSIG",
      "taf": "TAF HEGN 111700Z 1118/1224 32014KT CAVOK"
    },
    {
      "icao": "HEMA",
      "alert": "OK",
      "vis_m": 9999,
      "fzfg": false,
      "metar_trigger": false,
      "taf_trigger": false,
      "metar": "METAR HEMA 112000Z 30004KT CAVOK 27/07 Q1011 NOSIG",
      "taf": "TAF HEMA 111700Z 1118/1224 31015KT CAVOK"
    },
    {
      "icao": "HESH",
      "alert": "OK",
      "vis_m": 9999,
      "fzfg": false,
      "metar_trigger": false,
      "taf_trigger": false,
      "metar": "METAR HESH 112000Z 34010KT CAVOK 30/11 Q1011 NOSIG",
      "taf": "TAF HESH 111700Z 1118/1224 35012KT CAVOK"
    },
    {
      "icao": "HESX",
      "alert": "OK",
      "vis_m": 9999,
      "fzfg": false,
      "metar_trigger": false,
      "taf_trigger": false,
      "metar": "METAR HESX 112000Z 06009KT CAVOK 23/12 Q1015 NOSIG",
      "taf": "TAF HESX 111700Z 1118/1224 02010KT CAVOK"
    },
    {
      "icao": "LATI",
      "alert": "OK",
      "vis_m": null,
      "fzfg": false,
      "metar_trigger": false,
      "taf_trigger": false,
      "metar": "",
      "taf": "TAF LATI 111700Z 1118/1218 VRB05KT 9999 SCT050 TX26/1212Z TN15/1204Z"
    },
    {
      "icao": "LBPD",
      "alert": "OK",
      "vis_m": 9999,
      "fzfg": false,
      "metar_trigger": false,
      "taf_trigger": false,
      "metar": "METAR LBPD 112000Z AUTO VRB03KT 9999 FEW240/// 18/15 Q1007",
      "taf": "TAF LBPD 111700Z 1118/1218 11010KT 9999 SCT060"
    },
    {
      "icao": "LBSF",
      "alert": "OK",
      "vis_m": 9999,
      "fzfg": false,
      "metar_trigger": false,
      "taf_trigger": false,
      "metar": "METAR LBSF 112000Z AUTO 13003KT 100V160 9999 BKN068/// 17/15 Q1008 NOSIG",
      "taf": "TAF LBSF 111700Z 1118/1218 09010KT 9999 SCT060"
    },
    {
      "icao": "LBWN",
      "alert": "OK",
      "vis_m": 9999,
      "fzfg": false,
      "metar_trigger": false,
      "taf_trigger": false,
      "metar": "METAR LBWN 112000Z AUTO 11008KT 9999 FEW015/// 14/14 Q1009 NOSIG",
      "taf": "TAF LBWN 111700Z 1118/1218 11010KT 9999 SCT045"
    },
    {
      "icao": "LCLK",
      "alert": "OK",
      "vis_m": 9999,
      "fzfg": false,
      "metar_trigger": false,
      "taf_trigger": false,
      "metar": "METAR LCLK 112000Z 00000KT CAVOK 20/19 Q1013 NOSIG",
      "taf": "TAF LCLK 111730Z 1118/1218 22010KT 9999 FEW025"
    },
    {
      "icao": "LCPH",
      "alert": "OK",
      "vis_m": 9999,
      "fzfg": false,
      "metar_trigger": false,
      "taf_trigger": false,
      "metar": "METAR LCPH 112000Z 33005KT CAVOK 19/17 Q1013 NOSIG",
      "taf": "TAF LCPH 111730Z 1118/1218 30010KT 9999 FEW020"
    },
    {
      "icao": "LEAL",
      "alert": "OK",
      "vis_m": 9999,
      "fzfg": false,
      "metar_trigger": false,
      "taf_trigger": false,
      "metar": "METAR LEAL 112000Z 06003KT 340V110 CAVOK 20/15 Q1015 NOSIG",
      "taf": "TAF LEAL 111700Z 1118/1218 VRB04KT CAVOK TX26/1212Z TN14/1206Z"
    },
    {
      "icao": "LEBB",
      "alert": "OK",
      "vis_m": 9999,
      "fzfg": false,
      "metar_trigger": false,
      "taf_trigger": false,
      "metar": "METAR LEBB 112000Z VRB01KT 9999 SCT023 15/13 Q1016 NOSIG",
      "taf": "TAF LEBB 111700Z 1118/1218 VRB03KT 9999 FEW045 SCT060 TX16/1212Z TN11/1201Z"
    },
    {
      "icao": "LEBL",
      "alert": "OK",
      "vis_m": 9999,
      "fzfg": false,
      "metar_trigger": false,
      "taf_trigger": false,
      "metar": "METAR LEBL 112000Z 24012KT CAVOK 19/11 Q1013 NOSIG",
      "taf": "TAF LEBL 111700Z 1118/1218 23015KT 9999 FEW030 TX21/1212Z TN13/1205Z"
    },
    {
      "icao": "LECH",
      "alert": "OK",
      "vis_m": 9000,
      "fzfg": false,
      "metar_trigger": false,
      "taf_trigger": false,
      "metar": "METAR LECH 112000Z AUTO 02005KT 9000 NCD 16/13 Q1014",
      "taf": "TAF LECH 111700Z 1118/1218 VRB04KT CAVOK TX23/1214Z TN10/1206Z"
    },
    {
      "icao": "LEMD",
      "alert": "OK",
      "vis_m": 9999,
      "fzfg": false,
      "metar_trigger": false,
      "taf_trigger": false,
      "metar": "METAR LEMD 112000Z 26004KT 230V290 CAVOK 16/07 Q1015 NOSIG",
      "taf": "TAF LEMD 111700Z 1118/1224 22010KT 9999 FEW045 TX19/1118Z TN07/1205Z"
    },
    {
      "icao": "LEMG",
      "alert": "OK",
      "vis_m": 9999,
      "fzfg": false,
      "metar_trigger": false,
      "taf_trigger": false,
      "metar": "METAR LEMG 112000Z 10003KT 060V160 CAVOK 19/13 Q1015 NOSIG",
      "taf": "TAF LEMG 111700Z 1118/1218 16010KT 9999 FEW045 TX25/1214Z TN13/1206Z"
    },
    {
      "icao": "LEVC",
      "alert": "OK",
      "vis_m": 9999,
      "fzfg": false,
      "metar_trigger": false,
      "taf_trigger": false,
      "metar": "METAR LEVC 112000Z 25009KT CAVOK 20/07 Q1013 NOSIG",
      "taf": "TAF LEVC 111700Z 1118/1218 27012KT CAVOK TX26/1212Z TN12/1206Z"
    },
    {
      "icao": "LEXJ",
      "alert": "OK",
      "vis_m": 9999,
      "fzfg": false,
      "metar_trigger": false,
      "taf_trigger": false,
      "metar": "METAR LEXJ 112000Z 07001KT CAVOK 15/12 Q1016",
      "taf": "TAF LEXJ 111400Z 1115/1215 VRB03KT 9999 FEW045 SCT070 TX19/1115Z TN14/1122Z"
    },
    {
      "icao": "LEZG",
      "alert": "OK",
      "vis_m": 9999,
      "fzfg": false,
      "metar_trigger": false,
      "taf_trigger": false,
      "metar": "METAR LEZG 112000Z 24008KT 9999 FEW085 18/09 Q1014 NOSIG",
      "taf": "TAF LEZG 111700Z 1118/1218 24006KT 9999 FEW060 TX22/1218Z TN11/1207Z"
    },
    {
      "icao": "LEZL",
      "alert": "OK",
      "vis_m": 9999,
      "fzfg": false,
      "metar_trigger": false,
      "taf_trigger": false,
      "metar": "METAR LEZL 112000Z 24007KT CAVOK 19/11 Q1015 NOSIG",
      "taf": "TAF LEZL 111400Z 1115/1215 22010KT 9999 FEW040 TX25/1215Z TN13/1206Z"
    },
    {
      "icao": "LFBD",
      "alert": "OK",
      "vis_m": 9999,
      "fzfg": false,
      "metar_trigger": false,
      "taf_trigger": false,
      "metar": "METAR LFBD 112000Z AUTO 32006KT 9999 FEW021 BKN034 14/10 Q1015 NOSIG",
      "taf": "TAF LFBD 111700Z 1118/1224 31010KT 9999 BKN030 TX20/1214Z TN12/1204Z"
    },
    {
      "icao": "LFLL",
      "alert": "OK",
      "vis_m": 9999,
      "fzfg": false,
      "metar_trigger": false,
      "taf_trigger": false,
      "metar": "METAR LFLL 112000Z 28005KT 9999 -RA SCT021 BKN035 BKN046 13/12 Q1011 NOSIG",
      "taf": ""
    },
    {
      "icao": "LFLS",
      "alert": "OK",
      "vis_m": 9999,
      "fzfg": false,
      "metar_trigger": false,
      "taf_trigger": false,
      "metar": "METAR LFLS 112000Z AUTO 08006KT 9999 FEW037/// BKN050/// OVC074/// ///TCU 11/10 Q1012",
      "taf": "TAF LFLS 111400Z 1115/1215 23008KT 9999 FEW010 BKN050"
    },
    {
      "icao": "LFMN",
      "alert": "OK",
      "vis_m": 9999,
      "fzfg": false,
      "metar_trigger": false,
      "taf_trigger": false,
      "metar": "METAR LFMN 112000Z 24012KT CAVOK 21/09 Q1006 NOSIG",
      "taf": "TAF LFMN 111400Z 1115/1221 24020KT 9999 FEW080"
    },
    {
      "icao": "LFOB",
      "alert": "OK",
      "vis_m": 9999,
      "fzfg": false,
      "metar_trigger": false,
      "taf_trigger": false,
      "metar": "METAR LFOB 112000Z AUTO 35005KT 9999 -RA FEW012/// BKN028/// BKN034/// ///TCU 07/07 Q1013 BECMG BKN040",
      "taf": "TAF LFOB 111700Z 1118/1218 31010G20KT 9999 BKN040"
    },
    {
      "icao": "LFPO",
      "alert": "OK",
      "vis_m": 4900,
      "fzfg": false,
      "metar_trigger": false,
      "taf_trigger": false,
      "metar": "METAR LFPO 112000Z AUTO 01012KT 4900 RA BR FEW023/// SCT029/// BKN035/// ///TCU 09/06 Q1013 TEMPO NSW",
      "taf": "TAF LFPO 111700Z 1118/1224 34010KT 9999 SCT035"
    },
    {
      "icao": "LFSB",
      "alert": "OK",
      "vis_m": 9999,
      "fzfg": false,
      "metar_trigger": false,
      "taf_trigger": false,
      "metar": "METAR LFSB 112000Z AUTO 34007KT 9999 FEW010/// BKN028/// BKN035/// ///TCU 08/08 Q1010 NOSIG",
      "taf": ""
    },
    {
      "icao": "LGAV",
      "alert": "OK",
      "vis_m": 9999,
      "fzfg": false,
      "metar_trigger": false,
      "taf_trigger": false,
      "metar": "METAR LGAV 111950Z 19004KT 9999 FEW030 19/10 Q1010 NOSIG",
      "taf": "TAF LGAV 111700Z 1118/1218 25010KT 9999 FEW025"
    },
    {
      "icao": "LGTS",
      "alert": "OK",
      "vis_m": 9999,
      "fzfg": false,
      "metar_trigger": false,
      "taf_trigger": false,
      "metar": "METAR LGTS 111950Z VRB02KT 9999 FEW025 19/17 Q1009 NOSIG",
      "taf": "TAF LGTS 111700Z 1118/1218 VRB03KT 9999 FEW030"
    },
    {
      "icao": "LHBP",
      "alert": "OK",
      "vis_m": 9999,
      "fzfg": false,
      "metar_trigger": false,
      "taf_trigger": false,
      "metar": "METAR LHBP 112000Z 19006KT 150V220 CAVOK 18/09 Q1001 BECMG FM2130 28015G25KT",
      "taf": "TAF LHBP 111715Z 1118/1218 21009KT CAVOK"
    },
    {
      "icao": "LHDC",
      "alert": "OK",
      "vis_m": 9999,
      "fzfg": false,
      "metar_trigger": false,
      "taf_trigger": false,
      "metar": "METAR LHDC 111945Z AUTO 09004KT 070V140 9999 BKN063 BKN090 //////CB 16/14 Q1003",
      "taf": "TAF LHDC 111415Z 1115/1124 16008KT CAVOK"
    },
    {
      "icao": "LIBD",
      "alert": "OK",
      "vis_m": 9999,
      "fzfg": false,
      "metar_trigger": false,
      "taf_trigger": false,
      "metar": "METAR LIBD 111950Z 23012KT CAVOK 19/07 Q1010",
      "taf": "TAF LIBD 111700Z 1118/1218 23011KT CAVOK"
    },
    {
      "icao": "LIBG",
      "alert": "OK",
      "vis_m": null,
      "fzfg": false,
      "metar_trigger": false,
      "taf_trigger": false,
      "metar": "",
      "taf": "TAF LIBG 111400Z 1115/1124 21010KT CAVOK"
    },
    {
      "icao": "LIBP",
      "alert": "OK",
      "vis_m": 9999,
      "fzfg": false,
      "metar_trigger": false,
      "taf_trigger": false,
      "metar": "METAR LIBP 111950Z AUTO 22014KT 9999 NCD 22/08 Q1006",
      "taf": "TAF LIBP 111700Z 1118/1218 23015KT CAVOK"
    },
    {
      "icao": "LIBR",
      "alert": "OK",
      "vis_m": 9999,
      "fzfg": false,
      "metar_trigger": false,
      "taf_trigger": false,
      "metar": "METAR LIBR 111950Z 22010KT CAVOK 20/15 Q1011",
      "taf": "TAF LIBR 111700Z 1118/1218 20008KT CAVOK"
    },
    {
      "icao": "LICA",
      "alert": "OK",
      "vis_m": 9999,
      "fzfg": false,
      "metar_trigger": false,
      "taf_trigger": false,
      "metar": "METAR LICA 111950Z AUTO VRB02KT 9999 NCD 16/15 Q1014",
      "taf": "TAF LICA 111700Z 1118/1218 23006KT 9999 FEW080"
    },
    {
      "icao": "LICC",
      "alert": "OK",
      "vis_m": 9999,
      "fzfg": false,
      "metar_trigger": false,
      "taf_trigger": false,
      "metar": "METAR LICC 111950Z 25002KT CAVOK 20/15 Q1014",
      "taf": "TAF LICC 111700Z 1118/1218 VRB05KT CAVOK"
    },
    {
      "icao": "LICJ",
      "alert": "OK",
      "vis_m": 9999,
      "fzfg": false,
      "metar_trigger": false,
      "taf_trigger": false,
      "metar": "METAR LICJ 111950Z 25004KT 200V280 CAVOK 19/17 Q1013",
      "taf": "TAF LICJ 111700Z 1118/1218 VRB05KT CAVOK"
    },
    {
      "icao": "LIMC",
      "alert": "OK",
      "vis_m": 9999,
      "fzfg": false,
      "metar_trigger": false,
      "taf_trigger": false,
      "metar": "METAR LIMC 111950Z VRB01KT CAVOK 15/10 Q1004 NOSIG",
      "taf": "TAF LIMC 111700Z 1118/1224 02008KT 9999 FEW040"
    },
    {
      "icao": "LIME",
      "alert": "OK",
      "vis_m": 9999,
      "fzfg": false,
      "metar_trigger": false,
      "taf_trigger": false,
      "metar": "METAR LIME 111950Z 01005KT 340V050 9999 SCT090 14/11 Q1003 NOSIG",
      "taf": "TAF LIME 111700Z 1118/1218 VRB05KT 9999 FEW040"
    },
    {
      "icao": "LIMF",
      "alert": "OK",
      "vis_m": 9999,
      "fzfg": false,
      "metar_trigger": false,
      "taf_trigger": false,
      "metar": "METAR LIMF 111950Z 35009KT 9999 FEW090 16/12 Q1003",
      "taf": "TAF LIMF 111700Z 1118/1218 28007KT 9999 FEW040"
    },
    {
      "icao": "LIMJ",
      "alert": "OK",
      "vis_m": 9999,
      "fzfg": false,
      "metar_trigger": false,
      "taf_trigger": false,
      "metar": "METAR LIMJ 111950Z 10014KT 9999 BKN025 19/14 Q1004",
      "taf": "TAF LIMJ 111700Z 1118/1218 06008KT 9999 SCT020"
    },
    {
      "icao": "LIPE",
      "alert": "OK",
      "vis_m": 9999,
      "fzfg": false,
      "metar_trigger": false,
      "taf_trigger": false,
      "metar": "METAR LIPE 111950Z 24007KT 210V280 CAVOK 19/08 Q1004",
      "taf": "TAF LIPE 111700Z 1118/1218 22012KT 9999 FEW060"
    },
    {
      "icao": "LIPH",
      "alert": "OK",
      "vis_m": 9999,
      "fzfg": false,
      "metar_trigger": false,
      "taf_trigger": false,
      "metar": "METAR LIPH 111950Z 19003KT 9999 BKN050 13/13 Q1003",
      "taf": "TAF LIPH 111700Z 1118/1218 VRB05KT 9999 SCT020 BKN060"
    },
    {
      "icao": "LIPQ",
      "alert": "OK",
      "vis_m": 9999,
      "fzfg": false,
      "metar_trigger": false,
      "taf_trigger": false,
      "metar": "METAR LIPQ 111950Z AUTO 12007KT 9999 -RA BKN060/// 13/13 Q1003 RETSRA",
      "taf": "TAF LIPQ 111700Z 1118/1218 VRB05KT 9999 BKN060"
    },
    {
      "icao": "LIPR",
      "alert": "OK",
      "vis_m": 9999,
      "fzfg": false,
      "metar_trigger": false,
      "taf_trigger": false,
      "metar": "METAR LIPR 111950Z 21009KT CAVOK 20/10 Q1005",
      "taf": "TAF LIPR 111700Z 1118/1218 20015KT 9999 FEW050"
    },
    {
      "icao": "LIPX",
      "alert": "OK",
      "vis_m": 9999,
      "fzfg": false,
      "metar_trigger": false,
      "taf_trigger": false,
      "metar": "METAR LIPX 111950Z 34004KT 9999 FEW080 13/12 Q1003",
      "taf": "TAF LIPX 111700Z 1118/1218 28008KT 9999 SCT040"
    },
    {
      "icao": "LIPY",
      "alert": "OK",
      "vis_m": 9999,
      "fzfg": false,
      "metar_trigger": false,
      "taf_trigger": false,
      "metar": "METAR LIPY 111950Z AUTO VRB01KT 9999 FEW053/// BKN063/// 19/11 Q1006",
      "taf": "TAF LIPY 111700Z 1118/1218 24014KT 9999 FEW070"
    },
    {
      "icao": "LIPZ",
      "alert": "OK",
      "vis_m": 9999,
      "fzfg": false,
      "metar_trigger": false,
      "taf_trigger": false,
      "metar": "METAR LIPZ 111950Z 19004KT 150V220 9999 -RA BKN070 14/12 Q1003 NOSIG",
      "taf": "TAF LIPZ 111700Z 1118/1224 20010KT 9999 SCT020 BKN040"
    },
    {
      "icao": "LIRF",
      "alert": "OK",
      "vis_m": 9999,
      "fzfg": false,
      "metar_trigger": false,
      "taf_trigger": false,
      "metar": "METAR LIRF 111950Z 18010KT 9999 FEW008 19/17 Q1010 NOSIG",
      "taf": "TAF LIRF 111700Z 1118/1224 19012KT CAVOK"
    },
    {
      "icao": "LIRN",
      "alert": "OK",
      "vis_m": 9999,
      "fzfg": false,
      "metar_trigger": false,
      "taf_trigger": false,
      "metar": "METAR LIRN 111950Z 17009KT 9999 FEW010 SCT050 19/16 Q1013 NOSIG",
      "taf": "TAF LIRN 111700Z 1118/1218 19010KT 9999 FEW040"
    },
    {
      "icao": "LIRP",
      "alert": "OK",
      "vis_m": 9999,
      "fzfg": false,
      "metar_trigger": false,
      "taf_trigger": false,
      "metar": "METAR LIRP 111945Z 23016KT 9999 FEW025 17/13 Q1008 NOSIG",
      "taf": "TAF LIRP 111700Z 1118/1218 24015KT 9999 SCT020"
    },
    {
      "icao": "LIRZ",
      "alert": "OK",
      "vis_m": 9999,
      "fzfg": false,
      "metar_trigger": false,
      "taf_trigger": false,
      "metar": "METAR LIRZ 111950Z AUTO 22012KT 9999 BKN036/// 17/12 Q1009",
      "taf": "TAF LIRZ 111700Z 1118/1218 21016KT 9999 BKN040"
    },
    {
      "icao": "LJLJ",
      "alert": "OK",
      "vis_m": 6000,
      "fzfg": false,
      "metar_trigger": false,
      "taf_trigger": false,
      "metar": "METAR LJLJ 112000Z 20004KT 160V250 6000 +TSRA FEW007 SCT030CB OVC050 12/11 Q1004 BECMG -SHRA",
      "taf": "TAF LJLJ 111700Z 1118/1218 30003KT 9999 SCT030 BKN040"
    },
    {
      "icao": "LKMT",
      "alert": "OK",
      "vis_m": 9999,
      "fzfg": false,
      "metar_trigger": false,
      "taf_trigger": false,
      "metar": "METAR LKMT 112000Z VRB02KT CAVOK 15/13 Q0998 TEMPO FEW040CB",
      "taf": "TAF LKMT 111700Z 1118/1218 23008KT CAVOK"
    },
    {
      "icao": "LKPR",
      "alert": "OK",
      "vis_m": 9999,
      "fzfg": false,
      "metar_trigger": false,
      "taf_trigger": false,
      "metar": "METAR LKPR 112000Z 31015KT 9999 BKN016 OVC032 10/07 Q1001 TEMPO BKN010",
      "taf": "TAF LKPR 112000Z 1121/1303 28012KT 9999 BKN016 OVC030"
    },
    {
      "icao": "LLBG",
      "alert": "OK",
      "vis_m": 9999,
      "fzfg": false,
      "metar_trigger": false,
      "taf_trigger": false,
      "metar": "METAR LLBG 111950Z VRB02KT CAVOK 21/11 Q1015 NOSIG",
      "taf": "TAF LLBG 111707Z 1118/1218 VRB04KT CAVOK TX34/1212Z TN16/1203Z"
    },
    {
      "icao": "LMML",
      "alert": "OK",
      "vis_m": 9999,
      "fzfg": false,
      "metar_trigger": false,
      "taf_trigger": false,
      "metar": "METAR LMML 112015Z 21008KT CAVOK 19/15 Q1015 NOSIG",
      "taf": "TAF LMML 111700Z 1118/1218 22008KT 9999 FEW011"
    },
    {
      "icao": "LOWW",
      "alert": "OK",
      "vis_m": 9999,
      "fzfg": false,
      "metar_trigger": false,
      "taf_trigger": false,
      "metar": "METAR LOWW 111950Z 29015KT 9999 SHRA FEW030 FEW030TCU 13/10 Q1001 NOSIG",
      "taf": "TAF LOWW 112015Z 1121/1303 29015G25KT 9999 FEW040 SCT050 TX13/1121Z TN06/1303Z"
    },
    {
      "icao": "LPFR",
      "alert": "OK",
      "vis_m": 9999,
      "fzfg": false,
      "metar_trigger": false,
      "taf_trigger": false,
      "metar": "METAR LPFR 112000Z 24007KT 9999 FEW025 17/14 Q1016",
      "taf": "TAF LPFR 111700Z 1118/1218 24008KT 9999 SCT020"
    },
    {
      "icao": "LPMA",
      "alert": "OK",
      "vis_m": 9999,
      "fzfg": false,
      "metar_trigger": false,
      "taf_trigger": false,
      "metar": "METAR LPMA 112000Z 34006KT 9999 FEW016 17/12 Q1017",
      "taf": "TAF LPMA 111700Z 1118/1218 VRB05KT 9999 SCT015"
    },
    {
      "icao": "LPPR",
      "alert": "OK",
      "vis_m": 9999,
      "fzfg": false,
      "metar_trigger": false,
      "taf_trigger": false,
      "metar": "METAR LPPR 112000Z 20009KT 9999 FEW015 FEW020TCU SCT036 16/13 Q1014",
      "taf": "TAF LPPR 111700Z 1118/1218 20010KT 9999 SCT020"
    },
    {
      "icao": "LPPS",
      "alert": "OK",
      "vis_m": 9999,
      "fzfg": false,
      "metar_trigger": false,
      "taf_trigger": false,
      "metar": "METAR LPPS 112000Z 29010KT 9999 FEW015 17/12 Q1018",
      "taf": "TAF LPPS 111700Z 1118/1224 27010KT 9999 SCT015"
    },
    {
      "icao": "LPPT",
      "alert": "OK",
      "vis_m": 9999,
      "fzfg": false,
      "metar_trigger": false,
      "taf_trigger": false,
      "metar": "METAR LPPT 112000Z 23010KT 9999 VCSH FEW010 FEW020CB 15/14 Q1014",
      "taf": "TAF LPPT 111700Z 1118/1224 22013KT 9999 SCT020"
    },
    {
      "icao": "LQBK",
      "alert": "OK",
      "vis_m": 9999,
      "fzfg": false,
      "metar_trigger": false,
      "taf_trigger": false,
      "metar": "METAR LQBK 112000Z 18007KT 9999 -RA SCT035 BKN047 18/11 Q1005 NOSIG",
      "taf": ""
    },
    {
      "icao": "LQSA",
      "alert": "OK",
      "vis_m": 9999,
      "fzfg": false,
      "metar_trigger": false,
      "taf_trigger": false,
      "metar": "METAR LQSA 112000Z 16003KT 120V230 CAVOK 15/09 Q1008 NOSIG",
      "taf": "TAF LQSA 111700Z 1118/1218 22006KT 9999 SCT050 TX21/1213Z TN06/1204Z"
    },
    {
      "icao": "LQTZ",
      "alert": "OK",
      "vis_m": 9999,
      "fzfg": false,
      "metar_trigger": false,
      "taf_trigger": false,
      "metar": "METAR LQTZ 112000Z VRB03KT 9999 FEW065 19/10 Q1006",
      "taf": "TAF LQTZ 111700Z 1118/1218 25008KT 9999 SCT060 TX21/1212Z TN11/1204Z"
    },
    {
      "icao": "LRBC",
      "alert": "OK",
      "vis_m": 9999,
      "fzfg": false,
      "metar_trigger": false,
      "taf_trigger": false,
      "metar": "METAR LRBC 112000Z 17011KT CAVOK 17/15 Q1006",
      "taf": "TAF LRBC 111700Z 1118/1203 17010KT CAVOK"
    },
    {
      "icao": "LRBS",
      "alert": "OK",
      "vis_m": 9999,
      "fzfg": false,
      "metar_trigger": false,
      "taf_trigger": false,
      "metar": "METAR LRBS 112000Z 13007KT CAVOK 21/15 Q1006 NOSIG",
      "taf": "TAF LRBS 111700Z 1118/1218 VRB04KT CAVOK"
    },
    {
      "icao": "LRBV",
      "alert": "OK",
      "vis_m": 9999,
      "fzfg": false,
      "metar_trigger": false,
      "taf_trigger": false,
      "metar": "METAR LRBV 112000Z 22013KT 9999 FEW080 16/11 Q1006",
      "taf": "TAF LRBV 111700Z 1118/1203 21014KT CAVOK"
    },
    {
      "icao": "LRCL",
      "alert": "OK",
      "vis_m": 9999,
      "fzfg": false,
      "metar_trigger": false,
      "taf_trigger": false,
      "metar": "METAR LRCL 112000Z 27009KT 240V300 9999 TSRA BKN045CB OVC063 15/12 Q1006",
      "taf": "TAF LRCL 111700Z 1118/1203 16008KT CAVOK"
    },
    {
      "icao": "LRCV",
      "alert": "OK",
      "vis_m": 9999,
      "fzfg": false,
      "metar_trigger": false,
      "taf_trigger": false,
      "metar": "METAR LRCV 112000Z 36011KT 9999 VCTS SCT050CB 19/14 Q1006",
      "taf": "TAF LRCV 111700Z 1118/1203 VRB04KT CAVOK"
    },
    {
      "icao": "LRIA",
      "alert": "OK",
      "vis_m": 9999,
      "fzfg": false,
      "metar_trigger": false,
      "taf_trigger": false,
      "metar": "METAR LRIA 112000Z 13008KT CAVOK 18/12 Q1005",
      "taf": "TAF LRIA 111700Z 1118/1203 18008KT CAVOK"
    },
    {
      "icao": "LROP",
      "alert": "OK",
      "vis_m": 9999,
      "fzfg": false,
      "metar_trigger": false,
      "taf_trigger": false,
      "metar": "METAR LROP 112000Z 14005KT CAVOK 19/16 Q1006 NOSIG",
      "taf": "TAF LROP 111700Z 1118/1218 VRB04KT CAVOK"
    },
    {
      "icao": "LRSB",
      "alert": "OK",
      "vis_m": 9999,
      "fzfg": false,
      "metar_trigger": false,
      "taf_trigger": false,
      "metar": "METAR LRSB 112000Z COR 29008KT 230V320 9999 -SHRA SCT048CB 18/11 Q1006",
      "taf": "TAF LRSB 111700Z 1118/1218 VRB04KT 9999 SCT045"
    },
    {
      "icao": "LRSM",
      "alert": "OK",
      "vis_m": 9999,
      "fzfg": false,
      "metar_trigger": false,
      "taf_trigger": false,
      "metar": "METAR LRSM 112000Z AUTO 19008KT 9999 -RA FEW033/// SCT065/// OVC085/// 15/13 Q1003",
      "taf": "TAF LRSM 111400Z 1115/1124 15008KT CAVOK"
    },
    {
      "icao": "LRSV",
      "alert": "OK",
      "vis_m": 9999,
      "fzfg": false,
      "metar_trigger": false,
      "taf_trigger": false,
      "metar": "METAR LRSV 112000Z 19007KT CAVOK 16/12 Q1004",
      "taf": "TAF LRSV 111700Z 1118/1203 17012KT CAVOK"
    },
    {
      "icao": "LRTM",
      "alert": "OK",
      "vis_m": 9999,
      "fzfg": false,
      "metar_trigger": false,
      "taf_trigger": false,
      "metar": "METAR LRTM 112000Z 01003KT 340V060 9999 SCT037 FEW045CB 15/14 Q1005",
      "taf": "TAF LRTM 111700Z 1118/1203 VRB04KT CAVOK"
    },
    {
      "icao": "LRTR",
      "alert": "OK",
      "vis_m": 9999,
      "fzfg": false,
      "metar_trigger": false,
      "taf_trigger": false,
      "metar": "METAR LRTR 112000Z 15004KT CAVOK 16/14 Q1005 NOSIG",
      "taf": "TAF LRTR 111700Z 1118/1218 23010KT CAVOK"
    },
    {
      "icao": "LTAC",
      "alert": "OK",
      "vis_m": 9999,
      "fzfg": false,
      "metar_trigger": false,
      "taf_trigger": false,
      "metar": "METAR LTAC 111950Z 05004KT 010V070 9999 FEW040 12/09 Q1015 NOSIG RMK RWY21C 02003KT RWY03L 04003KT RWY21R 01004KT RWY03R 00000KT RWY21L 01005KT",
      "taf": "TAF LTAC 111640Z 1118/1218 03012KT 9999 SCT040 SCT100"
    },
    {
      "icao": "LTFM",
      "alert": "OK",
      "vis_m": 9999,
      "fzfg": false,
      "metar_trigger": false,
      "taf_trigger": false,
      "metar": "METAR LTFM 111950Z 17005KT CAVOK 19/13 Q1010 NOSIG RMK RWY17L 17004KT 120V210 RWY34L 19004KT 170V230 RWY16R 00000KT RWY36 18004KT RWY18 16003KT 130V190",
      "taf": "TAF LTFM 111640Z 1118/1224 10007KT CAVOK"
    },
    {
      "icao": "LUKK",
      "alert": "OK",
      "vis_m": 9999,
      "fzfg": false,
      "metar_trigger": false,
      "taf_trigger": false,
      "metar": "METAR LUKK 112000Z 17006KT CAVOK 15/11 Q1007 NOSIG",
      "taf": "TAF LUKK 111714Z 1118/1218 17009KT 9999 SCT040"
    },
    {
      "icao": "LWOH",
      "alert": "OK",
      "vis_m": 9999,
      "fzfg": false,
      "metar_trigger": false,
      "taf_trigger": false,
      "metar": "METAR LWOH 111850Z 20008KT 9999 FEW035 17/11 Q1013",
      "taf": "TAF LWOH 111710Z 1118/1218 VRB02KT CAVOK"
    },
    {
      "icao": "LWSK",
      "alert": "OK",
      "vis_m": null,
      "fzfg": false,
      "metar_trigger": false,
      "taf_trigger": false,
      "metar": "",
      "taf": "TAF LWSK 111710Z 1118/1218 VRB02KT CAVOK"
    },
    {
      "icao": "LYBE",
      "alert": "OK",
      "vis_m": 9999,
      "fzfg": false,
      "metar_trigger": false,
      "taf_trigger": false,
      "metar": "METAR LYBE 112000Z 16008KT CAVOK 16/15 Q1005 NOSIG",
      "taf": "TAF LYBE 111700Z 1118/1218 18005KT CAVOK TX22/1213Z TN15/1203Z"
    },
    {
      "icao": "LYNI",
      "alert": "OK",
      "vis_m": 9999,
      "fzfg": false,
      "metar_trigger": false,
      "taf_trigger": false,
      "metar": "METAR LYNI 112000Z 23006KT 160V290 CAVOK 21/10 Q1007 NOSIG",
      "taf": "TAF LYNI 111700Z 1118/1218 22008KT CAVOK TX26/1214Z TN13/1203Z"
    },
    {
      "icao": "LYPG",
      "alert": "OK",
      "vis_m": 9999,
      "fzfg": false,
      "metar_trigger": false,
      "taf_trigger": false,
      "metar": "METAR LYPG 112000Z 13005KT 9999 FEW030 SCT050 19/13 Q1011 NOSIG",
      "taf": "TAF LYPG 111700Z 1118/1218 36005KT 9999 FEW040 SCT080 TX23/1213Z TN15/1204Z"
    },
    {
      "icao": "LZIB",
      "alert": "OK",
      "vis_m": 9999,
      "fzfg": false,
      "metar_trigger": false,
      "taf_trigger": false,
      "metar": "METAR LZIB 112000Z 27011KT 9999 -SHRA FEW010 FEW025TCU 14/12 Q1000 NOSIG",
      "taf": "TAF LZIB 111715Z 1118/1218 18009KT 9999 FEW020 SCT040"
    },
    {
      "icao": "LZKZ",
      "alert": "OK",
      "vis_m": 9999,
      "fzfg": false,
      "metar_trigger": false,
      "taf_trigger": false,
      "metar": "METAR LZKZ 112000Z 17002KT 9999 -SHRA FEW020TCU 15/14 Q1001 NOSIG",
      "taf": "TAF LZKZ 111715Z 1118/1218 19009KT 9999 FEW035 BKN045"
    },
    {
      "icao": "LZTT",
      "alert": "OK",
      "vis_m": 9999,
      "fzfg": false,
      "metar_trigger": false,
      "taf_trigger": false,
      "metar": "METAR LZTT 112000Z VRB02KT 9999 -SHRA FEW020 SCT056 BKN080 11/11 Q1001",
      "taf": ""
    },
    {
      "icao": "OEJN",
      "alert": "OK",
      "vis_m": 9999,
      "fzfg": false,
      "metar_trigger": false,
      "taf_trigger": false,
      "metar": "METAR OEJN 112000Z 30004KT CAVOK 32/15 Q1009 NOSIG",
      "taf": "TAF OEJN 111700Z 1118/1224 03006KT CAVOK"
    },
    {
      "icao": "OEMA",
      "alert": "OK",
      "vis_m": 9999,
      "fzfg": false,
      "metar_trigger": false,
      "taf_trigger": false,
      "metar": "METAR OEMA 112000Z 26007KT 9999 FEW045 36/00 Q1015 NOSIG",
      "taf": "TAF OEMA 111700Z 1118/1224 VRB03KT CAVOK"
    },
    {
      "icao": "OJAI",
      "alert": "OK",
      "vis_m": 5000,
      "fzfg": false,
      "metar_trigger": false,
      "taf_trigger": false,
      "metar": "METAR OJAI 112000Z 29009KT 5000 HZ NSC 19/04 Q1018 NOSIG",
      "taf": "TAF OJAI 111651Z 1118/1224 VRB02KT 5000 HZ NSC"
    },
    {
      "icao": "OMAA",
      "alert": "OK",
      "vis_m": 9999,
      "fzfg": false,
      "metar_trigger": false,
      "taf_trigger": false,
      "metar": "METAR OMAA 112000Z 18002KT CAVOK 27/21 Q1006 NOSIG",
      "taf": "TAF OMAA 111700Z 1118/1300 30006KT 8000 NSC"
    },
    {
      "icao": "OMDB",
      "alert": "OK",
      "vis_m": 9999,
      "fzfg": false,
      "metar_trigger": false,
      "taf_trigger": false,
      "metar": "METAR OMDB 112000Z 22003KT 190V260 CAVOK 29/22 Q1006 NOSIG",
      "taf": "TAF OMDB 111700Z 1118/1300 17005KT 8000 NSC"
    },
    {
      "icao": "UAAA",
      "alert": "OK",
      "vis_m": 9999,
      "fzfg": false,
      "metar_trigger": false,
      "taf_trigger": false,
      "metar": "METAR UAAA 112000Z 28002MPS 9999 SCT036CB BKN100 13/11 Q1021 NOSIG",
      "taf": "TAF UAAA 111702Z 1118/1218 23003G08MPS 9999 BKN050CB OVC100 TX16/1206Z TN10/1202Z"
    },
    {
      "icao": "UBBB",
      "alert": "OK",
      "vis_m": 9999,
      "fzfg": false,
      "metar_trigger": false,
      "taf_trigger": false,
      "metar": "METAR UBBB 112000Z 13006KT CAVOK 17/15 Q1015 NOSIG",
      "taf": "TAF UBBB 111656Z 1118/1218 17006KT CAVOK TX26/1210Z TN14/1201Z"
    },
    {
      "icao": "UDSG",
      "alert": "OK",
      "vis_m": 9999,
      "fzfg": false,
      "metar_trigger": false,
      "taf_trigger": false,
      "metar": "METAR UDSG 112000Z 10007KT 9999 SCT049CB 11/07 Q1020 NOSIG",
      "taf": "TAF UDSG 111658Z 1118/1218 24006KT 9999 BKN040"
    },
    {
      "icao": "UDYZ",
      "alert": "OK",
      "vis_m": 9999,
      "fzfg": false,
      "metar_trigger": false,
      "taf_trigger": false,
      "metar": "METAR UDYZ 112000Z 04010KT 9999 FEW043CB 20/07 Q1015 NOSIG",
      "taf": "TAF UDYZ 111700Z 1118/1218 03006KT 9999 FEW040"
    },
    {
      "icao": "UGKO",
      "alert": "OK",
      "vis_m": 9999,
      "fzfg": false,
      "metar_trigger": false,
      "taf_trigger": false,
      "metar": "METAR UGKO 112000Z AUTO 31008KT CAVOK 17/13 Q1015 NOSIG",
      "taf": "TAF UGKO 111700Z 1118/1218 08010KT CAVOK TX26/1211Z TN12/1202Z"
    }
  ]
}