{
  "ts_utc": "2026-03-17T18:41:14Z",
  "threshold_m": 150,
  "source": "stations_override.txt (ICAO list) + aviationweather.gov (METAR/TAF raw)",
  "station_count": 159,
  "stations": [
    {
      "icao": "BIKF",
      "alert": "OK",
      "vis_m": 9999,
      "fzfg": false,
      "metar_trigger": false,
      "taf_trigger": false,
      "metar": "METAR BIKF 171830Z 01023G34KT CAVOK 00/M04 Q0986",
      "taf": "TAF BIKF 171654Z 1718/1818 02025G35KT 9999 FEW020 SCT030 TX03/1816Z TNM01/1808Z"
    },
    {
      "icao": "BKPR",
      "alert": "OK",
      "vis_m": 9999,
      "fzfg": false,
      "metar_trigger": false,
      "taf_trigger": false,
      "metar": "METAR BKPR 171830Z 36014KT 9999 SCT020 BKN030 05/04 Q1012 NOSIG",
      "taf": "TAF BKPR 171730Z 1718/1818 03008KT 9999 SCT025 BKN040"
    },
    {
      "icao": "EBCI",
      "alert": "OK",
      "vis_m": 9999,
      "fzfg": false,
      "metar_trigger": false,
      "taf_trigger": false,
      "metar": "METAR EBCI 171820Z 15004KT 120V190 CAVOK 13/06 Q1019 NOSIG",
      "taf": "TAF EBCI 171704Z 1718/1824 16005KT CAVOK"
    },
    {
      "icao": "EDDB",
      "alert": "OK",
      "vis_m": 9999,
      "fzfg": false,
      "metar_trigger": false,
      "taf_trigger": false,
      "metar": "METAR EDDB 171820Z AUTO 12004KT CAVOK 06/M01 Q1026 NOSIG",
      "taf": "TAF EDDB 171700Z 1718/1818 13004KT CAVOK"
    },
    {
      "icao": "EDDH",
      "alert": "OK",
      "vis_m": 9999,
      "fzfg": false,
      "metar_trigger": false,
      "taf_trigger": false,
      "metar": "METAR EDDH 171820Z AUTO 13009KT CAVOK 10/03 Q1023 NOSIG",
      "taf": "TAF EDDH 171700Z 1718/1824 15006KT CAVOK"
    },
    {
      "icao": "EDDK",
      "alert": "OK",
      "vis_m": 9999,
      "fzfg": false,
      "metar_trigger": false,
      "taf_trigger": false,
      "metar": "METAR EDDK 171820Z AUTO 12006KT CAVOK 12/06 Q1021 NOSIG",
      "taf": "TAF EDDK 171700Z 1718/1824 12006KT 9999 FEW045"
    },
    {
      "icao": "EDDN",
      "alert": "OK",
      "vis_m": 9999,
      "fzfg": false,
      "metar_trigger": false,
      "taf_trigger": false,
      "metar": "METAR EDDN 171820Z AUTO 09004KT CAVOK 05/M00 Q1023 NOSIG",
      "taf": "TAF EDDN 171700Z 1718/1818 09004KT CAVOK"
    },
    {
      "icao": "EDDS",
      "alert": "OK",
      "vis_m": 9999,
      "fzfg": false,
      "metar_trigger": false,
      "taf_trigger": false,
      "metar": "METAR EDDS 171820Z AUTO 09006KT 050V110 9999 BKN046 08/04 Q1020 NOSIG",
      "taf": "TAF EDDS 171700Z 1718/1818 07006KT CAVOK"
    },
    {
      "icao": "EDFH",
      "alert": "OK",
      "vis_m": 9999,
      "fzfg": false,
      "metar_trigger": false,
      "taf_trigger": false,
      "metar": "METAR EDFH 171820Z 13008KT 9999 BKN029 08/06 Q1021",
      "taf": "TAF EDFH 171700Z 1718/1818 13008KT 9999 SCT015"
    },
    {
      "icao": "EDJA",
      "alert": "OK",
      "vis_m": 9999,
      "fzfg": false,
      "metar_trigger": false,
      "taf_trigger": false,
      "metar": "METAR EDJA 171820Z 05006KT 9999 FEW038 04/02 Q1020",
      "taf": "TAF EDJA 171700Z 1718/1803 07007KT 9999 SCT040"
    },
    {
      "icao": "EDLW",
      "alert": "OK",
      "vis_m": 9999,
      "fzfg": false,
      "metar_trigger": false,
      "taf_trigger": false,
      "metar": "METAR EDLW 171820Z COR 13003KT CAVOK 11/06 Q1021",
      "taf": "TAF EDLW 171700Z 1718/1818 14005KT 9999 SCT045"
    },
    {
      "icao": "EDNY",
      "alert": "OK",
      "vis_m": 9999,
      "fzfg": false,
      "metar_trigger": false,
      "taf_trigger": false,
      "metar": "METAR EDNY 171820Z 04007KT CAVOK 08/04 Q1020",
      "taf": "TAF EDNY 171700Z 1718/1803 04008KT CAVOK"
    },
    {
      "icao": "EDSB",
      "alert": "OK",
      "vis_m": 9999,
      "fzfg": false,
      "metar_trigger": false,
      "taf_trigger": false,
      "metar": "METAR EDSB 171820Z 05005KT CAVOK 10/05 Q1020",
      "taf": "TAF EDSB 171700Z 1718/1818 04007KT CAVOK"
    },
    {
      "icao": "EETN",
      "alert": "OK",
      "vis_m": 2000,
      "fzfg": false,
      "metar_trigger": false,
      "taf_trigger": false,
      "metar": "METAR EETN 171820Z 26007KT 2000 BR OVC002 01/01 Q1026 TEMPO 0700 FG",
      "taf": "TAF EETN 171730Z 1718/1818 28007KT 9999 BKN005 BKN012"
    },
    {
      "icao": "EFTU",
      "alert": "OK",
      "vis_m": 9999,
      "fzfg": false,
      "metar_trigger": false,
      "taf_trigger": false,
      "metar": "METAR EFTU 171820Z AUTO 22012KT 9999 OVC004 01/00 Q1024",
      "taf": "TAF EFTU 171739Z 1718/1818 21008KT 8000 OVC003"
    },
    {
      "icao": "EGBB",
      "alert": "OK",
      "vis_m": 9999,
      "fzfg": false,
      "metar_trigger": false,
      "taf_trigger": false,
      "metar": "METAR EGBB 171820Z 16008KT CAVOK 12/07 Q1012",
      "taf": "TAF EGBB 171659Z 1718/1818 18010KT CAVOK"
    },
    {
      "icao": "EGGP",
      "alert": "OK",
      "vis_m": 9999,
      "fzfg": false,
      "metar_trigger": false,
      "taf_trigger": false,
      "metar": "METAR EGGP 171820Z 17006KT 130V220 9999 FEW046 13/06 Q1010",
      "taf": "TAF EGGP 171656Z 1718/1818 18010KT 9999 FEW045"
    },
    {
      "icao": "EGGW",
      "alert": "OK",
      "vis_m": 9999,
      "fzfg": false,
      "metar_trigger": false,
      "taf_trigger": false,
      "metar": "METAR EGGW 171820Z AUTO 17007KT 9999 NCD 11/05 Q1014",
      "taf": "TAF EGGW 171656Z 1718/1818 18012KT CAVOK"
    },
    {
      "icao": "EGKK",
      "alert": "OK",
      "vis_m": 9999,
      "fzfg": false,
      "metar_trigger": false,
      "taf_trigger": false,
      "metar": "METAR EGKK 171820Z 14004KT 110V170 CAVOK 12/07 Q1015",
      "taf": "TAF EGKK 171656Z 1718/1824 20012KT CAVOK"
    },
    {
      "icao": "EGNM",
      "alert": "OK",
      "vis_m": 9999,
      "fzfg": false,
      "metar_trigger": false,
      "taf_trigger": false,
      "metar": "METAR EGNM 171820Z 17010KT CAVOK 12/05 Q1010",
      "taf": "TAF EGNM 171655Z 1718/1818 21010KT 9999 FEW030"
    },
    {
      "icao": "EGPD",
      "alert": "OK",
      "vis_m": 9999,
      "fzfg": false,
      "metar_trigger": false,
      "taf_trigger": false,
      "metar": "METAR EGPD 171820Z COR 20014G24KT 9999 BKN028 11/06 Q1003 NOSIG",
      "taf": "TAF EGPD 171657Z 1718/1818 20018G32KT 9999 SCT025"
    },
    {
      "icao": "EGPF",
      "alert": "OK",
      "vis_m": 9999,
      "fzfg": false,
      "metar_trigger": false,
      "taf_trigger": false,
      "metar": "METAR EGPF 171820Z AUTO 19016KT 9999 OVC038 11/07 Q1004",
      "taf": "TAF EGPF 171659Z 1718/1818 19015G25KT 9999 FEW020 BKN025"
    },
    {
      "icao": "EHBK",
      "alert": "OK",
      "vis_m": 9999,
      "fzfg": false,
      "metar_trigger": false,
      "taf_trigger": false,
      "metar": "METAR EHBK 171825Z AUTO 09005KT 060V120 9999 NSC 11/07 Q1019 NOSIG",
      "taf": "TAF EHBK 171707Z 1718/1824 09007KT CAVOK"
    },
    {
      "icao": "EHEH",
      "alert": "OK",
      "vis_m": 9999,
      "fzfg": false,
      "metar_trigger": false,
      "taf_trigger": false,
      "metar": "METAR EHEH 171825Z AUTO 13007KT 9999 OVC310 12/08 Q1019 BLU NOSIG",
      "taf": "TAF EHEH 171705Z 1718/1824 14007KT CAVOK"
    },
    {
      "icao": "EKBI",
      "alert": "OK",
      "vis_m": 9999,
      "fzfg": false,
      "metar_trigger": false,
      "taf_trigger": false,
      "metar": "METAR EKBI 171820Z AUTO 15007KT 9999 OVC011/// 08/05 Q1021",
      "taf": "TAF EKBI 171727Z 1718/1818 17010KT 9999 BKN030"
    },
    {
      "icao": "EKCH",
      "alert": "OK",
      "vis_m": 9999,
      "fzfg": false,
      "metar_trigger": false,
      "taf_trigger": false,
      "metar": "METAR EKCH 171820Z AUTO 14010KT 9999 NCD 03/02 Q1025 NOSIG",
      "taf": "TAF EKCH 171727Z 1718/1818 15009KT 9999 FEW020"
    },
    {
      "icao": "ENAL",
      "alert": "OK",
      "vis_m": 9999,
      "fzfg": false,
      "metar_trigger": false,
      "taf_trigger": false,
      "metar": "METAR ENAL 171820Z 21019KT 9999 BKN047 12/05 Q1001",
      "taf": "TAF ENAL 171700Z 1718/1803 20018KT 9999 BKN045"
    },
    {
      "icao": "ENBR",
      "alert": "OK",
      "vis_m": 9999,
      "fzfg": false,
      "metar_trigger": false,
      "taf_trigger": false,
      "metar": "METAR ENBR 171820Z 15023G33KT 9999 FEW015 SCT025 BKN030 09/06 Q1009 TEMPO BKN012 RMK WIND 1200FT 16037G49KT",
      "taf": "TAF ENBR 171700Z 1718/1818 16025KT 9999 SCT005 BKN015"
    },
    {
      "icao": "ENGM",
      "alert": "OK",
      "vis_m": 7000,
      "fzfg": false,
      "metar_trigger": false,
      "taf_trigger": false,
      "metar": "METAR ENGM 171820Z 19009KT 7000 -DZ OVC003 04/03 Q1017 TEMPO 4000 -DZ BR",
      "taf": "TAF ENGM 171700Z 1718/1818 20012KT 7000 -DZRA OVC005"
    },
    {
      "icao": "ENHD",
      "alert": "OK",
      "vis_m": 9999,
      "fzfg": false,
      "metar_trigger": false,
      "taf_trigger": false,
      "metar": "METAR ENHD 171820Z 16021G33KT 9999 FEW004 BKN006 08/06 Q1011",
      "taf": "TAF ENHD 171400Z 1715/1723 15020G32KT 8000 BKN004"
    },
    {
      "icao": "ENTC",
      "alert": "OK",
      "vis_m": 9999,
      "fzfg": false,
      "metar_trigger": false,
      "taf_trigger": false,
      "metar": "METAR ENTC 171820Z VRB02KT 9999 FEW056 02/M01 Q1002 TEMPO 18010KT RMK WIND 2600FT 17031KT",
      "taf": "TAF ENTC 171700Z 1718/1818 18009KT 9999 SCT020"
    },
    {
      "icao": "ENTO",
      "alert": "OK",
      "vis_m": 2200,
      "fzfg": false,
      "metar_trigger": false,
      "taf_trigger": false,
      "metar": "METAR ENTO 171820Z 18014KT 2200 DZ VV003 04/04 Q1019 TEMPO 3000 -DZ BR",
      "taf": "TAF ENTO 171700Z 1718/1818 18015KT 3000 -DZRA SCT002 OVC005"
    },
    {
      "icao": "ENVA",
      "alert": "OK",
      "vis_m": 9999,
      "fzfg": false,
      "metar_trigger": false,
      "taf_trigger": false,
      "metar": "METAR ENVA 171820Z 16019KT 130V190 CAVOK 09/01 Q1004 NOSIG RMK WIND 670FT 17027G41KT",
      "taf": "TAF ENVA 171700Z 1718/1818 10009KT 9999 BKN040"
    },
    {
      "icao": "ENZV",
      "alert": "OK",
      "vis_m": 9999,
      "fzfg": false,
      "metar_trigger": false,
      "taf_trigger": false,
      "metar": "METAR ENZV 171820Z 17022KT 9999 BKN010 BKN035 09/06 Q1012 TEMPO 17025G35KT SCT008 BKN015",
      "taf": ""
    },
    {
      "icao": "EPGD",
      "alert": "OK",
      "vis_m": 9999,
      "fzfg": false,
      "metar_trigger": false,
      "taf_trigger": false,
      "metar": "METAR EPGD 171830Z 27002KT 9999 BKN028 03/01 Q1027",
      "taf": "TAF EPGD 171730Z 1718/1818 VRB04KT 9999 SCT025"
    },
    {
      "icao": "EPKK",
      "alert": "OK",
      "vis_m": 9999,
      "fzfg": false,
      "metar_trigger": false,
      "taf_trigger": false,
      "metar": "METAR EPKK 171830Z 05004KT 010V100 9999 SCT033 BKN040 06/03 Q1024",
      "taf": "TAF EPKK 171730Z 1718/1818 04005KT 9999 SCT025"
    },
    {
      "icao": "EPKT",
      "alert": "OK",
      "vis_m": 9999,
      "fzfg": false,
      "metar_trigger": false,
      "taf_trigger": false,
      "metar": "METAR EPKT 171830Z 03004KT 9999 FEW028 BKN038 05/03 Q1024",
      "taf": "TAF EPKT 171708Z 1718/1818 01006KT 9999 BKN020"
    },
    {
      "icao": "EPLB",
      "alert": "OK",
      "vis_m": 9999,
      "fzfg": false,
      "metar_trigger": false,
      "taf_trigger": false,
      "metar": "METAR EPLB 171830Z 35006KT CAVOK 07/03 Q1024",
      "taf": "TAF EPLB 171730Z 1718/1818 36005KT CAVOK"
    },
    {
      "icao": "EPMO",
      "alert": "OK",
      "vis_m": 9999,
      "fzfg": false,
      "metar_trigger": false,
      "taf_trigger": false,
      "metar": "METAR EPMO 171830Z 35004KT CAVOK 06/01 Q1026",
      "taf": "TAF EPMO 171730Z 1718/1818 36006KT 9999 BKN035"
    },
    {
      "icao": "EPPO",
      "alert": "OK",
      "vis_m": 9999,
      "fzfg": false,
      "metar_trigger": false,
      "taf_trigger": false,
      "metar": "METAR EPPO 171830Z 08004KT CAVOK 03/M02 Q1027",
      "taf": "TAF EPPO 171730Z 1718/1818 06005KT CAVOK"
    },
    {
      "icao": "EPRA",
      "alert": "OK",
      "vis_m": 9999,
      "fzfg": false,
      "metar_trigger": false,
      "taf_trigger": false,
      "metar": "METAR EPRA 171830Z 01005KT CAVOK 08/00 Q1025",
      "taf": "TAF EPRA 171730Z 1718/1803 01006KT 9999 SCT045"
    },
    {
      "icao": "EPRZ",
      "alert": "OK",
      "vis_m": 9999,
      "fzfg": false,
      "metar_trigger": false,
      "taf_trigger": false,
      "metar": "METAR EPRZ 171830Z 32004KT CAVOK 07/02 Q1023",
      "taf": "TAF EPRZ 171730Z 1718/1818 35007KT 9999 SCT030"
    },
    {
      "icao": "EPSC",
      "alert": "OK",
      "vis_m": 9999,
      "fzfg": false,
      "metar_trigger": false,
      "taf_trigger": false,
      "metar": "METAR EPSC 171830Z 10002KT CAVOK 03/M01 Q1026",
      "taf": "TAF EPSC 171730Z 1718/1818 14005KT CAVOK"
    },
    {
      "icao": "EPSY",
      "alert": "OK",
      "vis_m": 9999,
      "fzfg": false,
      "metar_trigger": false,
      "taf_trigger": false,
      "metar": "METAR EPSY 171830Z 36003KT 9999 FEW044 03/M00 Q1027",
      "taf": "TAF EPSY 171730Z 1718/1803 35005KT CAVOK"
    },
    {
      "icao": "EPWA",
      "alert": "OK",
      "vis_m": 9999,
      "fzfg": false,
      "metar_trigger": false,
      "taf_trigger": false,
      "metar": "METAR EPWA 171830Z 36007KT CAVOK 09/01 Q1026 NOSIG",
      "taf": "TAF EPWA 171730Z 1718/1818 03008KT CAVOK"
    },
    {
      "icao": "EPWR",
      "alert": "OK",
      "vis_m": 9999,
      "fzfg": false,
      "metar_trigger": false,
      "taf_trigger": false,
      "metar": "METAR EPWR 171830Z 01004KT CAVOK 06/01 Q1026",
      "taf": "TAF EPWR 171730Z 1718/1818 03005KT CAVOK"
    },
    {
      "icao": "ESGG",
      "alert": "OK",
      "vis_m": 9999,
      "fzfg": false,
      "metar_trigger": false,
      "taf_trigger": false,
      "metar": "METAR ESGG 171820Z 17010KT CAVOK 04/02 Q1022",
      "taf": "TAF ESGG 171730Z 1718/1818 17008KT CAVOK"
    },
    {
      "icao": "ESKN",
      "alert": "OK",
      "vis_m": 6000,
      "fzfg": false,
      "metar_trigger": false,
      "taf_trigger": false,
      "metar": "METAR ESKN 171820Z 14005KT 6000 BKN002 01/01 Q1024",
      "taf": "TAF ESKN 171730Z 1718/1818 16008KT 0500 FG VV002"
    },
    {
      "icao": "ESMS",
      "alert": "OK",
      "vis_m": 450,
      "fzfg": false,
      "metar_trigger": false,
      "taf_trigger": false,
      "metar": "METAR ESMS 171820Z 13005KT 100V160 0450 R17/P2000N R35/1400D FG OVC002 00/00 Q1025",
      "taf": "TAF ESMS 171727Z 1718/1818 16007KT 8000 FEW007"
    },
    {
      "icao": "ESSA",
      "alert": "OK",
      "vis_m": 9999,
      "fzfg": false,
      "metar_trigger": false,
      "taf_trigger": false,
      "metar": "METAR ESSA 171820Z 19011KT CAVOK 02/00 Q1023 NOSIG",
      "taf": "TAF ESSA 171730Z 1718/1818 19010KT CAVOK"
    },
    {
      "icao": "EYKA",
      "alert": "OK",
      "vis_m": 9000,
      "fzfg": false,
      "metar_trigger": false,
      "taf_trigger": false,
      "metar": "METAR EYKA 171820Z 31005KT 9000 NSC 06/03 Q1027",
      "taf": "TAF EYKA 171700Z 1718/1818 VRB03KT 9000 SCT035"
    },
    {
      "icao": "EYPA",
      "alert": "OK",
      "vis_m": 650,
      "fzfg": false,
      "metar_trigger": false,
      "taf_trigger": false,
      "metar": "METAR EYPA 171820Z 18002KT 0650 R19/0800N FG VV002 04/04 Q1028",
      "taf": "TAF EYPA 171700Z 1718/1818 VRB02KT 1500 BR OVC002"
    },
    {
      "icao": "EYVI",
      "alert": "OK",
      "vis_m": 9999,
      "fzfg": false,
      "metar_trigger": false,
      "taf_trigger": false,
      "metar": "METAR EYVI 171820Z 35005KT CAVOK 07/02 Q1026 NOSIG",
      "taf": "TAF EYVI 171700Z 1718/1818 VRB04KT 9000 SCT045"
    },
    {
      "icao": "GCFV",
      "alert": "OK",
      "vis_m": 9999,
      "fzfg": false,
      "metar_trigger": false,
      "taf_trigger": false,
      "metar": "METAR GCFV 171830Z 20013KT 9999 FEW025TCU SCT035 20/14 Q1010",
      "taf": "TAF GCFV 171400Z 1715/1815 23013KT 9999 FEW030 TX20/1814Z TN16/1806Z"
    },
    {
      "icao": "GCLP",
      "alert": "OK",
      "vis_m": 9999,
      "fzfg": false,
      "metar_trigger": false,
      "taf_trigger": false,
      "metar": "METAR GCLP 171830Z 21015KT 9999 FEW025 SCT050 21/13 Q1009 NOSIG",
      "taf": "TAF GCLP 171400Z 1715/1815 01009KT 9999 SCT025 TX20/1814Z TN14/1806Z"
    },
    {
      "icao": "GCTS",
      "alert": "OK",
      "vis_m": 9999,
      "fzfg": false,
      "metar_trigger": false,
      "taf_trigger": false,
      "metar": "METAR GCTS 171830Z 27017KT 9999 FEW025 20/13 Q1010 NOSIG",
      "taf": "TAF GCTS 171400Z 1715/1815 25018KT 9999 BKN030 TX23/1814Z TN14/1806Z"
    },
    {
      "icao": "GMAD",
      "alert": "OK",
      "vis_m": 6000,
      "fzfg": false,
      "metar_trigger": false,
      "taf_trigger": false,
      "metar": "METAR GMAD 171830Z 22005KT 6000 SCT030TCU FEW040CB SCT100 16/14 Q1011 TEMPO RA",
      "taf": "TAF GMAD 171700Z 1718/1824 26008KT 8000 SCT026TCU BKN080"
    },
    {
      "icao": "GMMN",
      "alert": "OK",
      "vis_m": 5000,
      "fzfg": false,
      "metar_trigger": false,
      "taf_trigger": false,
      "metar": "METAR GMMN 171830Z 01013KT 330V040 5000 -RA SCT008 SCT016 BKN100 15/13 Q1007 TEMPO 4000 SHRA",
      "taf": "TAF GMMN 171700Z 1718/1824 02012KT 6000 SCT016 BKN100"
    },
    {
      "icao": "GMMX",
      "alert": "OK",
      "vis_m": 6000,
      "fzfg": false,
      "metar_trigger": false,
      "taf_trigger": false,
      "metar": "METAR GMMX 171830Z 31008KT 270V340 6000 SHRA BKN023 FEW030TCU 17/13 Q1008 TEMPO 4000",
      "taf": "TAF GMMX 171700Z 1718/1824 06006KT 8000 SCT033 SCT100"
    },
    {
      "icao": "HEGN",
      "alert": "OK",
      "vis_m": 9999,
      "fzfg": false,
      "metar_trigger": false,
      "taf_trigger": false,
      "metar": "METAR HEGN 171800Z 00000KT CAVOK 22/09 Q1008 NOSIG",
      "taf": "TAF HEGN 171700Z 1718/1824 12010KT CAVOK"
    },
    {
      "icao": "HEMA",
      "alert": "OK",
      "vis_m": 9999,
      "fzfg": false,
      "metar_trigger": false,
      "taf_trigger": false,
      "metar": "METAR HEMA 171800Z 15003KT CAVOK 21/14 Q1010 NOSIG",
      "taf": "TAF HEMA 171700Z 1718/1824 13012KT CAVOK"
    },
    {
      "icao": "HESH",
      "alert": "OK",
      "vis_m": 9999,
      "fzfg": false,
      "metar_trigger": false,
      "taf_trigger": false,
      "metar": "METAR HESH 171800Z 00000KT CAVOK 23/08 Q1009 NOSIG",
      "taf": "TAF HESH 171700Z 1718/1824 30010KT CAVOK"
    },
    {
      "icao": "HESX",
      "alert": "OK",
      "vis_m": 9999,
      "fzfg": false,
      "metar_trigger": false,
      "taf_trigger": false,
      "metar": "METAR HESX 171800Z 06008KT CAVOK 18/05 Q1009 NOSIG",
      "taf": "TAF HESX 171700Z 1718/1824 07009KT CAVOK"
    },
    {
      "icao": "LATI",
      "alert": "OK",
      "vis_m": 9999,
      "fzfg": false,
      "metar_trigger": false,
      "taf_trigger": false,
      "metar": "METAR LATI 171820Z 01004KT 350V050 9999 -DZ BKN032 OVC068 11/08 Q1011 RERA NOSIG",
      "taf": "TAF LATI 171700Z 1718/1818 VRB05KT 9999 FEW030 BKN050 OVC070 TX17/1812Z TN09/1805Z"
    },
    {
      "icao": "LBPD",
      "alert": "OK",
      "vis_m": 9999,
      "fzfg": false,
      "metar_trigger": false,
      "taf_trigger": false,
      "metar": "METAR LBPD 171830Z AUTO 12008KT 9999 SCT250/// 07/M00 Q1017 NOSIG",
      "taf": "TAF LBPD 171700Z 1718/1818 09010KT 9999 SCT070"
    },
    {
      "icao": "LBSF",
      "alert": "OK",
      "vis_m": 9999,
      "fzfg": false,
      "metar_trigger": false,
      "taf_trigger": false,
      "metar": "METAR LBSF 171830Z AUTO 10009KT 9999 FEW053/// 07/M01 Q1015 NOSIG",
      "taf": "TAF LBSF 171700Z 1718/1818 10010KT 9999 SCT040"
    },
    {
      "icao": "LBWN",
      "alert": "OK",
      "vis_m": 9999,
      "fzfg": false,
      "metar_trigger": false,
      "taf_trigger": false,
      "metar": "METAR LBWN 171830Z AUTO 11005KT 070V140 9999 NCD 07/M00 Q1019 NOSIG",
      "taf": "TAF LBWN 171700Z 1718/1818 11010KT 9999 SCT045"
    },
    {
      "icao": "LCLK",
      "alert": "OK",
      "vis_m": 9999,
      "fzfg": false,
      "metar_trigger": false,
      "taf_trigger": false,
      "metar": "METAR LCLK 171830Z 33005KT 310V030 CAVOK 12/10 Q1013 NOSIG",
      "taf": "TAF LCLK 171730Z 1718/1818 35008KT CAVOK"
    },
    {
      "icao": "LCPH",
      "alert": "OK",
      "vis_m": 9999,
      "fzfg": false,
      "metar_trigger": false,
      "taf_trigger": false,
      "metar": "METAR LCPH 171830Z VRB01KT CAVOK 14/10 Q1012 NOSIG",
      "taf": "TAF LCPH 171730Z 1718/1818 07008KT 9999 FEW030"
    },
    {
      "icao": "LEAL",
      "alert": "OK",
      "vis_m": 9999,
      "fzfg": false,
      "metar_trigger": false,
      "taf_trigger": false,
      "metar": "METAR LEAL 171830Z VRB01KT CAVOK 16/03 Q1014 NOSIG",
      "taf": "TAF LEAL 171700Z 1718/1818 VRB04KT CAVOK TX19/1812Z TN09/1806Z"
    },
    {
      "icao": "LEBB",
      "alert": "OK",
      "vis_m": 9999,
      "fzfg": false,
      "metar_trigger": false,
      "taf_trigger": false,
      "metar": "METAR LEBB 171830Z 25001KT CAVOK 18/07 Q1008 NOSIG",
      "taf": "TAF LEBB 171700Z 1718/1818 12009KT CAVOK TX26/1814Z TN09/1806Z"
    },
    {
      "icao": "LEBL",
      "alert": "OK",
      "vis_m": 9999,
      "fzfg": false,
      "metar_trigger": false,
      "taf_trigger": false,
      "metar": "METAR LEBL 171830Z 13002KT 9999 FEW008 14/13 Q1014 NOSIG",
      "taf": "TAF LEBL 171700Z 1718/1818 14008KT CAVOK TX16/1813Z TN08/1806Z"
    },
    {
      "icao": "LECH",
      "alert": "OK",
      "vis_m": 9999,
      "fzfg": false,
      "metar_trigger": false,
      "taf_trigger": false,
      "metar": "METAR LECH 171830Z AUTO VRB01KT CAVOK 12/06 Q1013",
      "taf": ""
    },
    {
      "icao": "LEMD",
      "alert": "OK",
      "vis_m": 9999,
      "fzfg": false,
      "metar_trigger": false,
      "taf_trigger": false,
      "metar": "METAR LEMD 171830Z VRB01KT CAVOK 17/00 Q1010 NOSIG",
      "taf": "TAF LEMD 171700Z 1718/1824 VRB04KT CAVOK TX20/1815Z TN04/1806Z"
    },
    {
      "icao": "LEMG",
      "alert": "OK",
      "vis_m": 9999,
      "fzfg": false,
      "metar_trigger": false,
      "taf_trigger": false,
      "metar": "METAR LEMG 171830Z 11004KT 020V190 CAVOK 14/08 Q1011 NOSIG",
      "taf": "TAF LEMG 171700Z 1718/1818 12010KT CAVOK TX19/1814Z TN08/1807Z"
    },
    {
      "icao": "LEVC",
      "alert": "OK",
      "vis_m": 9999,
      "fzfg": false,
      "metar_trigger": false,
      "taf_trigger": false,
      "metar": "METAR LEVC 171830Z 07004KT CAVOK 16/08 Q1013 NOSIG",
      "taf": "TAF LEVC 171700Z 1718/1818 10009KT CAVOK TX18/1812Z TN06/1805Z"
    },
    {
      "icao": "LEXJ",
      "alert": "OK",
      "vis_m": 9999,
      "fzfg": false,
      "metar_trigger": false,
      "taf_trigger": false,
      "metar": "METAR LEXJ 171830Z 08003KT 050V110 CAVOK 13/09 Q1008",
      "taf": ""
    },
    {
      "icao": "LEZG",
      "alert": "OK",
      "vis_m": 9999,
      "fzfg": false,
      "metar_trigger": false,
      "taf_trigger": false,
      "metar": "METAR LEZG 171830Z 12007KT CAVOK 18/05 Q1011 NOSIG",
      "taf": "TAF LEZG 171700Z 1718/1818 10010KT CAVOK TX21/1814Z TN07/1806Z"
    },
    {
      "icao": "LEZL",
      "alert": "OK",
      "vis_m": 9999,
      "fzfg": false,
      "metar_trigger": false,
      "taf_trigger": false,
      "metar": "METAR LEZL 171830Z 23006KT CAVOK 22/02 Q1008 NOSIG",
      "taf": "TAF LEZL 171400Z 1715/1815 VRB03KT CAVOK TX25/1715Z TN10/1807Z"
    },
    {
      "icao": "LFBD",
      "alert": "OK",
      "vis_m": 9999,
      "fzfg": false,
      "metar_trigger": false,
      "taf_trigger": false,
      "metar": "METAR LFBD 171830Z AUTO 08005KT 040V100 CAVOK 18/08 Q1011 NOSIG",
      "taf": "TAF LFBD 171700Z 1718/1824 10008KT CAVOK TX21/1815Z TN07/1806Z"
    },
    {
      "icao": "LFLL",
      "alert": "OK",
      "vis_m": 9999,
      "fzfg": false,
      "metar_trigger": false,
      "taf_trigger": false,
      "metar": "METAR LFLL 171830Z 31003KT 290V350 CAVOK 13/06 Q1016 NOSIG",
      "taf": "TAF LFLL 171700Z 1718/1824 34005KT CAVOK"
    },
    {
      "icao": "LFLS",
      "alert": "OK",
      "vis_m": 9999,
      "fzfg": false,
      "metar_trigger": false,
      "taf_trigger": false,
      "metar": "METAR LFLS 171830Z AUTO 35002KT CAVOK 10/04 Q1016 NOSIG",
      "taf": "TAF LFLS 171400Z 1715/1815 02005KT CAVOK"
    },
    {
      "icao": "LFMN",
      "alert": "OK",
      "vis_m": 9999,
      "fzfg": false,
      "metar_trigger": false,
      "taf_trigger": false,
      "metar": "METAR LFMN 171830Z 28003KT 250V310 CAVOK 15/05 Q1014 NOSIG",
      "taf": "TAF LFMN 171400Z 1715/1821 18004KT CAVOK"
    },
    {
      "icao": "LFOB",
      "alert": "OK",
      "vis_m": 9999,
      "fzfg": false,
      "metar_trigger": false,
      "taf_trigger": false,
      "metar": "METAR LFOB 171830Z AUTO 12006KT CAVOK 09/07 Q1017 NOSIG",
      "taf": "TAF LFOB 171700Z 1718/1818 15006KT CAVOK"
    },
    {
      "icao": "LFPO",
      "alert": "OK",
      "vis_m": 9999,
      "fzfg": false,
      "metar_trigger": false,
      "taf_trigger": false,
      "metar": "METAR LFPO 171830Z 10004KT CAVOK 14/07 Q1017 NOSIG",
      "taf": "TAF LFPO 171700Z 1718/1824 12005KT CAVOK"
    },
    {
      "icao": "LFSB",
      "alert": "OK",
      "vis_m": 9999,
      "fzfg": false,
      "metar_trigger": false,
      "taf_trigger": false,
      "metar": "METAR LFSB 171830Z AUTO 10006KT 9999 FEW014 BKN054 11/03 Q1019 NOSIG",
      "taf": "TAF LFSB 171700Z 1718/1818 VRB04KT 9999 BKN055"
    },
    {
      "icao": "LGAV",
      "alert": "OK",
      "vis_m": 9999,
      "fzfg": false,
      "metar_trigger": false,
      "taf_trigger": false,
      "metar": "METAR LGAV 171820Z 02010KT 9999 FEW020 BKN070 12/02 Q1013 NOSIG",
      "taf": "TAF LGAV 171700Z 1718/1818 02012KT 9999 SCT020 BKN070"
    },
    {
      "icao": "LGTS",
      "alert": "OK",
      "vis_m": 9999,
      "fzfg": false,
      "metar_trigger": false,
      "taf_trigger": false,
      "metar": "METAR LGTS 171820Z VRB03KT 9999 SCT025 11/04 Q1015 NOSIG",
      "taf": "TAF LGTS 171700Z 1718/1818 14013KT 9999 SCT025"
    },
    {
      "icao": "LHBP",
      "alert": "OK",
      "vis_m": 9999,
      "fzfg": false,
      "metar_trigger": false,
      "taf_trigger": false,
      "metar": "METAR LHBP 171830Z 36007KT 9999 SCT047 BKN090 08/04 Q1019 NOSIG",
      "taf": "TAF LHBP 171715Z 1718/1818 01007KT 9999 SCT040 BKN080"
    },
    {
      "icao": "LHDC",
      "alert": "OK",
      "vis_m": 9999,
      "fzfg": false,
      "metar_trigger": false,
      "taf_trigger": false,
      "metar": "METAR LHDC 171815Z AUTO 02011KT 340V040 CAVOK 11/03 Q1018 NOSIG",
      "taf": "TAF LHDC 171415Z 1715/1724 12006KT CAVOK"
    },
    {
      "icao": "LIBD",
      "alert": "OK",
      "vis_m": 9999,
      "fzfg": false,
      "metar_trigger": false,
      "taf_trigger": false,
      "metar": "METAR LIBD 171820Z 27007KT 9999 FEW040 10/08 Q1011",
      "taf": "TAF LIBD 171700Z 1718/1818 28008KT 9999 SCT030"
    },
    {
      "icao": "LIBG",
      "alert": "OK",
      "vis_m": 9000,
      "fzfg": false,
      "metar_trigger": false,
      "taf_trigger": false,
      "metar": "METAR LIBG 171750Z 33004KT 290V040 9000 RA FEW020 SCT035 10/08 Q1011",
      "taf": "TAF LIBG 171700Z 1718/1803 VRB06KT 9999 SCT025"
    },
    {
      "icao": "LIBP",
      "alert": "OK",
      "vis_m": 9999,
      "fzfg": false,
      "metar_trigger": false,
      "taf_trigger": false,
      "metar": "METAR LIBP 171820Z AUTO 03008KT 9999 RA FEW023/// BKN059/// BKN090/// 11/04 Q1015",
      "taf": "TAF LIBP 171700Z 1718/1818 02008KT 9999 BKN030"
    },
    {
      "icao": "LIBR",
      "alert": "OK",
      "vis_m": 7000,
      "fzfg": false,
      "metar_trigger": false,
      "taf_trigger": false,
      "metar": "METAR LIBR 171820Z 34011KT 7000 -RA BKN035 11/09 Q1010",
      "taf": "TAF LIBR 171700Z 1718/1818 34008KT 9999 BKN035"
    },
    {
      "icao": "LICA",
      "alert": "OK",
      "vis_m": 9999,
      "fzfg": false,
      "metar_trigger": false,
      "taf_trigger": false,
      "metar": "METAR LICA 171820Z AUTO 04005KT 9999 BKN060/// OVC110/// 13/10 Q1009",
      "taf": "TAF LICA 171700Z 1718/1818 08010KT 9999 BKN040"
    },
    {
      "icao": "LICC",
      "alert": "OK",
      "vis_m": 8000,
      "fzfg": false,
      "metar_trigger": false,
      "taf_trigger": false,
      "metar": "METAR LICC 171820Z 05012KT 8000 -RA SCT025 BKN080 14/12 Q1008",
      "taf": "TAF LICC 171700Z 1718/1818 06010KT 9999 BKN030"
    },
    {
      "icao": "LICJ",
      "alert": "OK",
      "vis_m": 9999,
      "fzfg": false,
      "metar_trigger": false,
      "taf_trigger": false,
      "metar": "METAR LICJ 171820Z 05015KT 9999 SCT020 15/11 Q1010",
      "taf": "TAF LICJ 171700Z 1718/1818 03016KT 9999 SCT020"
    },
    {
      "icao": "LIMC",
      "alert": "OK",
      "vis_m": 9999,
      "fzfg": false,
      "metar_trigger": false,
      "taf_trigger": false,
      "metar": "METAR LIMC 171820Z 11003KT CAVOK 13/04 Q1015 NOSIG",
      "taf": "TAF LIMC 171700Z 1718/1824 VRB05KT 9999 SCT050"
    },
    {
      "icao": "LIME",
      "alert": "OK",
      "vis_m": 9999,
      "fzfg": false,
      "metar_trigger": false,
      "taf_trigger": false,
      "metar": "METAR LIME 171820Z 10004KT 9999 SCT060 12/03 Q1016 NOSIG",
      "taf": "TAF LIME 171700Z 1718/1818 VRB06KT 9999 SCT050"
    },
    {
      "icao": "LIMF",
      "alert": "OK",
      "vis_m": 9999,
      "fzfg": false,
      "metar_trigger": false,
      "taf_trigger": false,
      "metar": "METAR LIMF 171820Z 07004KT CAVOK 12/04 Q1014",
      "taf": "TAF LIMF 171700Z 1718/1818 VRB05KT 9999 SCT030"
    },
    {
      "icao": "LIMJ",
      "alert": "OK",
      "vis_m": 9999,
      "fzfg": false,
      "metar_trigger": false,
      "taf_trigger": false,
      "metar": "METAR LIMJ 171820Z 03007KT CAVOK 16/04 Q1013",
      "taf": "TAF LIMJ 171700Z 1718/1818 35012KT 9999 SCT020"
    },
    {
      "icao": "LIPE",
      "alert": "OK",
      "vis_m": 9999,
      "fzfg": false,
      "metar_trigger": false,
      "taf_trigger": false,
      "metar": "METAR LIPE 171820Z 10008KT CAVOK 12/01 Q1016",
      "taf": "TAF LIPE 171700Z 1718/1818 09010KT 9999 FEW050"
    },
    {
      "icao": "LIPH",
      "alert": "OK",
      "vis_m": 9999,
      "fzfg": false,
      "metar_trigger": false,
      "taf_trigger": false,
      "metar": "METAR LIPH 171820Z VRB01KT 9999 BKN070 11/03 Q1017",
      "taf": "TAF LIPH 171700Z 1718/1818 VRB04KT 9999 SCT035"
    },
    {
      "icao": "LIPQ",
      "alert": "OK",
      "vis_m": 9999,
      "fzfg": false,
      "metar_trigger": false,
      "taf_trigger": false,
      "metar": "METAR LIPQ 171820Z AUTO 08005KT 9999 BKN100/// 11/M03 Q1018",
      "taf": "TAF LIPQ 171700Z 1718/1818 06006KT 9999 SCT060"
    },
    {
      "icao": "LIPR",
      "alert": "OK",
      "vis_m": 9999,
      "fzfg": false,
      "metar_trigger": false,
      "taf_trigger": false,
      "metar": "METAR LIPR 171820Z 08003KT 9999 FEW060 11/04 Q1017",
      "taf": "TAF LIPR 171700Z 1718/1818 09005KT 9999 FEW045"
    },
    {
      "icao": "LIPX",
      "alert": "OK",
      "vis_m": 9999,
      "fzfg": false,
      "metar_trigger": false,
      "taf_trigger": false,
      "metar": "METAR LIPX 171820Z 10007KT 9999 SCT090 12/01 Q1017",
      "taf": "TAF LIPX 171700Z 1718/1818 VRB05KT 9999 SCT030"
    },
    {
      "icao": "LIPY",
      "alert": "OK",
      "vis_m": 9999,
      "fzfg": false,
      "metar_trigger": false,
      "taf_trigger": false,
      "metar": "METAR LIPY 171820Z AUTO 03014KT 9999 NCD 11/02 Q1016",
      "taf": "TAF LIPY 171700Z 1718/1818 03012KT 9999 SCT040"
    },
    {
      "icao": "LIPZ",
      "alert": "OK",
      "vis_m": 9999,
      "fzfg": false,
      "metar_trigger": false,
      "taf_trigger": false,
      "metar": "METAR LIPZ 171820Z VRB02KT 9999 SCT070 11/03 Q1017 NOSIG",
      "taf": "TAF LIPZ 171700Z 1718/1824 06005KT CAVOK"
    },
    {
      "icao": "LIRF",
      "alert": "OK",
      "vis_m": 9999,
      "fzfg": false,
      "metar_trigger": false,
      "taf_trigger": false,
      "metar": "METAR LIRF 171820Z 01013KT CAVOK 14/M02 Q1011 NOSIG",
      "taf": "TAF LIRF 171700Z 1718/1824 01015KT CAVOK"
    },
    {
      "icao": "LIRN",
      "alert": "OK",
      "vis_m": 9999,
      "fzfg": false,
      "metar_trigger": false,
      "taf_trigger": false,
      "metar": "METAR LIRN 171820Z 07005KT 030V110 9999 BKN060 12/04 Q1012 NOSIG",
      "taf": "TAF LIRN 171700Z 1718/1818 03008KT 9999 BKN040"
    },
    {
      "icao": "LIRP",
      "alert": "OK",
      "vis_m": 9999,
      "fzfg": false,
      "metar_trigger": false,
      "taf_trigger": false,
      "metar": "METAR LIRP 171815Z 09010KT 9999 FEW040 SCT080 14/M02 Q1014 NOSIG",
      "taf": "TAF LIRP 171700Z 1718/1818 09014KT 9999 SCT030 SCT060"
    },
    {
      "icao": "LIRZ",
      "alert": "OK",
      "vis_m": 9999,
      "fzfg": false,
      "metar_trigger": false,
      "taf_trigger": false,
      "metar": "METAR LIRZ 171820Z AUTO 03012KT 360V060 9999 NCD 10/01 Q1015",
      "taf": "TAF LIRZ 171700Z 1718/1818 03014KT CAVOK"
    },
    {
      "icao": "LJLJ",
      "alert": "OK",
      "vis_m": 9999,
      "fzfg": false,
      "metar_trigger": false,
      "taf_trigger": false,
      "metar": "METAR LJLJ 171830Z VRB01KT 9999 FEW077 SCT085 03/00 Q1019 NOSIG",
      "taf": "TAF LJLJ 171700Z 1718/1818 12006KT 9999 FEW050"
    },
    {
      "icao": "LKMT",
      "alert": "OK",
      "vis_m": 9999,
      "fzfg": false,
      "metar_trigger": false,
      "taf_trigger": false,
      "metar": "METAR LKMT 171830Z 01007KT 9999 -RA BKN024 OVC029 05/03 Q1024 NOSIG",
      "taf": "TAF LKMT 171700Z 1718/1818 04008KT 9999 SCT018 BKN035"
    },
    {
      "icao": "LKPR",
      "alert": "OK",
      "vis_m": 9999,
      "fzfg": false,
      "metar_trigger": false,
      "taf_trigger": false,
      "metar": "METAR LKPR 171830Z 08005KT CAVOK 05/M04 Q1024 NOSIG",
      "taf": "TAF LKPR 171700Z 1718/1824 03005KT CAVOK"
    },
    {
      "icao": "LLBG",
      "alert": "OK",
      "vis_m": 9999,
      "fzfg": false,
      "metar_trigger": false,
      "taf_trigger": false,
      "metar": "METAR LLBG 171820Z VRB02KT CAVOK 16/12 Q1010 NOSIG",
      "taf": "TAF LLBG 171703Z 1718/1818 VRB04KT CAVOK TX29/1812Z TN09/1803Z"
    },
    {
      "icao": "LMML",
      "alert": "OK",
      "vis_m": 9999,
      "fzfg": false,
      "metar_trigger": false,
      "taf_trigger": false,
      "metar": "METAR LMML 171815Z 02015KT 9999 FEW012 14/11 Q1006 NOSIG",
      "taf": "TAF LMML 171700Z 1718/1818 03015KT 9999 FEW020"
    },
    {
      "icao": "LOWW",
      "alert": "OK",
      "vis_m": 9999,
      "fzfg": false,
      "metar_trigger": false,
      "taf_trigger": false,
      "metar": "METAR LOWW 171820Z 33008KT 9999 FEW036 05/02 Q1022 NOSIG",
      "taf": "TAF LOWW 171715Z 1718/1824 34012KT 9999 BKN040 TX16/1815Z TN04/1723Z"
    },
    {
      "icao": "LPFR",
      "alert": "OK",
      "vis_m": 9999,
      "fzfg": false,
      "metar_trigger": false,
      "taf_trigger": false,
      "metar": "METAR LPFR 171830Z 17004KT 9999 FEW015 BKN024 16/14 Q1009",
      "taf": "TAF LPFR 171700Z 1718/1818 16010KT 9999 SCT015 BKN025"
    },
    {
      "icao": "LPMA",
      "alert": "OK",
      "vis_m": 9999,
      "fzfg": false,
      "metar_trigger": false,
      "taf_trigger": false,
      "metar": "METAR LPMA 171830Z 04006KT 010V080 9999 SCT015 FEW018TCU 17/12 Q1005",
      "taf": "TAF LPMA 171700Z 1718/1818 VRB05KT 9999 SCT015"
    },
    {
      "icao": "LPPR",
      "alert": "OK",
      "vis_m": 9999,
      "fzfg": false,
      "metar_trigger": false,
      "taf_trigger": false,
      "metar": "METAR LPPR 171830Z 00000KT CAVOK 16/08 Q1006",
      "taf": "TAF LPPR 171700Z 1718/1818 VRB02KT 9999 SCT030"
    },
    {
      "icao": "LPPS",
      "alert": "OK",
      "vis_m": 9999,
      "fzfg": false,
      "metar_trigger": false,
      "taf_trigger": false,
      "metar": "METAR LPPS 171830Z 28011KT 9999 SCT013 16/13 Q1005",
      "taf": "TAF LPPS 171700Z 1718/1824 27010KT 9999 SCT015"
    },
    {
      "icao": "LPPT",
      "alert": "OK",
      "vis_m": 9999,
      "fzfg": false,
      "metar_trigger": false,
      "taf_trigger": false,
      "metar": "METAR LPPT 171830Z 20018KT 9999 BKN014 16/13 Q1008",
      "taf": "TAF LPPT 171700Z 1718/1824 22018KT 9999 SCT015 BKN025"
    },
    {
      "icao": "LQBK",
      "alert": "OK",
      "vis_m": 6000,
      "fzfg": false,
      "metar_trigger": false,
      "taf_trigger": false,
      "metar": "METAR LQBK 171830Z 34005KT 6000 RA SCT012 OVC025 05/03 Q1018 NOSIG",
      "taf": "TAF LQBK 171700Z 1718/1818 30005KT 9999 BKN020 OVC030 TX12/1814Z TN03/1806Z"
    },
    {
      "icao": "LQSA",
      "alert": "OK",
      "vis_m": 7000,
      "fzfg": false,
      "metar_trigger": false,
      "taf_trigger": false,
      "metar": "METAR LQSA 171830Z 30007KT 7000 RA BKN015 BKN025 02/01 Q1015 NOSIG",
      "taf": "TAF LQSA 171700Z 1718/1818 28007KT 9999 SCT025 BKN040 TX09/1814Z TN01/1804Z"
    },
    {
      "icao": "LQTZ",
      "alert": "OK",
      "vis_m": 6000,
      "fzfg": false,
      "metar_trigger": false,
      "taf_trigger": false,
      "metar": "METAR LQTZ 171830Z VRB02KT 6000 -RA OVC014 04/04 Q1017",
      "taf": "TAF LQTZ 171700Z 1718/1818 02006KT 9999 SCT015 BKN030 TX12/1813Z TN01/1806Z"
    },
    {
      "icao": "LRBC",
      "alert": "OK",
      "vis_m": 9999,
      "fzfg": false,
      "metar_trigger": false,
      "taf_trigger": false,
      "metar": "METAR LRBC 171830Z 29004KT CAVOK 05/M01 Q1021",
      "taf": "TAF LRBC 171700Z 1718/1803 VRB04KT CAVOK"
    },
    {
      "icao": "LRBS",
      "alert": "OK",
      "vis_m": 9999,
      "fzfg": false,
      "metar_trigger": false,
      "taf_trigger": false,
      "metar": "METAR LRBS 171830Z 07007KT CAVOK 06/00 Q1019 NOSIG",
      "taf": "TAF LRBS 171700Z 1718/1818 09008KT CAVOK"
    },
    {
      "icao": "LRBV",
      "alert": "OK",
      "vis_m": 9999,
      "fzfg": false,
      "metar_trigger": false,
      "taf_trigger": false,
      "metar": "METAR LRBV 171830Z 10007KT 080V150 9999 FEW062 07/M02 Q1018",
      "taf": "TAF LRBV 171700Z 1718/1803 10008KT 9999 BKN050"
    },
    {
      "icao": "LRCL",
      "alert": "OK",
      "vis_m": 9999,
      "fzfg": false,
      "metar_trigger": false,
      "taf_trigger": false,
      "metar": "METAR LRCL 171830Z COR VRB02KT CAVOK 05/M04 Q1018",
      "taf": "TAF LRCL 171700Z 1718/1803 VRB04KT CAVOK"
    },
    {
      "icao": "LRCV",
      "alert": "OK",
      "vis_m": 9999,
      "fzfg": false,
      "metar_trigger": false,
      "taf_trigger": false,
      "metar": "METAR LRCV 171830Z 07009KT CAVOK 07/02 Q1017",
      "taf": "TAF LRCV 171700Z 1718/1803 08010KT CAVOK"
    },
    {
      "icao": "LRIA",
      "alert": "OK",
      "vis_m": 9999,
      "fzfg": false,
      "metar_trigger": false,
      "taf_trigger": false,
      "metar": "METAR LRIA 171830Z 11006KT CAVOK 09/M03 Q1021",
      "taf": "TAF LRIA 171700Z 1718/1803 VRB04KT CAVOK"
    },
    {
      "icao": "LROP",
      "alert": "OK",
      "vis_m": 9999,
      "fzfg": false,
      "metar_trigger": false,
      "taf_trigger": false,
      "metar": "METAR LROP 171830Z 09007KT CAVOK 08/M03 Q1019 NOSIG",
      "taf": "TAF LROP 171700Z 1718/1818 09008KT CAVOK"
    },
    {
      "icao": "LRSB",
      "alert": "OK",
      "vis_m": 9999,
      "fzfg": false,
      "metar_trigger": false,
      "taf_trigger": false,
      "metar": "METAR LRSB 171830Z 18004KT 9999 SCT087 10/M03 Q1017",
      "taf": "TAF LRSB 171700Z 1718/1818 14006KT 9999 BKN050"
    },
    {
      "icao": "LRSM",
      "alert": "OK",
      "vis_m": 9999,
      "fzfg": false,
      "metar_trigger": false,
      "taf_trigger": false,
      "metar": "METAR LRSM 171830Z AUTO 34005KT 9999 FEW085/// SCT100/// 09/03 Q1018",
      "taf": "TAF LRSM 171400Z 1715/1724 04008KT CAVOK"
    },
    {
      "icao": "LRSV",
      "alert": "OK",
      "vis_m": 9999,
      "fzfg": false,
      "metar_trigger": false,
      "taf_trigger": false,
      "metar": "METAR LRSV 171830Z 07005KT CAVOK 07/M03 Q1021",
      "taf": "TAF LRSV 171700Z 1718/1803 09007KT CAVOK"
    },
    {
      "icao": "LRTM",
      "alert": "OK",
      "vis_m": 9999,
      "fzfg": false,
      "metar_trigger": false,
      "taf_trigger": false,
      "metar": "METAR LRTM 171830Z AUTO 10005KT 9999 NCD 10/M01 Q1018",
      "taf": "TAF LRTM 171400Z 1715/1724 VRB04KT CAVOK"
    },
    {
      "icao": "LRTR",
      "alert": "OK",
      "vis_m": 9999,
      "fzfg": false,
      "metar_trigger": false,
      "taf_trigger": false,
      "metar": "METAR LRTR 171830Z 03006KT CAVOK 10/03 Q1016",
      "taf": "TAF LRTR 171700Z 1718/1818 02006KT CAVOK"
    },
    {
      "icao": "LTAC",
      "alert": "OK",
      "vis_m": 9999,
      "fzfg": false,
      "metar_trigger": false,
      "taf_trigger": false,
      "metar": "METAR LTAC 171820Z 03005KT 9999 FEW040 SCT100 07/01 Q1013 NOSIG RMK RWY21C 01006KT RWY03L 03005KT RWY21R 01007KT RWY03R 01004KT RWY21L 01007KT",
      "taf": "TAF LTAC 171640Z 1718/1818 VRB02KT 9999 SCT040 SCT100"
    },
    {
      "icao": "LTFM",
      "alert": "OK",
      "vis_m": 9999,
      "fzfg": false,
      "metar_trigger": false,
      "taf_trigger": false,
      "metar": "METAR LTFM 171820Z 05012KT 9999 FEW012 SCT022 07/05 Q1017 NOSIG RMK RWY17L 05011KT RWY34L 04010KT RWY16R 05011KT RWY36 05012KT RWY18 06010KT",
      "taf": "TAF LTFM 171640Z 1718/1824 05015KT 9999 FEW012 SCT022 BKN180"
    },
    {
      "icao": "LUKK",
      "alert": "OK",
      "vis_m": 9999,
      "fzfg": false,
      "metar_trigger": false,
      "taf_trigger": false,
      "metar": "METAR LUKK 171830Z 10005KT CAVOK 08/M02 Q1022 NOSIG",
      "taf": "TAF LUKK 171725Z 1718/1818 VRB05KT CAVOK"
    },
    {
      "icao": "LWOH",
      "alert": "OK",
      "vis_m": 9999,
      "fzfg": false,
      "metar_trigger": false,
      "taf_trigger": false,
      "metar": "METAR LWOH 171820Z 17008KT 130V210 9999 SCT040 OVC090 09/05 Q1011",
      "taf": "TAF LWOH 171720Z 1718/1818 15012KT 9999 SCT040 BKN090"
    },
    {
      "icao": "LWSK",
      "alert": "OK",
      "vis_m": 9999,
      "fzfg": false,
      "metar_trigger": false,
      "taf_trigger": false,
      "metar": "METAR LWSK 171820Z 16005KT 110V200 9999 BKN081 11/05 Q1012 NOSIG",
      "taf": "TAF LWSK 171720Z 1718/1818 14010KT 9999 SCT040 BKN080"
    },
    {
      "icao": "LYBE",
      "alert": "OK",
      "vis_m": 9999,
      "fzfg": false,
      "metar_trigger": false,
      "taf_trigger": false,
      "metar": "METAR LYBE 171830Z 10010KT 9999 BKN045 11/02 Q1016 NOSIG",
      "taf": "TAF LYBE 171700Z 1718/1818 05008KT CAVOK TX14/1813Z TN07/1802Z"
    },
    {
      "icao": "LYNI",
      "alert": "OK",
      "vis_m": 9999,
      "fzfg": false,
      "metar_trigger": false,
      "taf_trigger": false,
      "metar": "METAR LYNI 171830Z 11006KT 080V170 9999 FEW060 12/00 Q1013 NOSIG",
      "taf": "TAF LYNI 171700Z 1718/1818 06010KT 9999 SCT050 BKN080 TX14/1814Z TN08/1805Z"
    },
    {
      "icao": "LYPG",
      "alert": "OK",
      "vis_m": 9999,
      "fzfg": false,
      "metar_trigger": false,
      "taf_trigger": false,
      "metar": "METAR LYPG 171830Z 34011KT 9999 -RA FEW030 SCT040 OVC070 08/07 Q1012 NOSIG",
      "taf": "TAF LYPG 171700Z 1718/1818 36010KT 9999 BKN040 OVC070 TX15/1812Z TN07/1804Z"
    },
    {
      "icao": "LZIB",
      "alert": "OK",
      "vis_m": 9999,
      "fzfg": false,
      "metar_trigger": false,
      "taf_trigger": false,
      "metar": "METAR LZIB 171830Z 02009KT 9999 -RA BKN032 BKN037 08/01 Q1021 NOSIG",
      "taf": "TAF LZIB 171715Z 1718/1818 01011KT 9999 SCT040"
    },
    {
      "icao": "LZKZ",
      "alert": "OK",
      "vis_m": 9999,
      "fzfg": false,
      "metar_trigger": false,
      "taf_trigger": false,
      "metar": "METAR LZKZ 171830Z 36016KT CAVOK 08/03 Q1020 NOSIG",
      "taf": "TAF LZKZ 171715Z 1718/1818 01015KT CAVOK"
    },
    {
      "icao": "LZTT",
      "alert": "OK",
      "vis_m": 9999,
      "fzfg": false,
      "metar_trigger": false,
      "taf_trigger": false,
      "metar": "METAR LZTT 171830Z 04012KT 9999 BKN013 OVC018 04/01 Q1021",
      "taf": "TAF LZTT 171715Z 1718/1818 07011KT 9999 SCT013 BKN035"
    },
    {
      "icao": "OEJN",
      "alert": "OK",
      "vis_m": 9999,
      "fzfg": false,
      "metar_trigger": false,
      "taf_trigger": false,
      "metar": "METAR OEJN 171800Z 35006KT 9999 SCT040 27/15 Q1008 NOSIG",
      "taf": "TAF OEJN 171700Z 1718/1824 36005KT 7000 SCT040"
    },
    {
      "icao": "OEMA",
      "alert": "OK",
      "vis_m": 9999,
      "fzfg": false,
      "metar_trigger": false,
      "taf_trigger": false,
      "metar": "METAR OEMA 171800Z 22005KT CAVOK 29/08 Q1012 NOSIG",
      "taf": "TAF OEMA 171700Z 1718/1824 VRB03KT 9999 SCT045"
    },
    {
      "icao": "OJAI",
      "alert": "OK",
      "vis_m": 5000,
      "fzfg": false,
      "metar_trigger": false,
      "taf_trigger": false,
      "metar": "METAR OJAI 171800Z 03008KT 5000 HZ NSC 17/04 Q1013 NOSIG",
      "taf": "TAF OJAI 171638Z 1718/1824 13010KT 5000 HZ NSC"
    },
    {
      "icao": "OMAA",
      "alert": "OK",
      "vis_m": null,
      "fzfg": false,
      "metar_trigger": false,
      "taf_trigger": false,
      "metar": "",
      "taf": ""
    },
    {
      "icao": "OMDB",
      "alert": "OK",
      "vis_m": null,
      "fzfg": false,
      "metar_trigger": false,
      "taf_trigger": false,
      "metar": "",
      "taf": ""
    },
    {
      "icao": "UAAA",
      "alert": "OK",
      "vis_m": 9999,
      "fzfg": false,
      "metar_trigger": false,
      "taf_trigger": false,
      "metar": "METAR UAAA 171830Z VRB01MPS 9999 FEW050 BKN100 02/M03 Q1016 NOSIG",
      "taf": "TAF UAAA 171705Z 1718/1818 23002MPS 9999 SCT050 TX11/1809Z TNM01/1801Z"
    },
    {
      "icao": "UBBB",
      "alert": "OK",
      "vis_m": 9999,
      "fzfg": false,
      "metar_trigger": false,
      "taf_trigger": false,
      "metar": "METAR UBBB 171830Z 32018KT 9999 FEW050CB SCT050 09/05 Q1017 NOSIG",
      "taf": "TAF UBBB 171659Z 1718/1818 30010KT 9999 BKN030 TX14/1810Z TN05/1801Z"
    },
    {
      "icao": "UDSG",
      "alert": "OK",
      "vis_m": 9999,
      "fzfg": false,
      "metar_trigger": false,
      "taf_trigger": false,
      "metar": "METAR UDSG 171830Z 23003KT 180V270 9999 FEW049 01/M01 Q1017 NOSIG",
      "taf": "TAF UDSG 171700Z 1718/1818 VRB06KT 9999 FEW050"
    },
    {
      "icao": "UDYZ",
      "alert": "OK",
      "vis_m": 9999,
      "fzfg": false,
      "metar_trigger": false,
      "taf_trigger": false,
      "metar": "METAR UDYZ 171830Z 24005KT 9999 FEW046 07/03 Q1015 NOSIG",
      "taf": "TAF UDYZ 171700Z 1718/1818 04006KT 9999 FEW040"
    },
    {
      "icao": "UGKO",
      "alert": "OK",
      "vis_m": 9999,
      "fzfg": false,
      "metar_trigger": false,
      "taf_trigger": false,
      "metar": "METAR UGKO 171830Z 09002KT 9999 SCT048 06/06 Q1019 NOSIG",
      "taf": "TAF UGKO 171700Z 1718/1818 VRB02KT CAVOK TX19/1812Z TN03/1803Z"
    }
  ]
}