{
  "ts_utc": "2026-01-20T21:49:49Z",
  "threshold_m": 150,
  "source": "stations_override.txt (ICAO list) + aviationweather.gov (METAR/TAF raw)",
  "station_count": 159,
  "stations": [
    {
      "icao": "BIKF",
      "alert": "OK",
      "vis_m": 9999,
      "fzfg": false,
      "metar_trigger": false,
      "taf_trigger": false,
      "metar": "METAR BIKF 202100Z 05009KT CAVOK 02/M01 Q1002",
      "taf": "TAF BIKF 201941Z 2021/2121 05012KT 9999 FEW020 BKN045 TX05/2117Z TN01/2101Z"
    },
    {
      "icao": "BKPR",
      "alert": "OK",
      "vis_m": 9999,
      "fzfg": false,
      "metar_trigger": false,
      "taf_trigger": false,
      "metar": "METAR BKPR 202130Z 11009KT CAVOK 00/M06 Q1023 NOSIG",
      "taf": "TAF BKPR 201730Z 2018/2118 10006KT CAVOK"
    },
    {
      "icao": "EBCI",
      "alert": "OK",
      "vis_m": 9999,
      "fzfg": false,
      "metar_trigger": false,
      "taf_trigger": false,
      "metar": "METAR EBCI 202120Z 16008KT CAVOK 05/02 Q1010 NOSIG",
      "taf": "TAF EBCI 201702Z 2018/2124 16007KT CAVOK"
    },
    {
      "icao": "EDDB",
      "alert": "OK",
      "vis_m": 9999,
      "fzfg": false,
      "metar_trigger": false,
      "taf_trigger": false,
      "metar": "METAR EDDB 202120Z AUTO 13003KT CAVOK M05/M08 Q1017 NOSIG",
      "taf": "TAF EDDB 201700Z 2018/2118 12005KT CAVOK"
    },
    {
      "icao": "EDDH",
      "alert": "OK",
      "vis_m": 9999,
      "fzfg": false,
      "metar_trigger": false,
      "taf_trigger": false,
      "metar": "METAR EDDH 202120Z AUTO 10005KT CAVOK M02/M05 Q1015 NOSIG",
      "taf": "TAF EDDH 201700Z 2018/2124 10006KT CAVOK"
    },
    {
      "icao": "EDDK",
      "alert": "OK",
      "vis_m": 9999,
      "fzfg": false,
      "metar_trigger": false,
      "taf_trigger": false,
      "metar": "METAR EDDK 202120Z AUTO 13007KT CAVOK 01/M02 Q1014 NOSIG",
      "taf": "TAF EDDK 201700Z 2018/2124 13008KT CAVOK"
    },
    {
      "icao": "EDDN",
      "alert": "OK",
      "vis_m": 9999,
      "fzfg": false,
      "metar_trigger": false,
      "taf_trigger": false,
      "metar": "METAR EDDN 202120Z AUTO 10007KT CAVOK M05/M08 Q1016",
      "taf": "TAF EDDN 201700Z 2018/2118 11006KT CAVOK"
    },
    {
      "icao": "EDDS",
      "alert": "OK",
      "vis_m": 9999,
      "fzfg": false,
      "metar_trigger": false,
      "taf_trigger": false,
      "metar": "METAR EDDS 202120Z AUTO 27003KT CAVOK M02/M03 Q1013",
      "taf": "TAF EDDS 201700Z 2018/2118 VRB03KT CAVOK"
    },
    {
      "icao": "EDFH",
      "alert": "OK",
      "vis_m": 400,
      "fzfg": true,
      "metar_trigger": false,
      "taf_trigger": false,
      "metar": "METAR EDFH 202120Z 15013KT 0400 R21/0400N FZFG VV/// M02/M02 Q1013",
      "taf": ""
    },
    {
      "icao": "EDJA",
      "alert": "OK",
      "vis_m": 600,
      "fzfg": true,
      "metar_trigger": false,
      "taf_trigger": false,
      "metar": "METAR EDJA 202120Z 16002KT 0600 R24/0550D FZFG VV/// M04/M04 Q1013",
      "taf": "TAF EDJA 201700Z 2018/2103 05003KT CAVOK"
    },
    {
      "icao": "EDLW",
      "alert": "OK",
      "vis_m": 9999,
      "fzfg": false,
      "metar_trigger": false,
      "taf_trigger": false,
      "metar": "METAR EDLW 202120Z 13004KT CAVOK 02/M02 Q1012",
      "taf": "TAF EDLW 201700Z 2018/2118 14005KT CAVOK"
    },
    {
      "icao": "EDNY",
      "alert": "OK",
      "vis_m": 500,
      "fzfg": false,
      "metar_trigger": false,
      "taf_trigger": false,
      "metar": "METAR EDNY 202120Z AUTO 09002KT 0500 0450 R24/0500N // VV/// M02/M02 Q1015",
      "taf": "TAF EDNY 201700Z 2018/2103 VRB02KT 1200 BR BKN002"
    },
    {
      "icao": "EDSB",
      "alert": "OK",
      "vis_m": 450,
      "fzfg": true,
      "metar_trigger": false,
      "taf_trigger": false,
      "metar": "METAR EDSB 202120Z 13003KT 0450 R21/0600U FZFG VV/// M01/M01 Q1016",
      "taf": "TAF EDSB 201700Z 2018/2118 VRB02KT 4000 BR OVC003"
    },
    {
      "icao": "EETN",
      "alert": "OK",
      "vis_m": 1600,
      "fzfg": true,
      "metar_trigger": false,
      "taf_trigger": false,
      "metar": "METAR EETN 202120Z VRB01KT 1600 BR OVC002 M07/M08 Q1023 TEMPO 0800 FZFG",
      "taf": "TAF EETN 201730Z 2018/2118 10007KT 8000 OVC005"
    },
    {
      "icao": "EFTU",
      "alert": "OK",
      "vis_m": 6000,
      "fzfg": false,
      "metar_trigger": false,
      "taf_trigger": false,
      "metar": "METAR EFTU 202120Z AUTO VRB02KT 6000 -SHSN OVC016 M04/M05 Q1024",
      "taf": ""
    },
    {
      "icao": "EGBB",
      "alert": "OK",
      "vis_m": 6000,
      "fzfg": false,
      "metar_trigger": false,
      "taf_trigger": false,
      "metar": "METAR EGBB 202120Z 14015KT 6000 -RA BKN016 OVC022 07/05 Q0997",
      "taf": "TAF EGBB 201700Z 2018/2118 15016G28KT 9999 BKN020"
    },
    {
      "icao": "EGGP",
      "alert": "OK",
      "vis_m": 9999,
      "fzfg": false,
      "metar_trigger": false,
      "taf_trigger": false,
      "metar": "METAR EGGP 202120Z 14020G33KT 9999 BKN019 08/04 Q0995",
      "taf": "TAF EGGP 201703Z 2018/2118 14020G30KT 9999 BKN025"
    },
    {
      "icao": "EGGW",
      "alert": "OK",
      "vis_m": 9000,
      "fzfg": false,
      "metar_trigger": false,
      "taf_trigger": false,
      "metar": "METAR EGGW 202120Z AUTO 15013KT 9000 -RA BKN018/// //////TCU 07/05 Q1000",
      "taf": "TAF EGGW 201702Z 2018/2118 15016G26KT 9999 BKN017"
    },
    {
      "icao": "EGKK",
      "alert": "OK",
      "vis_m": 9000,
      "fzfg": false,
      "metar_trigger": false,
      "taf_trigger": false,
      "metar": "METAR EGKK 202120Z 15012G23KT 9000 -RA SCT015 BKN019 08/07 Q1001",
      "taf": "TAF EGKK 201659Z 2018/2124 15009KT 9999 SCT020"
    },
    {
      "icao": "EGNM",
      "alert": "OK",
      "vis_m": 9999,
      "fzfg": false,
      "metar_trigger": false,
      "taf_trigger": false,
      "metar": "METAR EGNM 202120Z 12014KT 9999 BKN010 06/04 Q0999",
      "taf": "TAF EGNM 201704Z 2018/2118 13015G25KT 9999 BKN015"
    },
    {
      "icao": "EGPD",
      "alert": "OK",
      "vis_m": 9999,
      "fzfg": false,
      "metar_trigger": false,
      "taf_trigger": false,
      "metar": "METAR EGPD 202120Z AUTO 14018KT 110V180 9999 BKN013 BKN019 OVC025 08/05 Q1003 TEMPO BKN008",
      "taf": "TAF EGPD 201700Z 2018/2118 13018G30KT 9999 SCT012 BKN020"
    },
    {
      "icao": "EGPF",
      "alert": "OK",
      "vis_m": 9999,
      "fzfg": false,
      "metar_trigger": false,
      "taf_trigger": false,
      "metar": "METAR EGPF 202120Z AUTO 08012KT 9999 BKN028 08/04 Q0996",
      "taf": "TAF EGPF 201658Z 2018/2118 11015G30KT 9999 SCT035"
    },
    {
      "icao": "EHBK",
      "alert": "OK",
      "vis_m": 9999,
      "fzfg": false,
      "metar_trigger": false,
      "taf_trigger": false,
      "metar": "METAR EHBK 202125Z AUTO 14005KT 9999 NSC 03/01 Q1011 NOSIG",
      "taf": "TAF EHBK 201713Z 2018/2124 15005KT CAVOK"
    },
    {
      "icao": "EHEH",
      "alert": "OK",
      "vis_m": 9999,
      "fzfg": false,
      "metar_trigger": false,
      "taf_trigger": false,
      "metar": "METAR EHEH 202125Z AUTO 13004KT 080V170 9999 OVC180 02/01 Q1011 BLU NOSIG RMK TREND REMOTE BY EHWX",
      "taf": "TAF EHEH 201742Z 2018/2124 13004KT CAVOK"
    },
    {
      "icao": "EKBI",
      "alert": "OK",
      "vis_m": 6000,
      "fzfg": false,
      "metar_trigger": false,
      "taf_trigger": false,
      "metar": "METAR EKBI 202120Z AUTO 08011KT 6000 FEW007/// M00/M01 Q1017",
      "taf": "TAF EKBI 202027Z 2021/2121 08010KT 7000 NSC"
    },
    {
      "icao": "EKCH",
      "alert": "OK",
      "vis_m": 9999,
      "fzfg": false,
      "metar_trigger": false,
      "taf_trigger": false,
      "metar": "METAR EKCH 202120Z AUTO 08006KT 9999 NCD M02/M03 Q1018 NOSIG",
      "taf": "TAF EKCH 202027Z 2021/2121 09006KT 8000 NSC"
    },
    {
      "icao": "ENAL",
      "alert": "OK",
      "vis_m": 9999,
      "fzfg": false,
      "metar_trigger": false,
      "taf_trigger": false,
      "metar": "METAR ENAL 202120Z AUTO 14010KT 9999 FEW012/// SCT019/// OVC028/// 04/02 Q1018",
      "taf": "TAF ENAL 202000Z 2021/2106 16005KT 9999 BKN015"
    },
    {
      "icao": "ENBR",
      "alert": "OK",
      "vis_m": 9999,
      "fzfg": false,
      "metar_trigger": false,
      "taf_trigger": false,
      "metar": "METAR ENBR 202120Z 00000KT CAVOK 01/00 Q1017 RMK WIND 1200FT 15003KT",
      "taf": "TAF ENBR 201700Z 2018/2118 09005KT 9999 FEW015 BKN030"
    },
    {
      "icao": "ENGM",
      "alert": "OK",
      "vis_m": 9999,
      "fzfg": false,
      "metar_trigger": false,
      "taf_trigger": false,
      "metar": "METAR ENGM 202120Z 02006KT 9999 OVC013 M05/M07 Q1023 NOSIG",
      "taf": "TAF ENGM 201700Z 2018/2118 03008KT 9999 BKN012"
    },
    {
      "icao": "ENHD",
      "alert": "OK",
      "vis_m": 9999,
      "fzfg": false,
      "metar_trigger": false,
      "taf_trigger": false,
      "metar": "METAR ENHD 202120Z AUTO 13004KT 9999 NCD 00/M01 Q1017",
      "taf": "TAF ENHD 201400Z 2015/2023 10006KT CAVOK"
    },
    {
      "icao": "ENTC",
      "alert": "OK",
      "vis_m": 9999,
      "fzfg": false,
      "metar_trigger": false,
      "taf_trigger": false,
      "metar": "METAR ENTC 202120Z 00000KT CAVOK M08/M09 Q1027 TEMPO 1200 PRFG RMK WIND 2600FT 11008KT",
      "taf": ""
    },
    {
      "icao": "ENTO",
      "alert": "OK",
      "vis_m": 9999,
      "fzfg": false,
      "metar_trigger": false,
      "taf_trigger": false,
      "metar": "METAR ENTO 202120Z AUTO 03010KT 9999 OVC012/// M03/M06 Q1023",
      "taf": "TAF ENTO 201700Z 2018/2118 03008KT 9999 BKN012"
    },
    {
      "icao": "ENVA",
      "alert": "OK",
      "vis_m": 9999,
      "fzfg": false,
      "metar_trigger": false,
      "taf_trigger": false,
      "metar": "METAR ENVA 202120Z 08008KT CAVOK M03/M07 Q1022 RMK WIND 670FT 10011KT",
      "taf": "TAF ENVA 201700Z 2018/2118 12008KT CAVOK"
    },
    {
      "icao": "ENZV",
      "alert": "OK",
      "vis_m": 9999,
      "fzfg": false,
      "metar_trigger": false,
      "taf_trigger": false,
      "metar": "METAR ENZV 202120Z 17003KT CAVOK M01/M03 Q1017",
      "taf": "TAF ENZV 201700Z 2018/2118 10005KT 9999 SCT040"
    },
    {
      "icao": "EPGD",
      "alert": "OK",
      "vis_m": 2000,
      "fzfg": false,
      "metar_trigger": false,
      "taf_trigger": false,
      "metar": "METAR EPGD 202130Z VRB01KT 2000 0100W BCFG BR NSC M10/M11 Q1020",
      "taf": "TAF EPGD 201730Z 2018/2118 VRB02KT 5000 BR NSC"
    },
    {
      "icao": "EPKK",
      "alert": "OK",
      "vis_m": 3200,
      "fzfg": false,
      "metar_trigger": false,
      "taf_trigger": false,
      "metar": "METAR EPKK 202130Z VRB01KT 3200 BR NSC M10/M12 Q1023",
      "taf": "TAF EPKK 202030Z 2021/2121 VRB02KT 3500 BR NSC"
    },
    {
      "icao": "EPKT",
      "alert": "OK",
      "vis_m": 5000,
      "fzfg": false,
      "metar_trigger": false,
      "taf_trigger": false,
      "metar": "METAR EPKT 202130Z VRB01KT 5000 BR NSC M07/M10 Q1022",
      "taf": "TAF EPKT 201730Z 2018/2118 15003KT 8000 NSC"
    },
    {
      "icao": "EPLB",
      "alert": "OK",
      "vis_m": 2400,
      "fzfg": false,
      "metar_trigger": false,
      "taf_trigger": false,
      "metar": "METAR EPLB 202130Z VRB02KT 2400 MIFG BR NSC M13/M14 Q1024",
      "taf": "TAF EPLB 201730Z 2018/2118 VRB03KT 4500 BR NSC"
    },
    {
      "icao": "EPMO",
      "alert": "OK",
      "vis_m": 4500,
      "fzfg": false,
      "metar_trigger": false,
      "taf_trigger": false,
      "metar": "METAR EPMO 202130Z VRB02KT 4500 BR NSC M09/M10 Q1022",
      "taf": "TAF EPMO 201730Z 2018/2118 12005KT 6000 NSC"
    },
    {
      "icao": "EPPO",
      "alert": "OK",
      "vis_m": 9999,
      "fzfg": false,
      "metar_trigger": false,
      "taf_trigger": false,
      "metar": "METAR EPPO 202130Z 13006KT CAVOK M06/M08 Q1019",
      "taf": "TAF EPPO 201730Z 2018/2118 13005KT CAVOK"
    },
    {
      "icao": "EPRA",
      "alert": "OK",
      "vis_m": 7000,
      "fzfg": false,
      "metar_trigger": false,
      "taf_trigger": false,
      "metar": "METAR EPRA 202130Z 16004KT 7000 NSC M10/M12 Q1023",
      "taf": "TAF EPRA 202030Z 2021/2106 14005KT 8000 NSC"
    },
    {
      "icao": "EPRZ",
      "alert": "OK",
      "vis_m": 6000,
      "fzfg": false,
      "metar_trigger": false,
      "taf_trigger": false,
      "metar": "METAR EPRZ 202130Z VRB02KT 6000 NSC M09/M13 Q1024",
      "taf": "TAF EPRZ 201730Z 2018/2118 17006KT CAVOK"
    },
    {
      "icao": "EPSC",
      "alert": "OK",
      "vis_m": 9999,
      "fzfg": false,
      "metar_trigger": false,
      "taf_trigger": false,
      "metar": "METAR EPSC 202130Z 13007KT CAVOK M05/M07 Q1018",
      "taf": "TAF EPSC 201730Z 2018/2118 14005KT CAVOK"
    },
    {
      "icao": "EPSY",
      "alert": "OK",
      "vis_m": 1700,
      "fzfg": false,
      "metar_trigger": false,
      "taf_trigger": false,
      "metar": "METAR EPSY 202130Z 22003KT 1700 1000N BR MIFG NSC M15/M16 Q1022",
      "taf": "TAF EPSY 202030Z 2021/2106 VRB02KT 3000 BR NSC"
    },
    {
      "icao": "EPWA",
      "alert": "OK",
      "vis_m": 7000,
      "fzfg": false,
      "metar_trigger": false,
      "taf_trigger": false,
      "metar": "METAR EPWA 202130Z 13006KT 7000 NSC M09/M11 Q1022 NOSIG",
      "taf": "TAF EPWA 202030Z 2021/2121 12005KT 7000 NSC"
    },
    {
      "icao": "EPWR",
      "alert": "OK",
      "vis_m": 9999,
      "fzfg": false,
      "metar_trigger": false,
      "taf_trigger": false,
      "metar": "METAR EPWR 202130Z 18008KT CAVOK M01/M08 Q1020",
      "taf": "TAF EPWR 202030Z 2021/2121 18010KT CAVOK"
    },
    {
      "icao": "ESGG",
      "alert": "OK",
      "vis_m": 7000,
      "fzfg": false,
      "metar_trigger": false,
      "taf_trigger": false,
      "metar": "METAR ESGG 202120Z 05009KT 7000 OVC005 M04/M05 Q1020",
      "taf": "TAF ESGG 202030Z 2021/2121 07007KT 9000 OVC006"
    },
    {
      "icao": "ESKN",
      "alert": "OK",
      "vis_m": 9999,
      "fzfg": false,
      "metar_trigger": false,
      "taf_trigger": false,
      "metar": "METAR ESKN 202120Z 36005KT 9999 OVC015 M02/M03 Q1022",
      "taf": "TAF ESKN 202030Z 2021/2121 04006KT 8000 BKN006 OVC012"
    },
    {
      "icao": "ESMS",
      "alert": "OK",
      "vis_m": 6000,
      "fzfg": false,
      "metar_trigger": false,
      "taf_trigger": false,
      "metar": "METAR ESMS 202120Z 08003KT 6000 NSC M03/M04 Q1018",
      "taf": "TAF ESMS 202027Z 2021/2121 09005KT 8000 NSC"
    },
    {
      "icao": "ESSA",
      "alert": "OK",
      "vis_m": 9999,
      "fzfg": false,
      "metar_trigger": false,
      "taf_trigger": false,
      "metar": "METAR ESSA 202120Z 01007KT 9999 BKN022 M03/M05 Q1022 NOSIG",
      "taf": "TAF ESSA 202030Z 2021/2121 03008KT 9999 OVC020"
    },
    {
      "icao": "EYKA",
      "alert": "OK",
      "vis_m": 3500,
      "fzfg": false,
      "metar_trigger": false,
      "taf_trigger": false,
      "metar": "METAR EYKA 202120Z VRB02KT 3500 BR SCT004 M11/M12 Q1023",
      "taf": "TAF EYKA 201700Z 2018/2118 VRB03KT 5000 BR NSC"
    },
    {
      "icao": "EYPA",
      "alert": "OK",
      "vis_m": 5000,
      "fzfg": false,
      "metar_trigger": false,
      "taf_trigger": false,
      "metar": "METAR EYPA 202120Z 14003KT 110V170 5000 BR NSC M10/M12 Q1022",
      "taf": "TAF EYPA 201700Z 2018/2118 VRB04KT 5000 BR SCT005"
    },
    {
      "icao": "EYVI",
      "alert": "OK",
      "vis_m": 2700,
      "fzfg": false,
      "metar_trigger": false,
      "taf_trigger": false,
      "metar": "METAR EYVI 202120Z 18007KT 2700 BR NSC M14/M16 Q1023 NOSIG",
      "taf": ""
    },
    {
      "icao": "GCFV",
      "alert": "OK",
      "vis_m": 9999,
      "fzfg": false,
      "metar_trigger": false,
      "taf_trigger": false,
      "metar": "METAR GCFV 202130Z 33008KT 9999 FEW040 16/09 Q1024",
      "taf": "TAF GCFV 202000Z 2021/2121 35010KT 9999 SCT035 TX21/2114Z TN14/2106Z"
    },
    {
      "icao": "GCLP",
      "alert": "OK",
      "vis_m": 9999,
      "fzfg": false,
      "metar_trigger": false,
      "taf_trigger": false,
      "metar": "METAR GCLP 202130Z 35010KT 9999 SCT035 17/10 Q1024 NOSIG",
      "taf": "TAF GCLP 202000Z 2021/2121 34008KT 9999 BKN040 TX21/2114Z TN14/2106Z"
    },
    {
      "icao": "GCTS",
      "alert": "OK",
      "vis_m": 9999,
      "fzfg": false,
      "metar_trigger": false,
      "taf_trigger": false,
      "metar": "METAR GCTS 202130Z 13004KT 100V160 9999 FEW030 17/09 Q1025 NOSIG",
      "taf": "TAF GCTS 202000Z 2021/2121 VRB05KT 9999 SCT035 TX22/2114Z TN14/2106Z"
    },
    {
      "icao": "GMAD",
      "alert": "OK",
      "vis_m": 9999,
      "fzfg": false,
      "metar_trigger": false,
      "taf_trigger": false,
      "metar": "METAR GMAD 202130Z 15006KT CAVOK 11/11 Q1019 NOSIG",
      "taf": "TAF GMAD 201700Z 2018/2124 23004KT CAVOK"
    },
    {
      "icao": "GMMN",
      "alert": "OK",
      "vis_m": 9999,
      "fzfg": false,
      "metar_trigger": false,
      "taf_trigger": false,
      "metar": "METAR GMMN 202130Z 22008KT 9999 BKN034 10/09 Q1022 NOSIG",
      "taf": "TAF GMMN 201700Z 2018/2124 22010KT 9999 SCT040 BKN080"
    },
    {
      "icao": "GMMX",
      "alert": "OK",
      "vis_m": 9999,
      "fzfg": false,
      "metar_trigger": false,
      "taf_trigger": false,
      "metar": "METAR GMMX 202130Z 26004KT 240V300 9999 FEW026 SCT200 09/06 Q1021 NOSIG",
      "taf": "TAF GMMX 201700Z 2018/2124 28006KT 8000 SCT026"
    },
    {
      "icao": "HEGN",
      "alert": "OK",
      "vis_m": 9999,
      "fzfg": false,
      "metar_trigger": false,
      "taf_trigger": false,
      "metar": "METAR HEGN 202100Z 31008KT CAVOK 15/06 Q1020 NOSIG",
      "taf": "TAF HEGN 201700Z 2018/2124 30012KT CAVOK"
    },
    {
      "icao": "HEMA",
      "alert": "OK",
      "vis_m": 9999,
      "fzfg": false,
      "metar_trigger": false,
      "taf_trigger": false,
      "metar": "METAR HEMA 202100Z 28009KT CAVOK 16/09 Q1018 NOSIG",
      "taf": "TAF HEMA 201700Z 2018/2124 29014KT CAVOK"
    },
    {
      "icao": "HESH",
      "alert": "OK",
      "vis_m": 9999,
      "fzfg": false,
      "metar_trigger": false,
      "taf_trigger": false,
      "metar": "METAR HESH 202100Z 34012KT CAVOK 18/08 Q1019 NOSIG",
      "taf": "TAF HESH 201700Z 2018/2124 34010KT CAVOK"
    },
    {
      "icao": "HESX",
      "alert": "OK",
      "vis_m": 9999,
      "fzfg": false,
      "metar_trigger": false,
      "taf_trigger": false,
      "metar": "METAR HESX 202100Z 07011KT CAVOK 12/05 Q1021 NOSIG",
      "taf": "TAF HESX 201700Z 2018/2124 06014G24KT 8000 NSC"
    },
    {
      "icao": "LATI",
      "alert": "OK",
      "vis_m": null,
      "fzfg": false,
      "metar_trigger": false,
      "taf_trigger": false,
      "metar": "",
      "taf": "TAF LATI 201700Z 2018/2118 VRB04KT CAVOK TX12/2112Z TN02/2105Z"
    },
    {
      "icao": "LBPD",
      "alert": "OK",
      "vis_m": 9999,
      "fzfg": false,
      "metar_trigger": false,
      "taf_trigger": false,
      "metar": "METAR LBPD 202130Z AUTO 22001KT 9999 NCD M05/M06 Q1030",
      "taf": "TAF LBPD 201700Z 2018/2118 10008KT 9999 SCT030 SCT080"
    },
    {
      "icao": "LBSF",
      "alert": "OK",
      "vis_m": 9999,
      "fzfg": false,
      "metar_trigger": false,
      "taf_trigger": false,
      "metar": "METAR LBSF 202130Z AUTO 10007KT 9999 NCD M04/M07 Q1027 NOSIG",
      "taf": "TAF LBSF 201700Z 2018/2118 11010KT 9999 SCT060"
    },
    {
      "icao": "LBWN",
      "alert": "OK",
      "vis_m": 6000,
      "fzfg": false,
      "metar_trigger": false,
      "taf_trigger": false,
      "metar": "METAR LBWN 202130Z AUTO 03004KT 6000 NCD M06/M06 Q1031 TEMPO 4000 BR",
      "taf": "TAF LBWN 201700Z 2018/2118 VRB03KT 7000 NSC"
    },
    {
      "icao": "LCLK",
      "alert": "OK",
      "vis_m": 9999,
      "fzfg": false,
      "metar_trigger": false,
      "taf_trigger": false,
      "metar": "METAR LCLK 202130Z 31007KT CAVOK 04/00 Q1026 NOSIG",
      "taf": "TAF LCLK 201730Z 2018/2118 32007KT 9999 FEW040"
    },
    {
      "icao": "LCPH",
      "alert": "OK",
      "vis_m": 9999,
      "fzfg": false,
      "metar_trigger": false,
      "taf_trigger": false,
      "metar": "METAR LCPH 202130Z 12003KT 090V160 CAVOK 06/M01 Q1025 NOSIG",
      "taf": "TAF LCPH 201730Z 2018/2118 06008KT 9999 FEW040"
    },
    {
      "icao": "LEAL",
      "alert": "OK",
      "vis_m": 9999,
      "fzfg": false,
      "metar_trigger": false,
      "taf_trigger": false,
      "metar": "METAR LEAL 202130Z 36004KT 290V020 9999 BKN060 13/07 Q1011 NOSIG",
      "taf": "TAF LEAL 201700Z 2018/2118 30007KT 9999 FEW050 TX19/2113Z TN10/2106Z"
    },
    {
      "icao": "LEBB",
      "alert": "OK",
      "vis_m": 9999,
      "fzfg": false,
      "metar_trigger": false,
      "taf_trigger": false,
      "metar": "METAR LEBB 202130Z 19010KT 130V270 CAVOK 11/03 Q1010 NOSIG",
      "taf": "TAF LEBB 201700Z 2018/2118 20008KT 9999 SCT040 TX14/2115Z TN09/2021Z"
    },
    {
      "icao": "LEBL",
      "alert": "OK",
      "vis_m": 9000,
      "fzfg": false,
      "metar_trigger": false,
      "taf_trigger": false,
      "metar": "METAR LEBL 202130Z 04011KT 9000 FEW018 BKN025 12/10 Q1013 NOSIG",
      "taf": "TAF LEBL 201700Z 2018/2118 01013KT 9999 BKN020 TX14/2113Z TN08/2106Z"
    },
    {
      "icao": "LECH",
      "alert": "OK",
      "vis_m": 9999,
      "fzfg": false,
      "metar_trigger": false,
      "taf_trigger": false,
      "metar": "METAR LECH 202130Z AUTO 04008KT 010V070 9999 -RA BKN023 OVC042 08/06 Q1012",
      "taf": ""
    },
    {
      "icao": "LEMD",
      "alert": "OK",
      "vis_m": 9999,
      "fzfg": false,
      "metar_trigger": false,
      "taf_trigger": false,
      "metar": "METAR LEMD 202130Z VRB01KT CAVOK 04/M00 Q1015 NOSIG",
      "taf": "TAF LEMD 201700Z 2018/2124 VRB03KT CAVOK TX08/2114Z TNM03/2106Z"
    },
    {
      "icao": "LEMG",
      "alert": "OK",
      "vis_m": 9999,
      "fzfg": false,
      "metar_trigger": false,
      "taf_trigger": false,
      "metar": "METAR LEMG 202130Z 30009KT CAVOK 09/04 Q1017 NOSIG",
      "taf": "TAF LEMG 201700Z 2018/2118 29012KT CAVOK TX17/2114Z TN08/2107Z"
    },
    {
      "icao": "LEVC",
      "alert": "OK",
      "vis_m": 9999,
      "fzfg": false,
      "metar_trigger": false,
      "taf_trigger": false,
      "metar": "METAR LEVC 202130Z COR 30011KT 9999 RA BKN032 OVC037 09/08 Q1012 NOSIG",
      "taf": "TAF LEVC 201700Z 2018/2118 36005KT 9999 FEW040 TX15/2113Z TN09/2106Z"
    },
    {
      "icao": "LEXJ",
      "alert": "OK",
      "vis_m": 8000,
      "fzfg": false,
      "metar_trigger": false,
      "taf_trigger": false,
      "metar": "METAR LEXJ 202130Z 20020G37KT 160V250 8000 NSC 12/03 Q1008",
      "taf": "TAF LEXJ 202000Z 2021/2121 22009KT 9999 SCT040 TX15/2115Z TN08/2021Z"
    },
    {
      "icao": "LEZG",
      "alert": "OK",
      "vis_m": 9999,
      "fzfg": false,
      "metar_trigger": false,
      "taf_trigger": false,
      "metar": "METAR LEZG 202130Z 23003KT CAVOK 04/02 Q1014 NOSIG",
      "taf": "TAF LEZG 201700Z 2018/2118 VRB04KT 9999 FEW040 TX14/2115Z TN05/2106Z"
    },
    {
      "icao": "LEZL",
      "alert": "OK",
      "vis_m": 9999,
      "fzfg": false,
      "metar_trigger": false,
      "taf_trigger": false,
      "metar": "METAR LEZL 202130Z 24004KT CAVOK 10/06 Q1019 NOSIG",
      "taf": "TAF LEZL 202000Z 2021/2121 VRB04KT 9999 FEW030 TX15/2115Z TN05/2107Z"
    },
    {
      "icao": "LFBD",
      "alert": "OK",
      "vis_m": 9999,
      "fzfg": false,
      "metar_trigger": false,
      "taf_trigger": false,
      "metar": "METAR LFBD 202130Z AUTO 16010KT CAVOK 07/05 Q1010 NOSIG",
      "taf": "TAF LFBD 201700Z 2018/2124 15008KT 9999 BKN020 TX14/2114Z TN07/2105Z"
    },
    {
      "icao": "LFLL",
      "alert": "OK",
      "vis_m": 450,
      "fzfg": false,
      "metar_trigger": false,
      "taf_trigger": false,
      "metar": "METAR LFLL 202130Z VRB01KT 0450 R35L/0550N R17R/0800N R35R/0550N R17L/0600N FG VV/// 01/01 Q1015 NOSIG",
      "taf": "TAF LFLL 201700Z 2018/2124 VRB02KT 0400 FG VV///"
    },
    {
      "icao": "LFLS",
      "alert": "OK",
      "vis_m": 4900,
      "fzfg": false,
      "metar_trigger": false,
      "taf_trigger": false,
      "metar": "METAR LFLS 202130Z AUTO 09003KT 4900 BR VV/// M02/M02 Q1014",
      "taf": ""
    },
    {
      "icao": "LFMN",
      "alert": "OK",
      "vis_m": 9999,
      "fzfg": false,
      "metar_trigger": false,
      "taf_trigger": false,
      "metar": "METAR LFMN 202130Z 32010KT CAVOK 08/02 Q1014 NOSIG",
      "taf": "TAF LFMN 202000Z 2021/2203 33010KT CAVOK"
    },
    {
      "icao": "LFOB",
      "alert": "OK",
      "vis_m": 9999,
      "fzfg": false,
      "metar_trigger": false,
      "taf_trigger": false,
      "metar": "METAR LFOB 202130Z AUTO 14011KT 9999 OVC040 07/05 Q1007 NOSIG",
      "taf": "TAF LFOB 201700Z 2018/2118 14010G20KT 9999 OVC045"
    },
    {
      "icao": "LFPO",
      "alert": "OK",
      "vis_m": 9999,
      "fzfg": false,
      "metar_trigger": false,
      "taf_trigger": false,
      "metar": "METAR LFPO 202130Z 16009KT 9999 BKN046 BKN066 09/05 Q1008 NOSIG",
      "taf": "TAF LFPO 201700Z 2018/2124 14010KT CAVOK"
    },
    {
      "icao": "LFSB",
      "alert": "OK",
      "vis_m": 900,
      "fzfg": true,
      "metar_trigger": false,
      "taf_trigger": false,
      "metar": "METAR LFSB 202130Z AUTO 26002KT 0900 0800 R15/1100N R33/1700U FZFG VV/// M01/M01 Q1015 TEMPO 0300 FZFG",
      "taf": "TAF LFSB 201700Z 2018/2118 34006KT 1500 BR OVC002"
    },
    {
      "icao": "LGAV",
      "alert": "OK",
      "vis_m": 9999,
      "fzfg": false,
      "metar_trigger": false,
      "taf_trigger": false,
      "metar": "METAR LGAV 202120Z 02014KT 9999 BKN025 09/03 Q1022 NOSIG",
      "taf": "TAF LGAV 201700Z 2018/2118 05018KT 9999 FEW018 BKN025"
    },
    {
      "icao": "LGTS",
      "alert": "OK",
      "vis_m": 9999,
      "fzfg": false,
      "metar_trigger": false,
      "taf_trigger": false,
      "metar": "METAR LGTS 202120Z VRB03KT 9999 FEW012 SCT020 04/M02 Q1028 NOSIG",
      "taf": "TAF LGTS 201700Z 2018/2118 11010KT 9999 FEW010 BKN025"
    },
    {
      "icao": "LHBP",
      "alert": "OK",
      "vis_m": 6000,
      "fzfg": false,
      "metar_trigger": false,
      "taf_trigger": false,
      "metar": "METAR LHBP 202130Z VRB02KT 6000 NSC M12/M13 Q1028 NOSIG",
      "taf": "TAF LHBP 201715Z 2018/2118 08006KT 5000 BR SCT006"
    },
    {
      "icao": "LHDC",
      "alert": "OK",
      "vis_m": 4800,
      "fzfg": false,
      "metar_trigger": false,
      "taf_trigger": false,
      "metar": "METAR LHDC 202115Z AUTO 06005KT 4800 BR NCD M08/M10 Q1028",
      "taf": "TAF LHDC 201415Z 2015/2024 VRB03KT 3500 BR NSC"
    },
    {
      "icao": "LIBD",
      "alert": "OK",
      "vis_m": 9999,
      "fzfg": false,
      "metar_trigger": false,
      "taf_trigger": false,
      "metar": "METAR LIBD 202120Z AUTO 20006KT 140V200 9999 OVC067/// 06/05 Q1017",
      "taf": "TAF LIBD 201700Z 2018/2118 11012KT CAVOK"
    },
    {
      "icao": "LIBG",
      "alert": "OK",
      "vis_m": null,
      "fzfg": false,
      "metar_trigger": false,
      "taf_trigger": false,
      "metar": "",
      "taf": "TAF LIBG 201700Z 2018/2103 12007KT CAVOK"
    },
    {
      "icao": "LIBP",
      "alert": "OK",
      "vis_m": 6000,
      "fzfg": false,
      "metar_trigger": false,
      "taf_trigger": false,
      "metar": "METAR LIBP 202120Z AUTO 20003KT 6000 OVC160/// 06/06 Q1018",
      "taf": "TAF LIBP 201700Z 2018/2118 VRB05KT 9999 FEW050"
    },
    {
      "icao": "LIBR",
      "alert": "OK",
      "vis_m": 9999,
      "fzfg": false,
      "metar_trigger": false,
      "taf_trigger": false,
      "metar": "METAR LIBR 202120Z VRB02KT CAVOK 10/02 Q1017",
      "taf": "TAF LIBR 201700Z 2018/2118 08005KT CAVOK"
    },
    {
      "icao": "LICA",
      "alert": "OK",
      "vis_m": 6000,
      "fzfg": false,
      "metar_trigger": false,
      "taf_trigger": false,
      "metar": "METAR LICA 202120Z AUTO 08031G42KT 6000 -RA OVC041/// 09/06 Q1008",
      "taf": "TAF LICA 201700Z 2018/2118 08025G40KT 8000 BKN030"
    },
    {
      "icao": "LICC",
      "alert": "OK",
      "vis_m": 2500,
      "fzfg": false,
      "metar_trigger": false,
      "taf_trigger": false,
      "metar": "METAR LICC 202120Z 06034G45KT 2500 RA BR BKN005 OVC015 12/11 Q1002",
      "taf": "TAF LICC 201700Z 2018/2118 08030G50KT 4000 RA BKN015"
    },
    {
      "icao": "LICJ",
      "alert": "OK",
      "vis_m": 9999,
      "fzfg": false,
      "metar_trigger": false,
      "taf_trigger": false,
      "metar": "METAR LICJ 202120Z 07032KT 9999 -RA BKN025 12/08 Q1001",
      "taf": "TAF LICJ 201700Z 2018/2118 08030G50KT 9999 BKN040"
    },
    {
      "icao": "LIMC",
      "alert": "OK",
      "vis_m": 9999,
      "fzfg": false,
      "metar_trigger": false,
      "taf_trigger": false,
      "metar": "METAR LIMC 202120Z 03001KT 9999 BKN065 04/01 Q1020 NOSIG",
      "taf": "TAF LIMC 201700Z 2018/2124 VRB04KT 9999 SCT080"
    },
    {
      "icao": "LIME",
      "alert": "OK",
      "vis_m": 8000,
      "fzfg": false,
      "metar_trigger": false,
      "taf_trigger": false,
      "metar": "METAR LIME 202120Z 02002KT 8000 SCT070 00/M02 Q1020 NOSIG",
      "taf": "TAF LIME 201700Z 2018/2118 VRB04KT 9999 FEW060"
    },
    {
      "icao": "LIMF",
      "alert": "OK",
      "vis_m": 5000,
      "fzfg": false,
      "metar_trigger": false,
      "taf_trigger": false,
      "metar": "METAR LIMF 202120Z VRB02KT 5000 BR NSC M01/M03 Q1019",
      "taf": "TAF LIMF 201700Z 2018/2118 VRB04KT 9999 BKN060"
    },
    {
      "icao": "LIMJ",
      "alert": "OK",
      "vis_m": 9999,
      "fzfg": false,
      "metar_trigger": false,
      "taf_trigger": false,
      "metar": "METAR LIMJ 202120Z AUTO 04019KT 9999 NCD 06/M03 Q1017",
      "taf": "TAF LIMJ 201700Z 2018/2118 02015KT 9999 FEW080"
    },
    {
      "icao": "LIPE",
      "alert": "OK",
      "vis_m": 9999,
      "fzfg": false,
      "metar_trigger": false,
      "taf_trigger": false,
      "metar": "METAR LIPE 202120Z 24004KT CAVOK 01/M01 Q1020",
      "taf": "TAF LIPE 201700Z 2018/2118 VRB05KT 8000 BKN030"
    },
    {
      "icao": "LIPH",
      "alert": "OK",
      "vis_m": 9999,
      "fzfg": false,
      "metar_trigger": false,
      "taf_trigger": false,
      "metar": "METAR LIPH 202120Z VRB01KT CAVOK M01/M04 Q1020",
      "taf": "TAF LIPH 201700Z 2018/2118 VRB05KT CAVOK"
    },
    {
      "icao": "LIPQ",
      "alert": "OK",
      "vis_m": 9999,
      "fzfg": false,
      "metar_trigger": false,
      "taf_trigger": false,
      "metar": "METAR LIPQ 202120Z AUTO 13003KT 100V160 9999 NCD M01/M09 Q1019",
      "taf": "TAF LIPQ 201700Z 2018/2118 VRB05KT CAVOK"
    },
    {
      "icao": "LIPR",
      "alert": "OK",
      "vis_m": 9999,
      "fzfg": false,
      "metar_trigger": false,
      "taf_trigger": false,
      "metar": "METAR LIPR 202120Z 29008KT 9999 FEW040 03/00 Q1020",
      "taf": "TAF LIPR 201700Z 2018/2118 30015KT 9999 BKN030"
    },
    {
      "icao": "LIPX",
      "alert": "OK",
      "vis_m": 9999,
      "fzfg": false,
      "metar_trigger": false,
      "taf_trigger": false,
      "metar": "METAR LIPX 202120Z 21001KT CAVOK M01/M03 Q1020",
      "taf": "TAF LIPX 201700Z 2018/2118 VRB04KT 9999 SCT070"
    },
    {
      "icao": "LIPY",
      "alert": "OK",
      "vis_m": 9000,
      "fzfg": false,
      "metar_trigger": false,
      "taf_trigger": false,
      "metar": "METAR LIPY 202120Z AUTO VRB02KT 9000 BKN008/// BKN200/// 05/04 Q1019",
      "taf": "TAF LIPY 201700Z 2018/2118 33010KT 9999 BKN030"
    },
    {
      "icao": "LIPZ",
      "alert": "OK",
      "vis_m": 9999,
      "fzfg": false,
      "metar_trigger": false,
      "taf_trigger": false,
      "metar": "METAR LIPZ 202120Z 02005KT CAVOK 00/M06 Q1020 NOSIG",
      "taf": "TAF LIPZ 201700Z 2018/2124 02008KT CAVOK"
    },
    {
      "icao": "LIRF",
      "alert": "OK",
      "vis_m": 9999,
      "fzfg": false,
      "metar_trigger": false,
      "taf_trigger": false,
      "metar": "METAR LIRF 202120Z 07006KT CAVOK 08/01 Q1013 NOSIG",
      "taf": "TAF LIRF 201700Z 2018/2124 VRB04KT 9999 SCT050"
    },
    {
      "icao": "LIRN",
      "alert": "OK",
      "vis_m": 9999,
      "fzfg": false,
      "metar_trigger": false,
      "taf_trigger": false,
      "metar": "METAR LIRN 202120Z 04011KT 9999 -RA BKN065 08/03 Q1013 NOSIG",
      "taf": "TAF LIRN 201700Z 2018/2118 05015G26KT 9999 BKN035"
    },
    {
      "icao": "LIRP",
      "alert": "OK",
      "vis_m": 9999,
      "fzfg": false,
      "metar_trigger": false,
      "taf_trigger": false,
      "metar": "METAR LIRP 202115Z 08004KT CAVOK 07/00 Q1016 NOSIG",
      "taf": "TAF LIRP 201700Z 2018/2118 08015KT CAVOK"
    },
    {
      "icao": "LIRZ",
      "alert": "OK",
      "vis_m": 9999,
      "fzfg": false,
      "metar_trigger": false,
      "taf_trigger": false,
      "metar": "METAR LIRZ 202120Z AUTO 02009KT 9999 NCD 07/02 Q1015",
      "taf": "TAF LIRZ 201700Z 2018/2118 05015KT 9999 SCT070"
    },
    {
      "icao": "LJLJ",
      "alert": "OK",
      "vis_m": 8000,
      "fzfg": false,
      "metar_trigger": false,
      "taf_trigger": false,
      "metar": "METAR LJLJ 202130Z 14004KT 8000 OVC015 M04/M08 Q1023 NOSIG",
      "taf": "TAF LJLJ 201700Z 2018/2118 12003KT 9999 SCT018"
    },
    {
      "icao": "LKMT",
      "alert": "OK",
      "vis_m": 9999,
      "fzfg": false,
      "metar_trigger": false,
      "taf_trigger": false,
      "metar": "METAR LKMT 202130Z 25014KT CAVOK M02/M07 Q1022 NOSIG",
      "taf": "TAF LKMT 201700Z 2018/2118 23014KT CAVOK"
    },
    {
      "icao": "LKPR",
      "alert": "OK",
      "vis_m": 9000,
      "fzfg": false,
      "metar_trigger": false,
      "taf_trigger": false,
      "metar": "METAR LKPR 202130Z 13004KT 9000 NSC M07/M08 Q1019 NOSIG",
      "taf": "TAF LKPR 202000Z 2021/2203 14005KT CAVOK"
    },
    {
      "icao": "LLBG",
      "alert": "OK",
      "vis_m": 9999,
      "fzfg": false,
      "metar_trigger": false,
      "taf_trigger": false,
      "metar": "METAR LLBG 202120Z 12004KT 9999 FEW050 08/02 Q1024 NOSIG",
      "taf": "TAF LLBG 201719Z 2018/2118 VRB04KT CAVOK"
    },
    {
      "icao": "LMML",
      "alert": "OK",
      "vis_m": 9999,
      "fzfg": false,
      "metar_trigger": false,
      "taf_trigger": false,
      "metar": "METAR LMML 202145Z 31006KT 9999 FEW040 10/09 Q1000 NOSIG",
      "taf": "TAF LMML 201700Z 2018/2118 12025G37KT 5000 DU SCT015"
    },
    {
      "icao": "LOWW",
      "alert": "OK",
      "vis_m": 8000,
      "fzfg": false,
      "metar_trigger": false,
      "taf_trigger": false,
      "metar": "METAR LOWW 202120Z 14018KT 8000 FEW007 BKN008 M06/M08 Q1024 NOSIG",
      "taf": "TAF LOWW 202015Z 2021/2203 14013KT 9999 FEW008 BKN010 TXM05/2114Z TNM07/2109Z"
    },
    {
      "icao": "LPFR",
      "alert": "OK",
      "vis_m": 9999,
      "fzfg": false,
      "metar_trigger": false,
      "taf_trigger": false,
      "metar": "METAR LPFR 202130Z VRB02KT 9999 SCT015 12/08 Q1019",
      "taf": "TAF LPFR 201700Z 2018/2118 28008KT 9999 SCT040"
    },
    {
      "icao": "LPMA",
      "alert": "OK",
      "vis_m": 9999,
      "fzfg": false,
      "metar_trigger": false,
      "taf_trigger": false,
      "metar": "METAR LPMA 202130Z 35004KT 300V030 9999 SCT015 16/07 Q1024",
      "taf": "TAF LPMA 201700Z 2018/2118 VRB05KT 9999 SCT016 SCT030"
    },
    {
      "icao": "LPPR",
      "alert": "OK",
      "vis_m": 9999,
      "fzfg": false,
      "metar_trigger": false,
      "taf_trigger": false,
      "metar": "METAR LPPR 202130Z 20010KT 9999 FEW004 BKN014 12/12 Q1011",
      "taf": "TAF LPPR 201700Z 2018/2118 19010KT 8000 -RA SCT008 BKN025"
    },
    {
      "icao": "LPPS",
      "alert": "OK",
      "vis_m": 9999,
      "fzfg": false,
      "metar_trigger": false,
      "taf_trigger": false,
      "metar": "METAR LPPS 202130Z 32011KT 9999 FEW014 15/10 Q1024",
      "taf": "TAF LPPS 201700Z 2018/2124 29012KT 9999 SCT015 SCT030"
    },
    {
      "icao": "LPPT",
      "alert": "OK",
      "vis_m": 9999,
      "fzfg": false,
      "metar_trigger": false,
      "taf_trigger": false,
      "metar": "METAR LPPT 202130Z 22006KT 9999 FEW012 12/11 Q1016",
      "taf": "TAF LPPT 201700Z 2018/2124 25010KT 9999 SCT035"
    },
    {
      "icao": "LQBK",
      "alert": "OK",
      "vis_m": 9999,
      "fzfg": false,
      "metar_trigger": false,
      "taf_trigger": false,
      "metar": "METAR LQBK 202130Z 02004KT 9999 OVC018 M02/M05 Q1026 NOSIG",
      "taf": "TAF LQBK 201700Z 2018/2118 VRB02KT 9999 BKN020 TXM01/2113Z TNM06/2106Z"
    },
    {
      "icao": "LQSA",
      "alert": "OK",
      "vis_m": 5000,
      "fzfg": false,
      "metar_trigger": false,
      "taf_trigger": false,
      "metar": "METAR LQSA 202130Z 11004KT 5000 BR NSC M08/M08 Q1022 NOSIG",
      "taf": "TAF LQSA 201700Z 2018/2118 VRB02KT 8000 SCT020 TXM00/2113Z TNM09/2106Z"
    },
    {
      "icao": "LQTZ",
      "alert": "OK",
      "vis_m": 2000,
      "fzfg": false,
      "metar_trigger": false,
      "taf_trigger": false,
      "metar": "METAR LQTZ 202130Z VRB01KT 2000 BR OVC010 M09/M09 Q1025",
      "taf": ""
    },
    {
      "icao": "LRBC",
      "alert": "OK",
      "vis_m": 5000,
      "fzfg": false,
      "metar_trigger": false,
      "taf_trigger": false,
      "metar": "METAR LRBC 202130Z 16007KT 5000 BR NSC M08/M10 Q1029",
      "taf": "TAF LRBC 202000Z 2021/2106 15008KT 5000 BR NSC"
    },
    {
      "icao": "LRBS",
      "alert": "OK",
      "vis_m": 3000,
      "fzfg": false,
      "metar_trigger": false,
      "taf_trigger": false,
      "metar": "METAR LRBS 202130Z 33002KT 3000 BR NSC M07/M08 Q1031 BECMG 1500 BR",
      "taf": "TAF LRBS 201700Z 2018/2118 VRB04KT 5000 BR NSC"
    },
    {
      "icao": "LRBV",
      "alert": "OK",
      "vis_m": 6000,
      "fzfg": false,
      "metar_trigger": false,
      "taf_trigger": false,
      "metar": "METAR LRBV 202130Z AUTO 21006KT 6000 NCD M11/M13 Q1027",
      "taf": "TAF LRBV 202000Z 2021/2106 20006KT 8000 NSC"
    },
    {
      "icao": "LRCL",
      "alert": "OK",
      "vis_m": 5000,
      "fzfg": false,
      "metar_trigger": false,
      "taf_trigger": false,
      "metar": "METAR LRCL 202130Z 00000KT 5000 BR NSC M13/M15 Q1028",
      "taf": "TAF LRCL 202000Z 2021/2106 VRB04KT 3000 BR NSC"
    },
    {
      "icao": "LRCV",
      "alert": "OK",
      "vis_m": 4000,
      "fzfg": false,
      "metar_trigger": false,
      "taf_trigger": false,
      "metar": "METAR LRCV 202130Z 01004KT 4000 BR NSC M07/M08 Q1029",
      "taf": "TAF LRCV 202000Z 2021/2106 VRB04KT 3000 BR NSC"
    },
    {
      "icao": "LRIA",
      "alert": "OK",
      "vis_m": 3500,
      "fzfg": false,
      "metar_trigger": false,
      "taf_trigger": false,
      "metar": "METAR LRIA 202130Z 06003KT 3500 BR NSC M11/M13 Q1029",
      "taf": "TAF LRIA 202000Z 2021/2106 15008KT 5000 BR NSC"
    },
    {
      "icao": "LROP",
      "alert": "OK",
      "vis_m": 3500,
      "fzfg": false,
      "metar_trigger": false,
      "taf_trigger": false,
      "metar": "METAR LROP 202130Z 27003KT 3500 BR NSC M08/M09 Q1031 BECMG 1500 BR",
      "taf": "TAF LROP 201700Z 2018/2118 VRB04KT 5000 BR NSC"
    },
    {
      "icao": "LRSB",
      "alert": "OK",
      "vis_m": 3500,
      "fzfg": false,
      "metar_trigger": false,
      "taf_trigger": false,
      "metar": "METAR LRSB 202130Z 27003KT 250V330 3500 BR NSC M11/M12 Q1027",
      "taf": "TAF LRSB 201700Z 2018/2118 VRB04KT 7000 NSC"
    },
    {
      "icao": "LRSM",
      "alert": "OK",
      "vis_m": 3700,
      "fzfg": false,
      "metar_trigger": false,
      "taf_trigger": false,
      "metar": "METAR LRSM 202130Z AUTO VRB01KT 3700 BR NCD M13/M15 Q1028",
      "taf": "TAF LRSM 201400Z 2015/2024 VRB04KT 5000 BR NSC"
    },
    {
      "icao": "LRSV",
      "alert": "OK",
      "vis_m": 7000,
      "fzfg": false,
      "metar_trigger": false,
      "taf_trigger": false,
      "metar": "METAR LRSV 202130Z 22004KT 7000 NSC M06/M08 Q1026",
      "taf": "TAF LRSV 202000Z 2021/2106 VRB04KT 5000 BR NSC"
    },
    {
      "icao": "LRTM",
      "alert": "OK",
      "vis_m": 3800,
      "fzfg": false,
      "metar_trigger": false,
      "taf_trigger": false,
      "metar": "METAR LRTM 202130Z AUTO 00000KT 3800 BR NCD M17/M19 Q1029",
      "taf": "TAF LRTM 201400Z 2015/2024 VRB04KT 5000 BR NSC"
    },
    {
      "icao": "LRTR",
      "alert": "OK",
      "vis_m": 8000,
      "fzfg": false,
      "metar_trigger": false,
      "taf_trigger": false,
      "metar": "METAR LRTR 202130Z 09005KT 8000 NSC M07/M07 Q1027",
      "taf": "TAF LRTR 201700Z 2018/2118 02008KT 5000 BR NSC"
    },
    {
      "icao": "LTAC",
      "alert": "OK",
      "vis_m": 9999,
      "fzfg": false,
      "metar_trigger": false,
      "taf_trigger": false,
      "metar": "METAR LTAC 202120Z 23002KT CAVOK M07/M11 Q1028 NOSIG RMK RWY21C 15003KT RWY03L 24002KT RWY21R VRB02KT RWY03R 00000KT RWY21L 14003KT",
      "taf": "TAF LTAC 201640Z 2018/2118 VRB02KT CAVOK"
    },
    {
      "icao": "LTFM",
      "alert": "OK",
      "vis_m": 9999,
      "fzfg": false,
      "metar_trigger": false,
      "taf_trigger": false,
      "metar": "METAR LTFM 202120Z 11006KT 9999 SCT035 04/M02 Q1030 NOSIG RMK RWY17L 12004KT RWY34L 10007KT RWY16R 12006KT RWY36 11007KT 060V130 RWY18 12005KT",
      "taf": "TAF LTFM 201640Z 2018/2124 05013KT 9999 FEW018 BKN032"
    },
    {
      "icao": "LUKK",
      "alert": "OK",
      "vis_m": 4000,
      "fzfg": false,
      "metar_trigger": false,
      "taf_trigger": false,
      "metar": "METAR LUKK 202130Z 28003KT 4000 BR NSC M11/M12 Q1030 TEMPO 1500 BR",
      "taf": "TAF LUKK 201729Z 2018/2118 VRB04KT 5000 BR NSC"
    },
    {
      "icao": "LWOH",
      "alert": "OK",
      "vis_m": null,
      "fzfg": false,
      "metar_trigger": false,
      "taf_trigger": false,
      "metar": "",
      "taf": "TAF LWOH 202020Z 2021/2121 03012KT 9999 SCT035"
    },
    {
      "icao": "LWSK",
      "alert": "OK",
      "vis_m": null,
      "fzfg": false,
      "metar_trigger": false,
      "taf_trigger": false,
      "metar": "",
      "taf": "TAF LWSK 202020Z 2021/2121 VRB02KT CAVOK"
    },
    {
      "icao": "LYBE",
      "alert": "OK",
      "vis_m": 9999,
      "fzfg": false,
      "metar_trigger": false,
      "taf_trigger": false,
      "metar": "METAR LYBE 202130Z 11004KT CAVOK M01/M07 Q1025 NOSIG",
      "taf": "TAF LYBE 201700Z 2018/2118 10007KT CAVOK TX05/2113Z TNM05/2106Z"
    },
    {
      "icao": "LYNI",
      "alert": "OK",
      "vis_m": 9999,
      "fzfg": false,
      "metar_trigger": false,
      "taf_trigger": false,
      "metar": "METAR LYNI 202130Z VRB02KT CAVOK M04/M06 Q1026 NOSIG",
      "taf": "TAF LYNI 201700Z 2018/2118 08006KT CAVOK TX05/2113Z TNM07/2106Z"
    },
    {
      "icao": "LYPG",
      "alert": "OK",
      "vis_m": 8000,
      "fzfg": false,
      "metar_trigger": false,
      "taf_trigger": false,
      "metar": "METAR LYPG 202130Z 33007KT 8000 NSC 02/M03 Q1020 NOSIG",
      "taf": "TAF LYPG 201700Z 2018/2118 36005KT 9999 FEW050 BKN080 TX08/2113Z TN01/2022Z"
    },
    {
      "icao": "LZIB",
      "alert": "OK",
      "vis_m": 9000,
      "fzfg": false,
      "metar_trigger": false,
      "taf_trigger": false,
      "metar": "METAR LZIB 202130Z 14009KT 9000 OVC007 M06/M07 Q1026 NOSIG",
      "taf": "TAF LZIB 201715Z 2018/2118 10008KT 8000 SCT010"
    },
    {
      "icao": "LZKZ",
      "alert": "OK",
      "vis_m": 4700,
      "fzfg": false,
      "metar_trigger": false,
      "taf_trigger": false,
      "metar": "METAR LZKZ 202130Z 00000KT 4700 BR NSC M11/M13 Q1028 NOSIG",
      "taf": "TAF LZKZ 201715Z 2018/2118 VRB02KT 4500 BR NSC"
    },
    {
      "icao": "LZTT",
      "alert": "OK",
      "vis_m": 9999,
      "fzfg": false,
      "metar_trigger": false,
      "taf_trigger": false,
      "metar": "METAR LZTT 202130Z VRB03KT CAVOK M09/M12 Q1022",
      "taf": "TAF LZTT 201715Z 2018/2118 24005KT CAVOK"
    },
    {
      "icao": "OEJN",
      "alert": "OK",
      "vis_m": 9999,
      "fzfg": false,
      "metar_trigger": false,
      "taf_trigger": false,
      "metar": "METAR OEJN 202100Z 36003KT CAVOK 22/12 Q1015 NOSIG",
      "taf": "TAF OEJN 201700Z 2018/2124 36006KT 9999 FEW040"
    },
    {
      "icao": "OEMA",
      "alert": "OK",
      "vis_m": 9999,
      "fzfg": false,
      "metar_trigger": false,
      "taf_trigger": false,
      "metar": "METAR OEMA 202100Z 03007KT CAVOK 18/M11 Q1020 NOSIG",
      "taf": "TAF OEMA 201700Z 2018/2124 VRB03KT CAVOK"
    },
    {
      "icao": "OJAI",
      "alert": "OK",
      "vis_m": 5000,
      "fzfg": false,
      "metar_trigger": false,
      "taf_trigger": false,
      "metar": "METAR OJAI 202100Z 03006KT 5000 HZ NSC 04/01 Q1023 NOSIG",
      "taf": "TAF OJAI 201700Z 2018/2124 11010KT 5000 HZ FEW030"
    },
    {
      "icao": "OMAA",
      "alert": "OK",
      "vis_m": 9999,
      "fzfg": false,
      "metar_trigger": false,
      "taf_trigger": false,
      "metar": "METAR OMAA 202100Z VRB01KT CAVOK 19/16 Q1015 NOSIG",
      "taf": "TAF OMAA 201700Z 2018/2200 VRB02KT 8000 FEW030"
    },
    {
      "icao": "OMDB",
      "alert": "OK",
      "vis_m": 9999,
      "fzfg": false,
      "metar_trigger": false,
      "taf_trigger": false,
      "metar": "METAR OMDB 202130Z 21005KT CAVOK 20/16 Q1014 NOSIG",
      "taf": "TAF OMDB 201700Z 2018/2200 29012KT 8000 FEW035"
    },
    {
      "icao": "UAAA",
      "alert": "CRITICAL",
      "vis_m": 50,
      "fzfg": true,
      "metar_trigger": true,
      "taf_trigger": false,
      "metar": "METAR UAAA 202130Z 26002MPS 210V280 0050 R23L/0250N FZFG VV001 M12/M13 Q1022 NOSIG RMK QBB040",
      "taf": ""
    },
    {
      "icao": "UBBB",
      "alert": "OK",
      "vis_m": 9999,
      "fzfg": false,
      "metar_trigger": false,
      "taf_trigger": false,
      "metar": "METAR UBBB 202130Z 32023G33KT 9999 BKN021 02/M01 Q1023 NOSIG",
      "taf": "TAF UBBB 201700Z 2018/2118 32016G26KT 8000 SCT010 OVC020 TX04/2110Z TN00/2101Z"
    },
    {
      "icao": "UDSG",
      "alert": "OK",
      "vis_m": 9999,
      "fzfg": false,
      "metar_trigger": false,
      "taf_trigger": false,
      "metar": "METAR UDSG 202130Z 08002KT 9999 OVC043 M07/M11 Q1019 NOSIG",
      "taf": "TAF UDSG 201700Z 2018/2118 VRB06KT 9999 BKN040"
    },
    {
      "icao": "UDYZ",
      "alert": "OK",
      "vis_m": 7000,
      "fzfg": false,
      "metar_trigger": false,
      "taf_trigger": false,
      "metar": "METAR UDYZ 202130Z 19005KT 7000 NSC M06/M08 Q1021 NOSIG",
      "taf": "TAF UDYZ 201700Z 2018/2118 06004KT 3500 BR NSC"
    },
    {
      "icao": "UGKO",
      "alert": "OK",
      "vis_m": 9999,
      "fzfg": false,
      "metar_trigger": false,
      "taf_trigger": false,
      "metar": "METAR UGKO 202130Z 24016KT 9999 SCT022 BKN039 03/01 Q1026 NOSIG",
      "taf": "TAF UGKO 201700Z 2018/2118 26007KT 9999 SCT015 OVC050 TX07/2111Z TN01/2106Z"
    }
  ]
}