{
  "ts_utc": "2025-12-30T05:15:34Z",
  "threshold_m": 150,
  "source": "stations_override.txt (ICAO list) + aviationweather.gov (METAR/TAF raw)",
  "station_count": 159,
  "stations": [
    {
      "icao": "BIKF",
      "alert": "OK",
      "vis_m": 9999,
      "fzfg": false,
      "metar_trigger": false,
      "taf_trigger": false,
      "metar": "METAR BIKF 300500Z 29009KT 9999 OVC025 05/03 Q1039",
      "taf": "TAF BIKF 300419Z 3006/3106 27005KT 9999 BKN019 OVC032 TX06/3021Z TN04/3006Z"
    },
    {
      "icao": "BKPR",
      "alert": "OK",
      "vis_m": 9999,
      "fzfg": false,
      "metar_trigger": false,
      "taf_trigger": false,
      "metar": "METAR BKPR 300500Z 31003KT CAVOK M07/M08 Q1011 NOSIG",
      "taf": "TAF BKPR 292330Z 3000/3024 33006KT CAVOK"
    },
    {
      "icao": "EBCI",
      "alert": "OK",
      "vis_m": 8000,
      "fzfg": false,
      "metar_trigger": false,
      "taf_trigger": false,
      "metar": "METAR EBCI 300450Z 01005KT 8000 NSC 00/M00 Q1028 NOSIG",
      "taf": "TAF EBCI 292310Z 3000/3106 01007KT 1200 -DZ BR BKN003"
    },
    {
      "icao": "EDDB",
      "alert": "OK",
      "vis_m": 9999,
      "fzfg": false,
      "metar_trigger": false,
      "taf_trigger": false,
      "metar": "METAR EDDB 300450Z AUTO 30010KT 270V330 9999 FEW049 M01/M04 Q1020 NOSIG",
      "taf": "TAF EDDB 292300Z 3000/3024 33010KT CAVOK"
    },
    {
      "icao": "EDDH",
      "alert": "OK",
      "vis_m": 9999,
      "fzfg": false,
      "metar_trigger": false,
      "taf_trigger": false,
      "metar": "METAR EDDH 300450Z AUTO 32006KT CAVOK M02/M04 Q1024 NOSIG",
      "taf": "TAF EDDH 292300Z 3000/3106 31004KT CAVOK"
    },
    {
      "icao": "EDDK",
      "alert": "OK",
      "vis_m": 1700,
      "fzfg": false,
      "metar_trigger": false,
      "taf_trigger": false,
      "metar": "METAR EDDK 300450Z AUTO VRB02KT 1700 1300 R31R/P2000N R06/P2000N BR BKN003 BKN006 01/01 Q1026 BECMG 3000 BKN006",
      "taf": ""
    },
    {
      "icao": "EDDN",
      "alert": "OK",
      "vis_m": 9999,
      "fzfg": false,
      "metar_trigger": false,
      "taf_trigger": false,
      "metar": "METAR EDDN 300450Z AUTO 31005KT 9999 FEW041 M01/M02 Q1021",
      "taf": "TAF EDDN 292300Z 3000/3024 30006KT 9000 BKN006"
    },
    {
      "icao": "EDDS",
      "alert": "OK",
      "vis_m": 9999,
      "fzfg": false,
      "metar_trigger": false,
      "taf_trigger": false,
      "metar": "METAR EDDS 300450Z AUTO VRB02KT 9999 OVC005 M01/M03 Q1022",
      "taf": "TAF EDDS 292300Z 3000/3024 VRB02KT 9999 OVC015"
    },
    {
      "icao": "EDFH",
      "alert": "OK",
      "vis_m": 9999,
      "fzfg": false,
      "metar_trigger": false,
      "taf_trigger": false,
      "metar": "METAR EDFH 300450Z 01006KT 330V040 9999 BKN033 M00/M02 Q1023",
      "taf": ""
    },
    {
      "icao": "EDJA",
      "alert": "OK",
      "vis_m": 4500,
      "fzfg": false,
      "metar_trigger": false,
      "taf_trigger": false,
      "metar": "METAR EDJA 300450Z 27005KT 4500 -SN BR OVC018 M04/M05 Q1021",
      "taf": "TAF EDJA 300200Z 3003/3012 20006KT 7000 FEW004 OVC015"
    },
    {
      "icao": "EDLW",
      "alert": "OK",
      "vis_m": 9999,
      "fzfg": false,
      "metar_trigger": false,
      "taf_trigger": false,
      "metar": "METAR EDLW 300450Z 29003KT CAVOK M00/M01 Q1025",
      "taf": "TAF EDLW 300419Z 3005/3024 29004KT 9999 SCT030"
    },
    {
      "icao": "EDNY",
      "alert": "OK",
      "vis_m": 9999,
      "fzfg": false,
      "metar_trigger": false,
      "taf_trigger": false,
      "metar": "METAR EDNY 300450Z AUTO VRB02KT 9999 BKN037/// M02/M04 Q1023",
      "taf": "TAF EDNY 300200Z 3003/3012 04004KT 9000 FEW010 OVC015"
    },
    {
      "icao": "EDSB",
      "alert": "OK",
      "vis_m": 4800,
      "fzfg": false,
      "metar_trigger": false,
      "taf_trigger": false,
      "metar": "METAR EDSB 300450Z 21003KT 4800 BR BKN017 OVC047 M02/M03 Q1025",
      "taf": "TAF EDSB 292300Z 3000/3024 20004KT 3000 BR SCT002 BKN030"
    },
    {
      "icao": "EETN",
      "alert": "OK",
      "vis_m": 4500,
      "fzfg": false,
      "metar_trigger": false,
      "taf_trigger": false,
      "metar": "METAR EETN 300450Z 01012G23KT 340V040 4500 SHSN DRSN SCT020CB OVC033 M04/M07 Q0996 TEMPO 01016G26KT 2000",
      "taf": "TAF EETN 292330Z 3000/3024 35016G26KT 9000 SCT012 BKN025"
    },
    {
      "icao": "EFTU",
      "alert": "OK",
      "vis_m": 9999,
      "fzfg": false,
      "metar_trigger": false,
      "taf_trigger": false,
      "metar": "METAR EFTU 300450Z AUTO 01013G24KT 340V050 9999 -SN OVC028 M02/M07 Q1001",
      "taf": "TAF EFTU 300224Z 3003/3103 34013KT 9999 BKN025"
    },
    {
      "icao": "EGBB",
      "alert": "OK",
      "vis_m": 9999,
      "fzfg": false,
      "metar_trigger": false,
      "taf_trigger": false,
      "metar": "METAR EGBB 300450Z 01004KT 9999 BKN032 03/02 Q1033",
      "taf": "TAF EGBB 300455Z 3006/3106 02006KT 9999 BKN030"
    },
    {
      "icao": "EGGP",
      "alert": "OK",
      "vis_m": 9999,
      "fzfg": false,
      "metar_trigger": false,
      "taf_trigger": false,
      "metar": "METAR EGGP 300450Z AUTO 36005KT 9999 BKN039/// 02/00 Q1035",
      "taf": "TAF EGGP 300453Z 3006/3106 01005KT 9999 BKN035"
    },
    {
      "icao": "EGGW",
      "alert": "OK",
      "vis_m": 9999,
      "fzfg": false,
      "metar_trigger": false,
      "taf_trigger": false,
      "metar": "METAR EGGW 300450Z AUTO 03007KT 9999 OVC038 02/02 Q1031",
      "taf": "TAF EGGW 300455Z 3006/3106 03008KT 9999 FEW036"
    },
    {
      "icao": "EGKK",
      "alert": "OK",
      "vis_m": 9999,
      "fzfg": false,
      "metar_trigger": false,
      "taf_trigger": false,
      "metar": "METAR EGKK 300450Z 06004KT 9999 FEW041 02/01 Q1031",
      "taf": "TAF EGKK 300453Z 3006/3112 03006KT 9999 SCT035"
    },
    {
      "icao": "EGNM",
      "alert": "OK",
      "vis_m": 9999,
      "fzfg": false,
      "metar_trigger": false,
      "taf_trigger": false,
      "metar": "METAR EGNM 300450Z 01004KT 9999 FEW021 BKN037 03/01 Q1034",
      "taf": ""
    },
    {
      "icao": "EGPD",
      "alert": "OK",
      "vis_m": 9999,
      "fzfg": false,
      "metar_trigger": false,
      "taf_trigger": false,
      "metar": "METAR EGPD 300450Z COR AUTO 32006KT 9999 BKN035 03/M01 Q1037 NOSIG",
      "taf": "TAF EGPD 300452Z 3006/3106 30006KT 9999 FEW020 SCT035"
    },
    {
      "icao": "EGPF",
      "alert": "OK",
      "vis_m": 9999,
      "fzfg": false,
      "metar_trigger": false,
      "taf_trigger": false,
      "metar": "METAR EGPF 300450Z AUTO VRB01KT 9999 NCD M03/M03 Q1038",
      "taf": "TAF EGPF 300454Z 3006/3106 VRB04KT 9999 FEW035"
    },
    {
      "icao": "EHBK",
      "alert": "OK",
      "vis_m": 9999,
      "fzfg": false,
      "metar_trigger": false,
      "taf_trigger": false,
      "metar": "METAR EHBK 300455Z AUTO 34005KT 9999 NCD 01/00 Q1027 NOSIG",
      "taf": "TAF EHBK 292321Z 3000/3106 34005KT 2000 BR BKN001"
    },
    {
      "icao": "EHEH",
      "alert": "OK",
      "vis_m": 9999,
      "fzfg": false,
      "metar_trigger": false,
      "taf_trigger": false,
      "metar": "METAR EHEH 300455Z AUTO 33004KT 290V010 9999 BKN046 OVC050 00/M01 Q1028 BLU",
      "taf": "TAF EHEH 292353Z 3000/3106 34004KT 9000 BKN040"
    },
    {
      "icao": "EKBI",
      "alert": "OK",
      "vis_m": 9999,
      "fzfg": false,
      "metar_trigger": false,
      "taf_trigger": false,
      "metar": "METAR EKBI 300450Z AUTO 30004KT 9999 NCD M07/M09 Q1025",
      "taf": "TAF EKBI 300227Z 3003/3103 32008KT 9999 SCT040"
    },
    {
      "icao": "EKCH",
      "alert": "OK",
      "vis_m": 9999,
      "fzfg": false,
      "metar_trigger": false,
      "taf_trigger": false,
      "metar": "METAR EKCH 300450Z AUTO 33009KT 300V360 9999 BKN038/// 01/M06 Q1020 TEMPO 35018G28KT",
      "taf": "TAF EKCH 300227Z 3003/3103 32012KT CAVOK"
    },
    {
      "icao": "ENAL",
      "alert": "OK",
      "vis_m": 9999,
      "fzfg": false,
      "metar_trigger": false,
      "taf_trigger": false,
      "metar": "METAR ENAL 300450Z 31013KT 9999 -SN BKN023 01/M02 Q1029",
      "taf": "TAF ENAL 300200Z 3003/3012 34012KT 9999 FEW008 SCT020CB"
    },
    {
      "icao": "ENBR",
      "alert": "OK",
      "vis_m": 9999,
      "fzfg": false,
      "metar_trigger": false,
      "taf_trigger": false,
      "metar": "METAR ENBR 300450Z 05003KT 9999 FEW051 M02/M04 Q1029 RMK WIND 1200FT 35018KT",
      "taf": "TAF ENBR 292300Z 3000/3024 34008KT CAVOK"
    },
    {
      "icao": "ENGM",
      "alert": "OK",
      "vis_m": 9999,
      "fzfg": false,
      "metar_trigger": false,
      "taf_trigger": false,
      "metar": "METAR ENGM 300450Z 34005KT 310V030 CAVOK M03/M11 Q1022 NOSIG",
      "taf": "TAF ENGM 292300Z 3000/3024 34010KT CAVOK"
    },
    {
      "icao": "ENHD",
      "alert": "OK",
      "vis_m": 9999,
      "fzfg": false,
      "metar_trigger": false,
      "taf_trigger": false,
      "metar": "METAR ENHD 300450Z AUTO 04009KT 9999 SCT037/// BKN047/// 02/M04 Q1030",
      "taf": "TAF ENHD 300200Z 3003/3012 02008KT 9999 SCT040"
    },
    {
      "icao": "ENTC",
      "alert": "OK",
      "vis_m": 1200,
      "fzfg": false,
      "metar_trigger": false,
      "taf_trigger": false,
      "metar": "METAR ENTC 300450Z 33006KT 280V360 1200 R36/1700N R18/P2000D -SN VV009 M06/M07 Q1013 RMK WIND 2600FT 34025KT",
      "taf": "TAF ENTC 292300Z 3000/3024 01008KT 8000 -SHSN FEW015 SCT020CB BKN030"
    },
    {
      "icao": "ENTO",
      "alert": "OK",
      "vis_m": 9999,
      "fzfg": false,
      "metar_trigger": false,
      "taf_trigger": false,
      "metar": "METAR ENTO 300450Z 32008KT CAVOK M01/M11 Q1023",
      "taf": "TAF ENTO 292300Z 3000/3024 33010KT CAVOK"
    },
    {
      "icao": "ENVA",
      "alert": "OK",
      "vis_m": 9999,
      "fzfg": false,
      "metar_trigger": false,
      "taf_trigger": false,
      "metar": "METAR ENVA 300450Z 30007KT 9999 FEW010 BKN035 M02/M03 Q1024 RMK WIND 670FT 31012KT",
      "taf": "TAF ENVA 292300Z 3000/3024 31012KT 8000 -SHSN SCT015CB BKN025"
    },
    {
      "icao": "ENZV",
      "alert": "OK",
      "vis_m": 9999,
      "fzfg": false,
      "metar_trigger": false,
      "taf_trigger": false,
      "metar": "METAR ENZV 300450Z 35005KT CAVOK 01/M05 Q1030",
      "taf": "TAF ENZV 292300Z 3000/3024 35009KT CAVOK"
    },
    {
      "icao": "EPGD",
      "alert": "OK",
      "vis_m": 9999,
      "fzfg": false,
      "metar_trigger": false,
      "taf_trigger": false,
      "metar": "METAR EPGD 300500Z 32014KT 9999 -SHSN FEW003 FEW037CB M01/M07 Q1009",
      "taf": "TAF EPGD 292330Z 3000/3024 32020KT 9999 SCT040"
    },
    {
      "icao": "EPKK",
      "alert": "OK",
      "vis_m": 9999,
      "fzfg": false,
      "metar_trigger": false,
      "taf_trigger": false,
      "metar": "METAR EPKK 300500Z 28012KT 9999 FEW030 M02/M06 Q1011",
      "taf": ""
    },
    {
      "icao": "EPKT",
      "alert": "OK",
      "vis_m": 9999,
      "fzfg": false,
      "metar_trigger": false,
      "taf_trigger": false,
      "metar": "METAR EPKT 300500Z 29011KT 9999 FEW038 M03/M05 Q1011",
      "taf": ""
    },
    {
      "icao": "EPLB",
      "alert": "OK",
      "vis_m": 9999,
      "fzfg": false,
      "metar_trigger": false,
      "taf_trigger": false,
      "metar": "METAR EPLB 300500Z 28012KT CAVOK M04/M07 Q1004",
      "taf": "TAF EPLB 292330Z 3000/3024 29013KT 9999 SCT040"
    },
    {
      "icao": "EPMO",
      "alert": "OK",
      "vis_m": 9999,
      "fzfg": false,
      "metar_trigger": false,
      "taf_trigger": false,
      "metar": "METAR EPMO 300500Z 29015KT 9999 -SN SCT012 M03/M04 Q1007",
      "taf": "TAF EPMO 292330Z 3000/3024 29012KT 9999 FEW040"
    },
    {
      "icao": "EPPO",
      "alert": "OK",
      "vis_m": 9999,
      "fzfg": false,
      "metar_trigger": false,
      "taf_trigger": false,
      "metar": "METAR EPPO 300500Z 31009KT CAVOK M02/M07 Q1014",
      "taf": "TAF EPPO 292330Z 3000/3024 32010KT CAVOK"
    },
    {
      "icao": "EPRA",
      "alert": "OK",
      "vis_m": 9999,
      "fzfg": false,
      "metar_trigger": false,
      "taf_trigger": false,
      "metar": "METAR EPRA 300500Z 30012KT 280V340 CAVOK M03/M08 Q1007",
      "taf": "TAF EPRA 300230Z 3003/3012 30010KT CAVOK"
    },
    {
      "icao": "EPRZ",
      "alert": "OK",
      "vis_m": 9999,
      "fzfg": false,
      "metar_trigger": false,
      "taf_trigger": false,
      "metar": "METAR EPRZ 300500Z 27012KT CAVOK M03/M06 Q1008",
      "taf": ""
    },
    {
      "icao": "EPSC",
      "alert": "OK",
      "vis_m": 9999,
      "fzfg": false,
      "metar_trigger": false,
      "taf_trigger": false,
      "metar": "METAR EPSC 300500Z 29008KT CAVOK M04/M07 Q1017",
      "taf": "TAF EPSC 292330Z 3000/3024 30010KT CAVOK"
    },
    {
      "icao": "EPSY",
      "alert": "OK",
      "vis_m": 1300,
      "fzfg": false,
      "metar_trigger": false,
      "taf_trigger": false,
      "metar": "METAR EPSY 300500Z 28008KT 230V330 1300 R01/P2000D +SHSN BKN011 BKN014CB M03/M04 Q1004",
      "taf": "TAF EPSY 300230Z 3003/3012 29008KT 9999 BKN030"
    },
    {
      "icao": "EPWA",
      "alert": "OK",
      "vis_m": 9999,
      "fzfg": false,
      "metar_trigger": false,
      "taf_trigger": false,
      "metar": "METAR EPWA 300500Z 30015KT 9999 BKN027 BKN040 M02/M06 Q1006 NOSIG",
      "taf": "TAF EPWA 300230Z 3003/3103 28012KT 9999 FEW030"
    },
    {
      "icao": "EPWR",
      "alert": "OK",
      "vis_m": 9999,
      "fzfg": false,
      "metar_trigger": false,
      "taf_trigger": false,
      "metar": "METAR EPWR 300500Z 30014KT CAVOK M02/M06 Q1015",
      "taf": "TAF EPWR 300230Z 3003/3103 31012KT CAVOK"
    },
    {
      "icao": "ESGG",
      "alert": "OK",
      "vis_m": 9999,
      "fzfg": false,
      "metar_trigger": false,
      "taf_trigger": false,
      "metar": "METAR ESGG 300450Z 33010KT 320V020 CAVOK M02/M10 Q1019",
      "taf": "TAF ESGG 300230Z 3003/3103 34010KT CAVOK"
    },
    {
      "icao": "ESKN",
      "alert": "OK",
      "vis_m": 9999,
      "fzfg": false,
      "metar_trigger": false,
      "taf_trigger": false,
      "metar": "METAR ESKN 300450Z 32015G27KT CAVOK M02/M08 Q1012",
      "taf": "TAF ESKN 300230Z 3003/3103 33015G25KT CAVOK"
    },
    {
      "icao": "ESMS",
      "alert": "OK",
      "vis_m": 9999,
      "fzfg": false,
      "metar_trigger": false,
      "taf_trigger": false,
      "metar": "METAR ESMS 300450Z 32011KT CAVOK M02/M07 Q1018",
      "taf": "TAF ESMS 300227Z 3003/3103 33012KT CAVOK"
    },
    {
      "icao": "ESSA",
      "alert": "OK",
      "vis_m": 9999,
      "fzfg": false,
      "metar_trigger": false,
      "taf_trigger": false,
      "metar": "METAR ESSA 300450Z 33021KT 9999 FEW020 SCT041 M03/M09 Q1010 TEMPO SCT040TCU",
      "taf": "TAF ESSA 300230Z 3003/3103 32015G25KT CAVOK"
    },
    {
      "icao": "EYKA",
      "alert": "OK",
      "vis_m": 9999,
      "fzfg": false,
      "metar_trigger": false,
      "taf_trigger": false,
      "metar": "METAR EYKA 300450Z 28009KT 250V310 CAVOK M04/M07 Q0998",
      "taf": ""
    },
    {
      "icao": "EYPA",
      "alert": "OK",
      "vis_m": 9999,
      "fzfg": false,
      "metar_trigger": false,
      "taf_trigger": false,
      "metar": "METAR EYPA 300450Z 01014G32KT 330V030 9999 -SHSNRA FEW016CB BKN024 BKN034 01/M04 Q1001",
      "taf": "TAF EYPA 300510Z 3006/3106 36014KT 9000 BKN025"
    },
    {
      "icao": "EYVI",
      "alert": "OK",
      "vis_m": 9999,
      "fzfg": false,
      "metar_trigger": false,
      "taf_trigger": false,
      "metar": "METAR EYVI 300450Z 29014KT 9999 BKN042 M04/M08 Q0995 NOSIG",
      "taf": "TAF EYVI 300510Z 3006/3106 30013KT 8000 SCT015 BKN035"
    },
    {
      "icao": "GCFV",
      "alert": "OK",
      "vis_m": 9999,
      "fzfg": false,
      "metar_trigger": false,
      "taf_trigger": false,
      "metar": "METAR GCFV 300500Z AUTO 28005KT CAVOK 13/10 Q1020",
      "taf": "TAF GCFV 300200Z 3003/3103 29004KT 9999 FEW030 TX21/3014Z TN14/3006Z"
    },
    {
      "icao": "GCLP",
      "alert": "OK",
      "vis_m": 9999,
      "fzfg": false,
      "metar_trigger": false,
      "taf_trigger": false,
      "metar": "METAR GCLP 300500Z 27006KT 9999 FEW020 15/12 Q1020 NOSIG",
      "taf": "TAF GCLP 300200Z 3003/3103 28004KT 9999 FEW030 TX22/3014Z TN15/3006Z"
    },
    {
      "icao": "GCTS",
      "alert": "OK",
      "vis_m": 9999,
      "fzfg": false,
      "metar_trigger": false,
      "taf_trigger": false,
      "metar": "METAR GCTS 300500Z 33006KT 9999 FEW030 16/11 Q1021 NOSIG",
      "taf": "TAF GCTS 300200Z 3003/3103 35005KT 9999 SCT030 TX24/3014Z TN16/3006Z"
    },
    {
      "icao": "GMAD",
      "alert": "OK",
      "vis_m": 9999,
      "fzfg": false,
      "metar_trigger": false,
      "taf_trigger": false,
      "metar": "METAR GMAD 300500Z 08005KT 9999 FEW026 08/08 Q1020 NOSIG",
      "taf": "TAF GMAD 300500Z 3006/3112 06005KT 8000 SCT020"
    },
    {
      "icao": "GMMN",
      "alert": "OK",
      "vis_m": 3000,
      "fzfg": false,
      "metar_trigger": false,
      "taf_trigger": false,
      "metar": "METAR GMMN 300500Z 18006KT 3000 BR FEW005 SCT016 06/05 Q1021 NOSIG",
      "taf": "TAF GMMN 292300Z 3000/3106 15003KT 6000 FEW010 SCT016"
    },
    {
      "icao": "GMMX",
      "alert": "OK",
      "vis_m": 8000,
      "fzfg": false,
      "metar_trigger": false,
      "taf_trigger": false,
      "metar": "METAR GMMX 300500Z 16003KT 8000 SCT020 SCT090 09/07 Q1020 NOSIG",
      "taf": "TAF GMMX 292300Z 3000/3106 14006KT 8000 SCT020"
    },
    {
      "icao": "HEGN",
      "alert": "OK",
      "vis_m": 9999,
      "fzfg": false,
      "metar_trigger": false,
      "taf_trigger": false,
      "metar": "METAR HEGN 300400Z 29008KT CAVOK 12/02 Q1021 NOSIG",
      "taf": "TAF HEGN 300500Z 3006/3112 34012KT CAVOK"
    },
    {
      "icao": "HEMA",
      "alert": "OK",
      "vis_m": 9999,
      "fzfg": false,
      "metar_trigger": false,
      "taf_trigger": false,
      "metar": "METAR HEMA 300400Z 26010KT CAVOK 15/08 Q1020 NOSIG",
      "taf": "TAF HEMA 300500Z 3006/3112 35012KT CAVOK"
    },
    {
      "icao": "HESH",
      "alert": "OK",
      "vis_m": 9999,
      "fzfg": false,
      "metar_trigger": false,
      "taf_trigger": false,
      "metar": "METAR HESH 300400Z 34002KT CAVOK 16/04 Q1019 NOSIG",
      "taf": "TAF HESH 300500Z 3006/3112 35012KT CAVOK"
    },
    {
      "icao": "HESX",
      "alert": "OK",
      "vis_m": 9999,
      "fzfg": false,
      "metar_trigger": false,
      "taf_trigger": false,
      "metar": "METAR HESX 300400Z VRB01KT 9999 FEW030 BKN100 12/09 Q1020 NOSIG",
      "taf": "TAF HESX 300500Z 3006/3112 23009KT 9999 SCT030 SCT100"
    },
    {
      "icao": "LATI",
      "alert": "OK",
      "vis_m": 9999,
      "fzfg": false,
      "metar_trigger": false,
      "taf_trigger": false,
      "metar": "METAR LATI 300450Z 17005KT 9999 SCT032 00/M03 Q1014 NOSIG",
      "taf": "TAF LATI 300500Z 3006/3106 VRB05KT CAVOK TX15/3012Z TNM02/3105Z"
    },
    {
      "icao": "LBPD",
      "alert": "OK",
      "vis_m": 9999,
      "fzfg": false,
      "metar_trigger": false,
      "taf_trigger": false,
      "metar": "METAR LBPD 300500Z AUTO 10003KT 080V140 9999 NCD M02/M05 Q1009 NOSIG",
      "taf": "TAF LBPD 300500Z 3006/3106 VRB04KT CAVOK"
    },
    {
      "icao": "LBSF",
      "alert": "OK",
      "vis_m": 9999,
      "fzfg": false,
      "metar_trigger": false,
      "taf_trigger": false,
      "metar": "METAR LBSF 300500Z 26002KT CAVOK M07/M08 Q1009 NOSIG",
      "taf": "TAF LBSF 300500Z 3006/3106 VRB04KT CAVOK"
    },
    {
      "icao": "LBWN",
      "alert": "OK",
      "vis_m": 9999,
      "fzfg": false,
      "metar_trigger": false,
      "taf_trigger": false,
      "metar": "METAR LBWN 300500Z AUTO 31005KT 9999 NCD M03/M08 Q1006 NOSIG",
      "taf": "TAF LBWN 300500Z 3006/3106 29008KT CAVOK"
    },
    {
      "icao": "LCLK",
      "alert": "OK",
      "vis_m": 9999,
      "fzfg": false,
      "metar_trigger": false,
      "taf_trigger": false,
      "metar": "METAR LCLK 300500Z 32005KT 9999 FEW040 04/02 Q1019 NOSIG",
      "taf": "TAF LCLK 292330Z 3000/3100 35008KT 9999 FEW025"
    },
    {
      "icao": "LCPH",
      "alert": "OK",
      "vis_m": 9999,
      "fzfg": false,
      "metar_trigger": false,
      "taf_trigger": false,
      "metar": "METAR LCPH 300500Z 03006KT 010V080 9999 FEW025 08/02 Q1019 NOSIG",
      "taf": "TAF LCPH 292330Z 3000/3100 04008KT 9999 FEW020"
    },
    {
      "icao": "LEAL",
      "alert": "OK",
      "vis_m": 9999,
      "fzfg": false,
      "metar_trigger": false,
      "taf_trigger": false,
      "metar": "METAR LEAL 300500Z 25006KT CAVOK 08/08 Q1019 NOSIG",
      "taf": "TAF LEAL 292300Z 3000/3024 29005KT 9999 FEW020 TX18/3013Z TN07/3006Z"
    },
    {
      "icao": "LEBB",
      "alert": "OK",
      "vis_m": 9999,
      "fzfg": false,
      "metar_trigger": false,
      "taf_trigger": false,
      "metar": "METAR LEBB 300500Z 10003KT 050V130 9999 SCT024 BKN037 08/07 Q1021 NOSIG",
      "taf": "TAF LEBB 292300Z 3000/3024 VRB03KT 9999 SCT020 BKN030 TX12/3014Z TN05/3006Z"
    },
    {
      "icao": "LEBL",
      "alert": "OK",
      "vis_m": 9999,
      "fzfg": false,
      "metar_trigger": false,
      "taf_trigger": false,
      "metar": "METAR LEBL 300500Z 32011KT CAVOK 08/07 Q1017 NOSIG",
      "taf": "TAF LEBL 292300Z 3000/3024 34006KT 9999 FEW020 TX15/3012Z TN07/3007Z"
    },
    {
      "icao": "LECH",
      "alert": "OK",
      "vis_m": 9000,
      "fzfg": false,
      "metar_trigger": false,
      "taf_trigger": false,
      "metar": "METAR LECH 300500Z AUTO 19004KT 170V230 9000 FEW067 05/04 Q1018",
      "taf": ""
    },
    {
      "icao": "LEMD",
      "alert": "OK",
      "vis_m": 9999,
      "fzfg": false,
      "metar_trigger": false,
      "taf_trigger": false,
      "metar": "METAR LEMD 300500Z 36001KT CAVOK M01/M01 Q1020 NOSIG",
      "taf": "TAF LEMD 292300Z 3000/3106 VRB04KT CAVOK TX11/3015Z TNM01/3007Z"
    },
    {
      "icao": "LEMG",
      "alert": "OK",
      "vis_m": 9999,
      "fzfg": false,
      "metar_trigger": false,
      "taf_trigger": false,
      "metar": "METAR LEMG 300500Z 30007KT CAVOK 06/06 Q1021 NOSIG",
      "taf": "TAF LEMG 292300Z 3000/3024 29008KT 9999 FEW050 TX18/3014Z TN06/3006Z"
    },
    {
      "icao": "LEVC",
      "alert": "OK",
      "vis_m": 9999,
      "fzfg": false,
      "metar_trigger": false,
      "taf_trigger": false,
      "metar": "METAR LEVC 300500Z 29005KT CAVOK 06/05 Q1019 NOSIG",
      "taf": "TAF LEVC 292300Z 3000/3024 29006KT 9999 FEW030 TX17/3013Z TN05/3006Z"
    },
    {
      "icao": "LEXJ",
      "alert": "OK",
      "vis_m": 9000,
      "fzfg": false,
      "metar_trigger": false,
      "taf_trigger": false,
      "metar": "METAR LEXJ 300500Z 00000KT 9000 BKN022 08/06 Q1022",
      "taf": "TAF LEXJ 300200Z 3003/3103 22007KT 9999 SCT015 BKN025 TX12/3015Z TN07/3003Z"
    },
    {
      "icao": "LEZG",
      "alert": "OK",
      "vis_m": 9999,
      "fzfg": false,
      "metar_trigger": false,
      "taf_trigger": false,
      "metar": "METAR LEZG 300500Z 26003KT 220V330 CAVOK 04/04 Q1019 NOSIG",
      "taf": ""
    },
    {
      "icao": "LEZL",
      "alert": "OK",
      "vis_m": 6000,
      "fzfg": false,
      "metar_trigger": false,
      "taf_trigger": false,
      "metar": "METAR LEZL 300500Z 00000KT 6000 1800W NSC 06/06 Q1021 NOSIG",
      "taf": "TAF LEZL 300200Z 3003/3103 05006KT CAVOK TX16/3015Z TN06/3006Z"
    },
    {
      "icao": "LFBD",
      "alert": "OK",
      "vis_m": 3300,
      "fzfg": false,
      "metar_trigger": false,
      "taf_trigger": false,
      "metar": "METAR LFBD 300500Z AUTO 01008KT 3300 BR OVC002 01/00 Q1022 BECMG 9999 NSW BKN008",
      "taf": ""
    },
    {
      "icao": "LFLL",
      "alert": "OK",
      "vis_m": 5000,
      "fzfg": false,
      "metar_trigger": false,
      "taf_trigger": false,
      "metar": "METAR LFLL 300500Z 35008KT 320V020 5000 BR OVC005 M01/M02 Q1021 NOSIG",
      "taf": ""
    },
    {
      "icao": "LFLS",
      "alert": "OK",
      "vis_m": 6000,
      "fzfg": false,
      "metar_trigger": false,
      "taf_trigger": false,
      "metar": "METAR LFLS 300500Z AUTO 35005KT 320V030 6000 OVC006 M02/M02 Q1019 TEMPO 4500 BR VV///",
      "taf": "TAF LFLS 300200Z 3003/3103 35005KT 7000 OVC006"
    },
    {
      "icao": "LFMN",
      "alert": "OK",
      "vis_m": 9999,
      "fzfg": false,
      "metar_trigger": false,
      "taf_trigger": false,
      "metar": "METAR LFMN 300500Z 33013KT CAVOK 05/M03 Q1012 NOSIG",
      "taf": "TAF LFMN 300200Z 3003/3109 33010KT CAVOK"
    },
    {
      "icao": "LFOB",
      "alert": "OK",
      "vis_m": 6000,
      "fzfg": false,
      "metar_trigger": false,
      "taf_trigger": false,
      "metar": "METAR LFOB 300500Z AUTO 04008KT 6000 BKN006 02/01 Q1028",
      "taf": ""
    },
    {
      "icao": "LFPO",
      "alert": "OK",
      "vis_m": 9999,
      "fzfg": false,
      "metar_trigger": false,
      "taf_trigger": false,
      "metar": "METAR LFPO 300500Z 03006KT 9999 BKN033 03/01 Q1027 TEMPO BKN008",
      "taf": "TAF LFPO 292300Z 3000/3106 05012KT 9999 OVC019"
    },
    {
      "icao": "LFSB",
      "alert": "OK",
      "vis_m": 9000,
      "fzfg": true,
      "metar_trigger": false,
      "taf_trigger": false,
      "metar": "METAR LFSB 300500Z AUTO VRB02KT 9000 FEW020 M03/M05 Q1024 TEMPO 0500 FZFG VV///",
      "taf": ""
    },
    {
      "icao": "LGAV",
      "alert": "OK",
      "vis_m": 9999,
      "fzfg": false,
      "metar_trigger": false,
      "taf_trigger": false,
      "metar": "METAR LGAV 300450Z 21002KT 9999 FEW025 06/04 Q1014 NOSIG",
      "taf": "TAF LGAV 300500Z 3006/3106 25010KT 9999 FEW025"
    },
    {
      "icao": "LGTS",
      "alert": "OK",
      "vis_m": 9999,
      "fzfg": false,
      "metar_trigger": false,
      "taf_trigger": false,
      "metar": "METAR LGTS 300450Z 12004KT CAVOK M01/M04 Q1012 NOSIG",
      "taf": "TAF LGTS 300500Z 3006/3106 VRB03KT CAVOK"
    },
    {
      "icao": "LHBP",
      "alert": "OK",
      "vis_m": 9999,
      "fzfg": false,
      "metar_trigger": false,
      "taf_trigger": false,
      "metar": "METAR LHBP 300500Z 30020KT 9999 FEW022 BKN041 01/M03 Q1012 NOSIG",
      "taf": "TAF LHBP 292315Z 3000/3024 30009KT CAVOK"
    },
    {
      "icao": "LHDC",
      "alert": "OK",
      "vis_m": 8000,
      "fzfg": false,
      "metar_trigger": false,
      "taf_trigger": false,
      "metar": "METAR LHDC 300445Z AUTO 20003KT 8000 NSC M05/M06 Q1010 NOSIG",
      "taf": ""
    },
    {
      "icao": "LIBD",
      "alert": "OK",
      "vis_m": 9999,
      "fzfg": false,
      "metar_trigger": false,
      "taf_trigger": false,
      "metar": "METAR LIBD 300450Z 21007KT CAVOK 03/02 Q1012",
      "taf": "TAF LIBD 292300Z 3000/3024 20006KT 9999 SCT030"
    },
    {
      "icao": "LIBG",
      "alert": "OK",
      "vis_m": null,
      "fzfg": false,
      "metar_trigger": false,
      "taf_trigger": false,
      "metar": "",
      "taf": ""
    },
    {
      "icao": "LIBP",
      "alert": "OK",
      "vis_m": 9999,
      "fzfg": false,
      "metar_trigger": false,
      "taf_trigger": false,
      "metar": "METAR LIBP 300450Z AUTO 22008KT 9999 FEW012/// 00/M00 Q1013",
      "taf": "TAF LIBP 292300Z 3000/3024 VRB05KT 4000 BR FEW030"
    },
    {
      "icao": "LIBR",
      "alert": "OK",
      "vis_m": 9999,
      "fzfg": false,
      "metar_trigger": false,
      "taf_trigger": false,
      "metar": "METAR LIBR 300450Z 16004KT CAVOK 08/06 Q1013",
      "taf": "TAF LIBR 292300Z 3000/3024 23006KT 9999 FEW025"
    },
    {
      "icao": "LICA",
      "alert": "OK",
      "vis_m": 9999,
      "fzfg": false,
      "metar_trigger": false,
      "taf_trigger": false,
      "metar": "METAR LICA 300450Z AUTO VRB02KT 9999 BKN037/// 07/07 Q1013",
      "taf": "TAF LICA 292300Z 3000/3024 07006KT 9999 SCT030"
    },
    {
      "icao": "LICC",
      "alert": "OK",
      "vis_m": 9999,
      "fzfg": false,
      "metar_trigger": false,
      "taf_trigger": false,
      "metar": "METAR LICC 300450Z 22007KT 9999 BKN090 09/07 Q1014",
      "taf": "TAF LICC 292300Z 3000/3024 26010KT 9999 SCT030"
    },
    {
      "icao": "LICJ",
      "alert": "OK",
      "vis_m": 9999,
      "fzfg": false,
      "metar_trigger": false,
      "taf_trigger": false,
      "metar": "METAR LICJ 300450Z 17005KT CAVOK 11/07 Q1014",
      "taf": "TAF LICJ 292300Z 3000/3024 17006KT 9999 SCT020"
    },
    {
      "icao": "LIMC",
      "alert": "OK",
      "vis_m": 9999,
      "fzfg": false,
      "metar_trigger": false,
      "taf_trigger": false,
      "metar": "METAR LIMC 300450Z 36005KT CAVOK M02/M03 Q1011 NOSIG",
      "taf": "TAF LIMC 292300Z 3000/3106 VRB04KT CAVOK"
    },
    {
      "icao": "LIME",
      "alert": "OK",
      "vis_m": 9999,
      "fzfg": false,
      "metar_trigger": false,
      "taf_trigger": false,
      "metar": "METAR LIME 300450Z VRB02KT CAVOK 01/M03 Q1011 NOSIG",
      "taf": "TAF LIME 292300Z 3000/3024 VRB04KT CAVOK"
    },
    {
      "icao": "LIMF",
      "alert": "OK",
      "vis_m": 9999,
      "fzfg": false,
      "metar_trigger": false,
      "taf_trigger": false,
      "metar": "METAR LIMF 300450Z 24005KT CAVOK M00/M05 Q1011",
      "taf": "TAF LIMF 292300Z 3000/3024 VRB05KT CAVOK"
    },
    {
      "icao": "LIMJ",
      "alert": "OK",
      "vis_m": 9999,
      "fzfg": false,
      "metar_trigger": false,
      "taf_trigger": false,
      "metar": "METAR LIMJ 300450Z 16006KT 130V190 9999 BKN030 13/07 Q1012",
      "taf": "TAF LIMJ 292300Z 3000/3024 VRB05KT 9999 FEW020"
    },
    {
      "icao": "LIPE",
      "alert": "OK",
      "vis_m": 9999,
      "fzfg": false,
      "metar_trigger": false,
      "taf_trigger": false,
      "metar": "METAR LIPE 300450Z 21002KT CAVOK M01/M03 Q1012",
      "taf": ""
    },
    {
      "icao": "LIPH",
      "alert": "OK",
      "vis_m": 5000,
      "fzfg": false,
      "metar_trigger": false,
      "taf_trigger": false,
      "metar": "METAR LIPH 300450Z AUTO 33003KT 300V360 5000 BR OVC017/// 02/02 Q1012",
      "taf": ""
    },
    {
      "icao": "LIPQ",
      "alert": "OK",
      "vis_m": 9999,
      "fzfg": false,
      "metar_trigger": false,
      "taf_trigger": false,
      "metar": "METAR LIPQ 300450Z AUTO 11004KT 9999 NCD 00/M01 Q1012",
      "taf": ""
    },
    {
      "icao": "LIPR",
      "alert": "OK",
      "vis_m": 9999,
      "fzfg": false,
      "metar_trigger": false,
      "taf_trigger": false,
      "metar": "METAR LIPR 300450Z AUTO VRB02KT 9999 NCD M01/M02 Q1012",
      "taf": ""
    },
    {
      "icao": "LIPX",
      "alert": "OK",
      "vis_m": 1000,
      "fzfg": false,
      "metar_trigger": false,
      "taf_trigger": false,
      "metar": "METAR LIPX 300450Z VRB01KT 1000 R04/P2000N BCFG FEW006 M04/M05 Q1012",
      "taf": "TAF LIPX 292300Z 3000/3024 VRB05KT 1000 BCFG NSC"
    },
    {
      "icao": "LIPY",
      "alert": "OK",
      "vis_m": 9999,
      "fzfg": false,
      "metar_trigger": false,
      "taf_trigger": false,
      "metar": "METAR LIPY 300450Z AUTO 20003KT 9999 NCD 01/01 Q1012",
      "taf": ""
    },
    {
      "icao": "LIPZ",
      "alert": "OK",
      "vis_m": 1200,
      "fzfg": true,
      "metar_trigger": false,
      "taf_trigger": false,
      "metar": "METAR LIPZ 300450Z 28003KT 240V300 1200 R04R/P2000N BR FEW003 SCT017 01/01 Q1013 NOSIG",
      "taf": "TAF LIPZ 292300Z 3000/3106 VRB05KT 0200 FZFG BKN001"
    },
    {
      "icao": "LIRF",
      "alert": "OK",
      "vis_m": 9999,
      "fzfg": false,
      "metar_trigger": false,
      "taf_trigger": false,
      "metar": "METAR LIRF 300450Z 04003KT CAVOK 05/04 Q1014 NOSIG",
      "taf": "TAF LIRF 292300Z 3000/3106 07007KT 9999 SCT025"
    },
    {
      "icao": "LIRN",
      "alert": "OK",
      "vis_m": 9999,
      "fzfg": false,
      "metar_trigger": false,
      "taf_trigger": false,
      "metar": "METAR LIRN 300450Z 27003KT CAVOK 03/01 Q1013 NOSIG",
      "taf": "TAF LIRN 292300Z 3000/3024 VRB05KT 9999 FEW025"
    },
    {
      "icao": "LIRP",
      "alert": "OK",
      "vis_m": 9999,
      "fzfg": false,
      "metar_trigger": false,
      "taf_trigger": false,
      "metar": "METAR LIRP 300445Z 12005KT 9999 FEW030 SCT040 03/03 Q1013 NOSIG",
      "taf": "TAF LIRP 292300Z 3000/3024 14005KT 9999 SCT020 SCT040"
    },
    {
      "icao": "LIRZ",
      "alert": "OK",
      "vis_m": 9999,
      "fzfg": false,
      "metar_trigger": false,
      "taf_trigger": false,
      "metar": "METAR LIRZ 300450Z AUTO VRB02KT 9999 OVC041/// 01/00 Q1014",
      "taf": "TAF LIRZ 292300Z 3000/3024 VRB03KT 9999 FEW030"
    },
    {
      "icao": "LJLJ",
      "alert": "OK",
      "vis_m": 9999,
      "fzfg": false,
      "metar_trigger": false,
      "taf_trigger": false,
      "metar": "METAR LJLJ 300500Z VRB02KT 9999 FEW001 M06/M07 Q1015 NOSIG",
      "taf": "TAF LJLJ 300500Z 3006/3106 30002KT 9999 FEW002"
    },
    {
      "icao": "LKMT",
      "alert": "OK",
      "vis_m": 9999,
      "fzfg": false,
      "metar_trigger": false,
      "taf_trigger": false,
      "metar": "METAR LKMT 300500Z 34008KT CAVOK M02/M06 Q1014 NOSIG",
      "taf": "TAF LKMT 292300Z 3000/3024 23008KT 6000 -SN OVC025"
    },
    {
      "icao": "LKPR",
      "alert": "OK",
      "vis_m": 9999,
      "fzfg": false,
      "metar_trigger": false,
      "taf_trigger": false,
      "metar": "METAR LKPR 300500Z 30004KT 260V320 CAVOK M02/M05 Q1018 NOSIG",
      "taf": "TAF LKPR 300200Z 3003/3109 32014KT 9999 SCT012 BKN020"
    },
    {
      "icao": "LLBG",
      "alert": "OK",
      "vis_m": 9999,
      "fzfg": false,
      "metar_trigger": false,
      "taf_trigger": false,
      "metar": "METAR LLBG 300450Z 16006KT 9999 FEW045 13/10 Q1020 NOSIG RMK SCT060",
      "taf": "TAF LLBG 300504Z 3006/3106 17006KT 9999 SCT040"
    },
    {
      "icao": "LMML",
      "alert": "OK",
      "vis_m": 9999,
      "fzfg": false,
      "metar_trigger": false,
      "taf_trigger": false,
      "metar": "METAR LMML 300445Z 23007KT 9999 FEW049 11/07 Q1014 TEMPO 8000 SHRA SCT020TCU",
      "taf": "TAF LMML 300500Z 3006/3106 27005KT 9999 SCT023"
    },
    {
      "icao": "LOWW",
      "alert": "OK",
      "vis_m": 9999,
      "fzfg": false,
      "metar_trigger": false,
      "taf_trigger": false,
      "metar": "METAR LOWW 300450Z 31018KT 9999 -SN FEW015 SCT024 BKN032 00/M03 Q1015 TEMPO TL0600 3500 -SHSN BKN010",
      "taf": "TAF LOWW 300215Z 3003/3109 30013KT CAVOK TX02/3013Z TNM02/3102Z"
    },
    {
      "icao": "LPFR",
      "alert": "OK",
      "vis_m": 9999,
      "fzfg": false,
      "metar_trigger": false,
      "taf_trigger": false,
      "metar": "METAR LPFR 300500Z 02006KT CAVOK 07/07 Q1021",
      "taf": "TAF LPFR 292300Z 3000/3024 03005KT 9999 SCT012"
    },
    {
      "icao": "LPMA",
      "alert": "OK",
      "vis_m": 9999,
      "fzfg": false,
      "metar_trigger": false,
      "taf_trigger": false,
      "metar": "METAR LPMA 300500Z VRB02KT 9999 BKN015 16/13 Q1017",
      "taf": "TAF LPMA 292300Z 3000/3024 20020KT 9999 SCT015"
    },
    {
      "icao": "LPPR",
      "alert": "OK",
      "vis_m": 6000,
      "fzfg": false,
      "metar_trigger": false,
      "taf_trigger": false,
      "metar": "METAR LPPR 300500Z VRB02KT 6000 NSC 05/04 Q1021",
      "taf": "TAF LPPR 292300Z 3000/3024 VRB02KT CAVOK"
    },
    {
      "icao": "LPPS",
      "alert": "OK",
      "vis_m": 4000,
      "fzfg": false,
      "metar_trigger": false,
      "taf_trigger": false,
      "metar": "METAR LPPS 300500Z 29006KT 4000 -RADZ BR SCT005 BKN010 17/17 Q1017",
      "taf": "TAF LPPS 300500Z 3006/3112 29010KT 9999 SCT015"
    },
    {
      "icao": "LPPT",
      "alert": "OK",
      "vis_m": 300,
      "fzfg": false,
      "metar_trigger": false,
      "taf_trigger": false,
      "metar": "METAR LPPT 300500Z 00000KT 0300 R02/0400N FG VV001 06/06 Q1021",
      "taf": "TAF LPPT 300500Z 3006/3112 VRB02KT 0100 FG VV001"
    },
    {
      "icao": "LQBK",
      "alert": "OK",
      "vis_m": 6000,
      "fzfg": false,
      "metar_trigger": false,
      "taf_trigger": false,
      "metar": "METAR LQBK 300500Z 15007KT 6000 OVC002 M04/M05 Q1017 NOSIG",
      "taf": "TAF LQBK 300500Z 3006/3106 30005KT 9999 SCT030 TX03/3013Z TNM07/3105Z"
    },
    {
      "icao": "LQSA",
      "alert": "OK",
      "vis_m": 6000,
      "fzfg": false,
      "metar_trigger": false,
      "taf_trigger": false,
      "metar": "METAR LQSA 300500Z VRB01KT 6000 FEW004 M08/M08 Q1013 NOSIG",
      "taf": "TAF LQSA 300500Z 3006/3106 VRB02KT CAVOK TX03/3013Z TNM09/3106Z"
    },
    {
      "icao": "LQTZ",
      "alert": "OK",
      "vis_m": 4400,
      "fzfg": false,
      "metar_trigger": false,
      "taf_trigger": false,
      "metar": "METAR LQTZ 300500Z 00000KT 4400 BR NSC M08/M08 Q1016",
      "taf": "TAF LQTZ 300500Z 3006/3106 29005KT 9999 BKN030 TX02/3013Z TNM08/3105Z"
    },
    {
      "icao": "LRBC",
      "alert": "OK",
      "vis_m": 9999,
      "fzfg": false,
      "metar_trigger": false,
      "taf_trigger": false,
      "metar": "METAR LRBC 300500Z 04005KT CAVOK M05/M06 Q1005",
      "taf": "TAF LRBC 300200Z 3003/3012 VRB04KT CAVOK"
    },
    {
      "icao": "LRBS",
      "alert": "OK",
      "vis_m": 9999,
      "fzfg": false,
      "metar_trigger": false,
      "taf_trigger": false,
      "metar": "METAR LRBS 300500Z 00000KT CAVOK M05/M06 Q1006 NOSIG",
      "taf": "TAF LRBS 292300Z 3000/3024 VRB04KT CAVOK"
    },
    {
      "icao": "LRBV",
      "alert": "OK",
      "vis_m": 9999,
      "fzfg": false,
      "metar_trigger": false,
      "taf_trigger": false,
      "metar": "METAR LRBV 300500Z 25004KT 220V300 9999 BKN031 M07/M09 Q1006",
      "taf": "TAF LRBV 300200Z 3003/3012 25005KT 9999 SCT035"
    },
    {
      "icao": "LRCL",
      "alert": "OK",
      "vis_m": 9999,
      "fzfg": false,
      "metar_trigger": false,
      "taf_trigger": false,
      "metar": "METAR LRCL 300500Z 26007KT 9999 SCT036 OVC047 M04/M07 Q1008",
      "taf": "TAF LRCL 300200Z 3003/3012 VRB04KT 9999 OVC030"
    },
    {
      "icao": "LRCV",
      "alert": "OK",
      "vis_m": 9999,
      "fzfg": false,
      "metar_trigger": false,
      "taf_trigger": false,
      "metar": "METAR LRCV 300500Z 29013KT CAVOK 01/M06 Q1006",
      "taf": "TAF LRCV 300200Z 3003/3012 28018KT CAVOK"
    },
    {
      "icao": "LRIA",
      "alert": "OK",
      "vis_m": 9999,
      "fzfg": false,
      "metar_trigger": false,
      "taf_trigger": false,
      "metar": "METAR LRIA 300500Z 23007KT 9999 -SN OVC039 00/M07 Q1004",
      "taf": "TAF LRIA 300200Z 3003/3012 26006KT 9999 OVC030"
    },
    {
      "icao": "LROP",
      "alert": "OK",
      "vis_m": 8000,
      "fzfg": false,
      "metar_trigger": false,
      "taf_trigger": false,
      "metar": "METAR LROP 300500Z 18002KT 8000 NSC M06/M07 Q1006 NOSIG",
      "taf": "TAF LROP 292300Z 3000/3024 VRB04KT CAVOK"
    },
    {
      "icao": "LRSB",
      "alert": "OK",
      "vis_m": 9999,
      "fzfg": false,
      "metar_trigger": false,
      "taf_trigger": false,
      "metar": "METAR LRSB 300500Z 30007KT 9999 FEW023 SCT027 M04/M06 Q1007 NOSIG",
      "taf": "TAF LRSB 292300Z 3000/3024 VRB04KT CAVOK"
    },
    {
      "icao": "LRSM",
      "alert": "OK",
      "vis_m": 9999,
      "fzfg": false,
      "metar_trigger": false,
      "taf_trigger": false,
      "metar": "METAR LRSM 300500Z 25009KT 9999 -SN OVC042 M03/M05 Q1009",
      "taf": "TAF LRSM 300200Z 3003/3012 26008KT 9999 SCT010 OVC030"
    },
    {
      "icao": "LRSV",
      "alert": "OK",
      "vis_m": 9999,
      "fzfg": false,
      "metar_trigger": false,
      "taf_trigger": false,
      "metar": "METAR LRSV 300500Z 28011KT 9999 BKN040 M02/M06 Q1002",
      "taf": "TAF LRSV 300200Z 3003/3012 25010KT 9999 OVC030"
    },
    {
      "icao": "LRTM",
      "alert": "OK",
      "vis_m": 9000,
      "fzfg": false,
      "metar_trigger": false,
      "taf_trigger": false,
      "metar": "METAR LRTM 300500Z 24004KT 9000 FEW004 M06/M08 Q1008",
      "taf": "TAF LRTM 300200Z 3003/3012 VRB04KT 9999 BKN035"
    },
    {
      "icao": "LRTR",
      "alert": "OK",
      "vis_m": 9999,
      "fzfg": false,
      "metar_trigger": false,
      "taf_trigger": false,
      "metar": "METAR LRTR 300500Z 28006KT 9999 FEW023 M05/M05 Q1012",
      "taf": "TAF LRTR 292300Z 3000/3024 26005KT CAVOK"
    },
    {
      "icao": "LTAC",
      "alert": "OK",
      "vis_m": 9999,
      "fzfg": false,
      "metar_trigger": false,
      "taf_trigger": false,
      "metar": "METAR LTAC 300450Z VRB02KT 9999 FEW040 M06/M09 Q1014 NOSIG RMK RWY21C 19006KT RWY03L VRB02KT RWY21R 18004KT 130V220 RWY03R 00000KT RWY21L 18004KT",
      "taf": "TAF LTAC 300440Z 3006/3106 19007KT 9999 SCT040"
    },
    {
      "icao": "LTFM",
      "alert": "OK",
      "vis_m": 9999,
      "fzfg": false,
      "metar_trigger": false,
      "taf_trigger": false,
      "metar": "METAR LTFM 300450Z 21020KT 9999 SCT025 07/02 Q1009 NOSIG RMK RWY17L 21020KT RWY34L 20021KT RWY16R 21014KT 170V230 RWY36 21020KT RWY18 22022KT",
      "taf": "TAF LTFM 300440Z 3006/3112 21023G33KT 9999 SCT025"
    },
    {
      "icao": "LUKK",
      "alert": "OK",
      "vis_m": 9999,
      "fzfg": false,
      "metar_trigger": false,
      "taf_trigger": false,
      "metar": "METAR LUKK 300500Z 27012KT 9999 BKN048 M01/M05 Q1004 NOSIG",
      "taf": "TAF LUKK 300510Z 3006/3106 29012KT 9999 BKN040"
    },
    {
      "icao": "LWOH",
      "alert": "OK",
      "vis_m": 9999,
      "fzfg": false,
      "metar_trigger": false,
      "taf_trigger": false,
      "metar": "METAR LWOH 300450Z 33004KT CAVOK M06/M08 Q1013",
      "taf": "TAF LWOH 300220Z 3003/3103 34006KT CAVOK"
    },
    {
      "icao": "LWSK",
      "alert": "OK",
      "vis_m": 9999,
      "fzfg": false,
      "metar_trigger": false,
      "taf_trigger": false,
      "metar": "METAR LWSK 300450Z 13001KT CAVOK M08/M09 Q1013 NOSIG",
      "taf": "TAF LWSK 300220Z 3003/3103 VRB02KT CAVOK"
    },
    {
      "icao": "LYBE",
      "alert": "OK",
      "vis_m": 9999,
      "fzfg": false,
      "metar_trigger": false,
      "taf_trigger": false,
      "metar": "METAR LYBE 300500Z 25007KT CAVOK M03/M05 Q1014 NOSIG",
      "taf": "TAF LYBE 292300Z 3000/3024 25005KT CAVOK TX04/3013Z TNM04/3006Z"
    },
    {
      "icao": "LYNI",
      "alert": "OK",
      "vis_m": 9999,
      "fzfg": false,
      "metar_trigger": false,
      "taf_trigger": false,
      "metar": "METAR LYNI 300500Z 33003KT 290V030 CAVOK M05/M07 Q1013 NOSIG",
      "taf": "TAF LYNI 292300Z 3000/3024 10004KT 7000 NSC TX04/3013Z TNM05/3006Z"
    },
    {
      "icao": "LYPG",
      "alert": "OK",
      "vis_m": 9999,
      "fzfg": false,
      "metar_trigger": false,
      "taf_trigger": false,
      "metar": "METAR LYPG 300500Z 00000KT CAVOK M02/M06 Q1014 NOSIG",
      "taf": "TAF LYPG 292300Z 3000/3024 36006KT CAVOK TX09/3013Z TNM02/3005Z"
    },
    {
      "icao": "LZIB",
      "alert": "OK",
      "vis_m": 9000,
      "fzfg": false,
      "metar_trigger": false,
      "taf_trigger": false,
      "metar": "METAR LZIB 300500Z 30012KT 9000 -SN FEW010 00/M02 Q1014 RESN TEMPO 1200 +SHSN BKN002 OVC007",
      "taf": "TAF LZIB 300515Z 3006/3106 30010KT CAVOK"
    },
    {
      "icao": "LZKZ",
      "alert": "OK",
      "vis_m": 9999,
      "fzfg": false,
      "metar_trigger": false,
      "taf_trigger": false,
      "metar": "METAR LZKZ 300500Z 04006KT CAVOK M05/M06 Q1010 NOSIG",
      "taf": "TAF LZKZ 300515Z 3006/3106 35008KT CAVOK"
    },
    {
      "icao": "LZTT",
      "alert": "OK",
      "vis_m": 9999,
      "fzfg": false,
      "metar_trigger": false,
      "taf_trigger": false,
      "metar": "METAR LZTT 300500Z 31015KT 270V340 9999 -SN FEW033 BKN050 M03/M12 Q1007",
      "taf": "TAF LZTT 300515Z 3006/3106 27007KT 9999 -SN SCT012 BKN018"
    },
    {
      "icao": "OEJN",
      "alert": "OK",
      "vis_m": 9999,
      "fzfg": false,
      "metar_trigger": false,
      "taf_trigger": false,
      "metar": "METAR OEJN 300500Z 06002KT CAVOK 21/14 Q1018 NOSIG",
      "taf": "TAF OEJN 300500Z 3006/3112 33014KT 7000 NSC"
    },
    {
      "icao": "OEMA",
      "alert": "OK",
      "vis_m": 9999,
      "fzfg": false,
      "metar_trigger": false,
      "taf_trigger": false,
      "metar": "METAR OEMA 300500Z 10003KT CAVOK 13/05 Q1023 NOSIG",
      "taf": "TAF OEMA 300500Z 3006/3112 09008KT CAVOK"
    },
    {
      "icao": "OJAI",
      "alert": "OK",
      "vis_m": 3500,
      "fzfg": false,
      "metar_trigger": false,
      "taf_trigger": false,
      "metar": "METAR OJAI 300500Z 25007KT 3500 BR SCT025 SCT030 07/06 Q1020 NOSIG",
      "taf": "TAF OJAI 300446Z 3006/3112 25012KT 3000 BR SCT030"
    },
    {
      "icao": "OMAA",
      "alert": "OK",
      "vis_m": 9999,
      "fzfg": false,
      "metar_trigger": false,
      "taf_trigger": false,
      "metar": "METAR OMAA 300500Z 32011KT CAVOK 23/09 Q1017 NOSIG",
      "taf": "TAF OMAA 300500Z 3006/3112 31013KT 8000 FEW040"
    },
    {
      "icao": "OMDB",
      "alert": "OK",
      "vis_m": 9999,
      "fzfg": false,
      "metar_trigger": false,
      "taf_trigger": false,
      "metar": "METAR OMDB 300500Z 30018KT 210V310 CAVOK 24/07 Q1016 NOSIG",
      "taf": "TAF OMDB 300500Z 3006/3112 29014KT 8000 FEW040"
    },
    {
      "icao": "UAAA",
      "alert": "OK",
      "vis_m": 5000,
      "fzfg": false,
      "metar_trigger": false,
      "taf_trigger": false,
      "metar": "METAR UAAA 300500Z 20004MPS 170V230 5000 BR FU FEW100 BKN200 03/M02 Q1008 NOSIG",
      "taf": "TAF UAAA 292301Z 3000/3024 23003MPS 2100 BR FU SCT050CB BKN100 TX07/3009Z TNM04/3001Z"
    },
    {
      "icao": "UBBB",
      "alert": "OK",
      "vis_m": 9999,
      "fzfg": false,
      "metar_trigger": false,
      "taf_trigger": false,
      "metar": "METAR UBBB 300500Z 28010KT CAVOK 05/01 Q1005 NOSIG",
      "taf": "TAF UBBB 300505Z 3006/3106 32016G26KT 9999 SCT030 TX08/3006Z TN02/3102Z"
    },
    {
      "icao": "UDSG",
      "alert": "OK",
      "vis_m": 9999,
      "fzfg": false,
      "metar_trigger": false,
      "taf_trigger": false,
      "metar": "METAR UDSG 300500Z 03005KT 9999 FEW049 M16/M19 Q1010 NOSIG",
      "taf": "TAF UDSG 292258Z 3000/3024 VRB06KT 9999 BKN030"
    },
    {
      "icao": "UDYZ",
      "alert": "OK",
      "vis_m": 4700,
      "fzfg": false,
      "metar_trigger": false,
      "taf_trigger": false,
      "metar": "METAR UDYZ 300500Z 34003KT 4700 BR FEW020 M13/M14 Q1013 NOSIG",
      "taf": "TAF UDYZ 292300Z 3000/3024 VRB04KT 1500 BR SCT030"
    },
    {
      "icao": "UGKO",
      "alert": "OK",
      "vis_m": 6000,
      "fzfg": false,
      "metar_trigger": false,
      "taf_trigger": false,
      "metar": "METAR UGKO 300500Z 23013KT 6000 -RASN SCT003 BKN009 OVC048 00/M00 Q1013 NOSIG",
      "taf": "TAF UGKO 300500Z 3006/3106 25010KT 7000 -SNRA SCT015 OVC035 TX02/3009Z TNM01/3015Z"
    }
  ]
}