{
  "ts_utc": "2026-01-08T13:59:18Z",
  "threshold_m": 150,
  "source": "stations_override.txt (ICAO list) + aviationweather.gov (METAR/TAF raw)",
  "station_count": 159,
  "stations": [
    {
      "icao": "BIKF",
      "alert": "OK",
      "vis_m": 9999,
      "fzfg": false,
      "metar_trigger": false,
      "taf_trigger": false,
      "metar": "METAR BIKF 081330Z 04017KT 9999 FEW049 BKN055 02/M05 Q1000",
      "taf": "TAF BIKF 081330Z 0815/0915 05017KT 9999 FEW045 SCT055 TX02/0815Z TNM04/0910Z"
    },
    {
      "icao": "BKPR",
      "alert": "OK",
      "vis_m": null,
      "fzfg": false,
      "metar_trigger": false,
      "taf_trigger": false,
      "metar": "",
      "taf": "TAF BKPR 081130Z 0812/0912 35009KT 9999 FEW015 BKN040"
    },
    {
      "icao": "EBCI",
      "alert": "OK",
      "vis_m": 9999,
      "fzfg": false,
      "metar_trigger": false,
      "taf_trigger": false,
      "metar": "METAR EBCI 081350Z 17007KT 9999 FEW004 BKN006 02/01 Q1003 TEMPO 2000 -RADZ BKN002",
      "taf": ""
    },
    {
      "icao": "EDDB",
      "alert": "OK",
      "vis_m": 9999,
      "fzfg": false,
      "metar_trigger": false,
      "taf_trigger": false,
      "metar": "METAR EDDB 081350Z AUTO 13007KT 9999 -SN SCT023 BKN036 BKN048 M05/M08 Q1009 TEMPO 4000 -SN BKN014",
      "taf": "TAF EDDB 081100Z 0812/0912 12008KT 9999 BKN025"
    },
    {
      "icao": "EDDH",
      "alert": "OK",
      "vis_m": 8000,
      "fzfg": false,
      "metar_trigger": false,
      "taf_trigger": false,
      "metar": "METAR EDDH 081350Z AUTO 14007KT 8000 OVC005 M00/M01 Q1005 TEMPO 1200 SHSN BKN004",
      "taf": ""
    },
    {
      "icao": "EDDK",
      "alert": "OK",
      "vis_m": 9999,
      "fzfg": false,
      "metar_trigger": false,
      "taf_trigger": false,
      "metar": "METAR EDDK 081350Z AUTO 13006KT 9999 OVC019 03/00 Q1005 NOSIG",
      "taf": "TAF EDDK 081100Z 0812/0918 13006KT 9999 OVC040"
    },
    {
      "icao": "EDDN",
      "alert": "OK",
      "vis_m": 9999,
      "fzfg": false,
      "metar_trigger": false,
      "taf_trigger": false,
      "metar": "METAR EDDN 081350Z AUTO 12005KT 9999 BKN019 OVC026 M00/M02 Q1008 NOSIG",
      "taf": "TAF EDDN 081100Z 0812/0912 14006KT 9999 BKN015"
    },
    {
      "icao": "EDDS",
      "alert": "OK",
      "vis_m": 9999,
      "fzfg": false,
      "metar_trigger": false,
      "taf_trigger": false,
      "metar": "METAR EDDS 081350Z AUTO 15004KT 9999 SCT018 OVC026 02/M01 Q1006 NOSIG",
      "taf": "TAF EDDS 081100Z 0812/0912 15004KT 9999 BKN020"
    },
    {
      "icao": "EDFH",
      "alert": "OK",
      "vis_m": 3500,
      "fzfg": false,
      "metar_trigger": false,
      "taf_trigger": false,
      "metar": "METAR EDFH 081350Z 15005KT 3500 -DZ BR OVC004 00/M00 Q1004",
      "taf": "TAF EDFH 081100Z 0812/0912 22010KT 6000 OVC004"
    },
    {
      "icao": "EDJA",
      "alert": "OK",
      "vis_m": 9999,
      "fzfg": false,
      "metar_trigger": false,
      "taf_trigger": false,
      "metar": "METAR EDJA 081350Z 23009KT 9999 -SN FEW010 OVC035 M01/M02 Q1007",
      "taf": "TAF EDJA 081100Z 0812/0821 22010KT 9999 SCT020 BKN035"
    },
    {
      "icao": "EDLW",
      "alert": "OK",
      "vis_m": 9999,
      "fzfg": false,
      "metar_trigger": false,
      "taf_trigger": false,
      "metar": "METAR EDLW 081350Z 18006KT 9999 BKN023 03/M00 Q1005",
      "taf": "TAF EDLW 081100Z 0812/0912 19011KT 9999 OVC040"
    },
    {
      "icao": "EDNY",
      "alert": "OK",
      "vis_m": 4500,
      "fzfg": false,
      "metar_trigger": false,
      "taf_trigger": false,
      "metar": "METAR EDNY 081350Z 14005KT 4500 -SN FEW005 BKN019 OVC036 M00/M01 Q1009",
      "taf": "TAF EDNY 081100Z 0812/0821 13005KT 8000 SCT012 BKN030"
    },
    {
      "icao": "EDSB",
      "alert": "OK",
      "vis_m": 9999,
      "fzfg": false,
      "metar_trigger": false,
      "taf_trigger": false,
      "metar": "METAR EDSB 081350Z 21009KT 9999 -DZ OVC021 03/01 Q1007",
      "taf": "TAF EDSB 081100Z 0812/0912 20010KT 9999 BKN025"
    },
    {
      "icao": "EETN",
      "alert": "OK",
      "vis_m": 9999,
      "fzfg": false,
      "metar_trigger": false,
      "taf_trigger": false,
      "metar": "METAR EETN 081350Z 11007KT 9999 OVC021 M06/M08 Q1020 NOSIG",
      "taf": "TAF EETN 081130Z 0812/0912 10006KT 9999 OVC020"
    },
    {
      "icao": "EFTU",
      "alert": "OK",
      "vis_m": 9999,
      "fzfg": false,
      "metar_trigger": false,
      "taf_trigger": false,
      "metar": "METAR EFTU 081350Z AUTO 09007KT 9999 BKN028 M10/M13 Q1020",
      "taf": "TAF EFTU 081134Z 0812/0912 10007KT 9999 SCT017"
    },
    {
      "icao": "EGBB",
      "alert": "OK",
      "vis_m": 150,
      "fzfg": false,
      "metar_trigger": false,
      "taf_trigger": false,
      "metar": "METAR EGBB 081350Z 12008KT 0150 R15/0800N FG VV/// 03/03 Q0998",
      "taf": ""
    },
    {
      "icao": "EGGP",
      "alert": "OK",
      "vis_m": 6000,
      "fzfg": false,
      "metar_trigger": false,
      "taf_trigger": false,
      "metar": "METAR EGGP 081350Z 10006KT 6000 OVC004 03/02 Q0997",
      "taf": "TAF EGGP 081104Z 0812/0912 12007KT 9999 FEW010"
    },
    {
      "icao": "EGGW",
      "alert": "OK",
      "vis_m": 300,
      "fzfg": false,
      "metar_trigger": false,
      "taf_trigger": false,
      "metar": "METAR EGGW 081350Z AUTO 14005KT 0300 R25/0450D FG OVC002 03/02 Q0999",
      "taf": "TAF EGGW 081058Z 0812/0912 16008KT 9999 BKN005"
    },
    {
      "icao": "EGKK",
      "alert": "OK",
      "vis_m": 6000,
      "fzfg": false,
      "metar_trigger": false,
      "taf_trigger": false,
      "metar": "METAR EGKK 081350Z 15003KT 110V180 6000 -RA FEW006 BKN031 05/05 Q0999",
      "taf": "TAF EGKK 081058Z 0812/0918 17004KT 9999 SCT007 BKN040"
    },
    {
      "icao": "EGNM",
      "alert": "OK",
      "vis_m": 9999,
      "fzfg": false,
      "metar_trigger": false,
      "taf_trigger": false,
      "metar": "METAR EGNM 081350Z 06003KT 030V090 9999 FEW035 01/M01 Q0998",
      "taf": "TAF EGNM 081103Z 0812/0912 23004KT 9999 FEW015"
    },
    {
      "icao": "EGPD",
      "alert": "OK",
      "vis_m": 9999,
      "fzfg": false,
      "metar_trigger": false,
      "taf_trigger": false,
      "metar": "METAR EGPD 081350Z COR AUTO 17008KT 9999 NCD M00/M02 Q0999 NOSIG",
      "taf": "TAF EGPD 081057Z 0812/0912 19005KT 9999 FEW006"
    },
    {
      "icao": "EGPF",
      "alert": "OK",
      "vis_m": 8000,
      "fzfg": false,
      "metar_trigger": false,
      "taf_trigger": false,
      "metar": "METAR EGPF 081350Z 06003KT 020V090 8000 OVC013 01/00 Q0998",
      "taf": "TAF EGPF 081102Z 0812/0912 VRB03KT 9999 SCT025"
    },
    {
      "icao": "EHBK",
      "alert": "OK",
      "vis_m": 4400,
      "fzfg": false,
      "metar_trigger": false,
      "taf_trigger": false,
      "metar": "METAR EHBK 081355Z AUTO 18004KT 4400 BR FEW002 BKN007 BKN008 02/02 Q1004 TEMPO 6000 NSW BKN012",
      "taf": "TAF EHBK 081120Z 0812/0918 18007KT CAVOK"
    },
    {
      "icao": "EHEH",
      "alert": "OK",
      "vis_m": 6000,
      "fzfg": false,
      "metar_trigger": false,
      "taf_trigger": false,
      "metar": "METAR EHEH 081325Z AUTO 20005KT 160V230 6000 BR OVC005 02/01 Q1004 YLO TEMPO BKN005",
      "taf": "TAF EHEH 081158Z 0812/0918 20007KT 6000 BKN006"
    },
    {
      "icao": "EKBI",
      "alert": "OK",
      "vis_m": 5000,
      "fzfg": false,
      "metar_trigger": false,
      "taf_trigger": false,
      "metar": "METAR EKBI 081350Z AUTO 11007KT 5000 OVC005/// M01/M01 Q1005",
      "taf": ""
    },
    {
      "icao": "EKCH",
      "alert": "OK",
      "vis_m": 9999,
      "fzfg": false,
      "metar_trigger": false,
      "taf_trigger": false,
      "metar": "METAR EKCH 081350Z AUTO 13017KT 9999 BKN021/// M01/M05 Q1009 NOSIG",
      "taf": "TAF EKCH 081127Z 0812/0912 16015KT 9999 BKN018"
    },
    {
      "icao": "ENAL",
      "alert": "OK",
      "vis_m": 9999,
      "fzfg": false,
      "metar_trigger": false,
      "taf_trigger": false,
      "metar": "METAR ENAL 081350Z 20009KT 9999 -SN SCT006 BKN009 M02/M04 Q1003",
      "taf": "TAF ENAL 081100Z 0812/0821 15010KT 9999 FEW025 BKN040"
    },
    {
      "icao": "ENBR",
      "alert": "OK",
      "vis_m": 9999,
      "fzfg": false,
      "metar_trigger": false,
      "taf_trigger": false,
      "metar": "METAR ENBR 081350Z 09004KT CAVOK M07/M16 Q1006 NOSIG RMK WIND 1200FT 13010KT",
      "taf": "TAF ENBR 081100Z 0812/0912 10005KT CAVOK"
    },
    {
      "icao": "ENGM",
      "alert": "OK",
      "vis_m": 9999,
      "fzfg": false,
      "metar_trigger": false,
      "taf_trigger": false,
      "metar": "METAR ENGM 081350Z 15007KT CAVOK M10/M13 Q1006 NOSIG",
      "taf": "TAF ENGM 081100Z 0812/0912 20005KT 9999 FEW003"
    },
    {
      "icao": "ENHD",
      "alert": "OK",
      "vis_m": 9999,
      "fzfg": false,
      "metar_trigger": false,
      "taf_trigger": false,
      "metar": "METAR ENHD 081350Z 10007KT CAVOK M06/M11 Q1006",
      "taf": "TAF ENHD 081100Z 0812/0821 10010KT CAVOK"
    },
    {
      "icao": "ENTC",
      "alert": "OK",
      "vis_m": 9999,
      "fzfg": false,
      "metar_trigger": false,
      "taf_trigger": false,
      "metar": "METAR ENTC 081350Z 17003KT 090V200 CAVOK M11/M16 Q1023 NOSIG RMK WIND 2600FT 18023KT",
      "taf": ""
    },
    {
      "icao": "ENTO",
      "alert": "OK",
      "vis_m": 9999,
      "fzfg": false,
      "metar_trigger": false,
      "taf_trigger": false,
      "metar": "METAR ENTO 081350Z VRB01KT CAVOK M10/M13 Q1007 NOSIG",
      "taf": "TAF ENTO 081100Z 0812/0912 35005KT CAVOK"
    },
    {
      "icao": "ENVA",
      "alert": "OK",
      "vis_m": 9999,
      "fzfg": false,
      "metar_trigger": false,
      "taf_trigger": false,
      "metar": "METAR ENVA 081350Z 07012KT 9999 VCSH FEW027 SCT039 BKN049 M04/M10 Q1003 NOSIG RMK WIND 670FT 07014KT",
      "taf": "TAF ENVA 081100Z 0812/0912 07012KT 9999 SCT050"
    },
    {
      "icao": "ENZV",
      "alert": "OK",
      "vis_m": 9999,
      "fzfg": false,
      "metar_trigger": false,
      "taf_trigger": false,
      "metar": "METAR ENZV 081350Z VRB01KT CAVOK M06/M11 Q1006 NOSIG",
      "taf": "TAF ENZV 081100Z 0812/0912 10008KT CAVOK"
    },
    {
      "icao": "EPGD",
      "alert": "OK",
      "vis_m": 8000,
      "fzfg": false,
      "metar_trigger": false,
      "taf_trigger": false,
      "metar": "METAR EPGD 081330Z 05006KT 8000 FEW002 BKN007 M04/M05 Q1012",
      "taf": ""
    },
    {
      "icao": "EPKK",
      "alert": "OK",
      "vis_m": 6000,
      "fzfg": false,
      "metar_trigger": false,
      "taf_trigger": false,
      "metar": "METAR EPKK 081330Z 27006KT 6000 FEW008 BKN017 M04/M07 Q1008",
      "taf": ""
    },
    {
      "icao": "EPKT",
      "alert": "OK",
      "vis_m": 9999,
      "fzfg": false,
      "metar_trigger": false,
      "taf_trigger": false,
      "metar": "METAR EPKT 081330Z 34008KT 9999 BKN010 BKN033 M05/M07 Q1008",
      "taf": ""
    },
    {
      "icao": "EPLB",
      "alert": "OK",
      "vis_m": 1200,
      "fzfg": false,
      "metar_trigger": false,
      "taf_trigger": false,
      "metar": "METAR EPLB 081330Z 34009KT 310V010 1200 R25/1300D -SN BR OVC017 M06/M07 Q1005",
      "taf": "TAF EPLB 081130Z 0812/0912 01010KT 2500 -SN BR FEW009 OVC018"
    },
    {
      "icao": "EPMO",
      "alert": "OK",
      "vis_m": 3200,
      "fzfg": false,
      "metar_trigger": false,
      "taf_trigger": false,
      "metar": "METAR EPMO 081330Z 33003KT 290V360 3200 BR NSC M09/M09 Q1010",
      "taf": "TAF EPMO 081130Z 0812/0912 36005KT 2500 BR NSC"
    },
    {
      "icao": "EPPO",
      "alert": "OK",
      "vis_m": 3500,
      "fzfg": false,
      "metar_trigger": false,
      "taf_trigger": false,
      "metar": "METAR EPPO 081330Z 08002KT 3500 BR BKN006 M08/M10 Q1012",
      "taf": "TAF EPPO 081130Z 0812/0912 07003KT 4000 BR OVC006"
    },
    {
      "icao": "EPRA",
      "alert": "OK",
      "vis_m": 3500,
      "fzfg": false,
      "metar_trigger": false,
      "taf_trigger": false,
      "metar": "METAR EPRA 081330Z 33010KT 3500 -SN BR BKN020 M07/M09 Q1007",
      "taf": "TAF EPRA 081130Z 0812/0821 35010KT 3000 -SN BR OVC025"
    },
    {
      "icao": "EPRZ",
      "alert": "OK",
      "vis_m": 6000,
      "fzfg": false,
      "metar_trigger": false,
      "taf_trigger": false,
      "metar": "METAR EPRZ 081330Z 31009KT 6000 -SN OVC010 M05/M07 Q1005",
      "taf": ""
    },
    {
      "icao": "EPSC",
      "alert": "OK",
      "vis_m": 9999,
      "fzfg": false,
      "metar_trigger": false,
      "taf_trigger": false,
      "metar": "METAR EPSC 081330Z 13010KT CAVOK M06/M09 Q1011",
      "taf": "TAF EPSC 081130Z 0812/0912 13010KT 8000 SCT005"
    },
    {
      "icao": "EPSY",
      "alert": "OK",
      "vis_m": 9000,
      "fzfg": false,
      "metar_trigger": false,
      "taf_trigger": false,
      "metar": "METAR EPSY 081330Z 01011KT 9000 FEW007 SCT025 M08/M09 Q1010",
      "taf": "TAF EPSY 081130Z 0812/0821 02006KT 7000 SCT025"
    },
    {
      "icao": "EPWA",
      "alert": "OK",
      "vis_m": 4000,
      "fzfg": false,
      "metar_trigger": false,
      "taf_trigger": false,
      "metar": "METAR EPWA 081330Z 32008KT 4000 BR SCT007 M07/M08 Q1009 BECMG BKN007",
      "taf": "TAF EPWA 081130Z 0812/0912 34006KT 3500 BR SCT007"
    },
    {
      "icao": "EPWR",
      "alert": "OK",
      "vis_m": 9000,
      "fzfg": false,
      "metar_trigger": false,
      "taf_trigger": false,
      "metar": "METAR EPWR 081330Z VRB02KT 9000 FEW020 M04/M08 Q1011",
      "taf": "TAF EPWR 081130Z 0812/0912 VRB02KT 8000 BKN020"
    },
    {
      "icao": "ESGG",
      "alert": "OK",
      "vis_m": 9999,
      "fzfg": false,
      "metar_trigger": false,
      "taf_trigger": false,
      "metar": "METAR ESGG 081350Z 15007KT 9999 BKN017 M03/M05 Q1009",
      "taf": "TAF ESGG 081130Z 0812/0912 15012KT 9999 BKN015"
    },
    {
      "icao": "ESKN",
      "alert": "OK",
      "vis_m": 9999,
      "fzfg": false,
      "metar_trigger": false,
      "taf_trigger": false,
      "metar": "METAR ESKN 081350Z 21004KT 9999 FEW030 BKN150 M02/M04 Q1013",
      "taf": "TAF ESKN 081130Z 0812/0912 18008KT 9999 SCT030"
    },
    {
      "icao": "ESMS",
      "alert": "OK",
      "vis_m": 9999,
      "fzfg": false,
      "metar_trigger": false,
      "taf_trigger": false,
      "metar": "METAR ESMS 081350Z 13010KT 9999 BKN017 M02/M06 Q1009",
      "taf": "TAF ESMS 081127Z 0812/0912 16010KT 9999 SCT018"
    },
    {
      "icao": "ESSA",
      "alert": "OK",
      "vis_m": 9999,
      "fzfg": false,
      "metar_trigger": false,
      "taf_trigger": false,
      "metar": "METAR ESSA 081350Z 15011KT 9999 SCT049 M01/M05 Q1013 NOSIG",
      "taf": "TAF ESSA 081130Z 0812/0912 16013KT 9999 BKN030"
    },
    {
      "icao": "EYKA",
      "alert": "OK",
      "vis_m": 9999,
      "fzfg": false,
      "metar_trigger": false,
      "taf_trigger": false,
      "metar": "METAR EYKA 081350Z 02010KT 330V060 9999 OVC009 M08/M08 Q1012",
      "taf": "TAF EYKA 081100Z 0812/0912 VRB05KT 7000 OVC005"
    },
    {
      "icao": "EYPA",
      "alert": "OK",
      "vis_m": 9999,
      "fzfg": false,
      "metar_trigger": false,
      "taf_trigger": false,
      "metar": "METAR EYPA 081350Z 07008KT CAVOK M12/M13 Q1015",
      "taf": "TAF EYPA 081100Z 0812/0912 VRB04KT 6000 NSC"
    },
    {
      "icao": "EYVI",
      "alert": "OK",
      "vis_m": 9999,
      "fzfg": false,
      "metar_trigger": false,
      "taf_trigger": false,
      "metar": "METAR EYVI 081350Z 03015KT 9999 OVC007 M08/M10 Q1009 NOSIG",
      "taf": "TAF EYVI 081100Z 0812/0912 03013KT 6000 BKN010"
    },
    {
      "icao": "GCFV",
      "alert": "OK",
      "vis_m": 9999,
      "fzfg": false,
      "metar_trigger": false,
      "taf_trigger": false,
      "metar": "METAR GCFV 081330Z 05009KT 9999 SCT034 19/10 Q1030",
      "taf": "TAF GCFV 080800Z 0809/0909 06015KT 9999 FEW035 TX20/0814Z TN15/0906Z"
    },
    {
      "icao": "GCLP",
      "alert": "OK",
      "vis_m": 9999,
      "fzfg": false,
      "metar_trigger": false,
      "taf_trigger": false,
      "metar": "METAR GCLP 081330Z 05010KT 9999 SCT033 19/11 Q1031 NOSIG",
      "taf": "TAF GCLP 080800Z 0809/0909 06017KT 9999 SCT035 TX20/0814Z TN15/0906Z"
    },
    {
      "icao": "GCTS",
      "alert": "OK",
      "vis_m": 9999,
      "fzfg": false,
      "metar_trigger": false,
      "taf_trigger": false,
      "metar": "METAR GCTS 081330Z 08025KT 9999 FEW040 21/10 Q1030 NOSIG",
      "taf": "TAF GCTS 080800Z 0809/0909 07019KT 9999 SCT040 TX23/0814Z TN15/0906Z"
    },
    {
      "icao": "GMAD",
      "alert": "OK",
      "vis_m": 9999,
      "fzfg": false,
      "metar_trigger": false,
      "taf_trigger": false,
      "metar": "METAR GMAD 081330Z 21004KT 160V260 CAVOK 18/07 Q1030 NOSIG",
      "taf": "TAF GMAD 081100Z 0812/0918 26008KT CAVOK"
    },
    {
      "icao": "GMMN",
      "alert": "OK",
      "vis_m": 9999,
      "fzfg": false,
      "metar_trigger": false,
      "taf_trigger": false,
      "metar": "METAR GMMN 081330Z 03006KT 350V070 CAVOK 16/09 Q1031 NOSIG",
      "taf": "TAF GMMN 081100Z 0812/0918 12004KT CAVOK"
    },
    {
      "icao": "GMMX",
      "alert": "OK",
      "vis_m": 9999,
      "fzfg": false,
      "metar_trigger": false,
      "taf_trigger": false,
      "metar": "METAR GMMX 081330Z 08006KT 050V120 CAVOK 16/02 Q1030 NOSIG",
      "taf": "TAF GMMX 081100Z 0812/0918 06006KT 8000 NSC"
    },
    {
      "icao": "HEGN",
      "alert": "OK",
      "vis_m": 9999,
      "fzfg": false,
      "metar_trigger": false,
      "taf_trigger": false,
      "metar": "METAR HEGN 081300Z 09005KT CAVOK 27/11 Q1016 NOSIG",
      "taf": "TAF HEGN 081100Z 0812/0918 05008KT CAVOK"
    },
    {
      "icao": "HEMA",
      "alert": "OK",
      "vis_m": 6000,
      "fzfg": false,
      "metar_trigger": false,
      "taf_trigger": false,
      "metar": "METAR HEMA 081300Z 01008KT 6000 NSC 25/18 Q1016 NOSIG",
      "taf": "TAF HEMA 081100Z 0812/0918 01012KT 6000 NSC"
    },
    {
      "icao": "HESH",
      "alert": "OK",
      "vis_m": null,
      "fzfg": false,
      "metar_trigger": false,
      "taf_trigger": false,
      "metar": "",
      "taf": "TAF HESH 081100Z 0812/0918 08010KT CAVOK"
    },
    {
      "icao": "HESX",
      "alert": "OK",
      "vis_m": 9999,
      "fzfg": false,
      "metar_trigger": false,
      "taf_trigger": false,
      "metar": "METAR HESX 081300Z 24016KT CAVOK 26/04 Q1015 NOSIG",
      "taf": "TAF HESX 081100Z 0812/0918 21010KT 9999 SCT025"
    },
    {
      "icao": "LATI",
      "alert": "OK",
      "vis_m": 9999,
      "fzfg": false,
      "metar_trigger": false,
      "taf_trigger": false,
      "metar": "METAR LATI 081350Z 15004KT 9999 FEW025CB SCT050 BKN076 05/03 Q1009 NOSIG",
      "taf": "TAF LATI 081100Z 0812/0912 29013KT 9999 -RA FEW030TCU BKN070 TX09/0912Z TN01/0905Z"
    },
    {
      "icao": "LBPD",
      "alert": "OK",
      "vis_m": 9999,
      "fzfg": false,
      "metar_trigger": false,
      "taf_trigger": false,
      "metar": "METAR LBPD 081330Z AUTO 29022KT 9999 SCT066/// BKN160/// 03/M04 Q1001 NOSIG",
      "taf": "TAF LBPD 081100Z 0812/0912 29024G36KT 9999 BKN040"
    },
    {
      "icao": "LBSF",
      "alert": "OK",
      "vis_m": 9999,
      "fzfg": false,
      "metar_trigger": false,
      "taf_trigger": false,
      "metar": "METAR LBSF 081330Z 29020KT 9999 1600W BLSN FEW029 BKN033 OVC072 M04/M07 Q1004 NOSIG",
      "taf": "TAF LBSF 081100Z 0812/0912 29024G36KT 5000 -SN SCT020 BKN040 OVC060"
    },
    {
      "icao": "LBWN",
      "alert": "OK",
      "vis_m": 2600,
      "fzfg": false,
      "metar_trigger": false,
      "taf_trigger": false,
      "metar": "METAR LBWN 081330Z 29022KT 2600 -SN SCT013 BKN026 OVC033 M01/M01 Q0998 RESN NOSIG",
      "taf": ""
    },
    {
      "icao": "LCLK",
      "alert": "OK",
      "vis_m": 7000,
      "fzfg": false,
      "metar_trigger": false,
      "taf_trigger": false,
      "metar": "METAR LCLK 081330Z 09009KT 7000 FEW030 SCT040 20/17 Q1013 NOSIG",
      "taf": "TAF LCLK 081130Z 0812/0912 12010KT 9999 FEW025"
    },
    {
      "icao": "LCPH",
      "alert": "OK",
      "vis_m": 9999,
      "fzfg": false,
      "metar_trigger": false,
      "taf_trigger": false,
      "metar": "METAR LCPH 081330Z 13008KT 090V160 CAVOK 20/13 Q1012 NOSIG",
      "taf": "TAF LCPH 081130Z 0812/0912 14016KT 9999 FEW025"
    },
    {
      "icao": "LEAL",
      "alert": "OK",
      "vis_m": 9999,
      "fzfg": false,
      "metar_trigger": false,
      "taf_trigger": false,
      "metar": "METAR LEAL 081330Z 24014KT 210V270 CAVOK 17/03 Q1026 NOSIG",
      "taf": "TAF LEAL 081100Z 0812/0912 26015KT CAVOK TX16/0814Z TN10/0906Z"
    },
    {
      "icao": "LEBB",
      "alert": "OK",
      "vis_m": 9999,
      "fzfg": false,
      "metar_trigger": false,
      "taf_trigger": false,
      "metar": "METAR LEBB 081330Z VRB03KT CAVOK 14/05 Q1020 NOSIG",
      "taf": "TAF LEBB 081100Z 0812/0912 22009KT 9999 FEW040 TX13/0814Z TN06/0905Z"
    },
    {
      "icao": "LEBL",
      "alert": "OK",
      "vis_m": 9999,
      "fzfg": false,
      "metar_trigger": false,
      "taf_trigger": false,
      "metar": "METAR LEBL 081330Z 31015KT 9999 FEW040 17/07 Q1019 NOSIG",
      "taf": "TAF LEBL 081100Z 0812/0912 33009KT 9999 FEW020 TX15/0813Z TN09/0906Z"
    },
    {
      "icao": "LECH",
      "alert": "OK",
      "vis_m": 9999,
      "fzfg": false,
      "metar_trigger": false,
      "taf_trigger": false,
      "metar": "METAR LECH 081330Z AUTO 22007KT CAVOK 17/04 Q1022",
      "taf": ""
    },
    {
      "icao": "LEMD",
      "alert": "OK",
      "vis_m": 3500,
      "fzfg": false,
      "metar_trigger": false,
      "taf_trigger": false,
      "metar": "METAR LEMD 081330Z VRB02KT 3500 BR SCT002 OVC011 03/03 Q1028 NOSIG",
      "taf": "TAF LEMD 081100Z 0812/0918 VRB03KT 6000 BKN005 TX11/0915Z TN03/0812Z"
    },
    {
      "icao": "LEMG",
      "alert": "OK",
      "vis_m": 9999,
      "fzfg": false,
      "metar_trigger": false,
      "taf_trigger": false,
      "metar": "METAR LEMG 081330Z 28011KT 240V300 CAVOK 16/07 Q1029 NOSIG",
      "taf": "TAF LEMG 081100Z 0812/0912 29012KT CAVOK TX16/0814Z TN08/0906Z"
    },
    {
      "icao": "LEVC",
      "alert": "OK",
      "vis_m": 9999,
      "fzfg": false,
      "metar_trigger": false,
      "taf_trigger": false,
      "metar": "METAR LEVC 081330Z 24015KT CAVOK 13/04 Q1024 NOSIG",
      "taf": "TAF LEVC 081100Z 0812/0912 26018KT CAVOK TX14/0814Z TN09/0906Z"
    },
    {
      "icao": "LEXJ",
      "alert": "OK",
      "vis_m": 9999,
      "fzfg": false,
      "metar_trigger": false,
      "taf_trigger": false,
      "metar": "METAR LEXJ 081330Z 20005KT 140V270 CAVOK 13/04 Q1018",
      "taf": "TAF LEXJ 080800Z 0809/0909 24009KT 9999 FEW030 SCT060 TX15/0813Z TN10/0906Z"
    },
    {
      "icao": "LEZG",
      "alert": "OK",
      "vis_m": 9999,
      "fzfg": false,
      "metar_trigger": false,
      "taf_trigger": false,
      "metar": "METAR LEZG 081330Z 23019KT CAVOK 13/04 Q1022 NOSIG",
      "taf": ""
    },
    {
      "icao": "LEZL",
      "alert": "OK",
      "vis_m": 9999,
      "fzfg": false,
      "metar_trigger": false,
      "taf_trigger": false,
      "metar": "METAR LEZL 081330Z VRB02KT 9999 FEW015 BKN022 12/07 Q1032 NOSIG",
      "taf": "TAF LEZL 080800Z 0809/0909 02004KT 9999 SCT020 TX14/0815Z TN09/0907Z"
    },
    {
      "icao": "LFBD",
      "alert": "OK",
      "vis_m": 9999,
      "fzfg": false,
      "metar_trigger": false,
      "taf_trigger": false,
      "metar": "METAR LFBD 081330Z AUTO 26018KT 9999 SCT014 SCT033 BKN046 13/11 Q1016 TEMPO 27015G25KT 4000 -RA BKN008 OVC025",
      "taf": "TAF LFBD 081100Z 0812/0918 26010KT 9999 BKN025 TX13/0814Z TN08/0906Z"
    },
    {
      "icao": "LFLL",
      "alert": "OK",
      "vis_m": 3000,
      "fzfg": false,
      "metar_trigger": false,
      "taf_trigger": false,
      "metar": "METAR LFLL 081330Z 12004KT 3000 -RA BR FEW007 OVC030 03/03 Q1014 TEMPO 4000 RA",
      "taf": "TAF LFLL 081100Z 0812/0918 17008KT 9999 BKN030"
    },
    {
      "icao": "LFLS",
      "alert": "OK",
      "vis_m": 9999,
      "fzfg": false,
      "metar_trigger": false,
      "taf_trigger": false,
      "metar": "METAR LFLS 081330Z AUTO 08010KT 9999 -RA SCT032/// BKN039/// OVC047/// ///TCU 02/01 Q1014",
      "taf": "TAF LFLS 080200Z 0803/0903 08005KT 9999 OVC050"
    },
    {
      "icao": "LFMN",
      "alert": "OK",
      "vis_m": 9999,
      "fzfg": false,
      "metar_trigger": false,
      "taf_trigger": false,
      "metar": "METAR LFMN 081330Z 10009KT 9999 FEW050 11/02 Q1011 NOSIG",
      "taf": "TAF LFMN 080800Z 0809/0915 32010KT CAVOK"
    },
    {
      "icao": "LFOB",
      "alert": "OK",
      "vis_m": 8000,
      "fzfg": false,
      "metar_trigger": false,
      "taf_trigger": false,
      "metar": "METAR LFOB 081330Z AUTO 20006KT 8000 -RA FEW007 SCT046 OVC052 05/05 Q1003 TEMPO 4000 RA BKN007 OVC011",
      "taf": "TAF LFOB 081100Z 0812/0912 22012KT 9999 BKN025"
    },
    {
      "icao": "LFPO",
      "alert": "OK",
      "vis_m": 5000,
      "fzfg": false,
      "metar_trigger": false,
      "taf_trigger": false,
      "metar": "METAR LFPO 081330Z 19005KT 170V230 5000 -RA SCT007 BKN035 06/06 Q1005 NOSIG",
      "taf": "TAF LFPO 081100Z 0812/0918 21010G20KT 9999 SCT012 BKN040"
    },
    {
      "icao": "LFSB",
      "alert": "OK",
      "vis_m": 9999,
      "fzfg": false,
      "metar_trigger": false,
      "taf_trigger": false,
      "metar": "METAR LFSB 081330Z AUTO 13005KT 9999 SCT011 SCT018 OVC026 03/02 Q1009 NOSIG",
      "taf": "TAF LFSB 081100Z 0812/0912 15004KT 8000 SCT015 OVC025"
    },
    {
      "icao": "LGAV",
      "alert": "OK",
      "vis_m": 9999,
      "fzfg": false,
      "metar_trigger": false,
      "taf_trigger": false,
      "metar": "METAR LGAV 081350Z 29014KT 260V330 9999 FEW025 14/M02 Q1009 NOSIG",
      "taf": "TAF LGAV 081100Z 0812/0912 26012KT 9999 FEW020 SCT030"
    },
    {
      "icao": "LGTS",
      "alert": "OK",
      "vis_m": 9999,
      "fzfg": false,
      "metar_trigger": false,
      "taf_trigger": false,
      "metar": "METAR LGTS 081350Z 31010KT 9999 FEW025 09/00 Q1004 NOSIG",
      "taf": ""
    },
    {
      "icao": "LHBP",
      "alert": "OK",
      "vis_m": 9999,
      "fzfg": false,
      "metar_trigger": false,
      "taf_trigger": false,
      "metar": "METAR LHBP 081330Z 30012G22KT 9999 DRSN FEW023 M04/M08 Q1008 NOSIG",
      "taf": "TAF LHBP 081115Z 0812/0912 30012KT CAVOK"
    },
    {
      "icao": "LHDC",
      "alert": "OK",
      "vis_m": 6000,
      "fzfg": false,
      "metar_trigger": false,
      "taf_trigger": false,
      "metar": "METAR LHDC 081315Z AUTO 26005KT 210V280 6000 FEW049 OVC062 M05/M07 Q1006 NOSIG",
      "taf": "TAF LHDC 081115Z 0812/0821 26006KT 8000 OVC035"
    },
    {
      "icao": "LIBD",
      "alert": "OK",
      "vis_m": 9999,
      "fzfg": false,
      "metar_trigger": false,
      "taf_trigger": false,
      "metar": "METAR LIBD 081350Z 29013KT 9999 SCT020 08/M00 Q1013 WS R25",
      "taf": "TAF LIBD 081100Z 0812/0912 28020G30KT 9999 SCT010 SCT030"
    },
    {
      "icao": "LIBG",
      "alert": "OK",
      "vis_m": 9999,
      "fzfg": false,
      "metar_trigger": false,
      "taf_trigger": false,
      "metar": "METAR LIBG 081250Z 30012KT 270V330 9999 FEW040 09/00 Q1013",
      "taf": "TAF LIBG 081100Z 0812/0821 32015KT 9999 SCT025"
    },
    {
      "icao": "LIBP",
      "alert": "OK",
      "vis_m": 9999,
      "fzfg": false,
      "metar_trigger": false,
      "taf_trigger": false,
      "metar": "METAR LIBP 081350Z AUTO 08004KT 9999 NCD 09/M06 Q1015",
      "taf": "TAF LIBP 081100Z 0812/0912 23006KT 9999 SCT030"
    },
    {
      "icao": "LIBR",
      "alert": "OK",
      "vis_m": 9999,
      "fzfg": false,
      "metar_trigger": false,
      "taf_trigger": false,
      "metar": "METAR LIBR 081350Z 30021KT 9999 FEW040 09/M00 Q1012",
      "taf": "TAF LIBR 081100Z 0812/0912 31022G33KT 9999 SCT030"
    },
    {
      "icao": "LICA",
      "alert": "OK",
      "vis_m": 9999,
      "fzfg": false,
      "metar_trigger": false,
      "taf_trigger": false,
      "metar": "METAR LICA 081350Z AUTO 27017KT 9999 BKN042/// 12/05 Q1015",
      "taf": "TAF LICA 081100Z 0812/0912 29015KT 9999 SCT030"
    },
    {
      "icao": "LICC",
      "alert": "OK",
      "vis_m": 9999,
      "fzfg": false,
      "metar_trigger": false,
      "taf_trigger": false,
      "metar": "METAR LICC 081350Z 29016KT 9999 FEW050 16/11 Q1016",
      "taf": "TAF LICC 081100Z 0812/0912 27016KT 9999 SCT050"
    },
    {
      "icao": "LICJ",
      "alert": "OK",
      "vis_m": 9999,
      "fzfg": false,
      "metar_trigger": false,
      "taf_trigger": false,
      "metar": "METAR LICJ 081350Z 30015KT 9999 SCT040 SCT070 15/07 Q1019",
      "taf": "TAF LICJ 081100Z 0812/0912 29025G35KT 9999 SCT040"
    },
    {
      "icao": "LIMC",
      "alert": "OK",
      "vis_m": 9999,
      "fzfg": false,
      "metar_trigger": false,
      "taf_trigger": false,
      "metar": "METAR LIMC 081350Z 32003KT 290V020 CAVOK 06/M05 Q1012 NOSIG",
      "taf": "TAF LIMC 081100Z 0812/0918 VRB04KT 9999 BKN050"
    },
    {
      "icao": "LIME",
      "alert": "OK",
      "vis_m": 9999,
      "fzfg": false,
      "metar_trigger": false,
      "taf_trigger": false,
      "metar": "METAR LIME 081350Z VRB02KT CAVOK 05/M10 Q1011 NOSIG",
      "taf": "TAF LIME 081100Z 0812/0912 VRB04KT 9999 SCT050"
    },
    {
      "icao": "LIMF",
      "alert": "OK",
      "vis_m": 9000,
      "fzfg": false,
      "metar_trigger": false,
      "taf_trigger": false,
      "metar": "METAR LIMF 081350Z 11003KT 040V170 9000 NSC 06/M08 Q1011",
      "taf": "TAF LIMF 081100Z 0812/0912 VRB03KT 9999 BKN003"
    },
    {
      "icao": "LIMJ",
      "alert": "OK",
      "vis_m": 9999,
      "fzfg": false,
      "metar_trigger": false,
      "taf_trigger": false,
      "metar": "METAR LIMJ 081350Z 14011KT 9999 SCT028 BKN040 10/04 Q1012",
      "taf": "TAF LIMJ 081100Z 0812/0912 14010KT 9999 BKN020"
    },
    {
      "icao": "LIPE",
      "alert": "OK",
      "vis_m": 9999,
      "fzfg": false,
      "metar_trigger": false,
      "taf_trigger": false,
      "metar": "METAR LIPE 081350Z VRB02KT CAVOK 02/M04 Q1013",
      "taf": "TAF LIPE 081100Z 0812/0912 VRB05KT 9999 FEW030"
    },
    {
      "icao": "LIPH",
      "alert": "OK",
      "vis_m": 9999,
      "fzfg": false,
      "metar_trigger": false,
      "taf_trigger": false,
      "metar": "METAR LIPH 081350Z VRB02KT CAVOK 03/M07 Q1013",
      "taf": "TAF LIPH 081100Z 0812/0912 VRB05KT CAVOK"
    },
    {
      "icao": "LIPQ",
      "alert": "OK",
      "vis_m": 9999,
      "fzfg": false,
      "metar_trigger": false,
      "taf_trigger": false,
      "metar": "METAR LIPQ 081350Z AUTO VRB01KT 9999 NCD 05/M05 Q1013",
      "taf": "TAF LIPQ 081100Z 0812/0912 VRB05KT 9999 SCT070"
    },
    {
      "icao": "LIPR",
      "alert": "OK",
      "vis_m": 9999,
      "fzfg": false,
      "metar_trigger": false,
      "taf_trigger": false,
      "metar": "METAR LIPR 081350Z 07003KT 030V110 CAVOK 04/M05 Q1014",
      "taf": "TAF LIPR 081100Z 0812/0912 VRB06KT 9999 SCT030"
    },
    {
      "icao": "LIPX",
      "alert": "OK",
      "vis_m": 9999,
      "fzfg": false,
      "metar_trigger": false,
      "taf_trigger": false,
      "metar": "METAR LIPX 081350Z 17003KT 130V210 CAVOK 03/00 Q1012",
      "taf": "TAF LIPX 081100Z 0812/0912 VRB05KT 9999 SCT040"
    },
    {
      "icao": "LIPY",
      "alert": "OK",
      "vis_m": 9999,
      "fzfg": false,
      "metar_trigger": false,
      "taf_trigger": false,
      "metar": "METAR LIPY 081350Z AUTO 02003KT 9999 FEW220/// 07/M02 Q1014",
      "taf": "TAF LIPY 081100Z 0812/0912 23006KT 9999 SCT030"
    },
    {
      "icao": "LIPZ",
      "alert": "OK",
      "vis_m": 9999,
      "fzfg": false,
      "metar_trigger": false,
      "taf_trigger": false,
      "metar": "METAR LIPZ 081350Z 11003KT 080V150 CAVOK 02/M05 Q1013 NOSIG",
      "taf": "TAF LIPZ 081100Z 0812/0918 VRB05KT CAVOK"
    },
    {
      "icao": "LIRF",
      "alert": "OK",
      "vis_m": 9999,
      "fzfg": false,
      "metar_trigger": false,
      "taf_trigger": false,
      "metar": "METAR LIRF 081350Z 07006KT CAVOK 08/M02 Q1016 NOSIG",
      "taf": "TAF LIRF 081100Z 0812/0918 08006KT 9999 SCT045"
    },
    {
      "icao": "LIRN",
      "alert": "OK",
      "vis_m": 9999,
      "fzfg": false,
      "metar_trigger": false,
      "taf_trigger": false,
      "metar": "METAR LIRN 081350Z 35003KT 290V030 CAVOK 10/M04 Q1015 NOSIG",
      "taf": "TAF LIRN 081100Z 0812/0912 VRB05KT 9999 SCT040"
    },
    {
      "icao": "LIRP",
      "alert": "OK",
      "vis_m": 9999,
      "fzfg": false,
      "metar_trigger": false,
      "taf_trigger": false,
      "metar": "METAR LIRP 081345Z 12010KT 9999 FEW030 06/M02 Q1014 NOSIG",
      "taf": "TAF LIRP 081100Z 0812/0912 11010KT 9999 FEW030"
    },
    {
      "icao": "LIRZ",
      "alert": "OK",
      "vis_m": 9999,
      "fzfg": false,
      "metar_trigger": false,
      "taf_trigger": false,
      "metar": "METAR LIRZ 081350Z AUTO VRB01KT 9999 BKN028/// 01/M03 Q1015",
      "taf": "TAF LIRZ 081100Z 0812/0912 VRB05KT 9999 BKN040"
    },
    {
      "icao": "LJLJ",
      "alert": "OK",
      "vis_m": 9999,
      "fzfg": false,
      "metar_trigger": false,
      "taf_trigger": false,
      "metar": "METAR LJLJ 081330Z 33001KT 9999 FEW050 M04/M09 Q1011 NOSIG",
      "taf": "TAF LJLJ 081100Z 0812/0912 VRB02KT 9999 FEW020"
    },
    {
      "icao": "LKMT",
      "alert": "OK",
      "vis_m": 8000,
      "fzfg": false,
      "metar_trigger": false,
      "taf_trigger": false,
      "metar": "METAR LKMT 081330Z 01003KT 8000 -SN SCT013 OVC027 M05/M07 Q1009 NOSIG",
      "taf": "TAF LKMT 081100Z 0812/0912 01005KT 9999 OVC014"
    },
    {
      "icao": "LKPR",
      "alert": "OK",
      "vis_m": 9999,
      "fzfg": false,
      "metar_trigger": false,
      "taf_trigger": false,
      "metar": "METAR LKPR 081330Z 21007KT 9999 OVC015 M03/M06 Q1009 NOSIG",
      "taf": "TAF LKPR 081100Z 0812/0918 20006KT 9999 OVC025"
    },
    {
      "icao": "LLBG",
      "alert": "OK",
      "vis_m": 9999,
      "fzfg": false,
      "metar_trigger": false,
      "taf_trigger": false,
      "metar": "METAR LLBG 081350Z 20005KT CAVOK 26/06 Q1014 NOSIG",
      "taf": "TAF LLBG 081120Z 0812/0912 23010KT CAVOK"
    },
    {
      "icao": "LMML",
      "alert": "OK",
      "vis_m": 9999,
      "fzfg": false,
      "metar_trigger": false,
      "taf_trigger": false,
      "metar": "METAR LMML 081345Z 27025G39KT 9999 FEW027TCU 14/09 Q1020 NOSIG",
      "taf": "TAF LMML 081100Z 0812/0912 28028G38KT 9999 SCT025"
    },
    {
      "icao": "LOWW",
      "alert": "OK",
      "vis_m": 9999,
      "fzfg": false,
      "metar_trigger": false,
      "taf_trigger": false,
      "metar": "METAR LOWW 081350Z 03005KT 9999 FEW026 OVC028 M02/M08 Q1010 NOSIG",
      "taf": ""
    },
    {
      "icao": "LPFR",
      "alert": "OK",
      "vis_m": 9999,
      "fzfg": false,
      "metar_trigger": false,
      "taf_trigger": false,
      "metar": "METAR LPFR 081330Z 20004KT 150V250 9999 FEW016 13/08 Q1032",
      "taf": "TAF LPFR 081100Z 0812/0912 VRB02KT 9999 FEW020"
    },
    {
      "icao": "LPMA",
      "alert": "OK",
      "vis_m": 9999,
      "fzfg": false,
      "metar_trigger": false,
      "taf_trigger": false,
      "metar": "METAR LPMA 081330Z 02011KT 9999 SCT015 18/12 Q1033",
      "taf": "TAF LPMA 081100Z 0812/0912 02013KT 9999 SCT015"
    },
    {
      "icao": "LPPR",
      "alert": "OK",
      "vis_m": 3600,
      "fzfg": false,
      "metar_trigger": false,
      "taf_trigger": false,
      "metar": "METAR LPPR 081330Z 19011KT 3600 -DZRA BR SCT002 OVC003 12/12 Q1028",
      "taf": "TAF LPPR 081100Z 0812/0912 18015KT 9999 SCT004 BKN018"
    },
    {
      "icao": "LPPS",
      "alert": "OK",
      "vis_m": 9999,
      "fzfg": false,
      "metar_trigger": false,
      "taf_trigger": false,
      "metar": "METAR LPPS 081330Z 07008KT 030V100 9999 -DZ SCT014 SCT030 17/13 Q1034",
      "taf": "TAF LPPS 081100Z 0812/0918 03010KT 9999 SCT015"
    },
    {
      "icao": "LPPT",
      "alert": "OK",
      "vis_m": 9999,
      "fzfg": false,
      "metar_trigger": false,
      "taf_trigger": false,
      "metar": "METAR LPPT 081330Z 23007KT 210V270 9999 -DZ FEW008 SCT010 BKN015 13/11 Q1031",
      "taf": "TAF LPPT 081100Z 0812/0918 25005KT 9999 SCT015 BKN025"
    },
    {
      "icao": "LQBK",
      "alert": "OK",
      "vis_m": 9999,
      "fzfg": false,
      "metar_trigger": false,
      "taf_trigger": false,
      "metar": "METAR LQBK 081330Z VRB02KT CAVOK M03/M08 Q1013 NOSIG",
      "taf": "TAF LQBK 081100Z 0812/0912 16005KT CAVOK TXM01/0813Z TNM09/0903Z"
    },
    {
      "icao": "LQSA",
      "alert": "OK",
      "vis_m": 9999,
      "fzfg": false,
      "metar_trigger": false,
      "taf_trigger": false,
      "metar": "METAR LQSA 081330Z VRB02KT 9999 FEW040 M03/M09 Q1012 NOSIG",
      "taf": "TAF LQSA 081100Z 0812/0912 VRB02KT 9999 SCT050 TX01/0912Z TNM10/0901Z"
    },
    {
      "icao": "LQTZ",
      "alert": "OK",
      "vis_m": 9999,
      "fzfg": false,
      "metar_trigger": false,
      "taf_trigger": false,
      "metar": "METAR LQTZ 081330Z 00000KT CAVOK M00/M05 Q1012",
      "taf": "TAF LQTZ 081100Z 0812/0912 23005KT CAVOK TX00/0912Z TNM10/0905Z"
    },
    {
      "icao": "LRBC",
      "alert": "OK",
      "vis_m": 7000,
      "fzfg": false,
      "metar_trigger": false,
      "taf_trigger": false,
      "metar": "METAR LRBC 081330Z 34008KT 7000 OVC012 M02/M04 Q0997",
      "taf": "TAF LRBC 081100Z 0812/0821 34012KT 9999 OVC030"
    },
    {
      "icao": "LRBS",
      "alert": "OK",
      "vis_m": 9000,
      "fzfg": false,
      "metar_trigger": false,
      "taf_trigger": false,
      "metar": "METAR LRBS 081330Z 27011KT 9000 FEW010 SCT024 OVC044 00/M00 Q0998 NOSIG",
      "taf": "TAF LRBS 081100Z 0812/0912 26014KT 5000 -SN BR BKN010 OVC020"
    },
    {
      "icao": "LRBV",
      "alert": "OK",
      "vis_m": 2900,
      "fzfg": false,
      "metar_trigger": false,
      "taf_trigger": false,
      "metar": "METAR LRBV 081330Z 29013KT 2900 -SNSG BR OVC008 M04/M06 Q0999",
      "taf": "TAF LRBV 081100Z 0812/0821 30012KT 3000 -SN BR BKN005 BKN015"
    },
    {
      "icao": "LRCL",
      "alert": "OK",
      "vis_m": 9999,
      "fzfg": false,
      "metar_trigger": false,
      "taf_trigger": false,
      "metar": "METAR LRCL 081330Z 34012KT 9999 BKN044 M03/M06 Q1002",
      "taf": "TAF LRCL 081100Z 0812/0821 30010KT 9999 BKN050"
    },
    {
      "icao": "LRCV",
      "alert": "OK",
      "vis_m": 9999,
      "fzfg": false,
      "metar_trigger": false,
      "taf_trigger": false,
      "metar": "METAR LRCV 081330Z 28026KT CAVOK M02/M05 Q1000",
      "taf": "TAF LRCV 081100Z 0812/0821 27020KT CAVOK"
    },
    {
      "icao": "LRIA",
      "alert": "OK",
      "vis_m": 9999,
      "fzfg": false,
      "metar_trigger": false,
      "taf_trigger": false,
      "metar": "METAR LRIA 081330Z 30014G24KT 9999 -SN OVC043 M02/M04 Q0996",
      "taf": "TAF LRIA 081100Z 0812/0821 31012KT 9999 BKN007 OVC030"
    },
    {
      "icao": "LROP",
      "alert": "OK",
      "vis_m": 9000,
      "fzfg": false,
      "metar_trigger": false,
      "taf_trigger": false,
      "metar": "METAR LROP 081330Z 25008KT 9000 FEW008 OVC022 00/00 Q0998 NOSIG",
      "taf": "TAF LROP 081100Z 0812/0912 26014KT 5000 -SN BR BKN010 OVC020"
    },
    {
      "icao": "LRSB",
      "alert": "OK",
      "vis_m": 9999,
      "fzfg": false,
      "metar_trigger": false,
      "taf_trigger": false,
      "metar": "METAR LRSB 081330Z 30019KT 9999 BKN046 M03/M06 Q1001",
      "taf": "TAF LRSB 081100Z 0812/0912 33014KT 9999 SCT035"
    },
    {
      "icao": "LRSM",
      "alert": "OK",
      "vis_m": 2600,
      "fzfg": false,
      "metar_trigger": false,
      "taf_trigger": false,
      "metar": "METAR LRSM 081330Z 26013KT 2600 -SN BR BKN022 OVC031 M05/M07 Q1004",
      "taf": "TAF LRSM 081100Z 0812/0821 26010KT 7000 OVC015"
    },
    {
      "icao": "LRSV",
      "alert": "OK",
      "vis_m": 9999,
      "fzfg": false,
      "metar_trigger": false,
      "taf_trigger": false,
      "metar": "METAR LRSV 081330Z 32019KT 9999 DRSN FEW016 BKN032 M04/M07 Q0995",
      "taf": "TAF LRSV 081100Z 0812/0821 32015KT 9999 DRSN BKN040"
    },
    {
      "icao": "LRTM",
      "alert": "OK",
      "vis_m": 9000,
      "fzfg": false,
      "metar_trigger": false,
      "taf_trigger": false,
      "metar": "METAR LRTM 081330Z 27006KT 9000 BKN016 OVC025 M03/M06 Q1002",
      "taf": "TAF LRTM 081100Z 0812/0821 30008KT 9999 SCT020 BKN040"
    },
    {
      "icao": "LRTR",
      "alert": "OK",
      "vis_m": 9999,
      "fzfg": false,
      "metar_trigger": false,
      "taf_trigger": false,
      "metar": "METAR LRTR 081330Z 26010KT 9999 SCT020 M06/M09 Q1009",
      "taf": "TAF LRTR 081100Z 0812/0912 28010KT 7000 NSC"
    },
    {
      "icao": "LTAC",
      "alert": "OK",
      "vis_m": 2000,
      "fzfg": false,
      "metar_trigger": false,
      "taf_trigger": false,
      "metar": "METAR LTAC 081350Z 23029KT 190V260 2000 SHRA BKN030 BKN080 09/03 Q1005 BECMG 6000 RMK RWY21C 22030G42KT RWY03L 22026G38KT RWY21R 21033G43KT 170V230 RWY03R 22026G36KT RWY21L 22026G40KT 140V240",
      "taf": "TAF LTAC 081040Z 0812/0912 25012KT 6000 BKN030 BKN080"
    },
    {
      "icao": "LTFM",
      "alert": "OK",
      "vis_m": 9999,
      "fzfg": false,
      "metar_trigger": false,
      "taf_trigger": false,
      "metar": "METAR LTFM 081350Z 28014KT 9999 -SHRA FEW018CB BKN025 BKN080 11/07 Q1000 RETSRA NOSIG RMK RWY17L 34015KT 300V360 RWY34L 27011KT RWY16R 34014KT RWY36 28014KT RWY18 28016G29KT 230V340",
      "taf": "TAF LTFM 081040Z 0812/0918 22022G32KT 9999 -SHRA BKN030 BKN080"
    },
    {
      "icao": "LUKK",
      "alert": "OK",
      "vis_m": 3600,
      "fzfg": false,
      "metar_trigger": false,
      "taf_trigger": false,
      "metar": "METAR LUKK 081330Z 32016KT 3600 SHSN FEW009 BKN014 OVC019CB M01/M02 Q0993 TEMPO 33018G28KT 2000 SHSNRA BKN006 SCT010CB",
      "taf": "TAF LUKK 081129Z 0812/0912 32014KT 9999 OVC008"
    },
    {
      "icao": "LWOH",
      "alert": "OK",
      "vis_m": 8000,
      "fzfg": false,
      "metar_trigger": false,
      "taf_trigger": false,
      "metar": "METAR LWOH 081350Z 01003KT 300V070 8000 -SN SCT010 OVC025 02/M00 Q1006",
      "taf": ""
    },
    {
      "icao": "LWSK",
      "alert": "OK",
      "vis_m": 9999,
      "fzfg": false,
      "metar_trigger": false,
      "taf_trigger": false,
      "metar": "METAR LWSK 081350Z 01012KT 9999 FEW030 SCT060 02/M05 Q1008 NOSIG",
      "taf": "TAF LWSK 081120Z 0812/0912 36012KT 9999 FEW020 BKN030 BKN050"
    },
    {
      "icao": "LYBE",
      "alert": "OK",
      "vis_m": 9999,
      "fzfg": false,
      "metar_trigger": false,
      "taf_trigger": false,
      "metar": "METAR LYBE 081330Z 27012KT CAVOK M04/M07 Q1011 NOSIG",
      "taf": "TAF LYBE 081100Z 0812/0912 28014KT CAVOK TXM02/0912Z TNM12/0904Z"
    },
    {
      "icao": "LYNI",
      "alert": "OK",
      "vis_m": 9999,
      "fzfg": false,
      "metar_trigger": false,
      "taf_trigger": false,
      "metar": "METAR LYNI 081330Z 28007KT 240V340 9999 -SN BKN017 BKN037 M02/M04 Q1010 RESN NOSIG",
      "taf": "TAF LYNI 081100Z 0812/0912 30010KT 9999 BKN030 TXM02/0912Z TNM10/0905Z"
    },
    {
      "icao": "LYPG",
      "alert": "OK",
      "vis_m": 9999,
      "fzfg": false,
      "metar_trigger": false,
      "taf_trigger": false,
      "metar": "METAR LYPG 081330Z 36015KT 9999 FEW034 SCT050 07/M07 Q1008 NOSIG",
      "taf": ""
    },
    {
      "icao": "LZIB",
      "alert": "OK",
      "vis_m": 9999,
      "fzfg": false,
      "metar_trigger": false,
      "taf_trigger": false,
      "metar": "METAR LZIB 081330Z 31013KT CAVOK M01/M10 Q1010 NOSIG",
      "taf": "TAF LZIB 081115Z 0812/0912 32012KT CAVOK"
    },
    {
      "icao": "LZKZ",
      "alert": "OK",
      "vis_m": 9999,
      "fzfg": false,
      "metar_trigger": false,
      "taf_trigger": false,
      "metar": "METAR LZKZ 081330Z 36008KT CAVOK M02/M09 Q1004 NOSIG",
      "taf": "TAF LZKZ 081115Z 0812/0912 36017KT 9999 FEW035"
    },
    {
      "icao": "LZTT",
      "alert": "OK",
      "vis_m": 9999,
      "fzfg": false,
      "metar_trigger": false,
      "taf_trigger": false,
      "metar": "METAR LZTT 081330Z 27011KT 9999 FEW023 BKN083 M06/M10 Q1002 NOSIG",
      "taf": "TAF LZTT 081115Z 0812/0912 27010KT 9999 FEW035"
    },
    {
      "icao": "OEJN",
      "alert": "OK",
      "vis_m": 8000,
      "fzfg": false,
      "metar_trigger": false,
      "taf_trigger": false,
      "metar": "METAR OEJN 081300Z 24010KT 8000 NSC 28/18 Q1015 NOSIG",
      "taf": "TAF OEJN 081100Z 0812/0918 24010KT 7000 FEW040"
    },
    {
      "icao": "OEMA",
      "alert": "OK",
      "vis_m": 9999,
      "fzfg": false,
      "metar_trigger": false,
      "taf_trigger": false,
      "metar": "METAR OEMA 081300Z 09008KT CAVOK 27/M04 Q1021 NOSIG",
      "taf": "TAF OEMA 081100Z 0812/0918 09010KT CAVOK"
    },
    {
      "icao": "OJAI",
      "alert": "OK",
      "vis_m": 4000,
      "fzfg": false,
      "metar_trigger": false,
      "taf_trigger": false,
      "metar": "METAR OJAI 081300Z 17012KT 4000 HZ NSC 22/04 Q1020 NOSIG",
      "taf": "TAF OJAI 081100Z 0812/0918 13008KT 5000 HZ NSC"
    },
    {
      "icao": "OMAA",
      "alert": "OK",
      "vis_m": 9999,
      "fzfg": false,
      "metar_trigger": false,
      "taf_trigger": false,
      "metar": "METAR OMAA 081300Z 33011KT CAVOK 23/10 Q1019 NOSIG",
      "taf": "TAF OMAA 081100Z 0812/0918 34011KT 8000 NSC"
    },
    {
      "icao": "OMDB",
      "alert": "OK",
      "vis_m": 9999,
      "fzfg": false,
      "metar_trigger": false,
      "taf_trigger": false,
      "metar": "METAR OMDB 081330Z 34010KT CAVOK 23/10 Q1019 NOSIG",
      "taf": "TAF OMDB 081100Z 0812/0918 33010KT CAVOK"
    },
    {
      "icao": "UAAA",
      "alert": "OK",
      "vis_m": 3100,
      "fzfg": false,
      "metar_trigger": false,
      "taf_trigger": false,
      "metar": "METAR UAAA 081330Z 02002MPS 3100 BR OVC010 M04/M05 Q1030 NOSIG",
      "taf": "TAF UAAA 081102Z 0812/0912 33003MPS 1500 BR FU BKN011 OVC100 TXM01/0909Z TNM08/0901Z"
    },
    {
      "icao": "UBBB",
      "alert": "OK",
      "vis_m": 2500,
      "fzfg": false,
      "metar_trigger": false,
      "taf_trigger": false,
      "metar": "METAR UBBB 081330Z 17008KT 2500 BR BKN005 07/06 Q1015 NOSIG",
      "taf": "TAF UBBB 081057Z 0812/0912 16010KT 3000 BR BKN005 TX08/0812Z TN04/0903Z"
    },
    {
      "icao": "UDSG",
      "alert": "OK",
      "vis_m": 6000,
      "fzfg": false,
      "metar_trigger": false,
      "taf_trigger": false,
      "metar": "METAR UDSG 081330Z 18002KT 6000 FEW049 M06/M10 Q1021 NOSIG",
      "taf": "TAF UDSG 081100Z 0812/0912 VRB06KT 5000 BR SCT040"
    },
    {
      "icao": "UDYZ",
      "alert": "OK",
      "vis_m": 3800,
      "fzfg": false,
      "metar_trigger": false,
      "taf_trigger": false,
      "metar": "METAR UDYZ 081330Z 26002KT 3800 BR FEW046 M01/M07 Q1023 NOSIG",
      "taf": "TAF UDYZ 081100Z 0812/0912 28006KT 2300 BR FEW040"
    },
    {
      "icao": "UGKO",
      "alert": "OK",
      "vis_m": 9999,
      "fzfg": false,
      "metar_trigger": false,
      "taf_trigger": false,
      "metar": "METAR UGKO 081330Z 10006KT CAVOK 15/03 Q1011 NOSIG",
      "taf": "TAF UGKO 081100Z 0812/0912 09015KT 9999 SCT022 BKN050 TX18/0812Z TN09/0903Z"
    }
  ]
}