{
  "ts_utc": "2026-05-03T10:39:45Z",
  "threshold_m": 150,
  "source": "stations_override.txt (ICAO list) + aviationweather.gov (METAR/TAF raw)",
  "station_count": 159,
  "stations": [
    {
      "icao": "BIKF",
      "alert": "OK",
      "vis_m": 9999,
      "fzfg": false,
      "metar_trigger": false,
      "taf_trigger": false,
      "metar": "METAR BIKF 031030Z 31008KT 280V090 9999 FEW030 BKN280 06/M01 Q1011",
      "taf": "TAF BIKF 030759Z 0309/0409 32010KT 9999 FEW020 SCT040 TX08/0312Z TNM01/0406Z"
    },
    {
      "icao": "BKPR",
      "alert": "OK",
      "vis_m": 9999,
      "fzfg": false,
      "metar_trigger": false,
      "taf_trigger": false,
      "metar": "METAR BKPR 031030Z 33010KT 9999 FEW050 13/M01 Q1020 NOSIG",
      "taf": "TAF BKPR 030530Z 0306/0406 01010KT 9999 FEW050"
    },
    {
      "icao": "EBCI",
      "alert": "OK",
      "vis_m": 7000,
      "fzfg": false,
      "metar_trigger": false,
      "taf_trigger": false,
      "metar": "METAR EBCI 031020Z 21006KT 180V240 7000 -RA BKN008 BKN035 15/13 Q1012 TEMPO 4000 RA SCT008 BKN035",
      "taf": "TAF EBCI 030511Z 0306/0412 20006KT 9999 SCT030"
    },
    {
      "icao": "EDDB",
      "alert": "OK",
      "vis_m": 9999,
      "fzfg": false,
      "metar_trigger": false,
      "taf_trigger": false,
      "metar": "METAR EDDB 031020Z AUTO 23008KT 190V270 CAVOK 27/08 Q1013 NOSIG",
      "taf": "TAF EDDB 030500Z 0306/0406 18004KT CAVOK"
    },
    {
      "icao": "EDDH",
      "alert": "OK",
      "vis_m": 9999,
      "fzfg": false,
      "metar_trigger": false,
      "taf_trigger": false,
      "metar": "METAR EDDH 031020Z AUTO VRB03KT CAVOK 23/13 Q1011 NOSIG",
      "taf": "TAF EDDH 030500Z 0306/0412 VRB03KT 9999 FEW035"
    },
    {
      "icao": "EDDK",
      "alert": "OK",
      "vis_m": 9999,
      "fzfg": false,
      "metar_trigger": false,
      "taf_trigger": false,
      "metar": "METAR EDDK 031020Z AUTO 16011KT 140V200 CAVOK 21/07 Q1012 NOSIG",
      "taf": ""
    },
    {
      "icao": "EDDN",
      "alert": "OK",
      "vis_m": 9999,
      "fzfg": false,
      "metar_trigger": false,
      "taf_trigger": false,
      "metar": "METAR EDDN 031020Z AUTO 35005KT 290V060 CAVOK 23/07 Q1015 NOSIG",
      "taf": "TAF EDDN 030500Z 0306/0406 10004KT CAVOK"
    },
    {
      "icao": "EDDS",
      "alert": "OK",
      "vis_m": 9999,
      "fzfg": false,
      "metar_trigger": false,
      "taf_trigger": false,
      "metar": "METAR EDDS 031020Z AUTO 20002KT CAVOK 22/06 Q1015 NOSIG",
      "taf": "TAF EDDS 030500Z 0306/0406 VRB03KT CAVOK"
    },
    {
      "icao": "EDFH",
      "alert": "OK",
      "vis_m": 9999,
      "fzfg": false,
      "metar_trigger": false,
      "taf_trigger": false,
      "metar": "METAR EDFH 031020Z 22014KT CAVOK 18/03 Q1014",
      "taf": "TAF EDFH 030500Z 0306/0406 20007KT CAVOK"
    },
    {
      "icao": "EDJA",
      "alert": "OK",
      "vis_m": 9999,
      "fzfg": false,
      "metar_trigger": false,
      "taf_trigger": false,
      "metar": "METAR EDJA 031020Z VRB03KT CAVOK 21/06 Q1015",
      "taf": "TAF EDJA 030800Z 0309/0318 27005KT CAVOK"
    },
    {
      "icao": "EDLW",
      "alert": "OK",
      "vis_m": 9999,
      "fzfg": false,
      "metar_trigger": false,
      "taf_trigger": false,
      "metar": "METAR EDLW 031020Z 17013KT CAVOK 21/07 Q1011",
      "taf": "TAF EDLW 030500Z 0306/0406 VRB03KT CAVOK"
    },
    {
      "icao": "EDNY",
      "alert": "OK",
      "vis_m": 9999,
      "fzfg": false,
      "metar_trigger": false,
      "taf_trigger": false,
      "metar": "METAR EDNY 031020Z 26005KT CAVOK 21/08 Q1016",
      "taf": "TAF EDNY 030800Z 0309/0318 25005KT CAVOK"
    },
    {
      "icao": "EDSB",
      "alert": "OK",
      "vis_m": 9999,
      "fzfg": false,
      "metar_trigger": false,
      "taf_trigger": false,
      "metar": "METAR EDSB 031020Z 20008KT 170V230 CAVOK 22/09 Q1014",
      "taf": "TAF EDSB 030500Z 0306/0406 VRB03KT CAVOK"
    },
    {
      "icao": "EETN",
      "alert": "OK",
      "vis_m": 9999,
      "fzfg": false,
      "metar_trigger": false,
      "taf_trigger": false,
      "metar": "METAR EETN 031020Z 31003KT CAVOK 12/07 Q1008 NOSIG",
      "taf": "TAF EETN 030530Z 0306/0406 24010KT CAVOK"
    },
    {
      "icao": "EFTU",
      "alert": "OK",
      "vis_m": 9999,
      "fzfg": false,
      "metar_trigger": false,
      "taf_trigger": false,
      "metar": "METAR EFTU 031020Z AUTO VRB04KT 9999 FEW028 12/04 Q1008",
      "taf": "TAF EFTU 030824Z 0309/0409 33008KT CAVOK"
    },
    {
      "icao": "EGBB",
      "alert": "OK",
      "vis_m": 9999,
      "fzfg": false,
      "metar_trigger": false,
      "taf_trigger": false,
      "metar": "METAR EGBB 031020Z 27006KT 9999 SCT014 BKN020 13/09 Q1009",
      "taf": ""
    },
    {
      "icao": "EGGP",
      "alert": "OK",
      "vis_m": 9999,
      "fzfg": false,
      "metar_trigger": false,
      "taf_trigger": false,
      "metar": "METAR EGGP 031020Z 35009KT 9999 FEW010 BKN019 OVC032 12/10 Q1009",
      "taf": ""
    },
    {
      "icao": "EGGW",
      "alert": "OK",
      "vis_m": 9999,
      "fzfg": false,
      "metar_trigger": false,
      "taf_trigger": false,
      "metar": "METAR EGGW 031020Z AUTO 25008KT 9999 OVC019 13/09 Q1009",
      "taf": "TAF EGGW 030501Z 0306/0406 24007KT 9999 BKN020"
    },
    {
      "icao": "EGKK",
      "alert": "OK",
      "vis_m": 9999,
      "fzfg": false,
      "metar_trigger": false,
      "taf_trigger": false,
      "metar": "METAR EGKK 031020Z 24005KT 170V350 9999 SCT015 15/11 Q1010",
      "taf": ""
    },
    {
      "icao": "EGNM",
      "alert": "OK",
      "vis_m": 3000,
      "fzfg": false,
      "metar_trigger": false,
      "taf_trigger": false,
      "metar": "METAR EGNM 031020Z 03010KT 3000 -RA BR SCT002 BKN003 09/09 Q1009",
      "taf": "TAF EGNM 030500Z 0306/0406 03009KT 9999 SCT015"
    },
    {
      "icao": "EGPD",
      "alert": "OK",
      "vis_m": 9999,
      "fzfg": false,
      "metar_trigger": false,
      "taf_trigger": false,
      "metar": "METAR EGPD 031020Z COR AUTO 08004KT 020V130 9999 OVC021 08/03 Q1015 NOSIG",
      "taf": ""
    },
    {
      "icao": "EGPF",
      "alert": "OK",
      "vis_m": 9999,
      "fzfg": false,
      "metar_trigger": false,
      "taf_trigger": false,
      "metar": "METAR EGPF 031020Z AUTO 06012KT 9999 BKN013 OVC044 09/07 Q1014",
      "taf": "TAF EGPF 030500Z 0306/0406 07009KT 9999 BKN012"
    },
    {
      "icao": "EHBK",
      "alert": "OK",
      "vis_m": 9999,
      "fzfg": false,
      "metar_trigger": false,
      "taf_trigger": false,
      "metar": "METAR EHBK 031025Z AUTO 21009KT 180V260 9999 SCT033/// BKN041/// 17/09 Q1012 NOSIG",
      "taf": "TAF EHBK 030521Z 0306/0412 18007KT CAVOK"
    },
    {
      "icao": "EHEH",
      "alert": "OK",
      "vis_m": 9999,
      "fzfg": false,
      "metar_trigger": false,
      "taf_trigger": false,
      "metar": "METAR EHEH 031025Z AUTO 24007KT 210V280 9999 -RA SCT015 BKN019 OVC086 17/14 Q1011 RERA REDZ WHT BECMG SCT015 OVC020",
      "taf": ""
    },
    {
      "icao": "EKBI",
      "alert": "OK",
      "vis_m": 9999,
      "fzfg": false,
      "metar_trigger": false,
      "taf_trigger": false,
      "metar": "METAR EKBI 031020Z AUTO VRB03KT 9999 FEW011/// BKN090/// 12/10 Q1012",
      "taf": ""
    },
    {
      "icao": "EKCH",
      "alert": "OK",
      "vis_m": 9999,
      "fzfg": false,
      "metar_trigger": false,
      "taf_trigger": false,
      "metar": "METAR EKCH 031020Z AUTO 05005KT 010V090 9999 NCD 17/10 Q1012 NOSIG",
      "taf": "TAF EKCH 030827Z 0309/0409 VRB04KT 9999 FEW012"
    },
    {
      "icao": "ENAL",
      "alert": "OK",
      "vis_m": 9999,
      "fzfg": false,
      "metar_trigger": false,
      "taf_trigger": false,
      "metar": "METAR ENAL 031020Z 26008KT 230V310 9999 BKN041 06/M02 Q1011",
      "taf": "TAF ENAL 030800Z 0309/0318 32005KT 9999 SCT040"
    },
    {
      "icao": "ENBR",
      "alert": "OK",
      "vis_m": 9999,
      "fzfg": false,
      "metar_trigger": false,
      "taf_trigger": false,
      "metar": "METAR ENBR 031020Z 33008KT 9999 FEW025 08/01 Q1012 NOSIG RMK WIND 1200FT 34010KT",
      "taf": "TAF ENBR 030500Z 0306/0406 34010KT 9999 SCT025"
    },
    {
      "icao": "ENGM",
      "alert": "OK",
      "vis_m": 9999,
      "fzfg": false,
      "metar_trigger": false,
      "taf_trigger": false,
      "metar": "METAR ENGM 031020Z 05006KT 360V090 9999 BKN025 06/M01 Q1011 NOSIG",
      "taf": "TAF ENGM 030500Z 0306/0406 01008KT 9999 SCT020 BKN030"
    },
    {
      "icao": "ENHD",
      "alert": "OK",
      "vis_m": 9999,
      "fzfg": false,
      "metar_trigger": false,
      "taf_trigger": false,
      "metar": "METAR ENHD 031020Z 34016KT CAVOK 09/03 Q1012",
      "taf": "TAF ENHD 030800Z 0309/0318 34018KT 9999 FEW022"
    },
    {
      "icao": "ENTC",
      "alert": "OK",
      "vis_m": 9999,
      "fzfg": false,
      "metar_trigger": false,
      "taf_trigger": false,
      "metar": "METAR ENTC 031020Z 23015KT 9999 -SHSN FEW008CB SCT026CB BKN049 01/M03 Q1001 TEMPO 1200 SHSNRA VV008 RMK WIND 2600FT 23016KT",
      "taf": "TAF ENTC 030500Z 0306/0406 20015KT 9999 -SHSN SCT020 BKN030"
    },
    {
      "icao": "ENTO",
      "alert": "OK",
      "vis_m": 9999,
      "fzfg": false,
      "metar_trigger": false,
      "taf_trigger": false,
      "metar": "METAR ENTO 031020Z 03008KT 360V100 9999 FEW022 11/05 Q1010 NOSIG",
      "taf": "TAF ENTO 030500Z 0306/0406 03010KT 9999 BKN012"
    },
    {
      "icao": "ENVA",
      "alert": "OK",
      "vis_m": 9999,
      "fzfg": false,
      "metar_trigger": false,
      "taf_trigger": false,
      "metar": "METAR ENVA 031020Z 32003KT 9999 FEW030 SCT040 BKN055 05/M03 Q1011 NOSIG RMK WIND 670FT 32004KT",
      "taf": "TAF ENVA 030500Z 0306/0406 27005KT 9999 FEW020 BKN030"
    },
    {
      "icao": "ENZV",
      "alert": "OK",
      "vis_m": 9999,
      "fzfg": false,
      "metar_trigger": false,
      "taf_trigger": false,
      "metar": "METAR ENZV 031020Z 30011KT 9999 FEW022 10/04 Q1011 NOSIG",
      "taf": "TAF ENZV 030500Z 0306/0406 33008KT 9999 SCT018"
    },
    {
      "icao": "EPGD",
      "alert": "OK",
      "vis_m": 9999,
      "fzfg": false,
      "metar_trigger": false,
      "taf_trigger": false,
      "metar": "METAR EPGD 031030Z 22013KT 200V260 CAVOK 26/M00 Q1013",
      "taf": "TAF EPGD 030530Z 0306/0406 23008KT CAVOK"
    },
    {
      "icao": "EPKK",
      "alert": "OK",
      "vis_m": 9999,
      "fzfg": false,
      "metar_trigger": false,
      "taf_trigger": false,
      "metar": "METAR EPKK 031030Z 24005KT 130V300 CAVOK 22/06 Q1018",
      "taf": "TAF EPKK 030830Z 0309/0409 VRB04KT CAVOK"
    },
    {
      "icao": "EPKT",
      "alert": "OK",
      "vis_m": 9999,
      "fzfg": false,
      "metar_trigger": false,
      "taf_trigger": false,
      "metar": "METAR EPKT 031030Z 23013KT 190V250 CAVOK 22/04 Q1019",
      "taf": "TAF EPKT 030530Z 0306/0406 16004KT CAVOK"
    },
    {
      "icao": "EPLB",
      "alert": "OK",
      "vis_m": 9999,
      "fzfg": false,
      "metar_trigger": false,
      "taf_trigger": false,
      "metar": "METAR EPLB 031030Z 21009KT 180V240 CAVOK 23/05 Q1019",
      "taf": "TAF EPLB 030530Z 0306/0406 24010KT CAVOK"
    },
    {
      "icao": "EPMO",
      "alert": "OK",
      "vis_m": 9999,
      "fzfg": false,
      "metar_trigger": false,
      "taf_trigger": false,
      "metar": "METAR EPMO 031030Z 20014KT 160V230 CAVOK 26/01 Q1016",
      "taf": "TAF EPMO 030530Z 0306/0406 21012KT CAVOK"
    },
    {
      "icao": "EPPO",
      "alert": "OK",
      "vis_m": 9999,
      "fzfg": false,
      "metar_trigger": false,
      "taf_trigger": false,
      "metar": "METAR EPPO 031030Z 19012KT CAVOK 26/05 Q1014",
      "taf": "TAF EPPO 030530Z 0306/0406 14004KT CAVOK"
    },
    {
      "icao": "EPRA",
      "alert": "OK",
      "vis_m": 9999,
      "fzfg": false,
      "metar_trigger": false,
      "taf_trigger": false,
      "metar": "METAR EPRA 031030Z 23013KT CAVOK 24/00 Q1018",
      "taf": "TAF EPRA 030830Z 0309/0318 20012KT CAVOK"
    },
    {
      "icao": "EPRZ",
      "alert": "OK",
      "vis_m": 9999,
      "fzfg": false,
      "metar_trigger": false,
      "taf_trigger": false,
      "metar": "METAR EPRZ 031030Z 19010KT 150V210 CAVOK 21/03 Q1020",
      "taf": "TAF EPRZ 030530Z 0306/0406 20006KT CAVOK"
    },
    {
      "icao": "EPSC",
      "alert": "OK",
      "vis_m": 9999,
      "fzfg": false,
      "metar_trigger": false,
      "taf_trigger": false,
      "metar": "METAR EPSC 031030Z 21010KT 190V260 CAVOK 26/04 Q1012",
      "taf": "TAF EPSC 030530Z 0306/0406 14008KT CAVOK"
    },
    {
      "icao": "EPSY",
      "alert": "OK",
      "vis_m": 9999,
      "fzfg": false,
      "metar_trigger": false,
      "taf_trigger": false,
      "metar": "METAR EPSY 031030Z 22018G28KT 180V250 CAVOK 24/M01 Q1015",
      "taf": "TAF EPSY 030830Z 0309/0318 22017KT CAVOK"
    },
    {
      "icao": "EPWA",
      "alert": "OK",
      "vis_m": 9999,
      "fzfg": false,
      "metar_trigger": false,
      "taf_trigger": false,
      "metar": "METAR EPWA 031030Z 20011KT 150V240 CAVOK 25/01 Q1017 NOSIG",
      "taf": "TAF EPWA 030830Z 0309/0409 20015KT CAVOK"
    },
    {
      "icao": "EPWR",
      "alert": "OK",
      "vis_m": 9999,
      "fzfg": false,
      "metar_trigger": false,
      "taf_trigger": false,
      "metar": "METAR EPWR 031030Z 20012KT 170V260 CAVOK 25/00 Q1016",
      "taf": "TAF EPWR 030830Z 0309/0409 22012KT CAVOK"
    },
    {
      "icao": "ESGG",
      "alert": "OK",
      "vis_m": 2800,
      "fzfg": false,
      "metar_trigger": false,
      "taf_trigger": false,
      "metar": "METAR ESGG 031020Z 23007KT 2800 BKN003 OVC005 09/09 Q1010",
      "taf": ""
    },
    {
      "icao": "ESKN",
      "alert": "OK",
      "vis_m": 9999,
      "fzfg": false,
      "metar_trigger": false,
      "taf_trigger": false,
      "metar": "METAR ESKN 031020Z 15008KT 120V180 9999 BKN019 13/07 Q1009",
      "taf": "TAF ESKN 030830Z 0309/0409 09004KT 9999 SCT020 BKN040"
    },
    {
      "icao": "ESMS",
      "alert": "OK",
      "vis_m": 9999,
      "fzfg": false,
      "metar_trigger": false,
      "taf_trigger": false,
      "metar": "METAR ESMS 031020Z 25008KT 230V290 CAVOK 18/07 Q1011",
      "taf": "TAF ESMS 030827Z 0309/0409 30006KT 9999 FEW012"
    },
    {
      "icao": "ESSA",
      "alert": "OK",
      "vis_m": 9999,
      "fzfg": false,
      "metar_trigger": false,
      "taf_trigger": false,
      "metar": "METAR ESSA 031020Z 04008KT 9999 -DZ FEW007 BKN014 06/04 Q1011 TEMPO 5000 -DZ SCT015",
      "taf": "TAF ESSA 030830Z 0309/0409 02006KT 9999 BKN023"
    },
    {
      "icao": "EYKA",
      "alert": "OK",
      "vis_m": 9999,
      "fzfg": false,
      "metar_trigger": false,
      "taf_trigger": false,
      "metar": "METAR EYKA 031020Z 28015KT 230V310 CAVOK 25/03 Q1013",
      "taf": ""
    },
    {
      "icao": "EYPA",
      "alert": "OK",
      "vis_m": 9999,
      "fzfg": false,
      "metar_trigger": false,
      "taf_trigger": false,
      "metar": "METAR EYPA 031020Z 20006KT 160V240 CAVOK 16/05 Q1013",
      "taf": "TAF EYPA 030500Z 0306/0406 21010KT 9000 NSC"
    },
    {
      "icao": "EYVI",
      "alert": "OK",
      "vis_m": 9999,
      "fzfg": false,
      "metar_trigger": false,
      "taf_trigger": false,
      "metar": "METAR EYVI 031020Z 28013KT 240V330 CAVOK 24/03 Q1014 NOSIG",
      "taf": "TAF EYVI 030500Z 0306/0406 25010KT 9000 NSC"
    },
    {
      "icao": "GCFV",
      "alert": "OK",
      "vis_m": 9999,
      "fzfg": false,
      "metar_trigger": false,
      "taf_trigger": false,
      "metar": "METAR GCFV 031030Z 03012KT 9999 FEW019 21/15 Q1018",
      "taf": "TAF GCFV 030800Z 0309/0409 05010KT 9999 FEW025 TX22/0314Z TN18/0406Z"
    },
    {
      "icao": "GCLP",
      "alert": "OK",
      "vis_m": 9999,
      "fzfg": false,
      "metar_trigger": false,
      "taf_trigger": false,
      "metar": "METAR GCLP 031030Z 03015KT 9999 FEW025 22/15 Q1018 NOSIG",
      "taf": "TAF GCLP 030800Z 0309/0409 03015KT 9999 FEW025 TX24/0314Z TN18/0406Z"
    },
    {
      "icao": "GCTS",
      "alert": "OK",
      "vis_m": 9999,
      "fzfg": false,
      "metar_trigger": false,
      "taf_trigger": false,
      "metar": "METAR GCTS 031030Z 10014KT 070V140 9999 FEW025 22/15 Q1018 NOSIG",
      "taf": "TAF GCTS 030800Z 0309/0409 04009KT 9999 FEW030 TX24/0314Z TN17/0406Z"
    },
    {
      "icao": "GMAD",
      "alert": "OK",
      "vis_m": 9999,
      "fzfg": false,
      "metar_trigger": false,
      "taf_trigger": false,
      "metar": "METAR GMAD 031030Z 29003KT CAVOK 23/13 Q1014 NOSIG",
      "taf": "TAF GMAD 030500Z 0306/0412 22006KT 8000 SCT010 SCT016"
    },
    {
      "icao": "GMMN",
      "alert": "OK",
      "vis_m": 9999,
      "fzfg": false,
      "metar_trigger": false,
      "taf_trigger": false,
      "metar": "METAR GMMN 031030Z VRB03KT 9999 SCT023 21/15 Q1016 NOSIG",
      "taf": "TAF GMMN 030500Z 0306/0412 18004KT 9999 BKN023"
    },
    {
      "icao": "GMMX",
      "alert": "OK",
      "vis_m": 9999,
      "fzfg": false,
      "metar_trigger": false,
      "taf_trigger": false,
      "metar": "METAR GMMX 031030Z VRB03KT CAVOK 21/13 Q1016 NOSIG",
      "taf": "TAF GMMX 030500Z 0306/0412 06006KT 8000 SCT026"
    },
    {
      "icao": "HEGN",
      "alert": "OK",
      "vis_m": 9999,
      "fzfg": false,
      "metar_trigger": false,
      "taf_trigger": false,
      "metar": "METAR HEGN 031000Z 06006KT CAVOK 32/14 Q1009 NOSIG",
      "taf": "TAF HEGN 030500Z 0306/0412 32008G22KT 9999 SCT020"
    },
    {
      "icao": "HEMA",
      "alert": "OK",
      "vis_m": 9999,
      "fzfg": false,
      "metar_trigger": false,
      "taf_trigger": false,
      "metar": "METAR HEMA 031000Z 09008KT CAVOK 35/11 Q1008 NOSIG",
      "taf": "TAF HEMA 030500Z 0306/0412 32008G22KT 9999 SCT020"
    },
    {
      "icao": "HESH",
      "alert": "OK",
      "vis_m": 8000,
      "fzfg": false,
      "metar_trigger": false,
      "taf_trigger": false,
      "metar": "METAR HESH 031000Z 13011KT 8000 SCT030 29/20 Q1008 NOSIG",
      "taf": "TAF HESH 030500Z 0306/0412 34006G20KT 9999 SCT020"
    },
    {
      "icao": "HESX",
      "alert": "OK",
      "vis_m": 9999,
      "fzfg": false,
      "metar_trigger": false,
      "taf_trigger": false,
      "metar": "METAR HESX 031000Z 29011KT CAVOK 26/11 Q1011 NOSIG",
      "taf": "TAF HESX 030500Z 0306/0412 30009KT 9999 FEW025"
    },
    {
      "icao": "LATI",
      "alert": "OK",
      "vis_m": 9999,
      "fzfg": false,
      "metar_trigger": false,
      "taf_trigger": false,
      "metar": "METAR LATI 031020Z 02008KT 320V110 CAVOK 21/03 Q1018 NOSIG",
      "taf": "TAF LATI 030500Z 0306/0406 VRB05KT 9999 SCT100 TX23/0312Z TN07/0404Z"
    },
    {
      "icao": "LBPD",
      "alert": "OK",
      "vis_m": 9999,
      "fzfg": false,
      "metar_trigger": false,
      "taf_trigger": false,
      "metar": "METAR LBPD 031030Z AUTO VRB03KT 9999 SCT051/// BKN069/// 12/01 Q1021 NOSIG",
      "taf": "TAF LBPD 030500Z 0306/0406 30010KT 9999 SCT040 BKN070"
    },
    {
      "icao": "LBSF",
      "alert": "OK",
      "vis_m": 9999,
      "fzfg": false,
      "metar_trigger": false,
      "taf_trigger": false,
      "metar": "METAR LBSF 031030Z 03010KT 350V080 9999 BKN050 10/M01 Q1021 NOSIG",
      "taf": "TAF LBSF 030500Z 0306/0406 VRB04KT 9999 FEW040 BKN070"
    },
    {
      "icao": "LBWN",
      "alert": "OK",
      "vis_m": 9999,
      "fzfg": false,
      "metar_trigger": false,
      "taf_trigger": false,
      "metar": "METAR LBWN 031030Z 06012KT 040V110 9999 SCT037 12/05 Q1020 RESHRA NOSIG",
      "taf": ""
    },
    {
      "icao": "LCLK",
      "alert": "OK",
      "vis_m": 6000,
      "fzfg": false,
      "metar_trigger": false,
      "taf_trigger": false,
      "metar": "METAR LCLK 031030Z 22012KT 6000 -RA SCT017 17/17 Q1006 BECMG 22023KT 5000 RA",
      "taf": "TAF LCLK 030530Z 0306/0406 02007KT 9999 FEW020"
    },
    {
      "icao": "LCPH",
      "alert": "OK",
      "vis_m": 9999,
      "fzfg": false,
      "metar_trigger": false,
      "taf_trigger": false,
      "metar": "METAR LCPH 031030Z 31024KT 9999 FEW020 SCT035 BKN050 15/11 Q1008 TEMPO 5000 SHRA",
      "taf": "TAF LCPH 030530Z 0306/0406 06009KT 9999 FEW020"
    },
    {
      "icao": "LEAL",
      "alert": "OK",
      "vis_m": 9999,
      "fzfg": false,
      "metar_trigger": false,
      "taf_trigger": false,
      "metar": "METAR LEAL 031030Z 05004KT 010V100 9999 FEW010 SCT013 BKN053 20/13 Q1015 NOSIG",
      "taf": "TAF LEAL 030500Z 0306/0406 VRB04KT 9999 SCT015 TX23/0313Z TN15/0306Z"
    },
    {
      "icao": "LEBB",
      "alert": "OK",
      "vis_m": 9999,
      "fzfg": false,
      "metar_trigger": false,
      "taf_trigger": false,
      "metar": "METAR LEBB 031030Z 28007KT 240V310 9999 FEW030 SCT047 19/16 Q1012 NOSIG",
      "taf": "TAF LEBB 030500Z 0306/0406 30009KT 9999 FEW035 TX20/0314Z TN12/0306Z"
    },
    {
      "icao": "LEBL",
      "alert": "OK",
      "vis_m": 9999,
      "fzfg": false,
      "metar_trigger": false,
      "taf_trigger": false,
      "metar": "METAR LEBL 031030Z 09007KT 050V120 9999 FEW016TCU BKN020 19/15 Q1017 NOSIG",
      "taf": ""
    },
    {
      "icao": "LECH",
      "alert": "OK",
      "vis_m": 9999,
      "fzfg": false,
      "metar_trigger": false,
      "taf_trigger": false,
      "metar": "METAR LECH 031030Z AUTO 01004KT 320V050 9999 FEW048 BKN056 15/13 Q1017",
      "taf": ""
    },
    {
      "icao": "LEMD",
      "alert": "OK",
      "vis_m": 9000,
      "fzfg": false,
      "metar_trigger": false,
      "taf_trigger": false,
      "metar": "METAR LEMD 031030Z 20009KT 160V230 9000 FEW040TCU SCT050 18/12 Q1014 NOSIG",
      "taf": ""
    },
    {
      "icao": "LEMG",
      "alert": "OK",
      "vis_m": 9999,
      "fzfg": false,
      "metar_trigger": false,
      "taf_trigger": false,
      "metar": "METAR LEMG 031030Z 14009KT 110V200 9999 SCT030 21/15 Q1015 NOSIG",
      "taf": "TAF LEMG 030500Z 0306/0406 29005KT 9999 SCT025 TX22/0314Z TN16/0306Z"
    },
    {
      "icao": "LEVC",
      "alert": "OK",
      "vis_m": 9999,
      "fzfg": false,
      "metar_trigger": false,
      "taf_trigger": false,
      "metar": "METAR LEVC 031030Z 12007KT 090V150 9999 -RA FEW015 SCT018 BKN025 19/15 Q1016 NOSIG",
      "taf": ""
    },
    {
      "icao": "LEXJ",
      "alert": "OK",
      "vis_m": 9999,
      "fzfg": false,
      "metar_trigger": false,
      "taf_trigger": false,
      "metar": "METAR LEXJ 031030Z 06005KT 360V130 9999 FEW020 SCT034 17/14 Q1013",
      "taf": "TAF LEXJ 030800Z 0309/0409 VRB03KT 9999 SCT010 BKN040 TX19/0313Z TN12/0406Z"
    },
    {
      "icao": "LEZG",
      "alert": "OK",
      "vis_m": 9999,
      "fzfg": false,
      "metar_trigger": false,
      "taf_trigger": false,
      "metar": "METAR LEZG 031030Z 11010KT 080V140 9999 -RA BKN010 17/14 Q1015 NOSIG",
      "taf": "TAF LEZG 030500Z 0306/0406 11009KT 9999 SCT040 TX22/0314Z TN14/0306Z"
    },
    {
      "icao": "LEZL",
      "alert": "OK",
      "vis_m": 9999,
      "fzfg": false,
      "metar_trigger": false,
      "taf_trigger": false,
      "metar": "METAR LEZL 031030Z 21008KT 9999 FEW025 SCT030 23/14 Q1015 NOSIG",
      "taf": "TAF LEZL 030800Z 0309/0409 23009KT 9999 FEW030 TX26/0315Z TN13/0407Z"
    },
    {
      "icao": "LFBD",
      "alert": "OK",
      "vis_m": 9999,
      "fzfg": false,
      "metar_trigger": false,
      "taf_trigger": false,
      "metar": "METAR LFBD 031030Z AUTO 26010KT 9999 SCT026/// BKN035/// BKN047/// ///CB 19/13 Q1013 TEMPO 4000 SHRA",
      "taf": ""
    },
    {
      "icao": "LFLL",
      "alert": "OK",
      "vis_m": 9999,
      "fzfg": false,
      "metar_trigger": false,
      "taf_trigger": false,
      "metar": "METAR LFLL 031030Z VRB02KT 9999 FEW073TCU BKN093 17/07 Q1017 NOSIG",
      "taf": ""
    },
    {
      "icao": "LFLS",
      "alert": "OK",
      "vis_m": 9999,
      "fzfg": false,
      "metar_trigger": false,
      "taf_trigger": false,
      "metar": "METAR LFLS 031030Z AUTO 23011KT CAVOK 15/09 Q1018 NOSIG",
      "taf": "TAF LFLS 030800Z 0309/0409 24010KT CAVOK"
    },
    {
      "icao": "LFMN",
      "alert": "OK",
      "vis_m": 9999,
      "fzfg": false,
      "metar_trigger": false,
      "taf_trigger": false,
      "metar": "METAR LFMN 031030Z 11010KT CAVOK 19/12 Q1020 NOSIG",
      "taf": "TAF LFMN 030800Z 0309/0415 14005KT CAVOK"
    },
    {
      "icao": "LFOB",
      "alert": "OK",
      "vis_m": 9999,
      "fzfg": false,
      "metar_trigger": false,
      "taf_trigger": false,
      "metar": "METAR LFOB 031030Z AUTO 23007KT 180V280 9999 BKN014/// BKN019/// BKN026/// ///CB 16/14 Q1011 TEMPO 4000 SHRA BKN020CB",
      "taf": "TAF LFOB 030500Z 0306/0406 19007KT 9999 SCT020 BKN060"
    },
    {
      "icao": "LFPO",
      "alert": "OK",
      "vis_m": 9999,
      "fzfg": false,
      "metar_trigger": false,
      "taf_trigger": false,
      "metar": "METAR LFPO 031030Z 19008KT 160V220 9999 BKN011 BKN027 16/14 Q1012 NOSIG",
      "taf": ""
    },
    {
      "icao": "LFSB",
      "alert": "OK",
      "vis_m": 9999,
      "fzfg": false,
      "metar_trigger": false,
      "taf_trigger": false,
      "metar": "METAR LFSB 031030Z AUTO VRB02KT CAVOK 23/09 Q1015 NOSIG",
      "taf": "TAF LFSB 030500Z 0306/0406 VRB03KT CAVOK"
    },
    {
      "icao": "LGAV",
      "alert": "OK",
      "vis_m": 9999,
      "fzfg": false,
      "metar_trigger": false,
      "taf_trigger": false,
      "metar": "METAR LGAV 031020Z 36013KT 9999 FEW018 BKN030 14/03 Q1017 NOSIG",
      "taf": "TAF LGAV 030500Z 0306/0406 32012KT 9999 SCT025 BKN070"
    },
    {
      "icao": "LGTS",
      "alert": "OK",
      "vis_m": 9999,
      "fzfg": false,
      "metar_trigger": false,
      "taf_trigger": false,
      "metar": "METAR LGTS 031020Z 29009KT 9999 SCT025 14/04 Q1019 NOSIG",
      "taf": "TAF LGTS 030500Z 0306/0406 VRB03KT 9999 SCT025"
    },
    {
      "icao": "LHBP",
      "alert": "OK",
      "vis_m": 9999,
      "fzfg": false,
      "metar_trigger": false,
      "taf_trigger": false,
      "metar": "METAR LHBP 031030Z 11005KT 040V190 CAVOK 19/M00 Q1021 NOSIG",
      "taf": "TAF LHBP 030515Z 0306/0406 10008KT CAVOK"
    },
    {
      "icao": "LHDC",
      "alert": "OK",
      "vis_m": 9999,
      "fzfg": false,
      "metar_trigger": false,
      "taf_trigger": false,
      "metar": "METAR LHDC 031015Z AUTO VRB05KT CAVOK 18/03 Q1022 NOSIG",
      "taf": "TAF LHDC 030815Z 0309/0318 10006KT CAVOK"
    },
    {
      "icao": "LIBD",
      "alert": "OK",
      "vis_m": 9999,
      "fzfg": false,
      "metar_trigger": false,
      "taf_trigger": false,
      "metar": "METAR LIBD 031020Z 31010KT 290V020 CAVOK 22/05 Q1019",
      "taf": "TAF LIBD 030500Z 0306/0406 27008KT CAVOK"
    },
    {
      "icao": "LIBG",
      "alert": "OK",
      "vis_m": 9999,
      "fzfg": false,
      "metar_trigger": false,
      "taf_trigger": false,
      "metar": "METAR LIBG 030950Z 01018KT CAVOK 23/04 Q1018",
      "taf": "TAF LIBG 030800Z 0309/0318 35015KT CAVOK"
    },
    {
      "icao": "LIBP",
      "alert": "OK",
      "vis_m": 9999,
      "fzfg": false,
      "metar_trigger": false,
      "taf_trigger": false,
      "metar": "METAR LIBP 031020Z AUTO 06008KT 9999 NCD 22/07 Q1020",
      "taf": "TAF LIBP 030500Z 0306/0406 23007KT 9999 FEW050"
    },
    {
      "icao": "LIBR",
      "alert": "OK",
      "vis_m": 9999,
      "fzfg": false,
      "metar_trigger": false,
      "taf_trigger": false,
      "metar": "METAR LIBR 031020Z 36014KT CAVOK 19/15 Q1018",
      "taf": "TAF LIBR 030500Z 0306/0406 33015KT CAVOK"
    },
    {
      "icao": "LICA",
      "alert": "OK",
      "vis_m": 9999,
      "fzfg": false,
      "metar_trigger": false,
      "taf_trigger": false,
      "metar": "METAR LICA 031020Z AUTO 25013KT 9999 NCD 20/07 Q1020",
      "taf": "TAF LICA 030500Z 0306/0406 07005KT CAVOK"
    },
    {
      "icao": "LICC",
      "alert": "OK",
      "vis_m": 9999,
      "fzfg": false,
      "metar_trigger": false,
      "taf_trigger": false,
      "metar": "METAR LICC 031020Z VRB04KT CAVOK 22/15 Q1020",
      "taf": "TAF LICC 030500Z 0306/0406 27008KT CAVOK"
    },
    {
      "icao": "LICJ",
      "alert": "OK",
      "vis_m": 9999,
      "fzfg": false,
      "metar_trigger": false,
      "taf_trigger": false,
      "metar": "METAR LICJ 031020Z 02006KT CAVOK 18/08 Q1022",
      "taf": "TAF LICJ 030500Z 0306/0406 17005KT CAVOK"
    },
    {
      "icao": "LIMC",
      "alert": "OK",
      "vis_m": 9999,
      "fzfg": false,
      "metar_trigger": false,
      "taf_trigger": false,
      "metar": "METAR LIMC 031020Z 18004KT 120V250 CAVOK 21/08 Q1019 NOSIG",
      "taf": "TAF LIMC 030500Z 0306/0412 VRB05KT CAVOK"
    },
    {
      "icao": "LIME",
      "alert": "OK",
      "vis_m": 9999,
      "fzfg": false,
      "metar_trigger": false,
      "taf_trigger": false,
      "metar": "METAR LIME 031020Z 21006KT 110V280 CAVOK 23/06 Q1019 NOSIG",
      "taf": "TAF LIME 030500Z 0306/0406 VRB05KT CAVOK"
    },
    {
      "icao": "LIMF",
      "alert": "OK",
      "vis_m": 9999,
      "fzfg": false,
      "metar_trigger": false,
      "taf_trigger": false,
      "metar": "METAR LIMF 031020Z 08006KT 050V110 9999 FEW150 19/09 Q1019",
      "taf": "TAF LIMF 030500Z 0306/0406 VRB05KT 9999 SCT070"
    },
    {
      "icao": "LIMJ",
      "alert": "OK",
      "vis_m": 9999,
      "fzfg": false,
      "metar_trigger": false,
      "taf_trigger": false,
      "metar": "METAR LIMJ 031020Z 17003KT CAVOK 18/13 Q1021",
      "taf": "TAF LIMJ 030500Z 0306/0406 VRB05KT CAVOK"
    },
    {
      "icao": "LIPE",
      "alert": "OK",
      "vis_m": 9999,
      "fzfg": false,
      "metar_trigger": false,
      "taf_trigger": false,
      "metar": "METAR LIPE 031020Z 08003KT 030V170 CAVOK 24/07 Q1018",
      "taf": "TAF LIPE 030500Z 0306/0406 VRB05KT CAVOK"
    },
    {
      "icao": "LIPH",
      "alert": "OK",
      "vis_m": 9999,
      "fzfg": false,
      "metar_trigger": false,
      "taf_trigger": false,
      "metar": "METAR LIPH 031020Z 20005KT 140V260 CAVOK 24/08 Q1018",
      "taf": "TAF LIPH 030500Z 0306/0406 VRB05KT CAVOK"
    },
    {
      "icao": "LIPQ",
      "alert": "OK",
      "vis_m": 9999,
      "fzfg": false,
      "metar_trigger": false,
      "taf_trigger": false,
      "metar": "METAR LIPQ 031020Z AUTO 18005KT 140V230 9999 NCD 22/09 Q1019",
      "taf": "TAF LIPQ 030500Z 0306/0406 VRB05KT 9999 FEW060"
    },
    {
      "icao": "LIPR",
      "alert": "OK",
      "vis_m": 9999,
      "fzfg": false,
      "metar_trigger": false,
      "taf_trigger": false,
      "metar": "METAR LIPR 031020Z 06006KT CAVOK 20/11 Q1019",
      "taf": "TAF LIPR 030500Z 0306/0406 VRB05KT CAVOK"
    },
    {
      "icao": "LIPX",
      "alert": "OK",
      "vis_m": 9999,
      "fzfg": false,
      "metar_trigger": false,
      "taf_trigger": false,
      "metar": "METAR LIPX 031020Z VRB04KT CAVOK 24/03 Q1019",
      "taf": "TAF LIPX 030500Z 0306/0406 VRB05KT CAVOK"
    },
    {
      "icao": "LIPY",
      "alert": "OK",
      "vis_m": 9999,
      "fzfg": false,
      "metar_trigger": false,
      "taf_trigger": false,
      "metar": "METAR LIPY 031020Z AUTO 06008KT 9999 NCD 23/08 Q1019",
      "taf": "TAF LIPY 030500Z 0306/0406 24008KT CAVOK"
    },
    {
      "icao": "LIPZ",
      "alert": "OK",
      "vis_m": 9999,
      "fzfg": false,
      "metar_trigger": false,
      "taf_trigger": false,
      "metar": "METAR LIPZ 031020Z 15007KT CAVOK 19/13 Q1019 NOSIG",
      "taf": "TAF LIPZ 030500Z 0306/0412 02006KT CAVOK"
    },
    {
      "icao": "LIRF",
      "alert": "OK",
      "vis_m": 9999,
      "fzfg": false,
      "metar_trigger": false,
      "taf_trigger": false,
      "metar": "METAR LIRF 031020Z 27007KT 240V310 CAVOK 20/07 Q1021 NOSIG",
      "taf": "TAF LIRF 030500Z 0306/0412 05006KT CAVOK"
    },
    {
      "icao": "LIRN",
      "alert": "OK",
      "vis_m": 9999,
      "fzfg": false,
      "metar_trigger": false,
      "taf_trigger": false,
      "metar": "METAR LIRN 031020Z 20008KT 170V230 CAVOK 21/09 Q1020 NOSIG",
      "taf": "TAF LIRN 030500Z 0306/0406 VRB05KT CAVOK"
    },
    {
      "icao": "LIRP",
      "alert": "OK",
      "vis_m": 9999,
      "fzfg": false,
      "metar_trigger": false,
      "taf_trigger": false,
      "metar": "METAR LIRP 031015Z 27006KT CAVOK 22/12 Q1021 NOSIG",
      "taf": "TAF LIRP 030500Z 0306/0406 14005KT CAVOK"
    },
    {
      "icao": "LIRZ",
      "alert": "OK",
      "vis_m": 9999,
      "fzfg": false,
      "metar_trigger": false,
      "taf_trigger": false,
      "metar": "METAR LIRZ 031020Z AUTO VRB03KT 9999 NCD 20/07 Q1020",
      "taf": "TAF LIRZ 030500Z 0306/0406 VRB05KT CAVOK"
    },
    {
      "icao": "LJLJ",
      "alert": "OK",
      "vis_m": 9999,
      "fzfg": false,
      "metar_trigger": false,
      "taf_trigger": false,
      "metar": "METAR LJLJ 031030Z 08005KT 030V140 CAVOK 22/08 Q1018 NOSIG",
      "taf": "TAF LJLJ 030500Z 0306/0406 VRB02KT CAVOK"
    },
    {
      "icao": "LKMT",
      "alert": "OK",
      "vis_m": 9999,
      "fzfg": false,
      "metar_trigger": false,
      "taf_trigger": false,
      "metar": "METAR LKMT 031030Z 24013KT CAVOK 22/05 Q1019 NOSIG",
      "taf": "TAF LKMT 030500Z 0306/0406 20012KT CAVOK"
    },
    {
      "icao": "LKPR",
      "alert": "OK",
      "vis_m": 9999,
      "fzfg": false,
      "metar_trigger": false,
      "taf_trigger": false,
      "metar": "METAR LKPR 031030Z 15007KT 080V190 CAVOK 24/04 Q1016 NOSIG",
      "taf": "TAF LKPR 030800Z 0309/0415 16009KT CAVOK"
    },
    {
      "icao": "LLBG",
      "alert": "OK",
      "vis_m": 9999,
      "fzfg": false,
      "metar_trigger": false,
      "taf_trigger": false,
      "metar": "METAR LLBG 031020Z 25016KT 9999 BKN028 24/15 Q1009 NOSIG",
      "taf": "TAF LLBG 030503Z 0306/0406 21010KT 9999 FEW020 TX24/0309Z TN15/0404Z"
    },
    {
      "icao": "LMML",
      "alert": "OK",
      "vis_m": 9999,
      "fzfg": false,
      "metar_trigger": false,
      "taf_trigger": false,
      "metar": "METAR LMML 031015Z 26011KT 230V310 9999 FEW039 20/09 Q1022 NOSIG",
      "taf": "TAF LMML 030500Z 0306/0406 25010KT 9999 FEW025"
    },
    {
      "icao": "LOWW",
      "alert": "OK",
      "vis_m": 9999,
      "fzfg": false,
      "metar_trigger": false,
      "taf_trigger": false,
      "metar": "METAR LOWW 031020Z 15017G27KT CAVOK 22/07 Q1019 NOSIG",
      "taf": "TAF LOWW 030815Z 0309/0415 14015KT CAVOK TX27/0414Z TN12/0403Z"
    },
    {
      "icao": "LPFR",
      "alert": "OK",
      "vis_m": 9999,
      "fzfg": false,
      "metar_trigger": false,
      "taf_trigger": false,
      "metar": "METAR LPFR 031030Z 23009KT 9999 FEW020 19/13 Q1016",
      "taf": "TAF LPFR 030500Z 0306/0406 31005KT 9999 FEW025"
    },
    {
      "icao": "LPMA",
      "alert": "OK",
      "vis_m": 9999,
      "fzfg": false,
      "metar_trigger": false,
      "taf_trigger": false,
      "metar": "METAR LPMA 031030Z 20019KT 9999 SCT013 BKN030 19/15 Q1017",
      "taf": "TAF LPMA 030500Z 0306/0406 VRB05KT 9999 SCT015"
    },
    {
      "icao": "LPPR",
      "alert": "OK",
      "vis_m": 9999,
      "fzfg": false,
      "metar_trigger": false,
      "taf_trigger": false,
      "metar": "METAR LPPR 031030Z 23006KT 170V270 9999 VCSH SCT007 BKN012 FEW018CB 16/14 Q1014 RESHRA",
      "taf": "TAF LPPR 030500Z 0306/0406 20005KT 9999 SCT015"
    },
    {
      "icao": "LPPS",
      "alert": "OK",
      "vis_m": 9999,
      "fzfg": false,
      "metar_trigger": false,
      "taf_trigger": false,
      "metar": "METAR LPPS 031030Z 16010KT 9999 SCT012 20/16 Q1018",
      "taf": "TAF LPPS 030500Z 0306/0412 VRB05KT 9999 SCT015"
    },
    {
      "icao": "LPPT",
      "alert": "OK",
      "vis_m": 9999,
      "fzfg": false,
      "metar_trigger": false,
      "taf_trigger": false,
      "metar": "METAR LPPT 031030Z 22007KT 9999 FEW022 SCT036 17/11 Q1015",
      "taf": "TAF LPPT 030500Z 0306/0412 VRB02KT 9999 SCT012"
    },
    {
      "icao": "LQBK",
      "alert": "OK",
      "vis_m": 9999,
      "fzfg": false,
      "metar_trigger": false,
      "taf_trigger": false,
      "metar": "METAR LQBK 031030Z 07003KT 010V120 CAVOK 21/05 Q1020 NOSIG",
      "taf": "TAF LQBK 030500Z 0306/0406 VRB02KT CAVOK TX23/0313Z TN06/0404Z"
    },
    {
      "icao": "LQSA",
      "alert": "OK",
      "vis_m": 9999,
      "fzfg": false,
      "metar_trigger": false,
      "taf_trigger": false,
      "metar": "METAR LQSA 031030Z 01008KT 320V070 9999 SCT065 19/00 Q1019 NOSIG",
      "taf": "TAF LQSA 030500Z 0306/0406 31005KT CAVOK TX21/0313Z TN04/0404Z"
    },
    {
      "icao": "LQTZ",
      "alert": "OK",
      "vis_m": 9999,
      "fzfg": false,
      "metar_trigger": false,
      "taf_trigger": false,
      "metar": "METAR LQTZ 031030Z VRB05KT 9999 FEW065 20/06 Q1020",
      "taf": "TAF LQTZ 030500Z 0306/0406 34005KT CAVOK TX20/0313Z TN00/0404Z"
    },
    {
      "icao": "LRBC",
      "alert": "OK",
      "vis_m": 9999,
      "fzfg": false,
      "metar_trigger": false,
      "taf_trigger": false,
      "metar": "METAR LRBC 031030Z VRB04KT CAVOK 15/M01 Q1022",
      "taf": "TAF LRBC 030800Z 0309/0318 VRB04KT CAVOK"
    },
    {
      "icao": "LRBS",
      "alert": "OK",
      "vis_m": 9999,
      "fzfg": false,
      "metar_trigger": false,
      "taf_trigger": false,
      "metar": "METAR LRBS 031030Z 07008KT 040V130 CAVOK 14/01 Q1022 NOSIG",
      "taf": "TAF LRBS 030500Z 0306/0406 03008KT CAVOK"
    },
    {
      "icao": "LRBV",
      "alert": "OK",
      "vis_m": 9999,
      "fzfg": false,
      "metar_trigger": false,
      "taf_trigger": false,
      "metar": "METAR LRBV 031030Z VRB02KT 9999 FEW050 11/M05 Q1022",
      "taf": "TAF LRBV 030800Z 0309/0318 VRB04KT 9999 BKN030"
    },
    {
      "icao": "LRCL",
      "alert": "OK",
      "vis_m": 9999,
      "fzfg": false,
      "metar_trigger": false,
      "taf_trigger": false,
      "metar": "METAR LRCL 031030Z VRB02KT CAVOK 15/M01 Q1022",
      "taf": "TAF LRCL 030800Z 0309/0318 VRB04KT CAVOK"
    },
    {
      "icao": "LRCV",
      "alert": "OK",
      "vis_m": 9999,
      "fzfg": false,
      "metar_trigger": false,
      "taf_trigger": false,
      "metar": "METAR LRCV 031030Z 11004KT 070V150 CAVOK 13/01 Q1023",
      "taf": "TAF LRCV 030800Z 0309/0318 10007KT CAVOK"
    },
    {
      "icao": "LRIA",
      "alert": "OK",
      "vis_m": 9999,
      "fzfg": false,
      "metar_trigger": false,
      "taf_trigger": false,
      "metar": "METAR LRIA 031030Z VRB04KT CAVOK 15/M04 Q1022",
      "taf": "TAF LRIA 030800Z 0309/0318 VRB04KT CAVOK"
    },
    {
      "icao": "LROP",
      "alert": "OK",
      "vis_m": 9999,
      "fzfg": false,
      "metar_trigger": false,
      "taf_trigger": false,
      "metar": "METAR LROP 031030Z 08008KT 030V110 CAVOK 14/01 Q1022 NOSIG",
      "taf": "TAF LROP 030500Z 0306/0406 03008KT CAVOK"
    },
    {
      "icao": "LRSB",
      "alert": "OK",
      "vis_m": 9999,
      "fzfg": false,
      "metar_trigger": false,
      "taf_trigger": false,
      "metar": "METAR LRSB 031030Z COR 01005KT 330V100 CAVOK 13/M02 Q1022",
      "taf": "TAF LRSB 030500Z 0306/0406 VRB04KT CAVOK"
    },
    {
      "icao": "LRSM",
      "alert": "OK",
      "vis_m": 9999,
      "fzfg": false,
      "metar_trigger": false,
      "taf_trigger": false,
      "metar": "METAR LRSM 031030Z AUTO 17004KT 100V230 9999 NCD 18/01 Q1022",
      "taf": ""
    },
    {
      "icao": "LRSV",
      "alert": "OK",
      "vis_m": 9999,
      "fzfg": false,
      "metar_trigger": false,
      "taf_trigger": false,
      "metar": "METAR LRSV 031030Z VRB02KT CAVOK 15/00 Q1021",
      "taf": "TAF LRSV 030800Z 0309/0318 VRB04KT CAVOK"
    },
    {
      "icao": "LRTM",
      "alert": "OK",
      "vis_m": 9999,
      "fzfg": false,
      "metar_trigger": false,
      "taf_trigger": false,
      "metar": "METAR LRTM 031030Z VRB05KT CAVOK 15/M01 Q1022",
      "taf": "TAF LRTM 030800Z 0309/0318 VRB04KT CAVOK"
    },
    {
      "icao": "LRTR",
      "alert": "OK",
      "vis_m": 9999,
      "fzfg": false,
      "metar_trigger": false,
      "taf_trigger": false,
      "metar": "METAR LRTR 031030Z VRB04KT CAVOK 16/02 Q1022",
      "taf": "TAF LRTR 030500Z 0306/0406 VRB04KT CAVOK"
    },
    {
      "icao": "LTAC",
      "alert": "OK",
      "vis_m": 9999,
      "fzfg": false,
      "metar_trigger": false,
      "taf_trigger": false,
      "metar": "METAR LTAC 031020Z 06015KT 9999 SCT015 BKN025 BKN080 08/04 Q1008 NOSIG RMK RWY21C 05016KT RWY03L 06015KT RWY21R 05016KT RWY03R 07012KT RWY21L 05015KT",
      "taf": "TAF LTAC 030440Z 0306/0406 05015KT 9999 BKN030 BKN080"
    },
    {
      "icao": "LTFM",
      "alert": "OK",
      "vis_m": 9999,
      "fzfg": false,
      "metar_trigger": false,
      "taf_trigger": false,
      "metar": "METAR LTFM 031020Z 04032KT 9999 SCT017 BKN024 BKN070 11/07 Q1014 NOSIG RMK RWY17L 04027KT RWY34L 03026KT RWY16R 04028G40KT RWY36 04030KT RWY18 05029KT",
      "taf": "TAF LTFM 030440Z 0306/0412 03026G38KT 9999 -SHRA BKN020 BKN070"
    },
    {
      "icao": "LUKK",
      "alert": "OK",
      "vis_m": 9999,
      "fzfg": false,
      "metar_trigger": false,
      "taf_trigger": false,
      "metar": "METAR LUKK 031030Z VRB05KT CAVOK 16/M04 Q1022 NOSIG",
      "taf": "TAF LUKK 030516Z 0306/0406 VRB06KT CAVOK"
    },
    {
      "icao": "LWOH",
      "alert": "OK",
      "vis_m": 9999,
      "fzfg": false,
      "metar_trigger": false,
      "taf_trigger": false,
      "metar": "METAR LWOH 031020Z 02011KT 310V050 9999 FEW010 SCT050 14/00 Q1018",
      "taf": "TAF LWOH 030815Z 0309/0409 01106KT 9999 FEW010 SCT050"
    },
    {
      "icao": "LWSK",
      "alert": "OK",
      "vis_m": 9999,
      "fzfg": false,
      "metar_trigger": false,
      "taf_trigger": false,
      "metar": "METAR LWSK 031020Z VRB06KT 9999 FEW060 16/M00 Q1020 NOSIG",
      "taf": "TAF LWSK 030815Z 0309/0409 03010KT 9999 SCT050"
    },
    {
      "icao": "LYBE",
      "alert": "OK",
      "vis_m": 9999,
      "fzfg": false,
      "metar_trigger": false,
      "taf_trigger": false,
      "metar": "METAR LYBE 031030Z 12011KT CAVOK 18/01 Q1021 NOSIG",
      "taf": "TAF LYBE 030500Z 0306/0406 12012KT CAVOK TX20/0313Z TN06/0404Z"
    },
    {
      "icao": "LYNI",
      "alert": "OK",
      "vis_m": 9999,
      "fzfg": false,
      "metar_trigger": false,
      "taf_trigger": false,
      "metar": "METAR LYNI 031030Z 07008KT 030V160 9999 BKN060 15/M02 Q1021 NOSIG",
      "taf": "TAF LYNI 030500Z 0306/0406 08012KT CAVOK TX17/0313Z TN03/0404Z"
    },
    {
      "icao": "LYPG",
      "alert": "OK",
      "vis_m": 9999,
      "fzfg": false,
      "metar_trigger": false,
      "taf_trigger": false,
      "metar": "METAR LYPG 031030Z 17009KT 140V220 9999 FEW050 21/05 Q1017 NOSIG",
      "taf": "TAF LYPG 030500Z 0306/0406 36005KT 9999 FEW050 SCT090 TX23/0314Z TN09/0404Z"
    },
    {
      "icao": "LZIB",
      "alert": "OK",
      "vis_m": 9999,
      "fzfg": false,
      "metar_trigger": false,
      "taf_trigger": false,
      "metar": "METAR LZIB 031030Z 15013KT 110V170 CAVOK 22/05 Q1019 NOSIG",
      "taf": "TAF LZIB 030515Z 0306/0406 04006KT CAVOK"
    },
    {
      "icao": "LZKZ",
      "alert": "OK",
      "vis_m": 9999,
      "fzfg": false,
      "metar_trigger": false,
      "taf_trigger": false,
      "metar": "METAR LZKZ 031030Z 20006KT 150V270 CAVOK 19/03 Q1021 NOSIG",
      "taf": "TAF LZKZ 030515Z 0306/0406 VRB02KT CAVOK"
    },
    {
      "icao": "LZTT",
      "alert": "OK",
      "vis_m": 9999,
      "fzfg": false,
      "metar_trigger": false,
      "taf_trigger": false,
      "metar": "METAR LZTT 031030Z 16008KT 110V180 CAVOK 19/M00 Q1021 NOSIG",
      "taf": "TAF LZTT 030515Z 0306/0406 28006KT CAVOK"
    },
    {
      "icao": "OEJN",
      "alert": "OK",
      "vis_m": 9999,
      "fzfg": false,
      "metar_trigger": false,
      "taf_trigger": false,
      "metar": "METAR OEJN 031000Z 24009KT CAVOK 37/15 Q1009 NOSIG",
      "taf": "TAF OEJN 030500Z 0306/0412 26012KT CAVOK"
    },
    {
      "icao": "OEMA",
      "alert": "OK",
      "vis_m": 9999,
      "fzfg": false,
      "metar_trigger": false,
      "taf_trigger": false,
      "metar": "METAR OEMA 031000Z 22006KT CAVOK 39/M04 Q1014 NOSIG",
      "taf": "TAF OEMA 030500Z 0306/0412 12010KT CAVOK"
    },
    {
      "icao": "OJAI",
      "alert": "OK",
      "vis_m": 3000,
      "fzfg": false,
      "metar_trigger": false,
      "taf_trigger": false,
      "metar": "METAR OJAI 031000Z 25019KT 3000 BLDU NSC 26/09 Q1009 NOSIG",
      "taf": "TAF OJAI 030500Z 0306/0412 23016KT 4000 BLDU"
    },
    {
      "icao": "OMAA",
      "alert": "OK",
      "vis_m": 9999,
      "fzfg": false,
      "metar_trigger": false,
      "taf_trigger": false,
      "metar": "METAR OMAA 031030Z 30011KT CAVOK 40/10 Q1006 NOSIG",
      "taf": "TAF OMAA 030500Z 0306/0412 VRB02KT 8000 NSC"
    },
    {
      "icao": "OMDB",
      "alert": "OK",
      "vis_m": 9999,
      "fzfg": false,
      "metar_trigger": false,
      "taf_trigger": false,
      "metar": "METAR OMDB 031030Z 31010KT 270V340 CAVOK 41/09 Q1006 NOSIG",
      "taf": "TAF OMDB 030500Z 0306/0412 23007KT CAVOK"
    },
    {
      "icao": "UAAA",
      "alert": "OK",
      "vis_m": 9999,
      "fzfg": false,
      "metar_trigger": false,
      "taf_trigger": false,
      "metar": "METAR UAAA 031030Z 19004MPS 160V220 9999 SCT050CB BKN100 23/12 Q1011 NOSIG",
      "taf": "TAF UAAA 030505Z 0306/0406 25003MPS 9999 BKN050CB OVC100 TX24/0309Z TN13/0401Z"
    },
    {
      "icao": "UBBB",
      "alert": "OK",
      "vis_m": 9999,
      "fzfg": false,
      "metar_trigger": false,
      "taf_trigger": false,
      "metar": "METAR UBBB 031030Z 36012KT 9999 BKN015 13/09 Q1017 NOSIG",
      "taf": "TAF UBBB 030508Z 0306/0406 33016KT 9999 SCT012 BKN040 TX14/0310Z TN09/0401Z"
    },
    {
      "icao": "UDSG",
      "alert": "OK",
      "vis_m": 9999,
      "fzfg": false,
      "metar_trigger": false,
      "taf_trigger": false,
      "metar": "METAR UDSG 031030Z 05005KT 350V080 9999 BKN040CB 16/08 Q1016 NOSIG",
      "taf": "TAF UDSG 030458Z 0306/0406 24006KT 9999 BKN040"
    },
    {
      "icao": "UDYZ",
      "alert": "OK",
      "vis_m": 9999,
      "fzfg": false,
      "metar_trigger": false,
      "taf_trigger": false,
      "metar": "METAR UDYZ 031030Z 13012KT 9999 SCT043CB 21/08 Q1013 NOSIG",
      "taf": ""
    },
    {
      "icao": "UGKO",
      "alert": "OK",
      "vis_m": 9999,
      "fzfg": false,
      "metar_trigger": false,
      "taf_trigger": false,
      "metar": "METAR UGKO 031030Z COR 29008KT 250V310 9999 SCT012 OVC043 13/11 Q1011 NOSIG",
      "taf": "TAF UGKO 030500Z 0306/0406 25007KT 9999 SCT030 OVC045 TX17/0311Z TN09/0322Z"
    }
  ]
}