{
  "ts_utc": "2026-01-31T17:17:01Z",
  "threshold_m": 150,
  "source": "stations_override.txt (ICAO list) + aviationweather.gov (METAR/TAF raw)",
  "station_count": 159,
  "stations": [
    {
      "icao": "BIKF",
      "alert": "OK",
      "vis_m": 9999,
      "fzfg": false,
      "metar_trigger": false,
      "taf_trigger": false,
      "metar": "METAR BIKF 311700Z 05006KT CAVOK 02/00 Q1001",
      "taf": "TAF BIKF 311659Z 3118/0118 04008KT 9999 BKN030 TX04/0115Z TNM00/3121Z"
    },
    {
      "icao": "BKPR",
      "alert": "OK",
      "vis_m": 9999,
      "fzfg": false,
      "metar_trigger": false,
      "taf_trigger": false,
      "metar": "METAR BKPR 311700Z 34008KT 9999 SCT020 BKN080 05/04 Q1004 NOSIG",
      "taf": "TAF BKPR 311130Z 3112/0112 02008KT 9999 BKN040"
    },
    {
      "icao": "EBCI",
      "alert": "OK",
      "vis_m": 9999,
      "fzfg": false,
      "metar_trigger": false,
      "taf_trigger": false,
      "metar": "METAR EBCI 311650Z 19003KT 9999 FEW040 07/04 Q1004 NOSIG",
      "taf": "TAF EBCI 311120Z 3112/0118 19007KT 9999 SCT013"
    },
    {
      "icao": "EDDB",
      "alert": "OK",
      "vis_m": 9999,
      "fzfg": false,
      "metar_trigger": false,
      "taf_trigger": false,
      "metar": "METAR EDDB 311650Z AUTO 08010KT 9999 BKN019 BKN027 OVC032 M06/M09 Q1014 NOSIG",
      "taf": "TAF EDDB 311100Z 3112/0112 08012KT 9000 OVC011"
    },
    {
      "icao": "EDDH",
      "alert": "OK",
      "vis_m": 9999,
      "fzfg": false,
      "metar_trigger": false,
      "taf_trigger": false,
      "metar": "METAR EDDH 311650Z AUTO 10012KT 9999 OVC013 M03/M06 Q1011 NOSIG",
      "taf": "TAF EDDH 311100Z 3112/0118 10011KT 8000 OVC008"
    },
    {
      "icao": "EDDK",
      "alert": "OK",
      "vis_m": 9999,
      "fzfg": false,
      "metar_trigger": false,
      "taf_trigger": false,
      "metar": "METAR EDDK 311650Z AUTO 12008KT 090V150 9999 BKN019 05/03 Q1005 NOSIG",
      "taf": "TAF EDDK 311100Z 3112/0118 12008KT 9999 SCT012 BKN030"
    },
    {
      "icao": "EDDN",
      "alert": "OK",
      "vis_m": 9999,
      "fzfg": false,
      "metar_trigger": false,
      "taf_trigger": false,
      "metar": "METAR EDDN 311650Z AUTO 09003KT 9999 OVC030 02/M01 Q1007 NOSIG",
      "taf": "TAF EDDN 311100Z 3112/0112 12004KT 9999 OVC020"
    },
    {
      "icao": "EDDS",
      "alert": "OK",
      "vis_m": 9999,
      "fzfg": false,
      "metar_trigger": false,
      "taf_trigger": false,
      "metar": "METAR EDDS 311650Z AUTO 07004KT CAVOK 03/01 Q1005 NOSIG",
      "taf": "TAF EDDS 311100Z 3112/0112 VRB02KT 0400 FG OVC002"
    },
    {
      "icao": "EDFH",
      "alert": "OK",
      "vis_m": 450,
      "fzfg": false,
      "metar_trigger": false,
      "taf_trigger": false,
      "metar": "METAR EDFH 311650Z 14011KT 0450 R21/0600N FG VV/// 03/02 Q1004",
      "taf": "TAF EDFH 311100Z 3112/0112 14011KT 0300 FG VV002"
    },
    {
      "icao": "EDJA",
      "alert": "OK",
      "vis_m": 1700,
      "fzfg": false,
      "metar_trigger": false,
      "taf_trigger": false,
      "metar": "METAR EDJA 311650Z 06007KT 1700 BR SCT001 OVC005 M00/M01 Q1005",
      "taf": ""
    },
    {
      "icao": "EDLW",
      "alert": "OK",
      "vis_m": 9999,
      "fzfg": false,
      "metar_trigger": false,
      "taf_trigger": false,
      "metar": "METAR EDLW 311650Z 17005KT 9999 BKN021 07/03 Q1005",
      "taf": "TAF EDLW 311100Z 3112/0112 11005KT 9999 SCT045"
    },
    {
      "icao": "EDNY",
      "alert": "OK",
      "vis_m": 9999,
      "fzfg": false,
      "metar_trigger": false,
      "taf_trigger": false,
      "metar": "METAR EDNY 311650Z 06005KT 9999 OVC007 02/01 Q1006",
      "taf": "TAF EDNY 311400Z 3115/3124 VRB03KT 9999 FEW010 BKN015"
    },
    {
      "icao": "EDSB",
      "alert": "OK",
      "vis_m": 9999,
      "fzfg": false,
      "metar_trigger": false,
      "taf_trigger": false,
      "metar": "METAR EDSB 311650Z 01004KT CAVOK 05/03 Q1006",
      "taf": "TAF EDSB 311100Z 3112/0112 VRB03KT 0400 FG VV002"
    },
    {
      "icao": "EETN",
      "alert": "OK",
      "vis_m": 9999,
      "fzfg": false,
      "metar_trigger": false,
      "taf_trigger": false,
      "metar": "METAR EETN 311650Z 09004KT CAVOK M15/M16 Q1032 NOSIG",
      "taf": "TAF EETN 311130Z 3112/0112 08010KT 9999 SCT015"
    },
    {
      "icao": "EFTU",
      "alert": "OK",
      "vis_m": 9999,
      "fzfg": false,
      "metar_trigger": false,
      "taf_trigger": false,
      "metar": "METAR EFTU 311650Z AUTO 09005KT CAVOK M16/M18 Q1033",
      "taf": "TAF EFTU 311425Z 3115/0115 09006KT CAVOK"
    },
    {
      "icao": "EGBB",
      "alert": "OK",
      "vis_m": 6000,
      "fzfg": false,
      "metar_trigger": false,
      "taf_trigger": false,
      "metar": "METAR EGBB 311650Z 16006KT 6000 -RA SCT017 BKN023 08/06 Q0997",
      "taf": "TAF EGBB 311658Z 3118/0118 17010KT 9999 FEW030"
    },
    {
      "icao": "EGGP",
      "alert": "OK",
      "vis_m": 9999,
      "fzfg": false,
      "metar_trigger": false,
      "taf_trigger": false,
      "metar": "METAR EGGP 311650Z 17006KT 9999 -RA SCT015 BKN028 07/05 Q0996",
      "taf": "TAF EGGP 311704Z 3118/0118 16012KT 9999 BKN020"
    },
    {
      "icao": "EGGW",
      "alert": "OK",
      "vis_m": 9999,
      "fzfg": false,
      "metar_trigger": false,
      "taf_trigger": false,
      "metar": "METAR EGGW 311650Z AUTO 17006KT 9999 FEW026 07/05 Q0999",
      "taf": "TAF EGGW 311707Z 3118/0118 17008KT 9999 FEW008 SCT045"
    },
    {
      "icao": "EGKK",
      "alert": "OK",
      "vis_m": 9999,
      "fzfg": false,
      "metar_trigger": false,
      "taf_trigger": false,
      "metar": "METAR EGKK 311650Z 19008KT 160V230 9999 FEW014 SCT029 09/07 Q1000",
      "taf": "TAF EGKK 311656Z 3118/0124 18008KT 9999 FEW015 SCT030"
    },
    {
      "icao": "EGNM",
      "alert": "OK",
      "vis_m": 5000,
      "fzfg": false,
      "metar_trigger": false,
      "taf_trigger": false,
      "metar": "METAR EGNM 311650Z 19012KT 150V210 5000 RA SCT015 BKN022 05/02 Q0997",
      "taf": "TAF EGNM 311705Z 3118/0118 14010KT 9999 SCT015"
    },
    {
      "icao": "EGPD",
      "alert": "OK",
      "vis_m": 7000,
      "fzfg": false,
      "metar_trigger": false,
      "taf_trigger": false,
      "metar": "METAR EGPD 311650Z AUTO 13010KT 090V160 7000 -RA OVC004 06/05 Q1000 RERA REDZ TEMPO BKN006",
      "taf": "TAF EGPD 311654Z 3118/0118 12012KT 9999 BKN012"
    },
    {
      "icao": "EGPF",
      "alert": "OK",
      "vis_m": 9999,
      "fzfg": false,
      "metar_trigger": false,
      "taf_trigger": false,
      "metar": "METAR EGPF 311650Z AUTO 07009KT 9999 BKN026 OVC032 07/06 Q0996",
      "taf": "TAF EGPF 311700Z 3118/0118 08010KT 9999 BKN018"
    },
    {
      "icao": "EHBK",
      "alert": "OK",
      "vis_m": 9999,
      "fzfg": false,
      "metar_trigger": false,
      "taf_trigger": false,
      "metar": "METAR EHBK 311655Z AUTO 16005KT 120V200 9999 SCT045/// OVC049/// 08/05 Q1004 NOSIG",
      "taf": "TAF EHBK 311122Z 3112/0118 16006KT 9999 BKN040"
    },
    {
      "icao": "EHEH",
      "alert": "OK",
      "vis_m": null,
      "fzfg": false,
      "metar_trigger": false,
      "taf_trigger": false,
      "metar": "",
      "taf": "TAF EHEH 311120Z 3112/0118 14005KT 9999 FEW014 BKN020"
    },
    {
      "icao": "EKBI",
      "alert": "OK",
      "vis_m": 9999,
      "fzfg": false,
      "metar_trigger": false,
      "taf_trigger": false,
      "metar": "METAR EKBI 311650Z AUTO 10018G28KT 9999 OVC017/// M02/M05 Q1013",
      "taf": "TAF EKBI 311427Z 3115/0115 10020KT 9999 BKN020"
    },
    {
      "icao": "EKCH",
      "alert": "OK",
      "vis_m": 9999,
      "fzfg": false,
      "metar_trigger": false,
      "taf_trigger": false,
      "metar": "METAR EKCH 311650Z AUTO 11020G30KT 9999 BKN150/// M02/M10 Q1018 TEMPO 11020G30KT",
      "taf": "TAF EKCH 311427Z 3115/0115 10020KT 9999 SCT020"
    },
    {
      "icao": "ENAL",
      "alert": "OK",
      "vis_m": 9999,
      "fzfg": false,
      "metar_trigger": false,
      "taf_trigger": false,
      "metar": "METAR ENAL 311650Z 14010KT 9999 FEW050 00/M12 Q1015",
      "taf": "TAF ENAL 311400Z 3115/3124 14012KT 9999 SCT060"
    },
    {
      "icao": "ENBR",
      "alert": "OK",
      "vis_m": 9999,
      "fzfg": false,
      "metar_trigger": false,
      "taf_trigger": false,
      "metar": "METAR ENBR 311650Z 09004KT CAVOK M01/M12 Q1015 NOSIG RMK WIND 1200FT 10012KT",
      "taf": "TAF ENBR 311100Z 3112/0112 VRB04KT CAVOK"
    },
    {
      "icao": "ENGM",
      "alert": "OK",
      "vis_m": 9999,
      "fzfg": false,
      "metar_trigger": false,
      "taf_trigger": false,
      "metar": "METAR ENGM 311650Z 05003KT CAVOK M08/M11 Q1023 NOSIG",
      "taf": "TAF ENGM 311100Z 3112/0112 04007KT 9999 -SN FEW020 BKN030"
    },
    {
      "icao": "ENHD",
      "alert": "OK",
      "vis_m": 9999,
      "fzfg": false,
      "metar_trigger": false,
      "taf_trigger": false,
      "metar": "METAR ENHD 311650Z 09012KT CAVOK M01/M11 Q1014",
      "taf": "TAF ENHD 311400Z 3115/3123 09018KT 9999 SCT045"
    },
    {
      "icao": "ENTC",
      "alert": "OK",
      "vis_m": 9999,
      "fzfg": false,
      "metar_trigger": false,
      "taf_trigger": false,
      "metar": "METAR ENTC 311650Z 19019KT 9999 BKN048 M07/M13 Q1018 NOSIG RMK WIND 2600FT 19013KT",
      "taf": "TAF ENTC 311100Z 3112/0112 20020KT CAVOK"
    },
    {
      "icao": "ENTO",
      "alert": "OK",
      "vis_m": 9999,
      "fzfg": false,
      "metar_trigger": false,
      "taf_trigger": false,
      "metar": "METAR ENTO 311650Z 09003KT 050V120 CAVOK M03/M10 Q1022 NOSIG",
      "taf": "TAF ENTO 311100Z 3112/0112 10008KT 9999 -SN SCT020 BKN035"
    },
    {
      "icao": "ENVA",
      "alert": "OK",
      "vis_m": 9999,
      "fzfg": false,
      "metar_trigger": false,
      "taf_trigger": false,
      "metar": "METAR ENVA 311650Z 14008KT 090V170 CAVOK M05/M14 Q1018 RMK WIND 670FT 16022G33KT",
      "taf": "TAF ENVA 311100Z 3112/0112 12012KT CAVOK"
    },
    {
      "icao": "ENZV",
      "alert": "OK",
      "vis_m": 9999,
      "fzfg": false,
      "metar_trigger": false,
      "taf_trigger": false,
      "metar": "METAR ENZV 311650Z 10008KT CAVOK M01/M10 Q1014 NOSIG",
      "taf": "TAF ENZV 311100Z 3112/0112 09015KT CAVOK"
    },
    {
      "icao": "EPGD",
      "alert": "OK",
      "vis_m": 9999,
      "fzfg": false,
      "metar_trigger": false,
      "taf_trigger": false,
      "metar": "METAR EPGD 311700Z 09009KT CAVOK M11/M18 Q1022",
      "taf": "TAF EPGD 311130Z 3112/0112 11013KT CAVOK"
    },
    {
      "icao": "EPKK",
      "alert": "OK",
      "vis_m": 9999,
      "fzfg": false,
      "metar_trigger": false,
      "taf_trigger": false,
      "metar": "METAR EPKK 311700Z 07016KT 9999 BKN030 M09/M12 Q1014",
      "taf": "TAF EPKK 311430Z 3115/0115 06014KT 9999 BKN014"
    },
    {
      "icao": "EPKT",
      "alert": "OK",
      "vis_m": 9999,
      "fzfg": false,
      "metar_trigger": false,
      "taf_trigger": false,
      "metar": "METAR EPKT 311700Z 07008KT CAVOK M10/M13 Q1013",
      "taf": "TAF EPKT 311130Z 3112/0112 07013KT CAVOK"
    },
    {
      "icao": "EPLB",
      "alert": "OK",
      "vis_m": 9999,
      "fzfg": false,
      "metar_trigger": false,
      "taf_trigger": false,
      "metar": "METAR EPLB 311700Z 05007KT CAVOK M13/M17 Q1018",
      "taf": "TAF EPLB 311130Z 3112/0112 07012KT CAVOK"
    },
    {
      "icao": "EPMO",
      "alert": "OK",
      "vis_m": 9999,
      "fzfg": false,
      "metar_trigger": false,
      "taf_trigger": false,
      "metar": "METAR EPMO 311700Z 06011KT CAVOK M11/M16 Q1020",
      "taf": "TAF EPMO 311130Z 3112/0112 08014KT CAVOK"
    },
    {
      "icao": "EPPO",
      "alert": "OK",
      "vis_m": 9999,
      "fzfg": false,
      "metar_trigger": false,
      "taf_trigger": false,
      "metar": "METAR EPPO 311700Z 09013KT CAVOK M08/M14 Q1016",
      "taf": "TAF EPPO 311130Z 3112/0112 09015KT CAVOK"
    },
    {
      "icao": "EPRA",
      "alert": "OK",
      "vis_m": 9999,
      "fzfg": false,
      "metar_trigger": false,
      "taf_trigger": false,
      "metar": "METAR EPRA 311700Z 06008KT CAVOK M12/M18 Q1018",
      "taf": "TAF EPRA 311430Z 3115/3124 08011KT CAVOK"
    },
    {
      "icao": "EPRZ",
      "alert": "OK",
      "vis_m": 9999,
      "fzfg": false,
      "metar_trigger": false,
      "taf_trigger": false,
      "metar": "METAR EPRZ 311700Z 06011KT 9999 BKN018 M11/M15 Q1016",
      "taf": ""
    },
    {
      "icao": "EPSC",
      "alert": "OK",
      "vis_m": 9999,
      "fzfg": false,
      "metar_trigger": false,
      "taf_trigger": false,
      "metar": "METAR EPSC 311700Z 08012KT CAVOK M08/M11 Q1017",
      "taf": "TAF EPSC 311130Z 3112/0112 10011KT 9999 BKN044"
    },
    {
      "icao": "EPSY",
      "alert": "OK",
      "vis_m": 9999,
      "fzfg": false,
      "metar_trigger": false,
      "taf_trigger": false,
      "metar": "METAR EPSY 311700Z 05005KT 010V080 CAVOK M11/M17 Q1022",
      "taf": "TAF EPSY 311430Z 3115/3124 09008KT CAVOK"
    },
    {
      "icao": "EPWA",
      "alert": "OK",
      "vis_m": 9999,
      "fzfg": false,
      "metar_trigger": false,
      "taf_trigger": false,
      "metar": "METAR EPWA 311700Z 07008KT 360V090 CAVOK M10/M15 Q1020 NOSIG",
      "taf": "TAF EPWA 311430Z 3115/0115 07012KT CAVOK"
    },
    {
      "icao": "EPWR",
      "alert": "OK",
      "vis_m": 9999,
      "fzfg": false,
      "metar_trigger": false,
      "taf_trigger": false,
      "metar": "METAR EPWR 311700Z 08010KT 9999 BKN038 M05/M11 Q1014",
      "taf": "TAF EPWR 311430Z 3115/0115 08010KT 9999 BKN033"
    },
    {
      "icao": "ESGG",
      "alert": "OK",
      "vis_m": 9999,
      "fzfg": false,
      "metar_trigger": false,
      "taf_trigger": false,
      "metar": "METAR ESGG 311650Z 12012KT CAVOK M03/M14 Q1020",
      "taf": "TAF ESGG 311430Z 3115/0115 12010G20KT CAVOK"
    },
    {
      "icao": "ESKN",
      "alert": "OK",
      "vis_m": 9999,
      "fzfg": false,
      "metar_trigger": false,
      "taf_trigger": false,
      "metar": "METAR ESKN 311650Z 12009KT 9999 BKN032 M03/M09 Q1027",
      "taf": "TAF ESKN 311430Z 3115/0115 12010KT CAVOK"
    },
    {
      "icao": "ESMS",
      "alert": "OK",
      "vis_m": 9999,
      "fzfg": false,
      "metar_trigger": false,
      "taf_trigger": false,
      "metar": "METAR ESMS 311650Z 10017KT 9999 DRSN NSC M04/M12 Q1018",
      "taf": "TAF ESMS 311427Z 3115/0115 10018KT 9999 SCT020"
    },
    {
      "icao": "ESSA",
      "alert": "OK",
      "vis_m": 9999,
      "fzfg": false,
      "metar_trigger": false,
      "taf_trigger": false,
      "metar": "METAR ESSA 311650Z 11005KT 9999 SCT027 M05/M10 Q1029 NOSIG",
      "taf": "TAF ESSA 311430Z 3115/0115 13010KT 9999 SCT030"
    },
    {
      "icao": "EYKA",
      "alert": "OK",
      "vis_m": 9999,
      "fzfg": false,
      "metar_trigger": false,
      "taf_trigger": false,
      "metar": "METAR EYKA 311650Z VRB02KT CAVOK M17/M20 Q1026",
      "taf": "TAF EYKA 311702Z 3118/0118 VRB04KT 8000 NSC"
    },
    {
      "icao": "EYPA",
      "alert": "OK",
      "vis_m": 9999,
      "fzfg": false,
      "metar_trigger": false,
      "taf_trigger": false,
      "metar": "METAR EYPA 311650Z 08007KT CAVOK M13/M17 Q1027",
      "taf": "TAF EYPA 311702Z 3118/0118 07008KT 6000 NSC"
    },
    {
      "icao": "EYVI",
      "alert": "OK",
      "vis_m": 9999,
      "fzfg": false,
      "metar_trigger": false,
      "taf_trigger": false,
      "metar": "METAR EYVI 311650Z 04005KT CAVOK M15/M17 Q1024 NOSIG",
      "taf": "TAF EYVI 311703Z 3118/0118 VRB04KT 8000 NSC"
    },
    {
      "icao": "GCFV",
      "alert": "OK",
      "vis_m": 9999,
      "fzfg": false,
      "metar_trigger": false,
      "taf_trigger": false,
      "metar": "METAR GCFV 311700Z 35015KT 9999 FEW020 SCT025 21/16 Q1021",
      "taf": "TAF GCFV 311400Z 3115/0115 36015KT 9999 FEW015 TX22/0114Z TN15/0106Z"
    },
    {
      "icao": "GCLP",
      "alert": "OK",
      "vis_m": 9999,
      "fzfg": false,
      "metar_trigger": false,
      "taf_trigger": false,
      "metar": "METAR GCLP 311700Z 01020KT 340V040 9999 BKN020 22/16 Q1022 NOSIG",
      "taf": "TAF GCLP 311400Z 3115/0115 01020KT 9999 SCT020 TX21/0114Z TN16/0106Z"
    },
    {
      "icao": "GCTS",
      "alert": "OK",
      "vis_m": 9999,
      "fzfg": false,
      "metar_trigger": false,
      "taf_trigger": false,
      "metar": "METAR GCTS 311700Z 10014KT 080V140 9999 FEW025 21/16 Q1022 NOSIG",
      "taf": "TAF GCTS 311400Z 3115/0115 09015KT 9999 FEW020 TX23/0114Z TN15/0106Z"
    },
    {
      "icao": "GMAD",
      "alert": "OK",
      "vis_m": 6000,
      "fzfg": false,
      "metar_trigger": false,
      "taf_trigger": false,
      "metar": "METAR GMAD 311700Z 27009KT 6000 FEW023 SCT200 19/17 Q1018 NOSIG",
      "taf": "TAF GMAD 311700Z 3118/0124 22006KT 8000 SCT020"
    },
    {
      "icao": "GMMN",
      "alert": "OK",
      "vis_m": 9999,
      "fzfg": false,
      "metar_trigger": false,
      "taf_trigger": false,
      "metar": "METAR GMMN 311700Z 36006KT 9999 SCT026TCU 17/13 Q1022 NOSIG",
      "taf": "TAF GMMN 311700Z 3118/0124 36006KT 9999 SCT026"
    },
    {
      "icao": "GMMX",
      "alert": "OK",
      "vis_m": 9999,
      "fzfg": false,
      "metar_trigger": false,
      "taf_trigger": false,
      "metar": "METAR GMMX 311700Z 03007KT 010V070 9999 SCT023 20/13 Q1021 NOSIG",
      "taf": "TAF GMMX 311100Z 3112/0118 06006KT 8000 SCT023"
    },
    {
      "icao": "HEGN",
      "alert": "OK",
      "vis_m": 9999,
      "fzfg": false,
      "metar_trigger": false,
      "taf_trigger": false,
      "metar": "METAR HEGN 311600Z 14004KT CAVOK 23/16 Q1014 NOSIG",
      "taf": "TAF HEGN 311700Z 3118/0124 13008KT CAVOK"
    },
    {
      "icao": "HEMA",
      "alert": "OK",
      "vis_m": 9999,
      "fzfg": false,
      "metar_trigger": false,
      "taf_trigger": false,
      "metar": "METAR HEMA 311600Z 09006KT CAVOK 23/10 Q1014 NOSIG",
      "taf": "TAF HEMA 311700Z 3118/0124 10008KT CAVOK"
    },
    {
      "icao": "HESH",
      "alert": "OK",
      "vis_m": 9999,
      "fzfg": false,
      "metar_trigger": false,
      "taf_trigger": false,
      "metar": "METAR HESH 311600Z 13003KT CAVOK 22/16 Q1014 NOSIG",
      "taf": "TAF HESH 311700Z 3118/0124 12008KT CAVOK"
    },
    {
      "icao": "HESX",
      "alert": "OK",
      "vis_m": 9999,
      "fzfg": false,
      "metar_trigger": false,
      "taf_trigger": false,
      "metar": "METAR HESX 311600Z 20012KT CAVOK 25/M02 Q1011 NOSIG",
      "taf": "TAF HESX 311700Z 3118/0124 20014KT 6000 NSC"
    },
    {
      "icao": "LATI",
      "alert": "OK",
      "vis_m": null,
      "fzfg": false,
      "metar_trigger": false,
      "taf_trigger": false,
      "metar": "",
      "taf": "TAF LATI 311700Z 3118/0118 VRB05KT CAVOK TX14/0112Z TN05/0102Z"
    },
    {
      "icao": "LBPD",
      "alert": "OK",
      "vis_m": 9999,
      "fzfg": false,
      "metar_trigger": false,
      "taf_trigger": false,
      "metar": "METAR LBPD 311700Z AUTO 00000KT 9999 OVC013/// 07/07 Q1007 NOSIG",
      "taf": "TAF LBPD 311700Z 3118/0118 VRB03KT 7000 SCT005 OVC015"
    },
    {
      "icao": "LBSF",
      "alert": "OK",
      "vis_m": 9999,
      "fzfg": false,
      "metar_trigger": false,
      "taf_trigger": false,
      "metar": "METAR LBSF 311700Z AUTO 09010KT 9999 OVC037/// 06/03 Q1005 NOSIG",
      "taf": "TAF LBSF 311700Z 3118/0118 07010KT 9999 SCT010 BKN020 OVC040"
    },
    {
      "icao": "LBWN",
      "alert": "OK",
      "vis_m": 9999,
      "fzfg": false,
      "metar_trigger": false,
      "taf_trigger": false,
      "metar": "METAR LBWN 311700Z AUTO 01007KT 340V040 9999 SCT020/// OVC033/// 02/M01 Q1009 NOSIG",
      "taf": "TAF LBWN 311700Z 3118/0118 02010KT 8000 BKN020 OVC035"
    },
    {
      "icao": "LCLK",
      "alert": "OK",
      "vis_m": 5000,
      "fzfg": false,
      "metar_trigger": false,
      "taf_trigger": false,
      "metar": "METAR LCLK 311700Z 19007KT 5000 DU NSC 17/16 Q1010 TEMPO 3000 DU",
      "taf": ""
    },
    {
      "icao": "LCPH",
      "alert": "OK",
      "vis_m": 1500,
      "fzfg": false,
      "metar_trigger": false,
      "taf_trigger": false,
      "metar": "METAR LCPH 311700Z AUTO VRB03KT 1500 DU NCD 17/14 Q1010 BECMG 3000 DU",
      "taf": ""
    },
    {
      "icao": "LEAL",
      "alert": "OK",
      "vis_m": 9999,
      "fzfg": false,
      "metar_trigger": false,
      "taf_trigger": false,
      "metar": "METAR LEAL 311700Z 29018G33KT 250V330 9999 FEW030 SCT055 17/02 Q1013 NOSIG",
      "taf": "TAF LEAL 311100Z 3112/0112 30020KT 9999 FEW010 TX18/3114Z TN10/0106Z"
    },
    {
      "icao": "LEBB",
      "alert": "OK",
      "vis_m": 9999,
      "fzfg": false,
      "metar_trigger": false,
      "taf_trigger": false,
      "metar": "METAR LEBB 311700Z 29014KT 9999 FEW041 BKN048 OVC055 12/06 Q1013 NOSIG",
      "taf": ""
    },
    {
      "icao": "LEBL",
      "alert": "OK",
      "vis_m": 9999,
      "fzfg": false,
      "metar_trigger": false,
      "taf_trigger": false,
      "metar": "METAR LEBL 311700Z 31009KT 260V360 CAVOK 14/05 Q1007 NOSIG",
      "taf": "TAF LEBL 311100Z 3112/0112 32009KT CAVOK TX16/3112Z TN07/0106Z"
    },
    {
      "icao": "LECH",
      "alert": "OK",
      "vis_m": 9999,
      "fzfg": false,
      "metar_trigger": false,
      "taf_trigger": false,
      "metar": "METAR LECH 311700Z AUTO 31022G38KT 250V340 CAVOK 14/M01 Q1010",
      "taf": ""
    },
    {
      "icao": "LEMD",
      "alert": "OK",
      "vis_m": 9999,
      "fzfg": false,
      "metar_trigger": false,
      "taf_trigger": false,
      "metar": "METAR LEMD 311700Z 29014KT 250V310 9999 FEW055 11/M01 Q1015 NOSIG",
      "taf": "TAF LEMD 311100Z 3112/0118 27015KT CAVOK TX12/3115Z TN02/0104Z"
    },
    {
      "icao": "LEMG",
      "alert": "OK",
      "vis_m": 9999,
      "fzfg": false,
      "metar_trigger": false,
      "taf_trigger": false,
      "metar": "METAR LEMG 311700Z 31010KT 9999 FEW055 14/06 Q1019 NOSIG",
      "taf": "TAF LEMG 311100Z 3112/0112 30015KT 9999 FEW045 TX18/3115Z TN12/0106Z"
    },
    {
      "icao": "LEVC",
      "alert": "OK",
      "vis_m": 9999,
      "fzfg": false,
      "metar_trigger": false,
      "taf_trigger": false,
      "metar": "METAR LEVC 311700Z 28018KT CAVOK 15/02 Q1012 NOSIG",
      "taf": "TAF LEVC 311100Z 3112/0112 30022KT CAVOK TX18/3114Z TN10/0106Z"
    },
    {
      "icao": "LEXJ",
      "alert": "OK",
      "vis_m": 9999,
      "fzfg": false,
      "metar_trigger": false,
      "taf_trigger": false,
      "metar": "METAR LEXJ 311700Z 30014KT 9999 SCT066 12/07 Q1013",
      "taf": "TAF LEXJ 311400Z 3115/0115 21009KT 9999 FEW040 TX12/0113Z TN08/0103Z"
    },
    {
      "icao": "LEZG",
      "alert": "OK",
      "vis_m": 9999,
      "fzfg": false,
      "metar_trigger": false,
      "taf_trigger": false,
      "metar": "METAR LEZG 311700Z 29008KT 9999 SCT080 11/05 Q1012 NOSIG",
      "taf": "TAF LEZG 311100Z 3112/0112 27009KT 9999 FEW030 TX14/3113Z TN06/0106Z"
    },
    {
      "icao": "LEZL",
      "alert": "OK",
      "vis_m": 9999,
      "fzfg": false,
      "metar_trigger": false,
      "taf_trigger": false,
      "metar": "METAR LEZL 311700Z 27007KT CAVOK 16/08 Q1021 NOSIG",
      "taf": "TAF LEZL 311400Z 3115/0115 28010KT 9999 SCT045 TX17/3115Z TN10/0107Z"
    },
    {
      "icao": "LFBD",
      "alert": "OK",
      "vis_m": 9999,
      "fzfg": false,
      "metar_trigger": false,
      "taf_trigger": false,
      "metar": "METAR LFBD 311700Z AUTO 29012KT 270V330 9999 FEW021/// SCT033/// BKN062/// ///CB 11/09 Q1008 TEMPO 28015G25KT 1000 -TSRA",
      "taf": "TAF LFBD 311100Z 3112/0118 27010KT 9999 BKN030 TX12/3114Z TN07/0105Z"
    },
    {
      "icao": "LFLL",
      "alert": "OK",
      "vis_m": 9999,
      "fzfg": false,
      "metar_trigger": false,
      "taf_trigger": false,
      "metar": "METAR LFLL 311700Z 07005KT 9999 FEW028 BKN045 BKN073 08/04 Q1005 NOSIG",
      "taf": "TAF LFLL 311100Z 3112/0118 17005KT 9999 BKN035"
    },
    {
      "icao": "LFLS",
      "alert": "OK",
      "vis_m": 9999,
      "fzfg": false,
      "metar_trigger": false,
      "taf_trigger": false,
      "metar": "METAR LFLS 311700Z AUTO VRB03KT CAVOK 07/04 Q1005 TEMPO 4000 -SHRA BKN015 BKN030TCU",
      "taf": "TAF LFLS 311400Z 3115/0115 08005KT 9999 BKN040"
    },
    {
      "icao": "LFMN",
      "alert": "OK",
      "vis_m": 9999,
      "fzfg": false,
      "metar_trigger": false,
      "taf_trigger": false,
      "metar": "METAR LFMN 311700Z 25010KT 9999 FEW090 SCT260 12/05 Q1003 NOSIG",
      "taf": "TAF LFMN 311400Z 3115/0121 25008KT 9999 SCT100"
    },
    {
      "icao": "LFOB",
      "alert": "OK",
      "vis_m": 9999,
      "fzfg": false,
      "metar_trigger": false,
      "taf_trigger": false,
      "metar": "METAR LFOB 311700Z AUTO 14004KT 9999 BKN014 OVC022 07/06 Q1003 BECMG SCT030",
      "taf": "TAF LFOB 311100Z 3112/0112 17005KT 8000 OVC005"
    },
    {
      "icao": "LFPO",
      "alert": "OK",
      "vis_m": 9999,
      "fzfg": false,
      "metar_trigger": false,
      "taf_trigger": false,
      "metar": "METAR LFPO 311700Z 16003KT 9999 FEW026 BKN046 07/06 Q1004 NOSIG",
      "taf": ""
    },
    {
      "icao": "LFSB",
      "alert": "OK",
      "vis_m": 9999,
      "fzfg": false,
      "metar_trigger": false,
      "taf_trigger": false,
      "metar": "METAR LFSB 311700Z AUTO 13007KT CAVOK 04/02 Q1006 NOSIG",
      "taf": "TAF LFSB 311100Z 3112/0112 12007KT 9999 FEW030"
    },
    {
      "icao": "LGAV",
      "alert": "OK",
      "vis_m": 9999,
      "fzfg": false,
      "metar_trigger": false,
      "taf_trigger": false,
      "metar": "METAR LGAV 311650Z VRB02KT 9999 FEW025 12/07 Q1006 NOSIG",
      "taf": "TAF LGAV 311700Z 3118/0118 04008KT 9999 SCT020 BKN070"
    },
    {
      "icao": "LGTS",
      "alert": "OK",
      "vis_m": 9999,
      "fzfg": false,
      "metar_trigger": false,
      "taf_trigger": false,
      "metar": "METAR LGTS 311650Z 12005KT 9999 SCT020 12/08 Q1005 NOSIG",
      "taf": "TAF LGTS 311700Z 3118/0118 09010KT 9999 SCT025"
    },
    {
      "icao": "LHBP",
      "alert": "OK",
      "vis_m": 9999,
      "fzfg": false,
      "metar_trigger": false,
      "taf_trigger": false,
      "metar": "METAR LHBP 311700Z 10006KT 9999 -RASN FEW010 OVC025 02/01 Q1008 NOSIG",
      "taf": "TAF LHBP 311115Z 3112/0112 08007KT 9999 SCT012 OVC030"
    },
    {
      "icao": "LHDC",
      "alert": "OK",
      "vis_m": 7000,
      "fzfg": false,
      "metar_trigger": false,
      "taf_trigger": false,
      "metar": "METAR LHDC 311645Z AUTO 04009KT 7000 -RA SCT024 OVC067 01/M00 Q1008 NOSIG",
      "taf": "TAF LHDC 311415Z 3115/3124 04008KT 9000 -RASN SCT004 OVC015"
    },
    {
      "icao": "LIBD",
      "alert": "OK",
      "vis_m": 9999,
      "fzfg": false,
      "metar_trigger": false,
      "taf_trigger": false,
      "metar": "METAR LIBD 311650Z 11005KT 9999 FEW030 SCT040 12/09 Q1001",
      "taf": "TAF LIBD 311100Z 3112/0112 11010KT CAVOK"
    },
    {
      "icao": "LIBG",
      "alert": "OK",
      "vis_m": 9999,
      "fzfg": false,
      "metar_trigger": false,
      "taf_trigger": false,
      "metar": "METAR LIBG 311650Z 08004KT CAVOK 11/08 Q1000",
      "taf": "TAF LIBG 311400Z 3115/3124 15010KT 9999 SCT040"
    },
    {
      "icao": "LIBP",
      "alert": "OK",
      "vis_m": 9999,
      "fzfg": false,
      "metar_trigger": false,
      "taf_trigger": false,
      "metar": "METAR LIBP 311650Z AUTO 02005KT 350V060 9999 +RA BKN023/// BKN048/// 11/09 Q1002",
      "taf": "TAF LIBP 311100Z 3112/0112 VRB05KT 9999 FEW030"
    },
    {
      "icao": "LIBR",
      "alert": "OK",
      "vis_m": 9999,
      "fzfg": false,
      "metar_trigger": false,
      "taf_trigger": false,
      "metar": "METAR LIBR 311650Z 13008KT 9999 FEW015 13/09 Q1001",
      "taf": "TAF LIBR 311100Z 3112/0112 12010KT 9999 SCT020"
    },
    {
      "icao": "LICA",
      "alert": "OK",
      "vis_m": 9999,
      "fzfg": false,
      "metar_trigger": false,
      "taf_trigger": false,
      "metar": "METAR LICA 311650Z AUTO 05014KT 9999 -RA OVC055/// 11/09 Q0997 RERA",
      "taf": "TAF LICA 311100Z 3112/0112 08014KT 9999 SCT020"
    },
    {
      "icao": "LICC",
      "alert": "OK",
      "vis_m": 8000,
      "fzfg": false,
      "metar_trigger": false,
      "taf_trigger": false,
      "metar": "METAR LICC 311650Z 28009KT 8000 -RA SCT020 BKN050 10/07 Q0996",
      "taf": ""
    },
    {
      "icao": "LICJ",
      "alert": "OK",
      "vis_m": 8000,
      "fzfg": false,
      "metar_trigger": false,
      "taf_trigger": false,
      "metar": "METAR LICJ 311650Z 16003KT 100V200 8000 RA SCT010 BKN035 10/09 Q0996",
      "taf": "TAF LICJ 311100Z 3112/0112 18011KT 9999 SCT030"
    },
    {
      "icao": "LIMC",
      "alert": "OK",
      "vis_m": 4000,
      "fzfg": false,
      "metar_trigger": false,
      "taf_trigger": false,
      "metar": "METAR LIMC 311650Z 25005KT 4000 BR NSC 06/04 Q1005 NOSIG",
      "taf": "TAF LIMC 311100Z 3112/0118 VRB05KT 9000 BKN030"
    },
    {
      "icao": "LIME",
      "alert": "OK",
      "vis_m": 8000,
      "fzfg": false,
      "metar_trigger": false,
      "taf_trigger": false,
      "metar": "METAR LIME 311650Z AUTO 22002KT 8000 NCD 06/04 Q1005",
      "taf": "TAF LIME 311100Z 3112/0112 VRB04KT 9999 SCT020"
    },
    {
      "icao": "LIMF",
      "alert": "OK",
      "vis_m": 9999,
      "fzfg": false,
      "metar_trigger": false,
      "taf_trigger": false,
      "metar": "METAR LIMF 311650Z 23003KT CAVOK 07/01 Q1005",
      "taf": "TAF LIMF 311100Z 3112/0112 VRB04KT 4000 BR SCT040"
    },
    {
      "icao": "LIMJ",
      "alert": "OK",
      "vis_m": 9999,
      "fzfg": false,
      "metar_trigger": false,
      "taf_trigger": false,
      "metar": "METAR LIMJ 311650Z 02022KT CAVOK 09/03 Q1003",
      "taf": "TAF LIMJ 311100Z 3112/0112 04015KT 9999 SCT030"
    },
    {
      "icao": "LIPE",
      "alert": "OK",
      "vis_m": 5000,
      "fzfg": false,
      "metar_trigger": false,
      "taf_trigger": false,
      "metar": "METAR LIPE 311650Z 24005KT 5000 BR OVC016 06/04 Q1005",
      "taf": "TAF LIPE 311100Z 3112/0112 VRB04KT 3000 BR BKN008"
    },
    {
      "icao": "LIPH",
      "alert": "OK",
      "vis_m": 9999,
      "fzfg": false,
      "metar_trigger": false,
      "taf_trigger": false,
      "metar": "METAR LIPH 311650Z VRB01KT CAVOK 09/05 Q1004",
      "taf": "TAF LIPH 311100Z 3112/0112 VRB04KT 9999 FEW050"
    },
    {
      "icao": "LIPQ",
      "alert": "OK",
      "vis_m": 9999,
      "fzfg": false,
      "metar_trigger": false,
      "taf_trigger": false,
      "metar": "METAR LIPQ 311650Z AUTO 09004KT 9999 NCD 09/01 Q1004",
      "taf": "TAF LIPQ 311100Z 3112/0112 VRB05KT CAVOK"
    },
    {
      "icao": "LIPR",
      "alert": "OK",
      "vis_m": 4000,
      "fzfg": false,
      "metar_trigger": false,
      "taf_trigger": false,
      "metar": "METAR LIPR 311650Z 30007KT 4000 -DZ BR BKN005 06/05 Q1005",
      "taf": "TAF LIPR 311100Z 3112/0112 29008KT 4000 BR BKN008"
    },
    {
      "icao": "LIPX",
      "alert": "OK",
      "vis_m": 6000,
      "fzfg": false,
      "metar_trigger": false,
      "taf_trigger": false,
      "metar": "METAR LIPX 311650Z 23007KT 6000 BKN020 07/05 Q1005",
      "taf": "TAF LIPX 311100Z 3112/0112 VRB05KT 3000 BR NSC"
    },
    {
      "icao": "LIPY",
      "alert": "OK",
      "vis_m": 9999,
      "fzfg": false,
      "metar_trigger": false,
      "taf_trigger": false,
      "metar": "METAR LIPY 311650Z AUTO 31007KT 280V340 9999 BKN006/// OVC030/// 07/07 Q1004",
      "taf": "TAF LIPY 311100Z 3112/0112 VRB05KT 6000 BKN005"
    },
    {
      "icao": "LIPZ",
      "alert": "OK",
      "vis_m": 9999,
      "fzfg": false,
      "metar_trigger": false,
      "taf_trigger": false,
      "metar": "METAR LIPZ 311650Z 23002KT CAVOK 07/05 Q1005 NOSIG",
      "taf": "TAF LIPZ 311100Z 3112/0118 03006KT 9999 FEW040"
    },
    {
      "icao": "LIRF",
      "alert": "OK",
      "vis_m": 9999,
      "fzfg": false,
      "metar_trigger": false,
      "taf_trigger": false,
      "metar": "METAR LIRF 311650Z 02003KT CAVOK 12/08 Q0999 NOSIG",
      "taf": "TAF LIRF 311100Z 3112/0118 14012KT 9999 SCT030"
    },
    {
      "icao": "LIRN",
      "alert": "OK",
      "vis_m": 9999,
      "fzfg": false,
      "metar_trigger": false,
      "taf_trigger": false,
      "metar": "METAR LIRN 311650Z 04006KT 9999 FEW040 12/07 Q0998 NOSIG",
      "taf": "TAF LIRN 311100Z 3112/0112 VRB06KT 8000 SCT040"
    },
    {
      "icao": "LIRP",
      "alert": "OK",
      "vis_m": 9999,
      "fzfg": false,
      "metar_trigger": false,
      "taf_trigger": false,
      "metar": "METAR LIRP 311645Z 09007KT 9999 FEW080 11/06 Q1001 NOSIG",
      "taf": "TAF LIRP 311100Z 3112/0112 08010KT 9999 FEW030 SCT060"
    },
    {
      "icao": "LIRZ",
      "alert": "OK",
      "vis_m": 9999,
      "fzfg": false,
      "metar_trigger": false,
      "taf_trigger": false,
      "metar": "METAR LIRZ 311650Z AUTO 02010KT 9999 NCD 08/05 Q1001",
      "taf": "TAF LIRZ 311100Z 3112/0112 03012KT 9999 SCT040"
    },
    {
      "icao": "LJLJ",
      "alert": "OK",
      "vis_m": 9999,
      "fzfg": false,
      "metar_trigger": false,
      "taf_trigger": false,
      "metar": "METAR LJLJ 311700Z 14001KT 9999 FEW017 OVC037 04/03 Q1006 NOSIG",
      "taf": "TAF LJLJ 311700Z 3118/0118 VRB02KT 9999 FEW017 OVC035"
    },
    {
      "icao": "LKMT",
      "alert": "OK",
      "vis_m": 9999,
      "fzfg": false,
      "metar_trigger": false,
      "taf_trigger": false,
      "metar": "METAR LKMT 311700Z 03011KT 9999 OVC013 M07/M08 Q1011 NOSIG",
      "taf": "TAF LKMT 311100Z 3112/0112 03010KT 7000 SCT010 BKN014 OVC018"
    },
    {
      "icao": "LKPR",
      "alert": "OK",
      "vis_m": 9000,
      "fzfg": false,
      "metar_trigger": false,
      "taf_trigger": false,
      "metar": "METAR LKPR 311700Z 06006KT 9000 FEW008 OVC033 M01/M02 Q1008 NOSIG",
      "taf": "TAF LKPR 311400Z 3115/0121 06006KT 1700 BR BKN003 OVC005"
    },
    {
      "icao": "LLBG",
      "alert": "OK",
      "vis_m": 9999,
      "fzfg": false,
      "metar_trigger": false,
      "taf_trigger": false,
      "metar": "METAR LLBG 311650Z 12006KT CAVOK 21/10 Q1012 NOSIG",
      "taf": "TAF LLBG 311703Z 3118/0118 VRB04KT CAVOK"
    },
    {
      "icao": "LMML",
      "alert": "OK",
      "vis_m": 9999,
      "fzfg": false,
      "metar_trigger": false,
      "taf_trigger": false,
      "metar": "METAR LMML 311715Z 27013KT 9999 FEW020 12/08 Q0998 NOSIG",
      "taf": "TAF LMML 311700Z 3118/0118 27018KT 9999 FEW018"
    },
    {
      "icao": "LOWW",
      "alert": "OK",
      "vis_m": 7000,
      "fzfg": false,
      "metar_trigger": false,
      "taf_trigger": false,
      "metar": "METAR LOWW 311650Z 36005KT 7000 BKN006 00/M01 Q1008 BECMG BKN004",
      "taf": "TAF LOWW 311415Z 3115/0121 35005KT 4000 BR BKN010 TX01/3115Z TNM02/0106Z"
    },
    {
      "icao": "LPFR",
      "alert": "OK",
      "vis_m": 9999,
      "fzfg": false,
      "metar_trigger": false,
      "taf_trigger": false,
      "metar": "METAR LPFR 311700Z 24011KT 9999 FEW025 15/12 Q1021",
      "taf": "TAF LPFR 311700Z 3118/0118 25010KT 9999 SCT030"
    },
    {
      "icao": "LPMA",
      "alert": "OK",
      "vis_m": 9999,
      "fzfg": false,
      "metar_trigger": false,
      "taf_trigger": false,
      "metar": "METAR LPMA 311700Z 12003KT 090V150 9999 BKN013 19/16 Q1023",
      "taf": "TAF LPMA 311700Z 3118/0118 VRB05KT 9999 SCT015"
    },
    {
      "icao": "LPPR",
      "alert": "OK",
      "vis_m": 9999,
      "fzfg": false,
      "metar_trigger": false,
      "taf_trigger": false,
      "metar": "METAR LPPR 311700Z 20006KT 9999 FEW020 13/09 Q1018",
      "taf": "TAF LPPR 311700Z 3118/0118 20007KT 9999 SCT035"
    },
    {
      "icao": "LPPS",
      "alert": "OK",
      "vis_m": 7000,
      "fzfg": false,
      "metar_trigger": false,
      "taf_trigger": false,
      "metar": "METAR LPPS 311700Z 27006KT 7000 SCT002 BKN010 18/17 Q1023",
      "taf": "TAF LPPS 311700Z 3118/0124 29008KT 9999 SCT012"
    },
    {
      "icao": "LPPT",
      "alert": "OK",
      "vis_m": 9999,
      "fzfg": false,
      "metar_trigger": false,
      "taf_trigger": false,
      "metar": "METAR LPPT 311700Z 22008KT 9999 VCSH FEW018 SCT024 BKN030 14/10 Q1020",
      "taf": "TAF LPPT 311700Z 3118/0124 23008KT 9999 SCT018 BKN030"
    },
    {
      "icao": "LQBK",
      "alert": "OK",
      "vis_m": 9999,
      "fzfg": false,
      "metar_trigger": false,
      "taf_trigger": false,
      "metar": "METAR LQBK 311700Z 36004KT 9999 SCT030 OVC043 05/03 Q1007 NOSIG",
      "taf": "TAF LQBK 311700Z 3118/0118 06005KT 9999 SCT013 BKN030 TX04/0113Z TN01/0105Z"
    },
    {
      "icao": "LQSA",
      "alert": "OK",
      "vis_m": 9999,
      "fzfg": false,
      "metar_trigger": false,
      "taf_trigger": false,
      "metar": "METAR LQSA 311700Z 32006KT 9999 SCT030 BKN050 06/03 Q1004 NOSIG",
      "taf": "TAF LQSA 311700Z 3118/0118 29006KT 9999 BKN045 TX05/0113Z TN01/0105Z"
    },
    {
      "icao": "LQTZ",
      "alert": "OK",
      "vis_m": 9999,
      "fzfg": false,
      "metar_trigger": false,
      "taf_trigger": false,
      "metar": "METAR LQTZ 311700Z 07004KT 040V100 9999 BKN019 OVC028 06/03 Q1006",
      "taf": "TAF LQTZ 311700Z 3118/0118 10005KT 9999 SCT015 BKN025 TX04/0113Z TN01/0105Z"
    },
    {
      "icao": "LRBC",
      "alert": "OK",
      "vis_m": 9999,
      "fzfg": false,
      "metar_trigger": false,
      "taf_trigger": false,
      "metar": "METAR LRBC 311700Z 36009KT 330V030 9999 OVC060 M05/M08 Q1013",
      "taf": "TAF LRBC 311400Z 3115/3124 36012KT 9999 SCT040"
    },
    {
      "icao": "LRBS",
      "alert": "OK",
      "vis_m": 9999,
      "fzfg": false,
      "metar_trigger": false,
      "taf_trigger": false,
      "metar": "METAR LRBS 311700Z 06009KT 9999 SCT040 00/M03 Q1011 NOSIG",
      "taf": "TAF LRBS 311100Z 3112/0112 09012KT 5000 -SN BR BKN010 OVC025"
    },
    {
      "icao": "LRBV",
      "alert": "OK",
      "vis_m": 9999,
      "fzfg": false,
      "metar_trigger": false,
      "taf_trigger": false,
      "metar": "METAR LRBV 311700Z 12007KT 9999 -SN OVC020 00/M03 Q1007",
      "taf": "TAF LRBV 311400Z 3115/3124 12006KT 9999 -SN BKN010 OVC030"
    },
    {
      "icao": "LRCL",
      "alert": "OK",
      "vis_m": 9999,
      "fzfg": false,
      "metar_trigger": false,
      "taf_trigger": false,
      "metar": "METAR LRCL 311700Z 05001KT 9999 -RA OVC010 03/02 Q1007",
      "taf": "TAF LRCL 311400Z 3115/3124 VRB04KT 9999 BKN005 OVC020"
    },
    {
      "icao": "LRCV",
      "alert": "OK",
      "vis_m": 9000,
      "fzfg": false,
      "metar_trigger": false,
      "taf_trigger": false,
      "metar": "METAR LRCV 311700Z 09011KT 9000 -DZ FEW006 OVC019 01/M00 Q1009",
      "taf": "TAF LRCV 311400Z 3115/3124 11015KT 5000 BR OVC005"
    },
    {
      "icao": "LRIA",
      "alert": "OK",
      "vis_m": 9999,
      "fzfg": false,
      "metar_trigger": false,
      "taf_trigger": false,
      "metar": "METAR LRIA 311700Z 31010KT 9999 OVC014 M07/M11 Q1013",
      "taf": "TAF LRIA 311400Z 3115/3124 34012KT 9999 OVC025"
    },
    {
      "icao": "LROP",
      "alert": "OK",
      "vis_m": 9999,
      "fzfg": false,
      "metar_trigger": false,
      "taf_trigger": false,
      "metar": "METAR LROP 311700Z 07012KT 9999 BKN042 00/M03 Q1010 NOSIG",
      "taf": "TAF LROP 311100Z 3112/0112 09012KT 5000 -SN BR BKN010 OVC025"
    },
    {
      "icao": "LRSB",
      "alert": "OK",
      "vis_m": 9999,
      "fzfg": false,
      "metar_trigger": false,
      "taf_trigger": false,
      "metar": "METAR LRSB 311700Z 08003KT 9999 BKN035 OVC047 03/03 Q1006 NOSIG",
      "taf": "TAF LRSB 311100Z 3112/0112 VRB04KT 9999 BKN015 OVC030"
    },
    {
      "icao": "LRSM",
      "alert": "OK",
      "vis_m": 9999,
      "fzfg": false,
      "metar_trigger": false,
      "taf_trigger": false,
      "metar": "METAR LRSM 311700Z AUTO 28004KT 9999 OVC041/// 03/01 Q1008",
      "taf": ""
    },
    {
      "icao": "LRSV",
      "alert": "OK",
      "vis_m": 9999,
      "fzfg": false,
      "metar_trigger": false,
      "taf_trigger": false,
      "metar": "METAR LRSV 311700Z 34011KT 9999 -SN OVC033 M10/M12 Q1012",
      "taf": "TAF LRSV 311400Z 3115/3124 36012KT 9999 SCT040"
    },
    {
      "icao": "LRTM",
      "alert": "OK",
      "vis_m": 3700,
      "fzfg": false,
      "metar_trigger": false,
      "taf_trigger": false,
      "metar": "METAR LRTM 311700Z 08002KT 3700 -RA BR BKN013 OVC028 03/03 Q1007",
      "taf": "TAF LRTM 311400Z 3115/3124 VRB04KT 9999 BKN005 OVC020"
    },
    {
      "icao": "LRTR",
      "alert": "OK",
      "vis_m": 9999,
      "fzfg": false,
      "metar_trigger": false,
      "taf_trigger": false,
      "metar": "METAR LRTR 311700Z VRB01KT 9999 BKN018 OVC033 04/04 Q1008",
      "taf": "TAF LRTR 311100Z 3112/0112 VRB04KT 9999 BKN010 OVC020"
    },
    {
      "icao": "LTAC",
      "alert": "OK",
      "vis_m": 9999,
      "fzfg": false,
      "metar_trigger": false,
      "taf_trigger": false,
      "metar": "METAR LTAC 311650Z 22003KT 9999 BKN030 BKN120 05/04 Q1005 NOSIG RMK RWY21C 00000KT RWY03L 21002KT RWY21R 00000KT RWY03R 20005KT RWY21L 18003KT",
      "taf": "TAF LTAC 311640Z 3118/0118 VRB02KT 9999 SCT035 BKN090"
    },
    {
      "icao": "LTFM",
      "alert": "OK",
      "vis_m": 6000,
      "fzfg": false,
      "metar_trigger": false,
      "taf_trigger": false,
      "metar": "METAR LTFM 311650Z 03013KT 6000 -SHRA BKN008 BKN025 05/04 Q1007 NOSIG RMK RWY17L 02012KT RWY34L 02013KT RWY16R 03012KT RWY36 03015KT RWY18 04012KT",
      "taf": "TAF LTFM 311640Z 3118/0124 03015KT 8000 -SHRA BKN011 BKN025"
    },
    {
      "icao": "LUKK",
      "alert": "OK",
      "vis_m": 9999,
      "fzfg": false,
      "metar_trigger": false,
      "taf_trigger": false,
      "metar": "METAR LUKK 311700Z 35010KT 330V030 9999 SCT016 BKN024 OVC029 M07/M10 Q1012 NOSIG",
      "taf": "TAF LUKK 311116Z 3112/0112 36014KT 9999 BKN015"
    },
    {
      "icao": "LWOH",
      "alert": "OK",
      "vis_m": null,
      "fzfg": false,
      "metar_trigger": false,
      "taf_trigger": false,
      "metar": "",
      "taf": "TAF LWOH 311425Z 3115/0115 VRB02KT 9999 FEW035 BKN050"
    },
    {
      "icao": "LWSK",
      "alert": "OK",
      "vis_m": 9999,
      "fzfg": false,
      "metar_trigger": false,
      "taf_trigger": false,
      "metar": "METAR LWSK 311650Z 02007KT 9999 BKN090 08/04 Q1004 NOSIG",
      "taf": "TAF LWSK 311425Z 3115/0115 36005KT 9999 FEW030 BKN090"
    },
    {
      "icao": "LYBE",
      "alert": "OK",
      "vis_m": 9999,
      "fzfg": false,
      "metar_trigger": false,
      "taf_trigger": false,
      "metar": "METAR LYBE 311700Z 05004KT 9999 BKN033 06/04 Q1008 NOSIG",
      "taf": "TAF LYBE 311100Z 3112/0112 04005KT 9999 SCT015 BKN030 TX08/3113Z TN03/0106Z"
    },
    {
      "icao": "LYNI",
      "alert": "OK",
      "vis_m": 9999,
      "fzfg": false,
      "metar_trigger": false,
      "taf_trigger": false,
      "metar": "METAR LYNI 311700Z 34005KT 320V020 9999 FEW017 SCT030 BKN087 07/05 Q1006 NOSIG",
      "taf": "TAF LYNI 311100Z 3112/0112 34008KT 9999 FEW015 BKN030 TX08/3113Z TN02/0106Z"
    },
    {
      "icao": "LYPG",
      "alert": "OK",
      "vis_m": 9999,
      "fzfg": false,
      "metar_trigger": false,
      "taf_trigger": false,
      "metar": "METAR LYPG 311700Z 04003KT 010V080 9999 FEW027 08/06 Q1004 NOSIG",
      "taf": "TAF LYPG 311100Z 3112/0112 18005KT 9999 FEW020 SCT050 TX13/3112Z TN05/0106Z"
    },
    {
      "icao": "LZIB",
      "alert": "OK",
      "vis_m": 8000,
      "fzfg": false,
      "metar_trigger": false,
      "taf_trigger": false,
      "metar": "METAR LZIB 311700Z 23003KT 200V280 8000 BKN009 OVC013 03/01 Q1008 NOSIG",
      "taf": "TAF LZIB 311715Z 3118/0118 VRB02KT 7000 OVC009"
    },
    {
      "icao": "LZKZ",
      "alert": "OK",
      "vis_m": 9999,
      "fzfg": false,
      "metar_trigger": false,
      "taf_trigger": false,
      "metar": "METAR LZKZ 311700Z 02019KT 9999 BKN038 M04/M08 Q1009 NOSIG",
      "taf": "TAF LZKZ 311715Z 3118/0118 01013KT 9999 BKN032"
    },
    {
      "icao": "LZTT",
      "alert": "OK",
      "vis_m": 9999,
      "fzfg": false,
      "metar_trigger": false,
      "taf_trigger": false,
      "metar": "METAR LZTT 311700Z 05007KT 9999 FEW006 BKN066 M08/M10 Q1008 NOSIG",
      "taf": "TAF LZTT 311715Z 3118/0118 06009KT 9999 SCT010 BKN045"
    },
    {
      "icao": "OEJN",
      "alert": "OK",
      "vis_m": 9999,
      "fzfg": false,
      "metar_trigger": false,
      "taf_trigger": false,
      "metar": "METAR OEJN 311700Z 33005KT CAVOK 26/18 Q1013 NOSIG",
      "taf": "TAF OEJN 311700Z 3118/0124 02006KT 9999 FEW040"
    },
    {
      "icao": "OEMA",
      "alert": "OK",
      "vis_m": 9999,
      "fzfg": false,
      "metar_trigger": false,
      "taf_trigger": false,
      "metar": "METAR OEMA 311700Z 24009KT CAVOK 27/08 Q1017 NOSIG",
      "taf": "TAF OEMA 311700Z 3118/0124 31006KT 9999 FEW045"
    },
    {
      "icao": "OJAI",
      "alert": "OK",
      "vis_m": 5000,
      "fzfg": false,
      "metar_trigger": false,
      "taf_trigger": false,
      "metar": "METAR OJAI 311700Z 20004KT 5000 HZ NSC 13/05 Q1016 NOSIG",
      "taf": "TAF OJAI 311700Z 3118/0124 20010KT 5000 HZ NSC"
    },
    {
      "icao": "OMAA",
      "alert": "OK",
      "vis_m": 9999,
      "fzfg": false,
      "metar_trigger": false,
      "taf_trigger": false,
      "metar": "METAR OMAA 311700Z 31003KT CAVOK 19/13 Q1018 NOSIG",
      "taf": "TAF OMAA 311700Z 3118/0200 VRB02KT 8000 NSC"
    },
    {
      "icao": "OMDB",
      "alert": "OK",
      "vis_m": 9999,
      "fzfg": false,
      "metar_trigger": false,
      "taf_trigger": false,
      "metar": "METAR OMDB 311700Z 23004KT CAVOK 21/14 Q1018 NOSIG",
      "taf": "TAF OMDB 311700Z 3118/0200 21005KT 8000 NSC"
    },
    {
      "icao": "UAAA",
      "alert": "OK",
      "vis_m": 3200,
      "fzfg": false,
      "metar_trigger": false,
      "taf_trigger": false,
      "metar": "METAR UAAA 311700Z 24003MPS 3200 BR BKN100 M03/M05 Q1019 NOSIG",
      "taf": "TAF UAAA 311103Z 3112/0112 20003MPS 1200 BR FU SCT011 BKN020 TX04/0109Z TNM05/0102Z"
    },
    {
      "icao": "UBBB",
      "alert": "OK",
      "vis_m": 7000,
      "fzfg": false,
      "metar_trigger": false,
      "taf_trigger": false,
      "metar": "METAR UBBB 311700Z 32006KT 7000 BKN006 05/03 Q1006 NOSIG",
      "taf": "TAF UBBB 311655Z 3118/0118 32005KT 2000 BR BKN007 TX10/0110Z TN02/0100Z"
    },
    {
      "icao": "UDSG",
      "alert": "OK",
      "vis_m": 1300,
      "fzfg": false,
      "metar_trigger": false,
      "taf_trigger": false,
      "metar": "METAR UDSG 311700Z 20003KT 1300 R02/P2000N BR OVC016 M03/M03 Q1013 NOSIG",
      "taf": "TAF UDSG 311058Z 3112/0112 VRB04KT 1500 BR OVC010"
    },
    {
      "icao": "UDYZ",
      "alert": "OK",
      "vis_m": 1000,
      "fzfg": false,
      "metar_trigger": false,
      "taf_trigger": false,
      "metar": "METAR UDYZ 311700Z VRB01KT 1000 R08/1900N BR BKN013 M01/M02 Q1015 NOSIG",
      "taf": "TAF UDYZ 311100Z 3112/0112 VRB04KT 2000 BR SCT007 BKN020"
    },
    {
      "icao": "UGKO",
      "alert": "OK",
      "vis_m": 9999,
      "fzfg": false,
      "metar_trigger": false,
      "taf_trigger": false,
      "metar": "METAR UGKO 311700Z 07007KT 9999 BKN090 10/07 Q1008 NOSIG",
      "taf": "TAF UGKO 311700Z 3118/0118 08007KT 9999 BKN050 TX11/0111Z TN08/0103Z"
    }
  ]
}