{
  "ts_utc": "2026-06-26T13:23:46Z",
  "threshold_m": 150,
  "source": "stations_override.txt (ICAO list) + aviationweather.gov (METAR/TAF raw)",
  "station_count": 159,
  "stations": [
    {
      "icao": "BIKF",
      "alert": "OK",
      "vis_m": 9999,
      "fzfg": false,
      "metar_trigger": false,
      "taf_trigger": false,
      "metar": "METAR BIKF 261300Z 22013KT 190V250 9999 BKN026 BKN048 11/05 Q1006",
      "taf": "TAF BIKF 261031Z 2612/2712 23012KT 9999 -SHRA SCT018 BKN040 TX11/2615Z TN08/2704Z"
    },
    {
      "icao": "BKPR",
      "alert": "OK",
      "vis_m": null,
      "fzfg": false,
      "metar_trigger": false,
      "taf_trigger": false,
      "metar": "",
      "taf": "TAF BKPR 261130Z 2612/2712 36008KT 9999 FEW050"
    },
    {
      "icao": "EBCI",
      "alert": "OK",
      "vis_m": 9999,
      "fzfg": false,
      "metar_trigger": false,
      "taf_trigger": false,
      "metar": "METAR EBCI 261250Z 26004KT 200V330 CAVOK 35/21 Q1016 NOSIG",
      "taf": "TAF EBCI 261100Z 2612/2718 21004KT CAVOK"
    },
    {
      "icao": "EDDB",
      "alert": "OK",
      "vis_m": 9999,
      "fzfg": false,
      "metar_trigger": false,
      "taf_trigger": false,
      "metar": "METAR EDDB 261250Z AUTO VRB05KT CAVOK 34/10 Q1019 NOSIG",
      "taf": "TAF EDDB 261100Z 2612/2712 06005KT CAVOK"
    },
    {
      "icao": "EDDH",
      "alert": "OK",
      "vis_m": 9999,
      "fzfg": false,
      "metar_trigger": false,
      "taf_trigger": false,
      "metar": "METAR EDDH 261250Z AUTO 16011KT 130V190 CAVOK 33/11 Q1018 NOSIG",
      "taf": "TAF EDDH 261100Z 2612/2718 13006KT CAVOK"
    },
    {
      "icao": "EDDK",
      "alert": "OK",
      "vis_m": 9999,
      "fzfg": false,
      "metar_trigger": false,
      "taf_trigger": false,
      "metar": "METAR EDDK 261250Z AUTO 13009KT 070V160 CAVOK 36/18 Q1015 NOSIG",
      "taf": "TAF EDDK 261100Z 2612/2718 12006KT CAVOK"
    },
    {
      "icao": "EDDN",
      "alert": "OK",
      "vis_m": 9999,
      "fzfg": false,
      "metar_trigger": false,
      "taf_trigger": false,
      "metar": "METAR EDDN 261250Z AUTO VRB04KT CAVOK 36/14 Q1019 NOSIG",
      "taf": "TAF EDDN 261100Z 2612/2712 VRB03KT CAVOK"
    },
    {
      "icao": "EDDS",
      "alert": "OK",
      "vis_m": 9999,
      "fzfg": false,
      "metar_trigger": false,
      "taf_trigger": false,
      "metar": "METAR EDDS 261250Z AUTO VRB03KT CAVOK 36/14 Q1019 NOSIG",
      "taf": "TAF EDDS 261100Z 2612/2712 08004KT CAVOK"
    },
    {
      "icao": "EDFH",
      "alert": "OK",
      "vis_m": 9999,
      "fzfg": false,
      "metar_trigger": false,
      "taf_trigger": false,
      "metar": "METAR EDFH 261250Z 22007KT 160V250 CAVOK 36/14 Q1019",
      "taf": "TAF EDFH 261100Z 2612/2712 13007KT CAVOK"
    },
    {
      "icao": "EDJA",
      "alert": "OK",
      "vis_m": 9999,
      "fzfg": false,
      "metar_trigger": false,
      "taf_trigger": false,
      "metar": "METAR EDJA 261250Z 08007KT 040V150 CAVOK 33/11 Q1021",
      "taf": "TAF EDJA 261100Z 2612/2621 04006KT CAVOK"
    },
    {
      "icao": "EDLW",
      "alert": "OK",
      "vis_m": 9999,
      "fzfg": false,
      "metar_trigger": false,
      "taf_trigger": false,
      "metar": "METAR EDLW 261250Z 20010KT CAVOK 36/19 Q1015",
      "taf": "TAF EDLW 261100Z 2612/2712 08004KT CAVOK"
    },
    {
      "icao": "EDNY",
      "alert": "OK",
      "vis_m": 9999,
      "fzfg": false,
      "metar_trigger": false,
      "taf_trigger": false,
      "metar": "METAR EDNY 261250Z 23006KT 190V270 CAVOK 32/18 Q1020",
      "taf": "TAF EDNY 261100Z 2612/2621 05004KT CAVOK"
    },
    {
      "icao": "EDSB",
      "alert": "OK",
      "vis_m": 9999,
      "fzfg": false,
      "metar_trigger": false,
      "taf_trigger": false,
      "metar": "METAR EDSB 261250Z 30004KT 270V340 CAVOK 38/15 Q1016",
      "taf": "TAF EDSB 261100Z 2612/2712 VRB03KT CAVOK"
    },
    {
      "icao": "EETN",
      "alert": "OK",
      "vis_m": 9999,
      "fzfg": false,
      "metar_trigger": false,
      "taf_trigger": false,
      "metar": "METAR EETN 261320Z 27015KT CAVOK 20/11 Q1018 NOSIG",
      "taf": "TAF EETN 261130Z 2612/2712 29015KT CAVOK"
    },
    {
      "icao": "EFTU",
      "alert": "OK",
      "vis_m": 9999,
      "fzfg": false,
      "metar_trigger": false,
      "taf_trigger": false,
      "metar": "METAR EFTU 261320Z AUTO 25007KT 210V280 9999 -SHRA NSC 19/10 Q1017",
      "taf": "TAF EFTU 261130Z 2612/2712 30008KT CAVOK"
    },
    {
      "icao": "EGBB",
      "alert": "OK",
      "vis_m": 9999,
      "fzfg": false,
      "metar_trigger": false,
      "taf_trigger": false,
      "metar": "METAR EGBB 261250Z 21011KT 170V250 CAVOK 33/16 Q1013",
      "taf": "TAF EGBB 261057Z 2612/2712 23012KT CAVOK"
    },
    {
      "icao": "EGGP",
      "alert": "OK",
      "vis_m": 9999,
      "fzfg": false,
      "metar_trigger": false,
      "taf_trigger": false,
      "metar": "METAR EGGP 261250Z 12004KT 080V160 9999 FEW035 SCT048TCU 31/20 Q1011",
      "taf": "TAF EGGP 261100Z 2612/2712 18008KT 9999 FEW030"
    },
    {
      "icao": "EGGW",
      "alert": "OK",
      "vis_m": 9999,
      "fzfg": false,
      "metar_trigger": false,
      "taf_trigger": false,
      "metar": "METAR EGGW 261250Z AUTO 24015KT 9999 NCD 33/14 Q1014",
      "taf": "TAF EGGW 261057Z 2612/2712 24012KT CAVOK"
    },
    {
      "icao": "EGKK",
      "alert": "OK",
      "vis_m": 9999,
      "fzfg": false,
      "metar_trigger": false,
      "taf_trigger": false,
      "metar": "METAR EGKK 261250Z 23008KT 190V260 CAVOK 31/20 Q1015",
      "taf": "TAF EGKK 261057Z 2612/2718 22010KT CAVOK"
    },
    {
      "icao": "EGNM",
      "alert": "OK",
      "vis_m": 9999,
      "fzfg": false,
      "metar_trigger": false,
      "taf_trigger": false,
      "metar": "METAR EGNM 261250Z 10005KT 030V150 CAVOK 28/22 Q1013",
      "taf": ""
    },
    {
      "icao": "EGPD",
      "alert": "OK",
      "vis_m": 9999,
      "fzfg": false,
      "metar_trigger": false,
      "taf_trigger": false,
      "metar": "METAR EGPD 261250Z AUTO 01008KT 9999 BKN013 OVC031 17/13 Q1015",
      "taf": "TAF EGPD 261056Z 2612/2712 02010KT 9999 SCT020"
    },
    {
      "icao": "EGPF",
      "alert": "OK",
      "vis_m": 9999,
      "fzfg": false,
      "metar_trigger": false,
      "taf_trigger": false,
      "metar": "METAR EGPF 261250Z AUTO 07011KT 9999 VCTS FEW018/// BKN048/// //////CB 23/19 Q1012",
      "taf": "TAF EGPF 261052Z 2612/2712 06010KT 9999 SCT035"
    },
    {
      "icao": "EHBK",
      "alert": "OK",
      "vis_m": 9999,
      "fzfg": false,
      "metar_trigger": false,
      "taf_trigger": false,
      "metar": "METAR EHBK 261255Z AUTO 19004KT 120V250 9999 NSC 37/20 Q1015 NOSIG",
      "taf": "TAF EHBK 261108Z 2612/2718 19005KT CAVOK"
    },
    {
      "icao": "EHEH",
      "alert": "OK",
      "vis_m": 9999,
      "fzfg": false,
      "metar_trigger": false,
      "taf_trigger": false,
      "metar": "METAR EHEH 261255Z AUTO 16006KT 9999 NCD 38/17 Q1014 BLU NOSIG RMK TREND REMOTE BY EHWX",
      "taf": "TAF EHEH 261158Z 2612/2718 12006KT CAVOK"
    },
    {
      "icao": "EKBI",
      "alert": "OK",
      "vis_m": 9999,
      "fzfg": false,
      "metar_trigger": false,
      "taf_trigger": false,
      "metar": "METAR EKBI 261250Z AUTO 17006KT 120V230 9999 NCD 30/13 Q1018",
      "taf": "TAF EKBI 261127Z 2612/2712 16008KT CAVOK"
    },
    {
      "icao": "EKCH",
      "alert": "OK",
      "vis_m": 9999,
      "fzfg": false,
      "metar_trigger": false,
      "taf_trigger": false,
      "metar": "METAR EKCH 261250Z AUTO 17010KT 9999 NCD 24/15 Q1020 NOSIG",
      "taf": "TAF EKCH 261127Z 2612/2712 17008KT CAVOK"
    },
    {
      "icao": "ENAL",
      "alert": "OK",
      "vis_m": 6000,
      "fzfg": false,
      "metar_trigger": false,
      "taf_trigger": false,
      "metar": "METAR ENAL 261250Z 25016KT 6000 -DZRA SCT010 BKN022 14/13 Q1014",
      "taf": "TAF ENAL 261100Z 2612/2621 16005KT 9999 -RA SCT010 BKN030"
    },
    {
      "icao": "ENBR",
      "alert": "OK",
      "vis_m": 9999,
      "fzfg": false,
      "metar_trigger": false,
      "taf_trigger": false,
      "metar": "METAR ENBR 261250Z 19011KT 9999 SCT035 18/14 Q1016 NOSIG RMK WIND 1200FT 21016KT",
      "taf": "TAF ENBR 261100Z 2612/2712 18008KT 9999 -SHRA FEW025TCU BKN040"
    },
    {
      "icao": "ENGM",
      "alert": "OK",
      "vis_m": 9999,
      "fzfg": false,
      "metar_trigger": false,
      "taf_trigger": false,
      "metar": "METAR ENGM 261250Z 22012KT CAVOK 22/12 Q1014 NOSIG",
      "taf": "TAF ENGM 261100Z 2612/2712 20012KT CAVOK"
    },
    {
      "icao": "ENHD",
      "alert": "OK",
      "vis_m": 9999,
      "fzfg": false,
      "metar_trigger": false,
      "taf_trigger": false,
      "metar": "METAR ENHD 261250Z VRB01KT 9999 BKN045 18/12 Q1017",
      "taf": "TAF ENHD 261100Z 2612/2621 22008KT 9999 FEW020 SCT040"
    },
    {
      "icao": "ENTC",
      "alert": "OK",
      "vis_m": 9999,
      "fzfg": false,
      "metar_trigger": false,
      "taf_trigger": false,
      "metar": "METAR ENTC 261250Z 18008KT 9999 -RA SCT029 BKN036 12/09 Q1010 TEMPO -RADZ FEW010 BKN014 RMK WIND 2600FT 20012KT",
      "taf": "TAF ENTC 261100Z 2612/2712 20009KT 9999 -DZRA SCT006 BKN016"
    },
    {
      "icao": "ENTO",
      "alert": "OK",
      "vis_m": 9999,
      "fzfg": false,
      "metar_trigger": false,
      "taf_trigger": false,
      "metar": "METAR ENTO 261250Z 18011KT 150V210 CAVOK 20/16 Q1015 NOSIG",
      "taf": "TAF ENTO 261100Z 2612/2712 19012KT CAVOK"
    },
    {
      "icao": "ENVA",
      "alert": "OK",
      "vis_m": 9999,
      "fzfg": false,
      "metar_trigger": false,
      "taf_trigger": false,
      "metar": "METAR ENVA 261250Z 27006KT 9999 -RA FEW008 SCT017 OVC050 14/13 Q1013 TEMPO BKN009 RMK WIND 670FT 29003KT",
      "taf": "TAF ENVA 261100Z 2612/2712 VRB05KT 9999 FEW008 BKN025"
    },
    {
      "icao": "ENZV",
      "alert": "OK",
      "vis_m": 9999,
      "fzfg": false,
      "metar_trigger": false,
      "taf_trigger": false,
      "metar": "METAR ENZV 261250Z 21016KT CAVOK 22/13 Q1017 TEMPO SHRA BKN030CB",
      "taf": ""
    },
    {
      "icao": "EPGD",
      "alert": "OK",
      "vis_m": 9999,
      "fzfg": false,
      "metar_trigger": false,
      "taf_trigger": false,
      "metar": "METAR EPGD 261300Z 04007KT 020V090 9999 FEW035 26/17 Q1021",
      "taf": "TAF EPGD 261130Z 2612/2712 07010KT CAVOK"
    },
    {
      "icao": "EPKK",
      "alert": "OK",
      "vis_m": 9999,
      "fzfg": false,
      "metar_trigger": false,
      "taf_trigger": false,
      "metar": "METAR EPKK 261300Z 36006KT 330V060 9999 FEW065 32/16 Q1019",
      "taf": ""
    },
    {
      "icao": "EPKT",
      "alert": "OK",
      "vis_m": 9999,
      "fzfg": false,
      "metar_trigger": false,
      "taf_trigger": false,
      "metar": "METAR EPKT 261300Z 29007KT 260V030 CAVOK 32/12 Q1020",
      "taf": "TAF EPKT 261130Z 2612/2712 32010KT CAVOK"
    },
    {
      "icao": "EPLB",
      "alert": "OK",
      "vis_m": 9999,
      "fzfg": false,
      "metar_trigger": false,
      "taf_trigger": false,
      "metar": "METAR EPLB 261300Z 35004KT 320V030 CAVOK 31/14 Q1018",
      "taf": "TAF EPLB 261130Z 2612/2712 02010KT CAVOK"
    },
    {
      "icao": "EPMO",
      "alert": "OK",
      "vis_m": 9999,
      "fzfg": false,
      "metar_trigger": false,
      "taf_trigger": false,
      "metar": "METAR EPMO 261300Z 05007KT 340V110 CAVOK 30/15 Q1019",
      "taf": "TAF EPMO 261130Z 2612/2712 04006KT CAVOK"
    },
    {
      "icao": "EPPO",
      "alert": "OK",
      "vis_m": 9999,
      "fzfg": false,
      "metar_trigger": false,
      "taf_trigger": false,
      "metar": "METAR EPPO 261300Z 34005KT 290V350 CAVOK 30/14 Q1020",
      "taf": "TAF EPPO 261130Z 2612/2712 VRB02KT CAVOK"
    },
    {
      "icao": "EPRA",
      "alert": "OK",
      "vis_m": 9999,
      "fzfg": false,
      "metar_trigger": false,
      "taf_trigger": false,
      "metar": "METAR EPRA 261300Z 36007KT 300V040 CAVOK 32/09 Q1018",
      "taf": "TAF EPRA 261130Z 2612/2621 02006KT CAVOK"
    },
    {
      "icao": "EPRZ",
      "alert": "OK",
      "vis_m": 9999,
      "fzfg": false,
      "metar_trigger": false,
      "taf_trigger": false,
      "metar": "METAR EPRZ 261300Z 32008KT 250V350 CAVOK 32/15 Q1018",
      "taf": "TAF EPRZ 261130Z 2612/2712 30010KT CAVOK"
    },
    {
      "icao": "EPSC",
      "alert": "OK",
      "vis_m": 9999,
      "fzfg": false,
      "metar_trigger": false,
      "taf_trigger": false,
      "metar": "METAR EPSC 261300Z 30003KT 210V010 CAVOK 31/12 Q1020",
      "taf": "TAF EPSC 261130Z 2612/2712 VRB04KT CAVOK"
    },
    {
      "icao": "EPSY",
      "alert": "OK",
      "vis_m": 9999,
      "fzfg": false,
      "metar_trigger": false,
      "taf_trigger": false,
      "metar": "METAR EPSY 261300Z 04006KT 360V100 CAVOK 28/16 Q1020",
      "taf": "TAF EPSY 261130Z 2612/2621 VRB02KT CAVOK"
    },
    {
      "icao": "EPWA",
      "alert": "OK",
      "vis_m": 9999,
      "fzfg": false,
      "metar_trigger": false,
      "taf_trigger": false,
      "metar": "METAR EPWA 261300Z VRB06KT CAVOK 31/14 Q1019 NOSIG",
      "taf": "TAF EPWA 261130Z 2612/2712 01010KT CAVOK"
    },
    {
      "icao": "EPWR",
      "alert": "OK",
      "vis_m": 9999,
      "fzfg": false,
      "metar_trigger": false,
      "taf_trigger": false,
      "metar": "METAR EPWR 261300Z VRB04KT CAVOK 31/16 Q1020",
      "taf": "TAF EPWR 261130Z 2612/2712 VRB02KT CAVOK"
    },
    {
      "icao": "ESGG",
      "alert": "OK",
      "vis_m": 9999,
      "fzfg": false,
      "metar_trigger": false,
      "taf_trigger": false,
      "metar": "METAR ESGG 261250Z 23010KT CAVOK 25/11 Q1018",
      "taf": "TAF ESGG 261130Z 2612/2712 19012KT CAVOK"
    },
    {
      "icao": "ESKN",
      "alert": "OK",
      "vis_m": 9999,
      "fzfg": false,
      "metar_trigger": false,
      "taf_trigger": false,
      "metar": "METAR ESKN 261250Z 15011KT 9999 FEW040 24/17 Q1017",
      "taf": "TAF ESKN 261130Z 2612/2712 17012G24KT CAVOK"
    },
    {
      "icao": "ESMS",
      "alert": "OK",
      "vis_m": 9999,
      "fzfg": false,
      "metar_trigger": false,
      "taf_trigger": false,
      "metar": "METAR ESMS 261250Z 20008KT CAVOK 28/14 Q1019",
      "taf": "TAF ESMS 261127Z 2612/2712 19006KT CAVOK"
    },
    {
      "icao": "ESSA",
      "alert": "OK",
      "vis_m": 9999,
      "fzfg": false,
      "metar_trigger": false,
      "taf_trigger": false,
      "metar": "METAR ESSA 261250Z 20016KT CAVOK 22/10 Q1017 NOSIG",
      "taf": "TAF ESSA 261130Z 2612/2712 21015G25KT CAVOK"
    },
    {
      "icao": "EYKA",
      "alert": "OK",
      "vis_m": 9999,
      "fzfg": false,
      "metar_trigger": false,
      "taf_trigger": false,
      "metar": "METAR EYKA 261320Z 35005KT 290V080 9999 FEW042 26/17 Q1019",
      "taf": "TAF EYKA 261100Z 2612/2712 VRB03KT 9000 SCT045"
    },
    {
      "icao": "EYPA",
      "alert": "OK",
      "vis_m": 9999,
      "fzfg": false,
      "metar_trigger": false,
      "taf_trigger": false,
      "metar": "METAR EYPA 261320Z VRB03KT CAVOK 24/14 Q1020",
      "taf": "TAF EYPA 261100Z 2612/2712 VRB03KT 8000 NSC"
    },
    {
      "icao": "EYVI",
      "alert": "OK",
      "vis_m": 9999,
      "fzfg": false,
      "metar_trigger": false,
      "taf_trigger": false,
      "metar": "METAR EYVI 261320Z 34009KT 310V010 CAVOK 26/13 Q1018 NOSIG",
      "taf": "TAF EYVI 261100Z 2612/2712 34010KT 9000 NSC"
    },
    {
      "icao": "GCFV",
      "alert": "OK",
      "vis_m": 9999,
      "fzfg": false,
      "metar_trigger": false,
      "taf_trigger": false,
      "metar": "METAR GCFV 261300Z 05014KT 9999 FEW030 25/19 Q1019",
      "taf": "TAF GCFV 260800Z 2609/2709 04011KT 9999 FEW025 TX26/2614Z TN20/2706Z"
    },
    {
      "icao": "GCLP",
      "alert": "OK",
      "vis_m": 9999,
      "fzfg": false,
      "metar_trigger": false,
      "taf_trigger": false,
      "metar": "METAR GCLP 261300Z 03024KT 9999 FEW025 26/18 Q1019 NOSIG",
      "taf": "TAF GCLP 260800Z 2609/2709 03021KT 9999 FEW030 TX26/2614Z TN20/2706Z"
    },
    {
      "icao": "GCTS",
      "alert": "OK",
      "vis_m": 9999,
      "fzfg": false,
      "metar_trigger": false,
      "taf_trigger": false,
      "metar": "METAR GCTS 261300Z 16007KT 110V210 9999 FEW033 26/17 Q1021 NOSIG",
      "taf": ""
    },
    {
      "icao": "GMAD",
      "alert": "OK",
      "vis_m": 9999,
      "fzfg": false,
      "metar_trigger": false,
      "taf_trigger": false,
      "metar": "METAR GMAD 261300Z 26012KT 230V300 CAVOK 27/17 Q1016 NOSIG",
      "taf": "TAF GMAD 261100Z 2612/2718 22003KT 9999 FEW016"
    },
    {
      "icao": "GMMN",
      "alert": "OK",
      "vis_m": 9999,
      "fzfg": false,
      "metar_trigger": false,
      "taf_trigger": false,
      "metar": "METAR GMMN 261300Z 01012KT 330V040 9999 SCT020 28/20 Q1018 NOSIG",
      "taf": "TAF GMMN 261100Z 2612/2718 01010KT CAVOK"
    },
    {
      "icao": "GMMX",
      "alert": "OK",
      "vis_m": 9999,
      "fzfg": false,
      "metar_trigger": false,
      "taf_trigger": false,
      "metar": "METAR GMMX 261300Z 32007KT 250V020 CAVOK 33/16 Q1017 NOSIG",
      "taf": "TAF GMMX 261100Z 2612/2718 28006KT 8000 NSC"
    },
    {
      "icao": "HEGN",
      "alert": "OK",
      "vis_m": 9999,
      "fzfg": false,
      "metar_trigger": false,
      "taf_trigger": false,
      "metar": "METAR HEGN 261300Z 36018KT CAVOK 36/08 Q1006 NOSIG",
      "taf": "TAF HEGN 261100Z 2612/2718 36010G22KT CAVOK"
    },
    {
      "icao": "HEMA",
      "alert": "OK",
      "vis_m": 9999,
      "fzfg": false,
      "metar_trigger": false,
      "taf_trigger": false,
      "metar": "METAR HEMA 261300Z 35017KT CAVOK 34/12 Q1006 NOSIG",
      "taf": "TAF HEMA 261100Z 2612/2718 35012G24KT CAVOK"
    },
    {
      "icao": "HESH",
      "alert": "OK",
      "vis_m": 9999,
      "fzfg": false,
      "metar_trigger": false,
      "taf_trigger": false,
      "metar": "METAR HESH 261300Z 01012KT CAVOK 36/12 Q1006 NOSIG",
      "taf": "TAF HESH 261100Z 2612/2718 02014KT CAVOK"
    },
    {
      "icao": "HESX",
      "alert": "OK",
      "vis_m": 9999,
      "fzfg": false,
      "metar_trigger": false,
      "taf_trigger": false,
      "metar": "METAR HESX 261300Z 03006KT CAVOK 34/14 Q1010 NOSIG",
      "taf": "TAF HESX 261100Z 2612/2718 35010KT CAVOK"
    },
    {
      "icao": "LATI",
      "alert": "OK",
      "vis_m": 9999,
      "fzfg": false,
      "metar_trigger": false,
      "taf_trigger": false,
      "metar": "METAR LATI 261320Z 33009KT 300V010 9999 FEW040CB 33/22 Q1015 NOSIG",
      "taf": "TAF LATI 261100Z 2612/2712 32012KT 9999 SCT040 TX37/2712Z TN21/2704Z"
    },
    {
      "icao": "LBPD",
      "alert": "OK",
      "vis_m": 9999,
      "fzfg": false,
      "metar_trigger": false,
      "taf_trigger": false,
      "metar": "METAR LBPD 261300Z AUTO 12008KT 9999 FEW074/// BKN150/// 29/19 Q1016 TEMPO TSRA FEW030CB",
      "taf": "TAF LBPD 261100Z 2612/2712 13010KT 9999 SCT070"
    },
    {
      "icao": "LBSF",
      "alert": "OK",
      "vis_m": 9999,
      "fzfg": false,
      "metar_trigger": false,
      "taf_trigger": false,
      "metar": "METAR LBSF 261300Z 36008KT 320V060 9999 SCT076 31/16 Q1018 NOSIG",
      "taf": "TAF LBSF 261100Z 2612/2712 04010KT 9999 SCT060"
    },
    {
      "icao": "LBWN",
      "alert": "OK",
      "vis_m": 9999,
      "fzfg": false,
      "metar_trigger": false,
      "taf_trigger": false,
      "metar": "METAR LBWN 261300Z 12013KT 9999 FEW042 30/16 Q1016 NOSIG",
      "taf": "TAF LBWN 261100Z 2612/2712 11012KT 9999 SCT045"
    },
    {
      "icao": "LCLK",
      "alert": "OK",
      "vis_m": 9999,
      "fzfg": false,
      "metar_trigger": false,
      "taf_trigger": false,
      "metar": "METAR LCLK 261300Z 20011KT 9999 FEW025 32/23 Q1007 NOSIG",
      "taf": "TAF LCLK 261130Z 2612/2712 22016KT 9999 FEW012"
    },
    {
      "icao": "LCPH",
      "alert": "OK",
      "vis_m": 9999,
      "fzfg": false,
      "metar_trigger": false,
      "taf_trigger": false,
      "metar": "METAR LCPH 261300Z 31015KT 260V320 9999 FEW030 27/23 Q1007 NOSIG",
      "taf": "TAF LCPH 261130Z 2612/2712 29012KT 9999 FEW012"
    },
    {
      "icao": "LEAL",
      "alert": "OK",
      "vis_m": 9999,
      "fzfg": false,
      "metar_trigger": false,
      "taf_trigger": false,
      "metar": "METAR LEAL 261300Z 10007KT 060V150 9999 FEW018 SCT028 29/20 Q1017 NOSIG",
      "taf": "TAF LEAL 261100Z 2612/2712 10010KT 9999 SCT020 TX30/2612Z TN22/2706Z"
    },
    {
      "icao": "LEBB",
      "alert": "OK",
      "vis_m": 9999,
      "fzfg": false,
      "metar_trigger": false,
      "taf_trigger": false,
      "metar": "METAR LEBB 261300Z VRB06G16KT CAVOK 35/16 Q1015 NOSIG",
      "taf": "TAF LEBB 261100Z 2612/2712 30008KT 9999 FEW040 TX32/2612Z TN20/2703Z"
    },
    {
      "icao": "LEBL",
      "alert": "OK",
      "vis_m": 9999,
      "fzfg": false,
      "metar_trigger": false,
      "taf_trigger": false,
      "metar": "METAR LEBL 261300Z 20008KT 160V220 CAVOK 30/21 Q1018 NOSIG",
      "taf": "TAF LEBL 261100Z 2612/2712 20010KT CAVOK TX33/2612Z TN23/2705Z"
    },
    {
      "icao": "LECH",
      "alert": "OK",
      "vis_m": 9999,
      "fzfg": false,
      "metar_trigger": false,
      "taf_trigger": false,
      "metar": "METAR LECH 261300Z AUTO 12006KT 060V160 CAVOK 28/18 Q1019",
      "taf": "TAF LECH 261100Z 2612/2712 12008KT 9999 FEW020 TX33/2612Z TN18/2706Z"
    },
    {
      "icao": "LEMD",
      "alert": "OK",
      "vis_m": 9999,
      "fzfg": false,
      "metar_trigger": false,
      "taf_trigger": false,
      "metar": "METAR LEMD 261300Z 14006KT 9999 FEW075 31/11 Q1019 NOSIG",
      "taf": "TAF LEMD 261100Z 2612/2718 22010KT CAVOK TX34/2616Z TN19/2706Z"
    },
    {
      "icao": "LEMG",
      "alert": "OK",
      "vis_m": 9999,
      "fzfg": false,
      "metar_trigger": false,
      "taf_trigger": false,
      "metar": "METAR LEMG 261300Z 12012KT 080V150 CAVOK 29/19 Q1016 NOSIG",
      "taf": "TAF LEMG 261100Z 2612/2712 14010KT CAVOK TX33/2613Z TN22/2705Z"
    },
    {
      "icao": "LEVC",
      "alert": "OK",
      "vis_m": 9999,
      "fzfg": false,
      "metar_trigger": false,
      "taf_trigger": false,
      "metar": "METAR LEVC 261300Z 10010KT 070V140 9999 FEW030 31/20 Q1017 NOSIG",
      "taf": "TAF LEVC 261100Z 2612/2712 09010KT 9999 SCT020 TX31/2612Z TN21/2706Z"
    },
    {
      "icao": "LEXJ",
      "alert": "OK",
      "vis_m": 9999,
      "fzfg": false,
      "metar_trigger": false,
      "taf_trigger": false,
      "metar": "METAR LEXJ 261300Z 02006KT 320V120 9999 FEW040 25/22 Q1016",
      "taf": "TAF LEXJ 260800Z 2609/2709 VRB03KT 9999 FEW040 TX29/2612Z TN20/2706Z"
    },
    {
      "icao": "LEZG",
      "alert": "OK",
      "vis_m": 9999,
      "fzfg": false,
      "metar_trigger": false,
      "taf_trigger": false,
      "metar": "METAR LEZG 261300Z 08010KT 050V140 CAVOK 36/11 Q1015 NOSIG",
      "taf": "TAF LEZG 261100Z 2612/2712 VRB04KT CAVOK TX39/2615Z TN22/2706Z"
    },
    {
      "icao": "LEZL",
      "alert": "OK",
      "vis_m": 9999,
      "fzfg": false,
      "metar_trigger": false,
      "taf_trigger": false,
      "metar": "METAR LEZL 261300Z 31005KT 260V020 CAVOK 30/16 Q1017 NOSIG",
      "taf": "TAF LEZL 260800Z 2609/2709 VRB02KT CAVOK TX33/2615Z TN20/2705Z"
    },
    {
      "icao": "LFBD",
      "alert": "OK",
      "vis_m": 9999,
      "fzfg": false,
      "metar_trigger": false,
      "taf_trigger": false,
      "metar": "METAR LFBD 261300Z AUTO 06006KT 030V090 CAVOK 33/21 Q1016 BECMG 30010KT",
      "taf": "TAF LFBD 261100Z 2612/2718 08005KT CAVOK TX37/2712Z TN26/2705Z"
    },
    {
      "icao": "LFLL",
      "alert": "OK",
      "vis_m": 9999,
      "fzfg": false,
      "metar_trigger": false,
      "taf_trigger": false,
      "metar": "METAR LFLL 261300Z 21007KT 160V260 CAVOK 37/12 Q1017 NOSIG",
      "taf": "TAF LFLL 261100Z 2612/2718 18008KT CAVOK"
    },
    {
      "icao": "LFLS",
      "alert": "OK",
      "vis_m": 9999,
      "fzfg": false,
      "metar_trigger": false,
      "taf_trigger": false,
      "metar": "METAR LFLS 261300Z AUTO 23006KT 190V280 CAVOK 36/12 Q1019 NOSIG",
      "taf": "TAF LFLS 260800Z 2609/2709 09008KT CAVOK"
    },
    {
      "icao": "LFMN",
      "alert": "OK",
      "vis_m": 9999,
      "fzfg": false,
      "metar_trigger": false,
      "taf_trigger": false,
      "metar": "METAR LFMN 261300Z 12005KT CAVOK 30/25 Q1018 NOSIG",
      "taf": "TAF LFMN 260800Z 2609/2715 13006KT CAVOK"
    },
    {
      "icao": "LFOB",
      "alert": "OK",
      "vis_m": 9999,
      "fzfg": false,
      "metar_trigger": false,
      "taf_trigger": false,
      "metar": "METAR LFOB 261300Z AUTO 32010KT 9999 ///CB 32/18 Q1017 TEMPO VRB15G28KT 2000 TSRAGR",
      "taf": "TAF LFOB 261100Z 2612/2712 33012KT CAVOK"
    },
    {
      "icao": "LFPO",
      "alert": "OK",
      "vis_m": 9999,
      "fzfg": false,
      "metar_trigger": false,
      "taf_trigger": false,
      "metar": "METAR LFPO 261230Z 28010KT 240V330 9999 SCT110CB BKN260 36/14 Q1017 TEMPO TS BKN050CB",
      "taf": "TAF LFPO 261100Z 2612/2718 30007KT CAVOK"
    },
    {
      "icao": "LFSB",
      "alert": "OK",
      "vis_m": 9999,
      "fzfg": false,
      "metar_trigger": false,
      "taf_trigger": false,
      "metar": "METAR LFSB 261300Z AUTO VRB04KT CAVOK 39/14 Q1017 TEMPO FEW100CB",
      "taf": "TAF LFSB 261100Z 2612/2712 VRB04KT CAVOK"
    },
    {
      "icao": "LGAV",
      "alert": "OK",
      "vis_m": 9999,
      "fzfg": false,
      "metar_trigger": false,
      "taf_trigger": false,
      "metar": "METAR LGAV 261250Z 01021KT 9999 FEW025 33/11 Q1013 NOSIG",
      "taf": "TAF LGAV 261100Z 2612/2712 04018G28KT 9999 FEW025"
    },
    {
      "icao": "LGTS",
      "alert": "OK",
      "vis_m": 9999,
      "fzfg": false,
      "metar_trigger": false,
      "taf_trigger": false,
      "metar": "METAR LGTS 261250Z 27007KT 9999 FEW020TCU SCT030 34/18 Q1014 NOSIG",
      "taf": "TAF LGTS 261100Z 2612/2712 VRB03KT 9999 FEW025"
    },
    {
      "icao": "LHBP",
      "alert": "OK",
      "vis_m": 9999,
      "fzfg": false,
      "metar_trigger": false,
      "taf_trigger": false,
      "metar": "METAR LHBP 261300Z 06004KT 350V140 CAVOK 35/12 Q1018 NOSIG",
      "taf": "TAF LHBP 261115Z 2612/2712 VRB05KT CAVOK"
    },
    {
      "icao": "LHDC",
      "alert": "OK",
      "vis_m": 9999,
      "fzfg": false,
      "metar_trigger": false,
      "taf_trigger": false,
      "metar": "METAR LHDC 261245Z AUTO VRB06G18KT 9999 ////// 34/14 Q1018 NOSIG",
      "taf": "TAF LHDC 261115Z 2612/2621 04008KT CAVOK"
    },
    {
      "icao": "LIBD",
      "alert": "OK",
      "vis_m": 9999,
      "fzfg": false,
      "metar_trigger": false,
      "taf_trigger": false,
      "metar": "METAR LIBD 261250Z 01007KT 330V060 CAVOK 30/18 Q1016",
      "taf": "TAF LIBD 261100Z 2612/2712 04010KT CAVOK"
    },
    {
      "icao": "LIBG",
      "alert": "OK",
      "vis_m": 9999,
      "fzfg": false,
      "metar_trigger": false,
      "taf_trigger": false,
      "metar": "METAR LIBG 261250Z AUTO 02010KT 9999 NCD 34/15 Q1015",
      "taf": "TAF LIBG 261100Z 2612/2712 03012KT 9999 SCT030"
    },
    {
      "icao": "LIBP",
      "alert": "OK",
      "vis_m": 9999,
      "fzfg": false,
      "metar_trigger": false,
      "taf_trigger": false,
      "metar": "METAR LIBP 261250Z AUTO 05008KT 020V080 9999 NCD 32/19 Q1017",
      "taf": "TAF LIBP 261100Z 2612/2712 04010KT 9999 FEW030"
    },
    {
      "icao": "LIBR",
      "alert": "OK",
      "vis_m": 9999,
      "fzfg": false,
      "metar_trigger": false,
      "taf_trigger": false,
      "metar": "METAR LIBR 261250Z 36013KT CAVOK 28/25 Q1016",
      "taf": "TAF LIBR 261100Z 2612/2712 34013KT 9999 SCT020"
    },
    {
      "icao": "LICA",
      "alert": "OK",
      "vis_m": 9999,
      "fzfg": false,
      "metar_trigger": false,
      "taf_trigger": false,
      "metar": "METAR LICA 261250Z AUTO 24009KT 210V270 9999 NCD 29/24 Q1017",
      "taf": "TAF LICA 261100Z 2612/2712 26012KT 9999 SCT030"
    },
    {
      "icao": "LICC",
      "alert": "OK",
      "vis_m": 9999,
      "fzfg": false,
      "metar_trigger": false,
      "taf_trigger": false,
      "metar": "METAR LICC 261250Z 08007KT 050V110 9999 FEW060 SCT130 31/22 Q1016",
      "taf": "TAF LICC 261100Z 2612/2712 08012KT 9999 SCT050"
    },
    {
      "icao": "LICJ",
      "alert": "OK",
      "vis_m": 9999,
      "fzfg": false,
      "metar_trigger": false,
      "taf_trigger": false,
      "metar": "METAR LICJ 261250Z 03011KT 9999 FEW020 29/24 Q1017",
      "taf": "TAF LICJ 261100Z 2612/2712 04017KT 9999 FEW020"
    },
    {
      "icao": "LIMC",
      "alert": "OK",
      "vis_m": 9999,
      "fzfg": false,
      "metar_trigger": false,
      "taf_trigger": false,
      "metar": "METAR LIMC 261250Z 23007KT 180V300 9999 FEW060 34/20 Q1018 NOSIG",
      "taf": "TAF LIMC 261100Z 2612/2718 VRB06KT 9999 FEW050"
    },
    {
      "icao": "LIME",
      "alert": "OK",
      "vis_m": 9999,
      "fzfg": false,
      "metar_trigger": false,
      "taf_trigger": false,
      "metar": "METAR LIME 261250Z 22007KT 130V250 9999 FEW045 33/20 Q1018 NOSIG",
      "taf": "TAF LIME 261100Z 2612/2712 VRB05KT 9999 SCT060"
    },
    {
      "icao": "LIMF",
      "alert": "OK",
      "vis_m": 9999,
      "fzfg": false,
      "metar_trigger": false,
      "taf_trigger": false,
      "metar": "METAR LIMF 261250Z VRB03KT CAVOK 35/20 Q1019",
      "taf": "TAF LIMF 261100Z 2612/2712 VRB05KT CAVOK"
    },
    {
      "icao": "LIMJ",
      "alert": "OK",
      "vis_m": 9999,
      "fzfg": false,
      "metar_trigger": false,
      "taf_trigger": false,
      "metar": "METAR LIMJ 261250Z 22003KT 9999 FEW035 29/24 Q1018",
      "taf": "TAF LIMJ 261100Z 2612/2712 19010KT CAVOK"
    },
    {
      "icao": "LIPE",
      "alert": "OK",
      "vis_m": 9999,
      "fzfg": false,
      "metar_trigger": false,
      "taf_trigger": false,
      "metar": "METAR LIPE 261250Z 13006KT 030V180 CAVOK 35/15 Q1017",
      "taf": "TAF LIPE 261100Z 2612/2712 10010KT 9999 FEW040"
    },
    {
      "icao": "LIPH",
      "alert": "OK",
      "vis_m": 9999,
      "fzfg": false,
      "metar_trigger": false,
      "taf_trigger": false,
      "metar": "METAR LIPH 261250Z 14007KT 090V190 CAVOK 35/14 Q1017",
      "taf": "TAF LIPH 261100Z 2612/2712 15010KT 9999 SCT040"
    },
    {
      "icao": "LIPQ",
      "alert": "OK",
      "vis_m": 9999,
      "fzfg": false,
      "metar_trigger": false,
      "taf_trigger": false,
      "metar": "METAR LIPQ 261250Z AUTO 28006KT 250V310 9999 NCD 35/17 Q1017",
      "taf": "TAF LIPQ 261100Z 2612/2712 20010KT 9999 SCT040"
    },
    {
      "icao": "LIPR",
      "alert": "OK",
      "vis_m": 9999,
      "fzfg": false,
      "metar_trigger": false,
      "taf_trigger": false,
      "metar": "METAR LIPR 261250Z 01007KT 340V050 CAVOK 31/21 Q1018",
      "taf": "TAF LIPR 261100Z 2612/2712 06010KT CAVOK"
    },
    {
      "icao": "LIPX",
      "alert": "OK",
      "vis_m": 9999,
      "fzfg": false,
      "metar_trigger": false,
      "taf_trigger": false,
      "metar": "METAR LIPX 261250Z 25005KT 200V320 CAVOK 36/16 Q1017",
      "taf": "TAF LIPX 261100Z 2612/2712 VRB05KT CAVOK"
    },
    {
      "icao": "LIPY",
      "alert": "OK",
      "vis_m": 9999,
      "fzfg": false,
      "metar_trigger": false,
      "taf_trigger": false,
      "metar": "METAR LIPY 261250Z AUTO 36009KT 9999 NCD 31/17 Q1017",
      "taf": "TAF LIPY 261100Z 2612/2712 01010KT CAVOK"
    },
    {
      "icao": "LIPZ",
      "alert": "OK",
      "vis_m": 9999,
      "fzfg": false,
      "metar_trigger": false,
      "taf_trigger": false,
      "metar": "METAR LIPZ 261250Z 14006KT CAVOK 34/13 Q1017 NOSIG",
      "taf": "TAF LIPZ 261100Z 2612/2718 15010KT CAVOK"
    },
    {
      "icao": "LIRF",
      "alert": "OK",
      "vis_m": 9999,
      "fzfg": false,
      "metar_trigger": false,
      "taf_trigger": false,
      "metar": "METAR LIRF 261250Z 25010KT 220V280 CAVOK 31/23 Q1016 NOSIG",
      "taf": "TAF LIRF 261100Z 2612/2718 26012KT CAVOK"
    },
    {
      "icao": "LIRN",
      "alert": "OK",
      "vis_m": 9999,
      "fzfg": false,
      "metar_trigger": false,
      "taf_trigger": false,
      "metar": "METAR LIRN 261250Z 18008KT 110V210 CAVOK 32/17 Q1016 NOSIG",
      "taf": "TAF LIRN 261100Z 2612/2712 25012KT CAVOK"
    },
    {
      "icao": "LIRP",
      "alert": "OK",
      "vis_m": 9999,
      "fzfg": false,
      "metar_trigger": false,
      "taf_trigger": false,
      "metar": "METAR LIRP 261245Z 27011KT CAVOK 35/18 Q1017 NOSIG",
      "taf": "TAF LIRP 261100Z 2612/2712 03005KT CAVOK"
    },
    {
      "icao": "LIRZ",
      "alert": "OK",
      "vis_m": 9999,
      "fzfg": false,
      "metar_trigger": false,
      "taf_trigger": false,
      "metar": "METAR LIRZ 261250Z AUTO 05012KT 010V070 9999 NCD 36/10 Q1017",
      "taf": "TAF LIRZ 261100Z 2612/2712 04012KT CAVOK"
    },
    {
      "icao": "LJLJ",
      "alert": "OK",
      "vis_m": 9999,
      "fzfg": false,
      "metar_trigger": false,
      "taf_trigger": false,
      "metar": "METAR LJLJ 261300Z VRB03KT 9999 FEW065 32/14 Q1020 NOSIG",
      "taf": "TAF LJLJ 261100Z 2612/2712 12006KT 9999 FEW060"
    },
    {
      "icao": "LKMT",
      "alert": "OK",
      "vis_m": 9999,
      "fzfg": false,
      "metar_trigger": false,
      "taf_trigger": false,
      "metar": "METAR LKMT 261300Z 01006KT 340V070 CAVOK 32/19 Q1020 NOSIG",
      "taf": "TAF LKMT 261100Z 2612/2712 03007KT CAVOK"
    },
    {
      "icao": "LKPR",
      "alert": "OK",
      "vis_m": 9999,
      "fzfg": false,
      "metar_trigger": false,
      "taf_trigger": false,
      "metar": "METAR LKPR 261300Z VRB04KT CAVOK 34/15 Q1020 NOSIG",
      "taf": "TAF LKPR 261100Z 2612/2718 VRB02KT CAVOK"
    },
    {
      "icao": "LLBG",
      "alert": "OK",
      "vis_m": 9999,
      "fzfg": false,
      "metar_trigger": false,
      "taf_trigger": false,
      "metar": "METAR LLBG 261320Z 29010KT 270V330 9999 FEW029 29/20 Q1009 NOSIG",
      "taf": "TAF LLBG 261103Z 2612/2712 27010KT 9999 FEW030 TX30/2612Z TN21/2703Z"
    },
    {
      "icao": "LMML",
      "alert": "OK",
      "vis_m": 9999,
      "fzfg": false,
      "metar_trigger": false,
      "taf_trigger": false,
      "metar": "METAR LMML 261315Z 13008KT 9999 FEW030 31/21 Q1017 NOSIG",
      "taf": "TAF LMML 261100Z 2612/2712 33009KT 9999 FEW020"
    },
    {
      "icao": "LOWW",
      "alert": "OK",
      "vis_m": 9999,
      "fzfg": false,
      "metar_trigger": false,
      "taf_trigger": false,
      "metar": "METAR LOWW 261250Z VRB05KT CAVOK 34/13 Q1019 NOSIG",
      "taf": "TAF LOWW 261115Z 2612/2718 VRB05KT CAVOK TX37/2714Z TN20/2703Z"
    },
    {
      "icao": "LPFR",
      "alert": "OK",
      "vis_m": 9999,
      "fzfg": false,
      "metar_trigger": false,
      "taf_trigger": false,
      "metar": "METAR LPFR 261300Z 22008KT 180V240 9999 FEW025 24/19 Q1019",
      "taf": "TAF LPFR 261100Z 2612/2712 19007KT 9999 FEW020 SCT030"
    },
    {
      "icao": "LPMA",
      "alert": "OK",
      "vis_m": 9999,
      "fzfg": false,
      "metar_trigger": false,
      "taf_trigger": false,
      "metar": "METAR LPMA 261300Z VRB03KT 9999 BKN013 23/19 Q1021",
      "taf": "TAF LPMA 261100Z 2612/2712 VRB05KT 9999 FEW015 SCT030"
    },
    {
      "icao": "LPPR",
      "alert": "OK",
      "vis_m": 9999,
      "fzfg": false,
      "metar_trigger": false,
      "taf_trigger": false,
      "metar": "METAR LPPR 261300Z 22010KT 9999 FEW016 24/19 Q1018",
      "taf": "TAF LPPR 261100Z 2612/2712 23013KT 9999 SCT015"
    },
    {
      "icao": "LPPS",
      "alert": "OK",
      "vis_m": 9999,
      "fzfg": false,
      "metar_trigger": false,
      "taf_trigger": false,
      "metar": "METAR LPPS 261300Z 25011KT 9999 SCT013 FEW016CB 23/18 Q1021",
      "taf": "TAF LPPS 261100Z 2612/2718 27007KT 9999 SCT015 SCT030"
    },
    {
      "icao": "LPPT",
      "alert": "OK",
      "vis_m": 9999,
      "fzfg": false,
      "metar_trigger": false,
      "taf_trigger": false,
      "metar": "METAR LPPT 261300Z 20011KT 170V240 9999 FEW034 SCT046 25/15 Q1019",
      "taf": "TAF LPPT 261100Z 2612/2718 24010KT 9999 SCT030"
    },
    {
      "icao": "LQBK",
      "alert": "OK",
      "vis_m": 9999,
      "fzfg": false,
      "metar_trigger": false,
      "taf_trigger": false,
      "metar": "METAR LQBK 261300Z VRB06KT CAVOK 34/15 Q1018 NOSIG",
      "taf": "TAF LQBK 261100Z 2612/2712 29005KT CAVOK TX34/2614Z TN18/2703Z"
    },
    {
      "icao": "LQSA",
      "alert": "OK",
      "vis_m": 9999,
      "fzfg": false,
      "metar_trigger": false,
      "taf_trigger": false,
      "metar": "METAR LQSA 261300Z 34005KT 270V030 9999 FEW050 31/16 Q1019 NOSIG",
      "taf": "TAF LQSA 261100Z 2612/2712 32006KT 9999 SCT050 TX33/2614Z TN16/2703Z"
    },
    {
      "icao": "LQTZ",
      "alert": "OK",
      "vis_m": 9999,
      "fzfg": false,
      "metar_trigger": false,
      "taf_trigger": false,
      "metar": "METAR LQTZ 261300Z 06004KT 350V120 9999 SCT065 33/17 Q1018",
      "taf": "TAF LQTZ 261100Z 2612/2712 04005KT CAVOK TX34/2613Z TN16/2703Z"
    },
    {
      "icao": "LRBC",
      "alert": "OK",
      "vis_m": 9999,
      "fzfg": false,
      "metar_trigger": false,
      "taf_trigger": false,
      "metar": "METAR LRBC 261300Z 34008KT 300V020 CAVOK 31/14 Q1017",
      "taf": "TAF LRBC 261100Z 2612/2621 34006KT CAVOK"
    },
    {
      "icao": "LRBS",
      "alert": "OK",
      "vis_m": 9999,
      "fzfg": false,
      "metar_trigger": false,
      "taf_trigger": false,
      "metar": "METAR LRBS 261300Z 10004KT 360V170 CAVOK 34/16 Q1016 NOSIG",
      "taf": "TAF LRBS 261100Z 2612/2712 VRB04KT CAVOK"
    },
    {
      "icao": "LRBV",
      "alert": "OK",
      "vis_m": 9999,
      "fzfg": false,
      "metar_trigger": false,
      "taf_trigger": false,
      "metar": "METAR LRBV 261300Z 29008KT 250V340 9999 FEW066 30/14 Q1019",
      "taf": "TAF LRBV 261100Z 2612/2621 31007KT 9999 SCT050"
    },
    {
      "icao": "LRCL",
      "alert": "OK",
      "vis_m": 9999,
      "fzfg": false,
      "metar_trigger": false,
      "taf_trigger": false,
      "metar": "METAR LRCL 261300Z 34006KT 230V020 9999 FEW060 32/10 Q1018",
      "taf": "TAF LRCL 261100Z 2612/2621 VRB04KT CAVOK"
    },
    {
      "icao": "LRCV",
      "alert": "OK",
      "vis_m": 9999,
      "fzfg": false,
      "metar_trigger": false,
      "taf_trigger": false,
      "metar": "METAR LRCV 261300Z 28004KT 220V020 CAVOK 32/17 Q1017",
      "taf": "TAF LRCV 261100Z 2612/2621 VRB04KT CAVOK"
    },
    {
      "icao": "LRIA",
      "alert": "OK",
      "vis_m": 9999,
      "fzfg": false,
      "metar_trigger": false,
      "taf_trigger": false,
      "metar": "METAR LRIA 261300Z 31011KT CAVOK 31/14 Q1016",
      "taf": "TAF LRIA 261100Z 2612/2621 30008KT CAVOK"
    },
    {
      "icao": "LROP",
      "alert": "OK",
      "vis_m": 9999,
      "fzfg": false,
      "metar_trigger": false,
      "taf_trigger": false,
      "metar": "METAR LROP 261300Z VRB03KT CAVOK 32/15 Q1016 NOSIG",
      "taf": "TAF LROP 261100Z 2612/2712 VRB04KT CAVOK"
    },
    {
      "icao": "LRSB",
      "alert": "OK",
      "vis_m": 9999,
      "fzfg": false,
      "metar_trigger": false,
      "taf_trigger": false,
      "metar": "METAR LRSB 261300Z 36008KT 320V030 CAVOK 31/14 Q1019",
      "taf": "TAF LRSB 261100Z 2612/2712 VRB04KT CAVOK"
    },
    {
      "icao": "LRSM",
      "alert": "OK",
      "vis_m": 9999,
      "fzfg": false,
      "metar_trigger": false,
      "taf_trigger": false,
      "metar": "METAR LRSM 261300Z 34007KT 300V020 CAVOK 34/15 Q1018",
      "taf": "TAF LRSM 261100Z 2612/2621 VRB04KT CAVOK"
    },
    {
      "icao": "LRSV",
      "alert": "OK",
      "vis_m": 9999,
      "fzfg": false,
      "metar_trigger": false,
      "taf_trigger": false,
      "metar": "METAR LRSV 261300Z 33016KT CAVOK 29/14 Q1018",
      "taf": "TAF LRSV 261100Z 2612/2621 33012KT CAVOK"
    },
    {
      "icao": "LRTM",
      "alert": "OK",
      "vis_m": 9999,
      "fzfg": false,
      "metar_trigger": false,
      "taf_trigger": false,
      "metar": "METAR LRTM 261300Z 36006KT 280V030 9999 SCT040 31/18 Q1018",
      "taf": "TAF LRTM 261100Z 2612/2621 VRB04KT 9999 SCT035"
    },
    {
      "icao": "LRTR",
      "alert": "OK",
      "vis_m": 9999,
      "fzfg": false,
      "metar_trigger": false,
      "taf_trigger": false,
      "metar": "METAR LRTR 261300Z 04007KT 360V090 CAVOK 34/11 Q1017",
      "taf": "TAF LRTR 261100Z 2612/2712 05010KT CAVOK"
    },
    {
      "icao": "LTAC",
      "alert": "OK",
      "vis_m": 9999,
      "fzfg": false,
      "metar_trigger": false,
      "taf_trigger": false,
      "metar": "METAR LTAC 261250Z 02010KT 340V060 9999 SCT040 29/08 Q1015 NOSIG RMK RWY21C 04010KT 340V090 RWY03L 35010KT 310V020 RWY21R 35010KT 280V010 RWY03R 03012KT 350V060 RWY21L 04008KT 350V070",
      "taf": "TAF LTAC 261040Z 2612/2712 03012KT 9999 SCT040"
    },
    {
      "icao": "LTFM",
      "alert": "OK",
      "vis_m": 9999,
      "fzfg": false,
      "metar_trigger": false,
      "taf_trigger": false,
      "metar": "METAR LTFM 261250Z 02012KT CAVOK 27/18 Q1015 NOSIG RMK RWY17L 01011KT RWY34L 01012KT RWY16R 01011KT RWY36 03012KT 350V050 RWY18 02010KT",
      "taf": "TAF LTFM 261040Z 2612/2718 04013KT CAVOK"
    },
    {
      "icao": "LUKK",
      "alert": "OK",
      "vis_m": 9999,
      "fzfg": false,
      "metar_trigger": false,
      "taf_trigger": false,
      "metar": "METAR LUKK 261300Z 34008KT CAVOK 29/14 Q1016 NOSIG",
      "taf": "TAF LUKK 261112Z 2612/2712 36009KT CAVOK"
    },
    {
      "icao": "LWOH",
      "alert": "OK",
      "vis_m": 9999,
      "fzfg": false,
      "metar_trigger": false,
      "taf_trigger": false,
      "metar": "METAR LWOH 261320Z 17007KT 130V200 9999 TS FEW035CB SCT050 28/17 Q1019",
      "taf": "TAF LWOH 261125Z 2612/2712 16008KT 9999 FEW035 SCT050"
    },
    {
      "icao": "LWSK",
      "alert": "OK",
      "vis_m": 9999,
      "fzfg": false,
      "metar_trigger": false,
      "taf_trigger": false,
      "metar": "METAR LWSK 261320Z 36005KT 340V040 9999 FEW050 SCT085 32/16 Q1016 NOSIG",
      "taf": "TAF LWSK 261125Z 2612/2712 36010KT 9999 FEW050"
    },
    {
      "icao": "LYBE",
      "alert": "OK",
      "vis_m": 9999,
      "fzfg": false,
      "metar_trigger": false,
      "taf_trigger": false,
      "metar": "METAR LYBE 261300Z 01009KT 340V050 CAVOK 34/14 Q1017 NOSIG",
      "taf": "TAF LYBE 261100Z 2612/2712 01010KT CAVOK TX36/2712Z TN22/2703Z"
    },
    {
      "icao": "LYNI",
      "alert": "OK",
      "vis_m": 9999,
      "fzfg": false,
      "metar_trigger": false,
      "taf_trigger": false,
      "metar": "METAR LYNI 261300Z 33011KT 300V010 9999 FEW060 34/12 Q1017 NOSIG",
      "taf": "TAF LYNI 261100Z 2612/2712 34012KT CAVOK TX35/2712Z TN19/2703Z"
    },
    {
      "icao": "LYPG",
      "alert": "OK",
      "vis_m": 9999,
      "fzfg": false,
      "metar_trigger": false,
      "taf_trigger": false,
      "metar": "METAR LYPG 261300Z 18004KT 120V250 9999 FEW036 FEW043TCU SCT050 35/14 Q1014 TEMPO TS FEW040CB SCT050",
      "taf": "TAF LYPG 261100Z 2612/2712 19010KT 9999 FEW050 TX36/2613Z TN24/2703Z"
    },
    {
      "icao": "LZIB",
      "alert": "OK",
      "vis_m": 9999,
      "fzfg": false,
      "metar_trigger": false,
      "taf_trigger": false,
      "metar": "METAR LZIB 261300Z 05006KT 350V160 CAVOK 35/15 Q1018 NOSIG",
      "taf": "TAF LZIB 261115Z 2612/2712 05007KT CAVOK"
    },
    {
      "icao": "LZKZ",
      "alert": "OK",
      "vis_m": 9999,
      "fzfg": false,
      "metar_trigger": false,
      "taf_trigger": false,
      "metar": "METAR LZKZ 261300Z 36008KT 330V030 CAVOK 33/15 Q1019 NOSIG",
      "taf": "TAF LZKZ 261115Z 2612/2712 03009KT CAVOK"
    },
    {
      "icao": "LZTT",
      "alert": "OK",
      "vis_m": 9999,
      "fzfg": false,
      "metar_trigger": false,
      "taf_trigger": false,
      "metar": "METAR LZTT 261300Z 12006KT 070V210 9999 SCT070 30/14 Q1021 NOSIG",
      "taf": "TAF LZTT 261115Z 2612/2712 06007KT 9999 FEW060"
    },
    {
      "icao": "OEJN",
      "alert": "OK",
      "vis_m": 9999,
      "fzfg": false,
      "metar_trigger": false,
      "taf_trigger": false,
      "metar": "METAR OEJN 261300Z 33017KT CAVOK 38/13 Q1004 NOSIG",
      "taf": "TAF OEJN 261100Z 2612/2718 33016KT CAVOK"
    },
    {
      "icao": "OEMA",
      "alert": "OK",
      "vis_m": 9999,
      "fzfg": false,
      "metar_trigger": false,
      "taf_trigger": false,
      "metar": "METAR OEMA 261300Z 20005KT CAVOK 43/M03 Q1007 NOSIG",
      "taf": "TAF OEMA 261100Z 2612/2718 28012KT CAVOK"
    },
    {
      "icao": "OJAI",
      "alert": "OK",
      "vis_m": 4000,
      "fzfg": false,
      "metar_trigger": false,
      "taf_trigger": false,
      "metar": "METAR OJAI 261300Z 28016KT 4000 BLDU NSC 31/14 Q1012 NOSIG",
      "taf": "TAF OJAI 261040Z 2612/2718 29010KT 5000 HZ NSC"
    },
    {
      "icao": "OMAA",
      "alert": "OK",
      "vis_m": 9999,
      "fzfg": false,
      "metar_trigger": false,
      "taf_trigger": false,
      "metar": "METAR OMAA 261300Z 28014KT CAVOK 37/20 Q1000 NOSIG",
      "taf": "TAF OMAA 261100Z 2612/2718 30012KT 8000 NSC"
    },
    {
      "icao": "OMDB",
      "alert": "OK",
      "vis_m": 9999,
      "fzfg": false,
      "metar_trigger": false,
      "taf_trigger": false,
      "metar": "METAR OMDB 261300Z 27011KT 240V300 CAVOK 37/25 Q0999 NOSIG",
      "taf": "TAF OMDB 261100Z 2612/2718 26010KT 8000 NSC"
    },
    {
      "icao": "UAAA",
      "alert": "OK",
      "vis_m": 9999,
      "fzfg": false,
      "metar_trigger": false,
      "taf_trigger": false,
      "metar": "METAR UAAA 261300Z 03003MPS 9999 SCT050CB BKN100 32/13 Q1007 NOSIG",
      "taf": "TAF UAAA 261103Z 2612/2712 04003G08MPS 9999 FEW050CB SCT100 TX35/2710Z TN19/2701Z"
    },
    {
      "icao": "UBBB",
      "alert": "OK",
      "vis_m": 9999,
      "fzfg": false,
      "metar_trigger": false,
      "taf_trigger": false,
      "metar": "METAR UBBB 261300Z 03010KT 9999 FEW032 28/17 Q1008 NOSIG",
      "taf": "TAF UBBB 261051Z 2612/2712 01008KT 9999 SCT030 TX28/2612Z TN21/2701Z"
    },
    {
      "icao": "UDSG",
      "alert": "OK",
      "vis_m": 9999,
      "fzfg": false,
      "metar_trigger": false,
      "taf_trigger": false,
      "metar": "METAR UDSG 261300Z 32007KT 280V010 9999 FEW049 24/08 Q1015 NOSIG",
      "taf": "TAF UDSG 261100Z 2612/2712 27006KT 9999 SCT050"
    },
    {
      "icao": "UDYZ",
      "alert": "OK",
      "vis_m": 9999,
      "fzfg": false,
      "metar_trigger": false,
      "taf_trigger": false,
      "metar": "METAR UDYZ 261300Z 17007KT 9999 FEW043CB 31/11 Q1008 NOSIG",
      "taf": "TAF UDYZ 261100Z 2612/2712 24006KT 9999 SCT040"
    },
    {
      "icao": "UGKO",
      "alert": "OK",
      "vis_m": 9999,
      "fzfg": false,
      "metar_trigger": false,
      "taf_trigger": false,
      "metar": "METAR UGKO 261300Z 33008KT 300V360 9999 SCT035 BKN050 24/17 Q1012 NOSIG",
      "taf": "TAF UGKO 261100Z 2612/2712 26007KT 9999 SCT020 BKN050 TX26/2612Z TN17/2702Z"
    }
  ]
}