{
  "ts_utc": "2026-06-17T13:51:43Z",
  "threshold_m": 150,
  "source": "stations_override.txt (ICAO list) + aviationweather.gov (METAR/TAF raw)",
  "station_count": 159,
  "stations": [
    {
      "icao": "BIKF",
      "alert": "OK",
      "vis_m": 9999,
      "fzfg": false,
      "metar_trigger": false,
      "taf_trigger": false,
      "metar": "METAR BIKF 171330Z 04014KT CAVOK 12/02 Q1003",
      "taf": "TAF BIKF 171339Z 1715/1815 04010KT 9999 SCT030 TX14/1815Z TN09/1806Z"
    },
    {
      "icao": "BKPR",
      "alert": "OK",
      "vis_m": 9999,
      "fzfg": false,
      "metar_trigger": false,
      "taf_trigger": false,
      "metar": "METAR BKPR 171330Z 01009KT 9999 FEW035CB SCT050 26/09 Q1019 TEMPO -TSRA",
      "taf": "TAF BKPR 171130Z 1712/1812 35008KT 9999 FEW050"
    },
    {
      "icao": "EBCI",
      "alert": "OK",
      "vis_m": 9999,
      "fzfg": false,
      "metar_trigger": false,
      "taf_trigger": false,
      "metar": "METAR EBCI 171320Z 24005KT 200V310 9999 SCT030 24/17 Q1020 NOSIG",
      "taf": "TAF EBCI 171110Z 1712/1818 24007KT 9999 FEW030"
    },
    {
      "icao": "EDDB",
      "alert": "OK",
      "vis_m": 9999,
      "fzfg": false,
      "metar_trigger": false,
      "taf_trigger": false,
      "metar": "METAR EDDB 171320Z AUTO 27008KT 210V010 CAVOK 24/11 Q1018 NOSIG",
      "taf": "TAF EDDB 171100Z 1712/1812 28008KT CAVOK"
    },
    {
      "icao": "EDDH",
      "alert": "OK",
      "vis_m": 9999,
      "fzfg": false,
      "metar_trigger": false,
      "taf_trigger": false,
      "metar": "METAR EDDH 171320Z AUTO 22007KT 180V280 CAVOK 23/12 Q1017 NOSIG",
      "taf": "TAF EDDH 171100Z 1712/1818 24005KT CAVOK"
    },
    {
      "icao": "EDDK",
      "alert": "OK",
      "vis_m": 9999,
      "fzfg": false,
      "metar_trigger": false,
      "taf_trigger": false,
      "metar": "METAR EDDK 171320Z AUTO 32010KT 300V360 9999 FEW047 25/16 Q1019 NOSIG",
      "taf": "TAF EDDK 171100Z 1712/1818 25006KT 9999 SCT045"
    },
    {
      "icao": "EDDN",
      "alert": "OK",
      "vis_m": 9999,
      "fzfg": false,
      "metar_trigger": false,
      "taf_trigger": false,
      "metar": "METAR EDDN 171320Z AUTO 29011KT 240V310 9999 FEW042 25/14 Q1020 NOSIG",
      "taf": "TAF EDDN 171100Z 1712/1812 30007KT CAVOK"
    },
    {
      "icao": "EDDS",
      "alert": "OK",
      "vis_m": 9999,
      "fzfg": false,
      "metar_trigger": false,
      "taf_trigger": false,
      "metar": "METAR EDDS 171320Z AUTO VRB04KT CAVOK 29/10 Q1021 BECMG 32006KT",
      "taf": "TAF EDDS 171100Z 1712/1812 32006KT CAVOK"
    },
    {
      "icao": "EDFH",
      "alert": "OK",
      "vis_m": 9999,
      "fzfg": false,
      "metar_trigger": false,
      "taf_trigger": false,
      "metar": "METAR EDFH 171320Z 25007KT 200V290 CAVOK 24/13 Q1021",
      "taf": "TAF EDFH 171100Z 1712/1812 28007KT CAVOK"
    },
    {
      "icao": "EDJA",
      "alert": "OK",
      "vis_m": 9999,
      "fzfg": false,
      "metar_trigger": false,
      "taf_trigger": false,
      "metar": "METAR EDJA 171320Z 24008KT 200V260 9999 FEW057 27/14 Q1022",
      "taf": "TAF EDJA 171100Z 1712/1721 27008KT 9999 FEW050"
    },
    {
      "icao": "EDLW",
      "alert": "OK",
      "vis_m": 9999,
      "fzfg": false,
      "metar_trigger": false,
      "taf_trigger": false,
      "metar": "METAR EDLW 171320Z 24010KT 210V270 9999 SCT037 23/16 Q1019",
      "taf": "TAF EDLW 171100Z 1712/1812 24008KT CAVOK"
    },
    {
      "icao": "EDNY",
      "alert": "OK",
      "vis_m": 9999,
      "fzfg": false,
      "metar_trigger": false,
      "taf_trigger": false,
      "metar": "METAR EDNY 171320Z 23007KT 200V270 CAVOK 28/12 Q1021",
      "taf": "TAF EDNY 171100Z 1712/1721 22005KT CAVOK"
    },
    {
      "icao": "EDSB",
      "alert": "OK",
      "vis_m": 9999,
      "fzfg": false,
      "metar_trigger": false,
      "taf_trigger": false,
      "metar": "METAR EDSB 171320Z 28005KT 230V320 CAVOK 29/11 Q1020",
      "taf": "TAF EDSB 171100Z 1712/1812 VRB03KT CAVOK"
    },
    {
      "icao": "EETN",
      "alert": "OK",
      "vis_m": 7000,
      "fzfg": false,
      "metar_trigger": false,
      "taf_trigger": false,
      "metar": "METAR EETN 171350Z 28016KT 7000 RA OVC036 14/12 Q1003 NOSIG",
      "taf": "TAF EETN 171130Z 1712/1812 28014G24KT 8000 RA SCT012 OVC030"
    },
    {
      "icao": "EFTU",
      "alert": "OK",
      "vis_m": 9999,
      "fzfg": false,
      "metar_trigger": false,
      "taf_trigger": false,
      "metar": "METAR EFTU 171320Z AUTO 31016KT 280V350 CAVOK 19/09 Q1005",
      "taf": "TAF EFTU 171132Z 1712/1812 31013KT CAVOK"
    },
    {
      "icao": "EGBB",
      "alert": "OK",
      "vis_m": 9999,
      "fzfg": false,
      "metar_trigger": false,
      "taf_trigger": false,
      "metar": "METAR EGBB 171320Z 20008KT 160V240 9999 BKN018 20/17 Q1016",
      "taf": "TAF EGBB 171056Z 1712/1812 22009KT 9999 BKN025"
    },
    {
      "icao": "EGGP",
      "alert": "OK",
      "vis_m": 9999,
      "fzfg": false,
      "metar_trigger": false,
      "taf_trigger": false,
      "metar": "METAR EGGP 171320Z 28009KT 250V310 9999 FEW029 SCT047 20/13 Q1014",
      "taf": "TAF EGGP 171059Z 1712/1812 28010KT 9999 SCT030"
    },
    {
      "icao": "EGGW",
      "alert": "OK",
      "vis_m": 9999,
      "fzfg": false,
      "metar_trigger": false,
      "taf_trigger": false,
      "metar": "METAR EGGW 171320Z AUTO 25013KT 9999 BKN028 22/16 Q1016",
      "taf": "TAF EGGW 171100Z 1712/1812 23010KT 9999 SCT025"
    },
    {
      "icao": "EGKK",
      "alert": "OK",
      "vis_m": 9999,
      "fzfg": false,
      "metar_trigger": false,
      "taf_trigger": false,
      "metar": "METAR EGKK 171320Z 23011KT 170V260 9999 FEW022 22/16 Q1018",
      "taf": ""
    },
    {
      "icao": "EGNM",
      "alert": "OK",
      "vis_m": 9999,
      "fzfg": false,
      "metar_trigger": false,
      "taf_trigger": false,
      "metar": "METAR EGNM 171320Z 28015KT 9999 SCT025 BKN035 18/12 Q1014",
      "taf": "TAF EGNM 171100Z 1712/1812 27010KT 9999 SCT020"
    },
    {
      "icao": "EGPD",
      "alert": "OK",
      "vis_m": 9999,
      "fzfg": false,
      "metar_trigger": false,
      "taf_trigger": false,
      "metar": "METAR EGPD 171320Z 25006KT 9999 BKN047 18/13 Q1008",
      "taf": "TAF EGPD 171056Z 1712/1812 23009KT 9999 FEW018"
    },
    {
      "icao": "EGPF",
      "alert": "OK",
      "vis_m": 9999,
      "fzfg": false,
      "metar_trigger": false,
      "taf_trigger": false,
      "metar": "METAR EGPF 171320Z AUTO 23013KT 9999 NCD 18/13 Q1011",
      "taf": "TAF EGPF 171058Z 1712/1812 23010KT 9999 BKN020"
    },
    {
      "icao": "EHBK",
      "alert": "OK",
      "vis_m": 9999,
      "fzfg": false,
      "metar_trigger": false,
      "taf_trigger": false,
      "metar": "METAR EHBK 171325Z AUTO 27007KT 220V340 9999 SCT035 BKN040 BKN045 26/17 Q1020 NOSIG",
      "taf": "TAF EHBK 171111Z 1712/1818 24007KT 9999 SCT045"
    },
    {
      "icao": "EHEH",
      "alert": "OK",
      "vis_m": 9999,
      "fzfg": false,
      "metar_trigger": false,
      "taf_trigger": false,
      "metar": "METAR EHEH 171325Z AUTO 25007KT 170V280 9999 SCT025 BKN028 BKN031 23/17 Q1019 BLU NOSIG RMK TREND REMOTE BY EHWX",
      "taf": "TAF EHEH 171118Z 1712/1818 22009KT 9999 FEW045"
    },
    {
      "icao": "EKBI",
      "alert": "OK",
      "vis_m": 9999,
      "fzfg": false,
      "metar_trigger": false,
      "taf_trigger": false,
      "metar": "METAR EKBI 171320Z AUTO 20007KT 170V230 9999 OVC049/// 16/11 Q1017",
      "taf": "TAF EKBI 171127Z 1712/1812 20008KT 9999 FEW025"
    },
    {
      "icao": "EKCH",
      "alert": "OK",
      "vis_m": 9999,
      "fzfg": false,
      "metar_trigger": false,
      "taf_trigger": false,
      "metar": "METAR EKCH 171320Z AUTO 17012KT 9999 SCT140/// 15/09 Q1017 NOSIG",
      "taf": "TAF EKCH 171127Z 1712/1812 22010KT 9999 SCT030"
    },
    {
      "icao": "ENAL",
      "alert": "OK",
      "vis_m": 9999,
      "fzfg": false,
      "metar_trigger": false,
      "taf_trigger": false,
      "metar": "METAR ENAL 171320Z 29006KT 240V320 CAVOK 14/08 Q1011",
      "taf": "TAF ENAL 171100Z 1712/1721 VRB05KT CAVOK"
    },
    {
      "icao": "ENBR",
      "alert": "OK",
      "vis_m": 9999,
      "fzfg": false,
      "metar_trigger": false,
      "taf_trigger": false,
      "metar": "METAR ENBR 171320Z 19007KT 9999 -RA FEW020 BKN050 12/08 Q1011 TEMPO RA RMK WIND 1200FT 18008KT",
      "taf": "TAF ENBR 171100Z 1712/1812 17008KT 9999 -RA FEW015 BKN040"
    },
    {
      "icao": "ENGM",
      "alert": "OK",
      "vis_m": 9999,
      "fzfg": false,
      "metar_trigger": false,
      "taf_trigger": false,
      "metar": "METAR ENGM 171320Z 23012KT 200V260 CAVOK 21/08 Q1011 NOSIG",
      "taf": "TAF ENGM 171100Z 1712/1812 19012KT CAVOK"
    },
    {
      "icao": "ENHD",
      "alert": "OK",
      "vis_m": 8000,
      "fzfg": false,
      "metar_trigger": false,
      "taf_trigger": false,
      "metar": "METAR ENHD 171320Z 14007KT 8000 -RA FEW016 BKN021 10/09 Q1012",
      "taf": "TAF ENHD 171100Z 1712/1721 16008KT 9999 -RA FEW018"
    },
    {
      "icao": "ENTC",
      "alert": "OK",
      "vis_m": 9999,
      "fzfg": false,
      "metar_trigger": false,
      "taf_trigger": false,
      "metar": "METAR ENTC 171320Z 33010KT 310V010 9999 SCT025 BKN037 09/03 Q1013 NOSIG RMK WIND 2600FT 34016KT",
      "taf": "TAF ENTC 171100Z 1712/1812 35008KT 9999 FEW008 BKN025"
    },
    {
      "icao": "ENTO",
      "alert": "OK",
      "vis_m": 9999,
      "fzfg": false,
      "metar_trigger": false,
      "taf_trigger": false,
      "metar": "METAR ENTO 171320Z 16010KT 9999 BKN013 16/13 Q1012 TEMPO BKN015",
      "taf": "TAF ENTO 171100Z 1712/1812 15008KT 9999 SCT018"
    },
    {
      "icao": "ENVA",
      "alert": "OK",
      "vis_m": 9999,
      "fzfg": false,
      "metar_trigger": false,
      "taf_trigger": false,
      "metar": "METAR ENVA 171320Z 30006KT CAVOK 18/07 Q1011 NOSIG RMK WIND 670FT 30007KT",
      "taf": "TAF ENVA 171100Z 1712/1812 25007KT 9999 SCT045"
    },
    {
      "icao": "ENZV",
      "alert": "OK",
      "vis_m": 9999,
      "fzfg": false,
      "metar_trigger": false,
      "taf_trigger": false,
      "metar": "METAR ENZV 171320Z 15008KT 9999 -RA FEW012 BKN027 11/09 Q1012 TEMPO RADZ BKN014",
      "taf": "TAF ENZV 171100Z 1712/1812 16007KT 9999 -RA BKN030"
    },
    {
      "icao": "EPGD",
      "alert": "OK",
      "vis_m": 9999,
      "fzfg": false,
      "metar_trigger": false,
      "taf_trigger": false,
      "metar": "METAR EPGD 171330Z 28012KT 9999 SCT030 18/12 Q1017",
      "taf": "TAF EPGD 171130Z 1712/1812 28012KT 9999 SCT025"
    },
    {
      "icao": "EPKK",
      "alert": "OK",
      "vis_m": 9999,
      "fzfg": false,
      "metar_trigger": false,
      "taf_trigger": false,
      "metar": "METAR EPKK 171330Z 30012KT 280V340 9999 SCT053 23/11 Q1017",
      "taf": ""
    },
    {
      "icao": "EPKT",
      "alert": "OK",
      "vis_m": 9999,
      "fzfg": false,
      "metar_trigger": false,
      "taf_trigger": false,
      "metar": "METAR EPKT 171330Z 30010KT 280V350 9999 SCT048 21/11 Q1018",
      "taf": "TAF EPKT 171130Z 1712/1812 32012KT CAVOK"
    },
    {
      "icao": "EPLB",
      "alert": "OK",
      "vis_m": 9999,
      "fzfg": false,
      "metar_trigger": false,
      "taf_trigger": false,
      "metar": "METAR EPLB 171330Z 33010KT 300V360 CAVOK 22/08 Q1016",
      "taf": "TAF EPLB 171130Z 1712/1812 30010KT CAVOK"
    },
    {
      "icao": "EPMO",
      "alert": "OK",
      "vis_m": 9999,
      "fzfg": false,
      "metar_trigger": false,
      "taf_trigger": false,
      "metar": "METAR EPMO 171330Z 27010KT 9999 SCT043 21/11 Q1017",
      "taf": "TAF EPMO 171130Z 1712/1812 32010KT 9999 SCT040"
    },
    {
      "icao": "EPPO",
      "alert": "OK",
      "vis_m": 9999,
      "fzfg": false,
      "metar_trigger": false,
      "taf_trigger": false,
      "metar": "METAR EPPO 171330Z 27008G18KT 250V330 CAVOK 22/08 Q1018",
      "taf": "TAF EPPO 171130Z 1712/1812 30010KT CAVOK"
    },
    {
      "icao": "EPRA",
      "alert": "OK",
      "vis_m": 9999,
      "fzfg": false,
      "metar_trigger": false,
      "taf_trigger": false,
      "metar": "METAR EPRA 171330Z 32011KT CAVOK 21/05 Q1017",
      "taf": "TAF EPRA 171130Z 1712/1721 30012KT CAVOK"
    },
    {
      "icao": "EPRZ",
      "alert": "OK",
      "vis_m": 9999,
      "fzfg": false,
      "metar_trigger": false,
      "taf_trigger": false,
      "metar": "METAR EPRZ 171330Z 29011KT CAVOK 23/08 Q1016",
      "taf": "TAF EPRZ 171130Z 1712/1812 25004KT 9999 SCT044"
    },
    {
      "icao": "EPSC",
      "alert": "OK",
      "vis_m": 9999,
      "fzfg": false,
      "metar_trigger": false,
      "taf_trigger": false,
      "metar": "METAR EPSC 171330Z 29007KT CAVOK 20/09 Q1018",
      "taf": "TAF EPSC 171130Z 1712/1812 28006KT 9999 SCT035"
    },
    {
      "icao": "EPSY",
      "alert": "OK",
      "vis_m": 9999,
      "fzfg": false,
      "metar_trigger": false,
      "taf_trigger": false,
      "metar": "METAR EPSY 171330Z 32007KT 290V360 CAVOK 20/11 Q1016",
      "taf": "TAF EPSY 171130Z 1712/1721 30008KT 9999 SCT040"
    },
    {
      "icao": "EPWA",
      "alert": "OK",
      "vis_m": 9999,
      "fzfg": false,
      "metar_trigger": false,
      "taf_trigger": false,
      "metar": "METAR EPWA 171330Z 27009KT 240V310 9999 SCT046 21/11 Q1017 NOSIG",
      "taf": "TAF EPWA 171130Z 1712/1812 32010KT CAVOK"
    },
    {
      "icao": "EPWR",
      "alert": "OK",
      "vis_m": 9999,
      "fzfg": false,
      "metar_trigger": false,
      "taf_trigger": false,
      "metar": "METAR EPWR 171330Z 34006KT 300V040 9999 SCT048 23/11 Q1018",
      "taf": "TAF EPWR 171130Z 1712/1812 32010KT CAVOK"
    },
    {
      "icao": "ESGG",
      "alert": "OK",
      "vis_m": 9999,
      "fzfg": false,
      "metar_trigger": false,
      "taf_trigger": false,
      "metar": "METAR ESGG 171320Z 22011KT 9999 BKN023 15/09 Q1015",
      "taf": "TAF ESGG 171130Z 1712/1812 24010KT 9999 BKN020"
    },
    {
      "icao": "ESKN",
      "alert": "OK",
      "vis_m": 9999,
      "fzfg": false,
      "metar_trigger": false,
      "taf_trigger": false,
      "metar": "METAR ESKN 171320Z 27012KT 9999 SCT048 22/10 Q1011",
      "taf": "TAF ESKN 171130Z 1712/1812 28013KT CAVOK"
    },
    {
      "icao": "ESMS",
      "alert": "OK",
      "vis_m": 9999,
      "fzfg": false,
      "metar_trigger": false,
      "taf_trigger": false,
      "metar": "METAR ESMS 171320Z 25011KT CAVOK 16/08 Q1017",
      "taf": "TAF ESMS 171127Z 1712/1812 25008KT 9999 SCT030"
    },
    {
      "icao": "ESSA",
      "alert": "OK",
      "vis_m": 9999,
      "fzfg": false,
      "metar_trigger": false,
      "taf_trigger": false,
      "metar": "METAR ESSA 171320Z 30011KT 260V340 CAVOK 20/02 Q1010 NOSIG",
      "taf": "TAF ESSA 171130Z 1712/1812 29013KT CAVOK"
    },
    {
      "icao": "EYKA",
      "alert": "OK",
      "vis_m": 9999,
      "fzfg": false,
      "metar_trigger": false,
      "taf_trigger": false,
      "metar": "METAR EYKA 171350Z 30009KT 270V010 9999 BKN039 19/11 Q1012",
      "taf": "TAF EYKA 171100Z 1712/1812 31010KT 9000 BKN035"
    },
    {
      "icao": "EYPA",
      "alert": "OK",
      "vis_m": 9999,
      "fzfg": false,
      "metar_trigger": false,
      "taf_trigger": false,
      "metar": "METAR EYPA 171350Z 29006KT 220V020 9999 OVC007 17/14 Q1014",
      "taf": ""
    },
    {
      "icao": "EYVI",
      "alert": "OK",
      "vis_m": 9999,
      "fzfg": false,
      "metar_trigger": false,
      "taf_trigger": false,
      "metar": "METAR EYVI 171350Z 31011KT 270V330 9999 FEW035 18/10 Q1012 NOSIG",
      "taf": "TAF EYVI 171100Z 1712/1812 27013KT 9000 BKN030"
    },
    {
      "icao": "GCFV",
      "alert": "OK",
      "vis_m": 9999,
      "fzfg": false,
      "metar_trigger": false,
      "taf_trigger": false,
      "metar": "METAR GCFV 171330Z 04015KT 9999 FEW035 25/16 Q1018",
      "taf": "TAF GCFV 170800Z 1709/1809 36013KT 9999 SCT030 TX27/1714Z TN20/1806Z"
    },
    {
      "icao": "GCLP",
      "alert": "OK",
      "vis_m": 9999,
      "fzfg": false,
      "metar_trigger": false,
      "taf_trigger": false,
      "metar": "METAR GCLP 171330Z 03027KT 9999 FEW035 25/16 Q1019 NOSIG",
      "taf": "TAF GCLP 170800Z 1709/1809 02022KT 9999 FEW030 TX26/1714Z TN19/1806Z"
    },
    {
      "icao": "GCTS",
      "alert": "OK",
      "vis_m": 9999,
      "fzfg": false,
      "metar_trigger": false,
      "taf_trigger": false,
      "metar": "METAR GCTS 171330Z 13007KT 080V170 9999 BKN035 23/17 Q1020 NOSIG",
      "taf": ""
    },
    {
      "icao": "GMAD",
      "alert": "OK",
      "vis_m": 8000,
      "fzfg": false,
      "metar_trigger": false,
      "taf_trigger": false,
      "metar": "METAR GMAD 171330Z 25008KT 200V290 8000 BKN020 27/17 Q1015 NOSIG",
      "taf": "TAF GMAD 171100Z 1712/1818 27010KT 8000 BKN020"
    },
    {
      "icao": "GMMN",
      "alert": "OK",
      "vis_m": 9999,
      "fzfg": false,
      "metar_trigger": false,
      "taf_trigger": false,
      "metar": "METAR GMMN 171330Z 33009KT 280V010 CAVOK 28/19 Q1014 NOSIG",
      "taf": "TAF GMMN 171100Z 1712/1818 34012KT CAVOK"
    },
    {
      "icao": "GMMX",
      "alert": "OK",
      "vis_m": 9999,
      "fzfg": false,
      "metar_trigger": false,
      "taf_trigger": false,
      "metar": "METAR GMMX 171330Z 30007KT 240V010 CAVOK 30/16 Q1015 NOSIG",
      "taf": "TAF GMMX 171100Z 1712/1818 28006KT 8000 NSC"
    },
    {
      "icao": "HEGN",
      "alert": "OK",
      "vis_m": 9999,
      "fzfg": false,
      "metar_trigger": false,
      "taf_trigger": false,
      "metar": "METAR HEGN 171300Z 35012KT CAVOK 34/13 Q1009 NOSIG",
      "taf": "TAF HEGN 171100Z 1712/1818 35018KT CAVOK"
    },
    {
      "icao": "HEMA",
      "alert": "OK",
      "vis_m": 9999,
      "fzfg": false,
      "metar_trigger": false,
      "taf_trigger": false,
      "metar": "METAR HEMA 171300Z 36020KT CAVOK 34/17 Q1008 NOSIG",
      "taf": "TAF HEMA 171100Z 1712/1818 36018KT CAVOK"
    },
    {
      "icao": "HESH",
      "alert": "OK",
      "vis_m": 9999,
      "fzfg": false,
      "metar_trigger": false,
      "taf_trigger": false,
      "metar": "METAR HESH 171300Z 03008KT CAVOK 37/15 Q1009 NOSIG",
      "taf": "TAF HESH 171100Z 1712/1818 01015KT CAVOK"
    },
    {
      "icao": "HESX",
      "alert": "OK",
      "vis_m": 9999,
      "fzfg": false,
      "metar_trigger": false,
      "taf_trigger": false,
      "metar": "METAR HESX 171300Z 02009KT CAVOK 33/11 Q1013 NOSIG",
      "taf": "TAF HESX 171100Z 1712/1818 33008KT CAVOK"
    },
    {
      "icao": "LATI",
      "alert": "OK",
      "vis_m": 9999,
      "fzfg": false,
      "metar_trigger": false,
      "taf_trigger": false,
      "metar": "METAR LATI 171350Z 34010KT 9999 FEW040 28/19 Q1017 NOSIG",
      "taf": "TAF LATI 171100Z 1712/1812 32014KT CAVOK TX31/1712Z TN16/1804Z"
    },
    {
      "icao": "LBPD",
      "alert": "OK",
      "vis_m": 9999,
      "fzfg": false,
      "metar_trigger": false,
      "taf_trigger": false,
      "metar": "METAR LBPD 171330Z AUTO 09008KT 9999 BKN090/// 22/17 Q1019 NOSIG",
      "taf": "TAF LBPD 171100Z 1712/1812 VRB03KT 9999 SCT070"
    },
    {
      "icao": "LBSF",
      "alert": "OK",
      "vis_m": 9999,
      "fzfg": false,
      "metar_trigger": false,
      "taf_trigger": false,
      "metar": "METAR LBSF 171330Z 13015KT 9999 SCT064 BKN074 25/12 Q1018 NOSIG",
      "taf": ""
    },
    {
      "icao": "LBWN",
      "alert": "OK",
      "vis_m": 9999,
      "fzfg": false,
      "metar_trigger": false,
      "taf_trigger": false,
      "metar": "METAR LBWN 171330Z 13010KT 090V160 9999 FEW025 25/13 Q1017 NOSIG",
      "taf": "TAF LBWN 171100Z 1712/1812 11010KT CAVOK"
    },
    {
      "icao": "LCLK",
      "alert": "OK",
      "vis_m": 9999,
      "fzfg": false,
      "metar_trigger": false,
      "taf_trigger": false,
      "metar": "METAR LCLK 171330Z 21016KT 9999 FEW040 32/18 Q1010 NOSIG",
      "taf": "TAF LCLK 171130Z 1712/1812 20017KT 9999 FEW020"
    },
    {
      "icao": "LCPH",
      "alert": "OK",
      "vis_m": 9999,
      "fzfg": false,
      "metar_trigger": false,
      "taf_trigger": false,
      "metar": "METAR LCPH 171330Z 31018KT 9999 FEW017 27/23 Q1011 NOSIG",
      "taf": "TAF LCPH 171130Z 1712/1812 28017KT 9999 FEW025"
    },
    {
      "icao": "LEAL",
      "alert": "OK",
      "vis_m": 9999,
      "fzfg": false,
      "metar_trigger": false,
      "taf_trigger": false,
      "metar": "METAR LEAL 171330Z 08013KT CAVOK 31/14 Q1018 NOSIG",
      "taf": "TAF LEAL 171100Z 1712/1812 08013KT CAVOK TX31/1712Z TN21/1805Z"
    },
    {
      "icao": "LEBB",
      "alert": "OK",
      "vis_m": 9999,
      "fzfg": false,
      "metar_trigger": false,
      "taf_trigger": false,
      "metar": "METAR LEBB 171330Z 30009KT 280V350 9999 BKN016 25/20 Q1019 NOSIG",
      "taf": "TAF LEBB 171100Z 1712/1812 29008KT 9999 FEW035 TX26/1712Z TN18/1805Z"
    },
    {
      "icao": "LEBL",
      "alert": "OK",
      "vis_m": 9000,
      "fzfg": false,
      "metar_trigger": false,
      "taf_trigger": false,
      "metar": "METAR LEBL 171330Z 20010KT 160V230 9000 FEW020 27/23 Q1020 NOSIG",
      "taf": "TAF LEBL 171100Z 1712/1812 16008KT 9999 FEW010 TX30/1712Z TN21/1806Z"
    },
    {
      "icao": "LECH",
      "alert": "OK",
      "vis_m": 9999,
      "fzfg": false,
      "metar_trigger": false,
      "taf_trigger": false,
      "metar": "METAR LECH 171330Z AUTO 11011KT 070V160 CAVOK 30/15 Q1020",
      "taf": "TAF LECH 171100Z 1712/1812 14010KT CAVOK TX33/1712Z TN17/1805Z"
    },
    {
      "icao": "LEMD",
      "alert": "OK",
      "vis_m": 9999,
      "fzfg": false,
      "metar_trigger": false,
      "taf_trigger": false,
      "metar": "METAR LEMD 171330Z 18004KT CAVOK 34/05 Q1019 NOSIG",
      "taf": "TAF LEMD 171100Z 1712/1818 VRB04KT CAVOK TX36/1716Z TN19/1805Z"
    },
    {
      "icao": "LEMG",
      "alert": "OK",
      "vis_m": 9999,
      "fzfg": false,
      "metar_trigger": false,
      "taf_trigger": false,
      "metar": "METAR LEMG 171330Z 15009KT 110V190 CAVOK 30/12 Q1016 NOSIG",
      "taf": "TAF LEMG 171100Z 1712/1812 14010KT CAVOK TX29/1714Z TN20/1806Z"
    },
    {
      "icao": "LEVC",
      "alert": "OK",
      "vis_m": 9999,
      "fzfg": false,
      "metar_trigger": false,
      "taf_trigger": false,
      "metar": "METAR LEVC 171330Z 14010KT 110V170 CAVOK 32/10 Q1019 NOSIG",
      "taf": "TAF LEVC 171100Z 1712/1812 12010KT CAVOK TX33/1712Z TN20/1805Z"
    },
    {
      "icao": "LEXJ",
      "alert": "OK",
      "vis_m": 8000,
      "fzfg": false,
      "metar_trigger": false,
      "taf_trigger": false,
      "metar": "METAR LEXJ 171330Z VRB02KT 8000 OVC015 20/18 Q1020",
      "taf": "TAF LEXJ 170800Z 1709/1809 04009KT 9999 SCT030 TX23/1715Z TN17/1805Z"
    },
    {
      "icao": "LEZG",
      "alert": "OK",
      "vis_m": 9999,
      "fzfg": false,
      "metar_trigger": false,
      "taf_trigger": false,
      "metar": "METAR LEZG 171330Z 09004KT 030V170 CAVOK 35/08 Q1018 NOSIG",
      "taf": "TAF LEZG 171100Z 1712/1812 12008KT 9999 FEW080 TX38/1715Z TN21/1805Z"
    },
    {
      "icao": "LEZL",
      "alert": "OK",
      "vis_m": 9999,
      "fzfg": false,
      "metar_trigger": false,
      "taf_trigger": false,
      "metar": "METAR LEZL 171330Z 08005KT CAVOK 37/11 Q1014 NOSIG",
      "taf": "TAF LEZL 170800Z 1709/1809 VRB02KT CAVOK TX37/1715Z TN22/1806Z"
    },
    {
      "icao": "LFBD",
      "alert": "OK",
      "vis_m": 9999,
      "fzfg": false,
      "metar_trigger": false,
      "taf_trigger": false,
      "metar": "METAR LFBD 171330Z AUTO VRB05KT CAVOK 34/17 Q1018 NOSIG",
      "taf": "TAF LFBD 171100Z 1712/1818 10005KT CAVOK TX37/1814Z TN20/1805Z"
    },
    {
      "icao": "LFLL",
      "alert": "OK",
      "vis_m": 9999,
      "fzfg": false,
      "metar_trigger": false,
      "taf_trigger": false,
      "metar": "METAR LFLL 171330Z VRB01KT CAVOK 32/12 Q1020 NOSIG",
      "taf": "TAF LFLL 171100Z 1712/1818 03003KT CAVOK"
    },
    {
      "icao": "LFLS",
      "alert": "OK",
      "vis_m": 9999,
      "fzfg": false,
      "metar_trigger": false,
      "taf_trigger": false,
      "metar": "METAR LFLS 171330Z AUTO 24005KT 170V290 CAVOK 32/14 Q1021 NOSIG",
      "taf": "TAF LFLS 170800Z 1709/1809 09005KT CAVOK"
    },
    {
      "icao": "LFMN",
      "alert": "OK",
      "vis_m": 9999,
      "fzfg": false,
      "metar_trigger": false,
      "taf_trigger": false,
      "metar": "METAR LFMN 171330Z 10005KT CAVOK 25/20 Q1019 NOSIG",
      "taf": "TAF LFMN 170800Z 1709/1815 11005KT CAVOK"
    },
    {
      "icao": "LFOB",
      "alert": "OK",
      "vis_m": 9999,
      "fzfg": false,
      "metar_trigger": false,
      "taf_trigger": false,
      "metar": "METAR LFOB 171330Z AUTO 18006KT 090V260 CAVOK 29/16 Q1019 NOSIG",
      "taf": "TAF LFOB 171100Z 1712/1812 23008KT CAVOK"
    },
    {
      "icao": "LFPO",
      "alert": "OK",
      "vis_m": 9999,
      "fzfg": false,
      "metar_trigger": false,
      "taf_trigger": false,
      "metar": "METAR LFPO 171330Z 21005KT 130V290 CAVOK 31/13 Q1019 NOSIG",
      "taf": "TAF LFPO 171100Z 1712/1818 26006KT CAVOK"
    },
    {
      "icao": "LFSB",
      "alert": "OK",
      "vis_m": 9999,
      "fzfg": false,
      "metar_trigger": false,
      "taf_trigger": false,
      "metar": "METAR LFSB 171330Z AUTO 28011KT 240V320 CAVOK 31/14 Q1020 NOSIG",
      "taf": "TAF LFSB 171100Z 1712/1812 28008KT CAVOK"
    },
    {
      "icao": "LGAV",
      "alert": "OK",
      "vis_m": 9999,
      "fzfg": false,
      "metar_trigger": false,
      "taf_trigger": false,
      "metar": "METAR LGAV 171320Z 04014KT 9999 FEW025 29/16 Q1015 NOSIG",
      "taf": "TAF LGAV 171100Z 1712/1812 05012KT 9999 FEW025 SCT070"
    },
    {
      "icao": "LGTS",
      "alert": "OK",
      "vis_m": 9999,
      "fzfg": false,
      "metar_trigger": false,
      "taf_trigger": false,
      "metar": "METAR LGTS 171320Z VRB03KT 9999 FEW018TCU SCT030 27/15 Q1016 NOSIG",
      "taf": "TAF LGTS 171100Z 1712/1812 VRB03KT 9999 FEW010 SCT030"
    },
    {
      "icao": "LHBP",
      "alert": "OK",
      "vis_m": 9999,
      "fzfg": false,
      "metar_trigger": false,
      "taf_trigger": false,
      "metar": "METAR LHBP 171330Z 30012KT CAVOK 28/11 Q1017 NOSIG",
      "taf": "TAF LHBP 171115Z 1712/1812 31013KT CAVOK"
    },
    {
      "icao": "LHDC",
      "alert": "OK",
      "vis_m": 9999,
      "fzfg": false,
      "metar_trigger": false,
      "taf_trigger": false,
      "metar": "METAR LHDC 171315Z AUTO 28011KT 220V320 9999 //////TCU 28/11 Q1016 TEMPO VRB15G25KT 6000 SHRA SCT060CB",
      "taf": "TAF LHDC 171115Z 1712/1721 20010KT CAVOK"
    },
    {
      "icao": "LIBD",
      "alert": "OK",
      "vis_m": 9999,
      "fzfg": false,
      "metar_trigger": false,
      "taf_trigger": false,
      "metar": "METAR LIBD 171320Z 01007KT 330V050 CAVOK 28/17 Q1018",
      "taf": "TAF LIBD 171100Z 1712/1812 01012KT CAVOK"
    },
    {
      "icao": "LIBG",
      "alert": "OK",
      "vis_m": 9999,
      "fzfg": false,
      "metar_trigger": false,
      "taf_trigger": false,
      "metar": "METAR LIBG 171320Z AUTO 02012KT 9999 NCD 32/12 Q1017",
      "taf": "TAF LIBG 171100Z 1712/1812 VRB05KT CAVOK"
    },
    {
      "icao": "LIBP",
      "alert": "OK",
      "vis_m": 9999,
      "fzfg": false,
      "metar_trigger": false,
      "taf_trigger": false,
      "metar": "METAR LIBP 171320Z AUTO 06007KT 030V090 9999 NCD 29/16 Q1019",
      "taf": "TAF LIBP 171100Z 1712/1812 06010KT 9999 FEW030"
    },
    {
      "icao": "LIBR",
      "alert": "OK",
      "vis_m": 9999,
      "fzfg": false,
      "metar_trigger": false,
      "taf_trigger": false,
      "metar": "METAR LIBR 171320Z 01010KT CAVOK 26/22 Q1017",
      "taf": "TAF LIBR 171100Z 1712/1812 35012KT CAVOK"
    },
    {
      "icao": "LICA",
      "alert": "OK",
      "vis_m": 9999,
      "fzfg": false,
      "metar_trigger": false,
      "taf_trigger": false,
      "metar": "METAR LICA 171320Z AUTO 26012KT 9999 NCD 27/21 Q1019",
      "taf": "TAF LICA 171100Z 1712/1812 26011KT 9999 SCT016"
    },
    {
      "icao": "LICC",
      "alert": "OK",
      "vis_m": 9999,
      "fzfg": false,
      "metar_trigger": false,
      "taf_trigger": false,
      "metar": "METAR LICC 171320Z 08010KT CAVOK 28/20 Q1018",
      "taf": "TAF LICC 171100Z 1712/1812 08011KT CAVOK"
    },
    {
      "icao": "LICJ",
      "alert": "OK",
      "vis_m": 9999,
      "fzfg": false,
      "metar_trigger": false,
      "taf_trigger": false,
      "metar": "METAR LICJ 171320Z 04016KT CAVOK 26/20 Q1019",
      "taf": "TAF LICJ 171100Z 1712/1812 05012KT CAVOK"
    },
    {
      "icao": "LIMC",
      "alert": "OK",
      "vis_m": 9999,
      "fzfg": false,
      "metar_trigger": false,
      "taf_trigger": false,
      "metar": "METAR LIMC 171320Z VRB06KT CAVOK 31/16 Q1019 NOSIG",
      "taf": "TAF LIMC 171100Z 1712/1818 VRB05KT CAVOK"
    },
    {
      "icao": "LIME",
      "alert": "OK",
      "vis_m": 9999,
      "fzfg": false,
      "metar_trigger": false,
      "taf_trigger": false,
      "metar": "METAR LIME 171320Z 24007KT 200V310 CAVOK 31/17 Q1019 NOSIG",
      "taf": "TAF LIME 171100Z 1712/1812 24010KT CAVOK"
    },
    {
      "icao": "LIMF",
      "alert": "OK",
      "vis_m": 9999,
      "fzfg": false,
      "metar_trigger": false,
      "taf_trigger": false,
      "metar": "METAR LIMF 171320Z VRB04KT CAVOK 32/16 Q1019",
      "taf": "TAF LIMF 171100Z 1712/1812 VRB05KT CAVOK"
    },
    {
      "icao": "LIMJ",
      "alert": "OK",
      "vis_m": 9999,
      "fzfg": false,
      "metar_trigger": false,
      "taf_trigger": false,
      "metar": "METAR LIMJ 171320Z 21004KT CAVOK 25/20 Q1020",
      "taf": "TAF LIMJ 171100Z 1712/1812 VRB05KT CAVOK"
    },
    {
      "icao": "LIPE",
      "alert": "OK",
      "vis_m": 9999,
      "fzfg": false,
      "metar_trigger": false,
      "taf_trigger": false,
      "metar": "METAR LIPE 171320Z VRB05KT CAVOK 33/15 Q1018",
      "taf": "TAF LIPE 171100Z 1712/1812 VRB05KT CAVOK"
    },
    {
      "icao": "LIPH",
      "alert": "OK",
      "vis_m": 9999,
      "fzfg": false,
      "metar_trigger": false,
      "taf_trigger": false,
      "metar": "METAR LIPH 171320Z 14008KT 110V170 CAVOK 30/19 Q1018",
      "taf": "TAF LIPH 171100Z 1712/1812 VRB05KT CAVOK"
    },
    {
      "icao": "LIPQ",
      "alert": "OK",
      "vis_m": 9999,
      "fzfg": false,
      "metar_trigger": false,
      "taf_trigger": false,
      "metar": "METAR LIPQ 171320Z 23006KT 120V280 CAVOK 28/17 Q1018",
      "taf": "TAF LIPQ 171100Z 1712/1812 20010KT 9999 FEW050"
    },
    {
      "icao": "LIPR",
      "alert": "OK",
      "vis_m": 9999,
      "fzfg": false,
      "metar_trigger": false,
      "taf_trigger": false,
      "metar": "METAR LIPR 171320Z 10011KT CAVOK 27/19 Q1019",
      "taf": "TAF LIPR 171100Z 1712/1812 03010KT CAVOK"
    },
    {
      "icao": "LIPX",
      "alert": "OK",
      "vis_m": 9999,
      "fzfg": false,
      "metar_trigger": false,
      "taf_trigger": false,
      "metar": "METAR LIPX 171320Z 22008KT 180V240 CAVOK 32/17 Q1018",
      "taf": "TAF LIPX 171100Z 1712/1812 26010KT CAVOK"
    },
    {
      "icao": "LIPY",
      "alert": "OK",
      "vis_m": 9999,
      "fzfg": false,
      "metar_trigger": false,
      "taf_trigger": false,
      "metar": "METAR LIPY 171320Z AUTO 07009KT 9999 NCD 27/19 Q1019",
      "taf": "TAF LIPY 171100Z 1712/1812 06010KT CAVOK"
    },
    {
      "icao": "LIPZ",
      "alert": "OK",
      "vis_m": 9999,
      "fzfg": false,
      "metar_trigger": false,
      "taf_trigger": false,
      "metar": "METAR LIPZ 171320Z 15009KT CAVOK 26/19 Q1018 NOSIG",
      "taf": "TAF LIPZ 171100Z 1712/1818 16010KT CAVOK"
    },
    {
      "icao": "LIRF",
      "alert": "OK",
      "vis_m": 9999,
      "fzfg": false,
      "metar_trigger": false,
      "taf_trigger": false,
      "metar": "METAR LIRF 171320Z 28014KT CAVOK 28/21 Q1018 NOSIG",
      "taf": "TAF LIRF 171100Z 1712/1818 28012KT CAVOK"
    },
    {
      "icao": "LIRN",
      "alert": "OK",
      "vis_m": 9999,
      "fzfg": false,
      "metar_trigger": false,
      "taf_trigger": false,
      "metar": "METAR LIRN 171320Z 29006KT 240V020 CAVOK 32/17 Q1018 NOSIG",
      "taf": "TAF LIRN 171100Z 1712/1812 22010KT CAVOK"
    },
    {
      "icao": "LIRP",
      "alert": "OK",
      "vis_m": 9999,
      "fzfg": false,
      "metar_trigger": false,
      "taf_trigger": false,
      "metar": "METAR LIRP 171315Z 28009KT CAVOK 29/17 Q1020 NOSIG",
      "taf": "TAF LIRP 171100Z 1712/1812 29008KT 9999 FEW070"
    },
    {
      "icao": "LIRZ",
      "alert": "OK",
      "vis_m": 9999,
      "fzfg": false,
      "metar_trigger": false,
      "taf_trigger": false,
      "metar": "METAR LIRZ 171320Z AUTO VRB06KT 9999 BKN072/// 31/15 Q1019",
      "taf": "TAF LIRZ 171100Z 1712/1812 VRB05KT CAVOK"
    },
    {
      "icao": "LJLJ",
      "alert": "OK",
      "vis_m": 9999,
      "fzfg": false,
      "metar_trigger": false,
      "taf_trigger": false,
      "metar": "METAR LJLJ 171330Z 04006KT 330V060 9999 FEW065 BKN250 28/16 Q1019 NOSIG",
      "taf": "TAF LJLJ 171100Z 1712/1812 34005KT CAVOK"
    },
    {
      "icao": "LKMT",
      "alert": "OK",
      "vis_m": 9999,
      "fzfg": false,
      "metar_trigger": false,
      "taf_trigger": false,
      "metar": "METAR LKMT 171330Z 05003KT 320V110 9999 VCTS FEW046CB 23/15 Q1018 NOSIG",
      "taf": "TAF LKMT 171100Z 1712/1812 23003KT CAVOK"
    },
    {
      "icao": "LKPR",
      "alert": "OK",
      "vis_m": 9999,
      "fzfg": false,
      "metar_trigger": false,
      "taf_trigger": false,
      "metar": "METAR LKPR 171330Z 31005KT 260V350 CAVOK 24/13 Q1019 NOSIG",
      "taf": "TAF LKPR 171100Z 1712/1818 31006KT CAVOK"
    },
    {
      "icao": "LLBG",
      "alert": "OK",
      "vis_m": 9999,
      "fzfg": false,
      "metar_trigger": false,
      "taf_trigger": false,
      "metar": "METAR LLBG 171350Z 31008KT 270V350 9999 FEW025 29/20 Q1011 NOSIG",
      "taf": "TAF LLBG 171103Z 1712/1812 29010KT CAVOK TX30/1712Z TN22/1803Z"
    },
    {
      "icao": "LMML",
      "alert": "OK",
      "vis_m": 9999,
      "fzfg": false,
      "metar_trigger": false,
      "taf_trigger": false,
      "metar": "METAR LMML 171345Z 03005KT 340V070 9999 FEW028 30/19 Q1018 NOSIG",
      "taf": "TAF LMML 171100Z 1712/1812 20006KT 9999 FEW020"
    },
    {
      "icao": "LOWW",
      "alert": "OK",
      "vis_m": 9999,
      "fzfg": false,
      "metar_trigger": false,
      "taf_trigger": false,
      "metar": "METAR LOWW 171320Z 32010KT 9999 SCT050 28/14 Q1017 NOSIG",
      "taf": "TAF LOWW 171115Z 1712/1818 31010KT 9999 FEW050 TX30/1815Z TN18/1803Z"
    },
    {
      "icao": "LPFR",
      "alert": "OK",
      "vis_m": 9999,
      "fzfg": false,
      "metar_trigger": false,
      "taf_trigger": false,
      "metar": "METAR LPFR 171330Z 20005KT 160V280 CAVOK 30/16 Q1016",
      "taf": "TAF LPFR 171100Z 1712/1812 18007KT CAVOK"
    },
    {
      "icao": "LPMA",
      "alert": "OK",
      "vis_m": 9999,
      "fzfg": false,
      "metar_trigger": false,
      "taf_trigger": false,
      "metar": "METAR LPMA 171330Z 21008KT 9999 FEW015 SCT025 24/16 Q1021",
      "taf": "TAF LPMA 171100Z 1712/1812 02012KT 9999 SCT015"
    },
    {
      "icao": "LPPR",
      "alert": "OK",
      "vis_m": 9999,
      "fzfg": false,
      "metar_trigger": false,
      "taf_trigger": false,
      "metar": "METAR LPPR 171330Z 31007KT 280V340 CAVOK 22/16 Q1018",
      "taf": "TAF LPPR 171100Z 1712/1812 VRB02KT 9999 SCT006"
    },
    {
      "icao": "LPPS",
      "alert": "OK",
      "vis_m": 9999,
      "fzfg": false,
      "metar_trigger": false,
      "taf_trigger": false,
      "metar": "METAR LPPS 171330Z 34011KT 9999 SCT013 22/17 Q1022",
      "taf": "TAF LPPS 171100Z 1712/1818 01010KT 9999 SCT015"
    },
    {
      "icao": "LPPT",
      "alert": "OK",
      "vis_m": 9999,
      "fzfg": false,
      "metar_trigger": false,
      "taf_trigger": false,
      "metar": "METAR LPPT 171330Z 33006KT 260V020 CAVOK 31/13 Q1016",
      "taf": "TAF LPPT 171100Z 1712/1818 VRB05KT CAVOK"
    },
    {
      "icao": "LQBK",
      "alert": "OK",
      "vis_m": 9999,
      "fzfg": false,
      "metar_trigger": false,
      "taf_trigger": false,
      "metar": "METAR LQBK 171330Z VRB04KT CAVOK 29/13 Q1018 NOSIG",
      "taf": "TAF LQBK 171100Z 1712/1812 33006KT CAVOK TX31/1714Z TN15/1802Z"
    },
    {
      "icao": "LQSA",
      "alert": "OK",
      "vis_m": 9999,
      "fzfg": false,
      "metar_trigger": false,
      "taf_trigger": false,
      "metar": "METAR LQSA 171330Z 33008KT 290V030 9999 TS FEW035CB SCT055 27/11 Q1019 NOSIG",
      "taf": "TAF LQSA 171100Z 1712/1812 29005KT CAVOK TX28/1713Z TN14/1803Z"
    },
    {
      "icao": "LQTZ",
      "alert": "OK",
      "vis_m": 9999,
      "fzfg": false,
      "metar_trigger": false,
      "taf_trigger": false,
      "metar": "METAR LQTZ 171330Z 31006KT 220V010 CAVOK 29/12 Q1018",
      "taf": "TAF LQTZ 171100Z 1712/1812 04006KT CAVOK TX29/1713Z TN12/1803Z"
    },
    {
      "icao": "LRBC",
      "alert": "OK",
      "vis_m": 9999,
      "fzfg": false,
      "metar_trigger": false,
      "taf_trigger": false,
      "metar": "METAR LRBC 171330Z COR 32009KT 290V360 9999 FEW033 SCT060 24/13 Q1016",
      "taf": "TAF LRBC 171100Z 1712/1721 26007KT CAVOK"
    },
    {
      "icao": "LRBS",
      "alert": "OK",
      "vis_m": 9999,
      "fzfg": false,
      "metar_trigger": false,
      "taf_trigger": false,
      "metar": "METAR LRBS 171330Z 27006KT 200V330 CAVOK 29/09 Q1016 NOSIG",
      "taf": "TAF LRBS 171100Z 1712/1812 VRB04KT CAVOK"
    },
    {
      "icao": "LRBV",
      "alert": "OK",
      "vis_m": 9999,
      "fzfg": false,
      "metar_trigger": false,
      "taf_trigger": false,
      "metar": "METAR LRBV 171330Z 24003KT 210V290 9999 FEW042 SCT074 20/12 Q1019",
      "taf": "TAF LRBV 171100Z 1712/1721 30009KT 9999 BKN060"
    },
    {
      "icao": "LRCL",
      "alert": "OK",
      "vis_m": 9999,
      "fzfg": false,
      "metar_trigger": false,
      "taf_trigger": false,
      "metar": "METAR LRCL 171330Z 08007KT 9999 FEW015 FEW044CB BKN045 21/14 Q1017",
      "taf": "TAF LRCL 171100Z 1712/1721 24008KT 9999 FEW040CB BKN055"
    },
    {
      "icao": "LRCV",
      "alert": "OK",
      "vis_m": 9999,
      "fzfg": false,
      "metar_trigger": false,
      "taf_trigger": false,
      "metar": "METAR LRCV 171330Z 33006KT 300V360 CAVOK 27/11 Q1017",
      "taf": "TAF LRCV 171100Z 1712/1721 VRB04KT CAVOK"
    },
    {
      "icao": "LRIA",
      "alert": "OK",
      "vis_m": 9999,
      "fzfg": false,
      "metar_trigger": false,
      "taf_trigger": false,
      "metar": "METAR LRIA 171330Z 25008KT 220V280 9999 -SHRA FEW045CB 21/12 Q1017",
      "taf": "TAF LRIA 171100Z 1712/1721 29006KT CAVOK"
    },
    {
      "icao": "LROP",
      "alert": "OK",
      "vis_m": 9999,
      "fzfg": false,
      "metar_trigger": false,
      "taf_trigger": false,
      "metar": "METAR LROP 171330Z 29007KT CAVOK 29/12 Q1016 NOSIG",
      "taf": "TAF LROP 171100Z 1712/1812 VRB04KT CAVOK"
    },
    {
      "icao": "LRSB",
      "alert": "OK",
      "vis_m": 9999,
      "fzfg": false,
      "metar_trigger": false,
      "taf_trigger": false,
      "metar": "METAR LRSB 171330Z 12003KT 080V190 9999 FEW060 SCT083 22/12 Q1019",
      "taf": "TAF LRSB 171100Z 1712/1812 30010KT 9999 BKN055"
    },
    {
      "icao": "LRSM",
      "alert": "OK",
      "vis_m": 5000,
      "fzfg": false,
      "metar_trigger": false,
      "taf_trigger": false,
      "metar": "METAR LRSM 171330Z COR 23011G23KT 5000 0600SE R19/P2000 +TSRA BKN045CB 17/15 Q1017",
      "taf": "TAF LRSM 171100Z 1712/1721 30008KT 9999 SCT040CB"
    },
    {
      "icao": "LRSV",
      "alert": "OK",
      "vis_m": 9999,
      "fzfg": false,
      "metar_trigger": false,
      "taf_trigger": false,
      "metar": "METAR LRSV 171330Z 20005KT 150V250 9999 FEW048 21/12 Q1016",
      "taf": "TAF LRSV 171100Z 1712/1721 35007KT CAVOK"
    },
    {
      "icao": "LRTM",
      "alert": "OK",
      "vis_m": 9999,
      "fzfg": false,
      "metar_trigger": false,
      "taf_trigger": false,
      "metar": "METAR LRTM 171330Z 20008KT 160V230 9999 FEW031 22/16 Q1018",
      "taf": "TAF LRTM 171100Z 1712/1721 24007KT 9999 SCT045"
    },
    {
      "icao": "LRTR",
      "alert": "OK",
      "vis_m": 9999,
      "fzfg": false,
      "metar_trigger": false,
      "taf_trigger": false,
      "metar": "METAR LRTR 171330Z 22006KT 180V350 CAVOK 28/10 Q1017",
      "taf": "TAF LRTR 171100Z 1712/1812 VRB04KT CAVOK"
    },
    {
      "icao": "LTAC",
      "alert": "OK",
      "vis_m": 9999,
      "fzfg": false,
      "metar_trigger": false,
      "taf_trigger": false,
      "metar": "METAR LTAC 171320Z VRB02KT 9999 SCT040 28/07 Q1017 NOSIG RMK RWY21C VRB02KT RWY03L VRB02KT RWY21R VRB02KT RWY03R VRB03KT RWY21L VRB02KT",
      "taf": "TAF LTAC 171040Z 1712/1812 VRB02KT 9999 SCT040"
    },
    {
      "icao": "LTFM",
      "alert": "OK",
      "vis_m": 9999,
      "fzfg": false,
      "metar_trigger": false,
      "taf_trigger": false,
      "metar": "METAR LTFM 171320Z 05015KT 9999 FEW014 SCT022 BKN180 23/18 Q1017 NOSIG RMK RWY17L 04014KT RWY34L 04014KT RWY16R 04014KT RWY36 06016G26KT RWY18 06013KT",
      "taf": "TAF LTFM 171040Z 1712/1818 05015KT 9999 FEW014 SCT022 BKN180"
    },
    {
      "icao": "LUKK",
      "alert": "OK",
      "vis_m": 9999,
      "fzfg": false,
      "metar_trigger": false,
      "taf_trigger": false,
      "metar": "METAR LUKK 171330Z 30012KT 9999 FEW049CB 25/12 Q1015 TEMPO VRB16G26KT",
      "taf": ""
    },
    {
      "icao": "LWOH",
      "alert": "OK",
      "vis_m": 9999,
      "fzfg": false,
      "metar_trigger": false,
      "taf_trigger": false,
      "metar": "METAR LWOH 171350Z 29003KT 250V320 9999 FEW040TCU SCT050 BKN090 21/13 Q1020",
      "taf": "TAF LWOH 171120Z 1712/1812 16010KT 9999 SCT035"
    },
    {
      "icao": "LWSK",
      "alert": "OK",
      "vis_m": 9999,
      "fzfg": false,
      "metar_trigger": false,
      "taf_trigger": false,
      "metar": "METAR LWSK 171350Z 32008KT 250V010 9999 FEW050 31/11 Q1016 NOSIG",
      "taf": "TAF LWSK 171120Z 1712/1812 VRB02KT 9999 FEW050"
    },
    {
      "icao": "LYBE",
      "alert": "OK",
      "vis_m": 9999,
      "fzfg": false,
      "metar_trigger": false,
      "taf_trigger": false,
      "metar": "METAR LYBE 171330Z 30010KT 260V320 CAVOK 29/11 Q1018 NOSIG",
      "taf": "TAF LYBE 171100Z 1712/1812 28007KT 9999 SCT040 TX30/1713Z TN15/1804Z"
    },
    {
      "icao": "LYNI",
      "alert": "OK",
      "vis_m": 9999,
      "fzfg": false,
      "metar_trigger": false,
      "taf_trigger": false,
      "metar": "METAR LYNI 171330Z 33009KT 250V360 9999 FEW050 29/07 Q1017 NOSIG",
      "taf": "TAF LYNI 171100Z 1712/1812 33012KT 9999 SCT040 TX30/1714Z TN13/1803Z"
    },
    {
      "icao": "LYPG",
      "alert": "OK",
      "vis_m": 9999,
      "fzfg": false,
      "metar_trigger": false,
      "taf_trigger": false,
      "metar": "METAR LYPG 171330Z 28007KT 250V330 9999 FEW040TCU BKN050 29/17 Q1016 NOSIG",
      "taf": "TAF LYPG 171100Z 1712/1812 18008KT 9999 SCT050 TX32/1812Z TN22/1803Z"
    },
    {
      "icao": "LZIB",
      "alert": "OK",
      "vis_m": 9999,
      "fzfg": false,
      "metar_trigger": false,
      "taf_trigger": false,
      "metar": "METAR LZIB 171330Z 30011KT 270V330 CAVOK 28/12 Q1017 NOSIG",
      "taf": "TAF LZIB 171115Z 1712/1812 30009KT 9999 SCT045"
    },
    {
      "icao": "LZKZ",
      "alert": "OK",
      "vis_m": 9999,
      "fzfg": false,
      "metar_trigger": false,
      "taf_trigger": false,
      "metar": "METAR LZKZ 171330Z 35015KT 9999 TSRA SCT025CB 18/15 Q1018 BECMG NSW",
      "taf": "TAF LZKZ 171115Z 1712/1812 20005KT 9999 SCT040"
    },
    {
      "icao": "LZTT",
      "alert": "OK",
      "vis_m": 9999,
      "fzfg": false,
      "metar_trigger": false,
      "taf_trigger": false,
      "metar": "METAR LZTT 171330Z 27011KT 9999 SCT064 21/13 Q1018 TEMPO FEW40TCU",
      "taf": "TAF LZTT 171115Z 1712/1812 27011KT 9999 SCT055"
    },
    {
      "icao": "OEJN",
      "alert": "OK",
      "vis_m": 8000,
      "fzfg": false,
      "metar_trigger": false,
      "taf_trigger": false,
      "metar": "METAR OEJN 171300Z 31012KT 8000 NSC 39/16 Q1005 NOSIG",
      "taf": "TAF OEJN 171100Z 1712/1818 30016KT 7000 NSC"
    },
    {
      "icao": "OEMA",
      "alert": "OK",
      "vis_m": 9999,
      "fzfg": false,
      "metar_trigger": false,
      "taf_trigger": false,
      "metar": "METAR OEMA 171300Z 25006KT CAVOK 44/M04 Q1010 NOSIG",
      "taf": "TAF OEMA 171100Z 1712/1818 30012KT CAVOK"
    },
    {
      "icao": "OJAI",
      "alert": "OK",
      "vis_m": 5000,
      "fzfg": false,
      "metar_trigger": false,
      "taf_trigger": false,
      "metar": "METAR OJAI 171300Z 27010KT 5000 DU NSC 33/03 Q1015 NOSIG",
      "taf": "TAF OJAI 171100Z 1712/1818 28008KT 5000 HZ NSC"
    },
    {
      "icao": "OMAA",
      "alert": "OK",
      "vis_m": 9999,
      "fzfg": false,
      "metar_trigger": false,
      "taf_trigger": false,
      "metar": "METAR OMAA 171330Z 28009KT CAVOK 37/23 Q1000 NOSIG",
      "taf": "TAF OMAA 171100Z 1712/1818 30011KT 8000 NSC"
    },
    {
      "icao": "OMDB",
      "alert": "OK",
      "vis_m": 9999,
      "fzfg": false,
      "metar_trigger": false,
      "taf_trigger": false,
      "metar": "METAR OMDB 171330Z 01007KT CAVOK 37/23 Q1000 NOSIG",
      "taf": "TAF OMDB 171100Z 1712/1818 34010KT 8000 NSC"
    },
    {
      "icao": "UAAA",
      "alert": "OK",
      "vis_m": 9999,
      "fzfg": false,
      "metar_trigger": false,
      "taf_trigger": false,
      "metar": "METAR UAAA 171330Z 18007G14MPS 150V230 9999 BKN050CB OVC100 27/11 Q1012 NOSIG",
      "taf": "TAF UAAA 171101Z 1712/1812 20003G08MPS 9999 SCT050CB BKN100 TX32/1810Z TN17/1801Z"
    },
    {
      "icao": "UBBB",
      "alert": "OK",
      "vis_m": 9999,
      "fzfg": false,
      "metar_trigger": false,
      "taf_trigger": false,
      "metar": "METAR UBBB 171330Z 16012KT CAVOK 27/17 Q1015 NOSIG",
      "taf": "TAF UBBB 171056Z 1712/1812 15012KT CAVOK TX29/1712Z TN20/1801Z"
    },
    {
      "icao": "UDSG",
      "alert": "OK",
      "vis_m": 9999,
      "fzfg": false,
      "metar_trigger": false,
      "taf_trigger": false,
      "metar": "METAR UDSG 171330Z 07012KT 9999 SCT040CB 24/13 Q1021 NOSIG",
      "taf": "TAF UDSG 171100Z 1712/1812 06006KT 9999 FEW040"
    },
    {
      "icao": "UDYZ",
      "alert": "OK",
      "vis_m": 9999,
      "fzfg": false,
      "metar_trigger": false,
      "taf_trigger": false,
      "metar": "METAR UDYZ 171330Z 22003KT 140V300 9999 FEW043CB 32/10 Q1014 NOSIG",
      "taf": "TAF UDYZ 171100Z 1712/1812 04006KT 9999 SCT040"
    },
    {
      "icao": "UGKO",
      "alert": "OK",
      "vis_m": 9999,
      "fzfg": false,
      "metar_trigger": false,
      "taf_trigger": false,
      "metar": "METAR UGKO 171330Z 27012KT CAVOK 28/16 Q1015 NOSIG",
      "taf": "TAF UGKO 171100Z 1712/1812 27007KT CAVOK TX31/1810Z TN16/1802Z"
    }
  ]
}