{
  "ts_utc": "2026-05-09T22:05:40Z",
  "threshold_m": 150,
  "source": "stations_override.txt (ICAO list) + aviationweather.gov (METAR/TAF raw)",
  "station_count": 159,
  "stations": [
    {
      "icao": "BIKF",
      "alert": "OK",
      "vis_m": 9999,
      "fzfg": false,
      "metar_trigger": false,
      "taf_trigger": false,
      "metar": "METAR BIKF 092200Z 29005KT 9999 SCT008 OVC014 07/06 Q1023",
      "taf": "TAF BIKF 091951Z 0921/1021 27007KT 4500 -RADZ BKN008 OVC014 TX08/1012Z TN06/1006Z"
    },
    {
      "icao": "BKPR",
      "alert": "OK",
      "vis_m": 7000,
      "fzfg": false,
      "metar_trigger": false,
      "taf_trigger": false,
      "metar": "METAR BKPR 092200Z VRB02KT 7000 NSC 11/11 Q1018 NOSIG",
      "taf": "TAF BKPR 091730Z 0918/1018 VRB05KT 9999 BKN050"
    },
    {
      "icao": "EBCI",
      "alert": "OK",
      "vis_m": 9999,
      "fzfg": false,
      "metar_trigger": false,
      "taf_trigger": false,
      "metar": "METAR EBCI 092150Z 04007KT CAVOK 14/07 Q1015 NOSIG",
      "taf": "TAF EBCI 091714Z 0918/1024 05007KT CAVOK"
    },
    {
      "icao": "EDDB",
      "alert": "OK",
      "vis_m": 9999,
      "fzfg": false,
      "metar_trigger": false,
      "taf_trigger": false,
      "metar": "METAR EDDB 092150Z AUTO 09004KT CAVOK 08/07 Q1019 NOSIG",
      "taf": "TAF EDDB 091700Z 0918/1018 10004KT CAVOK"
    },
    {
      "icao": "EDDH",
      "alert": "OK",
      "vis_m": 9999,
      "fzfg": false,
      "metar_trigger": false,
      "taf_trigger": false,
      "metar": "METAR EDDH 092150Z AUTO 10004KT CAVOK 13/05 Q1018 NOSIG",
      "taf": "TAF EDDH 091700Z 0918/1024 12007KT 9999 SCT045"
    },
    {
      "icao": "EDDK",
      "alert": "OK",
      "vis_m": 9999,
      "fzfg": false,
      "metar_trigger": false,
      "taf_trigger": false,
      "metar": "METAR EDDK 092150Z AUTO 10001KT CAVOK 11/08 Q1015 NOSIG",
      "taf": "TAF EDDK 091700Z 0918/1024 10003KT CAVOK"
    },
    {
      "icao": "EDDN",
      "alert": "OK",
      "vis_m": 9999,
      "fzfg": false,
      "metar_trigger": false,
      "taf_trigger": false,
      "metar": "METAR EDDN 092150Z AUTO 09006KT CAVOK 15/08 Q1015",
      "taf": "TAF EDDN 091700Z 0918/1018 07003KT CAVOK"
    },
    {
      "icao": "EDDS",
      "alert": "OK",
      "vis_m": 9999,
      "fzfg": false,
      "metar_trigger": false,
      "taf_trigger": false,
      "metar": "METAR EDDS 092150Z AUTO 32004KT CAVOK 15/09 Q1014",
      "taf": "TAF EDDS 091700Z 0918/1018 03005KT CAVOK"
    },
    {
      "icao": "EDFH",
      "alert": "OK",
      "vis_m": 9999,
      "fzfg": false,
      "metar_trigger": false,
      "taf_trigger": false,
      "metar": "METAR EDFH 092150Z 11003KT 080V150 CAVOK 13/06 Q1015",
      "taf": "TAF EDFH 091700Z 0918/1018 10005KT CAVOK"
    },
    {
      "icao": "EDJA",
      "alert": "OK",
      "vis_m": 9999,
      "fzfg": false,
      "metar_trigger": false,
      "taf_trigger": false,
      "metar": "METAR EDJA 092150Z AUTO 08007KT 9999 // FEW150/// 14/07 Q1014",
      "taf": "TAF EDJA 091700Z 0918/1003 06005KT CAVOK"
    },
    {
      "icao": "EDLW",
      "alert": "OK",
      "vis_m": 9999,
      "fzfg": false,
      "metar_trigger": false,
      "taf_trigger": false,
      "metar": "METAR EDLW 092150Z AUTO VRB01KT 9999 // NCD 13/08 Q1015",
      "taf": "TAF EDLW 091700Z 0918/1018 07004KT CAVOK"
    },
    {
      "icao": "EDNY",
      "alert": "OK",
      "vis_m": 9999,
      "fzfg": false,
      "metar_trigger": false,
      "taf_trigger": false,
      "metar": "METAR EDNY 092150Z AUTO 02003KT 330V050 9999 // NCD 16/07 Q1013",
      "taf": "TAF EDNY 091700Z 0918/1003 03004KT CAVOK"
    },
    {
      "icao": "EDSB",
      "alert": "OK",
      "vis_m": 9999,
      "fzfg": false,
      "metar_trigger": false,
      "taf_trigger": false,
      "metar": "METAR EDSB 092150Z 02005KT CAVOK 16/10 Q1013",
      "taf": "TAF EDSB 091700Z 0918/1018 02006KT CAVOK"
    },
    {
      "icao": "EETN",
      "alert": "OK",
      "vis_m": 9999,
      "fzfg": false,
      "metar_trigger": false,
      "taf_trigger": false,
      "metar": "METAR EETN 092150Z 10006KT CAVOK 06/M03 Q1022 NOSIG",
      "taf": "TAF EETN 091730Z 0918/1018 06012KT CAVOK"
    },
    {
      "icao": "EFTU",
      "alert": "OK",
      "vis_m": 9999,
      "fzfg": false,
      "metar_trigger": false,
      "taf_trigger": false,
      "metar": "METAR EFTU 092150Z AUTO 11003KT CAVOK 02/M07 Q1022",
      "taf": "TAF EFTU 092031Z 0921/1021 13005KT CAVOK"
    },
    {
      "icao": "EGBB",
      "alert": "OK",
      "vis_m": 9999,
      "fzfg": false,
      "metar_trigger": false,
      "taf_trigger": false,
      "metar": "METAR EGBB 092150Z 02012KT 9999 OVC012 10/07 Q1020",
      "taf": ""
    },
    {
      "icao": "EGGP",
      "alert": "OK",
      "vis_m": 9999,
      "fzfg": false,
      "metar_trigger": false,
      "taf_trigger": false,
      "metar": "METAR EGGP 092150Z 04007KT 010V070 9999 FEW037 BKN043 08/04 Q1022",
      "taf": "TAF EGGP 091704Z 0918/1018 05011KT 9999 FEW045"
    },
    {
      "icao": "EGGW",
      "alert": "OK",
      "vis_m": 9999,
      "fzfg": false,
      "metar_trigger": false,
      "taf_trigger": false,
      "metar": "METAR EGGW 092150Z AUTO 03010KT 9999 NCD 11/02 Q1018",
      "taf": "TAF EGGW 091658Z 0918/1018 08006KT 9999 FEW045"
    },
    {
      "icao": "EGKK",
      "alert": "OK",
      "vis_m": 9999,
      "fzfg": false,
      "metar_trigger": false,
      "taf_trigger": false,
      "metar": "METAR EGKK 092150Z 05008G18KT 020V100 CAVOK 12/03 Q1017",
      "taf": "TAF EGKK 091700Z 0918/1024 05009KT CAVOK"
    },
    {
      "icao": "EGNM",
      "alert": "OK",
      "vis_m": 9999,
      "fzfg": false,
      "metar_trigger": false,
      "taf_trigger": false,
      "metar": "METAR EGNM 092150Z 02014KT 9999 SCT025 BKN031 06/05 Q1022",
      "taf": "TAF EGNM 091707Z 0918/1018 04013KT 9999 SCT040"
    },
    {
      "icao": "EGPD",
      "alert": "OK",
      "vis_m": 9999,
      "fzfg": false,
      "metar_trigger": false,
      "taf_trigger": false,
      "metar": "METAR EGPD 092150Z COR AUTO 30002KT 9999 BKN042 06/M01 Q1026 NOSIG",
      "taf": "TAF EGPD 091654Z 0918/1018 36010KT 9999 SCT045"
    },
    {
      "icao": "EGPF",
      "alert": "OK",
      "vis_m": 9999,
      "fzfg": false,
      "metar_trigger": false,
      "taf_trigger": false,
      "metar": "METAR EGPF 092150Z AUTO 08004KT 9999 -RA BKN040 07/04 Q1026",
      "taf": "TAF EGPF 091659Z 0918/1018 06004KT 9999 SCT030"
    },
    {
      "icao": "EHBK",
      "alert": "OK",
      "vis_m": 9999,
      "fzfg": false,
      "metar_trigger": false,
      "taf_trigger": false,
      "metar": "METAR EHBK 092155Z AUTO 06005KT 9999 NSC 14/07 Q1015",
      "taf": "TAF EHBK 091701Z 0918/1024 04005KT CAVOK"
    },
    {
      "icao": "EHEH",
      "alert": "OK",
      "vis_m": 9999,
      "fzfg": false,
      "metar_trigger": false,
      "taf_trigger": false,
      "metar": "METAR EHEH 092155Z AUTO 01003KT 9999 FEW290 11/07 Q1016 BLU NOSIG RMK TREND REMOTE BY EHWX",
      "taf": "TAF EHEH 091720Z 0918/1024 03007KT CAVOK"
    },
    {
      "icao": "EKBI",
      "alert": "OK",
      "vis_m": 9999,
      "fzfg": false,
      "metar_trigger": false,
      "taf_trigger": false,
      "metar": "METAR EKBI 092150Z AUTO 08002KT 9999 NCD 04/02 Q1019",
      "taf": "TAF EKBI 092027Z 0921/1021 11006KT CAVOK"
    },
    {
      "icao": "EKCH",
      "alert": "OK",
      "vis_m": 9999,
      "fzfg": false,
      "metar_trigger": false,
      "taf_trigger": false,
      "metar": "METAR EKCH 092150Z AUTO 14004KT 9999 NCD 09/05 Q1020 NOSIG",
      "taf": "TAF EKCH 092027Z 0921/1021 16006KT CAVOK"
    },
    {
      "icao": "ENAL",
      "alert": "OK",
      "vis_m": 9999,
      "fzfg": false,
      "metar_trigger": false,
      "taf_trigger": false,
      "metar": "METAR ENAL 092150Z AUTO 22019KT 9999 FEW018/// BKN021/// BKN026/// 06/03 Q1017",
      "taf": "TAF ENAL 092000Z 0921/1006 23018KT 9999 FEW012 SCT020"
    },
    {
      "icao": "ENBR",
      "alert": "OK",
      "vis_m": 9999,
      "fzfg": false,
      "metar_trigger": false,
      "taf_trigger": false,
      "metar": "METAR ENBR 092150Z 00000KT 9999 SCT040CB 04/03 Q1021 RMK WIND 1200FT 30006KT",
      "taf": "TAF ENBR 091700Z 0918/1018 26005KT 9999 -SHRA FEW018 BKN035"
    },
    {
      "icao": "ENGM",
      "alert": "OK",
      "vis_m": 9999,
      "fzfg": false,
      "metar_trigger": false,
      "taf_trigger": false,
      "metar": "METAR ENGM 092150Z VRB01KT CAVOK 07/M02 Q1017",
      "taf": "TAF ENGM 091700Z 0918/1018 20015KT CAVOK"
    },
    {
      "icao": "ENHD",
      "alert": "OK",
      "vis_m": 9999,
      "fzfg": false,
      "metar_trigger": false,
      "taf_trigger": false,
      "metar": "METAR ENHD 092150Z AUTO 33007KT 9999 SCT021/// BKN027/// 07/03 Q1021",
      "taf": "TAF ENHD 091400Z 0915/0922 33005KT 9999 -RA FEW008 BKN020"
    },
    {
      "icao": "ENTC",
      "alert": "OK",
      "vis_m": 9999,
      "fzfg": false,
      "metar_trigger": false,
      "taf_trigger": false,
      "metar": "METAR ENTC 092150Z AUTO 05005KT 9999 NCD 07/00 Q1012 RMK WIND 2600FT 16005KT",
      "taf": "TAF ENTC 091700Z 0918/1018 02006KT 9999 SCT060"
    },
    {
      "icao": "ENTO",
      "alert": "OK",
      "vis_m": 9999,
      "fzfg": false,
      "metar_trigger": false,
      "taf_trigger": false,
      "metar": "METAR ENTO 092150Z AUTO 22005KT 9999 NCD 08/04 Q1017",
      "taf": "TAF ENTO 091700Z 0918/1018 20010KT CAVOK"
    },
    {
      "icao": "ENVA",
      "alert": "OK",
      "vis_m": 9999,
      "fzfg": false,
      "metar_trigger": false,
      "taf_trigger": false,
      "metar": "METAR ENVA 092150Z 12004KT CAVOK 06/06 Q1015 RMK WIND 670FT 16007KT",
      "taf": "TAF ENVA 091700Z 0918/1018 13005KT 9999 -RA SCT020 BKN035"
    },
    {
      "icao": "ENZV",
      "alert": "OK",
      "vis_m": 9999,
      "fzfg": false,
      "metar_trigger": false,
      "taf_trigger": false,
      "metar": "METAR ENZV 092150Z 33004KT 9999 FEW011 SCT025 06/03 Q1021",
      "taf": "TAF ENZV 091700Z 0918/1018 34005KT 9999 FEW010 BKN025"
    },
    {
      "icao": "EPGD",
      "alert": "OK",
      "vis_m": 9999,
      "fzfg": false,
      "metar_trigger": false,
      "taf_trigger": false,
      "metar": "METAR EPGD 092200Z 29003KT CAVOK 04/M01 Q1020",
      "taf": "TAF EPGD 091730Z 0918/1018 04010KT CAVOK"
    },
    {
      "icao": "EPKK",
      "alert": "OK",
      "vis_m": 9999,
      "fzfg": false,
      "metar_trigger": false,
      "taf_trigger": false,
      "metar": "METAR EPKK 092200Z 03003KT CAVOK 07/06 Q1020",
      "taf": "TAF EPKK 092030Z 0921/1021 04005KT 9999 BKN050"
    },
    {
      "icao": "EPKT",
      "alert": "OK",
      "vis_m": 5000,
      "fzfg": false,
      "metar_trigger": false,
      "taf_trigger": false,
      "metar": "METAR EPKT 092200Z 06002KT 5000 0300N BCFG BR NSC 03/02 Q1020",
      "taf": ""
    },
    {
      "icao": "EPLB",
      "alert": "OK",
      "vis_m": 9999,
      "fzfg": false,
      "metar_trigger": false,
      "taf_trigger": false,
      "metar": "METAR EPLB 092200Z 31005KT CAVOK 06/04 Q1019",
      "taf": "TAF EPLB 091730Z 0918/1018 33005KT 9999 BKN040"
    },
    {
      "icao": "EPMO",
      "alert": "OK",
      "vis_m": 9999,
      "fzfg": false,
      "metar_trigger": false,
      "taf_trigger": false,
      "metar": "METAR EPMO 092200Z 08003KT CAVOK 06/04 Q1020",
      "taf": "TAF EPMO 091730Z 0918/1018 06010KT CAVOK"
    },
    {
      "icao": "EPPO",
      "alert": "OK",
      "vis_m": 9999,
      "fzfg": false,
      "metar_trigger": false,
      "taf_trigger": false,
      "metar": "METAR EPPO 092200Z VRB02KT CAVOK 06/04 Q1019",
      "taf": "TAF EPPO 091730Z 0918/1018 VRB02KT CAVOK"
    },
    {
      "icao": "EPRA",
      "alert": "OK",
      "vis_m": 9999,
      "fzfg": false,
      "metar_trigger": false,
      "taf_trigger": false,
      "metar": "METAR EPRA 092200Z VRB02KT CAVOK 06/04 Q1020",
      "taf": "TAF EPRA 092030Z 0921/1006 VRB02KT CAVOK"
    },
    {
      "icao": "EPRZ",
      "alert": "OK",
      "vis_m": 9999,
      "fzfg": false,
      "metar_trigger": false,
      "taf_trigger": false,
      "metar": "METAR EPRZ 092200Z 28003KT CAVOK 08/07 Q1020",
      "taf": "TAF EPRZ 091730Z 0918/1018 34007KT 9999 BKN047"
    },
    {
      "icao": "EPSC",
      "alert": "OK",
      "vis_m": 9999,
      "fzfg": false,
      "metar_trigger": false,
      "taf_trigger": false,
      "metar": "METAR EPSC 092200Z 06006KT CAVOK 10/01 Q1019",
      "taf": "TAF EPSC 091730Z 0918/1018 03007KT CAVOK"
    },
    {
      "icao": "EPSY",
      "alert": "OK",
      "vis_m": 9999,
      "fzfg": false,
      "metar_trigger": false,
      "taf_trigger": false,
      "metar": "METAR EPSY 092200Z 00000KT CAVOK 01/00 Q1020",
      "taf": "TAF EPSY 092030Z 0921/1006 VRB02KT CAVOK"
    },
    {
      "icao": "EPWA",
      "alert": "OK",
      "vis_m": 9999,
      "fzfg": false,
      "metar_trigger": false,
      "taf_trigger": false,
      "metar": "METAR EPWA 092200Z 18002KT CAVOK 05/04 Q1020 NOSIG",
      "taf": "TAF EPWA 092030Z 0921/1021 VRB02KT CAVOK"
    },
    {
      "icao": "EPWR",
      "alert": "OK",
      "vis_m": 9999,
      "fzfg": false,
      "metar_trigger": false,
      "taf_trigger": false,
      "metar": "METAR EPWR 092200Z 07001KT 9999 MIFG NSC 07/06 Q1019",
      "taf": "TAF EPWR 092030Z 0921/1021 13004KT CAVOK"
    },
    {
      "icao": "ESGG",
      "alert": "OK",
      "vis_m": 9999,
      "fzfg": false,
      "metar_trigger": false,
      "taf_trigger": false,
      "metar": "METAR ESGG 092150Z 17004KT CAVOK 07/M00 Q1019",
      "taf": "TAF ESGG 092030Z 0921/1021 16003KT CAVOK"
    },
    {
      "icao": "ESKN",
      "alert": "OK",
      "vis_m": 9999,
      "fzfg": false,
      "metar_trigger": false,
      "taf_trigger": false,
      "metar": "METAR ESKN 092150Z 12005KT CAVOK 05/02 Q1020",
      "taf": "TAF ESKN 092030Z 0921/1021 11003KT CAVOK"
    },
    {
      "icao": "ESMS",
      "alert": "OK",
      "vis_m": 9999,
      "fzfg": false,
      "metar_trigger": false,
      "taf_trigger": false,
      "metar": "METAR ESMS 092150Z 11004KT CAVOK 03/00 Q1020",
      "taf": "TAF ESMS 092027Z 0921/1021 14010KT CAVOK"
    },
    {
      "icao": "ESSA",
      "alert": "OK",
      "vis_m": 9999,
      "fzfg": false,
      "metar_trigger": false,
      "taf_trigger": false,
      "metar": "METAR ESSA 092150Z 15004KT CAVOK 05/M01 Q1020 NOSIG",
      "taf": "TAF ESSA 092030Z 0921/1021 14007KT CAVOK"
    },
    {
      "icao": "EYKA",
      "alert": "OK",
      "vis_m": 6000,
      "fzfg": false,
      "metar_trigger": false,
      "taf_trigger": false,
      "metar": "METAR EYKA 092150Z 34005KT 310V010 6000 OVC004 06/05 Q1018",
      "taf": ""
    },
    {
      "icao": "EYPA",
      "alert": "OK",
      "vis_m": 9999,
      "fzfg": false,
      "metar_trigger": false,
      "taf_trigger": false,
      "metar": "METAR EYPA 092150Z AUTO VRB01KT 9999 NCD 04/01 Q1020",
      "taf": "TAF EYPA 091700Z 0918/1018 10010KT 9000 NSC"
    },
    {
      "icao": "EYVI",
      "alert": "OK",
      "vis_m": 4800,
      "fzfg": false,
      "metar_trigger": false,
      "taf_trigger": false,
      "metar": "METAR EYVI 092150Z 31005KT 4800 BR OVC002 06/05 Q1016 NOSIG",
      "taf": "TAF EYVI 091700Z 0918/1018 36010KT 5000 BR OVC005"
    },
    {
      "icao": "GCFV",
      "alert": "OK",
      "vis_m": 9999,
      "fzfg": false,
      "metar_trigger": false,
      "taf_trigger": false,
      "metar": "METAR GCFV 092200Z 36005KT 320V020 9999 FEW037 20/14 Q1018",
      "taf": "TAF GCFV 092000Z 0921/1021 30005KT 9999 SCT040 TX24/1014Z TN17/1006Z"
    },
    {
      "icao": "GCLP",
      "alert": "OK",
      "vis_m": 9999,
      "fzfg": false,
      "metar_trigger": false,
      "taf_trigger": false,
      "metar": "METAR GCLP 092200Z 36007KT 9999 SCT025 BKN045 20/15 Q1018 NOSIG",
      "taf": "TAF GCLP 092000Z 0921/1021 36007KT 9999 SCT020 BKN035 TX23/1014Z TN17/1006Z"
    },
    {
      "icao": "GCTS",
      "alert": "OK",
      "vis_m": 9999,
      "fzfg": false,
      "metar_trigger": false,
      "taf_trigger": false,
      "metar": "METAR GCTS 092200Z 06007KT 020V080 9999 FEW030 BKN045 20/13 Q1018 NOSIG",
      "taf": "TAF GCTS 092000Z 0921/1021 04006KT 9999 SCT040 TX25/1014Z TN18/1006Z"
    },
    {
      "icao": "GMAD",
      "alert": "OK",
      "vis_m": 9999,
      "fzfg": false,
      "metar_trigger": false,
      "taf_trigger": false,
      "metar": "METAR GMAD 092200Z 23008KT 9999 FEW033 17/14 Q1017 NOSIG",
      "taf": "TAF GMAD 091700Z 0918/1024 26010KT 8000 SCT026"
    },
    {
      "icao": "GMMN",
      "alert": "OK",
      "vis_m": 9999,
      "fzfg": false,
      "metar_trigger": false,
      "taf_trigger": false,
      "metar": "METAR GMMN 092200Z 26007KT 9999 SCT020 15/12 Q1017 NOSIG",
      "taf": "TAF GMMN 091700Z 0918/1024 26012KT 9999 BKN030"
    },
    {
      "icao": "GMMX",
      "alert": "OK",
      "vis_m": 9999,
      "fzfg": false,
      "metar_trigger": false,
      "taf_trigger": false,
      "metar": "METAR GMMX 092200Z 27006KT 9999 SCT026 17/10 Q1017 NOSIG",
      "taf": "TAF GMMX 091700Z 0918/1024 32015KT 9999 BKN026"
    },
    {
      "icao": "HEGN",
      "alert": "OK",
      "vis_m": 9999,
      "fzfg": false,
      "metar_trigger": false,
      "taf_trigger": false,
      "metar": "METAR HEGN 092100Z 29014KT CAVOK 27/03 Q1011 NOSIG",
      "taf": "TAF HEGN 091700Z 0918/1024 33015KT CAVOK"
    },
    {
      "icao": "HEMA",
      "alert": "OK",
      "vis_m": 9999,
      "fzfg": false,
      "metar_trigger": false,
      "taf_trigger": false,
      "metar": "METAR HEMA 092100Z 32009KT CAVOK 25/11 Q1011 NOSIG",
      "taf": "TAF HEMA 091700Z 0918/1024 34015KT CAVOK"
    },
    {
      "icao": "HESH",
      "alert": "OK",
      "vis_m": null,
      "fzfg": false,
      "metar_trigger": false,
      "taf_trigger": false,
      "metar": "",
      "taf": "TAF HESH 091700Z 0918/1024 01015KT CAVOK"
    },
    {
      "icao": "HESX",
      "alert": "OK",
      "vis_m": 9999,
      "fzfg": false,
      "metar_trigger": false,
      "taf_trigger": false,
      "metar": "METAR HESX 092100Z 03007KT CAVOK 20/10 Q1016 NOSIG",
      "taf": "TAF HESX 091700Z 0918/1024 06014KT CAVOK"
    },
    {
      "icao": "LATI",
      "alert": "OK",
      "vis_m": 5000,
      "fzfg": false,
      "metar_trigger": false,
      "taf_trigger": false,
      "metar": "METAR LATI 092150Z 13001KT 5000 0600S R17/P2000N R35/0800U BCFG NSC 14/12 Q1018 NOSIG",
      "taf": "TAF LATI 091700Z 0918/1018 VRB04KT CAVOK TX24/1012Z TN11/1004Z"
    },
    {
      "icao": "LBPD",
      "alert": "OK",
      "vis_m": 9999,
      "fzfg": false,
      "metar_trigger": false,
      "taf_trigger": false,
      "metar": "METAR LBPD 092200Z AUTO VRB02KT 9999 OVC100/// 15/15 Q1015",
      "taf": "TAF LBPD 091700Z 0918/1018 29010KT 9999 BKN070"
    },
    {
      "icao": "LBSF",
      "alert": "OK",
      "vis_m": 9999,
      "fzfg": false,
      "metar_trigger": false,
      "taf_trigger": false,
      "metar": "METAR LBSF 092200Z AUTO VRB02KT 9999 FEW012/// 12/12 Q1017 NOSIG",
      "taf": "TAF LBSF 091700Z 0918/1018 VRB04KT 9999 BKN050"
    },
    {
      "icao": "LBWN",
      "alert": "OK",
      "vis_m": 3700,
      "fzfg": false,
      "metar_trigger": false,
      "taf_trigger": false,
      "metar": "METAR LBWN 092200Z AUTO VRB02KT 3700 BR FEW008/// 14/14 Q1014 TEMPO 1500 BR BKN005",
      "taf": "TAF LBWN 091700Z 0918/1018 VRB03KT 9999 SCT030 BKN045"
    },
    {
      "icao": "LCLK",
      "alert": "OK",
      "vis_m": 9999,
      "fzfg": false,
      "metar_trigger": false,
      "taf_trigger": false,
      "metar": "METAR LCLK 092200Z 33005KT CAVOK 21/13 Q1015 NOSIG",
      "taf": "TAF LCLK 091730Z 0918/1018 33006KT CAVOK"
    },
    {
      "icao": "LCPH",
      "alert": "OK",
      "vis_m": 9999,
      "fzfg": false,
      "metar_trigger": false,
      "taf_trigger": false,
      "metar": "METAR LCPH 092200Z 35005KT CAVOK 18/05 Q1016 NOSIG",
      "taf": "TAF LCPH 091730Z 0918/1018 35009KT CAVOK"
    },
    {
      "icao": "LEAL",
      "alert": "OK",
      "vis_m": 9999,
      "fzfg": false,
      "metar_trigger": false,
      "taf_trigger": false,
      "metar": "METAR LEAL 092200Z VRB02KT CAVOK 17/15 Q1015 NOSIG",
      "taf": "TAF LEAL 091700Z 0918/1018 22010KT 9999 FEW035 TX26/1012Z TN13/1005Z"
    },
    {
      "icao": "LEBB",
      "alert": "OK",
      "vis_m": 9999,
      "fzfg": false,
      "metar_trigger": false,
      "taf_trigger": false,
      "metar": "METAR LEBB 092200Z VRB01KT CAVOK 15/14 Q1008 NOSIG",
      "taf": ""
    },
    {
      "icao": "LEBL",
      "alert": "OK",
      "vis_m": 6000,
      "fzfg": false,
      "metar_trigger": false,
      "taf_trigger": false,
      "metar": "METAR LEBL 092200Z 31004KT 6000 BKN050 15/14 Q1013 NOSIG",
      "taf": "TAF LEBL 091700Z 0918/1018 03010KT 9999 FEW020 TX21/1013Z TN13/1005Z"
    },
    {
      "icao": "LECH",
      "alert": "OK",
      "vis_m": 4000,
      "fzfg": false,
      "metar_trigger": false,
      "taf_trigger": false,
      "metar": "METAR LECH 092200Z AUTO 23005KT 4000 BR FEW006 BKN031 13/12 Q1014",
      "taf": "TAF LECH 091700Z 0918/1018 04010KT 9999 FEW020 TX23/1014Z TN10/1005Z"
    },
    {
      "icao": "LEMD",
      "alert": "OK",
      "vis_m": 9999,
      "fzfg": false,
      "metar_trigger": false,
      "taf_trigger": false,
      "metar": "METAR LEMD 092200Z VRB02KT 9999 SCT040 FEW045TCU BKN055 11/10 Q1013 NOSIG",
      "taf": ""
    },
    {
      "icao": "LEMG",
      "alert": "OK",
      "vis_m": 9999,
      "fzfg": false,
      "metar_trigger": false,
      "taf_trigger": false,
      "metar": "METAR LEMG 092200Z 09004KT 9999 FEW017 16/13 Q1015 NOSIG",
      "taf": "TAF LEMG 091700Z 0918/1018 16006KT 9999 FEW015 SCT030 TX22/1014Z TN15/1007Z"
    },
    {
      "icao": "LEVC",
      "alert": "OK",
      "vis_m": 9999,
      "fzfg": false,
      "metar_trigger": false,
      "taf_trigger": false,
      "metar": "METAR LEVC 092200Z 25003KT 190V270 9999 -RA FEW031 BKN055 16/15 Q1015 NOSIG",
      "taf": "TAF LEVC 091700Z 0918/1018 VRB04KT 9999 BKN020 TX24/1012Z TN13/1005Z"
    },
    {
      "icao": "LEXJ",
      "alert": "OK",
      "vis_m": 9999,
      "fzfg": false,
      "metar_trigger": false,
      "taf_trigger": false,
      "metar": "METAR LEXJ 092200Z AUTO 21006KT 170V270 CAVOK 17/10 Q1007",
      "taf": "TAF LEXJ 092000Z 0921/1021 20009KT 9999 FEW050 TX21/1015Z TN13/1005Z"
    },
    {
      "icao": "LEZG",
      "alert": "OK",
      "vis_m": 9999,
      "fzfg": false,
      "metar_trigger": false,
      "taf_trigger": false,
      "metar": "METAR LEZG 092200Z 11009KT 9999 FEW070 16/12 Q1012 NOSIG",
      "taf": "TAF LEZG 091700Z 0918/1018 12010KT 9999 FEW020 TX23/1014Z TN11/1005Z"
    },
    {
      "icao": "LEZL",
      "alert": "OK",
      "vis_m": 9999,
      "fzfg": false,
      "metar_trigger": false,
      "taf_trigger": false,
      "metar": "METAR LEZL 092200Z 20005KT 160V240 9999 FEW025 17/14 Q1014 NOSIG",
      "taf": "TAF LEZL 092000Z 0921/1021 20008KT 9999 SCT030 TX22/1015Z TN12/1007Z"
    },
    {
      "icao": "LFBD",
      "alert": "OK",
      "vis_m": 9999,
      "fzfg": false,
      "metar_trigger": false,
      "taf_trigger": false,
      "metar": "METAR LFBD 092200Z AUTO 15007KT CAVOK 18/13 Q1009 TEMPO 4000 SHRA BKN040TCU",
      "taf": ""
    },
    {
      "icao": "LFLL",
      "alert": "OK",
      "vis_m": 9999,
      "fzfg": false,
      "metar_trigger": false,
      "taf_trigger": false,
      "metar": "METAR LFLL 092200Z 20005KT CAVOK 19/10 Q1012 NOSIG",
      "taf": "TAF LFLL 091700Z 0918/1024 18007KT CAVOK"
    },
    {
      "icao": "LFLS",
      "alert": "OK",
      "vis_m": 9999,
      "fzfg": false,
      "metar_trigger": false,
      "taf_trigger": false,
      "metar": "METAR LFLS 092200Z AUTO 35002KT 9999 FEW056/// BKN068/// BKN078/// ///CB 15/12 Q1012",
      "taf": "TAF LFLS 091400Z 0915/1015 30005KT CAVOK"
    },
    {
      "icao": "LFMN",
      "alert": "OK",
      "vis_m": 9999,
      "fzfg": false,
      "metar_trigger": false,
      "taf_trigger": false,
      "metar": "METAR LFMN 092200Z 07013KT 9999 FEW066 BKN100 20/13 Q1012 NOSIG",
      "taf": "TAF LFMN 092000Z 0921/1103 09020KT 9999 BKN080"
    },
    {
      "icao": "LFOB",
      "alert": "OK",
      "vis_m": 9999,
      "fzfg": false,
      "metar_trigger": false,
      "taf_trigger": false,
      "metar": "METAR LFOB 092200Z AUTO 04009KT CAVOK 15/09 Q1013 NOSIG",
      "taf": "TAF LFOB 091700Z 0918/1018 06008KT CAVOK"
    },
    {
      "icao": "LFPO",
      "alert": "OK",
      "vis_m": 9999,
      "fzfg": false,
      "metar_trigger": false,
      "taf_trigger": false,
      "metar": "METAR LFPO 092200Z AUTO 04008KT CAVOK 18/10 Q1012 NOSIG",
      "taf": "TAF LFPO 091700Z 0918/1024 07005KT CAVOK"
    },
    {
      "icao": "LFSB",
      "alert": "OK",
      "vis_m": 9999,
      "fzfg": false,
      "metar_trigger": false,
      "taf_trigger": false,
      "metar": "METAR LFSB 092200Z AUTO 30003KT CAVOK 15/10 Q1013 NOSIG",
      "taf": "TAF LFSB 091700Z 0918/1018 36006KT CAVOK"
    },
    {
      "icao": "LGAV",
      "alert": "OK",
      "vis_m": 9999,
      "fzfg": false,
      "metar_trigger": false,
      "taf_trigger": false,
      "metar": "METAR LGAV 092150Z 05005KT 9999 FEW030 14/11 Q1015 NOSIG",
      "taf": "TAF LGAV 091700Z 0918/1018 VRB05KT 9999 FEW025"
    },
    {
      "icao": "LGTS",
      "alert": "OK",
      "vis_m": 9999,
      "fzfg": false,
      "metar_trigger": false,
      "taf_trigger": false,
      "metar": "METAR LGTS 092150Z VRB02KT 9999 FEW020 15/15 Q1016 NOSIG",
      "taf": "TAF LGTS 091700Z 0918/1018 VRB03KT 9999 FEW025"
    },
    {
      "icao": "LHBP",
      "alert": "OK",
      "vis_m": 9999,
      "fzfg": false,
      "metar_trigger": false,
      "taf_trigger": false,
      "metar": "METAR LHBP 092200Z 08008KT CAVOK 15/08 Q1017 NOSIG",
      "taf": "TAF LHBP 091715Z 0918/1018 32007KT CAVOK"
    },
    {
      "icao": "LHDC",
      "alert": "OK",
      "vis_m": 9999,
      "fzfg": false,
      "metar_trigger": false,
      "taf_trigger": false,
      "metar": "METAR LHDC 092145Z AUTO 03010KT CAVOK 13/07 Q1017",
      "taf": "TAF LHDC 091415Z 0915/0924 02007KT CAVOK"
    },
    {
      "icao": "LIBD",
      "alert": "OK",
      "vis_m": 9999,
      "fzfg": false,
      "metar_trigger": false,
      "taf_trigger": false,
      "metar": "METAR LIBD 092150Z 21004KT CAVOK 13/12 Q1017",
      "taf": "TAF LIBD 091700Z 0918/1018 22005KT CAVOK"
    },
    {
      "icao": "LIBG",
      "alert": "OK",
      "vis_m": null,
      "fzfg": false,
      "metar_trigger": false,
      "taf_trigger": false,
      "metar": "",
      "taf": "TAF LIBG 091400Z 0915/0924 VRB05KT 9999 FEW040"
    },
    {
      "icao": "LIBP",
      "alert": "OK",
      "vis_m": 9999,
      "fzfg": false,
      "metar_trigger": false,
      "taf_trigger": false,
      "metar": "METAR LIBP 092120Z AUTO 25001KT 9999 BKN200/// 16/15 Q1016",
      "taf": "TAF LIBP 091700Z 0918/1018 VRB05KT 9999 FEW080"
    },
    {
      "icao": "LIBR",
      "alert": "OK",
      "vis_m": 9999,
      "fzfg": false,
      "metar_trigger": false,
      "taf_trigger": false,
      "metar": "METAR LIBR 092150Z VRB01KT CAVOK 15/14 Q1017",
      "taf": "TAF LIBR 091700Z 0918/1018 23005KT CAVOK"
    },
    {
      "icao": "LICA",
      "alert": "OK",
      "vis_m": 9999,
      "fzfg": false,
      "metar_trigger": false,
      "taf_trigger": false,
      "metar": "METAR LICA 092120Z AUTO 06013KT 9999 SCT150/// 19/14 Q1016",
      "taf": "TAF LICA 091700Z 0918/1018 08015KT 9999 FEW080"
    },
    {
      "icao": "LICC",
      "alert": "OK",
      "vis_m": 9999,
      "fzfg": false,
      "metar_trigger": false,
      "taf_trigger": false,
      "metar": "METAR LICC 092150Z 05008KT CAVOK 19/16 Q1017",
      "taf": "TAF LICC 091700Z 0918/1018 09010KT 9999 SCT020"
    },
    {
      "icao": "LICJ",
      "alert": "OK",
      "vis_m": 9999,
      "fzfg": false,
      "metar_trigger": false,
      "taf_trigger": false,
      "metar": "METAR LICJ 092150Z VRB01KT CAVOK 19/16 Q1011",
      "taf": "TAF LICJ 091700Z 0918/1018 08010KT CAVOK"
    },
    {
      "icao": "LIMC",
      "alert": "OK",
      "vis_m": 9999,
      "fzfg": false,
      "metar_trigger": false,
      "taf_trigger": false,
      "metar": "METAR LIMC 092150Z 03005KT CAVOK 14/10 Q1015 NOSIG",
      "taf": "TAF LIMC 091700Z 0918/1024 VRB05KT 9999 FEW030"
    },
    {
      "icao": "LIME",
      "alert": "OK",
      "vis_m": 9999,
      "fzfg": false,
      "metar_trigger": false,
      "taf_trigger": false,
      "metar": "METAR LIME 092150Z VRB02KT CAVOK 17/10 Q1015 NOSIG",
      "taf": "TAF LIME 091700Z 0918/1018 VRB05KT 9999 SCT040"
    },
    {
      "icao": "LIMF",
      "alert": "OK",
      "vis_m": 9999,
      "fzfg": false,
      "metar_trigger": false,
      "taf_trigger": false,
      "metar": "METAR LIMF 092150Z 33005KT CAVOK 16/11 Q1015",
      "taf": "TAF LIMF 091700Z 0918/1018 VRB05KT 9999 SCT030"
    },
    {
      "icao": "LIMJ",
      "alert": "OK",
      "vis_m": 9999,
      "fzfg": false,
      "metar_trigger": false,
      "taf_trigger": false,
      "metar": "METAR LIMJ 092150Z 05004KT 9999 SCT070 19/13 Q1014",
      "taf": "TAF LIMJ 091700Z 0918/1018 19010KT 9999 SCT020"
    },
    {
      "icao": "LIPE",
      "alert": "OK",
      "vis_m": 9999,
      "fzfg": false,
      "metar_trigger": false,
      "taf_trigger": false,
      "metar": "METAR LIPE 092150Z 08004KT CAVOK 16/11 Q1014",
      "taf": "TAF LIPE 091700Z 0918/1018 10010KT 9999 FEW060"
    },
    {
      "icao": "LIPH",
      "alert": "OK",
      "vis_m": 9999,
      "fzfg": false,
      "metar_trigger": false,
      "taf_trigger": false,
      "metar": "METAR LIPH 092150Z AUTO VRB01KT 9999 NCD 16/12 Q1015",
      "taf": "TAF LIPH 091700Z 0918/1018 12006KT 9999 FEW050"
    },
    {
      "icao": "LIPQ",
      "alert": "OK",
      "vis_m": 9999,
      "fzfg": false,
      "metar_trigger": false,
      "taf_trigger": false,
      "metar": "METAR LIPQ 092150Z AUTO 02002KT 9999 NCD 13/12 Q1016",
      "taf": "TAF LIPQ 091700Z 0918/1018 VRB05KT 9999 FEW040"
    },
    {
      "icao": "LIPR",
      "alert": "OK",
      "vis_m": 9999,
      "fzfg": false,
      "metar_trigger": false,
      "taf_trigger": false,
      "metar": "METAR LIPR 092150Z AUTO 11004KT 9999 FEW250/// 16/11 Q1015",
      "taf": "TAF LIPR 091700Z 0918/1018 VRB05KT 9999 FEW060"
    },
    {
      "icao": "LIPX",
      "alert": "OK",
      "vis_m": 9999,
      "fzfg": false,
      "metar_trigger": false,
      "taf_trigger": false,
      "metar": "METAR LIPX 092150Z 07004KT CAVOK 18/11 Q1015",
      "taf": "TAF LIPX 091700Z 0918/1018 VRB05KT 9999 SCT040"
    },
    {
      "icao": "LIPY",
      "alert": "OK",
      "vis_m": 9999,
      "fzfg": false,
      "metar_trigger": false,
      "taf_trigger": false,
      "metar": "METAR LIPY 092120Z AUTO 14002KT 9999 NCD 16/13 Q1015",
      "taf": "TAF LIPY 091700Z 0918/1018 VRB05KT 9999 FEW060"
    },
    {
      "icao": "LIPZ",
      "alert": "OK",
      "vis_m": 9999,
      "fzfg": false,
      "metar_trigger": false,
      "taf_trigger": false,
      "metar": "METAR LIPZ 092150Z 13003KT CAVOK 18/15 Q1015 NOSIG",
      "taf": "TAF LIPZ 091700Z 0918/1024 VRB05KT 9999 FEW060"
    },
    {
      "icao": "LIRF",
      "alert": "OK",
      "vis_m": 9999,
      "fzfg": false,
      "metar_trigger": false,
      "taf_trigger": false,
      "metar": "METAR LIRF 092150Z 11004KT 080V140 CAVOK 17/15 Q1015 NOSIG",
      "taf": "TAF LIRF 091700Z 0918/1024 VRB05KT 9999 FEW050"
    },
    {
      "icao": "LIRN",
      "alert": "OK",
      "vis_m": 9999,
      "fzfg": false,
      "metar_trigger": false,
      "taf_trigger": false,
      "metar": "METAR LIRN 092150Z VRB02KT CAVOK 19/12 Q1015 NOSIG",
      "taf": "TAF LIRN 091700Z 0918/1018 VRB05KT 9999 FEW080"
    },
    {
      "icao": "LIRP",
      "alert": "OK",
      "vis_m": 9999,
      "fzfg": false,
      "metar_trigger": false,
      "taf_trigger": false,
      "metar": "METAR LIRP 092145Z 03002KT CAVOK 17/13 Q1014 NOSIG",
      "taf": "TAF LIRP 091700Z 0918/1018 25009KT 9999 SCT060"
    },
    {
      "icao": "LIRZ",
      "alert": "OK",
      "vis_m": 9999,
      "fzfg": false,
      "metar_trigger": false,
      "taf_trigger": false,
      "metar": "METAR LIRZ 092120Z AUTO 05006KT 9999 NCD 16/13 Q1015",
      "taf": "TAF LIRZ 091700Z 0918/1018 VRB05KT 9999 FEW060"
    },
    {
      "icao": "LJLJ",
      "alert": "OK",
      "vis_m": 9999,
      "fzfg": false,
      "metar_trigger": false,
      "taf_trigger": false,
      "metar": "METAR LJLJ 092200Z 13003KT 070V200 9999 FEW050 14/10 Q1017 NOSIG",
      "taf": "TAF LJLJ 091700Z 0918/1018 12005KT 9999 FEW065"
    },
    {
      "icao": "LKMT",
      "alert": "OK",
      "vis_m": 9999,
      "fzfg": false,
      "metar_trigger": false,
      "taf_trigger": false,
      "metar": "METAR LKMT 092200Z 11002KT CAVOK 06/05 Q1019 NOSIG",
      "taf": "TAF LKMT 091700Z 0918/1018 02007KT CAVOK"
    },
    {
      "icao": "LKPR",
      "alert": "OK",
      "vis_m": 9999,
      "fzfg": false,
      "metar_trigger": false,
      "taf_trigger": false,
      "metar": "METAR LKPR 092200Z 11008KT CAVOK 10/05 Q1018 NOSIG",
      "taf": "TAF LKPR 092000Z 0921/1103 09006KT CAVOK"
    },
    {
      "icao": "LLBG",
      "alert": "OK",
      "vis_m": 9999,
      "fzfg": false,
      "metar_trigger": false,
      "taf_trigger": false,
      "metar": "METAR LLBG 092150Z VRB03KT CAVOK 19/14 Q1015 NOSIG",
      "taf": "TAF LLBG 091702Z 0918/1018 34006KT CAVOK TX28/1012Z TN15/1003Z"
    },
    {
      "icao": "LMML",
      "alert": "OK",
      "vis_m": 8000,
      "fzfg": false,
      "metar_trigger": false,
      "taf_trigger": false,
      "metar": "METAR LMML 092115Z 09015KT 8000 FEW005 18/17 Q1015 NOSIG",
      "taf": "TAF LMML 091700Z 0918/1018 10015KT 9999 FEW015"
    },
    {
      "icao": "LOWW",
      "alert": "OK",
      "vis_m": 9999,
      "fzfg": false,
      "metar_trigger": false,
      "taf_trigger": false,
      "metar": "METAR LOWW 092150Z 02006KT CAVOK 11/05 Q1018 NOSIG",
      "taf": "TAF LOWW 092015Z 0921/1103 07003KT CAVOK TX24/1014Z TN09/1003Z"
    },
    {
      "icao": "LPFR",
      "alert": "OK",
      "vis_m": 9999,
      "fzfg": false,
      "metar_trigger": false,
      "taf_trigger": false,
      "metar": "METAR LPFR 092200Z 20011KT 9999 FEW018 17/14 Q1013",
      "taf": "TAF LPFR 091700Z 0918/1018 23015KT 9999 SCT020"
    },
    {
      "icao": "LPMA",
      "alert": "OK",
      "vis_m": 9999,
      "fzfg": false,
      "metar_trigger": false,
      "taf_trigger": false,
      "metar": "METAR LPMA 092200Z 35006KT 9999 FEW015 16/11 Q1015",
      "taf": "TAF LPMA 091700Z 0918/1018 03008KT 9999 SCT015"
    },
    {
      "icao": "LPPR",
      "alert": "OK",
      "vis_m": 9999,
      "fzfg": false,
      "metar_trigger": false,
      "taf_trigger": false,
      "metar": "METAR LPPR 092200Z 14011KT 9999 VCSH FEW018 FEW025CB 13/11 Q1008",
      "taf": "TAF LPPR 091700Z 0918/1018 16012KT 9999 SCT020"
    },
    {
      "icao": "LPPS",
      "alert": "OK",
      "vis_m": 9999,
      "fzfg": false,
      "metar_trigger": false,
      "taf_trigger": false,
      "metar": "METAR LPPS 092130Z 28013KT 9999 SCT015 16/09 Q1015",
      "taf": "TAF LPPS 091700Z 0918/1024 27015KT 9999 SCT015 SCT030"
    },
    {
      "icao": "LPPT",
      "alert": "OK",
      "vis_m": 9999,
      "fzfg": false,
      "metar_trigger": false,
      "taf_trigger": false,
      "metar": "METAR LPPT 092200Z 21012KT 9999 FEW016 FEW025TCU 14/12 Q1009",
      "taf": "TAF LPPT 091700Z 0918/1024 22015KT 9999 SCT020"
    },
    {
      "icao": "LQBK",
      "alert": "OK",
      "vis_m": 9999,
      "fzfg": false,
      "metar_trigger": false,
      "taf_trigger": false,
      "metar": "METAR LQBK 092200Z 34002KT CAVOK 11/08 Q1016 NOSIG",
      "taf": "TAF LQBK 091700Z 0918/1018 16005KT CAVOK TX25/1013Z TN10/1004Z"
    },
    {
      "icao": "LQSA",
      "alert": "OK",
      "vis_m": 9999,
      "fzfg": false,
      "metar_trigger": false,
      "taf_trigger": false,
      "metar": "METAR LQSA 092200Z 11003KT CAVOK 10/10 Q1019",
      "taf": "TAF LQSA 091700Z 0918/1018 VRB02KT 9999 FEW050 TX23/1014Z TN08/1004Z"
    },
    {
      "icao": "LQTZ",
      "alert": "OK",
      "vis_m": 9999,
      "fzfg": false,
      "metar_trigger": false,
      "taf_trigger": false,
      "metar": "METAR LQTZ 092200Z 00000KT CAVOK 10/10 Q1017",
      "taf": "TAF LQTZ 091700Z 0918/1018 VRB02KT CAVOK TX25/1013Z TN08/1004Z"
    },
    {
      "icao": "LRBC",
      "alert": "OK",
      "vis_m": 9999,
      "fzfg": false,
      "metar_trigger": false,
      "taf_trigger": false,
      "metar": "METAR LRBC 092200Z 33009KT 9999 +DZ OVC007 14/13 Q1016",
      "taf": "TAF LRBC 092000Z 0921/1006 VRB04KT 5000 -RA BR BKN010 OVC030"
    },
    {
      "icao": "LRBS",
      "alert": "OK",
      "vis_m": 6000,
      "fzfg": false,
      "metar_trigger": false,
      "taf_trigger": false,
      "metar": "METAR LRBS 092200Z 36003KT 330V040 6000 FEW012 14/13 Q1015 NOSIG",
      "taf": ""
    },
    {
      "icao": "LRBV",
      "alert": "OK",
      "vis_m": 9999,
      "fzfg": false,
      "metar_trigger": false,
      "taf_trigger": false,
      "metar": "METAR LRBV 092200Z AUTO 29009KT 9999 -RA OVC009/// 12/11 Q1016",
      "taf": "TAF LRBV 091700Z 0918/1003 VRB04KT 5000 -RA BR SCT015 BKN030"
    },
    {
      "icao": "LRCL",
      "alert": "OK",
      "vis_m": 9999,
      "fzfg": false,
      "metar_trigger": false,
      "taf_trigger": false,
      "metar": "METAR LRCL 092200Z VRB02KT CAVOK 11/11 Q1017",
      "taf": "TAF LRCL 092000Z 0921/1006 VRB04KT 9999 SCT045"
    },
    {
      "icao": "LRCV",
      "alert": "OK",
      "vis_m": 2500,
      "fzfg": false,
      "metar_trigger": false,
      "taf_trigger": false,
      "metar": "METAR LRCV 092200Z 00000KT 2500 BR BKN003 15/15 Q1016",
      "taf": "TAF LRCV 092000Z 0921/1006 VRB04KT 7000 SCT015 OVC040"
    },
    {
      "icao": "LRIA",
      "alert": "OK",
      "vis_m": 9999,
      "fzfg": false,
      "metar_trigger": false,
      "taf_trigger": false,
      "metar": "METAR LRIA 092200Z 33010KT 9999 BKN004 OVC016 14/13 Q1016",
      "taf": "TAF LRIA 092000Z 0921/1006 VRB04KT 5000 -RA BR BKN010 OVC030"
    },
    {
      "icao": "LROP",
      "alert": "OK",
      "vis_m": 7000,
      "fzfg": false,
      "metar_trigger": false,
      "taf_trigger": false,
      "metar": "METAR LROP 092200Z 01005KT 7000 NSC 14/14 Q1015 NOSIG",
      "taf": "TAF LROP 091700Z 0918/1018 04008KT 9999 BKN040"
    },
    {
      "icao": "LRSB",
      "alert": "OK",
      "vis_m": 9999,
      "fzfg": false,
      "metar_trigger": false,
      "taf_trigger": false,
      "metar": "METAR LRSB 092200Z AUTO VRB02KT 9999 FEW055/// OVC075/// 12/12 Q1017",
      "taf": "TAF LRSB 091700Z 0918/1018 VRB04KT 9999 SCT040 BKN070"
    },
    {
      "icao": "LRSM",
      "alert": "OK",
      "vis_m": 9999,
      "fzfg": false,
      "metar_trigger": false,
      "taf_trigger": false,
      "metar": "METAR LRSM 092200Z AUTO 31004KT 9999 NCD 10/08 Q1016",
      "taf": "TAF LRSM 091400Z 0915/0924 34006KT CAVOK"
    },
    {
      "icao": "LRSV",
      "alert": "OK",
      "vis_m": 9999,
      "fzfg": false,
      "metar_trigger": false,
      "taf_trigger": false,
      "metar": "METAR LRSV 092200Z 32005KT 9999 -RA FEW008 BKN035 12/12 Q1017",
      "taf": "TAF LRSV 092000Z 0921/1006 35008KT 5000 -RA BR SCT015 BKN040"
    },
    {
      "icao": "LRTM",
      "alert": "OK",
      "vis_m": 8000,
      "fzfg": false,
      "metar_trigger": false,
      "taf_trigger": false,
      "metar": "METAR LRTM 092200Z 29002KT 8000 NSC 13/12 Q1017",
      "taf": "TAF LRTM 092000Z 0921/1006 VRB04KT 9999 SCT040"
    },
    {
      "icao": "LRTR",
      "alert": "OK",
      "vis_m": 9999,
      "fzfg": false,
      "metar_trigger": false,
      "taf_trigger": false,
      "metar": "METAR LRTR 092200Z 10006KT CAVOK 11/10 Q1016",
      "taf": "TAF LRTR 091700Z 0918/1018 VRB04KT 9999 SCT045"
    },
    {
      "icao": "LTAC",
      "alert": "OK",
      "vis_m": 9999,
      "fzfg": false,
      "metar_trigger": false,
      "taf_trigger": false,
      "metar": "METAR LTAC 092150Z VRB01KT 9999 SCT023 BKN080 13/12 Q1019 NOSIG RMK RWY21C 28004KT 150V320 RWY03L 00000KT RWY21R 28003KT 240V300 RWY03R 00000KT RWY21L VRB01KT",
      "taf": "TAF LTAC 091640Z 0918/1018 VRB02KT 9999 SCT040 SCT100"
    },
    {
      "icao": "LTFM",
      "alert": "OK",
      "vis_m": 9999,
      "fzfg": false,
      "metar_trigger": false,
      "taf_trigger": false,
      "metar": "METAR LTFM 092150Z 19006KT 9999 SCT035 BKN100 17/14 Q1015 NOSIG RMK RWY17L 19009KT RWY34L 20004KT RWY16R 20004KT RWY36 21007KT RWY18 21008KT",
      "taf": ""
    },
    {
      "icao": "LUKK",
      "alert": "OK",
      "vis_m": 9999,
      "fzfg": false,
      "metar_trigger": false,
      "taf_trigger": false,
      "metar": "METAR LUKK 092200Z 24004KT 9999 -SHRA OVC049CB 15/13 Q1016 TEMPO 5000 SHRA",
      "taf": "TAF LUKK 091704Z 0918/1018 VRB06KT 9999 SCT040"
    },
    {
      "icao": "LWOH",
      "alert": "OK",
      "vis_m": null,
      "fzfg": false,
      "metar_trigger": false,
      "taf_trigger": false,
      "metar": "",
      "taf": "TAF LWOH 092040Z 0921/1021 34005KT 9999 SCT040"
    },
    {
      "icao": "LWSK",
      "alert": "OK",
      "vis_m": 9999,
      "fzfg": false,
      "metar_trigger": false,
      "taf_trigger": false,
      "metar": "METAR LWSK 092150Z 05004KT 010V100 9999 SCT080 13/11 Q1017 NOSIG",
      "taf": "TAF LWSK 092040Z 0921/1021 VRB02KT 9999 FEW050 SCT100"
    },
    {
      "icao": "LYBE",
      "alert": "OK",
      "vis_m": 6000,
      "fzfg": false,
      "metar_trigger": false,
      "taf_trigger": false,
      "metar": "METAR LYBE 092200Z 23005KT 6000 NSC 15/13 Q1016 NOSIG",
      "taf": "TAF LYBE 091700Z 0918/1018 23005KT CAVOK TX25/1013Z TN11/1003Z"
    },
    {
      "icao": "LYNI",
      "alert": "OK",
      "vis_m": 9999,
      "fzfg": false,
      "metar_trigger": false,
      "taf_trigger": false,
      "metar": "METAR LYNI 092200Z 33002KT 9999 FEW070 14/13 Q1017 NOSIG",
      "taf": "TAF LYNI 091700Z 0918/1018 11005KT 9999 BKN040 TX24/1013Z TN09/1003Z"
    },
    {
      "icao": "LYPG",
      "alert": "OK",
      "vis_m": 9999,
      "fzfg": false,
      "metar_trigger": false,
      "taf_trigger": false,
      "metar": "METAR LYPG 092200Z 34003KT CAVOK 14/12 Q1017 NOSIG",
      "taf": "TAF LYPG 091700Z 0918/1018 VRB02KT 9999 FEW030 TX23/1014Z TN13/1005Z"
    },
    {
      "icao": "LZIB",
      "alert": "OK",
      "vis_m": 9999,
      "fzfg": false,
      "metar_trigger": false,
      "taf_trigger": false,
      "metar": "METAR LZIB 092200Z VRB02KT CAVOK 11/05 Q1018 NOSIG",
      "taf": "TAF LZIB 091715Z 0918/1018 33009KT CAVOK"
    },
    {
      "icao": "LZKZ",
      "alert": "OK",
      "vis_m": 9999,
      "fzfg": false,
      "metar_trigger": false,
      "taf_trigger": false,
      "metar": "METAR LZKZ 092200Z 01009KT 9999 BKN048 12/06 Q1018 NOSIG",
      "taf": "TAF LZKZ 091715Z 0918/1018 02012KT CAVOK"
    },
    {
      "icao": "LZTT",
      "alert": "OK",
      "vis_m": 9999,
      "fzfg": false,
      "metar_trigger": false,
      "taf_trigger": false,
      "metar": "METAR LZTT 092200Z 06007KT 9999 FEW012 OVC025 08/05 Q1019",
      "taf": ""
    },
    {
      "icao": "OEJN",
      "alert": "OK",
      "vis_m": 9999,
      "fzfg": false,
      "metar_trigger": false,
      "taf_trigger": false,
      "metar": "METAR OEJN 092200Z 33006KT CAVOK 28/20 Q1007 NOSIG",
      "taf": "TAF OEJN 091700Z 0918/1024 02006KT 7000 NSC"
    },
    {
      "icao": "OEMA",
      "alert": "OK",
      "vis_m": 9999,
      "fzfg": false,
      "metar_trigger": false,
      "taf_trigger": false,
      "metar": "METAR OEMA 092200Z 21003KT CAVOK 33/01 Q1013 NOSIG",
      "taf": "TAF OEMA 091700Z 0918/1024 VRB03KT CAVOK"
    },
    {
      "icao": "OJAI",
      "alert": "OK",
      "vis_m": 4000,
      "fzfg": false,
      "metar_trigger": false,
      "taf_trigger": false,
      "metar": "METAR OJAI 092100Z 28010KT 4000 HZ NSC 18/09 Q1019 NOSIG",
      "taf": "TAF OJAI 091700Z 0918/1024 30014KT 5000 HZ NSC"
    },
    {
      "icao": "OMAA",
      "alert": "OK",
      "vis_m": 9999,
      "fzfg": false,
      "metar_trigger": false,
      "taf_trigger": false,
      "metar": "METAR OMAA 092200Z 29004KT CAVOK 30/19 Q1007 NOSIG",
      "taf": "TAF OMAA 091700Z 0918/1100 30010KT 8000 NSC"
    },
    {
      "icao": "OMDB",
      "alert": "OK",
      "vis_m": 9999,
      "fzfg": false,
      "metar_trigger": false,
      "taf_trigger": false,
      "metar": "METAR OMDB 092200Z 20005KT CAVOK 31/19 Q1007 NOSIG",
      "taf": "TAF OMDB 091700Z 0918/1100 20007KT CAVOK"
    },
    {
      "icao": "UAAA",
      "alert": "OK",
      "vis_m": 9999,
      "fzfg": false,
      "metar_trigger": false,
      "taf_trigger": false,
      "metar": "METAR UAAA 092130Z 15003MPS 9999 SCT050CB BKN100 20/12 Q1009 NOSIG",
      "taf": "TAF UAAA 091700Z 0918/1018 22003G08MPS 9999 SCT050CB BKN100 TX22/1010Z TN17/1000Z"
    },
    {
      "icao": "UBBB",
      "alert": "OK",
      "vis_m": 9999,
      "fzfg": false,
      "metar_trigger": false,
      "taf_trigger": false,
      "metar": "METAR UBBB 092200Z 19004KT CAVOK 18/11 Q1016 NOSIG",
      "taf": "TAF UBBB 091705Z 0918/1018 19006KT CAVOK TX21/0912Z TN13/1001Z"
    },
    {
      "icao": "UDSG",
      "alert": "OK",
      "vis_m": 9999,
      "fzfg": false,
      "metar_trigger": false,
      "taf_trigger": false,
      "metar": "METAR UDSG 092130Z 08003KT 9999 NSC 08/02 Q1023 NOSIG",
      "taf": "TAF UDSG 091700Z 0918/1018 06006KT 9999 SCT050"
    },
    {
      "icao": "UDYZ",
      "alert": "OK",
      "vis_m": 9999,
      "fzfg": false,
      "metar_trigger": false,
      "taf_trigger": false,
      "metar": "METAR UDYZ 092130Z 04009KT 9999 NSC 15/04 Q1019 NOSIG",
      "taf": "TAF UDYZ 091700Z 0918/1018 24006KT 9999 FEW040"
    },
    {
      "icao": "UGKO",
      "alert": "OK",
      "vis_m": 9999,
      "fzfg": false,
      "metar_trigger": false,
      "taf_trigger": false,
      "metar": "METAR UGKO 092200Z 15004KT CAVOK 12/10 Q1016 NOSIG",
      "taf": "TAF UGKO 091700Z 0918/1018 25007KT CAVOK TX29/1011Z TN12/0920Z"
    }
  ]
}