{
  "ts_utc": "2026-01-07T08:49:59Z",
  "threshold_m": 150,
  "source": "stations_override.txt (ICAO list) + aviationweather.gov (METAR/TAF raw)",
  "station_count": 159,
  "stations": [
    {
      "icao": "BIKF",
      "alert": "OK",
      "vis_m": 9999,
      "fzfg": false,
      "metar_trigger": false,
      "taf_trigger": false,
      "metar": "METAR BIKF 070833Z COR 08019KT 9999 SCT039 OVC190 M02/M07 Q1008",
      "taf": "TAF BIKF 070751Z 0709/0809 08018KT 9999 FEW035 TX01/0809Z TNM03/0720Z"
    },
    {
      "icao": "BKPR",
      "alert": "OK",
      "vis_m": 9999,
      "fzfg": false,
      "metar_trigger": false,
      "taf_trigger": false,
      "metar": "METAR BKPR 070830Z 19006KT 9999 SCT015 BKN050 08/08 Q1007 NOSIG",
      "taf": ""
    },
    {
      "icao": "EBCI",
      "alert": "OK",
      "vis_m": 600,
      "fzfg": false,
      "metar_trigger": false,
      "taf_trigger": false,
      "metar": "METAR EBCI 070820Z 18018G29KT 0600 R24/1600D SN SCT006 BKN009 M02/M03 Q1008 TEMPO 18020G30KT 0300 SN BKN003",
      "taf": "TAF EBCI 070500Z 0706/0812 19017G30KT 9999 SCT007 BKN010"
    },
    {
      "icao": "EDDB",
      "alert": "OK",
      "vis_m": 9999,
      "fzfg": false,
      "metar_trigger": false,
      "taf_trigger": false,
      "metar": "METAR EDDB 070820Z AUTO 15005KT CAVOK M08/M10 Q1016 NOSIG",
      "taf": "TAF EDDB 070500Z 0706/0806 18007KT CAVOK"
    },
    {
      "icao": "EDDH",
      "alert": "OK",
      "vis_m": 9999,
      "fzfg": false,
      "metar_trigger": false,
      "taf_trigger": false,
      "metar": "METAR EDDH 070820Z AUTO 16013KT 9999 SCT013 M03/M06 Q1010 NOSIG",
      "taf": "TAF EDDH 070500Z 0706/0812 18011KT CAVOK"
    },
    {
      "icao": "EDDK",
      "alert": "OK",
      "vis_m": 9999,
      "fzfg": false,
      "metar_trigger": false,
      "taf_trigger": false,
      "metar": "METAR EDDK 070820Z AUTO 14008KT 9999 BKN021 M02/M05 Q1012 NOSIG",
      "taf": "TAF EDDK 070500Z 0706/0812 14007KT 9999 BKN020"
    },
    {
      "icao": "EDDN",
      "alert": "OK",
      "vis_m": 8000,
      "fzfg": false,
      "metar_trigger": false,
      "taf_trigger": false,
      "metar": "METAR EDDN 070820Z AUTO VRB01KT 8000 BKN009 M06/M07 Q1016 BECMG BKN012",
      "taf": ""
    },
    {
      "icao": "EDDS",
      "alert": "OK",
      "vis_m": 9999,
      "fzfg": false,
      "metar_trigger": false,
      "taf_trigger": false,
      "metar": "METAR EDDS 070820Z AUTO VRB01KT CAVOK M09/M11 Q1015 NOSIG",
      "taf": "TAF EDDS 070500Z 0706/0806 VRB03KT 9999 SCT030"
    },
    {
      "icao": "EDFH",
      "alert": "OK",
      "vis_m": 9999,
      "fzfg": false,
      "metar_trigger": false,
      "taf_trigger": false,
      "metar": "METAR EDFH 070820Z 20006KT 160V240 9999 SCT027 M05/M08 Q1011",
      "taf": "TAF EDFH 070500Z 0706/0806 21011KT 8000 BKN010"
    },
    {
      "icao": "EDJA",
      "alert": "OK",
      "vis_m": 9000,
      "fzfg": false,
      "metar_trigger": false,
      "taf_trigger": false,
      "metar": "METAR EDJA 070820Z VRB02KT 9000 FEW008 BKN042 M09/M10 Q1014",
      "taf": "TAF EDJA 070800Z 0709/0718 21004KT 9999 SCT012 BKN040"
    },
    {
      "icao": "EDLW",
      "alert": "OK",
      "vis_m": 9999,
      "fzfg": false,
      "metar_trigger": false,
      "taf_trigger": false,
      "metar": "METAR EDLW 070820Z COR 17015KT CAVOK M02/M06 Q1009",
      "taf": "TAF EDLW 070500Z 0706/0806 18015G25KT 9999 BKN020"
    },
    {
      "icao": "EDNY",
      "alert": "OK",
      "vis_m": 9999,
      "fzfg": false,
      "metar_trigger": false,
      "taf_trigger": false,
      "metar": "METAR EDNY 070820Z VRB02KT 9999 -SN OVC038 M05/M06 Q1016",
      "taf": "TAF EDNY 070800Z 0709/0718 04002KT 9999 BKN020"
    },
    {
      "icao": "EDSB",
      "alert": "OK",
      "vis_m": 9999,
      "fzfg": false,
      "metar_trigger": false,
      "taf_trigger": false,
      "metar": "METAR EDSB 070820Z 21006KT CAVOK M06/M08 Q1016",
      "taf": "TAF EDSB 070500Z 0706/0806 20005KT 9999 BKN040"
    },
    {
      "icao": "EETN",
      "alert": "OK",
      "vis_m": 9999,
      "fzfg": false,
      "metar_trigger": false,
      "taf_trigger": false,
      "metar": "METAR EETN 070820Z 07003KT CAVOK M09/M09 Q1014 NOSIG",
      "taf": "TAF EETN 070530Z 0706/0806 VRB02KT 8000 SCT008 BKN025"
    },
    {
      "icao": "EFTU",
      "alert": "OK",
      "vis_m": 9999,
      "fzfg": false,
      "metar_trigger": false,
      "taf_trigger": false,
      "metar": "METAR EFTU 070820Z AUTO 09008KT 9999 BKN025 M06/M07 Q1015",
      "taf": "TAF EFTU 070826Z 0709/0809 09007KT 9999 BKN025"
    },
    {
      "icao": "EGBB",
      "alert": "OK",
      "vis_m": 9999,
      "fzfg": false,
      "metar_trigger": false,
      "taf_trigger": false,
      "metar": "METAR EGBB 070820Z 28010KT 9999 -SHRA BKN034 04/M00 Q1004",
      "taf": "TAF EGBB 070459Z 0706/0806 28010KT 9999 SCT040"
    },
    {
      "icao": "EGGP",
      "alert": "OK",
      "vis_m": 9999,
      "fzfg": false,
      "metar_trigger": false,
      "taf_trigger": false,
      "metar": "METAR EGGP 070820Z 29018KT 9999 VCSH FEW036 SCT047 04/01 Q1003",
      "taf": "TAF EGGP 070503Z 0706/0806 29015KT 9999 FEW015 SCT025"
    },
    {
      "icao": "EGGW",
      "alert": "OK",
      "vis_m": 9999,
      "fzfg": false,
      "metar_trigger": false,
      "taf_trigger": false,
      "metar": "METAR EGGW 070820Z AUTO 27013KT 9999 SCT026 BKN035 02/M00 Q1003",
      "taf": "TAF EGGW 070455Z 0706/0806 28012KT 9999 SCT030"
    },
    {
      "icao": "EGKK",
      "alert": "OK",
      "vis_m": 9999,
      "fzfg": false,
      "metar_trigger": false,
      "taf_trigger": false,
      "metar": "METAR EGKK 070820Z 25009KT CAVOK 02/01 Q1005",
      "taf": "TAF EGKK 070454Z 0706/0812 27009KT 9999 FEW045"
    },
    {
      "icao": "EGNM",
      "alert": "OK",
      "vis_m": 9999,
      "fzfg": false,
      "metar_trigger": false,
      "taf_trigger": false,
      "metar": "METAR EGNM 070820Z 28013KT 9999 FEW035 02/M00 Q0999",
      "taf": "TAF EGNM 070502Z 0706/0806 28010KT 9999 FEW015 SCT025"
    },
    {
      "icao": "EGPD",
      "alert": "OK",
      "vis_m": 9999,
      "fzfg": false,
      "metar_trigger": false,
      "taf_trigger": false,
      "metar": "METAR EGPD 070820Z AUTO 06014KT 9999 BKN018/// OVC025/// //////TCU 03/M00 Q1000 NOSIG",
      "taf": "TAF EGPD 070459Z 0706/0806 03012KT 9999 BKN015"
    },
    {
      "icao": "EGPF",
      "alert": "OK",
      "vis_m": 9999,
      "fzfg": false,
      "metar_trigger": false,
      "taf_trigger": false,
      "metar": "METAR EGPF 070820Z AUTO 28012KT 9999 NCD 04/00 Q1002",
      "taf": "TAF EGPF 070454Z 0706/0806 29010KT 9999 SCT025"
    },
    {
      "icao": "EHBK",
      "alert": "OK",
      "vis_m": 9999,
      "fzfg": false,
      "metar_trigger": false,
      "taf_trigger": false,
      "metar": "METAR EHBK 070825Z AUTO 19019KT 160V220 9999 NSC M01/M04 Q1008 NOSIG",
      "taf": "TAF EHBK 070521Z 0706/0812 19016G26KT CAVOK"
    },
    {
      "icao": "EHEH",
      "alert": "OK",
      "vis_m": 9999,
      "fzfg": false,
      "metar_trigger": false,
      "taf_trigger": false,
      "metar": "METAR EHEH 070755Z AUTO 18013KT 150V220 9999 FEW015 SCT018 BKN027 M01/M04 Q1007 BLU BECMG 4000 -SN SCT005 BKN008 OVC010 RMK TREND REMOTE BY EHWX",
      "taf": ""
    },
    {
      "icao": "EKBI",
      "alert": "OK",
      "vis_m": 6000,
      "fzfg": false,
      "metar_trigger": false,
      "taf_trigger": false,
      "metar": "METAR EKBI 070820Z AUTO 15011KT 6000 -SN OVC008/// M02/M02 Q1006",
      "taf": "TAF EKBI 070827Z 0709/0809 17010KT 9999 BKN008"
    },
    {
      "icao": "EKCH",
      "alert": "OK",
      "vis_m": 9999,
      "fzfg": false,
      "metar_trigger": false,
      "taf_trigger": false,
      "metar": "METAR EKCH 070820Z AUTO 21011KT 9999 OVC016/// 00/M02 Q1011 NOSIG",
      "taf": "TAF EKCH 070827Z 0709/0809 17012KT 9999 BKN018"
    },
    {
      "icao": "ENAL",
      "alert": "OK",
      "vis_m": 9999,
      "fzfg": false,
      "metar_trigger": false,
      "taf_trigger": false,
      "metar": "METAR ENAL 070820Z 13009KT CAVOK M04/M11 Q1009",
      "taf": "TAF ENAL 070800Z 0709/0718 14009KT CAVOK"
    },
    {
      "icao": "ENBR",
      "alert": "OK",
      "vis_m": 9999,
      "fzfg": false,
      "metar_trigger": false,
      "taf_trigger": false,
      "metar": "METAR ENBR 070820Z 07003KT CAVOK M11/M14 Q1007 NOSIG RMK WIND 1200FT 32002KT",
      "taf": "TAF ENBR 070500Z 0706/0806 06005KT CAVOK"
    },
    {
      "icao": "ENGM",
      "alert": "OK",
      "vis_m": 9999,
      "fzfg": false,
      "metar_trigger": false,
      "taf_trigger": false,
      "metar": "METAR ENGM 070820Z 34002KT 9999 -SN OVC017 M10/M12 Q1009 NOSIG",
      "taf": "TAF ENGM 070500Z 0706/0806 34003KT 9999 FEW015 BKN020"
    },
    {
      "icao": "ENHD",
      "alert": "OK",
      "vis_m": 9999,
      "fzfg": false,
      "metar_trigger": false,
      "taf_trigger": false,
      "metar": "METAR ENHD 070820Z 07009KT CAVOK M05/M11 Q1006",
      "taf": "TAF ENHD 070800Z 0709/0718 08009KT CAVOK"
    },
    {
      "icao": "ENTC",
      "alert": "OK",
      "vis_m": 9999,
      "fzfg": false,
      "metar_trigger": false,
      "taf_trigger": false,
      "metar": "METAR ENTC 070820Z 10003KT 070V180 CAVOK M13/M16 Q1023 NOSIG RMK WIND 2600FT 16016KT",
      "taf": "TAF ENTC 070500Z 0706/0806 VRB03KT CAVOK"
    },
    {
      "icao": "ENTO",
      "alert": "OK",
      "vis_m": 9999,
      "fzfg": false,
      "metar_trigger": false,
      "taf_trigger": false,
      "metar": "METAR ENTO 070820Z 36010KT 9999 OVC013 M10/M13 Q1010 NOSIG",
      "taf": ""
    },
    {
      "icao": "ENVA",
      "alert": "OK",
      "vis_m": 9999,
      "fzfg": false,
      "metar_trigger": false,
      "taf_trigger": false,
      "metar": "METAR ENVA 070820Z 11006KT 9999 FEW040 M15/M17 Q1015 NOSIG RMK WIND 670FT 08010KT",
      "taf": "TAF ENVA 070500Z 0706/0806 11008KT CAVOK"
    },
    {
      "icao": "ENZV",
      "alert": "OK",
      "vis_m": 9999,
      "fzfg": false,
      "metar_trigger": false,
      "taf_trigger": false,
      "metar": "METAR ENZV 070820Z 03007KT CAVOK M03/M10 Q1005 NOSIG",
      "taf": "TAF ENZV 070500Z 0706/0806 08006KT CAVOK"
    },
    {
      "icao": "EPGD",
      "alert": "OK",
      "vis_m": 9000,
      "fzfg": false,
      "metar_trigger": false,
      "taf_trigger": false,
      "metar": "METAR EPGD 070830Z 22004KT 9000 SCT004 M07/M08 Q1016",
      "taf": ""
    },
    {
      "icao": "EPKK",
      "alert": "OK",
      "vis_m": 9999,
      "fzfg": false,
      "metar_trigger": false,
      "taf_trigger": false,
      "metar": "METAR EPKK 070830Z VRB02KT 9999 FEW026 M05/M08 Q1016",
      "taf": "TAF EPKK 070830Z 0709/0809 30002KT 9999 BKN025"
    },
    {
      "icao": "EPKT",
      "alert": "OK",
      "vis_m": 7000,
      "fzfg": false,
      "metar_trigger": false,
      "taf_trigger": false,
      "metar": "METAR EPKT 070830Z VRB01KT 7000 OVC013 M06/M07 Q1016",
      "taf": "TAF EPKT 070530Z 0706/0806 03006KT 6000 BKN018"
    },
    {
      "icao": "EPLB",
      "alert": "OK",
      "vis_m": 2600,
      "fzfg": false,
      "metar_trigger": false,
      "taf_trigger": false,
      "metar": "METAR EPLB 070830Z 03003KT 350V090 2600 -SN BR FEW041 M06/M07 Q1016",
      "taf": "TAF EPLB 070530Z 0706/0806 35005KT 4000 -SN BR BKN020"
    },
    {
      "icao": "EPMO",
      "alert": "OK",
      "vis_m": 250,
      "fzfg": true,
      "metar_trigger": false,
      "taf_trigger": false,
      "metar": "METAR EPMO 070830Z 27003KT 0250 R08/0275N -SN FZFG SCT001 M12/M13 Q1018",
      "taf": ""
    },
    {
      "icao": "EPPO",
      "alert": "OK",
      "vis_m": 4100,
      "fzfg": false,
      "metar_trigger": false,
      "taf_trigger": false,
      "metar": "METAR EPPO 070830Z 10001KT 4100 BR FEW006 OVC031 M05/M06 Q1017",
      "taf": ""
    },
    {
      "icao": "EPRA",
      "alert": "OK",
      "vis_m": 4000,
      "fzfg": false,
      "metar_trigger": false,
      "taf_trigger": false,
      "metar": "METAR EPRA 070830Z 33005KT 4000 BR NSC M08/M10 Q1016",
      "taf": "TAF EPRA 070830Z 0709/0718 34005KT 5000 BR NSC"
    },
    {
      "icao": "EPRZ",
      "alert": "OK",
      "vis_m": 1400,
      "fzfg": false,
      "metar_trigger": false,
      "taf_trigger": false,
      "metar": "METAR EPRZ 070830Z 34005KT 1400 R27/1500D -SN BR FEW003 OVC022 M05/M06 Q1015",
      "taf": ""
    },
    {
      "icao": "EPSC",
      "alert": "OK",
      "vis_m": 6000,
      "fzfg": false,
      "metar_trigger": false,
      "taf_trigger": false,
      "metar": "METAR EPSC 070830Z 13010KT 6000 BKN031 M05/M06 Q1015",
      "taf": "TAF EPSC 070530Z 0706/0806 15008KT 4000 BR OVC010"
    },
    {
      "icao": "EPSY",
      "alert": "OK",
      "vis_m": 3000,
      "fzfg": false,
      "metar_trigger": false,
      "taf_trigger": false,
      "metar": "METAR EPSY 070830Z 21003KT 3000 BR NSC M16/M18 Q1017",
      "taf": "TAF EPSY 070830Z 0709/0718 VRB02KT 4000 BR NSC"
    },
    {
      "icao": "EPWA",
      "alert": "OK",
      "vis_m": 700,
      "fzfg": true,
      "metar_trigger": false,
      "taf_trigger": false,
      "metar": "METAR EPWA 070830Z 30006KT 0700 0250SE R33/0275N FZFG OVC002 M10/M11 Q1018 NOSIG",
      "taf": "TAF EPWA 070830Z 0709/0809 32003KT 2000 BR OVC003"
    },
    {
      "icao": "EPWR",
      "alert": "OK",
      "vis_m": 9999,
      "fzfg": false,
      "metar_trigger": false,
      "taf_trigger": false,
      "metar": "METAR EPWR 070830Z VRB01KT 9999 SCT026 BKN033 M04/M06 Q1017",
      "taf": "TAF EPWR 070830Z 0709/0809 VRB02KT 9999 BKN030"
    },
    {
      "icao": "ESGG",
      "alert": "OK",
      "vis_m": 9999,
      "fzfg": false,
      "metar_trigger": false,
      "taf_trigger": false,
      "metar": "METAR ESGG 070820Z 15005KT 9999 SCT005 OVC015 M03/M03 Q1006",
      "taf": "TAF ESGG 070830Z 0709/0809 11006KT 5000 -SN BKN004"
    },
    {
      "icao": "ESKN",
      "alert": "OK",
      "vis_m": 5000,
      "fzfg": false,
      "metar_trigger": false,
      "taf_trigger": false,
      "metar": "METAR ESKN 070820Z 09003KT 5000 OVC002 M09/M10 Q1013",
      "taf": "TAF ESKN 070830Z 0709/0809 15004KT 9999 BKN003"
    },
    {
      "icao": "ESMS",
      "alert": "OK",
      "vis_m": 4200,
      "fzfg": false,
      "metar_trigger": false,
      "taf_trigger": false,
      "metar": "METAR ESMS 070820Z 21004KT 4200 -SN BKN017 OVC024 M00/M00 Q1011",
      "taf": "TAF ESMS 070827Z 0709/0809 21008KT 9999 BKN012"
    },
    {
      "icao": "ESSA",
      "alert": "OK",
      "vis_m": 9999,
      "fzfg": false,
      "metar_trigger": false,
      "taf_trigger": false,
      "metar": "METAR ESSA 070820Z 23005KT 9999 OVC004 M06/M06 Q1012 TEMPO BKN012",
      "taf": "TAF ESSA 070830Z 0709/0809 20006KT 9999 BKN008"
    },
    {
      "icao": "EYKA",
      "alert": "OK",
      "vis_m": 1100,
      "fzfg": false,
      "metar_trigger": false,
      "taf_trigger": false,
      "metar": "METAR EYKA 070820Z VRB02KT 1100 R26/1700N -SN OVC004 M06/M07 Q1016",
      "taf": ""
    },
    {
      "icao": "EYPA",
      "alert": "OK",
      "vis_m": 4500,
      "fzfg": false,
      "metar_trigger": false,
      "taf_trigger": false,
      "metar": "METAR EYPA 070820Z VRB02KT 4500 BR BKN033 M08/M10 Q1015",
      "taf": ""
    },
    {
      "icao": "EYVI",
      "alert": "OK",
      "vis_m": 3500,
      "fzfg": false,
      "metar_trigger": false,
      "taf_trigger": false,
      "metar": "METAR EYVI 070820Z 21004KT 3500 BR OVC001 M07/M08 Q1015 NOSIG",
      "taf": ""
    },
    {
      "icao": "GCFV",
      "alert": "OK",
      "vis_m": 9999,
      "fzfg": false,
      "metar_trigger": false,
      "taf_trigger": false,
      "metar": "METAR GCFV 070830Z 02025KT 9999 SCT035 17/07 Q1027",
      "taf": "TAF GCFV 070800Z 0709/0809 04024KT 9999 SCT035 TX20/0714Z TN14/0806Z"
    },
    {
      "icao": "GCLP",
      "alert": "OK",
      "vis_m": 9999,
      "fzfg": false,
      "metar_trigger": false,
      "taf_trigger": false,
      "metar": "METAR GCLP 070830Z 35019KT 9999 SCT035 BKN055 15/11 Q1027 NOSIG",
      "taf": "TAF GCLP 070800Z 0709/0809 02025KT 9999 SCT040 TX18/0714Z TN14/0806Z"
    },
    {
      "icao": "GCTS",
      "alert": "OK",
      "vis_m": 9999,
      "fzfg": false,
      "metar_trigger": false,
      "taf_trigger": false,
      "metar": "METAR GCTS 070830Z 02012KT 350V050 9999 FEW050 16/05 Q1027 NOSIG",
      "taf": "TAF GCTS 070800Z 0709/0809 08025KT 9999 SCT035 TX22/0714Z TN16/0806Z"
    },
    {
      "icao": "GMAD",
      "alert": "OK",
      "vis_m": 9999,
      "fzfg": false,
      "metar_trigger": false,
      "taf_trigger": false,
      "metar": "METAR GMAD 070830Z 06005KT CAVOK 06/06 Q1024 NOSIG",
      "taf": "TAF GMAD 070500Z 0706/0812 22006KT 6000 SCT020"
    },
    {
      "icao": "GMMN",
      "alert": "OK",
      "vis_m": 9999,
      "fzfg": false,
      "metar_trigger": false,
      "taf_trigger": false,
      "metar": "METAR GMMN 070830Z 19005KT 9999 BKN040 05/03 Q1028 NOSIG",
      "taf": "TAF GMMN 070500Z 0706/0812 20006KT CAVOK"
    },
    {
      "icao": "GMMX",
      "alert": "OK",
      "vis_m": 9999,
      "fzfg": false,
      "metar_trigger": false,
      "taf_trigger": false,
      "metar": "METAR GMMX 070830Z 08003KT CAVOK 05/03 Q1028 NOSIG",
      "taf": "TAF GMMX 070500Z 0706/0812 06006KT 8000 NSC"
    },
    {
      "icao": "HEGN",
      "alert": "OK",
      "vis_m": 9999,
      "fzfg": false,
      "metar_trigger": false,
      "taf_trigger": false,
      "metar": "METAR HEGN 070800Z 32010KT CAVOK 21/05 Q1022 NOSIG",
      "taf": "TAF HEGN 070500Z 0706/0812 33013KT CAVOK"
    },
    {
      "icao": "HEMA",
      "alert": "OK",
      "vis_m": 9999,
      "fzfg": false,
      "metar_trigger": false,
      "taf_trigger": false,
      "metar": "METAR HEMA 070800Z 32015KT CAVOK 24/10 Q1020 NOSIG",
      "taf": "TAF HEMA 070500Z 0706/0812 33015KT 6000 NSC"
    },
    {
      "icao": "HESH",
      "alert": "OK",
      "vis_m": 9999,
      "fzfg": false,
      "metar_trigger": false,
      "taf_trigger": false,
      "metar": "METAR HESH 070800Z 34009KT CAVOK 24/11 Q1020 NOSIG",
      "taf": "TAF HESH 070500Z 0706/0812 35011KT CAVOK"
    },
    {
      "icao": "HESX",
      "alert": "OK",
      "vis_m": 6000,
      "fzfg": false,
      "metar_trigger": false,
      "taf_trigger": false,
      "metar": "METAR HESX 070800Z 00000KT 6000 NSC 16/07 Q1022 NOSIG",
      "taf": "TAF HESX 070500Z 0706/0812 14009KT CAVOK"
    },
    {
      "icao": "LATI",
      "alert": "OK",
      "vis_m": null,
      "fzfg": false,
      "metar_trigger": false,
      "taf_trigger": false,
      "metar": "",
      "taf": "TAF LATI 070500Z 0706/0806 VRB05KT 9999 RA SCT030 OVC060 TX16/0712Z TN09/0805Z"
    },
    {
      "icao": "LBPD",
      "alert": "OK",
      "vis_m": 2500,
      "fzfg": false,
      "metar_trigger": false,
      "taf_trigger": false,
      "metar": "METAR LBPD 070830Z AUTO 27006KT 2500 BR SCT001/// OVC004/// 09/09 Q1009 TEMPO 0900 BCFG SCT002 OVC004",
      "taf": "TAF LBPD 070500Z 0706/0806 VRB03KT 3000 BR SCT015"
    },
    {
      "icao": "LBSF",
      "alert": "OK",
      "vis_m": 9999,
      "fzfg": false,
      "metar_trigger": false,
      "taf_trigger": false,
      "metar": "METAR LBSF 070830Z 05005KT 340V090 9999 -RA BKN044 BKN080 09/07 Q1008 TEMPO RA",
      "taf": "TAF LBSF 070500Z 0706/0806 10010KT 9999 SCT040 BKN060"
    },
    {
      "icao": "LBWN",
      "alert": "OK",
      "vis_m": 9999,
      "fzfg": false,
      "metar_trigger": false,
      "taf_trigger": false,
      "metar": "METAR LBWN 070830Z 12007KT 9999 FEW019 14/12 Q1009 NOSIG",
      "taf": "TAF LBWN 070500Z 0706/0806 13012KT 9999 SCT020 BKN040"
    },
    {
      "icao": "LCLK",
      "alert": "OK",
      "vis_m": 9999,
      "fzfg": false,
      "metar_trigger": false,
      "taf_trigger": false,
      "metar": "METAR LCLK 070830Z 04008KT CAVOK 19/12 Q1024 NOSIG",
      "taf": "TAF LCLK 070530Z 0706/0806 34006KT 9999 FEW035"
    },
    {
      "icao": "LCPH",
      "alert": "OK",
      "vis_m": 9999,
      "fzfg": false,
      "metar_trigger": false,
      "taf_trigger": false,
      "metar": "METAR LCPH 070830Z 15012KT 9999 FEW040 20/13 Q1023 NOSIG",
      "taf": "TAF LCPH 070530Z 0706/0806 07008KT 9999 FEW030"
    },
    {
      "icao": "LEAL",
      "alert": "OK",
      "vis_m": 9999,
      "fzfg": false,
      "metar_trigger": false,
      "taf_trigger": false,
      "metar": "METAR LEAL 070830Z 31004KT 270V350 CAVOK 07/M05 Q1021 NOSIG",
      "taf": "TAF LEAL 070500Z 0706/0806 30012KT 9999 FEW030 TX13/0714Z TN03/0706Z"
    },
    {
      "icao": "LEBB",
      "alert": "OK",
      "vis_m": 9999,
      "fzfg": false,
      "metar_trigger": false,
      "taf_trigger": false,
      "metar": "METAR LEBB 070830Z 08004KT 070V140 9999 SCT040 BKN070 05/00 Q1020 NOSIG",
      "taf": "TAF LEBB 070500Z 0706/0806 15008KT 9999 SCT020 BKN040 TX11/0714Z TN04/0706Z"
    },
    {
      "icao": "LEBL",
      "alert": "OK",
      "vis_m": 9999,
      "fzfg": false,
      "metar_trigger": false,
      "taf_trigger": false,
      "metar": "METAR LEBL 070830Z 32015G28KT CAVOK 02/M04 Q1018 NOSIG",
      "taf": "TAF LEBL 070500Z 0706/0806 34013KT CAVOK TX10/0713Z TN00/0706Z"
    },
    {
      "icao": "LECH",
      "alert": "OK",
      "vis_m": 9999,
      "fzfg": false,
      "metar_trigger": false,
      "taf_trigger": false,
      "metar": "METAR LECH 070830Z AUTO 18004KT 130V230 CAVOK 04/M07 Q1019",
      "taf": ""
    },
    {
      "icao": "LEMD",
      "alert": "OK",
      "vis_m": 9999,
      "fzfg": false,
      "metar_trigger": false,
      "taf_trigger": false,
      "metar": "METAR LEMD 070830Z VRB02KT 9999 FEW070 M03/M06 Q1021 NOSIG",
      "taf": "TAF LEMD 070500Z 0706/0812 VRB04KT CAVOK TX08/0715Z TNM00/0800Z"
    },
    {
      "icao": "LEMG",
      "alert": "OK",
      "vis_m": 9999,
      "fzfg": false,
      "metar_trigger": false,
      "taf_trigger": false,
      "metar": "METAR LEMG 070830Z 29014KT CAVOK 05/M04 Q1025 NOSIG",
      "taf": "TAF LEMG 070500Z 0706/0806 29012KT 9999 FEW040 TX13/0714Z TN04/0706Z"
    },
    {
      "icao": "LEVC",
      "alert": "OK",
      "vis_m": 9999,
      "fzfg": false,
      "metar_trigger": false,
      "taf_trigger": false,
      "metar": "METAR LEVC 070830Z 25009KT CAVOK 03/M04 Q1021 NOSIG",
      "taf": "TAF LEVC 070500Z 0706/0806 27007KT CAVOK TX13/0714Z TNM01/0706Z"
    },
    {
      "icao": "LEXJ",
      "alert": "OK",
      "vis_m": 9999,
      "fzfg": false,
      "metar_trigger": false,
      "taf_trigger": false,
      "metar": "METAR LEXJ 070830Z 24008KT 9999 -RA FEW014 BKN032 OVC045 06/02 Q1019",
      "taf": "TAF LEXJ 070800Z 0709/0809 24009KT 9999 BKN050 TX12/0713Z TN08/0802Z"
    },
    {
      "icao": "LEZG",
      "alert": "OK",
      "vis_m": 9999,
      "fzfg": false,
      "metar_trigger": false,
      "taf_trigger": false,
      "metar": "METAR LEZG 070830Z 27013KT CAVOK 03/M04 Q1019 NOSIG",
      "taf": "TAF LEZG 070500Z 0706/0806 25009KT 9999 FEW030 TX09/0715Z TNM01/0706Z"
    },
    {
      "icao": "LEZL",
      "alert": "OK",
      "vis_m": 9999,
      "fzfg": false,
      "metar_trigger": false,
      "taf_trigger": false,
      "metar": "METAR LEZL 070830Z VRB02KT CAVOK 02/00 Q1027 NOSIG",
      "taf": "TAF LEZL 070800Z 0709/0809 19004KT 9999 FEW030 TX12/0715Z TN03/0807Z"
    },
    {
      "icao": "LFBD",
      "alert": "OK",
      "vis_m": 9999,
      "fzfg": false,
      "metar_trigger": false,
      "taf_trigger": false,
      "metar": "METAR LFBD 070830Z AUTO 18009KT 9999 FEW036 OVC066 00/M03 Q1018",
      "taf": "TAF LFBD 070500Z 0706/0812 19005KT CAVOK TX10/0800Z TNM01/0706Z"
    },
    {
      "icao": "LFLL",
      "alert": "OK",
      "vis_m": 9999,
      "fzfg": false,
      "metar_trigger": false,
      "taf_trigger": false,
      "metar": "METAR LFLL 070830Z 21003KT CAVOK M05/M07 Q1018 NOSIG",
      "taf": "TAF LFLL 070500Z 0706/0812 VRB02KT 9999 FEW030"
    },
    {
      "icao": "LFLS",
      "alert": "OK",
      "vis_m": 9999,
      "fzfg": false,
      "metar_trigger": false,
      "taf_trigger": false,
      "metar": "METAR LFLS 070830Z AUTO 13001KT CAVOK M06/M08 Q1016 NOSIG",
      "taf": "TAF LFLS 070800Z 0709/0809 VRB05KT CAVOK"
    },
    {
      "icao": "LFMN",
      "alert": "OK",
      "vis_m": 9999,
      "fzfg": false,
      "metar_trigger": false,
      "taf_trigger": false,
      "metar": "METAR LFMN 070830Z 32009KT 9999 FEW093 05/M04 Q1010 NOSIG",
      "taf": "TAF LFMN 070800Z 0709/0815 34012KT CAVOK"
    },
    {
      "icao": "LFOB",
      "alert": "OK",
      "vis_m": 7000,
      "fzfg": false,
      "metar_trigger": false,
      "taf_trigger": false,
      "metar": "METAR LFOB 070830Z AUTO 20010KT 160V240 7000 OVC008 M01/M01 Q1008 TEMPO 1100 +SN OVC004 BECMG 19015G25KT",
      "taf": "TAF LFOB 070500Z 0706/0806 19015G25KT 9999 OVC014"
    },
    {
      "icao": "LFPO",
      "alert": "OK",
      "vis_m": 900,
      "fzfg": true,
      "metar_trigger": false,
      "taf_trigger": false,
      "metar": "METAR LFPO 070830Z AUTO 19012KT 160V220 0900 0750 R02/1300D R25/1300D R07/1100D R24/1300D R06/1300U +SN FZFG BKN004/// OVC019/// ///TCU M02/M02 Q1011 TEMPO 0600 FG BKN002",
      "taf": "TAF LFPO 070500Z 0706/0812 20012KT 4000 -SN BKN007"
    },
    {
      "icao": "LFSB",
      "alert": "OK",
      "vis_m": 9999,
      "fzfg": false,
      "metar_trigger": false,
      "taf_trigger": false,
      "metar": "METAR LFSB 070830Z AUTO 16004KT CAVOK M07/M09 Q1017 NOSIG",
      "taf": "TAF LFSB 070530Z 0706/0806 18004KT 9000 FEW009 BKN020"
    },
    {
      "icao": "LGAV",
      "alert": "OK",
      "vis_m": 9999,
      "fzfg": false,
      "metar_trigger": false,
      "taf_trigger": false,
      "metar": "METAR LGAV 070820Z VRB01KT 9999 SCT025 17/13 Q1013 NOSIG",
      "taf": "TAF LGAV 070500Z 0706/0806 16010KT 9999 FEW020 SCT030"
    },
    {
      "icao": "LGTS",
      "alert": "OK",
      "vis_m": 800,
      "fzfg": false,
      "metar_trigger": false,
      "taf_trigger": false,
      "metar": "METAR LGTS 070820Z 00000KT 0800 R10/0450 R28/0700 FG OVC003 12/12 Q1010 NOSIG",
      "taf": ""
    },
    {
      "icao": "LHBP",
      "alert": "OK",
      "vis_m": 8000,
      "fzfg": false,
      "metar_trigger": false,
      "taf_trigger": false,
      "metar": "METAR LHBP 070830Z 31004KT 8000 OVC029 M03/M04 Q1013 NOSIG",
      "taf": ""
    },
    {
      "icao": "LHDC",
      "alert": "OK",
      "vis_m": 9999,
      "fzfg": false,
      "metar_trigger": false,
      "taf_trigger": false,
      "metar": "METAR LHDC 070815Z AUTO 36006KT 330V030 9999 FEW013 SCT028 BKN051 M02/M04 Q1012 NOSIG",
      "taf": "TAF LHDC 070815Z 0709/0718 02007KT 9999 SCT004 BKN040"
    },
    {
      "icao": "LIBD",
      "alert": "OK",
      "vis_m": 5000,
      "fzfg": false,
      "metar_trigger": false,
      "taf_trigger": false,
      "metar": "METAR LIBD 070820Z 27004KT 5000 -RA BR OVC015 07/06 Q1008",
      "taf": "TAF LIBD 070500Z 0706/0806 28012KT 9999 BKN010"
    },
    {
      "icao": "LIBG",
      "alert": "OK",
      "vis_m": 9999,
      "fzfg": false,
      "metar_trigger": false,
      "taf_trigger": false,
      "metar": "METAR LIBG 070750Z 04006KT 010V080 9999 SCT020 11/11 Q1006",
      "taf": "TAF LIBG 070800Z 0709/0718 03008KT 9999 SCT015"
    },
    {
      "icao": "LIBP",
      "alert": "OK",
      "vis_m": 9999,
      "fzfg": false,
      "metar_trigger": false,
      "taf_trigger": false,
      "metar": "METAR LIBP 070820Z AUTO 22005KT 9999 OVC048/// 05/03 Q1009",
      "taf": "TAF LIBP 070500Z 0706/0806 30009KT 9999 BKN030"
    },
    {
      "icao": "LIBR",
      "alert": "OK",
      "vis_m": 9999,
      "fzfg": false,
      "metar_trigger": false,
      "taf_trigger": false,
      "metar": "METAR LIBR 070820Z 02007KT 9999 SCT020 13/10 Q1006",
      "taf": "TAF LIBR 070500Z 0706/0806 33008KT 6000 BKN010"
    },
    {
      "icao": "LICA",
      "alert": "OK",
      "vis_m": 6000,
      "fzfg": false,
      "metar_trigger": false,
      "taf_trigger": false,
      "metar": "METAR LICA 070820Z AUTO 31006KT 6000 RA SCT020/// OVC048/// 13/13 Q1007",
      "taf": "TAF LICA 070500Z 0706/0806 27013KT 9999 SCT050"
    },
    {
      "icao": "LICC",
      "alert": "OK",
      "vis_m": 9999,
      "fzfg": false,
      "metar_trigger": false,
      "taf_trigger": false,
      "metar": "METAR LICC 070820Z 27007KT 9999 FEW040 BKN080 11/09 Q1007",
      "taf": "TAF LICC 070500Z 0706/0806 26013KT 7000 FEW060"
    },
    {
      "icao": "LICJ",
      "alert": "OK",
      "vis_m": 8000,
      "fzfg": false,
      "metar_trigger": false,
      "taf_trigger": false,
      "metar": "METAR LICJ 070820Z 21012KT 8000 RA FEW020 BKN030 12/09 Q1008",
      "taf": "TAF LICJ 070500Z 0706/0806 22014KT 9999 SCT030"
    },
    {
      "icao": "LIMC",
      "alert": "OK",
      "vis_m": 9999,
      "fzfg": false,
      "metar_trigger": false,
      "taf_trigger": false,
      "metar": "METAR LIMC 070820Z 35004KT CAVOK M05/M05 Q1012 NOSIG",
      "taf": "TAF LIMC 070500Z 0706/0812 VRB04KT CAVOK"
    },
    {
      "icao": "LIME",
      "alert": "OK",
      "vis_m": 9999,
      "fzfg": false,
      "metar_trigger": false,
      "taf_trigger": false,
      "metar": "METAR LIME 070820Z 01003KT CAVOK M02/M06 Q1012 NOSIG",
      "taf": "TAF LIME 070500Z 0706/0806 VRB04KT 9999 FEW025"
    },
    {
      "icao": "LIMF",
      "alert": "OK",
      "vis_m": 9999,
      "fzfg": false,
      "metar_trigger": false,
      "taf_trigger": false,
      "metar": "METAR LIMF 070820Z 26003KT 170V290 CAVOK M04/M10 Q1012",
      "taf": "TAF LIMF 070500Z 0706/0806 VRB03KT CAVOK"
    },
    {
      "icao": "LIMJ",
      "alert": "OK",
      "vis_m": 9999,
      "fzfg": false,
      "metar_trigger": false,
      "taf_trigger": false,
      "metar": "METAR LIMJ 070820Z 04017KT CAVOK 02/M04 Q1011",
      "taf": "TAF LIMJ 070500Z 0706/0806 04015KT CAVOK"
    },
    {
      "icao": "LIPE",
      "alert": "OK",
      "vis_m": 6000,
      "fzfg": false,
      "metar_trigger": false,
      "taf_trigger": false,
      "metar": "METAR LIPE 070820Z 25005KT 6000 NSC M01/M02 Q1013",
      "taf": "TAF LIPE 070500Z 0706/0806 26007KT 9999 BKN030"
    },
    {
      "icao": "LIPH",
      "alert": "OK",
      "vis_m": 9999,
      "fzfg": false,
      "metar_trigger": false,
      "taf_trigger": false,
      "metar": "METAR LIPH 070820Z VRB01KT CAVOK M00/M05 Q1012",
      "taf": "TAF LIPH 070500Z 0706/0806 VRB05KT CAVOK"
    },
    {
      "icao": "LIPQ",
      "alert": "OK",
      "vis_m": 9999,
      "fzfg": false,
      "metar_trigger": false,
      "taf_trigger": false,
      "metar": "METAR LIPQ 070820Z AUTO VRB02KT 9999 OVC090/// M00/M02 Q1012",
      "taf": "TAF LIPQ 070500Z 0706/0806 08006KT 9999 SCT070"
    },
    {
      "icao": "LIPR",
      "alert": "OK",
      "vis_m": 9999,
      "fzfg": false,
      "metar_trigger": false,
      "taf_trigger": false,
      "metar": "METAR LIPR 070750Z 29012KT 9999 BKN040 01/M02 Q1011",
      "taf": "TAF LIPR 070500Z 0706/0806 29012KT 9999 BKN030"
    },
    {
      "icao": "LIPX",
      "alert": "OK",
      "vis_m": 9999,
      "fzfg": false,
      "metar_trigger": false,
      "taf_trigger": false,
      "metar": "METAR LIPX 070820Z 01002KT CAVOK M03/M06 Q1012",
      "taf": "TAF LIPX 070500Z 0706/0806 VRB05KT 9999 FEW030"
    },
    {
      "icao": "LIPY",
      "alert": "OK",
      "vis_m": 9999,
      "fzfg": false,
      "metar_trigger": false,
      "taf_trigger": false,
      "metar": "METAR LIPY 070820Z AUTO 29009KT 9999 OVC034/// 03/M00 Q1010",
      "taf": "TAF LIPY 070500Z 0706/0806 33013KT 9999 BKN020"
    },
    {
      "icao": "LIPZ",
      "alert": "OK",
      "vis_m": 9999,
      "fzfg": false,
      "metar_trigger": false,
      "taf_trigger": false,
      "metar": "METAR LIPZ 070820Z 34007KT CAVOK M00/M05 Q1012 NOSIG",
      "taf": "TAF LIPZ 070500Z 0706/0812 34006KT CAVOK"
    },
    {
      "icao": "LIRF",
      "alert": "OK",
      "vis_m": 9999,
      "fzfg": false,
      "metar_trigger": false,
      "taf_trigger": false,
      "metar": "METAR LIRF 070820Z 05007KT CAVOK 05/02 Q1007 NOSIG",
      "taf": "TAF LIRF 070500Z 0706/0812 04010KT 9999 SCT020"
    },
    {
      "icao": "LIRN",
      "alert": "OK",
      "vis_m": 8000,
      "fzfg": false,
      "metar_trigger": false,
      "taf_trigger": false,
      "metar": "METAR LIRN 070820Z 10003KT 020V120 8000 -RA FEW020 BKN040 10/08 Q1006 NOSIG",
      "taf": "TAF LIRN 070500Z 0706/0806 VRB06KT 9999 SCT030"
    },
    {
      "icao": "LIRP",
      "alert": "OK",
      "vis_m": 9999,
      "fzfg": false,
      "metar_trigger": false,
      "taf_trigger": false,
      "metar": "METAR LIRP 070815Z 10009KT CAVOK 04/M03 Q1009 NOSIG",
      "taf": "TAF LIRP 070500Z 0706/0806 12007KT 9999 SCT080"
    },
    {
      "icao": "LIRZ",
      "alert": "OK",
      "vis_m": 9999,
      "fzfg": false,
      "metar_trigger": false,
      "taf_trigger": false,
      "metar": "METAR LIRZ 070820Z AUTO 01008KT 9999 OVC049/// 03/M01 Q1008",
      "taf": "TAF LIRZ 070500Z 0706/0806 01013KT 9999 BKN020"
    },
    {
      "icao": "LJLJ",
      "alert": "OK",
      "vis_m": 9999,
      "fzfg": false,
      "metar_trigger": false,
      "taf_trigger": false,
      "metar": "METAR LJLJ 070830Z 00000KT 9999 FEW010 BKN075 M07/M08 Q1013 NOSIG",
      "taf": "TAF LJLJ 070500Z 0706/0806 VRB02KT 9999 FEW005 BKN080"
    },
    {
      "icao": "LKMT",
      "alert": "OK",
      "vis_m": 4500,
      "fzfg": false,
      "metar_trigger": false,
      "taf_trigger": false,
      "metar": "METAR LKMT 070830Z 02006KT 4500 -SN BR BKN032 M05/M07 Q1016 TEMPO 7000 NSW",
      "taf": "TAF LKMT 070500Z 0706/0806 03008KT 9999 BKN025"
    },
    {
      "icao": "LKPR",
      "alert": "OK",
      "vis_m": 9999,
      "fzfg": false,
      "metar_trigger": false,
      "taf_trigger": false,
      "metar": "METAR LKPR 070830Z 21008KT 9999 BKN034 M07/M08 Q1016 NOSIG",
      "taf": "TAF LKPR 070800Z 0709/0815 21006KT 9999 BKN030"
    },
    {
      "icao": "LLBG",
      "alert": "OK",
      "vis_m": 9999,
      "fzfg": false,
      "metar_trigger": false,
      "taf_trigger": false,
      "metar": "METAR LLBG 070820Z VRB02KT CAVOK 19/10 Q1022 NOSIG",
      "taf": "TAF LLBG 070501Z 0706/0806 VRB03KT CAVOK"
    },
    {
      "icao": "LMML",
      "alert": "OK",
      "vis_m": 9999,
      "fzfg": false,
      "metar_trigger": false,
      "taf_trigger": false,
      "metar": "METAR LMML 070845Z 23010KT 9999 -RA FEW014 15/13 Q1009 NOSIG",
      "taf": "TAF LMML 070500Z 0706/0806 20008KT 9999 FEW015"
    },
    {
      "icao": "LOWW",
      "alert": "OK",
      "vis_m": 9999,
      "fzfg": false,
      "metar_trigger": false,
      "taf_trigger": false,
      "metar": "METAR LOWW 070820Z 33013KT 9999 FEW038 M03/M09 Q1016 NOSIG",
      "taf": "TAF LOWW 070815Z 0709/0815 32012KT 9999 FEW040 TXM01/0813Z TNM06/0806Z"
    },
    {
      "icao": "LPFR",
      "alert": "OK",
      "vis_m": 9999,
      "fzfg": false,
      "metar_trigger": false,
      "taf_trigger": false,
      "metar": "METAR LPFR 070830Z 28003KT 250V310 9999 SCT030 08/03 Q1026",
      "taf": "TAF LPFR 070500Z 0706/0806 VRB05KT 9999 FEW015 SCT035"
    },
    {
      "icao": "LPMA",
      "alert": "OK",
      "vis_m": 9999,
      "fzfg": false,
      "metar_trigger": false,
      "taf_trigger": false,
      "metar": "METAR LPMA 070830Z 02012KT 350V050 9999 SCT015 14/07 Q1032",
      "taf": "TAF LPMA 070500Z 0706/0806 02012KT 9999 SCT016"
    },
    {
      "icao": "LPPR",
      "alert": "OK",
      "vis_m": 4000,
      "fzfg": false,
      "metar_trigger": false,
      "taf_trigger": false,
      "metar": "METAR LPPR 070830Z VRB01KT 4000 -RA BR SCT007 BKN017 07/07 Q1023",
      "taf": "TAF LPPR 070500Z 0706/0806 14007KT 6000 -RA SCT008 BKN015"
    },
    {
      "icao": "LPPS",
      "alert": "OK",
      "vis_m": 9999,
      "fzfg": false,
      "metar_trigger": false,
      "taf_trigger": false,
      "metar": "METAR LPPS 070830Z 05008KT 020V090 9999 SCT015 14/08 Q1032",
      "taf": "TAF LPPS 070500Z 0706/0812 04010KT 9999 SCT015"
    },
    {
      "icao": "LPPT",
      "alert": "OK",
      "vis_m": 9999,
      "fzfg": false,
      "metar_trigger": false,
      "taf_trigger": false,
      "metar": "METAR LPPT 070830Z 34008KT 9999 FEW005 SCT025 11/10 Q1023",
      "taf": ""
    },
    {
      "icao": "LQBK",
      "alert": "OK",
      "vis_m": 5000,
      "fzfg": false,
      "metar_trigger": false,
      "taf_trigger": false,
      "metar": "METAR LQBK 070830Z 25003KT 5000 -SN BR SCT012 BKN027 OVC035 M03/M04 Q1015 NOSIG",
      "taf": "TAF LQBK 070500Z 0706/0806 35006KT 8000 -SN SCT010 OVC020 TXM01/0713Z TNM07/0805Z"
    },
    {
      "icao": "LQSA",
      "alert": "OK",
      "vis_m": 7000,
      "fzfg": false,
      "metar_trigger": false,
      "taf_trigger": false,
      "metar": "METAR LQSA 070830Z 30003KT 280V350 7000 -SN SCT010 OVC036 M04/M05 Q1011 NOSIG",
      "taf": "TAF LQSA 070500Z 0706/0806 29005KT 6000 -SN SCT012 OVC030 TXM02/0713Z TNM06/0806Z"
    },
    {
      "icao": "LQTZ",
      "alert": "OK",
      "vis_m": 9999,
      "fzfg": false,
      "metar_trigger": false,
      "taf_trigger": false,
      "metar": "METAR LQTZ 070830Z 29004KT 270V330 9999 FEW015 SCT025 OVC040 M04/M04 Q1013",
      "taf": "TAF LQTZ 070500Z 0706/0806 35005KT 6000 -SN SCT010 BKN015 OVC025 TXM01/0713Z TNM06/0805Z"
    },
    {
      "icao": "LRBC",
      "alert": "OK",
      "vis_m": 1300,
      "fzfg": false,
      "metar_trigger": false,
      "taf_trigger": false,
      "metar": "METAR LRBC 070830Z 35005KT 1300 R34/1300U BR OVC001 01/01 Q1011",
      "taf": "TAF LRBC 070800Z 0709/0718 35007KT 1500 BR OVC002"
    },
    {
      "icao": "LRBS",
      "alert": "OK",
      "vis_m": 300,
      "fzfg": false,
      "metar_trigger": false,
      "taf_trigger": false,
      "metar": "METAR LRBS 070830Z 06005KT 020V090 0300 R07/0650N FG VV002 03/03 Q1010 NOSIG",
      "taf": ""
    },
    {
      "icao": "LRBV",
      "alert": "OK",
      "vis_m": 9999,
      "fzfg": false,
      "metar_trigger": false,
      "taf_trigger": false,
      "metar": "METAR LRBV 070830Z 33010KT 290V360 9999 FEW032 SCT040 04/02 Q1006",
      "taf": "TAF LRBV 070800Z 0709/0718 VRB04KT 9999 BKN035"
    },
    {
      "icao": "LRCL",
      "alert": "OK",
      "vis_m": 9999,
      "fzfg": false,
      "metar_trigger": false,
      "taf_trigger": false,
      "metar": "METAR LRCL 070830Z 00000KT 9999 BKN009 OVC030 01/00 Q1009",
      "taf": "TAF LRCL 070800Z 0709/0718 VRB04KT 9999 BKN015 BKN045"
    },
    {
      "icao": "LRCV",
      "alert": "OK",
      "vis_m": 300,
      "fzfg": false,
      "metar_trigger": false,
      "taf_trigger": false,
      "metar": "METAR LRCV 070830Z 00000KT 0300 R26/1100U -DZ FG OVC002 03/03 Q1010",
      "taf": "TAF LRCV 070800Z 0709/0718 VRB04KT 0300 FG VV001"
    },
    {
      "icao": "LRIA",
      "alert": "OK",
      "vis_m": 1200,
      "fzfg": false,
      "metar_trigger": false,
      "taf_trigger": false,
      "metar": "METAR LRIA 070830Z 30005KT 1200 R14/1700U -DZ BR OVC001 00/00 Q1011",
      "taf": "TAF LRIA 070800Z 0709/0718 30006KT 0800 FG VV001"
    },
    {
      "icao": "LROP",
      "alert": "OK",
      "vis_m": 200,
      "fzfg": false,
      "metar_trigger": false,
      "taf_trigger": false,
      "metar": "METAR LROP 070830Z 06006KT 0200 R08R/0550N R08L/0350N FG BKN001 OVC002 03/03 Q1010 NOSIG",
      "taf": ""
    },
    {
      "icao": "LRSB",
      "alert": "OK",
      "vis_m": 9999,
      "fzfg": false,
      "metar_trigger": false,
      "taf_trigger": false,
      "metar": "METAR LRSB 070830Z VRB01KT 9999 FEW003 SCT008 BKN023 01/01 Q1009",
      "taf": "TAF LRSB 070500Z 0706/0806 29010KT 3000 BR OVC005"
    },
    {
      "icao": "LRSM",
      "alert": "OK",
      "vis_m": 9999,
      "fzfg": false,
      "metar_trigger": false,
      "taf_trigger": false,
      "metar": "METAR LRSM 070830Z 26004KT 9999 BKN005 BKN040 M02/M03 Q1011",
      "taf": "TAF LRSM 070800Z 0709/0718 23006KT 9999 SCT010 OVC030"
    },
    {
      "icao": "LRSV",
      "alert": "OK",
      "vis_m": 2000,
      "fzfg": false,
      "metar_trigger": false,
      "taf_trigger": false,
      "metar": "METAR LRSV 070830Z 33008KT 2000 BR OVC003 M02/M02 Q1010",
      "taf": "TAF LRSV 070800Z 0709/0718 34008KT 3000 BR BKN002 OVC010"
    },
    {
      "icao": "LRTM",
      "alert": "OK",
      "vis_m": 9000,
      "fzfg": false,
      "metar_trigger": false,
      "taf_trigger": false,
      "metar": "METAR LRTM 070830Z 26003KT 230V310 9000 -RA FEW005 SCT008 BKN015 01/01 Q1009",
      "taf": "TAF LRTM 070800Z 0709/0718 VRB04KT 5000 -RA BR BKN010 BKN045"
    },
    {
      "icao": "LRTR",
      "alert": "OK",
      "vis_m": 3000,
      "fzfg": false,
      "metar_trigger": false,
      "taf_trigger": false,
      "metar": "METAR LRTR 070830Z 19006KT 3000 BR OVC004 M02/M02 Q1012",
      "taf": "TAF LRTR 070500Z 0706/0806 VRB04KT 3000 -SN BR SCT010 OVC035"
    },
    {
      "icao": "LTAC",
      "alert": "OK",
      "vis_m": 4800,
      "fzfg": false,
      "metar_trigger": false,
      "taf_trigger": false,
      "metar": "METAR LTAC 070820Z 12004KT 350V160 4800 BR SCT035 BKN080 04/01 Q1020 BECMG 7000 RMK RWY21C 14004KT 100V250 RWY03L VRB04KT RWY21R VRB04KT RWY03R VRB03KT RWY21L VRB03KT",
      "taf": "TAF LTAC 070440Z 0706/0806 VRB02KT 4000 BR SCT040 SCT100"
    },
    {
      "icao": "LTFM",
      "alert": "OK",
      "vis_m": 9999,
      "fzfg": false,
      "metar_trigger": false,
      "taf_trigger": false,
      "metar": "METAR LTFM 070820Z 19015KT 9999 FEW040 BKN080 15/09 Q1013 NOSIG RMK RWY17L 20014KT RWY34L 18014KT RWY16R 19012KT RWY36 19015KT RWY18 20017KT",
      "taf": "TAF LTFM 070440Z 0706/0812 19017G27KT 9999 SCT040 BKN080"
    },
    {
      "icao": "LUKK",
      "alert": "OK",
      "vis_m": 750,
      "fzfg": false,
      "metar_trigger": false,
      "taf_trigger": false,
      "metar": "METAR LUKK 070830Z 34003KT 0750 0550SE R08/1000D -DZ FG VV001 02/02 Q1010 NOSIG",
      "taf": ""
    },
    {
      "icao": "LWOH",
      "alert": "OK",
      "vis_m": 9999,
      "fzfg": false,
      "metar_trigger": false,
      "taf_trigger": false,
      "metar": "METAR LWOH 070820Z VRB01KT 9999 -RA SCT010 OVC040 08/07 Q1009",
      "taf": "TAF LWOH 070830Z 0709/0809 VRB02KT 9999 RA SCT010 OVC040"
    },
    {
      "icao": "LWSK",
      "alert": "OK",
      "vis_m": null,
      "fzfg": false,
      "metar_trigger": false,
      "taf_trigger": false,
      "metar": "",
      "taf": "TAF LWSK 070830Z 0709/0809 VRB02KT 5000 RA SCT020 OVC040"
    },
    {
      "icao": "LYBE",
      "alert": "OK",
      "vis_m": 9999,
      "fzfg": false,
      "metar_trigger": false,
      "taf_trigger": false,
      "metar": "METAR LYBE 070830Z 26007KT 9999 BKN007 BKN040 M03/M04 Q1014 NOSIG",
      "taf": "TAF LYBE 070500Z 0706/0806 27010KT 7000 -SN BKN007 BKN035 TXM01/0713Z TNM04/0806Z"
    },
    {
      "icao": "LYNI",
      "alert": "OK",
      "vis_m": 9999,
      "fzfg": false,
      "metar_trigger": false,
      "taf_trigger": false,
      "metar": "METAR LYNI 070830Z 32017KT 9999 SCT010 OVC015 M02/M04 Q1012 NOSIG",
      "taf": "TAF LYNI 070500Z 0706/0806 32014KT 9999 SCT004 BKN012 BKN030 TXM00/0706Z TNM04/0806Z"
    },
    {
      "icao": "LYPG",
      "alert": "OK",
      "vis_m": 9999,
      "fzfg": false,
      "metar_trigger": false,
      "taf_trigger": false,
      "metar": "METAR LYPG 070830Z 12006KT 9999 FEW010 SCT040 BKN070 13/12 Q1006 NOSIG",
      "taf": "TAF LYPG 070500Z 0706/0806 15009KT 9999 FEW020 BKN034 BKN070 TX14/0712Z TN03/0806Z"
    },
    {
      "icao": "LZIB",
      "alert": "OK",
      "vis_m": 9999,
      "fzfg": false,
      "metar_trigger": false,
      "taf_trigger": false,
      "metar": "METAR LZIB 070830Z 33006KT 310V010 9999 FEW020 M03/M08 Q1015 NOSIG",
      "taf": "TAF LZIB 070515Z 0706/0806 35009KT 9999 FEW022"
    },
    {
      "icao": "LZKZ",
      "alert": "OK",
      "vis_m": 9999,
      "fzfg": false,
      "metar_trigger": false,
      "taf_trigger": false,
      "metar": "METAR LZKZ 070830Z 36023KT 9999 BLSN NSC M03/M07 Q1011 NOSIG",
      "taf": "TAF LZKZ 070515Z 0706/0806 36020KT 9999 FEW035"
    },
    {
      "icao": "LZTT",
      "alert": "OK",
      "vis_m": 9999,
      "fzfg": false,
      "metar_trigger": false,
      "taf_trigger": false,
      "metar": "METAR LZTT 070830Z VRB02KT 9999 -SN FEW015 BKN066 M07/M09 Q1010 NOSIG",
      "taf": "TAF LZTT 070515Z 0706/0806 09007KT 9999 FEW020 BKN060"
    },
    {
      "icao": "OEJN",
      "alert": "OK",
      "vis_m": 6000,
      "fzfg": false,
      "metar_trigger": false,
      "taf_trigger": false,
      "metar": "METAR OEJN 070800Z 16003KT 6000 NSC 30/08 Q1018 NOSIG",
      "taf": "TAF OEJN 070500Z 0706/0812 19006KT 7000 NSC"
    },
    {
      "icao": "OEMA",
      "alert": "OK",
      "vis_m": 9999,
      "fzfg": false,
      "metar_trigger": false,
      "taf_trigger": false,
      "metar": "METAR OEMA 070800Z 09006KT CAVOK 22/M02 Q1026 NOSIG",
      "taf": "TAF OEMA 070500Z 0706/0812 09010KT CAVOK"
    },
    {
      "icao": "OJAI",
      "alert": "OK",
      "vis_m": 5000,
      "fzfg": false,
      "metar_trigger": false,
      "taf_trigger": false,
      "metar": "METAR OJAI 070800Z 07004KT 5000 HZ NSC 13/03 Q1026 NOSIG",
      "taf": "TAF OJAI 070447Z 0706/0812 VRB02KT 5000 HZ NSC"
    },
    {
      "icao": "OMAA",
      "alert": "OK",
      "vis_m": 9999,
      "fzfg": false,
      "metar_trigger": false,
      "taf_trigger": false,
      "metar": "METAR OMAA 070800Z 33008KT 290V350 9999 FEW045 24/08 Q1021 NOSIG",
      "taf": "TAF OMAA 070500Z 0706/0812 VRB02KT 8000 NSC"
    },
    {
      "icao": "OMDB",
      "alert": "OK",
      "vis_m": 9999,
      "fzfg": false,
      "metar_trigger": false,
      "taf_trigger": false,
      "metar": "METAR OMDB 070830Z 32011KT 9999 FEW045 24/12 Q1021 NOSIG",
      "taf": "TAF OMDB 070500Z 0706/0812 07005KT 8000 NSC"
    },
    {
      "icao": "UAAA",
      "alert": "OK",
      "vis_m": 450,
      "fzfg": true,
      "metar_trigger": false,
      "taf_trigger": false,
      "metar": "METAR UAAA 070830Z 35002MPS 310V040 0450 R23L/0550N FZFG VV001 M04/M05 Q1032 NOSIG RMK QBB050",
      "taf": "TAF UAAA 070503Z 0706/0806 04003MPS 0800 FZFG VV003 TX02/0709Z TNM05/0801Z"
    },
    {
      "icao": "UBBB",
      "alert": "OK",
      "vis_m": 5000,
      "fzfg": false,
      "metar_trigger": false,
      "taf_trigger": false,
      "metar": "METAR UBBB 070830Z 15008KT 5000 BR NSC 10/08 Q1022 NOSIG",
      "taf": "TAF UBBB 070502Z 0706/0806 16005KT 0400 FG VV002 TX12/0710Z TN04/0803Z"
    },
    {
      "icao": "UDSG",
      "alert": "OK",
      "vis_m": 6000,
      "fzfg": false,
      "metar_trigger": false,
      "taf_trigger": false,
      "metar": "METAR UDSG 070830Z 12001KT 6000 NSC M09/M13 Q1027 NOSIG",
      "taf": "TAF UDSG 070458Z 0706/0806 VRB06KT 9999 FEW040"
    },
    {
      "icao": "UDYZ",
      "alert": "OK",
      "vis_m": 1800,
      "fzfg": false,
      "metar_trigger": false,
      "taf_trigger": false,
      "metar": "METAR UDYZ 070830Z VRB01KT 1800 R08/1700N BR NSC M05/M09 Q1030 NOSIG",
      "taf": "TAF UDYZ 070500Z 0706/0806 VRB04KT 3500 BR FEW040"
    },
    {
      "icao": "UGKO",
      "alert": "OK",
      "vis_m": 9999,
      "fzfg": false,
      "metar_trigger": false,
      "taf_trigger": false,
      "metar": "METAR UGKO 070830Z 09012KT CAVOK 13/M02 Q1019 NOSIG",
      "taf": "TAF UGKO 070500Z 0706/0806 09007KT CAVOK TX16/0712Z TN02/0706Z"
    }
  ]
}