{
  "ts_utc": "2026-01-10T03:38:46Z",
  "threshold_m": 150,
  "source": "stations_override.txt (ICAO list) + aviationweather.gov (METAR/TAF raw)",
  "station_count": 159,
  "stations": [
    {
      "icao": "BIKF",
      "alert": "OK",
      "vis_m": 9999,
      "fzfg": false,
      "metar_trigger": false,
      "taf_trigger": false,
      "metar": "METAR BIKF 100330Z 02011KT CAVOK M02/M06 Q1012",
      "taf": "TAF BIKF 100105Z 1003/1103 03009KT 9999 FEW025 TXM02/1021Z TNM07/1010Z"
    },
    {
      "icao": "BKPR",
      "alert": "OK",
      "vis_m": 9999,
      "fzfg": false,
      "metar_trigger": false,
      "taf_trigger": false,
      "metar": "METAR BKPR 100330Z 17011KT 9999 -RA SCT020 BKN040 01/01 Q1000 NOSIG",
      "taf": "TAF BKPR 092330Z 1000/1024 18008KT 9999 SCT020 BKN040"
    },
    {
      "icao": "EBCI",
      "alert": "OK",
      "vis_m": 1700,
      "fzfg": false,
      "metar_trigger": false,
      "taf_trigger": false,
      "metar": "METAR EBCI 100320Z 29007KT 270V330 1700 -SN OVC003 M00/M00 Q0999 NOSIG",
      "taf": "TAF EBCI 092312Z 1000/1106 30010KT 2500 -SN SCT001 BKN003"
    },
    {
      "icao": "EDDB",
      "alert": "OK",
      "vis_m": 9999,
      "fzfg": false,
      "metar_trigger": false,
      "taf_trigger": false,
      "metar": "METAR EDDB 100320Z AUTO 07014KT 9999 SCT040 SCT048 M06/M10 Q1005 NOSIG",
      "taf": "TAF EDDB 092300Z 1000/1024 07013KT 9999 BKN030"
    },
    {
      "icao": "EDDH",
      "alert": "OK",
      "vis_m": 9999,
      "fzfg": false,
      "metar_trigger": false,
      "taf_trigger": false,
      "metar": "METAR EDDH 100320Z AUTO 08016KT CAVOK M02/M07 Q1006 TEMPO 09020G30KT",
      "taf": ""
    },
    {
      "icao": "EDDK",
      "alert": "OK",
      "vis_m": 3800,
      "fzfg": false,
      "metar_trigger": false,
      "taf_trigger": false,
      "metar": "METAR EDDK 100320Z AUTO 24006KT 3800 SN BR BKN005 00/M00 Q0996 TEMPO 2500 SN BKN004",
      "taf": "TAF EDDK 092300Z 1000/1106 24005KT 7000 BKN012"
    },
    {
      "icao": "EDDN",
      "alert": "OK",
      "vis_m": 9999,
      "fzfg": false,
      "metar_trigger": false,
      "taf_trigger": false,
      "metar": "METAR EDDN 100320Z AUTO 21006KT 9999 -RA SCT013 BKN031 OVC041 02/00 Q0997",
      "taf": "TAF EDDN 092300Z 1000/1024 19007KT 9999 SCT012 BKN040"
    },
    {
      "icao": "EDDS",
      "alert": "OK",
      "vis_m": 9999,
      "fzfg": false,
      "metar_trigger": false,
      "taf_trigger": false,
      "metar": "METAR EDDS 100320Z AUTO 21007G17KT 180V240 9999 -DZ BKN012 BKN024 OVC047 02/00 Q0997",
      "taf": "TAF EDDS 092300Z 1000/1024 21009KT 9999 BKN015"
    },
    {
      "icao": "EDFH",
      "alert": "OK",
      "vis_m": 4300,
      "fzfg": false,
      "metar_trigger": false,
      "taf_trigger": false,
      "metar": "METAR EDFH 100320Z 26014KT 4300 -SN OVC003 M00/M00 Q0994",
      "taf": "TAF EDFH 092300Z 1000/1024 26015G25KT 6000 BKN005"
    },
    {
      "icao": "EDJA",
      "alert": "OK",
      "vis_m": 9999,
      "fzfg": false,
      "metar_trigger": false,
      "taf_trigger": false,
      "metar": "METAR EDJA 100320Z AUTO 24020G31KT 9999 // FEW017/// OVC020/// 01/M02 Q0999",
      "taf": "TAF EDJA 100200Z 1003/1012 24015G25KT 9999 BKN015 OVC025"
    },
    {
      "icao": "EDLW",
      "alert": "OK",
      "vis_m": 4200,
      "fzfg": false,
      "metar_trigger": false,
      "taf_trigger": false,
      "metar": "METAR EDLW 100320Z AUTO 04008KT 4200 // SCT002/// OVC004/// M01/M01 Q0996",
      "taf": "TAF EDLW 091700Z 0918/1018 17007KT 9999 BKN015"
    },
    {
      "icao": "EDNY",
      "alert": "OK",
      "vis_m": 9999,
      "fzfg": false,
      "metar_trigger": false,
      "taf_trigger": false,
      "metar": "METAR EDNY 100320Z AUTO 24014KT 9999 // BKN019/// OVC025/// 03/00 Q1001",
      "taf": "TAF EDNY 100200Z 1003/1012 24012KT 9999 SCT010 BKN030"
    },
    {
      "icao": "EDSB",
      "alert": "OK",
      "vis_m": 9999,
      "fzfg": false,
      "metar_trigger": false,
      "taf_trigger": false,
      "metar": "METAR EDSB 100320Z AUTO 21011KT 9999 FEW012/// BKN016/// OVC021/// 03/02 Q1000",
      "taf": ""
    },
    {
      "icao": "EETN",
      "alert": "OK",
      "vis_m": 8000,
      "fzfg": false,
      "metar_trigger": false,
      "taf_trigger": false,
      "metar": "METAR EETN 100320Z 03015KT 010V070 8000 -SN DRSN OVC008 M07/M08 Q1010",
      "taf": "TAF EETN 092330Z 1000/1024 03016G26KT 9999 DRSN BKN012"
    },
    {
      "icao": "EFTU",
      "alert": "OK",
      "vis_m": 9999,
      "fzfg": false,
      "metar_trigger": false,
      "taf_trigger": false,
      "metar": "METAR EFTU 100320Z AUTO 04009KT CAVOK M13/M16 Q1017",
      "taf": "TAF EFTU 100225Z 1003/1103 04010KT CAVOK"
    },
    {
      "icao": "EGBB",
      "alert": "OK",
      "vis_m": 9999,
      "fzfg": false,
      "metar_trigger": false,
      "taf_trigger": false,
      "metar": "METAR EGBB 100320Z 31006KT CAVOK 00/M01 Q1010",
      "taf": "TAF EGBB 092257Z 1000/1024 32006KT 9999 SCT018"
    },
    {
      "icao": "EGGP",
      "alert": "OK",
      "vis_m": 9999,
      "fzfg": false,
      "metar_trigger": false,
      "taf_trigger": false,
      "metar": "METAR EGGP 100320Z AUTO 34003KT 9999 NCD 01/M01 Q1012",
      "taf": "TAF EGGP 092304Z 1000/1024 02010KT 9999 SCT040"
    },
    {
      "icao": "EGGW",
      "alert": "OK",
      "vis_m": 9999,
      "fzfg": false,
      "metar_trigger": false,
      "taf_trigger": false,
      "metar": "METAR EGGW 100320Z AUTO 33012KT 9999 NCD M00/M01 Q1008",
      "taf": "TAF EGGW 092255Z 1000/1024 33013KT 9999 SCT010 BKN016"
    },
    {
      "icao": "EGKK",
      "alert": "OK",
      "vis_m": 9999,
      "fzfg": false,
      "metar_trigger": false,
      "taf_trigger": false,
      "metar": "METAR EGKK 100320Z 33014KT 9999 BKN019 02/M01 Q1008",
      "taf": "TAF EGKK 092254Z 1000/1106 32012KT 9999 SCT020"
    },
    {
      "icao": "EGNM",
      "alert": "OK",
      "vis_m": null,
      "fzfg": false,
      "metar_trigger": false,
      "taf_trigger": false,
      "metar": "",
      "taf": "TAF EGNM 092301Z 1000/1024 01010KT 9999 FEW030"
    },
    {
      "icao": "EGPD",
      "alert": "OK",
      "vis_m": 9999,
      "fzfg": false,
      "metar_trigger": false,
      "taf_trigger": false,
      "metar": "METAR EGPD 100320Z AUTO VRB02KT 9999 BKN031/// BKN039/// //////TCU 01/M00 Q1012 TEMPO 4000 SHRASN BKN014",
      "taf": "TAF EGPD 092254Z 1000/1024 12007KT 9999 FEW015 SCT025"
    },
    {
      "icao": "EGPF",
      "alert": "OK",
      "vis_m": 1600,
      "fzfg": false,
      "metar_trigger": false,
      "taf_trigger": false,
      "metar": "METAR EGPF 100320Z AUTO VRB01KT 1600 -RADZ BKN005 BKN019 OVC026 00/00 Q1012 RERA REDZ",
      "taf": ""
    },
    {
      "icao": "EHBK",
      "alert": "OK",
      "vis_m": 2100,
      "fzfg": false,
      "metar_trigger": false,
      "taf_trigger": false,
      "metar": "METAR EHBK 100325Z AUTO 33008KT 310V010 2100 -FZRA SN SCT004/// BKN005/// BKN007/// M01/M01 Q0998",
      "taf": "TAF EHBK 092318Z 1000/1106 32007KT 2000 -SN BR BKN004"
    },
    {
      "icao": "EHEH",
      "alert": "OK",
      "vis_m": 2600,
      "fzfg": false,
      "metar_trigger": false,
      "taf_trigger": false,
      "metar": "METAR EHEH 100325Z AUTO 36010KT 330V040 2600 -SN FEW007 SCT009 BKN010 M02/M03 Q0999 YLO",
      "taf": "TAF EHEH 092351Z 1000/1106 33008KT 8000 -SN SCT005 BKN007"
    },
    {
      "icao": "EKBI",
      "alert": "OK",
      "vis_m": 9999,
      "fzfg": false,
      "metar_trigger": false,
      "taf_trigger": false,
      "metar": "METAR EKBI 100320Z AUTO 07016KT 9999 OVC035/// M01/M06 Q1012",
      "taf": "TAF EKBI 100227Z 1003/1103 07015KT 9000 BKN025"
    },
    {
      "icao": "EKCH",
      "alert": "OK",
      "vis_m": 9999,
      "fzfg": false,
      "metar_trigger": false,
      "taf_trigger": false,
      "metar": "METAR EKCH 100320Z AUTO 04020KT 9999 OVC041/// M01/M06 Q1012 TEMPO 06018G30KT",
      "taf": "TAF EKCH 100227Z 1003/1103 05015KT 9999 BKN030"
    },
    {
      "icao": "ENAL",
      "alert": "OK",
      "vis_m": 9999,
      "fzfg": false,
      "metar_trigger": false,
      "taf_trigger": false,
      "metar": "METAR ENAL 100320Z AUTO 20006KT 9999 NCD 01/M11 Q1018",
      "taf": "TAF ENAL 100200Z 1003/1012 23008KT CAVOK"
    },
    {
      "icao": "ENBR",
      "alert": "OK",
      "vis_m": 9999,
      "fzfg": false,
      "metar_trigger": false,
      "taf_trigger": false,
      "metar": "METAR ENBR 100320Z AUTO VRB02KT 9999 NCD M08/M13 Q1019 RMK WIND 1200FT 17003KT",
      "taf": "TAF ENBR 092300Z 1000/1024 08005KT CAVOK"
    },
    {
      "icao": "ENGM",
      "alert": "OK",
      "vis_m": 9999,
      "fzfg": false,
      "metar_trigger": false,
      "taf_trigger": false,
      "metar": "METAR ENGM 100320Z 34003KT 310V010 CAVOK M12/M13 Q1022",
      "taf": "TAF ENGM 092300Z 1000/1024 03005KT 9999 -SN FEW020 BKN030"
    },
    {
      "icao": "ENHD",
      "alert": "OK",
      "vis_m": 9999,
      "fzfg": false,
      "metar_trigger": false,
      "taf_trigger": false,
      "metar": "METAR ENHD 100320Z AUTO 09005KT 9999 NCD M04/M12 Q1019",
      "taf": "TAF ENHD 100200Z 1003/1012 10008KT CAVOK"
    },
    {
      "icao": "ENTC",
      "alert": "OK",
      "vis_m": 9999,
      "fzfg": false,
      "metar_trigger": false,
      "taf_trigger": false,
      "metar": "METAR ENTC 100320Z AUTO 12003KT 9999 NCD M12/M14 Q1022 RMK WIND 2600FT 20006KT",
      "taf": "TAF ENTC 092300Z 1000/1024 22008KT CAVOK"
    },
    {
      "icao": "ENTO",
      "alert": "OK",
      "vis_m": 9999,
      "fzfg": false,
      "metar_trigger": false,
      "taf_trigger": false,
      "metar": "METAR ENTO 100320Z AUTO 02006KT 9999 NCD M07/M11 Q1022",
      "taf": "TAF ENTO 092300Z 1000/1024 04010KT 9999 -SN FEW020 BKN030"
    },
    {
      "icao": "ENVA",
      "alert": "OK",
      "vis_m": 9999,
      "fzfg": false,
      "metar_trigger": false,
      "taf_trigger": false,
      "metar": "METAR ENVA 100320Z AUTO 11006KT 9999 NCD M02/M11 Q1019 RMK WIND 670FT 14007KT",
      "taf": "TAF ENVA 092300Z 1000/1024 10008KT CAVOK"
    },
    {
      "icao": "ENZV",
      "alert": "OK",
      "vis_m": 9999,
      "fzfg": false,
      "metar_trigger": false,
      "taf_trigger": false,
      "metar": "METAR ENZV 100320Z AUTO 11008KT 9999 NCD M07/M12 Q1020",
      "taf": "TAF ENZV 092300Z 1000/1024 08008KT CAVOK"
    },
    {
      "icao": "EPGD",
      "alert": "OK",
      "vis_m": 9999,
      "fzfg": false,
      "metar_trigger": false,
      "taf_trigger": false,
      "metar": "METAR EPGD 100330Z 04011KT 360V060 9999 -SN DRSN FEW003 BKN028 M03/M06 Q1005 RESN",
      "taf": ""
    },
    {
      "icao": "EPKK",
      "alert": "OK",
      "vis_m": 4200,
      "fzfg": false,
      "metar_trigger": false,
      "taf_trigger": false,
      "metar": "METAR EPKK 100330Z 05007KT 4200 -SN BR OVC006 M12/M14 Q1001",
      "taf": "TAF EPKK 100230Z 1003/1103 06007KT 3500 BR OVC005"
    },
    {
      "icao": "EPKT",
      "alert": "OK",
      "vis_m": 4000,
      "fzfg": false,
      "metar_trigger": false,
      "taf_trigger": false,
      "metar": "METAR EPKT 100330Z 04007KT 4000 -SN BR OVC004 M12/M14 Q1001",
      "taf": ""
    },
    {
      "icao": "EPLB",
      "alert": "OK",
      "vis_m": 9000,
      "fzfg": false,
      "metar_trigger": false,
      "taf_trigger": false,
      "metar": "METAR EPLB 100330Z 28007KT 9000 3600W -SN FEW001 SCT005 M16/M17 Q1000",
      "taf": "TAF EPLB 092330Z 1000/1024 29008KT 9999 SCT014 BKN018"
    },
    {
      "icao": "EPMO",
      "alert": "OK",
      "vis_m": 9999,
      "fzfg": false,
      "metar_trigger": false,
      "taf_trigger": false,
      "metar": "METAR EPMO 100330Z 30007KT CAVOK M16/M17 Q1002",
      "taf": "TAF EPMO 092330Z 1000/1024 33008KT CAVOK"
    },
    {
      "icao": "EPPO",
      "alert": "OK",
      "vis_m": 9999,
      "fzfg": false,
      "metar_trigger": false,
      "taf_trigger": false,
      "metar": "METAR EPPO 100330Z 01003KT 9999 BKN030 M10/M13 Q1005",
      "taf": "TAF EPPO 092330Z 1000/1024 06006KT CAVOK"
    },
    {
      "icao": "EPRA",
      "alert": "OK",
      "vis_m": 9999,
      "fzfg": false,
      "metar_trigger": false,
      "taf_trigger": false,
      "metar": "METAR EPRA 100330Z 29005KT 9999 SCT016 M14/M16 Q1001",
      "taf": "TAF EPRA 100230Z 1003/1012 30008KT 8000 NSC"
    },
    {
      "icao": "EPRZ",
      "alert": "OK",
      "vis_m": 6000,
      "fzfg": false,
      "metar_trigger": false,
      "taf_trigger": false,
      "metar": "METAR EPRZ 100330Z 30003KT 6000 -SN BKN003 OVC011 M11/M13 Q1001",
      "taf": "TAF EPRZ 092330Z 1000/1024 VRB02KT 6000 BKN010"
    },
    {
      "icao": "EPSC",
      "alert": "OK",
      "vis_m": 9999,
      "fzfg": false,
      "metar_trigger": false,
      "taf_trigger": false,
      "metar": "METAR EPSC 100330Z 05007KT 010V090 9999 OVC031 M03/M08 Q1007",
      "taf": "TAF EPSC 092330Z 1000/1024 06010KT CAVOK"
    },
    {
      "icao": "EPSY",
      "alert": "OK",
      "vis_m": 3800,
      "fzfg": false,
      "metar_trigger": false,
      "taf_trigger": false,
      "metar": "METAR EPSY 100330Z 32009KT 3800 -SN SCT006 M11/M12 Q1001",
      "taf": "TAF EPSY 100230Z 1003/1012 34008KT 9999 SCT016"
    },
    {
      "icao": "EPWA",
      "alert": "OK",
      "vis_m": 9999,
      "fzfg": false,
      "metar_trigger": false,
      "taf_trigger": false,
      "metar": "METAR EPWA 100330Z 27004KT CAVOK M15/M17 Q1002 NOSIG",
      "taf": "TAF EPWA 100230Z 1003/1103 28005KT CAVOK"
    },
    {
      "icao": "EPWR",
      "alert": "OK",
      "vis_m": 9999,
      "fzfg": false,
      "metar_trigger": false,
      "taf_trigger": false,
      "metar": "METAR EPWR 100330Z 05004KT 9999 BKN011 M09/M12 Q1004",
      "taf": "TAF EPWR 100230Z 1003/1103 08008KT 7000 NSC"
    },
    {
      "icao": "ESGG",
      "alert": "OK",
      "vis_m": 9999,
      "fzfg": false,
      "metar_trigger": false,
      "taf_trigger": false,
      "metar": "METAR ESGG 100320Z 04011KT 9999 SCT014 M08/M09 Q1017",
      "taf": "TAF ESGG 100230Z 1003/1103 03010KT 9999 FEW015"
    },
    {
      "icao": "ESKN",
      "alert": "OK",
      "vis_m": 9999,
      "fzfg": false,
      "metar_trigger": false,
      "taf_trigger": false,
      "metar": "METAR ESKN 100320Z 34009KT CAVOK M09/M10 Q1018",
      "taf": "TAF ESKN 100230Z 1003/1103 36010KT CAVOK"
    },
    {
      "icao": "ESMS",
      "alert": "OK",
      "vis_m": 9999,
      "fzfg": false,
      "metar_trigger": false,
      "taf_trigger": false,
      "metar": "METAR ESMS 100320Z 05016KT 9999 BKN039 M02/M07 Q1011",
      "taf": "TAF ESMS 100227Z 1003/1103 05012KT 9999 BKN040"
    },
    {
      "icao": "ESSA",
      "alert": "OK",
      "vis_m": 9999,
      "fzfg": false,
      "metar_trigger": false,
      "taf_trigger": false,
      "metar": "METAR ESSA 100320Z 36009KT CAVOK M09/M12 Q1018 NOSIG",
      "taf": "TAF ESSA 100230Z 1003/1103 36010KT CAVOK"
    },
    {
      "icao": "EYKA",
      "alert": "OK",
      "vis_m": 9999,
      "fzfg": false,
      "metar_trigger": false,
      "taf_trigger": false,
      "metar": "METAR EYKA 100320Z 36010KT 330V040 9999 -SN BKN017 M08/M11 Q1000",
      "taf": "TAF EYKA 092304Z 1000/1024 01012KT 5000 SN SCT010 OVC020"
    },
    {
      "icao": "EYPA",
      "alert": "OK",
      "vis_m": 9999,
      "fzfg": false,
      "metar_trigger": false,
      "taf_trigger": false,
      "metar": "METAR EYPA 100320Z 02013KT 9999 -SN FEW027 M05/M08 Q1005",
      "taf": "TAF EYPA 092304Z 1000/1024 01012G22KT 9000 SCT010 OVC025"
    },
    {
      "icao": "EYVI",
      "alert": "OK",
      "vis_m": 5000,
      "fzfg": false,
      "metar_trigger": false,
      "taf_trigger": false,
      "metar": "METAR EYVI 100320Z 36011KT 5000 -SN BR BKN032 M10/M12 Q0997 NOSIG",
      "taf": "TAF EYVI 092303Z 1000/1024 01012KT 5000 SN SCT010 OVC020"
    },
    {
      "icao": "GCFV",
      "alert": "OK",
      "vis_m": 9999,
      "fzfg": false,
      "metar_trigger": false,
      "taf_trigger": false,
      "metar": "METAR GCFV 100330Z AUTO 35009KT 9999 FEW033 BKN044 17/11 Q1027",
      "taf": "TAF GCFV 100200Z 1003/1103 05015KT 9999 BKN025 TX20/1014Z TN15/1006Z"
    },
    {
      "icao": "GCLP",
      "alert": "OK",
      "vis_m": 9999,
      "fzfg": false,
      "metar_trigger": false,
      "taf_trigger": false,
      "metar": "METAR GCLP 100330Z 03016KT 9999 FEW030 BKN050 18/11 Q1028 NOSIG",
      "taf": "TAF GCLP 100200Z 1003/1103 03013KT 9999 BKN030 TX19/1014Z TN15/1006Z"
    },
    {
      "icao": "GCTS",
      "alert": "OK",
      "vis_m": 9999,
      "fzfg": false,
      "metar_trigger": false,
      "taf_trigger": false,
      "metar": "METAR GCTS 100330Z 05010KT 020V100 9999 FEW040 16/10 Q1028 NOSIG",
      "taf": "TAF GCTS 100200Z 1003/1103 04009KT 9999 SCT030 TX23/1014Z TN15/1006Z"
    },
    {
      "icao": "GMAD",
      "alert": "OK",
      "vis_m": 9999,
      "fzfg": false,
      "metar_trigger": false,
      "taf_trigger": false,
      "metar": "METAR GMAD 100330Z 09006KT CAVOK 07/07 Q1025 NOSIG",
      "taf": "TAF GMAD 092300Z 1000/1106 06008KT CAVOK"
    },
    {
      "icao": "GMMN",
      "alert": "OK",
      "vis_m": 9999,
      "fzfg": false,
      "metar_trigger": false,
      "taf_trigger": false,
      "metar": "METAR GMMN 100330Z 14004KT 9999 FEW023 05/04 Q1029 NOSIG",
      "taf": "TAF GMMN 092300Z 1000/1106 12004KT 9999 FEW020"
    },
    {
      "icao": "GMMX",
      "alert": "OK",
      "vis_m": 8000,
      "fzfg": false,
      "metar_trigger": false,
      "taf_trigger": false,
      "metar": "METAR GMMX 100330Z 10005KT 8000 NSC 06/05 Q1028 NOSIG",
      "taf": "TAF GMMX 092300Z 1000/1106 06006KT 8000 NSC"
    },
    {
      "icao": "HEGN",
      "alert": "OK",
      "vis_m": 9999,
      "fzfg": false,
      "metar_trigger": false,
      "taf_trigger": false,
      "metar": "METAR HEGN 100300Z 30012KT CAVOK 14/07 Q1020 NOSIG",
      "taf": "TAF HEGN 092300Z 1000/1106 29008G20KT CAVOK"
    },
    {
      "icao": "HEMA",
      "alert": "OK",
      "vis_m": 9999,
      "fzfg": false,
      "metar_trigger": false,
      "taf_trigger": false,
      "metar": "METAR HEMA 100300Z 30014KT CAVOK 19/07 Q1019 NOSIG",
      "taf": "TAF HEMA 092300Z 1000/1106 28008G20KT CAVOK"
    },
    {
      "icao": "HESH",
      "alert": "OK",
      "vis_m": 9999,
      "fzfg": false,
      "metar_trigger": false,
      "taf_trigger": false,
      "metar": "METAR HESH 100300Z 35010KT CAVOK 16/05 Q1020 NOSIG",
      "taf": "TAF HESH 092300Z 1000/1106 31013KT CAVOK"
    },
    {
      "icao": "HESX",
      "alert": "OK",
      "vis_m": 9999,
      "fzfg": false,
      "metar_trigger": false,
      "taf_trigger": false,
      "metar": "METAR HESX 100300Z 21007KT CAVOK 09/06 Q1021 NOSIG",
      "taf": "TAF HESX 092300Z 1000/1106 23007KT CAVOK"
    },
    {
      "icao": "LATI",
      "alert": "OK",
      "vis_m": 9999,
      "fzfg": false,
      "metar_trigger": false,
      "taf_trigger": false,
      "metar": "METAR LATI 100320Z 21004KT 180V250 9999 SCT098 14/06 Q1002 NOSIG",
      "taf": "TAF LATI 092300Z 1000/1024 20013KT 9999 SCT030 BKN080 TX14/1001Z TN06/1100Z"
    },
    {
      "icao": "LBPD",
      "alert": "OK",
      "vis_m": 9999,
      "fzfg": false,
      "metar_trigger": false,
      "taf_trigger": false,
      "metar": "METAR LBPD 100330Z AUTO 27004KT 9999 FEW083/// BKN099/// BKN200/// 01/M01 Q1002",
      "taf": "TAF LBPD 092300Z 1000/1024 VRB03KT 9999 SCT050"
    },
    {
      "icao": "LBSF",
      "alert": "OK",
      "vis_m": 5000,
      "fzfg": false,
      "metar_trigger": false,
      "taf_trigger": false,
      "metar": "METAR LBSF 100330Z AUTO 19008KT 150V210 5000 -RASN BR FEW005/// SCT026/// OVC031/// 01/00 Q1002 RERASN RERA TEMPO 1500 SN",
      "taf": "TAF LBSF 092300Z 1000/1024 VRB03KT 9999 SCT030 BKN050"
    },
    {
      "icao": "LBWN",
      "alert": "OK",
      "vis_m": 9999,
      "fzfg": false,
      "metar_trigger": false,
      "taf_trigger": false,
      "metar": "METAR LBWN 100330Z AUTO VRB02KT 9999 NSC 01/M03 Q1000 NOSIG",
      "taf": "TAF LBWN 092300Z 1000/1024 VRB04KT 9999 BKN040"
    },
    {
      "icao": "LCLK",
      "alert": "OK",
      "vis_m": 9999,
      "fzfg": false,
      "metar_trigger": false,
      "taf_trigger": false,
      "metar": "METAR LCLK 100330Z 33004KT 9999 FEW035 09/06 Q1016 NOSIG",
      "taf": "TAF LCLK 092330Z 1000/1100 26007KT 9999 FEW020 SCT040"
    },
    {
      "icao": "LCPH",
      "alert": "OK",
      "vis_m": 9999,
      "fzfg": false,
      "metar_trigger": false,
      "taf_trigger": false,
      "metar": "METAR LCPH 100330Z 03007KT 360V080 9999 FEW030 BKN040 16/09 Q1016 NOSIG",
      "taf": "TAF LCPH 092330Z 1000/1100 31012KT 9999 FEW025 SCT040"
    },
    {
      "icao": "LEAL",
      "alert": "OK",
      "vis_m": 9999,
      "fzfg": false,
      "metar_trigger": false,
      "taf_trigger": false,
      "metar": "METAR LEAL 100330Z 27005KT CAVOK 08/04 Q1024 NOSIG",
      "taf": "TAF LEAL 092300Z 1000/1024 27009KT 9999 FEW040 TX16/1014Z TN08/1006Z"
    },
    {
      "icao": "LEBB",
      "alert": "OK",
      "vis_m": 9999,
      "fzfg": false,
      "metar_trigger": false,
      "taf_trigger": false,
      "metar": "METAR LEBB 100330Z AUTO 27004KT 210V300 9999 SCT039 BKN050 BKN060 08/06 Q1023 RERA",
      "taf": "TAF LEBB 092300Z 1000/1024 28010KT 9999 FEW020 BKN040 TX10/1014Z TN08/1000Z"
    },
    {
      "icao": "LEBL",
      "alert": "OK",
      "vis_m": 9999,
      "fzfg": false,
      "metar_trigger": false,
      "taf_trigger": false,
      "metar": "METAR LEBL 100330Z 32015KT 9999 FEW045 07/01 Q1016 NOSIG",
      "taf": ""
    },
    {
      "icao": "LECH",
      "alert": "OK",
      "vis_m": 9999,
      "fzfg": false,
      "metar_trigger": false,
      "taf_trigger": false,
      "metar": "METAR LECH 100330Z AUTO 28009KT 240V030 CAVOK 08/M04 Q1020",
      "taf": ""
    },
    {
      "icao": "LEMD",
      "alert": "OK",
      "vis_m": 9999,
      "fzfg": false,
      "metar_trigger": false,
      "taf_trigger": false,
      "metar": "METAR LEMD 100330Z 28011KT 250V310 9999 SCT055 05/M00 Q1024 NOSIG",
      "taf": "TAF LEMD 092300Z 1000/1106 27006KT 9999 SCT030 TX10/1014Z TN01/1006Z"
    },
    {
      "icao": "LEMG",
      "alert": "OK",
      "vis_m": 9999,
      "fzfg": false,
      "metar_trigger": false,
      "taf_trigger": false,
      "metar": "METAR LEMG 100330Z 30011KT 9999 FEW030 11/06 Q1026 NOSIG",
      "taf": "TAF LEMG 092300Z 1000/1024 29012KT 9999 FEW030 TX18/1014Z TN10/1006Z"
    },
    {
      "icao": "LEVC",
      "alert": "OK",
      "vis_m": 9999,
      "fzfg": false,
      "metar_trigger": false,
      "taf_trigger": false,
      "metar": "METAR LEVC 100330Z 26010KT CAVOK 08/02 Q1022 NOSIG",
      "taf": "TAF LEVC 092300Z 1000/1024 26008KT 9999 FEW040 TX16/1014Z TN07/1006Z"
    },
    {
      "icao": "LEXJ",
      "alert": "OK",
      "vis_m": 9999,
      "fzfg": false,
      "metar_trigger": false,
      "taf_trigger": false,
      "metar": "METAR LEXJ 100330Z AUTO 29014KT 260V320 9999 2000E FEW028 BKN035 09/05 Q1024",
      "taf": "TAF LEXJ 100200Z 1003/1103 27015KT 9999 SCT025 BKN040 TX11/1015Z TN08/1007Z"
    },
    {
      "icao": "LEZG",
      "alert": "OK",
      "vis_m": 9999,
      "fzfg": false,
      "metar_trigger": false,
      "taf_trigger": false,
      "metar": "METAR LEZG 100330Z 27013KT 9999 FEW055 07/M00 Q1022 NOSIG",
      "taf": "TAF LEZG 092300Z 1000/1024 27010KT 9999 FEW040 TX11/1015Z TN05/1006Z"
    },
    {
      "icao": "LEZL",
      "alert": "OK",
      "vis_m": 7000,
      "fzfg": false,
      "metar_trigger": false,
      "taf_trigger": false,
      "metar": "METAR LEZL 100330Z AUTO VRB02KT 7000 NCD 05/05 Q1028",
      "taf": "TAF LEZL 100200Z 1003/1103 VRB03KT CAVOK TX15/1015Z TN06/1007Z"
    },
    {
      "icao": "LFBD",
      "alert": "OK",
      "vis_m": 9999,
      "fzfg": false,
      "metar_trigger": false,
      "taf_trigger": false,
      "metar": "METAR LFBD 100330Z AUTO 25007KT 9999 SCT038/// BKN044/// BKN064/// ///CB 05/04 Q1018",
      "taf": ""
    },
    {
      "icao": "LFLL",
      "alert": "OK",
      "vis_m": 9999,
      "fzfg": false,
      "metar_trigger": false,
      "taf_trigger": false,
      "metar": "METAR LFLL 100330Z 24006KT 220V290 9999 FEW031 BKN050 04/00 Q1010 NOSIG",
      "taf": "TAF LFLL 092300Z 1000/1106 25008KT 9999 BKN025"
    },
    {
      "icao": "LFLS",
      "alert": "OK",
      "vis_m": 9999,
      "fzfg": false,
      "metar_trigger": false,
      "taf_trigger": false,
      "metar": "METAR LFLS 100330Z AUTO 06005KT 9999 BKN030 BKN035 BKN042 01/00 Q1010 TEMPO 2000 -SHSN BKN008 BKN030TCU",
      "taf": "TAF LFLS 100200Z 1003/1103 VRB03KT 9999 BKN030"
    },
    {
      "icao": "LFMN",
      "alert": "OK",
      "vis_m": 9999,
      "fzfg": false,
      "metar_trigger": false,
      "taf_trigger": false,
      "metar": "METAR LFMN 100330Z 30020KT 260V320 CAVOK 11/M07 Q1001 TEMPO 29015G35KT",
      "taf": "TAF LFMN 100200Z 1003/1109 34015KT CAVOK"
    },
    {
      "icao": "LFOB",
      "alert": "OK",
      "vis_m": 9999,
      "fzfg": false,
      "metar_trigger": false,
      "taf_trigger": false,
      "metar": "METAR LFOB 100330Z AUTO 31018KT 9999 FEW015 SCT028 BKN045 03/01 Q1005 TEMPO BKN014 BECMG 28015G25KT",
      "taf": "TAF LFOB 092300Z 1000/1024 28015G25KT 9999 BKN025"
    },
    {
      "icao": "LFPO",
      "alert": "OK",
      "vis_m": 9999,
      "fzfg": false,
      "metar_trigger": false,
      "taf_trigger": false,
      "metar": "METAR LFPO 100330Z AUTO 28011KT 9999 FEW030 BKN160 OVC180 04/01 Q1006 TEMPO 28015G30KT",
      "taf": "TAF LFPO 092300Z 1000/1106 28015KT 9999 SCT020 SCT040"
    },
    {
      "icao": "LFSB",
      "alert": "OK",
      "vis_m": 9999,
      "fzfg": false,
      "metar_trigger": false,
      "taf_trigger": false,
      "metar": "METAR LFSB 100330Z AUTO 25015KT 210V280 9999 BKN025 BKN030 BKN035 03/00 Q1003 TEMPO 4000 -SHRASN SCT025TCU BECMG 25017G30KT",
      "taf": "TAF LFSB 092300Z 1000/1024 25017G30KT 9999 BKN030"
    },
    {
      "icao": "LGAV",
      "alert": "OK",
      "vis_m": 9999,
      "fzfg": false,
      "metar_trigger": false,
      "taf_trigger": false,
      "metar": "METAR LGAV 100320Z 24008KT 9999 FEW030 14/08 Q1007 NOSIG",
      "taf": "TAF LGAV 092300Z 1000/1024 24012KT 9999 FEW025"
    },
    {
      "icao": "LGTS",
      "alert": "OK",
      "vis_m": 6000,
      "fzfg": false,
      "metar_trigger": false,
      "taf_trigger": false,
      "metar": "METAR LGTS 100320Z VRB02KT 6000 FEW025 01/01 Q1003 NOSIG",
      "taf": "TAF LGTS 092300Z 1000/1024 VRB03KT 9999 FEW030"
    },
    {
      "icao": "LHBP",
      "alert": "OK",
      "vis_m": 3200,
      "fzfg": false,
      "metar_trigger": false,
      "taf_trigger": false,
      "metar": "METAR LHBP 100330Z 01003KT 330V040 3200 BR OVC003 M06/M07 Q1002 NOSIG",
      "taf": "TAF LHBP 092315Z 1000/1024 VRB03KT 7000 BKN015 OVC030"
    },
    {
      "icao": "LHDC",
      "alert": "OK",
      "vis_m": 8000,
      "fzfg": false,
      "metar_trigger": false,
      "taf_trigger": false,
      "metar": "METAR LHDC 100315Z AUTO 02004KT 8000 OVC029 M05/M07 Q1001",
      "taf": ""
    },
    {
      "icao": "LIBD",
      "alert": "OK",
      "vis_m": 9999,
      "fzfg": false,
      "metar_trigger": false,
      "taf_trigger": false,
      "metar": "METAR LIBD 100320Z 21009KT 9999 -RA NSC 11/06 Q1001",
      "taf": "TAF LIBD 092300Z 1000/1024 23012KT 9999 SCT040"
    },
    {
      "icao": "LIBG",
      "alert": "OK",
      "vis_m": null,
      "fzfg": false,
      "metar_trigger": false,
      "taf_trigger": false,
      "metar": "",
      "taf": "TAF LIBG 091700Z 0918/1003 21010KT 9999 SCT040"
    },
    {
      "icao": "LIBP",
      "alert": "OK",
      "vis_m": 9999,
      "fzfg": false,
      "metar_trigger": false,
      "taf_trigger": false,
      "metar": "METAR LIBP 100320Z AUTO 26008KT 9999 BKN083/// BKN100/// 11/04 Q0998",
      "taf": "TAF LIBP 092300Z 1000/1024 24015KT 9999 SCT040"
    },
    {
      "icao": "LIBR",
      "alert": "OK",
      "vis_m": 9999,
      "fzfg": false,
      "metar_trigger": false,
      "taf_trigger": false,
      "metar": "METAR LIBR 100320Z 23013KT CAVOK 13/06 Q1002",
      "taf": "TAF LIBR 092300Z 1000/1024 21012KT 9999 SCT040"
    },
    {
      "icao": "LICA",
      "alert": "OK",
      "vis_m": 9999,
      "fzfg": false,
      "metar_trigger": false,
      "taf_trigger": false,
      "metar": "METAR LICA 100320Z AUTO 24019G29KT 9999 SCT027/// BKN054/// BKN090/// 16/11 Q1005",
      "taf": "TAF LICA 092300Z 1000/1024 27025G35KT 9999 BKN020"
    },
    {
      "icao": "LICC",
      "alert": "OK",
      "vis_m": 9999,
      "fzfg": false,
      "metar_trigger": false,
      "taf_trigger": false,
      "metar": "METAR LICC 100320Z 27015KT 9999 FEW050 15/10 Q1008",
      "taf": "TAF LICC 092300Z 1000/1024 26018G30KT 9999 FEW050"
    },
    {
      "icao": "LICJ",
      "alert": "OK",
      "vis_m": 9999,
      "fzfg": false,
      "metar_trigger": false,
      "taf_trigger": false,
      "metar": "METAR LICJ 100320Z 26024KT 9999 FEW050 15/10 Q1009",
      "taf": "TAF LICJ 092300Z 1000/1024 23020G30KT 9999 SCT030"
    },
    {
      "icao": "LIMC",
      "alert": "OK",
      "vis_m": 4000,
      "fzfg": false,
      "metar_trigger": false,
      "taf_trigger": false,
      "metar": "METAR LIMC 100250Z 33004KT 300V020 4000 BR NSC M04/M05 Q0999 NOSIG",
      "taf": "TAF LIMC 092300Z 1000/1106 VRB04KT 6000 NSC"
    },
    {
      "icao": "LIME",
      "alert": "OK",
      "vis_m": 8000,
      "fzfg": false,
      "metar_trigger": false,
      "taf_trigger": false,
      "metar": "METAR LIME 100320Z 05004KT 8000 NSC M02/M03 Q0999 NOSIG",
      "taf": "TAF LIME 092300Z 1000/1024 VRB04KT 8000 SCT040"
    },
    {
      "icao": "LIMF",
      "alert": "OK",
      "vis_m": 5000,
      "fzfg": false,
      "metar_trigger": false,
      "taf_trigger": false,
      "metar": "METAR LIMF 100320Z 06004KT 340V130 5000 BR NSC M02/M05 Q0999",
      "taf": "TAF LIMF 092300Z 1000/1024 VRB05KT 6000 NSC"
    },
    {
      "icao": "LIMJ",
      "alert": "OK",
      "vis_m": 9999,
      "fzfg": false,
      "metar_trigger": false,
      "taf_trigger": false,
      "metar": "METAR LIMJ 100320Z 06006KT CAVOK 08/M04 Q0999",
      "taf": "TAF LIMJ 092300Z 1000/1024 04008KT CAVOK"
    },
    {
      "icao": "LIPE",
      "alert": "OK",
      "vis_m": 5000,
      "fzfg": false,
      "metar_trigger": false,
      "taf_trigger": false,
      "metar": "METAR LIPE 100320Z 28006KT 5000 BR FEW037 OVC044 01/M01 Q1001",
      "taf": "TAF LIPE 092300Z 1000/1024 VRB05KT 6000 NSC"
    },
    {
      "icao": "LIPH",
      "alert": "OK",
      "vis_m": 9999,
      "fzfg": false,
      "metar_trigger": false,
      "taf_trigger": false,
      "metar": "METAR LIPH 100320Z AUTO VRB01KT 9999 BKN200/// M01/M04 Q1000",
      "taf": "TAF LIPH 092300Z 1000/1024 VRB05KT 9999 SCT040"
    },
    {
      "icao": "LIPQ",
      "alert": "OK",
      "vis_m": 6000,
      "fzfg": false,
      "metar_trigger": false,
      "taf_trigger": false,
      "metar": "METAR LIPQ 100320Z AUTO 35007KT 6000 FEW084/// BKN210/// 02/02 Q0999",
      "taf": "TAF LIPQ 092300Z 1000/1024 VRB05KT 9999 BKN030"
    },
    {
      "icao": "LIPR",
      "alert": "OK",
      "vis_m": 6000,
      "fzfg": false,
      "metar_trigger": false,
      "taf_trigger": false,
      "metar": "METAR LIPR 100320Z AUTO 28007KT 6000 -RA OVC052/// 01/M00 Q1000",
      "taf": "TAF LIPR 092300Z 1000/1024 VRB05KT 7000 SCT040"
    },
    {
      "icao": "LIPX",
      "alert": "OK",
      "vis_m": 9999,
      "fzfg": false,
      "metar_trigger": false,
      "taf_trigger": false,
      "metar": "METAR LIPX 100320Z VRB02KT CAVOK M04/M05 Q1000",
      "taf": "TAF LIPX 092300Z 1000/1024 VRB05KT 8000 NSC"
    },
    {
      "icao": "LIPY",
      "alert": "OK",
      "vis_m": 4200,
      "fzfg": false,
      "metar_trigger": false,
      "taf_trigger": false,
      "metar": "METAR LIPY 100320Z AUTO VRB02KT 4200 BR FEW007/// SCT045/// BKN069/// 04/03 Q0999",
      "taf": "TAF LIPY 092300Z 1000/1024 24012KT 9999 SCT050"
    },
    {
      "icao": "LIPZ",
      "alert": "OK",
      "vis_m": 9999,
      "fzfg": false,
      "metar_trigger": false,
      "taf_trigger": false,
      "metar": "METAR LIPZ 100320Z 08004KT 050V110 CAVOK M01/M03 Q1000 NOSIG",
      "taf": "TAF LIPZ 092300Z 1000/1106 VRB05KT CAVOK"
    },
    {
      "icao": "LIRF",
      "alert": "OK",
      "vis_m": 9999,
      "fzfg": false,
      "metar_trigger": false,
      "taf_trigger": false,
      "metar": "METAR LIRF 100320Z 26020KT CAVOK 12/06 Q0999 NOSIG",
      "taf": "TAF LIRF 092300Z 1000/1106 25023G35KT 9999 SCT025"
    },
    {
      "icao": "LIRN",
      "alert": "OK",
      "vis_m": 8000,
      "fzfg": false,
      "metar_trigger": false,
      "taf_trigger": false,
      "metar": "METAR LIRN 100320Z 19005KT 160V220 8000 -RA BKN040 09/08 Q1001 NOSIG",
      "taf": "TAF LIRN 092300Z 1000/1024 26018G28KT 9999 SCT040"
    },
    {
      "icao": "LIRP",
      "alert": "OK",
      "vis_m": 9999,
      "fzfg": false,
      "metar_trigger": false,
      "taf_trigger": false,
      "metar": "METAR LIRP 100315Z 03014KT 9999 -TSRA FEW020CB SCT030 07/05 Q0998 NOSIG",
      "taf": "TAF LIRP 092300Z 1000/1024 26015KT 9999 SCT020 SCT040"
    },
    {
      "icao": "LIRZ",
      "alert": "OK",
      "vis_m": 9999,
      "fzfg": false,
      "metar_trigger": false,
      "taf_trigger": false,
      "metar": "METAR LIRZ 100320Z AUTO 23009KT 9999 -RA BKN031/// 07/04 Q0999",
      "taf": "TAF LIRZ 092300Z 1000/1024 VRB05KT 9999 BKN040"
    },
    {
      "icao": "LJLJ",
      "alert": "OK",
      "vis_m": 4000,
      "fzfg": false,
      "metar_trigger": false,
      "taf_trigger": false,
      "metar": "METAR LJLJ 100330Z VRB02KT 4000 BR SCT001 OVC012 00/M00 Q1000 NOSIG",
      "taf": "TAF LJLJ 092300Z 1000/1100 30003KT 4000 BR FEW003 BKN016 BKN030"
    },
    {
      "icao": "LKMT",
      "alert": "OK",
      "vis_m": 4000,
      "fzfg": false,
      "metar_trigger": false,
      "taf_trigger": false,
      "metar": "METAR LKMT 100330Z 26003KT 4000 BR OVC030 M04/M05 Q1000 NOSIG",
      "taf": "TAF LKMT 092300Z 1000/1024 VRB02KT 9999 BKN035"
    },
    {
      "icao": "LKPR",
      "alert": "OK",
      "vis_m": 3700,
      "fzfg": false,
      "metar_trigger": false,
      "taf_trigger": false,
      "metar": "METAR LKPR 100330Z 01002KT 3700 -SN BR FEW002 OVC003 M04/M05 Q0998 NOSIG",
      "taf": "TAF LKPR 100200Z 1003/1109 06005KT 5000 BR SCT008 OVC013"
    },
    {
      "icao": "LLBG",
      "alert": "OK",
      "vis_m": 9999,
      "fzfg": false,
      "metar_trigger": false,
      "taf_trigger": false,
      "metar": "METAR LLBG 100320Z 29009KT 9999 BKN050 15/09 Q1019 REDZ",
      "taf": "TAF LLBG 092311Z 1000/1024 28012KT 9999 SCT035"
    },
    {
      "icao": "LMML",
      "alert": "OK",
      "vis_m": 9999,
      "fzfg": false,
      "metar_trigger": false,
      "taf_trigger": false,
      "metar": "METAR LMML 100315Z 24009KT 9999 FEW019 14/11 Q1013 NOSIG",
      "taf": "TAF LMML 092300Z 1000/1024 25018KT 9999 SCT017"
    },
    {
      "icao": "LOWW",
      "alert": "OK",
      "vis_m": 4800,
      "fzfg": false,
      "metar_trigger": false,
      "taf_trigger": false,
      "metar": "METAR LOWW 100320Z VRB02KT 4800 BR FEW004 BKN005 M06/M07 Q1001 TEMPO BKN004",
      "taf": "TAF LOWW 100215Z 1003/1109 12003KT 6000 BKN008 TXM02/1012Z TNM06/1100Z"
    },
    {
      "icao": "LPFR",
      "alert": "OK",
      "vis_m": 9999,
      "fzfg": false,
      "metar_trigger": false,
      "taf_trigger": false,
      "metar": "METAR LPFR 100330Z 32007KT CAVOK 08/07 Q1029",
      "taf": "TAF LPFR 092300Z 1000/1024 32005KT 9999 FEW035"
    },
    {
      "icao": "LPMA",
      "alert": "OK",
      "vis_m": 9999,
      "fzfg": false,
      "metar_trigger": false,
      "taf_trigger": false,
      "metar": "METAR LPMA 100330Z 35006KT 9999 SCT015 14/10 Q1031",
      "taf": "TAF LPMA 092300Z 1000/1024 03008KT 9999 SCT016"
    },
    {
      "icao": "LPPR",
      "alert": "OK",
      "vis_m": 8000,
      "fzfg": false,
      "metar_trigger": false,
      "taf_trigger": false,
      "metar": "METAR LPPR 100330Z 11005KT 8000 -SHRA FEW030 SCT042 07/07 Q1029",
      "taf": "TAF LPPR 092300Z 1000/1024 VRB02KT 9999 BKN025"
    },
    {
      "icao": "LPPS",
      "alert": "OK",
      "vis_m": 9999,
      "fzfg": false,
      "metar_trigger": false,
      "taf_trigger": false,
      "metar": "METAR LPPS 100330Z 36004KT 9999 SCT014 13/11 Q1031",
      "taf": "TAF LPPS 092300Z 1000/1106 06008KT 9999 SCT015 SCT030"
    },
    {
      "icao": "LPPT",
      "alert": "OK",
      "vis_m": 9999,
      "fzfg": false,
      "metar_trigger": false,
      "taf_trigger": false,
      "metar": "METAR LPPT 100330Z 29003KT 9999 FEW015 09/08 Q1029",
      "taf": "TAF LPPT 092300Z 1000/1106 VRB02KT 9999 FEW030"
    },
    {
      "icao": "LQBK",
      "alert": "OK",
      "vis_m": 2000,
      "fzfg": false,
      "metar_trigger": false,
      "taf_trigger": false,
      "metar": "METAR LQBK 100330Z VRB01KT 2000 BR OVC004 00/00 Q1000 NOSIG",
      "taf": ""
    },
    {
      "icao": "LQSA",
      "alert": "OK",
      "vis_m": 300,
      "fzfg": true,
      "metar_trigger": false,
      "taf_trigger": false,
      "metar": "METAR LQSA 100330Z 15003KT 0300 R11/0325N FZFG VV001 M01/M01 Q0999",
      "taf": "TAF LQSA 092300Z 1000/1024 VRB02KT 4000 BR FEW005 SCT050 TX01/1000Z TNM04/1007Z"
    },
    {
      "icao": "LQTZ",
      "alert": "OK",
      "vis_m": 1500,
      "fzfg": false,
      "metar_trigger": false,
      "taf_trigger": false,
      "metar": "METAR LQTZ 100330Z VRB02KT 1500 BR FEW006 SCT030 00/00 Q1000",
      "taf": "TAF LQTZ 092300Z 1000/1024 16005KT 6000 SCT005 BKN025 TX02/1013Z TNM00/1006Z"
    },
    {
      "icao": "LRBC",
      "alert": "OK",
      "vis_m": 9999,
      "fzfg": false,
      "metar_trigger": false,
      "taf_trigger": false,
      "metar": "METAR LRBC 100330Z 00000KT 9999 SN OVC047 M04/M08 Q1000",
      "taf": "TAF LRBC 100200Z 1003/1012 VRB04KT CAVOK"
    },
    {
      "icao": "LRBS",
      "alert": "OK",
      "vis_m": 9999,
      "fzfg": false,
      "metar_trigger": false,
      "taf_trigger": false,
      "metar": "METAR LRBS 100330Z 00000KT 9999 BKN048 01/M02 Q1000 NOSIG",
      "taf": "TAF LRBS 092300Z 1000/1024 VRB04KT 9999 BKN030"
    },
    {
      "icao": "LRBV",
      "alert": "OK",
      "vis_m": 9999,
      "fzfg": false,
      "metar_trigger": false,
      "taf_trigger": false,
      "metar": "METAR LRBV 100330Z AUTO 00000KT 9999 SCT027/// OVC041/// M05/M08 Q0998",
      "taf": "TAF LRBV 100200Z 1003/1012 VRB04KT 9999 BKN025 BKN050"
    },
    {
      "icao": "LRCL",
      "alert": "OK",
      "vis_m": 9999,
      "fzfg": false,
      "metar_trigger": false,
      "taf_trigger": false,
      "metar": "METAR LRCL 100330Z 09004KT 9999 SCT029 OVC036 M06/M08 Q1000",
      "taf": "TAF LRCL 100200Z 1003/1012 VRB04KT 9999 OVC035"
    },
    {
      "icao": "LRCV",
      "alert": "OK",
      "vis_m": 9999,
      "fzfg": false,
      "metar_trigger": false,
      "taf_trigger": false,
      "metar": "METAR LRCV 100330Z 01005KT 340V040 9999 FEW020 BKN032 M00/M01 Q1000",
      "taf": "TAF LRCV 100200Z 1003/1012 VRB04KT 9999 BKN040"
    },
    {
      "icao": "LRIA",
      "alert": "OK",
      "vis_m": 9999,
      "fzfg": false,
      "metar_trigger": false,
      "taf_trigger": false,
      "metar": "METAR LRIA 100330Z 10005KT CAVOK M06/M07 Q1000",
      "taf": "TAF LRIA 100200Z 1003/1012 VRB04KT CAVOK"
    },
    {
      "icao": "LROP",
      "alert": "OK",
      "vis_m": 9999,
      "fzfg": false,
      "metar_trigger": false,
      "taf_trigger": false,
      "metar": "METAR LROP 100330Z VRB01KT 9999 -SN NSC 00/M03 Q1000 NOSIG",
      "taf": "TAF LROP 092300Z 1000/1024 VRB04KT 9999 BKN030"
    },
    {
      "icao": "LRSB",
      "alert": "OK",
      "vis_m": 9999,
      "fzfg": false,
      "metar_trigger": false,
      "taf_trigger": false,
      "metar": "METAR LRSB 100330Z VRB01KT 9999 SCT016 SCT045 BKN056 M04/M05 Q0998",
      "taf": "TAF LRSB 092300Z 1000/1024 VRB04KT 9999 OVC040"
    },
    {
      "icao": "LRSM",
      "alert": "OK",
      "vis_m": 9999,
      "fzfg": false,
      "metar_trigger": false,
      "taf_trigger": false,
      "metar": "METAR LRSM 100330Z AUTO 05003KT 9999 BKN018/// BKN024/// OVC028/// M05/M07 Q1001",
      "taf": ""
    },
    {
      "icao": "LRSV",
      "alert": "OK",
      "vis_m": 9999,
      "fzfg": false,
      "metar_trigger": false,
      "taf_trigger": false,
      "metar": "METAR LRSV 100330Z 00000KT CAVOK M06/M11 Q0998",
      "taf": "TAF LRSV 100200Z 1003/1012 VRB04KT CAVOK"
    },
    {
      "icao": "LRTM",
      "alert": "OK",
      "vis_m": 3700,
      "fzfg": false,
      "metar_trigger": false,
      "taf_trigger": false,
      "metar": "METAR LRTM 100330Z AUTO 09003KT 3700 -SN FEW020/// BKN024/// BKN039/// M05/M07 Q1000",
      "taf": "TAF LRTM 100200Z 1003/1012 VRB04KT 9999 OVC040"
    },
    {
      "icao": "LRTR",
      "alert": "OK",
      "vis_m": 4500,
      "fzfg": false,
      "metar_trigger": false,
      "taf_trigger": false,
      "metar": "METAR LRTR 100330Z 07001KT 4500 -SN BR SCT003 OVC013 M01/M01 Q1001",
      "taf": "TAF LRTR 092300Z 1000/1024 VRB04KT 3000 -SN BR BKN010 OVC025"
    },
    {
      "icao": "LTAC",
      "alert": "OK",
      "vis_m": 9999,
      "fzfg": false,
      "metar_trigger": false,
      "taf_trigger": false,
      "metar": "METAR LTAC 100320Z 05005KT 010V080 CAVOK M04/M07 Q1011 NOSIG RMK RWY21C 06003KT 020V080 RWY03L 05004KT RWY21R 03004KT 350V060 RWY03R VRB02KT RWY21L VRB02KT",
      "taf": "TAF LTAC 092240Z 1000/1024 VRB02KT CAVOK"
    },
    {
      "icao": "LTFM",
      "alert": "OK",
      "vis_m": 9999,
      "fzfg": false,
      "metar_trigger": false,
      "taf_trigger": false,
      "metar": "METAR LTFM 100320Z 20020KT 9999 SCT035 BKN090 10/05 Q1004 NOSIG RMK RWY17L 21017KT RWY34L 20017KT RWY16R 20017KT RWY36 19017KT RWY18 20019KT",
      "taf": "TAF LTFM 092240Z 1000/1106 21020G32KT 9999 SCT028 BKN090"
    },
    {
      "icao": "LUKK",
      "alert": "OK",
      "vis_m": 9999,
      "fzfg": false,
      "metar_trigger": false,
      "taf_trigger": false,
      "metar": "METAR LUKK 100330Z VRB02KT CAVOK M07/M08 Q1001 NOSIG",
      "taf": "TAF LUKK 092317Z 1000/1024 VRB04KT 9999 SCT045"
    },
    {
      "icao": "LWOH",
      "alert": "OK",
      "vis_m": null,
      "fzfg": false,
      "metar_trigger": false,
      "taf_trigger": false,
      "metar": "",
      "taf": "TAF LWOH 100230Z 1003/1103 16010KT 9999 -RA FEW005 BKN020 OVC040"
    },
    {
      "icao": "LWSK",
      "alert": "OK",
      "vis_m": 8000,
      "fzfg": false,
      "metar_trigger": false,
      "taf_trigger": false,
      "metar": "METAR LWSK 100320Z VRB02KT 8000 FEW040 M03/M04 Q1003 NOSIG",
      "taf": "TAF LWSK 100230Z 1003/1103 VRB02KT 9999 SCT040 BKN060"
    },
    {
      "icao": "LYBE",
      "alert": "OK",
      "vis_m": 1000,
      "fzfg": false,
      "metar_trigger": false,
      "taf_trigger": false,
      "metar": "METAR LYBE 100330Z VRB01KT 1000 R12L/1700U R30R/1400D -RA BR BKN005 BKN020 00/00 Q1001 NOSIG",
      "taf": "TAF LYBE 092300Z 1000/1024 26006KT 2000 BR BKN008 BKN025 TX00/1000Z TNM02/1019Z"
    },
    {
      "icao": "LYNI",
      "alert": "OK",
      "vis_m": 8000,
      "fzfg": false,
      "metar_trigger": false,
      "taf_trigger": false,
      "metar": "METAR LYNI 100330Z 18003KT 160V240 8000 BKN027 OVC080 01/01 Q1001 NOSIG",
      "taf": "TAF LYNI 092300Z 1000/1024 07004KT 8000 SCT015 BKN030 TX01/1000Z TNM02/1024Z"
    },
    {
      "icao": "LYPG",
      "alert": "OK",
      "vis_m": 4000,
      "fzfg": false,
      "metar_trigger": false,
      "taf_trigger": false,
      "metar": "METAR LYPG 100330Z VRB01KT 4000 -RA BR FEW010 BKN033 BKN080 04/03 Q1000 NOSIG",
      "taf": "TAF LYPG 092300Z 1000/1024 35005KT 7000 RA FEW010 BKN030 OVC070 TX08/1012Z TN02/1005Z"
    },
    {
      "icao": "LZIB",
      "alert": "OK",
      "vis_m": 9999,
      "fzfg": false,
      "metar_trigger": false,
      "taf_trigger": false,
      "metar": "METAR LZIB 100330Z 07003KT 9999 BKN009 OVC010 M05/M06 Q1001 NOSIG",
      "taf": "TAF LZIB 092315Z 1000/1100 06004KT 9999 BKN016"
    },
    {
      "icao": "LZKZ",
      "alert": "OK",
      "vis_m": 7000,
      "fzfg": false,
      "metar_trigger": false,
      "taf_trigger": false,
      "metar": "METAR LZKZ 100330Z 01005KT 7000 OVC009 M08/M10 Q1001 NOSIG",
      "taf": ""
    },
    {
      "icao": "LZTT",
      "alert": "OK",
      "vis_m": 9999,
      "fzfg": false,
      "metar_trigger": false,
      "taf_trigger": false,
      "metar": "METAR LZTT 100330Z 12003KT 9999 FEW023 BKN063 M14/M16 Q0996",
      "taf": "TAF LZTT 092315Z 1000/1100 VRB02KT 9999 SCT030 BKN050"
    },
    {
      "icao": "OEJN",
      "alert": "OK",
      "vis_m": 9999,
      "fzfg": false,
      "metar_trigger": false,
      "taf_trigger": false,
      "metar": "METAR OEJN 100300Z 04002KT CAVOK 23/18 Q1014 NOSIG",
      "taf": "TAF OEJN 092300Z 1000/1106 VRB03KT 7000 SCT040"
    },
    {
      "icao": "OEMA",
      "alert": "OK",
      "vis_m": 9999,
      "fzfg": false,
      "metar_trigger": false,
      "taf_trigger": false,
      "metar": "METAR OEMA 100300Z 01006KT CAVOK 17/10 Q1018 NOSIG",
      "taf": "TAF OEMA 092300Z 1000/1106 VRB03KT 7000 NSC"
    },
    {
      "icao": "OJAI",
      "alert": "OK",
      "vis_m": 2500,
      "fzfg": false,
      "metar_trigger": false,
      "taf_trigger": false,
      "metar": "METAR OJAI 100300Z 26012KT 2500 BR FEW025 BKN035 08/06 Q1018 NOSIG",
      "taf": ""
    },
    {
      "icao": "OMAA",
      "alert": "OK",
      "vis_m": 7000,
      "fzfg": false,
      "metar_trigger": false,
      "taf_trigger": false,
      "metar": "METAR OMAA 100300Z 14001KT 7000 NSC 16/12 Q1019 NOSIG",
      "taf": "TAF OMAA 092300Z 1000/1106 VRB02KT 8000 NSC"
    },
    {
      "icao": "OMDB",
      "alert": "OK",
      "vis_m": 8000,
      "fzfg": false,
      "metar_trigger": false,
      "taf_trigger": false,
      "metar": "METAR OMDB 100330Z 18004KT 8000 NSC 17/12 Q1019 NOSIG",
      "taf": "TAF OMDB 092300Z 1000/1106 12005KT 8000 NSC"
    },
    {
      "icao": "UAAA",
      "alert": "OK",
      "vis_m": 300,
      "fzfg": true,
      "metar_trigger": false,
      "taf_trigger": false,
      "metar": "METAR UAAA 100330Z VRB01MPS 0300 R23L/0400N FZFG VV001 M07/M08 Q1020 NOSIG RMK QBB050",
      "taf": "TAF UAAA 092301Z 1000/1024 17003MPS 1200 BR FU BKN011 OVC020 TX03/1009Z TNM07/1001Z"
    },
    {
      "icao": "UBBB",
      "alert": "OK",
      "vis_m": 9999,
      "fzfg": false,
      "metar_trigger": false,
      "taf_trigger": false,
      "metar": "METAR UBBB 100330Z 33018KT 9999 FEW015 BKN030 08/06 Q1009 NOSIG",
      "taf": "TAF UBBB 092304Z 1000/1024 32020G30KT 9999 SCT010 BKN025 TX10/1010Z TN06/1000Z"
    },
    {
      "icao": "UDSG",
      "alert": "OK",
      "vis_m": 250,
      "fzfg": true,
      "metar_trigger": false,
      "taf_trigger": false,
      "metar": "METAR UDSG 100330Z 07003KT 0250 R02/0800U SN FZFG OVC006 M03/M03 Q1007 NOSIG",
      "taf": "TAF UDSG 092300Z 1000/1024 VRB06KT 0800 FZFG OVC006"
    },
    {
      "icao": "UDYZ",
      "alert": "OK",
      "vis_m": 1000,
      "fzfg": false,
      "metar_trigger": false,
      "taf_trigger": false,
      "metar": "METAR UDYZ 100330Z 00000KT 1000 0800W R08/1800U BCFG SCT005 M02/M03 Q1008 NOSIG",
      "taf": ""
    },
    {
      "icao": "UGKO",
      "alert": "OK",
      "vis_m": 7000,
      "fzfg": false,
      "metar_trigger": false,
      "taf_trigger": false,
      "metar": "METAR UGKO 100330Z 23014KT 7000 -RA BKN010 OVC053 04/03 Q1012 NOSIG",
      "taf": "TAF UGKO 092300Z 1000/1024 25010KT 9999 OVC050 TX09/1012Z TN04/1003Z"
    }
  ]
}