{
  "ts_utc": "2026-01-21T23:52:59Z",
  "threshold_m": 150,
  "source": "stations_override.txt (ICAO list) + aviationweather.gov (METAR/TAF raw)",
  "station_count": 159,
  "stations": [
    {
      "icao": "BIKF",
      "alert": "OK",
      "vis_m": 9999,
      "fzfg": false,
      "metar_trigger": false,
      "taf_trigger": false,
      "metar": "METAR BIKF 212330Z 08019KT 9999 FEW040 SCT080 BKN140 06/02 Q0990",
      "taf": "TAF BIKF 212242Z 2200/2300 07018G28KT 9999 FEW020 BKN045 TX08/2218Z TN04/2205Z"
    },
    {
      "icao": "BKPR",
      "alert": "OK",
      "vis_m": null,
      "fzfg": false,
      "metar_trigger": false,
      "taf_trigger": false,
      "metar": "",
      "taf": "TAF BKPR 212330Z 2200/2224 VRB03KT 9999 BKN020 OVC050"
    },
    {
      "icao": "EBCI",
      "alert": "OK",
      "vis_m": 9999,
      "fzfg": false,
      "metar_trigger": false,
      "taf_trigger": false,
      "metar": "METAR EBCI 212320Z 16010KT CAVOK 06/M01 Q0995 NOSIG",
      "taf": "TAF EBCI 212307Z 2200/2306 14008KT CAVOK"
    },
    {
      "icao": "EDDB",
      "alert": "OK",
      "vis_m": 9999,
      "fzfg": false,
      "metar_trigger": false,
      "taf_trigger": false,
      "metar": "METAR EDDB 212320Z AUTO 07006KT CAVOK M06/M08 Q1005 NOSIG",
      "taf": "TAF EDDB 212300Z 2200/2224 07006KT CAVOK"
    },
    {
      "icao": "EDDH",
      "alert": "OK",
      "vis_m": 9999,
      "fzfg": false,
      "metar_trigger": false,
      "taf_trigger": false,
      "metar": "METAR EDDH 212320Z AUTO 07009KT CAVOK M04/M06 Q1005 NOSIG",
      "taf": "TAF EDDH 212300Z 2200/2306 09010KT CAVOK"
    },
    {
      "icao": "EDDK",
      "alert": "OK",
      "vis_m": 9999,
      "fzfg": false,
      "metar_trigger": false,
      "taf_trigger": false,
      "metar": "METAR EDDK 212320Z AUTO 12004KT 100V160 CAVOK 01/M04 Q0999 NOSIG",
      "taf": "TAF EDDK 212300Z 2200/2306 12008KT CAVOK"
    },
    {
      "icao": "EDDN",
      "alert": "OK",
      "vis_m": 9999,
      "fzfg": false,
      "metar_trigger": false,
      "taf_trigger": false,
      "metar": "METAR EDDN 212320Z AUTO 11006KT CAVOK M08/M11 Q1001",
      "taf": "TAF EDDN 212300Z 2200/2224 11006KT CAVOK"
    },
    {
      "icao": "EDDS",
      "alert": "OK",
      "vis_m": 9999,
      "fzfg": false,
      "metar_trigger": false,
      "taf_trigger": false,
      "metar": "METAR EDDS 212320Z AUTO 08003KT 050V110 CAVOK M02/M05 Q0997",
      "taf": "TAF EDDS 212300Z 2200/2224 VRB02KT CAVOK"
    },
    {
      "icao": "EDFH",
      "alert": "OK",
      "vis_m": 9000,
      "fzfg": false,
      "metar_trigger": false,
      "taf_trigger": false,
      "metar": "METAR EDFH 212320Z 14016KT 9000 NSC M03/M04 Q0997",
      "taf": "TAF EDFH 212300Z 2200/2224 14013KT CAVOK"
    },
    {
      "icao": "EDJA",
      "alert": "OK",
      "vis_m": 6000,
      "fzfg": false,
      "metar_trigger": false,
      "taf_trigger": false,
      "metar": "METAR EDJA 212320Z AUTO 05007KT 6000 // NCD M04/M05 Q0997",
      "taf": "TAF EDJA 211700Z 2118/2203 VRB03KT CAVOK"
    },
    {
      "icao": "EDLW",
      "alert": "OK",
      "vis_m": 9999,
      "fzfg": false,
      "metar_trigger": false,
      "taf_trigger": false,
      "metar": "METAR EDLW 212320Z AUTO 07005KT 9999 // NCD 03/M01 Q0998",
      "taf": "TAF EDLW 211700Z 2118/2218 08006KT CAVOK"
    },
    {
      "icao": "EDNY",
      "alert": "OK",
      "vis_m": 500,
      "fzfg": false,
      "metar_trigger": false,
      "taf_trigger": false,
      "metar": "METAR EDNY 212320Z AUTO 00000KT 0500 R24/0600D // VV/// M04/M04 Q0999",
      "taf": "TAF EDNY 211700Z 2118/2203 VRB03KT 2500 BR OVC002"
    },
    {
      "icao": "EDSB",
      "alert": "OK",
      "vis_m": 3500,
      "fzfg": false,
      "metar_trigger": false,
      "taf_trigger": false,
      "metar": "METAR EDSB 212320Z AUTO 01003KT 340V040 3500 // SCT003/// OVC005/// M01/M02 Q0999",
      "taf": "TAF EDSB 212300Z 2200/2224 VRB02KT 3500 BR SCT002 OVC005"
    },
    {
      "icao": "EETN",
      "alert": "OK",
      "vis_m": 9999,
      "fzfg": false,
      "metar_trigger": false,
      "taf_trigger": false,
      "metar": "METAR EETN 212350Z 09010KT 9999 -SN OVC013 M05/M06 Q1023",
      "taf": "TAF EETN 212330Z 2200/2224 09010KT 9999 SCT010 BKN013"
    },
    {
      "icao": "EFTU",
      "alert": "OK",
      "vis_m": 9999,
      "fzfg": false,
      "metar_trigger": false,
      "taf_trigger": false,
      "metar": "METAR EFTU 212350Z AUTO 11011KT 9999 OVC008 M05/M06 Q1024",
      "taf": "TAF EFTU 212335Z 2200/2224 09009KT 9999 OVC008"
    },
    {
      "icao": "EGBB",
      "alert": "OK",
      "vis_m": 9999,
      "fzfg": false,
      "metar_trigger": false,
      "taf_trigger": false,
      "metar": "METAR EGBB 212320Z 13013KT 9999 BKN010 09/08 Q0986 RERA REDZ",
      "taf": "TAF EGBB 212259Z 2200/2224 13014KT 9999 SCT010 BKN016"
    },
    {
      "icao": "EGGP",
      "alert": "OK",
      "vis_m": 9999,
      "fzfg": false,
      "metar_trigger": false,
      "taf_trigger": false,
      "metar": "METAR EGGP 212320Z 12016KT 9999 -RA BKN013 09/07 Q0985",
      "taf": "TAF EGGP 212258Z 2200/2224 12012KT 9999 BKN013"
    },
    {
      "icao": "EGGW",
      "alert": "OK",
      "vis_m": 9999,
      "fzfg": false,
      "metar_trigger": false,
      "taf_trigger": false,
      "metar": "METAR EGGW 212320Z AUTO 14011KT 9999 OVC008 08/07 Q0988",
      "taf": "TAF EGGW 212256Z 2200/2224 14012KT 9999 SCT005 BKN020"
    },
    {
      "icao": "EGKK",
      "alert": "OK",
      "vis_m": 9999,
      "fzfg": false,
      "metar_trigger": false,
      "taf_trigger": false,
      "metar": "METAR EGKK 212320Z 13009KT 9999 -RA BKN010 09/09 Q0988",
      "taf": "TAF EGKK 212256Z 2200/2306 14009KT 9999 SCT010"
    },
    {
      "icao": "EGNM",
      "alert": "OK",
      "vis_m": null,
      "fzfg": false,
      "metar_trigger": false,
      "taf_trigger": false,
      "metar": "",
      "taf": "TAF EGNM 212259Z 2200/2224 12012KT 6000 BKN005"
    },
    {
      "icao": "EGPD",
      "alert": "OK",
      "vis_m": 5000,
      "fzfg": false,
      "metar_trigger": false,
      "taf_trigger": false,
      "metar": "METAR EGPD 212320Z AUTO 13021G37KT 5000 -RA OVC010/// //////TCU 07/06 Q0993 TEMPO BKN008",
      "taf": "TAF EGPD 212254Z 2200/2224 13022G36KT 9999 SCT010 BKN015"
    },
    {
      "icao": "EGPF",
      "alert": "OK",
      "vis_m": 9999,
      "fzfg": false,
      "metar_trigger": false,
      "taf_trigger": false,
      "metar": "METAR EGPF 212320Z AUTO 10014KT 9999 OVC020 09/07 Q0986",
      "taf": "TAF EGPF 212301Z 2200/2224 08016G28KT 9999 FEW012 BKN025"
    },
    {
      "icao": "EHBK",
      "alert": "OK",
      "vis_m": 9999,
      "fzfg": false,
      "metar_trigger": false,
      "taf_trigger": false,
      "metar": "METAR EHBK 212325Z AUTO 10008KT 070V130 9999 NSC 03/M00 Q0996",
      "taf": "TAF EHBK 212340Z 2200/2306 09007KT CAVOK"
    },
    {
      "icao": "EHEH",
      "alert": "OK",
      "vis_m": 9999,
      "fzfg": false,
      "metar_trigger": false,
      "taf_trigger": false,
      "metar": "METAR EHEH 212325Z AUTO 11005KT 090V150 9999 SCT180 OVC290 03/M00 Q0997 BLU",
      "taf": "TAF EHEH 211717Z 2118/2224 12008KT CAVOK"
    },
    {
      "icao": "EKBI",
      "alert": "OK",
      "vis_m": 9999,
      "fzfg": false,
      "metar_trigger": false,
      "taf_trigger": false,
      "metar": "METAR EKBI 212320Z AUTO 07014KT 9999 BKN013/// OVC031/// 00/M02 Q1008",
      "taf": "TAF EKBI 212327Z 2200/2224 08015KT 9999 OVC022"
    },
    {
      "icao": "EKCH",
      "alert": "OK",
      "vis_m": 9999,
      "fzfg": false,
      "metar_trigger": false,
      "taf_trigger": false,
      "metar": "METAR EKCH 212320Z AUTO 05014KT 9999 BKN017/// OVC029/// 00/M02 Q1010 TEMPO BKN014",
      "taf": "TAF EKCH 212327Z 2200/2224 06015KT 9999 BKN020"
    },
    {
      "icao": "ENAL",
      "alert": "OK",
      "vis_m": 9999,
      "fzfg": false,
      "metar_trigger": false,
      "taf_trigger": false,
      "metar": "METAR ENAL 212320Z AUTO 14018KT 9999 NCD 06/M07 Q1010",
      "taf": "TAF ENAL 212300Z 2200/2209 14015KT CAVOK"
    },
    {
      "icao": "ENBR",
      "alert": "OK",
      "vis_m": 9999,
      "fzfg": false,
      "metar_trigger": false,
      "taf_trigger": false,
      "metar": "METAR ENBR 212320Z 02003KT CAVOK 00/M05 Q1009 RMK WIND 1200FT 09003KT",
      "taf": "TAF ENBR 212300Z 2200/2224 09005KT CAVOK"
    },
    {
      "icao": "ENGM",
      "alert": "OK",
      "vis_m": 9999,
      "fzfg": false,
      "metar_trigger": false,
      "taf_trigger": false,
      "metar": "METAR ENGM 212320Z 04008KT 9999 OVC017 M02/M05 Q1020",
      "taf": "TAF ENGM 212300Z 2200/2224 02008KT 9999 OVC020"
    },
    {
      "icao": "ENHD",
      "alert": "OK",
      "vis_m": 9999,
      "fzfg": false,
      "metar_trigger": false,
      "taf_trigger": false,
      "metar": "METAR ENHD 212320Z AUTO 09014KT 050V110 9999 NCD 03/M11 Q1009",
      "taf": "TAF ENHD 211400Z 2115/2123 10018KT CAVOK"
    },
    {
      "icao": "ENTC",
      "alert": "OK",
      "vis_m": 9999,
      "fzfg": false,
      "metar_trigger": false,
      "taf_trigger": false,
      "metar": "METAR ENTC 212320Z 09002KT CAVOK M09/M10 Q1024 RMK WIND 2600FT 09008KT",
      "taf": "TAF ENTC 212300Z 2200/2224 VRB02KT 9999 FEW001"
    },
    {
      "icao": "ENTO",
      "alert": "OK",
      "vis_m": 9999,
      "fzfg": false,
      "metar_trigger": false,
      "taf_trigger": false,
      "metar": "METAR ENTO 212320Z AUTO 02013KT 9999 -SN FEW010/// BKN013/// OVC017/// M01/M02 Q1018",
      "taf": "TAF ENTO 212300Z 2200/2224 04012KT 9999 OVC020"
    },
    {
      "icao": "ENVA",
      "alert": "OK",
      "vis_m": 9999,
      "fzfg": false,
      "metar_trigger": false,
      "taf_trigger": false,
      "metar": "METAR ENVA 212320Z 08010KT CAVOK M01/M07 Q1019 RMK WIND 670FT 13015KT",
      "taf": "TAF ENVA 212300Z 2200/2224 11010KT CAVOK"
    },
    {
      "icao": "ENZV",
      "alert": "OK",
      "vis_m": 9999,
      "fzfg": false,
      "metar_trigger": false,
      "taf_trigger": false,
      "metar": "METAR ENZV 212320Z 12004KT CAVOK 01/M10 Q1010",
      "taf": "TAF ENZV 212300Z 2200/2224 09009KT CAVOK"
    },
    {
      "icao": "EPGD",
      "alert": "OK",
      "vis_m": 800,
      "fzfg": true,
      "metar_trigger": false,
      "taf_trigger": false,
      "metar": "METAR EPGD 212330Z 28002KT 0800 R29/1500U FZFG NSC M15/M17 Q1007",
      "taf": "TAF EPGD 212330Z 2200/2224 VRB02KT 1000 BR NSC"
    },
    {
      "icao": "EPKK",
      "alert": "OK",
      "vis_m": 4500,
      "fzfg": false,
      "metar_trigger": false,
      "taf_trigger": false,
      "metar": "METAR EPKK 212330Z 05003KT 4500 BR NSC M11/M13 Q1007",
      "taf": "TAF EPKK 212330Z 2200/2224 07003KT 4000 BR NSC"
    },
    {
      "icao": "EPKT",
      "alert": "OK",
      "vis_m": 4700,
      "fzfg": false,
      "metar_trigger": false,
      "taf_trigger": false,
      "metar": "METAR EPKT 212330Z 06003KT 4700 BR NSC M11/M13 Q1006",
      "taf": "TAF EPKT 212330Z 2200/2224 05004KT 6000 NSC"
    },
    {
      "icao": "EPLB",
      "alert": "OK",
      "vis_m": 250,
      "fzfg": true,
      "metar_trigger": false,
      "taf_trigger": false,
      "metar": "METAR EPLB 212330Z 11002KT 0250 R25/0900U FZFG SCT002 M16/M17 Q1009",
      "taf": "TAF EPLB 212330Z 2200/2224 10002KT 2500 BR NSC"
    },
    {
      "icao": "EPMO",
      "alert": "OK",
      "vis_m": 3500,
      "fzfg": false,
      "metar_trigger": false,
      "taf_trigger": false,
      "metar": "METAR EPMO 212330Z 07004KT 3500 BR NSC M12/M12 Q1008",
      "taf": "TAF EPMO 212330Z 2200/2224 10008KT 3000 BR NSC"
    },
    {
      "icao": "EPPO",
      "alert": "OK",
      "vis_m": 3000,
      "fzfg": false,
      "metar_trigger": false,
      "taf_trigger": false,
      "metar": "METAR EPPO 212330Z 09003KT 3000 BR NSC M08/M10 Q1006",
      "taf": "TAF EPPO 212330Z 2200/2224 10005KT 6000 NSC"
    },
    {
      "icao": "EPRA",
      "alert": "OK",
      "vis_m": 7000,
      "fzfg": false,
      "metar_trigger": false,
      "taf_trigger": false,
      "metar": "METAR EPRA 212330Z 14004KT 7000 NSC M09/M11 Q1008",
      "taf": "TAF EPRA 212330Z 2200/2209 13006KT 7000 NSC"
    },
    {
      "icao": "EPRZ",
      "alert": "OK",
      "vis_m": 3700,
      "fzfg": false,
      "metar_trigger": false,
      "taf_trigger": false,
      "metar": "METAR EPRZ 212330Z 09006KT 3700 BR NSC M10/M13 Q1008",
      "taf": "TAF EPRZ 212330Z 2200/2224 08003KT 7000 NSC"
    },
    {
      "icao": "EPSC",
      "alert": "OK",
      "vis_m": 6000,
      "fzfg": false,
      "metar_trigger": false,
      "taf_trigger": false,
      "metar": "METAR EPSC 212330Z 04005KT 6000 NSC M06/M08 Q1006",
      "taf": "TAF EPSC 212330Z 2200/2224 08008KT 8000 NSC"
    },
    {
      "icao": "EPSY",
      "alert": "OK",
      "vis_m": 2300,
      "fzfg": false,
      "metar_trigger": false,
      "taf_trigger": false,
      "metar": "METAR EPSY 212330Z VRB02KT 2300 BR NSC M15/M17 Q1009",
      "taf": "TAF EPSY 212330Z 2200/2209 VRB02KT 4000 BR NSC"
    },
    {
      "icao": "EPWA",
      "alert": "OK",
      "vis_m": 7000,
      "fzfg": false,
      "metar_trigger": false,
      "taf_trigger": false,
      "metar": "METAR EPWA 212330Z 15005KT 7000 NSC M09/M10 Q1009 NOSIG",
      "taf": "TAF EPWA 212330Z 2200/2224 10006KT 8000 NSC"
    },
    {
      "icao": "EPWR",
      "alert": "OK",
      "vis_m": 9999,
      "fzfg": false,
      "metar_trigger": false,
      "taf_trigger": false,
      "metar": "METAR EPWR 212330Z 13007KT CAVOK M04/M08 Q1005",
      "taf": "TAF EPWR 212330Z 2200/2224 13004KT CAVOK"
    },
    {
      "icao": "ESGG",
      "alert": "OK",
      "vis_m": 9999,
      "fzfg": false,
      "metar_trigger": false,
      "taf_trigger": false,
      "metar": "METAR ESGG 212320Z 06012KT 9999 OVC022 M02/M05 Q1013",
      "taf": "TAF ESGG 212330Z 2200/2224 07012KT 9999 OVC018"
    },
    {
      "icao": "ESKN",
      "alert": "OK",
      "vis_m": 9999,
      "fzfg": false,
      "metar_trigger": false,
      "taf_trigger": false,
      "metar": "METAR ESKN 212320Z 08017KT 9999 OVC016 M00/M02 Q1018",
      "taf": "TAF ESKN 212330Z 2200/2224 08009KT 9000 -SN SCT007 OVC015"
    },
    {
      "icao": "ESMS",
      "alert": "OK",
      "vis_m": 9000,
      "fzfg": false,
      "metar_trigger": false,
      "taf_trigger": false,
      "metar": "METAR ESMS 212320Z 06012KT 9000 BKN014 OVC019 00/M02 Q1009",
      "taf": "TAF ESMS 212327Z 2200/2224 06012KT 9000 BKN020"
    },
    {
      "icao": "ESSA",
      "alert": "OK",
      "vis_m": 5000,
      "fzfg": false,
      "metar_trigger": false,
      "taf_trigger": false,
      "metar": "METAR ESSA 212320Z 06012KT 5000 -SN SCT006 BKN009 M02/M02 Q1021 TEMPO SHSN OVC009",
      "taf": "TAF ESSA 212330Z 2200/2224 07010KT 9000 -SN SCT008 OVC020"
    },
    {
      "icao": "EYKA",
      "alert": "OK",
      "vis_m": 5000,
      "fzfg": false,
      "metar_trigger": false,
      "taf_trigger": false,
      "metar": "METAR EYKA 212350Z AUTO 07007KT 5000 BR NCD M13/M15 Q1014",
      "taf": "TAF EYKA 212314Z 2200/2224 08009KT 5000 BR NSC"
    },
    {
      "icao": "EYPA",
      "alert": "OK",
      "vis_m": 7000,
      "fzfg": false,
      "metar_trigger": false,
      "taf_trigger": false,
      "metar": "METAR EYPA 212350Z AUTO 07011KT 7000 NCD M11/M14 Q1013",
      "taf": "TAF EYPA 212313Z 2200/2224 09012KT 5000 BR FEW010"
    },
    {
      "icao": "EYVI",
      "alert": "OK",
      "vis_m": 6000,
      "fzfg": false,
      "metar_trigger": false,
      "taf_trigger": false,
      "metar": "METAR EYVI 212350Z 07007KT 6000 NSC M15/M17 Q1014 TEMPO BKN005",
      "taf": "TAF EYVI 212316Z 2200/2224 08009KT 5000 BR NSC"
    },
    {
      "icao": "GCFV",
      "alert": "OK",
      "vis_m": 9999,
      "fzfg": false,
      "metar_trigger": false,
      "taf_trigger": false,
      "metar": "METAR GCFV 212330Z AUTO 36004KT 320V050 9999 OVC027 18/12 Q1021",
      "taf": "TAF GCFV 212000Z 2121/2221 30007KT 9999 SCT030 TX21/2214Z TN15/2206Z"
    },
    {
      "icao": "GCLP",
      "alert": "OK",
      "vis_m": 9999,
      "fzfg": false,
      "metar_trigger": false,
      "taf_trigger": false,
      "metar": "METAR GCLP 212330Z 35011KT 320V020 9999 FEW035 18/12 Q1021 NOSIG",
      "taf": "TAF GCLP 212000Z 2121/2221 34007KT 9999 SCT035 TX21/2214Z TN15/2206Z"
    },
    {
      "icao": "GCTS",
      "alert": "OK",
      "vis_m": 9999,
      "fzfg": false,
      "metar_trigger": false,
      "taf_trigger": false,
      "metar": "METAR GCTS 212330Z 01005KT 9999 FEW035 15/11 Q1022 NOSIG",
      "taf": "TAF GCTS 212000Z 2121/2221 06006KT 9999 SCT035 TX22/2214Z TN14/2206Z"
    },
    {
      "icao": "GMAD",
      "alert": "OK",
      "vis_m": 9999,
      "fzfg": false,
      "metar_trigger": false,
      "taf_trigger": false,
      "metar": "METAR GMAD 212330Z 22005KT 190V260 9999 SCT020 12/11 Q1019 NOSIG",
      "taf": "TAF GMAD 212300Z 2200/2306 14006KT 6000 SCT008 SCT026"
    },
    {
      "icao": "GMMN",
      "alert": "OK",
      "vis_m": 5000,
      "fzfg": false,
      "metar_trigger": false,
      "taf_trigger": false,
      "metar": "METAR GMMN 212330Z 22016KT 5000 -DZ BKN005 BKN016 12/10 Q1015 NOSIG",
      "taf": "TAF GMMN 212300Z 2200/2306 21015KT 5000 -RA SCT006 BKN020"
    },
    {
      "icao": "GMMX",
      "alert": "OK",
      "vis_m": 9999,
      "fzfg": false,
      "metar_trigger": false,
      "taf_trigger": false,
      "metar": "METAR GMMX 212330Z 24003KT 200V300 9999 FEW026 SCT080 11/08 Q1017 NOSIG",
      "taf": "TAF GMMX 212300Z 2200/2306 26006KT 8000 SCT026 SCT080"
    },
    {
      "icao": "HEGN",
      "alert": "OK",
      "vis_m": null,
      "fzfg": false,
      "metar_trigger": false,
      "taf_trigger": false,
      "metar": "",
      "taf": "TAF HEGN 212300Z 2200/2306 16010KT CAVOK"
    },
    {
      "icao": "HEMA",
      "alert": "OK",
      "vis_m": null,
      "fzfg": false,
      "metar_trigger": false,
      "taf_trigger": false,
      "metar": "",
      "taf": "TAF HEMA 212300Z 2200/2306 28010KT CAVOK"
    },
    {
      "icao": "HESH",
      "alert": "OK",
      "vis_m": null,
      "fzfg": false,
      "metar_trigger": false,
      "taf_trigger": false,
      "metar": "",
      "taf": "TAF HESH 212300Z 2200/2306 35010KT CAVOK"
    },
    {
      "icao": "HESX",
      "alert": "OK",
      "vis_m": null,
      "fzfg": false,
      "metar_trigger": false,
      "taf_trigger": false,
      "metar": "",
      "taf": "TAF HESX 212300Z 2200/2306 21010KT 6000 SCT020 OVC070"
    },
    {
      "icao": "LATI",
      "alert": "OK",
      "vis_m": 9999,
      "fzfg": false,
      "metar_trigger": false,
      "taf_trigger": false,
      "metar": "METAR LATI 212350Z VRB01KT 9999 OVC066 07/04 Q1002 NOSIG",
      "taf": "TAF LATI 212300Z 2200/2224 VRB05KT 9999 OVC060 TX14/2212Z TN04/2205Z"
    },
    {
      "icao": "LBPD",
      "alert": "OK",
      "vis_m": 7000,
      "fzfg": false,
      "metar_trigger": false,
      "taf_trigger": false,
      "metar": "METAR LBPD 212330Z AUTO VRB02KT 7000 -SHSN OVC015/// M02/M02 Q1012",
      "taf": "TAF LBPD 212300Z 2200/2224 VRB03KT 5000 SN BKN020 OVC030"
    },
    {
      "icao": "LBSF",
      "alert": "OK",
      "vis_m": 9999,
      "fzfg": false,
      "metar_trigger": false,
      "taf_trigger": false,
      "metar": "METAR LBSF 212330Z AUTO 09005KT 9999 -SHSN SCT023/// BKN027/// OVC032/// M02/M03 Q1009 TEMPO 3000 -SN BKN005",
      "taf": "TAF LBSF 212300Z 2200/2224 12010KT 8000 SCT015 BKN020 OVC040"
    },
    {
      "icao": "LBWN",
      "alert": "OK",
      "vis_m": 9999,
      "fzfg": false,
      "metar_trigger": false,
      "taf_trigger": false,
      "metar": "METAR LBWN 212330Z AUTO 10006KT 9999 NSC 03/03 Q1012 NOSIG",
      "taf": "TAF LBWN 212300Z 2200/2224 11010KT 8000 RA BKN020 OVC040"
    },
    {
      "icao": "LCLK",
      "alert": "OK",
      "vis_m": 9999,
      "fzfg": false,
      "metar_trigger": false,
      "taf_trigger": false,
      "metar": "METAR LCLK 212330Z 09014KT CAVOK 15/07 Q1019 NOSIG",
      "taf": "TAF LCLK 212330Z 2200/2300 05018KT CAVOK"
    },
    {
      "icao": "LCPH",
      "alert": "OK",
      "vis_m": 9999,
      "fzfg": false,
      "metar_trigger": false,
      "taf_trigger": false,
      "metar": "METAR LCPH 212330Z 09023G37KT 9999 FEW030 SCT060 14/04 Q1015 TEMPO 5000 RA",
      "taf": "TAF LCPH 212330Z 2200/2300 11022G32KT CAVOK"
    },
    {
      "icao": "LEAL",
      "alert": "OK",
      "vis_m": 9999,
      "fzfg": false,
      "metar_trigger": false,
      "taf_trigger": false,
      "metar": "METAR LEAL 212330Z 35004KT CAVOK 11/09 Q0999 NOSIG",
      "taf": "TAF LEAL 212300Z 2200/2224 VRB04KT 9999 BKN040 TX18/2213Z TN10/2206Z"
    },
    {
      "icao": "LEBB",
      "alert": "OK",
      "vis_m": 9999,
      "fzfg": false,
      "metar_trigger": false,
      "taf_trigger": false,
      "metar": "METAR LEBB 212330Z AUTO VRB01KT 9999 FEW049 SCT069 09/08 Q0995",
      "taf": "TAF LEBB 212300Z 2200/2224 22009KT 9999 FEW010 BKN030 TX13/2215Z TN07/2209Z"
    },
    {
      "icao": "LEBL",
      "alert": "OK",
      "vis_m": 9999,
      "fzfg": false,
      "metar_trigger": false,
      "taf_trigger": false,
      "metar": "METAR LEBL 212330Z 23011KT 9999 FEW018 SCT047 13/11 Q0997 NOSIG",
      "taf": "TAF LEBL 212300Z 2200/2224 23010KT 9999 BKN020 TX15/2213Z TN07/2206Z"
    },
    {
      "icao": "LECH",
      "alert": "OK",
      "vis_m": 9999,
      "fzfg": false,
      "metar_trigger": false,
      "taf_trigger": false,
      "metar": "METAR LECH 212330Z AUTO 28003KT 240V300 9999 FEW070 07/06 Q0997",
      "taf": ""
    },
    {
      "icao": "LEMD",
      "alert": "OK",
      "vis_m": 9999,
      "fzfg": false,
      "metar_trigger": false,
      "taf_trigger": false,
      "metar": "METAR LEMD 212330Z 24006KT 200V290 9999 SCT050 08/03 Q0999 NOSIG",
      "taf": "TAF LEMD 212300Z 2200/2306 20008KT 9999 SCT010 SCT030 TX10/2215Z TN04/2207Z"
    },
    {
      "icao": "LEMG",
      "alert": "OK",
      "vis_m": 9999,
      "fzfg": false,
      "metar_trigger": false,
      "taf_trigger": false,
      "metar": "METAR LEMG 212330Z 27006KT 9999 FEW020 12/11 Q1005 NOSIG",
      "taf": "TAF LEMG 212300Z 2200/2224 30009KT 9999 SCT030 TX17/2214Z TN11/2207Z"
    },
    {
      "icao": "LEVC",
      "alert": "OK",
      "vis_m": 9999,
      "fzfg": false,
      "metar_trigger": false,
      "taf_trigger": false,
      "metar": "METAR LEVC 212330Z VRB01KT 9999 FEW034 BKN042 11/08 Q0998 NOSIG",
      "taf": "TAF LEVC 212300Z 2200/2224 VRB03KT 9999 BKN040 TX18/2213Z TN09/2205Z"
    },
    {
      "icao": "LEXJ",
      "alert": "OK",
      "vis_m": 6000,
      "fzfg": false,
      "metar_trigger": false,
      "taf_trigger": false,
      "metar": "METAR LEXJ 212330Z AUTO 26010KT 230V290 6000 NSC 11/04 Q0995",
      "taf": "TAF LEXJ 212000Z 2121/2221 23009KT 9999 BKN040 TX13/2214Z TN08/2206Z"
    },
    {
      "icao": "LEZG",
      "alert": "OK",
      "vis_m": 9999,
      "fzfg": false,
      "metar_trigger": false,
      "taf_trigger": false,
      "metar": "METAR LEZG 212330Z 15004KT 9999 FEW080 08/08 Q0995 NOSIG",
      "taf": "TAF LEZG 212300Z 2200/2224 28008KT 9999 FEW040 TX13/2215Z TN05/2206Z"
    },
    {
      "icao": "LEZL",
      "alert": "OK",
      "vis_m": 9999,
      "fzfg": false,
      "metar_trigger": false,
      "taf_trigger": false,
      "metar": "METAR LEZL 212330Z 24008KT 210V280 9999 FEW032 14/12 Q1007 NOSIG",
      "taf": "TAF LEZL 212000Z 2121/2221 25009KT 9999 FEW020 SCT030 TX15/2215Z TN09/2207Z"
    },
    {
      "icao": "LFBD",
      "alert": "OK",
      "vis_m": 9999,
      "fzfg": false,
      "metar_trigger": false,
      "taf_trigger": false,
      "metar": "METAR LFBD 212330Z AUTO 20011KT 9999 FEW010/// SCT054/// ///CB 08/07 Q0992 TEMPO 24015G25KT 2000 -TSRA",
      "taf": "TAF LFBD 212300Z 2200/2306 20010KT CAVOK TX12/2214Z TN07/2221Z"
    },
    {
      "icao": "LFLL",
      "alert": "OK",
      "vis_m": 9999,
      "fzfg": false,
      "metar_trigger": false,
      "taf_trigger": false,
      "metar": "METAR LFLL 212330Z 11006KT CAVOK 06/03 Q0996 NOSIG",
      "taf": "TAF LFLL 212300Z 2200/2306 17008KT CAVOK"
    },
    {
      "icao": "LFLS",
      "alert": "OK",
      "vis_m": 9999,
      "fzfg": false,
      "metar_trigger": false,
      "taf_trigger": false,
      "metar": "METAR LFLS 212330Z AUTO 11002KT 9999 SCT062 OVC082 03/02 Q0997",
      "taf": "TAF LFLS 211400Z 2115/2215 23010KT CAVOK"
    },
    {
      "icao": "LFMN",
      "alert": "OK",
      "vis_m": 9999,
      "fzfg": false,
      "metar_trigger": false,
      "taf_trigger": false,
      "metar": "METAR LFMN 212330Z 33011KT 9999 FEW036 SCT260 07/03 Q1002 NOSIG",
      "taf": "TAF LFMN 212000Z 2121/2303 34010KT CAVOK"
    },
    {
      "icao": "LFOB",
      "alert": "OK",
      "vis_m": 9999,
      "fzfg": false,
      "metar_trigger": false,
      "taf_trigger": false,
      "metar": "METAR LFOB 212330Z AUTO 13011KT 9999 -RA FEW040 BKN049 OVC064 08/06 Q0991 NOSIG",
      "taf": "TAF LFOB 212300Z 2200/2224 14010KT 9999 FEW010"
    },
    {
      "icao": "LFPO",
      "alert": "OK",
      "vis_m": 9999,
      "fzfg": false,
      "metar_trigger": false,
      "taf_trigger": false,
      "metar": "METAR LFPO 212330Z 16005KT CAVOK 09/05 Q0992 NOSIG",
      "taf": "TAF LFPO 212300Z 2200/2306 13010KT CAVOK"
    },
    {
      "icao": "LFSB",
      "alert": "OK",
      "vis_m": 1200,
      "fzfg": true,
      "metar_trigger": false,
      "taf_trigger": false,
      "metar": "METAR LFSB 212330Z AUTO VRB01KT 1200 R15/1400U R33/1700D BR VV/// M01/M02 Q0998 TEMPO 0300 FZFG",
      "taf": "TAF LFSB 212300Z 2200/2224 VRB03KT 1500 BR OVC002"
    },
    {
      "icao": "LGAV",
      "alert": "OK",
      "vis_m": 9999,
      "fzfg": false,
      "metar_trigger": false,
      "taf_trigger": false,
      "metar": "METAR LGAV 212320Z VRB01KT 9999 FEW015 SCT030 08/07 Q1005 NOSIG",
      "taf": "TAF LGAV 212300Z 2200/2224 04008KT 9999 FEW012 BKN025 BKN070"
    },
    {
      "icao": "LGTS",
      "alert": "OK",
      "vis_m": 9999,
      "fzfg": false,
      "metar_trigger": false,
      "taf_trigger": false,
      "metar": "METAR LGTS 212320Z 31012KT 9999 SCT006 BKN030 07/06 Q1008 NOSIG",
      "taf": "TAF LGTS 212300Z 2200/2224 34013KT 9999 FEW010 BKN030"
    },
    {
      "icao": "LHBP",
      "alert": "OK",
      "vis_m": 7000,
      "fzfg": false,
      "metar_trigger": false,
      "taf_trigger": false,
      "metar": "METAR LHBP 212330Z 12004KT 7000 OVC033 M03/M06 Q1008 NOSIG",
      "taf": "TAF LHBP 212315Z 2200/2224 VRB03KT CAVOK"
    },
    {
      "icao": "LHDC",
      "alert": "OK",
      "vis_m": 8000,
      "fzfg": false,
      "metar_trigger": false,
      "taf_trigger": false,
      "metar": "METAR LHDC 212315Z AUTO 06003KT 8000 NSC M05/M07 Q1009",
      "taf": ""
    },
    {
      "icao": "LIBD",
      "alert": "OK",
      "vis_m": 7000,
      "fzfg": false,
      "metar_trigger": false,
      "taf_trigger": false,
      "metar": "METAR LIBD 212320Z 12003KT 7000 SCT040 09/09 Q1000",
      "taf": "TAF LIBD 212300Z 2200/2224 12010KT 7000 SCT005 BKN014"
    },
    {
      "icao": "LIBG",
      "alert": "OK",
      "vis_m": null,
      "fzfg": false,
      "metar_trigger": false,
      "taf_trigger": false,
      "metar": "",
      "taf": "TAF LIBG 211700Z 2118/2203 07012KT 7000 SCT015 BKN030"
    },
    {
      "icao": "LIBP",
      "alert": "OK",
      "vis_m": 4800,
      "fzfg": false,
      "metar_trigger": false,
      "taf_trigger": false,
      "metar": "METAR LIBP 212320Z AUTO 22004KT 4800 BR BKN020/// BKN065/// 07/07 Q1003",
      "taf": "TAF LIBP 212300Z 2200/2224 VRB05KT 9999 BKN040"
    },
    {
      "icao": "LIBR",
      "alert": "OK",
      "vis_m": 9999,
      "fzfg": false,
      "metar_trigger": false,
      "taf_trigger": false,
      "metar": "METAR LIBR 212320Z 21001KT 9999 BKN030 11/08 Q1000",
      "taf": "TAF LIBR 212300Z 2200/2224 17010KT 9999 SCT040"
    },
    {
      "icao": "LICA",
      "alert": "OK",
      "vis_m": 9999,
      "fzfg": false,
      "metar_trigger": false,
      "taf_trigger": false,
      "metar": "METAR LICA 212320Z AUTO 06010KT 9999 BKN071/// 11/09 Q0999",
      "taf": "TAF LICA 212300Z 2200/2224 08012KT 9999 SCT040"
    },
    {
      "icao": "LICC",
      "alert": "OK",
      "vis_m": 9999,
      "fzfg": false,
      "metar_trigger": false,
      "taf_trigger": false,
      "metar": "METAR LICC 212320Z VRB02KT 9999 FEW080 08/07 Q0999",
      "taf": "TAF LICC 212300Z 2200/2224 VRB05KT 7000 SCT050"
    },
    {
      "icao": "LICJ",
      "alert": "OK",
      "vis_m": 8000,
      "fzfg": false,
      "metar_trigger": false,
      "taf_trigger": false,
      "metar": "METAR LICJ 212320Z 20012KT 8000 -RA SCT020 BKN050 11/10 Q0999",
      "taf": "TAF LICJ 212300Z 2200/2224 34012KT 9999 SCT030"
    },
    {
      "icao": "LIMC",
      "alert": "OK",
      "vis_m": 4000,
      "fzfg": false,
      "metar_trigger": false,
      "taf_trigger": false,
      "metar": "METAR LIMC 212320Z 03003KT 4000 R35R/P2000N R17L/1300U R35L/P2000N BR NSC M02/M03 Q1004 NOSIG",
      "taf": "TAF LIMC 212300Z 2200/2306 VRB04KT 4000 BR NSC"
    },
    {
      "icao": "LIME",
      "alert": "OK",
      "vis_m": 9999,
      "fzfg": false,
      "metar_trigger": false,
      "taf_trigger": false,
      "metar": "METAR LIME 212320Z 01003KT CAVOK M00/M02 Q1004 NOSIG",
      "taf": "TAF LIME 212300Z 2200/2224 VRB04KT CAVOK"
    },
    {
      "icao": "LIMF",
      "alert": "OK",
      "vis_m": 8000,
      "fzfg": false,
      "metar_trigger": false,
      "taf_trigger": false,
      "metar": "METAR LIMF 212320Z 30005KT 8000 NSC 01/M02 Q1004",
      "taf": "TAF LIMF 212300Z 2200/2224 VRB04KT 4000 BR NSC"
    },
    {
      "icao": "LIMJ",
      "alert": "OK",
      "vis_m": 9000,
      "fzfg": false,
      "metar_trigger": false,
      "taf_trigger": false,
      "metar": "METAR LIMJ 212320Z 04014KT 9000 NSC 05/M00 Q1003",
      "taf": "TAF LIMJ 212300Z 2200/2224 04013KT CAVOK"
    },
    {
      "icao": "LIPE",
      "alert": "OK",
      "vis_m": 9999,
      "fzfg": false,
      "metar_trigger": false,
      "taf_trigger": false,
      "metar": "METAR LIPE 212320Z VRB01KT 9999 BKN035 04/01 Q1005",
      "taf": "TAF LIPE 212300Z 2200/2224 VRB05KT 9999 SCT040 BKN060"
    },
    {
      "icao": "LIPH",
      "alert": "OK",
      "vis_m": 9999,
      "fzfg": false,
      "metar_trigger": false,
      "taf_trigger": false,
      "metar": "METAR LIPH 212320Z AUTO 01002KT 9999 NCD M03/M06 Q1004",
      "taf": "TAF LIPH 212300Z 2200/2224 VRB05KT CAVOK"
    },
    {
      "icao": "LIPQ",
      "alert": "OK",
      "vis_m": 9999,
      "fzfg": false,
      "metar_trigger": false,
      "taf_trigger": false,
      "metar": "METAR LIPQ 212320Z AUTO VRB02KT 9999 FEW067/// M01/M07 Q1004",
      "taf": "TAF LIPQ 212300Z 2200/2224 VRB05KT CAVOK"
    },
    {
      "icao": "LIPR",
      "alert": "OK",
      "vis_m": 9000,
      "fzfg": false,
      "metar_trigger": false,
      "taf_trigger": false,
      "metar": "METAR LIPR 212320Z AUTO 27003KT 9000 -RA OVC020/// 04/02 Q1004",
      "taf": "TAF LIPR 212300Z 2200/2224 29010KT 9999 BKN020"
    },
    {
      "icao": "LIPX",
      "alert": "OK",
      "vis_m": 9999,
      "fzfg": false,
      "metar_trigger": false,
      "taf_trigger": false,
      "metar": "METAR LIPX 212320Z 34005KT 9999 FEW055 M03/M06 Q1005",
      "taf": "TAF LIPX 212300Z 2200/2224 VRB04KT 9999 SCT050"
    },
    {
      "icao": "LIPY",
      "alert": "OK",
      "vis_m": 8000,
      "fzfg": false,
      "metar_trigger": false,
      "taf_trigger": false,
      "metar": "METAR LIPY 212320Z AUTO 25004KT 8000 SCT013/// OVC032/// 05/03 Q1004",
      "taf": "TAF LIPY 212300Z 2200/2224 25008KT 9999 BKN014 OVC015"
    },
    {
      "icao": "LIPZ",
      "alert": "OK",
      "vis_m": 9999,
      "fzfg": false,
      "metar_trigger": false,
      "taf_trigger": false,
      "metar": "METAR LIPZ 212320Z 35004KT CAVOK M00/M06 Q1005 NOSIG",
      "taf": "TAF LIPZ 212300Z 2200/2306 VRB05KT CAVOK"
    },
    {
      "icao": "LIRF",
      "alert": "OK",
      "vis_m": 9999,
      "fzfg": false,
      "metar_trigger": false,
      "taf_trigger": false,
      "metar": "METAR LIRF 212320Z VRB01KT CAVOK 07/04 Q1001 NOSIG",
      "taf": "TAF LIRF 212300Z 2200/2306 34007KT 9999 SCT050"
    },
    {
      "icao": "LIRN",
      "alert": "OK",
      "vis_m": 9999,
      "fzfg": false,
      "metar_trigger": false,
      "taf_trigger": false,
      "metar": "METAR LIRN 212320Z 34004KT CAVOK 08/05 Q1000 NOSIG",
      "taf": "TAF LIRN 212300Z 2200/2224 VRB05KT 9999 SCT050"
    },
    {
      "icao": "LIRP",
      "alert": "OK",
      "vis_m": 9999,
      "fzfg": false,
      "metar_trigger": false,
      "taf_trigger": false,
      "metar": "METAR LIRP 212315Z 09003KT CAVOK 03/02 Q1003 NOSIG",
      "taf": "TAF LIRP 212300Z 2200/2224 11004KT CAVOK"
    },
    {
      "icao": "LIRZ",
      "alert": "OK",
      "vis_m": 9999,
      "fzfg": false,
      "metar_trigger": false,
      "taf_trigger": false,
      "metar": "METAR LIRZ 212320Z AUTO 35006KT 9999 OVC055/// 06/02 Q1001",
      "taf": "TAF LIRZ 212300Z 2200/2224 VRB05KT 9999 BKN045"
    },
    {
      "icao": "LJLJ",
      "alert": "OK",
      "vis_m": 5000,
      "fzfg": false,
      "metar_trigger": false,
      "taf_trigger": false,
      "metar": "METAR LJLJ 212330Z 18001KT 5000 BR OVC010 M06/M08 Q1006 NOSIG",
      "taf": "TAF LJLJ 212300Z 2200/2300 12003KT 9999 OVC010"
    },
    {
      "icao": "LKMT",
      "alert": "OK",
      "vis_m": 9999,
      "fzfg": false,
      "metar_trigger": false,
      "taf_trigger": false,
      "metar": "METAR LKMT 212330Z 00000KT CAVOK M06/M10 Q1006 NOSIG",
      "taf": "TAF LKMT 212300Z 2200/2224 23005KT CAVOK"
    },
    {
      "icao": "LKPR",
      "alert": "OK",
      "vis_m": 5000,
      "fzfg": false,
      "metar_trigger": false,
      "taf_trigger": false,
      "metar": "METAR LKPR 212330Z VRB01KT 5000 BR NSC M10/M10 Q1004 NOSIG",
      "taf": "TAF LKPR 212300Z 2200/2306 VRB02KT 6000 NSC"
    },
    {
      "icao": "LLBG",
      "alert": "OK",
      "vis_m": 9999,
      "fzfg": false,
      "metar_trigger": false,
      "taf_trigger": false,
      "metar": "METAR LLBG 212320Z VRB02KT CAVOK 16/M02 Q1016 NOSIG",
      "taf": "TAF LLBG 212308Z 2200/2224 10010KT CAVOK"
    },
    {
      "icao": "LMML",
      "alert": "OK",
      "vis_m": 9999,
      "fzfg": false,
      "metar_trigger": false,
      "taf_trigger": false,
      "metar": "METAR LMML 212345Z 06003KT 340V100 CAVOK 10/10 Q0998 NOSIG",
      "taf": "TAF LMML 212300Z 2200/2224 VRB05KT 9999 FEW016"
    },
    {
      "icao": "LOWW",
      "alert": "OK",
      "vis_m": 6000,
      "fzfg": false,
      "metar_trigger": false,
      "taf_trigger": false,
      "metar": "METAR LOWW 212320Z 14013KT 6000 FEW007 BKN008 M06/M08 Q1006 NOSIG",
      "taf": "TAF LOWW 212315Z 2200/2306 14013KT 5000 BR OVC006 TXM03/2214Z TNM06/2204Z"
    },
    {
      "icao": "LPFR",
      "alert": "OK",
      "vis_m": 9999,
      "fzfg": false,
      "metar_trigger": false,
      "taf_trigger": false,
      "metar": "METAR LPFR 212330Z 27015KT 9999 FEW025 14/10 Q1008",
      "taf": "TAF LPFR 212300Z 2200/2224 29010KT 9999 SCT035"
    },
    {
      "icao": "LPMA",
      "alert": "OK",
      "vis_m": 9999,
      "fzfg": false,
      "metar_trigger": false,
      "taf_trigger": false,
      "metar": "METAR LPMA 212330Z 29005KT 9999 FEW013 18/13 Q1019",
      "taf": "TAF LPMA 212300Z 2200/2224 VRB05KT 9999 SCT015"
    },
    {
      "icao": "LPPR",
      "alert": "OK",
      "vis_m": 9999,
      "fzfg": false,
      "metar_trigger": false,
      "taf_trigger": false,
      "metar": "METAR LPPR 212330Z 31013KT 260V330 9999 FEW025 SCT048 12/07 Q1004",
      "taf": "TAF LPPR 212300Z 2200/2224 32010KT 9999 BKN030"
    },
    {
      "icao": "LPPS",
      "alert": "OK",
      "vis_m": 9999,
      "fzfg": false,
      "metar_trigger": false,
      "taf_trigger": false,
      "metar": "METAR LPPS 212330Z 31014KT 9999 SCT005 BKN010 17/16 Q1019",
      "taf": "TAF LPPS 212300Z 2200/2306 30015KT 9999 SCT015"
    },
    {
      "icao": "LPPT",
      "alert": "OK",
      "vis_m": 9999,
      "fzfg": false,
      "metar_trigger": false,
      "taf_trigger": false,
      "metar": "METAR LPPT 212330Z 31007G17KT 220V020 9999 FEW012 12/09 Q1008 WS R20",
      "taf": "TAF LPPT 212300Z 2200/2306 30010KT 9999 SCT020"
    },
    {
      "icao": "LQBK",
      "alert": "OK",
      "vis_m": 9999,
      "fzfg": false,
      "metar_trigger": false,
      "taf_trigger": false,
      "metar": "METAR LQBK 212330Z 04002KT 9999 OVC010 M03/M05 Q1008 NOSIG",
      "taf": "TAF LQBK 212300Z 2200/2224 VRB02KT 7000 BKN012 OVC025 TX01/2213Z TNM04/2205Z"
    },
    {
      "icao": "LQSA",
      "alert": "OK",
      "vis_m": 3000,
      "fzfg": false,
      "metar_trigger": false,
      "taf_trigger": false,
      "metar": "METAR LQSA 212330Z VRB01KT 3000 BR BKN045 M05/M05 Q1005",
      "taf": "TAF LQSA 212300Z 2200/2224 VRB02KT 3000 BR SCT010 BKN020 TXM00/2214Z TNM06/2200Z"
    },
    {
      "icao": "LQTZ",
      "alert": "OK",
      "vis_m": 4400,
      "fzfg": false,
      "metar_trigger": false,
      "taf_trigger": false,
      "metar": "METAR LQTZ 212330Z VRB01KT 4400 BR OVC010 M05/M05 Q1007",
      "taf": "TAF LQTZ 212300Z 2200/2224 VRB02KT 5000 BR BKN013 OVC030 TX01/2213Z TNM05/2200Z"
    },
    {
      "icao": "LRBC",
      "alert": "OK",
      "vis_m": 9999,
      "fzfg": false,
      "metar_trigger": false,
      "taf_trigger": false,
      "metar": "METAR LRBC 212330Z 17010KT CAVOK M02/M04 Q1011",
      "taf": "TAF LRBC 212300Z 2200/2209 18012KT 5000 BR SCT005"
    },
    {
      "icao": "LRBS",
      "alert": "OK",
      "vis_m": 7000,
      "fzfg": false,
      "metar_trigger": false,
      "taf_trigger": false,
      "metar": "METAR LRBS 212330Z 05005KT 7000 BKN047 M01/M02 Q1013 NOSIG",
      "taf": "TAF LRBS 212300Z 2200/2224 05006KT 5000 BR BKN040"
    },
    {
      "icao": "LRBV",
      "alert": "OK",
      "vis_m": 7000,
      "fzfg": false,
      "metar_trigger": false,
      "taf_trigger": false,
      "metar": "METAR LRBV 212330Z AUTO VRB03KT 7000 FEW090/// BKN110/// M03/M07 Q1008",
      "taf": "TAF LRBV 212000Z 2121/2206 VRB04KT 7000 NSC"
    },
    {
      "icao": "LRCL",
      "alert": "OK",
      "vis_m": 5000,
      "fzfg": false,
      "metar_trigger": false,
      "taf_trigger": false,
      "metar": "METAR LRCL 212330Z 00000KT 5000 BR NSC M08/M10 Q1009",
      "taf": "TAF LRCL 212300Z 2200/2209 VRB04KT 5000 BR NSC"
    },
    {
      "icao": "LRCV",
      "alert": "OK",
      "vis_m": 5000,
      "fzfg": false,
      "metar_trigger": false,
      "taf_trigger": false,
      "metar": "METAR LRCV 212330Z 36002KT 5000 -SN BR BKN012 OVC032 M01/M03 Q1011",
      "taf": "TAF LRCV 212300Z 2200/2209 VRB04KT 5000 -SN BR SCT010 OVC025"
    },
    {
      "icao": "LRIA",
      "alert": "OK",
      "vis_m": 9999,
      "fzfg": false,
      "metar_trigger": false,
      "taf_trigger": false,
      "metar": "METAR LRIA 212330Z 14007KT 9999 FEW014 M00/M01 Q1012",
      "taf": "TAF LRIA 212300Z 2200/2209 14008KT 5000 BR SCT015"
    },
    {
      "icao": "LROP",
      "alert": "OK",
      "vis_m": 6000,
      "fzfg": false,
      "metar_trigger": false,
      "taf_trigger": false,
      "metar": "METAR LROP 212330Z 04006KT 6000 BKN047 M01/M02 Q1013 NOSIG",
      "taf": "TAF LROP 212300Z 2200/2224 05006KT 5000 BR BKN040"
    },
    {
      "icao": "LRSB",
      "alert": "OK",
      "vis_m": 9999,
      "fzfg": false,
      "metar_trigger": false,
      "taf_trigger": false,
      "metar": "METAR LRSB 212330Z 28004KT 9999 FEW080 M04/M07 Q1007",
      "taf": "TAF LRSB 212300Z 2200/2224 VRB04KT 7000 NSC"
    },
    {
      "icao": "LRSM",
      "alert": "OK",
      "vis_m": 9000,
      "fzfg": false,
      "metar_trigger": false,
      "taf_trigger": false,
      "metar": "METAR LRSM 212330Z AUTO 07002KT 9000 BKN240/// M09/M11 Q1009",
      "taf": "TAF LRSM 211400Z 2115/2124 VRB04KT CAVOK"
    },
    {
      "icao": "LRSV",
      "alert": "CRITICAL",
      "vis_m": 100,
      "fzfg": true,
      "metar_trigger": true,
      "taf_trigger": true,
      "metar": "METAR LRSV 212330Z 12004KT 0100 R34/0375N FZFG VV001 M06/M07 Q1009",
      "taf": "TAF LRSV 212300Z 2200/2209 VRB04KT 0100 FZFG VV001"
    },
    {
      "icao": "LRTM",
      "alert": "OK",
      "vis_m": 2700,
      "fzfg": false,
      "metar_trigger": false,
      "taf_trigger": false,
      "metar": "METAR LRTM 212330Z AUTO VRB02KT 2700 BR NCD M09/M11 Q1009",
      "taf": "TAF LRTM 211400Z 2115/2124 VRB04KT 1500 BR BKN002"
    },
    {
      "icao": "LRTR",
      "alert": "OK",
      "vis_m": 8000,
      "fzfg": false,
      "metar_trigger": false,
      "taf_trigger": false,
      "metar": "METAR LRTR 212330Z 00000KT 8000 BKN046 M01/M04 Q1008",
      "taf": "TAF LRTR 212300Z 2200/2224 10006KT 5000 BR BKN045"
    },
    {
      "icao": "LTAC",
      "alert": "OK",
      "vis_m": 9999,
      "fzfg": false,
      "metar_trigger": false,
      "taf_trigger": false,
      "metar": "METAR LTAC 212320Z 11003KT 080V150 9999 SCT040 BKN080 M03/M07 Q1017 NOSIG RMK RWY21C 02005KT 350V050 RWY03L 08003KT 030V110 RWY21R 02006KT RWY03R 02004KT RWY21L VRB01KT",
      "taf": "TAF LTAC 212240Z 2200/2224 VRB02KT 9999 SCT040 BKN100"
    },
    {
      "icao": "LTFM",
      "alert": "OK",
      "vis_m": 9999,
      "fzfg": false,
      "metar_trigger": false,
      "taf_trigger": false,
      "metar": "METAR LTFM 212320Z 14006KT 100V160 9999 -RA BKN035 BKN090 05/01 Q1012 NOSIG RMK RWY17L 10006KT RWY34L 11004KT 070V170 RWY16R 11008KT RWY36 12004KT 080V150 RWY18 12006KT",
      "taf": "TAF LTFM 212240Z 2200/2306 VRB02KT 9999 -RA BKN032 BKN080"
    },
    {
      "icao": "LUKK",
      "alert": "OK",
      "vis_m": 9999,
      "fzfg": false,
      "metar_trigger": false,
      "taf_trigger": false,
      "metar": "METAR LUKK 212330Z 17011KT 9999 FEW019 M00/M02 Q1014 NOSIG",
      "taf": "TAF LUKK 212324Z 2200/2224 16008KT 7000 BKN012"
    },
    {
      "icao": "LWOH",
      "alert": "OK",
      "vis_m": null,
      "fzfg": false,
      "metar_trigger": false,
      "taf_trigger": false,
      "metar": "",
      "taf": "TAF LWOH 212340Z 2200/2224 04008KT 9999 SCT020 BKN040"
    },
    {
      "icao": "LWSK",
      "alert": "OK",
      "vis_m": 1200,
      "fzfg": false,
      "metar_trigger": false,
      "taf_trigger": false,
      "metar": "METAR LWSK 212350Z VRB01KT 1200 R34/P2000N BR -SN SCT003 SCT015 OVC030 M00/M01 Q1009 NOSIG",
      "taf": "TAF LWSK 212340Z 2200/2224 VRB02KT 1000 BR SCT003 BKN008 OVC020"
    },
    {
      "icao": "LYBE",
      "alert": "OK",
      "vis_m": 6000,
      "fzfg": false,
      "metar_trigger": false,
      "taf_trigger": false,
      "metar": "METAR LYBE 212330Z VRB02KT 6000 NSC M05/M06 Q1008 NOSIG",
      "taf": "TAF LYBE 212300Z 2200/2224 28004KT 5000 BR SCT005 SCT040 TX02/2212Z TNM06/2205Z"
    },
    {
      "icao": "LYNI",
      "alert": "OK",
      "vis_m": 9999,
      "fzfg": false,
      "metar_trigger": false,
      "taf_trigger": false,
      "metar": "METAR LYNI 212330Z 10015KT CAVOK 03/M03 Q1008 NOSIG",
      "taf": "TAF LYNI 212300Z 2200/2224 10015KT 9999 SCT040 BKN080 TX05/2213Z TNM01/2205Z"
    },
    {
      "icao": "LYPG",
      "alert": "OK",
      "vis_m": 3000,
      "fzfg": false,
      "metar_trigger": false,
      "taf_trigger": false,
      "metar": "METAR LYPG 212330Z 00000KT 3000 BR FEW013 BKN050 OVC076 04/03 Q1004 NOSIG",
      "taf": "TAF LYPG 212300Z 2200/2224 08005KT 8000 FEW010 BKN050 OVC070 TX11/2213Z TN04/2205Z"
    },
    {
      "icao": "LZIB",
      "alert": "OK",
      "vis_m": 9999,
      "fzfg": false,
      "metar_trigger": false,
      "taf_trigger": false,
      "metar": "METAR LZIB 212330Z 07004KT 9999 FEW008 SCT031 M06/M08 Q1008 NOSIG",
      "taf": "TAF LZIB 212317Z 2200/2300 06005KT 9999 FEW010"
    },
    {
      "icao": "LZKZ",
      "alert": "OK",
      "vis_m": 9999,
      "fzfg": false,
      "metar_trigger": false,
      "taf_trigger": false,
      "metar": "METAR LZKZ 212330Z 02003KT CAVOK M08/M11 Q1008 NOSIG",
      "taf": "TAF LZKZ 212317Z 2200/2300 VRB02KT CAVOK"
    },
    {
      "icao": "LZTT",
      "alert": "OK",
      "vis_m": 9999,
      "fzfg": false,
      "metar_trigger": false,
      "taf_trigger": false,
      "metar": "METAR LZTT 212330Z VRB02KT CAVOK M08/M13 Q1005",
      "taf": "TAF LZTT 212317Z 2200/2300 VRB02KT CAVOK"
    },
    {
      "icao": "OEJN",
      "alert": "OK",
      "vis_m": 7000,
      "fzfg": false,
      "metar_trigger": false,
      "taf_trigger": false,
      "metar": "METAR OEJN 212300Z 06006KT 7000 NSC 27/M03 Q1012 NOSIG",
      "taf": "TAF OEJN 212300Z 2200/2306 09016KT 7000 NSC"
    },
    {
      "icao": "OEMA",
      "alert": "OK",
      "vis_m": 9999,
      "fzfg": false,
      "metar_trigger": false,
      "taf_trigger": false,
      "metar": "METAR OEMA 212300Z 07013KT CAVOK 13/M05 Q1024 NOSIG",
      "taf": "TAF OEMA 212300Z 2200/2306 08016KT 7000 NSC"
    },
    {
      "icao": "OJAI",
      "alert": "OK",
      "vis_m": 4000,
      "fzfg": false,
      "metar_trigger": false,
      "taf_trigger": false,
      "metar": "METAR OJAI 212300Z 10017KT 4000 BLDU NSC 06/M03 Q1022 NOSIG",
      "taf": "TAF OJAI 212300Z 2200/2306 11014KT 5000 HZ FEW035"
    },
    {
      "icao": "OMAA",
      "alert": "OK",
      "vis_m": 9999,
      "fzfg": false,
      "metar_trigger": false,
      "taf_trigger": false,
      "metar": "METAR OMAA 212300Z 29016KT 9999 FEW045 17/07 Q1019 NOSIG",
      "taf": "TAF OMAA 212300Z 2200/2306 30015KT 8000 FEW040"
    },
    {
      "icao": "OMDB",
      "alert": "OK",
      "vis_m": 9999,
      "fzfg": false,
      "metar_trigger": false,
      "taf_trigger": false,
      "metar": "METAR OMDB 212300Z 28018KT 9999 SCT045 18/07 Q1018 NOSIG",
      "taf": "TAF OMDB 212300Z 2200/2306 28016KT 8000 FEW045"
    },
    {
      "icao": "UAAA",
      "alert": "OK",
      "vis_m": 1200,
      "fzfg": false,
      "metar_trigger": false,
      "taf_trigger": false,
      "metar": "SPECI UAAA 212342Z 26003MPS 220V280 1200 R05R/P2000 BR OVC002 M12/M14 Q1012 NOSIG RMK QBB060",
      "taf": "TAF UAAA 212300Z 2200/2224 24003MPS 1400 BR FU SCT011 BKN050 TXM04/2208Z TNM14/2202Z"
    },
    {
      "icao": "UBBB",
      "alert": "OK",
      "vis_m": 9999,
      "fzfg": false,
      "metar_trigger": false,
      "taf_trigger": false,
      "metar": "METAR UBBB 212330Z 17008KT CAVOK 02/M00 Q1026 NOSIG",
      "taf": "TAF UBBB 212300Z 2200/2224 19012KT CAVOK TX06/2210Z TN00/2201Z"
    },
    {
      "icao": "UDSG",
      "alert": "OK",
      "vis_m": 9999,
      "fzfg": false,
      "metar_trigger": false,
      "taf_trigger": false,
      "metar": "METAR UDSG 212330Z 00000KT 9999 NSC M19/M22 Q1025 NOSIG",
      "taf": "TAF UDSG 212300Z 2200/2224 VRB06KT 9999 FEW050"
    },
    {
      "icao": "UDYZ",
      "alert": "OK",
      "vis_m": 9000,
      "fzfg": false,
      "metar_trigger": false,
      "taf_trigger": false,
      "metar": "METAR UDYZ 212330Z VRB01KT 9000 NSC M09/M11 Q1028 NOSIG",
      "taf": "TAF UDYZ 212300Z 2200/2224 VRB04KT 6000 NSC"
    },
    {
      "icao": "UGKO",
      "alert": "OK",
      "vis_m": 9999,
      "fzfg": false,
      "metar_trigger": false,
      "taf_trigger": false,
      "metar": "METAR UGKO 212330Z 08013KT CAVOK 00/M03 Q1022 NOSIG",
      "taf": "TAF UGKO 212300Z 2200/2224 08010KT CAVOK TX08/2211Z TNM01/2204Z"
    }
  ]
}