{
  "ts_utc": "2026-02-03T09:41:17Z",
  "threshold_m": 150,
  "source": "stations_override.txt (ICAO list) + aviationweather.gov (METAR/TAF raw)",
  "station_count": 159,
  "stations": [
    {
      "icao": "BIKF",
      "alert": "OK",
      "vis_m": 9999,
      "fzfg": false,
      "metar_trigger": false,
      "taf_trigger": false,
      "metar": "METAR BIKF 030930Z 10024KT 9999 FEW026 BKN340 06/02 Q1006",
      "taf": "TAF BIKF 030747Z 0309/0409 11018G30KT 9999 -SHRA FEW020 BKN035 TX06/0315Z TN01/0406Z"
    },
    {
      "icao": "BKPR",
      "alert": "OK",
      "vis_m": 8000,
      "fzfg": false,
      "metar_trigger": false,
      "taf_trigger": false,
      "metar": "METAR BKPR 030930Z 18009KT 8000 BKN040 02/00 Q1017 NOSIG",
      "taf": ""
    },
    {
      "icao": "EBCI",
      "alert": "OK",
      "vis_m": 4500,
      "fzfg": false,
      "metar_trigger": false,
      "taf_trigger": false,
      "metar": "METAR EBCI 030920Z 09009KT 4500 -RA BKN030 04/04 Q0993 TEMPO 2500 RADZ BKN012",
      "taf": "TAF EBCI 030520Z 0306/0412 11010KT 9999 SCT020 BKN035"
    },
    {
      "icao": "EDDB",
      "alert": "OK",
      "vis_m": 9999,
      "fzfg": false,
      "metar_trigger": false,
      "taf_trigger": false,
      "metar": "METAR EDDB 030920Z AUTO 09015KT 9999 FEW035 OVC045 M07/M13 Q1011 TEMPO 09015G25KT",
      "taf": "TAF EDDB 030500Z 0306/0406 08012G22KT 9999 BKN035"
    },
    {
      "icao": "EDDH",
      "alert": "OK",
      "vis_m": 9999,
      "fzfg": false,
      "metar_trigger": false,
      "taf_trigger": false,
      "metar": "METAR EDDH 030920Z AUTO 10016KT 070V130 9999 OVC017 M06/M13 Q1009 TEMPO 09015G25KT",
      "taf": "TAF EDDH 030500Z 0306/0412 09013KT 9999 FEW020 BKN035"
    },
    {
      "icao": "EDDK",
      "alert": "OK",
      "vis_m": 9999,
      "fzfg": false,
      "metar_trigger": false,
      "taf_trigger": false,
      "metar": "METAR EDDK 030920Z AUTO 11006KT 080V150 9999 -RA FEW041 BKN049 01/M02 Q0997 TEMPO RA",
      "taf": "TAF EDDK 030500Z 0306/0412 12010KT 9999 FEW015 BKN045"
    },
    {
      "icao": "EDDN",
      "alert": "OK",
      "vis_m": 9999,
      "fzfg": false,
      "metar_trigger": false,
      "taf_trigger": false,
      "metar": "METAR EDDN 030920Z AUTO 11012KT 070V130 9999 FEW016 01/M02 Q1000 NOSIG",
      "taf": ""
    },
    {
      "icao": "EDDS",
      "alert": "OK",
      "vis_m": 9999,
      "fzfg": false,
      "metar_trigger": false,
      "taf_trigger": false,
      "metar": "METAR EDDS 030920Z AUTO 09003KT 030V170 9999 -SHRA FEW037 FEW///TCU 00/M03 Q0996 NOSIG",
      "taf": ""
    },
    {
      "icao": "EDFH",
      "alert": "OK",
      "vis_m": 4000,
      "fzfg": false,
      "metar_trigger": false,
      "taf_trigger": false,
      "metar": "METAR EDFH 030920Z 14018KT 4000 -FZRA BR BKN003 BKN039 OVC048 M01/M02 Q0995",
      "taf": "TAF EDFH 030500Z 0306/0406 13015KT 6000 OVC005"
    },
    {
      "icao": "EDJA",
      "alert": "OK",
      "vis_m": 6000,
      "fzfg": false,
      "metar_trigger": false,
      "taf_trigger": false,
      "metar": "METAR EDJA 030920Z 06006KT 030V090 6000 OVC006 M02/M03 Q0996",
      "taf": "TAF EDJA 030800Z 0309/0318 07009KT 4000 BR OVC004"
    },
    {
      "icao": "EDLW",
      "alert": "OK",
      "vis_m": 9999,
      "fzfg": false,
      "metar_trigger": false,
      "taf_trigger": false,
      "metar": "METAR EDLW 030920Z 03012KT CAVOK M00/M04 Q0998",
      "taf": "TAF EDLW 030500Z 0306/0406 08010KT 9999 SCT045"
    },
    {
      "icao": "EDNY",
      "alert": "OK",
      "vis_m": 9999,
      "fzfg": false,
      "metar_trigger": false,
      "taf_trigger": false,
      "metar": "METAR EDNY 030920Z 01008KT 320V040 CAVOK 01/M02 Q0997",
      "taf": "TAF EDNY 030800Z 0309/0318 04008KT 9999 FEW040"
    },
    {
      "icao": "EDSB",
      "alert": "OK",
      "vis_m": 8000,
      "fzfg": false,
      "metar_trigger": false,
      "taf_trigger": false,
      "metar": "METAR EDSB 030920Z 01003KT 340V040 8000 -RA FEW014 02/M00 Q0998",
      "taf": "TAF EDSB 030500Z 0306/0406 03009KT 8000 BKN045"
    },
    {
      "icao": "EETN",
      "alert": "OK",
      "vis_m": 9999,
      "fzfg": false,
      "metar_trigger": false,
      "taf_trigger": false,
      "metar": "METAR EETN 030920Z 06008KT 9999 BKN010 M08/M10 Q1027 TEMPO BKN008",
      "taf": ""
    },
    {
      "icao": "EFTU",
      "alert": "OK",
      "vis_m": 9999,
      "fzfg": false,
      "metar_trigger": false,
      "taf_trigger": false,
      "metar": "METAR EFTU 030920Z AUTO VRB02KT 9999 -SHSN SCT002 M18/M20 Q1029",
      "taf": "TAF EFTU 030825Z 0309/0409 04003KT 9999 BKN001"
    },
    {
      "icao": "EGBB",
      "alert": "OK",
      "vis_m": 7000,
      "fzfg": false,
      "metar_trigger": false,
      "taf_trigger": false,
      "metar": "METAR EGBB 030920Z 07013KT 7000 OVC010 03/01 Q0994",
      "taf": "TAF EGBB 030500Z 0306/0406 08012KT 7000 BKN010"
    },
    {
      "icao": "EGGP",
      "alert": "OK",
      "vis_m": 9999,
      "fzfg": false,
      "metar_trigger": false,
      "taf_trigger": false,
      "metar": "METAR EGGP 030920Z 09016KT 9999 BKN016 OVC021 03/00 Q0995",
      "taf": "TAF EGGP 030502Z 0306/0406 09014KT 9999 BKN018"
    },
    {
      "icao": "EGGW",
      "alert": "OK",
      "vis_m": 4200,
      "fzfg": false,
      "metar_trigger": false,
      "taf_trigger": false,
      "metar": "METAR EGGW 030920Z 07014KT 4200 BR OVC005 03/02 Q0993",
      "taf": "TAF EGGW 030459Z 0306/0406 08012KT 9999 SCT007 BKN010"
    },
    {
      "icao": "EGKK",
      "alert": "OK",
      "vis_m": 8000,
      "fzfg": false,
      "metar_trigger": false,
      "taf_trigger": false,
      "metar": "METAR EGKK 030920Z 07010KT 8000 -RADZ OVC007 05/04 Q0991",
      "taf": "TAF EGKK 030459Z 0306/0412 08010KT 9999 BKN010"
    },
    {
      "icao": "EGNM",
      "alert": "OK",
      "vis_m": 6000,
      "fzfg": false,
      "metar_trigger": false,
      "taf_trigger": false,
      "metar": "METAR EGNM 030920Z 08012G23KT 6000 SCT006 BKN008 01/M00 Q0997",
      "taf": ""
    },
    {
      "icao": "EGPD",
      "alert": "OK",
      "vis_m": 9999,
      "fzfg": false,
      "metar_trigger": false,
      "taf_trigger": false,
      "metar": "METAR EGPD 030920Z AUTO 09013KT 9999 -RA BKN009 OVC036 02/00 Q1005 TEMPO 4000 RA BKN006",
      "taf": ""
    },
    {
      "icao": "EGPF",
      "alert": "OK",
      "vis_m": 9999,
      "fzfg": false,
      "metar_trigger": false,
      "taf_trigger": false,
      "metar": "METAR EGPF 030920Z AUTO 07016KT 9999 BKN022 OVC027 05/02 Q1000",
      "taf": ""
    },
    {
      "icao": "EHBK",
      "alert": "OK",
      "vis_m": 6000,
      "fzfg": false,
      "metar_trigger": false,
      "taf_trigger": false,
      "metar": "METAR EHBK 030925Z AUTO 08011KT 050V120 6000 DZRA FEW018/// OVC030/// 02/00 Q0995 TEMPO 6000 DZRA",
      "taf": "TAF EHBK 030511Z 0306/0412 08010KT 9999 SCT045"
    },
    {
      "icao": "EHEH",
      "alert": "OK",
      "vis_m": null,
      "fzfg": false,
      "metar_trigger": false,
      "taf_trigger": false,
      "metar": "",
      "taf": "TAF EHEH 030552Z 0306/0412 08011KT 9000 BKN018"
    },
    {
      "icao": "EKBI",
      "alert": "OK",
      "vis_m": 9999,
      "fzfg": false,
      "metar_trigger": false,
      "taf_trigger": false,
      "metar": "METAR EKBI 030920Z AUTO 10019G32KT 9999 OVC057/// M02/M11 Q1013",
      "taf": "TAF EKBI 030827Z 0309/0409 10020KT 9999 BKN030"
    },
    {
      "icao": "EKCH",
      "alert": "OK",
      "vis_m": 9999,
      "fzfg": false,
      "metar_trigger": false,
      "taf_trigger": false,
      "metar": "METAR EKCH 030920Z AUTO 11021KT 9999 NCD M02/M08 Q1019 TEMPO 10020G30KT",
      "taf": "TAF EKCH 030827Z 0309/0409 10020G30KT 9999 FEW040"
    },
    {
      "icao": "ENAL",
      "alert": "OK",
      "vis_m": 9999,
      "fzfg": false,
      "metar_trigger": false,
      "taf_trigger": false,
      "metar": "METAR ENAL 030920Z 14014KT 9999 BKN028 M02/M09 Q1019",
      "taf": "TAF ENAL 030800Z 0309/0318 14012KT 9999 BKN030"
    },
    {
      "icao": "ENBR",
      "alert": "OK",
      "vis_m": 9999,
      "fzfg": false,
      "metar_trigger": false,
      "taf_trigger": false,
      "metar": "METAR ENBR 030920Z 09003KT CAVOK M07/M15 Q1019 NOSIG RMK WIND 1200FT 11007KT",
      "taf": "TAF ENBR 030500Z 0306/0406 06005KT CAVOK"
    },
    {
      "icao": "ENGM",
      "alert": "OK",
      "vis_m": 9999,
      "fzfg": false,
      "metar_trigger": false,
      "taf_trigger": false,
      "metar": "METAR ENGM 030850Z 34003KT 310V010 9999 -SN BKN042 M10/M12 Q1026 NOSIG",
      "taf": ""
    },
    {
      "icao": "ENHD",
      "alert": "OK",
      "vis_m": 9999,
      "fzfg": false,
      "metar_trigger": false,
      "taf_trigger": false,
      "metar": "METAR ENHD 030920Z 08012KT CAVOK M04/M16 Q1019",
      "taf": "TAF ENHD 030800Z 0309/0318 10010KT CAVOK"
    },
    {
      "icao": "ENTC",
      "alert": "OK",
      "vis_m": 9999,
      "fzfg": false,
      "metar_trigger": false,
      "taf_trigger": false,
      "metar": "METAR ENTC 030920Z 20011KT 9999 SCT035 M00/M03 Q1023 NOSIG RMK WIND 2600FT 21009KT",
      "taf": "TAF ENTC 030500Z 0306/0406 21009KT 9999 FEW020 BKN050"
    },
    {
      "icao": "ENTO",
      "alert": "OK",
      "vis_m": 9999,
      "fzfg": false,
      "metar_trigger": false,
      "taf_trigger": false,
      "metar": "METAR ENTO 030920Z 09005KT 060V130 9999 OVC039 M05/M09 Q1024 RESN NOSIG",
      "taf": "TAF ENTO 030500Z 0306/0406 09005KT 9999 BKN040"
    },
    {
      "icao": "ENVA",
      "alert": "OK",
      "vis_m": 9999,
      "fzfg": false,
      "metar_trigger": false,
      "taf_trigger": false,
      "metar": "METAR ENVA 030920Z 09007KT CAVOK M09/M17 Q1022 NOSIG RMK WIND 670FT 14015KT",
      "taf": "TAF ENVA 030500Z 0306/0406 09007KT CAVOK"
    },
    {
      "icao": "ENZV",
      "alert": "OK",
      "vis_m": 9999,
      "fzfg": false,
      "metar_trigger": false,
      "taf_trigger": false,
      "metar": "METAR ENZV 030920Z 09013KT CAVOK M03/M13 Q1018 NOSIG",
      "taf": "TAF ENZV 030500Z 0306/0406 09010KT CAVOK"
    },
    {
      "icao": "EPGD",
      "alert": "OK",
      "vis_m": 8000,
      "fzfg": false,
      "metar_trigger": false,
      "taf_trigger": false,
      "metar": "METAR EPGD 030930Z VRB06KT 8000 NSC M09/M16 Q1020",
      "taf": "TAF EPGD 030530Z 0306/0406 VRB03KT CAVOK"
    },
    {
      "icao": "EPKK",
      "alert": "OK",
      "vis_m": 9999,
      "fzfg": false,
      "metar_trigger": false,
      "taf_trigger": false,
      "metar": "METAR EPKK 030930Z 07011KT CAVOK M08/M14 Q1014",
      "taf": "TAF EPKK 030830Z 0309/0409 06012KT CAVOK"
    },
    {
      "icao": "EPKT",
      "alert": "OK",
      "vis_m": 9999,
      "fzfg": false,
      "metar_trigger": false,
      "taf_trigger": false,
      "metar": "METAR EPKT 030930Z 08010KT CAVOK M07/M11 Q1013",
      "taf": "TAF EPKT 030530Z 0306/0406 08010KT 9999 BKN040"
    },
    {
      "icao": "EPLB",
      "alert": "OK",
      "vis_m": 9999,
      "fzfg": false,
      "metar_trigger": false,
      "taf_trigger": false,
      "metar": "METAR EPLB 030930Z 07005KT CAVOK M17/M19 Q1019",
      "taf": "TAF EPLB 030530Z 0306/0406 07002KT 4000 BR NSC"
    },
    {
      "icao": "EPMO",
      "alert": "OK",
      "vis_m": 8000,
      "fzfg": false,
      "metar_trigger": false,
      "taf_trigger": false,
      "metar": "METAR EPMO 030930Z 07007KT 8000 NSC M15/M17 Q1020",
      "taf": "TAF EPMO 030530Z 0306/0406 07005KT 8000 NSC"
    },
    {
      "icao": "EPPO",
      "alert": "OK",
      "vis_m": 9999,
      "fzfg": false,
      "metar_trigger": false,
      "taf_trigger": false,
      "metar": "METAR EPPO 030930Z 09015KT CAVOK M10/M20 Q1017",
      "taf": "TAF EPPO 030530Z 0306/0406 09014KT CAVOK"
    },
    {
      "icao": "EPRA",
      "alert": "OK",
      "vis_m": 9999,
      "fzfg": false,
      "metar_trigger": false,
      "taf_trigger": false,
      "metar": "METAR EPRA 030930Z 10006KT CAVOK M14/M21 Q1018",
      "taf": "TAF EPRA 030830Z 0309/0318 07006KT CAVOK"
    },
    {
      "icao": "EPRZ",
      "alert": "OK",
      "vis_m": 9999,
      "fzfg": false,
      "metar_trigger": false,
      "taf_trigger": false,
      "metar": "METAR EPRZ 030930Z 08011KT 9999 OVC011 M08/M12 Q1017",
      "taf": ""
    },
    {
      "icao": "EPSC",
      "alert": "OK",
      "vis_m": 9999,
      "fzfg": false,
      "metar_trigger": false,
      "taf_trigger": false,
      "metar": "METAR EPSC 030930Z 08010KT 050V110 CAVOK M09/M17 Q1017",
      "taf": "TAF EPSC 030530Z 0306/0406 09012KT CAVOK"
    },
    {
      "icao": "EPSY",
      "alert": "OK",
      "vis_m": 9999,
      "fzfg": false,
      "metar_trigger": false,
      "taf_trigger": false,
      "metar": "METAR EPSY 030930Z VRB02KT CAVOK M18/M21 Q1021",
      "taf": "TAF EPSY 030830Z 0309/0318 04005KT CAVOK"
    },
    {
      "icao": "EPWA",
      "alert": "OK",
      "vis_m": 9999,
      "fzfg": false,
      "metar_trigger": false,
      "taf_trigger": false,
      "metar": "METAR EPWA 030930Z 09004KT CAVOK M14/M19 Q1020 NOSIG",
      "taf": "TAF EPWA 030830Z 0309/0409 09009KT CAVOK"
    },
    {
      "icao": "EPWR",
      "alert": "OK",
      "vis_m": 9999,
      "fzfg": false,
      "metar_trigger": false,
      "taf_trigger": false,
      "metar": "METAR EPWR 030930Z 10012KT 9999 OVC033 M07/M13 Q1014",
      "taf": "TAF EPWR 030830Z 0309/0409 10012KT 9999 BKN020"
    },
    {
      "icao": "ESGG",
      "alert": "OK",
      "vis_m": 9999,
      "fzfg": false,
      "metar_trigger": false,
      "taf_trigger": false,
      "metar": "METAR ESGG 030920Z 10011KT 9999 FEW035 M04/M09 Q1021",
      "taf": "TAF ESGG 030830Z 0309/0409 10011KT 9999 SCT030"
    },
    {
      "icao": "ESKN",
      "alert": "OK",
      "vis_m": 9999,
      "fzfg": false,
      "metar_trigger": false,
      "taf_trigger": false,
      "metar": "METAR ESKN 030920Z 04006KT CAVOK M08/M11 Q1028",
      "taf": "TAF ESKN 030830Z 0309/0409 06005KT CAVOK"
    },
    {
      "icao": "ESMS",
      "alert": "OK",
      "vis_m": 9000,
      "fzfg": false,
      "metar_trigger": false,
      "taf_trigger": false,
      "metar": "METAR ESMS 030920Z 10016KT 9000 FEW023 M02/M07 Q1019",
      "taf": "TAF ESMS 030827Z 0309/0409 11015KT 9999 FEW040"
    },
    {
      "icao": "ESSA",
      "alert": "OK",
      "vis_m": 9999,
      "fzfg": false,
      "metar_trigger": false,
      "taf_trigger": false,
      "metar": "METAR ESSA 030920Z 36004KT 9999 FEW019 BKN024 M11/M13 Q1029 NOSIG",
      "taf": "TAF ESSA 030830Z 0309/0409 03005KT 9999 BKN025"
    },
    {
      "icao": "EYKA",
      "alert": "OK",
      "vis_m": 9999,
      "fzfg": false,
      "metar_trigger": false,
      "taf_trigger": false,
      "metar": "METAR EYKA 030920Z 07004KT 020V120 CAVOK M14/M17 Q1023",
      "taf": "TAF EYKA 030500Z 0306/0406 VRB03KT 5000 BR NSC"
    },
    {
      "icao": "EYPA",
      "alert": "OK",
      "vis_m": 9999,
      "fzfg": false,
      "metar_trigger": false,
      "taf_trigger": false,
      "metar": "METAR EYPA 030920Z 08005KT CAVOK M08/M13 Q1024",
      "taf": "TAF EYPA 030500Z 0306/0406 VRB03KT 9000 NSC"
    },
    {
      "icao": "EYVI",
      "alert": "OK",
      "vis_m": 9999,
      "fzfg": false,
      "metar_trigger": false,
      "taf_trigger": false,
      "metar": "METAR EYVI 030920Z 06004KT 040V100 CAVOK M14/M17 Q1021 NOSIG",
      "taf": "TAF EYVI 030500Z 0306/0406 VRB04KT 5000 BR NSC"
    },
    {
      "icao": "GCFV",
      "alert": "OK",
      "vis_m": 9999,
      "fzfg": false,
      "metar_trigger": false,
      "taf_trigger": false,
      "metar": "METAR GCFV 030930Z 32005KT 190V350 9999 FEW035 SCT040 18/12 Q1018",
      "taf": "TAF GCFV 030800Z 0309/0409 32009KT 9999 FEW040 TX22/0314Z TN16/0406Z"
    },
    {
      "icao": "GCLP",
      "alert": "OK",
      "vis_m": 9999,
      "fzfg": false,
      "metar_trigger": false,
      "taf_trigger": false,
      "metar": "METAR GCLP 030930Z 35010KT 320V020 9999 FEW035 19/11 Q1019 NOSIG",
      "taf": "TAF GCLP 030800Z 0309/0409 36012KT 9999 SCT040 TX22/0314Z TN15/0406Z"
    },
    {
      "icao": "GCTS",
      "alert": "OK",
      "vis_m": 9999,
      "fzfg": false,
      "metar_trigger": false,
      "taf_trigger": false,
      "metar": "METAR GCTS 030930Z VRB02KT 9999 FEW030 18/12 Q1019 NOSIG",
      "taf": "TAF GCTS 030800Z 0309/0409 18007KT 9999 SCT035 TX23/0314Z TN15/0406Z"
    },
    {
      "icao": "GMAD",
      "alert": "OK",
      "vis_m": 8000,
      "fzfg": false,
      "metar_trigger": false,
      "taf_trigger": false,
      "metar": "METAR GMAD 030930Z 22004KT 190V250 8000 SCT030 14/14 Q1016 NOSIG",
      "taf": "TAF GMAD 030500Z 0306/0412 06008KT 8000 BKN020"
    },
    {
      "icao": "GMMN",
      "alert": "OK",
      "vis_m": 9999,
      "fzfg": false,
      "metar_trigger": false,
      "taf_trigger": false,
      "metar": "METAR GMMN 030930Z 21014KT 9999 SCT014 BKN020 12/10 Q1013 TEMPO 4000 RA",
      "taf": "TAF GMMN 030500Z 0306/0412 20014KT 9999 SCT010 SCT020"
    },
    {
      "icao": "GMMX",
      "alert": "OK",
      "vis_m": 9999,
      "fzfg": false,
      "metar_trigger": false,
      "taf_trigger": false,
      "metar": "METAR GMMX 030930Z 23008KT 200V260 9999 FEW026 SCT100 13/09 Q1016 NOSIG",
      "taf": "TAF GMMX 030500Z 0306/0412 24006KT 8000 SCT023 SCT080"
    },
    {
      "icao": "HEGN",
      "alert": "OK",
      "vis_m": 6000,
      "fzfg": false,
      "metar_trigger": false,
      "taf_trigger": false,
      "metar": "METAR HEGN 030900Z 32019KT 6000 NSC 22/05 Q1020 NOSIG",
      "taf": "TAF HEGN 030500Z 0306/0412 32013G26KT 6000 NSC"
    },
    {
      "icao": "HEMA",
      "alert": "OK",
      "vis_m": 6000,
      "fzfg": false,
      "metar_trigger": false,
      "taf_trigger": false,
      "metar": "METAR HEMA 030900Z 33016KT 6000 NSC 23/05 Q1019 NOSIG",
      "taf": "TAF HEMA 030500Z 0306/0412 33008G20KT 6000 NSC"
    },
    {
      "icao": "HESH",
      "alert": "OK",
      "vis_m": 9999,
      "fzfg": false,
      "metar_trigger": false,
      "taf_trigger": false,
      "metar": "METAR HESH 030900Z 01010KT CAVOK 23/06 Q1019 NOSIG",
      "taf": "TAF HESH 030500Z 0306/0412 33008G20KT 6000 NSC"
    },
    {
      "icao": "HESX",
      "alert": "OK",
      "vis_m": 9999,
      "fzfg": false,
      "metar_trigger": false,
      "taf_trigger": false,
      "metar": "METAR HESX 030900Z 30009KT CAVOK 18/08 Q1022 NOSIG",
      "taf": "TAF HESX 030500Z 0306/0412 26008KT CAVOK"
    },
    {
      "icao": "LATI",
      "alert": "OK",
      "vis_m": 9999,
      "fzfg": false,
      "metar_trigger": false,
      "taf_trigger": false,
      "metar": "METAR LATI 030920Z 14004KT 110V170 9999 BKN060 13/05 Q1016 NOSIG",
      "taf": "TAF LATI 030500Z 0306/0406 VRB05KT 9999 FEW030 BKN070 TX16/0312Z TN07/0405Z"
    },
    {
      "icao": "LBPD",
      "alert": "OK",
      "vis_m": 9999,
      "fzfg": false,
      "metar_trigger": false,
      "taf_trigger": false,
      "metar": "METAR LBPD 030930Z AUTO 09006KT 9999 OVC019/// M01/M02 Q1021 NOSIG",
      "taf": "TAF LBPD 030500Z 0306/0406 VRB03KT 8000 SCT008 BKN015"
    },
    {
      "icao": "LBSF",
      "alert": "OK",
      "vis_m": 9999,
      "fzfg": false,
      "metar_trigger": false,
      "taf_trigger": false,
      "metar": "METAR LBSF 030930Z 20003KT 9999 OVC013 M01/M03 Q1019 NOSIG",
      "taf": "TAF LBSF 030500Z 0306/0406 VRB03KT 9999 BKN015 OVC030"
    },
    {
      "icao": "LBWN",
      "alert": "OK",
      "vis_m": 9999,
      "fzfg": false,
      "metar_trigger": false,
      "taf_trigger": false,
      "metar": "METAR LBWN 030930Z 11004KT 070V150 9999 SCT032 M01/M08 Q1022 NOSIG",
      "taf": "TAF LBWN 030500Z 0306/0406 VRB04KT 9999 BKN040"
    },
    {
      "icao": "LCLK",
      "alert": "OK",
      "vis_m": 9999,
      "fzfg": false,
      "metar_trigger": false,
      "taf_trigger": false,
      "metar": "METAR LCLK 030930Z 32018KT 9999 FEW020 SCT050 19/09 Q1014 NOSIG",
      "taf": "TAF LCLK 030530Z 0306/0406 24010KT 9999 FEW020"
    },
    {
      "icao": "LCPH",
      "alert": "OK",
      "vis_m": 9999,
      "fzfg": false,
      "metar_trigger": false,
      "taf_trigger": false,
      "metar": "METAR LCPH 030930Z 31024KT 9999 SCT035 17/08 Q1016 NOSIG",
      "taf": "TAF LCPH 030530Z 0306/0406 29020G30KT 9999 FEW020"
    },
    {
      "icao": "LEAL",
      "alert": "OK",
      "vis_m": 9999,
      "fzfg": false,
      "metar_trigger": false,
      "taf_trigger": false,
      "metar": "METAR LEAL 030930Z 17004KT 120V210 CAVOK 12/06 Q1005 NOSIG",
      "taf": ""
    },
    {
      "icao": "LEBB",
      "alert": "OK",
      "vis_m": 9999,
      "fzfg": false,
      "metar_trigger": false,
      "taf_trigger": false,
      "metar": "METAR LEBB 030930Z 21010KT 150V260 9999 FEW035 12/02 Q0998 NOSIG",
      "taf": "TAF LEBB 030500Z 0306/0406 21009KT 9999 SCT040 TX14/0314Z TN07/0406Z"
    },
    {
      "icao": "LEBL",
      "alert": "OK",
      "vis_m": 9999,
      "fzfg": false,
      "metar_trigger": false,
      "taf_trigger": false,
      "metar": "METAR LEBL 030930Z 32006KT 270V340 9999 FEW025 11/05 Q1003 NOSIG",
      "taf": "TAF LEBL 030500Z 0306/0406 29005KT 9999 FEW020 TX15/0314Z TN08/0306Z"
    },
    {
      "icao": "LECH",
      "alert": "OK",
      "vis_m": 9000,
      "fzfg": false,
      "metar_trigger": false,
      "taf_trigger": false,
      "metar": "METAR LECH 030930Z AUTO 25007KT 230V290 9000 NSC 10/01 Q1003",
      "taf": ""
    },
    {
      "icao": "LEMD",
      "alert": "OK",
      "vis_m": 9000,
      "fzfg": false,
      "metar_trigger": false,
      "taf_trigger": false,
      "metar": "METAR LEMD 030930Z 22008KT 190V250 9000 -RA FEW010 BKN020 05/05 Q1002 RERA NOSIG",
      "taf": ""
    },
    {
      "icao": "LEMG",
      "alert": "OK",
      "vis_m": 9999,
      "fzfg": false,
      "metar_trigger": false,
      "taf_trigger": false,
      "metar": "METAR LEMG 030930Z VRB01KT 9999 FEW005 SCT030 BKN060 09/07 Q1007 NOSIG",
      "taf": "TAF LEMG 030500Z 0306/0406 29005KT 9999 FEW025 SCT040 TX17/0314Z TN09/0307Z"
    },
    {
      "icao": "LEVC",
      "alert": "OK",
      "vis_m": 9999,
      "fzfg": false,
      "metar_trigger": false,
      "taf_trigger": false,
      "metar": "METAR LEVC 030930Z VRB02KT 9999 FEW050 12/04 Q1004 NOSIG",
      "taf": "TAF LEVC 030500Z 0306/0406 25007KT 9999 FEW030 TX16/0313Z TN08/0306Z"
    },
    {
      "icao": "LEXJ",
      "alert": "OK",
      "vis_m": 9999,
      "fzfg": false,
      "metar_trigger": false,
      "taf_trigger": false,
      "metar": "METAR LEXJ 030930Z 20018G29KT 160V250 9999 FEW060 11/01 Q0996",
      "taf": "TAF LEXJ 030800Z 0309/0409 23009KT 9999 FEW040 TX15/0312Z TN08/0407Z"
    },
    {
      "icao": "LEZG",
      "alert": "OK",
      "vis_m": 9999,
      "fzfg": false,
      "metar_trigger": false,
      "taf_trigger": false,
      "metar": "METAR LEZG 030930Z 08006KT 050V110 9999 BKN075 BKN085 08/04 Q1002 NOSIG",
      "taf": "TAF LEZG 030500Z 0306/0406 23009KT 9999 FEW050 TX13/0314Z TN04/0306Z"
    },
    {
      "icao": "LEZL",
      "alert": "OK",
      "vis_m": 9999,
      "fzfg": false,
      "metar_trigger": false,
      "taf_trigger": false,
      "metar": "METAR LEZL 030930Z 22006KT 170V240 9999 FEW049 11/09 Q1006 NOSIG",
      "taf": "TAF LEZL 030800Z 0309/0409 22008KT 9999 SCT020 TX15/0315Z TN12/0407Z"
    },
    {
      "icao": "LFBD",
      "alert": "OK",
      "vis_m": 9999,
      "fzfg": false,
      "metar_trigger": false,
      "taf_trigger": false,
      "metar": "METAR LFBD 030930Z AUTO 16008KT CAVOK 08/07 Q0997 BECMG 22010KT",
      "taf": ""
    },
    {
      "icao": "LFLL",
      "alert": "OK",
      "vis_m": 9999,
      "fzfg": false,
      "metar_trigger": false,
      "taf_trigger": false,
      "metar": "METAR LFLL 030930Z 19014KT 9999 FEW020 BKN080 09/06 Q1000 NOSIG",
      "taf": "TAF LFLL 030500Z 0306/0412 17010KT CAVOK"
    },
    {
      "icao": "LFLS",
      "alert": "OK",
      "vis_m": 9999,
      "fzfg": false,
      "metar_trigger": false,
      "taf_trigger": false,
      "metar": "METAR LFLS 030930Z AUTO 21014KT 180V240 9999 FEW022 SCT082 09/05 Q1001 TEMPO BKN011",
      "taf": "TAF LFLS 030800Z 0309/0409 19009KT 9999 BKN055"
    },
    {
      "icao": "LFMN",
      "alert": "OK",
      "vis_m": 9999,
      "fzfg": false,
      "metar_trigger": false,
      "taf_trigger": false,
      "metar": "METAR LFMN 030930Z 08014KT 9999 SCT021 13/10 Q1004 NOSIG",
      "taf": "TAF LFMN 030800Z 0309/0415 10012KT CAVOK"
    },
    {
      "icao": "LFOB",
      "alert": "OK",
      "vis_m": 2900,
      "fzfg": false,
      "metar_trigger": false,
      "taf_trigger": false,
      "metar": "METAR LFOB 030930Z AUTO 10004KT 2900 -DZ BR OVC004 06/06 Q0990 TEMPO RA BECMG 22012KT",
      "taf": ""
    },
    {
      "icao": "LFPO",
      "alert": "OK",
      "vis_m": 9000,
      "fzfg": false,
      "metar_trigger": false,
      "taf_trigger": false,
      "metar": "METAR LFPO 030930Z 24009KT 9000 -RA FEW011 BKN043 09/08 Q0991 NOSIG",
      "taf": ""
    },
    {
      "icao": "LFSB",
      "alert": "OK",
      "vis_m": 5000,
      "fzfg": false,
      "metar_trigger": false,
      "taf_trigger": false,
      "metar": "METAR LFSB 030930Z AUTO VRB02KT 5000 BR OVC003 04/04 Q0998 TEMPO SHRA FEW040TCU",
      "taf": ""
    },
    {
      "icao": "LGAV",
      "alert": "OK",
      "vis_m": 9999,
      "fzfg": false,
      "metar_trigger": false,
      "taf_trigger": false,
      "metar": "METAR LGAV 030920Z VRB02KT CAVOK 14/03 Q1020 NOSIG",
      "taf": "TAF LGAV 030500Z 0306/0406 VRB05KT 9999 FEW020"
    },
    {
      "icao": "LGTS",
      "alert": "OK",
      "vis_m": 9999,
      "fzfg": false,
      "metar_trigger": false,
      "taf_trigger": false,
      "metar": "METAR LGTS 030920Z VRB02KT 9999 FEW025 09/07 Q1020 NOSIG",
      "taf": ""
    },
    {
      "icao": "LHBP",
      "alert": "OK",
      "vis_m": 1500,
      "fzfg": false,
      "metar_trigger": false,
      "taf_trigger": false,
      "metar": "METAR LHBP 030930Z 10013KT 1500 SN SCT004 OVC021 M01/M03 Q1014 TEMPO 1000 +SN DRSN VV004",
      "taf": "TAF LHBP 030515Z 0306/0406 11012KT 7000 -SN FEW008 OVC030"
    },
    {
      "icao": "LHDC",
      "alert": "OK",
      "vis_m": 9999,
      "fzfg": false,
      "metar_trigger": false,
      "taf_trigger": false,
      "metar": "METAR LHDC 030915Z AUTO 09007KT CAVOK 01/M02 Q1016 NOSIG",
      "taf": "TAF LHDC 030815Z 0309/0318 08006KT CAVOK"
    },
    {
      "icao": "LIBD",
      "alert": "OK",
      "vis_m": 9999,
      "fzfg": false,
      "metar_trigger": false,
      "taf_trigger": false,
      "metar": "METAR LIBD 030920Z 16006KT CAVOK 14/08 Q1011",
      "taf": "TAF LIBD 030500Z 0306/0406 18010KT 9999 FEW030"
    },
    {
      "icao": "LIBG",
      "alert": "OK",
      "vis_m": 9999,
      "fzfg": false,
      "metar_trigger": false,
      "taf_trigger": false,
      "metar": "METAR LIBG 030850Z 17012KT 9999 FEW010 SCT020 15/12 Q1013",
      "taf": "TAF LIBG 030800Z 0309/0318 15012KT 9999 FEW040"
    },
    {
      "icao": "LIBP",
      "alert": "OK",
      "vis_m": 9999,
      "fzfg": false,
      "metar_trigger": false,
      "taf_trigger": false,
      "metar": "METAR LIBP 030920Z AUTO 05005KT 9999 SCT150/// BKN170/// 10/05 Q1008",
      "taf": "TAF LIBP 030500Z 0306/0406 VRB05KT 9999 SCT050"
    },
    {
      "icao": "LIBR",
      "alert": "OK",
      "vis_m": 9999,
      "fzfg": false,
      "metar_trigger": false,
      "taf_trigger": false,
      "metar": "METAR LIBR 030920Z 18013KT 9999 SCT020 15/12 Q1013",
      "taf": "TAF LIBR 030500Z 0306/0406 16010KT 9999 FEW030"
    },
    {
      "icao": "LICA",
      "alert": "OK",
      "vis_m": 9999,
      "fzfg": false,
      "metar_trigger": false,
      "taf_trigger": false,
      "metar": "METAR LICA 030920Z AUTO 09015KT 9999 NCD 15/10 Q1012",
      "taf": "TAF LICA 030500Z 0306/0406 07013KT 9999 SCT025"
    },
    {
      "icao": "LICC",
      "alert": "OK",
      "vis_m": 9999,
      "fzfg": false,
      "metar_trigger": false,
      "taf_trigger": false,
      "metar": "METAR LICC 030920Z 22008KT CAVOK 13/10 Q1014",
      "taf": "TAF LICC 030500Z 0306/0406 24014KT 9999 FEW030"
    },
    {
      "icao": "LICJ",
      "alert": "OK",
      "vis_m": 9999,
      "fzfg": false,
      "metar_trigger": false,
      "taf_trigger": false,
      "metar": "METAR LICJ 030920Z 21016KT CAVOK 18/07 Q1010",
      "taf": "TAF LICJ 030500Z 0306/0406 18018G28KT 9999 SCT030"
    },
    {
      "icao": "LIMC",
      "alert": "OK",
      "vis_m": 4000,
      "fzfg": false,
      "metar_trigger": false,
      "taf_trigger": false,
      "metar": "METAR LIMC 030920Z VRB02KT 4000 -RA BR FEW010 BKN030 02/02 Q1007 NOSIG",
      "taf": "TAF LIMC 030500Z 0306/0412 VRB05KT 3000 RA BKN010"
    },
    {
      "icao": "LIME",
      "alert": "OK",
      "vis_m": 5000,
      "fzfg": false,
      "metar_trigger": false,
      "taf_trigger": false,
      "metar": "METAR LIME 030920Z 24004KT 5000 BR SCT005 BKN020 04/04 Q1006 NOSIG",
      "taf": "TAF LIME 030500Z 0306/0406 VRB05KT 4000 RA BKN020"
    },
    {
      "icao": "LIMF",
      "alert": "OK",
      "vis_m": 6000,
      "fzfg": false,
      "metar_trigger": false,
      "taf_trigger": false,
      "metar": "METAR LIMF 030920Z VRB02KT 6000 SCT030 03/01 Q1006",
      "taf": "TAF LIMF 030500Z 0306/0406 VRB05KT 2000 SNRA BKN015"
    },
    {
      "icao": "LIMJ",
      "alert": "OK",
      "vis_m": 9999,
      "fzfg": false,
      "metar_trigger": false,
      "taf_trigger": false,
      "metar": "METAR LIMJ 030920Z 04014KT 9999 SCT038 SCT050 06/02 Q1005",
      "taf": "TAF LIMJ 030500Z 0306/0406 04015KT 4000 RA SCT020 BKN030"
    },
    {
      "icao": "LIPE",
      "alert": "OK",
      "vis_m": 3500,
      "fzfg": false,
      "metar_trigger": false,
      "taf_trigger": false,
      "metar": "METAR LIPE 030920Z 27012KT 3500 -RA BR BKN004 BKN008 05/05 Q1006",
      "taf": "TAF LIPE 030500Z 0306/0406 VRB05KT 6000 BKN015"
    },
    {
      "icao": "LIPH",
      "alert": "OK",
      "vis_m": 3000,
      "fzfg": false,
      "metar_trigger": false,
      "taf_trigger": false,
      "metar": "METAR LIPH 030920Z 05008KT 3000 -RA BR BKN004 BKN015 06/06 Q1006 RERA",
      "taf": "TAF LIPH 030500Z 0306/0406 05010KT 5000 RA SCT010 BKN020"
    },
    {
      "icao": "LIPQ",
      "alert": "OK",
      "vis_m": 6000,
      "fzfg": false,
      "metar_trigger": false,
      "taf_trigger": false,
      "metar": "METAR LIPQ 030920Z AUTO 03005KT 6000 RA OVC011/// 07/06 Q1007",
      "taf": "TAF LIPQ 030500Z 0306/0406 05006KT 4000 RA BKN020"
    },
    {
      "icao": "LIPR",
      "alert": "OK",
      "vis_m": 9999,
      "fzfg": false,
      "metar_trigger": false,
      "taf_trigger": false,
      "metar": "METAR LIPR 030920Z 16006KT 120V200 9999 SCT035 13/07 Q1005",
      "taf": "TAF LIPR 030500Z 0306/0406 14010KT 9999 BKN040"
    },
    {
      "icao": "LIPX",
      "alert": "OK",
      "vis_m": 6000,
      "fzfg": false,
      "metar_trigger": false,
      "taf_trigger": false,
      "metar": "METAR LIPX 030920Z 27006KT 6000 -DZ SCT010 BKN020 BKN030 06/06 Q1006 RERA",
      "taf": "TAF LIPX 030500Z 0306/0406 08010KT 4000 RA BKN030"
    },
    {
      "icao": "LIPY",
      "alert": "OK",
      "vis_m": 9999,
      "fzfg": false,
      "metar_trigger": false,
      "taf_trigger": false,
      "metar": "METAR LIPY 030920Z AUTO 15007KT 120V180 9999 SCT055/// BKN110/// 12/04 Q1007",
      "taf": "TAF LIPY 030500Z 0306/0406 15010KT 9999 BKN050"
    },
    {
      "icao": "LIPZ",
      "alert": "OK",
      "vis_m": 6000,
      "fzfg": false,
      "metar_trigger": false,
      "taf_trigger": false,
      "metar": "METAR LIPZ 030920Z 05012KT 6000 -RA BKN004 BKN015 06/06 Q1006 WS R04R NOSIG",
      "taf": "TAF LIPZ 030500Z 0306/0412 05012KT 5000 RA SCT010 BKN020"
    },
    {
      "icao": "LIRF",
      "alert": "OK",
      "vis_m": 9999,
      "fzfg": false,
      "metar_trigger": false,
      "taf_trigger": false,
      "metar": "METAR LIRF 030920Z 14017KT 9999 FEW030 SCT050 14/10 Q1009 NOSIG",
      "taf": "TAF LIRF 030500Z 0306/0412 15015KT 9999 SCT030"
    },
    {
      "icao": "LIRN",
      "alert": "OK",
      "vis_m": 9999,
      "fzfg": false,
      "metar_trigger": false,
      "taf_trigger": false,
      "metar": "METAR LIRN 030920Z VRB01KT 9999 SCT075 16/07 Q1011 NOSIG",
      "taf": "TAF LIRN 030500Z 0306/0406 18012KT 9999 SCT030"
    },
    {
      "icao": "LIRP",
      "alert": "OK",
      "vis_m": 9999,
      "fzfg": false,
      "metar_trigger": false,
      "taf_trigger": false,
      "metar": "METAR LIRP 030915Z 25004KT 9999 RA FEW020TCU BKN023 12/12 Q1005 NOSIG",
      "taf": "TAF LIRP 030500Z 0306/0406 13010KT 9999 RA FEW020 SCT050"
    },
    {
      "icao": "LIRZ",
      "alert": "OK",
      "vis_m": 9999,
      "fzfg": false,
      "metar_trigger": false,
      "taf_trigger": false,
      "metar": "METAR LIRZ 030920Z AUTO 16004KT 9999 OVC033/// 12/07 Q1008",
      "taf": "TAF LIRZ 030500Z 0306/0406 18010KT 9999 BKN035"
    },
    {
      "icao": "LJLJ",
      "alert": "OK",
      "vis_m": 3000,
      "fzfg": false,
      "metar_trigger": false,
      "taf_trigger": false,
      "metar": "METAR LJLJ 030930Z 07003KT 030V100 3000 -RA BR SCT002 OVC023 02/01 Q1008 NOSIG",
      "taf": "TAF LJLJ 030500Z 0306/0406 11002KT 3000 -RA BR SCT002 BKN005 OVC020"
    },
    {
      "icao": "LKMT",
      "alert": "OK",
      "vis_m": 9000,
      "fzfg": false,
      "metar_trigger": false,
      "taf_trigger": false,
      "metar": "METAR LKMT 030930Z 03007KT 9000 BKN035 OVC044 M07/M10 Q1012 NOSIG",
      "taf": "TAF LKMT 030500Z 0306/0406 02010KT 9999 BKN035"
    },
    {
      "icao": "LKPR",
      "alert": "OK",
      "vis_m": 9999,
      "fzfg": false,
      "metar_trigger": false,
      "taf_trigger": false,
      "metar": "METAR LKPR 030930Z 11011KT 9999 SCT010 OVC016 M00/M02 Q1005 NOSIG",
      "taf": "TAF LKPR 030800Z 0309/0415 10010KT 6000 SCT007 OVC014"
    },
    {
      "icao": "LLBG",
      "alert": "OK",
      "vis_m": 9999,
      "fzfg": false,
      "metar_trigger": false,
      "taf_trigger": false,
      "metar": "METAR LLBG 030920Z 22005KT 9999 SCT022 SCT050 16/11 Q1019 TEMPO RA BKN020 RMK RERA",
      "taf": "TAF LLBG 030506Z 0306/0406 16008KT 8000 SCT030"
    },
    {
      "icao": "LMML",
      "alert": "OK",
      "vis_m": 9999,
      "fzfg": false,
      "metar_trigger": false,
      "taf_trigger": false,
      "metar": "METAR LMML 030915Z 17014KT CAVOK 17/14 Q1014 NOSIG",
      "taf": "TAF LMML 030500Z 0306/0406 19015KT CAVOK"
    },
    {
      "icao": "LOWW",
      "alert": "OK",
      "vis_m": 9999,
      "fzfg": false,
      "metar_trigger": false,
      "taf_trigger": false,
      "metar": "METAR LOWW 030920Z 12013KT 9999 FEW009 BKN010 M01/M03 Q1008 NOSIG",
      "taf": "TAF LOWW 030815Z 0309/0415 12015KT 9999 BKN012 TX01/0414Z TNM01/0309Z"
    },
    {
      "icao": "LPFR",
      "alert": "OK",
      "vis_m": 9999,
      "fzfg": false,
      "metar_trigger": false,
      "taf_trigger": false,
      "metar": "METAR LPFR 030930Z 30007KT 9999 FEW015 FEW018CB 11/09 Q1006",
      "taf": "TAF LPFR 030500Z 0306/0406 28013KT 9999 FEW015 SCT030"
    },
    {
      "icao": "LPMA",
      "alert": "OK",
      "vis_m": 9999,
      "fzfg": false,
      "metar_trigger": false,
      "taf_trigger": false,
      "metar": "METAR LPMA 030930Z 28004KT 250V310 9999 FEW015 16/08 Q1016",
      "taf": "TAF LPMA 030500Z 0306/0406 VRB05KT 9999 SCT015"
    },
    {
      "icao": "LPPR",
      "alert": "OK",
      "vis_m": 8000,
      "fzfg": false,
      "metar_trigger": false,
      "taf_trigger": false,
      "metar": "METAR LPPR 030930Z 20007KT 8000 -SHRA FEW015 FEW020CB BKN025 10/08 Q0998 RESHRA",
      "taf": "TAF LPPR 030500Z 0306/0406 22012KT 9999 FEW015 SCT030"
    },
    {
      "icao": "LPPS",
      "alert": "OK",
      "vis_m": 9999,
      "fzfg": false,
      "metar_trigger": false,
      "taf_trigger": false,
      "metar": "METAR LPPS 030930Z 28016KT 9999 FEW014 16/11 Q1016",
      "taf": "TAF LPPS 030500Z 0306/0412 30017KT 9999 SCT015"
    },
    {
      "icao": "LPPT",
      "alert": "OK",
      "vis_m": 9999,
      "fzfg": false,
      "metar_trigger": false,
      "taf_trigger": false,
      "metar": "METAR LPPT 030930Z 25007KT 220V280 9999 FEW025 FEW030TCU 09/08 Q1003 RESHRA",
      "taf": "TAF LPPT 030500Z 0306/0412 23008KT 9999 FEW015 SCT030"
    },
    {
      "icao": "LQBK",
      "alert": "OK",
      "vis_m": 8000,
      "fzfg": false,
      "metar_trigger": false,
      "taf_trigger": false,
      "metar": "METAR LQBK 030930Z 03003KT 360V060 8000 NSC 02/00 Q1010 NOSIG",
      "taf": ""
    },
    {
      "icao": "LQSA",
      "alert": "OK",
      "vis_m": 9999,
      "fzfg": false,
      "metar_trigger": false,
      "taf_trigger": false,
      "metar": "METAR LQSA 030930Z 27003KT 240V320 9999 FEW050 05/03 Q1011 TEMPO 15012KT",
      "taf": "TAF LQSA 030500Z 0306/0406 10008KT 9999 SCT050 TX13/0313Z TNM02/0306Z"
    },
    {
      "icao": "LQTZ",
      "alert": "OK",
      "vis_m": 9999,
      "fzfg": false,
      "metar_trigger": false,
      "taf_trigger": false,
      "metar": "METAR LQTZ 030930Z 12010KT CAVOK 09/04 Q1011",
      "taf": "TAF LQTZ 030500Z 0306/0406 06005KT CAVOK TX13/0314Z TNM02/0306Z"
    },
    {
      "icao": "LRBC",
      "alert": "OK",
      "vis_m": 9999,
      "fzfg": false,
      "metar_trigger": false,
      "taf_trigger": false,
      "metar": "METAR LRBC 030930Z 15010KT 9999 SCT064 M05/M12 Q1020",
      "taf": "TAF LRBC 030800Z 0309/0318 16010KT CAVOK"
    },
    {
      "icao": "LRBS",
      "alert": "OK",
      "vis_m": 9999,
      "fzfg": false,
      "metar_trigger": false,
      "taf_trigger": false,
      "metar": "METAR LRBS 030930Z 22004KT 150V300 CAVOK M02/M11 Q1022 NOSIG",
      "taf": "TAF LRBS 030500Z 0306/0406 23005KT 5000 BR NSC"
    },
    {
      "icao": "LRBV",
      "alert": "OK",
      "vis_m": 9999,
      "fzfg": false,
      "metar_trigger": false,
      "taf_trigger": false,
      "metar": "METAR LRBV 030930Z 13002KT CAVOK M00/M06 Q1015",
      "taf": "TAF LRBV 030800Z 0309/0318 VRB04KT CAVOK"
    },
    {
      "icao": "LRCL",
      "alert": "OK",
      "vis_m": 9999,
      "fzfg": false,
      "metar_trigger": false,
      "taf_trigger": false,
      "metar": "METAR LRCL 030930Z 14005KT 120V180 9999 BKN010 01/M02 Q1016",
      "taf": "TAF LRCL 030800Z 0309/0318 VRB04KT 9999 OVC010"
    },
    {
      "icao": "LRCV",
      "alert": "OK",
      "vis_m": 9999,
      "fzfg": false,
      "metar_trigger": false,
      "taf_trigger": false,
      "metar": "METAR LRCV 030930Z VRB01KT 9999 OVC026 M05/M09 Q1021",
      "taf": "TAF LRCV 030800Z 0309/0318 VRB04KT 9999 BKN030"
    },
    {
      "icao": "LRIA",
      "alert": "OK",
      "vis_m": 9999,
      "fzfg": false,
      "metar_trigger": false,
      "taf_trigger": false,
      "metar": "METAR LRIA 030930Z 10008KT 9999 BKN045 M07/M14 Q1021",
      "taf": "TAF LRIA 030800Z 0309/0318 11009KT CAVOK"
    },
    {
      "icao": "LROP",
      "alert": "OK",
      "vis_m": 9999,
      "fzfg": false,
      "metar_trigger": false,
      "taf_trigger": false,
      "metar": "METAR LROP 030930Z 28006KT 240V300 CAVOK M02/M14 Q1022 NOSIG",
      "taf": "TAF LROP 030500Z 0306/0406 23005KT 5000 BR NSC"
    },
    {
      "icao": "LRSB",
      "alert": "OK",
      "vis_m": 9999,
      "fzfg": false,
      "metar_trigger": false,
      "taf_trigger": false,
      "metar": "METAR LRSB 030930Z 17004KT 150V210 CAVOK 01/M05 Q1015",
      "taf": "TAF LRSB 030500Z 0306/0406 VRB04KT CAVOK"
    },
    {
      "icao": "LRSM",
      "alert": "OK",
      "vis_m": 9999,
      "fzfg": false,
      "metar_trigger": false,
      "taf_trigger": false,
      "metar": "METAR LRSM 030930Z 09006KT CAVOK 02/M00 Q1017",
      "taf": "TAF LRSM 030800Z 0309/0318 VRB04KT 9999 BKN040"
    },
    {
      "icao": "LRSV",
      "alert": "OK",
      "vis_m": 9999,
      "fzfg": false,
      "metar_trigger": false,
      "taf_trigger": false,
      "metar": "METAR LRSV 030930Z 14006KT 9999 BKN044 M07/M11 Q1017",
      "taf": "TAF LRSV 030800Z 0309/0318 11008KT 9999 BKN045"
    },
    {
      "icao": "LRTM",
      "alert": "OK",
      "vis_m": 9999,
      "fzfg": false,
      "metar_trigger": false,
      "taf_trigger": false,
      "metar": "METAR LRTM 030930Z VRB02KT 9999 SCT022 02/M01 Q1016",
      "taf": "TAF LRTM 030800Z 0309/0318 VRB04KT CAVOK"
    },
    {
      "icao": "LRTR",
      "alert": "OK",
      "vis_m": 9999,
      "fzfg": false,
      "metar_trigger": false,
      "taf_trigger": false,
      "metar": "METAR LRTR 030930Z 10010KT CAVOK 01/M01 Q1016 NOSIG",
      "taf": "TAF LRTR 030500Z 0306/0406 10010KT 9999 BKN045"
    },
    {
      "icao": "LTAC",
      "alert": "OK",
      "vis_m": 9999,
      "fzfg": false,
      "metar_trigger": false,
      "taf_trigger": false,
      "metar": "METAR LTAC 030920Z 31010KT 270V010 9999 BKN035 04/M02 Q1016 NOSIG",
      "taf": "TAF LTAC 030440Z 0306/0406 VRB02KT 9999 SCT040 BKN100"
    },
    {
      "icao": "LTFM",
      "alert": "OK",
      "vis_m": 9999,
      "fzfg": false,
      "metar_trigger": false,
      "taf_trigger": false,
      "metar": "METAR LTFM 030920Z 03004KT 310V070 9999 BKN013 BKN028 03/M01 Q1022 NOSIG",
      "taf": "TAF LTFM 030440Z 0306/0412 36010KT 9999 BKN012 BKN028"
    },
    {
      "icao": "LUKK",
      "alert": "OK",
      "vis_m": 9999,
      "fzfg": false,
      "metar_trigger": false,
      "taf_trigger": false,
      "metar": "METAR LUKK 030930Z 12003KT 050V190 CAVOK M08/M15 Q1022 NOSIG",
      "taf": "TAF LUKK 030506Z 0306/0406 VRB06KT CAVOK"
    },
    {
      "icao": "LWOH",
      "alert": "OK",
      "vis_m": 9999,
      "fzfg": false,
      "metar_trigger": false,
      "taf_trigger": false,
      "metar": "METAR LWOH 030920Z VRB01KT 9999 SCT040 07/03 Q1017",
      "taf": "TAF LWOH 030840Z 0309/0409 VRB02KT 9999 SCT040"
    },
    {
      "icao": "LWSK",
      "alert": "OK",
      "vis_m": 9999,
      "fzfg": false,
      "metar_trigger": false,
      "taf_trigger": false,
      "metar": "METAR LWSK 030920Z VRB01KT 9999 OVC022 03/M01 Q1020 NOSIG",
      "taf": "TAF LWSK 030840Z 0309/0409 VRB02KT 9999 BKN020"
    },
    {
      "icao": "LYBE",
      "alert": "OK",
      "vis_m": 9999,
      "fzfg": false,
      "metar_trigger": false,
      "taf_trigger": false,
      "metar": "METAR LYBE 030930Z 10006KT CAVOK 03/M03 Q1014 NOSIG",
      "taf": "TAF LYBE 030500Z 0306/0406 10008KT CAVOK TX07/0313Z TNM03/0306Z"
    },
    {
      "icao": "LYNI",
      "alert": "OK",
      "vis_m": 9999,
      "fzfg": false,
      "metar_trigger": false,
      "taf_trigger": false,
      "metar": "METAR LYNI 030930Z 20003KT 130V270 CAVOK 03/M01 Q1017 NOSIG",
      "taf": "TAF LYNI 030500Z 0306/0406 08006KT CAVOK TX06/0313Z TNM03/0306Z"
    },
    {
      "icao": "LYPG",
      "alert": "OK",
      "vis_m": 9000,
      "fzfg": false,
      "metar_trigger": false,
      "taf_trigger": false,
      "metar": "METAR LYPG 030930Z VRB01KT 9000 FEW034 BKN050 BKN080 07/05 Q1017 NOSIG",
      "taf": "TAF LYPG 030500Z 0306/0406 36005KT 9999 FEW020 BKN043 BKN080 TX12/0316Z TN04/0306Z"
    },
    {
      "icao": "LZIB",
      "alert": "OK",
      "vis_m": 9999,
      "fzfg": false,
      "metar_trigger": false,
      "taf_trigger": false,
      "metar": "METAR LZIB 030930Z 09013KT 9999 FEW009 OVC011 M01/M03 Q1011 TEMPO OVC009",
      "taf": ""
    },
    {
      "icao": "LZKZ",
      "alert": "OK",
      "vis_m": 9999,
      "fzfg": false,
      "metar_trigger": false,
      "taf_trigger": false,
      "metar": "METAR LZKZ 030930Z VRB02KT 9999 -SN OVC018 M02/M04 Q1016 NOSIG",
      "taf": "TAF LZKZ 030515Z 0306/0406 VRB02KT 9999 BKN017"
    },
    {
      "icao": "LZTT",
      "alert": "OK",
      "vis_m": 9999,
      "fzfg": false,
      "metar_trigger": false,
      "taf_trigger": false,
      "metar": "METAR LZTT 030930Z VRB03KT 9999 -SN FEW009 BKN033 M02/M04 Q1011 TEMPO BKN013 OVC026",
      "taf": "TAF LZTT 030515Z 0306/0406 17004KT 9999 OVC020"
    },
    {
      "icao": "OEJN",
      "alert": "OK",
      "vis_m": 9999,
      "fzfg": false,
      "metar_trigger": false,
      "taf_trigger": false,
      "metar": "METAR OEJN 030900Z 30004KT CAVOK 30/16 Q1015 NOSIG",
      "taf": "TAF OEJN 030500Z 0306/0412 33012KT 7000 SCT040"
    },
    {
      "icao": "OEMA",
      "alert": "OK",
      "vis_m": 9999,
      "fzfg": false,
      "metar_trigger": false,
      "taf_trigger": false,
      "metar": "METAR OEMA 030900Z 29007KT CAVOK 26/11 Q1018 NOSIG",
      "taf": "TAF OEMA 030500Z 0306/0412 30012KT 7000 NSC"
    },
    {
      "icao": "OJAI",
      "alert": "OK",
      "vis_m": 3000,
      "fzfg": false,
      "metar_trigger": false,
      "taf_trigger": false,
      "metar": "METAR OJAI 030900Z 25021KT 3000 -DZ SCT025 SCT030 12/08 Q1019 NOSIG",
      "taf": ""
    },
    {
      "icao": "OMAA",
      "alert": "OK",
      "vis_m": 9999,
      "fzfg": false,
      "metar_trigger": false,
      "taf_trigger": false,
      "metar": "METAR OMAA 030930Z 11004KT 020V170 CAVOK 28/M01 Q1016 BECMG 35010KT",
      "taf": "TAF OMAA 030500Z 0306/0412 20005KT 8000 NSC"
    },
    {
      "icao": "OMDB",
      "alert": "OK",
      "vis_m": 9999,
      "fzfg": false,
      "metar_trigger": false,
      "taf_trigger": false,
      "metar": "METAR OMDB 030930Z VRB03KT CAVOK 28/09 Q1016 BECMG 30010KT",
      "taf": "TAF OMDB 030500Z 0306/0412 VRB02KT 4000 HZ NSC"
    },
    {
      "icao": "UAAA",
      "alert": "OK",
      "vis_m": 9999,
      "fzfg": false,
      "metar_trigger": false,
      "taf_trigger": false,
      "metar": "METAR UAAA 030930Z 30004MPS 9999 SCT050 BKN100 09/03 Q1018 NOSIG",
      "taf": "TAF UAAA 030505Z 0306/0406 22003MPS 9999 SCT050CB BKN100 TX09/0309Z TNM01/0402Z"
    },
    {
      "icao": "UBBB",
      "alert": "OK",
      "vis_m": 8000,
      "fzfg": false,
      "metar_trigger": false,
      "taf_trigger": false,
      "metar": "METAR UBBB 030930Z 32014KT 8000 OVC008 07/05 Q1008 NOSIG",
      "taf": ""
    },
    {
      "icao": "UDSG",
      "alert": "OK",
      "vis_m": 5000,
      "fzfg": false,
      "metar_trigger": false,
      "taf_trigger": false,
      "metar": "METAR UDSG 030930Z 17002KT 5000 BR OVC026 03/03 Q1011 NOSIG",
      "taf": "TAF UDSG 030458Z 0306/0406 VRB06KT 5000 BR OVC030"
    },
    {
      "icao": "UDYZ",
      "alert": "OK",
      "vis_m": 1800,
      "fzfg": false,
      "metar_trigger": false,
      "taf_trigger": false,
      "metar": "METAR UDYZ 030930Z 25005KT 1800 R08/1800U BR BKN036CB 04/03 Q1010 NOSIG",
      "taf": "TAF UDYZ 030500Z 0306/0406 24006KT 1500 BR BKN020"
    },
    {
      "icao": "UGKO",
      "alert": "OK",
      "vis_m": 9999,
      "fzfg": false,
      "metar_trigger": false,
      "taf_trigger": false,
      "metar": "METAR UGKO 030930Z 24018KT 9999 -RA SCT016 BKN038 10/07 Q1011 NOSIG",
      "taf": "TAF UGKO 030500Z 0306/0406 09007KT 9999 BKN050 TX11/0311Z TN04/0403Z"
    }
  ]
}