{
  "ts_utc": "2026-03-21T23:17:30Z",
  "threshold_m": 150,
  "source": "stations_override.txt (ICAO list) + aviationweather.gov (METAR/TAF raw)",
  "station_count": 159,
  "stations": [
    {
      "icao": "BIKF",
      "alert": "OK",
      "vis_m": 6000,
      "fzfg": false,
      "metar_trigger": false,
      "taf_trigger": false,
      "metar": "METAR BIKF 212300Z 31012KT 6000 -SN BKN003 BKN015 BKN054 M01/M02 Q0983",
      "taf": "TAF BIKF 212245Z 2200/2300 30008KT 5000 -SN BKN014 OVC025 TX00/2216Z TNM03/2209Z"
    },
    {
      "icao": "BKPR",
      "alert": "OK",
      "vis_m": 9999,
      "fzfg": false,
      "metar_trigger": false,
      "taf_trigger": false,
      "metar": "METAR BKPR 212300Z 34006KT 9999 BKN070 05/M02 Q1013 NOSIG",
      "taf": ""
    },
    {
      "icao": "EBCI",
      "alert": "OK",
      "vis_m": 9999,
      "fzfg": false,
      "metar_trigger": false,
      "taf_trigger": false,
      "metar": "METAR EBCI 212250Z 06005KT CAVOK 04/03 Q1015 NOSIG",
      "taf": "TAF EBCI 211712Z 2118/2224 05005KT CAVOK"
    },
    {
      "icao": "EDDB",
      "alert": "OK",
      "vis_m": 9999,
      "fzfg": false,
      "metar_trigger": false,
      "taf_trigger": false,
      "metar": "METAR EDDB 212250Z AUTO 09007KT CAVOK 03/M02 Q1021 NOSIG",
      "taf": ""
    },
    {
      "icao": "EDDH",
      "alert": "OK",
      "vis_m": 5000,
      "fzfg": false,
      "metar_trigger": false,
      "taf_trigger": false,
      "metar": "METAR EDDH 212250Z AUTO 06006KT 5000 BR BKN003 03/02 Q1021 TEMPO 3500 OVC001",
      "taf": ""
    },
    {
      "icao": "EDDK",
      "alert": "OK",
      "vis_m": 9999,
      "fzfg": false,
      "metar_trigger": false,
      "taf_trigger": false,
      "metar": "METAR EDDK 212250Z AUTO 10005KT 060V130 CAVOK 08/03 Q1016 NOSIG",
      "taf": ""
    },
    {
      "icao": "EDDN",
      "alert": "OK",
      "vis_m": 9999,
      "fzfg": false,
      "metar_trigger": false,
      "taf_trigger": false,
      "metar": "METAR EDDN 212250Z AUTO 08006KT 050V120 CAVOK 05/02 Q1015",
      "taf": ""
    },
    {
      "icao": "EDDS",
      "alert": "OK",
      "vis_m": 9999,
      "fzfg": false,
      "metar_trigger": false,
      "taf_trigger": false,
      "metar": "METAR EDDS 212250Z AUTO 04004KT CAVOK 06/04 Q1013",
      "taf": ""
    },
    {
      "icao": "EDFH",
      "alert": "OK",
      "vis_m": 9999,
      "fzfg": false,
      "metar_trigger": false,
      "taf_trigger": false,
      "metar": "METAR EDFH 212250Z 09005KT 040V150 CAVOK 05/02 Q1014",
      "taf": ""
    },
    {
      "icao": "EDJA",
      "alert": "OK",
      "vis_m": 8000,
      "fzfg": false,
      "metar_trigger": false,
      "taf_trigger": false,
      "metar": "METAR EDJA 212250Z AUTO 05006KT 8000 // BKN089/// 03/01 Q1012",
      "taf": "TAF EDJA 211700Z 2118/2203 05006KT CAVOK"
    },
    {
      "icao": "EDLW",
      "alert": "OK",
      "vis_m": 9999,
      "fzfg": false,
      "metar_trigger": false,
      "taf_trigger": false,
      "metar": "METAR EDLW 212250Z AUTO 08007KT 9999 // FEW076/// 05/03 Q1016",
      "taf": "TAF EDLW 211700Z 2118/2218 06006KT CAVOK"
    },
    {
      "icao": "EDNY",
      "alert": "OK",
      "vis_m": 9999,
      "fzfg": false,
      "metar_trigger": false,
      "taf_trigger": false,
      "metar": "METAR EDNY 212250Z AUTO 03007KT 9999 // BKN099/// 06/02 Q1012",
      "taf": "TAF EDNY 211700Z 2118/2203 03005KT 9999 SCT050"
    },
    {
      "icao": "EDSB",
      "alert": "OK",
      "vis_m": 9999,
      "fzfg": false,
      "metar_trigger": false,
      "taf_trigger": false,
      "metar": "METAR EDSB 212250Z 04007KT 9999 VCSH BKN047 08/06 Q1013",
      "taf": ""
    },
    {
      "icao": "EETN",
      "alert": "OK",
      "vis_m": 9999,
      "fzfg": false,
      "metar_trigger": false,
      "taf_trigger": false,
      "metar": "METAR EETN 212250Z 22008KT CAVOK 03/M03 Q1021",
      "taf": "TAF EETN 211730Z 2118/2218 22012KT CAVOK"
    },
    {
      "icao": "EFTU",
      "alert": "OK",
      "vis_m": 9999,
      "fzfg": false,
      "metar_trigger": false,
      "taf_trigger": false,
      "metar": "METAR EFTU 212250Z AUTO 21008KT CAVOK 04/M01 Q1017",
      "taf": "TAF EFTU 212021Z 2121/2221 20007KT CAVOK"
    },
    {
      "icao": "EGBB",
      "alert": "OK",
      "vis_m": 9999,
      "fzfg": false,
      "metar_trigger": false,
      "taf_trigger": false,
      "metar": "METAR EGBB 212250Z 15003KT CAVOK 04/02 Q1017",
      "taf": "TAF EGBB 212255Z 2200/2224 16004KT CAVOK"
    },
    {
      "icao": "EGGP",
      "alert": "OK",
      "vis_m": 6000,
      "fzfg": false,
      "metar_trigger": false,
      "taf_trigger": false,
      "metar": "METAR EGGP 212250Z 20001KT 6000 NSC 07/05 Q1017",
      "taf": "TAF EGGP 212254Z 2200/2224 VRB03KT 8000 NSC"
    },
    {
      "icao": "EGGW",
      "alert": "OK",
      "vis_m": 9999,
      "fzfg": false,
      "metar_trigger": false,
      "taf_trigger": false,
      "metar": "METAR EGGW 212250Z AUTO 12003KT 9999 NCD 04/01 Q1017",
      "taf": "TAF EGGW 212256Z 2200/2224 13004KT 9999 FEW025"
    },
    {
      "icao": "EGKK",
      "alert": "OK",
      "vis_m": 9999,
      "fzfg": false,
      "metar_trigger": false,
      "taf_trigger": false,
      "metar": "METAR EGKK 212250Z VRB02KT CAVOK 05/02 Q1017",
      "taf": "TAF EGKK 212256Z 2200/2306 05003KT 9999 FEW030"
    },
    {
      "icao": "EGNM",
      "alert": "OK",
      "vis_m": 5000,
      "fzfg": false,
      "metar_trigger": false,
      "taf_trigger": false,
      "metar": "METAR EGNM 212220Z 15003KT 5000 HZ SCT022 08/05 Q1017",
      "taf": "TAF EGNM 212254Z 2200/2224 16005KT 3000 BR NSC"
    },
    {
      "icao": "EGPD",
      "alert": "OK",
      "vis_m": 9999,
      "fzfg": false,
      "metar_trigger": false,
      "taf_trigger": false,
      "metar": "METAR EGPD 212250Z COR AUTO 16003KT 080V250 9999 NCD 09/04 Q1012 NOSIG",
      "taf": "TAF EGPD 212258Z 2200/2224 18009KT 9999 FEW040"
    },
    {
      "icao": "EGPF",
      "alert": "OK",
      "vis_m": 2300,
      "fzfg": false,
      "metar_trigger": false,
      "taf_trigger": false,
      "metar": "METAR EGPF 212250Z AUTO VRB01KT 2300 BR NCD 04/04 Q1015",
      "taf": "TAF EGPF 212300Z 2200/2224 22005KT 2000 BR FEW030"
    },
    {
      "icao": "EHBK",
      "alert": "OK",
      "vis_m": 6000,
      "fzfg": false,
      "metar_trigger": false,
      "taf_trigger": false,
      "metar": "METAR EHBK 212255Z AUTO 05006KT 6000 NCD 04/03 Q1015",
      "taf": "TAF EHBK 211721Z 2118/2224 05007KT CAVOK"
    },
    {
      "icao": "EHEH",
      "alert": "OK",
      "vis_m": 6000,
      "fzfg": false,
      "metar_trigger": false,
      "taf_trigger": false,
      "metar": "METAR EHEH 212255Z AUTO 01005KT 6000 BR NCD 04/03 Q1016 WHT",
      "taf": "TAF EHEH 211715Z 2118/2224 05010KT CAVOK"
    },
    {
      "icao": "EKBI",
      "alert": "OK",
      "vis_m": 7000,
      "fzfg": false,
      "metar_trigger": false,
      "taf_trigger": false,
      "metar": "METAR EKBI 212250Z AUTO 15006KT 110V170 7000 OVC005/// 04/03 Q1022",
      "taf": "TAF EKBI 212027Z 2121/2221 14005KT 9000 BKN008"
    },
    {
      "icao": "EKCH",
      "alert": "OK",
      "vis_m": 9999,
      "fzfg": false,
      "metar_trigger": false,
      "taf_trigger": false,
      "metar": "METAR EKCH 212250Z AUTO 13005KT 9999 NCD 03/M01 Q1023 NOSIG",
      "taf": "TAF EKCH 212027Z 2121/2221 17005KT CAVOK"
    },
    {
      "icao": "ENAL",
      "alert": "OK",
      "vis_m": 9999,
      "fzfg": false,
      "metar_trigger": false,
      "taf_trigger": false,
      "metar": "METAR ENAL 212250Z 23007KT 9999 -DZRA SCT025 BKN029 06/05 Q1011",
      "taf": "TAF ENAL 212000Z 2121/2206 22007KT 9999 FEW020 SCT040"
    },
    {
      "icao": "ENBR",
      "alert": "OK",
      "vis_m": 9999,
      "fzfg": false,
      "metar_trigger": false,
      "taf_trigger": false,
      "metar": "METAR ENBR 212250Z 16017KT 9999 BKN005 04/04 Q1015 RMK WIND 1200FT 17021KT",
      "taf": ""
    },
    {
      "icao": "ENGM",
      "alert": "OK",
      "vis_m": 9999,
      "fzfg": false,
      "metar_trigger": false,
      "taf_trigger": false,
      "metar": "METAR ENGM 212250Z 20009KT 9999 BKN005 03/01 Q1016",
      "taf": ""
    },
    {
      "icao": "ENHD",
      "alert": "OK",
      "vis_m": 4100,
      "fzfg": false,
      "metar_trigger": false,
      "taf_trigger": false,
      "metar": "METAR ENHD 212250Z AUTO 15014KT 120V180 4100 BR SCT002/// OVC005/// 04/04 Q1016",
      "taf": ""
    },
    {
      "icao": "ENTC",
      "alert": "OK",
      "vis_m": 1500,
      "fzfg": false,
      "metar_trigger": false,
      "taf_trigger": false,
      "metar": "METAR ENTC 212250Z 21019KT 1500 R36/P2000N R18/P2000N -SN VV010 00/M00 Q0997 RMK WIND 2600FT 25031G45KT",
      "taf": ""
    },
    {
      "icao": "ENTO",
      "alert": "OK",
      "vis_m": 9999,
      "fzfg": false,
      "metar_trigger": false,
      "taf_trigger": false,
      "metar": "METAR ENTO 212250Z AUTO 21009KT 9999 NCD 04/02 Q1018",
      "taf": ""
    },
    {
      "icao": "ENVA",
      "alert": "OK",
      "vis_m": 9999,
      "fzfg": false,
      "metar_trigger": false,
      "taf_trigger": false,
      "metar": "METAR ENVA 212250Z 11005KT 9999 BKN045 03/03 Q1012 RMK WIND 670FT 14008KT",
      "taf": "TAF ENVA 211700Z 2118/2218 25010KT 9999 FEW012 BKN030"
    },
    {
      "icao": "ENZV",
      "alert": "OK",
      "vis_m": 9999,
      "fzfg": false,
      "metar_trigger": false,
      "taf_trigger": false,
      "metar": "METAR ENZV 212250Z 17014KT 9999 BKN008 05/03 Q1017",
      "taf": ""
    },
    {
      "icao": "EPGD",
      "alert": "OK",
      "vis_m": 9999,
      "fzfg": false,
      "metar_trigger": false,
      "taf_trigger": false,
      "metar": "METAR EPGD 212300Z VRB01KT CAVOK M01/M02 Q1024",
      "taf": "TAF EPGD 211730Z 2118/2218 08010KT CAVOK"
    },
    {
      "icao": "EPKK",
      "alert": "OK",
      "vis_m": 9999,
      "fzfg": false,
      "metar_trigger": false,
      "taf_trigger": false,
      "metar": "METAR EPKK 212300Z 03007KT CAVOK 03/M03 Q1021",
      "taf": "TAF EPKK 212030Z 2121/2221 06006KT CAVOK"
    },
    {
      "icao": "EPKT",
      "alert": "OK",
      "vis_m": 9999,
      "fzfg": false,
      "metar_trigger": false,
      "taf_trigger": false,
      "metar": "METAR EPKT 212300Z 07005KT CAVOK 01/M03 Q1021",
      "taf": "TAF EPKT 211730Z 2118/2218 08008KT CAVOK"
    },
    {
      "icao": "EPLB",
      "alert": "OK",
      "vis_m": 9999,
      "fzfg": false,
      "metar_trigger": false,
      "taf_trigger": false,
      "metar": "METAR EPLB 212300Z 04005KT CAVOK 03/M00 Q1023",
      "taf": "TAF EPLB 211730Z 2118/2218 07005KT CAVOK"
    },
    {
      "icao": "EPMO",
      "alert": "OK",
      "vis_m": 9999,
      "fzfg": false,
      "metar_trigger": false,
      "taf_trigger": false,
      "metar": "METAR EPMO 212300Z 06005KT CAVOK 02/M01 Q1024",
      "taf": "TAF EPMO 211730Z 2118/2218 07005KT CAVOK"
    },
    {
      "icao": "EPPO",
      "alert": "OK",
      "vis_m": 9999,
      "fzfg": false,
      "metar_trigger": false,
      "taf_trigger": false,
      "metar": "METAR EPPO 212300Z 08006KT CAVOK 02/M02 Q1023",
      "taf": "TAF EPPO 211730Z 2118/2218 10006KT CAVOK"
    },
    {
      "icao": "EPRA",
      "alert": "OK",
      "vis_m": 9999,
      "fzfg": false,
      "metar_trigger": false,
      "taf_trigger": false,
      "metar": "METAR EPRA 212300Z 07005KT CAVOK 02/M03 Q1023",
      "taf": "TAF EPRA 212030Z 2121/2206 06005KT CAVOK"
    },
    {
      "icao": "EPRZ",
      "alert": "OK",
      "vis_m": 9999,
      "fzfg": false,
      "metar_trigger": false,
      "taf_trigger": false,
      "metar": "METAR EPRZ 212300Z 36004KT CAVOK 02/M01 Q1021",
      "taf": "TAF EPRZ 211730Z 2118/2218 08008KT CAVOK"
    },
    {
      "icao": "EPSC",
      "alert": "OK",
      "vis_m": 9999,
      "fzfg": false,
      "metar_trigger": false,
      "taf_trigger": false,
      "metar": "METAR EPSC 212300Z 06002KT CAVOK 01/M03 Q1023",
      "taf": "TAF EPSC 211730Z 2118/2218 12007KT CAVOK"
    },
    {
      "icao": "EPSY",
      "alert": "OK",
      "vis_m": 9999,
      "fzfg": false,
      "metar_trigger": false,
      "taf_trigger": false,
      "metar": "METAR EPSY 212300Z VRB01KT CAVOK M03/M03 Q1025",
      "taf": "TAF EPSY 212030Z 2121/2206 VRB02KT CAVOK"
    },
    {
      "icao": "EPWA",
      "alert": "OK",
      "vis_m": 9999,
      "fzfg": false,
      "metar_trigger": false,
      "taf_trigger": false,
      "metar": "METAR EPWA 212300Z 08005KT CAVOK 06/M01 Q1024 NOSIG",
      "taf": "TAF EPWA 212030Z 2121/2221 08005KT CAVOK"
    },
    {
      "icao": "EPWR",
      "alert": "OK",
      "vis_m": 9999,
      "fzfg": false,
      "metar_trigger": false,
      "taf_trigger": false,
      "metar": "METAR EPWR 212300Z 09002KT CAVOK 03/M02 Q1021",
      "taf": "TAF EPWR 212030Z 2121/2221 09006KT CAVOK"
    },
    {
      "icao": "ESGG",
      "alert": "OK",
      "vis_m": 2000,
      "fzfg": false,
      "metar_trigger": false,
      "taf_trigger": false,
      "metar": "METAR ESGG 212250Z 21012KT 2000 BR OVC002 01/01 Q1021",
      "taf": "TAF ESGG 212030Z 2121/2221 21007KT 0100 FG VV001"
    },
    {
      "icao": "ESKN",
      "alert": "OK",
      "vis_m": 9999,
      "fzfg": false,
      "metar_trigger": false,
      "taf_trigger": false,
      "metar": "METAR ESKN 212250Z 24005KT CAVOK 02/M02 Q1020",
      "taf": "TAF ESKN 212030Z 2121/2221 23005KT CAVOK"
    },
    {
      "icao": "ESMS",
      "alert": "OK",
      "vis_m": 9999,
      "fzfg": false,
      "metar_trigger": false,
      "taf_trigger": false,
      "metar": "METAR ESMS 212250Z 11005KT CAVOK 02/M03 Q1023",
      "taf": "TAF ESMS 212027Z 2121/2221 14006KT CAVOK"
    },
    {
      "icao": "ESSA",
      "alert": "OK",
      "vis_m": 9999,
      "fzfg": false,
      "metar_trigger": false,
      "taf_trigger": false,
      "metar": "METAR ESSA 212250Z 25010KT CAVOK 05/01 Q1018 NOSIG",
      "taf": "TAF ESSA 212030Z 2121/2221 23010KT CAVOK"
    },
    {
      "icao": "EYKA",
      "alert": "OK",
      "vis_m": 9999,
      "fzfg": false,
      "metar_trigger": false,
      "taf_trigger": false,
      "metar": "METAR EYKA 212250Z AUTO 00000KT 9999 NCD M01/M01 Q1026",
      "taf": "TAF EYKA 212300Z 2200/2224 VRB03KT 5000 MIFG BR NSC"
    },
    {
      "icao": "EYPA",
      "alert": "OK",
      "vis_m": 9999,
      "fzfg": false,
      "metar_trigger": false,
      "taf_trigger": false,
      "metar": "METAR EYPA 212250Z 15002KT CAVOK M02/M02 Q1025",
      "taf": "TAF EYPA 212300Z 2200/2224 VRB03KT 8000 NSC"
    },
    {
      "icao": "EYVI",
      "alert": "OK",
      "vis_m": 3700,
      "fzfg": false,
      "metar_trigger": false,
      "taf_trigger": false,
      "metar": "METAR EYVI 212250Z 02002KT 3700 BR NSC 02/01 Q1025 NOSIG",
      "taf": "TAF EYVI 212300Z 2200/2224 VRB03KT 5000 MIFG BR NSC"
    },
    {
      "icao": "GCFV",
      "alert": "OK",
      "vis_m": 9999,
      "fzfg": false,
      "metar_trigger": false,
      "taf_trigger": false,
      "metar": "METAR GCFV 212300Z 20019G33KT 170V230 9999 SCT027 19/13 Q1004",
      "taf": "TAF GCFV 212000Z 2121/2221 22015KT 9999 SCT025 TX22/2214Z TN17/2206Z"
    },
    {
      "icao": "GCLP",
      "alert": "OK",
      "vis_m": 9999,
      "fzfg": false,
      "metar_trigger": false,
      "taf_trigger": false,
      "metar": "METAR GCLP 212300Z 21025KT 9999 FEW020 18/15 Q1001 WS ALL RWY NOSIG",
      "taf": "TAF GCLP 212000Z 2121/2221 22025KT 9999 SCT020 TX22/2214Z TN16/2206Z"
    },
    {
      "icao": "GCTS",
      "alert": "OK",
      "vis_m": 9999,
      "fzfg": false,
      "metar_trigger": false,
      "taf_trigger": false,
      "metar": "METAR GCTS 212300Z 26018KT 9999 SCT020 BKN030 18/14 Q1002 TEMPO 4000 SHRA SCT020TCU",
      "taf": "TAF GCTS 212000Z 2121/2221 25018KT 9999 SCT020 BKN030 TX22/2214Z TN15/2206Z"
    },
    {
      "icao": "GMAD",
      "alert": "OK",
      "vis_m": 8000,
      "fzfg": false,
      "metar_trigger": false,
      "taf_trigger": false,
      "metar": "METAR GMAD 212300Z 02003KT 8000 FEW023 SCT083 15/13 Q1007 NOSIG",
      "taf": "TAF GMAD 211700Z 2118/2224 20008KT 6000 SCT020 SCT080"
    },
    {
      "icao": "GMMN",
      "alert": "OK",
      "vis_m": 9999,
      "fzfg": false,
      "metar_trigger": false,
      "taf_trigger": false,
      "metar": "METAR GMMN 212300Z 13006KT 9999 BKN040 12/11 Q1008 NOSIG",
      "taf": "TAF GMMN 212300Z 2200/2306 16004KT 9999 BKN040"
    },
    {
      "icao": "GMMX",
      "alert": "OK",
      "vis_m": 9999,
      "fzfg": false,
      "metar_trigger": false,
      "taf_trigger": false,
      "metar": "METAR GMMX 212300Z 07007KT 9999 SCT026 15/12 Q1008 NOSIG",
      "taf": ""
    },
    {
      "icao": "HEGN",
      "alert": "OK",
      "vis_m": 9999,
      "fzfg": false,
      "metar_trigger": false,
      "taf_trigger": false,
      "metar": "METAR HEGN 212300Z 35010KT 9999 SCT020 BKN025 22/07 Q1006 NOSIG",
      "taf": "TAF HEGN 212300Z 2200/2306 28014KT 9999 SCT025"
    },
    {
      "icao": "HEMA",
      "alert": "OK",
      "vis_m": 9999,
      "fzfg": false,
      "metar_trigger": false,
      "taf_trigger": false,
      "metar": "METAR HEMA 212300Z 28003KT CAVOK 19/06 Q1007 NOSIG",
      "taf": "TAF HEMA 212300Z 2200/2306 28012KT CAVOK"
    },
    {
      "icao": "HESH",
      "alert": "OK",
      "vis_m": 9999,
      "fzfg": false,
      "metar_trigger": false,
      "taf_trigger": false,
      "metar": "METAR HESH 212300Z 16007KT CAVOK 21/14 Q1007 NOSIG",
      "taf": "TAF HESH 212300Z 2200/2306 18012KT 9999 SCT025"
    },
    {
      "icao": "HESX",
      "alert": "OK",
      "vis_m": 9999,
      "fzfg": false,
      "metar_trigger": false,
      "taf_trigger": false,
      "metar": "METAR HESX 212300Z 23005KT CAVOK 10/07 Q1009 NOSIG",
      "taf": "TAF HESX 212300Z 2200/2306 24009KT CAVOK"
    },
    {
      "icao": "LATI",
      "alert": "OK",
      "vis_m": null,
      "fzfg": false,
      "metar_trigger": false,
      "taf_trigger": false,
      "metar": "",
      "taf": "TAF LATI 212300Z 2200/2224 VRB03KT 9999 OVC090 TX19/2213Z TN07/2205Z"
    },
    {
      "icao": "LBPD",
      "alert": "OK",
      "vis_m": 9999,
      "fzfg": false,
      "metar_trigger": false,
      "taf_trigger": false,
      "metar": "METAR LBPD 212300Z AUTO 11006KT 9999 -RA OVC049/// 07/04 Q1014",
      "taf": "TAF LBPD 212300Z 2200/2224 VRB04KT 9999 SCT030 OVC050"
    },
    {
      "icao": "LBSF",
      "alert": "OK",
      "vis_m": 9999,
      "fzfg": false,
      "metar_trigger": false,
      "taf_trigger": false,
      "metar": "METAR LBSF 212300Z AUTO 32004KT 9999 BKN061/// 04/M00 Q1014 NOSIG",
      "taf": "TAF LBSF 212300Z 2200/2224 VRB03KT 9999 SCT030 OVC050"
    },
    {
      "icao": "LBWN",
      "alert": "OK",
      "vis_m": 9999,
      "fzfg": false,
      "metar_trigger": false,
      "taf_trigger": false,
      "metar": "METAR LBWN 212300Z AUTO 01006KT 350V050 9999 OVC035/// 08/04 Q1013 NOSIG",
      "taf": "TAF LBWN 212300Z 2200/2224 01012KT 9999 SCT020 OVC040"
    },
    {
      "icao": "LCLK",
      "alert": "OK",
      "vis_m": 9999,
      "fzfg": false,
      "metar_trigger": false,
      "taf_trigger": false,
      "metar": "METAR LCLK 212300Z 23007KT 9999 SCT060 13/09 Q1004 NOSIG",
      "taf": "TAF LCLK 211730Z 2118/2218 23008KT 9999 FEW020 SCT040"
    },
    {
      "icao": "LCPH",
      "alert": "OK",
      "vis_m": 8000,
      "fzfg": false,
      "metar_trigger": false,
      "taf_trigger": false,
      "metar": "METAR LCPH 212300Z 24006KT 190V260 8000 -RA SCT030 BKN040 BKN050 14/09 Q1004 NOSIG",
      "taf": "TAF LCPH 211730Z 2118/2218 25018KT 9999 FEW020 SCT040"
    },
    {
      "icao": "LEAL",
      "alert": "OK",
      "vis_m": 9999,
      "fzfg": false,
      "metar_trigger": false,
      "taf_trigger": false,
      "metar": "METAR LEAL 212300Z 33003KT 300V020 9999 BKN063 13/09 Q1012 NOSIG",
      "taf": "TAF LEAL 211700Z 2118/2218 34005KT 9999 FEW020 TX17/2212Z TN06/2206Z"
    },
    {
      "icao": "LEBB",
      "alert": "OK",
      "vis_m": 9999,
      "fzfg": false,
      "metar_trigger": false,
      "taf_trigger": false,
      "metar": "METAR LEBB 212300Z AUTO VRB02KT 9999 OVC011 09/08 Q1013",
      "taf": "TAF LEBB 211700Z 2118/2218 12005KT CAVOK TX16/2213Z TN06/2207Z"
    },
    {
      "icao": "LEBL",
      "alert": "OK",
      "vis_m": 9999,
      "fzfg": false,
      "metar_trigger": false,
      "taf_trigger": false,
      "metar": "METAR LEBL 212300Z 32006KT CAVOK 09/07 Q1012 NOSIG",
      "taf": "TAF LEBL 211700Z 2118/2218 23010KT CAVOK TX16/2212Z TN07/2206Z"
    },
    {
      "icao": "LECH",
      "alert": "OK",
      "vis_m": 3500,
      "fzfg": false,
      "metar_trigger": false,
      "taf_trigger": false,
      "metar": "METAR LECH 212300Z AUTO 19002KT 3500 BR NCD 08/07 Q1012",
      "taf": "TAF LECH 211700Z 2118/2218 25004KT 9999 SCT020 TX18/2212Z TN03/2206Z"
    },
    {
      "icao": "LEMD",
      "alert": "OK",
      "vis_m": 9000,
      "fzfg": false,
      "metar_trigger": false,
      "taf_trigger": false,
      "metar": "METAR LEMD 212300Z 03001KT 9000 NSC 05/05 Q1012 NOSIG",
      "taf": "TAF LEMD 211700Z 2118/2224 VRB04KT 9999 SCT050 TX18/2212Z TN02/2205Z"
    },
    {
      "icao": "LEMG",
      "alert": "OK",
      "vis_m": 9999,
      "fzfg": false,
      "metar_trigger": false,
      "taf_trigger": false,
      "metar": "METAR LEMG 212300Z 11006KT 080V140 9999 FEW025 BKN050 14/09 Q1012 NOSIG",
      "taf": "TAF LEMG 211700Z 2118/2218 11010KT 9999 FEW020 BKN040 TX17/2213Z TN12/2206Z"
    },
    {
      "icao": "LEVC",
      "alert": "OK",
      "vis_m": 9999,
      "fzfg": false,
      "metar_trigger": false,
      "taf_trigger": false,
      "metar": "METAR LEVC 212300Z 31003KT CAVOK 08/08 Q1013 NOSIG",
      "taf": "TAF LEVC 211700Z 2118/2218 10006KT 9999 FEW020 TX20/2212Z TN04/2206Z"
    },
    {
      "icao": "LEXJ",
      "alert": "OK",
      "vis_m": 6000,
      "fzfg": false,
      "metar_trigger": false,
      "taf_trigger": false,
      "metar": "METAR LEXJ 212300Z AUTO VRB01KT 6000 NSC 08/06 Q1013",
      "taf": "TAF LEXJ 212000Z 2121/2221 21009KT 9999 FEW010 TX17/2214Z TN07/2207Z"
    },
    {
      "icao": "LEZG",
      "alert": "OK",
      "vis_m": 9999,
      "fzfg": false,
      "metar_trigger": false,
      "taf_trigger": false,
      "metar": "METAR LEZG 212300Z 23003KT CAVOK 08/03 Q1011 NOSIG",
      "taf": "TAF LEZG 211700Z 2118/2218 VRB04KT 9999 FEW010 TX20/2214Z TN05/2206Z"
    },
    {
      "icao": "LEZL",
      "alert": "OK",
      "vis_m": 9000,
      "fzfg": false,
      "metar_trigger": false,
      "taf_trigger": false,
      "metar": "METAR LEZL 212300Z VRB02KT 9000 SCT030 16/13 Q1010 NOSIG",
      "taf": "TAF LEZL 212000Z 2121/2221 06005KT CAVOK TX23/2215Z TN11/2207Z"
    },
    {
      "icao": "LFBD",
      "alert": "OK",
      "vis_m": 9999,
      "fzfg": false,
      "metar_trigger": false,
      "taf_trigger": false,
      "metar": "METAR LFBD 212300Z AUTO 33003KT CAVOK 09/03 Q1011 BECMG 03010KT",
      "taf": "TAF LFBD 211700Z 2118/2224 03010KT CAVOK TX17/2214Z TN04/2206Z"
    },
    {
      "icao": "LFLL",
      "alert": "OK",
      "vis_m": 9999,
      "fzfg": false,
      "metar_trigger": false,
      "taf_trigger": false,
      "metar": "METAR LFLL 212300Z 24003KT CAVOK 11/03 Q1010 NOSIG",
      "taf": "TAF LFLL 211700Z 2118/2224 34008KT CAVOK"
    },
    {
      "icao": "LFLS",
      "alert": "OK",
      "vis_m": 9999,
      "fzfg": false,
      "metar_trigger": false,
      "taf_trigger": false,
      "metar": "METAR LFLS 212300Z AUTO VRB03KT CAVOK 07/03 Q1010",
      "taf": "TAF LFLS 211400Z 2115/2215 32005KT 9999 FEW045"
    },
    {
      "icao": "LFMN",
      "alert": "OK",
      "vis_m": 9999,
      "fzfg": false,
      "metar_trigger": false,
      "taf_trigger": false,
      "metar": "METAR LFMN 212300Z 33006KT 9999 BKN060 11/06 Q1012 NOSIG",
      "taf": "TAF LFMN 212000Z 2121/2303 33012KT 9999 BKN040"
    },
    {
      "icao": "LFOB",
      "alert": "OK",
      "vis_m": 6000,
      "fzfg": false,
      "metar_trigger": false,
      "taf_trigger": false,
      "metar": "METAR LFOB 212300Z AUTO 01009KT 6000 NSC 07/05 Q1014 NOSIG",
      "taf": "TAF LFOB 211700Z 2118/2218 02008KT CAVOK"
    },
    {
      "icao": "LFPO",
      "alert": "OK",
      "vis_m": 9999,
      "fzfg": false,
      "metar_trigger": false,
      "taf_trigger": false,
      "metar": "METAR LFPO 212300Z 01009KT CAVOK 09/04 Q1013 NOSIG",
      "taf": "TAF LFPO 211700Z 2118/2224 03008KT CAVOK"
    },
    {
      "icao": "LFSB",
      "alert": "OK",
      "vis_m": 9999,
      "fzfg": false,
      "metar_trigger": false,
      "taf_trigger": false,
      "metar": "METAR LFSB 212300Z AUTO 10004KT 9999 -RADZ FEW049 OVC060 09/04 Q1011 TEMPO FEW025TCU",
      "taf": "TAF LFSB 211700Z 2118/2218 VRB03KT CAVOK"
    },
    {
      "icao": "LGAV",
      "alert": "OK",
      "vis_m": 9999,
      "fzfg": false,
      "metar_trigger": false,
      "taf_trigger": false,
      "metar": "METAR LGAV 212250Z 33008KT 9999 SCT025 SCT060 10/04 Q1011 NOSIG",
      "taf": "TAF LGAV 212300Z 2200/2224 33010KT 9999 FEW025"
    },
    {
      "icao": "LGTS",
      "alert": "OK",
      "vis_m": 9999,
      "fzfg": false,
      "metar_trigger": false,
      "taf_trigger": false,
      "metar": "METAR LGTS 212250Z 10007KT 9999 FEW025 05/01 Q1013 NOSIG",
      "taf": "TAF LGTS 212300Z 2200/2224 VRB03KT 9999 SCT025"
    },
    {
      "icao": "LHBP",
      "alert": "OK",
      "vis_m": 9999,
      "fzfg": false,
      "metar_trigger": false,
      "taf_trigger": false,
      "metar": "METAR LHBP 212300Z 06009KT CAVOK 10/00 Q1017 NOSIG",
      "taf": "TAF LHBP 211715Z 2118/2218 05008KT CAVOK"
    },
    {
      "icao": "LHDC",
      "alert": "OK",
      "vis_m": 9999,
      "fzfg": false,
      "metar_trigger": false,
      "taf_trigger": false,
      "metar": "METAR LHDC 212245Z AUTO 06007KT CAVOK 05/M02 Q1018",
      "taf": "TAF LHDC 211415Z 2115/2124 07012KT CAVOK"
    },
    {
      "icao": "LIBD",
      "alert": "OK",
      "vis_m": 9999,
      "fzfg": false,
      "metar_trigger": false,
      "taf_trigger": false,
      "metar": "METAR LIBD 212250Z 26006KT CAVOK 08/04 Q1012",
      "taf": "TAF LIBD 211700Z 2118/2218 25005KT 9999 SCT040"
    },
    {
      "icao": "LIBG",
      "alert": "OK",
      "vis_m": null,
      "fzfg": false,
      "metar_trigger": false,
      "taf_trigger": false,
      "metar": "",
      "taf": "TAF LIBG 211700Z 2118/2203 01006KT 9999 SCT030"
    },
    {
      "icao": "LIBP",
      "alert": "OK",
      "vis_m": 9999,
      "fzfg": false,
      "metar_trigger": false,
      "taf_trigger": false,
      "metar": "METAR LIBP 212250Z AUTO 24005KT 9999 FEW096/// BKN180/// 07/04 Q1013",
      "taf": "TAF LIBP 211700Z 2118/2218 25006KT 9999 SCT060"
    },
    {
      "icao": "LIBR",
      "alert": "OK",
      "vis_m": 9999,
      "fzfg": false,
      "metar_trigger": false,
      "taf_trigger": false,
      "metar": "METAR LIBR 212250Z 25005KT CAVOK 08/04 Q1012",
      "taf": "TAF LIBR 211700Z 2118/2218 35010KT 9999 FEW030"
    },
    {
      "icao": "LICA",
      "alert": "OK",
      "vis_m": 9999,
      "fzfg": false,
      "metar_trigger": false,
      "taf_trigger": false,
      "metar": "METAR LICA 212250Z AUTO 06005KT 9999 NCD 08/05 Q1012",
      "taf": "TAF LICA 211700Z 2118/2218 26008KT 9999 SCT040"
    },
    {
      "icao": "LICC",
      "alert": "OK",
      "vis_m": 9999,
      "fzfg": false,
      "metar_trigger": false,
      "taf_trigger": false,
      "metar": "METAR LICC 212250Z 03003KT 350V070 9999 -RA BKN030 BKN080 13/11 Q1012",
      "taf": "TAF LICC 211700Z 2118/2218 VRB05KT 9999 SCT040"
    },
    {
      "icao": "LICJ",
      "alert": "OK",
      "vis_m": 9999,
      "fzfg": false,
      "metar_trigger": false,
      "taf_trigger": false,
      "metar": "METAR LICJ 212250Z AUTO 16002KT 9999 NCD 10/02 Q1011",
      "taf": "TAF LICJ 211700Z 2118/2218 03013KT 9999 SCT040"
    },
    {
      "icao": "LIMC",
      "alert": "OK",
      "vis_m": 9999,
      "fzfg": false,
      "metar_trigger": false,
      "taf_trigger": false,
      "metar": "METAR LIMC 212250Z 34004KT 9999 BKN065 10/03 Q1013 NOSIG",
      "taf": "TAF LIMC 211700Z 2118/2224 10008KT 9999 SCT050"
    },
    {
      "icao": "LIME",
      "alert": "OK",
      "vis_m": 9999,
      "fzfg": false,
      "metar_trigger": false,
      "taf_trigger": false,
      "metar": "METAR LIME 212250Z 05005KT 9999 BKN065 10/01 Q1013 NOSIG",
      "taf": "TAF LIME 211700Z 2118/2218 10008KT 9999 SCT070"
    },
    {
      "icao": "LIMF",
      "alert": "OK",
      "vis_m": 7000,
      "fzfg": false,
      "metar_trigger": false,
      "taf_trigger": false,
      "metar": "METAR LIMF 212250Z 36009KT 7000 -RA OVC030 08/05 Q1013",
      "taf": "TAF LIMF 211700Z 2118/2218 VRB05KT 9999 SCT060"
    },
    {
      "icao": "LIMJ",
      "alert": "OK",
      "vis_m": 9999,
      "fzfg": false,
      "metar_trigger": false,
      "taf_trigger": false,
      "metar": "METAR LIMJ 212250Z AUTO 05003KT 010V070 9999 FEW063/// OVC098/// 11/05 Q1012",
      "taf": "TAF LIMJ 211700Z 2118/2218 20010KT 9999 SCT050"
    },
    {
      "icao": "LIPE",
      "alert": "OK",
      "vis_m": 9999,
      "fzfg": false,
      "metar_trigger": false,
      "taf_trigger": false,
      "metar": "METAR LIPE 212250Z 19003KT CAVOK 06/M01 Q1014",
      "taf": "TAF LIPE 211700Z 2118/2218 VRB05KT 9999 FEW050"
    },
    {
      "icao": "LIPH",
      "alert": "OK",
      "vis_m": 9999,
      "fzfg": false,
      "metar_trigger": false,
      "taf_trigger": false,
      "metar": "METAR LIPH 212250Z AUTO 03005KT 9999 BKN074/// OVC110/// 11/03 Q1015",
      "taf": "TAF LIPH 211700Z 2118/2218 03006KT 9999 SCT060"
    },
    {
      "icao": "LIPQ",
      "alert": "OK",
      "vis_m": 9999,
      "fzfg": false,
      "metar_trigger": false,
      "taf_trigger": false,
      "metar": "METAR LIPQ 212250Z AUTO VRB01KT 9999 OVC100/// 09/00 Q1015",
      "taf": "TAF LIPQ 211700Z 2118/2218 06006KT 9999 SCT060"
    },
    {
      "icao": "LIPR",
      "alert": "OK",
      "vis_m": 9999,
      "fzfg": false,
      "metar_trigger": false,
      "taf_trigger": false,
      "metar": "METAR LIPR 212250Z AUTO 15007KT 110V190 9999 SCT045/// BKN062/// 09/03 Q1013",
      "taf": "TAF LIPR 211700Z 2118/2218 VRB05KT 9999 FEW040"
    },
    {
      "icao": "LIPX",
      "alert": "OK",
      "vis_m": 9999,
      "fzfg": false,
      "metar_trigger": false,
      "taf_trigger": false,
      "metar": "METAR LIPX 212250Z 05004KT 9999 OVC085 10/01 Q1014",
      "taf": "TAF LIPX 211700Z 2118/2218 VRB05KT 9999 SCT060"
    },
    {
      "icao": "LIPY",
      "alert": "OK",
      "vis_m": 9999,
      "fzfg": false,
      "metar_trigger": false,
      "taf_trigger": false,
      "metar": "METAR LIPY 212250Z 18004KT 140V200 CAVOK 08/04 Q1013",
      "taf": "TAF LIPY 211700Z 2118/2218 VRB05KT 9999 FEW060"
    },
    {
      "icao": "LIPZ",
      "alert": "OK",
      "vis_m": 9999,
      "fzfg": false,
      "metar_trigger": false,
      "taf_trigger": false,
      "metar": "METAR LIPZ 212250Z 05007KT CAVOK 10/03 Q1015 NOSIG",
      "taf": "TAF LIPZ 211700Z 2118/2224 03008KT 9999 SCT060"
    },
    {
      "icao": "LIRF",
      "alert": "OK",
      "vis_m": 9999,
      "fzfg": false,
      "metar_trigger": false,
      "taf_trigger": false,
      "metar": "METAR LIRF 212250Z 03004KT 9999 -RA FEW045 11/05 Q1011 NOSIG",
      "taf": "TAF LIRF 211700Z 2118/2224 24010KT 9999 SCT060"
    },
    {
      "icao": "LIRN",
      "alert": "OK",
      "vis_m": 9999,
      "fzfg": false,
      "metar_trigger": false,
      "taf_trigger": false,
      "metar": "METAR LIRN 212250Z 03004KT 9999 SCT080 10/M00 Q1012 NOSIG",
      "taf": "TAF LIRN 211700Z 2118/2218 VRB06KT 9999 FEW040"
    },
    {
      "icao": "LIRP",
      "alert": "OK",
      "vis_m": 9999,
      "fzfg": false,
      "metar_trigger": false,
      "taf_trigger": false,
      "metar": "METAR LIRP 212245Z 17002KT CAVOK 05/M00 Q1012 NOSIG",
      "taf": "TAF LIRP 211700Z 2118/2218 33010KT 9999 FEW040"
    },
    {
      "icao": "LIRZ",
      "alert": "OK",
      "vis_m": 9999,
      "fzfg": false,
      "metar_trigger": false,
      "taf_trigger": false,
      "metar": "METAR LIRZ 212250Z AUTO 03009KT 9999 OVC085/// 09/M01 Q1012",
      "taf": "TAF LIRZ 211700Z 2118/2218 03010KT 9999 SCT040"
    },
    {
      "icao": "LJLJ",
      "alert": "OK",
      "vis_m": 9999,
      "fzfg": false,
      "metar_trigger": false,
      "taf_trigger": false,
      "metar": "METAR LJLJ 212300Z 29005KT 9999 FEW007 BKN087 05/02 Q1015 NOSIG",
      "taf": "TAF LJLJ 212300Z 2200/2300 30005KT 9999 FEW045 BKN080"
    },
    {
      "icao": "LKMT",
      "alert": "OK",
      "vis_m": 9999,
      "fzfg": false,
      "metar_trigger": false,
      "taf_trigger": false,
      "metar": "METAR LKMT 212300Z 35003KT CAVOK 02/M02 Q1020 NOSIG",
      "taf": "TAF LKMT 211700Z 2118/2218 04004KT CAVOK"
    },
    {
      "icao": "LKPR",
      "alert": "OK",
      "vis_m": 9999,
      "fzfg": false,
      "metar_trigger": false,
      "taf_trigger": false,
      "metar": "METAR LKPR 212300Z 09004KT CAVOK 03/01 Q1018 NOSIG",
      "taf": "TAF LKPR 212000Z 2121/2303 10006KT 9999 SCT045"
    },
    {
      "icao": "LLBG",
      "alert": "OK",
      "vis_m": 9999,
      "fzfg": false,
      "metar_trigger": false,
      "taf_trigger": false,
      "metar": "METAR LLBG 212250Z 16006KT 9999 -RA FEW050 12/10 Q1008 TEMPO 5000 TSRA FEW025CB BKN030",
      "taf": "TAF LLBG 212308Z 2200/2224 16008KT 9999 SCT035 TX18/2211Z TN11/2204Z"
    },
    {
      "icao": "LMML",
      "alert": "OK",
      "vis_m": 9999,
      "fzfg": false,
      "metar_trigger": false,
      "taf_trigger": false,
      "metar": "METAR LMML 212315Z VRB01KT 9999 FEW025 10/08 Q1011 NOSIG",
      "taf": "TAF LMML 212300Z 2200/2224 15007KT 9999 SCT030"
    },
    {
      "icao": "LOWW",
      "alert": "OK",
      "vis_m": 9999,
      "fzfg": false,
      "metar_trigger": false,
      "taf_trigger": false,
      "metar": "METAR LOWW 212250Z 04004KT CAVOK 07/03 Q1017 NOSIG",
      "taf": "TAF LOWW 212315Z 2200/2306 09004KT 9999 FEW050 TX13/2214Z TN02/2304Z"
    },
    {
      "icao": "LPFR",
      "alert": "OK",
      "vis_m": 9999,
      "fzfg": false,
      "metar_trigger": false,
      "taf_trigger": false,
      "metar": "METAR LPFR 212300Z 08005KT 9999 SCT012 15/13 Q1009",
      "taf": "TAF LPFR 212300Z 2200/2224 09010KT 9999 FEW040"
    },
    {
      "icao": "LPMA",
      "alert": "OK",
      "vis_m": 9999,
      "fzfg": false,
      "metar_trigger": false,
      "taf_trigger": false,
      "metar": "METAR LPMA 212300Z 06006KT 360V140 9999 BKN013 FEW018CB 15/13 Q0999 RESHRA",
      "taf": "TAF LPMA 212300Z 2200/2224 05010KT 9999 SCT016 SCT030"
    },
    {
      "icao": "LPPR",
      "alert": "OK",
      "vis_m": 8000,
      "fzfg": false,
      "metar_trigger": false,
      "taf_trigger": false,
      "metar": "METAR LPPR 212300Z 00000KT 8000 SCT006 12/12 Q1011",
      "taf": "TAF LPPR 212300Z 2200/2224 VRB02KT 5000 BR SCT005"
    },
    {
      "icao": "LPPS",
      "alert": "OK",
      "vis_m": 9999,
      "fzfg": false,
      "metar_trigger": false,
      "taf_trigger": false,
      "metar": "METAR LPPS 212300Z 09019KT 9999 SCT008 FEW018TCU 16/15 Q0999",
      "taf": "TAF LPPS 212300Z 2200/2306 09015KT 9999 SCT012 SCT030"
    },
    {
      "icao": "LPPT",
      "alert": "OK",
      "vis_m": 9999,
      "fzfg": false,
      "metar_trigger": false,
      "taf_trigger": false,
      "metar": "METAR LPPT 212300Z 04006KT 9999 SCT035 13/11 Q1010",
      "taf": "TAF LPPT 212300Z 2200/2306 03005KT 9999 FEW035"
    },
    {
      "icao": "LQBK",
      "alert": "OK",
      "vis_m": 9999,
      "fzfg": false,
      "metar_trigger": false,
      "taf_trigger": false,
      "metar": "METAR LQBK 212300Z 28005KT CAVOK 06/00 Q1015 NOSIG",
      "taf": "TAF LQBK 212300Z 2200/2224 15005KT CAVOK TX14/2213Z TN03/2205Z"
    },
    {
      "icao": "LQSA",
      "alert": "OK",
      "vis_m": 9999,
      "fzfg": false,
      "metar_trigger": false,
      "taf_trigger": false,
      "metar": "METAR LQSA 212300Z 09004KT 060V120 CAVOK 06/M01 Q1013 NOSIG",
      "taf": "TAF LQSA 212300Z 2200/2224 VRB02KT 9999 SCT060 TX14/2214Z TN00/2205Z"
    },
    {
      "icao": "LQTZ",
      "alert": "OK",
      "vis_m": 9999,
      "fzfg": false,
      "metar_trigger": false,
      "taf_trigger": false,
      "metar": "METAR LQTZ 212300Z 19002KT CAVOK 07/M00 Q1014",
      "taf": "TAF LQTZ 212300Z 2200/2224 16005KT 9999 SCT060 TX14/2213Z TN03/2205Z"
    },
    {
      "icao": "LRBC",
      "alert": "OK",
      "vis_m": 9999,
      "fzfg": false,
      "metar_trigger": false,
      "taf_trigger": false,
      "metar": "METAR LRBC 212300Z 33010KT 9999 OVC057 06/04 Q1019",
      "taf": "TAF LRBC 212000Z 2121/2206 35008KT 9999 OVC035"
    },
    {
      "icao": "LRBS",
      "alert": "OK",
      "vis_m": 9999,
      "fzfg": false,
      "metar_trigger": false,
      "taf_trigger": false,
      "metar": "METAR LRBS 212300Z 02005KT 9999 -RA OVC040 07/04 Q1016 NOSIG",
      "taf": "TAF LRBS 211700Z 2118/2218 07012KT 9999 SCT045"
    },
    {
      "icao": "LRBV",
      "alert": "OK",
      "vis_m": 9999,
      "fzfg": false,
      "metar_trigger": false,
      "taf_trigger": false,
      "metar": "METAR LRBV 212300Z AUTO VRB02KT 9999 OVC020/// 05/02 Q1017",
      "taf": "TAF LRBV 212000Z 2121/2206 08010KT 5000 -RA BR BKN015 BKN045"
    },
    {
      "icao": "LRCL",
      "alert": "OK",
      "vis_m": 9999,
      "fzfg": false,
      "metar_trigger": false,
      "taf_trigger": false,
      "metar": "METAR LRCL 212300Z VRB01KT CAVOK M00/M04 Q1018",
      "taf": "TAF LRCL 212000Z 2121/2206 VRB04KT 9999 BKN045"
    },
    {
      "icao": "LRCV",
      "alert": "OK",
      "vis_m": 9999,
      "fzfg": false,
      "metar_trigger": false,
      "taf_trigger": false,
      "metar": "METAR LRCV 212300Z 01003KT CAVOK 06/03 Q1017",
      "taf": "TAF LRCV 212000Z 2121/2206 10006KT 9999 SCT045"
    },
    {
      "icao": "LRIA",
      "alert": "OK",
      "vis_m": 9999,
      "fzfg": false,
      "metar_trigger": false,
      "taf_trigger": false,
      "metar": "METAR LRIA 212300Z 36006KT CAVOK 07/03 Q1020",
      "taf": "TAF LRIA 212000Z 2121/2206 02008KT CAVOK"
    },
    {
      "icao": "LROP",
      "alert": "OK",
      "vis_m": 9999,
      "fzfg": false,
      "metar_trigger": false,
      "taf_trigger": false,
      "metar": "METAR LROP 212300Z 02007KT 9999 -RA OVC041 08/03 Q1017 NOSIG",
      "taf": "TAF LROP 211700Z 2118/2218 07012KT 9999 SCT045"
    },
    {
      "icao": "LRSB",
      "alert": "OK",
      "vis_m": 9999,
      "fzfg": false,
      "metar_trigger": false,
      "taf_trigger": false,
      "metar": "METAR LRSB 212300Z VRB02KT 9999 BKN085 01/M03 Q1017",
      "taf": "TAF LRSB 211700Z 2118/2218 VRB04KT 9999 BKN045"
    },
    {
      "icao": "LRSM",
      "alert": "OK",
      "vis_m": 9999,
      "fzfg": false,
      "metar_trigger": false,
      "taf_trigger": false,
      "metar": "METAR LRSM 212300Z AUTO 07005KT 9999 NCD 03/M02 Q1018",
      "taf": ""
    },
    {
      "icao": "LRSV",
      "alert": "OK",
      "vis_m": 9999,
      "fzfg": false,
      "metar_trigger": false,
      "taf_trigger": false,
      "metar": "METAR LRSV 212300Z 34006KT 9999 -RA BKN035 05/03 Q1020",
      "taf": "TAF LRSV 212000Z 2121/2206 03006KT 9999 BKN040"
    },
    {
      "icao": "LRTM",
      "alert": "OK",
      "vis_m": 9999,
      "fzfg": false,
      "metar_trigger": false,
      "taf_trigger": false,
      "metar": "METAR LRTM 212300Z AUTO 09004KT 9999 NCD 05/M01 Q1018",
      "taf": "TAF LRTM 211400Z 2115/2124 08010KT 9999 BKN040"
    },
    {
      "icao": "LRTR",
      "alert": "OK",
      "vis_m": 9999,
      "fzfg": false,
      "metar_trigger": false,
      "taf_trigger": false,
      "metar": "METAR LRTR 212300Z 07006KT CAVOK 04/M03 Q1016",
      "taf": "TAF LRTR 211700Z 2118/2218 08008KT CAVOK"
    },
    {
      "icao": "LTAC",
      "alert": "OK",
      "vis_m": 8000,
      "fzfg": false,
      "metar_trigger": false,
      "taf_trigger": false,
      "metar": "METAR LTAC 212250Z VRB02KT 8000 FEW010 BKN030 BKN080 04/03 Q1004 NOSIG RMK RWY21C VRB01KT RWY03L 00000KT RWY21R 00000KT RWY03R VRB01KT RWY21L 00000KT",
      "taf": "TAF LTAC 212240Z 2200/2224 VRB02KT 9999 SCT040 BKN100"
    },
    {
      "icao": "LTFM",
      "alert": "OK",
      "vis_m": 4500,
      "fzfg": false,
      "metar_trigger": false,
      "taf_trigger": false,
      "metar": "METAR LTFM 212250Z 02014KT 4500 -RA BR BKN003 BKN018 08/07 Q1010 NOSIG RMK RWY17L 02012KT RWY34L 01014KT RWY16R 02012KT RWY36 02015KT RWY18 03011KT",
      "taf": "TAF LTFM 212240Z 2200/2306 02012KT 4500 -RA BR BKN003 BKN020"
    },
    {
      "icao": "LUKK",
      "alert": "OK",
      "vis_m": 9999,
      "fzfg": false,
      "metar_trigger": false,
      "taf_trigger": false,
      "metar": "METAR LUKK 212300Z 02011KT CAVOK 07/03 Q1018 NOSIG",
      "taf": "TAF LUKK 212305Z 2200/2224 03010KT 9999 SCT040"
    },
    {
      "icao": "LWOH",
      "alert": "OK",
      "vis_m": null,
      "fzfg": false,
      "metar_trigger": false,
      "taf_trigger": false,
      "metar": "",
      "taf": "TAF LWOH 212050Z 2121/2221 03008KT 9999 BKN050"
    },
    {
      "icao": "LWSK",
      "alert": "OK",
      "vis_m": null,
      "fzfg": false,
      "metar_trigger": false,
      "taf_trigger": false,
      "metar": "",
      "taf": "TAF LWSK 212050Z 2121/2221 VRB02KT 9999 BKN080"
    },
    {
      "icao": "LYBE",
      "alert": "OK",
      "vis_m": 9999,
      "fzfg": false,
      "metar_trigger": false,
      "taf_trigger": false,
      "metar": "METAR LYBE 212300Z 08004KT CAVOK 06/M01 Q1015 NOSIG",
      "taf": "TAF LYBE 211700Z 2118/2218 08006KT CAVOK TX13/2213Z TN04/2205Z"
    },
    {
      "icao": "LYNI",
      "alert": "OK",
      "vis_m": 9999,
      "fzfg": false,
      "metar_trigger": false,
      "taf_trigger": false,
      "metar": "METAR LYNI 212300Z VRB01KT 9999 BKN090 04/M02 Q1015 NOSIG",
      "taf": "TAF LYNI 211700Z 2118/2218 06007KT 9999 SCT080 TX12/2213Z TN01/2206Z"
    },
    {
      "icao": "LYPG",
      "alert": "OK",
      "vis_m": 9999,
      "fzfg": false,
      "metar_trigger": false,
      "taf_trigger": false,
      "metar": "METAR LYPG 212300Z 36003KT 330V080 9999 BKN090 13/M02 Q1012 NOSIG",
      "taf": "TAF LYPG 211700Z 2118/2218 35005KT 9999 FEW050 BKN080 TX17/2213Z TN08/2121Z"
    },
    {
      "icao": "LZIB",
      "alert": "OK",
      "vis_m": 9999,
      "fzfg": false,
      "metar_trigger": false,
      "taf_trigger": false,
      "metar": "METAR LZIB 212300Z 02006KT 9999 -RA NSC 08/03 Q1018 NOSIG",
      "taf": "TAF LZIB 212315Z 2200/2300 03005KT CAVOK"
    },
    {
      "icao": "LZKZ",
      "alert": "OK",
      "vis_m": 9999,
      "fzfg": false,
      "metar_trigger": false,
      "taf_trigger": false,
      "metar": "METAR LZKZ 212300Z 36009KT CAVOK 07/M01 Q1019 NOSIG",
      "taf": "TAF LZKZ 212315Z 2200/2300 01008KT CAVOK"
    },
    {
      "icao": "LZTT",
      "alert": "OK",
      "vis_m": 9999,
      "fzfg": false,
      "metar_trigger": false,
      "taf_trigger": false,
      "metar": "METAR LZTT 212300Z 28003KT CAVOK M03/M04 Q1019",
      "taf": "TAF LZTT 212315Z 2200/2300 VRB02KT CAVOK"
    },
    {
      "icao": "OEJN",
      "alert": "OK",
      "vis_m": 6000,
      "fzfg": false,
      "metar_trigger": false,
      "taf_trigger": false,
      "metar": "METAR OEJN 212300Z 02003KT 6000 NSC 21/09 Q1009 NOSIG",
      "taf": "TAF OEJN 212300Z 2200/2306 VRB03KT 7000 NSC"
    },
    {
      "icao": "OEMA",
      "alert": "OK",
      "vis_m": 8000,
      "fzfg": false,
      "metar_trigger": false,
      "taf_trigger": false,
      "metar": "METAR OEMA 212300Z 31003KT 8000 NSC 19/04 Q1012 NOSIG",
      "taf": "TAF OEMA 212300Z 2200/2306 VRB03KT 7000 NSC"
    },
    {
      "icao": "OJAI",
      "alert": "OK",
      "vis_m": 4000,
      "fzfg": false,
      "metar_trigger": false,
      "taf_trigger": false,
      "metar": "METAR OJAI 212300Z 17006KT 4000 BR NSC 08/06 Q1009 NOSIG",
      "taf": "TAF OJAI 212300Z 2200/2306 24014KT 4000 BR SCT020 BKN025"
    },
    {
      "icao": "OMAA",
      "alert": "OK",
      "vis_m": null,
      "fzfg": false,
      "metar_trigger": false,
      "taf_trigger": false,
      "metar": "",
      "taf": ""
    },
    {
      "icao": "OMDB",
      "alert": "OK",
      "vis_m": null,
      "fzfg": false,
      "metar_trigger": false,
      "taf_trigger": false,
      "metar": "",
      "taf": ""
    },
    {
      "icao": "UAAA",
      "alert": "OK",
      "vis_m": 9999,
      "fzfg": false,
      "metar_trigger": false,
      "taf_trigger": false,
      "metar": "METAR UAAA 212300Z 15001MPS 9999 SCT100 04/M01 Q1013 NOSIG",
      "taf": "TAF UAAA 211701Z 2118/2218 20002MPS 9999 FEW050 SCT100 TX19/2209Z TN01/2201Z"
    },
    {
      "icao": "UBBB",
      "alert": "OK",
      "vis_m": 9999,
      "fzfg": false,
      "metar_trigger": false,
      "taf_trigger": false,
      "metar": "METAR UBBB 212300Z 33006KT CAVOK 08/05 Q1010 NOSIG",
      "taf": "TAF UBBB 212257Z 2200/2224 32005KT 9999 FEW030 TX16/2210Z TN06/2201Z"
    },
    {
      "icao": "UDSG",
      "alert": "OK",
      "vis_m": 9999,
      "fzfg": false,
      "metar_trigger": false,
      "taf_trigger": false,
      "metar": "METAR UDSG 212300Z 18003KT 9999 -RA OVC040 02/02 Q1012 NOSIG",
      "taf": "TAF UDSG 211658Z 2118/2218 VRB06KT 9999 SCT040"
    },
    {
      "icao": "UDYZ",
      "alert": "OK",
      "vis_m": 9999,
      "fzfg": false,
      "metar_trigger": false,
      "taf_trigger": false,
      "metar": "METAR UDYZ 212300Z 09003KT 060V130 9999 -SHRA BKN043CB 10/05 Q1010 NOSIG",
      "taf": "TAF UDYZ 211700Z 2118/2218 04006KT 9999 SCT040"
    },
    {
      "icao": "UGKO",
      "alert": "OK",
      "vis_m": 6000,
      "fzfg": false,
      "metar_trigger": false,
      "taf_trigger": false,
      "metar": "METAR UGKO 212300Z 26007KT 6000 SCT006 BKN021 08/08 Q1006 NOSIG",
      "taf": "TAF UGKO 212300Z 2200/2224 26007KT 9999 SCT020 BKN035 TX18/2212Z TN06/2203Z"
    }
  ]
}