{
  "ts_utc": "2026-05-10T11:05:59Z",
  "threshold_m": 150,
  "source": "stations_override.txt (ICAO list) + aviationweather.gov (METAR/TAF raw)",
  "station_count": 159,
  "stations": [
    {
      "icao": "BIKF",
      "alert": "OK",
      "vis_m": 9999,
      "fzfg": false,
      "metar_trigger": false,
      "taf_trigger": false,
      "metar": "METAR BIKF 101100Z 24004G14KT 9999 -RA FEW008 SCT032 OVC072 07/06 Q1021",
      "taf": "TAF BIKF 101054Z 1012/1112 22012KT 7000 -RADZ BKN005 TX07/1013Z TN06/1106Z"
    },
    {
      "icao": "BKPR",
      "alert": "OK",
      "vis_m": 9999,
      "fzfg": false,
      "metar_trigger": false,
      "taf_trigger": false,
      "metar": "METAR BKPR 101100Z VRB01KT CAVOK 20/08 Q1016 NOSIG",
      "taf": "TAF BKPR 100530Z 1006/1106 24006KT 0200 FG BKN003"
    },
    {
      "icao": "EBCI",
      "alert": "OK",
      "vis_m": 9999,
      "fzfg": false,
      "metar_trigger": false,
      "taf_trigger": false,
      "metar": "METAR EBCI 101050Z 05014KT CAVOK 16/08 Q1013 NOSIG",
      "taf": "TAF EBCI 100501Z 1006/1112 04008KT CAVOK"
    },
    {
      "icao": "EDDB",
      "alert": "OK",
      "vis_m": 9999,
      "fzfg": false,
      "metar_trigger": false,
      "taf_trigger": false,
      "metar": "METAR EDDB 101050Z AUTO 17005KT 130V260 CAVOK 19/09 Q1013 NOSIG",
      "taf": "TAF EDDB 100500Z 1006/1106 12005KT CAVOK"
    },
    {
      "icao": "EDDH",
      "alert": "OK",
      "vis_m": 9999,
      "fzfg": false,
      "metar_trigger": false,
      "taf_trigger": false,
      "metar": "METAR EDDH 101050Z AUTO 03004KT 290V100 CAVOK 18/07 Q1013 NOSIG",
      "taf": "TAF EDDH 100500Z 1006/1112 VRB03KT 9999 SCT040"
    },
    {
      "icao": "EDDK",
      "alert": "OK",
      "vis_m": 9999,
      "fzfg": false,
      "metar_trigger": false,
      "taf_trigger": false,
      "metar": "METAR EDDK 101050Z AUTO 33007KT 290V010 CAVOK 20/10 Q1012 NOSIG",
      "taf": "TAF EDDK 100500Z 1006/1112 VRB03KT CAVOK"
    },
    {
      "icao": "EDDN",
      "alert": "OK",
      "vis_m": 9999,
      "fzfg": false,
      "metar_trigger": false,
      "taf_trigger": false,
      "metar": "METAR EDDN 101050Z AUTO VRB06KT CAVOK 23/08 Q1011 NOSIG",
      "taf": "TAF EDDN 100500Z 1006/1106 08007KT CAVOK"
    },
    {
      "icao": "EDDS",
      "alert": "OK",
      "vis_m": 9999,
      "fzfg": false,
      "metar_trigger": false,
      "taf_trigger": false,
      "metar": "METAR EDDS 101050Z AUTO 08010KT CAVOK 22/09 Q1009 NOSIG",
      "taf": "TAF EDDS 100500Z 1006/1106 VRB03KT CAVOK"
    },
    {
      "icao": "EDFH",
      "alert": "OK",
      "vis_m": 9999,
      "fzfg": false,
      "metar_trigger": false,
      "taf_trigger": false,
      "metar": "METAR EDFH 101050Z 04009KT 360V080 CAVOK 18/10 Q1011",
      "taf": "TAF EDFH 100500Z 1006/1106 07006KT CAVOK"
    },
    {
      "icao": "EDJA",
      "alert": "OK",
      "vis_m": 9999,
      "fzfg": false,
      "metar_trigger": false,
      "taf_trigger": false,
      "metar": "METAR EDJA 101050Z 02005KT 280V080 CAVOK 20/08 Q1010",
      "taf": "TAF EDJA 100800Z 1009/1018 04004KT CAVOK"
    },
    {
      "icao": "EDLW",
      "alert": "OK",
      "vis_m": 9999,
      "fzfg": false,
      "metar_trigger": false,
      "taf_trigger": false,
      "metar": "METAR EDLW 101050Z VRB05KT CAVOK 17/06 Q1013",
      "taf": "TAF EDLW 100500Z 1006/1106 VRB03KT CAVOK"
    },
    {
      "icao": "EDNY",
      "alert": "OK",
      "vis_m": 9999,
      "fzfg": false,
      "metar_trigger": false,
      "taf_trigger": false,
      "metar": "METAR EDNY 101050Z 21005KT CAVOK 20/11 Q1009",
      "taf": "TAF EDNY 100800Z 1009/1018 05006KT CAVOK"
    },
    {
      "icao": "EDSB",
      "alert": "OK",
      "vis_m": 9999,
      "fzfg": false,
      "metar_trigger": false,
      "taf_trigger": false,
      "metar": "METAR EDSB 101050Z 34008KT CAVOK 21/13 Q1009",
      "taf": "TAF EDSB 100500Z 1006/1106 02006KT CAVOK"
    },
    {
      "icao": "EETN",
      "alert": "OK",
      "vis_m": 9999,
      "fzfg": false,
      "metar_trigger": false,
      "taf_trigger": false,
      "metar": "METAR EETN 101050Z 04007KT 010V070 CAVOK 13/01 Q1015 NOSIG",
      "taf": "TAF EETN 100530Z 1006/1106 12006KT CAVOK"
    },
    {
      "icao": "EFTU",
      "alert": "OK",
      "vis_m": 9999,
      "fzfg": false,
      "metar_trigger": false,
      "taf_trigger": false,
      "metar": "METAR EFTU 101050Z AUTO 21012KT 180V240 CAVOK 15/M03 Q1014",
      "taf": "TAF EFTU 100827Z 1009/1109 17009KT CAVOK"
    },
    {
      "icao": "EGBB",
      "alert": "OK",
      "vis_m": 9999,
      "fzfg": false,
      "metar_trigger": false,
      "taf_trigger": false,
      "metar": "METAR EGBB 101050Z 05012KT 020V080 9999 BKN033 11/03 Q1020",
      "taf": "TAF EGBB 100454Z 1006/1106 03010KT 9999 BKN012"
    },
    {
      "icao": "EGGP",
      "alert": "OK",
      "vis_m": 9999,
      "fzfg": false,
      "metar_trigger": false,
      "taf_trigger": false,
      "metar": "METAR EGGP 101050Z 05009KT 020V090 9999 FEW030 12/01 Q1021",
      "taf": "TAF EGGP 100456Z 1006/1106 05008KT 9999 FEW030"
    },
    {
      "icao": "EGGW",
      "alert": "OK",
      "vis_m": 9999,
      "fzfg": false,
      "metar_trigger": false,
      "taf_trigger": false,
      "metar": "METAR EGGW 101050Z AUTO 03014KT 9999 BKN020 OVC025 10/06 Q1018",
      "taf": ""
    },
    {
      "icao": "EGKK",
      "alert": "OK",
      "vis_m": 9999,
      "fzfg": false,
      "metar_trigger": false,
      "taf_trigger": false,
      "metar": "METAR EGKK 101050Z 04011G25KT 360V080 9999 SCT029 13/07 Q1016",
      "taf": ""
    },
    {
      "icao": "EGNM",
      "alert": "OK",
      "vis_m": 9999,
      "fzfg": false,
      "metar_trigger": false,
      "taf_trigger": false,
      "metar": "METAR EGNM 101050Z 05006KT 010V100 9999 SCT032 09/02 Q1021",
      "taf": "TAF EGNM 100455Z 1006/1106 03009KT 9999 FEW015"
    },
    {
      "icao": "EGPD",
      "alert": "OK",
      "vis_m": 9999,
      "fzfg": false,
      "metar_trigger": false,
      "taf_trigger": false,
      "metar": "METAR EGPD 101050Z COR AUTO 31010KT 260V330 9999 SCT041 10/01 Q1019 NOSIG",
      "taf": "TAF EGPD 100456Z 1006/1106 29008KT 9999 SCT030"
    },
    {
      "icao": "EGPF",
      "alert": "OK",
      "vis_m": 9999,
      "fzfg": false,
      "metar_trigger": false,
      "taf_trigger": false,
      "metar": "METAR EGPF 101050Z AUTO 29010KT 260V330 9999 NCD 12/01 Q1022",
      "taf": "TAF EGPF 100500Z 1006/1106 VRB03KT 9999 FEW030"
    },
    {
      "icao": "EHBK",
      "alert": "OK",
      "vis_m": 9999,
      "fzfg": false,
      "metar_trigger": false,
      "taf_trigger": false,
      "metar": "METAR EHBK 101055Z AUTO 03008KT 350V060 9999 NSC 17/08 Q1013 NOSIG",
      "taf": "TAF EHBK 100450Z 1006/1112 02008KT CAVOK"
    },
    {
      "icao": "EHEH",
      "alert": "OK",
      "vis_m": 9999,
      "fzfg": false,
      "metar_trigger": false,
      "taf_trigger": false,
      "metar": "METAR EHEH 101055Z AUTO 02008KT 320V080 9999 BKN040 BKN180 18/08 Q1013 BLU NOSIG RMK TREND REMOTE BY EHWX",
      "taf": "TAF EHEH 100500Z 1006/1112 01004KT CAVOK"
    },
    {
      "icao": "EKBI",
      "alert": "OK",
      "vis_m": 9999,
      "fzfg": false,
      "metar_trigger": false,
      "taf_trigger": false,
      "metar": "METAR EKBI 101050Z AUTO 33009KT 300V360 9999 FEW032/// BKN078/// 12/04 Q1014",
      "taf": "TAF EKBI 100827Z 1009/1109 34008KT CAVOK"
    },
    {
      "icao": "EKCH",
      "alert": "OK",
      "vis_m": 9999,
      "fzfg": false,
      "metar_trigger": false,
      "taf_trigger": false,
      "metar": "METAR EKCH 101050Z AUTO 17004KT 140V200 9999 OVC071/// 11/07 Q1014 NOSIG",
      "taf": "TAF EKCH 100827Z 1009/1109 14010KT CAVOK"
    },
    {
      "icao": "ENAL",
      "alert": "OK",
      "vis_m": 9999,
      "fzfg": false,
      "metar_trigger": false,
      "taf_trigger": false,
      "metar": "METAR ENAL 101050Z 25017KT 9999 FEW036 SCT050 07/00 Q1012",
      "taf": "TAF ENAL 100800Z 1009/1018 24012KT 9999 -SHRA FEW015TCU BKN025"
    },
    {
      "icao": "ENBR",
      "alert": "OK",
      "vis_m": 9999,
      "fzfg": false,
      "metar_trigger": false,
      "taf_trigger": false,
      "metar": "METAR ENBR 101050Z 03007KT 9999 -SHRA FEW015TCU SCT027 BKN035 04/02 Q1014 NOSIG RMK WIND 1200FT 28006KT",
      "taf": "TAF ENBR 100500Z 1006/1106 26005KT 9999 -SHRA FEW018 BKN035"
    },
    {
      "icao": "ENGM",
      "alert": "OK",
      "vis_m": 9999,
      "fzfg": false,
      "metar_trigger": false,
      "taf_trigger": false,
      "metar": "METAR ENGM 101050Z 14004KT 100V170 9999 VCSH FEW012 BKN017 07/02 Q1010 NOSIG",
      "taf": ""
    },
    {
      "icao": "ENHD",
      "alert": "OK",
      "vis_m": 9999,
      "fzfg": false,
      "metar_trigger": false,
      "taf_trigger": false,
      "metar": "METAR ENHD 101050Z 27007KT 9999 FEW016 BKN048 06/03 Q1015",
      "taf": "TAF ENHD 100800Z 1009/1018 31009KT 9999 -RA FEW012 BKN020"
    },
    {
      "icao": "ENTC",
      "alert": "OK",
      "vis_m": 9999,
      "fzfg": false,
      "metar_trigger": false,
      "taf_trigger": false,
      "metar": "METAR ENTC 101050Z 18008KT 9999 -RA OVC027 05/02 Q1008 TEMPO BKN014 RMK WIND 2600FT 24012KT",
      "taf": "TAF ENTC 100500Z 1006/1106 18005KT 9999 FEW020 BKN050"
    },
    {
      "icao": "ENTO",
      "alert": "OK",
      "vis_m": 9999,
      "fzfg": false,
      "metar_trigger": false,
      "taf_trigger": false,
      "metar": "METAR ENTO 101050Z 02003KT 330V060 9999 SCT014 OVC019 08/05 Q1011 NOSIG",
      "taf": "TAF ENTO 100500Z 1006/1106 35008KT 9999 BKN040"
    },
    {
      "icao": "ENVA",
      "alert": "OK",
      "vis_m": 9999,
      "fzfg": false,
      "metar_trigger": false,
      "taf_trigger": false,
      "metar": "METAR ENVA 101050Z 27010KT 9999 SCT052CB 09/00 Q1010 NOSIG RMK WIND 670FT 29012KT",
      "taf": ""
    },
    {
      "icao": "ENZV",
      "alert": "OK",
      "vis_m": 9999,
      "fzfg": false,
      "metar_trigger": false,
      "taf_trigger": false,
      "metar": "METAR ENZV 101050Z 34009KT 9999 VCSH FEW018CB BKN025 06/02 Q1015 NOSIG",
      "taf": "TAF ENZV 100500Z 1006/1106 34005KT 9999 FEW010 SCT035"
    },
    {
      "icao": "EPGD",
      "alert": "OK",
      "vis_m": 9999,
      "fzfg": false,
      "metar_trigger": false,
      "taf_trigger": false,
      "metar": "METAR EPGD 101100Z 08006KT 030V100 CAVOK 16/01 Q1015",
      "taf": "TAF EPGD 100530Z 1006/1106 VRB03KT CAVOK"
    },
    {
      "icao": "EPKK",
      "alert": "OK",
      "vis_m": 9999,
      "fzfg": false,
      "metar_trigger": false,
      "taf_trigger": false,
      "metar": "METAR EPKK 101100Z 08009KT 030V130 CAVOK 16/05 Q1015",
      "taf": "TAF EPKK 100830Z 1009/1109 11013KT CAVOK"
    },
    {
      "icao": "EPKT",
      "alert": "OK",
      "vis_m": 9999,
      "fzfg": false,
      "metar_trigger": false,
      "taf_trigger": false,
      "metar": "METAR EPKT 101100Z 13009KT 100V180 CAVOK 17/01 Q1015",
      "taf": "TAF EPKT 100530Z 1006/1106 06003KT CAVOK"
    },
    {
      "icao": "EPLB",
      "alert": "OK",
      "vis_m": 9999,
      "fzfg": false,
      "metar_trigger": false,
      "taf_trigger": false,
      "metar": "METAR EPLB 101100Z VRB03KT 9999 BKN048 16/05 Q1016",
      "taf": "TAF EPLB 100530Z 1006/1106 VRB03KT CAVOK"
    },
    {
      "icao": "EPMO",
      "alert": "OK",
      "vis_m": 9999,
      "fzfg": false,
      "metar_trigger": false,
      "taf_trigger": false,
      "metar": "METAR EPMO 101100Z 36003KT 310V080 CAVOK 17/00 Q1015",
      "taf": "TAF EPMO 100530Z 1006/1106 VRB02KT CAVOK"
    },
    {
      "icao": "EPPO",
      "alert": "OK",
      "vis_m": 9999,
      "fzfg": false,
      "metar_trigger": false,
      "taf_trigger": false,
      "metar": "METAR EPPO 101100Z 16009KT CAVOK 19/03 Q1014",
      "taf": "TAF EPPO 100530Z 1006/1106 VRB02KT CAVOK"
    },
    {
      "icao": "EPRA",
      "alert": "OK",
      "vis_m": 9999,
      "fzfg": false,
      "metar_trigger": false,
      "taf_trigger": false,
      "metar": "METAR EPRA 101100Z 26006KT 220V330 CAVOK 18/02 Q1015",
      "taf": "TAF EPRA 100830Z 1009/1018 27008KT 9999 SCT040"
    },
    {
      "icao": "EPRZ",
      "alert": "OK",
      "vis_m": 9999,
      "fzfg": false,
      "metar_trigger": false,
      "taf_trigger": false,
      "metar": "METAR EPRZ 101100Z 05003KT 350V090 9999 FEW040 15/03 Q1016",
      "taf": "TAF EPRZ 100530Z 1006/1106 VRB02KT 0200 FG BKN001"
    },
    {
      "icao": "EPSC",
      "alert": "OK",
      "vis_m": 9999,
      "fzfg": false,
      "metar_trigger": false,
      "taf_trigger": false,
      "metar": "METAR EPSC 101100Z 16011KT 9999 SCT049 18/05 Q1013",
      "taf": "TAF EPSC 100530Z 1006/1106 VRB02KT CAVOK"
    },
    {
      "icao": "EPSY",
      "alert": "OK",
      "vis_m": 9999,
      "fzfg": false,
      "metar_trigger": false,
      "taf_trigger": false,
      "metar": "METAR EPSY 101100Z VRB06KT CAVOK 16/02 Q1015",
      "taf": "TAF EPSY 100830Z 1009/1018 VRB02KT 9999 SCT040"
    },
    {
      "icao": "EPWA",
      "alert": "OK",
      "vis_m": 9999,
      "fzfg": false,
      "metar_trigger": false,
      "taf_trigger": false,
      "metar": "METAR EPWA 101100Z VRB03KT CAVOK 17/M01 Q1015 NOSIG",
      "taf": "TAF EPWA 100830Z 1009/1109 VRB05KT 9999 FEW045"
    },
    {
      "icao": "EPWR",
      "alert": "OK",
      "vis_m": 9999,
      "fzfg": false,
      "metar_trigger": false,
      "taf_trigger": false,
      "metar": "METAR EPWR 101100Z 13013KT CAVOK 18/06 Q1014",
      "taf": "TAF EPWR 100830Z 1009/1109 11005KT CAVOK"
    },
    {
      "icao": "ESGG",
      "alert": "OK",
      "vis_m": 9999,
      "fzfg": false,
      "metar_trigger": false,
      "taf_trigger": false,
      "metar": "METAR ESGG 101050Z 24013KT 210V270 9999 SCT026 BKN049 12/05 Q1011",
      "taf": "TAF ESGG 100830Z 1009/1109 19012KT CAVOK"
    },
    {
      "icao": "ESKN",
      "alert": "OK",
      "vis_m": 9999,
      "fzfg": false,
      "metar_trigger": false,
      "taf_trigger": false,
      "metar": "METAR ESKN 101050Z 12011KT CAVOK 14/05 Q1012",
      "taf": "TAF ESKN 100830Z 1009/1109 15008KT CAVOK"
    },
    {
      "icao": "ESMS",
      "alert": "OK",
      "vis_m": 9999,
      "fzfg": false,
      "metar_trigger": false,
      "taf_trigger": false,
      "metar": "METAR ESMS 101050Z 15003KT 080V220 CAVOK 16/05 Q1013",
      "taf": "TAF ESMS 100827Z 1009/1109 14010KT CAVOK"
    },
    {
      "icao": "ESSA",
      "alert": "OK",
      "vis_m": 9999,
      "fzfg": false,
      "metar_trigger": false,
      "taf_trigger": false,
      "metar": "METAR ESSA 101050Z 18013KT CAVOK 15/M03 Q1011 NOSIG",
      "taf": "TAF ESSA 100830Z 1009/1109 17010KT CAVOK"
    },
    {
      "icao": "EYKA",
      "alert": "OK",
      "vis_m": 9999,
      "fzfg": false,
      "metar_trigger": false,
      "taf_trigger": false,
      "metar": "METAR EYKA 101050Z VRB03KT 9999 BKN018 BKN025 OVC030 10/06 Q1016",
      "taf": "TAF EYKA 101100Z 1012/1112 VRB03KT 9000 BKN015"
    },
    {
      "icao": "EYPA",
      "alert": "OK",
      "vis_m": 9999,
      "fzfg": false,
      "metar_trigger": false,
      "taf_trigger": false,
      "metar": "METAR EYPA 101050Z 28005KT 220V330 CAVOK 11/05 Q1016",
      "taf": "TAF EYPA 101100Z 1012/1112 VRB03KT 9000 NSC"
    },
    {
      "icao": "EYVI",
      "alert": "OK",
      "vis_m": 9999,
      "fzfg": false,
      "metar_trigger": false,
      "taf_trigger": false,
      "metar": "METAR EYVI 101050Z 29004KT 240V350 9999 BKN005 OVC008 08/06 Q1015 NOSIG",
      "taf": "TAF EYVI 100520Z 1006/1106 30005KT 6000 OVC005"
    },
    {
      "icao": "GCFV",
      "alert": "OK",
      "vis_m": 9999,
      "fzfg": false,
      "metar_trigger": false,
      "taf_trigger": false,
      "metar": "METAR GCFV 101100Z 12007KT 080V160 9999 FEW030 SCT040 21/16 Q1019",
      "taf": "TAF GCFV 100800Z 1009/1109 09007KT 9999 SCT035 TX24/1014Z TN17/1106Z"
    },
    {
      "icao": "GCLP",
      "alert": "OK",
      "vis_m": 9999,
      "fzfg": false,
      "metar_trigger": false,
      "taf_trigger": false,
      "metar": "METAR GCLP 101100Z 07005KT 030V120 9999 SCT020 BKN035 20/16 Q1018 NOSIG",
      "taf": "TAF GCLP 100800Z 1009/1109 10006KT 9999 FEW025 BKN040 TX23/1014Z TN17/1106Z"
    },
    {
      "icao": "GCTS",
      "alert": "OK",
      "vis_m": 9999,
      "fzfg": false,
      "metar_trigger": false,
      "taf_trigger": false,
      "metar": "METAR GCTS 101100Z 15009KT 120V190 9999 FEW030 BKN060 22/15 Q1018 NOSIG",
      "taf": "TAF GCTS 100800Z 1009/1109 14005KT 9999 BKN040 TX25/1014Z TN18/1106Z"
    },
    {
      "icao": "GMAD",
      "alert": "OK",
      "vis_m": 9999,
      "fzfg": false,
      "metar_trigger": false,
      "taf_trigger": false,
      "metar": "METAR GMAD 101100Z 29003KT 230V020 9999 SCT016 23/11 Q1017 NOSIG",
      "taf": "TAF GMAD 100500Z 1006/1112 07004KT 8000 SCT026"
    },
    {
      "icao": "GMMN",
      "alert": "OK",
      "vis_m": 9999,
      "fzfg": false,
      "metar_trigger": false,
      "taf_trigger": false,
      "metar": "METAR GMMN 101100Z 23013KT 190V250 9999 BKN020 23/13 Q1017 NOSIG",
      "taf": "TAF GMMN 100500Z 1006/1112 18008KT 9999 FEW020"
    },
    {
      "icao": "GMMX",
      "alert": "OK",
      "vis_m": 9999,
      "fzfg": false,
      "metar_trigger": false,
      "taf_trigger": false,
      "metar": "METAR GMMX 101100Z VRB04KT 9999 SCT020 SCT200 22/11 Q1017 NOSIG",
      "taf": "TAF GMMX 100500Z 1006/1112 26006KT 8000 SCT023"
    },
    {
      "icao": "HEGN",
      "alert": "OK",
      "vis_m": 9999,
      "fzfg": false,
      "metar_trigger": false,
      "taf_trigger": false,
      "metar": "METAR HEGN 101000Z 01020KT CAVOK 31/09 Q1011 NOSIG",
      "taf": "TAF HEGN 101100Z 1012/1118 35015G25KT CAVOK"
    },
    {
      "icao": "HEMA",
      "alert": "OK",
      "vis_m": 9999,
      "fzfg": false,
      "metar_trigger": false,
      "taf_trigger": false,
      "metar": "METAR HEMA 101000Z 35014KT CAVOK 30/11 Q1011 NOSIG",
      "taf": "TAF HEMA 101100Z 1012/1118 36015G25KT CAVOK"
    },
    {
      "icao": "HESH",
      "alert": "OK",
      "vis_m": 9999,
      "fzfg": false,
      "metar_trigger": false,
      "taf_trigger": false,
      "metar": "METAR HESH 101000Z 34015KT CAVOK 32/14 Q1011 NOSIG",
      "taf": "TAF HESH 101100Z 1012/1118 02015G25KT CAVOK"
    },
    {
      "icao": "HESX",
      "alert": "OK",
      "vis_m": 9999,
      "fzfg": false,
      "metar_trigger": false,
      "taf_trigger": false,
      "metar": "METAR HESX 101000Z 04008KT CAVOK 28/08 Q1016 NOSIG",
      "taf": "TAF HESX 101100Z 1012/1118 03009KT CAVOK"
    },
    {
      "icao": "LATI",
      "alert": "OK",
      "vis_m": 9999,
      "fzfg": false,
      "metar_trigger": false,
      "taf_trigger": false,
      "metar": "METAR LATI 101050Z 21004KT 170V250 9999 FEW030 BKN140 22/14 Q1016 NOSIG",
      "taf": "TAF LATI 101100Z 1012/1112 VRB05KT 9999 SCT030 BKN100 TX26/1112Z TN14/1104Z"
    },
    {
      "icao": "LBPD",
      "alert": "OK",
      "vis_m": 9999,
      "fzfg": false,
      "metar_trigger": false,
      "taf_trigger": false,
      "metar": "METAR LBPD 101100Z AUTO 30006KT 260V350 9999 NCD 24/11 Q1014 NOSIG",
      "taf": "TAF LBPD 100500Z 1006/1106 VRB04KT 9999 SCT050"
    },
    {
      "icao": "LBSF",
      "alert": "OK",
      "vis_m": 9999,
      "fzfg": false,
      "metar_trigger": false,
      "taf_trigger": false,
      "metar": "METAR LBSF 101100Z VRB04KT 9999 SCT054 22/08 Q1016 NOSIG",
      "taf": "TAF LBSF 100500Z 1006/1106 32010KT 9999 SCT040"
    },
    {
      "icao": "LBWN",
      "alert": "OK",
      "vis_m": 9999,
      "fzfg": false,
      "metar_trigger": false,
      "taf_trigger": false,
      "metar": "METAR LBWN 101100Z 31012KT 280V340 9999 FEW033 SCT044 21/14 Q1014 NOSIG",
      "taf": "TAF LBWN 100500Z 1006/1106 30010KT 9999 BKN015 BKN040"
    },
    {
      "icao": "LCLK",
      "alert": "OK",
      "vis_m": 9999,
      "fzfg": false,
      "metar_trigger": false,
      "taf_trigger": false,
      "metar": "METAR LCLK 101100Z 20013KT 9999 FEW030 28/15 Q1014 NOSIG",
      "taf": "TAF LCLK 100530Z 1006/1106 14006KT CAVOK"
    },
    {
      "icao": "LCPH",
      "alert": "OK",
      "vis_m": 9999,
      "fzfg": false,
      "metar_trigger": false,
      "taf_trigger": false,
      "metar": "METAR LCPH 101100Z 31014KT 250V320 9999 FEW040 23/18 Q1015 NOSIG",
      "taf": "TAF LCPH 100530Z 1006/1106 05005KT CAVOK"
    },
    {
      "icao": "LEAL",
      "alert": "OK",
      "vis_m": 9999,
      "fzfg": false,
      "metar_trigger": false,
      "taf_trigger": false,
      "metar": "METAR LEAL 101100Z 11007KT 070V160 9999 FEW020 23/14 Q1014 NOSIG",
      "taf": "TAF LEAL 100500Z 1006/1106 VRB04KT 9999 FEW035 TX26/1012Z TN13/1105Z"
    },
    {
      "icao": "LEBB",
      "alert": "OK",
      "vis_m": 9999,
      "fzfg": false,
      "metar_trigger": false,
      "taf_trigger": false,
      "metar": "METAR LEBB 101100Z VRB03KT 9999 FEW060 SCT070 22/10 Q1009 NOSIG",
      "taf": "TAF LEBB 100500Z 1006/1106 24009KT CAVOK TX20/1015Z TN10/1104Z"
    },
    {
      "icao": "LEBL",
      "alert": "OK",
      "vis_m": 9999,
      "fzfg": false,
      "metar_trigger": false,
      "taf_trigger": false,
      "metar": "METAR LEBL 101100Z 23019KT 9999 FEW015 20/16 Q1012 NOSIG",
      "taf": "TAF LEBL 100500Z 1006/1106 VRB04KT 9999 FEW050 TX21/1013Z TN13/1006Z"
    },
    {
      "icao": "LECH",
      "alert": "OK",
      "vis_m": 9999,
      "fzfg": false,
      "metar_trigger": false,
      "taf_trigger": false,
      "metar": "METAR LECH 101100Z AUTO 24009KT 190V270 CAVOK 20/08 Q1013",
      "taf": ""
    },
    {
      "icao": "LEMD",
      "alert": "OK",
      "vis_m": 4000,
      "fzfg": false,
      "metar_trigger": false,
      "taf_trigger": false,
      "metar": "METAR LEMD 101100Z 25014G27KT 220V280 4000 -SHRA VCTS FEW030 SCT045CB BKN055 12/10 Q1012 RERA BECMG 9999",
      "taf": ""
    },
    {
      "icao": "LEMG",
      "alert": "OK",
      "vis_m": 9999,
      "fzfg": false,
      "metar_trigger": false,
      "taf_trigger": false,
      "metar": "METAR LEMG 101100Z 12007KT 080V170 9999 VCSH FEW030TCU SCT055 21/14 Q1016 NOSIG",
      "taf": ""
    },
    {
      "icao": "LEVC",
      "alert": "OK",
      "vis_m": 9999,
      "fzfg": false,
      "metar_trigger": false,
      "taf_trigger": false,
      "metar": "METAR LEVC 101100Z 34005KT 270V070 9999 FEW045 SCT053 23/11 Q1013 NOSIG",
      "taf": "TAF LEVC 100500Z 1006/1106 VRB04KT 9999 FEW020 TX24/1012Z TN13/1105Z"
    },
    {
      "icao": "LEXJ",
      "alert": "OK",
      "vis_m": 9999,
      "fzfg": false,
      "metar_trigger": false,
      "taf_trigger": false,
      "metar": "METAR LEXJ 101100Z 21007KT 160V260 9999 FEW050 20/08 Q1009",
      "taf": "TAF LEXJ 100800Z 1009/1109 21009KT 9999 FEW050 TX21/1014Z TN11/1105Z"
    },
    {
      "icao": "LEZG",
      "alert": "OK",
      "vis_m": 9999,
      "fzfg": false,
      "metar_trigger": false,
      "taf_trigger": false,
      "metar": "METAR LEZG 101100Z 25007KT 220V300 9999 FEW065 BKN080 20/08 Q1012 NOSIG",
      "taf": "TAF LEZG 100500Z 1006/1106 VRB04KT 9999 FEW020 TX23/1014Z TN10/1105Z"
    },
    {
      "icao": "LEZL",
      "alert": "OK",
      "vis_m": 9999,
      "fzfg": false,
      "metar_trigger": false,
      "taf_trigger": false,
      "metar": "METAR LEZL 101100Z 24013KT 190V280 9999 FEW029 20/14 Q1014 NOSIG",
      "taf": "TAF LEZL 100800Z 1009/1109 20008KT 9999 SCT030 TX22/1015Z TN11/1107Z"
    },
    {
      "icao": "LFBD",
      "alert": "OK",
      "vis_m": 9999,
      "fzfg": false,
      "metar_trigger": false,
      "taf_trigger": false,
      "metar": "METAR LFBD 101100Z AUTO 23016KT 9999 SCT047 21/09 Q1009 TEMPO 24015G25KT",
      "taf": "TAF LFBD 100500Z 1006/1112 16010KT CAVOK TX22/1013Z TN11/1105Z"
    },
    {
      "icao": "LFLL",
      "alert": "OK",
      "vis_m": 9999,
      "fzfg": false,
      "metar_trigger": false,
      "taf_trigger": false,
      "metar": "METAR LFLL 101100Z 15004KT 9999 -RA SCT010 BKN021 BKN026 15/13 Q1012 NOSIG",
      "taf": "TAF LFLL 100500Z 1006/1112 18005KT CAVOK"
    },
    {
      "icao": "LFLS",
      "alert": "OK",
      "vis_m": 9999,
      "fzfg": false,
      "metar_trigger": false,
      "taf_trigger": false,
      "metar": "METAR LFLS 101100Z AUTO VRB02KT 9999 FEW010 SCT018 BKN037 15/12 Q1012 TEMPO SHRA SCT040TCU",
      "taf": "TAF LFLS 100800Z 1009/1109 VRB02KT 9999 BKN045"
    },
    {
      "icao": "LFMN",
      "alert": "OK",
      "vis_m": 9999,
      "fzfg": false,
      "metar_trigger": false,
      "taf_trigger": false,
      "metar": "METAR LFMN 101100Z 09015KT 9999 FEW026 SCT050 BKN083 19/15 Q1012 NOSIG",
      "taf": "TAF LFMN 100800Z 1009/1115 08015KT 9999 FEW016 OVC060"
    },
    {
      "icao": "LFOB",
      "alert": "OK",
      "vis_m": 9999,
      "fzfg": false,
      "metar_trigger": false,
      "taf_trigger": false,
      "metar": "METAR LFOB 101100Z AUTO 04012KT 010V070 9999 ///CB 14/11 Q1011 TEMPO 2000 TSRA BKN014 BKN020CB",
      "taf": ""
    },
    {
      "icao": "LFPO",
      "alert": "OK",
      "vis_m": 9999,
      "fzfg": false,
      "metar_trigger": false,
      "taf_trigger": false,
      "metar": "METAR LFPO 101100Z 15003KT 110V210 9999 -RA BKN024 OVC030 18/13 Q1010 NOSIG",
      "taf": "TAF LFPO 100500Z 1006/1112 04010KT CAVOK"
    },
    {
      "icao": "LFSB",
      "alert": "OK",
      "vis_m": 9999,
      "fzfg": false,
      "metar_trigger": false,
      "taf_trigger": false,
      "metar": "METAR LFSB 101100Z AUTO 28008KT CAVOK 19/12 Q1010 TEMPO FEW040CB BKN050",
      "taf": ""
    },
    {
      "icao": "LGAV",
      "alert": "OK",
      "vis_m": 9999,
      "fzfg": false,
      "metar_trigger": false,
      "taf_trigger": false,
      "metar": "METAR LGAV 101050Z 10010KT 9999 SCT025 24/12 Q1016 NOSIG",
      "taf": "TAF LGAV 100500Z 1006/1106 VRB05KT 9999 FEW025"
    },
    {
      "icao": "LGTS",
      "alert": "OK",
      "vis_m": 9999,
      "fzfg": false,
      "metar_trigger": false,
      "taf_trigger": false,
      "metar": "METAR LGTS 101050Z 27007KT 9999 FEW020 25/14 Q1015 NOSIG",
      "taf": "TAF LGTS 100500Z 1006/1106 VRB03KT 9999 FEW025"
    },
    {
      "icao": "LHBP",
      "alert": "OK",
      "vis_m": 9999,
      "fzfg": false,
      "metar_trigger": false,
      "taf_trigger": false,
      "metar": "METAR LHBP 101100Z 22004KT 140V290 CAVOK 22/06 Q1015 NOSIG",
      "taf": "TAF LHBP 100515Z 1006/1106 08008KT CAVOK"
    },
    {
      "icao": "LHDC",
      "alert": "OK",
      "vis_m": 9999,
      "fzfg": false,
      "metar_trigger": false,
      "taf_trigger": false,
      "metar": "METAR LHDC 101045Z AUTO VRB03KT CAVOK 21/07 Q1014 NOSIG",
      "taf": "TAF LHDC 100815Z 1009/1018 VRB05KT CAVOK"
    },
    {
      "icao": "LIBD",
      "alert": "OK",
      "vis_m": 9999,
      "fzfg": false,
      "metar_trigger": false,
      "taf_trigger": false,
      "metar": "METAR LIBD 101050Z 07012KT CAVOK 22/14 Q1014",
      "taf": "TAF LIBD 100709Z 1006/1106 20005KT CAVOK"
    },
    {
      "icao": "LIBG",
      "alert": "OK",
      "vis_m": 9999,
      "fzfg": false,
      "metar_trigger": false,
      "taf_trigger": false,
      "metar": "METAR LIBG 100950Z 15007KT 120V200 CAVOK 24/13 Q1015",
      "taf": "TAF LIBG 100800Z 1009/1018 VRB05KT CAVOK"
    },
    {
      "icao": "LIBP",
      "alert": "OK",
      "vis_m": 9999,
      "fzfg": false,
      "metar_trigger": false,
      "taf_trigger": false,
      "metar": "METAR LIBP 101050Z AUTO 07008KT 050V110 9999 NCD 23/16 Q1012",
      "taf": "TAF LIBP 100708Z 1006/1106 VRB05KT 9999 FEW080"
    },
    {
      "icao": "LIBR",
      "alert": "OK",
      "vis_m": 9999,
      "fzfg": false,
      "metar_trigger": false,
      "taf_trigger": false,
      "metar": "METAR LIBR 101050Z 12009KT CAVOK 20/15 Q1015",
      "taf": "TAF LIBR 100707Z 1006/1106 25005KT CAVOK"
    },
    {
      "icao": "LICA",
      "alert": "OK",
      "vis_m": 9999,
      "fzfg": false,
      "metar_trigger": false,
      "taf_trigger": false,
      "metar": "METAR LICA 101050Z AUTO 06010KT 9999 NCD 26/19 Q1014",
      "taf": ""
    },
    {
      "icao": "LICC",
      "alert": "OK",
      "vis_m": 9999,
      "fzfg": false,
      "metar_trigger": false,
      "taf_trigger": false,
      "metar": "METAR LICC 101050Z 08008KT 050V110 CAVOK 23/19 Q1016",
      "taf": "TAF LICC 100701Z 1006/1106 VRB05KT 9999 SCT025"
    },
    {
      "icao": "LICJ",
      "alert": "OK",
      "vis_m": 9999,
      "fzfg": false,
      "metar_trigger": false,
      "taf_trigger": false,
      "metar": "METAR LICJ 101050Z 25015KT CAVOK 20/16 Q1014",
      "taf": "TAF LICJ 100702Z 1006/1106 VRB05KT 9999 FEW040"
    },
    {
      "icao": "LIMC",
      "alert": "OK",
      "vis_m": 7000,
      "fzfg": false,
      "metar_trigger": false,
      "taf_trigger": false,
      "metar": "METAR LIMC 101050Z 03005KT 7000 -RA BKN040 15/14 Q1015 RERA NOSIG",
      "taf": "TAF LIMC 100500Z 1006/1112 VRB05KT 4000 RA BKN050"
    },
    {
      "icao": "LIME",
      "alert": "OK",
      "vis_m": 7000,
      "fzfg": false,
      "metar_trigger": false,
      "taf_trigger": false,
      "metar": "METAR LIME 101050Z 33004KT 7000 -RA SCT030 BKN045 16/14 Q1014 RERA NOSIG",
      "taf": "TAF LIME 100646Z 1006/1106 VRB05KT 9999 SCT050"
    },
    {
      "icao": "LIMF",
      "alert": "OK",
      "vis_m": 8000,
      "fzfg": false,
      "metar_trigger": false,
      "taf_trigger": false,
      "metar": "METAR LIMF 101050Z 36006KT 8000 -RA OVC018 14/13 Q1015 RERA",
      "taf": "TAF LIMF 100648Z 1006/1106 1106 VRB05KT 4000 RA BKN050"
    },
    {
      "icao": "LIMJ",
      "alert": "OK",
      "vis_m": 7000,
      "fzfg": false,
      "metar_trigger": false,
      "taf_trigger": false,
      "metar": "METAR LIMJ 101050Z 09003KT 030V140 7000 -RA SCT022 BKN030 17/15 Q1014",
      "taf": "TAF LIMJ 100649Z 1006/1106 VRB05KT 4000 RA SCT020"
    },
    {
      "icao": "LIPE",
      "alert": "OK",
      "vis_m": 9999,
      "fzfg": false,
      "metar_trigger": false,
      "taf_trigger": false,
      "metar": "METAR LIPE 101050Z 08005KT 050V110 9999 FEW040 SCT070 20/16 Q1012",
      "taf": "TAF LIPE 100649Z 1006/1106 VRB05KT 9999 FEW060"
    },
    {
      "icao": "LIPH",
      "alert": "OK",
      "vis_m": 9999,
      "fzfg": false,
      "metar_trigger": false,
      "taf_trigger": false,
      "metar": "METAR LIPH 101050Z 10003KT 040V140 9999 BKN070 21/11 Q1013",
      "taf": "TAF LIPH 100705Z 1006/1106 VRB05KT CAVOK"
    },
    {
      "icao": "LIPQ",
      "alert": "OK",
      "vis_m": 9999,
      "fzfg": false,
      "metar_trigger": false,
      "taf_trigger": false,
      "metar": "METAR LIPQ 101050Z AUTO 23007KT 200V270 9999 FEW088/// BKN110/// 22/10 Q1014",
      "taf": "TAF LIPQ 100650Z 1006/1106 VRB05KT CAVOK"
    },
    {
      "icao": "LIPR",
      "alert": "OK",
      "vis_m": 9999,
      "fzfg": false,
      "metar_trigger": false,
      "taf_trigger": false,
      "metar": "METAR LIPR 101050Z 07005KT 040V110 9999 BKN060 19/15 Q1013",
      "taf": "TAF LIPR 100705Z 1006/1106 VRB05KT 9999 FEW060"
    },
    {
      "icao": "LIPX",
      "alert": "OK",
      "vis_m": 9999,
      "fzfg": false,
      "metar_trigger": false,
      "taf_trigger": false,
      "metar": "METAR LIPX 101050Z 05004KT 9999 BKN065 18/11 Q1014",
      "taf": "TAF LIPX 100648Z 1006/1106 VRB05KT 9999 SCT040"
    },
    {
      "icao": "LIPY",
      "alert": "OK",
      "vis_m": 9999,
      "fzfg": false,
      "metar_trigger": false,
      "taf_trigger": false,
      "metar": "METAR LIPY 101050Z AUTO 11007KT 080V150 9999 FEW110/// BKN130/// 23/15 Q1012",
      "taf": "TAF LIPY 100706Z 1006/1106 VRB05KT 9999 FEW060"
    },
    {
      "icao": "LIPZ",
      "alert": "OK",
      "vis_m": 9999,
      "fzfg": false,
      "metar_trigger": false,
      "taf_trigger": false,
      "metar": "METAR LIPZ 101050Z 11004KT 9999 BKN070 19/12 Q1014 NOSIG",
      "taf": "TAF LIPZ 100500Z 1006/1112 VRB05KT 9999 FEW060"
    },
    {
      "icao": "LIRF",
      "alert": "OK",
      "vis_m": 9999,
      "fzfg": false,
      "metar_trigger": false,
      "taf_trigger": false,
      "metar": "METAR LIRF 101050Z 15015KT 9999 FEW025 SCT035 21/15 Q1012 NOSIG",
      "taf": "TAF LIRF 100500Z 1006/1112 10010KT 9999 SCT040"
    },
    {
      "icao": "LIRN",
      "alert": "OK",
      "vis_m": 9999,
      "fzfg": false,
      "metar_trigger": false,
      "taf_trigger": false,
      "metar": "METAR LIRN 101050Z 21013KT 9999 SCT080 22/13 Q1014 NOSIG",
      "taf": "TAF LIRN 100650Z 1006/1106 VRB05KT 9999 FEW050"
    },
    {
      "icao": "LIRP",
      "alert": "OK",
      "vis_m": 9999,
      "fzfg": false,
      "metar_trigger": false,
      "taf_trigger": false,
      "metar": "METAR LIRP 101045Z 11008KT 9999 SCT025 BKN050 16/14 Q1014 NOSIG",
      "taf": "TAF LIRP 100500Z 1006/1106 08005KT 9999 FEW020 SCT070"
    },
    {
      "icao": "LIRZ",
      "alert": "OK",
      "vis_m": 9999,
      "fzfg": false,
      "metar_trigger": false,
      "taf_trigger": false,
      "metar": "METAR LIRZ 101050Z AUTO VRB01KT 9999 -RA BKN059/// 16/15 Q1014 RERA",
      "taf": "TAF LIRZ 100648Z 1006/1106 VRB05KT 9999 FEW060"
    },
    {
      "icao": "LJLJ",
      "alert": "OK",
      "vis_m": 9999,
      "fzfg": false,
      "metar_trigger": false,
      "taf_trigger": false,
      "metar": "METAR LJLJ 101100Z 07003KT 350V150 9999 FEW045 BKN230 20/11 Q1014 NOSIG",
      "taf": "TAF LJLJ 101100Z 1012/1112 12005KT 9999 FEW050"
    },
    {
      "icao": "LKMT",
      "alert": "OK",
      "vis_m": 9999,
      "fzfg": false,
      "metar_trigger": false,
      "taf_trigger": false,
      "metar": "METAR LKMT 101100Z 35003KT 280V080 CAVOK 17/08 Q1014 NOSIG",
      "taf": "TAF LKMT 100500Z 1006/1106 VRB02KT 0200 FG VV002"
    },
    {
      "icao": "LKPR",
      "alert": "OK",
      "vis_m": 9999,
      "fzfg": false,
      "metar_trigger": false,
      "taf_trigger": false,
      "metar": "METAR LKPR 101100Z VRB03KT 9999 FEW045 18/08 Q1013 NOSIG",
      "taf": "TAF LKPR 100800Z 1009/1115 09005KT CAVOK"
    },
    {
      "icao": "LLBG",
      "alert": "OK",
      "vis_m": 9999,
      "fzfg": false,
      "metar_trigger": false,
      "taf_trigger": false,
      "metar": "METAR LLBG 101050Z 31010KT CAVOK 27/13 Q1014 NOSIG",
      "taf": "TAF LLBG 100501Z 1006/1106 VRB03KT CAVOK TX28/1011Z TN16/1104Z"
    },
    {
      "icao": "LMML",
      "alert": "OK",
      "vis_m": 9999,
      "fzfg": false,
      "metar_trigger": false,
      "taf_trigger": false,
      "metar": "METAR LMML 101045Z 07015KT 9999 FEW015 22/17 Q1014 NOSIG",
      "taf": "TAF LMML 101100Z 1012/1112 08015KT 9999 FEW015"
    },
    {
      "icao": "LOWW",
      "alert": "OK",
      "vis_m": 9999,
      "fzfg": false,
      "metar_trigger": false,
      "taf_trigger": false,
      "metar": "METAR LOWW 101050Z 15013KT 110V190 9999 FEW045 20/09 Q1013 NOSIG",
      "taf": "TAF LOWW 100815Z 1009/1115 13007KT CAVOK TX25/1015Z TN14/1103Z"
    },
    {
      "icao": "LPFR",
      "alert": "OK",
      "vis_m": 9999,
      "fzfg": false,
      "metar_trigger": false,
      "taf_trigger": false,
      "metar": "METAR LPFR 101100Z 23011KT 9999 FEW020 19/14 Q1014",
      "taf": "TAF LPFR 100500Z 1006/1106 23012KT 9999 SCT020"
    },
    {
      "icao": "LPMA",
      "alert": "OK",
      "vis_m": 9999,
      "fzfg": false,
      "metar_trigger": false,
      "taf_trigger": false,
      "metar": "METAR LPMA 101100Z 10006KT 020V180 9999 FEW015 18/09 Q1016",
      "taf": "TAF LPMA 100500Z 1006/1106 VRB05KT 9999 SCT015"
    },
    {
      "icao": "LPPR",
      "alert": "OK",
      "vis_m": 9999,
      "fzfg": false,
      "metar_trigger": false,
      "taf_trigger": false,
      "metar": "METAR LPPR 101100Z 19016KT 9999 FEW020 FEW025CB 17/10 Q1009",
      "taf": "TAF LPPR 100500Z 1006/1106 15010KT 9999 SCT020"
    },
    {
      "icao": "LPPS",
      "alert": "OK",
      "vis_m": 9999,
      "fzfg": false,
      "metar_trigger": false,
      "taf_trigger": false,
      "metar": "METAR LPPS 101100Z 26013KT 9999 FEW015 18/08 Q1017",
      "taf": "TAF LPPS 100500Z 1006/1112 27013KT 9999 SCT015"
    },
    {
      "icao": "LPPT",
      "alert": "OK",
      "vis_m": 9999,
      "fzfg": false,
      "metar_trigger": false,
      "taf_trigger": false,
      "metar": "METAR LPPT 101100Z 22020KT 9999 FEW028 17/09 Q1010",
      "taf": "TAF LPPT 100500Z 1006/1112 21010KT 9999 SCT020"
    },
    {
      "icao": "LQBK",
      "alert": "OK",
      "vis_m": 9999,
      "fzfg": false,
      "metar_trigger": false,
      "taf_trigger": false,
      "metar": "METAR LQBK 101100Z 35005KT 300V050 CAVOK 23/11 Q1014 NOSIG",
      "taf": "TAF LQBK 100500Z 1006/1106 16005KT CAVOK TX25/1013Z TN12/1104Z"
    },
    {
      "icao": "LQSA",
      "alert": "OK",
      "vis_m": 9999,
      "fzfg": false,
      "metar_trigger": false,
      "taf_trigger": false,
      "metar": "METAR LQSA 101100Z VRB02KT 9999 SCT055 22/07 Q1014 NOSIG",
      "taf": "TAF LQSA 100500Z 1006/1106 VRB02KT 3000 BR BKN004 TX23/1013Z TN09/1104Z"
    },
    {
      "icao": "LQTZ",
      "alert": "OK",
      "vis_m": 9999,
      "fzfg": false,
      "metar_trigger": false,
      "taf_trigger": false,
      "metar": "METAR LQTZ 101100Z VRB02KT 9999 FEW040 24/11 Q1014",
      "taf": "TAF LQTZ 100500Z 1006/1106 10005KT CAVOK TX25/1013Z TN10/1104Z"
    },
    {
      "icao": "LRBC",
      "alert": "OK",
      "vis_m": 9999,
      "fzfg": false,
      "metar_trigger": false,
      "taf_trigger": false,
      "metar": "METAR LRBC 101100Z 35014KT 9999 FEW018 BKN026 18/12 Q1015",
      "taf": "TAF LRBC 100800Z 1009/1018 34010KT 9999 BKN010 BKN040"
    },
    {
      "icao": "LRBS",
      "alert": "OK",
      "vis_m": 9999,
      "fzfg": false,
      "metar_trigger": false,
      "taf_trigger": false,
      "metar": "METAR LRBS 101100Z 18008KT 160V220 9999 SCT019 BKN030 18/14 Q1015 NOSIG",
      "taf": "TAF LRBS 100500Z 1006/1106 24005KT 5000 RA BR BKN035"
    },
    {
      "icao": "LRBV",
      "alert": "OK",
      "vis_m": 9999,
      "fzfg": false,
      "metar_trigger": false,
      "taf_trigger": false,
      "metar": "METAR LRBV 101100Z 29010KT 260V320 9999 FEW042 19/06 Q1015",
      "taf": "TAF LRBV 100800Z 1009/1018 30009KT 9999 SCT045"
    },
    {
      "icao": "LRCL",
      "alert": "OK",
      "vis_m": 9999,
      "fzfg": false,
      "metar_trigger": false,
      "taf_trigger": false,
      "metar": "METAR LRCL 101100Z 21012KT 180V250 9999 TSRA BKN029CB 15/13 Q1015",
      "taf": "TAF LRCL 100800Z 1009/1018 VRB04KT 9999 SCT045"
    },
    {
      "icao": "LRCV",
      "alert": "OK",
      "vis_m": 9999,
      "fzfg": false,
      "metar_trigger": false,
      "taf_trigger": false,
      "metar": "METAR LRCV 101100Z 22005KT 190V270 9999 FEW022 21/14 Q1015",
      "taf": "TAF LRCV 100800Z 1009/1018 VRB04KT 9999 BKN005"
    },
    {
      "icao": "LRIA",
      "alert": "OK",
      "vis_m": 9999,
      "fzfg": false,
      "metar_trigger": false,
      "taf_trigger": false,
      "metar": "METAR LRIA 101100Z 30011KT 9999 BKN009 14/12 Q1015",
      "taf": "TAF LRIA 100800Z 1009/1018 30010KT 9999 OVC010"
    },
    {
      "icao": "LROP",
      "alert": "OK",
      "vis_m": 9999,
      "fzfg": false,
      "metar_trigger": false,
      "taf_trigger": false,
      "metar": "METAR LROP 101100Z 20007KT 170V230 9999 FEW025TCU SCT027 20/17 Q1015 NOSIG",
      "taf": "TAF LROP 100500Z 1006/1106 24005KT 3000 RA BR BKN035"
    },
    {
      "icao": "LRSB",
      "alert": "OK",
      "vis_m": 9999,
      "fzfg": false,
      "metar_trigger": false,
      "taf_trigger": false,
      "metar": "METAR LRSB 101100Z 15004KT 100V200 9999 FEW053 21/08 Q1015 NOSIG",
      "taf": "TAF LRSB 100500Z 1006/1106 VRB04KT CAVOK"
    },
    {
      "icao": "LRSM",
      "alert": "OK",
      "vis_m": 9999,
      "fzfg": false,
      "metar_trigger": false,
      "taf_trigger": false,
      "metar": "METAR LRSM 101100Z AUTO 32006KT 200V350 9999 FEW050/// 21/10 Q1014",
      "taf": ""
    },
    {
      "icao": "LRSV",
      "alert": "OK",
      "vis_m": 9999,
      "fzfg": false,
      "metar_trigger": false,
      "taf_trigger": false,
      "metar": "METAR LRSV 101100Z 36008KT 310V050 9999 SCT020 SCT033 15/09 Q1015",
      "taf": "TAF LRSV 100800Z 1009/1018 33010KT 9999 BKN010 BKN035"
    },
    {
      "icao": "LRTM",
      "alert": "OK",
      "vis_m": 9999,
      "fzfg": false,
      "metar_trigger": false,
      "taf_trigger": false,
      "metar": "METAR LRTM 101100Z 21004KT 110V260 9999 FEW015 SCT022 19/14 Q1015",
      "taf": "TAF LRTM 100800Z 1009/1018 26005KT 9999 BKN005"
    },
    {
      "icao": "LRTR",
      "alert": "OK",
      "vis_m": 9999,
      "fzfg": false,
      "metar_trigger": false,
      "taf_trigger": false,
      "metar": "METAR LRTR 101100Z VRB05KT 9999 FEW045TCU 23/10 Q1014 NOSIG",
      "taf": "TAF LRTR 100500Z 1006/1106 10007KT CAVOK"
    },
    {
      "icao": "LTAC",
      "alert": "OK",
      "vis_m": 9999,
      "fzfg": false,
      "metar_trigger": false,
      "taf_trigger": false,
      "metar": "METAR LTAC 101050Z 27011KT 240V310 9999 SCT040 SCT100 21/07 Q1017 NOSIG RMK RWY21C 23010KT 210V280 RWY03L 26010KT 200V290 RWY21R 25009KT 200V280 RWY03R 24011KT 200V290 RWY21L 24010KT 200V270",
      "taf": "TAF LTAC 101040Z 1012/1112 VRB02KT 9999 SCT040 SCT100"
    },
    {
      "icao": "LTFM",
      "alert": "OK",
      "vis_m": 9999,
      "fzfg": false,
      "metar_trigger": false,
      "taf_trigger": false,
      "metar": "METAR LTFM 101050Z 03009KT 9999 SCT030 SCT090 20/13 Q1016 NOSIG RMK RWY17L 02009KT RWY34L 02009KT 350V050 RWY16R 03008KT RWY36 03010KT 350V050 RWY18 04008KT 360V060",
      "taf": "TAF LTFM 101040Z 1012/1118 06010KT 9999 SCT030"
    },
    {
      "icao": "LUKK",
      "alert": "OK",
      "vis_m": 9999,
      "fzfg": false,
      "metar_trigger": false,
      "taf_trigger": false,
      "metar": "METAR LUKK 101100Z 32009KT 9999 -RA BKN009 BKN014 15/14 Q1013 NOSIG",
      "taf": "TAF LUKK 101102Z 1012/1112 31010KT 9999 BKN020"
    },
    {
      "icao": "LWOH",
      "alert": "OK",
      "vis_m": 9999,
      "fzfg": false,
      "metar_trigger": false,
      "taf_trigger": false,
      "metar": "METAR LWOH 101050Z 17006KT 150V210 9999 FEW020 SCT035 BKN090 16/12 Q1018",
      "taf": "TAF LWOH 100835Z 1009/1109 16006KT 9999 SCT020 BKN040"
    },
    {
      "icao": "LWSK",
      "alert": "OK",
      "vis_m": 9999,
      "fzfg": false,
      "metar_trigger": false,
      "taf_trigger": false,
      "metar": "METAR LWSK 101050Z 19003KT 9999 FEW050 24/11 Q1015 NOSIG",
      "taf": "TAF LWSK 100835Z 1009/1109 VRB02KT 9999 FEW050 SCT100"
    },
    {
      "icao": "LYBE",
      "alert": "OK",
      "vis_m": 9999,
      "fzfg": false,
      "metar_trigger": false,
      "taf_trigger": false,
      "metar": "METAR LYBE 101100Z VRB06KT 9999 SCT045 25/11 Q1014 NOSIG",
      "taf": "TAF LYBE 100500Z 1006/1106 16005KT 9999 SCT040 TX26/1014Z TN14/1103Z"
    },
    {
      "icao": "LYNI",
      "alert": "OK",
      "vis_m": 9999,
      "fzfg": false,
      "metar_trigger": false,
      "taf_trigger": false,
      "metar": "METAR LYNI 101100Z 14002KT 9999 FEW043 24/11 Q1015 NOSIG",
      "taf": "TAF LYNI 100500Z 1006/1106 15004KT 1500 BR BKN006 TX24/1013Z TN11/1103Z"
    },
    {
      "icao": "LYPG",
      "alert": "OK",
      "vis_m": 9999,
      "fzfg": false,
      "metar_trigger": false,
      "taf_trigger": false,
      "metar": "METAR LYPG 101100Z 13007KT 090V160 9999 FEW026 BKN090 22/14 Q1016 NOSIG",
      "taf": "TAF LYPG 100500Z 1006/1106 18008KT 9999 FEW050 BKN090 TX23/1014Z TN15/1104Z"
    },
    {
      "icao": "LZIB",
      "alert": "OK",
      "vis_m": 9999,
      "fzfg": false,
      "metar_trigger": false,
      "taf_trigger": false,
      "metar": "METAR LZIB 101100Z 17011KT 140V200 CAVOK 21/08 Q1014 NOSIG",
      "taf": "TAF LZIB 100515Z 1006/1106 VRB02KT CAVOK"
    },
    {
      "icao": "LZKZ",
      "alert": "OK",
      "vis_m": 9999,
      "fzfg": false,
      "metar_trigger": false,
      "taf_trigger": false,
      "metar": "METAR LZKZ 101100Z 03006KT 320V100 CAVOK 19/04 Q1015 NOSIG",
      "taf": "TAF LZKZ 100515Z 1006/1106 02012KT CAVOK"
    },
    {
      "icao": "LZTT",
      "alert": "OK",
      "vis_m": 9999,
      "fzfg": false,
      "metar_trigger": false,
      "taf_trigger": false,
      "metar": "METAR LZTT 101100Z VRB03KT 9999 SCT043 16/05 Q1015 NOSIG",
      "taf": ""
    },
    {
      "icao": "OEJN",
      "alert": "OK",
      "vis_m": 9999,
      "fzfg": false,
      "metar_trigger": false,
      "taf_trigger": false,
      "metar": "METAR OEJN 101100Z 26009KT 9999 FEW040 34/21 Q1009 NOSIG",
      "taf": "TAF OEJN 100500Z 1006/1112 24012KT CAVOK"
    },
    {
      "icao": "OEMA",
      "alert": "OK",
      "vis_m": 9999,
      "fzfg": false,
      "metar_trigger": false,
      "taf_trigger": false,
      "metar": "METAR OEMA 101100Z 21010KT 9999 FEW045 41/M02 Q1012 NOSIG",
      "taf": "TAF OEMA 100500Z 1006/1112 22012KT 7000 FEW040"
    },
    {
      "icao": "OJAI",
      "alert": "OK",
      "vis_m": 5000,
      "fzfg": false,
      "metar_trigger": false,
      "taf_trigger": false,
      "metar": "METAR OJAI 101000Z 30012KT 5000 HZ NSC 31/08 Q1016 NOSIG",
      "taf": "TAF OJAI 100500Z 1006/1112 29010KT 6000 NSC"
    },
    {
      "icao": "OMAA",
      "alert": "OK",
      "vis_m": 9999,
      "fzfg": false,
      "metar_trigger": false,
      "taf_trigger": false,
      "metar": "METAR OMAA 101100Z 29016KT CAVOK 36/12 Q1007 NOSIG",
      "taf": "TAF OMAA 101100Z 1012/1118 30014KT 8000 NSC"
    },
    {
      "icao": "OMDB",
      "alert": "OK",
      "vis_m": 9999,
      "fzfg": false,
      "metar_trigger": false,
      "taf_trigger": false,
      "metar": "METAR OMDB 101100Z 28013KT CAVOK 34/18 Q1006 NOSIG",
      "taf": "TAF OMDB 101100Z 1012/1118 27013KT CAVOK"
    },
    {
      "icao": "UAAA",
      "alert": "OK",
      "vis_m": 1900,
      "fzfg": false,
      "metar_trigger": false,
      "taf_trigger": false,
      "metar": "SPECI UAAA 101039Z 02002MPS 340V090 1900 R05R/1900 SHRA BR SCT012 BKN015CB OVC100 16/15 Q1014 NOSIG",
      "taf": "TAF UAAA 100501Z 1006/1106 23003G08MPS 9999 BKN050CB OVC100 TX22/1006Z TN12/1100Z"
    },
    {
      "icao": "UBBB",
      "alert": "OK",
      "vis_m": 9999,
      "fzfg": false,
      "metar_trigger": false,
      "taf_trigger": false,
      "metar": "METAR UBBB 101100Z 16012KT CAVOK 25/11 Q1016 NOSIG",
      "taf": "TAF UBBB 101054Z 1012/1112 15006KT CAVOK TX26/1012Z TN14/1101Z"
    },
    {
      "icao": "UDSG",
      "alert": "OK",
      "vis_m": 9999,
      "fzfg": false,
      "metar_trigger": false,
      "taf_trigger": false,
      "metar": "METAR UDSG 101030Z 18007KT 150V240 9999 SCT049CB 20/01 Q1021 NOSIG",
      "taf": "TAF UDSG 100458Z 1006/1106 23006KT 9999 SCT050"
    },
    {
      "icao": "UDYZ",
      "alert": "OK",
      "vis_m": 9999,
      "fzfg": false,
      "metar_trigger": false,
      "taf_trigger": false,
      "metar": "METAR UDYZ 101030Z VRB04KT 9999 FEW043 26/03 Q1017 NOSIG",
      "taf": "TAF UDYZ 100500Z 1006/1106 20006KT 9999 FEW040"
    },
    {
      "icao": "UGKO",
      "alert": "OK",
      "vis_m": 9999,
      "fzfg": false,
      "metar_trigger": false,
      "taf_trigger": false,
      "metar": "METAR UGKO 101100Z VRB02KT 9999 SCT039CB 30/09 Q1012 NOSIG",
      "taf": "TAF UGKO 101100Z 1012/1112 08007KT CAVOK TX29/1012Z TN12/1102Z"
    }
  ]
}