{
  "ts_utc": "2026-03-30T05:50:15Z",
  "threshold_m": 150,
  "source": "stations_override.txt (ICAO list) + aviationweather.gov (METAR/TAF raw)",
  "station_count": 159,
  "stations": [
    {
      "icao": "BIKF",
      "alert": "OK",
      "vis_m": 9999,
      "fzfg": false,
      "metar_trigger": false,
      "taf_trigger": false,
      "metar": "METAR BIKF 300530Z COR 24016KT 9999 VCSH BKN014 BKN036 04/02 Q0999",
      "taf": "TAF BIKF 300456Z 3006/3106 26025G35KT 9999 -SHRA FEW015 BKN030 TX04/3013Z TN00/3100Z"
    },
    {
      "icao": "BKPR",
      "alert": "OK",
      "vis_m": 9999,
      "fzfg": false,
      "metar_trigger": false,
      "taf_trigger": false,
      "metar": "METAR BKPR 300530Z 36007KT 9999 BKN030 05/02 Q1013 NOSIG",
      "taf": "TAF BKPR 300530Z 3006/3106 34008KT 9999 BKN040"
    },
    {
      "icao": "EBCI",
      "alert": "OK",
      "vis_m": 9999,
      "fzfg": false,
      "metar_trigger": false,
      "taf_trigger": false,
      "metar": "METAR EBCI 300520Z 27010KT 240V300 9999 FEW044 07/03 Q1018 TEMPO 29020G30KT 3000 SHRA",
      "taf": "TAF EBCI 300515Z 3006/3112 29013KT 9999 FEW018TCU SCT035"
    },
    {
      "icao": "EDDB",
      "alert": "OK",
      "vis_m": 9999,
      "fzfg": false,
      "metar_trigger": false,
      "taf_trigger": false,
      "metar": "METAR EDDB 300520Z AUTO 20012KT 9999 BKN019 BKN028 OVC039 04/02 Q1010 TEMPO 22015G25KT",
      "taf": "TAF EDDB 300500Z 3006/3106 21013KT 9999 BKN020"
    },
    {
      "icao": "EDDH",
      "alert": "OK",
      "vis_m": 9999,
      "fzfg": false,
      "metar_trigger": false,
      "taf_trigger": false,
      "metar": "METAR EDDH 300520Z AUTO 26008KT 230V290 9999 VCSH BKN010 BKN017 OVC029 FEW///TCU 05/03 Q1007 TEMPO 26015G25KT SHRA",
      "taf": "TAF EDDH 300500Z 3006/3112 26007KT 9999 FEW008 BKN020"
    },
    {
      "icao": "EDDK",
      "alert": "OK",
      "vis_m": 9999,
      "fzfg": false,
      "metar_trigger": false,
      "taf_trigger": false,
      "metar": "METAR EDDK 300520Z AUTO 27009KT 9999 -SHRA BKN019 BKN035 FEW///CB 05/03 Q1015 TEMPO SHRA BKN014CB",
      "taf": "TAF EDDK 300500Z 3006/3112 29012KT 9999 BKN025"
    },
    {
      "icao": "EDDN",
      "alert": "OK",
      "vis_m": 9999,
      "fzfg": false,
      "metar_trigger": false,
      "taf_trigger": false,
      "metar": "METAR EDDN 300520Z AUTO 20011KT 170V240 9999 BKN015 BKN034 03/00 Q1016 TEMPO 22015G25KT",
      "taf": "TAF EDDN 300500Z 3006/3106 31010KT 9999 FEW030 SCT035"
    },
    {
      "icao": "EDDS",
      "alert": "OK",
      "vis_m": 9999,
      "fzfg": false,
      "metar_trigger": false,
      "taf_trigger": false,
      "metar": "METAR EDDS 300520Z AUTO 23009KT 160V270 9999 BKN020 BKN035 OVC041 03/M00 Q1018 NOSIG",
      "taf": "TAF EDDS 300500Z 3006/3106 22012KT 9999 SCT020"
    },
    {
      "icao": "EDFH",
      "alert": "OK",
      "vis_m": 9999,
      "fzfg": false,
      "metar_trigger": false,
      "taf_trigger": false,
      "metar": "METAR EDFH 300520Z 24011KT 9999 FEW004 BKN007 OVC015 01/01 Q1015",
      "taf": "TAF EDFH 300500Z 3006/3106 30015KT 9999 SCT008"
    },
    {
      "icao": "EDJA",
      "alert": "OK",
      "vis_m": 9999,
      "fzfg": false,
      "metar_trigger": false,
      "taf_trigger": false,
      "metar": "METAR EDJA 300520Z 23014G26KT 9999 -SN BKN030 OVC040 01/M01 Q1019",
      "taf": "TAF EDJA 300500Z 3006/3015 23015G25KT 9999 SCT012 BKN035"
    },
    {
      "icao": "EDLW",
      "alert": "OK",
      "vis_m": 9999,
      "fzfg": false,
      "metar_trigger": false,
      "taf_trigger": false,
      "metar": "METAR EDLW 300520Z 25010KT 9999 FEW008 SCT020 04/02 Q1013",
      "taf": "TAF EDLW 300500Z 3006/3106 26010KT 9999 BKN025"
    },
    {
      "icao": "EDNY",
      "alert": "OK",
      "vis_m": 9999,
      "fzfg": false,
      "metar_trigger": false,
      "taf_trigger": false,
      "metar": "METAR EDNY 300520Z 23010KT 9999 SCT029 BKN037 04/M00 Q1022",
      "taf": "TAF EDNY 300500Z 3006/3015 23010KT 9999 BKN025"
    },
    {
      "icao": "EDSB",
      "alert": "OK",
      "vis_m": 9999,
      "fzfg": false,
      "metar_trigger": false,
      "taf_trigger": false,
      "metar": "METAR EDSB 300520Z 19017KT 9999 -RA OVC023 04/02 Q1020 RERA",
      "taf": "TAF EDSB 300500Z 3006/3106 21012KT 9999 BKN020"
    },
    {
      "icao": "EETN",
      "alert": "OK",
      "vis_m": 2400,
      "fzfg": false,
      "metar_trigger": false,
      "taf_trigger": false,
      "metar": "METAR EETN 300520Z 19006KT 2400 BR BKN001 OVC005 M01/M01 Q1013 TEMPO 3000",
      "taf": "TAF EETN 300530Z 3006/3106 19006KT 4000 BR OVC003"
    },
    {
      "icao": "EFTU",
      "alert": "OK",
      "vis_m": 7000,
      "fzfg": false,
      "metar_trigger": false,
      "taf_trigger": false,
      "metar": "METAR EFTU 300520Z AUTO 19010KT 7000 OVC002 01/00 Q1010",
      "taf": "TAF EFTU 300529Z 3006/3106 17009KT 8000 OVC002"
    },
    {
      "icao": "EGBB",
      "alert": "OK",
      "vis_m": 9999,
      "fzfg": false,
      "metar_trigger": false,
      "taf_trigger": false,
      "metar": "METAR EGBB 300520Z 28005KT 9999 VCSH SCT036 BKN043 07/02 Q1021",
      "taf": "TAF EGBB 300505Z 3006/3106 29010KT 9999 SCT040"
    },
    {
      "icao": "EGGP",
      "alert": "OK",
      "vis_m": 8000,
      "fzfg": false,
      "metar_trigger": false,
      "taf_trigger": false,
      "metar": "METAR EGGP 300520Z 29021KT 8000 -RA FEW019 SCT025 BKN032 07/04 Q1020",
      "taf": "TAF EGGP 300503Z 3006/3106 27018G30KT 9999 SCT030"
    },
    {
      "icao": "EGGW",
      "alert": "OK",
      "vis_m": 9999,
      "fzfg": false,
      "metar_trigger": false,
      "taf_trigger": false,
      "metar": "METAR EGGW 300520Z AUTO 29014KT 9999 NCD 06/02 Q1021",
      "taf": "TAF EGGW 300458Z 3006/3106 28010KT 9999 SCT035"
    },
    {
      "icao": "EGKK",
      "alert": "OK",
      "vis_m": 9999,
      "fzfg": false,
      "metar_trigger": false,
      "taf_trigger": false,
      "metar": "METAR EGKK 300520Z 23004KT 9999 FEW043 06/04 Q1022",
      "taf": "TAF EGKK 300454Z 3006/3112 24006KT 9999 FEW030"
    },
    {
      "icao": "EGNM",
      "alert": "OK",
      "vis_m": 9000,
      "fzfg": false,
      "metar_trigger": false,
      "taf_trigger": false,
      "metar": "METAR EGNM 300520Z 29011KT 9000 -SHRA SCT015 SCT025 04/03 Q1018",
      "taf": "TAF EGNM 300502Z 3006/3106 28015G27KT 9999 SCT025"
    },
    {
      "icao": "EGPD",
      "alert": "OK",
      "vis_m": 9999,
      "fzfg": false,
      "metar_trigger": false,
      "taf_trigger": false,
      "metar": "METAR EGPD 300520Z AUTO 28011KT 9999 SCT033/// BKN039/// BKN049/// //////TCU 05/M01 Q1010 TEMPO SHRA",
      "taf": "TAF EGPD 300456Z 3006/3106 27013KT 9999 FEW018 SCT040"
    },
    {
      "icao": "EGPF",
      "alert": "OK",
      "vis_m": 9999,
      "fzfg": false,
      "metar_trigger": false,
      "taf_trigger": false,
      "metar": "METAR EGPF 300520Z AUTO 27012KT 9999 SCT035 05/02 Q1016",
      "taf": "TAF EGPF 300503Z 3006/3106 28012KT 9999 SCT035"
    },
    {
      "icao": "EHBK",
      "alert": "OK",
      "vis_m": 9999,
      "fzfg": false,
      "metar_trigger": false,
      "taf_trigger": false,
      "metar": "METAR EHBK 300525Z AUTO 28007KT 210V330 9999 FEW026/// 06/02 Q1016 NOSIG",
      "taf": "TAF EHBK 300504Z 3006/3112 30013KT 9999 SCT030"
    },
    {
      "icao": "EHEH",
      "alert": "OK",
      "vis_m": 9999,
      "fzfg": false,
      "metar_trigger": false,
      "taf_trigger": false,
      "metar": "METAR EHEH 300525Z AUTO 28008KT 230V320 9999 FEW030 SCT043 06/03 Q1016 BLU TEMPO FEW020CB RMK TREND REMOTE BY EHWX",
      "taf": "TAF EHEH 292306Z 3000/3106 23014G28KT 9999 FEW006 SCT008 BKN010"
    },
    {
      "icao": "EKBI",
      "alert": "OK",
      "vis_m": 9999,
      "fzfg": false,
      "metar_trigger": false,
      "taf_trigger": false,
      "metar": "METAR EKBI 300520Z AUTO 26008KT 9999 -DZ BKN015/// 03/03 Q1004",
      "taf": "TAF EKBI 300527Z 3006/3106 28010KT 9999 SCT020"
    },
    {
      "icao": "EKCH",
      "alert": "OK",
      "vis_m": 9999,
      "fzfg": false,
      "metar_trigger": false,
      "taf_trigger": false,
      "metar": "METAR EKCH 300520Z 19014KT 9999 -RA FEW008 BKN012 04/03 Q1004 NOSIG",
      "taf": ""
    },
    {
      "icao": "ENAL",
      "alert": "OK",
      "vis_m": 9999,
      "fzfg": false,
      "metar_trigger": false,
      "taf_trigger": false,
      "metar": "METAR ENAL 300520Z 20010KT 9999 FEW035 SCT057 05/01 Q0994",
      "taf": "TAF ENAL 300500Z 3006/3015 20012KT 9999 -SHRA FEW015 BKN025"
    },
    {
      "icao": "ENBR",
      "alert": "OK",
      "vis_m": 4900,
      "fzfg": false,
      "metar_trigger": false,
      "taf_trigger": false,
      "metar": "METAR ENBR 300520Z 17008KT 4900 SHRA FEW003 SCT010CB BKN017 02/01 Q0999 TEMPO 9999 NSW RMK WIND 1200FT 26016KT",
      "taf": "TAF ENBR 300500Z 3006/3106 21008KT 9999 -SHRA SCT025"
    },
    {
      "icao": "ENGM",
      "alert": "OK",
      "vis_m": 3100,
      "fzfg": false,
      "metar_trigger": false,
      "taf_trigger": false,
      "metar": "METAR ENGM 300520Z 05004KT 3100 -SNRA SCT004 BKN016 00/M00 Q0997 TEMPO 1400 -SNRA BR BKN004",
      "taf": "TAF ENGM 300500Z 3006/3106 04005KT 6000 -SNRA SCT005 BKN010"
    },
    {
      "icao": "ENHD",
      "alert": "OK",
      "vis_m": 9999,
      "fzfg": false,
      "metar_trigger": false,
      "taf_trigger": false,
      "metar": "METAR ENHD 300520Z AUTO 01005KT 330V050 9999 -RA BKN017/// BKN022/// BKN027/// 04/02 Q1000",
      "taf": "TAF ENHD 300500Z 3006/3015 27012KT 9999 -SHRA FEW015 SCT025"
    },
    {
      "icao": "ENTC",
      "alert": "OK",
      "vis_m": 9999,
      "fzfg": false,
      "metar_trigger": false,
      "taf_trigger": false,
      "metar": "METAR ENTC 300520Z VRB02KT CAVOK M01/M03 Q0998 NOSIG RMK WIND 2600FT 17022KT",
      "taf": "TAF ENTC 300500Z 3006/3106 VRB03KT CAVOK"
    },
    {
      "icao": "ENTO",
      "alert": "OK",
      "vis_m": 8000,
      "fzfg": false,
      "metar_trigger": false,
      "taf_trigger": false,
      "metar": "METAR ENTO 300520Z 31008KT 8000 -RASN FEW010 SCT013 BKN018 02/02 Q0997 TEMPO 4000 -RASN BKN012",
      "taf": "TAF ENTO 300500Z 3006/3106 33008KT 9999 SCT005 BKN012"
    },
    {
      "icao": "ENVA",
      "alert": "OK",
      "vis_m": 9999,
      "fzfg": false,
      "metar_trigger": false,
      "taf_trigger": false,
      "metar": "METAR ENVA 300520Z 07003KT 020V100 CAVOK 05/M03 Q0995 NOSIG RMK WIND 670FT 16013KT",
      "taf": "TAF ENVA 300500Z 3006/3106 10008KT CAVOK"
    },
    {
      "icao": "ENZV",
      "alert": "OK",
      "vis_m": 7000,
      "fzfg": false,
      "metar_trigger": false,
      "taf_trigger": false,
      "metar": "METAR ENZV 300520Z 31007KT 7000 -SHRA SCT015 BKN019 04/02 Q1001 RERA TEMPO 4000 SHRAGS BKN009 BKN012CB",
      "taf": "TAF ENZV 300500Z 3006/3106 27012KT 9999 -SHRA FEW015 BKN025"
    },
    {
      "icao": "EPGD",
      "alert": "OK",
      "vis_m": 7000,
      "fzfg": false,
      "metar_trigger": false,
      "taf_trigger": false,
      "metar": "METAR EPGD 300530Z VRB02KT 7000 NSC 02/01 Q1012",
      "taf": "TAF EPGD 300530Z 3006/3106 VRB03KT CAVOK"
    },
    {
      "icao": "EPKK",
      "alert": "OK",
      "vis_m": 8000,
      "fzfg": false,
      "metar_trigger": false,
      "taf_trigger": false,
      "metar": "METAR EPKK 300530Z 20004KT 8000 BKN040 BKN045 04/03 Q1016",
      "taf": "TAF EPKK 300530Z 3006/3106 25007KT 9999 BKN020"
    },
    {
      "icao": "EPKT",
      "alert": "OK",
      "vis_m": 9999,
      "fzfg": false,
      "metar_trigger": false,
      "taf_trigger": false,
      "metar": "METAR EPKT 300530Z 24003KT CAVOK 02/01 Q1015",
      "taf": "TAF EPKT 300530Z 3006/3106 26007KT 9999 SCT030"
    },
    {
      "icao": "EPLB",
      "alert": "OK",
      "vis_m": 9999,
      "fzfg": false,
      "metar_trigger": false,
      "taf_trigger": false,
      "metar": "METAR EPLB 300530Z 29006KT CAVOK 03/01 Q1013",
      "taf": "TAF EPLB 300530Z 3006/3106 32008KT CAVOK"
    },
    {
      "icao": "EPMO",
      "alert": "OK",
      "vis_m": 5000,
      "fzfg": false,
      "metar_trigger": false,
      "taf_trigger": false,
      "metar": "METAR EPMO 300530Z 25003KT 5000 MIFG BR NSC 01/00 Q1015",
      "taf": "TAF EPMO 300530Z 3006/3106 VRB02KT CAVOK"
    },
    {
      "icao": "EPPO",
      "alert": "OK",
      "vis_m": 9999,
      "fzfg": false,
      "metar_trigger": false,
      "taf_trigger": false,
      "metar": "METAR EPPO 300530Z 17005KT CAVOK 01/M01 Q1013",
      "taf": "TAF EPPO 300530Z 3006/3106 18010KT CAVOK"
    },
    {
      "icao": "EPRA",
      "alert": "OK",
      "vis_m": 9999,
      "fzfg": false,
      "metar_trigger": false,
      "taf_trigger": false,
      "metar": "METAR EPRA 300530Z 31005KT 280V350 9999 -RA SCT047 04/01 Q1015",
      "taf": "TAF EPRA 300530Z 3006/3015 29005KT 9999 SCT040"
    },
    {
      "icao": "EPRZ",
      "alert": "OK",
      "vis_m": 9999,
      "fzfg": false,
      "metar_trigger": false,
      "taf_trigger": false,
      "metar": "METAR EPRZ 300530Z 27010KT 9999 SCT011 05/03 Q1014",
      "taf": "TAF EPRZ 300530Z 3006/3106 28010KT 9999 BKN030"
    },
    {
      "icao": "EPSC",
      "alert": "OK",
      "vis_m": 9999,
      "fzfg": false,
      "metar_trigger": false,
      "taf_trigger": false,
      "metar": "METAR EPSC 300530Z 15011KT 9999 -RA FEW008 BKN020 04/01 Q1009",
      "taf": "TAF EPSC 300530Z 3006/3106 18010KT 9999 -RA BKN020"
    },
    {
      "icao": "EPSY",
      "alert": "OK",
      "vis_m": 9999,
      "fzfg": false,
      "metar_trigger": false,
      "taf_trigger": false,
      "metar": "METAR EPSY 300530Z VRB01KT CAVOK 00/M00 Q1014",
      "taf": "TAF EPSY 300530Z 3006/3015 VRB02KT CAVOK"
    },
    {
      "icao": "EPWA",
      "alert": "OK",
      "vis_m": 9999,
      "fzfg": false,
      "metar_trigger": false,
      "taf_trigger": false,
      "metar": "METAR EPWA 300530Z 25004KT CAVOK 02/01 Q1015 NOSIG",
      "taf": "TAF EPWA 300530Z 3006/3106 30010KT CAVOK"
    },
    {
      "icao": "EPWR",
      "alert": "OK",
      "vis_m": 9999,
      "fzfg": false,
      "metar_trigger": false,
      "taf_trigger": false,
      "metar": "METAR EPWR 300530Z 16004KT CAVOK 05/M00 Q1015",
      "taf": "TAF EPWR 300530Z 3006/3106 18010KT CAVOK"
    },
    {
      "icao": "ESGG",
      "alert": "OK",
      "vis_m": 9999,
      "fzfg": false,
      "metar_trigger": false,
      "taf_trigger": false,
      "metar": "METAR ESGG 300520Z 18011KT 9999 -RA BKN004 OVC007 02/01 Q1000",
      "taf": "TAF ESGG 300530Z 3006/3106 18015KT 7000 -RA BKN004"
    },
    {
      "icao": "ESKN",
      "alert": "OK",
      "vis_m": 9999,
      "fzfg": false,
      "metar_trigger": false,
      "taf_trigger": false,
      "metar": "METAR ESKN 300520Z COR 14010KT 9999 BKN049 04/02 Q1006",
      "taf": "TAF ESKN 300530Z 3006/3106 17008KT CAVOK"
    },
    {
      "icao": "ESMS",
      "alert": "OK",
      "vis_m": 7000,
      "fzfg": false,
      "metar_trigger": false,
      "taf_trigger": false,
      "metar": "METAR ESMS 300520Z 18015KT 7000 -RA BKN007 BKN009 OVC012 03/03 Q1004",
      "taf": "TAF ESMS 300527Z 3006/3106 19015KT 9999 BKN009"
    },
    {
      "icao": "ESSA",
      "alert": "OK",
      "vis_m": 9999,
      "fzfg": false,
      "metar_trigger": false,
      "taf_trigger": false,
      "metar": "METAR ESSA 300520Z 16010KT CAVOK 03/M00 Q1006 NOSIG",
      "taf": "TAF ESSA 300530Z 3006/3106 19008KT CAVOK"
    },
    {
      "icao": "EYKA",
      "alert": "OK",
      "vis_m": 9999,
      "fzfg": false,
      "metar_trigger": false,
      "taf_trigger": false,
      "metar": "METAR EYKA 300520Z VRB02KT CAVOK 02/M00 Q1014",
      "taf": "TAF EYKA 300500Z 3006/3106 VRB05KT 9000 NSC"
    },
    {
      "icao": "EYPA",
      "alert": "OK",
      "vis_m": 4500,
      "fzfg": false,
      "metar_trigger": false,
      "taf_trigger": false,
      "metar": "METAR EYPA 300520Z 17006KT 4500 BR OVC002 01/01 Q1014",
      "taf": "TAF EYPA 300500Z 3006/3106 VRB05KT 3000 BR OVC002"
    },
    {
      "icao": "EYVI",
      "alert": "OK",
      "vis_m": 9999,
      "fzfg": false,
      "metar_trigger": false,
      "taf_trigger": false,
      "metar": "METAR EYVI 300520Z 34006KT CAVOK 04/M01 Q1012 NOSIG",
      "taf": "TAF EYVI 300500Z 3006/3106 VRB05KT 9000 NSC"
    },
    {
      "icao": "GCFV",
      "alert": "OK",
      "vis_m": 9999,
      "fzfg": false,
      "metar_trigger": false,
      "taf_trigger": false,
      "metar": "METAR GCFV 300530Z 01020KT 9999 FEW025 17/12 Q1016",
      "taf": "TAF GCFV 300200Z 3003/3103 03020KT CAVOK TX21/3014Z TN16/3006Z"
    },
    {
      "icao": "GCLP",
      "alert": "OK",
      "vis_m": 9999,
      "fzfg": false,
      "metar_trigger": false,
      "taf_trigger": false,
      "metar": "METAR GCLP 300530Z 36017KT 9999 BKN025 17/11 Q1017 NOSIG",
      "taf": "TAF GCLP 300200Z 3003/3103 01021KT 9999 SCT025 TX21/3014Z TN17/3006Z"
    },
    {
      "icao": "GCTS",
      "alert": "OK",
      "vis_m": 9999,
      "fzfg": false,
      "metar_trigger": false,
      "taf_trigger": false,
      "metar": "METAR GCTS 300530Z 07022KT CAVOK 17/09 Q1016 NOSIG",
      "taf": "TAF GCTS 300200Z 3003/3103 05020KT CAVOK TX24/3014Z TN17/3006Z"
    },
    {
      "icao": "GMAD",
      "alert": "OK",
      "vis_m": 6000,
      "fzfg": false,
      "metar_trigger": false,
      "taf_trigger": false,
      "metar": "METAR GMAD 300530Z 00000KT 6000 SCT006 13/12 Q1012 NOSIG",
      "taf": "TAF GMAD 300500Z 3006/3112 35004KT 6000 SCT006"
    },
    {
      "icao": "GMMN",
      "alert": "OK",
      "vis_m": 9999,
      "fzfg": false,
      "metar_trigger": false,
      "taf_trigger": false,
      "metar": "METAR GMMN 300530Z 04011KT CAVOK 09/04 Q1020 NOSIG",
      "taf": "TAF GMMN 300500Z 3006/3112 04010KT CAVOK"
    },
    {
      "icao": "GMMX",
      "alert": "OK",
      "vis_m": 9999,
      "fzfg": false,
      "metar_trigger": false,
      "taf_trigger": false,
      "metar": "METAR GMMX 300530Z 09004KT CAVOK 07/05 Q1017 NOSIG",
      "taf": "TAF GMMX 300500Z 3006/3112 04006KT 8000 NSC"
    },
    {
      "icao": "HEGN",
      "alert": "OK",
      "vis_m": 9999,
      "fzfg": false,
      "metar_trigger": false,
      "taf_trigger": false,
      "metar": "METAR HEGN 300500Z 31007KT 9999 SCT020 SCT025 20/09 Q1011 NOSIG",
      "taf": "TAF HEGN 300508Z 3006/3112 34015G25KT 9999 SCT025"
    },
    {
      "icao": "HEMA",
      "alert": "OK",
      "vis_m": 4000,
      "fzfg": false,
      "metar_trigger": false,
      "taf_trigger": false,
      "metar": "METAR HEMA 300500Z 32016KT 4000 SA NSC 22/15 Q1011 NOSIG",
      "taf": "TAF HEMA 300500Z 3006/3112 33015G25KT 9999 SCT025"
    },
    {
      "icao": "HESH",
      "alert": "OK",
      "vis_m": 9999,
      "fzfg": false,
      "metar_trigger": false,
      "taf_trigger": false,
      "metar": "METAR HESH 300500Z 36004KT CAVOK 21/15 Q1009 NOSIG",
      "taf": "TAF HESH 300508Z 3006/3112 29008KT 9999 SCT025"
    },
    {
      "icao": "HESX",
      "alert": "OK",
      "vis_m": 9999,
      "fzfg": false,
      "metar_trigger": false,
      "taf_trigger": false,
      "metar": "METAR HESX 300500Z 19002KT CAVOK 13/09 Q1013 NOSIG",
      "taf": "TAF HESX 300500Z 3006/3112 VRB03KT CAVOK"
    },
    {
      "icao": "LATI",
      "alert": "OK",
      "vis_m": null,
      "fzfg": false,
      "metar_trigger": false,
      "taf_trigger": false,
      "metar": "",
      "taf": "TAF LATI 300500Z 3006/3106 VRB03KT CAVOK TX18/3012Z TN07/3104Z"
    },
    {
      "icao": "LBPD",
      "alert": "OK",
      "vis_m": 9999,
      "fzfg": false,
      "metar_trigger": false,
      "taf_trigger": false,
      "metar": "METAR LBPD 300530Z AUTO 28018KT 9999 FEW087/// 11/04 Q1008 NOSIG",
      "taf": "TAF LBPD 300500Z 3006/3106 28018KT 9999 SCT030 BKN060"
    },
    {
      "icao": "LBSF",
      "alert": "OK",
      "vis_m": 9999,
      "fzfg": false,
      "metar_trigger": false,
      "taf_trigger": false,
      "metar": "METAR LBSF 300530Z 29011KT 9999 -RA OVC011 04/02 Q1011 NOSIG",
      "taf": "TAF LBSF 300500Z 3006/3106 28018KT 9999 BKN012 OVC020"
    },
    {
      "icao": "LBWN",
      "alert": "OK",
      "vis_m": 9999,
      "fzfg": false,
      "metar_trigger": false,
      "taf_trigger": false,
      "metar": "METAR LBWN 300530Z 36011KT 9999 -RA SCT012 BKN049 11/11 Q1004 RERA NOSIG",
      "taf": "TAF LBWN 300500Z 3006/3106 34014KT 5000 RA BKN015 OVC030"
    },
    {
      "icao": "LCLK",
      "alert": "OK",
      "vis_m": 9999,
      "fzfg": false,
      "metar_trigger": false,
      "taf_trigger": false,
      "metar": "METAR LCLK 300530Z VRB02KT 9999 FEW025TCU 16/10 Q1008 NOSIG",
      "taf": "TAF LCLK 300530Z 3006/3106 26010KT 9999 FEW030"
    },
    {
      "icao": "LCPH",
      "alert": "OK",
      "vis_m": 9999,
      "fzfg": false,
      "metar_trigger": false,
      "taf_trigger": false,
      "metar": "METAR LCPH 300530Z 31015KT 9999 FEW025TCU BKN030 16/09 Q1009 NOSIG",
      "taf": "TAF LCPH 300530Z 3006/3106 29018KT 9999 FEW025 SCT035"
    },
    {
      "icao": "LEAL",
      "alert": "OK",
      "vis_m": 9999,
      "fzfg": false,
      "metar_trigger": false,
      "taf_trigger": false,
      "metar": "METAR LEAL 300530Z 26005KT CAVOK 08/M03 Q1026 NOSIG",
      "taf": "TAF LEAL 300500Z 3006/3106 33007KT 9999 FEW025 TX17/3012Z TN06/3006Z"
    },
    {
      "icao": "LEBB",
      "alert": "OK",
      "vis_m": 9999,
      "fzfg": false,
      "metar_trigger": false,
      "taf_trigger": false,
      "metar": "METAR LEBB 300530Z 10003KT 060V130 9999 SCT036 BKN049 08/05 Q1034 NOSIG",
      "taf": "TAF LEBB 300500Z 3006/3106 31009KT 9999 BKN020 TX12/3018Z TN09/3006Z"
    },
    {
      "icao": "LEBL",
      "alert": "OK",
      "vis_m": 9999,
      "fzfg": false,
      "metar_trigger": false,
      "taf_trigger": false,
      "metar": "METAR LEBL 300530Z 33008G19KT CAVOK 06/M04 Q1025 NOSIG",
      "taf": "TAF LEBL 300500Z 3006/3106 34007KT CAVOK TX21/3012Z TN07/3006Z"
    },
    {
      "icao": "LECH",
      "alert": "OK",
      "vis_m": 9999,
      "fzfg": false,
      "metar_trigger": false,
      "taf_trigger": false,
      "metar": "METAR LECH 300530Z AUTO 03005KT 300V110 CAVOK 07/M03 Q1025",
      "taf": "TAF LECH 300500Z 3006/3106 34009KT 9999 FEW030 TX21/3013Z TN05/3006Z"
    },
    {
      "icao": "LEMD",
      "alert": "OK",
      "vis_m": 9999,
      "fzfg": false,
      "metar_trigger": false,
      "taf_trigger": false,
      "metar": "METAR LEMD 300530Z 36003KT CAVOK 01/M05 Q1029 NOSIG",
      "taf": "TAF LEMD 300500Z 3006/3112 VRB04KT CAVOK TX14/3016Z TN06/3106Z"
    },
    {
      "icao": "LEMG",
      "alert": "OK",
      "vis_m": 9999,
      "fzfg": false,
      "metar_trigger": false,
      "taf_trigger": false,
      "metar": "METAR LEMG 300530Z 29008KT CAVOK 07/04 Q1027 NOSIG",
      "taf": "TAF LEMG 300500Z 3006/3106 27010KT CAVOK TX19/3013Z TN09/3007Z"
    },
    {
      "icao": "LEVC",
      "alert": "OK",
      "vis_m": 9999,
      "fzfg": false,
      "metar_trigger": false,
      "taf_trigger": false,
      "metar": "METAR LEVC 300530Z 28004KT CAVOK 06/M02 Q1026 NOSIG",
      "taf": "TAF LEVC 300500Z 3006/3106 30009KT 9999 FEW025 TX21/3013Z TN05/3006Z"
    },
    {
      "icao": "LEXJ",
      "alert": "OK",
      "vis_m": 9999,
      "fzfg": false,
      "metar_trigger": false,
      "taf_trigger": false,
      "metar": "METAR LEXJ 300530Z 24005KT 210V280 9999 FEW040 BKN048 08/04 Q1035",
      "taf": "TAF LEXJ 300200Z 3003/3103 31009KT 9999 BKN025 TX13/3021Z TN07/3003Z"
    },
    {
      "icao": "LEZG",
      "alert": "OK",
      "vis_m": 9999,
      "fzfg": false,
      "metar_trigger": false,
      "taf_trigger": false,
      "metar": "METAR LEZG 300530Z 29022KT CAVOK 07/00 Q1028 NOSIG",
      "taf": "TAF LEZG 300500Z 3006/3106 33020KT 9999 FEW045 TX17/3014Z TN06/3006Z"
    },
    {
      "icao": "LEZL",
      "alert": "OK",
      "vis_m": 9999,
      "fzfg": false,
      "metar_trigger": false,
      "taf_trigger": false,
      "metar": "METAR LEZL 300530Z 06007KT CAVOK 08/M01 Q1028 NOSIG",
      "taf": "TAF LEZL 300200Z 3003/3103 05008KT CAVOK TX22/3015Z TN08/3007Z"
    },
    {
      "icao": "LFBD",
      "alert": "OK",
      "vis_m": 9999,
      "fzfg": false,
      "metar_trigger": false,
      "taf_trigger": false,
      "metar": "METAR LFBD 300530Z AUTO 22006KT 9999 -DZ BKN031 BKN039 OVC050 08/05 Q1032 TEMPO 3000 -RADZ OVC005",
      "taf": "TAF LFBD 300500Z 3006/3112 VRB03KT 9999 BKN030 TX15/3014Z TN05/3105Z"
    },
    {
      "icao": "LFLL",
      "alert": "OK",
      "vis_m": 9999,
      "fzfg": false,
      "metar_trigger": false,
      "taf_trigger": false,
      "metar": "METAR LFLL 300530Z 17001KT 9999 BKN050 BKN071 05/00 Q1027 NOSIG",
      "taf": "TAF LFLL 300500Z 3006/3112 VRB04KT 9999 BKN040"
    },
    {
      "icao": "LFLS",
      "alert": "OK",
      "vis_m": 9999,
      "fzfg": false,
      "metar_trigger": false,
      "taf_trigger": false,
      "metar": "METAR LFLS 300530Z AUTO 13002KT CAVOK 02/00 Q1025 NOSIG",
      "taf": "TAF LFLS 300200Z 3003/3103 VRB05KT CAVOK"
    },
    {
      "icao": "LFMN",
      "alert": "OK",
      "vis_m": 9999,
      "fzfg": false,
      "metar_trigger": false,
      "taf_trigger": false,
      "metar": "METAR LFMN 300530Z 34009KT CAVOK 11/M00 Q1017 NOSIG",
      "taf": "TAF LFMN 300200Z 3003/3109 33010KT CAVOK"
    },
    {
      "icao": "LFOB",
      "alert": "OK",
      "vis_m": 9999,
      "fzfg": false,
      "metar_trigger": false,
      "taf_trigger": false,
      "metar": "METAR LFOB 300530Z AUTO 26007KT 9999 FEW024 08/07 Q1022 BECMG 32012KT",
      "taf": "TAF LFOB 300500Z 3006/3106 27010KT 9999 SCT020"
    },
    {
      "icao": "LFPO",
      "alert": "OK",
      "vis_m": 9999,
      "fzfg": false,
      "metar_trigger": false,
      "taf_trigger": false,
      "metar": "METAR LFPO 300530Z 27006KT 9999 BKN013 SCT020 08/07 Q1023 NOSIG",
      "taf": "TAF LFPO 300500Z 3006/3112 29010KT 9999 BKN025"
    },
    {
      "icao": "LFSB",
      "alert": "OK",
      "vis_m": 9999,
      "fzfg": false,
      "metar_trigger": false,
      "taf_trigger": false,
      "metar": "METAR LFSB 300530Z AUTO 24012KT 9999 FEW028 BKN036 BKN070 05/01 Q1023 TEMPO 26015G25KT",
      "taf": "TAF LFSB 300505Z 3006/3106 25012KT 9999 FEW020 BKN035"
    },
    {
      "icao": "LGAV",
      "alert": "OK",
      "vis_m": 9999,
      "fzfg": false,
      "metar_trigger": false,
      "taf_trigger": false,
      "metar": "METAR LGAV 300520Z VRB01KT 9999 FEW025 10/06 Q1011 NOSIG",
      "taf": "TAF LGAV 300500Z 3006/3106 VRB05KT 9999 FEW020"
    },
    {
      "icao": "LGTS",
      "alert": "OK",
      "vis_m": 9999,
      "fzfg": false,
      "metar_trigger": false,
      "taf_trigger": false,
      "metar": "METAR LGTS 300520Z 34014KT 9999 FEW020 11/04 Q1010 NOSIG",
      "taf": "TAF LGTS 300500Z 3006/3106 34015KT 9999 FEW025"
    },
    {
      "icao": "LHBP",
      "alert": "OK",
      "vis_m": 9999,
      "fzfg": false,
      "metar_trigger": false,
      "taf_trigger": false,
      "metar": "METAR LHBP 300530Z 32012KT 9999 -RA OVC048 05/04 Q1014 NOSIG",
      "taf": "TAF LHBP 300515Z 3006/3106 32012KT 9999 -RA OVC045"
    },
    {
      "icao": "LHDC",
      "alert": "OK",
      "vis_m": 7000,
      "fzfg": false,
      "metar_trigger": false,
      "taf_trigger": false,
      "metar": "METAR LHDC 300515Z AUTO 02013KT 350V050 7000 -RA NSC 08/04 Q1012 NOSIG",
      "taf": "TAF LHDC 300515Z 3006/3015 01010KT CAVOK"
    },
    {
      "icao": "LIBD",
      "alert": "OK",
      "vis_m": 9999,
      "fzfg": false,
      "metar_trigger": false,
      "taf_trigger": false,
      "metar": "METAR LIBD 300520Z 27007KT CAVOK 09/06 Q1015",
      "taf": "TAF LIBD 300500Z 3006/3106 28012KT CAVOK"
    },
    {
      "icao": "LIBG",
      "alert": "OK",
      "vis_m": null,
      "fzfg": false,
      "metar_trigger": false,
      "taf_trigger": false,
      "metar": "",
      "taf": ""
    },
    {
      "icao": "LIBP",
      "alert": "OK",
      "vis_m": 9999,
      "fzfg": false,
      "metar_trigger": false,
      "taf_trigger": false,
      "metar": "METAR LIBP 300520Z AUTO 24004KT 9999 NCD 05/03 Q1017",
      "taf": "TAF LIBP 300500Z 3006/3106 27010KT CAVOK"
    },
    {
      "icao": "LIBR",
      "alert": "OK",
      "vis_m": 9999,
      "fzfg": false,
      "metar_trigger": false,
      "taf_trigger": false,
      "metar": "METAR LIBR 300520Z 31014KT 9999 FEW035 10/08 Q1013",
      "taf": "TAF LIBR 300500Z 3006/3106 33016KT 9999 BKN030"
    },
    {
      "icao": "LICA",
      "alert": "OK",
      "vis_m": 9999,
      "fzfg": false,
      "metar_trigger": false,
      "taf_trigger": false,
      "metar": "METAR LICA 300520Z AUTO 07004KT 9999 NCD 07/06 Q1015",
      "taf": "TAF LICA 300500Z 3006/3106 VRB05KT 9999 SCT030"
    },
    {
      "icao": "LICC",
      "alert": "OK",
      "vis_m": 9999,
      "fzfg": false,
      "metar_trigger": false,
      "taf_trigger": false,
      "metar": "METAR LICC 300520Z 25004KT 9999 BKN080 10/05 Q1014",
      "taf": "TAF LICC 300500Z 3006/3106 VRB05KT 9999 SCT040"
    },
    {
      "icao": "LICJ",
      "alert": "OK",
      "vis_m": 9999,
      "fzfg": false,
      "metar_trigger": false,
      "taf_trigger": false,
      "metar": "METAR LICJ 300520Z 16003KT 120V190 CAVOK 11/07 Q1014",
      "taf": "TAF LICJ 300500Z 3006/3106 VRB05KT 9999 SCT040"
    },
    {
      "icao": "LIMC",
      "alert": "OK",
      "vis_m": 9999,
      "fzfg": false,
      "metar_trigger": false,
      "taf_trigger": false,
      "metar": "METAR LIMC 300520Z 32004KT 270V040 CAVOK 06/M03 Q1016 NOSIG",
      "taf": "TAF LIMC 300500Z 3006/3112 34006KT CAVOK"
    },
    {
      "icao": "LIME",
      "alert": "OK",
      "vis_m": 9999,
      "fzfg": false,
      "metar_trigger": false,
      "taf_trigger": false,
      "metar": "METAR LIME 300520Z VRB01KT 9999 SCT110 06/M00 Q1015 NOSIG",
      "taf": "TAF LIME 300500Z 3006/3106 01006KT CAVOK"
    },
    {
      "icao": "LIMF",
      "alert": "OK",
      "vis_m": 9999,
      "fzfg": false,
      "metar_trigger": false,
      "taf_trigger": false,
      "metar": "METAR LIMF 300520Z 28003KT 260V320 CAVOK 05/M03 Q1016",
      "taf": "TAF LIMF 300500Z 3006/3106 VRB05KT CAVOK"
    },
    {
      "icao": "LIMJ",
      "alert": "OK",
      "vis_m": 9999,
      "fzfg": false,
      "metar_trigger": false,
      "taf_trigger": false,
      "metar": "METAR LIMJ 300520Z 04011KT CAVOK 12/M05 Q1016",
      "taf": "TAF LIMJ 300500Z 3006/3106 02010KT CAVOK"
    },
    {
      "icao": "LIPE",
      "alert": "OK",
      "vis_m": 9999,
      "fzfg": false,
      "metar_trigger": false,
      "taf_trigger": false,
      "metar": "METAR LIPE 300520Z 19006KT CAVOK 06/01 Q1016",
      "taf": "TAF LIPE 300500Z 3006/3106 VRB05KT CAVOK"
    },
    {
      "icao": "LIPH",
      "alert": "OK",
      "vis_m": 9999,
      "fzfg": false,
      "metar_trigger": false,
      "taf_trigger": false,
      "metar": "METAR LIPH 300520Z VRB02KT CAVOK 06/01 Q1015",
      "taf": "TAF LIPH 300500Z 3006/3106 VRB05KT CAVOK"
    },
    {
      "icao": "LIPQ",
      "alert": "OK",
      "vis_m": 9999,
      "fzfg": false,
      "metar_trigger": false,
      "taf_trigger": false,
      "metar": "METAR LIPQ 300520Z AUTO 05003KT 9999 BKN210/// 02/00 Q1016",
      "taf": "TAF LIPQ 300500Z 3006/3106 VRB06KT CAVOK"
    },
    {
      "icao": "LIPR",
      "alert": "OK",
      "vis_m": 9999,
      "fzfg": false,
      "metar_trigger": false,
      "taf_trigger": false,
      "metar": "METAR LIPR 300520Z 20004KT CAVOK 04/02 Q1016",
      "taf": "TAF LIPR 300500Z 3006/3106 VRB05KT 9999 BKN070"
    },
    {
      "icao": "LIPX",
      "alert": "OK",
      "vis_m": 9999,
      "fzfg": false,
      "metar_trigger": false,
      "taf_trigger": false,
      "metar": "METAR LIPX 300520Z 31002KT CAVOK 07/M01 Q1015",
      "taf": "TAF LIPX 300500Z 3006/3106 VRB05KT CAVOK"
    },
    {
      "icao": "LIPY",
      "alert": "OK",
      "vis_m": 9999,
      "fzfg": false,
      "metar_trigger": false,
      "taf_trigger": false,
      "metar": "METAR LIPY 300520Z AUTO 18003KT 9999 SCT190/// 05/04 Q1017",
      "taf": "TAF LIPY 300500Z 3006/3106 VRB05KT CAVOK"
    },
    {
      "icao": "LIPZ",
      "alert": "OK",
      "vis_m": 9999,
      "fzfg": false,
      "metar_trigger": false,
      "taf_trigger": false,
      "metar": "METAR LIPZ 300520Z 04005KT CAVOK 06/04 Q1015 NOSIG",
      "taf": "TAF LIPZ 300500Z 3006/3112 VRB05KT CAVOK"
    },
    {
      "icao": "LIRF",
      "alert": "OK",
      "vis_m": 9999,
      "fzfg": false,
      "metar_trigger": false,
      "taf_trigger": false,
      "metar": "METAR LIRF 300520Z 07003KT CAVOK 07/03 Q1015 NOSIG",
      "taf": "TAF LIRF 300500Z 3006/3112 04006KT 9999 FEW030"
    },
    {
      "icao": "LIRN",
      "alert": "OK",
      "vis_m": 9999,
      "fzfg": false,
      "metar_trigger": false,
      "taf_trigger": false,
      "metar": "METAR LIRN 300520Z 35005KT CAVOK 09/03 Q1015 NOSIG",
      "taf": "TAF LIRN 300500Z 3006/3106 05008KT 9999 SCT050"
    },
    {
      "icao": "LIRP",
      "alert": "OK",
      "vis_m": 9999,
      "fzfg": false,
      "metar_trigger": false,
      "taf_trigger": false,
      "metar": "METAR LIRP 300515Z 13004KT CAVOK 03/01 Q1017 NOSIG",
      "taf": "TAF LIRP 300500Z 3006/3106 09004KT CAVOK"
    },
    {
      "icao": "LIRZ",
      "alert": "OK",
      "vis_m": 9999,
      "fzfg": false,
      "metar_trigger": false,
      "taf_trigger": false,
      "metar": "METAR LIRZ 300520Z AUTO 01007KT 9999 NCD 03/01 Q1016",
      "taf": "TAF LIRZ 300500Z 3006/3106 VRB05KT 9999 SCT060"
    },
    {
      "icao": "LJLJ",
      "alert": "OK",
      "vis_m": 9999,
      "fzfg": false,
      "metar_trigger": false,
      "taf_trigger": false,
      "metar": "METAR LJLJ 300530Z 29004KT 260V320 9999 FEW085 SCT250 M01/M04 Q1017 NOSIG",
      "taf": "TAF LJLJ 300500Z 3006/3106 VRB02KT 9999 FEW070"
    },
    {
      "icao": "LKMT",
      "alert": "OK",
      "vis_m": 9999,
      "fzfg": false,
      "metar_trigger": false,
      "taf_trigger": false,
      "metar": "METAR LKMT 300530Z 23004KT 9999 OVC042 03/02 Q1017 NOSIG",
      "taf": "TAF LKMT 300500Z 3006/3106 23010KT 9999 SCT045"
    },
    {
      "icao": "LKPR",
      "alert": "OK",
      "vis_m": 9999,
      "fzfg": false,
      "metar_trigger": false,
      "taf_trigger": false,
      "metar": "METAR LKPR 300530Z 18009KT 9999 FEW022 SCT030 03/M02 Q1015 NOSIG",
      "taf": "TAF LKPR 300500Z 3006/3112 21013KT CAVOK"
    },
    {
      "icao": "LLBG",
      "alert": "OK",
      "vis_m": 9999,
      "fzfg": false,
      "metar_trigger": false,
      "taf_trigger": false,
      "metar": "METAR LLBG 300520Z 19009KT 9999 FEW030 SCT050 14/11 Q1012 TEMPO 8000 RA BKN030 RMK BKN075",
      "taf": "TAF LLBG 300506Z 3006/3106 16005KT 9999 SCT035 TX19/3012Z TN11/3104Z"
    },
    {
      "icao": "LMML",
      "alert": "OK",
      "vis_m": 9999,
      "fzfg": false,
      "metar_trigger": false,
      "taf_trigger": false,
      "metar": "METAR LMML 300545Z VRB01KT 9999 FEW025 11/08 Q1014 NOSIG",
      "taf": "TAF LMML 300500Z 3006/3106 27007KT 9999 SCT025"
    },
    {
      "icao": "LOWW",
      "alert": "OK",
      "vis_m": 9999,
      "fzfg": false,
      "metar_trigger": false,
      "taf_trigger": false,
      "metar": "METAR LOWW 300520Z 32010KT CAVOK 05/01 Q1018 NOSIG",
      "taf": "TAF LOWW 300515Z 3006/3112 32015KT CAVOK TX09/3012Z TN04/3104Z"
    },
    {
      "icao": "LPFR",
      "alert": "OK",
      "vis_m": 9999,
      "fzfg": false,
      "metar_trigger": false,
      "taf_trigger": false,
      "metar": "METAR LPFR 300530Z 04010KT CAVOK 12/M04 Q1027",
      "taf": "TAF LPFR 300500Z 3006/3106 04008KT CAVOK"
    },
    {
      "icao": "LPMA",
      "alert": "OK",
      "vis_m": 9999,
      "fzfg": false,
      "metar_trigger": false,
      "taf_trigger": false,
      "metar": "METAR LPMA 300530Z 36020KT 9999 FEW015 15/10 Q1024",
      "taf": "TAF LPMA 300500Z 3006/3106 01020G30KT 9999 SCT015"
    },
    {
      "icao": "LPPR",
      "alert": "OK",
      "vis_m": 9999,
      "fzfg": false,
      "metar_trigger": false,
      "taf_trigger": false,
      "metar": "METAR LPPR 300530Z 07005KT 040V120 CAVOK 09/01 Q1032",
      "taf": "TAF LPPR 300500Z 3006/3106 08005KT CAVOK"
    },
    {
      "icao": "LPPS",
      "alert": "OK",
      "vis_m": 9999,
      "fzfg": false,
      "metar_trigger": false,
      "taf_trigger": false,
      "metar": "METAR LPPS 300530Z 04019G29KT 020V080 9999 FEW014 15/11 Q1024",
      "taf": "TAF LPPS 300500Z 3006/3112 04020KT 9999 SCT015"
    },
    {
      "icao": "LPPT",
      "alert": "OK",
      "vis_m": 9999,
      "fzfg": false,
      "metar_trigger": false,
      "taf_trigger": false,
      "metar": "METAR LPPT 300530Z 04010KT CAVOK 11/M01 Q1030",
      "taf": "TAF LPPT 300500Z 3006/3112 05013KT CAVOK"
    },
    {
      "icao": "LQBK",
      "alert": "OK",
      "vis_m": 9999,
      "fzfg": false,
      "metar_trigger": false,
      "taf_trigger": false,
      "metar": "METAR LQBK 300530Z 27009KT 9999 SCT015 OVC030 05/02 Q1018 NOSIG",
      "taf": "TAF LQBK 300500Z 3006/3106 28010KT 9999 -RA FEW015 OVC035 TX07/3013Z TN04/3105Z"
    },
    {
      "icao": "LQSA",
      "alert": "OK",
      "vis_m": 9999,
      "fzfg": false,
      "metar_trigger": false,
      "taf_trigger": false,
      "metar": "METAR LQSA 300530Z VRB01KT 9999 BKN006 OVC025 03/02 Q1016 NOSIG",
      "taf": "TAF LQSA 300500Z 3006/3106 32006KT 9999 SCT020 BKN040 TX05/3013Z TN00/3105Z"
    },
    {
      "icao": "LQTZ",
      "alert": "OK",
      "vis_m": 9999,
      "fzfg": false,
      "metar_trigger": false,
      "taf_trigger": false,
      "metar": "METAR LQTZ 300530Z 31003KT 9999 -DZ OVC015 02/02 Q1016",
      "taf": "TAF LQTZ 300500Z 3006/3106 29008KT 8000 -RA BR SCT015 OVC025 TX04/3013Z TN00/3105Z"
    },
    {
      "icao": "LRBC",
      "alert": "OK",
      "vis_m": 9999,
      "fzfg": false,
      "metar_trigger": false,
      "taf_trigger": false,
      "metar": "METAR LRBC 300530Z 34012KT 9999 FEW038 10/07 Q1008",
      "taf": "TAF LRBC 300500Z 3006/3015 34014KT 9999 SCT040"
    },
    {
      "icao": "LRBS",
      "alert": "OK",
      "vis_m": 9999,
      "fzfg": false,
      "metar_trigger": false,
      "taf_trigger": false,
      "metar": "METAR LRBS 300530Z 26004KT 9999 FEW048 09/09 Q1007 NOSIG",
      "taf": "TAF LRBS 300500Z 3006/3106 31007KT 9999 SCT040"
    },
    {
      "icao": "LRBV",
      "alert": "OK",
      "vis_m": 9999,
      "fzfg": false,
      "metar_trigger": false,
      "taf_trigger": false,
      "metar": "METAR LRBV 300530Z 29007KT 9999 FEW006 SCT011 BKN021 07/06 Q1009",
      "taf": "TAF LRBV 300500Z 3006/3015 29010KT 9999 SCT010 BKN025"
    },
    {
      "icao": "LRCL",
      "alert": "OK",
      "vis_m": 9999,
      "fzfg": false,
      "metar_trigger": false,
      "taf_trigger": false,
      "metar": "METAR LRCL 300530Z 28003KT 250V310 9999 FEW022 SCT064 09/08 Q1010 RERA",
      "taf": "TAF LRCL 300500Z 3006/3015 29006KT 9999 OVC045"
    },
    {
      "icao": "LRCV",
      "alert": "OK",
      "vis_m": 9999,
      "fzfg": false,
      "metar_trigger": false,
      "taf_trigger": false,
      "metar": "METAR LRCV 300530Z 25009KT 9999 -RA SCT036 BKN045 08/07 Q1009",
      "taf": "TAF LRCV 300500Z 3006/3015 26012KT 9999 BKN045"
    },
    {
      "icao": "LRIA",
      "alert": "OK",
      "vis_m": 9999,
      "fzfg": false,
      "metar_trigger": false,
      "taf_trigger": false,
      "metar": "METAR LRIA 300530Z 29006KT 240V320 CAVOK 08/06 Q1008",
      "taf": "TAF LRIA 300500Z 3006/3015 33010KT CAVOK"
    },
    {
      "icao": "LROP",
      "alert": "OK",
      "vis_m": 9999,
      "fzfg": false,
      "metar_trigger": false,
      "taf_trigger": false,
      "metar": "METAR LROP 300530Z 27005KT CAVOK 09/09 Q1007 NOSIG",
      "taf": "TAF LROP 300500Z 3006/3106 31007KT 9999 SCT040"
    },
    {
      "icao": "LRSB",
      "alert": "OK",
      "vis_m": 9000,
      "fzfg": false,
      "metar_trigger": false,
      "taf_trigger": false,
      "metar": "METAR LRSB 300530Z 26004KT 9000 SCT018 OVC021 08/08 Q1010",
      "taf": "TAF LRSB 300500Z 3006/3106 VRB04KT 9999 SCT010 OVC025"
    },
    {
      "icao": "LRSM",
      "alert": "OK",
      "vis_m": 9999,
      "fzfg": false,
      "metar_trigger": false,
      "taf_trigger": false,
      "metar": "METAR LRSM 300530Z 33005KT CAVOK 09/06 Q1011",
      "taf": "TAF LRSM 300500Z 3006/3015 30006KT CAVOK"
    },
    {
      "icao": "LRSV",
      "alert": "OK",
      "vis_m": 9999,
      "fzfg": false,
      "metar_trigger": false,
      "taf_trigger": false,
      "metar": "METAR LRSV 300530Z 31012KT 9999 SCT030 08/07 Q1008",
      "taf": "TAF LRSV 300500Z 3006/3015 32012KT 9999 BKN035"
    },
    {
      "icao": "LRTM",
      "alert": "OK",
      "vis_m": 9999,
      "fzfg": false,
      "metar_trigger": false,
      "taf_trigger": false,
      "metar": "METAR LRTM 300530Z 23004KT 9999 -RA SCT009 BKN044 09/08 Q1010",
      "taf": "TAF LRTM 300500Z 3006/3015 25007KT 9999 SCT010 BKN045"
    },
    {
      "icao": "LRTR",
      "alert": "OK",
      "vis_m": 4000,
      "fzfg": false,
      "metar_trigger": false,
      "taf_trigger": false,
      "metar": "METAR LRTR 300530Z 34006KT 4000 BR BKN005 OVC008 09/09 Q1012 BECMG 5000",
      "taf": "TAF LRTR 300500Z 3006/3106 33007KT 3000 BR BKN005 OVC010"
    },
    {
      "icao": "LTAC",
      "alert": "OK",
      "vis_m": 9999,
      "fzfg": false,
      "metar_trigger": false,
      "taf_trigger": false,
      "metar": "METAR LTAC 300520Z 25012KT 9999 FEW011 SCT040 BKN100 04/02 Q1003 NOSIG RMK RWY21C 23012KT RWY03L 24011KT RWY21R 22012KT RWY03R 24009KT RWY21L 24011KT",
      "taf": ""
    },
    {
      "icao": "LTFM",
      "alert": "OK",
      "vis_m": 6000,
      "fzfg": false,
      "metar_trigger": false,
      "taf_trigger": false,
      "metar": "METAR LTFM 300520Z 32015KT 6000 -RA BKN006 BKN018 10/08 Q1004 NOSIG RMK RWY17L 31015KT RWY34L 31015KT RWY16R 31015KT RWY36 31017KT RWY18 31018KT",
      "taf": "TAF LTFM 300440Z 3006/3112 29010KT 9999 -RA BKN007 BKN018"
    },
    {
      "icao": "LUKK",
      "alert": "OK",
      "vis_m": 9999,
      "fzfg": false,
      "metar_trigger": false,
      "taf_trigger": false,
      "metar": "METAR LUKK 300530Z 35016KT 9999 -RA SCT048 09/06 Q1005 NOSIG",
      "taf": "TAF LUKK 300507Z 3006/3106 35012KT 9999 SCT040"
    },
    {
      "icao": "LWOH",
      "alert": "OK",
      "vis_m": 9999,
      "fzfg": false,
      "metar_trigger": false,
      "taf_trigger": false,
      "metar": "METAR LWOH 300520Z VRB02KT CAVOK 00/M02 Q1012",
      "taf": "TAF LWOH 300515Z 3006/3106 VRB02KT 9999 FEW045"
    },
    {
      "icao": "LWSK",
      "alert": "OK",
      "vis_m": null,
      "fzfg": false,
      "metar_trigger": false,
      "taf_trigger": false,
      "metar": "",
      "taf": "TAF LWSK 300515Z 3006/3106 02008KT 9999 BKN045"
    },
    {
      "icao": "LYBE",
      "alert": "OK",
      "vis_m": 3000,
      "fzfg": false,
      "metar_trigger": false,
      "taf_trigger": false,
      "metar": "METAR LYBE 300530Z 28014KT 3000 -RA BR BKN003 06/05 Q1014 NOSIG",
      "taf": "TAF LYBE 300500Z 3006/3106 27014KT 7000 BKN008 BKN027 TX07/3012Z TN04/3106Z"
    },
    {
      "icao": "LYNI",
      "alert": "OK",
      "vis_m": 9999,
      "fzfg": false,
      "metar_trigger": false,
      "taf_trigger": false,
      "metar": "METAR LYNI 300530Z 32006KT 290V350 9999 FEW006 BKN015 OVC017 05/05 Q1014 NOSIG",
      "taf": "TAF LYNI 300500Z 3006/3106 34010KT 9999 SCT017 BKN030 TX09/3013Z TN04/3106Z"
    },
    {
      "icao": "LYPG",
      "alert": "OK",
      "vis_m": 9999,
      "fzfg": false,
      "metar_trigger": false,
      "taf_trigger": false,
      "metar": "METAR LYPG 300530Z 10003KT 360V160 CAVOK 10/01 Q1013 NOSIG",
      "taf": "TAF LYPG 300500Z 3006/3106 16005KT 9999 FEW040 TX18/3013Z TN07/3102Z"
    },
    {
      "icao": "LZIB",
      "alert": "OK",
      "vis_m": 9999,
      "fzfg": false,
      "metar_trigger": false,
      "taf_trigger": false,
      "metar": "METAR LZIB 300530Z 32009KT 280V350 CAVOK 07/M01 Q1017 NOSIG",
      "taf": "TAF LZIB 300515Z 3006/3106 33008KT 9999 FEW035"
    },
    {
      "icao": "LZKZ",
      "alert": "OK",
      "vis_m": 9999,
      "fzfg": false,
      "metar_trigger": false,
      "taf_trigger": false,
      "metar": "METAR LZKZ 300530Z 02012KT CAVOK 08/02 Q1013 NOSIG",
      "taf": "TAF LZKZ 300515Z 3006/3106 02012KT CAVOK"
    },
    {
      "icao": "LZTT",
      "alert": "OK",
      "vis_m": 9999,
      "fzfg": false,
      "metar_trigger": false,
      "taf_trigger": false,
      "metar": "METAR LZTT 300530Z 28008KT 9999 -RA BKN007 OVC060 02/01 Q1013 NOSIG",
      "taf": "TAF LZTT 300515Z 3006/3106 27010KT 9999 BKN016 BKN040"
    },
    {
      "icao": "OEJN",
      "alert": "OK",
      "vis_m": 9999,
      "fzfg": false,
      "metar_trigger": false,
      "taf_trigger": false,
      "metar": "METAR OEJN 300500Z 36002KT CAVOK 24/13 Q1008 NOSIG",
      "taf": "TAF OEJN 300500Z 3006/3112 32012KT CAVOK"
    },
    {
      "icao": "OEMA",
      "alert": "OK",
      "vis_m": 9999,
      "fzfg": false,
      "metar_trigger": false,
      "taf_trigger": false,
      "metar": "METAR OEMA 300500Z 17002KT CAVOK 24/06 Q1013 NOSIG",
      "taf": "TAF OEMA 300500Z 3006/3112 VRB03KT 9999 SCT040"
    },
    {
      "icao": "OJAI",
      "alert": "OK",
      "vis_m": 4000,
      "fzfg": false,
      "metar_trigger": false,
      "taf_trigger": false,
      "metar": "METAR OJAI 300500Z 19004KT 4000 BR FEW030 FEW080 08/07 Q1013 NOSIG",
      "taf": "TAF OJAI 300500Z 3006/3112 26010KT 4000 BR FEW025 BKN030"
    },
    {
      "icao": "OMAA",
      "alert": "OK",
      "vis_m": null,
      "fzfg": false,
      "metar_trigger": false,
      "taf_trigger": false,
      "metar": "",
      "taf": ""
    },
    {
      "icao": "OMDB",
      "alert": "OK",
      "vis_m": null,
      "fzfg": false,
      "metar_trigger": false,
      "taf_trigger": false,
      "metar": "",
      "taf": ""
    },
    {
      "icao": "UAAA",
      "alert": "OK",
      "vis_m": 9999,
      "fzfg": false,
      "metar_trigger": false,
      "taf_trigger": false,
      "metar": "METAR UAAA 300530Z 04002MPS 350V090 9999 BKN200 18/02 Q1009 NOSIG",
      "taf": "TAF UAAA 300502Z 3006/3106 05002MPS 9999 FEW100 TX23/3010Z TN04/3101Z"
    },
    {
      "icao": "UBBB",
      "alert": "OK",
      "vis_m": 9999,
      "fzfg": false,
      "metar_trigger": false,
      "taf_trigger": false,
      "metar": "METAR UBBB 300530Z 17012KT 9999 SCT006 BKN019 13/12 Q1000 NOSIG",
      "taf": "TAF UBBB 300503Z 3006/3106 16014KT 9999 SCT009 BKN020 TX18/3010Z TN08/3101Z"
    },
    {
      "icao": "UDSG",
      "alert": "OK",
      "vis_m": 9000,
      "fzfg": false,
      "metar_trigger": false,
      "taf_trigger": false,
      "metar": "METAR UDSG 300530Z 22007KT 9000 -SHRA SCT020CB OVC033 05/04 Q1002 NOSIG",
      "taf": "TAF UDSG 300500Z 3006/3106 24006KT 9999 BKN040"
    },
    {
      "icao": "UDYZ",
      "alert": "OK",
      "vis_m": 9999,
      "fzfg": false,
      "metar_trigger": false,
      "taf_trigger": false,
      "metar": "METAR UDYZ 300530Z 09008KT 9999 BKN043CB 09/07 Q1002 NOSIG",
      "taf": "TAF UDYZ 300500Z 3006/3106 20006KT 9999 SCT040"
    },
    {
      "icao": "UGKO",
      "alert": "OK",
      "vis_m": 7000,
      "fzfg": false,
      "metar_trigger": false,
      "taf_trigger": false,
      "metar": "METAR UGKO 300530Z VRB02KT 7000 -RA BKN052 11/10 Q1001 NOSIG",
      "taf": "TAF UGKO 300500Z 3006/3106 26007KT 9999 -RA SCT030 BKN050 TX12/3011Z TN07/3103Z"
    }
  ]
}