{
  "ts_utc": "2026-02-27T18:23:20Z",
  "threshold_m": 150,
  "source": "stations_override.txt (ICAO list) + aviationweather.gov (METAR/TAF raw)",
  "station_count": 159,
  "stations": [
    {
      "icao": "BIKF",
      "alert": "OK",
      "vis_m": 9999,
      "fzfg": false,
      "metar_trigger": false,
      "taf_trigger": false,
      "metar": "METAR BIKF 271800Z 25021KT 9999 VCSH DRSN SCT012CB BKN030 BKN060 00/M05 Q0992",
      "taf": "TAF BIKF 271632Z 2718/2818 24020KT 9999 SCT015 BKN025 TX02/2814Z TNM02/2806Z"
    },
    {
      "icao": "BKPR",
      "alert": "OK",
      "vis_m": 9999,
      "fzfg": false,
      "metar_trigger": false,
      "taf_trigger": false,
      "metar": "METAR BKPR 271800Z 32006KT CAVOK 09/M00 Q1025 NOSIG",
      "taf": "TAF BKPR 271730Z 2718/2818 VRB05KT CAVOK"
    },
    {
      "icao": "EBCI",
      "alert": "OK",
      "vis_m": 9999,
      "fzfg": false,
      "metar_trigger": false,
      "taf_trigger": false,
      "metar": "METAR EBCI 271750Z 20014KT 9999 -RADZ SCT040 12/08 Q1015 TEMPO 20015G25KT",
      "taf": "TAF EBCI 271710Z 2718/2824 21012KT 9999 BKN016"
    },
    {
      "icao": "EDDB",
      "alert": "OK",
      "vis_m": 9999,
      "fzfg": false,
      "metar_trigger": false,
      "taf_trigger": false,
      "metar": "METAR EDDB 271750Z AUTO 15006KT CAVOK 15/08 Q1016 NOSIG",
      "taf": "TAF EDDB 271700Z 2718/2818 18007KT CAVOK"
    },
    {
      "icao": "EDDH",
      "alert": "OK",
      "vis_m": 9999,
      "fzfg": false,
      "metar_trigger": false,
      "taf_trigger": false,
      "metar": "METAR EDDH 271750Z AUTO VRB01KT 9999 SCT041 14/10 Q1013 NOSIG",
      "taf": "TAF EDDH 271700Z 2718/2824 17004KT 9999 BKN030"
    },
    {
      "icao": "EDDK",
      "alert": "OK",
      "vis_m": 9999,
      "fzfg": false,
      "metar_trigger": false,
      "taf_trigger": false,
      "metar": "METAR EDDK 271750Z AUTO 19008KT CAVOK 16/07 Q1015 NOSIG",
      "taf": "TAF EDDK 271700Z 2718/2824 18007KT CAVOK"
    },
    {
      "icao": "EDDN",
      "alert": "OK",
      "vis_m": 9999,
      "fzfg": false,
      "metar_trigger": false,
      "taf_trigger": false,
      "metar": "METAR EDDN 271750Z AUTO 13010KT CAVOK 13/06 Q1019 NOSIG",
      "taf": "TAF EDDN 271700Z 2718/2818 13006KT CAVOK"
    },
    {
      "icao": "EDDS",
      "alert": "OK",
      "vis_m": 9999,
      "fzfg": false,
      "metar_trigger": false,
      "taf_trigger": false,
      "metar": "METAR EDDS 271750Z AUTO 19006KT CAVOK 16/04 Q1018 NOSIG",
      "taf": "TAF EDDS 271700Z 2718/2818 VRB03KT CAVOK"
    },
    {
      "icao": "EDFH",
      "alert": "OK",
      "vis_m": 9999,
      "fzfg": false,
      "metar_trigger": false,
      "taf_trigger": false,
      "metar": "METAR EDFH 271750Z 19008KT CAVOK 12/06 Q1017",
      "taf": "TAF EDFH 271700Z 2718/2818 20010KT CAVOK"
    },
    {
      "icao": "EDJA",
      "alert": "OK",
      "vis_m": 9999,
      "fzfg": false,
      "metar_trigger": false,
      "taf_trigger": false,
      "metar": "METAR EDJA 271750Z 12003KT CAVOK 10/05 Q1020",
      "taf": "TAF EDJA 271700Z 2718/2803 VRB03KT CAVOK"
    },
    {
      "icao": "EDLW",
      "alert": "OK",
      "vis_m": 9999,
      "fzfg": false,
      "metar_trigger": false,
      "taf_trigger": false,
      "metar": "METAR EDLW 271750Z 22007KT CAVOK 15/07 Q1014",
      "taf": "TAF EDLW 271700Z 2718/2818 20010KT CAVOK"
    },
    {
      "icao": "EDNY",
      "alert": "OK",
      "vis_m": 9999,
      "fzfg": false,
      "metar_trigger": false,
      "taf_trigger": false,
      "metar": "METAR EDNY 271750Z COR 00000KT CAVOK 10/03 Q1020",
      "taf": "TAF EDNY 271700Z 2718/2803 VRB01KT CAVOK"
    },
    {
      "icao": "EDSB",
      "alert": "OK",
      "vis_m": 9999,
      "fzfg": false,
      "metar_trigger": false,
      "taf_trigger": false,
      "metar": "METAR EDSB 271750Z VRB01KT CAVOK 16/06 Q1017",
      "taf": "TAF EDSB 271700Z 2718/2818 22003KT CAVOK"
    },
    {
      "icao": "EETN",
      "alert": "OK",
      "vis_m": 800,
      "fzfg": false,
      "metar_trigger": false,
      "taf_trigger": false,
      "metar": "METAR EETN 271820Z 20010KT 0800 R26/1800 -DZ FG VV002 02/02 Q1009 NOSIG",
      "taf": "TAF EETN 271730Z 2718/2818 20012KT 5000 BR BKN003 OVC005"
    },
    {
      "icao": "EFTU",
      "alert": "OK",
      "vis_m": 3000,
      "fzfg": false,
      "metar_trigger": false,
      "taf_trigger": false,
      "metar": "METAR EFTU 271820Z AUTO 22006KT 3000 DZ OVC001 03/03 Q1006",
      "taf": "TAF EFTU 271737Z 2718/2818 22007KT 2000 BR OVC001"
    },
    {
      "icao": "EGBB",
      "alert": "OK",
      "vis_m": 6000,
      "fzfg": false,
      "metar_trigger": false,
      "taf_trigger": false,
      "metar": "METAR EGBB 271750Z 02005KT 6000 BKN004 09/08 Q1008",
      "taf": "TAF EGBB 271700Z 2718/2818 03005KT 9999 SCT015"
    },
    {
      "icao": "EGGP",
      "alert": "OK",
      "vis_m": 9999,
      "fzfg": false,
      "metar_trigger": false,
      "taf_trigger": false,
      "metar": "METAR EGGP 271750Z 33009KT 9999 SCT043 08/05 Q1010",
      "taf": "TAF EGGP 271654Z 2718/2818 33010KT 9999 SCT025"
    },
    {
      "icao": "EGGW",
      "alert": "OK",
      "vis_m": 9999,
      "fzfg": false,
      "metar_trigger": false,
      "taf_trigger": false,
      "metar": "METAR EGGW 271750Z COR 20008KT 160V230 9999 SCT020 11/08 Q1008",
      "taf": "TAF EGGW 271702Z 2718/2818 19010KT 9999 SCT016"
    },
    {
      "icao": "EGKK",
      "alert": "OK",
      "vis_m": 9999,
      "fzfg": false,
      "metar_trigger": false,
      "taf_trigger": false,
      "metar": "METAR EGKK 271750Z 21006KT 170V240 9999 FEW014 11/10 Q1010",
      "taf": "TAF EGKK 271656Z 2718/2824 20008KT 9999 SCT025"
    },
    {
      "icao": "EGNM",
      "alert": "OK",
      "vis_m": 9999,
      "fzfg": false,
      "metar_trigger": false,
      "taf_trigger": false,
      "metar": "METAR EGNM 271750Z 03003KT 010V080 9999 FEW022 SCT040 09/04 Q1009",
      "taf": "TAF EGNM 271654Z 2718/2818 03006KT 9999 SCT040"
    },
    {
      "icao": "EGPD",
      "alert": "OK",
      "vis_m": 9999,
      "fzfg": false,
      "metar_trigger": false,
      "taf_trigger": false,
      "metar": "METAR EGPD 271750Z COR AUTO 33007KT 9999 FEW035 06/01 Q1011 NOSIG",
      "taf": "TAF EGPD 271659Z 2718/2818 36005KT 9999 SCT030"
    },
    {
      "icao": "EGPF",
      "alert": "OK",
      "vis_m": 9999,
      "fzfg": false,
      "metar_trigger": false,
      "taf_trigger": false,
      "metar": "METAR EGPF 271750Z AUTO 29007KT 9999 NCD 07/02 Q1012",
      "taf": "TAF EGPF 271654Z 2718/2818 30005KT 9999 FEW020 SCT035"
    },
    {
      "icao": "EHBK",
      "alert": "OK",
      "vis_m": 9999,
      "fzfg": false,
      "metar_trigger": false,
      "taf_trigger": false,
      "metar": "METAR EHBK 271755Z AUTO 22013KT 9999 NSC 15/07 Q1014 NOSIG",
      "taf": "TAF EHBK 271711Z 2718/2824 21012KT CAVOK"
    },
    {
      "icao": "EHEH",
      "alert": "OK",
      "vis_m": 9999,
      "fzfg": false,
      "metar_trigger": false,
      "taf_trigger": false,
      "metar": "METAR EHEH 271755Z AUTO 22005KT 200V260 9999 DZRA FEW015CB BKN043 BKN048 BKN057 12/10 Q1014 BLU TEMPO SCT015 BKN018 OVC025",
      "taf": "TAF EHEH 271722Z 2718/2824 21008KT 9999 FEW020 BKN030"
    },
    {
      "icao": "EKBI",
      "alert": "OK",
      "vis_m": 3200,
      "fzfg": false,
      "metar_trigger": false,
      "taf_trigger": false,
      "metar": "METAR EKBI 271820Z AUTO 20003KT 3200 DZ BR OVC002/// 08/08 Q1012 REDZRA",
      "taf": "TAF EKBI 271727Z 2718/2818 21010KT 5000 -RADZ BKN003"
    },
    {
      "icao": "EKCH",
      "alert": "OK",
      "vis_m": 7000,
      "fzfg": false,
      "metar_trigger": false,
      "taf_trigger": false,
      "metar": "METAR EKCH 271820Z AUTO 20003KT 7000 OVC048/// 06/06 Q1014 NOSIG",
      "taf": "TAF EKCH 271727Z 2718/2818 21010KT 9999 BKN025"
    },
    {
      "icao": "ENAL",
      "alert": "OK",
      "vis_m": 9999,
      "fzfg": false,
      "metar_trigger": false,
      "taf_trigger": false,
      "metar": "METAR ENAL 271750Z 26022KT 9999 -RA SCT019 BKN030 05/01 Q1003",
      "taf": "TAF ENAL 271700Z 2718/2803 24018KT 9999 SCT030"
    },
    {
      "icao": "ENBR",
      "alert": "OK",
      "vis_m": 9999,
      "fzfg": false,
      "metar_trigger": false,
      "taf_trigger": false,
      "metar": "METAR ENBR 271750Z 24006KT 180V260 9999 VCSH FEW012 SCT025 BKN035 06/04 Q1008 NOSIG RMK WIND 1200FT 27014KT",
      "taf": "TAF ENBR 271700Z 2718/2818 23010KT 9999 FEW010 BKN020"
    },
    {
      "icao": "ENGM",
      "alert": "OK",
      "vis_m": 650,
      "fzfg": false,
      "metar_trigger": false,
      "taf_trigger": false,
      "metar": "METAR ENGM 271750Z 16007KT 0650 0550E R19R/0800N R01R/0700N R19L/0700N R01L/0800N FG VV002 02/01 Q1006 NOSIG",
      "taf": "TAF ENGM 271700Z 2718/2818 17010KT 0300 FG VV002"
    },
    {
      "icao": "ENHD",
      "alert": "OK",
      "vis_m": 9999,
      "fzfg": false,
      "metar_trigger": false,
      "taf_trigger": false,
      "metar": "METAR ENHD 271750Z 22006KT 9999 FEW010 05/04 Q1009",
      "taf": "TAF ENHD 271400Z 2715/2723 19010KT 9999 FEW008 SCT025"
    },
    {
      "icao": "ENTC",
      "alert": "OK",
      "vis_m": 9999,
      "fzfg": false,
      "metar_trigger": false,
      "taf_trigger": false,
      "metar": "METAR ENTC 271750Z 19019KT CAVOK M00/M07 Q0996 NOSIG RMK WIND 2600FT 17017KT",
      "taf": "TAF ENTC 271700Z 2718/2818 18012KT 9999 BKN040"
    },
    {
      "icao": "ENTO",
      "alert": "OK",
      "vis_m": 9999,
      "fzfg": false,
      "metar_trigger": false,
      "taf_trigger": false,
      "metar": "METAR ENTO 271750Z 22010KT 160V240 CAVOK 04/04 Q1007 NOSIG",
      "taf": "TAF ENTO 271700Z 2718/2818 20010KT 9999 FEW030"
    },
    {
      "icao": "ENVA",
      "alert": "OK",
      "vis_m": 9999,
      "fzfg": false,
      "metar_trigger": false,
      "taf_trigger": false,
      "metar": "METAR ENVA 271750Z VRB01KT CAVOK 03/03 Q0999 NOSIG RMK WIND 670FT 20006KT",
      "taf": "TAF ENVA 271700Z 2718/2818 24008KT 9999 SCT040"
    },
    {
      "icao": "ENZV",
      "alert": "OK",
      "vis_m": 9000,
      "fzfg": false,
      "metar_trigger": false,
      "taf_trigger": false,
      "metar": "METAR ENZV 271750Z 21005KT 9000 BKN036 06/05 Q1010 NOSIG",
      "taf": "TAF ENZV 271700Z 2718/2818 21006KT 9000 FEW008 BKN020"
    },
    {
      "icao": "EPGD",
      "alert": "OK",
      "vis_m": 9999,
      "fzfg": false,
      "metar_trigger": false,
      "taf_trigger": false,
      "metar": "METAR EPGD 271800Z 24006KT CAVOK 08/06 Q1017",
      "taf": "TAF EPGD 271730Z 2718/2818 20005KT CAVOK"
    },
    {
      "icao": "EPKK",
      "alert": "OK",
      "vis_m": 9999,
      "fzfg": false,
      "metar_trigger": false,
      "taf_trigger": false,
      "metar": "METAR EPKK 271800Z 32003KT 280V030 CAVOK 08/03 Q1023",
      "taf": "TAF EPKK 271730Z 2718/2818 VRB02KT CAVOK"
    },
    {
      "icao": "EPKT",
      "alert": "OK",
      "vis_m": 9999,
      "fzfg": false,
      "metar_trigger": false,
      "taf_trigger": false,
      "metar": "METAR EPKT 271800Z 17003KT CAVOK 09/04 Q1022",
      "taf": "TAF EPKT 271730Z 2718/2818 19007KT CAVOK"
    },
    {
      "icao": "EPLB",
      "alert": "OK",
      "vis_m": 9999,
      "fzfg": false,
      "metar_trigger": false,
      "taf_trigger": false,
      "metar": "METAR EPLB 271800Z 15002KT CAVOK 04/M00 Q1024",
      "taf": "TAF EPLB 271730Z 2718/2818 16005KT CAVOK"
    },
    {
      "icao": "EPMO",
      "alert": "OK",
      "vis_m": 9999,
      "fzfg": false,
      "metar_trigger": false,
      "taf_trigger": false,
      "metar": "METAR EPMO 271800Z 16005KT CAVOK 09/03 Q1021",
      "taf": "TAF EPMO 271730Z 2718/2818 17004KT CAVOK"
    },
    {
      "icao": "EPPO",
      "alert": "OK",
      "vis_m": 9999,
      "fzfg": false,
      "metar_trigger": false,
      "taf_trigger": false,
      "metar": "METAR EPPO 271800Z 17007KT CAVOK 12/07 Q1019",
      "taf": "TAF EPPO 271730Z 2718/2818 17005KT CAVOK"
    },
    {
      "icao": "EPRA",
      "alert": "OK",
      "vis_m": 9999,
      "fzfg": false,
      "metar_trigger": false,
      "taf_trigger": false,
      "metar": "METAR EPRA 271800Z 18005KT CAVOK 07/02 Q1023",
      "taf": "TAF EPRA 271730Z 2718/2803 18006KT CAVOK"
    },
    {
      "icao": "EPRZ",
      "alert": "OK",
      "vis_m": 9999,
      "fzfg": false,
      "metar_trigger": false,
      "taf_trigger": false,
      "metar": "METAR EPRZ 271800Z 17004KT CAVOK 06/M02 Q1024",
      "taf": "TAF EPRZ 271730Z 2718/2818 17006KT CAVOK"
    },
    {
      "icao": "EPSC",
      "alert": "OK",
      "vis_m": 9999,
      "fzfg": false,
      "metar_trigger": false,
      "taf_trigger": false,
      "metar": "METAR EPSC 271800Z 15008KT CAVOK 12/08 Q1016",
      "taf": "TAF EPSC 271730Z 2718/2818 15008KT CAVOK"
    },
    {
      "icao": "EPSY",
      "alert": "OK",
      "vis_m": 9999,
      "fzfg": false,
      "metar_trigger": false,
      "taf_trigger": false,
      "metar": "METAR EPSY 271800Z 20004KT CAVOK 04/02 Q1020",
      "taf": "TAF EPSY 271730Z 2718/2803 19006KT CAVOK"
    },
    {
      "icao": "EPWA",
      "alert": "OK",
      "vis_m": 9999,
      "fzfg": false,
      "metar_trigger": false,
      "taf_trigger": false,
      "metar": "METAR EPWA 271800Z 13005KT CAVOK 08/03 Q1022 NOSIG",
      "taf": "TAF EPWA 271730Z 2718/2818 15005KT CAVOK"
    },
    {
      "icao": "EPWR",
      "alert": "OK",
      "vis_m": 9999,
      "fzfg": false,
      "metar_trigger": false,
      "taf_trigger": false,
      "metar": "METAR EPWR 271800Z 15004KT CAVOK 10/08 Q1020",
      "taf": "TAF EPWR 271730Z 2718/2818 14005KT CAVOK"
    },
    {
      "icao": "ESGG",
      "alert": "OK",
      "vis_m": 100,
      "fzfg": false,
      "metar_trigger": false,
      "taf_trigger": false,
      "metar": "METAR ESGG 271750Z 21008KT 0100 R03/0550N R21/0550N FG VV002 05/05 Q1011",
      "taf": "TAF ESGG 271730Z 2718/2818 20009KT 0500 FG OVC002"
    },
    {
      "icao": "ESKN",
      "alert": "OK",
      "vis_m": 9999,
      "fzfg": false,
      "metar_trigger": false,
      "taf_trigger": false,
      "metar": "METAR ESKN 271750Z 23009KT 9999 BKN013 06/06 Q1008",
      "taf": "TAF ESKN 271730Z 2718/2818 24009KT 9999 BKN012"
    },
    {
      "icao": "ESMS",
      "alert": "OK",
      "vis_m": 9999,
      "fzfg": false,
      "metar_trigger": false,
      "taf_trigger": false,
      "metar": "METAR ESMS 271750Z 20005KT 9999 SCT040 06/06 Q1014",
      "taf": "TAF ESMS 271727Z 2718/2818 21010KT 8000 FEW020"
    },
    {
      "icao": "ESSA",
      "alert": "OK",
      "vis_m": 9999,
      "fzfg": false,
      "metar_trigger": false,
      "taf_trigger": false,
      "metar": "METAR ESSA 271750Z 23009KT 9999 BKN009 06/05 Q1007 TEMPO BKN008",
      "taf": "TAF ESSA 271730Z 2718/2818 25010KT 9999 OVC010"
    },
    {
      "icao": "EYKA",
      "alert": "OK",
      "vis_m": 9999,
      "fzfg": false,
      "metar_trigger": false,
      "taf_trigger": false,
      "metar": "METAR EYKA 271820Z 20004KT 130V240 CAVOK 04/M00 Q1019",
      "taf": "TAF EYKA 271700Z 2718/2818 19007KT 5000 BR SCT015"
    },
    {
      "icao": "EYPA",
      "alert": "OK",
      "vis_m": 9999,
      "fzfg": false,
      "metar_trigger": false,
      "taf_trigger": false,
      "metar": "METAR EYPA 271820Z 20012KT 9999 OVC021 06/03 Q1016",
      "taf": ""
    },
    {
      "icao": "EYVI",
      "alert": "OK",
      "vis_m": 9999,
      "fzfg": false,
      "metar_trigger": false,
      "taf_trigger": false,
      "metar": "METAR EYVI 271820Z 19011KT 9999 FEW043 02/M01 Q1020 NOSIG",
      "taf": "TAF EYVI 271700Z 2718/2818 19010KT 9000 SCT015"
    },
    {
      "icao": "GCFV",
      "alert": "OK",
      "vis_m": 9999,
      "fzfg": false,
      "metar_trigger": false,
      "taf_trigger": false,
      "metar": "METAR GCFV 271800Z 36022KT 9999 FEW020 21/13 Q1017",
      "taf": "TAF GCFV 271400Z 2715/2815 02022KT 9000 NSC TX24/2715Z TN15/2806Z"
    },
    {
      "icao": "GCLP",
      "alert": "OK",
      "vis_m": 9999,
      "fzfg": false,
      "metar_trigger": false,
      "taf_trigger": false,
      "metar": "METAR GCLP 271800Z 36024KT 9999 FEW020 20/14 Q1019 NOSIG",
      "taf": ""
    },
    {
      "icao": "GCTS",
      "alert": "OK",
      "vis_m": 9999,
      "fzfg": false,
      "metar_trigger": false,
      "taf_trigger": false,
      "metar": "METAR GCTS 271800Z 10019KT CAVOK 22/12 Q1018 WS R07 NOSIG",
      "taf": "TAF GCTS 271400Z 2715/2815 09026KT 9000 NSC TX26/2715Z TN15/2806Z"
    },
    {
      "icao": "GMAD",
      "alert": "OK",
      "vis_m": 6000,
      "fzfg": false,
      "metar_trigger": false,
      "taf_trigger": false,
      "metar": "METAR GMAD 271800Z 05003KT 6000 NSC 26/02 Q1013 NOSIG",
      "taf": "TAF GMAD 271700Z 2718/2824 04008KT 6000 NSC"
    },
    {
      "icao": "GMMN",
      "alert": "OK",
      "vis_m": 9999,
      "fzfg": false,
      "metar_trigger": false,
      "taf_trigger": false,
      "metar": "METAR GMMN 271800Z 36010KT 9999 BKN014 15/12 Q1020 NOSIG",
      "taf": "TAF GMMN 271700Z 2718/2824 36011KT 9999 SCT015"
    },
    {
      "icao": "GMMX",
      "alert": "OK",
      "vis_m": 6000,
      "fzfg": false,
      "metar_trigger": false,
      "taf_trigger": false,
      "metar": "METAR GMMX 271800Z 04007KT 360V060 6000 FEW080 BKN200 22/06 Q1018 NOSIG",
      "taf": "TAF GMMX 271700Z 2718/2824 10006KT 8000 FEW080 SCT200"
    },
    {
      "icao": "HEGN",
      "alert": "OK",
      "vis_m": 9999,
      "fzfg": false,
      "metar_trigger": false,
      "taf_trigger": false,
      "metar": "METAR HEGN 271800Z 33019KT CAVOK 18/03 Q1014 NOSIG",
      "taf": "TAF HEGN 271700Z 2718/2824 35018G28KT CAVOK"
    },
    {
      "icao": "HEMA",
      "alert": "OK",
      "vis_m": 9999,
      "fzfg": false,
      "metar_trigger": false,
      "taf_trigger": false,
      "metar": "METAR HEMA 271800Z 31011KT CAVOK 18/08 Q1014 NOSIG",
      "taf": "TAF HEMA 271700Z 2718/2824 36015KT CAVOK"
    },
    {
      "icao": "HESH",
      "alert": "OK",
      "vis_m": 9999,
      "fzfg": false,
      "metar_trigger": false,
      "taf_trigger": false,
      "metar": "METAR HESH 271800Z 35016KT CAVOK 19/04 Q1013 NOSIG",
      "taf": "TAF HESH 271700Z 2718/2824 35015KT CAVOK"
    },
    {
      "icao": "HESX",
      "alert": "OK",
      "vis_m": 9999,
      "fzfg": false,
      "metar_trigger": false,
      "taf_trigger": false,
      "metar": "METAR HESX 271800Z 01008KT CAVOK 12/02 Q1018 NOSIG",
      "taf": "TAF HESX 271700Z 2718/2824 36010KT 9999 SCT025"
    },
    {
      "icao": "LATI",
      "alert": "OK",
      "vis_m": 9999,
      "fzfg": false,
      "metar_trigger": false,
      "taf_trigger": false,
      "metar": "METAR LATI 271820Z 29002KT CAVOK 12/07 Q1024 NOSIG",
      "taf": "TAF LATI 271700Z 2718/2818 VRB03KT CAVOK TX18/2812Z TN03/2804Z"
    },
    {
      "icao": "LBPD",
      "alert": "OK",
      "vis_m": 9999,
      "fzfg": false,
      "metar_trigger": false,
      "taf_trigger": false,
      "metar": "METAR LBPD 271800Z AUTO 12003KT 9999 NCD 05/01 Q1028 NOSIG",
      "taf": "TAF LBPD 271700Z 2718/2818 VRB03KT CAVOK"
    },
    {
      "icao": "LBSF",
      "alert": "OK",
      "vis_m": 9999,
      "fzfg": false,
      "metar_trigger": false,
      "taf_trigger": false,
      "metar": "METAR LBSF 271800Z AUTO 09008KT 9999 NCD 04/M02 Q1026 NOSIG",
      "taf": "TAF LBSF 271700Z 2718/2818 VRB03KT CAVOK"
    },
    {
      "icao": "LBWN",
      "alert": "OK",
      "vis_m": 9999,
      "fzfg": false,
      "metar_trigger": false,
      "taf_trigger": false,
      "metar": "METAR LBWN 271800Z AUTO 02005KT 350V050 9999 OVC018/// 00/M03 Q1030 NOSIG",
      "taf": "TAF LBWN 271700Z 2718/2818 35010KT 9999 OVC015"
    },
    {
      "icao": "LCLK",
      "alert": "OK",
      "vis_m": 9999,
      "fzfg": false,
      "metar_trigger": false,
      "taf_trigger": false,
      "metar": "METAR LCLK 271800Z 30007KT 9999 FEW040 07/01 Q1017 NOSIG",
      "taf": "TAF LCLK 271730Z 2718/2818 35009KT 9999 FEW020"
    },
    {
      "icao": "LCPH",
      "alert": "OK",
      "vis_m": 9999,
      "fzfg": false,
      "metar_trigger": false,
      "taf_trigger": false,
      "metar": "METAR LCPH 271800Z 02005KT 9999 FEW030 09/M02 Q1018 NOSIG",
      "taf": "TAF LCPH 271730Z 2718/2818 05009KT 9999 FEW040"
    },
    {
      "icao": "LEAL",
      "alert": "OK",
      "vis_m": 9999,
      "fzfg": false,
      "metar_trigger": false,
      "taf_trigger": false,
      "metar": "METAR LEAL 271800Z 08005KT 050V120 9999 BKN013 14/11 Q1021 NOSIG",
      "taf": ""
    },
    {
      "icao": "LEBB",
      "alert": "OK",
      "vis_m": 9999,
      "fzfg": false,
      "metar_trigger": false,
      "taf_trigger": false,
      "metar": "METAR LEBB 271800Z 25003KT 200V300 9999 FEW012 BKN030 12/09 Q1024 TEMPO 3000 RA",
      "taf": "TAF LEBB 271700Z 2718/2818 31009KT 9999 FEW020 BKN040 TX13/2814Z TN09/2807Z"
    },
    {
      "icao": "LEBL",
      "alert": "OK",
      "vis_m": 9999,
      "fzfg": false,
      "metar_trigger": false,
      "taf_trigger": false,
      "metar": "METAR LEBL 271800Z 21007KT 9999 BKN012 12/10 Q1023 NOSIG",
      "taf": "TAF LEBL 271700Z 2718/2818 VRB04KT 9999 FEW015 TX16/2813Z TN10/2806Z"
    },
    {
      "icao": "LECH",
      "alert": "OK",
      "vis_m": 8000,
      "fzfg": false,
      "metar_trigger": false,
      "taf_trigger": false,
      "metar": "METAR LECH 271800Z AUTO 11005KT 8000 FEW010 10/09 Q1022",
      "taf": ""
    },
    {
      "icao": "LEMD",
      "alert": "OK",
      "vis_m": 9999,
      "fzfg": false,
      "metar_trigger": false,
      "taf_trigger": false,
      "metar": "METAR LEMD 271800Z 25004KT CAVOK 18/04 Q1020 NOSIG",
      "taf": "TAF LEMD 271700Z 2718/2824 VRB04KT CAVOK TX18/2815Z TN05/2807Z"
    },
    {
      "icao": "LEMG",
      "alert": "OK",
      "vis_m": 9999,
      "fzfg": false,
      "metar_trigger": false,
      "taf_trigger": false,
      "metar": "METAR LEMG 271800Z 13007KT 9999 FEW020 14/11 Q1021 NOSIG",
      "taf": "TAF LEMG 271700Z 2718/2818 13010KT 9999 FEW020 TX19/2814Z TN07/2807Z"
    },
    {
      "icao": "LEVC",
      "alert": "OK",
      "vis_m": 9999,
      "fzfg": false,
      "metar_trigger": false,
      "taf_trigger": false,
      "metar": "METAR LEVC 271800Z 06006KT 9999 BKN015 13/10 Q1022 NOSIG",
      "taf": "TAF LEVC 271700Z 2718/2818 VRB04KT 9999 FEW020 TX18/2812Z TN09/2806Z"
    },
    {
      "icao": "LEXJ",
      "alert": "OK",
      "vis_m": 4900,
      "fzfg": false,
      "metar_trigger": false,
      "taf_trigger": false,
      "metar": "SPECI LEXJ 271803Z 23006KT 200V260 4900 -DZ BR SCT029 BKN035 10/07 Q1024",
      "taf": ""
    },
    {
      "icao": "LEZG",
      "alert": "OK",
      "vis_m": 9999,
      "fzfg": false,
      "metar_trigger": false,
      "taf_trigger": false,
      "metar": "METAR LEZG 271800Z 11005KT 080V150 CAVOK 18/08 Q1019 NOSIG",
      "taf": "TAF LEZG 271700Z 2718/2818 11009KT CAVOK TX17/2815Z TN06/2806Z"
    },
    {
      "icao": "LEZL",
      "alert": "OK",
      "vis_m": 9999,
      "fzfg": false,
      "metar_trigger": false,
      "taf_trigger": false,
      "metar": "METAR LEZL 271800Z 21006KT CAVOK 20/13 Q1019 NOSIG",
      "taf": "TAF LEZL 271400Z 2715/2815 VRB03KT CAVOK TX24/2715Z TN10/2807Z"
    },
    {
      "icao": "LFBD",
      "alert": "OK",
      "vis_m": 9999,
      "fzfg": false,
      "metar_trigger": false,
      "taf_trigger": false,
      "metar": "METAR LFBD 271800Z AUTO 28006KT 9999 -RA FEW015 BKN023 BKN029 13/11 Q1022 TEMPO 4000 -RA BKN010",
      "taf": "TAF LFBD 271700Z 2718/2824 25005KT 9999 BKN017 TX15/2814Z TN05/0100Z"
    },
    {
      "icao": "LFLL",
      "alert": "OK",
      "vis_m": 9999,
      "fzfg": false,
      "metar_trigger": false,
      "taf_trigger": false,
      "metar": "METAR LFLL 271800Z 17010G22KT 110V210 CAVOK 13/07 Q1020 NOSIG",
      "taf": "TAF LFLL 271700Z 2718/2824 18010KT CAVOK"
    },
    {
      "icao": "LFLS",
      "alert": "OK",
      "vis_m": 9999,
      "fzfg": false,
      "metar_trigger": false,
      "taf_trigger": false,
      "metar": "METAR LFLS 271800Z AUTO 22008KT 9999 FEW023 BKN230 10/07 Q1021 TEMPO BKN012",
      "taf": "TAF LFLS 271400Z 2715/2815 22010KT CAVOK"
    },
    {
      "icao": "LFMN",
      "alert": "OK",
      "vis_m": 9999,
      "fzfg": false,
      "metar_trigger": false,
      "taf_trigger": false,
      "metar": "METAR LFMN 271800Z 22005KT 9999 BKN040 14/10 Q1025 NOSIG",
      "taf": "TAF LFMN 271400Z 2715/2821 19005KT 9999 BKN035"
    },
    {
      "icao": "LFOB",
      "alert": "OK",
      "vis_m": 7000,
      "fzfg": false,
      "metar_trigger": false,
      "taf_trigger": false,
      "metar": "METAR LFOB 271800Z AUTO 18010KT 7000 -RA BKN011/// BKN021/// BKN028/// ///TCU 12/11 Q1014 TEMPO 2500 RADZ BKN008 OVC012",
      "taf": "TAF LFOB 271700Z 2718/2818 20010G20KT 9999 OVC018"
    },
    {
      "icao": "LFPO",
      "alert": "OK",
      "vis_m": 9999,
      "fzfg": false,
      "metar_trigger": false,
      "taf_trigger": false,
      "metar": "METAR LFPO 271800Z 21008KT 180V250 9999 -RA BKN034 OVC056 14/09 Q1016 NOSIG",
      "taf": "TAF LFPO 271700Z 2718/2824 20010KT 9999 FEW030 OVC080"
    },
    {
      "icao": "LFSB",
      "alert": "OK",
      "vis_m": 9999,
      "fzfg": false,
      "metar_trigger": false,
      "taf_trigger": false,
      "metar": "METAR LFSB 271800Z AUTO 10005KT CAVOK 17/03 Q1018 NOSIG",
      "taf": "TAF LFSB 271700Z 2718/2818 VRB03KT CAVOK"
    },
    {
      "icao": "LGAV",
      "alert": "OK",
      "vis_m": 9999,
      "fzfg": false,
      "metar_trigger": false,
      "taf_trigger": false,
      "metar": "METAR LGAV 271750Z VRB03KT 9999 SCT025 09/04 Q1027 NOSIG",
      "taf": "TAF LGAV 271700Z 2718/2818 02013KT 9999 FEW025 SCT040"
    },
    {
      "icao": "LGTS",
      "alert": "OK",
      "vis_m": 9999,
      "fzfg": false,
      "metar_trigger": false,
      "taf_trigger": false,
      "metar": "METAR LGTS 271750Z 11004KT 9999 SCT030 08/06 Q1027 NOSIG",
      "taf": "TAF LGTS 271700Z 2718/2818 14010KT 9999 BKN030"
    },
    {
      "icao": "LHBP",
      "alert": "OK",
      "vis_m": 9999,
      "fzfg": false,
      "metar_trigger": false,
      "taf_trigger": false,
      "metar": "METAR LHBP 271800Z 10006KT CAVOK 06/M00 Q1026 NOSIG",
      "taf": "TAF LHBP 271715Z 2718/2818 09006KT CAVOK"
    },
    {
      "icao": "LHDC",
      "alert": "OK",
      "vis_m": 9999,
      "fzfg": false,
      "metar_trigger": false,
      "taf_trigger": false,
      "metar": "METAR LHDC 271745Z AUTO 00000KT CAVOK 04/M02 Q1027 NOSIG",
      "taf": "TAF LHDC 271415Z 2715/2724 VRB02KT CAVOK"
    },
    {
      "icao": "LIBD",
      "alert": "OK",
      "vis_m": 9999,
      "fzfg": false,
      "metar_trigger": false,
      "taf_trigger": false,
      "metar": "METAR LIBD 271750Z VRB02KT CAVOK 11/09 Q1024",
      "taf": "TAF LIBD 271700Z 2718/2818 VRB05KT CAVOK"
    },
    {
      "icao": "LIBG",
      "alert": "OK",
      "vis_m": 9999,
      "fzfg": false,
      "metar_trigger": false,
      "taf_trigger": false,
      "metar": "METAR LIBG 271750Z 26002KT CAVOK 12/09 Q1024",
      "taf": "TAF LIBG 271700Z 2718/2803 VRB05KT CAVOK"
    },
    {
      "icao": "LIBP",
      "alert": "OK",
      "vis_m": 6000,
      "fzfg": false,
      "metar_trigger": false,
      "taf_trigger": false,
      "metar": "METAR LIBP 271750Z 06002KT 6000 NSC 11/11 Q1025",
      "taf": "TAF LIBP 271700Z 2718/2818 VRB05KT CAVOK"
    },
    {
      "icao": "LIBR",
      "alert": "OK",
      "vis_m": 9999,
      "fzfg": false,
      "metar_trigger": false,
      "taf_trigger": false,
      "metar": "METAR LIBR 271750Z 10002KT CAVOK 13/10 Q1024",
      "taf": "TAF LIBR 271700Z 2718/2818 VRB05KT CAVOK"
    },
    {
      "icao": "LICA",
      "alert": "OK",
      "vis_m": 9999,
      "fzfg": false,
      "metar_trigger": false,
      "taf_trigger": false,
      "metar": "METAR LICA 271750Z 24005KT 9999 SCT020 14/11 Q1025",
      "taf": "TAF LICA 271700Z 2718/2818 VRB05KT 9999 SCT020"
    },
    {
      "icao": "LICC",
      "alert": "OK",
      "vis_m": 9999,
      "fzfg": false,
      "metar_trigger": false,
      "taf_trigger": false,
      "metar": "METAR LICC 271750Z 07007KT CAVOK 14/12 Q1024",
      "taf": "TAF LICC 271700Z 2718/2818 VRB05KT CAVOK"
    },
    {
      "icao": "LICJ",
      "alert": "OK",
      "vis_m": 9999,
      "fzfg": false,
      "metar_trigger": false,
      "taf_trigger": false,
      "metar": "METAR LICJ 271750Z 07008KT CAVOK 14/11 Q1024",
      "taf": "TAF LICJ 271700Z 2718/2818 VRB05KT 9999 SCT015"
    },
    {
      "icao": "LIMC",
      "alert": "OK",
      "vis_m": 8000,
      "fzfg": false,
      "metar_trigger": false,
      "taf_trigger": false,
      "metar": "METAR LIMC 271750Z 22002KT 8000 NSC 13/08 Q1023 NOSIG",
      "taf": "TAF LIMC 271700Z 2718/2824 VRB04KT 9999 BKN030"
    },
    {
      "icao": "LIME",
      "alert": "OK",
      "vis_m": 7000,
      "fzfg": false,
      "metar_trigger": false,
      "taf_trigger": false,
      "metar": "METAR LIME 271750Z VRB01KT 7000 NSC 12/07 Q1024 NOSIG",
      "taf": "TAF LIME 271700Z 2718/2818 VRB05KT 8000 SCT030"
    },
    {
      "icao": "LIMF",
      "alert": "OK",
      "vis_m": 6000,
      "fzfg": false,
      "metar_trigger": false,
      "taf_trigger": false,
      "metar": "METAR LIMF 271750Z 09002KT 6000 NSC 14/07 Q1023",
      "taf": "TAF LIMF 271700Z 2718/2818 VRB04KT CAVOK"
    },
    {
      "icao": "LIMJ",
      "alert": "OK",
      "vis_m": 9999,
      "fzfg": false,
      "metar_trigger": false,
      "taf_trigger": false,
      "metar": "METAR LIMJ 271750Z 15003KT 9999 BKN042 14/10 Q1025",
      "taf": "TAF LIMJ 271700Z 2718/2818 VRB05KT 9999 FEW010 BKN030"
    },
    {
      "icao": "LIPE",
      "alert": "OK",
      "vis_m": 5000,
      "fzfg": false,
      "metar_trigger": false,
      "taf_trigger": false,
      "metar": "METAR LIPE 271750Z 07002KT 5000 BR FEW025 13/09 Q1024",
      "taf": "TAF LIPE 271700Z 2718/2818 VRB04KT 4000 BR FEW020"
    },
    {
      "icao": "LIPH",
      "alert": "OK",
      "vis_m": 2000,
      "fzfg": false,
      "metar_trigger": false,
      "taf_trigger": false,
      "metar": "METAR LIPH 271750Z 12002KT 2000 BR NSC 10/09 Q1024",
      "taf": "TAF LIPH 271700Z 2718/2818 VRB04KT 2000 BR NSC"
    },
    {
      "icao": "LIPQ",
      "alert": "OK",
      "vis_m": 50,
      "fzfg": false,
      "metar_trigger": false,
      "taf_trigger": false,
      "metar": "METAR LIPQ 271750Z 20003KT 170V230 0050 R09/0300N FG NSC 09/09 Q1024",
      "taf": "TAF LIPQ 271700Z 2718/2818 VRB04KT 4000 BR NSC"
    },
    {
      "icao": "LIPR",
      "alert": "OK",
      "vis_m": 400,
      "fzfg": false,
      "metar_trigger": false,
      "taf_trigger": false,
      "metar": "METAR LIPR 271750Z 10004KT 070V130 0400 R30/1400U FG BKN001 10/10 Q1024",
      "taf": "TAF LIPR 271700Z 2718/2818 VRB04KT 1500 BR NSC"
    },
    {
      "icao": "LIPX",
      "alert": "OK",
      "vis_m": 7000,
      "fzfg": false,
      "metar_trigger": false,
      "taf_trigger": false,
      "metar": "METAR LIPX 271750Z 23004KT 7000 NSC 12/09 Q1024",
      "taf": "TAF LIPX 271700Z 2718/2818 VRB05KT 7000 NSC"
    },
    {
      "icao": "LIPY",
      "alert": "OK",
      "vis_m": 4000,
      "fzfg": false,
      "metar_trigger": false,
      "taf_trigger": false,
      "metar": "METAR LIPY 271750Z VRB02KT 4000 BR NSC 11/09 Q1024",
      "taf": "TAF LIPY 271700Z 2718/2818 VRB04KT 3000 BR NSC"
    },
    {
      "icao": "LIPZ",
      "alert": "OK",
      "vis_m": 300,
      "fzfg": false,
      "metar_trigger": false,
      "taf_trigger": false,
      "metar": "METAR LIPZ 271750Z 14004KT 0300 R04R/0500N FG NSC 07/07 Q1024 NOSIG",
      "taf": "TAF LIPZ 271700Z 2718/2824 VRB04KT 0200 FG BKN002"
    },
    {
      "icao": "LIRF",
      "alert": "OK",
      "vis_m": 9999,
      "fzfg": false,
      "metar_trigger": false,
      "taf_trigger": false,
      "metar": "METAR LIRF 271750Z 26003KT 9999 BKN035 13/10 Q1025 NOSIG",
      "taf": "TAF LIRF 271700Z 2718/2824 VRB05KT 8000 BKN030"
    },
    {
      "icao": "LIRN",
      "alert": "OK",
      "vis_m": 9999,
      "fzfg": false,
      "metar_trigger": false,
      "taf_trigger": false,
      "metar": "METAR LIRN 271750Z 33005KT 300V020 9999 BKN025 14/09 Q1025 NOSIG",
      "taf": "TAF LIRN 271700Z 2718/2818 VRB05KT 7000 NSC"
    },
    {
      "icao": "LIRP",
      "alert": "OK",
      "vis_m": 9999,
      "fzfg": false,
      "metar_trigger": false,
      "taf_trigger": false,
      "metar": "METAR LIRP 271745Z 29003KT 9999 FEW030 13/10 Q1025 NOSIG",
      "taf": "TAF LIRP 271700Z 2718/2818 26007KT 9999 SCT030"
    },
    {
      "icao": "LIRZ",
      "alert": "OK",
      "vis_m": 9999,
      "fzfg": false,
      "metar_trigger": false,
      "taf_trigger": false,
      "metar": "METAR LIRZ 271750Z 20002KT 9999 SCT035 13/09 Q1024",
      "taf": "TAF LIRZ 271700Z 2718/2818 VRB05KT 7000 NSC"
    },
    {
      "icao": "LJLJ",
      "alert": "OK",
      "vis_m": 9999,
      "fzfg": false,
      "metar_trigger": false,
      "taf_trigger": false,
      "metar": "METAR LJLJ 271800Z VRB01KT CAVOK 08/06 Q1023 NOSIG",
      "taf": "TAF LJLJ 271700Z 2718/2818 VRB02KT CAVOK"
    },
    {
      "icao": "LKMT",
      "alert": "OK",
      "vis_m": 9999,
      "fzfg": false,
      "metar_trigger": false,
      "taf_trigger": false,
      "metar": "METAR LKMT 271800Z 22010KT CAVOK 07/03 Q1023 NOSIG",
      "taf": "TAF LKMT 271700Z 2718/2818 22012KT CAVOK"
    },
    {
      "icao": "LKPR",
      "alert": "OK",
      "vis_m": 350,
      "fzfg": false,
      "metar_trigger": false,
      "taf_trigger": false,
      "metar": "METAR LKPR 271800Z 30003KT 250V320 0350 R24/0450D R30/P2000N FG FEW001 SCT002 03/03 Q1021 BECMG BKN002",
      "taf": "TAF LKPR 271700Z 2718/2824 VRB02KT 5000 BR NSC"
    },
    {
      "icao": "LLBG",
      "alert": "OK",
      "vis_m": 9999,
      "fzfg": false,
      "metar_trigger": false,
      "taf_trigger": false,
      "metar": "METAR LLBG 271820Z VRB03KT 9999 FEW050 11/03 Q1017 NOSIG",
      "taf": "TAF LLBG 271701Z 2718/2818 VRB04KT 9999 FEW050 TX16/2812Z TN06/2804Z"
    },
    {
      "icao": "LMML",
      "alert": "OK",
      "vis_m": 9999,
      "fzfg": false,
      "metar_trigger": false,
      "taf_trigger": false,
      "metar": "METAR LMML 271815Z 22002KT 9999 FEW012 14/12 Q1025 NOSIG",
      "taf": "TAF LMML 271700Z 2718/2818 23005KT 9999 SCT015"
    },
    {
      "icao": "LOWW",
      "alert": "OK",
      "vis_m": 9999,
      "fzfg": false,
      "metar_trigger": false,
      "taf_trigger": false,
      "metar": "METAR LOWW 271750Z 12004KT CAVOK 08/04 Q1024 NOSIG",
      "taf": "TAF LOWW 271715Z 2718/2824 14010KT CAVOK TX13/2814Z TN03/2805Z"
    },
    {
      "icao": "LPFR",
      "alert": "OK",
      "vis_m": 9999,
      "fzfg": false,
      "metar_trigger": false,
      "taf_trigger": false,
      "metar": "METAR LPFR 271800Z 33008KT CAVOK 18/09 Q1021",
      "taf": "TAF LPFR 271700Z 2718/2818 33007KT 9999 FEW012"
    },
    {
      "icao": "LPMA",
      "alert": "OK",
      "vis_m": 9999,
      "fzfg": false,
      "metar_trigger": false,
      "taf_trigger": false,
      "metar": "METAR LPMA 271800Z 01014G28KT 310V050 9999 SCT015 18/11 Q1026",
      "taf": "TAF LPMA 271700Z 2718/2818 01015KT 9999 SCT015"
    },
    {
      "icao": "LPPR",
      "alert": "OK",
      "vis_m": 9999,
      "fzfg": false,
      "metar_trigger": false,
      "taf_trigger": false,
      "metar": "METAR LPPR 271800Z 34010KT CAVOK 12/08 Q1025",
      "taf": "TAF LPPR 271700Z 2718/2818 33013KT 9999 FEW020"
    },
    {
      "icao": "LPPS",
      "alert": "OK",
      "vis_m": 9999,
      "fzfg": false,
      "metar_trigger": false,
      "taf_trigger": false,
      "metar": "METAR LPPS 271800Z 03014KT 350V060 9999 BKN015 17/13 Q1026",
      "taf": "TAF LPPS 271700Z 2718/2824 02017KT 9999 SCT008 BKN015"
    },
    {
      "icao": "LPPT",
      "alert": "OK",
      "vis_m": 9999,
      "fzfg": false,
      "metar_trigger": false,
      "taf_trigger": false,
      "metar": "METAR LPPT 271800Z 35013KT 9999 SCT020 13/08 Q1024",
      "taf": "TAF LPPT 271700Z 2718/2824 36013KT 9999 BKN015"
    },
    {
      "icao": "LQBK",
      "alert": "OK",
      "vis_m": 9999,
      "fzfg": false,
      "metar_trigger": false,
      "taf_trigger": false,
      "metar": "METAR LQBK 271800Z VRB02KT CAVOK 10/04 Q1024 NOSIG",
      "taf": "TAF LQBK 271700Z 2718/2818 33005KT CAVOK TX17/2814Z TN00/2806Z"
    },
    {
      "icao": "LQSA",
      "alert": "OK",
      "vis_m": 9999,
      "fzfg": false,
      "metar_trigger": false,
      "taf_trigger": false,
      "metar": "METAR LQSA 271800Z 12004KT CAVOK 08/02 Q1023 NOSIG",
      "taf": "TAF LQSA 271700Z 2718/2818 VRB02KT CAVOK TX18/2814Z TNM02/2805Z"
    },
    {
      "icao": "LQTZ",
      "alert": "OK",
      "vis_m": 9999,
      "fzfg": false,
      "metar_trigger": false,
      "taf_trigger": false,
      "metar": "METAR LQTZ 271800Z 11007KT CAVOK 09/01 Q1025",
      "taf": "TAF LQTZ 271700Z 2718/2818 VRB02KT CAVOK TX18/2814Z TNM03/2806Z"
    },
    {
      "icao": "LRBC",
      "alert": "OK",
      "vis_m": 9999,
      "fzfg": false,
      "metar_trigger": false,
      "taf_trigger": false,
      "metar": "METAR LRBC 271800Z 17009KT CAVOK M00/M02 Q1030",
      "taf": "TAF LRBC 271700Z 2718/2803 16005KT CAVOK"
    },
    {
      "icao": "LRBS",
      "alert": "OK",
      "vis_m": 9999,
      "fzfg": false,
      "metar_trigger": false,
      "taf_trigger": false,
      "metar": "METAR LRBS 271800Z 07006KT CAVOK M01/M03 Q1031 NOSIG",
      "taf": "TAF LRBS 271700Z 2718/2818 VRB04KT CAVOK"
    },
    {
      "icao": "LRBV",
      "alert": "OK",
      "vis_m": 9999,
      "fzfg": false,
      "metar_trigger": false,
      "taf_trigger": false,
      "metar": "METAR LRBV 271800Z 22008KT CAVOK 00/M03 Q1027",
      "taf": "TAF LRBV 271700Z 2718/2803 21008KT CAVOK"
    },
    {
      "icao": "LRCL",
      "alert": "OK",
      "vis_m": 9999,
      "fzfg": false,
      "metar_trigger": false,
      "taf_trigger": false,
      "metar": "METAR LRCL 271800Z 32001KT CAVOK 02/M04 Q1027",
      "taf": "TAF LRCL 271700Z 2718/2803 VRB04KT CAVOK"
    },
    {
      "icao": "LRCV",
      "alert": "OK",
      "vis_m": 9999,
      "fzfg": false,
      "metar_trigger": false,
      "taf_trigger": false,
      "metar": "METAR LRCV 271800Z 12004KT CAVOK 02/M01 Q1029",
      "taf": "TAF LRCV 271700Z 2718/2803 VRB04KT CAVOK"
    },
    {
      "icao": "LRIA",
      "alert": "OK",
      "vis_m": 9999,
      "fzfg": false,
      "metar_trigger": false,
      "taf_trigger": false,
      "metar": "METAR LRIA 271800Z 11004KT CAVOK M01/M03 Q1031",
      "taf": "TAF LRIA 271700Z 2718/2803 08004KT CAVOK"
    },
    {
      "icao": "LROP",
      "alert": "OK",
      "vis_m": 9999,
      "fzfg": false,
      "metar_trigger": false,
      "taf_trigger": false,
      "metar": "METAR LROP 271800Z 09007KT CAVOK M01/M04 Q1031 NOSIG",
      "taf": "TAF LROP 271700Z 2718/2818 VRB04KT CAVOK"
    },
    {
      "icao": "LRSB",
      "alert": "OK",
      "vis_m": 9999,
      "fzfg": false,
      "metar_trigger": false,
      "taf_trigger": false,
      "metar": "METAR LRSB 271800Z 28003KT CAVOK 01/M02 Q1026",
      "taf": "TAF LRSB 271700Z 2718/2818 VRB04KT CAVOK"
    },
    {
      "icao": "LRSM",
      "alert": "OK",
      "vis_m": 9999,
      "fzfg": false,
      "metar_trigger": false,
      "taf_trigger": false,
      "metar": "METAR LRSM 271800Z AUTO 08004KT 9999 NCD 04/M01 Q1027",
      "taf": "TAF LRSM 271400Z 2715/2724 VRB04KT CAVOK"
    },
    {
      "icao": "LRSV",
      "alert": "OK",
      "vis_m": 3000,
      "fzfg": false,
      "metar_trigger": false,
      "taf_trigger": false,
      "metar": "METAR LRSV 271800Z 12007KT 3000 BR BKN002 M03/M03 Q1028",
      "taf": "TAF LRSV 271700Z 2718/2803 08006KT 5000 BR BKN002"
    },
    {
      "icao": "LRTM",
      "alert": "OK",
      "vis_m": 9999,
      "fzfg": false,
      "metar_trigger": false,
      "taf_trigger": false,
      "metar": "METAR LRTM 271800Z 05002KT CAVOK 00/M03 Q1027",
      "taf": "TAF LRTM 271700Z 2718/2803 VRB04KT CAVOK"
    },
    {
      "icao": "LRTR",
      "alert": "OK",
      "vis_m": 9999,
      "fzfg": false,
      "metar_trigger": false,
      "taf_trigger": false,
      "metar": "METAR LRTR 271800Z 01005KT CAVOK 04/M00 Q1026 NOSIG",
      "taf": "TAF LRTR 271700Z 2718/2818 VRB04KT CAVOK"
    },
    {
      "icao": "LTAC",
      "alert": "OK",
      "vis_m": 9999,
      "fzfg": false,
      "metar_trigger": false,
      "taf_trigger": false,
      "metar": "METAR LTAC 271750Z 32008KT 9999 BKN040 01/M05 Q1019 NOSIG RMK RWY21C 29007KT RWY03L 31006KT 280V340 RWY21R 28006KT RWY03R 29006KT RWY21L 30008KT",
      "taf": "TAF LTAC 271640Z 2718/2818 VRB02KT 9999 BKN040"
    },
    {
      "icao": "LTFM",
      "alert": "OK",
      "vis_m": 9999,
      "fzfg": false,
      "metar_trigger": false,
      "taf_trigger": false,
      "metar": "METAR LTFM 271750Z 01009KT 9999 SCT018 BKN026 04/M01 Q1029 NOSIG RMK RWY17L 36008KT RWY34L 35009KT RWY16R 36009KT RWY36 01008KT RWY18 36009KT",
      "taf": "TAF LTFM 271640Z 2718/2824 36012KT 9999 SCT017 BKN026"
    },
    {
      "icao": "LUKK",
      "alert": "OK",
      "vis_m": 9999,
      "fzfg": false,
      "metar_trigger": false,
      "taf_trigger": false,
      "metar": "METAR LUKK 271800Z 04004KT 350V060 9999 OVC009 M01/M03 Q1031 TEMPO BKN006",
      "taf": "TAF LUKK 271710Z 2718/2818 VRB05KT 9999 BKN010"
    },
    {
      "icao": "LWOH",
      "alert": "OK",
      "vis_m": 9999,
      "fzfg": false,
      "metar_trigger": false,
      "taf_trigger": false,
      "metar": "METAR LWOH 271750Z 04003KT 300V090 CAVOK 09/02 Q1023",
      "taf": "TAF LWOH 271730Z 2718/2818 VRB02KT CAVOK"
    },
    {
      "icao": "LWSK",
      "alert": "OK",
      "vis_m": 9999,
      "fzfg": false,
      "metar_trigger": false,
      "taf_trigger": false,
      "metar": "METAR LWSK 271820Z 12003KT 060V140 CAVOK 08/01 Q1024 NOSIG",
      "taf": "TAF LWSK 271730Z 2718/2818 VRB02KT CAVOK"
    },
    {
      "icao": "LYBE",
      "alert": "OK",
      "vis_m": 9999,
      "fzfg": false,
      "metar_trigger": false,
      "taf_trigger": false,
      "metar": "METAR LYBE 271800Z 07007KT CAVOK 08/M01 Q1026 NOSIG",
      "taf": "TAF LYBE 271700Z 2718/2818 07005KT CAVOK TX15/2813Z TN01/2806Z"
    },
    {
      "icao": "LYNI",
      "alert": "OK",
      "vis_m": 9999,
      "fzfg": false,
      "metar_trigger": false,
      "taf_trigger": false,
      "metar": "METAR LYNI 271800Z 08008KT 040V110 CAVOK 08/M00 Q1026 NOSIG",
      "taf": "TAF LYNI 271700Z 2718/2818 06008KT CAVOK TX15/2813Z TNM02/2805Z"
    },
    {
      "icao": "LYPG",
      "alert": "OK",
      "vis_m": 9999,
      "fzfg": false,
      "metar_trigger": false,
      "taf_trigger": false,
      "metar": "METAR LYPG 271800Z VRB02KT CAVOK 11/04 Q1024 NOSIG",
      "taf": "TAF LYPG 271700Z 2718/2818 36005KT CAVOK TX19/2812Z TN03/2805Z"
    },
    {
      "icao": "LZIB",
      "alert": "OK",
      "vis_m": 9999,
      "fzfg": false,
      "metar_trigger": false,
      "taf_trigger": false,
      "metar": "METAR LZIB 271800Z 03008KT CAVOK 07/03 Q1024 NOSIG",
      "taf": "TAF LZIB 271715Z 2718/2818 06008KT CAVOK"
    },
    {
      "icao": "LZKZ",
      "alert": "OK",
      "vis_m": 9999,
      "fzfg": false,
      "metar_trigger": false,
      "taf_trigger": false,
      "metar": "METAR LZKZ 271800Z VRB02KT CAVOK 04/M00 Q1026 NOSIG",
      "taf": "TAF LZKZ 271715Z 2718/2818 18009KT CAVOK"
    },
    {
      "icao": "LZTT",
      "alert": "OK",
      "vis_m": 9999,
      "fzfg": false,
      "metar_trigger": false,
      "taf_trigger": false,
      "metar": "METAR LZTT 271800Z 31003KT CAVOK 00/M03 Q1024 NOSIG",
      "taf": "TAF LZTT 271715Z 2718/2818 15004KT CAVOK"
    },
    {
      "icao": "OEJN",
      "alert": "OK",
      "vis_m": 9999,
      "fzfg": false,
      "metar_trigger": false,
      "taf_trigger": false,
      "metar": "METAR OEJN 271800Z 34011KT 9999 FEW040 24/13 Q1011 NOSIG",
      "taf": "TAF OEJN 271700Z 2718/2824 03005KT 9999 FEW040"
    },
    {
      "icao": "OEMA",
      "alert": "OK",
      "vis_m": 9999,
      "fzfg": false,
      "metar_trigger": false,
      "taf_trigger": false,
      "metar": "METAR OEMA 271800Z 23010KT CAVOK 24/01 Q1012 NOSIG",
      "taf": "TAF OEMA 271700Z 2718/2824 VRB03KT CAVOK"
    },
    {
      "icao": "OJAI",
      "alert": "OK",
      "vis_m": 5000,
      "fzfg": false,
      "metar_trigger": false,
      "taf_trigger": false,
      "metar": "METAR OJAI 271800Z 30006KT 5000 HZ NSC 06/01 Q1016 NOSIG",
      "taf": "TAF OJAI 271625Z 2718/2824 27008KT 5000 HZ FEW040"
    },
    {
      "icao": "OMAA",
      "alert": "OK",
      "vis_m": 9999,
      "fzfg": false,
      "metar_trigger": false,
      "taf_trigger": false,
      "metar": "METAR OMAA 271800Z 32003KT CAVOK 21/15 Q1010 NOSIG",
      "taf": "TAF OMAA 271700Z 2718/0100 14005KT 8000 NSC"
    },
    {
      "icao": "OMDB",
      "alert": "OK",
      "vis_m": 9999,
      "fzfg": false,
      "metar_trigger": false,
      "taf_trigger": false,
      "metar": "METAR OMDB 271800Z 23004KT 170V270 CAVOK 22/15 Q1010 NOSIG",
      "taf": "TAF OMDB 271700Z 2718/0100 27010KT 8000 NSC"
    },
    {
      "icao": "UAAA",
      "alert": "OK",
      "vis_m": 9999,
      "fzfg": false,
      "metar_trigger": false,
      "taf_trigger": false,
      "metar": "METAR UAAA 271800Z 27003MPS 210V290 9999 OVC011 M08/M11 Q1020 NOSIG",
      "taf": "TAF UAAA 271703Z 2718/2818 26003G08MPS 3100 -SHSN BR BKN011CB OVC050 TXM07/2808Z TNM13/2802Z"
    },
    {
      "icao": "UBBB",
      "alert": "OK",
      "vis_m": 9999,
      "fzfg": false,
      "metar_trigger": false,
      "taf_trigger": false,
      "metar": "METAR UBBB 271800Z 36016G26KT 9999 -RA BKN013 OVC024 05/03 Q1016 NOSIG",
      "taf": "TAF UBBB 271705Z 2718/2818 01016G26KT 9999 BKN012 OVC030 TX04/2810Z TN03/2801Z"
    },
    {
      "icao": "UDSG",
      "alert": "OK",
      "vis_m": 1600,
      "fzfg": false,
      "metar_trigger": false,
      "taf_trigger": false,
      "metar": "METAR UDSG 271800Z 32001KT 1600 R02/P2000N SN BR OVC016 M02/M02 Q1008 NOSIG",
      "taf": "TAF UDSG 271658Z 2718/2818 VRB06KT 5000 BR BKN040"
    },
    {
      "icao": "UDYZ",
      "alert": "OK",
      "vis_m": 9999,
      "fzfg": false,
      "metar_trigger": false,
      "taf_trigger": false,
      "metar": "METAR UDYZ 271800Z 06002KT 9999 BKN030CB 03/02 Q1009 NOSIG",
      "taf": "TAF UDYZ 271700Z 2718/2818 06006KT 9999 BKN030"
    },
    {
      "icao": "UGKO",
      "alert": "OK",
      "vis_m": 8000,
      "fzfg": false,
      "metar_trigger": false,
      "taf_trigger": false,
      "metar": "METAR UGKO 271800Z 09005KT 8000 -RA SCT018 BKN077 02/02 Q1015 NOSIG",
      "taf": "TAF UGKO 271700Z 2718/2818 09006KT 8000 OVC025 TX06/2818Z TN02/2718Z"
    }
  ]
}