{
  "ts_utc": "2026-02-07T10:38:09Z",
  "threshold_m": 150,
  "source": "stations_override.txt (ICAO list) + aviationweather.gov (METAR/TAF raw)",
  "station_count": 159,
  "stations": [
    {
      "icao": "BIKF",
      "alert": "OK",
      "vis_m": 9999,
      "fzfg": false,
      "metar_trigger": false,
      "taf_trigger": false,
      "metar": "METAR BIKF 071030Z 04004KT CAVOK 02/M01 Q1009",
      "taf": "TAF BIKF 071009Z 0712/0812 09008KT CAVOK TX03/0714Z TNM02/0803Z"
    },
    {
      "icao": "BKPR",
      "alert": "OK",
      "vis_m": 9999,
      "fzfg": false,
      "metar_trigger": false,
      "taf_trigger": false,
      "metar": "METAR BKPR 071030Z 27011KT 230V300 9999 SCT035 SCT075 13/07 Q1004 NOSIG",
      "taf": "TAF BKPR 070530Z 0706/0806 25010KT 9999 SCT020 BKN050"
    },
    {
      "icao": "EBCI",
      "alert": "OK",
      "vis_m": 9999,
      "fzfg": false,
      "metar_trigger": false,
      "taf_trigger": false,
      "metar": "METAR EBCI 071020Z 17010KT 9999 FEW014 09/06 Q1002 NOSIG",
      "taf": ""
    },
    {
      "icao": "EDDB",
      "alert": "OK",
      "vis_m": 1500,
      "fzfg": false,
      "metar_trigger": false,
      "taf_trigger": false,
      "metar": "METAR EDDB 071020Z AUTO 06005KT 1500 1100 R06L/P2000N R06R/P2000N BR OVC002 02/02 Q1005 TEMPO 0300 FG BKN001",
      "taf": ""
    },
    {
      "icao": "EDDH",
      "alert": "OK",
      "vis_m": 3600,
      "fzfg": false,
      "metar_trigger": false,
      "taf_trigger": false,
      "metar": "METAR EDDH 071020Z AUTO 10006KT 3600 -SHRA BR OVC003 FEW///TCU 02/01 Q1005 TEMPO 2000 DZ",
      "taf": "TAF EDDH 070500Z 0706/0812 08007KT 3500 BR OVC003"
    },
    {
      "icao": "EDDK",
      "alert": "OK",
      "vis_m": 9999,
      "fzfg": false,
      "metar_trigger": false,
      "taf_trigger": false,
      "metar": "METAR EDDK 071020Z AUTO 14006KT 100V160 9999 FEW036 10/06 Q1004 NOSIG",
      "taf": ""
    },
    {
      "icao": "EDDN",
      "alert": "OK",
      "vis_m": 6000,
      "fzfg": false,
      "metar_trigger": false,
      "taf_trigger": false,
      "metar": "METAR EDDN 071020Z AUTO 18003KT 6000 OVC004 06/05 Q1004 TEMPO 2500 BR",
      "taf": "TAF EDDN 070500Z 0706/0806 13005KT 5000 BR OVC007"
    },
    {
      "icao": "EDDS",
      "alert": "OK",
      "vis_m": 9999,
      "fzfg": false,
      "metar_trigger": false,
      "taf_trigger": false,
      "metar": "METAR EDDS 071020Z AUTO 19003KT 120V250 9999 FEW049 10/06 Q1004 NOSIG",
      "taf": "TAF EDDS 070500Z 0706/0806 VRB02KT 9999 SCT035"
    },
    {
      "icao": "EDFH",
      "alert": "OK",
      "vis_m": 9999,
      "fzfg": false,
      "metar_trigger": false,
      "taf_trigger": false,
      "metar": "METAR EDFH 071020Z 27007KT 240V310 9999 OVC006 06/05 Q1004",
      "taf": ""
    },
    {
      "icao": "EDJA",
      "alert": "OK",
      "vis_m": 9999,
      "fzfg": false,
      "metar_trigger": false,
      "taf_trigger": false,
      "metar": "METAR EDJA 071020Z 27006KT 9999 FEW014 08/04 Q1004",
      "taf": "TAF EDJA 070800Z 0709/0718 VRB02KT 9999 BKN040"
    },
    {
      "icao": "EDLW",
      "alert": "OK",
      "vis_m": 9999,
      "fzfg": false,
      "metar_trigger": false,
      "taf_trigger": false,
      "metar": "METAR EDLW 071020Z 22008KT 9999 FEW016 10/08 Q1003",
      "taf": "TAF EDLW 070500Z 0706/0806 18007KT 9999 SCT030"
    },
    {
      "icao": "EDNY",
      "alert": "OK",
      "vis_m": 9999,
      "fzfg": false,
      "metar_trigger": false,
      "taf_trigger": false,
      "metar": "METAR EDNY 071020Z VRB02KT CAVOK 09/05 Q1005",
      "taf": "TAF EDNY 070800Z 0709/0718 VRB02KT 9999 BKN040"
    },
    {
      "icao": "EDSB",
      "alert": "OK",
      "vis_m": 9999,
      "fzfg": false,
      "metar_trigger": false,
      "taf_trigger": false,
      "metar": "METAR EDSB 071020Z 22005KT 200V260 9999 FEW015 10/07 Q1005",
      "taf": "TAF EDSB 070500Z 0706/0806 21004KT 9999 BKN025"
    },
    {
      "icao": "EETN",
      "alert": "OK",
      "vis_m": 9999,
      "fzfg": false,
      "metar_trigger": false,
      "taf_trigger": false,
      "metar": "METAR EETN 071020Z 07006KT 9999 BKN005 M09/M10 Q1015 TEMPO BKN004",
      "taf": "TAF EETN 070530Z 0706/0806 05010KT 8000 BKN005 OVC010"
    },
    {
      "icao": "EFTU",
      "alert": "OK",
      "vis_m": 9999,
      "fzfg": false,
      "metar_trigger": false,
      "taf_trigger": false,
      "metar": "METAR EFTU 071020Z AUTO 06006KT CAVOK M15/M19 Q1018",
      "taf": "TAF EFTU 070834Z 0709/0809 04005KT CAVOK"
    },
    {
      "icao": "EGBB",
      "alert": "OK",
      "vis_m": 3500,
      "fzfg": false,
      "metar_trigger": false,
      "taf_trigger": false,
      "metar": "METAR EGBB 071020Z 14010KT 100V160 3500 RA BKN005 08/07 Q0992",
      "taf": ""
    },
    {
      "icao": "EGGP",
      "alert": "OK",
      "vis_m": 8000,
      "fzfg": false,
      "metar_trigger": false,
      "taf_trigger": false,
      "metar": "METAR EGGP 071020Z 10011KT 8000 -RA FEW014 BKN020 BKN033 08/06 Q0991",
      "taf": "TAF EGGP 070500Z 0706/0806 12006KT 9999 BKN016"
    },
    {
      "icao": "EGGW",
      "alert": "OK",
      "vis_m": 9999,
      "fzfg": false,
      "metar_trigger": false,
      "taf_trigger": false,
      "metar": "METAR EGGW 071020Z AUTO 15009KT 9999 BKN006 BKN009 08/07 Q0993 REDZ",
      "taf": ""
    },
    {
      "icao": "EGKK",
      "alert": "OK",
      "vis_m": 3000,
      "fzfg": false,
      "metar_trigger": false,
      "taf_trigger": false,
      "metar": "METAR EGKK 071020Z 15009KT 120V180 3000 -RADZ BKN007 BKN015 09/08 Q0994",
      "taf": "TAF EGKK 070454Z 0706/0812 17008KT 9999 SCT018"
    },
    {
      "icao": "EGNM",
      "alert": "OK",
      "vis_m": 1400,
      "fzfg": false,
      "metar_trigger": false,
      "taf_trigger": false,
      "metar": "METAR EGNM 071020Z 09007KT 050V110 1400 R14/P1500N BR SCT002 OVC003 06/06 Q0993",
      "taf": "TAF EGNM 070459Z 0706/0806 10004KT 0300 FG BKN001"
    },
    {
      "icao": "EGPD",
      "alert": "OK",
      "vis_m": 5000,
      "fzfg": false,
      "metar_trigger": false,
      "taf_trigger": false,
      "metar": "METAR EGPD 071020Z AUTO 10012KT 5000 -RA FEW008/// BKN011/// OVC016/// //////CB 05/04 Q0998 RERA",
      "taf": ""
    },
    {
      "icao": "EGPF",
      "alert": "OK",
      "vis_m": 9999,
      "fzfg": false,
      "metar_trigger": false,
      "taf_trigger": false,
      "metar": "METAR EGPF 071020Z AUTO 07009KT 9999 -RA BKN008 OVC016 06/05 Q0995",
      "taf": "TAF EGPF 070458Z 0706/0806 07009KT 9999 BKN020"
    },
    {
      "icao": "EHBK",
      "alert": "OK",
      "vis_m": 9999,
      "fzfg": false,
      "metar_trigger": false,
      "taf_trigger": false,
      "metar": "METAR EHBK 071025Z AUTO 21009KT 9999 NSC 10/07 Q1003 NOSIG",
      "taf": "TAF EHBK 070513Z 0706/0812 18006KT CAVOK"
    },
    {
      "icao": "EHEH",
      "alert": "OK",
      "vis_m": 9999,
      "fzfg": false,
      "metar_trigger": false,
      "taf_trigger": false,
      "metar": "METAR EHEH 071025Z AUTO 18007KT 150V220 9999 OVC210 10/07 Q1002 BLU NOSIG RMK TREND REMOTE BY EHWX",
      "taf": "TAF EHEH 070538Z 0706/0812 18007KT CAVOK"
    },
    {
      "icao": "EKBI",
      "alert": "OK",
      "vis_m": 9999,
      "fzfg": false,
      "metar_trigger": false,
      "taf_trigger": false,
      "metar": "METAR EKBI 071020Z AUTO 08015KT 9999 OVC005/// 00/M00 Q1007",
      "taf": "TAF EKBI 070827Z 0709/0809 09015KT 6000 BKN007"
    },
    {
      "icao": "EKCH",
      "alert": "OK",
      "vis_m": 9999,
      "fzfg": false,
      "metar_trigger": false,
      "taf_trigger": false,
      "metar": "METAR EKCH 071020Z 07013KT 9999 OVC010 00/M01 Q1010 TEMPO BKN009",
      "taf": "TAF EKCH 070827Z 0709/0809 07012KT 9999 OVC012"
    },
    {
      "icao": "ENAL",
      "alert": "OK",
      "vis_m": 9999,
      "fzfg": false,
      "metar_trigger": false,
      "taf_trigger": false,
      "metar": "METAR ENAL 071020Z 10006KT 070V140 CAVOK 06/M11 Q1010",
      "taf": "TAF ENAL 070500Z 0706/0715 14012KT CAVOK"
    },
    {
      "icao": "ENBR",
      "alert": "OK",
      "vis_m": 9999,
      "fzfg": false,
      "metar_trigger": false,
      "taf_trigger": false,
      "metar": "METAR ENBR 071020Z VRB02KT CAVOK 02/M05 Q1009 NOSIG RMK WIND 1200FT 10002KT",
      "taf": "TAF ENBR 070500Z 0706/0806 04003KT 9999 BKN050"
    },
    {
      "icao": "ENGM",
      "alert": "OK",
      "vis_m": 9999,
      "fzfg": false,
      "metar_trigger": false,
      "taf_trigger": false,
      "metar": "METAR ENGM 071020Z 02007KT 9999 VCSH BKN017 M06/M10 Q1018 NOSIG",
      "taf": ""
    },
    {
      "icao": "ENHD",
      "alert": "OK",
      "vis_m": 9999,
      "fzfg": false,
      "metar_trigger": false,
      "taf_trigger": false,
      "metar": "METAR ENHD 071020Z 07011KT 9999 VCSH FEW031 03/M03 Q1009",
      "taf": "TAF ENHD 070800Z 0709/0718 10008KT 9999 -SN BKN040"
    },
    {
      "icao": "ENTC",
      "alert": "OK",
      "vis_m": 9999,
      "fzfg": false,
      "metar_trigger": false,
      "taf_trigger": false,
      "metar": "METAR ENTC 071020Z VRB02KT CAVOK M07/M08 Q1023 NOSIG RMK WIND 2600FT 18012KT",
      "taf": "TAF ENTC 070500Z 0706/0806 18005KT CAVOK"
    },
    {
      "icao": "ENTO",
      "alert": "OK",
      "vis_m": 3200,
      "fzfg": false,
      "metar_trigger": false,
      "taf_trigger": false,
      "metar": "METAR ENTO 071020Z 02010KT 3200 -SN VV018 M05/M06 Q1017 TEMPO VV008",
      "taf": ""
    },
    {
      "icao": "ENVA",
      "alert": "OK",
      "vis_m": 9999,
      "fzfg": false,
      "metar_trigger": false,
      "taf_trigger": false,
      "metar": "METAR ENVA 071020Z 12011KT CAVOK M06/M19 Q1018 NOSIG RMK WIND 670FT 10008KT",
      "taf": "TAF ENVA 062300Z 0700/0724 12008KT CAVOK"
    },
    {
      "icao": "ENZV",
      "alert": "OK",
      "vis_m": 9999,
      "fzfg": false,
      "metar_trigger": false,
      "taf_trigger": false,
      "metar": "METAR ENZV 071020Z 00000KT 9999 VCSH NSC 00/M02 Q1009 NOSIG",
      "taf": ""
    },
    {
      "icao": "EPGD",
      "alert": "OK",
      "vis_m": 7000,
      "fzfg": false,
      "metar_trigger": false,
      "taf_trigger": false,
      "metar": "METAR EPGD 071030Z 04007KT 010V080 7000 OVC005 M02/M03 Q1006",
      "taf": "TAF EPGD 070530Z 0706/0806 06008KT 5000 BR OVC005"
    },
    {
      "icao": "EPKK",
      "alert": "OK",
      "vis_m": 1600,
      "fzfg": false,
      "metar_trigger": false,
      "taf_trigger": false,
      "metar": "METAR EPKK 071030Z 23003KT 1600 BR OVC006 03/02 Q1003",
      "taf": "TAF EPKK 070830Z 0709/0809 VRB02KT 0100 FG OVC001"
    },
    {
      "icao": "EPKT",
      "alert": "OK",
      "vis_m": 6000,
      "fzfg": false,
      "metar_trigger": false,
      "taf_trigger": false,
      "metar": "METAR EPKT 071030Z 34003KT 6000 OVC007 03/01 Q1003",
      "taf": "TAF EPKT 070530Z 0706/0806 VRB02KT 4000 BR BKN040"
    },
    {
      "icao": "EPLB",
      "alert": "OK",
      "vis_m": 5000,
      "fzfg": false,
      "metar_trigger": false,
      "taf_trigger": false,
      "metar": "METAR EPLB 071030Z 07006KT 5000 -FZRA BR OVC003 M00/M00 Q1003",
      "taf": ""
    },
    {
      "icao": "EPMO",
      "alert": "OK",
      "vis_m": 700,
      "fzfg": false,
      "metar_trigger": false,
      "taf_trigger": false,
      "metar": "METAR EPMO 071030Z 04004KT 0700 R08/0800N FG OVC002 00/00 Q1004",
      "taf": ""
    },
    {
      "icao": "EPPO",
      "alert": "OK",
      "vis_m": 2300,
      "fzfg": false,
      "metar_trigger": false,
      "taf_trigger": false,
      "metar": "METAR EPPO 071030Z 04003KT 2300 BR OVC002 01/00 Q1005",
      "taf": ""
    },
    {
      "icao": "EPRA",
      "alert": "OK",
      "vis_m": 900,
      "fzfg": false,
      "metar_trigger": false,
      "taf_trigger": false,
      "metar": "METAR EPRA 071030Z 03001KT 0900 R07/0650U FG OVC003 01/00 Q1004",
      "taf": "TAF EPRA 070830Z 0709/0718 03006KT 0800 FG OVC002"
    },
    {
      "icao": "EPRZ",
      "alert": "OK",
      "vis_m": 1400,
      "fzfg": false,
      "metar_trigger": false,
      "taf_trigger": false,
      "metar": "METAR EPRZ 071030Z 25005KT 1400 R27/1600D BR OVC002 01/01 Q1003",
      "taf": ""
    },
    {
      "icao": "EPSC",
      "alert": "OK",
      "vis_m": 4800,
      "fzfg": false,
      "metar_trigger": false,
      "taf_trigger": false,
      "metar": "METAR EPSC 071030Z 05004KT 4800 -FZDZ BR OVC005 01/M00 Q1006",
      "taf": ""
    },
    {
      "icao": "EPSY",
      "alert": "OK",
      "vis_m": 1400,
      "fzfg": false,
      "metar_trigger": false,
      "taf_trigger": false,
      "metar": "METAR EPSY 071030Z 05004KT 1400 R01/1400U BR BKN001 OVC002 M02/M02 Q1005",
      "taf": ""
    },
    {
      "icao": "EPWA",
      "alert": "OK",
      "vis_m": 1800,
      "fzfg": false,
      "metar_trigger": false,
      "taf_trigger": false,
      "metar": "METAR EPWA 071030Z 06004KT 040V100 1800 -DZ BR OVC002 01/01 Q1004 NOSIG",
      "taf": "TAF EPWA 070830Z 0709/0809 05004KT 3000 BR OVC003"
    },
    {
      "icao": "EPWR",
      "alert": "OK",
      "vis_m": 4000,
      "fzfg": false,
      "metar_trigger": false,
      "taf_trigger": false,
      "metar": "METAR EPWR 071030Z 26003KT 4000 BR BKN005 BKN010 03/02 Q1005",
      "taf": "TAF EPWR 070830Z 0709/0809 28003KT 2000 BR OVC002"
    },
    {
      "icao": "ESGG",
      "alert": "OK",
      "vis_m": 9999,
      "fzfg": false,
      "metar_trigger": false,
      "taf_trigger": false,
      "metar": "METAR ESGG 071020Z 06011KT 9999 BKN012 M02/M03 Q1012",
      "taf": "TAF ESGG 070830Z 0709/0809 07010KT 9999 -SN BKN009"
    },
    {
      "icao": "ESKN",
      "alert": "OK",
      "vis_m": 9999,
      "fzfg": false,
      "metar_trigger": false,
      "taf_trigger": false,
      "metar": "METAR ESKN 071020Z 04008KT 360V070 CAVOK M03/M09 Q1016",
      "taf": "TAF ESKN 070830Z 0709/0809 03010KT 9999 BKN030"
    },
    {
      "icao": "ESMS",
      "alert": "OK",
      "vis_m": 9999,
      "fzfg": false,
      "metar_trigger": false,
      "taf_trigger": false,
      "metar": "METAR ESMS 071020Z 08018KT 9999 OVC009 00/M01 Q1009",
      "taf": ""
    },
    {
      "icao": "ESSA",
      "alert": "OK",
      "vis_m": 9999,
      "fzfg": false,
      "metar_trigger": false,
      "taf_trigger": false,
      "metar": "METAR ESSA 071020Z 03011KT CAVOK M05/M08 Q1018 NOSIG",
      "taf": "TAF ESSA 070830Z 0709/0809 03009KT CAVOK"
    },
    {
      "icao": "EYKA",
      "alert": "OK",
      "vis_m": 4700,
      "fzfg": false,
      "metar_trigger": false,
      "taf_trigger": false,
      "metar": "METAR EYKA 071020Z 07005KT 040V100 4700 -SN BR FEW008 BKN035 OVC043 M02/M04 Q1007",
      "taf": ""
    },
    {
      "icao": "EYPA",
      "alert": "OK",
      "vis_m": 9999,
      "fzfg": false,
      "metar_trigger": false,
      "taf_trigger": false,
      "metar": "METAR EYPA 071020Z 07011KT 9999 SCT032 M04/M08 Q1009",
      "taf": "TAF EYPA 070507Z 0706/0806 07010KT 9000 SCT010 OVC020"
    },
    {
      "icao": "EYVI",
      "alert": "OK",
      "vis_m": 3500,
      "fzfg": false,
      "metar_trigger": false,
      "taf_trigger": false,
      "metar": "METAR EYVI 071020Z 05006KT 3500 SN BR SCT009 OVC030 M04/M05 Q1007 NOSIG",
      "taf": "TAF EYVI 070507Z 0706/0806 VRB04KT 5000 SN SCT010 OVC015"
    },
    {
      "icao": "GCFV",
      "alert": "OK",
      "vis_m": 9999,
      "fzfg": false,
      "metar_trigger": false,
      "taf_trigger": false,
      "metar": "METAR GCFV 071030Z VRB02KT 9999 FEW030 19/10 Q1025",
      "taf": "TAF GCFV 070800Z 0709/0809 10005KT 9999 FEW030 TX22/0714Z TN17/0806Z"
    },
    {
      "icao": "GCLP",
      "alert": "OK",
      "vis_m": 9999,
      "fzfg": false,
      "metar_trigger": false,
      "taf_trigger": false,
      "metar": "METAR GCLP 071030Z 05006KT 360V080 9999 FEW038 19/12 Q1025 NOSIG",
      "taf": "TAF GCLP 070800Z 0709/0809 04010KT 9999 FEW035 TX22/0714Z TN16/0806Z"
    },
    {
      "icao": "GCTS",
      "alert": "OK",
      "vis_m": 9999,
      "fzfg": false,
      "metar_trigger": false,
      "taf_trigger": false,
      "metar": "METAR GCTS 071030Z 20003KT 140V290 9999 BKN030 20/12 Q1025 NOSIG",
      "taf": "TAF GCTS 070800Z 0709/0809 14005KT 9999 FEW040 TX24/0714Z TN16/0806Z"
    },
    {
      "icao": "GMAD",
      "alert": "OK",
      "vis_m": 8000,
      "fzfg": false,
      "metar_trigger": false,
      "taf_trigger": false,
      "metar": "METAR GMAD 071030Z 05006KT 8000 NSC 13/11 Q1024 NOSIG",
      "taf": "TAF GMAD 070500Z 0706/0812 06008KT 8000 SCT016"
    },
    {
      "icao": "GMMN",
      "alert": "OK",
      "vis_m": 9999,
      "fzfg": false,
      "metar_trigger": false,
      "taf_trigger": false,
      "metar": "METAR GMMN 071030Z 21019KT 170V230 9999 SCT020 15/11 Q1021 NOSIG",
      "taf": "TAF GMMN 070500Z 0706/0812 20010KT 9999 SCT016"
    },
    {
      "icao": "GMMX",
      "alert": "OK",
      "vis_m": 9999,
      "fzfg": false,
      "metar_trigger": false,
      "taf_trigger": false,
      "metar": "METAR GMMX 071030Z 18006KT 120V240 CAVOK 14/09 Q1023 NOSIG",
      "taf": "TAF GMMX 070500Z 0706/0812 18006KT 8000 SCT026"
    },
    {
      "icao": "HEGN",
      "alert": "OK",
      "vis_m": 9999,
      "fzfg": false,
      "metar_trigger": false,
      "taf_trigger": false,
      "metar": "METAR HEGN 071000Z 12006KT CAVOK 25/15 Q1016 NOSIG",
      "taf": "TAF HEGN 070500Z 0706/0812 34008KT CAVOK"
    },
    {
      "icao": "HEMA",
      "alert": "OK",
      "vis_m": 9999,
      "fzfg": false,
      "metar_trigger": false,
      "taf_trigger": false,
      "metar": "METAR HEMA 071000Z 01012KT CAVOK 25/17 Q1016 NOSIG",
      "taf": "TAF HEMA 070500Z 0706/0812 34011KT CAVOK"
    },
    {
      "icao": "HESH",
      "alert": "OK",
      "vis_m": 9999,
      "fzfg": false,
      "metar_trigger": false,
      "taf_trigger": false,
      "metar": "METAR HESH 071000Z 13010KT CAVOK 25/18 Q1016 NOSIG",
      "taf": "TAF HESH 070500Z 0706/0812 16008KT CAVOK"
    },
    {
      "icao": "HESX",
      "alert": "OK",
      "vis_m": 9999,
      "fzfg": false,
      "metar_trigger": false,
      "taf_trigger": false,
      "metar": "METAR HESX 071000Z 25010KT CAVOK 25/04 Q1015 NOSIG",
      "taf": "TAF HESX 070500Z 0706/0812 23014KT 7000 NSC"
    },
    {
      "icao": "LATI",
      "alert": "OK",
      "vis_m": 9999,
      "fzfg": false,
      "metar_trigger": false,
      "taf_trigger": false,
      "metar": "METAR LATI 071020Z VRB01KT 9999 FEW023TCU SCT045 BKN064 16/08 Q1007 NOSIG",
      "taf": "TAF LATI 070500Z 0706/0806 VRB05KT 9999 SCT040 BKN070 TX17/0712Z TN08/0805Z"
    },
    {
      "icao": "LBPD",
      "alert": "OK",
      "vis_m": 9999,
      "fzfg": false,
      "metar_trigger": false,
      "taf_trigger": false,
      "metar": "METAR LBPD 071030Z AUTO 30004KT 270V340 9999 FEW073/// BKN083/// OVC100/// 12/08 Q1003 NOSIG",
      "taf": "TAF LBPD 070500Z 0706/0806 VRB04KT 9999 BKN050"
    },
    {
      "icao": "LBSF",
      "alert": "OK",
      "vis_m": 9000,
      "fzfg": false,
      "metar_trigger": false,
      "taf_trigger": false,
      "metar": "METAR LBSF 071030Z 33004KT 290V010 9000 FEW011 BKN031 OVC040 08/06 Q1004 NOSIG",
      "taf": "TAF LBSF 070500Z 0706/0806 VRB04KT 3000 BR SCT010 BKN020 OVC030"
    },
    {
      "icao": "LBWN",
      "alert": "OK",
      "vis_m": 9999,
      "fzfg": false,
      "metar_trigger": false,
      "taf_trigger": false,
      "metar": "METAR LBWN 071030Z AUTO 32009KT 9999 OVC014/// 07/05 Q1003 NOSIG",
      "taf": "TAF LBWN 070500Z 0706/0806 32010KT 9999 BKN012 BKN030"
    },
    {
      "icao": "LCLK",
      "alert": "OK",
      "vis_m": 9999,
      "fzfg": false,
      "metar_trigger": false,
      "taf_trigger": false,
      "metar": "METAR LCLK 071030Z 22021KT 9999 FEW020 FEW025TCU SCT040 21/17 Q1007 NOSIG",
      "taf": "TAF LCLK 070530Z 0706/0806 21007KT 8000 FEW020 SCT035"
    },
    {
      "icao": "LCPH",
      "alert": "OK",
      "vis_m": 8000,
      "fzfg": false,
      "metar_trigger": false,
      "taf_trigger": false,
      "metar": "METAR LCPH 071030Z 26011KT 8000 FEW020 19/16 Q1009 NOSIG",
      "taf": "TAF LCPH 070530Z 0706/0806 10009KT 8000 FEW015 SCT025"
    },
    {
      "icao": "LEAL",
      "alert": "OK",
      "vis_m": 9999,
      "fzfg": false,
      "metar_trigger": false,
      "taf_trigger": false,
      "metar": "METAR LEAL 071030Z 23012KT 9999 FEW020 15/03 Q1014 NOSIG",
      "taf": "TAF LEAL 070500Z 0706/0806 26010KT 9999 FEW040 TX15/0714Z TN10/0706Z"
    },
    {
      "icao": "LEBB",
      "alert": "OK",
      "vis_m": 9999,
      "fzfg": false,
      "metar_trigger": false,
      "taf_trigger": false,
      "metar": "METAR LEBB 071030Z 18007KT 150V240 9999 FEW040 14/03 Q1005 NOSIG",
      "taf": "TAF LEBB 070500Z 0706/0806 20010KT CAVOK TX14/0713Z TN07/0805Z"
    },
    {
      "icao": "LEBL",
      "alert": "OK",
      "vis_m": 9999,
      "fzfg": false,
      "metar_trigger": false,
      "taf_trigger": false,
      "metar": "METAR LEBL 071030Z 28018KT 250V310 CAVOK 15/03 Q1007 NOSIG",
      "taf": "TAF LEBL 070500Z 0706/0806 29009KT 9999 FEW025 TX15/0713Z TN09/0706Z"
    },
    {
      "icao": "LECH",
      "alert": "OK",
      "vis_m": 9999,
      "fzfg": false,
      "metar_trigger": false,
      "taf_trigger": false,
      "metar": "METAR LECH 071030Z AUTO 23009KT 200V260 CAVOK 13/M01 Q1009",
      "taf": ""
    },
    {
      "icao": "LEMD",
      "alert": "OK",
      "vis_m": 9000,
      "fzfg": false,
      "metar_trigger": false,
      "taf_trigger": false,
      "metar": "METAR LEMD 071030Z 19007KT 9000 SCT015 BKN022 BKN035 05/04 Q1011 NOSIG",
      "taf": "TAF LEMD 070500Z 0706/0812 23010KT 9999 BKN016 TX10/0812Z TN02/0719Z"
    },
    {
      "icao": "LEMG",
      "alert": "OK",
      "vis_m": 9999,
      "fzfg": false,
      "metar_trigger": false,
      "taf_trigger": false,
      "metar": "METAR LEMG 071030Z 08004KT 030V120 9999 -RA FEW020 SCT035 BKN045 11/09 Q1017 NOSIG",
      "taf": ""
    },
    {
      "icao": "LEVC",
      "alert": "OK",
      "vis_m": 9999,
      "fzfg": false,
      "metar_trigger": false,
      "taf_trigger": false,
      "metar": "METAR LEVC 071030Z 28017KT 9999 FEW050 14/02 Q1011 NOSIG",
      "taf": "TAF LEVC 070500Z 0706/0806 24009KT 9999 SCT040 TX16/0714Z TN10/0706Z"
    },
    {
      "icao": "LEXJ",
      "alert": "OK",
      "vis_m": 9999,
      "fzfg": false,
      "metar_trigger": false,
      "taf_trigger": false,
      "metar": "METAR LEXJ 071030Z 20015G27KT 170V250 CAVOK 13/02 Q1003",
      "taf": "TAF LEXJ 070800Z 0709/0809 20009KT CAVOK TX14/0713Z TN08/0722Z"
    },
    {
      "icao": "LEZG",
      "alert": "OK",
      "vis_m": 9999,
      "fzfg": false,
      "metar_trigger": false,
      "taf_trigger": false,
      "metar": "METAR LEZG 071030Z 24017KT 9999 FEW045 12/02 Q1009 NOSIG",
      "taf": "TAF LEZG 070500Z 0706/0806 26012KT 9999 FEW050 TX14/0715Z TN08/0706Z"
    },
    {
      "icao": "LEZL",
      "alert": "OK",
      "vis_m": 6000,
      "fzfg": false,
      "metar_trigger": false,
      "taf_trigger": false,
      "metar": "METAR LEZL 071030Z 19010KT 150V230 6000 -RA SCT011 BKN022 BKN040 12/12 Q1013 RERA NOSIG",
      "taf": ""
    },
    {
      "icao": "LFBD",
      "alert": "OK",
      "vis_m": 9999,
      "fzfg": false,
      "metar_trigger": false,
      "taf_trigger": false,
      "metar": "METAR LFBD 071030Z AUTO 22013KT CAVOK 12/07 Q1004 TEMPO 22015G25KT BKN050TCU",
      "taf": "TAF LFBD 070500Z 0706/0812 20010KT CAVOK TX13/0714Z TN06/0806Z"
    },
    {
      "icao": "LFLL",
      "alert": "OK",
      "vis_m": 9999,
      "fzfg": false,
      "metar_trigger": false,
      "taf_trigger": false,
      "metar": "METAR LFLL 071030Z VRB03KT CAVOK 08/05 Q1005 NOSIG",
      "taf": "TAF LFLL 070500Z 0706/0812 VRB03KT CAVOK"
    },
    {
      "icao": "LFLS",
      "alert": "OK",
      "vis_m": 9999,
      "fzfg": false,
      "metar_trigger": false,
      "taf_trigger": false,
      "metar": "METAR LFLS 071030Z AUTO 08009KT CAVOK 07/05 Q1004 NOSIG",
      "taf": "TAF LFLS 070800Z 0709/0809 08006KT CAVOK"
    },
    {
      "icao": "LFMN",
      "alert": "OK",
      "vis_m": 9999,
      "fzfg": false,
      "metar_trigger": false,
      "taf_trigger": false,
      "metar": "METAR LFMN 071030Z 04006KT 010V070 CAVOK 14/06 Q1003 NOSIG",
      "taf": "TAF LFMN 070800Z 0709/0815 33010KT CAVOK"
    },
    {
      "icao": "LFOB",
      "alert": "OK",
      "vis_m": 9999,
      "fzfg": false,
      "metar_trigger": false,
      "taf_trigger": false,
      "metar": "METAR LFOB 071030Z AUTO 16012KT 9999 FEW015 09/07 Q1000 NOSIG",
      "taf": "TAF LFOB 070500Z 0706/0806 20007KT 9999 BKN020"
    },
    {
      "icao": "LFPO",
      "alert": "OK",
      "vis_m": 9999,
      "fzfg": false,
      "metar_trigger": false,
      "taf_trigger": false,
      "metar": "METAR LFPO 071030Z 19010KT 160V220 9999 SCT015 SCT260 11/07 Q1002 NOSIG",
      "taf": "TAF LFPO 070500Z 0706/0812 18005KT CAVOK"
    },
    {
      "icao": "LFSB",
      "alert": "OK",
      "vis_m": 9999,
      "fzfg": false,
      "metar_trigger": false,
      "taf_trigger": false,
      "metar": "METAR LFSB 071030Z AUTO 15005KT 130V190 CAVOK 11/06 Q1005 NOSIG",
      "taf": "TAF LFSB 070500Z 0706/0806 17004KT 9999 SCT030"
    },
    {
      "icao": "LGAV",
      "alert": "OK",
      "vis_m": 9999,
      "fzfg": false,
      "metar_trigger": false,
      "taf_trigger": false,
      "metar": "METAR LGAV 071020Z 26013KT 230V290 CAVOK 19/09 Q1007 NOSIG",
      "taf": "TAF LGAV 070500Z 0706/0806 24012KT 9999 FEW020"
    },
    {
      "icao": "LGTS",
      "alert": "OK",
      "vis_m": 3000,
      "fzfg": false,
      "metar_trigger": false,
      "taf_trigger": false,
      "metar": "METAR LGTS 071020Z VRB02KT 3000 1500N R10/2000 R28/2000 BR SCT003 10/10 Q1005 NOSIG",
      "taf": ""
    },
    {
      "icao": "LHBP",
      "alert": "OK",
      "vis_m": 9999,
      "fzfg": false,
      "metar_trigger": false,
      "taf_trigger": false,
      "metar": "METAR LHBP 071030Z 26007KT 9999 BKN021 08/03 Q1004 NOSIG",
      "taf": "TAF LHBP 070515Z 0706/0806 27005KT CAVOK"
    },
    {
      "icao": "LHDC",
      "alert": "OK",
      "vis_m": 9999,
      "fzfg": false,
      "metar_trigger": false,
      "taf_trigger": false,
      "metar": "METAR LHDC 071015Z AUTO 24008KT 210V270 9999 SCT011 BKN034 BKN054 08/06 Q1003 NOSIG",
      "taf": ""
    },
    {
      "icao": "LIBD",
      "alert": "OK",
      "vis_m": 9999,
      "fzfg": false,
      "metar_trigger": false,
      "taf_trigger": false,
      "metar": "METAR LIBD 071020Z 29010KT 250V340 CAVOK 18/06 Q1006",
      "taf": "TAF LIBD 070500Z 0706/0806 VRB06KT 9999 FEW030"
    },
    {
      "icao": "LIBG",
      "alert": "OK",
      "vis_m": 9999,
      "fzfg": false,
      "metar_trigger": false,
      "taf_trigger": false,
      "metar": "METAR LIBG 070950Z 24004KT 180V290 CAVOK 17/07 Q1007",
      "taf": "TAF LIBG 070800Z 0709/0718 VRB05KT 9999 FEW040"
    },
    {
      "icao": "LIBP",
      "alert": "OK",
      "vis_m": 9999,
      "fzfg": false,
      "metar_trigger": false,
      "taf_trigger": false,
      "metar": "METAR LIBP 071020Z AUTO 06006KT 9999 BKN170/// 15/10 Q1006",
      "taf": "TAF LIBP 070500Z 0706/0806 VRB05KT 9999 FEW060"
    },
    {
      "icao": "LIBR",
      "alert": "OK",
      "vis_m": 9999,
      "fzfg": false,
      "metar_trigger": false,
      "taf_trigger": false,
      "metar": "METAR LIBR 071020Z 20004KT 150V230 CAVOK 17/08 Q1007",
      "taf": "TAF LIBR 070500Z 0706/0806 24008KT 9999 FEW040"
    },
    {
      "icao": "LICA",
      "alert": "OK",
      "vis_m": 9999,
      "fzfg": false,
      "metar_trigger": false,
      "taf_trigger": false,
      "metar": "METAR LICA 071020Z AUTO 27014KT 9999 BKN015/// 16/13 Q1010",
      "taf": "TAF LICA 070500Z 0706/0806 27015KT 9999 SCT015"
    },
    {
      "icao": "LICC",
      "alert": "OK",
      "vis_m": 9999,
      "fzfg": false,
      "metar_trigger": false,
      "taf_trigger": false,
      "metar": "METAR LICC 071020Z 24016KT CAVOK 20/15 Q1009",
      "taf": "TAF LICC 070500Z 0706/0806 26014KT CAVOK"
    },
    {
      "icao": "LICJ",
      "alert": "OK",
      "vis_m": 9999,
      "fzfg": false,
      "metar_trigger": false,
      "taf_trigger": false,
      "metar": "METAR LICJ 071020Z 20016KT 9999 BKN035 16/11 Q1010",
      "taf": "TAF LICJ 070500Z 0706/0806 22012KT CAVOK"
    },
    {
      "icao": "LIMC",
      "alert": "OK",
      "vis_m": 9999,
      "fzfg": false,
      "metar_trigger": false,
      "taf_trigger": false,
      "metar": "METAR LIMC 071020Z 04004KT 9999 BKN055 09/06 Q1005 NOSIG",
      "taf": "TAF LIMC 070500Z 0706/0812 VRB05KT CAVOK"
    },
    {
      "icao": "LIME",
      "alert": "OK",
      "vis_m": 9999,
      "fzfg": false,
      "metar_trigger": false,
      "taf_trigger": false,
      "metar": "METAR LIME 071020Z VRB01KT 9999 BKN055 10/06 Q1005 NOSIG",
      "taf": "TAF LIME 070500Z 0706/0806 VRB05KT 9999 SCT040"
    },
    {
      "icao": "LIMF",
      "alert": "OK",
      "vis_m": 9999,
      "fzfg": false,
      "metar_trigger": false,
      "taf_trigger": false,
      "metar": "METAR LIMF 071020Z 08003KT 9999 BKN030 08/04 Q1005",
      "taf": "TAF LIMF 070500Z 0706/0806 VRB05KT CAVOK"
    },
    {
      "icao": "LIMJ",
      "alert": "OK",
      "vis_m": 9999,
      "fzfg": false,
      "metar_trigger": false,
      "taf_trigger": false,
      "metar": "METAR LIMJ 071020Z 14002KT 9999 FEW020 SCT027 15/10 Q1004",
      "taf": "TAF LIMJ 070500Z 0706/0806 VRB05KT 9999 SCT040"
    },
    {
      "icao": "LIPE",
      "alert": "OK",
      "vis_m": 9999,
      "fzfg": false,
      "metar_trigger": false,
      "taf_trigger": false,
      "metar": "METAR LIPE 071020Z VRB01KT CAVOK 09/06 Q1005",
      "taf": "TAF LIPE 070500Z 0706/0806 VRB05KT 9000 FEW060"
    },
    {
      "icao": "LIPH",
      "alert": "OK",
      "vis_m": 6000,
      "fzfg": false,
      "metar_trigger": false,
      "taf_trigger": false,
      "metar": "METAR LIPH 071020Z 04003KT 360V070 6000 SCT005 BKN070 10/09 Q1005",
      "taf": ""
    },
    {
      "icao": "LIPQ",
      "alert": "OK",
      "vis_m": 8000,
      "fzfg": false,
      "metar_trigger": false,
      "taf_trigger": false,
      "metar": "METAR LIPQ 071020Z AUTO 36003KT 8000 RA OVC043/// 09/09 Q1006",
      "taf": "TAF LIPQ 070500Z 0706/0806 VRB04KT 7000 SCT070"
    },
    {
      "icao": "LIPR",
      "alert": "OK",
      "vis_m": 9999,
      "fzfg": false,
      "metar_trigger": false,
      "taf_trigger": false,
      "metar": "METAR LIPR 071020Z AUTO 19003KT 160V220 9999 FEW068/// 15/09 Q1005",
      "taf": "TAF LIPR 070500Z 0706/0806 VRB05KT 9999 SCT060"
    },
    {
      "icao": "LIPX",
      "alert": "OK",
      "vis_m": 9999,
      "fzfg": false,
      "metar_trigger": false,
      "taf_trigger": false,
      "metar": "METAR LIPX 071020Z VRB01KT 9999 FEW065 BKN080 12/07 Q1005",
      "taf": "TAF LIPX 070500Z 0706/0806 VRB05KT 9999 SCT050"
    },
    {
      "icao": "LIPY",
      "alert": "OK",
      "vis_m": 9999,
      "fzfg": false,
      "metar_trigger": false,
      "taf_trigger": false,
      "metar": "METAR LIPY 071020Z AUTO 27006KT 9999 BKN200/// BKN230/// 16/08 Q1005",
      "taf": "TAF LIPY 070500Z 0706/0806 VRB05KT 9999 SCT050"
    },
    {
      "icao": "LIPZ",
      "alert": "OK",
      "vis_m": 1500,
      "fzfg": false,
      "metar_trigger": false,
      "taf_trigger": false,
      "metar": "METAR LIPZ 071020Z VRB02KT 1500 BR BKN003 BKN070 09/08 Q1006 BECMG 3000 BR",
      "taf": ""
    },
    {
      "icao": "LIRF",
      "alert": "OK",
      "vis_m": 9999,
      "fzfg": false,
      "metar_trigger": false,
      "taf_trigger": false,
      "metar": "METAR LIRF 071020Z 17007KT 9999 FEW020TCU SCT030 15/12 Q1006 NOSIG",
      "taf": "TAF LIRF 070500Z 0706/0812 VRB05KT 9999 SCT030"
    },
    {
      "icao": "LIRN",
      "alert": "OK",
      "vis_m": 9999,
      "fzfg": false,
      "metar_trigger": false,
      "taf_trigger": false,
      "metar": "METAR LIRN 071020Z 20009KT 170V230 9999 FEW030 SCT070 16/12 Q1008 NOSIG",
      "taf": "TAF LIRN 070500Z 0706/0806 VRB05KT 9999 FEW020"
    },
    {
      "icao": "LIRP",
      "alert": "OK",
      "vis_m": 9999,
      "fzfg": false,
      "metar_trigger": false,
      "taf_trigger": false,
      "metar": "METAR LIRP 071015Z 03006KT 9999 -RA FEW023CB FEW025TCU SCT030 12/11 Q1005 RETS NOSIG",
      "taf": "TAF LIRP 070500Z 0706/0806 28005KT 9999 SCT025"
    },
    {
      "icao": "LIRZ",
      "alert": "OK",
      "vis_m": 9999,
      "fzfg": false,
      "metar_trigger": false,
      "taf_trigger": false,
      "metar": "METAR LIRZ 071020Z AUTO 15003KT 9999 BKN022/// 12/09 Q1006",
      "taf": "TAF LIRZ 070500Z 0706/0806 VRB05KT 8000 BKN030"
    },
    {
      "icao": "LJLJ",
      "alert": "OK",
      "vis_m": 8000,
      "fzfg": false,
      "metar_trigger": false,
      "taf_trigger": false,
      "metar": "METAR LJLJ 071030Z 27003KT 8000 -RA BKN003 OVC060 05/05 Q1005 NOSIG",
      "taf": "TAF LJLJ 070500Z 0706/0806 VRB02KT 9999 FEW007"
    },
    {
      "icao": "LKMT",
      "alert": "OK",
      "vis_m": 1500,
      "fzfg": false,
      "metar_trigger": false,
      "taf_trigger": false,
      "metar": "METAR LKMT 071030Z 25003KT 1500 BR SCT003 OVC006 03/03 Q1004 NOSIG",
      "taf": "TAF LKMT 070500Z 0706/0806 23006KT 3500 BR BKN025"
    },
    {
      "icao": "LKPR",
      "alert": "OK",
      "vis_m": 4500,
      "fzfg": false,
      "metar_trigger": false,
      "taf_trigger": false,
      "metar": "METAR LKPR 071030Z VRB01KT 4500 BR FEW004 BKN006 OVC035 04/03 Q1004 BECMG 6000",
      "taf": "TAF LKPR 070800Z 0709/0815 24004KT 5000 BR SCT004 OVC006"
    },
    {
      "icao": "LLBG",
      "alert": "OK",
      "vis_m": 9999,
      "fzfg": false,
      "metar_trigger": false,
      "taf_trigger": false,
      "metar": "METAR LLBG 071020Z 22015KT CAVOK 23/07 Q1013 NOSIG",
      "taf": "TAF LLBG 070507Z 0706/0806 16005KT CAVOK"
    },
    {
      "icao": "LMML",
      "alert": "OK",
      "vis_m": 9999,
      "fzfg": false,
      "metar_trigger": false,
      "taf_trigger": false,
      "metar": "METAR LMML 071015Z 28007KT 230V310 CAVOK 19/11 Q1012 NOSIG",
      "taf": ""
    },
    {
      "icao": "LOWW",
      "alert": "OK",
      "vis_m": 9999,
      "fzfg": false,
      "metar_trigger": false,
      "taf_trigger": false,
      "metar": "METAR LOWW 071020Z VRB01KT 9999 FEW012 BKN026 05/03 Q1005 NOSIG",
      "taf": "TAF LOWW 070815Z 0709/0815 VRB03KT 9999 BKN025 TX06/0714Z TN03/0801Z"
    },
    {
      "icao": "LPFR",
      "alert": "OK",
      "vis_m": 9000,
      "fzfg": false,
      "metar_trigger": false,
      "taf_trigger": false,
      "metar": "METAR LPFR 071030Z 22023KT 9000 FEW010 SCT020 BKN040 15/13 Q1011",
      "taf": "TAF LPFR 070500Z 0706/0806 26010KT 9999 SCT025"
    },
    {
      "icao": "LPMA",
      "alert": "OK",
      "vis_m": 9999,
      "fzfg": false,
      "metar_trigger": false,
      "taf_trigger": false,
      "metar": "METAR LPMA 071030Z 22009KT 180V270 9999 SCT015 19/12 Q1021",
      "taf": "TAF LPMA 070500Z 0706/0806 22015KT 9999 SCT015"
    },
    {
      "icao": "LPPR",
      "alert": "OK",
      "vis_m": 6000,
      "fzfg": false,
      "metar_trigger": false,
      "taf_trigger": false,
      "metar": "METAR LPPR 071030Z 12016KT 6000 -RA SCT020 FEW025CB BKN032 09/07 Q0995 RERA",
      "taf": "TAF LPPR 070500Z 0706/0806 16015KT 9999 SCT020 BKN035"
    },
    {
      "icao": "LPPS",
      "alert": "OK",
      "vis_m": 9999,
      "fzfg": false,
      "metar_trigger": false,
      "taf_trigger": false,
      "metar": "METAR LPPS 071030Z 26018KT 9999 FEW014 18/14 Q1020",
      "taf": "TAF LPPS 070500Z 0706/0812 26017KT 9999 SCT015"
    },
    {
      "icao": "LPPT",
      "alert": "OK",
      "vis_m": 9999,
      "fzfg": false,
      "metar_trigger": false,
      "taf_trigger": false,
      "metar": "METAR LPPT 071030Z 24016KT 9999 FEW008 BKN012 FEW018CB 14/13 Q1002 RERA WS R20",
      "taf": ""
    },
    {
      "icao": "LQBK",
      "alert": "OK",
      "vis_m": 7000,
      "fzfg": false,
      "metar_trigger": false,
      "taf_trigger": false,
      "metar": "METAR LQBK 071030Z VRB02KT 7000 SCT013 BKN045 11/08 Q1005 NOSIG",
      "taf": ""
    },
    {
      "icao": "LQSA",
      "alert": "OK",
      "vis_m": 3500,
      "fzfg": false,
      "metar_trigger": false,
      "taf_trigger": false,
      "metar": "METAR LQSA 071030Z 00000KT 3500 RA BR BKN004 BKN030 07/07 Q1005 NOSIG",
      "taf": ""
    },
    {
      "icao": "LQTZ",
      "alert": "OK",
      "vis_m": 5000,
      "fzfg": false,
      "metar_trigger": false,
      "taf_trigger": false,
      "metar": "METAR LQTZ 071030Z VRB01KT 5000 -RA BR BKN005 OVC015 09/09 Q1005",
      "taf": ""
    },
    {
      "icao": "LRBC",
      "alert": "OK",
      "vis_m": 6000,
      "fzfg": false,
      "metar_trigger": false,
      "taf_trigger": false,
      "metar": "METAR LRBC 071030Z VRB02KT 6000 OVC004 01/00 Q1003",
      "taf": "TAF LRBC 070800Z 0709/0718 VRB04KT 5000 BR OVC003"
    },
    {
      "icao": "LRBS",
      "alert": "OK",
      "vis_m": 8000,
      "fzfg": false,
      "metar_trigger": false,
      "taf_trigger": false,
      "metar": "METAR LRBS 071030Z 25007KT 8000 OVC006 05/03 Q1004 NOSIG",
      "taf": "TAF LRBS 070500Z 0706/0806 VRB04KT 1500 BR OVC002"
    },
    {
      "icao": "LRBV",
      "alert": "OK",
      "vis_m": 8000,
      "fzfg": false,
      "metar_trigger": false,
      "taf_trigger": false,
      "metar": "METAR LRBV 071030Z VRB03KT 8000 FEW004 SCT013 BKN024 04/02 Q1003",
      "taf": ""
    },
    {
      "icao": "LRCL",
      "alert": "OK",
      "vis_m": 9999,
      "fzfg": false,
      "metar_trigger": false,
      "taf_trigger": false,
      "metar": "METAR LRCL 071030Z 28005KT 240V320 9999 SCT028 SCT060 11/04 Q1003",
      "taf": "TAF LRCL 070800Z 0709/0718 VRB04KT 9999 SCT050"
    },
    {
      "icao": "LRCV",
      "alert": "OK",
      "vis_m": 9999,
      "fzfg": false,
      "metar_trigger": false,
      "taf_trigger": false,
      "metar": "METAR LRCV 071030Z 26004KT 230V290 9999 SCT012 BKN026 07/04 Q1004",
      "taf": "TAF LRCV 070800Z 0709/0718 VRB04KT 7000 NSC"
    },
    {
      "icao": "LRIA",
      "alert": "OK",
      "vis_m": 9999,
      "fzfg": false,
      "metar_trigger": false,
      "taf_trigger": false,
      "metar": "METAR LRIA 071030Z 32003KT 290V360 9999 BKN005 BKN021 M00/M02 Q1003",
      "taf": "TAF LRIA 070800Z 0709/0718 VRB04KT 9999 OVC005"
    },
    {
      "icao": "LROP",
      "alert": "OK",
      "vis_m": 7000,
      "fzfg": false,
      "metar_trigger": false,
      "taf_trigger": false,
      "metar": "METAR LROP 071030Z 24008KT 7000 OVC005 05/05 Q1004 NOSIG",
      "taf": "TAF LROP 070500Z 0706/0806 VRB04KT 0600 FG OVC001"
    },
    {
      "icao": "LRSB",
      "alert": "OK",
      "vis_m": 6000,
      "fzfg": false,
      "metar_trigger": false,
      "taf_trigger": false,
      "metar": "METAR LRSB 071030Z 08002KT 6000 -RA FEW020 BKN030 07/06 Q1003",
      "taf": "TAF LRSB 070500Z 0706/0806 VRB04KT 9999 BKN035"
    },
    {
      "icao": "LRSM",
      "alert": "OK",
      "vis_m": 9999,
      "fzfg": false,
      "metar_trigger": false,
      "taf_trigger": false,
      "metar": "METAR LRSM 071030Z AUTO 25005KT 220V280 9999 -SHRA FEW017/// SCT024/// BKN055/// 08/07 Q1003",
      "taf": ""
    },
    {
      "icao": "LRSV",
      "alert": "OK",
      "vis_m": 3000,
      "fzfg": false,
      "metar_trigger": false,
      "taf_trigger": false,
      "metar": "METAR LRSV 071030Z VRB02KT 3000 BR BKN003 M01/M01 Q1002",
      "taf": ""
    },
    {
      "icao": "LRTM",
      "alert": "OK",
      "vis_m": 8000,
      "fzfg": false,
      "metar_trigger": false,
      "taf_trigger": false,
      "metar": "METAR LRTM 071030Z 06003KT 020V110 8000 FEW030 SCT045 06/05 Q1003",
      "taf": "TAF LRTM 070800Z 0709/0718 VRB04KT 9999 BKN030"
    },
    {
      "icao": "LRTR",
      "alert": "OK",
      "vis_m": 9999,
      "fzfg": false,
      "metar_trigger": false,
      "taf_trigger": false,
      "metar": "METAR LRTR 071030Z 18004KT 150V210 CAVOK 08/06 Q1005 NOSIG",
      "taf": "TAF LRTR 070500Z 0706/0806 VRB04KT CAVOK"
    },
    {
      "icao": "LTAC",
      "alert": "OK",
      "vis_m": 9999,
      "fzfg": false,
      "metar_trigger": false,
      "taf_trigger": false,
      "metar": "METAR LTAC 071020Z 24015KT 9999 FEW015 SCT030 BKN080 09/06 Q1004 NOSIG RMK RWY21C 23015KT RWY03L 24012KT RWY21R 22014KT RWY03R 23013KT RWY21L 23014KT",
      "taf": "TAF LTAC 070440Z 0706/0806 19007KT 9999 -SHRA BKN030 BKN080"
    },
    {
      "icao": "LTFM",
      "alert": "OK",
      "vis_m": 4000,
      "fzfg": false,
      "metar_trigger": false,
      "taf_trigger": false,
      "metar": "METAR LTFM 071020Z 36008KT 320V020 4000 BR BKN003 BKN022 09/08 Q1004 NOSIG RMK RWY17L 35007KT RWY34L 35007KT 310V010 RWY16R 35007KT RWY36 36008KT RWY18 35005KT 300V010",
      "taf": ""
    },
    {
      "icao": "LUKK",
      "alert": "OK",
      "vis_m": 9999,
      "fzfg": false,
      "metar_trigger": false,
      "taf_trigger": false,
      "metar": "METAR LUKK 071030Z 35006KT 9999 BKN007 BKN049 M01/M02 Q1003 BECMG BKN010",
      "taf": "TAF LUKK 070509Z 0706/0806 33006KT 9999 OVC003"
    },
    {
      "icao": "LWOH",
      "alert": "OK",
      "vis_m": 9999,
      "fzfg": false,
      "metar_trigger": false,
      "taf_trigger": false,
      "metar": "METAR LWOH 071020Z 16012KT 9999 BKN044 11/07 Q1007",
      "taf": "TAF LWOH 070855Z 0709/0809 22008KT 9999 SCT040"
    },
    {
      "icao": "LWSK",
      "alert": "OK",
      "vis_m": 7000,
      "fzfg": false,
      "metar_trigger": false,
      "taf_trigger": false,
      "metar": "METAR LWSK 071020Z VRB01KT 7000 SCT007 BKN013 10/08 Q1006 NOSIG",
      "taf": "TAF LWSK 070855Z 0709/0809 VRB02KT 9999 SCT030"
    },
    {
      "icao": "LYBE",
      "alert": "OK",
      "vis_m": 2000,
      "fzfg": false,
      "metar_trigger": false,
      "taf_trigger": false,
      "metar": "METAR LYBE 071030Z 23004KT 190V260 2000 BR OVC003 07/07 Q1005 NOSIG",
      "taf": ""
    },
    {
      "icao": "LYNI",
      "alert": "OK",
      "vis_m": 9999,
      "fzfg": false,
      "metar_trigger": false,
      "taf_trigger": false,
      "metar": "METAR LYNI 071030Z VRB02KT 9999 FEW008 SCT017 BKN030 08/08 Q1005 NOSIG",
      "taf": "TAF LYNI 070500Z 0706/0806 32005KT 8000 FEW010 BKN040 OVC070 TX10/0713Z TN05/0706Z"
    },
    {
      "icao": "LYPG",
      "alert": "OK",
      "vis_m": 9999,
      "fzfg": false,
      "metar_trigger": false,
      "taf_trigger": false,
      "metar": "METAR LYPG 071030Z COR 30003KT 210V010 9999 FEW006 BKN050 13/11 Q1006 NOSIG",
      "taf": "TAF LYPG 070500Z 0706/0806 18006KT 9999 FEW010 SCT050 TX15/0713Z TN07/0706Z"
    },
    {
      "icao": "LZIB",
      "alert": "OK",
      "vis_m": 9999,
      "fzfg": false,
      "metar_trigger": false,
      "taf_trigger": false,
      "metar": "METAR LZIB 071030Z 26006KT 240V300 9999 BKN020 07/02 Q1004 NOSIG",
      "taf": "TAF LZIB 070515Z 0706/0806 28006KT 9999 SCT023 BKN030"
    },
    {
      "icao": "LZKZ",
      "alert": "OK",
      "vis_m": 9999,
      "fzfg": false,
      "metar_trigger": false,
      "taf_trigger": false,
      "metar": "METAR LZKZ 071030Z 03004KT 9999 OVC012 06/05 Q1002 NOSIG",
      "taf": "TAF LZKZ 070515Z 0706/0806 VRB02KT 9999 SCT020 BKN030"
    },
    {
      "icao": "LZTT",
      "alert": "OK",
      "vis_m": 2500,
      "fzfg": false,
      "metar_trigger": false,
      "taf_trigger": false,
      "metar": "METAR LZTT 071030Z 02001KT 2500 -RA BR FEW003 BKN008 OVC016 03/03 Q1001 NOSIG",
      "taf": ""
    },
    {
      "icao": "OEJN",
      "alert": "OK",
      "vis_m": 9999,
      "fzfg": false,
      "metar_trigger": false,
      "taf_trigger": false,
      "metar": "METAR OEJN 071000Z 30010KT 270V350 9999 SCT040 29/17 Q1015 NOSIG",
      "taf": "TAF OEJN 070500Z 0706/0812 30012KT CAVOK"
    },
    {
      "icao": "OEMA",
      "alert": "OK",
      "vis_m": 9999,
      "fzfg": false,
      "metar_trigger": false,
      "taf_trigger": false,
      "metar": "METAR OEMA 071000Z 30004KT CAVOK 26/04 Q1018 NOSIG",
      "taf": "TAF OEMA 070500Z 0706/0812 16006KT CAVOK"
    },
    {
      "icao": "OJAI",
      "alert": "OK",
      "vis_m": 3500,
      "fzfg": false,
      "metar_trigger": false,
      "taf_trigger": false,
      "metar": "METAR OJAI 071000Z 26023KT 3500 BLDU NSC 19/07 Q1015 NOSIG",
      "taf": "TAF OJAI 070446Z 0706/0812 23006KT 4000 DU FEW040"
    },
    {
      "icao": "OMAA",
      "alert": "OK",
      "vis_m": 9999,
      "fzfg": false,
      "metar_trigger": false,
      "taf_trigger": false,
      "metar": "METAR OMAA 071030Z 31009KT 280V340 CAVOK 28/15 Q1016 NOSIG",
      "taf": "TAF OMAA 070500Z 0706/0812 15005KT 8000 NSC"
    },
    {
      "icao": "OMDB",
      "alert": "OK",
      "vis_m": 9999,
      "fzfg": false,
      "metar_trigger": false,
      "taf_trigger": false,
      "metar": "METAR OMDB 071030Z 27012KT 240V310 CAVOK 27/13 Q1016 NOSIG",
      "taf": "TAF OMDB 070500Z 0706/0812 16005KT 8000 NSC"
    },
    {
      "icao": "UAAA",
      "alert": "OK",
      "vis_m": 9999,
      "fzfg": false,
      "metar_trigger": false,
      "taf_trigger": false,
      "metar": "METAR UAAA 071030Z 34002MPS 300V030 9999 BKN015CB OVC100 00/M02 Q1025 NOSIG",
      "taf": "TAF UAAA 070510Z 0706/0806 06003G08MPS 9999 SCT030 BKN100 TX02/0707Z TNM04/0802Z"
    },
    {
      "icao": "UBBB",
      "alert": "OK",
      "vis_m": 9999,
      "fzfg": false,
      "metar_trigger": false,
      "taf_trigger": false,
      "metar": "METAR UBBB 071030Z 19024G37KT CAVOK 09/05 Q1007 NOSIG",
      "taf": ""
    },
    {
      "icao": "UDSG",
      "alert": "OK",
      "vis_m": 7000,
      "fzfg": false,
      "metar_trigger": false,
      "taf_trigger": false,
      "metar": "METAR UDSG 071030Z 29002KT 7000 -SN FEW006 OVC023 01/M02 Q1011 NOSIG",
      "taf": "TAF UDSG 070458Z 0706/0806 VRB06KT 2000 BR OVC020"
    },
    {
      "icao": "UDYZ",
      "alert": "OK",
      "vis_m": 9000,
      "fzfg": false,
      "metar_trigger": false,
      "taf_trigger": false,
      "metar": "METAR UDYZ 071030Z VRB01KT 9000 BKN043 05/00 Q1012 NOSIG",
      "taf": "TAF UDYZ 070500Z 0706/0806 20006KT 6000 BKN040"
    },
    {
      "icao": "UGKO",
      "alert": "OK",
      "vis_m": 9999,
      "fzfg": false,
      "metar_trigger": false,
      "taf_trigger": false,
      "metar": "METAR UGKO 071030Z 08019KT CAVOK 16/00 Q1004 NOSIG",
      "taf": "TAF UGKO 070500Z 0706/0806 09017KT 9999 SCT080 TX18/0711Z TN08/0803Z"
    }
  ]
}