{
  "ts_utc": "2026-04-20T12:57:12Z",
  "threshold_m": 150,
  "source": "stations_override.txt (ICAO list) + aviationweather.gov (METAR/TAF raw)",
  "station_count": 159,
  "stations": [
    {
      "icao": "BIKF",
      "alert": "OK",
      "vis_m": 9999,
      "fzfg": false,
      "metar_trigger": false,
      "taf_trigger": false,
      "metar": "METAR BIKF 201230Z 14016KT 9999 BKN018 10/05 Q1036",
      "taf": "TAF BIKF 201031Z 2012/2112 13010KT 9999 FEW025 TX12/2015Z TN02/2106Z"
    },
    {
      "icao": "BKPR",
      "alert": "OK",
      "vis_m": null,
      "fzfg": false,
      "metar_trigger": false,
      "taf_trigger": false,
      "metar": "",
      "taf": "TAF BKPR 201130Z 2012/2112 29010KT 9999 SCT040 BKN080"
    },
    {
      "icao": "EBCI",
      "alert": "OK",
      "vis_m": 9999,
      "fzfg": false,
      "metar_trigger": false,
      "taf_trigger": false,
      "metar": "METAR EBCI 201250Z 03007KT 340V090 9999 FEW045 12/01 Q1021 NOSIG",
      "taf": "TAF EBCI 201100Z 2012/2118 03005KT 9999 FEW035"
    },
    {
      "icao": "EDDB",
      "alert": "OK",
      "vis_m": 9999,
      "fzfg": false,
      "metar_trigger": false,
      "taf_trigger": false,
      "metar": "METAR EDDB 201250Z AUTO 07007KT 9999 -RA BKN034 OVC043 08/07 Q1016 NOSIG",
      "taf": "TAF EDDB 201100Z 2012/2112 05009KT 9999 BKN020"
    },
    {
      "icao": "EDDH",
      "alert": "OK",
      "vis_m": 9999,
      "fzfg": false,
      "metar_trigger": false,
      "taf_trigger": false,
      "metar": "METAR EDDH 201250Z AUTO 04015G26KT 360V080 CAVOK 11/04 Q1020 TEMPO 05015G25KT",
      "taf": "TAF EDDH 201100Z 2012/2118 04013KT 9999 SCT020"
    },
    {
      "icao": "EDDK",
      "alert": "OK",
      "vis_m": 9999,
      "fzfg": false,
      "metar_trigger": false,
      "taf_trigger": false,
      "metar": "METAR EDDK 201250Z AUTO 32012KT 9999 FEW046 11/01 Q1020 NOSIG",
      "taf": "TAF EDDK 201100Z 2012/2118 34009KT 9999 SCT045"
    },
    {
      "icao": "EDDN",
      "alert": "OK",
      "vis_m": 9999,
      "fzfg": false,
      "metar_trigger": false,
      "taf_trigger": false,
      "metar": "METAR EDDN 201250Z AUTO 30011KT 260V350 9999 FEW045 11/01 Q1017 NOSIG",
      "taf": "TAF EDDN 201100Z 2012/2112 31010KT 9999 BKN040"
    },
    {
      "icao": "EDDS",
      "alert": "OK",
      "vis_m": 9999,
      "fzfg": false,
      "metar_trigger": false,
      "taf_trigger": false,
      "metar": "METAR EDDS 201250Z AUTO 01008KT 330V050 CAVOK 13/01 Q1016 NOSIG",
      "taf": "TAF EDDS 201100Z 2012/2112 36007KT 9999 SCT035"
    },
    {
      "icao": "EDFH",
      "alert": "OK",
      "vis_m": 9999,
      "fzfg": false,
      "metar_trigger": false,
      "taf_trigger": false,
      "metar": "METAR EDFH 201250Z 36006KT 320V050 9999 FEW043 10/M01 Q1019",
      "taf": "TAF EDFH 201100Z 2012/2112 35007KT 9999 SCT030"
    },
    {
      "icao": "EDJA",
      "alert": "OK",
      "vis_m": 9999,
      "fzfg": false,
      "metar_trigger": false,
      "taf_trigger": false,
      "metar": "METAR EDJA 201250Z VRB05KT 9999 FEW057 12/00 Q1016",
      "taf": "TAF EDJA 201100Z 2012/2021 34006KT 9999 SCT045"
    },
    {
      "icao": "EDLW",
      "alert": "OK",
      "vis_m": 9999,
      "fzfg": false,
      "metar_trigger": false,
      "taf_trigger": false,
      "metar": "METAR EDLW 201250Z 33004KT 250V030 9999 SCT046 10/01 Q1020",
      "taf": "TAF EDLW 201100Z 2012/2112 33006KT 9999 SCT040"
    },
    {
      "icao": "EDNY",
      "alert": "OK",
      "vis_m": 9999,
      "fzfg": false,
      "metar_trigger": false,
      "taf_trigger": false,
      "metar": "METAR EDNY 201250Z 01003KT 310V110 CAVOK 15/02 Q1016",
      "taf": "TAF EDNY 201100Z 2012/2021 24005KT 9999 SCT045"
    },
    {
      "icao": "EDSB",
      "alert": "OK",
      "vis_m": 9999,
      "fzfg": false,
      "metar_trigger": false,
      "taf_trigger": false,
      "metar": "METAR EDSB 201250Z 04008KT 350V100 CAVOK 15/03 Q1018",
      "taf": "TAF EDSB 201100Z 2012/2112 03011KT 9999 FEW035"
    },
    {
      "icao": "EETN",
      "alert": "OK",
      "vis_m": 9999,
      "fzfg": false,
      "metar_trigger": false,
      "taf_trigger": false,
      "metar": "METAR EETN 201250Z 04008KT 360V070 CAVOK 09/M07 Q1025 NOSIG",
      "taf": "TAF EETN 201130Z 2012/2112 04013KT CAVOK"
    },
    {
      "icao": "EFTU",
      "alert": "OK",
      "vis_m": 9999,
      "fzfg": false,
      "metar_trigger": false,
      "taf_trigger": false,
      "metar": "METAR EFTU 201250Z AUTO 03007KT 330V080 CAVOK 13/M10 Q1026",
      "taf": "TAF EFTU 201129Z 2012/2112 03009KT CAVOK"
    },
    {
      "icao": "EGBB",
      "alert": "OK",
      "vis_m": 9999,
      "fzfg": false,
      "metar_trigger": false,
      "taf_trigger": false,
      "metar": "METAR EGBB 201250Z 10007KT CAVOK 13/M01 Q1024",
      "taf": "TAF EGBB 201053Z 2012/2112 08004KT 9999 FEW045"
    },
    {
      "icao": "EGGP",
      "alert": "OK",
      "vis_m": 9999,
      "fzfg": false,
      "metar_trigger": false,
      "taf_trigger": false,
      "metar": "METAR EGGP 201250Z 15004KT 110V200 9999 SCT044 13/02 Q1024",
      "taf": "TAF EGGP 201056Z 2012/2112 VRB03KT 9999 FEW025"
    },
    {
      "icao": "EGGW",
      "alert": "OK",
      "vis_m": 9999,
      "fzfg": false,
      "metar_trigger": false,
      "taf_trigger": false,
      "metar": "METAR EGGW 201250Z AUTO 06009KT 030V090 9999 FEW045 12/01 Q1023",
      "taf": "TAF EGGW 201055Z 2012/2112 05010KT 9999 SCT035"
    },
    {
      "icao": "EGKK",
      "alert": "OK",
      "vis_m": 9999,
      "fzfg": false,
      "metar_trigger": false,
      "taf_trigger": false,
      "metar": "METAR EGKK 201250Z 06013KT 9999 SCT045 14/03 Q1023",
      "taf": "TAF EGKK 201056Z 2012/2118 03010KT 9999 FEW045"
    },
    {
      "icao": "EGNM",
      "alert": "OK",
      "vis_m": 9999,
      "fzfg": false,
      "metar_trigger": false,
      "taf_trigger": false,
      "metar": "METAR EGNM 201250Z 07006KT 020V110 9999 FEW025 10/03 Q1025",
      "taf": "TAF EGNM 201056Z 2012/2112 06007KT 9999 FEW025"
    },
    {
      "icao": "EGPD",
      "alert": "OK",
      "vis_m": 9999,
      "fzfg": false,
      "metar_trigger": false,
      "taf_trigger": false,
      "metar": "METAR EGPD 201250Z COR 12007KT 090V170 9999 SCT011 BKN021 09/07 Q1026 RERA TEMPO BKN011",
      "taf": ""
    },
    {
      "icao": "EGPF",
      "alert": "OK",
      "vis_m": 9999,
      "fzfg": false,
      "metar_trigger": false,
      "taf_trigger": false,
      "metar": "METAR EGPF 201250Z AUTO VRB02KT 9999 NCD 12/03 Q1025",
      "taf": "TAF EGPF 201057Z 2012/2112 06008KT 9999 FEW045"
    },
    {
      "icao": "EHBK",
      "alert": "OK",
      "vis_m": 9999,
      "fzfg": false,
      "metar_trigger": false,
      "taf_trigger": false,
      "metar": "METAR EHBK 201225Z AUTO 33005KT 260V040 9999 FEW046 12/01 Q1021 NOSIG",
      "taf": "TAF EHBK 201118Z 2012/2118 36007KT CAVOK"
    },
    {
      "icao": "EHEH",
      "alert": "OK",
      "vis_m": 9999,
      "fzfg": false,
      "metar_trigger": false,
      "taf_trigger": false,
      "metar": "METAR EHEH 201225Z AUTO 33007KT 290V040 9999 BKN057 BKN063 BKN082 13/01 Q1021 BLU NOSIG",
      "taf": "TAF EHEH 201131Z 2012/2118 34007KT 9999 SCT045"
    },
    {
      "icao": "EKBI",
      "alert": "OK",
      "vis_m": 9999,
      "fzfg": false,
      "metar_trigger": false,
      "taf_trigger": false,
      "metar": "METAR EKBI 201250Z AUTO 07014G26KT 020V110 9999 SCT043/// 11/01 Q1025",
      "taf": "TAF EKBI 201127Z 2012/2112 06012KT 9999 FEW030"
    },
    {
      "icao": "EKCH",
      "alert": "OK",
      "vis_m": 9999,
      "fzfg": false,
      "metar_trigger": false,
      "taf_trigger": false,
      "metar": "METAR EKCH 201250Z AUTO 08012KT 9999 NCD 11/M03 Q1025 TEMPO 08017G27KT",
      "taf": "TAF EKCH 201127Z 2012/2112 08016KT CAVOK"
    },
    {
      "icao": "ENAL",
      "alert": "OK",
      "vis_m": 9999,
      "fzfg": false,
      "metar_trigger": false,
      "taf_trigger": false,
      "metar": "METAR ENAL 201250Z 32007KT CAVOK 13/02 Q1032",
      "taf": "TAF ENAL 201100Z 2012/2021 30009KT 9999 SCT050"
    },
    {
      "icao": "ENBR",
      "alert": "OK",
      "vis_m": 9999,
      "fzfg": false,
      "metar_trigger": false,
      "taf_trigger": false,
      "metar": "METAR ENBR 201250Z 08007KT 360V170 CAVOK 13/M03 Q1030 NOSIG RMK WIND 1200FT 31010KT",
      "taf": ""
    },
    {
      "icao": "ENGM",
      "alert": "OK",
      "vis_m": 9999,
      "fzfg": false,
      "metar_trigger": false,
      "taf_trigger": false,
      "metar": "METAR ENGM 201250Z 05005KT 310V120 CAVOK 12/M02 Q1031 NOSIG",
      "taf": "TAF ENGM 201100Z 2012/2112 01007KT CAVOK"
    },
    {
      "icao": "ENHD",
      "alert": "OK",
      "vis_m": 9999,
      "fzfg": false,
      "metar_trigger": false,
      "taf_trigger": false,
      "metar": "METAR ENHD 201250Z 33009KT 280V360 CAVOK 12/03 Q1030",
      "taf": "TAF ENHD 201100Z 2012/2021 VRB05KT CAVOK"
    },
    {
      "icao": "ENTC",
      "alert": "OK",
      "vis_m": 9999,
      "fzfg": false,
      "metar_trigger": false,
      "taf_trigger": false,
      "metar": "METAR ENTC 201250Z 22014KT 9999 BKN058 11/00 Q1028 NOSIG RMK WIND 2600FT 22013KT",
      "taf": "TAF ENTC 201100Z 2012/2112 22008KT 9999 SCT040"
    },
    {
      "icao": "ENTO",
      "alert": "OK",
      "vis_m": 9999,
      "fzfg": false,
      "metar_trigger": false,
      "taf_trigger": false,
      "metar": "METAR ENTO 201250Z 03010KT 360V060 CAVOK 11/M01 Q1031 NOSIG",
      "taf": "TAF ENTO 201100Z 2012/2112 04010KT CAVOK"
    },
    {
      "icao": "ENVA",
      "alert": "OK",
      "vis_m": 9999,
      "fzfg": false,
      "metar_trigger": false,
      "taf_trigger": false,
      "metar": "METAR ENVA 201250Z 24009KT CAVOK 15/M00 Q1030 NOSIG RMK WIND 670FT 29009KT",
      "taf": "TAF ENVA 201100Z 2012/2112 26008KT CAVOK"
    },
    {
      "icao": "ENZV",
      "alert": "OK",
      "vis_m": 9999,
      "fzfg": false,
      "metar_trigger": false,
      "taf_trigger": false,
      "metar": "METAR ENZV 201250Z 09005KT 040V150 CAVOK 13/M04 Q1030 NOSIG",
      "taf": ""
    },
    {
      "icao": "EPGD",
      "alert": "OK",
      "vis_m": 9999,
      "fzfg": false,
      "metar_trigger": false,
      "taf_trigger": false,
      "metar": "METAR EPGD 201230Z 04017KT CAVOK 08/M02 Q1020",
      "taf": "TAF EPGD 201130Z 2012/2112 06016KT CAVOK"
    },
    {
      "icao": "EPKK",
      "alert": "OK",
      "vis_m": 9999,
      "fzfg": false,
      "metar_trigger": false,
      "taf_trigger": false,
      "metar": "METAR EPKK 201230Z 29010KT 9999 BKN028 OVC044 10/03 Q1013",
      "taf": "TAF EPKK 201130Z 2012/2112 28010KT 9999 BKN030"
    },
    {
      "icao": "EPKT",
      "alert": "OK",
      "vis_m": 9999,
      "fzfg": false,
      "metar_trigger": false,
      "taf_trigger": false,
      "metar": "METAR EPKT 201230Z 30003KT 250V320 9999 FEW003 SCT024CB BKN035 07/05 Q1013",
      "taf": "TAF EPKT 201130Z 2012/2112 31010KT 9999 BKN020"
    },
    {
      "icao": "EPLB",
      "alert": "OK",
      "vis_m": 9999,
      "fzfg": false,
      "metar_trigger": false,
      "taf_trigger": false,
      "metar": "METAR EPLB 201230Z 05015KT 9999 FEW031 SCT046 10/03 Q1014",
      "taf": "TAF EPLB 201130Z 2012/2112 08014KT 9999 BKN040"
    },
    {
      "icao": "EPMO",
      "alert": "OK",
      "vis_m": 9999,
      "fzfg": false,
      "metar_trigger": false,
      "taf_trigger": false,
      "metar": "METAR EPMO 201230Z 06015KT 040V100 CAVOK 13/M01 Q1015",
      "taf": "TAF EPMO 201130Z 2012/2112 06014KT CAVOK"
    },
    {
      "icao": "EPPO",
      "alert": "OK",
      "vis_m": 9999,
      "fzfg": false,
      "metar_trigger": false,
      "taf_trigger": false,
      "metar": "METAR EPPO 201230Z 11006KT 9999 -RA OVC031 09/07 Q1015",
      "taf": "TAF EPPO 201130Z 2012/2112 07010KT 9999 OVC030"
    },
    {
      "icao": "EPRA",
      "alert": "OK",
      "vis_m": 9999,
      "fzfg": false,
      "metar_trigger": false,
      "taf_trigger": false,
      "metar": "METAR EPRA 201230Z 07012KT 9999 SCT038 BKN046 10/02 Q1014",
      "taf": "TAF EPRA 201130Z 2012/2021 10010KT 9999 BKN040"
    },
    {
      "icao": "EPRZ",
      "alert": "OK",
      "vis_m": 6000,
      "fzfg": false,
      "metar_trigger": false,
      "taf_trigger": false,
      "metar": "METAR EPRZ 201230Z 28005KT 6000 -RA BKN004 07/06 Q1013",
      "taf": ""
    },
    {
      "icao": "EPSC",
      "alert": "OK",
      "vis_m": 9999,
      "fzfg": false,
      "metar_trigger": false,
      "taf_trigger": false,
      "metar": "METAR EPSC 201230Z 04010KT 340V080 CAVOK 15/M01 Q1016",
      "taf": "TAF EPSC 201130Z 2012/2112 03012KT CAVOK"
    },
    {
      "icao": "EPSY",
      "alert": "OK",
      "vis_m": 9999,
      "fzfg": false,
      "metar_trigger": false,
      "taf_trigger": false,
      "metar": "METAR EPSY 201230Z 10010G20KT 040V160 CAVOK 11/M06 Q1017",
      "taf": "TAF EPSY 201130Z 2012/2021 09012KT CAVOK"
    },
    {
      "icao": "EPWA",
      "alert": "OK",
      "vis_m": 9999,
      "fzfg": false,
      "metar_trigger": false,
      "taf_trigger": false,
      "metar": "METAR EPWA 201230Z 08011KT 040V110 CAVOK 13/M00 Q1015 NOSIG",
      "taf": "TAF EPWA 201130Z 2012/2112 06014KT CAVOK"
    },
    {
      "icao": "EPWR",
      "alert": "OK",
      "vis_m": 9999,
      "fzfg": false,
      "metar_trigger": false,
      "taf_trigger": false,
      "metar": "METAR EPWR 201230Z 30012KT 9999 SCT020 BKN033 09/04 Q1014",
      "taf": "TAF EPWR 201130Z 2012/2112 28008KT 9999 SCT013 BKN020"
    },
    {
      "icao": "ESGG",
      "alert": "OK",
      "vis_m": 9999,
      "fzfg": false,
      "metar_trigger": false,
      "taf_trigger": false,
      "metar": "METAR ESGG 201250Z 05014KT 010V100 CAVOK 13/M05 Q1027",
      "taf": "TAF ESGG 201130Z 2012/2112 06014G24KT CAVOK"
    },
    {
      "icao": "ESKN",
      "alert": "OK",
      "vis_m": 9999,
      "fzfg": false,
      "metar_trigger": false,
      "taf_trigger": false,
      "metar": "METAR ESKN 201250Z 02008KT 330V070 CAVOK 14/M03 Q1027",
      "taf": "TAF ESKN 201130Z 2012/2112 03012KT CAVOK"
    },
    {
      "icao": "ESMS",
      "alert": "OK",
      "vis_m": 9999,
      "fzfg": false,
      "metar_trigger": false,
      "taf_trigger": false,
      "metar": "METAR ESMS 201250Z 07024G35KT CAVOK 09/M05 Q1024",
      "taf": "TAF ESMS 201127Z 2012/2112 07020KT CAVOK"
    },
    {
      "icao": "ESSA",
      "alert": "OK",
      "vis_m": 9999,
      "fzfg": false,
      "metar_trigger": false,
      "taf_trigger": false,
      "metar": "METAR ESSA 201250Z 06012KT CAVOK 12/M04 Q1028 NOSIG",
      "taf": "TAF ESSA 201130Z 2012/2112 03012KT CAVOK"
    },
    {
      "icao": "EYKA",
      "alert": "OK",
      "vis_m": 9999,
      "fzfg": false,
      "metar_trigger": false,
      "taf_trigger": false,
      "metar": "METAR EYKA 201250Z 01010KT 330V070 CAVOK 11/M06 Q1018",
      "taf": "TAF EYKA 201100Z 2012/2112 VRB04KT 9000 NSC"
    },
    {
      "icao": "EYPA",
      "alert": "OK",
      "vis_m": 9999,
      "fzfg": false,
      "metar_trigger": false,
      "taf_trigger": false,
      "metar": "METAR EYPA 201250Z 03012KT 360V060 CAVOK 12/M10 Q1021",
      "taf": "TAF EYPA 201100Z 2012/2112 04010KT 9000 NSC"
    },
    {
      "icao": "EYVI",
      "alert": "OK",
      "vis_m": 9999,
      "fzfg": false,
      "metar_trigger": false,
      "taf_trigger": false,
      "metar": "METAR EYVI 201250Z 03008KT 350V090 CAVOK 11/M06 Q1017 NOSIG",
      "taf": "TAF EYVI 201100Z 2012/2112 03010KT 9000 NSC"
    },
    {
      "icao": "GCFV",
      "alert": "OK",
      "vis_m": 7000,
      "fzfg": false,
      "metar_trigger": false,
      "taf_trigger": false,
      "metar": "METAR GCFV 201230Z 10009KT 070V140 7000 NSC 22/18 Q1008",
      "taf": "TAF GCFV 200800Z 2009/2109 09005KT 9999 FEW020 TX26/2014Z TN17/2106Z"
    },
    {
      "icao": "GCLP",
      "alert": "OK",
      "vis_m": 9000,
      "fzfg": false,
      "metar_trigger": false,
      "taf_trigger": false,
      "metar": "METAR GCLP 201230Z 08005KT 040V110 9000 BKN022 21/17 Q1009 NOSIG",
      "taf": "TAF GCLP 200800Z 2009/2109 06008KT 9999 FEW015 TX24/2014Z TN17/2106Z"
    },
    {
      "icao": "GCTS",
      "alert": "OK",
      "vis_m": 9999,
      "fzfg": false,
      "metar_trigger": false,
      "taf_trigger": false,
      "metar": "METAR GCTS 201230Z 16006KT 110V200 9999 FEW025 23/15 Q1009 TEMPO 25018G28KT",
      "taf": "TAF GCTS 200800Z 2009/2109 18004KT 9999 FEW020 TX26/2014Z TN16/2106Z"
    },
    {
      "icao": "GMAD",
      "alert": "OK",
      "vis_m": 8000,
      "fzfg": false,
      "metar_trigger": false,
      "taf_trigger": false,
      "metar": "METAR GMAD 201230Z 21008KT 170V260 8000 NSC 37/02 Q1007 NOSIG",
      "taf": "TAF GMAD 201100Z 2012/2118 28010KT 8000 NSC"
    },
    {
      "icao": "GMMN",
      "alert": "OK",
      "vis_m": 9999,
      "fzfg": false,
      "metar_trigger": false,
      "taf_trigger": false,
      "metar": "METAR GMMN 201230Z VRB02KT CAVOK 35/11 Q1009 NOSIG",
      "taf": "TAF GMMN 201100Z 2012/2118 12005KT CAVOK"
    },
    {
      "icao": "GMMX",
      "alert": "OK",
      "vis_m": 9999,
      "fzfg": false,
      "metar_trigger": false,
      "taf_trigger": false,
      "metar": "METAR GMMX 201230Z VRB04KT 9999 FEW033 33/07 Q1010 NOSIG",
      "taf": "TAF GMMX 201100Z 2012/2118 08006KT CAVOK"
    },
    {
      "icao": "HEGN",
      "alert": "OK",
      "vis_m": 5000,
      "fzfg": false,
      "metar_trigger": false,
      "taf_trigger": false,
      "metar": "METAR HEGN 201200Z 36018KT 5000 SA NSC 28/06 Q1009 TEMPO4000",
      "taf": "TAF HEGN 201100Z 2012/2118 35018G28KT 6000 NSC"
    },
    {
      "icao": "HEMA",
      "alert": "OK",
      "vis_m": 9999,
      "fzfg": false,
      "metar_trigger": false,
      "taf_trigger": false,
      "metar": "METAR HEMA 201200Z 01015KT CAVOK 28/13 Q1009 NOSIG",
      "taf": "TAF HEMA 201100Z 2012/2118 36018G28KT CAVOK"
    },
    {
      "icao": "HESH",
      "alert": "OK",
      "vis_m": 9999,
      "fzfg": false,
      "metar_trigger": false,
      "taf_trigger": false,
      "metar": "METAR HESH 201200Z 09006KT CAVOK 30/12 Q1008 NOSIG",
      "taf": "TAF HESH 201100Z 2012/2118 02014KT CAVOK"
    },
    {
      "icao": "HESX",
      "alert": "OK",
      "vis_m": 9999,
      "fzfg": false,
      "metar_trigger": false,
      "taf_trigger": false,
      "metar": "METAR HESX 201200Z 28010KT CAVOK 24/04 Q1013 NOSIG",
      "taf": "TAF HESX 201100Z 2012/2118 32015KT CAVOK"
    },
    {
      "icao": "LATI",
      "alert": "OK",
      "vis_m": 9999,
      "fzfg": false,
      "metar_trigger": false,
      "taf_trigger": false,
      "metar": "METAR LATI 201250Z 27006KT 230V340 9999 FEW042 SCT088 21/11 Q1014 NOSIG",
      "taf": "TAF LATI 201100Z 2012/2112 25014KT 9999 FEW040 BKN080 TX23/2012Z TN13/2104Z"
    },
    {
      "icao": "LBPD",
      "alert": "OK",
      "vis_m": 9999,
      "fzfg": false,
      "metar_trigger": false,
      "taf_trigger": false,
      "metar": "METAR LBPD 201230Z AUTO 15005KT 120V240 9999 BKN110/// 22/06 Q1010 NOSIG",
      "taf": "TAF LBPD 201100Z 2012/2112 23010KT 9999 SCT060"
    },
    {
      "icao": "LBSF",
      "alert": "OK",
      "vis_m": 9999,
      "fzfg": false,
      "metar_trigger": false,
      "taf_trigger": false,
      "metar": "METAR LBSF 201230Z 30009KT 270V330 9999 SCT080 19/05 Q1011 NOSIG",
      "taf": "TAF LBSF 201100Z 2012/2112 32014KT 9999 SCT050"
    },
    {
      "icao": "LBWN",
      "alert": "OK",
      "vis_m": 9999,
      "fzfg": false,
      "metar_trigger": false,
      "taf_trigger": false,
      "metar": "METAR LBWN 201230Z 13015KT 9999 FEW033CB SCT045 18/05 Q1010 TEMPO TSRA SCT030CB",
      "taf": "TAF LBWN 201100Z 2012/2112 14014KT 9999 SCT040 BKN060"
    },
    {
      "icao": "LCLK",
      "alert": "OK",
      "vis_m": 9999,
      "fzfg": false,
      "metar_trigger": false,
      "taf_trigger": false,
      "metar": "METAR LCLK 201230Z 18013KT 9999 FEW030 SCT045 23/15 Q1009 NOSIG",
      "taf": "TAF LCLK 201130Z 2012/2112 20014KT 9999 FEW030"
    },
    {
      "icao": "LCPH",
      "alert": "OK",
      "vis_m": 9999,
      "fzfg": false,
      "metar_trigger": false,
      "taf_trigger": false,
      "metar": "METAR LCPH 201230Z 31015KT 9999 FEW025 20/12 Q1011 NOSIG",
      "taf": "TAF LCPH 201130Z 2012/2112 29015KT 9999 FEW025"
    },
    {
      "icao": "LEAL",
      "alert": "OK",
      "vis_m": 9999,
      "fzfg": false,
      "metar_trigger": false,
      "taf_trigger": false,
      "metar": "METAR LEAL 201230Z VRB05KT CAVOK 27/08 Q1013 NOSIG",
      "taf": "TAF LEAL 201100Z 2012/2112 VRB04KT CAVOK TX25/2012Z TN12/2106Z"
    },
    {
      "icao": "LEBB",
      "alert": "OK",
      "vis_m": 9999,
      "fzfg": false,
      "metar_trigger": false,
      "taf_trigger": false,
      "metar": "METAR LEBB 201230Z 27010KT 230V300 CAVOK 20/17 Q1012 NOSIG",
      "taf": "TAF LEBB 201100Z 2012/2112 31009KT 9999 FEW010 TX29/2112Z TN12/2106Z"
    },
    {
      "icao": "LEBL",
      "alert": "OK",
      "vis_m": 9999,
      "fzfg": false,
      "metar_trigger": false,
      "taf_trigger": false,
      "metar": "METAR LEBL 201230Z 21015KT 9999 FEW040 20/16 Q1013 NOSIG",
      "taf": ""
    },
    {
      "icao": "LECH",
      "alert": "OK",
      "vis_m": 9999,
      "fzfg": false,
      "metar_trigger": false,
      "taf_trigger": false,
      "metar": "METAR LECH 201230Z AUTO 10009KT 050V160 CAVOK 24/12 Q1013",
      "taf": ""
    },
    {
      "icao": "LEMD",
      "alert": "OK",
      "vis_m": 9999,
      "fzfg": false,
      "metar_trigger": false,
      "taf_trigger": false,
      "metar": "METAR LEMD 201230Z 20005KT CAVOK 26/06 Q1013 NOSIG",
      "taf": "TAF LEMD 201100Z 2012/2118 VRB04KT CAVOK TX29/2016Z TN11/2106Z"
    },
    {
      "icao": "LEMG",
      "alert": "OK",
      "vis_m": 9999,
      "fzfg": false,
      "metar_trigger": false,
      "taf_trigger": false,
      "metar": "METAR LEMG 201230Z 13007KT 090V170 CAVOK 22/07 Q1013 NOSIG",
      "taf": "TAF LEMG 201100Z 2012/2112 13010KT CAVOK TX25/2014Z TN11/2106Z"
    },
    {
      "icao": "LEVC",
      "alert": "OK",
      "vis_m": 9999,
      "fzfg": false,
      "metar_trigger": false,
      "taf_trigger": false,
      "metar": "METAR LEVC 201230Z 12010KT 080V180 CAVOK 25/11 Q1012 NOSIG",
      "taf": "TAF LEVC 201100Z 2012/2112 VRB04KT CAVOK TX29/2012Z TN13/2106Z"
    },
    {
      "icao": "LEXJ",
      "alert": "OK",
      "vis_m": 8000,
      "fzfg": false,
      "metar_trigger": false,
      "taf_trigger": false,
      "metar": "METAR LEXJ 201230Z 05004KT 340V110 8000 NSC 17/14 Q1012",
      "taf": "TAF LEXJ 200800Z 2009/2109 06009KT 9999 SCT005 TX19/2013Z TN13/2105Z"
    },
    {
      "icao": "LEZG",
      "alert": "OK",
      "vis_m": 9999,
      "fzfg": false,
      "metar_trigger": false,
      "taf_trigger": false,
      "metar": "METAR LEZG 201230Z 35002KT CAVOK 25/11 Q1012 NOSIG",
      "taf": "TAF LEZG 201100Z 2012/2112 10006KT CAVOK TX31/2015Z TN14/2106Z"
    },
    {
      "icao": "LEZL",
      "alert": "OK",
      "vis_m": 9999,
      "fzfg": false,
      "metar_trigger": false,
      "taf_trigger": false,
      "metar": "METAR LEZL 201230Z 10005KT 020V170 CAVOK 30/08 Q1011 NOSIG",
      "taf": "TAF LEZL 200800Z 2009/2109 06005KT CAVOK TX31/2015Z TN14/2106Z"
    },
    {
      "icao": "LFBD",
      "alert": "OK",
      "vis_m": 9999,
      "fzfg": false,
      "metar_trigger": false,
      "taf_trigger": false,
      "metar": "METAR LFBD 201230Z AUTO VRB03KT CAVOK 24/09 Q1013 NOSIG",
      "taf": "TAF LFBD 201100Z 2012/2118 03010KT CAVOK TX28/2115Z TN12/2105Z"
    },
    {
      "icao": "LFLL",
      "alert": "OK",
      "vis_m": 9999,
      "fzfg": false,
      "metar_trigger": false,
      "taf_trigger": false,
      "metar": "METAR LFLL 201230Z 33008KT 300V010 CAVOK 18/03 Q1015 NOSIG",
      "taf": "TAF LFLL 201100Z 2012/2118 35008KT CAVOK"
    },
    {
      "icao": "LFLS",
      "alert": "OK",
      "vis_m": 9999,
      "fzfg": false,
      "metar_trigger": false,
      "taf_trigger": false,
      "metar": "METAR LFLS 201230Z AUTO 33004KT 260V020 9999 // NSC 17/06 Q1015",
      "taf": "TAF LFLS 200800Z 2009/2109 VRB03KT CAVOK"
    },
    {
      "icao": "LFMN",
      "alert": "OK",
      "vis_m": 9999,
      "fzfg": false,
      "metar_trigger": false,
      "taf_trigger": false,
      "metar": "METAR LFMN 201230Z 18007KT 9999 BKN033 19/14 Q1012 NOSIG",
      "taf": "TAF LFMN 200800Z 2009/2115 17005KT 9999 BKN030"
    },
    {
      "icao": "LFOB",
      "alert": "OK",
      "vis_m": 9999,
      "fzfg": false,
      "metar_trigger": false,
      "taf_trigger": false,
      "metar": "METAR LFOB 201230Z AUTO 06010KT 330V110 9999 BKN047 13/03 Q1021 NOSIG",
      "taf": "TAF LFOB 201100Z 2012/2112 04012KT 9999 SCT045"
    },
    {
      "icao": "LFPO",
      "alert": "OK",
      "vis_m": 9999,
      "fzfg": false,
      "metar_trigger": false,
      "taf_trigger": false,
      "metar": "METAR LFPO 201230Z 05010KT 340V080 9999 FEW043 SCT240 14/03 Q1019 NOSIG",
      "taf": "TAF LFPO 201100Z 2012/2118 03010KT CAVOK"
    },
    {
      "icao": "LFSB",
      "alert": "OK",
      "vis_m": 9999,
      "fzfg": false,
      "metar_trigger": false,
      "taf_trigger": false,
      "metar": "METAR LFSB 201230Z AUTO 03004KT 300V080 CAVOK 16/02 Q1016 NOSIG",
      "taf": "TAF LFSB 201100Z 2012/2112 36007KT 9999 FEW050"
    },
    {
      "icao": "LGAV",
      "alert": "OK",
      "vis_m": 9999,
      "fzfg": false,
      "metar_trigger": false,
      "taf_trigger": false,
      "metar": "METAR LGAV 201250Z 24012KT 9999 FEW030 22/10 Q1013 NOSIG",
      "taf": "TAF LGAV 201100Z 2012/2112 VRB05KT 9999 FEW025"
    },
    {
      "icao": "LGTS",
      "alert": "OK",
      "vis_m": 9999,
      "fzfg": false,
      "metar_trigger": false,
      "taf_trigger": false,
      "metar": "METAR LGTS 201250Z 20009KT 9999 FEW025 22/13 Q1012 NOSIG",
      "taf": "TAF LGTS 201100Z 2012/2112 VRB03KT 9999 FEW030"
    },
    {
      "icao": "LHBP",
      "alert": "OK",
      "vis_m": 9999,
      "fzfg": false,
      "metar_trigger": false,
      "taf_trigger": false,
      "metar": "METAR LHBP 201230Z 30020KT 9999 BLDU NSC 16/01 Q1013 TEMPO CAVOK",
      "taf": "TAF LHBP 201115Z 2012/2112 31017G27KT CAVOK"
    },
    {
      "icao": "LHDC",
      "alert": "OK",
      "vis_m": 9999,
      "fzfg": false,
      "metar_trigger": false,
      "taf_trigger": false,
      "metar": "METAR LHDC 201215Z AUTO 05011KT 020V080 9999 BKN048 //////TCU 15/07 Q1010 NOSIG",
      "taf": "TAF LHDC 201115Z 2012/2021 VRB03KT CAVOK"
    },
    {
      "icao": "LIBD",
      "alert": "OK",
      "vis_m": 9999,
      "fzfg": false,
      "metar_trigger": false,
      "taf_trigger": false,
      "metar": "METAR LIBD 201250Z 05005KT 360V090 CAVOK 21/11 Q1013",
      "taf": "TAF LIBD 201100Z 2012/2112 VRB06KT CAVOK"
    },
    {
      "icao": "LIBG",
      "alert": "OK",
      "vis_m": 9999,
      "fzfg": false,
      "metar_trigger": false,
      "taf_trigger": false,
      "metar": "METAR LIBG 201150Z 23006KT 180V270 9999 FEW020 24/12 Q1013",
      "taf": "TAF LIBG 201100Z 2012/2021 VRB05KT 8000 FEW050"
    },
    {
      "icao": "LIBP",
      "alert": "OK",
      "vis_m": 9999,
      "fzfg": false,
      "metar_trigger": false,
      "taf_trigger": false,
      "metar": "METAR LIBP 201250Z AUTO 04011KT 9999 SCT130/// 21/12 Q1012",
      "taf": "TAF LIBP 201100Z 2012/2112 VRB06KT 9999 FEW040"
    },
    {
      "icao": "LIBR",
      "alert": "OK",
      "vis_m": 9999,
      "fzfg": false,
      "metar_trigger": false,
      "taf_trigger": false,
      "metar": "METAR LIBR 201250Z 07005KT CAVOK 19/16 Q1013",
      "taf": "TAF LIBR 201100Z 2012/2112 20014KT 9999 FEW040"
    },
    {
      "icao": "LICA",
      "alert": "OK",
      "vis_m": 9999,
      "fzfg": false,
      "metar_trigger": false,
      "taf_trigger": false,
      "metar": "METAR LICA 201250Z AUTO 25012KT 9999 NCD 20/16 Q1016",
      "taf": "TAF LICA 201100Z 2012/2112 25012KT 9999 FEW012"
    },
    {
      "icao": "LICC",
      "alert": "OK",
      "vis_m": 9999,
      "fzfg": false,
      "metar_trigger": false,
      "taf_trigger": false,
      "metar": "METAR LICC 201250Z 07010KT 9999 FEW025 21/16 Q1015",
      "taf": "TAF LICC 201100Z 2012/2112 10010KT CAVOK"
    },
    {
      "icao": "LICJ",
      "alert": "OK",
      "vis_m": 9999,
      "fzfg": false,
      "metar_trigger": false,
      "taf_trigger": false,
      "metar": "METAR LICJ 201250Z 02008KT CAVOK 19/16 Q1015",
      "taf": "TAF LICJ 201100Z 2012/2112 02010KT CAVOK"
    },
    {
      "icao": "LIMC",
      "alert": "OK",
      "vis_m": 9999,
      "fzfg": false,
      "metar_trigger": false,
      "taf_trigger": false,
      "metar": "METAR LIMC 201250Z 13006KT 050V180 9999 SCT040 21/11 Q1011 NOSIG",
      "taf": "TAF LIMC 201100Z 2012/2118 VRB06KT 9999 SCT025 SCT070"
    },
    {
      "icao": "LIME",
      "alert": "OK",
      "vis_m": 9999,
      "fzfg": false,
      "metar_trigger": false,
      "taf_trigger": false,
      "metar": "METAR LIME 201250Z 19004KT 130V280 9999 FEW030 20/12 Q1012 NOSIG",
      "taf": "TAF LIME 201100Z 2012/2112 VRB05KT 9999 FEW040"
    },
    {
      "icao": "LIMF",
      "alert": "OK",
      "vis_m": 9999,
      "fzfg": false,
      "metar_trigger": false,
      "taf_trigger": false,
      "metar": "METAR LIMF 201250Z VRB03KT 9999 FEW035 21/10 Q1011",
      "taf": "TAF LIMF 201100Z 2012/2112 VRB05KT CAVOK"
    },
    {
      "icao": "LIMJ",
      "alert": "OK",
      "vis_m": 9999,
      "fzfg": false,
      "metar_trigger": false,
      "taf_trigger": false,
      "metar": "METAR LIMJ 201250Z 11012KT 9999 BKN022 BKN050 19/14 Q1012",
      "taf": "TAF LIMJ 201100Z 2012/2112 14010KT 9999 FEW010 BKN015"
    },
    {
      "icao": "LIPE",
      "alert": "OK",
      "vis_m": 9999,
      "fzfg": false,
      "metar_trigger": false,
      "taf_trigger": false,
      "metar": "METAR LIPE 201250Z VRB02KT 9999 FEW045 21/13 Q1011",
      "taf": "TAF LIPE 201100Z 2012/2112 VRB05KT 9999 SCT030"
    },
    {
      "icao": "LIPH",
      "alert": "OK",
      "vis_m": 9999,
      "fzfg": false,
      "metar_trigger": false,
      "taf_trigger": false,
      "metar": "METAR LIPH 201250Z 14005KT 100V200 9999 SCT040 21/12 Q1011",
      "taf": "TAF LIPH 201100Z 2012/2112 VRB06KT 9999 SCT035"
    },
    {
      "icao": "LIPQ",
      "alert": "OK",
      "vis_m": 9999,
      "fzfg": false,
      "metar_trigger": false,
      "taf_trigger": false,
      "metar": "METAR LIPQ 201250Z AUTO 23005KT 190V320 9999 SCT064/// BKN082/// 20/10 Q1012",
      "taf": "TAF LIPQ 201100Z 2012/2112 VRB05KT 9999 SCT030"
    },
    {
      "icao": "LIPR",
      "alert": "OK",
      "vis_m": 9999,
      "fzfg": false,
      "metar_trigger": false,
      "taf_trigger": false,
      "metar": "METAR LIPR 201250Z 10008KT 9999 FEW060 20/12 Q1011",
      "taf": "TAF LIPR 201100Z 2012/2112 VRB06KT 9999 SCT040"
    },
    {
      "icao": "LIPX",
      "alert": "OK",
      "vis_m": 9999,
      "fzfg": false,
      "metar_trigger": false,
      "taf_trigger": false,
      "metar": "METAR LIPX 201250Z 12007KT 070V170 9999 FEW035 21/12 Q1011",
      "taf": "TAF LIPX 201100Z 2012/2112 10007KT 9999 FEW040"
    },
    {
      "icao": "LIPY",
      "alert": "OK",
      "vis_m": 9999,
      "fzfg": false,
      "metar_trigger": false,
      "taf_trigger": false,
      "metar": "METAR LIPY 201250Z AUTO 13006KT 090V170 9999 BKN075/// 23/12 Q1011",
      "taf": "TAF LIPY 201100Z 2012/2112 VRB06KT 8000 FEW040"
    },
    {
      "icao": "LIPZ",
      "alert": "OK",
      "vis_m": 9999,
      "fzfg": false,
      "metar_trigger": false,
      "taf_trigger": false,
      "metar": "METAR LIPZ 201250Z 16007KT CAVOK 18/13 Q1012 NOSIG",
      "taf": "TAF LIPZ 201100Z 2012/2118 12012KT 9999 FEW050"
    },
    {
      "icao": "LIRF",
      "alert": "OK",
      "vis_m": 9999,
      "fzfg": false,
      "metar_trigger": false,
      "taf_trigger": false,
      "metar": "METAR LIRF 201250Z 18009KT 140V210 CAVOK 21/14 Q1014 NOSIG",
      "taf": "TAF LIRF 201100Z 2012/2118 17010KT 9999 FEW015"
    },
    {
      "icao": "LIRN",
      "alert": "OK",
      "vis_m": 9999,
      "fzfg": false,
      "metar_trigger": false,
      "taf_trigger": false,
      "metar": "METAR LIRN 201250Z 20012KT 9999 FEW020 SCT080 19/13 Q1015 NOSIG",
      "taf": "TAF LIRN 201100Z 2012/2112 20010KT 9999 FEW015"
    },
    {
      "icao": "LIRP",
      "alert": "OK",
      "vis_m": 9999,
      "fzfg": false,
      "metar_trigger": false,
      "taf_trigger": false,
      "metar": "METAR LIRP 201245Z 26011KT 9999 FEW035 SCT040 21/11 Q1013 NOSIG",
      "taf": "TAF LIRP 201100Z 2012/2112 25010KT 9999 SCT030"
    },
    {
      "icao": "LIRZ",
      "alert": "OK",
      "vis_m": 9999,
      "fzfg": false,
      "metar_trigger": false,
      "taf_trigger": false,
      "metar": "METAR LIRZ 201250Z AUTO 21009KT 180V240 9999 FEW057/// 21/12 Q1012",
      "taf": "TAF LIRZ 201100Z 2012/2112 21012KT 9999 SCT060"
    },
    {
      "icao": "LJLJ",
      "alert": "OK",
      "vis_m": 9999,
      "fzfg": false,
      "metar_trigger": false,
      "taf_trigger": false,
      "metar": "METAR LJLJ 201230Z 11010KT 9999 SCT017 FEW035TCU BKN045 14/10 Q1013 NOSIG",
      "taf": "TAF LJLJ 201100Z 2012/2112 11007KT 9999 FEW020 BKN040"
    },
    {
      "icao": "LKMT",
      "alert": "OK",
      "vis_m": 9999,
      "fzfg": false,
      "metar_trigger": false,
      "taf_trigger": false,
      "metar": "METAR LKMT 201230Z 32005KT 250V030 9999 BKN044 12/03 Q1013 NOSIG",
      "taf": "TAF LKMT 201100Z 2012/2112 02008KT 9999 BKN040"
    },
    {
      "icao": "LKPR",
      "alert": "OK",
      "vis_m": 9999,
      "fzfg": false,
      "metar_trigger": false,
      "taf_trigger": false,
      "metar": "METAR LKPR 201230Z 28014KT 9999 -RA FEW018 BKN030 07/04 Q1015 NOSIG",
      "taf": "TAF LKPR 201100Z 2012/2118 28012KT 9999 SCT020 BKN040"
    },
    {
      "icao": "LLBG",
      "alert": "OK",
      "vis_m": 9999,
      "fzfg": false,
      "metar_trigger": false,
      "taf_trigger": false,
      "metar": "METAR LLBG 201250Z 28012KT 250V320 9999 SCT036 21/10 Q1012 NOSIG",
      "taf": "TAF LLBG 201107Z 2012/2112 26013KT 9999 SCT040 TX21/2012Z TN14/2103Z"
    },
    {
      "icao": "LMML",
      "alert": "OK",
      "vis_m": 9999,
      "fzfg": false,
      "metar_trigger": false,
      "taf_trigger": false,
      "metar": "METAR LMML 201245Z 22009KT 190V250 9999 FEW020 20/14 Q1016 NOSIG",
      "taf": "TAF LMML 201100Z 2012/2112 24007KT 9999 FEW015"
    },
    {
      "icao": "LOWW",
      "alert": "OK",
      "vis_m": 9999,
      "fzfg": false,
      "metar_trigger": false,
      "taf_trigger": false,
      "metar": "METAR LOWW 201250Z 01008KT 340V050 CAVOK 14/04 Q1014 NOSIG",
      "taf": "TAF LOWW 201115Z 2012/2118 33011KT 9999 SCT050 TX16/2014Z TN07/2104Z"
    },
    {
      "icao": "LPFR",
      "alert": "OK",
      "vis_m": 9999,
      "fzfg": false,
      "metar_trigger": false,
      "taf_trigger": false,
      "metar": "METAR LPFR 201230Z 11014KT CAVOK 23/11 Q1011",
      "taf": "TAF LPFR 201100Z 2012/2112 11013KT CAVOK"
    },
    {
      "icao": "LPMA",
      "alert": "OK",
      "vis_m": 9999,
      "fzfg": false,
      "metar_trigger": false,
      "taf_trigger": false,
      "metar": "METAR LPMA 201230Z 20009KT 160V220 9999 FEW013 22/16 Q1003",
      "taf": ""
    },
    {
      "icao": "LPPR",
      "alert": "OK",
      "vis_m": 9999,
      "fzfg": false,
      "metar_trigger": false,
      "taf_trigger": false,
      "metar": "METAR LPPR 201230Z 28004KT 240V320 CAVOK 18/11 Q1012",
      "taf": "TAF LPPR 201100Z 2012/2112 30007KT CAVOK"
    },
    {
      "icao": "LPPS",
      "alert": "OK",
      "vis_m": 9999,
      "fzfg": false,
      "metar_trigger": false,
      "taf_trigger": false,
      "metar": "METAR LPPS 201230Z 26012KT 9999 FEW010 19/15 Q1004",
      "taf": "TAF LPPS 201100Z 2012/2118 27013KT 9999 SCT015"
    },
    {
      "icao": "LPPT",
      "alert": "OK",
      "vis_m": 9999,
      "fzfg": false,
      "metar_trigger": false,
      "taf_trigger": false,
      "metar": "METAR LPPT 201230Z 11004G17KT 070V160 CAVOK 24/13 Q1011",
      "taf": "TAF LPPT 201100Z 2012/2118 10005KT CAVOK"
    },
    {
      "icao": "LQBK",
      "alert": "OK",
      "vis_m": 9999,
      "fzfg": false,
      "metar_trigger": false,
      "taf_trigger": false,
      "metar": "METAR LQBK 201230Z 05009KT 010V090 9999 SCT037 16/07 Q1014 NOSIG",
      "taf": "TAF LQBK 201100Z 2012/2112 30005KT 9999 FEW020 SCT045 TX16/2014Z TN08/2104Z"
    },
    {
      "icao": "LQSA",
      "alert": "OK",
      "vis_m": 9999,
      "fzfg": false,
      "metar_trigger": false,
      "taf_trigger": false,
      "metar": "METAR LQSA 201230Z VRB04KT 9999 SCT055 17/05 Q1013 NOSIG",
      "taf": "TAF LQSA 201100Z 2012/2112 35006KT 9999 SCT055 TX18/2014Z TN08/2105Z"
    },
    {
      "icao": "LQTZ",
      "alert": "OK",
      "vis_m": 9999,
      "fzfg": false,
      "metar_trigger": false,
      "taf_trigger": false,
      "metar": "METAR LQTZ 201230Z 04005KT 340V090 9999 SCT060 16/09 Q1015",
      "taf": "TAF LQTZ 201100Z 2012/2112 36007KT 9999 BKN045 TX16/2013Z TN06/2104Z"
    },
    {
      "icao": "LRBC",
      "alert": "OK",
      "vis_m": 9999,
      "fzfg": false,
      "metar_trigger": false,
      "taf_trigger": false,
      "metar": "METAR LRBC 201230Z 04006KT 360V080 9999 SCT040 OVC060 17/08 Q1008",
      "taf": "TAF LRBC 201100Z 2012/2021 16008KT 9999 SCT035"
    },
    {
      "icao": "LRBS",
      "alert": "OK",
      "vis_m": 9999,
      "fzfg": false,
      "metar_trigger": false,
      "taf_trigger": false,
      "metar": "METAR LRBS 201230Z 26014KT 230V290 CAVOK 22/05 Q1008 NOSIG",
      "taf": "TAF LRBS 201100Z 2012/2112 24012KT CAVOK"
    },
    {
      "icao": "LRBV",
      "alert": "OK",
      "vis_m": 9999,
      "fzfg": false,
      "metar_trigger": false,
      "taf_trigger": false,
      "metar": "METAR LRBV 201230Z 30011KT 280V340 9999 -SHRA FEW034 SCT045CB BKN051 12/07 Q1009",
      "taf": "TAF LRBV 201100Z 2012/2021 30012KT CAVOK"
    },
    {
      "icao": "LRCL",
      "alert": "OK",
      "vis_m": 9999,
      "fzfg": false,
      "metar_trigger": false,
      "taf_trigger": false,
      "metar": "METAR LRCL 201230Z 31009KT 280V340 9999 SCT026 OVC058 14/08 Q1010",
      "taf": "TAF LRCL 201100Z 2012/2021 VRB03KT CAVOK"
    },
    {
      "icao": "LRCV",
      "alert": "OK",
      "vis_m": 9999,
      "fzfg": false,
      "metar_trigger": false,
      "taf_trigger": false,
      "metar": "METAR LRCV 201230Z 28018KT 9999 FEW035 17/09 Q1010",
      "taf": "TAF LRCV 201100Z 2012/2021 28016KT CAVOK"
    },
    {
      "icao": "LRIA",
      "alert": "OK",
      "vis_m": 9999,
      "fzfg": false,
      "metar_trigger": false,
      "taf_trigger": false,
      "metar": "METAR LRIA 201230Z 02006KT 350V050 CAVOK 15/07 Q1008",
      "taf": "TAF LRIA 201100Z 2012/2021 VRB04KT 9999 SCT035"
    },
    {
      "icao": "LROP",
      "alert": "OK",
      "vis_m": 9999,
      "fzfg": false,
      "metar_trigger": false,
      "taf_trigger": false,
      "metar": "METAR LROP 201230Z 25017KT 210V270 CAVOK 24/01 Q1008 NOSIG",
      "taf": "TAF LROP 201100Z 2012/2112 24012KT CAVOK"
    },
    {
      "icao": "LRSB",
      "alert": "OK",
      "vis_m": 9999,
      "fzfg": false,
      "metar_trigger": false,
      "taf_trigger": false,
      "metar": "METAR LRSB 201230Z 30014KT 9999 -SHRA FEW035CB SCT040 OVC050 12/07 Q1010 NOSIG",
      "taf": "TAF LRSB 201100Z 2012/2112 31013KT CAVOK"
    },
    {
      "icao": "LRSM",
      "alert": "OK",
      "vis_m": 9999,
      "fzfg": false,
      "metar_trigger": false,
      "taf_trigger": false,
      "metar": "METAR LRSM 201230Z 35008KT 9999 FEW035CB BKN046 15/09 Q1009",
      "taf": "TAF LRSM 201100Z 2012/2021 31010KT 9999 SCT020 BKN035"
    },
    {
      "icao": "LRSV",
      "alert": "OK",
      "vis_m": 8000,
      "fzfg": false,
      "metar_trigger": false,
      "taf_trigger": false,
      "metar": "METAR LRSV 201230Z 01005KT 8000 BKN038 10/09 Q1009",
      "taf": "TAF LRSV 201100Z 2012/2021 VRB04KT 9999 SCT045"
    },
    {
      "icao": "LRTM",
      "alert": "OK",
      "vis_m": 9999,
      "fzfg": false,
      "metar_trigger": false,
      "taf_trigger": false,
      "metar": "METAR LRTM 201230Z 27005KT 240V310 9999 -RA FEW025 BKN045 14/08 Q1010",
      "taf": "TAF LRTM 201100Z 2012/2021 VRB04KT CAVOK"
    },
    {
      "icao": "LRTR",
      "alert": "OK",
      "vis_m": 9999,
      "fzfg": false,
      "metar_trigger": false,
      "taf_trigger": false,
      "metar": "METAR LRTR 201230Z 27012KT 9999 SCT044 17/05 Q1013",
      "taf": "TAF LRTR 201100Z 2012/2112 29010KT CAVOK"
    },
    {
      "icao": "LTAC",
      "alert": "OK",
      "vis_m": 9999,
      "fzfg": false,
      "metar_trigger": false,
      "taf_trigger": false,
      "metar": "METAR LTAC 201250Z VRB03KT 9999 SCT040 14/M01 Q1013 NOSIG",
      "taf": "TAF LTAC 201040Z 2012/2112 VRB02KT 9999 SCT040"
    },
    {
      "icao": "LTFM",
      "alert": "OK",
      "vis_m": 9999,
      "fzfg": false,
      "metar_trigger": false,
      "taf_trigger": false,
      "metar": "METAR LTFM 201250Z 21008KT 160V250 CAVOK 19/02 Q1013 NOSIG",
      "taf": "TAF LTFM 201040Z 2012/2118 VRB02KT CAVOK"
    },
    {
      "icao": "LUKK",
      "alert": "OK",
      "vis_m": 9999,
      "fzfg": false,
      "metar_trigger": false,
      "taf_trigger": false,
      "metar": "METAR LUKK 201230Z 36013KT 9999 FEW044CB SCT074 BKN096 16/08 Q1007 TEMPO VRB18G34KT 1500 TSRA BKN010 BKN020CB",
      "taf": "TAF LUKK 201124Z 2012/2112 VRB06KT 9999 SCT045"
    },
    {
      "icao": "LWOH",
      "alert": "OK",
      "vis_m": 9999,
      "fzfg": false,
      "metar_trigger": false,
      "taf_trigger": false,
      "metar": "METAR LWOH 201250Z 25008KT 150V310 9999 FEW040TCU SCT050 16/05 Q1014",
      "taf": "TAF LWOH 201135Z 2012/2112 19012KT 9999 SCT045"
    },
    {
      "icao": "LWSK",
      "alert": "OK",
      "vis_m": 9999,
      "fzfg": false,
      "metar_trigger": false,
      "taf_trigger": false,
      "metar": "METAR LWSK 201250Z 31004KT 270V360 9999 FEW050 SCT060 BKN090 23/06 Q1011 NOSIG",
      "taf": "TAF LWSK 201135Z 2012/2112 24005KT 9999 SCT050"
    },
    {
      "icao": "LYBE",
      "alert": "OK",
      "vis_m": 9999,
      "fzfg": false,
      "metar_trigger": false,
      "taf_trigger": false,
      "metar": "METAR LYBE 201230Z 27010KT 9999 FEW030 SCT040 17/09 Q1014 NOSIG",
      "taf": "TAF LYBE 201100Z 2012/2112 29009KT 9999 SCT035 TX18/2013Z TN08/2104Z"
    },
    {
      "icao": "LYNI",
      "alert": "OK",
      "vis_m": 9999,
      "fzfg": false,
      "metar_trigger": false,
      "taf_trigger": false,
      "metar": "METAR LYNI 201230Z 33014KT 9999 FEW030 BKN087 15/09 Q1014 NOSIG",
      "taf": "TAF LYNI 201100Z 2012/2112 32012KT 9999 SCT040 TX16/2012Z TN05/2104Z"
    },
    {
      "icao": "LYPG",
      "alert": "OK",
      "vis_m": 9999,
      "fzfg": false,
      "metar_trigger": false,
      "taf_trigger": false,
      "metar": "METAR LYPG 201230Z VRB02KT 9999 FEW005 SCT030 BKN070 16/13 Q1015 NOSIG",
      "taf": "TAF LYPG 201100Z 2012/2112 15008KT 9999 SCT033 BKN080 TX18/2013Z TN12/2104Z"
    },
    {
      "icao": "LZIB",
      "alert": "OK",
      "vis_m": 9999,
      "fzfg": false,
      "metar_trigger": false,
      "taf_trigger": false,
      "metar": "METAR LZIB 201230Z 28010KT 250V310 CAVOK 14/03 Q1014 NOSIG",
      "taf": "TAF LZIB 201115Z 2012/2112 31013KT 9999 SCT030"
    },
    {
      "icao": "LZKZ",
      "alert": "OK",
      "vis_m": 9999,
      "fzfg": false,
      "metar_trigger": false,
      "taf_trigger": false,
      "metar": "METAR LZKZ 201230Z 36013KT 9999 -RA FEW040 12/04 Q1011 NOSIG",
      "taf": "TAF LZKZ 201115Z 2012/2112 02015KT CAVOK"
    },
    {
      "icao": "LZTT",
      "alert": "OK",
      "vis_m": 9999,
      "fzfg": false,
      "metar_trigger": false,
      "taf_trigger": false,
      "metar": "METAR LZTT 201230Z 26018KT 9999 SCT053 12/01 Q1010 NOSIG",
      "taf": "TAF LZTT 201115Z 2012/2112 27010KT 9999 SCT035"
    },
    {
      "icao": "OEJN",
      "alert": "OK",
      "vis_m": 9999,
      "fzfg": false,
      "metar_trigger": false,
      "taf_trigger": false,
      "metar": "METAR OEJN 201200Z 29007KT CAVOK 33/19 Q1005 NOSIG",
      "taf": "TAF OEJN 201100Z 2012/2118 30012KT 7000 FEW040"
    },
    {
      "icao": "OEMA",
      "alert": "OK",
      "vis_m": 9999,
      "fzfg": false,
      "metar_trigger": false,
      "taf_trigger": false,
      "metar": "METAR OEMA 201200Z 23013KT 9999 SCT040 34/11 Q1008 NOSIG",
      "taf": "TAF OEMA 201100Z 2012/2118 26015KT 7000 SCT045"
    },
    {
      "icao": "OJAI",
      "alert": "OK",
      "vis_m": 4000,
      "fzfg": false,
      "metar_trigger": false,
      "taf_trigger": false,
      "metar": "METAR OJAI 201200Z 25015KT 4000 BLDU SCT030 19/06 Q1013 NOSIG",
      "taf": "TAF OJAI 201100Z 2012/2118 29014KT 4000 HZ SCT030"
    },
    {
      "icao": "OMAA",
      "alert": "OK",
      "vis_m": null,
      "fzfg": false,
      "metar_trigger": false,
      "taf_trigger": false,
      "metar": "",
      "taf": ""
    },
    {
      "icao": "OMDB",
      "alert": "OK",
      "vis_m": null,
      "fzfg": false,
      "metar_trigger": false,
      "taf_trigger": false,
      "metar": "",
      "taf": ""
    },
    {
      "icao": "UAAA",
      "alert": "OK",
      "vis_m": 9999,
      "fzfg": false,
      "metar_trigger": false,
      "taf_trigger": false,
      "metar": "METAR UAAA 201230Z 03005MPS 9999 SCT050CB 17/03 Q1016 NOSIG",
      "taf": "TAF UAAA 201104Z 2012/2112 19003MPS 9999 FEW050 SCT100 TX20/2109Z TN03/2101Z"
    },
    {
      "icao": "UBBB",
      "alert": "OK",
      "vis_m": 9999,
      "fzfg": false,
      "metar_trigger": false,
      "taf_trigger": false,
      "metar": "METAR UBBB 201230Z 33020KT 9999 FEW052CB OVC052 13/08 Q1011 NOSIG",
      "taf": "TAF UBBB 201053Z 2012/2112 33018KT 9999 FEW040CB BKN040 TX13/2012Z TN09/2100Z"
    },
    {
      "icao": "UDSG",
      "alert": "OK",
      "vis_m": 9999,
      "fzfg": false,
      "metar_trigger": false,
      "taf_trigger": false,
      "metar": "METAR UDSG 201230Z 35007KT 9999 BKN040CB 10/01 Q1010 NOSIG",
      "taf": "TAF UDSG 201058Z 2012/2112 03006KT 9999 BKN040"
    },
    {
      "icao": "UDYZ",
      "alert": "OK",
      "vis_m": 2000,
      "fzfg": false,
      "metar_trigger": false,
      "taf_trigger": false,
      "metar": "METAR UDYZ 201230Z 25021KT 2000 1200N TSRAGR OVC///CB 09/08 Q1009 NOSIG",
      "taf": "TAF UDYZ 201100Z 2012/2112 22006KT 9999 BKN040"
    },
    {
      "icao": "UGKO",
      "alert": "OK",
      "vis_m": 9999,
      "fzfg": false,
      "metar_trigger": false,
      "taf_trigger": false,
      "metar": "METAR UGKO 201230Z 30008KT 270V330 9999 SCT024 OVC035 OVC000 12/07 Q1015 NOSIG",
      "taf": "TAF UGKO 201100Z 2012/2112 26006KT 9999 SCT030 OVC050 TX19/2110Z TN07/2103Z"
    }
  ]
}