{
  "ts_utc": "2026-02-23T11:08:23Z",
  "threshold_m": 150,
  "source": "stations_override.txt (ICAO list) + aviationweather.gov (METAR/TAF raw)",
  "station_count": 159,
  "stations": [
    {
      "icao": "BIKF",
      "alert": "OK",
      "vis_m": 7000,
      "fzfg": false,
      "metar_trigger": false,
      "taf_trigger": false,
      "metar": "METAR BIKF 231100Z 18012KT 150V210 7000 -RA BR FEW009 BKN014CB BKN028 05/03 Q0993",
      "taf": "TAF BIKF 231031Z 2312/2412 17022KT 9999 -SHRA SCT015 BKN025 TX07/2314Z TN01/2406Z"
    },
    {
      "icao": "BKPR",
      "alert": "OK",
      "vis_m": 9999,
      "fzfg": false,
      "metar_trigger": false,
      "taf_trigger": false,
      "metar": "METAR BKPR 231100Z 15005KT 9999 BKN090 07/02 Q1020 NOSIG",
      "taf": ""
    },
    {
      "icao": "EBCI",
      "alert": "OK",
      "vis_m": 9999,
      "fzfg": false,
      "metar_trigger": false,
      "taf_trigger": false,
      "metar": "METAR EBCI 231050Z 24018KT 9999 BKN018 10/06 Q1018 NOSIG",
      "taf": "TAF EBCI 222310Z 2300/2406 24013KT 9999 SCT012 SCT025"
    },
    {
      "icao": "EDDB",
      "alert": "OK",
      "vis_m": 9999,
      "fzfg": false,
      "metar_trigger": false,
      "taf_trigger": false,
      "metar": "METAR EDDB 231050Z AUTO 26015KT 9999 SCT025 BKN029 BKN036 12/07 Q1010 TEMPO 25015G25KT",
      "taf": ""
    },
    {
      "icao": "EDDH",
      "alert": "OK",
      "vis_m": 9999,
      "fzfg": false,
      "metar_trigger": false,
      "taf_trigger": false,
      "metar": "METAR EDDH 231050Z AUTO 25010KT 230V290 9999 -SHRA BKN015 BKN025 BKN046 FEW///TCU 08/06 Q1008 TEMPO SHRA BKN013",
      "taf": ""
    },
    {
      "icao": "EDDK",
      "alert": "OK",
      "vis_m": 9999,
      "fzfg": false,
      "metar_trigger": false,
      "taf_trigger": false,
      "metar": "METAR EDDK 231050Z AUTO 25015KT 9999 SCT033 SCT040 BKN047 11/05 Q1016 TEMPO 27015G25KT",
      "taf": ""
    },
    {
      "icao": "EDDN",
      "alert": "OK",
      "vis_m": 9999,
      "fzfg": false,
      "metar_trigger": false,
      "taf_trigger": false,
      "metar": "METAR EDDN 231050Z AUTO 27013KT 9999 SHRA FEW009 BKN022 OVC037 FEW///TCU 10/07 Q1017 TEMPO 27015G25KT NSW",
      "taf": ""
    },
    {
      "icao": "EDDS",
      "alert": "OK",
      "vis_m": 9999,
      "fzfg": false,
      "metar_trigger": false,
      "taf_trigger": false,
      "metar": "METAR EDDS 231050Z AUTO 25009KT 200V280 9999 VCSH SCT022 SCT033 BKN049 FEW///TCU 11/07 Q1018 NOSIG",
      "taf": ""
    },
    {
      "icao": "EDFH",
      "alert": "OK",
      "vis_m": 9999,
      "fzfg": false,
      "metar_trigger": false,
      "taf_trigger": false,
      "metar": "METAR EDFH 231050Z 27017KT 240V300 9999 FEW013 BKN016 BKN031 08/05 Q1017",
      "taf": ""
    },
    {
      "icao": "EDJA",
      "alert": "OK",
      "vis_m": 9999,
      "fzfg": false,
      "metar_trigger": false,
      "taf_trigger": false,
      "metar": "METAR EDJA 231050Z 24013KT 9999 OVC015 08/06 Q1020",
      "taf": ""
    },
    {
      "icao": "EDLW",
      "alert": "OK",
      "vis_m": 9999,
      "fzfg": false,
      "metar_trigger": false,
      "taf_trigger": false,
      "metar": "METAR EDLW 231050Z 23015KT 9999 -RA FEW016 SCT018 BKN022 09/07 Q1013",
      "taf": "TAF EDLW 230500Z 2306/2406 24012KT 9999 BKN012"
    },
    {
      "icao": "EDNY",
      "alert": "OK",
      "vis_m": 9999,
      "fzfg": false,
      "metar_trigger": false,
      "taf_trigger": false,
      "metar": "METAR EDNY 231050Z 25013KT 9999 FEW025 BKN051 10/07 Q1022",
      "taf": "TAF EDNY 230800Z 2309/2318 23005KT 9999 BKN045"
    },
    {
      "icao": "EDSB",
      "alert": "OK",
      "vis_m": 9999,
      "fzfg": false,
      "metar_trigger": false,
      "taf_trigger": false,
      "metar": "METAR EDSB 231050Z 20016KT 9999 FEW035 SCT048 12/09 Q1020",
      "taf": ""
    },
    {
      "icao": "EETN",
      "alert": "OK",
      "vis_m": 9999,
      "fzfg": false,
      "metar_trigger": false,
      "taf_trigger": false,
      "metar": "METAR EETN 231050Z 13006KT 9999 FEW015 M05/M05 Q1008 NOSIG",
      "taf": ""
    },
    {
      "icao": "EFTU",
      "alert": "OK",
      "vis_m": 9999,
      "fzfg": false,
      "metar_trigger": false,
      "taf_trigger": false,
      "metar": "METAR EFTU 231050Z AUTO 12005KT 9999 OVC009 M04/M05 Q1007",
      "taf": "TAF EFTU 222328Z 2300/2324 10002KT CAVOK"
    },
    {
      "icao": "EGBB",
      "alert": "OK",
      "vis_m": 9999,
      "fzfg": false,
      "metar_trigger": false,
      "taf_trigger": false,
      "metar": "METAR EGBB 231050Z 26009KT 210V300 9999 BKN031 11/05 Q1013",
      "taf": "TAF EGBB 231056Z 2312/2412 26010KT 9999 SCT030"
    },
    {
      "icao": "EGGP",
      "alert": "OK",
      "vis_m": 9999,
      "fzfg": false,
      "metar_trigger": false,
      "taf_trigger": false,
      "metar": "METAR EGGP 231050Z 24013KT 9999 SCT040 10/05 Q1011",
      "taf": "TAF EGGP 231100Z 2312/2412 25013KT 9999 FEW030"
    },
    {
      "icao": "EGGW",
      "alert": "OK",
      "vis_m": 9999,
      "fzfg": false,
      "metar_trigger": false,
      "taf_trigger": false,
      "metar": "METAR EGGW 231050Z AUTO 25016KT 9999 SCT021 10/06 Q1014",
      "taf": "TAF EGGW 231055Z 2312/2412 23012KT 9999 SCT025"
    },
    {
      "icao": "EGKK",
      "alert": "OK",
      "vis_m": 9999,
      "fzfg": false,
      "metar_trigger": false,
      "taf_trigger": false,
      "metar": "METAR EGKK 231050Z 24011KT 9999 BKN021 BKN034 11/08 Q1016",
      "taf": "TAF EGKK 231059Z 2312/2418 23010KT 9999 SCT020"
    },
    {
      "icao": "EGNM",
      "alert": "OK",
      "vis_m": 9999,
      "fzfg": false,
      "metar_trigger": false,
      "taf_trigger": false,
      "metar": "METAR EGNM 231050Z 26022G34KT 9999 SCT021 09/05 Q1008",
      "taf": "TAF EGNM 231100Z 2312/2412 26014KT 9999 SCT030"
    },
    {
      "icao": "EGPD",
      "alert": "OK",
      "vis_m": 9999,
      "fzfg": false,
      "metar_trigger": false,
      "taf_trigger": false,
      "metar": "METAR EGPD 231050Z COR AUTO 24008KT 210V280 9999 NCD 10/03 Q0999 NOSIG",
      "taf": "TAF EGPD 231059Z 2312/2412 27009KT 9999 FEW035"
    },
    {
      "icao": "EGPF",
      "alert": "OK",
      "vis_m": 9999,
      "fzfg": false,
      "metar_trigger": false,
      "taf_trigger": false,
      "metar": "METAR EGPF 231050Z AUTO 24013KT 9999 SCT023 BKN028 BKN041 09/06 Q1004",
      "taf": "TAF EGPF 231056Z 2312/2412 25012KT 9999 SCT025"
    },
    {
      "icao": "EHBK",
      "alert": "OK",
      "vis_m": 9999,
      "fzfg": false,
      "metar_trigger": false,
      "taf_trigger": false,
      "metar": "METAR EHBK 231055Z AUTO 24016KT 200V280 9999 BKN019 BKN023 BKN027 10/06 Q1016 NOSIG",
      "taf": ""
    },
    {
      "icao": "EHEH",
      "alert": "OK",
      "vis_m": 9999,
      "fzfg": false,
      "metar_trigger": false,
      "taf_trigger": false,
      "metar": "METAR EHEH 231055Z AUTO 25018KT 220V290 9999 SCT023 BKN026 OVC029 11/06 Q1014 BLU NOSIG RMK TREND REMOTE BY EHWX",
      "taf": "TAF EHEH 230553Z 2306/2412 24012G22KT 9999 SCT017 BKN020"
    },
    {
      "icao": "EKBI",
      "alert": "OK",
      "vis_m": 6000,
      "fzfg": false,
      "metar_trigger": false,
      "taf_trigger": false,
      "metar": "METAR EKBI 231051Z 24009KT 6000 -RA BKN003 05/05 Q1003",
      "taf": "TAF EKBI 222327Z 2300/2324 24008KT 7000 SCT003 BKN030"
    },
    {
      "icao": "EKCH",
      "alert": "OK",
      "vis_m": 800,
      "fzfg": false,
      "metar_trigger": false,
      "taf_trigger": false,
      "metar": "METAR EKCH 231050Z 25011KT 0800 R22L/1400D R04L/1200N R12/1200N FG OVC002 03/03 Q1003 BECMG 2000 BR",
      "taf": ""
    },
    {
      "icao": "ENAL",
      "alert": "OK",
      "vis_m": 9999,
      "fzfg": false,
      "metar_trigger": false,
      "taf_trigger": false,
      "metar": "METAR ENAL 231050Z 07006KT 9999 -RA FEW010 BKN020 02/01 Q0997 REDZRA",
      "taf": ""
    },
    {
      "icao": "ENBR",
      "alert": "OK",
      "vis_m": 9999,
      "fzfg": false,
      "metar_trigger": false,
      "taf_trigger": false,
      "metar": "METAR ENBR 231050Z 14010KT 9999 -SHRA SCT006 BKN009 BKN017 04/03 Q0998 TEMPO 4000 SHRA BKN004 SCT018CB RMK WIND 1200FT 16013KT",
      "taf": ""
    },
    {
      "icao": "ENGM",
      "alert": "OK",
      "vis_m": 9999,
      "fzfg": false,
      "metar_trigger": false,
      "taf_trigger": false,
      "metar": "METAR ENGM 231050Z VRB01KT 9999 3400NW -SN SCT007 BKN013 M01/M04 Q1000 TEMPO 3000 -SN BKN007",
      "taf": ""
    },
    {
      "icao": "ENHD",
      "alert": "OK",
      "vis_m": 9999,
      "fzfg": false,
      "metar_trigger": false,
      "taf_trigger": false,
      "metar": "METAR ENHD 231050Z 10004KT 060V160 9999 VCSH BKN023 05/04 Q0998",
      "taf": "TAF ENHD 230800Z 2309/2318 17008KT 9999 SCT004 BKN010"
    },
    {
      "icao": "ENTC",
      "alert": "OK",
      "vis_m": 9999,
      "fzfg": false,
      "metar_trigger": false,
      "taf_trigger": false,
      "metar": "METAR ENTC 231050Z 22008KT 9999 FEW014 M03/M06 Q1005 NOSIG RMK WIND 2600FT 18011KT",
      "taf": ""
    },
    {
      "icao": "ENTO",
      "alert": "OK",
      "vis_m": 8000,
      "fzfg": false,
      "metar_trigger": false,
      "taf_trigger": false,
      "metar": "METAR ENTO 231050Z 18003KT 8000 -SN OVC003 M01/M01 Q1000 TEMPO 2000 BCFG",
      "taf": ""
    },
    {
      "icao": "ENVA",
      "alert": "OK",
      "vis_m": 9999,
      "fzfg": false,
      "metar_trigger": false,
      "taf_trigger": false,
      "metar": "METAR ENVA 231050Z 09003KT CAVOK M02/M07 Q0998 NOSIG RMK WIND 670FT 08007KT",
      "taf": ""
    },
    {
      "icao": "ENZV",
      "alert": "OK",
      "vis_m": 9999,
      "fzfg": false,
      "metar_trigger": false,
      "taf_trigger": false,
      "metar": "METAR ENZV 231050Z 16007KT 9999 -SHRA FEW005 BKN009 04/03 Q0999 TEMPO 4000 SHRA BKN004 SCT020CB",
      "taf": ""
    },
    {
      "icao": "EPGD",
      "alert": "OK",
      "vis_m": 7000,
      "fzfg": false,
      "metar_trigger": false,
      "taf_trigger": false,
      "metar": "METAR EPGD 231100Z 26009KT 7000 -DZ OVC003 03/03 Q1005",
      "taf": "TAF EPGD 222330Z 2300/2324 VRB02KT 0800 -DZ FG OVC002"
    },
    {
      "icao": "EPKK",
      "alert": "OK",
      "vis_m": 9999,
      "fzfg": false,
      "metar_trigger": false,
      "taf_trigger": false,
      "metar": "METAR EPKK 231100Z 25013KT 9999 FEW020 BKN036 09/06 Q1011",
      "taf": "TAF EPKK 222330Z 2300/2324 24005KT 7000 BKN015"
    },
    {
      "icao": "EPKT",
      "alert": "OK",
      "vis_m": 9999,
      "fzfg": false,
      "metar_trigger": false,
      "taf_trigger": false,
      "metar": "METAR EPKT 231100Z 27013KT 9999 FEW012 BKN014 09/06 Q1011",
      "taf": "TAF EPKT 222330Z 2300/2324 23012KT 4000 -RA BR BKN005"
    },
    {
      "icao": "EPLB",
      "alert": "OK",
      "vis_m": 9999,
      "fzfg": false,
      "metar_trigger": false,
      "taf_trigger": false,
      "metar": "METAR EPLB 231100Z 29012KT 9999 BKN011 OVC016 06/05 Q1008",
      "taf": ""
    },
    {
      "icao": "EPMO",
      "alert": "OK",
      "vis_m": 9999,
      "fzfg": false,
      "metar_trigger": false,
      "taf_trigger": false,
      "metar": "METAR EPMO 231100Z 26010KT 9999 BKN010 05/04 Q1008",
      "taf": ""
    },
    {
      "icao": "EPPO",
      "alert": "OK",
      "vis_m": 9999,
      "fzfg": false,
      "metar_trigger": false,
      "taf_trigger": false,
      "metar": "METAR EPPO 231100Z 27012KT 9999 OVC009 08/06 Q1009",
      "taf": ""
    },
    {
      "icao": "EPRA",
      "alert": "OK",
      "vis_m": 9999,
      "fzfg": false,
      "metar_trigger": false,
      "taf_trigger": false,
      "metar": "METAR EPRA 231100Z 30011KT 270V330 9999 BKN015 07/04 Q1009",
      "taf": "TAF EPRA 222330Z 2300/2309 22012KT 8000 -RA BKN006 OVC012"
    },
    {
      "icao": "EPRZ",
      "alert": "OK",
      "vis_m": 9999,
      "fzfg": false,
      "metar_trigger": false,
      "taf_trigger": false,
      "metar": "METAR EPRZ 231100Z 28015KT 9999 BKN020 09/05 Q1010",
      "taf": "TAF EPRZ 222330Z 2300/2324 20012KT 9999 OVC020"
    },
    {
      "icao": "EPSC",
      "alert": "OK",
      "vis_m": 9999,
      "fzfg": false,
      "metar_trigger": false,
      "taf_trigger": false,
      "metar": "METAR EPSC 231100Z 24008KT 210V270 9999 -SHRA SCT009CB BKN011 08/06 Q1007",
      "taf": ""
    },
    {
      "icao": "EPSY",
      "alert": "OK",
      "vis_m": 9999,
      "fzfg": false,
      "metar_trigger": false,
      "taf_trigger": false,
      "metar": "METAR EPSY 231100Z 27009KT 230V310 9999 BKN005 OVC008 04/03 Q1006",
      "taf": "TAF EPSY 222330Z 2300/2309 13005KT 5000 -RA BR OVC002"
    },
    {
      "icao": "EPWA",
      "alert": "OK",
      "vis_m": 9999,
      "fzfg": false,
      "metar_trigger": false,
      "taf_trigger": false,
      "metar": "METAR EPWA 231100Z 27010KT 9999 BKN011 06/05 Q1008 NOSIG",
      "taf": "TAF EPWA 222330Z 2300/2324 17005KT 6000 OVC005"
    },
    {
      "icao": "EPWR",
      "alert": "OK",
      "vis_m": 9999,
      "fzfg": false,
      "metar_trigger": false,
      "taf_trigger": false,
      "metar": "METAR EPWR 231100Z 27011KT 9999 FEW020CB SCT038 09/06 Q1011",
      "taf": "TAF EPWR 222330Z 2300/2324 27012KT 9999 BKN025"
    },
    {
      "icao": "ESGG",
      "alert": "OK",
      "vis_m": 200,
      "fzfg": false,
      "metar_trigger": false,
      "taf_trigger": false,
      "metar": "METAR ESGG 231050Z 21007KT 0200 R03/0400N R21/0600N FG VV003 01/01 Q1000",
      "taf": "TAF ESGG 230830Z 2309/2409 18006KT 0150 FG VV002"
    },
    {
      "icao": "ESKN",
      "alert": "OK",
      "vis_m": 3400,
      "fzfg": false,
      "metar_trigger": false,
      "taf_trigger": false,
      "metar": "METAR ESKN 231050Z 12008KT 3400 -DZ OVC003 00/M00 Q1002",
      "taf": "TAF ESKN 230830Z 2309/2409 13008KT 9999 SCT005 BKN020"
    },
    {
      "icao": "ESMS",
      "alert": "OK",
      "vis_m": 350,
      "fzfg": false,
      "metar_trigger": false,
      "taf_trigger": false,
      "metar": "METAR ESMS 231050Z 25009KT 0350 R17/0750N R35/0700N FG OVC002 03/03 Q1003",
      "taf": "TAF ESMS 230830Z 2309/2409 26008KT 0200 FG BKN001"
    },
    {
      "icao": "ESSA",
      "alert": "OK",
      "vis_m": 9999,
      "fzfg": false,
      "metar_trigger": false,
      "taf_trigger": false,
      "metar": "METAR ESSA 231050Z 14009KT 9999 BKN013 01/M02 Q1003 TEMPO SCT010",
      "taf": "TAF ESSA 222330Z 2300/2324 10006KT CAVOK"
    },
    {
      "icao": "EYKA",
      "alert": "OK",
      "vis_m": 1100,
      "fzfg": false,
      "metar_trigger": false,
      "taf_trigger": false,
      "metar": "METAR EYKA 231050Z 15004KT 120V190 1100 R08/1300D SNRA BR OVC004 01/00 Q1004",
      "taf": "TAF EYKA 222316Z 2300/2324 VRB04KT 5000 BR SCT025"
    },
    {
      "icao": "EYPA",
      "alert": "OK",
      "vis_m": 600,
      "fzfg": false,
      "metar_trigger": false,
      "taf_trigger": false,
      "metar": "METAR EYPA 231050Z 21005KT 180V260 0600 R19/0700D FG OVC002 01/01 Q1001",
      "taf": "TAF EYPA 222315Z 2300/2324 11012KT 9000 OVC025"
    },
    {
      "icao": "EYVI",
      "alert": "OK",
      "vis_m": 9999,
      "fzfg": false,
      "metar_trigger": false,
      "taf_trigger": false,
      "metar": "METAR EYVI 231050Z 15008KT 9999 -RASN OVC012 02/M01 Q1004 BECMG 3000 SNRA OVC010",
      "taf": "TAF EYVI 230523Z 2306/2406 13010KT 9000 OVC030"
    },
    {
      "icao": "GCFV",
      "alert": "OK",
      "vis_m": 9999,
      "fzfg": false,
      "metar_trigger": false,
      "taf_trigger": false,
      "metar": "METAR GCFV 231100Z 03005KT CAVOK 22/12 Q1023",
      "taf": "TAF GCFV 230800Z 2309/2409 17005KT 7000 NSC TX24/2314Z TN17/2406Z"
    },
    {
      "icao": "GCLP",
      "alert": "OK",
      "vis_m": 9999,
      "fzfg": false,
      "metar_trigger": false,
      "taf_trigger": false,
      "metar": "METAR GCLP 231100Z 16007KT 130V190 CAVOK 25/09 Q1022 NOSIG",
      "taf": "TAF GCLP 230800Z 2309/2409 17010KT 7000 NSC TX25/2314Z TN18/2406Z"
    },
    {
      "icao": "GCTS",
      "alert": "OK",
      "vis_m": 9999,
      "fzfg": false,
      "metar_trigger": false,
      "taf_trigger": false,
      "metar": "METAR GCTS 231100Z 09012KT CAVOK 28/M04 Q1022 NOSIG",
      "taf": "TAF GCTS 230800Z 2309/2409 10010KT 8000 NSC TX27/2314Z TN19/2406Z"
    },
    {
      "icao": "GMAD",
      "alert": "OK",
      "vis_m": 9999,
      "fzfg": false,
      "metar_trigger": false,
      "taf_trigger": false,
      "metar": "METAR GMAD 231100Z 05005KT 020V080 CAVOK 26/06 Q1023 NOSIG",
      "taf": "TAF GMAD 230500Z 2306/2412 06007KT CAVOK"
    },
    {
      "icao": "GMMN",
      "alert": "OK",
      "vis_m": 9999,
      "fzfg": false,
      "metar_trigger": false,
      "taf_trigger": false,
      "metar": "METAR GMMN 231057Z 20003KT 170V230 CAVOK 23/16 Q1024 NOSIG",
      "taf": ""
    },
    {
      "icao": "GMMX",
      "alert": "OK",
      "vis_m": 9999,
      "fzfg": false,
      "metar_trigger": false,
      "taf_trigger": false,
      "metar": "METAR GMMX 231100Z 03003KT 350V110 CAVOK 24/06 Q1025 NOSIG",
      "taf": ""
    },
    {
      "icao": "HEGN",
      "alert": "OK",
      "vis_m": 9999,
      "fzfg": false,
      "metar_trigger": false,
      "taf_trigger": false,
      "metar": "METAR HEGN 231000Z 31014KT CAVOK 23/00 Q1013 NOSIG",
      "taf": "TAF HEGN 231100Z 2312/2418 34015G25KT CAVOK"
    },
    {
      "icao": "HEMA",
      "alert": "OK",
      "vis_m": 9999,
      "fzfg": false,
      "metar_trigger": false,
      "taf_trigger": false,
      "metar": "METAR HEMA 231000Z 02012KT CAVOK 23/05 Q1013 NOSIG",
      "taf": "TAF HEMA 231100Z 2312/2418 35015G25KT CAVOK"
    },
    {
      "icao": "HESH",
      "alert": "OK",
      "vis_m": 9999,
      "fzfg": false,
      "metar_trigger": false,
      "taf_trigger": false,
      "metar": "METAR HESH 231000Z 02006KT CAVOK 23/06 Q1012 NOSIG",
      "taf": "TAF HESH 231100Z 2312/2418 03015KT CAVOK"
    },
    {
      "icao": "HESX",
      "alert": "OK",
      "vis_m": 9999,
      "fzfg": false,
      "metar_trigger": false,
      "taf_trigger": false,
      "metar": "METAR HESX 231000Z 27011KT 9999 SCT020 18/09 Q1015 NOSIG",
      "taf": "TAF HESX 231100Z 2312/2418 27012G22KT 9999 SCT020"
    },
    {
      "icao": "LATI",
      "alert": "OK",
      "vis_m": 9999,
      "fzfg": false,
      "metar_trigger": false,
      "taf_trigger": false,
      "metar": "METAR LATI 231050Z VRB02KT CAVOK 16/M02 Q1021 NOSIG",
      "taf": "TAF LATI 231100Z 2312/2412 VRB05KT CAVOK TX17/2412Z TN03/2405Z"
    },
    {
      "icao": "LBPD",
      "alert": "OK",
      "vis_m": 9999,
      "fzfg": false,
      "metar_trigger": false,
      "taf_trigger": false,
      "metar": "METAR LBPD 231100Z AUTO VRB02KT 9999 FEW130/// 11/02 Q1018 NOSIG",
      "taf": ""
    },
    {
      "icao": "LBSF",
      "alert": "OK",
      "vis_m": 9999,
      "fzfg": false,
      "metar_trigger": false,
      "taf_trigger": false,
      "metar": "METAR LBSF 231100Z 18006KT 150V240 9999 BKN083 07/01 Q1019 NOSIG",
      "taf": ""
    },
    {
      "icao": "LBWN",
      "alert": "OK",
      "vis_m": 9999,
      "fzfg": false,
      "metar_trigger": false,
      "taf_trigger": false,
      "metar": "METAR LBWN 231100Z 24010KT CAVOK 11/03 Q1017 NOSIG",
      "taf": ""
    },
    {
      "icao": "LCLK",
      "alert": "OK",
      "vis_m": 9999,
      "fzfg": false,
      "metar_trigger": false,
      "taf_trigger": false,
      "metar": "METAR LCLK 231100Z 20011KT 9999 SCT025 FEW040CB 20/11 Q1011 NOSIG RMK DISTANT CB TO S",
      "taf": "TAF LCLK 222330Z 2300/2400 30006KT 9999 FEW025"
    },
    {
      "icao": "LCPH",
      "alert": "OK",
      "vis_m": 9999,
      "fzfg": false,
      "metar_trigger": false,
      "taf_trigger": false,
      "metar": "METAR LCPH 231100Z 30010KT 250V320 9999 FEW025 FEW030CB SCT045 19/11 Q1012 NOSIG",
      "taf": "TAF LCPH 222330Z 2300/2400 01007KT 9999 FEW020"
    },
    {
      "icao": "LEAL",
      "alert": "OK",
      "vis_m": 9999,
      "fzfg": false,
      "metar_trigger": false,
      "taf_trigger": false,
      "metar": "METAR LEAL 231100Z VRB01KT CAVOK 20/07 Q1026 NOSIG",
      "taf": ""
    },
    {
      "icao": "LEBB",
      "alert": "OK",
      "vis_m": 9999,
      "fzfg": false,
      "metar_trigger": false,
      "taf_trigger": false,
      "metar": "METAR LEBB 231100Z 09005KT 030V140 CAVOK 16/09 Q1026 NOSIG",
      "taf": ""
    },
    {
      "icao": "LEBL",
      "alert": "OK",
      "vis_m": 9999,
      "fzfg": false,
      "metar_trigger": false,
      "taf_trigger": false,
      "metar": "METAR LEBL 231100Z 10004KT 9999 FEW030 16/10 Q1025 NOSIG",
      "taf": ""
    },
    {
      "icao": "LECH",
      "alert": "OK",
      "vis_m": 9999,
      "fzfg": false,
      "metar_trigger": false,
      "taf_trigger": false,
      "metar": "METAR LECH 231100Z AUTO 20001KT CAVOK 19/04 Q1026",
      "taf": ""
    },
    {
      "icao": "LEMD",
      "alert": "OK",
      "vis_m": 9999,
      "fzfg": false,
      "metar_trigger": false,
      "taf_trigger": false,
      "metar": "METAR LEMD 231100Z VRB02KT CAVOK 13/03 Q1027 NOSIG",
      "taf": ""
    },
    {
      "icao": "LEMG",
      "alert": "OK",
      "vis_m": 9999,
      "fzfg": false,
      "metar_trigger": false,
      "taf_trigger": false,
      "metar": "METAR LEMG 231100Z 12004KT 030V160 CAVOK 16/09 Q1026 NOSIG",
      "taf": ""
    },
    {
      "icao": "LEVC",
      "alert": "OK",
      "vis_m": 9999,
      "fzfg": false,
      "metar_trigger": false,
      "taf_trigger": false,
      "metar": "METAR LEVC 231100Z 10001KT CAVOK 20/03 Q1026 NOSIG",
      "taf": ""
    },
    {
      "icao": "LEXJ",
      "alert": "OK",
      "vis_m": 9999,
      "fzfg": false,
      "metar_trigger": false,
      "taf_trigger": false,
      "metar": "METAR LEXJ 231100Z 04003KT 350V090 CAVOK 12/09 Q1026",
      "taf": "TAF LEXJ 230800Z 2309/2409 20009KT 9999 FEW020 TX19/2314Z TN06/2309Z"
    },
    {
      "icao": "LEZG",
      "alert": "OK",
      "vis_m": 9999,
      "fzfg": false,
      "metar_trigger": false,
      "taf_trigger": false,
      "metar": "METAR LEZG 231100Z 31006KT 270V340 CAVOK 15/05 Q1026 NOSIG",
      "taf": ""
    },
    {
      "icao": "LEZL",
      "alert": "OK",
      "vis_m": 9999,
      "fzfg": false,
      "metar_trigger": false,
      "taf_trigger": false,
      "metar": "METAR LEZL 231100Z 05004KT 020V080 CAVOK 17/09 Q1025 NOSIG",
      "taf": "TAF LEZL 230800Z 2309/2409 VRB03KT CAVOK TX23/2315Z TN08/2407Z"
    },
    {
      "icao": "LFBD",
      "alert": "OK",
      "vis_m": 9999,
      "fzfg": false,
      "metar_trigger": false,
      "taf_trigger": false,
      "metar": "METAR LFBD 231100Z AUTO 19006KT 160V220 9999 BKN013 13/10 Q1027 BECMG NSC",
      "taf": ""
    },
    {
      "icao": "LFLL",
      "alert": "OK",
      "vis_m": 9999,
      "fzfg": false,
      "metar_trigger": false,
      "taf_trigger": false,
      "metar": "METAR LFLL 231100Z VRB02KT 9999 FEW023 BKN030 BKN056 14/07 Q1026 NOSIG",
      "taf": ""
    },
    {
      "icao": "LFLS",
      "alert": "OK",
      "vis_m": 9999,
      "fzfg": false,
      "metar_trigger": false,
      "taf_trigger": false,
      "metar": "METAR LFLS 231100Z AUTO 04005KT 330V090 9999 FEW058 14/07 Q1025 NOSIG",
      "taf": "TAF LFLS 230800Z 2309/2409 VRB02KT CAVOK"
    },
    {
      "icao": "LFMN",
      "alert": "OK",
      "vis_m": 9999,
      "fzfg": false,
      "metar_trigger": false,
      "taf_trigger": false,
      "metar": "METAR LFMN 231100Z VRB02KT 9999 FEW026 SCT260 15/09 Q1020 BECMG 16005KT",
      "taf": "TAF LFMN 230800Z 2309/2415 33010KT 9999 FEW020 BKN250"
    },
    {
      "icao": "LFOB",
      "alert": "OK",
      "vis_m": 9999,
      "fzfg": false,
      "metar_trigger": false,
      "taf_trigger": false,
      "metar": "METAR LFOB 231100Z AUTO 25013KT 9999 BKN019 BKN024 OVC150 11/08 Q1020 TEMPO BKN008 BKN012",
      "taf": ""
    },
    {
      "icao": "LFPO",
      "alert": "OK",
      "vis_m": 9999,
      "fzfg": false,
      "metar_trigger": false,
      "taf_trigger": false,
      "metar": "METAR LFPO 231100Z 25012KT 9999 FEW023 SCT070 14/09 Q1021 NOSIG",
      "taf": "TAF LFPO 230500Z 2306/2412 24008KT 9999 FEW012 SCT030"
    },
    {
      "icao": "LFSB",
      "alert": "OK",
      "vis_m": 9999,
      "fzfg": false,
      "metar_trigger": false,
      "taf_trigger": false,
      "metar": "METAR LFSB 231100Z AUTO 26013KT 230V310 9999 BKN023 14/09 Q1022 NOSIG",
      "taf": ""
    },
    {
      "icao": "LGAV",
      "alert": "OK",
      "vis_m": 9999,
      "fzfg": false,
      "metar_trigger": false,
      "taf_trigger": false,
      "metar": "METAR LGAV 231050Z 02007KT 340V060 9999 SCT030 14/02 Q1021 NOSIG",
      "taf": ""
    },
    {
      "icao": "LGTS",
      "alert": "OK",
      "vis_m": 9999,
      "fzfg": false,
      "metar_trigger": false,
      "taf_trigger": false,
      "metar": "METAR LGTS 231050Z 26007KT CAVOK 12/02 Q1021 NOSIG",
      "taf": ""
    },
    {
      "icao": "LHBP",
      "alert": "OK",
      "vis_m": 9999,
      "fzfg": false,
      "metar_trigger": false,
      "taf_trigger": false,
      "metar": "METAR LHBP 231100Z 29012G27KT 9999 SCT033 BKN240 14/06 Q1015 NOSIG",
      "taf": "TAF LHBP 222315Z 2300/2324 19005KT 9999 BKN040"
    },
    {
      "icao": "LHDC",
      "alert": "OK",
      "vis_m": 9999,
      "fzfg": false,
      "metar_trigger": false,
      "taf_trigger": false,
      "metar": "METAR LHDC 231045Z AUTO 24007KT 9999 -DZ OVC009 09/08 Q1014 BECMG BKN014",
      "taf": "TAF LHDC 222315Z 2300/2309 19012KT 9999 SCT035 OVC050"
    },
    {
      "icao": "LIBD",
      "alert": "OK",
      "vis_m": 9999,
      "fzfg": false,
      "metar_trigger": false,
      "taf_trigger": false,
      "metar": "METAR LIBD 231050Z 05006KT 010V070 CAVOK 18/05 Q1019",
      "taf": "TAF LIBD 230500Z 2306/2406 VRB06KT CAVOK"
    },
    {
      "icao": "LIBG",
      "alert": "OK",
      "vis_m": 9999,
      "fzfg": false,
      "metar_trigger": false,
      "taf_trigger": false,
      "metar": "METAR LIBG 231050Z 20007KT 160V230 CAVOK 16/07 Q1021",
      "taf": "TAF LIBG 230800Z 2309/2318 VRB05KT CAVOK"
    },
    {
      "icao": "LIBP",
      "alert": "OK",
      "vis_m": 9999,
      "fzfg": false,
      "metar_trigger": false,
      "taf_trigger": false,
      "metar": "METAR LIBP 231050Z AUTO 35008KT 320V040 9999 FEW230/// 15/09 Q1021",
      "taf": "TAF LIBP 230500Z 2306/2406 VRB04KT CAVOK"
    },
    {
      "icao": "LIBR",
      "alert": "OK",
      "vis_m": 9999,
      "fzfg": false,
      "metar_trigger": false,
      "taf_trigger": false,
      "metar": "METAR LIBR 231050Z 22008KT 180V240 CAVOK 17/05 Q1020",
      "taf": "TAF LIBR 230500Z 2306/2406 VRB05KT CAVOK"
    },
    {
      "icao": "LICA",
      "alert": "OK",
      "vis_m": 9999,
      "fzfg": false,
      "metar_trigger": false,
      "taf_trigger": false,
      "metar": "METAR LICA 231050Z AUTO 24010KT 9999 SCT020/// BKN032/// 15/12 Q1024",
      "taf": "TAF LICA 230500Z 2306/2406 27012KT 9999 FEW020"
    },
    {
      "icao": "LICC",
      "alert": "OK",
      "vis_m": 9999,
      "fzfg": false,
      "metar_trigger": false,
      "taf_trigger": false,
      "metar": "METAR LICC 231050Z 25005KT 210V280 CAVOK 19/15 Q1023",
      "taf": "TAF LICC 230500Z 2306/2406 25008KT CAVOK"
    },
    {
      "icao": "LICJ",
      "alert": "OK",
      "vis_m": 9999,
      "fzfg": false,
      "metar_trigger": false,
      "taf_trigger": false,
      "metar": "METAR LICJ 231050Z 20016KT CAVOK 18/09 Q1023 WS R25",
      "taf": "TAF LICJ 230500Z 2306/2406 21014KT 9999 FEW030"
    },
    {
      "icao": "LIMC",
      "alert": "OK",
      "vis_m": 9999,
      "fzfg": false,
      "metar_trigger": false,
      "taf_trigger": false,
      "metar": "METAR LIMC 231050Z 25004KT 210V310 CAVOK 13/07 Q1020 NOSIG",
      "taf": "TAF LIMC 230500Z 2306/2412 VRB05KT 4000 BCFG NSC"
    },
    {
      "icao": "LIME",
      "alert": "OK",
      "vis_m": 7000,
      "fzfg": false,
      "metar_trigger": false,
      "taf_trigger": false,
      "metar": "METAR LIME 231050Z 17003KT 120V200 7000 NSC 12/07 Q1020 NOSIG",
      "taf": "TAF LIME 230500Z 2306/2406 VRB05KT CAVOK"
    },
    {
      "icao": "LIMF",
      "alert": "OK",
      "vis_m": 6000,
      "fzfg": false,
      "metar_trigger": false,
      "taf_trigger": false,
      "metar": "METAR LIMF 231050Z VRB02KT 6000 NSC 12/06 Q1020",
      "taf": "TAF LIMF 230500Z 2306/2406 VRB05KT 9999 FEW025"
    },
    {
      "icao": "LIMJ",
      "alert": "OK",
      "vis_m": 9999,
      "fzfg": false,
      "metar_trigger": false,
      "taf_trigger": false,
      "metar": "METAR LIMJ 231050Z 14005KT 9999 FEW023 15/11 Q1021",
      "taf": "TAF LIMJ 230500Z 2306/2406 03005KT 8000 BKN015"
    },
    {
      "icao": "LIPE",
      "alert": "OK",
      "vis_m": 9999,
      "fzfg": false,
      "metar_trigger": false,
      "taf_trigger": false,
      "metar": "METAR LIPE 231050Z VRB01KT CAVOK 14/08 Q1020",
      "taf": ""
    },
    {
      "icao": "LIPH",
      "alert": "OK",
      "vis_m": 1500,
      "fzfg": false,
      "metar_trigger": false,
      "taf_trigger": false,
      "metar": "METAR LIPH 231050Z VRB02KT 1500 BR OVC002 08/08 Q1021",
      "taf": ""
    },
    {
      "icao": "LIPQ",
      "alert": "OK",
      "vis_m": 9999,
      "fzfg": false,
      "metar_trigger": false,
      "taf_trigger": false,
      "metar": "METAR LIPQ 231050Z AUTO VRB02KT 9999 NCD 13/05 Q1021",
      "taf": ""
    },
    {
      "icao": "LIPR",
      "alert": "OK",
      "vis_m": 9999,
      "fzfg": false,
      "metar_trigger": false,
      "taf_trigger": false,
      "metar": "METAR LIPR 231050Z 05004KT CAVOK 12/08 Q1021",
      "taf": ""
    },
    {
      "icao": "LIPX",
      "alert": "OK",
      "vis_m": 6000,
      "fzfg": false,
      "metar_trigger": false,
      "taf_trigger": false,
      "metar": "METAR LIPX 231050Z 16003KT 090V230 6000 FEW005 10/07 Q1020",
      "taf": "TAF LIPX 230500Z 2306/2406 VRB05KT 7000 SCT030"
    },
    {
      "icao": "LIPY",
      "alert": "OK",
      "vis_m": 9999,
      "fzfg": false,
      "metar_trigger": false,
      "taf_trigger": false,
      "metar": "METAR LIPY 231050Z AUTO 01007KT 9999 SCT002/// 11/09 Q1021",
      "taf": ""
    },
    {
      "icao": "LIPZ",
      "alert": "OK",
      "vis_m": 3000,
      "fzfg": false,
      "metar_trigger": false,
      "taf_trigger": false,
      "metar": "METAR LIPZ 231050Z 33003KT 310V030 3000 BR SCT005 BKN015 08/07 Q1021 BECMG 5000 BR",
      "taf": ""
    },
    {
      "icao": "LIRF",
      "alert": "OK",
      "vis_m": 9999,
      "fzfg": false,
      "metar_trigger": false,
      "taf_trigger": false,
      "metar": "METAR LIRF 231050Z 14006KT 120V210 9999 FEW015 BKN030 15/11 Q1022 NOSIG",
      "taf": "TAF LIRF 230500Z 2306/2412 10008KT 9999 SCT020"
    },
    {
      "icao": "LIRN",
      "alert": "OK",
      "vis_m": 9999,
      "fzfg": false,
      "metar_trigger": false,
      "taf_trigger": false,
      "metar": "METAR LIRN 231050Z 19005KT 140V230 9999 SCT030 15/09 Q1023 NOSIG",
      "taf": ""
    },
    {
      "icao": "LIRP",
      "alert": "OK",
      "vis_m": 9999,
      "fzfg": false,
      "metar_trigger": false,
      "taf_trigger": false,
      "metar": "METAR LIRP 231045Z 12004KT 9999 SCT030 BKN040 12/12 Q1022 NOSIG",
      "taf": ""
    },
    {
      "icao": "LIRZ",
      "alert": "OK",
      "vis_m": 9999,
      "fzfg": false,
      "metar_trigger": false,
      "taf_trigger": false,
      "metar": "METAR LIRZ 231050Z AUTO VRB01KT 9999 BKN040/// 13/08 Q1022",
      "taf": ""
    },
    {
      "icao": "LJLJ",
      "alert": "OK",
      "vis_m": 9999,
      "fzfg": false,
      "metar_trigger": false,
      "taf_trigger": false,
      "metar": "METAR LJLJ 231100Z 14001KT 9999 FEW070 12/04 Q1018 NOSIG",
      "taf": "TAF LJLJ 231100Z 2312/2412 VRB02KT 9999 FEW070"
    },
    {
      "icao": "LKMT",
      "alert": "OK",
      "vis_m": 9999,
      "fzfg": false,
      "metar_trigger": false,
      "taf_trigger": false,
      "metar": "METAR LKMT 231100Z 23014KT 9999 FEW010 10/08 Q1013 NOSIG",
      "taf": ""
    },
    {
      "icao": "LKPR",
      "alert": "OK",
      "vis_m": 9999,
      "fzfg": false,
      "metar_trigger": false,
      "taf_trigger": false,
      "metar": "METAR LKPR 231100Z 26017KT 9999 SCT040 11/02 Q1014 NOSIG",
      "taf": ""
    },
    {
      "icao": "LLBG",
      "alert": "OK",
      "vis_m": 9999,
      "fzfg": false,
      "metar_trigger": false,
      "taf_trigger": false,
      "metar": "METAR LLBG 231050Z 23012KT 9999 SCT026 17/09 Q1013 TEMPO 8000 RA BKN025 RMK BKN070",
      "taf": "TAF LLBG 231106Z 2312/2412 24010KT 9999 SCT025 BKN035"
    },
    {
      "icao": "LMML",
      "alert": "OK",
      "vis_m": 9999,
      "fzfg": false,
      "metar_trigger": false,
      "taf_trigger": false,
      "metar": "METAR LMML 231045Z 26012KT 9999 FEW019 17/12 Q1025 NOSIG",
      "taf": "TAF LMML 231100Z 2312/2412 28012KT 9999 FEW018"
    },
    {
      "icao": "LOWW",
      "alert": "OK",
      "vis_m": 9999,
      "fzfg": false,
      "metar_trigger": false,
      "taf_trigger": false,
      "metar": "METAR LOWW 231050Z 28015KT 9999 FEW032 SCT038 BKN050 13/06 Q1016 TEMPO 28020G35KT 4000 SHRA",
      "taf": "TAF LOWW 222315Z 2300/2406 27010KT 9999 FEW040 BKN050 TX13/2313Z TN08/2405Z"
    },
    {
      "icao": "LPFR",
      "alert": "OK",
      "vis_m": 9999,
      "fzfg": false,
      "metar_trigger": false,
      "taf_trigger": false,
      "metar": "METAR LPFR 231100Z 10010KT CAVOK 17/10 Q1025",
      "taf": ""
    },
    {
      "icao": "LPMA",
      "alert": "OK",
      "vis_m": 9999,
      "fzfg": false,
      "metar_trigger": false,
      "taf_trigger": false,
      "metar": "METAR LPMA 231100Z 06005KT 360V140 9999 FEW015 17/13 Q1024",
      "taf": ""
    },
    {
      "icao": "LPPR",
      "alert": "OK",
      "vis_m": 9999,
      "fzfg": false,
      "metar_trigger": false,
      "taf_trigger": false,
      "metar": "METAR LPPR 231100Z 12009KT CAVOK 18/08 Q1024",
      "taf": ""
    },
    {
      "icao": "LPPS",
      "alert": "OK",
      "vis_m": 9999,
      "fzfg": false,
      "metar_trigger": false,
      "taf_trigger": false,
      "metar": "METAR LPPS 231100Z 13007KT 9999 FEW014 17/13 Q1023",
      "taf": ""
    },
    {
      "icao": "LPPT",
      "alert": "OK",
      "vis_m": 9999,
      "fzfg": false,
      "metar_trigger": false,
      "taf_trigger": false,
      "metar": "METAR LPPT 231100Z VRB04KT CAVOK 14/10 Q1025",
      "taf": ""
    },
    {
      "icao": "LQBK",
      "alert": "OK",
      "vis_m": 9999,
      "fzfg": false,
      "metar_trigger": false,
      "taf_trigger": false,
      "metar": "METAR LQBK 231100Z 04003KT 340V080 CAVOK 15/04 Q1018 NOSIG",
      "taf": "TAF LQBK 231100Z 2312/2412 32005KT CAVOK TX15/2313Z TN05/2406Z"
    },
    {
      "icao": "LQSA",
      "alert": "OK",
      "vis_m": 9999,
      "fzfg": false,
      "metar_trigger": false,
      "taf_trigger": false,
      "metar": "METAR LQSA 231100Z VRB02KT CAVOK 10/03 Q1019 NOSIG",
      "taf": "TAF LQSA 231100Z 2312/2412 VRB02KT CAVOK TX15/2314Z TN02/2405Z"
    },
    {
      "icao": "LQTZ",
      "alert": "OK",
      "vis_m": 9999,
      "fzfg": false,
      "metar_trigger": false,
      "taf_trigger": false,
      "metar": "METAR LQTZ 231100Z VRB03KT CAVOK 14/03 Q1018",
      "taf": "TAF LQTZ 231100Z 2312/2412 30005KT CAVOK TX15/2313Z TN04/2406Z"
    },
    {
      "icao": "LRBC",
      "alert": "OK",
      "vis_m": 9999,
      "fzfg": false,
      "metar_trigger": false,
      "taf_trigger": false,
      "metar": "METAR LRBC 231100Z 14008KT CAVOK 08/02 Q1011",
      "taf": ""
    },
    {
      "icao": "LRBS",
      "alert": "OK",
      "vis_m": 9999,
      "fzfg": false,
      "metar_trigger": false,
      "taf_trigger": false,
      "metar": "METAR LRBS 231100Z 26011KT CAVOK 02/01 Q1016 NOSIG",
      "taf": ""
    },
    {
      "icao": "LRBV",
      "alert": "OK",
      "vis_m": 4300,
      "fzfg": false,
      "metar_trigger": false,
      "taf_trigger": false,
      "metar": "METAR LRBV 231100Z VRB02KT 4300 -RA BR BKN015 BKN020 00/M01 Q1015",
      "taf": "TAF LRBV 230800Z 2309/2318 VRB04KT 9999 BKN025"
    },
    {
      "icao": "LRCL",
      "alert": "OK",
      "vis_m": 9999,
      "fzfg": false,
      "metar_trigger": false,
      "taf_trigger": false,
      "metar": "METAR LRCL 231100Z 10005KT 9999 -RA SCT007 OVC032 06/04 Q1013",
      "taf": ""
    },
    {
      "icao": "LRCV",
      "alert": "OK",
      "vis_m": 4300,
      "fzfg": false,
      "metar_trigger": false,
      "taf_trigger": false,
      "metar": "METAR LRCV 231100Z 24003KT 4300 -RA BR OVC045 03/03 Q1017",
      "taf": ""
    },
    {
      "icao": "LRIA",
      "alert": "OK",
      "vis_m": 9999,
      "fzfg": false,
      "metar_trigger": false,
      "taf_trigger": false,
      "metar": "METAR LRIA 231100Z 09008KT 9999 -RA BKN047 04/01 Q1012",
      "taf": ""
    },
    {
      "icao": "LROP",
      "alert": "OK",
      "vis_m": 9999,
      "fzfg": false,
      "metar_trigger": false,
      "taf_trigger": false,
      "metar": "METAR LROP 231100Z 24012KT 9999 -RA NSC 03/M01 Q1016 NOSIG",
      "taf": ""
    },
    {
      "icao": "LRSB",
      "alert": "OK",
      "vis_m": 9999,
      "fzfg": false,
      "metar_trigger": false,
      "taf_trigger": false,
      "metar": "METAR LRSB 231100Z 09003KT 050V120 9999 -RA SCT032 BKN049 OVC057 06/05 Q1014",
      "taf": ""
    },
    {
      "icao": "LRSM",
      "alert": "OK",
      "vis_m": 6000,
      "fzfg": false,
      "metar_trigger": false,
      "taf_trigger": false,
      "metar": "METAR LRSM 231100Z VRB02KT 6000 RA BKN007 OVC012 05/05 Q1014",
      "taf": "TAF LRSM 230800Z 2309/2318 12006KT 5000 -RA BR BKN010 BKN020"
    },
    {
      "icao": "LRSV",
      "alert": "OK",
      "vis_m": 9999,
      "fzfg": false,
      "metar_trigger": false,
      "taf_trigger": false,
      "metar": "METAR LRSV 231100Z 21007KT 9999 SCT046 07/02 Q1010",
      "taf": ""
    },
    {
      "icao": "LRTM",
      "alert": "OK",
      "vis_m": 9999,
      "fzfg": false,
      "metar_trigger": false,
      "taf_trigger": false,
      "metar": "METAR LRTM 231100Z 07006KT 9999 FEW023 SCT038 BKN046 07/04 Q1014",
      "taf": "TAF LRTM 230800Z 2309/2318 VRB04KT 9999 BKN040"
    },
    {
      "icao": "LRTR",
      "alert": "OK",
      "vis_m": 9999,
      "fzfg": false,
      "metar_trigger": false,
      "taf_trigger": false,
      "metar": "METAR LRTR 231100Z 20008KT 9999 SCT033 09/07 Q1017",
      "taf": ""
    },
    {
      "icao": "LTAC",
      "alert": "OK",
      "vis_m": 9999,
      "fzfg": false,
      "metar_trigger": false,
      "taf_trigger": false,
      "metar": "METAR LTAC 231050Z 19006KT 140V220 9999 BKN029 06/M01 Q1015 NOSIG RMK RWY21C VRB03KT RWY03L 24006KT 190V280 RWY21R 23004KT 180V310 RWY03R VRB03KT RWY21L 24004KT 190V330",
      "taf": "TAF LTAC 231040Z 2312/2412 VRB02KT 9999 SCT040"
    },
    {
      "icao": "LTFM",
      "alert": "OK",
      "vis_m": 9999,
      "fzfg": false,
      "metar_trigger": false,
      "taf_trigger": false,
      "metar": "METAR LTFM 231050Z 23008KT 180V260 9999 SCT025 09/01 Q1019 NOSIG RMK RWY17L 22008KT RWY34L 22009KT 170V250 RWY16R 22009KT 180V250 RWY36 21008KT 160V230 RWY18 23009KT 190V250",
      "taf": "TAF LTFM 231040Z 2312/2418 21012KT 9999 SCT028"
    },
    {
      "icao": "LUKK",
      "alert": "OK",
      "vis_m": 9999,
      "fzfg": false,
      "metar_trigger": false,
      "taf_trigger": false,
      "metar": "METAR LUKK 231100Z 20005KT 180V250 CAVOK 06/M01 Q1012 NOSIG",
      "taf": "TAF LUKK 230524Z 2306/2406 20009KT 9999 BKN040"
    },
    {
      "icao": "LWOH",
      "alert": "OK",
      "vis_m": 9999,
      "fzfg": false,
      "metar_trigger": false,
      "taf_trigger": false,
      "metar": "METAR LWOH 231050Z 14005KT 100V180 9999 FEW050 07/01 Q1020",
      "taf": ""
    },
    {
      "icao": "LWSK",
      "alert": "OK",
      "vis_m": 9999,
      "fzfg": false,
      "metar_trigger": false,
      "taf_trigger": false,
      "metar": "METAR LWSK 231050Z VRB02KT CAVOK 08/02 Q1021 NOSIG",
      "taf": ""
    },
    {
      "icao": "LYBE",
      "alert": "OK",
      "vis_m": 9999,
      "fzfg": false,
      "metar_trigger": false,
      "taf_trigger": false,
      "metar": "METAR LYBE 231100Z 22007KT CAVOK 13/04 Q1017 NOSIG",
      "taf": ""
    },
    {
      "icao": "LYNI",
      "alert": "OK",
      "vis_m": 9999,
      "fzfg": false,
      "metar_trigger": false,
      "taf_trigger": false,
      "metar": "METAR LYNI 231100Z VRB01KT 9999 BKN083 08/03 Q1019 NOSIG",
      "taf": ""
    },
    {
      "icao": "LYPG",
      "alert": "OK",
      "vis_m": 9999,
      "fzfg": false,
      "metar_trigger": false,
      "taf_trigger": false,
      "metar": "METAR LYPG 231100Z 14004KT 090V230 CAVOK 13/02 Q1021 NOSIG",
      "taf": ""
    },
    {
      "icao": "LZIB",
      "alert": "OK",
      "vis_m": 9999,
      "fzfg": false,
      "metar_trigger": false,
      "taf_trigger": false,
      "metar": "METAR LZIB 231100Z 29010KT 9999 -SHRA FEW025 BKN030 BKN038 13/08 Q1015 NOSIG",
      "taf": ""
    },
    {
      "icao": "LZKZ",
      "alert": "OK",
      "vis_m": 9999,
      "fzfg": false,
      "metar_trigger": false,
      "taf_trigger": false,
      "metar": "METAR LZKZ 231100Z VRB01KT 9999 BKN006 06/04 Q1013 NOSIG",
      "taf": ""
    },
    {
      "icao": "LZTT",
      "alert": "OK",
      "vis_m": 9999,
      "fzfg": false,
      "metar_trigger": false,
      "taf_trigger": false,
      "metar": "METAR LZTT 231100Z 27022KT 9999 SCT014 07/03 Q1011 NOSIG",
      "taf": ""
    },
    {
      "icao": "OEJN",
      "alert": "OK",
      "vis_m": 9999,
      "fzfg": false,
      "metar_trigger": false,
      "taf_trigger": false,
      "metar": "METAR OEJN 231100Z 28011KT 9999 FEW040 29/17 Q1009 NOSIG",
      "taf": ""
    },
    {
      "icao": "OEMA",
      "alert": "OK",
      "vis_m": 9999,
      "fzfg": false,
      "metar_trigger": false,
      "taf_trigger": false,
      "metar": "METAR OEMA 231100Z 21007KT CAVOK 29/05 Q1010 NOSIG",
      "taf": ""
    },
    {
      "icao": "OJAI",
      "alert": "OK",
      "vis_m": 5000,
      "fzfg": false,
      "metar_trigger": false,
      "taf_trigger": false,
      "metar": "METAR OJAI 231000Z 22008KT 5000 HZ FEW035 15/03 Q1014 NOSIG",
      "taf": ""
    },
    {
      "icao": "OMAA",
      "alert": "OK",
      "vis_m": 9999,
      "fzfg": false,
      "metar_trigger": false,
      "taf_trigger": false,
      "metar": "METAR OMAA 231100Z 30012KT 260V320 CAVOK 29/08 Q1009 NOSIG",
      "taf": "TAF OMAA 231100Z 2312/2418 33010KT 8000 NSC"
    },
    {
      "icao": "OMDB",
      "alert": "OK",
      "vis_m": 9999,
      "fzfg": false,
      "metar_trigger": false,
      "taf_trigger": false,
      "metar": "METAR OMDB 231100Z 31012KT CAVOK 29/11 Q1009 NOSIG",
      "taf": "TAF OMDB 231100Z 2312/2418 30010KT 8000 NSC"
    },
    {
      "icao": "UAAA",
      "alert": "OK",
      "vis_m": 9999,
      "fzfg": false,
      "metar_trigger": false,
      "taf_trigger": false,
      "metar": "METAR UAAA 231100Z 07002MPS 050V110 9999 -DZ OVC025 04/01 Q1019 NOSIG",
      "taf": ""
    },
    {
      "icao": "UBBB",
      "alert": "OK",
      "vis_m": 9999,
      "fzfg": false,
      "metar_trigger": false,
      "taf_trigger": false,
      "metar": "METAR UBBB 231100Z 33014KT 9999 BKN013 OVC045 07/04 Q1015 NOSIG",
      "taf": "TAF UBBB 231055Z 2312/2412 32014KT 9999 BKN012 BKN030 TX07/2312Z TN05/2401Z"
    },
    {
      "icao": "UDSG",
      "alert": "OK",
      "vis_m": 9999,
      "fzfg": false,
      "metar_trigger": false,
      "taf_trigger": false,
      "metar": "METAR UDSG 231100Z 34006KT 9999 SCT043 07/M03 Q1013 NOSIG",
      "taf": ""
    },
    {
      "icao": "UDYZ",
      "alert": "OK",
      "vis_m": 9999,
      "fzfg": false,
      "metar_trigger": false,
      "taf_trigger": false,
      "metar": "METAR UDYZ 231100Z 27005KT 250V330 9999 SCT043CB 14/M00 Q1010 NOSIG",
      "taf": ""
    },
    {
      "icao": "UGKO",
      "alert": "OK",
      "vis_m": 9999,
      "fzfg": false,
      "metar_trigger": false,
      "taf_trigger": false,
      "metar": "METAR UGKO 231100Z 27009KT 9999 SCT013 BKN036 OVC041 09/06 Q1018 NOSIG",
      "taf": "TAF UGKO 231100Z 2312/2412 26007KT 9000 SCT030 OVC045 TX13/2411Z TN04/2403Z"
    }
  ]
}