{
  "ts_utc": "2026-01-08T21:30:25Z",
  "threshold_m": 150,
  "source": "stations_override.txt (ICAO list) + aviationweather.gov (METAR/TAF raw)",
  "station_count": 159,
  "stations": [
    {
      "icao": "BIKF",
      "alert": "OK",
      "vis_m": 9999,
      "fzfg": false,
      "metar_trigger": false,
      "taf_trigger": false,
      "metar": "METAR BIKF 082100Z 03017KT CAVOK 00/M07 Q1003",
      "taf": "TAF BIKF 081928Z 0821/0921 05015KT 9999 FEW045 TXM01/0821Z TNM05/0910Z"
    },
    {
      "icao": "BKPR",
      "alert": "OK",
      "vis_m": null,
      "fzfg": false,
      "metar_trigger": false,
      "taf_trigger": false,
      "metar": "",
      "taf": "TAF BKPR 081730Z 0818/0918 VRB05KT 9999 SCT080"
    },
    {
      "icao": "EBCI",
      "alert": "OK",
      "vis_m": 7000,
      "fzfg": false,
      "metar_trigger": false,
      "taf_trigger": false,
      "metar": "METAR EBCI 082120Z 17010KT 7000 -RADZ SCT005 BKN008 05/04 Q0991 TEMPO 15015G25KT 3000 RA BKN004",
      "taf": "TAF EBCI 081715Z 0818/0924 15010KT 7000 SCT006 BKN016"
    },
    {
      "icao": "EDDB",
      "alert": "OK",
      "vis_m": 9999,
      "fzfg": false,
      "metar_trigger": false,
      "taf_trigger": false,
      "metar": "METAR EDDB 082120Z AUTO 12009KT 9999 SCT021 OVC025 M04/M07 Q1008 NOSIG",
      "taf": "TAF EDDB 081700Z 0818/0918 11009KT 9999 SCT015 BKN025"
    },
    {
      "icao": "EDDH",
      "alert": "OK",
      "vis_m": 9000,
      "fzfg": false,
      "metar_trigger": false,
      "taf_trigger": false,
      "metar": "METAR EDDH 082120Z AUTO 11007KT 9000 BKN007 OVC017 M01/M02 Q1004 BECMG 10013KT SCT007",
      "taf": "TAF EDDH 081700Z 0818/0924 14008KT 3000 -SN OVC004"
    },
    {
      "icao": "EDDK",
      "alert": "OK",
      "vis_m": 9999,
      "fzfg": false,
      "metar_trigger": false,
      "taf_trigger": false,
      "metar": "METAR EDDK 082120Z AUTO 12010KT 080V150 9999 -SHRA FEW011 BKN038 FEW///TCU 02/01 Q0998 RESHRA TEMPO RA",
      "taf": "TAF EDDK 081700Z 0818/0924 13011KT 9999 BKN020"
    },
    {
      "icao": "EDDN",
      "alert": "OK",
      "vis_m": 5000,
      "fzfg": false,
      "metar_trigger": false,
      "taf_trigger": false,
      "metar": "METAR EDDN 082120Z AUTO 13010KT 5000 -SN BR FEW009 BKN028 M00/M02 Q1005",
      "taf": "TAF EDDN 081700Z 0818/0918 14006KT 9999 BKN015"
    },
    {
      "icao": "EDDS",
      "alert": "OK",
      "vis_m": 9000,
      "fzfg": false,
      "metar_trigger": false,
      "taf_trigger": false,
      "metar": "METAR EDDS 082120Z AUTO 12003KT 9000 -SHRA FEW027 BKN042 OVC049 FEW///TCU 02/01 Q1002 RESHRA",
      "taf": "TAF EDDS 081700Z 0818/0918 15004KT 9999 BKN015"
    },
    {
      "icao": "EDFH",
      "alert": "OK",
      "vis_m": 9999,
      "fzfg": false,
      "metar_trigger": false,
      "taf_trigger": false,
      "metar": "METAR EDFH 082120Z 14015KT 9999 -RA BKN003 BKN018 OVC023 01/01 Q0997",
      "taf": "TAF EDFH 081700Z 0818/0918 17010KT 3000 BR BKN002"
    },
    {
      "icao": "EDJA",
      "alert": "OK",
      "vis_m": 8000,
      "fzfg": false,
      "metar_trigger": false,
      "taf_trigger": false,
      "metar": "METAR EDJA 082120Z 20007KT 8000 -SN FEW003 BKN005 OVC022 00/M00 Q1004",
      "taf": "TAF EDJA 081700Z 0818/0903 23015G25KT 9999 SCT007 BKN015"
    },
    {
      "icao": "EDLW",
      "alert": "OK",
      "vis_m": 9999,
      "fzfg": false,
      "metar_trigger": false,
      "taf_trigger": false,
      "metar": "METAR EDLW 082120Z AUTO 12005KT 9999 R24///// // FEW031/// SCT042/// OVC050/// 02/00 Q0998",
      "taf": "TAF EDLW 081700Z 0818/0918 14007KT 9999 BKN025"
    },
    {
      "icao": "EDNY",
      "alert": "OK",
      "vis_m": 9999,
      "fzfg": false,
      "metar_trigger": false,
      "taf_trigger": false,
      "metar": "METAR EDNY 082120Z AUTO VRB02KT 9999 // FEW018/// BKN029/// OVC035/// 01/01 Q1005",
      "taf": "TAF EDNY 081700Z 0818/0903 VRB03KT 9999 OVC015"
    },
    {
      "icao": "EDSB",
      "alert": "OK",
      "vis_m": 9999,
      "fzfg": false,
      "metar_trigger": false,
      "taf_trigger": false,
      "metar": "METAR EDSB 082120Z 18016KT 9999 RA BKN037 OVC044 06/05 Q1002",
      "taf": "TAF EDSB 081700Z 0818/0918 20010KT 9999 BKN020"
    },
    {
      "icao": "EETN",
      "alert": "OK",
      "vis_m": 9999,
      "fzfg": false,
      "metar_trigger": false,
      "taf_trigger": false,
      "metar": "METAR EETN 082120Z 09014KT 9999 -SN OVC018 M06/M09 Q1020 NOSIG",
      "taf": "TAF EETN 081730Z 0818/0918 09012KT 9999 BKN015"
    },
    {
      "icao": "EFTU",
      "alert": "OK",
      "vis_m": 9999,
      "fzfg": false,
      "metar_trigger": false,
      "taf_trigger": false,
      "metar": "METAR EFTU 082120Z AUTO 09005KT 9999 FEW007 M17/M19 Q1023",
      "taf": "TAF EFTU 082025Z 0821/0921 10005KT 9999 SCT006"
    },
    {
      "icao": "EGBB",
      "alert": "OK",
      "vis_m": 2500,
      "fzfg": false,
      "metar_trigger": false,
      "taf_trigger": false,
      "metar": "METAR EGBB 082120Z 03013KT 2500 RASN OVC004 00/00 Q0982 RESN",
      "taf": ""
    },
    {
      "icao": "EGGP",
      "alert": "OK",
      "vis_m": 6000,
      "fzfg": false,
      "metar_trigger": false,
      "taf_trigger": false,
      "metar": "METAR EGGP 082120Z 03013KT 6000 -RADZ OVC008 01/M01 Q0990",
      "taf": "TAF EGGP 081700Z 0818/0918 06012KT 9999 FEW010"
    },
    {
      "icao": "EGGW",
      "alert": "OK",
      "vis_m": 7000,
      "fzfg": false,
      "metar_trigger": false,
      "taf_trigger": false,
      "metar": "METAR EGGW 082120Z AUTO 11014KT 7000 -RA OVC003 04/03 Q0980",
      "taf": ""
    },
    {
      "icao": "EGKK",
      "alert": "OK",
      "vis_m": 9999,
      "fzfg": false,
      "metar_trigger": false,
      "taf_trigger": false,
      "metar": "METAR EGKK 082120Z 20012KT 160V230 9999 -RA FEW016 BKN032 08/07 Q0980",
      "taf": "TAF EGKK 081704Z 0818/0924 10011KT 9999 SCT010 BKN020"
    },
    {
      "icao": "EGNM",
      "alert": "OK",
      "vis_m": 3000,
      "fzfg": false,
      "metar_trigger": false,
      "taf_trigger": false,
      "metar": "METAR EGNM 082120Z 03010KT 3000 -RA BR BKN002 01/00 Q0990",
      "taf": "TAF EGNM 081659Z 0818/0918 VRB04KT 9999 FEW010"
    },
    {
      "icao": "EGPD",
      "alert": "OK",
      "vis_m": 9999,
      "fzfg": false,
      "metar_trigger": false,
      "taf_trigger": false,
      "metar": "METAR EGPD 082120Z COR VRB01KT CAVOK M07/M08 Q0997 NOSIG",
      "taf": "TAF EGPD 081656Z 0818/0918 VRB03KT 9999 SCT020"
    },
    {
      "icao": "EGPF",
      "alert": "OK",
      "vis_m": 4700,
      "fzfg": false,
      "metar_trigger": false,
      "taf_trigger": false,
      "metar": "METAR EGPF 082120Z VRB01KT 4700 -RADZ BKN011 OVC026 01/00 Q0996",
      "taf": "TAF EGPF 081659Z 0818/0918 VRB03KT 9999 SCT025"
    },
    {
      "icao": "EHBK",
      "alert": "OK",
      "vis_m": 9999,
      "fzfg": false,
      "metar_trigger": false,
      "taf_trigger": false,
      "metar": "METAR EHBK 082125Z AUTO 12010KT 9999 -RA FEW017 BKN022 BKN038 03/02 Q0994 REDZRA NOSIG",
      "taf": "TAF EHBK 081721Z 0818/0924 15008KT 9999 -RA OVC014"
    },
    {
      "icao": "EHEH",
      "alert": "OK",
      "vis_m": 8000,
      "fzfg": false,
      "metar_trigger": false,
      "taf_trigger": false,
      "metar": "METAR EHEH 082055Z AUTO 12006KT 030V160 8000 -SHRA SCT004 OVC005 03/02 Q0995 YLO TEMPO 4000 RADZ SCT004 BKN006 RMK TREND REMOTE BY EHWX",
      "taf": ""
    },
    {
      "icao": "EKBI",
      "alert": "OK",
      "vis_m": 8000,
      "fzfg": false,
      "metar_trigger": false,
      "taf_trigger": false,
      "metar": "METAR EKBI 082120Z AUTO 11011KT 8000 OVC008/// M02/M03 Q1005",
      "taf": "TAF EKBI 082027Z 0821/0921 11008KT 6000 BKN006"
    },
    {
      "icao": "EKCH",
      "alert": "OK",
      "vis_m": 9999,
      "fzfg": false,
      "metar_trigger": false,
      "taf_trigger": false,
      "metar": "METAR EKCH 082120Z AUTO 12017KT 9999 BKN019/// M01/M05 Q1010 NOSIG",
      "taf": "TAF EKCH 082027Z 0821/0921 12015KT 9999 BKN022"
    },
    {
      "icao": "ENAL",
      "alert": "OK",
      "vis_m": 9999,
      "fzfg": false,
      "metar_trigger": false,
      "taf_trigger": false,
      "metar": "METAR ENAL 082120Z 18009KT 9999 VCSH SCT006 BKN020 M02/M04 Q1006",
      "taf": "TAF ENAL 082000Z 0821/0906 20010KT 9999 -SN SCT010 BKN020"
    },
    {
      "icao": "ENBR",
      "alert": "OK",
      "vis_m": 9999,
      "fzfg": false,
      "metar_trigger": false,
      "taf_trigger": false,
      "metar": "METAR ENBR 082120Z 11001KT CAVOK M08/M13 Q1006 RMK WIND 1200FT 12014KT",
      "taf": "TAF ENBR 081700Z 0818/0918 08005KT CAVOK"
    },
    {
      "icao": "ENGM",
      "alert": "OK",
      "vis_m": 9999,
      "fzfg": false,
      "metar_trigger": false,
      "taf_trigger": false,
      "metar": "METAR ENGM 082120Z 34005KT 9999 -SN BKN013 M16/M18 Q1011 NOSIG",
      "taf": ""
    },
    {
      "icao": "ENHD",
      "alert": "OK",
      "vis_m": 9999,
      "fzfg": false,
      "metar_trigger": false,
      "taf_trigger": false,
      "metar": "METAR ENHD 082120Z AUTO 09011KT 9999 NCD M02/M11 Q1005",
      "taf": "TAF ENHD 081400Z 0815/0823 09007KT CAVOK"
    },
    {
      "icao": "ENTC",
      "alert": "OK",
      "vis_m": 9999,
      "fzfg": false,
      "metar_trigger": false,
      "taf_trigger": false,
      "metar": "METAR ENTC 082120Z 17006KT CAVOK M10/M16 Q1023 NOSIG RMK WIND 2600FT 18021KT",
      "taf": "TAF ENTC 081700Z 0818/0918 VRB03KT CAVOK"
    },
    {
      "icao": "ENTO",
      "alert": "OK",
      "vis_m": 1000,
      "fzfg": false,
      "metar_trigger": false,
      "taf_trigger": false,
      "metar": "METAR ENTO 082120Z 01011KT 1000 R18/P2000N R36/P2000N SN VV009 M09/M12 Q1010 TEMPO 5000 -SN BKN012",
      "taf": "TAF ENTO 081700Z 0818/0918 35010KT 9999 BKN015"
    },
    {
      "icao": "ENVA",
      "alert": "OK",
      "vis_m": 9999,
      "fzfg": false,
      "metar_trigger": false,
      "taf_trigger": false,
      "metar": "METAR ENVA 082120Z 15015KT 9999 BKN050 M05/M11 Q1006 RMK WIND 670FT 17018KT",
      "taf": "TAF ENVA 081700Z 0818/0918 14010KT 9999 SCT050"
    },
    {
      "icao": "ENZV",
      "alert": "OK",
      "vis_m": 9999,
      "fzfg": false,
      "metar_trigger": false,
      "taf_trigger": false,
      "metar": "METAR ENZV 082120Z 13010KT CAVOK 00/M04 Q1005",
      "taf": "TAF ENZV 081700Z 0818/0918 10008KT CAVOK"
    },
    {
      "icao": "EPGD",
      "alert": "OK",
      "vis_m": 9999,
      "fzfg": false,
      "metar_trigger": false,
      "taf_trigger": false,
      "metar": "METAR EPGD 082100Z 05007KT 9999 BKN007 M05/M05 Q1011",
      "taf": ""
    },
    {
      "icao": "EPKK",
      "alert": "OK",
      "vis_m": 9999,
      "fzfg": false,
      "metar_trigger": false,
      "taf_trigger": false,
      "metar": "METAR EPKK 082100Z 26010KT 9999 BKN011 M05/M08 Q1009",
      "taf": "TAF EPKK 082030Z 0821/0921 26010KT 9999 BKN020"
    },
    {
      "icao": "EPKT",
      "alert": "OK",
      "vis_m": 9999,
      "fzfg": false,
      "metar_trigger": false,
      "taf_trigger": false,
      "metar": "METAR EPKT 082100Z 31005KT 9999 OVC006 M07/M08 Q1008",
      "taf": "TAF EPKT 081730Z 0818/0918 32004KT 7000 OVC005"
    },
    {
      "icao": "EPLB",
      "alert": "OK",
      "vis_m": 9000,
      "fzfg": false,
      "metar_trigger": false,
      "taf_trigger": false,
      "metar": "METAR EPLB 082100Z 31012KT 9000 -SN DRSN OVC010 M08/M09 Q1004",
      "taf": ""
    },
    {
      "icao": "EPMO",
      "alert": "OK",
      "vis_m": 7000,
      "fzfg": false,
      "metar_trigger": false,
      "taf_trigger": false,
      "metar": "METAR EPMO 082100Z 33008KT 7000 OVC007 M08/M08 Q1009",
      "taf": ""
    },
    {
      "icao": "EPPO",
      "alert": "OK",
      "vis_m": 3100,
      "fzfg": false,
      "metar_trigger": false,
      "taf_trigger": false,
      "metar": "METAR EPPO 082100Z 03003KT 3100 BR SCT003 M12/M13 Q1012",
      "taf": "TAF EPPO 081730Z 0818/0918 07003KT 3300 BR OVC005"
    },
    {
      "icao": "EPRA",
      "alert": "OK",
      "vis_m": 8000,
      "fzfg": false,
      "metar_trigger": false,
      "taf_trigger": false,
      "metar": "METAR EPRA 082100Z 33011KT 8000 OVC006 M08/M10 Q1007",
      "taf": "TAF EPRA 082030Z 0821/0906 33010KT 6000 OVC006"
    },
    {
      "icao": "EPRZ",
      "alert": "OK",
      "vis_m": 9999,
      "fzfg": false,
      "metar_trigger": false,
      "taf_trigger": false,
      "metar": "METAR EPRZ 082100Z 29009KT 250V330 9999 -SN OVC011 M06/M08 Q1006",
      "taf": "TAF EPRZ 081730Z 0818/0918 31012KT 3000 -SN BR FEW010 BKN015"
    },
    {
      "icao": "EPSC",
      "alert": "OK",
      "vis_m": 5000,
      "fzfg": false,
      "metar_trigger": false,
      "taf_trigger": false,
      "metar": "METAR EPSC 082100Z 12008KT 5000 BR OVC003 M09/M10 Q1011",
      "taf": ""
    },
    {
      "icao": "EPSY",
      "alert": "OK",
      "vis_m": 9999,
      "fzfg": false,
      "metar_trigger": false,
      "taf_trigger": false,
      "metar": "METAR EPSY 082100Z 36008KT 9999 OVC005 M09/M10 Q1010",
      "taf": "TAF EPSY 082030Z 0821/0906 01010KT 8000 OVC005"
    },
    {
      "icao": "EPWA",
      "alert": "OK",
      "vis_m": 9999,
      "fzfg": false,
      "metar_trigger": false,
      "taf_trigger": false,
      "metar": "METAR EPWA 082100Z 33010KT 9999 OVC009 M08/M09 Q1008 NOSIG",
      "taf": "TAF EPWA 082030Z 0821/0921 34008KT 6000 BKN007 OVC012"
    },
    {
      "icao": "EPWR",
      "alert": "OK",
      "vis_m": 4000,
      "fzfg": false,
      "metar_trigger": false,
      "taf_trigger": false,
      "metar": "METAR EPWR 082100Z 08002KT 4000 BR NSC M10/M11 Q1011",
      "taf": ""
    },
    {
      "icao": "ESGG",
      "alert": "OK",
      "vis_m": 9999,
      "fzfg": false,
      "metar_trigger": false,
      "taf_trigger": false,
      "metar": "METAR ESGG 082120Z 11005KT CAVOK M07/M08 Q1011",
      "taf": "TAF ESGG 082030Z 0821/0921 13007KT CAVOK"
    },
    {
      "icao": "ESKN",
      "alert": "OK",
      "vis_m": 9999,
      "fzfg": false,
      "metar_trigger": false,
      "taf_trigger": false,
      "metar": "METAR ESKN 082120Z VRB02KT 9999 OVC043 M04/M05 Q1016",
      "taf": "TAF ESKN 082030Z 0821/0921 VRB03KT 9999 BKN030"
    },
    {
      "icao": "ESMS",
      "alert": "OK",
      "vis_m": 9999,
      "fzfg": false,
      "metar_trigger": false,
      "taf_trigger": false,
      "metar": "METAR ESMS 082120Z 12011KT 9999 BKN022 M01/M05 Q1010",
      "taf": "TAF ESMS 082027Z 0821/0921 10009KT 9999 BKN020"
    },
    {
      "icao": "ESSA",
      "alert": "OK",
      "vis_m": 9999,
      "fzfg": false,
      "metar_trigger": false,
      "taf_trigger": false,
      "metar": "METAR ESSA 082120Z 10006KT CAVOK M03/M04 Q1016 NOSIG",
      "taf": ""
    },
    {
      "icao": "EYKA",
      "alert": "OK",
      "vis_m": 9999,
      "fzfg": false,
      "metar_trigger": false,
      "taf_trigger": false,
      "metar": "METAR EYKA 082120Z 36010KT 340V040 CAVOK M09/M12 Q1010",
      "taf": "TAF EYKA 081725Z 0818/0918 02010KT 9000 SCT010"
    },
    {
      "icao": "EYPA",
      "alert": "OK",
      "vis_m": 9999,
      "fzfg": false,
      "metar_trigger": false,
      "taf_trigger": false,
      "metar": "METAR EYPA 082120Z 04008KT CAVOK M10/M11 Q1015",
      "taf": ""
    },
    {
      "icao": "EYVI",
      "alert": "OK",
      "vis_m": 9999,
      "fzfg": false,
      "metar_trigger": false,
      "taf_trigger": false,
      "metar": "METAR EYVI 082120Z 01016KT CAVOK M10/M13 Q1006 NOSIG",
      "taf": ""
    },
    {
      "icao": "GCFV",
      "alert": "OK",
      "vis_m": 9999,
      "fzfg": false,
      "metar_trigger": false,
      "taf_trigger": false,
      "metar": "METAR GCFV 082100Z 29006KT 9999 FEW035 14/09 Q1030",
      "taf": "TAF GCFV 082000Z 0821/0921 34005KT 9999 FEW030 TX20/0914Z TN14/0906Z"
    },
    {
      "icao": "GCLP",
      "alert": "OK",
      "vis_m": 9999,
      "fzfg": false,
      "metar_trigger": false,
      "taf_trigger": false,
      "metar": "METAR GCLP 082100Z 35007KT 9999 FEW035 17/10 Q1030 NOSIG",
      "taf": "TAF GCLP 082000Z 0821/0921 33008KT 9999 SCT035 TX20/0914Z TN14/0906Z"
    },
    {
      "icao": "GCTS",
      "alert": "OK",
      "vis_m": 9999,
      "fzfg": false,
      "metar_trigger": false,
      "taf_trigger": false,
      "metar": "METAR GCTS 082100Z 07013KT 9999 FEW030 17/12 Q1030 NOSIG",
      "taf": "TAF GCTS 082000Z 0821/0921 07015KT 9999 FEW030 TX22/0914Z TN15/0906Z"
    },
    {
      "icao": "GMAD",
      "alert": "OK",
      "vis_m": 9999,
      "fzfg": false,
      "metar_trigger": false,
      "taf_trigger": false,
      "metar": "METAR GMAD 082100Z 18008KT CAVOK 11/09 Q1030 NOSIG",
      "taf": "TAF GMAD 081700Z 0818/0924 18006KT CAVOK"
    },
    {
      "icao": "GMMN",
      "alert": "OK",
      "vis_m": 8000,
      "fzfg": false,
      "metar_trigger": false,
      "taf_trigger": false,
      "metar": "METAR GMMN 082059Z VRB02KT 8000 NSC 09/08 Q1032 NOSIG",
      "taf": "TAF GMMN 081700Z 0818/0924 02008KT CAVOK"
    },
    {
      "icao": "GMMX",
      "alert": "OK",
      "vis_m": 9999,
      "fzfg": false,
      "metar_trigger": false,
      "taf_trigger": false,
      "metar": "METAR GMMX 082100Z 09004KT CAVOK 10/06 Q1031 NOSIG",
      "taf": "TAF GMMX 081700Z 0818/0924 06006KT 8000 NSC"
    },
    {
      "icao": "HEGN",
      "alert": "OK",
      "vis_m": 9999,
      "fzfg": false,
      "metar_trigger": false,
      "taf_trigger": false,
      "metar": "METAR HEGN 082100Z 26003KT CAVOK 18/11 Q1016 NOSIG",
      "taf": "TAF HEGN 081700Z 0818/0924 24008KT CAVOK"
    },
    {
      "icao": "HEMA",
      "alert": "OK",
      "vis_m": 9999,
      "fzfg": false,
      "metar_trigger": false,
      "taf_trigger": false,
      "metar": "METAR HEMA 082100Z 28002KT CAVOK 19/17 Q1016 NOSIG",
      "taf": "TAF HEMA 081700Z 0818/0924 30009KT 6000 NSC"
    },
    {
      "icao": "HESH",
      "alert": "OK",
      "vis_m": 9999,
      "fzfg": false,
      "metar_trigger": false,
      "taf_trigger": false,
      "metar": "METAR HESH 082100Z 00000KT CAVOK 21/14 Q1016 NOSIG",
      "taf": "TAF HESH 081700Z 0818/0924 27007KT CAVOK"
    },
    {
      "icao": "HESX",
      "alert": "OK",
      "vis_m": 9999,
      "fzfg": false,
      "metar_trigger": false,
      "taf_trigger": false,
      "metar": "METAR HESX 082100Z 24007KT CAVOK 16/05 Q1017 NOSIG",
      "taf": "TAF HESX 081700Z 0818/0924 27008KT 6000 SCT025"
    },
    {
      "icao": "LATI",
      "alert": "OK",
      "vis_m": 9999,
      "fzfg": false,
      "metar_trigger": false,
      "taf_trigger": false,
      "metar": "METAR LATI 082120Z 17003KT 140V260 CAVOK 01/M02 Q1015 NOSIG",
      "taf": "TAF LATI 081700Z 0818/0918 VRB05KT 9999 SCT050 BKN070 TX11/0918Z TN01/0902Z"
    },
    {
      "icao": "LBPD",
      "alert": "OK",
      "vis_m": 9999,
      "fzfg": false,
      "metar_trigger": false,
      "taf_trigger": false,
      "metar": "METAR LBPD 082100Z AUTO 29024KT 9999 NCD M01/M07 Q1007",
      "taf": "TAF LBPD 081700Z 0818/0918 29020G30KT 9999 SCT050"
    },
    {
      "icao": "LBSF",
      "alert": "OK",
      "vis_m": 9999,
      "fzfg": false,
      "metar_trigger": false,
      "taf_trigger": false,
      "metar": "METAR LBSF 082100Z AUTO 28020G30KT 9999 BKN039/// M05/M11 Q1009 TEMPO 29022G34KT",
      "taf": ""
    },
    {
      "icao": "LBWN",
      "alert": "OK",
      "vis_m": 9000,
      "fzfg": false,
      "metar_trigger": false,
      "taf_trigger": false,
      "metar": "METAR LBWN 082100Z AUTO 28030KT 9000 -SHSN FEW026/// M02/M06 Q1003 TEMPO 28025G35KT",
      "taf": "TAF LBWN 081700Z 0818/0918 28030G40KT 9999 BKN020 OVC040"
    },
    {
      "icao": "LCLK",
      "alert": "OK",
      "vis_m": 9999,
      "fzfg": false,
      "metar_trigger": false,
      "taf_trigger": false,
      "metar": "METAR LCLK 082100Z 23011KT 9999 SCT012 SCT040 19/17 Q1008 TEMPO BKN009",
      "taf": "TAF LCLK 081730Z 0818/0918 22009KT 9999 FEW025"
    },
    {
      "icao": "LCPH",
      "alert": "OK",
      "vis_m": 4000,
      "fzfg": false,
      "metar_trigger": false,
      "taf_trigger": false,
      "metar": "METAR LCPH 082100Z 31027KT 4000 R29/1100 R11/P2000 RA SCT008 BKN012 BKN030 16/14 Q1011 TEMPO 3000 RA BKN005",
      "taf": "TAF LCPH 081730Z 0818/0918 09007KT 9999 SCT020 BKN035"
    },
    {
      "icao": "LEAL",
      "alert": "OK",
      "vis_m": 9999,
      "fzfg": false,
      "metar_trigger": false,
      "taf_trigger": false,
      "metar": "METAR LEAL 082100Z 28012KT 250V310 CAVOK 12/04 Q1025 NOSIG",
      "taf": "TAF LEAL 081700Z 0818/0918 27015KT CAVOK TX18/0914Z TN10/0906Z"
    },
    {
      "icao": "LEBB",
      "alert": "OK",
      "vis_m": 9999,
      "fzfg": false,
      "metar_trigger": false,
      "taf_trigger": false,
      "metar": "METAR LEBB 082100Z 23019G31KT 180V270 9999 -RA FEW050 SCT070 16/07 Q1016 WS ALL RWY NOSIG",
      "taf": ""
    },
    {
      "icao": "LEBL",
      "alert": "OK",
      "vis_m": 9999,
      "fzfg": false,
      "metar_trigger": false,
      "taf_trigger": false,
      "metar": "METAR LEBL 082100Z 27008KT 9999 FEW025 13/04 Q1018 NOSIG",
      "taf": "TAF LEBL 081700Z 0818/0918 33009KT 9999 FEW020 TX16/0913Z TN09/0906Z"
    },
    {
      "icao": "LECH",
      "alert": "OK",
      "vis_m": 9999,
      "fzfg": false,
      "metar_trigger": false,
      "taf_trigger": false,
      "metar": "METAR LECH 082100Z AUTO VRB01KT CAVOK 10/05 Q1020",
      "taf": ""
    },
    {
      "icao": "LEMD",
      "alert": "OK",
      "vis_m": 9999,
      "fzfg": false,
      "metar_trigger": false,
      "taf_trigger": false,
      "metar": "METAR LEMD 082100Z 21008KT 170V240 9999 OVC010 05/03 Q1026 NOSIG",
      "taf": "TAF LEMD 081700Z 0818/0924 23010KT 6000 BKN005 TX11/0915Z TN05/0906Z"
    },
    {
      "icao": "LEMG",
      "alert": "OK",
      "vis_m": 9999,
      "fzfg": false,
      "metar_trigger": false,
      "taf_trigger": false,
      "metar": "METAR LEMG 082100Z 29019KT CAVOK 11/06 Q1030 NOSIG",
      "taf": "TAF LEMG 081700Z 0818/0918 29012KT CAVOK TX18/0914Z TN08/0906Z"
    },
    {
      "icao": "LEVC",
      "alert": "OK",
      "vis_m": 9999,
      "fzfg": false,
      "metar_trigger": false,
      "taf_trigger": false,
      "metar": "METAR LEVC 082100Z 27018KT CAVOK 10/02 Q1024 NOSIG",
      "taf": ""
    },
    {
      "icao": "LEXJ",
      "alert": "OK",
      "vis_m": 5000,
      "fzfg": false,
      "metar_trigger": false,
      "taf_trigger": false,
      "metar": "SPECI LEXJ 082105Z 33007KT 260V020 5000 RA BKN048 13/07 Q1017",
      "taf": "TAF LEXJ 082000Z 0821/0921 24009KT 9999 FEW020 SCT030 TX15/0821Z TN08/0912Z"
    },
    {
      "icao": "LEZG",
      "alert": "OK",
      "vis_m": 9999,
      "fzfg": false,
      "metar_trigger": false,
      "taf_trigger": false,
      "metar": "METAR LEZG 082100Z 23019G29KT CAVOK 10/03 Q1020 NOSIG",
      "taf": "TAF LEZG 081700Z 0818/0918 24020KT CAVOK TX14/0915Z TN05/0906Z"
    },
    {
      "icao": "LEZL",
      "alert": "OK",
      "vis_m": 9999,
      "fzfg": false,
      "metar_trigger": false,
      "taf_trigger": false,
      "metar": "METAR LEZL 082100Z 18002KT 9999 BKN025 09/08 Q1032 NOSIG",
      "taf": "TAF LEZL 082000Z 0821/0921 VRB03KT 9999 SCT020 TX16/0915Z TN09/0907Z"
    },
    {
      "icao": "LFBD",
      "alert": "OK",
      "vis_m": 9999,
      "fzfg": false,
      "metar_trigger": false,
      "taf_trigger": false,
      "metar": "METAR LFBD 082100Z AUTO 23018KT 9999 -RA SCT041/// BKN048/// OVC060/// ///CB 11/08 Q1009 TEMPO 28030G55KT 2000 TSRA BKN010 BKN015CB",
      "taf": ""
    },
    {
      "icao": "LFLL",
      "alert": "OK",
      "vis_m": 9999,
      "fzfg": false,
      "metar_trigger": false,
      "taf_trigger": false,
      "metar": "METAR LFLL 082100Z 18016KT 9999 BKN045 08/04 Q1010 NOSIG",
      "taf": "TAF LFLL 081700Z 0818/0924 18015G25KT 9999 BKN045"
    },
    {
      "icao": "LFLS",
      "alert": "OK",
      "vis_m": 9999,
      "fzfg": false,
      "metar_trigger": false,
      "taf_trigger": false,
      "metar": "METAR LFLS 082100Z AUTO 06008KT 9999 BKN048 OVC054 03/03 Q1011",
      "taf": ""
    },
    {
      "icao": "LFMN",
      "alert": "OK",
      "vis_m": 9999,
      "fzfg": false,
      "metar_trigger": false,
      "taf_trigger": false,
      "metar": "METAR LFMN 082112Z COR 34006KT 300V040 CAVOK 07/02 Q1011 WS R04 NOSIG",
      "taf": "TAF LFMN 082000Z 0821/1003 33010KT CAVOK"
    },
    {
      "icao": "LFOB",
      "alert": "OK",
      "vis_m": 9999,
      "fzfg": false,
      "metar_trigger": false,
      "taf_trigger": false,
      "metar": "METAR LFOB 082100Z AUTO 19016KT 9999 3000 RA BKN009 OVC016 09/09 Q0990 TEMPO 22030G50KT 4000 SHRA BKN012TCU",
      "taf": ""
    },
    {
      "icao": "LFPO",
      "alert": "OK",
      "vis_m": 9999,
      "fzfg": false,
      "metar_trigger": false,
      "taf_trigger": false,
      "metar": "METAR LFPO 082100Z 20020KT 9999 -RA BKN011 10/09 Q0993 BECMG 21020G40KT",
      "taf": ""
    },
    {
      "icao": "LFSB",
      "alert": "OK",
      "vis_m": 5000,
      "fzfg": false,
      "metar_trigger": false,
      "taf_trigger": false,
      "metar": "METAR LFSB 082100Z AUTO 12005KT 5000 -RA BR FEW029/// BKN036/// OVC043/// ///TCU 03/03 Q1005 TEMPO BKN014",
      "taf": ""
    },
    {
      "icao": "LGAV",
      "alert": "OK",
      "vis_m": 9999,
      "fzfg": false,
      "metar_trigger": false,
      "taf_trigger": false,
      "metar": "METAR LGAV 082120Z 29013KT 250V320 9999 FEW025 10/M02 Q1011 NOSIG",
      "taf": "TAF LGAV 081700Z 0818/0918 28020KT 9999 FEW025"
    },
    {
      "icao": "LGTS",
      "alert": "OK",
      "vis_m": 9999,
      "fzfg": false,
      "metar_trigger": false,
      "taf_trigger": false,
      "metar": "METAR LGTS 082120Z 33025G35KT 9999 FEW025 05/M05 Q1010 NOSIG",
      "taf": ""
    },
    {
      "icao": "LHBP",
      "alert": "OK",
      "vis_m": 9999,
      "fzfg": false,
      "metar_trigger": false,
      "taf_trigger": false,
      "metar": "METAR LHBP 082100Z 33006KT CAVOK M06/M10 Q1009 NOSIG",
      "taf": "TAF LHBP 081715Z 0818/0918 30012KT CAVOK"
    },
    {
      "icao": "LHDC",
      "alert": "OK",
      "vis_m": 8000,
      "fzfg": false,
      "metar_trigger": false,
      "taf_trigger": false,
      "metar": "METAR LHDC 082045Z AUTO 21004KT 8000 NSC M08/M09 Q1009",
      "taf": "TAF LHDC 081415Z 0815/0824 25005KT 7000 NSC"
    },
    {
      "icao": "LIBD",
      "alert": "OK",
      "vis_m": 9999,
      "fzfg": false,
      "metar_trigger": false,
      "taf_trigger": false,
      "metar": "METAR LIBD 082120Z 20006KT CAVOK 00/M03 Q1016",
      "taf": "TAF LIBD 081700Z 0818/0918 28012KT 9999 FEW020"
    },
    {
      "icao": "LIBG",
      "alert": "OK",
      "vis_m": null,
      "fzfg": false,
      "metar_trigger": false,
      "taf_trigger": false,
      "metar": "",
      "taf": "TAF LIBG 081700Z 0818/0903 32008KT 9999 FEW040"
    },
    {
      "icao": "LIBP",
      "alert": "OK",
      "vis_m": 9999,
      "fzfg": false,
      "metar_trigger": false,
      "taf_trigger": false,
      "metar": "METAR LIBP 082120Z AUTO 22004KT 9999 NCD M00/M02 Q1014",
      "taf": "TAF LIBP 081700Z 0818/0918 VRB05KT 9999 FEW030"
    },
    {
      "icao": "LIBR",
      "alert": "OK",
      "vis_m": 9999,
      "fzfg": false,
      "metar_trigger": false,
      "taf_trigger": false,
      "metar": "METAR LIBR 082120Z 27010KT CAVOK 05/M01 Q1017",
      "taf": "TAF LIBR 081700Z 0818/0918 30018KT 9999 FEW040"
    },
    {
      "icao": "LICA",
      "alert": "OK",
      "vis_m": 9999,
      "fzfg": false,
      "metar_trigger": false,
      "taf_trigger": false,
      "metar": "METAR LICA 082120Z AUTO 25014KT 9999 -RA OVC035/// 12/06 Q1019",
      "taf": "TAF LICA 081700Z 0818/0918 28018G28KT 9999 BKN030"
    },
    {
      "icao": "LICC",
      "alert": "OK",
      "vis_m": 9999,
      "fzfg": false,
      "metar_trigger": false,
      "taf_trigger": false,
      "metar": "METAR LICC 082120Z 27012KT 9999 FEW050 10/05 Q1020",
      "taf": "TAF LICC 081700Z 0818/0918 28020G30KT 9999 SCT040"
    },
    {
      "icao": "LICJ",
      "alert": "OK",
      "vis_m": 9999,
      "fzfg": false,
      "metar_trigger": false,
      "taf_trigger": false,
      "metar": "METAR LICJ 082120Z 27024KT 9999 BKN030 16/12 Q1021",
      "taf": "TAF LICJ 081700Z 0818/0918 29025G35KT 9999 BKN030"
    },
    {
      "icao": "LIMC",
      "alert": "OK",
      "vis_m": 9999,
      "fzfg": false,
      "metar_trigger": false,
      "taf_trigger": false,
      "metar": "METAR LIMC 082120Z 10004KT 030V140 9999 SCT025 M00/M03 Q1011 NOSIG",
      "taf": "TAF LIMC 081700Z 0818/0924 VRB04KT 9999 SCT050"
    },
    {
      "icao": "LIME",
      "alert": "OK",
      "vis_m": 9000,
      "fzfg": false,
      "metar_trigger": false,
      "taf_trigger": false,
      "metar": "METAR LIME 082120Z AUTO VRB02KT 9000 NCD M02/M04 Q1011",
      "taf": "TAF LIME 081700Z 0818/0918 VRB04KT 9999 SCT050"
    },
    {
      "icao": "LIMF",
      "alert": "OK",
      "vis_m": 9999,
      "fzfg": false,
      "metar_trigger": false,
      "taf_trigger": false,
      "metar": "METAR LIMF 082120Z AUTO VRB01KT 9999 OVC030/// 00/M05 Q1010",
      "taf": "TAF LIMF 081700Z 0818/0918 VRB03KT 9000 FEW050"
    },
    {
      "icao": "LIMJ",
      "alert": "OK",
      "vis_m": 9999,
      "fzfg": false,
      "metar_trigger": false,
      "taf_trigger": false,
      "metar": "METAR LIMJ 082120Z VRB02KT 9999 BKN035 08/02 Q1010",
      "taf": ""
    },
    {
      "icao": "LIPE",
      "alert": "OK",
      "vis_m": 9999,
      "fzfg": false,
      "metar_trigger": false,
      "taf_trigger": false,
      "metar": "METAR LIPE 082120Z 03004KT CAVOK M03/M04 Q1012",
      "taf": "TAF LIPE 081700Z 0818/0918 VRB05KT CAVOK"
    },
    {
      "icao": "LIPH",
      "alert": "OK",
      "vis_m": 9999,
      "fzfg": false,
      "metar_trigger": false,
      "taf_trigger": false,
      "metar": "METAR LIPH 082120Z VRB01KT CAVOK M02/M06 Q1013",
      "taf": "TAF LIPH 081700Z 0818/0918 VRB05KT CAVOK"
    },
    {
      "icao": "LIPQ",
      "alert": "OK",
      "vis_m": 9999,
      "fzfg": false,
      "metar_trigger": false,
      "taf_trigger": false,
      "metar": "METAR LIPQ 082120Z AUTO 10006KT 9999 BKN029/// 02/M04 Q1013",
      "taf": "TAF LIPQ 081700Z 0818/0918 VRB05KT CAVOK"
    },
    {
      "icao": "LIPR",
      "alert": "OK",
      "vis_m": 9999,
      "fzfg": false,
      "metar_trigger": false,
      "taf_trigger": false,
      "metar": "METAR LIPR 082120Z 31006KT CAVOK M01/M03 Q1012",
      "taf": "TAF LIPR 081700Z 0818/0918 VRB05KT CAVOK"
    },
    {
      "icao": "LIPX",
      "alert": "OK",
      "vis_m": 9000,
      "fzfg": false,
      "metar_trigger": false,
      "taf_trigger": false,
      "metar": "METAR LIPX 082120Z 36003KT 9000 FEW020 M03/M04 Q1012",
      "taf": "TAF LIPX 081700Z 0818/0918 VRB05KT 8000 FEW020"
    },
    {
      "icao": "LIPY",
      "alert": "OK",
      "vis_m": 9999,
      "fzfg": false,
      "metar_trigger": false,
      "taf_trigger": false,
      "metar": "METAR LIPY 082120Z AUTO 20004KT 140V250 9999 SCT045/// 01/M01 Q1012",
      "taf": "TAF LIPY 081700Z 0818/0918 VRB05KT 9999 SCT030"
    },
    {
      "icao": "LIPZ",
      "alert": "OK",
      "vis_m": 8000,
      "fzfg": false,
      "metar_trigger": false,
      "taf_trigger": false,
      "metar": "METAR LIPZ 082120Z 35003KT 8000 NSC M02/M04 Q1013 NOSIG",
      "taf": "TAF LIPZ 081700Z 0818/0924 VRB05KT CAVOK"
    },
    {
      "icao": "LIRF",
      "alert": "OK",
      "vis_m": 9999,
      "fzfg": false,
      "metar_trigger": false,
      "taf_trigger": false,
      "metar": "METAR LIRF 082120Z 09008KT 9999 SCT025 09/02 Q1015 NOSIG",
      "taf": "TAF LIRF 081700Z 0818/0924 08006KT 9999 SCT045"
    },
    {
      "icao": "LIRN",
      "alert": "OK",
      "vis_m": 9999,
      "fzfg": false,
      "metar_trigger": false,
      "taf_trigger": false,
      "metar": "METAR LIRN 082120Z 21003KT 9999 -DZ SCT040 08/03 Q1017 NOSIG",
      "taf": "TAF LIRN 081700Z 0818/0918 VRB05KT 9999 SCT040"
    },
    {
      "icao": "LIRP",
      "alert": "OK",
      "vis_m": 9999,
      "fzfg": false,
      "metar_trigger": false,
      "taf_trigger": false,
      "metar": "METAR LIRP 082115Z 12012KT 9999 SCT020 SCT025 06/06 Q1012 TEMPO 10015G25KT",
      "taf": "TAF LIRP 081700Z 0818/0918 11010KT 9999 SCT030 BKN040"
    },
    {
      "icao": "LIRZ",
      "alert": "OK",
      "vis_m": 9999,
      "fzfg": false,
      "metar_trigger": false,
      "taf_trigger": false,
      "metar": "METAR LIRZ 082120Z AUTO 29004KT 260V320 9999 OVC034/// 02/01 Q1014",
      "taf": "TAF LIRZ 081700Z 0818/0918 VRB05KT 9999 BKN025"
    },
    {
      "icao": "LJLJ",
      "alert": "OK",
      "vis_m": 9999,
      "fzfg": false,
      "metar_trigger": false,
      "taf_trigger": false,
      "metar": "METAR LJLJ 082100Z VRB02KT 9999 MIFG NSC M13/M14 Q1011 NOSIG",
      "taf": "TAF LJLJ 081700Z 0818/0918 VRB02KT CAVOK"
    },
    {
      "icao": "LKMT",
      "alert": "OK",
      "vis_m": 4500,
      "fzfg": false,
      "metar_trigger": false,
      "taf_trigger": false,
      "metar": "METAR LKMT 082100Z 00000KT 4500 BR NSC M08/M08 Q1010 NOSIG",
      "taf": "TAF LKMT 081700Z 0818/0918 VRB02KT 9999 BKN025"
    },
    {
      "icao": "LKPR",
      "alert": "OK",
      "vis_m": 9999,
      "fzfg": false,
      "metar_trigger": false,
      "taf_trigger": false,
      "metar": "METAR LKPR 082100Z 07005KT 9999 OVC016 M05/M06 Q1008 BECMG OVC014",
      "taf": "TAF LKPR 082000Z 0821/1003 11006KT 9000 OVC014"
    },
    {
      "icao": "LLBG",
      "alert": "OK",
      "vis_m": 9999,
      "fzfg": false,
      "metar_trigger": false,
      "taf_trigger": false,
      "metar": "METAR LLBG 082120Z 15006KT CAVOK 18/10 Q1014 NOSIG",
      "taf": "TAF LLBG 081720Z 0818/0918 16006KT CAVOK"
    },
    {
      "icao": "LMML",
      "alert": "OK",
      "vis_m": 9999,
      "fzfg": false,
      "metar_trigger": false,
      "taf_trigger": false,
      "metar": "METAR LMML 082115Z 28019KT 9999 VCSH FEW020 14/11 Q1023 NOSIG",
      "taf": "TAF LMML 081700Z 0818/0918 28020KT 9999 SCT020"
    },
    {
      "icao": "LOWW",
      "alert": "OK",
      "vis_m": 9999,
      "fzfg": false,
      "metar_trigger": false,
      "taf_trigger": false,
      "metar": "METAR LOWW 082120Z 13002KT 9999 FEW026 M04/M09 Q1011 NOSIG",
      "taf": "TAF LOWW 082015Z 0821/1003 VRB03KT 9999 SCT030 TXM03/0821Z TNM06/0909Z"
    },
    {
      "icao": "LPFR",
      "alert": "OK",
      "vis_m": 9999,
      "fzfg": false,
      "metar_trigger": false,
      "taf_trigger": false,
      "metar": "METAR LPFR 082100Z VRB02KT 9999 FEW020 BKN026 11/09 Q1032",
      "taf": "TAF LPFR 081700Z 0818/0918 VRB05KT 9999 FEW018"
    },
    {
      "icao": "LPMA",
      "alert": "OK",
      "vis_m": 9999,
      "fzfg": false,
      "metar_trigger": false,
      "taf_trigger": false,
      "metar": "METAR LPMA 082100Z 36008KT 9999 BKN015 16/12 Q1034",
      "taf": "TAF LPMA 081700Z 0818/0918 02010KT 9999 SCT015"
    },
    {
      "icao": "LPPR",
      "alert": "OK",
      "vis_m": 5000,
      "fzfg": false,
      "metar_trigger": false,
      "taf_trigger": false,
      "metar": "METAR LPPR 082100Z 22012KT 5000 -RADZ BR BKN003 BKN005 13/13 Q1026",
      "taf": "TAF LPPR 081700Z 0818/0918 22015KT 9999 SCT004 BKN016"
    },
    {
      "icao": "LPPS",
      "alert": "OK",
      "vis_m": 9999,
      "fzfg": false,
      "metar_trigger": false,
      "taf_trigger": false,
      "metar": "METAR LPPS 082100Z 04004KT 350V090 9999 SCT014 SCT030 16/11 Q1034",
      "taf": "TAF LPPS 081700Z 0818/0924 03010KT 9999 SCT015"
    },
    {
      "icao": "LPPT",
      "alert": "OK",
      "vis_m": 9999,
      "fzfg": false,
      "metar_trigger": false,
      "taf_trigger": false,
      "metar": "METAR LPPT 082100Z 24006KT 9999 FEW010 SCT030 12/12 Q1030",
      "taf": "TAF LPPT 081700Z 0818/0924 25008KT 9999 SCT012 BKN018"
    },
    {
      "icao": "LQBK",
      "alert": "OK",
      "vis_m": 9999,
      "fzfg": false,
      "metar_trigger": false,
      "taf_trigger": false,
      "metar": "METAR LQBK 082100Z VRB01KT CAVOK M13/M15 Q1013 NOSIG",
      "taf": ""
    },
    {
      "icao": "LQSA",
      "alert": "OK",
      "vis_m": 6000,
      "fzfg": false,
      "metar_trigger": false,
      "taf_trigger": false,
      "metar": "METAR LQSA 082100Z 22002KT 6000 3000NW NSC M12/M12 Q1013 NOSIG",
      "taf": "TAF LQSA 081700Z 0818/0918 VRB02KT 9999 SCT050 TX01/0913Z TNM11/0902Z"
    },
    {
      "icao": "LQTZ",
      "alert": "OK",
      "vis_m": 2000,
      "fzfg": false,
      "metar_trigger": false,
      "taf_trigger": false,
      "metar": "METAR LQTZ 082100Z 00000KT 2000 BR NSC M11/M11 Q1012",
      "taf": ""
    },
    {
      "icao": "LRBC",
      "alert": "OK",
      "vis_m": 6000,
      "fzfg": false,
      "metar_trigger": false,
      "taf_trigger": false,
      "metar": "METAR LRBC 082100Z 33003KT 290V020 6000 FEW062 M05/M07 Q0999",
      "taf": "TAF LRBC 082000Z 0821/0906 36007KT 9999 OVC050"
    },
    {
      "icao": "LRBS",
      "alert": "OK",
      "vis_m": 9999,
      "fzfg": false,
      "metar_trigger": false,
      "taf_trigger": false,
      "metar": "METAR LRBS 082100Z 27011KT 9999 OVC040 M02/M05 Q1002 NOSIG",
      "taf": "TAF LRBS 081700Z 0818/0918 24012KT 3000 -SN BR BKN010 OVC020"
    },
    {
      "icao": "LRBV",
      "alert": "OK",
      "vis_m": 6000,
      "fzfg": false,
      "metar_trigger": false,
      "taf_trigger": false,
      "metar": "METAR LRBV 082100Z 29012G23KT 260V330 6000 -SN BKN014 OVC020 M07/M10 Q1003",
      "taf": "TAF LRBV 082000Z 0821/0906 30015KT 5000 -SN BR BKN015 BKN025"
    },
    {
      "icao": "LRCL",
      "alert": "OK",
      "vis_m": 5000,
      "fzfg": false,
      "metar_trigger": false,
      "taf_trigger": false,
      "metar": "METAR LRCL 082100Z 28008KT 240V300 5000 -SN BR OVC071 M05/M08 Q1005",
      "taf": "TAF LRCL 082000Z 0821/0906 30010KT 5000 -SN BR BKN035"
    },
    {
      "icao": "LRCV",
      "alert": "OK",
      "vis_m": 9999,
      "fzfg": false,
      "metar_trigger": false,
      "taf_trigger": false,
      "metar": "METAR LRCV 082100Z 28024KT CAVOK M05/M08 Q1005",
      "taf": "TAF LRCV 082000Z 0821/0906 27018KT CAVOK"
    },
    {
      "icao": "LRIA",
      "alert": "OK",
      "vis_m": 9999,
      "fzfg": false,
      "metar_trigger": false,
      "taf_trigger": false,
      "metar": "METAR LRIA 082100Z 30018KT 9999 FEW031 OVC048 M03/M07 Q0998",
      "taf": "TAF LRIA 082000Z 0821/0906 30017KT 9999 OVC040"
    },
    {
      "icao": "LROP",
      "alert": "OK",
      "vis_m": 9999,
      "fzfg": false,
      "metar_trigger": false,
      "taf_trigger": false,
      "metar": "METAR LROP 082100Z 25012KT 9999 BKN043 M03/M03 Q1002 NOSIG",
      "taf": "TAF LROP 081700Z 0818/0918 24012KT 3000 -SN BR BKN010 OVC020"
    },
    {
      "icao": "LRSB",
      "alert": "OK",
      "vis_m": 9999,
      "fzfg": false,
      "metar_trigger": false,
      "taf_trigger": false,
      "metar": "METAR LRSB 082100Z 30015KT 9999 FEW050 OVC070 M05/M10 Q1005",
      "taf": "TAF LRSB 081700Z 0818/0918 33017KT 9999 BKN020 OVC035"
    },
    {
      "icao": "LRSM",
      "alert": "OK",
      "vis_m": 7000,
      "fzfg": false,
      "metar_trigger": false,
      "taf_trigger": false,
      "metar": "METAR LRSM 082100Z AUTO 27013KT 7000 OVC085/// M06/M08 Q1007 RESN",
      "taf": "TAF LRSM 081400Z 0815/0824 26012KT 1500 -SN BR BKN010 OVC025"
    },
    {
      "icao": "LRSV",
      "alert": "OK",
      "vis_m": 9999,
      "fzfg": false,
      "metar_trigger": false,
      "taf_trigger": false,
      "metar": "METAR LRSV 082100Z 32018KT 9999 DRSN BKN040 M05/M08 Q0997",
      "taf": "TAF LRSV 082000Z 0821/0906 32020KT 9999 DRSN BKN045"
    },
    {
      "icao": "LRTM",
      "alert": "OK",
      "vis_m": 3600,
      "fzfg": false,
      "metar_trigger": false,
      "taf_trigger": false,
      "metar": "METAR LRTM 082100Z AUTO 23007KT 3600 -SN FEW016/// BKN025/// BKN029/// M06/M07 Q1006",
      "taf": "TAF LRTM 081400Z 0815/0824 30008KT 9999 BKN015 BKN030"
    },
    {
      "icao": "LRTR",
      "alert": "OK",
      "vis_m": 8000,
      "fzfg": false,
      "metar_trigger": false,
      "taf_trigger": false,
      "metar": "METAR LRTR 082100Z VRB02KT 8000 NSC M13/M14 Q1011",
      "taf": "TAF LRTR 081700Z 0818/0918 27010KT 9999 BKN030"
    },
    {
      "icao": "LTAC",
      "alert": "OK",
      "vis_m": 6000,
      "fzfg": false,
      "metar_trigger": false,
      "taf_trigger": false,
      "metar": "METAR LTAC 082120Z 24012KT 6000 FEW015 BKN030 BKN080 04/00 Q1002 NOSIG RMK RWY21C 24015KT RWY03L 24011KT RWY21R 23016KT RWY03R 22012KT RWY21L 24012KT",
      "taf": "TAF LTAC 081640Z 0818/0918 25015KT 6000 BKN030 BKN080"
    },
    {
      "icao": "LTFM",
      "alert": "OK",
      "vis_m": 9999,
      "fzfg": false,
      "metar_trigger": false,
      "taf_trigger": false,
      "metar": "METAR LTFM 082120Z 27008G18KT 250V330 9999 SCT010 BKN022 05/03 Q1005 NOSIG RMK RWY17L 27008KT RWY34L 27008G21KT 240V300 RWY16R 27006KT RWY36 28007KT RWY18 28007KT",
      "taf": "TAF LTFM 081640Z 0818/0924 VRB02KT 9999 -SHRA SCT032 BKN080"
    },
    {
      "icao": "LUKK",
      "alert": "OK",
      "vis_m": 9999,
      "fzfg": false,
      "metar_trigger": false,
      "taf_trigger": false,
      "metar": "METAR LUKK 082100Z 32018KT 9999 DRSN FEW027 BKN049 M04/M08 Q0997 TEMPO 31018G30KT 5000 BLSN",
      "taf": "TAF LUKK 081719Z 0818/0918 30016KT 9999 SCT010 BKN015"
    },
    {
      "icao": "LWOH",
      "alert": "OK",
      "vis_m": null,
      "fzfg": false,
      "metar_trigger": false,
      "taf_trigger": false,
      "metar": "",
      "taf": "TAF LWOH 082020Z 0821/0921 VRB02KT 9999 FEW015 BKN035"
    },
    {
      "icao": "LWSK",
      "alert": "OK",
      "vis_m": 9999,
      "fzfg": false,
      "metar_trigger": false,
      "taf_trigger": false,
      "metar": "METAR LWSK 082050Z 33003KT 290V020 CAVOK M03/M08 Q1013 NOSIG",
      "taf": "TAF LWSK 082020Z 0821/0921 VRB02KT CAVOK"
    },
    {
      "icao": "LYBE",
      "alert": "OK",
      "vis_m": 9999,
      "fzfg": false,
      "metar_trigger": false,
      "taf_trigger": false,
      "metar": "METAR LYBE 082100Z 17005KT CAVOK M06/M07 Q1012 NOSIG",
      "taf": "TAF LYBE 081700Z 0818/0918 24006KT CAVOK TX01/0914Z TNM12/0904Z"
    },
    {
      "icao": "LYNI",
      "alert": "OK",
      "vis_m": 9999,
      "fzfg": false,
      "metar_trigger": false,
      "taf_trigger": false,
      "metar": "METAR LYNI 082100Z VRB02KT 9999 BKN047 M07/M08 Q1013 NOSIG",
      "taf": "TAF LYNI 081700Z 0818/0918 19004KT 9999 SCT040 TX02/0914Z TNM10/0905Z"
    },
    {
      "icao": "LYPG",
      "alert": "OK",
      "vis_m": 9999,
      "fzfg": false,
      "metar_trigger": false,
      "taf_trigger": false,
      "metar": "METAR LYPG 082100Z 31009KT CAVOK 01/M09 Q1015 NOSIG",
      "taf": "TAF LYPG 081700Z 0818/0918 36006KT CAVOK TX05/0912Z TNM02/0905Z"
    },
    {
      "icao": "LZIB",
      "alert": "OK",
      "vis_m": 9999,
      "fzfg": false,
      "metar_trigger": false,
      "taf_trigger": false,
      "metar": "METAR LZIB 082100Z 35002KT 9999 FEW027 BKN033 M02/M08 Q1011 NOSIG",
      "taf": "TAF LZIB 081715Z 0818/0918 VRB02KT CAVOK"
    },
    {
      "icao": "LZKZ",
      "alert": "OK",
      "vis_m": 9999,
      "fzfg": false,
      "metar_trigger": false,
      "taf_trigger": false,
      "metar": "METAR LZKZ 082100Z VRB03KT 9999 FEW045 M06/M10 Q1006 NOSIG",
      "taf": "TAF LZKZ 081715Z 0818/0918 34007KT CAVOK"
    },
    {
      "icao": "LZTT",
      "alert": "OK",
      "vis_m": 9999,
      "fzfg": false,
      "metar_trigger": false,
      "taf_trigger": false,
      "metar": "METAR LZTT 082100Z 28011KT 9999 FEW020 M09/M12 Q1004",
      "taf": "TAF LZTT 081715Z 0818/0918 27009KT CAVOK"
    },
    {
      "icao": "OEJN",
      "alert": "OK",
      "vis_m": 9999,
      "fzfg": false,
      "metar_trigger": false,
      "taf_trigger": false,
      "metar": "METAR OEJN 082100Z 00000KT CAVOK 24/18 Q1015 NOSIG",
      "taf": "TAF OEJN 081700Z 0818/0924 VRB03KT 6000 NSC"
    },
    {
      "icao": "OEMA",
      "alert": "OK",
      "vis_m": 9999,
      "fzfg": false,
      "metar_trigger": false,
      "taf_trigger": false,
      "metar": "METAR OEMA 082100Z 08008KT CAVOK 21/M03 Q1021 NOSIG",
      "taf": "TAF OEMA 081700Z 0818/0924 08006KT CAVOK"
    },
    {
      "icao": "OJAI",
      "alert": "OK",
      "vis_m": 3500,
      "fzfg": false,
      "metar_trigger": false,
      "taf_trigger": false,
      "metar": "METAR OJAI 082100Z 05003KT 3500 HZ NSC 12/06 Q1017 NOSIG",
      "taf": ""
    },
    {
      "icao": "OMAA",
      "alert": "OK",
      "vis_m": 9999,
      "fzfg": false,
      "metar_trigger": false,
      "taf_trigger": false,
      "metar": "METAR OMAA 082100Z 00000KT CAVOK 18/11 Q1019 NOSIG",
      "taf": "TAF OMAA 081700Z 0818/1000 VRB02KT CAVOK"
    },
    {
      "icao": "OMDB",
      "alert": "OK",
      "vis_m": null,
      "fzfg": false,
      "metar_trigger": false,
      "taf_trigger": false,
      "metar": "",
      "taf": "TAF OMDB 081700Z 0818/1000 09005KT CAVOK"
    },
    {
      "icao": "UAAA",
      "alert": "OK",
      "vis_m": 2300,
      "fzfg": false,
      "metar_trigger": false,
      "taf_trigger": false,
      "metar": "METAR UAAA 082100Z 02002MPS 2300 BR OVC009 M05/M06 Q1027 NOSIG",
      "taf": "TAF UAAA 081714Z 0818/0918 33003MPS 1500 BR BKN011 OVC100 TXM01/0909Z TNM07/0901Z"
    },
    {
      "icao": "UBBB",
      "alert": "OK",
      "vis_m": 2300,
      "fzfg": false,
      "metar_trigger": false,
      "taf_trigger": false,
      "metar": "METAR UBBB 082100Z 13012KT 2300 BR BKN011 07/07 Q1012 NOSIG",
      "taf": ""
    },
    {
      "icao": "UDSG",
      "alert": "OK",
      "vis_m": 1400,
      "fzfg": false,
      "metar_trigger": false,
      "taf_trigger": false,
      "metar": "METAR UDSG 082100Z 33002KT 1400 R02/P2000U SN BR OVC016 M06/M06 Q1018 NOSIG",
      "taf": "TAF UDSG 081658Z 0818/0918 VRB06KT 3000 BR BKN030"
    },
    {
      "icao": "UDYZ",
      "alert": "OK",
      "vis_m": 1800,
      "fzfg": false,
      "metar_trigger": false,
      "taf_trigger": false,
      "metar": "METAR UDYZ 082100Z 06003KT 1800 R08/P2000U BR SCT046 M02/M05 Q1020 NOSIG",
      "taf": "TAF UDYZ 081700Z 0818/0918 28006KT 1500 BR FEW040"
    },
    {
      "icao": "UGKO",
      "alert": "OK",
      "vis_m": 9999,
      "fzfg": false,
      "metar_trigger": false,
      "taf_trigger": false,
      "metar": "METAR UGKO 082100Z 07016KT 9999 -RA OVC074 09/06 Q1009 NOSIG",
      "taf": "TAF UGKO 081700Z 0818/0918 09012KT 9999 BKN080 TX13/0911Z TN09/0903Z"
    }
  ]
}