{
  "ts_utc": "2026-02-09T17:36:40Z",
  "threshold_m": 150,
  "source": "stations_override.txt (ICAO list) + aviationweather.gov (METAR/TAF raw)",
  "station_count": 159,
  "stations": [
    {
      "icao": "BIKF",
      "alert": "OK",
      "vis_m": 9999,
      "fzfg": false,
      "metar_trigger": false,
      "taf_trigger": false,
      "metar": "METAR BIKF 091730Z 04010KT CAVOK 03/M00 Q1006",
      "taf": "TAF BIKF 091629Z 0918/1018 04014KT 9999 FEW030 SCT040 TX04/1013Z TN02/1018Z"
    },
    {
      "icao": "BKPR",
      "alert": "OK",
      "vis_m": 9999,
      "fzfg": false,
      "metar_trigger": false,
      "taf_trigger": false,
      "metar": "METAR BKPR 091730Z 35015KT 9999 -RA FEW015 BKN040 05/04 Q1007 NOSIG",
      "taf": ""
    },
    {
      "icao": "EBCI",
      "alert": "OK",
      "vis_m": 9999,
      "fzfg": false,
      "metar_trigger": false,
      "taf_trigger": false,
      "metar": "METAR EBCI 091720Z 15009KT 9999 FEW016 06/03 Q1001 NOSIG",
      "taf": "TAF EBCI 091700Z 0918/1024 15009KT CAVOK"
    },
    {
      "icao": "EDDB",
      "alert": "OK",
      "vis_m": 4300,
      "fzfg": false,
      "metar_trigger": false,
      "taf_trigger": false,
      "metar": "METAR EDDB 091720Z AUTO 11007KT 070V140 4300 BR OVC004 00/M01 Q1010 NOSIG",
      "taf": "TAF EDDB 091700Z 0918/1018 11007KT 5000 BR OVC005"
    },
    {
      "icao": "EDDH",
      "alert": "OK",
      "vis_m": 7000,
      "fzfg": false,
      "metar_trigger": false,
      "taf_trigger": false,
      "metar": "METAR EDDH 091720Z AUTO 13008KT 100V180 7000 OVC005 01/M00 Q1008 NOSIG",
      "taf": "TAF EDDH 091700Z 0918/1024 12005KT 6000 OVC006"
    },
    {
      "icao": "EDDK",
      "alert": "OK",
      "vis_m": 9999,
      "fzfg": false,
      "metar_trigger": false,
      "taf_trigger": false,
      "metar": "METAR EDDK 091720Z AUTO 12007KT 090V150 CAVOK 05/00 Q1004 NOSIG",
      "taf": "TAF EDDK 091700Z 0918/1024 13009KT CAVOK"
    },
    {
      "icao": "EDDN",
      "alert": "OK",
      "vis_m": 9999,
      "fzfg": false,
      "metar_trigger": false,
      "taf_trigger": false,
      "metar": "METAR EDDN 091720Z AUTO 14008KT 9999 OVC019 04/M00 Q1007 NOSIG",
      "taf": "TAF EDDN 091700Z 0918/1018 12006KT 9999 BKN035"
    },
    {
      "icao": "EDDS",
      "alert": "OK",
      "vis_m": 9999,
      "fzfg": false,
      "metar_trigger": false,
      "taf_trigger": false,
      "metar": "METAR EDDS 091720Z AUTO 08005KT CAVOK 01/M01 Q1004 NOSIG",
      "taf": "TAF EDDS 091700Z 0918/1018 09004KT CAVOK"
    },
    {
      "icao": "EDFH",
      "alert": "OK",
      "vis_m": 9999,
      "fzfg": false,
      "metar_trigger": false,
      "taf_trigger": false,
      "metar": "METAR EDFH 091720Z 13009KT 9999 SCT006 02/01 Q1003",
      "taf": "TAF EDFH 091700Z 0918/1018 15012KT 9999 BKN007"
    },
    {
      "icao": "EDJA",
      "alert": "OK",
      "vis_m": 9999,
      "fzfg": false,
      "metar_trigger": false,
      "taf_trigger": false,
      "metar": "METAR EDJA 091720Z COR 03006KT CAVOK 00/M01 Q1005",
      "taf": "TAF EDJA 091700Z 0918/1003 05003KT CAVOK"
    },
    {
      "icao": "EDLW",
      "alert": "OK",
      "vis_m": 9999,
      "fzfg": false,
      "metar_trigger": false,
      "taf_trigger": false,
      "metar": "METAR EDLW 091720Z 12005KT 9999 FEW026 04/M00 Q1004",
      "taf": "TAF EDLW 091700Z 0918/1018 14007KT CAVOK"
    },
    {
      "icao": "EDNY",
      "alert": "OK",
      "vis_m": 9999,
      "fzfg": false,
      "metar_trigger": false,
      "taf_trigger": false,
      "metar": "METAR EDNY 091720Z 24002KT CAVOK 04/02 Q1005",
      "taf": "TAF EDNY 091700Z 0918/1003 VRB03KT CAVOK"
    },
    {
      "icao": "EDSB",
      "alert": "OK",
      "vis_m": 9999,
      "fzfg": false,
      "metar_trigger": false,
      "taf_trigger": false,
      "metar": "METAR EDSB 091720Z 35003KT CAVOK 04/03 Q1005",
      "taf": "TAF EDSB 091700Z 0918/1018 VRB03KT CAVOK"
    },
    {
      "icao": "EETN",
      "alert": "OK",
      "vis_m": 9999,
      "fzfg": false,
      "metar_trigger": false,
      "taf_trigger": false,
      "metar": "METAR EETN 091720Z 24009KT 9999 OVC018 M04/M06 Q1012 TEMPO BKN008",
      "taf": "TAF EETN 091730Z 0918/2018 22010KT 9999 BKN015 OVC025"
    },
    {
      "icao": "EFTU",
      "alert": "OK",
      "vis_m": 9999,
      "fzfg": false,
      "metar_trigger": false,
      "taf_trigger": false,
      "metar": "METAR EFTU 091720Z AUTO 25011KT 9999 OVC011 M06/M09 Q1011",
      "taf": "TAF EFTU 091435Z 0915/1015 26011KT 9999 BKN013"
    },
    {
      "icao": "EGBB",
      "alert": "OK",
      "vis_m": 9999,
      "fzfg": false,
      "metar_trigger": false,
      "taf_trigger": false,
      "metar": "METAR EGBB 091720Z 12010KT 9999 BKN019 09/06 Q0995",
      "taf": "TAF EGBB 091657Z 0918/1018 15010KT 9999 SCT010 BKN020"
    },
    {
      "icao": "EGGP",
      "alert": "OK",
      "vis_m": 9999,
      "fzfg": false,
      "metar_trigger": false,
      "taf_trigger": false,
      "metar": "METAR EGGP 091720Z 11014KT 9999 FEW021 09/05 Q0994",
      "taf": "TAF EGGP 091656Z 0918/1018 12010KT 9999 SCT040"
    },
    {
      "icao": "EGGW",
      "alert": "OK",
      "vis_m": 9999,
      "fzfg": false,
      "metar_trigger": false,
      "taf_trigger": false,
      "metar": "METAR EGGW 091720Z AUTO 12012KT 9999 BKN006 06/05 Q0996",
      "taf": "TAF EGGW 091702Z 0918/1018 15007KT 9999 FEW008 SCT020"
    },
    {
      "icao": "EGKK",
      "alert": "OK",
      "vis_m": 9999,
      "fzfg": false,
      "metar_trigger": false,
      "taf_trigger": false,
      "metar": "METAR EGKK 091720Z 11010KT 9999 BKN009 08/06 Q0996",
      "taf": "TAF EGKK 091705Z 0918/1024 12010KT 9999 BKN010"
    },
    {
      "icao": "EGNM",
      "alert": "OK",
      "vis_m": 9999,
      "fzfg": false,
      "metar_trigger": false,
      "taf_trigger": false,
      "metar": "METAR EGNM 091720Z 11007KT 9999 SCT009 BKN023 07/06 Q0996",
      "taf": "TAF EGNM 091658Z 0918/1018 11005KT 9999 SCT016"
    },
    {
      "icao": "EGPD",
      "alert": "OK",
      "vis_m": 9999,
      "fzfg": false,
      "metar_trigger": false,
      "taf_trigger": false,
      "metar": "METAR EGPD 091720Z AUTO 15009KT 9999 SCT008 OVC017 07/06 Q0998 TEMPO BKN012",
      "taf": "TAF EGPD 091656Z 0918/1018 15009KT 9999 SCT008 BKN010"
    },
    {
      "icao": "EGPF",
      "alert": "OK",
      "vis_m": 9999,
      "fzfg": false,
      "metar_trigger": false,
      "taf_trigger": false,
      "metar": "METAR EGPF 091720Z AUTO 07006KT 9999 BKN047 07/07 Q0996",
      "taf": "TAF EGPF 091657Z 0918/1018 06008KT 9999 FEW015 BKN030"
    },
    {
      "icao": "EHBK",
      "alert": "OK",
      "vis_m": 9999,
      "fzfg": false,
      "metar_trigger": false,
      "taf_trigger": false,
      "metar": "METAR EHBK 091725Z AUTO 16006KT 9999 NSC 06/03 Q1002 NOSIG",
      "taf": "TAF EHBK 091700Z 0918/1024 15006KT CAVOK"
    },
    {
      "icao": "EHEH",
      "alert": "OK",
      "vis_m": 9999,
      "fzfg": false,
      "metar_trigger": false,
      "taf_trigger": false,
      "metar": "METAR EHEH 091725Z AUTO 11003KT 060V190 9999 OVC140 06/03 Q1002 BLU NOSIG",
      "taf": "TAF EHEH 091152Z 0912/1018 12002KT 7000 SCT005 BKN008"
    },
    {
      "icao": "EKBI",
      "alert": "OK",
      "vis_m": 5000,
      "fzfg": false,
      "metar_trigger": false,
      "taf_trigger": false,
      "metar": "METAR EKBI 091720Z AUTO 09008KT 5000 BR OVC006/// M01/M02 Q1009",
      "taf": "TAF EKBI 091727Z 0918/1018 10008KT 6000 BKN008"
    },
    {
      "icao": "EKCH",
      "alert": "OK",
      "vis_m": 6000,
      "fzfg": false,
      "metar_trigger": false,
      "taf_trigger": false,
      "metar": "METAR EKCH 091720Z 09008KT 6000 -SN FEW007 BKN015 M01/M02 Q1011 TEMPO 4000 -SG BKN008",
      "taf": "TAF EKCH 091727Z 0918/1018 12008KT 9999 OVC010"
    },
    {
      "icao": "ENAL",
      "alert": "OK",
      "vis_m": 9999,
      "fzfg": false,
      "metar_trigger": false,
      "taf_trigger": false,
      "metar": "METAR ENAL 091720Z 14005KT 9999 SCT025 M00/M04 Q1010",
      "taf": "TAF ENAL 091700Z 0918/1003 15005KT 9999 SCT025"
    },
    {
      "icao": "ENBR",
      "alert": "OK",
      "vis_m": 9999,
      "fzfg": false,
      "metar_trigger": false,
      "taf_trigger": false,
      "metar": "METAR ENBR 091720Z 00000KT 9999 FEW037 M01/M07 Q1009 NOSIG RMK WIND 1200FT 23003KT",
      "taf": "TAF ENBR 091700Z 0918/1018 VRB03KT 9999 FEW040"
    },
    {
      "icao": "ENGM",
      "alert": "OK",
      "vis_m": 9999,
      "fzfg": false,
      "metar_trigger": false,
      "taf_trigger": false,
      "metar": "METAR ENGM 091720Z 04004KT 9999 FEW011 OVC015 M09/M11 Q1012 TEMPO BKN012",
      "taf": "TAF ENGM 091700Z 0918/1018 03005KT 9999 SCT010 BKN018"
    },
    {
      "icao": "ENHD",
      "alert": "OK",
      "vis_m": 9999,
      "fzfg": false,
      "metar_trigger": false,
      "taf_trigger": false,
      "metar": "METAR ENHD 091720Z 13010KT 9999 SCT025 BKN033 01/M05 Q1010",
      "taf": "TAF ENHD 091400Z 0915/0923 13010KT 9999 BKN045"
    },
    {
      "icao": "ENTC",
      "alert": "OK",
      "vis_m": 9999,
      "fzfg": false,
      "metar_trigger": false,
      "taf_trigger": false,
      "metar": "METAR ENTC 091720Z 07004KT 9999 SCT056 BKN066 M05/M09 Q1011 TEMPO 4000 -SHSN VV014 RMK WIND 2600FT 02008KT",
      "taf": "TAF ENTC 091700Z 0918/1018 05004KT 9999 FEW020 SCT050"
    },
    {
      "icao": "ENTO",
      "alert": "OK",
      "vis_m": 9999,
      "fzfg": false,
      "metar_trigger": false,
      "taf_trigger": false,
      "metar": "METAR ENTO 091720Z 00000KT 9999 BKN027 OVC034 M06/M08 Q1013 NOSIG",
      "taf": "TAF ENTO 091700Z 0918/1018 01005KT 9999 SCT010 BKN025"
    },
    {
      "icao": "ENVA",
      "alert": "OK",
      "vis_m": 9999,
      "fzfg": false,
      "metar_trigger": false,
      "taf_trigger": false,
      "metar": "METAR ENVA 091720Z 09003KT 9999 FEW029 M03/M05 Q1011 NOSIG RMK WIND 670FT 13003KT",
      "taf": "TAF ENVA 091700Z 0918/1018 09005KT 9999 BKN020"
    },
    {
      "icao": "ENZV",
      "alert": "OK",
      "vis_m": 9999,
      "fzfg": false,
      "metar_trigger": false,
      "taf_trigger": false,
      "metar": "METAR ENZV 091720Z 12010KT 9999 BKN024 01/M05 Q1010 NOSIG",
      "taf": "TAF ENZV 091700Z 0918/1018 12010KT 9999 BKN025"
    },
    {
      "icao": "EPGD",
      "alert": "OK",
      "vis_m": 6000,
      "fzfg": false,
      "metar_trigger": false,
      "taf_trigger": false,
      "metar": "METAR EPGD 091730Z 16009KT 6000 OVC005 M09/M10 Q1014",
      "taf": "TAF EPGD 091730Z 0918/1018 17007KT 5000 BR BKN004"
    },
    {
      "icao": "EPKK",
      "alert": "OK",
      "vis_m": 9999,
      "fzfg": false,
      "metar_trigger": false,
      "taf_trigger": false,
      "metar": "METAR EPKK 091730Z 07009KT 9999 OVC012 M03/M06 Q1013",
      "taf": "TAF EPKK 091730Z 0918/1018 07012KT 9999 OVC013"
    },
    {
      "icao": "EPKT",
      "alert": "OK",
      "vis_m": 9999,
      "fzfg": false,
      "metar_trigger": false,
      "taf_trigger": false,
      "metar": "METAR EPKT 091730Z 10010KT 9999 OVC011 M04/M06 Q1012",
      "taf": "TAF EPKT 091730Z 0918/1018 10010KT 9999 OVC010"
    },
    {
      "icao": "EPLB",
      "alert": "OK",
      "vis_m": 9999,
      "fzfg": false,
      "metar_trigger": false,
      "taf_trigger": false,
      "metar": "METAR EPLB 091730Z 10007KT CAVOK M10/M12 Q1017",
      "taf": "TAF EPLB 091730Z 0918/1018 12010KT 9999 SCT014"
    },
    {
      "icao": "EPMO",
      "alert": "OK",
      "vis_m": 9999,
      "fzfg": false,
      "metar_trigger": false,
      "taf_trigger": false,
      "metar": "METAR EPMO 091730Z 11008KT CAVOK M08/M10 Q1016",
      "taf": "TAF EPMO 091730Z 0918/1018 12010KT 9999 SCT014"
    },
    {
      "icao": "EPPO",
      "alert": "OK",
      "vis_m": 9999,
      "fzfg": false,
      "metar_trigger": false,
      "taf_trigger": false,
      "metar": "METAR EPPO 091730Z 12009KT 9999 OVC020 M01/M04 Q1012",
      "taf": "TAF EPPO 091730Z 0918/1018 11008KT 9999 OVC020"
    },
    {
      "icao": "EPRA",
      "alert": "OK",
      "vis_m": 9999,
      "fzfg": false,
      "metar_trigger": false,
      "taf_trigger": false,
      "metar": "METAR EPRA 091730Z 10007KT CAVOK M09/M12 Q1015",
      "taf": "TAF EPRA 091730Z 0918/1003 11006KT CAVOK"
    },
    {
      "icao": "EPRZ",
      "alert": "OK",
      "vis_m": 9999,
      "fzfg": false,
      "metar_trigger": false,
      "taf_trigger": false,
      "metar": "METAR EPRZ 091730Z 10012KT 9999 OVC014 M04/M07 Q1015",
      "taf": "TAF EPRZ 091730Z 0918/1018 10015KT 9999 OVC014"
    },
    {
      "icao": "EPSC",
      "alert": "OK",
      "vis_m": 8000,
      "fzfg": false,
      "metar_trigger": false,
      "taf_trigger": false,
      "metar": "METAR EPSC 091730Z 13010KT 8000 OVC011 M01/M03 Q1011",
      "taf": "TAF EPSC 091730Z 0918/1018 13010KT 7000 OVC012"
    },
    {
      "icao": "EPSY",
      "alert": "OK",
      "vis_m": 9999,
      "fzfg": false,
      "metar_trigger": false,
      "taf_trigger": false,
      "metar": "METAR EPSY 091730Z 15003KT 090V190 CAVOK M11/M13 Q1016",
      "taf": "TAF EPSY 091730Z 0918/1003 14006KT CAVOK"
    },
    {
      "icao": "EPWA",
      "alert": "OK",
      "vis_m": 9999,
      "fzfg": false,
      "metar_trigger": false,
      "taf_trigger": false,
      "metar": "METAR EPWA 091730Z 11009KT CAVOK M08/M11 Q1016 NOSIG",
      "taf": "TAF EPWA 091730Z 0918/1018 11011KT 9999 SCT014"
    },
    {
      "icao": "EPWR",
      "alert": "OK",
      "vis_m": 9999,
      "fzfg": false,
      "metar_trigger": false,
      "taf_trigger": false,
      "metar": "METAR EPWR 091730Z 12011KT 9999 OVC015 M00/M03 Q1011",
      "taf": "TAF EPWR 091730Z 0918/1018 12010KT 9999 OVC015"
    },
    {
      "icao": "ESGG",
      "alert": "OK",
      "vis_m": 9999,
      "fzfg": false,
      "metar_trigger": false,
      "taf_trigger": false,
      "metar": "METAR ESGG 091720Z 08004KT CAVOK M05/M08 Q1011",
      "taf": "TAF ESGG 091730Z 0918/1018 10004KT CAVOK"
    },
    {
      "icao": "ESKN",
      "alert": "OK",
      "vis_m": 9999,
      "fzfg": false,
      "metar_trigger": false,
      "taf_trigger": false,
      "metar": "METAR ESKN 091720Z 29003KT CAVOK M11/M12 Q1013",
      "taf": "TAF ESKN 091730Z 0918/1018 29003KT CAVOK"
    },
    {
      "icao": "ESMS",
      "alert": "OK",
      "vis_m": 3000,
      "fzfg": false,
      "metar_trigger": false,
      "taf_trigger": false,
      "metar": "METAR ESMS 091720Z 10007KT 3000 SG OVC003 M02/M02 Q1011",
      "taf": "TAF ESMS 091727Z 0918/1018 11006KT 4000 BR OVC003"
    },
    {
      "icao": "ESSA",
      "alert": "OK",
      "vis_m": 9999,
      "fzfg": false,
      "metar_trigger": false,
      "taf_trigger": false,
      "metar": "METAR ESSA 091720Z 23008KT 9999 BKN013 M08/M10 Q1012 NOSIG",
      "taf": "TAF ESSA 091730Z 0918/1018 24008KT 9999 BKN012"
    },
    {
      "icao": "EYKA",
      "alert": "OK",
      "vis_m": 9000,
      "fzfg": false,
      "metar_trigger": false,
      "taf_trigger": false,
      "metar": "METAR EYKA 091720Z 13003KT 9000 NSC M16/M18 Q1018",
      "taf": "TAF EYKA 091700Z 0918/1018 VRB04KT 5000 BR NSC"
    },
    {
      "icao": "EYPA",
      "alert": "OK",
      "vis_m": 9999,
      "fzfg": false,
      "metar_trigger": false,
      "taf_trigger": false,
      "metar": "METAR EYPA 091720Z 17011KT CAVOK M10/M15 Q1016",
      "taf": "TAF EYPA 091700Z 0918/1018 16008KT 5000 BR SCT005"
    },
    {
      "icao": "EYVI",
      "alert": "OK",
      "vis_m": 9999,
      "fzfg": false,
      "metar_trigger": false,
      "taf_trigger": false,
      "metar": "METAR EYVI 091720Z 17007KT CAVOK M16/M18 Q1018 NOSIG",
      "taf": ""
    },
    {
      "icao": "GCFV",
      "alert": "OK",
      "vis_m": 9999,
      "fzfg": false,
      "metar_trigger": false,
      "taf_trigger": false,
      "metar": "METAR GCFV 091730Z 34012KT 9999 FEW025 21/13 Q1022",
      "taf": ""
    },
    {
      "icao": "GCLP",
      "alert": "OK",
      "vis_m": 9999,
      "fzfg": false,
      "metar_trigger": false,
      "taf_trigger": false,
      "metar": "METAR GCLP 091730Z 01018KT 9999 FEW025 21/14 Q1022 NOSIG",
      "taf": "TAF GCLP 091400Z 0915/1015 02018KT 9999 FEW025 TX22/1014Z TN17/1006Z"
    },
    {
      "icao": "GCTS",
      "alert": "OK",
      "vis_m": 9999,
      "fzfg": false,
      "metar_trigger": false,
      "taf_trigger": false,
      "metar": "METAR GCTS 091730Z 20005KT 150V260 9999 FEW035 20/13 Q1023 NOSIG",
      "taf": ""
    },
    {
      "icao": "GMAD",
      "alert": "OK",
      "vis_m": 9999,
      "fzfg": false,
      "metar_trigger": false,
      "taf_trigger": false,
      "metar": "METAR GMAD 091730Z 22007KT 9999 FEW026 20/18 Q1019 NOSIG",
      "taf": "TAF GMAD 091700Z 0918/1024 22005KT 8000 SCT020"
    },
    {
      "icao": "GMMN",
      "alert": "OK",
      "vis_m": 6000,
      "fzfg": false,
      "metar_trigger": false,
      "taf_trigger": false,
      "metar": "METAR GMMN 091730Z 24009KT 6000 BKN014 18/16 Q1022 NOSIG",
      "taf": "TAF GMMN 091700Z 0918/1024 24010KT 8000 BKN013"
    },
    {
      "icao": "GMMX",
      "alert": "OK",
      "vis_m": 9999,
      "fzfg": false,
      "metar_trigger": false,
      "taf_trigger": false,
      "metar": "METAR GMMX 091730Z VRB03KT 9999 SCT030 21/14 Q1022 NOSIG",
      "taf": "TAF GMMX 091700Z 0918/1024 24008KT 8000 SCT023"
    },
    {
      "icao": "HEGN",
      "alert": "OK",
      "vis_m": 9999,
      "fzfg": false,
      "metar_trigger": false,
      "taf_trigger": false,
      "metar": "METAR HEGN 091700Z 10008KT CAVOK 22/18 Q1012 NOSIG",
      "taf": "TAF HEGN 091700Z 0918/1024 14012KT CAVOK"
    },
    {
      "icao": "HEMA",
      "alert": "OK",
      "vis_m": 9999,
      "fzfg": false,
      "metar_trigger": false,
      "taf_trigger": false,
      "metar": "METAR HEMA 091700Z 14008KT CAVOK 24/19 Q1012 NOSIG",
      "taf": "TAF HEMA 091700Z 0918/1024 16015KT 6000 NSC"
    },
    {
      "icao": "HESH",
      "alert": "OK",
      "vis_m": 9999,
      "fzfg": false,
      "metar_trigger": false,
      "taf_trigger": false,
      "metar": "METAR HESH 091700Z 16004KT CAVOK 23/16 Q1013 NOSIG",
      "taf": "TAF HESH 091700Z 0918/1024 26012KT CAVOK"
    },
    {
      "icao": "HESX",
      "alert": "OK",
      "vis_m": 9999,
      "fzfg": false,
      "metar_trigger": false,
      "taf_trigger": false,
      "metar": "METAR HESX 091700Z 36008KT 9999 FEW030 BKN100 19/11 Q1011 NOSIG",
      "taf": "TAF HESX 091700Z 0918/1024 27008KT CAVOK"
    },
    {
      "icao": "LATI",
      "alert": "OK",
      "vis_m": 9999,
      "fzfg": false,
      "metar_trigger": false,
      "taf_trigger": false,
      "metar": "METAR LATI 091720Z 34007KT 9999 -RA SCT053 OVC078 11/10 Q1005 NOSIG",
      "taf": "TAF LATI 091700Z 0918/1018 VRB05KT 9999 SCT030 BKN070 TX13/1012Z TN06/1005Z"
    },
    {
      "icao": "LBPD",
      "alert": "OK",
      "vis_m": 7000,
      "fzfg": false,
      "metar_trigger": false,
      "taf_trigger": false,
      "metar": "METAR LBPD 091730Z AUTO 09009KT 7000 -SN BKN018/// OVC022/// 01/01 Q1015 TEMPO 3000 SN SCT006",
      "taf": "TAF LBPD 091700Z 0918/1018 11010KT 8000 RA BKN010 BKN020"
    },
    {
      "icao": "LBSF",
      "alert": "OK",
      "vis_m": 9999,
      "fzfg": false,
      "metar_trigger": false,
      "taf_trigger": false,
      "metar": "METAR LBSF 091730Z AUTO 10016KT 9999 FEW019/// BKN029/// OVC051/// 03/00 Q1012 NOSIG",
      "taf": "TAF LBSF 091700Z 0918/1018 11012KT 9999 SCT015 BKN020"
    },
    {
      "icao": "LBWN",
      "alert": "OK",
      "vis_m": 9999,
      "fzfg": false,
      "metar_trigger": false,
      "taf_trigger": false,
      "metar": "METAR LBWN 091730Z AUTO 07008KT 030V110 9999 -SN FEW016/// BKN025/// OVC037/// M01/M03 Q1018 NOSIG",
      "taf": "TAF LBWN 091700Z 0918/1018 06012KT 9999 SCT015 OVC030"
    },
    {
      "icao": "LCLK",
      "alert": "OK",
      "vis_m": 9999,
      "fzfg": false,
      "metar_trigger": false,
      "taf_trigger": false,
      "metar": "METAR LCLK 091730Z 22004KT 9999 FEW040 15/13 Q1009 NOSIG",
      "taf": "TAF LCLK 091730Z 0918/1018 32006KT 9999 FEW025"
    },
    {
      "icao": "LCPH",
      "alert": "OK",
      "vis_m": 9999,
      "fzfg": false,
      "metar_trigger": false,
      "taf_trigger": false,
      "metar": "METAR LCPH 091730Z 01003KT 9999 FEW018 14/11 Q1010 NOSIG",
      "taf": "TAF LCPH 091730Z 0918/1018 04007KT 9999 SCT013"
    },
    {
      "icao": "LEAL",
      "alert": "OK",
      "vis_m": 9999,
      "fzfg": false,
      "metar_trigger": false,
      "taf_trigger": false,
      "metar": "METAR LEAL 091730Z 26009KT 9999 FEW060 21/09 Q1009 NOSIG",
      "taf": "TAF LEAL 091700Z 0918/1018 27008KT 9999 FEW040 TX23/1012Z TN13/1006Z"
    },
    {
      "icao": "LEBB",
      "alert": "OK",
      "vis_m": 9999,
      "fzfg": false,
      "metar_trigger": false,
      "taf_trigger": false,
      "metar": "METAR LEBB 091730Z 09008KT 070V130 9999 -RA FEW020 SCT055 BKN070 12/11 Q1002 RERA TEMPO 3000 SHRA SCT035TCU",
      "taf": "TAF LEBB 091700Z 0918/1018 20009KT 9999 SCT030 TX19/1014Z TN11/1006Z"
    },
    {
      "icao": "LEBL",
      "alert": "OK",
      "vis_m": 9999,
      "fzfg": false,
      "metar_trigger": false,
      "taf_trigger": false,
      "metar": "METAR LEBL 091730Z 25010KT CAVOK 13/10 Q1007 NOSIG",
      "taf": "TAF LEBL 091700Z 0918/1018 28007KT 9999 FEW030 TX18/1014Z TN12/1005Z"
    },
    {
      "icao": "LECH",
      "alert": "OK",
      "vis_m": 9999,
      "fzfg": false,
      "metar_trigger": false,
      "taf_trigger": false,
      "metar": "METAR LECH 091730Z AUTO VRB02KT 9999 FEW070 11/08 Q1008",
      "taf": ""
    },
    {
      "icao": "LEMD",
      "alert": "OK",
      "vis_m": 9999,
      "fzfg": false,
      "metar_trigger": false,
      "taf_trigger": false,
      "metar": "METAR LEMD 091730Z 20009KT 170V230 9999 SCT049 BKN070 12/11 Q1009 NOSIG",
      "taf": "TAF LEMD 091700Z 0918/1024 22010KT 9999 BKN010 TX16/1014Z TN11/1007Z"
    },
    {
      "icao": "LEMG",
      "alert": "OK",
      "vis_m": 9999,
      "fzfg": false,
      "metar_trigger": false,
      "taf_trigger": false,
      "metar": "METAR LEMG 091730Z 33004KT 310V010 9999 SCT055 19/13 Q1014 NOSIG",
      "taf": "TAF LEMG 091700Z 0918/1018 VRB03KT 9999 SCT020 TX22/1014Z TN15/1007Z"
    },
    {
      "icao": "LEVC",
      "alert": "OK",
      "vis_m": 9999,
      "fzfg": false,
      "metar_trigger": false,
      "taf_trigger": false,
      "metar": "METAR LEVC 091730Z 31004KT 280V360 9999 FEW040 17/07 Q1008 NOSIG",
      "taf": "TAF LEVC 091700Z 0918/1018 24008KT 9999 FEW040 TX24/1014Z TN17/1006Z"
    },
    {
      "icao": "LEXJ",
      "alert": "OK",
      "vis_m": 9999,
      "fzfg": false,
      "metar_trigger": false,
      "taf_trigger": false,
      "metar": "METAR LEXJ 091730Z 31004KT 230V360 9999 BKN050 OVC060 13/10 Q1001",
      "taf": "TAF LEXJ 091400Z 0915/1015 21009KT 9999 SCT060 TX19/1013Z TN13/1007Z"
    },
    {
      "icao": "LEZG",
      "alert": "OK",
      "vis_m": 9999,
      "fzfg": false,
      "metar_trigger": false,
      "taf_trigger": false,
      "metar": "METAR LEZG 091730Z 08004KT 9999 -RA FEW050 BKN060 11/11 Q1007 NOSIG",
      "taf": "TAF LEZG 091700Z 0918/1018 25010KT 9999 SCT040 TX21/1012Z TN12/1006Z"
    },
    {
      "icao": "LEZL",
      "alert": "OK",
      "vis_m": 9999,
      "fzfg": false,
      "metar_trigger": false,
      "taf_trigger": false,
      "metar": "METAR LEZL 091730Z 23010KT 200V260 9999 OVC010 17/16 Q1015 NOSIG",
      "taf": "TAF LEZL 091400Z 0915/1015 24010KT 9999 BKN020 TX20/0915Z TN15/1007Z"
    },
    {
      "icao": "LFBD",
      "alert": "OK",
      "vis_m": 9999,
      "fzfg": false,
      "metar_trigger": false,
      "taf_trigger": false,
      "metar": "METAR LFBD 091730Z AUTO 18007KT CAVOK 12/10 Q1001 TEMPO 20015G25KT 2000 SHRA BKN005 BKN010TCU",
      "taf": ""
    },
    {
      "icao": "LFLL",
      "alert": "OK",
      "vis_m": 9999,
      "fzfg": false,
      "metar_trigger": false,
      "taf_trigger": false,
      "metar": "METAR LFLL 091730Z 18012KT CAVOK 11/04 Q1004 NOSIG",
      "taf": "TAF LFLL 091700Z 0918/1024 18015G25KT CAVOK"
    },
    {
      "icao": "LFLS",
      "alert": "OK",
      "vis_m": 9999,
      "fzfg": false,
      "metar_trigger": false,
      "taf_trigger": false,
      "metar": "METAR LFLS 091730Z AUTO 17007KT 130V190 CAVOK 09/03 Q1005 NOSIG",
      "taf": "TAF LFLS 091400Z 0915/1015 08007KT CAVOK"
    },
    {
      "icao": "LFMN",
      "alert": "OK",
      "vis_m": 9999,
      "fzfg": false,
      "metar_trigger": false,
      "taf_trigger": false,
      "metar": "METAR LFMN 091730Z 29006KT 260V320 9999 -RA FEW025 SCT046CB BKN060 12/09 Q1007 TEMPO SHRA",
      "taf": "TAF LFMN 091400Z 0915/1021 20010KT 9999 SCT020 FEW040TCU"
    },
    {
      "icao": "LFOB",
      "alert": "OK",
      "vis_m": 9999,
      "fzfg": false,
      "metar_trigger": false,
      "taf_trigger": false,
      "metar": "METAR LFOB 091730Z AUTO 13008KT 9999 FEW028 BKN098 BKN140 07/05 Q0998 NOSIG",
      "taf": "TAF LFOB 091700Z 0918/1018 13010KT 9999 BKN018"
    },
    {
      "icao": "LFPO",
      "alert": "OK",
      "vis_m": 9999,
      "fzfg": false,
      "metar_trigger": false,
      "taf_trigger": false,
      "metar": "METAR LFPO 091730Z 16006KT 130V190 9999 FEW036 BKN080 OVC130 10/05 Q0999 NOSIG",
      "taf": "TAF LFPO 091700Z 0918/1024 16010KT 9999 SCT025"
    },
    {
      "icao": "LFSB",
      "alert": "OK",
      "vis_m": 9999,
      "fzfg": false,
      "metar_trigger": false,
      "taf_trigger": false,
      "metar": "METAR LFSB 091730Z AUTO 12008KT CAVOK 05/02 Q1005 NOSIG",
      "taf": "TAF LFSB 091100Z 0912/1012 10005KT CAVOK"
    },
    {
      "icao": "LGAV",
      "alert": "OK",
      "vis_m": 9999,
      "fzfg": false,
      "metar_trigger": false,
      "taf_trigger": false,
      "metar": "METAR LGAV 091720Z 34002KT 9999 FEW025 12/08 Q1006 NOSIG",
      "taf": "TAF LGAV 091700Z 0918/1018 VRB05KT 9999 SCT025 SCT070"
    },
    {
      "icao": "LGTS",
      "alert": "OK",
      "vis_m": 9999,
      "fzfg": false,
      "metar_trigger": false,
      "taf_trigger": false,
      "metar": "METAR LGTS 091720Z VRB03KT 9999 FEW010 SCT025 11/11 Q1008 NOSIG",
      "taf": "TAF LGTS 091700Z 0918/1018 VRB03KT 9999 FEW010 BKN025"
    },
    {
      "icao": "LHBP",
      "alert": "OK",
      "vis_m": 9999,
      "fzfg": false,
      "metar_trigger": false,
      "taf_trigger": false,
      "metar": "METAR LHBP 091730Z 06005KT 9999 OVC013 05/02 Q1011 NOSIG",
      "taf": "TAF LHBP 091715Z 0918/1018 07005KT 9999 OVC015"
    },
    {
      "icao": "LHDC",
      "alert": "OK",
      "vis_m": 9999,
      "fzfg": false,
      "metar_trigger": false,
      "taf_trigger": false,
      "metar": "METAR LHDC 091715Z AUTO 07006KT CAVOK 06/04 Q1011 NOSIG",
      "taf": "TAF LHDC 091715Z 0918/1003 05007KT CAVOK"
    },
    {
      "icao": "LIBD",
      "alert": "OK",
      "vis_m": 9999,
      "fzfg": false,
      "metar_trigger": false,
      "taf_trigger": false,
      "metar": "METAR LIBD 091720Z 28004KT 9999 FEW035 10/07 Q1005",
      "taf": "TAF LIBD 091700Z 0918/1018 26007KT 9999 SCT040"
    },
    {
      "icao": "LIBG",
      "alert": "OK",
      "vis_m": 9999,
      "fzfg": false,
      "metar_trigger": false,
      "taf_trigger": false,
      "metar": "METAR LIBG 091650Z 32003KT 9999 FEW010 SCT040 11/09 Q1004",
      "taf": "TAF LIBG 091700Z 0918/1003 32010KT 9999 SCT015 SCT040"
    },
    {
      "icao": "LIBP",
      "alert": "OK",
      "vis_m": 9999,
      "fzfg": false,
      "metar_trigger": false,
      "taf_trigger": false,
      "metar": "METAR LIBP 091720Z AUTO 33003KT 300V010 9999 BKN079/// 11/09 Q1007",
      "taf": "TAF LIBP 091700Z 0918/1018 26006KT 7000 BKN020"
    },
    {
      "icao": "LIBR",
      "alert": "OK",
      "vis_m": 9999,
      "fzfg": false,
      "metar_trigger": false,
      "taf_trigger": false,
      "metar": "METAR LIBR 091720Z 34001KT 9999 FEW030 12/09 Q1005",
      "taf": "TAF LIBR 091700Z 0918/1018 VRB05KT 9999 SCT020"
    },
    {
      "icao": "LICA",
      "alert": "OK",
      "vis_m": 9999,
      "fzfg": false,
      "metar_trigger": false,
      "taf_trigger": false,
      "metar": "METAR LICA 091720Z AUTO 22005KT 9999 BKN056/// BKN090/// 11/10 Q1006",
      "taf": "TAF LICA 091700Z 0918/1018 VRB05KT 9999 BKN040"
    },
    {
      "icao": "LICC",
      "alert": "OK",
      "vis_m": 9999,
      "fzfg": false,
      "metar_trigger": false,
      "taf_trigger": false,
      "metar": "METAR LICC 091720Z 25007KT 9999 SCT070 13/10 Q1005",
      "taf": "TAF LICC 091700Z 0918/1018 26005KT 9999 SCT030"
    },
    {
      "icao": "LICJ",
      "alert": "OK",
      "vis_m": 9999,
      "fzfg": false,
      "metar_trigger": false,
      "taf_trigger": false,
      "metar": "METAR LICJ 091720Z AUTO 26018KT 9999 SCT022/// 14/11 Q1007",
      "taf": "TAF LICJ 091700Z 0918/1018 26015KT 9999 FEW020 SCT040"
    },
    {
      "icao": "LIMC",
      "alert": "OK",
      "vis_m": 9999,
      "fzfg": false,
      "metar_trigger": false,
      "taf_trigger": false,
      "metar": "METAR LIMC 091720Z 04005KT 9999 -RA BKN060 08/07 Q1007 NOSIG",
      "taf": "TAF LIMC 091700Z 0918/1024 VRB04KT 9999 SCT030"
    },
    {
      "icao": "LIME",
      "alert": "OK",
      "vis_m": 9999,
      "fzfg": false,
      "metar_trigger": false,
      "taf_trigger": false,
      "metar": "METAR LIME 091720Z 15004KT 110V190 9999 FEW020TCU SCT030 BKN065 10/06 Q1007 NOSIG",
      "taf": "TAF LIME 091700Z 0918/1018 VRB04KT 9999 SCT030"
    },
    {
      "icao": "LIMF",
      "alert": "OK",
      "vis_m": 9999,
      "fzfg": false,
      "metar_trigger": false,
      "taf_trigger": false,
      "metar": "METAR LIMF 091720Z 03003KT 9999 SCT050 BKN090 10/05 Q1006",
      "taf": "TAF LIMF 091700Z 0918/1018 VRB04KT 9999 BKN030"
    },
    {
      "icao": "LIMJ",
      "alert": "OK",
      "vis_m": 9999,
      "fzfg": false,
      "metar_trigger": false,
      "taf_trigger": false,
      "metar": "METAR LIMJ 091720Z 03008KT CAVOK 11/05 Q1006",
      "taf": "TAF LIMJ 091700Z 0918/1018 05007KT 9999 FEW020"
    },
    {
      "icao": "LIPE",
      "alert": "OK",
      "vis_m": 5000,
      "fzfg": false,
      "metar_trigger": false,
      "taf_trigger": false,
      "metar": "METAR LIPE 091720Z 22003KT 5000 BR BKN020 09/08 Q1007",
      "taf": "TAF LIPE 091700Z 0918/1018 VRB05KT 3000 BR SCT020"
    },
    {
      "icao": "LIPH",
      "alert": "OK",
      "vis_m": 9999,
      "fzfg": false,
      "metar_trigger": false,
      "taf_trigger": false,
      "metar": "METAR LIPH 091720Z 18002KT CAVOK 09/07 Q1007",
      "taf": "TAF LIPH 091700Z 0918/1018 VRB05KT 7000 SCT060"
    },
    {
      "icao": "LIPQ",
      "alert": "OK",
      "vis_m": 9999,
      "fzfg": false,
      "metar_trigger": false,
      "taf_trigger": false,
      "metar": "METAR LIPQ 091720Z AUTO 10003KT 9999 OVC087/// 10/05 Q1007",
      "taf": "TAF LIPQ 091700Z 0918/1018 VRB05KT 9999 BKN050"
    },
    {
      "icao": "LIPR",
      "alert": "OK",
      "vis_m": 9999,
      "fzfg": false,
      "metar_trigger": false,
      "taf_trigger": false,
      "metar": "METAR LIPR 091720Z 31003KT 9999 SCT010 BKN040 09/08 Q1007",
      "taf": "TAF LIPR 091700Z 0918/1018 VRB05KT 6000 SCT010 BKN020"
    },
    {
      "icao": "LIPX",
      "alert": "OK",
      "vis_m": 9999,
      "fzfg": false,
      "metar_trigger": false,
      "taf_trigger": false,
      "metar": "METAR LIPX 091720Z 09001KT 9999 FEW040 BKN070 08/06 Q1007",
      "taf": "TAF LIPX 091700Z 0918/1018 VRB04KT 9999 SCT050"
    },
    {
      "icao": "LIPY",
      "alert": "OK",
      "vis_m": 9999,
      "fzfg": false,
      "metar_trigger": false,
      "taf_trigger": false,
      "metar": "METAR LIPY 091720Z AUTO 31002KT 9999 BKN017/// BKN063/// BKN130/// 10/09 Q1007",
      "taf": "TAF LIPY 091700Z 0918/1018 31007KT 7000 BKN020"
    },
    {
      "icao": "LIPZ",
      "alert": "OK",
      "vis_m": 9999,
      "fzfg": false,
      "metar_trigger": false,
      "taf_trigger": false,
      "metar": "METAR LIPZ 091720Z 27003KT CAVOK 09/07 Q1007 NOSIG",
      "taf": "TAF LIPZ 091700Z 0918/1024 05006KT 9999 SCT060"
    },
    {
      "icao": "LIRF",
      "alert": "OK",
      "vis_m": 9999,
      "fzfg": false,
      "metar_trigger": false,
      "taf_trigger": false,
      "metar": "METAR LIRF 091720Z 27003KT CAVOK 13/09 Q1005 NOSIG",
      "taf": "TAF LIRF 091700Z 0918/1024 08005KT 9999 FEW050"
    },
    {
      "icao": "LIRN",
      "alert": "OK",
      "vis_m": 9999,
      "fzfg": false,
      "metar_trigger": false,
      "taf_trigger": false,
      "metar": "METAR LIRN 091720Z VRB02KT 9999 SCT060 12/07 Q1005 NOSIG",
      "taf": "TAF LIRN 091700Z 0918/1018 VRB05KT 9999 SCT040"
    },
    {
      "icao": "LIRP",
      "alert": "OK",
      "vis_m": 9999,
      "fzfg": false,
      "metar_trigger": false,
      "taf_trigger": false,
      "metar": "METAR LIRP 091715Z 32003KT 9999 FEW030 SCT050 12/10 Q1006 NOSIG",
      "taf": "TAF LIRP 091700Z 0918/1018 VRB03KT 9999 FEW030 SCT060"
    },
    {
      "icao": "LIRZ",
      "alert": "OK",
      "vis_m": 9999,
      "fzfg": false,
      "metar_trigger": false,
      "taf_trigger": false,
      "metar": "METAR LIRZ 091720Z AUTO 35008KT 9999 FEW045/// BKN065/// BKN088/// 10/08 Q1005",
      "taf": "TAF LIRZ 091700Z 0918/1018 02008KT 9999 SCT050"
    },
    {
      "icao": "LJLJ",
      "alert": "OK",
      "vis_m": 9999,
      "fzfg": false,
      "metar_trigger": false,
      "taf_trigger": false,
      "metar": "METAR LJLJ 091730Z VRB01KT 9999 -RA FEW003 SCT023 OVC040 05/05 Q1008 NOSIG",
      "taf": "TAF LJLJ 091700Z 0918/1018 VRB02KT 9999 FEW005 SCT013 OVC035"
    },
    {
      "icao": "LKMT",
      "alert": "OK",
      "vis_m": 6000,
      "fzfg": false,
      "metar_trigger": false,
      "taf_trigger": false,
      "metar": "METAR LKMT 091730Z 03006KT 6000 SCT012 OVC024 M01/M02 Q1011 NOSIG",
      "taf": "TAF LKMT 091700Z 0918/1018 02006KT 5000 BR OVC010"
    },
    {
      "icao": "LKPR",
      "alert": "OK",
      "vis_m": 9000,
      "fzfg": false,
      "metar_trigger": false,
      "taf_trigger": false,
      "metar": "METAR LKPR 091730Z 04002KT 9000 BKN011 OVC015 02/01 Q1008 NOSIG",
      "taf": "TAF LKPR 091700Z 0918/1024 07004KT 7000 SCT008 BKN012"
    },
    {
      "icao": "LLBG",
      "alert": "OK",
      "vis_m": 9000,
      "fzfg": false,
      "metar_trigger": false,
      "taf_trigger": false,
      "metar": "METAR LLBG 091720Z VRB03KT 9000 NSC 19/15 Q1010 NOSIG",
      "taf": "TAF LLBG 091710Z 0918/1018 VRB04KT CAVOK"
    },
    {
      "icao": "LMML",
      "alert": "OK",
      "vis_m": 9999,
      "fzfg": false,
      "metar_trigger": false,
      "taf_trigger": false,
      "metar": "METAR LMML 091715Z 28018KT 9999 FEW018TCU SCT045 13/10 Q1008 NOSIG",
      "taf": "TAF LMML 091700Z 0918/1018 28017KT 9999 SCT020"
    },
    {
      "icao": "LOWW",
      "alert": "OK",
      "vis_m": 9999,
      "fzfg": false,
      "metar_trigger": false,
      "taf_trigger": false,
      "metar": "METAR LOWW 091720Z 15007KT 9999 FEW011 BKN013 06/04 Q1009 NOSIG",
      "taf": "TAF LOWW 091715Z 0918/1024 13012KT 8000 FEW007 BKN012 TX05/1013Z TN03/1006Z"
    },
    {
      "icao": "LPFR",
      "alert": "OK",
      "vis_m": 3500,
      "fzfg": false,
      "metar_trigger": false,
      "taf_trigger": false,
      "metar": "METAR LPFR 091730Z 25013KT 3500 R28/1100U -DZ BR OVC002 15/15 Q1016",
      "taf": "TAF LPFR 091700Z 0918/1018 25013KT 8000 SCT004 BKN008"
    },
    {
      "icao": "LPMA",
      "alert": "OK",
      "vis_m": 9999,
      "fzfg": false,
      "metar_trigger": false,
      "taf_trigger": false,
      "metar": "METAR LPMA 091730Z VRB02KT 9999 BKN015 19/15 Q1023",
      "taf": "TAF LPMA 091700Z 0918/1018 VRB05KT 9999 SCT015"
    },
    {
      "icao": "LPPR",
      "alert": "OK",
      "vis_m": 700,
      "fzfg": false,
      "metar_trigger": false,
      "taf_trigger": false,
      "metar": "METAR LPPR 091730Z 23008KT 210V270 0700 R17/0800 FG VV002 14/14 Q1010",
      "taf": "TAF LPPR 091700Z 0918/1018 22010KT 6000 SCT004 BKN008"
    },
    {
      "icao": "LPPS",
      "alert": "OK",
      "vis_m": 9999,
      "fzfg": false,
      "metar_trigger": false,
      "taf_trigger": false,
      "metar": "METAR LPPS 091730Z 28010KT 9999 FEW005 18/17 Q1022",
      "taf": "TAF LPPS 091700Z 0918/1024 28010KT 9999 SCT008 SCT015"
    },
    {
      "icao": "LPPT",
      "alert": "OK",
      "vis_m": 9000,
      "fzfg": false,
      "metar_trigger": false,
      "taf_trigger": false,
      "metar": "METAR LPPT 091730Z 28011KT 240V300 9000 4500N -DZ FEW002 BKN005 16/15 Q1013",
      "taf": "TAF LPPT 091700Z 0918/1024 25010KT 6000 SCT004 BKN008"
    },
    {
      "icao": "LQBK",
      "alert": "OK",
      "vis_m": 8000,
      "fzfg": false,
      "metar_trigger": false,
      "taf_trigger": false,
      "metar": "METAR LQBK 091730Z 33004KT 8000 -RA BKN013 OVC030 08/07 Q1008 NOSIG",
      "taf": "TAF LQBK 091700Z 0918/1018 34005KT 9999 BKN015 OVC025 TX08/1013Z TN05/1005Z"
    },
    {
      "icao": "LQSA",
      "alert": "OK",
      "vis_m": 9999,
      "fzfg": false,
      "metar_trigger": false,
      "taf_trigger": false,
      "metar": "METAR LQSA 091730Z 32005KT 9999 FEW030 BKN040 08/05 Q1006 NOSIG",
      "taf": "TAF LQSA 091700Z 0918/1018 VRB02KT 9999 SCT035 TX09/1013Z TN03/1005Z"
    },
    {
      "icao": "LQTZ",
      "alert": "OK",
      "vis_m": 9999,
      "fzfg": false,
      "metar_trigger": false,
      "taf_trigger": false,
      "metar": "METAR LQTZ 091730Z 10004KT 070V130 9999 OVC019 08/07 Q1008",
      "taf": "TAF LQTZ 091700Z 0918/1018 09005KT 9999 SCT025 BKN045 TX11/1012Z TN03/1005Z"
    },
    {
      "icao": "LRBC",
      "alert": "OK",
      "vis_m": 9999,
      "fzfg": false,
      "metar_trigger": false,
      "taf_trigger": false,
      "metar": "METAR LRBC 091730Z 34006KT 9999 OVC020 M07/M09 Q1021",
      "taf": "TAF LRBC 091700Z 0918/1003 VRB04KT 9999 BKN020"
    },
    {
      "icao": "LRBS",
      "alert": "OK",
      "vis_m": 9999,
      "fzfg": false,
      "metar_trigger": false,
      "taf_trigger": false,
      "metar": "METAR LRBS 091730Z 07015KT 9999 SCT014 OVC042 M03/M06 Q1020 NOSIG",
      "taf": "TAF LRBS 091700Z 0918/1018 07016KT 9999 SCT015 BKN035"
    },
    {
      "icao": "LRBV",
      "alert": "OK",
      "vis_m": 9999,
      "fzfg": false,
      "metar_trigger": false,
      "taf_trigger": false,
      "metar": "METAR LRBV 091730Z 07011KT 9999 FEW026 BKN062 M02/M05 Q1014",
      "taf": "TAF LRBV 091700Z 0918/1003 10010KT 9999 BKN030"
    },
    {
      "icao": "LRCL",
      "alert": "OK",
      "vis_m": 9999,
      "fzfg": false,
      "metar_trigger": false,
      "taf_trigger": false,
      "metar": "METAR LRCL 091730Z 11007KT 070V150 9999 OVC023 02/M01 Q1013",
      "taf": "TAF LRCL 091700Z 0918/1003 10008KT 9999 SCT015 OVC025"
    },
    {
      "icao": "LRCV",
      "alert": "OK",
      "vis_m": 7000,
      "fzfg": false,
      "metar_trigger": false,
      "taf_trigger": false,
      "metar": "METAR LRCV 091730Z 09014KT 7000 SN OVC013 M01/M03 Q1018",
      "taf": "TAF LRCV 091700Z 0918/1003 10018KT 9999 -SN BKN015 OVC035"
    },
    {
      "icao": "LRIA",
      "alert": "OK",
      "vis_m": 9999,
      "fzfg": false,
      "metar_trigger": false,
      "taf_trigger": false,
      "metar": "METAR LRIA 091730Z VRB01KT 9999 OVC015 M07/M10 Q1022",
      "taf": "TAF LRIA 091700Z 0918/1003 VRB04KT 9999 BKN015"
    },
    {
      "icao": "LROP",
      "alert": "OK",
      "vis_m": 9999,
      "fzfg": false,
      "metar_trigger": false,
      "taf_trigger": false,
      "metar": "METAR LROP 091730Z 08017KT 9999 FEW013 OVC042 M03/M07 Q1020 NOSIG",
      "taf": "TAF LROP 091700Z 0918/1018 07016KT 9999 SCT015 BKN035"
    },
    {
      "icao": "LRSB",
      "alert": "OK",
      "vis_m": 9999,
      "fzfg": false,
      "metar_trigger": false,
      "taf_trigger": false,
      "metar": "METAR LRSB 091730Z 11008KT 9999 SCT046 BKN060 02/M02 Q1011",
      "taf": "TAF LRSB 091700Z 0918/1018 10012KT 9999 BKN050"
    },
    {
      "icao": "LRSM",
      "alert": "OK",
      "vis_m": 9999,
      "fzfg": false,
      "metar_trigger": false,
      "taf_trigger": false,
      "metar": "METAR LRSM 091730Z AUTO 13007KT 9999 OVC065/// 05/00 Q1013",
      "taf": "TAF LRSM 091400Z 0915/0924 13008KT 9999 BKN045"
    },
    {
      "icao": "LRSV",
      "alert": "OK",
      "vis_m": 9999,
      "fzfg": false,
      "metar_trigger": false,
      "taf_trigger": false,
      "metar": "METAR LRSV 091730Z 13008KT 9999 OVC012 M09/M10 Q1018",
      "taf": "TAF LRSV 091700Z 0918/1003 12006KT 9999 BKN010"
    },
    {
      "icao": "LRTM",
      "alert": "OK",
      "vis_m": 9999,
      "fzfg": false,
      "metar_trigger": false,
      "taf_trigger": false,
      "metar": "METAR LRTM 091730Z AUTO 08006KT 9999 FEW028/// OVC033/// 02/M02 Q1014",
      "taf": "TAF LRTM 091700Z 0918/1003 10008KT 9999 BKN025"
    },
    {
      "icao": "LRTR",
      "alert": "OK",
      "vis_m": 9999,
      "fzfg": false,
      "metar_trigger": false,
      "taf_trigger": false,
      "metar": "METAR LRTR 091730Z 20003KT 9999 SCT026 BKN035 07/01 Q1011",
      "taf": "TAF LRTR 091700Z 0918/1018 VRB04KT 9999 BKN030"
    },
    {
      "icao": "LTAC",
      "alert": "OK",
      "vis_m": 9999,
      "fzfg": false,
      "metar_trigger": false,
      "taf_trigger": false,
      "metar": "METAR LTAC 091720Z 33003KT 9999 SCT030 BKN080 06/03 Q1010 NOSIG RMK RWY21C 36005KT 320V020 RWY03L 32003KT RWY21R 02006KT 330V030 RWY03R 30003KT RWY21L 33002KT",
      "taf": "TAF LTAC 091640Z 0918/1018 VRB02KT 9999 SCT040 BKN100"
    },
    {
      "icao": "LTFM",
      "alert": "OK",
      "vis_m": 9999,
      "fzfg": false,
      "metar_trigger": false,
      "taf_trigger": false,
      "metar": "METAR LTFM 091720Z 07019KT 9999 -RA BKN007 BKN022 07/05 Q1013 NOSIG RMK RWY17L 07022KT RWY34L 07020KT RWY16R 07023KT RWY36 07022KT RWY18 08021KT",
      "taf": "TAF LTFM 091640Z 0918/1024 06020G30KT 9999 -RA BKN007 BKN022"
    },
    {
      "icao": "LUKK",
      "alert": "OK",
      "vis_m": 9999,
      "fzfg": false,
      "metar_trigger": false,
      "taf_trigger": false,
      "metar": "METAR LUKK 091730Z 05004KT CAVOK M09/M12 Q1022 NOSIG",
      "taf": "TAF LUKK 091727Z 0918/1018 VRB05KT CAVOK"
    },
    {
      "icao": "LWOH",
      "alert": "OK",
      "vis_m": 9999,
      "fzfg": false,
      "metar_trigger": false,
      "taf_trigger": false,
      "metar": "METAR LWOH 091720Z 30004KT 280V340 9999 SCT040 SCT080 08/04 Q1006",
      "taf": "TAF LWOH 091725Z 0918/1018 VRB03KT 9999 SCT045 BKN080"
    },
    {
      "icao": "LWSK",
      "alert": "OK",
      "vis_m": 9999,
      "fzfg": false,
      "metar_trigger": false,
      "taf_trigger": false,
      "metar": "METAR LWSK 091720Z 10005KT 9999 FEW033 SCT055 BKN080 10/07 Q1007 NOSIG",
      "taf": "TAF LWSK 091725Z 0918/1018 10005KT 9999 FEW035 SCT050 BKN080"
    },
    {
      "icao": "LYBE",
      "alert": "OK",
      "vis_m": 9999,
      "fzfg": false,
      "metar_trigger": false,
      "taf_trigger": false,
      "metar": "METAR LYBE 091730Z 11017KT 9999 SCT047 03/M02 Q1011 NOSIG",
      "taf": "TAF LYBE 091700Z 0918/1018 11018KT 9999 SCT045 TX04/1013Z TNM01/1006Z"
    },
    {
      "icao": "LYNI",
      "alert": "OK",
      "vis_m": 9999,
      "fzfg": false,
      "metar_trigger": false,
      "taf_trigger": false,
      "metar": "METAR LYNI 091730Z 04009KT 020V100 9999 FEW020 SCT050 BKN070 03/M00 Q1011 NOSIG",
      "taf": "TAF LYNI 091700Z 0918/1018 06009KT 9999 SCT017 BKN045 OVC080 TX03/1012Z TNM01/1005Z"
    },
    {
      "icao": "LYPG",
      "alert": "OK",
      "vis_m": 9999,
      "fzfg": false,
      "metar_trigger": false,
      "taf_trigger": false,
      "metar": "METAR LYPG 091730Z VRB01KT 9999 -RA FEW030 SCT050 OVC070 10/09 Q1006 NOSIG",
      "taf": "TAF LYPG 091700Z 0918/1018 VRB02KT 9999 FEW015 SCT040 BKN070 TX12/1012Z TN08/1005Z"
    },
    {
      "icao": "LZIB",
      "alert": "OK",
      "vis_m": 7000,
      "fzfg": false,
      "metar_trigger": false,
      "taf_trigger": false,
      "metar": "METAR LZIB 091730Z 09005KT 7000 SCT026 BKN037 06/05 Q1010 NOSIG",
      "taf": "TAF LZIB 091715Z 0918/1018 12008KT 7000 FEW010 BKN025"
    },
    {
      "icao": "LZKZ",
      "alert": "OK",
      "vis_m": 9999,
      "fzfg": false,
      "metar_trigger": false,
      "taf_trigger": false,
      "metar": "METAR LZKZ 091730Z 03003KT 9999 FEW021 BKN037 03/M02 Q1012 NOSIG",
      "taf": "TAF LZKZ 091715Z 0918/1018 01016KT 9999 BKN035"
    },
    {
      "icao": "LZTT",
      "alert": "OK",
      "vis_m": 8000,
      "fzfg": false,
      "metar_trigger": false,
      "taf_trigger": false,
      "metar": "METAR LZTT 091730Z VRB02KT 8000 -SN OVC004 M01/M02 Q1010 NOSIG",
      "taf": "TAF LZTT 091715Z 0918/1018 14005KT 9999 SCT002 OVC011"
    },
    {
      "icao": "OEJN",
      "alert": "OK",
      "vis_m": 9999,
      "fzfg": false,
      "metar_trigger": false,
      "taf_trigger": false,
      "metar": "METAR OEJN 091700Z 28003KT CAVOK 28/14 Q1012 NOSIG",
      "taf": "TAF OEJN 091700Z 0918/1024 VRB03KT CAVOK"
    },
    {
      "icao": "OEMA",
      "alert": "OK",
      "vis_m": 9999,
      "fzfg": false,
      "metar_trigger": false,
      "taf_trigger": false,
      "metar": "METAR OEMA 091700Z 30004KT CAVOK 26/M03 Q1016 NOSIG",
      "taf": "TAF OEMA 091700Z 0918/1024 VRB03KT CAVOK"
    },
    {
      "icao": "OJAI",
      "alert": "OK",
      "vis_m": 3000,
      "fzfg": false,
      "metar_trigger": false,
      "taf_trigger": false,
      "metar": "METAR OJAI 091700Z 27003KT 3000 DU NSC 17/04 Q1013 NOSIG",
      "taf": "TAF OJAI 091700Z 0918/1024 25012KT 3000 DU NSC"
    },
    {
      "icao": "OMAA",
      "alert": "OK",
      "vis_m": 9999,
      "fzfg": false,
      "metar_trigger": false,
      "taf_trigger": false,
      "metar": "METAR OMAA 091730Z 31002KT CAVOK 23/13 Q1015 NOSIG",
      "taf": "TAF OMAA 091700Z 0918/1100 VRB02KT 8000 NSC"
    },
    {
      "icao": "OMDB",
      "alert": "OK",
      "vis_m": 9999,
      "fzfg": false,
      "metar_trigger": false,
      "taf_trigger": false,
      "metar": "METAR OMDB 091730Z 26006KT 230V290 CAVOK 23/18 Q1015 NOSIG",
      "taf": "TAF OMDB 091700Z 0918/1100 22005KT 8000 NSC"
    },
    {
      "icao": "UAAA",
      "alert": "OK",
      "vis_m": 2500,
      "fzfg": false,
      "metar_trigger": false,
      "taf_trigger": false,
      "metar": "METAR UAAA 091730Z 08002MPS 050V110 2500 BR FU SCT100 BKN200 01/M02 Q1003 NOSIG",
      "taf": "TAF UAAA 091711Z 0918/1018 21003MPS 3100 BR FU SCT050CB BKN100 TX07/1009Z TNM03/1002Z"
    },
    {
      "icao": "UBBB",
      "alert": "OK",
      "vis_m": 9999,
      "fzfg": false,
      "metar_trigger": false,
      "taf_trigger": false,
      "metar": "METAR UBBB 091730Z 20006KT CAVOK 06/04 Q1009 NOSIG",
      "taf": "TAF UBBB 091705Z 0918/1018 VRB04KT 6000 BKN012 BKN020 TX04/1006Z TN02/1002Z"
    },
    {
      "icao": "UDSG",
      "alert": "OK",
      "vis_m": 8000,
      "fzfg": false,
      "metar_trigger": false,
      "taf_trigger": false,
      "metar": "METAR UDSG 091730Z 10005KT 8000 OVC016 M00/M00 Q1008 NOSIG",
      "taf": "TAF UDSG 091700Z 0918/1018 VRB04KT 1500 BR OVC008"
    },
    {
      "icao": "UDYZ",
      "alert": "OK",
      "vis_m": 2500,
      "fzfg": false,
      "metar_trigger": false,
      "taf_trigger": false,
      "metar": "METAR UDYZ 091730Z 34002KT 2500 BR FEW046 02/02 Q1009 NOSIG",
      "taf": "TAF UDYZ 091700Z 0918/1018 VRB06KT 2000 BR SCT040"
    },
    {
      "icao": "UGKO",
      "alert": "OK",
      "vis_m": 4500,
      "fzfg": false,
      "metar_trigger": false,
      "taf_trigger": false,
      "metar": "METAR UGKO 091730Z 24014KT 4500 SHRA BKN011CB OVC032 07/07 Q1010 NOSIG",
      "taf": ""
    }
  ]
}