{
  "ts_utc": "2026-03-26T00:02:29Z",
  "threshold_m": 150,
  "source": "stations_override.txt (ICAO list) + aviationweather.gov (METAR/TAF raw)",
  "station_count": 159,
  "stations": [
    {
      "icao": "BIKF",
      "alert": "OK",
      "vis_m": 9999,
      "fzfg": false,
      "metar_trigger": false,
      "taf_trigger": false,
      "metar": "METAR BIKF 252330Z 09013KT 9999 BKN048 BKN190 M03/M10 Q1012",
      "taf": "TAF BIKF 252253Z 2600/2700 13016KT 9999 FEW030 TX04/2615Z TNM03/2600Z"
    },
    {
      "icao": "BKPR",
      "alert": "OK",
      "vis_m": 9999,
      "fzfg": false,
      "metar_trigger": false,
      "taf_trigger": false,
      "metar": "METAR BKPR 260000Z 14006KT CAVOK 06/M00 Q1004 NOSIG",
      "taf": "TAF BKPR 252330Z 2600/2624 20009KT CAVOK"
    },
    {
      "icao": "EBCI",
      "alert": "OK",
      "vis_m": 9999,
      "fzfg": false,
      "metar_trigger": false,
      "taf_trigger": false,
      "metar": "METAR EBCI 252350Z /////KT 9999 R24///// BKN024 01/00 Q1012 TEMPO 4000 SHRASN",
      "taf": "TAF EBCI 252315Z 2600/2706 31014KT 9999 SCT025"
    },
    {
      "icao": "EDDB",
      "alert": "OK",
      "vis_m": 9999,
      "fzfg": false,
      "metar_trigger": false,
      "taf_trigger": false,
      "metar": "METAR EDDB 252350Z AUTO 26007KT CAVOK 01/M00 Q1004 NOSIG",
      "taf": "TAF EDDB 252300Z 2600/2624 26008KT 9999 FEW030"
    },
    {
      "icao": "EDDH",
      "alert": "OK",
      "vis_m": 9999,
      "fzfg": false,
      "metar_trigger": false,
      "taf_trigger": false,
      "metar": "METAR EDDH 252350Z AUTO 26010KT 230V290 9999 FEW019 04/01 Q1004 NOSIG",
      "taf": "TAF EDDH 252300Z 2600/2706 27009KT 9999 SCT025"
    },
    {
      "icao": "EDDK",
      "alert": "OK",
      "vis_m": 9999,
      "fzfg": false,
      "metar_trigger": false,
      "taf_trigger": false,
      "metar": "METAR EDDK 252350Z AUTO 27007KT 9999 FEW017 BKN040 03/01 Q1010 NOSIG",
      "taf": "TAF EDDK 252300Z 2600/2706 27008KT 9999 BKN025"
    },
    {
      "icao": "EDDN",
      "alert": "OK",
      "vis_m": 9999,
      "fzfg": false,
      "metar_trigger": false,
      "taf_trigger": false,
      "metar": "METAR EDDN 252350Z AUTO 30008KT 9999 BKN010 BKN015 03/02 Q1007",
      "taf": "TAF EDDN 252300Z 2600/2624 30008KT 9999 BKN006"
    },
    {
      "icao": "EDDS",
      "alert": "OK",
      "vis_m": 9999,
      "fzfg": false,
      "metar_trigger": false,
      "taf_trigger": false,
      "metar": "METAR EDDS 252350Z AUTO 29005KT 9999 VCSH SCT018 SCT028 BKN040 FEW///CB 03/01 Q1008",
      "taf": "TAF EDDS 252300Z 2600/2624 30010KT 9999 BKN025"
    },
    {
      "icao": "EDFH",
      "alert": "OK",
      "vis_m": 9999,
      "fzfg": false,
      "metar_trigger": false,
      "taf_trigger": false,
      "metar": "METAR EDFH 252350Z 27009KT 9999 BKN002 01/00 Q1008",
      "taf": "TAF EDFH 252300Z 2600/2624 30010KT 9999 SCT003 BKN006"
    },
    {
      "icao": "EDJA",
      "alert": "OK",
      "vis_m": 9999,
      "fzfg": false,
      "metar_trigger": false,
      "taf_trigger": false,
      "metar": "METAR EDJA 252350Z AUTO 25003KT 210V280 9999 // FEW002/// OVC015/// 00/M00 Q1007",
      "taf": "TAF EDJA 251700Z 2518/2603 24015G25KT 9999 BKN025"
    },
    {
      "icao": "EDLW",
      "alert": "OK",
      "vis_m": 9999,
      "fzfg": false,
      "metar_trigger": false,
      "taf_trigger": false,
      "metar": "METAR EDLW 252350Z AUTO 24006KT 9999 // FEW024/// BKN052/// 03/01 Q1008",
      "taf": "TAF EDLW 251700Z 2518/2618 28008KT 9999 BKN020"
    },
    {
      "icao": "EDNY",
      "alert": "OK",
      "vis_m": 9999,
      "fzfg": false,
      "metar_trigger": false,
      "taf_trigger": false,
      "metar": "METAR EDNY 252350Z AUTO 26004KT 230V310 9999 // SCT029/// BKN040/// OVC048/// 02/01 Q1008",
      "taf": "TAF EDNY 251700Z 2518/2603 24012G25KT 9999 BKN030"
    },
    {
      "icao": "EDSB",
      "alert": "OK",
      "vis_m": 9999,
      "fzfg": false,
      "metar_trigger": false,
      "taf_trigger": false,
      "metar": "METAR EDSB 252350Z AUTO 28006KT 230V320 9999 FEW015/// BKN031/// OVC043/// 05/02 Q1010",
      "taf": "TAF EDSB 252300Z 2600/2624 23005KT 9999 BKN020"
    },
    {
      "icao": "EETN",
      "alert": "OK",
      "vis_m": 9999,
      "fzfg": false,
      "metar_trigger": false,
      "taf_trigger": false,
      "metar": "METAR EETN 252350Z 20012KT CAVOK 08/03 Q0992",
      "taf": "TAF EETN 252330Z 2600/2624 20012KT 9999 SCT020"
    },
    {
      "icao": "EFTU",
      "alert": "OK",
      "vis_m": 9999,
      "fzfg": false,
      "metar_trigger": false,
      "taf_trigger": false,
      "metar": "METAR EFTU 252350Z AUTO 21014G24KT 9999 FEW015 BKN031 04/01 Q0987",
      "taf": "TAF EFTU 252324Z 2600/2624 19012G22KT CAVOK"
    },
    {
      "icao": "EGBB",
      "alert": "OK",
      "vis_m": 9999,
      "fzfg": false,
      "metar_trigger": false,
      "taf_trigger": false,
      "metar": "METAR EGBB 252350Z 30008KT CAVOK 04/00 Q1018",
      "taf": "TAF EGBB 252255Z 2600/2624 28007KT 9999 FEW035"
    },
    {
      "icao": "EGGP",
      "alert": "OK",
      "vis_m": 9999,
      "fzfg": false,
      "metar_trigger": false,
      "taf_trigger": false,
      "metar": "METAR EGGP 252350Z 30011KT 9999 SCT024 SCT032 06/01 Q1018",
      "taf": "TAF EGGP 252254Z 2600/2624 30012KT 9999 SCT030"
    },
    {
      "icao": "EGGW",
      "alert": "OK",
      "vis_m": 9999,
      "fzfg": false,
      "metar_trigger": false,
      "taf_trigger": false,
      "metar": "METAR EGGW 252350Z AUTO 31012KT 9999 OVC035 04/00 Q1017",
      "taf": "TAF EGGW 252256Z 2600/2624 31010KT 9999 SCT040"
    },
    {
      "icao": "EGKK",
      "alert": "OK",
      "vis_m": 9999,
      "fzfg": false,
      "metar_trigger": false,
      "taf_trigger": false,
      "metar": "METAR EGKK 252350Z 31011KT 9999 FEW037 04/00 Q1017",
      "taf": "TAF EGKK 252301Z 2600/2706 28013KT 9999 FEW045"
    },
    {
      "icao": "EGNM",
      "alert": "OK",
      "vis_m": null,
      "fzfg": false,
      "metar_trigger": false,
      "taf_trigger": false,
      "metar": "",
      "taf": "TAF EGNM 251700Z 2518/2618 30020G30KT 9999 SCT020"
    },
    {
      "icao": "EGPD",
      "alert": "OK",
      "vis_m": 9999,
      "fzfg": false,
      "metar_trigger": false,
      "taf_trigger": false,
      "metar": "METAR EGPD 252350Z AUTO 30013KT 9999 //////TCU 01/M01 Q1015",
      "taf": "TAF EGPD 252257Z 2600/2624 30012KT 9999 FEW020"
    },
    {
      "icao": "EGPF",
      "alert": "OK",
      "vis_m": 9999,
      "fzfg": false,
      "metar_trigger": false,
      "taf_trigger": false,
      "metar": "METAR EGPF 252350Z AUTO 23006KT 9999 NCD M02/M03 Q1019",
      "taf": "TAF EGPF 252303Z 2600/2624 22006KT CAVOK"
    },
    {
      "icao": "EHBK",
      "alert": "OK",
      "vis_m": 9999,
      "fzfg": false,
      "metar_trigger": false,
      "taf_trigger": false,
      "metar": "METAR EHBK 252355Z AUTO 25004KT 220V290 9999 FEW004/// BKN005/// BKN007/// 02/01 Q1011",
      "taf": "TAF EHBK 252304Z 2600/2706 26007KT 9999 BKN030"
    },
    {
      "icao": "EHEH",
      "alert": "OK",
      "vis_m": 9999,
      "fzfg": false,
      "metar_trigger": false,
      "taf_trigger": false,
      "metar": "METAR EHEH 252325Z AUTO 25004KT 230V290 9999 FEW055 SCT060 BKN150 02/01 Q1011 BLU",
      "taf": "TAF EHEH 251806Z 2518/2624 28005KT 9999 SCT025 BKN035"
    },
    {
      "icao": "EKBI",
      "alert": "OK",
      "vis_m": 9999,
      "fzfg": false,
      "metar_trigger": false,
      "taf_trigger": false,
      "metar": "METAR EKBI 252350Z AUTO 27019KT 9999 OVC018/// 04/02 Q0997",
      "taf": "TAF EKBI 252327Z 2600/2624 29015KT 9999 BKN025"
    },
    {
      "icao": "EKCH",
      "alert": "OK",
      "vis_m": 9999,
      "fzfg": false,
      "metar_trigger": false,
      "taf_trigger": false,
      "metar": "METAR EKCH 252350Z AUTO 24019KT 9999 OVC021/// 05/01 Q0995 TEMPO 24018G28KT",
      "taf": "TAF EKCH 252327Z 2600/2624 25018G30KT 9999 BKN035"
    },
    {
      "icao": "ENAL",
      "alert": "OK",
      "vis_m": 9999,
      "fzfg": false,
      "metar_trigger": false,
      "taf_trigger": false,
      "metar": "METAR ENAL 252320Z AUTO 30017KT 9999 -RA OVC028/// 04/01 Q0989",
      "taf": "TAF ENAL 252300Z 2600/2609 32022G32KT 9999 -RA SCT012 BKN035"
    },
    {
      "icao": "ENBR",
      "alert": "OK",
      "vis_m": 9999,
      "fzfg": false,
      "metar_trigger": false,
      "taf_trigger": false,
      "metar": "METAR ENBR 252350Z 31021G32KT 9999 VCSH SCT016 BKN027 02/M00 Q0995 RMK WIND 1200FT 32037G48KT",
      "taf": "TAF ENBR 252300Z 2600/2624 32020KT 9999 -SHRA FEW012TCU BKN025"
    },
    {
      "icao": "ENGM",
      "alert": "OK",
      "vis_m": 9999,
      "fzfg": false,
      "metar_trigger": false,
      "taf_trigger": false,
      "metar": "METAR ENGM 252350Z VRB01KT CAVOK 01/M03 Q0982",
      "taf": "TAF ENGM 252300Z 2600/2624 34008KT CAVOK"
    },
    {
      "icao": "ENHD",
      "alert": "OK",
      "vis_m": 9999,
      "fzfg": false,
      "metar_trigger": false,
      "taf_trigger": false,
      "metar": "METAR ENHD 252350Z AUTO 31026G44KT 9999 SCT023/// SCT030/// BKN040/// 04/01 Q0997",
      "taf": "TAF ENHD 251400Z 2515/2523 32025KT 9999 -SHRA FEW015TCU BKN025"
    },
    {
      "icao": "ENTC",
      "alert": "OK",
      "vis_m": 9999,
      "fzfg": false,
      "metar_trigger": false,
      "taf_trigger": false,
      "metar": "METAR ENTC 252350Z 07005KT CAVOK M02/M03 Q0986 RMK WIND 2600FT 11007KT",
      "taf": "TAF ENTC 252300Z 2600/2624 04008KT 9999 SCT025 BKN050"
    },
    {
      "icao": "ENTO",
      "alert": "OK",
      "vis_m": 9999,
      "fzfg": false,
      "metar_trigger": false,
      "taf_trigger": false,
      "metar": "METAR ENTO 252350Z AUTO 30004KT 9999 NCD 05/M03 Q0984",
      "taf": "TAF ENTO 252300Z 2600/2624 29008KT CAVOK"
    },
    {
      "icao": "ENVA",
      "alert": "OK",
      "vis_m": 9999,
      "fzfg": false,
      "metar_trigger": false,
      "taf_trigger": false,
      "metar": "METAR ENVA 252350Z 09005KT CAVOK M01/M03 Q0980 RMK WIND 670FT 27005KT",
      "taf": "TAF ENVA 252300Z 2600/2624 09005KT CAVOK"
    },
    {
      "icao": "ENZV",
      "alert": "OK",
      "vis_m": 9999,
      "fzfg": false,
      "metar_trigger": false,
      "taf_trigger": false,
      "metar": "METAR ENZV 252350Z 31026KT 9999 SCT015 BKN019 BKN035 04/02 Q0996",
      "taf": "TAF ENZV 252300Z 2600/2624 33025G40KT 9999 -SHRA FEW015TCU BKN025"
    },
    {
      "icao": "EPGD",
      "alert": "OK",
      "vis_m": 9999,
      "fzfg": false,
      "metar_trigger": false,
      "taf_trigger": false,
      "metar": "METAR EPGD 252330Z 24008KT CAVOK 04/01 Q0999",
      "taf": "TAF EPGD 252330Z 2600/2624 26010KT CAVOK"
    },
    {
      "icao": "EPKK",
      "alert": "OK",
      "vis_m": 9999,
      "fzfg": false,
      "metar_trigger": false,
      "taf_trigger": false,
      "metar": "METAR EPKK 252330Z VRB02KT 9999 -RA FEW020 BKN050 10/04 Q1000",
      "taf": "TAF EPKK 252330Z 2600/2624 29008KT 9999 BKN020"
    },
    {
      "icao": "EPKT",
      "alert": "OK",
      "vis_m": 4100,
      "fzfg": false,
      "metar_trigger": false,
      "taf_trigger": false,
      "metar": "METAR EPKT 252330Z 28003KT 250V330 4100 -RA BR SCT031 OVC040 07/06 Q1000",
      "taf": "TAF EPKT 252330Z 2600/2624 32008KT 4000 RA BR BKN014"
    },
    {
      "icao": "EPLB",
      "alert": "OK",
      "vis_m": 9999,
      "fzfg": false,
      "metar_trigger": false,
      "taf_trigger": false,
      "metar": "METAR EPLB 252330Z 30005KT CAVOK 09/01 Q0999",
      "taf": "TAF EPLB 252330Z 2600/2624 VRB03KT CAVOK"
    },
    {
      "icao": "EPMO",
      "alert": "OK",
      "vis_m": 5000,
      "fzfg": false,
      "metar_trigger": false,
      "taf_trigger": false,
      "metar": "METAR EPMO 252330Z 24005KT 5000 BR FEW020 07/07 Q1000",
      "taf": "TAF EPMO 252330Z 2600/2624 VRB02KT 9999 SCT040"
    },
    {
      "icao": "EPPO",
      "alert": "OK",
      "vis_m": 9999,
      "fzfg": false,
      "metar_trigger": false,
      "taf_trigger": false,
      "metar": "METAR EPPO 252330Z 31006KT CAVOK 04/01 Q1002",
      "taf": "TAF EPPO 252330Z 2600/2624 32010KT 9999 SCT040"
    },
    {
      "icao": "EPRA",
      "alert": "OK",
      "vis_m": 9999,
      "fzfg": false,
      "metar_trigger": false,
      "taf_trigger": false,
      "metar": "METAR EPRA 252330Z VRB02KT CAVOK 08/05 Q1000",
      "taf": "TAF EPRA 252330Z 2600/2609 34008KT 9999 SCT040"
    },
    {
      "icao": "EPRZ",
      "alert": "OK",
      "vis_m": 9999,
      "fzfg": false,
      "metar_trigger": false,
      "taf_trigger": false,
      "metar": "METAR EPRZ 252330Z VRB01KT CAVOK 09/M00 Q0999",
      "taf": "TAF EPRZ 252330Z 2600/2624 15007KT CAVOK"
    },
    {
      "icao": "EPSC",
      "alert": "OK",
      "vis_m": 9999,
      "fzfg": false,
      "metar_trigger": false,
      "taf_trigger": false,
      "metar": "METAR EPSC 252330Z 23004KT 200V270 CAVOK 04/00 Q1001",
      "taf": "TAF EPSC 252330Z 2600/2624 23005KT 9999 SCT030"
    },
    {
      "icao": "EPSY",
      "alert": "OK",
      "vis_m": 7000,
      "fzfg": false,
      "metar_trigger": false,
      "taf_trigger": false,
      "metar": "METAR EPSY 252330Z 29005KT 250V330 7000 BKN014 07/06 Q0999",
      "taf": "TAF EPSY 252330Z 2600/2609 27005KT 9999 BKN030"
    },
    {
      "icao": "EPWA",
      "alert": "OK",
      "vis_m": 9000,
      "fzfg": false,
      "metar_trigger": false,
      "taf_trigger": false,
      "metar": "METAR EPWA 252330Z 27005KT 9000 -RA NSC 08/07 Q0999 TEMPO 4000 BR",
      "taf": "TAF EPWA 252330Z 2600/2624 28005KT 9999 SCT040"
    },
    {
      "icao": "EPWR",
      "alert": "OK",
      "vis_m": 9999,
      "fzfg": false,
      "metar_trigger": false,
      "taf_trigger": false,
      "metar": "METAR EPWR 252330Z 29011KT 9999 SCT042 07/04 Q1002",
      "taf": "TAF EPWR 252330Z 2600/2624 33010KT 9999 SCT040"
    },
    {
      "icao": "ESGG",
      "alert": "OK",
      "vis_m": 9999,
      "fzfg": false,
      "metar_trigger": false,
      "taf_trigger": false,
      "metar": "METAR ESGG 252350Z 23007KT 9999 FEW047 SCT064 BKN096 03/02 Q0985",
      "taf": "TAF ESGG 252330Z 2600/2624 26009KT 4000 RA BKN003"
    },
    {
      "icao": "ESKN",
      "alert": "OK",
      "vis_m": 9999,
      "fzfg": false,
      "metar_trigger": false,
      "taf_trigger": false,
      "metar": "METAR ESKN 252350Z 21010KT CAVOK 03/00 Q0986",
      "taf": "TAF ESKN 252330Z 2600/2624 21012KT 9999 SCT040"
    },
    {
      "icao": "ESMS",
      "alert": "OK",
      "vis_m": 9999,
      "fzfg": false,
      "metar_trigger": false,
      "taf_trigger": false,
      "metar": "METAR ESMS 252350Z 24021KT 9999 BKN024 04/01 Q0994",
      "taf": "TAF ESMS 252327Z 2600/2624 25015G30KT 9999 SCT030"
    },
    {
      "icao": "ESSA",
      "alert": "OK",
      "vis_m": 9999,
      "fzfg": false,
      "metar_trigger": false,
      "taf_trigger": false,
      "metar": "METAR ESSA 252350Z 21015KT CAVOK 03/01 Q0984 NOSIG",
      "taf": "TAF ESSA 252330Z 2600/2624 22015KT CAVOK"
    },
    {
      "icao": "EYKA",
      "alert": "OK",
      "vis_m": 9999,
      "fzfg": false,
      "metar_trigger": false,
      "taf_trigger": false,
      "metar": "METAR EYKA 252350Z AUTO 29007KT 9999 BKN100/// 09/05 Q0999",
      "taf": "TAF EYKA 252300Z 2600/2624 VRB04KT 9000 SCT040"
    },
    {
      "icao": "EYPA",
      "alert": "OK",
      "vis_m": 9999,
      "fzfg": false,
      "metar_trigger": false,
      "taf_trigger": false,
      "metar": "METAR EYPA 252350Z AUTO 21007KT 180V250 9999 NCD 03/02 Q0997",
      "taf": "TAF EYPA 252301Z 2600/2624 21010KT 8000 SCT025"
    },
    {
      "icao": "EYVI",
      "alert": "OK",
      "vis_m": 9999,
      "fzfg": false,
      "metar_trigger": false,
      "taf_trigger": false,
      "metar": "METAR EYVI 252350Z 18009KT CAVOK 08/M03 Q0999 NOSIG",
      "taf": "TAF EYVI 252300Z 2600/2624 17010KT CAVOK"
    },
    {
      "icao": "GCFV",
      "alert": "OK",
      "vis_m": 9999,
      "fzfg": false,
      "metar_trigger": false,
      "taf_trigger": false,
      "metar": "METAR GCFV 252330Z 32009KT 9999 FEW030 17/14 Q1013",
      "taf": "TAF GCFV 252000Z 2521/2621 34010KT 9999 FEW020 TX23/2614Z TN17/2606Z"
    },
    {
      "icao": "GCLP",
      "alert": "OK",
      "vis_m": 9999,
      "fzfg": false,
      "metar_trigger": false,
      "taf_trigger": false,
      "metar": "METAR GCLP 252330Z 01019KT 9999 FEW030 18/14 Q1014 NOSIG",
      "taf": "TAF GCLP 252000Z 2521/2621 36017KT 9999 SCT025 TX22/2614Z TN17/2606Z"
    },
    {
      "icao": "GCTS",
      "alert": "OK",
      "vis_m": 9999,
      "fzfg": false,
      "metar_trigger": false,
      "taf_trigger": false,
      "metar": "METAR GCTS 252330Z 05006KT 9999 FEW025 17/12 Q1015 NOSIG",
      "taf": "TAF GCTS 252000Z 2521/2621 VRB07KT 9999 FEW025 TX23/2614Z TN15/2606Z"
    },
    {
      "icao": "GMAD",
      "alert": "OK",
      "vis_m": 8000,
      "fzfg": false,
      "metar_trigger": false,
      "taf_trigger": false,
      "metar": "METAR GMAD 252330Z 07006KT 8000 FEW023 16/00 Q1011 NOSIG",
      "taf": "TAF GMAD 252300Z 2600/2706 05006KT 8000 SCT020"
    },
    {
      "icao": "GMMN",
      "alert": "OK",
      "vis_m": 5000,
      "fzfg": false,
      "metar_trigger": false,
      "taf_trigger": false,
      "metar": "SPECI GMMN 252348Z 34004KT 5000 BKN006 12/11 Q1013 NOSIG",
      "taf": "TAF GMMN 252300Z 2600/2706 VRB02KT 8000 SCT016"
    },
    {
      "icao": "GMMX",
      "alert": "OK",
      "vis_m": 7000,
      "fzfg": false,
      "metar_trigger": false,
      "taf_trigger": false,
      "metar": "METAR GMMX 252330Z 36005KT 320V060 7000 TS SCT016 FEW020CB BKN080 15/12 Q1014 TEMPO 3000 TSRA",
      "taf": "TAF GMMX 252300Z 2600/2706 04006KT 7000 SCT020 BKN080"
    },
    {
      "icao": "HEGN",
      "alert": "OK",
      "vis_m": 4000,
      "fzfg": false,
      "metar_trigger": false,
      "taf_trigger": false,
      "metar": "METAR HEGN 252300Z 30020KT 4000 SA SCT020 BKN025 17/04 Q1002 NOSIG",
      "taf": "TAF HEGN 251720Z 2518/2624 27018G28KT 6000 SCT025"
    },
    {
      "icao": "HEMA",
      "alert": "OK",
      "vis_m": 9999,
      "fzfg": false,
      "metar_trigger": false,
      "taf_trigger": false,
      "metar": "METAR HEMA 252300Z 30016KT CAVOK 20/01 Q1003 NOSIG",
      "taf": "TAF HEMA 251700Z 2518/2624 30018G28KT 6000 SCT025"
    },
    {
      "icao": "HESH",
      "alert": "OK",
      "vis_m": 6000,
      "fzfg": false,
      "metar_trigger": false,
      "taf_trigger": false,
      "metar": "METAR HESH 252300Z 26014KT 6000 NSC 18/03 Q1001 NOSIG",
      "taf": "TAF HESH 251720Z 2518/2624 29015G25KT 6000 SCT025"
    },
    {
      "icao": "HESX",
      "alert": "OK",
      "vis_m": 9999,
      "fzfg": false,
      "metar_trigger": false,
      "taf_trigger": false,
      "metar": "METAR HESX 252300Z 24006KT 9999 SCT020 SCT100 10/08 Q1002 NOSIG",
      "taf": "TAF HESX 251700Z 2518/2624 27018KT 9999 SCT020 SCT025"
    },
    {
      "icao": "LATI",
      "alert": "OK",
      "vis_m": 9999,
      "fzfg": false,
      "metar_trigger": false,
      "taf_trigger": false,
      "metar": "METAR LATI 252350Z VRB02KT CAVOK 07/05 Q1006 NOSIG",
      "taf": "TAF LATI 252300Z 2600/2624 VRB05KT CAVOK TX19/2613Z TN04/2602Z"
    },
    {
      "icao": "LBPD",
      "alert": "OK",
      "vis_m": 9999,
      "fzfg": false,
      "metar_trigger": false,
      "taf_trigger": false,
      "metar": "METAR LBPD 260000Z AUTO 14007KT 9999 BKN095/// 06/03 Q1007",
      "taf": "TAF LBPD 252300Z 2600/2624 12010KT 9999 SCT050"
    },
    {
      "icao": "LBSF",
      "alert": "OK",
      "vis_m": 9999,
      "fzfg": false,
      "metar_trigger": false,
      "taf_trigger": false,
      "metar": "METAR LBSF 260000Z AUTO 10008KT 9999 OVC088/// 07/00 Q1005 NOSIG",
      "taf": "TAF LBSF 252300Z 2600/2624 09010KT 9999 SCT070"
    },
    {
      "icao": "LBWN",
      "alert": "OK",
      "vis_m": 9999,
      "fzfg": false,
      "metar_trigger": false,
      "taf_trigger": false,
      "metar": "METAR LBWN 260000Z AUTO VRB02KT 9999 NCD 01/M02 Q1007 NOSIG",
      "taf": "TAF LBWN 252300Z 2600/2624 VRB03KT CAVOK"
    },
    {
      "icao": "LCLK",
      "alert": "OK",
      "vis_m": 9999,
      "fzfg": false,
      "metar_trigger": false,
      "taf_trigger": false,
      "metar": "METAR LCLK 260000Z 30005KT 9999 FEW070 11/10 Q0998 NOSIG",
      "taf": "TAF LCLK 252330Z 2600/2700 33007KT 9999 FEW040"
    },
    {
      "icao": "LCPH",
      "alert": "OK",
      "vis_m": 9999,
      "fzfg": false,
      "metar_trigger": false,
      "taf_trigger": false,
      "metar": "METAR LCPH 260000Z 02006KT 9999 FEW035 10/08 Q0998 NOSIG",
      "taf": "TAF LCPH 252330Z 2600/2700 03007KT 9999 FEW040"
    },
    {
      "icao": "LEAL",
      "alert": "OK",
      "vis_m": 9999,
      "fzfg": false,
      "metar_trigger": false,
      "taf_trigger": false,
      "metar": "METAR LEAL 252330Z VRB02KT CAVOK 11/09 Q1014 NOSIG",
      "taf": "TAF LEAL 252300Z 2600/2624 VRB04KT CAVOK TX16/2612Z TN08/2606Z"
    },
    {
      "icao": "LEBB",
      "alert": "OK",
      "vis_m": 9000,
      "fzfg": false,
      "metar_trigger": false,
      "taf_trigger": false,
      "metar": "METAR LEBB 252330Z VRB01KT 9000 -RA SCT045 BKN055 08/07 Q1027 TEMPO 3000 RA",
      "taf": "TAF LEBB 252300Z 2600/2624 34009KT 9999 BKN030 TX12/2614Z TN08/2606Z"
    },
    {
      "icao": "LEBL",
      "alert": "OK",
      "vis_m": 9999,
      "fzfg": false,
      "metar_trigger": false,
      "taf_trigger": false,
      "metar": "METAR LEBL 252330Z 34013KT 9999 BKN030 14/03 Q1014 NOSIG",
      "taf": "TAF LEBL 252300Z 2600/2624 32008KT 9999 FEW025 TX15/2612Z TN10/2606Z"
    },
    {
      "icao": "LECH",
      "alert": "OK",
      "vis_m": 9999,
      "fzfg": false,
      "metar_trigger": false,
      "taf_trigger": false,
      "metar": "METAR LECH 252330Z AUTO 26011KT 230V300 CAVOK 12/M01 Q1015",
      "taf": "TAF LECH 252300Z 2600/2624 31009KT CAVOK TX18/2613Z TN05/2606Z"
    },
    {
      "icao": "LEMD",
      "alert": "OK",
      "vis_m": 9999,
      "fzfg": false,
      "metar_trigger": false,
      "taf_trigger": false,
      "metar": "METAR LEMD 252330Z 06007KT 010V130 CAVOK 09/01 Q1019 NOSIG",
      "taf": "TAF LEMD 252300Z 2600/2706 05010KT CAVOK TX18/2616Z TN04/2607Z"
    },
    {
      "icao": "LEMG",
      "alert": "OK",
      "vis_m": 9999,
      "fzfg": false,
      "metar_trigger": false,
      "taf_trigger": false,
      "metar": "METAR LEMG 252330Z 28007KT CAVOK 12/09 Q1015 NOSIG",
      "taf": "TAF LEMG 252300Z 2600/2624 29007KT CAVOK TX20/2613Z TN08/2606Z"
    },
    {
      "icao": "LEVC",
      "alert": "OK",
      "vis_m": 9999,
      "fzfg": false,
      "metar_trigger": false,
      "taf_trigger": false,
      "metar": "METAR LEVC 252330Z 29004KT CAVOK 11/06 Q1015 NOSIG",
      "taf": "TAF LEVC 252300Z 2600/2624 VRB04KT CAVOK TX19/2613Z TN06/2606Z"
    },
    {
      "icao": "LEXJ",
      "alert": "OK",
      "vis_m": 9999,
      "fzfg": false,
      "metar_trigger": false,
      "taf_trigger": false,
      "metar": "METAR LEXJ 252330Z AUTO VRB02KT 9999 FEW036 BKN057 09/06 Q1028",
      "taf": "TAF LEXJ 252000Z 2521/2621 33009KT 9999 FEW025 BKN040 TX12/2613Z TN08/2607Z"
    },
    {
      "icao": "LEZG",
      "alert": "OK",
      "vis_m": 9999,
      "fzfg": false,
      "metar_trigger": false,
      "taf_trigger": false,
      "metar": "METAR LEZG 252330Z 29024G35KT CAVOK 08/02 Q1021 NOSIG",
      "taf": "TAF LEZG 252300Z 2600/2624 31015KT CAVOK TX15/2614Z TN07/2606Z"
    },
    {
      "icao": "LEZL",
      "alert": "OK",
      "vis_m": 9999,
      "fzfg": false,
      "metar_trigger": false,
      "taf_trigger": false,
      "metar": "METAR LEZL 252330Z 08002KT CAVOK 14/10 Q1014 NOSIG",
      "taf": "TAF LEZL 252000Z 2521/2621 VRB03KT CAVOK TX25/2615Z TN11/2607Z"
    },
    {
      "icao": "LFBD",
      "alert": "OK",
      "vis_m": 9999,
      "fzfg": false,
      "metar_trigger": false,
      "taf_trigger": false,
      "metar": "METAR LFBD 252330Z AUTO 28005KT CAVOK 07/04 Q1024 NOSIG",
      "taf": "TAF LFBD 252300Z 2600/2706 30010KT 9999 SCT040 TX14/2614Z TN03/2706Z"
    },
    {
      "icao": "LFLL",
      "alert": "OK",
      "vis_m": 9999,
      "fzfg": false,
      "metar_trigger": false,
      "taf_trigger": false,
      "metar": "METAR LFLL 252330Z 31009KT 9999 FEW050 SCT073 BKN120 04/01 Q1015 TEMPO 34015G30KT 4000 SHRA SCT020TCU",
      "taf": "TAF LFLL 252300Z 2600/2706 32008KT 9999 BKN045"
    },
    {
      "icao": "LFLS",
      "alert": "OK",
      "vis_m": 9999,
      "fzfg": false,
      "metar_trigger": false,
      "taf_trigger": false,
      "metar": "METAR LFLS 252330Z AUTO 32013KT 9999 FEW031 SCT054 BKN084 03/M00 Q1014",
      "taf": "TAF LFLS 251400Z 2515/2615 32012KT 9999 SCT035"
    },
    {
      "icao": "LFMN",
      "alert": "OK",
      "vis_m": 9999,
      "fzfg": false,
      "metar_trigger": false,
      "taf_trigger": false,
      "metar": "METAR LFMN 252330Z 30024G44KT CAVOK 13/M06 Q0999 NOSIG",
      "taf": "TAF LFMN 252000Z 2521/2703 27020G30KT CAVOK"
    },
    {
      "icao": "LFOB",
      "alert": "OK",
      "vis_m": 9999,
      "fzfg": false,
      "metar_trigger": false,
      "taf_trigger": false,
      "metar": "METAR LFOB 252330Z AUTO 29008KT 9999 FEW032 SCT038 03/01 Q1016 TEMPO VRB15G25KT 4000 SHRAGS BKN014 BKN020TCU",
      "taf": "TAF LFOB 252300Z 2600/2624 32013KT 9999 SCT030"
    },
    {
      "icao": "LFPO",
      "alert": "OK",
      "vis_m": 9999,
      "fzfg": false,
      "metar_trigger": false,
      "taf_trigger": false,
      "metar": "METAR LFPO 252330Z 27007KT CAVOK 03/01 Q1017 NOSIG",
      "taf": "TAF LFPO 252300Z 2600/2706 28010KT CAVOK"
    },
    {
      "icao": "LFSB",
      "alert": "OK",
      "vis_m": 9999,
      "fzfg": false,
      "metar_trigger": false,
      "taf_trigger": false,
      "metar": "METAR LFSB 252330Z AUTO 26015KT 9999 BKN037/// BKN047/// OVC062/// //////TCU 03/01 Q1010 TEMPO 27015G25KT BECMG FEW035 BKN070",
      "taf": "TAF LFSB 252300Z 2600/2624 26011KT 9999 FEW020 BKN040"
    },
    {
      "icao": "LGAV",
      "alert": "OK",
      "vis_m": 9999,
      "fzfg": false,
      "metar_trigger": false,
      "taf_trigger": false,
      "metar": "METAR LGAV 252350Z 28003KT 9999 FEW030 10/02 Q1008 NOSIG",
      "taf": "TAF LGAV 252300Z 2600/2624 VRB05KT 9999 FEW020"
    },
    {
      "icao": "LGTS",
      "alert": "OK",
      "vis_m": 9999,
      "fzfg": false,
      "metar_trigger": false,
      "taf_trigger": false,
      "metar": "METAR LGTS 252350Z 12006KT 9999 FEW020 08/03 Q1007 NOSIG",
      "taf": "TAF LGTS 252300Z 2600/2624 12012KT 9999 FEW025"
    },
    {
      "icao": "LHBP",
      "alert": "OK",
      "vis_m": 9999,
      "fzfg": false,
      "metar_trigger": false,
      "taf_trigger": false,
      "metar": "METAR LHBP 260000Z 12005KT CAVOK 10/00 Q0999 NOSIG",
      "taf": "TAF LHBP 252315Z 2600/2624 15008KT CAVOK"
    },
    {
      "icao": "LHDC",
      "alert": "OK",
      "vis_m": 9999,
      "fzfg": false,
      "metar_trigger": false,
      "taf_trigger": false,
      "metar": "METAR LHDC 252315Z AUTO 14007KT CAVOK 10/01 Q1001",
      "taf": "TAF LHDC 251415Z 2515/2524 22010KT CAVOK"
    },
    {
      "icao": "LIBD",
      "alert": "OK",
      "vis_m": 9999,
      "fzfg": false,
      "metar_trigger": false,
      "taf_trigger": false,
      "metar": "METAR LIBD 252350Z 22012KT CAVOK 12/03 Q1003",
      "taf": "TAF LIBD 252300Z 2600/2624 17011KT CAVOK"
    },
    {
      "icao": "LIBG",
      "alert": "OK",
      "vis_m": null,
      "fzfg": false,
      "metar_trigger": false,
      "taf_trigger": false,
      "metar": "",
      "taf": "TAF LIBG 251700Z 2518/2603 VRB05KT 9999 FEW040"
    },
    {
      "icao": "LIBP",
      "alert": "OK",
      "vis_m": 9999,
      "fzfg": false,
      "metar_trigger": false,
      "taf_trigger": false,
      "metar": "METAR LIBP 252350Z AUTO 24019KT 9999 NCD 16/03 Q0999",
      "taf": "TAF LIBP 252300Z 2600/2624 24015KT CAVOK"
    },
    {
      "icao": "LIBR",
      "alert": "OK",
      "vis_m": 9999,
      "fzfg": false,
      "metar_trigger": false,
      "taf_trigger": false,
      "metar": "METAR LIBR 252350Z 23011KT CAVOK 11/06 Q1005",
      "taf": "TAF LIBR 252300Z 2600/2624 22003KT 9999 FEW040"
    },
    {
      "icao": "LICA",
      "alert": "OK",
      "vis_m": 9999,
      "fzfg": false,
      "metar_trigger": false,
      "taf_trigger": false,
      "metar": "METAR LICA 252350Z AUTO 26013KT 9999 SCT026/// 14/10 Q1008",
      "taf": "TAF LICA 252300Z 2600/2624 26015KT 9999 BKN020"
    },
    {
      "icao": "LICC",
      "alert": "OK",
      "vis_m": 9999,
      "fzfg": false,
      "metar_trigger": false,
      "taf_trigger": false,
      "metar": "METAR LICC 252350Z 27011KT CAVOK 10/06 Q1010",
      "taf": "TAF LICC 252300Z 2600/2624 25008KT 9999 FEW050"
    },
    {
      "icao": "LICJ",
      "alert": "OK",
      "vis_m": 9999,
      "fzfg": false,
      "metar_trigger": false,
      "taf_trigger": false,
      "metar": "METAR LICJ 252350Z 19014KT 9999 FEW025 13/08 Q1010",
      "taf": "TAF LICJ 252300Z 2600/2624 20012KT 9999 SCT020"
    },
    {
      "icao": "LIMC",
      "alert": "OK",
      "vis_m": 9999,
      "fzfg": false,
      "metar_trigger": false,
      "taf_trigger": false,
      "metar": "METAR LIMC 252350Z 35009KT 320V040 CAVOK 11/M08 Q0998 NOSIG",
      "taf": "TAF LIMC 252300Z 2600/2706 35015KT CAVOK"
    },
    {
      "icao": "LIME",
      "alert": "OK",
      "vis_m": 9999,
      "fzfg": false,
      "metar_trigger": false,
      "taf_trigger": false,
      "metar": "METAR LIME 252350Z 08003KT 040V110 9999 SCT080 09/M00 Q0997 NOSIG",
      "taf": "TAF LIME 252300Z 2600/2624 01008KT CAVOK"
    },
    {
      "icao": "LIMF",
      "alert": "OK",
      "vis_m": 9999,
      "fzfg": false,
      "metar_trigger": false,
      "taf_trigger": false,
      "metar": "METAR LIMF 252350Z 30013G23KT 280V350 CAVOK 11/M13 Q1000",
      "taf": "TAF LIMF 252300Z 2600/2624 30013KT CAVOK"
    },
    {
      "icao": "LIMJ",
      "alert": "OK",
      "vis_m": 9999,
      "fzfg": false,
      "metar_trigger": false,
      "taf_trigger": false,
      "metar": "METAR LIMJ 252350Z 35027G42KT CAVOK 13/M06 Q0995",
      "taf": "TAF LIMJ 252300Z 2600/2624 35025G45KT 9999 FEW060"
    },
    {
      "icao": "LIPE",
      "alert": "OK",
      "vis_m": 7000,
      "fzfg": false,
      "metar_trigger": false,
      "taf_trigger": false,
      "metar": "METAR LIPE 252350Z 26013KT 7000 SHRA SCT028 BKN036 08/06 Q0995",
      "taf": "TAF LIPE 252300Z 2600/2624 30013KT 9999 SCT040"
    },
    {
      "icao": "LIPH",
      "alert": "OK",
      "vis_m": null,
      "fzfg": false,
      "metar_trigger": false,
      "taf_trigger": false,
      "metar": "",
      "taf": "TAF LIPH 251700Z 2518/2618 VRB05KT CAVOK"
    },
    {
      "icao": "LIPQ",
      "alert": "OK",
      "vis_m": 5000,
      "fzfg": false,
      "metar_trigger": false,
      "taf_trigger": false,
      "metar": "METAR LIPQ 252350Z AUTO 09008KT 050V120 5000 RA BKN004/// OVC014/// 10/10 Q0997",
      "taf": "TAF LIPQ 252300Z 2600/2624 VRB06KT 9999 BKN030"
    },
    {
      "icao": "LIPR",
      "alert": "OK",
      "vis_m": 9999,
      "fzfg": false,
      "metar_trigger": false,
      "taf_trigger": false,
      "metar": "METAR LIPR 252350Z AUTO 19009KT 160V220 9999 -RA FEW029/// BKN053/// 14/07 Q0995",
      "taf": "TAF LIPR 252300Z 2600/2624 18014KT 9999 SCT050"
    },
    {
      "icao": "LIPX",
      "alert": "OK",
      "vis_m": 7000,
      "fzfg": false,
      "metar_trigger": false,
      "taf_trigger": false,
      "metar": "METAR LIPX 252350Z 36020KT 7000 SHRA BKN030 07/04 Q0996",
      "taf": "TAF LIPX 252300Z 2600/2624 03018KT 9999 SCT040"
    },
    {
      "icao": "LIPY",
      "alert": "OK",
      "vis_m": 9999,
      "fzfg": false,
      "metar_trigger": false,
      "taf_trigger": false,
      "metar": "METAR LIPY 252350Z AUTO 18007KT 9999 BKN081/// 15/06 Q0997",
      "taf": "TAF LIPY 252300Z 2600/2624 VRB05KT 9999 BKN040"
    },
    {
      "icao": "LIPZ",
      "alert": "OK",
      "vis_m": 9999,
      "fzfg": false,
      "metar_trigger": false,
      "taf_trigger": false,
      "metar": "METAR LIPZ 252350Z 04024G34KT 9999 -SHRA BKN025 07/06 Q0997 TEMPO SHRA",
      "taf": "TAF LIPZ 252300Z 2600/2706 03012KT 9999 SCT030"
    },
    {
      "icao": "LIRF",
      "alert": "OK",
      "vis_m": 8000,
      "fzfg": false,
      "metar_trigger": false,
      "taf_trigger": false,
      "metar": "METAR LIRF 252350Z 22016KT 8000 -RA SCT020 14/11 Q1001 NOSIG",
      "taf": "TAF LIRF 252300Z 2600/2706 22016G26KT 9999 SCT020"
    },
    {
      "icao": "LIRN",
      "alert": "OK",
      "vis_m": 9999,
      "fzfg": false,
      "metar_trigger": false,
      "taf_trigger": false,
      "metar": "METAR LIRN 252350Z 21010KT CAVOK 13/09 Q1006 NOSIG",
      "taf": "TAF LIRN 252300Z 2600/2624 22012KT 9999 SCT020"
    },
    {
      "icao": "LIRP",
      "alert": "OK",
      "vis_m": 9999,
      "fzfg": false,
      "metar_trigger": false,
      "taf_trigger": false,
      "metar": "METAR LIRP 252345Z 28021G31KT 9999 RA BKN025 12/09 Q0994 NOSIG",
      "taf": ""
    },
    {
      "icao": "LIRZ",
      "alert": "OK",
      "vis_m": 9999,
      "fzfg": false,
      "metar_trigger": false,
      "taf_trigger": false,
      "metar": "METAR LIRZ 252350Z AUTO 20012KT 9999 BKN024/// 12/08 Q0999",
      "taf": "TAF LIRZ 252300Z 2600/2624 19010KT 9999 FEW070"
    },
    {
      "icao": "LJLJ",
      "alert": "OK",
      "vis_m": 9999,
      "fzfg": false,
      "metar_trigger": false,
      "taf_trigger": false,
      "metar": "METAR LJLJ 252330Z 34002KT 9999 FEW007 SCT030 BKN043 07/03 Q1000 WS ALL RWY NOSIG",
      "taf": "TAF LJLJ 252300Z 2600/2700 33010KT 9999 -RA FEW060"
    },
    {
      "icao": "LKMT",
      "alert": "OK",
      "vis_m": 7000,
      "fzfg": false,
      "metar_trigger": false,
      "taf_trigger": false,
      "metar": "METAR LKMT 252330Z 35005KT 7000 -RA SCT012 BKN021 OVC025 07/07 Q1000 NOSIG",
      "taf": "TAF LKMT 252300Z 2600/2624 03007KT 7000 -RA BKN030"
    },
    {
      "icao": "LKPR",
      "alert": "OK",
      "vis_m": 9999,
      "fzfg": false,
      "metar_trigger": false,
      "taf_trigger": false,
      "metar": "METAR LKPR 252330Z 28005KT 9999 SCT022 BKN036 03/02 Q1004 NOSIG",
      "taf": "TAF LKPR 252300Z 2600/2706 32011KT 9999 BKN025"
    },
    {
      "icao": "LLBG",
      "alert": "OK",
      "vis_m": 9999,
      "fzfg": false,
      "metar_trigger": false,
      "taf_trigger": false,
      "metar": "METAR LLBG 252350Z 16006KT 9999 FEW023 SCT030 12/09 Q0998 TEMPO 7000 SHRA FEW025TCU",
      "taf": "TAF LLBG 252310Z 2600/2624 19010KT 9999 SCT030 TX16/2612Z TN12/2604Z"
    },
    {
      "icao": "LMML",
      "alert": "OK",
      "vis_m": 9999,
      "fzfg": false,
      "metar_trigger": false,
      "taf_trigger": false,
      "metar": "METAR LMML 252345Z 26010KT 9999 FEW015 12/08 Q1013 NOSIG",
      "taf": "TAF LMML 252300Z 2600/2624 27015KT 9999 SCT020"
    },
    {
      "icao": "LOWW",
      "alert": "OK",
      "vis_m": 9999,
      "fzfg": false,
      "metar_trigger": false,
      "taf_trigger": false,
      "metar": "METAR LOWW 252350Z 31014KT 9999 -RA FEW016 BKN040 06/04 Q1002 NOSIG",
      "taf": "TAF LOWW 252315Z 2600/2706 30015KT 9999 FEW020 BKN030 TX08/2600Z TN03/2703Z"
    },
    {
      "icao": "LPFR",
      "alert": "OK",
      "vis_m": 9999,
      "fzfg": false,
      "metar_trigger": false,
      "taf_trigger": false,
      "metar": "METAR LPFR 252330Z 35003KT 330V030 CAVOK 15/11 Q1014",
      "taf": "TAF LPFR 252300Z 2600/2624 32005KT CAVOK"
    },
    {
      "icao": "LPMA",
      "alert": "OK",
      "vis_m": 9999,
      "fzfg": false,
      "metar_trigger": false,
      "taf_trigger": false,
      "metar": "METAR LPMA 252330Z VRB12G22KT 9999 FEW015 16/11 Q1019",
      "taf": "TAF LPMA 252300Z 2600/2624 36015KT 9999 FEW015"
    },
    {
      "icao": "LPPR",
      "alert": "OK",
      "vis_m": 9999,
      "fzfg": false,
      "metar_trigger": false,
      "taf_trigger": false,
      "metar": "METAR LPPR 252330Z 36007KT CAVOK 13/06 Q1018",
      "taf": "TAF LPPR 252300Z 2600/2624 03008KT CAVOK"
    },
    {
      "icao": "LPPS",
      "alert": "OK",
      "vis_m": 9999,
      "fzfg": false,
      "metar_trigger": false,
      "taf_trigger": false,
      "metar": "METAR LPPS 252330Z 01017KT 9999 BKN012 15/12 Q1019",
      "taf": "TAF LPPS 252300Z 2600/2706 03015KT 9999 SCT015"
    },
    {
      "icao": "LPPT",
      "alert": "OK",
      "vis_m": 9999,
      "fzfg": false,
      "metar_trigger": false,
      "taf_trigger": false,
      "metar": "METAR LPPT 252330Z 32009KT 290V350 CAVOK 13/10 Q1016",
      "taf": "TAF LPPT 252300Z 2600/2706 33010KT CAVOK"
    },
    {
      "icao": "LQBK",
      "alert": "OK",
      "vis_m": 9999,
      "fzfg": false,
      "metar_trigger": false,
      "taf_trigger": false,
      "metar": "METAR LQBK 252330Z VRB03KT CAVOK 08/M01 Q1000 NOSIG",
      "taf": "TAF LQBK 252300Z 2600/2624 17007KT CAVOK TX11/2611Z TN02/2624Z"
    },
    {
      "icao": "LQSA",
      "alert": "OK",
      "vis_m": 9999,
      "fzfg": false,
      "metar_trigger": false,
      "taf_trigger": false,
      "metar": "METAR LQSA 252330Z VRB02KT CAVOK 05/M00 Q1003",
      "taf": "TAF LQSA 252300Z 2600/2624 21006KT CAVOK TX13/2612Z TN04/2604Z"
    },
    {
      "icao": "LQTZ",
      "alert": "OK",
      "vis_m": 9999,
      "fzfg": false,
      "metar_trigger": false,
      "taf_trigger": false,
      "metar": "METAR LQTZ 252330Z 10003KT 040V180 CAVOK 04/00 Q1001",
      "taf": "TAF LQTZ 252300Z 2600/2624 10005KT CAVOK TX17/2612Z TN01/2624Z"
    },
    {
      "icao": "LRBC",
      "alert": "OK",
      "vis_m": 9999,
      "fzfg": false,
      "metar_trigger": false,
      "taf_trigger": false,
      "metar": "METAR LRBC 252330Z 17010KT CAVOK 08/02 Q1005",
      "taf": "TAF LRBC 252300Z 2600/2609 16008KT CAVOK"
    },
    {
      "icao": "LRBS",
      "alert": "OK",
      "vis_m": 9999,
      "fzfg": false,
      "metar_trigger": false,
      "taf_trigger": false,
      "metar": "METAR LRBS 252330Z AUTO 14003KT 9999 NCD 10/02 Q1006 NOSIG",
      "taf": "TAF LRBS 252300Z 2600/2624 VRB04KT CAVOK"
    },
    {
      "icao": "LRBV",
      "alert": "OK",
      "vis_m": 9999,
      "fzfg": false,
      "metar_trigger": false,
      "taf_trigger": false,
      "metar": "METAR LRBV 252330Z AUTO 21011KT 9999 SCT055/// OVC084/// 08/02 Q1004 REDZ",
      "taf": "TAF LRBV 252000Z 2521/2606 20008KT 9999 SCT060"
    },
    {
      "icao": "LRCL",
      "alert": "OK",
      "vis_m": 9999,
      "fzfg": false,
      "metar_trigger": false,
      "taf_trigger": false,
      "metar": "METAR LRCL 252330Z 28001KT CAVOK 02/M03 Q1003",
      "taf": "TAF LRCL 252300Z 2600/2609 VRB04KT CAVOK"
    },
    {
      "icao": "LRCV",
      "alert": "OK",
      "vis_m": 9999,
      "fzfg": false,
      "metar_trigger": false,
      "taf_trigger": false,
      "metar": "METAR LRCV 252330Z 10005KT CAVOK 07/04 Q1004",
      "taf": "TAF LRCV 252300Z 2600/2609 14006KT CAVOK"
    },
    {
      "icao": "LRIA",
      "alert": "OK",
      "vis_m": 9999,
      "fzfg": false,
      "metar_trigger": false,
      "taf_trigger": false,
      "metar": "METAR LRIA 252330Z 10008KT CAVOK 08/M02 Q1005",
      "taf": "TAF LRIA 252300Z 2600/2609 10006KT CAVOK"
    },
    {
      "icao": "LROP",
      "alert": "OK",
      "vis_m": 9999,
      "fzfg": false,
      "metar_trigger": false,
      "taf_trigger": false,
      "metar": "METAR LROP 252330Z 16003KT CAVOK 06/M01 Q1006 NOSIG",
      "taf": "TAF LROP 252300Z 2600/2624 VRB04KT CAVOK"
    },
    {
      "icao": "LRSB",
      "alert": "OK",
      "vis_m": 9999,
      "fzfg": false,
      "metar_trigger": false,
      "taf_trigger": false,
      "metar": "METAR LRSB 252330Z VRB02KT 9999 SCT080 10/01 Q1003",
      "taf": "TAF LRSB 252300Z 2600/2624 VRB04KT 9999 BKN060"
    },
    {
      "icao": "LRSM",
      "alert": "OK",
      "vis_m": 9999,
      "fzfg": false,
      "metar_trigger": false,
      "taf_trigger": false,
      "metar": "METAR LRSM 252330Z AUTO 15003KT 9999 SCT130/// BKN150/// 06/00 Q1002",
      "taf": "TAF LRSM 251400Z 2515/2524 22010KT CAVOK"
    },
    {
      "icao": "LRSV",
      "alert": "OK",
      "vis_m": 9999,
      "fzfg": false,
      "metar_trigger": false,
      "taf_trigger": false,
      "metar": "METAR LRSV 252330Z 22007KT CAVOK 05/M03 Q1004",
      "taf": "TAF LRSV 252300Z 2600/2609 22006KT CAVOK"
    },
    {
      "icao": "LRTM",
      "alert": "OK",
      "vis_m": 9999,
      "fzfg": false,
      "metar_trigger": false,
      "taf_trigger": false,
      "metar": "METAR LRTM 252330Z AUTO 09005KT 9999 NCD 06/M00 Q1004",
      "taf": "TAF LRTM 251400Z 2515/2524 VRB04KT 9999 SCT035"
    },
    {
      "icao": "LRTR",
      "alert": "OK",
      "vis_m": 9999,
      "fzfg": false,
      "metar_trigger": false,
      "taf_trigger": false,
      "metar": "METAR LRTR 252330Z 10007KT CAVOK 08/M00 Q1001",
      "taf": "TAF LRTR 252300Z 2600/2624 09006KT CAVOK"
    },
    {
      "icao": "LTAC",
      "alert": "OK",
      "vis_m": 9999,
      "fzfg": false,
      "metar_trigger": false,
      "taf_trigger": false,
      "metar": "METAR LTAC 252350Z 03005KT 9999 SCT030 BKN100 06/03 Q1003 NOSIG RMK RWY21C 04004KT RWY03L 04005KT RWY21R 03004KT RWY03R 02006KT RWY21L 04005KT",
      "taf": "TAF LTAC 252240Z 2600/2624 VRB02KT 9999 SCT035 BKN100"
    },
    {
      "icao": "LTFM",
      "alert": "OK",
      "vis_m": 9999,
      "fzfg": false,
      "metar_trigger": false,
      "taf_trigger": false,
      "metar": "METAR LTFM 252350Z 03004KT 290V100 9999 SCT012 BKN022 08/05 Q1007 NOSIG RMK RWY17L VRB02KT RWY34L 01003KT RWY16R VRB02KT RWY36 36003KT RWY18 VRB02KT",
      "taf": "TAF LTFM 252240Z 2600/2706 36005KT 9999 SCT012 BKN023"
    },
    {
      "icao": "LUKK",
      "alert": "OK",
      "vis_m": 9999,
      "fzfg": false,
      "metar_trigger": false,
      "taf_trigger": false,
      "metar": "METAR LUKK 252330Z 21006KT CAVOK 04/M02 Q1007 NOSIG",
      "taf": "TAF LUKK 252317Z 2600/2624 VRB04KT CAVOK"
    },
    {
      "icao": "LWOH",
      "alert": "OK",
      "vis_m": null,
      "fzfg": false,
      "metar_trigger": false,
      "taf_trigger": false,
      "metar": "",
      "taf": "TAF LWOH 252330Z 2600/2624 16008KT CAVOK"
    },
    {
      "icao": "LWSK",
      "alert": "OK",
      "vis_m": 9999,
      "fzfg": false,
      "metar_trigger": false,
      "taf_trigger": false,
      "metar": "METAR LWSK 252350Z 01002KT CAVOK 04/M00 Q1005 NOSIG",
      "taf": "TAF LWSK 252330Z 2600/2624 VRB02KT CAVOK"
    },
    {
      "icao": "LYBE",
      "alert": "OK",
      "vis_m": 9999,
      "fzfg": false,
      "metar_trigger": false,
      "taf_trigger": false,
      "metar": "METAR LYBE 252330Z 19007KT CAVOK 10/M00 Q1001 NOSIG",
      "taf": "TAF LYBE 252300Z 2600/2624 20006KT CAVOK TX18/2613Z TN07/2605Z"
    },
    {
      "icao": "LYNI",
      "alert": "OK",
      "vis_m": 9999,
      "fzfg": false,
      "metar_trigger": false,
      "taf_trigger": false,
      "metar": "METAR LYNI 252330Z 06002KT CAVOK 08/M01 Q1004 NOSIG",
      "taf": "TAF LYNI 252300Z 2600/2624 10004KT CAVOK TX18/2613Z TN04/2605Z"
    },
    {
      "icao": "LYPG",
      "alert": "OK",
      "vis_m": 9999,
      "fzfg": false,
      "metar_trigger": false,
      "taf_trigger": false,
      "metar": "METAR LYPG 252330Z 08003KT 320V110 CAVOK 09/04 Q1006 NOSIG",
      "taf": "TAF LYPG 252300Z 2600/2624 14005KT 9999 SCT040 SCT080 TX16/2612Z TN08/2603Z"
    },
    {
      "icao": "LZIB",
      "alert": "OK",
      "vis_m": 9999,
      "fzfg": false,
      "metar_trigger": false,
      "taf_trigger": false,
      "metar": "METAR LZIB 260000Z 29019KT 250V320 9999 -RA FEW009 SCT015 06/04 Q1000 NOSIG",
      "taf": "TAF LZIB 252315Z 2600/2700 30012KT 9999 -RA FEW014 SCT020"
    },
    {
      "icao": "LZKZ",
      "alert": "OK",
      "vis_m": 9999,
      "fzfg": false,
      "metar_trigger": false,
      "taf_trigger": false,
      "metar": "METAR LZKZ 260000Z 20008KT CAVOK 10/01 Q1001 NOSIG",
      "taf": "TAF LZKZ 252315Z 2600/2700 23005KT CAVOK"
    },
    {
      "icao": "LZTT",
      "alert": "OK",
      "vis_m": 9999,
      "fzfg": false,
      "metar_trigger": false,
      "taf_trigger": false,
      "metar": "METAR LZTT 260000Z 25007KT 9999 FEW060 SCT070 08/M00 Q1000",
      "taf": "TAF LZTT 252315Z 2600/2700 23006KT CAVOK"
    },
    {
      "icao": "OEJN",
      "alert": "OK",
      "vis_m": 8000,
      "fzfg": false,
      "metar_trigger": false,
      "taf_trigger": false,
      "metar": "METAR OEJN 260000Z 17014KT 8000 BKN040 29/21 Q0998 NOSIG",
      "taf": "TAF OEJN 252300Z 2600/2706 20015KT 7000 SCT040"
    },
    {
      "icao": "OEMA",
      "alert": "OK",
      "vis_m": 9999,
      "fzfg": false,
      "metar_trigger": false,
      "taf_trigger": false,
      "metar": "METAR OEMA 260000Z 21012G23KT 9999 -RA SCT040 BKN090 20/10 Q1003 TEMPO 3000 TSRA",
      "taf": "TAF OEMA 252300Z 2600/2706 27016KT 7000 SCT040"
    },
    {
      "icao": "OJAI",
      "alert": "OK",
      "vis_m": 4000,
      "fzfg": false,
      "metar_trigger": false,
      "taf_trigger": false,
      "metar": "SPECI OJAI 260000Z 22008KT 4000 BR SCT030 07/05 Q1000 NOSIG",
      "taf": "TAF OJAI 252300Z 2600/2706 26014KT 4000 RA BR SCT025TCU SCT030"
    },
    {
      "icao": "OMAA",
      "alert": "OK",
      "vis_m": null,
      "fzfg": false,
      "metar_trigger": false,
      "taf_trigger": false,
      "metar": "",
      "taf": ""
    },
    {
      "icao": "OMDB",
      "alert": "OK",
      "vis_m": null,
      "fzfg": false,
      "metar_trigger": false,
      "taf_trigger": false,
      "metar": "",
      "taf": ""
    },
    {
      "icao": "UAAA",
      "alert": "OK",
      "vis_m": 9999,
      "fzfg": false,
      "metar_trigger": false,
      "taf_trigger": false,
      "metar": "METAR UAAA 252330Z 17001MPS 9999 FEW200 02/M01 Q1014 NOSIG",
      "taf": "TAF UAAA 252304Z 2600/2624 25002G07MPS 9999 FEW100 TX20/2610Z TN01/2601Z"
    },
    {
      "icao": "UBBB",
      "alert": "OK",
      "vis_m": 5000,
      "fzfg": false,
      "metar_trigger": false,
      "taf_trigger": false,
      "metar": "METAR UBBB 260000Z 31006KT 5000 BR OVC002 09/08 Q1003 NOSIG",
      "taf": "TAF UBBB 252301Z 2600/2624 33006KT 6000 SCT004 BKN012 TX16/2610Z TN08/2600Z"
    },
    {
      "icao": "UDSG",
      "alert": "OK",
      "vis_m": 9999,
      "fzfg": false,
      "metar_trigger": false,
      "taf_trigger": false,
      "metar": "METAR UDSG 252330Z 06002KT 9999 SCT043 02/02 Q1004 NOSIG",
      "taf": "TAF UDSG 252300Z 2600/2624 22006KT 9999 SCT040"
    },
    {
      "icao": "UDYZ",
      "alert": "OK",
      "vis_m": 9999,
      "fzfg": false,
      "metar_trigger": false,
      "taf_trigger": false,
      "metar": "METAR UDYZ 252330Z VRB01KT 9999 BKN043CB 09/08 Q1002 NOSIG",
      "taf": "TAF UDYZ 252300Z 2600/2624 28006KT 6000 SCT040"
    },
    {
      "icao": "UGKO",
      "alert": "OK",
      "vis_m": 9999,
      "fzfg": false,
      "metar_trigger": false,
      "taf_trigger": false,
      "metar": "METAR UGKO 252330Z VRB02KT 9999 SCT006 BKN011 OVC033 09/08 Q1004 NOSIG",
      "taf": "TAF UGKO 252300Z 2600/2624 25007KT 9999 -RA SCT017 BKN040 TX12/2612Z TN08/2603Z"
    }
  ]
}