{
  "ts_utc": "2026-01-25T08:54:38Z",
  "threshold_m": 150,
  "source": "stations_override.txt (ICAO list) + aviationweather.gov (METAR/TAF raw)",
  "station_count": 159,
  "stations": [
    {
      "icao": "BIKF",
      "alert": "OK",
      "vis_m": 9999,
      "fzfg": false,
      "metar_trigger": false,
      "taf_trigger": false,
      "metar": "METAR BIKF 250830Z 08016KT 9999 FEW045 SCT073 BKN110 04/M01 Q1006",
      "taf": "TAF BIKF 250753Z 2509/2609 09015KT 9999 FEW025 TX05/2513Z TN01/2602Z"
    },
    {
      "icao": "BKPR",
      "alert": "OK",
      "vis_m": null,
      "fzfg": false,
      "metar_trigger": false,
      "taf_trigger": false,
      "metar": "",
      "taf": "TAF BKPR 250530Z 2506/2606 18010KT 9999 BKN040"
    },
    {
      "icao": "EBCI",
      "alert": "OK",
      "vis_m": 3500,
      "fzfg": false,
      "metar_trigger": false,
      "taf_trigger": false,
      "metar": "METAR EBCI 250820Z 17009KT 3500 BR BKN004 00/M01 Q0997 BECMG 6000 NSW SCT005",
      "taf": ""
    },
    {
      "icao": "EDDB",
      "alert": "OK",
      "vis_m": 4500,
      "fzfg": false,
      "metar_trigger": false,
      "taf_trigger": false,
      "metar": "METAR EDDB 250850Z AUTO 08009KT 4500 BR BKN012 OVC020 M03/M05 Q1005 NOSIG",
      "taf": ""
    },
    {
      "icao": "EDDH",
      "alert": "OK",
      "vis_m": 6000,
      "fzfg": false,
      "metar_trigger": false,
      "taf_trigger": false,
      "metar": "METAR EDDH 250850Z AUTO 08010KT 050V110 6000 OVC009 M02/M04 Q1005 TEMPO OVC010",
      "taf": "TAF EDDH 250500Z 2506/2612 09009KT 6000 OVC009"
    },
    {
      "icao": "EDDK",
      "alert": "OK",
      "vis_m": 9999,
      "fzfg": false,
      "metar_trigger": false,
      "taf_trigger": false,
      "metar": "METAR EDDK 250850Z AUTO 13005KT 080V160 CAVOK M01/M05 Q0999 NOSIG",
      "taf": "TAF EDDK 250500Z 2506/2612 11006KT CAVOK"
    },
    {
      "icao": "EDDN",
      "alert": "OK",
      "vis_m": 7000,
      "fzfg": false,
      "metar_trigger": false,
      "taf_trigger": false,
      "metar": "METAR EDDN 250850Z AUTO VRB01KT 7000 OVC009 M02/M04 Q0999 NOSIG",
      "taf": "TAF EDDN 250500Z 2506/2606 VRB03KT 7000 BKN008"
    },
    {
      "icao": "EDDS",
      "alert": "OK",
      "vis_m": 7000,
      "fzfg": false,
      "metar_trigger": false,
      "taf_trigger": false,
      "metar": "METAR EDDS 250850Z AUTO VRB01KT 7000 OVC011 M02/M03 Q0997 TEMPO OVC009",
      "taf": ""
    },
    {
      "icao": "EDFH",
      "alert": "OK",
      "vis_m": 4300,
      "fzfg": false,
      "metar_trigger": false,
      "taf_trigger": false,
      "metar": "METAR EDFH 250820Z 14017KT 4300 BR NSC M05/M06 Q0997",
      "taf": "TAF EDFH 250500Z 2506/2606 14010KT 6000 NSC"
    },
    {
      "icao": "EDJA",
      "alert": "OK",
      "vis_m": 800,
      "fzfg": true,
      "metar_trigger": false,
      "taf_trigger": false,
      "metar": "METAR EDJA 250820Z 00000KT 0800 R24/1300D FZFG BKN002 M02/M02 Q0997",
      "taf": "TAF EDJA 250800Z 2509/2518 VRB03KT 4000 BR OVC003"
    },
    {
      "icao": "EDLW",
      "alert": "OK",
      "vis_m": 4800,
      "fzfg": false,
      "metar_trigger": false,
      "taf_trigger": false,
      "metar": "METAR EDLW 250820Z 03005KT 4800 BR NSC M03/M04 Q0999",
      "taf": "TAF EDLW 250500Z 2506/2606 08005KT CAVOK"
    },
    {
      "icao": "EDNY",
      "alert": "OK",
      "vis_m": 2400,
      "fzfg": false,
      "metar_trigger": false,
      "taf_trigger": false,
      "metar": "METAR EDNY 250820Z 00000KT 2400 BR OVC008 00/M00 Q0998",
      "taf": "TAF EDNY 250800Z 2509/2518 VRB03KT 3500 BR BKN006"
    },
    {
      "icao": "EDSB",
      "alert": "OK",
      "vis_m": 4000,
      "fzfg": false,
      "metar_trigger": false,
      "taf_trigger": false,
      "metar": "METAR EDSB 250820Z 03006KT 4000 BR OVC007 M01/M02 Q1000",
      "taf": ""
    },
    {
      "icao": "EETN",
      "alert": "OK",
      "vis_m": 9999,
      "fzfg": false,
      "metar_trigger": false,
      "taf_trigger": false,
      "metar": "METAR EETN 250850Z 12005KT CAVOK M16/M18 Q1022 NOSIG",
      "taf": "TAF EETN 250530Z 2506/2606 13007KT 9999 FEW030"
    },
    {
      "icao": "EFTU",
      "alert": "OK",
      "vis_m": 9999,
      "fzfg": false,
      "metar_trigger": false,
      "taf_trigger": false,
      "metar": "METAR EFTU 250850Z AUTO 10005KT 9999 -SHSN OVC013 M09/M11 Q1020",
      "taf": "TAF EFTU 250838Z 2509/2609 13004KT 9999 -SN OVC015"
    },
    {
      "icao": "EGBB",
      "alert": "OK",
      "vis_m": 9999,
      "fzfg": false,
      "metar_trigger": false,
      "taf_trigger": false,
      "metar": "METAR EGBB 250820Z 12007KT 9999 -SHRA BKN010 07/05 Q0991",
      "taf": "TAF EGBB 250459Z 2506/2606 13010KT 9999 SCT008 BKN030"
    },
    {
      "icao": "EGGP",
      "alert": "OK",
      "vis_m": 9999,
      "fzfg": false,
      "metar_trigger": false,
      "taf_trigger": false,
      "metar": "METAR EGGP 250820Z COR 10011KT 9999 SCT023 06/05 Q0991",
      "taf": "TAF EGGP 250458Z 2506/2606 12010KT 9999 OVC030"
    },
    {
      "icao": "EGGW",
      "alert": "OK",
      "vis_m": 9000,
      "fzfg": false,
      "metar_trigger": false,
      "taf_trigger": false,
      "metar": "METAR EGGW 250820Z AUTO 12009KT 9000 OVC003 06/05 Q0992",
      "taf": "TAF EGGW 250458Z 2506/2606 13010KT 9999 BKN005"
    },
    {
      "icao": "EGKK",
      "alert": "OK",
      "vis_m": 9999,
      "fzfg": false,
      "metar_trigger": false,
      "taf_trigger": false,
      "metar": "METAR EGKK 250820Z 10004KT 080V140 9999 -RA SCT009 SCT022 07/06 Q0992",
      "taf": "TAF EGKK 250502Z 2506/2612 14010KT 9999 FEW008 SCT020"
    },
    {
      "icao": "EGNM",
      "alert": "OK",
      "vis_m": 3500,
      "fzfg": false,
      "metar_trigger": false,
      "taf_trigger": false,
      "metar": "METAR EGNM 250820Z 10013KT 3500 -RA BR OVC004 05/05 Q0993",
      "taf": "TAF EGNM 250556Z 2506/2606 12010KT 4000 BR BKN003"
    },
    {
      "icao": "EGPD",
      "alert": "OK",
      "vis_m": 9999,
      "fzfg": false,
      "metar_trigger": false,
      "taf_trigger": false,
      "metar": "METAR EGPD 250820Z AUTO 10012KT 9999 SCT012 BKN017 BKN027 06/04 Q1001 TEMPO BKN012",
      "taf": "TAF EGPD 250500Z 2506/2606 11012KT 9999 SCT014 BKN025"
    },
    {
      "icao": "EGPF",
      "alert": "OK",
      "vis_m": 9999,
      "fzfg": false,
      "metar_trigger": false,
      "taf_trigger": false,
      "metar": "METAR EGPF 250820Z AUTO 08017KT 9999 -RA BKN022 OVC026 07/04 Q0994",
      "taf": "TAF EGPF 250456Z 2506/2606 08018G28KT 9999 SCT016 BKN030"
    },
    {
      "icao": "EHBK",
      "alert": "OK",
      "vis_m": 8000,
      "fzfg": false,
      "metar_trigger": false,
      "taf_trigger": false,
      "metar": "METAR EHBK 250825Z AUTO 14003KT 8000 NCD M01/M03 Q0998 BECMG 9000",
      "taf": "TAF EHBK 250512Z 2506/2612 10007KT 9999 NSC"
    },
    {
      "icao": "EHEH",
      "alert": "OK",
      "vis_m": null,
      "fzfg": false,
      "metar_trigger": false,
      "taf_trigger": false,
      "metar": "",
      "taf": "TAF EHEH 250520Z 2506/2612 10005KT 6000 HZ NSC"
    },
    {
      "icao": "EKBI",
      "alert": "OK",
      "vis_m": 4100,
      "fzfg": false,
      "metar_trigger": false,
      "taf_trigger": false,
      "metar": "METAR EKBI 250850Z AUTO 09010KT 4100 -RA BR OVC004/// M00/M01 Q1007",
      "taf": "TAF EKBI 250827Z 2509/2609 08012KT 7000 BKN010"
    },
    {
      "icao": "EKCH",
      "alert": "OK",
      "vis_m": 3000,
      "fzfg": false,
      "metar_trigger": false,
      "taf_trigger": false,
      "metar": "METAR EKCH 250850Z 11011KT 3000 -SN OVC012 00/M01 Q1010 BECMG 9999 NSW",
      "taf": "TAF EKCH 250827Z 2509/2609 10013KT 9999 OVC010"
    },
    {
      "icao": "ENAL",
      "alert": "OK",
      "vis_m": 9999,
      "fzfg": false,
      "metar_trigger": false,
      "taf_trigger": false,
      "metar": "METAR ENAL 250820Z 14010KT 9999 FEW030 BKN053 M01/M08 Q1013",
      "taf": "TAF ENAL 250800Z 2509/2518 14012KT 9999 BKN040"
    },
    {
      "icao": "ENBR",
      "alert": "OK",
      "vis_m": 9999,
      "fzfg": false,
      "metar_trigger": false,
      "taf_trigger": false,
      "metar": "METAR ENBR 250820Z 00000KT 9999 BKN043 M05/M11 Q1012 NOSIG RMK WIND 1200FT 11005KT",
      "taf": "TAF ENBR 250500Z 2506/2606 04005KT 9999 FEW040"
    },
    {
      "icao": "ENGM",
      "alert": "OK",
      "vis_m": 9999,
      "fzfg": false,
      "metar_trigger": false,
      "taf_trigger": false,
      "metar": "METAR ENGM 250820Z 02005KT 9999 OVC046 M08/M09 Q1016 NOSIG",
      "taf": "TAF ENGM 250500Z 2506/2606 36005KT 9999 -SN FEW020 BKN040"
    },
    {
      "icao": "ENHD",
      "alert": "OK",
      "vis_m": 9999,
      "fzfg": false,
      "metar_trigger": false,
      "taf_trigger": false,
      "metar": "METAR ENHD 250820Z /////KT CAVOK M00/M10 Q1012 RMK WIND RWY 31 10012KT",
      "taf": "TAF ENHD 250800Z 2509/2518 11009KT CAVOK"
    },
    {
      "icao": "ENTC",
      "alert": "OK",
      "vis_m": 2500,
      "fzfg": false,
      "metar_trigger": false,
      "taf_trigger": false,
      "metar": "METAR ENTC 250820Z 19004KT 2500 -SN VV009 M00/M01 Q1008 TEMPO TL0900Z 1000 SHSN RMK WIND 2600FT 02021KT",
      "taf": "TAF ENTC 250500Z 2506/2606 19012KT 7000 -SN SCT010 BKN020"
    },
    {
      "icao": "ENTO",
      "alert": "OK",
      "vis_m": 7000,
      "fzfg": false,
      "metar_trigger": false,
      "taf_trigger": false,
      "metar": "METAR ENTO 250820Z 03006KT 360V060 7000 -SN FEW015 BKN038 M04/M06 Q1015 NOSIG",
      "taf": "TAF ENTO 250500Z 2506/2606 02008KT 9999 -SN FEW012 BKN040"
    },
    {
      "icao": "ENVA",
      "alert": "OK",
      "vis_m": 9999,
      "fzfg": false,
      "metar_trigger": false,
      "taf_trigger": false,
      "metar": "METAR ENVA 250750Z 12007KT 9999 FEW046 M11/M14 Q1015 NOSIG RMK WIND 670FT 10006KT",
      "taf": "TAF ENVA 250500Z 2506/2606 10005KT 9999 BKN050"
    },
    {
      "icao": "ENZV",
      "alert": "OK",
      "vis_m": 9999,
      "fzfg": false,
      "metar_trigger": false,
      "taf_trigger": false,
      "metar": "METAR ENZV 250820Z 11007KT 070V130 CAVOK M01/M11 Q1012 NOSIG",
      "taf": "TAF ENZV 250500Z 2506/2606 08008KT 9999 FEW050"
    },
    {
      "icao": "EPGD",
      "alert": "OK",
      "vis_m": 9999,
      "fzfg": false,
      "metar_trigger": false,
      "taf_trigger": false,
      "metar": "METAR EPGD 250830Z 11009KT 9999 OVC027 M07/M09 Q1012",
      "taf": "TAF EPGD 250530Z 2506/2606 11010KT 9999 OVC035"
    },
    {
      "icao": "EPKK",
      "alert": "OK",
      "vis_m": 900,
      "fzfg": true,
      "metar_trigger": false,
      "taf_trigger": false,
      "metar": "METAR EPKK 250830Z 06009KT 0900 R25/1100N FZFG OVC002 M01/M01 Q1007",
      "taf": "TAF EPKK 250830Z 2509/2609 06010KT 1000 BR OVC002"
    },
    {
      "icao": "EPKT",
      "alert": "OK",
      "vis_m": 4700,
      "fzfg": false,
      "metar_trigger": false,
      "taf_trigger": false,
      "metar": "METAR EPKT 250830Z 09007KT 4700 BR FEW004 BKN035 01/00 Q1005",
      "taf": "TAF EPKT 250530Z 2506/2606 09006KT 4000 BR BKN006"
    },
    {
      "icao": "EPLB",
      "alert": "OK",
      "vis_m": 7000,
      "fzfg": false,
      "metar_trigger": false,
      "taf_trigger": false,
      "metar": "METAR EPLB 250830Z 10013KT 7000 -FZRA -SN BKN009 OVC011 M06/M07 Q1011",
      "taf": ""
    },
    {
      "icao": "EPMO",
      "alert": "OK",
      "vis_m": 7000,
      "fzfg": false,
      "metar_trigger": false,
      "taf_trigger": false,
      "metar": "METAR EPMO 250830Z 08013KT 7000 OVC008 M06/M07 Q1011",
      "taf": "TAF EPMO 250530Z 2506/2606 08012KT 8000 OVC010"
    },
    {
      "icao": "EPPO",
      "alert": "OK",
      "vis_m": 3500,
      "fzfg": false,
      "metar_trigger": false,
      "taf_trigger": false,
      "metar": "METAR EPPO 250830Z 09010KT 3500 BR OVC007 M04/M06 Q1008",
      "taf": ""
    },
    {
      "icao": "EPRA",
      "alert": "OK",
      "vis_m": 8000,
      "fzfg": false,
      "metar_trigger": false,
      "taf_trigger": false,
      "metar": "METAR EPRA 250830Z 10010KT 8000 -FZDZ OVC006 M05/M06 Q1010",
      "taf": "TAF EPRA 250830Z 2509/2518 10010KT 8000 OVC007"
    },
    {
      "icao": "EPRZ",
      "alert": "OK",
      "vis_m": 5000,
      "fzfg": false,
      "metar_trigger": false,
      "taf_trigger": false,
      "metar": "METAR EPRZ 250830Z 08012KT 5000 BR SCT006 OVC046 M01/M02 Q1009",
      "taf": "TAF EPRZ 250530Z 2506/2606 09008KT 6000 OVC006"
    },
    {
      "icao": "EPSC",
      "alert": "OK",
      "vis_m": 7000,
      "fzfg": false,
      "metar_trigger": false,
      "taf_trigger": false,
      "metar": "METAR EPSC 250830Z 07007KT 7000 SCT013 OVC015 M04/M06 Q1008",
      "taf": "TAF EPSC 250530Z 2506/2606 09009KT 9999 OVC020"
    },
    {
      "icao": "EPSY",
      "alert": "OK",
      "vis_m": 9999,
      "fzfg": false,
      "metar_trigger": false,
      "taf_trigger": false,
      "metar": "METAR EPSY 250830Z 11006KT 060V170 9999 SCT009 OVC012 M07/M09 Q1013",
      "taf": "TAF EPSY 250830Z 2509/2518 10010KT 8000 BKN012"
    },
    {
      "icao": "EPWA",
      "alert": "OK",
      "vis_m": 4400,
      "fzfg": false,
      "metar_trigger": false,
      "taf_trigger": false,
      "metar": "METAR EPWA 250830Z 10013KT 4400 -SN BR BKN006 M05/M06 Q1011 TEMPO 6000 BKN004",
      "taf": "TAF EPWA 250830Z 2509/2609 10012KT 6000 OVC007"
    },
    {
      "icao": "EPWR",
      "alert": "OK",
      "vis_m": 4700,
      "fzfg": false,
      "metar_trigger": false,
      "taf_trigger": false,
      "metar": "METAR EPWR 250830Z 07003KT 4700 BR OVC007 M02/M03 Q1006",
      "taf": "TAF EPWR 250830Z 2509/2609 08008KT 4000 BR OVC008"
    },
    {
      "icao": "ESGG",
      "alert": "OK",
      "vis_m": 9999,
      "fzfg": false,
      "metar_trigger": false,
      "taf_trigger": false,
      "metar": "METAR ESGG 250820Z 11007KT 9999 -SN OVC030 M04/M07 Q1012",
      "taf": "TAF ESGG 250830Z 2509/2609 09008KT 9999 -SN -SG OVC030"
    },
    {
      "icao": "ESKN",
      "alert": "OK",
      "vis_m": 9999,
      "fzfg": false,
      "metar_trigger": false,
      "taf_trigger": false,
      "metar": "METAR ESKN 250820Z 11008KT 9999 -SN BKN034 M04/M08 Q1016",
      "taf": "TAF ESKN 250830Z 2509/2609 10010KT 9999 -SN BKN030"
    },
    {
      "icao": "ESMS",
      "alert": "OK",
      "vis_m": 8000,
      "fzfg": false,
      "metar_trigger": false,
      "taf_trigger": false,
      "metar": "METAR ESMS 250820Z 10013KT 8000 OVC010 M00/M02 Q1010",
      "taf": "TAF ESMS 250827Z 2509/2609 10013KT 6000 OVC008"
    },
    {
      "icao": "ESSA",
      "alert": "OK",
      "vis_m": 9999,
      "fzfg": false,
      "metar_trigger": false,
      "taf_trigger": false,
      "metar": "METAR ESSA 250820Z 07009KT 9999 -SN BKN034 M05/M07 Q1018 TEMPO 4500",
      "taf": "TAF ESSA 250830Z 2509/2609 07009KT 9999 -SN BKN035"
    },
    {
      "icao": "EYKA",
      "alert": "OK",
      "vis_m": 9999,
      "fzfg": false,
      "metar_trigger": false,
      "taf_trigger": false,
      "metar": "METAR EYKA 250850Z 12008KT 080V150 CAVOK M08/M12 Q1018",
      "taf": "TAF EYKA 250510Z 2506/2606 12010KT 9000 BKN040"
    },
    {
      "icao": "EYPA",
      "alert": "OK",
      "vis_m": 9999,
      "fzfg": false,
      "metar_trigger": false,
      "taf_trigger": false,
      "metar": "METAR EYPA 250850Z 12005KT CAVOK M08/M11 Q1016",
      "taf": "TAF EYPA 250509Z 2506/2606 12009KT 7000 BKN025"
    },
    {
      "icao": "EYVI",
      "alert": "OK",
      "vis_m": 9999,
      "fzfg": false,
      "metar_trigger": false,
      "taf_trigger": false,
      "metar": "METAR EYVI 250850Z 14009KT 9999 BKN042 M10/M14 Q1018 NOSIG",
      "taf": "TAF EYVI 250500Z 2506/2606 12012KT 9000 OVC035"
    },
    {
      "icao": "GCFV",
      "alert": "OK",
      "vis_m": 9999,
      "fzfg": false,
      "metar_trigger": false,
      "taf_trigger": false,
      "metar": "METAR GCFV 250830Z 30006KT 9999 FEW036 14/09 Q1028",
      "taf": "TAF GCFV 250800Z 2509/2609 05010KT 9999 FEW035 TX20/2514Z TN14/2606Z"
    },
    {
      "icao": "GCLP",
      "alert": "OK",
      "vis_m": 9999,
      "fzfg": false,
      "metar_trigger": false,
      "taf_trigger": false,
      "metar": "METAR GCLP 250830Z 31007KT 9999 SCT035 15/09 Q1028 NOSIG",
      "taf": "TAF GCLP 250800Z 2509/2609 04012KT 9999 FEW035 TX20/2514Z TN13/2606Z"
    },
    {
      "icao": "GCTS",
      "alert": "OK",
      "vis_m": 9999,
      "fzfg": false,
      "metar_trigger": false,
      "taf_trigger": false,
      "metar": "METAR GCTS 250830Z 01007KT 9999 FEW040 14/08 Q1029 NOSIG",
      "taf": "TAF GCTS 250800Z 2509/2609 09010KT 9999 FEW040 TX22/2514Z TN15/2606Z"
    },
    {
      "icao": "GMAD",
      "alert": "OK",
      "vis_m": 9999,
      "fzfg": false,
      "metar_trigger": false,
      "taf_trigger": false,
      "metar": "METAR GMAD 250830Z 08008KT CAVOK 07/07 Q1025 NOSIG",
      "taf": "TAF GMAD 250500Z 2506/2612 06010KT 8000 SCT020"
    },
    {
      "icao": "GMMN",
      "alert": "OK",
      "vis_m": 9999,
      "fzfg": false,
      "metar_trigger": false,
      "taf_trigger": false,
      "metar": "METAR GMMN 250830Z 20010KT 9999 BKN023 09/07 Q1026 NOSIG",
      "taf": "TAF GMMN 250500Z 2506/2612 20004KT 8000 FEW016TCU SCT030"
    },
    {
      "icao": "GMMX",
      "alert": "OK",
      "vis_m": 8000,
      "fzfg": false,
      "metar_trigger": false,
      "taf_trigger": false,
      "metar": "METAR GMMX 250830Z 16003KT 8000 NSC 07/05 Q1026 NOSIG",
      "taf": "TAF GMMX 250500Z 2506/2612 20006KT 8000 SCT020"
    },
    {
      "icao": "HEGN",
      "alert": "OK",
      "vis_m": 9999,
      "fzfg": false,
      "metar_trigger": false,
      "taf_trigger": false,
      "metar": "METAR HEGN 250800Z 32007KT CAVOK 20/05 Q1022 NOSIG",
      "taf": "TAF HEGN 250500Z 2506/2612 01012KT CAVOK"
    },
    {
      "icao": "HEMA",
      "alert": "OK",
      "vis_m": 9999,
      "fzfg": false,
      "metar_trigger": false,
      "taf_trigger": false,
      "metar": "METAR HEMA 250800Z 35014KT CAVOK 23/08 Q1020 NOSIG",
      "taf": "TAF HEMA 250500Z 2506/2612 02014KT CAVOK"
    },
    {
      "icao": "HESH",
      "alert": "OK",
      "vis_m": 9999,
      "fzfg": false,
      "metar_trigger": false,
      "taf_trigger": false,
      "metar": "METAR HESH 250800Z 02011KT CAVOK 22/04 Q1021 NOSIG",
      "taf": "TAF HESH 250500Z 2506/2612 03012KT CAVOK"
    },
    {
      "icao": "HESX",
      "alert": "OK",
      "vis_m": 9999,
      "fzfg": false,
      "metar_trigger": false,
      "taf_trigger": false,
      "metar": "METAR HESX 250800Z 12006KT CAVOK 17/06 Q1021 NOSIG",
      "taf": "TAF HESX 250500Z 2506/2612 15007KT 6000 NSC"
    },
    {
      "icao": "LATI",
      "alert": "OK",
      "vis_m": 9999,
      "fzfg": false,
      "metar_trigger": false,
      "taf_trigger": false,
      "metar": "METAR LATI 250850Z VRB02KT 9999 BKN130 13/06 Q1008 NOSIG",
      "taf": "TAF LATI 250500Z 2506/2606 17008KT 9999 BKN080 TX18/2512Z TN06/2604Z"
    },
    {
      "icao": "LBPD",
      "alert": "OK",
      "vis_m": 9999,
      "fzfg": false,
      "metar_trigger": false,
      "taf_trigger": false,
      "metar": "METAR LBPD 250830Z AUTO 00000KT 9999 OVC007/// 04/04 Q1016 NOSIG",
      "taf": "TAF LBPD 250500Z 2506/2606 VRB04KT 9999 OVC010"
    },
    {
      "icao": "LBSF",
      "alert": "OK",
      "vis_m": 800,
      "fzfg": true,
      "metar_trigger": false,
      "taf_trigger": false,
      "metar": "METAR LBSF 250830Z 11003KT 0800 R27/1400U FZFG OVC002 M01/M01 Q1014 TEMPO 1500 BR",
      "taf": "TAF LBSF 250500Z 2506/2606 VRB04KT 0400 FZFG OVC002"
    },
    {
      "icao": "LBWN",
      "alert": "OK",
      "vis_m": 9999,
      "fzfg": false,
      "metar_trigger": false,
      "taf_trigger": false,
      "metar": "METAR LBWN 250830Z 30003KT 9999 SCT030 08/08 Q1015 NOSIG",
      "taf": "TAF LBWN 250500Z 2506/2606 VRB03KT 5000 BR BKN015"
    },
    {
      "icao": "LCLK",
      "alert": "OK",
      "vis_m": 9999,
      "fzfg": false,
      "metar_trigger": false,
      "taf_trigger": false,
      "metar": "METAR LCLK 250830Z 03008KT 9999 FEW021 17/13 Q1023 NOSIG",
      "taf": ""
    },
    {
      "icao": "LCPH",
      "alert": "OK",
      "vis_m": 5000,
      "fzfg": false,
      "metar_trigger": false,
      "taf_trigger": false,
      "metar": "METAR LCPH 250830Z 15004KT 090V160 5000 DU NSC 18/08 Q1022 TEMPO 3000 DU",
      "taf": ""
    },
    {
      "icao": "LEAL",
      "alert": "OK",
      "vis_m": 9999,
      "fzfg": false,
      "metar_trigger": false,
      "taf_trigger": false,
      "metar": "METAR LEAL 250830Z 26012KT 230V290 9999 FEW030 13/02 Q1011 NOSIG",
      "taf": "TAF LEAL 250500Z 2506/2606 23008KT CAVOK TX18/2513Z TN09/2506Z"
    },
    {
      "icao": "LEBB",
      "alert": "OK",
      "vis_m": 9999,
      "fzfg": false,
      "metar_trigger": false,
      "taf_trigger": false,
      "metar": "METAR LEBB 250830Z 22015G29KT 170V250 CAVOK 12/03 Q1000 NOSIG",
      "taf": "TAF LEBB 250500Z 2506/2606 21009KT 9999 FEW040 TX12/2512Z TN07/2605Z"
    },
    {
      "icao": "LEBL",
      "alert": "OK",
      "vis_m": 9999,
      "fzfg": false,
      "metar_trigger": false,
      "taf_trigger": false,
      "metar": "METAR LEBL 250830Z 31007KT 260V350 CAVOK 09/03 Q1004 NOSIG",
      "taf": "TAF LEBL 250500Z 2506/2606 31012KT 9999 FEW020 TX16/2512Z TN08/2506Z"
    },
    {
      "icao": "LECH",
      "alert": "OK",
      "vis_m": 9999,
      "fzfg": false,
      "metar_trigger": false,
      "taf_trigger": false,
      "metar": "METAR LECH 250830Z AUTO VRB02KT CAVOK 06/M01 Q1006",
      "taf": ""
    },
    {
      "icao": "LEMD",
      "alert": "OK",
      "vis_m": 9999,
      "fzfg": false,
      "metar_trigger": false,
      "taf_trigger": false,
      "metar": "METAR LEMD 250830Z 21011KT 9999 SCT012 BKN045 BKN055 05/05 Q1009 WS ALL RWY NOSIG",
      "taf": "TAF LEMD 250500Z 2506/2612 23010KT 9999 FEW030 TX10/2516Z TN03/2606Z"
    },
    {
      "icao": "LEMG",
      "alert": "OK",
      "vis_m": 9999,
      "fzfg": false,
      "metar_trigger": false,
      "taf_trigger": false,
      "metar": "METAR LEMG 250830Z 14001KT 9999 BKN048 09/05 Q1017 NOSIG",
      "taf": "TAF LEMG 250500Z 2506/2606 VRB02KT CAVOK TX16/2514Z TN10/2507Z"
    },
    {
      "icao": "LEVC",
      "alert": "OK",
      "vis_m": 9999,
      "fzfg": false,
      "metar_trigger": false,
      "taf_trigger": false,
      "metar": "METAR LEVC 250830Z 25009KT 220V280 9999 FEW045 10/02 Q1009 NOSIG",
      "taf": "TAF LEVC 250500Z 2506/2606 27018KT CAVOK TX17/2513Z TN08/2506Z"
    },
    {
      "icao": "LEXJ",
      "alert": "OK",
      "vis_m": 9999,
      "fzfg": false,
      "metar_trigger": false,
      "taf_trigger": false,
      "metar": "METAR LEXJ 250830Z 25006KT 210V280 9999 -RA FEW050 BKN075 10/03 Q1000",
      "taf": "TAF LEXJ 250800Z 2509/2609 22009KT 9999 SCT060 TX13/2513Z TN07/2604Z"
    },
    {
      "icao": "LEZG",
      "alert": "OK",
      "vis_m": 9999,
      "fzfg": false,
      "metar_trigger": false,
      "taf_trigger": false,
      "metar": "METAR LEZG 250830Z 23017KT 9999 FEW060 08/02 Q1005 NOSIG",
      "taf": ""
    },
    {
      "icao": "LEZL",
      "alert": "OK",
      "vis_m": 9999,
      "fzfg": false,
      "metar_trigger": false,
      "taf_trigger": false,
      "metar": "METAR LEZL 250830Z 25011KT 220V280 9999 -RA BKN045 13/12 Q1017 NOSIG",
      "taf": "TAF LEZL 250800Z 2509/2609 24010KT CAVOK TX18/2515Z TN13/2607Z"
    },
    {
      "icao": "LFBD",
      "alert": "OK",
      "vis_m": 9999,
      "fzfg": false,
      "metar_trigger": false,
      "taf_trigger": false,
      "metar": "METAR LFBD 250830Z AUTO 23014KT 9999 FEW016/// SCT036/// BKN047/// //////CB 08/06 Q0996 TEMPO 24020G30KT 2000 TSRA BKN010 BKN025CB",
      "taf": "TAF LFBD 250500Z 2506/2612 20010KT 9999 BKN040 TX12/2612Z TN05/2520Z"
    },
    {
      "icao": "LFLL",
      "alert": "OK",
      "vis_m": 6000,
      "fzfg": false,
      "metar_trigger": false,
      "taf_trigger": false,
      "metar": "METAR LFLL 250830Z 17003KT 130V220 6000 SCT031 SCT086 03/03 Q0999 NOSIG",
      "taf": ""
    },
    {
      "icao": "LFLS",
      "alert": "OK",
      "vis_m": 5000,
      "fzfg": false,
      "metar_trigger": false,
      "taf_trigger": false,
      "metar": "METAR LFLS 250830Z AUTO 07004KT 040V110 5000 1900 BR BKN003 BKN088 03/03 Q0999 TEMPO 0800 FG BECMG SCT020 BKN040",
      "taf": "TAF LFLS 250800Z 2509/2609 09005KT 9999 SCT040"
    },
    {
      "icao": "LFMN",
      "alert": "OK",
      "vis_m": 9999,
      "fzfg": false,
      "metar_trigger": false,
      "taf_trigger": false,
      "metar": "METAR LFMN 250830Z 36008KT 320V030 9999 SCT055 SCT170 07/03 Q0999 NOSIG",
      "taf": "TAF LFMN 250800Z 2509/2615 VRB05KT 9999 SCT050 BKN120"
    },
    {
      "icao": "LFOB",
      "alert": "OK",
      "vis_m": 7000,
      "fzfg": false,
      "metar_trigger": false,
      "taf_trigger": false,
      "metar": "METAR LFOB 250830Z AUTO 12008KT 7000 OVC004 04/04 Q0994 TEMPO 4000 -DZ BR",
      "taf": "TAF LFOB 250500Z 2506/2606 13007KT 6000 OVC012"
    },
    {
      "icao": "LFPO",
      "alert": "OK",
      "vis_m": 9999,
      "fzfg": false,
      "metar_trigger": false,
      "taf_trigger": false,
      "metar": "METAR LFPO 250830Z 17009KT 140V200 9999 OVC007 06/04 Q0995 NOSIG",
      "taf": ""
    },
    {
      "icao": "LFSB",
      "alert": "OK",
      "vis_m": 4700,
      "fzfg": false,
      "metar_trigger": false,
      "taf_trigger": false,
      "metar": "METAR LFSB 250830Z AUTO VRB02KT 4700 BR OVC004 02/02 Q0999 BECMG 9000 NSW FEW008 BKN030",
      "taf": ""
    },
    {
      "icao": "LGAV",
      "alert": "OK",
      "vis_m": 9999,
      "fzfg": false,
      "metar_trigger": false,
      "taf_trigger": false,
      "metar": "METAR LGAV 250820Z 20012KT 9999 FEW016 SCT040 16/12 Q1017 NOSIG",
      "taf": "TAF LGAV 250500Z 2506/2606 20012KT 9999 FEW015 SCT020"
    },
    {
      "icao": "LGTS",
      "alert": "OK",
      "vis_m": 9000,
      "fzfg": false,
      "metar_trigger": false,
      "taf_trigger": false,
      "metar": "METAR LGTS 250820Z 00000KT 9000 FEW007 BKN020 10/08 Q1015 NOSIG",
      "taf": "TAF LGTS 250500Z 2506/2606 VRB03KT 9999 FEW010 BKN025"
    },
    {
      "icao": "LHBP",
      "alert": "OK",
      "vis_m": 4500,
      "fzfg": false,
      "metar_trigger": false,
      "taf_trigger": false,
      "metar": "METAR LHBP 250830Z 08007KT 4500 BR BKN005 02/01 Q1007 TEMPO BKN004",
      "taf": "TAF LHBP 250515Z 2506/2606 06006KT 6000 SCT015 BKN150"
    },
    {
      "icao": "LHDC",
      "alert": "OK",
      "vis_m": 8000,
      "fzfg": false,
      "metar_trigger": false,
      "taf_trigger": false,
      "metar": "METAR LHDC 250815Z AUTO 08006KT 8000 NSC 04/02 Q1009 NOSIG",
      "taf": "TAF LHDC 250815Z 2509/2518 08006KT 8000 NSC"
    },
    {
      "icao": "LIBD",
      "alert": "OK",
      "vis_m": 9999,
      "fzfg": false,
      "metar_trigger": false,
      "taf_trigger": false,
      "metar": "METAR LIBD 250820Z 14019KT 9999 BKN030 16/12 Q1001",
      "taf": "TAF LIBD 250500Z 2506/2606 15015G25KT 9999 SCT020"
    },
    {
      "icao": "LIBG",
      "alert": "OK",
      "vis_m": 6000,
      "fzfg": false,
      "metar_trigger": false,
      "taf_trigger": false,
      "metar": "METAR LIBG 250750Z 16019G31KT 6000 SCT010 BKN020 15/13 Q1004",
      "taf": "TAF LIBG 250800Z 2509/2518 16017G29KT 8000 BKN012"
    },
    {
      "icao": "LIBP",
      "alert": "OK",
      "vis_m": 3600,
      "fzfg": false,
      "metar_trigger": false,
      "taf_trigger": false,
      "metar": "METAR LIBP 250820Z AUTO 33003KT 270V050 3600 BR BKN062/// 09/09 Q0998",
      "taf": "TAF LIBP 250500Z 2506/2606 VRB05KT 2000 -RA BR BKN004"
    },
    {
      "icao": "LIBR",
      "alert": "OK",
      "vis_m": 9000,
      "fzfg": false,
      "metar_trigger": false,
      "taf_trigger": false,
      "metar": "METAR LIBR 250820Z 16021G33KT 130V190 9000 BKN020 16/12 Q1003",
      "taf": "TAF LIBR 250500Z 2506/2606 15016G26KT 9999 SCT020"
    },
    {
      "icao": "LICA",
      "alert": "OK",
      "vis_m": 9999,
      "fzfg": false,
      "metar_trigger": false,
      "taf_trigger": false,
      "metar": "METAR LICA 250820Z AUTO 06014KT 9999 NCD 17/14 Q1003",
      "taf": "TAF LICA 250500Z 2506/2606 07018KT 9999 SCT020"
    },
    {
      "icao": "LICC",
      "alert": "OK",
      "vis_m": 6000,
      "fzfg": false,
      "metar_trigger": false,
      "taf_trigger": false,
      "metar": "METAR LICC 250820Z 21006KT 6000 FEW030 SCT100 13/11 Q1002",
      "taf": "TAF LICC 250500Z 2506/2606 VRB06KT 9999 SCT030"
    },
    {
      "icao": "LICJ",
      "alert": "OK",
      "vis_m": 9999,
      "fzfg": false,
      "metar_trigger": false,
      "taf_trigger": false,
      "metar": "METAR LICJ 250820Z 16006KT 9999 FEW025 BKN040 11/09 Q1005 RERA",
      "taf": "TAF LICJ 250500Z 2506/2606 28014KT 9999 SCT030"
    },
    {
      "icao": "LIMC",
      "alert": "OK",
      "vis_m": 3000,
      "fzfg": false,
      "metar_trigger": false,
      "taf_trigger": false,
      "metar": "METAR LIMC 250820Z 02004KT 3000 -DZ BR OVC005 05/05 Q0999 NOSIG",
      "taf": ""
    },
    {
      "icao": "LIME",
      "alert": "OK",
      "vis_m": 1700,
      "fzfg": false,
      "metar_trigger": false,
      "taf_trigger": false,
      "metar": "METAR LIME 250820Z 26005KT 1700 1000SW BR VV002 05/05 Q0999 NOSIG",
      "taf": ""
    },
    {
      "icao": "LIMF",
      "alert": "OK",
      "vis_m": 5000,
      "fzfg": false,
      "metar_trigger": false,
      "taf_trigger": false,
      "metar": "METAR LIMF 250820Z VRB02KT 5000 BR SCT015 BKN030 04/03 Q0999",
      "taf": "TAF LIMF 250500Z 2506/2606 VRB03KT 4000 RA SCT020 BKN040"
    },
    {
      "icao": "LIMJ",
      "alert": "OK",
      "vis_m": 9999,
      "fzfg": false,
      "metar_trigger": false,
      "taf_trigger": false,
      "metar": "METAR LIMJ 250820Z 04013KT CAVOK 06/02 Q0999",
      "taf": "TAF LIMJ 250500Z 2506/2606 03012KT 9999 SCT040"
    },
    {
      "icao": "LIPE",
      "alert": "OK",
      "vis_m": 1500,
      "fzfg": false,
      "metar_trigger": false,
      "taf_trigger": false,
      "metar": "METAR LIPE 250820Z 26009KT 1500 -DZ BR OVC003 05/05 Q1000",
      "taf": ""
    },
    {
      "icao": "LIPH",
      "alert": "OK",
      "vis_m": 6000,
      "fzfg": false,
      "metar_trigger": false,
      "taf_trigger": false,
      "metar": "METAR LIPH 250820Z 31004KT 6000 -RA SCT015 BKN030 07/07 Q0998",
      "taf": "TAF LIPH 250500Z 2506/2606 VRB05KT 4000 RA BKN010"
    },
    {
      "icao": "LIPQ",
      "alert": "OK",
      "vis_m": 9999,
      "fzfg": false,
      "metar_trigger": false,
      "taf_trigger": false,
      "metar": "METAR LIPQ 250820Z AUTO 10009KT 9999 -RA FEW017/// OVC042/// 10/08 Q0998",
      "taf": "TAF LIPQ 250500Z 2506/2606 08007KT 6000 RA BKN020"
    },
    {
      "icao": "LIPR",
      "alert": "OK",
      "vis_m": 8000,
      "fzfg": false,
      "metar_trigger": false,
      "taf_trigger": false,
      "metar": "METAR LIPR 250820Z 24007KT 8000 RA SCT025 BKN040 08/07 Q0999",
      "taf": "TAF LIPR 250500Z 2506/2606 VRB05KT 4000 RA BKN030"
    },
    {
      "icao": "LIPX",
      "alert": "OK",
      "vis_m": 9999,
      "fzfg": false,
      "metar_trigger": false,
      "taf_trigger": false,
      "metar": "METAR LIPX 250820Z VRB02KT 9999 FEW007 BKN075 06/05 Q0999",
      "taf": "TAF LIPX 250500Z 2506/2606 09007KT 4000 RA BR BKN040"
    },
    {
      "icao": "LIPY",
      "alert": "OK",
      "vis_m": 9999,
      "fzfg": false,
      "metar_trigger": false,
      "taf_trigger": false,
      "metar": "METAR LIPY 250820Z AUTO 27004KT 230V300 9999 -RA OVC036/// 09/08 Q0999",
      "taf": "TAF LIPY 242300Z 2500/2524 VRB05KT 2000 BR BKN010"
    },
    {
      "icao": "LIPZ",
      "alert": "OK",
      "vis_m": 8000,
      "fzfg": false,
      "metar_trigger": false,
      "taf_trigger": false,
      "metar": "METAR LIPZ 250820Z 36008KT 8000 -RA SCT005 BKN020 08/08 Q0997 NOSIG",
      "taf": "TAF LIPZ 250500Z 2506/2612 04008KT 4000 RA BKN004"
    },
    {
      "icao": "LIRF",
      "alert": "OK",
      "vis_m": 9999,
      "fzfg": false,
      "metar_trigger": false,
      "taf_trigger": false,
      "metar": "METAR LIRF 250820Z 08008KT CAVOK 08/07 Q1001 NOSIG",
      "taf": "TAF LIRF 250500Z 2506/2612 09010KT 9999 SCT030"
    },
    {
      "icao": "LIRN",
      "alert": "OK",
      "vis_m": 9999,
      "fzfg": false,
      "metar_trigger": false,
      "taf_trigger": false,
      "metar": "METAR LIRN 250820Z 27010KT 9999 -RA FEW010 SCT070 10/08 Q1002 NOSIG",
      "taf": "TAF LIRN 250500Z 2506/2606 25012KT 9999 SCT030"
    },
    {
      "icao": "LIRP",
      "alert": "OK",
      "vis_m": 9999,
      "fzfg": false,
      "metar_trigger": false,
      "taf_trigger": false,
      "metar": "METAR LIRP 250815Z 13009KT 9999 FEW023 SCT030 BKN080 09/09 Q0998 NOSIG",
      "taf": "TAF LIRP 250500Z 2506/2606 10008KT 9999 SCT020 BKN050"
    },
    {
      "icao": "LIRZ",
      "alert": "OK",
      "vis_m": 9999,
      "fzfg": false,
      "metar_trigger": false,
      "taf_trigger": false,
      "metar": "METAR LIRZ 250820Z AUTO 17003KT 9999 -RA BKN027/// 07/06 Q1001",
      "taf": "TAF LIRZ 250500Z 2506/2606 VRB05KT 9999 BKN030"
    },
    {
      "icao": "LJLJ",
      "alert": "OK",
      "vis_m": 1500,
      "fzfg": false,
      "metar_trigger": false,
      "taf_trigger": false,
      "metar": "METAR LJLJ 250830Z VRB01KT 1500 R30/P2000U -RA BR BKN003 OVC010 02/02 Q1000 NOSIG",
      "taf": "TAF LJLJ 250500Z 2506/2606 VRB02KT 2000 BR FEW001 SCT007 OVC030"
    },
    {
      "icao": "LKMT",
      "alert": "OK",
      "vis_m": 1000,
      "fzfg": false,
      "metar_trigger": false,
      "taf_trigger": false,
      "metar": "METAR LKMT 250830Z 05003KT 360V090 1000 R22/1300N R04/1000N BR SCT002 OVC005 M01/M01 Q1005 NOSIG",
      "taf": "TAF LKMT 250500Z 2506/2606 02006KT 1600 BR OVC006"
    },
    {
      "icao": "LKPR",
      "alert": "OK",
      "vis_m": 400,
      "fzfg": true,
      "metar_trigger": false,
      "taf_trigger": false,
      "metar": "METAR LKPR 250830Z VRB02KT 0400 R24/0500D R30/0375N -FZDZ FZFG VV002 M01/M01 Q1001 NOSIG",
      "taf": "TAF LKPR 250800Z 2509/2615 06004KT 0800 FZFG OVC002"
    },
    {
      "icao": "LLBG",
      "alert": "OK",
      "vis_m": 9999,
      "fzfg": false,
      "metar_trigger": false,
      "taf_trigger": false,
      "metar": "METAR LLBG 250850Z VRB02KT CAVOK 20/04 Q1022 NOSIG",
      "taf": "TAF LLBG 250501Z 2506/2606 VRB04KT CAVOK"
    },
    {
      "icao": "LMML",
      "alert": "OK",
      "vis_m": 9999,
      "fzfg": false,
      "metar_trigger": false,
      "taf_trigger": false,
      "metar": "METAR LMML 250845Z 31010KT 290V350 9999 FEW015 14/12 Q1004 NOSIG",
      "taf": "TAF LMML 250500Z 2506/2606 30015KT 9999 FEW017"
    },
    {
      "icao": "LOWW",
      "alert": "OK",
      "vis_m": 600,
      "fzfg": false,
      "metar_trigger": false,
      "taf_trigger": false,
      "metar": "METAR LOWW 250820Z 13013KT 0600 R11/0700N R16/0750N FG FEW000 BKN001 01/01 Q1003 BECMG FM0930 1200 BR OVC003",
      "taf": "TAF LOWW 250815Z 2509/2615 14012KT 0500 FG VV001 TX03/2614Z TN00/2607Z"
    },
    {
      "icao": "LPFR",
      "alert": "OK",
      "vis_m": 8000,
      "fzfg": false,
      "metar_trigger": false,
      "taf_trigger": false,
      "metar": "METAR LPFR 250830Z 26017KT 8000 -DZ SCT010 BKN030 14/12 Q1018",
      "taf": "TAF LPFR 250500Z 2506/2606 26015KT 9999 SCT015 BKN030"
    },
    {
      "icao": "LPMA",
      "alert": "OK",
      "vis_m": 9999,
      "fzfg": false,
      "metar_trigger": false,
      "taf_trigger": false,
      "metar": "METAR LPMA 250830Z 32006KT 280V340 9999 SCT015 14/07 Q1026",
      "taf": "TAF LPMA 250500Z 2506/2606 VRB05KT 9999 SCT015"
    },
    {
      "icao": "LPPR",
      "alert": "OK",
      "vis_m": 6000,
      "fzfg": false,
      "metar_trigger": false,
      "taf_trigger": false,
      "metar": "METAR LPPR 250830Z 29005KT 240V330 6000 FEW020 FEW025CB BKN035 13/08 Q1011",
      "taf": "TAF LPPR 250500Z 2506/2606 27012KT 9999 SCT020"
    },
    {
      "icao": "LPPS",
      "alert": "OK",
      "vis_m": 9999,
      "fzfg": false,
      "metar_trigger": false,
      "taf_trigger": false,
      "metar": "METAR LPPS 250830Z 27014KT 9999 FEW015 16/10 Q1026",
      "taf": "TAF LPPS 250500Z 2506/2612 27010KT 9999 SCT015"
    },
    {
      "icao": "LPPT",
      "alert": "OK",
      "vis_m": 9999,
      "fzfg": false,
      "metar_trigger": false,
      "taf_trigger": false,
      "metar": "METAR LPPT 250830Z 26012KT 230V290 9999 VCSH FEW012 SCT018 FEW020TCU 14/12 Q1015",
      "taf": "TAF LPPT 250500Z 2506/2612 26012KT 9999 SCT012 BKN025"
    },
    {
      "icao": "LQBK",
      "alert": "OK",
      "vis_m": 2500,
      "fzfg": false,
      "metar_trigger": false,
      "taf_trigger": false,
      "metar": "METAR LQBK 250830Z 33004KT 2500 BR FEW005 SCT043 04/04 Q1002 BECMG 6000 NSW",
      "taf": "TAF LQBK 250500Z 2506/2606 VRB02KT 2000 BR BKN040 TX09/2513Z TN00/2506Z"
    },
    {
      "icao": "LQSA",
      "alert": "OK",
      "vis_m": 9999,
      "fzfg": false,
      "metar_trigger": false,
      "taf_trigger": false,
      "metar": "METAR LQSA 250830Z 11020G31KT 9999 BKN050 11/03 Q1002 NOSIG",
      "taf": ""
    },
    {
      "icao": "LQTZ",
      "alert": "OK",
      "vis_m": 9999,
      "fzfg": false,
      "metar_trigger": false,
      "taf_trigger": false,
      "metar": "METAR LQTZ 250830Z 11013KT 9999 FEW068 08/04 Q1003",
      "taf": ""
    },
    {
      "icao": "LRBC",
      "alert": "OK",
      "vis_m": 1500,
      "fzfg": false,
      "metar_trigger": false,
      "taf_trigger": false,
      "metar": "METAR LRBC 250830Z 17005KT 1500 BR OVC002 M00/M00 Q1014",
      "taf": "TAF LRBC 250800Z 2509/2518 17008KT 1500 BR OVC002"
    },
    {
      "icao": "LRBS",
      "alert": "OK",
      "vis_m": 3000,
      "fzfg": false,
      "metar_trigger": false,
      "taf_trigger": false,
      "metar": "METAR LRBS 250830Z 21006KT 3000 BR OVC003 M00/M00 Q1015 NOSIG",
      "taf": "TAF LRBS 250500Z 2506/2606 24006KT 8000 OVC005"
    },
    {
      "icao": "LRBV",
      "alert": "OK",
      "vis_m": 9999,
      "fzfg": false,
      "metar_trigger": false,
      "taf_trigger": false,
      "metar": "METAR LRBV 250830Z VRB02KT CAVOK 02/M00 Q1012",
      "taf": "TAF LRBV 250800Z 2509/2518 VRB04KT CAVOK"
    },
    {
      "icao": "LRCL",
      "alert": "OK",
      "vis_m": 2500,
      "fzfg": false,
      "metar_trigger": false,
      "taf_trigger": false,
      "metar": "METAR LRCL 250830Z 09001KT 2500 BR FEW005 SCT055 M00/M01 Q1011",
      "taf": "TAF LRCL 250800Z 2509/2518 09006KT 3000 BR SCT005 BKN050"
    },
    {
      "icao": "LRCV",
      "alert": "OK",
      "vis_m": 500,
      "fzfg": true,
      "metar_trigger": false,
      "taf_trigger": false,
      "metar": "METAR LRCV 250830Z 17003KT 0500 R26/1000D FZFG OVC002 M01/M01 Q1015",
      "taf": "TAF LRCV 250800Z 2509/2518 VRB04KT 0600 FZFG OVC002"
    },
    {
      "icao": "LRIA",
      "alert": "OK",
      "vis_m": 300,
      "fzfg": true,
      "metar_trigger": false,
      "taf_trigger": false,
      "metar": "METAR LRIA 250830Z 11011KT 0300 R14/0700N FZFG VV001 M00/M01 Q1015",
      "taf": "TAF LRIA 250800Z 2509/2518 11010KT 0300 FG OVC001"
    },
    {
      "icao": "LROP",
      "alert": "OK",
      "vis_m": 4500,
      "fzfg": false,
      "metar_trigger": false,
      "taf_trigger": false,
      "metar": "METAR LROP 250830Z 20005KT 180V240 4500 BR OVC002 00/00 Q1015 NOSIG",
      "taf": "TAF LROP 250500Z 2506/2606 24006KT 5000 BR OVC005"
    },
    {
      "icao": "LRSB",
      "alert": "OK",
      "vis_m": 9999,
      "fzfg": false,
      "metar_trigger": false,
      "taf_trigger": false,
      "metar": "METAR LRSB 250830Z VRB01KT CAVOK 04/01 Q1010",
      "taf": "TAF LRSB 250500Z 2506/2606 VRB04KT 9999 SCT055"
    },
    {
      "icao": "LRSM",
      "alert": "OK",
      "vis_m": 9999,
      "fzfg": false,
      "metar_trigger": false,
      "taf_trigger": false,
      "metar": "METAR LRSM 250830Z 10004KT 9999 FEW044 04/01 Q1010",
      "taf": "TAF LRSM 250800Z 2509/2518 12006KT 9999 BKN035"
    },
    {
      "icao": "LRSV",
      "alert": "OK",
      "vis_m": 250,
      "fzfg": true,
      "metar_trigger": false,
      "taf_trigger": false,
      "metar": "METAR LRSV 250830Z 17006KT 0250 R34/0300N FZFG VV001 M02/M02 Q1012",
      "taf": "TAF LRSV 250800Z 2509/2518 16008KT 0300 FZFG VV001"
    },
    {
      "icao": "LRTM",
      "alert": "OK",
      "vis_m": 4900,
      "fzfg": false,
      "metar_trigger": false,
      "taf_trigger": false,
      "metar": "METAR LRTM 250830Z 09004KT 4900 BR FEW015 SCT048 01/M01 Q1011",
      "taf": "TAF LRTM 250800Z 2509/2518 VRB04KT 5000 BR BKN045"
    },
    {
      "icao": "LRTR",
      "alert": "OK",
      "vis_m": 9999,
      "fzfg": false,
      "metar_trigger": false,
      "taf_trigger": false,
      "metar": "METAR LRTR 250830Z 10012KT CAVOK 05/02 Q1008",
      "taf": "TAF LRTR 250500Z 2506/2606 10010KT 9999 BKN045"
    },
    {
      "icao": "LTAC",
      "alert": "OK",
      "vis_m": 4800,
      "fzfg": false,
      "metar_trigger": false,
      "taf_trigger": false,
      "metar": "METAR LTAC 250820Z VRB02KT 4800 BR SCT004 BKN040 05/05 Q1020 BECMG 9999 NSW",
      "taf": "TAF LTAC 250440Z 2506/2606 VRB02KT 1200 BCFG BKN001"
    },
    {
      "icao": "LTFM",
      "alert": "OK",
      "vis_m": 9999,
      "fzfg": false,
      "metar_trigger": false,
      "taf_trigger": false,
      "metar": "METAR LTFM 250820Z 21011KT 9999 SCT032 BKN100 13/10 Q1017 NOSIG",
      "taf": "TAF LTFM 250440Z 2506/2612 22014KT 9999 BKN035"
    },
    {
      "icao": "LUKK",
      "alert": "OK",
      "vis_m": 2000,
      "fzfg": true,
      "metar_trigger": false,
      "taf_trigger": false,
      "metar": "METAR LUKK 250830Z 09009KT 2000 FZDZ BR OVC002 M03/M03 Q1017 TEMPO 0800 -FZDZ FZFG",
      "taf": ""
    },
    {
      "icao": "LWOH",
      "alert": "OK",
      "vis_m": 9999,
      "fzfg": false,
      "metar_trigger": false,
      "taf_trigger": false,
      "metar": "METAR LWOH 250850Z VRB01KT 9999 SCT030 BKN090 07/06 Q1012",
      "taf": "TAF LWOH 250830Z 2509/2609 VRB02KT 9999 SCT030 BKN090"
    },
    {
      "icao": "LWSK",
      "alert": "OK",
      "vis_m": 7000,
      "fzfg": false,
      "metar_trigger": false,
      "taf_trigger": false,
      "metar": "METAR LWSK 250850Z VRB01KT 7000 OVC014 05/03 Q1014 NOSIG",
      "taf": "TAF LWSK 250830Z 2509/2609 VRB02KT 5000 BR OVC015"
    },
    {
      "icao": "LYBE",
      "alert": "OK",
      "vis_m": 9999,
      "fzfg": false,
      "metar_trigger": false,
      "taf_trigger": false,
      "metar": "METAR LYBE 250830Z 14015KT CAVOK 10/05 Q1006 NOSIG",
      "taf": "TAF LYBE 250500Z 2506/2606 12007KT CAVOK TX13/2513Z TN05/2606Z"
    },
    {
      "icao": "LYNI",
      "alert": "OK",
      "vis_m": 9999,
      "fzfg": false,
      "metar_trigger": false,
      "taf_trigger": false,
      "metar": "METAR LYNI 250830Z 12006KT 080V140 9999 FEW033 OVC080 08/04 Q1011 NOSIG",
      "taf": "TAF LYNI 250500Z 2506/2606 10006KT 9999 SCT070 TX12/2513Z TN03/2506Z"
    },
    {
      "icao": "LYPG",
      "alert": "OK",
      "vis_m": 9999,
      "fzfg": false,
      "metar_trigger": false,
      "taf_trigger": false,
      "metar": "METAR LYPG 250830Z 33007KT 300V360 9999 FEW030 SCT050 OVC080 11/10 Q1008 NOSIG",
      "taf": "TAF LYPG 250500Z 2506/2606 16005KT 9999 FEW013 SCT040 OVC070 TX13/2513Z TN08/2605Z"
    },
    {
      "icao": "LZIB",
      "alert": "OK",
      "vis_m": 4500,
      "fzfg": false,
      "metar_trigger": false,
      "taf_trigger": false,
      "metar": "METAR LZIB 250830Z 04007KT 4500 BR FEW006 SCT007 BKN014 02/01 Q1005 BECMG OVC010",
      "taf": "TAF LZIB 250515Z 2506/2606 05007KT 3500 BR BKN005"
    },
    {
      "icao": "LZKZ",
      "alert": "OK",
      "vis_m": 9999,
      "fzfg": false,
      "metar_trigger": false,
      "taf_trigger": false,
      "metar": "METAR LZKZ 250830Z 01004KT 9999 BKN023 03/02 Q1009 NOSIG",
      "taf": "TAF LZKZ 250515Z 2506/2606 23005KT 5000 BR SCT003 BKN030"
    },
    {
      "icao": "LZTT",
      "alert": "OK",
      "vis_m": 9999,
      "fzfg": false,
      "metar_trigger": false,
      "taf_trigger": false,
      "metar": "METAR LZTT 250830Z VRB01KT 9999 3000W PRFG SCT002 BKN007 BKN023 02/01 Q1006 BECMG BKN012 BKN043",
      "taf": "TAF LZTT 250515Z 2506/2606 15006KT 5000 BR SCT005 BKN030"
    },
    {
      "icao": "OEJN",
      "alert": "OK",
      "vis_m": 9999,
      "fzfg": false,
      "metar_trigger": false,
      "taf_trigger": false,
      "metar": "METAR OEJN 250800Z 35007KT CAVOK 27/09 Q1016 NOSIG",
      "taf": "TAF OEJN 250500Z 2506/2612 34012KT 9999 FEW040"
    },
    {
      "icao": "OEMA",
      "alert": "OK",
      "vis_m": 9999,
      "fzfg": false,
      "metar_trigger": false,
      "taf_trigger": false,
      "metar": "METAR OEMA 250800Z 06008KT CAVOK 18/M01 Q1024 NOSIG",
      "taf": "TAF OEMA 250500Z 2506/2612 09012KT 7000 NSC"
    },
    {
      "icao": "OJAI",
      "alert": "OK",
      "vis_m": null,
      "fzfg": false,
      "metar_trigger": false,
      "taf_trigger": false,
      "metar": "",
      "taf": "TAF OJAI 250500Z 2506/2612 13008KT 2000 BR FEW030"
    },
    {
      "icao": "OMAA",
      "alert": "OK",
      "vis_m": 9999,
      "fzfg": false,
      "metar_trigger": false,
      "taf_trigger": false,
      "metar": "METAR OMAA 250830Z 15013KT CAVOK 24/10 Q1016 NOSIG",
      "taf": "TAF OMAA 250500Z 2506/2612 16010KT 8000 FEW045"
    },
    {
      "icao": "OMDB",
      "alert": "OK",
      "vis_m": 8000,
      "fzfg": false,
      "metar_trigger": false,
      "taf_trigger": false,
      "metar": "METAR OMDB 250830Z 17011KT 150V220 8000 NSC 23/12 Q1016 NOSIG",
      "taf": "TAF OMDB 250500Z 2506/2612 16012KT 8000 NSC"
    },
    {
      "icao": "UAAA",
      "alert": "OK",
      "vis_m": 5000,
      "fzfg": false,
      "metar_trigger": false,
      "taf_trigger": false,
      "metar": "METAR UAAA 250830Z 04001MPS 5000 FU BKN100 OVC200 01/M07 Q1020 NOSIG",
      "taf": "TAF UAAA 250505Z 2506/2606 26003MPS 9999 SCT050 BKN100 TXM01/2508Z TNM07/2602Z"
    },
    {
      "icao": "UBBB",
      "alert": "OK",
      "vis_m": 9999,
      "fzfg": false,
      "metar_trigger": false,
      "taf_trigger": false,
      "metar": "METAR UBBB 250830Z 34006KT 9999 SCT010 OVC037 06/03 Q1019 NOSIG",
      "taf": "TAF UBBB 250502Z 2506/2606 33006KT 9999 SCT009 BKN025 TX07/2510Z TN02/2601Z"
    },
    {
      "icao": "UDSG",
      "alert": "OK",
      "vis_m": 200,
      "fzfg": true,
      "metar_trigger": false,
      "taf_trigger": false,
      "metar": "METAR UDSG 250830Z 06001KT 0200 R02/0275N FZFG VV002 M08/M09 Q1022 NOSIG",
      "taf": "TAF UDSG 250500Z 2506/2606 VRB06KT 0800 FZFG OVC006"
    },
    {
      "icao": "UDYZ",
      "alert": "OK",
      "vis_m": 1800,
      "fzfg": false,
      "metar_trigger": false,
      "taf_trigger": false,
      "metar": "METAR UDYZ 250830Z 00000KT 1800 R08/1700U BR BKN006 M03/M05 Q1024 NOSIG",
      "taf": "TAF UDYZ 250500Z 2506/2606 24006KT 2000 BR SCT020"
    },
    {
      "icao": "UGKO",
      "alert": "OK",
      "vis_m": 9999,
      "fzfg": false,
      "metar_trigger": false,
      "taf_trigger": false,
      "metar": "METAR UGKO 250830Z 11004KT 070V140 9999 SCT024 BKN051 06/05 Q1021 NOSIG",
      "taf": "TAF UGKO 250500Z 2506/2606 09007KT 9999 BKN080 TX09/2511Z TN03/2604Z"
    }
  ]
}