{
  "ts_utc": "2026-01-08T11:23:50Z",
  "threshold_m": 150,
  "source": "stations_override.txt (ICAO list) + aviationweather.gov (METAR/TAF raw)",
  "station_count": 159,
  "stations": [
    {
      "icao": "BIKF",
      "alert": "OK",
      "vis_m": 9999,
      "fzfg": false,
      "metar_trigger": false,
      "taf_trigger": false,
      "metar": "METAR BIKF 081100Z 08020KT CAVOK 01/M07 Q1000",
      "taf": "TAF BIKF 081044Z 0812/0912 07022KT 9999 FEW045 TX02/0814Z TNM05/0907Z"
    },
    {
      "icao": "BKPR",
      "alert": "OK",
      "vis_m": null,
      "fzfg": false,
      "metar_trigger": false,
      "taf_trigger": false,
      "metar": "",
      "taf": ""
    },
    {
      "icao": "EBCI",
      "alert": "OK",
      "vis_m": 4000,
      "fzfg": false,
      "metar_trigger": false,
      "taf_trigger": false,
      "metar": "METAR EBCI 081050Z 19007KT 4000 BR FEW002 BKN004 02/01 Q1005 TEMPO 0500 -FZDZRA FG BKN001",
      "taf": ""
    },
    {
      "icao": "EDDB",
      "alert": "OK",
      "vis_m": 9999,
      "fzfg": false,
      "metar_trigger": false,
      "taf_trigger": false,
      "metar": "METAR EDDB 081050Z AUTO 13007KT 9999 BKN024 M06/M10 Q1009 NOSIG",
      "taf": "TAF EDDB 080500Z 0806/0906 12007KT 9000 BKN035"
    },
    {
      "icao": "EDDH",
      "alert": "OK",
      "vis_m": 3600,
      "fzfg": false,
      "metar_trigger": false,
      "taf_trigger": false,
      "metar": "METAR EDDH 081050Z AUTO 12005KT 100V170 3600 -SHSN BR BKN006 BKN010 FEW///CB M01/M02 Q1005 RESHSN TEMPO 1200 SHSN BKN004",
      "taf": ""
    },
    {
      "icao": "EDDK",
      "alert": "OK",
      "vis_m": 9999,
      "fzfg": false,
      "metar_trigger": false,
      "taf_trigger": false,
      "metar": "METAR EDDK 081050Z AUTO 14007KT 9999 OVC022 02/M01 Q1007 NOSIG",
      "taf": "TAF EDDK 080500Z 0806/0912 19008KT 9999 OVC040"
    },
    {
      "icao": "EDDN",
      "alert": "OK",
      "vis_m": 9999,
      "fzfg": false,
      "metar_trigger": false,
      "taf_trigger": false,
      "metar": "METAR EDDN 081050Z AUTO 12005KT 9999 BKN015 M01/M03 Q1009 TEMPO OVC014",
      "taf": "TAF EDDN 080500Z 0806/0906 15005KT 9999 BKN015"
    },
    {
      "icao": "EDDS",
      "alert": "OK",
      "vis_m": 9999,
      "fzfg": false,
      "metar_trigger": false,
      "taf_trigger": false,
      "metar": "METAR EDDS 081050Z AUTO VRB01KT 9999 BKN033 BKN042 02/M02 Q1008 NOSIG",
      "taf": "TAF EDDS 080500Z 0806/0906 22004KT 9999 BKN020"
    },
    {
      "icao": "EDFH",
      "alert": "OK",
      "vis_m": 3000,
      "fzfg": false,
      "metar_trigger": false,
      "taf_trigger": false,
      "metar": "METAR EDFH 081050Z 22008KT 190V250 3000 -SN OVC003 M00/M00 Q1006",
      "taf": ""
    },
    {
      "icao": "EDJA",
      "alert": "OK",
      "vis_m": 9999,
      "fzfg": false,
      "metar_trigger": false,
      "taf_trigger": false,
      "metar": "METAR EDJA 081050Z 22012KT 9999 BKN031 BKN036 OVC043 M02/M04 Q1009",
      "taf": "TAF EDJA 080800Z 0809/0818 22008KT 9999 SCT025 BKN040"
    },
    {
      "icao": "EDLW",
      "alert": "OK",
      "vis_m": 9999,
      "fzfg": false,
      "metar_trigger": false,
      "taf_trigger": false,
      "metar": "METAR EDLW 081050Z 18012KT 9999 FEW018 OVC040 02/M01 Q1006",
      "taf": "TAF EDLW 080500Z 0806/0906 19011KT 9999 FEW015 OVC040"
    },
    {
      "icao": "EDNY",
      "alert": "OK",
      "vis_m": 6000,
      "fzfg": false,
      "metar_trigger": false,
      "taf_trigger": false,
      "metar": "METAR EDNY 081050Z 13005KT 6000 -SN FEW033 BKN038 OVC059 M01/M03 Q1011",
      "taf": "TAF EDNY 080800Z 0809/0818 17003KT 9000 SCT030 BKN040"
    },
    {
      "icao": "EDSB",
      "alert": "OK",
      "vis_m": 9000,
      "fzfg": false,
      "metar_trigger": false,
      "taf_trigger": false,
      "metar": "METAR EDSB 081050Z 21010KT 9000 -RA FEW015 BKN031 OVC038 02/00 Q1009",
      "taf": "TAF EDSB 080500Z 0806/0906 20010KT 9999 BKN025"
    },
    {
      "icao": "EETN",
      "alert": "OK",
      "vis_m": 9999,
      "fzfg": false,
      "metar_trigger": false,
      "taf_trigger": false,
      "metar": "METAR EETN 081120Z 11003KT 9999 OVC022 M06/M08 Q1020 NOSIG",
      "taf": "TAF EETN 080530Z 0806/0906 VRB02KT 9999 OVC025"
    },
    {
      "icao": "EFTU",
      "alert": "OK",
      "vis_m": 9999,
      "fzfg": false,
      "metar_trigger": false,
      "taf_trigger": false,
      "metar": "METAR EFTU 081120Z AUTO 10008KT 9999 FEW017 M09/M12 Q1019",
      "taf": "TAF EFTU 080829Z 0809/0909 10007KT 9999 BKN030"
    },
    {
      "icao": "EGBB",
      "alert": "OK",
      "vis_m": 600,
      "fzfg": false,
      "metar_trigger": false,
      "taf_trigger": false,
      "metar": "METAR EGBB 081050Z 14005KT 0600 R15/P1500N FG OVC002 03/03 Q1002",
      "taf": "TAF EGBB 081059Z 0812/0912 14004KT 3000 BR BKN005"
    },
    {
      "icao": "EGGP",
      "alert": "OK",
      "vis_m": 5000,
      "fzfg": false,
      "metar_trigger": false,
      "taf_trigger": false,
      "metar": "METAR EGGP 081050Z 10007KT 5000 DZ FEW003 OVC004 02/01 Q1001",
      "taf": "TAF EGGP 081104Z 0812/0912 12007KT 9999 FEW010"
    },
    {
      "icao": "EGGW",
      "alert": "OK",
      "vis_m": 150,
      "fzfg": false,
      "metar_trigger": false,
      "taf_trigger": false,
      "metar": "METAR EGGW 081050Z AUTO 15004KT 0150 R25/0350N FG OVC002 02/02 Q1002",
      "taf": "TAF EGGW 081058Z 0812/0912 16008KT 9999 BKN005"
    },
    {
      "icao": "EGKK",
      "alert": "OK",
      "vis_m": 4000,
      "fzfg": false,
      "metar_trigger": false,
      "taf_trigger": false,
      "metar": "METAR EGKK 081050Z 10002KT 4000 BR BKN006 BKN012 05/05 Q1003",
      "taf": "TAF EGKK 081058Z 0812/0918 17004KT 9999 SCT007 BKN040"
    },
    {
      "icao": "EGNM",
      "alert": "OK",
      "vis_m": 9999,
      "fzfg": false,
      "metar_trigger": false,
      "taf_trigger": false,
      "metar": "METAR EGNM 081050Z VRB01KT CAVOK 00/M01 Q1001",
      "taf": "TAF EGNM 081103Z 0812/0912 23004KT 9999 FEW015"
    },
    {
      "icao": "EGPD",
      "alert": "OK",
      "vis_m": 9000,
      "fzfg": false,
      "metar_trigger": false,
      "taf_trigger": false,
      "metar": "METAR EGPD 081050Z 21006KT 9000 3000S VCFG FEW004 M01/M02 Q1001 NOSIG",
      "taf": "TAF EGPD 081057Z 0812/0912 19005KT 9999 FEW006"
    },
    {
      "icao": "EGPF",
      "alert": "OK",
      "vis_m": 9999,
      "fzfg": false,
      "metar_trigger": false,
      "taf_trigger": false,
      "metar": "METAR EGPF 081050Z VRB01KT 9999 OVC014 00/M01 Q1000",
      "taf": "TAF EGPF 081102Z 0812/0912 VRB03KT 9999 SCT025"
    },
    {
      "icao": "EHBK",
      "alert": "OK",
      "vis_m": 9999,
      "fzfg": false,
      "metar_trigger": false,
      "taf_trigger": false,
      "metar": "METAR EHBK 081055Z AUTO 20009KT 9999 OVC012/// 02/01 Q1006 BECMG SCT012",
      "taf": "TAF EHBK 080520Z 0806/0912 20008KT CAVOK"
    },
    {
      "icao": "EHEH",
      "alert": "OK",
      "vis_m": 3100,
      "fzfg": false,
      "metar_trigger": false,
      "taf_trigger": false,
      "metar": "METAR EHEH 081055Z AUTO 20007KT 3100 R21/P3000N BR OVC003 01/00 Q1006 YLO TEMPO 3000 BR SCT003 BKN005",
      "taf": ""
    },
    {
      "icao": "EKBI",
      "alert": "OK",
      "vis_m": 5000,
      "fzfg": false,
      "metar_trigger": false,
      "taf_trigger": false,
      "metar": "METAR EKBI 081120Z AUTO 11006KT 5000 OVC005/// M01/M02 Q1005",
      "taf": "TAF EKBI 080827Z 0809/0909 12008KT 7000 BKN006"
    },
    {
      "icao": "EKCH",
      "alert": "OK",
      "vis_m": 9999,
      "fzfg": false,
      "metar_trigger": false,
      "taf_trigger": false,
      "metar": "METAR EKCH 081120Z AUTO 15017KT 9999 FEW018/// BKN100/// M01/M05 Q1009 NOSIG",
      "taf": "TAF EKCH 080827Z 0809/0909 16015KT 9999 BKN016"
    },
    {
      "icao": "ENAL",
      "alert": "OK",
      "vis_m": 9999,
      "fzfg": false,
      "metar_trigger": false,
      "taf_trigger": false,
      "metar": "METAR ENAL 081050Z 15009KT 9999 FEW024 BKN042 M03/M08 Q1003",
      "taf": "TAF ENAL 080800Z 0809/0818 16008KT 9999 SCT040"
    },
    {
      "icao": "ENBR",
      "alert": "OK",
      "vis_m": 9999,
      "fzfg": false,
      "metar_trigger": false,
      "taf_trigger": false,
      "metar": "METAR ENBR 081050Z 10004KT CAVOK M08/M15 Q1006 NOSIG RMK WIND 1200FT 14006KT",
      "taf": "TAF ENBR 080500Z 0806/0906 07005KT CAVOK"
    },
    {
      "icao": "ENGM",
      "alert": "OK",
      "vis_m": 9999,
      "fzfg": false,
      "metar_trigger": false,
      "taf_trigger": false,
      "metar": "METAR ENGM 081050Z VRB03KT 9999 SCT003 M10/M12 Q1004 NOSIG",
      "taf": "TAF ENGM 080500Z 0806/0906 27003KT 9999 BKN018"
    },
    {
      "icao": "ENHD",
      "alert": "OK",
      "vis_m": 9999,
      "fzfg": false,
      "metar_trigger": false,
      "taf_trigger": false,
      "metar": "METAR ENHD 081050Z 10008KT CAVOK M07/M11 Q1006",
      "taf": "TAF ENHD 080800Z 0809/0818 10008KT CAVOK"
    },
    {
      "icao": "ENTC",
      "alert": "OK",
      "vis_m": 9999,
      "fzfg": false,
      "metar_trigger": false,
      "taf_trigger": false,
      "metar": "METAR ENTC 081050Z 18011KT CAVOK M07/M15 Q1023 NOSIG RMK WIND 2600FT 17040KT",
      "taf": ""
    },
    {
      "icao": "ENTO",
      "alert": "OK",
      "vis_m": 9999,
      "fzfg": false,
      "metar_trigger": false,
      "taf_trigger": false,
      "metar": "METAR ENTO 081050Z 00000KT CAVOK M10/M13 Q1006 NOSIG",
      "taf": "TAF ENTO 080500Z 0806/0906 27003KT CAVOK"
    },
    {
      "icao": "ENVA",
      "alert": "OK",
      "vis_m": 9999,
      "fzfg": false,
      "metar_trigger": false,
      "taf_trigger": false,
      "metar": "METAR ENVA 081050Z 07012KT CAVOK M06/M11 Q1004 NOSIG RMK WIND 670FT 08018KT",
      "taf": "TAF ENVA 080500Z 0806/0906 07012KT 9999 -SN SCT050"
    },
    {
      "icao": "ENZV",
      "alert": "OK",
      "vis_m": 9999,
      "fzfg": false,
      "metar_trigger": false,
      "taf_trigger": false,
      "metar": "METAR ENZV 081050Z 00000KT CAVOK M11/M13 Q1006 NOSIG",
      "taf": "TAF ENZV 080500Z 0806/0906 13005KT CAVOK"
    },
    {
      "icao": "EPGD",
      "alert": "OK",
      "vis_m": 5000,
      "fzfg": false,
      "metar_trigger": false,
      "taf_trigger": false,
      "metar": "METAR EPGD 081100Z 29001KT 5000 BR FEW005 M09/M10 Q1012",
      "taf": ""
    },
    {
      "icao": "EPKK",
      "alert": "OK",
      "vis_m": 3500,
      "fzfg": false,
      "metar_trigger": false,
      "taf_trigger": false,
      "metar": "METAR EPKK 081100Z 30004KT 250V320 3500 -SN BR FEW010 BKN023 M05/M08 Q1008",
      "taf": "TAF EPKK 080830Z 0809/0909 25004KT 5000 -SN BR FEW008 BKN020"
    },
    {
      "icao": "EPKT",
      "alert": "OK",
      "vis_m": 3200,
      "fzfg": false,
      "metar_trigger": false,
      "taf_trigger": false,
      "metar": "METAR EPKT 081100Z 33007KT 3200 -SN BR FEW003 BKN023 M05/M07 Q1008",
      "taf": ""
    },
    {
      "icao": "EPLB",
      "alert": "OK",
      "vis_m": 1400,
      "fzfg": false,
      "metar_trigger": false,
      "taf_trigger": false,
      "metar": "METAR EPLB 081100Z 36011KT 1400 R25/1400N SN BR FEW009 OVC018 M06/M07 Q1006",
      "taf": ""
    },
    {
      "icao": "EPMO",
      "alert": "OK",
      "vis_m": 2500,
      "fzfg": false,
      "metar_trigger": false,
      "taf_trigger": false,
      "metar": "METAR EPMO 081100Z 36003KT 2500 BR NSC M09/M09 Q1010",
      "taf": ""
    },
    {
      "icao": "EPPO",
      "alert": "OK",
      "vis_m": 3400,
      "fzfg": false,
      "metar_trigger": false,
      "taf_trigger": false,
      "metar": "METAR EPPO 081100Z 06004KT 020V100 3400 BR BKN005 M07/M09 Q1012",
      "taf": ""
    },
    {
      "icao": "EPRA",
      "alert": "OK",
      "vis_m": 1300,
      "fzfg": false,
      "metar_trigger": false,
      "taf_trigger": false,
      "metar": "METAR EPRA 081100Z 34008KT 1300 R25/1400N -SN BR OVC018 M07/M09 Q1008",
      "taf": "TAF EPRA 080830Z 0809/0818 35010KT 2500 -SN BR OVC020"
    },
    {
      "icao": "EPRZ",
      "alert": "OK",
      "vis_m": 2700,
      "fzfg": false,
      "metar_trigger": false,
      "taf_trigger": false,
      "metar": "METAR EPRZ 081100Z 32009KT 2700 -SN BR OVC023 M04/M06 Q1005",
      "taf": "TAF EPRZ 080530Z 0806/0906 35008KT 4000 -SN BR FEW009 OVC020"
    },
    {
      "icao": "EPSC",
      "alert": "OK",
      "vis_m": 9999,
      "fzfg": false,
      "metar_trigger": false,
      "taf_trigger": false,
      "metar": "METAR EPSC 081100Z 14011KT CAVOK M06/M09 Q1011",
      "taf": "TAF EPSC 080530Z 0806/0906 13008KT 5000 BR SCT007"
    },
    {
      "icao": "EPSY",
      "alert": "OK",
      "vis_m": 7000,
      "fzfg": false,
      "metar_trigger": false,
      "taf_trigger": false,
      "metar": "METAR EPSY 081100Z 01005KT 7000 FEW045 M09/M10 Q1011",
      "taf": "TAF EPSY 080830Z 0809/0818 02006KT 7000 BKN025"
    },
    {
      "icao": "EPWA",
      "alert": "OK",
      "vis_m": 3400,
      "fzfg": false,
      "metar_trigger": false,
      "taf_trigger": false,
      "metar": "METAR EPWA 081100Z 33007KT 310V020 3400 BR SCT007 M08/M09 Q1010 NOSIG",
      "taf": "TAF EPWA 080830Z 0809/0909 02005KT 3500 BR BKN006"
    },
    {
      "icao": "EPWR",
      "alert": "OK",
      "vis_m": 7000,
      "fzfg": false,
      "metar_trigger": false,
      "taf_trigger": false,
      "metar": "METAR EPWR 081100Z VRB01KT 7000 BKN018 M06/M08 Q1011",
      "taf": "TAF EPWR 080830Z 0809/0909 12003KT 4000 BR BKN020"
    },
    {
      "icao": "ESGG",
      "alert": "OK",
      "vis_m": 9999,
      "fzfg": false,
      "metar_trigger": false,
      "taf_trigger": false,
      "metar": "METAR ESGG 081050Z 15011KT 9999 OVC006 M03/M05 Q1007",
      "taf": "TAF ESGG 080830Z 0809/0909 16012KT 7000 -SN SCT006 BKN015"
    },
    {
      "icao": "ESKN",
      "alert": "OK",
      "vis_m": 9999,
      "fzfg": false,
      "metar_trigger": false,
      "taf_trigger": false,
      "metar": "METAR ESKN 081050Z 17009KT 9999 SCT029 M01/M04 Q1012",
      "taf": "TAF ESKN 080830Z 0809/0909 18012KT 9999 BKN020"
    },
    {
      "icao": "ESMS",
      "alert": "OK",
      "vis_m": 9999,
      "fzfg": false,
      "metar_trigger": false,
      "taf_trigger": false,
      "metar": "METAR ESMS 081050Z 14012KT 9999 BKN019 M02/M06 Q1009",
      "taf": "TAF ESMS 080827Z 0809/0909 16010KT 9999 SCT015"
    },
    {
      "icao": "ESSA",
      "alert": "OK",
      "vis_m": 9999,
      "fzfg": false,
      "metar_trigger": false,
      "taf_trigger": false,
      "metar": "METAR ESSA 081050Z 15013KT 9999 SCT025 BKN040 M00/M03 Q1012 NOSIG",
      "taf": "TAF ESSA 080830Z 0809/0909 15014KT 9999 BKN030"
    },
    {
      "icao": "EYKA",
      "alert": "OK",
      "vis_m": 9999,
      "fzfg": false,
      "metar_trigger": false,
      "taf_trigger": false,
      "metar": "METAR EYKA 081120Z 02005KT 330V060 9999 OVC008 M07/M08 Q1013",
      "taf": "TAF EYKA 081100Z 0812/0912 VRB05KT 7000 OVC005"
    },
    {
      "icao": "EYPA",
      "alert": "OK",
      "vis_m": 9999,
      "fzfg": false,
      "metar_trigger": false,
      "taf_trigger": false,
      "metar": "METAR EYPA 081120Z 08004KT CAVOK M10/M11 Q1015",
      "taf": "TAF EYPA 081100Z 0812/0912 VRB04KT 6000 NSC"
    },
    {
      "icao": "EYVI",
      "alert": "OK",
      "vis_m": 9999,
      "fzfg": false,
      "metar_trigger": false,
      "taf_trigger": false,
      "metar": "METAR EYVI 081120Z 03012KT 9999 OVC008 M08/M09 Q1011 NOSIG",
      "taf": "TAF EYVI 081100Z 0812/0912 03013KT 6000 BKN010"
    },
    {
      "icao": "GCFV",
      "alert": "OK",
      "vis_m": 9999,
      "fzfg": false,
      "metar_trigger": false,
      "taf_trigger": false,
      "metar": "METAR GCFV 081100Z 05014KT 9999 FEW032 SCT038 19/10 Q1032",
      "taf": "TAF GCFV 080800Z 0809/0909 06015KT 9999 FEW035 TX20/0814Z TN15/0906Z"
    },
    {
      "icao": "GCLP",
      "alert": "OK",
      "vis_m": 9999,
      "fzfg": false,
      "metar_trigger": false,
      "taf_trigger": false,
      "metar": "METAR GCLP 081100Z 06013KT 9999 BKN033 18/11 Q1032 NOSIG",
      "taf": "TAF GCLP 080800Z 0809/0909 06017KT 9999 SCT035 TX20/0814Z TN15/0906Z"
    },
    {
      "icao": "GCTS",
      "alert": "OK",
      "vis_m": 9999,
      "fzfg": false,
      "metar_trigger": false,
      "taf_trigger": false,
      "metar": "METAR GCTS 081100Z 07022KT 9999 FEW040 19/10 Q1031 NOSIG",
      "taf": "TAF GCTS 080800Z 0809/0909 07019KT 9999 SCT040 TX23/0814Z TN15/0906Z"
    },
    {
      "icao": "GMAD",
      "alert": "OK",
      "vis_m": 9999,
      "fzfg": false,
      "metar_trigger": false,
      "taf_trigger": false,
      "metar": "METAR GMAD 081100Z 08005KT CAVOK 14/07 Q1031 NOSIG",
      "taf": "TAF GMAD 080500Z 0806/0912 07006KT CAVOK"
    },
    {
      "icao": "GMMN",
      "alert": "OK",
      "vis_m": 9999,
      "fzfg": false,
      "metar_trigger": false,
      "taf_trigger": false,
      "metar": "METAR GMMN 081100Z VRB02KT CAVOK 14/09 Q1033 NOSIG",
      "taf": "TAF GMMN 081100Z 0812/0918 12004KT CAVOK"
    },
    {
      "icao": "GMMX",
      "alert": "OK",
      "vis_m": 9999,
      "fzfg": false,
      "metar_trigger": false,
      "taf_trigger": false,
      "metar": "METAR GMMX 081100Z 08007KT 050V110 CAVOK 12/03 Q1032 NOSIG",
      "taf": "TAF GMMX 080500Z 0806/0912 24004KT 8000 NSC"
    },
    {
      "icao": "HEGN",
      "alert": "OK",
      "vis_m": 9999,
      "fzfg": false,
      "metar_trigger": false,
      "taf_trigger": false,
      "metar": "METAR HEGN 081000Z 00000KT CAVOK 27/07 Q1018 NOSIG",
      "taf": "TAF HEGN 081100Z 0812/0918 05008KT CAVOK"
    },
    {
      "icao": "HEMA",
      "alert": "OK",
      "vis_m": 6000,
      "fzfg": false,
      "metar_trigger": false,
      "taf_trigger": false,
      "metar": "METAR HEMA 081000Z 01009KT 6000 NSC 27/13 Q1017 NOSIG",
      "taf": "TAF HEMA 081100Z 0812/0918 01012KT 6000 NSC"
    },
    {
      "icao": "HESH",
      "alert": "OK",
      "vis_m": 9999,
      "fzfg": false,
      "metar_trigger": false,
      "taf_trigger": false,
      "metar": "METAR HESH 081000Z 03006KT CAVOK 27/13 Q1019 NOSIG",
      "taf": "TAF HESH 081100Z 0812/0918 08010KT CAVOK"
    },
    {
      "icao": "HESX",
      "alert": "OK",
      "vis_m": 9999,
      "fzfg": false,
      "metar_trigger": false,
      "taf_trigger": false,
      "metar": "METAR HESX 081000Z 20010KT CAVOK 23/03 Q1017 NOSIG",
      "taf": "TAF HESX 081100Z 0812/0918 21010KT 9999 SCT025"
    },
    {
      "icao": "LATI",
      "alert": "OK",
      "vis_m": 9999,
      "fzfg": false,
      "metar_trigger": false,
      "taf_trigger": false,
      "metar": "METAR LATI 081120Z 30011KT 9999 FEW023TCU BKN078 08/03 Q1008 RERA NOSIG",
      "taf": "TAF LATI 081100Z 0812/0912 29013KT 9999 -RA FEW030TCU BKN070 TX09/0912Z TN01/0905Z"
    },
    {
      "icao": "LBPD",
      "alert": "OK",
      "vis_m": 9999,
      "fzfg": false,
      "metar_trigger": false,
      "taf_trigger": false,
      "metar": "METAR LBPD 081100Z AUTO 28025KT 9999 BKN084/// 04/M01 Q0999 TEMPO 5000 RA",
      "taf": "TAF LBPD 081100Z 0812/0912 29024G36KT 9999 BKN040"
    },
    {
      "icao": "LBSF",
      "alert": "OK",
      "vis_m": 1700,
      "fzfg": false,
      "metar_trigger": false,
      "taf_trigger": false,
      "metar": "METAR LBSF 081100Z 29023KT 1700 0900W BLSN FEW022 SCT026 M03/M08 Q1003 NOSIG",
      "taf": "TAF LBSF 081100Z 0812/0912 29024G36KT 5000 -SN SCT020 BKN040 OVC060"
    },
    {
      "icao": "LBWN",
      "alert": "OK",
      "vis_m": 7000,
      "fzfg": false,
      "metar_trigger": false,
      "taf_trigger": false,
      "metar": "METAR LBWN 081100Z 27018KT 7000 -RASN SCT014 BKN033 OVC045 01/01 Q0997 TEMPO 27018G28KT 5000 RASN",
      "taf": ""
    },
    {
      "icao": "LCLK",
      "alert": "OK",
      "vis_m": 6000,
      "fzfg": false,
      "metar_trigger": false,
      "taf_trigger": false,
      "metar": "METAR LCLK 081100Z 07010KT 6000 NSC 20/16 Q1015 NOSIG",
      "taf": "TAF LCLK 080530Z 0806/0906 10006KT 9999 FEW025"
    },
    {
      "icao": "LCPH",
      "alert": "OK",
      "vis_m": 9999,
      "fzfg": false,
      "metar_trigger": false,
      "taf_trigger": false,
      "metar": "METAR LCPH 081100Z 15011KT CAVOK 21/08 Q1015 NOSIG",
      "taf": "TAF LCPH 080530Z 0806/0906 07007KT 9999 FEW025"
    },
    {
      "icao": "LEAL",
      "alert": "OK",
      "vis_m": 9999,
      "fzfg": false,
      "metar_trigger": false,
      "taf_trigger": false,
      "metar": "METAR LEAL 081100Z 26015KT 230V290 CAVOK 15/03 Q1028 WS R28 NOSIG",
      "taf": ""
    },
    {
      "icao": "LEBB",
      "alert": "OK",
      "vis_m": 9999,
      "fzfg": false,
      "metar_trigger": false,
      "taf_trigger": false,
      "metar": "METAR LEBB 081100Z 24003KT 150V300 9999 FEW050 13/05 Q1023 NOSIG",
      "taf": "TAF LEBB 080500Z 0806/0906 22009KT 9999 FEW030 SCT050 TX14/0814Z TN07/0906Z"
    },
    {
      "icao": "LEBL",
      "alert": "OK",
      "vis_m": 9999,
      "fzfg": false,
      "metar_trigger": false,
      "taf_trigger": false,
      "metar": "METAR LEBL 081100Z 32009KT 280V340 9999 FEW020 12/06 Q1020 NOSIG",
      "taf": "TAF LEBL 080500Z 0806/0906 33009KT 9999 FEW015 TX15/0813Z TN04/0806Z"
    },
    {
      "icao": "LECH",
      "alert": "OK",
      "vis_m": 9999,
      "fzfg": false,
      "metar_trigger": false,
      "taf_trigger": false,
      "metar": "METAR LECH 081100Z AUTO 26007KT 230V290 CAVOK 15/04 Q1024",
      "taf": ""
    },
    {
      "icao": "LEMD",
      "alert": "OK",
      "vis_m": 4000,
      "fzfg": false,
      "metar_trigger": false,
      "taf_trigger": false,
      "metar": "METAR LEMD 081100Z VRB02KT 4000 BR BKN002 OVC006 02/02 Q1030 NOSIG",
      "taf": "TAF LEMD 080500Z 0806/0912 VRB03KT 4000 BR BKN004 TX10/0912Z TNM00/0806Z"
    },
    {
      "icao": "LEMG",
      "alert": "OK",
      "vis_m": 9999,
      "fzfg": false,
      "metar_trigger": false,
      "taf_trigger": false,
      "metar": "METAR LEMG 081100Z 28011KT CAVOK 13/06 Q1032 NOSIG",
      "taf": "TAF LEMG 080500Z 0806/0906 29012KT 9999 FEW035 TX16/0814Z TN06/0806Z"
    },
    {
      "icao": "LEVC",
      "alert": "OK",
      "vis_m": 9999,
      "fzfg": false,
      "metar_trigger": false,
      "taf_trigger": false,
      "metar": "METAR LEVC 081100Z 25019KT CAVOK 11/03 Q1026 NOSIG",
      "taf": "TAF LEVC 080500Z 0806/0906 25012KT CAVOK TX15/0814Z TN06/0806Z"
    },
    {
      "icao": "LEXJ",
      "alert": "OK",
      "vis_m": 9999,
      "fzfg": false,
      "metar_trigger": false,
      "taf_trigger": false,
      "metar": "METAR LEXJ 081100Z 24009KT 200V270 CAVOK 13/04 Q1022",
      "taf": "TAF LEXJ 080800Z 0809/0909 24009KT 9999 FEW030 SCT060 TX15/0813Z TN10/0906Z"
    },
    {
      "icao": "LEZG",
      "alert": "OK",
      "vis_m": 9999,
      "fzfg": false,
      "metar_trigger": false,
      "taf_trigger": false,
      "metar": "METAR LEZG 081100Z 24013KT 220V280 CAVOK 12/04 Q1025 NOSIG",
      "taf": "TAF LEZG 080500Z 0806/0906 VRB04KT CAVOK TX12/0815Z TN05/0806Z"
    },
    {
      "icao": "LEZL",
      "alert": "OK",
      "vis_m": 9999,
      "fzfg": false,
      "metar_trigger": false,
      "taf_trigger": false,
      "metar": "METAR LEZL 081100Z VRB02KT 9999 OVC025 09/07 Q1034 NOSIG",
      "taf": "TAF LEZL 080800Z 0809/0909 02004KT 9999 SCT020 TX14/0815Z TN09/0907Z"
    },
    {
      "icao": "LFBD",
      "alert": "OK",
      "vis_m": 3800,
      "fzfg": false,
      "metar_trigger": false,
      "taf_trigger": false,
      "metar": "METAR LFBD 081100Z AUTO 26012KT 3800 -RA BR SCT007 BKN011 BKN018 12/11 Q1018 TEMPO 27015G25KT BKN008 OVC025",
      "taf": "TAF LFBD 081100Z 0812/0918 26010KT 9999 BKN025 TX13/0814Z TN08/0906Z"
    },
    {
      "icao": "LFLL",
      "alert": "OK",
      "vis_m": 2500,
      "fzfg": false,
      "metar_trigger": false,
      "taf_trigger": false,
      "metar": "METAR LFLL 081100Z 10003KT 050V140 2500 -RA BR BKN008 OVC026 02/01 Q1015 TEMPO 2000 RA OVC006",
      "taf": "TAF LFLL 081100Z 0812/0918 17008KT 9999 BKN030"
    },
    {
      "icao": "LFLS",
      "alert": "OK",
      "vis_m": 7000,
      "fzfg": false,
      "metar_trigger": false,
      "taf_trigger": false,
      "metar": "METAR LFLS 081100Z AUTO 08009KT 7000 -RA BKN011/// BKN032/// BKN040/// ///TCU 01/00 Q1015",
      "taf": "TAF LFLS 080200Z 0803/0903 08005KT 9999 OVC050"
    },
    {
      "icao": "LFMN",
      "alert": "OK",
      "vis_m": 9999,
      "fzfg": false,
      "metar_trigger": false,
      "taf_trigger": false,
      "metar": "METAR LFMN 081100Z 33007KT CAVOK 09/M05 Q1012 NOSIG",
      "taf": "TAF LFMN 080800Z 0809/0915 32010KT CAVOK"
    },
    {
      "icao": "LFOB",
      "alert": "OK",
      "vis_m": 9999,
      "fzfg": false,
      "metar_trigger": false,
      "taf_trigger": false,
      "metar": "METAR LFOB 081100Z AUTO 23009KT 9999 BKN028 OVC038 06/06 Q1006 BECMG BKN013",
      "taf": "TAF LFOB 081100Z 0812/0912 22012KT 9999 BKN025"
    },
    {
      "icao": "LFPO",
      "alert": "OK",
      "vis_m": 9999,
      "fzfg": false,
      "metar_trigger": false,
      "taf_trigger": false,
      "metar": "METAR LFPO 081100Z 23006KT 200V260 9999 FEW043 BKN093 BKN140 06/05 Q1008 NOSIG",
      "taf": ""
    },
    {
      "icao": "LFSB",
      "alert": "OK",
      "vis_m": 3700,
      "fzfg": false,
      "metar_trigger": false,
      "taf_trigger": false,
      "metar": "METAR LFSB 081100Z AUTO 14005KT 120V180 3700 -DZ BR BKN015 OVC020 01/00 Q1010 TEMPO BKN008",
      "taf": "TAF LFSB 080500Z 0806/0906 VRB03KT 7000 FEW010 BKN020"
    },
    {
      "icao": "LGAV",
      "alert": "OK",
      "vis_m": null,
      "fzfg": false,
      "metar_trigger": false,
      "taf_trigger": false,
      "metar": "",
      "taf": "TAF LGAV 081100Z 0812/0912 26012KT 9999 FEW020 SCT030"
    },
    {
      "icao": "LGTS",
      "alert": "OK",
      "vis_m": 9999,
      "fzfg": false,
      "metar_trigger": false,
      "taf_trigger": false,
      "metar": "METAR LGTS 081050Z 31017KT 9999 FEW020 SCT030 10/04 Q1002 NOSIG",
      "taf": "TAF LGTS 081100Z 0812/0912 31015KT 9999 SCT025"
    },
    {
      "icao": "LHBP",
      "alert": "OK",
      "vis_m": 9999,
      "fzfg": false,
      "metar_trigger": false,
      "taf_trigger": false,
      "metar": "METAR LHBP 081100Z 31015G25KT 9999 DRSN FEW020 M04/M08 Q1007 NOSIG",
      "taf": "TAF LHBP 080515Z 0806/0906 30013KT CAVOK"
    },
    {
      "icao": "LHDC",
      "alert": "OK",
      "vis_m": 7000,
      "fzfg": false,
      "metar_trigger": false,
      "taf_trigger": false,
      "metar": "METAR LHDC 081045Z AUTO 26004KT 7000 OVC032 M05/M07 Q1006 NOSIG",
      "taf": "TAF LHDC 080815Z 0809/0818 28008KT CAVOK"
    },
    {
      "icao": "LIBD",
      "alert": "OK",
      "vis_m": 9999,
      "fzfg": false,
      "metar_trigger": false,
      "taf_trigger": false,
      "metar": "METAR LIBD 081050Z 28012G22KT 250V310 9999 SCT040 06/M01 Q1012",
      "taf": "TAF LIBD 081100Z 0812/0912 28020G30KT 9999 SCT010 SCT030"
    },
    {
      "icao": "LIBG",
      "alert": "OK",
      "vis_m": 9999,
      "fzfg": false,
      "metar_trigger": false,
      "taf_trigger": false,
      "metar": "METAR LIBG 081050Z 26009KT 230V310 CAVOK 08/M01 Q1012",
      "taf": "TAF LIBG 081100Z 0812/0821 32015KT 9999 SCT025"
    },
    {
      "icao": "LIBP",
      "alert": "OK",
      "vis_m": 9999,
      "fzfg": false,
      "metar_trigger": false,
      "taf_trigger": false,
      "metar": "METAR LIBP 081050Z AUTO 31004KT 230V010 9999 NCD 08/M08 Q1015",
      "taf": "TAF LIBP 081100Z 0812/0912 23006KT 9999 SCT030"
    },
    {
      "icao": "LIBR",
      "alert": "OK",
      "vis_m": 9999,
      "fzfg": false,
      "metar_trigger": false,
      "taf_trigger": false,
      "metar": "METAR LIBR 081050Z 30019KT CAVOK 08/M01 Q1011",
      "taf": "TAF LIBR 081100Z 0812/0912 31022G33KT 9999 SCT030"
    },
    {
      "icao": "LICA",
      "alert": "OK",
      "vis_m": 9999,
      "fzfg": false,
      "metar_trigger": false,
      "taf_trigger": false,
      "metar": "METAR LICA 081050Z AUTO 28020KT 9999 -RA BKN034/// 12/06 Q1013",
      "taf": "TAF LICA 081100Z 0812/0912 29015KT 9999 SCT030"
    },
    {
      "icao": "LICC",
      "alert": "OK",
      "vis_m": 9999,
      "fzfg": false,
      "metar_trigger": false,
      "taf_trigger": false,
      "metar": "METAR LICC 081050Z 26018KT 9999 FEW030 SCT050 15/11 Q1015",
      "taf": "TAF LICC 081100Z 0812/0912 27016KT 9999 SCT050"
    },
    {
      "icao": "LICJ",
      "alert": "OK",
      "vis_m": 9999,
      "fzfg": false,
      "metar_trigger": false,
      "taf_trigger": false,
      "metar": "METAR LICJ 081050Z 29028KT 9999 VCSH SCT040 SCT060 14/07 Q1018",
      "taf": "TAF LICJ 081100Z 0812/0912 29025G35KT 9999 SCT040"
    },
    {
      "icao": "LIMC",
      "alert": "OK",
      "vis_m": 9999,
      "fzfg": false,
      "metar_trigger": false,
      "taf_trigger": false,
      "metar": "METAR LIMC 081050Z 05003KT 010V090 9999 SCT090 02/M03 Q1013 NOSIG",
      "taf": "TAF LIMC 081100Z 0812/0918 VRB04KT 9999 BKN050"
    },
    {
      "icao": "LIME",
      "alert": "OK",
      "vis_m": 9999,
      "fzfg": false,
      "metar_trigger": false,
      "taf_trigger": false,
      "metar": "METAR LIME 081050Z VRB01KT CAVOK 02/M08 Q1013 NOSIG",
      "taf": "TAF LIME 081100Z 0812/0912 VRB04KT 9999 SCT050"
    },
    {
      "icao": "LIMF",
      "alert": "OK",
      "vis_m": 9000,
      "fzfg": false,
      "metar_trigger": false,
      "taf_trigger": false,
      "metar": "METAR LIMF 081050Z VRB01KT 9000 NSC 04/M10 Q1012",
      "taf": "TAF LIMF 081100Z 0812/0912 VRB03KT 9999 BKN003"
    },
    {
      "icao": "LIMJ",
      "alert": "OK",
      "vis_m": 9999,
      "fzfg": false,
      "metar_trigger": false,
      "taf_trigger": false,
      "metar": "METAR LIMJ 081050Z 10005KT 060V130 9999 FEW025 SCT030 09/02 Q1013",
      "taf": "TAF LIMJ 081100Z 0812/0912 14010KT 9999 BKN020"
    },
    {
      "icao": "LIPE",
      "alert": "OK",
      "vis_m": 9999,
      "fzfg": false,
      "metar_trigger": false,
      "taf_trigger": false,
      "metar": "METAR LIPE 081050Z 27003KT 240V360 CAVOK 01/M07 Q1014",
      "taf": "TAF LIPE 081100Z 0812/0912 VRB05KT 9999 FEW030"
    },
    {
      "icao": "LIPH",
      "alert": "OK",
      "vis_m": 9999,
      "fzfg": false,
      "metar_trigger": false,
      "taf_trigger": false,
      "metar": "METAR LIPH 081050Z VRB02KT CAVOK 02/M06 Q1014",
      "taf": "TAF LIPH 081100Z 0812/0912 VRB05KT CAVOK"
    },
    {
      "icao": "LIPQ",
      "alert": "OK",
      "vis_m": 9999,
      "fzfg": false,
      "metar_trigger": false,
      "taf_trigger": false,
      "metar": "METAR LIPQ 081050Z AUTO VRB02KT 9999 NCD 03/M06 Q1014",
      "taf": "TAF LIPQ 081100Z 0812/0912 VRB05KT 9999 SCT070"
    },
    {
      "icao": "LIPR",
      "alert": "OK",
      "vis_m": 9999,
      "fzfg": false,
      "metar_trigger": false,
      "taf_trigger": false,
      "metar": "METAR LIPR 081050Z VRB02KT CAVOK 03/M05 Q1015",
      "taf": "TAF LIPR 081100Z 0812/0912 VRB06KT 9999 SCT030"
    },
    {
      "icao": "LIPX",
      "alert": "OK",
      "vis_m": 8000,
      "fzfg": false,
      "metar_trigger": false,
      "taf_trigger": false,
      "metar": "METAR LIPX 081050Z VRB02KT 8000 NSC M02/M03 Q1014",
      "taf": "TAF LIPX 081100Z 0812/0912 VRB05KT 9999 SCT040"
    },
    {
      "icao": "LIPY",
      "alert": "OK",
      "vis_m": 9999,
      "fzfg": false,
      "metar_trigger": false,
      "taf_trigger": false,
      "metar": "METAR LIPY 081050Z AUTO 26006KT 9999 NCD 06/M05 Q1014",
      "taf": "TAF LIPY 081100Z 0812/0912 23006KT 9999 SCT030"
    },
    {
      "icao": "LIPZ",
      "alert": "OK",
      "vis_m": 9999,
      "fzfg": false,
      "metar_trigger": false,
      "taf_trigger": false,
      "metar": "METAR LIPZ 081050Z VRB02KT CAVOK 02/M06 Q1014 NOSIG",
      "taf": "TAF LIPZ 081100Z 0812/0918 VRB05KT CAVOK"
    },
    {
      "icao": "LIRF",
      "alert": "OK",
      "vis_m": 9999,
      "fzfg": false,
      "metar_trigger": false,
      "taf_trigger": false,
      "metar": "METAR LIRF 081050Z 04005KT 9999 FEW055 05/M03 Q1016 NOSIG",
      "taf": "TAF LIRF 081100Z 0812/0918 08006KT 9999 SCT045"
    },
    {
      "icao": "LIRN",
      "alert": "OK",
      "vis_m": 9999,
      "fzfg": false,
      "metar_trigger": false,
      "taf_trigger": false,
      "metar": "METAR LIRN 081050Z 04004KT 340V090 CAVOK 07/M00 Q1015 NOSIG",
      "taf": "TAF LIRN 081100Z 0812/0912 VRB05KT 9999 SCT040"
    },
    {
      "icao": "LIRP",
      "alert": "OK",
      "vis_m": 9999,
      "fzfg": false,
      "metar_trigger": false,
      "taf_trigger": false,
      "metar": "METAR LIRP 081045Z 12012KT 9999 FEW030 03/M04 Q1015 NOSIG",
      "taf": "TAF LIRP 081100Z 0812/0912 11010KT 9999 FEW030"
    },
    {
      "icao": "LIRZ",
      "alert": "OK",
      "vis_m": 9999,
      "fzfg": false,
      "metar_trigger": false,
      "taf_trigger": false,
      "metar": "METAR LIRZ 081050Z AUTO VRB02KT 9999 BKN036/// M00/M04 Q1016",
      "taf": "TAF LIRZ 081100Z 0812/0912 VRB05KT 9999 BKN040"
    },
    {
      "icao": "LJLJ",
      "alert": "OK",
      "vis_m": 9999,
      "fzfg": false,
      "metar_trigger": false,
      "taf_trigger": false,
      "metar": "METAR LJLJ 081100Z 32002KT 9999 FEW002 M08/M10 Q1012 NOSIG",
      "taf": "TAF LJLJ 081100Z 0812/0912 VRB02KT 9999 FEW020"
    },
    {
      "icao": "LKMT",
      "alert": "OK",
      "vis_m": 8000,
      "fzfg": false,
      "metar_trigger": false,
      "taf_trigger": false,
      "metar": "METAR LKMT 081100Z 02005KT 8000 OVC014 M05/M08 Q1010 NOSIG",
      "taf": "TAF LKMT 081100Z 0812/0912 01005KT 9999 OVC014"
    },
    {
      "icao": "LKPR",
      "alert": "OK",
      "vis_m": 9999,
      "fzfg": false,
      "metar_trigger": false,
      "taf_trigger": false,
      "metar": "METAR LKPR 081100Z 23008KT 9999 -SN FEW013 OVC028 M04/M07 Q1009 NOSIG",
      "taf": "TAF LKPR 081100Z 0812/0918 20006KT 9999 OVC025"
    },
    {
      "icao": "LLBG",
      "alert": "OK",
      "vis_m": 9999,
      "fzfg": false,
      "metar_trigger": false,
      "taf_trigger": false,
      "metar": "METAR LLBG 081120Z 19014KT CAVOK 28/04 Q1015 NOSIG",
      "taf": "TAF LLBG 081120Z 0812/0912 23010KT CAVOK"
    },
    {
      "icao": "LMML",
      "alert": "OK",
      "vis_m": 9999,
      "fzfg": false,
      "metar_trigger": false,
      "taf_trigger": false,
      "metar": "METAR LMML 081115Z 26022G36KT 9999 SCT028TCU 13/08 Q1020 TEMPO 7000 SHRA",
      "taf": "TAF LMML 081100Z 0812/0912 28028G38KT 9999 SCT025"
    },
    {
      "icao": "LOWW",
      "alert": "OK",
      "vis_m": 9999,
      "fzfg": false,
      "metar_trigger": false,
      "taf_trigger": false,
      "metar": "METAR LOWW 081050Z 36005KT 300V030 9999 FEW040 M02/M09 Q1011 NOSIG",
      "taf": "TAF LOWW 081115Z 0812/0918 35010KT CAVOK TXM02/0813Z TNM06/0909Z"
    },
    {
      "icao": "LPFR",
      "alert": "OK",
      "vis_m": 9999,
      "fzfg": false,
      "metar_trigger": false,
      "taf_trigger": false,
      "metar": "METAR LPFR 081100Z 00000KT 9999 FEW020 13/08 Q1034",
      "taf": "TAF LPFR 081100Z 0812/0912 VRB02KT 9999 FEW020"
    },
    {
      "icao": "LPMA",
      "alert": "OK",
      "vis_m": 9999,
      "fzfg": false,
      "metar_trigger": false,
      "taf_trigger": false,
      "metar": "METAR LPMA 081100Z 36010KT 320V030 9999 FEW015 17/12 Q1034",
      "taf": "TAF LPMA 081100Z 0812/0912 02013KT 9999 SCT015"
    },
    {
      "icao": "LPPR",
      "alert": "OK",
      "vis_m": 3000,
      "fzfg": false,
      "metar_trigger": false,
      "taf_trigger": false,
      "metar": "METAR LPPR 081100Z 18014KT 3000 DZRA BR BKN004 11/10 Q1030",
      "taf": "TAF LPPR 081100Z 0812/0912 18015KT 9999 SCT004 BKN018"
    },
    {
      "icao": "LPPS",
      "alert": "OK",
      "vis_m": 9999,
      "fzfg": false,
      "metar_trigger": false,
      "taf_trigger": false,
      "metar": "METAR LPPS 081100Z 02007KT 9999 SCT014 17/13 Q1035",
      "taf": "TAF LPPS 081100Z 0812/0918 03010KT 9999 SCT015"
    },
    {
      "icao": "LPPT",
      "alert": "OK",
      "vis_m": 9999,
      "fzfg": false,
      "metar_trigger": false,
      "taf_trigger": false,
      "metar": "METAR LPPT 081100Z COR 22005KT 180V250 9999 VCSH FEW012 BKN025 12/10 Q1033",
      "taf": "TAF LPPT 081100Z 0812/0918 25005KT 9999 SCT015 BKN025"
    },
    {
      "icao": "LQBK",
      "alert": "OK",
      "vis_m": 9999,
      "fzfg": false,
      "metar_trigger": false,
      "taf_trigger": false,
      "metar": "METAR LQBK 081100Z 18004KT 100V240 CAVOK M02/M07 Q1013 NOSIG",
      "taf": "TAF LQBK 081100Z 0812/0912 16005KT CAVOK TXM01/0813Z TNM09/0903Z"
    },
    {
      "icao": "LQSA",
      "alert": "OK",
      "vis_m": 9999,
      "fzfg": false,
      "metar_trigger": false,
      "taf_trigger": false,
      "metar": "METAR LQSA 081100Z 29005KT 9999 SCT045 M04/M09 Q1011 NOSIG",
      "taf": "TAF LQSA 081100Z 0812/0912 VRB02KT 9999 SCT050 TX01/0912Z TNM10/0901Z"
    },
    {
      "icao": "LQTZ",
      "alert": "OK",
      "vis_m": 9999,
      "fzfg": false,
      "metar_trigger": false,
      "taf_trigger": false,
      "metar": "METAR LQTZ 081100Z 30005KT 9999 FEW035 M03/M06 Q1012",
      "taf": "TAF LQTZ 081100Z 0812/0912 23005KT CAVOK TX00/0912Z TNM10/0905Z"
    },
    {
      "icao": "LRBC",
      "alert": "OK",
      "vis_m": 9999,
      "fzfg": false,
      "metar_trigger": false,
      "taf_trigger": false,
      "metar": "METAR LRBC 081100Z 35012KT 9999 -SN OVC033 M01/M05 Q0997",
      "taf": ""
    },
    {
      "icao": "LRBS",
      "alert": "OK",
      "vis_m": 3000,
      "fzfg": false,
      "metar_trigger": false,
      "taf_trigger": false,
      "metar": "METAR LRBS 081100Z 25013KT 3000 -SG BR OVC006 M00/M01 Q0997 BECMG 5000",
      "taf": "TAF LRBS 080500Z 0806/0906 VRB04KT 7000 -RA BKN005 OVC015"
    },
    {
      "icao": "LRBV",
      "alert": "OK",
      "vis_m": 4000,
      "fzfg": false,
      "metar_trigger": false,
      "taf_trigger": false,
      "metar": "METAR LRBV 081100Z 29008KT 260V320 4000 -SN BR BKN006 OVC012 M04/M06 Q1000",
      "taf": "TAF LRBV 080800Z 0809/0818 30014KT 3000 -SN BR BKN010 BKN030"
    },
    {
      "icao": "LRCL",
      "alert": "OK",
      "vis_m": 9999,
      "fzfg": false,
      "metar_trigger": false,
      "taf_trigger": false,
      "metar": "METAR LRCL 081100Z 31011KT 9999 BKN056 M02/M06 Q1002",
      "taf": "TAF LRCL 080800Z 0809/0818 29010KT 9999 SCT035 BKN050"
    },
    {
      "icao": "LRCV",
      "alert": "OK",
      "vis_m": 9999,
      "fzfg": false,
      "metar_trigger": false,
      "taf_trigger": false,
      "metar": "METAR LRCV 081100Z 29024KT CAVOK M01/M04 Q0999",
      "taf": "TAF LRCV 080800Z 0809/0818 27018KT 9999 BKN025"
    },
    {
      "icao": "LRIA",
      "alert": "OK",
      "vis_m": 9999,
      "fzfg": false,
      "metar_trigger": false,
      "taf_trigger": false,
      "metar": "METAR LRIA 081100Z 30012KT 260V320 9999 BKN007 OVC032 M02/M02 Q0996",
      "taf": "TAF LRIA 080800Z 0809/0818 31010KT 8000 -SN OVC005"
    },
    {
      "icao": "LROP",
      "alert": "OK",
      "vis_m": 2000,
      "fzfg": false,
      "metar_trigger": false,
      "taf_trigger": false,
      "metar": "METAR LROP 081100Z 24011KT 2000 -SN BR OVC005 00/00 Q0997 BECMG 5000",
      "taf": "TAF LROP 080500Z 0806/0906 VRB04KT 7000 -RA BKN005 OVC015"
    },
    {
      "icao": "LRSB",
      "alert": "OK",
      "vis_m": 9999,
      "fzfg": false,
      "metar_trigger": false,
      "taf_trigger": false,
      "metar": "METAR LRSB 081100Z 32014KT 9999 -SN BKN036 M03/M06 Q1000",
      "taf": "TAF LRSB 080500Z 0806/0906 33014KT 9999 SCT035"
    },
    {
      "icao": "LRSM",
      "alert": "OK",
      "vis_m": 6000,
      "fzfg": false,
      "metar_trigger": false,
      "taf_trigger": false,
      "metar": "METAR LRSM 081100Z 27014KT 6000 OVC013 M04/M06 Q1003",
      "taf": "TAF LRSM 080800Z 0809/0818 26010KT 5000 BR SCT010 BKN025"
    },
    {
      "icao": "LRSV",
      "alert": "OK",
      "vis_m": 9999,
      "fzfg": false,
      "metar_trigger": false,
      "taf_trigger": false,
      "metar": "METAR LRSV 081100Z 32015KT 9999 DRSN FEW014 BKN040 M04/M07 Q0996",
      "taf": "TAF LRSV 080800Z 0809/0818 32016KT 9999 DRSN SCT030"
    },
    {
      "icao": "LRTM",
      "alert": "OK",
      "vis_m": 8000,
      "fzfg": false,
      "metar_trigger": false,
      "taf_trigger": false,
      "metar": "METAR LRTM 081100Z 25004KT 8000 -SN BKN017 OVC026 M03/M06 Q1002",
      "taf": "TAF LRTM 080800Z 0809/0818 30008KT 9999 SCT020 BKN040"
    },
    {
      "icao": "LRTR",
      "alert": "OK",
      "vis_m": 7000,
      "fzfg": false,
      "metar_trigger": false,
      "taf_trigger": false,
      "metar": "METAR LRTR 081100Z 28011KT 7000 FEW018 M05/M06 Q1008 NOSIG",
      "taf": "TAF LRTR 080500Z 0806/0906 30010KT 3000 -SN BR BKN015 OVC030"
    },
    {
      "icao": "LTAC",
      "alert": "OK",
      "vis_m": 6000,
      "fzfg": false,
      "metar_trigger": false,
      "taf_trigger": false,
      "metar": "METAR LTAC 081050Z 06007KT 020V090 6000 BKN030 BKN080 07/05 Q1008 NOSIG RMK RWY21C 04005KT RWY03L 05007KT RWY21R 03006KT RWY03R 04007KT RWY21L 04007KT",
      "taf": "TAF LTAC 081040Z 0812/0912 25012KT 6000 BKN030 BKN080"
    },
    {
      "icao": "LTFM",
      "alert": "OK",
      "vis_m": 9999,
      "fzfg": false,
      "metar_trigger": false,
      "taf_trigger": false,
      "metar": "METAR LTFM 081050Z 20019KT 9999 FEW020TCU BKN028 BKN080 12/09 Q0997 RESHRA NOSIG RMK RWY17L 21019KT RWY34L 20016KT RWY16R 20017KT RWY36 20019KT RWY18 21021KT",
      "taf": "TAF LTFM 081040Z 0812/0918 22022G32KT 9999 -SHRA BKN030 BKN080"
    },
    {
      "icao": "LUKK",
      "alert": "OK",
      "vis_m": 9999,
      "fzfg": false,
      "metar_trigger": false,
      "taf_trigger": false,
      "metar": "METAR LUKK 081100Z 33011KT 9999 -RA OVC008 01/M01 Q0993 TEMPO 33016G26KT",
      "taf": "TAF LUKK 080519Z 0806/0906 30010KT 3000 -RA BR OVC002"
    },
    {
      "icao": "LWOH",
      "alert": "OK",
      "vis_m": 9999,
      "fzfg": false,
      "metar_trigger": false,
      "taf_trigger": false,
      "metar": "METAR LWOH 081120Z 21008KT 130V280 9999 FEW016 BKN035 06/M01 Q1004",
      "taf": "TAF LWOH 081120Z 0812/0912 23012KT 9999 SCT015 BKN035"
    },
    {
      "icao": "LWSK",
      "alert": "OK",
      "vis_m": 9999,
      "fzfg": false,
      "metar_trigger": false,
      "taf_trigger": false,
      "metar": "METAR LWSK 081120Z 01011KT 330V050 9999 FEW015 BKN026 BKN050 01/M04 Q1007 NOSIG",
      "taf": "TAF LWSK 081120Z 0812/0912 36012KT 9999 FEW020 BKN030 BKN050"
    },
    {
      "icao": "LYBE",
      "alert": "OK",
      "vis_m": 9999,
      "fzfg": false,
      "metar_trigger": false,
      "taf_trigger": false,
      "metar": "METAR LYBE 081100Z 28016KT CAVOK M05/M08 Q1011 NOSIG",
      "taf": "TAF LYBE 081100Z 0812/0912 28014KT CAVOK TXM02/0912Z TNM12/0904Z"
    },
    {
      "icao": "LYNI",
      "alert": "OK",
      "vis_m": 9999,
      "fzfg": false,
      "metar_trigger": false,
      "taf_trigger": false,
      "metar": "METAR LYNI 081100Z 30010KT 9999 -SN SCT010 BKN027 OVC073 M02/M05 Q1009 NOSIG",
      "taf": "TAF LYNI 081100Z 0812/0912 30010KT 9999 BKN030 TXM02/0912Z TNM10/0905Z"
    },
    {
      "icao": "LYPG",
      "alert": "OK",
      "vis_m": 9999,
      "fzfg": false,
      "metar_trigger": false,
      "taf_trigger": false,
      "metar": "METAR LYPG 081100Z 36015KT 9999 FEW033 BKN050 06/M05 Q1007 NOSIG",
      "taf": "TAF LYPG 081100Z 0812/0912 36008KT 9999 FEW033 SCT040 TX06/0812Z TNM02/0905Z"
    },
    {
      "icao": "LZIB",
      "alert": "OK",
      "vis_m": 9999,
      "fzfg": false,
      "metar_trigger": false,
      "taf_trigger": false,
      "metar": "METAR LZIB 081100Z 30017KT CAVOK M03/M10 Q1010 NOSIG",
      "taf": "TAF LZIB 081115Z 0812/0912 32012KT CAVOK"
    },
    {
      "icao": "LZKZ",
      "alert": "OK",
      "vis_m": 9999,
      "fzfg": false,
      "metar_trigger": false,
      "taf_trigger": false,
      "metar": "METAR LZKZ 081100Z 35009KT CAVOK M02/M10 Q1004 NOSIG",
      "taf": "TAF LZKZ 081115Z 0812/0912 36017KT 9999 FEW035"
    },
    {
      "icao": "LZTT",
      "alert": "OK",
      "vis_m": 9999,
      "fzfg": false,
      "metar_trigger": false,
      "taf_trigger": false,
      "metar": "METAR LZTT 081100Z 27015KT 9999 FEW026 BKN083 M06/M10 Q1002 NOSIG",
      "taf": "TAF LZTT 081115Z 0812/0912 27010KT 9999 FEW035"
    },
    {
      "icao": "OEJN",
      "alert": "OK",
      "vis_m": 8000,
      "fzfg": false,
      "metar_trigger": false,
      "taf_trigger": false,
      "metar": "METAR OEJN 081100Z 24008KT 8000 NSC 30/15 Q1016 NOSIG",
      "taf": "TAF OEJN 081100Z 0812/0918 24010KT 7000 FEW040"
    },
    {
      "icao": "OEMA",
      "alert": "OK",
      "vis_m": 9999,
      "fzfg": false,
      "metar_trigger": false,
      "taf_trigger": false,
      "metar": "METAR OEMA 081100Z 08011KT CAVOK 26/00 Q1022 NOSIG",
      "taf": "TAF OEMA 081100Z 0812/0918 09010KT CAVOK"
    },
    {
      "icao": "OJAI",
      "alert": "OK",
      "vis_m": 5000,
      "fzfg": false,
      "metar_trigger": false,
      "taf_trigger": false,
      "metar": "METAR OJAI 081100Z 12014KT 5000 HZ NSC 21/04 Q1021 NOSIG",
      "taf": "TAF OJAI 081100Z 0812/0918 13008KT 5000 HZ NSC"
    },
    {
      "icao": "OMAA",
      "alert": "OK",
      "vis_m": 9999,
      "fzfg": false,
      "metar_trigger": false,
      "taf_trigger": false,
      "metar": "METAR OMAA 081100Z 32010KT 300V360 9999 FEW045 24/10 Q1019 NOSIG",
      "taf": "TAF OMAA 081100Z 0812/0918 34011KT 8000 NSC"
    },
    {
      "icao": "OMDB",
      "alert": "OK",
      "vis_m": 9999,
      "fzfg": false,
      "metar_trigger": false,
      "taf_trigger": false,
      "metar": "METAR OMDB 081100Z 33010KT 300V360 CAVOK 24/07 Q1019 NOSIG",
      "taf": "TAF OMDB 081100Z 0812/0918 33010KT CAVOK"
    },
    {
      "icao": "UAAA",
      "alert": "OK",
      "vis_m": 3300,
      "fzfg": false,
      "metar_trigger": false,
      "taf_trigger": false,
      "metar": "METAR UAAA 081100Z 01002MPS 310V110 3300 BR BKN010 OVC033 M04/M05 Q1031 NOSIG",
      "taf": "TAF UAAA 081102Z 0812/0912 33003MPS 1500 BR FU BKN011 OVC100 TXM01/0909Z TNM08/0901Z"
    },
    {
      "icao": "UBBB",
      "alert": "OK",
      "vis_m": 4000,
      "fzfg": false,
      "metar_trigger": false,
      "taf_trigger": false,
      "metar": "METAR UBBB 081100Z 15010KT 4000 BR BKN007 08/07 Q1016 NOSIG",
      "taf": "TAF UBBB 081057Z 0812/0912 16010KT 3000 BR BKN005 TX08/0812Z TN04/0903Z"
    },
    {
      "icao": "UDSG",
      "alert": "OK",
      "vis_m": 6000,
      "fzfg": false,
      "metar_trigger": false,
      "taf_trigger": false,
      "metar": "METAR UDSG 081100Z 13003KT 6000 FEW049 M03/M09 Q1022 NOSIG",
      "taf": "TAF UDSG 081100Z 0812/0912 VRB06KT 5000 BR SCT040"
    },
    {
      "icao": "UDYZ",
      "alert": "OK",
      "vis_m": 3200,
      "fzfg": false,
      "metar_trigger": false,
      "taf_trigger": false,
      "metar": "METAR UDYZ 081100Z 00000KT 3200 BR NSC 00/M08 Q1024 NOSIG",
      "taf": "TAF UDYZ 081100Z 0812/0912 28006KT 2300 BR FEW040"
    },
    {
      "icao": "UGKO",
      "alert": "OK",
      "vis_m": 9999,
      "fzfg": false,
      "metar_trigger": false,
      "taf_trigger": false,
      "metar": "METAR UGKO 081100Z 10011KT CAVOK 18/03 Q1012 NOSIG",
      "taf": "TAF UGKO 081100Z 0812/0912 09015KT 9999 SCT022 BKN050 TX18/0812Z TN09/0903Z"
    }
  ]
}