{
  "ts_utc": "2026-03-05T14:35:09Z",
  "threshold_m": 150,
  "source": "stations_override.txt (ICAO list) + aviationweather.gov (METAR/TAF raw)",
  "station_count": 159,
  "stations": [
    {
      "icao": "BIKF",
      "alert": "OK",
      "vis_m": 9999,
      "fzfg": false,
      "metar_trigger": false,
      "taf_trigger": false,
      "metar": "METAR BIKF 051430Z 19008KT 9999 SCT010CB BKN034 BKN070 00/M02 Q0995",
      "taf": "TAF BIKF 051332Z 0515/0615 22012KT 9999 -SHSN FEW014CB BKN025 TX04/0612Z TNM02/0521Z"
    },
    {
      "icao": "BKPR",
      "alert": "OK",
      "vis_m": 9999,
      "fzfg": false,
      "metar_trigger": false,
      "taf_trigger": false,
      "metar": "METAR BKPR 051430Z 36004KT 330V040 9999 FEW030CB BKN040 08/05 Q1024 NOSIG",
      "taf": "TAF BKPR 051130Z 0512/0612 35008KT 9999 BKN040"
    },
    {
      "icao": "EBCI",
      "alert": "OK",
      "vis_m": 9999,
      "fzfg": false,
      "metar_trigger": false,
      "taf_trigger": false,
      "metar": "METAR EBCI 051420Z 16006KT 090V210 CAVOK 19/04 Q1017 NOSIG",
      "taf": "TAF EBCI 051115Z 0512/0618 16007KT CAVOK"
    },
    {
      "icao": "EDDB",
      "alert": "OK",
      "vis_m": 9999,
      "fzfg": false,
      "metar_trigger": false,
      "taf_trigger": false,
      "metar": "METAR EDDB 051420Z AUTO 13006KT 100V170 CAVOK 14/M04 Q1025 NOSIG",
      "taf": "TAF EDDB 051100Z 0512/0612 11005KT CAVOK"
    },
    {
      "icao": "EDDH",
      "alert": "OK",
      "vis_m": 9999,
      "fzfg": false,
      "metar_trigger": false,
      "taf_trigger": false,
      "metar": "METAR EDDH 051420Z AUTO 14008KT 100V170 CAVOK 16/06 Q1023 NOSIG",
      "taf": "TAF EDDH 051100Z 0512/0618 14010KT CAVOK"
    },
    {
      "icao": "EDDK",
      "alert": "OK",
      "vis_m": 9999,
      "fzfg": false,
      "metar_trigger": false,
      "taf_trigger": false,
      "metar": "METAR EDDK 051420Z AUTO 14010KT 110V170 CAVOK 18/01 Q1019 NOSIG",
      "taf": "TAF EDDK 051100Z 0512/0618 13012KT CAVOK"
    },
    {
      "icao": "EDDN",
      "alert": "OK",
      "vis_m": 9999,
      "fzfg": false,
      "metar_trigger": false,
      "taf_trigger": false,
      "metar": "METAR EDDN 051420Z AUTO 10009KT CAVOK 16/01 Q1022 NOSIG",
      "taf": "TAF EDDN 051100Z 0512/0612 11009KT CAVOK"
    },
    {
      "icao": "EDDS",
      "alert": "OK",
      "vis_m": 9999,
      "fzfg": false,
      "metar_trigger": false,
      "taf_trigger": false,
      "metar": "METAR EDDS 051420Z AUTO 09005KT 040V140 CAVOK 15/02 Q1019 NOSIG",
      "taf": "TAF EDDS 051100Z 0512/0612 09006KT CAVOK"
    },
    {
      "icao": "EDFH",
      "alert": "OK",
      "vis_m": 9999,
      "fzfg": false,
      "metar_trigger": false,
      "taf_trigger": false,
      "metar": "METAR EDFH 051420Z COR 14011KT 120V180 CAVOK 13/03 Q1020",
      "taf": "TAF EDFH 051100Z 0512/0612 13012KT CAVOK"
    },
    {
      "icao": "EDJA",
      "alert": "OK",
      "vis_m": 9999,
      "fzfg": false,
      "metar_trigger": false,
      "taf_trigger": false,
      "metar": "METAR EDJA 051350Z 03005KT 360V070 CAVOK 10/04 Q1021",
      "taf": "TAF EDJA 051400Z 0515/0524 05004KT CAVOK"
    },
    {
      "icao": "EDLW",
      "alert": "OK",
      "vis_m": 9999,
      "fzfg": false,
      "metar_trigger": false,
      "taf_trigger": false,
      "metar": "METAR EDLW 051420Z 10008KT 070V140 CAVOK 19/01 Q1019",
      "taf": "TAF EDLW 051100Z 0512/0612 13005KT CAVOK"
    },
    {
      "icao": "EDNY",
      "alert": "OK",
      "vis_m": 9999,
      "fzfg": false,
      "metar_trigger": false,
      "taf_trigger": false,
      "metar": "METAR EDNY 051420Z VRB03KT CAVOK 12/05 Q1020",
      "taf": "TAF EDNY 051400Z 0515/0524 04005KT CAVOK"
    },
    {
      "icao": "EDSB",
      "alert": "OK",
      "vis_m": 9999,
      "fzfg": false,
      "metar_trigger": false,
      "taf_trigger": false,
      "metar": "METAR EDSB 051420Z 01007KT CAVOK 16/07 Q1019",
      "taf": "TAF EDSB 051100Z 0512/0612 02006KT CAVOK"
    },
    {
      "icao": "EETN",
      "alert": "OK",
      "vis_m": 9999,
      "fzfg": false,
      "metar_trigger": false,
      "taf_trigger": false,
      "metar": "METAR EETN 051420Z 30009KT CAVOK 05/M00 Q1018 NOSIG",
      "taf": "TAF EETN 051130Z 0512/0612 30012KT CAVOK"
    },
    {
      "icao": "EFTU",
      "alert": "OK",
      "vis_m": 9999,
      "fzfg": false,
      "metar_trigger": false,
      "taf_trigger": false,
      "metar": "METAR EFTU 051420Z AUTO 30007KT 270V330 CAVOK 07/01 Q1018",
      "taf": "TAF EFTU 051122Z 0512/0612 30008KT CAVOK"
    },
    {
      "icao": "EGBB",
      "alert": "OK",
      "vis_m": 9999,
      "fzfg": false,
      "metar_trigger": false,
      "taf_trigger": false,
      "metar": "METAR EGBB 051420Z 15009KT CAVOK 16/09 Q1013",
      "taf": "TAF EGBB 051100Z 0512/0612 15008KT 8000 FEW045"
    },
    {
      "icao": "EGGP",
      "alert": "OK",
      "vis_m": 9999,
      "fzfg": false,
      "metar_trigger": false,
      "taf_trigger": false,
      "metar": "METAR EGGP 051420Z 15005KT CAVOK 13/08 Q1012",
      "taf": "TAF EGGP 051058Z 0512/0612 15008KT 9999 SCT040"
    },
    {
      "icao": "EGGW",
      "alert": "OK",
      "vis_m": 9999,
      "fzfg": false,
      "metar_trigger": false,
      "taf_trigger": false,
      "metar": "METAR EGGW 051420Z 14009KT 110V170 9999 NSC 16/07 Q1014",
      "taf": "TAF EGGW 051055Z 0512/0612 15010KT 9999 FEW040"
    },
    {
      "icao": "EGKK",
      "alert": "OK",
      "vis_m": 9999,
      "fzfg": false,
      "metar_trigger": false,
      "taf_trigger": false,
      "metar": "METAR EGKK 051420Z 13009KT CAVOK 17/08 Q1014",
      "taf": "TAF EGKK 051057Z 0512/0618 09005KT 9999 FEW045"
    },
    {
      "icao": "EGNM",
      "alert": "OK",
      "vis_m": 4500,
      "fzfg": false,
      "metar_trigger": false,
      "taf_trigger": false,
      "metar": "METAR EGNM 051420Z 13005KT 100V160 4500 HZ NSC 12/07 Q1013",
      "taf": "TAF EGNM 051101Z 0512/0612 14006KT 0300 FG BKN001"
    },
    {
      "icao": "EGPD",
      "alert": "OK",
      "vis_m": 9999,
      "fzfg": false,
      "metar_trigger": false,
      "taf_trigger": false,
      "metar": "METAR EGPD 051420Z COR AUTO 19008KT 9999 FEW031 12/08 Q1013 NOSIG",
      "taf": "TAF EGPD 051057Z 0512/0612 18012KT 9999 SCT020"
    },
    {
      "icao": "EGPF",
      "alert": "OK",
      "vis_m": 9999,
      "fzfg": false,
      "metar_trigger": false,
      "taf_trigger": false,
      "metar": "METAR EGPF 051420Z AUTO 29013KT 9999 -RA OVC038 07/05 Q1014",
      "taf": ""
    },
    {
      "icao": "EHBK",
      "alert": "OK",
      "vis_m": 9999,
      "fzfg": false,
      "metar_trigger": false,
      "taf_trigger": false,
      "metar": "METAR EHBK 051425Z AUTO 08007KT 050V120 9999 NCD 18/06 Q1018 NOSIG",
      "taf": "TAF EHBK 051109Z 0512/0618 12006KT CAVOK"
    },
    {
      "icao": "EHEH",
      "alert": "OK",
      "vis_m": 9999,
      "fzfg": false,
      "metar_trigger": false,
      "taf_trigger": false,
      "metar": "METAR EHEH 051425Z AUTO 11010KT 030V150 9999 NCD 18/03 Q1018 BLU NOSIG",
      "taf": "TAF EHEH 051108Z 0512/0618 14008KT CAVOK"
    },
    {
      "icao": "EKBI",
      "alert": "OK",
      "vis_m": 9999,
      "fzfg": false,
      "metar_trigger": false,
      "taf_trigger": false,
      "metar": "METAR EKBI 051420Z AUTO 12008KT 9999 NCD 11/04 Q1023",
      "taf": "TAF EKBI 051427Z 0515/0615 12006KT CAVOK"
    },
    {
      "icao": "EKCH",
      "alert": "OK",
      "vis_m": 9999,
      "fzfg": false,
      "metar_trigger": false,
      "taf_trigger": false,
      "metar": "METAR EKCH 051420Z AUTO 15007KT 9999 NCD 06/M00 Q1026 NOSIG",
      "taf": "TAF EKCH 051427Z 0515/0615 15007KT CAVOK"
    },
    {
      "icao": "ENAL",
      "alert": "OK",
      "vis_m": 9999,
      "fzfg": false,
      "metar_trigger": false,
      "taf_trigger": false,
      "metar": "METAR ENAL 051420Z 21007KT 9999 FEW060 12/01 Q1013 RMK WIND RWY 06 19010KT",
      "taf": "TAF ENAL 051100Z 0512/0521 19012KT 9999 FEW050"
    },
    {
      "icao": "ENBR",
      "alert": "OK",
      "vis_m": 9999,
      "fzfg": false,
      "metar_trigger": false,
      "taf_trigger": false,
      "metar": "METAR ENBR 051420Z 14018KT 9999 FEW025 10/03 Q1018 NOSIG RMK WIND 1200FT 15023KT",
      "taf": "TAF ENBR 051100Z 0512/0612 15018KT 9999 BKN025"
    },
    {
      "icao": "ENGM",
      "alert": "OK",
      "vis_m": 9999,
      "fzfg": false,
      "metar_trigger": false,
      "taf_trigger": false,
      "metar": "METAR ENGM 051420Z 18008KT CAVOK 06/M03 Q1020 NOSIG",
      "taf": "TAF ENGM 051100Z 0512/0612 20003KT CAVOK"
    },
    {
      "icao": "ENHD",
      "alert": "OK",
      "vis_m": 9999,
      "fzfg": false,
      "metar_trigger": false,
      "taf_trigger": false,
      "metar": "METAR ENHD 051420Z 15015KT 120V180 CAVOK 10/05 Q1019",
      "taf": "TAF ENHD 051100Z 0512/0521 13015KT 9999 BKN020"
    },
    {
      "icao": "ENTC",
      "alert": "OK",
      "vis_m": 9999,
      "fzfg": false,
      "metar_trigger": false,
      "taf_trigger": false,
      "metar": "METAR ENTC 051420Z 21012KT 9999 SCT020 BKN023 03/01 Q1010 RERA NOSIG RMK WIND 2600FT 19018KT",
      "taf": "TAF ENTC 051100Z 0512/0612 19008KT 9999 SCT015 BKN020"
    },
    {
      "icao": "ENTO",
      "alert": "OK",
      "vis_m": 9999,
      "fzfg": false,
      "metar_trigger": false,
      "taf_trigger": false,
      "metar": "METAR ENTO 051420Z 20010KT CAVOK 06/M02 Q1021 NOSIG",
      "taf": "TAF ENTO 051100Z 0512/0612 18005KT CAVOK"
    },
    {
      "icao": "ENVA",
      "alert": "OK",
      "vis_m": 9999,
      "fzfg": false,
      "metar_trigger": false,
      "taf_trigger": false,
      "metar": "METAR ENVA 051420Z 22003KT 120V260 CAVOK 05/04 Q1015 NOSIG RMK WIND 670FT 11007KT",
      "taf": "TAF ENVA 051100Z 0512/0612 12007KT 9999 SCT045"
    },
    {
      "icao": "ENZV",
      "alert": "OK",
      "vis_m": 9999,
      "fzfg": false,
      "metar_trigger": false,
      "taf_trigger": false,
      "metar": "METAR ENZV 051420Z 16015KT CAVOK 11/05 Q1020 NOSIG",
      "taf": "TAF ENZV 051100Z 0512/0612 14012KT 9999 SCT020"
    },
    {
      "icao": "EPGD",
      "alert": "OK",
      "vis_m": 9999,
      "fzfg": false,
      "metar_trigger": false,
      "taf_trigger": false,
      "metar": "METAR EPGD 051430Z 29009KT CAVOK 08/M00 Q1025",
      "taf": "TAF EPGD 051130Z 0512/0612 29008KT CAVOK"
    },
    {
      "icao": "EPKK",
      "alert": "OK",
      "vis_m": 9999,
      "fzfg": false,
      "metar_trigger": false,
      "taf_trigger": false,
      "metar": "METAR EPKK 051430Z VRB02KT CAVOK 13/M06 Q1025",
      "taf": "TAF EPKK 051430Z 0515/0615 VRB02KT CAVOK"
    },
    {
      "icao": "EPKT",
      "alert": "OK",
      "vis_m": 9999,
      "fzfg": false,
      "metar_trigger": false,
      "taf_trigger": false,
      "metar": "METAR EPKT 051430Z 34004KT 290V020 CAVOK 11/M03 Q1025",
      "taf": "TAF EPKT 051130Z 0512/0612 30003KT CAVOK"
    },
    {
      "icao": "EPLB",
      "alert": "OK",
      "vis_m": 9999,
      "fzfg": false,
      "metar_trigger": false,
      "taf_trigger": false,
      "metar": "METAR EPLB 051430Z 30009KT CAVOK 08/01 Q1024",
      "taf": "TAF EPLB 051130Z 0512/0612 30010KT CAVOK"
    },
    {
      "icao": "EPMO",
      "alert": "OK",
      "vis_m": 9999,
      "fzfg": false,
      "metar_trigger": false,
      "taf_trigger": false,
      "metar": "METAR EPMO 051430Z 27009KT CAVOK 09/03 Q1025",
      "taf": "TAF EPMO 051130Z 0512/0612 29010KT CAVOK"
    },
    {
      "icao": "EPPO",
      "alert": "OK",
      "vis_m": 9999,
      "fzfg": false,
      "metar_trigger": false,
      "taf_trigger": false,
      "metar": "METAR EPPO 051430Z VRB02KT CAVOK 13/M00 Q1026",
      "taf": "TAF EPPO 051130Z 0512/0612 VRB02KT CAVOK"
    },
    {
      "icao": "EPRA",
      "alert": "OK",
      "vis_m": 9999,
      "fzfg": false,
      "metar_trigger": false,
      "taf_trigger": false,
      "metar": "METAR EPRA 051430Z 32009KT CAVOK 10/M02 Q1025",
      "taf": "TAF EPRA 051430Z 0515/0524 31010KT CAVOK"
    },
    {
      "icao": "EPRZ",
      "alert": "OK",
      "vis_m": 9999,
      "fzfg": false,
      "metar_trigger": false,
      "taf_trigger": false,
      "metar": "METAR EPRZ 051430Z 30010KT 280V340 CAVOK 10/M03 Q1025",
      "taf": "TAF EPRZ 051130Z 0512/0612 28010KT CAVOK"
    },
    {
      "icao": "EPSC",
      "alert": "OK",
      "vis_m": 9999,
      "fzfg": false,
      "metar_trigger": false,
      "taf_trigger": false,
      "metar": "METAR EPSC 051430Z 18005KT 140V220 CAVOK 11/M02 Q1026",
      "taf": "TAF EPSC 051130Z 0512/0612 14005KT CAVOK"
    },
    {
      "icao": "EPSY",
      "alert": "OK",
      "vis_m": 9999,
      "fzfg": false,
      "metar_trigger": false,
      "taf_trigger": false,
      "metar": "METAR EPSY 051430Z 32008KT 280V350 CAVOK 10/00 Q1025",
      "taf": "TAF EPSY 051430Z 0515/0524 32008KT CAVOK"
    },
    {
      "icao": "EPWA",
      "alert": "OK",
      "vis_m": 9999,
      "fzfg": false,
      "metar_trigger": false,
      "taf_trigger": false,
      "metar": "METAR EPWA 051430Z 30010KT CAVOK 10/00 Q1025 NOSIG",
      "taf": "TAF EPWA 051430Z 0515/0615 29010KT CAVOK"
    },
    {
      "icao": "EPWR",
      "alert": "OK",
      "vis_m": 9999,
      "fzfg": false,
      "metar_trigger": false,
      "taf_trigger": false,
      "metar": "METAR EPWR 051430Z 06004KT 340V100 CAVOK 12/M03 Q1026",
      "taf": "TAF EPWR 051430Z 0515/0615 12004KT CAVOK"
    },
    {
      "icao": "ESGG",
      "alert": "OK",
      "vis_m": 9999,
      "fzfg": false,
      "metar_trigger": false,
      "taf_trigger": false,
      "metar": "METAR ESGG 051420Z 21007KT CAVOK 06/M00 Q1024",
      "taf": "TAF ESGG 051430Z 0515/0615 20008KT CAVOK"
    },
    {
      "icao": "ESKN",
      "alert": "OK",
      "vis_m": 9999,
      "fzfg": false,
      "metar_trigger": false,
      "taf_trigger": false,
      "metar": "METAR ESKN 051420Z 27006KT CAVOK 09/00 Q1021",
      "taf": "TAF ESKN 051430Z 0515/0615 27005KT CAVOK"
    },
    {
      "icao": "ESMS",
      "alert": "OK",
      "vis_m": 9999,
      "fzfg": false,
      "metar_trigger": false,
      "taf_trigger": false,
      "metar": "METAR ESMS 051420Z 22006KT CAVOK 08/01 Q1025",
      "taf": "TAF ESMS 051427Z 0515/0615 17005KT CAVOK"
    },
    {
      "icao": "ESSA",
      "alert": "OK",
      "vis_m": 9999,
      "fzfg": false,
      "metar_trigger": false,
      "taf_trigger": false,
      "metar": "METAR ESSA 051420Z 22007KT CAVOK 09/M01 Q1020 NOSIG",
      "taf": "TAF ESSA 051430Z 0515/0615 24007KT CAVOK"
    },
    {
      "icao": "EYKA",
      "alert": "OK",
      "vis_m": 9999,
      "fzfg": false,
      "metar_trigger": false,
      "taf_trigger": false,
      "metar": "METAR EYKA 051420Z 29006KT 250V350 CAVOK 07/M01 Q1021",
      "taf": "TAF EYKA 051100Z 0512/0612 29010KT 8000 NSC"
    },
    {
      "icao": "EYPA",
      "alert": "OK",
      "vis_m": 9999,
      "fzfg": false,
      "metar_trigger": false,
      "taf_trigger": false,
      "metar": "METAR EYPA 051420Z 27004KT 210V310 CAVOK 03/01 Q1024",
      "taf": "TAF EYPA 051100Z 0512/0612 VRB05KT 6000 NSC"
    },
    {
      "icao": "EYVI",
      "alert": "OK",
      "vis_m": 9999,
      "fzfg": false,
      "metar_trigger": false,
      "taf_trigger": false,
      "metar": "METAR EYVI 051420Z 32010KT CAVOK 06/M01 Q1020 NOSIG",
      "taf": "TAF EYVI 051100Z 0512/0612 30010KT 9000 NSC"
    },
    {
      "icao": "GCFV",
      "alert": "OK",
      "vis_m": 9999,
      "fzfg": false,
      "metar_trigger": false,
      "taf_trigger": false,
      "metar": "METAR GCFV 051400Z 03015KT 360V060 9999 SCT040 21/11 Q1022",
      "taf": "TAF GCFV 051400Z 0515/0615 01012KT 9999 SCT030 TX20/0614Z TN15/0606Z"
    },
    {
      "icao": "GCLP",
      "alert": "OK",
      "vis_m": 9999,
      "fzfg": false,
      "metar_trigger": false,
      "taf_trigger": false,
      "metar": "METAR GCLP 051400Z 03019KT 9999 FEW030 21/12 Q1023 NOSIG",
      "taf": "TAF GCLP 051400Z 0515/0615 36020KT 9999 SCT030 TX18/0614Z TN15/0606Z"
    },
    {
      "icao": "GCTS",
      "alert": "OK",
      "vis_m": 9999,
      "fzfg": false,
      "metar_trigger": false,
      "taf_trigger": false,
      "metar": "METAR GCTS 051400Z 10019KT 070V130 9999 SCT045 21/11 Q1023 NOSIG",
      "taf": "TAF GCTS 051400Z 0515/0615 10019KT 9999 SCT035 TX23/0614Z TN15/0606Z"
    },
    {
      "icao": "GMAD",
      "alert": "OK",
      "vis_m": 8000,
      "fzfg": false,
      "metar_trigger": false,
      "taf_trigger": false,
      "metar": "METAR GMAD 051430Z 22006KT 180V250 8000 FEW020 SCT100 22/13 Q1017 NOSIG",
      "taf": "TAF GMAD 051100Z 0512/0618 27012KT 8000 NSC"
    },
    {
      "icao": "GMMN",
      "alert": "OK",
      "vis_m": 8000,
      "fzfg": false,
      "metar_trigger": false,
      "taf_trigger": false,
      "metar": "METAR GMMN 051400Z 22007KT 150V280 8000 FEW010 BKN020 16/13 Q1019 REDZ TEMPO 5000 RA",
      "taf": "TAF GMMN 051100Z 0512/0618 24016KT 9999 BKN016"
    },
    {
      "icao": "GMMX",
      "alert": "OK",
      "vis_m": 7000,
      "fzfg": false,
      "metar_trigger": false,
      "taf_trigger": false,
      "metar": "METAR GMMX 051430Z 33005KT 280V020 7000 FEW016 BKN030 18/11 Q1019 NOSIG",
      "taf": "TAF GMMX 051100Z 0512/0618 26006KT 8000 SCT020 SCT30"
    },
    {
      "icao": "HEGN",
      "alert": "OK",
      "vis_m": 9999,
      "fzfg": false,
      "metar_trigger": false,
      "taf_trigger": false,
      "metar": "METAR HEGN 051400Z 36010KT CAVOK 21/05 Q1017 NOSIG",
      "taf": "TAF HEGN 051100Z 0512/0618 36015KT CAVOK"
    },
    {
      "icao": "HEMA",
      "alert": "OK",
      "vis_m": 9999,
      "fzfg": false,
      "metar_trigger": false,
      "taf_trigger": false,
      "metar": "METAR HEMA 051400Z 36013KT CAVOK 21/11 Q1016 NOSIG",
      "taf": "TAF HEMA 051100Z 0512/0618 35008G20KT 9999 SCT025"
    },
    {
      "icao": "HESH",
      "alert": "OK",
      "vis_m": 9999,
      "fzfg": false,
      "metar_trigger": false,
      "taf_trigger": false,
      "metar": "METAR HESH 051400Z 36011KT CAVOK 22/08 Q1018 NOSIG",
      "taf": "TAF HESH 051100Z 0512/0618 02014KT 9999 SCT025"
    },
    {
      "icao": "HESX",
      "alert": "OK",
      "vis_m": 9999,
      "fzfg": false,
      "metar_trigger": false,
      "taf_trigger": false,
      "metar": "METAR HESX 051400Z 04009KT CAVOK 18/07 Q1020 NOSIG",
      "taf": "TAF HESX 051100Z 0512/0618 04010KT 9999 SCT020"
    },
    {
      "icao": "LATI",
      "alert": "OK",
      "vis_m": 9999,
      "fzfg": false,
      "metar_trigger": false,
      "taf_trigger": false,
      "metar": "METAR LATI 051420Z 28009KT 9999 FEW036 SCT080 17/09 Q1023 NOSIG",
      "taf": "TAF LATI 051100Z 0512/0612 34008KT 9999 FEW030 SCT070 TX18/0512Z TN04/0605Z"
    },
    {
      "icao": "LBPD",
      "alert": "OK",
      "vis_m": 9999,
      "fzfg": false,
      "metar_trigger": false,
      "taf_trigger": false,
      "metar": "METAR LBPD 051430Z AUTO 11004KT 080V150 9999 FEW090/// 13/06 Q1021 NOSIG",
      "taf": ""
    },
    {
      "icao": "LBSF",
      "alert": "OK",
      "vis_m": 9999,
      "fzfg": false,
      "metar_trigger": false,
      "taf_trigger": false,
      "metar": "METAR LBSF 051430Z 27006KT 9999 BKN053 10/05 Q1022 NOSIG",
      "taf": "TAF LBSF 051100Z 0512/0612 28010KT 9999 SCT030 BKN050"
    },
    {
      "icao": "LBWN",
      "alert": "OK",
      "vis_m": 9999,
      "fzfg": false,
      "metar_trigger": false,
      "taf_trigger": false,
      "metar": "METAR LBWN 051430Z 01006KT 9999 FEW030 15/04 Q1020 NOSIG",
      "taf": "TAF LBWN 051100Z 0512/0612 31010KT 9999 SCT045"
    },
    {
      "icao": "LCLK",
      "alert": "OK",
      "vis_m": 9999,
      "fzfg": false,
      "metar_trigger": false,
      "taf_trigger": false,
      "metar": "METAR LCLK 051430Z 21006KT 180V240 9999 FEW040 18/05 Q1021 NOSIG",
      "taf": "TAF LCLK 051130Z 0512/0612 19010KT 9999 FEW040"
    },
    {
      "icao": "LCPH",
      "alert": "OK",
      "vis_m": 9999,
      "fzfg": false,
      "metar_trigger": false,
      "taf_trigger": false,
      "metar": "METAR LCPH 051430Z 25006KT 230V320 9999 BKN060 18/07 Q1022 NOSIG",
      "taf": "TAF LCPH 051130Z 0512/0612 18008KT 9999 FEW030"
    },
    {
      "icao": "LEAL",
      "alert": "OK",
      "vis_m": 9999,
      "fzfg": false,
      "metar_trigger": false,
      "taf_trigger": false,
      "metar": "SPECI LEAL 051410Z 20007KT 140V260 9999 -RA BKN004 BKN018 13/13 Q1008 RERA NOSIG",
      "taf": "TAF LEAL 051100Z 0512/0612 31009KT 9999 SCT030 TX17/0513Z TN07/0606Z"
    },
    {
      "icao": "LEBB",
      "alert": "OK",
      "vis_m": 9999,
      "fzfg": false,
      "metar_trigger": false,
      "taf_trigger": false,
      "metar": "METAR LEBB 051400Z 31008KT 280V350 9999 SCT015 BKN022 14/11 Q1015 TEMPO BKN010",
      "taf": "TAF LEBB 051100Z 0512/0612 32009KT 9000 SCT010 BKN020 TX16/0512Z TN11/0606Z"
    },
    {
      "icao": "LEBL",
      "alert": "OK",
      "vis_m": 1000,
      "fzfg": false,
      "metar_trigger": false,
      "taf_trigger": false,
      "metar": "METAR LEBL 051400Z 07015KT 1000 R24R/1300N R06L/P2000 R06R/1200N R24L/P2000 BR BKN006 FEW008CB OVC011 15/14 Q1012 NOSIG",
      "taf": ""
    },
    {
      "icao": "LECH",
      "alert": "OK",
      "vis_m": 5000,
      "fzfg": false,
      "metar_trigger": false,
      "taf_trigger": false,
      "metar": "METAR LECH 051400Z 06013KT 030V090 5000 RA BR OVC004 12/12 Q1010",
      "taf": ""
    },
    {
      "icao": "LEMD",
      "alert": "OK",
      "vis_m": 9999,
      "fzfg": false,
      "metar_trigger": false,
      "taf_trigger": false,
      "metar": "METAR LEMD 051400Z 36004KT 9999 FEW045 17/08 Q1011 NOSIG",
      "taf": "TAF LEMD 051100Z 0512/0618 VRB04KT 9999 FEW060 TX16/0514Z TN08/0607Z"
    },
    {
      "icao": "LEMG",
      "alert": "OK",
      "vis_m": 9999,
      "fzfg": false,
      "metar_trigger": false,
      "taf_trigger": false,
      "metar": "METAR LEMG 051400Z 30010KT 260V330 9999 FEW040 17/08 Q1013 NOSIG",
      "taf": "TAF LEMG 051100Z 0512/0612 30009KT 9999 FEW050 TX19/0514Z TN09/0607Z"
    },
    {
      "icao": "LEVC",
      "alert": "OK",
      "vis_m": 9999,
      "fzfg": false,
      "metar_trigger": false,
      "taf_trigger": false,
      "metar": "METAR LEVC 051400Z 06004KT 030V100 9999 FEW009 SCT017 BKN035 14/13 Q1009 NOSIG",
      "taf": "TAF LEVC 051100Z 0512/0612 04009KT 9999 BKN015 TX15/0513Z TN10/0606Z"
    },
    {
      "icao": "LEXJ",
      "alert": "OK",
      "vis_m": 9999,
      "fzfg": false,
      "metar_trigger": false,
      "taf_trigger": false,
      "metar": "METAR LEXJ 051400Z 30011KT 9999 SCT012 BKN020 12/08 Q1015",
      "taf": "TAF LEXJ 051400Z 0515/0615 29009KT 9000 SCT010 BKN020 TX14/0515Z TN11/0607Z"
    },
    {
      "icao": "LEZG",
      "alert": "OK",
      "vis_m": 6000,
      "fzfg": false,
      "metar_trigger": false,
      "taf_trigger": false,
      "metar": "METAR LEZG 051400Z 09002KT 6000 -RA SCT050 BKN065 OVC080 14/10 Q1013 NOSIG",
      "taf": "TAF LEZG 051100Z 0512/0612 30009KT 9999 BKN020 TX15/0514Z TN09/0606Z"
    },
    {
      "icao": "LEZL",
      "alert": "OK",
      "vis_m": 9999,
      "fzfg": false,
      "metar_trigger": false,
      "taf_trigger": false,
      "metar": "METAR LEZL 051400Z 22005KT 170V260 9999 FEW025 17/11 Q1015 NOSIG",
      "taf": "TAF LEZL 051400Z 0515/0615 26009KT 9999 FEW015 SCT030 TX18/0515Z TN10/0607Z"
    },
    {
      "icao": "LFBD",
      "alert": "OK",
      "vis_m": 9999,
      "fzfg": false,
      "metar_trigger": false,
      "taf_trigger": false,
      "metar": "METAR LFBD 051430Z AUTO 12010KT 090V150 9999 BKN043 18/10 Q1014 NOSIG",
      "taf": "TAF LFBD 051100Z 0512/0618 15010KT CAVOK TX20/0514Z TN12/0606Z"
    },
    {
      "icao": "LFLL",
      "alert": "OK",
      "vis_m": 9999,
      "fzfg": false,
      "metar_trigger": false,
      "taf_trigger": false,
      "metar": "METAR LFLL 051400Z 21004KT 170V260 CAVOK 19/06 Q1017 NOSIG",
      "taf": "TAF LFLL 051100Z 0512/0618 15006KT CAVOK"
    },
    {
      "icao": "LFLS",
      "alert": "OK",
      "vis_m": 9999,
      "fzfg": false,
      "metar_trigger": false,
      "taf_trigger": false,
      "metar": "METAR LFLS 051430Z AUTO 26003KT 230V290 CAVOK 16/07 Q1018 NOSIG",
      "taf": "TAF LFLS 050800Z 0509/0609 09008KT CAVOK"
    },
    {
      "icao": "LFMN",
      "alert": "OK",
      "vis_m": 9999,
      "fzfg": false,
      "metar_trigger": false,
      "taf_trigger": false,
      "metar": "METAR LFMN 051430Z 09019KT 9999 FEW053 BKN093 OVC260 17/09 Q1019 NOSIG",
      "taf": "TAF LFMN 050800Z 0509/0615 02010KT CAVOK"
    },
    {
      "icao": "LFOB",
      "alert": "OK",
      "vis_m": 9999,
      "fzfg": false,
      "metar_trigger": false,
      "taf_trigger": false,
      "metar": "METAR LFOB 051430Z AUTO 13003KT 100V160 CAVOK 16/09 Q1015 NOSIG",
      "taf": "TAF LFOB 051100Z 0512/0612 17009KT CAVOK"
    },
    {
      "icao": "LFPO",
      "alert": "OK",
      "vis_m": 9999,
      "fzfg": false,
      "metar_trigger": false,
      "taf_trigger": false,
      "metar": "METAR LFPO 051430Z 09005KT CAVOK 18/07 Q1015 NOSIG",
      "taf": "TAF LFPO 051100Z 0512/0618 16003KT CAVOK"
    },
    {
      "icao": "LFSB",
      "alert": "OK",
      "vis_m": 9999,
      "fzfg": false,
      "metar_trigger": false,
      "taf_trigger": false,
      "metar": "METAR LFSB 051430Z AUTO 07007KT 9999 FEW001 18/00 Q1018 NOSIG",
      "taf": "TAF LFSB 051100Z 0512/0612 09010KT CAVOK"
    },
    {
      "icao": "LGAV",
      "alert": "OK",
      "vis_m": 9999,
      "fzfg": false,
      "metar_trigger": false,
      "taf_trigger": false,
      "metar": "METAR LGAV 051420Z 22008KT 9999 FEW020 17/08 Q1021 NOSIG",
      "taf": "TAF LGAV 051100Z 0512/0612 VRB05KT 9999 FEW020"
    },
    {
      "icao": "LGTS",
      "alert": "OK",
      "vis_m": 9999,
      "fzfg": false,
      "metar_trigger": false,
      "taf_trigger": false,
      "metar": "METAR LGTS 051420Z VRB03KT 9999 FEW016TCU SCT035 16/10 Q1021 NOSIG",
      "taf": "TAF LGTS 051100Z 0512/0612 VRB03KT 9999 SCT030"
    },
    {
      "icao": "LHBP",
      "alert": "OK",
      "vis_m": 9999,
      "fzfg": false,
      "metar_trigger": false,
      "taf_trigger": false,
      "metar": "METAR LHBP 051430Z VRB03KT CAVOK 16/00 Q1024 NOSIG",
      "taf": "TAF LHBP 051115Z 0512/0612 VRB03KT CAVOK"
    },
    {
      "icao": "LHDC",
      "alert": "OK",
      "vis_m": 9999,
      "fzfg": false,
      "metar_trigger": false,
      "taf_trigger": false,
      "metar": "METAR LHDC 051415Z AUTO 33007KT 290V010 CAVOK 14/M04 Q1024 NOSIG",
      "taf": "TAF LHDC 051415Z 0515/0524 33006KT CAVOK"
    },
    {
      "icao": "LIBD",
      "alert": "OK",
      "vis_m": 9999,
      "fzfg": false,
      "metar_trigger": false,
      "taf_trigger": false,
      "metar": "METAR LIBD 051420Z 35005KT 310V060 9999 FEW015 14/11 Q1024",
      "taf": "TAF LIBD 051100Z 0512/0612 35010KT 7000 SCT015"
    },
    {
      "icao": "LIBG",
      "alert": "OK",
      "vis_m": 9999,
      "fzfg": false,
      "metar_trigger": false,
      "taf_trigger": false,
      "metar": "METAR LIBG 051350Z 06007KT 9999 SCT030 17/10 Q1023",
      "taf": "TAF LIBG 051400Z 0515/0524 VRB05KT 9999 SCT020"
    },
    {
      "icao": "LIBP",
      "alert": "OK",
      "vis_m": 9999,
      "fzfg": false,
      "metar_trigger": false,
      "taf_trigger": false,
      "metar": "METAR LIBP 051420Z AUTO 06005KT 030V090 9999 BKN040/// 14/10 Q1025",
      "taf": "TAF LIBP 051100Z 0512/0612 VRB05KT 7000 BKN025"
    },
    {
      "icao": "LIBR",
      "alert": "OK",
      "vis_m": 9999,
      "fzfg": false,
      "metar_trigger": false,
      "taf_trigger": false,
      "metar": "METAR LIBR 051420Z 32010KT 9999 FEW010 15/12 Q1024",
      "taf": "TAF LIBR 051100Z 0512/0612 33008KT 9999 SCT020"
    },
    {
      "icao": "LICA",
      "alert": "OK",
      "vis_m": 9999,
      "fzfg": false,
      "metar_trigger": false,
      "taf_trigger": false,
      "metar": "METAR LICA 051420Z AUTO 09015KT 9999 FEW029/// 17/12 Q1022",
      "taf": "TAF LICA 051100Z 0512/0612 06013KT CAVOK"
    },
    {
      "icao": "LICC",
      "alert": "OK",
      "vis_m": 9999,
      "fzfg": false,
      "metar_trigger": false,
      "taf_trigger": false,
      "metar": "METAR LICC 051420Z 06011KT CAVOK 16/14 Q1022",
      "taf": ""
    },
    {
      "icao": "LICJ",
      "alert": "OK",
      "vis_m": 9999,
      "fzfg": false,
      "metar_trigger": false,
      "taf_trigger": false,
      "metar": "METAR LICJ 051420Z 04011KT CAVOK 16/13 Q1019",
      "taf": "TAF LICJ 051100Z 0512/0612 VRB05KT CAVOK"
    },
    {
      "icao": "LIMC",
      "alert": "OK",
      "vis_m": 4000,
      "fzfg": false,
      "metar_trigger": false,
      "taf_trigger": false,
      "metar": "METAR LIMC 051420Z 15006KT 4000 BR BKN020 12/08 Q1025 NOSIG",
      "taf": "TAF LIMC 051100Z 0512/0618 VRB05KT 3000 BR BKN005"
    },
    {
      "icao": "LIME",
      "alert": "OK",
      "vis_m": 4000,
      "fzfg": false,
      "metar_trigger": false,
      "taf_trigger": false,
      "metar": "METAR LIME 051420Z VRB02KT 4000 BR FEW007 BKN013 11/07 Q1025 NOSIG",
      "taf": "TAF LIME 051100Z 0512/0612 VRB05KT 6000 BKN012"
    },
    {
      "icao": "LIMF",
      "alert": "OK",
      "vis_m": 3000,
      "fzfg": false,
      "metar_trigger": false,
      "taf_trigger": false,
      "metar": "METAR LIMF 051420Z 09006KT 3000 BR BKN015 12/08 Q1025",
      "taf": "TAF LIMF 051100Z 0512/0612 VRB04KT 3000 BR SCT030"
    },
    {
      "icao": "LIMJ",
      "alert": "OK",
      "vis_m": 7000,
      "fzfg": false,
      "metar_trigger": false,
      "taf_trigger": false,
      "metar": "METAR LIMJ 051420Z 04012KT 7000 NSC 15/07 Q1022",
      "taf": "TAF LIMJ 051100Z 0512/0612 35016KT 9999 FEW040"
    },
    {
      "icao": "LIPE",
      "alert": "OK",
      "vis_m": 8000,
      "fzfg": false,
      "metar_trigger": false,
      "taf_trigger": false,
      "metar": "METAR LIPE 051420Z 05003KT 010V100 8000 BKN014 BKN020 11/08 Q1026",
      "taf": "TAF LIPE 051100Z 0512/0612 VRB04KT 6000 SCT015"
    },
    {
      "icao": "LIPH",
      "alert": "OK",
      "vis_m": 6000,
      "fzfg": false,
      "metar_trigger": false,
      "taf_trigger": false,
      "metar": "METAR LIPH 051350Z VRB02KT 6000 FEW020 13/08 Q1025",
      "taf": "TAF LIPH 051100Z 0512/0612 VRB04KT 3000 BR BKN020"
    },
    {
      "icao": "LIPQ",
      "alert": "OK",
      "vis_m": 9999,
      "fzfg": false,
      "metar_trigger": false,
      "taf_trigger": false,
      "metar": "METAR LIPQ 051420Z AUTO 26004KT 230V290 9999 NCD 15/08 Q1025",
      "taf": "TAF LIPQ 051100Z 0512/0612 VRB05KT 6000 SCT015"
    },
    {
      "icao": "LIPR",
      "alert": "OK",
      "vis_m": 9999,
      "fzfg": false,
      "metar_trigger": false,
      "taf_trigger": false,
      "metar": "METAR LIPR 051420Z 07004KT 9999 BKN012 BKN030 11/09 Q1026",
      "taf": "TAF LIPR 051100Z 0512/0612 03010KT 6000 BKN030"
    },
    {
      "icao": "LIPX",
      "alert": "OK",
      "vis_m": 4000,
      "fzfg": false,
      "metar_trigger": false,
      "taf_trigger": false,
      "metar": "METAR LIPX 051420Z VRB03KT 4000 BR BKN015 11/07 Q1026",
      "taf": "TAF LIPX 051100Z 0512/0612 VRB05KT 2000 BR BKN012"
    },
    {
      "icao": "LIPY",
      "alert": "OK",
      "vis_m": 9999,
      "fzfg": false,
      "metar_trigger": false,
      "taf_trigger": false,
      "metar": "METAR LIPY 051420Z AUTO 04007KT 9999 OVC013/// 13/11 Q1025",
      "taf": "TAF LIPY 051100Z 0512/0612 02010KT 7000 SCT015"
    },
    {
      "icao": "LIPZ",
      "alert": "OK",
      "vis_m": 9999,
      "fzfg": false,
      "metar_trigger": false,
      "taf_trigger": false,
      "metar": "METAR LIPZ 051420Z 20005KT CAVOK 12/07 Q1025 NOSIG",
      "taf": "TAF LIPZ 051100Z 0512/0618 VRB04KT 7000 SCT015"
    },
    {
      "icao": "LIRF",
      "alert": "OK",
      "vis_m": 9999,
      "fzfg": false,
      "metar_trigger": false,
      "taf_trigger": false,
      "metar": "METAR LIRF 051420Z 18007KT CAVOK 18/09 Q1021 NOSIG",
      "taf": "TAF LIRF 051100Z 0512/0618 05006KT 9000 NSC"
    },
    {
      "icao": "LIRN",
      "alert": "OK",
      "vis_m": 9000,
      "fzfg": false,
      "metar_trigger": false,
      "taf_trigger": false,
      "metar": "METAR LIRN 051420Z 02008KT 310V040 9000 NSC 19/09 Q1021 NOSIG",
      "taf": "TAF LIRN 051100Z 0512/0612 VRB05KT 7000 NSC"
    },
    {
      "icao": "LIRP",
      "alert": "OK",
      "vis_m": 9999,
      "fzfg": false,
      "metar_trigger": false,
      "taf_trigger": false,
      "metar": "METAR LIRP 051415Z 10005KT CAVOK 18/08 Q1021 NOSIG",
      "taf": "TAF LIRP 051100Z 0512/0612 10010KT CAVOK"
    },
    {
      "icao": "LIRZ",
      "alert": "OK",
      "vis_m": 9999,
      "fzfg": false,
      "metar_trigger": false,
      "taf_trigger": false,
      "metar": "METAR LIRZ 051420Z AUTO 03012KT 9999 NCD 17/08 Q1022",
      "taf": ""
    },
    {
      "icao": "LJLJ",
      "alert": "OK",
      "vis_m": 9999,
      "fzfg": false,
      "metar_trigger": false,
      "taf_trigger": false,
      "metar": "METAR LJLJ 051400Z 08004KT 040V150 9999 FEW065 16/02 Q1024 NOSIG",
      "taf": "TAF LJLJ 051100Z 0512/0612 12004KT 9999 FEW050"
    },
    {
      "icao": "LKMT",
      "alert": "OK",
      "vis_m": 9999,
      "fzfg": false,
      "metar_trigger": false,
      "taf_trigger": false,
      "metar": "METAR LKMT 051430Z 02006KT 350V050 CAVOK 11/M03 Q1025 NOSIG",
      "taf": "TAF LKMT 051100Z 0512/0612 03003KT CAVOK"
    },
    {
      "icao": "LKPR",
      "alert": "OK",
      "vis_m": 9999,
      "fzfg": false,
      "metar_trigger": false,
      "taf_trigger": false,
      "metar": "METAR LKPR 051430Z 03007KT 350V050 CAVOK 11/03 Q1024 NOSIG",
      "taf": "TAF LKPR 051400Z 0515/0621 05006KT CAVOK"
    },
    {
      "icao": "LLBG",
      "alert": "OK",
      "vis_m": 9999,
      "fzfg": false,
      "metar_trigger": false,
      "taf_trigger": false,
      "metar": "METAR LLBG 051420Z 33010KT CAVOK 18/04 Q1020 NOSIG",
      "taf": "TAF LLBG 051103Z 0512/0612 34012KT CAVOK TX20/0512Z TN06/0604Z"
    },
    {
      "icao": "LMML",
      "alert": "OK",
      "vis_m": 9999,
      "fzfg": false,
      "metar_trigger": false,
      "taf_trigger": false,
      "metar": "METAR LMML 051415Z 11017KT 9999 BKN014 16/13 Q1021 NOSIG",
      "taf": "TAF LMML 051100Z 0512/0612 13017KT 9999 FEW016"
    },
    {
      "icao": "LOWW",
      "alert": "OK",
      "vis_m": 9999,
      "fzfg": false,
      "metar_trigger": false,
      "taf_trigger": false,
      "metar": "METAR LOWW 051420Z VRB04KT CAVOK 14/02 Q1024 NOSIG",
      "taf": "TAF LOWW 051415Z 0515/0621 06005KT CAVOK TX15/0614Z TN02/0605Z"
    },
    {
      "icao": "LPFR",
      "alert": "OK",
      "vis_m": 9999,
      "fzfg": false,
      "metar_trigger": false,
      "taf_trigger": false,
      "metar": "METAR LPFR 051400Z 31013KT 9999 FEW020 16/11 Q1015",
      "taf": "TAF LPFR 051100Z 0512/0612 VRB05KT 9999 SCT020"
    },
    {
      "icao": "LPMA",
      "alert": "OK",
      "vis_m": 9999,
      "fzfg": false,
      "metar_trigger": false,
      "taf_trigger": false,
      "metar": "METAR LPMA 051400Z 01017G31KT 320V040 9999 BKN015 16/11 Q1025",
      "taf": "TAF LPMA 051111Z 0512/0612 01015KT 9999 SCT015"
    },
    {
      "icao": "LPPR",
      "alert": "OK",
      "vis_m": 9999,
      "fzfg": false,
      "metar_trigger": false,
      "taf_trigger": false,
      "metar": "METAR LPPR 051400Z 34019KT 9999 -RA FEW013 SCT044 11/08 Q1017",
      "taf": "TAF LPPR 051100Z 0512/0612 34015KT 9999 SCT012 BKN030"
    },
    {
      "icao": "LPPS",
      "alert": "OK",
      "vis_m": 9999,
      "fzfg": false,
      "metar_trigger": false,
      "taf_trigger": false,
      "metar": "METAR LPPS 051400Z 02022KT 9999 SCT015 16/11 Q1026",
      "taf": "TAF LPPS 051100Z 0512/0618 02017KT 9999 SCT012 BKN025"
    },
    {
      "icao": "LPPT",
      "alert": "OK",
      "vis_m": 9999,
      "fzfg": false,
      "metar_trigger": false,
      "taf_trigger": false,
      "metar": "METAR LPPT 051400Z 31007KT 280V340 9999 -SHRA SCT017 BKN022 14/10 Q1017",
      "taf": "TAF LPPT 051100Z 0512/0618 34017KT 9999 SCT012 BKN025"
    },
    {
      "icao": "LQBK",
      "alert": "OK",
      "vis_m": 9999,
      "fzfg": false,
      "metar_trigger": false,
      "taf_trigger": false,
      "metar": "METAR LQBK 051430Z 03003KT 340V090 9999 FEW043 16/01 Q1025 NOSIG",
      "taf": "TAF LQBK 051100Z 0512/0612 34006KT CAVOK TX17/0514Z TN02/0605Z"
    },
    {
      "icao": "LQSA",
      "alert": "OK",
      "vis_m": 9999,
      "fzfg": false,
      "metar_trigger": false,
      "taf_trigger": false,
      "metar": "METAR LQSA 051430Z 30005KT 9999 FEW050 SCT070 15/03 Q1023 NOSIG",
      "taf": "TAF LQSA 051100Z 0512/0612 30007KT 9999 SCT060 TX16/0612Z TNM01/0605Z"
    },
    {
      "icao": "LQTZ",
      "alert": "OK",
      "vis_m": 9999,
      "fzfg": false,
      "metar_trigger": false,
      "taf_trigger": false,
      "metar": "METAR LQTZ 051430Z 02006KT 300V070 9999 SCT050 15/04 Q1024",
      "taf": "TAF LQTZ 051100Z 0512/0612 VRB02KT 9999 SCT050 TX16/0514Z TNM02/0605Z"
    },
    {
      "icao": "LRBC",
      "alert": "OK",
      "vis_m": 9999,
      "fzfg": false,
      "metar_trigger": false,
      "taf_trigger": false,
      "metar": "METAR LRBC 051400Z 36010KT CAVOK 12/01 Q1021",
      "taf": "TAF LRBC 051400Z 0515/0524 36010KT CAVOK"
    },
    {
      "icao": "LRBS",
      "alert": "OK",
      "vis_m": 9999,
      "fzfg": false,
      "metar_trigger": false,
      "taf_trigger": false,
      "metar": "METAR LRBS 051400Z 10005KT 070V130 CAVOK 15/04 Q1021 NOSIG",
      "taf": "TAF LRBS 051100Z 0512/0612 VRB04KT CAVOK"
    },
    {
      "icao": "LRBV",
      "alert": "OK",
      "vis_m": 9999,
      "fzfg": false,
      "metar_trigger": false,
      "taf_trigger": false,
      "metar": "METAR LRBV 051400Z 29009KT 260V330 9999 FEW060 BKN082 12/03 Q1021",
      "taf": "TAF LRBV 051400Z 0515/0524 30010KT CAVOK"
    },
    {
      "icao": "LRCL",
      "alert": "OK",
      "vis_m": 9999,
      "fzfg": false,
      "metar_trigger": false,
      "taf_trigger": false,
      "metar": "METAR LRCL 051400Z 29011KT 9999 FEW060 14/M00 Q1022",
      "taf": "TAF LRCL 051400Z 0515/0524 31010KT CAVOK"
    },
    {
      "icao": "LRCV",
      "alert": "OK",
      "vis_m": 9999,
      "fzfg": false,
      "metar_trigger": false,
      "taf_trigger": false,
      "metar": "METAR LRCV 051400Z 07004KT 030V120 CAVOK 16/03 Q1021",
      "taf": "TAF LRCV 051400Z 0515/0524 VRB04KT CAVOK"
    },
    {
      "icao": "LRIA",
      "alert": "OK",
      "vis_m": 9999,
      "fzfg": false,
      "metar_trigger": false,
      "taf_trigger": false,
      "metar": "METAR LRIA 051400Z 33015KT CAVOK 10/M03 Q1022",
      "taf": "TAF LRIA 051400Z 0515/0524 33017KT CAVOK"
    },
    {
      "icao": "LROP",
      "alert": "OK",
      "vis_m": 9999,
      "fzfg": false,
      "metar_trigger": false,
      "taf_trigger": false,
      "metar": "METAR LROP 051400Z COR 15004KT CAVOK 14/00 Q1021 NOSIG",
      "taf": "TAF LROP 051100Z 0512/0612 VRB04KT CAVOK"
    },
    {
      "icao": "LRSB",
      "alert": "OK",
      "vis_m": 9999,
      "fzfg": false,
      "metar_trigger": false,
      "taf_trigger": false,
      "metar": "METAR LRSB 051400Z 23004KT 200V280 9999 FEW046 SCT085 14/02 Q1022 NOSIG",
      "taf": "TAF LRSB 051100Z 0512/0612 VRB04KT 9999 SCT040 BKN080"
    },
    {
      "icao": "LRSM",
      "alert": "OK",
      "vis_m": 9999,
      "fzfg": false,
      "metar_trigger": false,
      "taf_trigger": false,
      "metar": "METAR LRSM 051400Z 29009KT CAVOK 15/M02 Q1023",
      "taf": "TAF LRSM 051400Z 0515/0524 31008KT CAVOK"
    },
    {
      "icao": "LRSV",
      "alert": "OK",
      "vis_m": 9999,
      "fzfg": false,
      "metar_trigger": false,
      "taf_trigger": false,
      "metar": "METAR LRSV 051400Z 33015KT CAVOK 09/M02 Q1021",
      "taf": "TAF LRSV 051400Z 0515/0524 33017KT CAVOK"
    },
    {
      "icao": "LRTM",
      "alert": "OK",
      "vis_m": 9999,
      "fzfg": false,
      "metar_trigger": false,
      "taf_trigger": false,
      "metar": "METAR LRTM 051400Z 29006KT 9999 FEW040 FEW042CB 14/02 Q1022",
      "taf": "TAF LRTM 051400Z 0515/0524 30010KT CAVOK"
    },
    {
      "icao": "LRTR",
      "alert": "OK",
      "vis_m": 9999,
      "fzfg": false,
      "metar_trigger": false,
      "taf_trigger": false,
      "metar": "METAR LRTR 051400Z 31008KT 9999 FEW048TCU 16/06 Q1023 NOSIG",
      "taf": "TAF LRTR 051100Z 0512/0612 VRB04KT CAVOK"
    },
    {
      "icao": "LTAC",
      "alert": "OK",
      "vis_m": 9999,
      "fzfg": false,
      "metar_trigger": false,
      "taf_trigger": false,
      "metar": "METAR LTAC 051420Z 25008KT 9999 FEW040 BKN180 11/M05 Q1020 NOSIG RMK RWY21C 23004KT 170V250 RWY03L 25006KT 220V300 RWY21R 23004KT 190V360 RWY03R 24008KT RWY21L 25006KT 220V280",
      "taf": "TAF LTAC 051040Z 0512/0612 VRB02KT 9999 SCT040 SCT100 BKN200"
    },
    {
      "icao": "LTFM",
      "alert": "OK",
      "vis_m": 9999,
      "fzfg": false,
      "metar_trigger": false,
      "taf_trigger": false,
      "metar": "METAR LTFM 051420Z 20009KT CAVOK 12/04 Q1021 NOSIG RMK RWY17L 21009KT RWY34L 21010KT RWY16R 22008KT RWY36 22010KT RWY18 22010KT",
      "taf": "TAF LTFM 051040Z 0512/0618 21010KT CAVOK"
    },
    {
      "icao": "LUKK",
      "alert": "OK",
      "vis_m": 9999,
      "fzfg": false,
      "metar_trigger": false,
      "taf_trigger": false,
      "metar": "METAR LUKK 051430Z 35014KT CAVOK 10/M03 Q1020 TEMPO 35016G26KT",
      "taf": "TAF LUKK 051119Z 0512/0612 33012KT CAVOK"
    },
    {
      "icao": "LWOH",
      "alert": "OK",
      "vis_m": 9999,
      "fzfg": false,
      "metar_trigger": false,
      "taf_trigger": false,
      "metar": "METAR LWOH 051420Z 12005KT 030V150 9999 BKN045 13/05 Q1022",
      "taf": "TAF LWOH 051430Z 0515/0615 17008KT 9999 SCT045"
    },
    {
      "icao": "LWSK",
      "alert": "OK",
      "vis_m": 9999,
      "fzfg": false,
      "metar_trigger": false,
      "taf_trigger": false,
      "metar": "METAR LWSK 051420Z 32005KT 260V360 9999 FEW033 12/07 Q1024 NOSIG",
      "taf": "TAF LWSK 051430Z 0515/0615 31006KT 9999 FEW030"
    },
    {
      "icao": "LYBE",
      "alert": "OK",
      "vis_m": 9999,
      "fzfg": false,
      "metar_trigger": false,
      "taf_trigger": false,
      "metar": "METAR LYBE 051430Z 30006KT 9999 FEW045 15/05 Q1024 NOSIG",
      "taf": "TAF LYBE 051100Z 0512/0612 29007KT 9999 SCT040 TX16/0612Z TN02/0606Z"
    },
    {
      "icao": "LYNI",
      "alert": "OK",
      "vis_m": 9999,
      "fzfg": false,
      "metar_trigger": false,
      "taf_trigger": false,
      "metar": "METAR LYNI 051430Z 30004KT 260V320 9999 SCT033 12/07 Q1024 TEMPO 30014KT",
      "taf": "TAF LYNI 051100Z 0512/0612 31013KT 9999 FEW015 BKN030 TX14/0612Z TN02/0605Z"
    },
    {
      "icao": "LYPG",
      "alert": "OK",
      "vis_m": 9999,
      "fzfg": false,
      "metar_trigger": false,
      "taf_trigger": false,
      "metar": "METAR LYPG 051430Z 17010KT 9999 FEW040 18/08 Q1022 NOSIG",
      "taf": "TAF LYPG 051100Z 0512/0612 16007KT 9999 SCT040 TX17/0513Z TN07/0605Z"
    },
    {
      "icao": "LZIB",
      "alert": "OK",
      "vis_m": 9999,
      "fzfg": false,
      "metar_trigger": false,
      "taf_trigger": false,
      "metar": "METAR LZIB 051430Z VRB03KT CAVOK 16/01 Q1024 NOSIG",
      "taf": "TAF LZIB 051115Z 0512/0612 21005KT CAVOK"
    },
    {
      "icao": "LZKZ",
      "alert": "OK",
      "vis_m": 9999,
      "fzfg": false,
      "metar_trigger": false,
      "taf_trigger": false,
      "metar": "METAR LZKZ 051430Z 02011KT CAVOK 13/M06 Q1023 NOSIG",
      "taf": "TAF LZKZ 051115Z 0512/0612 03011KT CAVOK"
    },
    {
      "icao": "LZTT",
      "alert": "OK",
      "vis_m": 9999,
      "fzfg": false,
      "metar_trigger": false,
      "taf_trigger": false,
      "metar": "METAR LZTT 051430Z 07009KT CAVOK 11/M07 Q1023 NOSIG",
      "taf": "TAF LZTT 051115Z 0512/0612 09005KT CAVOK"
    },
    {
      "icao": "OEJN",
      "alert": "OK",
      "vis_m": 9999,
      "fzfg": false,
      "metar_trigger": false,
      "taf_trigger": false,
      "metar": "METAR OEJN 051400Z 30012KT 9999 FEW040 30/09 Q1011 NOSIG",
      "taf": "TAF OEJN 051100Z 0512/0618 33015KT 7000 FEW040"
    },
    {
      "icao": "OEMA",
      "alert": "OK",
      "vis_m": 9999,
      "fzfg": false,
      "metar_trigger": false,
      "taf_trigger": false,
      "metar": "METAR OEMA 051400Z VRB03KT CAVOK 27/M03 Q1016 NOSIG",
      "taf": "TAF OEMA 051100Z 0512/0618 09012KT 7000 FEW040"
    },
    {
      "icao": "OJAI",
      "alert": "OK",
      "vis_m": 5000,
      "fzfg": false,
      "metar_trigger": false,
      "taf_trigger": false,
      "metar": "METAR OJAI 051400Z 25008KT 5000 HZ NSC 15/02 Q1021 NOSIG",
      "taf": "TAF OJAI 051100Z 0512/0618 14008KT 5000 HZ FEW035"
    },
    {
      "icao": "OMAA",
      "alert": "OK",
      "vis_m": null,
      "fzfg": false,
      "metar_trigger": false,
      "taf_trigger": false,
      "metar": "",
      "taf": "TAF OMAA 050500Z 0506/0612 33012KT 8000 FEW025"
    },
    {
      "icao": "OMDB",
      "alert": "OK",
      "vis_m": null,
      "fzfg": false,
      "metar_trigger": false,
      "taf_trigger": false,
      "metar": "",
      "taf": "TAF OMDB 050500Z 0506/0612 29013KT 8000 FEW020"
    },
    {
      "icao": "UAAA",
      "alert": "OK",
      "vis_m": 9999,
      "fzfg": false,
      "metar_trigger": false,
      "taf_trigger": false,
      "metar": "METAR UAAA 051400Z VRB01MPS 9999 BKN023 OVC100 04/02 Q1017 NOSIG",
      "taf": "TAF UAAA 051100Z 0512/0612 20003G08MPS 3100 BR BKN011CB OVC030 TX03/0609Z TNM01/0601Z"
    },
    {
      "icao": "UBBB",
      "alert": "OK",
      "vis_m": 9999,
      "fzfg": false,
      "metar_trigger": false,
      "taf_trigger": false,
      "metar": "METAR UBBB 051430Z 18012KT CAVOK 07/03 Q1020 NOSIG",
      "taf": "TAF UBBB 051056Z 0512/0612 18012KT 9999 SCT020 TX10/0512Z TN04/0602Z"
    },
    {
      "icao": "UDSG",
      "alert": "OK",
      "vis_m": 9999,
      "fzfg": false,
      "metar_trigger": false,
      "taf_trigger": false,
      "metar": "METAR UDSG 051400Z 00000KT 9999 NSC M02/M10 Q1021 NOSIG",
      "taf": "TAF UDSG 051100Z 0512/0612 VRB06KT 9999 FEW050"
    },
    {
      "icao": "UDYZ",
      "alert": "OK",
      "vis_m": 9999,
      "fzfg": false,
      "metar_trigger": false,
      "taf_trigger": false,
      "metar": "METAR UDYZ 051400Z 25011KT 9999 NSC 08/M11 Q1020 NOSIG",
      "taf": "TAF UDYZ 051100Z 0512/0612 04006KT 9999 FEW040"
    },
    {
      "icao": "UGKO",
      "alert": "OK",
      "vis_m": 9999,
      "fzfg": false,
      "metar_trigger": false,
      "taf_trigger": false,
      "metar": "METAR UGKO 051400Z 14003KT 090V170 CAVOK 10/M01 Q1023 NOSIG",
      "taf": "TAF UGKO 051100Z 0512/0612 08007KT 9999 SCT030 BKN050 TX10/0512Z TN02/0603Z"
    }
  ]
}