{
  "ts_utc": "2025-12-31T06:41:52Z",
  "threshold_m": 150,
  "source": "stations_override.txt (ICAO list) + aviationweather.gov (METAR/TAF raw)",
  "station_count": 159,
  "stations": [
    {
      "icao": "BIKF",
      "alert": "OK",
      "vis_m": 9999,
      "fzfg": false,
      "metar_trigger": false,
      "taf_trigger": false,
      "metar": "METAR BIKF 310630Z 29020KT 9999 -DZ BKN018 BKN030 06/04 Q1024",
      "taf": "TAF BIKF 310421Z 3106/0106 27027KT 9999 SCT017 BKN020 TX06/3106Z TNM03/0102Z"
    },
    {
      "icao": "BKPR",
      "alert": "OK",
      "vis_m": 9999,
      "fzfg": false,
      "metar_trigger": false,
      "taf_trigger": false,
      "metar": "METAR BKPR 310630Z 06003KT 9999 FEW080 M08/M11 Q1017 NOSIG",
      "taf": "TAF BKPR 310530Z 3106/0106 33008KT 9999 FEW050"
    },
    {
      "icao": "EBCI",
      "alert": "OK",
      "vis_m": 1500,
      "fzfg": true,
      "metar_trigger": false,
      "taf_trigger": false,
      "metar": "METAR EBCI 310620Z 25003KT 220V290 1500 BR FEW001 SCT023 M02/M03 Q1028 TEMPO 0300 FZFG",
      "taf": "TAF EBCI 310510Z 3106/0112 26005KT 3500 BR FEW012 SCT040"
    },
    {
      "icao": "EDDB",
      "alert": "OK",
      "vis_m": 9999,
      "fzfg": false,
      "metar_trigger": false,
      "taf_trigger": false,
      "metar": "METAR EDDB 310620Z AUTO 23009KT 9999 SCT017 BKN027 BKN047 M03/M06 Q1017 TEMPO FM0650 3000 -SN BKN008",
      "taf": "TAF EDDB 310500Z 3106/0106 26010KT 9999 SCT030"
    },
    {
      "icao": "EDDH",
      "alert": "OK",
      "vis_m": 4100,
      "fzfg": false,
      "metar_trigger": false,
      "taf_trigger": false,
      "metar": "METAR EDDH 310620Z AUTO 26009KT 210V290 4100 SHRA BR BKN007 BKN012 BKN018 SCT///TCU 03/02 Q1017 TEMPO 8000 NSW SCT006 BKN010",
      "taf": "TAF EDDH 310500Z 3106/0112 28009KT 9999 BKN025"
    },
    {
      "icao": "EDDK",
      "alert": "OK",
      "vis_m": 7000,
      "fzfg": false,
      "metar_trigger": false,
      "taf_trigger": false,
      "metar": "METAR EDDK 310620Z AUTO 16001KT 7000 OVC007 M01/M02 Q1026 TEMPO 4500 BR BKN004",
      "taf": "TAF EDDK 310500Z 3106/0112 VRB03KT 9999 SCT010 BKN020"
    },
    {
      "icao": "EDDN",
      "alert": "OK",
      "vis_m": 9999,
      "fzfg": false,
      "metar_trigger": false,
      "taf_trigger": false,
      "metar": "METAR EDDN 310620Z AUTO 12006KT 9999 BKN043 M09/M11 Q1024 NOSIG",
      "taf": "TAF EDDN 310500Z 3106/0106 10004KT CAVOK"
    },
    {
      "icao": "EDDS",
      "alert": "OK",
      "vis_m": 9999,
      "fzfg": false,
      "metar_trigger": false,
      "taf_trigger": false,
      "metar": "METAR EDDS 310620Z AUTO VRB01KT CAVOK M10/M10 Q1025 NOSIG",
      "taf": "TAF EDDS 310500Z 3106/0106 VRB02KT CAVOK"
    },
    {
      "icao": "EDFH",
      "alert": "OK",
      "vis_m": 9999,
      "fzfg": false,
      "metar_trigger": false,
      "taf_trigger": false,
      "metar": "METAR EDFH 310620Z 28006KT 9999 BKN005 M04/M05 Q1024",
      "taf": ""
    },
    {
      "icao": "EDJA",
      "alert": "OK",
      "vis_m": 9999,
      "fzfg": false,
      "metar_trigger": false,
      "taf_trigger": false,
      "metar": "METAR EDJA 310620Z 16003KT CAVOK M12/M13 Q1023",
      "taf": "TAF EDJA 310500Z 3106/3115 20003KT CAVOK"
    },
    {
      "icao": "EDLW",
      "alert": "OK",
      "vis_m": 6000,
      "fzfg": false,
      "metar_trigger": false,
      "taf_trigger": false,
      "metar": "METAR EDLW 310620Z 23007KT 6000 SCT004 BKN006 M01/M01 Q1024",
      "taf": "TAF EDLW 310500Z 3106/0106 24009KT 9999 SCT005 BKN015"
    },
    {
      "icao": "EDNY",
      "alert": "OK",
      "vis_m": 9999,
      "fzfg": false,
      "metar_trigger": false,
      "taf_trigger": false,
      "metar": "METAR EDNY 310620Z 06006KT CAVOK M07/M09 Q1025",
      "taf": "TAF EDNY 310500Z 3106/3115 VRB03KT CAVOK"
    },
    {
      "icao": "EDSB",
      "alert": "OK",
      "vis_m": 9999,
      "fzfg": false,
      "metar_trigger": false,
      "taf_trigger": false,
      "metar": "METAR EDSB 310620Z 19003KT CAVOK M08/M09 Q1027",
      "taf": "TAF EDSB 310500Z 3106/0106 20005KT CAVOK"
    },
    {
      "icao": "EETN",
      "alert": "OK",
      "vis_m": 9999,
      "fzfg": false,
      "metar_trigger": false,
      "taf_trigger": false,
      "metar": "METAR EETN 310620Z 01010KT 9999 FEW030 M06/M13 Q1005 NOSIG",
      "taf": "TAF EETN 310530Z 3106/0106 36012KT CAVOK"
    },
    {
      "icao": "EFTU",
      "alert": "OK",
      "vis_m": 9999,
      "fzfg": false,
      "metar_trigger": false,
      "taf_trigger": false,
      "metar": "METAR EFTU 310620Z AUTO VRB01KT CAVOK M14/M16 Q1008",
      "taf": "TAF EFTU 310524Z 3106/0106 27001KT CAVOK"
    },
    {
      "icao": "EGBB",
      "alert": "OK",
      "vis_m": 9999,
      "fzfg": false,
      "metar_trigger": false,
      "taf_trigger": false,
      "metar": "METAR EGBB 310620Z 29002KT CAVOK M03/M04 Q1032",
      "taf": "TAF EGBB 310454Z 3106/0106 VRB04KT 9999 SCT035"
    },
    {
      "icao": "EGGP",
      "alert": "OK",
      "vis_m": 9999,
      "fzfg": false,
      "metar_trigger": false,
      "taf_trigger": false,
      "metar": "METAR EGGP 310620Z 23004KT 9999 MIFG SCT028 M00/M01 Q1032",
      "taf": ""
    },
    {
      "icao": "EGGW",
      "alert": "OK",
      "vis_m": 8000,
      "fzfg": false,
      "metar_trigger": false,
      "taf_trigger": false,
      "metar": "METAR EGGW 310620Z AUTO 32007KT 8000 OVC023 01/00 Q1030",
      "taf": "TAF EGGW 310500Z 3106/0106 31006KT 9999 SCT025"
    },
    {
      "icao": "EGKK",
      "alert": "OK",
      "vis_m": 7000,
      "fzfg": false,
      "metar_trigger": false,
      "taf_trigger": false,
      "metar": "METAR EGKK 310620Z 31003KT 280V360 7000 NSC M01/M01 Q1031",
      "taf": ""
    },
    {
      "icao": "EGNM",
      "alert": "OK",
      "vis_m": 9999,
      "fzfg": false,
      "metar_trigger": false,
      "taf_trigger": false,
      "metar": "METAR EGNM 310620Z 27014KT CAVOK 00/M03 Q1029",
      "taf": "TAF EGNM 310501Z 3106/0106 28006KT 9999 FEW040"
    },
    {
      "icao": "EGPD",
      "alert": "OK",
      "vis_m": 9999,
      "fzfg": false,
      "metar_trigger": false,
      "taf_trigger": false,
      "metar": "METAR EGPD 310620Z COR AUTO 26011KT 9999 NCD 03/M01 Q1026 NOSIG",
      "taf": "TAF EGPD 310457Z 3106/0106 28009KT 9999 SCT030"
    },
    {
      "icao": "EGPF",
      "alert": "OK",
      "vis_m": 9999,
      "fzfg": false,
      "metar_trigger": false,
      "taf_trigger": false,
      "metar": "METAR EGPF 310620Z AUTO 23009KT 9999 FEW020 M02/M02 Q1031",
      "taf": "TAF EGPF 310452Z 3106/0106 VRB02KT 9999 FEW040"
    },
    {
      "icao": "EHBK",
      "alert": "OK",
      "vis_m": 5000,
      "fzfg": false,
      "metar_trigger": false,
      "taf_trigger": false,
      "metar": "METAR EHBK 310625Z AUTO 22007KT 5000 BR FEW001/// SCT002/// BKN003/// M01/M02 Q1027 BECMG BKN002 TEMPO 4000",
      "taf": "TAF EHBK 310517Z 3106/0112 24003KT 6000 BKN002"
    },
    {
      "icao": "EHEH",
      "alert": "OK",
      "vis_m": 8000,
      "fzfg": false,
      "metar_trigger": false,
      "taf_trigger": false,
      "metar": "METAR EHEH 310625Z AUTO 26004KT 8000 BR SCT023 SCT035 M01/M01 Q1027 REFZDZ BLU TEMPO 3500 BR MIFG RMK TREND REMOTE BY EHWX",
      "taf": ""
    },
    {
      "icao": "EKBI",
      "alert": "OK",
      "vis_m": 9999,
      "fzfg": false,
      "metar_trigger": false,
      "taf_trigger": false,
      "metar": "METAR EKBI 310620Z AUTO 28009KT 9999 NCD 03/02 Q1013",
      "taf": "TAF EKBI 310527Z 3106/0106 29008KT 9999 SCT020"
    },
    {
      "icao": "EKCH",
      "alert": "OK",
      "vis_m": 9999,
      "fzfg": false,
      "metar_trigger": false,
      "taf_trigger": false,
      "metar": "METAR EKCH 310630Z 26007KT 9999 BKN005 01/00 Q1011 TEMPO BKN020",
      "taf": "TAF EKCH 310527Z 3106/0106 26010KT 9999 BKN020"
    },
    {
      "icao": "ENAL",
      "alert": "OK",
      "vis_m": 9999,
      "fzfg": false,
      "metar_trigger": false,
      "taf_trigger": false,
      "metar": "METAR ENAL 310620Z 26006KT 230V300 9999 -DZRA FEW007 SCT016 BKN026 04/01 Q1012",
      "taf": "TAF ENAL 310500Z 3106/3115 32008KT 9999 FEW020 SCT040"
    },
    {
      "icao": "ENBR",
      "alert": "OK",
      "vis_m": 9999,
      "fzfg": false,
      "metar_trigger": false,
      "taf_trigger": false,
      "metar": "METAR ENBR 310620Z 00000KT 9999 FEW017 BKN024 01/01 Q1015 TEMPO 1500 SHSNRA VV010 RMK WIND 1200FT 34011KT",
      "taf": "TAF ENBR 310500Z 3106/0106 VRB05KT 9999 -SHRASN SCT010 BKN020"
    },
    {
      "icao": "ENGM",
      "alert": "OK",
      "vis_m": 9999,
      "fzfg": false,
      "metar_trigger": false,
      "taf_trigger": false,
      "metar": "METAR ENGM 310620Z 30003KT 270V330 CAVOK M02/M07 Q1009 NOSIG",
      "taf": "TAF ENGM 310500Z 3106/0106 35005KT CAVOK"
    },
    {
      "icao": "ENHD",
      "alert": "OK",
      "vis_m": 9999,
      "fzfg": false,
      "metar_trigger": false,
      "taf_trigger": false,
      "metar": "METAR ENHD 310620Z 33013KT 300V360 9999 -SHRA SCT012 BKN018 BKN023 05/03 Q1015",
      "taf": "TAF ENHD 310500Z 3106/3115 34018KT 9999 -SHRA FEW015 BKN030"
    },
    {
      "icao": "ENTC",
      "alert": "OK",
      "vis_m": 9999,
      "fzfg": false,
      "metar_trigger": false,
      "taf_trigger": false,
      "metar": "METAR ENTC 310620Z 07003KT 020V100 CAVOK M10/M12 Q1010 NOSIG RMK WIND 2600FT 36013KT",
      "taf": "TAF ENTC 310500Z 3106/0106 22006KT 9999 -SHSN SCT040"
    },
    {
      "icao": "ENTO",
      "alert": "OK",
      "vis_m": 9999,
      "fzfg": false,
      "metar_trigger": false,
      "taf_trigger": false,
      "metar": "METAR ENTO 310620Z 27005KT CAVOK M01/M06 Q1010 NOSIG",
      "taf": "TAF ENTO 310500Z 3106/0106 28005KT CAVOK"
    },
    {
      "icao": "ENVA",
      "alert": "OK",
      "vis_m": 9999,
      "fzfg": false,
      "metar_trigger": false,
      "taf_trigger": false,
      "metar": "METAR ENVA 310620Z 10007KT 9999 BKN045 M02/M02 Q1009 TEMPO 1500 SHSN FEW010 BKN018CB RMK WIND 670FT 15006KT",
      "taf": "TAF ENVA 310500Z 3106/0106 12008KT 9999 -SHSNRA FEW010TCU BKN025"
    },
    {
      "icao": "ENZV",
      "alert": "OK",
      "vis_m": 9999,
      "fzfg": false,
      "metar_trigger": false,
      "taf_trigger": false,
      "metar": "METAR ENZV 310620Z 34007KT 9999 -SHRA BKN027 04/03 Q1016 TEMPO 4000 SHRA BKN010 SCT015CB",
      "taf": "TAF ENZV 310500Z 3106/0106 35005KT 9999 FEW015 BKN030"
    },
    {
      "icao": "EPGD",
      "alert": "OK",
      "vis_m": 9999,
      "fzfg": false,
      "metar_trigger": false,
      "taf_trigger": false,
      "metar": "METAR EPGD 310630Z 30012KT 9999 -SHSN SCT025TCU M04/M05 Q1010 RESHSN",
      "taf": "TAF EPGD 310530Z 3106/0106 30012KT 9999 SCT035"
    },
    {
      "icao": "EPKK",
      "alert": "OK",
      "vis_m": 9999,
      "fzfg": false,
      "metar_trigger": false,
      "taf_trigger": false,
      "metar": "METAR EPKK 310630Z 27011KT 9999 BKN018 M04/M08 Q1013",
      "taf": "TAF EPKK 310530Z 3106/0106 27012KT 9999 BKN020"
    },
    {
      "icao": "EPKT",
      "alert": "OK",
      "vis_m": 2100,
      "fzfg": false,
      "metar_trigger": false,
      "taf_trigger": false,
      "metar": "METAR EPKT 310630Z 27009KT 2100 SHSN FEW011 BKN015CB M06/M07 Q1013",
      "taf": "TAF EPKT 310530Z 3106/0106 29012KT 9999 BKN020"
    },
    {
      "icao": "EPLB",
      "alert": "OK",
      "vis_m": 9999,
      "fzfg": false,
      "metar_trigger": false,
      "taf_trigger": false,
      "metar": "METAR EPLB 310630Z 29010KT 9999 SCT010 BKN013 M04/M05 Q1007",
      "taf": "TAF EPLB 310504Z 3106/0106 30014KT 9999 DRSN BKN025"
    },
    {
      "icao": "EPMO",
      "alert": "OK",
      "vis_m": 1600,
      "fzfg": false,
      "metar_trigger": false,
      "taf_trigger": false,
      "metar": "METAR EPMO 310630Z 28011KT 1600 -SHSN DRSN BKN011 BKN030CB M04/M04 Q1010",
      "taf": "TAF EPMO 310530Z 3106/0106 28012KT 9999 BKN025"
    },
    {
      "icao": "EPPO",
      "alert": "OK",
      "vis_m": 9999,
      "fzfg": false,
      "metar_trigger": false,
      "taf_trigger": false,
      "metar": "METAR EPPO 310630Z 28007KT CAVOK M04/M05 Q1015",
      "taf": ""
    },
    {
      "icao": "EPRA",
      "alert": "OK",
      "vis_m": 9999,
      "fzfg": false,
      "metar_trigger": false,
      "taf_trigger": false,
      "metar": "METAR EPRA 310630Z 31013KT 270V330 9999 -SN BKN010 M04/M06 Q1009",
      "taf": "TAF EPRA 310530Z 3106/3115 30012KT 9999 BKN030"
    },
    {
      "icao": "EPRZ",
      "alert": "OK",
      "vis_m": 9999,
      "fzfg": false,
      "metar_trigger": false,
      "taf_trigger": false,
      "metar": "METAR EPRZ 310630Z 28019KT 9999 -SHSN FEW013CB BKN019 M04/M07 Q1009",
      "taf": "TAF EPRZ 310530Z 3106/0106 29016KT 9999 BKN020"
    },
    {
      "icao": "EPSC",
      "alert": "OK",
      "vis_m": 9999,
      "fzfg": false,
      "metar_trigger": false,
      "taf_trigger": false,
      "metar": "METAR EPSC 310630Z 22003KT 190V250 CAVOK M04/M06 Q1014",
      "taf": "TAF EPSC 310530Z 3106/0106 22005KT CAVOK"
    },
    {
      "icao": "EPSY",
      "alert": "OK",
      "vis_m": 9999,
      "fzfg": false,
      "metar_trigger": false,
      "taf_trigger": false,
      "metar": "METAR EPSY 310630Z 30006KT 9999 FEW035 SCT045 M04/M05 Q1008",
      "taf": "TAF EPSY 310530Z 3106/3115 31006KT CAVOK"
    },
    {
      "icao": "EPWA",
      "alert": "OK",
      "vis_m": 9999,
      "fzfg": false,
      "metar_trigger": false,
      "taf_trigger": false,
      "metar": "METAR EPWA 310630Z 28014KT 9999 SCT010 BKN040 M04/M05 Q1009 TEMPO 3000 SN BKN010",
      "taf": "TAF EPWA 310530Z 3106/0106 29012KT 9999 BKN025"
    },
    {
      "icao": "EPWR",
      "alert": "OK",
      "vis_m": 9999,
      "fzfg": false,
      "metar_trigger": false,
      "taf_trigger": false,
      "metar": "METAR EPWR 310630Z 28010KT 9999 FEW031 M04/M06 Q1016",
      "taf": "TAF EPWR 310530Z 3106/0106 29012KT CAVOK"
    },
    {
      "icao": "ESGG",
      "alert": "OK",
      "vis_m": 9999,
      "fzfg": false,
      "metar_trigger": false,
      "taf_trigger": false,
      "metar": "METAR ESGG 310620Z 27003KT CAVOK M00/M02 Q1009",
      "taf": "TAF ESGG 310530Z 3106/0106 29003KT CAVOK"
    },
    {
      "icao": "ESKN",
      "alert": "OK",
      "vis_m": 9999,
      "fzfg": false,
      "metar_trigger": false,
      "taf_trigger": false,
      "metar": "METAR ESKN 310620Z VRB02KT 9999 FEW039 SCT068 M09/M09 Q1009",
      "taf": "TAF ESKN 310530Z 3106/0106 36003KT CAVOK"
    },
    {
      "icao": "ESMS",
      "alert": "OK",
      "vis_m": 9999,
      "fzfg": false,
      "metar_trigger": false,
      "taf_trigger": false,
      "metar": "METAR ESMS 310620Z 26008KT 9999 SCT009 00/M01 Q1011",
      "taf": "TAF ESMS 310527Z 3106/0106 27009KT 9999 FEW040"
    },
    {
      "icao": "ESSA",
      "alert": "OK",
      "vis_m": 9999,
      "fzfg": false,
      "metar_trigger": false,
      "taf_trigger": false,
      "metar": "METAR ESSA 310620Z 35003KT 320V030 9999 FEW043 M06/M07 Q1009 NOSIG",
      "taf": "TAF ESSA 310530Z 3106/0106 34003KT 9999 SCT020 BKN040"
    },
    {
      "icao": "EYKA",
      "alert": "OK",
      "vis_m": 9999,
      "fzfg": false,
      "metar_trigger": false,
      "taf_trigger": false,
      "metar": "METAR EYKA 310620Z VRB06KT CAVOK M07/M12 Q1004",
      "taf": "TAF EYKA 310500Z 3106/0106 VRB04KT 8000 SCT030"
    },
    {
      "icao": "EYPA",
      "alert": "OK",
      "vis_m": 9999,
      "fzfg": false,
      "metar_trigger": false,
      "taf_trigger": false,
      "metar": "METAR EYPA 310620Z 05004KT CAVOK M06/M14 Q1008",
      "taf": "TAF EYPA 310500Z 3106/0106 VRB05KT 8000 SCT040"
    },
    {
      "icao": "EYVI",
      "alert": "OK",
      "vis_m": 9999,
      "fzfg": false,
      "metar_trigger": false,
      "taf_trigger": false,
      "metar": "METAR EYVI 310620Z 34010KT 310V010 9999 BKN016 M06/M09 Q1001 NOSIG",
      "taf": "TAF EYVI 310501Z 3106/0106 32011KT 3000 SN BR BKN010 OVC015"
    },
    {
      "icao": "GCFV",
      "alert": "OK",
      "vis_m": 9999,
      "fzfg": false,
      "metar_trigger": false,
      "taf_trigger": false,
      "metar": "METAR GCFV 310630Z 28006KT CAVOK 13/10 Q1020",
      "taf": "TAF GCFV 310200Z 3103/0103 30005KT 9999 FEW025 TX21/3114Z TN14/3106Z"
    },
    {
      "icao": "GCLP",
      "alert": "OK",
      "vis_m": 9999,
      "fzfg": false,
      "metar_trigger": false,
      "taf_trigger": false,
      "metar": "METAR GCLP 310630Z 25006KT CAVOK 15/12 Q1020 NOSIG",
      "taf": "TAF GCLP 310200Z 3103/0103 29005KT 9999 SCT030 TX22/3114Z TN15/3106Z"
    },
    {
      "icao": "GCTS",
      "alert": "OK",
      "vis_m": 9999,
      "fzfg": false,
      "metar_trigger": false,
      "taf_trigger": false,
      "metar": "METAR GCTS 310600Z 34005KT 9999 FEW025 16/13 Q1020 NOSIG",
      "taf": "TAF GCTS 310200Z 3103/0103 33004KT 9999 FEW025 TX24/3114Z TN16/3106Z"
    },
    {
      "icao": "GMAD",
      "alert": "OK",
      "vis_m": 9999,
      "fzfg": false,
      "metar_trigger": false,
      "taf_trigger": false,
      "metar": "METAR GMAD 310630Z 07005KT 9999 BKN040 11/11 Q1020 NOSIG",
      "taf": "TAF GMAD 310500Z 3106/0112 06008KT CAVOK"
    },
    {
      "icao": "GMMN",
      "alert": "OK",
      "vis_m": 9999,
      "fzfg": false,
      "metar_trigger": false,
      "taf_trigger": false,
      "metar": "METAR GMMN 310630Z 19010KT 9999 SCT009 BKN016 12/09 Q1018 NOSIG",
      "taf": ""
    },
    {
      "icao": "GMMX",
      "alert": "OK",
      "vis_m": 8000,
      "fzfg": false,
      "metar_trigger": false,
      "taf_trigger": false,
      "metar": "METAR GMMX 310630Z 16004KT 8000 FEW020 SCT080 10/09 Q1019 NOSIG",
      "taf": "TAF GMMX 310500Z 3106/0112 06006KT 8000 SCT020 SCT080"
    },
    {
      "icao": "HEGN",
      "alert": "OK",
      "vis_m": 9999,
      "fzfg": false,
      "metar_trigger": false,
      "taf_trigger": false,
      "metar": "METAR HEGN 310600Z 00000KT CAVOK 13/04 Q1017 NOSIG",
      "taf": "TAF HEGN 310500Z 3106/0112 32010KT CAVOK"
    },
    {
      "icao": "HEMA",
      "alert": "OK",
      "vis_m": 9999,
      "fzfg": false,
      "metar_trigger": false,
      "taf_trigger": false,
      "metar": "METAR HEMA 310600Z 22006KT CAVOK 18/11 Q1017 NOSIG",
      "taf": "TAF HEMA 310500Z 3106/0112 29010KT CAVOK"
    },
    {
      "icao": "HESH",
      "alert": "OK",
      "vis_m": 9999,
      "fzfg": false,
      "metar_trigger": false,
      "taf_trigger": false,
      "metar": "METAR HESH 310600Z 00000KT CAVOK 18/10 Q1016 NOSIG",
      "taf": "TAF HESH 310500Z 3106/0112 25010KT CAVOK"
    },
    {
      "icao": "HESX",
      "alert": "OK",
      "vis_m": 9999,
      "fzfg": false,
      "metar_trigger": false,
      "taf_trigger": false,
      "metar": "METAR HESX 310600Z 19009KT CAVOK 11/04 Q1014 NOSIG",
      "taf": "TAF HESX 310501Z 3106/0112 20009KT 6000 NSC"
    },
    {
      "icao": "LATI",
      "alert": "OK",
      "vis_m": 9999,
      "fzfg": false,
      "metar_trigger": false,
      "taf_trigger": false,
      "metar": "METAR LATI 310620Z 32009KT CAVOK 01/M11 Q1013 NOSIG",
      "taf": "TAF LATI 310500Z 3106/0106 31008KT CAVOK TX07/3112Z TNM05/0105Z"
    },
    {
      "icao": "LBPD",
      "alert": "OK",
      "vis_m": 9999,
      "fzfg": false,
      "metar_trigger": false,
      "taf_trigger": false,
      "metar": "METAR LBPD 310630Z AUTO 27017KT 9999 NCD M01/M10 Q1015 NOSIG",
      "taf": "TAF LBPD 310500Z 3106/0106 27016KT CAVOK"
    },
    {
      "icao": "LBSF",
      "alert": "OK",
      "vis_m": 9999,
      "fzfg": false,
      "metar_trigger": false,
      "taf_trigger": false,
      "metar": "METAR LBSF 310630Z 30004KT 260V320 9999 FEW034 M06/M11 Q1015 NOSIG",
      "taf": "TAF LBSF 310500Z 3106/0106 28012KT CAVOK"
    },
    {
      "icao": "LBWN",
      "alert": "OK",
      "vis_m": 9999,
      "fzfg": false,
      "metar_trigger": false,
      "taf_trigger": false,
      "metar": "METAR LBWN 310630Z AUTO 27004KT 230V290 9999 NCD M04/M07 Q1012 NOSIG",
      "taf": "TAF LBWN 310500Z 3106/0106 29012KT 9999 SCT030"
    },
    {
      "icao": "LCLK",
      "alert": "OK",
      "vis_m": 6000,
      "fzfg": false,
      "metar_trigger": false,
      "taf_trigger": false,
      "metar": "METAR LCLK 310630Z 24013KT 6000 -SHRA FEW010 FEW030CB BKN040 15/12 Q1008 TEMPO 5000 SHRA",
      "taf": ""
    },
    {
      "icao": "LCPH",
      "alert": "OK",
      "vis_m": 8000,
      "fzfg": false,
      "metar_trigger": false,
      "taf_trigger": false,
      "metar": "METAR LCPH 310630Z 26012KT 240V300 8000 -TSRA FEW012 FEW025CB SCT040 BKN070 17/12 Q1008 TEMPO 29025G35KT 3000 TSRA SCT025CB",
      "taf": ""
    },
    {
      "icao": "LEAL",
      "alert": "OK",
      "vis_m": 9999,
      "fzfg": false,
      "metar_trigger": false,
      "taf_trigger": false,
      "metar": "METAR LEAL 310630Z 26008KT CAVOK 11/05 Q1018 NOSIG",
      "taf": "TAF LEAL 310500Z 3106/0106 29006KT CAVOK TX17/3114Z TN07/3106Z"
    },
    {
      "icao": "LEBB",
      "alert": "OK",
      "vis_m": 9999,
      "fzfg": false,
      "metar_trigger": false,
      "taf_trigger": false,
      "metar": "METAR LEBB 310630Z 00000KT 9999 BKN027 07/06 Q1022 NOSIG",
      "taf": "TAF LEBB 310500Z 3106/0106 VRB03KT 9999 SCT010 BKN020 TX10/3114Z TN01/3124Z"
    },
    {
      "icao": "LEBL",
      "alert": "OK",
      "vis_m": 9999,
      "fzfg": false,
      "metar_trigger": false,
      "taf_trigger": false,
      "metar": "METAR LEBL 310630Z 33013G26KT 300V360 9999 FEW020 SCT044 08/05 Q1018 NOSIG",
      "taf": "TAF LEBL 310500Z 3106/0106 34010KT 9999 FEW020 TX15/3112Z TN08/3107Z"
    },
    {
      "icao": "LECH",
      "alert": "OK",
      "vis_m": 9000,
      "fzfg": false,
      "metar_trigger": false,
      "taf_trigger": false,
      "metar": "METAR LECH 310630Z AUTO 19003KT 160V250 9000 NCD 03/01 Q1017",
      "taf": ""
    },
    {
      "icao": "LEMD",
      "alert": "OK",
      "vis_m": 9999,
      "fzfg": false,
      "metar_trigger": false,
      "taf_trigger": false,
      "metar": "METAR LEMD 310630Z VRB01KT 9999 FEW050 M03/M03 Q1019 NOSIG",
      "taf": "TAF LEMD 310500Z 3106/0112 VRB03KT CAVOK TX08/3114Z TNM02/0106Z"
    },
    {
      "icao": "LEMG",
      "alert": "OK",
      "vis_m": 9999,
      "fzfg": false,
      "metar_trigger": false,
      "taf_trigger": false,
      "metar": "METAR LEMG 310630Z 30009KT CAVOK 05/04 Q1019 NOSIG",
      "taf": "TAF LEMG 310500Z 3106/0106 29010KT CAVOK TX18/3114Z TN08/3106Z"
    },
    {
      "icao": "LEVC",
      "alert": "OK",
      "vis_m": 9999,
      "fzfg": false,
      "metar_trigger": false,
      "taf_trigger": false,
      "metar": "METAR LEVC 310630Z 28006KT CAVOK 03/02 Q1018 NOSIG",
      "taf": "TAF LEVC 310500Z 3106/0106 29006KT 9999 FEW020 TX17/3114Z TN05/3106Z"
    },
    {
      "icao": "LEXJ",
      "alert": "OK",
      "vis_m": 8000,
      "fzfg": false,
      "metar_trigger": false,
      "taf_trigger": false,
      "metar": "METAR LEXJ 310630Z VRB02KT 8000 3900E BKN023 OVC030 08/06 Q1022",
      "taf": "TAF LEXJ 310200Z 3103/0103 VRB03KT 9999 SCT015 BKN035 TX10/3115Z TN03/0103Z"
    },
    {
      "icao": "LEZG",
      "alert": "OK",
      "vis_m": 9999,
      "fzfg": false,
      "metar_trigger": false,
      "taf_trigger": false,
      "metar": "METAR LEZG 310630Z 26010KT CAVOK 06/03 Q1018 NOSIG",
      "taf": "TAF LEZG 310500Z 3106/0106 29010KT 9999 FEW020 TX12/3114Z TN05/3106Z"
    },
    {
      "icao": "LEZL",
      "alert": "OK",
      "vis_m": 500,
      "fzfg": false,
      "metar_trigger": false,
      "taf_trigger": false,
      "metar": "METAR LEZL 310630Z 06006KT 0500 R27/1200U R09/1100N FG VV001 06/06 Q1019 NOSIG",
      "taf": "TAF LEZL 310200Z 3103/0103 05005KT CAVOK TX15/3115Z TN04/3106Z"
    },
    {
      "icao": "LFBD",
      "alert": "OK",
      "vis_m": 9999,
      "fzfg": false,
      "metar_trigger": false,
      "taf_trigger": false,
      "metar": "METAR LFBD 310630Z AUTO 05005KT CAVOK M02/M04 Q1023 TEMPO 2000 BR BKN001",
      "taf": "TAF LFBD 310500Z 3106/0112 04005KT CAVOK TX04/3114Z TNM05/0106Z"
    },
    {
      "icao": "LFLL",
      "alert": "OK",
      "vis_m": 9999,
      "fzfg": false,
      "metar_trigger": false,
      "taf_trigger": false,
      "metar": "METAR LFLL 310630Z 31005KT CAVOK M04/M06 Q1023 NOSIG",
      "taf": "TAF LFLL 310500Z 3106/0112 36005KT CAVOK"
    },
    {
      "icao": "LFLS",
      "alert": "OK",
      "vis_m": 9999,
      "fzfg": false,
      "metar_trigger": false,
      "taf_trigger": false,
      "metar": "METAR LFLS 310630Z AUTO VRB02KT CAVOK M05/M06 Q1022 TEMPO BKN013",
      "taf": "TAF LFLS 310200Z 3103/0103 36005KT CAVOK"
    },
    {
      "icao": "LFMN",
      "alert": "OK",
      "vis_m": 9999,
      "fzfg": false,
      "metar_trigger": false,
      "taf_trigger": false,
      "metar": "METAR LFMN 310630Z 34009KT 9999 FEW038 06/00 Q1016 NOSIG",
      "taf": "TAF LFMN 310200Z 3103/0109 33010KT CAVOK"
    },
    {
      "icao": "LFOB",
      "alert": "OK",
      "vis_m": 9999,
      "fzfg": false,
      "metar_trigger": false,
      "taf_trigger": false,
      "metar": "METAR LFOB 310630Z AUTO 29003KT CAVOK M04/M05 Q1029 TEMPO 4000 BR",
      "taf": "TAF LFOB 310500Z 3106/0106 26005KT CAVOK"
    },
    {
      "icao": "LFPO",
      "alert": "OK",
      "vis_m": 9999,
      "fzfg": false,
      "metar_trigger": false,
      "taf_trigger": false,
      "metar": "METAR LFPO 310630Z 36005KT 330V060 CAVOK M01/M02 Q1029 NOSIG",
      "taf": ""
    },
    {
      "icao": "LFSB",
      "alert": "OK",
      "vis_m": 7000,
      "fzfg": true,
      "metar_trigger": false,
      "taf_trigger": false,
      "metar": "METAR LFSB 310630Z AUTO VRB01KT 7000 FEW001 M08/M09 Q1026 TEMPO 0500 FZFG VV///",
      "taf": "TAF LFSB 310500Z 3106/0106 VRB03KT 6000 NSC"
    },
    {
      "icao": "LGAV",
      "alert": "OK",
      "vis_m": 9999,
      "fzfg": false,
      "metar_trigger": false,
      "taf_trigger": false,
      "metar": "METAR LGAV 310620Z 01012KT 340V040 9999 FEW025 BKN045 09/03 Q1009 NOSIG",
      "taf": "TAF LGAV 310500Z 3106/0106 01020G30KT 9999 SCT020"
    },
    {
      "icao": "LGTS",
      "alert": "OK",
      "vis_m": 9999,
      "fzfg": false,
      "metar_trigger": false,
      "taf_trigger": false,
      "metar": "METAR LGTS 310620Z 33021KT 9999 FEW025 03/M08 Q1015 NOSIG",
      "taf": "TAF LGTS 310500Z 3106/0106 34017G27KT 9999 SCT030"
    },
    {
      "icao": "LHBP",
      "alert": "OK",
      "vis_m": 9999,
      "fzfg": false,
      "metar_trigger": false,
      "taf_trigger": false,
      "metar": "METAR LHBP 310630Z 30017KT 9999 FEW020 M03/M07 Q1016 NOSIG",
      "taf": "TAF LHBP 310515Z 3106/0106 31014G24KT CAVOK"
    },
    {
      "icao": "LHDC",
      "alert": "OK",
      "vis_m": 9999,
      "fzfg": false,
      "metar_trigger": false,
      "taf_trigger": false,
      "metar": "METAR LHDC 310615Z AUTO 29004KT 240V320 CAVOK M06/M09 Q1014 NOSIG",
      "taf": "TAF LHDC 310515Z 3106/3115 29008KT CAVOK"
    },
    {
      "icao": "LIBD",
      "alert": "OK",
      "vis_m": 9999,
      "fzfg": false,
      "metar_trigger": false,
      "taf_trigger": false,
      "metar": "METAR LIBD 310620Z 01009KT 330V030 9999 FEW040 06/M06 Q1017",
      "taf": "TAF LIBD 310500Z 3106/0106 36015KT 9999 FEW050"
    },
    {
      "icao": "LIBG",
      "alert": "OK",
      "vis_m": null,
      "fzfg": false,
      "metar_trigger": false,
      "taf_trigger": false,
      "metar": "",
      "taf": ""
    },
    {
      "icao": "LIBP",
      "alert": "OK",
      "vis_m": 9999,
      "fzfg": false,
      "metar_trigger": false,
      "taf_trigger": false,
      "metar": "METAR LIBP 310620Z AUTO 07008KT 9999 OVC062/// 07/M05 Q1020",
      "taf": "TAF LIBP 310500Z 3106/0106 04012KT 9999 SCT045"
    },
    {
      "icao": "LIBR",
      "alert": "OK",
      "vis_m": 9999,
      "fzfg": false,
      "metar_trigger": false,
      "taf_trigger": false,
      "metar": "METAR LIBR 310620Z 36020G30KT 9999 FEW045 08/M03 Q1014",
      "taf": "TAF LIBR 310500Z 3106/0106 35016KT 9999 FEW030"
    },
    {
      "icao": "LICA",
      "alert": "OK",
      "vis_m": 9999,
      "fzfg": false,
      "metar_trigger": false,
      "taf_trigger": false,
      "metar": "METAR LICA 310620Z AUTO 02011KT 9999 OVC054/// 11/02 Q1012",
      "taf": "TAF LICA 310500Z 3106/0106 08010KT 9999 SCT060"
    },
    {
      "icao": "LICC",
      "alert": "OK",
      "vis_m": 9999,
      "fzfg": false,
      "metar_trigger": false,
      "taf_trigger": false,
      "metar": "METAR LICC 310620Z 23003KT 200V270 9999 SCT050 08/05 Q1013",
      "taf": "TAF LICC 310500Z 3106/0106 30007KT 9999 SCT030"
    },
    {
      "icao": "LICJ",
      "alert": "OK",
      "vis_m": 9999,
      "fzfg": false,
      "metar_trigger": false,
      "taf_trigger": false,
      "metar": "METAR LICJ 310620Z 20007KT 9999 VCSH FEW020 SCT060 12/10 Q1013",
      "taf": "TAF LICJ 310500Z 3106/0106 22007KT 9999 SCT030"
    },
    {
      "icao": "LIMC",
      "alert": "OK",
      "vis_m": 9999,
      "fzfg": false,
      "metar_trigger": false,
      "taf_trigger": false,
      "metar": "METAR LIMC 310620Z 03003KT 9999 BKN030 00/M02 Q1020 NOSIG",
      "taf": "TAF LIMC 310500Z 3106/0112 03006KT 9999 BKN030"
    },
    {
      "icao": "LIME",
      "alert": "OK",
      "vis_m": 9999,
      "fzfg": false,
      "metar_trigger": false,
      "taf_trigger": false,
      "metar": "METAR LIME 310620Z 01004KT 9999 FEW035 BKN045 02/01 Q1019 NOSIG",
      "taf": "TAF LIME 310500Z 3106/0106 VRB05KT 9999 BKN030"
    },
    {
      "icao": "LIMF",
      "alert": "OK",
      "vis_m": 5000,
      "fzfg": false,
      "metar_trigger": false,
      "taf_trigger": false,
      "metar": "METAR LIMF 310620Z 33004KT 5000 BR BKN050 01/M00 Q1019",
      "taf": "TAF LIMF 310500Z 3106/0106 VRB05KT 3000 BR SCT010"
    },
    {
      "icao": "LIMJ",
      "alert": "OK",
      "vis_m": 9999,
      "fzfg": false,
      "metar_trigger": false,
      "taf_trigger": false,
      "metar": "METAR LIMJ 310620Z 02019KT 9999 FEW030 07/01 Q1018",
      "taf": "TAF LIMJ 310500Z 3106/0106 02018KT 9999 FEW020"
    },
    {
      "icao": "LIPE",
      "alert": "OK",
      "vis_m": 4500,
      "fzfg": false,
      "metar_trigger": false,
      "taf_trigger": false,
      "metar": "METAR LIPE 310620Z 29004KT 4500 BR SCT070 00/00 Q1020",
      "taf": "TAF LIPE 310500Z 3106/0106 VRB04KT 3000 BR BKN020"
    },
    {
      "icao": "LIPH",
      "alert": "OK",
      "vis_m": 9999,
      "fzfg": false,
      "metar_trigger": false,
      "taf_trigger": false,
      "metar": "METAR LIPH 310620Z VRB02KT 9999 SCT050 M01/M04 Q1020",
      "taf": "TAF LIPH 310500Z 3106/0106 VRB04KT 9999 SCT045"
    },
    {
      "icao": "LIPQ",
      "alert": "OK",
      "vis_m": 9999,
      "fzfg": false,
      "metar_trigger": false,
      "taf_trigger": false,
      "metar": "METAR LIPQ 310620Z AUTO 10004KT 9999 SCT053/// M04/M06 Q1021",
      "taf": "TAF LIPQ 310500Z 3106/0106 VRB05KT 9999 SCT050"
    },
    {
      "icao": "LIPR",
      "alert": "OK",
      "vis_m": 2500,
      "fzfg": false,
      "metar_trigger": false,
      "taf_trigger": false,
      "metar": "METAR LIPR 310620Z VRB01KT 2500 BR BKN050 02/02 Q1019",
      "taf": "TAF LIPR 310500Z 3106/0106 17008KT 3000 BR BKN020"
    },
    {
      "icao": "LIPX",
      "alert": "OK",
      "vis_m": 9999,
      "fzfg": false,
      "metar_trigger": false,
      "taf_trigger": false,
      "metar": "METAR LIPX 310620Z 36004KT 9999 SCT040 BKN070 01/M01 Q1020",
      "taf": "TAF LIPX 310500Z 3106/0106 VRB05KT 9999 SCT040"
    },
    {
      "icao": "LIPY",
      "alert": "OK",
      "vis_m": 9999,
      "fzfg": false,
      "metar_trigger": false,
      "taf_trigger": false,
      "metar": "METAR LIPY 310620Z AUTO VRB02KT 9999 SCT065/// 01/M03 Q1019",
      "taf": "TAF LIPY 310500Z 3106/0106 13006KT 6000 SCT045"
    },
    {
      "icao": "LIPZ",
      "alert": "OK",
      "vis_m": 9999,
      "fzfg": false,
      "metar_trigger": false,
      "taf_trigger": false,
      "metar": "METAR LIPZ 310620Z 03005KT 9999 FEW030 M01/M05 Q1020 NOSIG",
      "taf": "TAF LIPZ 310500Z 3106/0112 06006KT 9999 SCT040"
    },
    {
      "icao": "LIRF",
      "alert": "OK",
      "vis_m": 9999,
      "fzfg": false,
      "metar_trigger": false,
      "taf_trigger": false,
      "metar": "METAR LIRF 310620Z 04010KT 9999 FEW035 06/M02 Q1015 NOSIG",
      "taf": "TAF LIRF 310500Z 3106/0112 03010KT 9999 SCT040"
    },
    {
      "icao": "LIRN",
      "alert": "OK",
      "vis_m": 9999,
      "fzfg": false,
      "metar_trigger": false,
      "taf_trigger": false,
      "metar": "METAR LIRN 310620Z 05010KT CAVOK 06/M05 Q1016 NOSIG",
      "taf": "TAF LIRN 310500Z 3106/0106 05015KT 9999 FEW060"
    },
    {
      "icao": "LIRP",
      "alert": "OK",
      "vis_m": 9999,
      "fzfg": false,
      "metar_trigger": false,
      "taf_trigger": false,
      "metar": "METAR LIRP 310615Z 12004KT CAVOK 05/M01 Q1016 NOSIG",
      "taf": "TAF LIRP 310500Z 3106/0106 09011KT 9999 FEW060"
    },
    {
      "icao": "LIRZ",
      "alert": "OK",
      "vis_m": 9999,
      "fzfg": false,
      "metar_trigger": false,
      "taf_trigger": false,
      "metar": "METAR LIRZ 310620Z AUTO 02008KT 9999 NCD 02/M04 Q1017",
      "taf": "TAF LIRZ 310500Z 3106/0106 04010KT CAVOK"
    },
    {
      "icao": "LJLJ",
      "alert": "OK",
      "vis_m": 9999,
      "fzfg": false,
      "metar_trigger": false,
      "taf_trigger": false,
      "metar": "METAR LJLJ 310630Z VRB01KT 9999 SCT002 M10/M11 Q1020 TEMPO BKN006",
      "taf": "TAF LJLJ 310500Z 3106/0106 VRB02KT 9999 FEW005"
    },
    {
      "icao": "LKMT",
      "alert": "OK",
      "vis_m": 9999,
      "fzfg": false,
      "metar_trigger": false,
      "taf_trigger": false,
      "metar": "METAR LKMT 310630Z 22011KT 9999 BKN042 M05/M08 Q1016 NOSIG",
      "taf": "TAF LKMT 310500Z 3106/0106 24012KT 9999 BKN030"
    },
    {
      "icao": "LKPR",
      "alert": "OK",
      "vis_m": 9999,
      "fzfg": false,
      "metar_trigger": false,
      "taf_trigger": false,
      "metar": "METAR LKPR 310630Z 23012KT CAVOK M06/M08 Q1019 NOSIG",
      "taf": "TAF LKPR 310500Z 3106/0112 25012KT 9999 SCT025 BKN040"
    },
    {
      "icao": "LLBG",
      "alert": "OK",
      "vis_m": 9999,
      "fzfg": false,
      "metar_trigger": false,
      "taf_trigger": false,
      "metar": "METAR LLBG 310620Z COR 18010KT 9999 FEW045 16/07 Q1014 NOSIG",
      "taf": "TAF LLBG 310504Z 3106/0106 17007KT 9999 FEW035"
    },
    {
      "icao": "LMML",
      "alert": "OK",
      "vis_m": 9999,
      "fzfg": false,
      "metar_trigger": false,
      "taf_trigger": false,
      "metar": "METAR LMML 310615Z 24008KT 9999 SCT018 11/10 Q1014 RETSRA NOSIG",
      "taf": "TAF LMML 310500Z 3106/0106 29012KT 9999 SCT020TCU"
    },
    {
      "icao": "LOWW",
      "alert": "OK",
      "vis_m": 9999,
      "fzfg": false,
      "metar_trigger": false,
      "taf_trigger": false,
      "metar": "METAR LOWW 310620Z 29016KT CAVOK M03/M08 Q1020 NOSIG",
      "taf": "TAF LOWW 310515Z 3106/0112 30017KT CAVOK TX06/0111Z TNM03/3106Z"
    },
    {
      "icao": "LPFR",
      "alert": "OK",
      "vis_m": 9999,
      "fzfg": false,
      "metar_trigger": false,
      "taf_trigger": false,
      "metar": "METAR LPFR 310630Z 06011G22KT 050V110 9999 BKN032 12/07 Q1017",
      "taf": "TAF LPFR 310500Z 3106/0106 04007KT CAVOK"
    },
    {
      "icao": "LPMA",
      "alert": "OK",
      "vis_m": 9999,
      "fzfg": false,
      "metar_trigger": false,
      "taf_trigger": false,
      "metar": "METAR LPMA 310630Z 26003KT 210V290 9999 FEW015 16/12 Q1016",
      "taf": "TAF LPMA 310500Z 3106/0106 VRB05KT 9999 SCT015"
    },
    {
      "icao": "LPPR",
      "alert": "OK",
      "vis_m": 9999,
      "fzfg": false,
      "metar_trigger": false,
      "taf_trigger": false,
      "metar": "METAR LPPR 310630Z 10006G17KT 050V140 CAVOK 07/05 Q1019",
      "taf": "TAF LPPR 310500Z 3106/0106 09005KT CAVOK"
    },
    {
      "icao": "LPPS",
      "alert": "OK",
      "vis_m": 9999,
      "fzfg": false,
      "metar_trigger": false,
      "taf_trigger": false,
      "metar": "METAR LPPS 310630Z 06002KT 9999 SCT010 16/15 Q1017",
      "taf": "TAF LPPS 310500Z 3106/0112 20007KT 9999 SCT010"
    },
    {
      "icao": "LPPT",
      "alert": "OK",
      "vis_m": 150,
      "fzfg": false,
      "metar_trigger": false,
      "taf_trigger": false,
      "metar": "METAR LPPT 310630Z 00000KT 0150 R02/0400N FG VV001 05/05 Q1019",
      "taf": "TAF LPPT 310500Z 3106/0112 06005KT 5000 BR SCT002"
    },
    {
      "icao": "LQBK",
      "alert": "OK",
      "vis_m": 9999,
      "fzfg": false,
      "metar_trigger": false,
      "taf_trigger": false,
      "metar": "METAR LQBK 310630Z VRB02KT CAVOK M08/M09 Q1022 NOSIG",
      "taf": ""
    },
    {
      "icao": "LQSA",
      "alert": "OK",
      "vis_m": 9999,
      "fzfg": false,
      "metar_trigger": false,
      "taf_trigger": false,
      "metar": "METAR LQSA 310630Z 35003KT 310V010 9999 SCT040 M06/M09 Q1019 NOSIG",
      "taf": "TAF LQSA 310500Z 3106/0106 29005KT 9999 SCT045 TXM00/3113Z TNM08/0104Z"
    },
    {
      "icao": "LQTZ",
      "alert": "OK",
      "vis_m": 6000,
      "fzfg": false,
      "metar_trigger": false,
      "taf_trigger": false,
      "metar": "METAR LQTZ 310630Z VRB02KT 6000 NSC M09/M10 Q1021",
      "taf": "TAF LQTZ 310500Z 3106/0106 27006KT 9999 SCT040 TX00/3113Z TNM09/3106Z"
    },
    {
      "icao": "LRBC",
      "alert": "OK",
      "vis_m": 9999,
      "fzfg": false,
      "metar_trigger": false,
      "taf_trigger": false,
      "metar": "METAR LRBC 310630Z 31003KT 9999 FEW066 M04/M12 Q1008",
      "taf": "TAF LRBC 310500Z 3106/3115 28010KT CAVOK"
    },
    {
      "icao": "LRBS",
      "alert": "OK",
      "vis_m": 9999,
      "fzfg": false,
      "metar_trigger": false,
      "taf_trigger": false,
      "metar": "METAR LRBS 310630Z 28006KT 230V330 CAVOK M04/M10 Q1012 NOSIG",
      "taf": "TAF LRBS 310500Z 3106/0106 27010KT CAVOK"
    },
    {
      "icao": "LRBV",
      "alert": "OK",
      "vis_m": 9999,
      "fzfg": false,
      "metar_trigger": false,
      "taf_trigger": false,
      "metar": "METAR LRBV 310630Z 31009KT 260V340 9999 FEW029 BKN035 OVC050 M06/M11 Q1009",
      "taf": "TAF LRBV 310500Z 3106/3115 30012KT 9999 -SN SCT025 BKN040"
    },
    {
      "icao": "LRCL",
      "alert": "OK",
      "vis_m": 9999,
      "fzfg": false,
      "metar_trigger": false,
      "taf_trigger": false,
      "metar": "METAR LRCL 310630Z 27009KT 9999 OVC054 M03/M09 Q1011",
      "taf": "TAF LRCL 310500Z 3106/3115 26008KT 9999 BKN040"
    },
    {
      "icao": "LRCV",
      "alert": "OK",
      "vis_m": 9999,
      "fzfg": false,
      "metar_trigger": false,
      "taf_trigger": false,
      "metar": "METAR LRCV 310630Z 29013KT CAVOK M05/M07 Q1014",
      "taf": "TAF LRCV 310500Z 3106/3115 28014KT CAVOK"
    },
    {
      "icao": "LRIA",
      "alert": "OK",
      "vis_m": 9999,
      "fzfg": false,
      "metar_trigger": false,
      "taf_trigger": false,
      "metar": "METAR LRIA 310630Z 30006KT 270V330 9999 -SN FEW013 SCT042 M04/M05 Q1007 RESN",
      "taf": ""
    },
    {
      "icao": "LROP",
      "alert": "OK",
      "vis_m": 9999,
      "fzfg": false,
      "metar_trigger": false,
      "taf_trigger": false,
      "metar": "METAR LROP 310630Z 27013KT CAVOK M05/M11 Q1012 NOSIG",
      "taf": "TAF LROP 310500Z 3106/0106 27010KT CAVOK"
    },
    {
      "icao": "LRSB",
      "alert": "OK",
      "vis_m": 9999,
      "fzfg": false,
      "metar_trigger": false,
      "taf_trigger": false,
      "metar": "METAR LRSB 310630Z 30014KT 9999 SCT050 M05/M09 Q1011",
      "taf": "TAF LRSB 310500Z 3106/0106 29010KT 9999 SCT045"
    },
    {
      "icao": "LRSM",
      "alert": "OK",
      "vis_m": 9999,
      "fzfg": false,
      "metar_trigger": false,
      "taf_trigger": false,
      "metar": "METAR LRSM 310630Z 26013KT 9999 BKN042 M04/M08 Q1013",
      "taf": "TAF LRSM 310500Z 3106/3115 26012KT 9999 BKN040"
    },
    {
      "icao": "LRSV",
      "alert": "OK",
      "vis_m": 9999,
      "fzfg": false,
      "metar_trigger": false,
      "taf_trigger": false,
      "metar": "METAR LRSV 310630Z 27013KT 9999 -SN SCT010 SCT030 M05/M07 Q1004",
      "taf": "TAF LRSV 310500Z 3106/3115 29014KT 9999 BKN025"
    },
    {
      "icao": "LRTM",
      "alert": "OK",
      "vis_m": 9999,
      "fzfg": false,
      "metar_trigger": false,
      "taf_trigger": false,
      "metar": "METAR LRTM 310630Z 23008KT 9999 -SN FEW024 SCT038 BKN048 M04/M08 Q1011",
      "taf": "TAF LRTM 310500Z 3106/3115 24008KT 9999 OVC040"
    },
    {
      "icao": "LRTR",
      "alert": "OK",
      "vis_m": 9999,
      "fzfg": false,
      "metar_trigger": false,
      "taf_trigger": false,
      "metar": "METAR LRTR 310630Z 26005KT CAVOK M07/M08 Q1017",
      "taf": "TAF LRTR 310500Z 3106/0106 28008KT CAVOK"
    },
    {
      "icao": "LTAC",
      "alert": "OK",
      "vis_m": 9999,
      "fzfg": false,
      "metar_trigger": false,
      "taf_trigger": false,
      "metar": "METAR LTAC 310620Z 29006KT 250V360 9999 -RASN FEW011 BKN025 BKN080 00/M03 Q1003 RESN NOSIG RMK RWY21C 26008KT RWY03L 00000KT RWY21R 25008KT RWY03R 00000KT RWY21L 00000KT",
      "taf": "TAF LTAC 310440Z 3106/0106 VRB02KT 9999 SCT040 BKN100"
    },
    {
      "icao": "LTFM",
      "alert": "OK",
      "vis_m": 9999,
      "fzfg": false,
      "metar_trigger": false,
      "taf_trigger": false,
      "metar": "METAR LTFM 310620Z 34017KT 9999 SCT035 BKN080 03/M06 Q1012 NOSIG RMK RWY17L 33016KT RWY34L 33015KT RWY16R 33014KT RWY36 33018KT RWY18 33017KT",
      "taf": "TAF LTFM 310440Z 3106/0112 33018G28KT 9999 SCT035 BKN080"
    },
    {
      "icao": "LUKK",
      "alert": "OK",
      "vis_m": 9999,
      "fzfg": false,
      "metar_trigger": false,
      "taf_trigger": false,
      "metar": "METAR LUKK 310630Z 29012KT 9999 FEW044 M04/M07 Q1006 TEMPO 30016G26KT BKN012 SCT030CB",
      "taf": "TAF LUKK 310522Z 3106/0106 29014KT 9999 BKN030"
    },
    {
      "icao": "LWOH",
      "alert": "OK",
      "vis_m": 9999,
      "fzfg": false,
      "metar_trigger": false,
      "taf_trigger": false,
      "metar": "METAR LWOH 310620Z 34011KT 300V020 9999 BKN045 M03/M13 Q1012",
      "taf": "TAF LWOH 310530Z 3106/0106 33010KT 9999 BKM050"
    },
    {
      "icao": "LWSK",
      "alert": "OK",
      "vis_m": 9999,
      "fzfg": false,
      "metar_trigger": false,
      "taf_trigger": false,
      "metar": "METAR LWSK 310620Z 28003KT CAVOK M05/M11 Q1018 NOSIG",
      "taf": "TAF LWSK 310530Z 3106/0106 02005KT CAVOK"
    },
    {
      "icao": "LYBE",
      "alert": "OK",
      "vis_m": 9999,
      "fzfg": false,
      "metar_trigger": false,
      "taf_trigger": false,
      "metar": "METAR LYBE 310630Z 26010KT CAVOK M05/M07 Q1019 NOSIG",
      "taf": "TAF LYBE 310500Z 3106/0106 30014KT CAVOK TX00/3112Z TNM06/3106Z"
    },
    {
      "icao": "LYNI",
      "alert": "OK",
      "vis_m": 9999,
      "fzfg": false,
      "metar_trigger": false,
      "taf_trigger": false,
      "metar": "METAR LYNI 310630Z 32004KT 9999 SCT027 M03/M07 Q1018 NOSIG",
      "taf": "TAF LYNI 310500Z 3106/0106 28008KT 9999 SCT040 TXM00/3112Z TNM03/3106Z"
    },
    {
      "icao": "LYPG",
      "alert": "OK",
      "vis_m": 9999,
      "fzfg": false,
      "metar_trigger": false,
      "taf_trigger": false,
      "metar": "METAR LYPG 310630Z 36013KT CAVOK 01/M14 Q1018 NOSIG",
      "taf": "TAF LYPG 310500Z 3106/0106 36015G25KT CAVOK TX07/3112Z TNM05/0106Z"
    },
    {
      "icao": "LZIB",
      "alert": "OK",
      "vis_m": 9999,
      "fzfg": false,
      "metar_trigger": false,
      "taf_trigger": false,
      "metar": "METAR LZIB 310630Z 30011KT 9999 FEW020 M03/M08 Q1019 NOSIG",
      "taf": "TAF LZIB 310515Z 3106/0106 31012KT 9999 FEW035"
    },
    {
      "icao": "LZKZ",
      "alert": "OK",
      "vis_m": 9999,
      "fzfg": false,
      "metar_trigger": false,
      "taf_trigger": false,
      "metar": "METAR LZKZ 310630Z VRB03KT CAVOK M03/M11 Q1012 NOSIG",
      "taf": "TAF LZKZ 310515Z 3106/0106 31009KT 9999 SCT030"
    },
    {
      "icao": "LZTT",
      "alert": "OK",
      "vis_m": 9999,
      "fzfg": false,
      "metar_trigger": false,
      "taf_trigger": false,
      "metar": "METAR LZTT 310630Z 28019KT 9999 4500W -SN FEW020 BKN056 M06/M12 Q1008 NOSIG",
      "taf": ""
    },
    {
      "icao": "OEJN",
      "alert": "OK",
      "vis_m": 9999,
      "fzfg": false,
      "metar_trigger": false,
      "taf_trigger": false,
      "metar": "METAR OEJN 310600Z 01002KT CAVOK 22/05 Q1016 NOSIG",
      "taf": "TAF OEJN 310500Z 3106/0112 27005KT CAVOK"
    },
    {
      "icao": "OEMA",
      "alert": "OK",
      "vis_m": 9999,
      "fzfg": false,
      "metar_trigger": false,
      "taf_trigger": false,
      "metar": "METAR OEMA 310600Z 07004KT CAVOK 15/M03 Q1022 NOSIG",
      "taf": "TAF OEMA 310500Z 3106/0112 12010KT 7000 NSC"
    },
    {
      "icao": "OJAI",
      "alert": "OK",
      "vis_m": 4000,
      "fzfg": false,
      "metar_trigger": false,
      "taf_trigger": false,
      "metar": "METAR OJAI 310600Z 00000KT 4000 BR NSC 06/04 Q1016 NOSIG",
      "taf": "TAF OJAI 310420Z 3106/0112 VRB02KT 3000 BR FEW030"
    },
    {
      "icao": "OMAA",
      "alert": "OK",
      "vis_m": 9999,
      "fzfg": false,
      "metar_trigger": false,
      "taf_trigger": false,
      "metar": "METAR OMAA 310600Z 30019KT 9999 FEW040 21/09 Q1019 NOSIG",
      "taf": "TAF OMAA 310500Z 3106/0112 31014KT 8000 SCT040"
    },
    {
      "icao": "OMDB",
      "alert": "OK",
      "vis_m": 9999,
      "fzfg": false,
      "metar_trigger": false,
      "taf_trigger": false,
      "metar": "METAR OMDB 310630Z 28012KT 150V310 9999 SCT045 21/11 Q1018 NOSIG",
      "taf": "TAF OMDB 310500Z 3106/0112 29012KT 8000 FEW040"
    },
    {
      "icao": "UAAA",
      "alert": "OK",
      "vis_m": 9999,
      "fzfg": false,
      "metar_trigger": false,
      "taf_trigger": false,
      "metar": "METAR UAAA 310630Z VRB01MPS 9999 SCT100 BKN200 09/02 Q1011 NOSIG",
      "taf": "TAF UAAA 310505Z 3106/0106 29003G08MPS 5000 BR FU BKN050CB BKN100 TX08/3109Z TNM01/0101Z"
    },
    {
      "icao": "UBBB",
      "alert": "OK",
      "vis_m": 9999,
      "fzfg": false,
      "metar_trigger": false,
      "taf_trigger": false,
      "metar": "METAR UBBB 310630Z 22030G42KT CAVOK 11/M08 Q1005 NOSIG",
      "taf": "TAF UBBB 310509Z 3106/0106 19020G30KT CAVOK TX11/3110Z TN04/0103Z"
    },
    {
      "icao": "UDSG",
      "alert": "OK",
      "vis_m": 9999,
      "fzfg": false,
      "metar_trigger": false,
      "taf_trigger": false,
      "metar": "METAR UDSG 310630Z 21003KT 150V320 9999 SCT043 M10/M13 Q1013 NOSIG",
      "taf": "TAF UDSG 310458Z 3106/0106 VRB06KT 5000 BR BKN030"
    },
    {
      "icao": "UDYZ",
      "alert": "OK",
      "vis_m": 9999,
      "fzfg": false,
      "metar_trigger": false,
      "taf_trigger": false,
      "metar": "METAR UDYZ 310630Z 03001KT 9999 FEW046 M06/M11 Q1017 NOSIG",
      "taf": "TAF UDYZ 310500Z 3106/0106 VRB04KT 9999 SCT040"
    },
    {
      "icao": "UGKO",
      "alert": "OK",
      "vis_m": 9999,
      "fzfg": false,
      "metar_trigger": false,
      "taf_trigger": false,
      "metar": "METAR UGKO 310630Z 08013KT CAVOK 04/M05 Q1007 NOSIG",
      "taf": "TAF UGKO 310500Z 3106/0106 08007KT CAVOK TX05/3112Z TNM00/0101Z"
    }
  ]
}