{
  "ts_utc": "2026-01-23T23:52:12Z",
  "threshold_m": 150,
  "source": "stations_override.txt (ICAO list) + aviationweather.gov (METAR/TAF raw)",
  "station_count": 159,
  "stations": [
    {
      "icao": "BIKF",
      "alert": "OK",
      "vis_m": 9999,
      "fzfg": false,
      "metar_trigger": false,
      "taf_trigger": false,
      "metar": "METAR BIKF 232330Z 07014KT CAVOK 02/M01 Q1004",
      "taf": "TAF BIKF 232210Z 2400/2500 08012KT 9999 FEW025 TX04/2416Z TN02/2401Z"
    },
    {
      "icao": "BKPR",
      "alert": "OK",
      "vis_m": 3000,
      "fzfg": false,
      "metar_trigger": false,
      "taf_trigger": false,
      "metar": "METAR BKPR 232330Z 04003KT 020V090 3000 BR FEW012 M02/M02 Q1008 BECMG 1500 BR",
      "taf": "TAF BKPR 232330Z 2400/2424 VRB03KT 3000 BR SCT010"
    },
    {
      "icao": "EBCI",
      "alert": "OK",
      "vis_m": 9999,
      "fzfg": false,
      "metar_trigger": false,
      "taf_trigger": false,
      "metar": "METAR EBCI 232320Z 17006KT 140V200 CAVOK 06/03 Q0996 NOSIG",
      "taf": "TAF EBCI 232300Z 2400/2506 15005KT CAVOK"
    },
    {
      "icao": "EDDB",
      "alert": "OK",
      "vis_m": 6000,
      "fzfg": false,
      "metar_trigger": false,
      "taf_trigger": false,
      "metar": "METAR EDDB 232320Z AUTO 07010KT 6000 BKN012 OVC038 M05/M07 Q1007 TEMPO 4000 BR BKN009",
      "taf": "TAF EDDB 232300Z 2400/2424 09009KT 6000 BKN011"
    },
    {
      "icao": "EDDH",
      "alert": "OK",
      "vis_m": 7000,
      "fzfg": false,
      "metar_trigger": false,
      "taf_trigger": false,
      "metar": "METAR EDDH 232320Z AUTO 09011KT 7000 BKN014 BKN035 M05/M08 Q1006 NOSIG",
      "taf": "TAF EDDH 232300Z 2400/2506 09010KT 7000 BKN013"
    },
    {
      "icao": "EDDK",
      "alert": "OK",
      "vis_m": 9999,
      "fzfg": false,
      "metar_trigger": false,
      "taf_trigger": false,
      "metar": "METAR EDDK 232320Z AUTO 13007KT 090V150 9999 OVC038 04/M04 Q0999 NOSIG",
      "taf": "TAF EDDK 232300Z 2400/2506 11008KT 9999 BKN040"
    },
    {
      "icao": "EDDN",
      "alert": "OK",
      "vis_m": 8000,
      "fzfg": false,
      "metar_trigger": false,
      "taf_trigger": false,
      "metar": "METAR EDDN 232320Z AUTO 09005KT 8000 NCD M05/M08 Q1000",
      "taf": "TAF EDDN 232300Z 2400/2424 10005KT 8000 NSC"
    },
    {
      "icao": "EDDS",
      "alert": "OK",
      "vis_m": 9999,
      "fzfg": false,
      "metar_trigger": false,
      "taf_trigger": false,
      "metar": "METAR EDDS 232320Z AUTO VRB02KT CAVOK M03/M06 Q0997",
      "taf": "TAF EDDS 232300Z 2400/2424 VRB03KT CAVOK"
    },
    {
      "icao": "EDFH",
      "alert": "OK",
      "vis_m": 9000,
      "fzfg": false,
      "metar_trigger": false,
      "taf_trigger": false,
      "metar": "METAR EDFH 232320Z 15013KT 9000 FEW010 BKN020 M01/M04 Q0998 REFZRA",
      "taf": "TAF EDFH 232300Z 2400/2424 14012KT 9999 BKN010"
    },
    {
      "icao": "EDJA",
      "alert": "OK",
      "vis_m": 4800,
      "fzfg": false,
      "metar_trigger": false,
      "taf_trigger": false,
      "metar": "METAR EDJA 232320Z AUTO VRB02KT 4800 // BKN005/// BKN210/// M05/M07 Q0997",
      "taf": "TAF EDJA 231700Z 2318/2403 04005KT 8000 NSC"
    },
    {
      "icao": "EDLW",
      "alert": "OK",
      "vis_m": 8000,
      "fzfg": false,
      "metar_trigger": false,
      "taf_trigger": false,
      "metar": "METAR EDLW 232320Z AUTO 04005KT 8000 // FEW044/// BKN056/// 00/M01 Q0998",
      "taf": "TAF EDLW 231700Z 2318/2418 08007KT 9999 BKN035"
    },
    {
      "icao": "EDNY",
      "alert": "OK",
      "vis_m": 5000,
      "fzfg": false,
      "metar_trigger": false,
      "taf_trigger": false,
      "metar": "METAR EDNY 232320Z AUTO VRB02KT 5000 // OVC008/// M02/M03 Q0999",
      "taf": "TAF EDNY 231700Z 2318/2403 VRB03KT 8000 NSC"
    },
    {
      "icao": "EDSB",
      "alert": "OK",
      "vis_m": 3700,
      "fzfg": false,
      "metar_trigger": false,
      "taf_trigger": false,
      "metar": "METAR EDSB 232320Z AUTO 19005KT 3700 OVC065/// M01/M02 Q1000",
      "taf": "TAF EDSB 232300Z 2400/2424 02004KT 6000 FEW005 BKN020"
    },
    {
      "icao": "EETN",
      "alert": "OK",
      "vis_m": 9999,
      "fzfg": false,
      "metar_trigger": false,
      "taf_trigger": false,
      "metar": "METAR EETN 232350Z 13005KT 9999 -SN BKN012 M13/M14 Q1025",
      "taf": "TAF EETN 232330Z 2400/2424 12007KT 9999 OVC015"
    },
    {
      "icao": "EFTU",
      "alert": "OK",
      "vis_m": 9999,
      "fzfg": false,
      "metar_trigger": false,
      "taf_trigger": false,
      "metar": "METAR EFTU 232320Z AUTO 08005KT 9999 OVC019 M09/M12 Q1025",
      "taf": "TAF EFTU 232331Z 2400/2424 08006KT 9999 -SN OVC019"
    },
    {
      "icao": "EGBB",
      "alert": "OK",
      "vis_m": 9999,
      "fzfg": false,
      "metar_trigger": false,
      "taf_trigger": false,
      "metar": "METAR EGBB 232320Z 12011KT 9999 FEW014 BKN027 06/04 Q0987",
      "taf": "TAF EGBB 232256Z 2400/2424 12012KT 9999 FEW015 SCT025"
    },
    {
      "icao": "EGGP",
      "alert": "OK",
      "vis_m": 9999,
      "fzfg": false,
      "metar_trigger": false,
      "taf_trigger": false,
      "metar": "METAR EGGP 232320Z 11017KT 9999 SCT022 BKN037 06/04 Q0987",
      "taf": "TAF EGGP 232300Z 2400/2424 10013KT 9999 SCT020"
    },
    {
      "icao": "EGGW",
      "alert": "OK",
      "vis_m": 9999,
      "fzfg": false,
      "metar_trigger": false,
      "taf_trigger": false,
      "metar": "METAR EGGW 232320Z AUTO 14010KT 9999 BKN023 06/03 Q0989",
      "taf": "TAF EGGW 232256Z 2400/2424 13011KT 9999 SCT018"
    },
    {
      "icao": "EGKK",
      "alert": "OK",
      "vis_m": 9999,
      "fzfg": false,
      "metar_trigger": false,
      "taf_trigger": false,
      "metar": "METAR EGKK 232320Z 13008KT 090V160 9999 BKN023 07/04 Q0989",
      "taf": "TAF EGKK 232255Z 2400/2506 12008KT 9999 SCT025"
    },
    {
      "icao": "EGNM",
      "alert": "OK",
      "vis_m": null,
      "fzfg": false,
      "metar_trigger": false,
      "taf_trigger": false,
      "metar": "",
      "taf": "TAF EGNM 231701Z 2318/2418 10010KT 9999 BKN006"
    },
    {
      "icao": "EGPD",
      "alert": "OK",
      "vis_m": 7000,
      "fzfg": false,
      "metar_trigger": false,
      "taf_trigger": false,
      "metar": "METAR EGPD 232320Z AUTO 11018G30KT 7000 -RA OVC010/// //////TCU 05/03 Q0999 TEMPO 4000 RA BKN009",
      "taf": "TAF EGPD 232257Z 2400/2424 11015G28KT 9999 BKN015"
    },
    {
      "icao": "EGPF",
      "alert": "OK",
      "vis_m": 9999,
      "fzfg": false,
      "metar_trigger": false,
      "taf_trigger": false,
      "metar": "METAR EGPF 232320Z AUTO 08016KT 9999 BKN021 OVC025 07/04 Q0992",
      "taf": "TAF EGPF 232254Z 2400/2424 07012KT 9999 FEW016 SCT030"
    },
    {
      "icao": "EHBK",
      "alert": "OK",
      "vis_m": 9999,
      "fzfg": false,
      "metar_trigger": false,
      "taf_trigger": false,
      "metar": "METAR EHBK 232325Z AUTO 14003KT 9999 NSC 04/01 Q0997",
      "taf": "TAF EHBK 232316Z 2400/2506 14005KT CAVOK"
    },
    {
      "icao": "EHEH",
      "alert": "OK",
      "vis_m": 9999,
      "fzfg": false,
      "metar_trigger": false,
      "taf_trigger": false,
      "metar": "METAR EHEH 232325Z AUTO 13004KT 9999 OVC099 04/01 Q0997 BLU",
      "taf": "TAF EHEH 231718Z 2318/2424 12007KT CAVOK"
    },
    {
      "icao": "EKBI",
      "alert": "OK",
      "vis_m": 9999,
      "fzfg": false,
      "metar_trigger": false,
      "taf_trigger": false,
      "metar": "METAR EKBI 232320Z AUTO 10018G28KT 9999 OVC017/// M01/M04 Q1009",
      "taf": "TAF EKBI 232327Z 2400/2424 11015KT 9999 OVC020"
    },
    {
      "icao": "EKCH",
      "alert": "OK",
      "vis_m": 9999,
      "fzfg": false,
      "metar_trigger": false,
      "taf_trigger": false,
      "metar": "METAR EKCH 232320Z AUTO 10016KT 070V130 9999 OVC020/// M00/M05 Q1012 NOSIG",
      "taf": "TAF EKCH 232327Z 2400/2424 09015KT 9999 BKN020"
    },
    {
      "icao": "ENAL",
      "alert": "OK",
      "vis_m": 9999,
      "fzfg": false,
      "metar_trigger": false,
      "taf_trigger": false,
      "metar": "METAR ENAL 232320Z AUTO 14013KT 9999 NCD M01/M10 Q1013",
      "taf": "TAF ENAL 232300Z 2400/2409 13012KT CAVOK"
    },
    {
      "icao": "ENBR",
      "alert": "OK",
      "vis_m": 9999,
      "fzfg": false,
      "metar_trigger": false,
      "taf_trigger": false,
      "metar": "METAR ENBR 232320Z 07003KT CAVOK M04/M12 Q1013 RMK WIND 1200FT 05003KT",
      "taf": "TAF ENBR 232300Z 2400/2424 07005KT CAVOK"
    },
    {
      "icao": "ENGM",
      "alert": "OK",
      "vis_m": 8000,
      "fzfg": false,
      "metar_trigger": false,
      "taf_trigger": false,
      "metar": "METAR ENGM 232320Z 02004KT 8000 -SN FEW016 BKN032 M07/M08 Q1020",
      "taf": "TAF ENGM 232300Z 2400/2424 02008KT 9999 -SN FEW015 OVC035"
    },
    {
      "icao": "ENHD",
      "alert": "OK",
      "vis_m": 9999,
      "fzfg": false,
      "metar_trigger": false,
      "taf_trigger": false,
      "metar": "METAR ENHD 232320Z AUTO 24007KT 9999 NCD M01/M11 Q1012",
      "taf": "TAF ENHD 231400Z 2315/2323 10010KT CAVOK"
    },
    {
      "icao": "ENTC",
      "alert": "OK",
      "vis_m": 9999,
      "fzfg": false,
      "metar_trigger": false,
      "taf_trigger": false,
      "metar": "METAR ENTC 232320Z 16003KT CAVOK M10/M11 Q1020 RMK WIND 2600FT 32006KT",
      "taf": "TAF ENTC 232300Z 2400/2424 VRB03KT CAVOK"
    },
    {
      "icao": "ENTO",
      "alert": "OK",
      "vis_m": 9999,
      "fzfg": false,
      "metar_trigger": false,
      "taf_trigger": false,
      "metar": "METAR ENTO 232320Z AUTO 05008KT 010V090 9999 -SN FEW015/// OVC025/// M03/M06 Q1018",
      "taf": "TAF ENTO 232300Z 2400/2424 04012KT 9999 -SN OVC020"
    },
    {
      "icao": "ENVA",
      "alert": "OK",
      "vis_m": 9999,
      "fzfg": false,
      "metar_trigger": false,
      "taf_trigger": false,
      "metar": "METAR ENVA 232320Z 10012KT CAVOK M05/M13 Q1017 RMK WIND 670FT 13018KT",
      "taf": "TAF ENVA 232300Z 2400/2424 10012KT CAVOK"
    },
    {
      "icao": "ENZV",
      "alert": "OK",
      "vis_m": 9999,
      "fzfg": false,
      "metar_trigger": false,
      "taf_trigger": false,
      "metar": "METAR ENZV 232320Z 09009KT 060V120 CAVOK M00/M09 Q1012",
      "taf": "TAF ENZV 232300Z 2400/2424 09010KT CAVOK"
    },
    {
      "icao": "EPGD",
      "alert": "OK",
      "vis_m": 8000,
      "fzfg": false,
      "metar_trigger": false,
      "taf_trigger": false,
      "metar": "METAR EPGD 232330Z 09007KT 8000 OVC009 M07/M09 Q1012",
      "taf": "TAF EPGD 232330Z 2400/2424 09010KT 9000 BKN012 BKN025"
    },
    {
      "icao": "EPKK",
      "alert": "OK",
      "vis_m": 2900,
      "fzfg": false,
      "metar_trigger": false,
      "taf_trigger": false,
      "metar": "METAR EPKK 232330Z 05006KT 2900 BR OVC006 M02/M04 Q1005",
      "taf": "TAF EPKK 232330Z 2400/2424 06007KT 3000 BR BKN006"
    },
    {
      "icao": "EPKT",
      "alert": "OK",
      "vis_m": 3000,
      "fzfg": false,
      "metar_trigger": false,
      "taf_trigger": false,
      "metar": "METAR EPKT 232330Z 10006KT 3000 BR OVC005 M03/M04 Q1005",
      "taf": "TAF EPKT 232330Z 2400/2424 07006KT 4000 BR BKN007"
    },
    {
      "icao": "EPLB",
      "alert": "OK",
      "vis_m": 9000,
      "fzfg": false,
      "metar_trigger": false,
      "taf_trigger": false,
      "metar": "METAR EPLB 232330Z 09010KT 9000 -SN OVC009 M06/M06 Q1010",
      "taf": "TAF EPLB 232330Z 2400/2424 08010KT 6000 -SN SCT007 OVC012"
    },
    {
      "icao": "EPMO",
      "alert": "OK",
      "vis_m": 8000,
      "fzfg": false,
      "metar_trigger": false,
      "taf_trigger": false,
      "metar": "METAR EPMO 232330Z 08014KT 8000 BKN012 M06/M07 Q1011",
      "taf": "TAF EPMO 232330Z 2400/2424 08010KT 7000 -SN BKN012 OVC020"
    },
    {
      "icao": "EPPO",
      "alert": "OK",
      "vis_m": 4800,
      "fzfg": false,
      "metar_trigger": false,
      "taf_trigger": false,
      "metar": "METAR EPPO 232330Z 09008KT 4800 BR OVC007 M05/M07 Q1008",
      "taf": "TAF EPPO 232330Z 2400/2424 09010KT 5000 BR OVC007"
    },
    {
      "icao": "EPRA",
      "alert": "OK",
      "vis_m": 8000,
      "fzfg": false,
      "metar_trigger": false,
      "taf_trigger": false,
      "metar": "METAR EPRA 232330Z 08010KT 8000 -SN BKN009 OVC021 M04/M06 Q1009",
      "taf": "TAF EPRA 232330Z 2400/2409 08010KT 8000 BKN008 OVC020"
    },
    {
      "icao": "EPRZ",
      "alert": "OK",
      "vis_m": 9999,
      "fzfg": false,
      "metar_trigger": false,
      "taf_trigger": false,
      "metar": "METAR EPRZ 232330Z 08011KT 9999 OVC007 M02/M03 Q1007",
      "taf": "TAF EPRZ 232330Z 2400/2424 09010KT 8000 OVC007"
    },
    {
      "icao": "EPSC",
      "alert": "OK",
      "vis_m": 9999,
      "fzfg": false,
      "metar_trigger": false,
      "taf_trigger": false,
      "metar": "METAR EPSC 232330Z 08008KT 9999 OVC021 M05/M08 Q1009",
      "taf": "TAF EPSC 232330Z 2400/2424 09010KT 7000 OVC025"
    },
    {
      "icao": "EPSY",
      "alert": "OK",
      "vis_m": 6000,
      "fzfg": false,
      "metar_trigger": false,
      "taf_trigger": false,
      "metar": "METAR EPSY 232330Z 09005KT 020V150 6000 -SN SCT008 OVC012 M08/M10 Q1013",
      "taf": "TAF EPSY 232330Z 2400/2409 09009KT 6000 BKN009 OVC016"
    },
    {
      "icao": "EPWA",
      "alert": "OK",
      "vis_m": 9999,
      "fzfg": false,
      "metar_trigger": false,
      "taf_trigger": false,
      "metar": "METAR EPWA 232330Z 08010KT 9999 BKN014 OVC022 M05/M07 Q1011 NOSIG",
      "taf": "TAF EPWA 232330Z 2400/2424 08010KT 7000 -SN BKN012 OVC020"
    },
    {
      "icao": "EPWR",
      "alert": "OK",
      "vis_m": 5000,
      "fzfg": false,
      "metar_trigger": false,
      "taf_trigger": false,
      "metar": "METAR EPWR 232330Z 08007KT 5000 -SN BR FEW011 OVC020 M03/M05 Q1006",
      "taf": "TAF EPWR 232330Z 2400/2424 08006KT 5000 BR FEW011 OVC021"
    },
    {
      "icao": "ESGG",
      "alert": "OK",
      "vis_m": 9999,
      "fzfg": false,
      "metar_trigger": false,
      "taf_trigger": false,
      "metar": "METAR ESGG 232320Z 09012KT 9999 -SN OVC023 M03/M08 Q1015",
      "taf": "TAF ESGG 232330Z 2400/2424 08009KT 9999 OVC022"
    },
    {
      "icao": "ESKN",
      "alert": "OK",
      "vis_m": 9999,
      "fzfg": false,
      "metar_trigger": false,
      "taf_trigger": false,
      "metar": "METAR ESKN 232320Z 04010KT 9999 -SN BKN020 M03/M06 Q1020",
      "taf": "TAF ESKN 232330Z 2400/2424 05008KT 9999 -SN OVC020"
    },
    {
      "icao": "ESMS",
      "alert": "OK",
      "vis_m": 9999,
      "fzfg": false,
      "metar_trigger": false,
      "taf_trigger": false,
      "metar": "METAR ESMS 232320Z 10013KT 9999 BKN020 BKN024 M01/M05 Q1011",
      "taf": "TAF ESMS 232327Z 2400/2424 09014KT 9999 OVC020"
    },
    {
      "icao": "ESSA",
      "alert": "OK",
      "vis_m": 9999,
      "fzfg": false,
      "metar_trigger": false,
      "taf_trigger": false,
      "metar": "METAR ESSA 232320Z 10007KT 9999 OVC017 M04/M08 Q1022 NOSIG",
      "taf": "TAF ESSA 232330Z 2400/2424 09007KT 9999 OVC018"
    },
    {
      "icao": "EYKA",
      "alert": "OK",
      "vis_m": 9999,
      "fzfg": false,
      "metar_trigger": false,
      "taf_trigger": false,
      "metar": "METAR EYKA 232350Z 07006KT CAVOK M14/M16 Q1019",
      "taf": "TAF EYKA 232300Z 2400/2424 09008KT 9000 SCT035"
    },
    {
      "icao": "EYPA",
      "alert": "OK",
      "vis_m": 9999,
      "fzfg": false,
      "metar_trigger": false,
      "taf_trigger": false,
      "metar": "METAR EYPA 232350Z AUTO 10013KT 9999 BKN050/// M09/M12 Q1018",
      "taf": "TAF EYPA 232300Z 2400/2424 11014KT 9000 SCT045"
    },
    {
      "icao": "EYVI",
      "alert": "OK",
      "vis_m": 9999,
      "fzfg": false,
      "metar_trigger": false,
      "taf_trigger": false,
      "metar": "METAR EYVI 232350Z 09006KT 060V120 CAVOK M12/M14 Q1018 NOSIG",
      "taf": "TAF EYVI 232300Z 2400/2424 09010KT 9000 SCT030"
    },
    {
      "icao": "GCFV",
      "alert": "OK",
      "vis_m": 9999,
      "fzfg": false,
      "metar_trigger": false,
      "taf_trigger": false,
      "metar": "METAR GCFV 232330Z AUTO 33011KT CAVOK 17/09 Q1023",
      "taf": "TAF GCFV 232000Z 2321/2421 36012KT 9999 SCT020 TX21/2414Z TN15/2406Z"
    },
    {
      "icao": "GCLP",
      "alert": "OK",
      "vis_m": 9999,
      "fzfg": false,
      "metar_trigger": false,
      "taf_trigger": false,
      "metar": "METAR GCLP 232330Z 36012G22KT 330V030 9999 FEW035 BKN050 18/12 Q1023 NOSIG",
      "taf": "TAF GCLP 232000Z 2321/2421 36018KT 9999 BKN020 TX20/2414Z TN14/2406Z"
    },
    {
      "icao": "GCTS",
      "alert": "OK",
      "vis_m": 9999,
      "fzfg": false,
      "metar_trigger": false,
      "taf_trigger": false,
      "metar": "METAR GCTS 232330Z VRB02KT 9999 BKN035 19/14 Q1023 NOSIG",
      "taf": "TAF GCTS 232000Z 2321/2421 14007KT 9999 BKN035 TX22/2414Z TN15/2406Z"
    },
    {
      "icao": "GMAD",
      "alert": "OK",
      "vis_m": 9999,
      "fzfg": false,
      "metar_trigger": false,
      "taf_trigger": false,
      "metar": "METAR GMAD 232330Z 26012KT 9999 FEW016 13/11 Q1018 NOSIG",
      "taf": "TAF GMAD 232300Z 2400/2506 24007KT 8000 SCT016"
    },
    {
      "icao": "GMMN",
      "alert": "OK",
      "vis_m": 6000,
      "fzfg": false,
      "metar_trigger": false,
      "taf_trigger": false,
      "metar": "METAR GMMN 232330Z 30019KT 6000 -RA SCT003 BKN013 10/09 Q1015 NOSIG",
      "taf": "TAF GMMN 232300Z 2400/2506 26016KT 8000 -RA SCT003 BKN020"
    },
    {
      "icao": "GMMX",
      "alert": "OK",
      "vis_m": 8000,
      "fzfg": false,
      "metar_trigger": false,
      "taf_trigger": false,
      "metar": "METAR GMMX 232330Z 25008KT 8000 SCT026 11/09 Q1018 NOSIG",
      "taf": "TAF GMMX 232300Z 2400/2506 24010KT 8000 SCT023"
    },
    {
      "icao": "HEGN",
      "alert": "OK",
      "vis_m": 9999,
      "fzfg": false,
      "metar_trigger": false,
      "taf_trigger": false,
      "metar": "METAR HEGN 232300Z 30006KT CAVOK 16/05 Q1014 NOSIG",
      "taf": "TAF HEGN 232300Z 2400/2506 29014KT CAVOK"
    },
    {
      "icao": "HEMA",
      "alert": "OK",
      "vis_m": 9999,
      "fzfg": false,
      "metar_trigger": false,
      "taf_trigger": false,
      "metar": "METAR HEMA 232300Z 34005KT CAVOK 19/15 Q1013 NOSIG",
      "taf": "TAF HEMA 232300Z 2400/2506 31012KT CAVOK"
    },
    {
      "icao": "HESH",
      "alert": "OK",
      "vis_m": 9999,
      "fzfg": false,
      "metar_trigger": false,
      "taf_trigger": false,
      "metar": "METAR HESH 232300Z 32003KT CAVOK 19/16 Q1013 NOSIG",
      "taf": "TAF HESH 232300Z 2400/2506 35010KT CAVOK"
    },
    {
      "icao": "HESX",
      "alert": "OK",
      "vis_m": 9999,
      "fzfg": false,
      "metar_trigger": false,
      "taf_trigger": false,
      "metar": "METAR HESX 232300Z 21009KT CAVOK 12/M01 Q1013 NOSIG",
      "taf": "TAF HESX 232300Z 2400/2506 19007KT 6000 NSC"
    },
    {
      "icao": "LATI",
      "alert": "OK",
      "vis_m": 7000,
      "fzfg": false,
      "metar_trigger": false,
      "taf_trigger": false,
      "metar": "METAR LATI 232350Z 18003KT 7000 FEW047 SCT060 07/05 Q1008 NOSIG",
      "taf": "TAF LATI 232300Z 2400/2424 VRB05KT 8000 SCT040 BKN082 TX17/2412Z TN05/2405Z"
    },
    {
      "icao": "LBPD",
      "alert": "OK",
      "vis_m": 1000,
      "fzfg": false,
      "metar_trigger": false,
      "taf_trigger": false,
      "metar": "METAR LBPD 232330Z AUTO 00000KT 1000 0900E R30/1200D BR VV002 01/01 Q1011",
      "taf": "TAF LBPD 232300Z 2400/2424 VRB04KT 0500 FG OVC002"
    },
    {
      "icao": "LBSF",
      "alert": "OK",
      "vis_m": 750,
      "fzfg": true,
      "metar_trigger": false,
      "taf_trigger": false,
      "metar": "METAR LBSF 232330Z AUTO 09003KT 0750 R27/1100N FG VV002 M00/M01 Q1010 TEMPO 0300 FZFG",
      "taf": "TAF LBSF 232300Z 2400/2424 VRB04KT 0400 FZFG OVC001"
    },
    {
      "icao": "LBWN",
      "alert": "OK",
      "vis_m": 9000,
      "fzfg": false,
      "metar_trigger": false,
      "taf_trigger": false,
      "metar": "METAR LBWN 232330Z AUTO 29003KT 9000 OVC007/// 00/00 Q1011 TEMPO 5000 BR OVC005",
      "taf": "TAF LBWN 232300Z 2400/2424 VRB03KT 7000 OVC007"
    },
    {
      "icao": "LCLK",
      "alert": "OK",
      "vis_m": 5000,
      "fzfg": false,
      "metar_trigger": false,
      "taf_trigger": false,
      "metar": "METAR LCLK 232330Z 09016KT 5000 RA FEW012 SCT018 BKN030 15/13 Q1013 NOSIG",
      "taf": "TAF LCLK 232330Z 2400/2500 12018KT 9999 SCT020 BKN030"
    },
    {
      "icao": "LCPH",
      "alert": "OK",
      "vis_m": 9999,
      "fzfg": false,
      "metar_trigger": false,
      "taf_trigger": false,
      "metar": "METAR LCPH 232330Z 09009KT 9999 -RA FEW020CB BKN045 BKN060 15/11 Q1012 NOSIG RMK DISTANT CB TO W",
      "taf": "TAF LCPH 232330Z 2400/2500 11012KT 9999 SCT030 BKN040"
    },
    {
      "icao": "LEAL",
      "alert": "OK",
      "vis_m": 9999,
      "fzfg": false,
      "metar_trigger": false,
      "taf_trigger": false,
      "metar": "METAR LEAL 232330Z 00000KT CAVOK 10/04 Q0998 NOSIG",
      "taf": "TAF LEAL 232300Z 2400/2424 25006KT 9999 FEW050 TX15/2413Z TN08/2406Z"
    },
    {
      "icao": "LEBB",
      "alert": "OK",
      "vis_m": 9999,
      "fzfg": false,
      "metar_trigger": false,
      "taf_trigger": false,
      "metar": "METAR LEBB 232330Z AUTO VRB06KT CAVOK 09/00 Q0994",
      "taf": ""
    },
    {
      "icao": "LEBL",
      "alert": "OK",
      "vis_m": 9999,
      "fzfg": false,
      "metar_trigger": false,
      "taf_trigger": false,
      "metar": "METAR LEBL 232330Z 35003KT 310V010 9999 FEW020 08/03 Q0997 NOSIG",
      "taf": "TAF LEBL 232300Z 2400/2424 32009KT 9999 FEW020 TX11/2412Z TN06/2406Z"
    },
    {
      "icao": "LECH",
      "alert": "OK",
      "vis_m": 9000,
      "fzfg": false,
      "metar_trigger": false,
      "taf_trigger": false,
      "metar": "METAR LECH 232330Z AUTO 23005KT 190V280 9000 NSC 08/01 Q0996",
      "taf": ""
    },
    {
      "icao": "LEMD",
      "alert": "OK",
      "vis_m": 9999,
      "fzfg": false,
      "metar_trigger": false,
      "taf_trigger": false,
      "metar": "METAR LEMD 232330Z 24013KT 210V270 9999 -RA BKN018 BKN045 03/02 Q0995 NOSIG",
      "taf": "TAF LEMD 232300Z 2400/2506 23010KT 9999 SCT030 TX07/2414Z TNM00/2408Z"
    },
    {
      "icao": "LEMG",
      "alert": "OK",
      "vis_m": 9999,
      "fzfg": false,
      "metar_trigger": false,
      "taf_trigger": false,
      "metar": "METAR LEMG 232330Z 29006KT 260V320 9999 FEW050 09/04 Q1004 NOSIG",
      "taf": "TAF LEMG 232300Z 2400/2424 30012KT 9999 SCT050 TX14/2414Z TN08/2407Z"
    },
    {
      "icao": "LEVC",
      "alert": "OK",
      "vis_m": 9999,
      "fzfg": false,
      "metar_trigger": false,
      "taf_trigger": false,
      "metar": "METAR LEVC 232330Z 29007KT 260V320 9999 SCT069 10/03 Q0997 NOSIG",
      "taf": "TAF LEVC 232300Z 2400/2424 26010KT 9999 FEW040 TX13/2413Z TN07/2406Z"
    },
    {
      "icao": "LEXJ",
      "alert": "OK",
      "vis_m": 9999,
      "fzfg": false,
      "metar_trigger": false,
      "taf_trigger": false,
      "metar": "METAR LEXJ 232330Z AUTO 31009KT 270V010 9999 FEW044 BKN050 BKN058 08/00 Q0993",
      "taf": "TAF LEXJ 232000Z 2321/2421 20009KT 9999 FEW040 TX13/2414Z TN05/2406Z"
    },
    {
      "icao": "LEZG",
      "alert": "OK",
      "vis_m": 9999,
      "fzfg": false,
      "metar_trigger": false,
      "taf_trigger": false,
      "metar": "METAR LEZG 232330Z 22003KT 9999 OVC050 08/04 Q0995 NOSIG",
      "taf": "TAF LEZG 232300Z 2400/2424 15006KT 9999 SCT050 TX10/2415Z TN04/2406Z"
    },
    {
      "icao": "LEZL",
      "alert": "OK",
      "vis_m": 9999,
      "fzfg": false,
      "metar_trigger": false,
      "taf_trigger": false,
      "metar": "METAR LEZL 232330Z 27010KT CAVOK 08/05 Q1006 NOSIG",
      "taf": "TAF LEZL 232000Z 2321/2421 24008KT 9999 FEW040 TX15/2415Z TN08/2407Z"
    },
    {
      "icao": "LFBD",
      "alert": "OK",
      "vis_m": 9999,
      "fzfg": false,
      "metar_trigger": false,
      "taf_trigger": false,
      "metar": "METAR LFBD 232330Z AUTO 15006KT 9999 FEW049 OVC200 06/02 Q0993 TEMPO 4000 -SHRA BKN025TCU",
      "taf": "TAF LFBD 232300Z 2400/2506 15005KT CAVOK TX10/2412Z TN05/2406Z"
    },
    {
      "icao": "LFLL",
      "alert": "OK",
      "vis_m": 7000,
      "fzfg": false,
      "metar_trigger": false,
      "taf_trigger": false,
      "metar": "METAR LFLL 232330Z 16005KT 7000 NSC 02/01 Q0999 NOSIG",
      "taf": "TAF LFLL 232300Z 2400/2506 14005KT 8000 NSC"
    },
    {
      "icao": "LFLS",
      "alert": "OK",
      "vis_m": 9999,
      "fzfg": false,
      "metar_trigger": false,
      "taf_trigger": false,
      "metar": "METAR LFLS 232330Z AUTO 12004KT CAVOK M02/M03 Q0999",
      "taf": ""
    },
    {
      "icao": "LFMN",
      "alert": "OK",
      "vis_m": 9999,
      "fzfg": false,
      "metar_trigger": false,
      "taf_trigger": false,
      "metar": "METAR LFMN 232330Z 08015KT 9999 -SHRA SCT017 BKN026TCU BKN036 11/09 Q0998 TEMPO VRB15G25KT 2000 TSRA BKN014 SCT020CB",
      "taf": "TAF LFMN 232000Z 2321/2503 10015KT 9999 BKN020"
    },
    {
      "icao": "LFOB",
      "alert": "OK",
      "vis_m": 9999,
      "fzfg": false,
      "metar_trigger": false,
      "taf_trigger": false,
      "metar": "METAR LFOB 232330Z AUTO 17009KT CAVOK 04/02 Q0994 NOSIG",
      "taf": "TAF LFOB 232300Z 2400/2424 17010G20KT 9999 BKN040"
    },
    {
      "icao": "LFPO",
      "alert": "OK",
      "vis_m": 9999,
      "fzfg": false,
      "metar_trigger": false,
      "taf_trigger": false,
      "metar": "METAR LFPO 232330Z 18007KT CAVOK 05/02 Q0995 NOSIG",
      "taf": "TAF LFPO 232300Z 2400/2506 17008KT CAVOK"
    },
    {
      "icao": "LFSB",
      "alert": "OK",
      "vis_m": 9000,
      "fzfg": false,
      "metar_trigger": false,
      "taf_trigger": false,
      "metar": "METAR LFSB 232330Z AUTO 14005KT 9000 -RA FEW031 BKN046 BKN068 02/00 Q1000 TEMPO 3000 -RA BKN010",
      "taf": "TAF LFSB 232300Z 2400/2424 VRB03KT 6000 BKN025"
    },
    {
      "icao": "LGAV",
      "alert": "OK",
      "vis_m": 9999,
      "fzfg": false,
      "metar_trigger": false,
      "taf_trigger": false,
      "metar": "METAR LGAV 232320Z VRB01KT 9999 R03R/1500N R03L/1000V1300U FEW010 SCT020 BKN050 09/08 Q1008",
      "taf": "TAF LGAV 232300Z 2400/2424 VRB05KT 9999 FEW010 SCT030 BKN050"
    },
    {
      "icao": "LGTS",
      "alert": "OK",
      "vis_m": 9999,
      "fzfg": false,
      "metar_trigger": false,
      "taf_trigger": false,
      "metar": "METAR LGTS 232320Z 27005KT 9999 FEW018 BKN025 09/07 Q1010 NOSIG",
      "taf": "TAF LGTS 232300Z 2400/2424 VRB03KT 9999 SCT020"
    },
    {
      "icao": "LHBP",
      "alert": "OK",
      "vis_m": 7000,
      "fzfg": false,
      "metar_trigger": false,
      "taf_trigger": false,
      "metar": "METAR LHBP 232330Z 09005KT 7000 SCT018 OVC047 01/M00 Q1005 NOSIG",
      "taf": "TAF LHBP 232315Z 2400/2424 09007KT 7000 FEW010 SCT030 BKN080"
    },
    {
      "icao": "LHDC",
      "alert": "OK",
      "vis_m": 4100,
      "fzfg": false,
      "metar_trigger": false,
      "taf_trigger": false,
      "metar": "METAR LHDC 232315Z AUTO 09003KT 4100 -RA BR BKN040 OVC092 //////TCU 02/01 Q1007",
      "taf": "TAF LHDC 231415Z 2315/2324 08004KT 8000 FEW040 BKN070"
    },
    {
      "icao": "LIBD",
      "alert": "OK",
      "vis_m": 9999,
      "fzfg": false,
      "metar_trigger": false,
      "taf_trigger": false,
      "metar": "METAR LIBD 232320Z 20007KT CAVOK 06/06 Q1005",
      "taf": "TAF LIBD 232300Z 2400/2424 16007KT 6000 FEW030"
    },
    {
      "icao": "LIBG",
      "alert": "OK",
      "vis_m": null,
      "fzfg": false,
      "metar_trigger": false,
      "taf_trigger": false,
      "metar": "",
      "taf": "TAF LIBG 231700Z 2318/2403 VRB03KT 9999 FEW020"
    },
    {
      "icao": "LIBP",
      "alert": "OK",
      "vis_m": 2500,
      "fzfg": false,
      "metar_trigger": false,
      "taf_trigger": false,
      "metar": "METAR LIBP 232320Z AUTO 24003KT 2500 BR SCT180/// 06/06 Q1003",
      "taf": "TAF LIBP 232300Z 2400/2424 VRB05KT 3000 BR BKN040"
    },
    {
      "icao": "LIBR",
      "alert": "OK",
      "vis_m": 9999,
      "fzfg": false,
      "metar_trigger": false,
      "taf_trigger": false,
      "metar": "METAR LIBR 232250Z 21006KT CAVOK 10/09 Q1006",
      "taf": "TAF LIBR 232300Z 2400/2424 17008KT 6000 SCT015"
    },
    {
      "icao": "LICA",
      "alert": "OK",
      "vis_m": 9999,
      "fzfg": false,
      "metar_trigger": false,
      "taf_trigger": false,
      "metar": "METAR LICA 232320Z AUTO 08006KT 9999 NCD 05/05 Q1007",
      "taf": "TAF LICA 232300Z 2400/2424 VRB05KT 9999 SCT020"
    },
    {
      "icao": "LICC",
      "alert": "OK",
      "vis_m": 9999,
      "fzfg": false,
      "metar_trigger": false,
      "taf_trigger": false,
      "metar": "METAR LICC 232320Z 26006KT 9999 SCT060 11/09 Q1007",
      "taf": "TAF LICC 232300Z 2400/2424 27006KT 9999 SCT030"
    },
    {
      "icao": "LICJ",
      "alert": "OK",
      "vis_m": 9999,
      "fzfg": false,
      "metar_trigger": false,
      "taf_trigger": false,
      "metar": "METAR LICJ 232320Z 18013KT CAVOK 14/09 Q1006",
      "taf": "TAF LICJ 232300Z 2400/2424 22012KT 9999 SCT030"
    },
    {
      "icao": "LIMC",
      "alert": "OK",
      "vis_m": 2000,
      "fzfg": false,
      "metar_trigger": false,
      "taf_trigger": false,
      "metar": "METAR LIMC 232320Z 02003KT 2000 -DZ BR SCT005 BKN020 03/03 Q1003 NOSIG",
      "taf": "TAF LIMC 232300Z 2400/2506 VRB04KT 3000 RA BR OVC025"
    },
    {
      "icao": "LIME",
      "alert": "OK",
      "vis_m": 2800,
      "fzfg": false,
      "metar_trigger": false,
      "taf_trigger": false,
      "metar": "METAR LIME 232320Z AUTO VRB01KT 2800 DZ BR FEW014/// OVC027/// 03/03 Q1002 RERA",
      "taf": "TAF LIME 232300Z 2400/2424 VRB04KT 2500 RA BR SCT015 BKN040"
    },
    {
      "icao": "LIMF",
      "alert": "OK",
      "vis_m": 3000,
      "fzfg": false,
      "metar_trigger": false,
      "taf_trigger": false,
      "metar": "METAR LIMF 232320Z 06003KT 030V090 3000 -RA BR OVC020 03/01 Q1003",
      "taf": "TAF LIMF 232300Z 2400/2424 VRB03KT 4000 RA BKN060"
    },
    {
      "icao": "LIMJ",
      "alert": "OK",
      "vis_m": 9999,
      "fzfg": false,
      "metar_trigger": false,
      "taf_trigger": false,
      "metar": "METAR LIMJ 232320Z 04017KT 9999 BKN026 05/02 Q1000",
      "taf": "TAF LIMJ 232300Z 2400/2424 03015KT 7000 RA BKN030"
    },
    {
      "icao": "LIPE",
      "alert": "OK",
      "vis_m": 500,
      "fzfg": false,
      "metar_trigger": false,
      "taf_trigger": false,
      "metar": "METAR LIPE 232320Z 01003KT 0500 R12/1500D R30/1300U -RA FG OVC002 05/05 Q1002",
      "taf": "TAF LIPE 232300Z 2400/2424 VRB05KT 1000 RA BKN015"
    },
    {
      "icao": "LIPH",
      "alert": "OK",
      "vis_m": 6000,
      "fzfg": false,
      "metar_trigger": false,
      "taf_trigger": false,
      "metar": "METAR LIPH 232320Z AUTO 01005KT 6000 -RA OVC039/// 04/02 Q1004",
      "taf": "TAF LIPH 232300Z 2400/2424 VRB05KT 4000 RA BKN040"
    },
    {
      "icao": "LIPQ",
      "alert": "OK",
      "vis_m": 9999,
      "fzfg": false,
      "metar_trigger": false,
      "taf_trigger": false,
      "metar": "METAR LIPQ 232320Z AUTO 36003KT 9999 OVC030/// 04/03 Q1004",
      "taf": "TAF LIPQ 232300Z 2400/2424 VRB04KT 4000 RA BKN035"
    },
    {
      "icao": "LIPR",
      "alert": "OK",
      "vis_m": 9999,
      "fzfg": false,
      "metar_trigger": false,
      "taf_trigger": false,
      "metar": "METAR LIPR 232320Z AUTO 15005KT 9999 SCT068/// BKN120/// 08/07 Q1002",
      "taf": "TAF LIPR 232300Z 2400/2424 VRB05KT 6000 BKN040"
    },
    {
      "icao": "LIPX",
      "alert": "OK",
      "vis_m": 5000,
      "fzfg": false,
      "metar_trigger": false,
      "taf_trigger": false,
      "metar": "METAR LIPX 232320Z 36004KT 5000 -RA BR OVC030 04/04 Q1003",
      "taf": "TAF LIPX 232300Z 2400/2424 VRB03KT 4000 RA BR OVC030"
    },
    {
      "icao": "LIPY",
      "alert": "OK",
      "vis_m": 9999,
      "fzfg": false,
      "metar_trigger": false,
      "taf_trigger": false,
      "metar": "METAR LIPY 232320Z AUTO 19007KT 9999 SCT070/// BKN085/// OVC100/// 12/08 Q1002",
      "taf": "TAF LIPY 232300Z 2400/2424 VRB05KT 6000 BKN060"
    },
    {
      "icao": "LIPZ",
      "alert": "OK",
      "vis_m": 7000,
      "fzfg": false,
      "metar_trigger": false,
      "taf_trigger": false,
      "metar": "METAR LIPZ 232320Z 01007KT 7000 -RA BKN025 05/03 Q1004 BECMG 4000 BR",
      "taf": "TAF LIPZ 232300Z 2400/2506 04006KT 4000 RA BKN030"
    },
    {
      "icao": "LIRF",
      "alert": "OK",
      "vis_m": 9000,
      "fzfg": false,
      "metar_trigger": false,
      "taf_trigger": false,
      "metar": "METAR LIRF 232320Z 13014KT 9000 -RA FEW025 SCT045 12/10 Q1002 NOSIG",
      "taf": "TAF LIRF 232300Z 2400/2506 15013KT 9999 SCT030"
    },
    {
      "icao": "LIRN",
      "alert": "OK",
      "vis_m": 9999,
      "fzfg": false,
      "metar_trigger": false,
      "taf_trigger": false,
      "metar": "METAR LIRN 232320Z 09002KT CAVOK 10/06 Q1005 NOSIG",
      "taf": "TAF LIRN 232300Z 2400/2424 19013KT 9999 SCT030"
    },
    {
      "icao": "LIRP",
      "alert": "OK",
      "vis_m": 9999,
      "fzfg": false,
      "metar_trigger": false,
      "taf_trigger": false,
      "metar": "METAR LIRP 232315Z 12010KT 9999 -RA SCT030 BKN040 09/09 Q1000 NOSIG",
      "taf": "TAF LIRP 232300Z 2400/2424 11010KT 7000 RA SCT020 BKN040"
    },
    {
      "icao": "LIRZ",
      "alert": "OK",
      "vis_m": 7000,
      "fzfg": false,
      "metar_trigger": false,
      "taf_trigger": false,
      "metar": "METAR LIRZ 232320Z AUTO 35003KT 310V010 7000 -RA OVC032/// 09/08 Q1002",
      "taf": "TAF LIRZ 232300Z 2400/2424 VRB05KT 9999 BKN030"
    },
    {
      "icao": "LJLJ",
      "alert": "OK",
      "vis_m": 9999,
      "fzfg": false,
      "metar_trigger": false,
      "taf_trigger": false,
      "metar": "METAR LJLJ 232330Z VRB01KT 9999 BKN030 01/M02 Q1003 NOSIG",
      "taf": "TAF LJLJ 232300Z 2400/2500 VRB02KT 9999 OVC035"
    },
    {
      "icao": "LKMT",
      "alert": "OK",
      "vis_m": 2800,
      "fzfg": false,
      "metar_trigger": false,
      "taf_trigger": false,
      "metar": "METAR LKMT 232330Z 02004KT 2800 BR OVC025 M03/M04 Q1005 NOSIG",
      "taf": "TAF LKMT 232300Z 2400/2424 02005KT 2500 BR OVC022"
    },
    {
      "icao": "LKPR",
      "alert": "OK",
      "vis_m": 6000,
      "fzfg": false,
      "metar_trigger": false,
      "taf_trigger": false,
      "metar": "METAR LKPR 232330Z 35003KT 6000 OVC011 M06/M07 Q1003 NOSIG",
      "taf": "TAF LKPR 232300Z 2400/2506 36005KT 6000 BKN012"
    },
    {
      "icao": "LLBG",
      "alert": "OK",
      "vis_m": 9999,
      "fzfg": false,
      "metar_trigger": false,
      "taf_trigger": false,
      "metar": "METAR LLBG 232350Z 12005KT CAVOK 11/07 Q1015 NOSIG",
      "taf": "TAF LLBG 232303Z 2400/2424 VRB03KT CAVOK"
    },
    {
      "icao": "LMML",
      "alert": "OK",
      "vis_m": 9999,
      "fzfg": false,
      "metar_trigger": false,
      "taf_trigger": false,
      "metar": "METAR LMML 232345Z 22008KT 9999 FEW027 13/09 Q1009 NOSIG",
      "taf": "TAF LMML 232300Z 2400/2424 23015KT 9999 FEW015"
    },
    {
      "icao": "LOWW",
      "alert": "OK",
      "vis_m": 2500,
      "fzfg": false,
      "metar_trigger": false,
      "taf_trigger": false,
      "metar": "METAR LOWW 232320Z 22005KT 2500 -FZDZ BR FEW002 BKN003 M02/M03 Q1003 TEMPO 1200 -FZDZ BR",
      "taf": "TAF LOWW 232315Z 2400/2506 14004KT 3000 BR FEW003 OVC005 TX01/2501Z TNM02/2406Z"
    },
    {
      "icao": "LPFR",
      "alert": "OK",
      "vis_m": 9999,
      "fzfg": false,
      "metar_trigger": false,
      "taf_trigger": false,
      "metar": "METAR LPFR 232330Z 28014KT 9999 FEW020 BKN040 11/05 Q1008",
      "taf": "TAF LPFR 232300Z 2400/2424 29015KT 9999 SCT020"
    },
    {
      "icao": "LPMA",
      "alert": "OK",
      "vis_m": 9999,
      "fzfg": false,
      "metar_trigger": false,
      "taf_trigger": false,
      "metar": "METAR LPMA 232330Z 30008KT 240V040 9999 SCT016 16/05 Q1023",
      "taf": "TAF LPMA 232300Z 2400/2424 32012KT 9999 SCT015"
    },
    {
      "icao": "LPPR",
      "alert": "OK",
      "vis_m": 9999,
      "fzfg": false,
      "metar_trigger": false,
      "taf_trigger": false,
      "metar": "METAR LPPR 232330Z 27007KT 230V300 9999 -SHRA FEW020CB BKN030 09/04 Q0998",
      "taf": "TAF LPPR 232300Z 2400/2424 26013KT 9999 SCT020"
    },
    {
      "icao": "LPPS",
      "alert": "OK",
      "vis_m": 9999,
      "fzfg": false,
      "metar_trigger": false,
      "taf_trigger": false,
      "metar": "METAR LPPS 232330Z 31021KT 9999 FEW015 16/07 Q1023",
      "taf": "TAF LPPS 232300Z 2400/2506 32015KT 9999 FEW015 SCT030"
    },
    {
      "icao": "LPPT",
      "alert": "OK",
      "vis_m": 9999,
      "fzfg": false,
      "metar_trigger": false,
      "taf_trigger": false,
      "metar": "METAR LPPT 232330Z 30008KT 230V350 9999 -SHRA SCT014 FEW020TCU 06/04 Q1005 RESHRA WS R02",
      "taf": "TAF LPPT 232300Z 2400/2506 29013KT 9999 SCT025"
    },
    {
      "icao": "LQBK",
      "alert": "OK",
      "vis_m": 4000,
      "fzfg": false,
      "metar_trigger": false,
      "taf_trigger": false,
      "metar": "METAR LQBK 232330Z VRB01KT 4000 BR NSC M01/M01 Q1005 NOSIG",
      "taf": "TAF LQBK 232300Z 2400/2424 VRB02KT 6000 NSC TX09/2413Z TNM03/2406Z"
    },
    {
      "icao": "LQSA",
      "alert": "OK",
      "vis_m": 2500,
      "fzfg": false,
      "metar_trigger": false,
      "taf_trigger": false,
      "metar": "METAR LQSA 232330Z 14003KT 2500 BR NSC M01/M01 Q1005",
      "taf": "TAF LQSA 232300Z 2400/2424 10005KT 3000 BR FEW006 SCT050 TX11/2413Z TNM02/2400Z"
    },
    {
      "icao": "LQTZ",
      "alert": "OK",
      "vis_m": 450,
      "fzfg": true,
      "metar_trigger": false,
      "taf_trigger": false,
      "metar": "METAR LQTZ 232330Z VRB02KT 0450 R09/0500D FZFG SCT002 M02/M02 Q1005",
      "taf": "TAF LQTZ 232300Z 2400/2424 10005KT 2000 BR SCT005 TX10/2413Z TNM03/2405Z"
    },
    {
      "icao": "LRBC",
      "alert": "OK",
      "vis_m": 7000,
      "fzfg": false,
      "metar_trigger": false,
      "taf_trigger": false,
      "metar": "METAR LRBC 232330Z 16007KT 7000 OVC009 M02/M04 Q1011",
      "taf": "TAF LRBC 232300Z 2400/2409 16008KT 9999 OVC010"
    },
    {
      "icao": "LRBS",
      "alert": "OK",
      "vis_m": 400,
      "fzfg": false,
      "metar_trigger": false,
      "taf_trigger": false,
      "metar": "METAR LRBS 232330Z 06004KT 020V090 0400 R07/1800N FG OVC001 M00/M00 Q1012 NOSIG",
      "taf": "TAF LRBS 232300Z 2400/2424 VRB04KT 0800 FG OVC002"
    },
    {
      "icao": "LRBV",
      "alert": "OK",
      "vis_m": 3600,
      "fzfg": false,
      "metar_trigger": false,
      "taf_trigger": false,
      "metar": "METAR LRBV 232330Z AUTO 00000KT 3600 BR FEW098/// M01/M01 Q1007",
      "taf": "TAF LRBV 232000Z 2321/2406 VRB04KT 1500 BR NSC"
    },
    {
      "icao": "LRCL",
      "alert": "OK",
      "vis_m": 6000,
      "fzfg": false,
      "metar_trigger": false,
      "taf_trigger": false,
      "metar": "METAR LRCL 232330Z COR 07008KT 6000 NSC 01/M01 Q1007",
      "taf": "TAF LRCL 232300Z 2400/2409 VRB04KT 7000 NSC"
    },
    {
      "icao": "LRCV",
      "alert": "OK",
      "vis_m": 300,
      "fzfg": false,
      "metar_trigger": false,
      "taf_trigger": false,
      "metar": "METAR LRCV 232330Z 12001KT 0300 R26/0350N FG VV002 00/00 Q1011",
      "taf": "TAF LRCV 232300Z 2400/2409 VRB04KT 0300 FG VV001"
    },
    {
      "icao": "LRIA",
      "alert": "OK",
      "vis_m": 9999,
      "fzfg": false,
      "metar_trigger": false,
      "taf_trigger": false,
      "metar": "METAR LRIA 232330Z COR 10008KT 9999 -SN OVC009 M02/M03 Q1012",
      "taf": "TAF LRIA 232300Z 2400/2409 10010KT 9999 OVC025"
    },
    {
      "icao": "LROP",
      "alert": "OK",
      "vis_m": 3500,
      "fzfg": false,
      "metar_trigger": false,
      "taf_trigger": false,
      "metar": "METAR LROP 232330Z 08006KT 3500 BR OVC002 M00/M00 Q1012 NOSIG",
      "taf": "TAF LROP 232300Z 2400/2424 VRB04KT 0800 FG OVC002"
    },
    {
      "icao": "LRSB",
      "alert": "OK",
      "vis_m": 3500,
      "fzfg": false,
      "metar_trigger": false,
      "taf_trigger": false,
      "metar": "METAR LRSB 232330Z 24006KT 3500 BR NSC M01/M02 Q1007",
      "taf": "TAF LRSB 232300Z 2400/2424 VRB04KT 3000 BR NSC"
    },
    {
      "icao": "LRSM",
      "alert": "OK",
      "vis_m": 8000,
      "fzfg": false,
      "metar_trigger": false,
      "taf_trigger": false,
      "metar": "METAR LRSM 232330Z AUTO 14002KT 8000 -DZ BKN033/// OVC040/// 02/00 Q1007",
      "taf": "TAF LRSM 231400Z 2315/2324 VRB04KT 7000 BKN020 BKN040"
    },
    {
      "icao": "LRSV",
      "alert": "OK",
      "vis_m": 200,
      "fzfg": true,
      "metar_trigger": false,
      "taf_trigger": false,
      "metar": "METAR LRSV 232330Z 11009KT 0200 R34/0650N FZFG VV001 M03/M03 Q1009",
      "taf": "TAF LRSV 232300Z 2400/2409 12007KT 0200 FZFG VV001"
    },
    {
      "icao": "LRTM",
      "alert": "OK",
      "vis_m": 1100,
      "fzfg": false,
      "metar_trigger": false,
      "taf_trigger": false,
      "metar": "METAR LRTM 232330Z AUTO VRB01KT 1100 R07/1600U BR NCD M01/M02 Q1008",
      "taf": "TAF LRTM 231400Z 2315/2324 VRB04KT 3000 BR OVC030"
    },
    {
      "icao": "LRTR",
      "alert": "OK",
      "vis_m": 9999,
      "fzfg": false,
      "metar_trigger": false,
      "taf_trigger": false,
      "metar": "METAR LRTR 232330Z 10008KT CAVOK 02/01 Q1006",
      "taf": "TAF LRTR 232300Z 2400/2424 11008KT CAVOK"
    },
    {
      "icao": "LTAC",
      "alert": "OK",
      "vis_m": 2100,
      "fzfg": false,
      "metar_trigger": false,
      "taf_trigger": false,
      "metar": "METAR LTAC 232320Z VRB02KT 2100 R03C/P1500U R21C/P1500N R03L/1000N R03R/P1500N -RASN BR SCT003 BKN025 BKN080 02/01 Q1011 NOSIG RMK RWY21C 33002KT RWY03L 00000KT RWY21R 00000KT RWY03R 00000KT RWY21L 33002KT",
      "taf": ""
    },
    {
      "icao": "LTFM",
      "alert": "OK",
      "vis_m": 1200,
      "fzfg": false,
      "metar_trigger": false,
      "taf_trigger": false,
      "metar": "METAR LTFM 232320Z 01009KT 1200 0600N R35R/0800N R17L/1200U R34L/0750U R36/0700U -RA BCFG VV002 08/07 Q1010 NOSIG RMK RWY17L 01008KT RWY34L 36009KT RWY16R 01008KT RWY36 01009KT RWY18 02008KT",
      "taf": "TAF LTFM 232240Z 2400/2506 04007KT 1200 BCFG BKN006 BKN020"
    },
    {
      "icao": "LUKK",
      "alert": "OK",
      "vis_m": 9999,
      "fzfg": false,
      "metar_trigger": false,
      "taf_trigger": false,
      "metar": "METAR LUKK 232330Z 08009KT 9999 -SN OVC012 M03/M05 Q1013 TEMPO BKN010",
      "taf": "TAF LUKK 232308Z 2400/2424 09008KT 9999 BKN012"
    },
    {
      "icao": "LWOH",
      "alert": "OK",
      "vis_m": null,
      "fzfg": false,
      "metar_trigger": false,
      "taf_trigger": false,
      "metar": "",
      "taf": "TAF LWOH 232305Z 2400/2424 VRB02KT 9999 SCT015"
    },
    {
      "icao": "LWSK",
      "alert": "OK",
      "vis_m": 6000,
      "fzfg": false,
      "metar_trigger": false,
      "taf_trigger": false,
      "metar": "METAR LWSK 232350Z VRB02KT 6000 BKN017 00/M00 Q1010 NOSIG",
      "taf": "TAF LWSK 232305Z 2400/2424 VRB02KT 6000 BKN015"
    },
    {
      "icao": "LYBE",
      "alert": "OK",
      "vis_m": 9999,
      "fzfg": false,
      "metar_trigger": false,
      "taf_trigger": false,
      "metar": "METAR LYBE 232330Z 11003KT CAVOK 02/00 Q1006 NOSIG",
      "taf": "TAF LYBE 232300Z 2400/2424 09005KT 8000 NSC TX11/2413Z TNM01/2406Z"
    },
    {
      "icao": "LYNI",
      "alert": "OK",
      "vis_m": 9999,
      "fzfg": false,
      "metar_trigger": false,
      "taf_trigger": false,
      "metar": "METAR LYNI 232330Z 13004KT 080V160 CAVOK 02/00 Q1008 NOSIG",
      "taf": "TAF LYNI 232300Z 2400/2424 10006KT CAVOK TX12/2413Z TNM01/2406Z"
    },
    {
      "icao": "LYPG",
      "alert": "OK",
      "vis_m": 500,
      "fzfg": false,
      "metar_trigger": false,
      "taf_trigger": false,
      "metar": "METAR LYPG 232330Z VRB01KT 0500 0250N R18/0275N R36/0700U FG FEW030 SCT060 06/06 Q1008 TEMPO 1000 BR",
      "taf": "TAF LYPG 232300Z 2400/2424 VRB02KT 8000 FEW015 BKN050 TX11/2413Z TN06/2405Z"
    },
    {
      "icao": "LZIB",
      "alert": "OK",
      "vis_m": 2800,
      "fzfg": false,
      "metar_trigger": false,
      "taf_trigger": false,
      "metar": "METAR LZIB 232330Z 08004KT 2800 -FZDZ BR BKN012 M00/M00 Q1004 NOSIG",
      "taf": "TAF LZIB 232315Z 2400/2500 08005KT 6000 OVC012"
    },
    {
      "icao": "LZKZ",
      "alert": "OK",
      "vis_m": 6000,
      "fzfg": false,
      "metar_trigger": false,
      "taf_trigger": false,
      "metar": "METAR LZKZ 232330Z 00000KT 6000 -SN BKN017 OVC039 01/00 Q1006 TEMPO 2500 -SN BR BKN014",
      "taf": "TAF LZKZ 232315Z 2400/2500 VRB02KT 7000 FEW013 BKN022"
    },
    {
      "icao": "LZTT",
      "alert": "OK",
      "vis_m": 5000,
      "fzfg": false,
      "metar_trigger": false,
      "taf_trigger": false,
      "metar": "METAR LZTT 232330Z 00000KT 5000 -SN BR BKN006 OVC023 M01/M01 Q1003",
      "taf": "TAF LZTT 232315Z 2400/2500 VRB02KT 8000 SCT005 BKN020"
    },
    {
      "icao": "OEJN",
      "alert": "OK",
      "vis_m": 8000,
      "fzfg": false,
      "metar_trigger": false,
      "taf_trigger": false,
      "metar": "METAR OEJN 232300Z 17008KT 8000 NSC 27/20 Q1012 NOSIG",
      "taf": "TAF OEJN 232300Z 2400/2506 17006KT 7000 FEW040"
    },
    {
      "icao": "OEMA",
      "alert": "OK",
      "vis_m": 9999,
      "fzfg": false,
      "metar_trigger": false,
      "taf_trigger": false,
      "metar": "METAR OEMA 232300Z 27006KT 9999 SCT045 23/15 Q1017 NOSIG",
      "taf": "TAF OEMA 232300Z 2400/2506 VRB03KT 7000 SCT045"
    },
    {
      "icao": "OJAI",
      "alert": "OK",
      "vis_m": 2500,
      "fzfg": false,
      "metar_trigger": false,
      "taf_trigger": false,
      "metar": "METAR OJAI 232300Z 36003KT 2500 BR NSC 08/07 Q1017 NOSIG",
      "taf": "TAF OJAI 232250Z 2400/2506 VRB02KT 2000 BR FEW040"
    },
    {
      "icao": "OMAA",
      "alert": "OK",
      "vis_m": 9999,
      "fzfg": false,
      "metar_trigger": false,
      "taf_trigger": false,
      "metar": "METAR OMAA 232330Z 08006KT 030V160 CAVOK 17/07 Q1019 NOSIG",
      "taf": "TAF OMAA 232300Z 2400/2506 03005KT 8000 NSC"
    },
    {
      "icao": "OMDB",
      "alert": "OK",
      "vis_m": 9999,
      "fzfg": false,
      "metar_trigger": false,
      "taf_trigger": false,
      "metar": "METAR OMDB 232300Z VRB02KT CAVOK 16/07 Q1019 NOSIG",
      "taf": "TAF OMDB 232300Z 2400/2506 13005KT CAVOK"
    },
    {
      "icao": "UAAA",
      "alert": "CRITICAL",
      "vis_m": 100,
      "fzfg": true,
      "metar_trigger": true,
      "taf_trigger": false,
      "metar": "METAR UAAA 232330Z 00000MPS 0100 R23L/0350 FZFG VV001 M14/M16 Q1024 NOSIG RMK QBB050",
      "taf": "TAF UAAA 232302Z 2400/2424 VRB01MPS 0200 FZFG VV001 TXM06/2408Z TNM16/2402Z"
    },
    {
      "icao": "UBBB",
      "alert": "OK",
      "vis_m": 9999,
      "fzfg": false,
      "metar_trigger": false,
      "taf_trigger": false,
      "metar": "METAR UBBB 232330Z 31014KT 9999 BKN010 OVC025 04/01 Q1014 NOSIG",
      "taf": "TAF UBBB 232301Z 2400/2424 33012KT 9999 SCT012 BKN030 TX07/2410Z TN02/2402Z"
    },
    {
      "icao": "UDSG",
      "alert": "OK",
      "vis_m": 2700,
      "fzfg": false,
      "metar_trigger": false,
      "taf_trigger": false,
      "metar": "METAR UDSG 232330Z 26002KT 2700 BR OVC010 M09/M10 Q1016 NOSIG",
      "taf": "TAF UDSG 232258Z 2400/2424 VRB06KT 2000 BR OVC010"
    },
    {
      "icao": "UDYZ",
      "alert": "OK",
      "vis_m": 1600,
      "fzfg": false,
      "metar_trigger": false,
      "taf_trigger": false,
      "metar": "METAR UDYZ 232330Z 23002KT 1600 R08/P2000U BR BKN011 M04/M05 Q1019 NOSIG",
      "taf": "TAF UDYZ 232300Z 2400/2424 VRB04KT 1200 BR SCT006 BKN020"
    },
    {
      "icao": "UGKO",
      "alert": "OK",
      "vis_m": 9999,
      "fzfg": false,
      "metar_trigger": false,
      "taf_trigger": false,
      "metar": "METAR UGKO 232330Z 09007KT 9999 SCT053 BKN085 04/03 Q1013 NOSIG",
      "taf": "TAF UGKO 232300Z 2400/2424 09008KT 9999 BKN060 TX10/2412Z TN04/2401Z"
    }
  ]
}