{
  "ts_utc": "2026-05-10T21:29:01Z",
  "threshold_m": 150,
  "source": "stations_override.txt (ICAO list) + aviationweather.gov (METAR/TAF raw)",
  "station_count": 159,
  "stations": [
    {
      "icao": "BIKF",
      "alert": "OK",
      "vis_m": 500,
      "fzfg": false,
      "metar_trigger": false,
      "taf_trigger": false,
      "metar": "METAR BIKF 102100Z 20015KT 0500 R19/1100U -DZ FG OVC002 07/07 Q1014",
      "taf": "TAF BIKF 101957Z 1021/1121 21015KT 2000 DZ BR BKN004 OVC007 TX08/1115Z TN06/1106Z"
    },
    {
      "icao": "BKPR",
      "alert": "OK",
      "vis_m": null,
      "fzfg": false,
      "metar_trigger": false,
      "taf_trigger": false,
      "metar": "",
      "taf": "TAF BKPR 101730Z 1018/1118 VRB03KT CAVOK"
    },
    {
      "icao": "EBCI",
      "alert": "OK",
      "vis_m": 9999,
      "fzfg": false,
      "metar_trigger": false,
      "taf_trigger": false,
      "metar": "METAR EBCI 102120Z 02009KT 9999 -RA FEW010 BKN043 11/09 Q1008 NOSIG",
      "taf": "TAF EBCI 101707Z 1018/1124 03008KT 9999 SCT040"
    },
    {
      "icao": "EDDB",
      "alert": "OK",
      "vis_m": 9999,
      "fzfg": false,
      "metar_trigger": false,
      "taf_trigger": false,
      "metar": "METAR EDDB 102120Z AUTO 07007KT CAVOK 13/08 Q1007 NOSIG",
      "taf": "TAF EDDB 101700Z 1018/1118 VRB03KT CAVOK"
    },
    {
      "icao": "EDDH",
      "alert": "OK",
      "vis_m": 9999,
      "fzfg": false,
      "metar_trigger": false,
      "taf_trigger": false,
      "metar": "METAR EDDH 102120Z AUTO 33008KT CAVOK 12/06 Q1008 NOSIG",
      "taf": "TAF EDDH 101700Z 1018/1124 34006KT 9999 SCT035"
    },
    {
      "icao": "EDDK",
      "alert": "OK",
      "vis_m": 9999,
      "fzfg": false,
      "metar_trigger": false,
      "taf_trigger": false,
      "metar": "METAR EDDK 102120Z AUTO 01008KT 340V040 CAVOK 15/10 Q1006 TEMPO 3500 RA",
      "taf": "TAF EDDK 101700Z 1018/1124 01008KT CAVOK"
    },
    {
      "icao": "EDDN",
      "alert": "OK",
      "vis_m": 9999,
      "fzfg": false,
      "metar_trigger": false,
      "taf_trigger": false,
      "metar": "METAR EDDN 102120Z AUTO 10008KT 070V130 CAVOK 18/06 Q1005",
      "taf": "TAF EDDN 101700Z 1018/1118 07005KT CAVOK"
    },
    {
      "icao": "EDDS",
      "alert": "OK",
      "vis_m": 9999,
      "fzfg": false,
      "metar_trigger": false,
      "taf_trigger": false,
      "metar": "METAR EDDS 102120Z AUTO VRB01KT 9999 FEW040 14/13 Q1007",
      "taf": "TAF EDDS 101700Z 1018/1118 12005KT 9999 SCT030"
    },
    {
      "icao": "EDFH",
      "alert": "OK",
      "vis_m": 6000,
      "fzfg": false,
      "metar_trigger": false,
      "taf_trigger": false,
      "metar": "METAR EDFH 102120Z VRB01KT 6000 RA FEW003 SCT049 11/11 Q1007",
      "taf": "TAF EDFH 101700Z 1018/1118 05005KT 9999 BKN020"
    },
    {
      "icao": "EDJA",
      "alert": "OK",
      "vis_m": 9999,
      "fzfg": false,
      "metar_trigger": false,
      "taf_trigger": false,
      "metar": "METAR EDJA 102120Z AUTO 20007KT 9999 // BKN066/// OVC085/// 12/11 Q1008",
      "taf": "TAF EDJA 101700Z 1018/1103 24007KT 9999 SCT040 BKN055"
    },
    {
      "icao": "EDLW",
      "alert": "OK",
      "vis_m": 9999,
      "fzfg": false,
      "metar_trigger": false,
      "taf_trigger": false,
      "metar": "METAR EDLW 102120Z AUTO 02008KT 9999 // SCT026/// SCT120/// BKN180/// 12/08 Q1008",
      "taf": "TAF EDLW 101700Z 1018/1118 01005KT CAVOK"
    },
    {
      "icao": "EDNY",
      "alert": "OK",
      "vis_m": 9999,
      "fzfg": false,
      "metar_trigger": false,
      "taf_trigger": false,
      "metar": "METAR EDNY 102120Z AUTO VRB02KT 9999 // FEW023/// BKN073/// OVC084/// 13/12 Q1008",
      "taf": "TAF EDNY 101700Z 1018/1103 24007KT 9999 SCT055"
    },
    {
      "icao": "EDSB",
      "alert": "OK",
      "vis_m": 9000,
      "fzfg": false,
      "metar_trigger": false,
      "taf_trigger": false,
      "metar": "METAR EDSB 102120Z VRB01KT 9000 VCSH SCT018 14/14 Q1006",
      "taf": "TAF EDSB 101700Z 1018/1118 20005KT 9999 BKN030"
    },
    {
      "icao": "EETN",
      "alert": "OK",
      "vis_m": 9999,
      "fzfg": false,
      "metar_trigger": false,
      "taf_trigger": false,
      "metar": "METAR EETN 102120Z 23006KT 9999 BKN045 11/04 Q1010 NOSIG",
      "taf": "TAF EETN 101730Z 1018/1118 17005KT 9999 SCT045"
    },
    {
      "icao": "EFTU",
      "alert": "OK",
      "vis_m": 9999,
      "fzfg": false,
      "metar_trigger": false,
      "taf_trigger": false,
      "metar": "METAR EFTU 102120Z AUTO 17005KT CAVOK 08/01 Q1008",
      "taf": "TAF EFTU 102033Z 1021/1121 18006KT CAVOK"
    },
    {
      "icao": "EGBB",
      "alert": "OK",
      "vis_m": 9999,
      "fzfg": false,
      "metar_trigger": false,
      "taf_trigger": false,
      "metar": "METAR EGBB 102120Z 15003KT CAVOK 07/00 Q1015",
      "taf": ""
    },
    {
      "icao": "EGGP",
      "alert": "OK",
      "vis_m": 9999,
      "fzfg": false,
      "metar_trigger": false,
      "taf_trigger": false,
      "metar": "METAR EGGP 102120Z 31006KT CAVOK 09/02 Q1016",
      "taf": "TAF EGGP 101657Z 1018/1118 36010KT 9999 SCT045"
    },
    {
      "icao": "EGGW",
      "alert": "OK",
      "vis_m": 9999,
      "fzfg": false,
      "metar_trigger": false,
      "taf_trigger": false,
      "metar": "METAR EGGW 102120Z AUTO 03005KT 010V080 9999 NCD 05/M00 Q1014",
      "taf": "TAF EGGW 101653Z 1018/1118 03010KT 9999 SCT040"
    },
    {
      "icao": "EGKK",
      "alert": "OK",
      "vis_m": 9999,
      "fzfg": false,
      "metar_trigger": false,
      "taf_trigger": false,
      "metar": "METAR EGKK 102120Z 04009KT CAVOK 08/03 Q1013",
      "taf": "TAF EGKK 101704Z 1018/1124 04010KT 9999 FEW035"
    },
    {
      "icao": "EGNM",
      "alert": "OK",
      "vis_m": 9999,
      "fzfg": false,
      "metar_trigger": false,
      "taf_trigger": false,
      "metar": "METAR EGNM 102120Z 26010KT 9999 FEW048 07/02 Q1014",
      "taf": "TAF EGNM 101655Z 1018/1118 VRB03KT 9999 FEW045"
    },
    {
      "icao": "EGPD",
      "alert": "OK",
      "vis_m": 9999,
      "fzfg": false,
      "metar_trigger": false,
      "taf_trigger": false,
      "metar": "METAR EGPD 102120Z AUTO 33014KT 9999 SCT015 BKN022 BKN027 05/02 Q1012 TEMPO SHRA BKN012",
      "taf": ""
    },
    {
      "icao": "EGPF",
      "alert": "OK",
      "vis_m": 9999,
      "fzfg": false,
      "metar_trigger": false,
      "taf_trigger": false,
      "metar": "METAR EGPF 102120Z AUTO 25009KT 9999 FEW021 SCT031 09/06 Q1013",
      "taf": ""
    },
    {
      "icao": "EHBK",
      "alert": "OK",
      "vis_m": 9999,
      "fzfg": false,
      "metar_trigger": false,
      "taf_trigger": false,
      "metar": "METAR EHBK 102125Z AUTO 01012KT 330V050 9999 OVC049 12/07 Q1008",
      "taf": "TAF EHBK 101712Z 1018/1124 03010KT CAVOK"
    },
    {
      "icao": "EHEH",
      "alert": "OK",
      "vis_m": 9999,
      "fzfg": false,
      "metar_trigger": false,
      "taf_trigger": false,
      "metar": "METAR EHEH 102055Z AUTO 02010KT 350V060 9999 SCT065 OVC110 12/06 Q1009 BLU NOSIG RMK TREND REMOTE BY EHWX",
      "taf": "TAF EHEH 101756Z 1018/1124 03008KT 9999 NSC"
    },
    {
      "icao": "EKBI",
      "alert": "OK",
      "vis_m": 9999,
      "fzfg": false,
      "metar_trigger": false,
      "taf_trigger": false,
      "metar": "METAR EKBI 102120Z AUTO 29004KT 9999 NCD 01/M01 Q1010",
      "taf": "TAF EKBI 102027Z 1021/1121 30005KT CAVOK"
    },
    {
      "icao": "EKCH",
      "alert": "OK",
      "vis_m": 9999,
      "fzfg": false,
      "metar_trigger": false,
      "taf_trigger": false,
      "metar": "METAR EKCH 102120Z AUTO 02006KT 9999 FEW063/// 10/06 Q1009 NOSIG",
      "taf": "TAF EKCH 102027Z 1021/1121 02004KT CAVOK"
    },
    {
      "icao": "ENAL",
      "alert": "OK",
      "vis_m": 9999,
      "fzfg": false,
      "metar_trigger": false,
      "taf_trigger": false,
      "metar": "METAR ENAL 102120Z 24006KT 9999 FEW021 01/M00 Q1009",
      "taf": "TAF ENAL 102000Z 1021/1106 24005KT 9999 FEW015 BKN025"
    },
    {
      "icao": "ENBR",
      "alert": "OK",
      "vis_m": 9999,
      "fzfg": false,
      "metar_trigger": false,
      "taf_trigger": false,
      "metar": "METAR ENBR 102120Z 34007KT 9999 SCT050 03/M00 Q1008 RMK WIND 1200FT 34010KT",
      "taf": "TAF ENBR 101700Z 1018/1118 30005KT 9999 FEW015 SCT030"
    },
    {
      "icao": "ENGM",
      "alert": "OK",
      "vis_m": 9999,
      "fzfg": false,
      "metar_trigger": false,
      "taf_trigger": false,
      "metar": "METAR ENGM 102120Z 13006KT 090V160 CAVOK 06/M01 Q1004",
      "taf": ""
    },
    {
      "icao": "ENHD",
      "alert": "OK",
      "vis_m": 9999,
      "fzfg": false,
      "metar_trigger": false,
      "taf_trigger": false,
      "metar": "METAR ENHD 102120Z 33005KT 280V360 9999 FEW018 SCT026 05/00 Q1008",
      "taf": ""
    },
    {
      "icao": "ENTC",
      "alert": "OK",
      "vis_m": 9999,
      "fzfg": false,
      "metar_trigger": false,
      "taf_trigger": false,
      "metar": "METAR ENTC 102120Z 03008KT CAVOK 05/01 Q1006 RMK WIND 2600FT 15007KT",
      "taf": "TAF ENTC 101700Z 1018/1118 02009KT 9999 FEW030"
    },
    {
      "icao": "ENTO",
      "alert": "OK",
      "vis_m": 9999,
      "fzfg": false,
      "metar_trigger": false,
      "taf_trigger": false,
      "metar": "METAR ENTO 102120Z 28004KT CAVOK 06/04 Q1005",
      "taf": "TAF ENTO 101700Z 1018/1118 20010KT 9999 SCT030"
    },
    {
      "icao": "ENVA",
      "alert": "OK",
      "vis_m": 9999,
      "fzfg": false,
      "metar_trigger": false,
      "taf_trigger": false,
      "metar": "METAR ENVA 102120Z 28007KT 9999 SCT035 BKN041 05/01 Q1008 RMK WIND 670FT 29008KT",
      "taf": "TAF ENVA 101700Z 1018/1118 28008KT 9999 SCT045"
    },
    {
      "icao": "ENZV",
      "alert": "OK",
      "vis_m": 9999,
      "fzfg": false,
      "metar_trigger": false,
      "taf_trigger": false,
      "metar": "METAR ENZV 102120Z 21002KT 9999 SCT022 05/01 Q1008",
      "taf": "TAF ENZV 101700Z 1018/1118 30009KT 9999 FEW015 SCT025"
    },
    {
      "icao": "EPGD",
      "alert": "OK",
      "vis_m": 9999,
      "fzfg": false,
      "metar_trigger": false,
      "taf_trigger": false,
      "metar": "METAR EPGD 102100Z 13008KT CAVOK 12/02 Q1009",
      "taf": "TAF EPGD 101730Z 1018/1118 09007KT CAVOK"
    },
    {
      "icao": "EPKK",
      "alert": "OK",
      "vis_m": 9999,
      "fzfg": false,
      "metar_trigger": false,
      "taf_trigger": false,
      "metar": "METAR EPKK 102100Z 04005KT CAVOK 12/04 Q1010",
      "taf": "TAF EPKK 102030Z 1021/1121 06010KT CAVOK"
    },
    {
      "icao": "EPKT",
      "alert": "OK",
      "vis_m": 9999,
      "fzfg": false,
      "metar_trigger": false,
      "taf_trigger": false,
      "metar": "METAR EPKT 102100Z 11008KT CAVOK 12/04 Q1010",
      "taf": "TAF EPKT 101730Z 1018/1118 11010KT CAVOK"
    },
    {
      "icao": "EPLB",
      "alert": "OK",
      "vis_m": 9999,
      "fzfg": false,
      "metar_trigger": false,
      "taf_trigger": false,
      "metar": "METAR EPLB 102100Z 08004KT CAVOK 07/05 Q1012",
      "taf": "TAF EPLB 101730Z 1018/1118 11007KT CAVOK"
    },
    {
      "icao": "EPMO",
      "alert": "OK",
      "vis_m": 9999,
      "fzfg": false,
      "metar_trigger": false,
      "taf_trigger": false,
      "metar": "METAR EPMO 102100Z 09007KT CAVOK 10/03 Q1011",
      "taf": "TAF EPMO 101730Z 1018/1118 VRB02KT CAVOK"
    },
    {
      "icao": "EPPO",
      "alert": "OK",
      "vis_m": 9999,
      "fzfg": false,
      "metar_trigger": false,
      "taf_trigger": false,
      "metar": "METAR EPPO 102100Z 10002KT CAVOK 10/05 Q1009",
      "taf": "TAF EPPO 101730Z 1018/1118 19005KT CAVOK"
    },
    {
      "icao": "EPRA",
      "alert": "OK",
      "vis_m": 9999,
      "fzfg": false,
      "metar_trigger": false,
      "taf_trigger": false,
      "metar": "METAR EPRA 102100Z 17004KT CAVOK 11/02 Q1011",
      "taf": "TAF EPRA 102030Z 1021/1106 13007KT CAVOK"
    },
    {
      "icao": "EPRZ",
      "alert": "OK",
      "vis_m": 9999,
      "fzfg": false,
      "metar_trigger": false,
      "taf_trigger": false,
      "metar": "METAR EPRZ 102100Z 08004KT CAVOK 09/05 Q1012",
      "taf": "TAF EPRZ 101730Z 1018/1118 10010KT CAVOK"
    },
    {
      "icao": "EPSC",
      "alert": "OK",
      "vis_m": 9999,
      "fzfg": false,
      "metar_trigger": false,
      "taf_trigger": false,
      "metar": "METAR EPSC 102100Z VRB02KT CAVOK 10/06 Q1009",
      "taf": "TAF EPSC 101730Z 1018/1118 28010KT CAVOK"
    },
    {
      "icao": "EPSY",
      "alert": "OK",
      "vis_m": 9999,
      "fzfg": false,
      "metar_trigger": false,
      "taf_trigger": false,
      "metar": "METAR EPSY 102100Z 13004KT 080V190 CAVOK 10/04 Q1012",
      "taf": "TAF EPSY 102030Z 1021/1106 13008KT CAVOK"
    },
    {
      "icao": "EPWA",
      "alert": "OK",
      "vis_m": 9999,
      "fzfg": false,
      "metar_trigger": false,
      "taf_trigger": false,
      "metar": "METAR EPWA 102100Z 10009KT CAVOK 13/03 Q1011 NOSIG",
      "taf": "TAF EPWA 102030Z 1021/1121 12008KT CAVOK"
    },
    {
      "icao": "EPWR",
      "alert": "OK",
      "vis_m": 9999,
      "fzfg": false,
      "metar_trigger": false,
      "taf_trigger": false,
      "metar": "METAR EPWR 102100Z VRB01KT CAVOK 11/07 Q1008",
      "taf": "TAF EPWR 102030Z 1021/1121 10004KT CAVOK"
    },
    {
      "icao": "ESGG",
      "alert": "OK",
      "vis_m": 9999,
      "fzfg": false,
      "metar_trigger": false,
      "taf_trigger": false,
      "metar": "METAR ESGG 102120Z 21006KT 9999 FEW039 04/00 Q1007",
      "taf": "TAF ESGG 102030Z 1021/1121 26009KT 9999 SCT040"
    },
    {
      "icao": "ESKN",
      "alert": "OK",
      "vis_m": 9999,
      "fzfg": false,
      "metar_trigger": false,
      "taf_trigger": false,
      "metar": "METAR ESKN 102120Z 19005KT CAVOK 08/05 Q1006",
      "taf": "TAF ESKN 102030Z 1021/1121 25006KT CAVOK"
    },
    {
      "icao": "ESMS",
      "alert": "OK",
      "vis_m": 9999,
      "fzfg": false,
      "metar_trigger": false,
      "taf_trigger": false,
      "metar": "METAR ESMS 102120Z 34003KT CAVOK 05/05 Q1008",
      "taf": "TAF ESMS 102027Z 1021/1121 36002KT CAVOK"
    },
    {
      "icao": "ESSA",
      "alert": "OK",
      "vis_m": 9999,
      "fzfg": false,
      "metar_trigger": false,
      "taf_trigger": false,
      "metar": "METAR ESSA 102120Z 23005KT CAVOK 09/03 Q1005 NOSIG",
      "taf": "TAF ESSA 102030Z 1021/1121 18007KT CAVOK"
    },
    {
      "icao": "EYKA",
      "alert": "OK",
      "vis_m": 3200,
      "fzfg": false,
      "metar_trigger": false,
      "taf_trigger": false,
      "metar": "METAR EYKA 102120Z 13003KT 3200 BR FEW001 05/04 Q1013",
      "taf": "TAF EYKA 101700Z 1018/1118 VRB03KT 5000 MIFG BR SCT025"
    },
    {
      "icao": "EYPA",
      "alert": "OK",
      "vis_m": 9999,
      "fzfg": false,
      "metar_trigger": false,
      "taf_trigger": false,
      "metar": "METAR EYPA 102120Z 12004KT CAVOK 04/M00 Q1010",
      "taf": "TAF EYPA 101700Z 1018/1118 VRB03KT 9000 NSC"
    },
    {
      "icao": "EYVI",
      "alert": "OK",
      "vis_m": 6000,
      "fzfg": false,
      "metar_trigger": false,
      "taf_trigger": false,
      "metar": "METAR EYVI 102120Z 19002KT 6000 OVC042 06/06 Q1013 TEMPO 5000 BR BKN002",
      "taf": "TAF EYVI 101700Z 1018/1118 VRB03KT 8000 SCT010 BKN015"
    },
    {
      "icao": "GCFV",
      "alert": "OK",
      "vis_m": 9999,
      "fzfg": false,
      "metar_trigger": false,
      "taf_trigger": false,
      "metar": "METAR GCFV 102100Z 02006KT 9999 FEW030 21/13 Q1017",
      "taf": "TAF GCFV 102000Z 1021/1121 02005KT 9999 FEW030 TX24/1114Z TN17/1106Z"
    },
    {
      "icao": "GCLP",
      "alert": "OK",
      "vis_m": 9999,
      "fzfg": false,
      "metar_trigger": false,
      "taf_trigger": false,
      "metar": "METAR GCLP 102100Z 34006KT 300V360 9999 SCT045 20/13 Q1017 NOSIG",
      "taf": "TAF GCLP 102000Z 1021/1121 35005KT 9999 FEW025 BKN040 TX23/1114Z TN17/1106Z"
    },
    {
      "icao": "GCTS",
      "alert": "OK",
      "vis_m": 9999,
      "fzfg": false,
      "metar_trigger": false,
      "taf_trigger": false,
      "metar": "METAR GCTS 102100Z 05006KT 020V080 9999 SCT030 BKN060 20/12 Q1017 NOSIG",
      "taf": "TAF GCTS 102000Z 1021/1121 02005KT 9999 SCT030 TX23/1114Z TN16/1106Z"
    },
    {
      "icao": "GMAD",
      "alert": "OK",
      "vis_m": 9999,
      "fzfg": false,
      "metar_trigger": false,
      "taf_trigger": false,
      "metar": "METAR GMAD 102100Z 19009KT CAVOK 18/15 Q1016 NOSIG",
      "taf": "TAF GMAD 101700Z 1018/1124 20012KT 8000 NSC"
    },
    {
      "icao": "GMMN",
      "alert": "OK",
      "vis_m": 9999,
      "fzfg": false,
      "metar_trigger": false,
      "taf_trigger": false,
      "metar": "METAR GMMN 102100Z 32007KT 9999 SCT030 SCT100 17/13 Q1017 NOSIG",
      "taf": "TAF GMMN 101700Z 1018/1124 33013KT 9999 SCT030 BKN200"
    },
    {
      "icao": "GMMX",
      "alert": "OK",
      "vis_m": 9999,
      "fzfg": false,
      "metar_trigger": false,
      "taf_trigger": false,
      "metar": "METAR GMMX 102100Z 28010KT CAVOK 18/10 Q1017 NOSIG",
      "taf": "TAF GMMX 101700Z 1018/1124 32015KT CAVOK"
    },
    {
      "icao": "HEGN",
      "alert": "OK",
      "vis_m": 9999,
      "fzfg": false,
      "metar_trigger": false,
      "taf_trigger": false,
      "metar": "METAR HEGN 102100Z 29010KT CAVOK 28/04 Q1011 NOSIG",
      "taf": "TAF HEGN 101700Z 1018/1124 33010G20KT CAVOK"
    },
    {
      "icao": "HEMA",
      "alert": "OK",
      "vis_m": 9999,
      "fzfg": false,
      "metar_trigger": false,
      "taf_trigger": false,
      "metar": "METAR HEMA 102100Z 17005KT CAVOK 26/04 Q1011 NOSIG",
      "taf": "TAF HEMA 101700Z 1018/1124 32010G20KT CAVOK"
    },
    {
      "icao": "HESH",
      "alert": "OK",
      "vis_m": 9999,
      "fzfg": false,
      "metar_trigger": false,
      "taf_trigger": false,
      "metar": "METAR HESH 102100Z 35015KT CAVOK 30/11 Q1010 NOSIG",
      "taf": "TAF HESH 101700Z 1018/1124 36010G20KT CAVOK"
    },
    {
      "icao": "HESX",
      "alert": "OK",
      "vis_m": 9999,
      "fzfg": false,
      "metar_trigger": false,
      "taf_trigger": false,
      "metar": "METAR HESX 102100Z 05008KT CAVOK 21/08 Q1016 NOSIG",
      "taf": "TAF HESX 101700Z 1018/1124 01014KT CAVOK"
    },
    {
      "icao": "LATI",
      "alert": "OK",
      "vis_m": 9999,
      "fzfg": false,
      "metar_trigger": false,
      "taf_trigger": false,
      "metar": "METAR LATI 102120Z 19005KT CAVOK 17/14 Q1014 NOSIG",
      "taf": "TAF LATI 101700Z 1018/1118 VRB05KT 9999 SCT040 BKN080 TX25/1112Z TN15/1104Z"
    },
    {
      "icao": "LBPD",
      "alert": "OK",
      "vis_m": 9999,
      "fzfg": false,
      "metar_trigger": false,
      "taf_trigger": false,
      "metar": "METAR LBPD 102100Z AUTO 11004KT 9999 BKN120/// OVC170/// 18/13 Q1013",
      "taf": "TAF LBPD 101700Z 1018/1118 10010KT 9999 SCT060"
    },
    {
      "icao": "LBSF",
      "alert": "OK",
      "vis_m": 9999,
      "fzfg": false,
      "metar_trigger": false,
      "taf_trigger": false,
      "metar": "METAR LBSF 102100Z AUTO 13006KT 090V160 9999 NSC 16/12 Q1014 NOSIG",
      "taf": "TAF LBSF 101700Z 1018/1118 13010KT 9999 SCT040 SCT060"
    },
    {
      "icao": "LBWN",
      "alert": "OK",
      "vis_m": 9999,
      "fzfg": false,
      "metar_trigger": false,
      "taf_trigger": false,
      "metar": "METAR LBWN 102100Z AUTO VRB01KT 9999 NCD 12/12 Q1014 NOSIG",
      "taf": "TAF LBWN 101700Z 1018/1118 30010KT 9999 SCT045"
    },
    {
      "icao": "LCLK",
      "alert": "OK",
      "vis_m": 9999,
      "fzfg": false,
      "metar_trigger": false,
      "taf_trigger": false,
      "metar": "METAR LCLK 102100Z 31006KT CAVOK 20/07 Q1014 NOSIG",
      "taf": "TAF LCLK 101730Z 1018/1118 34006KT CAVOK"
    },
    {
      "icao": "LCPH",
      "alert": "OK",
      "vis_m": 9999,
      "fzfg": false,
      "metar_trigger": false,
      "taf_trigger": false,
      "metar": "METAR LCPH 102100Z 01005KT CAVOK 17/08 Q1014 NOSIG",
      "taf": "TAF LCPH 101730Z 1018/1118 32010KT CAVOK"
    },
    {
      "icao": "LEAL",
      "alert": "OK",
      "vis_m": 9999,
      "fzfg": false,
      "metar_trigger": false,
      "taf_trigger": false,
      "metar": "METAR LEAL 102100Z 01006KT 340V050 CAVOK 20/14 Q1013 NOSIG",
      "taf": "TAF LEAL 101700Z 1018/1118 18010KT 9999 FEW035 TX26/1112Z TN16/1105Z"
    },
    {
      "icao": "LEBB",
      "alert": "OK",
      "vis_m": 9999,
      "fzfg": false,
      "metar_trigger": false,
      "taf_trigger": false,
      "metar": "METAR LEBB 102100Z 27005KT 9999 SCT020 15/12 Q1011 NOSIG",
      "taf": ""
    },
    {
      "icao": "LEBL",
      "alert": "OK",
      "vis_m": 9999,
      "fzfg": false,
      "metar_trigger": false,
      "taf_trigger": false,
      "metar": "METAR LEBL 102100Z 25008KT 9999 FEW030 19/12 Q1012 NOSIG",
      "taf": "TAF LEBL 101700Z 1018/1118 24010KT 9999 FEW050 TX22/1113Z TN14/1106Z"
    },
    {
      "icao": "LECH",
      "alert": "OK",
      "vis_m": 9999,
      "fzfg": false,
      "metar_trigger": false,
      "taf_trigger": false,
      "metar": "METAR LECH 102100Z AUTO VRB02KT CAVOK 15/12 Q1013",
      "taf": "TAF LECH 101700Z 1018/1118 22010KT 9999 FEW020 TX24/1114Z TN10/1105Z"
    },
    {
      "icao": "LEMD",
      "alert": "OK",
      "vis_m": 9999,
      "fzfg": false,
      "metar_trigger": false,
      "taf_trigger": false,
      "metar": "METAR LEMD 102100Z 19005KT 9999 FEW040 SCT070 12/09 Q1014 NOSIG",
      "taf": "TAF LEMD 101700Z 1018/1124 20010KT 9999 SCT020 TX18/1116Z TN06/1105Z"
    },
    {
      "icao": "LEMG",
      "alert": "OK",
      "vis_m": 9999,
      "fzfg": false,
      "metar_trigger": false,
      "taf_trigger": false,
      "metar": "METAR LEMG 102100Z 28006KT 9999 FEW070 17/10 Q1016 NOSIG",
      "taf": "TAF LEMG 101700Z 1018/1118 18006KT 9999 SCT040 TX23/1114Z TN13/1106Z"
    },
    {
      "icao": "LEVC",
      "alert": "OK",
      "vis_m": 9999,
      "fzfg": false,
      "metar_trigger": false,
      "taf_trigger": false,
      "metar": "METAR LEVC 102100Z 22005KT 180V250 9999 FEW030 SCT069 19/10 Q1013 NOSIG",
      "taf": "TAF LEVC 101700Z 1018/1118 25010KT 9999 FEW020 TX26/1112Z TN14/1105Z"
    },
    {
      "icao": "LEXJ",
      "alert": "OK",
      "vis_m": 9999,
      "fzfg": false,
      "metar_trigger": false,
      "taf_trigger": false,
      "metar": "METAR LEXJ 102100Z VRB01KT CAVOK 12/11 Q1011",
      "taf": "TAF LEXJ 102000Z 1021/1121 22009KT 9999 FEW045 TX20/1112Z TN11/1104Z"
    },
    {
      "icao": "LEZG",
      "alert": "OK",
      "vis_m": 9999,
      "fzfg": false,
      "metar_trigger": false,
      "taf_trigger": false,
      "metar": "METAR LEZG 102100Z 24005KT 9999 FEW050 SCT065 14/11 Q1012 NOSIG",
      "taf": "TAF LEZG 101700Z 1018/1118 22014KT 9999 FEW020 TX23/1118Z TN12/1105Z"
    },
    {
      "icao": "LEZL",
      "alert": "OK",
      "vis_m": 9999,
      "fzfg": false,
      "metar_trigger": false,
      "taf_trigger": false,
      "metar": "METAR LEZL 102100Z 22006KT CAVOK 17/11 Q1016 NOSIG",
      "taf": "TAF LEZL 102000Z 1021/1121 22012KT 9999 SCT030 TX23/1115Z TN11/1107Z"
    },
    {
      "icao": "LFBD",
      "alert": "OK",
      "vis_m": 9999,
      "fzfg": false,
      "metar_trigger": false,
      "taf_trigger": false,
      "metar": "METAR LFBD 102100Z AUTO 23004KT CAVOK 16/12 Q1010 TEMPO 30010KT SHRA SCT040CB",
      "taf": "TAF LFBD 101700Z 1018/1124 30010KT 9999 SCT040 TX20/1112Z TN11/1105Z"
    },
    {
      "icao": "LFLL",
      "alert": "OK",
      "vis_m": 9999,
      "fzfg": false,
      "metar_trigger": false,
      "taf_trigger": false,
      "metar": "METAR LFLL 102100Z 16005KT 9999 RA FEW026 FEW046CB BKN063 BKN090 14/12 Q1009 TEMPO 2000 TSRA",
      "taf": "TAF LFLL 101700Z 1018/1124 18006KT 9999 BKN030"
    },
    {
      "icao": "LFLS",
      "alert": "OK",
      "vis_m": 9999,
      "fzfg": false,
      "metar_trigger": false,
      "taf_trigger": false,
      "metar": "METAR LFLS 102100Z AUTO 23007KT 9999 +RA VCTS SCT023/// BKN042/// BKN052/// ///CB 15/13 Q1009",
      "taf": ""
    },
    {
      "icao": "LFMN",
      "alert": "OK",
      "vis_m": 9999,
      "fzfg": false,
      "metar_trigger": false,
      "taf_trigger": false,
      "metar": "METAR LFMN 102100Z 13006KT 9999 SCT012 BKN020 17/15 Q1012 NOSIG",
      "taf": "TAF LFMN 102000Z 1021/1203 10007KT 9999 FEW010 BKN030"
    },
    {
      "icao": "LFOB",
      "alert": "OK",
      "vis_m": 7000,
      "fzfg": false,
      "metar_trigger": false,
      "taf_trigger": false,
      "metar": "METAR LFOB 102100Z AUTO 02009KT 7000 -RA OVC008/// ///TCU 11/10 Q1008 TEMPO 3000 RA BKN008 OVC013",
      "taf": ""
    },
    {
      "icao": "LFPO",
      "alert": "OK",
      "vis_m": 5000,
      "fzfg": false,
      "metar_trigger": false,
      "taf_trigger": false,
      "metar": "METAR LFPO 102100Z AUTO 02008KT 340V040 5000 RA BR BKN007/// BKN011/// OVC023/// ///TCU 12/12 Q1007 TEMPO NSW BECMG BKN012",
      "taf": ""
    },
    {
      "icao": "LFSB",
      "alert": "OK",
      "vis_m": 9999,
      "fzfg": false,
      "metar_trigger": false,
      "taf_trigger": false,
      "metar": "METAR LFSB 102100Z AUTO 17004KT 9999 BKN046 OVC060 14/13 Q1008 TEMPO FEW040CB BKN050",
      "taf": "TAF LFSB 101700Z 1018/1118 18003KT CAVOK"
    },
    {
      "icao": "LGAV",
      "alert": "OK",
      "vis_m": 9999,
      "fzfg": false,
      "metar_trigger": false,
      "taf_trigger": false,
      "metar": "METAR LGAV 102120Z 24004KT 9999 FEW025 18/12 Q1015 NOSIG",
      "taf": "TAF LGAV 101700Z 1018/1118 VRB03KT 9999 FEW025"
    },
    {
      "icao": "LGTS",
      "alert": "OK",
      "vis_m": 9999,
      "fzfg": false,
      "metar_trigger": false,
      "taf_trigger": false,
      "metar": "METAR LGTS 102120Z 11005KT 9999 FEW025 16/14 Q1014 NOSIG",
      "taf": "TAF LGTS 101700Z 1018/1118 VRB03KT 9999 FEW025"
    },
    {
      "icao": "LHBP",
      "alert": "OK",
      "vis_m": 9999,
      "fzfg": false,
      "metar_trigger": false,
      "taf_trigger": false,
      "metar": "METAR LHBP 102100Z 12005KT CAVOK 16/09 Q1010 NOSIG",
      "taf": "TAF LHBP 101715Z 1018/1118 10005KT CAVOK"
    },
    {
      "icao": "LHDC",
      "alert": "OK",
      "vis_m": 9999,
      "fzfg": false,
      "metar_trigger": false,
      "taf_trigger": false,
      "metar": "METAR LHDC 102045Z AUTO 09004KT CAVOK 14/07 Q1011 NOSIG",
      "taf": "TAF LHDC 101715Z 1018/1103 VRB03KT CAVOK"
    },
    {
      "icao": "LIBD",
      "alert": "OK",
      "vis_m": 9999,
      "fzfg": false,
      "metar_trigger": false,
      "taf_trigger": false,
      "metar": "METAR LIBD 102120Z 20007KT 180V250 9999 FEW035 18/14 Q1012",
      "taf": "TAF LIBD 101700Z 1018/1118 22010KT CAVOK"
    },
    {
      "icao": "LIBG",
      "alert": "OK",
      "vis_m": null,
      "fzfg": false,
      "metar_trigger": false,
      "taf_trigger": false,
      "metar": "",
      "taf": "TAF LIBG 101400Z 1015/1024 18010KT 9999 SCT030"
    },
    {
      "icao": "LIBP",
      "alert": "OK",
      "vis_m": 9999,
      "fzfg": false,
      "metar_trigger": false,
      "taf_trigger": false,
      "metar": "METAR LIBP 102120Z AUTO 25004KT 9999 FEW013/// 15/15 Q1011",
      "taf": "TAF LIBP 101700Z 1018/1118 VRB05KT 9999 SCT040"
    },
    {
      "icao": "LIBR",
      "alert": "OK",
      "vis_m": 9999,
      "fzfg": false,
      "metar_trigger": false,
      "taf_trigger": false,
      "metar": "METAR LIBR 102120Z 18006KT CAVOK 18/13 Q1013",
      "taf": "TAF LIBR 101700Z 1018/1118 18010KT 9999 FEW040"
    },
    {
      "icao": "LICA",
      "alert": "OK",
      "vis_m": 9999,
      "fzfg": false,
      "metar_trigger": false,
      "taf_trigger": false,
      "metar": "METAR LICA 102120Z AUTO 22006KT 9999 NCD 19/17 Q1015",
      "taf": "TAF LICA 101700Z 1018/1118 26008KT 9999 FEW050"
    },
    {
      "icao": "LICC",
      "alert": "OK",
      "vis_m": 9999,
      "fzfg": false,
      "metar_trigger": false,
      "taf_trigger": false,
      "metar": "METAR LICC 102120Z 27006KT CAVOK 17/13 Q1014",
      "taf": "TAF LICC 101700Z 1018/1118 VRB05KT 9999 FEW080"
    },
    {
      "icao": "LICJ",
      "alert": "OK",
      "vis_m": 9999,
      "fzfg": false,
      "metar_trigger": false,
      "taf_trigger": false,
      "metar": "METAR LICJ 102120Z 28006KT 9999 SCT020 18/15 Q1015",
      "taf": "TAF LICJ 101700Z 1018/1118 27010KT 9999 FEW050"
    },
    {
      "icao": "LIMC",
      "alert": "OK",
      "vis_m": 9999,
      "fzfg": false,
      "metar_trigger": false,
      "taf_trigger": false,
      "metar": "METAR LIMC 102120Z 07003KT 040V120 9999 BKN020 14/12 Q1012 NOSIG",
      "taf": "TAF LIMC 101700Z 1018/1124 VRB05KT 9999 BKN040"
    },
    {
      "icao": "LIME",
      "alert": "OK",
      "vis_m": 9999,
      "fzfg": false,
      "metar_trigger": false,
      "taf_trigger": false,
      "metar": "METAR LIME 102120Z 02004KT 9999 SCT035 BKN050 14/13 Q1012 NOSIG",
      "taf": "TAF LIME 101700Z 1018/1118 VRB05KT 9999 SCT030"
    },
    {
      "icao": "LIMF",
      "alert": "OK",
      "vis_m": 6000,
      "fzfg": false,
      "metar_trigger": false,
      "taf_trigger": false,
      "metar": "METAR LIMF 102120Z 04002KT 6000 SCT030 BKN050 14/13 Q1012",
      "taf": "TAF LIMF 101700Z 1018/1118 VRB05KT 4000 BR BKN005 BKN030"
    },
    {
      "icao": "LIMJ",
      "alert": "OK",
      "vis_m": 9999,
      "fzfg": false,
      "metar_trigger": false,
      "taf_trigger": false,
      "metar": "METAR LIMJ 102120Z 01003KT 310V040 9999 BKN022 17/16 Q1012",
      "taf": "TAF LIMJ 101700Z 1018/1118 VRB05KT 9999 SCT020"
    },
    {
      "icao": "LIPE",
      "alert": "OK",
      "vis_m": 8000,
      "fzfg": false,
      "metar_trigger": false,
      "taf_trigger": false,
      "metar": "METAR LIPE 102120Z 26005KT 8000 FEW018 BKN060 17/16 Q1011",
      "taf": "TAF LIPE 101700Z 1018/1118 VRB05KT 9999 SCT040 SCT070"
    },
    {
      "icao": "LIPH",
      "alert": "OK",
      "vis_m": 9999,
      "fzfg": false,
      "metar_trigger": false,
      "taf_trigger": false,
      "metar": "METAR LIPH 102120Z AUTO VRB01KT 9999 OVC052/// 15/15 Q1011",
      "taf": "TAF LIPH 101700Z 1018/1118 VRB05KT 9999 BKN070"
    },
    {
      "icao": "LIPQ",
      "alert": "OK",
      "vis_m": 9999,
      "fzfg": false,
      "metar_trigger": false,
      "taf_trigger": false,
      "metar": "METAR LIPQ 102120Z AUTO VRB01KT 9999 BKN042/// OVC062/// 16/14 Q1011",
      "taf": "TAF LIPQ 101700Z 1018/1118 VRB05KT 9999 SCT030"
    },
    {
      "icao": "LIPR",
      "alert": "OK",
      "vis_m": 4900,
      "fzfg": false,
      "metar_trigger": false,
      "taf_trigger": false,
      "metar": "METAR LIPR 102120Z AUTO VRB02KT 4900 BR NCD 14/14 Q1011",
      "taf": "TAF LIPR 101700Z 1018/1118 10010KT 9999 FEW060"
    },
    {
      "icao": "LIPX",
      "alert": "OK",
      "vis_m": 9999,
      "fzfg": false,
      "metar_trigger": false,
      "taf_trigger": false,
      "metar": "METAR LIPX 102120Z VRB02KT 9999 -DZ BKN350 16/12 Q1011",
      "taf": "TAF LIPX 101700Z 1018/1118 VRB05KT 4000 RA"
    },
    {
      "icao": "LIPY",
      "alert": "OK",
      "vis_m": 9999,
      "fzfg": false,
      "metar_trigger": false,
      "taf_trigger": false,
      "metar": "METAR LIPY 102120Z AUTO 05001KT 9999 -RA FEW005/// BKN050/// 17/16 Q1011",
      "taf": "TAF LIPY 101700Z 1018/1118 VRB05KT 9999 FEW060"
    },
    {
      "icao": "LIPZ",
      "alert": "OK",
      "vis_m": 9999,
      "fzfg": false,
      "metar_trigger": false,
      "taf_trigger": false,
      "metar": "METAR LIPZ 102120Z 33003KT 9999 BKN045 16/15 Q1011 NOSIG",
      "taf": "TAF LIPZ 101700Z 1018/1124 VRB05KT 9999 SCT070"
    },
    {
      "icao": "LIRF",
      "alert": "OK",
      "vis_m": 9000,
      "fzfg": false,
      "metar_trigger": false,
      "taf_trigger": false,
      "metar": "METAR LIRF 102120Z 25005KT 9000 FEW005 SCT020 18/18 Q1012 NOSIG",
      "taf": "TAF LIRF 101700Z 1018/1124 16007KT 9999 SCT030"
    },
    {
      "icao": "LIRN",
      "alert": "OK",
      "vis_m": 8000,
      "fzfg": false,
      "metar_trigger": false,
      "taf_trigger": false,
      "metar": "METAR LIRN 102120Z 17007KT 8000 FEW015 BKN030 18/16 Q1014 NOSIG",
      "taf": "TAF LIRN 101700Z 1018/1118 20008KT 9999 SCT012 SCT030"
    },
    {
      "icao": "LIRP",
      "alert": "OK",
      "vis_m": 9999,
      "fzfg": false,
      "metar_trigger": false,
      "taf_trigger": false,
      "metar": "METAR LIRP 102115Z 24004KT 9999 BKN020 SCT066 17/15 Q1012 NOSIG",
      "taf": "TAF LIRP 101700Z 1018/1118 VRB03KT 9999 SCT030"
    },
    {
      "icao": "LIRZ",
      "alert": "OK",
      "vis_m": 9999,
      "fzfg": false,
      "metar_trigger": false,
      "taf_trigger": false,
      "metar": "METAR LIRZ 102120Z AUTO 28003KT 9999 OVC026/// 15/14 Q1012",
      "taf": "TAF LIRZ 101700Z 1018/1118 VRB05KT 9999 BKN030"
    },
    {
      "icao": "LJLJ",
      "alert": "OK",
      "vis_m": 9999,
      "fzfg": false,
      "metar_trigger": false,
      "taf_trigger": false,
      "metar": "METAR LJLJ 102100Z 23006KT 9999 FEW070 BKN140 15/07 Q1011 NOSIG",
      "taf": "TAF LJLJ 101700Z 1018/1118 12005KT 9999 SCT040 BKN080"
    },
    {
      "icao": "LKMT",
      "alert": "OK",
      "vis_m": 9999,
      "fzfg": false,
      "metar_trigger": false,
      "taf_trigger": false,
      "metar": "METAR LKMT 102100Z 00000KT CAVOK 13/08 Q1009 NOSIG",
      "taf": "TAF LKMT 101700Z 1018/1118 VRB02KT CAVOK"
    },
    {
      "icao": "LKPR",
      "alert": "OK",
      "vis_m": 9999,
      "fzfg": false,
      "metar_trigger": false,
      "taf_trigger": false,
      "metar": "METAR LKPR 102100Z 09007KT CAVOK 14/05 Q1008 NOSIG",
      "taf": "TAF LKPR 102000Z 1021/1203 10005KT CAVOK"
    },
    {
      "icao": "LLBG",
      "alert": "OK",
      "vis_m": 9999,
      "fzfg": false,
      "metar_trigger": false,
      "taf_trigger": false,
      "metar": "METAR LLBG 102120Z VRB03KT CAVOK 19/12 Q1015 NOSIG",
      "taf": "TAF LLBG 101702Z 1018/1118 VRB04KT CAVOK TX27/1111Z TN15/1103Z"
    },
    {
      "icao": "LMML",
      "alert": "OK",
      "vis_m": 9999,
      "fzfg": false,
      "metar_trigger": false,
      "taf_trigger": false,
      "metar": "METAR LMML 102115Z 32009KT CAVOK 18/16 Q1015 NOSIG",
      "taf": "TAF LMML 101700Z 1018/1118 03012KT 9999 FEW015"
    },
    {
      "icao": "LOWW",
      "alert": "OK",
      "vis_m": 9999,
      "fzfg": false,
      "metar_trigger": false,
      "taf_trigger": false,
      "metar": "METAR LOWW 102120Z 15006KT 9999 FEW002 16/11 Q1007 NOSIG",
      "taf": "TAF LOWW 102015Z 1021/1203 15010KT CAVOK TX21/1112Z TN12/1203Z"
    },
    {
      "icao": "LPFR",
      "alert": "OK",
      "vis_m": 9999,
      "fzfg": false,
      "metar_trigger": false,
      "taf_trigger": false,
      "metar": "METAR LPFR 102100Z 21009KT 9999 FEW020 17/13 Q1015",
      "taf": "TAF LPFR 101700Z 1018/1118 23013KT 9999 SCT020"
    },
    {
      "icao": "LPMA",
      "alert": "OK",
      "vis_m": 9999,
      "fzfg": false,
      "metar_trigger": false,
      "taf_trigger": false,
      "metar": "METAR LPMA 102100Z 34005KT 300V050 9999 FEW016 16/10 Q1016",
      "taf": "TAF LPMA 101700Z 1018/1118 03010KT 9999 SCT015"
    },
    {
      "icao": "LPPR",
      "alert": "OK",
      "vis_m": 9999,
      "fzfg": false,
      "metar_trigger": false,
      "taf_trigger": false,
      "metar": "METAR LPPR 102100Z 17012KT 9999 SCT012 FEW015CB SCT020 14/13 Q1009",
      "taf": ""
    },
    {
      "icao": "LPPS",
      "alert": "OK",
      "vis_m": 9999,
      "fzfg": false,
      "metar_trigger": false,
      "taf_trigger": false,
      "metar": "METAR LPPS 102100Z 29010KT 9999 FEW015 16/11 Q1016",
      "taf": "TAF LPPS 101700Z 1018/1124 27013KT 9999 SCT015"
    },
    {
      "icao": "LPPT",
      "alert": "OK",
      "vis_m": 9999,
      "fzfg": false,
      "metar_trigger": false,
      "taf_trigger": false,
      "metar": "METAR LPPT 102100Z 21014KT 9999 VCSH FEW010 SCT018 FEW022CB 15/13 Q1011",
      "taf": "TAF LPPT 101700Z 1018/1124 21018KT 9999 SCT025"
    },
    {
      "icao": "LQBK",
      "alert": "OK",
      "vis_m": 9999,
      "fzfg": false,
      "metar_trigger": false,
      "taf_trigger": false,
      "metar": "METAR LQBK 102100Z VRB03KT CAVOK 15/13 Q1011 NOSIG",
      "taf": ""
    },
    {
      "icao": "LQSA",
      "alert": "OK",
      "vis_m": 9999,
      "fzfg": false,
      "metar_trigger": false,
      "taf_trigger": false,
      "metar": "METAR LQSA 102100Z VRB02KT CAVOK 17/09 Q1012 NOSIG",
      "taf": "TAF LQSA 101700Z 1018/1118 VRB02KT 9999 SCT065 TX25/1114Z TN08/1104Z"
    },
    {
      "icao": "LQTZ",
      "alert": "OK",
      "vis_m": 9999,
      "fzfg": false,
      "metar_trigger": false,
      "taf_trigger": false,
      "metar": "METAR LQTZ 102100Z 34003KT CAVOK 14/14 Q1011",
      "taf": "TAF LQTZ 101700Z 1018/1118 10005KT CAVOK TX25/1113Z TN10/1104Z"
    },
    {
      "icao": "LRBC",
      "alert": "OK",
      "vis_m": 9999,
      "fzfg": false,
      "metar_trigger": false,
      "taf_trigger": false,
      "metar": "METAR LRBC 102100Z 07002KT 9999 BKN038 12/11 Q1015",
      "taf": "TAF LRBC 102000Z 1021/1106 VRB04KT 9999 SCT035"
    },
    {
      "icao": "LRBS",
      "alert": "OK",
      "vis_m": 9999,
      "fzfg": false,
      "metar_trigger": false,
      "taf_trigger": false,
      "metar": "METAR LRBS 102100Z 05003KT CAVOK 16/13 Q1014 NOSIG",
      "taf": ""
    },
    {
      "icao": "LRBV",
      "alert": "OK",
      "vis_m": 9999,
      "fzfg": false,
      "metar_trigger": false,
      "taf_trigger": false,
      "metar": "METAR LRBV 102100Z AUTO 12002KT 9999 NCD 11/09 Q1014",
      "taf": "TAF LRBV 101700Z 1018/1103 VRB04KT CAVOK"
    },
    {
      "icao": "LRCL",
      "alert": "OK",
      "vis_m": 9999,
      "fzfg": false,
      "metar_trigger": false,
      "taf_trigger": false,
      "metar": "METAR LRCL 102100Z AUTO 27002KT 9999 NCD 11/10 Q1013",
      "taf": "TAF LRCL 102000Z 1021/1106 VRB04KT CAVOK"
    },
    {
      "icao": "LRCV",
      "alert": "OK",
      "vis_m": 9999,
      "fzfg": false,
      "metar_trigger": false,
      "taf_trigger": false,
      "metar": "METAR LRCV 102100Z 10007KT CAVOK 14/13 Q1013",
      "taf": "TAF LRCV 102000Z 1021/1106 08007KT CAVOK"
    },
    {
      "icao": "LRIA",
      "alert": "OK",
      "vis_m": 9999,
      "fzfg": false,
      "metar_trigger": false,
      "taf_trigger": false,
      "metar": "METAR LRIA 102100Z 25003KT CAVOK 13/11 Q1014",
      "taf": "TAF LRIA 102000Z 1021/1106 VRB04KT 9999 SCT035"
    },
    {
      "icao": "LROP",
      "alert": "OK",
      "vis_m": 9999,
      "fzfg": false,
      "metar_trigger": false,
      "taf_trigger": false,
      "metar": "METAR LROP 102100Z 04004KT 350V070 CAVOK 16/13 Q1014 NOSIG",
      "taf": ""
    },
    {
      "icao": "LRSB",
      "alert": "OK",
      "vis_m": 9999,
      "fzfg": false,
      "metar_trigger": false,
      "taf_trigger": false,
      "metar": "METAR LRSB 102100Z VRB02KT 9999 SCT085 12/10 Q1013",
      "taf": "TAF LRSB 101700Z 1018/1118 VRB04KT CAVOK"
    },
    {
      "icao": "LRSM",
      "alert": "OK",
      "vis_m": 9999,
      "fzfg": false,
      "metar_trigger": false,
      "taf_trigger": false,
      "metar": "METAR LRSM 102100Z AUTO 00000KT 9999 NCD 11/07 Q1012",
      "taf": ""
    },
    {
      "icao": "LRSV",
      "alert": "OK",
      "vis_m": 9999,
      "fzfg": false,
      "metar_trigger": false,
      "taf_trigger": false,
      "metar": "METAR LRSV 102100Z 25004KT 9999 SCT040 12/10 Q1014",
      "taf": "TAF LRSV 102000Z 1021/1106 VRB04KT 9999 BKN035"
    },
    {
      "icao": "LRTM",
      "alert": "OK",
      "vis_m": 9999,
      "fzfg": false,
      "metar_trigger": false,
      "taf_trigger": false,
      "metar": "METAR LRTM 102100Z 10004KT CAVOK 10/09 Q1013",
      "taf": "TAF LRTM 102000Z 1021/1106 VRB04KT CAVOK"
    },
    {
      "icao": "LRTR",
      "alert": "OK",
      "vis_m": 9999,
      "fzfg": false,
      "metar_trigger": false,
      "taf_trigger": false,
      "metar": "METAR LRTR 102100Z 08007KT CAVOK 13/12 Q1011",
      "taf": "TAF LRTR 101700Z 1018/1118 10008KT CAVOK"
    },
    {
      "icao": "LTAC",
      "alert": "OK",
      "vis_m": 9999,
      "fzfg": false,
      "metar_trigger": false,
      "taf_trigger": false,
      "metar": "METAR LTAC 102120Z 05004KT 9999 FEW040 BKN080 13/09 Q1017 NOSIG RMK RWY21C 04002KT RWY03L 03004KT RWY21R VRB01KT RWY03R 00000KT RWY21L VRB02KT",
      "taf": "TAF LTAC 101640Z 1018/1118 VRB02KT 9999 FEW040 SCT100"
    },
    {
      "icao": "LTFM",
      "alert": "OK",
      "vis_m": 9999,
      "fzfg": false,
      "metar_trigger": false,
      "taf_trigger": false,
      "metar": "METAR LTFM 102120Z 13004KT 9999 FEW040 SCT090 17/11 Q1015 NOSIG RMK RWY17L VRB01KT RWY34L 11005KT 080V150 RWY16R VRB02KT RWY36 15002KT RWY18 12002KT",
      "taf": "TAF LTFM 101640Z 1018/1124 13012KT 9999 SCT040 BKN090"
    },
    {
      "icao": "LUKK",
      "alert": "OK",
      "vis_m": 9999,
      "fzfg": false,
      "metar_trigger": false,
      "taf_trigger": false,
      "metar": "METAR LUKK 102100Z 32005KT 270V340 9999 1700SE BCFG NSC 11/10 Q1014 BECMG 3000 BR",
      "taf": "TAF LUKK 101710Z 1018/1118 VRB05KT CAVOK"
    },
    {
      "icao": "LWOH",
      "alert": "OK",
      "vis_m": null,
      "fzfg": false,
      "metar_trigger": false,
      "taf_trigger": false,
      "metar": "",
      "taf": "TAF LWOH 102050Z 1021/1121 34005KT 9999 FEW040"
    },
    {
      "icao": "LWSK",
      "alert": "OK",
      "vis_m": 9999,
      "fzfg": false,
      "metar_trigger": false,
      "taf_trigger": false,
      "metar": "METAR LWSK 102120Z 17001KT 9999 FEW060 16/13 Q1013 NOSIG",
      "taf": "TAF LWSK 102050Z 1021/1121 VRB02KT 9999 FEW060"
    },
    {
      "icao": "LYBE",
      "alert": "OK",
      "vis_m": 9999,
      "fzfg": false,
      "metar_trigger": false,
      "taf_trigger": false,
      "metar": "METAR LYBE 102100Z 12005KT CAVOK 16/11 Q1011 NOSIG",
      "taf": "TAF LYBE 101700Z 1018/1118 14005KT CAVOK TX25/1113Z TN15/1103Z"
    },
    {
      "icao": "LYNI",
      "alert": "OK",
      "vis_m": 9999,
      "fzfg": false,
      "metar_trigger": false,
      "taf_trigger": false,
      "metar": "METAR LYNI 102100Z 10004KT CAVOK 16/11 Q1012 NOSIG",
      "taf": "TAF LYNI 101700Z 1018/1118 08004KT CAVOK TX27/1113Z TN11/1103Z"
    },
    {
      "icao": "LYPG",
      "alert": "OK",
      "vis_m": 9999,
      "fzfg": false,
      "metar_trigger": false,
      "taf_trigger": false,
      "metar": "METAR LYPG 102100Z 13002KT 9999 FEW034 17/12 Q1014 NOSIG",
      "taf": "TAF LYPG 101700Z 1018/1118 36005KT 9999 FEW030 SCT040 BKN080 TX23/1114Z TN15/1104Z"
    },
    {
      "icao": "LZIB",
      "alert": "OK",
      "vis_m": 9999,
      "fzfg": false,
      "metar_trigger": false,
      "taf_trigger": false,
      "metar": "METAR LZIB 102100Z VRB02KT CAVOK 16/10 Q1008 NOSIG",
      "taf": "TAF LZIB 101715Z 1018/1118 15008KT CAVOK"
    },
    {
      "icao": "LZKZ",
      "alert": "OK",
      "vis_m": 9999,
      "fzfg": false,
      "metar_trigger": false,
      "taf_trigger": false,
      "metar": "METAR LZKZ 102100Z 34004KT CAVOK 12/06 Q1011 NOSIG",
      "taf": "TAF LZKZ 101715Z 1018/1118 VRB02KT CAVOK"
    },
    {
      "icao": "LZTT",
      "alert": "OK",
      "vis_m": 9999,
      "fzfg": false,
      "metar_trigger": false,
      "taf_trigger": false,
      "metar": "METAR LZTT 102100Z 26004KT CAVOK 09/07 Q1012",
      "taf": "TAF LZTT 101715Z 1018/1118 15005KT 9999 FEW060"
    },
    {
      "icao": "OEJN",
      "alert": "OK",
      "vis_m": 9999,
      "fzfg": false,
      "metar_trigger": false,
      "taf_trigger": false,
      "metar": "METAR OEJN 102100Z 01002KT CAVOK 30/19 Q1009 NOSIG",
      "taf": "TAF OEJN 101700Z 1018/1124 36004KT 7000 NSC"
    },
    {
      "icao": "OEMA",
      "alert": "OK",
      "vis_m": 9999,
      "fzfg": false,
      "metar_trigger": false,
      "taf_trigger": false,
      "metar": "METAR OEMA 102100Z 29008KT CAVOK 34/M02 Q1014 NOSIG",
      "taf": "TAF OEMA 101700Z 1018/1124 27005KT 9999 FEW045"
    },
    {
      "icao": "OJAI",
      "alert": "OK",
      "vis_m": 5000,
      "fzfg": false,
      "metar_trigger": false,
      "taf_trigger": false,
      "metar": "METAR OJAI 102100Z 24003KT 5000 HZ NSC 17/06 Q1017 NOSIG",
      "taf": "TAF OJAI 101700Z 1018/1124 31008KT 5000 HZ NSC"
    },
    {
      "icao": "OMAA",
      "alert": "OK",
      "vis_m": 9999,
      "fzfg": false,
      "metar_trigger": false,
      "taf_trigger": false,
      "metar": "METAR OMAA 102100Z 26005KT CAVOK 28/17 Q1007 NOSIG",
      "taf": "TAF OMAA 101700Z 1018/1200 29010KT 8000 NSC"
    },
    {
      "icao": "OMDB",
      "alert": "OK",
      "vis_m": 9999,
      "fzfg": false,
      "metar_trigger": false,
      "taf_trigger": false,
      "metar": "METAR OMDB 102100Z 19007KT CAVOK 28/18 Q1006 NOSIG",
      "taf": "TAF OMDB 101700Z 1018/1200 26010KT CAVOK"
    },
    {
      "icao": "UAAA",
      "alert": "OK",
      "vis_m": 9999,
      "fzfg": false,
      "metar_trigger": false,
      "taf_trigger": false,
      "metar": "METAR UAAA 102100Z VRB01MPS 9999 SCT050CB BKN100 12/11 Q1014 NOSIG",
      "taf": "TAF UAAA 101702Z 1018/1118 17003G08MPS 4000 BR BKN030CB OVC100 TX18/1106Z TN11/1100Z"
    },
    {
      "icao": "UBBB",
      "alert": "OK",
      "vis_m": 9999,
      "fzfg": false,
      "metar_trigger": false,
      "taf_trigger": false,
      "metar": "METAR UBBB 102100Z 19006KT CAVOK 17/15 Q1017 NOSIG",
      "taf": "TAF UBBB 101658Z 1018/1118 15008KT CAVOK TX24/1110Z TN14/1101Z"
    },
    {
      "icao": "UDSG",
      "alert": "OK",
      "vis_m": 9999,
      "fzfg": false,
      "metar_trigger": false,
      "taf_trigger": false,
      "metar": "METAR UDSG 102100Z 30005KT 9999 BKN043CB 09/07 Q1021 NOSIG",
      "taf": "TAF UDSG 101658Z 1018/1118 06006KT 9999 SCT050"
    },
    {
      "icao": "UDYZ",
      "alert": "OK",
      "vis_m": 9999,
      "fzfg": false,
      "metar_trigger": false,
      "taf_trigger": false,
      "metar": "METAR UDYZ 102100Z 11003KT 9999 NSC 16/08 Q1017 NOSIG",
      "taf": "TAF UDYZ 101700Z 1018/1118 16006KT 9999 FEW040"
    },
    {
      "icao": "UGKO",
      "alert": "OK",
      "vis_m": 9999,
      "fzfg": false,
      "metar_trigger": false,
      "taf_trigger": false,
      "metar": "METAR UGKO 102100Z 11005KT CAVOK 15/12 Q1014 NOSIG",
      "taf": "TAF UGKO 101700Z 1018/1118 08008KT CAVOK TX30/1112Z TN12/1102Z"
    }
  ]
}