{
  "ts_utc": "2025-12-29T22:56:35Z",
  "threshold_m": 150,
  "source": "stations_override.txt (ICAO list) + aviationweather.gov (METAR/TAF raw)",
  "station_count": 159,
  "stations": [
    {
      "icao": "BIKF",
      "alert": "OK",
      "vis_m": 9999,
      "fzfg": false,
      "metar_trigger": false,
      "taf_trigger": false,
      "metar": "METAR BIKF 292230Z 29006KT 9999 FEW021 BKN034 04/02 Q1039",
      "taf": "TAF BIKF 292213Z 3000/3100 27005KT 9999 BKN019 OVC032 TX06/3021Z TN03/3000Z"
    },
    {
      "icao": "BKPR",
      "alert": "OK",
      "vis_m": null,
      "fzfg": false,
      "metar_trigger": false,
      "taf_trigger": false,
      "metar": "",
      "taf": "TAF BKPR 291730Z 2918/3018 18007KT CAVOK"
    },
    {
      "icao": "EBCI",
      "alert": "OK",
      "vis_m": 700,
      "fzfg": false,
      "metar_trigger": false,
      "taf_trigger": false,
      "metar": "METAR EBCI 292250Z 36004KT 320V030 0700 R24/1900N FG SCT001 BKN002 03/02 Q1026 NOSIG",
      "taf": "TAF EBCI 291706Z 2918/3024 01005KT 6000 BKN025"
    },
    {
      "icao": "EDDB",
      "alert": "OK",
      "vis_m": 9999,
      "fzfg": false,
      "metar_trigger": false,
      "taf_trigger": false,
      "metar": "METAR EDDB 292250Z AUTO 35007KT CAVOK 01/M04 Q1018 NOSIG",
      "taf": "TAF EDDB 291700Z 2918/3018 31010KT 9999 BKN015"
    },
    {
      "icao": "EDDH",
      "alert": "OK",
      "vis_m": 9999,
      "fzfg": false,
      "metar_trigger": false,
      "taf_trigger": false,
      "metar": "METAR EDDH 292250Z AUTO 32005KT 9999 SCT024 01/M00 Q1022 NOSIG",
      "taf": "TAF EDDH 291700Z 2918/3024 31011KT CAVOK"
    },
    {
      "icao": "EDDK",
      "alert": "OK",
      "vis_m": 2000,
      "fzfg": false,
      "metar_trigger": false,
      "taf_trigger": false,
      "metar": "METAR EDDK 292250Z AUTO 34005KT 2000 1000 R31R/P2000N R06/P2000N BR BKN002 02/02 Q1025 TEMPO 1000",
      "taf": ""
    },
    {
      "icao": "EDDN",
      "alert": "OK",
      "vis_m": 9999,
      "fzfg": false,
      "metar_trigger": false,
      "taf_trigger": false,
      "metar": "METAR EDDN 292250Z AUTO 28006KT 9999 -SN OVC005 M00/M01 Q1020",
      "taf": "TAF EDDN 291700Z 2918/3018 28006KT 9999 SCT008 BKN020"
    },
    {
      "icao": "EDDS",
      "alert": "OK",
      "vis_m": 9999,
      "fzfg": false,
      "metar_trigger": false,
      "taf_trigger": false,
      "metar": "METAR EDDS 292250Z AUTO 23003KT 9999 BKN015 BKN021 BKN026 M02/M03 Q1022",
      "taf": "TAF EDDS 291700Z 2918/3018 33004KT 9999 OVC020"
    },
    {
      "icao": "EDFH",
      "alert": "OK",
      "vis_m": 2000,
      "fzfg": false,
      "metar_trigger": false,
      "taf_trigger": false,
      "metar": "METAR EDFH 292250Z 28005KT 2000 -SN BKN001 M00/M01 Q1022 REFZDZ",
      "taf": ""
    },
    {
      "icao": "EDJA",
      "alert": "OK",
      "vis_m": 5000,
      "fzfg": false,
      "metar_trigger": false,
      "taf_trigger": false,
      "metar": "METAR EDJA 292250Z AUTO 35005KT 5000 // OVC004/// M04/M05 Q1021",
      "taf": "TAF EDJA 291700Z 2918/3003 23006KT 6000 OVC003"
    },
    {
      "icao": "EDLW",
      "alert": "OK",
      "vis_m": 5000,
      "fzfg": false,
      "metar_trigger": false,
      "taf_trigger": false,
      "metar": "METAR EDLW 292250Z AUTO 28004KT 250V330 5000 // OVC046/// 02/02 Q1024",
      "taf": ""
    },
    {
      "icao": "EDNY",
      "alert": "OK",
      "vis_m": 9999,
      "fzfg": false,
      "metar_trigger": false,
      "taf_trigger": false,
      "metar": "METAR EDNY 292250Z AUTO 02003KT 320V070 9999 OVC015/// M02/M04 Q1022",
      "taf": "TAF EDNY 291700Z 2918/3003 VRB02KT 9999 OVC012"
    },
    {
      "icao": "EDSB",
      "alert": "OK",
      "vis_m": 3100,
      "fzfg": false,
      "metar_trigger": false,
      "taf_trigger": false,
      "metar": "METAR EDSB 292250Z 22006KT 3100 BR OVC003 M03/M03 Q1024",
      "taf": ""
    },
    {
      "icao": "EETN",
      "alert": "OK",
      "vis_m": 9000,
      "fzfg": false,
      "metar_trigger": false,
      "taf_trigger": false,
      "metar": "METAR EETN 292250Z 35015G28KT 9000 -SHSN DRSN SCT019CB BKN034 M03/M09 Q0993",
      "taf": ""
    },
    {
      "icao": "EFTU",
      "alert": "OK",
      "vis_m": 9999,
      "fzfg": false,
      "metar_trigger": false,
      "taf_trigger": false,
      "metar": "METAR EFTU 292250Z AUTO 35012G22KT 280V030 9999 OVC028 M02/M08 Q0998",
      "taf": "TAF EFTU 292023Z 2921/3021 34012KT CAVOK"
    },
    {
      "icao": "EGBB",
      "alert": "OK",
      "vis_m": 8000,
      "fzfg": false,
      "metar_trigger": false,
      "taf_trigger": false,
      "metar": "METAR EGBB 292250Z 35004KT 8000 OVC029 05/04 Q1032",
      "taf": ""
    },
    {
      "icao": "EGGP",
      "alert": "OK",
      "vis_m": 9999,
      "fzfg": false,
      "metar_trigger": false,
      "taf_trigger": false,
      "metar": "METAR EGGP 292250Z 01005KT 9999 BKN030 05/03 Q1033",
      "taf": ""
    },
    {
      "icao": "EGGW",
      "alert": "OK",
      "vis_m": 9999,
      "fzfg": false,
      "metar_trigger": false,
      "taf_trigger": false,
      "metar": "METAR EGGW 292250Z 03009KT 9999 BKN003 05/04 Q1030 RERA",
      "taf": ""
    },
    {
      "icao": "EGKK",
      "alert": "OK",
      "vis_m": 9999,
      "fzfg": false,
      "metar_trigger": false,
      "taf_trigger": false,
      "metar": "METAR EGKK 292250Z 03007KT 9999 BKN020 06/04 Q1029",
      "taf": "TAF EGKK 291652Z 2918/3024 04009KT 9999 SCT025"
    },
    {
      "icao": "EGNM",
      "alert": "OK",
      "vis_m": 9999,
      "fzfg": false,
      "metar_trigger": false,
      "taf_trigger": false,
      "metar": "METAR EGNM 292220Z 03004KT 360V070 9999 FEW017 SCT033 04/03 Q1032",
      "taf": "TAF EGNM 291656Z 2918/3018 01006KT 9999 BKN018"
    },
    {
      "icao": "EGPD",
      "alert": "OK",
      "vis_m": 9999,
      "fzfg": false,
      "metar_trigger": false,
      "taf_trigger": false,
      "metar": "METAR EGPD 292250Z COR AUTO 33006KT 9999 BKN039 02/M02 Q1037 NOSIG",
      "taf": ""
    },
    {
      "icao": "EGPF",
      "alert": "OK",
      "vis_m": 9999,
      "fzfg": false,
      "metar_trigger": false,
      "taf_trigger": false,
      "metar": "METAR EGPF 292250Z AUTO 00000KT 9999 BKN041 M01/M02 Q1037",
      "taf": "TAF EGPF 291654Z 2918/3018 05004KT 9999 BKN030"
    },
    {
      "icao": "EHBK",
      "alert": "OK",
      "vis_m": 700,
      "fzfg": false,
      "metar_trigger": false,
      "taf_trigger": false,
      "metar": "METAR EHBK 292225Z AUTO 31001KT 0700 R21/1000N FG VV000 02/02 Q1025",
      "taf": "TAF EHBK 291718Z 2918/3024 26003KT 0700 FG BKN000"
    },
    {
      "icao": "EHEH",
      "alert": "OK",
      "vis_m": 2000,
      "fzfg": false,
      "metar_trigger": false,
      "taf_trigger": false,
      "metar": "METAR EHEH 292225Z AUTO 33005KT 290V010 2000 BR OVC330 02/02 Q1026 YLO",
      "taf": "TAF EHEH 291722Z 2918/3024 26005KT 9999 FEW018 BKN025"
    },
    {
      "icao": "EKBI",
      "alert": "OK",
      "vis_m": 9999,
      "fzfg": false,
      "metar_trigger": false,
      "taf_trigger": false,
      "metar": "METAR EKBI 292250Z AUTO 33006KT 9999 NCD M01/M06 Q1023",
      "taf": "TAF EKBI 292027Z 2921/3021 33008KT 9999 SCT040"
    },
    {
      "icao": "EKCH",
      "alert": "OK",
      "vis_m": 9999,
      "fzfg": false,
      "metar_trigger": false,
      "taf_trigger": false,
      "metar": "METAR EKCH 292250Z AUTO 35020KT 9999 NCD 02/M08 Q1018 TEMPO 35018G28KT",
      "taf": ""
    },
    {
      "icao": "ENAL",
      "alert": "OK",
      "vis_m": 9999,
      "fzfg": false,
      "metar_trigger": false,
      "taf_trigger": false,
      "metar": "METAR ENAL 292250Z AUTO 36007KT 320V030 9999 -SN FEW006/// SCT025/// BKN040/// 01/M03 Q1029",
      "taf": "TAF ENAL 292000Z 2921/3006 34015KT 9999 FEW004 SCT020CB"
    },
    {
      "icao": "ENBR",
      "alert": "OK",
      "vis_m": 9999,
      "fzfg": false,
      "metar_trigger": false,
      "taf_trigger": false,
      "metar": "METAR ENBR 292250Z 36005KT CAVOK M00/M03 Q1028 RMK WIND 1200FT 35017KT",
      "taf": "TAF ENBR 291700Z 2918/3018 34012KT 9999 FEW035"
    },
    {
      "icao": "ENGM",
      "alert": "OK",
      "vis_m": 9999,
      "fzfg": false,
      "metar_trigger": false,
      "taf_trigger": false,
      "metar": "METAR ENGM 292250Z 35010KT 320V020 CAVOK M02/M10 Q1019",
      "taf": "TAF ENGM 291700Z 2918/3018 34010KT CAVOK"
    },
    {
      "icao": "ENHD",
      "alert": "OK",
      "vis_m": 9999,
      "fzfg": false,
      "metar_trigger": false,
      "taf_trigger": false,
      "metar": "METAR ENHD 292250Z AUTO 03013KT 9999 NCD 01/M05 Q1028",
      "taf": "TAF ENHD 291400Z 2915/2923 35025KT 9999 SCT040"
    },
    {
      "icao": "ENTC",
      "alert": "OK",
      "vis_m": 9999,
      "fzfg": false,
      "metar_trigger": false,
      "taf_trigger": false,
      "metar": "METAR ENTC 292250Z 02008KT 9999 -SN VV019 M05/M07 Q1013 RMK WIND 2600FT 36024KT",
      "taf": ""
    },
    {
      "icao": "ENTO",
      "alert": "OK",
      "vis_m": 9999,
      "fzfg": false,
      "metar_trigger": false,
      "taf_trigger": false,
      "metar": "METAR ENTO 292250Z AUTO 34007KT 9999 NCD M01/M12 Q1021",
      "taf": "TAF ENTO 291700Z 2918/3018 33010KT CAVOK"
    },
    {
      "icao": "ENVA",
      "alert": "OK",
      "vis_m": 4000,
      "fzfg": false,
      "metar_trigger": false,
      "taf_trigger": false,
      "metar": "METAR ENVA 292250Z 31015KT 280V340 4000 -SHSN BKN012 M01/M02 Q1021 RMK WIND 670FT 32025G35KT",
      "taf": "TAF ENVA 291700Z 2918/3018 31009KT 9999 SCT015CB BKN025"
    },
    {
      "icao": "ENZV",
      "alert": "OK",
      "vis_m": 9999,
      "fzfg": false,
      "metar_trigger": false,
      "taf_trigger": false,
      "metar": "METAR ENZV 292250Z 34014KT CAVOK 02/M05 Q1028",
      "taf": "TAF ENZV 291700Z 2918/3018 35018KT CAVOK"
    },
    {
      "icao": "EPGD",
      "alert": "OK",
      "vis_m": 4800,
      "fzfg": false,
      "metar_trigger": false,
      "taf_trigger": false,
      "metar": "METAR EPGD 292230Z 31023G33KT 4800 -SHGSSN FEW010TCU BKN040 M01/M07 Q1007",
      "taf": ""
    },
    {
      "icao": "EPKK",
      "alert": "OK",
      "vis_m": 8000,
      "fzfg": false,
      "metar_trigger": false,
      "taf_trigger": false,
      "metar": "METAR EPKK 292230Z 26013KT 8000 -SN OVC030 M00/M02 Q1009",
      "taf": ""
    },
    {
      "icao": "EPKT",
      "alert": "OK",
      "vis_m": 2000,
      "fzfg": false,
      "metar_trigger": false,
      "taf_trigger": false,
      "metar": "METAR EPKT 292230Z 28009KT 2000 SN FEW006 BKN008 M00/M01 Q1009",
      "taf": ""
    },
    {
      "icao": "EPLB",
      "alert": "OK",
      "vis_m": 7000,
      "fzfg": false,
      "metar_trigger": false,
      "taf_trigger": false,
      "metar": "METAR EPLB 292230Z 31007KT 7000 -SHSN SCT016CB BKN024 M01/M02 Q1005",
      "taf": ""
    },
    {
      "icao": "EPMO",
      "alert": "OK",
      "vis_m": 9999,
      "fzfg": false,
      "metar_trigger": false,
      "taf_trigger": false,
      "metar": "METAR EPMO 292230Z 29007KT CAVOK M03/M06 Q1007",
      "taf": "TAF EPMO 291730Z 2918/3018 28013KT 9999 SCT030"
    },
    {
      "icao": "EPPO",
      "alert": "OK",
      "vis_m": 9999,
      "fzfg": false,
      "metar_trigger": false,
      "taf_trigger": false,
      "metar": "METAR EPPO 292230Z 31010KT CAVOK M00/M04 Q1013",
      "taf": "TAF EPPO 291730Z 2918/3018 32010KT 9999 BKN012"
    },
    {
      "icao": "EPRA",
      "alert": "OK",
      "vis_m": 9999,
      "fzfg": false,
      "metar_trigger": false,
      "taf_trigger": false,
      "metar": "METAR EPRA 292230Z 34009G21KT 320V020 9999 SCT025 BKN035 00/M04 Q1007",
      "taf": "TAF EPRA 292030Z 2921/3006 28012KT 9999 BKN017 OVC040"
    },
    {
      "icao": "EPRZ",
      "alert": "OK",
      "vis_m": 9999,
      "fzfg": false,
      "metar_trigger": false,
      "taf_trigger": false,
      "metar": "METAR EPRZ 292230Z 26014KT 9999 -SN SCT008 OVC011 M00/M02 Q1007",
      "taf": ""
    },
    {
      "icao": "EPSC",
      "alert": "OK",
      "vis_m": 9999,
      "fzfg": false,
      "metar_trigger": false,
      "taf_trigger": false,
      "metar": "METAR EPSC 292230Z 29008KT CAVOK M04/M08 Q1015",
      "taf": "TAF EPSC 291730Z 2918/3018 33010KT CAVOK"
    },
    {
      "icao": "EPSY",
      "alert": "OK",
      "vis_m": 3300,
      "fzfg": false,
      "metar_trigger": false,
      "taf_trigger": false,
      "metar": "METAR EPSY 292230Z 28006KT 240V330 3300 SHSN BKN013 BKN018CB M03/M04 Q1005",
      "taf": "TAF EPSY 292030Z 2921/3006 31012KT 9999 SCT030"
    },
    {
      "icao": "EPWA",
      "alert": "OK",
      "vis_m": 9999,
      "fzfg": false,
      "metar_trigger": false,
      "taf_trigger": false,
      "metar": "METAR EPWA 292230Z 30010KT 9999 FEW030 M02/M05 Q1007 NOSIG",
      "taf": "TAF EPWA 292030Z 2921/3021 30013KT 9999 SCT025"
    },
    {
      "icao": "EPWR",
      "alert": "OK",
      "vis_m": 9999,
      "fzfg": false,
      "metar_trigger": false,
      "taf_trigger": false,
      "metar": "METAR EPWR 292230Z 31012KT 9999 FEW008 SCT043 01/01 Q1012",
      "taf": "TAF EPWR 292030Z 2921/3021 29012KT 9999 BKN012"
    },
    {
      "icao": "ESGG",
      "alert": "OK",
      "vis_m": 9999,
      "fzfg": false,
      "metar_trigger": false,
      "taf_trigger": false,
      "metar": "METAR ESGG 292250Z 33008KT CAVOK M02/M10 Q1017",
      "taf": "TAF ESGG 292030Z 2921/3021 34012KT CAVOK"
    },
    {
      "icao": "ESKN",
      "alert": "OK",
      "vis_m": 9999,
      "fzfg": false,
      "metar_trigger": false,
      "taf_trigger": false,
      "metar": "METAR ESKN 292250Z 31013KT CAVOK M03/M10 Q1011",
      "taf": "TAF ESKN 292030Z 2921/3021 33015G28KT CAVOK"
    },
    {
      "icao": "ESMS",
      "alert": "OK",
      "vis_m": 9999,
      "fzfg": false,
      "metar_trigger": false,
      "taf_trigger": false,
      "metar": "METAR ESMS 292250Z 32013KT CAVOK M01/M09 Q1017",
      "taf": "TAF ESMS 292027Z 2921/3021 32012KT CAVOK"
    },
    {
      "icao": "ESSA",
      "alert": "OK",
      "vis_m": 9999,
      "fzfg": false,
      "metar_trigger": false,
      "taf_trigger": false,
      "metar": "METAR ESSA 292250Z 31015KT CAVOK M04/M11 Q1008 NOSIG",
      "taf": "TAF ESSA 292030Z 2921/3021 34015G25KT CAVOK"
    },
    {
      "icao": "EYKA",
      "alert": "OK",
      "vis_m": 9999,
      "fzfg": false,
      "metar_trigger": false,
      "taf_trigger": false,
      "metar": "METAR EYKA 292250Z 29008KT 250V340 9999 FEW019 M03/M06 Q0999",
      "taf": "TAF EYKA 291728Z 2918/3018 30011KT 9000 SCT025"
    },
    {
      "icao": "EYPA",
      "alert": "OK",
      "vis_m": 9999,
      "fzfg": false,
      "metar_trigger": false,
      "taf_trigger": false,
      "metar": "METAR EYPA 292250Z 01012KT 340V040 9999 -SHSN FEW040CB SCT049 M02/M05 Q1002",
      "taf": "TAF EYPA 291726Z 2918/3018 34012G23KT 5000 SHSNRA SCT020CB BKN030"
    },
    {
      "icao": "EYVI",
      "alert": "OK",
      "vis_m": 9000,
      "fzfg": false,
      "metar_trigger": false,
      "taf_trigger": false,
      "metar": "METAR EYVI 292250Z 30009KT 270V330 9000 -SHSN BKN013CB M04/M06 Q0997 NOSIG",
      "taf": ""
    },
    {
      "icao": "GCFV",
      "alert": "OK",
      "vis_m": 9999,
      "fzfg": false,
      "metar_trigger": false,
      "taf_trigger": false,
      "metar": "METAR GCFV 292230Z 28005KT 9999 FEW030 16/11 Q1021",
      "taf": "TAF GCFV 292000Z 2921/3021 29004KT 9999 FEW035 TX21/3014Z TN14/3006Z"
    },
    {
      "icao": "GCLP",
      "alert": "OK",
      "vis_m": 9999,
      "fzfg": false,
      "metar_trigger": false,
      "taf_trigger": false,
      "metar": "METAR GCLP 292230Z 30003KT 250V360 9999 BKN023 18/14 Q1021 NOSIG",
      "taf": "TAF GCLP 292000Z 2921/3021 30004KT 9999 SCT030 TX22/3014Z TN15/3006Z"
    },
    {
      "icao": "GCTS",
      "alert": "OK",
      "vis_m": 9999,
      "fzfg": false,
      "metar_trigger": false,
      "taf_trigger": false,
      "metar": "METAR GCTS 292230Z VRB01KT 9999 BKN024 18/13 Q1021 NOSIG",
      "taf": "TAF GCTS 292000Z 2921/3021 35003KT 9999 SCT030 TX24/3014Z TN16/3006Z"
    },
    {
      "icao": "GMAD",
      "alert": "OK",
      "vis_m": 9999,
      "fzfg": false,
      "metar_trigger": false,
      "taf_trigger": false,
      "metar": "METAR GMAD 292230Z 14006KT 9999 FEW026 11/11 Q1021 NOSIG",
      "taf": "TAF GMAD 291700Z 2918/3024 18005KT 8000 SCT020 SCT080"
    },
    {
      "icao": "GMMN",
      "alert": "OK",
      "vis_m": 8000,
      "fzfg": false,
      "metar_trigger": false,
      "taf_trigger": false,
      "metar": "METAR GMMN 292230Z 18005KT 8000 SCT016 09/08 Q1022 NOSIG",
      "taf": "TAF GMMN 291700Z 2918/3024 30006KT 9999 SCT020"
    },
    {
      "icao": "GMMX",
      "alert": "OK",
      "vis_m": 8000,
      "fzfg": false,
      "metar_trigger": false,
      "taf_trigger": false,
      "metar": "METAR GMMX 292230Z VRB02KT 8000 SCT020 SCT090 09/08 Q1021 NOSIG",
      "taf": "TAF GMMX 291700Z 2918/3024 24012KT 8000 SCT020"
    },
    {
      "icao": "HEGN",
      "alert": "OK",
      "vis_m": 9999,
      "fzfg": false,
      "metar_trigger": false,
      "taf_trigger": false,
      "metar": "METAR HEGN 292200Z 27005KT CAVOK 15/05 Q1020 NOSIG",
      "taf": ""
    },
    {
      "icao": "HEMA",
      "alert": "OK",
      "vis_m": 9999,
      "fzfg": false,
      "metar_trigger": false,
      "taf_trigger": false,
      "metar": "METAR HEMA 292200Z 25007KT CAVOK 16/11 Q1016 NOSIG",
      "taf": ""
    },
    {
      "icao": "HESH",
      "alert": "OK",
      "vis_m": 9999,
      "fzfg": false,
      "metar_trigger": false,
      "taf_trigger": false,
      "metar": "METAR HESH 292200Z 27004KT CAVOK 17/04 Q1018 NOSIG",
      "taf": ""
    },
    {
      "icao": "HESX",
      "alert": "OK",
      "vis_m": 9999,
      "fzfg": false,
      "metar_trigger": false,
      "taf_trigger": false,
      "metar": "METAR HESX 292200Z 05004KT CAVOK 13/10 Q1020 NOSIG",
      "taf": ""
    },
    {
      "icao": "LATI",
      "alert": "OK",
      "vis_m": 9999,
      "fzfg": false,
      "metar_trigger": false,
      "taf_trigger": false,
      "metar": "METAR LATI 292250Z 17005KT CAVOK 00/M03 Q1017 NOSIG",
      "taf": "TAF LATI 291700Z 2918/3018 VRB04KT CAVOK TX16/3012Z TNM03/3005Z"
    },
    {
      "icao": "LBPD",
      "alert": "OK",
      "vis_m": 9999,
      "fzfg": false,
      "metar_trigger": false,
      "taf_trigger": false,
      "metar": "METAR LBPD 292230Z AUTO 18006KT 9999 NCD 02/M08 Q1011",
      "taf": "TAF LBPD 291700Z 2918/3018 VRB03KT CAVOK"
    },
    {
      "icao": "LBSF",
      "alert": "OK",
      "vis_m": 9999,
      "fzfg": false,
      "metar_trigger": false,
      "taf_trigger": false,
      "metar": "METAR LBSF 292230Z AUTO 00000KT 9999 NCD M03/M06 Q1013 NOSIG",
      "taf": "TAF LBSF 291700Z 2918/3018 VRB03KT CAVOK"
    },
    {
      "icao": "LBWN",
      "alert": "OK",
      "vis_m": 9999,
      "fzfg": false,
      "metar_trigger": false,
      "taf_trigger": false,
      "metar": "METAR LBWN 292230Z AUTO 32005KT 9999 NCD M03/M06 Q1010 NOSIG",
      "taf": "TAF LBWN 291700Z 2918/3018 29008KT CAVOK"
    },
    {
      "icao": "LCLK",
      "alert": "OK",
      "vis_m": 9999,
      "fzfg": false,
      "metar_trigger": false,
      "taf_trigger": false,
      "metar": "METAR LCLK 292230Z 30006KT CAVOK 07/03 Q1017 NOSIG",
      "taf": "TAF LCLK 291730Z 2918/3018 32007KT 9999 FEW025"
    },
    {
      "icao": "LCPH",
      "alert": "OK",
      "vis_m": 9999,
      "fzfg": false,
      "metar_trigger": false,
      "taf_trigger": false,
      "metar": "METAR LCPH 292230Z 02005KT 010V080 CAVOK 08/02 Q1016 NOSIG",
      "taf": "TAF LCPH 291730Z 2918/3018 34010KT 9999 FEW020"
    },
    {
      "icao": "LEAL",
      "alert": "OK",
      "vis_m": 9999,
      "fzfg": false,
      "metar_trigger": false,
      "taf_trigger": false,
      "metar": "METAR LEAL 292230Z VRB01KT CAVOK 09/09 Q1020 NOSIG",
      "taf": "TAF LEAL 291700Z 2918/3018 29005KT 9999 FEW030 TX18/3013Z TN07/3006Z"
    },
    {
      "icao": "LEBB",
      "alert": "OK",
      "vis_m": 9999,
      "fzfg": false,
      "metar_trigger": false,
      "taf_trigger": false,
      "metar": "METAR LEBB 292230Z 09002KT 9999 FEW016 SCT028 BKN060 07/07 Q1021 NOSIG",
      "taf": "TAF LEBB 291700Z 2918/3018 21005KT 9999 BKN020 TX12/3014Z TN06/2921Z"
    },
    {
      "icao": "LEBL",
      "alert": "OK",
      "vis_m": 9999,
      "fzfg": false,
      "metar_trigger": false,
      "taf_trigger": false,
      "metar": "METAR LEBL 292230Z 30006KT CAVOK 09/09 Q1019 NOSIG",
      "taf": "TAF LEBL 291700Z 2918/3018 34006KT 9999 SCT030 TX15/3012Z TN07/3007Z"
    },
    {
      "icao": "LECH",
      "alert": "OK",
      "vis_m": 8000,
      "fzfg": false,
      "metar_trigger": false,
      "taf_trigger": false,
      "metar": "METAR LECH 292230Z AUTO 20005KT 8000 NCD 08/07 Q1019",
      "taf": ""
    },
    {
      "icao": "LEMD",
      "alert": "OK",
      "vis_m": 9999,
      "fzfg": false,
      "metar_trigger": false,
      "taf_trigger": false,
      "metar": "METAR LEMD 292230Z VRB02KT CAVOK 03/03 Q1020 NOSIG",
      "taf": "TAF LEMD 291700Z 2918/3024 VRB04KT 9999 SCT045 TX11/3015Z TNM01/3007Z"
    },
    {
      "icao": "LEMG",
      "alert": "OK",
      "vis_m": 9999,
      "fzfg": false,
      "metar_trigger": false,
      "taf_trigger": false,
      "metar": "METAR LEMG 292230Z 30004KT 9999 FEW050 09/08 Q1021 NOSIG",
      "taf": "TAF LEMG 291700Z 2918/3018 29008KT 9999 SCT070 TX18/3014Z TN06/3006Z"
    },
    {
      "icao": "LEVC",
      "alert": "OK",
      "vis_m": 9999,
      "fzfg": false,
      "metar_trigger": false,
      "taf_trigger": false,
      "metar": "METAR LEVC 292230Z 27003KT 240V310 9999 FEW052 08/07 Q1020 NOSIG",
      "taf": "TAF LEVC 291700Z 2918/3018 VRB04KT 9999 FEW020 TX17/3013Z TN05/3006Z"
    },
    {
      "icao": "LEXJ",
      "alert": "OK",
      "vis_m": 9999,
      "fzfg": false,
      "metar_trigger": false,
      "taf_trigger": false,
      "metar": "METAR LEXJ 292230Z AUTO 04001KT 9999 4200E NCD 08/07 Q1021",
      "taf": ""
    },
    {
      "icao": "LEZG",
      "alert": "OK",
      "vis_m": 8000,
      "fzfg": false,
      "metar_trigger": false,
      "taf_trigger": false,
      "metar": "METAR LEZG 292230Z 25007KT 8000 OVC080 07/07 Q1020 NOSIG",
      "taf": "TAF LEZG 291700Z 2918/3018 29008KT 9999 SCT010 TX13/3014Z TN04/3006Z"
    },
    {
      "icao": "LEZL",
      "alert": "OK",
      "vis_m": 9999,
      "fzfg": false,
      "metar_trigger": false,
      "taf_trigger": false,
      "metar": "METAR LEZL 292230Z 17003KT CAVOK 10/09 Q1021 NOSIG",
      "taf": "TAF LEZL 292000Z 2921/3021 VRB03KT CAVOK TX16/3015Z TN06/3006Z"
    },
    {
      "icao": "LFBD",
      "alert": "OK",
      "vis_m": 600,
      "fzfg": false,
      "metar_trigger": false,
      "taf_trigger": false,
      "metar": "METAR LFBD 292230Z AUTO 33004KT 0600 0550 R23/0700N R05/0800N R29/0700N FG VV/// 01/M00 Q1021 NOSIG",
      "taf": ""
    },
    {
      "icao": "LFLL",
      "alert": "OK",
      "vis_m": 6000,
      "fzfg": false,
      "metar_trigger": false,
      "taf_trigger": false,
      "metar": "METAR LFLL 292230Z 36007KT 340V040 6000 OVC006 M00/M02 Q1022 TEMPO 4000 BR BKN004",
      "taf": "TAF LFLL 291700Z 2918/3024 36006KT 7000 OVC007"
    },
    {
      "icao": "LFLS",
      "alert": "OK",
      "vis_m": 5000,
      "fzfg": false,
      "metar_trigger": false,
      "taf_trigger": false,
      "metar": "METAR LFLS 292230Z AUTO 01008KT 5000 BR OVC003 M01/M01 Q1020",
      "taf": ""
    },
    {
      "icao": "LFMN",
      "alert": "OK",
      "vis_m": 9999,
      "fzfg": false,
      "metar_trigger": false,
      "taf_trigger": false,
      "metar": "METAR LFMN 292230Z 33011KT CAVOK 07/M00 Q1016 NOSIG",
      "taf": "TAF LFMN 292000Z 2921/3103 33010KT CAVOK"
    },
    {
      "icao": "LFOB",
      "alert": "OK",
      "vis_m": 9999,
      "fzfg": false,
      "metar_trigger": false,
      "taf_trigger": false,
      "metar": "METAR LFOB 292230Z AUTO VRB03KT 9999 OVC028 02/01 Q1027",
      "taf": ""
    },
    {
      "icao": "LFPO",
      "alert": "OK",
      "vis_m": 9999,
      "fzfg": false,
      "metar_trigger": false,
      "taf_trigger": false,
      "metar": "METAR LFPO 292230Z 05010KT 9999 BKN018 02/M01 Q1026 NOSIG",
      "taf": "TAF LFPO 291700Z 2918/3024 01010KT CAVOK"
    },
    {
      "icao": "LFSB",
      "alert": "OK",
      "vis_m": 4600,
      "fzfg": true,
      "metar_trigger": false,
      "taf_trigger": false,
      "metar": "METAR LFSB 292230Z AUTO 32004KT 280V350 4600 BR OVC003 M03/M03 Q1024 TEMPO 0500 FZFG VV///",
      "taf": "TAF LFSB 291700Z 2918/3018 33004KT 4000 BR OVC005"
    },
    {
      "icao": "LGAV",
      "alert": "OK",
      "vis_m": 9999,
      "fzfg": false,
      "metar_trigger": false,
      "taf_trigger": false,
      "metar": "METAR LGAV 292250Z 25002KT 9999 FEW025 05/02 Q1017 NOSIG",
      "taf": "TAF LGAV 291700Z 2918/3018 23008KT 9999 FEW025"
    },
    {
      "icao": "LGTS",
      "alert": "OK",
      "vis_m": 9999,
      "fzfg": false,
      "metar_trigger": false,
      "taf_trigger": false,
      "metar": "METAR LGTS 292250Z 11006KT CAVOK 01/M04 Q1015 NOSIG",
      "taf": ""
    },
    {
      "icao": "LHBP",
      "alert": "OK",
      "vis_m": 9999,
      "fzfg": false,
      "metar_trigger": false,
      "taf_trigger": false,
      "metar": "METAR LHBP 292230Z 30011KT CAVOK 00/M05 Q1012 NOSIG",
      "taf": "TAF LHBP 291715Z 2918/3018 29012KT CAVOK"
    },
    {
      "icao": "LHDC",
      "alert": "OK",
      "vis_m": 6000,
      "fzfg": false,
      "metar_trigger": false,
      "taf_trigger": false,
      "metar": "METAR LHDC 292215Z AUTO 04004KT 6000 NCD M06/M07 Q1010",
      "taf": "TAF LHDC 291715Z 2918/3003 14006KT CAVOK"
    },
    {
      "icao": "LIBD",
      "alert": "OK",
      "vis_m": 9999,
      "fzfg": false,
      "metar_trigger": false,
      "taf_trigger": false,
      "metar": "METAR LIBD 292250Z 20008KT CAVOK 05/04 Q1015",
      "taf": "TAF LIBD 291700Z 2918/3018 20006KT CAVOK"
    },
    {
      "icao": "LIBG",
      "alert": "OK",
      "vis_m": null,
      "fzfg": false,
      "metar_trigger": false,
      "taf_trigger": false,
      "metar": "",
      "taf": "TAF LIBG 291700Z 2918/3003 VRB05KT CAVOK"
    },
    {
      "icao": "LIBP",
      "alert": "OK",
      "vis_m": 9999,
      "fzfg": false,
      "metar_trigger": false,
      "taf_trigger": false,
      "metar": "METAR LIBP 292250Z AUTO 21006KT 9999 NCD M00/M01 Q1015",
      "taf": "TAF LIBP 291700Z 2918/3018 VRB05KT 9999 FEW030"
    },
    {
      "icao": "LIBR",
      "alert": "OK",
      "vis_m": 9999,
      "fzfg": false,
      "metar_trigger": false,
      "taf_trigger": false,
      "metar": "METAR LIBR 292250Z 22003KT CAVOK 06/04 Q1016",
      "taf": "TAF LIBR 291700Z 2918/3018 23006KT 9999 FEW025"
    },
    {
      "icao": "LICA",
      "alert": "OK",
      "vis_m": 9999,
      "fzfg": false,
      "metar_trigger": false,
      "taf_trigger": false,
      "metar": "METAR LICA 292250Z AUTO 08005KT 9999 FEW180/// 06/05 Q1016",
      "taf": "TAF LICA 291700Z 2918/3018 07006KT 9999 SCT030"
    },
    {
      "icao": "LICC",
      "alert": "OK",
      "vis_m": 9999,
      "fzfg": false,
      "metar_trigger": false,
      "taf_trigger": false,
      "metar": "METAR LICC 292250Z 25005KT 9999 SCT100 07/05 Q1017",
      "taf": "TAF LICC 291700Z 2918/3018 VRB05KT 9999 SCT030"
    },
    {
      "icao": "LICJ",
      "alert": "OK",
      "vis_m": 9999,
      "fzfg": false,
      "metar_trigger": false,
      "taf_trigger": false,
      "metar": "METAR LICJ 292250Z 16002KT CAVOK 12/08 Q1016",
      "taf": "TAF LICJ 291700Z 2918/3018 17006KT 9999 SCT020"
    },
    {
      "icao": "LIMC",
      "alert": "OK",
      "vis_m": 9999,
      "fzfg": false,
      "metar_trigger": false,
      "taf_trigger": false,
      "metar": "METAR LIMC 292250Z 03005KT CAVOK M01/M02 Q1014 NOSIG",
      "taf": "TAF LIMC 291700Z 2918/3024 VRB04KT CAVOK"
    },
    {
      "icao": "LIME",
      "alert": "OK",
      "vis_m": 9999,
      "fzfg": false,
      "metar_trigger": false,
      "taf_trigger": false,
      "metar": "METAR LIME 292250Z 02003KT CAVOK 01/M01 Q1014 NOSIG",
      "taf": "TAF LIME 291700Z 2918/3018 VRB04KT CAVOK"
    },
    {
      "icao": "LIMF",
      "alert": "OK",
      "vis_m": 9999,
      "fzfg": false,
      "metar_trigger": false,
      "taf_trigger": false,
      "metar": "METAR LIMF 292250Z 32003KT 290V360 CAVOK 01/M04 Q1014",
      "taf": "TAF LIMF 291700Z 2918/3018 VRB05KT CAVOK"
    },
    {
      "icao": "LIMJ",
      "alert": "OK",
      "vis_m": 9999,
      "fzfg": false,
      "metar_trigger": false,
      "taf_trigger": false,
      "metar": "METAR LIMJ 292250Z VRB06KT 9999 SCT030 11/06 Q1015",
      "taf": "TAF LIMJ 291700Z 2918/3018 13006KT 9999 FEW020"
    },
    {
      "icao": "LIPE",
      "alert": "OK",
      "vis_m": 9999,
      "fzfg": false,
      "metar_trigger": false,
      "taf_trigger": false,
      "metar": "METAR LIPE 292250Z 19005KT CAVOK 02/M01 Q1014",
      "taf": "TAF LIPE 291700Z 2918/3018 VRB06KT 8000 NSC"
    },
    {
      "icao": "LIPH",
      "alert": "CRITICAL",
      "vis_m": 100,
      "fzfg": true,
      "metar_trigger": true,
      "taf_trigger": false,
      "metar": "METAR LIPH 292250Z AUTO VRB02KT 0100 R07/0400N FZFG VV002 M02/M02 Q1015",
      "taf": "TAF LIPH 291700Z 2918/3018 VRB05KT 0300 FG BKN002"
    },
    {
      "icao": "LIPQ",
      "alert": "OK",
      "vis_m": 9999,
      "fzfg": false,
      "metar_trigger": false,
      "taf_trigger": false,
      "metar": "METAR LIPQ 292250Z AUTO VRB01KT 9999 BKN019/// 03/02 Q1014",
      "taf": "TAF LIPQ 291700Z 2918/3018 VRB05KT CAVOK"
    },
    {
      "icao": "LIPR",
      "alert": "OK",
      "vis_m": 4200,
      "fzfg": false,
      "metar_trigger": false,
      "taf_trigger": false,
      "metar": "METAR LIPR 292250Z AUTO 26002KT 4200 BR NCD M01/M01 Q1014",
      "taf": "TAF LIPR 291700Z 2918/3018 VRB05KT 3000 BR FEW020"
    },
    {
      "icao": "LIPX",
      "alert": "OK",
      "vis_m": 6000,
      "fzfg": false,
      "metar_trigger": false,
      "taf_trigger": false,
      "metar": "METAR LIPX 292250Z 35004KT 330V030 6000 NSC M01/M02 Q1014",
      "taf": "TAF LIPX 291700Z 2918/3018 VRB05KT 1400 BCFG NSC"
    },
    {
      "icao": "LIPY",
      "alert": "OK",
      "vis_m": 3700,
      "fzfg": false,
      "metar_trigger": false,
      "taf_trigger": false,
      "metar": "METAR LIPY 292250Z AUTO 19004KT 3700 BR OVC002/// 05/05 Q1015",
      "taf": "TAF LIPY 291700Z 2918/3018 VRB05KT 9999 FEW030"
    },
    {
      "icao": "LIPZ",
      "alert": "CRITICAL",
      "vis_m": 100,
      "fzfg": true,
      "metar_trigger": true,
      "taf_trigger": false,
      "metar": "METAR LIPZ 292250Z 32004KT 280V350 0100 R04R/0450N FZFG VV001 M02/M02 Q1015 NOSIG",
      "taf": ""
    },
    {
      "icao": "LIRF",
      "alert": "OK",
      "vis_m": 9999,
      "fzfg": false,
      "metar_trigger": false,
      "taf_trigger": false,
      "metar": "METAR LIRF 292250Z 07003KT 9999 SCT035 06/05 Q1017 NOSIG",
      "taf": "TAF LIRF 291700Z 2918/3024 07007KT 9999 SCT025"
    },
    {
      "icao": "LIRN",
      "alert": "OK",
      "vis_m": 9999,
      "fzfg": false,
      "metar_trigger": false,
      "taf_trigger": false,
      "metar": "METAR LIRN 292250Z VRB02KT CAVOK 06/03 Q1016 NOSIG",
      "taf": "TAF LIRN 291700Z 2918/3018 VRB05KT 9999 FEW025"
    },
    {
      "icao": "LIRP",
      "alert": "OK",
      "vis_m": 9999,
      "fzfg": false,
      "metar_trigger": false,
      "taf_trigger": false,
      "metar": "METAR LIRP 292215Z 12003KT 9999 FEW030 SCT040 05/04 Q1016 NOSIG",
      "taf": "TAF LIRP 291700Z 2918/3018 14005KT 9999 SCT020 SCT040"
    },
    {
      "icao": "LIRZ",
      "alert": "OK",
      "vis_m": 9999,
      "fzfg": false,
      "metar_trigger": false,
      "taf_trigger": false,
      "metar": "METAR LIRZ 292250Z AUTO VRB02KT 9999 SCT025/// M01/M02 Q1017",
      "taf": "TAF LIRZ 291700Z 2918/3018 VRB03KT 9999 FEW030"
    },
    {
      "icao": "LJLJ",
      "alert": "OK",
      "vis_m": 9999,
      "fzfg": false,
      "metar_trigger": false,
      "taf_trigger": false,
      "metar": "METAR LJLJ 292230Z VRB01KT 9999 MIFG FEW002 M04/M06 Q1013 NOSIG",
      "taf": "TAF LJLJ 291700Z 2918/3018 30002KT CAVOK"
    },
    {
      "icao": "LKMT",
      "alert": "OK",
      "vis_m": 6000,
      "fzfg": false,
      "metar_trigger": false,
      "taf_trigger": false,
      "metar": "METAR LKMT 292230Z 23009KT 6000 -SN FEW016 OVC028 M01/M02 Q1011 TEMPO 3500 SN OVC012",
      "taf": "TAF LKMT 291700Z 2918/3018 23008KT 9999 OVC030"
    },
    {
      "icao": "LKPR",
      "alert": "OK",
      "vis_m": 9999,
      "fzfg": false,
      "metar_trigger": false,
      "taf_trigger": false,
      "metar": "METAR LKPR 292230Z 25010KT 9999 FEW016 BKN035 00/M01 Q1015 TEMPO 6000 SHSN BKN016",
      "taf": "TAF LKPR 292000Z 2921/3103 26010KT 9999 BKN025"
    },
    {
      "icao": "LLBG",
      "alert": "OK",
      "vis_m": 9999,
      "fzfg": false,
      "metar_trigger": false,
      "taf_trigger": false,
      "metar": "METAR LLBG 292250Z 26006KT 9999 SCT042 15/08 Q1017 NOSIG",
      "taf": "TAF LLBG 291707Z 2918/3018 27008KT 9999 SCT040"
    },
    {
      "icao": "LMML",
      "alert": "OK",
      "vis_m": 9999,
      "fzfg": false,
      "metar_trigger": false,
      "taf_trigger": false,
      "metar": "METAR LMML 292245Z 22003KT 9999 FEW020 11/10 Q1016 NOSIG",
      "taf": ""
    },
    {
      "icao": "LOWW",
      "alert": "OK",
      "vis_m": 9999,
      "fzfg": false,
      "metar_trigger": false,
      "taf_trigger": false,
      "metar": "METAR LOWW 292250Z 29016KT 9999 FEW040 BKN042 M00/M05 Q1015 NOSIG",
      "taf": "TAF LOWW 292015Z 2921/3103 30013KT CAVOK TX02/3012Z TNM02/3102Z"
    },
    {
      "icao": "LPFR",
      "alert": "OK",
      "vis_m": 9999,
      "fzfg": false,
      "metar_trigger": false,
      "taf_trigger": false,
      "metar": "METAR LPFR 292230Z 02005KT 9999 FEW020 09/07 Q1021",
      "taf": "TAF LPFR 291700Z 2918/3018 VRB05KT 9999 FEW018"
    },
    {
      "icao": "LPMA",
      "alert": "OK",
      "vis_m": 9999,
      "fzfg": false,
      "metar_trigger": false,
      "taf_trigger": false,
      "metar": "METAR LPMA 292230Z 20019KT 9999 SCT015 18/15 Q1018",
      "taf": "TAF LPMA 291700Z 2918/3018 21015KT 9999 SCT015 BKN030"
    },
    {
      "icao": "LPPR",
      "alert": "OK",
      "vis_m": 7000,
      "fzfg": false,
      "metar_trigger": false,
      "taf_trigger": false,
      "metar": "METAR LPPR 292230Z VRB01KT 7000 3200N NSC 07/07 Q1021",
      "taf": "TAF LPPR 291700Z 2918/3018 VRB02KT CAVOK"
    },
    {
      "icao": "LPPS",
      "alert": "OK",
      "vis_m": 9999,
      "fzfg": false,
      "metar_trigger": false,
      "taf_trigger": false,
      "metar": "METAR LPPS 292230Z 22012KT 9999 SCT011 SCT030 18/16 Q1018",
      "taf": "TAF LPPS 291700Z 2918/3024 20017KT 9999 SCT012 BKN030"
    },
    {
      "icao": "LPPT",
      "alert": "OK",
      "vis_m": 9999,
      "fzfg": false,
      "metar_trigger": false,
      "taf_trigger": false,
      "metar": "METAR LPPT 292230Z VRB02KT CAVOK 10/08 Q1021",
      "taf": "TAF LPPT 291700Z 2918/3024 VRB02KT CAVOK"
    },
    {
      "icao": "LQBK",
      "alert": "OK",
      "vis_m": 9999,
      "fzfg": false,
      "metar_trigger": false,
      "taf_trigger": false,
      "metar": "METAR LQBK 292230Z 14002KT CAVOK M05/M05 Q1014 NOSIG",
      "taf": "TAF LQBK 291700Z 2918/3018 22004KT CAVOK TX03/3013Z TNM05/3006Z"
    },
    {
      "icao": "LQSA",
      "alert": "OK",
      "vis_m": 5000,
      "fzfg": false,
      "metar_trigger": false,
      "taf_trigger": false,
      "metar": "METAR LQSA 292230Z 22001KT 5000 BR NSC M06/M06 Q1015",
      "taf": "TAF LQSA 291700Z 2918/3018 VRB02KT CAVOK TX03/3013Z TNM06/3006Z"
    },
    {
      "icao": "LQTZ",
      "alert": "OK",
      "vis_m": 5000,
      "fzfg": false,
      "metar_trigger": false,
      "taf_trigger": false,
      "metar": "METAR LQTZ 292230Z VRB01KT 5000 BR NSC M06/M06 Q1013",
      "taf": "TAF LQTZ 291700Z 2918/3018 VRB02KT CAVOK TX02/3013Z TNM04/3005Z"
    },
    {
      "icao": "LRBC",
      "alert": "OK",
      "vis_m": 9999,
      "fzfg": false,
      "metar_trigger": false,
      "taf_trigger": false,
      "metar": "METAR LRBC 292230Z VRB01KT CAVOK M05/M07 Q1008",
      "taf": "TAF LRBC 292000Z 2921/3006 34008KT CAVOK"
    },
    {
      "icao": "LRBS",
      "alert": "OK",
      "vis_m": 9999,
      "fzfg": false,
      "metar_trigger": false,
      "taf_trigger": false,
      "metar": "METAR LRBS 292230Z 28004KT 250V320 CAVOK M02/M04 Q1009 NOSIG",
      "taf": "TAF LRBS 291700Z 2918/3018 VRB04KT CAVOK"
    },
    {
      "icao": "LRBV",
      "alert": "OK",
      "vis_m": 9999,
      "fzfg": false,
      "metar_trigger": false,
      "taf_trigger": false,
      "metar": "METAR LRBV 292230Z AUTO VRB02KT 9999 FEW036/// M05/M08 Q1008",
      "taf": "TAF LRBV 292000Z 2921/3006 27008KT 9999 SCT030"
    },
    {
      "icao": "LRCL",
      "alert": "OK",
      "vis_m": 9999,
      "fzfg": false,
      "metar_trigger": false,
      "taf_trigger": false,
      "metar": "METAR LRCL 292230Z 07003KT CAVOK M07/M08 Q1009",
      "taf": "TAF LRCL 292000Z 2921/3006 VRB04KT CAVOK"
    },
    {
      "icao": "LRCV",
      "alert": "OK",
      "vis_m": 9999,
      "fzfg": false,
      "metar_trigger": false,
      "taf_trigger": false,
      "metar": "METAR LRCV 292230Z 31007KT CAVOK 01/M08 Q1009",
      "taf": "TAF LRCV 292000Z 2921/3006 28015KT CAVOK"
    },
    {
      "icao": "LRIA",
      "alert": "OK",
      "vis_m": 9999,
      "fzfg": false,
      "metar_trigger": false,
      "taf_trigger": false,
      "metar": "METAR LRIA 292230Z 26005KT 220V300 9999 OVC041 M00/M06 Q1007",
      "taf": "TAF LRIA 292000Z 2921/3006 25006KT CAVOK"
    },
    {
      "icao": "LROP",
      "alert": "OK",
      "vis_m": 9999,
      "fzfg": false,
      "metar_trigger": false,
      "taf_trigger": false,
      "metar": "METAR LROP 292230Z 24005KT CAVOK M04/M05 Q1008 NOSIG",
      "taf": "TAF LROP 291700Z 2918/3018 VRB04KT CAVOK"
    },
    {
      "icao": "LRSB",
      "alert": "OK",
      "vis_m": 9999,
      "fzfg": false,
      "metar_trigger": false,
      "taf_trigger": false,
      "metar": "METAR LRSB 292230Z 28005KT CAVOK M07/M09 Q1009 NOSIG",
      "taf": "TAF LRSB 291700Z 2918/3018 29012KT CAVOK"
    },
    {
      "icao": "LRSM",
      "alert": "OK",
      "vis_m": 9999,
      "fzfg": false,
      "metar_trigger": false,
      "taf_trigger": false,
      "metar": "METAR LRSM 292230Z AUTO VRB02KT 9999 OVC041/// M02/M03 Q1010",
      "taf": "TAF LRSM 291400Z 2915/2924 25014KT 9999 BKN015"
    },
    {
      "icao": "LRSV",
      "alert": "OK",
      "vis_m": 9999,
      "fzfg": false,
      "metar_trigger": false,
      "taf_trigger": false,
      "metar": "METAR LRSV 292230Z 27010KT 9999 SCT034 M02/M07 Q1004",
      "taf": "TAF LRSV 292000Z 2921/3006 29006KT 9999 BKN035"
    },
    {
      "icao": "LRTM",
      "alert": "OK",
      "vis_m": 9999,
      "fzfg": false,
      "metar_trigger": false,
      "taf_trigger": false,
      "metar": "METAR LRTM 292230Z AUTO 13004KT 9999 R25////// NCD M07/M09 Q1010",
      "taf": "TAF LRTM 291400Z 2915/2924 22010KT CAVOK"
    },
    {
      "icao": "LRTR",
      "alert": "OK",
      "vis_m": 9999,
      "fzfg": false,
      "metar_trigger": false,
      "taf_trigger": false,
      "metar": "METAR LRTR 292230Z 24003KT 220V280 CAVOK M02/M04 Q1012 NOSIG",
      "taf": "TAF LRTR 291700Z 2918/3018 VRB04KT CAVOK"
    },
    {
      "icao": "LTAC",
      "alert": "OK",
      "vis_m": 9999,
      "fzfg": false,
      "metar_trigger": false,
      "taf_trigger": false,
      "metar": "METAR LTAC 292220Z 25005KT 200V260 9999 SCT040 M04/M08 Q1014 NOSIG RMK RWY21C 24008KT RWY03L 23005KT 200V260 RWY21R 22008KT RWY03R 22003KT 150V260 RWY21L 24007KT",
      "taf": "TAF LTAC 291640Z 2918/3018 24009KT 9999 SCT040 SCT100"
    },
    {
      "icao": "LTFM",
      "alert": "OK",
      "vis_m": 9999,
      "fzfg": false,
      "metar_trigger": false,
      "taf_trigger": false,
      "metar": "METAR LTFM 292220Z 21015KT CAVOK 05/01 Q1013 NOSIG RMK RWY17L 21015KT RWY34L 20014KT RWY16R 21013KT RWY36 21012KT RWY18 22017KT",
      "taf": "TAF LTFM 291640Z 2918/3024 22012KT CAVOK"
    },
    {
      "icao": "LUKK",
      "alert": "OK",
      "vis_m": 9999,
      "fzfg": false,
      "metar_trigger": false,
      "taf_trigger": false,
      "metar": "METAR LUKK 292230Z 27009KT 9999 OVC042 M01/M05 Q1006 NOSIG",
      "taf": "TAF LUKK 291722Z 2918/3018 30010KT CAVOK"
    },
    {
      "icao": "LWOH",
      "alert": "OK",
      "vis_m": null,
      "fzfg": false,
      "metar_trigger": false,
      "taf_trigger": false,
      "metar": "",
      "taf": "TAF LWOH 292030Z 2921/3021 34006KT CAVOK"
    },
    {
      "icao": "LWSK",
      "alert": "OK",
      "vis_m": 9999,
      "fzfg": false,
      "metar_trigger": false,
      "taf_trigger": false,
      "metar": "METAR LWSK 292250Z VRB01KT CAVOK M06/M08 Q1016 NOSIG",
      "taf": "TAF LWSK 292030Z 2921/3021 VRB02KT CAVOK"
    },
    {
      "icao": "LYBE",
      "alert": "OK",
      "vis_m": 9999,
      "fzfg": false,
      "metar_trigger": false,
      "taf_trigger": false,
      "metar": "METAR LYBE 292230Z VRB02KT CAVOK M01/M05 Q1013 NOSIG",
      "taf": "TAF LYBE 291700Z 2918/3018 24004KT CAVOK TX03/3013Z TNM04/3006Z"
    },
    {
      "icao": "LYNI",
      "alert": "OK",
      "vis_m": 7000,
      "fzfg": false,
      "metar_trigger": false,
      "taf_trigger": false,
      "metar": "METAR LYNI 292230Z 10006KT 7000 NSC M02/M05 Q1014 NOSIG",
      "taf": "TAF LYNI 291700Z 2918/3018 10004KT CAVOK TX04/3013Z TNM05/3006Z"
    },
    {
      "icao": "LYPG",
      "alert": "OK",
      "vis_m": 9999,
      "fzfg": false,
      "metar_trigger": false,
      "taf_trigger": false,
      "metar": "METAR LYPG 292230Z VRB02KT CAVOK 00/M04 Q1017 NOSIG",
      "taf": "TAF LYPG 291700Z 2918/3018 36006KT CAVOK TX09/3013Z TNM02/3005Z"
    },
    {
      "icao": "LZIB",
      "alert": "OK",
      "vis_m": 9999,
      "fzfg": false,
      "metar_trigger": false,
      "taf_trigger": false,
      "metar": "METAR LZIB 292230Z 27012KT 9999 BKN046 01/M05 Q1014 NOSIG",
      "taf": ""
    },
    {
      "icao": "LZKZ",
      "alert": "OK",
      "vis_m": 9999,
      "fzfg": false,
      "metar_trigger": false,
      "taf_trigger": false,
      "metar": "METAR LZKZ 292230Z 22003KT 200V330 9999 SCT038 M05/M07 Q1009 NOSIG",
      "taf": "TAF LZKZ 291715Z 2918/3018 VRB02KT CAVOK"
    },
    {
      "icao": "LZTT",
      "alert": "OK",
      "vis_m": 9999,
      "fzfg": false,
      "metar_trigger": false,
      "taf_trigger": false,
      "metar": "METAR LZTT 292230Z VRB02KT 9999 OVC021 M06/M08 Q1007",
      "taf": ""
    },
    {
      "icao": "OEJN",
      "alert": "OK",
      "vis_m": 9999,
      "fzfg": false,
      "metar_trigger": false,
      "taf_trigger": false,
      "metar": "METAR OEJN 292200Z 03004KT CAVOK 21/16 Q1016 NOSIG",
      "taf": "TAF OEJN 291700Z 2918/3024 05008KT 7000 NSC"
    },
    {
      "icao": "OEMA",
      "alert": "OK",
      "vis_m": 9999,
      "fzfg": false,
      "metar_trigger": false,
      "taf_trigger": false,
      "metar": "METAR OEMA 292200Z 30005KT CAVOK 17/M02 Q1019 NOSIG",
      "taf": "TAF OEMA 291700Z 2918/3024 30005KT CAVOK"
    },
    {
      "icao": "OJAI",
      "alert": "OK",
      "vis_m": 3000,
      "fzfg": false,
      "metar_trigger": false,
      "taf_trigger": false,
      "metar": "METAR OJAI 292200Z 27016KT 3000 BR SCT025 09/07 Q1017 NOSIG",
      "taf": "TAF OJAI 291639Z 2918/3024 27015G25KT 3000 BR SCT030"
    },
    {
      "icao": "OMAA",
      "alert": "OK",
      "vis_m": 9999,
      "fzfg": false,
      "metar_trigger": false,
      "taf_trigger": false,
      "metar": "METAR OMAA 292200Z 32008KT CAVOK 22/12 Q1013 NOSIG",
      "taf": "TAF OMAA 291700Z 2918/3100 34007KT 8000 NSC"
    },
    {
      "icao": "OMDB",
      "alert": "OK",
      "vis_m": 9999,
      "fzfg": false,
      "metar_trigger": false,
      "taf_trigger": false,
      "metar": "METAR OMDB 292230Z 30014KT CAVOK 23/12 Q1013 NOSIG",
      "taf": "TAF OMDB 291700Z 2918/3100 29013KT 8000 NSC"
    },
    {
      "icao": "UAAA",
      "alert": "OK",
      "vis_m": 1900,
      "fzfg": false,
      "metar_trigger": false,
      "taf_trigger": false,
      "metar": "METAR UAAA 292230Z 22002MPS 1900 R05R/P2000 BR SCT100 M02/M04 Q1006 NOSIG",
      "taf": "TAF UAAA 291702Z 2918/3018 14003MPS 1200 BR FU FEW050 SCT100 TX07/3009Z TNM04/3001Z"
    },
    {
      "icao": "UBBB",
      "alert": "OK",
      "vis_m": 9999,
      "fzfg": false,
      "metar_trigger": false,
      "taf_trigger": false,
      "metar": "METAR UBBB 292230Z 09008KT CAVOK 05/01 Q1000 NOSIG",
      "taf": "TAF UBBB 292254Z 3000/3024 18010KT CAVOK TX08/3006Z TN04/3002Z"
    },
    {
      "icao": "UDSG",
      "alert": "OK",
      "vis_m": 9000,
      "fzfg": false,
      "metar_trigger": false,
      "taf_trigger": false,
      "metar": "METAR UDSG 292230Z 10002KT 9000 OVC033 M11/M13 Q1005 NOSIG",
      "taf": "TAF UDSG 291658Z 2918/3018 VRB06KT 5000 BR BKN030"
    },
    {
      "icao": "UDYZ",
      "alert": "OK",
      "vis_m": 2200,
      "fzfg": false,
      "metar_trigger": false,
      "taf_trigger": false,
      "metar": "METAR UDYZ 292230Z 31003KT 2200 BR SCT033 M07/M08 Q1007 NOSIG",
      "taf": ""
    },
    {
      "icao": "UGKO",
      "alert": "OK",
      "vis_m": 9999,
      "fzfg": false,
      "metar_trigger": false,
      "taf_trigger": false,
      "metar": "METAR UGKO 292230Z 26004KT 240V300 9999 SCT007 BKN014CB OVC016 01/00 Q1007 NOSIG",
      "taf": "TAF UGKO 291700Z 2918/3018 24010KT 7000 -SNRA SCT015 OVC035 TX02/3006Z TNM00/3001Z"
    }
  ]
}