{
  "ts_utc": "2026-07-16T06:40:00Z",
  "threshold_m": 150,
  "source": "stations_override.txt (ICAO list) + aviationweather.gov (METAR/TAF raw)",
  "station_count": 159,
  "stations": [
    {
      "icao": "BIKF",
      "alert": "OK",
      "vis_m": 9999,
      "fzfg": false,
      "metar_trigger": false,
      "taf_trigger": false,
      "metar": "METAR BIKF 160630Z 22008KT CAVOK 10/10 Q1026",
      "taf": "TAF BIKF 160450Z 1606/1706 22008KT 9999 SCT010 BKN020 TX11/1615Z TN09/1606Z"
    },
    {
      "icao": "BKPR",
      "alert": "OK",
      "vis_m": 9999,
      "fzfg": false,
      "metar_trigger": false,
      "taf_trigger": false,
      "metar": "METAR BKPR 160630Z VRB02KT CAVOK 22/18 Q1020 NOSIG",
      "taf": "TAF BKPR 160530Z 1606/1706 VRB05KT CAVOK"
    },
    {
      "icao": "EBCI",
      "alert": "OK",
      "vis_m": 9999,
      "fzfg": false,
      "metar_trigger": false,
      "taf_trigger": false,
      "metar": "METAR EBCI 160620Z 05006KT CAVOK 20/12 Q1019 NOSIG",
      "taf": "TAF EBCI 160501Z 1606/1712 01008KT CAVOK"
    },
    {
      "icao": "EDDB",
      "alert": "OK",
      "vis_m": 9999,
      "fzfg": false,
      "metar_trigger": false,
      "taf_trigger": false,
      "metar": "METAR EDDB 160620Z AUTO 07004KT 030V110 9999 SCT035 SCT048 20/15 Q1021 NOSIG",
      "taf": "TAF EDDB 160500Z 1606/1706 10005KT CAVOK"
    },
    {
      "icao": "EDDH",
      "alert": "OK",
      "vis_m": 9999,
      "fzfg": false,
      "metar_trigger": false,
      "taf_trigger": false,
      "metar": "METAR EDDH 160620Z AUTO 34003KT 310V020 9999 VCSH FEW///TCU 18/15 Q1021 NOSIG",
      "taf": "TAF EDDH 160500Z 1606/1712 07006KT CAVOK"
    },
    {
      "icao": "EDDK",
      "alert": "OK",
      "vis_m": 9999,
      "fzfg": false,
      "metar_trigger": false,
      "taf_trigger": false,
      "metar": "METAR EDDK 160620Z AUTO VRB01KT CAVOK 22/13 Q1019 NOSIG",
      "taf": "TAF EDDK 160500Z 1606/1712 VRB03KT CAVOK"
    },
    {
      "icao": "EDDN",
      "alert": "OK",
      "vis_m": 9999,
      "fzfg": false,
      "metar_trigger": false,
      "taf_trigger": false,
      "metar": "METAR EDDN 160620Z AUTO 07004KT 030V110 CAVOK 20/15 Q1020 NOSIG",
      "taf": "TAF EDDN 160500Z 1606/1706 11004KT 9999 SCT035"
    },
    {
      "icao": "EDDS",
      "alert": "OK",
      "vis_m": 9999,
      "fzfg": false,
      "metar_trigger": false,
      "taf_trigger": false,
      "metar": "METAR EDDS 160620Z AUTO VRB01KT CAVOK 21/17 Q1019 NOSIG",
      "taf": "TAF EDDS 160500Z 1606/1706 VRB03KT CAVOK"
    },
    {
      "icao": "EDFH",
      "alert": "OK",
      "vis_m": 9999,
      "fzfg": false,
      "metar_trigger": false,
      "taf_trigger": false,
      "metar": "METAR EDFH 160620Z 15010KT CAVOK 20/12 Q1020",
      "taf": "TAF EDFH 160500Z 1606/1706 10005KT CAVOK"
    },
    {
      "icao": "EDJA",
      "alert": "OK",
      "vis_m": 9999,
      "fzfg": false,
      "metar_trigger": false,
      "taf_trigger": false,
      "metar": "METAR EDJA 160620Z 22006KT CAVOK 18/16 Q1021",
      "taf": "TAF EDJA 160500Z 1606/1615 23006KT CAVOK"
    },
    {
      "icao": "EDLW",
      "alert": "OK",
      "vis_m": 9999,
      "fzfg": false,
      "metar_trigger": false,
      "taf_trigger": false,
      "metar": "METAR EDLW 160620Z COR VRB02KT CAVOK 20/12 Q1019",
      "taf": "TAF EDLW 160500Z 1606/1706 15005KT CAVOK"
    },
    {
      "icao": "EDNY",
      "alert": "OK",
      "vis_m": 9999,
      "fzfg": false,
      "metar_trigger": false,
      "taf_trigger": false,
      "metar": "METAR EDNY 160620Z 04003KT 350V070 CAVOK 20/18 Q1020",
      "taf": "TAF EDNY 160500Z 1606/1615 VRB03KT CAVOK"
    },
    {
      "icao": "EDSB",
      "alert": "OK",
      "vis_m": 9999,
      "fzfg": false,
      "metar_trigger": false,
      "taf_trigger": false,
      "metar": "METAR EDSB 160620Z VRB02KT CAVOK 22/18 Q1018",
      "taf": "TAF EDSB 160500Z 1606/1706 VRB03KT CAVOK"
    },
    {
      "icao": "EETN",
      "alert": "OK",
      "vis_m": 9999,
      "fzfg": false,
      "metar_trigger": false,
      "taf_trigger": false,
      "metar": "METAR EETN 160620Z 05008KT CAVOK 21/16 Q1021 NOSIG",
      "taf": "TAF EETN 160530Z 1606/1706 05010KT CAVOK 1618/1620 11006KT"
    },
    {
      "icao": "EFTU",
      "alert": "OK",
      "vis_m": 9999,
      "fzfg": false,
      "metar_trigger": false,
      "taf_trigger": false,
      "metar": "METAR EFTU 160620Z AUTO 08005KT 030V110 CAVOK 21/12 Q1022",
      "taf": "TAF EFTU 160531Z 1606/1706 09006KT CAVOK"
    },
    {
      "icao": "EGBB",
      "alert": "OK",
      "vis_m": 9999,
      "fzfg": false,
      "metar_trigger": false,
      "taf_trigger": false,
      "metar": "METAR EGBB 160620Z 05006KT 350V080 9999 BKN010 15/13 Q1024",
      "taf": ""
    },
    {
      "icao": "EGGP",
      "alert": "OK",
      "vis_m": 9999,
      "fzfg": false,
      "metar_trigger": false,
      "taf_trigger": false,
      "metar": "METAR EGGP 160620Z 08004KT CAVOK 15/12 Q1024",
      "taf": "TAF EGGP 160454Z 1606/1706 06007KT CAVOK"
    },
    {
      "icao": "EGGW",
      "alert": "OK",
      "vis_m": 9999,
      "fzfg": false,
      "metar_trigger": false,
      "taf_trigger": false,
      "metar": "METAR EGGW 160620Z AUTO 03011G21KT 350V070 9999 OVC006 16/14 Q1023",
      "taf": "TAF EGGW 160455Z 1606/1706 03009KT 9999 BKN008"
    },
    {
      "icao": "EGKK",
      "alert": "OK",
      "vis_m": 9999,
      "fzfg": false,
      "metar_trigger": false,
      "taf_trigger": false,
      "metar": "METAR EGKK 160620Z 03008KT 9999 FEW012 18/15 Q1021",
      "taf": "TAF EGKK 160456Z 1606/1712 05009KT 9999 FEW040"
    },
    {
      "icao": "EGNM",
      "alert": "OK",
      "vis_m": 4000,
      "fzfg": false,
      "metar_trigger": false,
      "taf_trigger": false,
      "metar": "METAR EGNM 160620Z 05003KT 360V080 4000 HZ SCT008 13/12 Q1025",
      "taf": "TAF EGNM 160458Z 1606/1706 04006KT 9999 FEW015"
    },
    {
      "icao": "EGPD",
      "alert": "OK",
      "vis_m": 250,
      "fzfg": false,
      "metar_trigger": false,
      "taf_trigger": false,
      "metar": "METAR EGPD 160620Z VRB02KT 0250 R16/0375N FG VV/// 11/11 Q1025",
      "taf": ""
    },
    {
      "icao": "EGPF",
      "alert": "OK",
      "vis_m": 3100,
      "fzfg": false,
      "metar_trigger": false,
      "taf_trigger": false,
      "metar": "METAR EGPF 160620Z AUTO 03005KT 3100 BR OVC002 12/12 Q1026",
      "taf": "TAF EGPF 160459Z 1606/1706 05006KT 9999 SCT010"
    },
    {
      "icao": "EHBK",
      "alert": "OK",
      "vis_m": 9999,
      "fzfg": false,
      "metar_trigger": false,
      "taf_trigger": false,
      "metar": "METAR EHBK 160625Z AUTO 06005KT 030V100 9999 NCD 21/13 Q1019 NOSIG",
      "taf": "TAF EHBK 160509Z 1606/1712 04006KT CAVOK"
    },
    {
      "icao": "EHEH",
      "alert": "OK",
      "vis_m": 9999,
      "fzfg": false,
      "metar_trigger": false,
      "taf_trigger": false,
      "metar": "METAR EHEH 160625Z AUTO 02005KT 280V060 9999 NCD 21/15 Q1019 BLU NOSIG RMK TREND REMOTE BY EHWX",
      "taf": "TAF EHEH 160506Z 1606/1712 03005KT CAVOK"
    },
    {
      "icao": "EKBI",
      "alert": "OK",
      "vis_m": 9999,
      "fzfg": false,
      "metar_trigger": false,
      "taf_trigger": false,
      "metar": "METAR EKBI 160620Z AUTO 03003KT 9999 FEW077/// SCT240/// 20/14 Q1022",
      "taf": "TAF EKBI 160527Z 1606/1706 VRB03KT CAVOK"
    },
    {
      "icao": "EKCH",
      "alert": "OK",
      "vis_m": 9999,
      "fzfg": false,
      "metar_trigger": false,
      "taf_trigger": false,
      "metar": "METAR EKCH 160620Z AUTO 14003KT 9999 NCD 21/15 Q1023 NOSIG",
      "taf": "TAF EKCH 160527Z 1606/1706 13005KT CAVOK"
    },
    {
      "icao": "ENAL",
      "alert": "OK",
      "vis_m": 500,
      "fzfg": false,
      "metar_trigger": false,
      "taf_trigger": false,
      "metar": "METAR ENAL 160620Z VRB02KT 0500 R24/0650N FG VV002 12/11 Q1025",
      "taf": ""
    },
    {
      "icao": "ENBR",
      "alert": "OK",
      "vis_m": 9999,
      "fzfg": false,
      "metar_trigger": false,
      "taf_trigger": false,
      "metar": "METAR ENBR 160620Z VRB02KT CAVOK 14/13 Q1023 NOSIG RMK WIND 1200FT 15004KT",
      "taf": "TAF ENBR 160500Z 1606/1706 32005KT CAVOK"
    },
    {
      "icao": "ENGM",
      "alert": "OK",
      "vis_m": 9999,
      "fzfg": false,
      "metar_trigger": false,
      "taf_trigger": false,
      "metar": "METAR ENGM 160620Z 05005KT CAVOK 22/11 Q1023 NOSIG",
      "taf": "TAF ENGM 160500Z 1606/1706 36005KT CAVOK"
    },
    {
      "icao": "ENHD",
      "alert": "OK",
      "vis_m": 9999,
      "fzfg": false,
      "metar_trigger": false,
      "taf_trigger": false,
      "metar": "METAR ENHD 160620Z VRB01KT CAVOK 14/12 Q1023",
      "taf": "TAF ENHD 160500Z 1606/1615 35007KT 7000 FEW005"
    },
    {
      "icao": "ENTC",
      "alert": "OK",
      "vis_m": 9999,
      "fzfg": false,
      "metar_trigger": false,
      "taf_trigger": false,
      "metar": "METAR ENTC 160620Z 23027KT 9999 BKN044 14/08 Q1014 NOSIG RMK WIND 2600FT 19034KT",
      "taf": "TAF ENTC 160500Z 1606/1706 22022KT 9999 SCT030"
    },
    {
      "icao": "ENTO",
      "alert": "OK",
      "vis_m": 9999,
      "fzfg": false,
      "metar_trigger": false,
      "taf_trigger": false,
      "metar": "METAR ENTO 160620Z 01005KT CAVOK 20/15 Q1023 NOSIG",
      "taf": "TAF ENTO 160500Z 1606/1706 36005KT CAVOK"
    },
    {
      "icao": "ENVA",
      "alert": "OK",
      "vis_m": 9999,
      "fzfg": false,
      "metar_trigger": false,
      "taf_trigger": false,
      "metar": "METAR ENVA 160620Z 11003KT 080V140 CAVOK 14/09 Q1024 NOSIG RMK WIND 670FT 02005KT",
      "taf": "TAF ENVA 160500Z 1606/1706 11005KT CAVOK"
    },
    {
      "icao": "ENZV",
      "alert": "OK",
      "vis_m": 9999,
      "fzfg": false,
      "metar_trigger": false,
      "taf_trigger": false,
      "metar": "METAR ENZV 160620Z 00000KT CAVOK 17/14 Q1023 NOSIG",
      "taf": "TAF ENZV 160500Z 1606/1706 29005KT CAVOK"
    },
    {
      "icao": "EPGD",
      "alert": "OK",
      "vis_m": 9999,
      "fzfg": false,
      "metar_trigger": false,
      "taf_trigger": false,
      "metar": "METAR EPGD 160630Z 01003KT 310V050 CAVOK 19/13 Q1023",
      "taf": "TAF EPGD 160530Z 1606/1706 VRB02KT CAVOK"
    },
    {
      "icao": "EPKK",
      "alert": "OK",
      "vis_m": 1400,
      "fzfg": false,
      "metar_trigger": false,
      "taf_trigger": false,
      "metar": "METAR EPKK 160630Z VRB02KT 1400 R25/1400U BR BKN002 17/17 Q1021",
      "taf": "TAF EPKK 160530Z 1606/1706 VRB02KT 0300 FG BKN001"
    },
    {
      "icao": "EPKT",
      "alert": "OK",
      "vis_m": 3100,
      "fzfg": false,
      "metar_trigger": false,
      "taf_trigger": false,
      "metar": "METAR EPKT 160630Z VRB01KT 3100 BR BKN003 17/17 Q1021",
      "taf": "TAF EPKT 160530Z 1606/1706 VRB02KT 0200 FG OVC001"
    },
    {
      "icao": "EPLB",
      "alert": "OK",
      "vis_m": 9999,
      "fzfg": false,
      "metar_trigger": false,
      "taf_trigger": false,
      "metar": "METAR EPLB 160630Z VRB01KT CAVOK 24/17 Q1020",
      "taf": "TAF EPLB 160530Z 1606/1706 VRB03KT CAVOK"
    },
    {
      "icao": "EPMO",
      "alert": "OK",
      "vis_m": 9999,
      "fzfg": false,
      "metar_trigger": false,
      "taf_trigger": false,
      "metar": "METAR EPMO 160630Z 05004KT 010V080 CAVOK 22/16 Q1021",
      "taf": "TAF EPMO 160530Z 1606/1706 04005KT CAVOK"
    },
    {
      "icao": "EPPO",
      "alert": "OK",
      "vis_m": 9999,
      "fzfg": false,
      "metar_trigger": false,
      "taf_trigger": false,
      "metar": "METAR EPPO 160630Z 09007KT CAVOK 22/16 Q1021",
      "taf": "TAF EPPO 160530Z 1606/1706 09006KT CAVOK"
    },
    {
      "icao": "EPRA",
      "alert": "OK",
      "vis_m": 9999,
      "fzfg": false,
      "metar_trigger": false,
      "taf_trigger": false,
      "metar": "METAR EPRA 160630Z VRB02KT CAVOK 22/17 Q1020",
      "taf": "TAF EPRA 160530Z 1606/1615 03006KT CAVOK"
    },
    {
      "icao": "EPRZ",
      "alert": "OK",
      "vis_m": 9999,
      "fzfg": false,
      "metar_trigger": false,
      "taf_trigger": false,
      "metar": "METAR EPRZ 160630Z 26007KT 9999 FEW012 22/18 Q1020",
      "taf": "TAF EPRZ 160530Z 1606/1706 25004KT CAVOK"
    },
    {
      "icao": "EPSC",
      "alert": "OK",
      "vis_m": 9999,
      "fzfg": false,
      "metar_trigger": false,
      "taf_trigger": false,
      "metar": "METAR EPSC 160630Z 12004KT CAVOK 20/16 Q1021",
      "taf": "TAF EPSC 160530Z 1606/1706 07005KT CAVOK"
    },
    {
      "icao": "EPSY",
      "alert": "OK",
      "vis_m": 9999,
      "fzfg": false,
      "metar_trigger": false,
      "taf_trigger": false,
      "metar": "METAR EPSY 160630Z VRB03KT CAVOK 20/15 Q1022",
      "taf": "TAF EPSY 160530Z 1606/1615 36008KT CAVOK"
    },
    {
      "icao": "EPWA",
      "alert": "OK",
      "vis_m": 9999,
      "fzfg": false,
      "metar_trigger": false,
      "taf_trigger": false,
      "metar": "METAR EPWA 160630Z 05004KT 330V090 CAVOK 23/16 Q1021 NOSIG",
      "taf": "TAF EPWA 160530Z 1606/1706 04005KT CAVOK"
    },
    {
      "icao": "EPWR",
      "alert": "OK",
      "vis_m": 9999,
      "fzfg": false,
      "metar_trigger": false,
      "taf_trigger": false,
      "metar": "METAR EPWR 160630Z 32004KT 9999 BKN004 BKN006 17/16 Q1021",
      "taf": "TAF EPWR 160530Z 1606/1706 VRB02KT 9999 OVC002"
    },
    {
      "icao": "ESGG",
      "alert": "OK",
      "vis_m": 9999,
      "fzfg": false,
      "metar_trigger": false,
      "taf_trigger": false,
      "metar": "METAR ESGG 160620Z VRB03KT CAVOK 23/14 Q1023",
      "taf": "TAF ESGG 160530Z 1606/1706 VRB03KT CAVOK"
    },
    {
      "icao": "ESKN",
      "alert": "OK",
      "vis_m": 9999,
      "fzfg": false,
      "metar_trigger": false,
      "taf_trigger": false,
      "metar": "METAR ESKN 160620Z 33005KT CAVOK 23/15 Q1022",
      "taf": "TAF ESKN 160530Z 1606/1706 27005KT CAVOK"
    },
    {
      "icao": "ESMS",
      "alert": "OK",
      "vis_m": 9999,
      "fzfg": false,
      "metar_trigger": false,
      "taf_trigger": false,
      "metar": "METAR ESMS 160620Z 12004KT CAVOK 20/13 Q1023",
      "taf": "TAF ESMS 160527Z 1606/1706 12004KT CAVOK"
    },
    {
      "icao": "ESSA",
      "alert": "OK",
      "vis_m": 9999,
      "fzfg": false,
      "metar_trigger": false,
      "taf_trigger": false,
      "metar": "METAR ESSA 160620Z 36010KT CAVOK 21/09 Q1022 NOSIG",
      "taf": "TAF ESSA 160530Z 1606/1706 36008KT CAVOK"
    },
    {
      "icao": "EYKA",
      "alert": "OK",
      "vis_m": 9999,
      "fzfg": false,
      "metar_trigger": false,
      "taf_trigger": false,
      "metar": "METAR EYKA 160620Z VRB02KT CAVOK 20/16 Q1020",
      "taf": "TAF EYKA 160500Z 1606/1706 VRB03KT 9000 NSC"
    },
    {
      "icao": "EYPA",
      "alert": "OK",
      "vis_m": 9999,
      "fzfg": false,
      "metar_trigger": false,
      "taf_trigger": false,
      "metar": "METAR EYPA 160620Z 03005KT 360V080 CAVOK 21/14 Q1021",
      "taf": "TAF EYPA 160500Z 1606/1706 VRB03KT CAVOK"
    },
    {
      "icao": "EYVI",
      "alert": "OK",
      "vis_m": 9999,
      "fzfg": false,
      "metar_trigger": false,
      "taf_trigger": false,
      "metar": "METAR EYVI 160620Z 33003KT 260V020 CAVOK 21/14 Q1020 NOSIG",
      "taf": "TAF EYVI 160500Z 1606/1706 VRB03KT 9000 NSC"
    },
    {
      "icao": "GCFV",
      "alert": "OK",
      "vis_m": 9999,
      "fzfg": false,
      "metar_trigger": false,
      "taf_trigger": false,
      "metar": "METAR GCFV 160630Z 01010KT CAVOK 24/17 Q1017",
      "taf": "TAF GCFV 160200Z 1603/1703 36007KT 9999 FEW020 TX29/1614Z TN22/1606Z"
    },
    {
      "icao": "GCLP",
      "alert": "OK",
      "vis_m": 9999,
      "fzfg": false,
      "metar_trigger": false,
      "taf_trigger": false,
      "metar": "METAR GCLP 160630Z 02019KT 9999 FEW020 26/15 Q1016 NOSIG",
      "taf": "TAF GCLP 160200Z 1603/1703 01022KT 9999 SCT020 TX29/1614Z TN23/1606Z"
    },
    {
      "icao": "GCTS",
      "alert": "OK",
      "vis_m": 9999,
      "fzfg": false,
      "metar_trigger": false,
      "taf_trigger": false,
      "metar": "METAR GCTS 160630Z 35003KT 290V020 CAVOK 22/20 Q1018 NOSIG",
      "taf": "TAF GCTS 160200Z 1603/1703 VRB05KT 9999 FEW020 TX32/1614Z TN21/1606Z"
    },
    {
      "icao": "GMAD",
      "alert": "OK",
      "vis_m": 8000,
      "fzfg": false,
      "metar_trigger": false,
      "taf_trigger": false,
      "metar": "METAR GMAD 160630Z 25007KT 8000 NSC 21/20 Q1014 NOSIG",
      "taf": "TAF GMAD 160500Z 1606/1712 22004KT CAVOK"
    },
    {
      "icao": "GMMN",
      "alert": "OK",
      "vis_m": 9999,
      "fzfg": false,
      "metar_trigger": false,
      "taf_trigger": false,
      "metar": "METAR GMMN 160630Z 04008KT 360V060 CAVOK 21/18 Q1018 NOSIG",
      "taf": "TAF GMMN 160500Z 1606/1712 06006KT CAVOK"
    },
    {
      "icao": "GMMX",
      "alert": "OK",
      "vis_m": 8000,
      "fzfg": false,
      "metar_trigger": false,
      "taf_trigger": false,
      "metar": "METAR GMMX 160630Z 27005KT 8000 FEW030 23/15 Q1017 NOSIG",
      "taf": "TAF GMMX 160500Z 1606/1712 22006KT 8000 NSC"
    },
    {
      "icao": "HEGN",
      "alert": "OK",
      "vis_m": 9999,
      "fzfg": false,
      "metar_trigger": false,
      "taf_trigger": false,
      "metar": "METAR HEGN 160600Z 34019KT CAVOK 32/19 Q1008 NOSIG",
      "taf": "TAF HEGN 160500Z 1606/1712 34018KT CAVOK"
    },
    {
      "icao": "HEMA",
      "alert": "OK",
      "vis_m": 9999,
      "fzfg": false,
      "metar_trigger": false,
      "taf_trigger": false,
      "metar": "METAR HEMA 160600Z 34010KT CAVOK 35/09 Q1007 NOSIG",
      "taf": "TAF HEMA 160500Z 1606/1712 36018KT CAVOK"
    },
    {
      "icao": "HESH",
      "alert": "OK",
      "vis_m": 9999,
      "fzfg": false,
      "metar_trigger": false,
      "taf_trigger": false,
      "metar": "METAR HESH 160600Z 35008KT CAVOK 32/21 Q1007 NOSIG",
      "taf": "TAF HESH 160500Z 1606/1712 02015KT CAVOK"
    },
    {
      "icao": "HESX",
      "alert": "OK",
      "vis_m": 9999,
      "fzfg": false,
      "metar_trigger": false,
      "taf_trigger": false,
      "metar": "METAR HESX 160600Z 31004KT 9999 SCT020 24/18 Q1010 NOSIG",
      "taf": "TAF HESX 160500Z 1606/1712 31010KT CAVOK"
    },
    {
      "icao": "LATI",
      "alert": "OK",
      "vis_m": 9999,
      "fzfg": false,
      "metar_trigger": false,
      "taf_trigger": false,
      "metar": "METAR LATI 160620Z VRB02KT 9999 BKN150 25/15 Q1016 NOSIG",
      "taf": "TAF LATI 160500Z 1606/1706 VRB05KT CAVOK TX38/1613Z TN20/1704Z"
    },
    {
      "icao": "LBPD",
      "alert": "OK",
      "vis_m": 9999,
      "fzfg": false,
      "metar_trigger": false,
      "taf_trigger": false,
      "metar": "METAR LBPD 160630Z AUTO 28005KT 240V320 9999 NCD 27/17 Q1017 NOSIG",
      "taf": "TAF LBPD 160500Z 1606/1706 VRB03KT CAVOK"
    },
    {
      "icao": "LBSF",
      "alert": "OK",
      "vis_m": 9999,
      "fzfg": false,
      "metar_trigger": false,
      "taf_trigger": false,
      "metar": "METAR LBSF 160630Z 08003KT 010V130 CAVOK 24/15 Q1019 NOSIG",
      "taf": "TAF LBSF 160500Z 1606/1706 VRB03KT 9999 SCT060"
    },
    {
      "icao": "LBWN",
      "alert": "OK",
      "vis_m": 9999,
      "fzfg": false,
      "metar_trigger": false,
      "taf_trigger": false,
      "metar": "METAR LBWN 160630Z AUTO 31003KT 260V350 9999 NCD 28/19 Q1016 NOSIG",
      "taf": "TAF LBWN 160500Z 1606/1706 VRB04KT 9999 SCT045"
    },
    {
      "icao": "LCLK",
      "alert": "OK",
      "vis_m": 6000,
      "fzfg": false,
      "metar_trigger": false,
      "taf_trigger": false,
      "metar": "METAR LCLK 160630Z 09004KT 6000 FEW002 30/26 Q1007 BECMG 8000",
      "taf": "TAF LCLK 160530Z 1606/1706 15005KT 5000 BR BKN006"
    },
    {
      "icao": "LCPH",
      "alert": "OK",
      "vis_m": 9999,
      "fzfg": false,
      "metar_trigger": false,
      "taf_trigger": false,
      "metar": "METAR LCPH 160630Z AUTO 28010KT 250V320 9999 NCD 28/24 Q1007 NOSIG",
      "taf": "TAF LCPH 160530Z 1606/1706 02005KT 9999 FEW012"
    },
    {
      "icao": "LEAL",
      "alert": "OK",
      "vis_m": 9999,
      "fzfg": false,
      "metar_trigger": false,
      "taf_trigger": false,
      "metar": "METAR LEAL 160630Z 18003KT 090V240 CAVOK 29/19 Q1014 NOSIG",
      "taf": ""
    },
    {
      "icao": "LEBB",
      "alert": "OK",
      "vis_m": 9999,
      "fzfg": false,
      "metar_trigger": false,
      "taf_trigger": false,
      "metar": "METAR LEBB 160630Z 11003KT 070V150 9999 FEW025 22/20 Q1018 NOSIG",
      "taf": "TAF LEBB 160500Z 1606/1706 32009KT 9999 SCT020 TX27/1615Z TN18/1705Z"
    },
    {
      "icao": "LEBL",
      "alert": "OK",
      "vis_m": 7000,
      "fzfg": false,
      "metar_trigger": false,
      "taf_trigger": false,
      "metar": "METAR LEBL 160630Z 06012KT 7000 FEW010 27/26 Q1015 NOSIG",
      "taf": "TAF LEBL 160500Z 1606/1706 09010KT 9999 FEW020 TX32/1612Z TN26/1606Z"
    },
    {
      "icao": "LECH",
      "alert": "OK",
      "vis_m": 9999,
      "fzfg": false,
      "metar_trigger": false,
      "taf_trigger": false,
      "metar": "METAR LECH 160630Z AUTO 03009KT 350V070 9999 FEW009 24/19 Q1017",
      "taf": "TAF LECH 160500Z 1606/1706 VRB04KT CAVOK TX34/1615Z TN24/1705Z"
    },
    {
      "icao": "LEMD",
      "alert": "OK",
      "vis_m": 9999,
      "fzfg": false,
      "metar_trigger": false,
      "taf_trigger": false,
      "metar": "METAR LEMD 160630Z 34005KT CAVOK 23/07 Q1018 NOSIG",
      "taf": "TAF LEMD 160500Z 1606/1712 VRB04KT CAVOK TX36/1616Z TN20/1705Z"
    },
    {
      "icao": "LEMG",
      "alert": "OK",
      "vis_m": 9999,
      "fzfg": false,
      "metar_trigger": false,
      "taf_trigger": false,
      "metar": "METAR LEMG 160630Z 12003KT 070V190 CAVOK 22/19 Q1016 NOSIG",
      "taf": ""
    },
    {
      "icao": "LEVC",
      "alert": "OK",
      "vis_m": 9999,
      "fzfg": false,
      "metar_trigger": false,
      "taf_trigger": false,
      "metar": "METAR LEVC 160630Z 08005KT 040V130 CAVOK 27/23 Q1014 NOSIG",
      "taf": ""
    },
    {
      "icao": "LEXJ",
      "alert": "OK",
      "vis_m": 9999,
      "fzfg": false,
      "metar_trigger": false,
      "taf_trigger": false,
      "metar": "METAR LEXJ 160630Z 26003KT 230V300 9999 FEW017 BKN022 22/20 Q1017",
      "taf": "TAF LEXJ 160200Z 1603/1703 24005KT 9999 BKN035 TX26/1613Z TN20/1604Z"
    },
    {
      "icao": "LEZG",
      "alert": "OK",
      "vis_m": 9999,
      "fzfg": false,
      "metar_trigger": false,
      "taf_trigger": false,
      "metar": "METAR LEZG 160630Z 27011KT 230V310 9999 VCTS FEW090CB 24/18 Q1017 NOSIG",
      "taf": "TAF LEZG 160500Z 1606/1706 31012KT CAVOK TX39/1615Z TN21/1705Z"
    },
    {
      "icao": "LEZL",
      "alert": "OK",
      "vis_m": 9999,
      "fzfg": false,
      "metar_trigger": false,
      "taf_trigger": false,
      "metar": "METAR LEZL 160630Z 33003KT 300V360 CAVOK 23/19 Q1017 NOSIG",
      "taf": "TAF LEZL 160200Z 1603/1703 22009KT CAVOK TX38/1615Z TN21/1605Z"
    },
    {
      "icao": "LFBD",
      "alert": "OK",
      "vis_m": 9999,
      "fzfg": false,
      "metar_trigger": false,
      "taf_trigger": false,
      "metar": "METAR LFBD 160630Z AUTO 35003KT 320V060 9999 BKN008 OVC012 23/22 Q1016 BECMG NSC",
      "taf": "TAF LFBD 160500Z 1606/1712 VRB03KT 1000 BR OVC002 TX30/1613Z TN21/1606Z"
    },
    {
      "icao": "LFLL",
      "alert": "OK",
      "vis_m": 9999,
      "fzfg": false,
      "metar_trigger": false,
      "taf_trigger": false,
      "metar": "METAR LFLL 160630Z 15006KT CAVOK 23/17 Q1018 NOSIG",
      "taf": "TAF LFLL 160500Z 1606/1712 15006KT CAVOK"
    },
    {
      "icao": "LFLS",
      "alert": "OK",
      "vis_m": 9999,
      "fzfg": false,
      "metar_trigger": false,
      "taf_trigger": false,
      "metar": "METAR LFLS 160630Z AUTO 09010KT CAVOK 23/16 Q1019 BECMG 21010KT",
      "taf": "TAF LFLS 160200Z 1603/1703 09007KT CAVOK"
    },
    {
      "icao": "LFMN",
      "alert": "OK",
      "vis_m": 9999,
      "fzfg": false,
      "metar_trigger": false,
      "taf_trigger": false,
      "metar": "METAR LFMN 160630Z 33009KT 9999 SCT020 27/19 Q1017 NOSIG",
      "taf": "TAF LFMN 160200Z 1603/1709 VRB02KT 9999 BKN015"
    },
    {
      "icao": "LFOB",
      "alert": "OK",
      "vis_m": 9999,
      "fzfg": false,
      "metar_trigger": false,
      "taf_trigger": false,
      "metar": "METAR LFOB 160630Z AUTO 02006KT CAVOK 21/13 Q1018 NOSIG",
      "taf": "TAF LFOB 160500Z 1606/1706 02007KT CAVOK"
    },
    {
      "icao": "LFPO",
      "alert": "OK",
      "vis_m": 9999,
      "fzfg": false,
      "metar_trigger": false,
      "taf_trigger": false,
      "metar": "METAR LFPO 160630Z 02007KT 340V040 CAVOK 23/11 Q1017 NOSIG",
      "taf": "TAF LFPO 160500Z 1606/1712 01005KT CAVOK"
    },
    {
      "icao": "LFSB",
      "alert": "OK",
      "vis_m": 9999,
      "fzfg": false,
      "metar_trigger": false,
      "taf_trigger": false,
      "metar": "METAR LFSB 160630Z AUTO 14004KT 110V180 CAVOK 22/18 Q1019 NOSIG",
      "taf": "TAF LFSB 160500Z 1606/1706 16004KT CAVOK"
    },
    {
      "icao": "LGAV",
      "alert": "OK",
      "vis_m": 9999,
      "fzfg": false,
      "metar_trigger": false,
      "taf_trigger": false,
      "metar": "METAR LGAV 160620Z 01013KT CAVOK 31/12 Q1015 NOSIG",
      "taf": "TAF LGAV 160500Z 1606/1706 06015KT 9999 FEW025"
    },
    {
      "icao": "LGTS",
      "alert": "OK",
      "vis_m": 9999,
      "fzfg": false,
      "metar_trigger": false,
      "taf_trigger": false,
      "metar": "METAR LGTS 160620Z 27007KT CAVOK 27/20 Q1016 NOSIG",
      "taf": "TAF LGTS 160500Z 1606/1706 VRB03KT 9999 FEW030"
    },
    {
      "icao": "LHBP",
      "alert": "OK",
      "vis_m": 9999,
      "fzfg": false,
      "metar_trigger": false,
      "taf_trigger": false,
      "metar": "METAR LHBP 160630Z 09005KT 060V140 CAVOK 24/17 Q1019 NOSIG",
      "taf": "TAF LHBP 160515Z 1606/1706 08006KT CAVOK"
    },
    {
      "icao": "LHDC",
      "alert": "OK",
      "vis_m": 9999,
      "fzfg": false,
      "metar_trigger": false,
      "taf_trigger": false,
      "metar": "METAR LHDC 160615Z AUTO 02005KT 350V060 CAVOK 24/18 Q1018 NOSIG",
      "taf": "TAF LHDC 160515Z 1606/1615 02006KT CAVOK"
    },
    {
      "icao": "LIBD",
      "alert": "OK",
      "vis_m": 9999,
      "fzfg": false,
      "metar_trigger": false,
      "taf_trigger": false,
      "metar": "METAR LIBD 160620Z VRB02KT CAVOK 29/20 Q1016",
      "taf": "TAF LIBD 160500Z 1606/1706 VRB05KT CAVOK"
    },
    {
      "icao": "LIBG",
      "alert": "OK",
      "vis_m": 9999,
      "fzfg": false,
      "metar_trigger": false,
      "taf_trigger": false,
      "metar": "METAR LIBG 160620Z AUTO VRB02KT 9999 NCD 30/15 Q1016",
      "taf": "TAF LIBG 160500Z 1606/1706 VRB05KT CAVOK"
    },
    {
      "icao": "LIBP",
      "alert": "OK",
      "vis_m": 9999,
      "fzfg": false,
      "metar_trigger": false,
      "taf_trigger": false,
      "metar": "METAR LIBP 160620Z AUTO VRB02KT 9999 NCD 29/21 Q1017",
      "taf": "TAF LIBP 160500Z 1606/1706 VRB05KT CAVOK"
    },
    {
      "icao": "LIBR",
      "alert": "OK",
      "vis_m": 9999,
      "fzfg": false,
      "metar_trigger": false,
      "taf_trigger": false,
      "metar": "METAR LIBR 160620Z 32007KT CAVOK 28/24 Q1016",
      "taf": "TAF LIBR 160500Z 1606/1706 VRB05KT CAVOK"
    },
    {
      "icao": "LICA",
      "alert": "OK",
      "vis_m": 9999,
      "fzfg": false,
      "metar_trigger": false,
      "taf_trigger": false,
      "metar": "METAR LICA 160620Z AUTO 29003KT 240V010 9999 NCD 28/22 Q1017",
      "taf": "TAF LICA 160500Z 1606/1706 VRB05KT CAVOK"
    },
    {
      "icao": "LICC",
      "alert": "OK",
      "vis_m": 9999,
      "fzfg": false,
      "metar_trigger": false,
      "taf_trigger": false,
      "metar": "METAR LICC 160620Z 25007KT CAVOK 30/18 Q1016",
      "taf": "TAF LICC 160500Z 1606/1706 26007KT CAVOK"
    },
    {
      "icao": "LICJ",
      "alert": "OK",
      "vis_m": 9999,
      "fzfg": false,
      "metar_trigger": false,
      "taf_trigger": false,
      "metar": "METAR LICJ 160620Z 25003KT 200V270 CAVOK 27/25 Q1016",
      "taf": "TAF LICJ 160500Z 1606/1706 VRB05KT CAVOK"
    },
    {
      "icao": "LIMC",
      "alert": "OK",
      "vis_m": 9999,
      "fzfg": false,
      "metar_trigger": false,
      "taf_trigger": false,
      "metar": "METAR LIMC 160620Z 01004KT 330V060 CAVOK 24/19 Q1018 NOSIG",
      "taf": "TAF LIMC 160500Z 1606/1712 VRB05KT CAVOK"
    },
    {
      "icao": "LIME",
      "alert": "OK",
      "vis_m": 9999,
      "fzfg": false,
      "metar_trigger": false,
      "taf_trigger": false,
      "metar": "METAR LIME 160620Z VRB02KT CAVOK 24/17 Q1018 NOSIG",
      "taf": "TAF LIME 160500Z 1606/1706 VRB06KT 9999 SCT080"
    },
    {
      "icao": "LIMF",
      "alert": "OK",
      "vis_m": 9999,
      "fzfg": false,
      "metar_trigger": false,
      "taf_trigger": false,
      "metar": "METAR LIMF 160620Z VRB02KT CAVOK 24/18 Q1018",
      "taf": "TAF LIMF 160500Z 1606/1706 VRB06KT CAVOK"
    },
    {
      "icao": "LIMJ",
      "alert": "OK",
      "vis_m": 9999,
      "fzfg": false,
      "metar_trigger": false,
      "taf_trigger": false,
      "metar": "METAR LIMJ 160620Z 05004KT CAVOK 27/21 Q1016",
      "taf": "TAF LIMJ 160500Z 1606/1706 VRB06KT 9999 BKN070"
    },
    {
      "icao": "LIPE",
      "alert": "OK",
      "vis_m": 9999,
      "fzfg": false,
      "metar_trigger": false,
      "taf_trigger": false,
      "metar": "METAR LIPE 160620Z 21005KT CAVOK 24/21 Q1017",
      "taf": "TAF LIPE 160500Z 1606/1706 VRB06KT 9999 SCT050"
    },
    {
      "icao": "LIPH",
      "alert": "OK",
      "vis_m": 9999,
      "fzfg": false,
      "metar_trigger": false,
      "taf_trigger": false,
      "metar": "METAR LIPH 160620Z 35003KT 300V020 CAVOK 25/19 Q1017",
      "taf": "TAF LIPH 160500Z 1606/1706 VRB05KT 9999 FEW040"
    },
    {
      "icao": "LIPQ",
      "alert": "OK",
      "vis_m": 9999,
      "fzfg": false,
      "metar_trigger": false,
      "taf_trigger": false,
      "metar": "METAR LIPQ 160620Z AUTO VRB01KT 9999 NCD 27/23 Q1017",
      "taf": "TAF LIPQ 160500Z 1606/1706 VRB05KT 9999 SCT060"
    },
    {
      "icao": "LIPR",
      "alert": "OK",
      "vis_m": 9999,
      "fzfg": false,
      "metar_trigger": false,
      "taf_trigger": false,
      "metar": "METAR LIPR 160620Z 31008KT CAVOK 26/20 Q1017",
      "taf": "TAF LIPR 160500Z 1606/1706 32010KT 9999 FEW050"
    },
    {
      "icao": "LIPX",
      "alert": "OK",
      "vis_m": 9999,
      "fzfg": false,
      "metar_trigger": false,
      "taf_trigger": false,
      "metar": "METAR LIPX 160620Z VRB02KT CAVOK 25/20 Q1017",
      "taf": "TAF LIPX 160500Z 1606/1706 VRB06KT 9999 SCT030"
    },
    {
      "icao": "LIPY",
      "alert": "OK",
      "vis_m": 9999,
      "fzfg": false,
      "metar_trigger": false,
      "taf_trigger": false,
      "metar": "METAR LIPY 160620Z AUTO 34007KT 310V010 9999 NCD 26/20 Q1017",
      "taf": "TAF LIPY 160500Z 1606/1706 VRB05KT CAVOK"
    },
    {
      "icao": "LIPZ",
      "alert": "OK",
      "vis_m": 9999,
      "fzfg": false,
      "metar_trigger": false,
      "taf_trigger": false,
      "metar": "METAR LIPZ 160620Z 03006KT CAVOK 26/18 Q1017 NOSIG",
      "taf": "TAF LIPZ 160500Z 1606/1712 VRB05KT 9999 FEW050"
    },
    {
      "icao": "LIRF",
      "alert": "OK",
      "vis_m": 9999,
      "fzfg": false,
      "metar_trigger": false,
      "taf_trigger": false,
      "metar": "METAR LIRF 160620Z 04003KT 360V070 CAVOK 27/24 Q1017 NOSIG",
      "taf": "TAF LIRF 160500Z 1606/1712 VRB05KT CAVOK"
    },
    {
      "icao": "LIRN",
      "alert": "OK",
      "vis_m": 8000,
      "fzfg": false,
      "metar_trigger": false,
      "taf_trigger": false,
      "metar": "METAR LIRN 160620Z VRB02KT 8000 NSC 28/24 Q1017 NOSIG",
      "taf": "TAF LIRN 160500Z 1606/1706 VRB05KT CAVOK"
    },
    {
      "icao": "LIRP",
      "alert": "OK",
      "vis_m": 9999,
      "fzfg": false,
      "metar_trigger": false,
      "taf_trigger": false,
      "metar": "METAR LIRP 160615Z 12003KT 9999 FEW020 26/23 Q1017 NOSIG",
      "taf": "TAF LIRP 160500Z 1606/1706 10005KT 9999 FEW030"
    },
    {
      "icao": "LIRZ",
      "alert": "OK",
      "vis_m": 9999,
      "fzfg": false,
      "metar_trigger": false,
      "taf_trigger": false,
      "metar": "METAR LIRZ 160620Z AUTO 03003KT 350V060 9999 NCD 27/20 Q1018",
      "taf": "TAF LIRZ 160500Z 1606/1706 VRB05KT CAVOK"
    },
    {
      "icao": "LJLJ",
      "alert": "OK",
      "vis_m": 9999,
      "fzfg": false,
      "metar_trigger": false,
      "taf_trigger": false,
      "metar": "METAR LJLJ 160630Z VRB02KT 9999 FEW033TCU BKN045 21/19 Q1020 NOSIG",
      "taf": "TAF LJLJ 160500Z 1606/1706 12005KT 9999 FEW047 BKN060"
    },
    {
      "icao": "LKMT",
      "alert": "OK",
      "vis_m": 2500,
      "fzfg": false,
      "metar_trigger": false,
      "taf_trigger": false,
      "metar": "METAR LKMT 160630Z 02004KT 2500 BR OVC004 18/17 Q1021 BECMG 4000 BR BKN006",
      "taf": "TAF LKMT 160500Z 1606/1706 05006KT 1200 BR BKN002"
    },
    {
      "icao": "LKPR",
      "alert": "OK",
      "vis_m": 9999,
      "fzfg": false,
      "metar_trigger": false,
      "taf_trigger": false,
      "metar": "METAR LKPR 160630Z VRB02KT 9999 -SHRA SCT006 17/16 Q1021 TEMPO BKN011",
      "taf": ""
    },
    {
      "icao": "LLBG",
      "alert": "OK",
      "vis_m": 9999,
      "fzfg": false,
      "metar_trigger": false,
      "taf_trigger": false,
      "metar": "METAR LLBG 160620Z 23007KT 9999 SCT025 28/21 Q1009 NOSIG",
      "taf": "TAF LLBG 160543Z 1606/1706 VRB04KT 9999 SCT020 TX32/1611Z TN24/1704Z"
    },
    {
      "icao": "LMML",
      "alert": "OK",
      "vis_m": 9999,
      "fzfg": false,
      "metar_trigger": false,
      "taf_trigger": false,
      "metar": "METAR LMML 160615Z 01006KT CAVOK 29/23 Q1017 NOSIG",
      "taf": "TAF LMML 160500Z 1606/1706 VRB07KT CAVOK"
    },
    {
      "icao": "LOWW",
      "alert": "OK",
      "vis_m": 9999,
      "fzfg": false,
      "metar_trigger": false,
      "taf_trigger": false,
      "metar": "METAR LOWW 160620Z VRB02KT 9999 FEW016 SCT050 21/19 Q1020 NOSIG",
      "taf": "TAF LOWW 160515Z 1606/1712 VRB04KT 9999 FEW050 TX31/1615Z TN20/1703Z"
    },
    {
      "icao": "LPFR",
      "alert": "OK",
      "vis_m": 9999,
      "fzfg": false,
      "metar_trigger": false,
      "taf_trigger": false,
      "metar": "METAR LPFR 160630Z 30005KT CAVOK 21/16 Q1018",
      "taf": "TAF LPFR 160500Z 1606/1706 30007KT CAVOK"
    },
    {
      "icao": "LPMA",
      "alert": "OK",
      "vis_m": 9999,
      "fzfg": false,
      "metar_trigger": false,
      "taf_trigger": false,
      "metar": "METAR LPMA 160630Z 00000KT 9999 FEW015 21/18 Q1021",
      "taf": "TAF LPMA 160500Z 1606/1706 VRB05KT 9999 SCT015"
    },
    {
      "icao": "LPPR",
      "alert": "OK",
      "vis_m": 7000,
      "fzfg": false,
      "metar_trigger": false,
      "taf_trigger": false,
      "metar": "METAR LPPR 160630Z 00000KT 7000 BKN003 18/17 Q1019",
      "taf": "TAF LPPR 160500Z 1606/1706 VRB02KT 9999 BKN006"
    },
    {
      "icao": "LPPS",
      "alert": "OK",
      "vis_m": 9999,
      "fzfg": false,
      "metar_trigger": false,
      "taf_trigger": false,
      "metar": "METAR LPPS 160630Z 00000KT 9999 FEW014 22/20 Q1021",
      "taf": "TAF LPPS 160500Z 1606/1712 VRB05KT 9999 SCT015"
    },
    {
      "icao": "LPPT",
      "alert": "OK",
      "vis_m": 9999,
      "fzfg": false,
      "metar_trigger": false,
      "taf_trigger": false,
      "metar": "METAR LPPT 160630Z 27004KT 9999 SCT010 19/17 Q1019 NOSIG",
      "taf": "TAF LPPT 160500Z 1606/1712 VRB02KT 9999 SCT018"
    },
    {
      "icao": "LQBK",
      "alert": "OK",
      "vis_m": 9999,
      "fzfg": false,
      "metar_trigger": false,
      "taf_trigger": false,
      "metar": "METAR LQBK 160630Z VRB03KT CAVOK 25/19 Q1017 NOSIG",
      "taf": "TAF LQBK 160500Z 1606/1706 VRB03KT CAVOK TX32/1614Z TN17/1703Z"
    },
    {
      "icao": "LQSA",
      "alert": "OK",
      "vis_m": 9999,
      "fzfg": false,
      "metar_trigger": false,
      "taf_trigger": false,
      "metar": "METAR LQSA 160630Z VRB01KT CAVOK 23/17 Q1019 NOSIG",
      "taf": "TAF LQSA 160500Z 1606/1706 VRB02KT CAVOK TX30/1612Z TN18/1704Z"
    },
    {
      "icao": "LQTZ",
      "alert": "OK",
      "vis_m": 9999,
      "fzfg": false,
      "metar_trigger": false,
      "taf_trigger": false,
      "metar": "METAR LQTZ 160630Z VRB02KT CAVOK 24/22 Q1017",
      "taf": "TAF LQTZ 160500Z 1606/1706 20005KT CAVOK TX28/1614Z TN17/1703Z"
    },
    {
      "icao": "LRBC",
      "alert": "OK",
      "vis_m": 9999,
      "fzfg": false,
      "metar_trigger": false,
      "taf_trigger": false,
      "metar": "METAR LRBC 160630Z 34006KT 9999 FEW062 26/18 Q1019",
      "taf": "TAF LRBC 160500Z 1606/1615 35008KT CAVOK"
    },
    {
      "icao": "LRBS",
      "alert": "OK",
      "vis_m": 9999,
      "fzfg": false,
      "metar_trigger": false,
      "taf_trigger": false,
      "metar": "METAR LRBS 160630Z 33003KT 290V020 CAVOK 25/19 Q1017 NOSIG",
      "taf": "TAF LRBS 160500Z 1606/1706 VRB04KT CAVOK"
    },
    {
      "icao": "LRBV",
      "alert": "OK",
      "vis_m": 9999,
      "fzfg": false,
      "metar_trigger": false,
      "taf_trigger": false,
      "metar": "METAR LRBV 160630Z 04004KT 350V110 9999 FEW050 22/17 Q1020",
      "taf": "TAF LRBV 160500Z 1606/1615 VRB04KT CAVOK"
    },
    {
      "icao": "LRCL",
      "alert": "OK",
      "vis_m": 9999,
      "fzfg": false,
      "metar_trigger": false,
      "taf_trigger": false,
      "metar": "METAR LRCL 160630Z VRB02KT CAVOK 23/15 Q1019",
      "taf": "TAF LRCL 160500Z 1606/1615 VRB04KT CAVOK"
    },
    {
      "icao": "LRCV",
      "alert": "OK",
      "vis_m": 9999,
      "fzfg": false,
      "metar_trigger": false,
      "taf_trigger": false,
      "metar": "METAR LRCV 160630Z 11006KT CAVOK 26/20 Q1018",
      "taf": "TAF LRCV 160500Z 1606/1615 VRB04KT CAVOK"
    },
    {
      "icao": "LRIA",
      "alert": "OK",
      "vis_m": 9999,
      "fzfg": false,
      "metar_trigger": false,
      "taf_trigger": false,
      "metar": "METAR LRIA 160630Z 26005KT 220V300 CAVOK 24/17 Q1018",
      "taf": "TAF LRIA 160500Z 1606/1615 28006KT CAVOK"
    },
    {
      "icao": "LROP",
      "alert": "OK",
      "vis_m": 9999,
      "fzfg": false,
      "metar_trigger": false,
      "taf_trigger": false,
      "metar": "METAR LROP 160630Z 36003KT 320V050 CAVOK 26/20 Q1017 NOSIG",
      "taf": "TAF LROP 160500Z 1606/1706 VRB04KT CAVOK"
    },
    {
      "icao": "LRSB",
      "alert": "OK",
      "vis_m": 9999,
      "fzfg": false,
      "metar_trigger": false,
      "taf_trigger": false,
      "metar": "METAR LRSB 160630Z VRB02KT CAVOK 23/18 Q1020",
      "taf": "TAF LRSB 160500Z 1606/1706 VRB04KT CAVOK"
    },
    {
      "icao": "LRSM",
      "alert": "OK",
      "vis_m": 9999,
      "fzfg": false,
      "metar_trigger": false,
      "taf_trigger": false,
      "metar": "METAR LRSM 160630Z AUTO VRB02KT 9999 BKN090/// 24/17 Q1018",
      "taf": ""
    },
    {
      "icao": "LRSV",
      "alert": "OK",
      "vis_m": 9999,
      "fzfg": false,
      "metar_trigger": false,
      "taf_trigger": false,
      "metar": "METAR LRSV 160630Z 31006KT CAVOK 23/17 Q1020",
      "taf": "TAF LRSV 160500Z 1606/1615 32010KT CAVOK"
    },
    {
      "icao": "LRTM",
      "alert": "OK",
      "vis_m": 9999,
      "fzfg": false,
      "metar_trigger": false,
      "taf_trigger": false,
      "metar": "METAR LRTM 160630Z VRB02KT CAVOK 23/19 Q1019",
      "taf": "TAF LRTM 160500Z 1606/1615 VRB04KT CAVOK"
    },
    {
      "icao": "LRTR",
      "alert": "OK",
      "vis_m": 9999,
      "fzfg": false,
      "metar_trigger": false,
      "taf_trigger": false,
      "metar": "METAR LRTR 160630Z 09009KT 050V110 CAVOK 26/17 Q1017 NOSIG",
      "taf": "TAF LRTR 160500Z 1606/1706 09008KT CAVOK"
    },
    {
      "icao": "LTAC",
      "alert": "OK",
      "vis_m": 9999,
      "fzfg": false,
      "metar_trigger": false,
      "taf_trigger": false,
      "metar": "METAR LTAC 160620Z 05008KT 020V080 CAVOK 22/10 Q1018 NOSIG RMK RWY21C 04008KT 340V080 RWY03L 03008KT 360V070 RWY21R 02007KT 300V060 RWY03R VRB06KT RWY21L 02007KT 340V080",
      "taf": "TAF LTAC 160440Z 1606/1706 03008KT CAVOK"
    },
    {
      "icao": "LTFM",
      "alert": "OK",
      "vis_m": 9999,
      "fzfg": false,
      "metar_trigger": false,
      "taf_trigger": false,
      "metar": "METAR LTFM 160620Z 05008KT 9999 FEW016 SCT025 25/20 Q1017 NOSIG RMK RWY17L 02007KT RWY34L 01008KT RWY16R 01008KT 340V040 RWY36 05007KT 010V070 RWY18 06006KT 360V090",
      "taf": "TAF LTFM 160440Z 1606/1712 VRB02KT 9999 FEW016 SCT025"
    },
    {
      "icao": "LUKK",
      "alert": "OK",
      "vis_m": 9999,
      "fzfg": false,
      "metar_trigger": false,
      "taf_trigger": false,
      "metar": "METAR LUKK 160630Z 36007KT 320V040 CAVOK 26/16 Q1017 NOSIG",
      "taf": "TAF LUKK 160515Z 1606/1706 34009KT CAVOK"
    },
    {
      "icao": "LWOH",
      "alert": "OK",
      "vis_m": 9999,
      "fzfg": false,
      "metar_trigger": false,
      "taf_trigger": false,
      "metar": "METAR LWOH 160620Z VRB01KT CAVOK 23/18 Q1021",
      "taf": "TAF LWOH 160520Z 1606/1706 34005KT CAVOK"
    },
    {
      "icao": "LWSK",
      "alert": "OK",
      "vis_m": 9999,
      "fzfg": false,
      "metar_trigger": false,
      "taf_trigger": false,
      "metar": "METAR LWSK 160620Z VRB02KT CAVOK 26/18 Q1018 NOSIG",
      "taf": "TAF LWSK 160520Z 1606/1706 VRB02KT CAVOK"
    },
    {
      "icao": "LYBE",
      "alert": "OK",
      "vis_m": 9999,
      "fzfg": false,
      "metar_trigger": false,
      "taf_trigger": false,
      "metar": "METAR LYBE 160630Z VRB02KT CAVOK 27/19 Q1016 NOSIG",
      "taf": "TAF LYBE 160500Z 1606/1706 22005KT CAVOK TX34/1614Z TN19/1703Z"
    },
    {
      "icao": "LYNI",
      "alert": "OK",
      "vis_m": 9999,
      "fzfg": false,
      "metar_trigger": false,
      "taf_trigger": false,
      "metar": "METAR LYNI 160630Z VRB02KT CAVOK 25/18 Q1018 NOSIG",
      "taf": "TAF LYNI 160500Z 1606/1706 22005KT 9999 SCT050 TX35/1614Z TN17/1703Z"
    },
    {
      "icao": "LYPG",
      "alert": "OK",
      "vis_m": 9999,
      "fzfg": false,
      "metar_trigger": false,
      "taf_trigger": false,
      "metar": "METAR LYPG 160630Z VRB02KT CAVOK 27/17 Q1016 NOSIG",
      "taf": "TAF LYPG 160500Z 1606/1706 17008KT 9999 FEW040 SCT080 TX36/1613Z TN22/1703Z"
    },
    {
      "icao": "LZIB",
      "alert": "OK",
      "vis_m": 9999,
      "fzfg": false,
      "metar_trigger": false,
      "taf_trigger": false,
      "metar": "METAR LZIB 160630Z 04004KT CAVOK 23/19 Q1019 NOSIG",
      "taf": "TAF LZIB 160515Z 1606/1706 02006KT 9999 FEW047"
    },
    {
      "icao": "LZKZ",
      "alert": "OK",
      "vis_m": 9999,
      "fzfg": false,
      "metar_trigger": false,
      "taf_trigger": false,
      "metar": "METAR LZKZ 160630Z 36007KT CAVOK 24/17 Q1019 NOSIG",
      "taf": "TAF LZKZ 160515Z 1606/1706 04007KT CAVOK"
    },
    {
      "icao": "LZTT",
      "alert": "OK",
      "vis_m": 9999,
      "fzfg": false,
      "metar_trigger": false,
      "taf_trigger": false,
      "metar": "METAR LZTT 160630Z VRB01KT 9999 FEW004 19/16 Q1022 NOSIG",
      "taf": "TAF LZTT 160515Z 1606/1706 29005KT 9999 FEW010 SCT040"
    },
    {
      "icao": "OEJN",
      "alert": "OK",
      "vis_m": 9999,
      "fzfg": false,
      "metar_trigger": false,
      "taf_trigger": false,
      "metar": "METAR OEJN 160600Z 33004KT CAVOK 33/22 Q1005 NOSIG",
      "taf": "TAF OEJN 160500Z 1606/1712 32015KT 9999 SCT040"
    },
    {
      "icao": "OEMA",
      "alert": "OK",
      "vis_m": 9999,
      "fzfg": false,
      "metar_trigger": false,
      "taf_trigger": false,
      "metar": "METAR OEMA 160600Z 31006KT 9999 FEW045 39/00 Q1010 NOSIG",
      "taf": "TAF OEMA 160500Z 1606/1712 30012KT CAVOK"
    },
    {
      "icao": "OJAI",
      "alert": "OK",
      "vis_m": 5000,
      "fzfg": false,
      "metar_trigger": false,
      "taf_trigger": false,
      "metar": "METAR OJAI 160600Z 27012KT 5000 DU NSC 27/12 Q1013 NOSIG",
      "taf": "TAF OJAI 160500Z 1606/1712 27008KT 5000 HZ NSC"
    },
    {
      "icao": "OMAA",
      "alert": "OK",
      "vis_m": 9999,
      "fzfg": false,
      "metar_trigger": false,
      "taf_trigger": false,
      "metar": "METAR OMAA 160630Z VRB02KT CAVOK 41/14 Q0998 NOSIG",
      "taf": "TAF OMAA 160500Z 1606/1712 10006KT 8000 NSC"
    },
    {
      "icao": "OMDB",
      "alert": "OK",
      "vis_m": 9000,
      "fzfg": false,
      "metar_trigger": false,
      "taf_trigger": false,
      "metar": "METAR OMDB 160630Z 09011KT 9000 NSC 40/23 Q0999 NOSIG",
      "taf": "TAF OMDB 160500Z 1606/1712 09012KT 7000 NSC"
    },
    {
      "icao": "UAAA",
      "alert": "OK",
      "vis_m": 9999,
      "fzfg": false,
      "metar_trigger": false,
      "taf_trigger": false,
      "metar": "METAR UAAA 160630Z 01003MPS 340V060 9999 FEW050 36/08 Q1009 NOSIG",
      "taf": "TAF UAAA 160502Z 1606/1706 04002G07MPS 9999 FEW050CB SCT100 TX38/1610Z TN21/1701Z"
    },
    {
      "icao": "UBBB",
      "alert": "OK",
      "vis_m": 9999,
      "fzfg": false,
      "metar_trigger": false,
      "taf_trigger": false,
      "metar": "METAR UBBB 160630Z 34020G30KT CAVOK 30/19 Q1009 NOSIG",
      "taf": "TAF UBBB 160504Z 1606/1706 33018G28KT 9999 SCT020 TX30/1610Z TN24/1701Z"
    },
    {
      "icao": "UDSG",
      "alert": "OK",
      "vis_m": 9999,
      "fzfg": false,
      "metar_trigger": false,
      "taf_trigger": false,
      "metar": "METAR UDSG 160630Z 02004KT 330V110 9999 NSC 24/15 Q1017 NOSIG",
      "taf": "TAF UDSG 160500Z 1606/1706 03006KT 9999 SCT050"
    },
    {
      "icao": "UDYZ",
      "alert": "OK",
      "vis_m": 9999,
      "fzfg": false,
      "metar_trigger": false,
      "taf_trigger": false,
      "metar": "METAR UDYZ 160630Z 16003KT 140V240 9999 FEW046 27/16 Q1011 NOSIG",
      "taf": "TAF UDYZ 160500Z 1606/1706 23006KT 9999 SCT040"
    },
    {
      "icao": "UGKO",
      "alert": "OK",
      "vis_m": 9999,
      "fzfg": false,
      "metar_trigger": false,
      "taf_trigger": false,
      "metar": "METAR UGKO 160630Z VRB01KT 9999 BKN080 24/20 Q1013 NOSIG",
      "taf": "TAF UGKO 160500Z 1606/1706 26007KT 9999 SCT030 BKN070 TX28/1612Z TN18/1702Z"
    }
  ]
}