{
  "ts_utc": "2026-06-27T01:34:16Z",
  "threshold_m": 150,
  "source": "stations_override.txt (ICAO list) + aviationweather.gov (METAR/TAF raw)",
  "station_count": 159,
  "stations": [
    {
      "icao": "BIKF",
      "alert": "OK",
      "vis_m": 9999,
      "fzfg": false,
      "metar_trigger": false,
      "taf_trigger": false,
      "metar": "METAR BIKF 270100Z 11009KT 9999 -RA BKN025 BKN058 OVC110 09/07 Q1004",
      "taf": "TAF BIKF 262300Z 2700/2800 14012KT 9999 SCT018 BKN040 TX11/2715Z TN08/2704Z"
    },
    {
      "icao": "BKPR",
      "alert": "OK",
      "vis_m": 9999,
      "fzfg": false,
      "metar_trigger": false,
      "taf_trigger": false,
      "metar": "METAR BKPR 270130Z 32003KT 280V340 CAVOK 16/13 Q1022 NOSIG",
      "taf": "TAF BKPR 262330Z 2700/2724 VRB05KT CAVOK"
    },
    {
      "icao": "EBCI",
      "alert": "OK",
      "vis_m": 9999,
      "fzfg": false,
      "metar_trigger": false,
      "taf_trigger": false,
      "metar": "METAR EBCI 270120Z 27002KT CAVOK 23/17 Q1018 NOSIG",
      "taf": "TAF EBCI 262310Z 2700/2806 30006KT CAVOK"
    },
    {
      "icao": "EDDB",
      "alert": "OK",
      "vis_m": 9999,
      "fzfg": false,
      "metar_trigger": false,
      "taf_trigger": false,
      "metar": "METAR EDDB 270120Z AUTO 13004KT CAVOK 21/13 Q1018 NOSIG",
      "taf": "TAF EDDB 262300Z 2700/2724 08004KT CAVOK"
    },
    {
      "icao": "EDDH",
      "alert": "OK",
      "vis_m": 9999,
      "fzfg": false,
      "metar_trigger": false,
      "taf_trigger": false,
      "metar": "METAR EDDH 270120Z AUTO VRB02KT CAVOK 24/13 Q1016 NOSIG",
      "taf": "TAF EDDH 262300Z 2700/2806 13005KT CAVOK"
    },
    {
      "icao": "EDDK",
      "alert": "OK",
      "vis_m": 9999,
      "fzfg": false,
      "metar_trigger": false,
      "taf_trigger": false,
      "metar": "METAR EDDK 270120Z AUTO 14003KT 120V180 CAVOK 25/21 Q1016 NOSIG",
      "taf": "TAF EDDK 262300Z 2700/2806 VRB03KT CAVOK"
    },
    {
      "icao": "EDDN",
      "alert": "OK",
      "vis_m": 9999,
      "fzfg": false,
      "metar_trigger": false,
      "taf_trigger": false,
      "metar": "METAR EDDN 270120Z AUTO 11004KT CAVOK 22/15 Q1019",
      "taf": "TAF EDDN 262300Z 2700/2724 11005KT CAVOK"
    },
    {
      "icao": "EDDS",
      "alert": "OK",
      "vis_m": 9999,
      "fzfg": false,
      "metar_trigger": false,
      "taf_trigger": false,
      "metar": "METAR EDDS 270120Z AUTO 33002KT CAVOK 22/15 Q1019",
      "taf": "TAF EDDS 262300Z 2700/2724 VRB03KT CAVOK"
    },
    {
      "icao": "EDFH",
      "alert": "OK",
      "vis_m": 9999,
      "fzfg": false,
      "metar_trigger": false,
      "taf_trigger": false,
      "metar": "METAR EDFH 270120Z VRB02KT CAVOK 24/15 Q1019",
      "taf": "TAF EDFH 262300Z 2700/2724 16004KT CAVOK"
    },
    {
      "icao": "EDJA",
      "alert": "OK",
      "vis_m": 9999,
      "fzfg": false,
      "metar_trigger": false,
      "taf_trigger": false,
      "metar": "METAR EDJA 270120Z AUTO VRB02KT 9999 // SCT140/// 16/12 Q1021",
      "taf": "TAF EDJA 261700Z 2618/2703 05005KT CAVOK"
    },
    {
      "icao": "EDLW",
      "alert": "OK",
      "vis_m": 9999,
      "fzfg": false,
      "metar_trigger": false,
      "taf_trigger": false,
      "metar": "METAR EDLW 270120Z AUTO 16003KT 9999 2600 // FEW200/// 26/20 Q1015",
      "taf": "TAF EDLW 261700Z 2618/2718 17004KT CAVOK"
    },
    {
      "icao": "EDNY",
      "alert": "OK",
      "vis_m": 9999,
      "fzfg": false,
      "metar_trigger": false,
      "taf_trigger": false,
      "metar": "METAR EDNY 270120Z AUTO VRB02KT 9999 // NCD 19/14 Q1020",
      "taf": "TAF EDNY 261700Z 2618/2703 VRB03KT CAVOK"
    },
    {
      "icao": "EDSB",
      "alert": "OK",
      "vis_m": 9999,
      "fzfg": false,
      "metar_trigger": false,
      "taf_trigger": false,
      "metar": "METAR EDSB 270120Z AUTO 21002KT 9999 // NCD 24/20 Q1017",
      "taf": "TAF EDSB 262300Z 2700/2724 VRB03KT CAVOK"
    },
    {
      "icao": "EETN",
      "alert": "OK",
      "vis_m": 9999,
      "fzfg": false,
      "metar_trigger": false,
      "taf_trigger": false,
      "metar": "METAR EETN 270120Z 23009KT 9999 FEW032CB SCT039 18/12 Q1015",
      "taf": "TAF EETN 262330Z 2700/2724 22008KT 9999 SCT040"
    },
    {
      "icao": "EFTU",
      "alert": "OK",
      "vis_m": 9999,
      "fzfg": false,
      "metar_trigger": false,
      "taf_trigger": false,
      "metar": "METAR EFTU 270120Z AUTO 31003KT 270V020 CAVOK 15/14 Q1014",
      "taf": "TAF EFTU 262336Z 2700/2724 22005KT CAVOK"
    },
    {
      "icao": "EGBB",
      "alert": "OK",
      "vis_m": 9999,
      "fzfg": false,
      "metar_trigger": false,
      "taf_trigger": false,
      "metar": "METAR EGBB 270120Z 17003KT 150V220 CAVOK 18/15 Q1017",
      "taf": "TAF EGBB 262300Z 2700/2724 VRB03KT 9999 FEW025"
    },
    {
      "icao": "EGGP",
      "alert": "OK",
      "vis_m": 9999,
      "fzfg": false,
      "metar_trigger": false,
      "taf_trigger": false,
      "metar": "METAR EGGP 270120Z 17004KT CAVOK 17/14 Q1015",
      "taf": "TAF EGGP 262303Z 2700/2724 24005KT 9999 FEW025"
    },
    {
      "icao": "EGGW",
      "alert": "OK",
      "vis_m": 9999,
      "fzfg": false,
      "metar_trigger": false,
      "taf_trigger": false,
      "metar": "METAR EGGW 270120Z AUTO 26008KT 9999 NCD 20/17 Q1017",
      "taf": "TAF EGGW 262303Z 2700/2724 26005KT CAVOK"
    },
    {
      "icao": "EGKK",
      "alert": "OK",
      "vis_m": 9999,
      "fzfg": false,
      "metar_trigger": false,
      "taf_trigger": false,
      "metar": "METAR EGKK 270120Z 27005KT CAVOK 19/17 Q1016",
      "taf": "TAF EGKK 262255Z 2700/2806 VRB04KT CAVOK"
    },
    {
      "icao": "EGNM",
      "alert": "OK",
      "vis_m": 9999,
      "fzfg": false,
      "metar_trigger": false,
      "taf_trigger": false,
      "metar": "METAR EGNM 270120Z 26006KT CAVOK 16/15 Q1016",
      "taf": "TAF EGNM 262302Z 2700/2724 28012KT 9999 FEW035"
    },
    {
      "icao": "EGPD",
      "alert": "OK",
      "vis_m": 450,
      "fzfg": false,
      "metar_trigger": false,
      "taf_trigger": false,
      "metar": "METAR EGPD 270120Z AUTO 15005KT 0450 R34/0375N FG VV/// 13/13 Q1012",
      "taf": "TAF EGPD 262258Z 2700/2724 VRB04KT 0700 FG OVC001"
    },
    {
      "icao": "EGPF",
      "alert": "OK",
      "vis_m": 9999,
      "fzfg": false,
      "metar_trigger": false,
      "taf_trigger": false,
      "metar": "METAR EGPF 270120Z AUTO 07003KT 050V130 9999 BKN016 OVC021 18/16 Q1011",
      "taf": ""
    },
    {
      "icao": "EHBK",
      "alert": "OK",
      "vis_m": 9999,
      "fzfg": false,
      "metar_trigger": false,
      "taf_trigger": false,
      "metar": "METAR EHBK 270125Z AUTO 29003KT 250V330 9999 NCD 26/19 Q1017",
      "taf": "TAF EHBK 262301Z 2700/2806 VRB02KT CAVOK"
    },
    {
      "icao": "EHEH",
      "alert": "OK",
      "vis_m": 9999,
      "fzfg": false,
      "metar_trigger": false,
      "taf_trigger": false,
      "metar": "METAR EHEH 270125Z AUTO 24001KT 9999 NCD 20/19 Q1016 BLU",
      "taf": "TAF EHEH 261749Z 2618/2724 27004KT CAVOK"
    },
    {
      "icao": "EKBI",
      "alert": "OK",
      "vis_m": 9999,
      "fzfg": false,
      "metar_trigger": false,
      "taf_trigger": false,
      "metar": "METAR EKBI 270120Z AUTO 10003KT 9999 NCD 19/16 Q1016",
      "taf": "TAF EKBI 262327Z 2700/2724 13006KT CAVOK"
    },
    {
      "icao": "EKCH",
      "alert": "OK",
      "vis_m": 9999,
      "fzfg": false,
      "metar_trigger": false,
      "taf_trigger": false,
      "metar": "METAR EKCH 270120Z AUTO 13005KT 9999 NCD 18/15 Q1018 NOSIG",
      "taf": "TAF EKCH 262327Z 2700/2724 15008KT CAVOK"
    },
    {
      "icao": "ENAL",
      "alert": "OK",
      "vis_m": 9999,
      "fzfg": false,
      "metar_trigger": false,
      "taf_trigger": false,
      "metar": "METAR ENAL 270120Z AUTO 06010KT 9999 FEW022/// OVC044/// 11/10 Q1017",
      "taf": "TAF ENAL 262300Z 2700/2709 06008KT 9999 FEW004 BKN020"
    },
    {
      "icao": "ENBR",
      "alert": "OK",
      "vis_m": 9999,
      "fzfg": false,
      "metar_trigger": false,
      "taf_trigger": false,
      "metar": "METAR ENBR 270120Z VRB01KT 9999 OVC023 14/13 Q1015 RMK WIND 1200FT 13014KT",
      "taf": "TAF ENBR 262300Z 2700/2724 18008KT 9999 BKN035"
    },
    {
      "icao": "ENGM",
      "alert": "OK",
      "vis_m": 9999,
      "fzfg": false,
      "metar_trigger": false,
      "taf_trigger": false,
      "metar": "METAR ENGM 270120Z 20003KT CAVOK 16/13 Q1015",
      "taf": "TAF ENGM 262300Z 2700/2724 18008KT CAVOK"
    },
    {
      "icao": "ENHD",
      "alert": "OK",
      "vis_m": 9999,
      "fzfg": false,
      "metar_trigger": false,
      "taf_trigger": false,
      "metar": "METAR ENHD 270120Z AUTO 11008KT 9999 SCT027/// 15/13 Q1014",
      "taf": "TAF ENHD 261400Z 2615/2622 22008KT 9999 FEW020 SCT040"
    },
    {
      "icao": "ENTC",
      "alert": "OK",
      "vis_m": 9999,
      "fzfg": false,
      "metar_trigger": false,
      "taf_trigger": false,
      "metar": "METAR ENTC 270120Z 19011KT 9999 -RA SCT027 BKN032 BKN039 10/09 Q1007 RMK WIND 2600FT 19018KT",
      "taf": "TAF ENTC 262300Z 2700/2724 19005KT 9999 -DZRA SCT015 BKN030"
    },
    {
      "icao": "ENTO",
      "alert": "OK",
      "vis_m": 2100,
      "fzfg": false,
      "metar_trigger": false,
      "taf_trigger": false,
      "metar": "METAR ENTO 270120Z AUTO 21001KT 2100 // NCD 15/15 Q1015",
      "taf": "TAF ENTO 262300Z 2700/2724 20005KT 9999 FEW050"
    },
    {
      "icao": "ENVA",
      "alert": "OK",
      "vis_m": 9999,
      "fzfg": false,
      "metar_trigger": false,
      "taf_trigger": false,
      "metar": "METAR ENVA 270120Z AUTO 29006KT 9999 FEW019/// BKN025/// OVC045/// 12/09 Q1018 RMK WIND 670FT 29011KT",
      "taf": "TAF ENVA 262300Z 2700/2724 27005KT 9999 FEW012 BKN030"
    },
    {
      "icao": "ENZV",
      "alert": "OK",
      "vis_m": 9999,
      "fzfg": false,
      "metar_trigger": false,
      "taf_trigger": false,
      "metar": "METAR ENZV 270120Z AUTO 09002KT 9999 NCD 14/14 Q1015",
      "taf": "TAF ENZV 262300Z 2700/2724 VRB03KT 9999 FEW030"
    },
    {
      "icao": "EPGD",
      "alert": "OK",
      "vis_m": 9999,
      "fzfg": false,
      "metar_trigger": false,
      "taf_trigger": false,
      "metar": "METAR EPGD 270130Z 22003KT CAVOK 17/16 Q1021",
      "taf": "TAF EPGD 262330Z 2700/2724 VRB02KT CAVOK"
    },
    {
      "icao": "EPKK",
      "alert": "OK",
      "vis_m": 9999,
      "fzfg": false,
      "metar_trigger": false,
      "taf_trigger": false,
      "metar": "METAR EPKK 270130Z VRB01KT CAVOK 17/13 Q1021",
      "taf": "TAF EPKK 262330Z 2700/2724 VRB02KT CAVOK"
    },
    {
      "icao": "EPKT",
      "alert": "OK",
      "vis_m": 9999,
      "fzfg": false,
      "metar_trigger": false,
      "taf_trigger": false,
      "metar": "METAR EPKT 270130Z 01003KT CAVOK 14/12 Q1021",
      "taf": "TAF EPKT 262330Z 2700/2724 VRB02KT CAVOK"
    },
    {
      "icao": "EPLB",
      "alert": "OK",
      "vis_m": 9999,
      "fzfg": false,
      "metar_trigger": false,
      "taf_trigger": false,
      "metar": "METAR EPLB 270130Z 28003KT CAVOK 16/13 Q1021",
      "taf": "TAF EPLB 262330Z 2700/2724 VRB02KT CAVOK"
    },
    {
      "icao": "EPMO",
      "alert": "OK",
      "vis_m": 9999,
      "fzfg": false,
      "metar_trigger": false,
      "taf_trigger": false,
      "metar": "METAR EPMO 270130Z 06003KT CAVOK 18/15 Q1022",
      "taf": "TAF EPMO 262330Z 2700/2724 08004KT CAVOK"
    },
    {
      "icao": "EPPO",
      "alert": "OK",
      "vis_m": 9999,
      "fzfg": false,
      "metar_trigger": false,
      "taf_trigger": false,
      "metar": "METAR EPPO 270130Z 11004KT CAVOK 18/14 Q1020",
      "taf": "TAF EPPO 262330Z 2700/2724 13003KT CAVOK"
    },
    {
      "icao": "EPRA",
      "alert": "OK",
      "vis_m": 9999,
      "fzfg": false,
      "metar_trigger": false,
      "taf_trigger": false,
      "metar": "METAR EPRA 270130Z VRB04KT CAVOK 19/13 Q1021",
      "taf": "TAF EPRA 262330Z 2700/2709 VRB02KT CAVOK"
    },
    {
      "icao": "EPRZ",
      "alert": "OK",
      "vis_m": 9999,
      "fzfg": false,
      "metar_trigger": false,
      "taf_trigger": false,
      "metar": "METAR EPRZ 270130Z 14001KT CAVOK 18/15 Q1021",
      "taf": "TAF EPRZ 262330Z 2700/2724 VRB02KT CAVOK"
    },
    {
      "icao": "EPSC",
      "alert": "OK",
      "vis_m": 9999,
      "fzfg": false,
      "metar_trigger": false,
      "taf_trigger": false,
      "metar": "METAR EPSC 270130Z 11006KT CAVOK 19/15 Q1019",
      "taf": "TAF EPSC 262330Z 2700/2724 13005KT CAVOK"
    },
    {
      "icao": "EPSY",
      "alert": "OK",
      "vis_m": 9999,
      "fzfg": false,
      "metar_trigger": false,
      "taf_trigger": false,
      "metar": "METAR EPSY 270130Z 00000KT CAVOK 14/13 Q1022",
      "taf": "TAF EPSY 262330Z 2700/2709 VRB02KT CAVOK"
    },
    {
      "icao": "EPWA",
      "alert": "OK",
      "vis_m": 9999,
      "fzfg": false,
      "metar_trigger": false,
      "taf_trigger": false,
      "metar": "METAR EPWA 270130Z 11001KT CAVOK 19/14 Q1021 NOSIG",
      "taf": "TAF EPWA 262330Z 2700/2724 10004KT CAVOK"
    },
    {
      "icao": "EPWR",
      "alert": "OK",
      "vis_m": 9999,
      "fzfg": false,
      "metar_trigger": false,
      "taf_trigger": false,
      "metar": "METAR EPWR 270130Z 15001KT CAVOK 17/15 Q1020",
      "taf": "TAF EPWR 262330Z 2700/2724 VRB02KT CAVOK"
    },
    {
      "icao": "ESGG",
      "alert": "OK",
      "vis_m": 9999,
      "fzfg": false,
      "metar_trigger": false,
      "taf_trigger": false,
      "metar": "METAR ESGG 270120Z 18007KT CAVOK 18/14 Q1016",
      "taf": "TAF ESGG 262330Z 2700/2724 18008KT CAVOK"
    },
    {
      "icao": "ESKN",
      "alert": "OK",
      "vis_m": 9999,
      "fzfg": false,
      "metar_trigger": false,
      "taf_trigger": false,
      "metar": "METAR ESKN 270120Z 25004KT CAVOK 18/14 Q1016",
      "taf": "TAF ESKN 262330Z 2700/2724 VRB02KT CAVOK"
    },
    {
      "icao": "ESMS",
      "alert": "OK",
      "vis_m": 9999,
      "fzfg": false,
      "metar_trigger": false,
      "taf_trigger": false,
      "metar": "METAR ESMS 270120Z COR 13004KT CAVOK 16/14 Q1018",
      "taf": "TAF ESMS 262327Z 2700/2724 13005KT CAVOK"
    },
    {
      "icao": "ESSA",
      "alert": "OK",
      "vis_m": 9999,
      "fzfg": false,
      "metar_trigger": false,
      "taf_trigger": false,
      "metar": "METAR ESSA 270120Z 29005KT 9999 -RA FEW045 BKN082 BKN110 17/13 Q1015 NOSIG",
      "taf": "TAF ESSA 262330Z 2700/2724 VRB03KT CAVOK"
    },
    {
      "icao": "EYKA",
      "alert": "OK",
      "vis_m": 9999,
      "fzfg": false,
      "metar_trigger": false,
      "taf_trigger": false,
      "metar": "METAR EYKA 270120Z VRB01KT CAVOK 13/12 Q1021",
      "taf": "TAF EYKA 262300Z 2700/2724 VRB03KT 9000 NSC"
    },
    {
      "icao": "EYPA",
      "alert": "OK",
      "vis_m": 9999,
      "fzfg": false,
      "metar_trigger": false,
      "taf_trigger": false,
      "metar": "METAR EYPA 270120Z COR 18003KT CAVOK 15/12 Q1020",
      "taf": "TAF EYPA 262300Z 2700/2724 19007KT 9000 NSC"
    },
    {
      "icao": "EYVI",
      "alert": "OK",
      "vis_m": 9999,
      "fzfg": false,
      "metar_trigger": false,
      "taf_trigger": false,
      "metar": "METAR EYVI 270120Z 00000KT CAVOK 11/10 Q1021 NOSIG",
      "taf": "TAF EYVI 262301Z 2700/2724 VRB03KT 9000 NSC"
    },
    {
      "icao": "GCFV",
      "alert": "OK",
      "vis_m": 9999,
      "fzfg": false,
      "metar_trigger": false,
      "taf_trigger": false,
      "metar": "METAR GCFV 270100Z AUTO 36007KT CAVOK 21/17 Q1019",
      "taf": "TAF GCFV 262000Z 2621/2721 04011KT 9999 FEW025 TX26/2714Z TN20/2706Z"
    },
    {
      "icao": "GCLP",
      "alert": "OK",
      "vis_m": 9999,
      "fzfg": false,
      "metar_trigger": false,
      "taf_trigger": false,
      "metar": "METAR GCLP 270100Z 36012KT 9999 FEW020 22/18 Q1019 NOSIG",
      "taf": "TAF GCLP 262000Z 2621/2721 36012KT 9999 FEW025 TX28/2714Z TN20/2706Z"
    },
    {
      "icao": "GCTS",
      "alert": "OK",
      "vis_m": 9999,
      "fzfg": false,
      "metar_trigger": false,
      "taf_trigger": false,
      "metar": "METAR GCTS 270100Z 08008KT 9999 FEW030 23/19 Q1020 NOSIG",
      "taf": "TAF GCTS 262000Z 2621/2721 07007KT 9999 BKN030 TX27/2714Z TN20/2706Z"
    },
    {
      "icao": "GMAD",
      "alert": "OK",
      "vis_m": 8000,
      "fzfg": false,
      "metar_trigger": false,
      "taf_trigger": false,
      "metar": "METAR GMAD 270100Z 19003KT 8000 BKN010 21/18 Q1017 NOSIG",
      "taf": "TAF GMAD 262300Z 2700/2806 12004KT 6000 BKN010"
    },
    {
      "icao": "GMMN",
      "alert": "OK",
      "vis_m": 9999,
      "fzfg": false,
      "metar_trigger": false,
      "taf_trigger": false,
      "metar": "METAR GMMN 270100Z 05007KT 9999 BKN016 21/17 Q1019 NOSIG",
      "taf": "TAF GMMN 262300Z 2700/2806 06005KT 9999 BKN016"
    },
    {
      "icao": "GMMX",
      "alert": "OK",
      "vis_m": 9999,
      "fzfg": false,
      "metar_trigger": false,
      "taf_trigger": false,
      "metar": "METAR GMMX 270100Z 25005KT CAVOK 23/16 Q1018 NOSIG",
      "taf": "TAF GMMX 262300Z 2700/2806 28006KT 8000 NSC"
    },
    {
      "icao": "HEGN",
      "alert": "OK",
      "vis_m": 9999,
      "fzfg": false,
      "metar_trigger": false,
      "taf_trigger": false,
      "metar": "METAR HEGN 270100Z 29015KT CAVOK 28/15 Q1007 NOSIG",
      "taf": "TAF HEGN 262300Z 2700/2806 29010G22KT CAVOK"
    },
    {
      "icao": "HEMA",
      "alert": "OK",
      "vis_m": 9999,
      "fzfg": false,
      "metar_trigger": false,
      "taf_trigger": false,
      "metar": "METAR HEMA 270100Z 30008KT CAVOK 28/09 Q1007 NOSIG",
      "taf": "TAF HEMA 262300Z 2700/2806 30010G22KT CAVOK"
    },
    {
      "icao": "HESH",
      "alert": "OK",
      "vis_m": 9999,
      "fzfg": false,
      "metar_trigger": false,
      "taf_trigger": false,
      "metar": "METAR HESH 270100Z 34012KT CAVOK 29/17 Q1006 NOSIG",
      "taf": "TAF HESH 262300Z 2700/2806 32012KT CAVOK"
    },
    {
      "icao": "HESX",
      "alert": "OK",
      "vis_m": 9999,
      "fzfg": false,
      "metar_trigger": false,
      "taf_trigger": false,
      "metar": "METAR HESX 270100Z 06006KT CAVOK 21/16 Q1010 NOSIG",
      "taf": "TAF HESX 262300Z 2700/2806 34010KT CAVOK"
    },
    {
      "icao": "LATI",
      "alert": "OK",
      "vis_m": 9999,
      "fzfg": false,
      "metar_trigger": false,
      "taf_trigger": false,
      "metar": "METAR LATI 270120Z VRB02KT CAVOK 22/18 Q1016 NOSIG",
      "taf": "TAF LATI 262300Z 2700/2724 VRB05KT CAVOK TX37/2712Z TN21/2704Z"
    },
    {
      "icao": "LBPD",
      "alert": "OK",
      "vis_m": 9999,
      "fzfg": false,
      "metar_trigger": false,
      "taf_trigger": false,
      "metar": "METAR LBPD 270130Z AUTO 26003KT 9999 NCD 20/19 Q1019",
      "taf": "TAF LBPD 262300Z 2700/2724 VRB03KT 9999 SCT070"
    },
    {
      "icao": "LBSF",
      "alert": "OK",
      "vis_m": 9999,
      "fzfg": false,
      "metar_trigger": false,
      "taf_trigger": false,
      "metar": "METAR LBSF 270130Z AUTO VRB01KT 9999 NCD 17/15 Q1021 NOSIG",
      "taf": "TAF LBSF 262300Z 2700/2724 VRB03KT 9999 SCT060"
    },
    {
      "icao": "LBWN",
      "alert": "OK",
      "vis_m": 9999,
      "fzfg": false,
      "metar_trigger": false,
      "taf_trigger": false,
      "metar": "METAR LBWN 270130Z AUTO 00000KT 9999 NSC 18/14 Q1017 TEMPO 5000 BR",
      "taf": "TAF LBWN 262300Z 2700/2724 VRB04KT CAVOK"
    },
    {
      "icao": "LCLK",
      "alert": "OK",
      "vis_m": 5000,
      "fzfg": false,
      "metar_trigger": false,
      "taf_trigger": false,
      "metar": "METAR LCLK 270130Z 04007KT 5000 BR FEW005 25/24 Q1007 TEMPO 3000 BR BKN009",
      "taf": "TAF LCLK 262330Z 2700/2800 26007KT 9999 FEW020"
    },
    {
      "icao": "LCPH",
      "alert": "OK",
      "vis_m": 9999,
      "fzfg": false,
      "metar_trigger": false,
      "taf_trigger": false,
      "metar": "METAR LCPH 270130Z AUTO 33005KT 9999 NCD 24/22 Q1007 BECMG SCT006",
      "taf": "TAF LCPH 262330Z 2700/2800 36007KT 9999 FEW020"
    },
    {
      "icao": "LEAL",
      "alert": "OK",
      "vis_m": 9999,
      "fzfg": false,
      "metar_trigger": false,
      "taf_trigger": false,
      "metar": "METAR LEAL 270100Z 08005KT 9999 OVC014 25/22 Q1017 NOSIG",
      "taf": "TAF LEAL 262300Z 2700/2724 VRB04KT 9999 SCT015 TX31/2712Z TN22/2706Z"
    },
    {
      "icao": "LEBB",
      "alert": "OK",
      "vis_m": 9999,
      "fzfg": false,
      "metar_trigger": false,
      "taf_trigger": false,
      "metar": "METAR LEBB 270100Z AUTO 32004KT 9999 BKN017 24/22 Q1017",
      "taf": "TAF LEBB 262300Z 2700/2724 30009KT 9999 FEW020 TX28/2713Z TN21/2703Z"
    },
    {
      "icao": "LEBL",
      "alert": "OK",
      "vis_m": 9999,
      "fzfg": false,
      "metar_trigger": false,
      "taf_trigger": false,
      "metar": "METAR LEBL 270100Z 34005KT CAVOK 24/18 Q1018 NOSIG",
      "taf": "TAF LEBL 262300Z 2700/2724 VRB03KT CAVOK TX32/2712Z TN23/2705Z"
    },
    {
      "icao": "LECH",
      "alert": "OK",
      "vis_m": 9999,
      "fzfg": false,
      "metar_trigger": false,
      "taf_trigger": false,
      "metar": "METAR LECH 270100Z AUTO 04002KT 9999 OVC024 21/19 Q1019",
      "taf": "TAF LECH 262300Z 2700/2724 VRB04KT 9999 SCT010 TX34/2712Z TN18/2706Z"
    },
    {
      "icao": "LEMD",
      "alert": "OK",
      "vis_m": 9999,
      "fzfg": false,
      "metar_trigger": false,
      "taf_trigger": false,
      "metar": "METAR LEMD 270100Z VRB01KT CAVOK 23/08 Q1018 NOSIG",
      "taf": "TAF LEMD 262300Z 2700/2806 VRB04KT CAVOK TX35/2716Z TN19/2706Z"
    },
    {
      "icao": "LEMG",
      "alert": "OK",
      "vis_m": 9999,
      "fzfg": false,
      "metar_trigger": false,
      "taf_trigger": false,
      "metar": "METAR LEMG 270100Z 28003KT CAVOK 21/17 Q1016 NOSIG",
      "taf": "TAF LEMG 262300Z 2700/2724 29004KT CAVOK TX33/2713Z TN22/2705Z"
    },
    {
      "icao": "LEVC",
      "alert": "OK",
      "vis_m": 9999,
      "fzfg": false,
      "metar_trigger": false,
      "taf_trigger": false,
      "metar": "METAR LEVC 270100Z 29003KT 9999 FEW020 24/21 Q1017 NOSIG",
      "taf": "TAF LEVC 262300Z 2700/2724 VRB04KT 9999 SCT020 TX32/2712Z TN21/2706Z"
    },
    {
      "icao": "LEXJ",
      "alert": "OK",
      "vis_m": 8000,
      "fzfg": false,
      "metar_trigger": false,
      "taf_trigger": false,
      "metar": "METAR LEXJ 270100Z AUTO 32003KT 270V040 8000 BKN006 22/21 Q1017",
      "taf": ""
    },
    {
      "icao": "LEZG",
      "alert": "OK",
      "vis_m": 9999,
      "fzfg": false,
      "metar_trigger": false,
      "taf_trigger": false,
      "metar": "METAR LEZG 270100Z 10011KT CAVOK 26/12 Q1017 NOSIG",
      "taf": "TAF LEZG 262300Z 2700/2724 10010KT 9999 FEW060 TX38/2715Z TN22/2706Z"
    },
    {
      "icao": "LEZL",
      "alert": "OK",
      "vis_m": 9999,
      "fzfg": false,
      "metar_trigger": false,
      "taf_trigger": false,
      "metar": "METAR LEZL 270100Z AUTO 21004KT 170V240 CAVOK 23/19 Q1017",
      "taf": "TAF LEZL 262000Z 2621/2721 21010KT CAVOK TX36/2715Z TN20/2705Z"
    },
    {
      "icao": "LFBD",
      "alert": "OK",
      "vis_m": 9999,
      "fzfg": false,
      "metar_trigger": false,
      "taf_trigger": false,
      "metar": "METAR LFBD 270130Z AUTO 03003KT CAVOK 24/20 Q1015 NOSIG",
      "taf": "TAF LFBD 262300Z 2700/2806 35005KT CAVOK TX37/2715Z TN21/2805Z"
    },
    {
      "icao": "LFLL",
      "alert": "OK",
      "vis_m": 9999,
      "fzfg": false,
      "metar_trigger": false,
      "taf_trigger": false,
      "metar": "METAR LFLL 270130Z 17008KT 140V210 CAVOK 29/12 Q1018 NOSIG",
      "taf": "TAF LFLL 262300Z 2700/2806 18012KT CAVOK"
    },
    {
      "icao": "LFLS",
      "alert": "OK",
      "vis_m": 9999,
      "fzfg": false,
      "metar_trigger": false,
      "taf_trigger": false,
      "metar": "METAR LFLS 270130Z AUTO VRB03KT CAVOK 22/14 Q1020",
      "taf": "TAF LFLS 261400Z 2615/2715 22008KT CAVOK"
    },
    {
      "icao": "LFMN",
      "alert": "OK",
      "vis_m": 9999,
      "fzfg": false,
      "metar_trigger": false,
      "taf_trigger": false,
      "metar": "METAR LFMN 270130Z 36008KT CAVOK 27/17 Q1018 NOSIG",
      "taf": "TAF LFMN 262000Z 2621/2803 34006KT CAVOK"
    },
    {
      "icao": "LFOB",
      "alert": "OK",
      "vis_m": 9999,
      "fzfg": false,
      "metar_trigger": false,
      "taf_trigger": false,
      "metar": "METAR LFOB 270130Z AUTO VRB02KT CAVOK 17/14 Q1017 TEMPO 4000 -TSRA FEW080CB",
      "taf": "TAF LFOB 262300Z 2700/2724 35010KT CAVOK"
    },
    {
      "icao": "LFPO",
      "alert": "OK",
      "vis_m": 9999,
      "fzfg": false,
      "metar_trigger": false,
      "taf_trigger": false,
      "metar": "METAR LFPO 270130Z AUTO 04007KT CAVOK 24/14 Q1016 NOSIG",
      "taf": "TAF LFPO 262300Z 2700/2806 02010KT CAVOK"
    },
    {
      "icao": "LFSB",
      "alert": "OK",
      "vis_m": 9999,
      "fzfg": false,
      "metar_trigger": false,
      "taf_trigger": false,
      "metar": "METAR LFSB 270130Z AUTO 18005KT CAVOK 25/16 Q1018 NOSIG",
      "taf": "TAF LFSB 262300Z 2700/2724 VRB03KT CAVOK"
    },
    {
      "icao": "LGAV",
      "alert": "OK",
      "vis_m": 9999,
      "fzfg": false,
      "metar_trigger": false,
      "taf_trigger": false,
      "metar": "METAR LGAV 270120Z 01019KT CAVOK 28/09 Q1013",
      "taf": "TAF LGAV 262300Z 2700/2724 03015KT 9999 FEW025"
    },
    {
      "icao": "LGTS",
      "alert": "OK",
      "vis_m": 9999,
      "fzfg": false,
      "metar_trigger": false,
      "taf_trigger": false,
      "metar": "METAR LGTS 270120Z 12004KT 9999 FEW020 23/20 Q1017 NOSIG",
      "taf": "TAF LGTS 262300Z 2700/2724 VRB03KT 9999 FEW030"
    },
    {
      "icao": "LHBP",
      "alert": "OK",
      "vis_m": 9999,
      "fzfg": false,
      "metar_trigger": false,
      "taf_trigger": false,
      "metar": "METAR LHBP 270130Z 10003KT CAVOK 23/14 Q1019 NOSIG",
      "taf": "TAF LHBP 262315Z 2700/2724 VRB03KT CAVOK"
    },
    {
      "icao": "LHDC",
      "alert": "OK",
      "vis_m": 9999,
      "fzfg": false,
      "metar_trigger": false,
      "taf_trigger": false,
      "metar": "METAR LHDC 270115Z AUTO 03006KT CAVOK 23/15 Q1019",
      "taf": "TAF LHDC 261415Z 2615/2624 04008KT CAVOK"
    },
    {
      "icao": "LIBD",
      "alert": "OK",
      "vis_m": 9999,
      "fzfg": false,
      "metar_trigger": false,
      "taf_trigger": false,
      "metar": "METAR LIBD 270120Z 22005KT CAVOK 23/17 Q1017",
      "taf": "TAF LIBD 262300Z 2700/2724 27006KT CAVOK"
    },
    {
      "icao": "LIBG",
      "alert": "OK",
      "vis_m": 9999,
      "fzfg": false,
      "metar_trigger": false,
      "taf_trigger": false,
      "metar": "METAR LIBG 270120Z AUTO 30003KT 270V350 9999 NCD 26/16 Q1016",
      "taf": "TAF LIBG 262300Z 2700/2724 VRB05KT CAVOK"
    },
    {
      "icao": "LIBP",
      "alert": "OK",
      "vis_m": 9999,
      "fzfg": false,
      "metar_trigger": false,
      "taf_trigger": false,
      "metar": "METAR LIBP 270120Z AUTO 24004KT 9999 NCD 20/17 Q1018",
      "taf": "TAF LIBP 262300Z 2700/2724 VRB05KT CAVOK"
    },
    {
      "icao": "LIBR",
      "alert": "OK",
      "vis_m": 9999,
      "fzfg": false,
      "metar_trigger": false,
      "taf_trigger": false,
      "metar": "METAR LIBR 270120Z 32009KT CAVOK 26/23 Q1016",
      "taf": "TAF LIBR 262300Z 2700/2724 33011KT CAVOK"
    },
    {
      "icao": "LICA",
      "alert": "OK",
      "vis_m": 9999,
      "fzfg": false,
      "metar_trigger": false,
      "taf_trigger": false,
      "metar": "METAR LICA 270120Z AUTO 08003KT 9999 NCD 22/21 Q1017",
      "taf": "TAF LICA 262300Z 2700/2724 VRB05KT 9999 SCT030"
    },
    {
      "icao": "LICC",
      "alert": "OK",
      "vis_m": 9999,
      "fzfg": false,
      "metar_trigger": false,
      "taf_trigger": false,
      "metar": "METAR LICC 270120Z 24004KT CAVOK 22/15 Q1016",
      "taf": "TAF LICC 262300Z 2700/2724 25008KT CAVOK"
    },
    {
      "icao": "LICJ",
      "alert": "OK",
      "vis_m": 9999,
      "fzfg": false,
      "metar_trigger": false,
      "taf_trigger": false,
      "metar": "METAR LICJ 270120Z 06011KT CAVOK 26/22 Q1017",
      "taf": "TAF LICJ 262300Z 2700/2724 VRB05KT 9999 FEW020"
    },
    {
      "icao": "LIMC",
      "alert": "OK",
      "vis_m": 9999,
      "fzfg": false,
      "metar_trigger": false,
      "taf_trigger": false,
      "metar": "METAR LIMC 270120Z 09005KT 9999 SCT065 27/21 Q1020 NOSIG",
      "taf": "TAF LIMC 262300Z 2700/2806 VRB05KT 9999 FEW050"
    },
    {
      "icao": "LIME",
      "alert": "OK",
      "vis_m": 9999,
      "fzfg": false,
      "metar_trigger": false,
      "taf_trigger": false,
      "metar": "METAR LIME 270120Z 01004KT CAVOK 27/20 Q1020 NOSIG",
      "taf": "TAF LIME 262300Z 2700/2724 VRB05KT 9999 FEW060"
    },
    {
      "icao": "LIMF",
      "alert": "OK",
      "vis_m": 9999,
      "fzfg": false,
      "metar_trigger": false,
      "taf_trigger": false,
      "metar": "METAR LIMF 270120Z VRB02KT CAVOK 25/20 Q1020",
      "taf": "TAF LIMF 262300Z 2700/2724 VRB05KT CAVOK"
    },
    {
      "icao": "LIMJ",
      "alert": "OK",
      "vis_m": 9999,
      "fzfg": false,
      "metar_trigger": false,
      "taf_trigger": false,
      "metar": "METAR LIMJ 270120Z VRB02KT CAVOK 27/20 Q1017",
      "taf": "TAF LIMJ 262300Z 2700/2724 VRB05KT CAVOK"
    },
    {
      "icao": "LIPE",
      "alert": "OK",
      "vis_m": 9999,
      "fzfg": false,
      "metar_trigger": false,
      "taf_trigger": false,
      "metar": "METAR LIPE 270120Z 19007KT CAVOK 26/16 Q1018",
      "taf": "TAF LIPE 262300Z 2700/2724 VRB05KT CAVOK"
    },
    {
      "icao": "LIPH",
      "alert": "OK",
      "vis_m": 9999,
      "fzfg": false,
      "metar_trigger": false,
      "taf_trigger": false,
      "metar": "METAR LIPH 270120Z AUTO 04004KT 9999 NCD 26/19 Q1018",
      "taf": "TAF LIPH 262300Z 2700/2724 VRB05KT 9999 FEW040"
    },
    {
      "icao": "LIPQ",
      "alert": "OK",
      "vis_m": 9999,
      "fzfg": false,
      "metar_trigger": false,
      "taf_trigger": false,
      "metar": "METAR LIPQ 270120Z AUTO 33003KT 9999 NCD 22/18 Q1018",
      "taf": "TAF LIPQ 262300Z 2700/2724 03006KT CAVOK"
    },
    {
      "icao": "LIPR",
      "alert": "OK",
      "vis_m": 9999,
      "fzfg": false,
      "metar_trigger": false,
      "taf_trigger": false,
      "metar": "METAR LIPR 270120Z AUTO 21004KT 9999 NCD 22/13 Q1018",
      "taf": "TAF LIPR 262300Z 2700/2724 VRB05KT CAVOK"
    },
    {
      "icao": "LIPX",
      "alert": "OK",
      "vis_m": 9999,
      "fzfg": false,
      "metar_trigger": false,
      "taf_trigger": false,
      "metar": "METAR LIPX 270120Z 30004KT CAVOK 25/18 Q1019",
      "taf": "TAF LIPX 262300Z 2700/2724 VRB05KT CAVOK"
    },
    {
      "icao": "LIPY",
      "alert": "OK",
      "vis_m": 9999,
      "fzfg": false,
      "metar_trigger": false,
      "taf_trigger": false,
      "metar": "METAR LIPY 270120Z AUTO 20003KT 9999 NCD 21/16 Q1018",
      "taf": "TAF LIPY 262300Z 2700/2724 VRB05KT CAVOK"
    },
    {
      "icao": "LIPZ",
      "alert": "OK",
      "vis_m": 9999,
      "fzfg": false,
      "metar_trigger": false,
      "taf_trigger": false,
      "metar": "METAR LIPZ 270120Z 36004KT CAVOK 26/18 Q1018 NOSIG",
      "taf": "TAF LIPZ 262300Z 2700/2806 03008KT CAVOK"
    },
    {
      "icao": "LIRF",
      "alert": "OK",
      "vis_m": 9999,
      "fzfg": false,
      "metar_trigger": false,
      "taf_trigger": false,
      "metar": "METAR LIRF 270120Z 10003KT CAVOK 24/23 Q1017 NOSIG",
      "taf": "TAF LIRF 262300Z 2700/2806 VRB05KT CAVOK"
    },
    {
      "icao": "LIRN",
      "alert": "OK",
      "vis_m": 9999,
      "fzfg": false,
      "metar_trigger": false,
      "taf_trigger": false,
      "metar": "METAR LIRN 270120Z 03003KT CAVOK 25/20 Q1018 NOSIG",
      "taf": "TAF LIRN 262300Z 2700/2724 VRB05KT CAVOK"
    },
    {
      "icao": "LIRP",
      "alert": "OK",
      "vis_m": 9999,
      "fzfg": false,
      "metar_trigger": false,
      "taf_trigger": false,
      "metar": "METAR LIRP 270045Z VRB01KT CAVOK 23/20 Q1018 NOSIG",
      "taf": "TAF LIRP 262300Z 2700/2724 VRB03KT CAVOK"
    },
    {
      "icao": "LIRZ",
      "alert": "OK",
      "vis_m": 9999,
      "fzfg": false,
      "metar_trigger": false,
      "taf_trigger": false,
      "metar": "METAR LIRZ 270120Z AUTO 01006KT 350V110 9999 NCD 20/12 Q1019",
      "taf": "TAF LIRZ 262300Z 2700/2724 VRB05KT CAVOK"
    },
    {
      "icao": "LJLJ",
      "alert": "OK",
      "vis_m": 9999,
      "fzfg": false,
      "metar_trigger": false,
      "taf_trigger": false,
      "metar": "METAR LJLJ 270100Z 01003KT CAVOK 17/15 Q1021 NOSIG",
      "taf": "TAF LJLJ 262300Z 2700/2800 32005KT CAVOK"
    },
    {
      "icao": "LKMT",
      "alert": "OK",
      "vis_m": 9999,
      "fzfg": false,
      "metar_trigger": false,
      "taf_trigger": false,
      "metar": "METAR LKMT 270130Z 17002KT CAVOK 19/17 Q1021 NOSIG",
      "taf": "TAF LKMT 262300Z 2700/2724 VRB02KT CAVOK"
    },
    {
      "icao": "LKPR",
      "alert": "OK",
      "vis_m": 9999,
      "fzfg": false,
      "metar_trigger": false,
      "taf_trigger": false,
      "metar": "METAR LKPR 270130Z 24002KT CAVOK 20/16 Q1020 NOSIG",
      "taf": "TAF LKPR 262300Z 2700/2806 08004KT CAVOK"
    },
    {
      "icao": "LLBG",
      "alert": "OK",
      "vis_m": 9999,
      "fzfg": false,
      "metar_trigger": false,
      "taf_trigger": false,
      "metar": "METAR LLBG 270120Z 16006KT 9999 BKN025 25/20 Q1009 NOSIG",
      "taf": "TAF LLBG 262300Z 2700/2724 VRB04KT 9999 SCT025 TX30/2711Z TN22/2702Z"
    },
    {
      "icao": "LMML",
      "alert": "OK",
      "vis_m": 9999,
      "fzfg": false,
      "metar_trigger": false,
      "taf_trigger": false,
      "metar": "METAR LMML 270115Z VRB01KT CAVOK 25/18 Q1016 NOSIG",
      "taf": "TAF LMML 262300Z 2700/2724 35006KT 9999 FEW020"
    },
    {
      "icao": "LOWW",
      "alert": "OK",
      "vis_m": 9999,
      "fzfg": false,
      "metar_trigger": false,
      "taf_trigger": false,
      "metar": "METAR LOWW 270120Z 08004KT 050V130 CAVOK 22/15 Q1020 NOSIG",
      "taf": "TAF LOWW 262315Z 2700/2806 VRB03KT CAVOK TX37/2714Z TN20/2703Z"
    },
    {
      "icao": "LPFR",
      "alert": "OK",
      "vis_m": 9999,
      "fzfg": false,
      "metar_trigger": false,
      "taf_trigger": false,
      "metar": "METAR LPFR 270100Z 32005KT CAVOK 21/14 Q1017",
      "taf": "TAF LPFR 262300Z 2700/2724 29007KT CAVOK"
    },
    {
      "icao": "LPMA",
      "alert": "OK",
      "vis_m": 9999,
      "fzfg": false,
      "metar_trigger": false,
      "taf_trigger": false,
      "metar": "METAR LPMA 270100Z 30005KT 240V030 9999 SCT015 20/16 Q1021",
      "taf": "TAF LPMA 262300Z 2700/2724 35012KT 9999 SCT015"
    },
    {
      "icao": "LPPR",
      "alert": "OK",
      "vis_m": 9999,
      "fzfg": false,
      "metar_trigger": false,
      "taf_trigger": false,
      "metar": "METAR LPPR 270100Z 19003KT 9999 MIFG FEW003 SCT005 18/17 Q1018",
      "taf": "TAF LPPR 262300Z 2700/2724 VRB02KT 8000 SCT006"
    },
    {
      "icao": "LPPS",
      "alert": "OK",
      "vis_m": 9999,
      "fzfg": false,
      "metar_trigger": false,
      "taf_trigger": false,
      "metar": "METAR LPPS 270100Z 35010KT 9999 SCT012 21/18 Q1021",
      "taf": "TAF LPPS 262300Z 2700/2806 36010KT 9999 SCT013"
    },
    {
      "icao": "LPPT",
      "alert": "OK",
      "vis_m": 9999,
      "fzfg": false,
      "metar_trigger": false,
      "taf_trigger": false,
      "metar": "METAR LPPT 270100Z 30007KT 9999 FEW015 19/17 Q1019",
      "taf": "TAF LPPT 262300Z 2700/2806 VRB02KT 9999 SCT015"
    },
    {
      "icao": "LQBK",
      "alert": "OK",
      "vis_m": 9999,
      "fzfg": false,
      "metar_trigger": false,
      "taf_trigger": false,
      "metar": "METAR LQBK 270100Z 00000KT CAVOK 18/16 Q1020 NOSIG",
      "taf": "TAF LQBK 262300Z 2700/2724 15005KT CAVOK TX34/2713Z TN18/2703Z"
    },
    {
      "icao": "LQSA",
      "alert": "OK",
      "vis_m": 9999,
      "fzfg": false,
      "metar_trigger": false,
      "taf_trigger": false,
      "metar": "METAR LQSA 270100Z 14003KT CAVOK 17/14 Q1022",
      "taf": "TAF LQSA 262300Z 2700/2724 VRB02KT CAVOK TX34/2714Z TN17/2703Z"
    },
    {
      "icao": "LQTZ",
      "alert": "OK",
      "vis_m": 9999,
      "fzfg": false,
      "metar_trigger": false,
      "taf_trigger": false,
      "metar": "METAR LQTZ 270100Z 12002KT CAVOK 15/15 Q1021",
      "taf": "TAF LQTZ 262300Z 2700/2724 VRB02KT CAVOK TX34/2714Z TN15/2703Z"
    },
    {
      "icao": "LRBC",
      "alert": "OK",
      "vis_m": 9999,
      "fzfg": false,
      "metar_trigger": false,
      "taf_trigger": false,
      "metar": "METAR LRBC 270100Z 02004KT CAVOK 19/16 Q1021",
      "taf": "TAF LRBC 262300Z 2700/2709 33005KT CAVOK"
    },
    {
      "icao": "LRBS",
      "alert": "OK",
      "vis_m": 9999,
      "fzfg": false,
      "metar_trigger": false,
      "taf_trigger": false,
      "metar": "METAR LRBS 270100Z VRB02KT CAVOK 25/18 Q1019 NOSIG",
      "taf": "TAF LRBS 262300Z 2700/2724 VRB04KT CAVOK"
    },
    {
      "icao": "LRBV",
      "alert": "OK",
      "vis_m": 9999,
      "fzfg": false,
      "metar_trigger": false,
      "taf_trigger": false,
      "metar": "METAR LRBV 270100Z AUTO VRB03KT 9999 BKN062/// OVC072/// 19/15 Q1022",
      "taf": "TAF LRBV 261700Z 2618/2703 VRB04KT CAVOK"
    },
    {
      "icao": "LRCL",
      "alert": "OK",
      "vis_m": 9999,
      "fzfg": false,
      "metar_trigger": false,
      "taf_trigger": false,
      "metar": "METAR LRCL 270100Z 25002KT CAVOK 20/14 Q1021",
      "taf": "TAF LRCL 262300Z 2700/2709 VRB04KT CAVOK"
    },
    {
      "icao": "LRCV",
      "alert": "OK",
      "vis_m": 9999,
      "fzfg": false,
      "metar_trigger": false,
      "taf_trigger": false,
      "metar": "METAR LRCV 270100Z 05006KT CAVOK 21/19 Q1019",
      "taf": "TAF LRCV 262300Z 2700/2709 VRB04KT CAVOK"
    },
    {
      "icao": "LRIA",
      "alert": "OK",
      "vis_m": 9999,
      "fzfg": false,
      "metar_trigger": false,
      "taf_trigger": false,
      "metar": "METAR LRIA 270100Z 30004KT CAVOK 19/15 Q1021",
      "taf": "TAF LRIA 262300Z 2700/2709 VRB04KT CAVOK"
    },
    {
      "icao": "LROP",
      "alert": "OK",
      "vis_m": 9999,
      "fzfg": false,
      "metar_trigger": false,
      "taf_trigger": false,
      "metar": "METAR LROP 270100Z VRB02KT CAVOK 23/20 Q1019 NOSIG",
      "taf": "TAF LROP 262300Z 2700/2724 VRB04KT CAVOK"
    },
    {
      "icao": "LRSB",
      "alert": "OK",
      "vis_m": 9999,
      "fzfg": false,
      "metar_trigger": false,
      "taf_trigger": false,
      "metar": "METAR LRSB 270100Z VRB02KT CAVOK 18/15 Q1021",
      "taf": "TAF LRSB 262300Z 2700/2724 VRB04KT CAVOK"
    },
    {
      "icao": "LRSM",
      "alert": "OK",
      "vis_m": 9999,
      "fzfg": false,
      "metar_trigger": false,
      "taf_trigger": false,
      "metar": "METAR LRSM 270100Z AUTO 20002KT 9999 NCD 18/15 Q1020",
      "taf": "TAF LRSM 261400Z 2615/2624 VRB04KT CAVOK"
    },
    {
      "icao": "LRSV",
      "alert": "OK",
      "vis_m": 9999,
      "fzfg": false,
      "metar_trigger": false,
      "taf_trigger": false,
      "metar": "METAR LRSV 270100Z 16002KT CAVOK 19/15 Q1022",
      "taf": "TAF LRSV 262300Z 2700/2709 VRB04KT CAVOK"
    },
    {
      "icao": "LRTM",
      "alert": "OK",
      "vis_m": 9999,
      "fzfg": false,
      "metar_trigger": false,
      "taf_trigger": false,
      "metar": "METAR LRTM 270100Z 07003KT CAVOK 19/17 Q1021",
      "taf": "TAF LRTM 262300Z 2700/2709 VRB04KT CAVOK"
    },
    {
      "icao": "LRTR",
      "alert": "OK",
      "vis_m": 9999,
      "fzfg": false,
      "metar_trigger": false,
      "taf_trigger": false,
      "metar": "METAR LRTR 270100Z 06006KT CAVOK 18/16 Q1019",
      "taf": "TAF LRTR 262300Z 2700/2724 36007KT CAVOK"
    },
    {
      "icao": "LTAC",
      "alert": "OK",
      "vis_m": 9999,
      "fzfg": false,
      "metar_trigger": false,
      "taf_trigger": false,
      "metar": "METAR LTAC 270120Z 01002KT CAVOK 14/08 Q1018 NOSIG RMK RWY21C VRB01KT RWY03L 01002KT RWY21R 05001KT RWY03R 34002KT RWY21L 02003KT",
      "taf": "TAF LTAC 262240Z 2700/2724 VRB02KT CAVOK"
    },
    {
      "icao": "LTFM",
      "alert": "OK",
      "vis_m": 9999,
      "fzfg": false,
      "metar_trigger": false,
      "taf_trigger": false,
      "metar": "METAR LTFM 270120Z 04007KT 350V050 9999 SCT008 23/21 Q1017 NOSIG RMK RWY17L 05006KT RWY34L 03007KT RWY16R 05005KT RWY36 04007KT 010V070 RWY18 05006KT",
      "taf": "TAF LTFM 262240Z 2700/2806 04006KT 9999 SCT008"
    },
    {
      "icao": "LUKK",
      "alert": "OK",
      "vis_m": 9999,
      "fzfg": false,
      "metar_trigger": false,
      "taf_trigger": false,
      "metar": "METAR LUKK 270100Z 28003KT CAVOK 17/17 Q1020 NOSIG",
      "taf": "TAF LUKK 262302Z 2700/2724 VRB06KT CAVOK"
    },
    {
      "icao": "LWOH",
      "alert": "OK",
      "vis_m": 9999,
      "fzfg": false,
      "metar_trigger": false,
      "taf_trigger": false,
      "metar": "METAR LWOH 270120Z 29006KT CAVOK 18/14 Q1021",
      "taf": "TAF LWOH 262305Z 2700/2724 34006KT 9999 FEW090"
    },
    {
      "icao": "LWSK",
      "alert": "OK",
      "vis_m": 9999,
      "fzfg": false,
      "metar_trigger": false,
      "taf_trigger": false,
      "metar": "METAR LWSK 270050Z VRB02KT CAVOK 21/15 Q1019 NOSIG",
      "taf": "TAF LWSK 262305Z 2700/2724 VRB02KT CAVOK"
    },
    {
      "icao": "LYBE",
      "alert": "OK",
      "vis_m": 9999,
      "fzfg": false,
      "metar_trigger": false,
      "taf_trigger": false,
      "metar": "METAR LYBE 270100Z VRB02KT CAVOK 20/16 Q1019 NOSIG",
      "taf": "TAF LYBE 262300Z 2700/2724 25005KT CAVOK TX37/2713Z TN22/2703Z"
    },
    {
      "icao": "LYNI",
      "alert": "OK",
      "vis_m": 9999,
      "fzfg": false,
      "metar_trigger": false,
      "taf_trigger": false,
      "metar": "METAR LYNI 270100Z 10004KT CAVOK 20/14 Q1020 NOSIG",
      "taf": "TAF LYNI 262300Z 2700/2724 10003KT CAVOK TX36/2713Z TN19/2703Z"
    },
    {
      "icao": "LYPG",
      "alert": "OK",
      "vis_m": 9999,
      "fzfg": false,
      "metar_trigger": false,
      "taf_trigger": false,
      "metar": "METAR LYPG 270100Z 35008KT CAVOK 28/13 Q1017 NOSIG",
      "taf": "TAF LYPG 262300Z 2700/2724 36009KT CAVOK TX38/2713Z TN26/2703Z"
    },
    {
      "icao": "LZIB",
      "alert": "OK",
      "vis_m": 9999,
      "fzfg": false,
      "metar_trigger": false,
      "taf_trigger": false,
      "metar": "METAR LZIB 270130Z 03003KT CAVOK 24/16 Q1019 NOSIG",
      "taf": "TAF LZIB 262315Z 2700/2800 VRB02KT CAVOK"
    },
    {
      "icao": "LZKZ",
      "alert": "OK",
      "vis_m": 9999,
      "fzfg": false,
      "metar_trigger": false,
      "taf_trigger": false,
      "metar": "METAR LZKZ 270130Z 30003KT CAVOK 20/16 Q1021 NOSIG",
      "taf": "TAF LZKZ 262315Z 2700/2800 VRB02KT CAVOK"
    },
    {
      "icao": "LZTT",
      "alert": "OK",
      "vis_m": 9999,
      "fzfg": false,
      "metar_trigger": false,
      "taf_trigger": false,
      "metar": "METAR LZTT 270130Z 29005KT CAVOK 17/15 Q1024",
      "taf": "TAF LZTT 262315Z 2700/2800 26004KT 9999 FEW060"
    },
    {
      "icao": "OEJN",
      "alert": "OK",
      "vis_m": 9999,
      "fzfg": false,
      "metar_trigger": false,
      "taf_trigger": false,
      "metar": "METAR OEJN 270100Z 32007KT CAVOK 30/20 Q1004 NOSIG",
      "taf": "TAF OEJN 262300Z 2700/2806 VRB03KT CAVOK"
    },
    {
      "icao": "OEMA",
      "alert": "OK",
      "vis_m": 9999,
      "fzfg": false,
      "metar_trigger": false,
      "taf_trigger": false,
      "metar": "METAR OEMA 270100Z VRB02KT CAVOK 34/M01 Q1009 NOSIG",
      "taf": "TAF OEMA 262300Z 2700/2806 VRB03KT CAVOK"
    },
    {
      "icao": "OJAI",
      "alert": "OK",
      "vis_m": 5000,
      "fzfg": false,
      "metar_trigger": false,
      "taf_trigger": false,
      "metar": "METAR OJAI 270100Z 30006KT 5000 HZ NSC 18/13 Q1012 NOSIG",
      "taf": "TAF OJAI 262248Z 2700/2806 27006KT 5000 HZ NSC"
    },
    {
      "icao": "OMAA",
      "alert": "OK",
      "vis_m": 9999,
      "fzfg": false,
      "metar_trigger": false,
      "taf_trigger": false,
      "metar": "METAR OMAA 270130Z 19002KT CAVOK 29/23 Q1000 NOSIG",
      "taf": "TAF OMAA 262300Z 2700/2806 20005KT 8000 NSC"
    },
    {
      "icao": "OMDB",
      "alert": "OK",
      "vis_m": 8000,
      "fzfg": false,
      "metar_trigger": false,
      "taf_trigger": false,
      "metar": "METAR OMDB 270130Z 15006KT 8000 NSC 30/24 Q1001 NOSIG",
      "taf": "TAF OMDB 262300Z 2700/2806 12006KT 8000 NSC"
    },
    {
      "icao": "UAAA",
      "alert": "OK",
      "vis_m": 9999,
      "fzfg": false,
      "metar_trigger": false,
      "taf_trigger": false,
      "metar": "METAR UAAA 270100Z VRB01MPS 9999 FEW100 SCT200 25/14 Q1007 NOSIG",
      "taf": "TAF UAAA 262301Z 2700/2724 20003MPS 9999 SCT050CB BKN100 TX36/2710Z TN20/2701Z"
    },
    {
      "icao": "UBBB",
      "alert": "OK",
      "vis_m": 9999,
      "fzfg": false,
      "metar_trigger": false,
      "taf_trigger": false,
      "metar": "METAR UBBB 270130Z 19002KT 9999 FEW060CB 23/19 Q1010 NOSIG",
      "taf": "TAF UBBB 262303Z 2700/2724 33006KT 9999 FEW060CB TX26/2710Z TN20/2701Z"
    },
    {
      "icao": "UDSG",
      "alert": "OK",
      "vis_m": 9999,
      "fzfg": false,
      "metar_trigger": false,
      "taf_trigger": false,
      "metar": "METAR UDSG 270100Z 05004KT 9999 NSC 06/05 Q1017 NOSIG",
      "taf": "TAF UDSG 262300Z 2700/2724 36006KT 9999 SCT050"
    },
    {
      "icao": "UDYZ",
      "alert": "OK",
      "vis_m": 9999,
      "fzfg": false,
      "metar_trigger": false,
      "taf_trigger": false,
      "metar": "METAR UDYZ 270100Z 09006KT 9999 SCT043CB 19/10 Q1012 NOSIG",
      "taf": "TAF UDYZ 262300Z 2700/2724 14006KT 9999 SCT040"
    },
    {
      "icao": "UGKO",
      "alert": "OK",
      "vis_m": 9999,
      "fzfg": false,
      "metar_trigger": false,
      "taf_trigger": false,
      "metar": "METAR UGKO 270100Z VRB03KT 9999 TS SCT024 BKN028CB 18/17 Q1011 NOSIG",
      "taf": "TAF UGKO 262300Z 2700/2724 26007KT 9999 SCT020 BKN050 TX23/2711Z TN17/2702Z"
    }
  ]
}