{
  "ts_utc": "2026-03-26T05:19:54Z",
  "threshold_m": 150,
  "source": "stations_override.txt (ICAO list) + aviationweather.gov (METAR/TAF raw)",
  "station_count": 159,
  "stations": [
    {
      "icao": "BIKF",
      "alert": "OK",
      "vis_m": 1000,
      "fzfg": false,
      "metar_trigger": false,
      "taf_trigger": false,
      "metar": "METAR BIKF 260500Z 10032KT 1000 R10/P1500U -SN BR OVC008 OVC020 M03/M04 Q1000",
      "taf": "TAF BIKF 260452Z 2606/2706 10022G32KT 3000 -SN SCT010 OVC020 TX05/2614Z TNM01/2606Z"
    },
    {
      "icao": "BKPR",
      "alert": "OK",
      "vis_m": 9999,
      "fzfg": false,
      "metar_trigger": false,
      "taf_trigger": false,
      "metar": "METAR BKPR 260500Z VRB01KT CAVOK 01/M02 Q1003 NOSIG",
      "taf": ""
    },
    {
      "icao": "EBCI",
      "alert": "OK",
      "vis_m": 9999,
      "fzfg": false,
      "metar_trigger": false,
      "taf_trigger": false,
      "metar": "METAR EBCI 260450Z 28005KT 250V320 9999 FEW004 BKN008 01/00 Q1015 TEMPO 4000 SHRASN",
      "taf": "TAF EBCI 252315Z 2600/2706 31014KT 9999 SCT025"
    },
    {
      "icao": "EDDB",
      "alert": "OK",
      "vis_m": 9999,
      "fzfg": false,
      "metar_trigger": false,
      "taf_trigger": false,
      "metar": "METAR EDDB 260450Z AUTO 26007KT CAVOK M01/M02 Q1006 NOSIG",
      "taf": "TAF EDDB 252300Z 2600/2624 26008KT 9999 FEW030"
    },
    {
      "icao": "EDDH",
      "alert": "OK",
      "vis_m": 9999,
      "fzfg": false,
      "metar_trigger": false,
      "taf_trigger": false,
      "metar": "METAR EDDH 260450Z AUTO 25008KT 9999 SCT025 BKN046 02/01 Q1005 RESHRA TEMPO 28015KT 4500 SHRASN",
      "taf": "TAF EDDH 252300Z 2600/2706 27009KT 9999 SCT025"
    },
    {
      "icao": "EDDK",
      "alert": "OK",
      "vis_m": 9999,
      "fzfg": false,
      "metar_trigger": false,
      "taf_trigger": false,
      "metar": "METAR EDDK 260450Z AUTO 32008KT 9999 BKN011 03/01 Q1012 NOSIG",
      "taf": "TAF EDDK 252300Z 2600/2706 27008KT 9999 BKN025"
    },
    {
      "icao": "EDDN",
      "alert": "OK",
      "vis_m": 9999,
      "fzfg": false,
      "metar_trigger": false,
      "taf_trigger": false,
      "metar": "METAR EDDN 260450Z AUTO 31006KT 280V340 9999 BKN008 BKN020 OVC028 02/01 Q1008",
      "taf": ""
    },
    {
      "icao": "EDDS",
      "alert": "OK",
      "vis_m": 9999,
      "fzfg": false,
      "metar_trigger": false,
      "taf_trigger": false,
      "metar": "METAR EDDS 260450Z AUTO 32012KT 9999 BKN012 BKN018 OVC024 02/M00 Q1009",
      "taf": "TAF EDDS 252300Z 2600/2624 30010KT 9999 BKN025"
    },
    {
      "icao": "EDFH",
      "alert": "OK",
      "vis_m": 9999,
      "fzfg": false,
      "metar_trigger": false,
      "taf_trigger": false,
      "metar": "METAR EDFH 260450Z 28007KT 9999 -SN FEW002 BKN005 00/M01 Q1010",
      "taf": "TAF EDFH 252300Z 2600/2624 30010KT 9999 SCT003 BKN006"
    },
    {
      "icao": "EDJA",
      "alert": "OK",
      "vis_m": 9999,
      "fzfg": false,
      "metar_trigger": false,
      "taf_trigger": false,
      "metar": "METAR EDJA 260450Z 30004KT 9999 BKN006 OVC012 01/M00 Q1007",
      "taf": "TAF EDJA 260200Z 2603/2612 32009KT 9999 SCT006 BKN013"
    },
    {
      "icao": "EDLW",
      "alert": "OK",
      "vis_m": 9999,
      "fzfg": false,
      "metar_trigger": false,
      "taf_trigger": false,
      "metar": "METAR EDLW 260450Z 26005KT 230V300 9999 FEW012 SCT030 OVC041 02/01 Q1011",
      "taf": "TAF EDLW 260425Z 2605/2624 26007KT 9999 BKN025"
    },
    {
      "icao": "EDNY",
      "alert": "OK",
      "vis_m": 9999,
      "fzfg": false,
      "metar_trigger": false,
      "taf_trigger": false,
      "metar": "METAR EDNY 260450Z 27004KT 230V320 9999 SCT029 BKN045 OVC053 02/01 Q1009",
      "taf": "TAF EDNY 260200Z 2603/2612 30005KT 9999 BKN020"
    },
    {
      "icao": "EDSB",
      "alert": "OK",
      "vis_m": 9999,
      "fzfg": false,
      "metar_trigger": false,
      "taf_trigger": false,
      "metar": "METAR EDSB 260450Z 27003KT 230V320 9999 SCT042 04/01 Q1012",
      "taf": "TAF EDSB 252300Z 2600/2624 23005KT 9999 BKN020"
    },
    {
      "icao": "EETN",
      "alert": "OK",
      "vis_m": 9999,
      "fzfg": false,
      "metar_trigger": false,
      "taf_trigger": false,
      "metar": "METAR EETN 260450Z 20009KT 9999 FEW023 05/02 Q0995 NOSIG",
      "taf": "TAF EETN 252330Z 2600/2624 20012KT 9999 SCT020"
    },
    {
      "icao": "EFTU",
      "alert": "OK",
      "vis_m": 9999,
      "fzfg": false,
      "metar_trigger": false,
      "taf_trigger": false,
      "metar": "METAR EFTU 260450Z AUTO 19009KT 160V220 9999 BKN008 02/01 Q0991",
      "taf": "TAF EFTU 260228Z 2603/2703 19012G22KT 9999 FEW012"
    },
    {
      "icao": "EGBB",
      "alert": "OK",
      "vis_m": 9999,
      "fzfg": false,
      "metar_trigger": false,
      "taf_trigger": false,
      "metar": "METAR EGBB 260450Z 30007KT 9999 BKN020 03/01 Q1020",
      "taf": "TAF EGBB 260458Z 2606/2706 28008KT 9999 FEW025"
    },
    {
      "icao": "EGGP",
      "alert": "OK",
      "vis_m": 9999,
      "fzfg": false,
      "metar_trigger": false,
      "taf_trigger": false,
      "metar": "METAR EGGP 260450Z AUTO 32007KT 9999 NCD 03/M01 Q1021",
      "taf": "TAF EGGP 260455Z 2606/2706 33010KT 9999 FEW030"
    },
    {
      "icao": "EGGW",
      "alert": "OK",
      "vis_m": 9999,
      "fzfg": false,
      "metar_trigger": false,
      "taf_trigger": false,
      "metar": "METAR EGGW 260450Z AUTO 30009KT 9999 NCD 01/M01 Q1019",
      "taf": "TAF EGGW 260458Z 2606/2706 31010KT 9999 SCT040"
    },
    {
      "icao": "EGKK",
      "alert": "OK",
      "vis_m": 9999,
      "fzfg": false,
      "metar_trigger": false,
      "taf_trigger": false,
      "metar": "METAR EGKK 260450Z 31007KT CAVOK 03/M00 Q1020",
      "taf": "TAF EGKK 260456Z 2606/2712 28010KT 9999 FEW045"
    },
    {
      "icao": "EGNM",
      "alert": "OK",
      "vis_m": 9999,
      "fzfg": false,
      "metar_trigger": false,
      "taf_trigger": false,
      "metar": "METAR EGNM 260450Z 29008KT CAVOK M01/M03 Q1019",
      "taf": "TAF EGNM 260456Z 2606/2706 29009KT 9999 FEW025"
    },
    {
      "icao": "EGPD",
      "alert": "OK",
      "vis_m": 9999,
      "fzfg": false,
      "metar_trigger": false,
      "taf_trigger": false,
      "metar": "METAR EGPD 260450Z COR AUTO 28010KT 9999 NCD 00/M03 Q1016 NOSIG",
      "taf": "TAF EGPD 260454Z 2606/2706 30012KT 9999 FEW030"
    },
    {
      "icao": "EGPF",
      "alert": "OK",
      "vis_m": 9999,
      "fzfg": false,
      "metar_trigger": false,
      "taf_trigger": false,
      "metar": "METAR EGPF 260450Z AUTO 27003KT 250V340 9999 NCD M01/M04 Q1021",
      "taf": "TAF EGPF 260457Z 2606/2706 22003KT 9999 FEW015 SCT035"
    },
    {
      "icao": "EHBK",
      "alert": "OK",
      "vis_m": 9999,
      "fzfg": false,
      "metar_trigger": false,
      "taf_trigger": false,
      "metar": "METAR EHBK 260455Z AUTO 26006KT 230V310 9999 FEW003/// BKN004/// BKN006/// 02/01 Q1014 TEMPO BKN006",
      "taf": "TAF EHBK 252304Z 2600/2706 26007KT 9999 BKN030"
    },
    {
      "icao": "EHEH",
      "alert": "OK",
      "vis_m": 9999,
      "fzfg": false,
      "metar_trigger": false,
      "taf_trigger": false,
      "metar": "METAR EHEH 260455Z AUTO 26004KT 230V290 9999 FEW160 01/01 Q1013 BLU",
      "taf": "TAF EHEH 252324Z 2600/2706 26004KT CAVOK"
    },
    {
      "icao": "EKBI",
      "alert": "OK",
      "vis_m": 9999,
      "fzfg": false,
      "metar_trigger": false,
      "taf_trigger": false,
      "metar": "METAR EKBI 260450Z AUTO 29020G32KT 9999 OVC024/// 03/M00 Q1000",
      "taf": "TAF EKBI 260227Z 2603/2703 29015KT 9999 BKN025"
    },
    {
      "icao": "EKCH",
      "alert": "OK",
      "vis_m": 9999,
      "fzfg": false,
      "metar_trigger": false,
      "taf_trigger": false,
      "metar": "METAR EKCH 260450Z AUTO 26018KT 9999 OVC027/// 06/00 Q0998 NOSIG",
      "taf": "TAF EKCH 260227Z 2603/2703 27015KT 9999 BKN035"
    },
    {
      "icao": "ENAL",
      "alert": "OK",
      "vis_m": 9999,
      "fzfg": false,
      "metar_trigger": false,
      "taf_trigger": false,
      "metar": "METAR ENAL 260450Z 31021KT 9999 FEW015 SCT028 BKN035 03/01 Q0995",
      "taf": "TAF ENAL 260200Z 2603/2612 32020G30KT 9999 FEW025 BKN035"
    },
    {
      "icao": "ENBR",
      "alert": "OK",
      "vis_m": 6000,
      "fzfg": false,
      "metar_trigger": false,
      "taf_trigger": false,
      "metar": "METAR ENBR 260450Z 31014KT 6000 -SHRASN FEW003 BKN006 01/M00 Q0998 RMK WIND 1200FT 32031KT",
      "taf": "TAF ENBR 252300Z 2600/2624 32020KT 9999 -SHRA FEW012TCU BKN025"
    },
    {
      "icao": "ENGM",
      "alert": "OK",
      "vis_m": 9999,
      "fzfg": false,
      "metar_trigger": false,
      "taf_trigger": false,
      "metar": "METAR ENGM 260450Z 30005KT 230V360 CAVOK 04/M05 Q0987 NOSIG",
      "taf": "TAF ENGM 252300Z 2600/2624 34008KT CAVOK"
    },
    {
      "icao": "ENHD",
      "alert": "OK",
      "vis_m": 9999,
      "fzfg": false,
      "metar_trigger": false,
      "taf_trigger": false,
      "metar": "METAR ENHD 260450Z AUTO 31023G36KT 9999 SCT021/// BKN032/// 03/M00 Q1000",
      "taf": "TAF ENHD 260200Z 2603/2612 31025G40KT 9999 -SHRA FEW015TCU BKN025"
    },
    {
      "icao": "ENTC",
      "alert": "OK",
      "vis_m": 9999,
      "fzfg": false,
      "metar_trigger": false,
      "taf_trigger": false,
      "metar": "METAR ENTC 260450Z 04006KT CAVOK M02/M03 Q0986 RMK WIND 2600FT 05008KT",
      "taf": ""
    },
    {
      "icao": "ENTO",
      "alert": "OK",
      "vis_m": 9999,
      "fzfg": false,
      "metar_trigger": false,
      "taf_trigger": false,
      "metar": "METAR ENTO 260420Z AUTO 31010KT 9999 NCD 07/M05 Q0988",
      "taf": "TAF ENTO 252300Z 2600/2624 29008KT CAVOK"
    },
    {
      "icao": "ENVA",
      "alert": "OK",
      "vis_m": 9999,
      "fzfg": false,
      "metar_trigger": false,
      "taf_trigger": false,
      "metar": "METAR ENVA 260450Z VRB02KT 9999 -RA FEW010 BKN016 01/M01 Q0986 RMK WIND 670FT 26015G25KT",
      "taf": ""
    },
    {
      "icao": "ENZV",
      "alert": "OK",
      "vis_m": 9999,
      "fzfg": false,
      "metar_trigger": false,
      "taf_trigger": false,
      "metar": "METAR ENZV 260450Z 31024KT 9999 -RASN SCT011 BKN015 BKN024 02/00 Q1000",
      "taf": ""
    },
    {
      "icao": "EPGD",
      "alert": "OK",
      "vis_m": 9999,
      "fzfg": false,
      "metar_trigger": false,
      "taf_trigger": false,
      "metar": "METAR EPGD 260500Z 27012KT 9999 FEW016 02/M00 Q1001",
      "taf": "TAF EPGD 252330Z 2600/2624 26010KT CAVOK"
    },
    {
      "icao": "EPKK",
      "alert": "OK",
      "vis_m": 3500,
      "fzfg": false,
      "metar_trigger": false,
      "taf_trigger": false,
      "metar": "METAR EPKK 260500Z VRB02KT 3500 -RA BR SCT007 BKN011 07/07 Q1000",
      "taf": "TAF EPKK 260230Z 2603/2703 31004KT 6000 -RA BKN020"
    },
    {
      "icao": "EPKT",
      "alert": "OK",
      "vis_m": 6000,
      "fzfg": false,
      "metar_trigger": false,
      "taf_trigger": false,
      "metar": "METAR EPKT 260500Z 36012KT 6000 -RA FEW007 BKN010 OVC020 03/02 Q1001",
      "taf": ""
    },
    {
      "icao": "EPLB",
      "alert": "OK",
      "vis_m": 9999,
      "fzfg": false,
      "metar_trigger": false,
      "taf_trigger": false,
      "metar": "METAR EPLB 260500Z 33002KT CAVOK 08/05 Q1000",
      "taf": "TAF EPLB 252330Z 2600/2624 VRB03KT CAVOK"
    },
    {
      "icao": "EPMO",
      "alert": "OK",
      "vis_m": 9999,
      "fzfg": false,
      "metar_trigger": false,
      "taf_trigger": false,
      "metar": "METAR EPMO 260500Z 32005KT 290V360 9999 FEW041 05/03 Q1002",
      "taf": "TAF EPMO 252330Z 2600/2624 VRB02KT 9999 SCT040"
    },
    {
      "icao": "EPPO",
      "alert": "OK",
      "vis_m": 9999,
      "fzfg": false,
      "metar_trigger": false,
      "taf_trigger": false,
      "metar": "METAR EPPO 260500Z 31007KT CAVOK 02/M00 Q1004",
      "taf": "TAF EPPO 252330Z 2600/2624 32010KT 9999 SCT040"
    },
    {
      "icao": "EPRA",
      "alert": "OK",
      "vis_m": 4700,
      "fzfg": false,
      "metar_trigger": false,
      "taf_trigger": false,
      "metar": "METAR EPRA 260500Z 35005KT 4700 RA BR BKN004 OVC030 07/06 Q1001",
      "taf": "TAF EPRA 260230Z 2603/2612 34006KT 8000 -RA BKN030"
    },
    {
      "icao": "EPRZ",
      "alert": "OK",
      "vis_m": 9999,
      "fzfg": false,
      "metar_trigger": false,
      "taf_trigger": false,
      "metar": "METAR EPRZ 260500Z 34005KT CAVOK 08/01 Q1000",
      "taf": "TAF EPRZ 252330Z 2600/2624 15007KT CAVOK"
    },
    {
      "icao": "EPSC",
      "alert": "OK",
      "vis_m": 9999,
      "fzfg": false,
      "metar_trigger": false,
      "taf_trigger": false,
      "metar": "METAR EPSC 260500Z 25006KT 9999 FEW022 02/M00 Q1003",
      "taf": "TAF EPSC 252330Z 2600/2624 23005KT 9999 SCT030"
    },
    {
      "icao": "EPSY",
      "alert": "OK",
      "vis_m": 7000,
      "fzfg": false,
      "metar_trigger": false,
      "taf_trigger": false,
      "metar": "METAR EPSY 260500Z 30002KT 7000 MIFG NSC M01/M01 Q1002",
      "taf": "TAF EPSY 260230Z 2603/2612 31005KT 9999 SCT040"
    },
    {
      "icao": "EPWA",
      "alert": "OK",
      "vis_m": 9999,
      "fzfg": false,
      "metar_trigger": false,
      "taf_trigger": false,
      "metar": "METAR EPWA 260500Z 32008KT 9999 BKN036 06/03 Q1002 NOSIG",
      "taf": "TAF EPWA 260230Z 2603/2703 35007KT 9999 -RA SCT014 BKN040"
    },
    {
      "icao": "EPWR",
      "alert": "OK",
      "vis_m": 9999,
      "fzfg": false,
      "metar_trigger": false,
      "taf_trigger": false,
      "metar": "METAR EPWR 260500Z 31009KT 9999 SCT040 04/02 Q1005",
      "taf": "TAF EPWR 260230Z 2603/2703 32010KT 9999 SCT040"
    },
    {
      "icao": "ESGG",
      "alert": "OK",
      "vis_m": 9999,
      "fzfg": false,
      "metar_trigger": false,
      "taf_trigger": false,
      "metar": "METAR ESGG 260450Z 27008KT 230V290 CAVOK 04/01 Q0989",
      "taf": "TAF ESGG 260230Z 2603/2703 28010KT CAVOK"
    },
    {
      "icao": "ESKN",
      "alert": "OK",
      "vis_m": 9999,
      "fzfg": false,
      "metar_trigger": false,
      "taf_trigger": false,
      "metar": "METAR ESKN 260450Z 18006KT 9999 SCT011 BKN017 03/01 Q0987",
      "taf": "TAF ESKN 260230Z 2603/2703 23007KT 9999 SCT040"
    },
    {
      "icao": "ESMS",
      "alert": "OK",
      "vis_m": 9999,
      "fzfg": false,
      "metar_trigger": false,
      "taf_trigger": false,
      "metar": "METAR ESMS 260450Z 25017KT 9999 FEW020 OVC031 05/01 Q0997",
      "taf": "TAF ESMS 260227Z 2603/2703 25015G30KT 9999 SCT030"
    },
    {
      "icao": "ESSA",
      "alert": "OK",
      "vis_m": 9999,
      "fzfg": false,
      "metar_trigger": false,
      "taf_trigger": false,
      "metar": "METAR ESSA 260450Z 16007KT 9999 FEW026 01/M00 Q0987 NOSIG",
      "taf": "TAF ESSA 260230Z 2603/2703 21010KT CAVOK"
    },
    {
      "icao": "EYKA",
      "alert": "OK",
      "vis_m": 9999,
      "fzfg": false,
      "metar_trigger": false,
      "taf_trigger": false,
      "metar": "METAR EYKA 260450Z 31004KT 9999 FEW019 OVC044 06/03 Q1001",
      "taf": "TAF EYKA 260505Z 2606/2706 VRB05KT 8000 SCT010 OVC020"
    },
    {
      "icao": "EYPA",
      "alert": "OK",
      "vis_m": 9999,
      "fzfg": false,
      "metar_trigger": false,
      "taf_trigger": false,
      "metar": "METAR EYPA 260450Z 21007KT 180V260 CAVOK 03/02 Q1000",
      "taf": "TAF EYPA 260505Z 2606/2706 21010KT 9000 NSC"
    },
    {
      "icao": "EYVI",
      "alert": "OK",
      "vis_m": 9999,
      "fzfg": false,
      "metar_trigger": false,
      "taf_trigger": false,
      "metar": "METAR EYVI 260450Z 16005KT CAVOK 06/M01 Q1001 NOSIG",
      "taf": "TAF EYVI 260515Z 2606/2706 VRB03KT 9000 NSC"
    },
    {
      "icao": "GCFV",
      "alert": "OK",
      "vis_m": 9999,
      "fzfg": false,
      "metar_trigger": false,
      "taf_trigger": false,
      "metar": "METAR GCFV 260500Z AUTO 33012KT 9999 FEW021 17/13 Q1012",
      "taf": "TAF GCFV 260200Z 2603/2703 34013KT 9999 SCT020 TX23/2614Z TN17/2606Z"
    },
    {
      "icao": "GCLP",
      "alert": "OK",
      "vis_m": 9999,
      "fzfg": false,
      "metar_trigger": false,
      "taf_trigger": false,
      "metar": "METAR GCLP 260500Z 01015KT 9999 FEW025 17/12 Q1012 NOSIG",
      "taf": "TAF GCLP 260200Z 2603/2703 35019KT 9999 SCT025 TX22/2614Z TN17/2606Z"
    },
    {
      "icao": "GCTS",
      "alert": "OK",
      "vis_m": 9999,
      "fzfg": false,
      "metar_trigger": false,
      "taf_trigger": false,
      "metar": "METAR GCTS 260500Z 34004KT 300V360 9999 FEW025 16/13 Q1013 NOSIG",
      "taf": "TAF GCTS 260200Z 2603/2703 VRB07KT 9999 FEW025 TX23/2614Z TN15/2606Z"
    },
    {
      "icao": "GMAD",
      "alert": "OK",
      "vis_m": 8000,
      "fzfg": false,
      "metar_trigger": false,
      "taf_trigger": false,
      "metar": "METAR GMAD 260500Z 10006KT 8000 FEW023 14/M01 Q1008 NOSIG",
      "taf": "TAF GMAD 260500Z 2606/2712 06006KT 8000 SCT020"
    },
    {
      "icao": "GMMN",
      "alert": "OK",
      "vis_m": 600,
      "fzfg": false,
      "metar_trigger": false,
      "taf_trigger": false,
      "metar": "METAR GMMN 260500Z VRB01KT 0600 R35L/0500V0700U FG BKN003 12/11 Q1011 NOSIG",
      "taf": "TAF GMMN 260500Z 2606/2712 VRB02KT 0600 FG BKN003"
    },
    {
      "icao": "GMMX",
      "alert": "OK",
      "vis_m": 9999,
      "fzfg": false,
      "metar_trigger": false,
      "taf_trigger": false,
      "metar": "METAR GMMX 260500Z VRB02KT 9999 FEW023 SCT080 12/11 Q1009 NOSIG",
      "taf": "TAF GMMX 252300Z 2600/2706 04006KT 7000 SCT020 BKN080"
    },
    {
      "icao": "HEGN",
      "alert": "OK",
      "vis_m": 9999,
      "fzfg": false,
      "metar_trigger": false,
      "taf_trigger": false,
      "metar": "METAR HEGN 260500Z 30010KT 9999 FEW020 16/04 Q1006 NOSIG",
      "taf": "TAF HEGN 252359Z 2600/2706 27018G28KT 6000 SCT025"
    },
    {
      "icao": "HEMA",
      "alert": "OK",
      "vis_m": 6000,
      "fzfg": false,
      "metar_trigger": false,
      "taf_trigger": false,
      "metar": "METAR HEMA 260500Z 28012KT 6000 NSC 17/03 Q1007 NOSIG",
      "taf": "TAF HEMA 252358Z 2600/2706 28018G28KT 6000 SCT025"
    },
    {
      "icao": "HESH",
      "alert": "OK",
      "vis_m": 9999,
      "fzfg": false,
      "metar_trigger": false,
      "taf_trigger": false,
      "metar": "METAR HESH 260500Z 25012KT 9999 SCT020 18/05 Q1004 NOSIG",
      "taf": "TAF HESH 252359Z 2600/2706 30015G25KT 6000 SCT025"
    },
    {
      "icao": "HESX",
      "alert": "OK",
      "vis_m": 9999,
      "fzfg": false,
      "metar_trigger": false,
      "taf_trigger": false,
      "metar": "METAR HESX 260500Z 27010KT CAVOK 10/07 Q1003 NOSIG",
      "taf": "TAF HESX 252358Z 2600/2706 27018KT 9999 SCT020 SCT025"
    },
    {
      "icao": "LATI",
      "alert": "OK",
      "vis_m": null,
      "fzfg": false,
      "metar_trigger": false,
      "taf_trigger": false,
      "metar": "",
      "taf": "TAF LATI 260500Z 2606/2706 16008KT 9999 BKN090 TX19/2613Z TN07/2704Z"
    },
    {
      "icao": "LBPD",
      "alert": "OK",
      "vis_m": 9999,
      "fzfg": false,
      "metar_trigger": false,
      "taf_trigger": false,
      "metar": "METAR LBPD 260500Z AUTO 00000KT 9999 NCD 03/02 Q1006 NOSIG",
      "taf": "TAF LBPD 260500Z 2606/2706 VRB03KT 9999 SCT070"
    },
    {
      "icao": "LBSF",
      "alert": "OK",
      "vis_m": 9999,
      "fzfg": false,
      "metar_trigger": false,
      "taf_trigger": false,
      "metar": "METAR LBSF 260500Z 10010KT 9999 FEW072 07/01 Q1004 NOSIG",
      "taf": "TAF LBSF 260500Z 2606/2706 12014KT 9999 SCT070"
    },
    {
      "icao": "LBWN",
      "alert": "OK",
      "vis_m": 9999,
      "fzfg": false,
      "metar_trigger": false,
      "taf_trigger": false,
      "metar": "METAR LBWN 260500Z AUTO 16001KT 9999 NCD 02/M01 Q1006 TEMPO 5000 BR",
      "taf": "TAF LBWN 260500Z 2606/2706 VRB03KT CAVOK"
    },
    {
      "icao": "LCLK",
      "alert": "OK",
      "vis_m": 9999,
      "fzfg": false,
      "metar_trigger": false,
      "taf_trigger": false,
      "metar": "METAR LCLK 260500Z 33006KT 9999 TS FEW025 FEW030CB SCT060 12/11 Q1000 NOSIG",
      "taf": "TAF LCLK 252330Z 2600/2700 33007KT 9999 FEW040"
    },
    {
      "icao": "LCPH",
      "alert": "OK",
      "vis_m": 9999,
      "fzfg": false,
      "metar_trigger": false,
      "taf_trigger": false,
      "metar": "METAR LCPH 260500Z 36002KT 9999 FEW030TCU BKN070 13/08 Q1000 NOSIG",
      "taf": "TAF LCPH 252330Z 2600/2700 03007KT 9999 FEW040"
    },
    {
      "icao": "LEAL",
      "alert": "OK",
      "vis_m": 9999,
      "fzfg": false,
      "metar_trigger": false,
      "taf_trigger": false,
      "metar": "METAR LEAL 260500Z 32003KT 290V010 CAVOK 10/10 Q1015 NOSIG",
      "taf": "TAF LEAL 252300Z 2600/2624 VRB04KT CAVOK TX16/2612Z TN08/2606Z"
    },
    {
      "icao": "LEBB",
      "alert": "OK",
      "vis_m": 9999,
      "fzfg": false,
      "metar_trigger": false,
      "taf_trigger": false,
      "metar": "METAR LEBB 260500Z 33004KT 300V010 9999 -RA SCT035 BKN045 09/06 Q1026 NOSIG",
      "taf": "TAF LEBB 252300Z 2600/2624 34009KT 9999 BKN030 TX12/2614Z TN08/2606Z"
    },
    {
      "icao": "LEBL",
      "alert": "OK",
      "vis_m": 9999,
      "fzfg": false,
      "metar_trigger": false,
      "taf_trigger": false,
      "metar": "METAR LEBL 260500Z 33009KT CAVOK 10/01 Q1014 NOSIG",
      "taf": "TAF LEBL 252300Z 2600/2624 32008KT 9999 FEW025 TX15/2612Z TN10/2606Z"
    },
    {
      "icao": "LECH",
      "alert": "OK",
      "vis_m": 9000,
      "fzfg": false,
      "metar_trigger": false,
      "taf_trigger": false,
      "metar": "METAR LECH 260500Z AUTO 36003KT 9000 NCD 09/M05 Q1015",
      "taf": "TAF LECH 252300Z 2600/2624 31009KT CAVOK TX18/2613Z TN05/2606Z"
    },
    {
      "icao": "LEMD",
      "alert": "OK",
      "vis_m": 9999,
      "fzfg": false,
      "metar_trigger": false,
      "taf_trigger": false,
      "metar": "METAR LEMD 260500Z 04006KT 320V110 CAVOK 05/M02 Q1018 NOSIG",
      "taf": "TAF LEMD 252300Z 2600/2706 05010KT CAVOK TX18/2616Z TN04/2607Z"
    },
    {
      "icao": "LEMG",
      "alert": "OK",
      "vis_m": 9999,
      "fzfg": false,
      "metar_trigger": false,
      "taf_trigger": false,
      "metar": "METAR LEMG 260500Z 30009KT CAVOK 08/05 Q1013 NOSIG",
      "taf": "TAF LEMG 252300Z 2600/2624 29007KT CAVOK TX20/2613Z TN08/2606Z"
    },
    {
      "icao": "LEVC",
      "alert": "OK",
      "vis_m": 9999,
      "fzfg": false,
      "metar_trigger": false,
      "taf_trigger": false,
      "metar": "METAR LEVC 260500Z 28007KT CAVOK 09/02 Q1015 NOSIG",
      "taf": "TAF LEVC 252300Z 2600/2624 VRB04KT CAVOK TX19/2613Z TN06/2606Z"
    },
    {
      "icao": "LEXJ",
      "alert": "OK",
      "vis_m": 9999,
      "fzfg": false,
      "metar_trigger": false,
      "taf_trigger": false,
      "metar": "METAR LEXJ 260500Z 02007KT 350V060 9999 SCT049 BKN055 OVC063 09/06 Q1027",
      "taf": "TAF LEXJ 260200Z 2603/2703 33009KT 9999 FEW020 BKN030 TX13/2613Z TN08/2703Z"
    },
    {
      "icao": "LEZG",
      "alert": "OK",
      "vis_m": 9999,
      "fzfg": false,
      "metar_trigger": false,
      "taf_trigger": false,
      "metar": "METAR LEZG 260500Z 30027G38KT 9999 FEW040 07/01 Q1019 NOSIG",
      "taf": ""
    },
    {
      "icao": "LEZL",
      "alert": "OK",
      "vis_m": 9999,
      "fzfg": false,
      "metar_trigger": false,
      "taf_trigger": false,
      "metar": "METAR LEZL 260500Z 03007KT CAVOK 11/09 Q1013 NOSIG",
      "taf": "TAF LEZL 260200Z 2603/2703 VRB03KT CAVOK TX25/2615Z TN11/2607Z"
    },
    {
      "icao": "LFBD",
      "alert": "OK",
      "vis_m": 9999,
      "fzfg": false,
      "metar_trigger": false,
      "taf_trigger": false,
      "metar": "METAR LFBD 260500Z AUTO 26006KT 9999 FEW041 BKN082 04/02 Q1024 NOSIG",
      "taf": "TAF LFBD 252300Z 2600/2706 30010KT 9999 SCT040 TX14/2614Z TN03/2706Z"
    },
    {
      "icao": "LFLL",
      "alert": "OK",
      "vis_m": 9999,
      "fzfg": false,
      "metar_trigger": false,
      "taf_trigger": false,
      "metar": "METAR LFLL 260500Z 33013KT 9999 BKN033 03/M00 Q1016 NOSIG",
      "taf": "TAF LFLL 252300Z 2600/2706 32008KT 9999 BKN045"
    },
    {
      "icao": "LFLS",
      "alert": "OK",
      "vis_m": 9999,
      "fzfg": false,
      "metar_trigger": false,
      "taf_trigger": false,
      "metar": "METAR LFLS 260500Z AUTO 33017KT 9999 OVC021 02/M01 Q1014 TEMPO 34020G30KT 1200 SHSN BKN011 SCT018CB",
      "taf": "TAF LFLS 260200Z 2603/2703 31008KT 9999 BKN030"
    },
    {
      "icao": "LFMN",
      "alert": "OK",
      "vis_m": 9999,
      "fzfg": false,
      "metar_trigger": false,
      "taf_trigger": false,
      "metar": "METAR LFMN 260500Z 02006KT 340V080 CAVOK 10/M09 Q0999 TEMPO 31020G35KT",
      "taf": "TAF LFMN 260200Z 2603/2709 30015G25KT CAVOK"
    },
    {
      "icao": "LFOB",
      "alert": "OK",
      "vis_m": 9999,
      "fzfg": false,
      "metar_trigger": false,
      "taf_trigger": false,
      "metar": "METAR LFOB 260500Z AUTO 31008KT CAVOK 03/01 Q1018 NOSIG",
      "taf": "TAF LFOB 252300Z 2600/2624 32013KT 9999 SCT030"
    },
    {
      "icao": "LFPO",
      "alert": "OK",
      "vis_m": 9999,
      "fzfg": false,
      "metar_trigger": false,
      "taf_trigger": false,
      "metar": "METAR LFPO 260500Z 29007KT CAVOK 04/01 Q1018 NOSIG",
      "taf": "TAF LFPO 252300Z 2600/2706 28010KT CAVOK"
    },
    {
      "icao": "LFSB",
      "alert": "OK",
      "vis_m": 9999,
      "fzfg": false,
      "metar_trigger": false,
      "taf_trigger": false,
      "metar": "METAR LFSB 260500Z AUTO 28008KT 9999 BKN026 BKN031 OVC068 03/01 Q1012 NOSIG",
      "taf": "TAF LFSB 252300Z 2600/2624 26011KT 9999 FEW020 BKN040"
    },
    {
      "icao": "LGAV",
      "alert": "OK",
      "vis_m": 9999,
      "fzfg": false,
      "metar_trigger": false,
      "taf_trigger": false,
      "metar": "METAR LGAV 260450Z 27002KT 9999 FEW030 08/02 Q1007 NOSIG",
      "taf": "TAF LGAV 260500Z 2606/2706 VRB05KT 9999 FEW020"
    },
    {
      "icao": "LGTS",
      "alert": "OK",
      "vis_m": 9999,
      "fzfg": false,
      "metar_trigger": false,
      "taf_trigger": false,
      "metar": "METAR LGTS 260450Z 11006KT 9999 FEW020 09/04 Q1006 NOSIG",
      "taf": "TAF LGTS 260500Z 2606/2706 12013KT 9999 FEW025"
    },
    {
      "icao": "LHBP",
      "alert": "OK",
      "vis_m": 9999,
      "fzfg": false,
      "metar_trigger": false,
      "taf_trigger": false,
      "metar": "METAR LHBP 260500Z 01004KT 340V080 9999 -RA NSC 08/04 Q0997 NOSIG",
      "taf": "TAF LHBP 252315Z 2600/2624 15008KT CAVOK"
    },
    {
      "icao": "LHDC",
      "alert": "OK",
      "vis_m": 9999,
      "fzfg": false,
      "metar_trigger": false,
      "taf_trigger": false,
      "metar": "METAR LHDC 260445Z AUTO 11005KT 080V150 CAVOK 06/M00 Q0999 NOSIG",
      "taf": ""
    },
    {
      "icao": "LIBD",
      "alert": "OK",
      "vis_m": 9999,
      "fzfg": false,
      "metar_trigger": false,
      "taf_trigger": false,
      "metar": "METAR LIBD 260450Z 18006KT CAVOK 10/04 Q1000",
      "taf": "TAF LIBD 252300Z 2600/2624 17011KT CAVOK"
    },
    {
      "icao": "LIBG",
      "alert": "OK",
      "vis_m": null,
      "fzfg": false,
      "metar_trigger": false,
      "taf_trigger": false,
      "metar": "",
      "taf": ""
    },
    {
      "icao": "LIBP",
      "alert": "OK",
      "vis_m": 9999,
      "fzfg": false,
      "metar_trigger": false,
      "taf_trigger": false,
      "metar": "METAR LIBP 260450Z AUTO 23022G33KT 9999 NCD 16/03 Q0991",
      "taf": "TAF LIBP 252300Z 2600/2624 24015KT CAVOK"
    },
    {
      "icao": "LIBR",
      "alert": "OK",
      "vis_m": 9999,
      "fzfg": false,
      "metar_trigger": false,
      "taf_trigger": false,
      "metar": "METAR LIBR 260450Z 21008KT CAVOK 11/05 Q1002",
      "taf": "TAF LIBR 252300Z 2600/2624 22003KT 9999 FEW040"
    },
    {
      "icao": "LICA",
      "alert": "OK",
      "vis_m": 9999,
      "fzfg": false,
      "metar_trigger": false,
      "taf_trigger": false,
      "metar": "METAR LICA 260450Z AUTO 24016KT 9999 BKN023/// 14/10 Q1005",
      "taf": "TAF LICA 252300Z 2600/2624 26015KT 9999 BKN020"
    },
    {
      "icao": "LICC",
      "alert": "OK",
      "vis_m": 9999,
      "fzfg": false,
      "metar_trigger": false,
      "taf_trigger": false,
      "metar": "METAR LICC 260450Z 28008KT CAVOK 10/07 Q1007",
      "taf": "TAF LICC 252300Z 2600/2624 25008KT 9999 FEW050"
    },
    {
      "icao": "LICJ",
      "alert": "OK",
      "vis_m": 9999,
      "fzfg": false,
      "metar_trigger": false,
      "taf_trigger": false,
      "metar": "METAR LICJ 260450Z 21013KT 9999 FEW030 14/09 Q1006",
      "taf": "TAF LICJ 252300Z 2600/2624 20012KT 9999 SCT020"
    },
    {
      "icao": "LIMC",
      "alert": "OK",
      "vis_m": 9999,
      "fzfg": false,
      "metar_trigger": false,
      "taf_trigger": false,
      "metar": "METAR LIMC 260450Z 31015KT CAVOK 08/M07 Q0998 NOSIG",
      "taf": "TAF LIMC 252300Z 2600/2706 35015KT CAVOK"
    },
    {
      "icao": "LIME",
      "alert": "OK",
      "vis_m": 9999,
      "fzfg": false,
      "metar_trigger": false,
      "taf_trigger": false,
      "metar": "METAR LIME 260450Z 11003KT 9999 SCT080 05/03 Q0997 NOSIG",
      "taf": "TAF LIME 252300Z 2600/2624 01008KT CAVOK"
    },
    {
      "icao": "LIMF",
      "alert": "OK",
      "vis_m": 9999,
      "fzfg": false,
      "metar_trigger": false,
      "taf_trigger": false,
      "metar": "METAR LIMF 260450Z 29018KT 260V320 CAVOK 09/M10 Q1000",
      "taf": "TAF LIMF 252300Z 2600/2624 30013KT CAVOK"
    },
    {
      "icao": "LIMJ",
      "alert": "OK",
      "vis_m": 9999,
      "fzfg": false,
      "metar_trigger": false,
      "taf_trigger": false,
      "metar": "METAR LIMJ 260450Z 33018G29KT 310V010 CAVOK 11/M10 Q0997",
      "taf": "TAF LIMJ 252300Z 2600/2624 35025G45KT 9999 FEW060"
    },
    {
      "icao": "LIPE",
      "alert": "OK",
      "vis_m": 9999,
      "fzfg": false,
      "metar_trigger": false,
      "taf_trigger": false,
      "metar": "METAR LIPE 260450Z 26015KT 9999 -RA SCT008 BKN018 04/03 Q0996",
      "taf": "TAF LIPE 252300Z 2600/2624 30013KT 9999 SCT040"
    },
    {
      "icao": "LIPH",
      "alert": "OK",
      "vis_m": null,
      "fzfg": false,
      "metar_trigger": false,
      "taf_trigger": false,
      "metar": "",
      "taf": ""
    },
    {
      "icao": "LIPQ",
      "alert": "OK",
      "vis_m": 9999,
      "fzfg": false,
      "metar_trigger": false,
      "taf_trigger": false,
      "metar": "METAR LIPQ 260450Z AUTO 05010KT 010V070 9999 -RA OVC034/// 08/03 Q0996 RERA",
      "taf": "TAF LIPQ 252300Z 2600/2624 VRB06KT 9999 BKN030"
    },
    {
      "icao": "LIPR",
      "alert": "OK",
      "vis_m": 9999,
      "fzfg": false,
      "metar_trigger": false,
      "taf_trigger": false,
      "metar": "METAR LIPR 260450Z AUTO 28016KT 9999 -RA BKN020/// 05/02 Q0994",
      "taf": "TAF LIPR 252300Z 2600/2624 18014KT 9999 SCT050"
    },
    {
      "icao": "LIPX",
      "alert": "OK",
      "vis_m": 9999,
      "fzfg": false,
      "metar_trigger": false,
      "taf_trigger": false,
      "metar": "METAR LIPX 260450Z 17003KT 140V200 9999 BKN070 07/03 Q0996",
      "taf": ""
    },
    {
      "icao": "LIPY",
      "alert": "OK",
      "vis_m": 9999,
      "fzfg": false,
      "metar_trigger": false,
      "taf_trigger": false,
      "metar": "METAR LIPY 260450Z AUTO 33004KT 280V010 9999 RA SCT021/// BKN041/// OVC063/// 09/07 Q0993",
      "taf": "TAF LIPY 252300Z 2600/2624 VRB05KT 9999 BKN040"
    },
    {
      "icao": "LIPZ",
      "alert": "OK",
      "vis_m": 9999,
      "fzfg": false,
      "metar_trigger": false,
      "taf_trigger": false,
      "metar": "METAR LIPZ 260450Z 04023KT 9999 SHRA BKN015 06/04 Q0995 NOSIG",
      "taf": "TAF LIPZ 252300Z 2600/2706 03012KT 9999 SCT030"
    },
    {
      "icao": "LIRF",
      "alert": "OK",
      "vis_m": 9999,
      "fzfg": false,
      "metar_trigger": false,
      "taf_trigger": false,
      "metar": "METAR LIRF 260450Z 27018KT 9999 FEW050 13/M02 Q0997 NOSIG",
      "taf": "TAF LIRF 252300Z 2600/2706 22016G26KT 9999 SCT020"
    },
    {
      "icao": "LIRN",
      "alert": "OK",
      "vis_m": 9999,
      "fzfg": false,
      "metar_trigger": false,
      "taf_trigger": false,
      "metar": "METAR LIRN 260450Z 25017KT 9999 BKN065 13/06 Q1001 NOSIG",
      "taf": "TAF LIRN 252300Z 2600/2624 22012KT 9999 SCT020"
    },
    {
      "icao": "LIRP",
      "alert": "OK",
      "vis_m": 9999,
      "fzfg": false,
      "metar_trigger": false,
      "taf_trigger": false,
      "metar": "METAR LIRP 260445Z 12003KT 9999 BKN080 06/06 Q0995 NOSIG",
      "taf": ""
    },
    {
      "icao": "LIRZ",
      "alert": "OK",
      "vis_m": 9999,
      "fzfg": false,
      "metar_trigger": false,
      "taf_trigger": false,
      "metar": "METAR LIRZ 260450Z AUTO 24007KT 9999 -RA BKN026/// 07/05 Q0994",
      "taf": ""
    },
    {
      "icao": "LJLJ",
      "alert": "OK",
      "vis_m": 9999,
      "fzfg": false,
      "metar_trigger": false,
      "taf_trigger": false,
      "metar": "METAR LJLJ 260500Z 20004KT 180V270 9999 -RA FEW005 BKN033 OVC045 04/02 Q0998 NOSIG",
      "taf": "TAF LJLJ 260500Z 2606/2706 18005KT 9999 -RA FEW005 BKN035 OVC055"
    },
    {
      "icao": "LKMT",
      "alert": "OK",
      "vis_m": 7000,
      "fzfg": false,
      "metar_trigger": false,
      "taf_trigger": false,
      "metar": "METAR LKMT 260500Z 03009G19KT 340V070 7000 RA BKN008 OVC018 04/03 Q1002 NOSIG",
      "taf": "TAF LKMT 252300Z 2600/2624 03007KT 7000 -RA BKN030"
    },
    {
      "icao": "LKPR",
      "alert": "OK",
      "vis_m": 9999,
      "fzfg": false,
      "metar_trigger": false,
      "taf_trigger": false,
      "metar": "METAR LKPR 260500Z 30006KT 9999 SCT035 02/M00 Q1005 NOSIG",
      "taf": "TAF LKPR 260200Z 2603/2709 30012KT 9999 BKN025"
    },
    {
      "icao": "LLBG",
      "alert": "OK",
      "vis_m": 9999,
      "fzfg": false,
      "metar_trigger": false,
      "taf_trigger": false,
      "metar": "METAR LLBG 260450Z 15008KT 9999 -RA SCT012 SCT040 12/10 Q0999 TEMPO 7000 SHRA FEW025TCU",
      "taf": "TAF LLBG 260502Z 2606/2706 19010KT 9999 SCT030 TX17/2613Z TN12/2704Z"
    },
    {
      "icao": "LMML",
      "alert": "OK",
      "vis_m": 9999,
      "fzfg": false,
      "metar_trigger": false,
      "taf_trigger": false,
      "metar": "METAR LMML 260515Z 23010KT 9999 SCT017 13/10 Q1009 NOSIG",
      "taf": "TAF LMML 260500Z 2606/2706 26014KT 9999 SCT020"
    },
    {
      "icao": "LOWW",
      "alert": "OK",
      "vis_m": 9999,
      "fzfg": false,
      "metar_trigger": false,
      "taf_trigger": false,
      "metar": "METAR LOWW 260450Z 33015KT 9999 -RA FEW015 SCT022 BKN026 05/04 Q1001 NOSIG",
      "taf": "TAF LOWW 260515Z 2606/2712 34015G25KT 9000 -RA FEW014 BKN020 TX04/2606Z TN02/2709Z"
    },
    {
      "icao": "LPFR",
      "alert": "OK",
      "vis_m": 9999,
      "fzfg": false,
      "metar_trigger": false,
      "taf_trigger": false,
      "metar": "METAR LPFR 260500Z 02008KT CAVOK 16/09 Q1012",
      "taf": "TAF LPFR 260500Z 2606/2706 02008KT CAVOK"
    },
    {
      "icao": "LPMA",
      "alert": "OK",
      "vis_m": 9999,
      "fzfg": false,
      "metar_trigger": false,
      "taf_trigger": false,
      "metar": "METAR LPMA 260500Z 01014KT 340V040 9999 -DZ BKN015 16/12 Q1018",
      "taf": "TAF LPMA 260500Z 2606/2706 01015KT 9999 FEW015"
    },
    {
      "icao": "LPPR",
      "alert": "OK",
      "vis_m": 9999,
      "fzfg": false,
      "metar_trigger": false,
      "taf_trigger": false,
      "metar": "METAR LPPR 260500Z 02003KT 350V050 CAVOK 11/04 Q1019",
      "taf": "TAF LPPR 260500Z 2606/2706 03008KT CAVOK"
    },
    {
      "icao": "LPPS",
      "alert": "OK",
      "vis_m": 9999,
      "fzfg": false,
      "metar_trigger": false,
      "taf_trigger": false,
      "metar": "METAR LPPS 260500Z 02017KT 9999 BKN012 15/12 Q1018",
      "taf": "TAF LPPS 260500Z 2606/2712 03015KT 9999 SCT015"
    },
    {
      "icao": "LPPT",
      "alert": "OK",
      "vis_m": 9999,
      "fzfg": false,
      "metar_trigger": false,
      "taf_trigger": false,
      "metar": "METAR LPPT 260500Z 01004KT 330V050 CAVOK 12/09 Q1015",
      "taf": "TAF LPPT 260500Z 2606/2712 04010KT CAVOK"
    },
    {
      "icao": "LQBK",
      "alert": "OK",
      "vis_m": 9999,
      "fzfg": false,
      "metar_trigger": false,
      "taf_trigger": false,
      "metar": "METAR LQBK 260500Z 32005KT 280V350 CAVOK 07/03 Q0997 NOSIG",
      "taf": "TAF LQBK 260500Z 2606/2706 31007KT 9999 SCT040 TX12/2612Z TN00/2704Z"
    },
    {
      "icao": "LQSA",
      "alert": "OK",
      "vis_m": 9999,
      "fzfg": false,
      "metar_trigger": false,
      "taf_trigger": false,
      "metar": "METAR LQSA 260500Z 13003KT 060V160 9999 BKN050 07/01 Q0998 NOSIG",
      "taf": "TAF LQSA 260500Z 2606/2706 13012KT 9999 SCT050 TX12/2611Z TN01/2705Z"
    },
    {
      "icao": "LQTZ",
      "alert": "OK",
      "vis_m": 9999,
      "fzfg": false,
      "metar_trigger": false,
      "taf_trigger": false,
      "metar": "METAR LQTZ 260500Z 15006KT 100V220 CAVOK 12/M01 Q0997",
      "taf": "TAF LQTZ 260500Z 2606/2706 10005KT 9999 SCT045 TX16/2612Z TN00/2705Z"
    },
    {
      "icao": "LRBC",
      "alert": "OK",
      "vis_m": 9999,
      "fzfg": false,
      "metar_trigger": false,
      "taf_trigger": false,
      "metar": "METAR LRBC 260500Z 17011KT CAVOK 06/02 Q1004",
      "taf": "TAF LRBC 260200Z 2603/2612 17010KT CAVOK"
    },
    {
      "icao": "LRBS",
      "alert": "OK",
      "vis_m": 9999,
      "fzfg": false,
      "metar_trigger": false,
      "taf_trigger": false,
      "metar": "METAR LRBS 260500Z 07004KT CAVOK 04/02 Q1005 NOSIG",
      "taf": "TAF LRBS 252300Z 2600/2624 VRB04KT CAVOK"
    },
    {
      "icao": "LRBV",
      "alert": "OK",
      "vis_m": 9999,
      "fzfg": false,
      "metar_trigger": false,
      "taf_trigger": false,
      "metar": "METAR LRBV 260500Z 09005KT 060V130 CAVOK 06/01 Q1003",
      "taf": "TAF LRBV 260200Z 2603/2612 VRB04KT 9999 BKN060"
    },
    {
      "icao": "LRCL",
      "alert": "OK",
      "vis_m": 9999,
      "fzfg": false,
      "metar_trigger": false,
      "taf_trigger": false,
      "metar": "METAR LRCL 260500Z 00000KT CAVOK 02/M02 Q1001",
      "taf": "TAF LRCL 260200Z 2603/2612 VRB04KT CAVOK"
    },
    {
      "icao": "LRCV",
      "alert": "OK",
      "vis_m": 9999,
      "fzfg": false,
      "metar_trigger": false,
      "taf_trigger": false,
      "metar": "METAR LRCV 260500Z 07008KT CAVOK 07/04 Q1002",
      "taf": "TAF LRCV 260200Z 2603/2612 08012KT CAVOK"
    },
    {
      "icao": "LRIA",
      "alert": "OK",
      "vis_m": 9999,
      "fzfg": false,
      "metar_trigger": false,
      "taf_trigger": false,
      "metar": "METAR LRIA 260500Z 11013KT CAVOK 06/M00 Q1004",
      "taf": "TAF LRIA 260200Z 2603/2612 10008KT CAVOK"
    },
    {
      "icao": "LROP",
      "alert": "OK",
      "vis_m": 9000,
      "fzfg": false,
      "metar_trigger": false,
      "taf_trigger": false,
      "metar": "METAR LROP 260500Z 07005KT 9000 NSC 04/M00 Q1005 NOSIG",
      "taf": "TAF LROP 252300Z 2600/2624 VRB04KT CAVOK"
    },
    {
      "icao": "LRSB",
      "alert": "OK",
      "vis_m": 9999,
      "fzfg": false,
      "metar_trigger": false,
      "taf_trigger": false,
      "metar": "METAR LRSB 260500Z 12006KT 100V190 9999 FEW080 11/01 Q1001",
      "taf": "TAF LRSB 252300Z 2600/2624 VRB04KT 9999 BKN060"
    },
    {
      "icao": "LRSM",
      "alert": "OK",
      "vis_m": 9999,
      "fzfg": false,
      "metar_trigger": false,
      "taf_trigger": false,
      "metar": "METAR LRSM 260500Z 08005KT CAVOK 07/M01 Q1000",
      "taf": "TAF LRSM 260200Z 2603/2612 13010KT CAVOK"
    },
    {
      "icao": "LRSV",
      "alert": "OK",
      "vis_m": 9999,
      "fzfg": false,
      "metar_trigger": false,
      "taf_trigger": false,
      "metar": "METAR LRSV 260500Z 22010KT CAVOK 06/M02 Q1002",
      "taf": "TAF LRSV 260200Z 2603/2612 VRB04KT CAVOK"
    },
    {
      "icao": "LRTM",
      "alert": "OK",
      "vis_m": 9999,
      "fzfg": false,
      "metar_trigger": false,
      "taf_trigger": false,
      "metar": "METAR LRTM 260500Z 08005KT 9999 SCT044 06/01 Q1002",
      "taf": "TAF LRTM 260200Z 2603/2612 VRB04KT CAVOK"
    },
    {
      "icao": "LRTR",
      "alert": "OK",
      "vis_m": 9999,
      "fzfg": false,
      "metar_trigger": false,
      "taf_trigger": false,
      "metar": "METAR LRTR 260500Z 18006KT 140V210 CAVOK 09/M01 Q0999",
      "taf": "TAF LRTR 252300Z 2600/2624 09006KT CAVOK"
    },
    {
      "icao": "LTAC",
      "alert": "OK",
      "vis_m": 9999,
      "fzfg": false,
      "metar_trigger": false,
      "taf_trigger": false,
      "metar": "METAR LTAC 260450Z 06006KT 9999 SCT030 BKN100 05/02 Q1004 NOSIG RMK RWY21C 06006KT RWY03L 06006KT RWY21R 05006KT 340V090 RWY03R 04008KT RWY21L 05006KT",
      "taf": "TAF LTAC 260440Z 2606/2706 VRB02KT 9999 SCT035 BKN100"
    },
    {
      "icao": "LTFM",
      "alert": "OK",
      "vis_m": 8000,
      "fzfg": false,
      "metar_trigger": false,
      "taf_trigger": false,
      "metar": "METAR LTFM 260450Z 34006KT 8000 FEW012 BKN018 07/06 Q1007 NOSIG RMK RWY17L 04005KT 010V070 RWY34L 34005KT RWY16R VRB02KT RWY36 35005KT RWY18 33006KT",
      "taf": "TAF LTFM 260440Z 2606/2712 35005KT 9999 SCT012 BKN025"
    },
    {
      "icao": "LUKK",
      "alert": "OK",
      "vis_m": 9999,
      "fzfg": false,
      "metar_trigger": false,
      "taf_trigger": false,
      "metar": "METAR LUKK 260500Z 09003KT CAVOK 01/M01 Q1006 NOSIG",
      "taf": "TAF LUKK 260516Z 2606/2706 14009KT CAVOK"
    },
    {
      "icao": "LWOH",
      "alert": "OK",
      "vis_m": null,
      "fzfg": false,
      "metar_trigger": false,
      "taf_trigger": false,
      "metar": "",
      "taf": "TAF LWOH 260210Z 2603/2703 VRB02KT CAVOK"
    },
    {
      "icao": "LWSK",
      "alert": "OK",
      "vis_m": null,
      "fzfg": false,
      "metar_trigger": false,
      "taf_trigger": false,
      "metar": "",
      "taf": "TAF LWSK 260210Z 2603/2703 VRB02KT CAVOK"
    },
    {
      "icao": "LYBE",
      "alert": "OK",
      "vis_m": 9999,
      "fzfg": false,
      "metar_trigger": false,
      "taf_trigger": false,
      "metar": "METAR LYBE 260500Z 16007KT CAVOK 09/M01 Q0999 NOSIG",
      "taf": "TAF LYBE 252300Z 2600/2624 20006KT CAVOK TX18/2613Z TN07/2605Z"
    },
    {
      "icao": "LYNI",
      "alert": "OK",
      "vis_m": 9999,
      "fzfg": false,
      "metar_trigger": false,
      "taf_trigger": false,
      "metar": "METAR LYNI 260500Z 30002KT CAVOK 07/00 Q1003 NOSIG",
      "taf": "TAF LYNI 252300Z 2600/2624 10004KT CAVOK TX18/2613Z TN04/2605Z"
    },
    {
      "icao": "LYPG",
      "alert": "OK",
      "vis_m": 9999,
      "fzfg": false,
      "metar_trigger": false,
      "taf_trigger": false,
      "metar": "METAR LYPG 260500Z 13010KT 9999 FEW036 BKN050 BKN080 11/06 Q1002 NOSIG",
      "taf": "TAF LYPG 252300Z 2600/2624 14005KT 9999 SCT040 SCT080 TX16/2612Z TN08/2603Z"
    },
    {
      "icao": "LZIB",
      "alert": "OK",
      "vis_m": 9999,
      "fzfg": false,
      "metar_trigger": false,
      "taf_trigger": false,
      "metar": "METAR LZIB 260500Z 33011KT 9999 -RA FEW012 SCT048 06/04 Q0999 NOSIG",
      "taf": "TAF LZIB 260515Z 2606/2706 36015KT 9999 -RA FEW014 SCT020"
    },
    {
      "icao": "LZKZ",
      "alert": "OK",
      "vis_m": 9999,
      "fzfg": false,
      "metar_trigger": false,
      "taf_trigger": false,
      "metar": "METAR LZKZ 260500Z 35005KT CAVOK 09/01 Q1000 NOSIG",
      "taf": "TAF LZKZ 260515Z 2606/2706 02008KT CAVOK"
    },
    {
      "icao": "LZTT",
      "alert": "OK",
      "vis_m": 9999,
      "fzfg": false,
      "metar_trigger": false,
      "taf_trigger": false,
      "metar": "METAR LZTT 260500Z 03004KT 9999 -RA SCT004 OVC040 05/03 Q0999",
      "taf": "TAF LZTT 260515Z 2606/2706 36006KT 9999 -RA SCT011 BKN030"
    },
    {
      "icao": "OEJN",
      "alert": "OK",
      "vis_m": 7000,
      "fzfg": false,
      "metar_trigger": false,
      "taf_trigger": false,
      "metar": "METAR OEJN 260500Z 33022G32KT 7000 BKN040 26/14 Q1004 RERA NOSIG",
      "taf": "TAF OEJN 260500Z 2606/2712 32020KT 7000 SCT040"
    },
    {
      "icao": "OEMA",
      "alert": "OK",
      "vis_m": 9999,
      "fzfg": false,
      "metar_trigger": false,
      "taf_trigger": false,
      "metar": "METAR OEMA 260500Z 03002KT 9999 SCT015 BKN035 15/14 Q1006 RERA NOSIG",
      "taf": "TAF OEMA 260500Z 2606/2712 25020KT 7000 SCT040"
    },
    {
      "icao": "OJAI",
      "alert": "OK",
      "vis_m": 4000,
      "fzfg": false,
      "metar_trigger": false,
      "taf_trigger": false,
      "metar": "METAR OJAI 260500Z 22008KT 4000 BR NSC 07/05 Q0999 NOSIG",
      "taf": "TAF OJAI 260500Z 2606/2712 26014KT 4000 RA BR SCT025TCU SCT030"
    },
    {
      "icao": "OMAA",
      "alert": "OK",
      "vis_m": null,
      "fzfg": false,
      "metar_trigger": false,
      "taf_trigger": false,
      "metar": "",
      "taf": ""
    },
    {
      "icao": "OMDB",
      "alert": "OK",
      "vis_m": null,
      "fzfg": false,
      "metar_trigger": false,
      "taf_trigger": false,
      "metar": "",
      "taf": ""
    },
    {
      "icao": "UAAA",
      "alert": "OK",
      "vis_m": 8000,
      "fzfg": false,
      "metar_trigger": false,
      "taf_trigger": false,
      "metar": "METAR UAAA 260500Z 35002MPS 8000 NSC 14/00 Q1014 NOSIG",
      "taf": "TAF UAAA 252304Z 2600/2624 25002G07MPS 9999 FEW100 TX20/2610Z TN01/2601Z"
    },
    {
      "icao": "UBBB",
      "alert": "OK",
      "vis_m": 8000,
      "fzfg": false,
      "metar_trigger": false,
      "taf_trigger": false,
      "metar": "METAR UBBB 260500Z VRB02KT 8000 BKN005 11/10 Q1004 NOSIG",
      "taf": "TAF UBBB 260503Z 2606/2706 19008KT 9999 SCT010 TX17/2610Z TN08/2700Z"
    },
    {
      "icao": "UDSG",
      "alert": "OK",
      "vis_m": 9999,
      "fzfg": false,
      "metar_trigger": false,
      "taf_trigger": false,
      "metar": "METAR UDSG 260500Z 23002KT 9999 -SHRA BKN023CB 04/04 Q1006 NOSIG",
      "taf": "TAF UDSG 252300Z 2600/2624 22006KT 9999 SCT040"
    },
    {
      "icao": "UDYZ",
      "alert": "OK",
      "vis_m": 8000,
      "fzfg": false,
      "metar_trigger": false,
      "taf_trigger": false,
      "metar": "METAR UDYZ 260500Z 34001KT 8000 BKN043CB 10/09 Q1004 NOSIG",
      "taf": "TAF UDYZ 252300Z 2600/2624 28006KT 6000 SCT040"
    },
    {
      "icao": "UGKO",
      "alert": "OK",
      "vis_m": 4000,
      "fzfg": false,
      "metar_trigger": false,
      "taf_trigger": false,
      "metar": "METAR UGKO 260500Z VRB04KT 4000 BR BKN008 OVC021 09/09 Q1006 NOSIG",
      "taf": "TAF UGKO 260500Z 2606/2706 25007KT 8000 -RA BKN015 OVC030 TX12/2612Z TN08/2703Z"
    }
  ]
}