{
  "ts_utc": "2026-01-23T04:09:30Z",
  "threshold_m": 150,
  "source": "stations_override.txt (ICAO list) + aviationweather.gov (METAR/TAF raw)",
  "station_count": 159,
  "stations": [
    {
      "icao": "BIKF",
      "alert": "OK",
      "vis_m": 9999,
      "fzfg": false,
      "metar_trigger": false,
      "taf_trigger": false,
      "metar": "METAR BIKF 230400Z 09020KT 9999 -RA OVC020 07/05 Q0996",
      "taf": "TAF BIKF 230151Z 2303/2403 13012G22KT 9999 BKN017 TX06/2303Z TN01/2324Z"
    },
    {
      "icao": "BKPR",
      "alert": "OK",
      "vis_m": 200,
      "fzfg": true,
      "metar_trigger": false,
      "taf_trigger": false,
      "metar": "METAR BKPR 230400Z 00000KT 0200 R17/0600N R35/0450N FZFG BKN003 M01/M01 Q1003 NOSIG",
      "taf": ""
    },
    {
      "icao": "EBCI",
      "alert": "OK",
      "vis_m": 9999,
      "fzfg": false,
      "metar_trigger": false,
      "taf_trigger": false,
      "metar": "METAR EBCI 230350Z 15005KT 9999 BKN013 07/05 Q0992 TEMPO BKN007",
      "taf": "TAF EBCI 222302Z 2300/2406 16007KT 9999 BKN030"
    },
    {
      "icao": "EDDB",
      "alert": "OK",
      "vis_m": 3900,
      "fzfg": false,
      "metar_trigger": false,
      "taf_trigger": false,
      "metar": "METAR EDDB 230350Z AUTO 08006KT 3900 BR NSC M08/M09 Q1004 NOSIG",
      "taf": "TAF EDDB 222300Z 2300/2324 08008KT 5000 BR NSC"
    },
    {
      "icao": "EDDH",
      "alert": "OK",
      "vis_m": 7000,
      "fzfg": false,
      "metar_trigger": false,
      "taf_trigger": false,
      "metar": "METAR EDDH 230350Z AUTO 10006KT 7000 NSC M05/M07 Q1002 NOSIG",
      "taf": "TAF EDDH 222300Z 2300/2406 09011KT CAVOK"
    },
    {
      "icao": "EDDK",
      "alert": "OK",
      "vis_m": 9999,
      "fzfg": false,
      "metar_trigger": false,
      "taf_trigger": false,
      "metar": "METAR EDDK 230350Z AUTO 14010KT 9999 OVC048 03/M02 Q0996 NOSIG",
      "taf": "TAF EDDK 222300Z 2300/2406 12009KT 9999 BKN030"
    },
    {
      "icao": "EDDN",
      "alert": "OK",
      "vis_m": 7000,
      "fzfg": false,
      "metar_trigger": false,
      "taf_trigger": false,
      "metar": "METAR EDDN 230350Z AUTO 13008KT 7000 BKN010 M07/M10 Q1000",
      "taf": "TAF EDDN 222300Z 2300/2324 11007KT 7000 OVC009"
    },
    {
      "icao": "EDDS",
      "alert": "OK",
      "vis_m": 6000,
      "fzfg": false,
      "metar_trigger": false,
      "taf_trigger": false,
      "metar": "METAR EDDS 230350Z AUTO 10003KT 070V130 6000 NSC M02/M04 Q0996",
      "taf": "TAF EDDS 222300Z 2300/2324 07004KT CAVOK"
    },
    {
      "icao": "EDFH",
      "alert": "OK",
      "vis_m": 6000,
      "fzfg": false,
      "metar_trigger": false,
      "taf_trigger": false,
      "metar": "METAR EDFH 230350Z 14015KT 6000 FEW005 BKN036 M02/M03 Q0995",
      "taf": "TAF EDFH 222300Z 2300/2324 14015KT 6000 BKN015"
    },
    {
      "icao": "EDJA",
      "alert": "OK",
      "vis_m": 9000,
      "fzfg": false,
      "metar_trigger": false,
      "taf_trigger": false,
      "metar": "METAR EDJA 230350Z AUTO 03003KT 9000 // BKN150/// OVC180/// M06/M07 Q0997",
      "taf": ""
    },
    {
      "icao": "EDLW",
      "alert": "OK",
      "vis_m": 9999,
      "fzfg": false,
      "metar_trigger": false,
      "taf_trigger": false,
      "metar": "METAR EDLW 230350Z AUTO 12009KT 9999 // OVC051/// 05/01 Q0995",
      "taf": "TAF EDLW 221700Z 2218/2318 11006KT 9999 SCT040"
    },
    {
      "icao": "EDNY",
      "alert": "OK",
      "vis_m": 5000,
      "fzfg": false,
      "metar_trigger": false,
      "taf_trigger": false,
      "metar": "METAR EDNY 230350Z AUTO 05004KT 020V090 5000 // OVC002/// M02/M03 Q0998",
      "taf": "TAF EDNY 230200Z 2303/2312 04003KT 2000 BR BKN002"
    },
    {
      "icao": "EDSB",
      "alert": "OK",
      "vis_m": 4500,
      "fzfg": false,
      "metar_trigger": false,
      "taf_trigger": false,
      "metar": "METAR EDSB 230350Z 33003KT 290V010 4500 BR NSC M00/M01 Q0997",
      "taf": "TAF EDSB 222300Z 2300/2324 02004KT 3000 BR OVC005"
    },
    {
      "icao": "EETN",
      "alert": "OK",
      "vis_m": 9999,
      "fzfg": false,
      "metar_trigger": false,
      "taf_trigger": false,
      "metar": "METAR EETN 230350Z 11007KT 9999 OVC008 M08/M10 Q1024 NOSIG",
      "taf": "TAF EETN 222330Z 2300/2324 10010KT 9999 OVC012"
    },
    {
      "icao": "EFTU",
      "alert": "OK",
      "vis_m": 9999,
      "fzfg": false,
      "metar_trigger": false,
      "taf_trigger": false,
      "metar": "METAR EFTU 230350Z AUTO 09006KT 9999 -SHSN OVC018 M08/M10 Q1024",
      "taf": "TAF EFTU 230236Z 2303/2403 08007KT 9999 BKN020"
    },
    {
      "icao": "EGBB",
      "alert": "OK",
      "vis_m": 9999,
      "fzfg": false,
      "metar_trigger": false,
      "taf_trigger": false,
      "metar": "METAR EGBB 230350Z 13009KT 9999 BKN006 05/04 Q0984",
      "taf": "TAF EGBB 222304Z 2300/2324 13008KT 9999 BKN006"
    },
    {
      "icao": "EGGP",
      "alert": "OK",
      "vis_m": 9999,
      "fzfg": false,
      "metar_trigger": false,
      "taf_trigger": false,
      "metar": "METAR EGGP 230350Z AUTO 14013KT 9999 OVC026/// 06/05 Q0983",
      "taf": "TAF EGGP 222302Z 2300/2324 11012KT 9999 SCT022"
    },
    {
      "icao": "EGGW",
      "alert": "OK",
      "vis_m": 9999,
      "fzfg": false,
      "metar_trigger": false,
      "taf_trigger": false,
      "metar": "METAR EGGW 230350Z AUTO 13008KT 9999 FEW004 SCT020 BKN026 05/05 Q0986",
      "taf": "TAF EGGW 222304Z 2300/2324 18010KT 9999 SCT012"
    },
    {
      "icao": "EGKK",
      "alert": "OK",
      "vis_m": 9999,
      "fzfg": false,
      "metar_trigger": false,
      "taf_trigger": false,
      "metar": "METAR EGKK 230350Z 11007KT 9999 FEW011 SCT044 07/06 Q0986",
      "taf": ""
    },
    {
      "icao": "EGNM",
      "alert": "OK",
      "vis_m": null,
      "fzfg": false,
      "metar_trigger": false,
      "taf_trigger": false,
      "metar": "",
      "taf": "TAF EGNM 222301Z 2300/2324 10012KT 1500 BR OVC002"
    },
    {
      "icao": "EGPD",
      "alert": "OK",
      "vis_m": 9000,
      "fzfg": false,
      "metar_trigger": false,
      "taf_trigger": false,
      "metar": "METAR EGPD 230350Z AUTO 11020KT 9000 -RA BKN019/// OVC023/// //////TCU 05/01 Q0995 TEMPO BKN012",
      "taf": "TAF EGPD 222255Z 2300/2324 12018G34KT 9999 BKN016"
    },
    {
      "icao": "EGPF",
      "alert": "OK",
      "vis_m": 9999,
      "fzfg": false,
      "metar_trigger": false,
      "taf_trigger": false,
      "metar": "METAR EGPF 230350Z AUTO 07014G24KT 9999 -RA OVC015/// //////TCU 05/03 Q0987",
      "taf": "TAF EGPF 222254Z 2300/2324 08011KT 9999 FEW012 BKN025"
    },
    {
      "icao": "EHBK",
      "alert": "OK",
      "vis_m": 9999,
      "fzfg": false,
      "metar_trigger": false,
      "taf_trigger": false,
      "metar": "METAR EHBK 230355Z AUTO 14007KT 9999 NCD 06/04 Q0994",
      "taf": "TAF EHBK 222323Z 2300/2406 16006KT 9999 BKN045"
    },
    {
      "icao": "EHEH",
      "alert": "OK",
      "vis_m": 8000,
      "fzfg": false,
      "metar_trigger": false,
      "taf_trigger": false,
      "metar": "METAR EHEH 230355Z AUTO 12005KT 8000 BR SCT051 05/03 Q0993 BLU NOSIG RMK TREND REMOTE BY EHWX",
      "taf": "TAF EHEH 222349Z 2300/2406 13005KT 9999 BKN040"
    },
    {
      "icao": "EKBI",
      "alert": "OK",
      "vis_m": 9999,
      "fzfg": false,
      "metar_trigger": false,
      "taf_trigger": false,
      "metar": "METAR EKBI 230350Z AUTO 09019G29KT 9999 OVC020/// 00/M04 Q1005",
      "taf": "TAF EKBI 230227Z 2303/2403 09018G32KT 9999 OVC018"
    },
    {
      "icao": "EKCH",
      "alert": "OK",
      "vis_m": 9999,
      "fzfg": false,
      "metar_trigger": false,
      "taf_trigger": false,
      "metar": "METAR EKCH 230350Z AUTO 09018KT 9999 OVC019/// 00/M04 Q1009 NOSIG",
      "taf": "TAF EKCH 230227Z 2303/2403 09020G30KT 9999 BKN020"
    },
    {
      "icao": "ENAL",
      "alert": "OK",
      "vis_m": 9999,
      "fzfg": false,
      "metar_trigger": false,
      "taf_trigger": false,
      "metar": "METAR ENAL 230350Z AUTO 13015KT 9999 NCD 02/M12 Q1010",
      "taf": "TAF ENAL 230200Z 2303/2312 12009KT CAVOK"
    },
    {
      "icao": "ENBR",
      "alert": "OK",
      "vis_m": 9999,
      "fzfg": false,
      "metar_trigger": false,
      "taf_trigger": false,
      "metar": "METAR ENBR 230350Z AUTO 00000KT 9999 NCD M03/M13 Q1010 RMK WIND 1200FT 10008KT",
      "taf": "TAF ENBR 222300Z 2300/2324 07005KT CAVOK"
    },
    {
      "icao": "ENGM",
      "alert": "OK",
      "vis_m": 9999,
      "fzfg": false,
      "metar_trigger": false,
      "taf_trigger": false,
      "metar": "METAR ENGM 230350Z 01008KT 9999 -SN OVC027 M06/M08 Q1019",
      "taf": "TAF ENGM 222300Z 2300/2324 04010KT 9999 -SN BKN025"
    },
    {
      "icao": "ENHD",
      "alert": "OK",
      "vis_m": 9999,
      "fzfg": false,
      "metar_trigger": false,
      "taf_trigger": false,
      "metar": "METAR ENHD 230350Z AUTO 07009KT 9999 NCD M02/M11 Q1010",
      "taf": "TAF ENHD 230200Z 2303/2312 08012KT CAVOK"
    },
    {
      "icao": "ENTC",
      "alert": "OK",
      "vis_m": 9999,
      "fzfg": false,
      "metar_trigger": false,
      "taf_trigger": false,
      "metar": "METAR ENTC 230350Z AUTO 12002KT 9999 NCD M10/M11 Q1022 RMK WIND 2600FT 19007KT",
      "taf": "TAF ENTC 222300Z 2300/2324 VRB02KT 9999 FEW003"
    },
    {
      "icao": "ENTO",
      "alert": "OK",
      "vis_m": 9999,
      "fzfg": false,
      "metar_trigger": false,
      "taf_trigger": false,
      "metar": "METAR ENTO 230350Z AUTO 04011G21KT 010V070 9999 -SN BKN021/// OVC026/// M03/M07 Q1017",
      "taf": "TAF ENTO 222300Z 2300/2324 04012KT 9999 -SN BKN020"
    },
    {
      "icao": "ENVA",
      "alert": "OK",
      "vis_m": 9999,
      "fzfg": false,
      "metar_trigger": false,
      "taf_trigger": false,
      "metar": "METAR ENVA 230350Z AUTO 10010KT 9999 NCD M05/M12 Q1020 RMK WIND 670FT 13015KT",
      "taf": "TAF ENVA 222300Z 2300/2324 11010KT CAVOK"
    },
    {
      "icao": "ENZV",
      "alert": "OK",
      "vis_m": 9999,
      "fzfg": false,
      "metar_trigger": false,
      "taf_trigger": false,
      "metar": "METAR ENZV 230350Z AUTO 10015KT 9999 NCD M01/M10 Q1010",
      "taf": "TAF ENZV 222300Z 2300/2324 10012KT CAVOK"
    },
    {
      "icao": "EPGD",
      "alert": "OK",
      "vis_m": 4700,
      "fzfg": false,
      "metar_trigger": false,
      "taf_trigger": false,
      "metar": "METAR EPGD 230400Z 10010KT 4700 BR OVC004 M11/M12 Q1011",
      "taf": "TAF EPGD 222330Z 2300/2324 09010KT 5000 BR BKN009"
    },
    {
      "icao": "EPKK",
      "alert": "OK",
      "vis_m": 5000,
      "fzfg": false,
      "metar_trigger": false,
      "taf_trigger": false,
      "metar": "METAR EPKK 230400Z 05007KT 5000 BR NSC M08/M11 Q1005",
      "taf": "TAF EPKK 230230Z 2303/2403 07008KT 6000 BKN040"
    },
    {
      "icao": "EPKT",
      "alert": "OK",
      "vis_m": 4300,
      "fzfg": false,
      "metar_trigger": false,
      "taf_trigger": false,
      "metar": "METAR EPKT 230400Z 05008KT 4300 BR NSC M06/M10 Q1004",
      "taf": "TAF EPKT 222330Z 2300/2324 09004KT 4000 BR BKN040"
    },
    {
      "icao": "EPLB",
      "alert": "OK",
      "vis_m": 4500,
      "fzfg": false,
      "metar_trigger": false,
      "taf_trigger": false,
      "metar": "METAR EPLB 230400Z 07009KT 4500 BR OVC004 M08/M08 Q1008",
      "taf": "TAF EPLB 222330Z 2300/2324 08012KT 6000 OVC007"
    },
    {
      "icao": "EPMO",
      "alert": "OK",
      "vis_m": 6000,
      "fzfg": false,
      "metar_trigger": false,
      "taf_trigger": false,
      "metar": "METAR EPMO 230400Z 07011KT 6000 BKN015 M09/M10 Q1009",
      "taf": ""
    },
    {
      "icao": "EPPO",
      "alert": "OK",
      "vis_m": 5000,
      "fzfg": false,
      "metar_trigger": false,
      "taf_trigger": false,
      "metar": "METAR EPPO 230400Z 09013KT 5000 -SN BR BKN008 M09/M12 Q1007",
      "taf": "TAF EPPO 222330Z 2300/2324 09010KT 7000 NSC"
    },
    {
      "icao": "EPRA",
      "alert": "OK",
      "vis_m": 7000,
      "fzfg": false,
      "metar_trigger": false,
      "taf_trigger": false,
      "metar": "METAR EPRA 230400Z 07008KT 7000 OVC006 M08/M10 Q1007",
      "taf": "TAF EPRA 230230Z 2303/2312 08008KT 7000 OVC007"
    },
    {
      "icao": "EPRZ",
      "alert": "OK",
      "vis_m": 3000,
      "fzfg": false,
      "metar_trigger": false,
      "taf_trigger": false,
      "metar": "METAR EPRZ 230400Z 07010KT 3000 -SN BR OVC015 M07/M08 Q1005",
      "taf": "TAF EPRZ 222330Z 2300/2324 09009KT 4000 BR BKN007"
    },
    {
      "icao": "EPSC",
      "alert": "OK",
      "vis_m": 6000,
      "fzfg": false,
      "metar_trigger": false,
      "taf_trigger": false,
      "metar": "METAR EPSC 230400Z 09007KT 6000 NSC M09/M12 Q1007",
      "taf": "TAF EPSC 222330Z 2300/2324 09010KT 7000 NSC"
    },
    {
      "icao": "EPSY",
      "alert": "OK",
      "vis_m": 8000,
      "fzfg": false,
      "metar_trigger": false,
      "taf_trigger": false,
      "metar": "METAR EPSY 230400Z 07006KT 020V120 8000 OVC007 M10/M12 Q1011",
      "taf": "TAF EPSY 230230Z 2303/2312 08008KT 8000 BKN010"
    },
    {
      "icao": "EPWA",
      "alert": "OK",
      "vis_m": 7000,
      "fzfg": false,
      "metar_trigger": false,
      "taf_trigger": false,
      "metar": "METAR EPWA 230400Z 08008KT 7000 -SN FEW010 OVC021 M08/M10 Q1009 TEMPO BKN009",
      "taf": "TAF EPWA 230230Z 2303/2403 08010KT 7000 SCT009 BKN015"
    },
    {
      "icao": "EPWR",
      "alert": "OK",
      "vis_m": 6000,
      "fzfg": false,
      "metar_trigger": false,
      "taf_trigger": false,
      "metar": "METAR EPWR 230400Z 09008KT 6000 BKN044 M04/M08 Q1004",
      "taf": "TAF EPWR 230230Z 2303/2403 09005KT 6000 NSC"
    },
    {
      "icao": "ESGG",
      "alert": "OK",
      "vis_m": 9999,
      "fzfg": false,
      "metar_trigger": false,
      "taf_trigger": false,
      "metar": "METAR ESGG 230350Z 08015KT 9999 OVC021 M02/M06 Q1012",
      "taf": "TAF ESGG 230230Z 2303/2403 09015G25KT 9999 OVC020"
    },
    {
      "icao": "ESKN",
      "alert": "OK",
      "vis_m": 9999,
      "fzfg": false,
      "metar_trigger": false,
      "taf_trigger": false,
      "metar": "METAR ESKN 230350Z 04009KT 010V070 9999 SG OVC024 M03/M05 Q1019",
      "taf": "TAF ESKN 230230Z 2303/2403 08012KT 9999 -SN OVC015"
    },
    {
      "icao": "ESMS",
      "alert": "OK",
      "vis_m": 9999,
      "fzfg": false,
      "metar_trigger": false,
      "taf_trigger": false,
      "metar": "METAR ESMS 230350Z 09023KT 9999 BKN015 M00/M03 Q1008",
      "taf": "TAF ESMS 230227Z 2303/2403 09018G32KT 9999 OVC015"
    },
    {
      "icao": "ESSA",
      "alert": "OK",
      "vis_m": 9999,
      "fzfg": false,
      "metar_trigger": false,
      "taf_trigger": false,
      "metar": "METAR ESSA 230350Z 10009KT 9999 BKN017 M04/M07 Q1021 NOSIG",
      "taf": "TAF ESSA 230230Z 2303/2403 08012KT 9999 OVC018"
    },
    {
      "icao": "EYKA",
      "alert": "OK",
      "vis_m": 9999,
      "fzfg": false,
      "metar_trigger": false,
      "taf_trigger": false,
      "metar": "METAR EYKA 230350Z 09010KT 9999 -SN OVC023 M09/M13 Q1017",
      "taf": "TAF EYKA 222300Z 2300/2324 10008KT 9000 BKN015"
    },
    {
      "icao": "EYPA",
      "alert": "OK",
      "vis_m": 9999,
      "fzfg": false,
      "metar_trigger": false,
      "taf_trigger": false,
      "metar": "METAR EYPA 230350Z 11011KT 9999 OVC020 M05/M09 Q1017",
      "taf": "TAF EYPA 222300Z 2300/2324 10011KT 9000 OVC015"
    },
    {
      "icao": "EYVI",
      "alert": "OK",
      "vis_m": 9999,
      "fzfg": false,
      "metar_trigger": false,
      "taf_trigger": false,
      "metar": "METAR EYVI 230350Z 09010KT 060V120 9999 -SN BKN017 M10/M13 Q1016 NOSIG",
      "taf": "TAF EYVI 222300Z 2300/2324 10011KT 9000 BKN015"
    },
    {
      "icao": "GCFV",
      "alert": "OK",
      "vis_m": 9999,
      "fzfg": false,
      "metar_trigger": false,
      "taf_trigger": false,
      "metar": "METAR GCFV 230400Z AUTO 30009KT CAVOK 18/14 Q1018",
      "taf": "TAF GCFV 230200Z 2303/2403 30005KT 9999 SCT020 TX22/2314Z TN16/2306Z"
    },
    {
      "icao": "GCLP",
      "alert": "OK",
      "vis_m": 9999,
      "fzfg": false,
      "metar_trigger": false,
      "taf_trigger": false,
      "metar": "METAR GCLP 230400Z VRB02KT 9999 FEW020 15/13 Q1019 NOSIG",
      "taf": "TAF GCLP 230200Z 2303/2403 28005KT 9999 SCT020 TX23/2314Z TN15/2306Z"
    },
    {
      "icao": "GCTS",
      "alert": "OK",
      "vis_m": 9999,
      "fzfg": false,
      "metar_trigger": false,
      "taf_trigger": false,
      "metar": "METAR GCTS 230400Z 31004KT 9999 BKN034 18/13 Q1019 NOSIG",
      "taf": "TAF GCTS 230200Z 2303/2403 34005KT 9999 BKN025 TX23/2314Z TN15/2306Z"
    },
    {
      "icao": "GMAD",
      "alert": "OK",
      "vis_m": 8000,
      "fzfg": false,
      "metar_trigger": false,
      "taf_trigger": false,
      "metar": "METAR GMAD 230400Z 36003KT 8000 FEW013 BKN026 14/14 Q1016 NOSIG",
      "taf": "TAF GMAD 222300Z 2300/2406 18004KT 8000 SCT008 BKN016"
    },
    {
      "icao": "GMMN",
      "alert": "OK",
      "vis_m": 9999,
      "fzfg": false,
      "metar_trigger": false,
      "taf_trigger": false,
      "metar": "METAR GMMN 230400Z 21016KT 9999 SCT016 BKN023 13/11 Q1013 NOSIG",
      "taf": "TAF GMMN 222300Z 2300/2406 22013KT 8000 SCT030 BKN100"
    },
    {
      "icao": "GMMX",
      "alert": "OK",
      "vis_m": 9999,
      "fzfg": false,
      "metar_trigger": false,
      "taf_trigger": false,
      "metar": "METAR GMMX 230400Z 20005KT 9999 FEW010 BKN026 12/11 Q1015 NOSIG",
      "taf": "TAF GMMX 222300Z 2300/2406 24014KT 8000 SCT020 SCT080"
    },
    {
      "icao": "HEGN",
      "alert": "OK",
      "vis_m": null,
      "fzfg": false,
      "metar_trigger": false,
      "taf_trigger": false,
      "metar": "",
      "taf": "TAF HEGN 222300Z 2300/2406 12012KT CAVOK"
    },
    {
      "icao": "HEMA",
      "alert": "OK",
      "vis_m": null,
      "fzfg": false,
      "metar_trigger": false,
      "taf_trigger": false,
      "metar": "",
      "taf": "TAF HEMA 222300Z 2300/2406 15012KT CAVOK"
    },
    {
      "icao": "HESH",
      "alert": "OK",
      "vis_m": null,
      "fzfg": false,
      "metar_trigger": false,
      "taf_trigger": false,
      "metar": "",
      "taf": "TAF HESH 222300Z 2300/2406 35012KT CAVOK"
    },
    {
      "icao": "HESX",
      "alert": "OK",
      "vis_m": null,
      "fzfg": false,
      "metar_trigger": false,
      "taf_trigger": false,
      "metar": "",
      "taf": "TAF HESX 222300Z 2300/2406 22008KT 8000 NSC"
    },
    {
      "icao": "LATI",
      "alert": "OK",
      "vis_m": 9999,
      "fzfg": false,
      "metar_trigger": false,
      "taf_trigger": false,
      "metar": "METAR LATI 230350Z VRB01KT 9999 SCT053 BKN070 07/05 Q1002 NOSIG",
      "taf": "TAF LATI 222300Z 2300/2324 VRB05KT 9999 SCT030 BKN060 TX14/2313Z TN03/2322Z"
    },
    {
      "icao": "LBPD",
      "alert": "OK",
      "vis_m": 9999,
      "fzfg": false,
      "metar_trigger": false,
      "taf_trigger": false,
      "metar": "METAR LBPD 230400Z AUTO 24003KT 9999 OVC009/// M02/M02 Q1005 NOSIG",
      "taf": "TAF LBPD 222300Z 2300/2324 VRB04KT 2000 BR BKN015"
    },
    {
      "icao": "LBSF",
      "alert": "OK",
      "vis_m": 7000,
      "fzfg": false,
      "metar_trigger": false,
      "taf_trigger": false,
      "metar": "METAR LBSF 230400Z AUTO 00000KT 7000 SCT005/// OVC008/// 01/M00 Q1004 TEMPO BKN005",
      "taf": "TAF LBSF 222300Z 2300/2324 VRB04KT 3000 BR SCT010 OVC015"
    },
    {
      "icao": "LBWN",
      "alert": "OK",
      "vis_m": 7000,
      "fzfg": false,
      "metar_trigger": false,
      "taf_trigger": false,
      "metar": "METAR LBWN 230400Z AUTO 30005KT 250V340 7000 BKN017/// BKN024/// 03/03 Q1005 NOSIG",
      "taf": "TAF LBWN 222300Z 2300/2324 VRB04KT 3000 BR SCT015 BKN040"
    },
    {
      "icao": "LCLK",
      "alert": "OK",
      "vis_m": 9999,
      "fzfg": false,
      "metar_trigger": false,
      "taf_trigger": false,
      "metar": "METAR LCLK 230400Z 36011KT 9999 SCT023 11/10 Q1011 NOSIG",
      "taf": "TAF LCLK 222330Z 2300/2400 04015KT 9999 SCT020"
    },
    {
      "icao": "LCPH",
      "alert": "OK",
      "vis_m": 9999,
      "fzfg": false,
      "metar_trigger": false,
      "taf_trigger": false,
      "metar": "METAR LCPH 230400Z VRB03KT 9999 FEW030 10/08 Q1010 NOSIG",
      "taf": "TAF LCPH 222330Z 2300/2400 03009KT 9999 SCT020"
    },
    {
      "icao": "LEAL",
      "alert": "OK",
      "vis_m": 9999,
      "fzfg": false,
      "metar_trigger": false,
      "taf_trigger": false,
      "metar": "METAR LEAL 230400Z 00000KT 9999 SCT060 09/06 Q1001 NOSIG",
      "taf": "TAF LEAL 222300Z 2300/2324 VRB04KT 9999 SCT040 TX19/2313Z TN09/2306Z"
    },
    {
      "icao": "LEBB",
      "alert": "OK",
      "vis_m": 9999,
      "fzfg": false,
      "metar_trigger": false,
      "taf_trigger": false,
      "metar": "METAR LEBB 230400Z VRB05KT 9999 SCT026 08/07 Q0992 NOSIG",
      "taf": ""
    },
    {
      "icao": "LEBL",
      "alert": "OK",
      "vis_m": 9999,
      "fzfg": false,
      "metar_trigger": false,
      "taf_trigger": false,
      "metar": "METAR LEBL 230400Z 31003KT 270V340 9999 FEW035 07/04 Q0998 NOSIG",
      "taf": "TAF LEBL 222300Z 2300/2324 34006KT 9999 FEW030 TX15/2313Z TN07/2303Z"
    },
    {
      "icao": "LECH",
      "alert": "OK",
      "vis_m": 9999,
      "fzfg": false,
      "metar_trigger": false,
      "taf_trigger": false,
      "metar": "METAR LECH 230400Z AUTO VRB02KT CAVOK 05/04 Q0998",
      "taf": ""
    },
    {
      "icao": "LEMD",
      "alert": "OK",
      "vis_m": 7000,
      "fzfg": false,
      "metar_trigger": false,
      "taf_trigger": false,
      "metar": "METAR LEMD 230400Z 03003KT 350V070 7000 FEW005 BKN070 04/04 Q0998 NOSIG",
      "taf": ""
    },
    {
      "icao": "LEMG",
      "alert": "OK",
      "vis_m": 8000,
      "fzfg": false,
      "metar_trigger": false,
      "taf_trigger": false,
      "metar": "METAR LEMG 230400Z 30003KT 210V340 8000 -RA SCT025 BKN035 11/11 Q1004 RERA NOSIG",
      "taf": "TAF LEMG 222300Z 2300/2324 VRB03KT 9999 SCT040 TX18/2314Z TN10/2307Z"
    },
    {
      "icao": "LEVC",
      "alert": "OK",
      "vis_m": 9999,
      "fzfg": false,
      "metar_trigger": false,
      "taf_trigger": false,
      "metar": "METAR LEVC 230400Z 21005KT 9999 BKN035 10/05 Q1000 NOSIG",
      "taf": "TAF LEVC 222300Z 2300/2324 18007KT 9999 SCT040 TX16/2313Z TN07/2305Z"
    },
    {
      "icao": "LEXJ",
      "alert": "OK",
      "vis_m": 7000,
      "fzfg": false,
      "metar_trigger": false,
      "taf_trigger": false,
      "metar": "METAR LEXJ 230400Z AUTO 20006KT 160V240 7000 BKN070 BKN080 09/05 Q0991",
      "taf": "TAF LEXJ 230200Z 2303/2403 24009KT 9999 FEW030 TX14/2313Z TN07/2403Z"
    },
    {
      "icao": "LEZG",
      "alert": "OK",
      "vis_m": 9999,
      "fzfg": false,
      "metar_trigger": false,
      "taf_trigger": false,
      "metar": "METAR LEZG 230400Z 12007KT 9999 FEW040 BKN060 07/04 Q0997 NOSIG",
      "taf": "TAF LEZG 222300Z 2300/2324 VRB04KT 9999 FEW040 TX13/2315Z TN05/2306Z"
    },
    {
      "icao": "LEZL",
      "alert": "OK",
      "vis_m": 9000,
      "fzfg": false,
      "metar_trigger": false,
      "taf_trigger": false,
      "metar": "METAR LEZL 230400Z AUTO 28012KT 9000 SCT049 15/12 Q1004",
      "taf": "TAF LEZL 230200Z 2303/2403 25007KT 9999 BKN025 TX15/2315Z TN08/2307Z"
    },
    {
      "icao": "LFBD",
      "alert": "OK",
      "vis_m": 9999,
      "fzfg": false,
      "metar_trigger": false,
      "taf_trigger": false,
      "metar": "METAR LFBD 230400Z AUTO 18005KT 9999 -RA BKN037/// BKN043/// BKN056/// ///TCU 07/06 Q0990 TEMPO 4000 -RA BKN010 BKN020",
      "taf": ""
    },
    {
      "icao": "LFLL",
      "alert": "OK",
      "vis_m": 9999,
      "fzfg": false,
      "metar_trigger": false,
      "taf_trigger": false,
      "metar": "METAR LFLL 230400Z 15012KT 9999 SCT013 BKN230 05/04 Q0995 NOSIG",
      "taf": ""
    },
    {
      "icao": "LFLS",
      "alert": "OK",
      "vis_m": 9999,
      "fzfg": false,
      "metar_trigger": false,
      "taf_trigger": false,
      "metar": "METAR LFLS 230400Z AUTO 08004KT 9999 BKN011 OVC160 01/01 Q0996 TEMPO 0300 BECMG VV///",
      "taf": ""
    },
    {
      "icao": "LFMN",
      "alert": "OK",
      "vis_m": 9999,
      "fzfg": false,
      "metar_trigger": false,
      "taf_trigger": false,
      "metar": "METAR LFMN 230400Z 33008KT 9999 OVC050 08/05 Q1000 NOSIG",
      "taf": "TAF LFMN 230200Z 2303/2409 34010KT 9999 OVC050"
    },
    {
      "icao": "LFOB",
      "alert": "OK",
      "vis_m": 8000,
      "fzfg": false,
      "metar_trigger": false,
      "taf_trigger": false,
      "metar": "METAR LFOB 230400Z AUTO 13010KT 8000 OVC005 05/05 Q0989 NOSIG",
      "taf": "TAF LFOB 222300Z 2300/2324 14010KT 9999 SCT025"
    },
    {
      "icao": "LFPO",
      "alert": "OK",
      "vis_m": 9999,
      "fzfg": false,
      "metar_trigger": false,
      "taf_trigger": false,
      "metar": "METAR LFPO 230400Z AUTO 14006KT CAVOK 05/04 Q0990 TEMPO BKN006",
      "taf": "TAF LFPO 222300Z 2300/2406 17008KT 9999 FEW006"
    },
    {
      "icao": "LFSB",
      "alert": "OK",
      "vis_m": 9999,
      "fzfg": false,
      "metar_trigger": false,
      "taf_trigger": false,
      "metar": "METAR LFSB 230400Z AUTO 13006KT CAVOK 01/M01 Q0996 TEMPO 4500 BR",
      "taf": "TAF LFSB 222300Z 2300/2324 16005KT 9999 FEW050"
    },
    {
      "icao": "LGAV",
      "alert": "OK",
      "vis_m": 9999,
      "fzfg": false,
      "metar_trigger": false,
      "taf_trigger": false,
      "metar": "METAR LGAV 230350Z 27002KT 9999 FEW018 SCT070 05/04 Q1003 NOSIG",
      "taf": "TAF LGAV 222300Z 2300/2324 35008KT 9999 FEW015 SCT025"
    },
    {
      "icao": "LGTS",
      "alert": "OK",
      "vis_m": 5000,
      "fzfg": false,
      "metar_trigger": false,
      "taf_trigger": false,
      "metar": "METAR LGTS 230350Z VRB03KT 5000 BR SCT010 SCT025 05/05 Q1004 BECMG 2000 BR",
      "taf": "TAF LGTS 222300Z 2300/2324 VRB03KT 4000 BR SCT008"
    },
    {
      "icao": "LHBP",
      "alert": "OK",
      "vis_m": 9000,
      "fzfg": false,
      "metar_trigger": false,
      "taf_trigger": false,
      "metar": "METAR LHBP 230400Z 00000KT 9000 OVC032 00/M02 Q1004 NOSIG",
      "taf": "TAF LHBP 222315Z 2300/2324 08005KT 7000 SCT030 BKN060"
    },
    {
      "icao": "LHDC",
      "alert": "OK",
      "vis_m": 7000,
      "fzfg": false,
      "metar_trigger": false,
      "taf_trigger": false,
      "metar": "METAR LHDC 230345Z AUTO 30002KT 7000 FEW021 BKN036 BKN072 M01/M03 Q1005",
      "taf": ""
    },
    {
      "icao": "LIBD",
      "alert": "OK",
      "vis_m": 9999,
      "fzfg": false,
      "metar_trigger": false,
      "taf_trigger": false,
      "metar": "METAR LIBD 230350Z 26004KT CAVOK 07/07 Q1001",
      "taf": "TAF LIBD 222300Z 2300/2324 VRB05KT 7000 SCT040"
    },
    {
      "icao": "LIBG",
      "alert": "OK",
      "vis_m": null,
      "fzfg": false,
      "metar_trigger": false,
      "taf_trigger": false,
      "metar": "",
      "taf": "TAF LIBG 221700Z 2218/2303 VRB05KT 9999 SCT020"
    },
    {
      "icao": "LIBP",
      "alert": "OK",
      "vis_m": 7000,
      "fzfg": false,
      "metar_trigger": false,
      "taf_trigger": false,
      "metar": "METAR LIBP 230350Z AUTO 23002KT 7000 BKN032/// 08/08 Q1002",
      "taf": "TAF LIBP 222300Z 2300/2324 VRB05KT 6000 BKN020"
    },
    {
      "icao": "LIBR",
      "alert": "OK",
      "vis_m": 9999,
      "fzfg": false,
      "metar_trigger": false,
      "taf_trigger": false,
      "metar": "METAR LIBR 230350Z 18001KT 9999 FEW045 09/09 Q1001",
      "taf": "TAF LIBR 222300Z 2300/2324 VRB05KT 7000 SCT020"
    },
    {
      "icao": "LICA",
      "alert": "OK",
      "vis_m": 9999,
      "fzfg": false,
      "metar_trigger": false,
      "taf_trigger": false,
      "metar": "METAR LICA 230350Z AUTO 07006KT 9999 NCD 06/05 Q1001",
      "taf": "TAF LICA 222300Z 2300/2324 07010KT 9999 BKN020"
    },
    {
      "icao": "LICC",
      "alert": "OK",
      "vis_m": 9999,
      "fzfg": false,
      "metar_trigger": false,
      "taf_trigger": false,
      "metar": "METAR LICC 230350Z 26007KT 9999 SCT050 09/07 Q1000",
      "taf": "TAF LICC 222300Z 2300/2324 26008KT 7000 SCT030"
    },
    {
      "icao": "LICJ",
      "alert": "OK",
      "vis_m": 9999,
      "fzfg": false,
      "metar_trigger": false,
      "taf_trigger": false,
      "metar": "METAR LICJ 230350Z 13004KT 9999 SCT050 11/09 Q0999",
      "taf": "TAF LICJ 222300Z 2300/2324 16008KT 9999 FEW030"
    },
    {
      "icao": "LIMC",
      "alert": "OK",
      "vis_m": 4000,
      "fzfg": false,
      "metar_trigger": false,
      "taf_trigger": false,
      "metar": "METAR LIMC 230350Z 01004KT 4000 BR SCT070 M01/M01 Q1001 NOSIG",
      "taf": ""
    },
    {
      "icao": "LIME",
      "alert": "OK",
      "vis_m": 9999,
      "fzfg": false,
      "metar_trigger": false,
      "taf_trigger": false,
      "metar": "METAR LIME 230350Z 01004KT 9999 SCT065 02/M01 Q1001 NOSIG",
      "taf": ""
    },
    {
      "icao": "LIMF",
      "alert": "CRITICAL",
      "vis_m": 100,
      "fzfg": true,
      "metar_trigger": true,
      "taf_trigger": false,
      "metar": "METAR LIMF 230350Z VRB01KT 0100 R36/0350N FZFG VV001 M03/M04 Q1001",
      "taf": "TAF LIMF 222300Z 2300/2324 VRB03KT 0400 FZFG OVC001"
    },
    {
      "icao": "LIMJ",
      "alert": "OK",
      "vis_m": 9999,
      "fzfg": false,
      "metar_trigger": false,
      "taf_trigger": false,
      "metar": "METAR LIMJ 230350Z 04006KT 9999 BKN031 08/01 Q1000",
      "taf": "TAF LIMJ 222300Z 2300/2324 03014KT 9999 FEW030 SCT060"
    },
    {
      "icao": "LIPE",
      "alert": "OK",
      "vis_m": 2500,
      "fzfg": false,
      "metar_trigger": false,
      "taf_trigger": false,
      "metar": "METAR LIPE 230350Z 34002KT 2500 BR NSC 01/01 Q1002",
      "taf": "TAF LIPE 222300Z 2300/2324 VRB05KT 6000 SCT040"
    },
    {
      "icao": "LIPH",
      "alert": "OK",
      "vis_m": 9999,
      "fzfg": false,
      "metar_trigger": false,
      "taf_trigger": false,
      "metar": "METAR LIPH 230350Z AUTO VRB01KT 9999 FEW063/// OVC100/// 00/M04 Q1002",
      "taf": "TAF LIPH 222300Z 2300/2324 VRB05KT 9999 SCT050"
    },
    {
      "icao": "LIPQ",
      "alert": "OK",
      "vis_m": 9999,
      "fzfg": false,
      "metar_trigger": false,
      "taf_trigger": false,
      "metar": "METAR LIPQ 230350Z AUTO VRB01KT 9999 OVC048/// 03/M01 Q1001",
      "taf": "TAF LIPQ 222300Z 2300/2324 VRB05KT 9999 BKN040"
    },
    {
      "icao": "LIPR",
      "alert": "OK",
      "vis_m": 9999,
      "fzfg": false,
      "metar_trigger": false,
      "taf_trigger": false,
      "metar": "METAR LIPR 230350Z AUTO 32003KT 9999 OVC013/// 05/04 Q1002",
      "taf": "TAF LIPR 222300Z 2300/2324 VRB05KT 7000 SCT030"
    },
    {
      "icao": "LIPX",
      "alert": "OK",
      "vis_m": 4000,
      "fzfg": false,
      "metar_trigger": false,
      "taf_trigger": false,
      "metar": "METAR LIPX 230350Z VRB01KT 4000 BR BKN060 01/00 Q1002",
      "taf": "TAF LIPX 222300Z 2300/2324 VRB03KT 2000 BR FEW080"
    },
    {
      "icao": "LIPY",
      "alert": "OK",
      "vis_m": 7000,
      "fzfg": false,
      "metar_trigger": false,
      "taf_trigger": false,
      "metar": "METAR LIPY 230350Z AUTO 19002KT 7000 OVC020/// 06/04 Q1002",
      "taf": "TAF LIPY 222300Z 2300/2324 28006KT 9999 BKN030"
    },
    {
      "icao": "LIPZ",
      "alert": "OK",
      "vis_m": 9999,
      "fzfg": false,
      "metar_trigger": false,
      "taf_trigger": false,
      "metar": "METAR LIPZ 230350Z 30002KT CAVOK 02/M01 Q1002 NOSIG",
      "taf": "TAF LIPZ 222300Z 2300/2406 VRB05KT 9999 BKN040"
    },
    {
      "icao": "LIRF",
      "alert": "OK",
      "vis_m": 9999,
      "fzfg": false,
      "metar_trigger": false,
      "taf_trigger": false,
      "metar": "METAR LIRF 230350Z 09005KT 9999 FEW045 04/03 Q1001 NOSIG",
      "taf": "TAF LIRF 222300Z 2300/2406 07010KT 9999 FEW040"
    },
    {
      "icao": "LIRN",
      "alert": "OK",
      "vis_m": 9999,
      "fzfg": false,
      "metar_trigger": false,
      "taf_trigger": false,
      "metar": "METAR LIRN 230350Z 29002KT 9999 FEW050 06/05 Q1001 NOSIG",
      "taf": "TAF LIRN 222300Z 2300/2324 VRB05KT 9999 SCT050"
    },
    {
      "icao": "LIRP",
      "alert": "OK",
      "vis_m": 9999,
      "fzfg": false,
      "metar_trigger": false,
      "taf_trigger": false,
      "metar": "METAR LIRP 230345Z 11007KT 9999 SCT070 05/05 Q1000 NOSIG",
      "taf": "TAF LIRP 222300Z 2300/2324 11005KT 9999 SCT040 SCT080"
    },
    {
      "icao": "LIRZ",
      "alert": "OK",
      "vis_m": 9999,
      "fzfg": false,
      "metar_trigger": false,
      "taf_trigger": false,
      "metar": "METAR LIRZ 230350Z AUTO 29003KT 260V320 9999 NCD 01/01 Q1002",
      "taf": "TAF LIRZ 222300Z 2300/2324 VRB05KT 9999 BKN045"
    },
    {
      "icao": "LJLJ",
      "alert": "OK",
      "vis_m": 9999,
      "fzfg": false,
      "metar_trigger": false,
      "taf_trigger": false,
      "metar": "METAR LJLJ 230400Z 27002KT 9999 BKN043 M06/M08 Q1002 NOSIG",
      "taf": "TAF LJLJ 222300Z 2300/2400 12003KT 9999 SCT045"
    },
    {
      "icao": "LKMT",
      "alert": "OK",
      "vis_m": 6000,
      "fzfg": false,
      "metar_trigger": false,
      "taf_trigger": false,
      "metar": "METAR LKMT 230400Z 04003KT 6000 BKN032 M01/M04 Q1003 NOSIG",
      "taf": "TAF LKMT 222300Z 2300/2324 VRB02KT CAVOK"
    },
    {
      "icao": "LKPR",
      "alert": "OK",
      "vis_m": 8000,
      "fzfg": false,
      "metar_trigger": false,
      "taf_trigger": false,
      "metar": "METAR LKPR 230400Z 11003KT 360V160 8000 OVC009 M07/M09 Q1002 TEMPO 5000 BR BKN005",
      "taf": "TAF LKPR 230200Z 2303/2409 14005KT 7000 BKN015"
    },
    {
      "icao": "LLBG",
      "alert": "OK",
      "vis_m": 9999,
      "fzfg": false,
      "metar_trigger": false,
      "taf_trigger": false,
      "metar": "METAR LLBG 230350Z 22004KT 9999 FEW033 16/08 Q1011 NOSIG",
      "taf": "TAF LLBG 222312Z 2300/2324 VRB04KT CAVOK"
    },
    {
      "icao": "LMML",
      "alert": "OK",
      "vis_m": 9999,
      "fzfg": false,
      "metar_trigger": false,
      "taf_trigger": false,
      "metar": "METAR LMML 230345Z 28007KT 9999 FEW015CB SCT045 13/11 Q1000 TEMPO 7000 SHRA",
      "taf": "TAF LMML 222300Z 2300/2324 24012KT 9999 SCT020"
    },
    {
      "icao": "LOWW",
      "alert": "OK",
      "vis_m": 6000,
      "fzfg": false,
      "metar_trigger": false,
      "taf_trigger": false,
      "metar": "METAR LOWW 230350Z 23004KT 6000 FEW005 BKN007 M04/M06 Q1003 NOSIG",
      "taf": "TAF LOWW 230215Z 2303/2409 13005KT 6000 OVC010 TXM01/2400Z TNM06/2306Z"
    },
    {
      "icao": "LPFR",
      "alert": "OK",
      "vis_m": 9999,
      "fzfg": false,
      "metar_trigger": false,
      "taf_trigger": false,
      "metar": "METAR LPFR 230400Z 29011KT 9999 SCT020 12/09 Q1006",
      "taf": "TAF LPFR 222300Z 2300/2324 24020G33KT 3000 -RADZ BR SCT004 BKN008"
    },
    {
      "icao": "LPMA",
      "alert": "OK",
      "vis_m": 9999,
      "fzfg": false,
      "metar_trigger": false,
      "taf_trigger": false,
      "metar": "METAR LPMA 230400Z 34003KT 300V010 9999 FEW015 16/11 Q1016",
      "taf": "TAF LPMA 222300Z 2300/2324 VRB05KT 9999 SCT015"
    },
    {
      "icao": "LPPR",
      "alert": "OK",
      "vis_m": 9999,
      "fzfg": false,
      "metar_trigger": false,
      "taf_trigger": false,
      "metar": "METAR LPPR 230400Z 28010G21KT 220V320 9999 FEW019 FEW025CB SCT043 09/05 Q1000",
      "taf": "TAF LPPR 222300Z 2300/2324 26015KT 9999 SCT020"
    },
    {
      "icao": "LPPS",
      "alert": "OK",
      "vis_m": 9999,
      "fzfg": false,
      "metar_trigger": false,
      "taf_trigger": false,
      "metar": "METAR LPPS 230400Z 31014KT 9999 SCT010 BKN030 16/16 Q1016",
      "taf": "TAF LPPS 222300Z 2300/2406 29015KT 9999 SCT015 SCT030"
    },
    {
      "icao": "LPPT",
      "alert": "OK",
      "vis_m": 9999,
      "fzfg": false,
      "metar_trigger": false,
      "taf_trigger": false,
      "metar": "METAR LPPT 230400Z 28010KT 9999 FEW020 SCT025 12/06 Q1005",
      "taf": "TAF LPPT 222300Z 2300/2406 29015KT 9999 SCT020"
    },
    {
      "icao": "LQBK",
      "alert": "OK",
      "vis_m": 7000,
      "fzfg": false,
      "metar_trigger": false,
      "taf_trigger": false,
      "metar": "METAR LQBK 230400Z 07001KT 7000 BKN045 M01/M02 Q1003 NOSIG",
      "taf": "TAF LQBK 222300Z 2300/2324 VRB02KT 7000 SCT045 TX03/2313Z TNM01/2306Z"
    },
    {
      "icao": "LQSA",
      "alert": "OK",
      "vis_m": 1500,
      "fzfg": false,
      "metar_trigger": false,
      "taf_trigger": false,
      "metar": "METAR LQSA 230400Z 00000KT 1500 BR SCT010 M02/M02 Q1002",
      "taf": "TAF LQSA 222300Z 2300/2324 VRB02KT 2000 BR FEW010 SCT045 TX04/2314Z TNM02/2305Z"
    },
    {
      "icao": "LQTZ",
      "alert": "OK",
      "vis_m": 2700,
      "fzfg": false,
      "metar_trigger": false,
      "taf_trigger": false,
      "metar": "METAR LQTZ 230400Z 00000KT 2700 BR SCT053 BKN070 M01/M01 Q1003",
      "taf": "TAF LQTZ 222300Z 2300/2324 VRB02KT 6000 FEW005 BKN040 TX05/2313Z TNM03/2303Z"
    },
    {
      "icao": "LRBC",
      "alert": "OK",
      "vis_m": 2900,
      "fzfg": false,
      "metar_trigger": false,
      "taf_trigger": false,
      "metar": "METAR LRBC 230400Z 16003KT 2900 -RASN OVC006 01/01 Q1006",
      "taf": "TAF LRBC 230200Z 2303/2312 16006KT 5000 -SN BR BKN010 OVC015"
    },
    {
      "icao": "LRBS",
      "alert": "OK",
      "vis_m": 300,
      "fzfg": false,
      "metar_trigger": false,
      "taf_trigger": false,
      "metar": "METAR LRBS 230400Z 00000KT 0300 R07/0375N FG VV001 00/00 Q1006 NOSIG",
      "taf": "TAF LRBS 222300Z 2300/2324 VRB04KT 0600 FG OVC002"
    },
    {
      "icao": "LRBV",
      "alert": "OK",
      "vis_m": 1600,
      "fzfg": false,
      "metar_trigger": false,
      "taf_trigger": false,
      "metar": "METAR LRBV 230400Z AUTO 24002KT 1600 1000 R21/P2000N SN VV005 00/M00 Q1003",
      "taf": "TAF LRBV 230200Z 2303/2312 VRB04KT 5000 BR BKN010 BKN045"
    },
    {
      "icao": "LRCL",
      "alert": "OK",
      "vis_m": 800,
      "fzfg": true,
      "metar_trigger": false,
      "taf_trigger": false,
      "metar": "METAR LRCL 230400Z 00000KT 0800 R25/1800D -SN FZFG SCT004 BKN010 OVC035 M01/M02 Q1004",
      "taf": "TAF LRCL 230200Z 2303/2312 VRB04KT 3000 -SN BR BKN010 OVC030"
    },
    {
      "icao": "LRCV",
      "alert": "OK",
      "vis_m": 300,
      "fzfg": true,
      "metar_trigger": false,
      "taf_trigger": false,
      "metar": "METAR LRCV 230400Z 00000KT 0300 R26/0400N FG VV002 00/00 Q1005",
      "taf": "TAF LRCV 230200Z 2303/2312 VRB04KT 0350 FZFG VV002"
    },
    {
      "icao": "LRIA",
      "alert": "OK",
      "vis_m": 5000,
      "fzfg": false,
      "metar_trigger": false,
      "taf_trigger": false,
      "metar": "METAR LRIA 230400Z COR 10008KT 5000 -SN FEW003 SCT004 BKN006 M01/M01 Q1007",
      "taf": "TAF LRIA 230200Z 2303/2312 11007KT 5000 -SN BR BKN010 OVC020"
    },
    {
      "icao": "LROP",
      "alert": "OK",
      "vis_m": 200,
      "fzfg": false,
      "metar_trigger": false,
      "taf_trigger": false,
      "metar": "METAR LROP 230400Z 00000KT 0200 R08R/0275N R08L/0325N FG VV001 00/00 Q1005 NOSIG",
      "taf": "TAF LROP 222300Z 2300/2324 VRB04KT 0600 FG OVC002"
    },
    {
      "icao": "LRSB",
      "alert": "OK",
      "vis_m": 5000,
      "fzfg": false,
      "metar_trigger": false,
      "taf_trigger": false,
      "metar": "METAR LRSB 230400Z 00000KT 5000 BR BKN044 BKN055 M01/M02 Q1003",
      "taf": "TAF LRSB 222300Z 2300/2324 VRB04KT 9999 BKN030 BKN070"
    },
    {
      "icao": "LRSM",
      "alert": "OK",
      "vis_m": 4700,
      "fzfg": false,
      "metar_trigger": false,
      "taf_trigger": false,
      "metar": "METAR LRSM 230400Z AUTO 00000KT 4700 BR SCT038/// BKN070/// M01/M03 Q1004",
      "taf": "TAF LRSM 230200Z 2303/2312 VRB04KT 5000 BR BKN040"
    },
    {
      "icao": "LRSV",
      "alert": "OK",
      "vis_m": 200,
      "fzfg": true,
      "metar_trigger": false,
      "taf_trigger": false,
      "metar": "METAR LRSV 230400Z 09005KT 0200 R34/0350N FZFG VV002 M01/M01 Q1004",
      "taf": "TAF LRSV 230200Z 2303/2312 12006KT 0200 -SN FZFG VV001"
    },
    {
      "icao": "LRTM",
      "alert": "OK",
      "vis_m": 1200,
      "fzfg": false,
      "metar_trigger": false,
      "taf_trigger": false,
      "metar": "METAR LRTM 230400Z AUTO 29001KT 1200 R07/1900N SN NCD M02/M02 Q1004",
      "taf": "TAF LRTM 230200Z 2303/2312 VRB04KT 1500 -SN BR BKN010 OVC030"
    },
    {
      "icao": "LRTR",
      "alert": "OK",
      "vis_m": 2400,
      "fzfg": false,
      "metar_trigger": false,
      "taf_trigger": false,
      "metar": "METAR LRTR 230400Z VRB01KT 2400 BR FEW037 M01/M01 Q1004 TEMPO 1500 BR",
      "taf": "TAF LRTR 222300Z 2300/2324 VRB04KT 5000 BR BKN040"
    },
    {
      "icao": "LTAC",
      "alert": "OK",
      "vis_m": 4400,
      "fzfg": false,
      "metar_trigger": false,
      "taf_trigger": false,
      "metar": "METAR LTAC 230350Z 01003KT 4400 BR SCT011 BKN025 BKN080 M00/M01 Q1008 NOSIG RMK RWY21C 36002KT RWY03L 36002KT RWY21R 35002KT RWY03R 00000KT RWY21L 36002KT",
      "taf": "TAF LTAC 222240Z 2300/2324 VRB02KT 9999 SCT035 BKN090"
    },
    {
      "icao": "LTFM",
      "alert": "OK",
      "vis_m": 8000,
      "fzfg": false,
      "metar_trigger": false,
      "taf_trigger": false,
      "metar": "METAR LTFM 230350Z 23004KT 180V280 8000 SCT030 BKN070 09/07 Q1004 RERA NOSIG RMK RWY17L 26004KT RWY34L 24003KT RWY16R 27003KT 220V320 RWY36 23005KT RWY18 26003KT",
      "taf": "TAF LTFM 222240Z 2300/2406 20010KT 9999 SCT040 BKN100"
    },
    {
      "icao": "LUKK",
      "alert": "OK",
      "vis_m": 3000,
      "fzfg": false,
      "metar_trigger": false,
      "taf_trigger": false,
      "metar": "METAR LUKK 230400Z 06007KT 3000 BR OVC001 M02/M02 Q1008 TEMPO 1000 BR",
      "taf": "TAF LUKK 222328Z 2300/2324 07009KT 9999 OVC004"
    },
    {
      "icao": "LWOH",
      "alert": "OK",
      "vis_m": null,
      "fzfg": false,
      "metar_trigger": false,
      "taf_trigger": false,
      "metar": "",
      "taf": "TAF LWOH 230320Z 2303/2403 33006KT 9999 BKN040"
    },
    {
      "icao": "LWSK",
      "alert": "OK",
      "vis_m": 200,
      "fzfg": true,
      "metar_trigger": false,
      "taf_trigger": false,
      "metar": "METAR LWSK 230350Z VRB01KT 0200 R34/0500N FZFG SCT003 M01/M02 Q1005 NOSIG",
      "taf": "TAF LWSK 230320Z 2303/2403 VRB02KT 0200 FZFG BKN002"
    },
    {
      "icao": "LYBE",
      "alert": "OK",
      "vis_m": 4000,
      "fzfg": false,
      "metar_trigger": false,
      "taf_trigger": false,
      "metar": "METAR LYBE 230400Z 15004KT 4000 BR NSC M03/M04 Q1004 BECMG 2500",
      "taf": "TAF LYBE 222300Z 2300/2324 25004KT 5000 BR NSC TX04/2313Z TNM03/2306Z"
    },
    {
      "icao": "LYNI",
      "alert": "OK",
      "vis_m": 8000,
      "fzfg": false,
      "metar_trigger": false,
      "taf_trigger": false,
      "metar": "METAR LYNI 230400Z 17003KT 8000 NSC M02/M02 Q1004 NOSIG",
      "taf": "TAF LYNI 222300Z 2300/2324 08004KT 9999 SCT090 TX10/2313Z TNM01/2305Z"
    },
    {
      "icao": "LYPG",
      "alert": "OK",
      "vis_m": 2400,
      "fzfg": false,
      "metar_trigger": false,
      "taf_trigger": false,
      "metar": "METAR LYPG 230400Z 25002KT 2400 BR FEW014 BKN034 OVC070 07/06 Q1003 NOSIG",
      "taf": "TAF LYPG 222300Z 2300/2324 36005KT 6000 FEW010 BKN035 OVC070 TX12/2313Z TN05/2305Z"
    },
    {
      "icao": "LZIB",
      "alert": "OK",
      "vis_m": 6000,
      "fzfg": false,
      "metar_trigger": false,
      "taf_trigger": false,
      "metar": "METAR LZIB 230400Z 17001KT 6000 FEW008 OVC016 M02/M04 Q1003 NOSIG",
      "taf": "TAF LZIB 222315Z 2300/2400 08005KT 6000 FEW008 BKN017"
    },
    {
      "icao": "LZKZ",
      "alert": "OK",
      "vis_m": 3800,
      "fzfg": false,
      "metar_trigger": false,
      "taf_trigger": false,
      "metar": "METAR LZKZ 230400Z 06001KT 3800 BR BKN010 OVC014 M01/M02 Q1004 NOSIG",
      "taf": "TAF LZKZ 222315Z 2300/2400 VRB02KT 6000 FEW007 SCT010 OVC030"
    },
    {
      "icao": "LZTT",
      "alert": "OK",
      "vis_m": 6000,
      "fzfg": false,
      "metar_trigger": false,
      "taf_trigger": false,
      "metar": "METAR LZTT 230400Z VRB02KT 6000 BKN004 M03/M04 Q1001",
      "taf": "TAF LZTT 222315Z 2300/2400 VRB02KT 8000 SCT009 BKN016"
    },
    {
      "icao": "OEJN",
      "alert": "OK",
      "vis_m": 6000,
      "fzfg": false,
      "metar_trigger": false,
      "taf_trigger": false,
      "metar": "METAR OEJN 230400Z 12003KT 6000 NSC 25/10 Q1012 NOSIG",
      "taf": "TAF OEJN 222300Z 2300/2406 VRB03KT 7000 NSC"
    },
    {
      "icao": "OEMA",
      "alert": "OK",
      "vis_m": 5000,
      "fzfg": false,
      "metar_trigger": false,
      "taf_trigger": false,
      "metar": "METAR OEMA 230400Z 05008KT 5000 DU NSC 16/M06 Q1019 NOSIG",
      "taf": "TAF OEMA 222300Z 2300/2406 09010KT 7000 NSC"
    },
    {
      "icao": "OJAI",
      "alert": "OK",
      "vis_m": 3000,
      "fzfg": false,
      "metar_trigger": false,
      "taf_trigger": false,
      "metar": "METAR OJAI 230400Z 30002KT 3000 HZ NSC 06/03 Q1013 NOSIG",
      "taf": ""
    },
    {
      "icao": "OMAA",
      "alert": "OK",
      "vis_m": 9999,
      "fzfg": false,
      "metar_trigger": false,
      "taf_trigger": false,
      "metar": "METAR OMAA 230400Z 36002KT CAVOK 14/00 Q1022 NOSIG",
      "taf": "TAF OMAA 222300Z 2300/2406 06006KT 8000 NSC"
    },
    {
      "icao": "OMDB",
      "alert": "OK",
      "vis_m": 9999,
      "fzfg": false,
      "metar_trigger": false,
      "taf_trigger": false,
      "metar": "METAR OMDB 230400Z 05006KT 010V100 CAVOK 17/01 Q1022 NOSIG",
      "taf": "TAF OMDB 222300Z 2300/2406 06006KT 8000 NSC"
    },
    {
      "icao": "UAAA",
      "alert": "OK",
      "vis_m": 9999,
      "fzfg": false,
      "metar_trigger": false,
      "taf_trigger": false,
      "metar": "METAR UAAA 230400Z 05004MPS 9999 BKN050CB OVC100 M03/M06 Q1021 NOSIG",
      "taf": "TAF UAAA 222305Z 2300/2324 32003MPS 3100 -SHSN BR BKN011CB OVC050 TXM03/2308Z TNM10/2302Z"
    },
    {
      "icao": "UBBB",
      "alert": "OK",
      "vis_m": 9999,
      "fzfg": false,
      "metar_trigger": false,
      "taf_trigger": false,
      "metar": "METAR UBBB 230400Z 30004KT CAVOK 00/M01 Q1013 NOSIG",
      "taf": "TAF UBBB 222301Z 2300/2324 31005KT CAVOK TX07/2310Z TNM00/2301Z"
    },
    {
      "icao": "UDSG",
      "alert": "OK",
      "vis_m": 9000,
      "fzfg": false,
      "metar_trigger": false,
      "taf_trigger": false,
      "metar": "METAR UDSG 230400Z 26001KT 9000 BKN043 M10/M12 Q1013 NOSIG",
      "taf": "TAF UDSG 222258Z 2300/2324 VRB06KT 9999 BKN040"
    },
    {
      "icao": "UDYZ",
      "alert": "OK",
      "vis_m": 6000,
      "fzfg": false,
      "metar_trigger": false,
      "taf_trigger": false,
      "metar": "METAR UDYZ 230400Z 14001KT 6000 FEW046 M06/M08 Q1016 NOSIG",
      "taf": "TAF UDYZ 222300Z 2300/2324 23006KT 6000 SCT030"
    },
    {
      "icao": "UGKO",
      "alert": "OK",
      "vis_m": 9999,
      "fzfg": false,
      "metar_trigger": false,
      "taf_trigger": false,
      "metar": "METAR UGKO 230400Z 10013KT 9999 BKN081 08/M06 Q1006 NOSIG",
      "taf": "TAF UGKO 222300Z 2300/2324 08017KT 9999 OVC060 TX08/2311Z TN05/2303Z"
    }
  ]
}