{
  "ts_utc": "2025-12-27T07:53:21Z",
  "threshold_m": 150,
  "source": "stations_override.txt (ICAO list) + aviationweather.gov (METAR/TAF raw)",
  "station_count": 159,
  "stations": [
    {
      "icao": "BIKF",
      "alert": "OK",
      "vis_m": 9999,
      "fzfg": false,
      "metar_trigger": false,
      "taf_trigger": false,
      "metar": "METAR BIKF 270730Z 14008KT 9999 BKN028 03/01 Q1044",
      "taf": "TAF BIKF 270742Z 2709/2809 18014KT 9999 SCT015 BKN025 TX07/2720Z TN03/2709Z"
    },
    {
      "icao": "BKPR",
      "alert": "OK",
      "vis_m": null,
      "fzfg": false,
      "metar_trigger": false,
      "taf_trigger": false,
      "metar": "",
      "taf": "TAF BKPR 270530Z 2706/2806 VRB05KT 9999 BKN025"
    },
    {
      "icao": "EBCI",
      "alert": "OK",
      "vis_m": 9999,
      "fzfg": false,
      "metar_trigger": false,
      "taf_trigger": false,
      "metar": "METAR EBCI 270720Z 05007KT CAVOK M03/M05 Q1030 NOSIG",
      "taf": "TAF EBCI 270501Z 2706/2812 05005KT CAVOK"
    },
    {
      "icao": "EDDB",
      "alert": "OK",
      "vis_m": 4700,
      "fzfg": false,
      "metar_trigger": false,
      "taf_trigger": false,
      "metar": "METAR EDDB 270720Z AUTO 25009KT 4700 BR OVC003 M01/M01 Q1031 TEMPO 3000 BR",
      "taf": "TAF EDDB 270500Z 2706/2806 26004KT 4000 BR OVC006"
    },
    {
      "icao": "EDDH",
      "alert": "OK",
      "vis_m": 7000,
      "fzfg": false,
      "metar_trigger": false,
      "taf_trigger": false,
      "metar": "METAR EDDH 270720Z AUTO 27006KT 230V300 7000 OVC007 03/03 Q1032 BECMG BKN012",
      "taf": ""
    },
    {
      "icao": "EDDK",
      "alert": "OK",
      "vis_m": 9999,
      "fzfg": false,
      "metar_trigger": false,
      "taf_trigger": false,
      "metar": "METAR EDDK 270720Z AUTO VRB02KT CAVOK M05/M06 Q1032 NOSIG",
      "taf": "TAF EDDK 270500Z 2706/2812 VRB03KT CAVOK"
    },
    {
      "icao": "EDDN",
      "alert": "OK",
      "vis_m": 9999,
      "fzfg": false,
      "metar_trigger": false,
      "taf_trigger": false,
      "metar": "METAR EDDN 270720Z AUTO VRB01KT CAVOK M06/M06 Q1030 NOSIG",
      "taf": "TAF EDDN 270500Z 2706/2806 VRB03KT CAVOK"
    },
    {
      "icao": "EDDS",
      "alert": "OK",
      "vis_m": 9999,
      "fzfg": false,
      "metar_trigger": false,
      "taf_trigger": false,
      "metar": "METAR EDDS 270720Z AUTO 29004KT CAVOK M03/M05 Q1028 NOSIG",
      "taf": "TAF EDDS 270500Z 2706/2806 VRB03KT CAVOK"
    },
    {
      "icao": "EDFH",
      "alert": "OK",
      "vis_m": 9999,
      "fzfg": false,
      "metar_trigger": false,
      "taf_trigger": false,
      "metar": "METAR EDFH 270720Z 12008KT CAVOK M01/M07 Q1029",
      "taf": "TAF EDFH 270500Z 2706/2806 10011KT CAVOK"
    },
    {
      "icao": "EDJA",
      "alert": "OK",
      "vis_m": 1500,
      "fzfg": false,
      "metar_trigger": false,
      "taf_trigger": false,
      "metar": "METAR EDJA 270720Z 05004KT 010V100 1500 BR OVC002 M03/M04 Q1028",
      "taf": "TAF EDJA 270500Z 2706/2715 VRB03KT 6000 OVC004"
    },
    {
      "icao": "EDLW",
      "alert": "OK",
      "vis_m": 9999,
      "fzfg": false,
      "metar_trigger": false,
      "taf_trigger": false,
      "metar": "METAR EDLW 270720Z 36002KT CAVOK M04/M06 Q1032",
      "taf": "TAF EDLW 270500Z 2706/2806 VRB03KT CAVOK"
    },
    {
      "icao": "EDNY",
      "alert": "OK",
      "vis_m": 9999,
      "fzfg": false,
      "metar_trigger": false,
      "taf_trigger": false,
      "metar": "METAR EDNY 270720Z 09003KT 9999 OVC010 M02/M04 Q1029",
      "taf": "TAF EDNY 270500Z 2706/2715 VRB03KT 9999 BKN012"
    },
    {
      "icao": "EDSB",
      "alert": "OK",
      "vis_m": 4400,
      "fzfg": false,
      "metar_trigger": false,
      "taf_trigger": false,
      "metar": "METAR EDSB 270720Z 21002KT 4400 BR FEW007 M04/M04 Q1030",
      "taf": "TAF EDSB 270500Z 2706/2806 20004KT 7000 NSC"
    },
    {
      "icao": "EETN",
      "alert": "OK",
      "vis_m": 9999,
      "fzfg": false,
      "metar_trigger": false,
      "taf_trigger": false,
      "metar": "METAR EETN 270750Z 28017KT 9999 SCT012 05/03 Q1004 TEMPO 28018G30KT",
      "taf": "TAF EETN 270530Z 2706/2806 26016G28KT 9999 BKN008 BKN015"
    },
    {
      "icao": "EFTU",
      "alert": "OK",
      "vis_m": 9999,
      "fzfg": false,
      "metar_trigger": false,
      "taf_trigger": false,
      "metar": "METAR EFTU 270750Z AUTO 31011KT 280V350 CAVOK 04/M01 Q1005",
      "taf": "TAF EFTU 270529Z 2706/2806 29012KT CAVOK"
    },
    {
      "icao": "EGBB",
      "alert": "OK",
      "vis_m": 8000,
      "fzfg": false,
      "metar_trigger": false,
      "taf_trigger": false,
      "metar": "METAR EGBB 270720Z 05011KT 8000 OVC004 04/03 Q1036",
      "taf": ""
    },
    {
      "icao": "EGGP",
      "alert": "OK",
      "vis_m": 9999,
      "fzfg": false,
      "metar_trigger": false,
      "taf_trigger": false,
      "metar": "METAR EGGP 270720Z 03008KT CAVOK 02/00 Q1038",
      "taf": "TAF EGGP 270457Z 2706/2806 05008KT CAVOK"
    },
    {
      "icao": "EGGW",
      "alert": "OK",
      "vis_m": 9999,
      "fzfg": false,
      "metar_trigger": false,
      "taf_trigger": false,
      "metar": "METAR EGGW 270720Z AUTO 03011KT 020V080 9999 NCD M00/M01 Q1034",
      "taf": "TAF EGGW 270457Z 2706/2806 03008KT 9999 FEW010"
    },
    {
      "icao": "EGKK",
      "alert": "OK",
      "vis_m": 9999,
      "fzfg": false,
      "metar_trigger": false,
      "taf_trigger": false,
      "metar": "METAR EGKK 270720Z 02008KT CAVOK 03/02 Q1032",
      "taf": "TAF EGKK 270456Z 2706/2812 04009KT 9999 BKN007"
    },
    {
      "icao": "EGNM",
      "alert": "OK",
      "vis_m": 9999,
      "fzfg": false,
      "metar_trigger": false,
      "taf_trigger": false,
      "metar": "METAR EGNM 270720Z 03008KT 9999 SCT013 SCT020 03/02 Q1039",
      "taf": "TAF EGNM 270456Z 2706/2806 05008KT CAVOK"
    },
    {
      "icao": "EGPD",
      "alert": "OK",
      "vis_m": 9999,
      "fzfg": false,
      "metar_trigger": false,
      "taf_trigger": false,
      "metar": "METAR EGPD 270720Z COR AUTO 31009KT 9999 OVC017 05/03 Q1042 NOSIG",
      "taf": "TAF EGPD 270454Z 2706/2806 33006KT 9999 BKN015"
    },
    {
      "icao": "EGPF",
      "alert": "OK",
      "vis_m": 9999,
      "fzfg": false,
      "metar_trigger": false,
      "taf_trigger": false,
      "metar": "METAR EGPF 270720Z AUTO 05008KT 9999 OVC016 05/03 Q1042",
      "taf": "TAF EGPF 270500Z 2706/2806 07008KT 9999 SCT025"
    },
    {
      "icao": "EHBK",
      "alert": "OK",
      "vis_m": 9999,
      "fzfg": false,
      "metar_trigger": false,
      "taf_trigger": false,
      "metar": "METAR EHBK 270725Z AUTO 04009KT 9999 NCD M03/M05 Q1031 NOSIG",
      "taf": "TAF EHBK 270512Z 2706/2812 05007KT CAVOK"
    },
    {
      "icao": "EHEH",
      "alert": "OK",
      "vis_m": 9999,
      "fzfg": false,
      "metar_trigger": false,
      "taf_trigger": false,
      "metar": "METAR EHEH 270725Z AUTO 03008KT 9999 NCD M04/M09 Q1033 BLU NOSIG RMK TREND REMOTE BY EHWX",
      "taf": "TAF EHEH 270508Z 2706/2812 04006KT CAVOK"
    },
    {
      "icao": "EKBI",
      "alert": "OK",
      "vis_m": 9999,
      "fzfg": false,
      "metar_trigger": false,
      "taf_trigger": false,
      "metar": "METAR EKBI 270750Z AUTO 29013KT 9999 BKN009/// 06/06 Q1029",
      "taf": "TAF EKBI 270527Z 2706/2806 29012KT 9999 OVC008"
    },
    {
      "icao": "EKCH",
      "alert": "OK",
      "vis_m": 9999,
      "fzfg": false,
      "metar_trigger": false,
      "taf_trigger": false,
      "metar": "METAR EKCH 270750Z 29013KT 260V320 9999 OVC007 05/04 Q1025 BECMG BKN010",
      "taf": "TAF EKCH 270527Z 2706/2806 28012KT 9999 OVC005"
    },
    {
      "icao": "ENAL",
      "alert": "OK",
      "vis_m": 9999,
      "fzfg": false,
      "metar_trigger": false,
      "taf_trigger": false,
      "metar": "METAR ENAL 270720Z 32018KT 9999 FEW034 SCT045 BKN058 05/M03 Q1036",
      "taf": "TAF ENAL 270500Z 2706/2715 30018KT 9999 FEW030 BKN040"
    },
    {
      "icao": "ENBR",
      "alert": "OK",
      "vis_m": 9999,
      "fzfg": false,
      "metar_trigger": false,
      "taf_trigger": false,
      "metar": "METAR ENBR 270720Z 34017KT 9999 FEW039 05/01 Q1035 TEMPO 33018G28KT RMK WIND 1200FT 34029G41KT",
      "taf": "TAF ENBR 270500Z 2706/2806 35015KT 9999 FEW040"
    },
    {
      "icao": "ENGM",
      "alert": "OK",
      "vis_m": 9999,
      "fzfg": false,
      "metar_trigger": false,
      "taf_trigger": false,
      "metar": "METAR ENGM 270720Z 02003KT 340V070 CAVOK M02/M04 Q1023 NOSIG",
      "taf": "TAF ENGM 270500Z 2706/2806 VRB03KT CAVOK"
    },
    {
      "icao": "ENHD",
      "alert": "OK",
      "vis_m": 9999,
      "fzfg": false,
      "metar_trigger": false,
      "taf_trigger": false,
      "metar": "METAR ENHD 270720Z AUTO 36027KT 9999 FEW030/// SCT037/// 07/03 Q1033",
      "taf": "TAF ENHD 270500Z 2706/2715 35020KT 9999 BKN030"
    },
    {
      "icao": "ENTC",
      "alert": "OK",
      "vis_m": 9999,
      "fzfg": false,
      "metar_trigger": false,
      "taf_trigger": false,
      "metar": "METAR ENTC 270720Z 26006KT 9999 -DZ OVC042 02/M00 Q0991 TEMPO 34035G50KT 2000 SHSNRA BKN008 SCT020CB RMK WIND 2600FT 31018KT",
      "taf": "TAF ENTC 270500Z 2706/2806 22015KT 9999 -SHSNRA FEW012 SCT020 BKN040"
    },
    {
      "icao": "ENTO",
      "alert": "OK",
      "vis_m": 9999,
      "fzfg": false,
      "metar_trigger": false,
      "taf_trigger": false,
      "metar": "METAR ENTO 270720Z 29007KT CAVOK 06/M03 Q1023 NOSIG",
      "taf": "TAF ENTO 270500Z 2706/2806 30008KT CAVOK"
    },
    {
      "icao": "ENVA",
      "alert": "OK",
      "vis_m": 9999,
      "fzfg": false,
      "metar_trigger": false,
      "taf_trigger": false,
      "metar": "METAR ENVA 270720Z 29028G40KT 9999 -DZRA OVC034CB 04/M01 Q1024 RERA RESN TEMPO 29025KT 2000 SHRASN BKN012CB RMK WIND 670FT 30037KT",
      "taf": "TAF ENVA 270500Z 2706/2806 29030G45KT 9999 -SHRA SCT012 BKN030"
    },
    {
      "icao": "ENZV",
      "alert": "OK",
      "vis_m": 9999,
      "fzfg": false,
      "metar_trigger": false,
      "taf_trigger": false,
      "metar": "METAR ENZV 270720Z 35020KT 9999 FEW019 SCT038 06/01 Q1033 TEMPO 33025G35KT",
      "taf": "TAF ENZV 270500Z 2706/2806 33018KT 9999 FEW008"
    },
    {
      "icao": "EPGD",
      "alert": "OK",
      "vis_m": 6000,
      "fzfg": false,
      "metar_trigger": false,
      "taf_trigger": false,
      "metar": "METAR EPGD 270730Z 27018KT 6000 -DZ OVC003 03/03 Q1021",
      "taf": "TAF EPGD 270530Z 2706/2806 28013KT 9999 OVC003"
    },
    {
      "icao": "EPKK",
      "alert": "OK",
      "vis_m": 6000,
      "fzfg": false,
      "metar_trigger": false,
      "taf_trigger": false,
      "metar": "METAR EPKK 270730Z 25011KT 6000 OVC007 M02/M03 Q1028",
      "taf": "TAF EPKK 270530Z 2706/2806 25005KT 5000 BR OVC011"
    },
    {
      "icao": "EPKT",
      "alert": "OK",
      "vis_m": 1500,
      "fzfg": false,
      "metar_trigger": false,
      "taf_trigger": false,
      "metar": "METAR EPKT 270730Z 27010KT 1500 -SN BR OVC002 M03/M04 Q1028",
      "taf": ""
    },
    {
      "icao": "EPLB",
      "alert": "OK",
      "vis_m": 1600,
      "fzfg": false,
      "metar_trigger": false,
      "taf_trigger": false,
      "metar": "METAR EPLB 270730Z 29013KT 1600 -DZ BR OVC002 00/00 Q1023",
      "taf": "TAF EPLB 270530Z 2706/2806 28010KT 4000 BR OVC003"
    },
    {
      "icao": "EPMO",
      "alert": "OK",
      "vis_m": 1800,
      "fzfg": false,
      "metar_trigger": false,
      "taf_trigger": false,
      "metar": "METAR EPMO 270730Z 27013KT 1800 -DZ BR OVC002 01/01 Q1024",
      "taf": ""
    },
    {
      "icao": "EPPO",
      "alert": "OK",
      "vis_m": 3300,
      "fzfg": false,
      "metar_trigger": false,
      "taf_trigger": false,
      "metar": "METAR EPPO 270730Z 27012KT 3300 BR OVC001 M01/M01 Q1028",
      "taf": "TAF EPPO 270530Z 2706/2806 28008KT 5000 BR OVC002"
    },
    {
      "icao": "EPRA",
      "alert": "OK",
      "vis_m": 1200,
      "fzfg": false,
      "metar_trigger": false,
      "taf_trigger": false,
      "metar": "METAR EPRA 270730Z 28011KT 1200 R07/P2000N -FZDZ BR OVC003 M01/M01 Q1025",
      "taf": ""
    },
    {
      "icao": "EPRZ",
      "alert": "OK",
      "vis_m": 6000,
      "fzfg": false,
      "metar_trigger": false,
      "taf_trigger": false,
      "metar": "METAR EPRZ 270730Z 28015KT 6000 OVC004 M01/M01 Q1026",
      "taf": "TAF EPRZ 270530Z 2706/2806 27010KT 5000 BR OVC003"
    },
    {
      "icao": "EPSC",
      "alert": "OK",
      "vis_m": 1200,
      "fzfg": false,
      "metar_trigger": false,
      "taf_trigger": false,
      "metar": "METAR EPSC 270730Z 24004KT 180V280 1200 R31/1500N -DZ BR OVC001 02/02 Q1029",
      "taf": ""
    },
    {
      "icao": "EPSY",
      "alert": "OK",
      "vis_m": 2100,
      "fzfg": false,
      "metar_trigger": false,
      "taf_trigger": false,
      "metar": "METAR EPSY 270730Z 27007KT 240V310 2100 -DZ BR OVC001 03/02 Q1022",
      "taf": "TAF EPSY 270530Z 2706/2715 28010KT 4000 BR OVC002"
    },
    {
      "icao": "EPWA",
      "alert": "OK",
      "vis_m": 1500,
      "fzfg": false,
      "metar_trigger": false,
      "taf_trigger": false,
      "metar": "METAR EPWA 270730Z 27011KT 1500 -DZ BR OVC002 01/01 Q1025 TEMPO 1200",
      "taf": "TAF EPWA 270530Z 2706/2806 27010KT 2500 BR OVC002"
    },
    {
      "icao": "EPWR",
      "alert": "OK",
      "vis_m": 9999,
      "fzfg": false,
      "metar_trigger": false,
      "taf_trigger": false,
      "metar": "METAR EPWR 270730Z 27008KT 9999 -SG OVC005 M02/M02 Q1030",
      "taf": "TAF EPWR 270530Z 2706/2806 27006KT 7000 BKN011"
    },
    {
      "icao": "ESGG",
      "alert": "OK",
      "vis_m": 1600,
      "fzfg": false,
      "metar_trigger": false,
      "taf_trigger": false,
      "metar": "METAR ESGG 270720Z 27008KT 230V290 1600 VV002 04/04 Q1022",
      "taf": "TAF ESGG 270530Z 2706/2806 24009KT 0100 FG VV002"
    },
    {
      "icao": "ESKN",
      "alert": "OK",
      "vis_m": 9999,
      "fzfg": false,
      "metar_trigger": false,
      "taf_trigger": false,
      "metar": "METAR ESKN 270720Z 29012KT CAVOK 02/00 Q1016",
      "taf": "TAF ESKN 270530Z 2706/2806 29012KT CAVOK"
    },
    {
      "icao": "ESMS",
      "alert": "OK",
      "vis_m": 7000,
      "fzfg": false,
      "metar_trigger": false,
      "taf_trigger": false,
      "metar": "METAR ESMS 270720Z 28012KT 7000 OVC003 03/03 Q1024",
      "taf": ""
    },
    {
      "icao": "ESSA",
      "alert": "OK",
      "vis_m": 9999,
      "fzfg": false,
      "metar_trigger": false,
      "taf_trigger": false,
      "metar": "METAR ESSA 270720Z 29010KT CAVOK 00/M04 Q1014 NOSIG",
      "taf": "TAF ESSA 270530Z 2706/2806 27010KT CAVOK"
    },
    {
      "icao": "EYKA",
      "alert": "OK",
      "vis_m": 9999,
      "fzfg": false,
      "metar_trigger": false,
      "taf_trigger": false,
      "metar": "METAR EYKA 270750Z 27013KT 9999 OVC005 05/04 Q1014",
      "taf": "TAF EYKA 270527Z 2706/2806 27013KT 5000 -DZ BR OVC005"
    },
    {
      "icao": "EYPA",
      "alert": "OK",
      "vis_m": 9999,
      "fzfg": false,
      "metar_trigger": false,
      "taf_trigger": false,
      "metar": "METAR EYPA 270750Z VRB07KT 9999 SCT009 07/05 Q1014",
      "taf": "TAF EYPA 270526Z 2706/2806 27007G17KT 9000 SCT015"
    },
    {
      "icao": "EYVI",
      "alert": "OK",
      "vis_m": 4800,
      "fzfg": false,
      "metar_trigger": false,
      "taf_trigger": false,
      "metar": "METAR EYVI 270750Z 26008KT 4800 BR OVC003 03/02 Q1013 NOSIG",
      "taf": "TAF EYVI 270520Z 2706/2806 30008KT 5000 BR OVC002"
    },
    {
      "icao": "GCFV",
      "alert": "OK",
      "vis_m": 9999,
      "fzfg": false,
      "metar_trigger": false,
      "taf_trigger": false,
      "metar": "METAR GCFV 270730Z 19004KT 150V230 9999 FEW030 14/10 Q1017",
      "taf": "TAF GCFV 270200Z 2703/2803 27005KT 9999 SCT025 TX22/2714Z TN14/2706Z"
    },
    {
      "icao": "GCLP",
      "alert": "OK",
      "vis_m": 9999,
      "fzfg": false,
      "metar_trigger": false,
      "taf_trigger": false,
      "metar": "METAR GCLP 270730Z 26006KT 9999 FEW040 15/09 Q1018 NOSIG",
      "taf": "TAF GCLP 270200Z 2703/2803 28005KT 9999 SCT030 TX20/2714Z TN14/2706Z"
    },
    {
      "icao": "GCTS",
      "alert": "OK",
      "vis_m": 9999,
      "fzfg": false,
      "metar_trigger": false,
      "taf_trigger": false,
      "metar": "METAR GCTS 270730Z 01007KT 9999 FEW040 15/08 Q1018 NOSIG",
      "taf": "TAF GCTS 270200Z 2703/2803 36005KT 9999 FEW040 TX23/2714Z TN15/2706Z"
    },
    {
      "icao": "GMAD",
      "alert": "OK",
      "vis_m": 8000,
      "fzfg": false,
      "metar_trigger": false,
      "taf_trigger": false,
      "metar": "METAR GMAD 270730Z 07005KT 050V110 8000 BKN020 BKN080 11/11 Q1015 NOSIG",
      "taf": "TAF GMAD 270500Z 2706/2812 02003KT 9999 FEW020 SCT08"
    },
    {
      "icao": "GMMN",
      "alert": "OK",
      "vis_m": 5000,
      "fzfg": false,
      "metar_trigger": false,
      "taf_trigger": false,
      "metar": "METAR GMMN 270730Z 21015KT 5000 RA SCT008 BKN016TCU 11/10 Q1010 TEMPO 3000",
      "taf": ""
    },
    {
      "icao": "GMMX",
      "alert": "OK",
      "vis_m": 8000,
      "fzfg": false,
      "metar_trigger": false,
      "taf_trigger": false,
      "metar": "METAR GMMX 270730Z 13006KT 8000 SCT023 SCT080 08/05 Q1011 NOSIG",
      "taf": "TAF GMMX 270500Z 2706/2812 26006KT 8000 SCT023 BKN090"
    },
    {
      "icao": "HEGN",
      "alert": "OK",
      "vis_m": 9999,
      "fzfg": false,
      "metar_trigger": false,
      "taf_trigger": false,
      "metar": "METAR HEGN 270700Z 31015KT CAVOK 18/10 Q1015 NOSIG",
      "taf": "TAF HEGN 270500Z 2706/2812 34016KT CAVOK"
    },
    {
      "icao": "HEMA",
      "alert": "OK",
      "vis_m": 9999,
      "fzfg": false,
      "metar_trigger": false,
      "taf_trigger": false,
      "metar": "METAR HEMA 270700Z 29010KT CAVOK 20/08 Q1013 NOSIG",
      "taf": "TAF HEMA 270500Z 2706/2812 35016KT CAVOK"
    },
    {
      "icao": "HESH",
      "alert": "OK",
      "vis_m": 9999,
      "fzfg": false,
      "metar_trigger": false,
      "taf_trigger": false,
      "metar": "METAR HESH 270700Z 34010KT CAVOK 20/07 Q1013 NOSIG",
      "taf": "TAF HESH 270500Z 2706/2812 36014KT CAVOK"
    },
    {
      "icao": "HESX",
      "alert": "OK",
      "vis_m": 9999,
      "fzfg": false,
      "metar_trigger": false,
      "taf_trigger": false,
      "metar": "METAR HESX 270700Z 24007KT CAVOK 13/09 Q1015 NOSIG",
      "taf": "TAF HESX 270500Z 2706/2812 VRB03KT 6000 NSC"
    },
    {
      "icao": "LATI",
      "alert": "OK",
      "vis_m": 9999,
      "fzfg": false,
      "metar_trigger": false,
      "taf_trigger": false,
      "metar": "METAR LATI 270750Z VRB03KT CAVOK 04/01 Q1021 NOSIG",
      "taf": "TAF LATI 270500Z 2706/2806 VRB05KT CAVOK TX15/2712Z TN00/2805Z"
    },
    {
      "icao": "LBPD",
      "alert": "OK",
      "vis_m": 9999,
      "fzfg": false,
      "metar_trigger": false,
      "taf_trigger": false,
      "metar": "METAR LBPD 270730Z AUTO 28017KT 9999 NCD 06/M02 Q1022 NOSIG",
      "taf": "TAF LBPD 270500Z 2706/2806 29018KT 9999 SCT020"
    },
    {
      "icao": "LBSF",
      "alert": "OK",
      "vis_m": 9999,
      "fzfg": false,
      "metar_trigger": false,
      "taf_trigger": false,
      "metar": "METAR LBSF 270730Z 29011KT 260V320 9999 OVC016 01/M03 Q1024 NOSIG",
      "taf": "TAF LBSF 270500Z 2706/2806 29016KT 9999 BKN015"
    },
    {
      "icao": "LBWN",
      "alert": "OK",
      "vis_m": 9999,
      "fzfg": false,
      "metar_trigger": false,
      "taf_trigger": false,
      "metar": "METAR LBWN 270730Z 32011KT CAVOK 02/M02 Q1021 NOSIG",
      "taf": "TAF LBWN 270500Z 2706/2806 32012KT 9999 SCT030"
    },
    {
      "icao": "LCLK",
      "alert": "OK",
      "vis_m": 9999,
      "fzfg": false,
      "metar_trigger": false,
      "taf_trigger": false,
      "metar": "METAR LCLK 270730Z 28008KT 9999 FEW020 FEW025CB FEW030TCU 20/11 Q1008 NOSIG RMK DISTANT CB TO NE",
      "taf": "TAF LCLK 270530Z 2706/2806 28009KT 9999 FEW025"
    },
    {
      "icao": "LCPH",
      "alert": "OK",
      "vis_m": 9999,
      "fzfg": false,
      "metar_trigger": false,
      "taf_trigger": false,
      "metar": "METAR LCPH 270730Z 32008KT 290V350 9999 FEW030 FEW035TCU FEW038CB SCT050 17/10 Q1009 NOSIG",
      "taf": "TAF LCPH 270530Z 2706/2806 29009KT 9999 FEW020 SCT035"
    },
    {
      "icao": "LEAL",
      "alert": "OK",
      "vis_m": 9999,
      "fzfg": false,
      "metar_trigger": false,
      "taf_trigger": false,
      "metar": "METAR LEAL 270730Z VRB01KT 9999 FEW048 07/06 Q1016 NOSIG",
      "taf": "TAF LEAL 270500Z 2706/2806 31005KT 9999 SCT030 TX15/2713Z TN07/2706Z"
    },
    {
      "icao": "LEBB",
      "alert": "OK",
      "vis_m": 150,
      "fzfg": false,
      "metar_trigger": false,
      "taf_trigger": false,
      "metar": "METAR LEBB 270730Z VRB02KT 0150 R30/0550N R12/0500N FG BKN002 05/05 Q1019 NOSIG",
      "taf": ""
    },
    {
      "icao": "LEBL",
      "alert": "OK",
      "vis_m": 6000,
      "fzfg": false,
      "metar_trigger": false,
      "taf_trigger": false,
      "metar": "METAR LEBL 270730Z 07017KT 6000 -SHRA FEW015TCU OVC018 OVC040 14/12 Q1018 TEMPO 4000",
      "taf": ""
    },
    {
      "icao": "LECH",
      "alert": "OK",
      "vis_m": 9999,
      "fzfg": false,
      "metar_trigger": false,
      "taf_trigger": false,
      "metar": "METAR LECH 270730Z AUTO 03008KT 350V060 9999 FEW022 SCT028 BKN045 09/08 Q1017",
      "taf": ""
    },
    {
      "icao": "LEMD",
      "alert": "OK",
      "vis_m": 9999,
      "fzfg": false,
      "metar_trigger": false,
      "taf_trigger": false,
      "metar": "METAR LEMD 270730Z VRB01KT 9999 FEW034 BKN070 M00/M00 Q1016 NOSIG",
      "taf": "TAF LEMD 270500Z 2706/2812 VRB03KT CAVOK TX12/2715Z TN00/2706Z"
    },
    {
      "icao": "LEMG",
      "alert": "OK",
      "vis_m": 9999,
      "fzfg": false,
      "metar_trigger": false,
      "taf_trigger": false,
      "metar": "METAR LEMG 270730Z 29008KT 9999 BKN045 04/04 Q1013 NOSIG",
      "taf": "TAF LEMG 270500Z 2706/2806 29005KT 9999 FEW045 TX15/2714Z TN05/2706Z"
    },
    {
      "icao": "LEVC",
      "alert": "OK",
      "vis_m": 9999,
      "fzfg": false,
      "metar_trigger": false,
      "taf_trigger": false,
      "metar": "METAR LEVC 270730Z 31005KT 9999 SCT015 FEW025CB BKN050 10/09 Q1016 NOSIG",
      "taf": "TAF LEVC 270500Z 2706/2806 VRB05KT 9999 FEW025 BKN030 TX14/2713Z TN07/2706Z"
    },
    {
      "icao": "LEXJ",
      "alert": "OK",
      "vis_m": 7000,
      "fzfg": false,
      "metar_trigger": false,
      "taf_trigger": false,
      "metar": "METAR LEXJ 270730Z VRB02KT 7000 BCFG NSC 03/02 Q1018",
      "taf": "TAF LEXJ 270200Z 2703/2803 VRB03KT 9999 FEW045 TX13/2714Z TN03/2708Z"
    },
    {
      "icao": "LEZG",
      "alert": "OK",
      "vis_m": 9000,
      "fzfg": false,
      "metar_trigger": false,
      "taf_trigger": false,
      "metar": "METAR LEZG 270730Z 00000KT 9000 -RA OVC010 07/07 Q1019 NOSIG",
      "taf": ""
    },
    {
      "icao": "LEZL",
      "alert": "OK",
      "vis_m": 9999,
      "fzfg": false,
      "metar_trigger": false,
      "taf_trigger": false,
      "metar": "METAR LEZL 270730Z 06007KT CAVOK 06/06 Q1012 NOSIG",
      "taf": "TAF LEZL 270200Z 2703/2803 07007KT 9999 FEW030 TX16/2715Z TN05/2706Z"
    },
    {
      "icao": "LFBD",
      "alert": "OK",
      "vis_m": 9999,
      "fzfg": false,
      "metar_trigger": false,
      "taf_trigger": false,
      "metar": "METAR LFBD 270730Z AUTO 05007KT CAVOK 06/01 Q1021 NOSIG",
      "taf": "TAF LFBD 270500Z 2706/2812 06005KT CAVOK TX12/2714Z TN03/2707Z"
    },
    {
      "icao": "LFLL",
      "alert": "OK",
      "vis_m": 5000,
      "fzfg": false,
      "metar_trigger": false,
      "taf_trigger": false,
      "metar": "METAR LFLL 270730Z VRB01KT 5000 BR BKN006 01/M00 Q1026 NOSIG",
      "taf": "TAF LFLL 270700Z 2707/2812 VRB04KT 6000 BKN007"
    },
    {
      "icao": "LFLS",
      "alert": "OK",
      "vis_m": 6000,
      "fzfg": false,
      "metar_trigger": false,
      "taf_trigger": false,
      "metar": "METAR LFLS 270730Z AUTO 10007KT 6000 NSC M02/M03 Q1025 NOSIG",
      "taf": "TAF LFLS 270200Z 2706/2803 09006KT 8000 FEW010"
    },
    {
      "icao": "LFMN",
      "alert": "OK",
      "vis_m": 9999,
      "fzfg": false,
      "metar_trigger": false,
      "taf_trigger": false,
      "metar": "METAR LFMN 270730Z 33013KT 9999 FEW110 07/M00 Q1023 NOSIG",
      "taf": "TAF LFMN 270200Z 2703/2809 33010KT CAVOK"
    },
    {
      "icao": "LFOB",
      "alert": "OK",
      "vis_m": 8000,
      "fzfg": false,
      "metar_trigger": false,
      "taf_trigger": false,
      "metar": "METAR LFOB 270730Z AUTO 04006KT 8000 NSC M03/M04 Q1028 NOSIG",
      "taf": "TAF LFOB 270500Z 2706/2806 01006KT 8000 NSC"
    },
    {
      "icao": "LFPO",
      "alert": "OK",
      "vis_m": 9999,
      "fzfg": false,
      "metar_trigger": false,
      "taf_trigger": false,
      "metar": "METAR LFPO 270730Z AUTO 05008KT CAVOK M01/M03 Q1027 NOSIG",
      "taf": "TAF LFPO 270500Z 2706/2812 03008KT CAVOK"
    },
    {
      "icao": "LFSB",
      "alert": "OK",
      "vis_m": 9999,
      "fzfg": false,
      "metar_trigger": false,
      "taf_trigger": false,
      "metar": "METAR LFSB 270730Z AUTO 04005KT 020V080 9999 BKN016 00/M02 Q1029 NOSIG",
      "taf": "TAF LFSB 270500Z 2706/2806 11008KT 9999 BKN014"
    },
    {
      "icao": "LGAV",
      "alert": "OK",
      "vis_m": 9999,
      "fzfg": false,
      "metar_trigger": false,
      "taf_trigger": false,
      "metar": "METAR LGAV 270720Z VRB03KT 9999 FEW018 BKN025 11/06 Q1020 NOSIG",
      "taf": "TAF LGAV 270500Z 2706/2806 35010KT 9999 FEW020 SCT040"
    },
    {
      "icao": "LGTS",
      "alert": "OK",
      "vis_m": 9999,
      "fzfg": false,
      "metar_trigger": false,
      "taf_trigger": false,
      "metar": "METAR LGTS 270720Z 33016G26KT CAVOK 07/01 Q1023 NOSIG",
      "taf": "TAF LGTS 270500Z 2706/2806 33015KT 9999 FEW025"
    },
    {
      "icao": "LHBP",
      "alert": "OK",
      "vis_m": 5000,
      "fzfg": false,
      "metar_trigger": false,
      "taf_trigger": false,
      "metar": "METAR LHBP 270730Z VRB01KT 5000 BR NSC M06/M06 Q1028 TEMPO TL0830 4000 BR",
      "taf": "TAF LHBP 270515Z 2706/2806 VRB02KT 6000 NSC"
    },
    {
      "icao": "LHDC",
      "alert": "OK",
      "vis_m": 8000,
      "fzfg": false,
      "metar_trigger": false,
      "taf_trigger": false,
      "metar": "METAR LHDC 270715Z AUTO VRB02KT 8000 NCD M02/M03 Q1028 NOSIG",
      "taf": "TAF LHDC 270515Z 2706/2715 32005KT CAVOK"
    },
    {
      "icao": "LIBD",
      "alert": "OK",
      "vis_m": 9999,
      "fzfg": false,
      "metar_trigger": false,
      "taf_trigger": false,
      "metar": "METAR LIBD 270720Z 26007KT 9999 SCT023 08/06 Q1023",
      "taf": "TAF LIBD 270500Z 2706/2806 26007KT 9999 FEW020"
    },
    {
      "icao": "LIBG",
      "alert": "OK",
      "vis_m": 9999,
      "fzfg": false,
      "metar_trigger": false,
      "taf_trigger": false,
      "metar": "SPECI LIBG 270650Z 32004KT 250V010 CAVOK 11/09 Q1022",
      "taf": "TAF LIBG 270718Z 2708/2715 VRB05KT CAVOK"
    },
    {
      "icao": "LIBP",
      "alert": "OK",
      "vis_m": 9999,
      "fzfg": false,
      "metar_trigger": false,
      "taf_trigger": false,
      "metar": "METAR LIBP 270720Z AUTO 23004KT 200V260 9999 OVC028/// 08/06 Q1027",
      "taf": "TAF LIBP 270500Z 2706/2806 VRB05KT 9999 BKN030"
    },
    {
      "icao": "LIBR",
      "alert": "OK",
      "vis_m": 9999,
      "fzfg": false,
      "metar_trigger": false,
      "taf_trigger": false,
      "metar": "METAR LIBR 270720Z 36014KT 9999 BKN028 13/07 Q1021",
      "taf": "TAF LIBR 270500Z 2706/2806 35015KT 9999 FEW030"
    },
    {
      "icao": "LICA",
      "alert": "OK",
      "vis_m": 9999,
      "fzfg": false,
      "metar_trigger": false,
      "taf_trigger": false,
      "metar": "METAR LICA 270720Z AUTO 03009KT 9999 NCD 12/06 Q1020",
      "taf": "TAF LICA 270500Z 2706/2806 04010KT CAVOK"
    },
    {
      "icao": "LICC",
      "alert": "OK",
      "vis_m": 9999,
      "fzfg": false,
      "metar_trigger": false,
      "taf_trigger": false,
      "metar": "METAR LICC 270720Z 06020KT 9999 BKN020 15/13 Q1020",
      "taf": "TAF LICC 270500Z 2706/2806 07016KT 9999 SCT040"
    },
    {
      "icao": "LICJ",
      "alert": "OK",
      "vis_m": 9999,
      "fzfg": false,
      "metar_trigger": false,
      "taf_trigger": false,
      "metar": "METAR LICJ 270720Z VRB02KT CAVOK 12/07 Q1019",
      "taf": "TAF LICJ 270500Z 2706/2806 15007KT 9999 FEW040"
    },
    {
      "icao": "LIMC",
      "alert": "OK",
      "vis_m": 9999,
      "fzfg": false,
      "metar_trigger": false,
      "taf_trigger": false,
      "metar": "METAR LIMC 270720Z 02003KT 9999 MIFG NSC 02/01 Q1028 NOSIG",
      "taf": "TAF LIMC 270500Z 2706/2812 VRB05KT 7000 FEW030"
    },
    {
      "icao": "LIME",
      "alert": "OK",
      "vis_m": 9999,
      "fzfg": false,
      "metar_trigger": false,
      "taf_trigger": false,
      "metar": "METAR LIME 270720Z 35003KT CAVOK 01/00 Q1028 NOSIG",
      "taf": "TAF LIME 270500Z 2706/2806 VRB05KT 7000 FEW030"
    },
    {
      "icao": "LIMF",
      "alert": "OK",
      "vis_m": 9999,
      "fzfg": false,
      "metar_trigger": false,
      "taf_trigger": false,
      "metar": "METAR LIMF 270720Z 19004KT 150V270 CAVOK 01/M01 Q1028",
      "taf": "TAF LIMF 270500Z 2706/2806 VRB05KT 9999 FEW040"
    },
    {
      "icao": "LIMJ",
      "alert": "OK",
      "vis_m": 9999,
      "fzfg": false,
      "metar_trigger": false,
      "taf_trigger": false,
      "metar": "METAR LIMJ 270720Z 03019KT CAVOK 08/01 Q1026",
      "taf": "TAF LIMJ 270500Z 2706/2806 03015KT CAVOK"
    },
    {
      "icao": "LIPE",
      "alert": "OK",
      "vis_m": 9999,
      "fzfg": false,
      "metar_trigger": false,
      "taf_trigger": false,
      "metar": "METAR LIPE 270720Z 21004KT CAVOK 00/M00 Q1029",
      "taf": "TAF LIPE 270500Z 2706/2806 VRB05KT CAVOK"
    },
    {
      "icao": "LIPH",
      "alert": "OK",
      "vis_m": 9999,
      "fzfg": false,
      "metar_trigger": false,
      "taf_trigger": false,
      "metar": "METAR LIPH 270720Z VRB02KT CAVOK M00/M01 Q1027",
      "taf": "TAF LIPH 270500Z 2706/2806 VRB03KT CAVOK"
    },
    {
      "icao": "LIPQ",
      "alert": "OK",
      "vis_m": 9999,
      "fzfg": false,
      "metar_trigger": false,
      "taf_trigger": false,
      "metar": "METAR LIPQ 270720Z AUTO 34004KT 290V360 9999 NCD M01/M02 Q1028",
      "taf": "TAF LIPQ 270500Z 2706/2806 VRB04KT CAVOK"
    },
    {
      "icao": "LIPR",
      "alert": "OK",
      "vis_m": 9999,
      "fzfg": false,
      "metar_trigger": false,
      "taf_trigger": false,
      "metar": "METAR LIPR 270720Z 29008KT CAVOK 05/02 Q1028",
      "taf": "TAF LIPR 270500Z 2706/2806 29010KT 9999 FEW020"
    },
    {
      "icao": "LIPX",
      "alert": "OK",
      "vis_m": 9999,
      "fzfg": false,
      "metar_trigger": false,
      "taf_trigger": false,
      "metar": "METAR LIPX 270720Z 30003KT CAVOK 03/M01 Q1027",
      "taf": "TAF LIPX 270500Z 2706/2806 VRB05KT 7000 NSC"
    },
    {
      "icao": "LIPY",
      "alert": "OK",
      "vis_m": 9999,
      "fzfg": false,
      "metar_trigger": false,
      "taf_trigger": false,
      "metar": "METAR LIPY 270720Z AUTO 29008KT 250V320 9999 FEW030/// 07/03 Q1027",
      "taf": "TAF LIPY 270500Z 2706/2806 VRB05KT 9999 BKN030"
    },
    {
      "icao": "LIPZ",
      "alert": "OK",
      "vis_m": 9999,
      "fzfg": false,
      "metar_trigger": false,
      "taf_trigger": false,
      "metar": "METAR LIPZ 270720Z 30004KT CAVOK 01/M01 Q1027 NOSIG",
      "taf": "TAF LIPZ 270500Z 2706/2812 VRB05KT CAVOK"
    },
    {
      "icao": "LIRF",
      "alert": "OK",
      "vis_m": 9999,
      "fzfg": false,
      "metar_trigger": false,
      "taf_trigger": false,
      "metar": "METAR LIRF 270720Z 05006KT CAVOK 06/03 Q1023 NOSIG",
      "taf": "TAF LIRF 270500Z 2706/2812 05010KT CAVOK"
    },
    {
      "icao": "LIRN",
      "alert": "OK",
      "vis_m": 9999,
      "fzfg": false,
      "metar_trigger": false,
      "taf_trigger": false,
      "metar": "METAR LIRN 270720Z AUTO 01006KT 9999 FEW230/// 09/04 Q1022",
      "taf": "TAF LIRN 270500Z 2706/2806 03011KT CAVOK"
    },
    {
      "icao": "LIRP",
      "alert": "OK",
      "vis_m": 9999,
      "fzfg": false,
      "metar_trigger": false,
      "taf_trigger": false,
      "metar": "METAR LIRP 270715Z 06005KT CAVOK 05/02 Q1025 NOSIG",
      "taf": "TAF LIRP 270500Z 2706/2806 11009KT CAVOK"
    },
    {
      "icao": "LIRZ",
      "alert": "OK",
      "vis_m": 9999,
      "fzfg": false,
      "metar_trigger": false,
      "taf_trigger": false,
      "metar": "METAR LIRZ 270720Z AUTO 01009KT 9999 NCD 06/03 Q1025",
      "taf": "TAF LIRZ 270500Z 2706/2806 01010KT 9999 FEW030"
    },
    {
      "icao": "LJLJ",
      "alert": "OK",
      "vis_m": 400,
      "fzfg": true,
      "metar_trigger": false,
      "taf_trigger": false,
      "metar": "METAR LJLJ 270730Z VRB02KT 0400 R30/0500N FZFG VV001 M03/M04 Q1030 NOSIG",
      "taf": "TAF LJLJ 270500Z 2706/2806 30002KT 0400 FZFG VV002"
    },
    {
      "icao": "LKMT",
      "alert": "OK",
      "vis_m": 6000,
      "fzfg": false,
      "metar_trigger": false,
      "taf_trigger": false,
      "metar": "METAR LKMT 270730Z VRB02KT 6000 OVC006 M03/M04 Q1029 TEMPO OVC004",
      "taf": "TAF LKMT 270500Z 2706/2806 02004KT 4000 BR OVC011"
    },
    {
      "icao": "LKPR",
      "alert": "OK",
      "vis_m": 9999,
      "fzfg": false,
      "metar_trigger": false,
      "taf_trigger": false,
      "metar": "METAR LKPR 270730Z 20005KT CAVOK M05/M07 Q1029 NOSIG",
      "taf": "TAF LKPR 270500Z 2706/2812 23004KT CAVOK"
    },
    {
      "icao": "LLBG",
      "alert": "OK",
      "vis_m": 9999,
      "fzfg": false,
      "metar_trigger": false,
      "taf_trigger": false,
      "metar": "METAR LLBG 270720Z 19010KT 9999 FEW015 FEW025TCU BKN040 16/13 Q1013 TEMPO 7000 RA RMK RERA",
      "taf": "TAF LLBG 270501Z 2706/2806 22012KT 9999 SCT030"
    },
    {
      "icao": "LMML",
      "alert": "OK",
      "vis_m": 9999,
      "fzfg": false,
      "metar_trigger": false,
      "taf_trigger": false,
      "metar": "METAR LMML 270745Z 07014KT 9999 FEW021 17/12 Q1017 NOSIG",
      "taf": "TAF LMML 270500Z 2706/2806 09015KT 9999 SCT020"
    },
    {
      "icao": "LOWW",
      "alert": "OK",
      "vis_m": 9999,
      "fzfg": false,
      "metar_trigger": false,
      "taf_trigger": false,
      "metar": "METAR LOWW 270720Z 34006KT CAVOK M04/M05 Q1030 NOSIG",
      "taf": "TAF LOWW 270515Z 2706/2812 34007KT CAVOK TX04/2812Z TNM02/2707Z"
    },
    {
      "icao": "LPFR",
      "alert": "OK",
      "vis_m": 9999,
      "fzfg": false,
      "metar_trigger": false,
      "taf_trigger": false,
      "metar": "METAR LPFR 270730Z 06018KT 9999 FEW015 BKN023 10/06 Q1008",
      "taf": "TAF LPFR 270500Z 2706/2806 06015KT CAVOK"
    },
    {
      "icao": "LPMA",
      "alert": "OK",
      "vis_m": 9999,
      "fzfg": false,
      "metar_trigger": false,
      "taf_trigger": false,
      "metar": "METAR LPMA 270730Z 32006KT 270V010 9999 FEW015 15/09 Q1014",
      "taf": "TAF LPMA 270500Z 2706/2806 33008KT 9999 SCT015"
    },
    {
      "icao": "LPPR",
      "alert": "OK",
      "vis_m": 9999,
      "fzfg": false,
      "metar_trigger": false,
      "taf_trigger": false,
      "metar": "METAR LPPR 270730Z 06007KT CAVOK 06/00 Q1012",
      "taf": "TAF LPPR 270500Z 2706/2806 09010KT CAVOK"
    },
    {
      "icao": "LPPS",
      "alert": "OK",
      "vis_m": 9999,
      "fzfg": false,
      "metar_trigger": false,
      "taf_trigger": false,
      "metar": "METAR LPPS 270730Z 31011KT 9999 SCT015 14/11 Q1014",
      "taf": "TAF LPPS 270500Z 2706/2812 30017KT 9999 SCT015"
    },
    {
      "icao": "LPPT",
      "alert": "OK",
      "vis_m": 9999,
      "fzfg": false,
      "metar_trigger": false,
      "taf_trigger": false,
      "metar": "METAR LPPT 270730Z 06010KT CAVOK 04/02 Q1010",
      "taf": "TAF LPPT 270500Z 2706/2812 05013KT 9999 FEW030"
    },
    {
      "icao": "LQBK",
      "alert": "OK",
      "vis_m": 9999,
      "fzfg": false,
      "metar_trigger": false,
      "taf_trigger": false,
      "metar": "METAR LQBK 270730Z 15001KT CAVOK M01/M01 Q1030 NOSIG",
      "taf": "TAF LQBK 270500Z 2706/2806 34005KT 9999 SCT035 TX03/2713Z TNM03/2805Z"
    },
    {
      "icao": "LQSA",
      "alert": "OK",
      "vis_m": 9999,
      "fzfg": false,
      "metar_trigger": false,
      "taf_trigger": false,
      "metar": "METAR LQSA 270730Z 29003KT 9999 SCT016 OVC022 01/M01 Q1029 NOSIG",
      "taf": "TAF LQSA 270500Z 2706/2806 VRB02KT 9999 SCT025 TX04/2713Z TNM04/2805Z"
    },
    {
      "icao": "LQTZ",
      "alert": "OK",
      "vis_m": 5000,
      "fzfg": false,
      "metar_trigger": false,
      "taf_trigger": false,
      "metar": "METAR LQTZ 270730Z 32002KT 5000 BR BKN021 01/01 Q1030",
      "taf": "TAF LQTZ 270500Z 2706/2806 30005KT 7000 FEW010 BKN025 TX03/2713Z TNM04/2805Z"
    },
    {
      "icao": "LRBC",
      "alert": "OK",
      "vis_m": 9999,
      "fzfg": false,
      "metar_trigger": false,
      "taf_trigger": false,
      "metar": "METAR LRBC 270730Z 33018KT 9999 BKN029 02/M02 Q1022",
      "taf": "TAF LRBC 270500Z 2706/2715 32014KT 9999 SCT025"
    },
    {
      "icao": "LRBS",
      "alert": "OK",
      "vis_m": 600,
      "fzfg": true,
      "metar_trigger": false,
      "taf_trigger": false,
      "metar": "METAR LRBS 270730Z 22004KT 170V250 0600 R07/0900N FZFG OVC001 M02/M02 Q1023 NOSIG",
      "taf": "TAF LRBS 270500Z 2706/2806 VRB04KT 0800 FZFG OVC002"
    },
    {
      "icao": "LRBV",
      "alert": "OK",
      "vis_m": 9999,
      "fzfg": false,
      "metar_trigger": false,
      "taf_trigger": false,
      "metar": "METAR LRBV 270730Z 32010KT 280V360 9999 BKN018 OVC028 M00/M03 Q1023",
      "taf": "TAF LRBV 270500Z 2706/2715 31012KT 9999 BKN020"
    },
    {
      "icao": "LRCL",
      "alert": "OK",
      "vis_m": 9999,
      "fzfg": false,
      "metar_trigger": false,
      "taf_trigger": false,
      "metar": "METAR LRCL 270730Z 28009KT 9999 FEW017 00/M04 Q1025",
      "taf": "TAF LRCL 270500Z 2706/2715 30008KT 9999 BKN020"
    },
    {
      "icao": "LRCV",
      "alert": "OK",
      "vis_m": 9999,
      "fzfg": false,
      "metar_trigger": false,
      "taf_trigger": false,
      "metar": "METAR LRCV 270730Z 30004KT CAVOK M02/M03 Q1022",
      "taf": "TAF LRCV 270500Z 2706/2715 28007KT CAVOK"
    },
    {
      "icao": "LRIA",
      "alert": "OK",
      "vis_m": 9999,
      "fzfg": false,
      "metar_trigger": false,
      "taf_trigger": false,
      "metar": "METAR LRIA 270730Z 30012KT 9999 BKN016 OVC025 01/M01 Q1020",
      "taf": "TAF LRIA 270500Z 2706/2715 30015KT 9999 OVC020"
    },
    {
      "icao": "LROP",
      "alert": "OK",
      "vis_m": 300,
      "fzfg": true,
      "metar_trigger": false,
      "taf_trigger": false,
      "metar": "METAR LROP 270730Z 22004KT 200V260 0300 R08R/0550D R08L/0750D FZFG OVC001 M02/M02 Q1023 NOSIG",
      "taf": "TAF LROP 270500Z 2706/2806 VRB04KT 0300 FZFG OVC001"
    },
    {
      "icao": "LRSB",
      "alert": "OK",
      "vis_m": 9999,
      "fzfg": false,
      "metar_trigger": false,
      "taf_trigger": false,
      "metar": "METAR LRSB 270730Z VRB01KT 9999 BKN014 M02/M03 Q1025",
      "taf": "TAF LRSB 270500Z 2706/2806 VRB04KT 9999 SCT015 BKN025"
    },
    {
      "icao": "LRSM",
      "alert": "OK",
      "vis_m": 9999,
      "fzfg": false,
      "metar_trigger": false,
      "taf_trigger": false,
      "metar": "METAR LRSM 270730Z AUTO 23004KT 9999 NCD M02/M04 Q1027",
      "taf": ""
    },
    {
      "icao": "LRSV",
      "alert": "OK",
      "vis_m": 9999,
      "fzfg": false,
      "metar_trigger": false,
      "taf_trigger": false,
      "metar": "METAR LRSV 270730Z 32015KT 9999 BKN015 M00/M02 Q1020",
      "taf": "TAF LRSV 270500Z 2706/2715 33020KT 9999 BKN015"
    },
    {
      "icao": "LRTM",
      "alert": "OK",
      "vis_m": 9999,
      "fzfg": false,
      "metar_trigger": false,
      "taf_trigger": false,
      "metar": "METAR LRTM 270730Z 27007KT 9999 SCT022 BKN026 00/M03 Q1025",
      "taf": "TAF LRTM 270500Z 2706/2715 30011KT 9999 BKN025"
    },
    {
      "icao": "LRTR",
      "alert": "OK",
      "vis_m": 1000,
      "fzfg": true,
      "metar_trigger": false,
      "taf_trigger": false,
      "metar": "METAR LRTR 270730Z 29006KT 1000 R29/P2000 BR SCT001 BKN002 M01/M01 Q1028",
      "taf": "TAF LRTR 270500Z 2706/2806 VRB04KT 0300 FZFG VV001"
    },
    {
      "icao": "LTAC",
      "alert": "OK",
      "vis_m": 9999,
      "fzfg": false,
      "metar_trigger": false,
      "taf_trigger": false,
      "metar": "METAR LTAC 270720Z 31005KT 270V330 9999 SCT030 BKN080 M00/M04 Q1012 RESN NOSIG RMK RWY21C 25007KT RWY03L 30005KT 260V330 RWY21R 24007KT RWY03R VRB01KT RWY21L 28006KT 230V310",
      "taf": "TAF LTAC 270440Z 2706/2806 31012KT 9999 BKN025 BKN080"
    },
    {
      "icao": "LTFM",
      "alert": "OK",
      "vis_m": 9999,
      "fzfg": false,
      "metar_trigger": false,
      "taf_trigger": false,
      "metar": "METAR LTFM 270720Z 34017KT 9999 SCT016 BKN020 05/M01 Q1020 NOSIG RMK RWY17L 34019KT RWY34L 34018KT RWY16R 34018KT RWY36 34021KT RWY18 35021KT",
      "taf": "TAF LTFM 270440Z 2706/2812 35022G35KT 9999 -RASN SCT016 BKN024"
    },
    {
      "icao": "LUKK",
      "alert": "OK",
      "vis_m": 9999,
      "fzfg": false,
      "metar_trigger": false,
      "taf_trigger": false,
      "metar": "METAR LUKK 270730Z 34011KT 310V020 9999 -RA OVC035 01/M02 Q1018 TEMPO BKN012",
      "taf": "TAF LUKK 270523Z 2706/2806 33012KT 9999 BKN015"
    },
    {
      "icao": "LWOH",
      "alert": "OK",
      "vis_m": 9999,
      "fzfg": false,
      "metar_trigger": false,
      "taf_trigger": false,
      "metar": "METAR LWOH 270750Z 35007KT 310V030 9999 FEW025 03/M02 Q1023",
      "taf": "TAF LWOH 270540Z 2706/2806 34012KT 9999 FEW020 SCT040"
    },
    {
      "icao": "LWSK",
      "alert": "OK",
      "vis_m": 9999,
      "fzfg": false,
      "metar_trigger": false,
      "taf_trigger": false,
      "metar": "METAR LWSK 270750Z 36004KT 310V040 9999 FEW049 04/M00 Q1027 NOSIG",
      "taf": "TAF LWSK 270540Z 2706/2806 02012KT 9999 SCT020 BKN050"
    },
    {
      "icao": "LYBE",
      "alert": "OK",
      "vis_m": 9000,
      "fzfg": false,
      "metar_trigger": false,
      "taf_trigger": false,
      "metar": "METAR LYBE 270730Z 29007KT 9000 OVC006 01/M00 Q1030 NOSIG",
      "taf": "TAF LYBE 270500Z 2706/2806 29007KT 9999 BKN010 TX03/2713Z TNM00/2805Z"
    },
    {
      "icao": "LYNI",
      "alert": "OK",
      "vis_m": 9999,
      "fzfg": false,
      "metar_trigger": false,
      "taf_trigger": false,
      "metar": "METAR LYNI 270730Z 32009KT 290V350 9999 SCT013 BKN017 02/M00 Q1028 NOSIG",
      "taf": "TAF LYNI 270500Z 2706/2806 31007KT 9999 OVC015 TX02/2712Z TNM01/2802Z"
    },
    {
      "icao": "LYPG",
      "alert": "OK",
      "vis_m": 9999,
      "fzfg": false,
      "metar_trigger": false,
      "taf_trigger": false,
      "metar": "METAR LYPG 270730Z VRB02KT CAVOK 06/01 Q1023 NOSIG",
      "taf": "TAF LYPG 270500Z 2706/2806 34008KT CAVOK TX15/2713Z TN02/2801Z"
    },
    {
      "icao": "LZIB",
      "alert": "OK",
      "vis_m": 9999,
      "fzfg": false,
      "metar_trigger": false,
      "taf_trigger": false,
      "metar": "METAR LZIB 270730Z 30010KT 9999 FEW016 M00/M04 Q1028 NOSIG",
      "taf": "TAF LZIB 270515Z 2706/2806 30006KT CAVOK"
    },
    {
      "icao": "LZKZ",
      "alert": "OK",
      "vis_m": 9999,
      "fzfg": false,
      "metar_trigger": false,
      "taf_trigger": false,
      "metar": "METAR LZKZ 270730Z 26003KT CAVOK M01/M04 Q1027 NOSIG",
      "taf": "TAF LZKZ 270515Z 2706/2806 21005KT CAVOK"
    },
    {
      "icao": "LZTT",
      "alert": "OK",
      "vis_m": 9999,
      "fzfg": false,
      "metar_trigger": false,
      "taf_trigger": false,
      "metar": "METAR LZTT 270730Z 28004KT CAVOK M04/M06 Q1024 NOSIG",
      "taf": "TAF LZTT 270515Z 2706/2806 28005KT CAVOK"
    },
    {
      "icao": "OEJN",
      "alert": "OK",
      "vis_m": 9999,
      "fzfg": false,
      "metar_trigger": false,
      "taf_trigger": false,
      "metar": "METAR OEJN 270700Z 03005KT CAVOK 26/21 Q1012 NOSIG",
      "taf": "TAF OEJN 270500Z 2706/2812 36010KT 7000 FEW040"
    },
    {
      "icao": "OEMA",
      "alert": "OK",
      "vis_m": 9999,
      "fzfg": false,
      "metar_trigger": false,
      "taf_trigger": false,
      "metar": "METAR OEMA 270700Z VRB02KT CAVOK 20/12 Q1016 NOSIG",
      "taf": "TAF OEMA 270500Z 2706/2812 27010KT CAVOK"
    },
    {
      "icao": "OJAI",
      "alert": "OK",
      "vis_m": 800,
      "fzfg": false,
      "metar_trigger": false,
      "taf_trigger": false,
      "metar": "METAR OJAI 270700Z 18004KT 0800 -DZ FEW020 BKN025 08/07 Q1014 NOSIG",
      "taf": "TAF OJAI 270422Z 2706/2812 27006KT 4000 RA SCT030 BKN035"
    },
    {
      "icao": "OMAA",
      "alert": "OK",
      "vis_m": 7000,
      "fzfg": false,
      "metar_trigger": false,
      "taf_trigger": false,
      "metar": "METAR OMAA 270700Z 14003KT 060V170 7000 FEW040 23/16 Q1016 NOSIG",
      "taf": "TAF OMAA 270500Z 2706/2812 14005KT 4000 HZ NSC"
    },
    {
      "icao": "OMDB",
      "alert": "OK",
      "vis_m": 9999,
      "fzfg": false,
      "metar_trigger": false,
      "taf_trigger": false,
      "metar": "METAR OMDB 270730Z 18006KT 150V220 9999 FEW040 24/12 Q1015 NOSIG",
      "taf": "TAF OMDB 270500Z 2706/2812 12005KT 8000 NSC"
    },
    {
      "icao": "UAAA",
      "alert": "OK",
      "vis_m": 5000,
      "fzfg": false,
      "metar_trigger": false,
      "taf_trigger": false,
      "metar": "METAR UAAA 270730Z 04003MPS 5000 BR BKN006 OVC100 M00/M02 Q1020 NOSIG RMK QBB190",
      "taf": "TAF UAAA 270504Z 2706/2806 05003MPS 3100 BR BKN011 OVC030 TX00/2709Z TNM03/2801Z"
    },
    {
      "icao": "UBBB",
      "alert": "OK",
      "vis_m": 9999,
      "fzfg": false,
      "metar_trigger": false,
      "taf_trigger": false,
      "metar": "METAR UBBB 270730Z 19014KT CAVOK 08/03 Q1006 NOSIG",
      "taf": "TAF UBBB 270513Z 2706/2806 19014KT 9999 SCT025 TX09/2710Z TN04/2802Z"
    },
    {
      "icao": "UDSG",
      "alert": "OK",
      "vis_m": 7000,
      "fzfg": false,
      "metar_trigger": false,
      "taf_trigger": false,
      "metar": "METAR UDSG 270730Z 12004KT 070V240 7000 SCT023 OVC040 M00/M01 Q1004 NOSIG",
      "taf": "TAF UDSG 270500Z 2706/2806 VRB06KT 2000 BR OVC020"
    },
    {
      "icao": "UDYZ",
      "alert": "OK",
      "vis_m": 4200,
      "fzfg": false,
      "metar_trigger": false,
      "taf_trigger": false,
      "metar": "METAR UDYZ 270730Z 11002KT 4200 BR BKN046 03/M01 Q1006 NOSIG",
      "taf": "TAF UDYZ 270500Z 2706/2806 28006KT 1500 BR SCT030"
    },
    {
      "icao": "UGKO",
      "alert": "OK",
      "vis_m": 8000,
      "fzfg": false,
      "metar_trigger": false,
      "taf_trigger": false,
      "metar": "METAR UGKO 270730Z 08005KT 8000 -RA SCT015 OVC041 04/03 Q1008 NOSIG",
      "taf": "TAF UGKO 270500Z 2706/2806 24007KT 9999 OVC050 TX06/2711Z TN00/2803Z"
    }
  ]
}