{
  "ts_utc": "2026-02-21T17:02:29Z",
  "threshold_m": 150,
  "source": "stations_override.txt (ICAO list) + aviationweather.gov (METAR/TAF raw)",
  "station_count": 159,
  "stations": [
    {
      "icao": "BIKF",
      "alert": "OK",
      "vis_m": 9999,
      "fzfg": false,
      "metar_trigger": false,
      "taf_trigger": false,
      "metar": "METAR BIKF 211630Z 07024KT CAVOK 01/M06 Q1000",
      "taf": "TAF BIKF 211625Z 2118/2218 07024G34KT CAVOK TX02/2208Z TNM01/2123Z"
    },
    {
      "icao": "BKPR",
      "alert": "OK",
      "vis_m": 9999,
      "fzfg": false,
      "metar_trigger": false,
      "taf_trigger": false,
      "metar": "METAR BKPR 211700Z 02009KT 9999 FEW015 BKN040 01/M01 Q1021 NOSIG",
      "taf": "TAF BKPR 211130Z 2112/2212 03012KT 9999 SCT020 BKN040"
    },
    {
      "icao": "EBCI",
      "alert": "OK",
      "vis_m": 4500,
      "fzfg": false,
      "metar_trigger": false,
      "taf_trigger": false,
      "metar": "METAR EBCI 211650Z 24014KT 4500 -DZ SCT009 BKN010 10/09 Q1022 TEMPO 2500 -DZ BKN008",
      "taf": "TAF EBCI 211120Z 2112/2218 24010KT 9999 SCT012 BKN020"
    },
    {
      "icao": "EDDB",
      "alert": "OK",
      "vis_m": 9999,
      "fzfg": false,
      "metar_trigger": false,
      "taf_trigger": false,
      "metar": "METAR EDDB 211650Z AUTO 24009KT 9999 -SHRA BKN023 BKN030 BKN036 FEW///TCU 07/06 Q1016 RESHRA NOSIG",
      "taf": "TAF EDDB 211100Z 2112/2212 25012G22KT 9999 BKN020"
    },
    {
      "icao": "EDDH",
      "alert": "OK",
      "vis_m": 9000,
      "fzfg": false,
      "metar_trigger": false,
      "taf_trigger": false,
      "metar": "METAR EDDH 211650Z AUTO 26008KT 230V290 9000 -SHRA OVC008 FEW///TCU 07/06 Q1015 REDZ TEMPO 3000 DZ",
      "taf": ""
    },
    {
      "icao": "EDDK",
      "alert": "OK",
      "vis_m": 9999,
      "fzfg": false,
      "metar_trigger": false,
      "taf_trigger": false,
      "metar": "METAR EDDK 211650Z AUTO 25009KT 210V270 9999 BKN017 BKN027 OVC031 10/08 Q1021 NOSIG",
      "taf": ""
    },
    {
      "icao": "EDDN",
      "alert": "OK",
      "vis_m": 9999,
      "fzfg": false,
      "metar_trigger": false,
      "taf_trigger": false,
      "metar": "METAR EDDN 211650Z AUTO 22006KT 9999 -SHRA BKN016 FEW///TCU 07/05 Q1022 TEMPO BKN014",
      "taf": "TAF EDDN 211100Z 2112/2212 26010KT 9999 BKN015 BKN025"
    },
    {
      "icao": "EDDS",
      "alert": "OK",
      "vis_m": 9999,
      "fzfg": false,
      "metar_trigger": false,
      "taf_trigger": false,
      "metar": "METAR EDDS 211650Z AUTO 23003KT 180V280 9999 -RA BKN024 BKN031 08/07 Q1023 NOSIG",
      "taf": "TAF EDDS 211100Z 2112/2212 22006KT 9999 BKN025"
    },
    {
      "icao": "EDFH",
      "alert": "OK",
      "vis_m": 9999,
      "fzfg": false,
      "metar_trigger": false,
      "taf_trigger": false,
      "metar": "METAR EDFH 211650Z 27014KT 9999 SCT008 BKN012 08/07 Q1022",
      "taf": "TAF EDFH 211100Z 2112/2212 26012KT 8000 BKN012"
    },
    {
      "icao": "EDJA",
      "alert": "OK",
      "vis_m": 9999,
      "fzfg": false,
      "metar_trigger": false,
      "taf_trigger": false,
      "metar": "METAR EDJA 211650Z 24013KT 9999 -RA SCT008 BKN020 OVC023 06/05 Q1024",
      "taf": ""
    },
    {
      "icao": "EDLW",
      "alert": "OK",
      "vis_m": 4200,
      "fzfg": false,
      "metar_trigger": false,
      "taf_trigger": false,
      "metar": "METAR EDLW 211650Z 23010KT 4200 -DZ SCT005 OVC008 09/09 Q1019",
      "taf": "TAF EDLW 211100Z 2112/2212 25012KT 9999 BKN020"
    },
    {
      "icao": "EDNY",
      "alert": "OK",
      "vis_m": 8000,
      "fzfg": false,
      "metar_trigger": false,
      "taf_trigger": false,
      "metar": "METAR EDNY 211650Z 25009KT 8000 -RA OVC019 08/06 Q1026 RERA",
      "taf": "TAF EDNY 211400Z 2115/2124 24012KT 8000 OVC015"
    },
    {
      "icao": "EDSB",
      "alert": "OK",
      "vis_m": 9999,
      "fzfg": false,
      "metar_trigger": false,
      "taf_trigger": false,
      "metar": "METAR EDSB 211650Z 20012KT 9999 FEW028 OVC045 10/08 Q1024",
      "taf": "TAF EDSB 211100Z 2112/2212 21012KT 9999 BKN025"
    },
    {
      "icao": "EETN",
      "alert": "OK",
      "vis_m": 9999,
      "fzfg": false,
      "metar_trigger": false,
      "taf_trigger": false,
      "metar": "METAR EETN 211650Z 20015KT 9999 -SN BKN019 M03/M07 Q1006 NOSIG",
      "taf": ""
    },
    {
      "icao": "EFTU",
      "alert": "OK",
      "vis_m": 3300,
      "fzfg": false,
      "metar_trigger": false,
      "taf_trigger": false,
      "metar": "METAR EFTU 211650Z AUTO 21012KT 180V240 3300 -SN OVC003 00/M00 Q1000",
      "taf": "TAF EFTU 211427Z 2115/2215 21012G24KT 3000 -SN OVC003"
    },
    {
      "icao": "EGBB",
      "alert": "OK",
      "vis_m": 9999,
      "fzfg": false,
      "metar_trigger": false,
      "taf_trigger": false,
      "metar": "METAR EGBB 211650Z 19005KT 140V230 9999 SCT020 12/10 Q1015",
      "taf": ""
    },
    {
      "icao": "EGGP",
      "alert": "OK",
      "vis_m": 9999,
      "fzfg": false,
      "metar_trigger": false,
      "taf_trigger": false,
      "metar": "METAR EGGP 211650Z 19004KT 160V240 9999 SCT019 SCT044 10/09 Q1014",
      "taf": "TAF EGGP 211105Z 2112/2212 23009KT 9999 SCT030"
    },
    {
      "icao": "EGGW",
      "alert": "OK",
      "vis_m": 9999,
      "fzfg": false,
      "metar_trigger": false,
      "taf_trigger": false,
      "metar": "METAR EGGW 211650Z AUTO 25014KT 9999 -RA BKN018 12/10 Q1017",
      "taf": "TAF EGGW 211054Z 2112/2212 25016KT 9999 SCT012 BKN015"
    },
    {
      "icao": "EGKK",
      "alert": "OK",
      "vis_m": 9999,
      "fzfg": false,
      "metar_trigger": false,
      "taf_trigger": false,
      "metar": "METAR EGKK 211650Z 23010KT 9999 BKN007 12/11 Q1019",
      "taf": ""
    },
    {
      "icao": "EGNM",
      "alert": "OK",
      "vis_m": 9999,
      "fzfg": false,
      "metar_trigger": false,
      "taf_trigger": false,
      "metar": "METAR EGNM 211650Z 25007KT 9999 -RA SCT009 BKN019 10/09 Q1013",
      "taf": ""
    },
    {
      "icao": "EGPD",
      "alert": "OK",
      "vis_m": 3000,
      "fzfg": false,
      "metar_trigger": false,
      "taf_trigger": false,
      "metar": "METAR EGPD 211650Z 12006KT 3000 -RADZ BR OVC003 06/05 Q1008 TEMPO RADZ",
      "taf": ""
    },
    {
      "icao": "EGPF",
      "alert": "OK",
      "vis_m": 4500,
      "fzfg": false,
      "metar_trigger": false,
      "taf_trigger": false,
      "metar": "METAR EGPF 211650Z 21006KT 4500 -SHRA OVC008TCU 10/09 Q1007",
      "taf": ""
    },
    {
      "icao": "EHBK",
      "alert": "OK",
      "vis_m": 9999,
      "fzfg": false,
      "metar_trigger": false,
      "taf_trigger": false,
      "metar": "METAR EHBK 211655Z AUTO 24013KT 210V270 9999 BKN016 BKN022 OVC031 10/08 Q1021 TEMPO BKN014",
      "taf": "TAF EHBK 211118Z 2112/2218 23009KT 7000 -RADZ BKN006"
    },
    {
      "icao": "EHEH",
      "alert": "OK",
      "vis_m": 9000,
      "fzfg": false,
      "metar_trigger": false,
      "taf_trigger": false,
      "metar": "SPECI EHEH 211637Z AUTO 23008KT 200V260 9000 BR FEW015 SCT020 BKN023 11/09 Q1020 WHT NOSIG RMK TREND REMOTE BY EHWX",
      "taf": "TAF EHEH 211125Z 2112/2218 24010KT 6000 BKN006 OVC008"
    },
    {
      "icao": "EKBI",
      "alert": "OK",
      "vis_m": 9999,
      "fzfg": false,
      "metar_trigger": false,
      "taf_trigger": false,
      "metar": "METAR EKBI 211650Z AUTO 26010KT 9999 NCD 02/01 Q1011",
      "taf": "TAF EKBI 211427Z 2115/2215 25010KT 6000 SCT006 BKN015"
    },
    {
      "icao": "EKCH",
      "alert": "OK",
      "vis_m": 3500,
      "fzfg": false,
      "metar_trigger": false,
      "taf_trigger": false,
      "metar": "METAR EKCH 211650Z 25012KT 3500 -RA BR BKN004 03/03 Q1008 TEMPO 7000 NSW BKN006",
      "taf": "TAF EKCH 211427Z 2115/2215 24010KT 2000 -RADZ BR BKN003"
    },
    {
      "icao": "ENAL",
      "alert": "OK",
      "vis_m": 9999,
      "fzfg": false,
      "metar_trigger": false,
      "taf_trigger": false,
      "metar": "METAR ENAL 211650Z 21010KT 170V230 9999 -RA SCT006CB BKN015 01/M00 Q1008",
      "taf": "TAF ENAL 211400Z 2115/2124 28008KT 9999 FEW015 SCT045"
    },
    {
      "icao": "ENBR",
      "alert": "OK",
      "vis_m": 9999,
      "fzfg": false,
      "metar_trigger": false,
      "taf_trigger": false,
      "metar": "METAR ENBR 211650Z 33006KT 9999 FEW024 03/M00 Q1009 NOSIG RMK WIND 1200FT 34014KT",
      "taf": "TAF ENBR 211100Z 2112/2212 34012KT 9999 FEW020"
    },
    {
      "icao": "ENGM",
      "alert": "OK",
      "vis_m": 9999,
      "fzfg": false,
      "metar_trigger": false,
      "taf_trigger": false,
      "metar": "METAR ENGM 211650Z 32003KT 280V350 CAVOK M00/M04 Q1004 NOSIG",
      "taf": ""
    },
    {
      "icao": "ENHD",
      "alert": "OK",
      "vis_m": 9999,
      "fzfg": false,
      "metar_trigger": false,
      "taf_trigger": false,
      "metar": "METAR ENHD 211650Z 33008KT CAVOK 04/00 Q1009",
      "taf": "TAF ENHD 211400Z 2115/2123 34012KT 9999 FEW040"
    },
    {
      "icao": "ENTC",
      "alert": "OK",
      "vis_m": 4800,
      "fzfg": false,
      "metar_trigger": false,
      "taf_trigger": false,
      "metar": "METAR ENTC 211650Z 22007KT 190V250 4800 -SHSN SCT012 BKN026 M06/M08 Q0998 TEMPO 9999 BKN010 RMK WIND 2600FT 31017KT",
      "taf": "TAF ENTC 211100Z 2112/2212 18012KT 9999 SCT020 BKN030"
    },
    {
      "icao": "ENTO",
      "alert": "OK",
      "vis_m": 9999,
      "fzfg": false,
      "metar_trigger": false,
      "taf_trigger": false,
      "metar": "METAR ENTO 211650Z 36009KT CAVOK 03/M03 Q1005 NOSIG",
      "taf": ""
    },
    {
      "icao": "ENVA",
      "alert": "OK",
      "vis_m": 9999,
      "fzfg": false,
      "metar_trigger": false,
      "taf_trigger": false,
      "metar": "METAR ENVA 211650Z 27014KT 9999 -SN FEW004 SCT011 BKN016 01/00 Q1004 RMK WIND 670FT 27014KT",
      "taf": "TAF ENVA 211100Z 2112/2212 27008KT 9999 FEW020 SCT040"
    },
    {
      "icao": "ENZV",
      "alert": "OK",
      "vis_m": 9999,
      "fzfg": false,
      "metar_trigger": false,
      "taf_trigger": false,
      "metar": "METAR ENZV 211650Z 33005KT CAVOK 04/M00 Q1009 NOSIG",
      "taf": "TAF ENZV 211100Z 2112/2212 33012KT 9999 FEW008 SCT040"
    },
    {
      "icao": "EPGD",
      "alert": "OK",
      "vis_m": 8000,
      "fzfg": false,
      "metar_trigger": false,
      "taf_trigger": false,
      "metar": "METAR EPGD 211630Z 23011KT 8000 OVC005 01/00 Q1009",
      "taf": ""
    },
    {
      "icao": "EPKK",
      "alert": "OK",
      "vis_m": 9999,
      "fzfg": false,
      "metar_trigger": false,
      "taf_trigger": false,
      "metar": "METAR EPKK 211630Z 24007KT 9999 FEW006 OVC018 02/01 Q1019",
      "taf": "TAF EPKK 211430Z 2115/2215 27010KT 9999 OVC020"
    },
    {
      "icao": "EPKT",
      "alert": "OK",
      "vis_m": 7000,
      "fzfg": false,
      "metar_trigger": false,
      "taf_trigger": false,
      "metar": "METAR EPKT 211630Z 22009KT 7000 -RA SCT006 OVC011 01/M01 Q1018",
      "taf": ""
    },
    {
      "icao": "EPLB",
      "alert": "OK",
      "vis_m": 9999,
      "fzfg": false,
      "metar_trigger": false,
      "taf_trigger": false,
      "metar": "METAR EPLB 211630Z 17002KT CAVOK M01/M07 Q1018",
      "taf": "TAF EPLB 211130Z 2112/2212 17008KT CAVOK"
    },
    {
      "icao": "EPMO",
      "alert": "OK",
      "vis_m": 2000,
      "fzfg": false,
      "metar_trigger": false,
      "taf_trigger": false,
      "metar": "METAR EPMO 211630Z 18007KT 2000 -RASN BR OVC006 00/M00 Q1015 REFZDZ",
      "taf": ""
    },
    {
      "icao": "EPPO",
      "alert": "OK",
      "vis_m": 9999,
      "fzfg": false,
      "metar_trigger": false,
      "taf_trigger": false,
      "metar": "METAR EPPO 211630Z 24006KT 9999 OVC015 05/04 Q1015",
      "taf": ""
    },
    {
      "icao": "EPRA",
      "alert": "OK",
      "vis_m": 8000,
      "fzfg": false,
      "metar_trigger": false,
      "taf_trigger": false,
      "metar": "METAR EPRA 211630Z 18007KT 8000 -RASN BKN015 OVC020 01/M01 Q1017",
      "taf": "TAF EPRA 211430Z 2115/2124 19010KT 7000 -SN BKN030"
    },
    {
      "icao": "EPRZ",
      "alert": "OK",
      "vis_m": 9999,
      "fzfg": false,
      "metar_trigger": false,
      "taf_trigger": false,
      "metar": "METAR EPRZ 211630Z 09004KT 070V130 9999 SCT040 M00/M05 Q1019",
      "taf": "TAF EPRZ 211130Z 2112/2212 09010KT 9999 BKN033"
    },
    {
      "icao": "EPSC",
      "alert": "OK",
      "vis_m": 9999,
      "fzfg": false,
      "metar_trigger": false,
      "taf_trigger": false,
      "metar": "METAR EPSC 211630Z 23007KT 9999 OVC007 05/05 Q1012",
      "taf": "TAF EPSC 211130Z 2112/2212 21006KT 6000 BKN005 OVC010"
    },
    {
      "icao": "EPSY",
      "alert": "OK",
      "vis_m": 4400,
      "fzfg": false,
      "metar_trigger": false,
      "taf_trigger": false,
      "metar": "METAR EPSY 211630Z 18009KT 4400 -SN BR OVC007 M03/M04 Q1014",
      "taf": "TAF EPSY 211430Z 2115/2124 19010KT 6000 -SN OVC013"
    },
    {
      "icao": "EPWA",
      "alert": "OK",
      "vis_m": 7000,
      "fzfg": false,
      "metar_trigger": false,
      "taf_trigger": false,
      "metar": "METAR EPWA 211630Z 17007KT 7000 BKN007 OVC012 00/00 Q1016 NOSIG",
      "taf": "TAF EPWA 211430Z 2115/2215 19008KT 9999 -SN BKN020"
    },
    {
      "icao": "EPWR",
      "alert": "OK",
      "vis_m": 9999,
      "fzfg": false,
      "metar_trigger": false,
      "taf_trigger": false,
      "metar": "METAR EPWR 211630Z 26008KT 9999 FEW025 05/03 Q1017",
      "taf": "TAF EPWR 211430Z 2115/2215 27012KT 9999 BKN020"
    },
    {
      "icao": "ESGG",
      "alert": "OK",
      "vis_m": 150,
      "fzfg": false,
      "metar_trigger": false,
      "taf_trigger": false,
      "metar": "METAR ESGG 211650Z 23009KT 0150 R03/0600N R21/0600N FG VV002 02/02 Q1002",
      "taf": ""
    },
    {
      "icao": "ESKN",
      "alert": "OK",
      "vis_m": 9999,
      "fzfg": false,
      "metar_trigger": false,
      "taf_trigger": false,
      "metar": "METAR ESKN 211650Z 17005KT 9999 OVC016 01/M00 Q1000",
      "taf": ""
    },
    {
      "icao": "ESMS",
      "alert": "OK",
      "vis_m": 2000,
      "fzfg": false,
      "metar_trigger": false,
      "taf_trigger": false,
      "metar": "METAR ESMS 211650Z 27014G24KT 2000 BR OVC003 03/03 Q1007",
      "taf": ""
    },
    {
      "icao": "ESSA",
      "alert": "OK",
      "vis_m": 1700,
      "fzfg": false,
      "metar_trigger": false,
      "taf_trigger": false,
      "metar": "METAR ESSA 211650Z 22006KT 1700 -SN VV009 M00/M01 Q0999 TEMPO 3000 VV010",
      "taf": ""
    },
    {
      "icao": "EYKA",
      "alert": "OK",
      "vis_m": 9999,
      "fzfg": false,
      "metar_trigger": false,
      "taf_trigger": false,
      "metar": "METAR EYKA 211650Z 20009KT 150V240 9999 BKN024 OVC030 M01/M09 Q1013",
      "taf": "TAF EYKA 211109Z 2112/2212 17010KT 9000 NSC"
    },
    {
      "icao": "EYPA",
      "alert": "OK",
      "vis_m": 9000,
      "fzfg": false,
      "metar_trigger": false,
      "taf_trigger": false,
      "metar": "METAR EYPA 211650Z 18014KT 9000 -SN SCT024 BKN032 BKN049 M03/M06 Q1009",
      "taf": "TAF EYPA 211106Z 2112/2212 17013G23KT 9000 OVC015"
    },
    {
      "icao": "EYVI",
      "alert": "OK",
      "vis_m": 9999,
      "fzfg": false,
      "metar_trigger": false,
      "taf_trigger": false,
      "metar": "METAR EYVI 211650Z 19016KT CAVOK M01/M09 Q1014 NOSIG",
      "taf": "TAF EYVI 211100Z 2112/2212 18012KT 9000 NSC"
    },
    {
      "icao": "GCFV",
      "alert": "OK",
      "vis_m": 9999,
      "fzfg": false,
      "metar_trigger": false,
      "taf_trigger": false,
      "metar": "METAR GCFV 211630Z 03010KT 9999 FEW010 20/16 Q1021",
      "taf": "TAF GCFV 211400Z 2115/2215 04010KT 9999 FEW014 TX25/2214Z TN18/2206Z"
    },
    {
      "icao": "GCLP",
      "alert": "OK",
      "vis_m": 9999,
      "fzfg": false,
      "metar_trigger": false,
      "taf_trigger": false,
      "metar": "METAR GCLP 211630Z 03018KT CAVOK 21/16 Q1021 NOSIG",
      "taf": "TAF GCLP 211400Z 2115/2215 03018KT 9999 FEW020 TX26/2214Z TN18/2206Z"
    },
    {
      "icao": "GCTS",
      "alert": "OK",
      "vis_m": 9999,
      "fzfg": false,
      "metar_trigger": false,
      "taf_trigger": false,
      "metar": "METAR GCTS 211630Z 10014KT CAVOK 23/14 Q1021 NOSIG",
      "taf": "TAF GCTS 211400Z 2115/2215 09015KT CAVOK TX28/2214Z TN18/2206Z"
    },
    {
      "icao": "GMAD",
      "alert": "OK",
      "vis_m": 9999,
      "fzfg": false,
      "metar_trigger": false,
      "taf_trigger": false,
      "metar": "METAR GMAD 211630Z 26006KT CAVOK 30/11 Q1021 NOSIG",
      "taf": "TAF GMAD 211100Z 2112/2218 08006KT CAVOK"
    },
    {
      "icao": "GMMN",
      "alert": "OK",
      "vis_m": 8000,
      "fzfg": false,
      "metar_trigger": false,
      "taf_trigger": false,
      "metar": "METAR GMMN 211630Z 01008KT 8000 NSC 21/16 Q1024 NOSIG",
      "taf": "TAF GMMN 211100Z 2112/2218 VRB02KT CAVOK"
    },
    {
      "icao": "GMMX",
      "alert": "OK",
      "vis_m": 9999,
      "fzfg": false,
      "metar_trigger": false,
      "taf_trigger": false,
      "metar": "METAR GMMX 211630Z 04007KT CAVOK 29/03 Q1023 NOSIG",
      "taf": "TAF GMMX 211100Z 2112/2218 06006KT 8000 NSC"
    },
    {
      "icao": "HEGN",
      "alert": "OK",
      "vis_m": 9999,
      "fzfg": false,
      "metar_trigger": false,
      "taf_trigger": false,
      "metar": "METAR HEGN 211600Z 34009KT CAVOK 23/12 Q1013 NOSIG",
      "taf": "TAF HEGN 211700Z 2118/2224 31014KT CAVOK"
    },
    {
      "icao": "HEMA",
      "alert": "OK",
      "vis_m": 9999,
      "fzfg": false,
      "metar_trigger": false,
      "taf_trigger": false,
      "metar": "METAR HEMA 211600Z 01011KT CAVOK 23/16 Q1013 NOSIG",
      "taf": "TAF HEMA 211700Z 2118/2224 30014KT CAVOK"
    },
    {
      "icao": "HESH",
      "alert": "OK",
      "vis_m": 9999,
      "fzfg": false,
      "metar_trigger": false,
      "taf_trigger": false,
      "metar": "METAR HESH 211600Z 01005KT CAVOK 26/07 Q1012 NOSIG",
      "taf": "TAF HESH 211700Z 2118/2224 35012KT CAVOK"
    },
    {
      "icao": "HESX",
      "alert": "OK",
      "vis_m": 9999,
      "fzfg": false,
      "metar_trigger": false,
      "taf_trigger": false,
      "metar": "METAR HESX 211600Z 32010KT CAVOK 20/04 Q1017 NOSIG",
      "taf": "TAF HESX 211700Z 2118/2224 30009KT CAVOK"
    },
    {
      "icao": "LATI",
      "alert": "OK",
      "vis_m": 9999,
      "fzfg": false,
      "metar_trigger": false,
      "taf_trigger": false,
      "metar": "METAR LATI 211650Z 31009KT CAVOK 11/03 Q1016 NOSIG",
      "taf": "TAF LATI 211100Z 2112/2212 33010KT 9999 FEW050 TX15/2112Z TN03/2205Z"
    },
    {
      "icao": "LBPD",
      "alert": "OK",
      "vis_m": 9999,
      "fzfg": false,
      "metar_trigger": false,
      "taf_trigger": false,
      "metar": "METAR LBPD 211630Z AUTO 32008KT 9999 -RA OVC026/// 04/03 Q1019 NOSIG",
      "taf": "TAF LBPD 211100Z 2112/2212 29014KT 5000 RA BKN008 OVC020"
    },
    {
      "icao": "LBSF",
      "alert": "OK",
      "vis_m": 9999,
      "fzfg": false,
      "metar_trigger": false,
      "taf_trigger": false,
      "metar": "METAR LBSF 211630Z AUTO 32007KT 9999 -SHSN FEW014/// SCT047/// OVC057/// M02/M05 Q1020 NOSIG",
      "taf": "TAF LBSF 211100Z 2112/2212 02010KT 5000 -SN SCT012 BKN030"
    },
    {
      "icao": "LBWN",
      "alert": "OK",
      "vis_m": 9999,
      "fzfg": false,
      "metar_trigger": false,
      "taf_trigger": false,
      "metar": "METAR LBWN 211630Z 28006KT 220V340 9999 OVC010 01/M00 Q1020 NOSIG",
      "taf": "TAF LBWN 211100Z 2112/2212 36014G26KT 9999 OVC008"
    },
    {
      "icao": "LCLK",
      "alert": "OK",
      "vis_m": 9999,
      "fzfg": false,
      "metar_trigger": false,
      "taf_trigger": false,
      "metar": "METAR LCLK 211630Z 28007KT 9999 FEW020 17/11 Q1014 NOSIG",
      "taf": "TAF LCLK 211130Z 2112/2212 11008KT 9999 FEW025"
    },
    {
      "icao": "LCPH",
      "alert": "OK",
      "vis_m": 9999,
      "fzfg": false,
      "metar_trigger": false,
      "taf_trigger": false,
      "metar": "METAR LCPH 211630Z 33007KT 9999 SCT040 16/10 Q1014 NOSIG",
      "taf": "TAF LCPH 211130Z 2112/2212 28014KT 9999 FEW020"
    },
    {
      "icao": "LEAL",
      "alert": "OK",
      "vis_m": 9999,
      "fzfg": false,
      "metar_trigger": false,
      "taf_trigger": false,
      "metar": "METAR LEAL 211630Z 18006KT 140V220 CAVOK 18/05 Q1030 NOSIG",
      "taf": "TAF LEAL 211100Z 2112/2212 16007KT CAVOK TX19/2113Z TN05/2206Z"
    },
    {
      "icao": "LEBB",
      "alert": "OK",
      "vis_m": 9999,
      "fzfg": false,
      "metar_trigger": false,
      "taf_trigger": false,
      "metar": "METAR LEBB 211630Z 27006KT 230V300 CAVOK 16/08 Q1029 NOSIG",
      "taf": ""
    },
    {
      "icao": "LEBL",
      "alert": "OK",
      "vis_m": 9999,
      "fzfg": false,
      "metar_trigger": false,
      "taf_trigger": false,
      "metar": "METAR LEBL 211630Z 21008KT CAVOK 14/07 Q1029 NOSIG",
      "taf": "TAF LEBL 211100Z 2112/2212 22010KT 9999 FEW020 TX16/2113Z TN06/2207Z"
    },
    {
      "icao": "LECH",
      "alert": "OK",
      "vis_m": 9000,
      "fzfg": false,
      "metar_trigger": false,
      "taf_trigger": false,
      "metar": "METAR LECH 211630Z AUTO 12007KT 9000 NCD 12/09 Q1030",
      "taf": ""
    },
    {
      "icao": "LEMD",
      "alert": "OK",
      "vis_m": 9999,
      "fzfg": false,
      "metar_trigger": false,
      "taf_trigger": false,
      "metar": "METAR LEMD 211630Z 21004KT 160V240 CAVOK 19/M02 Q1029 NOSIG",
      "taf": "TAF LEMD 211100Z 2112/2218 VRB04KT CAVOK TX17/2115Z TN01/2207Z"
    },
    {
      "icao": "LEMG",
      "alert": "OK",
      "vis_m": 9999,
      "fzfg": false,
      "metar_trigger": false,
      "taf_trigger": false,
      "metar": "METAR LEMG 211630Z 13007KT CAVOK 15/09 Q1029 NOSIG",
      "taf": "TAF LEMG 211100Z 2112/2212 29005KT CAVOK TX20/2114Z TN10/2207Z"
    },
    {
      "icao": "LEVC",
      "alert": "OK",
      "vis_m": 9999,
      "fzfg": false,
      "metar_trigger": false,
      "taf_trigger": false,
      "metar": "METAR LEVC 211630Z 08009KT 060V120 CAVOK 16/07 Q1030 NOSIG",
      "taf": "TAF LEVC 211100Z 2112/2212 11010KT CAVOK TX18/2114Z TN06/2206Z"
    },
    {
      "icao": "LEXJ",
      "alert": "OK",
      "vis_m": 9999,
      "fzfg": false,
      "metar_trigger": false,
      "taf_trigger": false,
      "metar": "METAR LEXJ 211630Z 05004KT 010V100 CAVOK 13/09 Q1029",
      "taf": "TAF LEXJ 211400Z 2115/2215 VRB03KT CAVOK TX14/2214Z TN07/2207Z"
    },
    {
      "icao": "LEZG",
      "alert": "OK",
      "vis_m": 9999,
      "fzfg": false,
      "metar_trigger": false,
      "taf_trigger": false,
      "metar": "METAR LEZG 211630Z 33003KT 300V030 CAVOK 16/04 Q1029 NOSIG",
      "taf": "TAF LEZG 211100Z 2112/2212 32006KT CAVOK TX16/2114Z TN03/2206Z"
    },
    {
      "icao": "LEZL",
      "alert": "OK",
      "vis_m": 9999,
      "fzfg": false,
      "metar_trigger": false,
      "taf_trigger": false,
      "metar": "METAR LEZL 211630Z 05004KT 030V100 CAVOK 23/07 Q1027 NOSIG",
      "taf": "TAF LEZL 211400Z 2115/2215 05007KT CAVOK TX22/2115Z TN08/2207Z"
    },
    {
      "icao": "LFBD",
      "alert": "OK",
      "vis_m": 9999,
      "fzfg": false,
      "metar_trigger": false,
      "taf_trigger": false,
      "metar": "METAR LFBD 211630Z AUTO VRB02KT 9999 OVC027 14/09 Q1030 NOSIG",
      "taf": "TAF LFBD 211100Z 2112/2218 VRB03KT 9999 BKN035 TX16/2214Z TN04/2206Z"
    },
    {
      "icao": "LFLL",
      "alert": "OK",
      "vis_m": 9999,
      "fzfg": false,
      "metar_trigger": false,
      "taf_trigger": false,
      "metar": "METAR LFLL 211630Z 07005KT 320V100 9999 BKN043 12/07 Q1030 NOSIG",
      "taf": "TAF LFLL 211100Z 2112/2218 06005KT 9999 BKN030"
    },
    {
      "icao": "LFLS",
      "alert": "OK",
      "vis_m": 9999,
      "fzfg": false,
      "metar_trigger": false,
      "taf_trigger": false,
      "metar": "METAR LFLS 211630Z AUTO 35008KT CAVOK 11/06 Q1029 NOSIG",
      "taf": "TAF LFLS 211400Z 2115/2215 01008KT 9999 BKN030"
    },
    {
      "icao": "LFMN",
      "alert": "OK",
      "vis_m": 9999,
      "fzfg": false,
      "metar_trigger": false,
      "taf_trigger": false,
      "metar": "METAR LFMN 211630Z 10004KT CAVOK 15/10 Q1023 NOSIG",
      "taf": "TAF LFMN 211400Z 2115/2221 10005KT CAVOK"
    },
    {
      "icao": "LFOB",
      "alert": "OK",
      "vis_m": 9999,
      "fzfg": false,
      "metar_trigger": false,
      "taf_trigger": false,
      "metar": "METAR LFOB 211630Z AUTO 23012KT 200V260 9999 BKN026 BKN035 OVC042 14/10 Q1024 TEMPO 25015G25KT 3500 RADZ BKN007 OVC012",
      "taf": "TAF LFOB 211100Z 2112/2212 26012KT 9999 OVC020"
    },
    {
      "icao": "LFPO",
      "alert": "OK",
      "vis_m": 9999,
      "fzfg": false,
      "metar_trigger": false,
      "taf_trigger": false,
      "metar": "METAR LFPO 211630Z 24012KT 9999 BKN024 BKN030 BKN046 14/09 Q1025 NOSIG",
      "taf": "TAF LFPO 211100Z 2112/2218 25010KT 9999 BKN020"
    },
    {
      "icao": "LFSB",
      "alert": "OK",
      "vis_m": 9999,
      "fzfg": false,
      "metar_trigger": false,
      "taf_trigger": false,
      "metar": "METAR LFSB 211630Z AUTO 24009KT 9999 FEW022 BKN100 BKN170 11/07 Q1027 NOSIG",
      "taf": "TAF LFSB 211100Z 2112/2212 25012KT 9999 SCT023 OVC070"
    },
    {
      "icao": "LGAV",
      "alert": "OK",
      "vis_m": 9999,
      "fzfg": false,
      "metar_trigger": false,
      "taf_trigger": false,
      "metar": "METAR LGAV 211650Z 20004KT 160V230 9999 FEW020CB SCT035 BKN070 11/08 Q1014 NOSIG",
      "taf": "TAF LGAV 211100Z 2112/2212 01010KT 9999 SCT025 SCT070"
    },
    {
      "icao": "LGTS",
      "alert": "OK",
      "vis_m": 9999,
      "fzfg": false,
      "metar_trigger": false,
      "taf_trigger": false,
      "metar": "METAR LGTS 211650Z 34015KT 9999 FEW025 11/03 Q1016 NOSIG",
      "taf": "TAF LGTS 211100Z 2112/2212 34013KT 9999 FEW030"
    },
    {
      "icao": "LHBP",
      "alert": "OK",
      "vis_m": 9999,
      "fzfg": false,
      "metar_trigger": false,
      "taf_trigger": false,
      "metar": "METAR LHBP 211630Z 26006KT 9999 -RA OVC022 04/00 Q1023 NOSIG",
      "taf": "TAF LHBP 211115Z 2112/2212 20004KT CAVOK"
    },
    {
      "icao": "LHDC",
      "alert": "OK",
      "vis_m": 5000,
      "fzfg": false,
      "metar_trigger": false,
      "taf_trigger": false,
      "metar": "METAR LHDC 211615Z AUTO 17003KT 140V210 5000 BR SCT013 BKN073 02/02 Q1023 NOSIG",
      "taf": "TAF LHDC 211415Z 2115/2124 24006KT 8000 SCT004 BKN030"
    },
    {
      "icao": "LIBD",
      "alert": "OK",
      "vis_m": 9999,
      "fzfg": false,
      "metar_trigger": false,
      "taf_trigger": false,
      "metar": "METAR LIBD 211650Z 29007KT 260V320 9999 BKN030 11/06 Q1020",
      "taf": "TAF LIBD 211100Z 2112/2212 34016KT 9999 SCT030"
    },
    {
      "icao": "LIBG",
      "alert": "OK",
      "vis_m": 9999,
      "fzfg": false,
      "metar_trigger": false,
      "taf_trigger": false,
      "metar": "METAR LIBG 211550Z 33012KT CAVOK 11/06 Q1019",
      "taf": "TAF LIBG 211400Z 2115/2124 34013KT CAVOK"
    },
    {
      "icao": "LIBP",
      "alert": "OK",
      "vis_m": 9999,
      "fzfg": false,
      "metar_trigger": false,
      "taf_trigger": false,
      "metar": "METAR LIBP 211650Z AUTO 31004KT 280V340 9999 BKN180/// 10/04 Q1024",
      "taf": "TAF LIBP 211100Z 2112/2212 34012KT 9999 SCT030"
    },
    {
      "icao": "LIBR",
      "alert": "OK",
      "vis_m": 9999,
      "fzfg": false,
      "metar_trigger": false,
      "taf_trigger": false,
      "metar": "METAR LIBR 211650Z 34017G27KT 9999 FEW030 12/06 Q1018",
      "taf": "TAF LIBR 211100Z 2112/2212 32022G32KT 9999 SCT020"
    },
    {
      "icao": "LICA",
      "alert": "OK",
      "vis_m": 9999,
      "fzfg": false,
      "metar_trigger": false,
      "taf_trigger": false,
      "metar": "METAR LICA 211650Z AUTO 27009KT 9999 BKN063/// 12/08 Q1019",
      "taf": "TAF LICA 211100Z 2112/2212 28012KT 9999 FEW020"
    },
    {
      "icao": "LICC",
      "alert": "OK",
      "vis_m": 9999,
      "fzfg": false,
      "metar_trigger": false,
      "taf_trigger": false,
      "metar": "METAR LICC 211650Z 09004KT 9999 BKN050 14/09 Q1020",
      "taf": "TAF LICC 211100Z 2112/2212 28012KT 9999 FEW040"
    },
    {
      "icao": "LICJ",
      "alert": "OK",
      "vis_m": 9999,
      "fzfg": false,
      "metar_trigger": false,
      "taf_trigger": false,
      "metar": "METAR LICJ 211650Z 32012KT CAVOK 14/08 Q1022",
      "taf": "TAF LICJ 211100Z 2112/2212 33020G30KT 9999 FEW030"
    },
    {
      "icao": "LIMC",
      "alert": "OK",
      "vis_m": 9999,
      "fzfg": false,
      "metar_trigger": false,
      "taf_trigger": false,
      "metar": "METAR LIMC 211650Z 26004KT CAVOK 13/05 Q1022 NOSIG",
      "taf": "TAF LIMC 211100Z 2112/2218 22006KT CAVOK"
    },
    {
      "icao": "LIME",
      "alert": "OK",
      "vis_m": 9999,
      "fzfg": false,
      "metar_trigger": false,
      "taf_trigger": false,
      "metar": "METAR LIME 211650Z 16003KT 130V240 CAVOK 11/05 Q1022 NOSIG",
      "taf": "TAF LIME 211100Z 2112/2212 23006KT CAVOK"
    },
    {
      "icao": "LIMF",
      "alert": "OK",
      "vis_m": 9999,
      "fzfg": false,
      "metar_trigger": false,
      "taf_trigger": false,
      "metar": "METAR LIMF 211650Z VRB01KT CAVOK 14/03 Q1022",
      "taf": "TAF LIMF 211100Z 2112/2212 VRB05KT CAVOK"
    },
    {
      "icao": "LIMJ",
      "alert": "OK",
      "vis_m": 9999,
      "fzfg": false,
      "metar_trigger": false,
      "taf_trigger": false,
      "metar": "METAR LIMJ 211650Z 15001KT CAVOK 14/08 Q1023",
      "taf": "TAF LIMJ 211100Z 2112/2212 VRB05KT CAVOK"
    },
    {
      "icao": "LIPE",
      "alert": "OK",
      "vis_m": 9999,
      "fzfg": false,
      "metar_trigger": false,
      "taf_trigger": false,
      "metar": "METAR LIPE 211650Z 04004KT CAVOK 13/03 Q1022",
      "taf": "TAF LIPE 211100Z 2112/2212 VRB05KT CAVOK"
    },
    {
      "icao": "LIPH",
      "alert": "OK",
      "vis_m": 9999,
      "fzfg": false,
      "metar_trigger": false,
      "taf_trigger": false,
      "metar": "METAR LIPH 211650Z 06002KT CAVOK 11/05 Q1023",
      "taf": "TAF LIPH 211100Z 2112/2212 22006KT 9999 FEW040"
    },
    {
      "icao": "LIPQ",
      "alert": "OK",
      "vis_m": 9999,
      "fzfg": false,
      "metar_trigger": false,
      "taf_trigger": false,
      "metar": "METAR LIPQ 211650Z AUTO VRB02KT 9999 BKN130/// 09/05 Q1023",
      "taf": "TAF LIPQ 211100Z 2112/2212 VRB06KT 9999 FEW030"
    },
    {
      "icao": "LIPR",
      "alert": "OK",
      "vis_m": 9999,
      "fzfg": false,
      "metar_trigger": false,
      "taf_trigger": false,
      "metar": "METAR LIPR 211650Z 12005KT CAVOK 09/04 Q1023",
      "taf": "TAF LIPR 211100Z 2112/2212 VRB06KT 9999 SCT030"
    },
    {
      "icao": "LIPX",
      "alert": "OK",
      "vis_m": 9999,
      "fzfg": false,
      "metar_trigger": false,
      "taf_trigger": false,
      "metar": "METAR LIPX 211650Z 21004KT CAVOK 11/05 Q1022",
      "taf": "TAF LIPX 211100Z 2112/2212 VRB05KT CAVOK"
    },
    {
      "icao": "LIPY",
      "alert": "OK",
      "vis_m": 9999,
      "fzfg": false,
      "metar_trigger": false,
      "taf_trigger": false,
      "metar": "METAR LIPY 211650Z AUTO 31003KT 9999 BKN170/// 10/06 Q1023",
      "taf": "TAF LIPY 211100Z 2112/2212 35015KT 9999 SCT030"
    },
    {
      "icao": "LIPZ",
      "alert": "OK",
      "vis_m": 9999,
      "fzfg": false,
      "metar_trigger": false,
      "taf_trigger": false,
      "metar": "METAR LIPZ 211650Z 14005KT CAVOK 09/06 Q1023 NOSIG",
      "taf": "TAF LIPZ 211100Z 2112/2218 VRB05KT CAVOK"
    },
    {
      "icao": "LIRF",
      "alert": "OK",
      "vis_m": 9999,
      "fzfg": false,
      "metar_trigger": false,
      "taf_trigger": false,
      "metar": "METAR LIRF 211650Z 31004KT CAVOK 13/07 Q1022 NOSIG",
      "taf": "TAF LIRF 211100Z 2112/2218 33012KT CAVOK"
    },
    {
      "icao": "LIRN",
      "alert": "OK",
      "vis_m": 9999,
      "fzfg": false,
      "metar_trigger": false,
      "taf_trigger": false,
      "metar": "METAR LIRN 211650Z 29009KT 9999 FEW050 12/07 Q1021 NOSIG",
      "taf": "TAF LIRN 211100Z 2112/2212 34010KT 9999 FEW030"
    },
    {
      "icao": "LIRP",
      "alert": "OK",
      "vis_m": 9999,
      "fzfg": false,
      "metar_trigger": false,
      "taf_trigger": false,
      "metar": "METAR LIRP 211645Z 25004KT CAVOK 13/09 Q1023 NOSIG",
      "taf": "TAF LIRP 211100Z 2112/2212 29005KT CAVOK"
    },
    {
      "icao": "LIRZ",
      "alert": "OK",
      "vis_m": 9999,
      "fzfg": false,
      "metar_trigger": false,
      "taf_trigger": false,
      "metar": "METAR LIRZ 211650Z AUTO 06003KT 340V090 9999 NCD 12/04 Q1022",
      "taf": "TAF LIRZ 211100Z 2112/2212 01010KT 9999 FEW030"
    },
    {
      "icao": "LJLJ",
      "alert": "OK",
      "vis_m": 9999,
      "fzfg": false,
      "metar_trigger": false,
      "taf_trigger": false,
      "metar": "METAR LJLJ 211630Z VRB01KT 9999 FEW050 04/02 Q1023 NOSIG",
      "taf": "TAF LJLJ 211100Z 2112/2212 VRB02KT 9999 FEW025"
    },
    {
      "icao": "LKMT",
      "alert": "OK",
      "vis_m": 8000,
      "fzfg": false,
      "metar_trigger": false,
      "taf_trigger": false,
      "metar": "METAR LKMT 211630Z 23012KT 8000 SCT034 OVC041 01/M00 Q1020 NOSIG",
      "taf": "TAF LKMT 211100Z 2112/2212 23008KT 9999 SCT011 BKN040"
    },
    {
      "icao": "LKPR",
      "alert": "OK",
      "vis_m": 9999,
      "fzfg": false,
      "metar_trigger": false,
      "taf_trigger": false,
      "metar": "METAR LKPR 211630Z 22011KT 9999 FEW030 06/03 Q1019 NOSIG",
      "taf": "TAF LKPR 211400Z 2115/2221 23011KT 9999 SCT025"
    },
    {
      "icao": "LLBG",
      "alert": "OK",
      "vis_m": 9999,
      "fzfg": false,
      "metar_trigger": false,
      "taf_trigger": false,
      "metar": "METAR LLBG 211650Z 25006KT 9999 FEW033 18/13 Q1016 NOSIG",
      "taf": "TAF LLBG 211105Z 2112/2212 27010KT 9999 SCT025"
    },
    {
      "icao": "LMML",
      "alert": "OK",
      "vis_m": 9999,
      "fzfg": false,
      "metar_trigger": false,
      "taf_trigger": false,
      "metar": "METAR LMML 211645Z 30017G28KT 9999 FEW018 14/10 Q1021 NOSIG",
      "taf": "TAF LMML 211100Z 2112/2212 30015KT 9999 FEW018"
    },
    {
      "icao": "LOWW",
      "alert": "OK",
      "vis_m": 9999,
      "fzfg": false,
      "metar_trigger": false,
      "taf_trigger": false,
      "metar": "METAR LOWW 211650Z 27005KT 250V310 CAVOK 05/02 Q1022 NOSIG",
      "taf": "TAF LOWW 211415Z 2115/2221 22006KT 9999 BKN040 TX08/2221Z TN03/2115Z"
    },
    {
      "icao": "LPFR",
      "alert": "OK",
      "vis_m": 9999,
      "fzfg": false,
      "metar_trigger": false,
      "taf_trigger": false,
      "metar": "METAR LPFR 211630Z 12009KT CAVOK 17/10 Q1026",
      "taf": "TAF LPFR 211100Z 2112/2212 07008KT CAVOK"
    },
    {
      "icao": "LPMA",
      "alert": "OK",
      "vis_m": 9999,
      "fzfg": false,
      "metar_trigger": false,
      "taf_trigger": false,
      "metar": "METAR LPMA 211630Z 04018KT 9999 FEW016 18/11 Q1025",
      "taf": "TAF LPMA 211100Z 2112/2212 03015KT 9999 SCT015"
    },
    {
      "icao": "LPPR",
      "alert": "OK",
      "vis_m": 9999,
      "fzfg": false,
      "metar_trigger": false,
      "taf_trigger": false,
      "metar": "METAR LPPR 211630Z 31006KT CAVOK 14/09 Q1029",
      "taf": "TAF LPPR 211100Z 2112/2212 VRB02KT CAVOK"
    },
    {
      "icao": "LPPS",
      "alert": "OK",
      "vis_m": 9999,
      "fzfg": false,
      "metar_trigger": false,
      "taf_trigger": false,
      "metar": "METAR LPPS 211630Z 07010KT 020V120 9999 SCT015 17/11 Q1025",
      "taf": "TAF LPPS 211100Z 2112/2218 06010KT 9999 SCT015 SCT030"
    },
    {
      "icao": "LPPT",
      "alert": "OK",
      "vis_m": 9999,
      "fzfg": false,
      "metar_trigger": false,
      "taf_trigger": false,
      "metar": "METAR LPPT 211630Z 05007KT CAVOK 19/11 Q1027",
      "taf": "TAF LPPT 211100Z 2112/2218 06007KT CAVOK"
    },
    {
      "icao": "LQBK",
      "alert": "OK",
      "vis_m": 9999,
      "fzfg": false,
      "metar_trigger": false,
      "taf_trigger": false,
      "metar": "METAR LQBK 211630Z VRB02KT 9999 -RA BKN043 04/01 Q1025 NOSIG",
      "taf": "TAF LQBK 211100Z 2112/2212 30007KT 9999 SCT040 TX11/2212Z TNM01/2206Z"
    },
    {
      "icao": "LQSA",
      "alert": "OK",
      "vis_m": 9999,
      "fzfg": false,
      "metar_trigger": false,
      "taf_trigger": false,
      "metar": "METAR LQSA 211630Z 34003KT 320V020 9999 SCT022 BKN030 03/M00 Q1022 NOSIG",
      "taf": "TAF LQSA 211100Z 2112/2212 29006KT 9999 BKN030 TX08/2212Z TNM01/2204Z"
    },
    {
      "icao": "LQTZ",
      "alert": "OK",
      "vis_m": 6000,
      "fzfg": false,
      "metar_trigger": false,
      "taf_trigger": false,
      "metar": "METAR LQTZ 211630Z VRB02KT 6000 OVC020 02/01 Q1024",
      "taf": "TAF LQTZ 211100Z 2112/2212 30007KT 9999 SCT015 OVC030 TX10/2212Z TN00/2206Z"
    },
    {
      "icao": "LRBC",
      "alert": "OK",
      "vis_m": 8000,
      "fzfg": false,
      "metar_trigger": false,
      "taf_trigger": false,
      "metar": "METAR LRBC 211630Z 18003KT 8000 -SN SCT042 BKN061 M03/M04 Q1024",
      "taf": "TAF LRBC 211400Z 2115/2124 VRB04KT 7000 BKN035"
    },
    {
      "icao": "LRBS",
      "alert": "OK",
      "vis_m": 1800,
      "fzfg": false,
      "metar_trigger": false,
      "taf_trigger": false,
      "metar": "METAR LRBS 211630Z 06008KT 1800 -SN FEW005 BKN007 OVC037 M02/M03 Q1024 TEMPO 1500 -SN BR",
      "taf": "TAF LRBS 211100Z 2112/2212 06012KT 3000 SN BR BKN010 OVC030"
    },
    {
      "icao": "LRBV",
      "alert": "OK",
      "vis_m": 4000,
      "fzfg": false,
      "metar_trigger": false,
      "taf_trigger": false,
      "metar": "METAR LRBV 211630Z 26002KT 4000 +SG BKN005 BKN030 OVC038 M03/M04 Q1021",
      "taf": "TAF LRBV 211400Z 2115/2124 VRB04KT 5000 -SN BR BKN015 OVC035"
    },
    {
      "icao": "LRCL",
      "alert": "OK",
      "vis_m": 9999,
      "fzfg": false,
      "metar_trigger": false,
      "taf_trigger": false,
      "metar": "METAR LRCL 211630Z 00000KT 9999 OVC030 01/M01 Q1022",
      "taf": "TAF LRCL 211400Z 2115/2124 11007KT 5000 -SN BR SCT020 OVC040"
    },
    {
      "icao": "LRCV",
      "alert": "OK",
      "vis_m": 7000,
      "fzfg": false,
      "metar_trigger": false,
      "taf_trigger": false,
      "metar": "METAR LRCV 211630Z 22004KT 7000 -SN FEW014 OVC028 M02/M03 Q1024",
      "taf": "TAF LRCV 211400Z 2115/2124 VRB04KT 5000 -SN BR BKN020 OVC035"
    },
    {
      "icao": "LRIA",
      "alert": "OK",
      "vis_m": 9999,
      "fzfg": false,
      "metar_trigger": false,
      "taf_trigger": false,
      "metar": "METAR LRIA 211630Z 07005KT CAVOK M00/M06 Q1025",
      "taf": "TAF LRIA 211400Z 2115/2124 VRB04KT CAVOK"
    },
    {
      "icao": "LROP",
      "alert": "OK",
      "vis_m": 2000,
      "fzfg": false,
      "metar_trigger": false,
      "taf_trigger": false,
      "metar": "METAR LROP 211630Z 07010KT 2000 -SN BR FEW006 OVC029 M02/M02 Q1024 TEMPO 1500 -SN BR",
      "taf": "TAF LROP 211100Z 2112/2212 06010KT 3000 SN BR BKN010 OVC030"
    },
    {
      "icao": "LRSB",
      "alert": "OK",
      "vis_m": 1800,
      "fzfg": false,
      "metar_trigger": false,
      "taf_trigger": false,
      "metar": "METAR LRSB 211630Z VRB01KT 1800 -SN BR FEW005 BKN008 OVC015 M00/M01 Q1022",
      "taf": "TAF LRSB 211100Z 2112/2212 VRB04KT 3000 -SN BR SCT020 OVC035"
    },
    {
      "icao": "LRSM",
      "alert": "OK",
      "vis_m": 9999,
      "fzfg": false,
      "metar_trigger": false,
      "taf_trigger": false,
      "metar": "METAR LRSM 211630Z AUTO 20006KT 9999 -DZ FEW017/// BKN021/// 03/00 Q1023",
      "taf": ""
    },
    {
      "icao": "LRSV",
      "alert": "OK",
      "vis_m": 9999,
      "fzfg": false,
      "metar_trigger": false,
      "taf_trigger": false,
      "metar": "METAR LRSV 211630Z 12009KT 9999 -SN BKN035 M03/M06 Q1021",
      "taf": "TAF LRSV 211400Z 2115/2124 11010KT CAVOK"
    },
    {
      "icao": "LRTM",
      "alert": "OK",
      "vis_m": 3700,
      "fzfg": false,
      "metar_trigger": false,
      "taf_trigger": false,
      "metar": "METAR LRTM 211630Z 25003KT 3700 -SN BR FEW004 SCT008 BKN012 00/M00 Q1022",
      "taf": "TAF LRTM 211400Z 2115/2124 VRB04KT 9999 SCT020 BKN030"
    },
    {
      "icao": "LRTR",
      "alert": "OK",
      "vis_m": 9999,
      "fzfg": false,
      "metar_trigger": false,
      "taf_trigger": false,
      "metar": "METAR LRTR 211630Z 22006KT 9999 -RA SCT026 BKN046 03/02 Q1024",
      "taf": "TAF LRTR 211100Z 2112/2212 21010KT 9999 BKN025"
    },
    {
      "icao": "LTAC",
      "alert": "OK",
      "vis_m": 9999,
      "fzfg": false,
      "metar_trigger": false,
      "taf_trigger": false,
      "metar": "METAR LTAC 211650Z VRB02KT 9999 SCT040 BKN100 09/02 Q1012 NOSIG RMK RWY21C 14003KT 120V180 RWY03L VRB01KT RWY21R VRB02KT RWY03R VRB02KT RWY21L 13003KT",
      "taf": "TAF LTAC 211040Z 2112/2212 VRB02KT 9999 SCT040 SCT100"
    },
    {
      "icao": "LTFM",
      "alert": "OK",
      "vis_m": 9999,
      "fzfg": false,
      "metar_trigger": false,
      "taf_trigger": false,
      "metar": "METAR LTFM 211650Z 36016KT 9999 BKN011 BKN022 08/06 Q1014 NOSIG RMK RWY17L 36013KT RWY34L 36016KT RWY16R 36012KT RWY36 36015KT RWY18 01014KT",
      "taf": "TAF LTFM 211040Z 2112/2218 32017KT 9999 SCT008 SCT035 BKN100"
    },
    {
      "icao": "LUKK",
      "alert": "OK",
      "vis_m": 9999,
      "fzfg": false,
      "metar_trigger": false,
      "taf_trigger": false,
      "metar": "METAR LUKK 211630Z 07008KT CAVOK M02/M06 Q1025 TEMPO 5000 SN BKN018",
      "taf": "TAF LUKK 211123Z 2112/2212 03010KT 9999 BKN035"
    },
    {
      "icao": "LWOH",
      "alert": "OK",
      "vis_m": 9999,
      "fzfg": false,
      "metar_trigger": false,
      "taf_trigger": false,
      "metar": "METAR LWOH 211650Z 31012KT 9999 BKN050 06/01 Q1016",
      "taf": ""
    },
    {
      "icao": "LWSK",
      "alert": "OK",
      "vis_m": 9999,
      "fzfg": false,
      "metar_trigger": false,
      "taf_trigger": false,
      "metar": "METAR LWSK 211620Z 02017KT 9999 FEW035 SCT070 03/M02 Q1019 NOSIG",
      "taf": ""
    },
    {
      "icao": "LYBE",
      "alert": "OK",
      "vis_m": 9999,
      "fzfg": false,
      "metar_trigger": false,
      "taf_trigger": false,
      "metar": "METAR LYBE 211630Z 26006KT 9999 BKN020 02/M00 Q1025 NOSIG",
      "taf": "TAF LYBE 211100Z 2112/2212 27008KT 9999 BKN012 BKN027 TX08/2212Z TN00/2204Z"
    },
    {
      "icao": "LYNI",
      "alert": "OK",
      "vis_m": 9999,
      "fzfg": false,
      "metar_trigger": false,
      "taf_trigger": false,
      "metar": "METAR LYNI 211630Z 32006KT 9999 FEW020 SCT033 BKN055 01/M03 Q1023 NOSIG",
      "taf": "TAF LYNI 211100Z 2112/2212 01008KT 9999 SCT020 BKN047 TX05/2212Z TN00/2205Z"
    },
    {
      "icao": "LYPG",
      "alert": "OK",
      "vis_m": 9999,
      "fzfg": false,
      "metar_trigger": false,
      "taf_trigger": false,
      "metar": "METAR LYPG 211630Z 03010KT 350V050 9999 SCT070 12/00 Q1017 NOSIG",
      "taf": "TAF LYPG 211100Z 2112/2212 16005KT 9999 FEW050 TX15/2113Z TN07/2205Z"
    },
    {
      "icao": "LZIB",
      "alert": "OK",
      "vis_m": 5000,
      "fzfg": false,
      "metar_trigger": false,
      "taf_trigger": false,
      "metar": "METAR LZIB 211630Z 02003KT 5000 BR FEW009 01/00 Q1023 NOSIG",
      "taf": "TAF LZIB 211115Z 2112/2212 VRB02KT 9999 SCT020 BKN030"
    },
    {
      "icao": "LZKZ",
      "alert": "OK",
      "vis_m": 9999,
      "fzfg": false,
      "metar_trigger": false,
      "taf_trigger": false,
      "metar": "METAR LZKZ 211630Z 18006KT CAVOK 00/M02 Q1021 NOSIG",
      "taf": ""
    },
    {
      "icao": "LZTT",
      "alert": "OK",
      "vis_m": 9999,
      "fzfg": false,
      "metar_trigger": false,
      "taf_trigger": false,
      "metar": "METAR LZTT 211630Z 26010KT 9999 FEW023 BKN056 02/M01 Q1018 NOSIG",
      "taf": "TAF LZTT 211115Z 2112/2212 VRB02KT 9999 FEW050"
    },
    {
      "icao": "OEJN",
      "alert": "OK",
      "vis_m": 9999,
      "fzfg": false,
      "metar_trigger": false,
      "taf_trigger": false,
      "metar": "METAR OEJN 211600Z 26008KT CAVOK 27/19 Q1011 NOSIG",
      "taf": "TAF OEJN 211100Z 2112/2218 25010KT CAVOK"
    },
    {
      "icao": "OEMA",
      "alert": "OK",
      "vis_m": 9999,
      "fzfg": false,
      "metar_trigger": false,
      "taf_trigger": false,
      "metar": "METAR OEMA 211600Z 10008KT CAVOK 30/M11 Q1015 NOSIG",
      "taf": "TAF OEMA 211100Z 2112/2218 09010KT 7000 NSC"
    },
    {
      "icao": "OJAI",
      "alert": "OK",
      "vis_m": 5000,
      "fzfg": false,
      "metar_trigger": false,
      "taf_trigger": false,
      "metar": "METAR OJAI 211600Z 27010KT 5000 HZ NSC 18/06 Q1016 NOSIG",
      "taf": "TAF OJAI 211100Z 2112/2218 24012KT 5000 HZ NSC"
    },
    {
      "icao": "OMAA",
      "alert": "OK",
      "vis_m": 9999,
      "fzfg": false,
      "metar_trigger": false,
      "taf_trigger": false,
      "metar": "METAR OMAA 211630Z 32011KT CAVOK 24/20 Q1014 NOSIG",
      "taf": "TAF OMAA 211100Z 2112/2218 34012KT 8000 NSC"
    },
    {
      "icao": "OMDB",
      "alert": "OK",
      "vis_m": 9999,
      "fzfg": false,
      "metar_trigger": false,
      "taf_trigger": false,
      "metar": "METAR OMDB 211630Z 33006KT 320V020 CAVOK 25/18 Q1014 NOSIG",
      "taf": "TAF OMDB 211700Z 2118/2300 18005KT 8000 NSC"
    },
    {
      "icao": "UAAA",
      "alert": "OK",
      "vis_m": 9999,
      "fzfg": false,
      "metar_trigger": false,
      "taf_trigger": false,
      "metar": "METAR UAAA 211630Z 13002MPS 9999 FEW050 SCT100 03/00 Q1028 NOSIG",
      "taf": "TAF UAAA 211102Z 2112/2212 20003G08MPS 3100 BR FU SCT011 BKN100 TX08/2209Z TNM03/2201Z"
    },
    {
      "icao": "UBBB",
      "alert": "OK",
      "vis_m": 9999,
      "fzfg": false,
      "metar_trigger": false,
      "taf_trigger": false,
      "metar": "METAR UBBB 211630Z 32010KT CAVOK 08/05 Q1022 NOSIG",
      "taf": "TAF UBBB 211058Z 2112/2212 32014KT 9999 SCT012 SCT025 TX10/2112Z TN05/2201Z"
    },
    {
      "icao": "UDSG",
      "alert": "OK",
      "vis_m": 9999,
      "fzfg": false,
      "metar_trigger": false,
      "taf_trigger": false,
      "metar": "METAR UDSG 211630Z 12001KT 9999 NSC M01/M03 Q1022 NOSIG",
      "taf": "TAF UDSG 211058Z 2112/2212 VRB06KT 9999 FEW040"
    },
    {
      "icao": "UDYZ",
      "alert": "OK",
      "vis_m": 7000,
      "fzfg": false,
      "metar_trigger": false,
      "taf_trigger": false,
      "metar": "METAR UDYZ 211630Z 01003KT 7000 NSC 06/M01 Q1020 NOSIG",
      "taf": "TAF UDYZ 211100Z 2112/2212 VRB04KT 9999 FEW050"
    },
    {
      "icao": "UGKO",
      "alert": "OK",
      "vis_m": 9999,
      "fzfg": false,
      "metar_trigger": false,
      "taf_trigger": false,
      "metar": "METAR UGKO 211630Z 10006KT CAVOK 15/M02 Q1012 NOSIG",
      "taf": "TAF UGKO 211100Z 2112/2212 08017KT CAVOK TX21/2112Z TN10/2119Z"
    }
  ]
}