{
  "ts_utc": "2026-02-25T05:16:00Z",
  "threshold_m": 150,
  "source": "stations_override.txt (ICAO list) + aviationweather.gov (METAR/TAF raw)",
  "station_count": 159,
  "stations": [
    {
      "icao": "BIKF",
      "alert": "OK",
      "vis_m": 9999,
      "fzfg": false,
      "metar_trigger": false,
      "taf_trigger": false,
      "metar": "METAR BIKF 250500Z 27027G37KT 9999 FEW020 BKN038 M03/M10 Q1002",
      "taf": "TAF BIKF 250434Z 2506/2606 27022KT 9999 -SHSN SCT020 BKN030 TX03/2604Z TNM02/2506Z"
    },
    {
      "icao": "BKPR",
      "alert": "OK",
      "vis_m": 9999,
      "fzfg": false,
      "metar_trigger": false,
      "taf_trigger": false,
      "metar": "METAR BKPR 250500Z 11004KT 060V130 9999 BKN055 02/01 Q1023 NOSIG",
      "taf": "TAF BKPR 242330Z 2500/2524 33008KT 9999 FEW040"
    },
    {
      "icao": "EBCI",
      "alert": "OK",
      "vis_m": 9999,
      "fzfg": false,
      "metar_trigger": false,
      "taf_trigger": false,
      "metar": "METAR EBCI 250450Z 16006KT CAVOK 09/08 Q1019 NOSIG",
      "taf": "TAF EBCI 242306Z 2500/2606 15005KT 9999 SCT012"
    },
    {
      "icao": "EDDB",
      "alert": "OK",
      "vis_m": 400,
      "fzfg": true,
      "metar_trigger": false,
      "taf_trigger": false,
      "metar": "METAR EDDB 250450Z AUTO 09003KT 0400 0350 R06L/1500U R06R/0800U FZFG FEW002 M00/M00 Q1023 TEMPO BKN001",
      "taf": "TAF EDDB 242300Z 2500/2524 12004KT CAVOK"
    },
    {
      "icao": "EDDH",
      "alert": "OK",
      "vis_m": 9999,
      "fzfg": false,
      "metar_trigger": false,
      "taf_trigger": false,
      "metar": "METAR EDDH 250450Z AUTO 13004KT 9999 BKN028 06/05 Q1021 NOSIG",
      "taf": "TAF EDDH 242300Z 2500/2606 VRB02KT 9999 BKN020"
    },
    {
      "icao": "EDDK",
      "alert": "OK",
      "vis_m": 9999,
      "fzfg": false,
      "metar_trigger": false,
      "taf_trigger": false,
      "metar": "METAR EDDK 250450Z AUTO 14008KT 9999 OVC007 10/09 Q1021 NOSIG",
      "taf": ""
    },
    {
      "icao": "EDDN",
      "alert": "OK",
      "vis_m": 9000,
      "fzfg": false,
      "metar_trigger": false,
      "taf_trigger": false,
      "metar": "METAR EDDN 250450Z AUTO VRB01KT 9000 BKN003 OVC007 02/02 Q1023",
      "taf": ""
    },
    {
      "icao": "EDDS",
      "alert": "OK",
      "vis_m": 600,
      "fzfg": false,
      "metar_trigger": false,
      "taf_trigger": false,
      "metar": "METAR EDDS 250450Z AUTO 20003KT 0600 0350 R07/0400N FG VV003 05/05 Q1021",
      "taf": "TAF EDDS 242300Z 2500/2524 VRB03KT 0800 FG SCT002"
    },
    {
      "icao": "EDFH",
      "alert": "OK",
      "vis_m": 400,
      "fzfg": false,
      "metar_trigger": false,
      "taf_trigger": false,
      "metar": "METAR EDFH 250450Z 14016KT 0400 R21/0500N FG VV/// 08/08 Q1020",
      "taf": "TAF EDFH 242300Z 2500/2524 14010KT 0800 FG SCT004"
    },
    {
      "icao": "EDJA",
      "alert": "OK",
      "vis_m": 900,
      "fzfg": false,
      "metar_trigger": false,
      "taf_trigger": false,
      "metar": "METAR EDJA 250450Z VRB01KT 0900 R06/0700D FG BKN003 00/00 Q1022",
      "taf": "TAF EDJA 250200Z 2503/2512 VRB02KT 0400 FG VV001"
    },
    {
      "icao": "EDLW",
      "alert": "OK",
      "vis_m": 9999,
      "fzfg": false,
      "metar_trigger": false,
      "taf_trigger": false,
      "metar": "METAR EDLW 250450Z COR 16002KT 9999 FEW009 07/07 Q1020",
      "taf": "TAF EDLW 250420Z 2505/2524 16007KT CAVOK"
    },
    {
      "icao": "EDNY",
      "alert": "OK",
      "vis_m": 2000,
      "fzfg": false,
      "metar_trigger": false,
      "taf_trigger": false,
      "metar": "METAR EDNY 250450Z 03006KT 350V080 2000 BR SCT001 BKN004 04/04 Q1022",
      "taf": "TAF EDNY 250200Z 2503/2512 VRB03KT 0400 FG VV001"
    },
    {
      "icao": "EDSB",
      "alert": "OK",
      "vis_m": 400,
      "fzfg": false,
      "metar_trigger": false,
      "taf_trigger": false,
      "metar": "METAR EDSB 250450Z COR 03003KT 0400 R21/0500N FG VV/// 07/06 Q1021",
      "taf": "TAF EDSB 242300Z 2500/2524 VRB03KT 0800 FG SCT002"
    },
    {
      "icao": "EETN",
      "alert": "OK",
      "vis_m": 9999,
      "fzfg": false,
      "metar_trigger": false,
      "taf_trigger": false,
      "metar": "METAR EETN 250450Z 06005KT CAVOK M07/M08 Q1023 NOSIG",
      "taf": "TAF EETN 242330Z 2500/2524 07010KT CAVOK"
    },
    {
      "icao": "EFTU",
      "alert": "OK",
      "vis_m": 9999,
      "fzfg": false,
      "metar_trigger": false,
      "taf_trigger": false,
      "metar": "METAR EFTU 250450Z AUTO VRB02KT CAVOK M17/M19 Q1025",
      "taf": "TAF EFTU 250228Z 2503/2603 VRB02KT CAVOK"
    },
    {
      "icao": "EGBB",
      "alert": "OK",
      "vis_m": 9000,
      "fzfg": false,
      "metar_trigger": false,
      "taf_trigger": false,
      "metar": "METAR EGBB 250450Z 18005KT 9000 OVC006 10/09 Q1012",
      "taf": "TAF EGBB 250458Z 2506/2606 18006KT 6000 BKN006"
    },
    {
      "icao": "EGGP",
      "alert": "OK",
      "vis_m": 9999,
      "fzfg": false,
      "metar_trigger": false,
      "taf_trigger": false,
      "metar": "METAR EGGP 250450Z AUTO 15010KT 9999 NCD 07/06 Q1011",
      "taf": "TAF EGGP 250454Z 2506/2606 16008KT 9999 FEW030"
    },
    {
      "icao": "EGGW",
      "alert": "OK",
      "vis_m": 2700,
      "fzfg": false,
      "metar_trigger": false,
      "taf_trigger": false,
      "metar": "METAR EGGW 250450Z AUTO 17008KT 2700 BR OVC002 10/09 Q1014",
      "taf": "TAF EGGW 250453Z 2506/2606 16010KT 4000 BR BKN002"
    },
    {
      "icao": "EGKK",
      "alert": "OK",
      "vis_m": 6000,
      "fzfg": false,
      "metar_trigger": false,
      "taf_trigger": false,
      "metar": "METAR EGKK 250450Z VRB01KT 6000 BKN002 09/09 Q1015",
      "taf": "TAF EGKK 250452Z 2506/2612 15004KT 9999 FEW035"
    },
    {
      "icao": "EGNM",
      "alert": "OK",
      "vis_m": 9999,
      "fzfg": false,
      "metar_trigger": false,
      "taf_trigger": false,
      "metar": "METAR EGNM 250450Z 21004KT CAVOK 05/05 Q1011",
      "taf": "TAF EGNM 250455Z 2506/2606 21007KT 9999 FEW008"
    },
    {
      "icao": "EGPD",
      "alert": "OK",
      "vis_m": 9999,
      "fzfg": false,
      "metar_trigger": false,
      "taf_trigger": false,
      "metar": "METAR EGPD 250450Z COR AUTO 15005KT 9999 NCD 08/06 Q1005 NOSIG",
      "taf": "TAF EGPD 250455Z 2506/2606 18009KT 9999 FEW025"
    },
    {
      "icao": "EGPF",
      "alert": "OK",
      "vis_m": 3200,
      "fzfg": false,
      "metar_trigger": false,
      "taf_trigger": false,
      "metar": "METAR EGPF 250450Z AUTO VRB02KT 3200 DZ OVC007 10/09 Q1007",
      "taf": "TAF EGPF 250455Z 2506/2606 18007KT 9999 SCT025"
    },
    {
      "icao": "EHBK",
      "alert": "OK",
      "vis_m": 9999,
      "fzfg": false,
      "metar_trigger": false,
      "taf_trigger": false,
      "metar": "METAR EHBK 250455Z AUTO 11005KT 9999 NCD 07/07 Q1019 NOSIG",
      "taf": "TAF EHBK 242316Z 2500/2606 15004KT 9999 BKN018"
    },
    {
      "icao": "EHEH",
      "alert": "OK",
      "vis_m": 9999,
      "fzfg": false,
      "metar_trigger": false,
      "taf_trigger": false,
      "metar": "METAR EHEH 250455Z AUTO 15004KT 9999 FEW015 11/09 Q1019 BLU",
      "taf": "TAF EHEH 242352Z 2500/2606 14004KT 6000 BKN018"
    },
    {
      "icao": "EKBI",
      "alert": "OK",
      "vis_m": 7000,
      "fzfg": false,
      "metar_trigger": false,
      "taf_trigger": false,
      "metar": "METAR EKBI 250450Z AUTO 13009KT 7000 -DZ OVC003/// 02/02 Q1020",
      "taf": "TAF EKBI 250227Z 2503/2603 13006KT 0400 FG VV002"
    },
    {
      "icao": "EKCH",
      "alert": "OK",
      "vis_m": 9999,
      "fzfg": false,
      "metar_trigger": false,
      "taf_trigger": false,
      "metar": "METAR EKCH 250450Z AUTO 13006KT 9999 BKN005/// OVC016/// 00/M01 Q1024 TEMPO BKN005",
      "taf": "TAF EKCH 250227Z 2503/2603 01005KT 9999 BKN008"
    },
    {
      "icao": "ENAL",
      "alert": "OK",
      "vis_m": 9999,
      "fzfg": false,
      "metar_trigger": false,
      "taf_trigger": false,
      "metar": "METAR ENAL 250420Z AUTO 20012KT 9999 -RA OVC047/// 07/03 Q1004",
      "taf": "TAF ENAL 250200Z 2503/2512 20010KT 9999 -RA FEW020 BKN030"
    },
    {
      "icao": "ENBR",
      "alert": "OK",
      "vis_m": 9999,
      "fzfg": false,
      "metar_trigger": false,
      "taf_trigger": false,
      "metar": "METAR ENBR 250450Z 15021KT 9999 VCSH SCT008 BKN018 06/03 Q1010 RMK WIND 1200FT 15024KT",
      "taf": ""
    },
    {
      "icao": "ENGM",
      "alert": "OK",
      "vis_m": 5000,
      "fzfg": false,
      "metar_trigger": false,
      "taf_trigger": false,
      "metar": "METAR ENGM 250450Z 19008KT 5000 -SN FEW007 BKN029 M05/M06 Q1021 NOSIG",
      "taf": "TAF ENGM 242300Z 2500/2524 16008KT 9999 BKN020"
    },
    {
      "icao": "ENHD",
      "alert": "OK",
      "vis_m": 9999,
      "fzfg": false,
      "metar_trigger": false,
      "taf_trigger": false,
      "metar": "METAR ENHD 250450Z AUTO 13023KT 9999 FEW019/// OVC048/// 05/01 Q1011",
      "taf": "TAF ENHD 250200Z 2503/2512 14018KT 9999 SCT012 BKN020"
    },
    {
      "icao": "ENTC",
      "alert": "OK",
      "vis_m": 9999,
      "fzfg": false,
      "metar_trigger": false,
      "taf_trigger": false,
      "metar": "METAR ENTC 250450Z 06003KT CAVOK M10/M12 Q1017 RMK WIND 2600FT 17027KT",
      "taf": "TAF ENTC 242300Z 2500/2524 22004KT CAVOK"
    },
    {
      "icao": "ENTO",
      "alert": "OK",
      "vis_m": 9999,
      "fzfg": false,
      "metar_trigger": false,
      "taf_trigger": false,
      "metar": "METAR ENTO 250450Z 12003KT 9999 SCT024 M02/M04 Q1022",
      "taf": "TAF ENTO 242300Z 2500/2524 10005KT 9999 BKN030"
    },
    {
      "icao": "ENVA",
      "alert": "OK",
      "vis_m": 8000,
      "fzfg": false,
      "metar_trigger": false,
      "taf_trigger": false,
      "metar": "METAR ENVA 250450Z 10009KT 080V140 8000 -SN VV018 M00/M04 Q1011 RMK WIND 670FT 15018KT",
      "taf": "TAF ENVA 242300Z 2500/2524 12015KT 9999 OVC055"
    },
    {
      "icao": "ENZV",
      "alert": "OK",
      "vis_m": 9999,
      "fzfg": false,
      "metar_trigger": false,
      "taf_trigger": false,
      "metar": "METAR ENZV 250450Z 14017KT 9999 BKN033 OVC046 05/01 Q1013",
      "taf": "TAF ENZV 242300Z 2500/2524 14018KT 9999 BKN025"
    },
    {
      "icao": "EPGD",
      "alert": "OK",
      "vis_m": 9999,
      "fzfg": false,
      "metar_trigger": false,
      "taf_trigger": false,
      "metar": "METAR EPGD 250500Z 33005KT 9999 -SN FEW013 BKN017 M01/M02 Q1022",
      "taf": ""
    },
    {
      "icao": "EPKK",
      "alert": "OK",
      "vis_m": 9000,
      "fzfg": false,
      "metar_trigger": false,
      "taf_trigger": false,
      "metar": "METAR EPKK 250500Z 25007KT 9000 FEW009 BKN025 03/01 Q1021",
      "taf": "TAF EPKK 250230Z 2503/2603 24004KT 9999 BKN030"
    },
    {
      "icao": "EPKT",
      "alert": "OK",
      "vis_m": 9999,
      "fzfg": false,
      "metar_trigger": false,
      "taf_trigger": false,
      "metar": "METAR EPKT 250500Z 25005KT 9999 -RA OVC029 02/01 Q1021",
      "taf": ""
    },
    {
      "icao": "EPLB",
      "alert": "OK",
      "vis_m": 9999,
      "fzfg": false,
      "metar_trigger": false,
      "taf_trigger": false,
      "metar": "METAR EPLB 250500Z 28004KT 9999 BKN035 OVC040 01/M00 Q1018",
      "taf": "TAF EPLB 242330Z 2500/2524 33010KT 9999 OVC020"
    },
    {
      "icao": "EPMO",
      "alert": "OK",
      "vis_m": 9999,
      "fzfg": false,
      "metar_trigger": false,
      "taf_trigger": false,
      "metar": "METAR EPMO 250500Z COR 29008KT 9999 -RA BKN007 01/00 Q1020",
      "taf": "TAF EPMO 242330Z 2500/2524 29007KT 7000 BKN016"
    },
    {
      "icao": "EPPO",
      "alert": "OK",
      "vis_m": 9999,
      "fzfg": false,
      "metar_trigger": false,
      "taf_trigger": false,
      "metar": "METAR EPPO 250500Z 32006KT 300V010 9999 OVC005 03/01 Q1023",
      "taf": ""
    },
    {
      "icao": "EPRA",
      "alert": "OK",
      "vis_m": 9000,
      "fzfg": false,
      "metar_trigger": false,
      "taf_trigger": false,
      "metar": "METAR EPRA 250500Z 29009KT 9000 -RA BKN006 02/00 Q1019",
      "taf": "TAF EPRA 250230Z 2503/2512 28008KT 8000 OVC012"
    },
    {
      "icao": "EPRZ",
      "alert": "OK",
      "vis_m": 9999,
      "fzfg": false,
      "metar_trigger": false,
      "taf_trigger": false,
      "metar": "METAR EPRZ 250500Z 26009KT 9999 OVC035 02/M01 Q1020",
      "taf": "TAF EPRZ 242330Z 2500/2524 30010KT 9999 BKN020"
    },
    {
      "icao": "EPSC",
      "alert": "OK",
      "vis_m": 9999,
      "fzfg": false,
      "metar_trigger": false,
      "taf_trigger": false,
      "metar": "METAR EPSC 250500Z 01004KT 320V040 9999 OVC003 M00/M00 Q1024",
      "taf": ""
    },
    {
      "icao": "EPSY",
      "alert": "OK",
      "vis_m": 9999,
      "fzfg": false,
      "metar_trigger": false,
      "taf_trigger": false,
      "metar": "METAR EPSY 250500Z 33008KT 9999 SCT005 BKN008 OVC047 00/M00 Q1019",
      "taf": ""
    },
    {
      "icao": "EPWA",
      "alert": "OK",
      "vis_m": 9999,
      "fzfg": false,
      "metar_trigger": false,
      "taf_trigger": false,
      "metar": "METAR EPWA 250500Z 31012KT 9999 BKN009 BKN020 01/M00 Q1020 NOSIG",
      "taf": "TAF EPWA 250230Z 2503/2603 28007KT 9999 SCT016 BKN030"
    },
    {
      "icao": "EPWR",
      "alert": "OK",
      "vis_m": 9999,
      "fzfg": false,
      "metar_trigger": false,
      "taf_trigger": false,
      "metar": "METAR EPWR 250500Z 29005KT 9999 BKN032 04/03 Q1023",
      "taf": "TAF EPWR 250230Z 2503/2603 26004KT 9999 FEW014 BKN035"
    },
    {
      "icao": "ESGG",
      "alert": "OK",
      "vis_m": 9999,
      "fzfg": false,
      "metar_trigger": false,
      "taf_trigger": false,
      "metar": "METAR ESGG 250450Z 13008KT 9999 OVC047 M02/M04 Q1022",
      "taf": "TAF ESGG 250230Z 2503/2603 10005KT CAVOK"
    },
    {
      "icao": "ESKN",
      "alert": "OK",
      "vis_m": 9999,
      "fzfg": false,
      "metar_trigger": false,
      "taf_trigger": false,
      "metar": "METAR ESKN 250450Z 33001KT 9999 SCT009 M06/M06 Q1025",
      "taf": "TAF ESKN 250230Z 2503/2603 36005KT 9999 BKN015"
    },
    {
      "icao": "ESMS",
      "alert": "OK",
      "vis_m": 9999,
      "fzfg": false,
      "metar_trigger": false,
      "taf_trigger": false,
      "metar": "METAR ESMS 250450Z 12007KT CAVOK M00/M02 Q1023",
      "taf": ""
    },
    {
      "icao": "ESSA",
      "alert": "OK",
      "vis_m": 200,
      "fzfg": false,
      "metar_trigger": false,
      "taf_trigger": false,
      "metar": "METAR ESSA 250450Z 25003KT 0200 R01L/1200D R19R/P2000D R01R/P2000D R19L/P2000N FG VV002 M12/M13 Q1025 TEMPO NSC",
      "taf": ""
    },
    {
      "icao": "EYKA",
      "alert": "OK",
      "vis_m": 9999,
      "fzfg": false,
      "metar_trigger": false,
      "taf_trigger": false,
      "metar": "METAR EYKA 250450Z 33005KT 280V070 9999 -SN OVC013 M02/M05 Q1018",
      "taf": "TAF EYKA 250500Z 2506/2606 35011KT 9000 OVC015"
    },
    {
      "icao": "EYPA",
      "alert": "OK",
      "vis_m": 9999,
      "fzfg": false,
      "metar_trigger": false,
      "taf_trigger": false,
      "metar": "METAR EYPA 250450Z 36003KT 320V030 9999 BKN014 M03/M06 Q1021",
      "taf": "TAF EYPA 250500Z 2506/2606 VRB04KT 9000 SCT015"
    },
    {
      "icao": "EYVI",
      "alert": "OK",
      "vis_m": 9999,
      "fzfg": false,
      "metar_trigger": false,
      "taf_trigger": false,
      "metar": "METAR EYVI 250450Z 33008KT 9999 -SN OVC009 M03/M05 Q1016 NOSIG",
      "taf": "TAF EYVI 250500Z 2506/2606 33010KT 5000 SN OVC005"
    },
    {
      "icao": "GCFV",
      "alert": "OK",
      "vis_m": 9999,
      "fzfg": false,
      "metar_trigger": false,
      "taf_trigger": false,
      "metar": "METAR GCFV 250500Z AUTO VRB02KT CAVOK 19/04 Q1017",
      "taf": "TAF GCFV 250200Z 2503/2603 32010KT 9999 FEW015 TX22/2514Z TN15/2506Z"
    },
    {
      "icao": "GCLP",
      "alert": "OK",
      "vis_m": 9999,
      "fzfg": false,
      "metar_trigger": false,
      "taf_trigger": false,
      "metar": "METAR GCLP 250500Z 02017KT CAVOK 18/12 Q1017 NOSIG",
      "taf": "TAF GCLP 250200Z 2503/2603 36020KT 9999 FEW015 TX23/2514Z TN14/2506Z"
    },
    {
      "icao": "GCTS",
      "alert": "OK",
      "vis_m": 9999,
      "fzfg": false,
      "metar_trigger": false,
      "taf_trigger": false,
      "metar": "METAR GCTS 250500Z VRB02KT CAVOK 16/05 Q1018 NOSIG",
      "taf": "TAF GCTS 250200Z 2503/2603 VRB05KT 9999 SCT020 TX24/2514Z TN14/2506Z"
    },
    {
      "icao": "GMAD",
      "alert": "OK",
      "vis_m": 9999,
      "fzfg": false,
      "metar_trigger": false,
      "taf_trigger": false,
      "metar": "METAR GMAD 250500Z 06008KT CAVOK 11/02 Q1017 NOSIG",
      "taf": "TAF GMAD 242300Z 2500/2606 06008KT CAVOK"
    },
    {
      "icao": "GMMN",
      "alert": "OK",
      "vis_m": 9999,
      "fzfg": false,
      "metar_trigger": false,
      "taf_trigger": false,
      "metar": "METAR GMMN 250500Z 19007KT CAVOK 11/07 Q1017 NOSIG",
      "taf": "TAF GMMN 242300Z 2500/2606 20007KT CAVOK"
    },
    {
      "icao": "GMMX",
      "alert": "OK",
      "vis_m": 9999,
      "fzfg": false,
      "metar_trigger": false,
      "taf_trigger": false,
      "metar": "METAR GMMX 250500Z VRB02KT CAVOK 12/07 Q1018 NOSIG",
      "taf": "TAF GMMX 250500Z 2506/2612 12006KT 8000 NSC"
    },
    {
      "icao": "HEGN",
      "alert": "OK",
      "vis_m": 9999,
      "fzfg": false,
      "metar_trigger": false,
      "taf_trigger": false,
      "metar": "METAR HEGN 250400Z 28009KT CAVOK 14/07 Q1020 NOSIG",
      "taf": "TAF HEGN 250500Z 2506/2612 32015KT CAVOK"
    },
    {
      "icao": "HEMA",
      "alert": "OK",
      "vis_m": 9999,
      "fzfg": false,
      "metar_trigger": false,
      "taf_trigger": false,
      "metar": "METAR HEMA 250400Z 31012KT CAVOK 16/06 Q1018 NOSIG",
      "taf": "TAF HEMA 250500Z 2506/2612 31015KT CAVOK"
    },
    {
      "icao": "HESH",
      "alert": "OK",
      "vis_m": 9999,
      "fzfg": false,
      "metar_trigger": false,
      "taf_trigger": false,
      "metar": "METAR HESH 250400Z 34007KT CAVOK 16/05 Q1019 NOSIG",
      "taf": "TAF HESH 250500Z 2506/2612 03012KT CAVOK"
    },
    {
      "icao": "HESX",
      "alert": "OK",
      "vis_m": 9999,
      "fzfg": false,
      "metar_trigger": false,
      "taf_trigger": false,
      "metar": "METAR HESX 250400Z 22003KT CAVOK 09/07 Q1020 NOSIG",
      "taf": "TAF HESX 250500Z 2506/2612 29009KT 9999 SCT020"
    },
    {
      "icao": "LATI",
      "alert": "OK",
      "vis_m": 1100,
      "fzfg": false,
      "metar_trigger": false,
      "taf_trigger": false,
      "metar": "METAR LATI 250450Z VRB01KT 1100 R17/1600D R35/P2000N BCFG BKN002 07/06 Q1021 NOSIG",
      "taf": "TAF LATI 250500Z 2506/2606 VRB03KT 2000 BCFG BKN003 TX18/2512Z TN03/2605Z"
    },
    {
      "icao": "LBPD",
      "alert": "OK",
      "vis_m": 9999,
      "fzfg": false,
      "metar_trigger": false,
      "taf_trigger": false,
      "metar": "METAR LBPD 250500Z AUTO 28014KT 9999 BKN057/// OVC074/// 08/01 Q1019 NOSIG",
      "taf": "TAF LBPD 250500Z 2506/2606 29016G26KT 9999 SCT050 BKN070"
    },
    {
      "icao": "LBSF",
      "alert": "OK",
      "vis_m": 9999,
      "fzfg": false,
      "metar_trigger": false,
      "taf_trigger": false,
      "metar": "METAR LBSF 250500Z 29010KT 9999 FEW060 04/00 Q1020 NOSIG",
      "taf": "TAF LBSF 250500Z 2506/2606 30012G25KT 9999 SCT030 BKN060"
    },
    {
      "icao": "LBWN",
      "alert": "OK",
      "vis_m": 9999,
      "fzfg": false,
      "metar_trigger": false,
      "taf_trigger": false,
      "metar": "METAR LBWN 250500Z AUTO 28008KT 9999 NSC 03/01 Q1017 NOSIG",
      "taf": "TAF LBWN 250500Z 2506/2606 33014KT 9999 SCT030"
    },
    {
      "icao": "LCLK",
      "alert": "OK",
      "vis_m": 9999,
      "fzfg": false,
      "metar_trigger": false,
      "taf_trigger": false,
      "metar": "METAR LCLK 250500Z 21005KT 9999 FEW030 08/07 Q1017 NOSIG",
      "taf": "TAF LCLK 242330Z 2500/2600 30006KT 9999 FEW020"
    },
    {
      "icao": "LCPH",
      "alert": "OK",
      "vis_m": 9999,
      "fzfg": false,
      "metar_trigger": false,
      "taf_trigger": false,
      "metar": "METAR LCPH 250500Z 07005KT 9999 FEW035 BKN055 11/08 Q1017 NOSIG",
      "taf": "TAF LCPH 242330Z 2500/2600 26008KT 9999 FEW018 SCT040"
    },
    {
      "icao": "LEAL",
      "alert": "OK",
      "vis_m": 9999,
      "fzfg": false,
      "metar_trigger": false,
      "taf_trigger": false,
      "metar": "METAR LEAL 250500Z 28002KT CAVOK 07/06 Q1018 NOSIG",
      "taf": "TAF LEAL 242300Z 2500/2524 VRB04KT CAVOK TX21/2512Z TN07/2506Z"
    },
    {
      "icao": "LEBB",
      "alert": "OK",
      "vis_m": 9999,
      "fzfg": false,
      "metar_trigger": false,
      "taf_trigger": false,
      "metar": "METAR LEBB 250500Z 09006KT 050V140 CAVOK 18/04 Q1014 NOSIG",
      "taf": "TAF LEBB 242300Z 2500/2524 13008KT CAVOK TX28/2514Z TN10/2524Z"
    },
    {
      "icao": "LEBL",
      "alert": "OK",
      "vis_m": 3000,
      "fzfg": false,
      "metar_trigger": false,
      "taf_trigger": false,
      "metar": "METAR LEBL 250500Z 32005KT 300V010 3000 0150SE R24R/P2000 R06L/0900U R06R/P2000 R24L/P2000 BR BCFG FEW001 08/08 Q1019 NOSIG",
      "taf": ""
    },
    {
      "icao": "LECH",
      "alert": "OK",
      "vis_m": 9000,
      "fzfg": false,
      "metar_trigger": false,
      "taf_trigger": false,
      "metar": "METAR LECH 250500Z AUTO 21002KT 9000 NCD 08/02 Q1018",
      "taf": ""
    },
    {
      "icao": "LEMD",
      "alert": "OK",
      "vis_m": 9999,
      "fzfg": false,
      "metar_trigger": false,
      "taf_trigger": false,
      "metar": "METAR LEMD 250500Z 33002KT CAVOK 03/03 Q1019 NOSIG",
      "taf": "TAF LEMD 242300Z 2500/2606 36005KT CAVOK TX23/2515Z TN02/2507Z"
    },
    {
      "icao": "LEMG",
      "alert": "OK",
      "vis_m": 9000,
      "fzfg": false,
      "metar_trigger": false,
      "taf_trigger": false,
      "metar": "METAR LEMG 250500Z 29006KT 9000 NSC 06/05 Q1018 NOSIG",
      "taf": "TAF LEMG 242300Z 2500/2524 29004KT CAVOK TX20/2514Z TN06/2507Z"
    },
    {
      "icao": "LEVC",
      "alert": "OK",
      "vis_m": 9999,
      "fzfg": false,
      "metar_trigger": false,
      "taf_trigger": false,
      "metar": "METAR LEVC 250500Z VRB01KT CAVOK 06/04 Q1018 NOSIG",
      "taf": "TAF LEVC 242300Z 2500/2524 VRB04KT 7000 FEW020 TX20/2512Z TN07/2506Z"
    },
    {
      "icao": "LEXJ",
      "alert": "OK",
      "vis_m": 9999,
      "fzfg": false,
      "metar_trigger": false,
      "taf_trigger": false,
      "metar": "METAR LEXJ 250500Z 23011KT 190V270 CAVOK 20/02 Q1013",
      "taf": ""
    },
    {
      "icao": "LEZG",
      "alert": "OK",
      "vis_m": 9999,
      "fzfg": false,
      "metar_trigger": false,
      "taf_trigger": false,
      "metar": "METAR LEZG 250430Z 13006KT CAVOK 08/06 Q1018 NOSIG",
      "taf": "TAF LEZG 242300Z 2500/2524 VRB04KT CAVOK TX21/2515Z TN07/2506Z"
    },
    {
      "icao": "LEZL",
      "alert": "OK",
      "vis_m": 9999,
      "fzfg": false,
      "metar_trigger": false,
      "taf_trigger": false,
      "metar": "METAR LEZL 250500Z 05005KT CAVOK 11/09 Q1016 NOSIG",
      "taf": "TAF LEZL 250200Z 2503/2603 04004KT CAVOK TX23/2515Z TN09/2507Z"
    },
    {
      "icao": "LFBD",
      "alert": "OK",
      "vis_m": 9999,
      "fzfg": false,
      "metar_trigger": false,
      "taf_trigger": false,
      "metar": "METAR LFBD 250500Z AUTO 13005KT CAVOK 10/07 Q1015 TEMPO 4000 BR",
      "taf": "TAF LFBD 242300Z 2500/2606 13005KT CAVOK TX20/2515Z TN08/2506Z"
    },
    {
      "icao": "LFLL",
      "alert": "OK",
      "vis_m": 9000,
      "fzfg": false,
      "metar_trigger": false,
      "taf_trigger": false,
      "metar": "METAR LFLL 250500Z 13008KT 9000 NSC 07/06 Q1020 NOSIG",
      "taf": "TAF LFLL 242300Z 2500/2606 15003KT CAVOK"
    },
    {
      "icao": "LFLS",
      "alert": "OK",
      "vis_m": 9999,
      "fzfg": false,
      "metar_trigger": false,
      "taf_trigger": false,
      "metar": "METAR LFLS 250500Z AUTO 07008KT CAVOK 04/04 Q1021 NOSIG",
      "taf": "TAF LFLS 250200Z 2503/2603 08006KT CAVOK"
    },
    {
      "icao": "LFMN",
      "alert": "OK",
      "vis_m": 9999,
      "fzfg": false,
      "metar_trigger": false,
      "taf_trigger": false,
      "metar": "METAR LFMN 250500Z 33008KT 9999 BKN025 13/09 Q1022 NOSIG",
      "taf": "TAF LFMN 250200Z 2503/2609 33010KT 9999 BKN025"
    },
    {
      "icao": "LFOB",
      "alert": "OK",
      "vis_m": 650,
      "fzfg": false,
      "metar_trigger": false,
      "taf_trigger": false,
      "metar": "METAR LFOB 250500Z AUTO 10003KT 0650 0550 R30/0700D R12/1600U FG NSC 05/05 Q1017 TEMPO VV///",
      "taf": ""
    },
    {
      "icao": "LFPO",
      "alert": "OK",
      "vis_m": 8000,
      "fzfg": false,
      "metar_trigger": false,
      "taf_trigger": false,
      "metar": "METAR LFPO 250500Z 00000KT 8000 NSC 08/07 Q1017 NOSIG",
      "taf": ""
    },
    {
      "icao": "LFSB",
      "alert": "OK",
      "vis_m": 450,
      "fzfg": false,
      "metar_trigger": false,
      "taf_trigger": false,
      "metar": "METAR LFSB 250500Z AUTO 00000KT 0450 0400 R15/0450D R33/0600N FG VV/// 04/04 Q1021 TEMPO 0300",
      "taf": ""
    },
    {
      "icao": "LGAV",
      "alert": "OK",
      "vis_m": 9999,
      "fzfg": false,
      "metar_trigger": false,
      "taf_trigger": false,
      "metar": "METAR LGAV 250450Z 35009KT 9999 FEW025 13/02 Q1018 NOSIG",
      "taf": "TAF LGAV 250500Z 2506/2606 01014G24KT 9999 FEW020"
    },
    {
      "icao": "LGTS",
      "alert": "OK",
      "vis_m": 9999,
      "fzfg": false,
      "metar_trigger": false,
      "taf_trigger": false,
      "metar": "METAR LGTS 250450Z 33011G21KT 9999 FEW025 11/02 Q1020 NOSIG",
      "taf": "TAF LGTS 250500Z 2506/2606 34020G30KT 9999 FEW030"
    },
    {
      "icao": "LHBP",
      "alert": "OK",
      "vis_m": 9999,
      "fzfg": false,
      "metar_trigger": false,
      "taf_trigger": false,
      "metar": "METAR LHBP 250500Z VRB02KT CAVOK M01/M03 Q1022 NOSIG",
      "taf": "TAF LHBP 242315Z 2500/2524 30005KT CAVOK"
    },
    {
      "icao": "LHDC",
      "alert": "OK",
      "vis_m": 9999,
      "fzfg": false,
      "metar_trigger": false,
      "taf_trigger": false,
      "metar": "METAR LHDC 250445Z AUTO 02006KT 9999 FEW025 BKN051 02/01 Q1022 NOSIG",
      "taf": ""
    },
    {
      "icao": "LIBD",
      "alert": "OK",
      "vis_m": 9999,
      "fzfg": false,
      "metar_trigger": false,
      "taf_trigger": false,
      "metar": "METAR LIBD 250450Z 27005KT 9999 BKN020 10/09 Q1022",
      "taf": "TAF LIBD 242300Z 2500/2524 26006KT 8000 NSC"
    },
    {
      "icao": "LIBG",
      "alert": "OK",
      "vis_m": null,
      "fzfg": false,
      "metar_trigger": false,
      "taf_trigger": false,
      "metar": "",
      "taf": ""
    },
    {
      "icao": "LIBP",
      "alert": "OK",
      "vis_m": 9999,
      "fzfg": false,
      "metar_trigger": false,
      "taf_trigger": false,
      "metar": "METAR LIBP 250450Z AUTO 22006KT 9999 OVC010/// 07/06 Q1024",
      "taf": "TAF LIBP 242300Z 2500/2524 VRB06KT 8000 SCT050"
    },
    {
      "icao": "LIBR",
      "alert": "OK",
      "vis_m": 9999,
      "fzfg": false,
      "metar_trigger": false,
      "taf_trigger": false,
      "metar": "METAR LIBR 250450Z 36009KT CAVOK 13/09 Q1021",
      "taf": "TAF LIBR 242300Z 2500/2524 33008KT 8000 FEW015"
    },
    {
      "icao": "LICA",
      "alert": "OK",
      "vis_m": 9999,
      "fzfg": false,
      "metar_trigger": false,
      "taf_trigger": false,
      "metar": "METAR LICA 250450Z AUTO 07005KT 9999 NCD 06/05 Q1022",
      "taf": "TAF LICA 242300Z 2500/2524 VRB05KT 9999 SCT020"
    },
    {
      "icao": "LICC",
      "alert": "OK",
      "vis_m": 9999,
      "fzfg": false,
      "metar_trigger": false,
      "taf_trigger": false,
      "metar": "METAR LICC 250450Z 24005KT CAVOK 06/03 Q1021",
      "taf": "TAF LICC 242300Z 2500/2524 VRB05KT CAVOK"
    },
    {
      "icao": "LICJ",
      "alert": "OK",
      "vis_m": 9999,
      "fzfg": false,
      "metar_trigger": false,
      "taf_trigger": false,
      "metar": "METAR LICJ 250450Z VRB02KT CAVOK 11/09 Q1021",
      "taf": "TAF LICJ 242300Z 2500/2524 VRB05KT CAVOK"
    },
    {
      "icao": "LIMC",
      "alert": "OK",
      "vis_m": 4000,
      "fzfg": false,
      "metar_trigger": false,
      "taf_trigger": false,
      "metar": "METAR LIMC 250450Z 02005KT 4000 BR BKN030 08/07 Q1024 NOSIG",
      "taf": "TAF LIMC 242300Z 2500/2606 VRB05KT 4000 BR SCT030"
    },
    {
      "icao": "LIME",
      "alert": "OK",
      "vis_m": 6000,
      "fzfg": false,
      "metar_trigger": false,
      "taf_trigger": false,
      "metar": "METAR LIME 250450Z 03003KT 6000 FEW065 08/07 Q1024 NOSIG",
      "taf": "TAF LIME 242300Z 2500/2524 VRB05KT 6000 SCT030"
    },
    {
      "icao": "LIMF",
      "alert": "OK",
      "vis_m": 4000,
      "fzfg": false,
      "metar_trigger": false,
      "taf_trigger": false,
      "metar": "METAR LIMF 250450Z 33003KT 280V360 4000 BR BKN025 10/06 Q1024",
      "taf": "TAF LIMF 242300Z 2500/2524 VRB05KT 3000 BR BKN007"
    },
    {
      "icao": "LIMJ",
      "alert": "OK",
      "vis_m": 9999,
      "fzfg": false,
      "metar_trigger": false,
      "taf_trigger": false,
      "metar": "METAR LIMJ 250450Z AUTO 04010KT 9999 NCD 11/08 Q1023",
      "taf": "TAF LIMJ 242300Z 2500/2524 VRB05KT 9999 BKN030"
    },
    {
      "icao": "LIPE",
      "alert": "OK",
      "vis_m": 4000,
      "fzfg": false,
      "metar_trigger": false,
      "taf_trigger": false,
      "metar": "METAR LIPE 250450Z 29002KT 4000 BR BKN015 10/09 Q1024",
      "taf": "TAF LIPE 242300Z 2500/2524 VRB03KT 2500 BR BKN008"
    },
    {
      "icao": "LIPH",
      "alert": "OK",
      "vis_m": 4500,
      "fzfg": false,
      "metar_trigger": false,
      "taf_trigger": false,
      "metar": "METAR LIPH 250450Z AUTO 36003KT 4500 BR BKN051/// 05/05 Q1023",
      "taf": "TAF LIPH 242300Z 2500/2524 VRB04KT 7000 SCT035"
    },
    {
      "icao": "LIPQ",
      "alert": "OK",
      "vis_m": 9999,
      "fzfg": false,
      "metar_trigger": false,
      "taf_trigger": false,
      "metar": "METAR LIPQ 250450Z AUTO 04004KT 9999 NCD 04/04 Q1023",
      "taf": "TAF LIPQ 242300Z 2500/2524 VRB04KT 7000 FEW055"
    },
    {
      "icao": "LIPR",
      "alert": "OK",
      "vis_m": 2900,
      "fzfg": false,
      "metar_trigger": false,
      "taf_trigger": false,
      "metar": "METAR LIPR 250450Z AUTO VRB02KT 2900 BR OVC004/// 11/10 Q1023",
      "taf": "TAF LIPR 242300Z 2500/2524 VRB04KT 7000 BKN040"
    },
    {
      "icao": "LIPX",
      "alert": "OK",
      "vis_m": 9999,
      "fzfg": false,
      "metar_trigger": false,
      "taf_trigger": false,
      "metar": "METAR LIPX 250450Z 30004KT 9999 BKN045 08/05 Q1024",
      "taf": "TAF LIPX 242300Z 2500/2524 11007KT 6000 SCT020"
    },
    {
      "icao": "LIPY",
      "alert": "OK",
      "vis_m": 9999,
      "fzfg": false,
      "metar_trigger": false,
      "taf_trigger": false,
      "metar": "METAR LIPY 250450Z AUTO 21003KT 9999 OVC011/// 07/07 Q1023",
      "taf": "TAF LIPY 242300Z 2500/2524 VRB04KT 8000 SCT050"
    },
    {
      "icao": "LIPZ",
      "alert": "OK",
      "vis_m": 7000,
      "fzfg": false,
      "metar_trigger": false,
      "taf_trigger": false,
      "metar": "METAR LIPZ 250450Z 01004KT 7000 NSC 06/05 Q1023 NOSIG",
      "taf": "TAF LIPZ 242300Z 2500/2606 VRB04KT 7000 SCT035"
    },
    {
      "icao": "LIRF",
      "alert": "OK",
      "vis_m": 9999,
      "fzfg": false,
      "metar_trigger": false,
      "taf_trigger": false,
      "metar": "METAR LIRF 250450Z 07004KT 9999 SCT035 12/10 Q1022 NOSIG",
      "taf": "TAF LIRF 242300Z 2500/2606 VRB06KT 9999 SCT030"
    },
    {
      "icao": "LIRN",
      "alert": "OK",
      "vis_m": 8000,
      "fzfg": false,
      "metar_trigger": false,
      "taf_trigger": false,
      "metar": "METAR LIRN 250450Z 01003KT 8000 NSC 09/07 Q1022 NOSIG",
      "taf": "TAF LIRN 242300Z 2500/2524 VRB05KT 9999 BKN030"
    },
    {
      "icao": "LIRP",
      "alert": "OK",
      "vis_m": 9000,
      "fzfg": false,
      "metar_trigger": false,
      "taf_trigger": false,
      "metar": "METAR LIRP 250445Z 12005KT 9000 NSC 08/08 Q1022 NOSIG",
      "taf": "TAF LIRP 242300Z 2500/2524 VRB03KT 3000 MIFG SCT003 SCT010"
    },
    {
      "icao": "LIRZ",
      "alert": "OK",
      "vis_m": 9999,
      "fzfg": false,
      "metar_trigger": false,
      "taf_trigger": false,
      "metar": "METAR LIRZ 250450Z AUTO 04004KT 9999 NCD 05/04 Q1023",
      "taf": "TAF LIRZ 242300Z 2500/2524 VRB05KT 6000 SCT030"
    },
    {
      "icao": "LJLJ",
      "alert": "OK",
      "vis_m": 9999,
      "fzfg": false,
      "metar_trigger": false,
      "taf_trigger": false,
      "metar": "METAR LJLJ 250500Z 30002KT 9999 MIFG FEW001 SCT045 BKN250 02/01 Q1024 NOSIG",
      "taf": "TAF LJLJ 250500Z 2506/2606 VRB02KT 9999 SCT045"
    },
    {
      "icao": "LKMT",
      "alert": "OK",
      "vis_m": 9999,
      "fzfg": false,
      "metar_trigger": false,
      "taf_trigger": false,
      "metar": "METAR LKMT 250500Z 23006KT 9999 BKN040 02/02 Q1023 NOSIG",
      "taf": "TAF LKMT 242300Z 2500/2524 23005KT 9999 BKN035"
    },
    {
      "icao": "LKPR",
      "alert": "OK",
      "vis_m": 9999,
      "fzfg": false,
      "metar_trigger": false,
      "taf_trigger": false,
      "metar": "METAR LKPR 250500Z 24005KT 9999 SCT038 02/01 Q1023 NOSIG",
      "taf": "TAF LKPR 250200Z 2503/2609 18005KT CAVOK"
    },
    {
      "icao": "LLBG",
      "alert": "OK",
      "vis_m": 9999,
      "fzfg": false,
      "metar_trigger": false,
      "taf_trigger": false,
      "metar": "METAR LLBG 250450Z 13004KT 9999 SCT032 11/09 Q1021 NOSIG",
      "taf": "TAF LLBG 250510Z 2506/2606 14005KT 9999 SCT035 TX18/2512Z TN10/2604Z"
    },
    {
      "icao": "LMML",
      "alert": "OK",
      "vis_m": 9999,
      "fzfg": false,
      "metar_trigger": false,
      "taf_trigger": false,
      "metar": "METAR LMML 250445Z 27006KT 240V300 CAVOK 12/11 Q1021 NOSIG",
      "taf": "TAF LMML 250500Z 2506/2606 29010KT 9999 FEW015"
    },
    {
      "icao": "LOWW",
      "alert": "OK",
      "vis_m": 9999,
      "fzfg": false,
      "metar_trigger": false,
      "taf_trigger": false,
      "metar": "METAR LOWW 250450Z 27004KT 9999 FEW044 04/02 Q1024 NOSIG",
      "taf": "TAF LOWW 250215Z 2503/2609 33004KT CAVOK TX12/2514Z TN00/2605Z"
    },
    {
      "icao": "LPFR",
      "alert": "OK",
      "vis_m": 9999,
      "fzfg": false,
      "metar_trigger": false,
      "taf_trigger": false,
      "metar": "METAR LPFR 250500Z 03004KT 9999 BKN009 14/12 Q1015",
      "taf": "TAF LPFR 250500Z 2506/2606 06005KT 9999 SCT012"
    },
    {
      "icao": "LPMA",
      "alert": "OK",
      "vis_m": 9999,
      "fzfg": false,
      "metar_trigger": false,
      "taf_trigger": false,
      "metar": "METAR LPMA 250500Z 32006KT 290V360 9999 FEW015 16/08 Q1017",
      "taf": "TAF LPMA 250500Z 2506/2606 34008KT 9999 SCT015"
    },
    {
      "icao": "LPPR",
      "alert": "OK",
      "vis_m": 9999,
      "fzfg": false,
      "metar_trigger": false,
      "taf_trigger": false,
      "metar": "METAR LPPR 250500Z 18012KT 9999 BKN014 OVC023 14/11 Q1014",
      "taf": "TAF LPPR 250500Z 2506/2606 18012KT 9999 BKN015"
    },
    {
      "icao": "LPPS",
      "alert": "OK",
      "vis_m": 9999,
      "fzfg": false,
      "metar_trigger": false,
      "taf_trigger": false,
      "metar": "METAR LPPS 250500Z 31012KT 9999 FEW015 15/11 Q1017",
      "taf": "TAF LPPS 250500Z 2506/2612 31012KT 9999 SCT015"
    },
    {
      "icao": "LPPT",
      "alert": "OK",
      "vis_m": 8000,
      "fzfg": false,
      "metar_trigger": false,
      "taf_trigger": false,
      "metar": "METAR LPPT 250500Z 22004KT 200V260 8000 BKN006 14/13 Q1014",
      "taf": "TAF LPPT 250500Z 2506/2612 VRB05KT 9999 SCT008 BKN015"
    },
    {
      "icao": "LQBK",
      "alert": "OK",
      "vis_m": 9999,
      "fzfg": false,
      "metar_trigger": false,
      "taf_trigger": false,
      "metar": "METAR LQBK 250500Z VRB03KT CAVOK 01/01 Q1025 NOSIG",
      "taf": "TAF LQBK 250500Z 2506/2606 15005KT CAVOK TX15/2514Z TN01/2606Z"
    },
    {
      "icao": "LQSA",
      "alert": "OK",
      "vis_m": 500,
      "fzfg": true,
      "metar_trigger": false,
      "taf_trigger": false,
      "metar": "METAR LQSA 250500Z 00000KT 0500 R11/0400N FG BKN003 00/00 Q1025 NOSIG",
      "taf": "TAF LQSA 250500Z 2506/2606 VRB02KT 0500 FZFG OVC002 TX13/2514Z TNM00/2506Z"
    },
    {
      "icao": "LQTZ",
      "alert": "OK",
      "vis_m": 350,
      "fzfg": false,
      "metar_trigger": false,
      "taf_trigger": false,
      "metar": "METAR LQTZ 250500Z VRB01KT 0350 R09/0450N FG OVC002 00/00 Q1025",
      "taf": "TAF LQTZ 250500Z 2506/2606 27005KT 4000 BR SCT005 TX14/2514Z TNM01/2606Z"
    },
    {
      "icao": "LRBC",
      "alert": "OK",
      "vis_m": 9999,
      "fzfg": false,
      "metar_trigger": false,
      "taf_trigger": false,
      "metar": "METAR LRBC 250500Z 36009KT 9999 SCT014 SCT023 OVC044 03/00 Q1018",
      "taf": "TAF LRBC 250200Z 2503/2512 33010KT 9999 BKN050"
    },
    {
      "icao": "LRBS",
      "alert": "OK",
      "vis_m": 6000,
      "fzfg": false,
      "metar_trigger": false,
      "taf_trigger": false,
      "metar": "METAR LRBS 250500Z 29003KT 6000 MIFG NSC 01/M00 Q1018 TEMPO 3000 BR",
      "taf": "TAF LRBS 242300Z 2500/2524 VRB04KT 5000 BR NSC"
    },
    {
      "icao": "LRBV",
      "alert": "OK",
      "vis_m": 9999,
      "fzfg": false,
      "metar_trigger": false,
      "taf_trigger": false,
      "metar": "METAR LRBV 250500Z 29009KT 260V320 9999 BKN016 OVC065 02/M01 Q1018",
      "taf": "TAF LRBV 250200Z 2503/2512 30012KT 9999 BKN025"
    },
    {
      "icao": "LRCL",
      "alert": "OK",
      "vis_m": 9999,
      "fzfg": false,
      "metar_trigger": false,
      "taf_trigger": false,
      "metar": "METAR LRCL 250500Z 29010KT 9999 OVC037 03/M01 Q1020",
      "taf": "TAF LRCL 250200Z 2503/2512 28010KT CAVOK"
    },
    {
      "icao": "LRCV",
      "alert": "OK",
      "vis_m": 9999,
      "fzfg": false,
      "metar_trigger": false,
      "taf_trigger": false,
      "metar": "METAR LRCV 250500Z 28011KT CAVOK 03/00 Q1019",
      "taf": "TAF LRCV 250200Z 2503/2512 30009KT CAVOK"
    },
    {
      "icao": "LRIA",
      "alert": "OK",
      "vis_m": 9999,
      "fzfg": false,
      "metar_trigger": false,
      "taf_trigger": false,
      "metar": "METAR LRIA 250500Z 32015KT 9999 SCT025 BKN045 02/M01 Q1017",
      "taf": "TAF LRIA 250200Z 2503/2512 30010KT 9999 BKN040"
    },
    {
      "icao": "LROP",
      "alert": "OK",
      "vis_m": 2500,
      "fzfg": true,
      "metar_trigger": false,
      "taf_trigger": false,
      "metar": "METAR LROP 250500Z 29003KT 250V330 2500 BCFG FEW003 M01/M01 Q1018 TEMPO 0800 FZFG",
      "taf": "TAF LROP 242300Z 2500/2524 VRB04KT 5000 BR NSC"
    },
    {
      "icao": "LRSB",
      "alert": "OK",
      "vis_m": 9999,
      "fzfg": false,
      "metar_trigger": false,
      "taf_trigger": false,
      "metar": "METAR LRSB 250500Z 35005KT 9999 FEW035 SCT040 BKN050 02/01 Q1019",
      "taf": "TAF LRSB 242300Z 2500/2524 VRB04KT 9999 BKN040"
    },
    {
      "icao": "LRSM",
      "alert": "OK",
      "vis_m": 9999,
      "fzfg": false,
      "metar_trigger": false,
      "taf_trigger": false,
      "metar": "METAR LRSM 250500Z 31007KT CAVOK 01/M01 Q1021",
      "taf": "TAF LRSM 250200Z 2503/2512 32008KT CAVOK"
    },
    {
      "icao": "LRSV",
      "alert": "OK",
      "vis_m": 9999,
      "fzfg": false,
      "metar_trigger": false,
      "taf_trigger": false,
      "metar": "METAR LRSV 250500Z 31015KT 9999 -FZDZ BKN009 BKN020 00/M01 Q1017",
      "taf": "TAF LRSV 250200Z 2503/2512 30014KT 9999 OVC010"
    },
    {
      "icao": "LRTM",
      "alert": "OK",
      "vis_m": 9999,
      "fzfg": false,
      "metar_trigger": false,
      "taf_trigger": false,
      "metar": "METAR LRTM 250500Z 28008KT 9999 SCT035 BKN046 02/M01 Q1020",
      "taf": "TAF LRTM 250200Z 2503/2512 28006KT CAVOK"
    },
    {
      "icao": "LRTR",
      "alert": "OK",
      "vis_m": 8000,
      "fzfg": false,
      "metar_trigger": false,
      "taf_trigger": false,
      "metar": "METAR LRTR 250500Z 31003KT 8000 FEW045 00/00 Q1022",
      "taf": "TAF LRTR 242300Z 2500/2524 VRB04KT CAVOK"
    },
    {
      "icao": "LTAC",
      "alert": "OK",
      "vis_m": 9999,
      "fzfg": false,
      "metar_trigger": false,
      "taf_trigger": false,
      "metar": "METAR LTAC 250450Z 20005KT 9999 SCT010 BKN030 BKN100 02/01 Q1012 RESHRA NOSIG RMK RWY21C 21006KT RWY03L 19004KT RWY21R 21007KT RWY03R 19005KT RWY21L 21007KT",
      "taf": "TAF LTAC 250440Z 2506/2606 VRB02KT 9999 BKN030 BKN090"
    },
    {
      "icao": "LTFM",
      "alert": "OK",
      "vis_m": 9000,
      "fzfg": false,
      "metar_trigger": false,
      "taf_trigger": false,
      "metar": "METAR LTFM 250450Z 34015KT 9000 2200N BR BKN019 BKN080 06/02 Q1017 NOSIG RMK RWY17L 33015KT RWY34L 33013KT RWY16R 33013KT RWY36 34015KT RWY18 35015KT",
      "taf": "TAF LTFM 250440Z 2506/2612 33015G25KT 9999 BKN025"
    },
    {
      "icao": "LUKK",
      "alert": "OK",
      "vis_m": 9999,
      "fzfg": false,
      "metar_trigger": false,
      "taf_trigger": false,
      "metar": "METAR LUKK 250500Z 33015KT 9999 OVC015 03/01 Q1015 NOSIG",
      "taf": "TAF LUKK 242327Z 2500/2524 33012KT 9999 OVC012"
    },
    {
      "icao": "LWOH",
      "alert": "OK",
      "vis_m": null,
      "fzfg": false,
      "metar_trigger": false,
      "taf_trigger": false,
      "metar": "",
      "taf": "TAF LWOH 250300Z 2503/2603 31010KT 9999 BKN040"
    },
    {
      "icao": "LWSK",
      "alert": "OK",
      "vis_m": 9999,
      "fzfg": false,
      "metar_trigger": false,
      "taf_trigger": false,
      "metar": "METAR LWSK 250450Z 35012KT 9999 BKN054 08/01 Q1022 NOSIG",
      "taf": "TAF LWSK 250300Z 2503/2603 01010KT 9999 BKN050"
    },
    {
      "icao": "LYBE",
      "alert": "OK",
      "vis_m": 9999,
      "fzfg": false,
      "metar_trigger": false,
      "taf_trigger": false,
      "metar": "METAR LYBE 250500Z 26008KT CAVOK 02/00 Q1024 NOSIG",
      "taf": "TAF LYBE 242300Z 2500/2524 28007KT CAVOK TX12/2513Z TN01/2506Z"
    },
    {
      "icao": "LYNI",
      "alert": "OK",
      "vis_m": 9999,
      "fzfg": false,
      "metar_trigger": false,
      "taf_trigger": false,
      "metar": "METAR LYNI 250500Z VRB02KT 9999 BKN030 04/03 Q1023 NOSIG",
      "taf": "TAF LYNI 242300Z 2500/2524 27006KT 9999 BKN030 TX12/2514Z TN03/2506Z"
    },
    {
      "icao": "LYPG",
      "alert": "OK",
      "vis_m": 9999,
      "fzfg": false,
      "metar_trigger": false,
      "taf_trigger": false,
      "metar": "METAR LYPG 250500Z 30010KT 280V350 CAVOK 08/M02 Q1022 NOSIG",
      "taf": "TAF LYPG 242300Z 2500/2524 34009KT CAVOK TX16/2513Z TN07/2506Z"
    },
    {
      "icao": "LZIB",
      "alert": "OK",
      "vis_m": 9999,
      "fzfg": false,
      "metar_trigger": false,
      "taf_trigger": false,
      "metar": "METAR LZIB 250500Z 33005KT 300V010 9999 BKN046 02/02 Q1024 NOSIG",
      "taf": "TAF LZIB 250515Z 2506/2606 34005KT CAVOK"
    },
    {
      "icao": "LZKZ",
      "alert": "OK",
      "vis_m": 9999,
      "fzfg": false,
      "metar_trigger": false,
      "taf_trigger": false,
      "metar": "METAR LZKZ 250500Z 36005KT 9999 FEW045 02/M02 Q1021 NOSIG",
      "taf": "TAF LZKZ 250515Z 2506/2606 01009KT 9999 SCT040"
    },
    {
      "icao": "LZTT",
      "alert": "OK",
      "vis_m": 9999,
      "fzfg": false,
      "metar_trigger": false,
      "taf_trigger": false,
      "metar": "METAR LZTT 250500Z 32004KT 9999 FEW020 M02/M04 Q1019",
      "taf": "TAF LZTT 250515Z 2506/2606 27009KT CAVOK"
    },
    {
      "icao": "OEJN",
      "alert": "OK",
      "vis_m": 9999,
      "fzfg": false,
      "metar_trigger": false,
      "taf_trigger": false,
      "metar": "METAR OEJN 250500Z 36009KT CAVOK 22/11 Q1014 NOSIG",
      "taf": "TAF OEJN 250500Z 2506/2612 03013KT 7000 NSC"
    },
    {
      "icao": "OEMA",
      "alert": "OK",
      "vis_m": 9999,
      "fzfg": false,
      "metar_trigger": false,
      "taf_trigger": false,
      "metar": "METAR OEMA 250500Z 02006KT CAVOK 14/M03 Q1022 NOSIG",
      "taf": "TAF OEMA 250500Z 2506/2612 09012KT 7000 NSC"
    },
    {
      "icao": "OJAI",
      "alert": "OK",
      "vis_m": 1200,
      "fzfg": false,
      "metar_trigger": false,
      "taf_trigger": false,
      "metar": "METAR OJAI 250500Z 09003KT 1200 BR BKN015 05/05 Q1022 NOSIG",
      "taf": "TAF OJAI 250427Z 2506/2612 VRB02KT 0800 FG SCT035"
    },
    {
      "icao": "OMAA",
      "alert": "OK",
      "vis_m": 9999,
      "fzfg": false,
      "metar_trigger": false,
      "taf_trigger": false,
      "metar": "METAR OMAA 250500Z 18004KT CAVOK 22/10 Q1013 NOSIG",
      "taf": "TAF OMAA 250500Z 2506/2612 18005KT 8000 NSC"
    },
    {
      "icao": "OMDB",
      "alert": "OK",
      "vis_m": 9999,
      "fzfg": false,
      "metar_trigger": false,
      "taf_trigger": false,
      "metar": "METAR OMDB 250500Z 20004KT 160V290 CAVOK 24/07 Q1013 NOSIG",
      "taf": "TAF OMDB 250500Z 2506/2612 22005KT 8000 NSC"
    },
    {
      "icao": "UAAA",
      "alert": "OK",
      "vis_m": 750,
      "fzfg": true,
      "metar_trigger": false,
      "taf_trigger": false,
      "metar": "METAR UAAA 250500Z 28002MPS 0750 R23L/0750N SHSN FZFG SCT010 BKN020CB OVC100 M04/M05 Q1022 NOSIG",
      "taf": "TAF UAAA 242302Z 2500/2524 22003MPS 1300 -SHSN BR FEW005 BKN011CB OVC050 TXM01/2509Z TNM05/2502Z"
    },
    {
      "icao": "UBBB",
      "alert": "OK",
      "vis_m": 8000,
      "fzfg": false,
      "metar_trigger": false,
      "taf_trigger": false,
      "metar": "METAR UBBB 250500Z 29004KT 8000 -DZ OVC008 06/05 Q1016 NOSIG",
      "taf": "TAF UBBB 250512Z 2506/2606 VRB04KT 8000 BKN007 OVC016 TX08/2511Z TN04/2601Z"
    },
    {
      "icao": "UDSG",
      "alert": "OK",
      "vis_m": 9999,
      "fzfg": false,
      "metar_trigger": false,
      "taf_trigger": false,
      "metar": "METAR UDSG 250500Z 36001KT 9999 NSC M02/M04 Q1015 NOSIG",
      "taf": "TAF UDSG 242258Z 2500/2524 VRB06KT 9999 FEW040"
    },
    {
      "icao": "UDYZ",
      "alert": "OK",
      "vis_m": 9999,
      "fzfg": false,
      "metar_trigger": false,
      "taf_trigger": false,
      "metar": "METAR UDYZ 250500Z 36002KT 9999 FEW046 M01/M03 Q1015 NOSIG",
      "taf": "TAF UDYZ 242300Z 2500/2524 VRB04KT 6000 FEW050"
    },
    {
      "icao": "UGKO",
      "alert": "OK",
      "vis_m": 9999,
      "fzfg": false,
      "metar_trigger": false,
      "taf_trigger": false,
      "metar": "METAR UGKO 250500Z 10007KT 9999 SCT071 05/04 Q1015 NOSIG",
      "taf": "TAF UGKO 250500Z 2506/2606 26007KT 9999 SCT023 OVC050 TX17/2511Z TN06/2506Z"
    }
  ]
}