{
  "ts_utc": "2026-01-28T04:10:31Z",
  "threshold_m": 150,
  "source": "stations_override.txt (ICAO list) + aviationweather.gov (METAR/TAF raw)",
  "station_count": 159,
  "stations": [
    {
      "icao": "BIKF",
      "alert": "OK",
      "vis_m": 9999,
      "fzfg": false,
      "metar_trigger": false,
      "taf_trigger": false,
      "metar": "METAR BIKF 280400Z 06014KT CAVOK 04/M04 Q0999",
      "taf": "TAF BIKF 280150Z 2803/2903 05014KT CAVOK TX04/2815Z TN02/2807Z"
    },
    {
      "icao": "BKPR",
      "alert": "OK",
      "vis_m": 250,
      "fzfg": true,
      "metar_trigger": false,
      "taf_trigger": false,
      "metar": "METAR BKPR 280400Z 19003KT 160V220 0250 R17/0750U R35/0225N FZFG SCT002 M02/M02 Q1006 NOSIG",
      "taf": "TAF BKPR 272330Z 2800/2824 17005KT CAVOK"
    },
    {
      "icao": "EBCI",
      "alert": "OK",
      "vis_m": 6000,
      "fzfg": false,
      "metar_trigger": false,
      "taf_trigger": false,
      "metar": "METAR EBCI 280350Z 22004KT 6000 SCT044 05/04 Q0994 TEMPO 4000 BR",
      "taf": ""
    },
    {
      "icao": "EDDB",
      "alert": "OK",
      "vis_m": 9999,
      "fzfg": false,
      "metar_trigger": false,
      "taf_trigger": false,
      "metar": "METAR EDDB 280350Z AUTO 09006KT 9999 OVC015 M01/M03 Q1000 TEMPO BKN015",
      "taf": "TAF EDDB 272300Z 2800/2824 11007KT 7000 SCT004 BKN015"
    },
    {
      "icao": "EDDH",
      "alert": "OK",
      "vis_m": 9999,
      "fzfg": false,
      "metar_trigger": false,
      "taf_trigger": false,
      "metar": "METAR EDDH 280350Z AUTO 10010KT 9999 OVC011 00/M02 Q0999 TEMPO OVC008",
      "taf": ""
    },
    {
      "icao": "EDDK",
      "alert": "OK",
      "vis_m": 9000,
      "fzfg": false,
      "metar_trigger": false,
      "taf_trigger": false,
      "metar": "METAR EDDK 280350Z AUTO 08003KT 060V130 9000 BKN017 BKN025 04/03 Q0994 BECMG BKN013",
      "taf": "TAF EDDK 272300Z 2800/2906 10004KT 9999 OVC020"
    },
    {
      "icao": "EDDN",
      "alert": "OK",
      "vis_m": 6000,
      "fzfg": false,
      "metar_trigger": false,
      "taf_trigger": false,
      "metar": "METAR EDDN 280350Z AUTO 08003KT 060V120 6000 NSC 01/00 Q0994",
      "taf": "TAF EDDN 272300Z 2800/2824 09006KT 9999 BKN030"
    },
    {
      "icao": "EDDS",
      "alert": "OK",
      "vis_m": 8000,
      "fzfg": false,
      "metar_trigger": false,
      "taf_trigger": false,
      "metar": "METAR EDDS 280350Z AUTO 31003KT 8000 OVC014 02/02 Q0991",
      "taf": "TAF EDDS 272300Z 2800/2824 34004KT 9000 SCT015 BKN030"
    },
    {
      "icao": "EDFH",
      "alert": "OK",
      "vis_m": 600,
      "fzfg": false,
      "metar_trigger": false,
      "taf_trigger": false,
      "metar": "METAR EDFH 280350Z 30003KT 0600 R21/0700N FG VV/// 02/02 Q0992",
      "taf": "TAF EDFH 272300Z 2800/2824 14011KT 2000 -RADZ OVC002"
    },
    {
      "icao": "EDJA",
      "alert": "OK",
      "vis_m": 9999,
      "fzfg": false,
      "metar_trigger": false,
      "taf_trigger": false,
      "metar": "METAR EDJA 280350Z AUTO 01007KT 9999 // OVC086/// 00/M01 Q0990",
      "taf": "TAF EDJA 280200Z 2803/2812 03006KT 9999 SCT060"
    },
    {
      "icao": "EDLW",
      "alert": "OK",
      "vis_m": 2400,
      "fzfg": false,
      "metar_trigger": false,
      "taf_trigger": false,
      "metar": "METAR EDLW 280350Z AUTO 04003KT 2400 // SCT010/// OVC014/// 02/02 Q0993",
      "taf": "TAF EDLW 271700Z 2718/2818 07007KT CAVOK"
    },
    {
      "icao": "EDNY",
      "alert": "OK",
      "vis_m": 9999,
      "fzfg": false,
      "metar_trigger": false,
      "taf_trigger": false,
      "metar": "METAR EDNY 280350Z AUTO VRB02KT 9999 // BKN097/// OVC110/// 02/00 Q0990",
      "taf": "TAF EDNY 280200Z 2803/2812 04004KT 9999 SCT060"
    },
    {
      "icao": "EDSB",
      "alert": "OK",
      "vis_m": 2700,
      "fzfg": false,
      "metar_trigger": false,
      "taf_trigger": false,
      "metar": "METAR EDSB 280350Z 03004KT 2700 DZ BR SCT002 BKN008 OVC010 04/04 Q0992",
      "taf": "TAF EDSB 272300Z 2800/2824 30004KT 9000 SCT007 BKN015"
    },
    {
      "icao": "EETN",
      "alert": "OK",
      "vis_m": 9999,
      "fzfg": false,
      "metar_trigger": false,
      "taf_trigger": false,
      "metar": "METAR EETN 280350Z 07006KT 9999 OVC009 M08/M09 Q1013 NOSIG",
      "taf": "TAF EETN 272330Z 2800/2824 08010KT 9999 OVC008"
    },
    {
      "icao": "EFTU",
      "alert": "OK",
      "vis_m": 9999,
      "fzfg": false,
      "metar_trigger": false,
      "taf_trigger": false,
      "metar": "METAR EFTU 280350Z AUTO 07004KT 9999 OVC004 M13/M14 Q1015",
      "taf": "TAF EFTU 280227Z 2803/2903 08008KT 9999 OVC003"
    },
    {
      "icao": "EGBB",
      "alert": "OK",
      "vis_m": 9999,
      "fzfg": false,
      "metar_trigger": false,
      "taf_trigger": false,
      "metar": "METAR EGBB 280350Z 15005KT CAVOK 01/00 Q0990",
      "taf": "TAF EGBB 272257Z 2800/2824 18005KT 9999 FEW025"
    },
    {
      "icao": "EGGP",
      "alert": "OK",
      "vis_m": 9999,
      "fzfg": false,
      "metar_trigger": false,
      "taf_trigger": false,
      "metar": "METAR EGGP 280350Z AUTO 15005KT 9999 NCD 04/02 Q0988",
      "taf": "TAF EGGP 272253Z 2800/2824 17008KT 9999 SCT030"
    },
    {
      "icao": "EGGW",
      "alert": "OK",
      "vis_m": 8000,
      "fzfg": false,
      "metar_trigger": false,
      "taf_trigger": false,
      "metar": "METAR EGGW 280350Z AUTO 16003KT 120V190 8000 NCD 02/02 Q0991",
      "taf": ""
    },
    {
      "icao": "EGKK",
      "alert": "OK",
      "vis_m": 9999,
      "fzfg": false,
      "metar_trigger": false,
      "taf_trigger": false,
      "metar": "METAR EGKK 280350Z 24001KT 9999 SCT039 02/02 Q0992",
      "taf": ""
    },
    {
      "icao": "EGNM",
      "alert": "OK",
      "vis_m": null,
      "fzfg": false,
      "metar_trigger": false,
      "taf_trigger": false,
      "metar": "",
      "taf": ""
    },
    {
      "icao": "EGPD",
      "alert": "OK",
      "vis_m": 9999,
      "fzfg": false,
      "metar_trigger": false,
      "taf_trigger": false,
      "metar": "METAR EGPD 280350Z AUTO 13017G27KT 9999 -RA BKN008/// OVC014/// //////TCU 05/04 Q0990 TEMPO BKN006",
      "taf": ""
    },
    {
      "icao": "EGPF",
      "alert": "OK",
      "vis_m": 9999,
      "fzfg": false,
      "metar_trigger": false,
      "taf_trigger": false,
      "metar": "METAR EGPF 280350Z AUTO 11006KT 9999 FEW029/// BKN037/// //////TCU 06/05 Q0986",
      "taf": "TAF EGPF 272303Z 2800/2824 07017KT 9999 SCT035"
    },
    {
      "icao": "EHBK",
      "alert": "OK",
      "vis_m": 9999,
      "fzfg": false,
      "metar_trigger": false,
      "taf_trigger": false,
      "metar": "METAR EHBK 280355Z AUTO 20004KT 9999 FEW036/// BKN041/// 05/04 Q0993",
      "taf": "TAF EHBK 272320Z 2800/2906 20006KT 9999 BKN030"
    },
    {
      "icao": "EHEH",
      "alert": "OK",
      "vis_m": null,
      "fzfg": false,
      "metar_trigger": false,
      "taf_trigger": false,
      "metar": "",
      "taf": "TAF EHEH 272358Z 2800/2906 12006KT 2000 BR BKN015"
    },
    {
      "icao": "EKBI",
      "alert": "OK",
      "vis_m": 9999,
      "fzfg": false,
      "metar_trigger": false,
      "taf_trigger": false,
      "metar": "METAR EKBI 280350Z AUTO 08018KT 9999 OVC008/// M01/M02 Q1002",
      "taf": "TAF EKBI 280227Z 2803/2903 08014KT 9999 BKN012"
    },
    {
      "icao": "EKCH",
      "alert": "OK",
      "vis_m": 9999,
      "fzfg": false,
      "metar_trigger": false,
      "taf_trigger": false,
      "metar": "METAR EKCH 280350Z 07015KT 9999 OVC015 M01/M04 Q1005 NOSIG",
      "taf": "TAF EKCH 280227Z 2803/2903 05015KT 9999 OVC012"
    },
    {
      "icao": "ENAL",
      "alert": "OK",
      "vis_m": 9999,
      "fzfg": false,
      "metar_trigger": false,
      "taf_trigger": false,
      "metar": "METAR ENAL 280350Z AUTO 20005KT 9999 NCD M05/M07 Q1006",
      "taf": "TAF ENAL 280200Z 2803/2812 15008KT CAVOK"
    },
    {
      "icao": "ENBR",
      "alert": "OK",
      "vis_m": 9999,
      "fzfg": false,
      "metar_trigger": false,
      "taf_trigger": false,
      "metar": "METAR ENBR 280350Z AUTO 00000KT 9999 NCD M07/M10 Q1006 RMK WIND 1200FT 26007KT",
      "taf": "TAF ENBR 272300Z 2800/2824 VRB03KT CAVOK"
    },
    {
      "icao": "ENGM",
      "alert": "OK",
      "vis_m": 9999,
      "fzfg": false,
      "metar_trigger": false,
      "taf_trigger": false,
      "metar": "METAR ENGM 280350Z 02007KT 9999 OVC024 M10/M12 Q1013",
      "taf": "TAF ENGM 272300Z 2800/2824 02005KT 9999 -SN BKN015"
    },
    {
      "icao": "ENHD",
      "alert": "OK",
      "vis_m": 9999,
      "fzfg": false,
      "metar_trigger": false,
      "taf_trigger": false,
      "metar": "METAR ENHD 280350Z AUTO 10011KT 9999 OVC036/// M03/M09 Q1005",
      "taf": "TAF ENHD 280200Z 2803/2812 11005KT CAVOK"
    },
    {
      "icao": "ENTC",
      "alert": "OK",
      "vis_m": 9999,
      "fzfg": false,
      "metar_trigger": false,
      "taf_trigger": false,
      "metar": "METAR ENTC 280350Z 20011KT CAVOK M07/M10 Q1014 RMK WIND 2600FT 28010KT",
      "taf": ""
    },
    {
      "icao": "ENTO",
      "alert": "OK",
      "vis_m": 9999,
      "fzfg": false,
      "metar_trigger": false,
      "taf_trigger": false,
      "metar": "METAR ENTO 280350Z AUTO 36009KT 9999 -SN OVC023/// M07/M10 Q1012",
      "taf": "TAF ENTO 272300Z 2800/2824 02008KT 9999 -SN BKN020"
    },
    {
      "icao": "ENVA",
      "alert": "OK",
      "vis_m": 9999,
      "fzfg": false,
      "metar_trigger": false,
      "taf_trigger": false,
      "metar": "METAR ENVA 280350Z AUTO 09004KT 050V120 9999 NCD M11/M15 Q1010 RMK WIND 670FT 10012KT",
      "taf": "TAF ENVA 272300Z 2800/2824 12008KT CAVOK"
    },
    {
      "icao": "ENZV",
      "alert": "OK",
      "vis_m": 9999,
      "fzfg": false,
      "metar_trigger": false,
      "taf_trigger": false,
      "metar": "METAR ENZV 280350Z AUTO 10014KT 9999 NCD M03/M15 Q1005",
      "taf": "TAF ENZV 272300Z 2800/2824 11008KT CAVOK"
    },
    {
      "icao": "EPGD",
      "alert": "OK",
      "vis_m": 9999,
      "fzfg": false,
      "metar_trigger": false,
      "taf_trigger": false,
      "metar": "METAR EPGD 280400Z 01006KT 330V050 9999 -SN BKN004 M02/M03 Q1001",
      "taf": ""
    },
    {
      "icao": "EPKK",
      "alert": "OK",
      "vis_m": 3500,
      "fzfg": false,
      "metar_trigger": false,
      "taf_trigger": false,
      "metar": "METAR EPKK 280400Z 03001KT 3500 BR BKN041 M00/M02 Q0998",
      "taf": "TAF EPKK 280230Z 2803/2903 VRB02KT 6000 BKN040"
    },
    {
      "icao": "EPKT",
      "alert": "OK",
      "vis_m": 6000,
      "fzfg": false,
      "metar_trigger": false,
      "taf_trigger": false,
      "metar": "METAR EPKT 280400Z 03003KT 6000 FEW035 OVC040 M00/M01 Q0998",
      "taf": "TAF EPKT 272330Z 2800/2824 VRB02KT 9999 OVC026"
    },
    {
      "icao": "EPLB",
      "alert": "OK",
      "vis_m": 3400,
      "fzfg": false,
      "metar_trigger": false,
      "taf_trigger": false,
      "metar": "METAR EPLB 280400Z 07004KT 3400 BR BKN024 M03/M04 Q0999",
      "taf": ""
    },
    {
      "icao": "EPMO",
      "alert": "OK",
      "vis_m": 2100,
      "fzfg": false,
      "metar_trigger": false,
      "taf_trigger": false,
      "metar": "METAR EPMO 280400Z 36003KT 2100 -SN BR SCT015 BKN040 M01/M01 Q1000",
      "taf": ""
    },
    {
      "icao": "EPPO",
      "alert": "OK",
      "vis_m": 2000,
      "fzfg": false,
      "metar_trigger": false,
      "taf_trigger": false,
      "metar": "METAR EPPO 280400Z 03004KT 2000 BR OVC003 M01/M02 Q1001",
      "taf": ""
    },
    {
      "icao": "EPRA",
      "alert": "OK",
      "vis_m": 3500,
      "fzfg": false,
      "metar_trigger": false,
      "taf_trigger": false,
      "metar": "METAR EPRA 280400Z 01003KT 3500 -SN BR BKN004 OVC010 M00/M01 Q0999",
      "taf": "TAF EPRA 280230Z 2803/2812 04005KT 3000 -SN BR BKN014"
    },
    {
      "icao": "EPRZ",
      "alert": "OK",
      "vis_m": 9999,
      "fzfg": false,
      "metar_trigger": false,
      "taf_trigger": false,
      "metar": "METAR EPRZ 280400Z 21007KT 9999 SCT044 M01/M01 Q0999",
      "taf": "TAF EPRZ 272330Z 2800/2824 27006KT 2000 BR NSC"
    },
    {
      "icao": "EPSC",
      "alert": "OK",
      "vis_m": 5000,
      "fzfg": false,
      "metar_trigger": false,
      "taf_trigger": false,
      "metar": "METAR EPSC 280400Z VRB02KT 5000 BR FEW004 OVC015 M01/M02 Q1002",
      "taf": "TAF EPSC 272330Z 2800/2824 04003KT 6000 BKN015"
    },
    {
      "icao": "EPSY",
      "alert": "OK",
      "vis_m": 1300,
      "fzfg": false,
      "metar_trigger": false,
      "taf_trigger": false,
      "metar": "METAR EPSY 280400Z 01003KT 1300 R01/1600D BR OVC001 M01/M00 Q1000",
      "taf": "TAF EPSY 280230Z 2803/2812 VRB02KT 1500 BR BKN003 OVC005"
    },
    {
      "icao": "EPWA",
      "alert": "OK",
      "vis_m": 4700,
      "fzfg": false,
      "metar_trigger": false,
      "taf_trigger": false,
      "metar": "METAR EPWA 280400Z 01005KT 4700 -SN BR BKN006 M01/M01 Q1000 NOSIG",
      "taf": ""
    },
    {
      "icao": "EPWR",
      "alert": "OK",
      "vis_m": 6000,
      "fzfg": false,
      "metar_trigger": false,
      "taf_trigger": false,
      "metar": "METAR EPWR 280400Z VRB02KT 6000 SCT004 OVC036 00/M00 Q0999",
      "taf": "TAF EPWR 280230Z 2803/2903 03004KT 5000 BR BKN030"
    },
    {
      "icao": "ESGG",
      "alert": "OK",
      "vis_m": 9999,
      "fzfg": false,
      "metar_trigger": false,
      "taf_trigger": false,
      "metar": "METAR ESGG 280350Z 07011KT 9999 FEW022 M04/M09 Q1007",
      "taf": "TAF ESGG 280230Z 2803/2903 07009KT 9999 BKN020"
    },
    {
      "icao": "ESKN",
      "alert": "OK",
      "vis_m": 9999,
      "fzfg": false,
      "metar_trigger": false,
      "taf_trigger": false,
      "metar": "METAR ESKN 280350Z 02009KT 340V050 9999 BKN031 M04/M08 Q1012",
      "taf": "TAF ESKN 280230Z 2803/2903 02009KT 9999 BKN030"
    },
    {
      "icao": "ESMS",
      "alert": "OK",
      "vis_m": 9999,
      "fzfg": false,
      "metar_trigger": false,
      "taf_trigger": false,
      "metar": "METAR ESMS 280350Z 07015KT 9999 OVC009 M01/M03 Q1004",
      "taf": "TAF ESMS 280227Z 2803/2903 07012KT 9999 OVC009"
    },
    {
      "icao": "ESSA",
      "alert": "OK",
      "vis_m": 9999,
      "fzfg": false,
      "metar_trigger": false,
      "taf_trigger": false,
      "metar": "METAR ESSA 280350Z 02008KT 9999 BKN017 M10/M12 Q1014 NOSIG",
      "taf": "TAF ESSA 280230Z 2803/2903 03007KT CAVOK"
    },
    {
      "icao": "EYKA",
      "alert": "OK",
      "vis_m": 5000,
      "fzfg": false,
      "metar_trigger": false,
      "taf_trigger": false,
      "metar": "METAR EYKA 280350Z 01003KT 340V040 5000 -SN BR OVC015 M05/M06 Q1002",
      "taf": "TAF EYKA 272300Z 2800/2824 VRB04KT 5000 SN BR OVC015"
    },
    {
      "icao": "EYPA",
      "alert": "OK",
      "vis_m": 9999,
      "fzfg": false,
      "metar_trigger": false,
      "taf_trigger": false,
      "metar": "METAR EYPA 280350Z 07009KT 9999 SCT031 M07/M10 Q1004",
      "taf": "TAF EYPA 272300Z 2800/2824 07010KT 8000 OVC020"
    },
    {
      "icao": "EYVI",
      "alert": "OK",
      "vis_m": 1800,
      "fzfg": false,
      "metar_trigger": false,
      "taf_trigger": false,
      "metar": "METAR EYVI 280350Z 04005KT 1800 SN BR OVC022 M04/M05 Q1000 NOSIG",
      "taf": ""
    },
    {
      "icao": "GCFV",
      "alert": "OK",
      "vis_m": 9999,
      "fzfg": false,
      "metar_trigger": false,
      "taf_trigger": false,
      "metar": "METAR GCFV 280400Z AUTO 17005KT 9999 OVC020 18/14 Q1020",
      "taf": "TAF GCFV 280200Z 2803/2903 26009KT 9999 SCT030 TX22/2814Z TN14/2806Z"
    },
    {
      "icao": "GCLP",
      "alert": "OK",
      "vis_m": 9999,
      "fzfg": false,
      "metar_trigger": false,
      "taf_trigger": false,
      "metar": "METAR GCLP 280400Z VRB01KT CAVOK 15/12 Q1020 NOSIG",
      "taf": "TAF GCLP 280200Z 2803/2903 VRB05KT 9999 FEW030 TX22/2814Z TN15/2806Z"
    },
    {
      "icao": "GCTS",
      "alert": "OK",
      "vis_m": 9999,
      "fzfg": false,
      "metar_trigger": false,
      "taf_trigger": false,
      "metar": "METAR GCTS 280400Z 29004KT 9999 FEW030 16/11 Q1020 NOSIG",
      "taf": "TAF GCTS 280200Z 2803/2903 VRB05KT 9999 FEW030 TX22/2814Z TN16/2806Z"
    },
    {
      "icao": "GMAD",
      "alert": "OK",
      "vis_m": 8000,
      "fzfg": false,
      "metar_trigger": false,
      "taf_trigger": false,
      "metar": "METAR GMAD 280400Z 11004KT 8000 -RA FEW020 BKN083 14/13 Q1020 NOSIG",
      "taf": "TAF GMAD 272300Z 2800/2906 22005KT 8000 SCT020 BKN080"
    },
    {
      "icao": "GMMN",
      "alert": "OK",
      "vis_m": 9999,
      "fzfg": false,
      "metar_trigger": false,
      "taf_trigger": false,
      "metar": "METAR GMMN 280400Z 23017KT 190V250 9999 BKN008 13/12 Q1015 NOSIG",
      "taf": "TAF GMMN 272300Z 2800/2906 22014KT 9999 BKN010 BKN020"
    },
    {
      "icao": "GMMX",
      "alert": "OK",
      "vis_m": 8000,
      "fzfg": false,
      "metar_trigger": false,
      "taf_trigger": false,
      "metar": "METAR GMMX 280400Z 30004KT 260V360 8000 BKN020 13/12 Q1017 NOSIG",
      "taf": "TAF GMMX 271700Z 2718/2824 06006KT 8000 SCT023 SCT080"
    },
    {
      "icao": "HEGN",
      "alert": "OK",
      "vis_m": 9999,
      "fzfg": false,
      "metar_trigger": false,
      "taf_trigger": false,
      "metar": "METAR HEGN 280300Z 30008KT CAVOK 15/M11 Q1016 NOSIG",
      "taf": "TAF HEGN 272300Z 2800/2906 28008KT CAVOK"
    },
    {
      "icao": "HEMA",
      "alert": "OK",
      "vis_m": 9999,
      "fzfg": false,
      "metar_trigger": false,
      "taf_trigger": false,
      "metar": "METAR HEMA 280300Z 26012KT CAVOK 17/11 Q1017 NOSIG",
      "taf": "TAF HEMA 272300Z 2800/2906 24008KT CAVOK"
    },
    {
      "icao": "HESH",
      "alert": "OK",
      "vis_m": 9999,
      "fzfg": false,
      "metar_trigger": false,
      "taf_trigger": false,
      "metar": "METAR HESH 280300Z 24006KT CAVOK 18/M04 Q1016 NOSIG",
      "taf": "TAF HESH 272300Z 2800/2906 29008KT CAVOK"
    },
    {
      "icao": "HESX",
      "alert": "OK",
      "vis_m": 6000,
      "fzfg": false,
      "metar_trigger": false,
      "taf_trigger": false,
      "metar": "METAR HESX 280300Z 24009KT 6000 NSC 11/02 Q1015 NOSIG",
      "taf": "TAF HESX 272300Z 2800/2906 24009KT 6000 SCT030"
    },
    {
      "icao": "LATI",
      "alert": "OK",
      "vis_m": 9999,
      "fzfg": false,
      "metar_trigger": false,
      "taf_trigger": false,
      "metar": "METAR LATI 280350Z 15004KT 9999 BKN055 06/03 Q1009 NOSIG",
      "taf": "TAF LATI 272300Z 2800/2824 VRB05KT CAVOK TX15/2812Z TN04/2805Z"
    },
    {
      "icao": "LBPD",
      "alert": "OK",
      "vis_m": 9999,
      "fzfg": false,
      "metar_trigger": false,
      "taf_trigger": false,
      "metar": "METAR LBPD 280400Z AUTO 00000KT 9999 NCD 03/01 Q1007 NOSIG",
      "taf": "TAF LBPD 272300Z 2800/2824 28010KT 9999 BKN040"
    },
    {
      "icao": "LBSF",
      "alert": "OK",
      "vis_m": 300,
      "fzfg": true,
      "metar_trigger": false,
      "taf_trigger": false,
      "metar": "METAR LBSF 280400Z AUTO 09002KT 0300 0250E R27/0275N FZFG VV001 M03/M03 Q1007 NOSIG",
      "taf": "TAF LBSF 272300Z 2800/2824 VRB04KT 9999 SCT015 BKN030"
    },
    {
      "icao": "LBWN",
      "alert": "OK",
      "vis_m": 9999,
      "fzfg": false,
      "metar_trigger": false,
      "taf_trigger": false,
      "metar": "METAR LBWN 280400Z AUTO 30005KT 9999 OVC011/// 04/04 Q1007 NOSIG",
      "taf": "TAF LBWN 272300Z 2800/2824 27010KT 9999 SCT008 BKN015"
    },
    {
      "icao": "LCLK",
      "alert": "OK",
      "vis_m": 9999,
      "fzfg": false,
      "metar_trigger": false,
      "taf_trigger": false,
      "metar": "METAR LCLK 280400Z 36004KT 320V020 9999 -SHRA FEW030 SCT050 11/10 Q1010 NOSIG",
      "taf": "TAF LCLK 272330Z 2800/2900 32007KT 9999 FEW020 SCT040"
    },
    {
      "icao": "LCPH",
      "alert": "OK",
      "vis_m": 9999,
      "fzfg": false,
      "metar_trigger": false,
      "taf_trigger": false,
      "metar": "METAR LCPH 280400Z AUTO 07010KT 020V080 9999 FEW050 BKN065 11/08 Q1010",
      "taf": "TAF LCPH 272330Z 2800/2900 19010KT 8000 FEW025 SCT050"
    },
    {
      "icao": "LEAL",
      "alert": "OK",
      "vis_m": 9999,
      "fzfg": false,
      "metar_trigger": false,
      "taf_trigger": false,
      "metar": "METAR LEAL 280400Z 24011KT 210V270 CAVOK 10/02 Q1003 NOSIG",
      "taf": "TAF LEAL 272300Z 2800/2824 27015KT 9999 FEW040 TX20/2814Z TN10/2807Z"
    },
    {
      "icao": "LEBB",
      "alert": "OK",
      "vis_m": 9999,
      "fzfg": false,
      "metar_trigger": false,
      "taf_trigger": false,
      "metar": "METAR LEBB 280400Z 07004KT CAVOK 04/03 Q0997 NOSIG",
      "taf": "TAF LEBB 272300Z 2800/2824 22009KT 9999 FEW030 TX10/2816Z TN04/2806Z"
    },
    {
      "icao": "LEBL",
      "alert": "OK",
      "vis_m": 9999,
      "fzfg": false,
      "metar_trigger": false,
      "taf_trigger": false,
      "metar": "METAR LEBL 280400Z 22007KT 190V250 9999 FEW025 10/01 Q0997 NOSIG",
      "taf": "TAF LEBL 272300Z 2800/2824 26012KT 9999 FEW020 TX12/2812Z TN07/2806Z"
    },
    {
      "icao": "LECH",
      "alert": "OK",
      "vis_m": 9999,
      "fzfg": false,
      "metar_trigger": false,
      "taf_trigger": false,
      "metar": "METAR LECH 280400Z AUTO 26012KT 230V290 CAVOK 08/M01 Q1000",
      "taf": ""
    },
    {
      "icao": "LEMD",
      "alert": "OK",
      "vis_m": 9999,
      "fzfg": false,
      "metar_trigger": false,
      "taf_trigger": false,
      "metar": "METAR LEMD 280400Z 15007KT 130V190 9999 FEW009 BKN015 03/03 Q1001 NOSIG",
      "taf": ""
    },
    {
      "icao": "LEMG",
      "alert": "OK",
      "vis_m": 9999,
      "fzfg": false,
      "metar_trigger": false,
      "taf_trigger": false,
      "metar": "METAR LEMG 280400Z 22003KT 170V270 9999 RA FEW020 SCT056 BKN076 12/10 Q1006 NOSIG",
      "taf": "TAF LEMG 272300Z 2800/2824 VRB02KT 9999 FEW025 TX19/2814Z TN14/2807Z"
    },
    {
      "icao": "LEVC",
      "alert": "OK",
      "vis_m": 9999,
      "fzfg": false,
      "metar_trigger": false,
      "taf_trigger": false,
      "metar": "METAR LEVC 280400Z 28013KT 9999 FEW040 10/03 Q1002 NOSIG",
      "taf": "TAF LEVC 272300Z 2800/2824 27018KT 9999 FEW040 TX18/2814Z TN08/2807Z"
    },
    {
      "icao": "LEXJ",
      "alert": "OK",
      "vis_m": 9999,
      "fzfg": false,
      "metar_trigger": false,
      "taf_trigger": false,
      "metar": "METAR LEXJ 280400Z AUTO 20005KT 150V260 9999 2900E NSC 07/M00 Q0996",
      "taf": "TAF LEXJ 280200Z 2803/2903 20009KT 9999 SCT040 TX11/2815Z TN06/2803Z"
    },
    {
      "icao": "LEZG",
      "alert": "OK",
      "vis_m": 9999,
      "fzfg": false,
      "metar_trigger": false,
      "taf_trigger": false,
      "metar": "METAR LEZG 280400Z 31004KT 9999 BKN060 06/01 Q1000 NOSIG",
      "taf": "TAF LEZG 272300Z 2800/2824 26010KT 9999 FEW040 TX08/2813Z TN03/2807Z"
    },
    {
      "icao": "LEZL",
      "alert": "OK",
      "vis_m": 8000,
      "fzfg": false,
      "metar_trigger": false,
      "taf_trigger": false,
      "metar": "METAR LEZL 280400Z AUTO 22012KT 190V250 8000 RA BKN009 13/13 Q1003",
      "taf": "TAF LEZL 280200Z 2803/2903 22018KT 9999 BKN025 TX18/2815Z TN10/2807Z"
    },
    {
      "icao": "LFBD",
      "alert": "OK",
      "vis_m": 9999,
      "fzfg": false,
      "metar_trigger": false,
      "taf_trigger": false,
      "metar": "METAR LFBD 280400Z AUTO 22003KT 9999 FEW032 BKN039 BKN046 06/05 Q0996 TEMPO VRB15G25KT 2000 SHRA BKN010 BKN025CB",
      "taf": "TAF LFBD 272300Z 2800/2906 VRB03KT 9999 BKN030 TX11/2813Z TN05/2806Z"
    },
    {
      "icao": "LFLL",
      "alert": "OK",
      "vis_m": 9999,
      "fzfg": false,
      "metar_trigger": false,
      "taf_trigger": false,
      "metar": "METAR LFLL 280400Z 33008KT 9999 -RA FEW013 BKN022 06/05 Q0992 NOSIG",
      "taf": "TAF LFLL 272300Z 2800/2906 32009KT 8000 -RA FEW004 OVC020"
    },
    {
      "icao": "LFLS",
      "alert": "OK",
      "vis_m": 9999,
      "fzfg": false,
      "metar_trigger": false,
      "taf_trigger": false,
      "metar": "METAR LFLS 280400Z AUTO 35007KT 9999 RA OVC013/// ///TCU 04/03 Q0992 TEMPO 1000 SN BKN004",
      "taf": "TAF LFLS 280200Z 2803/2903 30007KT 8000 -RA OVC016"
    },
    {
      "icao": "LFMN",
      "alert": "OK",
      "vis_m": 3000,
      "fzfg": false,
      "metar_trigger": false,
      "taf_trigger": false,
      "metar": "METAR LFMN 280400Z 04014KT 320V080 3000 +RA SCT007 BKN010 SCT020TCU 10/08 Q0990 BECMG NSW",
      "taf": ""
    },
    {
      "icao": "LFOB",
      "alert": "OK",
      "vis_m": 9999,
      "fzfg": false,
      "metar_trigger": false,
      "taf_trigger": false,
      "metar": "METAR LFOB 280400Z AUTO 00000KT CAVOK 01/00 Q0994 TEMPO 0600 FG VV///",
      "taf": "TAF LFOB 272300Z 2800/2824 20005KT 9999 SCT030"
    },
    {
      "icao": "LFPO",
      "alert": "OK",
      "vis_m": 7000,
      "fzfg": false,
      "metar_trigger": false,
      "taf_trigger": false,
      "metar": "METAR LFPO 280400Z VRB02KT 7000 NSC 04/04 Q0994 NOSIG",
      "taf": "TAF LFPO 272300Z 2800/2906 24005KT CAVOK"
    },
    {
      "icao": "LFSB",
      "alert": "OK",
      "vis_m": 3700,
      "fzfg": false,
      "metar_trigger": false,
      "taf_trigger": false,
      "metar": "METAR LFSB 280400Z AUTO 29002KT 3700 -RA BR FEW005/// BKN014/// OVC027/// ///TCU 03/03 Q0992 TEMPO 1500 BR BKN002",
      "taf": "TAF LFSB 272300Z 2800/2824 17004KT 9999 FEW010 BKN040"
    },
    {
      "icao": "LGAV",
      "alert": "OK",
      "vis_m": 9999,
      "fzfg": false,
      "metar_trigger": false,
      "taf_trigger": false,
      "metar": "METAR LGAV 280350Z VRB02KT 9999 FEW025 12/04 Q1010 NOSIG",
      "taf": "TAF LGAV 272300Z 2800/2824 27010KT 9999 FEW018 SCT030"
    },
    {
      "icao": "LGTS",
      "alert": "OK",
      "vis_m": 9999,
      "fzfg": false,
      "metar_trigger": false,
      "taf_trigger": false,
      "metar": "METAR LGTS 280350Z 09005KT 9999 FEW010 02/02 Q1008 NOSIG",
      "taf": "TAF LGTS 272300Z 2800/2824 34005KT 9999 FEW020"
    },
    {
      "icao": "LHBP",
      "alert": "OK",
      "vis_m": 9999,
      "fzfg": false,
      "metar_trigger": false,
      "taf_trigger": false,
      "metar": "METAR LHBP 280400Z 13007KT 9999 OVC047 02/M00 Q1000 NOSIG",
      "taf": "TAF LHBP 272315Z 2800/2824 11007KT CAVOK"
    },
    {
      "icao": "LHDC",
      "alert": "OK",
      "vis_m": 500,
      "fzfg": false,
      "metar_trigger": false,
      "taf_trigger": false,
      "metar": "METAR LHDC 280345Z AUTO 15005KT 0500 R04/0550N FG VV002 01/01 Q1003",
      "taf": ""
    },
    {
      "icao": "LIBD",
      "alert": "OK",
      "vis_m": 9999,
      "fzfg": false,
      "metar_trigger": false,
      "taf_trigger": false,
      "metar": "METAR LIBD 280350Z 17005KT CAVOK 09/05 Q1004",
      "taf": "TAF LIBD 272300Z 2800/2824 19006KT CAVOK"
    },
    {
      "icao": "LIBG",
      "alert": "OK",
      "vis_m": null,
      "fzfg": false,
      "metar_trigger": false,
      "taf_trigger": false,
      "metar": "",
      "taf": "TAF LIBG 271700Z 2718/2803 VRB05KT 9999 FEW040"
    },
    {
      "icao": "LIBP",
      "alert": "OK",
      "vis_m": 9999,
      "fzfg": false,
      "metar_trigger": false,
      "taf_trigger": false,
      "metar": "METAR LIBP 280350Z AUTO VRB02KT 9999 OVC190/// 08/04 Q0999",
      "taf": "TAF LIBP 272300Z 2800/2824 23010KT CAVOK"
    },
    {
      "icao": "LIBR",
      "alert": "OK",
      "vis_m": 9999,
      "fzfg": false,
      "metar_trigger": false,
      "taf_trigger": false,
      "metar": "METAR LIBR 280350Z 17009KT CAVOK 09/07 Q1006",
      "taf": "TAF LIBR 272300Z 2800/2824 18006KT 9999 FEW030"
    },
    {
      "icao": "LICA",
      "alert": "OK",
      "vis_m": 9999,
      "fzfg": false,
      "metar_trigger": false,
      "taf_trigger": false,
      "metar": "METAR LICA 280350Z AUTO 07007KT 9999 BKN200/// 09/08 Q1007",
      "taf": "TAF LICA 272300Z 2800/2824 VRB05KT 9999 SCT040"
    },
    {
      "icao": "LICC",
      "alert": "OK",
      "vis_m": 9999,
      "fzfg": false,
      "metar_trigger": false,
      "taf_trigger": false,
      "metar": "METAR LICC 280350Z 27010KT 9999 FEW060 11/08 Q1008",
      "taf": "TAF LICC 272300Z 2800/2824 26010KT 9999 SCT030"
    },
    {
      "icao": "LICJ",
      "alert": "OK",
      "vis_m": 9999,
      "fzfg": false,
      "metar_trigger": false,
      "taf_trigger": false,
      "metar": "METAR LICJ 280350Z 19029G41KT 9999 -RA FEW050 16/10 Q1003",
      "taf": "TAF LICJ 272300Z 2800/2824 18018G30KT 9999 SCT040"
    },
    {
      "icao": "LIMC",
      "alert": "OK",
      "vis_m": 9999,
      "fzfg": false,
      "metar_trigger": false,
      "taf_trigger": false,
      "metar": "METAR LIMC 280350Z 01010KT 9999 -RA BKN020 04/04 Q0996 NOSIG",
      "taf": "TAF LIMC 272300Z 2800/2906 VRB04KT 3000 RA BKN014"
    },
    {
      "icao": "LIME",
      "alert": "OK",
      "vis_m": 9999,
      "fzfg": false,
      "metar_trigger": false,
      "taf_trigger": false,
      "metar": "METAR LIME 280350Z VRB01KT 9999 RA BKN025 05/05 Q0995 NOSIG",
      "taf": "TAF LIME 272300Z 2800/2824 VRB04KT 3000 RA BKN014"
    },
    {
      "icao": "LIMF",
      "alert": "OK",
      "vis_m": 9999,
      "fzfg": false,
      "metar_trigger": false,
      "taf_trigger": false,
      "metar": "METAR LIMF 280350Z 31004KT 9999 SCT030 OVC040 03/01 Q0996",
      "taf": "TAF LIMF 272300Z 2800/2824 VRB04KT 4000 RA BKN014"
    },
    {
      "icao": "LIMJ",
      "alert": "OK",
      "vis_m": 9999,
      "fzfg": false,
      "metar_trigger": false,
      "taf_trigger": false,
      "metar": "METAR LIMJ 280350Z 04015KT 9999 BKN025 06/03 Q0992",
      "taf": "TAF LIMJ 272300Z 2800/2824 02015KT 4000 RA BKN014"
    },
    {
      "icao": "LIPE",
      "alert": "OK",
      "vis_m": 6000,
      "fzfg": false,
      "metar_trigger": false,
      "taf_trigger": false,
      "metar": "METAR LIPE 280350Z 05006KT 6000 -RA BKN030 08/07 Q0994",
      "taf": "TAF LIPE 272300Z 2800/2824 09010KT 8000 BKN050"
    },
    {
      "icao": "LIPH",
      "alert": "OK",
      "vis_m": 2600,
      "fzfg": false,
      "metar_trigger": false,
      "taf_trigger": false,
      "metar": "METAR LIPH 280350Z AUTO 04007KT 360V060 2600 -RA BR OVC022/// 06/06 Q0999",
      "taf": "TAF LIPH 272300Z 2800/2824 05010KT 4000 RA BKN015"
    },
    {
      "icao": "LIPQ",
      "alert": "OK",
      "vis_m": 8000,
      "fzfg": false,
      "metar_trigger": false,
      "taf_trigger": false,
      "metar": "METAR LIPQ 280350Z AUTO 03004KT 8000 -RA BKN013/// OVC031/// 06/06 Q0999 RERA",
      "taf": "TAF LIPQ 272300Z 2800/2824 05007KT 4000 RA BKN030"
    },
    {
      "icao": "LIPR",
      "alert": "OK",
      "vis_m": 9999,
      "fzfg": false,
      "metar_trigger": false,
      "taf_trigger": false,
      "metar": "METAR LIPR 280350Z AUTO 12008KT 9999 BKN035/// BKN100/// 10/07 Q0996",
      "taf": "TAF LIPR 272300Z 2800/2824 13012KT 9999 BKN050"
    },
    {
      "icao": "LIPX",
      "alert": "OK",
      "vis_m": 9999,
      "fzfg": false,
      "metar_trigger": false,
      "taf_trigger": false,
      "metar": "METAR LIPX 280350Z 06012KT 9999 -RA BKN030 07/04 Q0995",
      "taf": "TAF LIPX 272300Z 2800/2824 03007KT 3000 RA BKN014"
    },
    {
      "icao": "LIPY",
      "alert": "OK",
      "vis_m": 9999,
      "fzfg": false,
      "metar_trigger": false,
      "taf_trigger": false,
      "metar": "METAR LIPY 280350Z AUTO 15007KT 110V190 9999 OVC055/// 11/07 Q0998",
      "taf": "TAF LIPY 272300Z 2800/2824 VRB05KT 9999 BKN050"
    },
    {
      "icao": "LIPZ",
      "alert": "OK",
      "vis_m": 1500,
      "fzfg": false,
      "metar_trigger": false,
      "taf_trigger": false,
      "metar": "METAR LIPZ 280350Z 06009KT 1500 -RA BR FEW004 BKN014 06/05 Q0999 NOSIG",
      "taf": "TAF LIPZ 272300Z 2800/2906 04012KT 5000 RA BKN030"
    },
    {
      "icao": "LIRF",
      "alert": "OK",
      "vis_m": 6000,
      "fzfg": false,
      "metar_trigger": false,
      "taf_trigger": false,
      "metar": "METAR LIRF 280350Z 18009G22KT 6000 RA SCT007 BKN010 14/13 Q0999 NOSIG",
      "taf": "TAF LIRF 272300Z 2800/2906 16020G30KT 9999 RA SCT010 SCT030"
    },
    {
      "icao": "LIRN",
      "alert": "OK",
      "vis_m": 8000,
      "fzfg": false,
      "metar_trigger": false,
      "taf_trigger": false,
      "metar": "METAR LIRN 280350Z 17006KT 140V220 8000 -RA BKN030 11/09 Q1004 NOSIG",
      "taf": "TAF LIRN 272300Z 2800/2824 17012KT 9999 SCT030"
    },
    {
      "icao": "LIRP",
      "alert": "OK",
      "vis_m": 7000,
      "fzfg": false,
      "metar_trigger": false,
      "taf_trigger": false,
      "metar": "METAR LIRP 280345Z COR 19009KT 7000 RA FEW015 BKN025 BKN060 14/13 Q0993 NOSIG",
      "taf": "TAF LIRP 272300Z 2800/2824 09008KT 8000 -RA SCT020 BKN035"
    },
    {
      "icao": "LIRZ",
      "alert": "OK",
      "vis_m": 9999,
      "fzfg": false,
      "metar_trigger": false,
      "taf_trigger": false,
      "metar": "METAR LIRZ 280350Z AUTO 17005KT 9999 -RA BKN020/// 10/07 Q0997",
      "taf": "TAF LIRZ 272300Z 2800/2824 17014KT 7000 RA BKN025"
    },
    {
      "icao": "LJLJ",
      "alert": "OK",
      "vis_m": 9999,
      "fzfg": false,
      "metar_trigger": false,
      "taf_trigger": false,
      "metar": "METAR LJLJ 280400Z VRB02KT 9999 FEW008 OVC028 01/01 Q0999 NOSIG",
      "taf": "TAF LJLJ 272300Z 2800/2900 VRB02KT 7000 FEW003 BKN050"
    },
    {
      "icao": "LKMT",
      "alert": "OK",
      "vis_m": 6000,
      "fzfg": false,
      "metar_trigger": false,
      "taf_trigger": false,
      "metar": "METAR LKMT 280400Z VRB02KT 6000 OVC029 M00/M01 Q0998 TEMPO 4500 BR",
      "taf": "TAF LKMT 272300Z 2800/2824 24004KT 8000 BKN015 OVC025"
    },
    {
      "icao": "LKPR",
      "alert": "OK",
      "vis_m": 3000,
      "fzfg": false,
      "metar_trigger": false,
      "taf_trigger": false,
      "metar": "METAR LKPR 280400Z VRB01KT 3000 BR SCT002 OVC018 M02/M02 Q0997 NOSIG",
      "taf": ""
    },
    {
      "icao": "LLBG",
      "alert": "OK",
      "vis_m": 9999,
      "fzfg": false,
      "metar_trigger": false,
      "taf_trigger": false,
      "metar": "METAR LLBG 280350Z 19010KT CAVOK 14/M00 Q1013 NOSIG",
      "taf": "TAF LLBG 272323Z 2800/2824 13005KT CAVOK"
    },
    {
      "icao": "LMML",
      "alert": "OK",
      "vis_m": 9999,
      "fzfg": false,
      "metar_trigger": false,
      "taf_trigger": false,
      "metar": "METAR LMML 280345Z 18010KT 150V210 CAVOK 15/13 Q1009 NOSIG",
      "taf": ""
    },
    {
      "icao": "LOWW",
      "alert": "OK",
      "vis_m": 800,
      "fzfg": false,
      "metar_trigger": false,
      "taf_trigger": false,
      "metar": "METAR LOWW 280350Z VRB02KT 0800 R16/0900N R29/0800N -DZ BCFG OVC001 00/00 Q0997 TEMPO 1500 BR",
      "taf": "TAF LOWW 280215Z 2803/2909 13007KT 1800 BCFG OVC002 TX02/2818Z TNM00/2805Z"
    },
    {
      "icao": "LPFR",
      "alert": "OK",
      "vis_m": 9000,
      "fzfg": false,
      "metar_trigger": false,
      "taf_trigger": false,
      "metar": "METAR LPFR 280400Z 22025G36KT 9000 FEW018 BKN040 15/12 Q1002",
      "taf": "TAF LPFR 272300Z 2800/2824 26018KT 9999 SCT025"
    },
    {
      "icao": "LPMA",
      "alert": "OK",
      "vis_m": 9999,
      "fzfg": false,
      "metar_trigger": false,
      "taf_trigger": false,
      "metar": "METAR LPMA 280400Z 35007KT 290V050 9999 FEW015 19/11 Q1015",
      "taf": ""
    },
    {
      "icao": "LPPR",
      "alert": "OK",
      "vis_m": 7000,
      "fzfg": false,
      "metar_trigger": false,
      "taf_trigger": false,
      "metar": "METAR LPPR 280400Z 11011KT 7000 +RA FEW018 BKN040 08/07 Q0990",
      "taf": "TAF LPPR 272300Z 2800/2824 16013KT 9999 SCT020"
    },
    {
      "icao": "LPPS",
      "alert": "OK",
      "vis_m": 9999,
      "fzfg": false,
      "metar_trigger": false,
      "taf_trigger": false,
      "metar": "METAR LPPS 280400Z 28018KT 9999 SCT012 17/15 Q1016",
      "taf": "TAF LPPS 272300Z 2800/2906 27015KT 9999 SCT015 SCT030"
    },
    {
      "icao": "LPPT",
      "alert": "OK",
      "vis_m": 1800,
      "fzfg": false,
      "metar_trigger": false,
      "taf_trigger": false,
      "metar": "METAR LPPT 280400Z 22034G62KT 1800 +RA BR FEW004 BKN006 FEW015TCU 13/13 Q0990",
      "taf": "TAF LPPT 272300Z 2800/2906 23015KT 9999 SCT020"
    },
    {
      "icao": "LQBK",
      "alert": "OK",
      "vis_m": 6000,
      "fzfg": false,
      "metar_trigger": false,
      "taf_trigger": false,
      "metar": "METAR LQBK 280400Z VRB01KT 6000 NSC 00/00 Q1000 NOSIG",
      "taf": ""
    },
    {
      "icao": "LQSA",
      "alert": "OK",
      "vis_m": 8000,
      "fzfg": false,
      "metar_trigger": false,
      "taf_trigger": false,
      "metar": "METAR LQSA 280400Z VRB02KT 8000 NSC M01/M01 Q1003",
      "taf": "TAF LQSA 272300Z 2800/2824 11005KT CAVOK TX11/2814Z TNM02/2800Z"
    },
    {
      "icao": "LQTZ",
      "alert": "OK",
      "vis_m": 9999,
      "fzfg": false,
      "metar_trigger": false,
      "taf_trigger": false,
      "metar": "METAR LQTZ 280400Z VRB02KT CAVOK M02/M02 Q1002",
      "taf": "TAF LQTZ 272300Z 2800/2824 10005KT 9999 SCT060 TX14/2813Z TNM03/2801Z"
    },
    {
      "icao": "LRBC",
      "alert": "OK",
      "vis_m": 250,
      "fzfg": false,
      "metar_trigger": false,
      "taf_trigger": false,
      "metar": "METAR LRBC 280400Z 17007KT 0250 R16/0600N FG VV002 00/M00 Q1004",
      "taf": "TAF LRBC 280200Z 2803/2812 17007KT 0350 FG VV002"
    },
    {
      "icao": "LRBS",
      "alert": "OK",
      "vis_m": 1500,
      "fzfg": false,
      "metar_trigger": false,
      "taf_trigger": false,
      "metar": "METAR LRBS 280400Z 21005KT 1500 BR OVC001 03/03 Q1006 NOSIG",
      "taf": "TAF LRBS 272300Z 2800/2824 VRB04KT 1500 BR OVC001"
    },
    {
      "icao": "LRBV",
      "alert": "OK",
      "vis_m": 4500,
      "fzfg": false,
      "metar_trigger": false,
      "taf_trigger": false,
      "metar": "METAR LRBV 280400Z AUTO 07002KT 4500 1100 R21/1600D FG OVC015/// 01/01 Q1003",
      "taf": "TAF LRBV 280200Z 2803/2812 VRB04KT 9999 BKN020"
    },
    {
      "icao": "LRCL",
      "alert": "OK",
      "vis_m": 400,
      "fzfg": false,
      "metar_trigger": false,
      "taf_trigger": false,
      "metar": "METAR LRCL 280400Z 00000KT 0400 R25/0550N FG VV002 01/00 Q1004",
      "taf": "TAF LRCL 280200Z 2803/2812 VRB04KT 0800 FG BKN002"
    },
    {
      "icao": "LRCV",
      "alert": "OK",
      "vis_m": 200,
      "fzfg": true,
      "metar_trigger": false,
      "taf_trigger": false,
      "metar": "METAR LRCV 280400Z 22003KT 0200 R26/0250N FZFG VV001 M00/M00 Q1006",
      "taf": "TAF LRCV 280200Z 2803/2812 VRB04KT 0800 FG BKN002"
    },
    {
      "icao": "LRIA",
      "alert": "OK",
      "vis_m": 200,
      "fzfg": true,
      "metar_trigger": false,
      "taf_trigger": false,
      "metar": "METAR LRIA 280400Z 10005KT 0200 R14/0650N FZFG VV001 M00/M01 Q1004",
      "taf": "TAF LRIA 280200Z 2803/2812 10006KT 0150 FZFG VV001"
    },
    {
      "icao": "LROP",
      "alert": "OK",
      "vis_m": 2000,
      "fzfg": false,
      "metar_trigger": false,
      "taf_trigger": false,
      "metar": "METAR LROP 280400Z 21007KT 2000 BR OVC001 03/03 Q1006 NOSIG",
      "taf": "TAF LROP 272300Z 2800/2824 VRB04KT 0600 FG OVC001"
    },
    {
      "icao": "LRSB",
      "alert": "OK",
      "vis_m": 600,
      "fzfg": false,
      "metar_trigger": false,
      "taf_trigger": false,
      "metar": "METAR LRSB 280400Z COR 16002KT 0600 R27/0800D FG BKN002 OVC004 03/03 Q1003",
      "taf": "TAF LRSB 272300Z 2800/2824 VRB04KT 3000 BR BKN005"
    },
    {
      "icao": "LRSM",
      "alert": "OK",
      "vis_m": 400,
      "fzfg": true,
      "metar_trigger": false,
      "taf_trigger": false,
      "metar": "METAR LRSM 280400Z AUTO 11002KT 0400 R19/0500N FZFG VV001 M00/M01 Q1003",
      "taf": "TAF LRSM 280200Z 2803/2812 VRB04KT 0300 FG VV001"
    },
    {
      "icao": "LRSV",
      "alert": "OK",
      "vis_m": 3000,
      "fzfg": false,
      "metar_trigger": false,
      "taf_trigger": false,
      "metar": "METAR LRSV 280400Z 24003KT 3000 BR NSC 00/00 Q1002",
      "taf": ""
    },
    {
      "icao": "LRTM",
      "alert": "OK",
      "vis_m": 400,
      "fzfg": false,
      "metar_trigger": false,
      "taf_trigger": false,
      "metar": "METAR LRTM 280400Z AUTO VRB02KT 0400 R07/0600N FG VV001 01/01 Q1004",
      "taf": "TAF LRTM 280200Z 2803/2812 VRB04KT 0800 FG BKN002"
    },
    {
      "icao": "LRTR",
      "alert": "OK",
      "vis_m": 400,
      "fzfg": false,
      "metar_trigger": false,
      "taf_trigger": false,
      "metar": "METAR LRTR 280400Z 11011KT 0400 R11/1100U FG VV002 01/01 Q1004",
      "taf": "TAF LRTR 272300Z 2800/2824 11010KT 0300 FG VV001"
    },
    {
      "icao": "LTAC",
      "alert": "OK",
      "vis_m": 9999,
      "fzfg": false,
      "metar_trigger": false,
      "taf_trigger": false,
      "metar": "METAR LTAC 280350Z 33004KT 9999 BKN025 BKN100 03/02 Q1009 RESHRA NOSIG RMK RWY21C 30004KT RWY03L 32003KT 280V340 RWY21R 29004KT RWY03R 32004KT RWY21L 30004KT",
      "taf": ""
    },
    {
      "icao": "LTFM",
      "alert": "OK",
      "vis_m": 9999,
      "fzfg": false,
      "metar_trigger": false,
      "taf_trigger": false,
      "metar": "METAR LTFM 280350Z 01005KT 320V020 9999 SCT006 BKN024 08/07 Q1007 NOSIG RMK RWY17L 02004KT RWY34L 35005KT RWY16R 36003KT RWY36 36006KT RWY18 01003KT",
      "taf": "TAF LTFM 272240Z 2800/2906 22010KT 9999 SCT040 BKN100"
    },
    {
      "icao": "LUKK",
      "alert": "OK",
      "vis_m": 800,
      "fzfg": true,
      "metar_trigger": false,
      "taf_trigger": false,
      "metar": "METAR LUKK 280400Z VRB02KT 0800 0750NE R08/1100N FZFG VV004 M01/M01 Q1005 TEMPO 0400 FZFG",
      "taf": "TAF LUKK 272322Z 2800/2824 15005KT 0400 FZDZ FZFG VV001"
    },
    {
      "icao": "LWOH",
      "alert": "OK",
      "vis_m": null,
      "fzfg": false,
      "metar_trigger": false,
      "taf_trigger": false,
      "metar": "",
      "taf": "TAF LWOH 280230Z 2803/2903 VRB02KT 9999 FEW040"
    },
    {
      "icao": "LWSK",
      "alert": "OK",
      "vis_m": 9999,
      "fzfg": false,
      "metar_trigger": false,
      "taf_trigger": false,
      "metar": "METAR LWSK 280320Z VRB02KT CAVOK M03/M03 Q1009 NOSIG",
      "taf": "TAF LWSK 280230Z 2803/2903 VRB02KT CAVOK"
    },
    {
      "icao": "LYBE",
      "alert": "OK",
      "vis_m": 8000,
      "fzfg": false,
      "metar_trigger": false,
      "taf_trigger": false,
      "metar": "METAR LYBE 280400Z 11005KT 8000 NSC M02/M03 Q1003 NOSIG",
      "taf": "TAF LYBE 272300Z 2800/2824 12007KT CAVOK TX11/2812Z TN01/2803Z"
    },
    {
      "icao": "LYNI",
      "alert": "OK",
      "vis_m": 1000,
      "fzfg": false,
      "metar_trigger": false,
      "taf_trigger": false,
      "metar": "METAR LYNI 280400Z 19003KT 140V230 1000 R29/1000D R11/1200N BR BKN002 00/00 Q1007 NOSIG",
      "taf": "TAF LYNI 272300Z 2800/2824 20004KT 2000 BR BKN003 TX12/2812Z TNM01/2804Z"
    },
    {
      "icao": "LYPG",
      "alert": "OK",
      "vis_m": 9999,
      "fzfg": false,
      "metar_trigger": false,
      "taf_trigger": false,
      "metar": "METAR LYPG 280400Z 31003KT 9999 FEW050 SCT070 05/03 Q1009 NOSIG",
      "taf": "TAF LYPG 272300Z 2800/2824 36005KT 9999 SCT040 BKN080 TX10/2813Z TN04/2805Z"
    },
    {
      "icao": "LZIB",
      "alert": "OK",
      "vis_m": 4400,
      "fzfg": false,
      "metar_trigger": false,
      "taf_trigger": false,
      "metar": "METAR LZIB 280400Z 03005KT 4400 -DZ BR SCT004 BKN009 OVC011 00/00 Q0997 NOSIG",
      "taf": ""
    },
    {
      "icao": "LZKZ",
      "alert": "OK",
      "vis_m": 200,
      "fzfg": false,
      "metar_trigger": false,
      "taf_trigger": false,
      "metar": "METAR LZKZ 280400Z 18006KT 0200 R01/0750N FG VV002 00/00 Q1002 NOSIG",
      "taf": "TAF LZKZ 272315Z 2800/2900 VRB02KT 6000 BKN025"
    },
    {
      "icao": "LZTT",
      "alert": "OK",
      "vis_m": 9999,
      "fzfg": false,
      "metar_trigger": false,
      "taf_trigger": false,
      "metar": "METAR LZTT 280400Z 27011KT 9999 BKN040 02/M02 Q0998",
      "taf": "TAF LZTT 272315Z 2800/2900 25006KT 9999 BKN025"
    },
    {
      "icao": "OEJN",
      "alert": "OK",
      "vis_m": 9999,
      "fzfg": false,
      "metar_trigger": false,
      "taf_trigger": false,
      "metar": "METAR OEJN 280400Z 00000KT CAVOK 23/17 Q1015 NOSIG",
      "taf": "TAF OEJN 272300Z 2800/2906 VRB03KT 7000 NSC"
    },
    {
      "icao": "OEMA",
      "alert": "OK",
      "vis_m": 9999,
      "fzfg": false,
      "metar_trigger": false,
      "taf_trigger": false,
      "metar": "METAR OEMA 280400Z 24010KT CAVOK 22/12 Q1017 NOSIG",
      "taf": "TAF OEMA 272300Z 2800/2906 27010KT 9999 FEW040"
    },
    {
      "icao": "OJAI",
      "alert": "OK",
      "vis_m": 3000,
      "fzfg": false,
      "metar_trigger": false,
      "taf_trigger": false,
      "metar": "METAR OJAI 280400Z 18002KT 3000 BR NSC 05/04 Q1014 NOSIG",
      "taf": "TAF OJAI 272248Z 2800/2906 26012KT 4000 HZ SCT035"
    },
    {
      "icao": "OMAA",
      "alert": "OK",
      "vis_m": 9999,
      "fzfg": false,
      "metar_trigger": false,
      "taf_trigger": false,
      "metar": "METAR OMAA 280400Z 07004KT 040V110 CAVOK 15/09 Q1021 NOSIG",
      "taf": "TAF OMAA 272300Z 2800/2906 03005KT 8000 NSC"
    },
    {
      "icao": "OMDB",
      "alert": "OK",
      "vis_m": 9999,
      "fzfg": false,
      "metar_trigger": false,
      "taf_trigger": false,
      "metar": "METAR OMDB 280400Z 10004KT CAVOK 18/10 Q1021 NOSIG",
      "taf": "TAF OMDB 272300Z 2800/2906 08005KT CAVOK"
    },
    {
      "icao": "UAAA",
      "alert": "OK",
      "vis_m": 9999,
      "fzfg": false,
      "metar_trigger": false,
      "taf_trigger": false,
      "metar": "METAR UAAA 280400Z 23002MPS 9999 SCT050CB BKN100 02/M07 Q1022 NOSIG",
      "taf": "TAF UAAA 272302Z 2800/2824 22003MPS 3100 BR FU SCT030CB BKN100 TX01/2808Z TNM05/2802Z"
    },
    {
      "icao": "UBBB",
      "alert": "OK",
      "vis_m": 9999,
      "fzfg": false,
      "metar_trigger": false,
      "taf_trigger": false,
      "metar": "METAR UBBB 280400Z 16008KT 9999 BKN028 05/03 Q1023 NOSIG",
      "taf": "TAF UBBB 272259Z 2800/2824 14012KT 9999 OVC030 TX09/2808Z TN05/2801Z"
    },
    {
      "icao": "UDSG",
      "alert": "CRITICAL",
      "vis_m": 100,
      "fzfg": true,
      "metar_trigger": true,
      "taf_trigger": false,
      "metar": "METAR UDSG 280400Z 04003KT 0100 R02/0125N FZFG VV001 M15/M17 Q1021 NOSIG",
      "taf": "TAF UDSG 272258Z 2800/2824 VRB06KT 1500 BR BKN020"
    },
    {
      "icao": "UDYZ",
      "alert": "OK",
      "vis_m": 4200,
      "fzfg": false,
      "metar_trigger": false,
      "taf_trigger": false,
      "metar": "METAR UDYZ 280400Z 35002KT 4200 BR BKN007 M05/M06 Q1024 NOSIG",
      "taf": "TAF UDYZ 272300Z 2800/2824 VRB04KT 2300 BR BKN008"
    },
    {
      "icao": "UGKO",
      "alert": "OK",
      "vis_m": 9999,
      "fzfg": false,
      "metar_trigger": false,
      "taf_trigger": false,
      "metar": "METAR UGKO 280400Z 09020G30KT CAVOK 07/M01 Q1014 NOSIG",
      "taf": "TAF UGKO 272300Z 2800/2824 08017KT CAVOK TX15/2812Z TN06/2802Z"
    }
  ]
}