{
  "ts_utc": "2026-01-26T06:51:51Z",
  "threshold_m": 150,
  "source": "stations_override.txt (ICAO list) + aviationweather.gov (METAR/TAF raw)",
  "station_count": 159,
  "stations": [
    {
      "icao": "BIKF",
      "alert": "OK",
      "vis_m": 9999,
      "fzfg": false,
      "metar_trigger": false,
      "taf_trigger": false,
      "metar": "METAR BIKF 260630Z 07015KT CAVOK 02/M03 Q1000",
      "taf": "TAF BIKF 260404Z 2606/2706 08015KT 9999 FEW025 TX05/2615Z TN02/2606Z"
    },
    {
      "icao": "BKPR",
      "alert": "OK",
      "vis_m": 9999,
      "fzfg": false,
      "metar_trigger": false,
      "taf_trigger": false,
      "metar": "METAR BKPR 260630Z 26003KT 230V290 9999 SCT065 06/06 Q0999 NOSIG",
      "taf": "TAF BKPR 260530Z 2606/2706 15008KT 9999 SCT020 BKN070"
    },
    {
      "icao": "EBCI",
      "alert": "OK",
      "vis_m": 2500,
      "fzfg": true,
      "metar_trigger": false,
      "taf_trigger": false,
      "metar": "METAR EBCI 260620Z 34003KT 2500 BR FEW003 BKN030 M01/M02 Q1000 TEMPO 0500 FZFG BKN001",
      "taf": "TAF EBCI 260504Z 2606/2712 33003KT 3500 BR BKN008"
    },
    {
      "icao": "EDDB",
      "alert": "OK",
      "vis_m": 3400,
      "fzfg": false,
      "metar_trigger": false,
      "taf_trigger": false,
      "metar": "METAR EDDB 260620Z AUTO 07009KT 3400 BR OVC003 M00/M01 Q0995 REFZDZ TEMPO -FZDZ",
      "taf": "TAF EDDB 260500Z 2606/2706 08009KT 6000 OVC005"
    },
    {
      "icao": "EDDH",
      "alert": "OK",
      "vis_m": 3300,
      "fzfg": false,
      "metar_trigger": false,
      "taf_trigger": false,
      "metar": "METAR EDDH 260620Z AUTO 04009KT 360V080 3300 SN BR BKN006 01/00 Q0997 TEMPO 2500 -SN OVC004",
      "taf": ""
    },
    {
      "icao": "EDDK",
      "alert": "OK",
      "vis_m": 6000,
      "fzfg": false,
      "metar_trigger": false,
      "taf_trigger": false,
      "metar": "METAR EDDK 260620Z AUTO 33008KT 6000 BKN011 M00/M03 Q0998 TEMPO 4000 BR",
      "taf": "TAF EDDK 260500Z 2606/2712 29005KT 7000 BKN010"
    },
    {
      "icao": "EDDN",
      "alert": "OK",
      "vis_m": 2300,
      "fzfg": false,
      "metar_trigger": false,
      "taf_trigger": false,
      "metar": "METAR EDDN 260620Z AUTO 20004KT 170V230 2300 -SN BR OVC001 M02/M03 Q0995 RESN TEMPO 1000 SN",
      "taf": "TAF EDDN 260500Z 2606/2706 22005KT 2000 -SN BR OVC003"
    },
    {
      "icao": "EDDS",
      "alert": "OK",
      "vis_m": 8000,
      "fzfg": false,
      "metar_trigger": false,
      "taf_trigger": false,
      "metar": "METAR EDDS 260620Z AUTO 26004KT 8000 SCT022 OVC029 01/00 Q0996 NOSIG",
      "taf": "TAF EDDS 260500Z 2606/2706 VRB03KT 4000 -SN BR BKN020"
    },
    {
      "icao": "EDFH",
      "alert": "OK",
      "vis_m": 2500,
      "fzfg": false,
      "metar_trigger": false,
      "taf_trigger": false,
      "metar": "METAR EDFH 260620Z 29005KT 2500 BR BKN001 M02/M02 Q0995",
      "taf": "TAF EDFH 260500Z 2606/2706 26006KT 6000 SCT001 BKN003"
    },
    {
      "icao": "EDJA",
      "alert": "OK",
      "vis_m": 6000,
      "fzfg": false,
      "metar_trigger": false,
      "taf_trigger": false,
      "metar": "METAR EDJA 260620Z 23012KT 6000 -SN FEW004 SCT018 OVC025 01/M00 Q0996",
      "taf": "TAF EDJA 260500Z 2606/2615 23010KT 8000 SCT008 BKN015"
    },
    {
      "icao": "EDLW",
      "alert": "OK",
      "vis_m": 5000,
      "fzfg": false,
      "metar_trigger": false,
      "taf_trigger": false,
      "metar": "METAR EDLW 260620Z 33004KT 280V020 5000 -SN OVC006 M01/M03 Q0997",
      "taf": "TAF EDLW 260500Z 2606/2706 33008KT 6000 OVC006"
    },
    {
      "icao": "EDNY",
      "alert": "OK",
      "vis_m": 6000,
      "fzfg": false,
      "metar_trigger": false,
      "taf_trigger": false,
      "metar": "METAR EDNY 260620Z 26007KT 230V290 6000 BKN014 OVC021 03/02 Q0998",
      "taf": "TAF EDNY 260500Z 2606/2615 VRB01KT 8000 SCT012 BKN035"
    },
    {
      "icao": "EDSB",
      "alert": "OK",
      "vis_m": 2700,
      "fzfg": false,
      "metar_trigger": false,
      "taf_trigger": false,
      "metar": "METAR EDSB 260620Z 20008KT 2700 -RA BR SCT010 OVC012 01/01 Q0999",
      "taf": "TAF EDSB 260500Z 2606/2706 21006KT 4000 -SN BR BKN015"
    },
    {
      "icao": "EETN",
      "alert": "OK",
      "vis_m": 9999,
      "fzfg": false,
      "metar_trigger": false,
      "taf_trigger": false,
      "metar": "METAR EETN 260650Z VRB02KT 9999 -SN OVC013 M09/M11 Q1011 TEMPO OVC009",
      "taf": "TAF EETN 260530Z 2606/2706 17005KT 9999 SCT015 OVC020"
    },
    {
      "icao": "EFTU",
      "alert": "OK",
      "vis_m": 9999,
      "fzfg": false,
      "metar_trigger": false,
      "taf_trigger": false,
      "metar": "METAR EFTU 260620Z AUTO VRB01KT 9999 OVC048 M11/M13 Q1010",
      "taf": "TAF EFTU 260538Z 2606/2706 VRB02KT 9999 BKN048"
    },
    {
      "icao": "EGBB",
      "alert": "OK",
      "vis_m": 2700,
      "fzfg": false,
      "metar_trigger": false,
      "taf_trigger": false,
      "metar": "METAR EGBB 260620Z 08005KT 050V180 2700 BR OVC006 03/02 Q1002",
      "taf": "TAF EGBB 260456Z 2606/2706 07007KT 3000 BR BKN012"
    },
    {
      "icao": "EGGP",
      "alert": "OK",
      "vis_m": 9999,
      "fzfg": false,
      "metar_trigger": false,
      "taf_trigger": false,
      "metar": "METAR EGGP 260620Z 12009KT 9999 OVC018 03/00 Q1001",
      "taf": "TAF EGGP 260505Z 2606/2706 13014KT 9999 SCT015"
    },
    {
      "icao": "EGGW",
      "alert": "OK",
      "vis_m": 800,
      "fzfg": false,
      "metar_trigger": false,
      "taf_trigger": false,
      "metar": "METAR EGGW 260620Z AUTO 05006KT 360V080 0800 R07/1200U FG OVC002 02/02 Q1001",
      "taf": "TAF EGGW 260456Z 2606/2706 06005KT 4000 BR BKN004"
    },
    {
      "icao": "EGKK",
      "alert": "OK",
      "vis_m": 4000,
      "fzfg": false,
      "metar_trigger": false,
      "taf_trigger": false,
      "metar": "METAR EGKK 260620Z 06005KT 4000 BR BKN007 04/04 Q1001",
      "taf": "TAF EGKK 260500Z 2606/2712 06005KT 7000 BKN009"
    },
    {
      "icao": "EGNM",
      "alert": "OK",
      "vis_m": 3000,
      "fzfg": false,
      "metar_trigger": false,
      "taf_trigger": false,
      "metar": "METAR EGNM 260620Z 08006KT 3000 -DZ BR SCT004 BKN011 02/02 Q1001",
      "taf": "TAF EGNM 260505Z 2606/2706 11009KT 3000 BR FEW005 BKN010"
    },
    {
      "icao": "EGPD",
      "alert": "OK",
      "vis_m": 9999,
      "fzfg": false,
      "metar_trigger": false,
      "taf_trigger": false,
      "metar": "METAR EGPD 260620Z COR AUTO 12009KT 9999 FEW018 OVC037 04/00 Q1004 NOSIG",
      "taf": "TAF EGPD 260455Z 2606/2706 11009KT 9999 SCT014 BKN030"
    },
    {
      "icao": "EGPF",
      "alert": "OK",
      "vis_m": 9999,
      "fzfg": false,
      "metar_trigger": false,
      "taf_trigger": false,
      "metar": "METAR EGPF 260620Z AUTO 08012KT 9999 BKN033 OVC040 04/02 Q1001",
      "taf": "TAF EGPF 260502Z 2606/2706 08010KT 9999 SCT025"
    },
    {
      "icao": "EHBK",
      "alert": "OK",
      "vis_m": 2600,
      "fzfg": false,
      "metar_trigger": false,
      "taf_trigger": false,
      "metar": "METAR EHBK 260625Z AUTO 26003KT 230V290 2600 BR BKN001/// BKN002/// OVC008/// M03/M03 Q0999 TEMPO BKN004",
      "taf": "TAF EHBK 260507Z 2606/2712 30003KT 4000 BR BKN004"
    },
    {
      "icao": "EHEH",
      "alert": "OK",
      "vis_m": null,
      "fzfg": false,
      "metar_trigger": false,
      "taf_trigger": false,
      "metar": "",
      "taf": "TAF EHEH 260554Z 2606/2712 33004KT 2500 BR BKN008"
    },
    {
      "icao": "EKBI",
      "alert": "OK",
      "vis_m": 9999,
      "fzfg": false,
      "metar_trigger": false,
      "taf_trigger": false,
      "metar": "METAR EKBI 260620Z AUTO 05013KT 9999 BKN016/// BKN190/// BKN220/// M01/M04 Q1004",
      "taf": "TAF EKBI 260527Z 2606/2706 06012KT 9999 BKN018"
    },
    {
      "icao": "EKCH",
      "alert": "OK",
      "vis_m": 9999,
      "fzfg": false,
      "metar_trigger": false,
      "taf_trigger": false,
      "metar": "METAR EKCH 260620Z 03018KT 9999 OVC014 M02/M05 Q1004 TEMPO BKN015",
      "taf": "TAF EKCH 260527Z 2606/2706 05020KT 9999 OVC015"
    },
    {
      "icao": "ENAL",
      "alert": "OK",
      "vis_m": 9999,
      "fzfg": false,
      "metar_trigger": false,
      "taf_trigger": false,
      "metar": "METAR ENAL 260620Z 17003KT 050V220 CAVOK M04/M08 Q1011",
      "taf": "TAF ENAL 260500Z 2606/2615 10009KT CAVOK"
    },
    {
      "icao": "ENBR",
      "alert": "OK",
      "vis_m": 9999,
      "fzfg": false,
      "metar_trigger": false,
      "taf_trigger": false,
      "metar": "METAR ENBR 260620Z 09002KT CAVOK M07/M10 Q1010 NOSIG RMK WIND 1200FT 04006KT",
      "taf": "TAF ENBR 260500Z 2606/2706 09004KT 9999 BKN030"
    },
    {
      "icao": "ENGM",
      "alert": "OK",
      "vis_m": 9999,
      "fzfg": false,
      "metar_trigger": false,
      "taf_trigger": false,
      "metar": "METAR ENGM 260620Z 03004KT CAVOK M16/M18 Q1012 NOSIG",
      "taf": "TAF ENGM 260500Z 2606/2706 36005KT CAVOK"
    },
    {
      "icao": "ENHD",
      "alert": "OK",
      "vis_m": 9999,
      "fzfg": false,
      "metar_trigger": false,
      "taf_trigger": false,
      "metar": "METAR ENHD 260620Z /////KT CAVOK M05/M11 Q1010 RMK WIND RWY 31 VRB02KT",
      "taf": "TAF ENHD 260500Z 2606/2615 09005KT CAVOK"
    },
    {
      "icao": "ENTC",
      "alert": "OK",
      "vis_m": 9999,
      "fzfg": false,
      "metar_trigger": false,
      "taf_trigger": false,
      "metar": "METAR ENTC 260620Z 03006KT 9999 -SHSN FEW025 SCT033 BKN046 M04/M05 Q1014 TEMPO 1000 SHSN VV008 RMK WIND 2600FT 36015KT",
      "taf": "TAF ENTC 260500Z 2606/2706 02009KT 9999 SCT020 BKN030"
    },
    {
      "icao": "ENTO",
      "alert": "OK",
      "vis_m": 9999,
      "fzfg": false,
      "metar_trigger": false,
      "taf_trigger": false,
      "metar": "METAR ENTO 260620Z 36009KT 9999 BKN033 M08/M11 Q1012 NOSIG",
      "taf": "TAF ENTO 260500Z 2606/2706 01009KT 9999 FEW040"
    },
    {
      "icao": "ENVA",
      "alert": "OK",
      "vis_m": 9999,
      "fzfg": false,
      "metar_trigger": false,
      "taf_trigger": false,
      "metar": "METAR ENVA 260620Z 11010KT 9999 SCT024 M13/M15 Q1015 NOSIG RMK WIND 670FT 16006KT",
      "taf": "TAF ENVA 260500Z 2606/2706 10008KT 9999 BKN040"
    },
    {
      "icao": "ENZV",
      "alert": "OK",
      "vis_m": 9999,
      "fzfg": false,
      "metar_trigger": false,
      "taf_trigger": false,
      "metar": "METAR ENZV 260620Z 06003KT 9999 SCT047 M04/M10 Q1010 NOSIG",
      "taf": "TAF ENZV 260500Z 2606/2706 07007KT 9999 BKN040"
    },
    {
      "icao": "EPGD",
      "alert": "OK",
      "vis_m": 5000,
      "fzfg": false,
      "metar_trigger": false,
      "taf_trigger": false,
      "metar": "METAR EPGD 260630Z 09006KT 5000 BR SCT005 OVC009 M04/M05 Q1002",
      "taf": "TAF EPGD 260530Z 2606/2706 09010KT 4000 BR OVC005"
    },
    {
      "icao": "EPKK",
      "alert": "OK",
      "vis_m": 9999,
      "fzfg": false,
      "metar_trigger": false,
      "taf_trigger": false,
      "metar": "METAR EPKK 260630Z 07008KT 9999 BKN056 01/M00 Q0997",
      "taf": "TAF EPKK 260530Z 2606/2706 06010KT CAVOK"
    },
    {
      "icao": "EPKT",
      "alert": "OK",
      "vis_m": 4400,
      "fzfg": false,
      "metar_trigger": false,
      "taf_trigger": false,
      "metar": "METAR EPKT 260630Z 09005KT 4400 -RA BR SCT030 BKN040 02/01 Q0997",
      "taf": "TAF EPKT 260530Z 2606/2706 15006KT 9999 BKN030"
    },
    {
      "icao": "EPLB",
      "alert": "OK",
      "vis_m": 9999,
      "fzfg": false,
      "metar_trigger": false,
      "taf_trigger": false,
      "metar": "METAR EPLB 260630Z 11012KT 9999 -FZRA OVC006 M01/M02 Q1002",
      "taf": "TAF EPLB 260530Z 2606/2706 12012KT 9999 OVC010"
    },
    {
      "icao": "EPMO",
      "alert": "OK",
      "vis_m": 5000,
      "fzfg": false,
      "metar_trigger": false,
      "taf_trigger": false,
      "metar": "METAR EPMO 260630Z 09012KT 5000 -FZRA BR OVC009 M03/M04 Q1001",
      "taf": "TAF EPMO 260530Z 2606/2706 09012KT 7000 OVC010"
    },
    {
      "icao": "EPPO",
      "alert": "OK",
      "vis_m": 4000,
      "fzfg": false,
      "metar_trigger": false,
      "taf_trigger": false,
      "metar": "METAR EPPO 260630Z 09009KT 4000 BR OVC005 M01/M02 Q0997",
      "taf": "TAF EPPO 260530Z 2606/2706 09010KT 3500 BR OVC006"
    },
    {
      "icao": "EPRA",
      "alert": "OK",
      "vis_m": 9999,
      "fzfg": false,
      "metar_trigger": false,
      "taf_trigger": false,
      "metar": "METAR EPRA 260630Z 11009KT 9999 BKN007 OVC038 M01/M03 Q1000",
      "taf": "TAF EPRA 260530Z 2606/2615 12010KT 9999 OVC007"
    },
    {
      "icao": "EPRZ",
      "alert": "OK",
      "vis_m": 9999,
      "fzfg": false,
      "metar_trigger": false,
      "taf_trigger": false,
      "metar": "METAR EPRZ 260630Z 09013KT 9999 FEW007 OVC047 00/M01 Q1001",
      "taf": "TAF EPRZ 260530Z 2606/2706 08015KT 9999 BKN006"
    },
    {
      "icao": "EPSC",
      "alert": "OK",
      "vis_m": 3300,
      "fzfg": false,
      "metar_trigger": false,
      "taf_trigger": false,
      "metar": "METAR EPSC 260630Z 05007KT 010V100 3300 -FZRA BR OVC005 M01/M02 Q0998",
      "taf": "TAF EPSC 260530Z 2606/2706 09010KT 4000 -FZRA BR OVC005"
    },
    {
      "icao": "EPSY",
      "alert": "OK",
      "vis_m": 6000,
      "fzfg": false,
      "metar_trigger": false,
      "taf_trigger": false,
      "metar": "METAR EPSY 260630Z 09006KT 050V140 6000 -FZRA OVC007 M05/M06 Q1003",
      "taf": "TAF EPSY 260530Z 2606/2615 12006KT 7000 BKN008"
    },
    {
      "icao": "EPWA",
      "alert": "OK",
      "vis_m": 7000,
      "fzfg": false,
      "metar_trigger": false,
      "taf_trigger": false,
      "metar": "METAR EPWA 260630Z 09012KT 7000 -FZRA BKN007 M03/M04 Q1001 TEMPO FZRA",
      "taf": "TAF EPWA 260530Z 2606/2706 10012KT 8000 OVC010"
    },
    {
      "icao": "EPWR",
      "alert": "OK",
      "vis_m": 3500,
      "fzfg": false,
      "metar_trigger": false,
      "taf_trigger": false,
      "metar": "METAR EPWR 260630Z 12008KT 3500 BR BKN031 02/02 Q0995",
      "taf": "TAF EPWR 260530Z 2606/2706 13009KT 5000 BR BKN020"
    },
    {
      "icao": "ESGG",
      "alert": "OK",
      "vis_m": 9999,
      "fzfg": false,
      "metar_trigger": false,
      "taf_trigger": false,
      "metar": "METAR ESGG 260620Z 04009KT 9999 BKN021 M05/M10 Q1008",
      "taf": "TAF ESGG 260530Z 2606/2706 03010KT 9999 BKN025"
    },
    {
      "icao": "ESKN",
      "alert": "OK",
      "vis_m": 9999,
      "fzfg": false,
      "metar_trigger": false,
      "taf_trigger": false,
      "metar": "METAR ESKN 260620Z 35006KT 310V020 9999 -SN BKN011 M05/M07 Q1010",
      "taf": "TAF ESKN 260530Z 2606/2706 34007KT 9999 -SN FEW008 BKN030"
    },
    {
      "icao": "ESMS",
      "alert": "OK",
      "vis_m": 9999,
      "fzfg": false,
      "metar_trigger": false,
      "taf_trigger": false,
      "metar": "METAR ESMS 260620Z 05013KT 9999 OVC007 M01/M02 Q1003",
      "taf": "TAF ESMS 260527Z 2606/2706 06012KT 9999 BKN006"
    },
    {
      "icao": "ESSA",
      "alert": "OK",
      "vis_m": 9999,
      "fzfg": false,
      "metar_trigger": false,
      "taf_trigger": false,
      "metar": "METAR ESSA 260620Z COR 01010KT 9999 -SN OVC019 M05/M07 Q1010 NOSIG",
      "taf": "TAF ESSA 260530Z 2606/2706 01008KT 9999 -SN OVC020"
    },
    {
      "icao": "EYKA",
      "alert": "OK",
      "vis_m": 9999,
      "fzfg": false,
      "metar_trigger": false,
      "taf_trigger": false,
      "metar": "METAR EYKA 260650Z 11007KT 9999 BKN013 M09/M11 Q1008",
      "taf": "TAF EYKA 260515Z 2606/2706 10008KT 9000 OVC015"
    },
    {
      "icao": "EYPA",
      "alert": "OK",
      "vis_m": 8000,
      "fzfg": false,
      "metar_trigger": false,
      "taf_trigger": false,
      "metar": "METAR EYPA 260650Z 08006KT 8000 OVC008 M07/M09 Q1007",
      "taf": "TAF EYPA 260515Z 2606/2706 VRB04KT 9000 BKN020"
    },
    {
      "icao": "EYVI",
      "alert": "OK",
      "vis_m": 9999,
      "fzfg": false,
      "metar_trigger": false,
      "taf_trigger": false,
      "metar": "METAR EYVI 260650Z 13008KT 9999 OVC008 M10/M12 Q1009 NOSIG",
      "taf": "TAF EYVI 260512Z 2606/2706 14010KT 8000 OVC005"
    },
    {
      "icao": "GCFV",
      "alert": "OK",
      "vis_m": 9999,
      "fzfg": false,
      "metar_trigger": false,
      "taf_trigger": false,
      "metar": "METAR GCFV 260630Z 28007KT 9999 FEW035 12/09 Q1025",
      "taf": "TAF GCFV 260200Z 2603/2703 30005KT 9999 FEW035 TX20/2614Z TN14/2606Z"
    },
    {
      "icao": "GCLP",
      "alert": "OK",
      "vis_m": 9999,
      "fzfg": false,
      "metar_trigger": false,
      "taf_trigger": false,
      "metar": "METAR GCLP 260630Z 30006KT 9999 FEW040 15/09 Q1025 NOSIG",
      "taf": "TAF GCLP 260200Z 2603/2703 31006KT 9999 FEW030 TX20/2614Z TN13/2606Z"
    },
    {
      "icao": "GCTS",
      "alert": "OK",
      "vis_m": 9999,
      "fzfg": false,
      "metar_trigger": false,
      "taf_trigger": false,
      "metar": "METAR GCTS 260630Z 36008KT 9999 FEW035 14/08 Q1025 NOSIG",
      "taf": "TAF GCTS 260200Z 2603/2703 01006KT 9999 SCT035 TX22/2614Z TN14/2606Z"
    },
    {
      "icao": "GMAD",
      "alert": "OK",
      "vis_m": 9999,
      "fzfg": false,
      "metar_trigger": false,
      "taf_trigger": false,
      "metar": "METAR GMAD 260630Z 06005KT CAVOK 07/07 Q1024 NOSIG",
      "taf": "TAF GMAD 260500Z 2606/2712 06005KT CAVOK"
    },
    {
      "icao": "GMMN",
      "alert": "OK",
      "vis_m": 9999,
      "fzfg": false,
      "metar_trigger": false,
      "taf_trigger": false,
      "metar": "METAR GMMN 260630Z 19009KT 9999 BKN020 SCT080 11/08 Q1023 NOSIG",
      "taf": "TAF GMMN 260500Z 2606/2712 20012KT 9999 SCT020"
    },
    {
      "icao": "GMMX",
      "alert": "OK",
      "vis_m": 8000,
      "fzfg": false,
      "metar_trigger": false,
      "taf_trigger": false,
      "metar": "METAR GMMX 260630Z 09004KT 8000 NSC 05/04 Q1023 NOSIG",
      "taf": "TAF GMMX 260500Z 2606/2712 14006KT 8000 NSC"
    },
    {
      "icao": "HEGN",
      "alert": "OK",
      "vis_m": 9999,
      "fzfg": false,
      "metar_trigger": false,
      "taf_trigger": false,
      "metar": "METAR HEGN 260600Z 00000KT CAVOK 16/M00 Q1016 NOSIG",
      "taf": "TAF HEGN 260500Z 2606/2712 11012KT CAVOK"
    },
    {
      "icao": "HEMA",
      "alert": "OK",
      "vis_m": 9999,
      "fzfg": false,
      "metar_trigger": false,
      "taf_trigger": false,
      "metar": "METAR HEMA 260600Z 26007KT CAVOK 20/09 Q1016 NOSIG",
      "taf": "TAF HEMA 260500Z 2606/2712 13012KT CAVOK"
    },
    {
      "icao": "HESH",
      "alert": "OK",
      "vis_m": 9999,
      "fzfg": false,
      "metar_trigger": false,
      "taf_trigger": false,
      "metar": "METAR HESH 260600Z 34005KT CAVOK 20/06 Q1014 NOSIG",
      "taf": "TAF HESH 260500Z 2606/2712 18012KT CAVOK"
    },
    {
      "icao": "HESX",
      "alert": "OK",
      "vis_m": 9999,
      "fzfg": false,
      "metar_trigger": false,
      "taf_trigger": false,
      "metar": "METAR HESX 260600Z 16004KT CAVOK 14/00 Q1014 NOSIG",
      "taf": "TAF HESX 260500Z 2606/2712 13007KT CAVOK"
    },
    {
      "icao": "LATI",
      "alert": "OK",
      "vis_m": 9999,
      "fzfg": false,
      "metar_trigger": false,
      "taf_trigger": false,
      "metar": "METAR LATI 260650Z VRB01KT 9999 -RA FEW003 SCT040 OVC055 09/07 Q1000 NOSIG",
      "taf": "TAF LATI 260500Z 2606/2706 VRB05KT 9999 RA SCT030 OVC060 TX11/2612Z TN06/2705Z"
    },
    {
      "icao": "LBPD",
      "alert": "OK",
      "vis_m": 400,
      "fzfg": false,
      "metar_trigger": false,
      "taf_trigger": false,
      "metar": "METAR LBPD 260630Z AUTO 29005KT 0400 R30/0500N -RA FG VV002 03/03 Q1004 TEMPO 0400 FG",
      "taf": "TAF LBPD 260500Z 2606/2706 VRB03KT 0600 FG VV002"
    },
    {
      "icao": "LBSF",
      "alert": "OK",
      "vis_m": 6000,
      "fzfg": false,
      "metar_trigger": false,
      "taf_trigger": false,
      "metar": "METAR LBSF 260630Z VRB03KT 6000 2200W -RA BR SCT016 BKN052 OVC063 03/03 Q1003 NOSIG",
      "taf": "TAF LBSF 260500Z 2606/2706 VRB03KT 9999 SCT015 BKN020"
    },
    {
      "icao": "LBWN",
      "alert": "OK",
      "vis_m": 9000,
      "fzfg": false,
      "metar_trigger": false,
      "taf_trigger": false,
      "metar": "METAR LBWN 260630Z 11004KT 9000 SCT030 BKN045 09/09 Q1009 NOSIG",
      "taf": "TAF LBWN 260500Z 2606/2706 10010KT 4000 BR SCT010 OVC025"
    },
    {
      "icao": "LCLK",
      "alert": "OK",
      "vis_m": 9999,
      "fzfg": false,
      "metar_trigger": false,
      "taf_trigger": false,
      "metar": "METAR LCLK 260630Z 03010KT 9999 FEW030 SCT050 16/13 Q1017 NOSIG",
      "taf": "TAF LCLK 260530Z 2606/2706 02009KT 9999 SCT025"
    },
    {
      "icao": "LCPH",
      "alert": "OK",
      "vis_m": 9999,
      "fzfg": false,
      "metar_trigger": false,
      "taf_trigger": false,
      "metar": "METAR LCPH 260630Z 10008KT 9999 FEW025 15/11 Q1016 NOSIG",
      "taf": "TAF LCPH 260530Z 2606/2706 07009KT 9999 FEW025"
    },
    {
      "icao": "LEAL",
      "alert": "OK",
      "vis_m": 9999,
      "fzfg": false,
      "metar_trigger": false,
      "taf_trigger": false,
      "metar": "METAR LEAL 260630Z 25008KT 220V280 9999 FEW020 15/04 Q1010 NOSIG",
      "taf": "TAF LEAL 260500Z 2606/2706 25005KT 9999 FEW040 TX20/2613Z TN11/2606Z"
    },
    {
      "icao": "LEBB",
      "alert": "OK",
      "vis_m": 9999,
      "fzfg": false,
      "metar_trigger": false,
      "taf_trigger": false,
      "metar": "METAR LEBB 260630Z 20007KT 140V260 9999 FEW055 SCT070 10/03 Q1008 NOSIG",
      "taf": "TAF LEBB 260500Z 2606/2706 21009KT 9999 FEW020 BKN035 TX16/2622Z TN08/2606Z"
    },
    {
      "icao": "LEBL",
      "alert": "OK",
      "vis_m": 9999,
      "fzfg": false,
      "metar_trigger": false,
      "taf_trigger": false,
      "metar": "METAR LEBL 260630Z 33015KT 9999 FEW040 09/04 Q1004 NOSIG",
      "taf": "TAF LEBL 260500Z 2606/2706 31012KT 9999 FEW050 TX16/2612Z TN09/2606Z"
    },
    {
      "icao": "LECH",
      "alert": "OK",
      "vis_m": 9000,
      "fzfg": false,
      "metar_trigger": false,
      "taf_trigger": false,
      "metar": "METAR LECH 260630Z AUTO 34004KT 260V030 9000 NCD 09/M03 Q1007",
      "taf": ""
    },
    {
      "icao": "LEMD",
      "alert": "OK",
      "vis_m": 9999,
      "fzfg": false,
      "metar_trigger": false,
      "taf_trigger": false,
      "metar": "METAR LEMD 260630Z 23010KT 9999 FEW080 06/04 Q1011 NOSIG",
      "taf": "TAF LEMD 260500Z 2606/2712 23010KT CAVOK TX11/2616Z TN03/2606Z"
    },
    {
      "icao": "LEMG",
      "alert": "OK",
      "vis_m": 9999,
      "fzfg": false,
      "metar_trigger": false,
      "taf_trigger": false,
      "metar": "METAR LEMG 260630Z 29007KT 9999 FEW043 10/10 Q1015 NOSIG",
      "taf": "TAF LEMG 260500Z 2606/2706 30010KT 9999 SCT045 TX20/2614Z TN09/2607Z"
    },
    {
      "icao": "LEVC",
      "alert": "OK",
      "vis_m": 9999,
      "fzfg": false,
      "metar_trigger": false,
      "taf_trigger": false,
      "metar": "METAR LEVC 260630Z 28008KT CAVOK 11/02 Q1008 NOSIG",
      "taf": "TAF LEVC 260500Z 2606/2706 27007KT 9999 SCT050 TX19/2613Z TN11/2606Z"
    },
    {
      "icao": "LEXJ",
      "alert": "OK",
      "vis_m": 9999,
      "fzfg": false,
      "metar_trigger": false,
      "taf_trigger": false,
      "metar": "METAR LEXJ 260630Z 25001KT CAVOK 08/04 Q1007",
      "taf": "TAF LEXJ 260200Z 2603/2703 20012KT 9999 SCT020 BKN040 TX16/2621Z TN08/2604Z"
    },
    {
      "icao": "LEZG",
      "alert": "OK",
      "vis_m": 9999,
      "fzfg": false,
      "metar_trigger": false,
      "taf_trigger": false,
      "metar": "METAR LEZG 260630Z 28008KT 9999 FEW060 SCT080 07/03 Q1009 NOSIG",
      "taf": "TAF LEZG 260500Z 2606/2706 29010KT 9999 FEW030 TX12/2613Z TN06/2607Z"
    },
    {
      "icao": "LEZL",
      "alert": "OK",
      "vis_m": 9999,
      "fzfg": false,
      "metar_trigger": false,
      "taf_trigger": false,
      "metar": "METAR LEZL 260630Z 24007KT 9999 OVC012 15/15 Q1015 BECMG SCT015",
      "taf": ""
    },
    {
      "icao": "LFBD",
      "alert": "OK",
      "vis_m": 9999,
      "fzfg": false,
      "metar_trigger": false,
      "taf_trigger": false,
      "metar": "METAR LFBD 260630Z AUTO 19003KT 9999 FEW037 BKN049 OVC240 05/05 Q1005 TEMPO BKN012 BKN025TCU",
      "taf": "TAF LFBD 260500Z 2606/2712 21005KT 9999 BKN030 TX12/2614Z TN04/2606Z"
    },
    {
      "icao": "LFLL",
      "alert": "OK",
      "vis_m": 6000,
      "fzfg": false,
      "metar_trigger": false,
      "taf_trigger": false,
      "metar": "METAR LFLL 260630Z 23003KT 6000 -RA BKN026 BKN040 03/03 Q1003 NOSIG",
      "taf": "TAF LFLL 260500Z 2606/2712 VRB03KT 9999 BKN043"
    },
    {
      "icao": "LFLS",
      "alert": "OK",
      "vis_m": 9999,
      "fzfg": false,
      "metar_trigger": false,
      "taf_trigger": false,
      "metar": "METAR LFLS 260630Z AUTO VRB02KT 9999 BKN062 BKN072 BKN090 00/00 Q1003 TEMPO 3000 BR BKN008",
      "taf": "TAF LFLS 260200Z 2603/2703 09005KT 9999 BKN018"
    },
    {
      "icao": "LFMN",
      "alert": "OK",
      "vis_m": 9999,
      "fzfg": false,
      "metar_trigger": false,
      "taf_trigger": false,
      "metar": "METAR LFMN 260630Z 34008KT 9999 SCT033 SCT200 06/01 Q0998 NOSIG",
      "taf": "TAF LFMN 260200Z 2603/2709 33010KT 9999 FEW025"
    },
    {
      "icao": "LFOB",
      "alert": "OK",
      "vis_m": 1300,
      "fzfg": false,
      "metar_trigger": false,
      "taf_trigger": false,
      "metar": "METAR LFOB 260630Z AUTO 32004KT 1300 1200 R30/1600D R12/1700D BR VV/// 04/04 Q1001 NOSIG",
      "taf": "TAF LFOB 260500Z 2606/2706 VRB03KT 4000 BR OVC003"
    },
    {
      "icao": "LFPO",
      "alert": "OK",
      "vis_m": 8000,
      "fzfg": false,
      "metar_trigger": false,
      "taf_trigger": false,
      "metar": "METAR LFPO 260630Z 32006KT 290V350 8000 BKN007 05/04 Q1001 NOSIG",
      "taf": "TAF LFPO 260500Z 2606/2712 22005KT 9999 BKN006"
    },
    {
      "icao": "LFSB",
      "alert": "OK",
      "vis_m": 9999,
      "fzfg": false,
      "metar_trigger": false,
      "taf_trigger": false,
      "metar": "METAR LFSB 260630Z AUTO 24008KT 9999 SCT018 BKN052 BKN066 04/02 Q1000 TEMPO 4000 -RADZ BR BKN014",
      "taf": "TAF LFSB 260500Z 2606/2706 25010KT 8000 FEW014 BKN025"
    },
    {
      "icao": "LGAV",
      "alert": "OK",
      "vis_m": 9999,
      "fzfg": false,
      "metar_trigger": false,
      "taf_trigger": false,
      "metar": "METAR LGAV 260620Z 15018KT 9999 SCT025 16/11 Q1003 NOSIG",
      "taf": "TAF LGAV 260500Z 2606/2706 16016KT 9999 SCT020 BKN070"
    },
    {
      "icao": "LGTS",
      "alert": "OK",
      "vis_m": 9999,
      "fzfg": false,
      "metar_trigger": false,
      "taf_trigger": false,
      "metar": "METAR LGTS 260620Z 12011KT 9999 FEW012 FEW018TCU BKN025 16/13 Q1001 TEMPO 5000 RA",
      "taf": "TAF LGTS 260500Z 2606/2706 14005KT 9999 FEW008 BKN025"
    },
    {
      "icao": "LHBP",
      "alert": "OK",
      "vis_m": 9000,
      "fzfg": false,
      "metar_trigger": false,
      "taf_trigger": false,
      "metar": "METAR LHBP 260630Z 09005KT 9000 BKN011 BKN090 04/03 Q0999 TEMPO 6000 RA BKN009",
      "taf": "TAF LHBP 260515Z 2606/2706 09008KT 9999 FEW020 BKN040"
    },
    {
      "icao": "LHDC",
      "alert": "OK",
      "vis_m": 9999,
      "fzfg": false,
      "metar_trigger": false,
      "taf_trigger": false,
      "metar": "METAR LHDC 260615Z AUTO VRB02KT CAVOK 05/02 Q1000 NOSIG",
      "taf": "TAF LHDC 260515Z 2606/2615 06005KT CAVOK"
    },
    {
      "icao": "LIBD",
      "alert": "OK",
      "vis_m": 9999,
      "fzfg": false,
      "metar_trigger": false,
      "taf_trigger": false,
      "metar": "METAR LIBD 260620Z 21008KT CAVOK 06/04 Q0998",
      "taf": "TAF LIBD 260500Z 2606/2706 19010KT CAVOK"
    },
    {
      "icao": "LIBG",
      "alert": "OK",
      "vis_m": null,
      "fzfg": false,
      "metar_trigger": false,
      "taf_trigger": false,
      "metar": "",
      "taf": ""
    },
    {
      "icao": "LIBP",
      "alert": "OK",
      "vis_m": 9999,
      "fzfg": false,
      "metar_trigger": false,
      "taf_trigger": false,
      "metar": "METAR LIBP 260620Z AUTO 22003KT 9999 NCD 04/04 Q0998",
      "taf": "TAF LIBP 260500Z 2606/2706 VRB05KT CAVOK"
    },
    {
      "icao": "LIBR",
      "alert": "OK",
      "vis_m": 9999,
      "fzfg": false,
      "metar_trigger": false,
      "taf_trigger": false,
      "metar": "METAR LIBR 260620Z 18005KT 9999 FEW035 09/08 Q0999",
      "taf": "TAF LIBR 260500Z 2606/2706 VRB06KT 8000 NSC"
    },
    {
      "icao": "LICA",
      "alert": "OK",
      "vis_m": 9999,
      "fzfg": false,
      "metar_trigger": false,
      "taf_trigger": false,
      "metar": "METAR LICA 260620Z AUTO 19006KT 160V230 9999 VCTS BKN021/// 10/08 Q1001",
      "taf": "TAF LICA 260500Z 2606/2706 26013KT 9999 BKN050"
    },
    {
      "icao": "LICC",
      "alert": "OK",
      "vis_m": 9999,
      "fzfg": false,
      "metar_trigger": false,
      "taf_trigger": false,
      "metar": "METAR LICC 260620Z 26008KT 9999 SCT045 08/06 Q1002",
      "taf": "TAF LICC 260500Z 2606/2706 26010KT 9999 SCT030"
    },
    {
      "icao": "LICJ",
      "alert": "OK",
      "vis_m": 9999,
      "fzfg": false,
      "metar_trigger": false,
      "taf_trigger": false,
      "metar": "METAR LICJ 260620Z 19014KT 9999 -RA BKN030 12/08 Q1000",
      "taf": "TAF LICJ 260500Z 2606/2706 20015KT 9999 BKN025"
    },
    {
      "icao": "LIMC",
      "alert": "OK",
      "vis_m": 9999,
      "fzfg": false,
      "metar_trigger": false,
      "taf_trigger": false,
      "metar": "METAR LIMC 260620Z 03003KT 9999 BKN030 03/03 Q0999 NOSIG",
      "taf": "TAF LIMC 260500Z 2606/2712 VRB04KT 4000 BR SCT015"
    },
    {
      "icao": "LIME",
      "alert": "OK",
      "vis_m": 9999,
      "fzfg": false,
      "metar_trigger": false,
      "taf_trigger": false,
      "metar": "METAR LIME 260620Z VRB01KT 9999 SCT045 02/02 Q0999 NOSIG",
      "taf": "TAF LIME 260500Z 2606/2706 VRB05KT 7000 FEW020"
    },
    {
      "icao": "LIMF",
      "alert": "OK",
      "vis_m": 2000,
      "fzfg": false,
      "metar_trigger": false,
      "taf_trigger": false,
      "metar": "METAR LIMF 260620Z VRB02KT 2000 0400N PRFG NSC 03/02 Q0999",
      "taf": "TAF LIMF 260500Z 2606/2706 VRB04KT 4000 BR SCT040"
    },
    {
      "icao": "LIMJ",
      "alert": "OK",
      "vis_m": 9999,
      "fzfg": false,
      "metar_trigger": false,
      "taf_trigger": false,
      "metar": "METAR LIMJ 260620Z 04010KT 9999 SCT050 07/02 Q0999",
      "taf": "TAF LIMJ 260500Z 2606/2706 03010KT 9999 BKN040"
    },
    {
      "icao": "LIPE",
      "alert": "OK",
      "vis_m": 7000,
      "fzfg": false,
      "metar_trigger": false,
      "taf_trigger": false,
      "metar": "METAR LIPE 260620Z 21003KT 7000 BKN015 05/04 Q0999",
      "taf": "TAF LIPE 260500Z 2606/2706 VRB04KT 6000 SCT015"
    },
    {
      "icao": "LIPH",
      "alert": "OK",
      "vis_m": 4000,
      "fzfg": false,
      "metar_trigger": false,
      "taf_trigger": false,
      "metar": "METAR LIPH 260620Z 30002KT 4000 BR BKN004 06/06 Q0999",
      "taf": "TAF LIPH 260500Z 2606/2706 VRB04KT 3000 BR BKN006"
    },
    {
      "icao": "LIPQ",
      "alert": "OK",
      "vis_m": 9999,
      "fzfg": false,
      "metar_trigger": false,
      "taf_trigger": false,
      "metar": "METAR LIPQ 260620Z AUTO 03004KT 9999 OVC027/// 06/05 Q0999",
      "taf": "TAF LIPQ 260500Z 2606/2706 VRB04KT 8000 SCT020"
    },
    {
      "icao": "LIPR",
      "alert": "OK",
      "vis_m": 6000,
      "fzfg": false,
      "metar_trigger": false,
      "taf_trigger": false,
      "metar": "METAR LIPR 260620Z 28006KT 6000 BKN008 06/05 Q0999",
      "taf": "TAF LIPR 260500Z 2606/2706 28006KT 6000 FEW025"
    },
    {
      "icao": "LIPX",
      "alert": "OK",
      "vis_m": 4000,
      "fzfg": false,
      "metar_trigger": false,
      "taf_trigger": false,
      "metar": "METAR LIPX 260620Z 36003KT 260V020 4000 BR BKN008 04/04 Q0999",
      "taf": "TAF LIPX 260500Z 2606/2706 VRB05KT 2000 BR SCT020"
    },
    {
      "icao": "LIPY",
      "alert": "OK",
      "vis_m": 2200,
      "fzfg": false,
      "metar_trigger": false,
      "taf_trigger": false,
      "metar": "METAR LIPY 260620Z AUTO 20004KT 170V230 2200 BR FEW002/// 04/04 Q0999",
      "taf": "TAF LIPY 260500Z 2606/2706 34010KT 4000 BR BKN002"
    },
    {
      "icao": "LIPZ",
      "alert": "OK",
      "vis_m": 2000,
      "fzfg": false,
      "metar_trigger": false,
      "taf_trigger": false,
      "metar": "METAR LIPZ 260620Z 32003KT 2000 BR BKN004 05/05 Q0999 NOSIG",
      "taf": "TAF LIPZ 260500Z 2606/2712 VRB04KT 2000 BR BKN002"
    },
    {
      "icao": "LIRF",
      "alert": "OK",
      "vis_m": 9999,
      "fzfg": false,
      "metar_trigger": false,
      "taf_trigger": false,
      "metar": "METAR LIRF 260620Z 34003KT 260V060 9999 RA SCT025 SCT035 06/06 Q0998 NOSIG",
      "taf": "TAF LIRF 260500Z 2606/2712 07007KT 9999 SCT030"
    },
    {
      "icao": "LIRN",
      "alert": "OK",
      "vis_m": 9999,
      "fzfg": false,
      "metar_trigger": false,
      "taf_trigger": false,
      "metar": "METAR LIRN 260620Z VRB02KT 9999 SCT050 08/07 Q0999 NOSIG",
      "taf": "TAF LIRN 260500Z 2606/2706 VRB05KT 9999 BKN040"
    },
    {
      "icao": "LIRP",
      "alert": "OK",
      "vis_m": 9999,
      "fzfg": false,
      "metar_trigger": false,
      "taf_trigger": false,
      "metar": "METAR LIRP 260615Z 13003KT 9999 SCT030 BKN040 07/07 Q0998 NOSIG",
      "taf": "TAF LIRP 260500Z 2606/2706 11005KT 9999 -RA SCT025 BKN035"
    },
    {
      "icao": "LIRZ",
      "alert": "OK",
      "vis_m": 9999,
      "fzfg": false,
      "metar_trigger": false,
      "taf_trigger": false,
      "metar": "METAR LIRZ 260620Z AUTO 34004KT 9999 BKN015/// 05/05 Q0998",
      "taf": "TAF LIRZ 260500Z 2606/2706 VRB05KT 9999 BKN030"
    },
    {
      "icao": "LJLJ",
      "alert": "OK",
      "vis_m": 1200,
      "fzfg": false,
      "metar_trigger": false,
      "taf_trigger": false,
      "metar": "METAR LJLJ 260630Z VRB02KT 1200 0700SE R30/1700D BCFG BR BKN002 01/00 Q0998 NOSIG",
      "taf": "TAF LJLJ 260500Z 2606/2706 VRB02KT 0500 FG VV002"
    },
    {
      "icao": "LKMT",
      "alert": "OK",
      "vis_m": 3500,
      "fzfg": false,
      "metar_trigger": false,
      "taf_trigger": false,
      "metar": "METAR LKMT 260630Z 24005KT 3500 BR OVC013 03/03 Q0997 NOSIG",
      "taf": "TAF LKMT 260500Z 2606/2706 24008KT 9999 BKN025"
    },
    {
      "icao": "LKPR",
      "alert": "OK",
      "vis_m": 9999,
      "fzfg": false,
      "metar_trigger": false,
      "taf_trigger": false,
      "metar": "METAR LKPR 260630Z 20005KT 9999 FEW022 BKN033 M00/M02 Q0995 NOSIG",
      "taf": "TAF LKPR 260500Z 2606/2712 20010KT 9999 BKN017 OVC030"
    },
    {
      "icao": "LLBG",
      "alert": "OK",
      "vis_m": 9999,
      "fzfg": false,
      "metar_trigger": false,
      "taf_trigger": false,
      "metar": "METAR LLBG 260650Z 13005KT CAVOK 18/02 Q1016 NOSIG",
      "taf": "TAF LLBG 260502Z 2606/2706 VRB04KT CAVOK"
    },
    {
      "icao": "LMML",
      "alert": "OK",
      "vis_m": 9999,
      "fzfg": false,
      "metar_trigger": false,
      "taf_trigger": false,
      "metar": "METAR LMML 260645Z 23015KT 9999 FEW036 13/08 Q1004 NOSIG",
      "taf": "TAF LMML 260500Z 2606/2706 26017KT 9999 SCT020"
    },
    {
      "icao": "LOWW",
      "alert": "OK",
      "vis_m": 1500,
      "fzfg": false,
      "metar_trigger": false,
      "taf_trigger": false,
      "metar": "METAR LOWW 260620Z 27004KT 1500 BR BCFG FEW001 BKN002 02/01 Q0999 TEMPO 1200 BCFG",
      "taf": "TAF LOWW 260515Z 2606/2712 VRB03KT 0300 FG VV001 TX04/2613Z TNM01/2706Z"
    },
    {
      "icao": "LPFR",
      "alert": "OK",
      "vis_m": 9999,
      "fzfg": false,
      "metar_trigger": false,
      "taf_trigger": false,
      "metar": "METAR LPFR 260630Z 26010KT 9999 SCT007 SCT010 BKN020 15/14 Q1016",
      "taf": "TAF LPFR 260500Z 2606/2706 25015KT 9999 SCT012 BKN025"
    },
    {
      "icao": "LPMA",
      "alert": "OK",
      "vis_m": 9999,
      "fzfg": false,
      "metar_trigger": false,
      "taf_trigger": false,
      "metar": "METAR LPMA 260630Z 22013KT 9999 SCT015 17/09 Q1022",
      "taf": "TAF LPMA 260500Z 2606/2706 23008KT 9999 SCT015"
    },
    {
      "icao": "LPPR",
      "alert": "OK",
      "vis_m": 5000,
      "fzfg": false,
      "metar_trigger": false,
      "taf_trigger": false,
      "metar": "METAR LPPR 260630Z 21013KT 5000 -RA BR BKN003 14/13 Q1007 RERA",
      "taf": "TAF LPPR 260500Z 2606/2706 19015KT 9999 SCT012 BKN025"
    },
    {
      "icao": "LPPS",
      "alert": "OK",
      "vis_m": 9999,
      "fzfg": false,
      "metar_trigger": false,
      "taf_trigger": false,
      "metar": "METAR LPPS 260630Z 24007KT 210V270 9999 FEW015 SCT030 17/10 Q1022",
      "taf": "TAF LPPS 260500Z 2606/2712 23012KT 9999 SCT015 SCT030"
    },
    {
      "icao": "LPPT",
      "alert": "OK",
      "vis_m": 8000,
      "fzfg": false,
      "metar_trigger": false,
      "taf_trigger": false,
      "metar": "METAR LPPT 260630Z 23012KT 8000 SCT002 BKN004 14/14 Q1013",
      "taf": "TAF LPPT 260500Z 2606/2712 22007KT 9999 SCT012 BKN025"
    },
    {
      "icao": "LQBK",
      "alert": "OK",
      "vis_m": 150,
      "fzfg": false,
      "metar_trigger": false,
      "taf_trigger": false,
      "metar": "METAR LQBK 260630Z VRB02KT 0150 R16/0400N FG VV003 03/03 Q0998 NOSIG",
      "taf": "TAF LQBK 260500Z 2606/2706 30005KT 3000 BR NSC TX07/2613Z TN02/2606Z"
    },
    {
      "icao": "LQSA",
      "alert": "OK",
      "vis_m": 9999,
      "fzfg": false,
      "metar_trigger": false,
      "taf_trigger": false,
      "metar": "METAR LQSA 260630Z VRB03KT CAVOK 02/02 Q0998 NOSIG",
      "taf": "TAF LQSA 260500Z 2606/2706 11006KT 9999 BKN050 TX09/2613Z TN00/2704Z"
    },
    {
      "icao": "LQTZ",
      "alert": "OK",
      "vis_m": 9999,
      "fzfg": false,
      "metar_trigger": false,
      "taf_trigger": false,
      "metar": "METAR LQTZ 260630Z VRB01KT CAVOK 04/04 Q0998",
      "taf": "TAF LQTZ 260500Z 2606/2706 28006KT CAVOK TX09/2614Z TN01/2705Z"
    },
    {
      "icao": "LRBC",
      "alert": "OK",
      "vis_m": 150,
      "fzfg": false,
      "metar_trigger": false,
      "taf_trigger": false,
      "metar": "METAR LRBC 260630Z COR 00000KT 0150 R16/0500N FG VV002 01/01 Q1009",
      "taf": "TAF LRBC 260500Z 2606/2615 17006KT 0800 FG OVC002"
    },
    {
      "icao": "LRBS",
      "alert": "OK",
      "vis_m": 500,
      "fzfg": false,
      "metar_trigger": false,
      "taf_trigger": false,
      "metar": "METAR LRBS 260630Z 05009KT 020V080 0500 R07/1300D FG VV001 03/03 Q1007 NOSIG",
      "taf": "TAF LRBS 260500Z 2606/2706 06010KT 0200 FG VV001"
    },
    {
      "icao": "LRBV",
      "alert": "OK",
      "vis_m": 9999,
      "fzfg": false,
      "metar_trigger": false,
      "taf_trigger": false,
      "metar": "METAR LRBV 260630Z 26003KT 230V290 CAVOK 02/00 Q1005",
      "taf": "TAF LRBV 260500Z 2606/2615 VRB04KT CAVOK"
    },
    {
      "icao": "LRCL",
      "alert": "OK",
      "vis_m": 9999,
      "fzfg": false,
      "metar_trigger": false,
      "taf_trigger": false,
      "metar": "METAR LRCL 260630Z COR 07008KT CAVOK 05/01 Q1003",
      "taf": "TAF LRCL 260500Z 2606/2615 07006KT CAVOK"
    },
    {
      "icao": "LRCV",
      "alert": "OK",
      "vis_m": 200,
      "fzfg": false,
      "metar_trigger": false,
      "taf_trigger": false,
      "metar": "METAR LRCV 260630Z 11006KT 0200 R26/0300N FG VV002 02/02 Q1006",
      "taf": "TAF LRCV 260500Z 2606/2615 08007KT 0200 FG VV001"
    },
    {
      "icao": "LRIA",
      "alert": "OK",
      "vis_m": 300,
      "fzfg": false,
      "metar_trigger": false,
      "taf_trigger": false,
      "metar": "METAR LRIA 260630Z 11017KT 0300 R14/0700N FG VV001 02/02 Q1009",
      "taf": "TAF LRIA 260500Z 2606/2615 12012KT 1500 -DZ BR OVC002"
    },
    {
      "icao": "LROP",
      "alert": "OK",
      "vis_m": 300,
      "fzfg": false,
      "metar_trigger": false,
      "taf_trigger": false,
      "metar": "METAR LROP 260630Z 06011KT 0300 R08R/0700N R08L/0700N FG VV002 03/03 Q1007 NOSIG",
      "taf": "TAF LROP 260500Z 2606/2706 06012KT 0200 FG VV001"
    },
    {
      "icao": "LRSB",
      "alert": "OK",
      "vis_m": 9999,
      "fzfg": false,
      "metar_trigger": false,
      "taf_trigger": false,
      "metar": "METAR LRSB 260630Z 18010KT 9999 SCT075 11/04 Q1003",
      "taf": "TAF LRSB 260500Z 2606/2706 13014KT CAVOK"
    },
    {
      "icao": "LRSM",
      "alert": "OK",
      "vis_m": 9999,
      "fzfg": false,
      "metar_trigger": false,
      "taf_trigger": false,
      "metar": "METAR LRSM 260630Z 01004KT 350V060 CAVOK 04/01 Q1001",
      "taf": "TAF LRSM 260500Z 2606/2615 VRB04KT CAVOK"
    },
    {
      "icao": "LRSV",
      "alert": "OK",
      "vis_m": 150,
      "fzfg": true,
      "metar_trigger": false,
      "taf_trigger": false,
      "metar": "METAR LRSV 260630Z 14013KT 0150 R34/0350N FZFG VV001 M00/M00 Q1006",
      "taf": "TAF LRSV 260500Z 2606/2615 14012KT 0150 FG VV001"
    },
    {
      "icao": "LRTM",
      "alert": "OK",
      "vis_m": 9999,
      "fzfg": false,
      "metar_trigger": false,
      "taf_trigger": false,
      "metar": "METAR LRTM 260630Z 10006KT 080V150 9999 -RA FEW012 03/01 Q1004",
      "taf": "TAF LRTM 260500Z 2606/2615 08009KT 9999 SCT015"
    },
    {
      "icao": "LRTR",
      "alert": "OK",
      "vis_m": 9999,
      "fzfg": false,
      "metar_trigger": false,
      "taf_trigger": false,
      "metar": "METAR LRTR 260630Z 09006KT CAVOK 06/04 Q0999 NOSIG",
      "taf": "TAF LRTR 260500Z 2606/2706 14008KT CAVOK"
    },
    {
      "icao": "LTAC",
      "alert": "OK",
      "vis_m": 300,
      "fzfg": false,
      "metar_trigger": false,
      "taf_trigger": false,
      "metar": "METAR LTAC 260620Z VRB01G11KT 0300 R03C/P1500N R21C/0325N R03L/P1500D R03R/0350N BCFG BKN001 03/02 Q1016 NOSIG",
      "taf": "TAF LTAC 260440Z 2606/2706 VRB02KT 0400 FG BKN001"
    },
    {
      "icao": "LTFM",
      "alert": "OK",
      "vis_m": 9999,
      "fzfg": false,
      "metar_trigger": false,
      "taf_trigger": false,
      "metar": "METAR LTFM 260620Z 15007KT CAVOK 12/06 Q1009 NOSIG",
      "taf": "TAF LTFM 260440Z 2606/2712 17010KT CAVOK"
    },
    {
      "icao": "LUKK",
      "alert": "OK",
      "vis_m": 5000,
      "fzfg": false,
      "metar_trigger": false,
      "taf_trigger": false,
      "metar": "METAR LUKK 260630Z 11014KT 5000 -RA BR OVC002 00/00 Q1012 TEMPO 0800 FG",
      "taf": "TAF LUKK 260528Z 2606/2706 12012KT 1000 BR OVC002"
    },
    {
      "icao": "LWOH",
      "alert": "OK",
      "vis_m": 8000,
      "fzfg": false,
      "metar_trigger": false,
      "taf_trigger": false,
      "metar": "METAR LWOH 260620Z 15010KT 8000 -RA SCT010 OVC025 08/07 Q0999",
      "taf": "TAF LWOH 260550Z 2606/2706 VRB02KT 9999 SCT020 OVC050"
    },
    {
      "icao": "LWSK",
      "alert": "OK",
      "vis_m": 3000,
      "fzfg": false,
      "metar_trigger": false,
      "taf_trigger": false,
      "metar": "METAR LWSK 260650Z 00000KT 3000 BR SCT010 SCT050 OVC080 07/07 Q1000 NOSIG",
      "taf": "TAF LWSK 260550Z 2606/2706 VRB02KT 3000 RA BR SCT010 OVC050"
    },
    {
      "icao": "LYBE",
      "alert": "OK",
      "vis_m": 9999,
      "fzfg": false,
      "metar_trigger": false,
      "taf_trigger": false,
      "metar": "METAR LYBE 260630Z VRB04KT CAVOK 07/02 Q0999 NOSIG",
      "taf": "TAF LYBE 260500Z 2606/2706 14014KT CAVOK TX10/2613Z TN03/2706Z"
    },
    {
      "icao": "LYNI",
      "alert": "OK",
      "vis_m": 9999,
      "fzfg": false,
      "metar_trigger": false,
      "taf_trigger": false,
      "metar": "METAR LYNI 260630Z 08011KT 9999 BKN050 08/04 Q1000 NOSIG",
      "taf": "TAF LYNI 260500Z 2606/2706 08010KT 9999 SCT012 BKN050 TX11/2613Z TN04/2706Z"
    },
    {
      "icao": "LYPG",
      "alert": "OK",
      "vis_m": 9999,
      "fzfg": false,
      "metar_trigger": false,
      "taf_trigger": false,
      "metar": "METAR LYPG 260630Z 33006KT 9999 RA FEW030 BKN040 OVC070 07/06 Q1001 NOSIG",
      "taf": "TAF LYPG 260500Z 2606/2706 08008KT 9999 FEW023 SCT040 BKN080 TX12/2613Z TN07/2705Z"
    },
    {
      "icao": "LZIB",
      "alert": "OK",
      "vis_m": 6000,
      "fzfg": false,
      "metar_trigger": false,
      "taf_trigger": false,
      "metar": "METAR LZIB 260630Z 25004KT 230V300 6000 -DZ SCT003 BKN005 OVC006 03/02 Q0999 TEMPO 1200 BR BKN002",
      "taf": ""
    },
    {
      "icao": "LZKZ",
      "alert": "OK",
      "vis_m": 7000,
      "fzfg": false,
      "metar_trigger": false,
      "taf_trigger": false,
      "metar": "METAR LZKZ 260630Z 13004KT 7000 3200SE BCFG BKN033 OVC044 03/02 Q1000 TEMPO 2500 BR BCFG",
      "taf": "TAF LZKZ 260515Z 2606/2706 23006KT 5000 BR SCT010 BKN030"
    },
    {
      "icao": "LZTT",
      "alert": "OK",
      "vis_m": 9999,
      "fzfg": false,
      "metar_trigger": false,
      "taf_trigger": false,
      "metar": "METAR LZTT 260630Z 17007KT 9999 FEW010 BKN030 04/02 Q0998 NOSIG",
      "taf": "TAF LZTT 260515Z 2606/2706 06005KT 5000 -RA BR SCT006 BKN025"
    },
    {
      "icao": "OEJN",
      "alert": "OK",
      "vis_m": 9999,
      "fzfg": false,
      "metar_trigger": false,
      "taf_trigger": false,
      "metar": "METAR OEJN 260600Z 07009KT CAVOK 25/M04 Q1013 NOSIG",
      "taf": "TAF OEJN 260500Z 2606/2712 09015KT 6000 NSC"
    },
    {
      "icao": "OEMA",
      "alert": "OK",
      "vis_m": 9999,
      "fzfg": false,
      "metar_trigger": false,
      "taf_trigger": false,
      "metar": "METAR OEMA 260600Z 08011KT CAVOK 12/00 Q1024 NOSIG",
      "taf": "TAF OEMA 260500Z 2606/2712 09014KT 7000 NSC"
    },
    {
      "icao": "OJAI",
      "alert": "OK",
      "vis_m": null,
      "fzfg": false,
      "metar_trigger": false,
      "taf_trigger": false,
      "metar": "",
      "taf": "TAF OJAI 260500Z 2606/2712 13010KT 5000 HZ NSC"
    },
    {
      "icao": "OMAA",
      "alert": "OK",
      "vis_m": 9999,
      "fzfg": false,
      "metar_trigger": false,
      "taf_trigger": false,
      "metar": "METAR OMAA 260630Z 28010KT 9999 -RA SCT025 BKN040 21/15 Q1018 NOSIG",
      "taf": "TAF OMAA 260500Z 2606/2712 29012KT 8000 FEW040"
    },
    {
      "icao": "OMDB",
      "alert": "OK",
      "vis_m": 9999,
      "fzfg": false,
      "metar_trigger": false,
      "taf_trigger": false,
      "metar": "METAR OMDB 260630Z 10004KT 9999 BKN030 21/15 Q1017 BECMG 31012KT",
      "taf": "TAF OMDB 260500Z 2606/2712 VRB02KT 8000 FEW025"
    },
    {
      "icao": "UAAA",
      "alert": "OK",
      "vis_m": 2700,
      "fzfg": false,
      "metar_trigger": false,
      "taf_trigger": false,
      "metar": "METAR UAAA 260630Z 01002MPS 2700 FU SCT100 BKN200 M00/M06 Q1022 NOSIG",
      "taf": "TAF UAAA 260504Z 2606/2706 23003MPS 6000 SCT050 BKN100 TX01/2608Z TNM09/2702Z"
    },
    {
      "icao": "UBBB",
      "alert": "OK",
      "vis_m": 9999,
      "fzfg": false,
      "metar_trigger": false,
      "taf_trigger": false,
      "metar": "METAR UBBB 260630Z 18012KT CAVOK 08/04 Q1022 NOSIG",
      "taf": "TAF UBBB 260500Z 2606/2706 17008KT 9999 SCT030 TX08/2610Z TN02/2601Z"
    },
    {
      "icao": "UDSG",
      "alert": "OK",
      "vis_m": 2200,
      "fzfg": true,
      "metar_trigger": false,
      "taf_trigger": false,
      "metar": "METAR UDSG 260630Z 14001KT 2200 BR FEW002 BKN026 M12/M13 Q1024 NOSIG",
      "taf": "TAF UDSG 260458Z 2606/2706 VRB06KT 0800 FZFG OVC006"
    },
    {
      "icao": "UDYZ",
      "alert": "OK",
      "vis_m": 2400,
      "fzfg": false,
      "metar_trigger": false,
      "taf_trigger": false,
      "metar": "METAR UDYZ 260630Z 25006KT 2400 BR BKN005 M05/M06 Q1028 NOSIG",
      "taf": "TAF UDYZ 260500Z 2606/2706 VRB04KT 2300 BR BKN010"
    },
    {
      "icao": "UGKO",
      "alert": "OK",
      "vis_m": 9999,
      "fzfg": false,
      "metar_trigger": false,
      "taf_trigger": false,
      "metar": "METAR UGKO 260630Z 10010KT 9999 BKN090 07/04 Q1020 NOSIG",
      "taf": "TAF UGKO 260500Z 2606/2706 08010KT CAVOK TX15/2611Z TN07/2618Z"
    }
  ]
}