{
  "ts_utc": "2026-01-05T23:50:31Z",
  "threshold_m": 150,
  "source": "stations_override.txt (ICAO list) + aviationweather.gov (METAR/TAF raw)",
  "station_count": 159,
  "stations": [
    {
      "icao": "BIKF",
      "alert": "OK",
      "vis_m": 9999,
      "fzfg": false,
      "metar_trigger": false,
      "taf_trigger": false,
      "metar": "METAR BIKF 052330Z 02008KT CAVOK M03/M05 Q1017",
      "taf": "TAF BIKF 052231Z 0600/0700 07010KT CAVOK TXM02/0600Z TNM06/0610Z"
    },
    {
      "icao": "BKPR",
      "alert": "OK",
      "vis_m": 9999,
      "fzfg": false,
      "metar_trigger": false,
      "taf_trigger": false,
      "metar": "METAR BKPR 052330Z 16011KT 9999 -RA FEW020 BKN050 08/07 Q1008 NOSIG",
      "taf": "TAF BKPR 052330Z 0600/0624 16008KT 9999 SCT020 BKN040"
    },
    {
      "icao": "EBCI",
      "alert": "OK",
      "vis_m": 3500,
      "fzfg": false,
      "metar_trigger": false,
      "taf_trigger": false,
      "metar": "METAR EBCI 052320Z 24010KT 3500 -SHSN BKN004 BKN009 BKN018 M02/M03 Q1013 BECMG 6000 NSW BKN010",
      "taf": "TAF EBCI 052300Z 0600/0706 27007KT 9999 SCT007 BKN013"
    },
    {
      "icao": "EDDB",
      "alert": "OK",
      "vis_m": 9999,
      "fzfg": false,
      "metar_trigger": false,
      "taf_trigger": false,
      "metar": "METAR EDDB 052320Z AUTO 20003KT CAVOK M08/M08 Q1013 NOSIG",
      "taf": "TAF EDDB 052300Z 0600/0624 19004KT CAVOK"
    },
    {
      "icao": "EDDH",
      "alert": "OK",
      "vis_m": 9999,
      "fzfg": false,
      "metar_trigger": false,
      "taf_trigger": false,
      "metar": "METAR EDDH 052320Z AUTO 21007KT 9999 FEW009 OVC019 M01/M02 Q1011 TEMPO BKN012",
      "taf": "TAF EDDH 052300Z 0600/0706 20005KT 8000 OVC012"
    },
    {
      "icao": "EDDK",
      "alert": "OK",
      "vis_m": 9999,
      "fzfg": false,
      "metar_trigger": false,
      "taf_trigger": false,
      "metar": "METAR EDDK 052320Z AUTO 17007KT 9999 BKN024 BKN043 OVC049 M02/M05 Q1013 NOSIG",
      "taf": "TAF EDDK 052300Z 0600/0706 19004KT 9999 BKN020"
    },
    {
      "icao": "EDDN",
      "alert": "OK",
      "vis_m": 9999,
      "fzfg": false,
      "metar_trigger": false,
      "taf_trigger": false,
      "metar": "METAR EDDN 052320Z AUTO 11007KT CAVOK M10/M12 Q1014",
      "taf": "TAF EDDN 052300Z 0600/0624 11006KT 9999 BKN020"
    },
    {
      "icao": "EDDS",
      "alert": "OK",
      "vis_m": 9999,
      "fzfg": false,
      "metar_trigger": false,
      "taf_trigger": false,
      "metar": "METAR EDDS 052320Z AUTO 16003KT 110V200 CAVOK M07/M11 Q1012",
      "taf": "TAF EDDS 052300Z 0600/0624 VRB03KT 9999 SCT040"
    },
    {
      "icao": "EDFH",
      "alert": "OK",
      "vis_m": 9999,
      "fzfg": false,
      "metar_trigger": false,
      "taf_trigger": false,
      "metar": "METAR EDFH 052320Z 27011KT 9999 BKN004 M05/M06 Q1011",
      "taf": "TAF EDFH 052300Z 0600/0624 25005KT 8000 BKN005"
    },
    {
      "icao": "EDJA",
      "alert": "OK",
      "vis_m": 9999,
      "fzfg": false,
      "metar_trigger": false,
      "taf_trigger": false,
      "metar": "METAR EDJA 052320Z AUTO 20003KT 9999 // FEW140/// M13/M15 Q1012",
      "taf": "TAF EDJA 051700Z 0518/0603 22004KT CAVOK"
    },
    {
      "icao": "EDLW",
      "alert": "OK",
      "vis_m": 9999,
      "fzfg": false,
      "metar_trigger": false,
      "taf_trigger": false,
      "metar": "METAR EDLW 052320Z AUTO 20009KT 9999 // BKN017/// OVC050/// M01/M04 Q1011",
      "taf": "TAF EDLW 051700Z 0518/0618 22008KT 9999 BKN020"
    },
    {
      "icao": "EDNY",
      "alert": "OK",
      "vis_m": 9999,
      "fzfg": false,
      "metar_trigger": false,
      "taf_trigger": false,
      "metar": "METAR EDNY 052320Z AUTO 05003KT 020V140 9999 // SCT015/// M13/M14 Q1014",
      "taf": "TAF EDNY 051700Z 0518/0603 VRB03KT CAVOK"
    },
    {
      "icao": "EDSB",
      "alert": "OK",
      "vis_m": 9999,
      "fzfg": false,
      "metar_trigger": false,
      "taf_trigger": false,
      "metar": "METAR EDSB 052320Z 21004KT CAVOK M06/M09 Q1014",
      "taf": "TAF EDSB 052300Z 0600/0624 20004KT 9999 SCT040"
    },
    {
      "icao": "EETN",
      "alert": "OK",
      "vis_m": 9999,
      "fzfg": false,
      "metar_trigger": false,
      "taf_trigger": false,
      "metar": "METAR EETN 052320Z 15006KT CAVOK M14/M15 Q1020",
      "taf": "TAF EETN 052330Z 0600/0624 VRB02KT CAVOK"
    },
    {
      "icao": "EFTU",
      "alert": "OK",
      "vis_m": 9999,
      "fzfg": false,
      "metar_trigger": false,
      "taf_trigger": false,
      "metar": "METAR EFTU 052320Z AUTO 09003KT CAVOK M21/M24 Q1018",
      "taf": "TAF EFTU 052327Z 0600/0624 VRB02KT CAVOK"
    },
    {
      "icao": "EGBB",
      "alert": "OK",
      "vis_m": 9999,
      "fzfg": false,
      "metar_trigger": false,
      "taf_trigger": false,
      "metar": "METAR EGBB 052320Z VRB02KT CAVOK M07/M08 Q1018",
      "taf": "TAF EGBB 052258Z 0600/0624 27004KT 9999 FEW025"
    },
    {
      "icao": "EGGP",
      "alert": "OK",
      "vis_m": 9999,
      "fzfg": false,
      "metar_trigger": false,
      "taf_trigger": false,
      "metar": "METAR EGGP 052320Z 20003KT 170V230 9999 FEW034 M03/M05 Q1018",
      "taf": "TAF EGGP 052255Z 0600/0624 31005KT 9999 FEW030"
    },
    {
      "icao": "EGGW",
      "alert": "OK",
      "vis_m": 9999,
      "fzfg": false,
      "metar_trigger": false,
      "taf_trigger": false,
      "metar": "METAR EGGW 052320Z AUTO 29007KT 9999 NCD M04/M06 Q1017",
      "taf": "TAF EGGW 052305Z 0600/0624 30006KT CAVOK"
    },
    {
      "icao": "EGKK",
      "alert": "OK",
      "vis_m": 9999,
      "fzfg": false,
      "metar_trigger": false,
      "taf_trigger": false,
      "metar": "METAR EGKK 052320Z 30005KT CAVOK M03/M05 Q1018",
      "taf": "TAF EGKK 052254Z 0600/0706 31003KT CAVOK"
    },
    {
      "icao": "EGNM",
      "alert": "OK",
      "vis_m": 9999,
      "fzfg": false,
      "metar_trigger": false,
      "taf_trigger": false,
      "metar": "METAR EGNM 052250Z 26010KT CAVOK M04/M06 Q1016",
      "taf": "TAF EGNM 052255Z 0600/0624 27009KT 9999 FEW040"
    },
    {
      "icao": "EGPD",
      "alert": "OK",
      "vis_m": 9999,
      "fzfg": false,
      "metar_trigger": false,
      "taf_trigger": false,
      "metar": "METAR EGPD 052320Z COR AUTO 27010KT 9999 NCD M03/M05 Q1013 NOSIG",
      "taf": "TAF EGPD 052257Z 0600/0624 29010KT 9999 FEW012"
    },
    {
      "icao": "EGPF",
      "alert": "OK",
      "vis_m": 9999,
      "fzfg": false,
      "metar_trigger": false,
      "taf_trigger": false,
      "metar": "METAR EGPF 052320Z AUTO 27003KT 9999 NCD M02/M05 Q1016",
      "taf": "TAF EGPF 052304Z 0600/0624 28005KT 9999 FEW015 SCT030"
    },
    {
      "icao": "EHBK",
      "alert": "OK",
      "vis_m": 9999,
      "fzfg": false,
      "metar_trigger": false,
      "taf_trigger": false,
      "metar": "METAR EHBK 052325Z AUTO 21012KT 9999 OVC013/// M02/M04 Q1012",
      "taf": "TAF EHBK 052321Z 0600/0706 20008KT 9999 BKN018"
    },
    {
      "icao": "EHEH",
      "alert": "OK",
      "vis_m": 6000,
      "fzfg": false,
      "metar_trigger": false,
      "taf_trigger": false,
      "metar": "METAR EHEH 052325Z AUTO 21008KT 6000 BR BKN005 OVC007 M01/M02 Q1012 YLO",
      "taf": ""
    },
    {
      "icao": "EKBI",
      "alert": "OK",
      "vis_m": 9999,
      "fzfg": false,
      "metar_trigger": false,
      "taf_trigger": false,
      "metar": "METAR EKBI 052320Z AUTO 34002KT 9999 FEW027/// M05/M05 Q1010",
      "taf": "TAF EKBI 052327Z 0600/0624 05005KT 9999 FEW006 BKN035"
    },
    {
      "icao": "EKCH",
      "alert": "OK",
      "vis_m": 5000,
      "fzfg": false,
      "metar_trigger": false,
      "taf_trigger": false,
      "metar": "METAR EKCH 052320Z 28006KT 5000 -SN FEW025 BKN051 M01/M02 Q1010 TEMPO 4000 SHSN SCT020CB",
      "taf": "TAF EKCH 052327Z 0600/0624 23004KT 8000 BKN030"
    },
    {
      "icao": "ENAL",
      "alert": "OK",
      "vis_m": 9999,
      "fzfg": false,
      "metar_trigger": false,
      "taf_trigger": false,
      "metar": "METAR ENAL 052320Z AUTO 13016KT 9999 NCD M05/M10 Q1011",
      "taf": "TAF ENAL 052300Z 0600/0609 14008KT 9999 FEW040"
    },
    {
      "icao": "ENBR",
      "alert": "OK",
      "vis_m": 9999,
      "fzfg": false,
      "metar_trigger": false,
      "taf_trigger": false,
      "metar": "METAR ENBR 052320Z 09004KT CAVOK M08/M13 Q1011 RMK WIND 1200FT 14004KT",
      "taf": "TAF ENBR 052300Z 0600/0624 07005KT 9999 SCT050"
    },
    {
      "icao": "ENGM",
      "alert": "OK",
      "vis_m": 9999,
      "fzfg": false,
      "metar_trigger": false,
      "taf_trigger": false,
      "metar": "METAR ENGM 052320Z 02007KT 9999 -SN FEW013 M10/M11 Q1012",
      "taf": "TAF ENGM 052300Z 0600/0624 02005KT 8000 -SN FEW015 BKN030"
    },
    {
      "icao": "ENHD",
      "alert": "OK",
      "vis_m": 9999,
      "fzfg": false,
      "metar_trigger": false,
      "taf_trigger": false,
      "metar": "METAR ENHD 052320Z 09011KT 9999 BKN040 OVC047 M03/M06 Q1010",
      "taf": "TAF ENHD 051400Z 0515/0523 11015KT 9999 -SHSN FEW015CB BKN025"
    },
    {
      "icao": "ENTC",
      "alert": "OK",
      "vis_m": 9999,
      "fzfg": false,
      "metar_trigger": false,
      "taf_trigger": false,
      "metar": "METAR ENTC 052320Z 23010KT CAVOK M09/M12 Q1014 RMK WIND 2600FT 11010KT",
      "taf": "TAF ENTC 052300Z 0600/0624 23005KT CAVOK"
    },
    {
      "icao": "ENTO",
      "alert": "OK",
      "vis_m": 9999,
      "fzfg": false,
      "metar_trigger": false,
      "taf_trigger": false,
      "metar": "METAR ENTO 052320Z 35010KT 9999 OVC013 M08/M10 Q1013",
      "taf": "TAF ENTO 052300Z 0600/0624 36010KT 9999 FEW012 BKN030"
    },
    {
      "icao": "ENVA",
      "alert": "OK",
      "vis_m": 9999,
      "fzfg": false,
      "metar_trigger": false,
      "taf_trigger": false,
      "metar": "METAR ENVA 052320Z 12011KT CAVOK M16/M19 Q1015 RMK WIND 670FT 11012KT",
      "taf": "TAF ENVA 052300Z 0600/0624 12008KT CAVOK"
    },
    {
      "icao": "ENZV",
      "alert": "OK",
      "vis_m": 2900,
      "fzfg": false,
      "metar_trigger": false,
      "taf_trigger": false,
      "metar": "METAR ENZV 052320Z VRB02KT 2900 -SN BKN020 M03/M06 Q1010",
      "taf": "TAF ENZV 052300Z 0600/0624 12008KT 9999 FEW010 BKN035"
    },
    {
      "icao": "EPGD",
      "alert": "OK",
      "vis_m": 9999,
      "fzfg": false,
      "metar_trigger": false,
      "taf_trigger": false,
      "metar": "METAR EPGD 052330Z 19003KT 170V240 CAVOK M03/M04 Q1013",
      "taf": "TAF EPGD 052330Z 0600/0624 18004KT 9999 SCT035"
    },
    {
      "icao": "EPKK",
      "alert": "OK",
      "vis_m": 9999,
      "fzfg": false,
      "metar_trigger": false,
      "taf_trigger": false,
      "metar": "METAR EPKK 052330Z 24002KT 9999 BKN063 M04/M07 Q1011",
      "taf": "TAF EPKK 052330Z 0600/0624 VRB02KT CAVOK"
    },
    {
      "icao": "EPKT",
      "alert": "OK",
      "vis_m": 9000,
      "fzfg": false,
      "metar_trigger": false,
      "taf_trigger": false,
      "metar": "METAR EPKT 052330Z 34002KT 9000 NSC M06/M08 Q1011",
      "taf": "TAF EPKT 052330Z 0600/0624 35002KT CAVOK"
    },
    {
      "icao": "EPLB",
      "alert": "OK",
      "vis_m": 9999,
      "fzfg": false,
      "metar_trigger": false,
      "taf_trigger": false,
      "metar": "METAR EPLB 052330Z 07005KT 9999 OVC017 M03/M06 Q1012",
      "taf": "TAF EPLB 052330Z 0600/0624 08005KT 9999 BKN025"
    },
    {
      "icao": "EPMO",
      "alert": "OK",
      "vis_m": 3300,
      "fzfg": false,
      "metar_trigger": false,
      "taf_trigger": false,
      "metar": "METAR EPMO 052330Z 05004KT 3300 MIFG BR NSC M10/M10 Q1014",
      "taf": "TAF EPMO 052330Z 0600/0624 VRB02KT 2000 BR NSC"
    },
    {
      "icao": "EPPO",
      "alert": "OK",
      "vis_m": 3500,
      "fzfg": false,
      "metar_trigger": false,
      "taf_trigger": false,
      "metar": "METAR EPPO 052330Z VRB01KT 3500 BR FEW036 M08/M09 Q1013",
      "taf": "TAF EPPO 052330Z 0600/0624 VRB02KT 5000 BR SCT035"
    },
    {
      "icao": "EPRA",
      "alert": "OK",
      "vis_m": 9999,
      "fzfg": false,
      "metar_trigger": false,
      "taf_trigger": false,
      "metar": "METAR EPRA 052330Z 05004KT CAVOK M05/M08 Q1012",
      "taf": "TAF EPRA 052330Z 0600/0609 VRB03KT CAVOK"
    },
    {
      "icao": "EPRZ",
      "alert": "OK",
      "vis_m": 9999,
      "fzfg": false,
      "metar_trigger": false,
      "taf_trigger": false,
      "metar": "METAR EPRZ 052330Z 33004KT 9999 BKN016 M03/M06 Q1010",
      "taf": "TAF EPRZ 052330Z 0600/0624 33005KT 5000 -SN BR BKN015"
    },
    {
      "icao": "EPSC",
      "alert": "OK",
      "vis_m": 9999,
      "fzfg": false,
      "metar_trigger": false,
      "taf_trigger": false,
      "metar": "METAR EPSC 052330Z 14006KT CAVOK M03/M06 Q1012",
      "taf": "TAF EPSC 052330Z 0600/0624 16006KT 9999 BKN040"
    },
    {
      "icao": "EPSY",
      "alert": "OK",
      "vis_m": 2000,
      "fzfg": false,
      "metar_trigger": false,
      "taf_trigger": false,
      "metar": "METAR EPSY 052330Z 35001KT 2000 BR NSC M12/M13 Q1015",
      "taf": "TAF EPSY 052330Z 0600/0609 VRB02KT 5000 BR NSC"
    },
    {
      "icao": "EPWA",
      "alert": "OK",
      "vis_m": 9999,
      "fzfg": false,
      "metar_trigger": false,
      "taf_trigger": false,
      "metar": "METAR EPWA 052330Z 07004KT 030V090 CAVOK M05/M08 Q1013 NOSIG",
      "taf": "TAF EPWA 052330Z 0600/0624 VRB02KT 8000 NSC"
    },
    {
      "icao": "EPWR",
      "alert": "OK",
      "vis_m": 7000,
      "fzfg": false,
      "metar_trigger": false,
      "taf_trigger": false,
      "metar": "METAR EPWR 052330Z 31002KT 7000 NSC M09/M11 Q1013",
      "taf": "TAF EPWR 052330Z 0600/0624 30003KT CAVOK"
    },
    {
      "icao": "ESGG",
      "alert": "OK",
      "vis_m": 9999,
      "fzfg": false,
      "metar_trigger": false,
      "taf_trigger": false,
      "metar": "METAR ESGG 052320Z 08004KT CAVOK M08/M09 Q1010",
      "taf": "TAF ESGG 052330Z 0600/0624 VRB02KT 9999 SCT045"
    },
    {
      "icao": "ESKN",
      "alert": "OK",
      "vis_m": 9999,
      "fzfg": false,
      "metar_trigger": false,
      "taf_trigger": false,
      "metar": "METAR ESKN 052320Z 14004KT 9999 SCT036 M03/M04 Q1011",
      "taf": "TAF ESKN 052330Z 0600/0624 06008KT 9999 BKN030"
    },
    {
      "icao": "ESMS",
      "alert": "OK",
      "vis_m": 4000,
      "fzfg": false,
      "metar_trigger": false,
      "taf_trigger": false,
      "metar": "METAR ESMS 052320Z 00000KT 4000 BR SCT009 BKN013 M03/M03 Q1010",
      "taf": "TAF ESMS 052327Z 0600/0624 18004KT 4000 -SN BKN015"
    },
    {
      "icao": "ESSA",
      "alert": "OK",
      "vis_m": 8000,
      "fzfg": false,
      "metar_trigger": false,
      "taf_trigger": false,
      "metar": "METAR ESSA 052320Z 07010KT 8000 -SN SCT014 BKN042 M05/M06 Q1012 TEMPO 1400 SHSN BKN009",
      "taf": "TAF ESSA 052330Z 0600/0624 04010KT 9999 FEW035"
    },
    {
      "icao": "EYKA",
      "alert": "OK",
      "vis_m": 8000,
      "fzfg": false,
      "metar_trigger": false,
      "taf_trigger": false,
      "metar": "METAR EYKA 052320Z 15003KT 070V220 8000 NSC M07/M07 Q1017",
      "taf": "TAF EYKA 052300Z 0600/0624 VRB04KT 5000 BR SCT005"
    },
    {
      "icao": "EYPA",
      "alert": "OK",
      "vis_m": 6000,
      "fzfg": false,
      "metar_trigger": false,
      "taf_trigger": false,
      "metar": "METAR EYPA 052320Z 15010KT 6000 OVC003 M04/M04 Q1015",
      "taf": ""
    },
    {
      "icao": "EYVI",
      "alert": "OK",
      "vis_m": 7000,
      "fzfg": false,
      "metar_trigger": false,
      "taf_trigger": false,
      "metar": "METAR EYVI 052320Z 13003KT 7000 0100S BCFG NSC M08/M09 Q1017 NOSIG",
      "taf": "TAF EYVI 052300Z 0600/0624 VRB04KT 5000 BR SCT005"
    },
    {
      "icao": "GCFV",
      "alert": "OK",
      "vis_m": 9999,
      "fzfg": false,
      "metar_trigger": false,
      "taf_trigger": false,
      "metar": "METAR GCFV 052330Z AUTO 34013KT CAVOK 16/11 Q1020",
      "taf": "TAF GCFV 052000Z 0521/0621 02014KT 9999 SCT030 TX21/0614Z TN15/0606Z"
    },
    {
      "icao": "GCLP",
      "alert": "OK",
      "vis_m": 9999,
      "fzfg": false,
      "metar_trigger": false,
      "taf_trigger": false,
      "metar": "METAR GCLP 052330Z 02021KT 9999 SCT025 BKN040 18/13 Q1020 NOSIG",
      "taf": "TAF GCLP 052000Z 0521/0621 36017KT 9999 SCT030 TX21/0614Z TN15/0606Z"
    },
    {
      "icao": "GCTS",
      "alert": "OK",
      "vis_m": 9999,
      "fzfg": false,
      "metar_trigger": false,
      "taf_trigger": false,
      "metar": "METAR GCTS 052330Z 05015KT 9999 BKN045 18/10 Q1020 NOSIG",
      "taf": "TAF GCTS 052000Z 0521/0621 07014KT 9999 SCT030 TX23/0614Z TN16/0606Z"
    },
    {
      "icao": "GMAD",
      "alert": "OK",
      "vis_m": 9999,
      "fzfg": false,
      "metar_trigger": false,
      "taf_trigger": false,
      "metar": "METAR GMAD 052330Z 26005KT 230V290 9999 FEW026 14/10 Q1013 NOSIG",
      "taf": "TAF GMAD 052300Z 0600/0706 24006KT 8000 SCT023 SCT080"
    },
    {
      "icao": "GMMN",
      "alert": "OK",
      "vis_m": 9999,
      "fzfg": false,
      "metar_trigger": false,
      "taf_trigger": false,
      "metar": "METAR GMMN 052330Z 29006KT 9999 BKN030 10/07 Q1016 NOSIG",
      "taf": "TAF GMMN 052300Z 0600/0706 31006KT 9999 BKN030"
    },
    {
      "icao": "GMMX",
      "alert": "OK",
      "vis_m": 8000,
      "fzfg": false,
      "metar_trigger": false,
      "taf_trigger": false,
      "metar": "METAR GMMX 052330Z 36008KT 320V030 8000 SCT013 BKN020 11/09 Q1016 NOSIG",
      "taf": "TAF GMMX 052300Z 0600/0706 26006KT 8000 SCT023 SCT080"
    },
    {
      "icao": "HEGN",
      "alert": "OK",
      "vis_m": 9999,
      "fzfg": false,
      "metar_trigger": false,
      "taf_trigger": false,
      "metar": "METAR HEGN 052300Z 31005KT CAVOK 16/04 Q1018 NOSIG",
      "taf": "TAF HEGN 052300Z 0600/0706 29011KT CAVOK"
    },
    {
      "icao": "HEMA",
      "alert": "OK",
      "vis_m": 9999,
      "fzfg": false,
      "metar_trigger": false,
      "taf_trigger": false,
      "metar": "METAR HEMA 052300Z 28008KT CAVOK 18/14 Q1016 NOSIG",
      "taf": "TAF HEMA 052300Z 0600/0706 29011KT CAVOK"
    },
    {
      "icao": "HESH",
      "alert": "OK",
      "vis_m": 9999,
      "fzfg": false,
      "metar_trigger": false,
      "taf_trigger": false,
      "metar": "METAR HESH 052300Z 34005KT CAVOK 19/14 Q1018 NOSIG",
      "taf": "TAF HESH 052300Z 0600/0706 33010KT CAVOK"
    },
    {
      "icao": "HESX",
      "alert": "OK",
      "vis_m": 6000,
      "fzfg": false,
      "metar_trigger": false,
      "taf_trigger": false,
      "metar": "METAR HESX 052300Z 16003KT 6000 NSC 08/04 Q1019 NOSIG",
      "taf": "TAF HESX 052300Z 0600/0706 VRB02KT 6000 NSC"
    },
    {
      "icao": "LATI",
      "alert": "OK",
      "vis_m": null,
      "fzfg": false,
      "metar_trigger": false,
      "taf_trigger": false,
      "metar": "",
      "taf": "TAF LATI 052300Z 0600/0624 16014KT 9999 RA FEW025CB OVC050 TX16/0612Z TN12/0605Z"
    },
    {
      "icao": "LBPD",
      "alert": "OK",
      "vis_m": 9999,
      "fzfg": false,
      "metar_trigger": false,
      "taf_trigger": false,
      "metar": "METAR LBPD 052330Z AUTO VRB02KT 9999 SCT120/// OVC140/// 07/07 Q1011",
      "taf": "TAF LBPD 052300Z 0600/0624 VRB03KT 5000 BR BKN060"
    },
    {
      "icao": "LBSF",
      "alert": "OK",
      "vis_m": 9999,
      "fzfg": false,
      "metar_trigger": false,
      "taf_trigger": false,
      "metar": "METAR LBSF 052330Z AUTO 35004KT 9999 SCT075/// 08/04 Q1010 NOSIG",
      "taf": "TAF LBSF 052300Z 0600/0624 VRB03KT 7000 SCT040 BKN060"
    },
    {
      "icao": "LBWN",
      "alert": "OK",
      "vis_m": 9999,
      "fzfg": false,
      "metar_trigger": false,
      "taf_trigger": false,
      "metar": "METAR LBWN 052330Z AUTO 07005KT 9999 NSC 11/10 Q1013 NOSIG",
      "taf": "TAF LBWN 052300Z 0600/0624 11008KT 9999 BKN040"
    },
    {
      "icao": "LCLK",
      "alert": "OK",
      "vis_m": 9999,
      "fzfg": false,
      "metar_trigger": false,
      "taf_trigger": false,
      "metar": "METAR LCLK 052330Z 35007KT CAVOK 11/08 Q1021 NOSIG",
      "taf": "TAF LCLK 052330Z 0600/0700 34008KT CAVOK"
    },
    {
      "icao": "LCPH",
      "alert": "OK",
      "vis_m": 9999,
      "fzfg": false,
      "metar_trigger": false,
      "taf_trigger": false,
      "metar": "METAR LCPH 052330Z 02007KT 010V080 CAVOK 11/04 Q1020 NOSIG",
      "taf": "TAF LCPH 052330Z 0600/0700 08008KT 9999 FEW040"
    },
    {
      "icao": "LEAL",
      "alert": "OK",
      "vis_m": 9999,
      "fzfg": false,
      "metar_trigger": false,
      "taf_trigger": false,
      "metar": "METAR LEAL 052330Z 33004KT 300V020 9999 -RA SCT025 OVC035 09/08 Q1010 NOSIG",
      "taf": "TAF LEAL 052300Z 0600/0624 VRB04KT 9999 SCT020 TX12/0614Z TN04/0606Z"
    },
    {
      "icao": "LEBB",
      "alert": "OK",
      "vis_m": 9999,
      "fzfg": false,
      "metar_trigger": false,
      "taf_trigger": false,
      "metar": "METAR LEBB 052330Z AUTO 07004KT 9999 -UP FEW024 BKN030 BKN038 01/M00 Q1016 RERASN",
      "taf": "TAF LEBB 052300Z 0600/0624 32009KT 9999 SCT020 BKN040 TX07/0616Z TN01/0619Z"
    },
    {
      "icao": "LEBL",
      "alert": "OK",
      "vis_m": 9999,
      "fzfg": false,
      "metar_trigger": false,
      "taf_trigger": false,
      "metar": "METAR LEBL 052330Z 34015KT 9999 FEW030 04/M01 Q1010 NOSIG",
      "taf": "TAF LEBL 052300Z 0600/0624 34012KT 9999 FEW030 TX11/0613Z TN01/0606Z"
    },
    {
      "icao": "LECH",
      "alert": "OK",
      "vis_m": 9000,
      "fzfg": false,
      "metar_trigger": false,
      "taf_trigger": false,
      "metar": "METAR LECH 052330Z AUTO 00000KT 9000 NCD 01/M06 Q1010",
      "taf": ""
    },
    {
      "icao": "LEMD",
      "alert": "OK",
      "vis_m": 9999,
      "fzfg": false,
      "metar_trigger": false,
      "taf_trigger": false,
      "metar": "METAR LEMD 052330Z 36006KT 290V040 CAVOK M00/M08 Q1012 NOSIG",
      "taf": "TAF LEMD 052300Z 0600/0706 VRB05KT 9999 SCT025 TX06/0614Z TNM03/0607Z"
    },
    {
      "icao": "LEMG",
      "alert": "OK",
      "vis_m": 9999,
      "fzfg": false,
      "metar_trigger": false,
      "taf_trigger": false,
      "metar": "METAR LEMG 052330Z 28017KT 9999 BKN060 10/06 Q1009 NOSIG",
      "taf": "TAF LEMG 052300Z 0600/0624 28012KT 9999 FEW020 TX12/0614Z TN04/0606Z"
    },
    {
      "icao": "LEVC",
      "alert": "OK",
      "vis_m": 9999,
      "fzfg": false,
      "metar_trigger": false,
      "taf_trigger": false,
      "metar": "METAR LEVC 052330Z 29005KT 260V340 9999 OVC065 06/M05 Q1011 NOSIG",
      "taf": "TAF LEVC 052300Z 0600/0624 30006KT 9999 BKN040 TX12/0614Z TN00/0606Z"
    },
    {
      "icao": "LEXJ",
      "alert": "OK",
      "vis_m": 7000,
      "fzfg": false,
      "metar_trigger": false,
      "taf_trigger": false,
      "metar": "METAR LEXJ 052330Z AUTO 22013KT 190V250 7000 SCT034 BKN044 BKN065 05/02 Q1016",
      "taf": "TAF LEXJ 052000Z 0521/0621 22005KT 9999 SCT010 BKN040 TX09/0614Z TN03/0523Z"
    },
    {
      "icao": "LEZG",
      "alert": "OK",
      "vis_m": 9999,
      "fzfg": false,
      "metar_trigger": false,
      "taf_trigger": false,
      "metar": "METAR LEZG 052330Z 29009KT CAVOK 01/M04 Q1012 NOSIG",
      "taf": "TAF LEZG 052300Z 0600/0624 31012KT 9999 FEW050 TX07/0615Z TN00/0606Z"
    },
    {
      "icao": "LEZL",
      "alert": "OK",
      "vis_m": 9999,
      "fzfg": false,
      "metar_trigger": false,
      "taf_trigger": false,
      "metar": "METAR LEZL 052330Z 36007KT CAVOK 08/M01 Q1013 NOSIG",
      "taf": "TAF LEZL 052000Z 0521/0621 30004KT CAVOK TX13/0615Z TN02/0607Z"
    },
    {
      "icao": "LFBD",
      "alert": "OK",
      "vis_m": 9999,
      "fzfg": false,
      "metar_trigger": false,
      "taf_trigger": false,
      "metar": "METAR LFBD 052330Z AUTO 19009KT CAVOK M01/M05 Q1015 NOSIG",
      "taf": "TAF LFBD 052300Z 0600/0706 19008KT 9999 BKN045 TX04/0614Z TNM03/0700Z"
    },
    {
      "icao": "LFLL",
      "alert": "OK",
      "vis_m": 9000,
      "fzfg": false,
      "metar_trigger": false,
      "taf_trigger": false,
      "metar": "METAR LFLL 052330Z 34008KT 9000 NSC M06/M07 Q1014 NOSIG",
      "taf": "TAF LFLL 052300Z 0600/0706 34006KT CAVOK"
    },
    {
      "icao": "LFLS",
      "alert": "OK",
      "vis_m": 9999,
      "fzfg": false,
      "metar_trigger": false,
      "taf_trigger": false,
      "metar": "METAR LFLS 052330Z AUTO 08003KT 050V110 CAVOK M07/M08 Q1013",
      "taf": "TAF LFLS 051400Z 0515/0615 36008KT CAVOK"
    },
    {
      "icao": "LFMN",
      "alert": "OK",
      "vis_m": 9999,
      "fzfg": false,
      "metar_trigger": false,
      "taf_trigger": false,
      "metar": "METAR LFMN 052330Z 33009KT 9999 SCT040 SCT140 06/M01 Q1006 NOSIG",
      "taf": "TAF LFMN 052000Z 0521/0703 32010KT 9999 BKN055 BKN135"
    },
    {
      "icao": "LFOB",
      "alert": "OK",
      "vis_m": 9999,
      "fzfg": true,
      "metar_trigger": false,
      "taf_trigger": false,
      "metar": "METAR LFOB 052330Z AUTO 29005KT 9999 BKN040 M04/M04 Q1016 TEMPO 0600 FZFG VV///",
      "taf": "TAF LFOB 052300Z 0600/0624 29006KT 6000 SCT020"
    },
    {
      "icao": "LFPO",
      "alert": "OK",
      "vis_m": 7000,
      "fzfg": false,
      "metar_trigger": false,
      "taf_trigger": false,
      "metar": "METAR LFPO 052330Z AUTO 29006KT 7000 FEW007 OVC035 M01/M02 Q1016 TEMPO 2500 BR BKN004",
      "taf": "TAF LFPO 052300Z 0600/0706 29005KT 9999 FEW007 BKN020"
    },
    {
      "icao": "LFSB",
      "alert": "OK",
      "vis_m": 9999,
      "fzfg": false,
      "metar_trigger": false,
      "taf_trigger": false,
      "metar": "METAR LFSB 052330Z AUTO 19004KT CAVOK M08/M10 Q1015 NOSIG",
      "taf": "TAF LFSB 052300Z 0600/0624 VRB03KT CAVOK"
    },
    {
      "icao": "LGAV",
      "alert": "OK",
      "vis_m": 9999,
      "fzfg": false,
      "metar_trigger": false,
      "taf_trigger": false,
      "metar": "METAR LGAV 052320Z VRB01KT 9999 FEW018 BKN035 13/11 Q1015 NOSIG",
      "taf": "TAF LGAV 052300Z 0600/0624 22010KT 9999 FEW018 BKN035"
    },
    {
      "icao": "LGTS",
      "alert": "OK",
      "vis_m": 9999,
      "fzfg": false,
      "metar_trigger": false,
      "taf_trigger": false,
      "metar": "METAR LGTS 052320Z 12005KT 9999 FEW030 14/11 Q1012 NOSIG",
      "taf": "TAF LGTS 052300Z 0600/0624 14010KT 9999 SCT030"
    },
    {
      "icao": "LHBP",
      "alert": "OK",
      "vis_m": 5000,
      "fzfg": false,
      "metar_trigger": false,
      "taf_trigger": false,
      "metar": "METAR LHBP 052330Z 32008KT 5000 -SN SCT005 OVC046 M03/M03 Q1010 NOSIG",
      "taf": "TAF LHBP 052315Z 0600/0624 34008KT 6000 -SN SCT010 OVC020"
    },
    {
      "icao": "LHDC",
      "alert": "OK",
      "vis_m": 4700,
      "fzfg": false,
      "metar_trigger": false,
      "taf_trigger": false,
      "metar": "METAR LHDC 052315Z AUTO 03002KT 4700 -RASN BR OVC005 00/M00 Q1009",
      "taf": "TAF LHDC 051715Z 0518/0603 05006KT 4000 -SN SCT012 OVC025"
    },
    {
      "icao": "LIBD",
      "alert": "OK",
      "vis_m": 9999,
      "fzfg": false,
      "metar_trigger": false,
      "taf_trigger": false,
      "metar": "METAR LIBD 052320Z 32003KT 290V350 9999 BKN015 11/10 Q1005",
      "taf": "TAF LIBD 052300Z 0600/0624 30007KT 9999 SCT015"
    },
    {
      "icao": "LIBG",
      "alert": "OK",
      "vis_m": null,
      "fzfg": false,
      "metar_trigger": false,
      "taf_trigger": false,
      "metar": "",
      "taf": "TAF LIBG 051700Z 0518/0603 17012KT 9999 SCT030"
    },
    {
      "icao": "LIBP",
      "alert": "OK",
      "vis_m": 7000,
      "fzfg": false,
      "metar_trigger": false,
      "taf_trigger": false,
      "metar": "METAR LIBP 052320Z AUTO VRB01KT 7000 OVC005/// 07/06 Q1007",
      "taf": "TAF LIBP 052300Z 0600/0624 VRB05KT 9999 OVC008"
    },
    {
      "icao": "LIBR",
      "alert": "OK",
      "vis_m": 6000,
      "fzfg": false,
      "metar_trigger": false,
      "taf_trigger": false,
      "metar": "METAR LIBR 052320Z 21013KT 6000 FEW010 BKN025 16/14 Q1005",
      "taf": "TAF LIBR 052300Z 0600/0624 VRB05KT 9999 BKN015"
    },
    {
      "icao": "LICA",
      "alert": "OK",
      "vis_m": 9999,
      "fzfg": false,
      "metar_trigger": false,
      "taf_trigger": false,
      "metar": "METAR LICA 052320Z AUTO 08006KT 9999 NCD 10/10 Q1005",
      "taf": "TAF LICA 052300Z 0600/0624 VRB05KT 9999 SCT050"
    },
    {
      "icao": "LICC",
      "alert": "OK",
      "vis_m": 9999,
      "fzfg": false,
      "metar_trigger": false,
      "taf_trigger": false,
      "metar": "METAR LICC 052320Z 25008KT 200V280 CAVOK 13/09 Q1006",
      "taf": "TAF LICC 052300Z 0600/0624 26013KT 9999 FEW030"
    },
    {
      "icao": "LICJ",
      "alert": "OK",
      "vis_m": 9999,
      "fzfg": false,
      "metar_trigger": false,
      "taf_trigger": false,
      "metar": "METAR LICJ 052320Z 19012KT CAVOK 17/06 Q1003",
      "taf": "TAF LICJ 052300Z 0600/0624 21016KT 9999 FEW030"
    },
    {
      "icao": "LIMC",
      "alert": "OK",
      "vis_m": 9999,
      "fzfg": false,
      "metar_trigger": false,
      "taf_trigger": false,
      "metar": "METAR LIMC 052320Z 04004KT CAVOK M05/M06 Q1008 NOSIG",
      "taf": "TAF LIMC 052300Z 0600/0706 VRB03KT CAVOK"
    },
    {
      "icao": "LIME",
      "alert": "OK",
      "vis_m": 9999,
      "fzfg": false,
      "metar_trigger": false,
      "taf_trigger": false,
      "metar": "METAR LIME 052320Z 03004KT CAVOK M02/M05 Q1008 NOSIG",
      "taf": "TAF LIME 052300Z 0600/0624 VRB03KT CAVOK"
    },
    {
      "icao": "LIMF",
      "alert": "OK",
      "vis_m": 9999,
      "fzfg": false,
      "metar_trigger": false,
      "taf_trigger": false,
      "metar": "METAR LIMF 052320Z VRB01KT CAVOK M03/M09 Q1008",
      "taf": "TAF LIMF 052300Z 0600/0624 VRB03KT CAVOK"
    },
    {
      "icao": "LIMJ",
      "alert": "OK",
      "vis_m": 9999,
      "fzfg": false,
      "metar_trigger": false,
      "taf_trigger": false,
      "metar": "METAR LIMJ 052320Z 04015KT CAVOK 04/M05 Q1006",
      "taf": "TAF LIMJ 052300Z 0600/0624 03017KT CAVOK"
    },
    {
      "icao": "LIPE",
      "alert": "OK",
      "vis_m": 9999,
      "fzfg": false,
      "metar_trigger": false,
      "taf_trigger": false,
      "metar": "METAR LIPE 052320Z 26003KT 9999 BKN040 03/M02 Q1009",
      "taf": "TAF LIPE 052300Z 0600/0624 28007KT 9999 BKN020"
    },
    {
      "icao": "LIPH",
      "alert": "OK",
      "vis_m": 9999,
      "fzfg": false,
      "metar_trigger": false,
      "taf_trigger": false,
      "metar": "METAR LIPH 052320Z AUTO 32003KT 9999 FEW073/// BKN120/// 01/M04 Q1009",
      "taf": "TAF LIPH 052300Z 0600/0624 03006KT 9999 SCT070"
    },
    {
      "icao": "LIPQ",
      "alert": "OK",
      "vis_m": 9999,
      "fzfg": false,
      "metar_trigger": false,
      "taf_trigger": false,
      "metar": "METAR LIPQ 052320Z AUTO 09006KT 060V120 9999 BKN050/// OVC075/// 04/M05 Q1008",
      "taf": "TAF LIPQ 052300Z 0600/0624 08008KT 9999 BKN030"
    },
    {
      "icao": "LIPR",
      "alert": "OK",
      "vis_m": 9999,
      "fzfg": false,
      "metar_trigger": false,
      "taf_trigger": false,
      "metar": "METAR LIPR 052320Z AUTO 30011KT 9999 DZRA OVC015/// 02/00 Q1008",
      "taf": "TAF LIPR 052300Z 0600/0624 30012KT 9999 BKN020"
    },
    {
      "icao": "LIPX",
      "alert": "OK",
      "vis_m": 9999,
      "fzfg": false,
      "metar_trigger": false,
      "taf_trigger": false,
      "metar": "METAR LIPX 052320Z 02002KT CAVOK M01/M09 Q1009",
      "taf": "TAF LIPX 052300Z 0600/0624 VRB04KT CAVOK"
    },
    {
      "icao": "LIPY",
      "alert": "OK",
      "vis_m": 9999,
      "fzfg": false,
      "metar_trigger": false,
      "taf_trigger": false,
      "metar": "METAR LIPY 052320Z AUTO 28004KT 240V320 9999 -RA OVC019/// 03/02 Q1008 REDZ",
      "taf": "TAF LIPY 052300Z 0600/0624 VRB05KT 4000 RA BKN010"
    },
    {
      "icao": "LIPZ",
      "alert": "OK",
      "vis_m": 8000,
      "fzfg": false,
      "metar_trigger": false,
      "taf_trigger": false,
      "metar": "METAR LIPZ 052320Z 35006KT 8000 FEW070 01/M03 Q1009 NOSIG",
      "taf": "TAF LIPZ 052300Z 0600/0706 02008KT 9999 SCT070"
    },
    {
      "icao": "LIRF",
      "alert": "OK",
      "vis_m": 9999,
      "fzfg": false,
      "metar_trigger": false,
      "taf_trigger": false,
      "metar": "METAR LIRF 052320Z VRB02KT 9999 FEW020 SCT040 10/10 Q1003 NOSIG",
      "taf": "TAF LIRF 052300Z 0600/0706 05005KT 9999 SCT020"
    },
    {
      "icao": "LIRN",
      "alert": "OK",
      "vis_m": 9999,
      "fzfg": false,
      "metar_trigger": false,
      "taf_trigger": false,
      "metar": "METAR LIRN 052320Z 32002KT CAVOK 12/10 Q1003 NOSIG",
      "taf": "TAF LIRN 052300Z 0600/0624 VRB06KT 9999 SCT020 SCT050"
    },
    {
      "icao": "LIRP",
      "alert": "OK",
      "vis_m": 9999,
      "fzfg": false,
      "metar_trigger": false,
      "taf_trigger": false,
      "metar": "METAR LIRP 052315Z VRB02KT CAVOK 03/M01 Q1005 NOSIG",
      "taf": "TAF LIRP 052300Z 0600/0624 10006KT CAVOK"
    },
    {
      "icao": "LIRZ",
      "alert": "OK",
      "vis_m": 9999,
      "fzfg": false,
      "metar_trigger": false,
      "taf_trigger": false,
      "metar": "METAR LIRZ 052320Z AUTO 35007KT 9999 OVC018/// 05/04 Q1004",
      "taf": "TAF LIRZ 052300Z 0600/0624 02010KT 9999 BKN020"
    },
    {
      "icao": "LJLJ",
      "alert": "OK",
      "vis_m": 9999,
      "fzfg": false,
      "metar_trigger": false,
      "taf_trigger": false,
      "metar": "METAR LJLJ 052330Z VRB01KT 9999 BKN015 OVC055 M03/M04 Q1011 NOSIG",
      "taf": "TAF LJLJ 052300Z 0600/0700 VRB02KT 7000 -SN FEW004 BKN010 OVC055"
    },
    {
      "icao": "LKMT",
      "alert": "OK",
      "vis_m": 9999,
      "fzfg": false,
      "metar_trigger": false,
      "taf_trigger": false,
      "metar": "METAR LKMT 052330Z 26002KT CAVOK M04/M06 Q1012 NOSIG",
      "taf": "TAF LKMT 052300Z 0600/0624 VRB02KT CAVOK"
    },
    {
      "icao": "LKPR",
      "alert": "OK",
      "vis_m": 9999,
      "fzfg": false,
      "metar_trigger": false,
      "taf_trigger": false,
      "metar": "METAR LKPR 052330Z 20008KT CAVOK M08/M11 Q1012 NOSIG",
      "taf": "TAF LKPR 052300Z 0600/0706 23006KT CAVOK"
    },
    {
      "icao": "LLBG",
      "alert": "OK",
      "vis_m": 9999,
      "fzfg": false,
      "metar_trigger": false,
      "taf_trigger": false,
      "metar": "METAR LLBG 052320Z VRB03KT CAVOK 11/07 Q1019 NOSIG",
      "taf": "TAF LLBG 052322Z 0600/0624 13004KT CAVOK"
    },
    {
      "icao": "LMML",
      "alert": "OK",
      "vis_m": 8000,
      "fzfg": false,
      "metar_trigger": false,
      "taf_trigger": false,
      "metar": "METAR LMML 052345Z 20008KT 8000 NSC 16/14 Q1007 NOSIG",
      "taf": "TAF LMML 052300Z 0600/0624 20014KT 8000 FEW013"
    },
    {
      "icao": "LOWW",
      "alert": "OK",
      "vis_m": 9999,
      "fzfg": false,
      "metar_trigger": false,
      "taf_trigger": false,
      "metar": "METAR LOWW 052320Z 33010KT 9999 BKN050 M03/M09 Q1014 NOSIG",
      "taf": "TAF LOWW 052315Z 0600/0706 33010KT 9999 SCT050 TXM02/0613Z TNM05/0706Z"
    },
    {
      "icao": "LPFR",
      "alert": "OK",
      "vis_m": 9999,
      "fzfg": false,
      "metar_trigger": false,
      "taf_trigger": false,
      "metar": "METAR LPFR 052330Z 34008KT CAVOK 08/M03 Q1015",
      "taf": "TAF LPFR 052300Z 0600/0624 36008KT CAVOK"
    },
    {
      "icao": "LPMA",
      "alert": "OK",
      "vis_m": 9999,
      "fzfg": false,
      "metar_trigger": false,
      "taf_trigger": false,
      "metar": "METAR LPMA 052330Z 02016KT 350V050 9999 SCT015 FEW018TCU 15/06 Q1025",
      "taf": "TAF LPMA 052300Z 0600/0624 02017KT 9999 SCT015"
    },
    {
      "icao": "LPPR",
      "alert": "OK",
      "vis_m": 9999,
      "fzfg": false,
      "metar_trigger": false,
      "taf_trigger": false,
      "metar": "METAR LPPR 052330Z 34008KT CAVOK 06/02 Q1019",
      "taf": "TAF LPPR 052300Z 0600/0624 36010KT CAVOK"
    },
    {
      "icao": "LPPS",
      "alert": "OK",
      "vis_m": 9999,
      "fzfg": false,
      "metar_trigger": false,
      "taf_trigger": false,
      "metar": "METAR LPPS 052330Z 02017G28KT 360V060 9999 SCT015 SCT030 15/04 Q1025",
      "taf": "TAF LPPS 052300Z 0600/0706 04015KT 9999 SCT015 SCT030"
    },
    {
      "icao": "LPPT",
      "alert": "OK",
      "vis_m": 9999,
      "fzfg": false,
      "metar_trigger": false,
      "taf_trigger": false,
      "metar": "METAR LPPT 052330Z 34003KT 9999 FEW025 07/05 Q1017",
      "taf": "TAF LPPT 052300Z 0600/0706 36008KT 9999 FEW030"
    },
    {
      "icao": "LQBK",
      "alert": "OK",
      "vis_m": 9999,
      "fzfg": false,
      "metar_trigger": false,
      "taf_trigger": false,
      "metar": "METAR LQBK 052330Z 28007KT 9999 SCT017 OVC030 M01/M03 Q1012 NOSIG",
      "taf": "TAF LQBK 052300Z 0600/0624 33007KT 7000 -SN SCT010 OVC020 TXM00/0613Z TNM03/0605Z"
    },
    {
      "icao": "LQSA",
      "alert": "OK",
      "vis_m": 3000,
      "fzfg": false,
      "metar_trigger": false,
      "taf_trigger": false,
      "metar": "METAR LQSA 052330Z VRB02KT 3000 BR BKN007 OVC025 00/00 Q1007",
      "taf": "TAF LQSA 052300Z 0600/0624 29005KT 2500 -SN BKN010 OVC030 TX00/0600Z TNM04/0624Z"
    },
    {
      "icao": "LQTZ",
      "alert": "OK",
      "vis_m": 3500,
      "fzfg": false,
      "metar_trigger": false,
      "taf_trigger": false,
      "metar": "METAR LQTZ 052330Z 30005KT 3500 BR OVC004 M01/M01 Q1010",
      "taf": "TAF LQTZ 052300Z 0600/0624 30005KT 6000 SCT005 BKN015 OVC030 TXM00/0613Z TNM03/0605Z"
    },
    {
      "icao": "LRBC",
      "alert": "OK",
      "vis_m": 2000,
      "fzfg": false,
      "metar_trigger": false,
      "taf_trigger": false,
      "metar": "METAR LRBC 052330Z 14003KT 2000 BR OVC003 M00/M01 Q1013",
      "taf": "TAF LRBC 052300Z 0600/0609 VRB03KT 1500 BR BKN002 OVC005"
    },
    {
      "icao": "LRBS",
      "alert": "OK",
      "vis_m": 350,
      "fzfg": false,
      "metar_trigger": false,
      "taf_trigger": false,
      "metar": "METAR LRBS 052330Z 06005KT 0350 R07/1100N FG VV001 02/02 Q1013 NOSIG",
      "taf": "TAF LRBS 052300Z 0600/0624 05006KT 0600 FG VV001"
    },
    {
      "icao": "LRBV",
      "alert": "OK",
      "vis_m": 9999,
      "fzfg": false,
      "metar_trigger": false,
      "taf_trigger": false,
      "metar": "METAR LRBV 052330Z AUTO 14006KT 9999 BKN045/// OVC140/// 01/M00 Q1009",
      "taf": ""
    },
    {
      "icao": "LRCL",
      "alert": "OK",
      "vis_m": 9999,
      "fzfg": false,
      "metar_trigger": false,
      "taf_trigger": false,
      "metar": "METAR LRCL 052330Z 05007KT 9999 FEW045 BKN070 01/00 Q1008",
      "taf": "TAF LRCL 052300Z 0600/0609 VRB04KT 7000 BKN045"
    },
    {
      "icao": "LRCV",
      "alert": "OK",
      "vis_m": 300,
      "fzfg": false,
      "metar_trigger": false,
      "taf_trigger": false,
      "metar": "METAR LRCV 052330Z COR 08002KT 0300 R26/0450N -RA FG VV001 01/01 Q1013",
      "taf": "TAF LRCV 052300Z 0600/0609 07006KT 0350 FG VV001"
    },
    {
      "icao": "LRIA",
      "alert": "OK",
      "vis_m": 1000,
      "fzfg": false,
      "metar_trigger": false,
      "taf_trigger": false,
      "metar": "METAR LRIA 052330Z COR 11007KT 1000 0800 R14/1700D -DZ BCFG SCT001 OVC003 00/00 Q1013",
      "taf": "TAF LRIA 052300Z 0600/0609 12006KT 1500 DZ BR BKN002 OVC005"
    },
    {
      "icao": "LROP",
      "alert": "OK",
      "vis_m": 300,
      "fzfg": false,
      "metar_trigger": false,
      "taf_trigger": false,
      "metar": "METAR LROP 052330Z 10004KT 0300 R08R/0800N R08L/0800N FG VV002 02/02 Q1013 NOSIG",
      "taf": "TAF LROP 052300Z 0600/0624 05006KT 0600 FG VV001"
    },
    {
      "icao": "LRSB",
      "alert": "OK",
      "vis_m": 6000,
      "fzfg": false,
      "metar_trigger": false,
      "taf_trigger": false,
      "metar": "METAR LRSB 052330Z 25004KT 220V280 6000 FEW085 M01/M01 Q1008",
      "taf": "TAF LRSB 052300Z 0600/0624 VRB04KT 5000 BR SCT005 SCT060"
    },
    {
      "icao": "LRSM",
      "alert": "OK",
      "vis_m": 1700,
      "fzfg": false,
      "metar_trigger": false,
      "taf_trigger": false,
      "metar": "METAR LRSM 052330Z AUTO 00000KT 1700 R19/1800N -RA BKN035/// OVC042/// 01/00 Q1009",
      "taf": "TAF LRSM 051400Z 0515/0524 06006KT 9999 BKN035"
    },
    {
      "icao": "LRSV",
      "alert": "OK",
      "vis_m": 200,
      "fzfg": true,
      "metar_trigger": false,
      "taf_trigger": false,
      "metar": "METAR LRSV 052330Z 14015KT 0200 R34/0650N VV001 M02/M02 Q1010",
      "taf": "TAF LRSV 052300Z 0600/0609 13012KT 0300 FZFG VV001"
    },
    {
      "icao": "LRTM",
      "alert": "OK",
      "vis_m": 2900,
      "fzfg": false,
      "metar_trigger": false,
      "taf_trigger": false,
      "metar": "METAR LRTM 052330Z AUTO VRB01KT 2900 -RA OVC050/// 01/M00 Q1009",
      "taf": "TAF LRTM 051400Z 0515/0524 VRB04KT 3000 -RASN BR BKN010 OVC025"
    },
    {
      "icao": "LRTR",
      "alert": "OK",
      "vis_m": 3500,
      "fzfg": false,
      "metar_trigger": false,
      "taf_trigger": false,
      "metar": "METAR LRTR 052330Z 17004KT 3500 -DZ BR BKN004 OVC010 01/01 Q1009",
      "taf": ""
    },
    {
      "icao": "LTAC",
      "alert": "OK",
      "vis_m": 4100,
      "fzfg": false,
      "metar_trigger": false,
      "taf_trigger": false,
      "metar": "METAR LTAC 052320Z VRB02KT 4100 BR NSC M01/M01 Q1021 NOSIG RMK RWY21C 13002KT RWY03L 11003KT RWY21R 10002KT RWY03R 00000KT RWY21L 10002KT",
      "taf": "TAF LTAC 052240Z 0600/0624 VRB02KT 4000 BR NSC"
    },
    {
      "icao": "LTFM",
      "alert": "OK",
      "vis_m": 9999,
      "fzfg": false,
      "metar_trigger": false,
      "taf_trigger": false,
      "metar": "METAR LTFM 052320Z 19010KT 9999 SCT040 BKN100 13/06 Q1016 NOSIG RMK RWY17L 19013KT RWY34L 18011KT RWY16R 18013KT RWY36 18011KT RWY18 19014KT",
      "taf": "TAF LTFM 052240Z 0600/0706 19012KT 9999 SCT040 BKN100"
    },
    {
      "icao": "LUKK",
      "alert": "OK",
      "vis_m": 1100,
      "fzfg": true,
      "metar_trigger": false,
      "taf_trigger": false,
      "metar": "METAR LUKK 052330Z 09007KT 1100 0900SW R08/1000D -RA BR PRFG OVC002 00/00 Q1014 REFZRA TEMPO 0500 FZDZ FZFG VV001",
      "taf": "TAF LUKK 052329Z 0600/0624 12006KT 0600 FZRA FZFG OVC002"
    },
    {
      "icao": "LWOH",
      "alert": "OK",
      "vis_m": null,
      "fzfg": false,
      "metar_trigger": false,
      "taf_trigger": false,
      "metar": "",
      "taf": "TAF LWOH 052345Z 0600/0624 VRB02KT 9999 -RA SCT020 OVC040"
    },
    {
      "icao": "LWSK",
      "alert": "OK",
      "vis_m": null,
      "fzfg": false,
      "metar_trigger": false,
      "taf_trigger": false,
      "metar": "",
      "taf": "TAF LWSK 052345Z 0600/0624 13012KT 9999 SCT050 BKN070"
    },
    {
      "icao": "LYBE",
      "alert": "OK",
      "vis_m": 9999,
      "fzfg": false,
      "metar_trigger": false,
      "taf_trigger": false,
      "metar": "METAR LYBE 052330Z 27007KT 9999 -FZRA SCT004 BKN019 M00/M01 Q1010 NOSIG",
      "taf": "TAF LYBE 052300Z 0600/0624 27007KT 6000 BKN006 BKN025 TXM00/0612Z TNM03/0624Z"
    },
    {
      "icao": "LYNI",
      "alert": "OK",
      "vis_m": 9999,
      "fzfg": false,
      "metar_trigger": false,
      "taf_trigger": false,
      "metar": "METAR LYNI 052330Z VRB02KT 9999 -RA FEW040 OVC080 03/03 Q1008 NOSIG",
      "taf": "TAF LYNI 052300Z 0600/0624 05004KT 9999 BKN080 TX03/0600Z TN00/0624Z"
    },
    {
      "icao": "LYPG",
      "alert": "OK",
      "vis_m": 9999,
      "fzfg": false,
      "metar_trigger": false,
      "taf_trigger": false,
      "metar": "METAR LYPG 052330Z 15005KT 120V210 9999 -RA FEW024 BKN040 OVC070 11/10 Q1006 RERA NOSIG",
      "taf": "TAF LYPG 052300Z 0600/0624 14008KT 6000 RA FEW025 BKN040 OVC070 TX14/0613Z TN11/0605Z"
    },
    {
      "icao": "LZIB",
      "alert": "OK",
      "vis_m": 9999,
      "fzfg": false,
      "metar_trigger": false,
      "taf_trigger": false,
      "metar": "METAR LZIB 052330Z 30012KT 9999 FEW033 SCT048 M03/M07 Q1012 NOSIG",
      "taf": "TAF LZIB 052315Z 0600/0700 30013KT 9999 FEW039"
    },
    {
      "icao": "LZKZ",
      "alert": "OK",
      "vis_m": 2400,
      "fzfg": false,
      "metar_trigger": false,
      "taf_trigger": false,
      "metar": "METAR LZKZ 052330Z 04004KT 2400 SN BR OVC019 M02/M03 Q1009 TEMPO 1200 SN OVC013",
      "taf": "TAF LZKZ 052315Z 0600/0700 03006KT 9999 BKN036"
    },
    {
      "icao": "LZTT",
      "alert": "OK",
      "vis_m": 8000,
      "fzfg": false,
      "metar_trigger": false,
      "taf_trigger": false,
      "metar": "METAR LZTT 052330Z 28008KT 8000 -SN SCT026 BKN040 M06/M08 Q1007",
      "taf": "TAF LZTT 052315Z 0600/0700 VRB02KT 9999 FEW024 BKN040"
    },
    {
      "icao": "OEJN",
      "alert": "OK",
      "vis_m": 9999,
      "fzfg": false,
      "metar_trigger": false,
      "taf_trigger": false,
      "metar": "METAR OEJN 052300Z 00000KT CAVOK 25/16 Q1015 NOSIG",
      "taf": "TAF OEJN 052300Z 0600/0706 04005KT 6000 FEW030"
    },
    {
      "icao": "OEMA",
      "alert": "OK",
      "vis_m": 3000,
      "fzfg": false,
      "metar_trigger": false,
      "taf_trigger": false,
      "metar": "METAR OEMA 052300Z 04009KT 3000 DU NSC 20/M01 Q1022 NOSIG",
      "taf": "TAF OEMA 052300Z 0600/0706 09010KT 7000 NSC"
    },
    {
      "icao": "OJAI",
      "alert": "OK",
      "vis_m": 5000,
      "fzfg": false,
      "metar_trigger": false,
      "taf_trigger": false,
      "metar": "METAR OJAI 052300Z 05005KT 5000 HZ NSC 07/01 Q1023 NOSIG",
      "taf": "TAF OJAI 052250Z 0600/0706 VRB02KT 5000 HZ NSC"
    },
    {
      "icao": "OMAA",
      "alert": "OK",
      "vis_m": 9999,
      "fzfg": false,
      "metar_trigger": false,
      "taf_trigger": false,
      "metar": "METAR OMAA 052300Z VRB04KT CAVOK 20/14 Q1019 NOSIG",
      "taf": "TAF OMAA 052300Z 0600/0706 05005KT 8000 FEW025"
    },
    {
      "icao": "OMDB",
      "alert": "OK",
      "vis_m": 9999,
      "fzfg": false,
      "metar_trigger": false,
      "taf_trigger": false,
      "metar": "METAR OMDB 052300Z 06003KT 020V100 CAVOK 19/11 Q1019 NOSIG",
      "taf": "TAF OMDB 052300Z 0600/0706 08007KT 8000 NSC"
    },
    {
      "icao": "UAAA",
      "alert": "OK",
      "vis_m": 4000,
      "fzfg": false,
      "metar_trigger": false,
      "taf_trigger": false,
      "metar": "METAR UAAA 052330Z 17001MPS 4000 BR SCT100 M03/M05 Q1034 NOSIG",
      "taf": "TAF UAAA 052301Z 0600/0624 06003MPS 3100 BR FU BKN011 OVC030 TX01/0609Z TNM03/0602Z"
    },
    {
      "icao": "UBBB",
      "alert": "OK",
      "vis_m": 50,
      "fzfg": false,
      "metar_trigger": false,
      "taf_trigger": false,
      "metar": "METAR UBBB 052330Z 30004KT 0050 R34/0350 R35/0300 FG BKN001 04/04 Q1025 NOSIG",
      "taf": "TAF UBBB 052309Z 0600/0624 30006KT 0200 FG BKN001 TX12/0610Z TN02/0602Z"
    },
    {
      "icao": "UDSG",
      "alert": "OK",
      "vis_m": 6000,
      "fzfg": false,
      "metar_trigger": false,
      "taf_trigger": false,
      "metar": "METAR UDSG 052330Z 06003KT 6000 NSC M20/M22 Q1030 NOSIG",
      "taf": "TAF UDSG 052300Z 0600/0624 VRB06KT 5000 BR FEW040"
    },
    {
      "icao": "UDYZ",
      "alert": "OK",
      "vis_m": 2500,
      "fzfg": false,
      "metar_trigger": false,
      "taf_trigger": false,
      "metar": "METAR UDYZ 052330Z 00000KT 2500 BR NSC M12/M14 Q1033 NOSIG",
      "taf": "TAF UDYZ 052300Z 0600/0624 VRB04KT 2300 BR NSC"
    },
    {
      "icao": "UGKO",
      "alert": "OK",
      "vis_m": 9999,
      "fzfg": false,
      "metar_trigger": false,
      "taf_trigger": false,
      "metar": "METAR UGKO 052330Z 09008KT CAVOK 04/00 Q1021 NOSIG",
      "taf": "TAF UGKO 052300Z 0600/0624 08007KT CAVOK TX16/0611Z TN03/0600Z"
    }
  ]
}