{
  "ts_utc": "2026-03-23T21:30:09Z",
  "threshold_m": 150,
  "source": "stations_override.txt (ICAO list) + aviationweather.gov (METAR/TAF raw)",
  "station_count": 159,
  "stations": [
    {
      "icao": "BIKF",
      "alert": "OK",
      "vis_m": 9999,
      "fzfg": false,
      "metar_trigger": false,
      "taf_trigger": false,
      "metar": "METAR BIKF 232100Z 01025KT 9999 DRSN SCT032 BKN078 M01/M03 Q0976",
      "taf": "TAF BIKF 231959Z 2321/2421 02023G33KT 9999 SCT010 BKN025 TX00/2414Z TNM03/2421Z"
    },
    {
      "icao": "BKPR",
      "alert": "OK",
      "vis_m": null,
      "fzfg": false,
      "metar_trigger": false,
      "taf_trigger": false,
      "metar": "",
      "taf": "TAF BKPR 231730Z 2318/2418 02010KT 9999 BKN050"
    },
    {
      "icao": "EBCI",
      "alert": "OK",
      "vis_m": 8000,
      "fzfg": false,
      "metar_trigger": false,
      "taf_trigger": false,
      "metar": "METAR EBCI 232120Z 18004KT 8000 NSC 08/04 Q1021 NOSIG",
      "taf": "TAF EBCI 231706Z 2318/2424 30004KT 9999 FEW045"
    },
    {
      "icao": "EDDB",
      "alert": "OK",
      "vis_m": 9999,
      "fzfg": false,
      "metar_trigger": false,
      "taf_trigger": false,
      "metar": "METAR EDDB 232120Z AUTO 18002KT CAVOK 06/M00 Q1019 NOSIG",
      "taf": "TAF EDDB 231700Z 2318/2418 28004KT CAVOK"
    },
    {
      "icao": "EDDH",
      "alert": "OK",
      "vis_m": 9999,
      "fzfg": false,
      "metar_trigger": false,
      "taf_trigger": false,
      "metar": "METAR EDDH 232120Z AUTO VRB02KT 9999 3600 BR NSC 05/03 Q1019 BECMG 4500 BR",
      "taf": "TAF EDDH 231700Z 2318/2424 30006KT CAVOK"
    },
    {
      "icao": "EDDK",
      "alert": "OK",
      "vis_m": 9999,
      "fzfg": false,
      "metar_trigger": false,
      "taf_trigger": false,
      "metar": "METAR EDDK 232120Z AUTO 06002KT CAVOK 07/01 Q1021 NOSIG",
      "taf": "TAF EDDK 231700Z 2318/2424 28005KT CAVOK"
    },
    {
      "icao": "EDDN",
      "alert": "OK",
      "vis_m": 9999,
      "fzfg": false,
      "metar_trigger": false,
      "taf_trigger": false,
      "metar": "METAR EDDN 232120Z AUTO VRB02KT CAVOK 04/M01 Q1021",
      "taf": "TAF EDDN 231700Z 2318/2418 VRB03KT CAVOK"
    },
    {
      "icao": "EDDS",
      "alert": "OK",
      "vis_m": 9999,
      "fzfg": false,
      "metar_trigger": false,
      "taf_trigger": false,
      "metar": "METAR EDDS 232120Z AUTO 20001KT CAVOK 04/M01 Q1021",
      "taf": "TAF EDDS 231700Z 2318/2418 02005KT CAVOK"
    },
    {
      "icao": "EDFH",
      "alert": "OK",
      "vis_m": 9999,
      "fzfg": false,
      "metar_trigger": false,
      "taf_trigger": false,
      "metar": "METAR EDFH 232120Z 06003KT CAVOK 09/M03 Q1021",
      "taf": "TAF EDFH 231700Z 2318/2418 30005KT CAVOK"
    },
    {
      "icao": "EDJA",
      "alert": "OK",
      "vis_m": 9999,
      "fzfg": false,
      "metar_trigger": false,
      "taf_trigger": false,
      "metar": "METAR EDJA 232050Z COR 17003KT 140V200 CAVOK 03/M00 Q1021",
      "taf": "TAF EDJA 231700Z 2318/2403 VRB03KT CAVOK"
    },
    {
      "icao": "EDLW",
      "alert": "OK",
      "vis_m": 9999,
      "fzfg": false,
      "metar_trigger": false,
      "taf_trigger": false,
      "metar": "METAR EDLW 232120Z 16006KT CAVOK 08/02 Q1020",
      "taf": "TAF EDLW 231700Z 2318/2418 VRB03KT CAVOK"
    },
    {
      "icao": "EDNY",
      "alert": "OK",
      "vis_m": 9999,
      "fzfg": false,
      "metar_trigger": false,
      "taf_trigger": false,
      "metar": "METAR EDNY 232120Z AUTO 06003KT 9999 // NCD 02/01 Q1021",
      "taf": "TAF EDNY 231700Z 2318/2403 VRB03KT CAVOK"
    },
    {
      "icao": "EDSB",
      "alert": "OK",
      "vis_m": 9999,
      "fzfg": false,
      "metar_trigger": false,
      "taf_trigger": false,
      "metar": "METAR EDSB 232120Z VRB02KT CAVOK 06/01 Q1021",
      "taf": "TAF EDSB 231700Z 2318/2418 VRB03KT CAVOK"
    },
    {
      "icao": "EETN",
      "alert": "OK",
      "vis_m": 9999,
      "fzfg": false,
      "metar_trigger": false,
      "taf_trigger": false,
      "metar": "METAR EETN 232120Z 25008KT CAVOK 03/01 Q1011 NOSIG",
      "taf": "TAF EETN 231730Z 2318/2418 21008KT CAVOK"
    },
    {
      "icao": "EFTU",
      "alert": "OK",
      "vis_m": 9999,
      "fzfg": false,
      "metar_trigger": false,
      "taf_trigger": false,
      "metar": "METAR EFTU 232120Z AUTO 27004KT CAVOK 00/M01 Q1009",
      "taf": "TAF EFTU 232027Z 2321/2421 25005KT CAVOK"
    },
    {
      "icao": "EGBB",
      "alert": "OK",
      "vis_m": 9999,
      "fzfg": false,
      "metar_trigger": false,
      "taf_trigger": false,
      "metar": "METAR EGBB 232120Z 21005KT 180V250 CAVOK 10/06 Q1018",
      "taf": "TAF EGBB 231656Z 2318/2418 22006KT 9999 FEW035"
    },
    {
      "icao": "EGGP",
      "alert": "OK",
      "vis_m": 9999,
      "fzfg": false,
      "metar_trigger": false,
      "taf_trigger": false,
      "metar": "METAR EGGP 232120Z 20005KT 160V220 CAVOK 10/05 Q1016",
      "taf": "TAF EGGP 231655Z 2318/2418 22008KT 9999 FEW030"
    },
    {
      "icao": "EGGW",
      "alert": "OK",
      "vis_m": 9000,
      "fzfg": false,
      "metar_trigger": false,
      "taf_trigger": false,
      "metar": "METAR EGGW 232120Z AUTO 22008KT 9000 NCD 10/06 Q1019",
      "taf": "TAF EGGW 231658Z 2318/2418 22008KT 9999 SCT030"
    },
    {
      "icao": "EGKK",
      "alert": "OK",
      "vis_m": 5000,
      "fzfg": false,
      "metar_trigger": false,
      "taf_trigger": false,
      "metar": "METAR EGKK 232120Z 22004KT 5000 HZ NSC 09/07 Q1020",
      "taf": "TAF EGKK 231654Z 2318/2424 21008KT 9999 FEW030"
    },
    {
      "icao": "EGNM",
      "alert": "OK",
      "vis_m": 9999,
      "fzfg": false,
      "metar_trigger": false,
      "taf_trigger": false,
      "metar": "METAR EGNM 232120Z 23010KT CAVOK 09/04 Q1014",
      "taf": "TAF EGNM 231701Z 2318/2418 21008KT 9999 SCT025"
    },
    {
      "icao": "EGPD",
      "alert": "OK",
      "vis_m": 9999,
      "fzfg": false,
      "metar_trigger": false,
      "taf_trigger": false,
      "metar": "METAR EGPD 232120Z AUTO 21021KT 9999 SCT015 09/05 Q1003 TEMPO BKN014",
      "taf": ""
    },
    {
      "icao": "EGPF",
      "alert": "OK",
      "vis_m": 3600,
      "fzfg": false,
      "metar_trigger": false,
      "taf_trigger": false,
      "metar": "METAR EGPF 232120Z AUTO 21022KT 3600 RA BKN018/// BKN037/// BKN045/// //////TCU 10/08 Q1007",
      "taf": ""
    },
    {
      "icao": "EHBK",
      "alert": "OK",
      "vis_m": 9999,
      "fzfg": false,
      "metar_trigger": false,
      "taf_trigger": false,
      "metar": "METAR EHBK 232125Z AUTO 22004KT 9999 NSC 08/02 Q1021 NOSIG",
      "taf": "TAF EHBK 231717Z 2318/2424 27004KT CAVOK"
    },
    {
      "icao": "EHEH",
      "alert": "OK",
      "vis_m": 7000,
      "fzfg": false,
      "metar_trigger": false,
      "taf_trigger": false,
      "metar": "METAR EHEH 232055Z AUTO 25001KT 7000 BR OVC140 05/04 Q1021 WHT NOSIG RMK TREND REMOTE BY EHWX",
      "taf": "TAF EHEH 231758Z 2318/2424 29003KT CAVOK"
    },
    {
      "icao": "EKBI",
      "alert": "OK",
      "vis_m": 9999,
      "fzfg": false,
      "metar_trigger": false,
      "taf_trigger": false,
      "metar": "METAR EKBI 232120Z AUTO 16002KT 9999 FEW048/// OVC130/// 03/01 Q1017",
      "taf": "TAF EKBI 232027Z 2321/2421 30003KT CAVOK"
    },
    {
      "icao": "EKCH",
      "alert": "OK",
      "vis_m": 8000,
      "fzfg": false,
      "metar_trigger": false,
      "taf_trigger": false,
      "metar": "METAR EKCH 232120Z AUTO 18002KT 8000 BKN130/// 04/03 Q1018 NOSIG",
      "taf": "TAF EKCH 232027Z 2321/2421 18004KT 9000 NSC"
    },
    {
      "icao": "ENAL",
      "alert": "OK",
      "vis_m": 9999,
      "fzfg": false,
      "metar_trigger": false,
      "taf_trigger": false,
      "metar": "METAR ENAL 232120Z 19009KT 9999 SCT042 BKN053 04/M00 Q1003",
      "taf": "TAF ENAL 232000Z 2321/2406 18010KT 9999 FEW015 BKN030"
    },
    {
      "icao": "ENBR",
      "alert": "OK",
      "vis_m": 9999,
      "fzfg": false,
      "metar_trigger": false,
      "taf_trigger": false,
      "metar": "METAR ENBR 232120Z 17020KT 9999 -SHRA FEW005 BKN015 03/01 Q1008 RMK WIND 1200FT 17023KT",
      "taf": "TAF ENBR 231700Z 2318/2418 18012KT 9999 FEW030 SCT040"
    },
    {
      "icao": "ENGM",
      "alert": "OK",
      "vis_m": 9999,
      "fzfg": false,
      "metar_trigger": false,
      "taf_trigger": false,
      "metar": "METAR ENGM 232120Z 18007KT CAVOK 03/M07 Q1010 NOSIG",
      "taf": "TAF ENGM 231700Z 2318/2418 23008KT CAVOK"
    },
    {
      "icao": "ENHD",
      "alert": "OK",
      "vis_m": 9999,
      "fzfg": false,
      "metar_trigger": false,
      "taf_trigger": false,
      "metar": "METAR ENHD 232120Z 16011KT 9999 -RA SCT008 BKN011 BKN016 04/03 Q1010",
      "taf": "TAF ENHD 231400Z 2315/2323 21008KT 9999 SCT025"
    },
    {
      "icao": "ENTC",
      "alert": "OK",
      "vis_m": 9999,
      "fzfg": false,
      "metar_trigger": false,
      "taf_trigger": false,
      "metar": "METAR ENTC 232120Z 23016KT 9999 SCT047 02/M05 Q0990 TEMPO 2000 SHSNRAGS BKN009 SCT020CB RMK WIND 2600FT 24021KT",
      "taf": ""
    },
    {
      "icao": "ENTO",
      "alert": "OK",
      "vis_m": 9999,
      "fzfg": false,
      "metar_trigger": false,
      "taf_trigger": false,
      "metar": "METAR ENTO 232120Z AUTO 24006KT 9999 NCD 05/M04 Q1012",
      "taf": "TAF ENTO 231700Z 2318/2418 23008KT CAVOK"
    },
    {
      "icao": "ENVA",
      "alert": "OK",
      "vis_m": 9999,
      "fzfg": false,
      "metar_trigger": false,
      "taf_trigger": false,
      "metar": "METAR ENVA 232120Z 25008KT 9999 BKN043 BKN052 04/M04 Q1005 RMK WIND 670FT 25012KT",
      "taf": "TAF ENVA 231700Z 2318/2418 24015KT 9999 FEW020 SCT040"
    },
    {
      "icao": "ENZV",
      "alert": "OK",
      "vis_m": 9999,
      "fzfg": false,
      "metar_trigger": false,
      "taf_trigger": false,
      "metar": "METAR ENZV 232120Z 15010KT 9999 -RA FEW015 BKN032 04/02 Q1011",
      "taf": "TAF ENZV 231700Z 2318/2418 22008KT 9999 SCT030"
    },
    {
      "icao": "EPGD",
      "alert": "OK",
      "vis_m": 9999,
      "fzfg": false,
      "metar_trigger": false,
      "taf_trigger": false,
      "metar": "METAR EPGD 232100Z 25004KT CAVOK 05/M00 Q1018",
      "taf": "TAF EPGD 231730Z 2318/2418 VRB02KT CAVOK"
    },
    {
      "icao": "EPKK",
      "alert": "OK",
      "vis_m": 9999,
      "fzfg": false,
      "metar_trigger": false,
      "taf_trigger": false,
      "metar": "METAR EPKK 232100Z VRB01KT CAVOK 07/M02 Q1018",
      "taf": "TAF EPKK 232030Z 2321/2421 VRB02KT CAVOK"
    },
    {
      "icao": "EPKT",
      "alert": "OK",
      "vis_m": 9999,
      "fzfg": false,
      "metar_trigger": false,
      "taf_trigger": false,
      "metar": "METAR EPKT 232100Z 22001KT CAVOK 02/M02 Q1019",
      "taf": "TAF EPKT 231730Z 2318/2418 33004KT CAVOK"
    },
    {
      "icao": "EPLB",
      "alert": "OK",
      "vis_m": 9999,
      "fzfg": false,
      "metar_trigger": false,
      "taf_trigger": false,
      "metar": "METAR EPLB 232100Z 28004KT CAVOK 02/M03 Q1018",
      "taf": "TAF EPLB 231730Z 2318/2418 VRB02KT CAVOK"
    },
    {
      "icao": "EPMO",
      "alert": "OK",
      "vis_m": 9999,
      "fzfg": false,
      "metar_trigger": false,
      "taf_trigger": false,
      "metar": "METAR EPMO 232100Z VRB01KT CAVOK 06/M02 Q1018",
      "taf": "TAF EPMO 231730Z 2318/2418 VRB03KT CAVOK"
    },
    {
      "icao": "EPPO",
      "alert": "OK",
      "vis_m": 4100,
      "fzfg": false,
      "metar_trigger": false,
      "taf_trigger": false,
      "metar": "METAR EPPO 232100Z 28001KT 4100 BR NSC 04/M00 Q1019",
      "taf": "TAF EPPO 231730Z 2318/2418 VRB02KT CAVOK"
    },
    {
      "icao": "EPRA",
      "alert": "OK",
      "vis_m": 9999,
      "fzfg": false,
      "metar_trigger": false,
      "taf_trigger": false,
      "metar": "METAR EPRA 232100Z 19003KT CAVOK 06/M02 Q1019",
      "taf": "TAF EPRA 232030Z 2321/2406 VRB02KT CAVOK"
    },
    {
      "icao": "EPRZ",
      "alert": "OK",
      "vis_m": 9999,
      "fzfg": false,
      "metar_trigger": false,
      "taf_trigger": false,
      "metar": "METAR EPRZ 232100Z 28003KT CAVOK 04/M02 Q1018",
      "taf": "TAF EPRZ 231703Z 2318/2418 02004KT CAVOK"
    },
    {
      "icao": "EPSC",
      "alert": "OK",
      "vis_m": 9999,
      "fzfg": false,
      "metar_trigger": false,
      "taf_trigger": false,
      "metar": "METAR EPSC 232100Z 12002KT CAVOK 04/M01 Q1019",
      "taf": "TAF EPSC 231730Z 2318/2418 VRB02KT CAVOK"
    },
    {
      "icao": "EPSY",
      "alert": "OK",
      "vis_m": 9999,
      "fzfg": false,
      "metar_trigger": false,
      "taf_trigger": false,
      "metar": "METAR EPSY 232100Z 22002KT CAVOK 02/M02 Q1018",
      "taf": "TAF EPSY 232030Z 2321/2406 VRB02KT CAVOK"
    },
    {
      "icao": "EPWA",
      "alert": "OK",
      "vis_m": 9999,
      "fzfg": false,
      "metar_trigger": false,
      "taf_trigger": false,
      "metar": "METAR EPWA 232100Z 00000KT CAVOK 05/M03 Q1018 NOSIG",
      "taf": "TAF EPWA 232030Z 2321/2421 VRB03KT CAVOK"
    },
    {
      "icao": "EPWR",
      "alert": "OK",
      "vis_m": 9999,
      "fzfg": false,
      "metar_trigger": false,
      "taf_trigger": false,
      "metar": "METAR EPWR 232100Z 24002KT CAVOK 06/02 Q1019",
      "taf": "TAF EPWR 232030Z 2321/2421 25002KT CAVOK"
    },
    {
      "icao": "ESGG",
      "alert": "OK",
      "vis_m": 9999,
      "fzfg": false,
      "metar_trigger": false,
      "taf_trigger": false,
      "metar": "METAR ESGG 232120Z 20006KT CAVOK 01/M00 Q1015",
      "taf": "TAF ESGG 232030Z 2321/2421 20008KT CAVOK"
    },
    {
      "icao": "ESKN",
      "alert": "OK",
      "vis_m": 9999,
      "fzfg": false,
      "metar_trigger": false,
      "taf_trigger": false,
      "metar": "METAR ESKN 232120Z 25008KT CAVOK 01/M03 Q1013",
      "taf": "TAF ESKN 232030Z 2321/2421 26012KT CAVOK"
    },
    {
      "icao": "ESMS",
      "alert": "OK",
      "vis_m": 9999,
      "fzfg": false,
      "metar_trigger": false,
      "taf_trigger": false,
      "metar": "METAR ESMS 232120Z 00000KT CAVOK 01/00 Q1017",
      "taf": "TAF ESMS 232027Z 2321/2421 30005KT CAVOK"
    },
    {
      "icao": "ESSA",
      "alert": "OK",
      "vis_m": 9999,
      "fzfg": false,
      "metar_trigger": false,
      "taf_trigger": false,
      "metar": "METAR ESSA 232120Z 25007KT CAVOK 03/M03 Q1011 NOSIG",
      "taf": "TAF ESSA 232030Z 2321/2421 24012KT CAVOK"
    },
    {
      "icao": "EYKA",
      "alert": "OK",
      "vis_m": 9999,
      "fzfg": false,
      "metar_trigger": false,
      "taf_trigger": false,
      "metar": "METAR EYKA 232120Z 21004KT 180V240 CAVOK 05/M02 Q1017",
      "taf": "TAF EYKA 231700Z 2318/2418 VRB04KT 9000 NSC"
    },
    {
      "icao": "EYPA",
      "alert": "OK",
      "vis_m": 9999,
      "fzfg": false,
      "metar_trigger": false,
      "taf_trigger": false,
      "metar": "METAR EYPA 232120Z 21004KT 190V260 CAVOK 02/M00 Q1016",
      "taf": "TAF EYPA 231700Z 2318/2418 VRB03KT 8000 NSC"
    },
    {
      "icao": "EYVI",
      "alert": "OK",
      "vis_m": 9999,
      "fzfg": false,
      "metar_trigger": false,
      "taf_trigger": false,
      "metar": "METAR EYVI 232120Z 16004KT CAVOK 05/M01 Q1017 NOSIG",
      "taf": "TAF EYVI 231700Z 2318/2418 VRB05KT 9000 NSC"
    },
    {
      "icao": "GCFV",
      "alert": "OK",
      "vis_m": 9999,
      "fzfg": false,
      "metar_trigger": false,
      "taf_trigger": false,
      "metar": "METAR GCFV 232100Z 11004KT 9999 SCT025 18/17 Q1010",
      "taf": "TAF GCFV 232000Z 2321/2421 22004KT 9999 SCT020 TX22/2414Z TN16/2406Z"
    },
    {
      "icao": "GCLP",
      "alert": "OK",
      "vis_m": 9999,
      "fzfg": false,
      "metar_trigger": false,
      "taf_trigger": false,
      "metar": "METAR GCLP 232100Z VRB02KT 9999 SCT016 BKN040 18/16 Q1009 NOSIG",
      "taf": "TAF GCLP 232000Z 2321/2421 22005KT 9999 SCT025 TX22/2414Z TN15/2406Z"
    },
    {
      "icao": "GCTS",
      "alert": "OK",
      "vis_m": 9999,
      "fzfg": false,
      "metar_trigger": false,
      "taf_trigger": false,
      "metar": "METAR GCTS 232100Z 09003KT 9999 SCT020 BKN120 18/15 Q1008 NOSIG",
      "taf": "TAF GCTS 232000Z 2321/2421 04005KT 9999 SCT020 BKN040 TX22/2414Z TN15/2406Z"
    },
    {
      "icao": "GMAD",
      "alert": "OK",
      "vis_m": 9999,
      "fzfg": false,
      "metar_trigger": false,
      "taf_trigger": false,
      "metar": "METAR GMAD 232100Z 15005KT 9999 FEW030 16/14 Q1011 NOSIG",
      "taf": "TAF GMAD 231700Z 2318/2424 20008KT 8000 SCT020TCU SCT080"
    },
    {
      "icao": "GMMN",
      "alert": "OK",
      "vis_m": 4000,
      "fzfg": false,
      "metar_trigger": false,
      "taf_trigger": false,
      "metar": "SPECI GMMN 232115Z 03006KT 4000 BR BKN001 14/12 Q1014 BECMG 0800 FG",
      "taf": "TAF GMMN 231700Z 2318/2424 36010KT 9999 SCT020"
    },
    {
      "icao": "GMMX",
      "alert": "OK",
      "vis_m": 8000,
      "fzfg": false,
      "metar_trigger": false,
      "taf_trigger": false,
      "metar": "METAR GMMX 232100Z 22006KT 8000 TS BKN020 SCT030CB 14/12 Q1014 RERA NOSIG",
      "taf": "TAF GMMX 231700Z 2318/2424 06006KT 8000 BKN023 FEW030CB"
    },
    {
      "icao": "HEGN",
      "alert": "OK",
      "vis_m": 9999,
      "fzfg": false,
      "metar_trigger": false,
      "taf_trigger": false,
      "metar": "METAR HEGN 232100Z 30008KT CAVOK 20/02 Q1008 NOSIG",
      "taf": "TAF HEGN 231700Z 2318/2424 31010KT 9999 SCT025"
    },
    {
      "icao": "HEMA",
      "alert": "OK",
      "vis_m": 9999,
      "fzfg": false,
      "metar_trigger": false,
      "taf_trigger": false,
      "metar": "METAR HEMA 232100Z 30010KT CAVOK 20/15 Q1008 NOSIG",
      "taf": "TAF HEMA 231700Z 2318/2424 35010KT 9999 SCT025"
    },
    {
      "icao": "HESH",
      "alert": "OK",
      "vis_m": 9999,
      "fzfg": false,
      "metar_trigger": false,
      "taf_trigger": false,
      "metar": "METAR HESH 232100Z 31002KT CAVOK 20/11 Q1008 NOSIG",
      "taf": "TAF HESH 231700Z 2318/2424 32010KT 9999 SCT025"
    },
    {
      "icao": "HESX",
      "alert": "OK",
      "vis_m": 9999,
      "fzfg": false,
      "metar_trigger": false,
      "taf_trigger": false,
      "metar": "METAR HESX 232100Z 06007KT CAVOK 14/10 Q1010 NOSIG",
      "taf": "TAF HESX 231700Z 2318/2424 30010KT 9999 SCT020"
    },
    {
      "icao": "LATI",
      "alert": "OK",
      "vis_m": 9999,
      "fzfg": false,
      "metar_trigger": false,
      "taf_trigger": false,
      "metar": "METAR LATI 232120Z 18003KT 9999 BKN100 09/06 Q1014 NOSIG",
      "taf": "TAF LATI 231700Z 2318/2418 VRB05KT 9999 SCT080 TX19/2412Z TN06/2404Z"
    },
    {
      "icao": "LBPD",
      "alert": "OK",
      "vis_m": 9999,
      "fzfg": false,
      "metar_trigger": false,
      "taf_trigger": false,
      "metar": "METAR LBPD 232100Z AUTO 13006KT 9999 -RA SCT031/// OVC039/// 07/07 Q1016",
      "taf": "TAF LBPD 231700Z 2318/2418 09010KT 9999 SCT030 OVC050"
    },
    {
      "icao": "LBSF",
      "alert": "OK",
      "vis_m": 9999,
      "fzfg": false,
      "metar_trigger": false,
      "taf_trigger": false,
      "metar": "METAR LBSF 232100Z AUTO 36004KT 9999 BKN033/// 05/02 Q1016 NOSIG",
      "taf": "TAF LBSF 231700Z 2318/2418 03010KT 9999 BKN025 BKN040"
    },
    {
      "icao": "LBWN",
      "alert": "OK",
      "vis_m": 9999,
      "fzfg": false,
      "metar_trigger": false,
      "taf_trigger": false,
      "metar": "METAR LBWN 232100Z AUTO VRB02KT 9999 NSC 07/03 Q1014 NOSIG",
      "taf": "TAF LBWN 231700Z 2318/2418 02010KT 9999 OVC045"
    },
    {
      "icao": "LCLK",
      "alert": "OK",
      "vis_m": 9999,
      "fzfg": false,
      "metar_trigger": false,
      "taf_trigger": false,
      "metar": "METAR LCLK 232100Z 31005KT 9999 FEW030 SCT060 10/10 Q1009 NOSIG",
      "taf": "TAF LCLK 231730Z 2318/2418 31006KT 9999 FEW025 SCT045"
    },
    {
      "icao": "LCPH",
      "alert": "OK",
      "vis_m": 9999,
      "fzfg": false,
      "metar_trigger": false,
      "taf_trigger": false,
      "metar": "METAR LCPH 232100Z 05006KT 010V080 9999 FEW050 12/10 Q1009 NOSIG",
      "taf": "TAF LCPH 231730Z 2318/2418 04007KT 9999 FEW025 SCT035"
    },
    {
      "icao": "LEAL",
      "alert": "OK",
      "vis_m": 9999,
      "fzfg": false,
      "metar_trigger": false,
      "taf_trigger": false,
      "metar": "METAR LEAL 232100Z 06007KT CAVOK 14/09 Q1021 NOSIG",
      "taf": "TAF LEAL 231700Z 2318/2418 08012KT 9999 FEW040 TX18/2412Z TN08/2406Z"
    },
    {
      "icao": "LEBB",
      "alert": "OK",
      "vis_m": 9999,
      "fzfg": false,
      "metar_trigger": false,
      "taf_trigger": false,
      "metar": "METAR LEBB 232100Z VRB02KT CAVOK 09/08 Q1023 NOSIG",
      "taf": "TAF LEBB 231700Z 2318/2418 10006KT 9000 FEW020 SCT030 TX20/2414Z TN04/2406Z"
    },
    {
      "icao": "LEBL",
      "alert": "OK",
      "vis_m": 9999,
      "fzfg": false,
      "metar_trigger": false,
      "taf_trigger": false,
      "metar": "METAR LEBL 232100Z 00000KT 9999 FEW050 14/09 Q1022 NOSIG",
      "taf": "TAF LEBL 231700Z 2318/2418 09012KT 9999 FEW020 TX18/2412Z TN09/2406Z"
    },
    {
      "icao": "LECH",
      "alert": "OK",
      "vis_m": 8000,
      "fzfg": false,
      "metar_trigger": false,
      "taf_trigger": false,
      "metar": "METAR LECH 232100Z AUTO 22003KT 8000 NCD 07/06 Q1022",
      "taf": "TAF LECH 231700Z 2318/2418 VRB04KT 9999 FEW020 TX19/2413Z TN04/2406Z"
    },
    {
      "icao": "LEMD",
      "alert": "OK",
      "vis_m": 9999,
      "fzfg": false,
      "metar_trigger": false,
      "taf_trigger": false,
      "metar": "METAR LEMD 232100Z 05006KT 310V100 CAVOK 12/01 Q1019 NOSIG",
      "taf": "TAF LEMD 231700Z 2318/2424 VRB04KT CAVOK TX18/2416Z TN02/2406Z"
    },
    {
      "icao": "LEMG",
      "alert": "OK",
      "vis_m": 9999,
      "fzfg": false,
      "metar_trigger": false,
      "taf_trigger": false,
      "metar": "METAR LEMG 232100Z 10005KT 050V130 9999 SCT015 BKN030 15/12 Q1019 NOSIG",
      "taf": "TAF LEMG 231700Z 2318/2418 13009KT 9999 FEW040 TX18/2413Z TN11/2406Z"
    },
    {
      "icao": "LEVC",
      "alert": "OK",
      "vis_m": 9999,
      "fzfg": false,
      "metar_trigger": false,
      "taf_trigger": false,
      "metar": "METAR LEVC 232100Z VRB03KT 9999 BKN027 12/08 Q1022 NOSIG",
      "taf": "TAF LEVC 231700Z 2318/2418 06008KT 9999 FEW020 TX20/2412Z TN06/2406Z"
    },
    {
      "icao": "LEXJ",
      "alert": "OK",
      "vis_m": 8000,
      "fzfg": false,
      "metar_trigger": false,
      "taf_trigger": false,
      "metar": "METAR LEXJ 232100Z 10004KT 8000 NSC 10/07 Q1023",
      "taf": "TAF LEXJ 232000Z 2321/2421 VRB03KT 7000 FEW025 TX19/2413Z TN03/2406Z"
    },
    {
      "icao": "LEZG",
      "alert": "OK",
      "vis_m": 9999,
      "fzfg": false,
      "metar_trigger": false,
      "taf_trigger": false,
      "metar": "METAR LEZG 232100Z 26006KT CAVOK 11/04 Q1020 NOSIG",
      "taf": "TAF LEZG 231700Z 2318/2418 30010KT CAVOK TX21/2414Z TN05/2406Z"
    },
    {
      "icao": "LEZL",
      "alert": "OK",
      "vis_m": 9999,
      "fzfg": false,
      "metar_trigger": false,
      "taf_trigger": false,
      "metar": "METAR LEZL 232100Z 18008KT 150V210 CAVOK 18/14 Q1015 NOSIG",
      "taf": "TAF LEZL 232000Z 2321/2421 07008KT CAVOK TX23/2415Z TN12/2407Z"
    },
    {
      "icao": "LFBD",
      "alert": "OK",
      "vis_m": 9999,
      "fzfg": false,
      "metar_trigger": false,
      "taf_trigger": false,
      "metar": "METAR LFBD 232100Z AUTO 34006KT CAVOK 11/06 Q1023 NOSIG",
      "taf": "TAF LFBD 231700Z 2318/2424 06010KT CAVOK TX19/2415Z TN04/2406Z"
    },
    {
      "icao": "LFLL",
      "alert": "OK",
      "vis_m": 9999,
      "fzfg": false,
      "metar_trigger": false,
      "taf_trigger": false,
      "metar": "METAR LFLL 232100Z 30003KT CAVOK 09/04 Q1020 NOSIG",
      "taf": "TAF LFLL 231700Z 2318/2424 35006KT CAVOK"
    },
    {
      "icao": "LFLS",
      "alert": "OK",
      "vis_m": 9999,
      "fzfg": false,
      "metar_trigger": false,
      "taf_trigger": false,
      "metar": "METAR LFLS 232100Z AUTO 09003KT CAVOK 05/02 Q1020",
      "taf": "TAF LFLS 231400Z 2315/2415 36006KT 9999 SCT035"
    },
    {
      "icao": "LFMN",
      "alert": "OK",
      "vis_m": 9999,
      "fzfg": false,
      "metar_trigger": false,
      "taf_trigger": false,
      "metar": "METAR LFMN 232100Z 33009KT CAVOK 10/04 Q1019 NOSIG",
      "taf": "TAF LFMN 232000Z 2321/2503 33005KT CAVOK"
    },
    {
      "icao": "LFOB",
      "alert": "OK",
      "vis_m": 4600,
      "fzfg": false,
      "metar_trigger": false,
      "taf_trigger": false,
      "metar": "METAR LFOB 232100Z AUTO 28003KT 4600 BR NSC 06/04 Q1022 NOSIG",
      "taf": ""
    },
    {
      "icao": "LFPO",
      "alert": "OK",
      "vis_m": 9999,
      "fzfg": false,
      "metar_trigger": false,
      "taf_trigger": false,
      "metar": "METAR LFPO 232100Z 34004KT 290V040 CAVOK 10/03 Q1022 NOSIG",
      "taf": "TAF LFPO 231700Z 2318/2424 02005KT CAVOK"
    },
    {
      "icao": "LFSB",
      "alert": "OK",
      "vis_m": 9999,
      "fzfg": false,
      "metar_trigger": false,
      "taf_trigger": false,
      "metar": "METAR LFSB 232100Z AUTO 00000KT CAVOK 05/01 Q1021 NOSIG",
      "taf": "TAF LFSB 231700Z 2318/2418 VRB03KT CAVOK"
    },
    {
      "icao": "LGAV",
      "alert": "OK",
      "vis_m": 9999,
      "fzfg": false,
      "metar_trigger": false,
      "taf_trigger": false,
      "metar": "METAR LGAV 232120Z 31006KT 270V340 9999 FEW025 09/05 Q1013 NOSIG",
      "taf": "TAF LGAV 231700Z 2318/2418 04012KT 9999 FEW025"
    },
    {
      "icao": "LGTS",
      "alert": "OK",
      "vis_m": 9999,
      "fzfg": false,
      "metar_trigger": false,
      "taf_trigger": false,
      "metar": "METAR LGTS 232120Z 12005KT 9999 SCT030 10/08 Q1014 NOSIG",
      "taf": "TAF LGTS 231700Z 2318/2418 VRB03KT 9999 SCT025"
    },
    {
      "icao": "LHBP",
      "alert": "OK",
      "vis_m": 9999,
      "fzfg": false,
      "metar_trigger": false,
      "taf_trigger": false,
      "metar": "METAR LHBP 232100Z 34004KT CAVOK 05/M01 Q1018 NOSIG",
      "taf": "TAF LHBP 231715Z 2318/2418 34007KT CAVOK"
    },
    {
      "icao": "LHDC",
      "alert": "OK",
      "vis_m": 9999,
      "fzfg": false,
      "metar_trigger": false,
      "taf_trigger": false,
      "metar": "METAR LHDC 232045Z AUTO VRB01KT CAVOK 06/03 Q1017",
      "taf": "TAF LHDC 231415Z 2315/2324 27006KT CAVOK"
    },
    {
      "icao": "LIBD",
      "alert": "OK",
      "vis_m": 9999,
      "fzfg": false,
      "metar_trigger": false,
      "taf_trigger": false,
      "metar": "METAR LIBD 232120Z 26004KT CAVOK 06/05 Q1015",
      "taf": "TAF LIBD 231700Z 2318/2418 35010KT 9999 SCT030"
    },
    {
      "icao": "LIBG",
      "alert": "OK",
      "vis_m": 9999,
      "fzfg": false,
      "metar_trigger": false,
      "taf_trigger": false,
      "metar": "METAR LIBG 232050Z 01008KT CAVOK 11/08 Q1014",
      "taf": "TAF LIBG 232000Z 2321/2406 03008KT 9999 SCT025"
    },
    {
      "icao": "LIBP",
      "alert": "OK",
      "vis_m": 9999,
      "fzfg": false,
      "metar_trigger": false,
      "taf_trigger": false,
      "metar": "METAR LIBP 232120Z AUTO 24004KT 9999 SCT036/// 07/06 Q1017",
      "taf": "TAF LIBP 231700Z 2318/2418 01010KT 9999 SCT030"
    },
    {
      "icao": "LIBR",
      "alert": "OK",
      "vis_m": 7000,
      "fzfg": false,
      "metar_trigger": false,
      "taf_trigger": false,
      "metar": "METAR LIBR 232120Z 06012KT 7000 TSRA SCT030CB 11/07 Q1015",
      "taf": ""
    },
    {
      "icao": "LICA",
      "alert": "OK",
      "vis_m": 9999,
      "fzfg": false,
      "metar_trigger": false,
      "taf_trigger": false,
      "metar": "METAR LICA 232120Z AUTO VRB02KT 9999 SCT090/// 09/07 Q1014",
      "taf": "TAF LICA 231700Z 2318/2418 08010KT 9999 SCT030"
    },
    {
      "icao": "LICC",
      "alert": "OK",
      "vis_m": 9999,
      "fzfg": false,
      "metar_trigger": false,
      "taf_trigger": false,
      "metar": "METAR LICC 232120Z 27004KT 9999 FEW050 09/07 Q1014",
      "taf": "TAF LICC 231700Z 2318/2418 VRB05KT 9999 SCT020"
    },
    {
      "icao": "LICJ",
      "alert": "OK",
      "vis_m": 9999,
      "fzfg": false,
      "metar_trigger": false,
      "taf_trigger": false,
      "metar": "METAR LICJ 232120Z 33009KT CAVOK 14/08 Q1015",
      "taf": "TAF LICJ 231700Z 2318/2418 33007KT 9999 SCT030"
    },
    {
      "icao": "LIMC",
      "alert": "OK",
      "vis_m": 9999,
      "fzfg": false,
      "metar_trigger": false,
      "taf_trigger": false,
      "metar": "METAR LIMC 232120Z VRB01KT CAVOK 05/01 Q1019 NOSIG",
      "taf": "TAF LIMC 231700Z 2318/2424 36008KT CAVOK"
    },
    {
      "icao": "LIME",
      "alert": "OK",
      "vis_m": 9999,
      "fzfg": false,
      "metar_trigger": false,
      "taf_trigger": false,
      "metar": "METAR LIME 232120Z 01004KT 9999 SCT100 09/02 Q1019 NOSIG",
      "taf": "TAF LIME 231700Z 2318/2418 03006KT CAVOK"
    },
    {
      "icao": "LIMF",
      "alert": "OK",
      "vis_m": 9999,
      "fzfg": false,
      "metar_trigger": false,
      "taf_trigger": false,
      "metar": "METAR LIMF 232120Z 31004KT 9999 FEW100 10/M00 Q1018",
      "taf": "TAF LIMF 231700Z 2318/2418 VRB05KT CAVOK"
    },
    {
      "icao": "LIMJ",
      "alert": "OK",
      "vis_m": 9999,
      "fzfg": false,
      "metar_trigger": false,
      "taf_trigger": false,
      "metar": "METAR LIMJ 232120Z 04006KT CAVOK 14/00 Q1018",
      "taf": "TAF LIMJ 231700Z 2318/2418 04010KT CAVOK"
    },
    {
      "icao": "LIPE",
      "alert": "OK",
      "vis_m": 9999,
      "fzfg": false,
      "metar_trigger": false,
      "taf_trigger": false,
      "metar": "METAR LIPE 232120Z 22004KT CAVOK 09/02 Q1018",
      "taf": "TAF LIPE 231700Z 2318/2418 VRB05KT 9999 SCT050"
    },
    {
      "icao": "LIPH",
      "alert": "OK",
      "vis_m": 9999,
      "fzfg": false,
      "metar_trigger": false,
      "taf_trigger": false,
      "metar": "METAR LIPH 232120Z 08003KT CAVOK 10/03 Q1019",
      "taf": "TAF LIPH 231700Z 2318/2418 VRB05KT CAVOK"
    },
    {
      "icao": "LIPQ",
      "alert": "OK",
      "vis_m": 9999,
      "fzfg": false,
      "metar_trigger": false,
      "taf_trigger": false,
      "metar": "METAR LIPQ 232120Z AUTO 09005KT 050V120 9999 OVC096/// 13/03 Q1019",
      "taf": "TAF LIPQ 231700Z 2318/2418 04005KT 9999 FEW060"
    },
    {
      "icao": "LIPR",
      "alert": "OK",
      "vis_m": 9999,
      "fzfg": false,
      "metar_trigger": false,
      "taf_trigger": false,
      "metar": "METAR LIPR 232120Z 21002KT CAVOK 06/03 Q1018",
      "taf": "TAF LIPR 231700Z 2318/2418 VRB06KT 9999 SCT050"
    },
    {
      "icao": "LIPX",
      "alert": "OK",
      "vis_m": 9999,
      "fzfg": false,
      "metar_trigger": false,
      "taf_trigger": false,
      "metar": "METAR LIPX 232120Z 33006KT 9999 FEW090 10/02 Q1018",
      "taf": "TAF LIPX 231700Z 2318/2418 VRB05KT CAVOK"
    },
    {
      "icao": "LIPY",
      "alert": "OK",
      "vis_m": 8000,
      "fzfg": false,
      "metar_trigger": false,
      "taf_trigger": false,
      "metar": "METAR LIPY 232120Z AUTO VRB02KT 8000 BKN061/// 09/08 Q1018",
      "taf": "TAF LIPY 231700Z 2318/2418 31010KT 9999 SCT040"
    },
    {
      "icao": "LIPZ",
      "alert": "OK",
      "vis_m": 9999,
      "fzfg": false,
      "metar_trigger": false,
      "taf_trigger": false,
      "metar": "METAR LIPZ 232120Z 09005KT CAVOK 12/07 Q1019 NOSIG",
      "taf": "TAF LIPZ 231700Z 2318/2424 03006KT CAVOK"
    },
    {
      "icao": "LIRF",
      "alert": "OK",
      "vis_m": 9999,
      "fzfg": false,
      "metar_trigger": false,
      "taf_trigger": false,
      "metar": "METAR LIRF 232120Z 01004KT CAVOK 09/06 Q1015 NOSIG",
      "taf": "TAF LIRF 231700Z 2318/2424 31010KT 9999 SCT030"
    },
    {
      "icao": "LIRN",
      "alert": "OK",
      "vis_m": 9999,
      "fzfg": false,
      "metar_trigger": false,
      "taf_trigger": false,
      "metar": "METAR LIRN 232120Z 01004KT 260V060 9999 FEW080 11/06 Q1015 NOSIG",
      "taf": "TAF LIRN 231700Z 2318/2418 03006KT 9999 FEW040"
    },
    {
      "icao": "LIRP",
      "alert": "OK",
      "vis_m": 9999,
      "fzfg": false,
      "metar_trigger": false,
      "taf_trigger": false,
      "metar": "METAR LIRP 232115Z 02003KT CAVOK 06/05 Q1018 NOSIG",
      "taf": "TAF LIRP 231700Z 2318/2418 30006KT 9999 SCT060"
    },
    {
      "icao": "LIRZ",
      "alert": "OK",
      "vis_m": 9999,
      "fzfg": false,
      "metar_trigger": false,
      "taf_trigger": false,
      "metar": "METAR LIRZ 232120Z AUTO VRB01KT 9999 SCT095/// 05/01 Q1017",
      "taf": "TAF LIRZ 231700Z 2318/2418 04014KT 9999 FEW080"
    },
    {
      "icao": "LJLJ",
      "alert": "OK",
      "vis_m": 9999,
      "fzfg": false,
      "metar_trigger": false,
      "taf_trigger": false,
      "metar": "METAR LJLJ 232100Z 30001KT 9999 FEW060 BKN090 07/04 Q1019 NOSIG",
      "taf": "TAF LJLJ 231700Z 2318/2418 12005KT 9999 FEW070 SCT090"
    },
    {
      "icao": "LKMT",
      "alert": "OK",
      "vis_m": 9999,
      "fzfg": false,
      "metar_trigger": false,
      "taf_trigger": false,
      "metar": "METAR LKMT 232100Z 04002KT CAVOK 09/M01 Q1019 NOSIG",
      "taf": "TAF LKMT 231700Z 2318/2418 36005KT CAVOK"
    },
    {
      "icao": "LKPR",
      "alert": "OK",
      "vis_m": 9999,
      "fzfg": false,
      "metar_trigger": false,
      "taf_trigger": false,
      "metar": "METAR LKPR 232100Z 25004KT CAVOK 06/M02 Q1020 NOSIG",
      "taf": "TAF LKPR 232000Z 2321/2503 24005KT CAVOK"
    },
    {
      "icao": "LLBG",
      "alert": "OK",
      "vis_m": 9999,
      "fzfg": false,
      "metar_trigger": false,
      "taf_trigger": false,
      "metar": "METAR LLBG 232120Z VRB02KT CAVOK 13/10 Q1009 NOSIG",
      "taf": "TAF LLBG 231710Z 2318/2418 VRB04KT 9999 FEW040 TX19/2411Z TN08/2402Z"
    },
    {
      "icao": "LMML",
      "alert": "OK",
      "vis_m": 9999,
      "fzfg": false,
      "metar_trigger": false,
      "taf_trigger": false,
      "metar": "METAR LMML 232115Z 29004KT CAVOK 11/09 Q1014 NOSIG",
      "taf": "TAF LMML 231700Z 2318/2418 VRB06KT 9999 FEW020"
    },
    {
      "icao": "LOWW",
      "alert": "OK",
      "vis_m": 9999,
      "fzfg": false,
      "metar_trigger": false,
      "taf_trigger": false,
      "metar": "METAR LOWW 232120Z 29004KT CAVOK 10/02 Q1019 NOSIG",
      "taf": "TAF LOWW 232015Z 2321/2503 VRB04KT 9999 FEW050 TX16/2413Z TN04/2503Z"
    },
    {
      "icao": "LPFR",
      "alert": "OK",
      "vis_m": 9999,
      "fzfg": false,
      "metar_trigger": false,
      "taf_trigger": false,
      "metar": "METAR LPFR 232100Z 33006KT CAVOK 16/12 Q1015",
      "taf": "TAF LPFR 232009Z 2320/2418 33007KT CAVOK"
    },
    {
      "icao": "LPMA",
      "alert": "OK",
      "vis_m": 9999,
      "fzfg": false,
      "metar_trigger": false,
      "taf_trigger": false,
      "metar": "METAR LPMA 232100Z 02017KT 350V050 9999 SCT013 17/14 Q1014",
      "taf": "TAF LPMA 231700Z 2318/2418 02015KT 9999 SCT015"
    },
    {
      "icao": "LPPR",
      "alert": "OK",
      "vis_m": 9999,
      "fzfg": false,
      "metar_trigger": false,
      "taf_trigger": false,
      "metar": "METAR LPPR 232100Z 00000KT CAVOK 13/09 Q1017",
      "taf": "TAF LPPR 231700Z 2318/2418 33008KT CAVOK"
    },
    {
      "icao": "LPPS",
      "alert": "OK",
      "vis_m": 9999,
      "fzfg": false,
      "metar_trigger": false,
      "taf_trigger": false,
      "metar": "METAR LPPS 232100Z 07017G27KT 040V100 9999 SCT010 16/14 Q1015",
      "taf": "TAF LPPS 231700Z 2318/2424 07015KT 9999 SCT012"
    },
    {
      "icao": "LPPT",
      "alert": "OK",
      "vis_m": 9999,
      "fzfg": false,
      "metar_trigger": false,
      "taf_trigger": false,
      "metar": "METAR LPPT 232100Z 31008KT 280V340 CAVOK 16/12 Q1016",
      "taf": "TAF LPPT 231700Z 2318/2424 32008KT 9999 FEW035"
    },
    {
      "icao": "LQBK",
      "alert": "OK",
      "vis_m": 9999,
      "fzfg": false,
      "metar_trigger": false,
      "taf_trigger": false,
      "metar": "METAR LQBK 232100Z 14004KT CAVOK 06/04 Q1018 NOSIG",
      "taf": "TAF LQBK 231700Z 2318/2418 34005KT CAVOK TX15/2414Z TN04/2405Z"
    },
    {
      "icao": "LQSA",
      "alert": "OK",
      "vis_m": 9999,
      "fzfg": false,
      "metar_trigger": false,
      "taf_trigger": false,
      "metar": "METAR LQSA 232100Z VRB01KT 9999 FEW055 BKN065 07/03 Q1017 NOSIG",
      "taf": "TAF LQSA 231700Z 2318/2418 28005KT 9999 BKN055 TX12/2413Z TN04/2405Z"
    },
    {
      "icao": "LQTZ",
      "alert": "OK",
      "vis_m": 9999,
      "fzfg": false,
      "metar_trigger": false,
      "taf_trigger": false,
      "metar": "METAR LQTZ 232100Z 00000KT CAVOK 05/04 Q1017",
      "taf": "TAF LQTZ 231700Z 2318/2418 04005KT 9999 SCT040 TX14/2414Z TN03/2405Z"
    },
    {
      "icao": "LRBC",
      "alert": "OK",
      "vis_m": 9999,
      "fzfg": false,
      "metar_trigger": false,
      "taf_trigger": false,
      "metar": "METAR LRBC 232100Z 35006KT CAVOK 04/M00 Q1018",
      "taf": "TAF LRBC 232000Z 2321/2406 34005KT 9999 SCT060"
    },
    {
      "icao": "LRBS",
      "alert": "OK",
      "vis_m": 9999,
      "fzfg": false,
      "metar_trigger": false,
      "taf_trigger": false,
      "metar": "METAR LRBS 232100Z VRB02KT CAVOK 09/05 Q1016 NOSIG",
      "taf": "TAF LRBS 231700Z 2318/2418 VRB04KT CAVOK"
    },
    {
      "icao": "LRBV",
      "alert": "OK",
      "vis_m": 9999,
      "fzfg": false,
      "metar_trigger": false,
      "taf_trigger": false,
      "metar": "METAR LRBV 232100Z VRB02KT 9999 SCT054 06/02 Q1017",
      "taf": "TAF LRBV 232000Z 2321/2406 VRB04KT 9999 BKN055"
    },
    {
      "icao": "LRCL",
      "alert": "OK",
      "vis_m": 9999,
      "fzfg": false,
      "metar_trigger": false,
      "taf_trigger": false,
      "metar": "METAR LRCL 232100Z 00000KT CAVOK 08/03 Q1017",
      "taf": "TAF LRCL 232000Z 2321/2406 VRB04KT CAVOK"
    },
    {
      "icao": "LRCV",
      "alert": "OK",
      "vis_m": 9000,
      "fzfg": false,
      "metar_trigger": false,
      "taf_trigger": false,
      "metar": "METAR LRCV 232100Z 30006KT 9000 -RA OVC047 07/06 Q1018",
      "taf": "TAF LRCV 232000Z 2321/2406 VRB04KT 9999 BKN040"
    },
    {
      "icao": "LRIA",
      "alert": "OK",
      "vis_m": 9999,
      "fzfg": false,
      "metar_trigger": false,
      "taf_trigger": false,
      "metar": "METAR LRIA 232100Z VRB01KT CAVOK 08/M01 Q1018",
      "taf": "TAF LRIA 232000Z 2321/2406 VRB03KT CAVOK"
    },
    {
      "icao": "LROP",
      "alert": "OK",
      "vis_m": 9999,
      "fzfg": false,
      "metar_trigger": false,
      "taf_trigger": false,
      "metar": "METAR LROP 232100Z 35005KT 330V050 CAVOK 09/03 Q1016 NOSIG",
      "taf": "TAF LROP 231700Z 2318/2418 VRB04KT CAVOK"
    },
    {
      "icao": "LRSB",
      "alert": "OK",
      "vis_m": 9999,
      "fzfg": false,
      "metar_trigger": false,
      "taf_trigger": false,
      "metar": "METAR LRSB 232100Z VRB01KT CAVOK 05/02 Q1017",
      "taf": "TAF LRSB 231700Z 2318/2418 VRB04KT 9999 BKN065"
    },
    {
      "icao": "LRSM",
      "alert": "OK",
      "vis_m": 9999,
      "fzfg": false,
      "metar_trigger": false,
      "taf_trigger": false,
      "metar": "METAR LRSM 232100Z AUTO 21001KT 9999 NCD 04/M01 Q1017",
      "taf": "TAF LRSM 231400Z 2315/2324 VRB04KT CAVOK"
    },
    {
      "icao": "LRSV",
      "alert": "OK",
      "vis_m": 9999,
      "fzfg": false,
      "metar_trigger": false,
      "taf_trigger": false,
      "metar": "METAR LRSV 232100Z 00000KT CAVOK 06/M02 Q1017",
      "taf": "TAF LRSV 232000Z 2321/2406 VRB04KT CAVOK"
    },
    {
      "icao": "LRTM",
      "alert": "OK",
      "vis_m": 9999,
      "fzfg": false,
      "metar_trigger": false,
      "taf_trigger": false,
      "metar": "METAR LRTM 232100Z AUTO 00000KT 9999 NCD 05/01 Q1017",
      "taf": "TAF LRTM 231400Z 2315/2324 VRB04KT CAVOK"
    },
    {
      "icao": "LRTR",
      "alert": "OK",
      "vis_m": 9999,
      "fzfg": false,
      "metar_trigger": false,
      "taf_trigger": false,
      "metar": "METAR LRTR 232100Z 00000KT CAVOK 09/02 Q1017",
      "taf": "TAF LRTR 231700Z 2318/2418 VRB04KT CAVOK"
    },
    {
      "icao": "LTAC",
      "alert": "OK",
      "vis_m": 9999,
      "fzfg": false,
      "metar_trigger": false,
      "taf_trigger": false,
      "metar": "METAR LTAC 232120Z VRB02KT 9999 BKN035 BKN080 07/05 Q1010 NOSIG RMK RWY21C VRB02KT RWY03L 02002KT RWY21R VRB02KT RWY03R 00000KT RWY21L 11004KT",
      "taf": "TAF LTAC 231640Z 2318/2418 VRB02KT 9999 BKN035 BKN100"
    },
    {
      "icao": "LTFM",
      "alert": "OK",
      "vis_m": 4800,
      "fzfg": false,
      "metar_trigger": false,
      "taf_trigger": false,
      "metar": "METAR LTFM 232120Z 04007KT 4800 2100S BR BKN002 BKN018 08/08 Q1013 REDZ NOSIG RMK RWY17L 03005KT RWY34L 03007KT RWY16R 04007KT RWY36 04007KT 360V060 RWY18 04006KT",
      "taf": "TAF LTFM 231640Z 2318/2424 34006KT 1200 -DZ BCFG BKN002 BKN018"
    },
    {
      "icao": "LUKK",
      "alert": "OK",
      "vis_m": 9999,
      "fzfg": false,
      "metar_trigger": false,
      "taf_trigger": false,
      "metar": "METAR LUKK 232100Z 01005KT 330V050 CAVOK 08/M01 Q1017 NOSIG",
      "taf": "TAF LUKK 231708Z 2318/2418 VRB05KT CAVOK"
    },
    {
      "icao": "LWOH",
      "alert": "OK",
      "vis_m": null,
      "fzfg": false,
      "metar_trigger": false,
      "taf_trigger": false,
      "metar": "",
      "taf": "TAF LWOH 232035Z 2321/2421 36006KT 9999 BKN040 BKN080"
    },
    {
      "icao": "LWSK",
      "alert": "OK",
      "vis_m": 9999,
      "fzfg": false,
      "metar_trigger": false,
      "taf_trigger": false,
      "metar": "METAR LWSK 232120Z 03007KT 9999 SCT054 OVC092 10/03 Q1014 NOSIG",
      "taf": "TAF LWSK 232035Z 2321/2421 VRB02KT 9999 FEW050 BKN080"
    },
    {
      "icao": "LYBE",
      "alert": "OK",
      "vis_m": 9999,
      "fzfg": false,
      "metar_trigger": false,
      "taf_trigger": false,
      "metar": "METAR LYBE 232100Z 13005KT CAVOK 08/01 Q1017 NOSIG",
      "taf": "TAF LYBE 231700Z 2318/2418 11006KT CAVOK TX17/2413Z TN06/2405Z"
    },
    {
      "icao": "LYNI",
      "alert": "OK",
      "vis_m": 9999,
      "fzfg": false,
      "metar_trigger": false,
      "taf_trigger": false,
      "metar": "METAR LYNI 232100Z VRB02KT CAVOK 07/03 Q1016 NOSIG",
      "taf": "TAF LYNI 231700Z 2318/2418 04007KT CAVOK TX14/2413Z TN04/2405Z"
    },
    {
      "icao": "LYPG",
      "alert": "OK",
      "vis_m": 9999,
      "fzfg": false,
      "metar_trigger": false,
      "taf_trigger": false,
      "metar": "METAR LYPG 232100Z 34006KT CAVOK 10/04 Q1014 NOSIG",
      "taf": "TAF LYPG 231700Z 2318/2418 36008KT 9999 FEW040 SCT080 TX18/2413Z TN08/2400Z"
    },
    {
      "icao": "LZIB",
      "alert": "OK",
      "vis_m": 9999,
      "fzfg": false,
      "metar_trigger": false,
      "taf_trigger": false,
      "metar": "METAR LZIB 232100Z VRB03KT CAVOK 12/01 Q1019 NOSIG",
      "taf": "TAF LZIB 231715Z 2318/2418 32005KT CAVOK"
    },
    {
      "icao": "LZKZ",
      "alert": "OK",
      "vis_m": 9999,
      "fzfg": false,
      "metar_trigger": false,
      "taf_trigger": false,
      "metar": "METAR LZKZ 232100Z 01007KT CAVOK 09/00 Q1018 NOSIG",
      "taf": "TAF LZKZ 231715Z 2318/2418 34006KT CAVOK"
    },
    {
      "icao": "LZTT",
      "alert": "OK",
      "vis_m": 9999,
      "fzfg": false,
      "metar_trigger": false,
      "taf_trigger": false,
      "metar": "METAR LZTT 232100Z 27005KT 9999 FEW066 BKN080 02/M02 Q1018",
      "taf": "TAF LZTT 231715Z 2318/2418 25004KT 9999 FEW070"
    },
    {
      "icao": "OEJN",
      "alert": "OK",
      "vis_m": 7000,
      "fzfg": false,
      "metar_trigger": false,
      "taf_trigger": false,
      "metar": "METAR OEJN 232100Z 19004KT 7000 NSC 27/20 Q1006 NOSIG",
      "taf": "TAF OEJN 231700Z 2318/2424 17006KT 7000 NSC"
    },
    {
      "icao": "OEMA",
      "alert": "OK",
      "vis_m": 9999,
      "fzfg": false,
      "metar_trigger": false,
      "taf_trigger": false,
      "metar": "METAR OEMA 232100Z 13004KT 9999 SCT040 25/00 Q1009 NOSIG",
      "taf": "TAF OEMA 231700Z 2318/2424 VRB03KT 9999 FEW045"
    },
    {
      "icao": "OJAI",
      "alert": "OK",
      "vis_m": 4500,
      "fzfg": false,
      "metar_trigger": false,
      "taf_trigger": false,
      "metar": "METAR OJAI 232100Z 01004KT 4500 BR NSC 09/06 Q1010 NOSIG",
      "taf": ""
    },
    {
      "icao": "OMAA",
      "alert": "OK",
      "vis_m": null,
      "fzfg": false,
      "metar_trigger": false,
      "taf_trigger": false,
      "metar": "",
      "taf": ""
    },
    {
      "icao": "OMDB",
      "alert": "OK",
      "vis_m": null,
      "fzfg": false,
      "metar_trigger": false,
      "taf_trigger": false,
      "metar": "",
      "taf": ""
    },
    {
      "icao": "UAAA",
      "alert": "OK",
      "vis_m": 9999,
      "fzfg": false,
      "metar_trigger": false,
      "taf_trigger": false,
      "metar": "METAR UAAA 232100Z 21003MPS 9999 SCT050CB BKN100 11/05 Q1020 NOSIG",
      "taf": "TAF UAAA 231703Z 2318/2418 23003G08MPS 5000 -SHRA BR BKN030CB OVC100 TX15/2409Z TN06/2401Z"
    },
    {
      "icao": "UBBB",
      "alert": "OK",
      "vis_m": 500,
      "fzfg": false,
      "metar_trigger": false,
      "taf_trigger": false,
      "metar": "METAR UBBB 232100Z 30010KT 0500 R35/1300 FG VV002 07/07 Q1010 NOSIG",
      "taf": ""
    },
    {
      "icao": "UDSG",
      "alert": "OK",
      "vis_m": 9999,
      "fzfg": false,
      "metar_trigger": false,
      "taf_trigger": false,
      "metar": "METAR UDSG 232100Z 04002KT 9999 FEW049 M00/M01 Q1015 NOSIG",
      "taf": "TAF UDSG 231658Z 2318/2418 VRB06KT 9999 SCT040"
    },
    {
      "icao": "UDYZ",
      "alert": "OK",
      "vis_m": 9999,
      "fzfg": false,
      "metar_trigger": false,
      "taf_trigger": false,
      "metar": "METAR UDYZ 232100Z 29004KT 9999 NSC 07/02 Q1013 NOSIG",
      "taf": "TAF UDYZ 231700Z 2318/2418 04006KT 9999 FEW040"
    },
    {
      "icao": "UGKO",
      "alert": "OK",
      "vis_m": 9000,
      "fzfg": false,
      "metar_trigger": false,
      "taf_trigger": false,
      "metar": "METAR UGKO 232100Z VRB02KT 9000 BKN013 09/08 Q1012 NOSIG",
      "taf": "TAF UGKO 231700Z 2318/2418 26007KT 9000 SCT023 BKN040 TX19/2411Z TN06/2403Z"
    }
  ]
}