{
  "ts_utc": "2026-01-14T19:54:33Z",
  "threshold_m": 150,
  "source": "stations_override.txt (ICAO list) + aviationweather.gov (METAR/TAF raw)",
  "station_count": 159,
  "stations": [
    {
      "icao": "BIKF",
      "alert": "OK",
      "vis_m": 9999,
      "fzfg": false,
      "metar_trigger": false,
      "taf_trigger": false,
      "metar": "METAR BIKF 141930Z 02012KT 9999 BKN045 OVC100 01/M03 Q0986",
      "taf": "TAF BIKF 141930Z 1421/1521 06015KT 9999 SCT035 TX02/1502Z TNM01/1510Z"
    },
    {
      "icao": "BKPR",
      "alert": "OK",
      "vis_m": 9999,
      "fzfg": false,
      "metar_trigger": false,
      "taf_trigger": false,
      "metar": "METAR BKPR 141930Z 31004KT 9999 BKN055 02/01 Q1024 NOSIG",
      "taf": "TAF BKPR 141730Z 1418/1518 VRB03KT 9999 SCT060"
    },
    {
      "icao": "EBCI",
      "alert": "OK",
      "vis_m": 9999,
      "fzfg": false,
      "metar_trigger": false,
      "taf_trigger": false,
      "metar": "METAR EBCI 141920Z 17008KT 9999 FEW008 08/08 Q1013 NOSIG",
      "taf": "TAF EBCI 141715Z 1418/1524 21008KT 4000 BR FEW008 BKN012"
    },
    {
      "icao": "EDDB",
      "alert": "OK",
      "vis_m": 6000,
      "fzfg": false,
      "metar_trigger": false,
      "taf_trigger": false,
      "metar": "METAR EDDB 141920Z AUTO 24004KT 6000 0900 R24R/P2000N R24L/P2000N BCFG NCD M01/M01 Q1016 NOSIG",
      "taf": ""
    },
    {
      "icao": "EDDH",
      "alert": "OK",
      "vis_m": 9999,
      "fzfg": false,
      "metar_trigger": false,
      "taf_trigger": false,
      "metar": "METAR EDDH 141920Z AUTO 22004KT 9999 BKN024 BKN028 02/01 Q1015 NOSIG",
      "taf": "TAF EDDH 141700Z 1418/1524 21004KT 9999 FEW025"
    },
    {
      "icao": "EDDK",
      "alert": "OK",
      "vis_m": 9999,
      "fzfg": false,
      "metar_trigger": false,
      "taf_trigger": false,
      "metar": "METAR EDDK 141920Z AUTO 15006KT 9999 BKN021 08/08 Q1014 NOSIG",
      "taf": "TAF EDDK 141700Z 1418/1524 13005KT 9999 SCT007 BKN015"
    },
    {
      "icao": "EDDN",
      "alert": "OK",
      "vis_m": 9999,
      "fzfg": false,
      "metar_trigger": false,
      "taf_trigger": false,
      "metar": "METAR EDDN 141920Z AUTO 12005KT 9999 BKN031 OVC038 05/04 Q1017 NOSIG",
      "taf": "TAF EDDN 141700Z 1418/1518 13006KT 9999 BKN040"
    },
    {
      "icao": "EDDS",
      "alert": "OK",
      "vis_m": 9999,
      "fzfg": false,
      "metar_trigger": false,
      "taf_trigger": false,
      "metar": "METAR EDDS 141920Z AUTO VRB02KT CAVOK 06/03 Q1016 NOSIG",
      "taf": "TAF EDDS 141700Z 1418/1518 VRB03KT CAVOK"
    },
    {
      "icao": "EDFH",
      "alert": "OK",
      "vis_m": 9999,
      "fzfg": false,
      "metar_trigger": false,
      "taf_trigger": false,
      "metar": "METAR EDFH 141920Z 22007KT 190V250 CAVOK 07/06 Q1015",
      "taf": "TAF EDFH 141700Z 1418/1518 20007KT 9999 BKN015"
    },
    {
      "icao": "EDJA",
      "alert": "OK",
      "vis_m": 9999,
      "fzfg": false,
      "metar_trigger": false,
      "taf_trigger": false,
      "metar": "METAR EDJA 141920Z VRB02KT CAVOK 02/M01 Q1018",
      "taf": "TAF EDJA 141700Z 1418/1503 20004KT CAVOK"
    },
    {
      "icao": "EDLW",
      "alert": "OK",
      "vis_m": 4200,
      "fzfg": false,
      "metar_trigger": false,
      "taf_trigger": false,
      "metar": "METAR EDLW 141920Z 11005KT 4200 BR OVC018 07/06 Q1014",
      "taf": ""
    },
    {
      "icao": "EDNY",
      "alert": "OK",
      "vis_m": 4800,
      "fzfg": false,
      "metar_trigger": false,
      "taf_trigger": false,
      "metar": "METAR EDNY 141920Z VRB02KT 4800 0900SW R24/1100U BCFG BKN003 M01/M01 Q1019",
      "taf": ""
    },
    {
      "icao": "EDSB",
      "alert": "OK",
      "vis_m": 9999,
      "fzfg": false,
      "metar_trigger": false,
      "taf_trigger": false,
      "metar": "METAR EDSB 141920Z 21001KT CAVOK 10/05 Q1017",
      "taf": "TAF EDSB 141700Z 1418/1518 21005KT 9999 SCT035"
    },
    {
      "icao": "EETN",
      "alert": "OK",
      "vis_m": 9999,
      "fzfg": false,
      "metar_trigger": false,
      "taf_trigger": false,
      "metar": "METAR EETN 141950Z 13008KT CAVOK M10/M12 Q1019 TEMPO BKN007",
      "taf": ""
    },
    {
      "icao": "EFTU",
      "alert": "OK",
      "vis_m": 9999,
      "fzfg": false,
      "metar_trigger": false,
      "taf_trigger": false,
      "metar": "METAR EFTU 141950Z AUTO 15015KT 9999 OVC011 M05/M07 Q1014",
      "taf": "TAF EFTU 141733Z 1418/1518 13012KT 9999 OVC010"
    },
    {
      "icao": "EGBB",
      "alert": "OK",
      "vis_m": 4000,
      "fzfg": false,
      "metar_trigger": false,
      "taf_trigger": false,
      "metar": "METAR EGBB 141920Z COR 14006KT 4000 DZ OVC006 04/03 Q1006 RERA",
      "taf": "TAF EGBB 141654Z 1418/1518 18005KT 9999 FEW045"
    },
    {
      "icao": "EGGP",
      "alert": "OK",
      "vis_m": 9999,
      "fzfg": false,
      "metar_trigger": false,
      "taf_trigger": false,
      "metar": "METAR EGGP 141920Z 16009KT 130V190 CAVOK 03/00 Q1004",
      "taf": "TAF EGGP 141657Z 1418/1518 16008KT 9999 SCT035"
    },
    {
      "icao": "EGGW",
      "alert": "OK",
      "vis_m": 2500,
      "fzfg": false,
      "metar_trigger": false,
      "taf_trigger": false,
      "metar": "METAR EGGW 141920Z AUTO 14006KT 2500 BR OVC003 05/04 Q1007",
      "taf": "TAF EGGW 141655Z 1418/1518 15006KT 9999 BKN020"
    },
    {
      "icao": "EGKK",
      "alert": "OK",
      "vis_m": 8000,
      "fzfg": false,
      "metar_trigger": false,
      "taf_trigger": false,
      "metar": "METAR EGKK 141920Z 17005KT 130V200 8000 SCT004 BKN006 08/08 Q1008",
      "taf": "TAF EGKK 141657Z 1418/1524 15005KT 9999 BKN005"
    },
    {
      "icao": "EGNM",
      "alert": "OK",
      "vis_m": 9999,
      "fzfg": false,
      "metar_trigger": false,
      "taf_trigger": false,
      "metar": "METAR EGNM 141920Z 15008KT 9999 FEW025 01/M01 Q1004",
      "taf": "TAF EGNM 141657Z 1418/1518 21005KT 9999 FEW030"
    },
    {
      "icao": "EGPD",
      "alert": "OK",
      "vis_m": 9999,
      "fzfg": false,
      "metar_trigger": false,
      "taf_trigger": false,
      "metar": "METAR EGPD 141920Z COR AUTO 17009KT 9999 BKN046 05/02 Q0998 NOSIG",
      "taf": "TAF EGPD 141655Z 1418/1518 18012KT 9999 BKN020"
    },
    {
      "icao": "EGPF",
      "alert": "OK",
      "vis_m": 7000,
      "fzfg": false,
      "metar_trigger": false,
      "taf_trigger": false,
      "metar": "METAR EGPF 141920Z AUTO 17005KT 140V200 7000 -RA BKN014/// BKN021/// OVC047/// //////TCU 06/05 Q0998",
      "taf": "TAF EGPF 141655Z 1418/1518 18012KT 9999 FEW018 BKN030"
    },
    {
      "icao": "EHBK",
      "alert": "OK",
      "vis_m": 9999,
      "fzfg": false,
      "metar_trigger": false,
      "taf_trigger": false,
      "metar": "METAR EHBK 141925Z AUTO 19010KT 9999 FEW031 08/08 Q1013 NOSIG",
      "taf": "TAF EHBK 141719Z 1418/1524 18008KT 2000 BR BKN002"
    },
    {
      "icao": "EHEH",
      "alert": "OK",
      "vis_m": 2900,
      "fzfg": false,
      "metar_trigger": false,
      "taf_trigger": false,
      "metar": "METAR EHEH 141925Z AUTO 17006KT 140V200 2900 R21/P3000N BR BKN002 OVC004 08/07 Q1013 AMB TEMPO 2000 BR -DZ BKN002 OVC003",
      "taf": "TAF EHEH 141753Z 1418/1524 15005KT 3000 BR SCT003 OVC004"
    },
    {
      "icao": "EKBI",
      "alert": "OK",
      "vis_m": 9999,
      "fzfg": false,
      "metar_trigger": false,
      "taf_trigger": false,
      "metar": "METAR EKBI 141920Z AUTO 20004KT 9999 NCD M00/M00 Q1011",
      "taf": "TAF EKBI 141727Z 1418/1518 22005KT 9999 FEW020"
    },
    {
      "icao": "EKCH",
      "alert": "OK",
      "vis_m": 9999,
      "fzfg": false,
      "metar_trigger": false,
      "taf_trigger": false,
      "metar": "METAR EKCH 141920Z AUTO 24008KT 9999 NCD 01/01 Q1012 NOSIG",
      "taf": "TAF EKCH 141727Z 1418/1518 25008KT 9999 FEW020"
    },
    {
      "icao": "ENAL",
      "alert": "OK",
      "vis_m": 9999,
      "fzfg": false,
      "metar_trigger": false,
      "taf_trigger": false,
      "metar": "METAR ENAL 141920Z 21016KT 9999 FEW035 SCT042 BKN055 06/M00 Q0998",
      "taf": "TAF ENAL 141700Z 1418/1503 19015KT 9999 SCT050"
    },
    {
      "icao": "ENBR",
      "alert": "OK",
      "vis_m": 9999,
      "fzfg": false,
      "metar_trigger": false,
      "taf_trigger": false,
      "metar": "METAR ENBR 141920Z 14010KT 9999 FEW025 SCT039 03/02 Q1002 TEMPO SHRA BKN012CB RMK WIND 1200FT 18013KT",
      "taf": "TAF ENBR 141700Z 1418/1518 13008KT 9999 -SHRA FEW015TCU BKN020"
    },
    {
      "icao": "ENGM",
      "alert": "OK",
      "vis_m": 9999,
      "fzfg": false,
      "metar_trigger": false,
      "taf_trigger": false,
      "metar": "METAR ENGM 141920Z 29003KT 260V330 CAVOK M04/M05 Q1002 NOSIG",
      "taf": "TAF ENGM 141700Z 1418/1518 VRB03KT 9999 FEW015 BKN040"
    },
    {
      "icao": "ENHD",
      "alert": "OK",
      "vis_m": 9999,
      "fzfg": false,
      "metar_trigger": false,
      "taf_trigger": false,
      "metar": "METAR ENHD 141920Z 16006KT 9999 SCT032 BKN042 04/02 Q1003",
      "taf": "TAF ENHD 141400Z 1415/1423 24012KT 9999 -SHRA FEW020TCU BKN030"
    },
    {
      "icao": "ENTC",
      "alert": "OK",
      "vis_m": 9999,
      "fzfg": false,
      "metar_trigger": false,
      "taf_trigger": false,
      "metar": "METAR ENTC 141920Z 19017KT 9999 BKN040 M03/M10 Q1006 NOSIG RMK WIND 2600FT 18014KT",
      "taf": "TAF ENTC 141700Z 1418/1518 19016KT 9999 BKN040"
    },
    {
      "icao": "ENTO",
      "alert": "OK",
      "vis_m": 9999,
      "fzfg": false,
      "metar_trigger": false,
      "taf_trigger": false,
      "metar": "METAR ENTO 141920Z 24004KT CAVOK M04/M04 Q1004 NOSIG",
      "taf": "TAF ENTO 141700Z 1418/1518 25008KT CAVOK"
    },
    {
      "icao": "ENVA",
      "alert": "OK",
      "vis_m": 9999,
      "fzfg": false,
      "metar_trigger": false,
      "taf_trigger": false,
      "metar": "METAR ENVA 141920Z 08005KT CAVOK 02/M04 Q1000 NOSIG RMK WIND 670FT 11008KT",
      "taf": "TAF ENVA 141700Z 1418/1518 11008KT 9999 FEW050"
    },
    {
      "icao": "ENZV",
      "alert": "OK",
      "vis_m": 9999,
      "fzfg": false,
      "metar_trigger": false,
      "taf_trigger": false,
      "metar": "METAR ENZV 141920Z 13007KT 9999 FEW040 03/02 Q1004 TEMPO SHRA BKN018CB",
      "taf": "TAF ENZV 141700Z 1418/1518 13008KT 9999 FEW012 BKN025"
    },
    {
      "icao": "EPGD",
      "alert": "OK",
      "vis_m": 3400,
      "fzfg": false,
      "metar_trigger": false,
      "taf_trigger": false,
      "metar": "METAR EPGD 141930Z 26004KT 3400 -DZ BR OVC003 01/00 Q1011 REFZDZ",
      "taf": "TAF EPGD 141730Z 1418/1518 19006KT 6000 -SG OVC006"
    },
    {
      "icao": "EPKK",
      "alert": "OK",
      "vis_m": 3900,
      "fzfg": false,
      "metar_trigger": false,
      "taf_trigger": false,
      "metar": "METAR EPKK 141930Z 23004KT 3900 -FZRA BR BKN025 02/01 Q1015",
      "taf": ""
    },
    {
      "icao": "EPKT",
      "alert": "OK",
      "vis_m": 5000,
      "fzfg": false,
      "metar_trigger": false,
      "taf_trigger": false,
      "metar": "METAR EPKT 141930Z 23012KT 5000 -RA BR OVC005 01/M00 Q1015",
      "taf": "TAF EPKT 141730Z 1418/1518 23010KT 8000 -RA FEW008 BKN040"
    },
    {
      "icao": "EPLB",
      "alert": "OK",
      "vis_m": 1500,
      "fzfg": false,
      "metar_trigger": false,
      "taf_trigger": false,
      "metar": "METAR EPLB 141930Z 12006KT 1500 SN BR FEW013 OVC016 M05/M05 Q1015",
      "taf": "TAF EPLB 141730Z 1418/1518 12008KT 2000 -SN BR BKN012 OVC020"
    },
    {
      "icao": "EPMO",
      "alert": "OK",
      "vis_m": 3200,
      "fzfg": false,
      "metar_trigger": false,
      "taf_trigger": false,
      "metar": "METAR EPMO 141930Z 12006KT 3200 -FZRA BR BKN005 M01/M01 Q1012",
      "taf": "TAF EPMO 141730Z 1418/1518 11007KT 3500 -FZRA BR OVC005"
    },
    {
      "icao": "EPPO",
      "alert": "OK",
      "vis_m": 9999,
      "fzfg": false,
      "metar_trigger": false,
      "taf_trigger": false,
      "metar": "METAR EPPO 141930Z 29010KT 9999 SCT007 OVC018 04/02 Q1014",
      "taf": "TAF EPPO 141730Z 1418/1518 27008KT 1300 -DZ BR BKN002"
    },
    {
      "icao": "EPRA",
      "alert": "OK",
      "vis_m": 6000,
      "fzfg": false,
      "metar_trigger": false,
      "taf_trigger": false,
      "metar": "METAR EPRA 141930Z 17006KT 6000 -FZRA BKN006 OVC014 M00/M01 Q1013",
      "taf": "TAF EPRA 141730Z 1418/1503 17008KT 5000 -FZRA BR BKN006 OVC014"
    },
    {
      "icao": "EPRZ",
      "alert": "OK",
      "vis_m": 9999,
      "fzfg": false,
      "metar_trigger": false,
      "taf_trigger": false,
      "metar": "METAR EPRZ 141930Z 21009KT 9999 -FZRA OVC023 M01/M03 Q1015",
      "taf": "TAF EPRZ 141730Z 1418/1518 19010KT 9999 OVC030"
    },
    {
      "icao": "EPSC",
      "alert": "OK",
      "vis_m": 9999,
      "fzfg": false,
      "metar_trigger": false,
      "taf_trigger": false,
      "metar": "METAR EPSC 141930Z 24004KT 9999 FEW020 01/01 Q1014",
      "taf": "TAF EPSC 141730Z 1418/1518 25005KT 9999 SCT030"
    },
    {
      "icao": "EPSY",
      "alert": "OK",
      "vis_m": 2500,
      "fzfg": false,
      "metar_trigger": false,
      "taf_trigger": false,
      "metar": "METAR EPSY 141930Z 13005KT 100V170 2500 -SN BR BKN002 OVC011 M07/M08 Q1013",
      "taf": "TAF EPSY 141730Z 1418/1503 15010KT 3000 -SN BR BKN005 OVC014"
    },
    {
      "icao": "EPWA",
      "alert": "OK",
      "vis_m": 7000,
      "fzfg": false,
      "metar_trigger": false,
      "taf_trigger": false,
      "metar": "METAR EPWA 141930Z 14009KT 7000 -FZRA BKN005 M02/M02 Q1013 RESN NOSIG",
      "taf": "TAF EPWA 141730Z 1418/1518 14010KT 6000 -FZRA BKN006"
    },
    {
      "icao": "EPWR",
      "alert": "OK",
      "vis_m": 9999,
      "fzfg": false,
      "metar_trigger": false,
      "taf_trigger": false,
      "metar": "METAR EPWR 141930Z 27008KT 9999 BKN009 BKN036 05/04 Q1016",
      "taf": "TAF EPWR 141730Z 1418/1518 26010KT 9999 FEW007 BKN014"
    },
    {
      "icao": "ESGG",
      "alert": "OK",
      "vis_m": 9999,
      "fzfg": false,
      "metar_trigger": false,
      "taf_trigger": false,
      "metar": "METAR ESGG 141920Z 22009KT 9999 FEW023 SCT031 01/01 Q1007",
      "taf": "TAF ESGG 141730Z 1418/1518 24008KT 9000 FEW035 SCT045"
    },
    {
      "icao": "ESKN",
      "alert": "OK",
      "vis_m": 9999,
      "fzfg": false,
      "metar_trigger": false,
      "taf_trigger": false,
      "metar": "METAR ESKN 141920Z 22006KT 9999 OVC017 01/01 Q1005",
      "taf": "TAF ESKN 141730Z 1418/1518 23006KT 9999 BKN004"
    },
    {
      "icao": "ESMS",
      "alert": "OK",
      "vis_m": 9999,
      "fzfg": false,
      "metar_trigger": false,
      "taf_trigger": false,
      "metar": "METAR ESMS 141920Z 25008KT CAVOK 02/02 Q1011",
      "taf": "TAF ESMS 141727Z 1418/1518 25008KT 9999 FEW020"
    },
    {
      "icao": "ESSA",
      "alert": "OK",
      "vis_m": 1200,
      "fzfg": false,
      "metar_trigger": false,
      "taf_trigger": false,
      "metar": "METAR ESSA 141920Z 14010KT 1200 -SN VV006 M00/M00 Q1005 BECMG 6000 BKN004",
      "taf": "TAF ESSA 141730Z 1418/1518 14012KT 1400 SN SCT005 BKN010"
    },
    {
      "icao": "EYKA",
      "alert": "OK",
      "vis_m": 9000,
      "fzfg": false,
      "metar_trigger": false,
      "taf_trigger": false,
      "metar": "METAR EYKA 141950Z 13010KT 9000 NSC M11/M13 Q1018",
      "taf": "TAF EYKA 141715Z 1418/1518 15012KT 9000 SCT010"
    },
    {
      "icao": "EYPA",
      "alert": "OK",
      "vis_m": 4900,
      "fzfg": false,
      "metar_trigger": false,
      "taf_trigger": false,
      "metar": "METAR EYPA 141950Z 15013KT 4900 -SN BLSN FEW024 OVC037 M08/M10 Q1013",
      "taf": "TAF EYPA 141715Z 1418/1518 15015KT 5000 SN BKN020"
    },
    {
      "icao": "EYVI",
      "alert": "OK",
      "vis_m": 9000,
      "fzfg": false,
      "metar_trigger": false,
      "taf_trigger": false,
      "metar": "METAR EYVI 141950Z 16008KT 9000 BKN007 M12/M14 Q1019 NOSIG",
      "taf": "TAF EYVI 141715Z 1418/1518 16011KT 9000 BKN010"
    },
    {
      "icao": "GCFV",
      "alert": "OK",
      "vis_m": 9999,
      "fzfg": false,
      "metar_trigger": false,
      "taf_trigger": false,
      "metar": "METAR GCFV 141930Z 36013KT 9999 FEW030 17/10 Q1023",
      "taf": "TAF GCFV 141400Z 1415/1515 04015KT 9999 FEW035 TX20/1514Z TN14/1506Z"
    },
    {
      "icao": "GCLP",
      "alert": "OK",
      "vis_m": 9999,
      "fzfg": false,
      "metar_trigger": false,
      "taf_trigger": false,
      "metar": "METAR GCLP 141930Z 35012KT 9999 FEW030 SCT045 17/11 Q1023 NOSIG",
      "taf": "TAF GCLP 141400Z 1415/1515 02020KT 9999 SCT035 TX21/1514Z TN15/1506Z"
    },
    {
      "icao": "GCTS",
      "alert": "OK",
      "vis_m": 9999,
      "fzfg": false,
      "metar_trigger": false,
      "taf_trigger": false,
      "metar": "METAR GCTS 141930Z 06011KT 9999 FEW045 18/10 Q1023 NOSIG",
      "taf": "TAF GCTS 141400Z 1415/1515 09018KT 9999 SCT040 TX22/1514Z TN14/1506Z"
    },
    {
      "icao": "GMAD",
      "alert": "OK",
      "vis_m": 9999,
      "fzfg": false,
      "metar_trigger": false,
      "taf_trigger": false,
      "metar": "METAR GMAD 141930Z 16009KT 9999 FEW026 14/13 Q1019 NOSIG",
      "taf": "TAF GMAD 141700Z 1418/1524 28012KT 8000 FEW020"
    },
    {
      "icao": "GMMN",
      "alert": "OK",
      "vis_m": 9999,
      "fzfg": false,
      "metar_trigger": false,
      "taf_trigger": false,
      "metar": "METAR GMMN 141930Z 26003KT 9999 SCT020 11/09 Q1021 NOSIG",
      "taf": "TAF GMMN 141700Z 1418/1524 30008KT 9999 SCT025"
    },
    {
      "icao": "GMMX",
      "alert": "OK",
      "vis_m": 9999,
      "fzfg": false,
      "metar_trigger": false,
      "taf_trigger": false,
      "metar": "METAR GMMX 141930Z 03004KT 9999 BKN026 SCT090 12/08 Q1021 NOSIG",
      "taf": "TAF GMMX 141700Z 1418/1524 24008KT 8000 SCT026 SCT090"
    },
    {
      "icao": "HEGN",
      "alert": "OK",
      "vis_m": 9999,
      "fzfg": false,
      "metar_trigger": false,
      "taf_trigger": false,
      "metar": "METAR HEGN 141900Z 29012KT CAVOK 14/04 Q1023 NOSIG",
      "taf": "TAF HEGN 141700Z 1418/1524 31010G20KT 6000 FEW025"
    },
    {
      "icao": "HEMA",
      "alert": "OK",
      "vis_m": 9999,
      "fzfg": false,
      "metar_trigger": false,
      "taf_trigger": false,
      "metar": "METAR HEMA 141900Z 30008KT CAVOK 16/07 Q1022 NOSIG",
      "taf": "TAF HEMA 141700Z 1418/1524 33010G20KT 8000 SCT025"
    },
    {
      "icao": "HESH",
      "alert": "OK",
      "vis_m": 9999,
      "fzfg": false,
      "metar_trigger": false,
      "taf_trigger": false,
      "metar": "METAR HESH 141900Z 33008KT CAVOK 17/06 Q1023 NOSIG",
      "taf": "TAF HESH 141700Z 1418/1524 36010KT CAVOK"
    },
    {
      "icao": "HESX",
      "alert": "OK",
      "vis_m": 9999,
      "fzfg": false,
      "metar_trigger": false,
      "taf_trigger": false,
      "metar": "METAR HESX 141900Z 33005KT CAVOK 11/06 Q1026 NOSIG",
      "taf": "TAF HESX 141704Z 1418/1524 34008KT 9999 SCT030"
    },
    {
      "icao": "LATI",
      "alert": "OK",
      "vis_m": 8000,
      "fzfg": false,
      "metar_trigger": false,
      "taf_trigger": false,
      "metar": "METAR LATI 141950Z 15003KT 8000 FEW041 BKN059 07/04 Q1026 NOSIG",
      "taf": "TAF LATI 141700Z 1418/1518 VRB05KT 9999 BKN070 TX16/1512Z TN05/1505Z"
    },
    {
      "icao": "LBPD",
      "alert": "OK",
      "vis_m": 9999,
      "fzfg": false,
      "metar_trigger": false,
      "taf_trigger": false,
      "metar": "METAR LBPD 141930Z AUTO 00000KT 9999 NCD 01/01 Q1023 NOSIG",
      "taf": "TAF LBPD 141700Z 1418/1518 VRB03KT 9999 SCT060"
    },
    {
      "icao": "LBSF",
      "alert": "OK",
      "vis_m": 7000,
      "fzfg": false,
      "metar_trigger": false,
      "taf_trigger": false,
      "metar": "METAR LBSF 141930Z AUTO 11003KT 080V180 7000 NSC 00/M01 Q1023 TEMPO 3000 BR",
      "taf": "TAF LBSF 141700Z 1418/1518 VRB03KT 9999 SCT040"
    },
    {
      "icao": "LBWN",
      "alert": "OK",
      "vis_m": 9000,
      "fzfg": false,
      "metar_trigger": false,
      "taf_trigger": false,
      "metar": "METAR LBWN 141930Z AUTO 35002KT 9000 FEW021/// OVC040/// 03/01 Q1022 NOSIG",
      "taf": "TAF LBWN 141700Z 1418/1518 VRB03KT 9999 BKN020"
    },
    {
      "icao": "LCLK",
      "alert": "OK",
      "vis_m": 9999,
      "fzfg": false,
      "metar_trigger": false,
      "taf_trigger": false,
      "metar": "METAR LCLK 141930Z 30005KT CAVOK 08/03 Q1023 NOSIG",
      "taf": "TAF LCLK 141730Z 1418/1518 33009KT 9999 FEW025"
    },
    {
      "icao": "LCPH",
      "alert": "OK",
      "vis_m": 9999,
      "fzfg": false,
      "metar_trigger": false,
      "taf_trigger": false,
      "metar": "METAR LCPH 141930Z 02004KT 9999 FEW030 08/03 Q1023 NOSIG",
      "taf": "TAF LCPH 141730Z 1418/1518 03007KT 9999 FEW020"
    },
    {
      "icao": "LEAL",
      "alert": "OK",
      "vis_m": 9999,
      "fzfg": false,
      "metar_trigger": false,
      "taf_trigger": false,
      "metar": "METAR LEAL 141930Z 30004KT 260V330 CAVOK 12/11 Q1019 NOSIG",
      "taf": "TAF LEAL 141700Z 1418/1518 VRB04KT CAVOK TX17/1513Z TN07/1506Z"
    },
    {
      "icao": "LEBB",
      "alert": "OK",
      "vis_m": 9999,
      "fzfg": false,
      "metar_trigger": false,
      "taf_trigger": false,
      "metar": "METAR LEBB 141930Z 08003KT 030V140 9999 FEW024 10/09 Q1019 NOSIG",
      "taf": "TAF LEBB 141700Z 1418/1518 20007KT 9999 FEW030 TX12/1512Z TN07/1424Z"
    },
    {
      "icao": "LEBL",
      "alert": "OK",
      "vis_m": 6000,
      "fzfg": false,
      "metar_trigger": false,
      "taf_trigger": false,
      "metar": "METAR LEBL 141930Z 26004KT 230V290 6000 FEW015 11/10 Q1018 NOSIG",
      "taf": "TAF LEBL 141700Z 1418/1518 20006KT 9999 FEW015 TX15/1512Z TN05/1506Z"
    },
    {
      "icao": "LECH",
      "alert": "OK",
      "vis_m": 7000,
      "fzfg": false,
      "metar_trigger": false,
      "taf_trigger": false,
      "metar": "METAR LECH 141930Z AUTO VRB02KT 7000 NSC 08/07 Q1019",
      "taf": ""
    },
    {
      "icao": "LEMD",
      "alert": "OK",
      "vis_m": 9999,
      "fzfg": false,
      "metar_trigger": false,
      "taf_trigger": false,
      "metar": "METAR LEMD 141930Z 00000KT 9999 FEW050 05/05 Q1020 NOSIG",
      "taf": "TAF LEMD 141700Z 1418/1524 VRB03KT 9999 SCT030 TX08/1515Z TN01/1506Z"
    },
    {
      "icao": "LEMG",
      "alert": "OK",
      "vis_m": 9999,
      "fzfg": false,
      "metar_trigger": false,
      "taf_trigger": false,
      "metar": "METAR LEMG 141930Z 29005KT 9999 SCT085 11/09 Q1020 NOSIG",
      "taf": "TAF LEMG 141700Z 1418/1518 29006KT 9999 FEW030 TX18/1514Z TN07/1507Z"
    },
    {
      "icao": "LEVC",
      "alert": "OK",
      "vis_m": 9999,
      "fzfg": false,
      "metar_trigger": false,
      "taf_trigger": false,
      "metar": "METAR LEVC 141930Z 07003KT 020V110 CAVOK 11/08 Q1019 NOSIG",
      "taf": "TAF LEVC 141700Z 1418/1518 VRB04KT CAVOK TX18/1512Z TN05/1506Z"
    },
    {
      "icao": "LEXJ",
      "alert": "OK",
      "vis_m": 9999,
      "fzfg": false,
      "metar_trigger": false,
      "taf_trigger": false,
      "metar": "METAR LEXJ 141930Z 17002KT 9999 BKN017 10/08 Q1018",
      "taf": "TAF LEXJ 141400Z 1415/1515 21009KT 9999 FEW040 TX14/1415Z TN08/1503Z"
    },
    {
      "icao": "LEZG",
      "alert": "OK",
      "vis_m": 9999,
      "fzfg": false,
      "metar_trigger": false,
      "taf_trigger": false,
      "metar": "METAR LEZG 141930Z 23007KT CAVOK 08/05 Q1019 NOSIG",
      "taf": "TAF LEZG 141700Z 1418/1518 10005KT CAVOK TX13/1515Z TN03/1506Z"
    },
    {
      "icao": "LEZL",
      "alert": "OK",
      "vis_m": 9999,
      "fzfg": false,
      "metar_trigger": false,
      "taf_trigger": false,
      "metar": "METAR LEZL 141930Z 09001KT CAVOK 11/11 Q1021 NOSIG",
      "taf": "TAF LEZL 141400Z 1415/1515 06004KT 9999 FEW030 TX17/1415Z TN06/1507Z"
    },
    {
      "icao": "LFBD",
      "alert": "OK",
      "vis_m": 9999,
      "fzfg": false,
      "metar_trigger": false,
      "taf_trigger": false,
      "metar": "METAR LFBD 141930Z AUTO 22006KT CAVOK 11/09 Q1018 NOSIG",
      "taf": "TAF LFBD 141700Z 1418/1524 18005KT CAVOK TX13/1514Z TN05/1506Z"
    },
    {
      "icao": "LFLL",
      "alert": "OK",
      "vis_m": 9999,
      "fzfg": false,
      "metar_trigger": false,
      "taf_trigger": false,
      "metar": "METAR LFLL 141930Z 14009KT CAVOK 10/06 Q1018 NOSIG",
      "taf": "TAF LFLL 141700Z 1418/1524 18012KT CAVOK"
    },
    {
      "icao": "LFLS",
      "alert": "OK",
      "vis_m": 9999,
      "fzfg": false,
      "metar_trigger": false,
      "taf_trigger": false,
      "metar": "METAR LFLS 141930Z AUTO 09008KT CAVOK 05/04 Q1019 NOSIG",
      "taf": ""
    },
    {
      "icao": "LFMN",
      "alert": "OK",
      "vis_m": 9999,
      "fzfg": false,
      "metar_trigger": false,
      "taf_trigger": false,
      "metar": "METAR LFMN 141930Z 32008KT CAVOK 10/08 Q1021 NOSIG",
      "taf": "TAF LFMN 141400Z 1415/1521 VRB04KT CAVOK"
    },
    {
      "icao": "LFOB",
      "alert": "OK",
      "vis_m": 9999,
      "fzfg": false,
      "metar_trigger": false,
      "taf_trigger": false,
      "metar": "METAR LFOB 141930Z AUTO 15004KT 120V180 9999 BKN022 BKN086 OVC100 10/08 Q1012 TEMPO 4000 DZ OVC008",
      "taf": "TAF LFOB 141700Z 1418/1518 18006KT 9999 BKN020"
    },
    {
      "icao": "LFPO",
      "alert": "OK",
      "vis_m": 9999,
      "fzfg": false,
      "metar_trigger": false,
      "taf_trigger": false,
      "metar": "METAR LFPO 141930Z 19006KT 9999 BKN022 BKN028 11/08 Q1013 NOSIG",
      "taf": "TAF LFPO 141700Z 1418/1524 19005KT 9999 BKN017"
    },
    {
      "icao": "LFSB",
      "alert": "OK",
      "vis_m": 9999,
      "fzfg": false,
      "metar_trigger": false,
      "taf_trigger": false,
      "metar": "METAR LFSB 141930Z AUTO 18006KT CAVOK 06/03 Q1017 NOSIG",
      "taf": "TAF LFSB 141700Z 1418/1518 18005KT 9999 FEW045 BKN100"
    },
    {
      "icao": "LGAV",
      "alert": "OK",
      "vis_m": 9999,
      "fzfg": false,
      "metar_trigger": false,
      "taf_trigger": false,
      "metar": "METAR LGAV 141920Z VRB03KT CAVOK 07/02 Q1026 NOSIG",
      "taf": "TAF LGAV 141700Z 1418/1518 VRB05KT 9999 FEW025"
    },
    {
      "icao": "LGTS",
      "alert": "OK",
      "vis_m": 9999,
      "fzfg": false,
      "metar_trigger": false,
      "taf_trigger": false,
      "metar": "METAR LGTS 141920Z 11006KT CAVOK 04/01 Q1024 NOSIG",
      "taf": "TAF LGTS 141700Z 1418/1518 VRB03KT 9999 FEW030"
    },
    {
      "icao": "LHBP",
      "alert": "OK",
      "vis_m": 800,
      "fzfg": true,
      "metar_trigger": false,
      "taf_trigger": false,
      "metar": "METAR LHBP 141930Z 26002KT 0800 R31L/1300N R31R/2000U FZFG OVC002 M04/M04 Q1021 TEMPO 0500",
      "taf": "TAF LHBP 141715Z 1418/1518 VRB03KT 5000 BR OVC005"
    },
    {
      "icao": "LHDC",
      "alert": "OK",
      "vis_m": 450,
      "fzfg": true,
      "metar_trigger": false,
      "taf_trigger": false,
      "metar": "METAR LHDC 141915Z AUTO VRB01KT 0450 R04/0550N FZFG VV002 M01/M01 Q1020",
      "taf": ""
    },
    {
      "icao": "LIBD",
      "alert": "OK",
      "vis_m": 9999,
      "fzfg": false,
      "metar_trigger": false,
      "taf_trigger": false,
      "metar": "METAR LIBD 141920Z 20007KT CAVOK 08/06 Q1024",
      "taf": "TAF LIBD 141700Z 1418/1518 VRB06KT 9999 FEW040"
    },
    {
      "icao": "LIBG",
      "alert": "OK",
      "vis_m": 9999,
      "fzfg": false,
      "metar_trigger": false,
      "taf_trigger": false,
      "metar": "METAR LIBG 141850Z 12003KT CAVOK 07/07 Q1024",
      "taf": "TAF LIBG 141700Z 1418/1503 16007KT 9999 FEW030"
    },
    {
      "icao": "LIBP",
      "alert": "OK",
      "vis_m": 9999,
      "fzfg": false,
      "metar_trigger": false,
      "taf_trigger": false,
      "metar": "METAR LIBP 141920Z AUTO 24002KT 9999 NCD 05/05 Q1024",
      "taf": "TAF LIBP 141700Z 1418/1518 VRB05KT CAVOK"
    },
    {
      "icao": "LIBR",
      "alert": "OK",
      "vis_m": 9999,
      "fzfg": false,
      "metar_trigger": false,
      "taf_trigger": false,
      "metar": "METAR LIBR 141920Z 18002KT CAVOK 08/06 Q1025",
      "taf": "TAF LIBR 141700Z 1418/1518 VRB06KT 9999 FEW030"
    },
    {
      "icao": "LICA",
      "alert": "OK",
      "vis_m": 9999,
      "fzfg": false,
      "metar_trigger": false,
      "taf_trigger": false,
      "metar": "METAR LICA 141920Z AUTO 07006KT 9999 NCD 06/05 Q1025",
      "taf": "TAF LICA 141700Z 1418/1518 VRB05KT CAVOK"
    },
    {
      "icao": "LICC",
      "alert": "OK",
      "vis_m": 9999,
      "fzfg": false,
      "metar_trigger": false,
      "taf_trigger": false,
      "metar": "METAR LICC 141920Z 26007KT CAVOK 10/06 Q1024",
      "taf": "TAF LICC 141700Z 1418/1518 25011KT 9999 FEW040"
    },
    {
      "icao": "LICJ",
      "alert": "OK",
      "vis_m": 9999,
      "fzfg": false,
      "metar_trigger": false,
      "taf_trigger": false,
      "metar": "METAR LICJ 141920Z 21005KT 130V240 CAVOK 13/08 Q1023",
      "taf": "TAF LICJ 141700Z 1418/1518 06008KT CAVOK"
    },
    {
      "icao": "LIMC",
      "alert": "OK",
      "vis_m": 9999,
      "fzfg": false,
      "metar_trigger": false,
      "taf_trigger": false,
      "metar": "METAR LIMC 141920Z VRB02KT 9999 BKN040 06/02 Q1023 NOSIG",
      "taf": "TAF LIMC 141700Z 1418/1524 VRB05KT 8000 BKN040"
    },
    {
      "icao": "LIME",
      "alert": "OK",
      "vis_m": 5000,
      "fzfg": false,
      "metar_trigger": false,
      "taf_trigger": false,
      "metar": "METAR LIME 141920Z VRB02KT 5000 BR FEW005 BKN045 06/04 Q1022 NOSIG",
      "taf": "TAF LIME 141700Z 1418/1518 VRB04KT 4000 BR FEW005 BKN040"
    },
    {
      "icao": "LIMF",
      "alert": "OK",
      "vis_m": 9999,
      "fzfg": false,
      "metar_trigger": false,
      "taf_trigger": false,
      "metar": "METAR LIMF 141920Z VRB02KT CAVOK 05/M01 Q1023",
      "taf": "TAF LIMF 141700Z 1418/1518 VRB03KT 8000 SCT050"
    },
    {
      "icao": "LIMJ",
      "alert": "OK",
      "vis_m": 9999,
      "fzfg": false,
      "metar_trigger": false,
      "taf_trigger": false,
      "metar": "METAR LIMJ 141920Z 12010KT 9999 FEW025 SCT050 15/11 Q1022",
      "taf": "TAF LIMJ 141700Z 1418/1518 12010KT 9999 BKN020"
    },
    {
      "icao": "LIPE",
      "alert": "OK",
      "vis_m": 4000,
      "fzfg": false,
      "metar_trigger": false,
      "taf_trigger": false,
      "metar": "METAR LIPE 141920Z 21001KT 4000 BR SCT060 04/04 Q1024",
      "taf": "TAF LIPE 141700Z 1418/1518 VRB04KT 8000 BKN035"
    },
    {
      "icao": "LIPH",
      "alert": "OK",
      "vis_m": 6000,
      "fzfg": false,
      "metar_trigger": false,
      "taf_trigger": false,
      "metar": "METAR LIPH 141920Z 36002KT 6000 NSC 02/01 Q1024",
      "taf": "TAF LIPH 141700Z 1418/1518 VRB04KT 8000 BKN020"
    },
    {
      "icao": "LIPQ",
      "alert": "OK",
      "vis_m": 5000,
      "fzfg": false,
      "metar_trigger": false,
      "taf_trigger": false,
      "metar": "METAR LIPQ 141920Z AUTO VRB02KT 5000 BR OVC024/// 06/05 Q1024",
      "taf": "TAF LIPQ 141700Z 1418/1518 VRB04KT 6000 BKN020"
    },
    {
      "icao": "LIPR",
      "alert": "OK",
      "vis_m": 4000,
      "fzfg": false,
      "metar_trigger": false,
      "taf_trigger": false,
      "metar": "METAR LIPR 141920Z 28003KT 4000 BR BKN050 06/04 Q1024",
      "taf": "TAF LIPR 141700Z 1418/1518 VRB05KT 6000 BKN035"
    },
    {
      "icao": "LIPX",
      "alert": "OK",
      "vis_m": 4000,
      "fzfg": false,
      "metar_trigger": false,
      "taf_trigger": false,
      "metar": "METAR LIPX 141920Z 11002KT 4000 BR OVC060 05/05 Q1023",
      "taf": "TAF LIPX 141700Z 1418/1518 VRB04KT 3000 BR FEW010 BKN050"
    },
    {
      "icao": "LIPY",
      "alert": "OK",
      "vis_m": 4100,
      "fzfg": false,
      "metar_trigger": false,
      "taf_trigger": false,
      "metar": "METAR LIPY 141920Z AUTO 01004KT 320V090 4100 BR OVC057/// 08/06 Q1023",
      "taf": "TAF LIPY 141700Z 1418/1518 VRB05KT 8000 BKN040"
    },
    {
      "icao": "LIPZ",
      "alert": "OK",
      "vis_m": 6000,
      "fzfg": false,
      "metar_trigger": false,
      "taf_trigger": false,
      "metar": "METAR LIPZ 141920Z 33002KT 6000 BKN060 05/04 Q1024 NOSIG",
      "taf": "TAF LIPZ 141700Z 1418/1524 VRB04KT 7000 BKN030"
    },
    {
      "icao": "LIRF",
      "alert": "OK",
      "vis_m": 9999,
      "fzfg": false,
      "metar_trigger": false,
      "taf_trigger": false,
      "metar": "METAR LIRF 141920Z 11007KT 9999 SCT045 14/10 Q1024 NOSIG",
      "taf": "TAF LIRF 141700Z 1418/1524 15012KT 9999 SCT040"
    },
    {
      "icao": "LIRN",
      "alert": "OK",
      "vis_m": 9999,
      "fzfg": false,
      "metar_trigger": false,
      "taf_trigger": false,
      "metar": "METAR LIRN 141920Z 05003KT 010V080 9999 SCT040 11/07 Q1024 NOSIG",
      "taf": "TAF LIRN 141700Z 1418/1518 VRB05KT 9999 SCT040"
    },
    {
      "icao": "LIRP",
      "alert": "OK",
      "vis_m": 9999,
      "fzfg": false,
      "metar_trigger": false,
      "taf_trigger": false,
      "metar": "METAR LIRP 141915Z 12002KT 9999 FEW025 BKN050 11/10 Q1022 NOSIG",
      "taf": "TAF LIRP 141700Z 1418/1518 12005KT 9999 SCT030 BKN060"
    },
    {
      "icao": "LIRZ",
      "alert": "OK",
      "vis_m": 9999,
      "fzfg": false,
      "metar_trigger": false,
      "taf_trigger": false,
      "metar": "METAR LIRZ 141920Z AUTO 03004KT 9999 OVC044/// 10/08 Q1023",
      "taf": "TAF LIRZ 141700Z 1418/1518 VRB05KT 9999 BKN040"
    },
    {
      "icao": "LJLJ",
      "alert": "OK",
      "vis_m": 9999,
      "fzfg": false,
      "metar_trigger": false,
      "taf_trigger": false,
      "metar": "METAR LJLJ 141930Z 30005KT 9999 MIFG FEW017 M02/M02 Q1021 NOSIG",
      "taf": "TAF LJLJ 141700Z 1418/1518 30003KT 9999 FEW025"
    },
    {
      "icao": "LKMT",
      "alert": "OK",
      "vis_m": 9000,
      "fzfg": false,
      "metar_trigger": false,
      "taf_trigger": false,
      "metar": "METAR LKMT 141930Z 23017KT 9000 BKN017 OVC037 M01/M02 Q1018 NOSIG",
      "taf": "TAF LKMT 141700Z 1418/1518 23014KT 6000 BKN010 OVC018"
    },
    {
      "icao": "LKPR",
      "alert": "OK",
      "vis_m": 9999,
      "fzfg": false,
      "metar_trigger": false,
      "taf_trigger": false,
      "metar": "METAR LKPR 141930Z 20007KT 9999 FEW024 OVC034 04/02 Q1016 NOSIG",
      "taf": "TAF LKPR 141700Z 1418/1524 20008KT 9999 SCT012 BKN027"
    },
    {
      "icao": "LLBG",
      "alert": "OK",
      "vis_m": 9999,
      "fzfg": false,
      "metar_trigger": false,
      "taf_trigger": false,
      "metar": "METAR LLBG 141950Z 25005KT 9999 FEW040 BKN050 14/07 Q1023 NOSIG",
      "taf": "TAF LLBG 141705Z 1418/1518 30006KT 9999 SCT045"
    },
    {
      "icao": "LMML",
      "alert": "OK",
      "vis_m": 9999,
      "fzfg": false,
      "metar_trigger": false,
      "taf_trigger": false,
      "metar": "METAR LMML 141945Z 16009KT 9999 SCT023 15/10 Q1024 NOSIG",
      "taf": "TAF LMML 141700Z 1418/1518 17010KT 9999 SCT025"
    },
    {
      "icao": "LOWW",
      "alert": "OK",
      "vis_m": 800,
      "fzfg": true,
      "metar_trigger": false,
      "taf_trigger": false,
      "metar": "METAR LOWW 141920Z 16004KT 0800 R16/1500U R29/0750N FZFG VV001 M02/M03 Q1020 NOSIG",
      "taf": "TAF LOWW 141715Z 1418/1524 15006KT 0800 FZFG VV001 TXM01/1521Z TNM02/1418Z"
    },
    {
      "icao": "LPFR",
      "alert": "OK",
      "vis_m": 9999,
      "fzfg": false,
      "metar_trigger": false,
      "taf_trigger": false,
      "metar": "METAR LPFR 141930Z 03003KT 9999 FEW022 13/11 Q1021",
      "taf": "TAF LPFR 141700Z 1418/1518 27007KT 9999 SCT020"
    },
    {
      "icao": "LPMA",
      "alert": "OK",
      "vis_m": 9999,
      "fzfg": false,
      "metar_trigger": false,
      "taf_trigger": false,
      "metar": "METAR LPMA 141930Z 28005KT 250V350 9999 FEW015 15/08 Q1025",
      "taf": "TAF LPMA 141700Z 1418/1518 34008KT 9999 SCT015"
    },
    {
      "icao": "LPPR",
      "alert": "OK",
      "vis_m": 9999,
      "fzfg": false,
      "metar_trigger": false,
      "taf_trigger": false,
      "metar": "METAR LPPR 141930Z 00000KT 9999 FEW030 SCT045 09/08 Q1021",
      "taf": "TAF LPPR 141700Z 1418/1518 32007KT 9999 FEW020"
    },
    {
      "icao": "LPPS",
      "alert": "OK",
      "vis_m": 9999,
      "fzfg": false,
      "metar_trigger": false,
      "taf_trigger": false,
      "metar": "METAR LPPS 141930Z 35008KT 9999 SCT015 SCT030 15/08 Q1026",
      "taf": "TAF LPPS 141700Z 1418/1524 36012KT 9999 SCT015"
    },
    {
      "icao": "LPPT",
      "alert": "OK",
      "vis_m": 9999,
      "fzfg": false,
      "metar_trigger": false,
      "taf_trigger": false,
      "metar": "METAR LPPT 141930Z 34004KT 9999 FEW012 BKN045 11/10 Q1022",
      "taf": "TAF LPPT 141700Z 1418/1524 31008KT 9999 FEW015 SCT030"
    },
    {
      "icao": "LQBK",
      "alert": "OK",
      "vis_m": 9999,
      "fzfg": false,
      "metar_trigger": false,
      "taf_trigger": false,
      "metar": "METAR LQBK 141930Z 16004KT CAVOK 03/02 Q1022 NOSIG",
      "taf": "TAF LQBK 141700Z 1418/1518 21007KT CAVOK TX10/1513Z TN02/1503Z"
    },
    {
      "icao": "LQSA",
      "alert": "OK",
      "vis_m": 7000,
      "fzfg": false,
      "metar_trigger": false,
      "taf_trigger": false,
      "metar": "METAR LQSA 141930Z VRB02KT 7000 BKN055 01/01 Q1023 NOSIG",
      "taf": "TAF LQSA 141700Z 1418/1518 VRB02KT 9999 FEW045 TX05/1514Z TNM04/1506Z"
    },
    {
      "icao": "LQTZ",
      "alert": "OK",
      "vis_m": 9999,
      "fzfg": false,
      "metar_trigger": false,
      "taf_trigger": false,
      "metar": "METAR LQTZ 141930Z VRB01KT 9999 BKN065 03/02 Q1022",
      "taf": "TAF LQTZ 141700Z 1418/1518 VRB03KT 8000 NSC TX03/1513Z TNM01/1506Z"
    },
    {
      "icao": "LRBC",
      "alert": "OK",
      "vis_m": 9999,
      "fzfg": false,
      "metar_trigger": false,
      "taf_trigger": false,
      "metar": "METAR LRBC 141930Z 17009KT 9999 BKN057 M02/M05 Q1019",
      "taf": "TAF LRBC 141700Z 1418/1503 VRB04KT CAVOK"
    },
    {
      "icao": "LRBS",
      "alert": "OK",
      "vis_m": 6000,
      "fzfg": false,
      "metar_trigger": false,
      "taf_trigger": false,
      "metar": "METAR LRBS 141930Z 23005KT 6000 NSC M04/M06 Q1022 NOSIG",
      "taf": "TAF LRBS 141700Z 1418/1518 VRB04KT 7000 NSC"
    },
    {
      "icao": "LRBV",
      "alert": "OK",
      "vis_m": 2700,
      "fzfg": false,
      "metar_trigger": false,
      "taf_trigger": false,
      "metar": "METAR LRBV 141930Z VRB01KT 2700 -FZRADZ BR SCT002 BKN012 OVC026 M02/M02 Q1019",
      "taf": "TAF LRBV 141700Z 1418/1503 VRB04KT 3000 BR BKN015 OVC020"
    },
    {
      "icao": "LRCL",
      "alert": "OK",
      "vis_m": 7000,
      "fzfg": false,
      "metar_trigger": false,
      "taf_trigger": false,
      "metar": "METAR LRCL 141930Z 08006KT 7000 SCT007 OVC012 M03/M04 Q1020",
      "taf": "TAF LRCL 141700Z 1418/1503 09006KT 7000 BKN010 OVC030"
    },
    {
      "icao": "LRCV",
      "alert": "OK",
      "vis_m": 4000,
      "fzfg": false,
      "metar_trigger": false,
      "taf_trigger": false,
      "metar": "METAR LRCV 141930Z 28004KT 4000 BR BKN046 M02/M02 Q1022",
      "taf": "TAF LRCV 141700Z 1418/1503 VRB04KT 5000 BR BKN010 BKN040"
    },
    {
      "icao": "LRIA",
      "alert": "OK",
      "vis_m": 9999,
      "fzfg": false,
      "metar_trigger": false,
      "taf_trigger": false,
      "metar": "METAR LRIA 141930Z 08007KT CAVOK M05/M07 Q1020",
      "taf": "TAF LRIA 141700Z 1418/1503 07007KT CAVOK"
    },
    {
      "icao": "LROP",
      "alert": "OK",
      "vis_m": 5000,
      "fzfg": false,
      "metar_trigger": false,
      "taf_trigger": false,
      "metar": "METAR LROP 141930Z 25005KT 5000 BR NSC M05/M07 Q1022 NOSIG",
      "taf": "TAF LROP 141700Z 1418/1518 VRB04KT 7000 NSC"
    },
    {
      "icao": "LRSB",
      "alert": "OK",
      "vis_m": 5000,
      "fzfg": false,
      "metar_trigger": false,
      "taf_trigger": false,
      "metar": "METAR LRSB 141930Z 17003KT 5000 BR FEW004 OVC032 M00/M00 Q1019 REFZRA",
      "taf": "TAF LRSB 141700Z 1418/1518 VRB04KT 5000 BR SCT015 OVC025"
    },
    {
      "icao": "LRSM",
      "alert": "OK",
      "vis_m": 2800,
      "fzfg": false,
      "metar_trigger": false,
      "taf_trigger": false,
      "metar": "METAR LRSM 141930Z AUTO 11003KT 070V130 2800 BR FEW004/// BKN007/// OVC009/// M01/M02 Q1020",
      "taf": ""
    },
    {
      "icao": "LRSV",
      "alert": "OK",
      "vis_m": 7000,
      "fzfg": false,
      "metar_trigger": false,
      "taf_trigger": false,
      "metar": "METAR LRSV 141930Z 09007KT 7000 -SN BKN034 M07/M08 Q1017",
      "taf": "TAF LRSV 141700Z 1418/1503 07006KT 5000 BR NSC"
    },
    {
      "icao": "LRTM",
      "alert": "OK",
      "vis_m": 6000,
      "fzfg": false,
      "metar_trigger": false,
      "taf_trigger": false,
      "metar": "METAR LRTM 141930Z AUTO 06005KT 6000 OVC011/// M02/M03 Q1020",
      "taf": "TAF LRTM 141400Z 1415/1424 VRB03KT 9999 BKN015 BKN025"
    },
    {
      "icao": "LRTR",
      "alert": "OK",
      "vis_m": 5000,
      "fzfg": false,
      "metar_trigger": false,
      "taf_trigger": false,
      "metar": "METAR LRTR 141930Z 11005KT 5000 BR BKN047 01/01 Q1021 BECMG 3000 BR",
      "taf": "TAF LRTR 141700Z 1418/1518 11006KT 5000 BR BKN040"
    },
    {
      "icao": "LTAC",
      "alert": "OK",
      "vis_m": 9999,
      "fzfg": false,
      "metar_trigger": false,
      "taf_trigger": false,
      "metar": "METAR LTAC 141920Z 23007KT 9999 SCT011 BKN033 BKN090 M03/M05 Q1023 NOSIG RMK RWY21C 23006KT RWY03L 23005KT RWY21R 24006KT RWY03R 22005KT RWY21L 23006KT",
      "taf": "TAF LTAC 141640Z 1418/1518 VRB02KT 9999 SCT040 SCT100"
    },
    {
      "icao": "LTFM",
      "alert": "OK",
      "vis_m": 9999,
      "fzfg": false,
      "metar_trigger": false,
      "taf_trigger": false,
      "metar": "METAR LTFM 141920Z 19007KT 9999 BKN040 05/03 Q1024 NOSIG RMK RWY17L 18008KT RWY34L 19005KT RWY16R 20006KT RWY36 17006KT RWY18 19008KT",
      "taf": "TAF LTFM 141640Z 1418/1524 VRB02KT 9999 FEW025 BKN040"
    },
    {
      "icao": "LUKK",
      "alert": "OK",
      "vis_m": 6000,
      "fzfg": false,
      "metar_trigger": false,
      "taf_trigger": false,
      "metar": "METAR LUKK 141930Z VRB03KT 6000 NSC M08/M10 Q1021 NOSIG",
      "taf": "TAF LUKK 141731Z 1418/1518 VRB05KT 8000 NSC"
    },
    {
      "icao": "LWOH",
      "alert": "OK",
      "vis_m": 9999,
      "fzfg": false,
      "metar_trigger": false,
      "taf_trigger": false,
      "metar": "METAR LWOH 141950Z 34004KT 9999 SCT040 M00/M01 Q1025",
      "taf": "TAF LWOH 141725Z 1418/1518 VRB02KT 9999 SCT040"
    },
    {
      "icao": "LWSK",
      "alert": "OK",
      "vis_m": 9999,
      "fzfg": false,
      "metar_trigger": false,
      "taf_trigger": false,
      "metar": "METAR LWSK 141950Z VRB01KT CAVOK M01/M03 Q1025 NOSIG",
      "taf": "TAF LWSK 141725Z 1418/1518 VRB02KT CAVOK"
    },
    {
      "icao": "LYBE",
      "alert": "OK",
      "vis_m": 9999,
      "fzfg": false,
      "metar_trigger": false,
      "taf_trigger": false,
      "metar": "METAR LYBE 141930Z 20007KT CAVOK 07/02 Q1021 NOSIG",
      "taf": "TAF LYBE 141700Z 1418/1518 20006KT 8000 NSC TX08/1513Z TN03/1506Z"
    },
    {
      "icao": "LYNI",
      "alert": "OK",
      "vis_m": 3500,
      "fzfg": false,
      "metar_trigger": false,
      "taf_trigger": false,
      "metar": "METAR LYNI 141930Z 10003KT 3500 BR BKN080 04/03 Q1023 NOSIG",
      "taf": "TAF LYNI 141700Z 1418/1518 10004KT 5000 BR SCT050 TX08/1513Z TN01/1506Z"
    },
    {
      "icao": "LYPG",
      "alert": "OK",
      "vis_m": 9999,
      "fzfg": false,
      "metar_trigger": false,
      "taf_trigger": false,
      "metar": "METAR LYPG 141930Z 36001KT 9999 SCT033 BKN070 07/05 Q1026 NOSIG",
      "taf": "TAF LYPG 141700Z 1418/1518 VRB02KT 7000 FEW030 SCT070 TX12/1513Z TN02/1505Z"
    },
    {
      "icao": "LZIB",
      "alert": "OK",
      "vis_m": 800,
      "fzfg": true,
      "metar_trigger": false,
      "taf_trigger": false,
      "metar": "METAR LZIB 141930Z 04003KT 0800 R31/1000N R22/1600U FZFG OVC002 M03/M03 Q1021 TEMPO FZDZ VV001",
      "taf": ""
    },
    {
      "icao": "LZKZ",
      "alert": "OK",
      "vis_m": 3500,
      "fzfg": false,
      "metar_trigger": false,
      "taf_trigger": false,
      "metar": "METAR LZKZ 141930Z 19003KT 3500 BR BKN004 OVC010 M04/M05 Q1020 TEMPO 2000 BR",
      "taf": ""
    },
    {
      "icao": "LZTT",
      "alert": "OK",
      "vis_m": 8000,
      "fzfg": false,
      "metar_trigger": false,
      "taf_trigger": false,
      "metar": "METAR LZTT 141930Z VRB02KT 8000 OVC008 M05/M07 Q1015",
      "taf": "TAF LZTT 141715Z 1418/1518 VRB02KT 7000 OVC008"
    },
    {
      "icao": "OEJN",
      "alert": "OK",
      "vis_m": 9999,
      "fzfg": false,
      "metar_trigger": false,
      "taf_trigger": false,
      "metar": "METAR OEJN 141900Z 34009KT 9999 FEW040 22/11 Q1017 NOSIG",
      "taf": "TAF OEJN 141700Z 1418/1524 34010KT 8000 FEW040"
    },
    {
      "icao": "OEMA",
      "alert": "OK",
      "vis_m": 9999,
      "fzfg": false,
      "metar_trigger": false,
      "taf_trigger": false,
      "metar": "METAR OEMA 141900Z 36005KT CAVOK 18/M08 Q1020 NOSIG",
      "taf": "TAF OEMA 141700Z 1418/1524 33008KT CAVOK"
    },
    {
      "icao": "OJAI",
      "alert": "OK",
      "vis_m": 4000,
      "fzfg": false,
      "metar_trigger": false,
      "taf_trigger": false,
      "metar": "METAR OJAI 141900Z 26008KT 4000 BR NSC 07/05 Q1023 NOSIG",
      "taf": "TAF OJAI 141700Z 1418/1524 27012KT 4000 BR FEW025TCU BKN030"
    },
    {
      "icao": "OMAA",
      "alert": "OK",
      "vis_m": 9999,
      "fzfg": false,
      "metar_trigger": false,
      "taf_trigger": false,
      "metar": "METAR OMAA 141900Z 08007KT 070V140 CAVOK 19/10 Q1017 NOSIG",
      "taf": "TAF OMAA 141700Z 1418/1600 08005KT 8000 NSC"
    },
    {
      "icao": "OMDB",
      "alert": "OK",
      "vis_m": 9999,
      "fzfg": false,
      "metar_trigger": false,
      "taf_trigger": false,
      "metar": "METAR OMDB 141930Z 10007KT CAVOK 20/11 Q1017 NOSIG",
      "taf": "TAF OMDB 141700Z 1418/1600 12005KT 8000 NSC"
    },
    {
      "icao": "UAAA",
      "alert": "OK",
      "vis_m": 600,
      "fzfg": true,
      "metar_trigger": false,
      "taf_trigger": false,
      "metar": "SPECI UAAA 141950Z 32003MPS 270V360 0600 R23L/1700D FZFG VV002 M07/M07 Q1020 NOSIG RMK QBB070",
      "taf": "TAF UAAA 141701Z 1418/1518 30003MPS 1100 BR FU BKN005 OVC020 TXM02/1509Z TNM07/1503Z"
    },
    {
      "icao": "UBBB",
      "alert": "OK",
      "vis_m": 9999,
      "fzfg": false,
      "metar_trigger": false,
      "taf_trigger": false,
      "metar": "METAR UBBB 141930Z 33014KT 9999 SCT033 04/M02 Q1022 NOSIG",
      "taf": "TAF UBBB 141701Z 1418/1518 31014KT 9999 BKN025 TX06/1510Z TN02/1501Z"
    },
    {
      "icao": "UDSG",
      "alert": "OK",
      "vis_m": 9999,
      "fzfg": false,
      "metar_trigger": false,
      "taf_trigger": false,
      "metar": "METAR UDSG 141930Z 32004KT 9999 FEW049 M10/M14 Q1017 NOSIG",
      "taf": "TAF UDSG 141658Z 1418/1518 VRB06KT 9999 SCT040"
    },
    {
      "icao": "UDYZ",
      "alert": "OK",
      "vis_m": 9999,
      "fzfg": false,
      "metar_trigger": false,
      "taf_trigger": false,
      "metar": "METAR UDYZ 141930Z 26002KT 9999 SCT046 M01/M07 Q1018 NOSIG",
      "taf": "TAF UDYZ 141700Z 1418/1518 VRB06KT 9999 FEW040"
    },
    {
      "icao": "UGKO",
      "alert": "OK",
      "vis_m": 9999,
      "fzfg": false,
      "metar_trigger": false,
      "taf_trigger": false,
      "metar": "METAR UGKO 141930Z 02003KT 350V050 CAVOK M01/M02 Q1024 NOSIG",
      "taf": "TAF UGKO 141700Z 1418/1518 08007KT 9999 BKN050 TX06/1511Z TNM02/1501Z"
    }
  ]
}