{
  "ts_utc": "2025-12-29T18:00:04Z",
  "threshold_m": 150,
  "source": "stations_override.txt (ICAO list) + aviationweather.gov (METAR/TAF raw)",
  "station_count": 159,
  "stations": [
    {
      "icao": "BIKF",
      "alert": "OK",
      "vis_m": 9999,
      "fzfg": false,
      "metar_trigger": false,
      "taf_trigger": false,
      "metar": "METAR BIKF 291730Z 30007KT 250V330 9999 SCT006 BKN016 04/04 Q1039",
      "taf": "TAF BIKF 291631Z 2918/3018 27005KT 6000 DZ BR SCT007 BKN014 TX06/2918Z TN03/3002Z"
    },
    {
      "icao": "BKPR",
      "alert": "OK",
      "vis_m": null,
      "fzfg": false,
      "metar_trigger": false,
      "taf_trigger": false,
      "metar": "",
      "taf": "TAF BKPR 291730Z 2918/3018 18007KT CAVOK"
    },
    {
      "icao": "EBCI",
      "alert": "OK",
      "vis_m": 6000,
      "fzfg": false,
      "metar_trigger": false,
      "taf_trigger": false,
      "metar": "METAR EBCI 291750Z 34003KT 6000 SCT007 BKN020 02/01 Q1025 TEMPO 4000 BR BKN006",
      "taf": "TAF EBCI 291706Z 2918/3024 01005KT 6000 BKN025"
    },
    {
      "icao": "EDDB",
      "alert": "OK",
      "vis_m": 9999,
      "fzfg": false,
      "metar_trigger": false,
      "taf_trigger": false,
      "metar": "METAR EDDB 291750Z AUTO 30008KT 9999 -SHRA FEW012 BKN029 OVC037 FEW///TCU 04/03 Q1015 TEMPO 4000 RA BKN010",
      "taf": "TAF EDDB 291700Z 2918/3018 31010KT 9999 BKN015"
    },
    {
      "icao": "EDDH",
      "alert": "OK",
      "vis_m": 9999,
      "fzfg": false,
      "metar_trigger": false,
      "taf_trigger": false,
      "metar": "METAR EDDH 291750Z AUTO 30008KT 9999 FEW023 04/01 Q1018 TEMPO 02006KT 4500 -DZRA BKN012",
      "taf": "TAF EDDH 291700Z 2918/3024 31011KT CAVOK"
    },
    {
      "icao": "EDDK",
      "alert": "OK",
      "vis_m": 2300,
      "fzfg": false,
      "metar_trigger": false,
      "taf_trigger": false,
      "metar": "METAR EDDK 291750Z AUTO 08002KT 2300 -DZ BR OVC003 00/M00 Q1024 REDZ TEMPO 3500 DZ",
      "taf": "TAF EDDK 291700Z 2918/3024 30004KT 3500 BR BKN005"
    },
    {
      "icao": "EDDN",
      "alert": "OK",
      "vis_m": 9999,
      "fzfg": false,
      "metar_trigger": false,
      "taf_trigger": false,
      "metar": "METAR EDDN 291750Z AUTO 26005KT 9999 OVC012 M01/M03 Q1020 TEMPO SCT010 BKN025",
      "taf": "TAF EDDN 291700Z 2918/3018 28006KT 9999 SCT008 BKN020"
    },
    {
      "icao": "EDDS",
      "alert": "OK",
      "vis_m": 9999,
      "fzfg": false,
      "metar_trigger": false,
      "taf_trigger": false,
      "metar": "METAR EDDS 291750Z AUTO 32006KT 9999 BKN013 M02/M04 Q1021 NOSIG",
      "taf": "TAF EDDS 291700Z 2918/3018 33004KT 9999 OVC020"
    },
    {
      "icao": "EDFH",
      "alert": "OK",
      "vis_m": 4000,
      "fzfg": false,
      "metar_trigger": false,
      "taf_trigger": false,
      "metar": "METAR EDFH 291750Z 28004KT 4000 -SN BR BKN003 M01/M01 Q1021",
      "taf": "TAF EDFH 291700Z 2918/3018 35004KT 4000 -SN OVC004"
    },
    {
      "icao": "EDJA",
      "alert": "OK",
      "vis_m": 6000,
      "fzfg": false,
      "metar_trigger": false,
      "taf_trigger": false,
      "metar": "METAR EDJA 291750Z 25004KT 200V270 6000 OVC003 M04/M04 Q1019",
      "taf": "TAF EDJA 291700Z 2918/3003 23006KT 6000 OVC003"
    },
    {
      "icao": "EDLW",
      "alert": "OK",
      "vis_m": 3300,
      "fzfg": false,
      "metar_trigger": false,
      "taf_trigger": false,
      "metar": "METAR EDLW 291750Z 25006KT 3300 BR OVC002 02/02 Q1022",
      "taf": "TAF EDLW 291700Z 2918/3018 30004KT 6000 OVC015"
    },
    {
      "icao": "EDNY",
      "alert": "OK",
      "vis_m": 8000,
      "fzfg": false,
      "metar_trigger": false,
      "taf_trigger": false,
      "metar": "METAR EDNY 291750Z VRB02KT 8000 OVC012 M01/M03 Q1021",
      "taf": "TAF EDNY 291700Z 2918/3003 VRB02KT 9999 OVC012"
    },
    {
      "icao": "EDSB",
      "alert": "OK",
      "vis_m": 2500,
      "fzfg": true,
      "metar_trigger": false,
      "taf_trigger": false,
      "metar": "METAR EDSB 291750Z VRB02KT 2500 BR BKN001 BKN004 OVC019 M03/M03 Q1023",
      "taf": "TAF EDSB 291700Z 2918/3018 VRB03KT 0450 FZFG FEW001 BKN003"
    },
    {
      "icao": "EETN",
      "alert": "OK",
      "vis_m": 9999,
      "fzfg": false,
      "metar_trigger": false,
      "taf_trigger": false,
      "metar": "METAR EETN 291750Z 34021G34KT 9999 BKN032 M02/M08 Q0993 TEMPO 2000 SHSN SCT020CB",
      "taf": "TAF EETN 291730Z 2918/3018 34018G30KT 9999 BKN025"
    },
    {
      "icao": "EFTU",
      "alert": "OK",
      "vis_m": 9999,
      "fzfg": false,
      "metar_trigger": false,
      "taf_trigger": false,
      "metar": "METAR EFTU 291750Z AUTO 35011G24KT 300V030 CAVOK M04/M10 Q0998",
      "taf": "TAF EFTU 291728Z 2918/3018 34012KT CAVOK"
    },
    {
      "icao": "EGBB",
      "alert": "OK",
      "vis_m": 9999,
      "fzfg": false,
      "metar_trigger": false,
      "taf_trigger": false,
      "metar": "METAR EGBB 291750Z 04007KT 9999 OVC023 06/01 Q1030",
      "taf": "TAF EGBB 291654Z 2918/3018 04006KT 9999 BKN022"
    },
    {
      "icao": "EGGP",
      "alert": "OK",
      "vis_m": 9999,
      "fzfg": false,
      "metar_trigger": false,
      "taf_trigger": false,
      "metar": "METAR EGGP 291750Z 05003KT 9999 BKN025 05/M00 Q1031",
      "taf": "TAF EGGP 291655Z 2918/3018 02005KT 9999 BKN020"
    },
    {
      "icao": "EGGW",
      "alert": "OK",
      "vis_m": 9999,
      "fzfg": false,
      "metar_trigger": false,
      "taf_trigger": false,
      "metar": "METAR EGGW 291750Z AUTO 04007KT 9999 OVC021 05/02 Q1028",
      "taf": "TAF EGGW 291700Z 2918/3018 03008KT 9999 BKN020"
    },
    {
      "icao": "EGKK",
      "alert": "OK",
      "vis_m": 9999,
      "fzfg": false,
      "metar_trigger": false,
      "taf_trigger": false,
      "metar": "METAR EGKK 291750Z 04009KT 9999 BKN022 06/02 Q1028",
      "taf": "TAF EGKK 291652Z 2918/3024 04009KT 9999 SCT025"
    },
    {
      "icao": "EGNM",
      "alert": "OK",
      "vis_m": 6000,
      "fzfg": false,
      "metar_trigger": false,
      "taf_trigger": false,
      "metar": "METAR EGNM 291750Z 01011KT 6000 -DZ SCT005 BKN013 04/04 Q1030",
      "taf": "TAF EGNM 291656Z 2918/3018 01006KT 9999 BKN018"
    },
    {
      "icao": "EGPD",
      "alert": "OK",
      "vis_m": 9999,
      "fzfg": false,
      "metar_trigger": false,
      "taf_trigger": false,
      "metar": "METAR EGPD 291750Z COR AUTO 36005KT 9999 BKN041 04/00 Q1035 NOSIG",
      "taf": "TAF EGPD 291653Z 2918/3018 34010KT 9999 FEW020 SCT035"
    },
    {
      "icao": "EGPF",
      "alert": "OK",
      "vis_m": 9999,
      "fzfg": false,
      "metar_trigger": false,
      "taf_trigger": false,
      "metar": "METAR EGPF 291750Z AUTO VRB01KT 9999 OVC032 03/01 Q1034",
      "taf": "TAF EGPF 291654Z 2918/3018 05004KT 9999 BKN030"
    },
    {
      "icao": "EHBK",
      "alert": "OK",
      "vis_m": 1800,
      "fzfg": false,
      "metar_trigger": false,
      "taf_trigger": false,
      "metar": "METAR EHBK 291755Z AUTO 23005KT 1800 BR FEW001 OVC002 01/01 Q1024 REDZ NOSIG",
      "taf": "TAF EHBK 291718Z 2918/3024 26003KT 0700 FG BKN000"
    },
    {
      "icao": "EHEH",
      "alert": "OK",
      "vis_m": 8000,
      "fzfg": false,
      "metar_trigger": false,
      "taf_trigger": false,
      "metar": "METAR EHEH 291725Z AUTO 26005KT 8000 BR FEW025 BKN029 OVC032 03/02 Q1025 BLU NOSIG RMK TREND REMOTE BY EHWX",
      "taf": "TAF EHEH 291109Z 2912/3018 28002KT 8000 FEW018 BKN022"
    },
    {
      "icao": "EKBI",
      "alert": "OK",
      "vis_m": 9999,
      "fzfg": false,
      "metar_trigger": false,
      "taf_trigger": false,
      "metar": "METAR EKBI 291750Z AUTO 32006KT 9999 FEW057/// 01/M03 Q1020",
      "taf": "TAF EKBI 291727Z 2918/3018 33008KT 9999 SCT040"
    },
    {
      "icao": "EKCH",
      "alert": "OK",
      "vis_m": 9999,
      "fzfg": false,
      "metar_trigger": false,
      "taf_trigger": false,
      "metar": "METAR EKCH 291750Z AUTO 35016KT 310V010 9999 FEW095/// 02/M09 Q1017 NOSIG",
      "taf": "TAF EKCH 291727Z 2918/3018 32012KT CAVOK"
    },
    {
      "icao": "ENAL",
      "alert": "OK",
      "vis_m": 4000,
      "fzfg": false,
      "metar_trigger": false,
      "taf_trigger": false,
      "metar": "METAR ENAL 291750Z 01023G34KT 330V030 4000 -SHSN FEW004 SCT035 02/M03 Q1027",
      "taf": "TAF ENAL 291700Z 2918/3003 34015KT 9999 FEW004 SCT020CB"
    },
    {
      "icao": "ENBR",
      "alert": "OK",
      "vis_m": 9999,
      "fzfg": false,
      "metar_trigger": false,
      "taf_trigger": false,
      "metar": "METAR ENBR 291750Z 34010KT 9999 FEW050 00/M03 Q1027 NOSIG RMK WIND 1200FT 35019KT",
      "taf": "TAF ENBR 291700Z 2918/3018 34012KT 9999 FEW035"
    },
    {
      "icao": "ENGM",
      "alert": "OK",
      "vis_m": 9999,
      "fzfg": false,
      "metar_trigger": false,
      "taf_trigger": false,
      "metar": "METAR ENGM 291750Z 33007KT 300V020 CAVOK M01/M11 Q1016 NOSIG",
      "taf": "TAF ENGM 291700Z 2918/3018 34010KT CAVOK"
    },
    {
      "icao": "ENHD",
      "alert": "OK",
      "vis_m": 9999,
      "fzfg": false,
      "metar_trigger": false,
      "taf_trigger": false,
      "metar": "METAR ENHD 291750Z 36021KT 9999 FEW045 03/M03 Q1027",
      "taf": "TAF ENHD 291400Z 2915/2923 35025KT 9999 SCT040"
    },
    {
      "icao": "ENTC",
      "alert": "OK",
      "vis_m": 9999,
      "fzfg": false,
      "metar_trigger": false,
      "taf_trigger": false,
      "metar": "METAR ENTC 291750Z 02012KT 9999 -SHSN FEW025 SCT039 BKN046 M04/M07 Q1012 TEMPO 2000 -SHSN VV012 RMK WIND 2600FT 36030KT",
      "taf": "TAF ENTC 291700Z 2918/3018 01015KT 8000 -SHSN FEW015 SCT020CB BKN030"
    },
    {
      "icao": "ENTO",
      "alert": "OK",
      "vis_m": 9999,
      "fzfg": false,
      "metar_trigger": false,
      "taf_trigger": false,
      "metar": "METAR ENTO 291750Z 33011KT CAVOK M00/M11 Q1019 NOSIG",
      "taf": "TAF ENTO 291700Z 2918/3018 33010KT CAVOK"
    },
    {
      "icao": "ENVA",
      "alert": "OK",
      "vis_m": 900,
      "fzfg": false,
      "metar_trigger": false,
      "taf_trigger": false,
      "metar": "METAR ENVA 291750Z 30014KT 270V330 0900 R09/P2000N R27/P2000N SHSN VV015 M01/M01 Q1019 TEMPO 0400 SHSN VV005 RMK WIND 670FT 31025KT",
      "taf": "TAF ENVA 291700Z 2918/3018 31009KT 9999 SCT015CB BKN025"
    },
    {
      "icao": "ENZV",
      "alert": "OK",
      "vis_m": 9999,
      "fzfg": false,
      "metar_trigger": false,
      "taf_trigger": false,
      "metar": "METAR ENZV 291750Z 34014KT CAVOK 02/M05 Q1026 NOSIG",
      "taf": "TAF ENZV 291700Z 2918/3018 35018KT CAVOK"
    },
    {
      "icao": "EPGD",
      "alert": "OK",
      "vis_m": 8000,
      "fzfg": false,
      "metar_trigger": false,
      "taf_trigger": false,
      "metar": "METAR EPGD 291730Z 33016KT 8000 -SHSN DRSN FEW006 FEW030TCU BKN035 M01/M07 Q1008",
      "taf": "TAF EPGD 291730Z 2918/3018 33015KT CAVOK"
    },
    {
      "icao": "EPKK",
      "alert": "OK",
      "vis_m": 9999,
      "fzfg": false,
      "metar_trigger": false,
      "taf_trigger": false,
      "metar": "METAR EPKK 291730Z 25013KT 9999 -SN BKN018 OVC023 M00/M03 Q1011",
      "taf": "TAF EPKK 291730Z 2918/3018 25012KT 9999 BKN018"
    },
    {
      "icao": "EPKT",
      "alert": "OK",
      "vis_m": 9999,
      "fzfg": false,
      "metar_trigger": false,
      "taf_trigger": false,
      "metar": "METAR EPKT 291730Z 27010KT 9999 -SN BKN012 M00/M02 Q1011",
      "taf": "TAF EPKT 291730Z 2918/3018 26014KT 9999 BKN012"
    },
    {
      "icao": "EPLB",
      "alert": "OK",
      "vis_m": 9999,
      "fzfg": false,
      "metar_trigger": false,
      "taf_trigger": false,
      "metar": "METAR EPLB 291730Z 27017KT 9999 BKN028 01/M02 Q1006",
      "taf": "TAF EPLB 291730Z 2918/3018 28013KT 9999 BKN025"
    },
    {
      "icao": "EPMO",
      "alert": "OK",
      "vis_m": 9999,
      "fzfg": false,
      "metar_trigger": false,
      "taf_trigger": false,
      "metar": "METAR EPMO 291730Z 28011KT 9999 -SNRA SCT027 BKN042 01/00 Q1006 RESHRA RESHSN",
      "taf": "TAF EPMO 291730Z 2918/3018 28013KT 9999 SCT030"
    },
    {
      "icao": "EPPO",
      "alert": "OK",
      "vis_m": 9999,
      "fzfg": false,
      "metar_trigger": false,
      "taf_trigger": false,
      "metar": "METAR EPPO 291730Z 28010KT 9999 -RASN BKN010 OVC029 01/00 Q1011",
      "taf": "TAF EPPO 291730Z 2918/3018 32010KT 9999 BKN012"
    },
    {
      "icao": "EPRA",
      "alert": "OK",
      "vis_m": 9999,
      "fzfg": false,
      "metar_trigger": false,
      "taf_trigger": false,
      "metar": "METAR EPRA 291730Z 28015KT 9999 BKN014 OVC023 00/M02 Q1007",
      "taf": "TAF EPRA 291730Z 2918/3003 28012KT 9999 BKN020"
    },
    {
      "icao": "EPRZ",
      "alert": "OK",
      "vis_m": 9999,
      "fzfg": false,
      "metar_trigger": false,
      "taf_trigger": false,
      "metar": "METAR EPRZ 291730Z 27015KT 9999 OVC015 00/M03 Q1009",
      "taf": "TAF EPRZ 291730Z 2918/3018 27014KT 9999 BKN013"
    },
    {
      "icao": "EPSC",
      "alert": "OK",
      "vis_m": 9999,
      "fzfg": false,
      "metar_trigger": false,
      "taf_trigger": false,
      "metar": "METAR EPSC 291730Z 32008KT 9999 FEW057TCU 03/M03 Q1013",
      "taf": "TAF EPSC 291730Z 2918/3018 33010KT CAVOK"
    },
    {
      "icao": "EPSY",
      "alert": "OK",
      "vis_m": 9999,
      "fzfg": false,
      "metar_trigger": false,
      "taf_trigger": false,
      "metar": "METAR EPSY 291730Z 30011KT 260V360 9999 SCT010 M01/M03 Q1005",
      "taf": "TAF EPSY 291730Z 2918/3003 31014KT 9999 SCT014 SCT030"
    },
    {
      "icao": "EPWA",
      "alert": "OK",
      "vis_m": 9999,
      "fzfg": false,
      "metar_trigger": false,
      "taf_trigger": false,
      "metar": "METAR EPWA 291730Z 27015KT 9999 SCT011 BKN014 01/M00 Q1006 BECMG BKN015",
      "taf": ""
    },
    {
      "icao": "EPWR",
      "alert": "OK",
      "vis_m": 9999,
      "fzfg": false,
      "metar_trigger": false,
      "taf_trigger": false,
      "metar": "METAR EPWR 291730Z 29014KT 9999 FEW020 BKN029 02/00 Q1013",
      "taf": "TAF EPWR 291730Z 2918/3018 28012KT 9999 BKN020"
    },
    {
      "icao": "ESGG",
      "alert": "OK",
      "vis_m": 9999,
      "fzfg": false,
      "metar_trigger": false,
      "taf_trigger": false,
      "metar": "METAR ESGG 291750Z 32008KT CAVOK M01/M09 Q1016",
      "taf": "TAF ESGG 291730Z 2918/3018 34007KT CAVOK"
    },
    {
      "icao": "ESKN",
      "alert": "OK",
      "vis_m": 9999,
      "fzfg": false,
      "metar_trigger": false,
      "taf_trigger": false,
      "metar": "METAR ESKN 291750Z 31014KT 9999 FEW040 M01/M08 Q1008",
      "taf": "TAF ESKN 291730Z 2918/3018 31015G25KT CAVOK"
    },
    {
      "icao": "ESMS",
      "alert": "OK",
      "vis_m": 9999,
      "fzfg": false,
      "metar_trigger": false,
      "taf_trigger": false,
      "metar": "METAR ESMS 291750Z 32010KT CAVOK M01/M07 Q1015",
      "taf": "TAF ESMS 291727Z 2918/3018 32012KT CAVOK"
    },
    {
      "icao": "ESSA",
      "alert": "OK",
      "vis_m": 3000,
      "fzfg": false,
      "metar_trigger": false,
      "taf_trigger": false,
      "metar": "METAR ESSA 291750Z 34015KT 3000 -SN FEW007 BKN020 M04/M08 Q1007 TEMPO 1700 -SHSN",
      "taf": "TAF ESSA 291730Z 2918/3018 34017G30KT 9999 SCT040"
    },
    {
      "icao": "EYKA",
      "alert": "OK",
      "vis_m": 9999,
      "fzfg": false,
      "metar_trigger": false,
      "taf_trigger": false,
      "metar": "METAR EYKA 291750Z 29011G21KT 240V340 9999 FEW022 M02/M06 Q0999",
      "taf": "TAF EYKA 291728Z 2918/3018 30011KT 9000 SCT025"
    },
    {
      "icao": "EYPA",
      "alert": "OK",
      "vis_m": 9999,
      "fzfg": false,
      "metar_trigger": false,
      "taf_trigger": false,
      "metar": "METAR EYPA 291750Z 35012G26KT 310V040 9999 -SHSNRA SCT047CB 00/M09 Q1002",
      "taf": "TAF EYPA 291726Z 2918/3018 34012G23KT 5000 SHSNRA SCT020CB BKN030"
    },
    {
      "icao": "EYVI",
      "alert": "OK",
      "vis_m": 9999,
      "fzfg": false,
      "metar_trigger": false,
      "taf_trigger": false,
      "metar": "METAR EYVI 291750Z 31012KT 9999 BKN023 M03/M06 Q0997 NOSIG",
      "taf": "TAF EYVI 291729Z 2918/3018 30010KT 9000 SCT020"
    },
    {
      "icao": "GCFV",
      "alert": "OK",
      "vis_m": 9999,
      "fzfg": false,
      "metar_trigger": false,
      "taf_trigger": false,
      "metar": "METAR GCFV 291730Z 13004KT 090V170 9999 FEW035 19/12 Q1019",
      "taf": "TAF GCFV 291400Z 2915/3015 14005KT 9999 SCT035 TX21/3014Z TN14/3006Z"
    },
    {
      "icao": "GCLP",
      "alert": "OK",
      "vis_m": 9999,
      "fzfg": false,
      "metar_trigger": false,
      "taf_trigger": false,
      "metar": "METAR GCLP 291730Z 15005KT 080V190 9999 BKN025 19/14 Q1019 NOSIG",
      "taf": "TAF GCLP 291400Z 2915/3015 15005KT 9999 BKN030 TX22/3014Z TN15/3006Z"
    },
    {
      "icao": "GCTS",
      "alert": "OK",
      "vis_m": 9999,
      "fzfg": false,
      "metar_trigger": false,
      "taf_trigger": false,
      "metar": "METAR GCTS 291730Z 21007KT 170V240 9999 SCT040 20/13 Q1020 NOSIG",
      "taf": "TAF GCTS 291400Z 2915/3015 18005KT 9999 SCT035 TX24/3014Z TN16/3006Z"
    },
    {
      "icao": "GMAD",
      "alert": "OK",
      "vis_m": 9999,
      "fzfg": false,
      "metar_trigger": false,
      "taf_trigger": false,
      "metar": "METAR GMAD 291730Z 27004KT 9999 SCT026 BKN200 16/13 Q1019 NOSIG",
      "taf": "TAF GMAD 291700Z 2918/3024 18005KT 8000 SCT020 SCT080"
    },
    {
      "icao": "GMMN",
      "alert": "OK",
      "vis_m": 9999,
      "fzfg": false,
      "metar_trigger": false,
      "taf_trigger": false,
      "metar": "METAR GMMN 291730Z 31004KT 9999 SCT020 13/10 Q1020 NOSIG",
      "taf": "TAF GMMN 291700Z 2918/3024 30006KT 9999 SCT020"
    },
    {
      "icao": "GMMX",
      "alert": "OK",
      "vis_m": 9999,
      "fzfg": false,
      "metar_trigger": false,
      "taf_trigger": false,
      "metar": "METAR GMMX 291730Z 33003KT 290V360 9999 SCT020 SCT200 14/08 Q1020 NOSIG",
      "taf": "TAF GMMX 291700Z 2918/3024 24012KT 8000 SCT020"
    },
    {
      "icao": "HEGN",
      "alert": "OK",
      "vis_m": 9999,
      "fzfg": false,
      "metar_trigger": false,
      "taf_trigger": false,
      "metar": "METAR HEGN 291700Z 32008KT CAVOK 20/07 Q1017 NOSIG",
      "taf": "TAF HEGN 291700Z 2918/3024 34010KT CAVOK"
    },
    {
      "icao": "HEMA",
      "alert": "OK",
      "vis_m": 9999,
      "fzfg": false,
      "metar_trigger": false,
      "taf_trigger": false,
      "metar": "METAR HEMA 291700Z 36006KT CAVOK 19/13 Q1017 NOSIG",
      "taf": "TAF HEMA 291700Z 2918/3024 34010KT CAVOK"
    },
    {
      "icao": "HESH",
      "alert": "OK",
      "vis_m": 9999,
      "fzfg": false,
      "metar_trigger": false,
      "taf_trigger": false,
      "metar": "METAR HESH 291700Z 34003KT CAVOK 20/10 Q1016 NOSIG",
      "taf": "TAF HESH 291700Z 2918/3024 35010KT CAVOK"
    },
    {
      "icao": "HESX",
      "alert": "OK",
      "vis_m": 9999,
      "fzfg": false,
      "metar_trigger": false,
      "taf_trigger": false,
      "metar": "METAR HESX 291700Z 31010KT CAVOK 17/08 Q1018 NOSIG",
      "taf": "TAF HESX 291736Z 2918/3024 31009KT 9999 FEW025"
    },
    {
      "icao": "LATI",
      "alert": "OK",
      "vis_m": 9999,
      "fzfg": false,
      "metar_trigger": false,
      "taf_trigger": false,
      "metar": "METAR LATI 291750Z 15003KT CAVOK 03/M01 Q1017 NOSIG",
      "taf": "TAF LATI 291700Z 2918/3018 VRB04KT CAVOK TX16/3012Z TNM03/3005Z"
    },
    {
      "icao": "LBPD",
      "alert": "OK",
      "vis_m": 9999,
      "fzfg": false,
      "metar_trigger": false,
      "taf_trigger": false,
      "metar": "METAR LBPD 291730Z AUTO VRB02KT 9999 NCD 06/M06 Q1013 NOSIG",
      "taf": "TAF LBPD 291700Z 2918/3018 VRB03KT CAVOK"
    },
    {
      "icao": "LBSF",
      "alert": "OK",
      "vis_m": 9999,
      "fzfg": false,
      "metar_trigger": false,
      "taf_trigger": false,
      "metar": "METAR LBSF 291730Z AUTO 28005KT 250V310 9999 NCD 01/M06 Q1014 NOSIG",
      "taf": "TAF LBSF 291700Z 2918/3018 VRB03KT CAVOK"
    },
    {
      "icao": "LBWN",
      "alert": "OK",
      "vis_m": 9999,
      "fzfg": false,
      "metar_trigger": false,
      "taf_trigger": false,
      "metar": "METAR LBWN 291730Z AUTO 30008KT 9999 NCD 01/M04 Q1013 NOSIG",
      "taf": "TAF LBWN 291700Z 2918/3018 29008KT CAVOK"
    },
    {
      "icao": "LCLK",
      "alert": "OK",
      "vis_m": 9999,
      "fzfg": false,
      "metar_trigger": false,
      "taf_trigger": false,
      "metar": "METAR LCLK 291730Z 31007KT 9999 FEW045 12/04 Q1014 NOSIG",
      "taf": "TAF LCLK 291730Z 2918/3018 32007KT 9999 FEW025"
    },
    {
      "icao": "LCPH",
      "alert": "OK",
      "vis_m": 9999,
      "fzfg": false,
      "metar_trigger": false,
      "taf_trigger": false,
      "metar": "METAR LCPH 291730Z 01007KT 9999 FEW030 12/02 Q1015 NOSIG",
      "taf": "TAF LCPH 291730Z 2918/3018 34010KT 9999 FEW020"
    },
    {
      "icao": "LEAL",
      "alert": "OK",
      "vis_m": 9999,
      "fzfg": false,
      "metar_trigger": false,
      "taf_trigger": false,
      "metar": "METAR LEAL 291730Z 28004KT 9999 SCT066 12/12 Q1019 NOSIG",
      "taf": "TAF LEAL 291700Z 2918/3018 29005KT 9999 FEW030 TX18/3013Z TN07/3006Z"
    },
    {
      "icao": "LEBB",
      "alert": "OK",
      "vis_m": 9999,
      "fzfg": false,
      "metar_trigger": false,
      "taf_trigger": false,
      "metar": "METAR LEBB 291730Z 28004KT 9999 FEW030 10/08 Q1020 NOSIG",
      "taf": "TAF LEBB 291700Z 2918/3018 21005KT 9999 BKN020 TX12/3014Z TN06/2921Z"
    },
    {
      "icao": "LEBL",
      "alert": "OK",
      "vis_m": 9000,
      "fzfg": false,
      "metar_trigger": false,
      "taf_trigger": false,
      "metar": "METAR LEBL 291730Z 32005KT 270V360 9000 BKN027 12/11 Q1018 NOSIG",
      "taf": "TAF LEBL 291700Z 2918/3018 34006KT 9999 SCT030 TX15/3012Z TN07/3007Z"
    },
    {
      "icao": "LECH",
      "alert": "OK",
      "vis_m": 9000,
      "fzfg": false,
      "metar_trigger": false,
      "taf_trigger": false,
      "metar": "METAR LECH 291730Z AUTO 08006KT 9000 FEW043 SCT050 09/08 Q1019",
      "taf": ""
    },
    {
      "icao": "LEMD",
      "alert": "OK",
      "vis_m": 9999,
      "fzfg": false,
      "metar_trigger": false,
      "taf_trigger": false,
      "metar": "METAR LEMD 291730Z 15003KT CAVOK 08/03 Q1019 NOSIG",
      "taf": "TAF LEMD 291700Z 2918/3024 VRB04KT 9999 SCT045 TX11/3015Z TNM01/3007Z"
    },
    {
      "icao": "LEMG",
      "alert": "OK",
      "vis_m": 9999,
      "fzfg": false,
      "metar_trigger": false,
      "taf_trigger": false,
      "metar": "METAR LEMG 291730Z 34002KT 9999 VCSH FEW040TCU BKN065 14/10 Q1019 NOSIG",
      "taf": "TAF LEMG 291700Z 2918/3018 29008KT 9999 SCT070 TX18/3014Z TN06/3006Z"
    },
    {
      "icao": "LEVC",
      "alert": "OK",
      "vis_m": 9999,
      "fzfg": false,
      "metar_trigger": false,
      "taf_trigger": false,
      "metar": "METAR LEVC 291730Z 13002KT 9999 BKN032 13/08 Q1019 NOSIG",
      "taf": "TAF LEVC 291700Z 2918/3018 VRB04KT 9999 FEW020 TX17/3013Z TN05/3006Z"
    },
    {
      "icao": "LEXJ",
      "alert": "OK",
      "vis_m": 9999,
      "fzfg": false,
      "metar_trigger": false,
      "taf_trigger": false,
      "metar": "METAR LEXJ 291730Z 20002KT 9999 SCT016 10/08 Q1020",
      "taf": "TAF LEXJ 291400Z 2915/3015 22009KT 9999 SCT020 TX14/2915Z TN08/3007Z"
    },
    {
      "icao": "LEZG",
      "alert": "OK",
      "vis_m": 200,
      "fzfg": false,
      "metar_trigger": false,
      "taf_trigger": false,
      "metar": "METAR LEZG 291730Z VRB02KT 0200 R30R/0650N R12R/P2000 R30L/1300U R12L/0800N FG VV001 08/08 Q1019 NOSIG",
      "taf": "TAF LEZG 291700Z 2918/3018 29008KT 9999 SCT010 TX13/3014Z TN04/3006Z"
    },
    {
      "icao": "LEZL",
      "alert": "OK",
      "vis_m": 9999,
      "fzfg": false,
      "metar_trigger": false,
      "taf_trigger": false,
      "metar": "METAR LEZL 291730Z 23005KT CAVOK 14/09 Q1019 NOSIG",
      "taf": "TAF LEZL 291400Z 2915/3015 VRB03KT CAVOK TX16/2915Z TN06/3006Z"
    },
    {
      "icao": "LFBD",
      "alert": "OK",
      "vis_m": 9999,
      "fzfg": false,
      "metar_trigger": false,
      "taf_trigger": false,
      "metar": "METAR LFBD 291730Z AUTO 02007KT CAVOK 06/03 Q1020 TEMPO 0300 FG VV///",
      "taf": "TAF LFBD 291700Z 2918/3024 02005KT CAVOK TX06/2918Z TNM01/3006Z"
    },
    {
      "icao": "LFLL",
      "alert": "OK",
      "vis_m": 6000,
      "fzfg": false,
      "metar_trigger": false,
      "taf_trigger": false,
      "metar": "METAR LFLL 291730Z 02005KT 6000 OVC006 00/M01 Q1021 TEMPO 4000 BR BKN004",
      "taf": "TAF LFLL 291700Z 2918/3024 36006KT 7000 OVC007"
    },
    {
      "icao": "LFLS",
      "alert": "OK",
      "vis_m": 300,
      "fzfg": true,
      "metar_trigger": false,
      "taf_trigger": false,
      "metar": "METAR LFLS 291730Z AUTO 26003KT 220V290 0300 0250 R09/0350N R27/0250N FZFG VV/// M02/M02 Q1019",
      "taf": ""
    },
    {
      "icao": "LFMN",
      "alert": "OK",
      "vis_m": 9999,
      "fzfg": false,
      "metar_trigger": false,
      "taf_trigger": false,
      "metar": "METAR LFMN 291730Z 32011KT CAVOK 09/03 Q1017 NOSIG",
      "taf": "TAF LFMN 291400Z 2915/3021 23008KT CAVOK"
    },
    {
      "icao": "LFOB",
      "alert": "OK",
      "vis_m": 9999,
      "fzfg": false,
      "metar_trigger": false,
      "taf_trigger": false,
      "metar": "METAR LFOB 291730Z AUTO 05010KT 9999 OVC017 02/M00 Q1026",
      "taf": ""
    },
    {
      "icao": "LFPO",
      "alert": "OK",
      "vis_m": 9999,
      "fzfg": false,
      "metar_trigger": false,
      "taf_trigger": false,
      "metar": "METAR LFPO 291730Z 03011KT 9999 BKN012 00/M02 Q1025 NOSIG",
      "taf": "TAF LFPO 291700Z 2918/3024 01010KT CAVOK"
    },
    {
      "icao": "LFSB",
      "alert": "OK",
      "vis_m": 4700,
      "fzfg": true,
      "metar_trigger": false,
      "taf_trigger": false,
      "metar": "METAR LFSB 291730Z AUTO 00000KT 4700 BR OVC003 M03/M03 Q1022 TEMPO 0500 FZFG VV///",
      "taf": "TAF LFSB 291700Z 2918/3018 33004KT 4000 BR OVC005"
    },
    {
      "icao": "LGAV",
      "alert": "OK",
      "vis_m": 9999,
      "fzfg": false,
      "metar_trigger": false,
      "taf_trigger": false,
      "metar": "METAR LGAV 291750Z VRB01KT CAVOK 07/03 Q1018 NOSIG",
      "taf": "TAF LGAV 291700Z 2918/3018 23008KT 9999 FEW025"
    },
    {
      "icao": "LGTS",
      "alert": "OK",
      "vis_m": 9999,
      "fzfg": false,
      "metar_trigger": false,
      "taf_trigger": false,
      "metar": "METAR LGTS 291750Z 32006KT 9999 FEW010 10/M02 Q1016 NOSIG",
      "taf": "TAF LGTS 291700Z 2918/3018 VRB03KT CAVOK"
    },
    {
      "icao": "LHBP",
      "alert": "OK",
      "vis_m": 9999,
      "fzfg": false,
      "metar_trigger": false,
      "taf_trigger": false,
      "metar": "METAR LHBP 291730Z 31012KT CAVOK M01/M05 Q1013 NOSIG",
      "taf": "TAF LHBP 291715Z 2918/3018 29012KT CAVOK"
    },
    {
      "icao": "LHDC",
      "alert": "OK",
      "vis_m": 9999,
      "fzfg": false,
      "metar_trigger": false,
      "taf_trigger": false,
      "metar": "METAR LHDC 291715Z AUTO 14004KT 110V170 CAVOK M02/M04 Q1012 NOSIG",
      "taf": "TAF LHDC 291715Z 2918/3003 14006KT CAVOK"
    },
    {
      "icao": "LIBD",
      "alert": "OK",
      "vis_m": 9999,
      "fzfg": false,
      "metar_trigger": false,
      "taf_trigger": false,
      "metar": "METAR LIBD 291750Z 20007KT CAVOK 06/04 Q1017",
      "taf": "TAF LIBD 291700Z 2918/3018 20006KT CAVOK"
    },
    {
      "icao": "LIBG",
      "alert": "OK",
      "vis_m": 9999,
      "fzfg": false,
      "metar_trigger": false,
      "taf_trigger": false,
      "metar": "METAR LIBG 291650Z 12003KT CAVOK 08/07 Q1017",
      "taf": "TAF LIBG 291700Z 2918/3003 VRB05KT CAVOK"
    },
    {
      "icao": "LIBP",
      "alert": "OK",
      "vis_m": 9000,
      "fzfg": false,
      "metar_trigger": false,
      "taf_trigger": false,
      "metar": "METAR LIBP 291750Z AUTO 21003KT 9000 NCD 04/04 Q1017",
      "taf": "TAF LIBP 291700Z 2918/3018 VRB05KT 9999 FEW030"
    },
    {
      "icao": "LIBR",
      "alert": "OK",
      "vis_m": 9999,
      "fzfg": false,
      "metar_trigger": false,
      "taf_trigger": false,
      "metar": "METAR LIBR 291750Z 28007KT CAVOK 10/07 Q1017",
      "taf": "TAF LIBR 291700Z 2918/3018 23006KT 9999 FEW025"
    },
    {
      "icao": "LICA",
      "alert": "OK",
      "vis_m": 9999,
      "fzfg": false,
      "metar_trigger": false,
      "taf_trigger": false,
      "metar": "METAR LICA 291750Z AUTO 04005KT 9999 NCD 08/07 Q1018",
      "taf": "TAF LICA 291700Z 2918/3018 07006KT 9999 SCT030"
    },
    {
      "icao": "LICC",
      "alert": "OK",
      "vis_m": 9999,
      "fzfg": false,
      "metar_trigger": false,
      "taf_trigger": false,
      "metar": "METAR LICC 291750Z 31004KT 280V340 CAVOK 10/07 Q1018",
      "taf": "TAF LICC 291700Z 2918/3018 VRB05KT 9999 SCT030"
    },
    {
      "icao": "LICJ",
      "alert": "OK",
      "vis_m": 9999,
      "fzfg": false,
      "metar_trigger": false,
      "taf_trigger": false,
      "metar": "METAR LICJ 291750Z 15005KT CAVOK 11/07 Q1018",
      "taf": "TAF LICJ 291700Z 2918/3018 17006KT 9999 SCT020"
    },
    {
      "icao": "LIMC",
      "alert": "OK",
      "vis_m": 9999,
      "fzfg": false,
      "metar_trigger": false,
      "taf_trigger": false,
      "metar": "METAR LIMC 291750Z 02003KT CAVOK 01/M01 Q1015 NOSIG",
      "taf": "TAF LIMC 291700Z 2918/3024 VRB04KT CAVOK"
    },
    {
      "icao": "LIME",
      "alert": "OK",
      "vis_m": 9999,
      "fzfg": false,
      "metar_trigger": false,
      "taf_trigger": false,
      "metar": "METAR LIME 291750Z VRB02KT CAVOK 04/00 Q1015 NOSIG",
      "taf": "TAF LIME 291700Z 2918/3018 VRB04KT CAVOK"
    },
    {
      "icao": "LIMF",
      "alert": "OK",
      "vis_m": 9999,
      "fzfg": false,
      "metar_trigger": false,
      "taf_trigger": false,
      "metar": "METAR LIMF 291750Z AUTO 30006KT 9999 NCD 07/M02 Q1015",
      "taf": "TAF LIMF 291700Z 2918/3018 VRB05KT CAVOK"
    },
    {
      "icao": "LIMJ",
      "alert": "OK",
      "vis_m": 9999,
      "fzfg": false,
      "metar_trigger": false,
      "taf_trigger": false,
      "metar": "METAR LIMJ 291750Z 02003KT 010V070 CAVOK 09/05 Q1017",
      "taf": "TAF LIMJ 291700Z 2918/3018 13006KT 9999 FEW020"
    },
    {
      "icao": "LIPE",
      "alert": "OK",
      "vis_m": 9999,
      "fzfg": false,
      "metar_trigger": false,
      "taf_trigger": false,
      "metar": "METAR LIPE 291750Z 18002KT CAVOK 03/01 Q1016",
      "taf": "TAF LIPE 291700Z 2918/3018 VRB06KT 8000 NSC"
    },
    {
      "icao": "LIPH",
      "alert": "OK",
      "vis_m": 500,
      "fzfg": true,
      "metar_trigger": false,
      "taf_trigger": false,
      "metar": "METAR LIPH 291750Z 25002KT 0500 R07/0450N FZFG OVC001 M01/M01 Q1016",
      "taf": "TAF LIPH 291700Z 2918/3018 VRB05KT 0300 FG BKN002"
    },
    {
      "icao": "LIPQ",
      "alert": "OK",
      "vis_m": 9999,
      "fzfg": false,
      "metar_trigger": false,
      "taf_trigger": false,
      "metar": "METAR LIPQ 291750Z AUTO VRB01KT 9999 NCD 01/01 Q1016",
      "taf": "TAF LIPQ 291700Z 2918/3018 VRB05KT CAVOK"
    },
    {
      "icao": "LIPR",
      "alert": "OK",
      "vis_m": 2500,
      "fzfg": false,
      "metar_trigger": false,
      "taf_trigger": false,
      "metar": "METAR LIPR 291750Z 20004KT 2500 BR NSC 03/02 Q1016",
      "taf": "TAF LIPR 291700Z 2918/3018 VRB05KT 3000 BR FEW020"
    },
    {
      "icao": "LIPX",
      "alert": "OK",
      "vis_m": 2500,
      "fzfg": false,
      "metar_trigger": false,
      "taf_trigger": false,
      "metar": "METAR LIPX 291750Z VRB02KT 2500 MIFG NSC 02/01 Q1016",
      "taf": "TAF LIPX 291700Z 2918/3018 VRB05KT 1400 BCFG NSC"
    },
    {
      "icao": "LIPY",
      "alert": "OK",
      "vis_m": 5000,
      "fzfg": false,
      "metar_trigger": false,
      "taf_trigger": false,
      "metar": "METAR LIPY 291750Z AUTO VRB02KT 5000 BR NCD 04/03 Q1016",
      "taf": "TAF LIPY 291700Z 2918/3018 VRB05KT 9999 FEW030"
    },
    {
      "icao": "LIPZ",
      "alert": "OK",
      "vis_m": 50,
      "fzfg": false,
      "metar_trigger": false,
      "taf_trigger": false,
      "metar": "METAR LIPZ 291750Z VRB02KT 0050 R04R/0350N FG VV001 01/00 Q1016 NOSIG",
      "taf": "TAF LIPZ 291700Z 2918/3024 VRB05KT 0200 FG BKN001"
    },
    {
      "icao": "LIRF",
      "alert": "OK",
      "vis_m": 9999,
      "fzfg": false,
      "metar_trigger": false,
      "taf_trigger": false,
      "metar": "METAR LIRF 291750Z VRB01KT CAVOK 09/08 Q1018 NOSIG",
      "taf": "TAF LIRF 291700Z 2918/3024 07007KT 9999 SCT025"
    },
    {
      "icao": "LIRN",
      "alert": "OK",
      "vis_m": 9999,
      "fzfg": false,
      "metar_trigger": false,
      "taf_trigger": false,
      "metar": "METAR LIRN 291750Z AUTO VRB01KT 9999 NCD 09/06 Q1017",
      "taf": "TAF LIRN 291700Z 2918/3018 VRB05KT 9999 FEW025"
    },
    {
      "icao": "LIRP",
      "alert": "OK",
      "vis_m": 9999,
      "fzfg": false,
      "metar_trigger": false,
      "taf_trigger": false,
      "metar": "METAR LIRP 291745Z 10002KT 9999 FEW020 SCT030 06/04 Q1017 NOSIG",
      "taf": "TAF LIRP 291700Z 2918/3018 14005KT 9999 SCT020 SCT040"
    },
    {
      "icao": "LIRZ",
      "alert": "OK",
      "vis_m": 9999,
      "fzfg": false,
      "metar_trigger": false,
      "taf_trigger": false,
      "metar": "METAR LIRZ 291750Z AUTO VRB02KT 9999 NCD 02/00 Q1017",
      "taf": "TAF LIRZ 291700Z 2918/3018 VRB03KT 9999 FEW030"
    },
    {
      "icao": "LJLJ",
      "alert": "OK",
      "vis_m": 9999,
      "fzfg": false,
      "metar_trigger": false,
      "taf_trigger": false,
      "metar": "METAR LJLJ 291730Z VRB02KT 9999 MIFG NSC M02/M03 Q1014 NOSIG",
      "taf": "TAF LJLJ 291700Z 2918/3018 30002KT CAVOK"
    },
    {
      "icao": "LKMT",
      "alert": "OK",
      "vis_m": 9999,
      "fzfg": false,
      "metar_trigger": false,
      "taf_trigger": false,
      "metar": "METAR LKMT 291730Z 21008KT 9999 OVC035 M01/M04 Q1013 NOSIG",
      "taf": "TAF LKMT 291700Z 2918/3018 23008KT 9999 OVC030"
    },
    {
      "icao": "LKPR",
      "alert": "OK",
      "vis_m": 9999,
      "fzfg": false,
      "metar_trigger": false,
      "taf_trigger": false,
      "metar": "METAR LKPR 291730Z 25009KT 9999 BKN030 02/M02 Q1015 NOSIG",
      "taf": "TAF LKPR 291700Z 2918/3024 26010KT 9999 BKN028"
    },
    {
      "icao": "LLBG",
      "alert": "OK",
      "vis_m": 9999,
      "fzfg": false,
      "metar_trigger": false,
      "taf_trigger": false,
      "metar": "METAR LLBG 291750Z 27010KT 9999 FEW045 16/07 Q1016 NOSIG",
      "taf": "TAF LLBG 291707Z 2918/3018 27008KT 9999 SCT040"
    },
    {
      "icao": "LMML",
      "alert": "OK",
      "vis_m": 9999,
      "fzfg": false,
      "metar_trigger": false,
      "taf_trigger": false,
      "metar": "METAR LMML 291745Z 12006KT 9999 FEW018TCU 13/12 Q1018 NOSIG",
      "taf": "TAF LMML 291700Z 2918/3018 12007KT 9999 SCT018"
    },
    {
      "icao": "LOWW",
      "alert": "OK",
      "vis_m": 9999,
      "fzfg": false,
      "metar_trigger": false,
      "taf_trigger": false,
      "metar": "METAR LOWW 291750Z 32007KT CAVOK M03/M06 Q1016 NOSIG",
      "taf": "TAF LOWW 291715Z 2918/3024 32010KT CAVOK TX02/3012Z TNM01/3024Z"
    },
    {
      "icao": "LPFR",
      "alert": "OK",
      "vis_m": 9999,
      "fzfg": false,
      "metar_trigger": false,
      "taf_trigger": false,
      "metar": "METAR LPFR 291730Z 21003KT 9999 FEW020 14/10 Q1019",
      "taf": "TAF LPFR 291700Z 2918/3018 VRB05KT 9999 FEW018"
    },
    {
      "icao": "LPMA",
      "alert": "OK",
      "vis_m": 9999,
      "fzfg": false,
      "metar_trigger": false,
      "taf_trigger": false,
      "metar": "METAR LPMA 291730Z 22017KT 9999 -RA SCT015 17/14 Q1017",
      "taf": "TAF LPMA 291700Z 2918/3018 21015KT 9999 SCT015 BKN030"
    },
    {
      "icao": "LPPR",
      "alert": "OK",
      "vis_m": 9999,
      "fzfg": false,
      "metar_trigger": false,
      "taf_trigger": false,
      "metar": "METAR LPPR 291730Z 35002KT CAVOK 10/08 Q1020",
      "taf": "TAF LPPR 291700Z 2918/3018 VRB02KT CAVOK"
    },
    {
      "icao": "LPPS",
      "alert": "OK",
      "vis_m": 9999,
      "fzfg": false,
      "metar_trigger": false,
      "taf_trigger": false,
      "metar": "METAR LPPS 291730Z 20015KT 9999 FEW014 18/13 Q1017",
      "taf": "TAF LPPS 291700Z 2918/3024 20017KT 9999 SCT012 BKN030"
    },
    {
      "icao": "LPPT",
      "alert": "OK",
      "vis_m": 9999,
      "fzfg": false,
      "metar_trigger": false,
      "taf_trigger": false,
      "metar": "METAR LPPT 291730Z 00000KT 9999 FEW035 11/07 Q1019",
      "taf": "TAF LPPT 291700Z 2918/3024 VRB02KT CAVOK"
    },
    {
      "icao": "LQBK",
      "alert": "OK",
      "vis_m": 9999,
      "fzfg": false,
      "metar_trigger": false,
      "taf_trigger": false,
      "metar": "METAR LQBK 291730Z VRB02KT CAVOK M02/M03 Q1014 NOSIG",
      "taf": "TAF LQBK 291700Z 2918/3018 22004KT CAVOK TX03/3013Z TNM05/3006Z"
    },
    {
      "icao": "LQSA",
      "alert": "OK",
      "vis_m": 9999,
      "fzfg": false,
      "metar_trigger": false,
      "taf_trigger": false,
      "metar": "METAR LQSA 291730Z VRB01KT CAVOK M02/M04 Q1016 NOSIG",
      "taf": "TAF LQSA 291700Z 2918/3018 VRB02KT CAVOK TX03/3013Z TNM06/3006Z"
    },
    {
      "icao": "LQTZ",
      "alert": "OK",
      "vis_m": 6000,
      "fzfg": false,
      "metar_trigger": false,
      "taf_trigger": false,
      "metar": "METAR LQTZ 291730Z 00000KT 6000 NSC M02/M03 Q1014",
      "taf": "TAF LQTZ 291700Z 2918/3018 VRB02KT CAVOK TX02/3013Z TNM04/3005Z"
    },
    {
      "icao": "LRBC",
      "alert": "OK",
      "vis_m": 9999,
      "fzfg": false,
      "metar_trigger": false,
      "taf_trigger": false,
      "metar": "METAR LRBC 291730Z 32010KT CAVOK 01/M07 Q1008",
      "taf": "TAF LRBC 291700Z 2918/3003 26008KT CAVOK"
    },
    {
      "icao": "LRBS",
      "alert": "OK",
      "vis_m": 9999,
      "fzfg": false,
      "metar_trigger": false,
      "taf_trigger": false,
      "metar": "METAR LRBS 291730Z 25006KT CAVOK 00/M03 Q1011 NOSIG",
      "taf": "TAF LRBS 291700Z 2918/3018 VRB04KT CAVOK"
    },
    {
      "icao": "LRBV",
      "alert": "OK",
      "vis_m": 9999,
      "fzfg": false,
      "metar_trigger": false,
      "taf_trigger": false,
      "metar": "METAR LRBV 291730Z 25006KT CAVOK M02/M08 Q1010",
      "taf": "TAF LRBV 291700Z 2918/3003 25006KT CAVOK"
    },
    {
      "icao": "LRCL",
      "alert": "OK",
      "vis_m": 9999,
      "fzfg": false,
      "metar_trigger": false,
      "taf_trigger": false,
      "metar": "METAR LRCL 291730Z 01003KT CAVOK M04/M07 Q1012",
      "taf": "TAF LRCL 291700Z 2918/3003 VRB04KT CAVOK"
    },
    {
      "icao": "LRCV",
      "alert": "OK",
      "vis_m": 9999,
      "fzfg": false,
      "metar_trigger": false,
      "taf_trigger": false,
      "metar": "METAR LRCV 291730Z 29012KT CAVOK 01/M04 Q1011",
      "taf": "TAF LRCV 291700Z 2918/3003 28015KT CAVOK"
    },
    {
      "icao": "LRIA",
      "alert": "OK",
      "vis_m": 9999,
      "fzfg": false,
      "metar_trigger": false,
      "taf_trigger": false,
      "metar": "METAR LRIA 291730Z 26004KT 230V310 CAVOK M01/M06 Q1008",
      "taf": "TAF LRIA 291700Z 2918/3003 25006KT CAVOK"
    },
    {
      "icao": "LROP",
      "alert": "OK",
      "vis_m": 9999,
      "fzfg": false,
      "metar_trigger": false,
      "taf_trigger": false,
      "metar": "METAR LROP 291730Z 21005KT CAVOK M01/M04 Q1010 NOSIG",
      "taf": "TAF LROP 291700Z 2918/3018 VRB04KT CAVOK"
    },
    {
      "icao": "LRSB",
      "alert": "OK",
      "vis_m": 9999,
      "fzfg": false,
      "metar_trigger": false,
      "taf_trigger": false,
      "metar": "METAR LRSB 291730Z 32006KT 290V350 CAVOK M01/M06 Q1011 NOSIG",
      "taf": "TAF LRSB 291700Z 2918/3018 29012KT CAVOK"
    },
    {
      "icao": "LRSM",
      "alert": "OK",
      "vis_m": 9999,
      "fzfg": false,
      "metar_trigger": false,
      "taf_trigger": false,
      "metar": "METAR LRSM 291730Z AUTO 10005KT 9999 BKN039/// M04/M06 Q1013",
      "taf": "TAF LRSM 291400Z 2915/2924 25014KT 9999 BKN015"
    },
    {
      "icao": "LRSV",
      "alert": "OK",
      "vis_m": 9999,
      "fzfg": false,
      "metar_trigger": false,
      "taf_trigger": false,
      "metar": "METAR LRSV 291730Z 31006KT CAVOK M03/M08 Q1006",
      "taf": "TAF LRSV 291700Z 2918/3003 29006KT CAVOK"
    },
    {
      "icao": "LRTM",
      "alert": "OK",
      "vis_m": 9999,
      "fzfg": false,
      "metar_trigger": false,
      "taf_trigger": false,
      "metar": "METAR LRTM 291730Z AUTO 25004KT 9999 R25////// BKN040/// M03/M06 Q1012",
      "taf": "TAF LRTM 291400Z 2915/2924 22010KT CAVOK"
    },
    {
      "icao": "LRTR",
      "alert": "OK",
      "vis_m": 9999,
      "fzfg": false,
      "metar_trigger": false,
      "taf_trigger": false,
      "metar": "METAR LRTR 291730Z 17005KT CAVOK M00/M02 Q1013 NOSIG",
      "taf": "TAF LRTR 291700Z 2918/3018 VRB04KT CAVOK"
    },
    {
      "icao": "LTAC",
      "alert": "OK",
      "vis_m": 9999,
      "fzfg": false,
      "metar_trigger": false,
      "taf_trigger": false,
      "metar": "METAR LTAC 291720Z 26013KT 9999 SCT035 SCT100 M02/M06 Q1012 NOSIG RMK RWY21C 24011KT RWY03L 25010KT RWY21R 24011KT RWY03R 25012KT RWY21L 25012KT",
      "taf": "TAF LTAC 291640Z 2918/3018 24009KT 9999 SCT040 SCT100"
    },
    {
      "icao": "LTFM",
      "alert": "OK",
      "vis_m": 9999,
      "fzfg": false,
      "metar_trigger": false,
      "taf_trigger": false,
      "metar": "METAR LTFM 291720Z 23010KT CAVOK 04/M04 Q1015 NOSIG RMK RWY17L 23010KT RWY34L 22009KT RWY16R 22009KT RWY36 22009KT RWY18 24012G22KT",
      "taf": "TAF LTFM 291640Z 2918/3024 22012KT CAVOK"
    },
    {
      "icao": "LUKK",
      "alert": "OK",
      "vis_m": 9999,
      "fzfg": false,
      "metar_trigger": false,
      "taf_trigger": false,
      "metar": "METAR LUKK 291730Z 32012KT CAVOK M01/M06 Q1008 NOSIG",
      "taf": "TAF LUKK 291722Z 2918/3018 30010KT CAVOK"
    },
    {
      "icao": "LWOH",
      "alert": "OK",
      "vis_m": 9999,
      "fzfg": false,
      "metar_trigger": false,
      "taf_trigger": false,
      "metar": "METAR LWOH 291750Z 33004KT CAVOK M02/M05 Q1017",
      "taf": "TAF LWOH 291730Z 2918/3018 34006KT CAVOK"
    },
    {
      "icao": "LWSK",
      "alert": "OK",
      "vis_m": 9999,
      "fzfg": false,
      "metar_trigger": false,
      "taf_trigger": false,
      "metar": "METAR LWSK 291750Z VRB02KT CAVOK M01/M06 Q1017 NOSIG",
      "taf": "TAF LWSK 291730Z 2918/3018 VRB02KT CAVOK"
    },
    {
      "icao": "LYBE",
      "alert": "OK",
      "vis_m": 9999,
      "fzfg": false,
      "metar_trigger": false,
      "taf_trigger": false,
      "metar": "METAR LYBE 291730Z 09004KT CAVOK 02/M05 Q1014 NOSIG",
      "taf": "TAF LYBE 291700Z 2918/3018 24004KT CAVOK TX03/3013Z TNM04/3006Z"
    },
    {
      "icao": "LYNI",
      "alert": "OK",
      "vis_m": 9999,
      "fzfg": false,
      "metar_trigger": false,
      "taf_trigger": false,
      "metar": "METAR LYNI 291730Z 09004KT CAVOK 01/M04 Q1016 NOSIG",
      "taf": "TAF LYNI 291700Z 2918/3018 10004KT CAVOK TX04/3013Z TNM05/3006Z"
    },
    {
      "icao": "LYPG",
      "alert": "OK",
      "vis_m": 9999,
      "fzfg": false,
      "metar_trigger": false,
      "taf_trigger": false,
      "metar": "METAR LYPG 291730Z 34003KT CAVOK 02/M03 Q1017 NOSIG",
      "taf": "TAF LYPG 291700Z 2918/3018 36006KT CAVOK TX09/3013Z TNM02/3005Z"
    },
    {
      "icao": "LZIB",
      "alert": "OK",
      "vis_m": 9999,
      "fzfg": false,
      "metar_trigger": false,
      "taf_trigger": false,
      "metar": "METAR LZIB 291730Z 30008KT 9999 FEW026 01/M03 Q1015 NOSIG",
      "taf": "TAF LZIB 291715Z 2918/3018 30010KT CAVOK"
    },
    {
      "icao": "LZKZ",
      "alert": "OK",
      "vis_m": 9999,
      "fzfg": false,
      "metar_trigger": false,
      "taf_trigger": false,
      "metar": "METAR LZKZ 291730Z 18003KT CAVOK M04/M06 Q1012 NOSIG",
      "taf": "TAF LZKZ 291715Z 2918/3018 VRB02KT CAVOK"
    },
    {
      "icao": "LZTT",
      "alert": "OK",
      "vis_m": 9999,
      "fzfg": false,
      "metar_trigger": false,
      "taf_trigger": false,
      "metar": "METAR LZTT 291730Z 28012KT 9999 SCT020 M03/M07 Q1009 NOSIG",
      "taf": "TAF LZTT 291715Z 2918/3018 29010KT CAVOK"
    },
    {
      "icao": "OEJN",
      "alert": "OK",
      "vis_m": 9999,
      "fzfg": false,
      "metar_trigger": false,
      "taf_trigger": false,
      "metar": "METAR OEJN 291700Z 01004KT CAVOK 24/18 Q1016 NOSIG",
      "taf": "TAF OEJN 291700Z 2918/3024 05008KT 7000 NSC"
    },
    {
      "icao": "OEMA",
      "alert": "OK",
      "vis_m": 9999,
      "fzfg": false,
      "metar_trigger": false,
      "taf_trigger": false,
      "metar": "METAR OEMA 291700Z 29008KT CAVOK 21/M02 Q1018 NOSIG",
      "taf": "TAF OEMA 291700Z 2918/3024 30005KT CAVOK"
    },
    {
      "icao": "OJAI",
      "alert": "OK",
      "vis_m": 2500,
      "fzfg": false,
      "metar_trigger": false,
      "taf_trigger": false,
      "metar": "METAR OJAI 291700Z 26013KT 2500 BR SCT025 BKN030 09/08 Q1014 NOSIG",
      "taf": "TAF OJAI 291639Z 2918/3024 27015G25KT 3000 BR SCT030"
    },
    {
      "icao": "OMAA",
      "alert": "OK",
      "vis_m": 9999,
      "fzfg": false,
      "metar_trigger": false,
      "taf_trigger": false,
      "metar": "METAR OMAA 291700Z 33007KT CAVOK 23/16 Q1013 NOSIG",
      "taf": "TAF OMAA 291700Z 2918/3100 34007KT 8000 NSC"
    },
    {
      "icao": "OMDB",
      "alert": "OK",
      "vis_m": 9999,
      "fzfg": false,
      "metar_trigger": false,
      "taf_trigger": false,
      "metar": "METAR OMDB 291730Z 31013KT 9999 SCT045 24/13 Q1013 NOSIG",
      "taf": "TAF OMDB 291700Z 2918/3100 29013KT 8000 NSC"
    },
    {
      "icao": "UAAA",
      "alert": "OK",
      "vis_m": 800,
      "fzfg": true,
      "metar_trigger": false,
      "taf_trigger": false,
      "metar": "SPECI UAAA 291745Z 00000MPS 0800 R23L/2000 FZFG FEW100 SCT200 M03/M04 Q1008 NOSIG",
      "taf": "TAF UAAA 291702Z 2918/3018 14003MPS 1200 BR FU FEW050 SCT100 TX07/3009Z TNM04/3001Z"
    },
    {
      "icao": "UBBB",
      "alert": "OK",
      "vis_m": 9999,
      "fzfg": false,
      "metar_trigger": false,
      "taf_trigger": false,
      "metar": "METAR UBBB 291730Z 00000KT CAVOK 03/01 Q1002 NOSIG",
      "taf": "TAF UBBB 291706Z 2918/3018 22005KT 9999 SCT015 TX08/3006Z TN02/3002Z"
    },
    {
      "icao": "UDSG",
      "alert": "OK",
      "vis_m": 7000,
      "fzfg": false,
      "metar_trigger": false,
      "taf_trigger": false,
      "metar": "METAR UDSG 291730Z 29004KT 7000 OVC036 M10/M10 Q1003 NOSIG",
      "taf": "TAF UDSG 291658Z 2918/3018 VRB06KT 5000 BR BKN030"
    },
    {
      "icao": "UDYZ",
      "alert": "OK",
      "vis_m": 450,
      "fzfg": true,
      "metar_trigger": false,
      "taf_trigger": false,
      "metar": "METAR UDYZ 291730Z 22001KT 0450 0100N R08/P2000D FZFG SCT040 M06/M06 Q1005 NOSIG",
      "taf": "TAF UDYZ 291700Z 2918/3018 VRB04KT 3000 BR SCT040"
    },
    {
      "icao": "UGKO",
      "alert": "OK",
      "vis_m": 9999,
      "fzfg": false,
      "metar_trigger": false,
      "taf_trigger": false,
      "metar": "METAR UGKO 291730Z 20006KT 150V220 9999 BKN015CB OVC047 01/00 Q1005 NOSIG",
      "taf": "TAF UGKO 291700Z 2918/3018 24010KT 7000 -SNRA SCT015 OVC035 TX02/3006Z TNM00/3001Z"
    }
  ]
}