{
  "ts_utc": "2026-03-04T14:56:08Z",
  "threshold_m": 150,
  "source": "stations_override.txt (ICAO list) + aviationweather.gov (METAR/TAF raw)",
  "station_count": 159,
  "stations": [
    {
      "icao": "BIKF",
      "alert": "OK",
      "vis_m": 8000,
      "fzfg": false,
      "metar_trigger": false,
      "taf_trigger": false,
      "metar": "METAR BIKF 041430Z 19007KT 120V230 8000 SCT014CB BKN031 BKN063 M00/M03 Q0996 RESHSN",
      "taf": "TAF BIKF 041337Z 0415/0515 22012KT 9999 -SHSN FEW014CB BKN025 TX03/0415Z TNM03/0502Z"
    },
    {
      "icao": "BKPR",
      "alert": "OK",
      "vis_m": null,
      "fzfg": false,
      "metar_trigger": false,
      "taf_trigger": false,
      "metar": "",
      "taf": "TAF BKPR 041130Z 0412/0512 18007KT 9999 BKN050"
    },
    {
      "icao": "EBCI",
      "alert": "OK",
      "vis_m": 9999,
      "fzfg": false,
      "metar_trigger": false,
      "taf_trigger": false,
      "metar": "METAR EBCI 041420Z 06006KT 040V100 CAVOK 17/05 Q1024 NOSIG",
      "taf": "TAF EBCI 041101Z 0412/0518 07006KT CAVOK"
    },
    {
      "icao": "EDDB",
      "alert": "OK",
      "vis_m": 9999,
      "fzfg": false,
      "metar_trigger": false,
      "taf_trigger": false,
      "metar": "METAR EDDB 041450Z AUTO 33005KT 280V010 CAVOK 12/M03 Q1028 NOSIG",
      "taf": "TAF EDDB 041100Z 0412/0512 35005KT CAVOK"
    },
    {
      "icao": "EDDH",
      "alert": "OK",
      "vis_m": 9999,
      "fzfg": false,
      "metar_trigger": false,
      "taf_trigger": false,
      "metar": "METAR EDDH 041450Z AUTO VRB04KT CAVOK 12/M02 Q1028 NOSIG",
      "taf": "TAF EDDH 041100Z 0412/0518 05005KT CAVOK"
    },
    {
      "icao": "EDDK",
      "alert": "OK",
      "vis_m": 9999,
      "fzfg": false,
      "metar_trigger": false,
      "taf_trigger": false,
      "metar": "METAR EDDK 041450Z AUTO VRB03KT CAVOK 18/06 Q1025 NOSIG",
      "taf": "TAF EDDK 041100Z 0412/0518 12004KT CAVOK"
    },
    {
      "icao": "EDDN",
      "alert": "OK",
      "vis_m": 9999,
      "fzfg": false,
      "metar_trigger": false,
      "taf_trigger": false,
      "metar": "METAR EDDN 041450Z AUTO VRB03KT CAVOK 14/04 Q1026 BECMG 03004KT",
      "taf": "TAF EDDN 041100Z 0412/0512 10004KT CAVOK"
    },
    {
      "icao": "EDDS",
      "alert": "OK",
      "vis_m": 9999,
      "fzfg": false,
      "metar_trigger": false,
      "taf_trigger": false,
      "metar": "METAR EDDS 041450Z AUTO 12004KT 050V170 CAVOK 15/04 Q1024 NOSIG",
      "taf": "TAF EDDS 041100Z 0412/0512 VRB03KT CAVOK"
    },
    {
      "icao": "EDFH",
      "alert": "OK",
      "vis_m": 9999,
      "fzfg": false,
      "metar_trigger": false,
      "taf_trigger": false,
      "metar": "METAR EDFH 041420Z 11006KT 070V170 CAVOK 14/03 Q1025",
      "taf": "TAF EDFH 041100Z 0412/0512 14011KT CAVOK"
    },
    {
      "icao": "EDJA",
      "alert": "OK",
      "vis_m": 9999,
      "fzfg": false,
      "metar_trigger": false,
      "taf_trigger": false,
      "metar": "METAR EDJA 041420Z 04007KT 010V070 CAVOK 11/04 Q1025",
      "taf": "TAF EDJA 041400Z 0415/0424 06006KT CAVOK"
    },
    {
      "icao": "EDLW",
      "alert": "OK",
      "vis_m": 9999,
      "fzfg": false,
      "metar_trigger": false,
      "taf_trigger": false,
      "metar": "METAR EDLW 041420Z 35004KT 330V030 CAVOK 16/07 Q1025",
      "taf": "TAF EDLW 041100Z 0412/0512 VRB03KT CAVOK"
    },
    {
      "icao": "EDNY",
      "alert": "OK",
      "vis_m": 9999,
      "fzfg": false,
      "metar_trigger": false,
      "taf_trigger": false,
      "metar": "METAR EDNY 041420Z 23006KT CAVOK 10/06 Q1025",
      "taf": "TAF EDNY 041400Z 0415/0424 23005KT CAVOK"
    },
    {
      "icao": "EDSB",
      "alert": "OK",
      "vis_m": 9999,
      "fzfg": false,
      "metar_trigger": false,
      "taf_trigger": false,
      "metar": "METAR EDSB 041420Z 35007KT 310V020 CAVOK 17/05 Q1024",
      "taf": "TAF EDSB 041100Z 0412/0512 VRB02KT CAVOK"
    },
    {
      "icao": "EETN",
      "alert": "OK",
      "vis_m": 9999,
      "fzfg": false,
      "metar_trigger": false,
      "taf_trigger": false,
      "metar": "METAR EETN 041450Z 28016KT CAVOK 03/M02 Q1009 NOSIG",
      "taf": "TAF EETN 041130Z 0412/0512 27015KT CAVOK"
    },
    {
      "icao": "EFTU",
      "alert": "OK",
      "vis_m": 9999,
      "fzfg": false,
      "metar_trigger": false,
      "taf_trigger": false,
      "metar": "METAR EFTU 041450Z AUTO 30013KT 270V330 9999 OVC049 05/M03 Q1009",
      "taf": "TAF EFTU 041435Z 0415/0515 30015G25KT 9999 SCT045"
    },
    {
      "icao": "EGBB",
      "alert": "OK",
      "vis_m": 9999,
      "fzfg": false,
      "metar_trigger": false,
      "taf_trigger": false,
      "metar": "METAR EGBB 041450Z 14009KT CAVOK 12/08 Q1022",
      "taf": "TAF EGBB 041052Z 0412/0512 10006KT 6000 BKN008"
    },
    {
      "icao": "EGGP",
      "alert": "OK",
      "vis_m": 9999,
      "fzfg": false,
      "metar_trigger": false,
      "taf_trigger": false,
      "metar": "METAR EGGP 041450Z 14009KT 120V180 CAVOK 12/07 Q1021",
      "taf": "TAF EGGP 041102Z 0412/0512 14012KT 9999 SCT030"
    },
    {
      "icao": "EGGW",
      "alert": "OK",
      "vis_m": 8000,
      "fzfg": false,
      "metar_trigger": false,
      "taf_trigger": false,
      "metar": "METAR EGGW 041450Z AUTO 11008KT 8000 SCT006 09/08 Q1023",
      "taf": ""
    },
    {
      "icao": "EGKK",
      "alert": "OK",
      "vis_m": 9999,
      "fzfg": false,
      "metar_trigger": false,
      "taf_trigger": false,
      "metar": "METAR EGKK 041450Z 08008KT CAVOK 15/09 Q1022",
      "taf": ""
    },
    {
      "icao": "EGNM",
      "alert": "OK",
      "vis_m": 9999,
      "fzfg": false,
      "metar_trigger": false,
      "taf_trigger": false,
      "metar": "METAR EGNM 041450Z 11009KT 080V150 CAVOK 11/05 Q1022",
      "taf": "TAF EGNM 041102Z 0412/0512 14007KT 9999 SCT030"
    },
    {
      "icao": "EGPD",
      "alert": "OK",
      "vis_m": 9999,
      "fzfg": false,
      "metar_trigger": false,
      "taf_trigger": false,
      "metar": "METAR EGPD 041450Z COR AUTO 15010KT 9999 FEW027 09/05 Q1020 NOSIG",
      "taf": "TAF EGPD 041058Z 0412/0512 17008KT 9999 FEW030"
    },
    {
      "icao": "EGPF",
      "alert": "OK",
      "vis_m": 9999,
      "fzfg": false,
      "metar_trigger": false,
      "taf_trigger": false,
      "metar": "METAR EGPF 041450Z AUTO 18010KT 140V200 9999 BKN024 BKN047 13/08 Q1019",
      "taf": ""
    },
    {
      "icao": "EHBK",
      "alert": "OK",
      "vis_m": 9999,
      "fzfg": false,
      "metar_trigger": false,
      "taf_trigger": false,
      "metar": "METAR EHBK 041425Z AUTO 06004KT 010V100 9999 NSC 17/07 Q1025 NOSIG",
      "taf": "TAF EHBK 041059Z 0412/0518 06003KT CAVOK"
    },
    {
      "icao": "EHEH",
      "alert": "OK",
      "vis_m": 9999,
      "fzfg": false,
      "metar_trigger": false,
      "taf_trigger": false,
      "metar": "METAR EHEH 041425Z AUTO 06005KT 020V140 9999 OVC240 17/07 Q1025 BLU NOSIG",
      "taf": "TAF EHEH 041103Z 0412/0518 07003KT CAVOK"
    },
    {
      "icao": "EKBI",
      "alert": "OK",
      "vis_m": 9999,
      "fzfg": false,
      "metar_trigger": false,
      "taf_trigger": false,
      "metar": "METAR EKBI 041450Z AUTO 28007KT 250V310 9999 NCD 10/01 Q1028",
      "taf": "TAF EKBI 041427Z 0415/0515 26005KT 9999 FEW020"
    },
    {
      "icao": "EKCH",
      "alert": "OK",
      "vis_m": 9999,
      "fzfg": false,
      "metar_trigger": false,
      "taf_trigger": false,
      "metar": "METAR EKCH 041450Z AUTO 34008KT 290V010 9999 NCD 09/02 Q1027 NOSIG",
      "taf": "TAF EKCH 041427Z 0415/0515 32010KT CAVOK"
    },
    {
      "icao": "ENAL",
      "alert": "OK",
      "vis_m": 9999,
      "fzfg": false,
      "metar_trigger": false,
      "taf_trigger": false,
      "metar": "METAR ENAL 041420Z 21012KT CAVOK 08/02 Q1019",
      "taf": "TAF ENAL 041400Z 0415/0424 22017KT 9999 SCT030"
    },
    {
      "icao": "ENBR",
      "alert": "OK",
      "vis_m": 9999,
      "fzfg": false,
      "metar_trigger": false,
      "taf_trigger": false,
      "metar": "METAR ENBR 041420Z 18016KT CAVOK 07/M01 Q1024 NOSIG RMK WIND 1200FT 18017KT",
      "taf": "TAF ENBR 041100Z 0412/0512 16012KT 9999 SCT040"
    },
    {
      "icao": "ENGM",
      "alert": "OK",
      "vis_m": 9999,
      "fzfg": false,
      "metar_trigger": false,
      "taf_trigger": false,
      "metar": "METAR ENGM 041420Z 23006KT CAVOK 05/M02 Q1020 NOSIG",
      "taf": "TAF ENGM 041100Z 0412/0512 19010KT CAVOK"
    },
    {
      "icao": "ENHD",
      "alert": "OK",
      "vis_m": 9999,
      "fzfg": false,
      "metar_trigger": false,
      "taf_trigger": false,
      "metar": "METAR ENHD 041420Z 19010KT CAVOK 08/M00 Q1026",
      "taf": "TAF ENHD 041400Z 0415/0423 16010KT 9999 FEW030"
    },
    {
      "icao": "ENTC",
      "alert": "OK",
      "vis_m": 9999,
      "fzfg": false,
      "metar_trigger": false,
      "taf_trigger": false,
      "metar": "METAR ENTC 041420Z 19015KT 9999 -RASN SCT007 BKN019 OVC025 01/M00 Q1001 NOSIG RMK WIND 2600FT 21013KT",
      "taf": "TAF ENTC 041100Z 0412/0512 21012KT 9999 -SHRASN BKN030"
    },
    {
      "icao": "ENTO",
      "alert": "OK",
      "vis_m": 9999,
      "fzfg": false,
      "metar_trigger": false,
      "taf_trigger": false,
      "metar": "METAR ENTO 041420Z 23008KT CAVOK 09/M00 Q1023",
      "taf": "TAF ENTO 041100Z 0412/0512 22010KT CAVOK"
    },
    {
      "icao": "ENVA",
      "alert": "OK",
      "vis_m": 9999,
      "fzfg": false,
      "metar_trigger": false,
      "taf_trigger": false,
      "metar": "METAR ENVA 041420Z 31009KT 9999 -RA FEW015 SCT020 BKN026 06/05 Q1018 TEMPO 27018KT 3000 SHRA BKN008 BKN012TCU RMK WIND 670FT 28014KT",
      "taf": "TAF ENVA 041100Z 0412/0512 28008KT 9999 FEW020 BKN040"
    },
    {
      "icao": "ENZV",
      "alert": "OK",
      "vis_m": 9999,
      "fzfg": false,
      "metar_trigger": false,
      "taf_trigger": false,
      "metar": "METAR ENZV 041420Z 19009KT CAVOK 08/M00 Q1026 NOSIG",
      "taf": "TAF ENZV 041100Z 0412/0512 21006KT 9999 FEW030"
    },
    {
      "icao": "EPGD",
      "alert": "OK",
      "vis_m": 9999,
      "fzfg": false,
      "metar_trigger": false,
      "taf_trigger": false,
      "metar": "METAR EPGD 041430Z 28016KT 9999 FEW025 06/00 Q1024",
      "taf": "TAF EPGD 041130Z 0412/0512 29015KT CAVOK"
    },
    {
      "icao": "EPKK",
      "alert": "OK",
      "vis_m": 9999,
      "fzfg": false,
      "metar_trigger": false,
      "taf_trigger": false,
      "metar": "METAR EPKK 041430Z 23009KT 9999 SCT045 14/04 Q1024",
      "taf": "TAF EPKK 041430Z 0415/0515 24012KT CAVOK"
    },
    {
      "icao": "EPKT",
      "alert": "OK",
      "vis_m": 9999,
      "fzfg": false,
      "metar_trigger": false,
      "taf_trigger": false,
      "metar": "METAR EPKT 041430Z 29008KT 240V020 CAVOK 14/M02 Q1024",
      "taf": "TAF EPKT 041130Z 0412/0512 26010KT CAVOK"
    },
    {
      "icao": "EPLB",
      "alert": "OK",
      "vis_m": 9999,
      "fzfg": false,
      "metar_trigger": false,
      "taf_trigger": false,
      "metar": "METAR EPLB 041430Z 31010KT 9999 FEW038 12/04 Q1022",
      "taf": "TAF EPLB 041130Z 0412/0512 29012KT CAVOK"
    },
    {
      "icao": "EPMO",
      "alert": "OK",
      "vis_m": 9999,
      "fzfg": false,
      "metar_trigger": false,
      "taf_trigger": false,
      "metar": "METAR EPMO 041430Z 29011KT 260V320 CAVOK 09/01 Q1024",
      "taf": "TAF EPMO 041130Z 0412/0512 29012KT CAVOK"
    },
    {
      "icao": "EPPO",
      "alert": "OK",
      "vis_m": 9999,
      "fzfg": false,
      "metar_trigger": false,
      "taf_trigger": false,
      "metar": "METAR EPPO 041430Z 32009KT CAVOK 11/M02 Q1026",
      "taf": "TAF EPPO 041130Z 0412/0512 32010KT CAVOK"
    },
    {
      "icao": "EPRA",
      "alert": "OK",
      "vis_m": 9999,
      "fzfg": false,
      "metar_trigger": false,
      "taf_trigger": false,
      "metar": "METAR EPRA 041430Z 30011KT 280V340 CAVOK 12/M06 Q1023",
      "taf": "TAF EPRA 041430Z 0415/0424 30010KT CAVOK"
    },
    {
      "icao": "EPRZ",
      "alert": "OK",
      "vis_m": 9999,
      "fzfg": false,
      "metar_trigger": false,
      "taf_trigger": false,
      "metar": "METAR EPRZ 041430Z 26016KT CAVOK 15/03 Q1023",
      "taf": "TAF EPRZ 041130Z 0412/0512 26012KT CAVOK"
    },
    {
      "icao": "EPSC",
      "alert": "OK",
      "vis_m": 9999,
      "fzfg": false,
      "metar_trigger": false,
      "taf_trigger": false,
      "metar": "METAR EPSC 041430Z 30011KT CAVOK 09/M00 Q1027",
      "taf": "TAF EPSC 041130Z 0412/0512 31010KT CAVOK"
    },
    {
      "icao": "EPSY",
      "alert": "OK",
      "vis_m": 9999,
      "fzfg": false,
      "metar_trigger": false,
      "taf_trigger": false,
      "metar": "METAR EPSY 041430Z 32009KT 290V350 CAVOK 07/M02 Q1023",
      "taf": "TAF EPSY 041430Z 0415/0424 31010KT CAVOK"
    },
    {
      "icao": "EPWA",
      "alert": "OK",
      "vis_m": 9999,
      "fzfg": false,
      "metar_trigger": false,
      "taf_trigger": false,
      "metar": "METAR EPWA 041430Z 31013KT CAVOK 10/M02 Q1023 NOSIG",
      "taf": "TAF EPWA 041430Z 0415/0515 29010KT CAVOK"
    },
    {
      "icao": "EPWR",
      "alert": "OK",
      "vis_m": 9999,
      "fzfg": false,
      "metar_trigger": false,
      "taf_trigger": false,
      "metar": "METAR EPWR 041430Z 33007KT 300V360 9999 FEW038 13/05 Q1026",
      "taf": "TAF EPWR 041430Z 0415/0515 33010KT CAVOK"
    },
    {
      "icao": "ESGG",
      "alert": "OK",
      "vis_m": 9999,
      "fzfg": false,
      "metar_trigger": false,
      "taf_trigger": false,
      "metar": "METAR ESGG 041450Z 27009KT 230V310 CAVOK 07/01 Q1024",
      "taf": "TAF ESGG 041430Z 0415/0515 28011KT CAVOK"
    },
    {
      "icao": "ESKN",
      "alert": "OK",
      "vis_m": 9999,
      "fzfg": false,
      "metar_trigger": false,
      "taf_trigger": false,
      "metar": "METAR ESKN 041450Z 28018KT CAVOK 09/M02 Q1018",
      "taf": "TAF ESKN 041430Z 0415/0515 28015G25KT CAVOK"
    },
    {
      "icao": "ESMS",
      "alert": "OK",
      "vis_m": 9999,
      "fzfg": false,
      "metar_trigger": false,
      "taf_trigger": false,
      "metar": "METAR ESMS 041450Z 32016KT 9999 FEW016 07/03 Q1026",
      "taf": "TAF ESMS 041427Z 0415/0515 31012KT 9999 SCT010"
    },
    {
      "icao": "ESSA",
      "alert": "OK",
      "vis_m": 9999,
      "fzfg": false,
      "metar_trigger": false,
      "taf_trigger": false,
      "metar": "METAR ESSA 041450Z 28012KT CAVOK 09/M05 Q1016 NOSIG",
      "taf": "TAF ESSA 041430Z 0415/0515 29012KT CAVOK"
    },
    {
      "icao": "EYKA",
      "alert": "OK",
      "vis_m": 9999,
      "fzfg": false,
      "metar_trigger": false,
      "taf_trigger": false,
      "metar": "METAR EYKA 041450Z 26014KT CAVOK 04/M01 Q1019",
      "taf": "TAF EYKA 041100Z 0412/0512 26014KT 9000 NSC"
    },
    {
      "icao": "EYPA",
      "alert": "OK",
      "vis_m": 9999,
      "fzfg": false,
      "metar_trigger": false,
      "taf_trigger": false,
      "metar": "METAR EYPA 041450Z VRB05KT CAVOK 03/00 Q1020",
      "taf": "TAF EYPA 041100Z 0412/0512 VRB05KT 9000 NSC"
    },
    {
      "icao": "EYVI",
      "alert": "OK",
      "vis_m": 9999,
      "fzfg": false,
      "metar_trigger": false,
      "taf_trigger": false,
      "metar": "METAR EYVI 041450Z 28013KT 9999 FEW016 03/M01 Q1018 NOSIG",
      "taf": "TAF EYVI 041105Z 0412/0512 28012KT 9000 NSC"
    },
    {
      "icao": "GCFV",
      "alert": "OK",
      "vis_m": 9999,
      "fzfg": false,
      "metar_trigger": false,
      "taf_trigger": false,
      "metar": "METAR GCFV 041430Z 33017KT 300V010 9999 SCT035 21/11 Q1017",
      "taf": "TAF GCFV 041400Z 0415/0515 33015KT 9999 FEW030 TX20/0514Z TN15/0506Z"
    },
    {
      "icao": "GCLP",
      "alert": "OK",
      "vis_m": 9999,
      "fzfg": false,
      "metar_trigger": false,
      "taf_trigger": false,
      "metar": "METAR GCLP 041430Z 34020KT 310V010 9999 FEW027 21/13 Q1018 NOSIG",
      "taf": "TAF GCLP 041400Z 0415/0515 36020KT 9999 SCT025 TX21/0514Z TN15/0506Z"
    },
    {
      "icao": "GCTS",
      "alert": "OK",
      "vis_m": 9999,
      "fzfg": false,
      "metar_trigger": false,
      "taf_trigger": false,
      "metar": "METAR GCTS 041430Z 20007KT 140V250 9999 FEW035 21/10 Q1019 NOSIG",
      "taf": "TAF GCTS 041400Z 0415/0515 21009KT 9999 SCT025 TX22/0514Z TN15/0506Z"
    },
    {
      "icao": "GMAD",
      "alert": "OK",
      "vis_m": 9999,
      "fzfg": false,
      "metar_trigger": false,
      "taf_trigger": false,
      "metar": "METAR GMAD 041430Z 27013KT 9999 SCT023 SCT100 18/08 Q1013 NOSIG",
      "taf": "TAF GMAD 041100Z 0412/0518 28012KT 8000 SCT026"
    },
    {
      "icao": "GMMN",
      "alert": "OK",
      "vis_m": 9999,
      "fzfg": false,
      "metar_trigger": false,
      "taf_trigger": false,
      "metar": "METAR GMMN 041430Z 20017KT 9999 BKN030 10/08 Q1011 NOSIG",
      "taf": "TAF GMMN 041100Z 0412/0518 20010KT 9999 RA BKN030"
    },
    {
      "icao": "GMMX",
      "alert": "OK",
      "vis_m": 9999,
      "fzfg": false,
      "metar_trigger": false,
      "taf_trigger": false,
      "metar": "METAR GMMX 041430Z 23006KT 190V260 9999 FEW020 SCT030 BKN090 13/06 Q1011 NOSIG",
      "taf": "TAF GMMX 041100Z 0412/0518 28006KT 9999 SCT030 BKN090"
    },
    {
      "icao": "HEGN",
      "alert": "OK",
      "vis_m": 9999,
      "fzfg": false,
      "metar_trigger": false,
      "taf_trigger": false,
      "metar": "METAR HEGN 041400Z 02010KT CAVOK 22/06 Q1019 NOSIG",
      "taf": "TAF HEGN 041100Z 0412/0518 35016KT CAVOK"
    },
    {
      "icao": "HEMA",
      "alert": "OK",
      "vis_m": 6000,
      "fzfg": false,
      "metar_trigger": false,
      "taf_trigger": false,
      "metar": "METAR HEMA 041400Z 35017KT 6000 NSC 22/12 Q1018 NOSIG",
      "taf": "TAF HEMA 041100Z 0412/0518 35008G20KT CAVOK"
    },
    {
      "icao": "HESH",
      "alert": "OK",
      "vis_m": 9999,
      "fzfg": false,
      "metar_trigger": false,
      "taf_trigger": false,
      "metar": "METAR HESH 041400Z 02010KT CAVOK 24/08 Q1019 NOSIG",
      "taf": "TAF HESH 041100Z 0412/0518 01014KT CAVOK"
    },
    {
      "icao": "HESX",
      "alert": "OK",
      "vis_m": 9999,
      "fzfg": false,
      "metar_trigger": false,
      "taf_trigger": false,
      "metar": "METAR HESX 041400Z 36009KT 9999 FEW020 18/07 Q1022 NOSIG",
      "taf": "TAF HESX 041100Z 0412/0518 36010KT 9999 SCT020"
    },
    {
      "icao": "LATI",
      "alert": "OK",
      "vis_m": 9999,
      "fzfg": false,
      "metar_trigger": false,
      "taf_trigger": false,
      "metar": "METAR LATI 041450Z 33006KT 300V360 9999 SCT170 16/10 Q1026 NOSIG",
      "taf": "TAF LATI 041100Z 0412/0512 VRB05KT CAVOK TX18/0412Z TN06/0505Z"
    },
    {
      "icao": "LBPD",
      "alert": "OK",
      "vis_m": 9999,
      "fzfg": false,
      "metar_trigger": false,
      "taf_trigger": false,
      "metar": "METAR LBPD 041430Z AUTO 10006KT 060V130 9999 NCD 15/05 Q1026 NOSIG",
      "taf": "TAF LBPD 041100Z 0412/0512 VRB03KT CAVOK"
    },
    {
      "icao": "LBSF",
      "alert": "OK",
      "vis_m": 9999,
      "fzfg": false,
      "metar_trigger": false,
      "taf_trigger": false,
      "metar": "METAR LBSF 041430Z 05004KT 020V080 CAVOK 15/01 Q1025 NOSIG",
      "taf": "TAF LBSF 041100Z 0412/0512 VRB03KT 9999 SCT060"
    },
    {
      "icao": "LBWN",
      "alert": "OK",
      "vis_m": 9999,
      "fzfg": false,
      "metar_trigger": false,
      "taf_trigger": false,
      "metar": "METAR LBWN 041430Z 10010KT CAVOK 10/04 Q1027 NOSIG",
      "taf": "TAF LBWN 041100Z 0412/0512 11010KT CAVOK"
    },
    {
      "icao": "LCLK",
      "alert": "OK",
      "vis_m": 9999,
      "fzfg": false,
      "metar_trigger": false,
      "taf_trigger": false,
      "metar": "METAR LCLK 041430Z 02012KT 9999 FEW030 BKN060 18/03 Q1021 NOSIG",
      "taf": "TAF LCLK 041130Z 0412/0512 18010KT 9999 FEW025 SCT030"
    },
    {
      "icao": "LCPH",
      "alert": "OK",
      "vis_m": 9999,
      "fzfg": false,
      "metar_trigger": false,
      "taf_trigger": false,
      "metar": "METAR LCPH 041430Z 32015KT 9999 FEW025 18/09 Q1020 NOSIG",
      "taf": "TAF LCPH 041130Z 0412/0512 31015KT 9999 FEW025 SCT030"
    },
    {
      "icao": "LEAL",
      "alert": "OK",
      "vis_m": 7000,
      "fzfg": false,
      "metar_trigger": false,
      "taf_trigger": false,
      "metar": "METAR LEAL 041430Z 02007KT 340V070 7000 BKN035 21/10 Q1012 NOSIG",
      "taf": "TAF LEAL 041100Z 0412/0512 05009KT 9999 FEW020 TX21/0412Z TN10/0507Z"
    },
    {
      "icao": "LEBB",
      "alert": "OK",
      "vis_m": 9999,
      "fzfg": false,
      "metar_trigger": false,
      "taf_trigger": false,
      "metar": "METAR LEBB 041430Z 16008KT 100V240 CAVOK 22/08 Q1016 NOSIG",
      "taf": "TAF LEBB 041100Z 0412/0512 13009KT CAVOK TX21/0415Z TN10/0507Z"
    },
    {
      "icao": "LEBL",
      "alert": "OK",
      "vis_m": 9000,
      "fzfg": false,
      "metar_trigger": false,
      "taf_trigger": false,
      "metar": "METAR LEBL 041430Z 07020G30KT 9000 SCT025 16/12 Q1019 NOSIG",
      "taf": "TAF LEBL 041100Z 0412/0512 06015KT 9999 SCT020 TX17/0412Z TN13/0506Z"
    },
    {
      "icao": "LECH",
      "alert": "OK",
      "vis_m": 4700,
      "fzfg": false,
      "metar_trigger": false,
      "taf_trigger": false,
      "metar": "METAR LECH 041430Z AUTO 04012KT 010V070 4700 -RA BR OVC004 12/11 Q1018",
      "taf": ""
    },
    {
      "icao": "LEMD",
      "alert": "OK",
      "vis_m": 9999,
      "fzfg": false,
      "metar_trigger": false,
      "taf_trigger": false,
      "metar": "METAR LEMD 041430Z 04003KT 330V120 9999 FEW055 17/05 Q1014 NOSIG",
      "taf": "TAF LEMD 041100Z 0412/0518 VRB04KT CAVOK TX18/0414Z TN08/0507Z"
    },
    {
      "icao": "LEMG",
      "alert": "OK",
      "vis_m": 3000,
      "fzfg": false,
      "metar_trigger": false,
      "taf_trigger": false,
      "metar": "METAR LEMG 041430Z 30008KT 3000 SHRA BR FEW010 SCT020CB BKN050 08/08 Q1014 NOSIG",
      "taf": "TAF LEMG 041100Z 0412/0512 30008KT 9999 FEW020 SCT030 TX17/0414Z TN09/0507Z"
    },
    {
      "icao": "LEVC",
      "alert": "OK",
      "vis_m": 9999,
      "fzfg": false,
      "metar_trigger": false,
      "taf_trigger": false,
      "metar": "METAR LEVC 041430Z 06017KT 020V090 9999 BKN014 OVC018 16/12 Q1016 NOSIG",
      "taf": "TAF LEVC 041100Z 0412/0512 05013KT 9999 BKN020 TX16/0412Z TN11/0507Z"
    },
    {
      "icao": "LEXJ",
      "alert": "OK",
      "vis_m": 9999,
      "fzfg": false,
      "metar_trigger": false,
      "taf_trigger": false,
      "metar": "METAR LEXJ 041430Z VRB02KT CAVOK 18/09 Q1014",
      "taf": "TAF LEXJ 041400Z 0415/0515 03009KT CAVOK TX15/0503Z TN10/0507Z"
    },
    {
      "icao": "LEZG",
      "alert": "OK",
      "vis_m": 9999,
      "fzfg": false,
      "metar_trigger": false,
      "taf_trigger": false,
      "metar": "METAR LEZG 041430Z 07003KT 030V110 9999 BKN030 OVC060 14/09 Q1018 NOSIG",
      "taf": ""
    },
    {
      "icao": "LEZL",
      "alert": "OK",
      "vis_m": 9999,
      "fzfg": false,
      "metar_trigger": false,
      "taf_trigger": false,
      "metar": "METAR LEZL 041430Z 18004KT 140V250 9999 SCT037 BKN046 13/09 Q1013 NOSIG",
      "taf": "TAF LEZL 041400Z 0415/0515 22005KT 9999 FEW015 SCT040 TX18/0515Z TN09/0507Z"
    },
    {
      "icao": "LFBD",
      "alert": "OK",
      "vis_m": 9999,
      "fzfg": false,
      "metar_trigger": false,
      "taf_trigger": false,
      "metar": "METAR LFBD 041430Z AUTO 14010KT 100V170 CAVOK 19/10 Q1018 NOSIG",
      "taf": "TAF LFBD 041100Z 0412/0518 11010KT CAVOK TX20/0514Z TN08/0506Z"
    },
    {
      "icao": "LFLL",
      "alert": "OK",
      "vis_m": 9999,
      "fzfg": false,
      "metar_trigger": false,
      "taf_trigger": false,
      "metar": "METAR LFLL 041430Z VRB02KT CAVOK 19/05 Q1022 NOSIG",
      "taf": "TAF LFLL 041100Z 0412/0518 13005KT CAVOK"
    },
    {
      "icao": "LFLS",
      "alert": "OK",
      "vis_m": 9999,
      "fzfg": false,
      "metar_trigger": false,
      "taf_trigger": false,
      "metar": "METAR LFLS 041430Z AUTO VRB03KT CAVOK 17/06 Q1022 NOSIG",
      "taf": "TAF LFLS 041400Z 0415/0515 VRB03KT CAVOK"
    },
    {
      "icao": "LFMN",
      "alert": "OK",
      "vis_m": 9999,
      "fzfg": false,
      "metar_trigger": false,
      "taf_trigger": false,
      "metar": "METAR LFMN 041430Z 09016KT CAVOK 17/10 Q1023 NOSIG",
      "taf": "TAF LFMN 041400Z 0415/0521 09015KT CAVOK"
    },
    {
      "icao": "LFOB",
      "alert": "OK",
      "vis_m": 9999,
      "fzfg": false,
      "metar_trigger": false,
      "taf_trigger": false,
      "metar": "METAR LFOB 041430Z AUTO 14010KT CAVOK 18/06 Q1022 NOSIG",
      "taf": "TAF LFOB 041100Z 0412/0512 12007KT CAVOK"
    },
    {
      "icao": "LFPO",
      "alert": "OK",
      "vis_m": 9999,
      "fzfg": false,
      "metar_trigger": false,
      "taf_trigger": false,
      "metar": "METAR LFPO 041430Z AUTO 09012KT CAVOK 18/03 Q1022 NOSIG",
      "taf": "TAF LFPO 041100Z 0412/0518 11010KT CAVOK"
    },
    {
      "icao": "LFSB",
      "alert": "OK",
      "vis_m": 9999,
      "fzfg": false,
      "metar_trigger": false,
      "taf_trigger": false,
      "metar": "METAR LFSB 041430Z AUTO 03003KT 320V100 CAVOK 16/05 Q1024 NOSIG",
      "taf": "TAF LFSB 041100Z 0412/0512 07005KT CAVOK"
    },
    {
      "icao": "LGAV",
      "alert": "OK",
      "vis_m": 9999,
      "fzfg": false,
      "metar_trigger": false,
      "taf_trigger": false,
      "metar": "METAR LGAV 041450Z 05011KT 9999 FEW025 15/07 Q1027 NOSIG",
      "taf": "TAF LGAV 041100Z 0412/0512 04015KT 9999 FEW020"
    },
    {
      "icao": "LGTS",
      "alert": "OK",
      "vis_m": 9999,
      "fzfg": false,
      "metar_trigger": false,
      "taf_trigger": false,
      "metar": "METAR LGTS 041420Z 18008KT 9999 FEW020 16/05 Q1028 NOSIG",
      "taf": "TAF LGTS 041100Z 0412/0512 VRB03KT 9999 SCT030"
    },
    {
      "icao": "LHBP",
      "alert": "OK",
      "vis_m": 9999,
      "fzfg": false,
      "metar_trigger": false,
      "taf_trigger": false,
      "metar": "METAR LHBP 041430Z 23004KT 170V260 CAVOK 15/03 Q1025 NOSIG",
      "taf": "TAF LHBP 041115Z 0412/0512 21005KT CAVOK"
    },
    {
      "icao": "LHDC",
      "alert": "OK",
      "vis_m": 9999,
      "fzfg": false,
      "metar_trigger": false,
      "taf_trigger": false,
      "metar": "METAR LHDC 041415Z AUTO VRB03KT CAVOK 15/05 Q1026 NOSIG",
      "taf": "TAF LHDC 041415Z 0415/0424 VRB03KT CAVOK"
    },
    {
      "icao": "LIBD",
      "alert": "OK",
      "vis_m": 8000,
      "fzfg": false,
      "metar_trigger": false,
      "taf_trigger": false,
      "metar": "METAR LIBD 041420Z 07009KT 8000 FEW009 14/12 Q1026",
      "taf": "TAF LIBD 041100Z 0412/0512 VRB05KT 3000 BR SCT015"
    },
    {
      "icao": "LIBG",
      "alert": "OK",
      "vis_m": 9999,
      "fzfg": false,
      "metar_trigger": false,
      "taf_trigger": false,
      "metar": "METAR LIBG 041350Z 12007KT 070V150 9999 FEW035 19/11 Q1026",
      "taf": "TAF LIBG 041400Z 0415/0424 VRB06KT 9999 FEW020"
    },
    {
      "icao": "LIBP",
      "alert": "OK",
      "vis_m": 9999,
      "fzfg": false,
      "metar_trigger": false,
      "taf_trigger": false,
      "metar": "METAR LIBP 041420Z AUTO 06004KT 9999 BKN009/// 13/11 Q1027",
      "taf": "TAF LIBP 041100Z 0412/0512 VRB05KT 6000 BKN025"
    },
    {
      "icao": "LIBR",
      "alert": "OK",
      "vis_m": 9999,
      "fzfg": false,
      "metar_trigger": false,
      "taf_trigger": false,
      "metar": "METAR LIBR 041420Z 03005KT 9999 FEW015 15/12 Q1026",
      "taf": "TAF LIBR 041100Z 0412/0512 VRB05KT 8000 SCT020"
    },
    {
      "icao": "LICA",
      "alert": "OK",
      "vis_m": 9999,
      "fzfg": false,
      "metar_trigger": false,
      "taf_trigger": false,
      "metar": "METAR LICA 041420Z AUTO 08015KT 9999 NCD 17/12 Q1025",
      "taf": "TAF LICA 041100Z 0412/0512 07016KT CAVOK"
    },
    {
      "icao": "LICC",
      "alert": "OK",
      "vis_m": 9999,
      "fzfg": false,
      "metar_trigger": false,
      "taf_trigger": false,
      "metar": "METAR LICC 041420Z 10010KT 9999 FEW020 17/14 Q1026",
      "taf": "TAF LICC 041100Z 0412/0512 08012KT 9999 SCT040"
    },
    {
      "icao": "LICJ",
      "alert": "OK",
      "vis_m": 9999,
      "fzfg": false,
      "metar_trigger": false,
      "taf_trigger": false,
      "metar": "METAR LICJ 041420Z 06014KT CAVOK 17/11 Q1023",
      "taf": "TAF LICJ 041100Z 0412/0512 04012KT 9999 SCT030"
    },
    {
      "icao": "LIMC",
      "alert": "OK",
      "vis_m": 9999,
      "fzfg": false,
      "metar_trigger": false,
      "taf_trigger": false,
      "metar": "METAR LIMC 041420Z 22004KT 150V260 CAVOK 15/07 Q1026 NOSIG",
      "taf": "TAF LIMC 041100Z 0412/0518 VRB05KT 8000 SCT030"
    },
    {
      "icao": "LIME",
      "alert": "OK",
      "vis_m": 7000,
      "fzfg": false,
      "metar_trigger": false,
      "taf_trigger": false,
      "metar": "METAR LIME 041420Z 23005KT 190V280 7000 FEW007 SCT030 14/07 Q1026 NOSIG",
      "taf": "TAF LIME 041100Z 0412/0512 VRB05KT 8000 SCT040"
    },
    {
      "icao": "LIMF",
      "alert": "OK",
      "vis_m": 6000,
      "fzfg": false,
      "metar_trigger": false,
      "taf_trigger": false,
      "metar": "METAR LIMF 041420Z 11005KT 070V180 6000 SCT060 15/05 Q1025",
      "taf": "TAF LIMF 041100Z 0412/0512 VRB04KT 7000 BKN030"
    },
    {
      "icao": "LIMJ",
      "alert": "OK",
      "vis_m": 9999,
      "fzfg": false,
      "metar_trigger": false,
      "taf_trigger": false,
      "metar": "METAR LIMJ 041420Z 15005KT 9999 FEW040 16/09 Q1025",
      "taf": "TAF LIMJ 041100Z 0412/0512 03012KT 9999 FEW040"
    },
    {
      "icao": "LIPE",
      "alert": "OK",
      "vis_m": 7000,
      "fzfg": false,
      "metar_trigger": false,
      "taf_trigger": false,
      "metar": "METAR LIPE 041420Z VRB01KT 7000 SCT017 13/08 Q1027",
      "taf": "TAF LIPE 041100Z 0412/0512 VRB04KT 6000 SCT015"
    },
    {
      "icao": "LIPH",
      "alert": "OK",
      "vis_m": 6000,
      "fzfg": false,
      "metar_trigger": false,
      "taf_trigger": false,
      "metar": "METAR LIPH 041420Z 21005KT 6000 BKN010 12/09 Q1027",
      "taf": "TAF LIPH 041100Z 0412/0512 VRB04KT 2000 BR SCT015"
    },
    {
      "icao": "LIPQ",
      "alert": "OK",
      "vis_m": 9999,
      "fzfg": false,
      "metar_trigger": false,
      "taf_trigger": false,
      "metar": "METAR LIPQ 041420Z AUTO 18003KT 130V210 9999 FEW011/// 12/09 Q1026",
      "taf": "TAF LIPQ 041100Z 0412/0512 VRB05KT 6000 NSC"
    },
    {
      "icao": "LIPR",
      "alert": "OK",
      "vis_m": 6000,
      "fzfg": false,
      "metar_trigger": false,
      "taf_trigger": false,
      "metar": "METAR LIPR 041420Z 04003KT 360V120 6000 SCT015 BKN020 11/09 Q1027",
      "taf": "TAF LIPR 041100Z 0412/0512 VRB05KT 6000 BKN015"
    },
    {
      "icao": "LIPX",
      "alert": "OK",
      "vis_m": 5000,
      "fzfg": false,
      "metar_trigger": false,
      "taf_trigger": false,
      "metar": "METAR LIPX 041420Z 16003KT 120V230 5000 BR SCT015 13/09 Q1026",
      "taf": ""
    },
    {
      "icao": "LIPY",
      "alert": "OK",
      "vis_m": 9000,
      "fzfg": false,
      "metar_trigger": false,
      "taf_trigger": false,
      "metar": "METAR LIPY 041420Z AUTO 04004KT 9000 OVC012/// 12/10 Q1027",
      "taf": "TAF LIPY 041100Z 0412/0512 VRB05KT 7000 SCT015"
    },
    {
      "icao": "LIPZ",
      "alert": "OK",
      "vis_m": 9999,
      "fzfg": false,
      "metar_trigger": false,
      "taf_trigger": false,
      "metar": "METAR LIPZ 041420Z 18004KT 9999 BKN018 11/08 Q1027 NOSIG",
      "taf": "TAF LIPZ 041100Z 0412/0518 VRB04KT 6000 SCT015"
    },
    {
      "icao": "LIRF",
      "alert": "OK",
      "vis_m": 9000,
      "fzfg": false,
      "metar_trigger": false,
      "taf_trigger": false,
      "metar": "METAR LIRF 041420Z VRB02KT 9000 NSC 16/11 Q1025 NOSIG",
      "taf": "TAF LIRF 041100Z 0412/0518 13013KT 8000 SCT040"
    },
    {
      "icao": "LIRN",
      "alert": "OK",
      "vis_m": 7000,
      "fzfg": false,
      "metar_trigger": false,
      "taf_trigger": false,
      "metar": "METAR LIRN 041420Z 18004KT 130V210 7000 NSC 17/10 Q1025 NOSIG",
      "taf": "TAF LIRN 041100Z 0412/0512 VRB05KT 7000 FEW040"
    },
    {
      "icao": "LIRP",
      "alert": "OK",
      "vis_m": 9999,
      "fzfg": false,
      "metar_trigger": false,
      "taf_trigger": false,
      "metar": "METAR LIRP 041415Z 14003KT CAVOK 17/09 Q1025 NOSIG",
      "taf": "TAF LIRP 041100Z 0412/0512 VRB04KT 9999 SCT040"
    },
    {
      "icao": "LIRZ",
      "alert": "OK",
      "vis_m": 9999,
      "fzfg": false,
      "metar_trigger": false,
      "taf_trigger": false,
      "metar": "METAR LIRZ 041420Z AUTO VRB01KT 9999 BKN069/// 14/09 Q1025",
      "taf": "TAF LIRZ 041100Z 0412/0512 VRB05KT 9999 SCT040"
    },
    {
      "icao": "LJLJ",
      "alert": "OK",
      "vis_m": 9999,
      "fzfg": false,
      "metar_trigger": false,
      "taf_trigger": false,
      "metar": "METAR LJLJ 041430Z 24007KT 200V280 9999 FEW050 16/02 Q1024 NOSIG",
      "taf": "TAF LJLJ 041100Z 0412/0512 VRB02KT 9999 FEW055"
    },
    {
      "icao": "LKMT",
      "alert": "OK",
      "vis_m": 9999,
      "fzfg": false,
      "metar_trigger": false,
      "taf_trigger": false,
      "metar": "METAR LKMT 041430Z 24006KT 9999 SCT047 14/06 Q1025 NOSIG",
      "taf": "TAF LKMT 041100Z 0412/0512 23008KT CAVOK"
    },
    {
      "icao": "LKPR",
      "alert": "OK",
      "vis_m": 9999,
      "fzfg": false,
      "metar_trigger": false,
      "taf_trigger": false,
      "metar": "METAR LKPR 041430Z 34003KT 290V040 CAVOK 12/M01 Q1026 NOSIG",
      "taf": "TAF LKPR 041400Z 0415/0521 VRB02KT CAVOK"
    },
    {
      "icao": "LLBG",
      "alert": "OK",
      "vis_m": 9999,
      "fzfg": false,
      "metar_trigger": false,
      "taf_trigger": false,
      "metar": "METAR LLBG 041450Z 29011KT 9999 FEW040 17/07 Q1021 NOSIG",
      "taf": "TAF LLBG 041101Z 0412/0512 29010KT 9999 FEW035 TX19/0412Z TN09/0503Z"
    },
    {
      "icao": "LMML",
      "alert": "OK",
      "vis_m": 9999,
      "fzfg": false,
      "metar_trigger": false,
      "taf_trigger": false,
      "metar": "METAR LMML 041445Z 11016KT 9999 FEW014 17/13 Q1025 NOSIG",
      "taf": "TAF LMML 041100Z 0412/0512 12012KT 9999 FEW015"
    },
    {
      "icao": "LOWW",
      "alert": "OK",
      "vis_m": 9999,
      "fzfg": false,
      "metar_trigger": false,
      "taf_trigger": false,
      "metar": "METAR LOWW 041420Z 04005KT 350V070 CAVOK 13/05 Q1026 NOSIG",
      "taf": "TAF LOWW 041415Z 0415/0521 03004KT CAVOK TX14/0514Z TN03/0505Z"
    },
    {
      "icao": "LPFR",
      "alert": "OK",
      "vis_m": 9999,
      "fzfg": false,
      "metar_trigger": false,
      "taf_trigger": false,
      "metar": "METAR LPFR 041430Z 11005KT 070V140 9999 FEW020 16/10 Q1012",
      "taf": "TAF LPFR 041100Z 0412/0512 09005KT 9999 SCT020"
    },
    {
      "icao": "LPMA",
      "alert": "OK",
      "vis_m": 9999,
      "fzfg": false,
      "metar_trigger": false,
      "taf_trigger": false,
      "metar": "METAR LPMA 041430Z 01014G24KT 320V050 9999 VCSH BKN015 FEW016CB 17/11 Q1020",
      "taf": "TAF LPMA 041100Z 0412/0512 36015KT 9999 SCT015"
    },
    {
      "icao": "LPPR",
      "alert": "OK",
      "vis_m": 9999,
      "fzfg": false,
      "metar_trigger": false,
      "taf_trigger": false,
      "metar": "METAR LPPR 041430Z 32010KT CAVOK 16/12 Q1014",
      "taf": "TAF LPPR 041100Z 0412/0512 32007KT CAVOK"
    },
    {
      "icao": "LPPS",
      "alert": "OK",
      "vis_m": 9999,
      "fzfg": false,
      "metar_trigger": false,
      "taf_trigger": false,
      "metar": "METAR LPPS 041430Z 36019KT 9999 SCT014 17/12 Q1020",
      "taf": "TAF LPPS 041100Z 0412/0518 36018KT 9999 SCT015"
    },
    {
      "icao": "LPPT",
      "alert": "OK",
      "vis_m": 9999,
      "fzfg": false,
      "metar_trigger": false,
      "taf_trigger": false,
      "metar": "METAR LPPT 041430Z 07010KT 030V090 9999 FEW035 18/10 Q1013",
      "taf": "TAF LPPT 041100Z 0412/0518 04013KT CAVOK"
    },
    {
      "icao": "LQBK",
      "alert": "OK",
      "vis_m": 9999,
      "fzfg": false,
      "metar_trigger": false,
      "taf_trigger": false,
      "metar": "METAR LQBK 041430Z VRB02KT CAVOK 16/03 Q1025 NOSIG",
      "taf": "TAF LQBK 041100Z 0412/0512 34004KT CAVOK TX17/0414Z TN04/0506Z"
    },
    {
      "icao": "LQSA",
      "alert": "OK",
      "vis_m": 9999,
      "fzfg": false,
      "metar_trigger": false,
      "taf_trigger": false,
      "metar": "METAR LQSA 041430Z 00000KT 9999 SCT055 13/03 Q1025 NOSIG",
      "taf": "TAF LQSA 041100Z 0412/0512 30006KT CAVOK TX15/0414Z TN04/0505Z"
    },
    {
      "icao": "LQTZ",
      "alert": "OK",
      "vis_m": 9999,
      "fzfg": false,
      "metar_trigger": false,
      "taf_trigger": false,
      "metar": "METAR LQTZ 041430Z 27004KT 230V310 CAVOK 16/04 Q1025",
      "taf": ""
    },
    {
      "icao": "LRBC",
      "alert": "OK",
      "vis_m": 9999,
      "fzfg": false,
      "metar_trigger": false,
      "taf_trigger": false,
      "metar": "METAR LRBC 041430Z 17008KT CAVOK 14/02 Q1024",
      "taf": "TAF LRBC 041400Z 0415/0424 VRB04KT CAVOK"
    },
    {
      "icao": "LRBS",
      "alert": "OK",
      "vis_m": 9999,
      "fzfg": false,
      "metar_trigger": false,
      "taf_trigger": false,
      "metar": "METAR LRBS 041430Z 27007KT CAVOK 14/04 Q1026 NOSIG",
      "taf": "TAF LRBS 041100Z 0412/0512 VRB04KT CAVOK"
    },
    {
      "icao": "LRBV",
      "alert": "OK",
      "vis_m": 9999,
      "fzfg": false,
      "metar_trigger": false,
      "taf_trigger": false,
      "metar": "METAR LRBV 041430Z 28005KT CAVOK 12/02 Q1025",
      "taf": "TAF LRBV 041400Z 0415/0424 29010KT CAVOK"
    },
    {
      "icao": "LRCL",
      "alert": "OK",
      "vis_m": 9999,
      "fzfg": false,
      "metar_trigger": false,
      "taf_trigger": false,
      "metar": "METAR LRCL 041430Z 06004KT 030V090 CAVOK 14/M01 Q1025",
      "taf": "TAF LRCL 041400Z 0415/0424 VRB04KT CAVOK"
    },
    {
      "icao": "LRCV",
      "alert": "OK",
      "vis_m": 9999,
      "fzfg": false,
      "metar_trigger": false,
      "taf_trigger": false,
      "metar": "METAR LRCV 041430Z 18004KT 150V230 CAVOK 13/04 Q1026",
      "taf": "TAF LRCV 041400Z 0415/0424 VRB04KT CAVOK"
    },
    {
      "icao": "LRIA",
      "alert": "OK",
      "vis_m": 9999,
      "fzfg": false,
      "metar_trigger": false,
      "taf_trigger": false,
      "metar": "METAR LRIA 041430Z VRB03KT CAVOK 15/01 Q1024",
      "taf": "TAF LRIA 041400Z 0415/0424 VRB04KT CAVOK"
    },
    {
      "icao": "LROP",
      "alert": "OK",
      "vis_m": 9999,
      "fzfg": false,
      "metar_trigger": false,
      "taf_trigger": false,
      "metar": "METAR LROP 041430Z 23007KT CAVOK 14/02 Q1026 NOSIG",
      "taf": "TAF LROP 041100Z 0412/0512 VRB04KT CAVOK"
    },
    {
      "icao": "LRSB",
      "alert": "OK",
      "vis_m": 9999,
      "fzfg": false,
      "metar_trigger": false,
      "taf_trigger": false,
      "metar": "METAR LRSB 041430Z 36004KT 330V030 CAVOK 15/00 Q1025",
      "taf": "TAF LRSB 041100Z 0412/0512 VRB04KT CAVOK"
    },
    {
      "icao": "LRSM",
      "alert": "OK",
      "vis_m": 9999,
      "fzfg": false,
      "metar_trigger": false,
      "taf_trigger": false,
      "metar": "METAR LRSM 041430Z 23003KT 180V280 CAVOK 16/03 Q1025",
      "taf": "TAF LRSM 041400Z 0415/0424 VRB04KT CAVOK"
    },
    {
      "icao": "LRSV",
      "alert": "OK",
      "vis_m": 9999,
      "fzfg": false,
      "metar_trigger": false,
      "taf_trigger": false,
      "metar": "METAR LRSV 041430Z 06006KT CAVOK 13/02 Q1023",
      "taf": "TAF LRSV 041400Z 0415/0424 VRB04KT CAVOK"
    },
    {
      "icao": "LRTM",
      "alert": "OK",
      "vis_m": 9999,
      "fzfg": false,
      "metar_trigger": false,
      "taf_trigger": false,
      "metar": "METAR LRTM 041430Z 02003KT 310V110 CAVOK 15/01 Q1025",
      "taf": "TAF LRTM 041400Z 0415/0424 VRB04KT CAVOK"
    },
    {
      "icao": "LRTR",
      "alert": "OK",
      "vis_m": 9999,
      "fzfg": false,
      "metar_trigger": false,
      "taf_trigger": false,
      "metar": "METAR LRTR 041430Z 28003KT 250V310 CAVOK 15/01 Q1026",
      "taf": "TAF LRTR 041100Z 0412/0512 VRB04KT CAVOK"
    },
    {
      "icao": "LTAC",
      "alert": "OK",
      "vis_m": 9999,
      "fzfg": false,
      "metar_trigger": false,
      "taf_trigger": false,
      "metar": "METAR LTAC 041420Z 08012KT CAVOK 09/M09 Q1024 NOSIG RMK RWY21C 06014KT RWY03L 08012KT 050V110 RWY21R 05014KT RWY03R 06011KT RWY21L 07012KT",
      "taf": "TAF LTAC 041040Z 0412/0512 35012KT 9999 SCT040"
    },
    {
      "icao": "LTFM",
      "alert": "OK",
      "vis_m": 9999,
      "fzfg": false,
      "metar_trigger": false,
      "taf_trigger": false,
      "metar": "METAR LTFM 041420Z 07008KT CAVOK 10/03 Q1028 NOSIG RMK RWY17L 08008KT RWY34L 06008KT 030V090 RWY16R 08008KT RWY36 07010KT RWY18 08008KT",
      "taf": "TAF LTFM 041040Z 0412/0518 03008KT CAVOK"
    },
    {
      "icao": "LUKK",
      "alert": "OK",
      "vis_m": 9999,
      "fzfg": false,
      "metar_trigger": false,
      "taf_trigger": false,
      "metar": "METAR LUKK 041430Z 29010KT 260V320 CAVOK 13/03 Q1024 NOSIG",
      "taf": "TAF LUKK 041116Z 0412/0512 26009KT CAVOK"
    },
    {
      "icao": "LWOH",
      "alert": "OK",
      "vis_m": 9999,
      "fzfg": false,
      "metar_trigger": false,
      "taf_trigger": false,
      "metar": "METAR LWOH 041450Z 15005KT 9999 FEW040 12/06 Q1025",
      "taf": "TAF LWOH 041140Z 0412/0512 18005KT 9999 FEW040 SCT090"
    },
    {
      "icao": "LWSK",
      "alert": "OK",
      "vis_m": 9999,
      "fzfg": false,
      "metar_trigger": false,
      "taf_trigger": false,
      "metar": "METAR LWSK 041450Z 16003KT 130V200 CAVOK 16/06 Q1025 NOSIG",
      "taf": "TAF LWSK 041140Z 0412/0512 VRB02KT CAVOK"
    },
    {
      "icao": "LYBE",
      "alert": "OK",
      "vis_m": 9999,
      "fzfg": false,
      "metar_trigger": false,
      "taf_trigger": false,
      "metar": "METAR LYBE 041430Z 03006KT CAVOK 15/05 Q1026 NOSIG",
      "taf": "TAF LYBE 041100Z 0412/0512 06005KT CAVOK TX17/0413Z TN07/0506Z"
    },
    {
      "icao": "LYNI",
      "alert": "OK",
      "vis_m": 9999,
      "fzfg": false,
      "metar_trigger": false,
      "taf_trigger": false,
      "metar": "METAR LYNI 041430Z VRB01KT CAVOK 17/05 Q1025 NOSIG",
      "taf": "TAF LYNI 041100Z 0412/0512 17004KT 9999 SCT050 TX18/0414Z TN07/0506Z"
    },
    {
      "icao": "LYPG",
      "alert": "OK",
      "vis_m": 9999,
      "fzfg": false,
      "metar_trigger": false,
      "taf_trigger": false,
      "metar": "METAR LYPG 041430Z VRB02KT CAVOK 16/08 Q1026 NOSIG",
      "taf": "TAF LYPG 041100Z 0412/0512 18006KT 9999 SCT090 TX18/0512Z TN08/0506Z"
    },
    {
      "icao": "LZIB",
      "alert": "OK",
      "vis_m": 9999,
      "fzfg": false,
      "metar_trigger": false,
      "taf_trigger": false,
      "metar": "METAR LZIB 041430Z VRB03KT CAVOK 14/05 Q1025 NOSIG",
      "taf": "TAF LZIB 041115Z 0412/0512 10005KT CAVOK"
    },
    {
      "icao": "LZKZ",
      "alert": "OK",
      "vis_m": 9999,
      "fzfg": false,
      "metar_trigger": false,
      "taf_trigger": false,
      "metar": "METAR LZKZ 041430Z 23008KT 190V250 CAVOK 16/02 Q1024 NOSIG",
      "taf": "TAF LZKZ 041115Z 0412/0512 VRB02KT CAVOK"
    },
    {
      "icao": "LZTT",
      "alert": "OK",
      "vis_m": 9999,
      "fzfg": false,
      "metar_trigger": false,
      "taf_trigger": false,
      "metar": "METAR LZTT 041430Z 26011KT 9999 SCT053 10/M00 Q1024 NOSIG",
      "taf": "TAF LZTT 041115Z 0412/0512 08007KT 9999 FEW048"
    },
    {
      "icao": "OEJN",
      "alert": "OK",
      "vis_m": 6000,
      "fzfg": false,
      "metar_trigger": false,
      "taf_trigger": false,
      "metar": "METAR OEJN 041400Z 32020G30KT 6000 NSC 29/04 Q1012 NOSIG",
      "taf": ""
    },
    {
      "icao": "OEMA",
      "alert": "OK",
      "vis_m": 9999,
      "fzfg": false,
      "metar_trigger": false,
      "taf_trigger": false,
      "metar": "METAR OEMA 041400Z VRB02KT CAVOK 24/M11 Q1019 NOSIG",
      "taf": "TAF OEMA 041100Z 0412/0518 09010KT CAVOK"
    },
    {
      "icao": "OJAI",
      "alert": "OK",
      "vis_m": 5000,
      "fzfg": false,
      "metar_trigger": false,
      "taf_trigger": false,
      "metar": "METAR OJAI 041400Z 30012KT 5000 HZ SCT030 13/05 Q1022 NOSIG",
      "taf": "TAF OJAI 041044Z 0412/0518 29010KT 5000 HZ NSC"
    },
    {
      "icao": "OMAA",
      "alert": "OK",
      "vis_m": null,
      "fzfg": false,
      "metar_trigger": false,
      "taf_trigger": false,
      "metar": "",
      "taf": "TAF OMAA 040500Z 0406/0512 VRB02KT 8000 NSC"
    },
    {
      "icao": "OMDB",
      "alert": "OK",
      "vis_m": null,
      "fzfg": false,
      "metar_trigger": false,
      "taf_trigger": false,
      "metar": "",
      "taf": "TAF OMDB 041100Z 0412/0518 30013KT 8000 NSC"
    },
    {
      "icao": "UAAA",
      "alert": "OK",
      "vis_m": 9999,
      "fzfg": false,
      "metar_trigger": false,
      "taf_trigger": false,
      "metar": "METAR UAAA 041430Z 19002MPS 9999 -SHRA BKN020CB OVC100 05/03 Q1025 NOSIG",
      "taf": "TAF UAAA 041107Z 0412/0512 17003MPS 3100 -SHRA BR BKN015CB OVC030 TX05/0511Z TNM02/0501Z"
    },
    {
      "icao": "UBBB",
      "alert": "OK",
      "vis_m": 9999,
      "fzfg": false,
      "metar_trigger": false,
      "taf_trigger": false,
      "metar": "METAR UBBB 041430Z 34016KT 9999 FEW014 SCT026 07/04 Q1021 NOSIG",
      "taf": "TAF UBBB 041052Z 0412/0512 32014KT 9999 SCT012 BKN020 TX09/0412Z TN04/0501Z"
    },
    {
      "icao": "UDSG",
      "alert": "OK",
      "vis_m": 9999,
      "fzfg": false,
      "metar_trigger": false,
      "taf_trigger": false,
      "metar": "METAR UDSG 041430Z 31003KT 9999 OVC026 M01/M05 Q1019 NOSIG",
      "taf": ""
    },
    {
      "icao": "UDYZ",
      "alert": "OK",
      "vis_m": 9999,
      "fzfg": false,
      "metar_trigger": false,
      "taf_trigger": false,
      "metar": "METAR UDYZ 041430Z 23013KT 9999 BKN046 06/M02 Q1018 NOSIG",
      "taf": "TAF UDYZ 041100Z 0412/0512 VRB06KT 9999 SCT040"
    },
    {
      "icao": "UGKO",
      "alert": "OK",
      "vis_m": 9999,
      "fzfg": false,
      "metar_trigger": false,
      "taf_trigger": false,
      "metar": "METAR UGKO 041430Z 25014KT 9999 -RA SCT025 BKN035 06/04 Q1024 NOSIG",
      "taf": "TAF UGKO 041100Z 0412/0512 25007KT 9999 SCT030 OVC050 TX10/0511Z TN01/0503Z"
    }
  ]
}