{
  "ts_utc": "2026-01-30T23:49:43Z",
  "threshold_m": 150,
  "source": "stations_override.txt (ICAO list) + aviationweather.gov (METAR/TAF raw)",
  "station_count": 159,
  "stations": [
    {
      "icao": "BIKF",
      "alert": "OK",
      "vis_m": 9999,
      "fzfg": false,
      "metar_trigger": false,
      "taf_trigger": false,
      "metar": "METAR BIKF 302330Z 04005KT CAVOK 01/00 Q1001",
      "taf": "TAF BIKF 302238Z 3100/0100 06008KT 9999 SCT040 TX03/3115Z TNM01/3103Z"
    },
    {
      "icao": "BKPR",
      "alert": "OK",
      "vis_m": 1400,
      "fzfg": false,
      "metar_trigger": false,
      "taf_trigger": false,
      "metar": "METAR BKPR 302330Z VRB01KT 1400 0600SE R17/P2000N R35/P2000N BCFG SCT006 BKN050 03/03 Q1002 TEMPO 0300 FG",
      "taf": "TAF BKPR 302330Z 3100/3124 VRB03KT 3000 BR SCT008 SCT030"
    },
    {
      "icao": "EBCI",
      "alert": "OK",
      "vis_m": 9999,
      "fzfg": false,
      "metar_trigger": false,
      "taf_trigger": false,
      "metar": "METAR EBCI 302320Z 17008KT 9999 BKN035 07/05 Q0994 NOSIG",
      "taf": "TAF EBCI 302307Z 3100/0106 19006KT 9999 SCT008 BKN020"
    },
    {
      "icao": "EDDB",
      "alert": "OK",
      "vis_m": 5000,
      "fzfg": false,
      "metar_trigger": false,
      "taf_trigger": false,
      "metar": "METAR EDDB 302320Z AUTO 09010KT 5000 -SN BR SCT010 SCT029 BKN043 M03/M04 Q1007 TEMPO 4000 -SN BKN009",
      "taf": ""
    },
    {
      "icao": "EDDH",
      "alert": "OK",
      "vis_m": 9000,
      "fzfg": false,
      "metar_trigger": false,
      "taf_trigger": false,
      "metar": "METAR EDDH 302320Z AUTO 11012KT 9000 OVC009 M01/M03 Q1005 NOSIG",
      "taf": "TAF EDDH 302300Z 3100/0106 11010KT 8000 BKN008"
    },
    {
      "icao": "EDDK",
      "alert": "OK",
      "vis_m": 9999,
      "fzfg": false,
      "metar_trigger": false,
      "taf_trigger": false,
      "metar": "METAR EDDK 302320Z AUTO 11011G21KT 9999 FEW016 03/01 Q0998 NOSIG",
      "taf": "TAF EDDK 302300Z 3100/0106 12009KT 9999 FEW012 BKN035"
    },
    {
      "icao": "EDDN",
      "alert": "OK",
      "vis_m": 9999,
      "fzfg": false,
      "metar_trigger": false,
      "taf_trigger": false,
      "metar": "METAR EDDN 302320Z AUTO 10005KT 9999 OVC020 01/M01 Q1001",
      "taf": "TAF EDDN 302300Z 3100/3124 11006KT 9999 OVC020"
    },
    {
      "icao": "EDDS",
      "alert": "OK",
      "vis_m": 4000,
      "fzfg": false,
      "metar_trigger": false,
      "taf_trigger": false,
      "metar": "METAR EDDS 302320Z AUTO 00000KT 4000 1700 BR OVC035 02/02 Q0999 TEMPO 1200",
      "taf": "TAF EDDS 302300Z 3100/3124 VRB03KT 9999 BKN030"
    },
    {
      "icao": "EDFH",
      "alert": "OK",
      "vis_m": 400,
      "fzfg": false,
      "metar_trigger": false,
      "taf_trigger": false,
      "metar": "METAR EDFH 302320Z 14013KT 0400 R21/0350N FG VV/// 01/01 Q0997",
      "taf": "TAF EDFH 302300Z 3100/3124 14011KT 1200 BR OVC002"
    },
    {
      "icao": "EDJA",
      "alert": "OK",
      "vis_m": 6000,
      "fzfg": false,
      "metar_trigger": false,
      "taf_trigger": false,
      "metar": "METAR EDJA 302320Z AUTO 28001KT 6000 // FEW140/// 01/00 Q0999",
      "taf": "TAF EDJA 301700Z 3018/3103 17004KT 9999 BKN020"
    },
    {
      "icao": "EDLW",
      "alert": "OK",
      "vis_m": 9999,
      "fzfg": false,
      "metar_trigger": false,
      "taf_trigger": false,
      "metar": "METAR EDLW 302320Z AUTO 12005KT 080V160 9999 // BKN044/// 03/00 Q0998",
      "taf": "TAF EDLW 301700Z 3018/3118 11007KT CAVOK"
    },
    {
      "icao": "EDNY",
      "alert": "OK",
      "vis_m": 2300,
      "fzfg": false,
      "metar_trigger": false,
      "taf_trigger": false,
      "metar": "METAR EDNY 302320Z AUTO 05003KT 020V080 2300 0750 R24/1500D // FEW003/// M01/M01 Q1000",
      "taf": "TAF EDNY 301700Z 3018/3103 VRB02KT 6000 SCT008 BKN015"
    },
    {
      "icao": "EDSB",
      "alert": "OK",
      "vis_m": 3200,
      "fzfg": false,
      "metar_trigger": false,
      "taf_trigger": false,
      "metar": "METAR EDSB 302320Z AUTO 04003KT 010V080 3200 FEW017/// BKN045/// OVC057/// 02/02 Q1000",
      "taf": "TAF EDSB 302300Z 3100/3124 VRB03KT 6000 FEW002 BKN020"
    },
    {
      "icao": "EETN",
      "alert": "OK",
      "vis_m": 9999,
      "fzfg": false,
      "metar_trigger": false,
      "taf_trigger": false,
      "metar": "METAR EETN 302320Z 00000KT 9999 -SN OVC017 M17/M18 Q1029",
      "taf": "TAF EETN 302330Z 3100/3124 10006KT 9999 BKN015"
    },
    {
      "icao": "EFTU",
      "alert": "OK",
      "vis_m": 9999,
      "fzfg": false,
      "metar_trigger": false,
      "taf_trigger": false,
      "metar": "METAR EFTU 302320Z AUTO 09004KT CAVOK M17/M19 Q1029",
      "taf": "TAF EFTU 302331Z 3100/3124 08004KT CAVOK"
    },
    {
      "icao": "EGBB",
      "alert": "OK",
      "vis_m": 9999,
      "fzfg": false,
      "metar_trigger": false,
      "taf_trigger": false,
      "metar": "METAR EGBB 302320Z 14012KT 9999 -RA BKN010 06/05 Q0984 RERA REDZ",
      "taf": "TAF EGBB 302254Z 3100/3124 16012KT 9999 SCT025"
    },
    {
      "icao": "EGGP",
      "alert": "OK",
      "vis_m": 9999,
      "fzfg": false,
      "metar_trigger": false,
      "taf_trigger": false,
      "metar": "METAR EGGP 302320Z 09013KT 9999 BKN015 07/05 Q0983",
      "taf": "TAF EGGP 302255Z 3100/3124 10009KT 9999 SCT016"
    },
    {
      "icao": "EGGW",
      "alert": "OK",
      "vis_m": 9999,
      "fzfg": false,
      "metar_trigger": false,
      "taf_trigger": false,
      "metar": "METAR EGGW 302320Z AUTO 17008KT 9999 NCD 06/05 Q0987",
      "taf": "TAF EGGW 302256Z 3100/3124 17008KT 9999 SCT025"
    },
    {
      "icao": "EGKK",
      "alert": "OK",
      "vis_m": 9999,
      "fzfg": false,
      "metar_trigger": false,
      "taf_trigger": false,
      "metar": "METAR EGKK 302320Z 19008KT 9999 BKN039 08/07 Q0988",
      "taf": "TAF EGKK 302255Z 3100/0106 18008KT 9999 SCT030"
    },
    {
      "icao": "EGNM",
      "alert": "OK",
      "vis_m": 3500,
      "fzfg": false,
      "metar_trigger": false,
      "taf_trigger": false,
      "metar": "METAR EGNM 302220Z 09014KT 3500 -RA OVC005 05/05 Q0986",
      "taf": ""
    },
    {
      "icao": "EGPD",
      "alert": "OK",
      "vis_m": 4700,
      "fzfg": false,
      "metar_trigger": false,
      "taf_trigger": false,
      "metar": "METAR EGPD 302320Z AUTO 12013KT 4700 RA BKN007/// BKN011/// OVC015/// //////TCU 04/03 Q0996 TEMPO +RA",
      "taf": "TAF EGPD 302255Z 3100/3124 12015G25KT 9999 BKN016"
    },
    {
      "icao": "EGPF",
      "alert": "OK",
      "vis_m": 9999,
      "fzfg": false,
      "metar_trigger": false,
      "taf_trigger": false,
      "metar": "METAR EGPF 302320Z AUTO 05014KT 9999 BKN020 OVC026 05/04 Q0991",
      "taf": "TAF EGPF 302255Z 3100/3124 08012KT 9999 BKN018"
    },
    {
      "icao": "EHBK",
      "alert": "OK",
      "vis_m": 9999,
      "fzfg": false,
      "metar_trigger": false,
      "taf_trigger": false,
      "metar": "METAR EHBK 302325Z AUTO 12008KT 9999 FEW047 05/03 Q0996",
      "taf": "TAF EHBK 302318Z 3100/0106 15007KT CAVOK"
    },
    {
      "icao": "EHEH",
      "alert": "OK",
      "vis_m": null,
      "fzfg": false,
      "metar_trigger": false,
      "taf_trigger": false,
      "metar": "",
      "taf": "TAF EHEH 301800Z 3019/0101 12007KT 9999 SCT016 BKN040"
    },
    {
      "icao": "EKBI",
      "alert": "OK",
      "vis_m": 9999,
      "fzfg": false,
      "metar_trigger": false,
      "taf_trigger": false,
      "metar": "METAR EKBI 302320Z AUTO 10016KT 9999 OVC016/// 00/M03 Q1007",
      "taf": "TAF EKBI 302328Z 3100/3124 11018KT 9999 BKN015"
    },
    {
      "icao": "EKCH",
      "alert": "OK",
      "vis_m": 9999,
      "fzfg": false,
      "metar_trigger": false,
      "taf_trigger": false,
      "metar": "METAR EKCH 302320Z AUTO 10016KT 9999 BKN015/// OVC047/// M00/M03 Q1012 TEMPO 09020G30KT",
      "taf": "TAF EKCH 302328Z 3100/3124 09018KT 9999 BKN015"
    },
    {
      "icao": "ENAL",
      "alert": "OK",
      "vis_m": 9999,
      "fzfg": false,
      "metar_trigger": false,
      "taf_trigger": false,
      "metar": "METAR ENAL 302320Z AUTO 18006KT 9999 NCD M02/M10 Q1012",
      "taf": "TAF ENAL 302300Z 3100/3109 14008KT CAVOK"
    },
    {
      "icao": "ENBR",
      "alert": "OK",
      "vis_m": 9999,
      "fzfg": false,
      "metar_trigger": false,
      "taf_trigger": false,
      "metar": "METAR ENBR 302320Z 08007KT CAVOK M03/M15 Q1012 RMK WIND 1200FT 09008KT",
      "taf": "TAF ENBR 302300Z 3100/3124 VRB03KT CAVOK"
    },
    {
      "icao": "ENGM",
      "alert": "OK",
      "vis_m": 9999,
      "fzfg": false,
      "metar_trigger": false,
      "taf_trigger": false,
      "metar": "METAR ENGM 302320Z 06007KT 9999 -SHSN OVC035 M07/M10 Q1020",
      "taf": "TAF ENGM 302300Z 3100/3124 03008KT 9999 -SN FEW020 BKN035"
    },
    {
      "icao": "ENHD",
      "alert": "OK",
      "vis_m": 9999,
      "fzfg": false,
      "metar_trigger": false,
      "taf_trigger": false,
      "metar": "METAR ENHD 302320Z AUTO 10021KT 9999 NCD M02/M12 Q1010",
      "taf": "TAF ENHD 301400Z 3015/3023 10015KT CAVOK"
    },
    {
      "icao": "ENTC",
      "alert": "OK",
      "vis_m": 9999,
      "fzfg": false,
      "metar_trigger": false,
      "taf_trigger": false,
      "metar": "METAR ENTC 302320Z 20010KT CAVOK M06/M14 Q1019 RMK WIND 2600FT 18024KT",
      "taf": "TAF ENTC 302300Z 3100/3124 17008KT CAVOK"
    },
    {
      "icao": "ENTO",
      "alert": "OK",
      "vis_m": 9999,
      "fzfg": false,
      "metar_trigger": false,
      "taf_trigger": false,
      "metar": "METAR ENTO 302320Z AUTO 10007KT 050V140 9999 SCT030/// OVC038/// M04/M10 Q1018",
      "taf": "TAF ENTO 302300Z 3100/3124 07010KT 9999 -SN FEW020 BKN035"
    },
    {
      "icao": "ENVA",
      "alert": "OK",
      "vis_m": 9999,
      "fzfg": false,
      "metar_trigger": false,
      "taf_trigger": false,
      "metar": "METAR ENVA 302320Z 13007KT 070V190 CAVOK M05/M14 Q1017 RMK WIND 670FT 15016G26KT",
      "taf": "TAF ENVA 302300Z 3100/3124 12010KT CAVOK"
    },
    {
      "icao": "ENZV",
      "alert": "OK",
      "vis_m": 9999,
      "fzfg": false,
      "metar_trigger": false,
      "taf_trigger": false,
      "metar": "METAR ENZV 302320Z 09013KT 9999 OVC043 M01/M11 Q1010",
      "taf": "TAF ENZV 302300Z 3100/3124 09015KT 9999 BKN045"
    },
    {
      "icao": "EPGD",
      "alert": "OK",
      "vis_m": 9999,
      "fzfg": false,
      "metar_trigger": false,
      "taf_trigger": false,
      "metar": "METAR EPGD 302330Z 09010KT CAVOK M13/M15 Q1016",
      "taf": "TAF EPGD 302330Z 3100/3124 10012KT CAVOK"
    },
    {
      "icao": "EPKK",
      "alert": "OK",
      "vis_m": 3100,
      "fzfg": false,
      "metar_trigger": false,
      "taf_trigger": false,
      "metar": "METAR EPKK 302330Z 07014KT 3100 -FZDZ BR BKN005 OVC006 M03/M05 Q1007",
      "taf": "TAF EPKK 302330Z 3100/3124 06015KT 3000 BR OVC006"
    },
    {
      "icao": "EPKT",
      "alert": "OK",
      "vis_m": 8000,
      "fzfg": false,
      "metar_trigger": false,
      "taf_trigger": false,
      "metar": "METAR EPKT 302330Z 07012KT 8000 -SN OVC006 M03/M05 Q1006",
      "taf": "TAF EPKT 302330Z 3100/3124 07012KT 9000 -SN OVC006"
    },
    {
      "icao": "EPLB",
      "alert": "OK",
      "vis_m": 9999,
      "fzfg": false,
      "metar_trigger": false,
      "taf_trigger": false,
      "metar": "METAR EPLB 302330Z 07013KT 9999 -SN OVC010 M12/M13 Q1012",
      "taf": "TAF EPLB 302330Z 3100/3124 08012KT 9999 BKN012"
    },
    {
      "icao": "EPMO",
      "alert": "OK",
      "vis_m": 9999,
      "fzfg": false,
      "metar_trigger": false,
      "taf_trigger": false,
      "metar": "METAR EPMO 302330Z 07014KT CAVOK M13/M14 Q1014",
      "taf": "TAF EPMO 302330Z 3100/3124 07013KT CAVOK"
    },
    {
      "icao": "EPPO",
      "alert": "OK",
      "vis_m": 9999,
      "fzfg": false,
      "metar_trigger": false,
      "taf_trigger": false,
      "metar": "METAR EPPO 302330Z 10013KT 9999 OVC012 M06/M09 Q1010",
      "taf": "TAF EPPO 302330Z 3100/3124 09013KT 9999 OVC012"
    },
    {
      "icao": "EPRA",
      "alert": "OK",
      "vis_m": 9999,
      "fzfg": false,
      "metar_trigger": false,
      "taf_trigger": false,
      "metar": "METAR EPRA 302330Z 07012KT 9999 BKN010 M10/M13 Q1012",
      "taf": "TAF EPRA 302330Z 3100/3109 07012KT 9999 BKN012"
    },
    {
      "icao": "EPRZ",
      "alert": "OK",
      "vis_m": 9999,
      "fzfg": false,
      "metar_trigger": false,
      "taf_trigger": false,
      "metar": "METAR EPRZ 302330Z 06014KT 9999 OVC010 M05/M07 Q1009",
      "taf": "TAF EPRZ 302330Z 3100/3124 05012KT 9999 OVC010"
    },
    {
      "icao": "EPSC",
      "alert": "OK",
      "vis_m": 9000,
      "fzfg": false,
      "metar_trigger": false,
      "taf_trigger": false,
      "metar": "METAR EPSC 302330Z 09009KT 9000 OVC010 M06/M07 Q1010",
      "taf": "TAF EPSC 302330Z 3100/3124 09012KT 9000 BKN009"
    },
    {
      "icao": "EPSY",
      "alert": "OK",
      "vis_m": 9999,
      "fzfg": false,
      "metar_trigger": false,
      "taf_trigger": false,
      "metar": "METAR EPSY 302330Z 06006KT 030V110 CAVOK M14/M16 Q1017",
      "taf": "TAF EPSY 302330Z 3100/3109 07006KT CAVOK"
    },
    {
      "icao": "EPWA",
      "alert": "OK",
      "vis_m": 9999,
      "fzfg": false,
      "metar_trigger": false,
      "taf_trigger": false,
      "metar": "METAR EPWA 302330Z 08010KT 9999 FEW008 M12/M14 Q1014 TEMPO BKN009",
      "taf": "TAF EPWA 302330Z 3100/3124 08011KT 9999 SCT020"
    },
    {
      "icao": "EPWR",
      "alert": "OK",
      "vis_m": 8000,
      "fzfg": false,
      "metar_trigger": false,
      "taf_trigger": false,
      "metar": "METAR EPWR 302330Z 09010KT 8000 -SN BKN009 M03/M05 Q1008",
      "taf": "TAF EPWR 302330Z 3100/3124 08012KT 8000 OVC010"
    },
    {
      "icao": "ESGG",
      "alert": "OK",
      "vis_m": 9999,
      "fzfg": false,
      "metar_trigger": false,
      "taf_trigger": false,
      "metar": "METAR ESGG 302320Z 09008KT 9999 OVC029 M04/M10 Q1015",
      "taf": "TAF ESGG 302330Z 3100/3124 10010KT 9999 OVC030"
    },
    {
      "icao": "ESKN",
      "alert": "OK",
      "vis_m": 9999,
      "fzfg": false,
      "metar_trigger": false,
      "taf_trigger": false,
      "metar": "METAR ESKN 302320Z 12013KT 9999 SCT036 M03/M10 Q1023",
      "taf": "TAF ESKN 302330Z 3100/3124 12010KT 9999 SCT030"
    },
    {
      "icao": "ESMS",
      "alert": "OK",
      "vis_m": 9999,
      "fzfg": false,
      "metar_trigger": false,
      "taf_trigger": false,
      "metar": "METAR ESMS 302320Z 09019KT 9999 BKN012 OVC046 M01/M04 Q1012",
      "taf": "TAF ESMS 302328Z 3100/3124 09018KT 9999 OVC012"
    },
    {
      "icao": "ESSA",
      "alert": "OK",
      "vis_m": 9999,
      "fzfg": false,
      "metar_trigger": false,
      "taf_trigger": false,
      "metar": "METAR ESSA 302320Z 08008KT 9999 FEW035 M07/M10 Q1025 NOSIG",
      "taf": "TAF ESSA 302330Z 3100/3124 08009KT 9999 SCT030"
    },
    {
      "icao": "EYKA",
      "alert": "OK",
      "vis_m": 9999,
      "fzfg": false,
      "metar_trigger": false,
      "taf_trigger": false,
      "metar": "METAR EYKA 302320Z 06008KT CAVOK M15/M18 Q1022",
      "taf": "TAF EYKA 302310Z 3100/3124 06005KT 9000 NSC"
    },
    {
      "icao": "EYPA",
      "alert": "OK",
      "vis_m": 9999,
      "fzfg": false,
      "metar_trigger": false,
      "taf_trigger": false,
      "metar": "METAR EYPA 302320Z AUTO 09008KT 9999 NCD M14/M20 Q1023",
      "taf": "TAF EYPA 302310Z 3100/3124 09008KT 9000 NSC"
    },
    {
      "icao": "EYVI",
      "alert": "OK",
      "vis_m": 9999,
      "fzfg": false,
      "metar_trigger": false,
      "taf_trigger": false,
      "metar": "METAR EYVI 302320Z 05008KT CAVOK M16/M19 Q1020 NOSIG",
      "taf": "TAF EYVI 302312Z 3100/3124 06008KT 9000 NSC"
    },
    {
      "icao": "GCFV",
      "alert": "OK",
      "vis_m": 9999,
      "fzfg": false,
      "metar_trigger": false,
      "taf_trigger": false,
      "metar": "METAR GCFV 302330Z AUTO 34009KT CAVOK 18/13 Q1024",
      "taf": "TAF GCFV 302000Z 3021/3121 01014KT 9999 BKN022 TX23/3114Z TN18/3106Z"
    },
    {
      "icao": "GCLP",
      "alert": "OK",
      "vis_m": 9999,
      "fzfg": false,
      "metar_trigger": false,
      "taf_trigger": false,
      "metar": "METAR GCLP 302330Z 01014KT 9999 FEW030 18/13 Q1025 NOSIG",
      "taf": "TAF GCLP 302000Z 3021/3121 36018KT 9999 BKN025 TX22/3114Z TN17/3106Z"
    },
    {
      "icao": "GCTS",
      "alert": "OK",
      "vis_m": 9999,
      "fzfg": false,
      "metar_trigger": false,
      "taf_trigger": false,
      "metar": "METAR GCTS 302330Z 07003KT 9999 FEW025 19/14 Q1025 NOSIG",
      "taf": "TAF GCTS 302000Z 3021/3121 03007KT 9999 SCT020 TX23/3114Z TN14/3106Z"
    },
    {
      "icao": "GMAD",
      "alert": "OK",
      "vis_m": 8000,
      "fzfg": false,
      "metar_trigger": false,
      "taf_trigger": false,
      "metar": "METAR GMAD 302330Z 00000KT 8000 FEW020 17/16 Q1022 NOSIG",
      "taf": "TAF GMAD 302300Z 3100/0106 12004KT 8000 SCT010 SCT020"
    },
    {
      "icao": "GMMN",
      "alert": "OK",
      "vis_m": 5000,
      "fzfg": false,
      "metar_trigger": false,
      "taf_trigger": false,
      "metar": "METAR GMMN 302330Z 23006KT 5000 -DZ BKN004 16/14 Q1023 NOSIG",
      "taf": "TAF GMMN 302300Z 3100/0106 22008KT 8000 BKN004"
    },
    {
      "icao": "GMMX",
      "alert": "OK",
      "vis_m": 9999,
      "fzfg": false,
      "metar_trigger": false,
      "taf_trigger": false,
      "metar": "METAR GMMX 302330Z VRB02KT 9999 BKN020 15/13 Q1024 NOSIG",
      "taf": "TAF GMMX 302300Z 3100/0106 16010KT 8000 SCT020 SCT080 T"
    },
    {
      "icao": "HEGN",
      "alert": "OK",
      "vis_m": 9999,
      "fzfg": false,
      "metar_trigger": false,
      "taf_trigger": false,
      "metar": "METAR HEGN 302300Z 29001KT CAVOK 15/07 Q1015 NOSIG",
      "taf": "TAF HEGN 302300Z 3100/0106 24008KT CAVOK"
    },
    {
      "icao": "HEMA",
      "alert": "OK",
      "vis_m": 9999,
      "fzfg": false,
      "metar_trigger": false,
      "taf_trigger": false,
      "metar": "METAR HEMA 302300Z 23005KT CAVOK 15/05 Q1015 NOSIG",
      "taf": "TAF HEMA 302300Z 3100/0106 23008KT CAVOK"
    },
    {
      "icao": "HESH",
      "alert": "OK",
      "vis_m": 9999,
      "fzfg": false,
      "metar_trigger": false,
      "taf_trigger": false,
      "metar": "METAR HESH 302300Z 29002KT CAVOK 17/11 Q1015 NOSIG",
      "taf": "TAF HESH 302300Z 3100/0106 30008KT CAVOK"
    },
    {
      "icao": "HESX",
      "alert": "OK",
      "vis_m": 9999,
      "fzfg": false,
      "metar_trigger": false,
      "taf_trigger": false,
      "metar": "METAR HESX 302300Z 22004KT CAVOK 15/02 Q1015 NOSIG",
      "taf": "TAF HESX 302300Z 3100/0106 22010KT 8000 NSC"
    },
    {
      "icao": "LATI",
      "alert": "OK",
      "vis_m": null,
      "fzfg": false,
      "metar_trigger": false,
      "taf_trigger": false,
      "metar": "",
      "taf": "TAF LATI 302300Z 3100/3124 VRB05KT 9999 FEW040 BKN080 TX16/3112Z TN03/3105Z"
    },
    {
      "icao": "LBPD",
      "alert": "OK",
      "vis_m": 9999,
      "fzfg": false,
      "metar_trigger": false,
      "taf_trigger": false,
      "metar": "METAR LBPD 302330Z AUTO 28004KT 9999 SCT006/// BKN060/// BKN099/// 05/05 Q1003",
      "taf": "TAF LBPD 302300Z 3100/3124 VRB04KT 9999 SCT030 BKN050"
    },
    {
      "icao": "LBSF",
      "alert": "OK",
      "vis_m": 9000,
      "fzfg": false,
      "metar_trigger": false,
      "taf_trigger": false,
      "metar": "METAR LBSF 302330Z AUTO VRB01KT 9000 SCT058/// 01/01 Q1002 TEMPO 5000 BR",
      "taf": "TAF LBSF 302300Z 3100/3124 VRB04KT 5000 BR SCT030 BKN050"
    },
    {
      "icao": "LBWN",
      "alert": "OK",
      "vis_m": 9999,
      "fzfg": false,
      "metar_trigger": false,
      "taf_trigger": false,
      "metar": "METAR LBWN 302330Z AUTO 29004KT 260V320 9999 -RA SCT014/// BKN050/// 03/02 Q1004 NOSIG",
      "taf": "TAF LBWN 302300Z 3100/3124 VRB03KT 9999 BKN020 OVC030"
    },
    {
      "icao": "LCLK",
      "alert": "OK",
      "vis_m": 9999,
      "fzfg": false,
      "metar_trigger": false,
      "taf_trigger": false,
      "metar": "METAR LCLK 302330Z 24009KT CAVOK 16/12 Q1010 NOSIG",
      "taf": "TAF LCLK 302330Z 3100/0100 22009KT 9999 FEW030"
    },
    {
      "icao": "LCPH",
      "alert": "OK",
      "vis_m": 9999,
      "fzfg": false,
      "metar_trigger": false,
      "taf_trigger": false,
      "metar": "METAR LCPH 302330Z 26007KT 250V320 9999 FEW029 SCT033 17/12 Q1010 NOSIG",
      "taf": "TAF LCPH 302330Z 3100/0100 24012KT 9999 FEW025"
    },
    {
      "icao": "LEAL",
      "alert": "OK",
      "vis_m": 9999,
      "fzfg": false,
      "metar_trigger": false,
      "taf_trigger": false,
      "metar": "METAR LEAL 302330Z 26013KT 210V290 9999 -RA FEW041 BKN062 17/07 Q1003 NOSIG",
      "taf": "TAF LEAL 302300Z 3100/3124 28015KT CAVOK TX18/3114Z TN11/3106Z"
    },
    {
      "icao": "LEBB",
      "alert": "OK",
      "vis_m": 9999,
      "fzfg": false,
      "metar_trigger": false,
      "taf_trigger": false,
      "metar": "METAR LEBB 302330Z AUTO VRB06KT 9999 FEW050 09/04 Q1001",
      "taf": "TAF LEBB 302300Z 3100/3124 28009KT 9999 FEW030 SCT060 TX13/3113Z TN07/3108Z"
    },
    {
      "icao": "LEBL",
      "alert": "OK",
      "vis_m": 9999,
      "fzfg": false,
      "metar_trigger": false,
      "taf_trigger": false,
      "metar": "METAR LEBL 302330Z 32008KT 9999 SCT050 11/07 Q0997 NOSIG",
      "taf": "TAF LEBL 302300Z 3100/3124 32009KT 9999 SCT050 TX15/3112Z TN09/3106Z"
    },
    {
      "icao": "LECH",
      "alert": "OK",
      "vis_m": 9000,
      "fzfg": false,
      "metar_trigger": false,
      "taf_trigger": false,
      "metar": "METAR LECH 302330Z AUTO 25006KT 9000 NSC 08/05 Q1000",
      "taf": ""
    },
    {
      "icao": "LEMD",
      "alert": "OK",
      "vis_m": 9999,
      "fzfg": false,
      "metar_trigger": false,
      "taf_trigger": false,
      "metar": "METAR LEMD 302330Z 29018G28KT CAVOK 06/M02 Q1005 NOSIG",
      "taf": "TAF LEMD 302300Z 3100/0106 28012KT 9999 FEW040 TX11/3115Z TN04/3106Z"
    },
    {
      "icao": "LEMG",
      "alert": "OK",
      "vis_m": 9999,
      "fzfg": false,
      "metar_trigger": false,
      "taf_trigger": false,
      "metar": "METAR LEMG 302330Z 28011KT 9999 BKN060 16/07 Q1013 NOSIG",
      "taf": "TAF LEMG 302300Z 3100/3124 29015KT 9999 BKN050 TX18/3115Z TN12/3106Z"
    },
    {
      "icao": "LEVC",
      "alert": "OK",
      "vis_m": 9999,
      "fzfg": false,
      "metar_trigger": false,
      "taf_trigger": false,
      "metar": "METAR LEVC 302330Z 28015KT 250V310 CAVOK 13/03 Q1001 NOSIG",
      "taf": "TAF LEVC 302300Z 3100/3124 26010KT CAVOK TX17/3114Z TN10/3106Z"
    },
    {
      "icao": "LEXJ",
      "alert": "OK",
      "vis_m": 9999,
      "fzfg": false,
      "metar_trigger": false,
      "taf_trigger": false,
      "metar": "METAR LEXJ 302330Z AUTO 28021KT 9999 4700E NSC 10/02 Q1000",
      "taf": "TAF LEXJ 302000Z 3021/3121 27009KT 9999 SCT040 TX13/3114Z TN08/3105Z"
    },
    {
      "icao": "LEZG",
      "alert": "OK",
      "vis_m": 8000,
      "fzfg": false,
      "metar_trigger": false,
      "taf_trigger": false,
      "metar": "METAR LEZG 302330Z 27018KT 8000 RA FEW050 BKN070 10/05 Q0999 NOSIG",
      "taf": "TAF LEZG 302300Z 3100/3124 27009KT 9999 SCT060 TX14/3113Z TN06/3106Z"
    },
    {
      "icao": "LEZL",
      "alert": "OK",
      "vis_m": 9999,
      "fzfg": false,
      "metar_trigger": false,
      "taf_trigger": false,
      "metar": "METAR LEZL 302330Z 26013KT CAVOK 15/10 Q1015 NOSIG",
      "taf": "TAF LEZL 302000Z 3021/3121 24015KT 9999 BKN020 TX17/3115Z TN10/3107Z"
    },
    {
      "icao": "LFBD",
      "alert": "OK",
      "vis_m": 6000,
      "fzfg": false,
      "metar_trigger": false,
      "taf_trigger": false,
      "metar": "METAR LFBD 302330Z AUTO 26005KT 6000 RA FEW011/// SCT031/// BKN041/// ///TCU 08/07 Q0997 TEMPO 24015G30KT 3000 SHRA BKN020TCU SCT025CB",
      "taf": "TAF LFBD 302300Z 3100/0106 28005KT 9999 BKN020 TX12/3114Z TN06/3106Z"
    },
    {
      "icao": "LFLL",
      "alert": "OK",
      "vis_m": 9999,
      "fzfg": false,
      "metar_trigger": false,
      "taf_trigger": false,
      "metar": "METAR LFLL 302330Z 14006KT CAVOK 04/03 Q0998 NOSIG",
      "taf": "TAF LFLL 302300Z 3100/0106 14005KT CAVOK"
    },
    {
      "icao": "LFLS",
      "alert": "OK",
      "vis_m": 9999,
      "fzfg": false,
      "metar_trigger": false,
      "taf_trigger": false,
      "metar": "METAR LFLS 302330Z AUTO 07011KT CAVOK 03/02 Q0998",
      "taf": "TAF LFLS 301400Z 3015/3115 09008KT 9999 SCT040"
    },
    {
      "icao": "LFMN",
      "alert": "OK",
      "vis_m": 9999,
      "fzfg": false,
      "metar_trigger": false,
      "taf_trigger": false,
      "metar": "METAR LFMN 302330Z 33010KT 9999 FEW030 07/04 Q1000 NOSIG",
      "taf": "TAF LFMN 302000Z 3021/0103 33010KT 9999 FEW050"
    },
    {
      "icao": "LFOB",
      "alert": "OK",
      "vis_m": 9999,
      "fzfg": false,
      "metar_trigger": false,
      "taf_trigger": false,
      "metar": "METAR LFOB 302330Z AUTO 21006KT 9999 FEW015 BKN021 OVC026 08/07 Q0993 BECMG 4000 BR OVC004",
      "taf": "TAF LFOB 302300Z 3100/3124 19007KT 9999 BKN020 OVC045"
    },
    {
      "icao": "LFPO",
      "alert": "OK",
      "vis_m": 9999,
      "fzfg": false,
      "metar_trigger": false,
      "taf_trigger": false,
      "metar": "METAR LFPO 302330Z AUTO 20004KT 9999 FEW021 BKN040 BKN150 08/07 Q0994 BECMG BKN008",
      "taf": "TAF LFPO 302300Z 3100/0106 20008KT 9999 BKN012"
    },
    {
      "icao": "LFSB",
      "alert": "OK",
      "vis_m": 7000,
      "fzfg": false,
      "metar_trigger": false,
      "taf_trigger": false,
      "metar": "METAR LFSB 302330Z AUTO 17005KT 7000 FEW054 OVC064 02/02 Q0999 NOSIG",
      "taf": "TAF LFSB 302315Z 3100/3124 16005KT 9999 FEW020 BKN060"
    },
    {
      "icao": "LGAV",
      "alert": "OK",
      "vis_m": 9999,
      "fzfg": false,
      "metar_trigger": false,
      "taf_trigger": false,
      "metar": "METAR LGAV 302320Z VRB02KT 9999 FEW020 BKN070 11/08 Q1002 NOSIG",
      "taf": "TAF LGAV 302300Z 3100/3124 VRB05KT 9999 SCT020 BKN070"
    },
    {
      "icao": "LGTS",
      "alert": "OK",
      "vis_m": 9999,
      "fzfg": false,
      "metar_trigger": false,
      "taf_trigger": false,
      "metar": "METAR LGTS 302320Z 07003KT 9999 FEW025 06/06 Q1001 NOSIG",
      "taf": "TAF LGTS 302300Z 3100/3124 34008KT 9999 FEW010 BKN025"
    },
    {
      "icao": "LHBP",
      "alert": "OK",
      "vis_m": 7000,
      "fzfg": false,
      "metar_trigger": false,
      "taf_trigger": false,
      "metar": "METAR LHBP 302330Z 34003KT 7000 -RA SCT010 OVC014 03/02 Q1004 NOSIG",
      "taf": "TAF LHBP 302315Z 3100/3124 VRB03KT 5000 BR SCT004 OVC015"
    },
    {
      "icao": "LHDC",
      "alert": "OK",
      "vis_m": 2500,
      "fzfg": false,
      "metar_trigger": false,
      "taf_trigger": false,
      "metar": "METAR LHDC 302315Z AUTO 06003KT 2500 -DZ BR OVC004 04/04 Q1003",
      "taf": "TAF LHDC 301415Z 3015/3024 03008KT 7000 -DZ OVC012"
    },
    {
      "icao": "LIBD",
      "alert": "OK",
      "vis_m": 9999,
      "fzfg": false,
      "metar_trigger": false,
      "taf_trigger": false,
      "metar": "METAR LIBD 302320Z AUTO 21005KT 9999 NCD 04/03 Q1002",
      "taf": "TAF LIBD 302300Z 3100/3124 VRB05KT 9999 SCT030"
    },
    {
      "icao": "LIBG",
      "alert": "OK",
      "vis_m": null,
      "fzfg": false,
      "metar_trigger": false,
      "taf_trigger": false,
      "metar": "",
      "taf": "TAF LIBG 301700Z 3018/3103 VRB05KT CAVOK"
    },
    {
      "icao": "LIBP",
      "alert": "OK",
      "vis_m": 3900,
      "fzfg": false,
      "metar_trigger": false,
      "taf_trigger": false,
      "metar": "METAR LIBP 302320Z AUTO 22004KT 3900 BR BKN150/// 04/04 Q1002",
      "taf": "TAF LIBP 302300Z 3100/3124 VRB05KT 3000 BR SCT030"
    },
    {
      "icao": "LIBR",
      "alert": "OK",
      "vis_m": 9999,
      "fzfg": false,
      "metar_trigger": false,
      "taf_trigger": false,
      "metar": "METAR LIBR 302320Z 29005KT CAVOK 08/05 Q1002",
      "taf": "TAF LIBR 302300Z 3100/3124 VRB05KT 9999 FEW020"
    },
    {
      "icao": "LICA",
      "alert": "OK",
      "vis_m": 8000,
      "fzfg": false,
      "metar_trigger": false,
      "taf_trigger": false,
      "metar": "METAR LICA 302320Z AUTO 27007KT 8000 RA OVC044/// 10/09 Q1003",
      "taf": "TAF LICA 302300Z 3100/3124 VRB06KT 9999 FEW020"
    },
    {
      "icao": "LICC",
      "alert": "OK",
      "vis_m": 9999,
      "fzfg": false,
      "metar_trigger": false,
      "taf_trigger": false,
      "metar": "METAR LICC 302320Z 25013KT CAVOK 10/07 Q1004",
      "taf": "TAF LICC 302300Z 3100/3124 27011KT 9999 SCT030"
    },
    {
      "icao": "LICJ",
      "alert": "OK",
      "vis_m": 9999,
      "fzfg": false,
      "metar_trigger": false,
      "taf_trigger": false,
      "metar": "METAR LICJ 302320Z 27015KT 9999 FEW020 15/10 Q1005",
      "taf": "TAF LICJ 302300Z 3100/3124 27016KT 9999 SCT020"
    },
    {
      "icao": "LIMC",
      "alert": "OK",
      "vis_m": 3000,
      "fzfg": false,
      "metar_trigger": false,
      "taf_trigger": false,
      "metar": "METAR LIMC 302320Z 36004KT 330V030 3000 BR BKN004 05/04 Q1002 NOSIG",
      "taf": "TAF LIMC 302300Z 3100/0106 VRB05KT 3000 BR BKN005"
    },
    {
      "icao": "LIME",
      "alert": "OK",
      "vis_m": 500,
      "fzfg": false,
      "metar_trigger": false,
      "taf_trigger": false,
      "metar": "METAR LIME 302320Z 09003KT 070V130 0500 R28/P2000N FG VV002 05/05 Q1001 NOSIG",
      "taf": "TAF LIME 302300Z 3100/3124 VRB04KT 2000 BR BKN015"
    },
    {
      "icao": "LIMF",
      "alert": "OK",
      "vis_m": 100,
      "fzfg": false,
      "metar_trigger": false,
      "taf_trigger": false,
      "metar": "METAR LIMF 302320Z VRB02KT 0100 R36/0400N FG VV001 02/01 Q1001",
      "taf": "TAF LIMF 302300Z 3100/3124 VRB04KT 0300 FG BKN002"
    },
    {
      "icao": "LIMJ",
      "alert": "OK",
      "vis_m": 9999,
      "fzfg": false,
      "metar_trigger": false,
      "taf_trigger": false,
      "metar": "METAR LIMJ 302320Z 05009KT 9999 SCT050 09/03 Q1000",
      "taf": "TAF LIMJ 302300Z 3100/3124 04010KT 9999 SCT030"
    },
    {
      "icao": "LIPE",
      "alert": "OK",
      "vis_m": 900,
      "fzfg": false,
      "metar_trigger": false,
      "taf_trigger": false,
      "metar": "METAR LIPE 302320Z VRB02KT 0900 R12/P2000N R30/1900U FG OVC002 05/05 Q1002",
      "taf": "TAF LIPE 302300Z 3100/3124 VRB04KT 2000 BR BKN005"
    },
    {
      "icao": "LIPH",
      "alert": "OK",
      "vis_m": 150,
      "fzfg": false,
      "metar_trigger": false,
      "taf_trigger": false,
      "metar": "METAR LIPH 302320Z AUTO 29004KT 260V320 0150 0100W R07/0500N FG VV002 04/04 Q1002",
      "taf": "TAF LIPH 302300Z 3100/3124 VRB04KT 0200 FG OVC001"
    },
    {
      "icao": "LIPQ",
      "alert": "OK",
      "vis_m": 1300,
      "fzfg": false,
      "metar_trigger": false,
      "taf_trigger": false,
      "metar": "METAR LIPQ 302320Z AUTO 01003KT 1300 R09/1700N BR FEW043/// 05/05 Q1002",
      "taf": "TAF LIPQ 302300Z 3100/3124 VRB05KT 9999 SCT030"
    },
    {
      "icao": "LIPR",
      "alert": "OK",
      "vis_m": 2700,
      "fzfg": false,
      "metar_trigger": false,
      "taf_trigger": false,
      "metar": "METAR LIPR 302320Z AUTO 28002KT 2700 -RA BR OVC004/// 05/05 Q1002",
      "taf": "TAF LIPR 302300Z 3100/3124 VRB05KT 2000 BR BKN005"
    },
    {
      "icao": "LIPX",
      "alert": "OK",
      "vis_m": 900,
      "fzfg": false,
      "metar_trigger": false,
      "taf_trigger": false,
      "metar": "METAR LIPX 302320Z VRB01KT 0900 R04/1900U FG VV002 05/05 Q1002",
      "taf": "TAF LIPX 302300Z 3100/3124 VRB05KT 0400 FG OVC003"
    },
    {
      "icao": "LIPY",
      "alert": "OK",
      "vis_m": 5000,
      "fzfg": false,
      "metar_trigger": false,
      "taf_trigger": false,
      "metar": "METAR LIPY 302320Z AUTO VRB02KT 5000 BR OVC005/// 07/06 Q1002",
      "taf": "TAF LIPY 302300Z 3100/3124 VRB05KT 6000 BKN007"
    },
    {
      "icao": "LIPZ",
      "alert": "OK",
      "vis_m": 200,
      "fzfg": false,
      "metar_trigger": false,
      "taf_trigger": false,
      "metar": "METAR LIPZ 302320Z 31006KT 0200 R04R/0700U FG VV001 04/04 Q1002 NOSIG",
      "taf": "TAF LIPZ 302300Z 3100/0106 03006KT 0400 FG OVC001"
    },
    {
      "icao": "LIRF",
      "alert": "OK",
      "vis_m": 9999,
      "fzfg": false,
      "metar_trigger": false,
      "taf_trigger": false,
      "metar": "METAR LIRF 302320Z 07005KT CAVOK 08/07 Q1001 NOSIG",
      "taf": "TAF LIRF 302300Z 3100/0106 08008KT 9999 SCT013"
    },
    {
      "icao": "LIRN",
      "alert": "OK",
      "vis_m": 2700,
      "fzfg": false,
      "metar_trigger": false,
      "taf_trigger": false,
      "metar": "METAR LIRN 302320Z AUTO 33002KT 2700 BR FEW076/// 07/07 Q1002",
      "taf": "TAF LIRN 302300Z 3100/3124 VRB06KT 8000 FEW020"
    },
    {
      "icao": "LIRP",
      "alert": "OK",
      "vis_m": 9999,
      "fzfg": false,
      "metar_trigger": false,
      "taf_trigger": false,
      "metar": "METAR LIRP 302315Z 08004KT 9999 SCT020 SCT035 BKN060 10/09 Q1001 NOSIG",
      "taf": "TAF LIRP 302300Z 3100/3124 06006KT 9999 SCT020 SCT030 BKN060"
    },
    {
      "icao": "LIRZ",
      "alert": "OK",
      "vis_m": 9999,
      "fzfg": false,
      "metar_trigger": false,
      "taf_trigger": false,
      "metar": "METAR LIRZ 302320Z AUTO VRB02KT 9999 -RA BKN046/// 07/06 Q1002",
      "taf": "TAF LIRZ 302300Z 3100/3124 VRB03KT 9999 SCT040"
    },
    {
      "icao": "LJLJ",
      "alert": "OK",
      "vis_m": 9999,
      "fzfg": false,
      "metar_trigger": false,
      "taf_trigger": false,
      "metar": "METAR LJLJ 302330Z 25002KT 9999 FEW020 BKN033 03/02 Q1002 NOSIG",
      "taf": "TAF LJLJ 302300Z 3100/0100 VRB02KT 9999 FEW020 BKN030"
    },
    {
      "icao": "LKMT",
      "alert": "OK",
      "vis_m": 8000,
      "fzfg": false,
      "metar_trigger": false,
      "taf_trigger": false,
      "metar": "METAR LKMT 302330Z 03007KT 8000 OVC008 M01/M02 Q1005 NOSIG",
      "taf": "TAF LKMT 302300Z 3100/3124 03008KT 7000 OVC008"
    },
    {
      "icao": "LKPR",
      "alert": "OK",
      "vis_m": 2200,
      "fzfg": false,
      "metar_trigger": false,
      "taf_trigger": false,
      "metar": "METAR LKPR 302330Z 07006KT 2200 BR BKN002 OVC003 M01/M01 Q1003 NOSIG",
      "taf": "TAF LKPR 302300Z 3100/0106 05003KT 2500 BR BKN003 OVC005"
    },
    {
      "icao": "LLBG",
      "alert": "OK",
      "vis_m": 9999,
      "fzfg": false,
      "metar_trigger": false,
      "taf_trigger": false,
      "metar": "METAR LLBG 302320Z 14004KT CAVOK 14/10 Q1014 NOSIG",
      "taf": "TAF LLBG 302317Z 3100/3124 VRB03KT CAVOK"
    },
    {
      "icao": "LMML",
      "alert": "OK",
      "vis_m": 9999,
      "fzfg": false,
      "metar_trigger": false,
      "taf_trigger": false,
      "metar": "METAR LMML 302345Z 28018KT 9999 FEW022 14/10 Q1007 NOSIG",
      "taf": "TAF LMML 302300Z 3100/3124 29018KT 9999 FEW018"
    },
    {
      "icao": "LOWW",
      "alert": "OK",
      "vis_m": 9999,
      "fzfg": false,
      "metar_trigger": false,
      "taf_trigger": false,
      "metar": "METAR LOWW 302320Z 33004KT 9999 FEW012 OVC038 M00/M02 Q1004 NOSIG",
      "taf": "TAF LOWW 302315Z 3100/0106 35005KT 9999 FEW010 OVC020 TX02/3112Z TNM01/0106Z"
    },
    {
      "icao": "LPFR",
      "alert": "OK",
      "vis_m": 9999,
      "fzfg": false,
      "metar_trigger": false,
      "taf_trigger": false,
      "metar": "METAR LPFR 302330Z 28014KT 9999 FEW025 BKN035 15/11 Q1017",
      "taf": "TAF LPFR 302300Z 3100/3124 27015KT 9999 SCT030"
    },
    {
      "icao": "LPMA",
      "alert": "OK",
      "vis_m": 9999,
      "fzfg": false,
      "metar_trigger": false,
      "taf_trigger": false,
      "metar": "METAR LPMA 302330Z VRB02KT 9999 SCT015 18/15 Q1025",
      "taf": "TAF LPMA 302300Z 3100/3124 VRB05KT 9999 SCT015"
    },
    {
      "icao": "LPPR",
      "alert": "OK",
      "vis_m": 9999,
      "fzfg": false,
      "metar_trigger": false,
      "taf_trigger": false,
      "metar": "METAR LPPR 302330Z 29012G23KT 260V330 9999 FEW020CB BKN038 13/06 Q1011 WS R35",
      "taf": "TAF LPPR 302300Z 3100/3124 28012KT 9999 SCT035"
    },
    {
      "icao": "LPPS",
      "alert": "OK",
      "vis_m": 7000,
      "fzfg": false,
      "metar_trigger": false,
      "taf_trigger": false,
      "metar": "METAR LPPS 302330Z 32009KT 7000 SCT004 BKN008 17/17 Q1025",
      "taf": "TAF LPPS 302300Z 3100/0106 31008KT 9999 SCT012 BKN030"
    },
    {
      "icao": "LPPT",
      "alert": "OK",
      "vis_m": 9999,
      "fzfg": false,
      "metar_trigger": false,
      "taf_trigger": false,
      "metar": "METAR LPPT 302330Z 30010KT 250V320 9999 FEW030 13/08 Q1016 WS R20",
      "taf": "TAF LPPT 302300Z 3100/0106 29008KT 9999 SCT030"
    },
    {
      "icao": "LQBK",
      "alert": "OK",
      "vis_m": 9999,
      "fzfg": false,
      "metar_trigger": false,
      "taf_trigger": false,
      "metar": "METAR LQBK 302330Z 30003KT CAVOK 03/02 Q1003 NOSIG",
      "taf": "TAF LQBK 302300Z 3100/3124 07005KT 9999 SCT020 BKN040 TX06/3113Z TN01/3105Z"
    },
    {
      "icao": "LQSA",
      "alert": "OK",
      "vis_m": 8000,
      "fzfg": false,
      "metar_trigger": false,
      "taf_trigger": false,
      "metar": "METAR LQSA 302330Z VRB01KT 8000 FEW015 BKN025 03/03 Q1001",
      "taf": "TAF LQSA 302300Z 3100/3124 VRB02KT 9999 BKN030 TX06/3113Z TN01/3106Z"
    },
    {
      "icao": "LQTZ",
      "alert": "OK",
      "vis_m": 6000,
      "fzfg": false,
      "metar_trigger": false,
      "taf_trigger": false,
      "metar": "METAR LQTZ 302330Z 33002KT 6000 BKN014 OVC027 03/03 Q1003",
      "taf": "TAF LQTZ 302300Z 3100/3124 VRB02KT 9999 SCT015 BKN030 TX07/3113Z TN02/3105Z"
    },
    {
      "icao": "LRBC",
      "alert": "OK",
      "vis_m": 9999,
      "fzfg": false,
      "metar_trigger": false,
      "taf_trigger": false,
      "metar": "METAR LRBC 302330Z 36013KT 330V030 9999 OVC013 M02/M04 Q1006",
      "taf": "TAF LRBC 302300Z 3100/3109 35014KT 9999 SCT015 OVC035"
    },
    {
      "icao": "LRBS",
      "alert": "OK",
      "vis_m": 3000,
      "fzfg": false,
      "metar_trigger": false,
      "taf_trigger": false,
      "metar": "METAR LRBS 302330Z 11008KT 080V140 3000 -DZ BR OVC003 02/02 Q1004 NOSIG",
      "taf": "TAF LRBS 302300Z 3100/3124 11010KT 3000 BR BKN005 OVC020"
    },
    {
      "icao": "LRBV",
      "alert": "OK",
      "vis_m": 9999,
      "fzfg": false,
      "metar_trigger": false,
      "taf_trigger": false,
      "metar": "METAR LRBV 302330Z AUTO 06001KT 9999 OVC030/// 01/00 Q1002",
      "taf": "TAF LRBV 302000Z 3021/3106 VRB04KT 9999 SCT020 OVC035"
    },
    {
      "icao": "LRCL",
      "alert": "OK",
      "vis_m": 1500,
      "fzfg": false,
      "metar_trigger": false,
      "taf_trigger": false,
      "metar": "METAR LRCL 302330Z 00000KT 1500 -RA BR FEW013 OVC021 02/02 Q1002",
      "taf": "TAF LRCL 302300Z 3100/3109 VRB04KT 1500 -DZRA BR BKN015 OVC025"
    },
    {
      "icao": "LRCV",
      "alert": "OK",
      "vis_m": 5000,
      "fzfg": false,
      "metar_trigger": false,
      "taf_trigger": false,
      "metar": "METAR LRCV 302330Z 00000KT 5000 BR NSC 03/03 Q1002",
      "taf": "TAF LRCV 302300Z 3100/3109 VRB04KT 5000 BR SCT005"
    },
    {
      "icao": "LRIA",
      "alert": "OK",
      "vis_m": 9999,
      "fzfg": false,
      "metar_trigger": false,
      "taf_trigger": false,
      "metar": "METAR LRIA 302330Z 34012KT 9999 BKN011 OVC014 M04/M07 Q1006",
      "taf": "TAF LRIA 302300Z 3100/3109 34012KT 9999 OVC010"
    },
    {
      "icao": "LROP",
      "alert": "OK",
      "vis_m": 4000,
      "fzfg": false,
      "metar_trigger": false,
      "taf_trigger": false,
      "metar": "METAR LROP 302330Z 13009KT 4000 -DZ BR OVC003 03/03 Q1004 NOSIG",
      "taf": "TAF LROP 302300Z 3100/3124 11010KT 3000 BR BKN005 OVC020"
    },
    {
      "icao": "LRSB",
      "alert": "OK",
      "vis_m": 5000,
      "fzfg": false,
      "metar_trigger": false,
      "taf_trigger": false,
      "metar": "METAR LRSB 302330Z 11004KT 5000 BR FEW003 SCT008 BKN013 03/03 Q1001",
      "taf": "TAF LRSB 302300Z 3100/3124 VRB04KT 3000 -RA BR BKN010 OVC020"
    },
    {
      "icao": "LRSM",
      "alert": "OK",
      "vis_m": 6000,
      "fzfg": false,
      "metar_trigger": false,
      "taf_trigger": false,
      "metar": "METAR LRSM 302330Z AUTO VRB01KT 6000 -DZ OVC039/// 03/02 Q1003",
      "taf": "TAF LRSM 301400Z 3015/3024 VRB04KT 9999 OVC025"
    },
    {
      "icao": "LRSV",
      "alert": "OK",
      "vis_m": 6000,
      "fzfg": false,
      "metar_trigger": false,
      "taf_trigger": false,
      "metar": "METAR LRSV 302330Z 36010KT 6000 -SN BKN006 BKN025 M05/M06 Q1005",
      "taf": "TAF LRSV 302300Z 3100/3109 35010KT 8000 -SN BKN010 OVC025"
    },
    {
      "icao": "LRTM",
      "alert": "OK",
      "vis_m": 550,
      "fzfg": false,
      "metar_trigger": false,
      "taf_trigger": false,
      "metar": "METAR LRTM 302330Z AUTO 09003KT 0550 R07/0800N -RA FG BKN017/// 02/01 Q1002",
      "taf": ""
    },
    {
      "icao": "LRTR",
      "alert": "OK",
      "vis_m": 3000,
      "fzfg": false,
      "metar_trigger": false,
      "taf_trigger": false,
      "metar": "METAR LRTR 302330Z 27003KT 3000 -RA BR BKN008 03/03 Q1003 NOSIG",
      "taf": "TAF LRTR 302300Z 3100/3124 VRB04KT 3000 -RA BR BKN005 BKN045"
    },
    {
      "icao": "LTAC",
      "alert": "OK",
      "vis_m": 9999,
      "fzfg": false,
      "metar_trigger": false,
      "taf_trigger": false,
      "metar": "METAR LTAC 302320Z VRB02KT 9999 SCT033 BKN090 05/03 Q1005 RESHRA BECMG 4000 BR RMK RWY21C 21008KT RWY03L VRB02KT RWY21R 20007KT RWY03R 18008KT RWY21L 20005KT",
      "taf": "TAF LTAC 302240Z 3100/3124 VRB02KT 4000 BR SCT040 SCT100"
    },
    {
      "icao": "LTFM",
      "alert": "OK",
      "vis_m": 9999,
      "fzfg": false,
      "metar_trigger": false,
      "taf_trigger": false,
      "metar": "METAR LTFM 302320Z 33005KT 280V340 9999 SCT022 BKN070 06/03 Q1005 NOSIG RMK RWY17L 27003KT 240V300 RWY34L 31005KT RWY16R 26003KT RWY36 32005KT RWY18 30004KT 270V010",
      "taf": "TAF LTFM 302240Z 3100/0106 VRB02KT 9999 SCT035 BKN080"
    },
    {
      "icao": "LUKK",
      "alert": "OK",
      "vis_m": 9999,
      "fzfg": false,
      "metar_trigger": false,
      "taf_trigger": false,
      "metar": "METAR LUKK 302330Z 02015KT 9999 -SN BKN012 OVC027 M05/M07 Q1004 NOSIG",
      "taf": "TAF LUKK 302305Z 3100/3124 36014KT 9999 BKN020"
    },
    {
      "icao": "LWOH",
      "alert": "OK",
      "vis_m": null,
      "fzfg": false,
      "metar_trigger": false,
      "taf_trigger": false,
      "metar": "",
      "taf": "TAF LWOH 302010Z 3021/3121 VRB02KT 9999 FEW040"
    },
    {
      "icao": "LWSK",
      "alert": "OK",
      "vis_m": null,
      "fzfg": false,
      "metar_trigger": false,
      "taf_trigger": false,
      "metar": "",
      "taf": "TAF LWSK 302010Z 3021/3121 VRB02KT 9999 FEW040"
    },
    {
      "icao": "LYBE",
      "alert": "OK",
      "vis_m": 8000,
      "fzfg": false,
      "metar_trigger": false,
      "taf_trigger": false,
      "metar": "METAR LYBE 302330Z 35003KT 8000 OVC009 05/04 Q1004 NOSIG",
      "taf": "TAF LYBE 302300Z 3100/3124 04005KT 5000 BR BKN008 BKN023 TX07/3113Z TN03/3106Z"
    },
    {
      "icao": "LYNI",
      "alert": "OK",
      "vis_m": 9999,
      "fzfg": false,
      "metar_trigger": false,
      "taf_trigger": false,
      "metar": "METAR LYNI 302330Z 09002KT 9999 -RA BKN027 OVC070 05/05 Q1003 NOSIG",
      "taf": "TAF LYNI 302300Z 3100/3124 VRB02KT 9999 SCT015 BKN027 TX08/3113Z TN02/3106Z"
    },
    {
      "icao": "LYPG",
      "alert": "OK",
      "vis_m": 4000,
      "fzfg": false,
      "metar_trigger": false,
      "taf_trigger": false,
      "metar": "METAR LYPG 302330Z 31003KT 4000 BR FEW015 SCT050 BKN080 07/07 Q1002 TEMPO 2000",
      "taf": "TAF LYPG 302300Z 3100/3124 35005KT 9999 FEW015 SCT040 BKN080 TX13/3112Z TN05/3106Z"
    },
    {
      "icao": "LZIB",
      "alert": "OK",
      "vis_m": 9000,
      "fzfg": false,
      "metar_trigger": false,
      "taf_trigger": false,
      "metar": "METAR LZIB 302330Z 29004KT 9000 FEW013 BKN039 01/M00 Q1004 NOSIG",
      "taf": "TAF LZIB 302315Z 3100/0100 30005KT 8000 FEW010 BKN033"
    },
    {
      "icao": "LZKZ",
      "alert": "OK",
      "vis_m": 9999,
      "fzfg": false,
      "metar_trigger": false,
      "taf_trigger": false,
      "metar": "METAR LZKZ 302330Z 36013KT 9999 OVC024 02/M02 Q1004 NOSIG",
      "taf": "TAF LZKZ 302315Z 3100/0100 01013KT 9999 OVC024"
    },
    {
      "icao": "LZTT",
      "alert": "OK",
      "vis_m": 9999,
      "fzfg": false,
      "metar_trigger": false,
      "taf_trigger": false,
      "metar": "METAR LZTT 302330Z 05008KT 9999 BKN006 OVC016 M03/M04 Q1002",
      "taf": "TAF LZTT 302315Z 3100/0100 05007KT 9999 SCT010 OVC020"
    },
    {
      "icao": "OEJN",
      "alert": "OK",
      "vis_m": 9999,
      "fzfg": false,
      "metar_trigger": false,
      "taf_trigger": false,
      "metar": "METAR OEJN 302300Z 00000KT CAVOK 23/16 Q1013 NOSIG",
      "taf": "TAF OEJN 302300Z 3100/0106 02004KT CAVOK"
    },
    {
      "icao": "OEMA",
      "alert": "OK",
      "vis_m": 9999,
      "fzfg": false,
      "metar_trigger": false,
      "taf_trigger": false,
      "metar": "METAR OEMA 302300Z VRB01KT CAVOK 20/07 Q1017 NOSIG",
      "taf": "TAF OEMA 302300Z 3100/0106 VRB03KT CAVOK"
    },
    {
      "icao": "OJAI",
      "alert": "OK",
      "vis_m": 4000,
      "fzfg": false,
      "metar_trigger": false,
      "taf_trigger": false,
      "metar": "METAR OJAI 302300Z 22005KT 4000 HZ NSC 08/05 Q1015 NOSIG",
      "taf": "TAF OJAI 302243Z 3100/0106 VRB02KT 4000 HZ NSC"
    },
    {
      "icao": "OMAA",
      "alert": "OK",
      "vis_m": 9999,
      "fzfg": false,
      "metar_trigger": false,
      "taf_trigger": false,
      "metar": "METAR OMAA 302330Z 19005KT CAVOK 16/11 Q1017 NOSIG",
      "taf": "TAF OMAA 302300Z 3100/0106 21005KT 8000 FEW030"
    },
    {
      "icao": "OMDB",
      "alert": "OK",
      "vis_m": 9999,
      "fzfg": false,
      "metar_trigger": false,
      "taf_trigger": false,
      "metar": "METAR OMDB 302300Z 19005KT 9999 FEW030 17/12 Q1017 NOSIG",
      "taf": "TAF OMDB 302300Z 3100/0106 20007KT 8000 FEW030"
    },
    {
      "icao": "UAAA",
      "alert": "OK",
      "vis_m": 1600,
      "fzfg": true,
      "metar_trigger": false,
      "taf_trigger": false,
      "metar": "METAR UAAA 302330Z 03001MPS 1600 R23L/P2000 BR OVC003 M04/M05 Q1017 NOSIG RMK QBB110",
      "taf": "TAF UAAA 302304Z 3100/3124 31003MPS 0800 FZFG VV003 TX01/3109Z TNM06/3102Z"
    },
    {
      "icao": "UBBB",
      "alert": "OK",
      "vis_m": 3000,
      "fzfg": false,
      "metar_trigger": false,
      "taf_trigger": false,
      "metar": "METAR UBBB 302330Z 18020KT 3000 BR BKN003 08/08 Q1007 NOSIG",
      "taf": "TAF UBBB 302303Z 3100/3124 18018G28KT 0800 FG VV002 TX12/3110Z TN06/3101Z"
    },
    {
      "icao": "UDSG",
      "alert": "OK",
      "vis_m": 4600,
      "fzfg": false,
      "metar_trigger": false,
      "taf_trigger": false,
      "metar": "METAR UDSG 302330Z 04003KT 4600 BR OVC023 M07/M07 Q1014 NOSIG",
      "taf": "TAF UDSG 302258Z 3100/3124 VRB06KT 2000 BR OVC020"
    },
    {
      "icao": "UDYZ",
      "alert": "OK",
      "vis_m": 1400,
      "fzfg": false,
      "metar_trigger": false,
      "taf_trigger": false,
      "metar": "METAR UDYZ 302330Z VRB01KT 1400 1200W R08/P2000U BR BKN013 M03/M04 Q1016 NOSIG",
      "taf": "TAF UDYZ 302300Z 3100/3124 VRB04KT 1500 BR BKN010"
    },
    {
      "icao": "UGKO",
      "alert": "OK",
      "vis_m": 9999,
      "fzfg": false,
      "metar_trigger": false,
      "taf_trigger": false,
      "metar": "METAR UGKO 302330Z 10006KT 9999 BKN078 12/M01 Q1006 NOSIG",
      "taf": "TAF UGKO 302300Z 3100/3124 08007KT 9999 BKN060 TX16/3111Z TN09/3124Z"
    }
  ]
}