{
  "ts_utc": "2026-01-21T19:06:13Z",
  "threshold_m": 150,
  "source": "stations_override.txt (ICAO list) + aviationweather.gov (METAR/TAF raw)",
  "station_count": 159,
  "stations": [
    {
      "icao": "BIKF",
      "alert": "OK",
      "vis_m": 9999,
      "fzfg": false,
      "metar_trigger": false,
      "taf_trigger": false,
      "metar": "METAR BIKF 211830Z 05016KT 9999 BKN044 BKN110 06/03 Q0993",
      "taf": "TAF BIKF 211658Z 2118/2218 05010KT 9999 FEW020 BKN045 TX08/2218Z TN04/2205Z"
    },
    {
      "icao": "BKPR",
      "alert": "OK",
      "vis_m": 9999,
      "fzfg": false,
      "metar_trigger": false,
      "taf_trigger": false,
      "metar": "METAR BKPR 211900Z 17005KT 150V210 CAVOK M00/M01 Q1009 NOSIG",
      "taf": "TAF BKPR 211730Z 2118/2218 17008KT 9999 SCT030"
    },
    {
      "icao": "EBCI",
      "alert": "OK",
      "vis_m": 9999,
      "fzfg": false,
      "metar_trigger": false,
      "taf_trigger": false,
      "metar": "METAR EBCI 211850Z 13008KT CAVOK 05/02 Q0996 NOSIG",
      "taf": "TAF EBCI 211720Z 2118/2224 14010KT CAVOK"
    },
    {
      "icao": "EDDB",
      "alert": "OK",
      "vis_m": 9999,
      "fzfg": false,
      "metar_trigger": false,
      "taf_trigger": false,
      "metar": "METAR EDDB 211850Z AUTO 08005KT CAVOK M04/M07 Q1006 NOSIG",
      "taf": "TAF EDDB 211700Z 2118/2218 07006KT CAVOK"
    },
    {
      "icao": "EDDH",
      "alert": "OK",
      "vis_m": 9999,
      "fzfg": false,
      "metar_trigger": false,
      "taf_trigger": false,
      "metar": "METAR EDDH 211850Z AUTO 08005KT CAVOK M02/M05 Q1006 NOSIG",
      "taf": "TAF EDDH 211700Z 2118/2224 08010KT CAVOK"
    },
    {
      "icao": "EDDK",
      "alert": "OK",
      "vis_m": 9999,
      "fzfg": false,
      "metar_trigger": false,
      "taf_trigger": false,
      "metar": "METAR EDDK 211850Z AUTO 11004KT 080V150 CAVOK 03/M02 Q1001 NOSIG",
      "taf": "TAF EDDK 211700Z 2118/2224 12008KT CAVOK"
    },
    {
      "icao": "EDDN",
      "alert": "OK",
      "vis_m": 9999,
      "fzfg": false,
      "metar_trigger": false,
      "taf_trigger": false,
      "metar": "METAR EDDN 211850Z AUTO 10006KT CAVOK M04/M08 Q1004 NOSIG",
      "taf": "TAF EDDN 211700Z 2118/2218 11006KT CAVOK"
    },
    {
      "icao": "EDDS",
      "alert": "OK",
      "vis_m": 9999,
      "fzfg": false,
      "metar_trigger": false,
      "taf_trigger": false,
      "metar": "METAR EDDS 211850Z AUTO VRB02KT CAVOK 00/M02 Q1000 NOSIG",
      "taf": "TAF EDDS 211700Z 2118/2218 VRB03KT CAVOK"
    },
    {
      "icao": "EDFH",
      "alert": "OK",
      "vis_m": 9000,
      "fzfg": false,
      "metar_trigger": false,
      "taf_trigger": false,
      "metar": "METAR EDFH 211850Z 14015KT 9000 NSC M03/M04 Q0999",
      "taf": "TAF EDFH 211700Z 2118/2218 14013KT 5000 BR NSC"
    },
    {
      "icao": "EDJA",
      "alert": "OK",
      "vis_m": 9999,
      "fzfg": false,
      "metar_trigger": false,
      "taf_trigger": false,
      "metar": "METAR EDJA 211850Z 04008KT CAVOK M02/M04 Q1000",
      "taf": "TAF EDJA 211700Z 2118/2203 VRB03KT CAVOK"
    },
    {
      "icao": "EDLW",
      "alert": "OK",
      "vis_m": 9999,
      "fzfg": false,
      "metar_trigger": false,
      "taf_trigger": false,
      "metar": "METAR EDLW 211850Z 06003KT 030V110 CAVOK 03/M01 Q1000",
      "taf": "TAF EDLW 211700Z 2118/2218 08006KT CAVOK"
    },
    {
      "icao": "EDNY",
      "alert": "OK",
      "vis_m": 450,
      "fzfg": true,
      "metar_trigger": false,
      "taf_trigger": false,
      "metar": "METAR EDNY 211850Z 04003KT 020V090 0450 R24/0500N FZFG VV/// M02/M02 Q1001",
      "taf": "TAF EDNY 211700Z 2118/2203 VRB03KT 2500 BR OVC002"
    },
    {
      "icao": "EDSB",
      "alert": "OK",
      "vis_m": 2800,
      "fzfg": false,
      "metar_trigger": false,
      "taf_trigger": false,
      "metar": "METAR EDSB 211850Z 18003KT 2800 BR OVC003 M01/M01 Q1001",
      "taf": "TAF EDSB 211700Z 2118/2218 03004KT 3000 BR OVC003"
    },
    {
      "icao": "EETN",
      "alert": "OK",
      "vis_m": 9999,
      "fzfg": false,
      "metar_trigger": false,
      "taf_trigger": false,
      "metar": "METAR EETN 211850Z 09015KT 9999 OVC007 M04/M05 Q1023 TEMPO OVC004",
      "taf": "TAF EETN 211730Z 2118/2218 10012KT 9999 BKN006 OVC015"
    },
    {
      "icao": "EFTU",
      "alert": "OK",
      "vis_m": 9999,
      "fzfg": false,
      "metar_trigger": false,
      "taf_trigger": false,
      "metar": "METAR EFTU 211850Z AUTO 09012KT 9999 OVC005 M04/M05 Q1024",
      "taf": "TAF EFTU 211734Z 2118/2218 09009KT 9999 OVC007"
    },
    {
      "icao": "EGBB",
      "alert": "OK",
      "vis_m": 9999,
      "fzfg": false,
      "metar_trigger": false,
      "taf_trigger": false,
      "metar": "METAR EGBB 211850Z 14018KT 9999 -RA OVC008 08/07 Q0985",
      "taf": "TAF EGBB 211704Z 2118/2218 14014KT 9999 BKN012"
    },
    {
      "icao": "EGGP",
      "alert": "OK",
      "vis_m": 9999,
      "fzfg": false,
      "metar_trigger": false,
      "taf_trigger": false,
      "metar": "METAR EGGP 211850Z 13019KT 9999 BKN013 OVC018 09/07 Q0983",
      "taf": "TAF EGGP 211702Z 2118/2218 12018G30KT 9999 BKN012"
    },
    {
      "icao": "EGGW",
      "alert": "OK",
      "vis_m": 3700,
      "fzfg": false,
      "metar_trigger": false,
      "taf_trigger": false,
      "metar": "METAR EGGW 211850Z AUTO 14013KT 3700 -RA BKN005/// OVC008/// //////TCU 08/07 Q0988 RERA",
      "taf": ""
    },
    {
      "icao": "EGKK",
      "alert": "OK",
      "vis_m": 8000,
      "fzfg": false,
      "metar_trigger": false,
      "taf_trigger": false,
      "metar": "METAR EGKK 211850Z 13010KT 8000 -RA SCT007 SCT015 BKN029 09/09 Q0988 RERA",
      "taf": "TAF EGKK 211704Z 2118/2224 13012KT 9999 SCT016"
    },
    {
      "icao": "EGNM",
      "alert": "OK",
      "vis_m": 3500,
      "fzfg": false,
      "metar_trigger": false,
      "taf_trigger": false,
      "metar": "METAR EGNM 211850Z 12014KT 090V150 3500 -RA SCT004 BKN006 07/07 Q0986",
      "taf": "TAF EGNM 211701Z 2118/2218 13016G26KT 9999 BKN008"
    },
    {
      "icao": "EGPD",
      "alert": "OK",
      "vis_m": 3600,
      "fzfg": false,
      "metar_trigger": false,
      "taf_trigger": false,
      "metar": "METAR EGPD 211850Z AUTO 12021G33KT 3600 RADZ BKN005/// OVC009/// //////CB 07/06 Q0992",
      "taf": ""
    },
    {
      "icao": "EGPF",
      "alert": "OK",
      "vis_m": 9999,
      "fzfg": false,
      "metar_trigger": false,
      "taf_trigger": false,
      "metar": "METAR EGPF 211850Z AUTO 07012KT 9999 BKN020 OVC030 07/06 Q0985",
      "taf": "TAF EGPF 211700Z 2118/2218 08016G28KT 9999 BKN025"
    },
    {
      "icao": "EHBK",
      "alert": "OK",
      "vis_m": 9999,
      "fzfg": false,
      "metar_trigger": false,
      "taf_trigger": false,
      "metar": "METAR EHBK 211855Z AUTO 10009KT 9999 NSC 04/01 Q0998 NOSIG",
      "taf": "TAF EHBK 211653Z 2118/2224 09007KT CAVOK"
    },
    {
      "icao": "EHEH",
      "alert": "OK",
      "vis_m": 9999,
      "fzfg": false,
      "metar_trigger": false,
      "taf_trigger": false,
      "metar": "METAR EHEH 211825Z AUTO 12008KT 040V180 9999 FEW290 05/01 Q0998 BLU NOSIG",
      "taf": "TAF EHEH 211717Z 2118/2224 12008KT CAVOK"
    },
    {
      "icao": "EKBI",
      "alert": "OK",
      "vis_m": 9999,
      "fzfg": false,
      "metar_trigger": false,
      "taf_trigger": false,
      "metar": "METAR EKBI 211850Z AUTO 08019KT 9999 OVC016/// M00/M04 Q1009",
      "taf": "TAF EKBI 211727Z 2118/2218 09015KT 9999 OVC016"
    },
    {
      "icao": "EKCH",
      "alert": "OK",
      "vis_m": 8000,
      "fzfg": false,
      "metar_trigger": false,
      "taf_trigger": false,
      "metar": "METAR EKCH 211850Z AUTO 05011KT 8000 OVC028/// 01/M01 Q1010 TEMPO BKN012",
      "taf": "TAF EKCH 211727Z 2118/2218 05010KT 9999 OVC020"
    },
    {
      "icao": "ENAL",
      "alert": "OK",
      "vis_m": 9999,
      "fzfg": false,
      "metar_trigger": false,
      "taf_trigger": false,
      "metar": "METAR ENAL 211850Z 14015KT CAVOK 05/M08 Q1010",
      "taf": "TAF ENAL 211700Z 2118/2203 14010KT CAVOK"
    },
    {
      "icao": "ENBR",
      "alert": "OK",
      "vis_m": 9999,
      "fzfg": false,
      "metar_trigger": false,
      "taf_trigger": false,
      "metar": "METAR ENBR 211850Z 01004KT CAVOK 01/M03 Q1008 NOSIG RMK WIND 1200FT 10007KT",
      "taf": "TAF ENBR 211700Z 2118/2218 VRB03KT CAVOK"
    },
    {
      "icao": "ENGM",
      "alert": "OK",
      "vis_m": 9999,
      "fzfg": false,
      "metar_trigger": false,
      "taf_trigger": false,
      "metar": "METAR ENGM 211850Z 02008KT 9999 BKN017 M02/M05 Q1020 NOSIG",
      "taf": "TAF ENGM 211700Z 2118/2218 02008KT 9999 -SN OVC022"
    },
    {
      "icao": "ENHD",
      "alert": "OK",
      "vis_m": 9999,
      "fzfg": false,
      "metar_trigger": false,
      "taf_trigger": false,
      "metar": "METAR ENHD 211850Z 10018KT CAVOK 03/M09 Q1008",
      "taf": "TAF ENHD 211400Z 2115/2123 10018KT CAVOK"
    },
    {
      "icao": "ENTC",
      "alert": "OK",
      "vis_m": 9999,
      "fzfg": false,
      "metar_trigger": false,
      "taf_trigger": false,
      "metar": "METAR ENTC 211850Z 03003KT CAVOK M09/M10 Q1025 NOSIG RMK WIND 2600FT 12004KT",
      "taf": "TAF ENTC 211700Z 2118/2218 VRB02KT 9999 FEW001"
    },
    {
      "icao": "ENTO",
      "alert": "OK",
      "vis_m": 9999,
      "fzfg": false,
      "metar_trigger": false,
      "taf_trigger": false,
      "metar": "METAR ENTO 211850Z 03008KT 9999 OVC026 M01/M05 Q1018 NOSIG",
      "taf": "TAF ENTO 211700Z 2118/2218 05012KT 9999 OVC015"
    },
    {
      "icao": "ENVA",
      "alert": "OK",
      "vis_m": 9999,
      "fzfg": false,
      "metar_trigger": false,
      "taf_trigger": false,
      "metar": "METAR ENVA 211850Z 09011KT CAVOK 01/M06 Q1018 TEMPO 14015G25KT RMK WIND 670FT 11014KT",
      "taf": "TAF ENVA 211700Z 2118/2218 11010KT CAVOK"
    },
    {
      "icao": "ENZV",
      "alert": "OK",
      "vis_m": 9999,
      "fzfg": false,
      "metar_trigger": false,
      "taf_trigger": false,
      "metar": "METAR ENZV 211850Z 07012KT CAVOK 02/M08 Q1008 TEMPO 12018G28KT",
      "taf": "TAF ENZV 211700Z 2118/2218 08015KT CAVOK"
    },
    {
      "icao": "EPGD",
      "alert": "OK",
      "vis_m": 900,
      "fzfg": true,
      "metar_trigger": false,
      "taf_trigger": false,
      "metar": "METAR EPGD 211830Z VRB01KT 0900 R29/P2000N FZFG NSC M11/M11 Q1009",
      "taf": "TAF EPGD 211730Z 2118/2218 VRB02KT 2000 BR NSC"
    },
    {
      "icao": "EPKK",
      "alert": "OK",
      "vis_m": 5000,
      "fzfg": false,
      "metar_trigger": false,
      "taf_trigger": false,
      "metar": "METAR EPKK 211830Z VRB01KT 5000 BR NSC M06/M10 Q1009",
      "taf": "TAF EPKK 211730Z 2118/2218 VRB02KT 5000 HZ NSC"
    },
    {
      "icao": "EPKT",
      "alert": "OK",
      "vis_m": 8000,
      "fzfg": false,
      "metar_trigger": false,
      "taf_trigger": false,
      "metar": "METAR EPKT 211830Z 34002KT 8000 NSC M06/M10 Q1008",
      "taf": "TAF EPKT 211730Z 2118/2218 15004KT 8000 NSC"
    },
    {
      "icao": "EPLB",
      "alert": "OK",
      "vis_m": 3000,
      "fzfg": false,
      "metar_trigger": false,
      "taf_trigger": false,
      "metar": "METAR EPLB 211830Z 06003KT 3000 BR NSC M10/M11 Q1011",
      "taf": "TAF EPLB 211730Z 2118/2218 09003KT 4000 BR NSC"
    },
    {
      "icao": "EPMO",
      "alert": "OK",
      "vis_m": 6000,
      "fzfg": false,
      "metar_trigger": false,
      "taf_trigger": false,
      "metar": "METAR EPMO 211830Z 15005KT 6000 NSC M05/M08 Q1010",
      "taf": "TAF EPMO 211730Z 2118/2218 11003KT 4500 BR NSC"
    },
    {
      "icao": "EPPO",
      "alert": "OK",
      "vis_m": 7000,
      "fzfg": false,
      "metar_trigger": false,
      "taf_trigger": false,
      "metar": "METAR EPPO 211830Z 08002KT 7000 NSC M06/M08 Q1008",
      "taf": "TAF EPPO 211730Z 2118/2218 11005KT 5000 BR NSC"
    },
    {
      "icao": "EPRA",
      "alert": "OK",
      "vis_m": 9000,
      "fzfg": false,
      "metar_trigger": false,
      "taf_trigger": false,
      "metar": "METAR EPRA 211830Z 14004KT 9000 NSC M08/M11 Q1010",
      "taf": "TAF EPRA 211730Z 2118/2203 13006KT CAVOK"
    },
    {
      "icao": "EPRZ",
      "alert": "OK",
      "vis_m": 9999,
      "fzfg": false,
      "metar_trigger": false,
      "taf_trigger": false,
      "metar": "METAR EPRZ 211830Z 09004KT CAVOK M04/M11 Q1010",
      "taf": "TAF EPRZ 211730Z 2118/2218 08003KT CAVOK"
    },
    {
      "icao": "EPSC",
      "alert": "OK",
      "vis_m": 9999,
      "fzfg": false,
      "metar_trigger": false,
      "taf_trigger": false,
      "metar": "METAR EPSC 211830Z 07005KT CAVOK M06/M08 Q1008",
      "taf": "TAF EPSC 211730Z 2118/2218 VRB02KT CAVOK"
    },
    {
      "icao": "EPSY",
      "alert": "OK",
      "vis_m": 1900,
      "fzfg": false,
      "metar_trigger": false,
      "taf_trigger": false,
      "metar": "METAR EPSY 211830Z VRB01KT 1900 BR NSC M16/M17 Q1010",
      "taf": "TAF EPSY 211730Z 2118/2203 VRB02KT 2000 BR NSC"
    },
    {
      "icao": "EPWA",
      "alert": "OK",
      "vis_m": 8000,
      "fzfg": false,
      "metar_trigger": false,
      "taf_trigger": false,
      "metar": "METAR EPWA 211830Z 14006KT 8000 NSC M07/M10 Q1010 NOSIG",
      "taf": "TAF EPWA 211730Z 2118/2218 14005KT 8000 NSC"
    },
    {
      "icao": "EPWR",
      "alert": "OK",
      "vis_m": 9999,
      "fzfg": false,
      "metar_trigger": false,
      "taf_trigger": false,
      "metar": "METAR EPWR 211830Z 18005KT CAVOK M03/M09 Q1007",
      "taf": "TAF EPWR 211730Z 2118/2218 17005KT CAVOK"
    },
    {
      "icao": "ESGG",
      "alert": "OK",
      "vis_m": 9999,
      "fzfg": false,
      "metar_trigger": false,
      "taf_trigger": false,
      "metar": "METAR ESGG 211850Z 07012KT 9999 OVC020 M02/M05 Q1013",
      "taf": "TAF ESGG 211730Z 2118/2218 05010KT 9999 OVC018"
    },
    {
      "icao": "ESKN",
      "alert": "OK",
      "vis_m": 1800,
      "fzfg": false,
      "metar_trigger": false,
      "taf_trigger": false,
      "metar": "METAR ESKN 211850Z 07011KT 1800 SN SCT005 BKN009 BKN012 00/M00 Q1018",
      "taf": "TAF ESKN 211730Z 2118/2218 07010KT 9999 OVC020"
    },
    {
      "icao": "ESMS",
      "alert": "OK",
      "vis_m": 9000,
      "fzfg": false,
      "metar_trigger": false,
      "taf_trigger": false,
      "metar": "METAR ESMS 211850Z 08008KT 9000 BKN026 00/M02 Q1009",
      "taf": "TAF ESMS 211727Z 2118/2218 05010KT 9000 BKN018"
    },
    {
      "icao": "ESSA",
      "alert": "OK",
      "vis_m": 4600,
      "fzfg": false,
      "metar_trigger": false,
      "taf_trigger": false,
      "metar": "METAR ESSA 211850Z 06009KT 4600 -SN BKN008 M01/M01 Q1020 TEMPO SHSN OVC004",
      "taf": "TAF ESSA 211730Z 2118/2218 06012KT 6000 -SN OVC020"
    },
    {
      "icao": "EYKA",
      "alert": "OK",
      "vis_m": 5000,
      "fzfg": false,
      "metar_trigger": false,
      "taf_trigger": false,
      "metar": "METAR EYKA 211850Z 08005KT 5000 BR NSC M10/M12 Q1014",
      "taf": "TAF EYKA 211110Z 2112/2212 VRB04KT 5000 BR NSC"
    },
    {
      "icao": "EYPA",
      "alert": "OK",
      "vis_m": 5000,
      "fzfg": false,
      "metar_trigger": false,
      "taf_trigger": false,
      "metar": "METAR EYPA 211850Z 09008KT 5000 BR NSC M11/M14 Q1013",
      "taf": "TAF EYPA 211714Z 2118/2218 08010KT 5000 BR NSC"
    },
    {
      "icao": "EYVI",
      "alert": "OK",
      "vis_m": 5000,
      "fzfg": false,
      "metar_trigger": false,
      "taf_trigger": false,
      "metar": "METAR EYVI 211850Z 09004KT 070V140 5000 BR NSC M11/M13 Q1014 NOSIG",
      "taf": "TAF EYVI 211714Z 2118/2218 09008KT 5000 BR NSC"
    },
    {
      "icao": "GCFV",
      "alert": "OK",
      "vis_m": 9999,
      "fzfg": false,
      "metar_trigger": false,
      "taf_trigger": false,
      "metar": "METAR GCFV 211830Z 33008KT 9999 FEW035 18/11 Q1020",
      "taf": "TAF GCFV 211400Z 2115/2215 32012KT 9999 FEW040 TX21/2214Z TN15/2206Z"
    },
    {
      "icao": "GCLP",
      "alert": "OK",
      "vis_m": 9999,
      "fzfg": false,
      "metar_trigger": false,
      "taf_trigger": false,
      "metar": "METAR GCLP 211830Z 34007KT 290V020 9999 FEW035 18/12 Q1020 NOSIG",
      "taf": "TAF GCLP 211400Z 2115/2215 36015KT 9999 FEW035 TX21/2214Z TN15/2206Z"
    },
    {
      "icao": "GCTS",
      "alert": "OK",
      "vis_m": 9999,
      "fzfg": false,
      "metar_trigger": false,
      "taf_trigger": false,
      "metar": "METAR GCTS 211830Z 18003KT 150V210 9999 FEW035 18/11 Q1021 NOSIG",
      "taf": "TAF GCTS 211400Z 2115/2215 20007KT 9999 SCT035 TX22/2214Z TN15/2206Z"
    },
    {
      "icao": "GMAD",
      "alert": "OK",
      "vis_m": 9999,
      "fzfg": false,
      "metar_trigger": false,
      "taf_trigger": false,
      "metar": "METAR GMAD 211830Z 20008KT 9999 SCT033 14/11 Q1017 NOSIG",
      "taf": ""
    },
    {
      "icao": "GMMN",
      "alert": "OK",
      "vis_m": 9999,
      "fzfg": false,
      "metar_trigger": false,
      "taf_trigger": false,
      "metar": "METAR GMMN 211830Z 21010KT 9999 BKN030 13/10 Q1016 NOSIG",
      "taf": "TAF GMMN 211700Z 2118/2224 22014KT 9999 BKN030"
    },
    {
      "icao": "GMMX",
      "alert": "OK",
      "vis_m": 9999,
      "fzfg": false,
      "metar_trigger": false,
      "taf_trigger": false,
      "metar": "METAR GMMX 211830Z 27005KT 9999 FEW026 SCT080 13/08 Q1017 NOSIG",
      "taf": "TAF GMMX 211700Z 2118/2224 24014KT 8000 SCT023 SCT080"
    },
    {
      "icao": "HEGN",
      "alert": "OK",
      "vis_m": 9999,
      "fzfg": false,
      "metar_trigger": false,
      "taf_trigger": false,
      "metar": "METAR HEGN 211800Z 00000KT CAVOK 19/10 Q1017 NOSIG",
      "taf": "TAF HEGN 211700Z 2118/2224 17010KT CAVOK"
    },
    {
      "icao": "HEMA",
      "alert": "OK",
      "vis_m": 9999,
      "fzfg": false,
      "metar_trigger": false,
      "taf_trigger": false,
      "metar": "METAR HEMA 211800Z 31011KT CAVOK 19/13 Q1016 NOSIG",
      "taf": "TAF HEMA 211700Z 2118/2224 30012KT CAVOK"
    },
    {
      "icao": "HESH",
      "alert": "OK",
      "vis_m": 9999,
      "fzfg": false,
      "metar_trigger": false,
      "taf_trigger": false,
      "metar": "METAR HESH 211800Z 35012KT CAVOK 20/10 Q1017 NOSIG",
      "taf": "TAF HESH 211700Z 2118/2224 35010KT CAVOK"
    },
    {
      "icao": "HESX",
      "alert": "OK",
      "vis_m": 9999,
      "fzfg": false,
      "metar_trigger": false,
      "taf_trigger": false,
      "metar": "METAR HESX 211800Z 09006KT CAVOK 15/06 Q1013 NOSIG",
      "taf": "TAF HESX 211700Z 2118/2224 04009KT CAVOK"
    },
    {
      "icao": "LATI",
      "alert": "OK",
      "vis_m": 9999,
      "fzfg": false,
      "metar_trigger": false,
      "taf_trigger": false,
      "metar": "METAR LATI 211850Z VRB02KT 9999 BKN064 08/04 Q1004 NOSIG",
      "taf": "TAF LATI 211700Z 2118/2218 VRB05KT 9999 SCT030 BKN050 TX13/2212Z TN04/2205Z"
    },
    {
      "icao": "LBPD",
      "alert": "OK",
      "vis_m": 9999,
      "fzfg": false,
      "metar_trigger": false,
      "taf_trigger": false,
      "metar": "METAR LBPD 211830Z AUTO 31002KT 9999 OVC016/// M01/M03 Q1016 NOSIG",
      "taf": "TAF LBPD 211700Z 2118/2218 VRB04KT 4000 SN BKN025 OVC040"
    },
    {
      "icao": "LBSF",
      "alert": "OK",
      "vis_m": 9999,
      "fzfg": false,
      "metar_trigger": false,
      "taf_trigger": false,
      "metar": "METAR LBSF 211830Z AUTO 15010KT 9999 SCT014/// BKN016/// OVC021/// M01/M04 Q1013 TEMPO 5000 -SN BKN010 OVC015",
      "taf": "TAF LBSF 211700Z 2118/2218 12010KT 8000 SCT015 BKN020 OVC050"
    },
    {
      "icao": "LBWN",
      "alert": "OK",
      "vis_m": 9999,
      "fzfg": false,
      "metar_trigger": false,
      "taf_trigger": false,
      "metar": "METAR LBWN 211830Z AUTO 08004KT 9999 SCT023/// 03/02 Q1017 NOSIG",
      "taf": "TAF LBWN 211700Z 2118/2218 11010KT 9999 BKN020"
    },
    {
      "icao": "LCLK",
      "alert": "OK",
      "vis_m": 9999,
      "fzfg": false,
      "metar_trigger": false,
      "taf_trigger": false,
      "metar": "METAR LCLK 211830Z 01007KT 330V050 CAVOK 12/05 Q1022 NOSIG",
      "taf": "TAF LCLK 211730Z 2118/2218 05016KT CAVOK"
    },
    {
      "icao": "LCPH",
      "alert": "OK",
      "vis_m": 9999,
      "fzfg": false,
      "metar_trigger": false,
      "taf_trigger": false,
      "metar": "METAR LCPH 211830Z 12016KT 090V160 9999 FEW030 13/02 Q1020 TEMPO 5000 RA",
      "taf": "TAF LCPH 211730Z 2118/2218 12020KT CAVOK"
    },
    {
      "icao": "LEAL",
      "alert": "OK",
      "vis_m": 9999,
      "fzfg": false,
      "metar_trigger": false,
      "taf_trigger": false,
      "metar": "METAR LEAL 211830Z 21004KT 170V250 9999 RA SCT065 14/08 Q1004 NOSIG",
      "taf": "TAF LEAL 211700Z 2118/2218 29010KT 9999 BKN040 TX18/2213Z TN10/2206Z"
    },
    {
      "icao": "LEBB",
      "alert": "OK",
      "vis_m": 9999,
      "fzfg": false,
      "metar_trigger": false,
      "taf_trigger": false,
      "metar": "METAR LEBB 211830Z 15003KT 120V190 9999 SCT022 BKN060 10/09 Q0993 RERA TEMPO 3000 RA",
      "taf": ""
    },
    {
      "icao": "LEBL",
      "alert": "OK",
      "vis_m": 9000,
      "fzfg": false,
      "metar_trigger": false,
      "taf_trigger": false,
      "metar": "METAR LEBL 211830Z 22011KT 9000 SCT020 SCT040 13/11 Q1000 NOSIG",
      "taf": "TAF LEBL 211700Z 2118/2218 23010KT 9999 BKN020 TX15/2213Z TN07/2206Z"
    },
    {
      "icao": "LECH",
      "alert": "OK",
      "vis_m": 9999,
      "fzfg": false,
      "metar_trigger": false,
      "taf_trigger": false,
      "metar": "METAR LECH 211830Z AUTO 20009KT 170V240 CAVOK 10/05 Q1000",
      "taf": ""
    },
    {
      "icao": "LEMD",
      "alert": "OK",
      "vis_m": 4000,
      "fzfg": false,
      "metar_trigger": false,
      "taf_trigger": false,
      "metar": "METAR LEMD 211830Z 19005KT 130V220 4000 DZ BKN006 OVC012 08/07 Q0998 NOSIG",
      "taf": "TAF LEMD 211700Z 2118/2224 VRB05KT 9999 BKN010 TX10/2215Z TN04/2207Z"
    },
    {
      "icao": "LEMG",
      "alert": "OK",
      "vis_m": 9999,
      "fzfg": false,
      "metar_trigger": false,
      "taf_trigger": false,
      "metar": "METAR LEMG 211830Z 20006KT 150V250 9999 FEW020 BKN028 14/10 Q1007 NOSIG",
      "taf": "TAF LEMG 211700Z 2118/2218 VRB03KT 9999 FEW040 TX17/2214Z TN11/2207Z"
    },
    {
      "icao": "LEVC",
      "alert": "OK",
      "vis_m": 9999,
      "fzfg": false,
      "metar_trigger": false,
      "taf_trigger": false,
      "metar": "METAR LEVC 211830Z VRB02KT 9999 FEW016 BKN044 12/06 Q1002 NOSIG",
      "taf": "TAF LEVC 211700Z 2118/2218 27006KT 9999 BKN040 TX18/2213Z TN09/2205Z"
    },
    {
      "icao": "LEXJ",
      "alert": "OK",
      "vis_m": 9999,
      "fzfg": false,
      "metar_trigger": false,
      "taf_trigger": false,
      "metar": "METAR LEXJ 211830Z VRB01KT 9999 -RA FEW065 09/08 Q0991",
      "taf": "TAF LEXJ 211400Z 2115/2215 24009KT 9999 SCT040 TX16/2115Z TN08/2206Z"
    },
    {
      "icao": "LEZG",
      "alert": "OK",
      "vis_m": 9999,
      "fzfg": false,
      "metar_trigger": false,
      "taf_trigger": false,
      "metar": "METAR LEZG 211830Z 08007KT 9999 BKN050 OVC080 09/08 Q0998 TEMPO 4000 SHRA FEW040TCU",
      "taf": "TAF LEZG 211700Z 2118/2218 13010KT 9999 FEW040 TX13/2215Z TN05/2206Z"
    },
    {
      "icao": "LEZL",
      "alert": "OK",
      "vis_m": 8000,
      "fzfg": false,
      "metar_trigger": false,
      "taf_trigger": false,
      "metar": "METAR LEZL 211830Z 24015G25KT 210V270 8000 -RA BKN006 OVC011 16/16 Q1005 NOSIG",
      "taf": ""
    },
    {
      "icao": "LFBD",
      "alert": "OK",
      "vis_m": 9000,
      "fzfg": false,
      "metar_trigger": false,
      "taf_trigger": false,
      "metar": "METAR LFBD 211830Z AUTO 19008KT 150V220 9000 -RA OVC042/// ///TCU 11/09 Q0992 TEMPO 20015G25KT 3500 -SHRA",
      "taf": "TAF LFBD 211700Z 2118/2224 18010KT CAVOK TX12/2214Z TN07/2221Z"
    },
    {
      "icao": "LFLL",
      "alert": "OK",
      "vis_m": 9999,
      "fzfg": false,
      "metar_trigger": false,
      "taf_trigger": false,
      "metar": "METAR LFLL 211830Z 13007KT CAVOK 07/02 Q0999 NOSIG",
      "taf": "TAF LFLL 211700Z 2118/2224 17008KT CAVOK"
    },
    {
      "icao": "LFLS",
      "alert": "OK",
      "vis_m": 9999,
      "fzfg": false,
      "metar_trigger": false,
      "taf_trigger": false,
      "metar": "METAR LFLS 211830Z AUTO 19003KT 100V230 CAVOK 05/02 Q0999 NOSIG",
      "taf": "TAF LFLS 211400Z 2115/2215 23010KT CAVOK"
    },
    {
      "icao": "LFMN",
      "alert": "OK",
      "vis_m": 9999,
      "fzfg": false,
      "metar_trigger": false,
      "taf_trigger": false,
      "metar": "METAR LFMN 211830Z 32008KT CAVOK 08/04 Q1004 NOSIG",
      "taf": "TAF LFMN 211400Z 2115/2221 14006KT CAVOK"
    },
    {
      "icao": "LFOB",
      "alert": "OK",
      "vis_m": 9999,
      "fzfg": false,
      "metar_trigger": false,
      "taf_trigger": false,
      "metar": "METAR LFOB 211830Z AUTO 14012KT CAVOK 11/06 Q0992 TEMPO 4000 SHRA BKN014 BKN020TCU",
      "taf": "TAF LFOB 211700Z 2118/2218 15014KT CAVOK"
    },
    {
      "icao": "LFPO",
      "alert": "OK",
      "vis_m": 9999,
      "fzfg": false,
      "metar_trigger": false,
      "taf_trigger": false,
      "metar": "METAR LFPO 211830Z 14008KT 090V170 9999 -RA NSC 11/05 Q0992",
      "taf": "TAF LFPO 211700Z 2118/2224 14010KT CAVOK"
    },
    {
      "icao": "LFSB",
      "alert": "OK",
      "vis_m": 500,
      "fzfg": true,
      "metar_trigger": false,
      "taf_trigger": false,
      "metar": "METAR LFSB 211830Z AUTO 31007KT 0500 0400 R15/0650N R33/0700N FZFG VV/// M01/M01 Q1000 TEMPO 0300 FZFG",
      "taf": "TAF LFSB 211700Z 2118/2218 33004KT 1500 BR OVC001"
    },
    {
      "icao": "LGAV",
      "alert": "OK",
      "vis_m": 3000,
      "fzfg": false,
      "metar_trigger": false,
      "taf_trigger": false,
      "metar": "METAR LGAV 211850Z 06005KT 320V170 3000 TSRA SCT015CB BKN025 10/08 Q1007 NOSIG",
      "taf": "TAF LGAV 211700Z 2118/2218 22010G25KT 6000 FEW012 BKN025 BKN070"
    },
    {
      "icao": "LGTS",
      "alert": "OK",
      "vis_m": 9999,
      "fzfg": false,
      "metar_trigger": false,
      "taf_trigger": false,
      "metar": "METAR LGTS 211850Z 20004KT 9999 -DZ SCT006 BKN035 06/06 Q1012 NOSIG",
      "taf": "TAF LGTS 211700Z 2118/2218 34013KT 9999 FEW010 BKN025"
    },
    {
      "icao": "LHBP",
      "alert": "OK",
      "vis_m": 9999,
      "fzfg": false,
      "metar_trigger": false,
      "taf_trigger": false,
      "metar": "METAR LHBP 211830Z 11004KT 9999 BKN043 M03/M06 Q1011 NOSIG",
      "taf": "TAF LHBP 211715Z 2118/2218 09005KT CAVOK"
    },
    {
      "icao": "LHDC",
      "alert": "OK",
      "vis_m": 5000,
      "fzfg": false,
      "metar_trigger": false,
      "taf_trigger": false,
      "metar": "METAR LHDC 211815Z AUTO VRB02KT 5000 BR NSC M05/M07 Q1012 NOSIG",
      "taf": ""
    },
    {
      "icao": "LIBD",
      "alert": "OK",
      "vis_m": 6000,
      "fzfg": false,
      "metar_trigger": false,
      "taf_trigger": false,
      "metar": "METAR LIBD 211850Z 09014KT 6000 -RA BKN007 11/10 Q1001",
      "taf": "TAF LIBD 211700Z 2118/2218 11015KT 7000 BKN020"
    },
    {
      "icao": "LIBG",
      "alert": "OK",
      "vis_m": 5000,
      "fzfg": false,
      "metar_trigger": false,
      "taf_trigger": false,
      "metar": "METAR LIBG 211750Z 10006KT 5000 SHRA BKN025 10/10 Q1002",
      "taf": "TAF LIBG 211700Z 2118/2203 07012KT 7000 SCT015 BKN030"
    },
    {
      "icao": "LIBP",
      "alert": "OK",
      "vis_m": 2600,
      "fzfg": false,
      "metar_trigger": false,
      "taf_trigger": false,
      "metar": "METAR LIBP 211850Z AUTO 22006KT 2600 DZ BR OVC015/// 07/07 Q1005",
      "taf": "TAF LIBP 211700Z 2118/2218 28006KT 9999 BKN040"
    },
    {
      "icao": "LIBR",
      "alert": "OK",
      "vis_m": 9999,
      "fzfg": false,
      "metar_trigger": false,
      "taf_trigger": false,
      "metar": "METAR LIBR 211850Z 16008KT 9999 BKN040 12/09 Q1002",
      "taf": "TAF LIBR 211700Z 2118/2218 12012KT 8000 BKN030"
    },
    {
      "icao": "LICA",
      "alert": "OK",
      "vis_m": 9999,
      "fzfg": false,
      "metar_trigger": false,
      "taf_trigger": false,
      "metar": "METAR LICA 211850Z AUTO 06011KT 9999 NCD 12/10 Q1000",
      "taf": "TAF LICA 211700Z 2118/2218 08018G30KT 9999 BKN040"
    },
    {
      "icao": "LICC",
      "alert": "OK",
      "vis_m": 9999,
      "fzfg": false,
      "metar_trigger": false,
      "taf_trigger": false,
      "metar": "METAR LICC 211850Z VRB02KT 9999 SCT070 11/09 Q1000",
      "taf": "TAF LICC 211700Z 2118/2218 VRB05KT 7000 SCT020"
    },
    {
      "icao": "LICJ",
      "alert": "OK",
      "vis_m": 9999,
      "fzfg": false,
      "metar_trigger": false,
      "taf_trigger": false,
      "metar": "METAR LICJ 211850Z 19006KT 9999 FEW020 SCT060 12/10 Q0999",
      "taf": "TAF LICJ 211700Z 2118/2218 34012KT 9999 SCT030"
    },
    {
      "icao": "LIMC",
      "alert": "OK",
      "vis_m": 8000,
      "fzfg": false,
      "metar_trigger": false,
      "taf_trigger": false,
      "metar": "METAR LIMC 211850Z VRB02KT 8000 NSC 02/M00 Q1006 NOSIG",
      "taf": "TAF LIMC 211700Z 2118/2224 VRB04KT 7000 FEW020"
    },
    {
      "icao": "LIME",
      "alert": "OK",
      "vis_m": 9999,
      "fzfg": false,
      "metar_trigger": false,
      "taf_trigger": false,
      "metar": "METAR LIME 211850Z 06002KT CAVOK 00/M02 Q1006 NOSIG",
      "taf": "TAF LIME 211700Z 2118/2218 VRB04KT 7000 FEW020"
    },
    {
      "icao": "LIMF",
      "alert": "OK",
      "vis_m": 6000,
      "fzfg": false,
      "metar_trigger": false,
      "taf_trigger": false,
      "metar": "METAR LIMF 211850Z VRB02KT 6000 NSC 03/M01 Q1005",
      "taf": "TAF LIMF 211700Z 2118/2218 VRB04KT 6000 FEW050"
    },
    {
      "icao": "LIMJ",
      "alert": "OK",
      "vis_m": 9999,
      "fzfg": false,
      "metar_trigger": false,
      "taf_trigger": false,
      "metar": "METAR LIMJ 211850Z 02015G26KT 350V060 CAVOK 06/00 Q1004",
      "taf": "TAF LIMJ 211700Z 2118/2218 02015KT CAVOK"
    },
    {
      "icao": "LIPE",
      "alert": "OK",
      "vis_m": 9999,
      "fzfg": false,
      "metar_trigger": false,
      "taf_trigger": false,
      "metar": "METAR LIPE 211850Z VRB01KT 9999 BKN055 04/M00 Q1007",
      "taf": "TAF LIPE 211700Z 2118/2218 VRB05KT 7000 BKN040"
    },
    {
      "icao": "LIPH",
      "alert": "OK",
      "vis_m": 9999,
      "fzfg": false,
      "metar_trigger": false,
      "taf_trigger": false,
      "metar": "METAR LIPH 211850Z VRB02KT CAVOK 00/M06 Q1007",
      "taf": "TAF LIPH 211700Z 2118/2218 VRB05KT CAVOK"
    },
    {
      "icao": "LIPQ",
      "alert": "OK",
      "vis_m": 9999,
      "fzfg": false,
      "metar_trigger": false,
      "taf_trigger": false,
      "metar": "METAR LIPQ 211850Z AUTO 04004KT 9999 NCD 00/M07 Q1007",
      "taf": "TAF LIPQ 211700Z 2118/2218 VRB05KT CAVOK"
    },
    {
      "icao": "LIPR",
      "alert": "OK",
      "vis_m": 9999,
      "fzfg": false,
      "metar_trigger": false,
      "taf_trigger": false,
      "metar": "METAR LIPR 211850Z 28008KT 9999 BKN020 04/M00 Q1007",
      "taf": "TAF LIPR 211700Z 2118/2218 30008KT 9999 BKN025"
    },
    {
      "icao": "LIPX",
      "alert": "OK",
      "vis_m": 9999,
      "fzfg": false,
      "metar_trigger": false,
      "taf_trigger": false,
      "metar": "METAR LIPX 211850Z 35003KT CAVOK M01/M04 Q1007",
      "taf": "TAF LIPX 211700Z 2118/2218 VRB04KT 9000 FEW050"
    },
    {
      "icao": "LIPY",
      "alert": "OK",
      "vis_m": 9999,
      "fzfg": false,
      "metar_trigger": false,
      "taf_trigger": false,
      "metar": "METAR LIPY 211850Z AUTO 25005KT 9999 OVC033/// 05/02 Q1006",
      "taf": "TAF LIPY 211700Z 2118/2218 26006KT 9999 SCT015 BKN030"
    },
    {
      "icao": "LIPZ",
      "alert": "OK",
      "vis_m": 9999,
      "fzfg": false,
      "metar_trigger": false,
      "taf_trigger": false,
      "metar": "METAR LIPZ 211850Z 33005KT CAVOK 00/M05 Q1007 NOSIG",
      "taf": "TAF LIPZ 211700Z 2118/2224 02006KT CAVOK"
    },
    {
      "icao": "LIRF",
      "alert": "OK",
      "vis_m": 9999,
      "fzfg": false,
      "metar_trigger": false,
      "taf_trigger": false,
      "metar": "METAR LIRF 211850Z 04002KT CAVOK 08/03 Q1002 NOSIG",
      "taf": "TAF LIRF 211700Z 2118/2224 34007KT 9999 SCT050"
    },
    {
      "icao": "LIRN",
      "alert": "OK",
      "vis_m": 9999,
      "fzfg": false,
      "metar_trigger": false,
      "taf_trigger": false,
      "metar": "METAR LIRN 211850Z 01009KT 9999 FEW080 09/05 Q1001 NOSIG",
      "taf": "TAF LIRN 211700Z 2118/2218 05012KT 9999 BKN060"
    },
    {
      "icao": "LIRP",
      "alert": "OK",
      "vis_m": 9999,
      "fzfg": false,
      "metar_trigger": false,
      "taf_trigger": false,
      "metar": "METAR LIRP 211845Z 13006KT CAVOK 05/02 Q1004 NOSIG",
      "taf": "TAF LIRP 211700Z 2118/2218 11006KT CAVOK"
    },
    {
      "icao": "LIRZ",
      "alert": "OK",
      "vis_m": 9999,
      "fzfg": false,
      "metar_trigger": false,
      "taf_trigger": false,
      "metar": "METAR LIRZ 211850Z AUTO 36009KT 9999 OVC062/// 06/02 Q1003",
      "taf": "TAF LIRZ 211700Z 2118/2218 02015KT 9999 SCT060"
    },
    {
      "icao": "LJLJ",
      "alert": "OK",
      "vis_m": 8000,
      "fzfg": false,
      "metar_trigger": false,
      "taf_trigger": false,
      "metar": "METAR LJLJ 211830Z 20003KT 180V240 8000 OVC013 M06/M09 Q1009 NOSIG",
      "taf": "TAF LJLJ 211700Z 2118/2218 12003KT 9999 OVC015"
    },
    {
      "icao": "LKMT",
      "alert": "OK",
      "vis_m": 9999,
      "fzfg": false,
      "metar_trigger": false,
      "taf_trigger": false,
      "metar": "METAR LKMT 211830Z 18004KT 120V230 CAVOK M02/M09 Q1009 NOSIG",
      "taf": "TAF LKMT 211700Z 2118/2218 23014KT CAVOK"
    },
    {
      "icao": "LKPR",
      "alert": "OK",
      "vis_m": 8000,
      "fzfg": false,
      "metar_trigger": false,
      "taf_trigger": false,
      "metar": "METAR LKPR 211830Z 33003KT 8000 NSC M08/M10 Q1007 NOSIG",
      "taf": "TAF LKPR 211700Z 2118/2224 16005KT CAVOK"
    },
    {
      "icao": "LLBG",
      "alert": "OK",
      "vis_m": 9999,
      "fzfg": false,
      "metar_trigger": false,
      "taf_trigger": false,
      "metar": "METAR LLBG 211850Z 12004KT 080V170 CAVOK 17/M02 Q1018 NOSIG RMK BKN110",
      "taf": "TAF LLBG 211703Z 2118/2218 11010KT CAVOK"
    },
    {
      "icao": "LMML",
      "alert": "OK",
      "vis_m": 9999,
      "fzfg": false,
      "metar_trigger": false,
      "taf_trigger": false,
      "metar": "METAR LMML 211845Z 09004KT 9999 BKN022 11/10 Q1000 NOSIG",
      "taf": "TAF LMML 211700Z 2118/2218 20010KT 9999 SCT015"
    },
    {
      "icao": "LOWW",
      "alert": "OK",
      "vis_m": 7000,
      "fzfg": false,
      "metar_trigger": false,
      "taf_trigger": false,
      "metar": "METAR LOWW 211850Z 15010KT 7000 OVC007 M05/M07 Q1009 NOSIG",
      "taf": "TAF LOWW 211715Z 2118/2224 14013KT 4000 BR OVC006 TXM03/2214Z TNM07/2205Z"
    },
    {
      "icao": "LPFR",
      "alert": "OK",
      "vis_m": 9999,
      "fzfg": false,
      "metar_trigger": false,
      "taf_trigger": false,
      "metar": "METAR LPFR 211830Z 30008KT 9999 FEW008 SCT012 BKN030 15/14 Q1007",
      "taf": "TAF LPFR 211700Z 2118/2218 29015KT 9999 SCT020"
    },
    {
      "icao": "LPMA",
      "alert": "OK",
      "vis_m": 9999,
      "fzfg": false,
      "metar_trigger": false,
      "taf_trigger": false,
      "metar": "METAR LPMA 211830Z VRB02KT 9999 FEW013 18/14 Q1019",
      "taf": "TAF LPMA 211700Z 2118/2218 VRB05KT 9999 SCT015"
    },
    {
      "icao": "LPPR",
      "alert": "OK",
      "vis_m": 8000,
      "fzfg": false,
      "metar_trigger": false,
      "taf_trigger": false,
      "metar": "METAR LPPR 211830Z 31014G28KT 8000 -SHRA SCT020 FEW024CB SCT045 11/07 Q1000 RESHRA",
      "taf": "TAF LPPR 211700Z 2118/2218 30013KT 9999 SCT020"
    },
    {
      "icao": "LPPS",
      "alert": "OK",
      "vis_m": 5000,
      "fzfg": false,
      "metar_trigger": false,
      "taf_trigger": false,
      "metar": "METAR LPPS 211830Z 30015KT 5000 -DZ BR SCT004 BKN010 17/16 Q1019",
      "taf": "TAF LPPS 211700Z 2118/2224 29015KT 9999 SCT015"
    },
    {
      "icao": "LPPT",
      "alert": "OK",
      "vis_m": 9999,
      "fzfg": false,
      "metar_trigger": false,
      "taf_trigger": false,
      "metar": "METAR LPPT 211830Z 27008KT 230V320 9999 FEW010 SCT018 BKN034 14/09 Q1006",
      "taf": "TAF LPPT 211700Z 2118/2224 30012KT 9999 SCT020"
    },
    {
      "icao": "LQBK",
      "alert": "OK",
      "vis_m": 8000,
      "fzfg": false,
      "metar_trigger": false,
      "taf_trigger": false,
      "metar": "METAR LQBK 211830Z 03002KT 8000 OVC012 M03/M05 Q1011 NOSIG",
      "taf": "TAF LQBK 211700Z 2118/2218 VRB03KT 7000 BKN012 OVC024 TX01/2213Z TNM04/2205Z"
    },
    {
      "icao": "LQSA",
      "alert": "OK",
      "vis_m": 4000,
      "fzfg": false,
      "metar_trigger": false,
      "taf_trigger": false,
      "metar": "METAR LQSA 211830Z 00000KT 4000 BR BKN055 M03/M05 Q1008 NOSIG",
      "taf": "TAF LQSA 211700Z 2118/2218 VRB02KT 4000 BR SCT010 BKN020 TXM00/2214Z TNM06/2200Z"
    },
    {
      "icao": "LQTZ",
      "alert": "OK",
      "vis_m": 4100,
      "fzfg": false,
      "metar_trigger": false,
      "taf_trigger": false,
      "metar": "METAR LQTZ 211830Z 00000KT 4100 BR BKN010 OVC055 M05/M05 Q1010",
      "taf": ""
    },
    {
      "icao": "LRBC",
      "alert": "OK",
      "vis_m": 6000,
      "fzfg": false,
      "metar_trigger": false,
      "taf_trigger": false,
      "metar": "METAR LRBC 211830Z 17012KT 6000 OVC004 M02/M04 Q1015",
      "taf": "TAF LRBC 211700Z 2118/2203 17012KT 8000 OVC005"
    },
    {
      "icao": "LRBS",
      "alert": "OK",
      "vis_m": 5000,
      "fzfg": false,
      "metar_trigger": false,
      "taf_trigger": false,
      "metar": "METAR LRBS 211830Z 04003KT 010V070 5000 BR NSC M03/M03 Q1016 NOSIG",
      "taf": "TAF LRBS 211700Z 2118/2218 06006KT 3000 BR BKN002"
    },
    {
      "icao": "LRBV",
      "alert": "OK",
      "vis_m": 8000,
      "fzfg": false,
      "metar_trigger": false,
      "taf_trigger": false,
      "metar": "METAR LRBV 211830Z 00000KT 8000 NSC M07/M08 Q1012",
      "taf": "TAF LRBV 211700Z 2118/2203 VRB04KT 5000 BR NSC"
    },
    {
      "icao": "LRCL",
      "alert": "OK",
      "vis_m": 5000,
      "fzfg": false,
      "metar_trigger": false,
      "taf_trigger": false,
      "metar": "METAR LRCL 211830Z 12001KT 5000 BR NSC M10/M11 Q1012",
      "taf": "TAF LRCL 211700Z 2118/2203 VRB04KT 5000 BR NSC"
    },
    {
      "icao": "LRCV",
      "alert": "OK",
      "vis_m": 7000,
      "fzfg": false,
      "metar_trigger": false,
      "taf_trigger": false,
      "metar": "METAR LRCV 211830Z 08004KT 7000 SCT030 M03/M05 Q1015",
      "taf": "TAF LRCV 211700Z 2118/2203 11008KT CAVOK"
    },
    {
      "icao": "LRIA",
      "alert": "OK",
      "vis_m": 9999,
      "fzfg": false,
      "metar_trigger": false,
      "taf_trigger": false,
      "metar": "METAR LRIA 211830Z 11007KT CAVOK M03/M04 Q1015",
      "taf": "TAF LRIA 211700Z 2118/2203 12008KT CAVOK"
    },
    {
      "icao": "LROP",
      "alert": "OK",
      "vis_m": 5000,
      "fzfg": false,
      "metar_trigger": false,
      "taf_trigger": false,
      "metar": "METAR LROP 211830Z 05007KT 5000 BR NSC M03/M04 Q1016 NOSIG",
      "taf": "TAF LROP 211700Z 2118/2218 06006KT 3000 BR BKN002"
    },
    {
      "icao": "LRSB",
      "alert": "OK",
      "vis_m": 6000,
      "fzfg": false,
      "metar_trigger": false,
      "taf_trigger": false,
      "metar": "METAR LRSB 211830Z 03004KT 330V070 6000 BKN070 M04/M05 Q1011",
      "taf": "TAF LRSB 211700Z 2118/2218 VRB04KT 5000 BR NSC"
    },
    {
      "icao": "LRSM",
      "alert": "OK",
      "vis_m": 8000,
      "fzfg": false,
      "metar_trigger": false,
      "taf_trigger": false,
      "metar": "METAR LRSM 211830Z AUTO VRB02KT 8000 NCD M08/M10 Q1011",
      "taf": "TAF LRSM 211400Z 2115/2124 VRB04KT CAVOK"
    },
    {
      "icao": "LRSV",
      "alert": "CRITICAL",
      "vis_m": 100,
      "fzfg": true,
      "metar_trigger": true,
      "taf_trigger": true,
      "metar": "METAR LRSV 211830Z 11003KT 0100 R34/0275N FZFG VV001 M09/M10 Q1012",
      "taf": "TAF LRSV 211700Z 2118/2203 VRB04KT 0100 FZFG VV001"
    },
    {
      "icao": "LRTM",
      "alert": "OK",
      "vis_m": 2900,
      "fzfg": false,
      "metar_trigger": false,
      "taf_trigger": false,
      "metar": "METAR LRTM 211830Z AUTO 11002KT 2900 BR NCD M13/M15 Q1013",
      "taf": "TAF LRTM 211400Z 2115/2124 VRB04KT 1500 BR BKN002"
    },
    {
      "icao": "LRTR",
      "alert": "OK",
      "vis_m": 7000,
      "fzfg": false,
      "metar_trigger": false,
      "taf_trigger": false,
      "metar": "METAR LRTR 211830Z VRB01KT 7000 SCT046 M02/M05 Q1011",
      "taf": "TAF LRTR 211700Z 2118/2218 10006KT 7000 NSC"
    },
    {
      "icao": "LTAC",
      "alert": "OK",
      "vis_m": 9999,
      "fzfg": false,
      "metar_trigger": false,
      "taf_trigger": false,
      "metar": "METAR LTAC 211850Z 30003KT 240V350 9999 SCT040 BKN100 M03/M07 Q1020 NOSIG RMK RWY21C 10005KT RWY03L 34003KT 260V020 RWY21R 09006KT RWY03R 05006KT RWY21L 12004KT",
      "taf": "TAF LTAC 211640Z 2118/2218 VRB02KT 9999 SCT040 BKN100"
    },
    {
      "icao": "LTFM",
      "alert": "OK",
      "vis_m": 9999,
      "fzfg": false,
      "metar_trigger": false,
      "taf_trigger": false,
      "metar": "METAR LTFM 211850Z 13004KT 080V140 9999 -RA BKN035 BKN090 06/01 Q1016 NOSIG RMK RWY17L 08003KT RWY34L 10003KT RWY16R VRB01KT RWY36 11005KT 030V140 RWY18 13003KT 090V160",
      "taf": "TAF LTFM 211640Z 2118/2224 VRB02KT 9999 -RA BKN032 BKN080"
    },
    {
      "icao": "LUKK",
      "alert": "OK",
      "vis_m": 9999,
      "fzfg": false,
      "metar_trigger": false,
      "taf_trigger": false,
      "metar": "METAR LUKK 211830Z 19011KT 9999 OVC014 M01/M02 Q1017 NOSIG",
      "taf": "TAF LUKK 211724Z 2118/2218 16008KT 9999 BKN010"
    },
    {
      "icao": "LWOH",
      "alert": "OK",
      "vis_m": 9999,
      "fzfg": false,
      "metar_trigger": false,
      "taf_trigger": false,
      "metar": "METAR LWOH 211850Z 03009KT 360V090 9999 FEW020 BKN035 03/M01 Q1008",
      "taf": "TAF LWOH 211730Z 2118/2218 03010KT 9999 SCT020 BKN040"
    },
    {
      "icao": "LWSK",
      "alert": "OK",
      "vis_m": 3500,
      "fzfg": false,
      "metar_trigger": false,
      "taf_trigger": false,
      "metar": "METAR LWSK 211850Z VRB01KT 3500 BR SCT017 BKN030 M00/M01 Q1012 NOSIG",
      "taf": ""
    },
    {
      "icao": "LYBE",
      "alert": "OK",
      "vis_m": 7000,
      "fzfg": false,
      "metar_trigger": false,
      "taf_trigger": false,
      "metar": "METAR LYBE 211830Z 31004KT 7000 SCT007 BKN022 M05/M06 Q1012 TEMPO BKN006",
      "taf": "TAF LYBE 211700Z 2118/2218 30005KT 5000 BR BKN006 TX02/2212Z TNM06/2205Z"
    },
    {
      "icao": "LYNI",
      "alert": "OK",
      "vis_m": 9999,
      "fzfg": false,
      "metar_trigger": false,
      "taf_trigger": false,
      "metar": "METAR LYNI 211830Z 10015KT 9999 FEW050 03/M04 Q1011 NOSIG",
      "taf": "TAF LYNI 211700Z 2118/2218 10015KT 9999 SCT040 SCT080 TX05/2213Z TN01/2205Z"
    },
    {
      "icao": "LYPG",
      "alert": "OK",
      "vis_m": 8000,
      "fzfg": false,
      "metar_trigger": false,
      "taf_trigger": false,
      "metar": "METAR LYPG 211830Z 35002KT 8000 FEW013 BKN050 OVC070 04/04 Q1007 NOSIG",
      "taf": "TAF LYPG 211700Z 2118/2218 02005KT 8000 FEW010 BKN040 OVC070 TX11/2213Z TN04/2120Z"
    },
    {
      "icao": "LZIB",
      "alert": "OK",
      "vis_m": 9999,
      "fzfg": false,
      "metar_trigger": false,
      "taf_trigger": false,
      "metar": "METAR LZIB 211830Z 11005KT 9999 FEW010 M05/M07 Q1010 NOSIG",
      "taf": "TAF LZIB 211724Z 2118/2218 12005KT 9999 FEW011"
    },
    {
      "icao": "LZKZ",
      "alert": "OK",
      "vis_m": 9999,
      "fzfg": false,
      "metar_trigger": false,
      "taf_trigger": false,
      "metar": "METAR LZKZ 211830Z 15003KT CAVOK M08/M12 Q1011 NOSIG",
      "taf": "TAF LZKZ 211724Z 2118/2218 VRB02KT CAVOK"
    },
    {
      "icao": "LZTT",
      "alert": "OK",
      "vis_m": 9999,
      "fzfg": false,
      "metar_trigger": false,
      "taf_trigger": false,
      "metar": "METAR LZTT 211830Z 16006KT 120V180 CAVOK M07/M13 Q1008",
      "taf": "TAF LZTT 211724Z 2118/2218 27005KT CAVOK"
    },
    {
      "icao": "OEJN",
      "alert": "OK",
      "vis_m": 9999,
      "fzfg": false,
      "metar_trigger": false,
      "taf_trigger": false,
      "metar": "METAR OEJN 211800Z 36006KT CAVOK 25/17 Q1014 NOSIG",
      "taf": "TAF OEJN 211700Z 2118/2224 03006KT CAVOK"
    },
    {
      "icao": "OEMA",
      "alert": "OK",
      "vis_m": 9999,
      "fzfg": false,
      "metar_trigger": false,
      "taf_trigger": false,
      "metar": "METAR OEMA 211800Z 06014KT CAVOK 18/M04 Q1023 NOSIG",
      "taf": "TAF OEMA 211700Z 2118/2224 09015KT 7000 NSC"
    },
    {
      "icao": "OJAI",
      "alert": "OK",
      "vis_m": 4000,
      "fzfg": false,
      "metar_trigger": false,
      "taf_trigger": false,
      "metar": "METAR OJAI 211800Z 09017KT 4000 BLDU NSC 07/M02 Q1024 NOSIG",
      "taf": ""
    },
    {
      "icao": "OMAA",
      "alert": "OK",
      "vis_m": 9999,
      "fzfg": false,
      "metar_trigger": false,
      "taf_trigger": false,
      "metar": "METAR OMAA 211800Z 29013KT 9999 SCT035 18/10 Q1019 NOSIG",
      "taf": "TAF OMAA 211700Z 2118/2300 30012KT 8000 SCT040"
    },
    {
      "icao": "OMDB",
      "alert": "OK",
      "vis_m": 9999,
      "fzfg": false,
      "metar_trigger": false,
      "taf_trigger": false,
      "metar": "METAR OMDB 211830Z 27013KT 250V310 CAVOK 18/05 Q1019 NOSIG",
      "taf": "TAF OMDB 211700Z 2118/2300 28016KT 8000 SCT035"
    },
    {
      "icao": "UAAA",
      "alert": "OK",
      "vis_m": 1900,
      "fzfg": false,
      "metar_trigger": false,
      "taf_trigger": false,
      "metar": "METAR UAAA 211830Z 26004MPS 1900 R05R/P2000 BR BKN005 M13/M14 Q1012 NOSIG RMK QBB160",
      "taf": "TAF UAAA 211700Z 2118/2218 24003MPS 1000 BR FU SCT011 BKN050 TXM04/2208Z TNM12/2202Z"
    },
    {
      "icao": "UBBB",
      "alert": "OK",
      "vis_m": 9999,
      "fzfg": false,
      "metar_trigger": false,
      "taf_trigger": false,
      "metar": "METAR UBBB 211830Z 00000KT CAVOK M01/M03 Q1028 NOSIG",
      "taf": "TAF UBBB 211708Z 2118/2218 20010KT 9999 SCT015 TX06/2210Z TN00/2201Z"
    },
    {
      "icao": "UDSG",
      "alert": "OK",
      "vis_m": 9999,
      "fzfg": false,
      "metar_trigger": false,
      "taf_trigger": false,
      "metar": "METAR UDSG 211830Z 08002KT 9999 NSC M15/M19 Q1024 NOSIG",
      "taf": "TAF UDSG 211700Z 2118/2218 VRB06KT 9999 FEW050"
    },
    {
      "icao": "UDYZ",
      "alert": "OK",
      "vis_m": 9999,
      "fzfg": false,
      "metar_trigger": false,
      "taf_trigger": false,
      "metar": "METAR UDYZ 211830Z VRB02KT 9999 NSC M07/M09 Q1028 NOSIG",
      "taf": "TAF UDYZ 211700Z 2118/2218 VRB04KT 6000 NSC"
    },
    {
      "icao": "UGKO",
      "alert": "OK",
      "vis_m": 9999,
      "fzfg": false,
      "metar_trigger": false,
      "taf_trigger": false,
      "metar": "METAR UGKO 211830Z 08010KT CAVOK M00/M01 Q1027 NOSIG",
      "taf": "TAF UGKO 211700Z 2118/2218 08010KT CAVOK TX08/2211Z TNM01/2204Z"
    }
  ]
}