{
  "ts_utc": "2026-02-07T09:41:36Z",
  "threshold_m": 150,
  "source": "stations_override.txt (ICAO list) + aviationweather.gov (METAR/TAF raw)",
  "station_count": 159,
  "stations": [
    {
      "icao": "BIKF",
      "alert": "OK",
      "vis_m": 9999,
      "fzfg": false,
      "metar_trigger": false,
      "taf_trigger": false,
      "metar": "METAR BIKF 070930Z 06006KT CAVOK 02/M00 Q1009",
      "taf": "TAF BIKF 070740Z 0709/0809 09008KT CAVOK TX03/0714Z TNM02/0803Z"
    },
    {
      "icao": "BKPR",
      "alert": "OK",
      "vis_m": 9999,
      "fzfg": false,
      "metar_trigger": false,
      "taf_trigger": false,
      "metar": "METAR BKPR 070930Z 24014KT 220V280 9999 SCT070 11/06 Q1004 NOSIG",
      "taf": "TAF BKPR 070530Z 0706/0806 25010KT 9999 SCT020 BKN050"
    },
    {
      "icao": "EBCI",
      "alert": "OK",
      "vis_m": 9999,
      "fzfg": false,
      "metar_trigger": false,
      "taf_trigger": false,
      "metar": "METAR EBCI 070920Z 17008KT 150V210 CAVOK 08/06 Q1002 NOSIG",
      "taf": ""
    },
    {
      "icao": "EDDB",
      "alert": "OK",
      "vis_m": 1000,
      "fzfg": false,
      "metar_trigger": false,
      "taf_trigger": false,
      "metar": "METAR EDDB 070920Z AUTO 08004KT 050V120 1000 0900 R06L/1300U R06R/1900N BCFG BKN002 01/01 Q1005 TEMPO 0300 FG BKN001",
      "taf": ""
    },
    {
      "icao": "EDDH",
      "alert": "OK",
      "vis_m": 3700,
      "fzfg": false,
      "metar_trigger": false,
      "taf_trigger": false,
      "metar": "METAR EDDH 070920Z AUTO 10006KT 3700 -DZ BR OVC003 01/01 Q1004 TEMPO 2000 DZ",
      "taf": "TAF EDDH 070500Z 0706/0812 08007KT 3500 BR OVC003"
    },
    {
      "icao": "EDDK",
      "alert": "OK",
      "vis_m": 9999,
      "fzfg": false,
      "metar_trigger": false,
      "taf_trigger": false,
      "metar": "METAR EDDK 070920Z AUTO 15006KT 9999 BKN029 08/06 Q1004 NOSIG",
      "taf": ""
    },
    {
      "icao": "EDDN",
      "alert": "OK",
      "vis_m": 2800,
      "fzfg": false,
      "metar_trigger": false,
      "taf_trigger": false,
      "metar": "METAR EDDN 070920Z AUTO 12004KT 2800 1400 R28/1900N BR OVC005 04/04 Q1004 REDZ NOSIG",
      "taf": "TAF EDDN 070500Z 0706/0806 13005KT 5000 BR OVC007"
    },
    {
      "icao": "EDDS",
      "alert": "OK",
      "vis_m": 9999,
      "fzfg": false,
      "metar_trigger": false,
      "taf_trigger": false,
      "metar": "METAR EDDS 070920Z AUTO VRB02KT 9999 FEW028 07/05 Q1004 NOSIG",
      "taf": "TAF EDDS 070500Z 0706/0806 VRB02KT 9999 SCT035"
    },
    {
      "icao": "EDFH",
      "alert": "OK",
      "vis_m": 9999,
      "fzfg": false,
      "metar_trigger": false,
      "taf_trigger": false,
      "metar": "METAR EDFH 070920Z 27006KT 9999 SCT005 OVC008 06/05 Q1003",
      "taf": ""
    },
    {
      "icao": "EDJA",
      "alert": "OK",
      "vis_m": 9999,
      "fzfg": false,
      "metar_trigger": false,
      "taf_trigger": false,
      "metar": "METAR EDJA 070920Z 21004KT 9999 FEW010 07/04 Q1004",
      "taf": "TAF EDJA 070800Z 0709/0718 VRB02KT 9999 BKN040"
    },
    {
      "icao": "EDLW",
      "alert": "OK",
      "vis_m": 9999,
      "fzfg": false,
      "metar_trigger": false,
      "taf_trigger": false,
      "metar": "METAR EDLW 070920Z 19007KT 9999 SCT048 09/07 Q1002",
      "taf": "TAF EDLW 070500Z 0706/0806 18007KT 9999 SCT030"
    },
    {
      "icao": "EDNY",
      "alert": "OK",
      "vis_m": 9999,
      "fzfg": false,
      "metar_trigger": false,
      "taf_trigger": false,
      "metar": "METAR EDNY 070920Z 15003KT CAVOK 08/06 Q1005",
      "taf": "TAF EDNY 070800Z 0709/0718 VRB02KT 9999 BKN040"
    },
    {
      "icao": "EDSB",
      "alert": "OK",
      "vis_m": 9999,
      "fzfg": false,
      "metar_trigger": false,
      "taf_trigger": false,
      "metar": "METAR EDSB 070920Z 24004KT 190V290 9999 SCT028 09/07 Q1005",
      "taf": "TAF EDSB 070500Z 0706/0806 21004KT 9999 BKN025"
    },
    {
      "icao": "EETN",
      "alert": "OK",
      "vis_m": 9999,
      "fzfg": false,
      "metar_trigger": false,
      "taf_trigger": false,
      "metar": "METAR EETN 070920Z 08007KT 9999 SCT006 M09/M10 Q1015 NOSIG",
      "taf": "TAF EETN 070530Z 0706/0806 05010KT 8000 BKN005 OVC010"
    },
    {
      "icao": "EFTU",
      "alert": "OK",
      "vis_m": 9999,
      "fzfg": false,
      "metar_trigger": false,
      "taf_trigger": false,
      "metar": "METAR EFTU 070920Z AUTO 03004KT 360V070 CAVOK M17/M20 Q1018",
      "taf": "TAF EFTU 070834Z 0709/0809 04005KT CAVOK"
    },
    {
      "icao": "EGBB",
      "alert": "OK",
      "vis_m": 6000,
      "fzfg": false,
      "metar_trigger": false,
      "taf_trigger": false,
      "metar": "METAR EGBB 070920Z 12010KT 6000 -RA BKN007 07/07 Q0991 RERA",
      "taf": ""
    },
    {
      "icao": "EGGP",
      "alert": "OK",
      "vis_m": 9999,
      "fzfg": false,
      "metar_trigger": false,
      "taf_trigger": false,
      "metar": "METAR EGGP 070920Z 09009KT 9999 SCT013 BKN018 07/06 Q0991",
      "taf": "TAF EGGP 070500Z 0706/0806 12006KT 9999 BKN016"
    },
    {
      "icao": "EGGW",
      "alert": "OK",
      "vis_m": 9999,
      "fzfg": false,
      "metar_trigger": false,
      "taf_trigger": false,
      "metar": "METAR EGGW 070920Z AUTO 15010KT 9999 BKN006/// OVC010/// //////TCU 07/07 Q0993",
      "taf": ""
    },
    {
      "icao": "EGKK",
      "alert": "OK",
      "vis_m": 9999,
      "fzfg": false,
      "metar_trigger": false,
      "taf_trigger": false,
      "metar": "METAR EGKK 070920Z 17010KT 140V210 9999 -RA BKN012 09/08 Q0994",
      "taf": "TAF EGKK 070454Z 0706/0812 17008KT 9999 SCT018"
    },
    {
      "icao": "EGNM",
      "alert": "OK",
      "vis_m": 350,
      "fzfg": false,
      "metar_trigger": false,
      "taf_trigger": false,
      "metar": "METAR EGNM 070920Z 11005KT 080V140 0350 R14/0800U FG VV/// 05/05 Q0993",
      "taf": "TAF EGNM 070459Z 0706/0806 10004KT 0300 FG BKN001"
    },
    {
      "icao": "EGPD",
      "alert": "OK",
      "vis_m": 2400,
      "fzfg": false,
      "metar_trigger": false,
      "taf_trigger": false,
      "metar": "METAR EGPD 070920Z AUTO 11010KT 080V140 2400 +RA BKN005/// OVC026/// //////TCU 05/04 Q0998 TEMPO BKN004",
      "taf": ""
    },
    {
      "icao": "EGPF",
      "alert": "OK",
      "vis_m": 9999,
      "fzfg": false,
      "metar_trigger": false,
      "taf_trigger": false,
      "metar": "METAR EGPF 070920Z AUTO 07010KT 9999 -RA BKN010/// BKN033/// OVC042/// //////TCU 06/05 Q0994",
      "taf": "TAF EGPF 070458Z 0706/0806 07009KT 9999 BKN020"
    },
    {
      "icao": "EHBK",
      "alert": "OK",
      "vis_m": 9999,
      "fzfg": false,
      "metar_trigger": false,
      "taf_trigger": false,
      "metar": "METAR EHBK 070925Z AUTO 19010KT 9999 NSC 09/06 Q1002 NOSIG",
      "taf": "TAF EHBK 070513Z 0706/0812 18006KT CAVOK"
    },
    {
      "icao": "EHEH",
      "alert": "OK",
      "vis_m": 9999,
      "fzfg": false,
      "metar_trigger": false,
      "taf_trigger": false,
      "metar": "METAR EHEH 070925Z AUTO 18006KT 150V220 9999 NCD 08/07 Q1002 BLU NOSIG RMK TREND REMOTE BY EHWX",
      "taf": "TAF EHEH 070538Z 0706/0812 18007KT CAVOK"
    },
    {
      "icao": "EKBI",
      "alert": "OK",
      "vis_m": 9999,
      "fzfg": false,
      "metar_trigger": false,
      "taf_trigger": false,
      "metar": "METAR EKBI 070920Z AUTO 08014KT 9999 OVC005/// M00/M00 Q1007",
      "taf": "TAF EKBI 070827Z 0709/0809 09015KT 6000 BKN007"
    },
    {
      "icao": "EKCH",
      "alert": "OK",
      "vis_m": 9999,
      "fzfg": false,
      "metar_trigger": false,
      "taf_trigger": false,
      "metar": "METAR EKCH 070920Z 07012KT 9999 OVC012 01/M01 Q1009 TEMPO BKN009",
      "taf": "TAF EKCH 070827Z 0709/0809 07012KT 9999 OVC012"
    },
    {
      "icao": "ENAL",
      "alert": "OK",
      "vis_m": 9999,
      "fzfg": false,
      "metar_trigger": false,
      "taf_trigger": false,
      "metar": "METAR ENAL 070920Z 12008KT 080V140 CAVOK 04/M09 Q1010",
      "taf": "TAF ENAL 070500Z 0706/0715 14012KT CAVOK"
    },
    {
      "icao": "ENBR",
      "alert": "OK",
      "vis_m": 9999,
      "fzfg": false,
      "metar_trigger": false,
      "taf_trigger": false,
      "metar": "METAR ENBR 070920Z 06002KT 9999 BKN053 01/M04 Q1009 NOSIG RMK WIND 1200FT 06003KT",
      "taf": "TAF ENBR 070500Z 0706/0806 04003KT 9999 BKN050"
    },
    {
      "icao": "ENGM",
      "alert": "OK",
      "vis_m": 9999,
      "fzfg": false,
      "metar_trigger": false,
      "taf_trigger": false,
      "metar": "METAR ENGM 070920Z 03007KT 9999 BKN018 M07/M10 Q1017 TEMPO -FZDZ",
      "taf": ""
    },
    {
      "icao": "ENHD",
      "alert": "OK",
      "vis_m": 9999,
      "fzfg": false,
      "metar_trigger": false,
      "taf_trigger": false,
      "metar": "METAR ENHD 070920Z 07009KT CAVOK 02/M03 Q1008",
      "taf": "TAF ENHD 070800Z 0709/0718 10008KT 9999 -SN BKN040"
    },
    {
      "icao": "ENTC",
      "alert": "OK",
      "vis_m": 9999,
      "fzfg": false,
      "metar_trigger": false,
      "taf_trigger": false,
      "metar": "METAR ENTC 070920Z VRB01KT CAVOK M07/M09 Q1023 NOSIG RMK WIND 2600FT 18009KT",
      "taf": "TAF ENTC 070500Z 0706/0806 18005KT CAVOK"
    },
    {
      "icao": "ENTO",
      "alert": "OK",
      "vis_m": 2400,
      "fzfg": false,
      "metar_trigger": false,
      "taf_trigger": false,
      "metar": "METAR ENTO 070920Z 02009KT 2400 -SN VV015 M06/M06 Q1016 TEMPO 4000 BKN014",
      "taf": "TAF ENTO 070500Z 0706/0806 02012KT 9000 -SN BKN015"
    },
    {
      "icao": "ENVA",
      "alert": "OK",
      "vis_m": 9999,
      "fzfg": false,
      "metar_trigger": false,
      "taf_trigger": false,
      "metar": "METAR ENVA 070920Z 11007KT 070V130 CAVOK M11/M19 Q1017 NOSIG RMK WIND 670FT 09010KT",
      "taf": "TAF ENVA 062300Z 0700/0724 12008KT CAVOK"
    },
    {
      "icao": "ENZV",
      "alert": "OK",
      "vis_m": 9999,
      "fzfg": false,
      "metar_trigger": false,
      "taf_trigger": false,
      "metar": "METAR ENZV 070920Z VRB01KT 9999 NSC M01/M02 Q1008 NOSIG",
      "taf": ""
    },
    {
      "icao": "EPGD",
      "alert": "OK",
      "vis_m": 4100,
      "fzfg": false,
      "metar_trigger": false,
      "taf_trigger": false,
      "metar": "METAR EPGD 070930Z 05007KT 4100 -FZDZ -SG BR OVC004 M02/M03 Q1006 REFZRA",
      "taf": "TAF EPGD 070530Z 0706/0806 06008KT 5000 BR OVC005"
    },
    {
      "icao": "EPKK",
      "alert": "OK",
      "vis_m": 1500,
      "fzfg": false,
      "metar_trigger": false,
      "taf_trigger": false,
      "metar": "METAR EPKK 070930Z 22004KT 1500 R25/1400N BR OVC005 02/02 Q1003",
      "taf": "TAF EPKK 070830Z 0709/0809 VRB02KT 0100 FG OVC001"
    },
    {
      "icao": "EPKT",
      "alert": "OK",
      "vis_m": 5000,
      "fzfg": false,
      "metar_trigger": false,
      "taf_trigger": false,
      "metar": "METAR EPKT 070930Z 34003KT 5000 BR OVC006 03/01 Q1003",
      "taf": "TAF EPKT 070530Z 0706/0806 VRB02KT 4000 BR BKN040"
    },
    {
      "icao": "EPLB",
      "alert": "OK",
      "vis_m": 3800,
      "fzfg": false,
      "metar_trigger": false,
      "taf_trigger": false,
      "metar": "METAR EPLB 070930Z 07006KT 3800 -FZRA BR OVC003 M00/M00 Q1003",
      "taf": ""
    },
    {
      "icao": "EPMO",
      "alert": "OK",
      "vis_m": 700,
      "fzfg": false,
      "metar_trigger": false,
      "taf_trigger": false,
      "metar": "METAR EPMO 070930Z 05005KT 0700 R08/0900N FG OVC002 00/00 Q1004",
      "taf": ""
    },
    {
      "icao": "EPPO",
      "alert": "OK",
      "vis_m": 4800,
      "fzfg": false,
      "metar_trigger": false,
      "taf_trigger": false,
      "metar": "METAR EPPO 070930Z 07004KT 4800 BR OVC002 01/M00 Q1005",
      "taf": ""
    },
    {
      "icao": "EPRA",
      "alert": "OK",
      "vis_m": 600,
      "fzfg": false,
      "metar_trigger": false,
      "taf_trigger": false,
      "metar": "METAR EPRA 070930Z 07003KT 0600 R07/0650N FG OVC002 01/00 Q1003",
      "taf": "TAF EPRA 070830Z 0709/0718 03006KT 0800 FG OVC002"
    },
    {
      "icao": "EPRZ",
      "alert": "OK",
      "vis_m": 900,
      "fzfg": false,
      "metar_trigger": false,
      "taf_trigger": false,
      "metar": "METAR EPRZ 070930Z 25004KT 0900 R27/1000N FG OVC002 01/01 Q1003",
      "taf": ""
    },
    {
      "icao": "EPSC",
      "alert": "OK",
      "vis_m": 4300,
      "fzfg": false,
      "metar_trigger": false,
      "taf_trigger": false,
      "metar": "METAR EPSC 070930Z 05004KT 030V090 4300 -FZDZ BR OVC004 00/M00 Q1006",
      "taf": ""
    },
    {
      "icao": "EPSY",
      "alert": "OK",
      "vis_m": 1800,
      "fzfg": false,
      "metar_trigger": false,
      "taf_trigger": false,
      "metar": "METAR EPSY 070930Z 05004KT 1800 BR BKN001 OVC002 M02/M02 Q1005",
      "taf": "TAF EPSY 070830Z 0709/0718 06006KT 3000 BR OVC003"
    },
    {
      "icao": "EPWA",
      "alert": "OK",
      "vis_m": 1900,
      "fzfg": false,
      "metar_trigger": false,
      "taf_trigger": false,
      "metar": "METAR EPWA 070930Z 05003KT 010V130 1900 -DZ BR OVC002 01/00 Q1004 TEMPO OVC003",
      "taf": "TAF EPWA 070830Z 0709/0809 05004KT 3000 BR OVC003"
    },
    {
      "icao": "EPWR",
      "alert": "OK",
      "vis_m": 2500,
      "fzfg": false,
      "metar_trigger": false,
      "taf_trigger": false,
      "metar": "METAR EPWR 070930Z 30003KT 2500 BR BKN004 02/02 Q1004",
      "taf": "TAF EPWR 070830Z 0709/0809 28003KT 2000 BR OVC002"
    },
    {
      "icao": "ESGG",
      "alert": "OK",
      "vis_m": 9999,
      "fzfg": false,
      "metar_trigger": false,
      "taf_trigger": false,
      "metar": "METAR ESGG 070920Z 07011KT 9999 BKN010 M01/M03 Q1011",
      "taf": "TAF ESGG 070830Z 0709/0809 07010KT 9999 -SN BKN009"
    },
    {
      "icao": "ESKN",
      "alert": "OK",
      "vis_m": 9999,
      "fzfg": false,
      "metar_trigger": false,
      "taf_trigger": false,
      "metar": "METAR ESKN 070920Z 03008KT 350V060 CAVOK M03/M07 Q1016",
      "taf": "TAF ESKN 070830Z 0709/0809 03010KT 9999 BKN030"
    },
    {
      "icao": "ESMS",
      "alert": "OK",
      "vis_m": 9999,
      "fzfg": false,
      "metar_trigger": false,
      "taf_trigger": false,
      "metar": "METAR ESMS 070920Z 08018KT 9999 OVC008 M00/M01 Q1008",
      "taf": ""
    },
    {
      "icao": "ESSA",
      "alert": "OK",
      "vis_m": 9999,
      "fzfg": false,
      "metar_trigger": false,
      "taf_trigger": false,
      "metar": "METAR ESSA 070920Z 03010KT CAVOK M05/M08 Q1018 NOSIG",
      "taf": "TAF ESSA 070830Z 0709/0809 03009KT CAVOK"
    },
    {
      "icao": "EYKA",
      "alert": "OK",
      "vis_m": 5000,
      "fzfg": false,
      "metar_trigger": false,
      "taf_trigger": false,
      "metar": "METAR EYKA 070920Z 06006KT 5000 -SN BR FEW008 OVC029 M03/M04 Q1007",
      "taf": ""
    },
    {
      "icao": "EYPA",
      "alert": "OK",
      "vis_m": 9999,
      "fzfg": false,
      "metar_trigger": false,
      "taf_trigger": false,
      "metar": "METAR EYPA 070920Z 07012KT 040V100 9999 -SN OVC033 M04/M08 Q1009",
      "taf": "TAF EYPA 070507Z 0706/0806 07010KT 9000 SCT010 OVC020"
    },
    {
      "icao": "EYVI",
      "alert": "OK",
      "vis_m": 8000,
      "fzfg": false,
      "metar_trigger": false,
      "taf_trigger": false,
      "metar": "METAR EYVI 070920Z 07004KT 8000 -SN BKN007 OVC032 M04/M05 Q1007 NOSIG",
      "taf": "TAF EYVI 070507Z 0706/0806 VRB04KT 5000 SN SCT010 OVC015"
    },
    {
      "icao": "GCFV",
      "alert": "OK",
      "vis_m": 9999,
      "fzfg": false,
      "metar_trigger": false,
      "taf_trigger": false,
      "metar": "METAR GCFV 070930Z 29005KT 260V350 9999 FEW030 17/10 Q1025",
      "taf": "TAF GCFV 070800Z 0709/0809 10005KT 9999 FEW030 TX22/0714Z TN17/0806Z"
    },
    {
      "icao": "GCLP",
      "alert": "OK",
      "vis_m": 9999,
      "fzfg": false,
      "metar_trigger": false,
      "taf_trigger": false,
      "metar": "METAR GCLP 070930Z 33004KT 290V020 9999 FEW040 18/11 Q1025 NOSIG",
      "taf": "TAF GCLP 070800Z 0709/0809 04010KT 9999 FEW035 TX22/0714Z TN16/0806Z"
    },
    {
      "icao": "GCTS",
      "alert": "OK",
      "vis_m": 9999,
      "fzfg": false,
      "metar_trigger": false,
      "taf_trigger": false,
      "metar": "METAR GCTS 070930Z VRB03KT 9999 BKN025 19/11 Q1025 NOSIG",
      "taf": "TAF GCTS 070800Z 0709/0809 14005KT 9999 FEW040 TX24/0714Z TN16/0806Z"
    },
    {
      "icao": "GMAD",
      "alert": "OK",
      "vis_m": 8000,
      "fzfg": false,
      "metar_trigger": false,
      "taf_trigger": false,
      "metar": "METAR GMAD 070930Z 07004KT 8000 NSC 12/10 Q1024 NOSIG",
      "taf": "TAF GMAD 070500Z 0706/0812 06008KT 8000 SCT016"
    },
    {
      "icao": "GMMN",
      "alert": "OK",
      "vis_m": 9999,
      "fzfg": false,
      "metar_trigger": false,
      "taf_trigger": false,
      "metar": "METAR GMMN 070930Z 20015KT 9999 SCT020 13/11 Q1021 NOSIG",
      "taf": "TAF GMMN 070500Z 0706/0812 20010KT 9999 SCT016"
    },
    {
      "icao": "GMMX",
      "alert": "OK",
      "vis_m": 9999,
      "fzfg": false,
      "metar_trigger": false,
      "taf_trigger": false,
      "metar": "METAR GMMX 070930Z 21005KT 170V240 CAVOK 13/09 Q1023 NOSIG",
      "taf": "TAF GMMX 070500Z 0706/0812 18006KT 8000 SCT026"
    },
    {
      "icao": "HEGN",
      "alert": "OK",
      "vis_m": 9999,
      "fzfg": false,
      "metar_trigger": false,
      "taf_trigger": false,
      "metar": "METAR HEGN 070900Z 13005KT CAVOK 26/16 Q1017 NOSIG",
      "taf": "TAF HEGN 070500Z 0706/0812 34008KT CAVOK"
    },
    {
      "icao": "HEMA",
      "alert": "OK",
      "vis_m": 9999,
      "fzfg": false,
      "metar_trigger": false,
      "taf_trigger": false,
      "metar": "METAR HEMA 070900Z 01013KT CAVOK 25/16 Q1017 NOSIG",
      "taf": "TAF HEMA 070500Z 0706/0812 34011KT CAVOK"
    },
    {
      "icao": "HESH",
      "alert": "OK",
      "vis_m": 9999,
      "fzfg": false,
      "metar_trigger": false,
      "taf_trigger": false,
      "metar": "METAR HESH 070900Z 12010KT CAVOK 25/18 Q1016 NOSIG",
      "taf": "TAF HESH 070500Z 0706/0812 16008KT CAVOK"
    },
    {
      "icao": "HESX",
      "alert": "OK",
      "vis_m": 9999,
      "fzfg": false,
      "metar_trigger": false,
      "taf_trigger": false,
      "metar": "METAR HESX 070900Z 23012KT CAVOK 23/05 Q1015 NOSIG",
      "taf": "TAF HESX 070500Z 0706/0812 23014KT 7000 NSC"
    },
    {
      "icao": "LATI",
      "alert": "OK",
      "vis_m": 9999,
      "fzfg": false,
      "metar_trigger": false,
      "taf_trigger": false,
      "metar": "METAR LATI 070920Z VRB01KT 9999 SCT025 BKN062 16/10 Q1007 NOSIG",
      "taf": "TAF LATI 070500Z 0706/0806 VRB05KT 9999 SCT040 BKN070 TX17/0712Z TN08/0805Z"
    },
    {
      "icao": "LBPD",
      "alert": "OK",
      "vis_m": 9999,
      "fzfg": false,
      "metar_trigger": false,
      "taf_trigger": false,
      "metar": "METAR LBPD 070930Z AUTO 29003KT 230V340 9999 OVC093/// 11/07 Q1003 NOSIG",
      "taf": "TAF LBPD 070500Z 0706/0806 VRB04KT 9999 BKN050"
    },
    {
      "icao": "LBSF",
      "alert": "OK",
      "vis_m": 8000,
      "fzfg": false,
      "metar_trigger": false,
      "taf_trigger": false,
      "metar": "METAR LBSF 070930Z VRB02KT 8000 FEW011 SCT034 BKN043 08/06 Q1004 NOSIG",
      "taf": "TAF LBSF 070500Z 0706/0806 VRB04KT 3000 BR SCT010 BKN020 OVC030"
    },
    {
      "icao": "LBWN",
      "alert": "OK",
      "vis_m": 9999,
      "fzfg": false,
      "metar_trigger": false,
      "taf_trigger": false,
      "metar": "METAR LBWN 070930Z AUTO 29005KT 9999 OVC013/// 06/05 Q1003 NOSIG",
      "taf": "TAF LBWN 070500Z 0706/0806 32010KT 9999 BKN012 BKN030"
    },
    {
      "icao": "LCLK",
      "alert": "OK",
      "vis_m": 9999,
      "fzfg": false,
      "metar_trigger": false,
      "taf_trigger": false,
      "metar": "METAR LCLK 070930Z 22022KT 9999 FEW018 SCT040 21/17 Q1009 NOSIG",
      "taf": "TAF LCLK 070530Z 0706/0806 21007KT 8000 FEW020 SCT035"
    },
    {
      "icao": "LCPH",
      "alert": "OK",
      "vis_m": 7000,
      "fzfg": false,
      "metar_trigger": false,
      "taf_trigger": false,
      "metar": "METAR LCPH 070930Z 26011KT 7000 FEW020 SCT050 19/16 Q1010 NOSIG",
      "taf": "TAF LCPH 070530Z 0706/0806 10009KT 8000 FEW015 SCT025"
    },
    {
      "icao": "LEAL",
      "alert": "OK",
      "vis_m": 9999,
      "fzfg": false,
      "metar_trigger": false,
      "taf_trigger": false,
      "metar": "METAR LEAL 070930Z COR 22010KT 190V250 9999 FEW020 13/05 Q1013 NOSIG",
      "taf": "TAF LEAL 070500Z 0706/0806 26010KT 9999 FEW040 TX15/0714Z TN10/0706Z"
    },
    {
      "icao": "LEBB",
      "alert": "OK",
      "vis_m": 9999,
      "fzfg": false,
      "metar_trigger": false,
      "taf_trigger": false,
      "metar": "METAR LEBB 070930Z 19011G23KT 140V260 9999 FEW040 12/02 Q1005 NOSIG",
      "taf": "TAF LEBB 070500Z 0706/0806 20010KT CAVOK TX14/0713Z TN07/0805Z"
    },
    {
      "icao": "LEBL",
      "alert": "OK",
      "vis_m": 9999,
      "fzfg": false,
      "metar_trigger": false,
      "taf_trigger": false,
      "metar": "METAR LEBL 070930Z 28011KT 250V320 CAVOK 13/02 Q1006 NOSIG",
      "taf": "TAF LEBL 070500Z 0706/0806 29009KT 9999 FEW025 TX15/0713Z TN09/0706Z"
    },
    {
      "icao": "LECH",
      "alert": "OK",
      "vis_m": 9999,
      "fzfg": false,
      "metar_trigger": false,
      "taf_trigger": false,
      "metar": "METAR LECH 070930Z AUTO 23011KT CAVOK 10/01 Q1008",
      "taf": ""
    },
    {
      "icao": "LEMD",
      "alert": "OK",
      "vis_m": 9999,
      "fzfg": false,
      "metar_trigger": false,
      "taf_trigger": false,
      "metar": "METAR LEMD 070930Z 21010KT 9999 SCT017 BKN022 BKN035 05/04 Q1011 NOSIG",
      "taf": "TAF LEMD 070500Z 0706/0812 23010KT 9999 BKN016 TX10/0812Z TN02/0719Z"
    },
    {
      "icao": "LEMG",
      "alert": "OK",
      "vis_m": 8000,
      "fzfg": false,
      "metar_trigger": false,
      "taf_trigger": false,
      "metar": "METAR LEMG 070930Z 15003KT 110V210 8000 -RA FEW030 SCT040 BKN050 10/07 Q1017 NOSIG",
      "taf": "TAF LEMG 070500Z 0706/0806 VRB03KT 9999 FEW040 TX16/0714Z TN10/0707Z"
    },
    {
      "icao": "LEVC",
      "alert": "OK",
      "vis_m": 9999,
      "fzfg": false,
      "metar_trigger": false,
      "taf_trigger": false,
      "metar": "METAR LEVC 070930Z 28010KT 9999 FEW040 13/03 Q1011 NOSIG",
      "taf": "TAF LEVC 070500Z 0706/0806 24009KT 9999 SCT040 TX16/0714Z TN10/0706Z"
    },
    {
      "icao": "LEXJ",
      "alert": "OK",
      "vis_m": 9999,
      "fzfg": false,
      "metar_trigger": false,
      "taf_trigger": false,
      "metar": "METAR LEXJ 070930Z 20015G26KT 150V260 9999 FEW080 11/02 Q1003",
      "taf": "TAF LEXJ 070800Z 0709/0809 20009KT CAVOK TX14/0713Z TN08/0722Z"
    },
    {
      "icao": "LEZG",
      "alert": "OK",
      "vis_m": 9999,
      "fzfg": false,
      "metar_trigger": false,
      "taf_trigger": false,
      "metar": "METAR LEZG 070930Z 25014KT 220V280 CAVOK 11/03 Q1008 NOSIG",
      "taf": "TAF LEZG 070500Z 0706/0806 26012KT 9999 FEW050 TX14/0715Z TN08/0706Z"
    },
    {
      "icao": "LEZL",
      "alert": "OK",
      "vis_m": 4000,
      "fzfg": false,
      "metar_trigger": false,
      "taf_trigger": false,
      "metar": "METAR LEZL 070930Z 18006KT 120V230 4000 RA SCT010 BKN022 OVC038 11/11 Q1014 NOSIG",
      "taf": "TAF LEZL 070800Z 0709/0809 23008KT 9999 SCT030 SCT040 TX15/0715Z TN09/0807Z"
    },
    {
      "icao": "LFBD",
      "alert": "OK",
      "vis_m": 9999,
      "fzfg": false,
      "metar_trigger": false,
      "taf_trigger": false,
      "metar": "METAR LFBD 070930Z AUTO 20009KT CAVOK 10/06 Q1004 TEMPO 22015G25KT BKN050TCU",
      "taf": "TAF LFBD 070500Z 0706/0812 20010KT CAVOK TX13/0714Z TN06/0806Z"
    },
    {
      "icao": "LFLL",
      "alert": "OK",
      "vis_m": 9999,
      "fzfg": false,
      "metar_trigger": false,
      "taf_trigger": false,
      "metar": "METAR LFLL 070930Z VRB02KT CAVOK 06/04 Q1004 NOSIG",
      "taf": "TAF LFLL 070500Z 0706/0812 VRB03KT CAVOK"
    },
    {
      "icao": "LFLS",
      "alert": "OK",
      "vis_m": 9999,
      "fzfg": false,
      "metar_trigger": false,
      "taf_trigger": false,
      "metar": "METAR LFLS 070930Z AUTO 07008KT CAVOK 06/05 Q1004 NOSIG",
      "taf": "TAF LFLS 070800Z 0709/0809 08006KT CAVOK"
    },
    {
      "icao": "LFMN",
      "alert": "OK",
      "vis_m": 9999,
      "fzfg": false,
      "metar_trigger": false,
      "taf_trigger": false,
      "metar": "METAR LFMN 070930Z 33009KT CAVOK 12/03 Q1003 NOSIG",
      "taf": "TAF LFMN 070800Z 0709/0815 33010KT CAVOK"
    },
    {
      "icao": "LFOB",
      "alert": "OK",
      "vis_m": 9999,
      "fzfg": false,
      "metar_trigger": false,
      "taf_trigger": false,
      "metar": "METAR LFOB 070930Z AUTO 17011KT 9999 BKN013 BKN048 BKN150 09/07 Q1000 BECMG BKN020",
      "taf": "TAF LFOB 070500Z 0706/0806 20007KT 9999 BKN020"
    },
    {
      "icao": "LFPO",
      "alert": "OK",
      "vis_m": 9999,
      "fzfg": false,
      "metar_trigger": false,
      "taf_trigger": false,
      "metar": "METAR LFPO 070930Z 19010KT 160V220 9999 FEW014 SCT260 10/07 Q1001 NOSIG",
      "taf": "TAF LFPO 070500Z 0706/0812 18005KT CAVOK"
    },
    {
      "icao": "LFSB",
      "alert": "OK",
      "vis_m": 9999,
      "fzfg": false,
      "metar_trigger": false,
      "taf_trigger": false,
      "metar": "METAR LFSB 070930Z AUTO 15004KT CAVOK 09/06 Q1004 NOSIG",
      "taf": "TAF LFSB 070500Z 0706/0806 17004KT 9999 SCT030"
    },
    {
      "icao": "LGAV",
      "alert": "OK",
      "vis_m": 9999,
      "fzfg": false,
      "metar_trigger": false,
      "taf_trigger": false,
      "metar": "METAR LGAV 070920Z 26010KT 210V300 CAVOK 19/08 Q1007 NOSIG",
      "taf": "TAF LGAV 070500Z 0706/0806 24012KT 9999 FEW020"
    },
    {
      "icao": "LGTS",
      "alert": "OK",
      "vis_m": 200,
      "fzfg": false,
      "metar_trigger": false,
      "taf_trigger": false,
      "metar": "METAR LGTS 070920Z VRB01KT 0200 R10/0300 R28/1100 FG OVC002 09/09 Q1005 NOSIG",
      "taf": ""
    },
    {
      "icao": "LHBP",
      "alert": "OK",
      "vis_m": 9999,
      "fzfg": false,
      "metar_trigger": false,
      "taf_trigger": false,
      "metar": "METAR LHBP 070930Z 25007KT 9999 SCT020 BKN200 07/03 Q1004 NOSIG",
      "taf": "TAF LHBP 070515Z 0706/0806 27005KT CAVOK"
    },
    {
      "icao": "LHDC",
      "alert": "OK",
      "vis_m": 9999,
      "fzfg": false,
      "metar_trigger": false,
      "taf_trigger": false,
      "metar": "METAR LHDC 070915Z AUTO 22006KT 3900 BR FEW002 BKN061 06/06 Q1003 BECMG TL0945 CAVOK",
      "taf": ""
    },
    {
      "icao": "LIBD",
      "alert": "OK",
      "vis_m": 9999,
      "fzfg": false,
      "metar_trigger": false,
      "taf_trigger": false,
      "metar": "METAR LIBD 070920Z 27007KT 230V300 CAVOK 17/07 Q1006",
      "taf": "TAF LIBD 070500Z 0706/0806 VRB06KT 9999 FEW030"
    },
    {
      "icao": "LIBG",
      "alert": "OK",
      "vis_m": 9999,
      "fzfg": false,
      "metar_trigger": false,
      "taf_trigger": false,
      "metar": "METAR LIBG 070850Z VRB02KT CAVOK 15/08 Q1006",
      "taf": "TAF LIBG 070800Z 0709/0718 VRB05KT 9999 FEW040"
    },
    {
      "icao": "LIBP",
      "alert": "OK",
      "vis_m": 9999,
      "fzfg": false,
      "metar_trigger": false,
      "taf_trigger": false,
      "metar": "METAR LIBP 070920Z AUTO VRB02KT 9999 FEW170/// 14/09 Q1005",
      "taf": "TAF LIBP 070500Z 0706/0806 VRB05KT 9999 FEW060"
    },
    {
      "icao": "LIBR",
      "alert": "OK",
      "vis_m": 9999,
      "fzfg": false,
      "metar_trigger": false,
      "taf_trigger": false,
      "metar": "METAR LIBR 070920Z 17005KT CAVOK 15/09 Q1007",
      "taf": "TAF LIBR 070500Z 0706/0806 24008KT 9999 FEW040"
    },
    {
      "icao": "LICA",
      "alert": "OK",
      "vis_m": 9999,
      "fzfg": false,
      "metar_trigger": false,
      "taf_trigger": false,
      "metar": "METAR LICA 070920Z AUTO 25014KT 9999 NCD 16/13 Q1010",
      "taf": "TAF LICA 070500Z 0706/0806 27015KT 9999 SCT015"
    },
    {
      "icao": "LICC",
      "alert": "OK",
      "vis_m": 9999,
      "fzfg": false,
      "metar_trigger": false,
      "taf_trigger": false,
      "metar": "METAR LICC 070920Z 24009KT CAVOK 17/13 Q1010",
      "taf": "TAF LICC 070500Z 0706/0806 26014KT CAVOK"
    },
    {
      "icao": "LICJ",
      "alert": "OK",
      "vis_m": 9999,
      "fzfg": false,
      "metar_trigger": false,
      "taf_trigger": false,
      "metar": "METAR LICJ 070920Z 21016KT 9999 FEW030 SCT045 16/10 Q1010",
      "taf": "TAF LICJ 070500Z 0706/0806 22012KT CAVOK"
    },
    {
      "icao": "LIMC",
      "alert": "OK",
      "vis_m": 9999,
      "fzfg": false,
      "metar_trigger": false,
      "taf_trigger": false,
      "metar": "METAR LIMC 070920Z 07004KT 9999 BKN040 08/06 Q1005 NOSIG",
      "taf": "TAF LIMC 070500Z 0706/0812 VRB05KT CAVOK"
    },
    {
      "icao": "LIME",
      "alert": "OK",
      "vis_m": 9999,
      "fzfg": false,
      "metar_trigger": false,
      "taf_trigger": false,
      "metar": "METAR LIME 070920Z VRB02KT 9999 SCT050 09/06 Q1005 NOSIG",
      "taf": "TAF LIME 070500Z 0706/0806 VRB05KT 9999 SCT040"
    },
    {
      "icao": "LIMF",
      "alert": "OK",
      "vis_m": 9999,
      "fzfg": false,
      "metar_trigger": false,
      "taf_trigger": false,
      "metar": "METAR LIMF 070920Z VRB02KT 9999 FEW090 09/04 Q1004",
      "taf": "TAF LIMF 070500Z 0706/0806 VRB05KT CAVOK"
    },
    {
      "icao": "LIMJ",
      "alert": "OK",
      "vis_m": 9999,
      "fzfg": false,
      "metar_trigger": false,
      "taf_trigger": false,
      "metar": "METAR LIMJ 070920Z 08004KT 9999 FEW018 SCT030 13/11 Q1004",
      "taf": "TAF LIMJ 070500Z 0706/0806 VRB05KT 9999 SCT040"
    },
    {
      "icao": "LIPE",
      "alert": "OK",
      "vis_m": 9999,
      "fzfg": false,
      "metar_trigger": false,
      "taf_trigger": false,
      "metar": "METAR LIPE 070920Z VRB02KT CAVOK 08/06 Q1005",
      "taf": "TAF LIPE 070500Z 0706/0806 VRB05KT 9000 FEW060"
    },
    {
      "icao": "LIPH",
      "alert": "OK",
      "vis_m": 6000,
      "fzfg": false,
      "metar_trigger": false,
      "taf_trigger": false,
      "metar": "METAR LIPH 070920Z VRB02KT 6000 BKN080 09/09 Q1005",
      "taf": ""
    },
    {
      "icao": "LIPQ",
      "alert": "OK",
      "vis_m": 9999,
      "fzfg": false,
      "metar_trigger": false,
      "taf_trigger": false,
      "metar": "METAR LIPQ 070920Z AUTO 04003KT 010V070 9999 -RA OVC058/// 09/09 Q1006",
      "taf": "TAF LIPQ 070500Z 0706/0806 VRB04KT 7000 SCT070"
    },
    {
      "icao": "LIPR",
      "alert": "OK",
      "vis_m": 9999,
      "fzfg": false,
      "metar_trigger": false,
      "taf_trigger": false,
      "metar": "METAR LIPR 070920Z AUTO 21004KT 170V230 9999 SCT079/// 14/08 Q1004",
      "taf": "TAF LIPR 070500Z 0706/0806 VRB05KT 9999 SCT060"
    },
    {
      "icao": "LIPX",
      "alert": "OK",
      "vis_m": 9999,
      "fzfg": false,
      "metar_trigger": false,
      "taf_trigger": false,
      "metar": "METAR LIPX 070920Z 35006KT 9999 OVC060 08/06 Q1005",
      "taf": "TAF LIPX 070500Z 0706/0806 VRB05KT 9999 SCT050"
    },
    {
      "icao": "LIPY",
      "alert": "OK",
      "vis_m": 9999,
      "fzfg": false,
      "metar_trigger": false,
      "taf_trigger": false,
      "metar": "METAR LIPY 070920Z AUTO 24007KT 9999 NCD 15/07 Q1005",
      "taf": "TAF LIPY 070500Z 0706/0806 VRB05KT 9999 SCT050"
    },
    {
      "icao": "LIPZ",
      "alert": "OK",
      "vis_m": 500,
      "fzfg": false,
      "metar_trigger": false,
      "taf_trigger": false,
      "metar": "METAR LIPZ 070920Z 02003KT 0500 R04R/1900U FG BKN002 BKN070 08/08 Q1005 BECMG 2000 BCFG",
      "taf": ""
    },
    {
      "icao": "LIRF",
      "alert": "OK",
      "vis_m": 7000,
      "fzfg": false,
      "metar_trigger": false,
      "taf_trigger": false,
      "metar": "METAR LIRF 070920Z 11006KT 080V140 7000 RA SCT015 BKN030 14/12 Q1006 NOSIG",
      "taf": "TAF LIRF 070500Z 0706/0812 VRB05KT 9999 SCT030"
    },
    {
      "icao": "LIRN",
      "alert": "OK",
      "vis_m": 9999,
      "fzfg": false,
      "metar_trigger": false,
      "taf_trigger": false,
      "metar": "METAR LIRN 070920Z 18006KT 140V210 9999 SCT030 15/10 Q1008 NOSIG",
      "taf": "TAF LIRN 070500Z 0706/0806 VRB05KT 9999 FEW020"
    },
    {
      "icao": "LIRP",
      "alert": "OK",
      "vis_m": 9999,
      "fzfg": false,
      "metar_trigger": false,
      "taf_trigger": false,
      "metar": "METAR LIRP 070915Z 06004KT 9999 TS FEW023CB FEW028TCU SCT040 12/12 Q1005 TEMPO TSRA",
      "taf": "TAF LIRP 070500Z 0706/0806 28005KT 9999 SCT025"
    },
    {
      "icao": "LIRZ",
      "alert": "OK",
      "vis_m": 9999,
      "fzfg": false,
      "metar_trigger": false,
      "taf_trigger": false,
      "metar": "METAR LIRZ 070920Z AUTO 16005KT 9999 BKN024/// 10/09 Q1006",
      "taf": "TAF LIRZ 070500Z 0706/0806 VRB05KT 8000 BKN030"
    },
    {
      "icao": "LJLJ",
      "alert": "OK",
      "vis_m": 3000,
      "fzfg": false,
      "metar_trigger": false,
      "taf_trigger": false,
      "metar": "METAR LJLJ 070930Z VRB01KT 3000 BR BKN003 05/05 Q1005 BECMG RA SCT002 BKN005",
      "taf": "TAF LJLJ 070500Z 0706/0806 VRB02KT 9999 FEW007"
    },
    {
      "icao": "LKMT",
      "alert": "OK",
      "vis_m": 1600,
      "fzfg": false,
      "metar_trigger": false,
      "taf_trigger": false,
      "metar": "METAR LKMT 070930Z 24005KT 1600 BR FEW004 OVC007 03/03 Q1004 BECMG 3000 BR",
      "taf": "TAF LKMT 070500Z 0706/0806 23006KT 3500 BR BKN025"
    },
    {
      "icao": "LKPR",
      "alert": "OK",
      "vis_m": 3000,
      "fzfg": false,
      "metar_trigger": false,
      "taf_trigger": false,
      "metar": "METAR LKPR 070930Z 25004KT 3000 -DZ BR SCT004 BKN006 OVC012 03/02 Q1004 NOSIG",
      "taf": "TAF LKPR 070800Z 0709/0815 24004KT 5000 BR SCT004 OVC006"
    },
    {
      "icao": "LLBG",
      "alert": "OK",
      "vis_m": 9999,
      "fzfg": false,
      "metar_trigger": false,
      "taf_trigger": false,
      "metar": "METAR LLBG 070920Z 23012KT CAVOK 23/08 Q1014 NOSIG",
      "taf": "TAF LLBG 070507Z 0706/0806 16005KT CAVOK"
    },
    {
      "icao": "LMML",
      "alert": "OK",
      "vis_m": 9999,
      "fzfg": false,
      "metar_trigger": false,
      "taf_trigger": false,
      "metar": "METAR LMML 070915Z 23006KT CAVOK 18/13 Q1012 NOSIG",
      "taf": ""
    },
    {
      "icao": "LOWW",
      "alert": "OK",
      "vis_m": 9999,
      "fzfg": false,
      "metar_trigger": false,
      "taf_trigger": false,
      "metar": "METAR LOWW 070920Z VRB01KT 9999 FEW012 OVC026 05/02 Q1005 TEMPO BKN014",
      "taf": "TAF LOWW 070815Z 0709/0815 VRB03KT 9999 BKN025 TX06/0714Z TN03/0801Z"
    },
    {
      "icao": "LPFR",
      "alert": "OK",
      "vis_m": 5000,
      "fzfg": false,
      "metar_trigger": false,
      "taf_trigger": false,
      "metar": "METAR LPFR 070930Z 22026G37KT 5000 -RA BR FEW010 SCT015 FEW020CB BKN030 14/13 Q1011 RERA",
      "taf": "TAF LPFR 070500Z 0706/0806 26010KT 9999 SCT025"
    },
    {
      "icao": "LPMA",
      "alert": "OK",
      "vis_m": 9999,
      "fzfg": false,
      "metar_trigger": false,
      "taf_trigger": false,
      "metar": "METAR LPMA 070930Z 23018KT 9999 SCT015 18/12 Q1019",
      "taf": "TAF LPMA 070500Z 0706/0806 22015KT 9999 SCT015"
    },
    {
      "icao": "LPPR",
      "alert": "OK",
      "vis_m": 7000,
      "fzfg": false,
      "metar_trigger": false,
      "taf_trigger": false,
      "metar": "METAR LPPR 070930Z 13013KT 7000 -RA SCT020 FEW025CB BKN048 09/07 Q0998",
      "taf": "TAF LPPR 070500Z 0706/0806 16015KT 9999 SCT020 BKN035"
    },
    {
      "icao": "LPPS",
      "alert": "OK",
      "vis_m": 9999,
      "fzfg": false,
      "metar_trigger": false,
      "taf_trigger": false,
      "metar": "METAR LPPS 070930Z 26019KT 9999 FEW014 18/13 Q1020",
      "taf": "TAF LPPS 070500Z 0706/0812 26017KT 9999 SCT015"
    },
    {
      "icao": "LPPT",
      "alert": "OK",
      "vis_m": 8000,
      "fzfg": false,
      "metar_trigger": false,
      "taf_trigger": false,
      "metar": "METAR LPPT 070930Z 22017G30KT 8000 -RA FEW006 BKN008 FEW018CB 13/12 Q1002 RERA WS R20",
      "taf": ""
    },
    {
      "icao": "LQBK",
      "alert": "OK",
      "vis_m": 7000,
      "fzfg": false,
      "metar_trigger": false,
      "taf_trigger": false,
      "metar": "METAR LQBK 070930Z VRB01KT 7000 FEW013 10/08 Q1005 NOSIG",
      "taf": ""
    },
    {
      "icao": "LQSA",
      "alert": "OK",
      "vis_m": 3500,
      "fzfg": false,
      "metar_trigger": false,
      "taf_trigger": false,
      "metar": "METAR LQSA 070930Z 00000KT 3500 -RA BR BKN004 OVC030 07/07 Q1005 BECMG 5000 BKN010 OVC030",
      "taf": ""
    },
    {
      "icao": "LQTZ",
      "alert": "OK",
      "vis_m": 3500,
      "fzfg": false,
      "metar_trigger": false,
      "taf_trigger": false,
      "metar": "METAR LQTZ 070930Z VRB01KT 3500 BR BKN003 OVC010 08/08 Q1005",
      "taf": ""
    },
    {
      "icao": "LRBC",
      "alert": "OK",
      "vis_m": 7000,
      "fzfg": false,
      "metar_trigger": false,
      "taf_trigger": false,
      "metar": "METAR LRBC 070930Z VRB02KT 7000 OVC005 01/00 Q1003",
      "taf": "TAF LRBC 070800Z 0709/0718 VRB04KT 5000 BR OVC003"
    },
    {
      "icao": "LRBS",
      "alert": "OK",
      "vis_m": 6000,
      "fzfg": false,
      "metar_trigger": false,
      "taf_trigger": false,
      "metar": "METAR LRBS 070930Z 24006KT 6000 BR OVC005 04/03 Q1004 NOSIG",
      "taf": "TAF LRBS 070500Z 0706/0806 VRB04KT 1500 BR OVC002"
    },
    {
      "icao": "LRBV",
      "alert": "OK",
      "vis_m": 6000,
      "fzfg": false,
      "metar_trigger": false,
      "taf_trigger": false,
      "metar": "METAR LRBV 070930Z VRB01KT 6000 FEW003 BKN026 02/01 Q1003",
      "taf": "TAF LRBV 070800Z 0709/0718 VRB04KT 3000 BR OVC003"
    },
    {
      "icao": "LRCL",
      "alert": "OK",
      "vis_m": 9999,
      "fzfg": false,
      "metar_trigger": false,
      "taf_trigger": false,
      "metar": "METAR LRCL 070930Z 26004KT 230V330 9999 FEW025 10/05 Q1003",
      "taf": "TAF LRCL 070800Z 0709/0718 VRB04KT 9999 SCT050"
    },
    {
      "icao": "LRCV",
      "alert": "OK",
      "vis_m": 8000,
      "fzfg": false,
      "metar_trigger": false,
      "taf_trigger": false,
      "metar": "METAR LRCV 070930Z 24004KT 220V290 8000 SCT008 BKN024 06/05 Q1004",
      "taf": "TAF LRCV 070800Z 0709/0718 VRB04KT 7000 NSC"
    },
    {
      "icao": "LRIA",
      "alert": "OK",
      "vis_m": 8000,
      "fzfg": false,
      "metar_trigger": false,
      "taf_trigger": false,
      "metar": "METAR LRIA 070930Z 32003KT 8000 OVC005 M01/M02 Q1004",
      "taf": "TAF LRIA 070800Z 0709/0718 VRB04KT 9999 OVC005"
    },
    {
      "icao": "LROP",
      "alert": "OK",
      "vis_m": 8000,
      "fzfg": false,
      "metar_trigger": false,
      "taf_trigger": false,
      "metar": "METAR LROP 070930Z 26007KT 8000 OVC004 04/04 Q1004 NOSIG",
      "taf": "TAF LROP 070500Z 0706/0806 VRB04KT 0600 FG OVC001"
    },
    {
      "icao": "LRSB",
      "alert": "OK",
      "vis_m": 9999,
      "fzfg": false,
      "metar_trigger": false,
      "taf_trigger": false,
      "metar": "METAR LRSB 070930Z VRB01KT 9999 -RA FEW020 BKN028 06/06 Q1003",
      "taf": "TAF LRSB 070500Z 0706/0806 VRB04KT 9999 BKN035"
    },
    {
      "icao": "LRSM",
      "alert": "OK",
      "vis_m": 9999,
      "fzfg": false,
      "metar_trigger": false,
      "taf_trigger": false,
      "metar": "METAR LRSM 070930Z AUTO 25005KT 9999 FEW015/// SCT024/// BKN050/// 08/07 Q1003",
      "taf": ""
    },
    {
      "icao": "LRSV",
      "alert": "OK",
      "vis_m": 2500,
      "fzfg": false,
      "metar_trigger": false,
      "taf_trigger": false,
      "metar": "METAR LRSV 070930Z VRB02KT 2500 BR BKN002 M01/M01 Q1002",
      "taf": "TAF LRSV 070800Z 0709/0718 VRB04KT 3000 BR BKN015 BKN035"
    },
    {
      "icao": "LRTM",
      "alert": "OK",
      "vis_m": 8000,
      "fzfg": false,
      "metar_trigger": false,
      "taf_trigger": false,
      "metar": "METAR LRTM 070930Z 03001KT 8000 SCT030 BKN045 04/03 Q1003",
      "taf": "TAF LRTM 070800Z 0709/0718 VRB04KT 9999 BKN030"
    },
    {
      "icao": "LRTR",
      "alert": "OK",
      "vis_m": 9999,
      "fzfg": false,
      "metar_trigger": false,
      "taf_trigger": false,
      "metar": "METAR LRTR 070930Z 20004KT 9999 -RA FEW035 08/06 Q1005 NOSIG",
      "taf": "TAF LRTR 070500Z 0706/0806 VRB04KT CAVOK"
    },
    {
      "icao": "LTAC",
      "alert": "OK",
      "vis_m": 9999,
      "fzfg": false,
      "metar_trigger": false,
      "taf_trigger": false,
      "metar": "METAR LTAC 070920Z 26014KT 9999 FEW017 SCT030 BKN080 09/05 Q1004 NOSIG RMK RWY21C 24015KT RWY03L 25012KT RWY21R 23013KT RWY03R 24012KT RWY21L 25013KT",
      "taf": "TAF LTAC 070440Z 0706/0806 19007KT 9999 -SHRA BKN030 BKN080"
    },
    {
      "icao": "LTFM",
      "alert": "OK",
      "vis_m": 4000,
      "fzfg": false,
      "metar_trigger": false,
      "taf_trigger": false,
      "metar": "METAR LTFM 070920Z 34009KT 4000 BR BKN002 BKN022 09/08 Q1004 NOSIG RMK RWY17L 34009KT RWY34L 33008KT RWY16R 34007KT RWY36 34010KT RWY18 33010KT",
      "taf": ""
    },
    {
      "icao": "LUKK",
      "alert": "OK",
      "vis_m": 9999,
      "fzfg": false,
      "metar_trigger": false,
      "taf_trigger": false,
      "metar": "METAR LUKK 070930Z 34005KT 320V020 9999 OVC006 M01/M02 Q1003 BECMG BKN010",
      "taf": "TAF LUKK 070509Z 0706/0806 33006KT 9999 OVC003"
    },
    {
      "icao": "LWOH",
      "alert": "OK",
      "vis_m": 9999,
      "fzfg": false,
      "metar_trigger": false,
      "taf_trigger": false,
      "metar": "METAR LWOH 070920Z 17013KT 140V200 9999 FEW002 SCT044 09/06 Q1007",
      "taf": "TAF LWOH 070855Z 0709/0809 22008KT 9999 SCT040"
    },
    {
      "icao": "LWSK",
      "alert": "OK",
      "vis_m": 5000,
      "fzfg": false,
      "metar_trigger": false,
      "taf_trigger": false,
      "metar": "METAR LWSK 070920Z VRB02KT 5000 BR SCT007 BKN013 09/08 Q1005 NOSIG",
      "taf": "TAF LWSK 070855Z 0709/0809 VRB02KT 9999 SCT030"
    },
    {
      "icao": "LYBE",
      "alert": "OK",
      "vis_m": 2500,
      "fzfg": false,
      "metar_trigger": false,
      "taf_trigger": false,
      "metar": "METAR LYBE 070930Z 25004KT 230V290 2500 BR OVC003 07/06 Q1005 BECMG 4000 OVC006",
      "taf": ""
    },
    {
      "icao": "LYNI",
      "alert": "OK",
      "vis_m": 9999,
      "fzfg": false,
      "metar_trigger": false,
      "taf_trigger": false,
      "metar": "METAR LYNI 070930Z 30003KT 9999 SCT010 BKN030 07/07 Q1005 NOSIG",
      "taf": "TAF LYNI 070500Z 0706/0806 32005KT 8000 FEW010 BKN040 OVC070 TX10/0713Z TN05/0706Z"
    },
    {
      "icao": "LYPG",
      "alert": "OK",
      "vis_m": 9999,
      "fzfg": false,
      "metar_trigger": false,
      "taf_trigger": false,
      "metar": "METAR LYPG 070930Z VRB02KT 9999 FEW006 SCT020 BKN060 12/11 Q1007 NOSIG",
      "taf": "TAF LYPG 070500Z 0706/0806 18006KT 9999 FEW010 SCT050 TX15/0713Z TN07/0706Z"
    },
    {
      "icao": "LZIB",
      "alert": "OK",
      "vis_m": 9999,
      "fzfg": false,
      "metar_trigger": false,
      "taf_trigger": false,
      "metar": "METAR LZIB 070930Z 25007KT 9999 BKN023 06/02 Q1004 NOSIG",
      "taf": "TAF LZIB 070515Z 0706/0806 28006KT 9999 SCT023 BKN030"
    },
    {
      "icao": "LZKZ",
      "alert": "OK",
      "vis_m": 9999,
      "fzfg": false,
      "metar_trigger": false,
      "taf_trigger": false,
      "metar": "METAR LZKZ 070930Z 05004KT 9999 OVC011 06/05 Q1002 NOSIG",
      "taf": "TAF LZKZ 070515Z 0706/0806 VRB02KT 9999 SCT020 BKN030"
    },
    {
      "icao": "LZTT",
      "alert": "OK",
      "vis_m": 2200,
      "fzfg": false,
      "metar_trigger": false,
      "taf_trigger": false,
      "metar": "METAR LZTT 070930Z VRB02KT 2200 -RA BR FEW003 OVC016 03/02 Q1001 NOSIG",
      "taf": ""
    },
    {
      "icao": "OEJN",
      "alert": "OK",
      "vis_m": 9999,
      "fzfg": false,
      "metar_trigger": false,
      "taf_trigger": false,
      "metar": "METAR OEJN 070900Z 32006KT 9999 SCT040 29/15 Q1016 NOSIG",
      "taf": "TAF OEJN 070500Z 0706/0812 30012KT CAVOK"
    },
    {
      "icao": "OEMA",
      "alert": "OK",
      "vis_m": 9999,
      "fzfg": false,
      "metar_trigger": false,
      "taf_trigger": false,
      "metar": "METAR OEMA 070900Z 24005KT CAVOK 25/07 Q1020 NOSIG",
      "taf": "TAF OEMA 070500Z 0706/0812 16006KT CAVOK"
    },
    {
      "icao": "OJAI",
      "alert": "OK",
      "vis_m": 4000,
      "fzfg": false,
      "metar_trigger": false,
      "taf_trigger": false,
      "metar": "METAR OJAI 070900Z 25022KT 4000 BLDU NSC 18/06 Q1016 NOSIG",
      "taf": "TAF OJAI 070446Z 0706/0812 23006KT 4000 DU FEW040"
    },
    {
      "icao": "OMAA",
      "alert": "OK",
      "vis_m": 9999,
      "fzfg": false,
      "metar_trigger": false,
      "taf_trigger": false,
      "metar": "METAR OMAA 070930Z 24007KT 200V290 CAVOK 30/09 Q1017 BECMG 33012KT",
      "taf": "TAF OMAA 070500Z 0706/0812 15005KT 8000 NSC"
    },
    {
      "icao": "OMDB",
      "alert": "OK",
      "vis_m": 9999,
      "fzfg": false,
      "metar_trigger": false,
      "taf_trigger": false,
      "metar": "METAR OMDB 070930Z 28011KT CAVOK 28/15 Q1017 NOSIG",
      "taf": "TAF OMDB 070500Z 0706/0812 16005KT 8000 NSC"
    },
    {
      "icao": "UAAA",
      "alert": "OK",
      "vis_m": 9999,
      "fzfg": false,
      "metar_trigger": false,
      "taf_trigger": false,
      "metar": "METAR UAAA 070930Z 02003MPS 9999 SCT020CB BKN100 00/M02 Q1024 NOSIG",
      "taf": "TAF UAAA 070510Z 0706/0806 06003G08MPS 9999 SCT030 BKN100 TX02/0707Z TNM04/0802Z"
    },
    {
      "icao": "UBBB",
      "alert": "OK",
      "vis_m": 9999,
      "fzfg": false,
      "metar_trigger": false,
      "taf_trigger": false,
      "metar": "METAR UBBB 070930Z 19024G38KT 9999 BKN015 09/05 Q1008 NOSIG",
      "taf": ""
    },
    {
      "icao": "UDSG",
      "alert": "OK",
      "vis_m": 6000,
      "fzfg": false,
      "metar_trigger": false,
      "taf_trigger": false,
      "metar": "METAR UDSG 070930Z 30002KT 6000 FEW006 OVC016 M00/M02 Q1013 NOSIG",
      "taf": "TAF UDSG 070458Z 0706/0806 VRB06KT 2000 BR OVC020"
    },
    {
      "icao": "UDYZ",
      "alert": "OK",
      "vis_m": 9999,
      "fzfg": false,
      "metar_trigger": false,
      "taf_trigger": false,
      "metar": "METAR UDYZ 070930Z 22002KT 9999 BKN043 05/M00 Q1013 NOSIG",
      "taf": "TAF UDYZ 070500Z 0706/0806 20006KT 6000 BKN040"
    },
    {
      "icao": "UGKO",
      "alert": "OK",
      "vis_m": 9999,
      "fzfg": false,
      "metar_trigger": false,
      "taf_trigger": false,
      "metar": "METAR UGKO 070930Z 08019KT CAVOK 15/00 Q1005 NOSIG",
      "taf": "TAF UGKO 070500Z 0706/0806 09017KT 9999 SCT080 TX18/0711Z TN08/0803Z"
    }
  ]
}