{
  "ts_utc": "2026-04-23T19:37:31Z",
  "threshold_m": 150,
  "source": "stations_override.txt (ICAO list) + aviationweather.gov (METAR/TAF raw)",
  "station_count": 159,
  "stations": [
    {
      "icao": "BIKF",
      "alert": "OK",
      "vis_m": 9999,
      "fzfg": false,
      "metar_trigger": false,
      "taf_trigger": false,
      "metar": "METAR BIKF 231930Z 24006KT 9999 OVC018 06/02 Q1027",
      "taf": "TAF BIKF 231642Z 2318/2418 26007KT 9999 OVC020 TX09/2415Z TN04/2406Z"
    },
    {
      "icao": "BKPR",
      "alert": "OK",
      "vis_m": 9999,
      "fzfg": false,
      "metar_trigger": false,
      "taf_trigger": false,
      "metar": "METAR BKPR 231930Z 31003KT 300V010 CAVOK 08/00 Q1016 NOSIG",
      "taf": "TAF BKPR 231730Z 2318/2418 32007KT 9999 FEW070"
    },
    {
      "icao": "EBCI",
      "alert": "OK",
      "vis_m": 9999,
      "fzfg": false,
      "metar_trigger": false,
      "taf_trigger": false,
      "metar": "METAR EBCI 231920Z 01006KT CAVOK 13/M03 Q1026 NOSIG",
      "taf": "TAF EBCI 231720Z 2318/2424 03006KT CAVOK"
    },
    {
      "icao": "EDDB",
      "alert": "OK",
      "vis_m": 9999,
      "fzfg": false,
      "metar_trigger": false,
      "taf_trigger": false,
      "metar": "METAR EDDB 231920Z AUTO 29007KT CAVOK 13/07 Q1019 NOSIG",
      "taf": "TAF EDDB 231700Z 2318/2418 29009KT CAVOK"
    },
    {
      "icao": "EDDH",
      "alert": "OK",
      "vis_m": 9999,
      "fzfg": false,
      "metar_trigger": false,
      "taf_trigger": false,
      "metar": "METAR EDDH 231920Z AUTO 29012KT 9999 BKN013 08/05 Q1022 NOSIG",
      "taf": "TAF EDDH 231700Z 2318/2424 28012KT 9999 BKN013"
    },
    {
      "icao": "EDDK",
      "alert": "OK",
      "vis_m": 9999,
      "fzfg": false,
      "metar_trigger": false,
      "taf_trigger": false,
      "metar": "METAR EDDK 231920Z AUTO 35004KT CAVOK 12/03 Q1025 NOSIG",
      "taf": "TAF EDDK 231700Z 2318/2424 33010KT CAVOK"
    },
    {
      "icao": "EDDN",
      "alert": "OK",
      "vis_m": 9999,
      "fzfg": false,
      "metar_trigger": false,
      "taf_trigger": false,
      "metar": "METAR EDDN 231920Z AUTO 32003KT 270V350 CAVOK 13/M02 Q1022 NOSIG",
      "taf": "TAF EDDN 231700Z 2318/2418 31010KT CAVOK"
    },
    {
      "icao": "EDDS",
      "alert": "OK",
      "vis_m": 9999,
      "fzfg": false,
      "metar_trigger": false,
      "taf_trigger": false,
      "metar": "METAR EDDS 231920Z AUTO 30005KT CAVOK 14/M00 Q1023 NOSIG",
      "taf": "TAF EDDS 231700Z 2318/2418 34005KT CAVOK"
    },
    {
      "icao": "EDFH",
      "alert": "OK",
      "vis_m": 9999,
      "fzfg": false,
      "metar_trigger": false,
      "taf_trigger": false,
      "metar": "METAR EDFH 231920Z 36009KT CAVOK 12/M05 Q1025",
      "taf": "TAF EDFH 231700Z 2318/2418 36006KT CAVOK"
    },
    {
      "icao": "EDJA",
      "alert": "OK",
      "vis_m": 9999,
      "fzfg": false,
      "metar_trigger": false,
      "taf_trigger": false,
      "metar": "METAR EDJA 231920Z 05002KT CAVOK 09/M01 Q1023",
      "taf": "TAF EDJA 231700Z 2318/2403 VRB03KT CAVOK"
    },
    {
      "icao": "EDLW",
      "alert": "OK",
      "vis_m": 9999,
      "fzfg": false,
      "metar_trigger": false,
      "taf_trigger": false,
      "metar": "METAR EDLW 231920Z VRB02KT CAVOK 12/02 Q1025",
      "taf": "TAF EDLW 231700Z 2318/2418 32006KT CAVOK"
    },
    {
      "icao": "EDNY",
      "alert": "OK",
      "vis_m": 9999,
      "fzfg": false,
      "metar_trigger": false,
      "taf_trigger": false,
      "metar": "METAR EDNY 231920Z 06003KT CAVOK 11/M03 Q1023",
      "taf": "TAF EDNY 231700Z 2318/2403 02008KT CAVOK"
    },
    {
      "icao": "EDSB",
      "alert": "OK",
      "vis_m": 9999,
      "fzfg": false,
      "metar_trigger": false,
      "taf_trigger": false,
      "metar": "METAR EDSB 231920Z 04004KT CAVOK 14/M01 Q1023",
      "taf": "TAF EDSB 231700Z 2318/2418 02007KT CAVOK"
    },
    {
      "icao": "EETN",
      "alert": "OK",
      "vis_m": 9999,
      "fzfg": false,
      "metar_trigger": false,
      "taf_trigger": false,
      "metar": "METAR EETN 231920Z 23003KT CAVOK 05/M00 Q1008 NOSIG",
      "taf": "TAF EETN 231730Z 2318/2418 VRB02KT CAVOK"
    },
    {
      "icao": "EFTU",
      "alert": "OK",
      "vis_m": 9999,
      "fzfg": false,
      "metar_trigger": false,
      "taf_trigger": false,
      "metar": "METAR EFTU 231920Z AUTO 31005KT CAVOK 04/M03 Q1009",
      "taf": "TAF EFTU 231728Z 2318/2418 32008KT CAVOK"
    },
    {
      "icao": "EGBB",
      "alert": "OK",
      "vis_m": 9999,
      "fzfg": false,
      "metar_trigger": false,
      "taf_trigger": false,
      "metar": "METAR EGBB 231920Z 08008KT CAVOK 12/04 Q1028",
      "taf": "TAF EGBB 231653Z 2318/2418 09010KT CAVOK"
    },
    {
      "icao": "EGGP",
      "alert": "OK",
      "vis_m": 9999,
      "fzfg": false,
      "metar_trigger": false,
      "taf_trigger": false,
      "metar": "METAR EGGP 231920Z 11006KT CAVOK 13/04 Q1028",
      "taf": "TAF EGGP 231658Z 2318/2418 12008KT CAVOK"
    },
    {
      "icao": "EGGW",
      "alert": "OK",
      "vis_m": 9999,
      "fzfg": false,
      "metar_trigger": false,
      "taf_trigger": false,
      "metar": "METAR EGGW 231920Z AUTO 09005KT 9999 NCD 11/03 Q1028",
      "taf": "TAF EGGW 231656Z 2318/2418 07007KT CAVOK"
    },
    {
      "icao": "EGKK",
      "alert": "OK",
      "vis_m": 9999,
      "fzfg": false,
      "metar_trigger": false,
      "taf_trigger": false,
      "metar": "METAR EGKK 231920Z 07008KT CAVOK 09/01 Q1027",
      "taf": "TAF EGKK 231655Z 2318/2424 07009KT 9999 FEW045"
    },
    {
      "icao": "EGNM",
      "alert": "OK",
      "vis_m": 9999,
      "fzfg": false,
      "metar_trigger": false,
      "taf_trigger": false,
      "metar": "METAR EGNM 231920Z 10008KT CAVOK 08/04 Q1030",
      "taf": "TAF EGNM 231658Z 2318/2418 09008KT CAVOK"
    },
    {
      "icao": "EGPD",
      "alert": "OK",
      "vis_m": 9999,
      "fzfg": false,
      "metar_trigger": false,
      "taf_trigger": false,
      "metar": "METAR EGPD 231920Z COR AUTO 13006KT 9999 NCD 06/04 Q1030 NOSIG",
      "taf": "TAF EGPD 231656Z 2318/2418 15010KT CAVOK"
    },
    {
      "icao": "EGPF",
      "alert": "OK",
      "vis_m": 9999,
      "fzfg": false,
      "metar_trigger": false,
      "taf_trigger": false,
      "metar": "METAR EGPF 231920Z AUTO 05008KT 9999 NCD 13/05 Q1029",
      "taf": "TAF EGPF 231658Z 2318/2418 07007KT CAVOK"
    },
    {
      "icao": "EHBK",
      "alert": "OK",
      "vis_m": 9999,
      "fzfg": false,
      "metar_trigger": false,
      "taf_trigger": false,
      "metar": "METAR EHBK 231925Z AUTO 36006KT 320V030 9999 NCD 14/00 Q1026 NOSIG",
      "taf": "TAF EHBK 231715Z 2318/2424 36006KT CAVOK"
    },
    {
      "icao": "EHEH",
      "alert": "OK",
      "vis_m": 9999,
      "fzfg": false,
      "metar_trigger": false,
      "taf_trigger": false,
      "metar": "METAR EHEH 231925Z AUTO 01005KT 340V040 9999 NCD 11/00 Q1027 BLU NOSIG RMK TREND REMOTE BY EHWX CB INFO NOT AVBL",
      "taf": "TAF EHEH 231707Z 2318/2424 35006KT CAVOK"
    },
    {
      "icao": "EKBI",
      "alert": "OK",
      "vis_m": 9999,
      "fzfg": false,
      "metar_trigger": false,
      "taf_trigger": false,
      "metar": "METAR EKBI 231920Z AUTO 29012KT 9999 NCD 07/04 Q1020",
      "taf": "TAF EKBI 231727Z 2318/2418 30017KT CAVOK"
    },
    {
      "icao": "EKCH",
      "alert": "OK",
      "vis_m": 9999,
      "fzfg": false,
      "metar_trigger": false,
      "taf_trigger": false,
      "metar": "METAR EKCH 231920Z AUTO 03003KT 9999 NCD 10/03 Q1017 NOSIG",
      "taf": "TAF EKCH 231727Z 2318/2418 33012KT CAVOK"
    },
    {
      "icao": "ENAL",
      "alert": "OK",
      "vis_m": 9000,
      "fzfg": false,
      "metar_trigger": false,
      "taf_trigger": false,
      "metar": "METAR ENAL 231920Z 26010KT 9000 -DZ VV009 06/06 Q1026",
      "taf": "TAF ENAL 231700Z 2318/2403 25012KT 9000 -DZ SCT008 BKN015"
    },
    {
      "icao": "ENBR",
      "alert": "OK",
      "vis_m": 9999,
      "fzfg": false,
      "metar_trigger": false,
      "taf_trigger": false,
      "metar": "METAR ENBR 231920Z 32009KT 9999 FEW019 BKN028 07/04 Q1027 NOSIG RMK WIND 1200FT 34020KT",
      "taf": "TAF ENBR 231700Z 2318/2418 33012KT 9999 BKN020"
    },
    {
      "icao": "ENGM",
      "alert": "OK",
      "vis_m": 9999,
      "fzfg": false,
      "metar_trigger": false,
      "taf_trigger": false,
      "metar": "METAR ENGM 231920Z 01011KT 330V030 CAVOK 12/M02 Q1018 NOSIG",
      "taf": "TAF ENGM 231700Z 2318/2418 35015KT CAVOK"
    },
    {
      "icao": "ENHD",
      "alert": "OK",
      "vis_m": 9999,
      "fzfg": false,
      "metar_trigger": false,
      "taf_trigger": false,
      "metar": "METAR ENHD 231920Z 34021KT 9999 FEW025 07/04 Q1027",
      "taf": "TAF ENHD 231400Z 2315/2322 34020KT 9999 FEW020"
    },
    {
      "icao": "ENTC",
      "alert": "OK",
      "vis_m": 9999,
      "fzfg": false,
      "metar_trigger": false,
      "taf_trigger": false,
      "metar": "METAR ENTC 231920Z 33013KT 9999 -SHSN FEW006 SCT030 BKN054 01/M03 Q1012 TEMPO -SHSN 2000 VV009 RMK WIND 2600FT 34038KT",
      "taf": ""
    },
    {
      "icao": "ENTO",
      "alert": "OK",
      "vis_m": 9999,
      "fzfg": false,
      "metar_trigger": false,
      "taf_trigger": false,
      "metar": "METAR ENTO 231920Z 34010KT CAVOK 15/02 Q1017 NOSIG",
      "taf": "TAF ENTO 231700Z 2318/2418 34007KT CAVOK"
    },
    {
      "icao": "ENVA",
      "alert": "OK",
      "vis_m": 9999,
      "fzfg": false,
      "metar_trigger": false,
      "taf_trigger": false,
      "metar": "METAR ENVA 231920Z 28020KT 9999 FEW009 SCT020 BKN039 06/06 Q1021 REDZ TEMPO 4000 RADZ BR BKN008 RMK WIND 670FT 28025KT",
      "taf": "TAF ENVA 231700Z 2318/2418 27020KT 9999 -DZ SCT010 BKN018"
    },
    {
      "icao": "ENZV",
      "alert": "OK",
      "vis_m": 9999,
      "fzfg": false,
      "metar_trigger": false,
      "taf_trigger": false,
      "metar": "METAR ENZV 231920Z 34018KT CAVOK 07/03 Q1026 NOSIG",
      "taf": "TAF ENZV 231700Z 2318/2418 33018KT 9999 FEW025"
    },
    {
      "icao": "EPGD",
      "alert": "OK",
      "vis_m": 9999,
      "fzfg": false,
      "metar_trigger": false,
      "taf_trigger": false,
      "metar": "METAR EPGD 231930Z 29007KT CAVOK 07/01 Q1016",
      "taf": "TAF EPGD 231730Z 2318/2418 31008KT CAVOK"
    },
    {
      "icao": "EPKK",
      "alert": "OK",
      "vis_m": 9999,
      "fzfg": false,
      "metar_trigger": false,
      "taf_trigger": false,
      "metar": "METAR EPKK 231930Z 27009KT 9999 BKN058 12/03 Q1015",
      "taf": "TAF EPKK 231730Z 2318/2418 30010KT 9999 SCT050"
    },
    {
      "icao": "EPKT",
      "alert": "OK",
      "vis_m": 9999,
      "fzfg": false,
      "metar_trigger": false,
      "taf_trigger": false,
      "metar": "METAR EPKT 231930Z 28007KT CAVOK 10/03 Q1015",
      "taf": "TAF EPKT 231730Z 2318/2418 31010KT CAVOK"
    },
    {
      "icao": "EPLB",
      "alert": "OK",
      "vis_m": 9999,
      "fzfg": false,
      "metar_trigger": false,
      "taf_trigger": false,
      "metar": "METAR EPLB 231930Z 32008KT CAVOK 12/M07 Q1011",
      "taf": "TAF EPLB 231730Z 2318/2418 33017KT CAVOK"
    },
    {
      "icao": "EPMO",
      "alert": "OK",
      "vis_m": 9999,
      "fzfg": false,
      "metar_trigger": false,
      "taf_trigger": false,
      "metar": "METAR EPMO 231930Z 33010KT CAVOK 09/M03 Q1014",
      "taf": "TAF EPMO 231730Z 2318/2418 33015KT CAVOK"
    },
    {
      "icao": "EPPO",
      "alert": "OK",
      "vis_m": 9999,
      "fzfg": false,
      "metar_trigger": false,
      "taf_trigger": false,
      "metar": "METAR EPPO 231930Z 30006KT CAVOK 10/04 Q1017",
      "taf": "TAF EPPO 231730Z 2318/2418 30010KT CAVOK"
    },
    {
      "icao": "EPRA",
      "alert": "OK",
      "vis_m": 9999,
      "fzfg": false,
      "metar_trigger": false,
      "taf_trigger": false,
      "metar": "METAR EPRA 231930Z 33010KT CAVOK 11/M04 Q1013",
      "taf": "TAF EPRA 231730Z 2318/2403 32014KT CAVOK"
    },
    {
      "icao": "EPRZ",
      "alert": "OK",
      "vis_m": 9999,
      "fzfg": false,
      "metar_trigger": false,
      "taf_trigger": false,
      "metar": "METAR EPRZ 231930Z 28009KT CAVOK 12/01 Q1012",
      "taf": "TAF EPRZ 231730Z 2318/2418 30015KT CAVOK"
    },
    {
      "icao": "EPSC",
      "alert": "OK",
      "vis_m": 9999,
      "fzfg": false,
      "metar_trigger": false,
      "taf_trigger": false,
      "metar": "METAR EPSC 231930Z 23003KT CAVOK 09/06 Q1018",
      "taf": "TAF EPSC 231730Z 2318/2418 30008KT CAVOK"
    },
    {
      "icao": "EPSY",
      "alert": "OK",
      "vis_m": 9999,
      "fzfg": false,
      "metar_trigger": false,
      "taf_trigger": false,
      "metar": "METAR EPSY 231930Z 32009KT CAVOK 07/M03 Q1014",
      "taf": "TAF EPSY 231730Z 2318/2403 34010KT CAVOK"
    },
    {
      "icao": "EPWA",
      "alert": "OK",
      "vis_m": 9999,
      "fzfg": false,
      "metar_trigger": false,
      "taf_trigger": false,
      "metar": "METAR EPWA 231930Z 33014KT CAVOK 10/M03 Q1014 NOSIG",
      "taf": "TAF EPWA 231730Z 2318/2418 33015KT CAVOK"
    },
    {
      "icao": "EPWR",
      "alert": "OK",
      "vis_m": 9999,
      "fzfg": false,
      "metar_trigger": false,
      "taf_trigger": false,
      "metar": "METAR EPWR 231930Z 30007KT CAVOK 13/04 Q1017",
      "taf": "TAF EPWR 231716Z 2318/2418 31014KT CAVOK"
    },
    {
      "icao": "ESGG",
      "alert": "OK",
      "vis_m": 9999,
      "fzfg": false,
      "metar_trigger": false,
      "taf_trigger": false,
      "metar": "METAR ESGG 231920Z 31005KT CAVOK 09/01 Q1016",
      "taf": "TAF ESGG 231730Z 2318/2418 28010KT CAVOK"
    },
    {
      "icao": "ESKN",
      "alert": "OK",
      "vis_m": 9999,
      "fzfg": false,
      "metar_trigger": false,
      "taf_trigger": false,
      "metar": "METAR ESKN 231920Z 26006KT CAVOK 09/02 Q1012",
      "taf": "TAF ESKN 231730Z 2318/2418 29007KT CAVOK"
    },
    {
      "icao": "ESMS",
      "alert": "OK",
      "vis_m": 9999,
      "fzfg": false,
      "metar_trigger": false,
      "taf_trigger": false,
      "metar": "METAR ESMS 231920Z 31006KT CAVOK 09/01 Q1016",
      "taf": ""
    },
    {
      "icao": "ESSA",
      "alert": "OK",
      "vis_m": 9999,
      "fzfg": false,
      "metar_trigger": false,
      "taf_trigger": false,
      "metar": "METAR ESSA 231920Z 07010KT CAVOK 11/01 Q1011 NOSIG",
      "taf": ""
    },
    {
      "icao": "EYKA",
      "alert": "OK",
      "vis_m": 9999,
      "fzfg": false,
      "metar_trigger": false,
      "taf_trigger": false,
      "metar": "METAR EYKA 231920Z 36004KT 290V100 CAVOK 05/M03 Q1010",
      "taf": "TAF EYKA 231700Z 2318/2418 35010KT 9000 NSC"
    },
    {
      "icao": "EYPA",
      "alert": "OK",
      "vis_m": 9999,
      "fzfg": false,
      "metar_trigger": false,
      "taf_trigger": false,
      "metar": "METAR EYPA 231920Z 33003KT 260V040 9999 BKN046 04/01 Q1014",
      "taf": "TAF EYPA 231700Z 2318/2418 VRB04KT 9000 NSC"
    },
    {
      "icao": "EYVI",
      "alert": "OK",
      "vis_m": 9999,
      "fzfg": false,
      "metar_trigger": false,
      "taf_trigger": false,
      "metar": "METAR EYVI 231920Z 34010KT CAVOK 05/M04 Q1008 NOSIG",
      "taf": "TAF EYVI 231700Z 2318/2418 35015G25KT 9000 NSC"
    },
    {
      "icao": "GCFV",
      "alert": "OK",
      "vis_m": 9999,
      "fzfg": false,
      "metar_trigger": false,
      "taf_trigger": false,
      "metar": "METAR GCFV 231930Z 34016KT 9999 FEW040 20/11 Q1016",
      "taf": "TAF GCFV 231400Z 2315/2415 07007KT 9999 SCT040 TX23/2414Z TN16/2406Z"
    },
    {
      "icao": "GCLP",
      "alert": "OK",
      "vis_m": 9999,
      "fzfg": false,
      "metar_trigger": false,
      "taf_trigger": false,
      "metar": "METAR GCLP 231930Z 02011KT 9999 FEW025 SCT045 19/14 Q1016 NOSIG",
      "taf": ""
    },
    {
      "icao": "GCTS",
      "alert": "OK",
      "vis_m": 9999,
      "fzfg": false,
      "metar_trigger": false,
      "taf_trigger": false,
      "metar": "METAR GCTS 231930Z 07010KT 9999 SCT030 BKN045 19/13 Q1016 NOSIG",
      "taf": "TAF GCTS 231400Z 2315/2415 06010KT 9999 BKN035 TX24/2414Z TN15/2406Z"
    },
    {
      "icao": "GMAD",
      "alert": "OK",
      "vis_m": 8000,
      "fzfg": false,
      "metar_trigger": false,
      "taf_trigger": false,
      "metar": "METAR GMAD 231930Z 20011KT 8000 FEW020 SCT100 19/14 Q1013 NOSIG",
      "taf": "TAF GMAD 231700Z 2318/2424 20008KT 8000 SCT020"
    },
    {
      "icao": "GMMN",
      "alert": "OK",
      "vis_m": 9999,
      "fzfg": false,
      "metar_trigger": false,
      "taf_trigger": false,
      "metar": "METAR GMMN 231930Z 01009KT 9999 BKN030 16/13 Q1015 NOSIG",
      "taf": "TAF GMMN 231700Z 2318/2424 36010KT 9999 BKN026"
    },
    {
      "icao": "GMMX",
      "alert": "OK",
      "vis_m": 8000,
      "fzfg": false,
      "metar_trigger": false,
      "taf_trigger": false,
      "metar": "METAR GMMX 231930Z 04007KT 010V080 8000 BKN020 23/14 Q1013 NOSIG",
      "taf": "TAF GMMX 231700Z 2318/2424 06006KT 8000 BKN023"
    },
    {
      "icao": "HEGN",
      "alert": "OK",
      "vis_m": 9999,
      "fzfg": false,
      "metar_trigger": false,
      "taf_trigger": false,
      "metar": "METAR HEGN 231900Z 30012KT CAVOK 26/M06 Q1008 NOSIG",
      "taf": "TAF HEGN 231700Z 2318/2424 32015KT CAVOK"
    },
    {
      "icao": "HEMA",
      "alert": "OK",
      "vis_m": 9999,
      "fzfg": false,
      "metar_trigger": false,
      "taf_trigger": false,
      "metar": "METAR HEMA 231900Z 28006KT CAVOK 25/03 Q1006 NOSIG",
      "taf": "TAF HEMA 231700Z 2318/2424 30015KT CAVOK"
    },
    {
      "icao": "HESH",
      "alert": "OK",
      "vis_m": 9999,
      "fzfg": false,
      "metar_trigger": false,
      "taf_trigger": false,
      "metar": "METAR HESH 231900Z 34009KT CAVOK 27/04 Q1006 NOSIG",
      "taf": "TAF HESH 231700Z 2318/2424 34010KT CAVOK"
    },
    {
      "icao": "HESX",
      "alert": "OK",
      "vis_m": 9999,
      "fzfg": false,
      "metar_trigger": false,
      "taf_trigger": false,
      "metar": "METAR HESX 231900Z 03007KT CAVOK 19/08 Q1011 NOSIG",
      "taf": "TAF HESX 231701Z 2318/2424 05008KT CAVOK"
    },
    {
      "icao": "LATI",
      "alert": "OK",
      "vis_m": 9999,
      "fzfg": false,
      "metar_trigger": false,
      "taf_trigger": false,
      "metar": "METAR LATI 231920Z 33006KT CAVOK 11/07 Q1015 NOSIG",
      "taf": "TAF LATI 231700Z 2318/2418 33010KT CAVOK TX23/2413Z TN05/2404Z"
    },
    {
      "icao": "LBPD",
      "alert": "OK",
      "vis_m": 9999,
      "fzfg": false,
      "metar_trigger": false,
      "taf_trigger": false,
      "metar": "METAR LBPD 231930Z AUTO 20005KT 9999 NCD 10/01 Q1013",
      "taf": "TAF LBPD 231700Z 2318/2418 29012KT 9999 SCT070"
    },
    {
      "icao": "LBSF",
      "alert": "OK",
      "vis_m": 9999,
      "fzfg": false,
      "metar_trigger": false,
      "taf_trigger": false,
      "metar": "METAR LBSF 231930Z AUTO 31004KT 9999 NSC 09/M02 Q1014 NOSIG",
      "taf": "TAF LBSF 231700Z 2318/2418 30010KT 9999 SCT070"
    },
    {
      "icao": "LBWN",
      "alert": "OK",
      "vis_m": 9999,
      "fzfg": false,
      "metar_trigger": false,
      "taf_trigger": false,
      "metar": "METAR LBWN 231930Z AUTO 24003KT 9999 NSC 11/01 Q1010 NOSIG",
      "taf": "TAF LBWN 231700Z 2318/2418 28010KT 9999 SCT045"
    },
    {
      "icao": "LCLK",
      "alert": "OK",
      "vis_m": 9999,
      "fzfg": false,
      "metar_trigger": false,
      "taf_trigger": false,
      "metar": "METAR LCLK 231930Z 27004KT CAVOK 16/13 Q1011 NOSIG",
      "taf": "TAF LCLK 231730Z 2318/2418 22010KT 9999 FEW020 SCT040"
    },
    {
      "icao": "LCPH",
      "alert": "OK",
      "vis_m": 9999,
      "fzfg": false,
      "metar_trigger": false,
      "taf_trigger": false,
      "metar": "METAR LCPH 231930Z 01005KT 9999 FEW020 16/12 Q1011 NOSIG",
      "taf": "TAF LCPH 231730Z 2318/2418 31010KT 9999 FEW020"
    },
    {
      "icao": "LEAL",
      "alert": "OK",
      "vis_m": 9999,
      "fzfg": false,
      "metar_trigger": false,
      "taf_trigger": false,
      "metar": "METAR LEAL 231930Z 07012KT 040V100 CAVOK 20/13 Q1015 NOSIG",
      "taf": "TAF LEAL 231700Z 2318/2418 08010KT 9999 FEW010 TX22/2412Z TN14/2406Z"
    },
    {
      "icao": "LEBB",
      "alert": "OK",
      "vis_m": 9999,
      "fzfg": false,
      "metar_trigger": false,
      "taf_trigger": false,
      "metar": "METAR LEBB 231930Z 14008G19KT 080V200 CAVOK 24/13 Q1012 NOSIG",
      "taf": "TAF LEBB 231700Z 2318/2418 13009KT 9999 FEW060 TX25/2318Z TN15/2418Z"
    },
    {
      "icao": "LEBL",
      "alert": "OK",
      "vis_m": 9999,
      "fzfg": false,
      "metar_trigger": false,
      "taf_trigger": false,
      "metar": "METAR LEBL 231930Z 06012KT 9999 FEW035 16/12 Q1020 NOSIG",
      "taf": "TAF LEBL 231700Z 2318/2418 06015KT 9999 FEW020 TX19/2412Z TN13/2405Z"
    },
    {
      "icao": "LECH",
      "alert": "OK",
      "vis_m": 9999,
      "fzfg": false,
      "metar_trigger": false,
      "taf_trigger": false,
      "metar": "METAR LECH 231930Z AUTO 04005KT 360V070 CAVOK 14/01 Q1020",
      "taf": "TAF LECH 231700Z 2318/2418 05010KT 9999 BKN020 TX23/2413Z TN10/2407Z"
    },
    {
      "icao": "LEMD",
      "alert": "OK",
      "vis_m": 9999,
      "fzfg": false,
      "metar_trigger": false,
      "taf_trigger": false,
      "metar": "METAR LEMD 231930Z 14012KT 110V170 CAVOK 21/09 Q1013 NOSIG",
      "taf": "TAF LEMD 231700Z 2318/2424 VRB04KT CAVOK TX22/2416Z TN10/2406Z"
    },
    {
      "icao": "LEMG",
      "alert": "OK",
      "vis_m": 9999,
      "fzfg": false,
      "metar_trigger": false,
      "taf_trigger": false,
      "metar": "METAR LEMG 231930Z 12005KT 9999 FEW015 BKN034 18/14 Q1015 NOSIG",
      "taf": "TAF LEMG 231700Z 2318/2418 13008KT 9999 BKN018 TX20/2414Z TN15/2406Z"
    },
    {
      "icao": "LEVC",
      "alert": "OK",
      "vis_m": 9999,
      "fzfg": false,
      "metar_trigger": false,
      "taf_trigger": false,
      "metar": "METAR LEVC 231930Z 09008KT 050V120 9999 FEW017 17/13 Q1019 NOSIG",
      "taf": "TAF LEVC 231700Z 2318/2418 07009KT 9999 SCT020 TX21/2412Z TN14/2406Z"
    },
    {
      "icao": "LEXJ",
      "alert": "OK",
      "vis_m": 9999,
      "fzfg": false,
      "metar_trigger": false,
      "taf_trigger": false,
      "metar": "METAR LEXJ 231930Z 27005KT CAVOK 17/13 Q1012",
      "taf": "TAF LEXJ 231400Z 2315/2415 06007KT 9999 FEW080 TX22/2315Z TN13/2403Z"
    },
    {
      "icao": "LEZG",
      "alert": "OK",
      "vis_m": 9999,
      "fzfg": false,
      "metar_trigger": false,
      "taf_trigger": false,
      "metar": "METAR LEZG 231930Z 10010KT CAVOK 19/05 Q1017 NOSIG",
      "taf": "TAF LEZG 231700Z 2318/2418 11012KT 9999 SCT010 TX25/2415Z TN12/2406Z"
    },
    {
      "icao": "LEZL",
      "alert": "OK",
      "vis_m": 9999,
      "fzfg": false,
      "metar_trigger": false,
      "taf_trigger": false,
      "metar": "METAR LEZL 231930Z 23007KT CAVOK 21/10 Q1014 NOSIG",
      "taf": "TAF LEZL 231400Z 2315/2415 23010KT CAVOK TX29/2315Z TN16/2406Z"
    },
    {
      "icao": "LFBD",
      "alert": "OK",
      "vis_m": 9999,
      "fzfg": false,
      "metar_trigger": false,
      "taf_trigger": false,
      "metar": "METAR LFBD 231930Z AUTO 13011KT CAVOK 21/10 Q1016 NOSIG",
      "taf": "TAF LFBD 231700Z 2318/2424 12010KT CAVOK TX28/2414Z TN13/2406Z"
    },
    {
      "icao": "LFLL",
      "alert": "OK",
      "vis_m": 9999,
      "fzfg": false,
      "metar_trigger": false,
      "taf_trigger": false,
      "metar": "METAR LFLL 231930Z 03006KT CAVOK 17/07 Q1021 NOSIG",
      "taf": "TAF LFLL 231700Z 2318/2424 VRB04KT CAVOK"
    },
    {
      "icao": "LFLS",
      "alert": "OK",
      "vis_m": 9999,
      "fzfg": false,
      "metar_trigger": false,
      "taf_trigger": false,
      "metar": "METAR LFLS 231930Z AUTO 07004KT 030V100 CAVOK 13/07 Q1021",
      "taf": "TAF LFLS 231400Z 2315/2415 24008KT CAVOK"
    },
    {
      "icao": "LFMN",
      "alert": "OK",
      "vis_m": 9999,
      "fzfg": false,
      "metar_trigger": false,
      "taf_trigger": false,
      "metar": "METAR LFMN 231930Z 32006KT CAVOK 16/07 Q1020 NOSIG",
      "taf": "TAF LFMN 231400Z 2315/2421 19007KT CAVOK"
    },
    {
      "icao": "LFOB",
      "alert": "OK",
      "vis_m": 9999,
      "fzfg": false,
      "metar_trigger": false,
      "taf_trigger": false,
      "metar": "METAR LFOB 231930Z AUTO 04008KT CAVOK 13/03 Q1024 NOSIG",
      "taf": "TAF LFOB 231700Z 2318/2418 05010KT CAVOK"
    },
    {
      "icao": "LFPO",
      "alert": "OK",
      "vis_m": 9999,
      "fzfg": false,
      "metar_trigger": false,
      "taf_trigger": false,
      "metar": "METAR LFPO 231930Z 05007KT CAVOK 17/M01 Q1023 NOSIG",
      "taf": "TAF LFPO 231700Z 2318/2424 06012KT CAVOK"
    },
    {
      "icao": "LFSB",
      "alert": "OK",
      "vis_m": 9999,
      "fzfg": false,
      "metar_trigger": false,
      "taf_trigger": false,
      "metar": "METAR LFSB 231930Z AUTO 32007KT CAVOK 13/M00 Q1022 NOSIG",
      "taf": "TAF LFSB 231700Z 2318/2418 36008KT CAVOK"
    },
    {
      "icao": "LGAV",
      "alert": "OK",
      "vis_m": 9999,
      "fzfg": false,
      "metar_trigger": false,
      "taf_trigger": false,
      "metar": "METAR LGAV 231920Z 04005KT 9999 FEW020 BKN035 12/07 Q1015 NOSIG",
      "taf": "TAF LGAV 231700Z 2318/2418 35012KT 9999 FEW018 SCT030"
    },
    {
      "icao": "LGTS",
      "alert": "OK",
      "vis_m": 9999,
      "fzfg": false,
      "metar_trigger": false,
      "taf_trigger": false,
      "metar": "METAR LGTS 231920Z 12005KT 9999 FEW025 10/08 Q1015 NOSIG",
      "taf": "TAF LGTS 231700Z 2318/2418 VRB03KT 9999 FEW030"
    },
    {
      "icao": "LHBP",
      "alert": "OK",
      "vis_m": 9999,
      "fzfg": false,
      "metar_trigger": false,
      "taf_trigger": false,
      "metar": "METAR LHBP 231930Z 31010KT CAVOK 14/M01 Q1014 NOSIG",
      "taf": "TAF LHBP 231715Z 2318/2418 31016KT CAVOK"
    },
    {
      "icao": "LHDC",
      "alert": "OK",
      "vis_m": 9999,
      "fzfg": false,
      "metar_trigger": false,
      "taf_trigger": false,
      "metar": "METAR LHDC 231915Z AUTO 04006KT CAVOK 12/01 Q1012",
      "taf": "TAF LHDC 231415Z 2315/2324 28014G24KT CAVOK"
    },
    {
      "icao": "LIBD",
      "alert": "OK",
      "vis_m": 9999,
      "fzfg": false,
      "metar_trigger": false,
      "taf_trigger": false,
      "metar": "METAR LIBD 231920Z 32008KT 290V350 CAVOK 14/05 Q1017",
      "taf": "TAF LIBD 231700Z 2318/2418 30012KT CAVOK"
    },
    {
      "icao": "LIBG",
      "alert": "OK",
      "vis_m": null,
      "fzfg": false,
      "metar_trigger": false,
      "taf_trigger": false,
      "metar": "",
      "taf": "TAF LIBG 231400Z 2315/2324 35015KT 9999 FEW040"
    },
    {
      "icao": "LIBP",
      "alert": "OK",
      "vis_m": 9999,
      "fzfg": false,
      "metar_trigger": false,
      "taf_trigger": false,
      "metar": "METAR LIBP 231920Z AUTO 22007KT 9999 NCD 08/05 Q1020",
      "taf": "TAF LIBP 231700Z 2318/2418 24006KT CAVOK"
    },
    {
      "icao": "LIBR",
      "alert": "OK",
      "vis_m": 9999,
      "fzfg": false,
      "metar_trigger": false,
      "taf_trigger": false,
      "metar": "METAR LIBR 231920Z 35016KT CAVOK 15/08 Q1016",
      "taf": "TAF LIBR 231700Z 2318/2418 34017KT CAVOK"
    },
    {
      "icao": "LICA",
      "alert": "OK",
      "vis_m": 9999,
      "fzfg": false,
      "metar_trigger": false,
      "taf_trigger": false,
      "metar": "METAR LICA 231920Z AUTO 04008KT 9999 NCD 14/01 Q1016",
      "taf": "TAF LICA 231700Z 2318/2418 28015KT 9999 FEW040"
    },
    {
      "icao": "LICC",
      "alert": "OK",
      "vis_m": 9999,
      "fzfg": false,
      "metar_trigger": false,
      "taf_trigger": false,
      "metar": "METAR LICC 231920Z 10002KT 9999 FEW030 15/12 Q1016",
      "taf": "TAF LICC 231700Z 2318/2418 VRB05KT 9999 BKN020"
    },
    {
      "icao": "LICJ",
      "alert": "OK",
      "vis_m": 9999,
      "fzfg": false,
      "metar_trigger": false,
      "taf_trigger": false,
      "metar": "METAR LICJ 231920Z 04016KT 9999 FEW030 16/06 Q1017",
      "taf": "TAF LICJ 231700Z 2318/2418 04012KT CAVOK"
    },
    {
      "icao": "LIMC",
      "alert": "OK",
      "vis_m": 9999,
      "fzfg": false,
      "metar_trigger": false,
      "taf_trigger": false,
      "metar": "METAR LIMC 231920Z VRB02KT CAVOK 14/08 Q1018 NOSIG",
      "taf": "TAF LIMC 231700Z 2318/2424 VRB05KT CAVOK"
    },
    {
      "icao": "LIME",
      "alert": "OK",
      "vis_m": 9999,
      "fzfg": false,
      "metar_trigger": false,
      "taf_trigger": false,
      "metar": "METAR LIME 231920Z AUTO 01004KT 9999 NCD 16/07 Q1018",
      "taf": "TAF LIME 231700Z 2318/2418 VRB05KT CAVOK"
    },
    {
      "icao": "LIMF",
      "alert": "OK",
      "vis_m": 9999,
      "fzfg": false,
      "metar_trigger": false,
      "taf_trigger": false,
      "metar": "METAR LIMF 231920Z 26005KT CAVOK 18/05 Q1018",
      "taf": "TAF LIMF 231700Z 2318/2418 VRB03KT CAVOK"
    },
    {
      "icao": "LIMJ",
      "alert": "OK",
      "vis_m": 9999,
      "fzfg": false,
      "metar_trigger": false,
      "taf_trigger": false,
      "metar": "METAR LIMJ 231920Z VRB01KT CAVOK 16/10 Q1019",
      "taf": "TAF LIMJ 231700Z 2318/2418 VRB04KT 9999 FEW015"
    },
    {
      "icao": "LIPE",
      "alert": "OK",
      "vis_m": 9999,
      "fzfg": false,
      "metar_trigger": false,
      "taf_trigger": false,
      "metar": "METAR LIPE 231920Z 19003KT CAVOK 13/04 Q1018",
      "taf": "TAF LIPE 231700Z 2318/2418 VRB05KT CAVOK"
    },
    {
      "icao": "LIPH",
      "alert": "OK",
      "vis_m": 9999,
      "fzfg": false,
      "metar_trigger": false,
      "taf_trigger": false,
      "metar": "METAR LIPH 231920Z VRB02KT CAVOK 17/05 Q1018",
      "taf": "TAF LIPH 231700Z 2318/2418 VRB05KT CAVOK"
    },
    {
      "icao": "LIPQ",
      "alert": "OK",
      "vis_m": 9999,
      "fzfg": false,
      "metar_trigger": false,
      "taf_trigger": false,
      "metar": "METAR LIPQ 231920Z AUTO 12003KT 9999 FEW140/// BKN170/// 14/07 Q1018",
      "taf": "TAF LIPQ 231700Z 2318/2418 VRB05KT CAVOK"
    },
    {
      "icao": "LIPR",
      "alert": "OK",
      "vis_m": 9999,
      "fzfg": false,
      "metar_trigger": false,
      "taf_trigger": false,
      "metar": "METAR LIPR 231920Z 20005KT CAVOK 12/02 Q1019",
      "taf": "TAF LIPR 231700Z 2318/2418 VRB05KT CAVOK"
    },
    {
      "icao": "LIPX",
      "alert": "OK",
      "vis_m": 9999,
      "fzfg": false,
      "metar_trigger": false,
      "taf_trigger": false,
      "metar": "METAR LIPX 231920Z 24004KT CAVOK 14/06 Q1018",
      "taf": "TAF LIPX 231700Z 2318/2418 25010KT CAVOK"
    },
    {
      "icao": "LIPY",
      "alert": "OK",
      "vis_m": 9999,
      "fzfg": false,
      "metar_trigger": false,
      "taf_trigger": false,
      "metar": "METAR LIPY 231920Z AUTO VRB02KT 9999 NCD 11/04 Q1019",
      "taf": "TAF LIPY 231700Z 2318/2418 VRB05KT CAVOK"
    },
    {
      "icao": "LIPZ",
      "alert": "OK",
      "vis_m": 9999,
      "fzfg": false,
      "metar_trigger": false,
      "taf_trigger": false,
      "metar": "METAR LIPZ 231920Z 22006KT CAVOK 16/07 Q1018 NOSIG",
      "taf": "TAF LIPZ 231700Z 2318/2424 23010KT CAVOK"
    },
    {
      "icao": "LIRF",
      "alert": "OK",
      "vis_m": 9999,
      "fzfg": false,
      "metar_trigger": false,
      "taf_trigger": false,
      "metar": "METAR LIRF 231920Z 32004KT 280V350 CAVOK 14/02 Q1017 NOSIG",
      "taf": "TAF LIRF 231700Z 2318/2424 28012KT CAVOK"
    },
    {
      "icao": "LIRN",
      "alert": "OK",
      "vis_m": 9999,
      "fzfg": false,
      "metar_trigger": false,
      "taf_trigger": false,
      "metar": "METAR LIRN 231920Z 05008KT CAVOK 15/M02 Q1018 NOSIG",
      "taf": "TAF LIRN 231700Z 2318/2418 04013KT CAVOK"
    },
    {
      "icao": "LIRP",
      "alert": "OK",
      "vis_m": 9999,
      "fzfg": false,
      "metar_trigger": false,
      "taf_trigger": false,
      "metar": "METAR LIRP 231915Z VRB03KT CAVOK 14/08 Q1019 NOSIG",
      "taf": "TAF LIRP 231700Z 2318/2418 33012KT CAVOK"
    },
    {
      "icao": "LIRZ",
      "alert": "OK",
      "vis_m": 9999,
      "fzfg": false,
      "metar_trigger": false,
      "taf_trigger": false,
      "metar": "METAR LIRZ 231920Z AUTO 01009KT 9999 NCD 10/00 Q1019",
      "taf": "TAF LIRZ 231700Z 2318/2418 04012KT CAVOK"
    },
    {
      "icao": "LJLJ",
      "alert": "OK",
      "vis_m": 9999,
      "fzfg": false,
      "metar_trigger": false,
      "taf_trigger": false,
      "metar": "METAR LJLJ 231930Z VRB01KT CAVOK 10/03 Q1018 NOSIG",
      "taf": "TAF LJLJ 231700Z 2318/2418 30003KT CAVOK"
    },
    {
      "icao": "LKMT",
      "alert": "OK",
      "vis_m": 9999,
      "fzfg": false,
      "metar_trigger": false,
      "taf_trigger": false,
      "metar": "METAR LKMT 231930Z 29004KT CAVOK 11/05 Q1017 NOSIG",
      "taf": "TAF LKMT 231700Z 2318/2418 29005KT CAVOK"
    },
    {
      "icao": "LKPR",
      "alert": "OK",
      "vis_m": 9999,
      "fzfg": false,
      "metar_trigger": false,
      "taf_trigger": false,
      "metar": "METAR LKPR 231930Z 30007KT CAVOK 09/M00 Q1020 NOSIG",
      "taf": "TAF LKPR 231700Z 2318/2424 30015KT CAVOK"
    },
    {
      "icao": "LLBG",
      "alert": "OK",
      "vis_m": 9999,
      "fzfg": false,
      "metar_trigger": false,
      "taf_trigger": false,
      "metar": "METAR LLBG 231920Z VRB03KT CAVOK 18/12 Q1012 NOSIG",
      "taf": "TAF LLBG 231708Z 2318/2418 VRB04KT CAVOK TX24/2412Z TN10/2403Z"
    },
    {
      "icao": "LMML",
      "alert": "OK",
      "vis_m": 9999,
      "fzfg": false,
      "metar_trigger": false,
      "taf_trigger": false,
      "metar": "METAR LMML 231915Z 07005KT 040V100 9999 FEW022 15/12 Q1016 TEMPO 8000 SHRA SCT020TCU",
      "taf": ""
    },
    {
      "icao": "LOWW",
      "alert": "OK",
      "vis_m": 9999,
      "fzfg": false,
      "metar_trigger": false,
      "taf_trigger": false,
      "metar": "METAR LOWW 231920Z 33010KT CAVOK 14/M04 Q1017 NOSIG",
      "taf": "TAF LOWW 231715Z 2318/2424 32015KT CAVOK TX20/2415Z TN10/2404Z"
    },
    {
      "icao": "LPFR",
      "alert": "OK",
      "vis_m": 9999,
      "fzfg": false,
      "metar_trigger": false,
      "taf_trigger": false,
      "metar": "METAR LPFR 231930Z 26015KT CAVOK 17/13 Q1014",
      "taf": "TAF LPFR 231700Z 2318/2418 26015KT CAVOK"
    },
    {
      "icao": "LPMA",
      "alert": "OK",
      "vis_m": 9999,
      "fzfg": false,
      "metar_trigger": false,
      "taf_trigger": false,
      "metar": "METAR LPMA 231930Z 23008KT 9999 -SHRA BKN015 18/15 Q1015",
      "taf": "TAF LPMA 231700Z 2318/2418 21013KT 9999 SCT015"
    },
    {
      "icao": "LPPR",
      "alert": "OK",
      "vis_m": 9999,
      "fzfg": false,
      "metar_trigger": false,
      "taf_trigger": false,
      "metar": "METAR LPPR 231930Z 28003KT 240V310 9999 FEW008 15/12 Q1014",
      "taf": "TAF LPPR 231700Z 2318/2418 30008KT CAVOK"
    },
    {
      "icao": "LPPS",
      "alert": "OK",
      "vis_m": 9999,
      "fzfg": false,
      "metar_trigger": false,
      "taf_trigger": false,
      "metar": "METAR LPPS 231930Z 26004KT 220V310 9999 FEW015 19/12 Q1015",
      "taf": "TAF LPPS 231700Z 2318/2424 VRB05KT 9999 SCT015"
    },
    {
      "icao": "LPPT",
      "alert": "OK",
      "vis_m": 9999,
      "fzfg": false,
      "metar_trigger": false,
      "taf_trigger": false,
      "metar": "METAR LPPT 231930Z 30008KT 270V330 9999 FEW020 15/11 Q1014",
      "taf": "TAF LPPT 231700Z 2318/2424 29007KT 9999 SCT020"
    },
    {
      "icao": "LQBK",
      "alert": "OK",
      "vis_m": 9999,
      "fzfg": false,
      "metar_trigger": false,
      "taf_trigger": false,
      "metar": "METAR LQBK 231930Z VRB02KT CAVOK 08/02 Q1017 NOSIG",
      "taf": "TAF LQBK 231700Z 2318/2418 15005KT CAVOK TX20/2413Z TN02/2404Z"
    },
    {
      "icao": "LQSA",
      "alert": "OK",
      "vis_m": 9999,
      "fzfg": false,
      "metar_trigger": false,
      "taf_trigger": false,
      "metar": "METAR LQSA 231930Z 32002KT CAVOK 08/01 Q1017 NOSIG",
      "taf": "TAF LQSA 231700Z 2318/2418 VRB02KT CAVOK TX19/2414Z TN03/2404Z"
    },
    {
      "icao": "LQTZ",
      "alert": "OK",
      "vis_m": 9999,
      "fzfg": false,
      "metar_trigger": false,
      "taf_trigger": false,
      "metar": "METAR LQTZ 231930Z 00000KT CAVOK 08/04 Q1017",
      "taf": "TAF LQTZ 231700Z 2318/2418 29005KT CAVOK TX18/2413Z TN01/2404Z"
    },
    {
      "icao": "LRBC",
      "alert": "OK",
      "vis_m": 9999,
      "fzfg": false,
      "metar_trigger": false,
      "taf_trigger": false,
      "metar": "METAR LRBC 231930Z 33011KT CAVOK 13/01 Q1009",
      "taf": "TAF LRBC 231700Z 2318/2403 33010KT CAVOK"
    },
    {
      "icao": "LRBS",
      "alert": "OK",
      "vis_m": 9999,
      "fzfg": false,
      "metar_trigger": false,
      "taf_trigger": false,
      "metar": "METAR LRBS 231930Z VRB02KT CAVOK 11/04 Q1010 NOSIG",
      "taf": "TAF LRBS 231700Z 2318/2418 32006KT CAVOK"
    },
    {
      "icao": "LRBV",
      "alert": "OK",
      "vis_m": 9999,
      "fzfg": false,
      "metar_trigger": false,
      "taf_trigger": false,
      "metar": "METAR LRBV 231930Z 28007KT 9999 BKN086 11/00 Q1010",
      "taf": "TAF LRBV 231700Z 2318/2403 33009KT 9999 SCT060"
    },
    {
      "icao": "LRCL",
      "alert": "OK",
      "vis_m": 9999,
      "fzfg": false,
      "metar_trigger": false,
      "taf_trigger": false,
      "metar": "METAR LRCL 231930Z 31007KT 9999 BKN071 12/M01 Q1011",
      "taf": "TAF LRCL 231700Z 2318/2403 28012KT 9999 FEW065"
    },
    {
      "icao": "LRCV",
      "alert": "OK",
      "vis_m": 9999,
      "fzfg": false,
      "metar_trigger": false,
      "taf_trigger": false,
      "metar": "METAR LRCV 231930Z 29008KT CAVOK 10/01 Q1012",
      "taf": "TAF LRCV 231700Z 2318/2403 29013KT CAVOK"
    },
    {
      "icao": "LRIA",
      "alert": "OK",
      "vis_m": 9999,
      "fzfg": false,
      "metar_trigger": false,
      "taf_trigger": false,
      "metar": "METAR LRIA 231930Z AUTO 31007KT 9999 NCD 11/01 Q1007",
      "taf": "TAF LRIA 231700Z 2318/2403 31009KT CAVOK"
    },
    {
      "icao": "LROP",
      "alert": "OK",
      "vis_m": 9999,
      "fzfg": false,
      "metar_trigger": false,
      "taf_trigger": false,
      "metar": "METAR LROP 231930Z 24005KT CAVOK 10/03 Q1010 NOSIG",
      "taf": "TAF LROP 231700Z 2318/2418 32006KT CAVOK"
    },
    {
      "icao": "LRSB",
      "alert": "OK",
      "vis_m": 9999,
      "fzfg": false,
      "metar_trigger": false,
      "taf_trigger": false,
      "metar": "METAR LRSB 231930Z 28012KT 9999 BKN085 12/M01 Q1011",
      "taf": "TAF LRSB 231700Z 2318/2418 29016KT 9999 BKN080"
    },
    {
      "icao": "LRSM",
      "alert": "OK",
      "vis_m": 9999,
      "fzfg": false,
      "metar_trigger": false,
      "taf_trigger": false,
      "metar": "METAR LRSM 231930Z AUTO 34010KT 9999 FEW180/// 13/00 Q1011",
      "taf": "TAF LRSM 231400Z 2315/2324 31015KT CAVOK"
    },
    {
      "icao": "LRSV",
      "alert": "OK",
      "vis_m": 9999,
      "fzfg": false,
      "metar_trigger": false,
      "taf_trigger": false,
      "metar": "METAR LRSV 231930Z 29010KT CAVOK 10/M00 Q1008",
      "taf": "TAF LRSV 231700Z 2318/2403 32015KT CAVOK"
    },
    {
      "icao": "LRTM",
      "alert": "OK",
      "vis_m": 9999,
      "fzfg": false,
      "metar_trigger": false,
      "taf_trigger": false,
      "metar": "METAR LRTM 231930Z 27006KT CAVOK 12/M00 Q1010",
      "taf": "TAF LRTM 231700Z 2318/2403 27009KT 9999 FEW045"
    },
    {
      "icao": "LRTR",
      "alert": "OK",
      "vis_m": 9999,
      "fzfg": false,
      "metar_trigger": false,
      "taf_trigger": false,
      "metar": "METAR LRTR 231930Z 30005KT CAVOK 09/02 Q1013",
      "taf": "TAF LRTR 231700Z 2318/2418 VRB04KT CAVOK"
    },
    {
      "icao": "LTAC",
      "alert": "OK",
      "vis_m": 9999,
      "fzfg": false,
      "metar_trigger": false,
      "taf_trigger": false,
      "metar": "METAR LTAC 231920Z 27004KT 9999 SCT040 BKN100 07/03 Q1012 NOSIG RMK RWY21C 24005KT RWY03L 25004KT RWY21R 24005KT RWY03R 25006KT 210V270 RWY21L 24005KT",
      "taf": "TAF LTAC 231640Z 2318/2418 VRB02KT 9999 SCT040"
    },
    {
      "icao": "LTFM",
      "alert": "OK",
      "vis_m": 9999,
      "fzfg": false,
      "metar_trigger": false,
      "taf_trigger": false,
      "metar": "METAR LTFM 231920Z 19007KT CAVOK 09/05 Q1013 NOSIG RMK RWY17L 21010KT RWY34L 21006KT RWY16R 22010KT RWY36 21007KT RWY18 21010KT",
      "taf": "TAF LTFM 231640Z 2318/2424 20012KT CAVOK"
    },
    {
      "icao": "LUKK",
      "alert": "OK",
      "vis_m": 9999,
      "fzfg": false,
      "metar_trigger": false,
      "taf_trigger": false,
      "metar": "METAR LUKK 231930Z 34009KT CAVOK 12/M01 Q1006 NOSIG",
      "taf": "TAF LUKK 231703Z 2318/2418 31009KT CAVOK"
    },
    {
      "icao": "LWOH",
      "alert": "OK",
      "vis_m": 9999,
      "fzfg": false,
      "metar_trigger": false,
      "taf_trigger": false,
      "metar": "METAR LWOH 231850Z 30005KT 9999 FEW040 06/01 Q1015",
      "taf": "TAF LWOH 231703Z 2318/2418 03008KT 9999 SCT050"
    },
    {
      "icao": "LWSK",
      "alert": "OK",
      "vis_m": 9999,
      "fzfg": false,
      "metar_trigger": false,
      "taf_trigger": false,
      "metar": "METAR LWSK 231920Z 02005KT CAVOK 08/01 Q1015 NOSIG",
      "taf": "TAF LWSK 231703Z 2318/2418 36008KT 9999 FEW080"
    },
    {
      "icao": "LYBE",
      "alert": "OK",
      "vis_m": 9999,
      "fzfg": false,
      "metar_trigger": false,
      "taf_trigger": false,
      "metar": "METAR LYBE 231930Z 25007KT CAVOK 11/00 Q1015 NOSIG",
      "taf": "TAF LYBE 231700Z 2318/2418 27006KT CAVOK TX19/2413Z TN05/2404Z"
    },
    {
      "icao": "LYNI",
      "alert": "OK",
      "vis_m": 9999,
      "fzfg": false,
      "metar_trigger": false,
      "taf_trigger": false,
      "metar": "METAR LYNI 231930Z 07003KT 010V110 CAVOK 11/M00 Q1015 NOSIG",
      "taf": "TAF LYNI 231700Z 2318/2418 32006KT CAVOK TX20/2413Z TN04/2404Z"
    },
    {
      "icao": "LYPG",
      "alert": "OK",
      "vis_m": 9999,
      "fzfg": false,
      "metar_trigger": false,
      "taf_trigger": false,
      "metar": "METAR LYPG 231930Z 36006KT CAVOK 13/01 Q1015 NOSIG",
      "taf": "TAF LYPG 231700Z 2318/2418 34008KT CAVOK TX23/2413Z TN09/2404Z"
    },
    {
      "icao": "LZIB",
      "alert": "OK",
      "vis_m": 9999,
      "fzfg": false,
      "metar_trigger": false,
      "taf_trigger": false,
      "metar": "METAR LZIB 231930Z 32015KT CAVOK 16/M06 Q1016 NOSIG",
      "taf": "TAF LZIB 231715Z 2318/2418 32012KT CAVOK"
    },
    {
      "icao": "LZKZ",
      "alert": "OK",
      "vis_m": 9999,
      "fzfg": false,
      "metar_trigger": false,
      "taf_trigger": false,
      "metar": "METAR LZKZ 231930Z 35012KT CAVOK 14/01 Q1012 NOSIG",
      "taf": "TAF LZKZ 231715Z 2318/2418 34012KT CAVOK"
    },
    {
      "icao": "LZTT",
      "alert": "OK",
      "vis_m": 9999,
      "fzfg": false,
      "metar_trigger": false,
      "taf_trigger": false,
      "metar": "METAR LZTT 231930Z 15008KT 110V180 9999 FEW056 09/M01 Q1013",
      "taf": "TAF LZTT 231715Z 2318/2418 29012KT 9999 FEW050"
    },
    {
      "icao": "OEJN",
      "alert": "OK",
      "vis_m": 9999,
      "fzfg": false,
      "metar_trigger": false,
      "taf_trigger": false,
      "metar": "METAR OEJN 231900Z 01006KT 9999 FEW040 28/13 Q1006 NOSIG",
      "taf": "TAF OEJN 231700Z 2318/2424 02008KT 9999 FEW040"
    },
    {
      "icao": "OEMA",
      "alert": "OK",
      "vis_m": 9999,
      "fzfg": false,
      "metar_trigger": false,
      "taf_trigger": false,
      "metar": "METAR OEMA 231900Z 21010KT CAVOK 30/M03 Q1010 NOSIG",
      "taf": "TAF OEMA 231700Z 2318/2424 VRB03KT CAVOK"
    },
    {
      "icao": "OJAI",
      "alert": "OK",
      "vis_m": 5000,
      "fzfg": false,
      "metar_trigger": false,
      "taf_trigger": false,
      "metar": "METAR OJAI 231900Z 34004KT 5000 HZ NSC 14/04 Q1013 NOSIG",
      "taf": "TAF OJAI 231700Z 2318/2424 29010KT 5000 HZ NSC"
    },
    {
      "icao": "OMAA",
      "alert": "OK",
      "vis_m": 9999,
      "fzfg": false,
      "metar_trigger": false,
      "taf_trigger": false,
      "metar": "METAR OMAA 231930Z 01011KT CAVOK 28/18 Q1008 NOSIG",
      "taf": "TAF OMAA 231700Z 2318/2500 36011KT 8000 NSC"
    },
    {
      "icao": "OMDB",
      "alert": "OK",
      "vis_m": 9999,
      "fzfg": false,
      "metar_trigger": false,
      "taf_trigger": false,
      "metar": "METAR OMDB 231930Z VRB04KT CAVOK 30/18 Q1008 NOSIG",
      "taf": "TAF OMDB 231700Z 2318/2500 34010KT CAVOK"
    },
    {
      "icao": "UAAA",
      "alert": "OK",
      "vis_m": 9999,
      "fzfg": false,
      "metar_trigger": false,
      "taf_trigger": false,
      "metar": "METAR UAAA 231930Z 04003MPS 330V080 9999 SCT050CB BKN100 13/11 Q1018 NOSIG",
      "taf": "TAF UAAA 231700Z 2318/2418 20003G08MPS 9999 BKN030CB OVC100 TX19/2409Z TN12/2401Z"
    },
    {
      "icao": "UBBB",
      "alert": "OK",
      "vis_m": 9999,
      "fzfg": false,
      "metar_trigger": false,
      "taf_trigger": false,
      "metar": "METAR UBBB 231930Z 33006KT 9999 BKN007 10/08 Q1007 NOSIG",
      "taf": "TAF UBBB 231712Z 2318/2418 32010KT 6000 BKN006 TX15/2410Z TN09/2401Z"
    },
    {
      "icao": "UDSG",
      "alert": "OK",
      "vis_m": 9999,
      "fzfg": false,
      "metar_trigger": false,
      "taf_trigger": false,
      "metar": "METAR UDSG 231930Z 19019KT 9999 SCT046CB 11/01 Q1010 NOSIG",
      "taf": "TAF UDSG 231700Z 2318/2418 22006KT 9999 BKN040"
    },
    {
      "icao": "UDYZ",
      "alert": "OK",
      "vis_m": 9999,
      "fzfg": false,
      "metar_trigger": false,
      "taf_trigger": false,
      "metar": "METAR UDYZ 231930Z 26002KT 9999 SCT043CB 15/04 Q1008 NOSIG",
      "taf": "TAF UDYZ 231700Z 2318/2418 23006KT 9999 SCT040"
    },
    {
      "icao": "UGKO",
      "alert": "OK",
      "vis_m": 3600,
      "fzfg": false,
      "metar_trigger": false,
      "taf_trigger": false,
      "metar": "METAR UGKO 231930Z 22006KT 3600 -SHRA BR FEW006 SCT021CB BKN044 08/07 Q1013 NOSIG",
      "taf": "TAF UGKO 231700Z 2318/2418 26010KT 9999 SCT020 BKN050 TX13/2411Z TN05/2403Z"
    }
  ]
}