{
  "ts_utc": "2026-01-29T10:50:48Z",
  "threshold_m": 150,
  "source": "stations_override.txt (ICAO list) + aviationweather.gov (METAR/TAF raw)",
  "station_count": 159,
  "stations": [
    {
      "icao": "BIKF",
      "alert": "OK",
      "vis_m": 9999,
      "fzfg": false,
      "metar_trigger": false,
      "taf_trigger": false,
      "metar": "METAR BIKF 291030Z 07016KT 9999 SCT038 BKN068 04/M01 Q0998",
      "taf": "TAF BIKF 291030Z 2912/3012 06013KT 9999 FEW025 TX05/2915Z TN01/3009Z"
    },
    {
      "icao": "BKPR",
      "alert": "OK",
      "vis_m": 9999,
      "fzfg": false,
      "metar_trigger": false,
      "taf_trigger": false,
      "metar": "METAR BKPR 291030Z 18004KT 9999 BKN075 09/05 Q0995 NOSIG",
      "taf": ""
    },
    {
      "icao": "EBCI",
      "alert": "OK",
      "vis_m": 3500,
      "fzfg": false,
      "metar_trigger": false,
      "taf_trigger": false,
      "metar": "METAR EBCI 291020Z VRB02KT 3500 BR BKN004 BKN005 01/01 Q0999 BECMG 6000 BKN007",
      "taf": "TAF EBCI 290505Z 2906/3012 02003KT 2500 -SG BR BKN003"
    },
    {
      "icao": "EDDB",
      "alert": "OK",
      "vis_m": 8000,
      "fzfg": false,
      "metar_trigger": false,
      "taf_trigger": false,
      "metar": "METAR EDDB 291020Z AUTO 07010KT 040V100 8000 BKN012 OVC016 M01/M03 Q1004 NOSIG",
      "taf": "TAF EDDB 290500Z 2906/3006 07010KT 9999 OVC012"
    },
    {
      "icao": "EDDH",
      "alert": "OK",
      "vis_m": 9999,
      "fzfg": false,
      "metar_trigger": false,
      "taf_trigger": false,
      "metar": "METAR EDDH 291020Z AUTO 08011KT 9999 OVC012 00/M03 Q1004 TEMPO OVC009",
      "taf": "TAF EDDH 290500Z 2906/3012 08010KT 9999 OVC015"
    },
    {
      "icao": "EDDK",
      "alert": "OK",
      "vis_m": 5000,
      "fzfg": false,
      "metar_trigger": false,
      "taf_trigger": false,
      "metar": "METAR EDDK 291020Z AUTO VRB01KT 5000 BR FEW001 OVC011 01/01 Q0999 TEMPO 4000 BKN008",
      "taf": "TAF EDDK 290500Z 2906/3012 12003KT 6000 OVC006"
    },
    {
      "icao": "EDDN",
      "alert": "OK",
      "vis_m": 6000,
      "fzfg": false,
      "metar_trigger": false,
      "taf_trigger": false,
      "metar": "METAR EDDN 291020Z AUTO 36003KT 6000 -SN BKN003 BKN011 OVC016 01/M00 Q0997 TEMPO 3000",
      "taf": ""
    },
    {
      "icao": "EDDS",
      "alert": "OK",
      "vis_m": 4900,
      "fzfg": false,
      "metar_trigger": false,
      "taf_trigger": false,
      "metar": "METAR EDDS 291020Z AUTO VRB01KT 4900 -SN BR BKN004 BKN017 01/00 Q0997 TEMPO 2000 SN",
      "taf": "TAF EDDS 290500Z 2906/3006 VRB03KT 6000 SCT002 BKN010"
    },
    {
      "icao": "EDFH",
      "alert": "OK",
      "vis_m": 3000,
      "fzfg": false,
      "metar_trigger": false,
      "taf_trigger": false,
      "metar": "METAR EDFH 291020Z 26005KT 3000 -DZ BR BKN001 00/00 Q0997",
      "taf": "TAF EDFH 290500Z 2906/3006 16005KT 3000 BR SCT001 BKN005"
    },
    {
      "icao": "EDJA",
      "alert": "OK",
      "vis_m": 4000,
      "fzfg": false,
      "metar_trigger": false,
      "taf_trigger": false,
      "metar": "METAR EDJA 291020Z 23008KT 4000 -SN BR BKN004 BKN026 OVC032 01/M00 Q0997",
      "taf": "TAF EDJA 290800Z 2909/2918 25008KT 4000 -SN OVC005"
    },
    {
      "icao": "EDLW",
      "alert": "OK",
      "vis_m": 4000,
      "fzfg": false,
      "metar_trigger": false,
      "taf_trigger": false,
      "metar": "METAR EDLW 291020Z 04006KT 4000 BR BKN004 00/M01 Q0999",
      "taf": "TAF EDLW 290500Z 2906/3006 07006KT 6000 OVC007"
    },
    {
      "icao": "EDNY",
      "alert": "OK",
      "vis_m": 9999,
      "fzfg": false,
      "metar_trigger": false,
      "taf_trigger": false,
      "metar": "METAR EDNY 291020Z 25008KT 220V280 9999 BKN011 OVC040 03/02 Q0999",
      "taf": "TAF EDNY 290800Z 2909/2918 25006KT 9999 BKN011"
    },
    {
      "icao": "EDSB",
      "alert": "OK",
      "vis_m": 3200,
      "fzfg": false,
      "metar_trigger": false,
      "taf_trigger": false,
      "metar": "METAR EDSB 291020Z 20006KT 3200 -DZ BR BKN003 BKN016 OVC022 03/03 Q0999",
      "taf": "TAF EDSB 290500Z 2906/3006 VRB03KT 6000 SCT003 BKN015"
    },
    {
      "icao": "EETN",
      "alert": "OK",
      "vis_m": 9999,
      "fzfg": false,
      "metar_trigger": false,
      "taf_trigger": false,
      "metar": "METAR EETN 291050Z 09010KT CAVOK M08/M12 Q1020 NOSIG",
      "taf": "TAF EETN 290530Z 2906/3006 09010KT 9999 SCT012"
    },
    {
      "icao": "EFTU",
      "alert": "OK",
      "vis_m": 9999,
      "fzfg": false,
      "metar_trigger": false,
      "taf_trigger": false,
      "metar": "METAR EFTU 291020Z AUTO 07007KT CAVOK M12/M14 Q1021",
      "taf": "TAF EFTU 290834Z 2909/3009 07006KT 9999 BKN015"
    },
    {
      "icao": "EGBB",
      "alert": "OK",
      "vis_m": 6000,
      "fzfg": true,
      "metar_trigger": false,
      "taf_trigger": false,
      "metar": "METAR EGBB 291020Z 12010KT 6000 BKN004 OVC009 04/04 Q0997",
      "taf": "TAF EGBB 290454Z 2906/3006 14008KT 0300 FG FZFG VV///"
    },
    {
      "icao": "EGGP",
      "alert": "OK",
      "vis_m": 9000,
      "fzfg": false,
      "metar_trigger": false,
      "taf_trigger": false,
      "metar": "METAR EGGP 291020Z 12013KT 9000 BKN012 OVC017 05/03 Q0996",
      "taf": "TAF EGGP 290455Z 2906/3006 14007KT 9999 SCT020"
    },
    {
      "icao": "EGGW",
      "alert": "OK",
      "vis_m": 4700,
      "fzfg": false,
      "metar_trigger": false,
      "taf_trigger": false,
      "metar": "METAR EGGW 291020Z AUTO 11009KT 4700 BR OVC004 04/03 Q0997",
      "taf": ""
    },
    {
      "icao": "EGKK",
      "alert": "OK",
      "vis_m": 4000,
      "fzfg": true,
      "metar_trigger": false,
      "taf_trigger": false,
      "metar": "METAR EGKK 291020Z 09004KT 4000 VCFG BKN003 BKN016 05/05 Q0997",
      "taf": "TAF EGKK 290451Z 2906/3012 09003KT 0300 FZFG VV///"
    },
    {
      "icao": "EGNM",
      "alert": "OK",
      "vis_m": 6000,
      "fzfg": false,
      "metar_trigger": false,
      "taf_trigger": false,
      "metar": "METAR EGNM 291020Z 11010KT 6000 SCT005 BKN007 02/02 Q0998",
      "taf": ""
    },
    {
      "icao": "EGPD",
      "alert": "OK",
      "vis_m": 9999,
      "fzfg": false,
      "metar_trigger": false,
      "taf_trigger": false,
      "metar": "METAR EGPD 291020Z 13012KT 9999 -RA BKN015 05/02 Q1001 TEMPO BKN014",
      "taf": "TAF EGPD 290454Z 2906/3006 13012KT 9999 SCT015 BKN030"
    },
    {
      "icao": "EGPF",
      "alert": "OK",
      "vis_m": 9999,
      "fzfg": false,
      "metar_trigger": false,
      "taf_trigger": false,
      "metar": "METAR EGPF 291020Z AUTO 06009KT 9999 BKN028 05/03 Q0997",
      "taf": "TAF EGPF 290501Z 2906/3006 09007KT 9999 FEW018 SCT040"
    },
    {
      "icao": "EHBK",
      "alert": "OK",
      "vis_m": 5000,
      "fzfg": false,
      "metar_trigger": false,
      "taf_trigger": false,
      "metar": "METAR EHBK 291025Z AUTO VRB02KT 5000 BR OVC006/// 01/M00 Q0999 NOSIG",
      "taf": "TAF EHBK 290509Z 2906/3012 30003KT 3000 BR BKN004"
    },
    {
      "icao": "EHEH",
      "alert": "OK",
      "vis_m": null,
      "fzfg": false,
      "metar_trigger": false,
      "taf_trigger": false,
      "metar": "",
      "taf": "TAF EHEH 290513Z 2906/3012 02006KT 4000 BR -SN BKN006 OVC008"
    },
    {
      "icao": "EKBI",
      "alert": "OK",
      "vis_m": 9999,
      "fzfg": false,
      "metar_trigger": false,
      "taf_trigger": false,
      "metar": "METAR EKBI 291020Z AUTO 07016KT 9999 OVC025/// M02/M06 Q1009",
      "taf": "TAF EKBI 290832Z 2909/3009 08015KT 9999 BKN020"
    },
    {
      "icao": "EKCH",
      "alert": "OK",
      "vis_m": 9999,
      "fzfg": false,
      "metar_trigger": false,
      "taf_trigger": false,
      "metar": "METAR EKCH 291020Z AUTO 06011KT 9999 OVC022/// M02/M05 Q1011 NOSIG",
      "taf": "TAF EKCH 290827Z 2909/3009 08008KT 9999 BKN022"
    },
    {
      "icao": "ENAL",
      "alert": "OK",
      "vis_m": 9999,
      "fzfg": false,
      "metar_trigger": false,
      "taf_trigger": false,
      "metar": "METAR ENAL 291020Z 13012KT 9999 FEW032 M01/M05 Q1012",
      "taf": "TAF ENAL 290800Z 2909/2918 14008KT 9999 BKN030"
    },
    {
      "icao": "ENBR",
      "alert": "OK",
      "vis_m": 9999,
      "fzfg": false,
      "metar_trigger": false,
      "taf_trigger": false,
      "metar": "METAR ENBR 291020Z 11003KT 9999 FEW028 SCT035 M03/M07 Q1012 NOSIG RMK WIND 1200FT 16008KT",
      "taf": "TAF ENBR 290500Z 2906/3006 VRB03KT 9999 SCT030"
    },
    {
      "icao": "ENGM",
      "alert": "OK",
      "vis_m": 9999,
      "fzfg": false,
      "metar_trigger": false,
      "taf_trigger": false,
      "metar": "METAR ENGM 291020Z 03006KT 9999 FEW015 M13/M16 Q1018 TEMPO BKN012",
      "taf": ""
    },
    {
      "icao": "ENHD",
      "alert": "OK",
      "vis_m": 9999,
      "fzfg": false,
      "metar_trigger": false,
      "taf_trigger": false,
      "metar": "METAR ENHD 291020Z 11005KT CAVOK M04/M12 Q1013",
      "taf": "TAF ENHD 290800Z 2909/2918 10008KT CAVOK"
    },
    {
      "icao": "ENTC",
      "alert": "OK",
      "vis_m": 9999,
      "fzfg": false,
      "metar_trigger": false,
      "taf_trigger": false,
      "metar": "METAR ENTC 291020Z 20007KT 180V240 9999 SCT008 BKN036 M07/M08 Q1021 TEMPO BKN008 RMK WIND 2600FT 28006KT",
      "taf": "TAF ENTC 290500Z 2906/3006 22005KT 9999 FEW007 SCT025"
    },
    {
      "icao": "ENTO",
      "alert": "OK",
      "vis_m": 9999,
      "fzfg": false,
      "metar_trigger": false,
      "taf_trigger": false,
      "metar": "METAR ENTO 291020Z 36008KT 9999 BKN013 M08/M11 Q1017 TEMPO BKN015",
      "taf": "TAF ENTO 290500Z 2906/3006 02008KT 9999 -SN BKN025"
    },
    {
      "icao": "ENVA",
      "alert": "OK",
      "vis_m": 9999,
      "fzfg": false,
      "metar_trigger": false,
      "taf_trigger": false,
      "metar": "METAR ENVA 291020Z 13007KT CAVOK M14/M20 Q1017 NOSIG RMK WIND 670FT 10007KT",
      "taf": "TAF ENVA 290500Z 2906/3006 10008KT CAVOK"
    },
    {
      "icao": "ENZV",
      "alert": "OK",
      "vis_m": 9999,
      "fzfg": false,
      "metar_trigger": false,
      "taf_trigger": false,
      "metar": "METAR ENZV 291020Z 10007KT CAVOK M04/M13 Q1013 NOSIG",
      "taf": ""
    },
    {
      "icao": "EPGD",
      "alert": "OK",
      "vis_m": 9999,
      "fzfg": false,
      "metar_trigger": false,
      "taf_trigger": false,
      "metar": "METAR EPGD 291030Z 06010KT 010V090 9999 -SG OVC005 M07/M08 Q1008",
      "taf": "TAF EPGD 290530Z 2906/3006 08010KT 9999 OVC007"
    },
    {
      "icao": "EPKK",
      "alert": "OK",
      "vis_m": 8000,
      "fzfg": false,
      "metar_trigger": false,
      "taf_trigger": false,
      "metar": "METAR EPKK 291030Z 07011KT 8000 OVC007 M01/M02 Q1001",
      "taf": "TAF EPKK 290830Z 2909/3009 06010KT 3500 -FZDZ OVC005"
    },
    {
      "icao": "EPKT",
      "alert": "OK",
      "vis_m": 9999,
      "fzfg": false,
      "metar_trigger": false,
      "taf_trigger": false,
      "metar": "METAR EPKT 291030Z 06013KT 9999 OVC011 M00/M03 Q1001",
      "taf": "TAF EPKT 290530Z 2906/3006 06010KT 9999 -SN OVC008"
    },
    {
      "icao": "EPLB",
      "alert": "OK",
      "vis_m": 9000,
      "fzfg": false,
      "metar_trigger": false,
      "taf_trigger": false,
      "metar": "METAR EPLB 291030Z 04007KT 9000 FEW007 OVC014 M00/M01 Q1003",
      "taf": "TAF EPLB 290530Z 2906/3006 02007KT 7000 BKN018"
    },
    {
      "icao": "EPMO",
      "alert": "OK",
      "vis_m": 7000,
      "fzfg": false,
      "metar_trigger": false,
      "taf_trigger": false,
      "metar": "METAR EPMO 291030Z 02008KT 7000 SCT010 BKN028 M05/M07 Q1005",
      "taf": "TAF EPMO 290530Z 2906/3006 04010KT 7000 SCT008 BKN020"
    },
    {
      "icao": "EPPO",
      "alert": "OK",
      "vis_m": 9999,
      "fzfg": false,
      "metar_trigger": false,
      "taf_trigger": false,
      "metar": "METAR EPPO 291030Z 04008KT 9999 BKN009 OVC023 M05/M07 Q1005",
      "taf": "TAF EPPO 290530Z 2906/3006 04010KT 7000 OVC008"
    },
    {
      "icao": "EPRA",
      "alert": "OK",
      "vis_m": 7000,
      "fzfg": false,
      "metar_trigger": false,
      "taf_trigger": false,
      "metar": "METAR EPRA 291030Z 03006KT 7000 BKN006 OVC018 M01/M02 Q1003",
      "taf": "TAF EPRA 290830Z 2909/2918 05008KT 5000 BR BKN005"
    },
    {
      "icao": "EPRZ",
      "alert": "OK",
      "vis_m": 9999,
      "fzfg": false,
      "metar_trigger": false,
      "taf_trigger": false,
      "metar": "METAR EPRZ 291030Z 05009KT 9999 OVC008 M01/M02 Q1001",
      "taf": ""
    },
    {
      "icao": "EPSC",
      "alert": "OK",
      "vis_m": 9999,
      "fzfg": false,
      "metar_trigger": false,
      "taf_trigger": false,
      "metar": "METAR EPSC 291030Z 05008KT 020V080 9999 OVC007 M04/M05 Q1006",
      "taf": ""
    },
    {
      "icao": "EPSY",
      "alert": "OK",
      "vis_m": 6000,
      "fzfg": false,
      "metar_trigger": false,
      "taf_trigger": false,
      "metar": "METAR EPSY 291030Z 03008KT 6000 -SG OVC007 M08/M09 Q1007",
      "taf": ""
    },
    {
      "icao": "EPWA",
      "alert": "OK",
      "vis_m": 8000,
      "fzfg": false,
      "metar_trigger": false,
      "taf_trigger": false,
      "metar": "METAR EPWA 291030Z 04007KT 360V130 8000 OVC010 M03/M05 Q1005 TEMPO BKN009",
      "taf": "TAF EPWA 290830Z 2909/3009 03008KT 7000 SCT008 BKN025"
    },
    {
      "icao": "EPWR",
      "alert": "OK",
      "vis_m": 9999,
      "fzfg": false,
      "metar_trigger": false,
      "taf_trigger": false,
      "metar": "METAR EPWR 291030Z 09009KT 9999 OVC014 01/M02 Q1002",
      "taf": "TAF EPWR 290830Z 2909/3009 08010KT 9999 OVC012"
    },
    {
      "icao": "ESGG",
      "alert": "OK",
      "vis_m": 9999,
      "fzfg": false,
      "metar_trigger": false,
      "taf_trigger": false,
      "metar": "METAR ESGG 291020Z 09009KT 9999 OVC028 M04/M10 Q1013",
      "taf": "TAF ESGG 290830Z 2909/3009 08008KT 9999 OVC030"
    },
    {
      "icao": "ESKN",
      "alert": "OK",
      "vis_m": 9999,
      "fzfg": false,
      "metar_trigger": false,
      "taf_trigger": false,
      "metar": "METAR ESKN 291020Z 04008KT 010V070 9999 BKN035 M04/M07 Q1016",
      "taf": "TAF ESKN 290830Z 2909/3009 02009KT 9999 -SN BKN025"
    },
    {
      "icao": "ESMS",
      "alert": "OK",
      "vis_m": 9999,
      "fzfg": false,
      "metar_trigger": false,
      "taf_trigger": false,
      "metar": "METAR ESMS 291020Z 08016KT 9999 OVC023 M02/M06 Q1009",
      "taf": "TAF ESMS 290827Z 2909/3009 08016KT 9999 OVC020"
    },
    {
      "icao": "ESSA",
      "alert": "OK",
      "vis_m": 9999,
      "fzfg": false,
      "metar_trigger": false,
      "taf_trigger": false,
      "metar": "METAR ESSA 291020Z 03010KT 9999 -SN BKN031 M06/M08 Q1018 NOSIG",
      "taf": "TAF ESSA 290830Z 2909/3009 02009KT 9999 -SHSN BKN020"
    },
    {
      "icao": "EYKA",
      "alert": "OK",
      "vis_m": 9999,
      "fzfg": false,
      "metar_trigger": false,
      "taf_trigger": false,
      "metar": "METAR EYKA 291020Z 01006KT 330V040 9999 -SN OVC013 M09/M12 Q1009",
      "taf": "TAF EYKA 290509Z 2906/3006 03010KT 9000 OVC015"
    },
    {
      "icao": "EYPA",
      "alert": "OK",
      "vis_m": 9999,
      "fzfg": false,
      "metar_trigger": false,
      "taf_trigger": false,
      "metar": "METAR EYPA 291020Z 08010KT 040V100 CAVOK M09/M14 Q1012",
      "taf": "TAF EYPA 290509Z 2906/3006 05013KT 9000 OVC015"
    },
    {
      "icao": "EYVI",
      "alert": "OK",
      "vis_m": 9999,
      "fzfg": false,
      "metar_trigger": false,
      "taf_trigger": false,
      "metar": "METAR EYVI 291020Z 05010KT 9999 -SN SCT010 OVC022 M10/M11 Q1008 NOSIG",
      "taf": ""
    },
    {
      "icao": "GCFV",
      "alert": "OK",
      "vis_m": 9999,
      "fzfg": false,
      "metar_trigger": false,
      "taf_trigger": false,
      "metar": "METAR GCFV 291030Z 34005KT 280V030 9999 OVC032 20/13 Q1025",
      "taf": "TAF GCFV 290800Z 2909/3009 33008KT 9999 BKN030 TX23/2914Z TN15/3006Z"
    },
    {
      "icao": "GCLP",
      "alert": "OK",
      "vis_m": 9999,
      "fzfg": false,
      "metar_trigger": false,
      "taf_trigger": false,
      "metar": "METAR GCLP 291030Z 36008KT 330V030 9999 BKN033 20/13 Q1025 NOSIG",
      "taf": ""
    },
    {
      "icao": "GCTS",
      "alert": "OK",
      "vis_m": 9999,
      "fzfg": false,
      "metar_trigger": false,
      "taf_trigger": false,
      "metar": "METAR GCTS 291030Z 12004KT 050V150 9999 FEW020 BKN035 20/15 Q1025 NOSIG",
      "taf": "TAF GCTS 290800Z 2909/3009 26008KT 9999 BKN030 TX23/2914Z TN15/3006Z"
    },
    {
      "icao": "GMAD",
      "alert": "OK",
      "vis_m": 8000,
      "fzfg": false,
      "metar_trigger": false,
      "taf_trigger": false,
      "metar": "METAR GMAD 291030Z 00000KT 8000 FEW006 SCT020 17/17 Q1023 NOSIG",
      "taf": "TAF GMAD 290500Z 2906/3012 06008KT 6000 BKN006"
    },
    {
      "icao": "GMMN",
      "alert": "OK",
      "vis_m": 9999,
      "fzfg": false,
      "metar_trigger": false,
      "taf_trigger": false,
      "metar": "METAR GMMN 291030Z 22013KT 9999 BKN004 16/15 Q1022 NOSIG",
      "taf": "TAF GMMN 290500Z 2906/3012 22015KT 8000 BKN008 BKN016"
    },
    {
      "icao": "GMMX",
      "alert": "OK",
      "vis_m": 8000,
      "fzfg": false,
      "metar_trigger": false,
      "taf_trigger": false,
      "metar": "METAR GMMX 291030Z VRB02KT 8000 SCT010 BKN016 15/13 Q1024 REDZ NOSIG",
      "taf": "TAF GMMX 290500Z 2906/3012 06006KT 8000 SCT020 SCT080"
    },
    {
      "icao": "HEGN",
      "alert": "OK",
      "vis_m": 9999,
      "fzfg": false,
      "metar_trigger": false,
      "taf_trigger": false,
      "metar": "METAR HEGN 291000Z 15003KT CAVOK 22/03 Q1020 NOSIG",
      "taf": ""
    },
    {
      "icao": "HEMA",
      "alert": "OK",
      "vis_m": 4000,
      "fzfg": false,
      "metar_trigger": false,
      "taf_trigger": false,
      "metar": "METAR HEMA 291000Z 03009KT 4000 DU NSC 21/09 Q1020 NOSIG",
      "taf": ""
    },
    {
      "icao": "HESH",
      "alert": "OK",
      "vis_m": 9999,
      "fzfg": false,
      "metar_trigger": false,
      "taf_trigger": false,
      "metar": "METAR HESH 291000Z 06007KT CAVOK 22/07 Q1019 NOSIG",
      "taf": ""
    },
    {
      "icao": "HESX",
      "alert": "OK",
      "vis_m": 9999,
      "fzfg": false,
      "metar_trigger": false,
      "taf_trigger": false,
      "metar": "METAR HESX 291000Z 28008KT CAVOK 18/04 Q1019 NOSIG",
      "taf": ""
    },
    {
      "icao": "LATI",
      "alert": "OK",
      "vis_m": 9999,
      "fzfg": false,
      "metar_trigger": false,
      "taf_trigger": false,
      "metar": "METAR LATI 291050Z VRB01KT 9999 FEW070 BKN100 14/07 Q0993 NOSIG",
      "taf": "TAF LATI 290500Z 2906/3006 VRB05KT 9999 SCT030 BKN060 TX13/2912Z TN09/3005Z"
    },
    {
      "icao": "LBPD",
      "alert": "OK",
      "vis_m": 9999,
      "fzfg": false,
      "metar_trigger": false,
      "taf_trigger": false,
      "metar": "METAR LBPD 291030Z AUTO 31006KT 9999 -SHRA SCT022/// OVC040/// 07/07 Q0997 NOSIG",
      "taf": "TAF LBPD 290500Z 2906/3006 VRB04KT 9999 BKN040"
    },
    {
      "icao": "LBSF",
      "alert": "OK",
      "vis_m": 9999,
      "fzfg": false,
      "metar_trigger": false,
      "taf_trigger": false,
      "metar": "METAR LBSF 291030Z 14006KT 9999 SCT053 OVC066 08/04 Q0997 NOSIG",
      "taf": "TAF LBSF 290500Z 2906/3006 12010KT 9999 SCT040 BKN070"
    },
    {
      "icao": "LBWN",
      "alert": "OK",
      "vis_m": 9999,
      "fzfg": false,
      "metar_trigger": false,
      "taf_trigger": false,
      "metar": "METAR LBWN 291030Z AUTO 12006KT 9999 -RA NSC 12/11 Q0999 TEMPO 5000 RA",
      "taf": "TAF LBWN 290500Z 2906/3006 09010KT 9999 SCT020 BKN045"
    },
    {
      "icao": "LCLK",
      "alert": "OK",
      "vis_m": 9999,
      "fzfg": false,
      "metar_trigger": false,
      "taf_trigger": false,
      "metar": "METAR LCLK 291030Z 21012KT 9999 FEW020 19/14 Q1016 NOSIG",
      "taf": "TAF LCLK 290530Z 2906/3006 26010KT 9999 FEW030 SCT040"
    },
    {
      "icao": "LCPH",
      "alert": "OK",
      "vis_m": 9999,
      "fzfg": false,
      "metar_trigger": false,
      "taf_trigger": false,
      "metar": "METAR LCPH 291030Z 19005KT 160V240 9999 SCT036 BKN050 17/13 Q1016 NOSIG",
      "taf": "TAF LCPH 290530Z 2906/3006 07007KT 9999 FEW030 SCT040"
    },
    {
      "icao": "LEAL",
      "alert": "OK",
      "vis_m": 9999,
      "fzfg": false,
      "metar_trigger": false,
      "taf_trigger": false,
      "metar": "METAR LEAL 291030Z 00000KT 9999 SCT068 19/07 Q1005 NOSIG",
      "taf": "TAF LEAL 290500Z 2906/3006 VRB04KT 9999 FEW040 TX22/2914Z TN11/2906Z"
    },
    {
      "icao": "LEBB",
      "alert": "OK",
      "vis_m": 9999,
      "fzfg": false,
      "metar_trigger": false,
      "taf_trigger": false,
      "metar": "METAR LEBB 291030Z 21009KT 150V260 9999 BKN060 14/07 Q0999 NOSIG",
      "taf": "TAF LEBB 290500Z 2906/3006 22009KT 9999 FEW030 TX16/2914Z TN08/3002Z"
    },
    {
      "icao": "LEBL",
      "alert": "OK",
      "vis_m": 9999,
      "fzfg": false,
      "metar_trigger": false,
      "taf_trigger": false,
      "metar": "METAR LEBL 291030Z 31006KT 270V340 9999 FEW045 13/06 Q1002 NOSIG",
      "taf": "TAF LEBL 290500Z 2906/3006 VRB04KT 9999 FEW020 TX14/2912Z TN07/2906Z"
    },
    {
      "icao": "LECH",
      "alert": "OK",
      "vis_m": 9000,
      "fzfg": false,
      "metar_trigger": false,
      "taf_trigger": false,
      "metar": "METAR LECH 291030Z AUTO VRB01KT 9000 NSC 09/05 Q1003",
      "taf": ""
    },
    {
      "icao": "LEMD",
      "alert": "OK",
      "vis_m": 9999,
      "fzfg": false,
      "metar_trigger": false,
      "taf_trigger": false,
      "metar": "METAR LEMD 291030Z 22006KT 140V250 9999 FEW055 BKN080 12/11 Q1004 NOSIG",
      "taf": ""
    },
    {
      "icao": "LEMG",
      "alert": "OK",
      "vis_m": 9999,
      "fzfg": false,
      "metar_trigger": false,
      "taf_trigger": false,
      "metar": "METAR LEMG 291030Z 30003KT 240V020 9999 FEW025 20/15 Q1012 NOSIG",
      "taf": "TAF LEMG 290500Z 2906/3006 29006KT 9999 FEW020 BKN025 TX19/2914Z TN11/3006Z"
    },
    {
      "icao": "LEVC",
      "alert": "OK",
      "vis_m": 9999,
      "fzfg": false,
      "metar_trigger": false,
      "taf_trigger": false,
      "metar": "METAR LEVC 291030Z 21001KT 9999 FEW045 18/10 Q1003 NOSIG",
      "taf": "TAF LEVC 290500Z 2906/3006 VRB04KT 9999 FEW030 TX21/2914Z TN10/2906Z"
    },
    {
      "icao": "LEXJ",
      "alert": "OK",
      "vis_m": 9999,
      "fzfg": false,
      "metar_trigger": false,
      "taf_trigger": false,
      "metar": "METAR LEXJ 291030Z 23006KT 200V260 9999 FEW050 SCT060 14/06 Q0999",
      "taf": "TAF LEXJ 290800Z 2909/3009 22009KT 9999 FEW040 TX16/2914Z TN09/3005Z"
    },
    {
      "icao": "LEZG",
      "alert": "OK",
      "vis_m": 9999,
      "fzfg": false,
      "metar_trigger": false,
      "taf_trigger": false,
      "metar": "METAR LEZG 291030Z 09005KT 050V120 9999 4000SW BCFG BKN070 08/07 Q1003 NOSIG",
      "taf": ""
    },
    {
      "icao": "LEZL",
      "alert": "OK",
      "vis_m": 9999,
      "fzfg": false,
      "metar_trigger": false,
      "taf_trigger": false,
      "metar": "METAR LEZL 291030Z 24016KT 210V270 9999 BKN014 18/17 Q1012 NOSIG",
      "taf": "TAF LEZL 290800Z 2909/3009 24012KT 8000 FEW010 BKN016 TX18/2915Z TN10/3007Z"
    },
    {
      "icao": "LFBD",
      "alert": "OK",
      "vis_m": 9999,
      "fzfg": false,
      "metar_trigger": false,
      "taf_trigger": false,
      "metar": "METAR LFBD 291030Z AUTO 19008KT CAVOK 09/06 Q0998 TEMPO 4000 SHRA BKN010 BKN030TCU",
      "taf": "TAF LFBD 290500Z 2906/3012 VRB03KT CAVOK TX12/2915Z TN05/2906Z"
    },
    {
      "icao": "LFLL",
      "alert": "OK",
      "vis_m": 800,
      "fzfg": false,
      "metar_trigger": false,
      "taf_trigger": false,
      "metar": "METAR LFLL 291030Z 07003KT 020V110 0800 0400E R35L/0400N R17R/0700D R35R/0375U R17L/0600D FG BKN001 05/04 Q1000 NOSIG",
      "taf": ""
    },
    {
      "icao": "LFLS",
      "alert": "OK",
      "vis_m": 9999,
      "fzfg": false,
      "metar_trigger": false,
      "taf_trigger": false,
      "metar": "METAR LFLS 291030Z AUTO VRB02KT CAVOK 06/05 Q1000 NOSIG",
      "taf": "TAF LFLS 290800Z 2909/3009 VRB03KT CAVOK"
    },
    {
      "icao": "LFMN",
      "alert": "OK",
      "vis_m": 9999,
      "fzfg": false,
      "metar_trigger": false,
      "taf_trigger": false,
      "metar": "METAR LFMN 291030Z 32007KT CAVOK 11/04 Q0996 NOSIG",
      "taf": "TAF LFMN 290800Z 2909/3015 33010KT CAVOK"
    },
    {
      "icao": "LFOB",
      "alert": "OK",
      "vis_m": 300,
      "fzfg": false,
      "metar_trigger": false,
      "taf_trigger": false,
      "metar": "METAR LFOB 291030Z AUTO 15005KT 0300 R30/0375N R12/0450N FG VV/// 01/01 Q0999 BECMG 9999 NSW BKN008 OVC012",
      "taf": "TAF LFOB 290500Z 2906/3006 15005KT 3000 BR OVC003"
    },
    {
      "icao": "LFPO",
      "alert": "OK",
      "vis_m": 800,
      "fzfg": false,
      "metar_trigger": false,
      "taf_trigger": false,
      "metar": "METAR LFPO 291030Z 14004KT 100V170 0800 R02/1900U R25/1800N R07/P2000 R24/1700U R06/1800D FG OVC002 02/02 Q0999 NOSIG",
      "taf": "TAF LFPO 290500Z 2906/3012 16005KT 0800 FG VV///"
    },
    {
      "icao": "LFSB",
      "alert": "OK",
      "vis_m": 9999,
      "fzfg": false,
      "metar_trigger": false,
      "taf_trigger": false,
      "metar": "METAR LFSB 291030Z AUTO VRB02KT 9999 BKN016 OVC021 06/04 Q0999 NOSIG",
      "taf": "TAF LFSB 290500Z 2906/3006 VRB03KT 9999 BKN009 OVC025"
    },
    {
      "icao": "LGAV",
      "alert": "OK",
      "vis_m": 9999,
      "fzfg": false,
      "metar_trigger": false,
      "taf_trigger": false,
      "metar": "METAR LGAV 291020Z 18015KT 150V220 9999 SCT018 SCT035 BKN070 17/11 Q0997",
      "taf": "TAF LGAV 290500Z 2906/3006 19018KT 9999 SCT018 SCT070"
    },
    {
      "icao": "LGTS",
      "alert": "OK",
      "vis_m": 5000,
      "fzfg": false,
      "metar_trigger": false,
      "taf_trigger": false,
      "metar": "METAR LGTS 291020Z 10002KT 5000 -RA SCT005 BKN020 10/10 Q0996 NOSIG",
      "taf": "TAF LGTS 290500Z 2906/3006 34010KT 9999 FEW010 BKN025"
    },
    {
      "icao": "LHBP",
      "alert": "OK",
      "vis_m": 9999,
      "fzfg": false,
      "metar_trigger": false,
      "taf_trigger": false,
      "metar": "METAR LHBP 291030Z 06008KT 040V100 9999 -RA OVC005 05/04 Q0996 NOSIG",
      "taf": "TAF LHBP 290515Z 2906/3006 06009KT 8000 -RA FEW007 OVC025"
    },
    {
      "icao": "LHDC",
      "alert": "OK",
      "vis_m": 9999,
      "fzfg": false,
      "metar_trigger": false,
      "taf_trigger": false,
      "metar": "METAR LHDC 291015Z AUTO 07006KT 9999 -RA OVC036 06/05 Q0997 NOSIG",
      "taf": "TAF LHDC 290815Z 2909/2918 06008KT 9999 -RA FEW008 OVC035"
    },
    {
      "icao": "LIBD",
      "alert": "OK",
      "vis_m": 9999,
      "fzfg": false,
      "metar_trigger": false,
      "taf_trigger": false,
      "metar": "METAR LIBD 291020Z 31005KT 280V340 9999 FEW045 12/09 Q0994",
      "taf": "TAF LIBD 290500Z 2906/3006 VRB05KT 9999 FEW020 SCT050"
    },
    {
      "icao": "LIBG",
      "alert": "OK",
      "vis_m": 9999,
      "fzfg": false,
      "metar_trigger": false,
      "taf_trigger": false,
      "metar": "METAR LIBG 290950Z 35006KT 9999 FEW025 13/08 Q0993",
      "taf": "TAF LIBG 290800Z 2909/2918 05010KT 9999 SCT030"
    },
    {
      "icao": "LIBP",
      "alert": "OK",
      "vis_m": 9999,
      "fzfg": false,
      "metar_trigger": false,
      "taf_trigger": false,
      "metar": "METAR LIBP 291020Z AUTO 21007KT 160V230 9999 BKN072/// BKN190/// 14/05 Q0995",
      "taf": "TAF LIBP 290500Z 2906/3006 VRB05KT 9999 SCT060"
    },
    {
      "icao": "LIBR",
      "alert": "OK",
      "vis_m": 9999,
      "fzfg": false,
      "metar_trigger": false,
      "taf_trigger": false,
      "metar": "METAR LIBR 291020Z 03009KT 9999 -RA BKN025 12/08 Q0993",
      "taf": "TAF LIBR 290500Z 2906/3006 17008KT 9999 SCT020"
    },
    {
      "icao": "LICA",
      "alert": "OK",
      "vis_m": 9999,
      "fzfg": false,
      "metar_trigger": false,
      "taf_trigger": false,
      "metar": "METAR LICA 291020Z AUTO 27013KT 9999 DZRA BKN015/// 14/13 Q0994",
      "taf": "TAF LICA 290500Z 2906/3006 07010KT 9999 SCT040"
    },
    {
      "icao": "LICC",
      "alert": "OK",
      "vis_m": 9999,
      "fzfg": false,
      "metar_trigger": false,
      "taf_trigger": false,
      "metar": "METAR LICC 291020Z 27016KT 9999 SCT040 16/13 Q0997",
      "taf": "TAF LICC 290500Z 2906/3006 26020G32KT 9999 SCT030"
    },
    {
      "icao": "LICJ",
      "alert": "OK",
      "vis_m": 9999,
      "fzfg": false,
      "metar_trigger": false,
      "taf_trigger": false,
      "metar": "METAR LICJ 291020Z 27020KT 9999 SCT035 14/08 Q1002",
      "taf": "TAF LICJ 290500Z 2906/3006 29026G36KT 9999 SCT040"
    },
    {
      "icao": "LIMC",
      "alert": "OK",
      "vis_m": 500,
      "fzfg": false,
      "metar_trigger": false,
      "taf_trigger": false,
      "metar": "METAR LIMC 291020Z VRB02KT 0500 R35R/0900N R17L/1100D R35L/0800N FG VV002 04/04 Q0996 BECMG 0800 FG",
      "taf": ""
    },
    {
      "icao": "LIME",
      "alert": "OK",
      "vis_m": 4000,
      "fzfg": false,
      "metar_trigger": false,
      "taf_trigger": false,
      "metar": "METAR LIME 291020Z VRB01KT 4000 BR BKN004 05/05 Q0995 BECMG 6000",
      "taf": ""
    },
    {
      "icao": "LIMF",
      "alert": "OK",
      "vis_m": 900,
      "fzfg": false,
      "metar_trigger": false,
      "taf_trigger": false,
      "metar": "METAR LIMF 291020Z 19004KT 170V230 0900 R36/1300U FG NSC 04/03 Q0995",
      "taf": ""
    },
    {
      "icao": "LIMJ",
      "alert": "OK",
      "vis_m": 9999,
      "fzfg": false,
      "metar_trigger": false,
      "taf_trigger": false,
      "metar": "METAR LIMJ 291020Z 23004KT 180V320 9999 FEW020 11/05 Q0995",
      "taf": "TAF LIMJ 290500Z 2906/3006 04008KT 9999 SCT040"
    },
    {
      "icao": "LIPE",
      "alert": "OK",
      "vis_m": 9999,
      "fzfg": false,
      "metar_trigger": false,
      "taf_trigger": false,
      "metar": "METAR LIPE 291020Z 32004KT 260V010 9999 SCT012 08/05 Q0996",
      "taf": "TAF LIPE 290500Z 2906/3006 VRB05KT 4000 BR SCT020"
    },
    {
      "icao": "LIPH",
      "alert": "OK",
      "vis_m": 5000,
      "fzfg": false,
      "metar_trigger": false,
      "taf_trigger": false,
      "metar": "METAR LIPH 291020Z 05004KT 010V080 5000 BR BKN003 07/07 Q0996",
      "taf": "TAF LIPH 290500Z 2906/3006 VRB05KT 0800 FG BKN002"
    },
    {
      "icao": "LIPQ",
      "alert": "OK",
      "vis_m": 9999,
      "fzfg": false,
      "metar_trigger": false,
      "taf_trigger": false,
      "metar": "METAR LIPQ 291020Z AUTO VRB02KT 9999 BKN022/// OVC052/// 10/08 Q0996",
      "taf": "TAF LIPQ 290500Z 2906/3006 VRB05KT 2000 BR OVC005"
    },
    {
      "icao": "LIPR",
      "alert": "OK",
      "vis_m": 1800,
      "fzfg": false,
      "metar_trigger": false,
      "taf_trigger": false,
      "metar": "METAR LIPR 291020Z 02006KT 1800 BR BKN002 06/06 Q0995",
      "taf": "TAF LIPR 290500Z 2906/3006 VRB05KT 3000 BR FEW005"
    },
    {
      "icao": "LIPX",
      "alert": "OK",
      "vis_m": 1500,
      "fzfg": false,
      "metar_trigger": false,
      "taf_trigger": false,
      "metar": "METAR LIPX 291020Z VRB02KT 1500 BR BKN003 06/06 Q0996",
      "taf": ""
    },
    {
      "icao": "LIPY",
      "alert": "OK",
      "vis_m": 9999,
      "fzfg": false,
      "metar_trigger": false,
      "taf_trigger": false,
      "metar": "METAR LIPY 291020Z AUTO 21004KT 9999 BKN100/// 11/07 Q0995",
      "taf": "TAF LIPY 290500Z 2906/3006 VRB05KT 9999 FEW030 BKN070"
    },
    {
      "icao": "LIPZ",
      "alert": "OK",
      "vis_m": 2000,
      "fzfg": false,
      "metar_trigger": false,
      "taf_trigger": false,
      "metar": "METAR LIPZ 291020Z 07004KT 2000 BR BKN002 06/06 Q0996 BECMG 5000 BCFG",
      "taf": "TAF LIPZ 290500Z 2906/3012 24006KT 0400 FG OVC001"
    },
    {
      "icao": "LIRF",
      "alert": "OK",
      "vis_m": 9999,
      "fzfg": false,
      "metar_trigger": false,
      "taf_trigger": false,
      "metar": "METAR LIRF 291020Z 15006KT 130V190 9999 FEW010 SCT035 13/10 Q0996 NOSIG",
      "taf": "TAF LIRF 290500Z 2906/3012 07007KT 9999 SCT030"
    },
    {
      "icao": "LIRN",
      "alert": "OK",
      "vis_m": 9999,
      "fzfg": false,
      "metar_trigger": false,
      "taf_trigger": false,
      "metar": "METAR LIRN 291020Z 32004KT 280V360 9999 FEW030 BKN070 11/09 Q0997 NOSIG",
      "taf": "TAF LIRN 290500Z 2906/3006 04008KT 9999 SCT030"
    },
    {
      "icao": "LIRP",
      "alert": "OK",
      "vis_m": 9999,
      "fzfg": false,
      "metar_trigger": false,
      "taf_trigger": false,
      "metar": "METAR LIRP 291015Z 04004KT 9999 SCT030 10/10 Q0994 NOSIG",
      "taf": "TAF LIRP 290500Z 2906/3006 12007KT 9999 SCT020 SCT050"
    },
    {
      "icao": "LIRZ",
      "alert": "OK",
      "vis_m": 9999,
      "fzfg": false,
      "metar_trigger": false,
      "taf_trigger": false,
      "metar": "METAR LIRZ 291020Z AUTO 19004KT 140V220 9999 SCT022/// 11/05 Q0995",
      "taf": "TAF LIRZ 290500Z 2906/3006 VRB05KT 7000 BKN025"
    },
    {
      "icao": "LJLJ",
      "alert": "OK",
      "vis_m": 9999,
      "fzfg": false,
      "metar_trigger": false,
      "taf_trigger": false,
      "metar": "METAR LJLJ 291030Z 22002KT 9999 BKN003 OVC010 06/05 Q0995 NOSIG",
      "taf": ""
    },
    {
      "icao": "LKMT",
      "alert": "OK",
      "vis_m": 4500,
      "fzfg": false,
      "metar_trigger": false,
      "taf_trigger": false,
      "metar": "METAR LKMT 291030Z 04011KT 4500 BR OVC006 M00/M01 Q0999 TEMPO 6000 BR",
      "taf": "TAF LKMT 290500Z 2906/3006 03009KT 4000 -SN BR SCT003 OVC005"
    },
    {
      "icao": "LKPR",
      "alert": "OK",
      "vis_m": 2200,
      "fzfg": false,
      "metar_trigger": false,
      "taf_trigger": false,
      "metar": "METAR LKPR 291030Z 08009KT 2200 -SN BR BKN003 OVC006 M01/M01 Q0998 NOSIG",
      "taf": "TAF LKPR 290800Z 2909/3015 06009KT 3000 -SN BR OVC005"
    },
    {
      "icao": "LLBG",
      "alert": "OK",
      "vis_m": 9999,
      "fzfg": false,
      "metar_trigger": false,
      "taf_trigger": false,
      "metar": "METAR LLBG 291020Z 20010KT 9999 SCT034 18/09 Q1020 NOSIG RMK SCT080",
      "taf": "TAF LLBG 290500Z 2906/3006 18010KT 9999 SCT035"
    },
    {
      "icao": "LMML",
      "alert": "OK",
      "vis_m": 9999,
      "fzfg": false,
      "metar_trigger": false,
      "taf_trigger": false,
      "metar": "METAR LMML 291045Z 26027G38KT 9999 FEW019 15/11 Q1004 NOSIG",
      "taf": "TAF LMML 290500Z 2906/3006 28030G40KT 9999 FEW020"
    },
    {
      "icao": "LOWW",
      "alert": "OK",
      "vis_m": 9999,
      "fzfg": false,
      "metar_trigger": false,
      "taf_trigger": false,
      "metar": "METAR LOWW 291020Z 32006KT 9999 -RA FEW003 SCT006 BKN017 03/02 Q0998 TEMPO FEW003 BKN006",
      "taf": ""
    },
    {
      "icao": "LPFR",
      "alert": "OK",
      "vis_m": 8000,
      "fzfg": false,
      "metar_trigger": false,
      "taf_trigger": false,
      "metar": "METAR LPFR 291030Z 25019KT 8000 SCT005 BKN010 16/15 Q1014",
      "taf": "TAF LPFR 290500Z 2906/3006 25018KT 8000 SCT008 BKN015"
    },
    {
      "icao": "LPMA",
      "alert": "OK",
      "vis_m": 9999,
      "fzfg": false,
      "metar_trigger": false,
      "taf_trigger": false,
      "metar": "METAR LPMA 291030Z 10003KT 030V140 9999 FEW014 19/15 Q1022",
      "taf": "TAF LPMA 290500Z 2906/3006 VRB05KT 9999 SCT015"
    },
    {
      "icao": "LPPR",
      "alert": "OK",
      "vis_m": 9000,
      "fzfg": false,
      "metar_trigger": false,
      "taf_trigger": false,
      "metar": "METAR LPPR 291030Z 22008KT 190V250 9000 -RA FEW004 BKN040 13/12 Q1004",
      "taf": ""
    },
    {
      "icao": "LPPS",
      "alert": "OK",
      "vis_m": 9999,
      "fzfg": false,
      "metar_trigger": false,
      "taf_trigger": false,
      "metar": "METAR LPPS 291030Z 29015KT 9999 SCT011 19/16 Q1022",
      "taf": "TAF LPPS 290500Z 2906/3012 27015KT 9999 SCT012 SCT030"
    },
    {
      "icao": "LPPT",
      "alert": "OK",
      "vis_m": 5000,
      "fzfg": false,
      "metar_trigger": false,
      "taf_trigger": false,
      "metar": "METAR LPPT 291030Z 24016KT 5000 -DZ BR BKN004 16/16 Q1009",
      "taf": "TAF LPPT 290500Z 2906/3012 23015KT 6000 -RA SCT004 BKN008"
    },
    {
      "icao": "LQBK",
      "alert": "OK",
      "vis_m": 9999,
      "fzfg": false,
      "metar_trigger": false,
      "taf_trigger": false,
      "metar": "METAR LQBK 291030Z VRB03KT 9999 FEW017 10/08 Q0995 NOSIG",
      "taf": "TAF LQBK 290500Z 2906/3006 16005KT 9999 SCT045 TX10/2913Z TN02/2906Z"
    },
    {
      "icao": "LQSA",
      "alert": "OK",
      "vis_m": 9999,
      "fzfg": false,
      "metar_trigger": false,
      "taf_trigger": false,
      "metar": "METAR LQSA 291030Z VRB03KT CAVOK 10/03 Q0995 NOSIG",
      "taf": ""
    },
    {
      "icao": "LQTZ",
      "alert": "OK",
      "vis_m": 9999,
      "fzfg": false,
      "metar_trigger": false,
      "taf_trigger": false,
      "metar": "METAR LQTZ 291030Z VRB03KT 9999 FEW060 13/04 Q0994",
      "taf": "TAF LQTZ 290500Z 2906/3006 27005KT 9999 SCT050 TX13/2913Z TN02/2906Z"
    },
    {
      "icao": "LRBC",
      "alert": "OK",
      "vis_m": 9999,
      "fzfg": false,
      "metar_trigger": false,
      "taf_trigger": false,
      "metar": "METAR LRBC 291030Z 35008KT 9999 BKN005 OVC007 03/03 Q1000",
      "taf": "TAF LRBC 290800Z 2909/2918 34008KT 7000 OVC005"
    },
    {
      "icao": "LRBS",
      "alert": "OK",
      "vis_m": 9999,
      "fzfg": false,
      "metar_trigger": false,
      "taf_trigger": false,
      "metar": "METAR LRBS 291030Z VRB02KT CAVOK 12/05 Q0998 NOSIG",
      "taf": "TAF LRBS 290500Z 2906/3006 VRB04KT 5000 BR NSC"
    },
    {
      "icao": "LRBV",
      "alert": "OK",
      "vis_m": 9999,
      "fzfg": false,
      "metar_trigger": false,
      "taf_trigger": false,
      "metar": "METAR LRBV 291030Z 06005KT 020V120 9999 FEW084 08/01 Q0996",
      "taf": "TAF LRBV 290800Z 2909/2918 VRB04KT 9999 SCT065"
    },
    {
      "icao": "LRCL",
      "alert": "OK",
      "vis_m": 2000,
      "fzfg": false,
      "metar_trigger": false,
      "taf_trigger": false,
      "metar": "METAR LRCL 291030Z 08004KT 2000 -RA BR BKN004 OVC020 03/02 Q0997",
      "taf": ""
    },
    {
      "icao": "LRCV",
      "alert": "OK",
      "vis_m": 9999,
      "fzfg": false,
      "metar_trigger": false,
      "taf_trigger": false,
      "metar": "METAR LRCV 291030Z 09005KT CAVOK 08/05 Q0997",
      "taf": "TAF LRCV 290800Z 2909/2918 VRB04KT CAVOK"
    },
    {
      "icao": "LRIA",
      "alert": "OK",
      "vis_m": 1700,
      "fzfg": false,
      "metar_trigger": false,
      "taf_trigger": false,
      "metar": "METAR LRIA 291030Z 31007KT 1700 BR OVC001 02/02 Q1000",
      "taf": "TAF LRIA 290800Z 2909/2918 31006KT 0300 FG OVC001"
    },
    {
      "icao": "LROP",
      "alert": "OK",
      "vis_m": 9999,
      "fzfg": false,
      "metar_trigger": false,
      "taf_trigger": false,
      "metar": "METAR LROP 291030Z VRB02KT CAVOK 11/02 Q0998 NOSIG",
      "taf": "TAF LROP 290500Z 2906/3006 VRB04KT 5000 BR NSC"
    },
    {
      "icao": "LRSB",
      "alert": "OK",
      "vis_m": 9999,
      "fzfg": false,
      "metar_trigger": false,
      "taf_trigger": false,
      "metar": "METAR LRSB 291030Z VRB02KT 9999 FEW055 09/04 Q0996 NOSIG",
      "taf": "TAF LRSB 290500Z 2906/3006 VRB04KT 9999 SCT035 BKN060"
    },
    {
      "icao": "LRSM",
      "alert": "OK",
      "vis_m": 9999,
      "fzfg": false,
      "metar_trigger": false,
      "taf_trigger": false,
      "metar": "METAR LRSM 291030Z 00000KT 9999 -RA BKN039 06/04 Q0997",
      "taf": "TAF LRSM 290800Z 2909/2918 VRB04KT 9999 BKN045"
    },
    {
      "icao": "LRSV",
      "alert": "OK",
      "vis_m": 1500,
      "fzfg": true,
      "metar_trigger": false,
      "taf_trigger": false,
      "metar": "METAR LRSV 291030Z 30003KT 260V320 1500 -DZ BR OVC002 00/M00 Q0999",
      "taf": "TAF LRSV 290800Z 2909/2918 01006KT 0800 FZFG OVC002"
    },
    {
      "icao": "LRTM",
      "alert": "OK",
      "vis_m": 5000,
      "fzfg": false,
      "metar_trigger": false,
      "taf_trigger": false,
      "metar": "METAR LRTM 291030Z 08004KT 5000 BR FEW012 BKN036 02/02 Q0997",
      "taf": "TAF LRTM 290800Z 2909/2918 VRB04KT 2500 -RA BR SCT010 BKN035"
    },
    {
      "icao": "LRTR",
      "alert": "OK",
      "vis_m": 9999,
      "fzfg": false,
      "metar_trigger": false,
      "taf_trigger": false,
      "metar": "METAR LRTR 291030Z 16008KT 9999 -RA NSC 09/08 Q0995 NOSIG",
      "taf": "TAF LRTR 290500Z 2906/3006 11010KT 9999 -RA OVC040"
    },
    {
      "icao": "LTAC",
      "alert": "OK",
      "vis_m": 9999,
      "fzfg": false,
      "metar_trigger": false,
      "taf_trigger": false,
      "metar": "METAR LTAC 291020Z 02003KT 340V050 9999 SCT040 BKN100 06/02 Q1010 NOSIG RMK RWY21C VRB02KT RWY03L 03003KT RWY21R 00000KT RWY03R VRB01KT RWY21L 35002KT",
      "taf": "TAF LTAC 290440Z 2906/3006 VRB02KT 2000 BCFG BKN010"
    },
    {
      "icao": "LTFM",
      "alert": "OK",
      "vis_m": 9999,
      "fzfg": false,
      "metar_trigger": false,
      "taf_trigger": false,
      "metar": "METAR LTFM 291020Z 19016KT 9999 -SHRA BKN032 BKN100 15/08 Q1001 NOSIG RMK RWY17L 19015KT RWY34L 18016KT RWY16R 19015KT RWY36 19016KT RWY18 19017KT",
      "taf": "TAF LTFM 290440Z 2906/3012 21020G33KT 9999 SCT035 BKN100"
    },
    {
      "icao": "LUKK",
      "alert": "OK",
      "vis_m": 250,
      "fzfg": false,
      "metar_trigger": false,
      "taf_trigger": false,
      "metar": "METAR LUKK 291030Z 02003KT 0250 0200SW R08/0275N FG VV001 04/04 Q0998 NOSIG",
      "taf": "TAF LUKK 290516Z 2906/3006 VRB05KT 0500 FG VV002"
    },
    {
      "icao": "LWOH",
      "alert": "OK",
      "vis_m": 9999,
      "fzfg": false,
      "metar_trigger": false,
      "taf_trigger": false,
      "metar": "METAR LWOH 291050Z 32007KT 9999 -RA SCT020 OVC037 07/06 Q0994",
      "taf": "TAF LWOH 290900Z 2909/3009 VRB02KT 9999 SCT020 OVC040"
    },
    {
      "icao": "LWSK",
      "alert": "OK",
      "vis_m": 7000,
      "fzfg": false,
      "metar_trigger": false,
      "taf_trigger": false,
      "metar": "METAR LWSK 291050Z VRB01KT 7000 -RA FEW020 SCT040 OVC080 06/04 Q0996 NOSIG",
      "taf": "TAF LWSK 290900Z 2909/3009 VRB02KT 5000 BR SCT020 OVC040"
    },
    {
      "icao": "LYBE",
      "alert": "OK",
      "vis_m": 9999,
      "fzfg": false,
      "metar_trigger": false,
      "taf_trigger": false,
      "metar": "METAR LYBE 291030Z 21005KT 120V270 CAVOK 14/04 Q0995 NOSIG",
      "taf": "TAF LYBE 290500Z 2906/3006 16005KT CAVOK TX14/2913Z TN04/3006Z"
    },
    {
      "icao": "LYNI",
      "alert": "OK",
      "vis_m": 9999,
      "fzfg": false,
      "metar_trigger": false,
      "taf_trigger": false,
      "metar": "METAR LYNI 291030Z 09005KT CAVOK 12/05 Q0996 NOSIG",
      "taf": "TAF LYNI 290500Z 2906/3006 09005KT 9999 SCT060 TX13/2913Z TN04/3006Z"
    },
    {
      "icao": "LYPG",
      "alert": "OK",
      "vis_m": 9999,
      "fzfg": false,
      "metar_trigger": false,
      "taf_trigger": false,
      "metar": "METAR LYPG 291030Z 32004KT 290V360 9999 FEW010 SCT050 OVC080 11/09 Q0994 NOSIG",
      "taf": "TAF LYPG 290500Z 2906/3006 36005KT 9999 SCT040 TX13/2913Z TN06/3005Z"
    },
    {
      "icao": "LZIB",
      "alert": "OK",
      "vis_m": 9999,
      "fzfg": false,
      "metar_trigger": false,
      "taf_trigger": false,
      "metar": "METAR LZIB 291030Z 35006KT 9999 -RA FEW009 BKN014 BKN020 05/04 Q0997 NOSIG",
      "taf": "TAF LZIB 290515Z 2906/3006 03009KT 6000 -RA SCT004 OVC010"
    },
    {
      "icao": "LZKZ",
      "alert": "OK",
      "vis_m": 9999,
      "fzfg": false,
      "metar_trigger": false,
      "taf_trigger": false,
      "metar": "METAR LZKZ 291030Z 36011KT 9999 FEW015 OVC042 04/01 Q0998 NOSIG",
      "taf": "TAF LZKZ 290515Z 2906/3006 01015KT 9999 SCT013 OVC020"
    },
    {
      "icao": "LZTT",
      "alert": "OK",
      "vis_m": 5000,
      "fzfg": false,
      "metar_trigger": false,
      "taf_trigger": false,
      "metar": "METAR LZTT 291030Z 08005KT 5000 -SN FEW005 SCT012 OVC020 01/M00 Q0997 NOSIG",
      "taf": "TAF LZTT 290515Z 2906/3006 07007KT 6000 -SN SCT010 BKN018"
    },
    {
      "icao": "OEJN",
      "alert": "OK",
      "vis_m": 9999,
      "fzfg": false,
      "metar_trigger": false,
      "taf_trigger": false,
      "metar": "METAR OEJN 291000Z 34008KT CAVOK 29/06 Q1015 NOSIG",
      "taf": "TAF OEJN 290500Z 2906/3012 33013KT CAVOK"
    },
    {
      "icao": "OEMA",
      "alert": "OK",
      "vis_m": 9999,
      "fzfg": false,
      "metar_trigger": false,
      "taf_trigger": false,
      "metar": "METAR OEMA 291000Z 13006KT CAVOK 22/M05 Q1021 NOSIG",
      "taf": "TAF OEMA 290500Z 2906/3012 09010KT CAVOK"
    },
    {
      "icao": "OJAI",
      "alert": "OK",
      "vis_m": null,
      "fzfg": false,
      "metar_trigger": false,
      "taf_trigger": false,
      "metar": "",
      "taf": "TAF OJAI 290500Z 2906/3012 24014KT 3000 BR SCT025TCU BKN030"
    },
    {
      "icao": "OMAA",
      "alert": "OK",
      "vis_m": 9999,
      "fzfg": false,
      "metar_trigger": false,
      "taf_trigger": false,
      "metar": "METAR OMAA 291030Z 27009KT 230V290 CAVOK 27/06 Q1016 NOSIG",
      "taf": "TAF OMAA 290500Z 2906/3012 19007KT 8000 NSC"
    },
    {
      "icao": "OMDB",
      "alert": "OK",
      "vis_m": 9999,
      "fzfg": false,
      "metar_trigger": false,
      "taf_trigger": false,
      "metar": "METAR OMDB 291030Z 28010KT 250V330 9999 FEW045 26/09 Q1016 NOSIG",
      "taf": "TAF OMDB 290500Z 2906/3012 21008KT 8000 NSC"
    },
    {
      "icao": "UAAA",
      "alert": "OK",
      "vis_m": 2100,
      "fzfg": false,
      "metar_trigger": false,
      "taf_trigger": false,
      "metar": "METAR UAAA 291030Z 36002MPS 2100 BR OVC008 M01/M02 Q1028 NOSIG",
      "taf": "TAF UAAA 290504Z 2906/3006 04003MPS 2000 BR BKN004 OVC011 TXM01/2908Z TNM05/3002Z"
    },
    {
      "icao": "UBBB",
      "alert": "OK",
      "vis_m": 9999,
      "fzfg": false,
      "metar_trigger": false,
      "taf_trigger": false,
      "metar": "METAR UBBB 291030Z 16006KT 9999 BKN042 07/04 Q1013 NOSIG",
      "taf": "TAF UBBB 291048Z 2912/3012 17006KT 9999 BKN030 TX07/2912Z TN04/3001Z"
    },
    {
      "icao": "UDSG",
      "alert": "OK",
      "vis_m": 7000,
      "fzfg": false,
      "metar_trigger": false,
      "taf_trigger": false,
      "metar": "METAR UDSG 291030Z 23002KT 7000 NSC M05/M08 Q1015 NOSIG",
      "taf": "TAF UDSG 290500Z 2906/3006 VRB06KT 5000 BR SCT030"
    },
    {
      "icao": "UDYZ",
      "alert": "OK",
      "vis_m": 4400,
      "fzfg": false,
      "metar_trigger": false,
      "taf_trigger": false,
      "metar": "METAR UDYZ 291030Z VRB02KT 4400 BR FEW019 00/M06 Q1017 NOSIG",
      "taf": "TAF UDYZ 290500Z 2906/3006 24006KT 2000 BR BKN015"
    },
    {
      "icao": "UGKO",
      "alert": "OK",
      "vis_m": 9999,
      "fzfg": false,
      "metar_trigger": false,
      "taf_trigger": false,
      "metar": "METAR UGKO 291030Z VRB03KT CAVOK 15/M01 Q1010 NOSIG",
      "taf": "TAF UGKO 290500Z 2906/3006 09007KT CAVOK TX16/2911Z TN05/2906Z"
    }
  ]
}