{
  "ts_utc": "2025-12-31T13:38:06Z",
  "threshold_m": 150,
  "source": "stations_override.txt (ICAO list) + aviationweather.gov (METAR/TAF raw)",
  "station_count": 159,
  "stations": [
    {
      "icao": "BIKF",
      "alert": "OK",
      "vis_m": 9999,
      "fzfg": false,
      "metar_trigger": false,
      "taf_trigger": false,
      "metar": "METAR BIKF 311330Z 02014KT CAVOK 03/M02 Q1029",
      "taf": "TAF BIKF 311333Z 3115/0115 01010KT CAVOK TX03/0115Z TNM05/0105Z"
    },
    {
      "icao": "BKPR",
      "alert": "OK",
      "vis_m": 9999,
      "fzfg": false,
      "metar_trigger": false,
      "taf_trigger": false,
      "metar": "METAR BKPR 311330Z 35014KT 9999 SCT050 M02/M14 Q1015 NOSIG",
      "taf": "TAF BKPR 311130Z 3112/0112 33008KT 9999 SCT040"
    },
    {
      "icao": "EBCI",
      "alert": "OK",
      "vis_m": 1200,
      "fzfg": false,
      "metar_trigger": false,
      "taf_trigger": false,
      "metar": "METAR EBCI 311320Z 25007KT 1200 R24/P2000N -RADZ BR BKN002 02/01 Q1025 TEMPO 0800 FG",
      "taf": ""
    },
    {
      "icao": "EDDB",
      "alert": "OK",
      "vis_m": 9999,
      "fzfg": false,
      "metar_trigger": false,
      "taf_trigger": false,
      "metar": "METAR EDDB 311320Z AUTO 28012KT 9999 -SHRA BKN005 FEW///TCU 02/01 Q1011 NOSIG",
      "taf": "TAF EDDB 311100Z 3112/0112 25010KT 9999 BKN006"
    },
    {
      "icao": "EDDH",
      "alert": "OK",
      "vis_m": 9999,
      "fzfg": false,
      "metar_trigger": false,
      "taf_trigger": false,
      "metar": "METAR EDDH 311320Z AUTO 30009KT 9999 SHRA FEW019 SCT032 BKN042 FEW///TCU 06/04 Q1013 TEMPO NSW BKN013CB",
      "taf": "TAF EDDH 311100Z 3112/0118 28009KT 9999 SCT020 SCT035"
    },
    {
      "icao": "EDDK",
      "alert": "OK",
      "vis_m": 9999,
      "fzfg": false,
      "metar_trigger": false,
      "taf_trigger": false,
      "metar": "METAR EDDK 311320Z AUTO 28010KT 9999 BKN014 BKN019 OVC047 04/01 Q1023 TEMPO SCT014",
      "taf": "TAF EDDK 311100Z 3112/0118 26007KT 9999 BKN012"
    },
    {
      "icao": "EDDN",
      "alert": "OK",
      "vis_m": 9999,
      "fzfg": false,
      "metar_trigger": false,
      "taf_trigger": false,
      "metar": "METAR EDDN 311320Z AUTO 26011KT 230V290 9999 OVC014 M00/M04 Q1021 TEMPO OVC015",
      "taf": "TAF EDDN 311100Z 3112/0112 26012KT 9999 OVC012"
    },
    {
      "icao": "EDDS",
      "alert": "OK",
      "vis_m": 9999,
      "fzfg": false,
      "metar_trigger": false,
      "taf_trigger": false,
      "metar": "METAR EDDS 311320Z AUTO 23005KT 160V270 CAVOK 02/M06 Q1022 NOSIG",
      "taf": "TAF EDDS 311100Z 3112/0112 23004KT 9999 SCT030"
    },
    {
      "icao": "EDFH",
      "alert": "OK",
      "vis_m": 9999,
      "fzfg": false,
      "metar_trigger": false,
      "taf_trigger": false,
      "metar": "METAR EDFH 311320Z 27008KT 9999 -SN SCT003 BKN005 OVC019 M01/M02 Q1022",
      "taf": ""
    },
    {
      "icao": "EDJA",
      "alert": "OK",
      "vis_m": 9999,
      "fzfg": false,
      "metar_trigger": false,
      "taf_trigger": false,
      "metar": "METAR EDJA 311320Z 26007KT CAVOK M01/M12 Q1022",
      "taf": "TAF EDJA 311100Z 3112/3121 24008KT CAVOK"
    },
    {
      "icao": "EDLW",
      "alert": "OK",
      "vis_m": 9999,
      "fzfg": false,
      "metar_trigger": false,
      "taf_trigger": false,
      "metar": "METAR EDLW 311320Z 24011KT 9999 SCT007 BKN009 OVC023 03/02 Q1021",
      "taf": "TAF EDLW 311100Z 3112/0112 24010KT 4500 BR BKN004"
    },
    {
      "icao": "EDNY",
      "alert": "OK",
      "vis_m": 9999,
      "fzfg": false,
      "metar_trigger": false,
      "taf_trigger": false,
      "metar": "METAR EDNY 311320Z 32003KT 220V010 CAVOK 01/M08 Q1024",
      "taf": "TAF EDNY 311100Z 3112/3121 VRB03KT CAVOK"
    },
    {
      "icao": "EDSB",
      "alert": "OK",
      "vis_m": 9999,
      "fzfg": false,
      "metar_trigger": false,
      "taf_trigger": false,
      "metar": "METAR EDSB 311320Z 20006KT CAVOK 01/M05 Q1025",
      "taf": "TAF EDSB 311100Z 3112/0112 20005KT 9999 BKN030"
    },
    {
      "icao": "EETN",
      "alert": "OK",
      "vis_m": 9999,
      "fzfg": false,
      "metar_trigger": false,
      "taf_trigger": false,
      "metar": "METAR EETN 311320Z 02006KT 340V050 9999 SCT031 M06/M11 Q1005 NOSIG",
      "taf": ""
    },
    {
      "icao": "EFTU",
      "alert": "OK",
      "vis_m": 9999,
      "fzfg": false,
      "metar_trigger": false,
      "taf_trigger": false,
      "metar": "METAR EFTU 311320Z AUTO 31003KT 290V350 CAVOK M09/M11 Q1007",
      "taf": "TAF EFTU 311125Z 3112/0112 VRB01KT CAVOK"
    },
    {
      "icao": "EGBB",
      "alert": "OK",
      "vis_m": 9999,
      "fzfg": false,
      "metar_trigger": false,
      "taf_trigger": false,
      "metar": "METAR EGBB 311320Z 30007KT 9999 FEW020 04/M01 Q1027",
      "taf": "TAF EGBB 311057Z 3112/0112 27006KT 9999 FEW040"
    },
    {
      "icao": "EGGP",
      "alert": "OK",
      "vis_m": 9999,
      "fzfg": false,
      "metar_trigger": false,
      "taf_trigger": false,
      "metar": "METAR EGGP 311320Z 30011KT 9999 BKN031 06/M01 Q1028",
      "taf": "TAF EGGP 311102Z 3112/0112 27010KT 9999 SCT035"
    },
    {
      "icao": "EGGW",
      "alert": "OK",
      "vis_m": 9999,
      "fzfg": false,
      "metar_trigger": false,
      "taf_trigger": false,
      "metar": "METAR EGGW 311320Z AUTO 27009KT 9999 NCD 03/M00 Q1027",
      "taf": "TAF EGGW 311056Z 3112/0112 27009KT 9999 FEW025"
    },
    {
      "icao": "EGKK",
      "alert": "OK",
      "vis_m": 9999,
      "fzfg": false,
      "metar_trigger": false,
      "taf_trigger": false,
      "metar": "METAR EGKK 311320Z 30006KT 270V340 9999 FEW038 04/01 Q1028",
      "taf": "TAF EGKK 311100Z 3112/0118 31005KT 5000 BR FEW020"
    },
    {
      "icao": "EGNM",
      "alert": "OK",
      "vis_m": 9999,
      "fzfg": false,
      "metar_trigger": false,
      "taf_trigger": false,
      "metar": "METAR EGNM 311320Z 28019KT 9999 FEW012 SCT016 04/01 Q1024",
      "taf": "TAF EGNM 311103Z 3112/0112 28018KT 9999 FEW040"
    },
    {
      "icao": "EGPD",
      "alert": "OK",
      "vis_m": 9999,
      "fzfg": false,
      "metar_trigger": false,
      "taf_trigger": false,
      "metar": "METAR EGPD 311320Z COR AUTO 27012KT 250V310 9999 BKN030 08/02 Q1018 NOSIG",
      "taf": "TAF EGPD 311053Z 3112/0112 27009KT 9999 SCT030"
    },
    {
      "icao": "EGPF",
      "alert": "OK",
      "vis_m": 9999,
      "fzfg": false,
      "metar_trigger": false,
      "taf_trigger": false,
      "metar": "METAR EGPF 311320Z AUTO 25009KT 9999 SCT020 BKN025 06/04 Q1024",
      "taf": "TAF EGPF 311102Z 3112/0112 26005KT 9999 SCT025"
    },
    {
      "icao": "EHBK",
      "alert": "OK",
      "vis_m": 9999,
      "fzfg": false,
      "metar_trigger": false,
      "taf_trigger": false,
      "metar": "METAR EHBK 311325Z AUTO 24007KT 210V270 9999 FEW004 SCT005 BKN006 03/03 Q1024 TEMPO SCT020",
      "taf": "TAF EHBK 311118Z 3112/0118 24006KT 6000 SCT004 SCT040"
    },
    {
      "icao": "EHEH",
      "alert": "OK",
      "vis_m": 9999,
      "fzfg": false,
      "metar_trigger": false,
      "taf_trigger": false,
      "metar": "METAR EHEH 311325Z AUTO 25007KT 220V310 9999 SCT033 BKN040 05/03 Q1024 BLU TEMPO FEW007 SCT015 BKN018",
      "taf": "TAF EHEH 311125Z 3112/0118 24007KT 9999 BKN025"
    },
    {
      "icao": "EKBI",
      "alert": "OK",
      "vis_m": 9999,
      "fzfg": false,
      "metar_trigger": false,
      "taf_trigger": false,
      "metar": "METAR EKBI 311320Z AUTO 29006KT 9999 NCD 04/02 Q1011",
      "taf": "TAF EKBI 311127Z 3112/0112 29010KT 9999 BKN020"
    },
    {
      "icao": "EKCH",
      "alert": "OK",
      "vis_m": 9999,
      "fzfg": false,
      "metar_trigger": false,
      "taf_trigger": false,
      "metar": "METAR EKCH 311320Z AUTO 29007KT 260V360 9999 FEW015/// 04/01 Q1009 NOSIG",
      "taf": ""
    },
    {
      "icao": "ENAL",
      "alert": "OK",
      "vis_m": 9999,
      "fzfg": false,
      "metar_trigger": false,
      "taf_trigger": false,
      "metar": "METAR ENAL 311320Z 22014KT 9999 -RA FEW022 SCT032 BKN056 04/02 Q1002",
      "taf": "TAF ENAL 311100Z 3112/3121 22015KT 9999 -SHRA SCT020 BKN030"
    },
    {
      "icao": "ENBR",
      "alert": "OK",
      "vis_m": 9999,
      "fzfg": false,
      "metar_trigger": false,
      "taf_trigger": false,
      "metar": "METAR ENBR 311320Z 14008KT 9999 -SHRA SCT007 SCT012 BKN040 03/03 Q1008 TEMPO 4000 SHRASN BKN008 SCT015CB RMK WIND 1200FT 18007KT",
      "taf": "TAF ENBR 311100Z 3112/0112 14007KT 9999 -SHRASN SCT015 BKN025"
    },
    {
      "icao": "ENGM",
      "alert": "OK",
      "vis_m": 9999,
      "fzfg": false,
      "metar_trigger": false,
      "taf_trigger": false,
      "metar": "METAR ENGM 311320Z 17003KT CAVOK M02/M06 Q1006 NOSIG",
      "taf": "TAF ENGM 311100Z 3112/0112 18008KT CAVOK"
    },
    {
      "icao": "ENHD",
      "alert": "OK",
      "vis_m": 9999,
      "fzfg": false,
      "metar_trigger": false,
      "taf_trigger": false,
      "metar": "METAR ENHD 311320Z VRB02KT 9999 FEW025 04/03 Q1009",
      "taf": "TAF ENHD 311100Z 3112/3118 VRB05KT 9999 -SHRA FEW015 BKN030"
    },
    {
      "icao": "ENTC",
      "alert": "OK",
      "vis_m": 9999,
      "fzfg": false,
      "metar_trigger": false,
      "taf_trigger": false,
      "metar": "METAR ENTC 311320Z 23007KT 9999 FEW012 M09/M11 Q1007 NOSIG RMK WIND 2600FT 07003KT",
      "taf": ""
    },
    {
      "icao": "ENTO",
      "alert": "OK",
      "vis_m": 9999,
      "fzfg": false,
      "metar_trigger": false,
      "taf_trigger": false,
      "metar": "METAR ENTO 311320Z 17004KT CAVOK M02/M06 Q1008 NOSIG",
      "taf": ""
    },
    {
      "icao": "ENVA",
      "alert": "OK",
      "vis_m": 9999,
      "fzfg": false,
      "metar_trigger": false,
      "taf_trigger": false,
      "metar": "METAR ENVA 311320Z 13003KT 9999 -SN VV012 00/M00 Q1001 TEMPO 1500 SHSN VV009 RMK WIND 670FT 20017KT",
      "taf": "TAF ENVA 311100Z 3112/0112 10007KT 9999 -SHSN FEW020TCU BKN035"
    },
    {
      "icao": "ENZV",
      "alert": "OK",
      "vis_m": 6000,
      "fzfg": false,
      "metar_trigger": false,
      "taf_trigger": false,
      "metar": "METAR ENZV 311320Z 19006KT 6000 -SHRA OVC022 04/03 Q1010 TEMPO 4000 SHRA BKN010 SCT015CB",
      "taf": "TAF ENZV 311100Z 3112/0112 VRB05KT 9999 -SHRA FEW010 BKN020"
    },
    {
      "icao": "EPGD",
      "alert": "OK",
      "vis_m": 2800,
      "fzfg": false,
      "metar_trigger": false,
      "taf_trigger": false,
      "metar": "METAR EPGD 311330Z 28004KT 2800 SHSN BKN002 BKN012CB M02/M02 Q1006 RESHSN",
      "taf": "TAF EPGD 311130Z 3112/0112 VRB05KT 9999 BKN020"
    },
    {
      "icao": "EPKK",
      "alert": "OK",
      "vis_m": 9999,
      "fzfg": false,
      "metar_trigger": false,
      "taf_trigger": false,
      "metar": "METAR EPKK 311330Z 24009KT 9999 BKN024 M02/M06 Q1012",
      "taf": "TAF EPKK 311130Z 3112/0112 26009KT 9999 BKN020"
    },
    {
      "icao": "EPKT",
      "alert": "OK",
      "vis_m": 9999,
      "fzfg": false,
      "metar_trigger": false,
      "taf_trigger": false,
      "metar": "METAR EPKT 311330Z 26012KT 9999 FEW013 SCT019 M03/M06 Q1011",
      "taf": "TAF EPKT 311130Z 3112/0112 30010KT 9999 BKN020"
    },
    {
      "icao": "EPLB",
      "alert": "OK",
      "vis_m": 9999,
      "fzfg": false,
      "metar_trigger": false,
      "taf_trigger": false,
      "metar": "METAR EPLB 311330Z 29011KT 9999 FEW024 M04/M07 Q1008",
      "taf": "TAF EPLB 311130Z 3112/0112 28012KT 9999 SCT022"
    },
    {
      "icao": "EPMO",
      "alert": "OK",
      "vis_m": 1700,
      "fzfg": false,
      "metar_trigger": false,
      "taf_trigger": false,
      "metar": "METAR EPMO 311330Z 23006KT 160V250 1700 -SHSN BR SCT033CB BKN042 M03/M03 Q1008",
      "taf": "TAF EPMO 311130Z 3112/0112 26010KT 9999 BKN020"
    },
    {
      "icao": "EPPO",
      "alert": "OK",
      "vis_m": 6000,
      "fzfg": false,
      "metar_trigger": false,
      "taf_trigger": false,
      "metar": "METAR EPPO 311330Z 25007KT 6000 -SN OVC011 M02/M04 Q1010",
      "taf": "TAF EPPO 311130Z 3112/0112 25010KT CAVOK"
    },
    {
      "icao": "EPRA",
      "alert": "OK",
      "vis_m": 9999,
      "fzfg": false,
      "metar_trigger": false,
      "taf_trigger": false,
      "metar": "METAR EPRA 311330Z 28008KT 9999 SCT020 M03/M07 Q1009",
      "taf": "TAF EPRA 311130Z 3112/3121 29010KT 9999 BKN025"
    },
    {
      "icao": "EPRZ",
      "alert": "OK",
      "vis_m": 9999,
      "fzfg": false,
      "metar_trigger": false,
      "taf_trigger": false,
      "metar": "METAR EPRZ 311330Z 27011KT 9999 BKN042 M02/M08 Q1010",
      "taf": "TAF EPRZ 311130Z 3112/0112 27010KT 9999 BKN020"
    },
    {
      "icao": "EPSC",
      "alert": "OK",
      "vis_m": 9999,
      "fzfg": false,
      "metar_trigger": false,
      "taf_trigger": false,
      "metar": "METAR EPSC 311330Z VRB01KT 9999 BKN004 OVC006 M01/M01 Q1009",
      "taf": "TAF EPSC 311130Z 3112/0112 22005KT 9999 BKN012"
    },
    {
      "icao": "EPSY",
      "alert": "OK",
      "vis_m": 9999,
      "fzfg": false,
      "metar_trigger": false,
      "taf_trigger": false,
      "metar": "METAR EPSY 311330Z VRB02KT 9999 FEW011 BKN032 M05/M06 Q1008",
      "taf": "TAF EPSY 311130Z 3112/3121 25005KT 9999 BKN030"
    },
    {
      "icao": "EPWA",
      "alert": "OK",
      "vis_m": 9999,
      "fzfg": false,
      "metar_trigger": false,
      "taf_trigger": false,
      "metar": "METAR EPWA 311330Z 26005KT 9999 -SHSN FEW035CB BKN048 M03/M05 Q1009 BECMG 1500 SHSN",
      "taf": "TAF EPWA 311130Z 3112/0112 27010KT 9999 BKN020"
    },
    {
      "icao": "EPWR",
      "alert": "OK",
      "vis_m": 1300,
      "fzfg": false,
      "metar_trigger": false,
      "taf_trigger": false,
      "metar": "METAR EPWR 311330Z 21009KT 1300 R29/1700N SN BR FEW002 OVC010 M02/M03 Q1011",
      "taf": "TAF EPWR 311130Z 3112/0112 26010KT CAVOK"
    },
    {
      "icao": "ESGG",
      "alert": "OK",
      "vis_m": 9999,
      "fzfg": false,
      "metar_trigger": false,
      "taf_trigger": false,
      "metar": "METAR ESGG 311320Z 04003KT CAVOK M01/M04 Q1008",
      "taf": "TAF ESGG 311130Z 3112/0112 03005KT CAVOK"
    },
    {
      "icao": "ESKN",
      "alert": "OK",
      "vis_m": 9999,
      "fzfg": false,
      "metar_trigger": false,
      "taf_trigger": false,
      "metar": "METAR ESKN 311320Z 34003KT 9999 SCT015 M04/M06 Q1009",
      "taf": "TAF ESKN 311130Z 3112/0112 36005KT CAVOK"
    },
    {
      "icao": "ESMS",
      "alert": "OK",
      "vis_m": 9999,
      "fzfg": false,
      "metar_trigger": false,
      "taf_trigger": false,
      "metar": "METAR ESMS 311320Z 30007KT 9999 FEW012 SCT018 03/02 Q1008",
      "taf": "TAF ESMS 311127Z 3112/0112 28005KT 9999 FEW040"
    },
    {
      "icao": "ESSA",
      "alert": "OK",
      "vis_m": 9999,
      "fzfg": false,
      "metar_trigger": false,
      "taf_trigger": false,
      "metar": "METAR ESSA 311320Z 29003KT 260V330 CAVOK M06/M07 Q1008 NOSIG",
      "taf": "TAF ESSA 311130Z 3112/0112 31003KT CAVOK"
    },
    {
      "icao": "EYKA",
      "alert": "OK",
      "vis_m": 9999,
      "fzfg": false,
      "metar_trigger": false,
      "taf_trigger": false,
      "metar": "METAR EYKA 311320Z VRB05KT CAVOK M07/M15 Q1006",
      "taf": "TAF EYKA 311100Z 3112/0112 VRB04KT 8000 NSC"
    },
    {
      "icao": "EYPA",
      "alert": "OK",
      "vis_m": 9999,
      "fzfg": false,
      "metar_trigger": false,
      "taf_trigger": false,
      "metar": "METAR EYPA 311320Z AUTO VRB01KT 9999 NCD M05/M13 Q1008",
      "taf": "TAF EYPA 311100Z 3112/0112 VRB04KT 8000 NSC"
    },
    {
      "icao": "EYVI",
      "alert": "OK",
      "vis_m": 9999,
      "fzfg": false,
      "metar_trigger": false,
      "taf_trigger": false,
      "metar": "METAR EYVI 311320Z 32009KT 9999 SCT018 M08/M11 Q1003 NOSIG",
      "taf": "TAF EYVI 311100Z 3112/0112 32010KT 9000 BKN015"
    },
    {
      "icao": "GCFV",
      "alert": "OK",
      "vis_m": 9999,
      "fzfg": false,
      "metar_trigger": false,
      "taf_trigger": false,
      "metar": "METAR GCFV 311330Z 13009KT 9999 FEW025 20/14 Q1019",
      "taf": "TAF GCFV 310800Z 3109/0109 16008KT 9999 FEW025 TX21/3114Z TN14/0106Z"
    },
    {
      "icao": "GCLP",
      "alert": "OK",
      "vis_m": 9999,
      "fzfg": false,
      "metar_trigger": false,
      "taf_trigger": false,
      "metar": "METAR GCLP 311330Z 17012KT 140V240 9999 FEW017 20/15 Q1018 NOSIG",
      "taf": "TAF GCLP 310800Z 3109/0109 19014KT 9999 FEW030 TX22/3114Z TN15/0106Z"
    },
    {
      "icao": "GCTS",
      "alert": "OK",
      "vis_m": 9999,
      "fzfg": false,
      "metar_trigger": false,
      "taf_trigger": false,
      "metar": "METAR GCTS 311330Z 25005KT 210V320 CAVOK 20/14 Q1019 NOSIG",
      "taf": "TAF GCTS 310800Z 3109/0109 22010KT 9999 SCT030 TX24/3114Z TN17/0106Z"
    },
    {
      "icao": "GMAD",
      "alert": "OK",
      "vis_m": 9999,
      "fzfg": false,
      "metar_trigger": false,
      "taf_trigger": false,
      "metar": "METAR GMAD 311330Z 04004KT 360V080 9999 FEW040 20/09 Q1018 NOSIG",
      "taf": "TAF GMAD 311100Z 3112/0118 27010KT 8000 SCT030"
    },
    {
      "icao": "GMMN",
      "alert": "OK",
      "vis_m": 9999,
      "fzfg": false,
      "metar_trigger": false,
      "taf_trigger": false,
      "metar": "METAR GMMN 311330Z 22014KT 9999 BKN010 16/14 Q1018 NOSIG",
      "taf": "TAF GMMN 311100Z 3112/0118 21016KT 9999 BKN013"
    },
    {
      "icao": "GMMX",
      "alert": "OK",
      "vis_m": 9999,
      "fzfg": false,
      "metar_trigger": false,
      "taf_trigger": false,
      "metar": "METAR GMMX 311330Z VRB04KT 9999 SCT026 19/12 Q1019 NOSIG",
      "taf": "TAF GMMX 311100Z 3112/0118 28006KT 8000 SCT026"
    },
    {
      "icao": "HEGN",
      "alert": "OK",
      "vis_m": 9999,
      "fzfg": false,
      "metar_trigger": false,
      "taf_trigger": false,
      "metar": "METAR HEGN 311300Z 05006KT CAVOK 24/09 Q1013 NOSIG",
      "taf": "TAF HEGN 311100Z 3112/0118 05010KT CAVOK"
    },
    {
      "icao": "HEMA",
      "alert": "OK",
      "vis_m": 9999,
      "fzfg": false,
      "metar_trigger": false,
      "taf_trigger": false,
      "metar": "METAR HEMA 311300Z 10010KT CAVOK 23/14 Q1013 NOSIG",
      "taf": "TAF HEMA 311100Z 3112/0118 19010KT CAVOK"
    },
    {
      "icao": "HESH",
      "alert": "OK",
      "vis_m": 9999,
      "fzfg": false,
      "metar_trigger": false,
      "taf_trigger": false,
      "metar": "METAR HESH 311300Z 16018KT 9999 SCT020 23/07 Q1012 NOSIG",
      "taf": "TAF HESH 311100Z 3112/0118 22010KT 9999 SCT025"
    },
    {
      "icao": "HESX",
      "alert": "OK",
      "vis_m": 9999,
      "fzfg": false,
      "metar_trigger": false,
      "taf_trigger": false,
      "metar": "METAR HESX 311300Z 20016KT CAVOK 19/03 Q1012 NOSIG",
      "taf": "TAF HESX 311100Z 3112/0118 25014KT CAVOK"
    },
    {
      "icao": "LATI",
      "alert": "OK",
      "vis_m": 9999,
      "fzfg": false,
      "metar_trigger": false,
      "taf_trigger": false,
      "metar": "METAR LATI 311320Z 31015KT CAVOK 07/M13 Q1014 NOSIG",
      "taf": "TAF LATI 311100Z 3112/0112 34013KT CAVOK TX09/3113Z TNM05/0105Z"
    },
    {
      "icao": "LBPD",
      "alert": "OK",
      "vis_m": 9999,
      "fzfg": false,
      "metar_trigger": false,
      "taf_trigger": false,
      "metar": "METAR LBPD 311330Z AUTO 28015KT 9999 NCD 02/M13 Q1014 NOSIG",
      "taf": "TAF LBPD 311100Z 3112/0112 27016KT CAVOK"
    },
    {
      "icao": "LBSF",
      "alert": "OK",
      "vis_m": 9999,
      "fzfg": false,
      "metar_trigger": false,
      "taf_trigger": false,
      "metar": "METAR LBSF 311330Z 29016G26KT 9999 FEW043 M03/M12 Q1014 NOSIG",
      "taf": ""
    },
    {
      "icao": "LBWN",
      "alert": "OK",
      "vis_m": 9999,
      "fzfg": false,
      "metar_trigger": false,
      "taf_trigger": false,
      "metar": "METAR LBWN 311330Z AUTO 28017KT 9999 NCD 02/M09 Q1012 NOSIG",
      "taf": "TAF LBWN 311100Z 3112/0112 29015KT 9999 SCT045"
    },
    {
      "icao": "LCLK",
      "alert": "OK",
      "vis_m": 9999,
      "fzfg": false,
      "metar_trigger": false,
      "taf_trigger": false,
      "metar": "METAR LCLK 311330Z 26011KT 9999 FEW025 FEW030CB BKN050 15/12 Q1005 RETS TEMPO 2000 TSRA SCT020CB",
      "taf": "TAF LCLK 311130Z 3112/0112 25020KT 9999 FEW020 SCT040"
    },
    {
      "icao": "LCPH",
      "alert": "OK",
      "vis_m": 9999,
      "fzfg": false,
      "metar_trigger": false,
      "taf_trigger": false,
      "metar": "METAR LCPH 311330Z 26017KT 250V320 9999 FEW025 FEW030CB BKN070 17/12 Q1006 TEMPO 3000 TSRA SCT025CB",
      "taf": "TAF LCPH 311130Z 3112/0112 26020KT 9999 SCT020 BKN040"
    },
    {
      "icao": "LEAL",
      "alert": "OK",
      "vis_m": 9999,
      "fzfg": false,
      "metar_trigger": false,
      "taf_trigger": false,
      "metar": "METAR LEAL 311330Z 29008KT 250V320 9999 FEW025 17/04 Q1017 NOSIG",
      "taf": "TAF LEAL 311100Z 3112/0112 12008KT CAVOK TX16/3114Z TN07/0106Z"
    },
    {
      "icao": "LEBB",
      "alert": "OK",
      "vis_m": 9999,
      "fzfg": false,
      "metar_trigger": false,
      "taf_trigger": false,
      "metar": "METAR LEBB 311330Z 33003KT 260V030 9999 FEW022 BKN028 08/04 Q1021 NOSIG",
      "taf": "TAF LEBB 311100Z 3112/0112 12006KT 9999 FEW020 BKN030 TX11/0112Z TN01/0100Z"
    },
    {
      "icao": "LEBL",
      "alert": "OK",
      "vis_m": 9999,
      "fzfg": false,
      "metar_trigger": false,
      "taf_trigger": false,
      "metar": "METAR LEBL 311330Z 05003KT 9999 FEW025 12/06 Q1018 NOSIG",
      "taf": ""
    },
    {
      "icao": "LECH",
      "alert": "OK",
      "vis_m": 9999,
      "fzfg": false,
      "metar_trigger": false,
      "taf_trigger": false,
      "metar": "METAR LECH 311330Z AUTO 11007KT 090V150 9999 OVC046 10/04 Q1018",
      "taf": ""
    },
    {
      "icao": "LEMD",
      "alert": "OK",
      "vis_m": 9999,
      "fzfg": false,
      "metar_trigger": false,
      "taf_trigger": false,
      "metar": "METAR LEMD 311330Z 22004KT 190V290 CAVOK 09/01 Q1018 NOSIG",
      "taf": "TAF LEMD 311100Z 3112/0118 VRB03KT CAVOK TX08/3114Z TNM03/0108Z"
    },
    {
      "icao": "LEMG",
      "alert": "OK",
      "vis_m": 9999,
      "fzfg": false,
      "metar_trigger": false,
      "taf_trigger": false,
      "metar": "METAR LEMG 311330Z 16005KT 120V200 9999 FEW060 16/07 Q1017 NOSIG",
      "taf": "TAF LEMG 311100Z 3112/0112 14005KT CAVOK TX18/3114Z TN13/0107Z"
    },
    {
      "icao": "LEVC",
      "alert": "OK",
      "vis_m": 9999,
      "fzfg": false,
      "metar_trigger": false,
      "taf_trigger": false,
      "metar": "METAR LEVC 311330Z 07003KT 350V130 9999 SCT038 13/04 Q1019 NOSIG",
      "taf": "TAF LEVC 311100Z 3112/0112 VRB04KT 9999 SCT040 TX15/3114Z TN05/0106Z"
    },
    {
      "icao": "LEXJ",
      "alert": "OK",
      "vis_m": 9999,
      "fzfg": false,
      "metar_trigger": false,
      "taf_trigger": false,
      "metar": "METAR LEXJ 311330Z 09004KT 020V140 9999 SCT022 BKN040 09/04 Q1021",
      "taf": "TAF LEXJ 310800Z 3109/0109 VRB03KT 9999 SCT020 BKN030 TX10/3115Z TN03/0103Z"
    },
    {
      "icao": "LEZG",
      "alert": "OK",
      "vis_m": 9999,
      "fzfg": false,
      "metar_trigger": false,
      "taf_trigger": false,
      "metar": "METAR LEZG 311330Z 31010KT 280V340 CAVOK 10/02 Q1019 NOSIG",
      "taf": "TAF LEZG 311100Z 3112/0112 29010KT CAVOK TX09/3114Z TNM00/0106Z"
    },
    {
      "icao": "LEZL",
      "alert": "OK",
      "vis_m": 9000,
      "fzfg": false,
      "metar_trigger": false,
      "taf_trigger": false,
      "metar": "METAR LEZL 311330Z 04005KT 9000 NSC 12/09 Q1018 NOSIG",
      "taf": ""
    },
    {
      "icao": "LFBD",
      "alert": "OK",
      "vis_m": 9999,
      "fzfg": false,
      "metar_trigger": false,
      "taf_trigger": false,
      "metar": "METAR LFBD 311330Z AUTO 06008KT 030V100 CAVOK 04/M04 Q1022 NOSIG",
      "taf": "TAF LFBD 311100Z 3112/0118 05005KT CAVOK TX05/3114Z TNM05/0106Z"
    },
    {
      "icao": "LFLL",
      "alert": "OK",
      "vis_m": 9999,
      "fzfg": false,
      "metar_trigger": false,
      "taf_trigger": false,
      "metar": "METAR LFLL 311300Z 36005KT 320V040 9999 FEW023 00/M05 Q1024 NOSIG",
      "taf": "TAF LFLL 311100Z 3112/0118 35006KT CAVOK"
    },
    {
      "icao": "LFLS",
      "alert": "OK",
      "vis_m": 9999,
      "fzfg": false,
      "metar_trigger": false,
      "taf_trigger": false,
      "metar": "METAR LFLS 311330Z AUTO 35009KT CAVOK M01/M04 Q1022 NOSIG",
      "taf": "TAF LFLS 310800Z 3109/0109 36005KT CAVOK"
    },
    {
      "icao": "LFMN",
      "alert": "OK",
      "vis_m": 9999,
      "fzfg": false,
      "metar_trigger": false,
      "taf_trigger": false,
      "metar": "METAR LFMN 311330Z 12010KT 9999 FEW046 13/02 Q1017 NOSIG",
      "taf": "TAF LFMN 310800Z 3109/0115 33008KT 9999 FEW043"
    },
    {
      "icao": "LFOB",
      "alert": "OK",
      "vis_m": 9999,
      "fzfg": false,
      "metar_trigger": false,
      "taf_trigger": false,
      "metar": "METAR LFOB 311330Z AUTO 00000KT 9999 BKN036 03/02 Q1027 NOSIG",
      "taf": "TAF LFOB 311100Z 3112/0112 26005KT 9999 FEW020"
    },
    {
      "icao": "LFPO",
      "alert": "OK",
      "vis_m": 9999,
      "fzfg": false,
      "metar_trigger": false,
      "taf_trigger": false,
      "metar": "METAR LFPO 311330Z 02004KT 350V060 9999 FEW021 05/00 Q1027 NOSIG",
      "taf": ""
    },
    {
      "icao": "LFSB",
      "alert": "OK",
      "vis_m": 9999,
      "fzfg": false,
      "metar_trigger": false,
      "taf_trigger": false,
      "metar": "METAR LFSB 311330Z AUTO 31004KT 280V340 CAVOK 01/M07 Q1025 NOSIG",
      "taf": "TAF LFSB 311100Z 3112/0112 VRB03KT CAVOK"
    },
    {
      "icao": "LGAV",
      "alert": "OK",
      "vis_m": 9999,
      "fzfg": false,
      "metar_trigger": false,
      "taf_trigger": false,
      "metar": "METAR LGAV 311320Z 36016KT 9999 SCT020 BKN070 06/02 Q1012 NOSIG",
      "taf": "TAF LGAV 311100Z 3112/0112 02016KT 9999 FEW016 SCT025"
    },
    {
      "icao": "LGTS",
      "alert": "OK",
      "vis_m": 9999,
      "fzfg": false,
      "metar_trigger": false,
      "taf_trigger": false,
      "metar": "METAR LGTS 311320Z 35017KT 9999 FEW025 05/M08 Q1015 NOSIG",
      "taf": "TAF LGTS 311100Z 3112/0112 34018KT 9999 SCT030"
    },
    {
      "icao": "LHBP",
      "alert": "OK",
      "vis_m": 9999,
      "fzfg": false,
      "metar_trigger": false,
      "taf_trigger": false,
      "metar": "METAR LHBP 311330Z 30017KT 9999 SCT039 M00/M08 Q1016 NOSIG",
      "taf": "TAF LHBP 311115Z 3112/0112 31015G25KT 9999 SCT035 SCT160"
    },
    {
      "icao": "LHDC",
      "alert": "OK",
      "vis_m": 9999,
      "fzfg": false,
      "metar_trigger": false,
      "taf_trigger": false,
      "metar": "METAR LHDC 311315Z AUTO 30008KT 270V330 CAVOK M01/M08 Q1014 NOSIG",
      "taf": "TAF LHDC 311115Z 3112/3121 27008KT CAVOK"
    },
    {
      "icao": "LIBD",
      "alert": "OK",
      "vis_m": 9999,
      "fzfg": false,
      "metar_trigger": false,
      "taf_trigger": false,
      "metar": "METAR LIBD 311320Z 36008KT 330V030 9999 SCT045 06/M04 Q1018",
      "taf": "TAF LIBD 311100Z 3112/0112 36015KT 9999 FEW050"
    },
    {
      "icao": "LIBG",
      "alert": "OK",
      "vis_m": 9999,
      "fzfg": false,
      "metar_trigger": false,
      "taf_trigger": false,
      "metar": "METAR LIBG 311250Z 36020KT CAVOK 07/M04 Q1016",
      "taf": "TAF LIBG 311100Z 3112/3121 35014KT CAVOK"
    },
    {
      "icao": "LIBP",
      "alert": "OK",
      "vis_m": 9999,
      "fzfg": false,
      "metar_trigger": false,
      "taf_trigger": false,
      "metar": "METAR LIBP 311320Z AUTO 10008KT 060V120 9999 NCD 08/M04 Q1020",
      "taf": ""
    },
    {
      "icao": "LIBR",
      "alert": "OK",
      "vis_m": 9999,
      "fzfg": false,
      "metar_trigger": false,
      "taf_trigger": false,
      "metar": "METAR LIBR 311320Z AUTO 36017KT 9999 FEW047/// 07/M05 Q1016",
      "taf": ""
    },
    {
      "icao": "LICA",
      "alert": "OK",
      "vis_m": 9999,
      "fzfg": false,
      "metar_trigger": false,
      "taf_trigger": false,
      "metar": "METAR LICA 311320Z AUTO 11005KT 080V140 9999 NCD 13/02 Q1013",
      "taf": "TAF LICA 311100Z 3112/0112 01007KT CAVOK"
    },
    {
      "icao": "LICC",
      "alert": "OK",
      "vis_m": 9999,
      "fzfg": false,
      "metar_trigger": false,
      "taf_trigger": false,
      "metar": "METAR LICC 311320Z 14007KT 9999 BKN020 12/09 Q1014",
      "taf": "TAF LICC 311100Z 3112/0112 08010KT 9999 BKN030"
    },
    {
      "icao": "LICJ",
      "alert": "OK",
      "vis_m": 9999,
      "fzfg": false,
      "metar_trigger": false,
      "taf_trigger": false,
      "metar": "METAR LICJ 311320Z 25007KT 9999 FEW020 SCT045 14/07 Q1013",
      "taf": "TAF LICJ 311100Z 3112/0112 VRB06KT 9999 FEW030"
    },
    {
      "icao": "LIMC",
      "alert": "OK",
      "vis_m": 9999,
      "fzfg": false,
      "metar_trigger": false,
      "taf_trigger": false,
      "metar": "METAR LIMC 311320Z 24003KT 200V290 9999 SCT027 07/00 Q1019 NOSIG",
      "taf": "TAF LIMC 311100Z 3112/0118 VRB04KT 9999 SCT040"
    },
    {
      "icao": "LIME",
      "alert": "OK",
      "vis_m": 9999,
      "fzfg": false,
      "metar_trigger": false,
      "taf_trigger": false,
      "metar": "METAR LIME 311320Z 20005KT 150V250 9999 FEW045 06/M01 Q1018 NOSIG",
      "taf": "TAF LIME 311100Z 3112/0112 VRB04KT 9999 SCT040"
    },
    {
      "icao": "LIMF",
      "alert": "OK",
      "vis_m": 9999,
      "fzfg": false,
      "metar_trigger": false,
      "taf_trigger": false,
      "metar": "METAR LIMF 311320Z 13003KT CAVOK 07/01 Q1018",
      "taf": "TAF LIMF 311100Z 3112/0112 VRB04KT 3000 BR SCT040"
    },
    {
      "icao": "LIMJ",
      "alert": "OK",
      "vis_m": 9999,
      "fzfg": false,
      "metar_trigger": false,
      "taf_trigger": false,
      "metar": "METAR LIMJ 311320Z 04012KT CAVOK 10/M02 Q1018",
      "taf": "TAF LIMJ 311100Z 3112/0112 03012KT 9999 SCT030"
    },
    {
      "icao": "LIPE",
      "alert": "OK",
      "vis_m": 9999,
      "fzfg": false,
      "metar_trigger": false,
      "taf_trigger": false,
      "metar": "METAR LIPE 311320Z 29004KT 230V010 CAVOK 07/01 Q1020",
      "taf": "TAF LIPE 311100Z 3112/0112 VRB04KT 4000 BR BKN020"
    },
    {
      "icao": "LIPH",
      "alert": "OK",
      "vis_m": 9999,
      "fzfg": false,
      "metar_trigger": false,
      "taf_trigger": false,
      "metar": "METAR LIPH 311320Z 09004KT 060V120 9999 BKN050 06/M04 Q1020",
      "taf": "TAF LIPH 311100Z 3112/0112 VRB04KT 9999 SCT045"
    },
    {
      "icao": "LIPQ",
      "alert": "OK",
      "vis_m": 9999,
      "fzfg": false,
      "metar_trigger": false,
      "taf_trigger": false,
      "metar": "METAR LIPQ 311320Z AUTO VRB02KT 9999 FEW052/// 07/M08 Q1020",
      "taf": "TAF LIPQ 311100Z 3112/0112 VRB05KT 9999 SCT050"
    },
    {
      "icao": "LIPR",
      "alert": "OK",
      "vis_m": 9999,
      "fzfg": false,
      "metar_trigger": false,
      "taf_trigger": false,
      "metar": "METAR LIPR 311320Z 03005KT CAVOK 07/M01 Q1019",
      "taf": "TAF LIPR 311100Z 3112/0112 17008KT 7000 FEW030"
    },
    {
      "icao": "LIPX",
      "alert": "OK",
      "vis_m": 9999,
      "fzfg": false,
      "metar_trigger": false,
      "taf_trigger": false,
      "metar": "METAR LIPX 311320Z 18004KT 140V200 CAVOK 08/M02 Q1019",
      "taf": "TAF LIPX 311100Z 3112/0112 VRB04KT 9999 FEW040"
    },
    {
      "icao": "LIPY",
      "alert": "OK",
      "vis_m": 9999,
      "fzfg": false,
      "metar_trigger": false,
      "taf_trigger": false,
      "metar": "METAR LIPY 311320Z AUTO 13007KT 9999 OVC068/// 08/M01 Q1019",
      "taf": "TAF LIPY 311100Z 3112/0112 13006KT 9999 SCT045"
    },
    {
      "icao": "LIPZ",
      "alert": "OK",
      "vis_m": 9999,
      "fzfg": false,
      "metar_trigger": false,
      "taf_trigger": false,
      "metar": "METAR LIPZ 311320Z 07006KT 9999 SCT060 06/M04 Q1020 NOSIG",
      "taf": "TAF LIPZ 311100Z 3112/0118 06006KT 9999 SCT040"
    },
    {
      "icao": "LIRF",
      "alert": "OK",
      "vis_m": 9999,
      "fzfg": false,
      "metar_trigger": false,
      "taf_trigger": false,
      "metar": "METAR LIRF 311320Z 06004KT 030V090 9999 SCT040 10/01 Q1016 NOSIG",
      "taf": "TAF LIRF 311100Z 3112/0118 05010KT 9999 SCT035"
    },
    {
      "icao": "LIRN",
      "alert": "OK",
      "vis_m": 9999,
      "fzfg": false,
      "metar_trigger": false,
      "taf_trigger": false,
      "metar": "METAR LIRN 311320Z 04013KT CAVOK 09/M07 Q1016 NOSIG",
      "taf": "TAF LIRN 311100Z 3112/0112 05010KT CAVOK"
    },
    {
      "icao": "LIRP",
      "alert": "OK",
      "vis_m": 9999,
      "fzfg": false,
      "metar_trigger": false,
      "taf_trigger": false,
      "metar": "METAR LIRP 311315Z 10010KT CAVOK 09/M04 Q1017 NOSIG",
      "taf": "TAF LIRP 311100Z 3112/0112 12012KT 9999 FEW060"
    },
    {
      "icao": "LIRZ",
      "alert": "OK",
      "vis_m": 9999,
      "fzfg": false,
      "metar_trigger": false,
      "taf_trigger": false,
      "metar": "METAR LIRZ 311320Z AUTO 06010KT 9999 NCD 08/M07 Q1017",
      "taf": "TAF LIRZ 311100Z 3112/0112 05010KT CAVOK"
    },
    {
      "icao": "LJLJ",
      "alert": "OK",
      "vis_m": 9999,
      "fzfg": false,
      "metar_trigger": false,
      "taf_trigger": false,
      "metar": "METAR LJLJ 311330Z 07002KT CAVOK M00/M05 Q1018 NOSIG",
      "taf": "TAF LJLJ 311100Z 3112/0112 VRB02KT 9999 FEW040"
    },
    {
      "icao": "LKMT",
      "alert": "OK",
      "vis_m": 9999,
      "fzfg": false,
      "metar_trigger": false,
      "taf_trigger": false,
      "metar": "METAR LKMT 311330Z 21008KT CAVOK M02/M06 Q1013 NOSIG",
      "taf": "TAF LKMT 311100Z 3112/0112 21012KT 9999 BKN030"
    },
    {
      "icao": "LKPR",
      "alert": "OK",
      "vis_m": 4000,
      "fzfg": false,
      "metar_trigger": false,
      "taf_trigger": false,
      "metar": "METAR LKPR 311330Z 23020KT 4000 SN BKN014 OVC031 M01/M03 Q1012 TEMPO 2500 SN",
      "taf": "TAF LKPR 311100Z 3112/0118 23018KT 7000 -SN BKN023"
    },
    {
      "icao": "LLBG",
      "alert": "OK",
      "vis_m": 9999,
      "fzfg": false,
      "metar_trigger": false,
      "taf_trigger": false,
      "metar": "METAR LLBG 311320Z 22014KT 9999 SCT048 19/08 Q1011 NOSIG RMK SCT150",
      "taf": "TAF LLBG 311109Z 3112/0112 22015KT 9999 FEW050"
    },
    {
      "icao": "LMML",
      "alert": "OK",
      "vis_m": 9999,
      "fzfg": false,
      "metar_trigger": false,
      "taf_trigger": false,
      "metar": "METAR LMML 311315Z COR 26005KT 220V290 9999 FEW018 15/12 Q1013 NOSIG",
      "taf": "TAF LMML 311100Z 3112/0112 29012KT 9999 SCT020"
    },
    {
      "icao": "LOWW",
      "alert": "OK",
      "vis_m": 9999,
      "fzfg": false,
      "metar_trigger": false,
      "taf_trigger": false,
      "metar": "METAR LOWW 311320Z 29021KT 9999 FEW044 SCT050 M00/M10 Q1017 TEMPO FM1400 4500 -SN",
      "taf": "TAF LOWW 311115Z 3112/0118 30018KT 9999 BKN030 TX04/0111Z TNM01/3114Z"
    },
    {
      "icao": "LPFR",
      "alert": "OK",
      "vis_m": 9999,
      "fzfg": false,
      "metar_trigger": false,
      "taf_trigger": false,
      "metar": "METAR LPFR 311330Z 09009KT 9999 FEW012 BKN030 14/10 Q1016",
      "taf": "TAF LPFR 311100Z 3112/0112 08012KT 9999 FEW015 BKN035"
    },
    {
      "icao": "LPMA",
      "alert": "OK",
      "vis_m": 9999,
      "fzfg": false,
      "metar_trigger": false,
      "taf_trigger": false,
      "metar": "METAR LPMA 311330Z 22019KT 9999 SCT007 BKN015 FEW018CB 19/16 Q1014",
      "taf": "TAF LPMA 311100Z 3112/0112 21018KT 9999 SCT015"
    },
    {
      "icao": "LPPR",
      "alert": "OK",
      "vis_m": 9999,
      "fzfg": false,
      "metar_trigger": false,
      "taf_trigger": false,
      "metar": "METAR LPPR 311330Z 15003KT 090V230 CAVOK 15/07 Q1018",
      "taf": "TAF LPPR 311100Z 3112/0112 11010KT CAVOK"
    },
    {
      "icao": "LPPS",
      "alert": "OK",
      "vis_m": 9999,
      "fzfg": false,
      "metar_trigger": false,
      "taf_trigger": false,
      "metar": "METAR LPPS 311330Z 19017KT 9999 SCT006 SCT015 19/17 Q1014",
      "taf": "TAF LPPS 311100Z 3112/0118 18012KT 9999 SCT010"
    },
    {
      "icao": "LPPT",
      "alert": "OK",
      "vis_m": 9999,
      "fzfg": false,
      "metar_trigger": false,
      "taf_trigger": false,
      "metar": "METAR LPPT 311330Z 03006KT 360V100 9999 2500E VCFG FEW001 09/09 Q1017",
      "taf": "TAF LPPT 311100Z 3112/0118 06005KT 0200 FG VV001"
    },
    {
      "icao": "LQBK",
      "alert": "OK",
      "vis_m": 9999,
      "fzfg": false,
      "metar_trigger": false,
      "taf_trigger": false,
      "metar": "METAR LQBK 311330Z 31006KT 9999 FEW033 02/M10 Q1021 NOSIG",
      "taf": "TAF LQBK 311100Z 3112/0112 32005KT CAVOK TX02/3113Z TNM05/0106Z"
    },
    {
      "icao": "LQSA",
      "alert": "OK",
      "vis_m": 9999,
      "fzfg": false,
      "metar_trigger": false,
      "taf_trigger": false,
      "metar": "METAR LQSA 311330Z 34010KT 310V010 9999 BKN060 M01/M14 Q1018 NOSIG",
      "taf": "TAF LQSA 311100Z 3112/0112 29005KT 9999 SCT045 TX02/0112Z TNM08/0104Z"
    },
    {
      "icao": "LQTZ",
      "alert": "OK",
      "vis_m": 9999,
      "fzfg": false,
      "metar_trigger": false,
      "taf_trigger": false,
      "metar": "METAR LQTZ 311330Z 29007KT 9999 FEW036 SCT055 M00/M10 Q1019",
      "taf": "TAF LQTZ 311100Z 3112/0112 27006KT 9999 SCT040 TX01/3113Z TNM06/0106Z"
    },
    {
      "icao": "LRBC",
      "alert": "OK",
      "vis_m": 9999,
      "fzfg": false,
      "metar_trigger": false,
      "taf_trigger": false,
      "metar": "METAR LRBC 311330Z 28016KT CAVOK 01/M14 Q1008",
      "taf": "TAF LRBC 311100Z 3112/3121 28014KT 9999 BKN055"
    },
    {
      "icao": "LRBS",
      "alert": "OK",
      "vis_m": 9999,
      "fzfg": false,
      "metar_trigger": false,
      "taf_trigger": false,
      "metar": "METAR LRBS 311330Z 28008KT 240V350 CAVOK 02/M11 Q1012 NOSIG",
      "taf": "TAF LRBS 311100Z 3112/0112 27010KT CAVOK"
    },
    {
      "icao": "LRBV",
      "alert": "OK",
      "vis_m": 9999,
      "fzfg": false,
      "metar_trigger": false,
      "taf_trigger": false,
      "metar": "METAR LRBV 311330Z 27008KT 240V310 9999 SCT039 BKN054 M04/M12 Q1009",
      "taf": "TAF LRBV 311100Z 3112/3121 28017KT 9999 SCT025 BKN040"
    },
    {
      "icao": "LRCL",
      "alert": "OK",
      "vis_m": 9999,
      "fzfg": false,
      "metar_trigger": false,
      "taf_trigger": false,
      "metar": "METAR LRCL 311330Z 27012KT CAVOK M03/M10 Q1012",
      "taf": "TAF LRCL 311100Z 3112/3121 30014KT 9999 BKN050"
    },
    {
      "icao": "LRCV",
      "alert": "OK",
      "vis_m": 9999,
      "fzfg": false,
      "metar_trigger": false,
      "taf_trigger": false,
      "metar": "METAR LRCV 311330Z 29018KT CAVOK M01/M09 Q1013",
      "taf": "TAF LRCV 311100Z 3112/3121 29016KT CAVOK"
    },
    {
      "icao": "LRIA",
      "alert": "OK",
      "vis_m": 9999,
      "fzfg": false,
      "metar_trigger": false,
      "taf_trigger": false,
      "metar": "METAR LRIA 311330Z 31017KT CAVOK M01/M08 Q1007",
      "taf": "TAF LRIA 311100Z 3112/3121 28012KT 9999 BKN035"
    },
    {
      "icao": "LROP",
      "alert": "OK",
      "vis_m": 9999,
      "fzfg": false,
      "metar_trigger": false,
      "taf_trigger": false,
      "metar": "METAR LROP 311330Z 27012KT CAVOK 02/M14 Q1011 NOSIG",
      "taf": "TAF LROP 311100Z 3112/0112 28010KT CAVOK"
    },
    {
      "icao": "LRSB",
      "alert": "OK",
      "vis_m": 9999,
      "fzfg": false,
      "metar_trigger": false,
      "taf_trigger": false,
      "metar": "METAR LRSB 311330Z 31013KT 9999 FEW047 SCT065 M04/M08 Q1011",
      "taf": "TAF LRSB 311100Z 3112/0112 29010KT 9999 BKN045"
    },
    {
      "icao": "LRSM",
      "alert": "OK",
      "vis_m": 9999,
      "fzfg": false,
      "metar_trigger": false,
      "taf_trigger": false,
      "metar": "METAR LRSM 311330Z AUTO 25012KT 9999 BKN042/// OVC048/// M03/M07 Q1013",
      "taf": "TAF LRSM 311100Z 3112/3121 26014KT 9999 SCT030"
    },
    {
      "icao": "LRSV",
      "alert": "OK",
      "vis_m": 9999,
      "fzfg": false,
      "metar_trigger": false,
      "taf_trigger": false,
      "metar": "METAR LRSV 311330Z 32016KT 9999 DRSN SCT048 M03/M10 Q1006",
      "taf": "TAF LRSV 311100Z 3112/3121 31016KT 9999 BKN035"
    },
    {
      "icao": "LRTM",
      "alert": "OK",
      "vis_m": 9999,
      "fzfg": false,
      "metar_trigger": false,
      "taf_trigger": false,
      "metar": "METAR LRTM 311330Z 29013KT 9999 FEW024 SCT048 M02/M11 Q1012",
      "taf": "TAF LRTM 311100Z 3112/3121 28014KT 9999 SCT025 BKN040"
    },
    {
      "icao": "LRTR",
      "alert": "OK",
      "vis_m": 9999,
      "fzfg": false,
      "metar_trigger": false,
      "taf_trigger": false,
      "metar": "METAR LRTR 311330Z 32014KT 9999 SCT043 M01/M08 Q1016",
      "taf": "TAF LRTR 311100Z 3112/0112 31013KT 9999 SCT025"
    },
    {
      "icao": "LTAC",
      "alert": "OK",
      "vis_m": 9999,
      "fzfg": false,
      "metar_trigger": false,
      "taf_trigger": false,
      "metar": "METAR LTAC 311320Z 33007KT 310V010 9999 SCT040 BKN100 00/M07 Q1005 NOSIG RMK RWY21C 32006KT RWY03L 32007KT RWY21R 31007KT RWY03R 31008KT RWY21L 31008KT",
      "taf": "TAF LTAC 311040Z 3112/0112 VRB02KT 9999 SCT035 BKN090"
    },
    {
      "icao": "LTFM",
      "alert": "OK",
      "vis_m": 9999,
      "fzfg": false,
      "metar_trigger": false,
      "taf_trigger": false,
      "metar": "METAR LTFM 311320Z 34010KT CAVOK 03/M10 Q1013 NOSIG RMK RWY17L 34008KT 280V050 RWY34L 33009KT 290V350 RWY16R 33008KT 300V010 RWY36 34010KT 260V010 RWY18 34007KT 310V020",
      "taf": "TAF LTFM 311040Z 3112/0118 33015G25KT CAVOK"
    },
    {
      "icao": "LUKK",
      "alert": "OK",
      "vis_m": 9999,
      "fzfg": false,
      "metar_trigger": false,
      "taf_trigger": false,
      "metar": "METAR LUKK 311330Z 32018KT 9999 -SHSN SCT042CB M01/M09 Q1006 TEMPO 30018G28KT",
      "taf": "TAF LUKK 311110Z 3112/0112 30014KT 9999 BKN025"
    },
    {
      "icao": "LWOH",
      "alert": "OK",
      "vis_m": 9999,
      "fzfg": false,
      "metar_trigger": false,
      "taf_trigger": false,
      "metar": "METAR LWOH 311320Z 02007KT 340V060 CAVOK 01/M14 Q1012",
      "taf": "TAF LWOH 311135Z 3112/0112 33010KT CAVOK"
    },
    {
      "icao": "LWSK",
      "alert": "OK",
      "vis_m": 9999,
      "fzfg": false,
      "metar_trigger": false,
      "taf_trigger": false,
      "metar": "METAR LWSK 311320Z 35012KT 310V010 9999 FEW060 02/M11 Q1016 NOSIG",
      "taf": "TAF LWSK 311135Z 3112/0112 36012KT CAVOK"
    },
    {
      "icao": "LYBE",
      "alert": "OK",
      "vis_m": 9999,
      "fzfg": false,
      "metar_trigger": false,
      "taf_trigger": false,
      "metar": "METAR LYBE 311330Z 32016KT 9999 SCT043 00/M09 Q1018 NOSIG",
      "taf": "TAF LYBE 311100Z 3112/0112 30016KT 9999 SCT040 TX05/0112Z TNM04/3123Z"
    },
    {
      "icao": "LYNI",
      "alert": "OK",
      "vis_m": 9999,
      "fzfg": false,
      "metar_trigger": false,
      "taf_trigger": false,
      "metar": "METAR LYNI 311330Z 30011KT 260V330 9999 SCT050 M00/M11 Q1017 NOSIG",
      "taf": "TAF LYNI 311100Z 3112/0112 31012KT 9999 SCT027 BKN040 TX02/0112Z TNM06/0106Z"
    },
    {
      "icao": "LYPG",
      "alert": "OK",
      "vis_m": 9999,
      "fzfg": false,
      "metar_trigger": false,
      "taf_trigger": false,
      "metar": "METAR LYPG 311330Z 35017G27KT CAVOK 04/M16 Q1016 NOSIG",
      "taf": "TAF LYPG 311100Z 3112/0112 36015G25KT CAVOK TX07/3112Z TNM05/0106Z"
    },
    {
      "icao": "LZIB",
      "alert": "OK",
      "vis_m": 9999,
      "fzfg": false,
      "metar_trigger": false,
      "taf_trigger": false,
      "metar": "METAR LZIB 311330Z 28014KT 9999 FEW040 M00/M08 Q1017 NOSIG",
      "taf": "TAF LZIB 311115Z 3112/0112 29018KT 9999 FEW035"
    },
    {
      "icao": "LZKZ",
      "alert": "OK",
      "vis_m": 9999,
      "fzfg": false,
      "metar_trigger": false,
      "taf_trigger": false,
      "metar": "METAR LZKZ 311330Z 33010KT CAVOK M01/M12 Q1012 NOSIG",
      "taf": "TAF LZKZ 311115Z 3112/0112 32006KT 9999 BKN025"
    },
    {
      "icao": "LZTT",
      "alert": "OK",
      "vis_m": 9999,
      "fzfg": false,
      "metar_trigger": false,
      "taf_trigger": false,
      "metar": "METAR LZTT 311330Z 27010KT 9999 FEW035 SCT056 M04/M13 Q1009 NOSIG",
      "taf": "TAF LZTT 311115Z 3112/0112 25006KT 9999 -SN SCT020 BKN040"
    },
    {
      "icao": "OEJN",
      "alert": "OK",
      "vis_m": 9999,
      "fzfg": false,
      "metar_trigger": false,
      "taf_trigger": false,
      "metar": "METAR OEJN 311300Z 27007KT CAVOK 29/06 Q1013 NOSIG",
      "taf": "TAF OEJN 311100Z 3112/0118 33010KT CAVOK"
    },
    {
      "icao": "OEMA",
      "alert": "OK",
      "vis_m": 9999,
      "fzfg": false,
      "metar_trigger": false,
      "taf_trigger": false,
      "metar": "METAR OEMA 311300Z 20004KT CAVOK 25/M05 Q1015 NOSIG",
      "taf": "TAF OEMA 311100Z 3112/0118 26008KT 7000 NSC"
    },
    {
      "icao": "OJAI",
      "alert": "OK",
      "vis_m": 5000,
      "fzfg": false,
      "metar_trigger": false,
      "taf_trigger": false,
      "metar": "METAR OJAI 311300Z 25020KT 5000 BLDU SCT030 13/06 Q1012 NOSIG",
      "taf": "TAF OJAI 311038Z 3112/0118 25014KT 5000 HZ SCT030"
    },
    {
      "icao": "OMAA",
      "alert": "OK",
      "vis_m": 9999,
      "fzfg": false,
      "metar_trigger": false,
      "taf_trigger": false,
      "metar": "METAR OMAA 311300Z 31012KT 9999 BKN045 20/09 Q1017 NOSIG",
      "taf": "TAF OMAA 311100Z 3112/0118 31014KT 8000 SCT040"
    },
    {
      "icao": "OMDB",
      "alert": "OK",
      "vis_m": 9999,
      "fzfg": false,
      "metar_trigger": false,
      "taf_trigger": false,
      "metar": "METAR OMDB 311330Z 29010KT 250V320 9999 SCT045 22/09 Q1016 NOSIG",
      "taf": "TAF OMDB 311100Z 3112/0118 30010KT 9999 BKN045"
    },
    {
      "icao": "UAAA",
      "alert": "OK",
      "vis_m": 3800,
      "fzfg": false,
      "metar_trigger": false,
      "taf_trigger": false,
      "metar": "METAR UAAA 311330Z VRB01MPS 3800 BR FU BKN050 OVC100 04/00 Q1015 NOSIG",
      "taf": "TAF UAAA 311103Z 3112/0112 29003G08MPS 5000 BR FU BKN050CB OVC100 TX02/0109Z TNM01/0101Z"
    },
    {
      "icao": "UBBB",
      "alert": "OK",
      "vis_m": 9999,
      "fzfg": false,
      "metar_trigger": false,
      "taf_trigger": false,
      "metar": "METAR UBBB 311330Z 18016KT CAVOK 09/M01 Q1005 NOSIG",
      "taf": "TAF UBBB 311110Z 3112/0112 19022G32KT CAVOK TX10/3112Z TN04/0103Z"
    },
    {
      "icao": "UDSG",
      "alert": "OK",
      "vis_m": 4300,
      "fzfg": true,
      "metar_trigger": false,
      "taf_trigger": false,
      "metar": "METAR UDSG 311330Z 25009KT 4300 -SN BR OVC016 M07/M08 Q1007 TEMPO 0800 SN FZFG OVC006",
      "taf": "TAF UDSG 311058Z 3112/0112 VRB06KT 1500 BR OVC020"
    },
    {
      "icao": "UDYZ",
      "alert": "OK",
      "vis_m": 9999,
      "fzfg": false,
      "metar_trigger": false,
      "taf_trigger": false,
      "metar": "METAR UDYZ 311330Z 08006KT 9999 SCT046 M00/M08 Q1009 NOSIG",
      "taf": "TAF UDYZ 311100Z 3112/0112 VRB06KT 9999 SCT040"
    },
    {
      "icao": "UGKO",
      "alert": "OK",
      "vis_m": 9999,
      "fzfg": false,
      "metar_trigger": false,
      "taf_trigger": false,
      "metar": "METAR UGKO 311330Z VRB02KT CAVOK 03/M00 Q1005 NOSIG",
      "taf": "TAF UGKO 311100Z 3112/0112 08007KT 9999 SCT020 OVC050 TX05/3112Z TNM00/0103Z"
    }
  ]
}