{
  "ts_utc": "2026-04-10T08:00:27Z",
  "threshold_m": 150,
  "source": "stations_override.txt (ICAO list) + aviationweather.gov (METAR/TAF raw)",
  "station_count": 159,
  "stations": [
    {
      "icao": "BIKF",
      "alert": "OK",
      "vis_m": 9999,
      "fzfg": false,
      "metar_trigger": false,
      "taf_trigger": false,
      "metar": "METAR BIKF 100730Z 18005KT 160V220 9999 VCSH BKN022CB 01/M01 Q0997",
      "taf": "TAF BIKF 100743Z 1009/1109 18006KT 9999 SCT030 TX04/1015Z TNM03/1103Z"
    },
    {
      "icao": "BKPR",
      "alert": "OK",
      "vis_m": null,
      "fzfg": false,
      "metar_trigger": false,
      "taf_trigger": false,
      "metar": "",
      "taf": "TAF BKPR 100530Z 1006/1106 01008KT 9999 BKN050"
    },
    {
      "icao": "EBCI",
      "alert": "OK",
      "vis_m": 9999,
      "fzfg": false,
      "metar_trigger": false,
      "taf_trigger": false,
      "metar": "METAR EBCI 100750Z VRB02KT 9999 FEW027 08/01 Q1020 NOSIG",
      "taf": "TAF EBCI 100508Z 1006/1112 31004KT 9999 SCT025"
    },
    {
      "icao": "EDDB",
      "alert": "OK",
      "vis_m": 9999,
      "fzfg": false,
      "metar_trigger": false,
      "taf_trigger": false,
      "metar": "METAR EDDB 100750Z AUTO 13006KT 090V160 CAVOK 03/M04 Q1018 NOSIG",
      "taf": "TAF EDDB 100500Z 1006/1106 13007KT CAVOK"
    },
    {
      "icao": "EDDH",
      "alert": "OK",
      "vis_m": 9999,
      "fzfg": false,
      "metar_trigger": false,
      "taf_trigger": false,
      "metar": "METAR EDDH 100750Z AUTO 16003KT 100V210 9999 FEW013 08/05 Q1016 BECMG 30011KT",
      "taf": "TAF EDDH 100500Z 1006/1112 16008KT 9999 BKN020"
    },
    {
      "icao": "EDDK",
      "alert": "OK",
      "vis_m": 9999,
      "fzfg": false,
      "metar_trigger": false,
      "taf_trigger": false,
      "metar": "METAR EDDK 100750Z AUTO 31011KT 9999 SCT028 09/02 Q1019 NOSIG",
      "taf": "TAF EDDK 100500Z 1006/1112 31012KT 9999 BKN030"
    },
    {
      "icao": "EDDN",
      "alert": "OK",
      "vis_m": 9999,
      "fzfg": false,
      "metar_trigger": false,
      "taf_trigger": false,
      "metar": "METAR EDDN 100750Z AUTO 07003KT 040V100 9999 FEW025 OVC033 07/05 Q1015 RERA BECMG 30008KT",
      "taf": ""
    },
    {
      "icao": "EDDS",
      "alert": "OK",
      "vis_m": 9999,
      "fzfg": false,
      "metar_trigger": false,
      "taf_trigger": false,
      "metar": "METAR EDDS 100750Z AUTO 32015KT 9999 -SHRA BKN011 BKN018 FEW///TCU 11/09 Q1016 RESHRA NOSIG",
      "taf": "TAF EDDS 100500Z 1006/1106 30005KT 9999 BKN045"
    },
    {
      "icao": "EDFH",
      "alert": "OK",
      "vis_m": 9999,
      "fzfg": false,
      "metar_trigger": false,
      "taf_trigger": false,
      "metar": "METAR EDFH 100750Z 30006KT 270V340 9999 FEW045 07/02 Q1018",
      "taf": "TAF EDFH 100500Z 1006/1106 32007KT 9999 SCT025"
    },
    {
      "icao": "EDJA",
      "alert": "OK",
      "vis_m": 9999,
      "fzfg": false,
      "metar_trigger": false,
      "taf_trigger": false,
      "metar": "METAR EDJA 100750Z 21008KT 9999 -SHRA OVC056TCU 11/06 Q1015",
      "taf": "TAF EDJA 100500Z 1006/1015 23010KT CAVOK"
    },
    {
      "icao": "EDLW",
      "alert": "OK",
      "vis_m": 9999,
      "fzfg": false,
      "metar_trigger": false,
      "taf_trigger": false,
      "metar": "METAR EDLW 100750Z 28005KT 230V320 9999 FEW024 08/04 Q1018",
      "taf": "TAF EDLW 100500Z 1006/1106 30007KT 9999 BKN025"
    },
    {
      "icao": "EDNY",
      "alert": "OK",
      "vis_m": 9999,
      "fzfg": false,
      "metar_trigger": false,
      "taf_trigger": false,
      "metar": "METAR EDNY 100750Z VRB02KT 9999 BKN031 10/08 Q1016",
      "taf": "TAF EDNY 100500Z 1006/1015 VRB03KT CAVOK"
    },
    {
      "icao": "EDSB",
      "alert": "OK",
      "vis_m": 9000,
      "fzfg": false,
      "metar_trigger": false,
      "taf_trigger": false,
      "metar": "METAR EDSB 100750Z 02011KT 320V040 9000 VCSH FEW009 OVC016CB 12/09 Q1018",
      "taf": "TAF EDSB 100500Z 1006/1106 VRB03KT 9999 BKN030"
    },
    {
      "icao": "EETN",
      "alert": "OK",
      "vis_m": 9999,
      "fzfg": false,
      "metar_trigger": false,
      "taf_trigger": false,
      "metar": "METAR EETN 100750Z 06008KT 030V090 CAVOK 06/M03 Q1025 NOSIG",
      "taf": "TAF EETN 100530Z 1006/1106 07012KT CAVOK"
    },
    {
      "icao": "EFTU",
      "alert": "OK",
      "vis_m": 9999,
      "fzfg": false,
      "metar_trigger": false,
      "taf_trigger": false,
      "metar": "METAR EFTU 100750Z AUTO 13005KT 070V170 CAVOK 05/M07 Q1026",
      "taf": "TAF EFTU 100525Z 1006/1106 09002KT CAVOK"
    },
    {
      "icao": "EGBB",
      "alert": "OK",
      "vis_m": 9999,
      "fzfg": false,
      "metar_trigger": false,
      "taf_trigger": false,
      "metar": "METAR EGBB 100750Z VRB01KT CAVOK 07/01 Q1020",
      "taf": "TAF EGBB 100457Z 1006/1106 VRB03KT 9999 FEW045"
    },
    {
      "icao": "EGGP",
      "alert": "OK",
      "vis_m": 9999,
      "fzfg": false,
      "metar_trigger": false,
      "taf_trigger": false,
      "metar": "METAR EGGP 100750Z 21003KT 170V270 9999 FEW025 06/01 Q1019",
      "taf": "TAF EGGP 100457Z 1006/1106 24008KT 9999 FEW025"
    },
    {
      "icao": "EGGW",
      "alert": "OK",
      "vis_m": 9999,
      "fzfg": false,
      "metar_trigger": false,
      "taf_trigger": false,
      "metar": "METAR EGGW 100750Z AUTO 28005KT 250V320 9999 NCD 06/01 Q1020",
      "taf": "TAF EGGW 100453Z 1006/1106 31005KT 9999 SCT040"
    },
    {
      "icao": "EGKK",
      "alert": "OK",
      "vis_m": 9999,
      "fzfg": false,
      "metar_trigger": false,
      "taf_trigger": false,
      "metar": "METAR EGKK 100750Z 29003KT 250V330 CAVOK 07/01 Q1021",
      "taf": "TAF EGKK 100457Z 1006/1112 33005KT CAVOK"
    },
    {
      "icao": "EGNM",
      "alert": "OK",
      "vis_m": 9999,
      "fzfg": false,
      "metar_trigger": false,
      "taf_trigger": false,
      "metar": "METAR EGNM 100750Z 25008KT 9999 FEW032 04/01 Q1018",
      "taf": "TAF EGNM 100456Z 1006/1106 26008KT 9999 FEW025"
    },
    {
      "icao": "EGPD",
      "alert": "OK",
      "vis_m": 9999,
      "fzfg": false,
      "metar_trigger": false,
      "taf_trigger": false,
      "metar": "METAR EGPD 100750Z COR AUTO 28010KT 9999 NCD 06/M01 Q1013 NOSIG",
      "taf": "TAF EGPD 100457Z 1006/1106 27009KT 9999 FEW045"
    },
    {
      "icao": "EGPF",
      "alert": "OK",
      "vis_m": 9999,
      "fzfg": false,
      "metar_trigger": false,
      "taf_trigger": false,
      "metar": "METAR EGPF 100750Z AUTO 23010KT 9999 FEW032 06/03 Q1016",
      "taf": "TAF EGPF 100455Z 1006/1106 26004KT 9999 FEW030"
    },
    {
      "icao": "EHBK",
      "alert": "OK",
      "vis_m": 9999,
      "fzfg": false,
      "metar_trigger": false,
      "taf_trigger": false,
      "metar": "METAR EHBK 100755Z AUTO 33003KT 270V020 9999 NSC 08/02 Q1019 NOSIG",
      "taf": "TAF EHBK 100508Z 1006/1112 30005KT 9999 SCT030"
    },
    {
      "icao": "EHEH",
      "alert": "OK",
      "vis_m": 9999,
      "fzfg": false,
      "metar_trigger": false,
      "taf_trigger": false,
      "metar": "METAR EHEH 100725Z AUTO 35003KT 220V020 9999 OVC140 09/02 Q1019 BLU NOSIG RMK TREND REMOTE BY EHWX",
      "taf": "TAF EHEH 100511Z 1006/1112 29006KT CAVOK"
    },
    {
      "icao": "EKBI",
      "alert": "OK",
      "vis_m": 9999,
      "fzfg": false,
      "metar_trigger": false,
      "taf_trigger": false,
      "metar": "METAR EKBI 100750Z AUTO 16009KT 9999 DZRA OVC004/// 04/03 Q1012",
      "taf": "TAF EKBI 100527Z 1006/1106 13015KT 5000 RASN BKN010"
    },
    {
      "icao": "EKCH",
      "alert": "OK",
      "vis_m": 9999,
      "fzfg": false,
      "metar_trigger": false,
      "taf_trigger": false,
      "metar": "METAR EKCH 100750Z AUTO 14017KT 9999 NCD 05/M00 Q1018 NOSIG",
      "taf": "TAF EKCH 100527Z 1006/1106 13018KT CAVOK"
    },
    {
      "icao": "ENAL",
      "alert": "OK",
      "vis_m": 9999,
      "fzfg": false,
      "metar_trigger": false,
      "taf_trigger": false,
      "metar": "METAR ENAL 100750Z 19003KT 140V250 9999 FEW016 BKN050 07/03 Q1009",
      "taf": "TAF ENAL 100500Z 1006/1015 05012KT 9999 -RA BKN040"
    },
    {
      "icao": "ENBR",
      "alert": "OK",
      "vis_m": 9999,
      "fzfg": false,
      "metar_trigger": false,
      "taf_trigger": false,
      "metar": "METAR ENBR 100750Z 14017KT 9999 -SHRA SCT013 SCT025 BKN032 04/M02 Q1010 NOSIG RMK WIND 1200FT 13023KT",
      "taf": "TAF ENBR 100500Z 1006/1106 15012KT 9999 -RA SCT015 BKN030"
    },
    {
      "icao": "ENGM",
      "alert": "OK",
      "vis_m": 9999,
      "fzfg": false,
      "metar_trigger": false,
      "taf_trigger": false,
      "metar": "METAR ENGM 100750Z 14007KT CAVOK 02/M06 Q1019 NOSIG",
      "taf": "TAF ENGM 100500Z 1006/1106 VRB03KT CAVOK"
    },
    {
      "icao": "ENHD",
      "alert": "OK",
      "vis_m": 9000,
      "fzfg": false,
      "metar_trigger": false,
      "taf_trigger": false,
      "metar": "METAR ENHD 100750Z 14015KT 9000 RA BKN022 03/M00 Q1010",
      "taf": "TAF ENHD 100500Z 1006/1015 14018KT 9999 -RA BKN030"
    },
    {
      "icao": "ENTC",
      "alert": "OK",
      "vis_m": 9999,
      "fzfg": false,
      "metar_trigger": false,
      "taf_trigger": false,
      "metar": "METAR ENTC 100750Z 20011KT CAVOK 06/M00 Q1015 NOSIG RMK WIND 2600FT 24006KT",
      "taf": "TAF ENTC 100500Z 1006/1106 20005KT CAVOK"
    },
    {
      "icao": "ENTO",
      "alert": "OK",
      "vis_m": 9999,
      "fzfg": false,
      "metar_trigger": false,
      "taf_trigger": false,
      "metar": "METAR ENTO 100750Z 11010KT 080V160 9999 SCT028 03/M03 Q1017 NOSIG",
      "taf": "TAF ENTO 100500Z 1006/1106 15008KT 9999 SCT020"
    },
    {
      "icao": "ENVA",
      "alert": "OK",
      "vis_m": 9999,
      "fzfg": false,
      "metar_trigger": false,
      "taf_trigger": false,
      "metar": "METAR ENVA 100750Z 15014KT CAVOK 08/M05 Q1015 NOSIG RMK WIND 670FT 16021KT",
      "taf": "TAF ENVA 100500Z 1006/1106 14012KT CAVOK"
    },
    {
      "icao": "ENZV",
      "alert": "OK",
      "vis_m": 9999,
      "fzfg": false,
      "metar_trigger": false,
      "taf_trigger": false,
      "metar": "METAR ENZV 100750Z 13016G27KT 9999 BKN035 04/M01 Q1009 NOSIG",
      "taf": "TAF ENZV 100500Z 1006/1106 14018KT 9000 -RA BKN020"
    },
    {
      "icao": "EPGD",
      "alert": "OK",
      "vis_m": 9999,
      "fzfg": false,
      "metar_trigger": false,
      "taf_trigger": false,
      "metar": "METAR EPGD 100730Z 15007KT 110V180 CAVOK 04/M03 Q1021",
      "taf": "TAF EPGD 100530Z 1006/1106 12005KT CAVOK"
    },
    {
      "icao": "EPKK",
      "alert": "OK",
      "vis_m": 9999,
      "fzfg": false,
      "metar_trigger": false,
      "taf_trigger": false,
      "metar": "METAR EPKK 100730Z 07005KT 030V100 CAVOK 03/M02 Q1020",
      "taf": "TAF EPKK 100530Z 1006/1106 VRB02KT 4000 BR SCT002"
    },
    {
      "icao": "EPKT",
      "alert": "OK",
      "vis_m": 9999,
      "fzfg": false,
      "metar_trigger": false,
      "taf_trigger": false,
      "metar": "METAR EPKT 100730Z 14004KT 110V180 CAVOK 04/M02 Q1019",
      "taf": "TAF EPKT 100530Z 1006/1106 VRB02KT 3000 BR NSC"
    },
    {
      "icao": "EPLB",
      "alert": "OK",
      "vis_m": 9999,
      "fzfg": false,
      "metar_trigger": false,
      "taf_trigger": false,
      "metar": "METAR EPLB 100730Z 05004KT 030V090 9999 BKN017 03/M01 Q1020",
      "taf": "TAF EPLB 100530Z 1006/1106 VRB05KT 9999 SCT035"
    },
    {
      "icao": "EPMO",
      "alert": "OK",
      "vis_m": 9999,
      "fzfg": false,
      "metar_trigger": false,
      "taf_trigger": false,
      "metar": "METAR EPMO 100730Z 10005KT 030V160 9999 FEW030 05/M02 Q1021",
      "taf": "TAF EPMO 100530Z 1006/1106 VRB04KT 9999 SCT035"
    },
    {
      "icao": "EPPO",
      "alert": "OK",
      "vis_m": 9999,
      "fzfg": false,
      "metar_trigger": false,
      "taf_trigger": false,
      "metar": "METAR EPPO 100730Z 13011KT CAVOK 06/M02 Q1020",
      "taf": "TAF EPPO 100530Z 1006/1106 09007KT CAVOK"
    },
    {
      "icao": "EPRA",
      "alert": "OK",
      "vis_m": 9999,
      "fzfg": false,
      "metar_trigger": false,
      "taf_trigger": false,
      "metar": "METAR EPRA 100730Z 07004KT 010V150 CAVOK 04/M02 Q1020",
      "taf": "TAF EPRA 100530Z 1006/1015 VRB02KT CAVOK"
    },
    {
      "icao": "EPRZ",
      "alert": "WARNING",
      "vis_m": 8000,
      "fzfg": true,
      "metar_trigger": false,
      "taf_trigger": true,
      "metar": "METAR EPRZ 100730Z VRB02KT 8000 BKN003 01/01 Q1020",
      "taf": "TAF EPRZ 100530Z 1006/1106 VRB02KT 0100 FZFG OVC001"
    },
    {
      "icao": "EPSC",
      "alert": "OK",
      "vis_m": 9999,
      "fzfg": false,
      "metar_trigger": false,
      "taf_trigger": false,
      "metar": "METAR EPSC 100730Z 13011KT CAVOK 05/M03 Q1019",
      "taf": "TAF EPSC 100530Z 1006/1106 12011KT CAVOK"
    },
    {
      "icao": "EPSY",
      "alert": "OK",
      "vis_m": 9999,
      "fzfg": false,
      "metar_trigger": false,
      "taf_trigger": false,
      "metar": "METAR EPSY 100730Z VRB03KT 9999 FEW033 04/M04 Q1022",
      "taf": "TAF EPSY 100530Z 1006/1015 03006KT CAVOK"
    },
    {
      "icao": "EPWA",
      "alert": "OK",
      "vis_m": 9999,
      "fzfg": false,
      "metar_trigger": false,
      "taf_trigger": false,
      "metar": "METAR EPWA 100730Z 09004KT 360V160 9999 FEW026 05/M03 Q1021 NOSIG",
      "taf": "TAF EPWA 100530Z 1006/1106 VRB02KT 9999 SCT035"
    },
    {
      "icao": "EPWR",
      "alert": "OK",
      "vis_m": 9999,
      "fzfg": false,
      "metar_trigger": false,
      "taf_trigger": false,
      "metar": "METAR EPWR 100730Z 12007KT 090V150 CAVOK 05/M03 Q1019",
      "taf": "TAF EPWR 100530Z 1006/1106 13007KT CAVOK"
    },
    {
      "icao": "ESGG",
      "alert": "OK",
      "vis_m": 9999,
      "fzfg": false,
      "metar_trigger": false,
      "taf_trigger": false,
      "metar": "METAR ESGG 100750Z 14012KT 9999 FEW022 03/M03 Q1018",
      "taf": "TAF ESGG 100530Z 1006/1106 14009KT CAVOK"
    },
    {
      "icao": "ESKN",
      "alert": "OK",
      "vis_m": 9999,
      "fzfg": false,
      "metar_trigger": false,
      "taf_trigger": false,
      "metar": "METAR ESKN 100750Z 15011KT 9999 FEW015 05/M02 Q1023",
      "taf": "TAF ESKN 100530Z 1006/1106 12007KT CAVOK"
    },
    {
      "icao": "ESMS",
      "alert": "OK",
      "vis_m": 9999,
      "fzfg": false,
      "metar_trigger": false,
      "taf_trigger": false,
      "metar": "METAR ESMS 100750Z 15015KT CAVOK 05/M01 Q1018",
      "taf": "TAF ESMS 100527Z 1006/1106 14010KT CAVOK"
    },
    {
      "icao": "ESSA",
      "alert": "OK",
      "vis_m": 9999,
      "fzfg": false,
      "metar_trigger": false,
      "taf_trigger": false,
      "metar": "METAR ESSA 100750Z 15006KT CAVOK 04/M02 Q1024 NOSIG",
      "taf": "TAF ESSA 100530Z 1006/1106 11006KT CAVOK"
    },
    {
      "icao": "EYKA",
      "alert": "OK",
      "vis_m": 9999,
      "fzfg": false,
      "metar_trigger": false,
      "taf_trigger": false,
      "metar": "METAR EYKA 100750Z 34006KT 290V020 CAVOK 04/M02 Q1021",
      "taf": "TAF EYKA 100500Z 1006/1106 VRB04KT 9000 SCT040"
    },
    {
      "icao": "EYPA",
      "alert": "OK",
      "vis_m": 9999,
      "fzfg": false,
      "metar_trigger": false,
      "taf_trigger": false,
      "metar": "METAR EYPA 100750Z VRB03KT CAVOK 06/M05 Q1023",
      "taf": "TAF EYPA 100500Z 1006/1106 VRB04KT 9000 SCT040"
    },
    {
      "icao": "EYVI",
      "alert": "OK",
      "vis_m": 9999,
      "fzfg": false,
      "metar_trigger": false,
      "taf_trigger": false,
      "metar": "METAR EYVI 100750Z 34008KT CAVOK 06/M02 Q1018 NOSIG",
      "taf": "TAF EYVI 100500Z 1006/1106 VRB04KT 9000 NSC"
    },
    {
      "icao": "GCFV",
      "alert": "OK",
      "vis_m": 9999,
      "fzfg": false,
      "metar_trigger": false,
      "taf_trigger": false,
      "metar": "METAR GCFV 100730Z 30012KT 9999 FEW030 SCT045 17/09 Q1016",
      "taf": "TAF GCFV 100200Z 1003/1103 31010KT 9999 SCT030 TX21/1014Z TN15/1006Z"
    },
    {
      "icao": "GCLP",
      "alert": "OK",
      "vis_m": 9999,
      "fzfg": false,
      "metar_trigger": false,
      "taf_trigger": false,
      "metar": "METAR GCLP 100730Z 36003KT 320V020 9999 FEW030 SCT050 16/09 Q1017 NOSIG",
      "taf": "TAF GCLP 100200Z 1003/1103 34014KT 9999 SCT030 TX22/1014Z TN15/1006Z"
    },
    {
      "icao": "GCTS",
      "alert": "OK",
      "vis_m": 9999,
      "fzfg": false,
      "metar_trigger": false,
      "taf_trigger": false,
      "metar": "METAR GCTS 100730Z 02005KT 9999 FEW025 16/11 Q1018 NOSIG",
      "taf": "TAF GCTS 100200Z 1003/1103 VRB08KT 9999 SCT030 TX23/1014Z TN15/1006Z"
    },
    {
      "icao": "GMAD",
      "alert": "OK",
      "vis_m": 6000,
      "fzfg": false,
      "metar_trigger": false,
      "taf_trigger": false,
      "metar": "METAR GMAD 100730Z 16007KT 6000 -RA BKN016 SCT026TCU 13/12 Q1013 NOSIG",
      "taf": "TAF GMAD 100500Z 1006/1112 18006KT 6000 SCT020 SCT080"
    },
    {
      "icao": "GMMN",
      "alert": "OK",
      "vis_m": 9999,
      "fzfg": false,
      "metar_trigger": false,
      "taf_trigger": false,
      "metar": "METAR GMMN 100730Z 34005KT 310V010 9999 FEW020 12/11 Q1013 NOSIG",
      "taf": "TAF GMMN 100500Z 1006/1112 04005KT 9999 SCT016"
    },
    {
      "icao": "GMMX",
      "alert": "OK",
      "vis_m": 6000,
      "fzfg": false,
      "metar_trigger": false,
      "taf_trigger": false,
      "metar": "METAR GMMX 100730Z 29006KT 260V330 6000 SCT005 BKN016 11/10 Q1012 NOSIG",
      "taf": "TAF GMMX 100500Z 1006/1112 26006KT 8000 SCT013 SCT023"
    },
    {
      "icao": "HEGN",
      "alert": "OK",
      "vis_m": 9999,
      "fzfg": false,
      "metar_trigger": false,
      "taf_trigger": false,
      "metar": "METAR HEGN 100700Z 33010KT CAVOK 25/M01 Q1016 NOSIG",
      "taf": "TAF HEGN 100500Z 1006/1112 32015KT CAVOK"
    },
    {
      "icao": "HEMA",
      "alert": "OK",
      "vis_m": null,
      "fzfg": false,
      "metar_trigger": false,
      "taf_trigger": false,
      "metar": "",
      "taf": "TAF HEMA 100500Z 1006/1112 33015KT CAVOK"
    },
    {
      "icao": "HESH",
      "alert": "OK",
      "vis_m": 9999,
      "fzfg": false,
      "metar_trigger": false,
      "taf_trigger": false,
      "metar": "METAR HESH 100700Z 34010KT CAVOK 25/09 Q1015 NOSIG",
      "taf": "TAF HESH 100500Z 1006/1112 19010KT CAVOK"
    },
    {
      "icao": "HESX",
      "alert": "OK",
      "vis_m": 9999,
      "fzfg": false,
      "metar_trigger": false,
      "taf_trigger": false,
      "metar": "METAR HESX 100700Z 27006KT CAVOK 18/08 Q1017 NOSIG",
      "taf": "TAF HESX 100500Z 1006/1112 28010KT CAVOK"
    },
    {
      "icao": "LATI",
      "alert": "OK",
      "vis_m": 9999,
      "fzfg": false,
      "metar_trigger": false,
      "taf_trigger": false,
      "metar": "METAR LATI 100750Z 00000KT CAVOK 16/03 Q1017 NOSIG",
      "taf": "TAF LATI 100500Z 1006/1106 VRB05KT CAVOK TX21/1012Z TN05/1104Z"
    },
    {
      "icao": "LBPD",
      "alert": "OK",
      "vis_m": 9999,
      "fzfg": false,
      "metar_trigger": false,
      "taf_trigger": false,
      "metar": "METAR LBPD 100730Z AUTO 30013KT 9999 NCD 11/M01 Q1017 NOSIG",
      "taf": "TAF LBPD 100500Z 1006/1106 29012KT 9999 SCT060"
    },
    {
      "icao": "LBSF",
      "alert": "OK",
      "vis_m": 9999,
      "fzfg": false,
      "metar_trigger": false,
      "taf_trigger": false,
      "metar": "METAR LBSF 100730Z 31009KT 290V350 9999 SCT045 07/M04 Q1017 NOSIG",
      "taf": "TAF LBSF 100500Z 1006/1106 VRB03KT 9999 BKN060"
    },
    {
      "icao": "LBWN",
      "alert": "OK",
      "vis_m": 9999,
      "fzfg": false,
      "metar_trigger": false,
      "taf_trigger": false,
      "metar": "METAR LBWN 100730Z AUTO 35006KT 300V030 9999 FEW021/// 08/04 Q1017 NOSIG",
      "taf": "TAF LBWN 100500Z 1006/1106 02010KT 9999 SCT025 BKN045"
    },
    {
      "icao": "LCLK",
      "alert": "OK",
      "vis_m": 9999,
      "fzfg": false,
      "metar_trigger": false,
      "taf_trigger": false,
      "metar": "METAR LCLK 100730Z VRB02KT 9999 FEW025 FEW030TCU SCT035 21/14 Q1012 NOSIG",
      "taf": "TAF LCLK 100530Z 1006/1106 24009KT 9999 FEW020"
    },
    {
      "icao": "LCPH",
      "alert": "OK",
      "vis_m": 9999,
      "fzfg": false,
      "metar_trigger": false,
      "taf_trigger": false,
      "metar": "METAR LCPH 100730Z 32013KT 9999 FEW025 SCT030 18/12 Q1013 NOSIG",
      "taf": "TAF LCPH 100530Z 1006/1106 26006KT 9999 FEW020"
    },
    {
      "icao": "LEAL",
      "alert": "OK",
      "vis_m": 9999,
      "fzfg": false,
      "metar_trigger": false,
      "taf_trigger": false,
      "metar": "METAR LEAL 100730Z VRB01KT CAVOK 19/08 Q1017 NOSIG",
      "taf": "TAF LEAL 100500Z 1006/1106 VRB04KT CAVOK TX26/1013Z TN14/1006Z"
    },
    {
      "icao": "LEBB",
      "alert": "OK",
      "vis_m": 9999,
      "fzfg": false,
      "metar_trigger": false,
      "taf_trigger": false,
      "metar": "METAR LEBB 100730Z 15004KT 080V200 9999 BKN015 14/11 Q1020 NOSIG",
      "taf": "TAF LEBB 100500Z 1006/1106 12008KT 9999 FEW015 TX31/1014Z TN11/1006Z"
    },
    {
      "icao": "LEBL",
      "alert": "OK",
      "vis_m": 9000,
      "fzfg": false,
      "metar_trigger": false,
      "taf_trigger": false,
      "metar": "METAR LEBL 100730Z 27008KT 250V310 9000 NSC 17/14 Q1018 NOSIG",
      "taf": ""
    },
    {
      "icao": "LECH",
      "alert": "OK",
      "vis_m": 8000,
      "fzfg": false,
      "metar_trigger": false,
      "taf_trigger": false,
      "metar": "METAR LECH 100730Z AUTO 18003KT 150V210 8000 NCD 16/04 Q1019",
      "taf": "TAF LECH 100500Z 1006/1106 VRB04KT CAVOK TX26/1014Z TN09/1006Z"
    },
    {
      "icao": "LEMD",
      "alert": "OK",
      "vis_m": 9999,
      "fzfg": false,
      "metar_trigger": false,
      "taf_trigger": false,
      "metar": "METAR LEMD 100730Z 11001KT CAVOK 13/06 Q1019 NOSIG",
      "taf": "TAF LEMD 100500Z 1006/1112 VRB04KT CAVOK TX29/1015Z TN10/1006Z"
    },
    {
      "icao": "LEMG",
      "alert": "OK",
      "vis_m": 9999,
      "fzfg": false,
      "metar_trigger": false,
      "taf_trigger": false,
      "metar": "METAR LEMG 100730Z 30006KT 9999 FEW008 14/12 Q1013 NOSIG",
      "taf": "TAF LEMG 100500Z 1006/1106 29005KT 9999 FEW020 TX24/1014Z TN14/1007Z"
    },
    {
      "icao": "LEVC",
      "alert": "OK",
      "vis_m": 9999,
      "fzfg": false,
      "metar_trigger": false,
      "taf_trigger": false,
      "metar": "METAR LEVC 100730Z VRB02KT CAVOK 16/06 Q1018 NOSIG",
      "taf": "TAF LEVC 100500Z 1006/1106 VRB04KT CAVOK TX26/1013Z TN13/1006Z"
    },
    {
      "icao": "LEXJ",
      "alert": "OK",
      "vis_m": 9000,
      "fzfg": false,
      "metar_trigger": false,
      "taf_trigger": false,
      "metar": "METAR LEXJ 100730Z 11003KT 060V150 9000 OVC015 14/11 Q1020",
      "taf": "TAF LEXJ 100200Z 1003/1103 28007KT 9000 SCT010 TX24/1014Z TN12/1007Z"
    },
    {
      "icao": "LEZG",
      "alert": "OK",
      "vis_m": 9999,
      "fzfg": false,
      "metar_trigger": false,
      "taf_trigger": false,
      "metar": "METAR LEZG 100730Z 29011KT CAVOK 17/07 Q1019 NOSIG",
      "taf": "TAF LEZG 100500Z 1006/1106 29010KT CAVOK TX30/1015Z TN12/1006Z"
    },
    {
      "icao": "LEZL",
      "alert": "OK",
      "vis_m": 9000,
      "fzfg": false,
      "metar_trigger": false,
      "taf_trigger": false,
      "metar": "METAR LEZL 100730Z VRB02KT 9000 NSC 15/13 Q1014 NOSIG",
      "taf": "TAF LEZL 100200Z 1003/1103 21006KT CAVOK TX26/1015Z TN11/1007Z"
    },
    {
      "icao": "LFBD",
      "alert": "OK",
      "vis_m": 9999,
      "fzfg": false,
      "metar_trigger": false,
      "taf_trigger": false,
      "metar": "METAR LFBD 100730Z AUTO 05004KT 9999 OVC008 13/11 Q1020 BECMG NSC",
      "taf": "TAF LFBD 100500Z 1006/1112 27008KT 3000 BR BKN003 TX27/1015Z TN13/1006Z"
    },
    {
      "icao": "LFLL",
      "alert": "OK",
      "vis_m": 9999,
      "fzfg": false,
      "metar_trigger": false,
      "taf_trigger": false,
      "metar": "METAR LFLL 100730Z 35006KT CAVOK 14/09 Q1018 NOSIG",
      "taf": "TAF LFLL 100500Z 1006/1112 35006KT CAVOK"
    },
    {
      "icao": "LFLS",
      "alert": "OK",
      "vis_m": 9999,
      "fzfg": false,
      "metar_trigger": false,
      "taf_trigger": false,
      "metar": "METAR LFLS 100730Z AUTO VRB03KT CAVOK 15/08 Q1018 NOSIG",
      "taf": "TAF LFLS 100200Z 1003/1103 09005KT CAVOK"
    },
    {
      "icao": "LFMN",
      "alert": "OK",
      "vis_m": 9999,
      "fzfg": false,
      "metar_trigger": false,
      "taf_trigger": false,
      "metar": "METAR LFMN 100730Z VRB02KT 9999 FEW014 16/11 Q1015 NOSIG",
      "taf": "TAF LFMN 100200Z 1003/1109 01005KT 9999 OVC015"
    },
    {
      "icao": "LFOB",
      "alert": "OK",
      "vis_m": 9999,
      "fzfg": false,
      "metar_trigger": false,
      "taf_trigger": false,
      "metar": "METAR LFOB 100730Z AUTO VRB03KT CAVOK 09/03 Q1021 NOSIG",
      "taf": "TAF LFOB 100500Z 1006/1106 VRB04KT CAVOK"
    },
    {
      "icao": "LFPO",
      "alert": "OK",
      "vis_m": 9999,
      "fzfg": false,
      "metar_trigger": false,
      "taf_trigger": false,
      "metar": "METAR LFPO 100730Z 05008KT CAVOK 10/04 Q1021 NOSIG",
      "taf": "TAF LFPO 100500Z 1006/1112 34008KT CAVOK"
    },
    {
      "icao": "LFSB",
      "alert": "OK",
      "vis_m": 9999,
      "fzfg": false,
      "metar_trigger": false,
      "taf_trigger": false,
      "metar": "METAR LFSB 100730Z AUTO 09004KT 060V130 CAVOK 13/09 Q1017 TEMPO 27010KT FEW045TCU",
      "taf": "TAF LFSB 100500Z 1006/1106 35005KT 9999 SCT050 BKN080"
    },
    {
      "icao": "LGAV",
      "alert": "OK",
      "vis_m": 9999,
      "fzfg": false,
      "metar_trigger": false,
      "taf_trigger": false,
      "metar": "METAR LGAV 100750Z VRB01KT 9999 FEW025 SCT040 BKN070 16/07 Q1016 NOSIG",
      "taf": "TAF LGAV 100500Z 1006/1106 VRB03KT 9999 SCT025 BKN070"
    },
    {
      "icao": "LGTS",
      "alert": "OK",
      "vis_m": 9999,
      "fzfg": false,
      "metar_trigger": false,
      "taf_trigger": false,
      "metar": "METAR LGTS 100750Z 32010KT 9999 FEW025 14/M01 Q1017 NOSIG",
      "taf": "TAF LGTS 100500Z 1006/1106 34015KT 9999 FEW025"
    },
    {
      "icao": "LHBP",
      "alert": "OK",
      "vis_m": 9999,
      "fzfg": false,
      "metar_trigger": false,
      "taf_trigger": false,
      "metar": "METAR LHBP 100730Z 09007KT 060V120 CAVOK 07/M03 Q1019 NOSIG",
      "taf": "TAF LHBP 100515Z 1006/1106 36004KT CAVOK"
    },
    {
      "icao": "LHDC",
      "alert": "OK",
      "vis_m": 9999,
      "fzfg": false,
      "metar_trigger": false,
      "taf_trigger": false,
      "metar": "METAR LHDC 100715Z AUTO 03007KT 350V080 CAVOK 06/M03 Q1019 NOSIG",
      "taf": "TAF LHDC 100515Z 1006/1015 05007KT CAVOK"
    },
    {
      "icao": "LIBD",
      "alert": "OK",
      "vis_m": 9999,
      "fzfg": false,
      "metar_trigger": false,
      "taf_trigger": false,
      "metar": "METAR LIBD 100750Z 11003KT 070V170 CAVOK 18/02 Q1016",
      "taf": "TAF LIBD 100500Z 1006/1106 22006KT CAVOK"
    },
    {
      "icao": "LIBG",
      "alert": "OK",
      "vis_m": 9999,
      "fzfg": false,
      "metar_trigger": false,
      "taf_trigger": false,
      "metar": "METAR LIBG 100650Z 11003KT 080V140 9999 FEW040 15/05 Q1015",
      "taf": "TAF LIBG 100650Z 1007/1015 VRB05KT CAVOK"
    },
    {
      "icao": "LIBP",
      "alert": "OK",
      "vis_m": 9999,
      "fzfg": false,
      "metar_trigger": false,
      "taf_trigger": false,
      "metar": "METAR LIBP 100750Z AUTO VRB01KT 9999 FEW067/// 16/10 Q1016",
      "taf": "TAF LIBP 100500Z 1006/1106 VRB05KT CAVOK"
    },
    {
      "icao": "LIBR",
      "alert": "OK",
      "vis_m": 9999,
      "fzfg": false,
      "metar_trigger": false,
      "taf_trigger": false,
      "metar": "METAR LIBR 100750Z VRB02KT CAVOK 17/03 Q1016",
      "taf": "TAF LIBR 100500Z 1006/1106 VRB05KT CAVOK"
    },
    {
      "icao": "LICA",
      "alert": "OK",
      "vis_m": 9999,
      "fzfg": false,
      "metar_trigger": false,
      "taf_trigger": false,
      "metar": "METAR LICA 100750Z AUTO 26006KT 9999 NCD 18/11 Q1017",
      "taf": "TAF LICA 100500Z 1006/1106 VRB05KT CAVOK"
    },
    {
      "icao": "LICC",
      "alert": "OK",
      "vis_m": 9999,
      "fzfg": false,
      "metar_trigger": false,
      "taf_trigger": false,
      "metar": "METAR LICC 100750Z 22004KT CAVOK 18/14 Q1017",
      "taf": "TAF LICC 100500Z 1006/1106 VRB05KT CAVOK"
    },
    {
      "icao": "LICJ",
      "alert": "OK",
      "vis_m": 9999,
      "fzfg": false,
      "metar_trigger": false,
      "taf_trigger": false,
      "metar": "METAR LICJ 100750Z 21010KT CAVOK 21/04 Q1016",
      "taf": "TAF LICJ 100500Z 1006/1106 21010KT CAVOK"
    },
    {
      "icao": "LIMC",
      "alert": "OK",
      "vis_m": 9999,
      "fzfg": false,
      "metar_trigger": false,
      "taf_trigger": false,
      "metar": "METAR LIMC 100750Z VRB02KT CAVOK 14/07 Q1016 NOSIG",
      "taf": "TAF LIMC 100500Z 1006/1112 VRB05KT CAVOK"
    },
    {
      "icao": "LIME",
      "alert": "OK",
      "vis_m": 9999,
      "fzfg": false,
      "metar_trigger": false,
      "taf_trigger": false,
      "metar": "METAR LIME 100750Z 18003KT 110V230 CAVOK 13/08 Q1016 NOSIG",
      "taf": "TAF LIME 100500Z 1006/1106 VRB05KT CAVOK"
    },
    {
      "icao": "LIMF",
      "alert": "OK",
      "vis_m": 9999,
      "fzfg": false,
      "metar_trigger": false,
      "taf_trigger": false,
      "metar": "METAR LIMF 100750Z VRB02KT CAVOK 13/08 Q1016",
      "taf": "TAF LIMF 100500Z 1006/1106 VRB05KT 9999 FEW030"
    },
    {
      "icao": "LIMJ",
      "alert": "OK",
      "vis_m": 9999,
      "fzfg": false,
      "metar_trigger": false,
      "taf_trigger": false,
      "metar": "METAR LIMJ 100750Z 16002KT 9999 BKN015 16/12 Q1015",
      "taf": "TAF LIMJ 100500Z 1006/1106 VRB05KT 9999 FEW020"
    },
    {
      "icao": "LIPE",
      "alert": "OK",
      "vis_m": 9999,
      "fzfg": false,
      "metar_trigger": false,
      "taf_trigger": false,
      "metar": "METAR LIPE 100750Z VRB01KT CAVOK 14/02 Q1015",
      "taf": "TAF LIPE 100500Z 1006/1106 VRB05KT CAVOK"
    },
    {
      "icao": "LIPH",
      "alert": "OK",
      "vis_m": 9999,
      "fzfg": false,
      "metar_trigger": false,
      "taf_trigger": false,
      "metar": "METAR LIPH 100750Z 09003KT 030V120 CAVOK 14/08 Q1015",
      "taf": "TAF LIPH 100500Z 1006/1106 VRB05KT CAVOK"
    },
    {
      "icao": "LIPQ",
      "alert": "OK",
      "vis_m": 9999,
      "fzfg": false,
      "metar_trigger": false,
      "taf_trigger": false,
      "metar": "METAR LIPQ 100750Z AUTO VRB02KT 9999 NCD 14/04 Q1015",
      "taf": "TAF LIPQ 100500Z 1006/1106 VRB05KT CAVOK"
    },
    {
      "icao": "LIPR",
      "alert": "OK",
      "vis_m": 9999,
      "fzfg": false,
      "metar_trigger": false,
      "taf_trigger": false,
      "metar": "METAR LIPR 100750Z 07003KT 040V120 CAVOK 14/11 Q1015",
      "taf": "TAF LIPR 100500Z 1006/1106 VRB05KT CAVOK"
    },
    {
      "icao": "LIPX",
      "alert": "OK",
      "vis_m": 9999,
      "fzfg": false,
      "metar_trigger": false,
      "taf_trigger": false,
      "metar": "METAR LIPX 100750Z 14004KT 080V200 CAVOK 16/04 Q1015",
      "taf": "TAF LIPX 100500Z 1006/1106 VRB05KT CAVOK"
    },
    {
      "icao": "LIPY",
      "alert": "OK",
      "vis_m": 9999,
      "fzfg": false,
      "metar_trigger": false,
      "taf_trigger": false,
      "metar": "METAR LIPY 100750Z AUTO 22004KT 170V260 9999 NCD 17/11 Q1015",
      "taf": ""
    },
    {
      "icao": "LIPZ",
      "alert": "OK",
      "vis_m": 9999,
      "fzfg": false,
      "metar_trigger": false,
      "taf_trigger": false,
      "metar": "METAR LIPZ 100750Z 03003KT 310V070 CAVOK 13/07 Q1016 NOSIG",
      "taf": "TAF LIPZ 100500Z 1006/1112 VRB05KT CAVOK"
    },
    {
      "icao": "LIRF",
      "alert": "OK",
      "vis_m": 9999,
      "fzfg": false,
      "metar_trigger": false,
      "taf_trigger": false,
      "metar": "METAR LIRF 100750Z 15006KT 110V200 9999 FEW010 17/14 Q1016 NOSIG",
      "taf": "TAF LIRF 100500Z 1006/1112 VRB05KT CAVOK"
    },
    {
      "icao": "LIRN",
      "alert": "OK",
      "vis_m": 9999,
      "fzfg": false,
      "metar_trigger": false,
      "taf_trigger": false,
      "metar": "METAR LIRN 100750Z VRB01KT CAVOK 17/11 Q1017 NOSIG",
      "taf": "TAF LIRN 100500Z 1006/1106 VRB05KT CAVOK"
    },
    {
      "icao": "LIRP",
      "alert": "OK",
      "vis_m": 9999,
      "fzfg": false,
      "metar_trigger": false,
      "taf_trigger": false,
      "metar": "METAR LIRP 100745Z 15003KT CAVOK 13/12 Q1016 NOSIG",
      "taf": "TAF LIRP 100500Z 1006/1106 12003KT 9999 FEW015"
    },
    {
      "icao": "LIRZ",
      "alert": "OK",
      "vis_m": 9999,
      "fzfg": false,
      "metar_trigger": false,
      "taf_trigger": false,
      "metar": "METAR LIRZ 100750Z AUTO VRB01KT 9999 NCD 14/08 Q1016",
      "taf": "TAF LIRZ 100500Z 1006/1106 VRB05KT CAVOK"
    },
    {
      "icao": "LJLJ",
      "alert": "OK",
      "vis_m": 9999,
      "fzfg": false,
      "metar_trigger": false,
      "taf_trigger": false,
      "metar": "METAR LJLJ 100730Z 34001KT 9999 FEW070 SCT200 08/02 Q1016 NOSIG",
      "taf": "TAF LJLJ 100500Z 1006/1106 VRB02KT 9999 FEW090"
    },
    {
      "icao": "LKMT",
      "alert": "OK",
      "vis_m": 7000,
      "fzfg": false,
      "metar_trigger": false,
      "taf_trigger": false,
      "metar": "METAR LKMT 100730Z 04004KT 350V090 7000 NSC 02/M02 Q1019 NOSIG",
      "taf": "TAF LKMT 100500Z 1006/1106 VRB02KT CAVOK"
    },
    {
      "icao": "LKPR",
      "alert": "OK",
      "vis_m": 9999,
      "fzfg": false,
      "metar_trigger": false,
      "taf_trigger": false,
      "metar": "METAR LKPR 100730Z 14005KT 9999 FEW035 03/M05 Q1017 TEMPO 6000 -RASN",
      "taf": "TAF LKPR 100500Z 1006/1112 13006KT CAVOK"
    },
    {
      "icao": "LLBG",
      "alert": "OK",
      "vis_m": 9999,
      "fzfg": false,
      "metar_trigger": false,
      "taf_trigger": false,
      "metar": "METAR LLBG 100750Z 23011KT CAVOK 21/10 Q1016 NOSIG",
      "taf": "TAF LLBG 100502Z 1006/1106 VRB04KT 9999 SCT030 TX22/1011Z TN12/1103Z"
    },
    {
      "icao": "LMML",
      "alert": "OK",
      "vis_m": 9999,
      "fzfg": false,
      "metar_trigger": false,
      "taf_trigger": false,
      "metar": "METAR LMML 100745Z 29009KT CAVOK 22/09 Q1018 NOSIG",
      "taf": "TAF LMML 100500Z 1006/1106 26008KT CAVOK ."
    },
    {
      "icao": "LOWW",
      "alert": "OK",
      "vis_m": 9999,
      "fzfg": false,
      "metar_trigger": false,
      "taf_trigger": false,
      "metar": "METAR LOWW 100750Z VRB02KT 9999 FEW050 03/M02 Q1019 NOSIG",
      "taf": "TAF LOWW 100515Z 1006/1112 VRB04KT 9999 SCT030 TX12/1112Z TN01/1006Z"
    },
    {
      "icao": "LPFR",
      "alert": "OK",
      "vis_m": 9999,
      "fzfg": false,
      "metar_trigger": false,
      "taf_trigger": false,
      "metar": "METAR LPFR 100730Z 29005KT 9999 FEW018 15/13 Q1013",
      "taf": "TAF LPFR 100500Z 1006/1106 VRB05KT 9999 FEW030"
    },
    {
      "icao": "LPMA",
      "alert": "OK",
      "vis_m": 9999,
      "fzfg": false,
      "metar_trigger": false,
      "taf_trigger": false,
      "metar": "METAR LPMA 100730Z 35014G28KT 300V020 9999 -SHRA BKN015 16/11 Q1017",
      "taf": "TAF LPMA 100500Z 1006/1106 36015KT 9999 SCT015"
    },
    {
      "icao": "LPPR",
      "alert": "OK",
      "vis_m": 9999,
      "fzfg": false,
      "metar_trigger": false,
      "taf_trigger": false,
      "metar": "METAR LPPR 100730Z 05006KT CAVOK 19/10 Q1014",
      "taf": "TAF LPPR 100500Z 1006/1106 08005KT CAVOK"
    },
    {
      "icao": "LPPS",
      "alert": "OK",
      "vis_m": 9999,
      "fzfg": false,
      "metar_trigger": false,
      "taf_trigger": false,
      "metar": "METAR LPPS 100730Z 35023KT 9999 SCT012 BKN030 15/13 Q1017",
      "taf": "TAF LPPS 100500Z 1006/1112 36015KT 9999 SCT012 SCT030"
    },
    {
      "icao": "LPPT",
      "alert": "OK",
      "vis_m": 9999,
      "fzfg": false,
      "metar_trigger": false,
      "taf_trigger": false,
      "metar": "METAR LPPT 100730Z 03005KT CAVOK 15/14 Q1013",
      "taf": "TAF LPPT 100500Z 1006/1112 04005KT 9999 FEW030"
    },
    {
      "icao": "LQBK",
      "alert": "OK",
      "vis_m": 9999,
      "fzfg": false,
      "metar_trigger": false,
      "taf_trigger": false,
      "metar": "METAR LQBK 100730Z 14005KT 120V190 CAVOK 12/M01 Q1017 NOSIG",
      "taf": "TAF LQBK 100500Z 1006/1106 17005KT CAVOK TX16/1013Z TN00/1006Z"
    },
    {
      "icao": "LQSA",
      "alert": "OK",
      "vis_m": 9999,
      "fzfg": false,
      "metar_trigger": false,
      "taf_trigger": false,
      "metar": "METAR LQSA 100730Z VRB02KT CAVOK 06/M03 Q1018 NOSIG",
      "taf": "TAF LQSA 100500Z 1006/1106 32006KT 9999 SCT060 TX15/1014Z TNM01/1006Z"
    },
    {
      "icao": "LQTZ",
      "alert": "OK",
      "vis_m": 9999,
      "fzfg": false,
      "metar_trigger": false,
      "taf_trigger": false,
      "metar": "METAR LQTZ 100730Z VRB02KT CAVOK 07/02 Q1018",
      "taf": "TAF LQTZ 100500Z 1006/1106 VRB02KT CAVOK TX15/1013Z TNM02/1006Z"
    },
    {
      "icao": "LRBC",
      "alert": "OK",
      "vis_m": 9999,
      "fzfg": false,
      "metar_trigger": false,
      "taf_trigger": false,
      "metar": "METAR LRBC 100730Z 32008KT 9999 FEW016 BKN019 OVC049 03/01 Q1019",
      "taf": "TAF LRBC 100500Z 1006/1015 34010KT 9999 SCT020 BKN035"
    },
    {
      "icao": "LRBS",
      "alert": "OK",
      "vis_m": 9999,
      "fzfg": false,
      "metar_trigger": false,
      "taf_trigger": false,
      "metar": "METAR LRBS 100730Z VRB03KT 9999 FEW024 SCT043 07/01 Q1019 NOSIG",
      "taf": "TAF LRBS 100500Z 1006/1106 VRB04KT 9999 SCT045"
    },
    {
      "icao": "LRBV",
      "alert": "OK",
      "vis_m": 9999,
      "fzfg": false,
      "metar_trigger": false,
      "taf_trigger": false,
      "metar": "METAR LRBV 100730Z 08003KT 030V120 9999 FEW020 BKN021 BKN035 01/M01 Q1017",
      "taf": "TAF LRBV 100500Z 1006/1015 VRB04KT 9999 BKN020"
    },
    {
      "icao": "LRCL",
      "alert": "OK",
      "vis_m": 9999,
      "fzfg": false,
      "metar_trigger": false,
      "taf_trigger": false,
      "metar": "METAR LRCL 100730Z 08003KT 020V150 CAVOK 04/M04 Q1018",
      "taf": "TAF LRCL 100500Z 1006/1015 VRB04KT 9999 SCT045"
    },
    {
      "icao": "LRCV",
      "alert": "OK",
      "vis_m": 9999,
      "fzfg": false,
      "metar_trigger": false,
      "taf_trigger": false,
      "metar": "METAR LRCV 100730Z 11006KT 080V140 9999 BKN014 07/04 Q1018",
      "taf": "TAF LRCV 100500Z 1006/1015 VRB04KT CAVOK"
    },
    {
      "icao": "LRIA",
      "alert": "OK",
      "vis_m": 9999,
      "fzfg": false,
      "metar_trigger": false,
      "taf_trigger": false,
      "metar": "METAR LRIA 100730Z 33010KT 9999 SCT012 04/01 Q1018",
      "taf": "TAF LRIA 100500Z 1006/1015 32010KT 9999 BKN045"
    },
    {
      "icao": "LROP",
      "alert": "OK",
      "vis_m": 9999,
      "fzfg": false,
      "metar_trigger": false,
      "taf_trigger": false,
      "metar": "METAR LROP 100730Z VRB02KT 9999 FEW042 07/M01 Q1019 NOSIG",
      "taf": "TAF LROP 100500Z 1006/1106 VRB04KT 9999 SCT045"
    },
    {
      "icao": "LRSB",
      "alert": "OK",
      "vis_m": 9999,
      "fzfg": false,
      "metar_trigger": false,
      "taf_trigger": false,
      "metar": "METAR LRSB 100730Z VRB01KT 9999 FEW070 06/00 Q1017",
      "taf": "TAF LRSB 100500Z 1006/1106 VRB04KT 9999 SCT045"
    },
    {
      "icao": "LRSM",
      "alert": "OK",
      "vis_m": 9999,
      "fzfg": false,
      "metar_trigger": false,
      "taf_trigger": false,
      "metar": "METAR LRSM 100730Z 09005KT 050V120 CAVOK 07/M06 Q1019",
      "taf": "TAF LRSM 100500Z 1006/1015 VRB04KT CAVOK"
    },
    {
      "icao": "LRSV",
      "alert": "OK",
      "vis_m": 9999,
      "fzfg": false,
      "metar_trigger": false,
      "taf_trigger": false,
      "metar": "METAR LRSV 100730Z 33012KT 9999 FEW018 SCT035 02/M02 Q1017",
      "taf": "TAF LRSV 100500Z 1006/1015 32010KT 9999 SCT045"
    },
    {
      "icao": "LRTM",
      "alert": "OK",
      "vis_m": 9999,
      "fzfg": false,
      "metar_trigger": false,
      "taf_trigger": false,
      "metar": "METAR LRTM 100730Z VRB02KT 9999 FEW021 05/M00 Q1018",
      "taf": "TAF LRTM 100500Z 1006/1015 VRB04KT CAVOK"
    },
    {
      "icao": "LRTR",
      "alert": "OK",
      "vis_m": 9999,
      "fzfg": false,
      "metar_trigger": false,
      "taf_trigger": false,
      "metar": "METAR LRTR 100730Z 24004KT 150V310 CAVOK 08/02 Q1017",
      "taf": "TAF LRTR 100500Z 1006/1106 11008KT CAVOK"
    },
    {
      "icao": "LTAC",
      "alert": "OK",
      "vis_m": 9999,
      "fzfg": false,
      "metar_trigger": false,
      "taf_trigger": false,
      "metar": "METAR LTAC 100750Z 11004KT 030V180 9999 FEW019 SCT035 BKN080 04/M00 Q1013 NOSIG RMK RWY21C 10006KT 070V130 RWY03L VRB03KT RWY21R 10006KT 060V120 RWY03R 08004KT 040V120 RWY21L 11007KT",
      "taf": "TAF LTAC 100440Z 1006/1106 26012KT 9999 SCT035 BKN100"
    },
    {
      "icao": "LTFM",
      "alert": "OK",
      "vis_m": 9999,
      "fzfg": false,
      "metar_trigger": false,
      "taf_trigger": false,
      "metar": "METAR LTFM 100750Z COR 34009KT 310V010 9999 VCSH FEW015 SCT028 BKN080 09/05 Q1017 NOSIG RMK RWY17L 34011KT RWY34L 33009KT 300V360 RWY16R 34010KT RWY36 35010KT RWY18 35011KT",
      "taf": "TAF LTFM 100440Z 1006/1112 01012KT 9999 SCT020 BKN080"
    },
    {
      "icao": "LUKK",
      "alert": "OK",
      "vis_m": 9999,
      "fzfg": false,
      "metar_trigger": false,
      "taf_trigger": false,
      "metar": "METAR LUKK 100730Z 36010KT 9999 FEW026 BKN036 06/01 Q1017 NOSIG",
      "taf": "TAF LUKK 100516Z 1006/1106 34010KT 9999 BKN035"
    },
    {
      "icao": "LWOH",
      "alert": "OK",
      "vis_m": 9999,
      "fzfg": false,
      "metar_trigger": false,
      "taf_trigger": false,
      "metar": "METAR LWOH 100750Z VRB02KT CAVOK 10/00 Q1016",
      "taf": "TAF LWOH 100515Z 1006/1106 34006KT CAVOK"
    },
    {
      "icao": "LWSK",
      "alert": "OK",
      "vis_m": 9999,
      "fzfg": false,
      "metar_trigger": false,
      "taf_trigger": false,
      "metar": "METAR LWSK 100750Z 29003KT 220V010 CAVOK 11/M02 Q1019 NOSIG",
      "taf": "TAF LWSK 100515Z 1006/1106 VRB02KT 9999 SCT070"
    },
    {
      "icao": "LYBE",
      "alert": "OK",
      "vis_m": 9999,
      "fzfg": false,
      "metar_trigger": false,
      "taf_trigger": false,
      "metar": "METAR LYBE 100730Z 24007KT CAVOK 09/01 Q1018 NOSIG",
      "taf": "TAF LYBE 100500Z 1006/1106 26006KT 9999 SCT045 TX13/1013Z TN04/1006Z"
    },
    {
      "icao": "LYNI",
      "alert": "OK",
      "vis_m": 9999,
      "fzfg": false,
      "metar_trigger": false,
      "taf_trigger": false,
      "metar": "METAR LYNI 100730Z VRB02KT 9999 FEW047 07/01 Q1019 NOSIG",
      "taf": "TAF LYNI 100500Z 1006/1106 31006KT 9999 SCT060 TX14/1012Z TN03/1006Z"
    },
    {
      "icao": "LYPG",
      "alert": "OK",
      "vis_m": 9999,
      "fzfg": false,
      "metar_trigger": false,
      "taf_trigger": false,
      "metar": "METAR LYPG 100730Z VRB05KT CAVOK 15/M05 Q1017 NOSIG",
      "taf": "TAF LYPG 100500Z 1006/1106 36008KT CAVOK TX22/1013Z TN11/1104Z"
    },
    {
      "icao": "LZIB",
      "alert": "OK",
      "vis_m": 9999,
      "fzfg": false,
      "metar_trigger": false,
      "taf_trigger": false,
      "metar": "METAR LZIB 100730Z 08005KT 050V110 CAVOK 04/M01 Q1019 NOSIG",
      "taf": "TAF LZIB 100515Z 1006/1106 04007KT CAVOK"
    },
    {
      "icao": "LZKZ",
      "alert": "OK",
      "vis_m": 9999,
      "fzfg": false,
      "metar_trigger": false,
      "taf_trigger": false,
      "metar": "METAR LZKZ 100730Z 01011KT 9999 FEW045 05/M03 Q1019 NOSIG",
      "taf": "TAF LZKZ 100515Z 1006/1106 04005KT CAVOK"
    },
    {
      "icao": "LZTT",
      "alert": "OK",
      "vis_m": 9999,
      "fzfg": false,
      "metar_trigger": false,
      "taf_trigger": false,
      "metar": "METAR LZTT 100730Z VRB02KT 9999 FEW033 01/M05 Q1017 NOSIG",
      "taf": "TAF LZTT 100515Z 1006/1106 30005KT 9999 SCT040"
    },
    {
      "icao": "OEJN",
      "alert": "OK",
      "vis_m": 9999,
      "fzfg": false,
      "metar_trigger": false,
      "taf_trigger": false,
      "metar": "METAR OEJN 100700Z 34009KT CAVOK 28/11 Q1013 NOSIG",
      "taf": "TAF OEJN 100500Z 1006/1112 30015KT 7000 NSC"
    },
    {
      "icao": "OEMA",
      "alert": "OK",
      "vis_m": 9000,
      "fzfg": false,
      "metar_trigger": false,
      "taf_trigger": false,
      "metar": "METAR OEMA 100700Z 11010KT 9000 NSC 25/M02 Q1017 NOSIG",
      "taf": "TAF OEMA 100500Z 1006/1112 10010KT CAVOK"
    },
    {
      "icao": "OJAI",
      "alert": "OK",
      "vis_m": 4500,
      "fzfg": false,
      "metar_trigger": false,
      "taf_trigger": false,
      "metar": "METAR OJAI 100700Z 20005KT 4500 HZ NSC 15/08 Q1017 NOSIG",
      "taf": "TAF OJAI 100500Z 1006/1112 25012KT 5000 HZ NSC"
    },
    {
      "icao": "OMAA",
      "alert": "OK",
      "vis_m": null,
      "fzfg": false,
      "metar_trigger": false,
      "taf_trigger": false,
      "metar": "",
      "taf": ""
    },
    {
      "icao": "OMDB",
      "alert": "OK",
      "vis_m": null,
      "fzfg": false,
      "metar_trigger": false,
      "taf_trigger": false,
      "metar": "",
      "taf": ""
    },
    {
      "icao": "UAAA",
      "alert": "OK",
      "vis_m": 9999,
      "fzfg": false,
      "metar_trigger": false,
      "taf_trigger": false,
      "metar": "METAR UAAA 100730Z 03002MPS 9999 BKN050CB OVC100 18/07 Q1020 NOSIG",
      "taf": "TAF UAAA 100501Z 1006/1106 34002G07MPS 9999 BKN050CB OVC100 TX18/1008Z TN07/1101Z"
    },
    {
      "icao": "UBBB",
      "alert": "OK",
      "vis_m": 9999,
      "fzfg": false,
      "metar_trigger": false,
      "taf_trigger": false,
      "metar": "METAR UBBB 100730Z 16012KT 9999 SCT020 13/07 Q1015 NOSIG",
      "taf": "TAF UBBB 100501Z 1006/1106 16014KT 9999 SCT025 TX15/1010Z TN07/1101Z"
    },
    {
      "icao": "UDSG",
      "alert": "OK",
      "vis_m": 9999,
      "fzfg": false,
      "metar_trigger": false,
      "taf_trigger": false,
      "metar": "METAR UDSG 100730Z 17014KT 9999 BKN033CB 07/02 Q1012 NOSIG",
      "taf": "TAF UDSG 100500Z 1006/1106 20010KT 9999 BKN030"
    },
    {
      "icao": "UDYZ",
      "alert": "OK",
      "vis_m": 9999,
      "fzfg": false,
      "metar_trigger": false,
      "taf_trigger": false,
      "metar": "METAR UDYZ 100730Z 04003KT 9999 -SHRA BKN043CB 10/08 Q1013 NOSIG",
      "taf": "TAF UDYZ 100500Z 1006/1106 28006KT 6000 SCT030"
    },
    {
      "icao": "UGKO",
      "alert": "OK",
      "vis_m": 9999,
      "fzfg": false,
      "metar_trigger": false,
      "taf_trigger": false,
      "metar": "METAR UGKO 100730Z 09009KT 060V120 9999 SCT019CB BKN031 09/04 Q1013 NOSIG",
      "taf": "TAF UGKO 100500Z 1006/1106 26007KT 9999 SCT020 OVC050 TX12/1011Z TN05/1103Z"
    }
  ]
}