{
  "ts_utc": "2026-06-07T22:51:10Z",
  "threshold_m": 150,
  "source": "stations_override.txt (ICAO list) + aviationweather.gov (METAR/TAF raw)",
  "station_count": 159,
  "stations": [
    {
      "icao": "BIKF",
      "alert": "OK",
      "vis_m": 9999,
      "fzfg": false,
      "metar_trigger": false,
      "taf_trigger": false,
      "metar": "METAR BIKF 072230Z 35009KT CAVOK 09/06 Q0995",
      "taf": "TAF BIKF 072243Z 0800/0900 34015KT 9999 SCT040 TX11/0815Z TN08/0805Z"
    },
    {
      "icao": "BKPR",
      "alert": "OK",
      "vis_m": 9999,
      "fzfg": false,
      "metar_trigger": false,
      "taf_trigger": false,
      "metar": "METAR BKPR 072230Z VRB02KT 9999 BKN065 20/15 Q1022 NOSIG",
      "taf": "TAF BKPR 071730Z 0718/0818 01008KT 9999 FEW080"
    },
    {
      "icao": "EBCI",
      "alert": "OK",
      "vis_m": 9999,
      "fzfg": false,
      "metar_trigger": false,
      "taf_trigger": false,
      "metar": "METAR EBCI 072220Z VRB01KT CAVOK 13/10 Q1022 NOSIG",
      "taf": "TAF EBCI 071700Z 0718/0824 19004KT 9999 SCT045"
    },
    {
      "icao": "EDDB",
      "alert": "OK",
      "vis_m": 9999,
      "fzfg": false,
      "metar_trigger": false,
      "taf_trigger": false,
      "metar": "METAR EDDB 072220Z AUTO 29005KT 9999 FEW046 16/11 Q1022 NOSIG",
      "taf": "TAF EDDB 071700Z 0718/0818 28011KT 9999 SCT045"
    },
    {
      "icao": "EDDH",
      "alert": "OK",
      "vis_m": 9999,
      "fzfg": false,
      "metar_trigger": false,
      "taf_trigger": false,
      "metar": "METAR EDDH 072220Z AUTO 32002KT 9999 FEW036 13/13 Q1021 NOSIG",
      "taf": "TAF EDDH 071700Z 0718/0824 28008KT 9999 SCT030"
    },
    {
      "icao": "EDDK",
      "alert": "OK",
      "vis_m": 9999,
      "fzfg": false,
      "metar_trigger": false,
      "taf_trigger": false,
      "metar": "METAR EDDK 072220Z AUTO VRB02KT CAVOK 11/10 Q1022 NOSIG",
      "taf": "TAF EDDK 071700Z 0718/0824 31005KT 9999 SCT040"
    },
    {
      "icao": "EDDN",
      "alert": "OK",
      "vis_m": 9999,
      "fzfg": false,
      "metar_trigger": false,
      "taf_trigger": false,
      "metar": "METAR EDDN 072220Z AUTO VRB02KT CAVOK 12/09 Q1023",
      "taf": "TAF EDDN 071700Z 0718/0818 30008KT CAVOK"
    },
    {
      "icao": "EDDS",
      "alert": "OK",
      "vis_m": 9999,
      "fzfg": false,
      "metar_trigger": false,
      "taf_trigger": false,
      "metar": "METAR EDDS 072220Z AUTO 33002KT CAVOK 14/08 Q1022",
      "taf": "TAF EDDS 071700Z 0718/0818 36007KT CAVOK"
    },
    {
      "icao": "EDFH",
      "alert": "OK",
      "vis_m": 9999,
      "fzfg": false,
      "metar_trigger": false,
      "taf_trigger": false,
      "metar": "METAR EDFH 072220Z 18003KT CAVOK 12/07 Q1022",
      "taf": "TAF EDFH 071700Z 0718/0818 25004KT CAVOK"
    },
    {
      "icao": "EDJA",
      "alert": "OK",
      "vis_m": 9999,
      "fzfg": false,
      "metar_trigger": false,
      "taf_trigger": false,
      "metar": "METAR EDJA 072220Z AUTO VRB02KT 9999 // NCD 14/09 Q1022",
      "taf": "TAF EDJA 071700Z 0718/0803 28009KT CAVOK"
    },
    {
      "icao": "EDLW",
      "alert": "OK",
      "vis_m": 9999,
      "fzfg": false,
      "metar_trigger": false,
      "taf_trigger": false,
      "metar": "METAR EDLW 072220Z AUTO 15005KT 9999 // NCD 12/10 Q1022",
      "taf": "TAF EDLW 071700Z 0718/0818 23005KT CAVOK"
    },
    {
      "icao": "EDNY",
      "alert": "OK",
      "vis_m": 9999,
      "fzfg": false,
      "metar_trigger": false,
      "taf_trigger": false,
      "metar": "METAR EDNY 072220Z AUTO 04003KT 350V070 9999 // BKN075/// 15/11 Q1022",
      "taf": "TAF EDNY 071700Z 0718/0803 21005KT CAVOK"
    },
    {
      "icao": "EDSB",
      "alert": "OK",
      "vis_m": 9999,
      "fzfg": false,
      "metar_trigger": false,
      "taf_trigger": false,
      "metar": "METAR EDSB 072220Z AUTO 02004KT 9999 NCD 15/10 Q1022",
      "taf": "TAF EDSB 071700Z 0718/0818 VRB02KT CAVOK"
    },
    {
      "icao": "EETN",
      "alert": "OK",
      "vis_m": 9999,
      "fzfg": false,
      "metar_trigger": false,
      "taf_trigger": false,
      "metar": "METAR EETN 072220Z 14001KT CAVOK 11/09 Q1019",
      "taf": "TAF EETN 071730Z 0718/0818 32010KT CAVOK"
    },
    {
      "icao": "EFTU",
      "alert": "OK",
      "vis_m": 9999,
      "fzfg": false,
      "metar_trigger": false,
      "taf_trigger": false,
      "metar": "METAR EFTU 072220Z AUTO 16003KT CAVOK 12/09 Q1018",
      "taf": "TAF EFTU 072031Z 0721/0821 18005KT CAVOK"
    },
    {
      "icao": "EGBB",
      "alert": "OK",
      "vis_m": 8000,
      "fzfg": false,
      "metar_trigger": false,
      "taf_trigger": false,
      "metar": "METAR EGBB 072220Z 19008KT 160V230 8000 -RA BKN010 13/12 Q1016",
      "taf": ""
    },
    {
      "icao": "EGGP",
      "alert": "OK",
      "vis_m": 9999,
      "fzfg": false,
      "metar_trigger": false,
      "taf_trigger": false,
      "metar": "METAR EGGP 072220Z 17007KT 130V200 9999 -RA FEW025 12/10 Q1013",
      "taf": "TAF EGGP 071655Z 0718/0818 22006KT 9999 FEW040"
    },
    {
      "icao": "EGGW",
      "alert": "OK",
      "vis_m": 9999,
      "fzfg": false,
      "metar_trigger": false,
      "taf_trigger": false,
      "metar": "METAR EGGW 072220Z AUTO 21009KT 9999 NCD 14/10 Q1017",
      "taf": "TAF EGGW 071710Z 0718/0818 23010KT 9999 SCT030"
    },
    {
      "icao": "EGKK",
      "alert": "OK",
      "vis_m": 9999,
      "fzfg": false,
      "metar_trigger": false,
      "taf_trigger": false,
      "metar": "METAR EGKK 072220Z 21006KT 170V230 9999 FEW021 BKN031 15/11 Q1019",
      "taf": "TAF EGKK 071656Z 0718/0824 22013KT 9999 SCT030"
    },
    {
      "icao": "EGNM",
      "alert": "OK",
      "vis_m": 9999,
      "fzfg": false,
      "metar_trigger": false,
      "taf_trigger": false,
      "metar": "METAR EGNM 072220Z 20012KT 9999 -SHRA FEW030 BKN041 11/10 Q1013",
      "taf": "TAF EGNM 071653Z 0718/0818 21014KT 9999 SCT030"
    },
    {
      "icao": "EGPD",
      "alert": "OK",
      "vis_m": 9999,
      "fzfg": false,
      "metar_trigger": false,
      "taf_trigger": false,
      "metar": "METAR EGPD 072220Z AUTO 17013KT 9999 SCT035 13/11 Q1007 TEMPO RA",
      "taf": ""
    },
    {
      "icao": "EGPF",
      "alert": "OK",
      "vis_m": 9999,
      "fzfg": false,
      "metar_trigger": false,
      "taf_trigger": false,
      "metar": "METAR EGPF 072220Z AUTO 19010KT 9999 -RA SCT015/// BKN039/// BKN048/// //////CB 12/11 Q1007",
      "taf": ""
    },
    {
      "icao": "EHBK",
      "alert": "OK",
      "vis_m": 9999,
      "fzfg": false,
      "metar_trigger": false,
      "taf_trigger": false,
      "metar": "METAR EHBK 072225Z AUTO 16002KT 9999 NSC 13/10 Q1021",
      "taf": "TAF EHBK 071704Z 0718/0824 25005KT 9999 SCT030"
    },
    {
      "icao": "EHEH",
      "alert": "OK",
      "vis_m": 9999,
      "fzfg": false,
      "metar_trigger": false,
      "taf_trigger": false,
      "metar": "METAR EHEH 072225Z AUTO VRB02KT 9999 OVC330 12/11 Q1021 BLU",
      "taf": "TAF EHEH 071741Z 0718/0824 22008KT 9999 BKN030"
    },
    {
      "icao": "EKBI",
      "alert": "OK",
      "vis_m": 9999,
      "fzfg": false,
      "metar_trigger": false,
      "taf_trigger": false,
      "metar": "METAR EKBI 072220Z AUTO 24006KT 9999 BKN014/// 12/11 Q1019",
      "taf": "TAF EKBI 072027Z 0721/0821 25010KT 9999 BKN015"
    },
    {
      "icao": "EKCH",
      "alert": "OK",
      "vis_m": 9999,
      "fzfg": false,
      "metar_trigger": false,
      "taf_trigger": false,
      "metar": "METAR EKCH 072220Z AUTO 27008KT 9999 OVC049/// 15/12 Q1018 NOSIG",
      "taf": "TAF EKCH 072027Z 0721/0821 23010KT 9999 BKN030"
    },
    {
      "icao": "ENAL",
      "alert": "OK",
      "vis_m": 9999,
      "fzfg": false,
      "metar_trigger": false,
      "taf_trigger": false,
      "metar": "METAR ENAL 072220Z AUTO 06006KT 9999 NCD 12/11 Q1011",
      "taf": "TAF ENAL 072000Z 0721/0806 06007KT 9999 FEW040"
    },
    {
      "icao": "ENBR",
      "alert": "OK",
      "vis_m": 9999,
      "fzfg": false,
      "metar_trigger": false,
      "taf_trigger": false,
      "metar": "METAR ENBR 072220Z 16012KT 9999 BKN006 12/11 Q1013 RMK WIND 1200FT 19015KT",
      "taf": "TAF ENBR 071700Z 0718/0818 18010KT 9999 FEW040 BKN050"
    },
    {
      "icao": "ENGM",
      "alert": "OK",
      "vis_m": 9999,
      "fzfg": false,
      "metar_trigger": false,
      "taf_trigger": false,
      "metar": "METAR ENGM 072220Z 19008KT 9999 SCT016 14/11 Q1014",
      "taf": "TAF ENGM 071700Z 0718/0818 20008KT CAVOK"
    },
    {
      "icao": "ENHD",
      "alert": "OK",
      "vis_m": 9999,
      "fzfg": false,
      "metar_trigger": false,
      "taf_trigger": false,
      "metar": "METAR ENHD 072220Z AUTO 17008KT 140V200 9999 SCT008/// BKN042/// 13/11 Q1014",
      "taf": ""
    },
    {
      "icao": "ENTC",
      "alert": "OK",
      "vis_m": 9999,
      "fzfg": false,
      "metar_trigger": false,
      "taf_trigger": false,
      "metar": "METAR ENTC 072220Z VRB02KT CAVOK 14/11 Q1011 RMK WIND 2600FT 17033KT",
      "taf": "TAF ENTC 071700Z 0718/0818 02009KT 9999 SCT060"
    },
    {
      "icao": "ENTO",
      "alert": "OK",
      "vis_m": 9000,
      "fzfg": false,
      "metar_trigger": false,
      "taf_trigger": false,
      "metar": "METAR ENTO 072220Z 21007KT 9000 SCT004 13/13 Q1014",
      "taf": "TAF ENTO 071700Z 0718/0818 19008KT 9999 FEW014"
    },
    {
      "icao": "ENVA",
      "alert": "OK",
      "vis_m": 9999,
      "fzfg": false,
      "metar_trigger": false,
      "taf_trigger": false,
      "metar": "METAR ENVA 072220Z 14003KT CAVOK 12/09 Q1013 RMK WIND 670FT 27003KT",
      "taf": "TAF ENVA 071700Z 0718/0818 27012KT CAVOK"
    },
    {
      "icao": "ENZV",
      "alert": "OK",
      "vis_m": 9999,
      "fzfg": false,
      "metar_trigger": false,
      "taf_trigger": false,
      "metar": "METAR ENZV 072220Z 17006KT 9999 SCT030 BKN040 13/11 Q1014",
      "taf": "TAF ENZV 071700Z 0718/0818 20010KT 9999 FEW030 BKN050"
    },
    {
      "icao": "EPGD",
      "alert": "OK",
      "vis_m": 9999,
      "fzfg": false,
      "metar_trigger": false,
      "taf_trigger": false,
      "metar": "METAR EPGD 072230Z 28004KT 9999 FEW045 14/14 Q1019",
      "taf": "TAF EPGD 071730Z 0718/0818 23003KT CAVOK"
    },
    {
      "icao": "EPKK",
      "alert": "OK",
      "vis_m": 9999,
      "fzfg": false,
      "metar_trigger": false,
      "taf_trigger": false,
      "metar": "METAR EPKK 072230Z 24003KT CAVOK 16/14 Q1021",
      "taf": "TAF EPKK 072030Z 0721/0821 20004KT CAVOK"
    },
    {
      "icao": "EPKT",
      "alert": "OK",
      "vis_m": 9999,
      "fzfg": false,
      "metar_trigger": false,
      "taf_trigger": false,
      "metar": "METAR EPKT 072230Z VRB02KT CAVOK 11/10 Q1021",
      "taf": "TAF EPKT 071730Z 0718/0818 32005KT CAVOK"
    },
    {
      "icao": "EPLB",
      "alert": "OK",
      "vis_m": 9999,
      "fzfg": false,
      "metar_trigger": false,
      "taf_trigger": false,
      "metar": "METAR EPLB 072230Z 29005KT CAVOK 17/13 Q1018",
      "taf": "TAF EPLB 071730Z 0718/0818 VRB05KT CAVOK"
    },
    {
      "icao": "EPMO",
      "alert": "OK",
      "vis_m": 9999,
      "fzfg": false,
      "metar_trigger": false,
      "taf_trigger": false,
      "metar": "METAR EPMO 072230Z 26005KT 9999 MIFG NSC 13/13 Q1019",
      "taf": "TAF EPMO 071730Z 0718/0818 VRB05KT CAVOK"
    },
    {
      "icao": "EPPO",
      "alert": "OK",
      "vis_m": 9999,
      "fzfg": false,
      "metar_trigger": false,
      "taf_trigger": false,
      "metar": "METAR EPPO 072230Z 30005KT CAVOK 14/12 Q1021",
      "taf": ""
    },
    {
      "icao": "EPRA",
      "alert": "OK",
      "vis_m": 9999,
      "fzfg": false,
      "metar_trigger": false,
      "taf_trigger": false,
      "metar": "METAR EPRA 072230Z 24003KT 210V270 CAVOK 14/12 Q1019",
      "taf": "TAF EPRA 072030Z 0721/0806 28006KT CAVOK"
    },
    {
      "icao": "EPRZ",
      "alert": "OK",
      "vis_m": 9999,
      "fzfg": false,
      "metar_trigger": false,
      "taf_trigger": false,
      "metar": "METAR EPRZ 072230Z 26009KT CAVOK 17/12 Q1019",
      "taf": "TAF EPRZ 071730Z 0718/0818 29007KT CAVOK"
    },
    {
      "icao": "EPSC",
      "alert": "OK",
      "vis_m": 9999,
      "fzfg": false,
      "metar_trigger": false,
      "taf_trigger": false,
      "metar": "METAR EPSC 072230Z 26008KT 9999 -SHRA SCT051TCU 15/13 Q1020",
      "taf": "TAF EPSC 071730Z 0718/0818 26010KT 9999 FEW030"
    },
    {
      "icao": "EPSY",
      "alert": "OK",
      "vis_m": 9999,
      "fzfg": false,
      "metar_trigger": false,
      "taf_trigger": false,
      "metar": "METAR EPSY 072230Z VRB02KT CAVOK 15/12 Q1019",
      "taf": "TAF EPSY 072030Z 0721/0806 VRB02KT CAVOK"
    },
    {
      "icao": "EPWA",
      "alert": "OK",
      "vis_m": 9999,
      "fzfg": false,
      "metar_trigger": false,
      "taf_trigger": false,
      "metar": "METAR EPWA 072230Z 29003KT CAVOK 15/13 Q1019 NOSIG",
      "taf": "TAF EPWA 072030Z 0721/0821 22004KT CAVOK"
    },
    {
      "icao": "EPWR",
      "alert": "OK",
      "vis_m": 9999,
      "fzfg": false,
      "metar_trigger": false,
      "taf_trigger": false,
      "metar": "METAR EPWR 072230Z 28007KT CAVOK 15/10 Q1022",
      "taf": "TAF EPWR 072030Z 0721/0821 27004KT CAVOK"
    },
    {
      "icao": "ESGG",
      "alert": "OK",
      "vis_m": 9999,
      "fzfg": false,
      "metar_trigger": false,
      "taf_trigger": false,
      "metar": "METAR ESGG 072220Z 18007KT 9999 BKN008 14/13 Q1016",
      "taf": "TAF ESGG 072030Z 0721/0821 20006KT 9999 SCT020"
    },
    {
      "icao": "ESKN",
      "alert": "OK",
      "vis_m": 1900,
      "fzfg": false,
      "metar_trigger": false,
      "taf_trigger": false,
      "metar": "METAR ESKN 072220Z 13004KT 1900 BR OVC002 14/14 Q1016",
      "taf": ""
    },
    {
      "icao": "ESMS",
      "alert": "OK",
      "vis_m": 9999,
      "fzfg": false,
      "metar_trigger": false,
      "taf_trigger": false,
      "metar": "METAR ESMS 072220Z 28006KT 9999 BKN026 BKN038 15/12 Q1018",
      "taf": "TAF ESMS 072027Z 0721/0821 23005KT 9999 FEW030"
    },
    {
      "icao": "ESSA",
      "alert": "OK",
      "vis_m": 9999,
      "fzfg": false,
      "metar_trigger": false,
      "taf_trigger": false,
      "metar": "METAR ESSA 072220Z 18006KT CAVOK 14/10 Q1016 NOSIG",
      "taf": "TAF ESSA 072030Z 0721/0821 17008KT CAVOK"
    },
    {
      "icao": "EYKA",
      "alert": "OK",
      "vis_m": 9999,
      "fzfg": false,
      "metar_trigger": false,
      "taf_trigger": false,
      "metar": "METAR EYKA 072220Z VRB03KT CAVOK 15/12 Q1018",
      "taf": ""
    },
    {
      "icao": "EYPA",
      "alert": "OK",
      "vis_m": 9999,
      "fzfg": false,
      "metar_trigger": false,
      "taf_trigger": false,
      "metar": "METAR EYPA 072220Z AUTO VRB02KT 9999 FEW090/// 15/14 Q1018",
      "taf": "TAF EYPA 071703Z 0718/0818 VRB03KT 9000 SCT040"
    },
    {
      "icao": "EYVI",
      "alert": "OK",
      "vis_m": 9999,
      "fzfg": false,
      "metar_trigger": false,
      "taf_trigger": false,
      "metar": "METAR EYVI 072220Z 31001KT CAVOK 14/13 Q1018 NOSIG",
      "taf": "TAF EYVI 071705Z 0718/0818 VRB03KT 9000 SCT045"
    },
    {
      "icao": "GCFV",
      "alert": "OK",
      "vis_m": 9999,
      "fzfg": false,
      "metar_trigger": false,
      "taf_trigger": false,
      "metar": "METAR GCFV 072230Z AUTO 36013KT 9999 FEW026 20/16 Q1021",
      "taf": "TAF GCFV 072000Z 0721/0821 35018KT 9999 SCT020 TX26/0814Z TN19/0806Z"
    },
    {
      "icao": "GCLP",
      "alert": "OK",
      "vis_m": 9999,
      "fzfg": false,
      "metar_trigger": false,
      "taf_trigger": false,
      "metar": "METAR GCLP 072230Z 01025G37KT 9999 BKN020 21/15 Q1021 NOSIG",
      "taf": "TAF GCLP 072000Z 0721/0821 01024KT 9999 BKN025 TX25/0814Z TN20/0806Z"
    },
    {
      "icao": "GCTS",
      "alert": "OK",
      "vis_m": 9999,
      "fzfg": false,
      "metar_trigger": false,
      "taf_trigger": false,
      "metar": "METAR GCTS 072230Z 07014KT 9999 FEW025 21/15 Q1021 NOSIG",
      "taf": "TAF GCTS 072000Z 0721/0821 06010KT 9999 FEW025 TX26/0814Z TN19/0806Z"
    },
    {
      "icao": "GMAD",
      "alert": "OK",
      "vis_m": 9999,
      "fzfg": false,
      "metar_trigger": false,
      "taf_trigger": false,
      "metar": "METAR GMAD 072230Z 13004KT CAVOK 20/16 Q1016 NOSIG",
      "taf": "TAF GMAD 071700Z 0718/0824 20008KT CAVOK"
    },
    {
      "icao": "GMMN",
      "alert": "OK",
      "vis_m": 9999,
      "fzfg": false,
      "metar_trigger": false,
      "taf_trigger": false,
      "metar": "METAR GMMN 072230Z 33008KT 9999 BKN010 20/17 Q1020 NOSIG",
      "taf": "TAF GMMN 071700Z 0718/0824 32013KT CAVOK"
    },
    {
      "icao": "GMMX",
      "alert": "OK",
      "vis_m": 9999,
      "fzfg": false,
      "metar_trigger": false,
      "taf_trigger": false,
      "metar": "METAR GMMX 072230Z VRB02KT CAVOK 26/15 Q1019 NOSIG",
      "taf": "TAF GMMX 071700Z 0718/0824 06006KT 8000 NSC"
    },
    {
      "icao": "HEGN",
      "alert": "OK",
      "vis_m": null,
      "fzfg": false,
      "metar_trigger": false,
      "taf_trigger": false,
      "metar": "",
      "taf": ""
    },
    {
      "icao": "HEMA",
      "alert": "OK",
      "vis_m": null,
      "fzfg": false,
      "metar_trigger": false,
      "taf_trigger": false,
      "metar": "",
      "taf": ""
    },
    {
      "icao": "HESH",
      "alert": "OK",
      "vis_m": null,
      "fzfg": false,
      "metar_trigger": false,
      "taf_trigger": false,
      "metar": "",
      "taf": ""
    },
    {
      "icao": "HESX",
      "alert": "OK",
      "vis_m": null,
      "fzfg": false,
      "metar_trigger": false,
      "taf_trigger": false,
      "metar": "",
      "taf": ""
    },
    {
      "icao": "LATI",
      "alert": "OK",
      "vis_m": 9999,
      "fzfg": false,
      "metar_trigger": false,
      "taf_trigger": false,
      "metar": "METAR LATI 072250Z VRB02KT CAVOK 20/14 Q1018 NOSIG",
      "taf": "TAF LATI 071700Z 0718/0818 34008KT CAVOK TX32/0811Z TN17/0804Z"
    },
    {
      "icao": "LBPD",
      "alert": "OK",
      "vis_m": 9999,
      "fzfg": false,
      "metar_trigger": false,
      "taf_trigger": false,
      "metar": "METAR LBPD 072230Z AUTO 21003KT 140V250 9999 BKN057/// 21/16 Q1019",
      "taf": "TAF LBPD 071700Z 0718/0818 32010KT 9999 SCT050"
    },
    {
      "icao": "LBSF",
      "alert": "OK",
      "vis_m": 9999,
      "fzfg": false,
      "metar_trigger": false,
      "taf_trigger": false,
      "metar": "METAR LBSF 072230Z AUTO 30006KT 9999 FEW052/// 18/14 Q1021 NOSIG",
      "taf": "TAF LBSF 071700Z 0718/0818 VRB04KT 9999 SCT050"
    },
    {
      "icao": "LBWN",
      "alert": "OK",
      "vis_m": 9999,
      "fzfg": false,
      "metar_trigger": false,
      "taf_trigger": false,
      "metar": "METAR LBWN 072230Z AUTO 26002KT 9999 NCD 17/17 Q1017 NOSIG",
      "taf": ""
    },
    {
      "icao": "LCLK",
      "alert": "OK",
      "vis_m": 800,
      "fzfg": false,
      "metar_trigger": false,
      "taf_trigger": false,
      "metar": "METAR LCLK 072200Z 00000KT 0800 R22/1600 R04/1500 BCFG SCT003 22/21 Q1011 NOSIG",
      "taf": ""
    },
    {
      "icao": "LCPH",
      "alert": "OK",
      "vis_m": 5000,
      "fzfg": false,
      "metar_trigger": false,
      "taf_trigger": false,
      "metar": "METAR LCPH 072200Z 32007KT 5000 BR BKN002 22/21 Q1011 NOSIG",
      "taf": ""
    },
    {
      "icao": "LEAL",
      "alert": "OK",
      "vis_m": 9999,
      "fzfg": false,
      "metar_trigger": false,
      "taf_trigger": false,
      "metar": "METAR LEAL 072230Z 01003KT 340V050 CAVOK 23/19 Q1020 NOSIG",
      "taf": "TAF LEAL 071700Z 0718/0818 08013KT 9999 FEW030 TX29/0812Z TN19/0806Z"
    },
    {
      "icao": "LEBB",
      "alert": "OK",
      "vis_m": 9999,
      "fzfg": false,
      "metar_trigger": false,
      "taf_trigger": false,
      "metar": "METAR LEBB 072230Z AUTO 32003KT 9999 BKN016 OVC022 19/16 Q1022",
      "taf": "TAF LEBB 071700Z 0718/0818 30009KT 9999 SCT020 TX21/0814Z TN17/0806Z"
    },
    {
      "icao": "LEBL",
      "alert": "OK",
      "vis_m": 9999,
      "fzfg": false,
      "metar_trigger": false,
      "taf_trigger": false,
      "metar": "METAR LEBL 072230Z 18003KT CAVOK 21/14 Q1021 NOSIG",
      "taf": "TAF LEBL 071700Z 0718/0818 18008KT 9999 FEW020 TX26/0812Z TN18/0806Z"
    },
    {
      "icao": "LECH",
      "alert": "OK",
      "vis_m": 9999,
      "fzfg": false,
      "metar_trigger": false,
      "taf_trigger": false,
      "metar": "METAR LECH 072230Z AUTO VRB02KT CAVOK 18/15 Q1022",
      "taf": "TAF LECH 071700Z 0718/0818 12009KT 9999 FEW020 TX30/0813Z TN16/0806Z"
    },
    {
      "icao": "LEMD",
      "alert": "OK",
      "vis_m": 9999,
      "fzfg": false,
      "metar_trigger": false,
      "taf_trigger": false,
      "metar": "METAR LEMD 072230Z 16010KT 9999 FEW080 26/13 Q1020 NOSIG",
      "taf": ""
    },
    {
      "icao": "LEMG",
      "alert": "OK",
      "vis_m": 9999,
      "fzfg": false,
      "metar_trigger": false,
      "taf_trigger": false,
      "metar": "METAR LEMG 072230Z VRB01KT 9999 FEW030 21/18 Q1021 NOSIG",
      "taf": "TAF LEMG 071700Z 0718/0818 13010KT 9999 FEW030 TX28/0814Z TN20/0806Z"
    },
    {
      "icao": "LEVC",
      "alert": "OK",
      "vis_m": 9999,
      "fzfg": false,
      "metar_trigger": false,
      "taf_trigger": false,
      "metar": "METAR LEVC 072230Z 17002KT CAVOK 22/16 Q1021 NOSIG",
      "taf": "TAF LEVC 071700Z 0718/0818 10010KT 9999 FEW020 TX29/0812Z TN17/0806Z"
    },
    {
      "icao": "LEXJ",
      "alert": "OK",
      "vis_m": 9999,
      "fzfg": false,
      "metar_trigger": false,
      "taf_trigger": false,
      "metar": "METAR LEXJ 072230Z AUTO 25003KT 9999 OVC027 17/15 Q1022",
      "taf": "TAF LEXJ 072000Z 0721/0821 26005KT 9999 BKN020 TX20/0813Z TN16/0805Z"
    },
    {
      "icao": "LEZG",
      "alert": "OK",
      "vis_m": 9999,
      "fzfg": false,
      "metar_trigger": false,
      "taf_trigger": false,
      "metar": "METAR LEZG 072230Z 09011KT CAVOK 23/15 Q1019 NOSIG",
      "taf": "TAF LEZG 071700Z 0718/0818 12010KT 9999 FEW015 TX34/0815Z TN17/0806Z"
    },
    {
      "icao": "LEZL",
      "alert": "OK",
      "vis_m": 9999,
      "fzfg": false,
      "metar_trigger": false,
      "taf_trigger": false,
      "metar": "METAR LEZL 072230Z 21007KT CAVOK 25/18 Q1019 NOSIG",
      "taf": "TAF LEZL 072000Z 0721/0821 23010KT CAVOK TX36/0815Z TN19/0806Z"
    },
    {
      "icao": "LFBD",
      "alert": "OK",
      "vis_m": 9999,
      "fzfg": false,
      "metar_trigger": false,
      "taf_trigger": false,
      "metar": "METAR LFBD 072230Z AUTO 32005KT 300V360 CAVOK 19/13 Q1019 NOSIG",
      "taf": "TAF LFBD 071700Z 0718/0824 12005KT CAVOK TX26/0718Z TN16/0805Z"
    },
    {
      "icao": "LFLL",
      "alert": "OK",
      "vis_m": 9999,
      "fzfg": false,
      "metar_trigger": false,
      "taf_trigger": false,
      "metar": "METAR LFLL 072230Z 15003KT CAVOK 18/11 Q1021 NOSIG",
      "taf": "TAF LFLL 071700Z 0718/0824 04005KT CAVOK"
    },
    {
      "icao": "LFLS",
      "alert": "OK",
      "vis_m": 9999,
      "fzfg": false,
      "metar_trigger": false,
      "taf_trigger": false,
      "metar": "METAR LFLS 072230Z AUTO 11002KT CAVOK 13/12 Q1021",
      "taf": "TAF LFLS 071400Z 0715/0815 01005KT CAVOK"
    },
    {
      "icao": "LFMN",
      "alert": "OK",
      "vis_m": 9999,
      "fzfg": false,
      "metar_trigger": false,
      "taf_trigger": false,
      "metar": "METAR LFMN 072230Z 31007KT CAVOK 20/16 Q1020 NOSIG",
      "taf": "TAF LFMN 072000Z 0721/0903 VRB03KT CAVOK"
    },
    {
      "icao": "LFOB",
      "alert": "OK",
      "vis_m": 9999,
      "fzfg": false,
      "metar_trigger": false,
      "taf_trigger": false,
      "metar": "METAR LFOB 072230Z AUTO 11002KT CAVOK 13/11 Q1020 NOSIG",
      "taf": "TAF LFOB 071700Z 0718/0818 20006KT 9999 SCT040"
    },
    {
      "icao": "LFPO",
      "alert": "OK",
      "vis_m": 9999,
      "fzfg": false,
      "metar_trigger": false,
      "taf_trigger": false,
      "metar": "METAR LFPO 072230Z AUTO 13002KT CAVOK 17/10 Q1020 NOSIG",
      "taf": "TAF LFPO 071700Z 0718/0824 18005KT CAVOK"
    },
    {
      "icao": "LFSB",
      "alert": "OK",
      "vis_m": 9999,
      "fzfg": false,
      "metar_trigger": false,
      "taf_trigger": false,
      "metar": "METAR LFSB 072230Z AUTO 32003KT CAVOK 13/11 Q1022 NOSIG",
      "taf": "TAF LFSB 071700Z 0718/0818 28005KT CAVOK"
    },
    {
      "icao": "LGAV",
      "alert": "OK",
      "vis_m": 9999,
      "fzfg": false,
      "metar_trigger": false,
      "taf_trigger": false,
      "metar": "METAR LGAV 072220Z 27003KT CAVOK 18/12 Q1016 NOSIG",
      "taf": "TAF LGAV 071700Z 0718/0818 VRB05KT 9999 FEW025"
    },
    {
      "icao": "LGTS",
      "alert": "OK",
      "vis_m": 9999,
      "fzfg": false,
      "metar_trigger": false,
      "taf_trigger": false,
      "metar": "METAR LGTS 072220Z 00000KT 9999 FEW025 22/16 Q1017 NOSIG",
      "taf": "TAF LGTS 071700Z 0718/0818 VRB03KT 9999 FEW030"
    },
    {
      "icao": "LHBP",
      "alert": "OK",
      "vis_m": 9999,
      "fzfg": false,
      "metar_trigger": false,
      "taf_trigger": false,
      "metar": "METAR LHBP 072230Z 35003KT CAVOK 15/10 Q1021 NOSIG",
      "taf": "TAF LHBP 071715Z 0718/0818 31009KT CAVOK"
    },
    {
      "icao": "LHDC",
      "alert": "OK",
      "vis_m": 9999,
      "fzfg": false,
      "metar_trigger": false,
      "taf_trigger": false,
      "metar": "METAR LHDC 072215Z AUTO VRB01KT CAVOK 16/13 Q1020",
      "taf": "TAF LHDC 071715Z 0718/0803 VRB03KT CAVOK"
    },
    {
      "icao": "LIBD",
      "alert": "OK",
      "vis_m": 9999,
      "fzfg": false,
      "metar_trigger": false,
      "taf_trigger": false,
      "metar": "METAR LIBD 072220Z 23004KT CAVOK 19/12 Q1019",
      "taf": "TAF LIBD 071700Z 0718/0818 VRB05KT CAVOK"
    },
    {
      "icao": "LIBG",
      "alert": "OK",
      "vis_m": 9999,
      "fzfg": false,
      "metar_trigger": false,
      "taf_trigger": false,
      "metar": "METAR LIBG 072220Z AUTO VRB01KT 9999 NCD 21/11 Q1018",
      "taf": "TAF LIBG 071700Z 0718/0818 VRB05KT CAVOK"
    },
    {
      "icao": "LIBP",
      "alert": "OK",
      "vis_m": 9999,
      "fzfg": false,
      "metar_trigger": false,
      "taf_trigger": false,
      "metar": "METAR LIBP 072220Z AUTO 22005KT 9999 NCD 18/15 Q1019",
      "taf": "TAF LIBP 071700Z 0718/0818 VRB05KT 9999 SCT060"
    },
    {
      "icao": "LIBR",
      "alert": "OK",
      "vis_m": 9999,
      "fzfg": false,
      "metar_trigger": false,
      "taf_trigger": false,
      "metar": "METAR LIBR 072220Z 35006KT CAVOK 22/18 Q1018",
      "taf": "TAF LIBR 071700Z 0718/0818 34013KT CAVOK"
    },
    {
      "icao": "LICA",
      "alert": "OK",
      "vis_m": 9999,
      "fzfg": false,
      "metar_trigger": false,
      "taf_trigger": false,
      "metar": "METAR LICA 072220Z AUTO 05004KT 030V120 9999 NCD 19/17 Q1020",
      "taf": "TAF LICA 071700Z 0718/0818 26010KT 9999 FEW020"
    },
    {
      "icao": "LICC",
      "alert": "OK",
      "vis_m": 9999,
      "fzfg": false,
      "metar_trigger": false,
      "taf_trigger": false,
      "metar": "METAR LICC 072220Z 28005KT CAVOK 21/16 Q1019",
      "taf": "TAF LICC 071700Z 0718/0818 08010KT CAVOK"
    },
    {
      "icao": "LICJ",
      "alert": "OK",
      "vis_m": 9999,
      "fzfg": false,
      "metar_trigger": false,
      "taf_trigger": false,
      "metar": "METAR LICJ 072220Z 22003KT 160V230 CAVOK 21/16 Q1019",
      "taf": "TAF LICJ 071700Z 0718/0818 05012KT CAVOK"
    },
    {
      "icao": "LIMC",
      "alert": "OK",
      "vis_m": 9999,
      "fzfg": false,
      "metar_trigger": false,
      "taf_trigger": false,
      "metar": "METAR LIMC 072220Z 03005KT CAVOK 18/16 Q1020 NOSIG",
      "taf": "TAF LIMC 071700Z 0718/0824 VRB03KT 9999 FEW050"
    },
    {
      "icao": "LIME",
      "alert": "OK",
      "vis_m": 9999,
      "fzfg": false,
      "metar_trigger": false,
      "taf_trigger": false,
      "metar": "METAR LIME 072220Z 01005KT CAVOK 21/16 Q1020 NOSIG",
      "taf": "TAF LIME 071700Z 0718/0818 VRB04KT 9999 FEW050"
    },
    {
      "icao": "LIMF",
      "alert": "OK",
      "vis_m": 9999,
      "fzfg": false,
      "metar_trigger": false,
      "taf_trigger": false,
      "metar": "METAR LIMF 072220Z 34003KT 9999 FEW060 22/17 Q1020",
      "taf": "TAF LIMF 071700Z 0718/0818 VRB04KT 9999 FEW050"
    },
    {
      "icao": "LIMJ",
      "alert": "OK",
      "vis_m": 9999,
      "fzfg": false,
      "metar_trigger": false,
      "taf_trigger": false,
      "metar": "METAR LIMJ 072220Z 04003KT 020V080 CAVOK 20/15 Q1020",
      "taf": "TAF LIMJ 071700Z 0718/0818 VRB05KT CAVOK"
    },
    {
      "icao": "LIPE",
      "alert": "OK",
      "vis_m": 9999,
      "fzfg": false,
      "metar_trigger": false,
      "taf_trigger": false,
      "metar": "METAR LIPE 072220Z 21003KT CAVOK 22/17 Q1019",
      "taf": "TAF LIPE 071700Z 0718/0818 09012KT CAVOK"
    },
    {
      "icao": "LIPH",
      "alert": "OK",
      "vis_m": 9999,
      "fzfg": false,
      "metar_trigger": false,
      "taf_trigger": false,
      "metar": "METAR LIPH 072220Z AUTO 35002KT 9999 NCD 22/18 Q1019",
      "taf": "TAF LIPH 071700Z 0718/0818 VRB05KT CAVOK"
    },
    {
      "icao": "LIPQ",
      "alert": "OK",
      "vis_m": 9999,
      "fzfg": false,
      "metar_trigger": false,
      "taf_trigger": false,
      "metar": "METAR LIPQ 072220Z AUTO 08002KT 9999 NCD 19/17 Q1020",
      "taf": "TAF LIPQ 071700Z 0718/0818 VRB05KT CAVOK"
    },
    {
      "icao": "LIPR",
      "alert": "OK",
      "vis_m": 9999,
      "fzfg": false,
      "metar_trigger": false,
      "taf_trigger": false,
      "metar": "METAR LIPR 072220Z AUTO VRB01KT 9999 NCD 19/16 Q1019",
      "taf": "TAF LIPR 071700Z 0718/0818 VRB05KT CAVOK"
    },
    {
      "icao": "LIPX",
      "alert": "OK",
      "vis_m": 9999,
      "fzfg": false,
      "metar_trigger": false,
      "taf_trigger": false,
      "metar": "METAR LIPX 072220Z 05002KT 9999 FEW060 21/17 Q1020",
      "taf": "TAF LIPX 071700Z 0718/0818 VRB03KT CAVOK"
    },
    {
      "icao": "LIPY",
      "alert": "OK",
      "vis_m": 9999,
      "fzfg": false,
      "metar_trigger": false,
      "taf_trigger": false,
      "metar": "METAR LIPY 072220Z AUTO 17003KT 9999 NCD 18/15 Q1019",
      "taf": "TAF LIPY 071700Z 0718/0818 VRB05KT CAVOK"
    },
    {
      "icao": "LIPZ",
      "alert": "OK",
      "vis_m": 9999,
      "fzfg": false,
      "metar_trigger": false,
      "taf_trigger": false,
      "metar": "METAR LIPZ 072220Z 17002KT CAVOK 22/20 Q1019 NOSIG",
      "taf": "TAF LIPZ 071700Z 0718/0824 03006KT CAVOK"
    },
    {
      "icao": "LIRF",
      "alert": "OK",
      "vis_m": 9999,
      "fzfg": false,
      "metar_trigger": false,
      "taf_trigger": false,
      "metar": "METAR LIRF 072220Z 28005KT CAVOK 21/19 Q1019 NOSIG",
      "taf": "TAF LIRF 071700Z 0718/0824 29012KT CAVOK"
    },
    {
      "icao": "LIRN",
      "alert": "OK",
      "vis_m": 9999,
      "fzfg": false,
      "metar_trigger": false,
      "taf_trigger": false,
      "metar": "METAR LIRN 072220Z 07003KT CAVOK 22/14 Q1020 NOSIG",
      "taf": "TAF LIRN 071700Z 0718/0818 VRB05KT CAVOK"
    },
    {
      "icao": "LIRP",
      "alert": "OK",
      "vis_m": 9999,
      "fzfg": false,
      "metar_trigger": false,
      "taf_trigger": false,
      "metar": "METAR LIRP 072215Z 20003KT CAVOK 16/14 Q1020 NOSIG",
      "taf": "TAF LIRP 071700Z 0718/0818 29008KT 9999 FEW020"
    },
    {
      "icao": "LIRZ",
      "alert": "OK",
      "vis_m": 9999,
      "fzfg": false,
      "metar_trigger": false,
      "taf_trigger": false,
      "metar": "METAR LIRZ 072220Z AUTO 03004KT 9999 NCD 19/14 Q1020",
      "taf": "TAF LIRZ 071700Z 0718/0818 VRB05KT CAVOK"
    },
    {
      "icao": "LJLJ",
      "alert": "OK",
      "vis_m": 9999,
      "fzfg": false,
      "metar_trigger": false,
      "taf_trigger": false,
      "metar": "METAR LJLJ 072230Z 17001KT 9999 FEW050 SCT070 17/14 Q1022 NOSIG",
      "taf": "TAF LJLJ 071700Z 0718/0818 10005KT 9999 FEW060"
    },
    {
      "icao": "LKMT",
      "alert": "OK",
      "vis_m": 9999,
      "fzfg": false,
      "metar_trigger": false,
      "taf_trigger": false,
      "metar": "METAR LKMT 072230Z 24005KT CAVOK 14/11 Q1022 NOSIG",
      "taf": "TAF LKMT 071700Z 0718/0818 VRB02KT CAVOK"
    },
    {
      "icao": "LKPR",
      "alert": "OK",
      "vis_m": 9999,
      "fzfg": false,
      "metar_trigger": false,
      "taf_trigger": false,
      "metar": "METAR LKPR 072230Z 27004KT CAVOK 12/09 Q1023 NOSIG",
      "taf": "TAF LKPR 072000Z 0721/0903 33005KT CAVOK"
    },
    {
      "icao": "LLBG",
      "alert": "OK",
      "vis_m": 9999,
      "fzfg": false,
      "metar_trigger": false,
      "taf_trigger": false,
      "metar": "METAR LLBG 072220Z 15006KT CAVOK 23/18 Q1013 NOSIG",
      "taf": "TAF LLBG 071605Z 0718/0818 VRB04KT 9999 SCT020 TX29/0810Z TN20/0803Z"
    },
    {
      "icao": "LMML",
      "alert": "OK",
      "vis_m": 9999,
      "fzfg": false,
      "metar_trigger": false,
      "taf_trigger": false,
      "metar": "METAR LMML 072245Z 02006KT CAVOK 23/21 Q1019 NOSIG",
      "taf": "TAF LMML 071700Z 0718/0818 08007KT 9999 FEW015"
    },
    {
      "icao": "LOWW",
      "alert": "OK",
      "vis_m": 9999,
      "fzfg": false,
      "metar_trigger": false,
      "taf_trigger": false,
      "metar": "METAR LOWW 072220Z 32003KT CAVOK 19/11 Q1022 NOSIG",
      "taf": "TAF LOWW 072015Z 0721/0903 30006KT CAVOK TX27/0814Z TN14/0803Z"
    },
    {
      "icao": "LPFR",
      "alert": "OK",
      "vis_m": 9999,
      "fzfg": false,
      "metar_trigger": false,
      "taf_trigger": false,
      "metar": "METAR LPFR 072230Z 33008KT CAVOK 24/14 Q1019",
      "taf": "TAF LPFR 071700Z 0718/0818 25010KT CAVOK"
    },
    {
      "icao": "LPMA",
      "alert": "OK",
      "vis_m": 9999,
      "fzfg": false,
      "metar_trigger": false,
      "taf_trigger": false,
      "metar": "METAR LPMA 072230Z 01014G24KT 330V040 9999 FEW016 19/13 Q1025",
      "taf": "TAF LPMA 071700Z 0718/0818 02015KT 9999 SCT015"
    },
    {
      "icao": "LPPR",
      "alert": "OK",
      "vis_m": 9999,
      "fzfg": false,
      "metar_trigger": false,
      "taf_trigger": false,
      "metar": "METAR LPPR 072230Z 33010KT CAVOK 15/13 Q1023",
      "taf": "TAF LPPR 071700Z 0718/0818 32015KT CAVOK"
    },
    {
      "icao": "LPPS",
      "alert": "OK",
      "vis_m": 9999,
      "fzfg": false,
      "metar_trigger": false,
      "taf_trigger": false,
      "metar": "METAR LPPS 072230Z 03015KT 350V060 9999 FEW015 BKN030 18/13 Q1026",
      "taf": "TAF LPPS 071700Z 0718/0824 02015KT 9999 SCT015 BKN030"
    },
    {
      "icao": "LPPT",
      "alert": "OK",
      "vis_m": 9999,
      "fzfg": false,
      "metar_trigger": false,
      "taf_trigger": false,
      "metar": "METAR LPPT 072230Z 33010KT 300V360 9999 FEW015 16/13 Q1023",
      "taf": "TAF LPPT 071700Z 0718/0824 31015KT CAVOK"
    },
    {
      "icao": "LQBK",
      "alert": "OK",
      "vis_m": 9999,
      "fzfg": false,
      "metar_trigger": false,
      "taf_trigger": false,
      "metar": "METAR LQBK 072230Z VRB02KT CAVOK 16/14 Q1021 NOSIG",
      "taf": "TAF LQBK 071700Z 0718/0818 VRB03KT CAVOK TX29/0814Z TN15/0804Z"
    },
    {
      "icao": "LQSA",
      "alert": "OK",
      "vis_m": 9999,
      "fzfg": false,
      "metar_trigger": false,
      "taf_trigger": false,
      "metar": "METAR LQSA 072230Z VRB02KT CAVOK 19/14 Q1022",
      "taf": "TAF LQSA 071700Z 0718/0818 VRB02KT 9999 SCT060 TX29/0814Z TN14/0803Z"
    },
    {
      "icao": "LQTZ",
      "alert": "OK",
      "vis_m": 9999,
      "fzfg": false,
      "metar_trigger": false,
      "taf_trigger": false,
      "metar": "METAR LQTZ 072230Z 00000KT CAVOK 15/15 Q1022",
      "taf": "TAF LQTZ 071700Z 0718/0818 05005KT CAVOK TX28/0814Z TN12/0803Z"
    },
    {
      "icao": "LRBC",
      "alert": "OK",
      "vis_m": 9999,
      "fzfg": false,
      "metar_trigger": false,
      "taf_trigger": false,
      "metar": "METAR LRBC 072230Z 00000KT 9999 FEW052 17/16 Q1019",
      "taf": "TAF LRBC 072000Z 0721/0806 VRB04KT 9999 SCT055"
    },
    {
      "icao": "LRBS",
      "alert": "OK",
      "vis_m": 9999,
      "fzfg": false,
      "metar_trigger": false,
      "taf_trigger": false,
      "metar": "METAR LRBS 072230Z 02004KT CAVOK 17/16 Q1019 NOSIG",
      "taf": "TAF LRBS 071700Z 0718/0818 06010KT CAVOK"
    },
    {
      "icao": "LRBV",
      "alert": "OK",
      "vis_m": 9999,
      "fzfg": false,
      "metar_trigger": false,
      "taf_trigger": false,
      "metar": "METAR LRBV 072230Z AUTO 12001KT 9999 NCD 14/12 Q1020",
      "taf": "TAF LRBV 071700Z 0718/0803 24008KT 9999 SCT060"
    },
    {
      "icao": "LRCL",
      "alert": "OK",
      "vis_m": 9999,
      "fzfg": false,
      "metar_trigger": false,
      "taf_trigger": false,
      "metar": "METAR LRCL 072230Z 00000KT 9999 BKN071 18/13 Q1019",
      "taf": "TAF LRCL 072000Z 0721/0806 VRB04KT CAVOK"
    },
    {
      "icao": "LRCV",
      "alert": "OK",
      "vis_m": 9999,
      "fzfg": false,
      "metar_trigger": false,
      "taf_trigger": false,
      "metar": "METAR LRCV 072230Z 07003KT CAVOK 18/16 Q1019",
      "taf": "TAF LRCV 072000Z 0721/0806 08006KT CAVOK"
    },
    {
      "icao": "LRIA",
      "alert": "OK",
      "vis_m": 9999,
      "fzfg": false,
      "metar_trigger": false,
      "taf_trigger": false,
      "metar": "METAR LRIA 072230Z 27003KT 230V310 CAVOK 17/13 Q1018",
      "taf": "TAF LRIA 072000Z 0721/0806 VRB04KT CAVOK"
    },
    {
      "icao": "LROP",
      "alert": "OK",
      "vis_m": 9999,
      "fzfg": false,
      "metar_trigger": false,
      "taf_trigger": false,
      "metar": "METAR LROP 072230Z 03004KT CAVOK 18/17 Q1019 NOSIG",
      "taf": "TAF LROP 071700Z 0718/0818 06010KT CAVOK"
    },
    {
      "icao": "LRSB",
      "alert": "OK",
      "vis_m": 9999,
      "fzfg": false,
      "metar_trigger": false,
      "taf_trigger": false,
      "metar": "METAR LRSB 072230Z VRB03KT CAVOK 16/14 Q1020",
      "taf": "TAF LRSB 071700Z 0718/0818 VRB04KT 9999 SCT050"
    },
    {
      "icao": "LRSM",
      "alert": "OK",
      "vis_m": 9999,
      "fzfg": false,
      "metar_trigger": false,
      "taf_trigger": false,
      "metar": "METAR LRSM 072230Z AUTO 24005KT 9999 NCD 15/14 Q1019",
      "taf": ""
    },
    {
      "icao": "LRSV",
      "alert": "OK",
      "vis_m": 9999,
      "fzfg": false,
      "metar_trigger": false,
      "taf_trigger": false,
      "metar": "METAR LRSV 072230Z 25007KT CAVOK 15/14 Q1018",
      "taf": "TAF LRSV 072000Z 0721/0806 27006KT CAVOK"
    },
    {
      "icao": "LRTM",
      "alert": "OK",
      "vis_m": 9999,
      "fzfg": false,
      "metar_trigger": false,
      "taf_trigger": false,
      "metar": "METAR LRTM 072230Z 29003KT 270V330 CAVOK 16/15 Q1020",
      "taf": "TAF LRTM 072000Z 0721/0806 VRB04KT CAVOK"
    },
    {
      "icao": "LRTR",
      "alert": "OK",
      "vis_m": 9999,
      "fzfg": false,
      "metar_trigger": false,
      "taf_trigger": false,
      "metar": "METAR LRTR 072230Z 29005KT CAVOK 17/13 Q1019",
      "taf": "TAF LRTR 071700Z 0718/0818 VRB04KT CAVOK"
    },
    {
      "icao": "LTAC",
      "alert": "OK",
      "vis_m": 9999,
      "fzfg": false,
      "metar_trigger": false,
      "taf_trigger": false,
      "metar": "METAR LTAC 072220Z 03006KT 010V090 CAVOK 17/10 Q1019 NOSIG RMK RWY21C 09005KT 040V130 RWY03L 06003KT 040V100 RWY21R 03006KT RWY03R 04004KT 360V070 RWY21L 06006KT",
      "taf": "TAF LTAC 071640Z 0718/0818 03008KT 9999 SCT040"
    },
    {
      "icao": "LTFM",
      "alert": "OK",
      "vis_m": 9999,
      "fzfg": false,
      "metar_trigger": false,
      "taf_trigger": false,
      "metar": "METAR LTFM 072220Z 06006KT 010V070 9999 FEW012 21/17 Q1017 NOSIG RMK RWY17L 07005KT RWY34L 05006KT RWY16R 07004KT RWY36 06007KT RWY18 08004KT",
      "taf": "TAF LTFM 071640Z 0718/0824 04012KT 9999 SCT012 BKN120"
    },
    {
      "icao": "LUKK",
      "alert": "OK",
      "vis_m": 9999,
      "fzfg": false,
      "metar_trigger": false,
      "taf_trigger": false,
      "metar": "METAR LUKK 072230Z 27007KT CAVOK 16/15 Q1017 NOSIG",
      "taf": "TAF LUKK 071708Z 0718/0818 27008KT 9999 SCT030"
    },
    {
      "icao": "LWOH",
      "alert": "OK",
      "vis_m": null,
      "fzfg": false,
      "metar_trigger": false,
      "taf_trigger": false,
      "metar": "",
      "taf": "TAF LWOH 072050Z 0721/0821 36006KT 9999 SCT040"
    },
    {
      "icao": "LWSK",
      "alert": "OK",
      "vis_m": 9999,
      "fzfg": false,
      "metar_trigger": false,
      "taf_trigger": false,
      "metar": "METAR LWSK 072250Z 03007KT CAVOK 20/14 Q1020 NOSIG",
      "taf": "TAF LWSK 072050Z 0721/0821 36008KT 9999 FEW050"
    },
    {
      "icao": "LYBE",
      "alert": "OK",
      "vis_m": 9999,
      "fzfg": false,
      "metar_trigger": false,
      "taf_trigger": false,
      "metar": "METAR LYBE 072230Z 22003KT 180V250 CAVOK 21/15 Q1020 NOSIG",
      "taf": "TAF LYBE 071700Z 0718/0818 25005KT CAVOK TX30/0814Z TN16/0803Z"
    },
    {
      "icao": "LYNI",
      "alert": "OK",
      "vis_m": 9999,
      "fzfg": false,
      "metar_trigger": false,
      "taf_trigger": false,
      "metar": "METAR LYNI 072230Z 10003KT CAVOK 18/15 Q1021 NOSIG",
      "taf": "TAF LYNI 071700Z 0718/0818 07005KT CAVOK TX30/0814Z TN12/0803Z"
    },
    {
      "icao": "LYPG",
      "alert": "OK",
      "vis_m": 9999,
      "fzfg": false,
      "metar_trigger": false,
      "taf_trigger": false,
      "metar": "METAR LYPG 072230Z 14002KT CAVOK 22/18 Q1018 NOSIG",
      "taf": "TAF LYPG 071700Z 0718/0818 VRB02KT CAVOK TX31/0814Z TN19/0803Z"
    },
    {
      "icao": "LZIB",
      "alert": "OK",
      "vis_m": 9999,
      "fzfg": false,
      "metar_trigger": false,
      "taf_trigger": false,
      "metar": "METAR LZIB 072230Z VRB01KT CAVOK 17/10 Q1021 NOSIG",
      "taf": "TAF LZIB 071715Z 0718/0818 30007KT CAVOK"
    },
    {
      "icao": "LZKZ",
      "alert": "OK",
      "vis_m": 9999,
      "fzfg": false,
      "metar_trigger": false,
      "taf_trigger": false,
      "metar": "METAR LZKZ 072230Z 06001KT CAVOK 14/12 Q1020 NOSIG",
      "taf": ""
    },
    {
      "icao": "LZTT",
      "alert": "OK",
      "vis_m": 9999,
      "fzfg": false,
      "metar_trigger": false,
      "taf_trigger": false,
      "metar": "METAR LZTT 072230Z 29004KT 250V320 9999 BKN063 12/10 Q1022",
      "taf": "TAF LZTT 071715Z 0718/0818 29005KT 9999 FEW030"
    },
    {
      "icao": "OEJN",
      "alert": "OK",
      "vis_m": 9999,
      "fzfg": false,
      "metar_trigger": false,
      "taf_trigger": false,
      "metar": "METAR OEJN 072200Z 34003KT CAVOK 31/13 Q1006 NOSIG",
      "taf": "TAF OEJN 071700Z 0718/0824 36010KT CAVOK"
    },
    {
      "icao": "OEMA",
      "alert": "OK",
      "vis_m": 9999,
      "fzfg": false,
      "metar_trigger": false,
      "taf_trigger": false,
      "metar": "METAR OEMA 072200Z 27009KT CAVOK 35/02 Q1013 NOSIG",
      "taf": "TAF OEMA 071700Z 0718/0824 27010KT CAVOK"
    },
    {
      "icao": "OJAI",
      "alert": "OK",
      "vis_m": 5000,
      "fzfg": false,
      "metar_trigger": false,
      "taf_trigger": false,
      "metar": "METAR OJAI 072200Z 31008KT 5000 HZ NSC 18/13 Q1016 NOSIG",
      "taf": "TAF OJAI 071700Z 0718/0824 29010KT 5000 HZ NSC"
    },
    {
      "icao": "OMAA",
      "alert": "OK",
      "vis_m": 9999,
      "fzfg": false,
      "metar_trigger": false,
      "taf_trigger": false,
      "metar": "METAR OMAA 072230Z 19005KT CAVOK 29/24 Q1003 NOSIG",
      "taf": "TAF OMAA 071700Z 0718/0900 17005KT 8000 NSC"
    },
    {
      "icao": "OMDB",
      "alert": "OK",
      "vis_m": 9999,
      "fzfg": false,
      "metar_trigger": false,
      "taf_trigger": false,
      "metar": "METAR OMDB 072230Z 20006KT CAVOK 32/22 Q1002 NOSIG",
      "taf": "TAF OMDB 071700Z 0718/0900 VRB02KT CAVOK"
    },
    {
      "icao": "UAAA",
      "alert": "OK",
      "vis_m": 9999,
      "fzfg": false,
      "metar_trigger": false,
      "taf_trigger": false,
      "metar": "METAR UAAA 072230Z 02003MPS 9999 SCT100 14/10 Q1014 NOSIG",
      "taf": "TAF UAAA 071700Z 0718/0818 20003MPS 9999 FEW050CB SCT100 TX30/0810Z TN15/0801Z"
    },
    {
      "icao": "UBBB",
      "alert": "OK",
      "vis_m": 9999,
      "fzfg": false,
      "metar_trigger": false,
      "taf_trigger": false,
      "metar": "METAR UBBB 072230Z 00000KT CAVOK 20/14 Q1015 NOSIG",
      "taf": "TAF UBBB 071701Z 0718/0818 31005KT 9999 FEW050CB TX26/0810Z TN17/0800Z"
    },
    {
      "icao": "UDSG",
      "alert": "OK",
      "vis_m": 9000,
      "fzfg": false,
      "metar_trigger": false,
      "taf_trigger": false,
      "metar": "METAR UDSG 072230Z 23003KT 9000 FEW049 11/07 Q1020 NOSIG",
      "taf": "TAF UDSG 071658Z 0718/0818 VRB06KT 9999 FEW050"
    },
    {
      "icao": "UDYZ",
      "alert": "OK",
      "vis_m": 9999,
      "fzfg": false,
      "metar_trigger": false,
      "taf_trigger": false,
      "metar": "METAR UDYZ 072230Z 01008KT 9999 NSC 19/08 Q1015 NOSIG",
      "taf": "TAF UDYZ 071700Z 0718/0818 02006KT 9999 FEW040"
    },
    {
      "icao": "UGKO",
      "alert": "OK",
      "vis_m": 9999,
      "fzfg": false,
      "metar_trigger": false,
      "taf_trigger": false,
      "metar": "METAR UGKO 072230Z VRB02KT CAVOK 16/15 Q1016 NOSIG",
      "taf": "TAF UGKO 071700Z 0718/0818 VRB02KT CAVOK TX27/0811Z TN14/0802Z"
    }
  ]
}