{
  "ts_utc": "2026-01-29T15:07:42Z",
  "threshold_m": 150,
  "source": "stations_override.txt (ICAO list) + aviationweather.gov (METAR/TAF raw)",
  "station_count": 159,
  "stations": [
    {
      "icao": "BIKF",
      "alert": "OK",
      "vis_m": 9999,
      "fzfg": false,
      "metar_trigger": false,
      "taf_trigger": false,
      "metar": "METAR BIKF 291500Z 05009KT 9999 FEW013 BKN032 BKN055 05/00 Q0997",
      "taf": "TAF BIKF 291332Z 2915/3015 06013KT 9999 FEW025 TX05/2915Z TN01/3009Z"
    },
    {
      "icao": "BKPR",
      "alert": "OK",
      "vis_m": 9999,
      "fzfg": false,
      "metar_trigger": false,
      "taf_trigger": false,
      "metar": "METAR BKPR 291500Z 16005KT 9999 -DZ FEW025 BKN055 09/06 Q0994 NOSIG",
      "taf": "TAF BKPR 291130Z 2912/3012 13008KT 9999 SCT030 BKN050"
    },
    {
      "icao": "EBCI",
      "alert": "OK",
      "vis_m": 4500,
      "fzfg": false,
      "metar_trigger": false,
      "taf_trigger": false,
      "metar": "METAR EBCI 291450Z 07003KT 040V100 4500 BR SCT004 BKN006 02/01 Q0998 NOSIG",
      "taf": "TAF EBCI 291120Z 2912/3018 VRB03KT 6000 BKN007"
    },
    {
      "icao": "EDDB",
      "alert": "OK",
      "vis_m": 9999,
      "fzfg": false,
      "metar_trigger": false,
      "taf_trigger": false,
      "metar": "METAR EDDB 291450Z AUTO 07010KT 9999 OVC009 M02/M04 Q1004 NOSIG",
      "taf": "TAF EDDB 291100Z 2912/3012 07010KT 8000 BKN010"
    },
    {
      "icao": "EDDH",
      "alert": "OK",
      "vis_m": 9999,
      "fzfg": false,
      "metar_trigger": false,
      "taf_trigger": false,
      "metar": "METAR EDDH 291450Z AUTO 09011KT 060V120 9999 BKN011 OVC015 M01/M03 Q1004 REFZDZ TEMPO -FZDZ OVC009",
      "taf": "TAF EDDH 291100Z 2912/3018 08010KT 9999 OVC012"
    },
    {
      "icao": "EDDK",
      "alert": "OK",
      "vis_m": 8000,
      "fzfg": false,
      "metar_trigger": false,
      "taf_trigger": false,
      "metar": "METAR EDDK 291450Z AUTO 15004KT 8000 OVC007 02/01 Q0999 NOSIG",
      "taf": "TAF EDDK 291100Z 2912/3018 11004KT 8000 OVC010"
    },
    {
      "icao": "EDDN",
      "alert": "OK",
      "vis_m": 3700,
      "fzfg": false,
      "metar_trigger": false,
      "taf_trigger": false,
      "metar": "METAR EDDN 291450Z AUTO 29003KT 3700 -SN BR BKN003 BKN019 BKN026 01/M00 Q0998 TEMPO SCT003 BKN008",
      "taf": "TAF EDDN 291100Z 2912/3012 VRB03KT 5000 BR SCT004 OVC006"
    },
    {
      "icao": "EDDS",
      "alert": "OK",
      "vis_m": 6000,
      "fzfg": false,
      "metar_trigger": false,
      "taf_trigger": false,
      "metar": "METAR EDDS 291450Z AUTO VRB01KT 6000 -RADZ SCT003 BKN018 OVC022 01/01 Q0998 RESN NOSIG",
      "taf": "TAF EDDS 291100Z 2912/3012 VRB03KT 6000 OVC013"
    },
    {
      "icao": "EDFH",
      "alert": "OK",
      "vis_m": 9999,
      "fzfg": false,
      "metar_trigger": false,
      "taf_trigger": false,
      "metar": "METAR EDFH 291450Z VRB02KT 9999 OVC003 01/01 Q0997",
      "taf": ""
    },
    {
      "icao": "EDJA",
      "alert": "OK",
      "vis_m": 9999,
      "fzfg": false,
      "metar_trigger": false,
      "taf_trigger": false,
      "metar": "METAR EDJA 291450Z 23009KT 9999 -RA BKN007 BKN018 OVC043 02/00 Q0998",
      "taf": "TAF EDJA 291400Z 2915/2924 23009KT 9999 BKN008"
    },
    {
      "icao": "EDLW",
      "alert": "OK",
      "vis_m": 2000,
      "fzfg": false,
      "metar_trigger": false,
      "taf_trigger": false,
      "metar": "METAR EDLW 291450Z 02004KT 2000 BR OVC003 00/M00 Q0999",
      "taf": "TAF EDLW 291100Z 2912/3012 07006KT 6000 OVC007"
    },
    {
      "icao": "EDNY",
      "alert": "OK",
      "vis_m": 9999,
      "fzfg": false,
      "metar_trigger": false,
      "taf_trigger": false,
      "metar": "METAR EDNY 291450Z 26007KT 9999 FEW012 BKN016 OVC020 04/02 Q0999",
      "taf": "TAF EDNY 291400Z 2915/2924 26007KT 9999 SCT012 BKN030"
    },
    {
      "icao": "EDSB",
      "alert": "OK",
      "vis_m": 9999,
      "fzfg": false,
      "metar_trigger": false,
      "taf_trigger": false,
      "metar": "METAR EDSB 291450Z 19006KT 9999 FEW008 SCT018 BKN041 06/04 Q0999",
      "taf": "TAF EDSB 291100Z 2912/3012 21006KT 8000 OVC013"
    },
    {
      "icao": "EETN",
      "alert": "OK",
      "vis_m": 9999,
      "fzfg": false,
      "metar_trigger": false,
      "taf_trigger": false,
      "metar": "METAR EETN 291450Z 07004KT 030V090 9999 FEW014 M09/M12 Q1021 NOSIG",
      "taf": "TAF EETN 291130Z 2912/3012 10010KT CAVOK"
    },
    {
      "icao": "EFTU",
      "alert": "OK",
      "vis_m": 9999,
      "fzfg": false,
      "metar_trigger": false,
      "taf_trigger": false,
      "metar": "METAR EFTU 291450Z AUTO 08004KT CAVOK M12/M14 Q1022",
      "taf": "TAF EFTU 291434Z 2915/3015 07005KT CAVOK"
    },
    {
      "icao": "EGBB",
      "alert": "OK",
      "vis_m": 8000,
      "fzfg": false,
      "metar_trigger": false,
      "taf_trigger": false,
      "metar": "METAR EGBB 291450Z 11012KT 8000 BKN012 BKN025 05/03 Q0995",
      "taf": ""
    },
    {
      "icao": "EGGP",
      "alert": "OK",
      "vis_m": 9999,
      "fzfg": false,
      "metar_trigger": false,
      "taf_trigger": false,
      "metar": "METAR EGGP 291450Z 11015KT 9999 SCT015 BKN031 04/01 Q0994",
      "taf": ""
    },
    {
      "icao": "EGGW",
      "alert": "OK",
      "vis_m": 9000,
      "fzfg": false,
      "metar_trigger": false,
      "taf_trigger": false,
      "metar": "METAR EGGW 291450Z AUTO 12010KT 9000 BKN009 BKN028 OVC032 05/03 Q0995",
      "taf": "TAF EGGW 291056Z 2912/3012 12008KT 9999 BKN020"
    },
    {
      "icao": "EGKK",
      "alert": "OK",
      "vis_m": 9999,
      "fzfg": false,
      "metar_trigger": false,
      "taf_trigger": false,
      "metar": "METAR EGKK 291450Z 11009KT 9999 FEW015 BKN017 06/04 Q0995",
      "taf": "TAF EGKK 291058Z 2912/3018 12007KT 9999 SCT012"
    },
    {
      "icao": "EGNM",
      "alert": "OK",
      "vis_m": 7000,
      "fzfg": false,
      "metar_trigger": false,
      "taf_trigger": false,
      "metar": "METAR EGNM 291450Z 10011KT 7000 SCT005 BKN007 02/02 Q0996",
      "taf": ""
    },
    {
      "icao": "EGPD",
      "alert": "OK",
      "vis_m": 9999,
      "fzfg": false,
      "metar_trigger": false,
      "taf_trigger": false,
      "metar": "METAR EGPD 291450Z AUTO 13014KT 9999 -RA SCT017/// BKN025/// BKN034/// //////TCU 04/02 Q1000 RERA TEMPO BKN014",
      "taf": ""
    },
    {
      "icao": "EGPF",
      "alert": "OK",
      "vis_m": 9999,
      "fzfg": false,
      "metar_trigger": false,
      "taf_trigger": false,
      "metar": "METAR EGPF 291450Z AUTO 08012KT 9999 BKN027 OVC040 06/02 Q0996",
      "taf": "TAF EGPF 291056Z 2912/3012 07007KT 9999 FEW018 SCT040"
    },
    {
      "icao": "EHBK",
      "alert": "OK",
      "vis_m": 7000,
      "fzfg": false,
      "metar_trigger": false,
      "taf_trigger": false,
      "metar": "METAR EHBK 291455Z AUTO VRB02KT 7000 BKN007/// OVC009/// 01/M00 Q0999 NOSIG",
      "taf": "TAF EHBK 291120Z 2912/3018 VRB02KT 6000 BKN006"
    },
    {
      "icao": "EHEH",
      "alert": "OK",
      "vis_m": null,
      "fzfg": false,
      "metar_trigger": false,
      "taf_trigger": false,
      "metar": "",
      "taf": "TAF EHEH 291142Z 2912/3018 VRB02KT 3500 BR OVC005"
    },
    {
      "icao": "EKBI",
      "alert": "OK",
      "vis_m": 9999,
      "fzfg": false,
      "metar_trigger": false,
      "taf_trigger": false,
      "metar": "METAR EKBI 291450Z AUTO 08017KT 9999 OVC021/// M02/M06 Q1008",
      "taf": "TAF EKBI 291427Z 2915/3015 08015KT 9999 BKN020"
    },
    {
      "icao": "EKCH",
      "alert": "OK",
      "vis_m": 9999,
      "fzfg": false,
      "metar_trigger": false,
      "taf_trigger": false,
      "metar": "METAR EKCH 291450Z AUTO 09017KT 9999 OVC020/// M01/M05 Q1010 NOSIG",
      "taf": "TAF EKCH 291427Z 2915/3015 08012KT 9999 BKN022"
    },
    {
      "icao": "ENAL",
      "alert": "OK",
      "vis_m": 9999,
      "fzfg": false,
      "metar_trigger": false,
      "taf_trigger": false,
      "metar": "METAR ENAL 291450Z 09005KT 050V140 9999 FEW027 M01/M06 Q1011",
      "taf": "TAF ENAL 291400Z 2915/2924 14008KT 9999 SCT030"
    },
    {
      "icao": "ENBR",
      "alert": "OK",
      "vis_m": 9999,
      "fzfg": false,
      "metar_trigger": false,
      "taf_trigger": false,
      "metar": "METAR ENBR 291450Z 12003KT CAVOK M02/M07 Q1011 NOSIG RMK WIND 1200FT 18003KT",
      "taf": "TAF ENBR 291100Z 2912/3012 VRB03KT 9999 SCT030"
    },
    {
      "icao": "ENGM",
      "alert": "OK",
      "vis_m": 9999,
      "fzfg": false,
      "metar_trigger": false,
      "taf_trigger": false,
      "metar": "METAR ENGM 291450Z 05004KT 9999 -SN FEW012 BKN015 M11/M13 Q1017 TEMPO BKN012",
      "taf": "TAF ENGM 291100Z 2912/3012 02007KT 9999 BKN015"
    },
    {
      "icao": "ENHD",
      "alert": "OK",
      "vis_m": 9999,
      "fzfg": false,
      "metar_trigger": false,
      "taf_trigger": false,
      "metar": "METAR ENHD 291450Z 15006KT CAVOK M02/M12 Q1012",
      "taf": "TAF ENHD 291400Z 2915/2923 10008KT CAVOK"
    },
    {
      "icao": "ENTC",
      "alert": "OK",
      "vis_m": 9999,
      "fzfg": false,
      "metar_trigger": false,
      "taf_trigger": false,
      "metar": "METAR ENTC 291450Z 22011KT 9999 -SN FEW011 BKN024 M06/M09 Q1021 TEMPO 1000 SHSN VV008 RMK WIND 2600FT 24012KT",
      "taf": ""
    },
    {
      "icao": "ENTO",
      "alert": "OK",
      "vis_m": 9999,
      "fzfg": false,
      "metar_trigger": false,
      "taf_trigger": false,
      "metar": "METAR ENTO 291450Z 01012KT 9999 -SN FEW012 OVC035 M08/M11 Q1016 NOSIG",
      "taf": "TAF ENTO 291100Z 2912/3012 02008KT 9999 -SN BKN025"
    },
    {
      "icao": "ENVA",
      "alert": "OK",
      "vis_m": 9999,
      "fzfg": false,
      "metar_trigger": false,
      "taf_trigger": false,
      "metar": "METAR ENVA 291450Z 12009KT CAVOK M13/M19 Q1016 NOSIG RMK WIND 670FT 10011KT",
      "taf": "TAF ENVA 291100Z 2912/3012 13008KT CAVOK"
    },
    {
      "icao": "ENZV",
      "alert": "OK",
      "vis_m": 9999,
      "fzfg": false,
      "metar_trigger": false,
      "taf_trigger": false,
      "metar": "METAR ENZV 291450Z 09009KT CAVOK M03/M12 Q1012 NOSIG",
      "taf": "TAF ENZV 291100Z 2912/3012 11005KT CAVOK"
    },
    {
      "icao": "EPGD",
      "alert": "OK",
      "vis_m": 9999,
      "fzfg": false,
      "metar_trigger": false,
      "taf_trigger": false,
      "metar": "METAR EPGD 291500Z 05010KT 9999 OVC004 M07/M07 Q1009",
      "taf": "TAF EPGD 291130Z 2912/3012 08010KT 9999 OVC006"
    },
    {
      "icao": "EPKK",
      "alert": "OK",
      "vis_m": 9999,
      "fzfg": false,
      "metar_trigger": false,
      "taf_trigger": false,
      "metar": "METAR EPKK 291500Z 06011KT 9999 BKN011 OVC015 00/M03 Q1001",
      "taf": "TAF EPKK 291430Z 2915/3015 06011KT 8000 OVC013"
    },
    {
      "icao": "EPKT",
      "alert": "OK",
      "vis_m": 9999,
      "fzfg": false,
      "metar_trigger": false,
      "taf_trigger": false,
      "metar": "METAR EPKT 291500Z 07009KT 9999 SCT013 BKN015 M00/M03 Q1001",
      "taf": "TAF EPKT 291130Z 2912/3012 06011KT 9999 BKN013"
    },
    {
      "icao": "EPLB",
      "alert": "OK",
      "vis_m": 6000,
      "fzfg": false,
      "metar_trigger": false,
      "taf_trigger": false,
      "metar": "METAR EPLB 291500Z 04008KT 6000 FEW005 OVC018 M00/M01 Q1004 REFZDZ",
      "taf": ""
    },
    {
      "icao": "EPMO",
      "alert": "OK",
      "vis_m": 8000,
      "fzfg": false,
      "metar_trigger": false,
      "taf_trigger": false,
      "metar": "METAR EPMO 291500Z 04009KT 8000 SCT011 BKN028 M05/M07 Q1006",
      "taf": "TAF EPMO 291130Z 2912/3012 02008KT 7000 SCT010 BKN028"
    },
    {
      "icao": "EPPO",
      "alert": "OK",
      "vis_m": 9999,
      "fzfg": false,
      "metar_trigger": false,
      "taf_trigger": false,
      "metar": "METAR EPPO 291500Z 07009KT 9999 OVC018 M05/M07 Q1005",
      "taf": "TAF EPPO 291130Z 2912/3012 06008KT 9999 OVC009"
    },
    {
      "icao": "EPRA",
      "alert": "OK",
      "vis_m": 7000,
      "fzfg": false,
      "metar_trigger": false,
      "taf_trigger": false,
      "metar": "METAR EPRA 291500Z 04007KT 7000 OVC006 M02/M03 Q1004",
      "taf": "TAF EPRA 291430Z 2915/2924 04008KT 7000 OVC007"
    },
    {
      "icao": "EPRZ",
      "alert": "OK",
      "vis_m": 9999,
      "fzfg": false,
      "metar_trigger": false,
      "taf_trigger": false,
      "metar": "METAR EPRZ 291500Z 07011KT 9999 OVC009 M00/M02 Q1002",
      "taf": "TAF EPRZ 291130Z 2912/3012 06010KT 9999 OVC012"
    },
    {
      "icao": "EPSC",
      "alert": "OK",
      "vis_m": 9999,
      "fzfg": false,
      "metar_trigger": false,
      "taf_trigger": false,
      "metar": "METAR EPSC 291500Z 07009KT 030V090 9999 OVC006 M04/M05 Q1007",
      "taf": "TAF EPSC 291130Z 2912/3012 07010KT 9999 BKN006"
    },
    {
      "icao": "EPSY",
      "alert": "OK",
      "vis_m": 9000,
      "fzfg": false,
      "metar_trigger": false,
      "taf_trigger": false,
      "metar": "METAR EPSY 291500Z 04008KT 9000 OVC007 M08/M09 Q1007",
      "taf": "TAF EPSY 291430Z 2915/2924 04010KT 8000 BKN007"
    },
    {
      "icao": "EPWA",
      "alert": "OK",
      "vis_m": 9000,
      "fzfg": false,
      "metar_trigger": false,
      "taf_trigger": false,
      "metar": "METAR EPWA 291500Z 04007KT 340V080 9000 BKN011 OVC025 M03/M05 Q1006 NOSIG",
      "taf": "TAF EPWA 291430Z 2915/3015 03008KT 8000 SCT008 BKN022"
    },
    {
      "icao": "EPWR",
      "alert": "OK",
      "vis_m": 9000,
      "fzfg": false,
      "metar_trigger": false,
      "taf_trigger": false,
      "metar": "METAR EPWR 291500Z 06007KT 9000 OVC012 00/M02 Q1002",
      "taf": "TAF EPWR 291430Z 2915/3015 08008KT 9999 OVC013"
    },
    {
      "icao": "ESGG",
      "alert": "OK",
      "vis_m": 9999,
      "fzfg": false,
      "metar_trigger": false,
      "taf_trigger": false,
      "metar": "METAR ESGG 291450Z 07008KT 9999 BKN029 M03/M10 Q1012",
      "taf": "TAF ESGG 291430Z 2915/3015 08010KT 9999 OVC030"
    },
    {
      "icao": "ESKN",
      "alert": "OK",
      "vis_m": 9999,
      "fzfg": false,
      "metar_trigger": false,
      "taf_trigger": false,
      "metar": "METAR ESKN 291450Z 06008KT 9999 BKN030 M03/M08 Q1017",
      "taf": "TAF ESKN 291430Z 2915/3015 07009KT 9999 BKN030"
    },
    {
      "icao": "ESMS",
      "alert": "OK",
      "vis_m": 9000,
      "fzfg": false,
      "metar_trigger": false,
      "taf_trigger": false,
      "metar": "METAR ESMS 291450Z 09015KT 9000 OVC018 M02/M05 Q1009",
      "taf": "TAF ESMS 291427Z 2915/3015 08018KT 9999 OVC020"
    },
    {
      "icao": "ESSA",
      "alert": "OK",
      "vis_m": 9999,
      "fzfg": false,
      "metar_trigger": false,
      "taf_trigger": false,
      "metar": "METAR ESSA 291450Z 04009KT 9999 BKN023 M06/M08 Q1019 NOSIG",
      "taf": "TAF ESSA 291430Z 2915/3015 05008KT 9999 BKN020"
    },
    {
      "icao": "EYKA",
      "alert": "OK",
      "vis_m": 9999,
      "fzfg": false,
      "metar_trigger": false,
      "taf_trigger": false,
      "metar": "METAR EYKA 291450Z 03006KT 340V060 CAVOK M11/M14 Q1012",
      "taf": "TAF EYKA 291102Z 2912/3012 VRB04KT 9000 OVC015"
    },
    {
      "icao": "EYPA",
      "alert": "OK",
      "vis_m": 9999,
      "fzfg": false,
      "metar_trigger": false,
      "taf_trigger": false,
      "metar": "METAR EYPA 291450Z 07008KT 040V100 CAVOK M09/M14 Q1013",
      "taf": "TAF EYPA 291100Z 2912/3012 07013KT 9000 NSC"
    },
    {
      "icao": "EYVI",
      "alert": "OK",
      "vis_m": 9999,
      "fzfg": false,
      "metar_trigger": false,
      "taf_trigger": false,
      "metar": "METAR EYVI 291450Z 05009KT 9999 -SN OVC012 M10/M13 Q1010 NOSIG",
      "taf": "TAF EYVI 291100Z 2912/3012 06011KT 7000 BKN010"
    },
    {
      "icao": "GCFV",
      "alert": "OK",
      "vis_m": 9999,
      "fzfg": false,
      "metar_trigger": false,
      "taf_trigger": false,
      "metar": "METAR GCFV 291500Z 33012KT 280V010 9999 SCT035 22/12 Q1023",
      "taf": "TAF GCFV 291400Z 2915/3015 34009KT 9999 BKN035 TX23/3014Z TN15/3006Z"
    },
    {
      "icao": "GCLP",
      "alert": "OK",
      "vis_m": 9999,
      "fzfg": false,
      "metar_trigger": false,
      "taf_trigger": false,
      "metar": "METAR GCLP 291500Z 01014KT 330V050 9999 BKN034 22/14 Q1023 NOSIG",
      "taf": "TAF GCLP 291400Z 2915/3015 02012KT 9999 BKN035 TX23/3014Z TN16/3006Z"
    },
    {
      "icao": "GCTS",
      "alert": "OK",
      "vis_m": 9999,
      "fzfg": false,
      "metar_trigger": false,
      "taf_trigger": false,
      "metar": "METAR GCTS 291500Z 21005KT 150V250 9999 OVC030 21/12 Q1024 NOSIG",
      "taf": "TAF GCTS 291400Z 2915/3015 21006KT 9999 SCT020 BKN030 TX24/3014Z TN16/3006Z"
    },
    {
      "icao": "GMAD",
      "alert": "OK",
      "vis_m": 8000,
      "fzfg": false,
      "metar_trigger": false,
      "taf_trigger": false,
      "metar": "METAR GMAD 291500Z 26010KT 8000 FEW026 BKN033 18/17 Q1020 NOSIG",
      "taf": "TAF GMAD 291100Z 2912/3018 28012KT 8000 SCT020 BKN080"
    },
    {
      "icao": "GMMN",
      "alert": "OK",
      "vis_m": 9999,
      "fzfg": false,
      "metar_trigger": false,
      "taf_trigger": false,
      "metar": "METAR GMMN 291500Z 25011KT 9999 BKN006 BKN016 18/15 Q1020 NOSIG",
      "taf": "TAF GMMN 291100Z 2912/3018 23013KT 9999 BKN008"
    },
    {
      "icao": "GMMX",
      "alert": "OK",
      "vis_m": 8000,
      "fzfg": false,
      "metar_trigger": false,
      "taf_trigger": false,
      "metar": "METAR GMMX 291500Z 24004KT 180V310 8000 BKN020 17/12 Q1022 NOSIG",
      "taf": "TAF GMMX 291100Z 2912/3018 24010KT 8000 SCT020 SCT080"
    },
    {
      "icao": "HEGN",
      "alert": "OK",
      "vis_m": 9999,
      "fzfg": false,
      "metar_trigger": false,
      "taf_trigger": false,
      "metar": "METAR HEGN 291400Z 06004KT CAVOK 21/09 Q1018 NOSIG",
      "taf": "TAF HEGN 291100Z 2912/3018 06008KT CAVOK"
    },
    {
      "icao": "HEMA",
      "alert": "OK",
      "vis_m": 4000,
      "fzfg": false,
      "metar_trigger": false,
      "taf_trigger": false,
      "metar": "METAR HEMA 291400Z 02007KT 4000 DU NSC 21/10 Q1017 NOSIG",
      "taf": "TAF HEMA 291100Z 2912/3018 05008KT 6000 NSC"
    },
    {
      "icao": "HESH",
      "alert": "OK",
      "vis_m": 9999,
      "fzfg": false,
      "metar_trigger": false,
      "taf_trigger": false,
      "metar": "METAR HESH 291400Z 14005KT CAVOK 22/07 Q1018 NOSIG",
      "taf": "TAF HESH 291100Z 2912/3018 35008KT CAVOK"
    },
    {
      "icao": "HESX",
      "alert": "OK",
      "vis_m": 9999,
      "fzfg": false,
      "metar_trigger": false,
      "taf_trigger": false,
      "metar": "METAR HESX 291400Z 23018KT CAVOK 19/04 Q1017 NOSIG",
      "taf": "TAF HESX 291100Z 2912/3018 19012KT 9999 SCT025"
    },
    {
      "icao": "LATI",
      "alert": "OK",
      "vis_m": 9999,
      "fzfg": false,
      "metar_trigger": false,
      "taf_trigger": false,
      "metar": "METAR LATI 291450Z VRB03KT 9999 -RA SCT042 OVC060 12/07 Q0993 NOSIG",
      "taf": "TAF LATI 291100Z 2912/3012 VRB05KT 9999 SCT040 BKN070 TX15/2912Z TN08/3005Z"
    },
    {
      "icao": "LBPD",
      "alert": "OK",
      "vis_m": 7000,
      "fzfg": false,
      "metar_trigger": false,
      "taf_trigger": false,
      "metar": "METAR LBPD 291500Z AUTO 31004KT 7000 -RA SCT010/// OVC016/// 07/07 Q0994 TEMPO 3500 RA",
      "taf": "TAF LBPD 291100Z 2912/3012 VRB04KT 9999 -RA SCT020 BKN030"
    },
    {
      "icao": "LBSF",
      "alert": "OK",
      "vis_m": 9999,
      "fzfg": false,
      "metar_trigger": false,
      "taf_trigger": false,
      "metar": "METAR LBSF 291500Z 03003KT 9999 -RA SCT046 BKN053 OVC064 08/05 Q0994 NOSIG",
      "taf": "TAF LBSF 291100Z 2912/3012 12010KT 9999 SCT030 BKN050"
    },
    {
      "icao": "LBWN",
      "alert": "OK",
      "vis_m": 4700,
      "fzfg": false,
      "metar_trigger": false,
      "taf_trigger": false,
      "metar": "METAR LBWN 291500Z AUTO 10008KT 4700 RA OVC004/// 10/10 Q0995 NOSIG",
      "taf": "TAF LBWN 291100Z 2912/3012 09010KT 4000 RA BKN010 OVC030"
    },
    {
      "icao": "LCLK",
      "alert": "OK",
      "vis_m": 8000,
      "fzfg": false,
      "metar_trigger": false,
      "taf_trigger": false,
      "metar": "METAR LCLK 291500Z 18006KT 140V210 8000 -SHRA FEW010 SCT030 BKN050 16/15 Q1014 RERA NOSIG",
      "taf": "TAF LCLK 291130Z 2912/3012 22018KT 9999 FEW030 SCT040"
    },
    {
      "icao": "LCPH",
      "alert": "OK",
      "vis_m": 9999,
      "fzfg": false,
      "metar_trigger": false,
      "taf_trigger": false,
      "metar": "METAR LCPH 291500Z 15005KT 9999 SCT040 BKN050 17/13 Q1013 NOSIG",
      "taf": "TAF LCPH 291130Z 2912/3012 18016KT 9999 FEW030 SCT040"
    },
    {
      "icao": "LEAL",
      "alert": "OK",
      "vis_m": 9999,
      "fzfg": false,
      "metar_trigger": false,
      "taf_trigger": false,
      "metar": "METAR LEAL 291500Z VRB02KT 9999 FEW070 18/10 Q1002 NOSIG",
      "taf": "TAF LEAL 291100Z 2912/3012 22010KT 9999 FEW040 TX21/2914Z TN11/3006Z"
    },
    {
      "icao": "LEBB",
      "alert": "OK",
      "vis_m": 9999,
      "fzfg": false,
      "metar_trigger": false,
      "taf_trigger": false,
      "metar": "METAR LEBB 291500Z VRB04KT 9999 FEW070 18/07 Q0998 NOSIG",
      "taf": "TAF LEBB 291100Z 2912/3012 22009KT 9999 FEW030 TX17/2915Z TN08/3003Z"
    },
    {
      "icao": "LEBL",
      "alert": "OK",
      "vis_m": 9999,
      "fzfg": false,
      "metar_trigger": false,
      "taf_trigger": false,
      "metar": "METAR LEBL 291500Z 24018KT 9999 FEW022 13/08 Q1000 NOSIG",
      "taf": "TAF LEBL 291100Z 2912/3012 VRB04KT 9999 FEW025 TX15/2912Z TN09/3006Z"
    },
    {
      "icao": "LECH",
      "alert": "OK",
      "vis_m": 8000,
      "fzfg": false,
      "metar_trigger": false,
      "taf_trigger": false,
      "metar": "METAR LECH 291500Z VRB02KT 8000 -RA FEW055 OVC068 11/09 Q1002",
      "taf": ""
    },
    {
      "icao": "LEMD",
      "alert": "OK",
      "vis_m": 9999,
      "fzfg": false,
      "metar_trigger": false,
      "taf_trigger": false,
      "metar": "METAR LEMD 291500Z 32005KT 270V360 9999 FEW030 BKN080 11/08 Q1003 NOSIG",
      "taf": ""
    },
    {
      "icao": "LEMG",
      "alert": "OK",
      "vis_m": 9999,
      "fzfg": false,
      "metar_trigger": false,
      "taf_trigger": false,
      "metar": "METAR LEMG 291500Z 26006KT 190V320 9999 SCT050 21/13 Q1010 NOSIG",
      "taf": "TAF LEMG 291100Z 2912/3012 29007KT 9999 FEW020 BKN025 TX22/2914Z TN11/3006Z"
    },
    {
      "icao": "LEVC",
      "alert": "OK",
      "vis_m": 9999,
      "fzfg": false,
      "metar_trigger": false,
      "taf_trigger": false,
      "metar": "METAR LEVC 291500Z 24011KT 210V280 9999 BKN042 20/14 Q1000 NOSIG",
      "taf": "TAF LEVC 291100Z 2912/3012 27009KT 9999 FEW030 TX22/2914Z TN12/3006Z"
    },
    {
      "icao": "LEXJ",
      "alert": "OK",
      "vis_m": 9999,
      "fzfg": false,
      "metar_trigger": false,
      "taf_trigger": false,
      "metar": "METAR LEXJ 291500Z 19005KT 150V260 9999 FEW060 BKN085 18/05 Q0997",
      "taf": "TAF LEXJ 291400Z 2915/3015 22009KT 9999 FEW040 TX18/2915Z TN08/3002Z"
    },
    {
      "icao": "LEZG",
      "alert": "OK",
      "vis_m": 9999,
      "fzfg": false,
      "metar_trigger": false,
      "taf_trigger": false,
      "metar": "METAR LEZG 291500Z 03007KT 330V060 9999 SCT060 09/09 Q1001 NOSIG",
      "taf": "TAF LEZG 291100Z 2912/3012 10006KT 9999 FEW040 TX14/2913Z TN08/3006Z"
    },
    {
      "icao": "LEZL",
      "alert": "OK",
      "vis_m": 9999,
      "fzfg": false,
      "metar_trigger": false,
      "taf_trigger": false,
      "metar": "METAR LEZL 291500Z 24019G29KT 210V270 9999 BKN011 18/16 Q1011 NOSIG",
      "taf": "TAF LEZL 291400Z 2915/3015 23014KT 8000 FEW010 BKN016 TX19/2915Z TN10/3007Z"
    },
    {
      "icao": "LFBD",
      "alert": "OK",
      "vis_m": 9999,
      "fzfg": false,
      "metar_trigger": false,
      "taf_trigger": false,
      "metar": "METAR LFBD 291500Z AUTO 21008KT 170V260 9999 BKN018/// BKN023/// OVC030/// ///TCU 11/10 Q0996 TEMPO 4000 SHRA BKN007 BKN030TCU",
      "taf": ""
    },
    {
      "icao": "LFLL",
      "alert": "OK",
      "vis_m": 9999,
      "fzfg": false,
      "metar_trigger": false,
      "taf_trigger": false,
      "metar": "METAR LFLL 291500Z 08004KT 040V100 9999 FEW021 09/03 Q0999 NOSIG",
      "taf": "TAF LFLL 291100Z 2912/3018 VRB02KT CAVOK"
    },
    {
      "icao": "LFLS",
      "alert": "OK",
      "vis_m": 9999,
      "fzfg": false,
      "metar_trigger": false,
      "taf_trigger": false,
      "metar": "METAR LFLS 291500Z AUTO 10005KT 9999 FEW020 08/02 Q0999 NOSIG",
      "taf": "TAF LFLS 291400Z 2915/3015 VRB03KT CAVOK"
    },
    {
      "icao": "LFMN",
      "alert": "OK",
      "vis_m": 9999,
      "fzfg": false,
      "metar_trigger": false,
      "taf_trigger": false,
      "metar": "METAR LFMN 291500Z 05003KT CAVOK 14/04 Q0995 NOSIG",
      "taf": "TAF LFMN 291400Z 2915/3021 16006KT CAVOK"
    },
    {
      "icao": "LFOB",
      "alert": "OK",
      "vis_m": 3300,
      "fzfg": false,
      "metar_trigger": false,
      "taf_trigger": false,
      "metar": "METAR LFOB 291500Z AUTO 14008KT 3300 BR OVC001 02/02 Q0998 BECMG 9999 NSW BKN008 OVC012",
      "taf": "TAF LFOB 291100Z 2912/3012 16007KT 3000 BR OVC003"
    },
    {
      "icao": "LFPO",
      "alert": "OK",
      "vis_m": 8000,
      "fzfg": false,
      "metar_trigger": false,
      "taf_trigger": false,
      "metar": "METAR LFPO 291500Z 15005KT 120V190 8000 OVC005 04/03 Q0998 NOSIG",
      "taf": ""
    },
    {
      "icao": "LFSB",
      "alert": "OK",
      "vis_m": 9999,
      "fzfg": false,
      "metar_trigger": false,
      "taf_trigger": false,
      "metar": "METAR LFSB 291500Z AUTO 28008KT 9999 BKN036 07/03 Q1000 NOSIG",
      "taf": "TAF LFSB 291100Z 2912/3012 17004KT 9999 SCT015 BKN030"
    },
    {
      "icao": "LGAV",
      "alert": "OK",
      "vis_m": 9999,
      "fzfg": false,
      "metar_trigger": false,
      "taf_trigger": false,
      "metar": "METAR LGAV 291450Z 28004KT 210V330 9999 FEW020 SCT070 16/09 Q0993 NOSIG",
      "taf": "TAF LGAV 291100Z 2912/3012 19020KT 9999 SCT018 BKN070"
    },
    {
      "icao": "LGTS",
      "alert": "OK",
      "vis_m": 4000,
      "fzfg": false,
      "metar_trigger": false,
      "taf_trigger": false,
      "metar": "METAR LGTS 291450Z 29007KT 4000 BR SCT005 BKN020 11/11 Q0992 NOSIG",
      "taf": "TAF LGTS 291100Z 2912/3012 34010KT 9999 SCT008 BKN025"
    },
    {
      "icao": "LHBP",
      "alert": "OK",
      "vis_m": 9000,
      "fzfg": false,
      "metar_trigger": false,
      "taf_trigger": false,
      "metar": "METAR LHBP 291500Z 01004KT 340V040 9000 -RA OVC007 06/05 Q0996 NOSIG",
      "taf": "TAF LHBP 291115Z 2912/3012 06007KT 8000 -RA SCT006 OVC020"
    },
    {
      "icao": "LHDC",
      "alert": "OK",
      "vis_m": 9999,
      "fzfg": false,
      "metar_trigger": false,
      "taf_trigger": false,
      "metar": "METAR LHDC 291445Z AUTO 07010KT 9999 BKN028 BKN088 07/04 Q0996 NOSIG",
      "taf": "TAF LHDC 291415Z 2915/2924 06010KT 9999 BKN025"
    },
    {
      "icao": "LIBD",
      "alert": "OK",
      "vis_m": 9999,
      "fzfg": false,
      "metar_trigger": false,
      "taf_trigger": false,
      "metar": "METAR LIBD 291450Z 26006KT 9999 FEW020 BKN040 11/09 Q0995",
      "taf": "TAF LIBD 291100Z 2912/3012 29012KT 9999 FEW020 SCT050"
    },
    {
      "icao": "LIBG",
      "alert": "OK",
      "vis_m": 8000,
      "fzfg": false,
      "metar_trigger": false,
      "taf_trigger": false,
      "metar": "METAR LIBG 291450Z 29005KT 260V320 8000 -RA SCT030 SCT040 11/09 Q0995",
      "taf": "TAF LIBG 291400Z 2915/2924 32008KT 9999 SCT030"
    },
    {
      "icao": "LIBP",
      "alert": "OK",
      "vis_m": 9999,
      "fzfg": false,
      "metar_trigger": false,
      "taf_trigger": false,
      "metar": "METAR LIBP 291450Z AUTO 05006KT 9999 NCD 12/06 Q0996",
      "taf": "TAF LIBP 291100Z 2912/3012 36010KT 9999 SCT060"
    },
    {
      "icao": "LIBR",
      "alert": "OK",
      "vis_m": 9999,
      "fzfg": false,
      "metar_trigger": false,
      "taf_trigger": false,
      "metar": "METAR LIBR 291450Z 31017KT 9999 FEW005 12/08 Q0994",
      "taf": "TAF LIBR 291100Z 2912/3012 33015KT 9999 SCT020"
    },
    {
      "icao": "LICA",
      "alert": "OK",
      "vis_m": 9999,
      "fzfg": false,
      "metar_trigger": false,
      "taf_trigger": false,
      "metar": "METAR LICA 291450Z AUTO 29020G30KT 9999 -RA BKN031/// 12/09 Q0998",
      "taf": "TAF LICA 291100Z 2912/3012 27022G34KT 9999 BKN020"
    },
    {
      "icao": "LICC",
      "alert": "OK",
      "vis_m": 9999,
      "fzfg": false,
      "metar_trigger": false,
      "taf_trigger": false,
      "metar": "METAR LICC 291450Z 28013KT 9999 FEW030 17/14 Q1000",
      "taf": "TAF LICC 291100Z 2912/3012 26025G37KT 9999 SCT030"
    },
    {
      "icao": "LICJ",
      "alert": "OK",
      "vis_m": 9999,
      "fzfg": false,
      "metar_trigger": false,
      "taf_trigger": false,
      "metar": "METAR LICJ 291450Z 27020KT 9999 FEW035 15/07 Q1002",
      "taf": "TAF LICJ 291100Z 2912/3012 29026G36KT 9999 SCT040"
    },
    {
      "icao": "LIMC",
      "alert": "OK",
      "vis_m": 2500,
      "fzfg": false,
      "metar_trigger": false,
      "taf_trigger": false,
      "metar": "METAR LIMC 291450Z VRB02KT 2500 BR BKN003 05/05 Q0996 NOSIG",
      "taf": "TAF LIMC 291100Z 2912/3018 VRB05KT 1200 BCFG OVC005"
    },
    {
      "icao": "LIME",
      "alert": "OK",
      "vis_m": 9999,
      "fzfg": false,
      "metar_trigger": false,
      "taf_trigger": false,
      "metar": "METAR LIME 291450Z 19003KT 140V280 9999 FEW040 09/05 Q0996 NOSIG",
      "taf": "TAF LIME 291100Z 2912/3012 VRB04KT 6000 SCT015"
    },
    {
      "icao": "LIMF",
      "alert": "OK",
      "vis_m": 8000,
      "fzfg": false,
      "metar_trigger": false,
      "taf_trigger": false,
      "metar": "METAR LIMF 291450Z 12003KT 080V180 8000 NSC 10/03 Q0996",
      "taf": "TAF LIMF 291100Z 2912/3012 VRB04KT 7000 SCT020"
    },
    {
      "icao": "LIMJ",
      "alert": "OK",
      "vis_m": 9999,
      "fzfg": false,
      "metar_trigger": false,
      "taf_trigger": false,
      "metar": "METAR LIMJ 291450Z 18004KT 9999 FEW030 13/07 Q0996",
      "taf": "TAF LIMJ 291100Z 2912/3012 04010KT 9999 SCT040"
    },
    {
      "icao": "LIPE",
      "alert": "OK",
      "vis_m": 9999,
      "fzfg": false,
      "metar_trigger": false,
      "taf_trigger": false,
      "metar": "METAR LIPE 291450Z 26006KT 9999 BKN065 09/05 Q0997",
      "taf": "TAF LIPE 291100Z 2912/3012 VRB05KT 8000 SCT020"
    },
    {
      "icao": "LIPH",
      "alert": "OK",
      "vis_m": 8000,
      "fzfg": false,
      "metar_trigger": false,
      "taf_trigger": false,
      "metar": "METAR LIPH 291450Z 06003KT 030V090 8000 SCT010 BKN015 09/07 Q0996",
      "taf": "TAF LIPH 291100Z 2912/3012 VRB05KT 6000 BKN003"
    },
    {
      "icao": "LIPQ",
      "alert": "OK",
      "vis_m": 9999,
      "fzfg": false,
      "metar_trigger": false,
      "taf_trigger": false,
      "metar": "METAR LIPQ 291450Z AUTO 32003KT 290V350 9999 NCD 11/07 Q0996",
      "taf": "TAF LIPQ 291100Z 2912/3012 VRB05KT 9999 OVC010"
    },
    {
      "icao": "LIPR",
      "alert": "OK",
      "vis_m": 6000,
      "fzfg": false,
      "metar_trigger": false,
      "taf_trigger": false,
      "metar": "METAR LIPR 291450Z AUTO 29006KT 6000 BKN005/// 07/06 Q0997",
      "taf": "TAF LIPR 291100Z 2912/3012 VRB05KT 2000 BR BKN002"
    },
    {
      "icao": "LIPX",
      "alert": "OK",
      "vis_m": 6000,
      "fzfg": false,
      "metar_trigger": false,
      "taf_trigger": false,
      "metar": "METAR LIPX 291450Z 20004KT 6000 BKN008 BKN015 07/06 Q0997",
      "taf": "TAF LIPX 291100Z 2912/3012 24006KT 4000 BR SCT020"
    },
    {
      "icao": "LIPY",
      "alert": "OK",
      "vis_m": 9999,
      "fzfg": false,
      "metar_trigger": false,
      "taf_trigger": false,
      "metar": "METAR LIPY 291450Z AUTO 33011KT 9999 FEW004/// BKN049/// 09/08 Q0996",
      "taf": ""
    },
    {
      "icao": "LIPZ",
      "alert": "OK",
      "vis_m": 9000,
      "fzfg": false,
      "metar_trigger": false,
      "taf_trigger": false,
      "metar": "METAR LIPZ 291450Z 03004KT 320V120 9000 BKN008 08/06 Q0996 NOSIG",
      "taf": "TAF LIPZ 291100Z 2912/3018 24006KT 1000 BR BKN003"
    },
    {
      "icao": "LIRF",
      "alert": "OK",
      "vis_m": 9999,
      "fzfg": false,
      "metar_trigger": false,
      "taf_trigger": false,
      "metar": "METAR LIRF 291450Z 34010KT 9999 FEW040 14/06 Q0997 NOSIG",
      "taf": "TAF LIRF 291100Z 2912/3018 18009KT 9999 SCT030"
    },
    {
      "icao": "LIRN",
      "alert": "OK",
      "vis_m": 8000,
      "fzfg": false,
      "metar_trigger": false,
      "taf_trigger": false,
      "metar": "METAR LIRN 291450Z 26005KT 220V300 8000 -RA FEW025 BKN045 11/08 Q0997 NOSIG",
      "taf": "TAF LIRN 291100Z 2912/3012 32013KT 9999 SCT030"
    },
    {
      "icao": "LIRP",
      "alert": "OK",
      "vis_m": 9999,
      "fzfg": false,
      "metar_trigger": false,
      "taf_trigger": false,
      "metar": "METAR LIRP 291445Z 12005KT 9999 BKN040 11/08 Q0996 NOSIG",
      "taf": "TAF LIRP 291100Z 2912/3012 12005KT 9999 SCT020"
    },
    {
      "icao": "LIRZ",
      "alert": "OK",
      "vis_m": 9999,
      "fzfg": false,
      "metar_trigger": false,
      "taf_trigger": false,
      "metar": "METAR LIRZ 291450Z AUTO VRB02KT 9999 -RA BKN030/// 08/06 Q0997",
      "taf": "TAF LIRZ 291100Z 2912/3012 VRB05KT 7000 BKN025"
    },
    {
      "icao": "LJLJ",
      "alert": "OK",
      "vis_m": 9999,
      "fzfg": false,
      "metar_trigger": false,
      "taf_trigger": false,
      "metar": "METAR LJLJ 291500Z 00000KT 9999 FEW020 BKN040 08/06 Q0996 NOSIG",
      "taf": ""
    },
    {
      "icao": "LKMT",
      "alert": "OK",
      "vis_m": 2500,
      "fzfg": false,
      "metar_trigger": false,
      "taf_trigger": false,
      "metar": "METAR LKMT 291500Z 04007KT 2500 -SN BR OVC008 M00/M01 Q1000 NOSIG",
      "taf": "TAF LKMT 291100Z 2912/3012 03008KT 4500 BR OVC006"
    },
    {
      "icao": "LKPR",
      "alert": "OK",
      "vis_m": 4000,
      "fzfg": false,
      "metar_trigger": false,
      "taf_trigger": false,
      "metar": "METAR LKPR 291500Z 09005KT 4000 -SN BR FEW002 OVC004 M00/M01 Q0999 NOSIG",
      "taf": "TAF LKPR 291400Z 2915/3021 09007KT 3000 -SN BR OVC005"
    },
    {
      "icao": "LLBG",
      "alert": "OK",
      "vis_m": 9999,
      "fzfg": false,
      "metar_trigger": false,
      "taf_trigger": false,
      "metar": "METAR LLBG 291450Z 27005KT 9999 FEW045 17/10 Q1017 NOSIG",
      "taf": "TAF LLBG 291102Z 2912/3012 18010KT 9999 SCT035"
    },
    {
      "icao": "LMML",
      "alert": "OK",
      "vis_m": 9999,
      "fzfg": false,
      "metar_trigger": false,
      "taf_trigger": false,
      "metar": "METAR LMML 291445Z 28023KT 9999 FEW029 14/10 Q1004 NOSIG",
      "taf": "TAF LMML 291100Z 2912/3012 27028G38KT 9999 FEW018"
    },
    {
      "icao": "LOWW",
      "alert": "OK",
      "vis_m": 9999,
      "fzfg": false,
      "metar_trigger": false,
      "taf_trigger": false,
      "metar": "METAR LOWW 291450Z 34007KT 9999 FEW005 BKN050 02/01 Q0999 NOSIG",
      "taf": "TAF LOWW 291415Z 2915/3021 34006KT 9999 -RA SCT006 BKN015 TX03/3012Z TNM00/3005Z"
    },
    {
      "icao": "LPFR",
      "alert": "OK",
      "vis_m": 5000,
      "fzfg": false,
      "metar_trigger": false,
      "taf_trigger": false,
      "metar": "METAR LPFR 291500Z 25020KT 5000 -DZ BR OVC006 16/15 Q1012",
      "taf": "TAF LPFR 291100Z 2912/3012 25018KT 8000 SCT006 BKN012"
    },
    {
      "icao": "LPMA",
      "alert": "OK",
      "vis_m": 9999,
      "fzfg": false,
      "metar_trigger": false,
      "taf_trigger": false,
      "metar": "METAR LPMA 291500Z 04008KT 9999 FEW014 21/15 Q1021",
      "taf": "TAF LPMA 291100Z 2912/3012 VRB05KT 9999 SCT015"
    },
    {
      "icao": "LPPR",
      "alert": "OK",
      "vis_m": 7000,
      "fzfg": false,
      "metar_trigger": false,
      "taf_trigger": false,
      "metar": "METAR LPPR 291500Z 22009KT 180V260 7000 BKN011 BKN016 15/13 Q1006",
      "taf": "TAF LPPR 291100Z 2912/3012 25013KT 9999 SCT020"
    },
    {
      "icao": "LPPS",
      "alert": "OK",
      "vis_m": 9999,
      "fzfg": false,
      "metar_trigger": false,
      "taf_trigger": false,
      "metar": "METAR LPPS 291500Z 28013KT 9999 FEW012 BKN030 19/16 Q1021",
      "taf": "TAF LPPS 291100Z 2912/3018 28013KT 9999 SCT012"
    },
    {
      "icao": "LPPT",
      "alert": "OK",
      "vis_m": 9999,
      "fzfg": false,
      "metar_trigger": false,
      "taf_trigger": false,
      "metar": "METAR LPPT 291500Z 25013KT 9999 FEW008 SCT012 15/15 Q1009",
      "taf": "TAF LPPT 291100Z 2912/3018 25015KT 6000 -RA SCT004 BKN008"
    },
    {
      "icao": "LQBK",
      "alert": "OK",
      "vis_m": 9999,
      "fzfg": false,
      "metar_trigger": false,
      "taf_trigger": false,
      "metar": "METAR LQBK 291500Z 32010KT 9999 FEW045 10/06 Q0995 NOSIG",
      "taf": "TAF LQBK 291100Z 2912/3012 VRB03KT 9999 SCT045 TX11/2913Z TN02/3006Z"
    },
    {
      "icao": "LQSA",
      "alert": "OK",
      "vis_m": 9999,
      "fzfg": false,
      "metar_trigger": false,
      "taf_trigger": false,
      "metar": "METAR LQSA 291500Z 32003KT 9999 SCT055 11/02 Q0994 NOSIG",
      "taf": "TAF LQSA 291100Z 2912/3012 VRB02KT 9999 SCT050 TX12/2914Z TN03/3005Z"
    },
    {
      "icao": "LQTZ",
      "alert": "OK",
      "vis_m": 9999,
      "fzfg": false,
      "metar_trigger": false,
      "taf_trigger": false,
      "metar": "METAR LQTZ 291500Z 03007KT 360V060 9999 SCT060 12/04 Q0994",
      "taf": "TAF LQTZ 291100Z 2912/3012 27005KT 9999 SCT050 TX15/2913Z TN02/3006Z"
    },
    {
      "icao": "LRBC",
      "alert": "OK",
      "vis_m": 4000,
      "fzfg": false,
      "metar_trigger": false,
      "taf_trigger": false,
      "metar": "METAR LRBC 291500Z 35007KT 4000 BR BKN002 OVC008 03/02 Q1000",
      "taf": "TAF LRBC 291400Z 2915/2924 34008KT 7000 OVC005"
    },
    {
      "icao": "LRBS",
      "alert": "OK",
      "vis_m": 9999,
      "fzfg": false,
      "metar_trigger": false,
      "taf_trigger": false,
      "metar": "METAR LRBS 291500Z 05011KT 020V080 CAVOK 08/06 Q0997 NOSIG",
      "taf": "TAF LRBS 291100Z 2912/3012 VRB04KT CAVOK"
    },
    {
      "icao": "LRBV",
      "alert": "OK",
      "vis_m": 9999,
      "fzfg": false,
      "metar_trigger": false,
      "taf_trigger": false,
      "metar": "METAR LRBV 291500Z 09006KT CAVOK 08/01 Q0995",
      "taf": "TAF LRBV 291400Z 2915/2924 VRB04KT CAVOK"
    },
    {
      "icao": "LRCL",
      "alert": "OK",
      "vis_m": 5000,
      "fzfg": false,
      "metar_trigger": false,
      "taf_trigger": false,
      "metar": "METAR LRCL 291500Z 00000KT 5000 BR FEW004 BKN036 03/02 Q0996",
      "taf": "TAF LRCL 291400Z 2915/2924 VRB04KT 5000 -RA BR SCT005 BKN030"
    },
    {
      "icao": "LRCV",
      "alert": "OK",
      "vis_m": 9999,
      "fzfg": false,
      "metar_trigger": false,
      "taf_trigger": false,
      "metar": "METAR LRCV 291500Z 16004KT CAVOK 08/06 Q0996",
      "taf": "TAF LRCV 291400Z 2915/2924 VRB04KT CAVOK"
    },
    {
      "icao": "LRIA",
      "alert": "OK",
      "vis_m": 3000,
      "fzfg": false,
      "metar_trigger": false,
      "taf_trigger": false,
      "metar": "METAR LRIA 291500Z COR 34006KT 3000 -SN BR OVC001 02/02 Q1000",
      "taf": "TAF LRIA 291400Z 2915/2924 32007KT 3000 BR OVC001"
    },
    {
      "icao": "LROP",
      "alert": "OK",
      "vis_m": 6000,
      "fzfg": false,
      "metar_trigger": false,
      "taf_trigger": false,
      "metar": "METAR LROP 291500Z 06011KT 6000 NSC 08/06 Q0997 NOSIG",
      "taf": "TAF LROP 291100Z 2912/3012 VRB04KT CAVOK"
    },
    {
      "icao": "LRSB",
      "alert": "OK",
      "vis_m": 9999,
      "fzfg": false,
      "metar_trigger": false,
      "taf_trigger": false,
      "metar": "METAR LRSB 291500Z 32005KT 9999 SCT070 06/04 Q0995 NOSIG",
      "taf": "TAF LRSB 291100Z 2912/3012 VRB04KT CAVOK"
    },
    {
      "icao": "LRSM",
      "alert": "OK",
      "vis_m": 9999,
      "fzfg": false,
      "metar_trigger": false,
      "taf_trigger": false,
      "metar": "METAR LRSM 291500Z 10006KT 9999 BKN030 06/03 Q0997",
      "taf": "TAF LRSM 291400Z 2915/2924 10007KT 9999 OVC030"
    },
    {
      "icao": "LRSV",
      "alert": "OK",
      "vis_m": 1500,
      "fzfg": false,
      "metar_trigger": false,
      "taf_trigger": false,
      "metar": "METAR LRSV 291500Z 36007KT 1500 SN BR BKN002 BKN025 00/M00 Q0999",
      "taf": "TAF LRSV 291400Z 2915/2924 35006KT 1500 -SN BR OVC002"
    },
    {
      "icao": "LRTM",
      "alert": "OK",
      "vis_m": 4500,
      "fzfg": false,
      "metar_trigger": false,
      "taf_trigger": false,
      "metar": "METAR LRTM 291500Z 23006KT 4500 BR SCT045 02/01 Q0996",
      "taf": "TAF LRTM 291400Z 2915/2924 VRB04KT 7000 SCT040"
    },
    {
      "icao": "LRTR",
      "alert": "OK",
      "vis_m": 9999,
      "fzfg": false,
      "metar_trigger": false,
      "taf_trigger": false,
      "metar": "METAR LRTR 291500Z 10004KT CAVOK 10/07 Q0994 NOSIG",
      "taf": "TAF LRTR 291100Z 2912/3012 VRB04KT CAVOK"
    },
    {
      "icao": "LTAC",
      "alert": "OK",
      "vis_m": 9999,
      "fzfg": false,
      "metar_trigger": false,
      "taf_trigger": false,
      "metar": "METAR LTAC 291450Z VRB02KT 9999 -SHRA BKN025 BKN080 08/04 Q1008 NOSIG RMK RWY21C 16006KT RWY03L VRB02KT RWY21R 15006KT 130V230 RWY03R 21009KT 170V240 RWY21L 17006KT",
      "taf": "TAF LTAC 291040Z 2912/3012 17013KT 9999 SCT033 BKN090"
    },
    {
      "icao": "LTFM",
      "alert": "OK",
      "vis_m": 9999,
      "fzfg": false,
      "metar_trigger": false,
      "taf_trigger": false,
      "metar": "METAR LTFM 291450Z 24005KT 170V290 9999 BKN032 BKN100 14/08 Q0997 NOSIG RMK RWY17L 20008G25KT 160V230 RWY34L 28005KT 210V310 RWY16R 21005KT 100V270 RWY36 17011KT RWY18 23006KT 180V280",
      "taf": "TAF LTFM 291040Z 2912/3018 15015G25KT 9999 SCT035 BKN100"
    },
    {
      "icao": "LUKK",
      "alert": "OK",
      "vis_m": 3900,
      "fzfg": false,
      "metar_trigger": false,
      "taf_trigger": false,
      "metar": "METAR LUKK 291500Z 03005KT 3900 0650SW R08/0800U BR PRFG OVC002 02/02 Q0999 NOSIG",
      "taf": "TAF LUKK 291114Z 2912/3012 VRB04KT 0300 FG VV001"
    },
    {
      "icao": "LWOH",
      "alert": "OK",
      "vis_m": 9999,
      "fzfg": false,
      "metar_trigger": false,
      "taf_trigger": false,
      "metar": "METAR LWOH 291450Z 32004KT 9999 -RA SCT020 OVC040 07/06 Q0992",
      "taf": "TAF LWOH 291410Z 2915/3015 VRB02KT 9999 RA SCT020 OVC040"
    },
    {
      "icao": "LWSK",
      "alert": "OK",
      "vis_m": 6000,
      "fzfg": false,
      "metar_trigger": false,
      "taf_trigger": false,
      "metar": "METAR LWSK 291450Z VRB01KT 6000 FEW020 BKN033 OVC070 07/06 Q0994 REDZ NOSIG",
      "taf": "TAF LWSK 291410Z 2915/3015 VRB02KT 6000 FEW020 OVC080"
    },
    {
      "icao": "LYBE",
      "alert": "OK",
      "vis_m": 9999,
      "fzfg": false,
      "metar_trigger": false,
      "taf_trigger": false,
      "metar": "METAR LYBE 291500Z 30006KT CAVOK 12/06 Q0994 NOSIG",
      "taf": "TAF LYBE 291100Z 2912/3012 19005KT CAVOK TX14/2913Z TN04/3006Z"
    },
    {
      "icao": "LYNI",
      "alert": "OK",
      "vis_m": 9999,
      "fzfg": false,
      "metar_trigger": false,
      "taf_trigger": false,
      "metar": "METAR LYNI 291500Z VRB02KT CAVOK 11/06 Q0994 NOSIG",
      "taf": "TAF LYNI 291100Z 2912/3012 04007KT 9999 BKN080 TX15/2913Z TN04/3006Z"
    },
    {
      "icao": "LYPG",
      "alert": "OK",
      "vis_m": 9999,
      "fzfg": false,
      "metar_trigger": false,
      "taf_trigger": false,
      "metar": "METAR LYPG 291500Z VRB02KT 9999 -RA SCT050 OVC070 11/10 Q0993 NOSIG",
      "taf": "TAF LYPG 291100Z 2912/3012 18005KT 9999 FEW020 SCT050 BKN083 TX13/2913Z TN06/3005Z"
    },
    {
      "icao": "LZIB",
      "alert": "OK",
      "vis_m": 9999,
      "fzfg": false,
      "metar_trigger": false,
      "taf_trigger": false,
      "metar": "METAR LZIB 291500Z 29008KT 9999 -RA FEW008 BKN022 04/03 Q0998 NOSIG",
      "taf": "TAF LZIB 291115Z 2912/3012 32005KT 9999 -RA FEW010 BKN016 OVC020"
    },
    {
      "icao": "LZKZ",
      "alert": "OK",
      "vis_m": 9999,
      "fzfg": false,
      "metar_trigger": false,
      "taf_trigger": false,
      "metar": "METAR LZKZ 291500Z 01013KT 9999 BKN034 03/01 Q0998 NOSIG",
      "taf": "TAF LZKZ 291115Z 2912/3012 01013KT 9999 FEW005 OVC030"
    },
    {
      "icao": "LZTT",
      "alert": "OK",
      "vis_m": 8000,
      "fzfg": false,
      "metar_trigger": false,
      "taf_trigger": false,
      "metar": "METAR LZTT 291500Z 06007KT 8000 -SN SCT005 OVC016 M00/M01 Q0997 NOSIG",
      "taf": ""
    },
    {
      "icao": "OEJN",
      "alert": "OK",
      "vis_m": 9999,
      "fzfg": false,
      "metar_trigger": false,
      "taf_trigger": false,
      "metar": "METAR OEJN 291500Z 31009KT CAVOK 26/14 Q1014 NOSIG",
      "taf": "TAF OEJN 291100Z 2912/3018 30015KT CAVOK"
    },
    {
      "icao": "OEMA",
      "alert": "OK",
      "vis_m": 9999,
      "fzfg": false,
      "metar_trigger": false,
      "taf_trigger": false,
      "metar": "METAR OEMA 291500Z 32004KT CAVOK 24/M06 Q1019 NOSIG",
      "taf": "TAF OEMA 291100Z 2912/3018 09010KT CAVOK"
    },
    {
      "icao": "OJAI",
      "alert": "OK",
      "vis_m": 5000,
      "fzfg": false,
      "metar_trigger": false,
      "taf_trigger": false,
      "metar": "METAR OJAI 291500Z 20008KT 5000 HZ FEW030 13/05 Q1019 NOSIG",
      "taf": "TAF OJAI 290955Z 2912/3018 26012KT 5000 HZ SCT025 SCT030"
    },
    {
      "icao": "OMAA",
      "alert": "OK",
      "vis_m": 9999,
      "fzfg": false,
      "metar_trigger": false,
      "taf_trigger": false,
      "metar": "METAR OMAA 291500Z 33006KT CAVOK 23/09 Q1016 NOSIG",
      "taf": "TAF OMAA 291100Z 2912/3018 32010KT 8000 NSC"
    },
    {
      "icao": "OMDB",
      "alert": "OK",
      "vis_m": 9999,
      "fzfg": false,
      "metar_trigger": false,
      "taf_trigger": false,
      "metar": "METAR OMDB 291500Z 24004KT 220V280 CAVOK 24/11 Q1016 NOSIG",
      "taf": "TAF OMDB 291100Z 2912/3018 29012KT 8000 FEW045"
    },
    {
      "icao": "UAAA",
      "alert": "OK",
      "vis_m": 3600,
      "fzfg": false,
      "metar_trigger": false,
      "taf_trigger": false,
      "metar": "METAR UAAA 291500Z 02002MPS 350V050 3600 BR OVC010 M01/M03 Q1027 NOSIG",
      "taf": "TAF UAAA 291105Z 2912/3012 02002MPS 1100 BR BKN004 OVC011 TXM01/3008Z TNM06/3002Z"
    },
    {
      "icao": "UBBB",
      "alert": "OK",
      "vis_m": 9999,
      "fzfg": false,
      "metar_trigger": false,
      "taf_trigger": false,
      "metar": "METAR UBBB 291500Z 15004KT CAVOK 06/05 Q1013 NOSIG",
      "taf": "TAF UBBB 291048Z 2912/3012 17006KT 9999 BKN030 TX07/2912Z TN04/3001Z"
    },
    {
      "icao": "UDSG",
      "alert": "OK",
      "vis_m": 4300,
      "fzfg": false,
      "metar_trigger": false,
      "taf_trigger": false,
      "metar": "METAR UDSG 291500Z 14004KT 4300 BR NSC M11/M12 Q1015 NOSIG",
      "taf": "TAF UDSG 291100Z 2912/3012 VRB06KT 5000 BR FEW040"
    },
    {
      "icao": "UDYZ",
      "alert": "OK",
      "vis_m": 3200,
      "fzfg": false,
      "metar_trigger": false,
      "taf_trigger": false,
      "metar": "METAR UDYZ 291500Z 18002KT 3200 BR FEW020 M02/M05 Q1018 NOSIG",
      "taf": "TAF UDYZ 291100Z 2912/3012 VRB04KT 2300 BR FEW020"
    },
    {
      "icao": "UGKO",
      "alert": "OK",
      "vis_m": 9999,
      "fzfg": false,
      "metar_trigger": false,
      "taf_trigger": false,
      "metar": "METAR UGKO 291500Z 09003KT 060V140 CAVOK 12/01 Q1010 NOSIG",
      "taf": "TAF UGKO 291100Z 2912/3012 09007KT CAVOK TX17/2912Z TN05/3003Z"
    }
  ]
}