{
  "ts_utc": "2026-07-21T19:44:38Z",
  "threshold_m": 150,
  "source": "stations_override.txt (ICAO list) + aviationweather.gov (METAR/TAF raw)",
  "station_count": 159,
  "stations": [
    {
      "icao": "BIKF",
      "alert": "OK",
      "vis_m": 3000,
      "fzfg": false,
      "metar_trigger": false,
      "taf_trigger": false,
      "metar": "METAR BIKF 211930Z 21011KT 3000 -DZ BR OVC002 11/11 Q1026",
      "taf": "TAF BIKF 211633Z 2118/2218 22010KT 2000 -DZ BR OVC003 TX11/2212Z TN10/2204Z"
    },
    {
      "icao": "BKPR",
      "alert": "OK",
      "vis_m": 9999,
      "fzfg": false,
      "metar_trigger": false,
      "taf_trigger": false,
      "metar": "METAR BKPR 211930Z 17010KT 9999 FEW045 SCT080 18/16 Q1017 RETS NOSIG",
      "taf": "TAF BKPR 211730Z 2118/2218 36008KT 9999 SCT050"
    },
    {
      "icao": "EBCI",
      "alert": "OK",
      "vis_m": 9999,
      "fzfg": false,
      "metar_trigger": false,
      "taf_trigger": false,
      "metar": "METAR EBCI 211920Z 34007KT 280V010 CAVOK 19/10 Q1025 NOSIG",
      "taf": "TAF EBCI 211707Z 2118/2224 34007KT 9999 FEW045"
    },
    {
      "icao": "EDDB",
      "alert": "OK",
      "vis_m": 9999,
      "fzfg": false,
      "metar_trigger": false,
      "taf_trigger": false,
      "metar": "METAR EDDB 211920Z AUTO 33004KT CAVOK 19/07 Q1020 BECMG 36005KT",
      "taf": "TAF EDDB 211700Z 2118/2218 36010KT CAVOK"
    },
    {
      "icao": "EDDH",
      "alert": "OK",
      "vis_m": 9999,
      "fzfg": false,
      "metar_trigger": false,
      "taf_trigger": false,
      "metar": "METAR EDDH 211920Z AUTO 30006KT 9999 FEW026 16/11 Q1022 NOSIG",
      "taf": "TAF EDDH 211700Z 2118/2224 31011KT 9999 FEW040"
    },
    {
      "icao": "EDDK",
      "alert": "OK",
      "vis_m": 9999,
      "fzfg": false,
      "metar_trigger": false,
      "taf_trigger": false,
      "metar": "METAR EDDK 211920Z AUTO 33005KT CAVOK 20/07 Q1023 NOSIG",
      "taf": "TAF EDDK 211700Z 2118/2224 35008KT CAVOK"
    },
    {
      "icao": "EDDN",
      "alert": "OK",
      "vis_m": 9999,
      "fzfg": false,
      "metar_trigger": false,
      "taf_trigger": false,
      "metar": "METAR EDDN 211920Z AUTO 06005KT CAVOK 17/10 Q1023 NOSIG",
      "taf": "TAF EDDN 211700Z 2118/2218 VRB03KT CAVOK"
    },
    {
      "icao": "EDDS",
      "alert": "OK",
      "vis_m": 9999,
      "fzfg": false,
      "metar_trigger": false,
      "taf_trigger": false,
      "metar": "METAR EDDS 211920Z AUTO 30005KT CAVOK 20/06 Q1023 NOSIG",
      "taf": "TAF EDDS 211700Z 2118/2218 34007KT CAVOK"
    },
    {
      "icao": "EDFH",
      "alert": "OK",
      "vis_m": 9999,
      "fzfg": false,
      "metar_trigger": false,
      "taf_trigger": false,
      "metar": "METAR EDFH 211920Z 35005KT CAVOK 18/05 Q1024",
      "taf": "TAF EDFH 211700Z 2118/2218 01008KT CAVOK"
    },
    {
      "icao": "EDJA",
      "alert": "OK",
      "vis_m": 9999,
      "fzfg": false,
      "metar_trigger": false,
      "taf_trigger": false,
      "metar": "METAR EDJA 211920Z 02007KT CAVOK 16/09 Q1023",
      "taf": "TAF EDJA 211700Z 2118/2203 03007KT CAVOK"
    },
    {
      "icao": "EDLW",
      "alert": "OK",
      "vis_m": 9999,
      "fzfg": false,
      "metar_trigger": false,
      "taf_trigger": false,
      "metar": "METAR EDLW 211920Z VRB03KT CAVOK 21/09 Q1023",
      "taf": "TAF EDLW 211700Z 2118/2218 32005KT CAVOK"
    },
    {
      "icao": "EDNY",
      "alert": "OK",
      "vis_m": 9999,
      "fzfg": false,
      "metar_trigger": false,
      "taf_trigger": false,
      "metar": "METAR EDNY 211920Z 03005KT CAVOK 20/08 Q1022",
      "taf": "TAF EDNY 211700Z 2118/2203 03006KT CAVOK"
    },
    {
      "icao": "EDSB",
      "alert": "OK",
      "vis_m": 9999,
      "fzfg": false,
      "metar_trigger": false,
      "taf_trigger": false,
      "metar": "METAR EDSB 211920Z 01004KT CAVOK 21/07 Q1022",
      "taf": "TAF EDSB 211700Z 2118/2218 01008KT CAVOK"
    },
    {
      "icao": "EETN",
      "alert": "OK",
      "vis_m": 9999,
      "fzfg": false,
      "metar_trigger": false,
      "taf_trigger": false,
      "metar": "METAR EETN 211920Z 03007KT 360V060 9999 SCT007 BKN015 OVC022 12/10 Q1011 TEMPO BKN005",
      "taf": "TAF EETN 211730Z 2118/2218 02008KT 9999 BKN013"
    },
    {
      "icao": "EFTU",
      "alert": "OK",
      "vis_m": 9999,
      "fzfg": false,
      "metar_trigger": false,
      "taf_trigger": false,
      "metar": "METAR EFTU 211920Z AUTO VRB01KT CAVOK 13/07 Q1012",
      "taf": "TAF EFTU 211728Z 2118/2218 12004KT CAVOK"
    },
    {
      "icao": "EGBB",
      "alert": "OK",
      "vis_m": 9999,
      "fzfg": false,
      "metar_trigger": false,
      "taf_trigger": false,
      "metar": "METAR EGBB 211920Z 36010KT CAVOK 23/13 Q1027",
      "taf": "TAF EGBB 211653Z 2118/2218 36010KT 9999 FEW030"
    },
    {
      "icao": "EGGP",
      "alert": "OK",
      "vis_m": 9999,
      "fzfg": false,
      "metar_trigger": false,
      "taf_trigger": false,
      "metar": "METAR EGGP 211920Z 29009KT 9999 BKN016 17/13 Q1029",
      "taf": "TAF EGGP 211703Z 2118/2218 29007KT 9999 SCT025"
    },
    {
      "icao": "EGGW",
      "alert": "OK",
      "vis_m": 9999,
      "fzfg": false,
      "metar_trigger": false,
      "taf_trigger": false,
      "metar": "METAR EGGW 211920Z AUTO 09004KT 050V110 9999 NCD 20/12 Q1027",
      "taf": "TAF EGGW 211704Z 2118/2218 04006KT 9999 SCT040"
    },
    {
      "icao": "EGKK",
      "alert": "OK",
      "vis_m": 9999,
      "fzfg": false,
      "metar_trigger": false,
      "taf_trigger": false,
      "metar": "METAR EGKK 211920Z 08006KT CAVOK 20/12 Q1027",
      "taf": "TAF EGKK 211654Z 2118/2224 03010KT 9999 SCT035"
    },
    {
      "icao": "EGNM",
      "alert": "OK",
      "vis_m": 9999,
      "fzfg": false,
      "metar_trigger": false,
      "taf_trigger": false,
      "metar": "METAR EGNM 211920Z 28011KT 9999 SCT040 18/13 Q1027",
      "taf": "TAF EGNM 211659Z 2118/2218 28010KT 9999 SCT030"
    },
    {
      "icao": "EGPD",
      "alert": "OK",
      "vis_m": 9999,
      "fzfg": false,
      "metar_trigger": false,
      "taf_trigger": false,
      "metar": "METAR EGPD 211920Z AUTO 31013KT 9999 NCD 17/11 Q1027",
      "taf": "TAF EGPD 211703Z 2118/2218 31010KT 9999 SCT025"
    },
    {
      "icao": "EGPF",
      "alert": "OK",
      "vis_m": 9999,
      "fzfg": false,
      "metar_trigger": false,
      "taf_trigger": false,
      "metar": "METAR EGPF 211920Z AUTO 28008KT 240V310 9999 NCD 18/11 Q1028",
      "taf": "TAF EGPF 211656Z 2118/2218 28010KT 9999 FEW030"
    },
    {
      "icao": "EHBK",
      "alert": "OK",
      "vis_m": 9999,
      "fzfg": false,
      "metar_trigger": false,
      "taf_trigger": false,
      "metar": "METAR EHBK 211925Z AUTO 33005KT 290V360 9999 NCD 20/10 Q1024 NOSIG",
      "taf": "TAF EHBK 211720Z 2118/2224 35007KT 9999 SCT040"
    },
    {
      "icao": "EHEH",
      "alert": "OK",
      "vis_m": 9999,
      "fzfg": false,
      "metar_trigger": false,
      "taf_trigger": false,
      "metar": "METAR EHEH 211925Z AUTO 33004KT 260V020 9999 NCD 19/10 Q1025 BLU NOSIG RMK TREND REMOTE BY EHWX",
      "taf": "TAF EHEH 211745Z 2118/2224 33006KT 9999 SCT040"
    },
    {
      "icao": "EKBI",
      "alert": "OK",
      "vis_m": 9999,
      "fzfg": false,
      "metar_trigger": false,
      "taf_trigger": false,
      "metar": "METAR EKBI 211920Z AUTO 28013KT 9999 OVC018/// 15/11 Q1020",
      "taf": "TAF EKBI 211727Z 2118/2218 28012KT 9999 FEW040"
    },
    {
      "icao": "EKCH",
      "alert": "OK",
      "vis_m": 9999,
      "fzfg": false,
      "metar_trigger": false,
      "taf_trigger": false,
      "metar": "METAR EKCH 211920Z AUTO 26005KT 200V290 9999 NCD 20/06 Q1017 NOSIG",
      "taf": "TAF EKCH 211727Z 2118/2218 27012KT 9999 SCT040"
    },
    {
      "icao": "ENAL",
      "alert": "OK",
      "vis_m": 9000,
      "fzfg": false,
      "metar_trigger": false,
      "taf_trigger": false,
      "metar": "METAR ENAL 211920Z 26006KT 9000 -DZ FEW006 BKN015 13/12 Q1018",
      "taf": "TAF ENAL 211700Z 2118/2203 25012KT 9999 -RA FEW005 BKN018"
    },
    {
      "icao": "ENBR",
      "alert": "OK",
      "vis_m": 6000,
      "fzfg": false,
      "metar_trigger": false,
      "taf_trigger": false,
      "metar": "METAR ENBR 211920Z VRB02KT 6000 -DZ BKN004 12/11 Q1019 TEMPO 2000 -DZ BR RMK WIND 1200FT 29006KT",
      "taf": ""
    },
    {
      "icao": "ENGM",
      "alert": "OK",
      "vis_m": 9999,
      "fzfg": false,
      "metar_trigger": false,
      "taf_trigger": false,
      "metar": "METAR ENGM 211920Z 21004KT CAVOK 19/07 Q1011 NOSIG",
      "taf": "TAF ENGM 211700Z 2118/2218 20008KT CAVOK"
    },
    {
      "icao": "ENHD",
      "alert": "OK",
      "vis_m": 8000,
      "fzfg": false,
      "metar_trigger": false,
      "taf_trigger": false,
      "metar": "METAR ENHD 211920Z 33007KT 8000 SCT005 BKN007 BKN029 13/12 Q1019",
      "taf": ""
    },
    {
      "icao": "ENTC",
      "alert": "OK",
      "vis_m": 9999,
      "fzfg": false,
      "metar_trigger": false,
      "taf_trigger": false,
      "metar": "METAR ENTC 211920Z 27012KT 9999 -DZ SCT007 BKN010 11/09 Q1006 TEMPO BKN020 RMK WIND 2600FT 22013KT",
      "taf": ""
    },
    {
      "icao": "ENTO",
      "alert": "OK",
      "vis_m": 9999,
      "fzfg": false,
      "metar_trigger": false,
      "taf_trigger": false,
      "metar": "METAR ENTO 211920Z 20010KT CAVOK 17/14 Q1011 NOSIG",
      "taf": "TAF ENTO 211700Z 2118/2218 20008KT CAVOK"
    },
    {
      "icao": "ENVA",
      "alert": "OK",
      "vis_m": 9999,
      "fzfg": false,
      "metar_trigger": false,
      "taf_trigger": false,
      "metar": "METAR ENVA 211920Z 27016KT 9999 -RA SCT014 BKN021 13/13 Q1015 TEMPO 4000 -RA BR SCT007 BKN010 RMK WIND 670FT 26013KT",
      "taf": "TAF ENVA 211700Z 2118/2218 27008KT 9999 -RA FEW015 BKN020"
    },
    {
      "icao": "ENZV",
      "alert": "OK",
      "vis_m": 9000,
      "fzfg": false,
      "metar_trigger": false,
      "taf_trigger": false,
      "metar": "METAR ENZV 211920Z 32011KT 9000 SCT006 BKN013 14/12 Q1019 TEMPO SCT004 BKN008",
      "taf": "TAF ENZV 211700Z 2118/2218 33010KT 9999 FEW008 BKN015"
    },
    {
      "icao": "EPGD",
      "alert": "OK",
      "vis_m": 9999,
      "fzfg": false,
      "metar_trigger": false,
      "taf_trigger": false,
      "metar": "METAR EPGD 211930Z 28009KT 9999 FEW023 13/10 Q1016",
      "taf": "TAF EPGD 211730Z 2118/2218 33015KT 9999 SCT035"
    },
    {
      "icao": "EPKK",
      "alert": "OK",
      "vis_m": 9999,
      "fzfg": false,
      "metar_trigger": false,
      "taf_trigger": false,
      "metar": "METAR EPKK 211930Z 26006KT 9999 -SHRA SCT037CB BKN054 15/12 Q1019",
      "taf": ""
    },
    {
      "icao": "EPKT",
      "alert": "OK",
      "vis_m": 9999,
      "fzfg": false,
      "metar_trigger": false,
      "taf_trigger": false,
      "metar": "METAR EPKT 211930Z 26004KT CAVOK 13/12 Q1019",
      "taf": "TAF EPKT 211730Z 2118/2218 31005KT 9999 SCT040"
    },
    {
      "icao": "EPLB",
      "alert": "OK",
      "vis_m": 9999,
      "fzfg": false,
      "metar_trigger": false,
      "taf_trigger": false,
      "metar": "METAR EPLB 211930Z 28009KT CAVOK 15/13 Q1016",
      "taf": "TAF EPLB 211730Z 2118/2218 27013KT 9999 BKN022"
    },
    {
      "icao": "EPMO",
      "alert": "OK",
      "vis_m": 9999,
      "fzfg": false,
      "metar_trigger": false,
      "taf_trigger": false,
      "metar": "METAR EPMO 211930Z 27005KT 9999 FEW028 13/10 Q1016",
      "taf": "TAF EPMO 211730Z 2118/2218 30012KT CAVOK"
    },
    {
      "icao": "EPPO",
      "alert": "OK",
      "vis_m": 9999,
      "fzfg": false,
      "metar_trigger": false,
      "taf_trigger": false,
      "metar": "METAR EPPO 211930Z 35003KT CAVOK 16/09 Q1019",
      "taf": "TAF EPPO 211730Z 2118/2218 32010KT CAVOK"
    },
    {
      "icao": "EPRA",
      "alert": "OK",
      "vis_m": 9999,
      "fzfg": false,
      "metar_trigger": false,
      "taf_trigger": false,
      "metar": "METAR EPRA 211930Z 26009KT CAVOK 15/11 Q1017",
      "taf": "TAF EPRA 211730Z 2118/2203 30008KT CAVOK"
    },
    {
      "icao": "EPRZ",
      "alert": "OK",
      "vis_m": 9999,
      "fzfg": false,
      "metar_trigger": false,
      "taf_trigger": false,
      "metar": "METAR EPRZ 211930Z 26007KT 9999 FEW040CB 15/13 Q1018",
      "taf": ""
    },
    {
      "icao": "EPSC",
      "alert": "OK",
      "vis_m": 9999,
      "fzfg": false,
      "metar_trigger": false,
      "taf_trigger": false,
      "metar": "METAR EPSC 211930Z VRB01KT CAVOK 14/11 Q1019",
      "taf": "TAF EPSC 211730Z 2118/2218 33010KT CAVOK"
    },
    {
      "icao": "EPSY",
      "alert": "OK",
      "vis_m": 9999,
      "fzfg": false,
      "metar_trigger": false,
      "taf_trigger": false,
      "metar": "METAR EPSY 211930Z 30008KT 250V330 9999 BKN025 14/09 Q1014",
      "taf": "TAF EPSY 211730Z 2118/2203 31010KT 9999 SCT030"
    },
    {
      "icao": "EPWA",
      "alert": "OK",
      "vis_m": 9999,
      "fzfg": false,
      "metar_trigger": false,
      "taf_trigger": false,
      "metar": "METAR EPWA 211930Z 26005KT CAVOK 13/11 Q1016 NOSIG",
      "taf": "TAF EPWA 211730Z 2118/2218 30014KT CAVOK"
    },
    {
      "icao": "EPWR",
      "alert": "OK",
      "vis_m": 9999,
      "fzfg": false,
      "metar_trigger": false,
      "taf_trigger": false,
      "metar": "METAR EPWR 211930Z 26005KT CAVOK 16/11 Q1019",
      "taf": ""
    },
    {
      "icao": "ESGG",
      "alert": "OK",
      "vis_m": 9999,
      "fzfg": false,
      "metar_trigger": false,
      "taf_trigger": false,
      "metar": "METAR ESGG 211920Z 24009KT CAVOK 16/12 Q1015",
      "taf": "TAF ESGG 211730Z 2118/2218 23010KT CAVOK"
    },
    {
      "icao": "ESKN",
      "alert": "OK",
      "vis_m": 9999,
      "fzfg": false,
      "metar_trigger": false,
      "taf_trigger": false,
      "metar": "METAR ESKN 211920Z 13008KT CAVOK 16/10 Q1013",
      "taf": ""
    },
    {
      "icao": "ESMS",
      "alert": "OK",
      "vis_m": 9999,
      "fzfg": false,
      "metar_trigger": false,
      "taf_trigger": false,
      "metar": "METAR ESMS 211920Z 27004KT CAVOK 18/07 Q1017",
      "taf": "TAF ESMS 211727Z 2118/2218 27010KT 9999 FEW040"
    },
    {
      "icao": "ESSA",
      "alert": "OK",
      "vis_m": 9999,
      "fzfg": false,
      "metar_trigger": false,
      "taf_trigger": false,
      "metar": "METAR ESSA 211920Z 11005KT CAVOK 18/03 Q1013 NOSIG",
      "taf": "TAF ESSA 211730Z 2118/2218 07010KT CAVOK"
    },
    {
      "icao": "EYKA",
      "alert": "OK",
      "vis_m": 9999,
      "fzfg": false,
      "metar_trigger": false,
      "taf_trigger": false,
      "metar": "METAR EYKA 211920Z 31003KT CAVOK 14/14 Q1008",
      "taf": "TAF EYKA 211713Z 2118/2218 VRB03KT 9000 BKN010"
    },
    {
      "icao": "EYPA",
      "alert": "OK",
      "vis_m": 9999,
      "fzfg": false,
      "metar_trigger": false,
      "taf_trigger": false,
      "metar": "METAR EYPA 211920Z 01008KT 330V030 9999 FEW044 13/11 Q1012",
      "taf": "TAF EYPA 211712Z 2118/2218 36012KT 9000 SCT010 BKN025"
    },
    {
      "icao": "EYVI",
      "alert": "OK",
      "vis_m": 9999,
      "fzfg": false,
      "metar_trigger": false,
      "taf_trigger": false,
      "metar": "METAR EYVI 211920Z VRB01KT 9999 MIFG NSC 12/11 Q1008 TEMPO 1500 BR",
      "taf": "TAF EYVI 211716Z 2118/2218 VRB03KT 9000 SCT015"
    },
    {
      "icao": "GCFV",
      "alert": "OK",
      "vis_m": 9999,
      "fzfg": false,
      "metar_trigger": false,
      "taf_trigger": false,
      "metar": "METAR GCFV 211930Z 36019KT 9999 FEW025 25/18 Q1017",
      "taf": "TAF GCFV 211400Z 2115/2215 04019KT CAVOK TX27/2214Z TN22/2206Z"
    },
    {
      "icao": "GCLP",
      "alert": "OK",
      "vis_m": 9999,
      "fzfg": false,
      "metar_trigger": false,
      "taf_trigger": false,
      "metar": "METAR GCLP 211930Z 36027KT 9999 FEW025 24/19 Q1017 NOSIG",
      "taf": "TAF GCLP 211400Z 2115/2215 01028KT 9999 FEW025 TX29/2214Z TN22/2206Z"
    },
    {
      "icao": "GCTS",
      "alert": "OK",
      "vis_m": 9999,
      "fzfg": false,
      "metar_trigger": false,
      "taf_trigger": false,
      "metar": "METAR GCTS 211930Z 08019KT 9999 FEW025 25/19 Q1018 WS R07 NOSIG",
      "taf": "TAF GCTS 211400Z 2115/2215 07022KT CAVOK TX29/2214Z TN21/2206Z"
    },
    {
      "icao": "GMAD",
      "alert": "OK",
      "vis_m": 8000,
      "fzfg": false,
      "metar_trigger": false,
      "taf_trigger": false,
      "metar": "METAR GMAD 211930Z 22008KT 8000 NSC 27/17 Q1012 NOSIG",
      "taf": "TAF GMAD 211700Z 2118/2224 25009KT 8000 NSC"
    },
    {
      "icao": "GMMN",
      "alert": "OK",
      "vis_m": 9999,
      "fzfg": false,
      "metar_trigger": false,
      "taf_trigger": false,
      "metar": "METAR GMMN 211930Z 01009KT 340V050 CAVOK 23/19 Q1017 NOSIG",
      "taf": "TAF GMMN 211700Z 2118/2224 01011KT CAVOK"
    },
    {
      "icao": "GMMX",
      "alert": "OK",
      "vis_m": 9999,
      "fzfg": false,
      "metar_trigger": false,
      "taf_trigger": false,
      "metar": "METAR GMMX 211930Z 36007KT 330V040 9999 FEW040 SCT110 34/18 Q1016 NOSIG",
      "taf": "TAF GMMX 211700Z 2118/2224 32006KT 8000 NSC"
    },
    {
      "icao": "HEGN",
      "alert": "OK",
      "vis_m": 9999,
      "fzfg": false,
      "metar_trigger": false,
      "taf_trigger": false,
      "metar": "METAR HEGN 211900Z 33012KT CAVOK 33/14 Q1006 NOSIG",
      "taf": "TAF HEGN 211700Z 2118/2224 34012KT CAVOK"
    },
    {
      "icao": "HEMA",
      "alert": "OK",
      "vis_m": 9999,
      "fzfg": false,
      "metar_trigger": false,
      "taf_trigger": false,
      "metar": "METAR HEMA 211900Z 26004KT CAVOK 33/10 Q1005 NOSIG",
      "taf": "TAF HEMA 211700Z 2118/2224 34008G20KT CAVOK"
    },
    {
      "icao": "HESH",
      "alert": "OK",
      "vis_m": 9999,
      "fzfg": false,
      "metar_trigger": false,
      "taf_trigger": false,
      "metar": "METAR HESH 211900Z 33009KT CAVOK 37/07 Q1005 NOSIG",
      "taf": "TAF HESH 211700Z 2118/2224 35011KT CAVOK"
    },
    {
      "icao": "HESX",
      "alert": "OK",
      "vis_m": 9999,
      "fzfg": false,
      "metar_trigger": false,
      "taf_trigger": false,
      "metar": "METAR HESX 211900Z 01009KT CAVOK 29/20 Q1010 NOSIG",
      "taf": "TAF HESX 211700Z 2118/2224 33009KT CAVOK"
    },
    {
      "icao": "LATI",
      "alert": "OK",
      "vis_m": 9999,
      "fzfg": false,
      "metar_trigger": false,
      "taf_trigger": false,
      "metar": "METAR LATI 211920Z VRB03KT 9999 -RA FEW050 SCT080 BKN120 28/20 Q1014 NOSIG",
      "taf": "TAF LATI 211700Z 2118/2218 VRB05KT CAVOK TX33/2212Z TN23/2204Z"
    },
    {
      "icao": "LBPD",
      "alert": "OK",
      "vis_m": 9999,
      "fzfg": false,
      "metar_trigger": false,
      "taf_trigger": false,
      "metar": "METAR LBPD 211930Z AUTO 26016G26KT 230V290 9999 -SHRA FEW066/// BKN079/// OVC130/// 25/17 Q1015",
      "taf": "TAF LBPD 211700Z 2118/2218 11010KT 9999 SCT070"
    },
    {
      "icao": "LBSF",
      "alert": "OK",
      "vis_m": 9999,
      "fzfg": false,
      "metar_trigger": false,
      "taf_trigger": false,
      "metar": "METAR LBSF 211930Z AUTO 03005KT 360V060 9999 NSC 20/14 Q1017 NOSIG",
      "taf": "TAF LBSF 211700Z 2118/2218 VRB04KT 9999 SCT060"
    },
    {
      "icao": "LBWN",
      "alert": "OK",
      "vis_m": 9999,
      "fzfg": false,
      "metar_trigger": false,
      "taf_trigger": false,
      "metar": "METAR LBWN 211930Z AUTO 03004KT 9999 NCD 21/21 Q1015 NOSIG",
      "taf": "TAF LBWN 211700Z 2118/2218 13010KT 9999 SCT045"
    },
    {
      "icao": "LCLK",
      "alert": "OK",
      "vis_m": 9999,
      "fzfg": false,
      "metar_trigger": false,
      "taf_trigger": false,
      "metar": "METAR LCLK 211930Z 17003KT CAVOK 29/27 Q1005 NOSIG",
      "taf": "TAF LCLK 211730Z 2118/2218 31009KT 9999 FEW020"
    },
    {
      "icao": "LCPH",
      "alert": "OK",
      "vis_m": 9999,
      "fzfg": false,
      "metar_trigger": false,
      "taf_trigger": false,
      "metar": "METAR LCPH 211930Z 33010KT CAVOK 29/26 Q1006 NOSIG",
      "taf": "TAF LCPH 211730Z 2118/2218 35009KT 9999 FEW020"
    },
    {
      "icao": "LEAL",
      "alert": "OK",
      "vis_m": 9999,
      "fzfg": false,
      "metar_trigger": false,
      "taf_trigger": false,
      "metar": "METAR LEAL 211930Z VRB02KT CAVOK 32/23 Q1014 NOSIG",
      "taf": "TAF LEAL 211700Z 2118/2218 09008KT CAVOK TX35/2213Z TN25/2205Z"
    },
    {
      "icao": "LEBB",
      "alert": "OK",
      "vis_m": 9999,
      "fzfg": false,
      "metar_trigger": false,
      "taf_trigger": false,
      "metar": "METAR LEBB 211930Z 29005KT CAVOK 24/17 Q1020 NOSIG",
      "taf": "TAF LEBB 211700Z 2118/2218 32009KT 9999 FEW030 TX30/2213Z TN17/2205Z"
    },
    {
      "icao": "LEBL",
      "alert": "OK",
      "vis_m": 9999,
      "fzfg": false,
      "metar_trigger": false,
      "taf_trigger": false,
      "metar": "METAR LEBL 211930Z 23007KT CAVOK 28/22 Q1017 NOSIG",
      "taf": "TAF LEBL 211700Z 2118/2218 11008KT 9999 FEW020 TX31/2213Z TN26/2205Z"
    },
    {
      "icao": "LECH",
      "alert": "OK",
      "vis_m": 9000,
      "fzfg": false,
      "metar_trigger": false,
      "taf_trigger": false,
      "metar": "METAR LECH 211930Z AUTO 03004KT 350V070 9000 NCD 27/20 Q1017",
      "taf": ""
    },
    {
      "icao": "LEMD",
      "alert": "OK",
      "vis_m": 9999,
      "fzfg": false,
      "metar_trigger": false,
      "taf_trigger": false,
      "metar": "METAR LEMD 211930Z 27007KT CAVOK 35/04 Q1017 NOSIG",
      "taf": "TAF LEMD 211700Z 2118/2224 VRB04KT CAVOK TX41/2216Z TN19/2205Z"
    },
    {
      "icao": "LEMG",
      "alert": "OK",
      "vis_m": 9999,
      "fzfg": false,
      "metar_trigger": false,
      "taf_trigger": false,
      "metar": "METAR LEMG 211930Z 11006KT CAVOK 24/19 Q1013 NOSIG",
      "taf": "TAF LEMG 211700Z 2118/2218 14010KT CAVOK TX36/2214Z TN23/2205Z"
    },
    {
      "icao": "LEVC",
      "alert": "OK",
      "vis_m": 9999,
      "fzfg": false,
      "metar_trigger": false,
      "taf_trigger": false,
      "metar": "METAR LEVC 211930Z 13006KT 090V180 CAVOK 30/25 Q1014 NOSIG",
      "taf": "TAF LEVC 211700Z 2118/2218 08008KT 9999 SCT020 TX34/2213Z TN24/2205Z"
    },
    {
      "icao": "LEXJ",
      "alert": "OK",
      "vis_m": 9999,
      "fzfg": false,
      "metar_trigger": false,
      "taf_trigger": false,
      "metar": "METAR LEXJ 211930Z 11005KT 070V150 CAVOK 23/16 Q1021",
      "taf": "TAF LEXJ 211400Z 2115/2215 06009KT CAVOK TX29/2213Z TN18/2205Z"
    },
    {
      "icao": "LEZG",
      "alert": "OK",
      "vis_m": 9999,
      "fzfg": false,
      "metar_trigger": false,
      "taf_trigger": false,
      "metar": "METAR LEZG 211930Z 29011KT CAVOK 33/10 Q1015 NOSIG",
      "taf": "TAF LEZG 211700Z 2118/2218 31010KT CAVOK TX40/2215Z TN22/2205Z"
    },
    {
      "icao": "LEZL",
      "alert": "OK",
      "vis_m": 9999,
      "fzfg": false,
      "metar_trigger": false,
      "taf_trigger": false,
      "metar": "METAR LEZL 211930Z 20006KT 160V230 CAVOK 32/15 Q1013 NOSIG",
      "taf": "TAF LEZL 211400Z 2115/2215 22007KT CAVOK TX37/2115Z TN23/2205Z"
    },
    {
      "icao": "LFBD",
      "alert": "OK",
      "vis_m": 9999,
      "fzfg": false,
      "metar_trigger": false,
      "taf_trigger": false,
      "metar": "METAR LFBD 211930Z AUTO 04011KT CAVOK 28/06 Q1020 NOSIG",
      "taf": "TAF LFBD 211700Z 2118/2224 03010KT CAVOK TX35/2215Z TN19/2205Z"
    },
    {
      "icao": "LFLL",
      "alert": "OK",
      "vis_m": 9999,
      "fzfg": false,
      "metar_trigger": false,
      "taf_trigger": false,
      "metar": "METAR LFLL 211930Z 35010KT CAVOK 24/05 Q1020 NOSIG",
      "taf": "TAF LFLL 211700Z 2118/2224 35012KT CAVOK"
    },
    {
      "icao": "LFLS",
      "alert": "OK",
      "vis_m": 9999,
      "fzfg": false,
      "metar_trigger": false,
      "taf_trigger": false,
      "metar": "METAR LFLS 211930Z AUTO 35014KT CAVOK 22/06 Q1020 NOSIG",
      "taf": "TAF LFLS 211400Z 2115/2215 35010KT CAVOK"
    },
    {
      "icao": "LFMN",
      "alert": "OK",
      "vis_m": 9999,
      "fzfg": false,
      "metar_trigger": false,
      "taf_trigger": false,
      "metar": "METAR LFMN 211930Z 08012KT 9999 FEW014 29/24 Q1011 NOSIG",
      "taf": "TAF LFMN 211400Z 2115/2221 15006KT CAVOK"
    },
    {
      "icao": "LFOB",
      "alert": "OK",
      "vis_m": 9999,
      "fzfg": false,
      "metar_trigger": false,
      "taf_trigger": false,
      "metar": "METAR LFOB 211930Z AUTO 36011KT CAVOK 20/11 Q1025 NOSIG",
      "taf": "TAF LFOB 211700Z 2118/2218 01010KT CAVOK"
    },
    {
      "icao": "LFPO",
      "alert": "OK",
      "vis_m": 9999,
      "fzfg": false,
      "metar_trigger": false,
      "taf_trigger": false,
      "metar": "METAR LFPO 211930Z AUTO 02008KT 350V050 CAVOK 23/07 Q1024 NOSIG",
      "taf": "TAF LFPO 211700Z 2118/2224 04012KT CAVOK"
    },
    {
      "icao": "LFSB",
      "alert": "OK",
      "vis_m": 9999,
      "fzfg": false,
      "metar_trigger": false,
      "taf_trigger": false,
      "metar": "METAR LFSB 211930Z AUTO 34007KT CAVOK 20/07 Q1022 NOSIG",
      "taf": "TAF LFSB 211700Z 2118/2218 36008KT CAVOK"
    },
    {
      "icao": "LGAV",
      "alert": "OK",
      "vis_m": 9999,
      "fzfg": false,
      "metar_trigger": false,
      "taf_trigger": false,
      "metar": "METAR LGAV 211920Z 00000KT CAVOK 28/18 Q1013 NOSIG",
      "taf": "TAF LGAV 211700Z 2118/2218 VRB03KT 9999 FEW025"
    },
    {
      "icao": "LGTS",
      "alert": "OK",
      "vis_m": 9999,
      "fzfg": false,
      "metar_trigger": false,
      "taf_trigger": false,
      "metar": "METAR LGTS 211920Z 29007KT 9999 FEW020 30/17 Q1013 NOSIG",
      "taf": "TAF LGTS 211700Z 2118/2218 15013KT 9999 FEW030"
    },
    {
      "icao": "LHBP",
      "alert": "OK",
      "vis_m": 9999,
      "fzfg": false,
      "metar_trigger": false,
      "taf_trigger": false,
      "metar": "METAR LHBP 211930Z 33008KT CAVOK 22/06 Q1017 NOSIG",
      "taf": "TAF LHBP 211715Z 2118/2218 30012KT CAVOK"
    },
    {
      "icao": "LHDC",
      "alert": "OK",
      "vis_m": 9999,
      "fzfg": false,
      "metar_trigger": false,
      "taf_trigger": false,
      "metar": "METAR LHDC 211915Z AUTO 31007KT 260V360 CAVOK 23/05 Q1015 NOSIG",
      "taf": "TAF LHDC 211715Z 2118/2203 28009KT CAVOK"
    },
    {
      "icao": "LIBD",
      "alert": "OK",
      "vis_m": 9999,
      "fzfg": false,
      "metar_trigger": false,
      "taf_trigger": false,
      "metar": "METAR LIBD 211920Z 12012KT CAVOK 26/20 Q1013",
      "taf": "TAF LIBD 211700Z 2118/2218 06012KT 9999 FEW040"
    },
    {
      "icao": "LIBG",
      "alert": "OK",
      "vis_m": 9999,
      "fzfg": false,
      "metar_trigger": false,
      "taf_trigger": false,
      "metar": "METAR LIBG 211920Z AUTO 05009KT 360V070 9999 NCD 31/17 Q1012",
      "taf": "TAF LIBG 211700Z 2118/2218 VRB04KT CAVOK"
    },
    {
      "icao": "LIBP",
      "alert": "OK",
      "vis_m": 9999,
      "fzfg": false,
      "metar_trigger": false,
      "taf_trigger": false,
      "metar": "METAR LIBP 211920Z AUTO 02004KT 340V050 9999 NCD 25/22 Q1012",
      "taf": "TAF LIBP 211700Z 2118/2218 34010KT 9999 FEW050"
    },
    {
      "icao": "LIBR",
      "alert": "OK",
      "vis_m": 9999,
      "fzfg": false,
      "metar_trigger": false,
      "taf_trigger": false,
      "metar": "METAR LIBR 211920Z 08018KT 9999 FEW030 27/23 Q1013 RETS",
      "taf": "TAF LIBR 211700Z 2118/2218 04010KT 9999 FEW040"
    },
    {
      "icao": "LICA",
      "alert": "OK",
      "vis_m": 9999,
      "fzfg": false,
      "metar_trigger": false,
      "taf_trigger": false,
      "metar": "METAR LICA 211920Z AUTO 09004KT 070V150 9999 NCD 27/21 Q1013",
      "taf": "TAF LICA 211700Z 2118/2218 VRB05KT CAVOK"
    },
    {
      "icao": "LICC",
      "alert": "OK",
      "vis_m": 9999,
      "fzfg": false,
      "metar_trigger": false,
      "taf_trigger": false,
      "metar": "METAR LICC 211920Z 23002KT CAVOK 31/14 Q1013",
      "taf": "TAF LICC 211700Z 2118/2218 07006KT CAVOK"
    },
    {
      "icao": "LICJ",
      "alert": "OK",
      "vis_m": 9999,
      "fzfg": false,
      "metar_trigger": false,
      "taf_trigger": false,
      "metar": "METAR LICJ 211920Z AUTO 21008KT 9999 NCD 35/16 Q1012",
      "taf": "TAF LICJ 211700Z 2118/2218 VRB05KT CAVOK"
    },
    {
      "icao": "LIMC",
      "alert": "OK",
      "vis_m": 9999,
      "fzfg": false,
      "metar_trigger": false,
      "taf_trigger": false,
      "metar": "METAR LIMC 211920Z 20005KT CAVOK 27/18 Q1014 NOSIG",
      "taf": "TAF LIMC 211700Z 2118/2224 VRB05KT 9999 FEW050"
    },
    {
      "icao": "LIME",
      "alert": "OK",
      "vis_m": 9999,
      "fzfg": false,
      "metar_trigger": false,
      "taf_trigger": false,
      "metar": "METAR LIME 211920Z 12005KT 090V150 9999 SCT060 25/18 Q1015 NOSIG",
      "taf": "TAF LIME 211700Z 2118/2218 VRB05KT 9999 SCT030"
    },
    {
      "icao": "LIMF",
      "alert": "OK",
      "vis_m": 9999,
      "fzfg": false,
      "metar_trigger": false,
      "taf_trigger": false,
      "metar": "METAR LIMF 211920Z 03004KT 9999 SCT050 27/17 Q1014",
      "taf": "TAF LIMF 211700Z 2118/2218 VRB05KT 9999 SCT030"
    },
    {
      "icao": "LIMJ",
      "alert": "OK",
      "vis_m": 9999,
      "fzfg": false,
      "metar_trigger": false,
      "taf_trigger": false,
      "metar": "METAR LIMJ 211920Z 29003KT CAVOK 28/22 Q1012",
      "taf": "TAF LIMJ 211700Z 2118/2218 22008KT 9999 SCT030"
    },
    {
      "icao": "LIPE",
      "alert": "OK",
      "vis_m": 9999,
      "fzfg": false,
      "metar_trigger": false,
      "taf_trigger": false,
      "metar": "METAR LIPE 211920Z 10005KT 060V140 CAVOK 23/21 Q1014",
      "taf": "TAF LIPE 211700Z 2118/2218 10010KT 9999 SCT025"
    },
    {
      "icao": "LIPH",
      "alert": "OK",
      "vis_m": 9999,
      "fzfg": false,
      "metar_trigger": false,
      "taf_trigger": false,
      "metar": "METAR LIPH 211920Z 07007KT 9999 SCT080 22/16 Q1016",
      "taf": "TAF LIPH 211700Z 2118/2218 05010KT 9999 FEW030"
    },
    {
      "icao": "LIPQ",
      "alert": "OK",
      "vis_m": 9999,
      "fzfg": false,
      "metar_trigger": false,
      "taf_trigger": false,
      "metar": "METAR LIPQ 211920Z AUTO 29004KT 240V320 9999 BKN140/// 20/17 Q1015",
      "taf": "TAF LIPQ 211700Z 2118/2218 12012KT 9999 FEW040"
    },
    {
      "icao": "LIPR",
      "alert": "OK",
      "vis_m": 9999,
      "fzfg": false,
      "metar_trigger": false,
      "taf_trigger": false,
      "metar": "METAR LIPR 211920Z 05016G28KT 9999 TSRA FEW010 SCT030CB BKN070 25/18 Q1014",
      "taf": "TAF LIPR 211700Z 2118/2218 22010KT 9999 FEW030"
    },
    {
      "icao": "LIPX",
      "alert": "OK",
      "vis_m": 9999,
      "fzfg": false,
      "metar_trigger": false,
      "taf_trigger": false,
      "metar": "METAR LIPX 211920Z 12004KT 9999 SCT050 23/17 Q1015",
      "taf": "TAF LIPX 211700Z 2118/2218 VRB05KT 9999 SCT050"
    },
    {
      "icao": "LIPY",
      "alert": "OK",
      "vis_m": 6000,
      "fzfg": false,
      "metar_trigger": false,
      "taf_trigger": false,
      "metar": "METAR LIPY 211920Z AUTO 05015G30KT 020V090 6000 +TSRA OVC015/// 22/21 Q1014",
      "taf": "TAF LIPY 211700Z 2118/2218 VRB06KT 9999 SCT040"
    },
    {
      "icao": "LIPZ",
      "alert": "OK",
      "vis_m": 9999,
      "fzfg": false,
      "metar_trigger": false,
      "taf_trigger": false,
      "metar": "METAR LIPZ 211920Z 08011KT 9999 FEW070 23/16 Q1015 NOSIG",
      "taf": "TAF LIPZ 211700Z 2118/2224 06010KT 9999 FEW030"
    },
    {
      "icao": "LIRF",
      "alert": "OK",
      "vis_m": 9999,
      "fzfg": false,
      "metar_trigger": false,
      "taf_trigger": false,
      "metar": "METAR LIRF 211920Z 26004KT 9999 FEW015 29/26 Q1012 NOSIG",
      "taf": "TAF LIRF 211700Z 2118/2224 22010KT CAVOK"
    },
    {
      "icao": "LIRN",
      "alert": "OK",
      "vis_m": 9999,
      "fzfg": false,
      "metar_trigger": false,
      "taf_trigger": false,
      "metar": "METAR LIRN 211920Z 16004KT 090V230 9999 FEW010 29/26 Q1013 NOSIG",
      "taf": "TAF LIRN 211700Z 2118/2218 VRB05KT CAVOK"
    },
    {
      "icao": "LIRP",
      "alert": "OK",
      "vis_m": 9999,
      "fzfg": false,
      "metar_trigger": false,
      "taf_trigger": false,
      "metar": "METAR LIRP 211915Z 26002KT 9999 FEW025 28/22 Q1012 NOSIG",
      "taf": "TAF LIRP 211700Z 2118/2218 27008KT 9999 SCT030"
    },
    {
      "icao": "LIRZ",
      "alert": "OK",
      "vis_m": 9999,
      "fzfg": false,
      "metar_trigger": false,
      "taf_trigger": false,
      "metar": "METAR LIRZ 211920Z AUTO 02008KT 9999 FEW076/// 27/20 Q1013",
      "taf": "TAF LIRZ 211700Z 2118/2218 VRB05KT 9999 SCT040"
    },
    {
      "icao": "LJLJ",
      "alert": "OK",
      "vis_m": 9999,
      "fzfg": false,
      "metar_trigger": false,
      "taf_trigger": false,
      "metar": "METAR LJLJ 211930Z 15004KT 9999 FEW023 BKN160 17/15 Q1020 NOSIG",
      "taf": "TAF LJLJ 211700Z 2118/2218 VRB02KT 9999 FEW030 BKN100"
    },
    {
      "icao": "LKMT",
      "alert": "OK",
      "vis_m": 9999,
      "fzfg": false,
      "metar_trigger": false,
      "taf_trigger": false,
      "metar": "METAR LKMT 211930Z VRB02KT 9999 FEW047 17/10 Q1020 NOSIG",
      "taf": "TAF LKMT 211700Z 2118/2218 36008KT CAVOK"
    },
    {
      "icao": "LKPR",
      "alert": "OK",
      "vis_m": 9999,
      "fzfg": false,
      "metar_trigger": false,
      "taf_trigger": false,
      "metar": "METAR LKPR 211930Z 01003KT 9999 VCSH FEW050TCU 17/08 Q1021 NOSIG",
      "taf": "TAF LKPR 211700Z 2118/2224 28007KT CAVOK"
    },
    {
      "icao": "LLBG",
      "alert": "OK",
      "vis_m": 9999,
      "fzfg": false,
      "metar_trigger": false,
      "taf_trigger": false,
      "metar": "METAR LLBG 211920Z 22005KT CAVOK 28/23 Q1008 NOSIG",
      "taf": "TAF LLBG 211701Z 2118/2218 VRB04KT 9999 FEW017 TX34/2211Z TN24/2203Z"
    },
    {
      "icao": "LMML",
      "alert": "OK",
      "vis_m": 9999,
      "fzfg": false,
      "metar_trigger": false,
      "taf_trigger": false,
      "metar": "METAR LMML 211915Z 07004KT CAVOK 32/23 Q1015 NOSIG",
      "taf": "TAF LMML 211700Z 2118/2218 VRB05KT CAVOK"
    },
    {
      "icao": "LOWW",
      "alert": "OK",
      "vis_m": 9999,
      "fzfg": false,
      "metar_trigger": false,
      "taf_trigger": false,
      "metar": "METAR LOWW 211920Z 33007KT CAVOK 20/07 Q1019 NOSIG",
      "taf": "TAF LOWW 211715Z 2118/2224 34010KT 9999 FEW050 TX25/2214Z TN15/2204Z"
    },
    {
      "icao": "LPFR",
      "alert": "OK",
      "vis_m": 9999,
      "fzfg": false,
      "metar_trigger": false,
      "taf_trigger": false,
      "metar": "METAR LPFR 211930Z 27009KT CAVOK 22/18 Q1015",
      "taf": "TAF LPFR 211700Z 2118/2218 29010KT CAVOK"
    },
    {
      "icao": "LPMA",
      "alert": "OK",
      "vis_m": 9999,
      "fzfg": false,
      "metar_trigger": false,
      "taf_trigger": false,
      "metar": "METAR LPMA 211930Z 03014KT 350V060 9999 FEW016 24/17 Q1021",
      "taf": "TAF LPMA 211700Z 2118/2218 01010KT 9999 SCT015"
    },
    {
      "icao": "LPPR",
      "alert": "OK",
      "vis_m": 9999,
      "fzfg": false,
      "metar_trigger": false,
      "taf_trigger": false,
      "metar": "METAR LPPR 211930Z 31005KT 270V340 9999 FEW012 22/19 Q1017",
      "taf": "TAF LPPR 211700Z 2118/2218 30010KT 9999 FEW020"
    },
    {
      "icao": "LPPS",
      "alert": "OK",
      "vis_m": 9999,
      "fzfg": false,
      "metar_trigger": false,
      "taf_trigger": false,
      "metar": "METAR LPPS 211930Z 36013KT 9999 FEW015 23/16 Q1021",
      "taf": "TAF LPPS 211700Z 2118/2224 01010KT 9999 SCT015"
    },
    {
      "icao": "LPPT",
      "alert": "OK",
      "vis_m": 9999,
      "fzfg": false,
      "metar_trigger": false,
      "taf_trigger": false,
      "metar": "METAR LPPT 211930Z 30008KT 270V330 9999 FEW020 24/17 Q1017 NOSIG",
      "taf": "TAF LPPT 211700Z 2118/2224 29008KT 9999 FEW030"
    },
    {
      "icao": "LQBK",
      "alert": "OK",
      "vis_m": 9999,
      "fzfg": false,
      "metar_trigger": false,
      "taf_trigger": false,
      "metar": "METAR LQBK 211930Z 32006KT 9999 SCT047 23/13 Q1017 NOSIG",
      "taf": "TAF LQBK 211700Z 2118/2218 16005KT CAVOK TX24/2213Z TN13/2203Z"
    },
    {
      "icao": "LQSA",
      "alert": "OK",
      "vis_m": 9999,
      "fzfg": false,
      "metar_trigger": false,
      "taf_trigger": false,
      "metar": "METAR LQSA 211930Z VRB02KT CAVOK 19/16 Q1017 NOSIG",
      "taf": "TAF LQSA 211700Z 2118/2218 30006KT 9999 SCT050 TX23/2213Z TN12/2203Z"
    },
    {
      "icao": "LQTZ",
      "alert": "OK",
      "vis_m": 9999,
      "fzfg": false,
      "metar_trigger": false,
      "taf_trigger": false,
      "metar": "METAR LQTZ 211930Z VRB02KT 9999 SCT045 20/20 Q1016",
      "taf": ""
    },
    {
      "icao": "LRBC",
      "alert": "OK",
      "vis_m": 9999,
      "fzfg": false,
      "metar_trigger": false,
      "taf_trigger": false,
      "metar": "METAR LRBC 211930Z 34007KT CAVOK 19/10 Q1015",
      "taf": "TAF LRBC 211700Z 2118/2203 27010KT CAVOK"
    },
    {
      "icao": "LRBS",
      "alert": "OK",
      "vis_m": 9999,
      "fzfg": false,
      "metar_trigger": false,
      "taf_trigger": false,
      "metar": "METAR LRBS 211930Z 04004KT CAVOK 23/18 Q1014 NOSIG",
      "taf": "TAF LRBS 211700Z 2118/2218 VRB04KT CAVOK"
    },
    {
      "icao": "LRBV",
      "alert": "OK",
      "vis_m": 9999,
      "fzfg": false,
      "metar_trigger": false,
      "taf_trigger": false,
      "metar": "METAR LRBV 211930Z 22007KT CAVOK 19/13 Q1017",
      "taf": "TAF LRBV 211700Z 2118/2203 VRB04KT CAVOK"
    },
    {
      "icao": "LRCL",
      "alert": "OK",
      "vis_m": 9999,
      "fzfg": false,
      "metar_trigger": false,
      "taf_trigger": false,
      "metar": "METAR LRCL 211930Z 25003KT 230V290 CAVOK 22/09 Q1016",
      "taf": "TAF LRCL 211700Z 2118/2203 VRB04KT CAVOK"
    },
    {
      "icao": "LRCV",
      "alert": "OK",
      "vis_m": 8000,
      "fzfg": false,
      "metar_trigger": false,
      "taf_trigger": false,
      "metar": "METAR LRCV 211930Z 11012KT 8000 -SHRA FEW008 SCT020 SCT050CB 19/18 Q1014 RETSRA",
      "taf": ""
    },
    {
      "icao": "LRIA",
      "alert": "OK",
      "vis_m": 9999,
      "fzfg": false,
      "metar_trigger": false,
      "taf_trigger": false,
      "metar": "METAR LRIA 211930Z 03006KT 350V120 CAVOK 22/09 Q1015",
      "taf": "TAF LRIA 211700Z 2118/2203 35006KT CAVOK"
    },
    {
      "icao": "LROP",
      "alert": "OK",
      "vis_m": 9999,
      "fzfg": false,
      "metar_trigger": false,
      "taf_trigger": false,
      "metar": "METAR LROP 211930Z 01003KT 270V080 CAVOK 23/19 Q1015 NOSIG",
      "taf": "TAF LROP 211700Z 2118/2218 VRB04KT CAVOK"
    },
    {
      "icao": "LRSB",
      "alert": "OK",
      "vis_m": 9999,
      "fzfg": false,
      "metar_trigger": false,
      "taf_trigger": false,
      "metar": "METAR LRSB 211930Z 26006KT CAVOK 21/14 Q1016",
      "taf": "TAF LRSB 211700Z 2118/2218 VRB04KT CAVOK"
    },
    {
      "icao": "LRSM",
      "alert": "OK",
      "vis_m": 9999,
      "fzfg": false,
      "metar_trigger": false,
      "taf_trigger": false,
      "metar": "METAR LRSM 211930Z 29002KT CAVOK 19/08 Q1015",
      "taf": "TAF LRSM 211700Z 2118/2203 33007KT CAVOK"
    },
    {
      "icao": "LRSV",
      "alert": "OK",
      "vis_m": 9999,
      "fzfg": false,
      "metar_trigger": false,
      "taf_trigger": false,
      "metar": "METAR LRSV 211930Z 32006KT CAVOK 19/11 Q1016",
      "taf": "TAF LRSV 211700Z 2118/2203 35006KT CAVOK"
    },
    {
      "icao": "LRTM",
      "alert": "OK",
      "vis_m": 9999,
      "fzfg": false,
      "metar_trigger": false,
      "taf_trigger": false,
      "metar": "METAR LRTM 211930Z VRB02KT CAVOK 20/17 Q1016",
      "taf": "TAF LRTM 211700Z 2118/2203 VRB04KT CAVOK"
    },
    {
      "icao": "LRTR",
      "alert": "OK",
      "vis_m": 9999,
      "fzfg": false,
      "metar_trigger": false,
      "taf_trigger": false,
      "metar": "METAR LRTR 211930Z 01004KT CAVOK 24/09 Q1015 NOSIG",
      "taf": "TAF LRTR 211700Z 2118/2218 34010KT CAVOK"
    },
    {
      "icao": "LTAC",
      "alert": "OK",
      "vis_m": 9999,
      "fzfg": false,
      "metar_trigger": false,
      "taf_trigger": false,
      "metar": "METAR LTAC 211920Z 03007KT CAVOK 23/07 Q1016 NOSIG RMK RWY21C 04004KT RWY03L 03007KT RWY21R 01003KT RWY03R 05005KT 360V070 RWY21L 02005KT",
      "taf": "TAF LTAC 211640Z 2118/2218 04012KT CAVOK"
    },
    {
      "icao": "LTFM",
      "alert": "OK",
      "vis_m": 9999,
      "fzfg": false,
      "metar_trigger": false,
      "taf_trigger": false,
      "metar": "METAR LTFM 211920Z 07008KT CAVOK 25/21 Q1015 NOSIG RMK RWY17L 06006KT RWY34L 04006KT RWY16R 05006KT RWY36 06005KT 010V080 RWY18 07006KT",
      "taf": "TAF LTFM 211640Z 2118/2224 07012KT CAVOK"
    },
    {
      "icao": "LUKK",
      "alert": "OK",
      "vis_m": 9999,
      "fzfg": false,
      "metar_trigger": false,
      "taf_trigger": false,
      "metar": "METAR LUKK 211930Z 01007KT CAVOK 23/13 Q1014 NOSIG",
      "taf": "TAF LUKK 211703Z 2118/2218 VRB05KT CAVOK"
    },
    {
      "icao": "LWOH",
      "alert": "OK",
      "vis_m": 9999,
      "fzfg": false,
      "metar_trigger": false,
      "taf_trigger": false,
      "metar": "METAR LWOH 211920Z VRB02KT CAVOK 24/14 Q1018",
      "taf": "TAF LWOH 211730Z 2118/2218 23008KT 9999 SCT040"
    },
    {
      "icao": "LWSK",
      "alert": "OK",
      "vis_m": 9999,
      "fzfg": false,
      "metar_trigger": false,
      "taf_trigger": false,
      "metar": "METAR LWSK 211920Z 24003KT 180V300 9999 FEW100 20/18 Q1017 NOSIG",
      "taf": "TAF LWSK 211730Z 2118/2218 36010KT 9999 FEW040 SCT060"
    },
    {
      "icao": "LYBE",
      "alert": "OK",
      "vis_m": 9999,
      "fzfg": false,
      "metar_trigger": false,
      "taf_trigger": false,
      "metar": "METAR LYBE 211930Z 23007KT CAVOK 24/15 Q1015 NOSIG",
      "taf": "TAF LYBE 211700Z 2118/2218 24006KT CAVOK TX26/2214Z TN17/2203Z"
    },
    {
      "icao": "LYNI",
      "alert": "OK",
      "vis_m": 9999,
      "fzfg": false,
      "metar_trigger": false,
      "taf_trigger": false,
      "metar": "METAR LYNI 211930Z 00000KT 9999 FEW060 19/18 Q1016 TEMPO 32015KT 5000 SHRA SCT040TCU SCT050",
      "taf": "TAF LYNI 211700Z 2118/2218 33004KT 9999 SCT050 TX24/2214Z TN16/2203Z"
    },
    {
      "icao": "LYPG",
      "alert": "OK",
      "vis_m": 9999,
      "fzfg": false,
      "metar_trigger": false,
      "taf_trigger": false,
      "metar": "METAR LYPG 211930Z 34013KT 9999 FEW090 27/16 Q1013 NOSIG",
      "taf": "TAF LYPG 211700Z 2118/2218 36009KT 9999 SCT050 SCT090 TX31/2213Z TN21/2203Z"
    },
    {
      "icao": "LZIB",
      "alert": "OK",
      "vis_m": 9999,
      "fzfg": false,
      "metar_trigger": false,
      "taf_trigger": false,
      "metar": "METAR LZIB 211930Z 36007KT CAVOK 19/08 Q1018 NOSIG",
      "taf": "TAF LZIB 211715Z 2118/2218 35006KT CAVOK"
    },
    {
      "icao": "LZKZ",
      "alert": "OK",
      "vis_m": 9999,
      "fzfg": false,
      "metar_trigger": false,
      "taf_trigger": false,
      "metar": "METAR LZKZ 211930Z 02010KT CAVOK 19/10 Q1017 NOSIG",
      "taf": "TAF LZKZ 211715Z 2118/2218 01011KT CAVOK"
    },
    {
      "icao": "LZTT",
      "alert": "OK",
      "vis_m": 9999,
      "fzfg": false,
      "metar_trigger": false,
      "taf_trigger": false,
      "metar": "METAR LZTT 211930Z VRB03KT 9999 FEW026 SCT080 13/08 Q1019 NOSIG",
      "taf": "TAF LZTT 211715Z 2118/2218 28012KT 9999 FEW045"
    },
    {
      "icao": "OEJN",
      "alert": "OK",
      "vis_m": 9999,
      "fzfg": false,
      "metar_trigger": false,
      "taf_trigger": false,
      "metar": "METAR OEJN 211900Z 36009KT CAVOK 36/18 Q1002 NOSIG",
      "taf": "TAF OEJN 211700Z 2118/2224 VRB03KT CAVOK"
    },
    {
      "icao": "OEMA",
      "alert": "OK",
      "vis_m": 9999,
      "fzfg": false,
      "metar_trigger": false,
      "taf_trigger": false,
      "metar": "METAR OEMA 211900Z 31009KT CAVOK 41/M01 Q1008 NOSIG",
      "taf": "TAF OEMA 211700Z 2118/2224 29008KT CAVOK"
    },
    {
      "icao": "OJAI",
      "alert": "OK",
      "vis_m": 5000,
      "fzfg": false,
      "metar_trigger": false,
      "taf_trigger": false,
      "metar": "METAR OJAI 211900Z 27007KT 5000 HZ NSC 24/11 Q1013 NOSIG",
      "taf": "TAF OJAI 211653Z 2118/2224 29010KT 5000 HZ NSC"
    },
    {
      "icao": "OMAA",
      "alert": "OK",
      "vis_m": 9999,
      "fzfg": false,
      "metar_trigger": false,
      "taf_trigger": false,
      "metar": "METAR OMAA 211930Z 23003KT CAVOK 34/26 Q0997 NOSIG",
      "taf": "TAF OMAA 211700Z 2118/2300 29008KT 8000 NSC"
    },
    {
      "icao": "OMDB",
      "alert": "OK",
      "vis_m": 9999,
      "fzfg": false,
      "metar_trigger": false,
      "taf_trigger": false,
      "metar": "METAR OMDB 211930Z 23008KT CAVOK 34/29 Q0997 NOSIG",
      "taf": "TAF OMDB 211700Z 2118/2300 19007KT 8000 NSC"
    },
    {
      "icao": "UAAA",
      "alert": "OK",
      "vis_m": 9999,
      "fzfg": false,
      "metar_trigger": false,
      "taf_trigger": false,
      "metar": "METAR UAAA 211930Z 15001MPS 9999 SCT050CB OVC100 20/16 Q1008 NOSIG",
      "taf": "TAF UAAA 211703Z 2118/2218 16003MPS 9999 BKN050CB OVC100 TX27/2210Z TN18/2200Z"
    },
    {
      "icao": "UBBB",
      "alert": "OK",
      "vis_m": 9999,
      "fzfg": false,
      "metar_trigger": false,
      "taf_trigger": false,
      "metar": "METAR UBBB 211930Z 21004KT CAVOK 25/20 Q1011 NOSIG",
      "taf": "TAF UBBB 211658Z 2118/2218 VRB04KT CAVOK TX33/2210Z TN23/2201Z"
    },
    {
      "icao": "UDSG",
      "alert": "OK",
      "vis_m": 9999,
      "fzfg": false,
      "metar_trigger": false,
      "taf_trigger": false,
      "metar": "METAR UDSG 211930Z 06009KT 9999 NSC 19/13 Q1018 NOSIG",
      "taf": "TAF UDSG 211700Z 2118/2218 VRB06KT 9999 FEW050"
    },
    {
      "icao": "UDYZ",
      "alert": "OK",
      "vis_m": 9999,
      "fzfg": false,
      "metar_trigger": false,
      "taf_trigger": false,
      "metar": "METAR UDYZ 211930Z 03018G30KT 9999 NSC 27/13 Q1011 NOSIG",
      "taf": "TAF UDYZ 211700Z 2118/2218 06006KT 9999 FEW040"
    },
    {
      "icao": "UGKO",
      "alert": "OK",
      "vis_m": 9999,
      "fzfg": false,
      "metar_trigger": false,
      "taf_trigger": false,
      "metar": "METAR UGKO 211930Z VRB02KT 9999 BKN052 24/19 Q1013 NOSIG",
      "taf": "TAF UGKO 211700Z 2118/2218 26006KT 9999 SCT020 BKN050 TX28/2211Z TN21/2202Z"
    }
  ]
}