{
  "ts_utc": "2026-05-31T01:32:32Z",
  "threshold_m": 150,
  "source": "stations_override.txt (ICAO list) + aviationweather.gov (METAR/TAF raw)",
  "station_count": 159,
  "stations": [
    {
      "icao": "BIKF",
      "alert": "OK",
      "vis_m": 4000,
      "fzfg": false,
      "metar_trigger": false,
      "taf_trigger": false,
      "metar": "METAR BIKF 310100Z 10011KT 4000 DZRA BR BKN006 OVC011 08/08 Q1006",
      "taf": "TAF BIKF 310114Z 3103/0103 13013KT 9999 -RA FEW015 BKN030 TX12/3112Z TN07/3103Z"
    },
    {
      "icao": "BKPR",
      "alert": "OK",
      "vis_m": 9999,
      "fzfg": false,
      "metar_trigger": false,
      "taf_trigger": false,
      "metar": "METAR BKPR 310130Z 25002KT CAVOK 11/08 Q1017 NOSIG",
      "taf": "TAF BKPR 302330Z 3100/3124 29008KT 9999 SCT080"
    },
    {
      "icao": "EBCI",
      "alert": "OK",
      "vis_m": 9999,
      "fzfg": false,
      "metar_trigger": false,
      "taf_trigger": false,
      "metar": "METAR EBCI 310120Z 17005KT 9999 FEW035 17/14 Q1015 NOSIG",
      "taf": "TAF EBCI 302300Z 3100/0106 27008KT 9999 FEW030"
    },
    {
      "icao": "EDDB",
      "alert": "OK",
      "vis_m": 9999,
      "fzfg": false,
      "metar_trigger": false,
      "taf_trigger": false,
      "metar": "METAR EDDB 310120Z AUTO 27004KT CAVOK 13/10 Q1015 NOSIG",
      "taf": "TAF EDDB 302300Z 3100/3124 29005KT CAVOK"
    },
    {
      "icao": "EDDH",
      "alert": "OK",
      "vis_m": 9999,
      "fzfg": false,
      "metar_trigger": false,
      "taf_trigger": false,
      "metar": "METAR EDDH 310120Z AUTO 31002KT 9999 0650 R23/P2000N R15/1000D BCFG NCD 10/09 Q1015 TEMPO 2000",
      "taf": "TAF EDDH 302300Z 3100/0106 32004KT CAVOK"
    },
    {
      "icao": "EDDK",
      "alert": "OK",
      "vis_m": 9999,
      "fzfg": false,
      "metar_trigger": false,
      "taf_trigger": false,
      "metar": "METAR EDDK 310120Z AUTO 08004KT 350V160 9999 -SHRA FEW049 FEW///TCU 20/15 Q1014 TEMPO SHRA",
      "taf": "TAF EDDK 302300Z 3100/0106 12004KT CAVOK"
    },
    {
      "icao": "EDDN",
      "alert": "OK",
      "vis_m": 9999,
      "fzfg": false,
      "metar_trigger": false,
      "taf_trigger": false,
      "metar": "METAR EDDN 310120Z AUTO 12003KT CAVOK 16/13 Q1016",
      "taf": "TAF EDDN 302300Z 3100/3124 VRB03KT CAVOK"
    },
    {
      "icao": "EDDS",
      "alert": "OK",
      "vis_m": 9999,
      "fzfg": false,
      "metar_trigger": false,
      "taf_trigger": false,
      "metar": "METAR EDDS 310120Z AUTO VRB01KT CAVOK 16/12 Q1016",
      "taf": "TAF EDDS 302300Z 3100/3124 VRB03KT CAVOK"
    },
    {
      "icao": "EDFH",
      "alert": "OK",
      "vis_m": 9999,
      "fzfg": false,
      "metar_trigger": false,
      "taf_trigger": false,
      "metar": "METAR EDFH 310120Z 26003KT CAVOK 17/11 Q1017",
      "taf": "TAF EDFH 302300Z 3100/3124 20004KT 9999 SCT040"
    },
    {
      "icao": "EDJA",
      "alert": "OK",
      "vis_m": 9999,
      "fzfg": false,
      "metar_trigger": false,
      "taf_trigger": false,
      "metar": "METAR EDJA 310120Z AUTO 00000KT 9999 // FEW140/// 14/12 Q1019",
      "taf": "TAF EDJA 301700Z 3018/3103 04006KT CAVOK"
    },
    {
      "icao": "EDLW",
      "alert": "OK",
      "vis_m": 9999,
      "fzfg": false,
      "metar_trigger": false,
      "taf_trigger": false,
      "metar": "METAR EDLW 310120Z AUTO 16006KT 9999 // FEW056/// BKN140/// BKN220/// 18/13 Q1014",
      "taf": "TAF EDLW 301700Z 3018/3118 VRB03KT CAVOK"
    },
    {
      "icao": "EDNY",
      "alert": "OK",
      "vis_m": 9999,
      "fzfg": false,
      "metar_trigger": false,
      "taf_trigger": false,
      "metar": "METAR EDNY 310120Z AUTO VRB01KT 9999 // NCD 13/12 Q1018",
      "taf": ""
    },
    {
      "icao": "EDSB",
      "alert": "OK",
      "vis_m": 9999,
      "fzfg": false,
      "metar_trigger": false,
      "taf_trigger": false,
      "metar": "METAR EDSB 310120Z AUTO VRB01KT 9999 // SCT140/// 18/16 Q1015",
      "taf": "TAF EDSB 302300Z 3100/3124 VRB03KT CAVOK"
    },
    {
      "icao": "EETN",
      "alert": "OK",
      "vis_m": 9999,
      "fzfg": false,
      "metar_trigger": false,
      "taf_trigger": false,
      "metar": "METAR EETN 310120Z 09009KT 9999 FEW032 12/09 Q1009",
      "taf": "TAF EETN 302330Z 3100/3124 VRB02KT 9999 SCT025 BKN040"
    },
    {
      "icao": "EFTU",
      "alert": "OK",
      "vis_m": 9999,
      "fzfg": false,
      "metar_trigger": false,
      "taf_trigger": false,
      "metar": "METAR EFTU 310120Z AUTO 09002KT CAVOK 07/02 Q1009",
      "taf": "TAF EFTU 302326Z 3100/3124 VRB02KT CAVOK"
    },
    {
      "icao": "EGBB",
      "alert": "OK",
      "vis_m": 9999,
      "fzfg": false,
      "metar_trigger": false,
      "taf_trigger": false,
      "metar": "METAR EGBB 310120Z 26003KT 220V290 CAVOK 15/10 Q1016",
      "taf": "TAF EGBB 302257Z 3100/3124 27004KT 9999 FEW025"
    },
    {
      "icao": "EGGP",
      "alert": "OK",
      "vis_m": 9999,
      "fzfg": false,
      "metar_trigger": false,
      "taf_trigger": false,
      "metar": "METAR EGGP 310120Z 21007KT 170V260 9999 FEW043 15/08 Q1015",
      "taf": "TAF EGGP 302303Z 3100/3124 VRB03KT 9999 FEW018 SCT030"
    },
    {
      "icao": "EGGW",
      "alert": "OK",
      "vis_m": 9999,
      "fzfg": false,
      "metar_trigger": false,
      "taf_trigger": false,
      "metar": "METAR EGGW 310120Z AUTO 28009KT 9999 NCD 16/09 Q1015",
      "taf": "TAF EGGW 302255Z 3100/3124 27010KT CAVOK"
    },
    {
      "icao": "EGKK",
      "alert": "OK",
      "vis_m": 9999,
      "fzfg": false,
      "metar_trigger": false,
      "taf_trigger": false,
      "metar": "METAR EGKK 310120Z 25006KT CAVOK 15/05 Q1016",
      "taf": "TAF EGKK 302250Z 3100/0106 26007KT CAVOK"
    },
    {
      "icao": "EGNM",
      "alert": "OK",
      "vis_m": 9999,
      "fzfg": false,
      "metar_trigger": false,
      "taf_trigger": false,
      "metar": "METAR EGNM 310120Z 27005KT 9999 FEW030 13/08 Q1014",
      "taf": "TAF EGNM 302302Z 3100/3124 29010KT 9999 FEW015 SCT030"
    },
    {
      "icao": "EGPD",
      "alert": "OK",
      "vis_m": 9999,
      "fzfg": false,
      "metar_trigger": false,
      "taf_trigger": false,
      "metar": "METAR EGPD 310120Z AUTO 15005KT 9999 NCD 13/12 Q1011 TEMPO RA",
      "taf": ""
    },
    {
      "icao": "EGPF",
      "alert": "OK",
      "vis_m": 9999,
      "fzfg": false,
      "metar_trigger": false,
      "taf_trigger": false,
      "metar": "METAR EGPF 310120Z AUTO 11003KT 080V140 9999 OVC010 13/13 Q1012",
      "taf": "TAF EGPF 302258Z 3100/3124 19005KT 9999 BKN025"
    },
    {
      "icao": "EHBK",
      "alert": "OK",
      "vis_m": 9999,
      "fzfg": false,
      "metar_trigger": false,
      "taf_trigger": false,
      "metar": "METAR EHBK 310125Z AUTO 20005KT 170V230 9999 TS NSC 17/15 Q1013",
      "taf": "TAF EHBK 302312Z 3100/0106 18008KT CAVOK"
    },
    {
      "icao": "EHEH",
      "alert": "OK",
      "vis_m": 9999,
      "fzfg": false,
      "metar_trigger": false,
      "taf_trigger": false,
      "metar": "METAR EHEH 310125Z AUTO VRB02KT 9999 FEW050 BKN100 OVC150 17/14 Q1013 BLU",
      "taf": "TAF EHEH 302340Z 3100/0106 VRB03KT CAVOK"
    },
    {
      "icao": "EKBI",
      "alert": "OK",
      "vis_m": 9999,
      "fzfg": false,
      "metar_trigger": false,
      "taf_trigger": false,
      "metar": "METAR EKBI 310120Z AUTO 29006KT 9999 OVC013/// 11/09 Q1014",
      "taf": ""
    },
    {
      "icao": "EKCH",
      "alert": "OK",
      "vis_m": 9999,
      "fzfg": false,
      "metar_trigger": false,
      "taf_trigger": false,
      "metar": "METAR EKCH 310120Z AUTO 32007KT 290V350 9999 OVC031/// 14/09 Q1013 NOSIG",
      "taf": "TAF EKCH 302327Z 3100/3124 31005KT 9999 BKN040"
    },
    {
      "icao": "ENAL",
      "alert": "OK",
      "vis_m": 9999,
      "fzfg": false,
      "metar_trigger": false,
      "taf_trigger": false,
      "metar": "METAR ENAL 310120Z AUTO 04003KT 010V090 9999 FEW006/// BKN010/// BKN012/// 11/10 Q1014",
      "taf": "TAF ENAL 302300Z 3100/3109 05005KT 9999 SCT006 BKN012"
    },
    {
      "icao": "ENBR",
      "alert": "OK",
      "vis_m": 9999,
      "fzfg": false,
      "metar_trigger": false,
      "taf_trigger": false,
      "metar": "METAR ENBR 310120Z 33002KT 9999 FEW004 SCT006 OVC020 10/09 Q1014 RMK WIND 1200FT 28003KT",
      "taf": "TAF ENBR 302300Z 3100/3124 32005KT 9999 SCT010 BKN030"
    },
    {
      "icao": "ENGM",
      "alert": "OK",
      "vis_m": 9999,
      "fzfg": false,
      "metar_trigger": false,
      "taf_trigger": false,
      "metar": "METAR ENGM 310120Z 36007KT CAVOK 13/07 Q1012",
      "taf": "TAF ENGM 302300Z 3100/3124 02005KT CAVOK"
    },
    {
      "icao": "ENHD",
      "alert": "OK",
      "vis_m": 8000,
      "fzfg": false,
      "metar_trigger": false,
      "taf_trigger": false,
      "metar": "METAR ENHD 310120Z AUTO 34004KT 8000 FEW001/// BKN003/// OVC004/// 10/10 Q1014",
      "taf": ""
    },
    {
      "icao": "ENTC",
      "alert": "OK",
      "vis_m": 9999,
      "fzfg": false,
      "metar_trigger": false,
      "taf_trigger": false,
      "metar": "METAR ENTC 310120Z AUTO 03007KT 9999 NCD 04/M00 Q1021 RMK WIND 2600FT 05006KT",
      "taf": "TAF ENTC 302300Z 3100/3124 04009KT CAVOK"
    },
    {
      "icao": "ENTO",
      "alert": "OK",
      "vis_m": 3700,
      "fzfg": false,
      "metar_trigger": false,
      "taf_trigger": false,
      "metar": "METAR ENTO 310120Z AUTO 35003KT 3700 // NCD 13/08 Q1011",
      "taf": "TAF ENTO 302300Z 3100/3124 34008KT CAVOK"
    },
    {
      "icao": "ENVA",
      "alert": "OK",
      "vis_m": 9999,
      "fzfg": false,
      "metar_trigger": false,
      "taf_trigger": false,
      "metar": "METAR ENVA 310120Z 11002KT 9999 SCT019 BKN024 10/09 Q1015 RMK WIND 670FT 15004KT",
      "taf": "TAF ENVA 302300Z 3100/3124 VRB03KT 9999 SCT015 BKN040"
    },
    {
      "icao": "ENZV",
      "alert": "OK",
      "vis_m": 9999,
      "fzfg": false,
      "metar_trigger": false,
      "taf_trigger": false,
      "metar": "METAR ENZV 310120Z 36007KT 9999 FEW006 OVC008 11/10 Q1014",
      "taf": "TAF ENZV 302300Z 3100/3124 32008KT 8000 SCT008"
    },
    {
      "icao": "EPGD",
      "alert": "OK",
      "vis_m": 9999,
      "fzfg": false,
      "metar_trigger": false,
      "taf_trigger": false,
      "metar": "METAR EPGD 310100Z 28005KT CAVOK 11/10 Q1010",
      "taf": "TAF EPGD 302330Z 3100/3124 27008KT 9999 SCT033"
    },
    {
      "icao": "EPKK",
      "alert": "OK",
      "vis_m": 9999,
      "fzfg": false,
      "metar_trigger": false,
      "taf_trigger": false,
      "metar": "METAR EPKK 310100Z 22004KT 9999 BKN047 14/12 Q1014",
      "taf": "TAF EPKK 302330Z 3100/3124 26005KT 9999 BKN055"
    },
    {
      "icao": "EPKT",
      "alert": "OK",
      "vis_m": 9999,
      "fzfg": false,
      "metar_trigger": false,
      "taf_trigger": false,
      "metar": "METAR EPKT 310100Z 26005KT 9999 OVC036 12/11 Q1014",
      "taf": "TAF EPKT 302330Z 3100/3124 25006KT 9999 BKN042"
    },
    {
      "icao": "EPLB",
      "alert": "OK",
      "vis_m": 9999,
      "fzfg": false,
      "metar_trigger": false,
      "taf_trigger": false,
      "metar": "METAR EPLB 310100Z 32007KT 9999 FEW049 14/12 Q1010",
      "taf": "TAF EPLB 302330Z 3100/3124 30010KT CAVOK"
    },
    {
      "icao": "EPMO",
      "alert": "OK",
      "vis_m": 9999,
      "fzfg": false,
      "metar_trigger": false,
      "taf_trigger": false,
      "metar": "METAR EPMO 310100Z 26004KT 9999 SCT037 BKN049 13/10 Q1011",
      "taf": "TAF EPMO 302330Z 3100/3124 VRB03KT 9999 BKN045"
    },
    {
      "icao": "EPPO",
      "alert": "OK",
      "vis_m": 9999,
      "fzfg": false,
      "metar_trigger": false,
      "taf_trigger": false,
      "metar": "METAR EPPO 310100Z 29006KT 9999 OVC045 16/11 Q1013",
      "taf": "TAF EPPO 302330Z 3100/3124 28006KT 9999 BKN040"
    },
    {
      "icao": "EPRA",
      "alert": "OK",
      "vis_m": 9999,
      "fzfg": false,
      "metar_trigger": false,
      "taf_trigger": false,
      "metar": "METAR EPRA 310100Z 32008KT 290V350 9999 BKN037 15/08 Q1011",
      "taf": "TAF EPRA 302330Z 3100/3109 31008KT 9999 BKN040"
    },
    {
      "icao": "EPRZ",
      "alert": "OK",
      "vis_m": 9999,
      "fzfg": false,
      "metar_trigger": false,
      "taf_trigger": false,
      "metar": "METAR EPRZ 310100Z 28010KT CAVOK 14/13 Q1011",
      "taf": "TAF EPRZ 302330Z 3100/3124 29008KT 9999 BKN035"
    },
    {
      "icao": "EPSC",
      "alert": "OK",
      "vis_m": 9999,
      "fzfg": false,
      "metar_trigger": false,
      "taf_trigger": false,
      "metar": "METAR EPSC 310100Z 27005KT 9999 FEW027 BKN047 14/12 Q1013",
      "taf": "TAF EPSC 302330Z 3100/3124 27008KT 9999 BKN030"
    },
    {
      "icao": "EPSY",
      "alert": "OK",
      "vis_m": 9999,
      "fzfg": false,
      "metar_trigger": false,
      "taf_trigger": false,
      "metar": "METAR EPSY 310100Z 25004KT CAVOK 09/08 Q1010",
      "taf": ""
    },
    {
      "icao": "EPWA",
      "alert": "OK",
      "vis_m": 9999,
      "fzfg": false,
      "metar_trigger": false,
      "taf_trigger": false,
      "metar": "METAR EPWA 310100Z 27005KT 9999 FEW037 14/10 Q1011 NOSIG",
      "taf": "TAF EPWA 302330Z 3100/3124 35010KT 9999 BKN040"
    },
    {
      "icao": "EPWR",
      "alert": "OK",
      "vis_m": 9999,
      "fzfg": false,
      "metar_trigger": false,
      "taf_trigger": false,
      "metar": "METAR EPWR 310100Z 28005KT CAVOK 17/11 Q1014",
      "taf": "TAF EPWR 302330Z 3100/3124 28005KT 9999 BKN045"
    },
    {
      "icao": "ESGG",
      "alert": "OK",
      "vis_m": 5000,
      "fzfg": false,
      "metar_trigger": false,
      "taf_trigger": false,
      "metar": "METAR ESGG 310120Z VRB03KT 5000 BR OVC003 11/11 Q1011",
      "taf": ""
    },
    {
      "icao": "ESKN",
      "alert": "OK",
      "vis_m": 9999,
      "fzfg": false,
      "metar_trigger": false,
      "taf_trigger": false,
      "metar": "METAR ESKN 310120Z 31004KT 280V340 CAVOK 11/10 Q1010",
      "taf": "TAF ESKN 302330Z 3100/3124 VRB03KT CAVOK"
    },
    {
      "icao": "ESMS",
      "alert": "OK",
      "vis_m": 9999,
      "fzfg": false,
      "metar_trigger": false,
      "taf_trigger": false,
      "metar": "METAR ESMS 310120Z 30007KT 9999 FEW032 11/11 Q1012",
      "taf": "TAF ESMS 302327Z 3100/3124 31005KT 9999 BKN035"
    },
    {
      "icao": "ESSA",
      "alert": "OK",
      "vis_m": 9999,
      "fzfg": false,
      "metar_trigger": false,
      "taf_trigger": false,
      "metar": "METAR ESSA 310120Z 01003KT CAVOK 08/07 Q1010 NOSIG",
      "taf": "TAF ESSA 302330Z 3100/3124 27005KT CAVOK"
    },
    {
      "icao": "EYKA",
      "alert": "OK",
      "vis_m": 9999,
      "fzfg": false,
      "metar_trigger": false,
      "taf_trigger": false,
      "metar": "METAR EYKA 310120Z 23002KT CAVOK 07/06 Q1008",
      "taf": "TAF EYKA 302300Z 3100/3124 VRB03KT 9000 NSC"
    },
    {
      "icao": "EYPA",
      "alert": "OK",
      "vis_m": 9999,
      "fzfg": false,
      "metar_trigger": false,
      "taf_trigger": false,
      "metar": "METAR EYPA 310120Z 05002KT CAVOK 06/05 Q1008",
      "taf": "TAF EYPA 302301Z 3100/3124 VRB03KT 9000 NSC"
    },
    {
      "icao": "EYVI",
      "alert": "OK",
      "vis_m": 9999,
      "fzfg": false,
      "metar_trigger": false,
      "taf_trigger": false,
      "metar": "METAR EYVI 310120Z 33003KT CAVOK 12/06 Q1007 NOSIG",
      "taf": "TAF EYVI 302300Z 3100/3124 VRB03KT 9000 NSC"
    },
    {
      "icao": "GCFV",
      "alert": "OK",
      "vis_m": 9999,
      "fzfg": false,
      "metar_trigger": false,
      "taf_trigger": false,
      "metar": "METAR GCFV 310100Z AUTO 36014KT 9999 OVC025 21/15 Q1021",
      "taf": "TAF GCFV 302000Z 3021/3121 01013KT 9999 BKN020 TX24/3114Z TN18/3106Z"
    },
    {
      "icao": "GCLP",
      "alert": "OK",
      "vis_m": 9999,
      "fzfg": false,
      "metar_trigger": false,
      "taf_trigger": false,
      "metar": "METAR GCLP 310100Z 36019KT 9999 BKN025 20/14 Q1021 NOSIG",
      "taf": "TAF GCLP 302000Z 3021/3121 36022KT 9999 BKN025 TX23/3114Z TN18/3106Z"
    },
    {
      "icao": "GCTS",
      "alert": "OK",
      "vis_m": 9999,
      "fzfg": false,
      "metar_trigger": false,
      "taf_trigger": false,
      "metar": "METAR GCTS 310100Z 08013KT 9999 SCT030 20/13 Q1022 NOSIG",
      "taf": "TAF GCTS 302000Z 3021/3121 04009KT 9999 FEW030 TX25/3114Z TN17/3106Z"
    },
    {
      "icao": "GMAD",
      "alert": "OK",
      "vis_m": 8000,
      "fzfg": false,
      "metar_trigger": false,
      "taf_trigger": false,
      "metar": "METAR GMAD 310100Z 05003KT 8000 FEW016 18/15 Q1017 NOSIG",
      "taf": "TAF GMAD 302300Z 3100/0106 18006KT 8000 BKN016"
    },
    {
      "icao": "GMMN",
      "alert": "OK",
      "vis_m": 9999,
      "fzfg": false,
      "metar_trigger": false,
      "taf_trigger": false,
      "metar": "METAR GMMN 310100Z 32004KT 9999 FEW010 18/16 Q1018 NOSIG",
      "taf": "TAF GMMN 302300Z 3100/0106 32004KT 9999 FEW010"
    },
    {
      "icao": "GMMX",
      "alert": "OK",
      "vis_m": 8000,
      "fzfg": false,
      "metar_trigger": false,
      "taf_trigger": false,
      "metar": "METAR GMMX 310100Z 26005KT 8000 SCT026 22/16 Q1018 NOSIG",
      "taf": "TAF GMMX 302300Z 3100/0106 06006KT 8000 SCT033 SCT100"
    },
    {
      "icao": "HEGN",
      "alert": "OK",
      "vis_m": 9999,
      "fzfg": false,
      "metar_trigger": false,
      "taf_trigger": false,
      "metar": "METAR HEGN 310100Z 29015KT CAVOK 27/09 Q1010 NOSIG",
      "taf": "TAF HEGN 302300Z 3100/0106 28013KT CAVOK"
    },
    {
      "icao": "HEMA",
      "alert": "OK",
      "vis_m": 9999,
      "fzfg": false,
      "metar_trigger": false,
      "taf_trigger": false,
      "metar": "METAR HEMA 310100Z 31012KT CAVOK 27/04 Q1009 NOSIG",
      "taf": "TAF HEMA 302300Z 3100/0106 29008G20KT CAVOK"
    },
    {
      "icao": "HESH",
      "alert": "OK",
      "vis_m": 9999,
      "fzfg": false,
      "metar_trigger": false,
      "taf_trigger": false,
      "metar": "METAR HESH 310100Z 35017KT CAVOK 26/15 Q1009 NOSIG",
      "taf": "TAF HESH 302300Z 3100/0106 31014KT CAVOK"
    },
    {
      "icao": "HESX",
      "alert": "OK",
      "vis_m": 9999,
      "fzfg": false,
      "metar_trigger": false,
      "taf_trigger": false,
      "metar": "METAR HESX 310100Z 33004KT CAVOK 19/16 Q1014 NOSIG",
      "taf": "TAF HESX 302300Z 3100/0106 35008KT CAVOK"
    },
    {
      "icao": "LATI",
      "alert": "OK",
      "vis_m": 9999,
      "fzfg": false,
      "metar_trigger": false,
      "taf_trigger": false,
      "metar": "METAR LATI 310120Z 17003KT CAVOK 16/11 Q1016 NOSIG",
      "taf": "TAF LATI 302300Z 3100/3124 VRB05KT CAVOK TX29/3112Z TN11/3104Z"
    },
    {
      "icao": "LBPD",
      "alert": "OK",
      "vis_m": 9999,
      "fzfg": false,
      "metar_trigger": false,
      "taf_trigger": false,
      "metar": "METAR LBPD 310130Z AUTO 00000KT 9999 OVC089/// 18/09 Q1013",
      "taf": "TAF LBPD 302300Z 3100/3124 28008KT 9999 SCT080"
    },
    {
      "icao": "LBSF",
      "alert": "OK",
      "vis_m": 9999,
      "fzfg": false,
      "metar_trigger": false,
      "taf_trigger": false,
      "metar": "METAR LBSF 310130Z AUTO 10005KT 9999 BKN087/// 13/09 Q1015 NOSIG",
      "taf": "TAF LBSF 302300Z 3100/3124 VRB03KT 9999 SCT070"
    },
    {
      "icao": "LBWN",
      "alert": "OK",
      "vis_m": 9999,
      "fzfg": false,
      "metar_trigger": false,
      "taf_trigger": false,
      "metar": "METAR LBWN 310130Z AUTO 10004KT 9999 NCD 13/13 Q1012 NOSIG",
      "taf": "TAF LBWN 302300Z 3100/3124 VRB03KT 9999 SCT045"
    },
    {
      "icao": "LCLK",
      "alert": "OK",
      "vis_m": 8000,
      "fzfg": false,
      "metar_trigger": false,
      "taf_trigger": false,
      "metar": "METAR LCLK 310130Z 31004KT 8000 FEW011 18/17 Q1012 NOSIG",
      "taf": "TAF LCLK 302330Z 3100/0100 33006KT 9999 FEW030"
    },
    {
      "icao": "LCPH",
      "alert": "OK",
      "vis_m": 9999,
      "fzfg": false,
      "metar_trigger": false,
      "taf_trigger": false,
      "metar": "METAR LCPH 310130Z AUTO 08003KT 9999 NCD 19/16 Q1012 NOSIG",
      "taf": "TAF LCPH 302330Z 3100/0100 05007KT 9999 FEW009"
    },
    {
      "icao": "LEAL",
      "alert": "OK",
      "vis_m": 9999,
      "fzfg": false,
      "metar_trigger": false,
      "taf_trigger": false,
      "metar": "METAR LEAL 310100Z 29004KT CAVOK 23/13 Q1017 NOSIG",
      "taf": "TAF LEAL 302300Z 3100/3124 VRB04KT 9999 FEW010 TX30/3112Z TN19/3106Z"
    },
    {
      "icao": "LEBB",
      "alert": "OK",
      "vis_m": 9999,
      "fzfg": false,
      "metar_trigger": false,
      "taf_trigger": false,
      "metar": "METAR LEBB 310100Z AUTO VRB02KT 9999 BKN022 BKN029 18/14 Q1024",
      "taf": "TAF LEBB 302300Z 3100/3124 32009KT 9999 SCT020 TX22/3113Z TN14/3105Z"
    },
    {
      "icao": "LEBL",
      "alert": "OK",
      "vis_m": 9999,
      "fzfg": false,
      "metar_trigger": false,
      "taf_trigger": false,
      "metar": "METAR LEBL 310100Z 31005KT 9999 FEW020 21/17 Q1018 NOSIG",
      "taf": "TAF LEBL 302300Z 3100/3124 VRB04KT 9999 FEW010 TX27/3112Z TN20/3105Z"
    },
    {
      "icao": "LECH",
      "alert": "OK",
      "vis_m": 9000,
      "fzfg": false,
      "metar_trigger": false,
      "taf_trigger": false,
      "metar": "METAR LECH 310100Z AUTO 00000KT 9000 NCD 18/17 Q1019",
      "taf": "TAF LECH 302300Z 3100/3124 VRB04KT CAVOK TX32/3113Z TN16/3106Z"
    },
    {
      "icao": "LEMD",
      "alert": "OK",
      "vis_m": 9999,
      "fzfg": false,
      "metar_trigger": false,
      "taf_trigger": false,
      "metar": "METAR LEMD 310100Z 06003KT 010V100 CAVOK 23/10 Q1019 NOSIG",
      "taf": "TAF LEMD 302300Z 3100/0106 VRB04KT CAVOK TX36/3116Z TN17/3105Z"
    },
    {
      "icao": "LEMG",
      "alert": "OK",
      "vis_m": 9999,
      "fzfg": false,
      "metar_trigger": false,
      "taf_trigger": false,
      "metar": "METAR LEMG 310100Z 27005KT CAVOK 20/09 Q1018 NOSIG",
      "taf": "TAF LEMG 302300Z 3100/3124 30006KT CAVOK TX29/3114Z TN17/3106Z"
    },
    {
      "icao": "LEVC",
      "alert": "OK",
      "vis_m": 9999,
      "fzfg": false,
      "metar_trigger": false,
      "taf_trigger": false,
      "metar": "METAR LEVC 310100Z 20003KT 170V250 CAVOK 22/19 Q1018 NOSIG",
      "taf": "TAF LEVC 302300Z 3100/3124 VRB04KT 9999 FEW015 TX31/3112Z TN19/3106Z"
    },
    {
      "icao": "LEXJ",
      "alert": "OK",
      "vis_m": 9000,
      "fzfg": false,
      "metar_trigger": false,
      "taf_trigger": false,
      "metar": "METAR LEXJ 310100Z AUTO 23005KT 9000 NCD 15/14 Q1024",
      "taf": "TAF LEXJ 302000Z 3021/3121 25009KT 9999 BKN020 TX21/3112Z TN15/3105Z"
    },
    {
      "icao": "LEZG",
      "alert": "OK",
      "vis_m": 9999,
      "fzfg": false,
      "metar_trigger": false,
      "taf_trigger": false,
      "metar": "METAR LEZG 310100Z 28015KT CAVOK 19/13 Q1020 NOSIG",
      "taf": "TAF LEZG 302300Z 3100/3124 30015KT CAVOK TX33/3115Z TN17/3106Z"
    },
    {
      "icao": "LEZL",
      "alert": "OK",
      "vis_m": 9999,
      "fzfg": false,
      "metar_trigger": false,
      "taf_trigger": false,
      "metar": "METAR LEZL 310100Z AUTO 16003KT 110V220 CAVOK 22/14 Q1017",
      "taf": "TAF LEZL 302000Z 3021/3121 20007KT CAVOK TX38/3115Z TN19/3106Z"
    },
    {
      "icao": "LFBD",
      "alert": "OK",
      "vis_m": 9999,
      "fzfg": false,
      "metar_trigger": false,
      "taf_trigger": false,
      "metar": "METAR LFBD 310100Z AUTO 21006KT 9999 FEW012 OVC027 18/17 Q1021 TEMPO BKN010",
      "taf": "TAF LFBD 302300Z 3100/0106 25010KT 9999 OVC025 TX26/3113Z TN16/3124Z"
    },
    {
      "icao": "LFLL",
      "alert": "OK",
      "vis_m": 9999,
      "fzfg": false,
      "metar_trigger": false,
      "taf_trigger": false,
      "metar": "METAR LFLL 310100Z 12004KT CAVOK 20/15 Q1017 NOSIG",
      "taf": "TAF LFLL 302300Z 3100/0106 18005KT CAVOK"
    },
    {
      "icao": "LFLS",
      "alert": "OK",
      "vis_m": 9999,
      "fzfg": false,
      "metar_trigger": false,
      "taf_trigger": false,
      "metar": "METAR LFLS 310100Z AUTO 10007KT CAVOK 15/13 Q1018",
      "taf": "TAF LFLS 301400Z 3015/3115 VRB03KT CAVOK"
    },
    {
      "icao": "LFMN",
      "alert": "OK",
      "vis_m": 9999,
      "fzfg": false,
      "metar_trigger": false,
      "taf_trigger": false,
      "metar": "METAR LFMN 310100Z 04003KT CAVOK 21/18 Q1016 NOSIG",
      "taf": "TAF LFMN 302000Z 3021/0103 VRB04KT CAVOK"
    },
    {
      "icao": "LFOB",
      "alert": "OK",
      "vis_m": 9999,
      "fzfg": false,
      "metar_trigger": false,
      "taf_trigger": false,
      "metar": "METAR LFOB 310100Z AUTO 28005KT CAVOK 15/11 Q1017 NOSIG",
      "taf": ""
    },
    {
      "icao": "LFPO",
      "alert": "OK",
      "vis_m": 9999,
      "fzfg": false,
      "metar_trigger": false,
      "taf_trigger": false,
      "metar": "METAR LFPO 310100Z AUTO 33012KT 9999 ///TCU 20/15 Q1017 TEMPO 4000 -TSRA SCT060CB",
      "taf": "TAF LFPO 302300Z 3100/0106 31005KT CAVOK"
    },
    {
      "icao": "LFSB",
      "alert": "OK",
      "vis_m": 9999,
      "fzfg": false,
      "metar_trigger": false,
      "taf_trigger": false,
      "metar": "METAR LFSB 310100Z AUTO 17003KT CAVOK 17/12 Q1017 TEMPO 35010KT",
      "taf": "TAF LFSB 302300Z 3100/3124 21003KT CAVOK"
    },
    {
      "icao": "LGAV",
      "alert": "OK",
      "vis_m": 9999,
      "fzfg": false,
      "metar_trigger": false,
      "taf_trigger": false,
      "metar": "METAR LGAV 310120Z VRB01KT CAVOK 16/09 Q1014 NOSIG",
      "taf": "TAF LGAV 302300Z 3100/3124 VRB03KT 9999 FEW025"
    },
    {
      "icao": "LGTS",
      "alert": "OK",
      "vis_m": 9999,
      "fzfg": false,
      "metar_trigger": false,
      "taf_trigger": false,
      "metar": "METAR LGTS 310120Z 12004KT CAVOK 15/12 Q1014 NOSIG",
      "taf": "TAF LGTS 302300Z 3100/3124 VRB03KT 9999 FEW025"
    },
    {
      "icao": "LHBP",
      "alert": "OK",
      "vis_m": 9999,
      "fzfg": false,
      "metar_trigger": false,
      "taf_trigger": false,
      "metar": "METAR LHBP 310130Z 33007KT CAVOK 16/13 Q1012 NOSIG",
      "taf": "TAF LHBP 302315Z 3100/3124 30008KT CAVOK"
    },
    {
      "icao": "LHDC",
      "alert": "OK",
      "vis_m": 9999,
      "fzfg": false,
      "metar_trigger": false,
      "taf_trigger": false,
      "metar": "METAR LHDC 310045Z AUTO VRB01KT CAVOK 14/13 Q1011 NOSIG",
      "taf": "TAF LHDC 302315Z 3100/3109 VRB03KT CAVOK"
    },
    {
      "icao": "LIBD",
      "alert": "OK",
      "vis_m": 9999,
      "fzfg": false,
      "metar_trigger": false,
      "taf_trigger": false,
      "metar": "METAR LIBD 310120Z 22005KT CAVOK 13/06 Q1016",
      "taf": "TAF LIBD 302300Z 3100/3124 VRB05KT CAVOK"
    },
    {
      "icao": "LIBG",
      "alert": "OK",
      "vis_m": null,
      "fzfg": false,
      "metar_trigger": false,
      "taf_trigger": false,
      "metar": "",
      "taf": "TAF LIBG 302300Z 3100/3124 VRB05KT CAVOK"
    },
    {
      "icao": "LIBP",
      "alert": "OK",
      "vis_m": 9999,
      "fzfg": false,
      "metar_trigger": false,
      "taf_trigger": false,
      "metar": "METAR LIBP 310120Z AUTO 20005KT 9999 SCT250/// 15/11 Q1016",
      "taf": "TAF LIBP 302300Z 3100/3124 VRB05KT CAVOK"
    },
    {
      "icao": "LIBR",
      "alert": "OK",
      "vis_m": 9999,
      "fzfg": false,
      "metar_trigger": false,
      "taf_trigger": false,
      "metar": "METAR LIBR 310120Z 24006KT CAVOK 15/11 Q1016",
      "taf": "TAF LIBR 302300Z 3100/3124 VRB06KT CAVOK"
    },
    {
      "icao": "LICA",
      "alert": "OK",
      "vis_m": 9999,
      "fzfg": false,
      "metar_trigger": false,
      "taf_trigger": false,
      "metar": "METAR LICA 310120Z AUTO 07004KT 9999 FEW018/// 17/16 Q1017",
      "taf": "TAF LICA 302300Z 3100/3124 VRB05KT 9999 FEW015"
    },
    {
      "icao": "LICC",
      "alert": "OK",
      "vis_m": 9999,
      "fzfg": false,
      "metar_trigger": false,
      "taf_trigger": false,
      "metar": "METAR LICC 310120Z 23007KT CAVOK 16/09 Q1016",
      "taf": "TAF LICC 302300Z 3100/3124 26006KT CAVOK"
    },
    {
      "icao": "LICJ",
      "alert": "OK",
      "vis_m": 9999,
      "fzfg": false,
      "metar_trigger": false,
      "taf_trigger": false,
      "metar": "METAR LICJ 310120Z 19003KT CAVOK 21/18 Q1017",
      "taf": "TAF LICJ 302300Z 3100/3124 VRB05KT CAVOK"
    },
    {
      "icao": "LIMC",
      "alert": "OK",
      "vis_m": 9999,
      "fzfg": false,
      "metar_trigger": false,
      "taf_trigger": false,
      "metar": "METAR LIMC 310120Z 03004KT CAVOK 19/16 Q1016 NOSIG",
      "taf": "TAF LIMC 302300Z 3100/0106 VRB05KT CAVOK"
    },
    {
      "icao": "LIME",
      "alert": "OK",
      "vis_m": 9999,
      "fzfg": false,
      "metar_trigger": false,
      "taf_trigger": false,
      "metar": "METAR LIME 310120Z AUTO 35004KT 9999 NCD 22/15 Q1016",
      "taf": "TAF LIME 302300Z 3100/3124 VRB06KT CAVOK"
    },
    {
      "icao": "LIMF",
      "alert": "OK",
      "vis_m": 9999,
      "fzfg": false,
      "metar_trigger": false,
      "taf_trigger": false,
      "metar": "METAR LIMF 310120Z 33004KT CAVOK 21/11 Q1016",
      "taf": "TAF LIMF 302300Z 3100/3124 VRB05KT CAVOK"
    },
    {
      "icao": "LIMJ",
      "alert": "OK",
      "vis_m": 9999,
      "fzfg": false,
      "metar_trigger": false,
      "taf_trigger": false,
      "metar": "METAR LIMJ 310120Z 05002KT CAVOK 22/14 Q1016",
      "taf": "TAF LIMJ 302300Z 3100/3124 VRB04KT 9999 FEW016"
    },
    {
      "icao": "LIPE",
      "alert": "OK",
      "vis_m": 9999,
      "fzfg": false,
      "metar_trigger": false,
      "taf_trigger": false,
      "metar": "METAR LIPE 310120Z 20007KT CAVOK 22/16 Q1015",
      "taf": "TAF LIPE 302300Z 3100/3124 VRB05KT CAVOK"
    },
    {
      "icao": "LIPH",
      "alert": "OK",
      "vis_m": 9999,
      "fzfg": false,
      "metar_trigger": false,
      "taf_trigger": false,
      "metar": "METAR LIPH 310120Z AUTO 08003KT 9999 NCD 20/17 Q1015",
      "taf": "TAF LIPH 302300Z 3100/3124 VRB05KT CAVOK"
    },
    {
      "icao": "LIPQ",
      "alert": "OK",
      "vis_m": 9999,
      "fzfg": false,
      "metar_trigger": false,
      "taf_trigger": false,
      "metar": "METAR LIPQ 310120Z AUTO VRB01KT 9999 BKN150/// 18/15 Q1015",
      "taf": "TAF LIPQ 302300Z 3100/3124 VRB05KT CAVOK"
    },
    {
      "icao": "LIPR",
      "alert": "OK",
      "vis_m": 9999,
      "fzfg": false,
      "metar_trigger": false,
      "taf_trigger": false,
      "metar": "METAR LIPR 310120Z AUTO VRB02KT 9999 NCD 19/14 Q1015",
      "taf": "TAF LIPR 302300Z 3100/3124 VRB05KT CAVOK"
    },
    {
      "icao": "LIPX",
      "alert": "OK",
      "vis_m": 9999,
      "fzfg": false,
      "metar_trigger": false,
      "taf_trigger": false,
      "metar": "METAR LIPX 310120Z VRB02KT CAVOK 20/17 Q1015",
      "taf": "TAF LIPX 302300Z 3100/3124 VRB05KT CAVOK"
    },
    {
      "icao": "LIPY",
      "alert": "OK",
      "vis_m": 9999,
      "fzfg": false,
      "metar_trigger": false,
      "taf_trigger": false,
      "metar": "METAR LIPY 310120Z AUTO 19004KT 9999 NCD 17/14 Q1015",
      "taf": "TAF LIPY 302300Z 3100/3124 VRB05KT CAVOK"
    },
    {
      "icao": "LIPZ",
      "alert": "OK",
      "vis_m": 9999,
      "fzfg": false,
      "metar_trigger": false,
      "taf_trigger": false,
      "metar": "METAR LIPZ 310120Z 06006KT CAVOK 21/20 Q1015 NOSIG",
      "taf": "TAF LIPZ 302300Z 3100/0106 VRB05KT CAVOK"
    },
    {
      "icao": "LIRF",
      "alert": "OK",
      "vis_m": 9999,
      "fzfg": false,
      "metar_trigger": false,
      "taf_trigger": false,
      "metar": "METAR LIRF 310120Z 05003KT CAVOK 17/16 Q1017 NOSIG",
      "taf": "TAF LIRF 302300Z 3100/0106 VRB05KT CAVOK"
    },
    {
      "icao": "LIRN",
      "alert": "OK",
      "vis_m": 9999,
      "fzfg": false,
      "metar_trigger": false,
      "taf_trigger": false,
      "metar": "METAR LIRN 310120Z VRB01KT CAVOK 20/10 Q1017 NOSIG",
      "taf": "TAF LIRN 302300Z 3100/3124 VRB05KT CAVOK"
    },
    {
      "icao": "LIRP",
      "alert": "OK",
      "vis_m": 9999,
      "fzfg": false,
      "metar_trigger": false,
      "taf_trigger": false,
      "metar": "METAR LIRP 310115Z 10003KT CAVOK 17/16 Q1017 NOSIG",
      "taf": "TAF LIRP 302300Z 3100/3124 25005KT CAVOK"
    },
    {
      "icao": "LIRZ",
      "alert": "OK",
      "vis_m": 9999,
      "fzfg": false,
      "metar_trigger": false,
      "taf_trigger": false,
      "metar": "METAR LIRZ 310120Z AUTO 36005KT 9999 NCD 15/13 Q1018",
      "taf": "TAF LIRZ 302300Z 3100/3124 VRB05KT CAVOK"
    },
    {
      "icao": "LJLJ",
      "alert": "OK",
      "vis_m": 9999,
      "fzfg": false,
      "metar_trigger": false,
      "taf_trigger": false,
      "metar": "METAR LJLJ 310100Z VRB02KT 9999 FEW060 SCT250 14/14 Q1017 NOSIG",
      "taf": "TAF LJLJ 302300Z 3100/0100 VRB02KT 9999 FEW060"
    },
    {
      "icao": "LKMT",
      "alert": "OK",
      "vis_m": 9999,
      "fzfg": false,
      "metar_trigger": false,
      "taf_trigger": false,
      "metar": "METAR LKMT 310100Z VRB02KT CAVOK 13/12 Q1015 NOSIG",
      "taf": "TAF LKMT 302300Z 3100/3124 22006KT 9999 SCT045"
    },
    {
      "icao": "LKPR",
      "alert": "OK",
      "vis_m": 9999,
      "fzfg": false,
      "metar_trigger": false,
      "taf_trigger": false,
      "metar": "METAR LKPR 310100Z 22004KT CAVOK 11/09 Q1016 NOSIG",
      "taf": "TAF LKPR 302300Z 3100/0106 27008KT CAVOK"
    },
    {
      "icao": "LLBG",
      "alert": "OK",
      "vis_m": 9999,
      "fzfg": false,
      "metar_trigger": false,
      "taf_trigger": false,
      "metar": "METAR LLBG 310120Z VRB03KT 9999 FEW018 20/16 Q1013 NOSIG",
      "taf": "TAF LLBG 302303Z 3100/3124 VRB04KT 9999 FEW020 TX28/3111Z TN19/3103Z"
    },
    {
      "icao": "LMML",
      "alert": "OK",
      "vis_m": 9999,
      "fzfg": false,
      "metar_trigger": false,
      "taf_trigger": false,
      "metar": "METAR LMML 310115Z 25004KT CAVOK 19/14 Q1017 NOSIG",
      "taf": "TAF LMML 302300Z 3100/3124 VRB05KT 9999 FEW015"
    },
    {
      "icao": "LOWW",
      "alert": "OK",
      "vis_m": 9999,
      "fzfg": false,
      "metar_trigger": false,
      "taf_trigger": false,
      "metar": "METAR LOWW 310120Z 30013KT CAVOK 18/12 Q1015 NOSIG",
      "taf": "TAF LOWW 302315Z 3100/0106 30010KT 9999 FEW050 TX26/3111Z TN16/3103Z"
    },
    {
      "icao": "LPFR",
      "alert": "OK",
      "vis_m": 9999,
      "fzfg": false,
      "metar_trigger": false,
      "taf_trigger": false,
      "metar": "METAR LPFR 310100Z VRB03KT CAVOK 27/06 Q1017",
      "taf": "TAF LPFR 302300Z 3100/3124 35008KT CAVOK"
    },
    {
      "icao": "LPMA",
      "alert": "OK",
      "vis_m": 9999,
      "fzfg": false,
      "metar_trigger": false,
      "taf_trigger": false,
      "metar": "METAR LPMA 310100Z 36013KT 310V050 9999 FEW015 19/09 Q1024",
      "taf": "TAF LPMA 302300Z 3100/3124 01013KT 9999 SCT015"
    },
    {
      "icao": "LPPR",
      "alert": "OK",
      "vis_m": 9999,
      "fzfg": false,
      "metar_trigger": false,
      "taf_trigger": false,
      "metar": "METAR LPPR 310100Z VRB02KT 9999 FEW009 15/14 Q1021",
      "taf": "TAF LPPR 302300Z 3100/3124 35005KT 9999 SCT008"
    },
    {
      "icao": "LPPS",
      "alert": "OK",
      "vis_m": 9999,
      "fzfg": false,
      "metar_trigger": false,
      "taf_trigger": false,
      "metar": "METAR LPPS 310100Z 01012KT 9999 SCT015 18/13 Q1025",
      "taf": "TAF LPPS 302300Z 3100/0106 01013KT 9999 SCT015"
    },
    {
      "icao": "LPPT",
      "alert": "OK",
      "vis_m": 9999,
      "fzfg": false,
      "metar_trigger": false,
      "taf_trigger": false,
      "metar": "METAR LPPT 310100Z 32009KT 280V350 CAVOK 16/13 Q1021",
      "taf": "TAF LPPT 302300Z 3100/0106 34010KT 9999 FEW012"
    },
    {
      "icao": "LQBK",
      "alert": "OK",
      "vis_m": 9999,
      "fzfg": false,
      "metar_trigger": false,
      "taf_trigger": false,
      "metar": "METAR LQBK 310100Z 18006KT 130V210 9999 FEW017 17/13 Q1015 NOSIG",
      "taf": ""
    },
    {
      "icao": "LQSA",
      "alert": "OK",
      "vis_m": 9999,
      "fzfg": false,
      "metar_trigger": false,
      "taf_trigger": false,
      "metar": "METAR LQSA 310100Z 16004KT CAVOK 13/09 Q1017",
      "taf": "TAF LQSA 302300Z 3100/3124 VRB02KT CAVOK TX27/3113Z TN12/3104Z"
    },
    {
      "icao": "LQTZ",
      "alert": "OK",
      "vis_m": 9999,
      "fzfg": false,
      "metar_trigger": false,
      "taf_trigger": false,
      "metar": "METAR LQTZ 310100Z 00000KT CAVOK 13/12 Q1015",
      "taf": "TAF LQTZ 302300Z 3100/3124 27006KT CAVOK TX29/3114Z TN11/3103Z"
    },
    {
      "icao": "LRBC",
      "alert": "OK",
      "vis_m": 9999,
      "fzfg": false,
      "metar_trigger": false,
      "taf_trigger": false,
      "metar": "METAR LRBC 310100Z COR 24004KT CAVOK 10/09 Q1009",
      "taf": "TAF LRBC 302300Z 3100/3109 VRB04KT CAVOK"
    },
    {
      "icao": "LRBS",
      "alert": "OK",
      "vis_m": 9999,
      "fzfg": false,
      "metar_trigger": false,
      "taf_trigger": false,
      "metar": "METAR LRBS 310100Z VRB02KT CAVOK 13/11 Q1010 NOSIG",
      "taf": "TAF LRBS 302300Z 3100/3124 VRB04KT CAVOK"
    },
    {
      "icao": "LRBV",
      "alert": "OK",
      "vis_m": 9999,
      "fzfg": false,
      "metar_trigger": false,
      "taf_trigger": false,
      "metar": "METAR LRBV 310100Z AUTO 33003KT 260V020 9999 BKN041/// OVC064/// 15/09 Q1012",
      "taf": "TAF LRBV 301700Z 3018/3103 29008KT CAVOK"
    },
    {
      "icao": "LRCL",
      "alert": "OK",
      "vis_m": 9999,
      "fzfg": false,
      "metar_trigger": false,
      "taf_trigger": false,
      "metar": "METAR LRCL 310100Z 29004KT 240V320 9999 BKN055 15/11 Q1011",
      "taf": "TAF LRCL 302300Z 3100/3109 29008KT 9999 BKN060"
    },
    {
      "icao": "LRCV",
      "alert": "OK",
      "vis_m": 9999,
      "fzfg": false,
      "metar_trigger": false,
      "taf_trigger": false,
      "metar": "METAR LRCV 310100Z 29007KT CAVOK 13/10 Q1012",
      "taf": "TAF LRCV 302300Z 3100/3109 28006KT CAVOK"
    },
    {
      "icao": "LRIA",
      "alert": "OK",
      "vis_m": 9999,
      "fzfg": false,
      "metar_trigger": false,
      "taf_trigger": false,
      "metar": "METAR LRIA 310100Z 23004KT CAVOK 14/09 Q1008",
      "taf": "TAF LRIA 302300Z 3100/3109 VRB04KT CAVOK"
    },
    {
      "icao": "LROP",
      "alert": "OK",
      "vis_m": 9999,
      "fzfg": false,
      "metar_trigger": false,
      "taf_trigger": false,
      "metar": "METAR LROP 310100Z 32003KT 260V010 CAVOK 12/11 Q1011 NOSIG",
      "taf": "TAF LROP 302300Z 3100/3124 VRB04KT CAVOK"
    },
    {
      "icao": "LRSB",
      "alert": "OK",
      "vis_m": 9999,
      "fzfg": false,
      "metar_trigger": false,
      "taf_trigger": false,
      "metar": "METAR LRSB 310100Z 09003KT 9999 FEW055 14/10 Q1012",
      "taf": "TAF LRSB 302300Z 3100/3124 VRB04KT 9999 SCT050"
    },
    {
      "icao": "LRSM",
      "alert": "OK",
      "vis_m": 9999,
      "fzfg": false,
      "metar_trigger": false,
      "taf_trigger": false,
      "metar": "METAR LRSM 310100Z AUTO 02001KT 9999 BKN030/// 17/13 Q1011",
      "taf": "TAF LRSM 301400Z 3015/3024 33012KT CAVOK"
    },
    {
      "icao": "LRSV",
      "alert": "OK",
      "vis_m": 9999,
      "fzfg": false,
      "metar_trigger": false,
      "taf_trigger": false,
      "metar": "METAR LRSV 310100Z 30013KT CAVOK 15/12 Q1008",
      "taf": "TAF LRSV 302300Z 3100/3109 32012KT CAVOK"
    },
    {
      "icao": "LRTM",
      "alert": "OK",
      "vis_m": 9999,
      "fzfg": false,
      "metar_trigger": false,
      "taf_trigger": false,
      "metar": "METAR LRTM 310100Z 24004KT 9999 -RA FEW035 SCT046 15/13 Q1011",
      "taf": "TAF LRTM 302300Z 3100/3109 26007KT CAVOK"
    },
    {
      "icao": "LRTR",
      "alert": "OK",
      "vis_m": 9999,
      "fzfg": false,
      "metar_trigger": false,
      "taf_trigger": false,
      "metar": "METAR LRTR 310100Z 12003KT CAVOK 10/09 Q1012",
      "taf": "TAF LRTR 302300Z 3100/3124 VRB04KT CAVOK"
    },
    {
      "icao": "LTAC",
      "alert": "OK",
      "vis_m": 9999,
      "fzfg": false,
      "metar_trigger": false,
      "taf_trigger": false,
      "metar": "METAR LTAC 310120Z 17004KT 9999 FEW040 SCT080 10/05 Q1017 NOSIG RMK RWY21C 15006KT RWY03L 17004KT 130V190 RWY21R 14007KT RWY03R VRB02KT RWY21L 15004KT",
      "taf": "TAF LTAC 302240Z 3100/3124 VRB02KT 9999 SCT040 SCT100"
    },
    {
      "icao": "LTFM",
      "alert": "OK",
      "vis_m": 9999,
      "fzfg": false,
      "metar_trigger": false,
      "taf_trigger": false,
      "metar": "METAR LTFM 310120Z 20008KT CAVOK 14/12 Q1013 NOSIG RMK RWY17L 19009KT RWY34L 17005KT RWY16R 20005KT RWY36 19008KT RWY18 19009KT",
      "taf": "TAF LTFM 302240Z 3100/0106 21013KT CAVOK"
    },
    {
      "icao": "LUKK",
      "alert": "OK",
      "vis_m": 9999,
      "fzfg": false,
      "metar_trigger": false,
      "taf_trigger": false,
      "metar": "METAR LUKK 310100Z 22004KT 180V250 CAVOK 12/10 Q1008 NOSIG",
      "taf": "TAF LUKK 302313Z 3100/3124 VRB05KT CAVOK"
    },
    {
      "icao": "LWOH",
      "alert": "OK",
      "vis_m": null,
      "fzfg": false,
      "metar_trigger": false,
      "taf_trigger": false,
      "metar": "",
      "taf": "TAF LWOH 302325Z 3100/3124 VRB02KT CAVOK"
    },
    {
      "icao": "LWSK",
      "alert": "OK",
      "vis_m": 9999,
      "fzfg": false,
      "metar_trigger": false,
      "taf_trigger": false,
      "metar": "METAR LWSK 310120Z VRB02KT 9999 FEW095 12/08 Q1016 NOSIG",
      "taf": "TAF LWSK 302325Z 3100/3124 VRB03KT CAVOK"
    },
    {
      "icao": "LYBE",
      "alert": "OK",
      "vis_m": 9999,
      "fzfg": false,
      "metar_trigger": false,
      "taf_trigger": false,
      "metar": "METAR LYBE 310100Z 22006KT CAVOK 19/11 Q1014 NOSIG",
      "taf": "TAF LYBE 302300Z 3100/3124 26006KT CAVOK TX30/3113Z TN15/3104Z"
    },
    {
      "icao": "LYNI",
      "alert": "OK",
      "vis_m": 9999,
      "fzfg": false,
      "metar_trigger": false,
      "taf_trigger": false,
      "metar": "METAR LYNI 310100Z VRB02KT CAVOK 14/10 Q1015 NOSIG",
      "taf": "TAF LYNI 302300Z 3100/3124 10005KT CAVOK TX28/3113Z TN12/3104Z"
    },
    {
      "icao": "LYPG",
      "alert": "OK",
      "vis_m": 9999,
      "fzfg": false,
      "metar_trigger": false,
      "taf_trigger": false,
      "metar": "METAR LYPG 310100Z VRB01KT CAVOK 19/10 Q1015 NOSIG",
      "taf": "TAF LYPG 302300Z 3100/3124 36008KT CAVOK TX30/3114Z TN18/3103Z"
    },
    {
      "icao": "LZIB",
      "alert": "OK",
      "vis_m": 9999,
      "fzfg": false,
      "metar_trigger": false,
      "taf_trigger": false,
      "metar": "METAR LZIB 310130Z 31005KT CAVOK 17/11 Q1014 NOSIG",
      "taf": "TAF LZIB 302315Z 3100/0100 31011KT CAVOK"
    },
    {
      "icao": "LZKZ",
      "alert": "OK",
      "vis_m": 9999,
      "fzfg": false,
      "metar_trigger": false,
      "taf_trigger": false,
      "metar": "METAR LZKZ 310130Z 34009KT CAVOK 16/11 Q1012 NOSIG",
      "taf": "TAF LZKZ 302315Z 3100/0100 04004KT CAVOK"
    },
    {
      "icao": "LZTT",
      "alert": "OK",
      "vis_m": 9999,
      "fzfg": false,
      "metar_trigger": false,
      "taf_trigger": false,
      "metar": "METAR LZTT 310130Z 26005KT 170V290 9999 FEW016 SCT060 10/09 Q1013",
      "taf": "TAF LZTT 302315Z 3100/0100 20005KT 9999 SCT050"
    },
    {
      "icao": "OEJN",
      "alert": "OK",
      "vis_m": 9999,
      "fzfg": false,
      "metar_trigger": false,
      "taf_trigger": false,
      "metar": "METAR OEJN 310100Z 33009KT CAVOK 27/17 Q1006 NOSIG",
      "taf": "TAF OEJN 302300Z 3100/0106 02006KT CAVOK"
    },
    {
      "icao": "OEMA",
      "alert": "OK",
      "vis_m": 9999,
      "fzfg": false,
      "metar_trigger": false,
      "taf_trigger": false,
      "metar": "METAR OEMA 310100Z 29006KT CAVOK 31/04 Q1010 NOSIG",
      "taf": "TAF OEMA 302300Z 3100/0106 VRB03KT CAVOK"
    },
    {
      "icao": "OJAI",
      "alert": "OK",
      "vis_m": 5000,
      "fzfg": false,
      "metar_trigger": false,
      "taf_trigger": false,
      "metar": "METAR OJAI 310100Z 14002KT 5000 HZ NSC 14/06 Q1016 NOSIG",
      "taf": "TAF OJAI 302300Z 3100/0106 29010KT 5000 HZ NSC"
    },
    {
      "icao": "OMAA",
      "alert": "OK",
      "vis_m": 8000,
      "fzfg": false,
      "metar_trigger": false,
      "taf_trigger": false,
      "metar": "METAR OMAA 310130Z 25005KT 8000 NSC 29/24 Q1003 NOSIG",
      "taf": "TAF OMAA 301700Z 3018/0100 24005KT 8000 NSC"
    },
    {
      "icao": "OMDB",
      "alert": "OK",
      "vis_m": 8000,
      "fzfg": false,
      "metar_trigger": false,
      "taf_trigger": false,
      "metar": "METAR OMDB 310130Z 18007KT 8000 NSC 28/21 Q1002 NOSIG",
      "taf": "TAF OMDB 302300Z 3100/0106 20008KT CAVOK"
    },
    {
      "icao": "UAAA",
      "alert": "OK",
      "vis_m": 9999,
      "fzfg": false,
      "metar_trigger": false,
      "taf_trigger": false,
      "metar": "METAR UAAA 310100Z 11002MPS 9999 BKN200 21/13 Q1010 NOSIG",
      "taf": "TAF UAAA 302303Z 3100/3124 01003MPS 9999 SCT050 BKN100 TX31/3110Z TN19/3101Z"
    },
    {
      "icao": "UBBB",
      "alert": "OK",
      "vis_m": 9999,
      "fzfg": false,
      "metar_trigger": false,
      "taf_trigger": false,
      "metar": "METAR UBBB 310130Z 16008KT 9999 SCT021 16/14 Q1011 NOSIG",
      "taf": "TAF UBBB 302307Z 3100/3124 17008KT 9999 SCT020 TX22/3110Z TN14/3101Z"
    },
    {
      "icao": "UDSG",
      "alert": "OK",
      "vis_m": 9999,
      "fzfg": false,
      "metar_trigger": false,
      "taf_trigger": false,
      "metar": "METAR UDSG 310100Z 27001KT 9999 FEW049 04/02 Q1015 NOSIG",
      "taf": "TAF UDSG 302258Z 3100/3124 27006KT 9999 FEW050"
    },
    {
      "icao": "UDYZ",
      "alert": "OK",
      "vis_m": 9999,
      "fzfg": false,
      "metar_trigger": false,
      "taf_trigger": false,
      "metar": "METAR UDYZ 310100Z 11003KT 9999 NSC 10/03 Q1012 NOSIG",
      "taf": "TAF UDYZ 302300Z 3100/3124 04006KT 9999 FEW040"
    },
    {
      "icao": "UGKO",
      "alert": "OK",
      "vis_m": 9999,
      "fzfg": false,
      "metar_trigger": false,
      "taf_trigger": false,
      "metar": "METAR UGKO 310100Z 07012KT CAVOK 10/05 Q1011 NOSIG",
      "taf": "TAF UGKO 302300Z 3100/3124 09007KT 9999 SCT033 BKN070 TX17/3111Z TN09/3102Z"
    }
  ]
}