{
  "ts_utc": "2026-06-13T22:45:13Z",
  "threshold_m": 150,
  "source": "stations_override.txt (ICAO list) + aviationweather.gov (METAR/TAF raw)",
  "station_count": 159,
  "stations": [
    {
      "icao": "BIKF",
      "alert": "OK",
      "vis_m": 9999,
      "fzfg": false,
      "metar_trigger": false,
      "taf_trigger": false,
      "metar": "METAR BIKF 132230Z 16010KT 9999 BKN008 10/09 Q1025",
      "taf": "TAF BIKF 131959Z 1321/1421 16015KT 9999 BKN020 TX14/1415Z TN06/1404Z"
    },
    {
      "icao": "BKPR",
      "alert": "OK",
      "vis_m": 9999,
      "fzfg": false,
      "metar_trigger": false,
      "taf_trigger": false,
      "metar": "METAR BKPR 132230Z VRB02KT CAVOK 13/10 Q1020 NOSIG",
      "taf": "TAF BKPR 131730Z 1318/1418 02007KT CAVOK"
    },
    {
      "icao": "EBCI",
      "alert": "OK",
      "vis_m": 9999,
      "fzfg": false,
      "metar_trigger": false,
      "taf_trigger": false,
      "metar": "METAR EBCI 132220Z 24003KT 9999 BKN045 14/10 Q1020 NOSIG",
      "taf": "TAF EBCI 131720Z 1318/1424 28010KT 9999 FEW038"
    },
    {
      "icao": "EDDB",
      "alert": "OK",
      "vis_m": 9999,
      "fzfg": false,
      "metar_trigger": false,
      "taf_trigger": false,
      "metar": "METAR EDDB 132220Z AUTO 27012KT CAVOK 13/08 Q1013 NOSIG",
      "taf": "TAF EDDB 131700Z 1318/1418 30015G25KT 9999 FEW025"
    },
    {
      "icao": "EDDH",
      "alert": "OK",
      "vis_m": 9999,
      "fzfg": false,
      "metar_trigger": false,
      "taf_trigger": false,
      "metar": "METAR EDDH 132220Z AUTO 25009KT 210V280 9999 FEW031 12/10 Q1012 TEMPO SHRA BKN012TCU",
      "taf": "TAF EDDH 131700Z 1318/1424 27013G23KT 9999 SCT025"
    },
    {
      "icao": "EDDK",
      "alert": "OK",
      "vis_m": 9999,
      "fzfg": false,
      "metar_trigger": false,
      "taf_trigger": false,
      "metar": "METAR EDDK 132220Z AUTO 31005KT 270V340 CAVOK 12/08 Q1019 NOSIG",
      "taf": "TAF EDDK 131700Z 1318/1424 30015KT 9999 SCT045"
    },
    {
      "icao": "EDDN",
      "alert": "OK",
      "vis_m": 9999,
      "fzfg": false,
      "metar_trigger": false,
      "taf_trigger": false,
      "metar": "METAR EDDN 132220Z AUTO 28003KT CAVOK 15/09 Q1017 NOSIG",
      "taf": "TAF EDDN 131700Z 1318/1418 29013KT CAVOK"
    },
    {
      "icao": "EDDS",
      "alert": "OK",
      "vis_m": 9999,
      "fzfg": false,
      "metar_trigger": false,
      "taf_trigger": false,
      "metar": "METAR EDDS 132220Z AUTO 23004KT 180V250 CAVOK 18/11 Q1018",
      "taf": "TAF EDDS 131700Z 1318/1418 28015G25KT CAVOK"
    },
    {
      "icao": "EDFH",
      "alert": "OK",
      "vis_m": 9999,
      "fzfg": false,
      "metar_trigger": false,
      "taf_trigger": false,
      "metar": "METAR EDFH 132220Z 33005KT 300V010 9999 FEW031 13/09 Q1019",
      "taf": "TAF EDFH 131700Z 1318/1418 28011KT CAVOK"
    },
    {
      "icao": "EDJA",
      "alert": "OK",
      "vis_m": 9999,
      "fzfg": false,
      "metar_trigger": false,
      "taf_trigger": false,
      "metar": "METAR EDJA 132220Z AUTO 21008KT 9999 // BKN058/// 15/12 Q1019",
      "taf": "TAF EDJA 131700Z 1318/1403 25020G30KT CAVOK"
    },
    {
      "icao": "EDLW",
      "alert": "OK",
      "vis_m": 9999,
      "fzfg": false,
      "metar_trigger": false,
      "taf_trigger": false,
      "metar": "METAR EDLW 132220Z AUTO 24007KT 9999 // OVC064/// 13/08 Q1017",
      "taf": "TAF EDLW 131700Z 1318/1418 26007KT 9999 SCT045"
    },
    {
      "icao": "EDNY",
      "alert": "OK",
      "vis_m": 9999,
      "fzfg": false,
      "metar_trigger": false,
      "taf_trigger": false,
      "metar": "METAR EDNY 132220Z AUTO 24003KT 9999 // NCD 18/13 Q1019",
      "taf": "TAF EDNY 131700Z 1318/1403 26009KT CAVOK"
    },
    {
      "icao": "EDSB",
      "alert": "OK",
      "vis_m": 9999,
      "fzfg": false,
      "metar_trigger": false,
      "taf_trigger": false,
      "metar": "METAR EDSB 132220Z 20002KT CAVOK 19/12 Q1018",
      "taf": "TAF EDSB 131700Z 1318/1418 27006KT CAVOK"
    },
    {
      "icao": "EETN",
      "alert": "OK",
      "vis_m": 8000,
      "fzfg": false,
      "metar_trigger": false,
      "taf_trigger": false,
      "metar": "METAR EETN 132220Z 28012KT 8000 -SHRA BKN006 BKN012 FEW015CB 11/10 Q1001",
      "taf": "TAF EETN 131730Z 1318/1418 33010KT 9999 SCT012 BKN030"
    },
    {
      "icao": "EFTU",
      "alert": "OK",
      "vis_m": 9999,
      "fzfg": false,
      "metar_trigger": false,
      "taf_trigger": false,
      "metar": "METAR EFTU 132220Z AUTO 31007KT 9999 SHRA FEW022 //////CB 10/10 Q1002",
      "taf": "TAF EFTU 132025Z 1321/1421 30007KT 9999 -RA BKN045"
    },
    {
      "icao": "EGBB",
      "alert": "OK",
      "vis_m": 9999,
      "fzfg": false,
      "metar_trigger": false,
      "taf_trigger": false,
      "metar": "METAR EGBB 132220Z 31007KT 270V340 9999 FEW037 13/07 Q1022",
      "taf": "TAF EGBB 131659Z 1318/1418 31012KT 9999 SCT045"
    },
    {
      "icao": "EGGP",
      "alert": "OK",
      "vis_m": 9999,
      "fzfg": false,
      "metar_trigger": false,
      "taf_trigger": false,
      "metar": "METAR EGGP 132220Z 31008KT 9999 FEW018 SCT023 13/09 Q1022",
      "taf": "TAF EGGP 131657Z 1318/1418 28020G30KT 9999 SCT025"
    },
    {
      "icao": "EGGW",
      "alert": "OK",
      "vis_m": 9999,
      "fzfg": false,
      "metar_trigger": false,
      "taf_trigger": false,
      "metar": "METAR EGGW 132220Z AUTO 32008KT 9999 NCD 13/07 Q1021",
      "taf": "TAF EGGW 131657Z 1318/1418 30008KT 9999 FEW032"
    },
    {
      "icao": "EGKK",
      "alert": "OK",
      "vis_m": 9999,
      "fzfg": false,
      "metar_trigger": false,
      "taf_trigger": false,
      "metar": "METAR EGKK 132220Z 32009KT CAVOK 16/08 Q1022",
      "taf": "TAF EGKK 131658Z 1318/1424 28010KT 9999 FEW035"
    },
    {
      "icao": "EGNM",
      "alert": "OK",
      "vis_m": 9999,
      "fzfg": false,
      "metar_trigger": false,
      "taf_trigger": false,
      "metar": "METAR EGNM 132220Z 28015KT 9999 FEW045 10/07 Q1020",
      "taf": "TAF EGNM 131702Z 1318/1418 26020G30KT 9999 SCT025"
    },
    {
      "icao": "EGPD",
      "alert": "OK",
      "vis_m": 9999,
      "fzfg": false,
      "metar_trigger": false,
      "taf_trigger": false,
      "metar": "METAR EGPD 132220Z COR AUTO 31011KT 9999 FEW037 10/08 Q1017 NOSIG",
      "taf": ""
    },
    {
      "icao": "EGPF",
      "alert": "OK",
      "vis_m": 9999,
      "fzfg": false,
      "metar_trigger": false,
      "taf_trigger": false,
      "metar": "METAR EGPF 132220Z AUTO 26009KT 9999 BKN032 OVC045 12/09 Q1020",
      "taf": "TAF EGPF 131655Z 1318/1418 27010KT 9999 BKN030"
    },
    {
      "icao": "EHBK",
      "alert": "OK",
      "vis_m": 9999,
      "fzfg": false,
      "metar_trigger": false,
      "taf_trigger": false,
      "metar": "METAR EHBK 132225Z AUTO 24004KT 220V290 9999 NSC 14/08 Q1019",
      "taf": "TAF EHBK 131712Z 1318/1424 30010KT 9999 BKN040"
    },
    {
      "icao": "EHEH",
      "alert": "OK",
      "vis_m": 9999,
      "fzfg": false,
      "metar_trigger": false,
      "taf_trigger": false,
      "metar": "METAR EHEH 132225Z AUTO 23004KT 9999 BKN063 OVC069 14/09 Q1018 BLU",
      "taf": "TAF EHEH 131701Z 1318/1424 29008KT CAVOK"
    },
    {
      "icao": "EKBI",
      "alert": "OK",
      "vis_m": 9999,
      "fzfg": false,
      "metar_trigger": false,
      "taf_trigger": false,
      "metar": "METAR EKBI 132220Z 27010KT 9999 FEW020CB BKN042 10/09 Q1008 RESHRA",
      "taf": "TAF EKBI 132027Z 1321/1421 27015KT 9999 SCT020"
    },
    {
      "icao": "EKCH",
      "alert": "OK",
      "vis_m": 9999,
      "fzfg": false,
      "metar_trigger": false,
      "taf_trigger": false,
      "metar": "METAR EKCH 132220Z 27010KT 9999 FEW025CB BKN070 12/09 Q1006 NOSIG",
      "taf": "TAF EKCH 132027Z 1321/1421 26012KT 9999 BKN020"
    },
    {
      "icao": "ENAL",
      "alert": "OK",
      "vis_m": 9999,
      "fzfg": false,
      "metar_trigger": false,
      "taf_trigger": false,
      "metar": "METAR ENAL 132220Z AUTO 05007KT 020V080 9999 SCT006/// SCT008/// 11/10 Q1010",
      "taf": ""
    },
    {
      "icao": "ENBR",
      "alert": "OK",
      "vis_m": 9999,
      "fzfg": false,
      "metar_trigger": false,
      "taf_trigger": false,
      "metar": "METAR ENBR 132220Z 33009KT CAVOK 11/10 Q1007 RMK WIND 1200FT 34015KT",
      "taf": "TAF ENBR 131700Z 1318/1418 31012KT 9999 FEW015 SCT020"
    },
    {
      "icao": "ENGM",
      "alert": "OK",
      "vis_m": 9999,
      "fzfg": false,
      "metar_trigger": false,
      "taf_trigger": false,
      "metar": "METAR ENGM 132220Z 01007KT 9999 -RA FEW041 OVC049 12/10 Q1005",
      "taf": "TAF ENGM 131700Z 1318/1418 03008KT 9999 FEW012 BKN030"
    },
    {
      "icao": "ENHD",
      "alert": "OK",
      "vis_m": 9999,
      "fzfg": false,
      "metar_trigger": false,
      "taf_trigger": false,
      "metar": "METAR ENHD 132220Z AUTO 34018KT 9999 OVC010/// 12/10 Q1007",
      "taf": "TAF ENHD 131400Z 1315/1322 34012KT 9999 SCT015"
    },
    {
      "icao": "ENTC",
      "alert": "OK",
      "vis_m": 9999,
      "fzfg": false,
      "metar_trigger": false,
      "taf_trigger": false,
      "metar": "METAR ENTC 132220Z AUTO 00000KT 9999 FEW022/// SCT026/// BKN035/// 09/06 Q1014 RERA RMK WIND 2600FT 34012KT",
      "taf": "TAF ENTC 131700Z 1318/1418 27008KT 9999 FEW030 BKN045"
    },
    {
      "icao": "ENTO",
      "alert": "OK",
      "vis_m": 9999,
      "fzfg": false,
      "metar_trigger": false,
      "taf_trigger": false,
      "metar": "METAR ENTO 132220Z AUTO 34003KT 9999 NCD 10/10 Q1005",
      "taf": "TAF ENTO 131700Z 1318/1418 18007KT 9999 FEW015 BKN030"
    },
    {
      "icao": "ENVA",
      "alert": "OK",
      "vis_m": 9999,
      "fzfg": false,
      "metar_trigger": false,
      "taf_trigger": false,
      "metar": "METAR ENVA 132220Z VRB02KT CAVOK 13/11 Q1009 RMK WIND 670FT VRB02KT",
      "taf": "TAF ENVA 131700Z 1318/1418 24005KT 9999 FEW045"
    },
    {
      "icao": "ENZV",
      "alert": "OK",
      "vis_m": 9999,
      "fzfg": false,
      "metar_trigger": false,
      "taf_trigger": false,
      "metar": "METAR ENZV 132220Z 33015KT 9999 OVC014 12/10 Q1007",
      "taf": "TAF ENZV 131700Z 1318/1418 34018KT 9999 FEW030"
    },
    {
      "icao": "EPGD",
      "alert": "OK",
      "vis_m": 9999,
      "fzfg": false,
      "metar_trigger": false,
      "taf_trigger": false,
      "metar": "METAR EPGD 132230Z 24008KT 9999 SCT016 11/09 Q1006",
      "taf": "TAF EPGD 131730Z 1318/1418 26010KT 9999 BKN035"
    },
    {
      "icao": "EPKK",
      "alert": "OK",
      "vis_m": 9999,
      "fzfg": false,
      "metar_trigger": false,
      "taf_trigger": false,
      "metar": "METAR EPKK 132230Z 26010KT 9999 FEW037CB BKN053 14/12 Q1014 RESHRA",
      "taf": "TAF EPKK 132030Z 1321/1421 24008KT 9999 SCT040"
    },
    {
      "icao": "EPKT",
      "alert": "OK",
      "vis_m": 9999,
      "fzfg": false,
      "metar_trigger": false,
      "taf_trigger": false,
      "metar": "METAR EPKT 132230Z 28006KT CAVOK 12/11 Q1013",
      "taf": "TAF EPKT 131730Z 1318/1418 30010KT 9999 BKN040"
    },
    {
      "icao": "EPLB",
      "alert": "OK",
      "vis_m": 9999,
      "fzfg": false,
      "metar_trigger": false,
      "taf_trigger": false,
      "metar": "METAR EPLB 132230Z 25008KT CAVOK 14/13 Q1009",
      "taf": "TAF EPLB 131730Z 1318/1418 26008KT 9999 SCT040"
    },
    {
      "icao": "EPMO",
      "alert": "OK",
      "vis_m": 9999,
      "fzfg": false,
      "metar_trigger": false,
      "taf_trigger": false,
      "metar": "METAR EPMO 132230Z 26009KT 9999 FEW047 13/12 Q1008 RESHRA",
      "taf": "TAF EPMO 131730Z 1318/1418 25008KT CAVOK"
    },
    {
      "icao": "EPPO",
      "alert": "OK",
      "vis_m": 9999,
      "fzfg": false,
      "metar_trigger": false,
      "taf_trigger": false,
      "metar": "METAR EPPO 132230Z 26011KT CAVOK 12/10 Q1011",
      "taf": "TAF EPPO 131730Z 1318/1418 24010KT 9999 BKN040"
    },
    {
      "icao": "EPRA",
      "alert": "OK",
      "vis_m": 9999,
      "fzfg": false,
      "metar_trigger": false,
      "taf_trigger": false,
      "metar": "METAR EPRA 132230Z 25010KT CAVOK 14/12 Q1010",
      "taf": "TAF EPRA 132030Z 1321/1406 26008KT CAVOK"
    },
    {
      "icao": "EPRZ",
      "alert": "OK",
      "vis_m": 9999,
      "fzfg": false,
      "metar_trigger": false,
      "taf_trigger": false,
      "metar": "METAR EPRZ 132230Z 22006KT CAVOK 14/13 Q1012",
      "taf": "TAF EPRZ 131730Z 1318/1418 29010KT CAVOK"
    },
    {
      "icao": "EPSC",
      "alert": "OK",
      "vis_m": 9999,
      "fzfg": false,
      "metar_trigger": false,
      "taf_trigger": false,
      "metar": "METAR EPSC 132230Z 25009KT CAVOK 12/08 Q1009",
      "taf": "TAF EPSC 131730Z 1318/1418 26010KT 9999 BKN035"
    },
    {
      "icao": "EPSY",
      "alert": "OK",
      "vis_m": 9999,
      "fzfg": false,
      "metar_trigger": false,
      "taf_trigger": false,
      "metar": "METAR EPSY 132230Z 24006KT 210V280 CAVOK 12/11 Q1007",
      "taf": "TAF EPSY 132030Z 1321/1406 26005KT 9999 SCT045"
    },
    {
      "icao": "EPWA",
      "alert": "OK",
      "vis_m": 9999,
      "fzfg": false,
      "metar_trigger": false,
      "taf_trigger": false,
      "metar": "METAR EPWA 132230Z 26007KT 9999 FEW016 14/12 Q1008 NOSIG",
      "taf": "TAF EPWA 132030Z 1321/1421 25006KT 9999 SCT030"
    },
    {
      "icao": "EPWR",
      "alert": "OK",
      "vis_m": 9999,
      "fzfg": false,
      "metar_trigger": false,
      "taf_trigger": false,
      "metar": "METAR EPWR 132230Z 27008KT 9999 FEW035 13/11 Q1013",
      "taf": "TAF EPWR 132030Z 1321/1421 28010KT 9999 SCT035"
    },
    {
      "icao": "ESGG",
      "alert": "OK",
      "vis_m": 9999,
      "fzfg": false,
      "metar_trigger": false,
      "taf_trigger": false,
      "metar": "METAR ESGG 132220Z 36002KT CAVOK 10/10 Q1003",
      "taf": "TAF ESGG 132030Z 1321/1421 VRB03KT 9999 SCT045"
    },
    {
      "icao": "ESKN",
      "alert": "OK",
      "vis_m": 9999,
      "fzfg": false,
      "metar_trigger": false,
      "taf_trigger": false,
      "metar": "METAR ESKN 132220Z 03004KT 9999 BKN015 BKN047 OVC110 12/12 Q1003",
      "taf": "TAF ESKN 132030Z 1321/1421 04005KT 9999 -RA BKN020"
    },
    {
      "icao": "ESMS",
      "alert": "OK",
      "vis_m": 9999,
      "fzfg": false,
      "metar_trigger": false,
      "taf_trigger": false,
      "metar": "METAR ESMS 132220Z 25007KT 9999 BKN035 11/11 Q1005",
      "taf": "TAF ESMS 132027Z 1321/1421 29012KT 9999 BKN020"
    },
    {
      "icao": "ESSA",
      "alert": "OK",
      "vis_m": 9999,
      "fzfg": false,
      "metar_trigger": false,
      "taf_trigger": false,
      "metar": "METAR ESSA 132220Z 06005KT CAVOK 10/06 Q1004 NOSIG",
      "taf": "TAF ESSA 132030Z 1321/1421 06005KT CAVOK"
    },
    {
      "icao": "EYKA",
      "alert": "OK",
      "vis_m": 8000,
      "fzfg": false,
      "metar_trigger": false,
      "taf_trigger": false,
      "metar": "METAR EYKA 132220Z AUTO 22004KT 8000 FEW015/// 12/11 Q1004",
      "taf": "TAF EYKA 131700Z 1318/1418 VRB05KT 9000 SCT015 BKN025"
    },
    {
      "icao": "EYPA",
      "alert": "OK",
      "vis_m": 9999,
      "fzfg": false,
      "metar_trigger": false,
      "taf_trigger": false,
      "metar": "METAR EYPA 132220Z AUTO VRB02KT 9999 BKN053/// BKN084/// 13/11 Q1003",
      "taf": "TAF EYPA 131700Z 1318/1418 VRB05KT 9000 SCT005 BKN015"
    },
    {
      "icao": "EYVI",
      "alert": "OK",
      "vis_m": 9999,
      "fzfg": false,
      "metar_trigger": false,
      "taf_trigger": false,
      "metar": "METAR EYVI 132220Z 23008KT 9999 OVC005 13/12 Q1005 TEMPO 3000 BR BKN002",
      "taf": "TAF EYVI 131700Z 1318/1418 VRB05KT 9000 SCT010 BKN025"
    },
    {
      "icao": "GCFV",
      "alert": "OK",
      "vis_m": 9999,
      "fzfg": false,
      "metar_trigger": false,
      "taf_trigger": false,
      "metar": "METAR GCFV 132230Z AUTO 36014KT 9999 FEW021 21/16 Q1020",
      "taf": "TAF GCFV 132000Z 1321/1421 36012KT 9999 SCT018 TX25/1414Z TN19/1406Z"
    },
    {
      "icao": "GCLP",
      "alert": "OK",
      "vis_m": 9999,
      "fzfg": false,
      "metar_trigger": false,
      "taf_trigger": false,
      "metar": "METAR GCLP 132230Z 01022KT 9999 FEW030 20/15 Q1020 NOSIG",
      "taf": "TAF GCLP 132000Z 1321/1421 36021KT 9999 FEW030 TX24/1414Z TN19/1406Z"
    },
    {
      "icao": "GCTS",
      "alert": "OK",
      "vis_m": 9999,
      "fzfg": false,
      "metar_trigger": false,
      "taf_trigger": false,
      "metar": "METAR GCTS 132230Z VRB02KT 9999 SCT020 21/16 Q1021 NOSIG",
      "taf": "TAF GCTS 132000Z 1321/1421 03006KT 9999 FEW020 TX26/1414Z TN18/1406Z"
    },
    {
      "icao": "GMAD",
      "alert": "OK",
      "vis_m": 8000,
      "fzfg": false,
      "metar_trigger": false,
      "taf_trigger": false,
      "metar": "METAR GMAD 132230Z 14003KT 110V170 8000 FEW015 SCT100 19/16 Q1019 NOSIG",
      "taf": "TAF GMAD 131700Z 1318/1424 20008KT 8000 SCT020 SCT100"
    },
    {
      "icao": "GMMN",
      "alert": "OK",
      "vis_m": 9999,
      "fzfg": false,
      "metar_trigger": false,
      "taf_trigger": false,
      "metar": "METAR GMMN 132230Z 29007KT CAVOK 19/15 Q1019 NOSIG",
      "taf": "TAF GMMN 131700Z 1318/1424 32008KT CAVOK"
    },
    {
      "icao": "GMMX",
      "alert": "OK",
      "vis_m": 9999,
      "fzfg": false,
      "metar_trigger": false,
      "taf_trigger": false,
      "metar": "METAR GMMX 132230Z 25009KT 9999 SCT100 23/15 Q1020 NOSIG",
      "taf": "TAF GMMX 131700Z 1318/1424 28006KT 8000 SCT033 FEW040CB BKN100"
    },
    {
      "icao": "HEGN",
      "alert": "OK",
      "vis_m": 9999,
      "fzfg": false,
      "metar_trigger": false,
      "taf_trigger": false,
      "metar": "METAR HEGN 132200Z 29013KT CAVOK 31/05 Q1009 NOSIG",
      "taf": "TAF HEGN 131700Z 1318/1424 31015KT CAVOK"
    },
    {
      "icao": "HEMA",
      "alert": "OK",
      "vis_m": 9999,
      "fzfg": false,
      "metar_trigger": false,
      "taf_trigger": false,
      "metar": "METAR HEMA 132200Z 30010KT CAVOK 30/07 Q1009 NOSIG",
      "taf": "TAF HEMA 131700Z 1318/1424 32015KT CAVOK"
    },
    {
      "icao": "HESH",
      "alert": "OK",
      "vis_m": 9999,
      "fzfg": false,
      "metar_trigger": false,
      "taf_trigger": false,
      "metar": "METAR HESH 132200Z 34012KT CAVOK 30/15 Q1009 NOSIG",
      "taf": "TAF HESH 131700Z 1318/1424 35014KT CAVOK"
    },
    {
      "icao": "HESX",
      "alert": "OK",
      "vis_m": 9999,
      "fzfg": false,
      "metar_trigger": false,
      "taf_trigger": false,
      "metar": "METAR HESX 132200Z 02010KT CAVOK 25/17 Q1011 NOSIG",
      "taf": "TAF HESX 131700Z 1318/1424 36009KT CAVOK"
    },
    {
      "icao": "LATI",
      "alert": "OK",
      "vis_m": 9999,
      "fzfg": false,
      "metar_trigger": false,
      "taf_trigger": false,
      "metar": "METAR LATI 132220Z VRB02KT CAVOK 18/15 Q1017 NOSIG",
      "taf": "TAF LATI 131700Z 1318/1418 34014KT CAVOK TX31/1412Z TN16/1404Z"
    },
    {
      "icao": "LBPD",
      "alert": "OK",
      "vis_m": 9999,
      "fzfg": false,
      "metar_trigger": false,
      "taf_trigger": false,
      "metar": "METAR LBPD 132230Z AUTO 00000KT 9999 NCD 14/11 Q1017",
      "taf": "TAF LBPD 131700Z 1318/1418 VRB03KT 9999 SCT060"
    },
    {
      "icao": "LBSF",
      "alert": "OK",
      "vis_m": 9999,
      "fzfg": false,
      "metar_trigger": false,
      "taf_trigger": false,
      "metar": "METAR LBSF 132230Z AUTO 02003KT 360V070 9999 NCD 13/10 Q1019 NOSIG",
      "taf": "TAF LBSF 131700Z 1318/1418 35010KT 9999 SCT060"
    },
    {
      "icao": "LBWN",
      "alert": "OK",
      "vis_m": 9999,
      "fzfg": false,
      "metar_trigger": false,
      "taf_trigger": false,
      "metar": "METAR LBWN 132230Z AUTO 31003KT 9999 NCD 13/12 Q1015 NOSIG",
      "taf": "TAF LBWN 131700Z 1318/1418 35010KT 9999 BKN045"
    },
    {
      "icao": "LCLK",
      "alert": "OK",
      "vis_m": 9999,
      "fzfg": false,
      "metar_trigger": false,
      "taf_trigger": false,
      "metar": "METAR LCLK 132230Z 33004KT CAVOK 22/19 Q1007 NOSIG",
      "taf": "TAF LCLK 131730Z 1318/1418 26008KT CAVOK"
    },
    {
      "icao": "LCPH",
      "alert": "OK",
      "vis_m": 9999,
      "fzfg": false,
      "metar_trigger": false,
      "taf_trigger": false,
      "metar": "METAR LCPH 132230Z VRB03KT 9999 BKN014 24/21 Q1009 NOSIG",
      "taf": "TAF LCPH 131730Z 1318/1418 34008KT 9999 SCT015"
    },
    {
      "icao": "LEAL",
      "alert": "OK",
      "vis_m": 9999,
      "fzfg": false,
      "metar_trigger": false,
      "taf_trigger": false,
      "metar": "METAR LEAL 132230Z 36004KT 330V050 CAVOK 24/11 Q1019 NOSIG",
      "taf": "TAF LEAL 131700Z 1318/1418 08010KT CAVOK TX29/1412Z TN19/1406Z"
    },
    {
      "icao": "LEBB",
      "alert": "OK",
      "vis_m": 9999,
      "fzfg": false,
      "metar_trigger": false,
      "taf_trigger": false,
      "metar": "METAR LEBB 132230Z AUTO 08006KT CAVOK 23/17 Q1016",
      "taf": "TAF LEBB 131700Z 1318/1418 10005KT CAVOK TX34/1413Z TN18/1405Z"
    },
    {
      "icao": "LEBL",
      "alert": "OK",
      "vis_m": 9999,
      "fzfg": false,
      "metar_trigger": false,
      "taf_trigger": false,
      "metar": "METAR LEBL 132230Z 24006KT 9999 FEW040 23/16 Q1018 NOSIG",
      "taf": "TAF LEBL 131700Z 1318/1418 21012KT 9999 FEW020 TX30/1412Z TN21/1406Z"
    },
    {
      "icao": "LECH",
      "alert": "OK",
      "vis_m": 9000,
      "fzfg": false,
      "metar_trigger": false,
      "taf_trigger": false,
      "metar": "METAR LECH 132230Z AUTO 25003KT 9000 NCD 22/08 Q1020",
      "taf": "TAF LECH 131700Z 1318/1418 13010KT CAVOK TX32/1413Z TN16/1406Z"
    },
    {
      "icao": "LEMD",
      "alert": "OK",
      "vis_m": 9999,
      "fzfg": false,
      "metar_trigger": false,
      "taf_trigger": false,
      "metar": "METAR LEMD 132230Z 11004KT 080V160 CAVOK 26/06 Q1019 NOSIG",
      "taf": "TAF LEMD 131700Z 1318/1424 VRB04KT CAVOK TX33/1416Z TN18/1405Z"
    },
    {
      "icao": "LEMG",
      "alert": "OK",
      "vis_m": 9999,
      "fzfg": false,
      "metar_trigger": false,
      "taf_trigger": false,
      "metar": "METAR LEMG 132230Z 14003KT 9999 FEW030 21/16 Q1020 NOSIG",
      "taf": "TAF LEMG 131700Z 1318/1418 14010KT CAVOK TX29/1414Z TN19/1406Z"
    },
    {
      "icao": "LEVC",
      "alert": "OK",
      "vis_m": 9999,
      "fzfg": false,
      "metar_trigger": false,
      "taf_trigger": false,
      "metar": "METAR LEVC 132230Z VRB02KT CAVOK 23/09 Q1019 NOSIG",
      "taf": "TAF LEVC 131700Z 1318/1418 12010KT CAVOK TX32/1412Z TN19/1406Z"
    },
    {
      "icao": "LEXJ",
      "alert": "OK",
      "vis_m": 9999,
      "fzfg": false,
      "metar_trigger": false,
      "taf_trigger": false,
      "metar": "METAR LEXJ 132230Z AUTO VRB02KT CAVOK 21/17 Q1016",
      "taf": ""
    },
    {
      "icao": "LEZG",
      "alert": "OK",
      "vis_m": 9999,
      "fzfg": false,
      "metar_trigger": false,
      "taf_trigger": false,
      "metar": "METAR LEZG 132230Z 09006KT CAVOK 26/07 Q1018 NOSIG",
      "taf": "TAF LEZG 131700Z 1318/1418 10009KT CAVOK TX37/1415Z TN20/1406Z"
    },
    {
      "icao": "LEZL",
      "alert": "OK",
      "vis_m": 9999,
      "fzfg": false,
      "metar_trigger": false,
      "taf_trigger": false,
      "metar": "METAR LEZL 132230Z 27009KT CAVOK 26/15 Q1017 NOSIG",
      "taf": "TAF LEZL 132000Z 1321/1421 28010KT CAVOK TX31/1415Z TN18/1406Z"
    },
    {
      "icao": "LFBD",
      "alert": "OK",
      "vis_m": 9999,
      "fzfg": false,
      "metar_trigger": false,
      "taf_trigger": false,
      "metar": "METAR LFBD 132230Z AUTO 06005KT CAVOK 25/09 Q1019 NOSIG",
      "taf": "TAF LFBD 131700Z 1318/1424 09010KT CAVOK TX34/1415Z TN19/1404Z"
    },
    {
      "icao": "LFLL",
      "alert": "OK",
      "vis_m": 9999,
      "fzfg": false,
      "metar_trigger": false,
      "taf_trigger": false,
      "metar": "METAR LFLL 132230Z VRB02KT CAVOK 21/13 Q1020 NOSIG",
      "taf": "TAF LFLL 131700Z 1318/1424 36008KT CAVOK"
    },
    {
      "icao": "LFLS",
      "alert": "OK",
      "vis_m": 9999,
      "fzfg": false,
      "metar_trigger": false,
      "taf_trigger": false,
      "metar": "METAR LFLS 132230Z AUTO 08004KT CAVOK 15/12 Q1021",
      "taf": "TAF LFLS 131400Z 1315/1415 35009KT CAVOK"
    },
    {
      "icao": "LFMN",
      "alert": "OK",
      "vis_m": 9999,
      "fzfg": false,
      "metar_trigger": false,
      "taf_trigger": false,
      "metar": "METAR LFMN 132230Z 23006KT CAVOK 21/18 Q1018 NOSIG",
      "taf": "TAF LFMN 132000Z 1321/1503 22008KT CAVOK"
    },
    {
      "icao": "LFOB",
      "alert": "OK",
      "vis_m": 9999,
      "fzfg": false,
      "metar_trigger": false,
      "taf_trigger": false,
      "metar": "METAR LFOB 132230Z AUTO 31003KT CAVOK 11/09 Q1021 TEMPO 4000 BR",
      "taf": "TAF LFOB 131700Z 1318/1418 28010KT CAVOK"
    },
    {
      "icao": "LFPO",
      "alert": "OK",
      "vis_m": 9999,
      "fzfg": false,
      "metar_trigger": false,
      "taf_trigger": false,
      "metar": "METAR LFPO 132230Z AUTO 33006KT CAVOK 19/08 Q1021 NOSIG",
      "taf": "TAF LFPO 131700Z 1318/1424 30008KT CAVOK"
    },
    {
      "icao": "LFSB",
      "alert": "OK",
      "vis_m": 9999,
      "fzfg": false,
      "metar_trigger": false,
      "taf_trigger": false,
      "metar": "METAR LFSB 132230Z AUTO 25007KT CAVOK 19/13 Q1019 NOSIG",
      "taf": "TAF LFSB 131700Z 1318/1418 27008KT CAVOK"
    },
    {
      "icao": "LGAV",
      "alert": "OK",
      "vis_m": 9999,
      "fzfg": false,
      "metar_trigger": false,
      "taf_trigger": false,
      "metar": "METAR LGAV 132220Z 04004KT 350V070 9999 FEW025 18/10 Q1017 NOSIG",
      "taf": "TAF LGAV 131700Z 1318/1418 03014KT 9999 FEW025"
    },
    {
      "icao": "LGTS",
      "alert": "OK",
      "vis_m": 9999,
      "fzfg": false,
      "metar_trigger": false,
      "taf_trigger": false,
      "metar": "METAR LGTS 132220Z VRB03KT 9999 FEW025 19/15 Q1017 NOSIG",
      "taf": "TAF LGTS 131700Z 1318/1418 VRB03KT 9999 FEW025"
    },
    {
      "icao": "LHBP",
      "alert": "OK",
      "vis_m": 9999,
      "fzfg": false,
      "metar_trigger": false,
      "taf_trigger": false,
      "metar": "METAR LHBP 132230Z 13004KT CAVOK 16/14 Q1013 NOSIG",
      "taf": "TAF LHBP 131715Z 1318/1418 29007KT CAVOK"
    },
    {
      "icao": "LHDC",
      "alert": "OK",
      "vis_m": 9999,
      "fzfg": false,
      "metar_trigger": false,
      "taf_trigger": false,
      "metar": "METAR LHDC 132215Z AUTO 19005KT CAVOK 15/13 Q1014",
      "taf": "TAF LHDC 131715Z 1318/1403 22008KT CAVOK"
    },
    {
      "icao": "LIBD",
      "alert": "OK",
      "vis_m": 9999,
      "fzfg": false,
      "metar_trigger": false,
      "taf_trigger": false,
      "metar": "METAR LIBD 132220Z 24006KT CAVOK 19/11 Q1018",
      "taf": "TAF LIBD 131700Z 1318/1418 22005KT CAVOK"
    },
    {
      "icao": "LIBG",
      "alert": "OK",
      "vis_m": 9999,
      "fzfg": false,
      "metar_trigger": false,
      "taf_trigger": false,
      "metar": "METAR LIBG 132220Z AUTO 04003KT 330V090 9999 NCD 20/09 Q1018",
      "taf": "TAF LIBG 131700Z 1318/1418 36014KT CAVOK"
    },
    {
      "icao": "LIBP",
      "alert": "OK",
      "vis_m": 9999,
      "fzfg": false,
      "metar_trigger": false,
      "taf_trigger": false,
      "metar": "METAR LIBP 132220Z AUTO 21004KT 9999 NCD 17/12 Q1017",
      "taf": "TAF LIBP 131700Z 1318/1418 VRB05KT CAVOK"
    },
    {
      "icao": "LIBR",
      "alert": "OK",
      "vis_m": 9999,
      "fzfg": false,
      "metar_trigger": false,
      "taf_trigger": false,
      "metar": "METAR LIBR 132220Z 31004KT CAVOK 21/15 Q1018",
      "taf": "TAF LIBR 131700Z 1318/1418 35013KT CAVOK"
    },
    {
      "icao": "LICA",
      "alert": "OK",
      "vis_m": 9999,
      "fzfg": false,
      "metar_trigger": false,
      "taf_trigger": false,
      "metar": "METAR LICA 132220Z AUTO 04002KT 9999 NCD 18/13 Q1020",
      "taf": "TAF LICA 131700Z 1318/1418 VRB05KT CAVOK"
    },
    {
      "icao": "LICC",
      "alert": "OK",
      "vis_m": 9999,
      "fzfg": false,
      "metar_trigger": false,
      "taf_trigger": false,
      "metar": "METAR LICC 132220Z 29005KT CAVOK 21/14 Q1019",
      "taf": "TAF LICC 131700Z 1318/1418 VRB05KT CAVOK"
    },
    {
      "icao": "LICJ",
      "alert": "OK",
      "vis_m": 9999,
      "fzfg": false,
      "metar_trigger": false,
      "taf_trigger": false,
      "metar": "METAR LICJ 132220Z AUTO 14003KT 9999 NCD 22/19 Q1019",
      "taf": "TAF LICJ 131700Z 1318/1418 VRB05KT CAVOK"
    },
    {
      "icao": "LIMC",
      "alert": "OK",
      "vis_m": 9999,
      "fzfg": false,
      "metar_trigger": false,
      "taf_trigger": false,
      "metar": "METAR LIMC 132220Z 13003KT CAVOK 20/14 Q1017 NOSIG",
      "taf": "TAF LIMC 131700Z 1318/1424 VRB05KT CAVOK"
    },
    {
      "icao": "LIME",
      "alert": "OK",
      "vis_m": 9999,
      "fzfg": false,
      "metar_trigger": false,
      "taf_trigger": false,
      "metar": "METAR LIME 132220Z 05003KT 360V070 CAVOK 21/14 Q1016 NOSIG",
      "taf": "TAF LIME 131700Z 1318/1418 VRB05KT CAVOK"
    },
    {
      "icao": "LIMF",
      "alert": "OK",
      "vis_m": 9999,
      "fzfg": false,
      "metar_trigger": false,
      "taf_trigger": false,
      "metar": "METAR LIMF 132220Z VRB01KT CAVOK 23/14 Q1016",
      "taf": "TAF LIMF 131700Z 1318/1418 VRB05KT CAVOK"
    },
    {
      "icao": "LIMJ",
      "alert": "OK",
      "vis_m": 9999,
      "fzfg": false,
      "metar_trigger": false,
      "taf_trigger": false,
      "metar": "METAR LIMJ 132220Z 08004KT CAVOK 22/17 Q1019",
      "taf": "TAF LIMJ 131700Z 1318/1418 VRB05KT CAVOK"
    },
    {
      "icao": "LIPE",
      "alert": "OK",
      "vis_m": 9999,
      "fzfg": false,
      "metar_trigger": false,
      "taf_trigger": false,
      "metar": "METAR LIPE 132220Z AUTO 19008KT 9999 NCD 24/13 Q1015",
      "taf": "TAF LIPE 131700Z 1318/1418 VRB05KT CAVOK"
    },
    {
      "icao": "LIPH",
      "alert": "OK",
      "vis_m": 9999,
      "fzfg": false,
      "metar_trigger": false,
      "taf_trigger": false,
      "metar": "METAR LIPH 132220Z AUTO VRB02KT 9999 NCD 19/16 Q1016",
      "taf": "TAF LIPH 131700Z 1318/1418 VRB05KT 9999 FEW050"
    },
    {
      "icao": "LIPQ",
      "alert": "OK",
      "vis_m": null,
      "fzfg": false,
      "metar_trigger": false,
      "taf_trigger": false,
      "metar": "METAR LIPQ 132220Z AUTO 09003KT //// // NCD 17/14 Q1017",
      "taf": "TAF LIPQ 131700Z 1318/1418 VRB05KT 9999 FEW060"
    },
    {
      "icao": "LIPR",
      "alert": "OK",
      "vis_m": 9999,
      "fzfg": false,
      "metar_trigger": false,
      "taf_trigger": false,
      "metar": "METAR LIPR 132220Z AUTO 20004KT 9999 NCD 19/15 Q1015",
      "taf": "TAF LIPR 131700Z 1318/1418 VRB05KT CAVOK"
    },
    {
      "icao": "LIPX",
      "alert": "OK",
      "vis_m": 9999,
      "fzfg": false,
      "metar_trigger": false,
      "taf_trigger": false,
      "metar": "METAR LIPX 132220Z 10004KT 060V130 CAVOK 21/18 Q1016",
      "taf": "TAF LIPX 131700Z 1318/1418 VRB05KT CAVOK"
    },
    {
      "icao": "LIPY",
      "alert": "OK",
      "vis_m": 9999,
      "fzfg": false,
      "metar_trigger": false,
      "taf_trigger": false,
      "metar": "METAR LIPY 132220Z AUTO 21004KT 9999 NCD 21/12 Q1016",
      "taf": "TAF LIPY 131700Z 1318/1418 19005KT CAVOK"
    },
    {
      "icao": "LIPZ",
      "alert": "OK",
      "vis_m": 9999,
      "fzfg": false,
      "metar_trigger": false,
      "taf_trigger": false,
      "metar": "METAR LIPZ 132220Z 09005KT CAVOK 21/18 Q1016 NOSIG",
      "taf": "TAF LIPZ 131700Z 1318/1424 05006KT CAVOK"
    },
    {
      "icao": "LIRF",
      "alert": "OK",
      "vis_m": 9999,
      "fzfg": false,
      "metar_trigger": false,
      "taf_trigger": false,
      "metar": "METAR LIRF 132220Z 25006KT CAVOK 21/17 Q1018 NOSIG",
      "taf": "TAF LIRF 131700Z 1318/1424 30011KT CAVOK"
    },
    {
      "icao": "LIRN",
      "alert": "OK",
      "vis_m": 9999,
      "fzfg": false,
      "metar_trigger": false,
      "taf_trigger": false,
      "metar": "METAR LIRN 132220Z VRB02KT CAVOK 23/14 Q1019 NOSIG",
      "taf": "TAF LIRN 131700Z 1318/1418 VRB05KT CAVOK"
    },
    {
      "icao": "LIRP",
      "alert": "OK",
      "vis_m": 9999,
      "fzfg": false,
      "metar_trigger": false,
      "taf_trigger": false,
      "metar": "METAR LIRP 132215Z 18002KT CAVOK 16/12 Q1019 NOSIG",
      "taf": "TAF LIRP 131700Z 1318/1418 27010KT CAVOK"
    },
    {
      "icao": "LIRZ",
      "alert": "OK",
      "vis_m": 9999,
      "fzfg": false,
      "metar_trigger": false,
      "taf_trigger": false,
      "metar": "METAR LIRZ 132220Z AUTO VRB01KT 9999 NCD 18/13 Q1019",
      "taf": "TAF LIRZ 131700Z 1318/1418 VRB05KT CAVOK"
    },
    {
      "icao": "LJLJ",
      "alert": "OK",
      "vis_m": 9999,
      "fzfg": false,
      "metar_trigger": false,
      "taf_trigger": false,
      "metar": "METAR LJLJ 132230Z 01003KT 330V030 CAVOK 15/13 Q1017 NOSIG",
      "taf": "TAF LJLJ 131700Z 1318/1418 29007KT 9999 FEW045"
    },
    {
      "icao": "LKMT",
      "alert": "OK",
      "vis_m": 9999,
      "fzfg": false,
      "metar_trigger": false,
      "taf_trigger": false,
      "metar": "METAR LKMT 132230Z 04006KT 9999 FEW036 13/11 Q1015 NOSIG",
      "taf": "TAF LKMT 131700Z 1318/1418 22008KT CAVOK"
    },
    {
      "icao": "LKPR",
      "alert": "OK",
      "vis_m": 9999,
      "fzfg": false,
      "metar_trigger": false,
      "taf_trigger": false,
      "metar": "METAR LKPR 132230Z 34004KT CAVOK 12/10 Q1015 NOSIG",
      "taf": "TAF LKPR 132000Z 1321/1503 28010KT CAVOK"
    },
    {
      "icao": "LLBG",
      "alert": "OK",
      "vis_m": 9999,
      "fzfg": false,
      "metar_trigger": false,
      "taf_trigger": false,
      "metar": "METAR LLBG 132220Z 15004KT CAVOK 23/17 Q1011 NOSIG",
      "taf": "TAF LLBG 131701Z 1318/1418 VRB04KT 9999 FEW025 TX29/1412Z TN19/1403Z"
    },
    {
      "icao": "LMML",
      "alert": "OK",
      "vis_m": 9999,
      "fzfg": false,
      "metar_trigger": false,
      "taf_trigger": false,
      "metar": "METAR LMML 132215Z 22003KT 9999 FEW006 21/19 Q1020 NOSIG",
      "taf": "TAF LMML 131700Z 1318/1418 23005KT 9999 FEW015"
    },
    {
      "icao": "LOWW",
      "alert": "OK",
      "vis_m": 9999,
      "fzfg": false,
      "metar_trigger": false,
      "taf_trigger": false,
      "metar": "METAR LOWW 132220Z 29004KT CAVOK 21/12 Q1014 NOSIG",
      "taf": "TAF LOWW 132015Z 1321/1503 28012KT 9999 FEW050 TX21/1321Z TN14/1503Z"
    },
    {
      "icao": "LPFR",
      "alert": "OK",
      "vis_m": 9999,
      "fzfg": false,
      "metar_trigger": false,
      "taf_trigger": false,
      "metar": "METAR LPFR 132230Z 06003KT 350V150 CAVOK 22/18 Q1017",
      "taf": "TAF LPFR 131700Z 1318/1418 14010KT CAVOK"
    },
    {
      "icao": "LPMA",
      "alert": "OK",
      "vis_m": 9999,
      "fzfg": false,
      "metar_trigger": false,
      "taf_trigger": false,
      "metar": "METAR LPMA 132230Z VRB03KT 9999 FEW015 20/14 Q1023",
      "taf": "TAF LPMA 131700Z 1318/1418 19007KT 9999 FEW015 BKN030"
    },
    {
      "icao": "LPPR",
      "alert": "OK",
      "vis_m": 9999,
      "fzfg": false,
      "metar_trigger": false,
      "taf_trigger": false,
      "metar": "METAR LPPR 132230Z VRB01KT CAVOK 21/14 Q1016",
      "taf": "TAF LPPR 131700Z 1318/1418 31008KT 9999 SCT045"
    },
    {
      "icao": "LPPS",
      "alert": "OK",
      "vis_m": 9999,
      "fzfg": false,
      "metar_trigger": false,
      "taf_trigger": false,
      "metar": "METAR LPPS 132230Z 34013KT 9999 FEW015 SCT030 19/15 Q1022",
      "taf": "TAF LPPS 131700Z 1318/1424 34013KT 9999 SCT015 BKN030"
    },
    {
      "icao": "LPPT",
      "alert": "OK",
      "vis_m": 9999,
      "fzfg": false,
      "metar_trigger": false,
      "taf_trigger": false,
      "metar": "METAR LPPT 132230Z 30008KT 270V330 CAVOK 22/14 Q1018",
      "taf": "TAF LPPT 131700Z 1318/1424 32010KT CAVOK"
    },
    {
      "icao": "LQBK",
      "alert": "OK",
      "vis_m": 9999,
      "fzfg": false,
      "metar_trigger": false,
      "taf_trigger": false,
      "metar": "METAR LQBK 132230Z 13005KT CAVOK 17/13 Q1016 NOSIG",
      "taf": "TAF LQBK 131700Z 1318/1418 15006KT CAVOK TX30/1414Z TN13/1403Z"
    },
    {
      "icao": "LQSA",
      "alert": "OK",
      "vis_m": 9999,
      "fzfg": false,
      "metar_trigger": false,
      "taf_trigger": false,
      "metar": "METAR LQSA 132230Z 13004KT CAVOK 14/10 Q1020",
      "taf": "TAF LQSA 131700Z 1318/1418 VRB02KT CAVOK TX29/1414Z TN11/1404Z"
    },
    {
      "icao": "LQTZ",
      "alert": "OK",
      "vis_m": 9999,
      "fzfg": false,
      "metar_trigger": false,
      "taf_trigger": false,
      "metar": "METAR LQTZ 132230Z VRB02KT CAVOK 12/12 Q1018",
      "taf": "TAF LQTZ 131700Z 1318/1418 06005KT CAVOK TX31/1413Z TN12/1403Z"
    },
    {
      "icao": "LRBC",
      "alert": "OK",
      "vis_m": 9999,
      "fzfg": false,
      "metar_trigger": false,
      "taf_trigger": false,
      "metar": "METAR LRBC 132230Z AUTO 00000KT 9999 BKN110/// 15/13 Q1014",
      "taf": "TAF LRBC 132000Z 1321/1406 VRB04KT CAVOK"
    },
    {
      "icao": "LRBS",
      "alert": "OK",
      "vis_m": 9999,
      "fzfg": false,
      "metar_trigger": false,
      "taf_trigger": false,
      "metar": "METAR LRBS 132230Z 28004KT CAVOK 19/13 Q1015 NOSIG",
      "taf": "TAF LRBS 131700Z 1318/1418 27006KT CAVOK"
    },
    {
      "icao": "LRBV",
      "alert": "OK",
      "vis_m": 9999,
      "fzfg": false,
      "metar_trigger": false,
      "taf_trigger": false,
      "metar": "METAR LRBV 132230Z AUTO VRB05KT 9999 BKN037/// 15/12 Q1017",
      "taf": "TAF LRBV 131700Z 1318/1403 28006KT 9999 BKN060"
    },
    {
      "icao": "LRCL",
      "alert": "OK",
      "vis_m": 9999,
      "fzfg": false,
      "metar_trigger": false,
      "taf_trigger": false,
      "metar": "METAR LRCL 132230Z 30002KT 9999 SCT060 16/13 Q1015",
      "taf": "TAF LRCL 132000Z 1321/1406 VRB04KT 9999 SCT045"
    },
    {
      "icao": "LRCV",
      "alert": "OK",
      "vis_m": 9999,
      "fzfg": false,
      "metar_trigger": false,
      "taf_trigger": false,
      "metar": "METAR LRCV 132230Z 27007KT CAVOK 15/13 Q1016",
      "taf": "TAF LRCV 132000Z 1321/1406 28006KT CAVOK"
    },
    {
      "icao": "LRIA",
      "alert": "OK",
      "vis_m": 9999,
      "fzfg": false,
      "metar_trigger": false,
      "taf_trigger": false,
      "metar": "METAR LRIA 132230Z 11001KT CAVOK 15/10 Q1013",
      "taf": "TAF LRIA 132000Z 1321/1406 VRB04KT CAVOK"
    },
    {
      "icao": "LROP",
      "alert": "OK",
      "vis_m": 9999,
      "fzfg": false,
      "metar_trigger": false,
      "taf_trigger": false,
      "metar": "METAR LROP 132230Z 26004KT 240V310 CAVOK 17/15 Q1015 NOSIG",
      "taf": "TAF LROP 131700Z 1318/1418 27006KT CAVOK"
    },
    {
      "icao": "LRSB",
      "alert": "OK",
      "vis_m": 9999,
      "fzfg": false,
      "metar_trigger": false,
      "taf_trigger": false,
      "metar": "METAR LRSB 132230Z VRB02KT 9999 FEW070 14/12 Q1016",
      "taf": "TAF LRSB 131700Z 1318/1418 30012KT 9999 BKN060"
    },
    {
      "icao": "LRSM",
      "alert": "OK",
      "vis_m": 9999,
      "fzfg": false,
      "metar_trigger": false,
      "taf_trigger": false,
      "metar": "METAR LRSM 132230Z AUTO 20006KT 9999 NCD 15/14 Q1014",
      "taf": "TAF LRSM 132000Z 1321/1406 18006KT 9999 SCT025"
    },
    {
      "icao": "LRSV",
      "alert": "OK",
      "vis_m": 9999,
      "fzfg": false,
      "metar_trigger": false,
      "taf_trigger": false,
      "metar": "METAR LRSV 132230Z 23007KT CAVOK 13/10 Q1013",
      "taf": "TAF LRSV 132000Z 1321/1406 VRB04KT CAVOK"
    },
    {
      "icao": "LRTM",
      "alert": "OK",
      "vis_m": 9999,
      "fzfg": false,
      "metar_trigger": false,
      "taf_trigger": false,
      "metar": "METAR LRTM 132230Z 23004KT CAVOK 15/14 Q1015",
      "taf": "TAF LRTM 132000Z 1321/1406 VRB04KT 9999 SCT045"
    },
    {
      "icao": "LRTR",
      "alert": "OK",
      "vis_m": 9999,
      "fzfg": false,
      "metar_trigger": false,
      "taf_trigger": false,
      "metar": "METAR LRTR 132230Z 11005KT CAVOK 13/13 Q1016",
      "taf": "TAF LRTR 131700Z 1318/1418 VRB04KT 9999 SCT045"
    },
    {
      "icao": "LTAC",
      "alert": "OK",
      "vis_m": 9999,
      "fzfg": false,
      "metar_trigger": false,
      "taf_trigger": false,
      "metar": "METAR LTAC 132220Z 34003KT 290V360 9999 SCT040 SCT100 13/11 Q1014 NOSIG RMK RWY21C 11004KT RWY03L VRB02KT RWY21R 00000KT RWY03R VRB02KT RWY21L 11005KT",
      "taf": "TAF LTAC 131640Z 1318/1418 VRB02KT 9999 SCT040 SCT100"
    },
    {
      "icao": "LTFM",
      "alert": "OK",
      "vis_m": 9999,
      "fzfg": false,
      "metar_trigger": false,
      "taf_trigger": false,
      "metar": "METAR LTFM 132220Z 27004KT 210V320 CAVOK 16/13 Q1016 NOSIG RMK RWY17L 26004KT RWY34L 27004KT RWY16R 25004KT RWY36 VRB02KT RWY18 VRB05KT",
      "taf": "TAF LTFM 131640Z 1318/1424 03011KT CAVOK"
    },
    {
      "icao": "LUKK",
      "alert": "OK",
      "vis_m": 9999,
      "fzfg": false,
      "metar_trigger": false,
      "taf_trigger": false,
      "metar": "METAR LUKK 132230Z 28005KT CAVOK 13/10 Q1013 NOSIG",
      "taf": "TAF LUKK 131714Z 1318/1418 VRB04KT CAVOK"
    },
    {
      "icao": "LWOH",
      "alert": "OK",
      "vis_m": null,
      "fzfg": false,
      "metar_trigger": false,
      "taf_trigger": false,
      "metar": "",
      "taf": "TAF LWOH 132020Z 1321/1421 34006KT 9999 FEW050"
    },
    {
      "icao": "LWSK",
      "alert": "OK",
      "vis_m": 9999,
      "fzfg": false,
      "metar_trigger": false,
      "taf_trigger": false,
      "metar": "METAR LWSK 132220Z VRB02KT CAVOK 14/09 Q1019 NOSIG",
      "taf": "TAF LWSK 132020Z 1321/1421 02008KT CAVOK"
    },
    {
      "icao": "LYBE",
      "alert": "OK",
      "vis_m": 9999,
      "fzfg": false,
      "metar_trigger": false,
      "taf_trigger": false,
      "metar": "METAR LYBE 132230Z 20008KT CAVOK 19/13 Q1017 NOSIG",
      "taf": "TAF LYBE 131700Z 1318/1418 24005KT CAVOK TX31/1413Z TN14/1403Z"
    },
    {
      "icao": "LYNI",
      "alert": "OK",
      "vis_m": 9999,
      "fzfg": false,
      "metar_trigger": false,
      "taf_trigger": false,
      "metar": "METAR LYNI 132230Z VRB02KT CAVOK 15/12 Q1019 NOSIG",
      "taf": "TAF LYNI 131700Z 1318/1418 07004KT CAVOK TX30/1413Z TN10/1404Z"
    },
    {
      "icao": "LYPG",
      "alert": "OK",
      "vis_m": 9999,
      "fzfg": false,
      "metar_trigger": false,
      "taf_trigger": false,
      "metar": "METAR LYPG 132230Z 32004KT CAVOK 20/13 Q1017 NOSIG",
      "taf": "TAF LYPG 131700Z 1318/1418 18005KT CAVOK TX31/1414Z TN17/1403Z"
    },
    {
      "icao": "LZIB",
      "alert": "OK",
      "vis_m": 9999,
      "fzfg": false,
      "metar_trigger": false,
      "taf_trigger": false,
      "metar": "METAR LZIB 132230Z 24004KT CAVOK 20/14 Q1013 NOSIG",
      "taf": "TAF LZIB 131715Z 1318/1418 30007KT CAVOK"
    },
    {
      "icao": "LZKZ",
      "alert": "OK",
      "vis_m": 9999,
      "fzfg": false,
      "metar_trigger": false,
      "taf_trigger": false,
      "metar": "METAR LZKZ 132230Z 25002KT CAVOK 14/13 Q1013 NOSIG",
      "taf": "TAF LZKZ 131715Z 1318/1418 23004KT CAVOK"
    },
    {
      "icao": "LZTT",
      "alert": "OK",
      "vis_m": 9999,
      "fzfg": false,
      "metar_trigger": false,
      "taf_trigger": false,
      "metar": "METAR LZTT 132230Z 07005KT 030V130 9999 FEW026 SCT070 12/10 Q1014",
      "taf": "TAF LZTT 131715Z 1318/1418 27015KT 9999 FEW045"
    },
    {
      "icao": "OEJN",
      "alert": "OK",
      "vis_m": 9999,
      "fzfg": false,
      "metar_trigger": false,
      "taf_trigger": false,
      "metar": "METAR OEJN 132200Z 34006KT CAVOK 31/18 Q1005 NOSIG",
      "taf": "TAF OEJN 131700Z 1318/1424 35005KT CAVOK"
    },
    {
      "icao": "OEMA",
      "alert": "OK",
      "vis_m": 9999,
      "fzfg": false,
      "metar_trigger": false,
      "taf_trigger": false,
      "metar": "METAR OEMA 132200Z 30006KT CAVOK 36/00 Q1011 NOSIG",
      "taf": "TAF OEMA 131700Z 1318/1424 33008KT CAVOK"
    },
    {
      "icao": "OJAI",
      "alert": "OK",
      "vis_m": 5000,
      "fzfg": false,
      "metar_trigger": false,
      "taf_trigger": false,
      "metar": "METAR OJAI 132200Z 26006KT 5000 HZ NSC 18/08 Q1016 NOSIG",
      "taf": "TAF OJAI 131700Z 1318/1424 29012KT 5000 HZ NSC"
    },
    {
      "icao": "OMAA",
      "alert": "OK",
      "vis_m": 8000,
      "fzfg": false,
      "metar_trigger": false,
      "taf_trigger": false,
      "metar": "METAR OMAA 132230Z 29004KT 8000 NSC 31/28 Q1000 NOSIG",
      "taf": "TAF OMAA 131700Z 1318/1500 VRB02KT 8000 NSC"
    },
    {
      "icao": "OMDB",
      "alert": "OK",
      "vis_m": 8000,
      "fzfg": false,
      "metar_trigger": false,
      "taf_trigger": false,
      "metar": "METAR OMDB 132230Z 32006KT 300V360 8000 NSC 32/28 Q1000 NOSIG",
      "taf": "TAF OMDB 131700Z 1318/1500 02005KT 8000 NSC"
    },
    {
      "icao": "UAAA",
      "alert": "OK",
      "vis_m": 9999,
      "fzfg": false,
      "metar_trigger": false,
      "taf_trigger": false,
      "metar": "METAR UAAA 132230Z 22003MPS 9999 SCT100 BKN200 20/11 Q1009 NOSIG",
      "taf": "TAF UAAA 131701Z 1318/1418 19002MPS 9999 FEW050CB SCT100 TX33/1410Z TN18/1401Z"
    },
    {
      "icao": "UBBB",
      "alert": "OK",
      "vis_m": 9999,
      "fzfg": false,
      "metar_trigger": false,
      "taf_trigger": false,
      "metar": "METAR UBBB 132230Z 28002KT CAVOK 20/17 Q1007 NOSIG",
      "taf": "TAF UBBB 131701Z 1318/1418 28005KT 9999 SCT040 TX30/1410Z TN19/1400Z"
    },
    {
      "icao": "UDSG",
      "alert": "OK",
      "vis_m": 9999,
      "fzfg": false,
      "metar_trigger": false,
      "taf_trigger": false,
      "metar": "METAR UDSG 132230Z 10008KT 9999 TS BKN043CB 15/10 Q1014 NOSIG",
      "taf": ""
    },
    {
      "icao": "UDYZ",
      "alert": "OK",
      "vis_m": 8000,
      "fzfg": false,
      "metar_trigger": false,
      "taf_trigger": false,
      "metar": "METAR UDYZ 132230Z 02008KT 340V060 8000 -TSRA OVC033CB 18/15 Q1008 RESHRA NOSIG",
      "taf": "TAF UDYZ 131700Z 1318/1418 06006KT 9999 FEW040"
    },
    {
      "icao": "UGKO",
      "alert": "OK",
      "vis_m": 9999,
      "fzfg": false,
      "metar_trigger": false,
      "taf_trigger": false,
      "metar": "METAR UGKO 132230Z VRB02KT 9999 SCT035 17/15 Q1010 NOSIG",
      "taf": "TAF UGKO 131700Z 1318/1418 26007KT 9999 SCT050 TX23/1412Z TN16/1401Z"
    }
  ]
}