{
  "ts_utc": "2026-03-17T05:13:15Z",
  "threshold_m": 150,
  "source": "stations_override.txt (ICAO list) + aviationweather.gov (METAR/TAF raw)",
  "station_count": 159,
  "stations": [
    {
      "icao": "BIKF",
      "alert": "OK",
      "vis_m": 9999,
      "fzfg": false,
      "metar_trigger": false,
      "taf_trigger": false,
      "metar": "METAR BIKF 170500Z 02021G33KT CAVOK 01/M03 Q0976",
      "taf": "TAF BIKF 170434Z 1706/1806 02023G36KT 9999 FEW035 TX02/1714Z TN00/1803Z"
    },
    {
      "icao": "BKPR",
      "alert": "OK",
      "vis_m": 8000,
      "fzfg": false,
      "metar_trigger": false,
      "taf_trigger": false,
      "metar": "METAR BKPR 170500Z 01002KT 8000 BKN080 04/02 Q1015 NOSIG",
      "taf": ""
    },
    {
      "icao": "EBCI",
      "alert": "OK",
      "vis_m": 9999,
      "fzfg": false,
      "metar_trigger": false,
      "taf_trigger": false,
      "metar": "METAR EBCI 170450Z 19005KT 9999 BKN020 08/06 Q1020 NOSIG",
      "taf": "TAF EBCI 162310Z 1700/1806 21007KT 9999 SCT020 BKN040"
    },
    {
      "icao": "EDDB",
      "alert": "OK",
      "vis_m": 5000,
      "fzfg": false,
      "metar_trigger": false,
      "taf_trigger": false,
      "metar": "METAR EDDB 170450Z AUTO 20003KT 5000 BR NCD M01/M02 Q1022 TEMPO 2000 BCFG",
      "taf": "TAF EDDB 162300Z 1700/1724 27007KT CAVOK"
    },
    {
      "icao": "EDDH",
      "alert": "OK",
      "vis_m": 9999,
      "fzfg": false,
      "metar_trigger": false,
      "taf_trigger": false,
      "metar": "METAR EDDH 170450Z AUTO 15003KT CAVOK M00/M01 Q1020 NOSIG",
      "taf": "TAF EDDH 162300Z 1700/1806 22004KT CAVOK"
    },
    {
      "icao": "EDDK",
      "alert": "OK",
      "vis_m": 9999,
      "fzfg": false,
      "metar_trigger": false,
      "taf_trigger": false,
      "metar": "METAR EDDK 170450Z AUTO 14006KT 9999 BKN018 BKN026 OVC032 07/04 Q1021 NOSIG",
      "taf": "TAF EDDK 162300Z 1700/1806 12005KT 9999 BKN020"
    },
    {
      "icao": "EDDN",
      "alert": "OK",
      "vis_m": 7000,
      "fzfg": false,
      "metar_trigger": false,
      "taf_trigger": false,
      "metar": "METAR EDDN 170450Z AUTO 11006KT 7000 NSC 00/M01 Q1022",
      "taf": "TAF EDDN 162300Z 1700/1724 12004KT 9999 SCT030"
    },
    {
      "icao": "EDDS",
      "alert": "OK",
      "vis_m": 9999,
      "fzfg": false,
      "metar_trigger": false,
      "taf_trigger": false,
      "metar": "METAR EDDS 170450Z AUTO VRB01KT 9999 -SHRA FEW022 SCT029 BKN036 SCT///TCU 05/04 Q1021",
      "taf": "TAF EDDS 162300Z 1700/1724 VRB03KT 9999 SCT040"
    },
    {
      "icao": "EDFH",
      "alert": "OK",
      "vis_m": 8000,
      "fzfg": false,
      "metar_trigger": false,
      "taf_trigger": false,
      "metar": "METAR EDFH 170450Z 21005KT 8000 -DZ FEW003 BKN005 BKN010 05/04 Q1020 REDZ",
      "taf": ""
    },
    {
      "icao": "EDJA",
      "alert": "OK",
      "vis_m": 9999,
      "fzfg": false,
      "metar_trigger": false,
      "taf_trigger": false,
      "metar": "METAR EDJA 170450Z 21003KT 9999 BKN046 OVC059 03/02 Q1021",
      "taf": "TAF EDJA 170200Z 1703/1712 19005KT 9999 BKN025"
    },
    {
      "icao": "EDLW",
      "alert": "OK",
      "vis_m": 9999,
      "fzfg": false,
      "metar_trigger": false,
      "taf_trigger": false,
      "metar": "METAR EDLW 170450Z 19008KT CAVOK 06/04 Q1019",
      "taf": "TAF EDLW 170420Z 1705/1724 18008KT 9999 BKN025"
    },
    {
      "icao": "EDNY",
      "alert": "OK",
      "vis_m": 9999,
      "fzfg": false,
      "metar_trigger": false,
      "taf_trigger": false,
      "metar": "METAR EDNY 170450Z 00000KT CAVOK 03/02 Q1022",
      "taf": "TAF EDNY 170200Z 1703/1712 VRB02KT 9999 BKN035"
    },
    {
      "icao": "EDSB",
      "alert": "OK",
      "vis_m": 9999,
      "fzfg": false,
      "metar_trigger": false,
      "taf_trigger": false,
      "metar": "METAR EDSB 170450Z VRB02KT 9999 OVC026 07/05 Q1022",
      "taf": "TAF EDSB 162300Z 1700/1724 20004KT 9999 SCT035"
    },
    {
      "icao": "EETN",
      "alert": "OK",
      "vis_m": 250,
      "fzfg": false,
      "metar_trigger": false,
      "taf_trigger": false,
      "metar": "METAR EETN 170450Z 21003KT 0250 R26/0600N FG VV001 01/01 Q1018 NOSIG",
      "taf": "TAF EETN 162330Z 1700/1724 VRB02KT 3000 BR BKN003 OVC006"
    },
    {
      "icao": "EFTU",
      "alert": "OK",
      "vis_m": 5000,
      "fzfg": false,
      "metar_trigger": false,
      "taf_trigger": false,
      "metar": "METAR EFTU 170450Z AUTO 16003KT 130V220 5000 OVC003 01/01 Q1018",
      "taf": "TAF EFTU 170224Z 1703/1803 15006KT 8000 -RA OVC003"
    },
    {
      "icao": "EGBB",
      "alert": "OK",
      "vis_m": 9999,
      "fzfg": false,
      "metar_trigger": false,
      "taf_trigger": false,
      "metar": "METAR EGBB 170450Z 21010KT 160V260 9999 BKN010 09/07 Q1012",
      "taf": "TAF EGBB 170457Z 1706/1806 20010KT 9999 OVC010"
    },
    {
      "icao": "EGGP",
      "alert": "OK",
      "vis_m": 9999,
      "fzfg": false,
      "metar_trigger": false,
      "taf_trigger": false,
      "metar": "METAR EGGP 170450Z AUTO 18008KT 150V210 9999 OVC023/// 10/08 Q1010",
      "taf": "TAF EGGP 170502Z 1706/1806 18013KT 9999 BKN020"
    },
    {
      "icao": "EGGW",
      "alert": "OK",
      "vis_m": 3600,
      "fzfg": false,
      "metar_trigger": false,
      "taf_trigger": false,
      "metar": "METAR EGGW 170450Z AUTO 21010KT 3600 BR OVC005 08/08 Q1014 REDZ",
      "taf": "TAF EGGW 170504Z 1706/1806 22012KT 9999 BKN014"
    },
    {
      "icao": "EGKK",
      "alert": "OK",
      "vis_m": 9999,
      "fzfg": false,
      "metar_trigger": false,
      "taf_trigger": false,
      "metar": "METAR EGKK 170450Z 21008KT 9999 BKN009 09/08 Q1016",
      "taf": "TAF EGKK 170458Z 1706/1812 20012KT 9999 SCT012"
    },
    {
      "icao": "EGNM",
      "alert": "OK",
      "vis_m": null,
      "fzfg": false,
      "metar_trigger": false,
      "taf_trigger": false,
      "metar": "",
      "taf": "TAF EGNM 162303Z 1700/1724 23010KT 9999 BKN010"
    },
    {
      "icao": "EGPD",
      "alert": "OK",
      "vis_m": 9999,
      "fzfg": false,
      "metar_trigger": false,
      "taf_trigger": false,
      "metar": "METAR EGPD 170450Z COR AUTO 20016KT 9999 BKN026 OVC037 10/07 Q0999 NOSIG",
      "taf": "TAF EGPD 170456Z 1706/1806 18012KT 9999 SCT025"
    },
    {
      "icao": "EGPF",
      "alert": "OK",
      "vis_m": 9999,
      "fzfg": false,
      "metar_trigger": false,
      "taf_trigger": false,
      "metar": "METAR EGPF 170450Z AUTO 19017G32KT 9999 FEW033 SCT045 11/08 Q1001",
      "taf": "TAF EGPF 170457Z 1706/1806 19015G25KT 9999 FEW020 BKN025"
    },
    {
      "icao": "EHBK",
      "alert": "OK",
      "vis_m": 9999,
      "fzfg": false,
      "metar_trigger": false,
      "taf_trigger": false,
      "metar": "METAR EHBK 170455Z AUTO 19007KT 9999 OVC016/// 08/06 Q1020 NOSIG",
      "taf": "TAF EHBK 162304Z 1700/1806 20006KT 9999 BKN025"
    },
    {
      "icao": "EHEH",
      "alert": "OK",
      "vis_m": 9999,
      "fzfg": false,
      "metar_trigger": false,
      "taf_trigger": false,
      "metar": "METAR EHEH 170455Z AUTO 18006KT 9999 OVC016 08/06 Q1019 WHT",
      "taf": "TAF EHEH 162318Z 1700/1806 18006KT 9999 OVC025"
    },
    {
      "icao": "EKBI",
      "alert": "OK",
      "vis_m": 9999,
      "fzfg": false,
      "metar_trigger": false,
      "taf_trigger": false,
      "metar": "METAR EKBI 170450Z AUTO 14005KT 9999 FEW003/// BKN081/// 03/03 Q1017",
      "taf": "TAF EKBI 170227Z 1703/1803 18008KT 9999 SCT020"
    },
    {
      "icao": "EKCH",
      "alert": "OK",
      "vis_m": 9999,
      "fzfg": false,
      "metar_trigger": false,
      "taf_trigger": false,
      "metar": "METAR EKCH 170450Z 24005KT 9999 R22L/P1500N R04L/0800D R12/P1500N MIFG FEW040 M01/M01 Q1020 NOSIG",
      "taf": "TAF EKCH 170227Z 1703/1803 27008KT 9999 FEW030"
    },
    {
      "icao": "ENAL",
      "alert": "OK",
      "vis_m": 9999,
      "fzfg": false,
      "metar_trigger": false,
      "taf_trigger": false,
      "metar": "METAR ENAL 170450Z 18011KT 150V210 9999 BKN052 08/M01 Q1000",
      "taf": "TAF ENAL 170200Z 1703/1712 19015KT 9999 BKN050"
    },
    {
      "icao": "ENBR",
      "alert": "OK",
      "vis_m": 9999,
      "fzfg": false,
      "metar_trigger": false,
      "taf_trigger": false,
      "metar": "METAR ENBR 170450Z 14019KT 9999 -SHRA FEW008 SCT010 BKN015 05/02 Q1006 RMK WIND 1200FT 15027KT",
      "taf": "TAF ENBR 162300Z 1700/1724 16015KT 9999 -RA SCT015 BKN020"
    },
    {
      "icao": "ENGM",
      "alert": "OK",
      "vis_m": 9999,
      "fzfg": false,
      "metar_trigger": false,
      "taf_trigger": false,
      "metar": "METAR ENGM 170450Z 20007KT 9999 OVC008 01/M00 Q1012 NOSIG",
      "taf": "TAF ENGM 162300Z 1700/1724 18008KT 8000 -RA SCT004 BKN012"
    },
    {
      "icao": "ENHD",
      "alert": "OK",
      "vis_m": 1800,
      "fzfg": false,
      "metar_trigger": false,
      "taf_trigger": false,
      "metar": "METAR ENHD 170450Z AUTO 14017KT 1800 +RA SCT002/// OVC005/// 06/05 Q1007 REDZRA REDZ",
      "taf": "TAF ENHD 170200Z 1703/1712 15015KT 7000 -RADZ OVC006"
    },
    {
      "icao": "ENTC",
      "alert": "OK",
      "vis_m": 9999,
      "fzfg": false,
      "metar_trigger": false,
      "taf_trigger": false,
      "metar": "METAR ENTC 170450Z 21009KT 9999 -DZRA BKN028 01/M01 Q1004 RMK WIND 2600FT 17007KT",
      "taf": "TAF ENTC 162300Z 1700/1724 20008KT 9999 SCT045"
    },
    {
      "icao": "ENTO",
      "alert": "OK",
      "vis_m": 9999,
      "fzfg": false,
      "metar_trigger": false,
      "taf_trigger": false,
      "metar": "METAR ENTO 170450Z 21006KT CAVOK 02/M00 Q1013",
      "taf": "TAF ENTO 162300Z 1700/1724 VRB03KT 9999 FEW005"
    },
    {
      "icao": "ENVA",
      "alert": "OK",
      "vis_m": 9999,
      "fzfg": false,
      "metar_trigger": false,
      "taf_trigger": false,
      "metar": "METAR ENVA 170450Z 09011KT CAVOK 03/M04 Q1005 RMK WIND 670FT 15015KT",
      "taf": "TAF ENVA 162300Z 1700/1724 10006KT CAVOK"
    },
    {
      "icao": "ENZV",
      "alert": "OK",
      "vis_m": 9999,
      "fzfg": false,
      "metar_trigger": false,
      "taf_trigger": false,
      "metar": "METAR ENZV 170450Z 15015KT 9999 SCT028 BKN038 06/04 Q1008",
      "taf": "TAF ENZV 162300Z 1700/1724 16012KT 9999 -RA SCT012 BKN030"
    },
    {
      "icao": "EPGD",
      "alert": "OK",
      "vis_m": 9999,
      "fzfg": false,
      "metar_trigger": false,
      "taf_trigger": false,
      "metar": "METAR EPGD 170500Z 20003KT 160V230 9999 SCT010 BKN015 03/02 Q1018",
      "taf": "TAF EPGD 162330Z 1700/1724 23004KT 9999 BKN020"
    },
    {
      "icao": "EPKK",
      "alert": "OK",
      "vis_m": 9999,
      "fzfg": false,
      "metar_trigger": false,
      "taf_trigger": false,
      "metar": "METAR EPKK 170500Z 23002KT 9999 FEW044 03/01 Q1020",
      "taf": "TAF EPKK 170230Z 1703/1803 VRB02KT 9999 BKN040"
    },
    {
      "icao": "EPKT",
      "alert": "OK",
      "vis_m": 1200,
      "fzfg": false,
      "metar_trigger": false,
      "taf_trigger": false,
      "metar": "METAR EPKT 170500Z 34004KT 1200 0550NE R26/0650U BCFG BR NSC M01/M01 Q1019",
      "taf": "TAF EPKT 162330Z 1700/1724 27003KT 9999 BKN040"
    },
    {
      "icao": "EPLB",
      "alert": "OK",
      "vis_m": 5000,
      "fzfg": false,
      "metar_trigger": false,
      "taf_trigger": false,
      "metar": "METAR EPLB 170500Z 36002KT 5000 BR NSC 03/02 Q1019",
      "taf": "TAF EPLB 162330Z 1700/1724 30004KT CAVOK"
    },
    {
      "icao": "EPMO",
      "alert": "OK",
      "vis_m": 6000,
      "fzfg": false,
      "metar_trigger": false,
      "taf_trigger": false,
      "metar": "METAR EPMO 170500Z 31005KT 6000 MIFG NSC 02/02 Q1020",
      "taf": ""
    },
    {
      "icao": "EPPO",
      "alert": "OK",
      "vis_m": 6000,
      "fzfg": false,
      "metar_trigger": false,
      "taf_trigger": false,
      "metar": "METAR EPPO 170500Z 27002KT 6000 0400E R28/1000D BCFG NSC 01/00 Q1021",
      "taf": ""
    },
    {
      "icao": "EPRA",
      "alert": "OK",
      "vis_m": 9999,
      "fzfg": false,
      "metar_trigger": false,
      "taf_trigger": false,
      "metar": "METAR EPRA 170500Z 27003KT 250V310 9999 FEW039 04/02 Q1019",
      "taf": "TAF EPRA 170230Z 1703/1712 30006KT 9999 SCT040"
    },
    {
      "icao": "EPRZ",
      "alert": "OK",
      "vis_m": 9999,
      "fzfg": false,
      "metar_trigger": false,
      "taf_trigger": false,
      "metar": "METAR EPRZ 170500Z 27004KT CAVOK 05/03 Q1019",
      "taf": "TAF EPRZ 162330Z 1700/1724 25007KT 9999 BKN040"
    },
    {
      "icao": "EPSC",
      "alert": "OK",
      "vis_m": 5000,
      "fzfg": false,
      "metar_trigger": false,
      "taf_trigger": false,
      "metar": "METAR EPSC 170500Z 20002KT 5000 BR NSC M01/M01 Q1020",
      "taf": ""
    },
    {
      "icao": "EPSY",
      "alert": "OK",
      "vis_m": 1600,
      "fzfg": false,
      "metar_trigger": false,
      "taf_trigger": false,
      "metar": "METAR EPSY 170500Z VRB02KT 1600 MIFG BR NSC 00/00 Q1019",
      "taf": "TAF EPSY 170230Z 1703/1712 25006KT 4000 BR NSC"
    },
    {
      "icao": "EPWA",
      "alert": "OK",
      "vis_m": 6000,
      "fzfg": false,
      "metar_trigger": false,
      "taf_trigger": false,
      "metar": "METAR EPWA 170500Z 30003KT 260V330 6000 NSC 04/03 Q1020 TEMPO 4000 BR",
      "taf": "TAF EPWA 170230Z 1703/1803 VRB02KT CAVOK"
    },
    {
      "icao": "EPWR",
      "alert": "OK",
      "vis_m": 9999,
      "fzfg": false,
      "metar_trigger": false,
      "taf_trigger": false,
      "metar": "METAR EPWR 170500Z 30006KT 9999 -RA SCT006 BKN009 04/04 Q1021",
      "taf": "TAF EPWR 170230Z 1703/1803 26004KT 9999 BKN013"
    },
    {
      "icao": "ESGG",
      "alert": "OK",
      "vis_m": 250,
      "fzfg": false,
      "metar_trigger": false,
      "taf_trigger": false,
      "metar": "METAR ESGG 170450Z 18006KT 0250 R03/0900N R21/0900N FG VV002 01/01 Q1017",
      "taf": "TAF ESGG 170230Z 1703/1803 18004KT 3000 BR BKN002"
    },
    {
      "icao": "ESKN",
      "alert": "OK",
      "vis_m": 650,
      "fzfg": false,
      "metar_trigger": false,
      "taf_trigger": false,
      "metar": "METAR ESKN 170450Z 21003KT 0650 R08/P2000N R26/0800N FG SCT002 BKN012 00/00 Q1017",
      "taf": "TAF ESKN 170230Z 1703/1803 19006KT 6000 SCT005"
    },
    {
      "icao": "ESMS",
      "alert": "OK",
      "vis_m": 800,
      "fzfg": false,
      "metar_trigger": false,
      "taf_trigger": false,
      "metar": "METAR ESMS 170450Z 19001KT 0800 R17/0700N R35/0600U BCFG NSC M02/M02 Q1019",
      "taf": ""
    },
    {
      "icao": "ESSA",
      "alert": "OK",
      "vis_m": 8000,
      "fzfg": false,
      "metar_trigger": false,
      "taf_trigger": false,
      "metar": "METAR ESSA 170450Z 21006KT 8000 BKN006 02/01 Q1016 BECMG BKN004",
      "taf": "TAF ESSA 170230Z 1703/1803 18009KT 9999 BKN006"
    },
    {
      "icao": "EYKA",
      "alert": "OK",
      "vis_m": 9999,
      "fzfg": false,
      "metar_trigger": false,
      "taf_trigger": false,
      "metar": "METAR EYKA 170450Z VRB01KT CAVOK 00/M02 Q1019",
      "taf": "TAF EYKA 170500Z 1706/1806 VRB04KT 5000 BR SCT015"
    },
    {
      "icao": "EYPA",
      "alert": "OK",
      "vis_m": 750,
      "fzfg": false,
      "metar_trigger": false,
      "taf_trigger": false,
      "metar": "METAR EYPA 170450Z VRB01KT 0750 R19/0900D FG OVC002 04/04 Q1018",
      "taf": "TAF EYPA 170503Z 1706/1806 VRB04KT 0600 FG VV002"
    },
    {
      "icao": "EYVI",
      "alert": "OK",
      "vis_m": 9999,
      "fzfg": false,
      "metar_trigger": false,
      "taf_trigger": false,
      "metar": "METAR EYVI 170450Z 15004KT CAVOK 01/M03 Q1019 NOSIG",
      "taf": "TAF EYVI 170500Z 1706/1806 VRB04KT 8000 SCT045"
    },
    {
      "icao": "GCFV",
      "alert": "OK",
      "vis_m": 9999,
      "fzfg": false,
      "metar_trigger": false,
      "taf_trigger": false,
      "metar": "METAR GCFV 170500Z AUTO 00000KT 9999 OVC029 17/12 Q1010",
      "taf": "TAF GCFV 170200Z 1703/1803 32006KT 9999 SCT020 TX22/1714Z TN16/1706Z"
    },
    {
      "icao": "GCLP",
      "alert": "OK",
      "vis_m": 9999,
      "fzfg": false,
      "metar_trigger": false,
      "taf_trigger": false,
      "metar": "METAR GCLP 170500Z 30003KT 9999 FEW020 BKN040 16/13 Q1011 NOSIG",
      "taf": "TAF GCLP 170200Z 1703/1803 32006KT 9999 SCT020 TX23/1714Z TN16/1706Z"
    },
    {
      "icao": "GCTS",
      "alert": "OK",
      "vis_m": 9999,
      "fzfg": false,
      "metar_trigger": false,
      "taf_trigger": false,
      "metar": "METAR GCTS 170500Z 36005KT 9999 SCT020 16/11 Q1011 NOSIG",
      "taf": "TAF GCTS 170200Z 1703/1803 09005KT 9999 SCT025 TX23/1714Z TN16/1706Z"
    },
    {
      "icao": "GMAD",
      "alert": "OK",
      "vis_m": 8000,
      "fzfg": false,
      "metar_trigger": false,
      "taf_trigger": false,
      "metar": "METAR GMAD 170500Z 03011KT 8000 NSC 16/15 Q1009 NOSIG",
      "taf": "TAF GMAD 162300Z 1700/1806 06008KT 8000 BKN013 BKN080"
    },
    {
      "icao": "GMMN",
      "alert": "OK",
      "vis_m": 6000,
      "fzfg": false,
      "metar_trigger": false,
      "taf_trigger": false,
      "metar": "METAR GMMN 170500Z 20003KT 6000 NSC 10/09 Q1011 NOSIG",
      "taf": "TAF GMMN 162300Z 1700/1806 19006KT CAVOK"
    },
    {
      "icao": "GMMX",
      "alert": "OK",
      "vis_m": 9999,
      "fzfg": false,
      "metar_trigger": false,
      "taf_trigger": false,
      "metar": "METAR GMMX 170500Z 16005KT CAVOK 15/13 Q1011 NOSIG",
      "taf": ""
    },
    {
      "icao": "HEGN",
      "alert": "OK",
      "vis_m": 9999,
      "fzfg": false,
      "metar_trigger": false,
      "taf_trigger": false,
      "metar": "METAR HEGN 170500Z 30008KT CAVOK 15/M04 Q1011 NOSIG",
      "taf": "TAF HEGN 170500Z 1706/1812 02014KT CAVOK"
    },
    {
      "icao": "HEMA",
      "alert": "OK",
      "vis_m": 9999,
      "fzfg": false,
      "metar_trigger": false,
      "taf_trigger": false,
      "metar": "METAR HEMA 170500Z 31012KT CAVOK 18/03 Q1010 NOSIG",
      "taf": "TAF HEMA 170500Z 1706/1812 06014KT CAVOK"
    },
    {
      "icao": "HESH",
      "alert": "OK",
      "vis_m": 9999,
      "fzfg": false,
      "metar_trigger": false,
      "taf_trigger": false,
      "metar": "METAR HESH 170500Z 33006KT CAVOK 19/03 Q1012 NOSIG",
      "taf": "TAF HESH 170500Z 1706/1812 01012KT CAVOK"
    },
    {
      "icao": "HESX",
      "alert": "OK",
      "vis_m": 9999,
      "fzfg": false,
      "metar_trigger": false,
      "taf_trigger": false,
      "metar": "METAR HESX 170500Z 09007KT CAVOK 12/07 Q1012 NOSIG",
      "taf": "TAF HESX 170501Z 1706/1812 08010KT CAVOK"
    },
    {
      "icao": "LATI",
      "alert": "OK",
      "vis_m": 9999,
      "fzfg": false,
      "metar_trigger": false,
      "taf_trigger": false,
      "metar": "METAR LATI 170450Z 12003KT 9999 SCT094 BKN110 11/05 Q1012 NOSIG",
      "taf": "TAF LATI 170500Z 1706/1806 VRB05KT 9999 BKN080 TX16/1712Z TN07/1804Z"
    },
    {
      "icao": "LBPD",
      "alert": "OK",
      "vis_m": 9999,
      "fzfg": false,
      "metar_trigger": false,
      "taf_trigger": false,
      "metar": "METAR LBPD 170500Z AUTO 14003KT 9999 NCD 02/00 Q1018 NOSIG",
      "taf": "TAF LBPD 162300Z 1700/1724 VRB03KT 9999 BKN050"
    },
    {
      "icao": "LBSF",
      "alert": "OK",
      "vis_m": 9999,
      "fzfg": false,
      "metar_trigger": false,
      "taf_trigger": false,
      "metar": "METAR LBSF 170500Z 13005KT CAVOK 00/M02 Q1017 NOSIG",
      "taf": "TAF LBSF 162300Z 1700/1724 11010KT 9999 BKN050"
    },
    {
      "icao": "LBWN",
      "alert": "OK",
      "vis_m": 5000,
      "fzfg": false,
      "metar_trigger": false,
      "taf_trigger": false,
      "metar": "METAR LBWN 170500Z AUTO VRB02KT 5000 BR NSC 03/01 Q1018 TEMPO 3000 BR",
      "taf": "TAF LBWN 162300Z 1700/1724 VRB03KT 9999 SCT045"
    },
    {
      "icao": "LCLK",
      "alert": "OK",
      "vis_m": 9999,
      "fzfg": false,
      "metar_trigger": false,
      "taf_trigger": false,
      "metar": "METAR LCLK 170500Z 30006KT 9999 SCT030 BKN050 10/09 Q1014 NOSIG",
      "taf": "TAF LCLK 162330Z 1700/1800 30006KT 9999 SCT025"
    },
    {
      "icao": "LCPH",
      "alert": "OK",
      "vis_m": 9999,
      "fzfg": false,
      "metar_trigger": false,
      "taf_trigger": false,
      "metar": "METAR LCPH 170500Z 07005KT 010V080 9999 FEW030 10/06 Q1014 NOSIG",
      "taf": "TAF LCPH 162330Z 1700/1800 05008KT 9999 FEW030"
    },
    {
      "icao": "LEAL",
      "alert": "OK",
      "vis_m": 9999,
      "fzfg": false,
      "metar_trigger": false,
      "taf_trigger": false,
      "metar": "METAR LEAL 170500Z 26005KT CAVOK 08/07 Q1018 NOSIG",
      "taf": "TAF LEAL 162300Z 1700/1724 VRB04KT CAVOK TX19/1712Z TN07/1706Z"
    },
    {
      "icao": "LEBB",
      "alert": "OK",
      "vis_m": 9999,
      "fzfg": false,
      "metar_trigger": false,
      "taf_trigger": false,
      "metar": "METAR LEBB 170500Z 08003KT 010V140 CAVOK 08/06 Q1015 NOSIG",
      "taf": "TAF LEBB 162300Z 1700/1724 11005KT 9999 FEW030 TX26/1714Z TN06/1706Z"
    },
    {
      "icao": "LEBL",
      "alert": "OK",
      "vis_m": 9999,
      "fzfg": false,
      "metar_trigger": false,
      "taf_trigger": false,
      "metar": "METAR LEBL 170500Z 33011KT CAVOK 09/06 Q1017 NOSIG",
      "taf": "TAF LEBL 162300Z 1700/1724 35005KT CAVOK TX17/1713Z TN08/1706Z"
    },
    {
      "icao": "LECH",
      "alert": "OK",
      "vis_m": 9000,
      "fzfg": false,
      "metar_trigger": false,
      "taf_trigger": false,
      "metar": "METAR LECH 170500Z AUTO 16002KT 9000 NCD 06/03 Q1017",
      "taf": ""
    },
    {
      "icao": "LEMD",
      "alert": "OK",
      "vis_m": 9999,
      "fzfg": false,
      "metar_trigger": false,
      "taf_trigger": false,
      "metar": "METAR LEMD 170500Z VRB01KT CAVOK 03/03 Q1018 NOSIG",
      "taf": "TAF LEMD 162300Z 1700/1806 VRB04KT CAVOK TX22/1715Z TN02/1706Z"
    },
    {
      "icao": "LEMG",
      "alert": "OK",
      "vis_m": 9999,
      "fzfg": false,
      "metar_trigger": false,
      "taf_trigger": false,
      "metar": "METAR LEMG 170500Z 28008KT CAVOK 08/06 Q1018 NOSIG",
      "taf": "TAF LEMG 162300Z 1700/1724 29004KT CAVOK TX19/1714Z TN10/1707Z"
    },
    {
      "icao": "LEVC",
      "alert": "OK",
      "vis_m": 9999,
      "fzfg": false,
      "metar_trigger": false,
      "taf_trigger": false,
      "metar": "METAR LEVC 170500Z 26003KT CAVOK 07/04 Q1017 NOSIG",
      "taf": "TAF LEVC 162300Z 1700/1724 27005KT CAVOK TX22/1712Z TN07/1705Z"
    },
    {
      "icao": "LEXJ",
      "alert": "OK",
      "vis_m": 9999,
      "fzfg": false,
      "metar_trigger": false,
      "taf_trigger": false,
      "metar": "METAR LEXJ 170500Z 10004KT 050V140 CAVOK 06/04 Q1013",
      "taf": ""
    },
    {
      "icao": "LEZG",
      "alert": "OK",
      "vis_m": 9999,
      "fzfg": false,
      "metar_trigger": false,
      "taf_trigger": false,
      "metar": "METAR LEZG 170500Z 00000KT CAVOK 05/05 Q1017 NOSIG",
      "taf": "TAF LEZG 162300Z 1700/1724 26007KT CAVOK TX21/1714Z TN05/1706Z"
    },
    {
      "icao": "LEZL",
      "alert": "OK",
      "vis_m": 9999,
      "fzfg": false,
      "metar_trigger": false,
      "taf_trigger": false,
      "metar": "METAR LEZL 170500Z 06009KT CAVOK 11/05 Q1013 NOSIG",
      "taf": "TAF LEZL 170200Z 1703/1803 06010KT CAVOK TX25/1715Z TN10/1707Z"
    },
    {
      "icao": "LFBD",
      "alert": "OK",
      "vis_m": 9999,
      "fzfg": false,
      "metar_trigger": false,
      "taf_trigger": false,
      "metar": "METAR LFBD 170500Z AUTO 11006KT CAVOK 05/05 Q1018 TEMPO 0500 FG VV///",
      "taf": "TAF LFBD 162300Z 1700/1806 VRB03KT CAVOK TX19/1715Z TN04/1706Z"
    },
    {
      "icao": "LFLL",
      "alert": "OK",
      "vis_m": 550,
      "fzfg": false,
      "metar_trigger": false,
      "taf_trigger": false,
      "metar": "METAR LFLL 170500Z 26002KT 0550 R35L/0600U R17R/0700N R35R/0900U R17L/0550N FG VV/// 03/03 Q1021 TEMPO 0400",
      "taf": "TAF LFLL 162300Z 1700/1806 VRB02KT CAVOK"
    },
    {
      "icao": "LFLS",
      "alert": "OK",
      "vis_m": 9999,
      "fzfg": false,
      "metar_trigger": false,
      "taf_trigger": false,
      "metar": "METAR LFLS 170500Z AUTO VRB03KT CAVOK 00/00 Q1020 TEMPO BKN009",
      "taf": "TAF LFLS 170200Z 1703/1803 VRB02KT CAVOK"
    },
    {
      "icao": "LFMN",
      "alert": "OK",
      "vis_m": 9999,
      "fzfg": false,
      "metar_trigger": false,
      "taf_trigger": false,
      "metar": "METAR LFMN 170500Z 34008KT CAVOK 11/04 Q1014 NOSIG",
      "taf": "TAF LFMN 170200Z 1703/1809 33010KT CAVOK"
    },
    {
      "icao": "LFOB",
      "alert": "OK",
      "vis_m": 9999,
      "fzfg": false,
      "metar_trigger": false,
      "taf_trigger": false,
      "metar": "METAR LFOB 170500Z AUTO 14003KT CAVOK 05/04 Q1020 TEMPO 0900 FG VV///",
      "taf": "TAF LFOB 162300Z 1700/1724 VRB03KT CAVOK"
    },
    {
      "icao": "LFPO",
      "alert": "OK",
      "vis_m": 9999,
      "fzfg": false,
      "metar_trigger": false,
      "taf_trigger": false,
      "metar": "METAR LFPO 170500Z VRB02KT CAVOK 05/04 Q1020 NOSIG",
      "taf": "TAF LFPO 162300Z 1700/1806 20005KT CAVOK"
    },
    {
      "icao": "LFSB",
      "alert": "OK",
      "vis_m": 9999,
      "fzfg": false,
      "metar_trigger": false,
      "taf_trigger": false,
      "metar": "METAR LFSB 170500Z AUTO 18004KT CAVOK 03/02 Q1022 TEMPO 0800 BCFG BKN001",
      "taf": "TAF LFSB 162300Z 1700/1724 VRB03KT CAVOK"
    },
    {
      "icao": "LGAV",
      "alert": "OK",
      "vis_m": 9999,
      "fzfg": false,
      "metar_trigger": false,
      "taf_trigger": false,
      "metar": "METAR LGAV 170450Z 03008KT 9999 FEW020 11/05 Q1014 NOSIG",
      "taf": "TAF LGAV 170500Z 1706/1806 03012KT 9999 SCT020 BKN070"
    },
    {
      "icao": "LGTS",
      "alert": "OK",
      "vis_m": 9999,
      "fzfg": false,
      "metar_trigger": false,
      "taf_trigger": false,
      "metar": "METAR LGTS 170450Z 10005KT 9999 FEW025 07/07 Q1017 NOSIG",
      "taf": "TAF LGTS 170500Z 1706/1806 VRB03KT 9999 SCT025"
    },
    {
      "icao": "LHBP",
      "alert": "OK",
      "vis_m": 9999,
      "fzfg": false,
      "metar_trigger": false,
      "taf_trigger": false,
      "metar": "METAR LHBP 170500Z 31010KT CAVOK 05/00 Q1018 NOSIG",
      "taf": "TAF LHBP 162315Z 1700/1724 31008KT CAVOK"
    },
    {
      "icao": "LHDC",
      "alert": "OK",
      "vis_m": 9999,
      "fzfg": false,
      "metar_trigger": false,
      "taf_trigger": false,
      "metar": "METAR LHDC 170445Z AUTO 00000KT CAVOK 03/00 Q1017 NOSIG",
      "taf": "TAF LHDC 161715Z 1618/1703 18004KT CAVOK"
    },
    {
      "icao": "LIBD",
      "alert": "OK",
      "vis_m": 7000,
      "fzfg": false,
      "metar_trigger": false,
      "taf_trigger": false,
      "metar": "METAR LIBD 170450Z VRB02KT 7000 RA SCT010 12/12 Q1012",
      "taf": "TAF LIBD 162300Z 1700/1724 VRB05KT 8000 RA SCT030"
    },
    {
      "icao": "LIBG",
      "alert": "OK",
      "vis_m": null,
      "fzfg": false,
      "metar_trigger": false,
      "taf_trigger": false,
      "metar": "",
      "taf": ""
    },
    {
      "icao": "LIBP",
      "alert": "OK",
      "vis_m": 9999,
      "fzfg": false,
      "metar_trigger": false,
      "taf_trigger": false,
      "metar": "METAR LIBP 170450Z AUTO 18002KT 9999 FEW018/// OVC063/// 11/10 Q1014",
      "taf": "TAF LIBP 162300Z 1700/1724 VRB05KT 7000 SCT040"
    },
    {
      "icao": "LIBR",
      "alert": "OK",
      "vis_m": 9999,
      "fzfg": false,
      "metar_trigger": false,
      "taf_trigger": false,
      "metar": "METAR LIBR 170450Z 03012KT 9999 -RA FEW045 13/11 Q1012",
      "taf": "TAF LIBR 162300Z 1700/1724 VRB05KT 8000 RA SCT030"
    },
    {
      "icao": "LICA",
      "alert": "OK",
      "vis_m": 9999,
      "fzfg": false,
      "metar_trigger": false,
      "taf_trigger": false,
      "metar": "METAR LICA 170450Z AUTO 08008KT 9999 -RA OVC044/// 13/10 Q1009",
      "taf": "TAF LICA 162300Z 1700/1724 08022G32KT 9999 BKN040"
    },
    {
      "icao": "LICC",
      "alert": "OK",
      "vis_m": 8000,
      "fzfg": false,
      "metar_trigger": false,
      "taf_trigger": false,
      "metar": "METAR LICC 170450Z 05017KT 8000 -RA FEW020 BKN080 14/12 Q1005",
      "taf": "TAF LICC 162300Z 1700/1724 06015KT 9999 BKN030"
    },
    {
      "icao": "LICJ",
      "alert": "OK",
      "vis_m": 9999,
      "fzfg": false,
      "metar_trigger": false,
      "taf_trigger": false,
      "metar": "METAR LICJ 170450Z 07011KT 9999 SCT030 14/11 Q1006",
      "taf": "TAF LICJ 162300Z 1700/1724 04018G28KT 9999 SCT025"
    },
    {
      "icao": "LIMC",
      "alert": "OK",
      "vis_m": 9999,
      "fzfg": false,
      "metar_trigger": false,
      "taf_trigger": false,
      "metar": "METAR LIMC 170450Z VRB02KT CAVOK 03/M00 Q1017 NOSIG",
      "taf": "TAF LIMC 162300Z 1700/1806 01006KT CAVOK"
    },
    {
      "icao": "LIME",
      "alert": "OK",
      "vis_m": 9999,
      "fzfg": false,
      "metar_trigger": false,
      "taf_trigger": false,
      "metar": "METAR LIME 170450Z VRB02KT CAVOK 06/M02 Q1017 NOSIG",
      "taf": "TAF LIME 162300Z 1700/1724 VRB05KT CAVOK"
    },
    {
      "icao": "LIMF",
      "alert": "OK",
      "vis_m": 9999,
      "fzfg": false,
      "metar_trigger": false,
      "taf_trigger": false,
      "metar": "METAR LIMF 170450Z 32004KT CAVOK 07/M01 Q1016",
      "taf": "TAF LIMF 162300Z 1700/1724 VRB05KT CAVOK"
    },
    {
      "icao": "LIMJ",
      "alert": "OK",
      "vis_m": 9999,
      "fzfg": false,
      "metar_trigger": false,
      "taf_trigger": false,
      "metar": "METAR LIMJ 170450Z 05011KT CAVOK 13/01 Q1014",
      "taf": "TAF LIMJ 162300Z 1700/1724 04012KT CAVOK"
    },
    {
      "icao": "LIPE",
      "alert": "OK",
      "vis_m": 9999,
      "fzfg": false,
      "metar_trigger": false,
      "taf_trigger": false,
      "metar": "METAR LIPE 170450Z 23003KT 9999 BKN050 08/06 Q1017",
      "taf": "TAF LIPE 162300Z 1700/1724 VRB06KT CAVOK"
    },
    {
      "icao": "LIPH",
      "alert": "OK",
      "vis_m": 9999,
      "fzfg": false,
      "metar_trigger": false,
      "taf_trigger": false,
      "metar": "METAR LIPH 170450Z AUTO 05004KT 9999 NCD 08/04 Q1018",
      "taf": "TAF LIPH 162300Z 1700/1724 05007KT 9999 FEW050"
    },
    {
      "icao": "LIPQ",
      "alert": "OK",
      "vis_m": 9999,
      "fzfg": false,
      "metar_trigger": false,
      "taf_trigger": false,
      "metar": "METAR LIPQ 170450Z AUTO VRB02KT 9999 NCD 07/03 Q1018",
      "taf": "TAF LIPQ 162300Z 1700/1724 08010KT 9999 FEW070"
    },
    {
      "icao": "LIPR",
      "alert": "OK",
      "vis_m": 9999,
      "fzfg": false,
      "metar_trigger": false,
      "taf_trigger": false,
      "metar": "METAR LIPR 170450Z AUTO VRB02KT 9999 BKN058/// 07/05 Q1016",
      "taf": "TAF LIPR 162300Z 1700/1724 VRB05KT 9999 SCT050"
    },
    {
      "icao": "LIPX",
      "alert": "OK",
      "vis_m": 9999,
      "fzfg": false,
      "metar_trigger": false,
      "taf_trigger": false,
      "metar": "METAR LIPX 170450Z 07005KT CAVOK 09/03 Q1017",
      "taf": "TAF LIPX 162300Z 1700/1724 VRB05KT CAVOK"
    },
    {
      "icao": "LIPY",
      "alert": "OK",
      "vis_m": 9999,
      "fzfg": false,
      "metar_trigger": false,
      "taf_trigger": false,
      "metar": "METAR LIPY 170450Z AUTO 21006KT 9999 BKN120/// 08/07 Q1015",
      "taf": "TAF LIPY 162300Z 1700/1724 VRB05KT 8000 FEW050"
    },
    {
      "icao": "LIPZ",
      "alert": "OK",
      "vis_m": 9999,
      "fzfg": false,
      "metar_trigger": false,
      "taf_trigger": false,
      "metar": "METAR LIPZ 170450Z 03005KT CAVOK 07/04 Q1017 NOSIG",
      "taf": "TAF LIPZ 162300Z 1700/1806 06012KT 9999 SCT050"
    },
    {
      "icao": "LIRF",
      "alert": "OK",
      "vis_m": 9999,
      "fzfg": false,
      "metar_trigger": false,
      "taf_trigger": false,
      "metar": "METAR LIRF 170450Z 06005KT CAVOK 08/06 Q1011 NOSIG",
      "taf": "TAF LIRF 162300Z 1700/1806 05006KT 9999 SCT030"
    },
    {
      "icao": "LIRN",
      "alert": "OK",
      "vis_m": 9999,
      "fzfg": false,
      "metar_trigger": false,
      "taf_trigger": false,
      "metar": "METAR LIRN 170450Z 36007KT CAVOK 12/09 Q1011 NOSIG",
      "taf": "TAF LIRN 162300Z 1700/1724 04014KT 9999 SCT040"
    },
    {
      "icao": "LIRP",
      "alert": "OK",
      "vis_m": 9999,
      "fzfg": false,
      "metar_trigger": false,
      "taf_trigger": false,
      "metar": "METAR LIRP 170445Z 03003KT CAVOK 06/06 Q1013 NOSIG",
      "taf": "TAF LIRP 162300Z 1700/1724 10005KT CAVOK"
    },
    {
      "icao": "LIRZ",
      "alert": "OK",
      "vis_m": 9999,
      "fzfg": false,
      "metar_trigger": false,
      "taf_trigger": false,
      "metar": "METAR LIRZ 170450Z AUTO 02009KT 9999 NCD 09/06 Q1014",
      "taf": "TAF LIRZ 162300Z 1700/1724 VRB05KT CAVOK"
    },
    {
      "icao": "LJLJ",
      "alert": "OK",
      "vis_m": 9999,
      "fzfg": false,
      "metar_trigger": false,
      "taf_trigger": false,
      "metar": "METAR LJLJ 170500Z 22003KT 9999 FEW005 SCT010 BKN018 04/04 Q1020 NOSIG",
      "taf": "TAF LJLJ 170500Z 1706/1806 VRB02KT 9999 BKN008"
    },
    {
      "icao": "LKMT",
      "alert": "OK",
      "vis_m": 9999,
      "fzfg": false,
      "metar_trigger": false,
      "taf_trigger": false,
      "metar": "METAR LKMT 170500Z 01006KT 9999 OVC012 04/02 Q1020 NOSIG",
      "taf": "TAF LKMT 162300Z 1700/1724 VRB02KT 9999 FEW012 BKN030"
    },
    {
      "icao": "LKPR",
      "alert": "OK",
      "vis_m": 9999,
      "fzfg": false,
      "metar_trigger": false,
      "taf_trigger": false,
      "metar": "METAR LKPR 170500Z 21005KT 9999 FEW026 M00/M01 Q1022 NOSIG",
      "taf": "TAF LKPR 170200Z 1703/1809 22008KT CAVOK"
    },
    {
      "icao": "LLBG",
      "alert": "OK",
      "vis_m": 9999,
      "fzfg": false,
      "metar_trigger": false,
      "taf_trigger": false,
      "metar": "METAR LLBG 170450Z VRB01KT CAVOK 11/08 Q1014 NOSIG",
      "taf": "TAF LLBG 170501Z 1706/1806 VRB04KT CAVOK TX23/1712Z TN12/1803Z"
    },
    {
      "icao": "LMML",
      "alert": "OK",
      "vis_m": 9999,
      "fzfg": false,
      "metar_trigger": false,
      "taf_trigger": false,
      "metar": "METAR LMML 170445Z 04009KT 9999 FEW017 12/09 Q1002 NOSIG",
      "taf": "TAF LMML 170500Z 1706/1806 04012KT 9999 SCT018"
    },
    {
      "icao": "LOWW",
      "alert": "OK",
      "vis_m": 9999,
      "fzfg": false,
      "metar_trigger": false,
      "taf_trigger": false,
      "metar": "METAR LOWW 170450Z 32008KT 9999 FEW036 BKN038 04/00 Q1021 NOSIG",
      "taf": "TAF LOWW 170215Z 1703/1809 29010KT 9999 FEW050 TX09/1809Z TN04/1804Z"
    },
    {
      "icao": "LPFR",
      "alert": "OK",
      "vis_m": 9999,
      "fzfg": false,
      "metar_trigger": false,
      "taf_trigger": false,
      "metar": "METAR LPFR 170500Z 07012KT CAVOK 14/07 Q1012",
      "taf": "TAF LPFR 162300Z 1700/1724 07008KT CAVOK"
    },
    {
      "icao": "LPMA",
      "alert": "OK",
      "vis_m": 9999,
      "fzfg": false,
      "metar_trigger": false,
      "taf_trigger": false,
      "metar": "METAR LPMA 170500Z VRB02KT 9999 BKN014 14/11 Q1009",
      "taf": "TAF LPMA 162300Z 1700/1724 VRB05KT 9999 SCT015 BKN030"
    },
    {
      "icao": "LPPR",
      "alert": "OK",
      "vis_m": 9999,
      "fzfg": false,
      "metar_trigger": false,
      "taf_trigger": false,
      "metar": "METAR LPPR 170500Z 11010KT CAVOK 14/06 Q1013",
      "taf": "TAF LPPR 162300Z 1700/1724 09008KT CAVOK"
    },
    {
      "icao": "LPPS",
      "alert": "OK",
      "vis_m": 9999,
      "fzfg": false,
      "metar_trigger": false,
      "taf_trigger": false,
      "metar": "METAR LPPS 170500Z 23003KT 9999 SCT015 SCT030 15/11 Q1009",
      "taf": "TAF LPPS 162300Z 1700/1806 VRB05KT 9999 SCT015 BKN030"
    },
    {
      "icao": "LPPT",
      "alert": "OK",
      "vis_m": 9999,
      "fzfg": false,
      "metar_trigger": false,
      "taf_trigger": false,
      "metar": "METAR LPPT 170500Z 07005KT 030V140 CAVOK 10/08 Q1012",
      "taf": "TAF LPPT 162300Z 1700/1806 06010KT CAVOK"
    },
    {
      "icao": "LQBK",
      "alert": "OK",
      "vis_m": 9999,
      "fzfg": false,
      "metar_trigger": false,
      "taf_trigger": false,
      "metar": "METAR LQBK 170500Z 31006KT 9999 RA SCT010 BKN030 06/04 Q1019 NOSIG",
      "taf": "TAF LQBK 170500Z 1706/1806 30007KT 9999 RA SCT010 BKN025 TX07/1706Z TN03/1806Z"
    },
    {
      "icao": "LQSA",
      "alert": "OK",
      "vis_m": 9999,
      "fzfg": false,
      "metar_trigger": false,
      "taf_trigger": false,
      "metar": "METAR LQSA 170500Z 30007KT 260V320 CAVOK 06/M03 Q1017 NOSIG",
      "taf": "TAF LQSA 170500Z 1706/1806 30006KT 9999 BKN070 TX08/1711Z TNM00/1803Z"
    },
    {
      "icao": "LQTZ",
      "alert": "OK",
      "vis_m": 9999,
      "fzfg": false,
      "metar_trigger": false,
      "taf_trigger": false,
      "metar": "METAR LQTZ 170500Z VRB02KT CAVOK 00/M02 Q1018",
      "taf": "TAF LQTZ 170500Z 1706/1806 27005KT 9999 BKN030 TX08/1710Z TN02/1706Z"
    },
    {
      "icao": "LRBC",
      "alert": "OK",
      "vis_m": 8000,
      "fzfg": false,
      "metar_trigger": false,
      "taf_trigger": false,
      "metar": "METAR LRBC 170500Z 31003KT 8000 NSC M03/M05 Q1019",
      "taf": "TAF LRBC 170200Z 1703/1712 VRB04KT CAVOK"
    },
    {
      "icao": "LRBS",
      "alert": "OK",
      "vis_m": 6000,
      "fzfg": false,
      "metar_trigger": false,
      "taf_trigger": false,
      "metar": "METAR LRBS 170500Z 00000KT 6000 NSC 00/M03 Q1019 NOSIG",
      "taf": "TAF LRBS 162300Z 1700/1724 VRB04KT CAVOK"
    },
    {
      "icao": "LRBV",
      "alert": "OK",
      "vis_m": 9000,
      "fzfg": false,
      "metar_trigger": false,
      "taf_trigger": false,
      "metar": "METAR LRBV 170500Z 19003KT 9000 NSC M05/M07 Q1018",
      "taf": "TAF LRBV 170200Z 1703/1712 VRB04KT CAVOK"
    },
    {
      "icao": "LRCL",
      "alert": "OK",
      "vis_m": 9999,
      "fzfg": false,
      "metar_trigger": false,
      "taf_trigger": false,
      "metar": "METAR LRCL 170500Z 10002KT CAVOK M03/M06 Q1018",
      "taf": "TAF LRCL 170200Z 1703/1712 VRB04KT CAVOK"
    },
    {
      "icao": "LRCV",
      "alert": "OK",
      "vis_m": 9999,
      "fzfg": false,
      "metar_trigger": false,
      "taf_trigger": false,
      "metar": "METAR LRCV 170500Z 01004KT CAVOK 01/M01 Q1018",
      "taf": "TAF LRCV 170200Z 1703/1712 VRB04KT CAVOK"
    },
    {
      "icao": "LRIA",
      "alert": "OK",
      "vis_m": 9999,
      "fzfg": false,
      "metar_trigger": false,
      "taf_trigger": false,
      "metar": "METAR LRIA 170500Z 00000KT CAVOK 01/M03 Q1019",
      "taf": "TAF LRIA 170200Z 1703/1712 VRB04KT CAVOK"
    },
    {
      "icao": "LROP",
      "alert": "OK",
      "vis_m": 6000,
      "fzfg": false,
      "metar_trigger": false,
      "taf_trigger": false,
      "metar": "METAR LROP 170500Z 27002KT 6000 NSC 01/M02 Q1019 NOSIG",
      "taf": "TAF LROP 162300Z 1700/1724 VRB04KT CAVOK"
    },
    {
      "icao": "LRSB",
      "alert": "OK",
      "vis_m": 9999,
      "fzfg": false,
      "metar_trigger": false,
      "taf_trigger": false,
      "metar": "METAR LRSB 170500Z 10002KT CAVOK M01/M03 Q1017",
      "taf": "TAF LRSB 162300Z 1700/1724 VRB04KT CAVOK"
    },
    {
      "icao": "LRSM",
      "alert": "OK",
      "vis_m": 9999,
      "fzfg": false,
      "metar_trigger": false,
      "taf_trigger": false,
      "metar": "METAR LRSM 170500Z 09001KT CAVOK M00/M02 Q1017",
      "taf": "TAF LRSM 170200Z 1703/1712 VRB04KT CAVOK"
    },
    {
      "icao": "LRSV",
      "alert": "OK",
      "vis_m": 9999,
      "fzfg": false,
      "metar_trigger": false,
      "taf_trigger": false,
      "metar": "METAR LRSV 170500Z 23002KT CAVOK 00/M03 Q1017",
      "taf": "TAF LRSV 170200Z 1703/1712 20008KT CAVOK"
    },
    {
      "icao": "LRTM",
      "alert": "OK",
      "vis_m": 9000,
      "fzfg": false,
      "metar_trigger": false,
      "taf_trigger": false,
      "metar": "METAR LRTM 170500Z 09005KT 9000 FEW010 M03/M05 Q1018",
      "taf": "TAF LRTM 170200Z 1703/1712 VRB04KT CAVOK"
    },
    {
      "icao": "LRTR",
      "alert": "OK",
      "vis_m": 9999,
      "fzfg": false,
      "metar_trigger": false,
      "taf_trigger": false,
      "metar": "METAR LRTR 170500Z 09006KT 310V120 CAVOK 00/M00 Q1018 NOSIG",
      "taf": "TAF LRTR 162300Z 1700/1724 VRB04KT CAVOK"
    },
    {
      "icao": "LTAC",
      "alert": "OK",
      "vis_m": 9000,
      "fzfg": false,
      "metar_trigger": false,
      "taf_trigger": false,
      "metar": "METAR LTAC 170450Z VRB02KT 9000 NSC M02/M04 Q1015 NOSIG RMK RWY21C 00000KT RWY03L 30001KT RWY21R 00000KT RWY03R 00000KT RWY21L VRB01KT",
      "taf": "TAF LTAC 170440Z 1706/1806 VRB02KT CAVOK"
    },
    {
      "icao": "LTFM",
      "alert": "OK",
      "vis_m": 3000,
      "fzfg": false,
      "metar_trigger": false,
      "taf_trigger": false,
      "metar": "METAR LTFM 170450Z 33007KT 3000 BR BKN003 BKN016 06/05 Q1018 NOSIG RMK RWY17L 33006KT RWY34L 33006KT RWY16R 30003KT RWY36 33005KT RWY18 34007KT",
      "taf": "TAF LTFM 170440Z 1706/1812 35005KT 9999 SCT004 BKN018"
    },
    {
      "icao": "LUKK",
      "alert": "OK",
      "vis_m": 9999,
      "fzfg": false,
      "metar_trigger": false,
      "taf_trigger": false,
      "metar": "METAR LUKK 170500Z VRB01KT CAVOK M01/M02 Q1019 NOSIG",
      "taf": "TAF LUKK 162306Z 1700/1724 VRB05KT CAVOK"
    },
    {
      "icao": "LWOH",
      "alert": "OK",
      "vis_m": null,
      "fzfg": false,
      "metar_trigger": false,
      "taf_trigger": false,
      "metar": "",
      "taf": "TAF LWOH 170230Z 1703/1803 VRB02KT 9999 SCT040 BKN090"
    },
    {
      "icao": "LWSK",
      "alert": "OK",
      "vis_m": 9999,
      "fzfg": false,
      "metar_trigger": false,
      "taf_trigger": false,
      "metar": "METAR LWSK 170450Z 36004KT 290V020 9999 SCT023 04/02 Q1016 NOSIG",
      "taf": "TAF LWSK 170230Z 1703/1803 VRB02KT CAVOK"
    },
    {
      "icao": "LYBE",
      "alert": "OK",
      "vis_m": 9999,
      "fzfg": false,
      "metar_trigger": false,
      "taf_trigger": false,
      "metar": "METAR LYBE 170500Z 06005KT CAVOK 05/M00 Q1018 NOSIG",
      "taf": "TAF LYBE 162300Z 1700/1724 06005KT CAVOK TX13/1713Z TN03/1705Z"
    },
    {
      "icao": "LYNI",
      "alert": "OK",
      "vis_m": 9999,
      "fzfg": false,
      "metar_trigger": false,
      "taf_trigger": false,
      "metar": "METAR LYNI 170500Z 28003KT 9999 BKN080 03/00 Q1017 NOSIG",
      "taf": "TAF LYNI 162300Z 1700/1724 33004KT CAVOK TX13/1714Z TN01/1705Z"
    },
    {
      "icao": "LYPG",
      "alert": "OK",
      "vis_m": 9999,
      "fzfg": false,
      "metar_trigger": false,
      "taf_trigger": false,
      "metar": "METAR LYPG 170500Z 30004KT 9999 BKN090 11/06 Q1013 NOSIG",
      "taf": "TAF LYPG 162300Z 1700/1724 36005KT 9999 FEW040 BKN080 TX15/1713Z TN10/1705Z"
    },
    {
      "icao": "LZIB",
      "alert": "OK",
      "vis_m": 9999,
      "fzfg": false,
      "metar_trigger": false,
      "taf_trigger": false,
      "metar": "METAR LZIB 170500Z 30014KT 9999 SCT031 05/00 Q1021 NOSIG",
      "taf": "TAF LZIB 162315Z 1700/1800 32009KT CAVOK"
    },
    {
      "icao": "LZKZ",
      "alert": "OK",
      "vis_m": 9999,
      "fzfg": false,
      "metar_trigger": false,
      "taf_trigger": false,
      "metar": "METAR LZKZ 170500Z 36015KT CAVOK 06/02 Q1017 NOSIG",
      "taf": "TAF LZKZ 162315Z 1700/1800 02011KT CAVOK"
    },
    {
      "icao": "LZTT",
      "alert": "OK",
      "vis_m": 9999,
      "fzfg": false,
      "metar_trigger": false,
      "taf_trigger": false,
      "metar": "METAR LZTT 170500Z VRB01KT 9999 BKN010 BKN023 01/00 Q1017",
      "taf": "TAF LZTT 162315Z 1700/1800 10004KT 9999 FEW010 OVC020"
    },
    {
      "icao": "OEJN",
      "alert": "OK",
      "vis_m": 9999,
      "fzfg": false,
      "metar_trigger": false,
      "taf_trigger": false,
      "metar": "METAR OEJN 170500Z 02007KT 9999 SCT040 25/19 Q1009 NOSIG",
      "taf": "TAF OEJN 170500Z 1706/1812 30012KT 7000 FEW040"
    },
    {
      "icao": "OEMA",
      "alert": "OK",
      "vis_m": 9999,
      "fzfg": false,
      "metar_trigger": false,
      "taf_trigger": false,
      "metar": "METAR OEMA 170500Z 04019KT 9999 FEW045 22/04 Q1012 NOSIG",
      "taf": "TAF OEMA 170500Z 1706/1812 07010KT 9999 SCT040"
    },
    {
      "icao": "OJAI",
      "alert": "OK",
      "vis_m": 2500,
      "fzfg": false,
      "metar_trigger": false,
      "taf_trigger": false,
      "metar": "METAR OJAI 170500Z 02004KT 2500 MIFG NSC 06/06 Q1016 NOSIG",
      "taf": "TAF OJAI 170500Z 1706/1812 VRB02KT 3000 BR NSC"
    },
    {
      "icao": "OMAA",
      "alert": "OK",
      "vis_m": null,
      "fzfg": false,
      "metar_trigger": false,
      "taf_trigger": false,
      "metar": "",
      "taf": ""
    },
    {
      "icao": "OMDB",
      "alert": "OK",
      "vis_m": null,
      "fzfg": false,
      "metar_trigger": false,
      "taf_trigger": false,
      "metar": "",
      "taf": ""
    },
    {
      "icao": "UAAA",
      "alert": "OK",
      "vis_m": 9999,
      "fzfg": false,
      "metar_trigger": false,
      "taf_trigger": false,
      "metar": "METAR UAAA 170500Z 33003MPS 280V040 9999 SCT200 03/M01 Q1017 NOSIG",
      "taf": "TAF UAAA 162300Z 1700/1724 24002G07MPS 9999 SCT100 TX09/1709Z TNM01/1701Z"
    },
    {
      "icao": "UBBB",
      "alert": "OK",
      "vis_m": 9999,
      "fzfg": false,
      "metar_trigger": false,
      "taf_trigger": false,
      "metar": "METAR UBBB 170500Z 33012KT 9999 FEW055CB 09/05 Q1013 NOSIG",
      "taf": "TAF UBBB 170501Z 1706/1806 32016G26KT 9999 BKN040 TX11/1710Z TN05/1801Z"
    },
    {
      "icao": "UDSG",
      "alert": "OK",
      "vis_m": 9999,
      "fzfg": false,
      "metar_trigger": false,
      "taf_trigger": false,
      "metar": "METAR UDSG 170500Z 25001KT 9999 FEW046 01/00 Q1015 NOSIG",
      "taf": ""
    },
    {
      "icao": "UDYZ",
      "alert": "OK",
      "vis_m": 9999,
      "fzfg": false,
      "metar_trigger": false,
      "taf_trigger": false,
      "metar": "METAR UDYZ 170500Z 12004KT 9999 NSC 06/02 Q1013 NOSIG",
      "taf": "TAF UDYZ 162300Z 1700/1724 VRB06KT 9999 FEW040"
    },
    {
      "icao": "UGKO",
      "alert": "OK",
      "vis_m": 9999,
      "fzfg": false,
      "metar_trigger": false,
      "taf_trigger": false,
      "metar": "METAR UGKO 170500Z VRB02KT 9999 SCT016 OVC024 08/07 Q1018 NOSIG",
      "taf": "TAF UGKO 170500Z 1706/1806 25007KT 9999 SCT023 BKN050 TX12/1711Z TN03/1803Z"
    }
  ]
}