{
  "ts_utc": "2026-05-17T15:30:15Z",
  "threshold_m": 150,
  "source": "stations_override.txt (ICAO list) + aviationweather.gov (METAR/TAF raw)",
  "station_count": 159,
  "stations": [
    {
      "icao": "BIKF",
      "alert": "OK",
      "vis_m": 9999,
      "fzfg": false,
      "metar_trigger": false,
      "taf_trigger": false,
      "metar": "METAR BIKF 171500Z 14015KT 9999 FEW031 BKN049 09/01 Q1008",
      "taf": "TAF BIKF 171317Z 1715/1815 13013KT 9999 SCT050 TX11/1815Z TN02/1805Z"
    },
    {
      "icao": "BKPR",
      "alert": "OK",
      "vis_m": null,
      "fzfg": false,
      "metar_trigger": false,
      "taf_trigger": false,
      "metar": "",
      "taf": "TAF BKPR 171130Z 1712/1812 32008KT 9999 SCT030 BKN050"
    },
    {
      "icao": "EBCI",
      "alert": "OK",
      "vis_m": 9999,
      "fzfg": false,
      "metar_trigger": false,
      "taf_trigger": false,
      "metar": "METAR EBCI 171520Z 20009KT 150V220 9999 SCT025 BKN030 14/09 Q1012 TEMPO 3500 SHRA",
      "taf": "TAF EBCI 171100Z 1712/1818 20008KT 9999 FEW020TCU SCT030"
    },
    {
      "icao": "EDDB",
      "alert": "OK",
      "vis_m": 9999,
      "fzfg": false,
      "metar_trigger": false,
      "taf_trigger": false,
      "metar": "METAR EDDB 171520Z AUTO 16006KT 120V190 CAVOK 17/03 Q1014 NOSIG",
      "taf": ""
    },
    {
      "icao": "EDDH",
      "alert": "OK",
      "vis_m": 9999,
      "fzfg": false,
      "metar_trigger": false,
      "taf_trigger": false,
      "metar": "METAR EDDH 171520Z AUTO 21006KT 160V240 CAVOK 15/06 Q1013 NOSIG",
      "taf": "TAF EDDH 171100Z 1712/1818 20010KT 9999 SCT045"
    },
    {
      "icao": "EDDK",
      "alert": "OK",
      "vis_m": 9999,
      "fzfg": false,
      "metar_trigger": false,
      "taf_trigger": false,
      "metar": "METAR EDDK 171520Z AUTO 14005KT 110V170 9999 -RADZ SCT046 14/11 Q1013 NOSIG",
      "taf": "TAF EDDK 171100Z 1712/1818 16009KT 9999 BKN030"
    },
    {
      "icao": "EDDN",
      "alert": "OK",
      "vis_m": 9999,
      "fzfg": false,
      "metar_trigger": false,
      "taf_trigger": false,
      "metar": "METAR EDDN 171520Z AUTO VRB03KT CAVOK 16/03 Q1014 NOSIG",
      "taf": "TAF EDDN 171100Z 1712/1812 28005KT CAVOK"
    },
    {
      "icao": "EDDS",
      "alert": "OK",
      "vis_m": 9999,
      "fzfg": false,
      "metar_trigger": false,
      "taf_trigger": false,
      "metar": "METAR EDDS 171520Z AUTO 34004KT 310V020 CAVOK 15/03 Q1014 NOSIG",
      "taf": ""
    },
    {
      "icao": "EDFH",
      "alert": "OK",
      "vis_m": 9999,
      "fzfg": false,
      "metar_trigger": false,
      "taf_trigger": false,
      "metar": "METAR EDFH 171520Z 26006KT 9999 FEW038 BKN045 12/07 Q1013",
      "taf": "TAF EDFH 171100Z 1712/1812 23008KT 9999 SCT020 BKN030"
    },
    {
      "icao": "EDJA",
      "alert": "OK",
      "vis_m": 9999,
      "fzfg": false,
      "metar_trigger": false,
      "taf_trigger": false,
      "metar": "METAR EDJA 171520Z VRB02KT CAVOK 15/02 Q1014",
      "taf": "TAF EDJA 171400Z 1715/1724 25006KT 9999 FEW045"
    },
    {
      "icao": "EDLW",
      "alert": "OK",
      "vis_m": 9999,
      "fzfg": false,
      "metar_trigger": false,
      "taf_trigger": false,
      "metar": "METAR EDLW 171520Z 19008KT 9999 FEW036 15/08 Q1012",
      "taf": "TAF EDLW 171100Z 1712/1812 20010KT 9999 BKN040"
    },
    {
      "icao": "EDNY",
      "alert": "OK",
      "vis_m": 9999,
      "fzfg": false,
      "metar_trigger": false,
      "taf_trigger": false,
      "metar": "METAR EDNY 171520Z 19006KT 150V220 CAVOK 16/M02 Q1014",
      "taf": "TAF EDNY 171400Z 1715/1724 23005KT CAVOK"
    },
    {
      "icao": "EDSB",
      "alert": "OK",
      "vis_m": 9999,
      "fzfg": false,
      "metar_trigger": false,
      "taf_trigger": false,
      "metar": "METAR EDSB 171520Z VRB02KT CAVOK 19/03 Q1014",
      "taf": "TAF EDSB 171100Z 1712/1812 23005KT 9999 FEW045"
    },
    {
      "icao": "EETN",
      "alert": "OK",
      "vis_m": 9999,
      "fzfg": false,
      "metar_trigger": false,
      "taf_trigger": false,
      "metar": "METAR EETN 171520Z 33005KT 300V010 CAVOK 12/06 Q1017 NOSIG",
      "taf": "TAF EETN 171130Z 1712/1812 33010KT CAVOK"
    },
    {
      "icao": "EFTU",
      "alert": "OK",
      "vis_m": 9999,
      "fzfg": false,
      "metar_trigger": false,
      "taf_trigger": false,
      "metar": "METAR EFTU 171520Z AUTO 18009KT 160V230 9999 FEW018 10/06 Q1016",
      "taf": "TAF EFTU 171425Z 1715/1815 19010KT 9999 FEW025"
    },
    {
      "icao": "EGBB",
      "alert": "OK",
      "vis_m": 9999,
      "fzfg": false,
      "metar_trigger": false,
      "taf_trigger": false,
      "metar": "METAR EGBB 171520Z 22010KT 180V280 9999 SCT036CB 13/04 Q1009",
      "taf": ""
    },
    {
      "icao": "EGGP",
      "alert": "OK",
      "vis_m": 9999,
      "fzfg": false,
      "metar_trigger": false,
      "taf_trigger": false,
      "metar": "METAR EGGP 171520Z 26013KT 9999 FEW025 SCT042TCU 14/04 Q1008",
      "taf": "TAF EGGP 171102Z 1712/1812 26012KT 9999 SCT020"
    },
    {
      "icao": "EGGW",
      "alert": "OK",
      "vis_m": 9999,
      "fzfg": false,
      "metar_trigger": false,
      "taf_trigger": false,
      "metar": "METAR EGGW 171520Z AUTO 24013KT 9999 NCD 14/03 Q1009",
      "taf": "TAF EGGW 171104Z 1712/1812 27012KT 9999 SCT030"
    },
    {
      "icao": "EGKK",
      "alert": "OK",
      "vis_m": 9999,
      "fzfg": false,
      "metar_trigger": false,
      "taf_trigger": false,
      "metar": "METAR EGKK 171520Z 27011KT CAVOK 16/04 Q1010",
      "taf": "TAF EGKK 171055Z 1712/1818 24008KT 9999 SCT035"
    },
    {
      "icao": "EGNM",
      "alert": "OK",
      "vis_m": 9999,
      "fzfg": false,
      "metar_trigger": false,
      "taf_trigger": false,
      "metar": "METAR EGNM 171520Z 25014KT 9999 SCT046 13/02 Q1007",
      "taf": "TAF EGNM 171101Z 1712/1812 26012KT 9999 SCT035"
    },
    {
      "icao": "EGPD",
      "alert": "OK",
      "vis_m": 8000,
      "fzfg": false,
      "metar_trigger": false,
      "taf_trigger": false,
      "metar": "METAR EGPD 171520Z 25017KT 220V290 8000 -SHRA SCT032CB BKN042 09/04 Q1003 RESHRA",
      "taf": ""
    },
    {
      "icao": "EGPF",
      "alert": "OK",
      "vis_m": 9999,
      "fzfg": false,
      "metar_trigger": false,
      "taf_trigger": false,
      "metar": "METAR EGPF 171520Z AUTO 22012KT 190V270 9999 SCT034 13/06 Q1004",
      "taf": ""
    },
    {
      "icao": "EHBK",
      "alert": "OK",
      "vis_m": 9999,
      "fzfg": false,
      "metar_trigger": false,
      "taf_trigger": false,
      "metar": "METAR EHBK 171525Z AUTO 19011KT 150V230 9999 FEW029 SCT036 15/09 Q1012 NOSIG",
      "taf": "TAF EHBK 171119Z 1712/1818 21010KT 9999 BKN025"
    },
    {
      "icao": "EHEH",
      "alert": "OK",
      "vis_m": 9999,
      "fzfg": false,
      "metar_trigger": false,
      "taf_trigger": false,
      "metar": "METAR EHEH 171455Z AUTO 18010KT 140V220 9999 FEW035 BKN043 OVC047 16/09 Q1011 BLU BECMG SCT020 BKN025",
      "taf": "TAF EHEH 171129Z 1712/1818 21010KT 9999 SCT022 BKN030"
    },
    {
      "icao": "EKBI",
      "alert": "OK",
      "vis_m": 9999,
      "fzfg": false,
      "metar_trigger": false,
      "taf_trigger": false,
      "metar": "METAR EKBI 171520Z AUTO 18008KT 130V220 9999 BKN031/// OVC040/// 13/07 Q1012",
      "taf": "TAF EKBI 171427Z 1715/1815 16010KT 9999 BKN030"
    },
    {
      "icao": "EKCH",
      "alert": "OK",
      "vis_m": 9999,
      "fzfg": false,
      "metar_trigger": false,
      "taf_trigger": false,
      "metar": "METAR EKCH 171520Z AUTO 14012KT 9999 FEW055/// 13/05 Q1015 NOSIG",
      "taf": "TAF EKCH 171427Z 1715/1815 15014KT 9999 FEW035"
    },
    {
      "icao": "ENAL",
      "alert": "OK",
      "vis_m": 9999,
      "fzfg": false,
      "metar_trigger": false,
      "taf_trigger": false,
      "metar": "METAR ENAL 171520Z 27013KT 240V300 9999 SCT027 11/06 Q1007",
      "taf": "TAF ENAL 171400Z 1715/1724 25018KT 9999 FEW025TCU"
    },
    {
      "icao": "ENBR",
      "alert": "OK",
      "vis_m": 9999,
      "fzfg": false,
      "metar_trigger": false,
      "taf_trigger": false,
      "metar": "METAR ENBR 171520Z 21011KT 9999 FEW020TCU FEW033 11/03 Q1009 NOSIG RMK WIND 1200FT 18013KT",
      "taf": ""
    },
    {
      "icao": "ENGM",
      "alert": "OK",
      "vis_m": 9999,
      "fzfg": false,
      "metar_trigger": false,
      "taf_trigger": false,
      "metar": "METAR ENGM 171520Z 18016KT 9999 VCSH SCT034 11/05 Q1010 NOSIG",
      "taf": ""
    },
    {
      "icao": "ENHD",
      "alert": "OK",
      "vis_m": 9999,
      "fzfg": false,
      "metar_trigger": false,
      "taf_trigger": false,
      "metar": "METAR ENHD 171520Z 18013KT 150V210 9999 FEW045 13/04 Q1008",
      "taf": "TAF ENHD 171400Z 1715/1722 19015KT 9999 SCT040"
    },
    {
      "icao": "ENTC",
      "alert": "OK",
      "vis_m": 9999,
      "fzfg": false,
      "metar_trigger": false,
      "taf_trigger": false,
      "metar": "METAR ENTC 171520Z 03014KT 9999 FEW025 08/02 Q1009 NOSIG RMK WIND 2600FT 09009KT",
      "taf": "TAF ENTC 171100Z 1712/1812 02014KT 9999 SCT020"
    },
    {
      "icao": "ENTO",
      "alert": "OK",
      "vis_m": 9999,
      "fzfg": false,
      "metar_trigger": false,
      "taf_trigger": false,
      "metar": "METAR ENTO 171520Z 19015KT 9999 FEW023 12/05 Q1011 NOSIG",
      "taf": "TAF ENTO 171100Z 1712/1812 20012KT 9999 FEW020"
    },
    {
      "icao": "ENVA",
      "alert": "OK",
      "vis_m": 9999,
      "fzfg": false,
      "metar_trigger": false,
      "taf_trigger": false,
      "metar": "METAR ENVA 171520Z 24007KT CAVOK 15/04 Q1008 RMK WIND 670FT 29009KT",
      "taf": "TAF ENVA 171100Z 1712/1812 27010KT CAVOK"
    },
    {
      "icao": "ENZV",
      "alert": "OK",
      "vis_m": 9999,
      "fzfg": false,
      "metar_trigger": false,
      "taf_trigger": false,
      "metar": "METAR ENZV 171520Z 15015KT 9999 SCT048 13/01 Q1008 NOSIG",
      "taf": ""
    },
    {
      "icao": "EPGD",
      "alert": "OK",
      "vis_m": 9999,
      "fzfg": false,
      "metar_trigger": false,
      "taf_trigger": false,
      "metar": "METAR EPGD 171500Z 05009KT CAVOK 12/04 Q1017",
      "taf": "TAF EPGD 171130Z 1712/1812 04010KT 9999 SCT048"
    },
    {
      "icao": "EPKK",
      "alert": "OK",
      "vis_m": 9999,
      "fzfg": false,
      "metar_trigger": false,
      "taf_trigger": false,
      "metar": "METAR EPKK 171500Z 32007KT 290V360 9999 BKN007 OVC015 09/07 Q1015",
      "taf": "TAF EPKK 171430Z 1715/1815 28006KT 7000 SCT012 OVC020"
    },
    {
      "icao": "EPKT",
      "alert": "OK",
      "vis_m": 9999,
      "fzfg": false,
      "metar_trigger": false,
      "taf_trigger": false,
      "metar": "METAR EPKT 171500Z 30009KT 9999 -RA BKN006 BKN036 09/08 Q1015",
      "taf": ""
    },
    {
      "icao": "EPLB",
      "alert": "OK",
      "vis_m": 9999,
      "fzfg": false,
      "metar_trigger": false,
      "taf_trigger": false,
      "metar": "METAR EPLB 171500Z 34008KT 9999 SCT016 18/14 Q1010",
      "taf": "TAF EPLB 171130Z 1712/1812 35010KT 9999 OVC008"
    },
    {
      "icao": "EPMO",
      "alert": "OK",
      "vis_m": 9999,
      "fzfg": false,
      "metar_trigger": false,
      "taf_trigger": false,
      "metar": "METAR EPMO 171500Z 01011KT 9999 BKN027 12/06 Q1014",
      "taf": "TAF EPMO 171130Z 1712/1812 36010KT 9999 BKN025"
    },
    {
      "icao": "EPPO",
      "alert": "OK",
      "vis_m": 9999,
      "fzfg": false,
      "metar_trigger": false,
      "taf_trigger": false,
      "metar": "METAR EPPO 171500Z 29005KT CAVOK 17/02 Q1015",
      "taf": "TAF EPPO 171130Z 1712/1812 30006KT CAVOK"
    },
    {
      "icao": "EPRA",
      "alert": "OK",
      "vis_m": 9999,
      "fzfg": false,
      "metar_trigger": false,
      "taf_trigger": false,
      "metar": "METAR EPRA 171500Z 34009KT 9999 BKN010 12/09 Q1013",
      "taf": "TAF EPRA 171430Z 1715/1724 34008KT 9999 BKN010 OVC020"
    },
    {
      "icao": "EPRZ",
      "alert": "OK",
      "vis_m": 9999,
      "fzfg": false,
      "metar_trigger": false,
      "taf_trigger": false,
      "metar": "METAR EPRZ 171500Z 29010KT 9999 OVC005 13/12 Q1011",
      "taf": "TAF EPRZ 171130Z 1712/1812 32008KT 7000 OVC004"
    },
    {
      "icao": "EPSC",
      "alert": "OK",
      "vis_m": 9999,
      "fzfg": false,
      "metar_trigger": false,
      "taf_trigger": false,
      "metar": "METAR EPSC 171500Z 12003KT CAVOK 16/M00 Q1015",
      "taf": "TAF EPSC 171130Z 1712/1812 VRB03KT CAVOK"
    },
    {
      "icao": "EPSY",
      "alert": "OK",
      "vis_m": 9999,
      "fzfg": false,
      "metar_trigger": false,
      "taf_trigger": false,
      "metar": "METAR EPSY 171500Z 03010KT 9999 BKN042 13/04 Q1015",
      "taf": "TAF EPSY 171430Z 1715/1724 02013KT 9999 BKN040"
    },
    {
      "icao": "EPWA",
      "alert": "OK",
      "vis_m": 9999,
      "fzfg": false,
      "metar_trigger": false,
      "taf_trigger": false,
      "metar": "METAR EPWA 171500Z 01010KT 9999 BKN024 13/06 Q1014 NOSIG",
      "taf": "TAF EPWA 171430Z 1715/1815 36012KT 9999 BKN025"
    },
    {
      "icao": "EPWR",
      "alert": "OK",
      "vis_m": 9999,
      "fzfg": false,
      "metar_trigger": false,
      "taf_trigger": false,
      "metar": "METAR EPWR 171500Z 13010KT 9999 -RA NSC 13/06 Q1016",
      "taf": "TAF EPWR 171430Z 1715/1815 14010KT 9999 FEW040"
    },
    {
      "icao": "ESGG",
      "alert": "OK",
      "vis_m": 9999,
      "fzfg": false,
      "metar_trigger": false,
      "taf_trigger": false,
      "metar": "METAR ESGG 171520Z 22011KT 9999 FEW039 12/03 Q1014",
      "taf": "TAF ESGG 171430Z 1715/1815 22012KT 9999 SCT035"
    },
    {
      "icao": "ESKN",
      "alert": "OK",
      "vis_m": 9999,
      "fzfg": false,
      "metar_trigger": false,
      "taf_trigger": false,
      "metar": "METAR ESKN 171520Z 21009KT 9999 FEW047 BKN066 13/07 Q1014",
      "taf": "TAF ESKN 171430Z 1715/1815 22010KT 9999 SCT045"
    },
    {
      "icao": "ESMS",
      "alert": "OK",
      "vis_m": 9999,
      "fzfg": false,
      "metar_trigger": false,
      "taf_trigger": false,
      "metar": "METAR ESMS 171520Z 12009KT 100V170 CAVOK 14/03 Q1015",
      "taf": "TAF ESMS 171427Z 1715/1815 14010KT 9999 FEW035"
    },
    {
      "icao": "ESSA",
      "alert": "OK",
      "vis_m": 9999,
      "fzfg": false,
      "metar_trigger": false,
      "taf_trigger": false,
      "metar": "METAR ESSA 171520Z 23011KT CAVOK 14/03 Q1013 NOSIG",
      "taf": "TAF ESSA 171430Z 1715/1815 24014KT CAVOK"
    },
    {
      "icao": "EYKA",
      "alert": "OK",
      "vis_m": 9999,
      "fzfg": false,
      "metar_trigger": false,
      "taf_trigger": false,
      "metar": "METAR EYKA 171520Z 34009KT 9999 SCT038 16/10 Q1014",
      "taf": "TAF EYKA 171100Z 1712/1812 36010KT 9000 BKN025"
    },
    {
      "icao": "EYPA",
      "alert": "OK",
      "vis_m": 9999,
      "fzfg": false,
      "metar_trigger": false,
      "taf_trigger": false,
      "metar": "METAR EYPA 171520Z 33004KT 270V040 CAVOK 13/04 Q1017",
      "taf": "TAF EYPA 171100Z 1712/1812 VRB03KT 9000 NSC"
    },
    {
      "icao": "EYVI",
      "alert": "OK",
      "vis_m": 9999,
      "fzfg": false,
      "metar_trigger": false,
      "taf_trigger": false,
      "metar": "METAR EYVI 171520Z 33013KT 9999 FEW079CB 18/13 Q1012 NOSIG",
      "taf": "TAF EYVI 171100Z 1712/1812 36008KT 9000 BKN030"
    },
    {
      "icao": "GCFV",
      "alert": "OK",
      "vis_m": 9999,
      "fzfg": false,
      "metar_trigger": false,
      "taf_trigger": false,
      "metar": "METAR GCFV 171500Z 03018KT 9999 FEW035 SCT045 22/11 Q1020",
      "taf": "TAF GCFV 171400Z 1715/1815 02016KT 9999 FEW035 BKN045 TX23/1814Z TN18/1806Z"
    },
    {
      "icao": "GCLP",
      "alert": "OK",
      "vis_m": 9999,
      "fzfg": false,
      "metar_trigger": false,
      "taf_trigger": false,
      "metar": "METAR GCLP 171500Z 02028KT 9999 FEW040 22/11 Q1021 NOSIG",
      "taf": "TAF GCLP 171400Z 1715/1815 01025KT 9999 SCT035 TX22/1814Z TN17/1806Z"
    },
    {
      "icao": "GCTS",
      "alert": "OK",
      "vis_m": 9999,
      "fzfg": false,
      "metar_trigger": false,
      "taf_trigger": false,
      "metar": "METAR GCTS 171500Z 09024G35KT 060V120 9999 SCT040 23/11 Q1021 NOSIG",
      "taf": "TAF GCTS 171400Z 1715/1815 08020KT 9999 FEW040 TX24/1814Z TN17/1806Z"
    },
    {
      "icao": "GMAD",
      "alert": "OK",
      "vis_m": 9999,
      "fzfg": false,
      "metar_trigger": false,
      "taf_trigger": false,
      "metar": "METAR GMAD 171500Z 23013KT 190V260 9999 FEW030 25/12 Q1014 NOSIG",
      "taf": "TAF GMAD 171100Z 1712/1818 27010KT CAVOK"
    },
    {
      "icao": "GMMN",
      "alert": "OK",
      "vis_m": 9999,
      "fzfg": false,
      "metar_trigger": false,
      "taf_trigger": false,
      "metar": "METAR GMMN 171500Z 35014KT 320V020 9999 BKN026 21/14 Q1018 NOSIG",
      "taf": "TAF GMMN 171100Z 1712/1818 34011KT 9999 SCT020 SCT040"
    },
    {
      "icao": "GMMX",
      "alert": "OK",
      "vis_m": 9999,
      "fzfg": false,
      "metar_trigger": false,
      "taf_trigger": false,
      "metar": "METAR GMMX 171500Z VRB02KT 9999 SCT020 BKN080 24/12 Q1017 NOSIG",
      "taf": "TAF GMMX 171100Z 1712/1818 06006KT 8000 SCT026 SCT080"
    },
    {
      "icao": "HEGN",
      "alert": "OK",
      "vis_m": 9999,
      "fzfg": false,
      "metar_trigger": false,
      "taf_trigger": false,
      "metar": "METAR HEGN 171500Z 14005KT CAVOK 32/12 Q1008 NOSIG",
      "taf": "TAF HEGN 171100Z 1712/1818 03014KT CAVOK"
    },
    {
      "icao": "HEMA",
      "alert": "OK",
      "vis_m": 9999,
      "fzfg": false,
      "metar_trigger": false,
      "taf_trigger": false,
      "metar": "METAR HEMA 171500Z 01006KT CAVOK 33/07 Q1009 NOSIG",
      "taf": "TAF HEMA 171100Z 1712/1818 01012G22KT CAVOK"
    },
    {
      "icao": "HESH",
      "alert": "OK",
      "vis_m": 9999,
      "fzfg": false,
      "metar_trigger": false,
      "taf_trigger": false,
      "metar": "METAR HESH 171500Z 17006KT CAVOK 37/13 Q1008 NOSIG",
      "taf": "TAF HESH 171100Z 1712/1818 02014KT CAVOK"
    },
    {
      "icao": "HESX",
      "alert": "OK",
      "vis_m": 9999,
      "fzfg": false,
      "metar_trigger": false,
      "taf_trigger": false,
      "metar": "METAR HESX 171500Z 20012KT CAVOK 39/07 Q1006 NOSIG",
      "taf": ""
    },
    {
      "icao": "LATI",
      "alert": "OK",
      "vis_m": 9999,
      "fzfg": false,
      "metar_trigger": false,
      "taf_trigger": false,
      "metar": "METAR LATI 171520Z 28006KT 230V320 9999 FEW041 SCT060 19/10 Q1012 NOSIG",
      "taf": "TAF LATI 171100Z 1712/1812 28010KT 9999 FEW040 TX27/1812Z TN10/1804Z"
    },
    {
      "icao": "LBPD",
      "alert": "OK",
      "vis_m": 9999,
      "fzfg": false,
      "metar_trigger": false,
      "taf_trigger": false,
      "metar": "METAR LBPD 171500Z AUTO 28017KT 9999 FEW100/// BKN140/// 17/08 Q1006 TEMPO 29020G30KT",
      "taf": "TAF LBPD 171100Z 1712/1812 29020KT 9999 SCT050"
    },
    {
      "icao": "LBSF",
      "alert": "OK",
      "vis_m": 9999,
      "fzfg": false,
      "metar_trigger": false,
      "taf_trigger": false,
      "metar": "METAR LBSF 171500Z AUTO 30014G24KT 9999 FEW025/// OVC046/// 11/07 Q1009 NOSIG",
      "taf": "TAF LBSF 171100Z 1712/1812 29012KT 9999 SCT015 BKN025 OVC040"
    },
    {
      "icao": "LBWN",
      "alert": "OK",
      "vis_m": 9999,
      "fzfg": false,
      "metar_trigger": false,
      "taf_trigger": false,
      "metar": "METAR LBWN 171500Z AUTO 30013KT 9999 FEW037/// 18/11 Q1004 NOSIG",
      "taf": "TAF LBWN 171100Z 1712/1812 33013KT 9999 SCT020 BKN045"
    },
    {
      "icao": "LCLK",
      "alert": "OK",
      "vis_m": 9999,
      "fzfg": false,
      "metar_trigger": false,
      "taf_trigger": false,
      "metar": "METAR LCLK 171500Z 16015KT 9999 FEW025 25/13 Q1005 NOSIG",
      "taf": "TAF LCLK 171130Z 1712/1812 20020KT 9999 FEW015"
    },
    {
      "icao": "LCPH",
      "alert": "OK",
      "vis_m": 9999,
      "fzfg": false,
      "metar_trigger": false,
      "taf_trigger": false,
      "metar": "METAR LCPH 171500Z 15008KT CAVOK 23/14 Q1006 NOSIG",
      "taf": "TAF LCPH 171130Z 1712/1812 13015KT 9999 FEW012"
    },
    {
      "icao": "LEAL",
      "alert": "OK",
      "vis_m": 9999,
      "fzfg": false,
      "metar_trigger": false,
      "taf_trigger": false,
      "metar": "METAR LEAL 171500Z 18010KT 120V230 9999 FEW035 22/13 Q1016 TEMPO 4000 TSRA FEW030CB",
      "taf": ""
    },
    {
      "icao": "LEBB",
      "alert": "OK",
      "vis_m": 9999,
      "fzfg": false,
      "metar_trigger": false,
      "taf_trigger": false,
      "metar": "METAR LEBB 171500Z 31008KT 9999 SCT025 BKN048 16/10 Q1018 NOSIG",
      "taf": "TAF LEBB 171100Z 1712/1812 31009KT 9999 SCT040 TX17/1712Z TN10/1805Z"
    },
    {
      "icao": "LEBL",
      "alert": "OK",
      "vis_m": 9999,
      "fzfg": false,
      "metar_trigger": false,
      "taf_trigger": false,
      "metar": "METAR LEBL 171500Z 21010KT 180V240 9999 FEW030 19/12 Q1015 NOSIG",
      "taf": "TAF LEBL 171100Z 1712/1812 12007KT 9999 FEW020 TX21/1712Z TN15/1806Z"
    },
    {
      "icao": "LECH",
      "alert": "OK",
      "vis_m": 9000,
      "fzfg": false,
      "metar_trigger": false,
      "taf_trigger": false,
      "metar": "METAR LECH 171500Z AUTO 13006KT 080V210 9000 NSC 18/11 Q1016",
      "taf": ""
    },
    {
      "icao": "LEMD",
      "alert": "OK",
      "vis_m": 9999,
      "fzfg": false,
      "metar_trigger": false,
      "taf_trigger": false,
      "metar": "METAR LEMD 171500Z 36012KT 330V040 9999 FEW080 19/06 Q1014 NOSIG",
      "taf": ""
    },
    {
      "icao": "LEMG",
      "alert": "OK",
      "vis_m": 9999,
      "fzfg": false,
      "metar_trigger": false,
      "taf_trigger": false,
      "metar": "METAR LEMG 171500Z 12012KT 090V150 9999 FEW075 19/14 Q1015 NOSIG",
      "taf": "TAF LEMG 171100Z 1712/1812 13011KT 9999 FEW050 TX22/1714Z TN12/1806Z"
    },
    {
      "icao": "LEVC",
      "alert": "OK",
      "vis_m": 9999,
      "fzfg": false,
      "metar_trigger": false,
      "taf_trigger": false,
      "metar": "SPECI LEVC 171508Z 11009KT 9999 SCT040TCU 22/11 Q1015 TEMPO 4000 TSRA FEW040CB",
      "taf": ""
    },
    {
      "icao": "LEXJ",
      "alert": "OK",
      "vis_m": 9999,
      "fzfg": false,
      "metar_trigger": false,
      "taf_trigger": false,
      "metar": "METAR LEXJ 171500Z 32006KT 290V010 9999 SCT024 BKN040 15/09 Q1018",
      "taf": "TAF LEXJ 171400Z 1715/1815 23005KT 9999 FEW020 SCT040 TX18/1813Z TN10/1805Z"
    },
    {
      "icao": "LEZG",
      "alert": "OK",
      "vis_m": 9999,
      "fzfg": false,
      "metar_trigger": false,
      "taf_trigger": false,
      "metar": "METAR LEZG 171500Z 09003KT CAVOK 22/05 Q1014 NOSIG",
      "taf": "TAF LEZG 171100Z 1712/1812 28010KT 9999 FEW060 TX25/1715Z TN10/1805Z"
    },
    {
      "icao": "LEZL",
      "alert": "OK",
      "vis_m": 9999,
      "fzfg": false,
      "metar_trigger": false,
      "taf_trigger": false,
      "metar": "METAR LEZL 171500Z 25010KT 180V290 CAVOK 26/04 Q1015 NOSIG",
      "taf": "TAF LEZL 171400Z 1715/1815 24012KT CAVOK TX28/1815Z TN13/1806Z"
    },
    {
      "icao": "LFBD",
      "alert": "OK",
      "vis_m": 9999,
      "fzfg": false,
      "metar_trigger": false,
      "taf_trigger": false,
      "metar": "METAR LFBD 171500Z AUTO 31013KT 9999 BKN045 BKN052 18/07 Q1016 NOSIG",
      "taf": "TAF LFBD 171100Z 1712/1818 30010KT 9999 BKN030 TX18/1713Z TN09/1806Z"
    },
    {
      "icao": "LFLL",
      "alert": "OK",
      "vis_m": 9999,
      "fzfg": false,
      "metar_trigger": false,
      "taf_trigger": false,
      "metar": "METAR LFLL 171500Z VRB03KT CAVOK 19/05 Q1014 NOSIG",
      "taf": "TAF LFLL 171100Z 1712/1818 VRB05KT CAVOK"
    },
    {
      "icao": "LFLS",
      "alert": "OK",
      "vis_m": 9999,
      "fzfg": false,
      "metar_trigger": false,
      "taf_trigger": false,
      "metar": "METAR LFLS 171500Z AUTO 35004KT 270V050 CAVOK 18/05 Q1014 NOSIG",
      "taf": "TAF LFLS 171400Z 1715/1815 09007KT 9999 FEW060 SCT120"
    },
    {
      "icao": "LFMN",
      "alert": "OK",
      "vis_m": 9999,
      "fzfg": false,
      "metar_trigger": false,
      "taf_trigger": false,
      "metar": "METAR LFMN 171500Z 13004KT CAVOK 19/10 Q1014 NOSIG",
      "taf": "TAF LFMN 171400Z 1715/1821 10005KT CAVOK"
    },
    {
      "icao": "LFOB",
      "alert": "OK",
      "vis_m": 9999,
      "fzfg": false,
      "metar_trigger": false,
      "taf_trigger": false,
      "metar": "METAR LFOB 171500Z AUTO VRB03KT 9999 -RA FEW009/// SCT036/// BKN045/// ///CB 12/11 Q1012 TEMPO 2000 -TSRA BKN014 BKN020CB",
      "taf": "TAF LFOB 171100Z 1712/1812 22007KT 9999 BKN018 BKN030"
    },
    {
      "icao": "LFPO",
      "alert": "OK",
      "vis_m": 6000,
      "fzfg": false,
      "metar_trigger": false,
      "taf_trigger": false,
      "metar": "METAR LFPO 171500Z AUTO 26004KT 6000 RA ///CB 12/11 Q1012 TEMPO 2000 TSRA",
      "taf": ""
    },
    {
      "icao": "LFSB",
      "alert": "OK",
      "vis_m": 9999,
      "fzfg": false,
      "metar_trigger": false,
      "taf_trigger": false,
      "metar": "METAR LFSB 171500Z AUTO 24003KT 190V300 CAVOK 17/05 Q1014 NOSIG",
      "taf": "TAF LFSB 171104Z 1712/1812 26005KT 9999 FEW050 BKN150"
    },
    {
      "icao": "LGAV",
      "alert": "OK",
      "vis_m": 9999,
      "fzfg": false,
      "metar_trigger": false,
      "taf_trigger": false,
      "metar": "METAR LGAV 171520Z 29009KT 9999 FEW025 25/04 Q1006 NOSIG",
      "taf": "TAF LGAV 171100Z 1712/1812 06010KT 9999 FEW030"
    },
    {
      "icao": "LGTS",
      "alert": "OK",
      "vis_m": 9999,
      "fzfg": false,
      "metar_trigger": false,
      "taf_trigger": false,
      "metar": "METAR LGTS 171520Z 28006KT 9999 SCT025 24/11 Q1005 NOSIG",
      "taf": "TAF LGTS 171100Z 1712/1812 33015KT 9999 FEW030"
    },
    {
      "icao": "LHBP",
      "alert": "OK",
      "vis_m": 9999,
      "fzfg": false,
      "metar_trigger": false,
      "taf_trigger": false,
      "metar": "METAR LHBP 171500Z 31014KT 9999 FEW013 BKN053 BKN075 13/09 Q1010 NOSIG",
      "taf": "TAF LHBP 171115Z 1712/1812 32013KT 9999 FEW012 BKN045"
    },
    {
      "icao": "LHDC",
      "alert": "OK",
      "vis_m": 9999,
      "fzfg": false,
      "metar_trigger": false,
      "taf_trigger": false,
      "metar": "METAR LHDC 171445Z AUTO 03011KT 320V050 CAVOK 23/12 Q1006 NOSIG",
      "taf": "TAF LHDC 171415Z 1715/1724 01011KT CAVOK"
    },
    {
      "icao": "LIBD",
      "alert": "OK",
      "vis_m": 9999,
      "fzfg": false,
      "metar_trigger": false,
      "taf_trigger": false,
      "metar": "METAR LIBD 171520Z 35011KT 320V020 CAVOK 19/08 Q1013",
      "taf": "TAF LIBD 171100Z 1712/1812 34013KT 9999 SCT040"
    },
    {
      "icao": "LIBG",
      "alert": "OK",
      "vis_m": 9999,
      "fzfg": false,
      "metar_trigger": false,
      "taf_trigger": false,
      "metar": "METAR LIBG 171450Z 35011KT 310V020 CAVOK 21/08 Q1012",
      "taf": "TAF LIBG 171400Z 1715/1724 33012KT 9999 FEW040"
    },
    {
      "icao": "LIBP",
      "alert": "OK",
      "vis_m": 9999,
      "fzfg": false,
      "metar_trigger": false,
      "taf_trigger": false,
      "metar": "METAR LIBP 171520Z AUTO 09007KT 9999 NCD 21/03 Q1013",
      "taf": "TAF LIBP 171100Z 1712/1812 07010KT CAVOK"
    },
    {
      "icao": "LIBR",
      "alert": "OK",
      "vis_m": 9999,
      "fzfg": false,
      "metar_trigger": false,
      "taf_trigger": false,
      "metar": "METAR LIBR 171520Z 35016KT CAVOK 19/09 Q1012",
      "taf": "TAF LIBR 171100Z 1712/1812 33016KT 9999 FEW030"
    },
    {
      "icao": "LICA",
      "alert": "OK",
      "vis_m": 9999,
      "fzfg": false,
      "metar_trigger": false,
      "taf_trigger": false,
      "metar": "METAR LICA 171520Z AUTO 26014KT 9999 NCD 20/11 Q1014",
      "taf": "TAF LICA 171100Z 1712/1812 27015KT 9999 SCT040"
    },
    {
      "icao": "LICC",
      "alert": "OK",
      "vis_m": 9999,
      "fzfg": false,
      "metar_trigger": false,
      "taf_trigger": false,
      "metar": "METAR LICC 171520Z 09011KT 9999 SCT080 20/11 Q1013",
      "taf": "TAF LICC 171100Z 1712/1812 08013KT 9999 SCT040"
    },
    {
      "icao": "LICJ",
      "alert": "OK",
      "vis_m": 9999,
      "fzfg": false,
      "metar_trigger": false,
      "taf_trigger": false,
      "metar": "METAR LICJ 171520Z 34005KT 9999 FEW030 19/12 Q1015",
      "taf": "TAF LICJ 171100Z 1712/1812 33014KT 9999 FEW040"
    },
    {
      "icao": "LIMC",
      "alert": "OK",
      "vis_m": 9999,
      "fzfg": false,
      "metar_trigger": false,
      "taf_trigger": false,
      "metar": "METAR LIMC 171520Z 21006KT 160V240 CAVOK 21/01 Q1012 NOSIG",
      "taf": "TAF LIMC 171100Z 1712/1818 VRB05KT CAVOK"
    },
    {
      "icao": "LIME",
      "alert": "OK",
      "vis_m": 9999,
      "fzfg": false,
      "metar_trigger": false,
      "taf_trigger": false,
      "metar": "METAR LIME 171520Z 20007KT 160V250 9999 FEW050 21/02 Q1012 NOSIG",
      "taf": "TAF LIME 171100Z 1712/1812 VRB05KT 9999 FEW090"
    },
    {
      "icao": "LIMF",
      "alert": "OK",
      "vis_m": 9999,
      "fzfg": false,
      "metar_trigger": false,
      "taf_trigger": false,
      "metar": "METAR LIMF 171520Z 05006KT 360V080 CAVOK 20/02 Q1012",
      "taf": "TAF LIMF 171100Z 1712/1812 VRB05KT CAVOK"
    },
    {
      "icao": "LIMJ",
      "alert": "OK",
      "vis_m": 9999,
      "fzfg": false,
      "metar_trigger": false,
      "taf_trigger": false,
      "metar": "METAR LIMJ 171520Z 21005KT 9999 FEW022 18/13 Q1014",
      "taf": "TAF LIMJ 171100Z 1712/1812 19010KT 9999 FEW020"
    },
    {
      "icao": "LIPE",
      "alert": "OK",
      "vis_m": 9999,
      "fzfg": false,
      "metar_trigger": false,
      "taf_trigger": false,
      "metar": "METAR LIPE 171520Z VRB01KT CAVOK 22/06 Q1012",
      "taf": "TAF LIPE 171100Z 1712/1812 VRB05KT 9999 FEW050"
    },
    {
      "icao": "LIPH",
      "alert": "OK",
      "vis_m": 9999,
      "fzfg": false,
      "metar_trigger": false,
      "taf_trigger": false,
      "metar": "METAR LIPH 171520Z 17007KT 140V200 9999 FEW030 20/08 Q1012",
      "taf": "TAF LIPH 171100Z 1712/1812 13007KT 9999 SCT040"
    },
    {
      "icao": "LIPQ",
      "alert": "OK",
      "vis_m": 9999,
      "fzfg": false,
      "metar_trigger": false,
      "taf_trigger": false,
      "metar": "METAR LIPQ 171520Z AUTO 23008KT 190V250 9999 NCD 20/06 Q1013",
      "taf": "TAF LIPQ 171100Z 1712/1812 20010KT 9999 FEW050"
    },
    {
      "icao": "LIPR",
      "alert": "OK",
      "vis_m": 9999,
      "fzfg": false,
      "metar_trigger": false,
      "taf_trigger": false,
      "metar": "METAR LIPR 171520Z AUTO 10009KT 9999 FEW100/// 19/10 Q1013",
      "taf": "TAF LIPR 171100Z 1712/1812 09010KT 9999 FEW040"
    },
    {
      "icao": "LIPX",
      "alert": "OK",
      "vis_m": 9999,
      "fzfg": false,
      "metar_trigger": false,
      "taf_trigger": false,
      "metar": "METAR LIPX 171520Z VRB05KT 9999 FEW080 22/03 Q1012",
      "taf": "TAF LIPX 171100Z 1712/1812 VRB05KT CAVOK"
    },
    {
      "icao": "LIPY",
      "alert": "OK",
      "vis_m": 9999,
      "fzfg": false,
      "metar_trigger": false,
      "taf_trigger": false,
      "metar": "METAR LIPY 171520Z AUTO 12005KT 070V170 9999 FEW110/// 21/08 Q1013",
      "taf": "TAF LIPY 171100Z 1712/1812 07010KT CAVOK"
    },
    {
      "icao": "LIPZ",
      "alert": "OK",
      "vis_m": 9999,
      "fzfg": false,
      "metar_trigger": false,
      "taf_trigger": false,
      "metar": "METAR LIPZ 171520Z 16006KT CAVOK 19/11 Q1013 NOSIG",
      "taf": "TAF LIPZ 171100Z 1712/1818 14010KT CAVOK"
    },
    {
      "icao": "LIRF",
      "alert": "OK",
      "vis_m": 9999,
      "fzfg": false,
      "metar_trigger": false,
      "taf_trigger": false,
      "metar": "METAR LIRF 171520Z 27007KT CAVOK 19/10 Q1014 NOSIG",
      "taf": "TAF LIRF 171100Z 1712/1818 26012KT CAVOK"
    },
    {
      "icao": "LIRN",
      "alert": "OK",
      "vis_m": 9999,
      "fzfg": false,
      "metar_trigger": false,
      "taf_trigger": false,
      "metar": "METAR LIRN 171520Z 26007KT 200V320 9999 SCT040 20/09 Q1014 NOSIG",
      "taf": "TAF LIRN 171100Z 1712/1812 22012KT CAVOK"
    },
    {
      "icao": "LIRP",
      "alert": "OK",
      "vis_m": 9999,
      "fzfg": false,
      "metar_trigger": false,
      "taf_trigger": false,
      "metar": "METAR LIRP 171515Z 28011KT CAVOK 19/08 Q1014 NOSIG",
      "taf": "TAF LIRP 171100Z 1712/1812 VRB03KT 9999 FEW030"
    },
    {
      "icao": "LIRZ",
      "alert": "OK",
      "vis_m": 9999,
      "fzfg": false,
      "metar_trigger": false,
      "taf_trigger": false,
      "metar": "METAR LIRZ 171520Z AUTO 24005KT 200V310 9999 NCD 22/04 Q1012",
      "taf": "TAF LIRZ 171100Z 1712/1812 VRB05KT 9999 SCT040"
    },
    {
      "icao": "LJLJ",
      "alert": "OK",
      "vis_m": 9999,
      "fzfg": false,
      "metar_trigger": false,
      "taf_trigger": false,
      "metar": "METAR LJLJ 171500Z 29007KT 250V320 9999 FEW075 BKN100 19/02 Q1012 NOSIG",
      "taf": "TAF LJLJ 171100Z 1712/1812 VRB02KT 9999 FEW065"
    },
    {
      "icao": "LKMT",
      "alert": "OK",
      "vis_m": 9000,
      "fzfg": false,
      "metar_trigger": false,
      "taf_trigger": false,
      "metar": "METAR LKMT 171500Z 34006KT 9000 -RA SCT021 BKN032 OVC044 08/07 Q1016 NOSIG",
      "taf": "TAF LKMT 171100Z 1712/1812 36008KT 9999 -RA OVC035"
    },
    {
      "icao": "LKPR",
      "alert": "OK",
      "vis_m": 9999,
      "fzfg": false,
      "metar_trigger": false,
      "taf_trigger": false,
      "metar": "METAR LKPR 171500Z 31007KT 270V360 CAVOK 16/01 Q1015 NOSIG",
      "taf": "TAF LKPR 171400Z 1715/1821 27005KT CAVOK"
    },
    {
      "icao": "LLBG",
      "alert": "OK",
      "vis_m": 9999,
      "fzfg": false,
      "metar_trigger": false,
      "taf_trigger": false,
      "metar": "METAR LLBG 171520Z 22006KT 190V250 CAVOK 35/08 Q1006 NOSIG",
      "taf": "TAF LLBG 171100Z 1712/1812 31010KT CAVOK TX36/1712Z TN22/1803Z"
    },
    {
      "icao": "LMML",
      "alert": "OK",
      "vis_m": 9999,
      "fzfg": false,
      "metar_trigger": false,
      "taf_trigger": false,
      "metar": "METAR LMML 171515Z 28010KT 240V310 9999 FEW025 20/10 Q1014 NOSIG",
      "taf": "TAF LMML 171100Z 1712/1812 34008KT 9999 FEW018"
    },
    {
      "icao": "LOWW",
      "alert": "OK",
      "vis_m": 9999,
      "fzfg": false,
      "metar_trigger": false,
      "taf_trigger": false,
      "metar": "METAR LOWW 171520Z 33010KT CAVOK 15/04 Q1014 NOSIG",
      "taf": "TAF LOWW 171415Z 1715/1821 32013KT 9999 FEW030 BKN050 TX19/1814Z TN06/1803Z"
    },
    {
      "icao": "LPFR",
      "alert": "OK",
      "vis_m": 9999,
      "fzfg": false,
      "metar_trigger": false,
      "taf_trigger": false,
      "metar": "METAR LPFR 171500Z 24014KT 9999 FEW040 20/13 Q1016",
      "taf": "TAF LPFR 171100Z 1712/1812 32010KT CAVOK"
    },
    {
      "icao": "LPMA",
      "alert": "OK",
      "vis_m": 9999,
      "fzfg": false,
      "metar_trigger": false,
      "taf_trigger": false,
      "metar": "METAR LPMA 171500Z 02010G20KT 310V060 9999 FEW016 19/11 Q1024",
      "taf": "TAF LPMA 171100Z 1712/1812 01010KT 9999 SCT015"
    },
    {
      "icao": "LPPR",
      "alert": "OK",
      "vis_m": 9999,
      "fzfg": false,
      "metar_trigger": false,
      "taf_trigger": false,
      "metar": "METAR LPPR 171500Z 32013KT 290V350 9999 FEW020 17/08 Q1018",
      "taf": "TAF LPPR 171100Z 1712/1812 30008KT 9999 SCT025"
    },
    {
      "icao": "LPPS",
      "alert": "OK",
      "vis_m": 9999,
      "fzfg": false,
      "metar_trigger": false,
      "taf_trigger": false,
      "metar": "METAR LPPS 171500Z 36010KT 320V040 9999 FEW015 SCT030 18/11 Q1025",
      "taf": "TAF LPPS 171100Z 1712/1818 01013KT 9999 FEW015 BKN030"
    },
    {
      "icao": "LPPT",
      "alert": "OK",
      "vis_m": 9999,
      "fzfg": false,
      "metar_trigger": false,
      "taf_trigger": false,
      "metar": "METAR LPPT 171500Z 30010KT 280V340 9999 FEW035 20/10 Q1018",
      "taf": "TAF LPPT 171100Z 1712/1818 31010KT 9999 SCT025"
    },
    {
      "icao": "LQBK",
      "alert": "OK",
      "vis_m": 9999,
      "fzfg": false,
      "metar_trigger": false,
      "taf_trigger": false,
      "metar": "METAR LQBK 171500Z 33007KT CAVOK 17/06 Q1013 NOSIG",
      "taf": "TAF LQBK 171100Z 1712/1812 28007KT CAVOK TX18/1812Z TN05/1804Z"
    },
    {
      "icao": "LQSA",
      "alert": "OK",
      "vis_m": 9999,
      "fzfg": false,
      "metar_trigger": false,
      "taf_trigger": false,
      "metar": "METAR LQSA 171500Z VRB02KT 9999 BKN035 11/07 Q1014 NOSIG",
      "taf": "TAF LQSA 171100Z 1712/1812 32005KT 9999 BKN030 TX20/1812Z TN03/1804Z"
    },
    {
      "icao": "LQTZ",
      "alert": "OK",
      "vis_m": 9999,
      "fzfg": false,
      "metar_trigger": false,
      "taf_trigger": false,
      "metar": "METAR LQTZ 171500Z 29004KT 250V320 9999 SCT040 BKN050 13/11 Q1013",
      "taf": "TAF LQTZ 171100Z 1712/1812 27008KT 9999 SCT020 BKN035 TX16/1812Z TN03/1804Z"
    },
    {
      "icao": "LRBC",
      "alert": "OK",
      "vis_m": 9999,
      "fzfg": false,
      "metar_trigger": false,
      "taf_trigger": false,
      "metar": "METAR LRBC 171500Z 32008KT CAVOK 21/08 Q1006",
      "taf": "TAF LRBC 171400Z 1715/1724 VRB04KT 9999 SCT050"
    },
    {
      "icao": "LRBS",
      "alert": "OK",
      "vis_m": 9999,
      "fzfg": false,
      "metar_trigger": false,
      "taf_trigger": false,
      "metar": "METAR LRBS 171500Z 27005KT CAVOK 15/11 Q1006 NOSIG",
      "taf": "TAF LRBS 171100Z 1712/1812 06012KT 9999 BKN010 BKN045"
    },
    {
      "icao": "LRBV",
      "alert": "OK",
      "vis_m": 9999,
      "fzfg": false,
      "metar_trigger": false,
      "taf_trigger": false,
      "metar": "METAR LRBV 171500Z 12005KT 070V150 9999 FEW050 17/06 Q1007",
      "taf": "TAF LRBV 171400Z 1715/1724 07010KT 9999 SCT050"
    },
    {
      "icao": "LRCL",
      "alert": "OK",
      "vis_m": 9999,
      "fzfg": false,
      "metar_trigger": false,
      "taf_trigger": false,
      "metar": "METAR LRCL 171500Z 18006KT 140V220 9999 SCT070 22/07 Q1006",
      "taf": "TAF LRCL 171400Z 1715/1724 VRB04KT 9999 SCT050"
    },
    {
      "icao": "LRCV",
      "alert": "OK",
      "vis_m": 9999,
      "fzfg": false,
      "metar_trigger": false,
      "taf_trigger": false,
      "metar": "METAR LRCV 171500Z 03006KT 9999 FEW005 BKN026 FEW040CB 16/14 Q1007",
      "taf": "TAF LRCV 171400Z 1715/1724 VRB04KT 9999 BKN010 OVC020"
    },
    {
      "icao": "LRIA",
      "alert": "OK",
      "vis_m": 9999,
      "fzfg": false,
      "metar_trigger": false,
      "taf_trigger": false,
      "metar": "METAR LRIA 171500Z VRB03KT CAVOK 22/06 Q1006",
      "taf": "TAF LRIA 171400Z 1715/1724 VRB04KT CAVOK"
    },
    {
      "icao": "LROP",
      "alert": "OK",
      "vis_m": 9999,
      "fzfg": false,
      "metar_trigger": false,
      "taf_trigger": false,
      "metar": "METAR LROP 171500Z 29006KT 250V310 9999 -RA SCT049 14/13 Q1007 NOSIG",
      "taf": "TAF LROP 171100Z 1712/1812 08014KT 9999 BKN010 BKN045"
    },
    {
      "icao": "LRSB",
      "alert": "OK",
      "vis_m": 9999,
      "fzfg": false,
      "metar_trigger": false,
      "taf_trigger": false,
      "metar": "METAR LRSB 171500Z 14006KT 9999 FEW050 17/10 Q1007",
      "taf": "TAF LRSB 171100Z 1712/1812 VRB04KT 9999 BKN045"
    },
    {
      "icao": "LRSM",
      "alert": "OK",
      "vis_m": 9999,
      "fzfg": false,
      "metar_trigger": false,
      "taf_trigger": false,
      "metar": "METAR LRSM 171500Z AUTO 32010KT 9999 FEW110/// 24/12 Q1005",
      "taf": ""
    },
    {
      "icao": "LRSV",
      "alert": "OK",
      "vis_m": 9999,
      "fzfg": false,
      "metar_trigger": false,
      "taf_trigger": false,
      "metar": "METAR LRSV 171500Z 05004KT 360V090 CAVOK 20/07 Q1008",
      "taf": "TAF LRSV 171400Z 1715/1724 VRB04KT CAVOK"
    },
    {
      "icao": "LRTM",
      "alert": "OK",
      "vis_m": 9999,
      "fzfg": false,
      "metar_trigger": false,
      "taf_trigger": false,
      "metar": "METAR LRTM 171500Z 16005KT 110V220 CAVOK 22/11 Q1006",
      "taf": "TAF LRTM 171400Z 1715/1724 16010KT CAVOK"
    },
    {
      "icao": "LRTR",
      "alert": "OK",
      "vis_m": 9999,
      "fzfg": false,
      "metar_trigger": false,
      "taf_trigger": false,
      "metar": "METAR LRTR 171500Z COR 30013KT 9999 BKN015 FEW035CB 16/14 Q1007",
      "taf": ""
    },
    {
      "icao": "LTAC",
      "alert": "OK",
      "vis_m": 9999,
      "fzfg": false,
      "metar_trigger": false,
      "taf_trigger": false,
      "metar": "METAR LTAC 171520Z 32005KT 270V010 9999 SCT040 SCT080 14/09 Q1005 NOSIG RMK RWY21C 29007KT 270V340 RWY03L 32003KT 290V020 RWY21R 28005KT 240V320 RWY03R 29006KT 250V310 RWY21L 31007KT",
      "taf": "TAF LTAC 171040Z 1712/1812 VRB02KT 9999 SCT040 SCT100"
    },
    {
      "icao": "LTFM",
      "alert": "OK",
      "vis_m": 9999,
      "fzfg": false,
      "metar_trigger": false,
      "taf_trigger": false,
      "metar": "METAR LTFM 171520Z 02017KT 9999 -TSRA FEW018CB BKN025 15/11 Q1005 RESHRA BECMG TL1600 NSW RMK RWY17L 36015KT RWY34L 36018KT RWY16R 36014KT RWY36 02016KT RWY18 01012KT",
      "taf": "TAF LTFM 171040Z 1712/1818 35015KT 9999 SCT028"
    },
    {
      "icao": "LUKK",
      "alert": "OK",
      "vis_m": 9999,
      "fzfg": false,
      "metar_trigger": false,
      "taf_trigger": false,
      "metar": "METAR LUKK 171500Z 01004KT 330V080 CAVOK 22/07 Q1005 TEMPO SCT045CB",
      "taf": "TAF LUKK 171102Z 1712/1812 02009KT CAVOK"
    },
    {
      "icao": "LWOH",
      "alert": "OK",
      "vis_m": 9999,
      "fzfg": false,
      "metar_trigger": false,
      "taf_trigger": false,
      "metar": "METAR LWOH 171520Z 26005KT 220V310 9999 BKN045 14/08 Q1011",
      "taf": "TAF LWOH 171410Z 1715/1815 22010KT 9999 BKN045"
    },
    {
      "icao": "LWSK",
      "alert": "OK",
      "vis_m": 9999,
      "fzfg": false,
      "metar_trigger": false,
      "taf_trigger": false,
      "metar": "METAR LWSK 171520Z 01012KT 310V030 9999 BKN060 17/08 Q1009 NOSIG",
      "taf": "TAF LWSK 171410Z 1715/1815 36010KT 9999 BKN070"
    },
    {
      "icao": "LYBE",
      "alert": "OK",
      "vis_m": 9999,
      "fzfg": false,
      "metar_trigger": false,
      "taf_trigger": false,
      "metar": "METAR LYBE 171500Z 28013KT 9999 BKN010 12/11 Q1011 NOSIG",
      "taf": "TAF LYBE 171100Z 1712/1812 28016KT 9999 BKN010 BKN025 TX20/1812Z TN07/1804Z"
    },
    {
      "icao": "LYNI",
      "alert": "OK",
      "vis_m": 9999,
      "fzfg": false,
      "metar_trigger": false,
      "taf_trigger": false,
      "metar": "METAR LYNI 171500Z 30009KT 260V320 9999 SCT015 OVC027 12/10 Q1011 NOSIG",
      "taf": "TAF LYNI 171100Z 1712/1812 33012KT 9999 SCT015 BKN027 TX21/1812Z TN09/1804Z"
    },
    {
      "icao": "LYPG",
      "alert": "OK",
      "vis_m": 9999,
      "fzfg": false,
      "metar_trigger": false,
      "taf_trigger": false,
      "metar": "METAR LYPG 171500Z 12005KT 9999 FEW030 BKN070 18/10 Q1011 NOSIG",
      "taf": "TAF LYPG 171100Z 1712/1812 18008KT 9999 FEW030 SCT040 TX22/1713Z TN13/1804Z"
    },
    {
      "icao": "LZIB",
      "alert": "OK",
      "vis_m": 9999,
      "fzfg": false,
      "metar_trigger": false,
      "taf_trigger": false,
      "metar": "METAR LZIB 171500Z 01015KT 9999 FEW036 15/06 Q1014 NOSIG",
      "taf": "TAF LZIB 171115Z 1712/1812 35014KT 9999 FEW045"
    },
    {
      "icao": "LZKZ",
      "alert": "OK",
      "vis_m": 9999,
      "fzfg": false,
      "metar_trigger": false,
      "taf_trigger": false,
      "metar": "METAR LZKZ 171500Z 36021KT CAVOK 15/08 Q1009 NOSIG",
      "taf": "TAF LZKZ 171115Z 1712/1812 36018KT 9999 FEW045"
    },
    {
      "icao": "LZTT",
      "alert": "OK",
      "vis_m": 9999,
      "fzfg": false,
      "metar_trigger": false,
      "taf_trigger": false,
      "metar": "METAR LZTT 171500Z 27011KT 9999 FEW016 OVC033 10/05 Q1012 NOSIG",
      "taf": "TAF LZTT 171115Z 1712/1812 06009KT 9999 FEW010 BKN040"
    },
    {
      "icao": "OEJN",
      "alert": "OK",
      "vis_m": 9999,
      "fzfg": false,
      "metar_trigger": false,
      "taf_trigger": false,
      "metar": "METAR OEJN 171500Z 33016KT CAVOK 33/18 Q1004 NOSIG",
      "taf": "TAF OEJN 171100Z 1712/1818 30014KT CAVOK"
    },
    {
      "icao": "OEMA",
      "alert": "OK",
      "vis_m": 9999,
      "fzfg": false,
      "metar_trigger": false,
      "taf_trigger": false,
      "metar": "METAR OEMA 171500Z 33017KT CAVOK 40/M04 Q1010 NOSIG",
      "taf": "TAF OEMA 171100Z 1712/1818 02012KT CAVOK"
    },
    {
      "icao": "OJAI",
      "alert": "OK",
      "vis_m": 4000,
      "fzfg": false,
      "metar_trigger": false,
      "taf_trigger": false,
      "metar": "METAR OJAI 171500Z COR 25011KT 4000 DU NSC 30/06 Q1012 NOSIG",
      "taf": "TAF OJAI 171100Z 1712/1818 25012KT 4000 DU NSC"
    },
    {
      "icao": "OMAA",
      "alert": "OK",
      "vis_m": null,
      "fzfg": false,
      "metar_trigger": false,
      "taf_trigger": false,
      "metar": "",
      "taf": "TAF OMAA 171100Z 1712/1818 32015KT 8000 NSC"
    },
    {
      "icao": "OMDB",
      "alert": "OK",
      "vis_m": null,
      "fzfg": false,
      "metar_trigger": false,
      "taf_trigger": false,
      "metar": "",
      "taf": "TAF OMDB 171100Z 1712/1818 34012KT 8000 NSC"
    },
    {
      "icao": "UAAA",
      "alert": "OK",
      "vis_m": 5000,
      "fzfg": false,
      "metar_trigger": false,
      "taf_trigger": false,
      "metar": "METAR UAAA 171500Z 18003MPS 5000 FU BKN100 19/07 Q1011 NOSIG",
      "taf": "TAF UAAA 171106Z 1712/1812 21003MPS 9999 FEW050 SCT100 TX26/1810Z TN08/1801Z"
    },
    {
      "icao": "UBBB",
      "alert": "OK",
      "vis_m": 9999,
      "fzfg": false,
      "metar_trigger": false,
      "taf_trigger": false,
      "metar": "METAR UBBB 171500Z 32014KT 9999 SCT009 SCT036CB OVC036 15/14 Q1002 NOSIG",
      "taf": "TAF UBBB 171050Z 1712/1812 31016G26KT 8000 SCT010 SCT030CB BKN030 TX17/1710Z TN15/1801Z"
    },
    {
      "icao": "UDSG",
      "alert": "OK",
      "vis_m": 9999,
      "fzfg": false,
      "metar_trigger": false,
      "taf_trigger": false,
      "metar": "METAR UDSG 171500Z 12016KT 9999 -TSRA BKN040CB 14/07 Q1007 NOSIG",
      "taf": "TAF UDSG 171100Z 1712/1812 24006KT 9999 SCT040"
    },
    {
      "icao": "UDYZ",
      "alert": "OK",
      "vis_m": 9999,
      "fzfg": false,
      "metar_trigger": false,
      "taf_trigger": false,
      "metar": "METAR UDYZ 171500Z 29004KT 9999 VCTS SCT043CB 23/06 Q1003 NOSIG",
      "taf": ""
    },
    {
      "icao": "UGKO",
      "alert": "OK",
      "vis_m": 9999,
      "fzfg": false,
      "metar_trigger": false,
      "taf_trigger": false,
      "metar": "METAR UGKO 171500Z 27008KT CAVOK 23/06 Q1003 NOSIG",
      "taf": "TAF UGKO 171100Z 1712/1812 26007KT CAVOK TX24/1712Z TN10/1802Z"
    }
  ]
}