{
  "ts_utc": "2026-02-11T22:15:21Z",
  "threshold_m": 150,
  "source": "stations_override.txt (ICAO list) + aviationweather.gov (METAR/TAF raw)",
  "station_count": 159,
  "stations": [
    {
      "icao": "BIKF",
      "alert": "OK",
      "vis_m": 9999,
      "fzfg": false,
      "metar_trigger": false,
      "taf_trigger": false,
      "metar": "METAR BIKF 112200Z 07003KT CAVOK M05/M10 Q1007",
      "taf": "TAF BIKF 111957Z 1121/1221 06008KT CAVOK TXM02/1218Z TNM08/1208Z"
    },
    {
      "icao": "BKPR",
      "alert": "OK",
      "vis_m": 9999,
      "fzfg": false,
      "metar_trigger": false,
      "taf_trigger": false,
      "metar": "METAR BKPR 112200Z 18006KT 9999 SCT015 BKN020 07/05 Q0998 NOSIG",
      "taf": "TAF BKPR 111730Z 1118/1218 16010KT 9999 SCT030 BKN080"
    },
    {
      "icao": "EBCI",
      "alert": "OK",
      "vis_m": 9999,
      "fzfg": false,
      "metar_trigger": false,
      "taf_trigger": false,
      "metar": "METAR EBCI 112150Z 14008KT 9999 -RA FEW008 SCT010 BKN035 08/07 Q0978 TEMPO 2800 RADZ BKN008",
      "taf": "TAF EBCI 111715Z 1118/1224 21010KT 9999 SCT012 BKN016"
    },
    {
      "icao": "EDDB",
      "alert": "OK",
      "vis_m": 2600,
      "fzfg": false,
      "metar_trigger": false,
      "taf_trigger": false,
      "metar": "METAR EDDB 112150Z AUTO 14005KT 2600 0750 R24R/P2000N R24L/1700U BCFG BKN002 04/04 Q0983 TEMPO 0800 FG",
      "taf": "TAF EDDB 111700Z 1118/1218 14005KT 9999 BKN020"
    },
    {
      "icao": "EDDH",
      "alert": "OK",
      "vis_m": 3600,
      "fzfg": false,
      "metar_trigger": false,
      "taf_trigger": false,
      "metar": "METAR EDDH 112150Z AUTO 07007KT 3600 VCSH BR OVC003 FEW///TCU 01/01 Q0983 TEMPO SHRA",
      "taf": "TAF EDDH 111700Z 1118/1224 08007KT 3500 BR OVC003"
    },
    {
      "icao": "EDDK",
      "alert": "OK",
      "vis_m": 9999,
      "fzfg": false,
      "metar_trigger": false,
      "taf_trigger": false,
      "metar": "METAR EDDK 112150Z AUTO 14007KT CAVOK 09/06 Q0983 NOSIG",
      "taf": "TAF EDDK 111700Z 1118/1224 21007KT 9999 BKN020"
    },
    {
      "icao": "EDDN",
      "alert": "OK",
      "vis_m": 9999,
      "fzfg": false,
      "metar_trigger": false,
      "taf_trigger": false,
      "metar": "METAR EDDN 112150Z AUTO 23008KT 9999 BKN027 BKN037 BKN045 08/06 Q0988",
      "taf": "TAF EDDN 111700Z 1118/1218 22007KT 9999 SCT020 BKN040"
    },
    {
      "icao": "EDDS",
      "alert": "OK",
      "vis_m": 9999,
      "fzfg": false,
      "metar_trigger": false,
      "taf_trigger": false,
      "metar": "METAR EDDS 112150Z AUTO 19003KT 140V230 CAVOK 08/04 Q0987",
      "taf": "TAF EDDS 111700Z 1118/1218 19006KT 9999 BKN030"
    },
    {
      "icao": "EDFH",
      "alert": "OK",
      "vis_m": 9999,
      "fzfg": false,
      "metar_trigger": false,
      "taf_trigger": false,
      "metar": "METAR EDFH 112150Z 20013KT 9999 BKN011 07/06 Q0983",
      "taf": "TAF EDFH 111700Z 1118/1218 19013KT 9999 BKN006"
    },
    {
      "icao": "EDJA",
      "alert": "OK",
      "vis_m": 9999,
      "fzfg": false,
      "metar_trigger": false,
      "taf_trigger": false,
      "metar": "METAR EDJA 112150Z 20007KT CAVOK 05/02 Q0990",
      "taf": ""
    },
    {
      "icao": "EDLW",
      "alert": "OK",
      "vis_m": 9999,
      "fzfg": false,
      "metar_trigger": false,
      "taf_trigger": false,
      "metar": "METAR EDLW 112150Z AUTO 20014KT 9999 // BKN039/// 09/07 Q0982",
      "taf": "TAF EDLW 111700Z 1118/1218 21009KT 9999 FEW010 OVC030"
    },
    {
      "icao": "EDNY",
      "alert": "OK",
      "vis_m": 9999,
      "fzfg": false,
      "metar_trigger": false,
      "taf_trigger": false,
      "metar": "METAR EDNY 112150Z AUTO VRB02KT 9999 // SCT130/// BKN160/// 05/02 Q0989",
      "taf": "TAF EDNY 111700Z 1118/1203 24010KT 9999 SCT040"
    },
    {
      "icao": "EDSB",
      "alert": "OK",
      "vis_m": 9999,
      "fzfg": false,
      "metar_trigger": false,
      "taf_trigger": false,
      "metar": "METAR EDSB 112150Z AUTO 20010KT 9999 FEW094/// OVC130/// 09/06 Q0986",
      "taf": "TAF EDSB 111700Z 1118/1218 20014KT 9999 BKN030"
    },
    {
      "icao": "EETN",
      "alert": "OK",
      "vis_m": 9999,
      "fzfg": false,
      "metar_trigger": false,
      "taf_trigger": false,
      "metar": "METAR EETN 112150Z 17005KT 9999 BKN043 M07/M10 Q0993 NOSIG",
      "taf": "TAF EETN 111730Z 1118/1218 16008KT 9999 BKN040"
    },
    {
      "icao": "EFTU",
      "alert": "OK",
      "vis_m": 9000,
      "fzfg": false,
      "metar_trigger": false,
      "taf_trigger": false,
      "metar": "METAR EFTU 112150Z AUTO 06006KT 030V090 9000 -SN SCT013 M07/M09 Q0992",
      "taf": "TAF EFTU 112035Z 1121/1221 06006KT 9999 -SN BKN016"
    },
    {
      "icao": "EGBB",
      "alert": "OK",
      "vis_m": 9999,
      "fzfg": false,
      "metar_trigger": false,
      "taf_trigger": false,
      "metar": "METAR EGBB 112150Z VRB01KT 9999 BKN047 06/05 Q0976",
      "taf": "TAF EGBB 111700Z 1118/1218 19004KT 9999 SCT035"
    },
    {
      "icao": "EGGP",
      "alert": "OK",
      "vis_m": 4000,
      "fzfg": false,
      "metar_trigger": false,
      "taf_trigger": false,
      "metar": "METAR EGGP 112150Z 22002KT 4000 1200W R27/P2000 -RADZ BR SCT005 BKN017 BKN023 08/07 Q0976",
      "taf": ""
    },
    {
      "icao": "EGGW",
      "alert": "OK",
      "vis_m": 9999,
      "fzfg": false,
      "metar_trigger": false,
      "taf_trigger": false,
      "metar": "METAR EGGW 112150Z AUTO 24005KT 9999 NCD 06/06 Q0975",
      "taf": ""
    },
    {
      "icao": "EGKK",
      "alert": "OK",
      "vis_m": 9999,
      "fzfg": false,
      "metar_trigger": false,
      "taf_trigger": false,
      "metar": "METAR EGKK 112150Z 01005KT 270V050 9999 -RA SCT007 BKN031 09/08 Q0975",
      "taf": "TAF EGKK 111658Z 1118/1224 18010KT 9999 SCT012 BKN020"
    },
    {
      "icao": "EGNM",
      "alert": "OK",
      "vis_m": 9000,
      "fzfg": false,
      "metar_trigger": false,
      "taf_trigger": false,
      "metar": "METAR EGNM 112150Z 34005KT 9000 -RA FEW004 BKN013 05/05 Q0975",
      "taf": "TAF EGNM 111702Z 1118/1218 02008KT 9999 SCT005"
    },
    {
      "icao": "EGPD",
      "alert": "OK",
      "vis_m": 9999,
      "fzfg": false,
      "metar_trigger": false,
      "taf_trigger": false,
      "metar": "METAR EGPD 112150Z AUTO 09015G25KT 9999 -RA FEW013 SCT022 BKN026 02/M00 Q0987 TEMPO RA BKN012",
      "taf": "TAF EGPD 111655Z 1118/1218 09012KT 9999 SCT012 BKN025"
    },
    {
      "icao": "EGPF",
      "alert": "OK",
      "vis_m": 9999,
      "fzfg": false,
      "metar_trigger": false,
      "taf_trigger": false,
      "metar": "METAR EGPF 112150Z AUTO 06016KT 9999 -RA BKN011 OVC015 04/02 Q0982",
      "taf": "TAF EGPF 111701Z 1118/1218 07009KT 9999 BKN016"
    },
    {
      "icao": "EHBK",
      "alert": "OK",
      "vis_m": 9999,
      "fzfg": false,
      "metar_trigger": false,
      "taf_trigger": false,
      "metar": "METAR EHBK 112155Z AUTO 18009KT 9999 FEW015CB SCT047 09/07 Q0981 TEMPO 6000 RADZ",
      "taf": "TAF EHBK 111715Z 1118/1224 24007KT 9999 SCT025"
    },
    {
      "icao": "EHEH",
      "alert": "OK",
      "vis_m": 9999,
      "fzfg": false,
      "metar_trigger": false,
      "taf_trigger": false,
      "metar": "METAR EHEH 112155Z AUTO 15005KT 9999 OVC110 08/07 Q0980 BLU RMK TREND REMOTE BY EHWX",
      "taf": "TAF EHEH 111740Z 1118/1224 24012KT 8000 SCT030"
    },
    {
      "icao": "EKBI",
      "alert": "OK",
      "vis_m": 9000,
      "fzfg": false,
      "metar_trigger": false,
      "taf_trigger": false,
      "metar": "METAR EKBI 112150Z AUTO 08013KT 9000 OVC005/// 00/M01 Q0986",
      "taf": "TAF EKBI 112027Z 1121/1221 07011KT 9000 BKN009"
    },
    {
      "icao": "EKCH",
      "alert": "OK",
      "vis_m": 9999,
      "fzfg": false,
      "metar_trigger": false,
      "taf_trigger": false,
      "metar": "METAR EKCH 112150Z 06010KT 9999 OVC012 M00/M03 Q0988 TEMPO BKN015",
      "taf": "TAF EKCH 112027Z 1121/1221 05012KT 8000 BKN015"
    },
    {
      "icao": "ENAL",
      "alert": "OK",
      "vis_m": 9999,
      "fzfg": false,
      "metar_trigger": false,
      "taf_trigger": false,
      "metar": "METAR ENAL 112150Z AUTO 15008KT 9999 NCD M02/M08 Q0992",
      "taf": "TAF ENAL 112000Z 1121/1206 15008KT CAVOK"
    },
    {
      "icao": "ENBR",
      "alert": "OK",
      "vis_m": 9999,
      "fzfg": false,
      "metar_trigger": false,
      "taf_trigger": false,
      "metar": "METAR ENBR 112150Z 08002KT 9999 FEW022 BKN040 M02/M06 Q0991 RMK WIND 1200FT 13004KT",
      "taf": "TAF ENBR 111700Z 1118/1218 VRB03KT 9999 BKN035"
    },
    {
      "icao": "ENGM",
      "alert": "OK",
      "vis_m": 9999,
      "fzfg": false,
      "metar_trigger": false,
      "taf_trigger": false,
      "metar": "METAR ENGM 112150Z 05002KT 9999 -SN OVC036 M07/M10 Q0994 NOSIG",
      "taf": "TAF ENGM 111700Z 1118/1218 01008KT 9999 BKN025"
    },
    {
      "icao": "ENHD",
      "alert": "OK",
      "vis_m": 9999,
      "fzfg": false,
      "metar_trigger": false,
      "taf_trigger": false,
      "metar": "METAR ENHD 112150Z AUTO 11008KT 9999 SCT043/// M02/M07 Q0991",
      "taf": "TAF ENHD 111400Z 1115/1123 09005KT CAVOK"
    },
    {
      "icao": "ENTC",
      "alert": "OK",
      "vis_m": 9999,
      "fzfg": false,
      "metar_trigger": false,
      "taf_trigger": false,
      "metar": "METAR ENTC 112150Z VRB02KT CAVOK M12/M14 Q0996 NOSIG RMK WIND 2600FT 15005KT",
      "taf": "TAF ENTC 111700Z 1118/1218 VRB03KT CAVOK"
    },
    {
      "icao": "ENTO",
      "alert": "OK",
      "vis_m": 9999,
      "fzfg": false,
      "metar_trigger": false,
      "taf_trigger": false,
      "metar": "METAR ENTO 112150Z AUTO 03006KT 9999 -SN SCT015/// BKN018/// OVC022/// M04/M06 Q0993",
      "taf": "TAF ENTO 111700Z 1118/1218 02008KT 9999 FEW015 BKN030"
    },
    {
      "icao": "ENVA",
      "alert": "OK",
      "vis_m": 9999,
      "fzfg": false,
      "metar_trigger": false,
      "taf_trigger": false,
      "metar": "METAR ENVA 112150Z 10007KT CAVOK M10/M15 Q0995 RMK WIND 670FT 10010KT",
      "taf": "TAF ENVA 111700Z 1118/1218 10005KT CAVOK"
    },
    {
      "icao": "ENZV",
      "alert": "OK",
      "vis_m": 9999,
      "fzfg": false,
      "metar_trigger": false,
      "taf_trigger": false,
      "metar": "METAR ENZV 112150Z 08003KT 040V100 CAVOK M02/M08 Q0991",
      "taf": "TAF ENZV 111700Z 1118/1218 10005KT 9999 BKN040"
    },
    {
      "icao": "EPGD",
      "alert": "OK",
      "vis_m": 1900,
      "fzfg": false,
      "metar_trigger": false,
      "taf_trigger": false,
      "metar": "METAR EPGD 112200Z 03003KT 1900 BR BKN002 M00/M00 Q0985",
      "taf": "TAF EPGD 111730Z 1118/1218 VRB02KT 2000 BR OVC005"
    },
    {
      "icao": "EPKK",
      "alert": "OK",
      "vis_m": 6000,
      "fzfg": false,
      "metar_trigger": false,
      "taf_trigger": false,
      "metar": "METAR EPKK 112200Z 34001KT 6000 OVC030 03/02 Q0987",
      "taf": "TAF EPKK 112030Z 1121/1221 24006KT 7000 BKN025"
    },
    {
      "icao": "EPKT",
      "alert": "OK",
      "vis_m": 9999,
      "fzfg": false,
      "metar_trigger": false,
      "taf_trigger": false,
      "metar": "METAR EPKT 112200Z 21014KT 9999 -RA FEW010 OVC032 05/04 Q0987",
      "taf": ""
    },
    {
      "icao": "EPLB",
      "alert": "OK",
      "vis_m": 9999,
      "fzfg": false,
      "metar_trigger": false,
      "taf_trigger": false,
      "metar": "METAR EPLB 112200Z 22007KT CAVOK 02/01 Q0989",
      "taf": "TAF EPLB 111730Z 1118/1218 18008KT CAVOK"
    },
    {
      "icao": "EPMO",
      "alert": "OK",
      "vis_m": 9999,
      "fzfg": false,
      "metar_trigger": false,
      "taf_trigger": false,
      "metar": "METAR EPMO 112200Z 15005KT CAVOK 03/00 Q0986",
      "taf": "TAF EPMO 111730Z 1118/1218 15006KT CAVOK"
    },
    {
      "icao": "EPPO",
      "alert": "OK",
      "vis_m": 9999,
      "fzfg": false,
      "metar_trigger": false,
      "taf_trigger": false,
      "metar": "METAR EPPO 112200Z 16003KT 9999 OVC022 03/01 Q0985",
      "taf": ""
    },
    {
      "icao": "EPRA",
      "alert": "OK",
      "vis_m": 9999,
      "fzfg": false,
      "metar_trigger": false,
      "taf_trigger": false,
      "metar": "METAR EPRA 112200Z 17007KT 9999 BKN028 02/M00 Q0987",
      "taf": "TAF EPRA 112030Z 1121/1206 17008KT 9999 BKN040"
    },
    {
      "icao": "EPRZ",
      "alert": "OK",
      "vis_m": 9999,
      "fzfg": false,
      "metar_trigger": false,
      "taf_trigger": false,
      "metar": "METAR EPRZ 112200Z 20007KT 9999 -RA BKN033 04/02 Q0989",
      "taf": "TAF EPRZ 111730Z 1118/1218 19012KT 9999 BKN040"
    },
    {
      "icao": "EPSC",
      "alert": "OK",
      "vis_m": 1800,
      "fzfg": false,
      "metar_trigger": false,
      "taf_trigger": false,
      "metar": "METAR EPSC 112200Z 04003KT 1800 -RA BR SCT002 OVC007 01/01 Q0984",
      "taf": "TAF EPSC 111730Z 1118/1218 VRB02KT 2500 BR OVC005"
    },
    {
      "icao": "EPSY",
      "alert": "OK",
      "vis_m": 5000,
      "fzfg": false,
      "metar_trigger": false,
      "taf_trigger": false,
      "metar": "METAR EPSY 112200Z 00000KT 5000 BR OVC037 01/00 Q0986",
      "taf": "TAF EPSY 112030Z 1121/1206 VRB02KT 6000 BKN030"
    },
    {
      "icao": "EPWA",
      "alert": "OK",
      "vis_m": 9999,
      "fzfg": false,
      "metar_trigger": false,
      "taf_trigger": false,
      "metar": "METAR EPWA 112200Z 15006KT 9999 FEW025 02/00 Q0987 NOSIG",
      "taf": "TAF EPWA 112030Z 1121/1221 16008KT CAVOK"
    },
    {
      "icao": "EPWR",
      "alert": "OK",
      "vis_m": 5000,
      "fzfg": false,
      "metar_trigger": false,
      "taf_trigger": false,
      "metar": "METAR EPWR 112200Z 13004KT 5000 BR BKN015 03/03 Q0985",
      "taf": "TAF EPWR 112030Z 1121/1221 14005KT 9999 BKN027"
    },
    {
      "icao": "ESGG",
      "alert": "OK",
      "vis_m": 9999,
      "fzfg": false,
      "metar_trigger": false,
      "taf_trigger": false,
      "metar": "METAR ESGG 112150Z 04008KT 9999 BKN039 M04/M05 Q0990",
      "taf": "TAF ESGG 112030Z 1121/1221 04007KT 9999 BKN040"
    },
    {
      "icao": "ESKN",
      "alert": "OK",
      "vis_m": 9999,
      "fzfg": false,
      "metar_trigger": false,
      "taf_trigger": false,
      "metar": "METAR ESKN 112150Z 01006KT 330V030 9999 -SN BKN009 M06/M07 Q0993",
      "taf": "TAF ESKN 112030Z 1121/1221 01005KT 9999 BKN007"
    },
    {
      "icao": "ESMS",
      "alert": "OK",
      "vis_m": 9999,
      "fzfg": false,
      "metar_trigger": false,
      "taf_trigger": false,
      "metar": "METAR ESMS 112150Z 07013KT 9999 OVC009 M01/M03 Q0987",
      "taf": "TAF ESMS 112027Z 1121/1221 06012KT 6000 OVC012"
    },
    {
      "icao": "ESSA",
      "alert": "OK",
      "vis_m": 9999,
      "fzfg": false,
      "metar_trigger": false,
      "taf_trigger": false,
      "metar": "METAR ESSA 112150Z 34007KT 9999 OVC018 M07/M09 Q0993 TEMPO OVC014",
      "taf": "TAF ESSA 112030Z 1121/1221 35007KT 9999 -SN OVC009"
    },
    {
      "icao": "EYKA",
      "alert": "OK",
      "vis_m": 3600,
      "fzfg": false,
      "metar_trigger": false,
      "taf_trigger": false,
      "metar": "METAR EYKA 112150Z 15004KT 3600 -SN BR OVC016 M00/M00 Q0988",
      "taf": ""
    },
    {
      "icao": "EYPA",
      "alert": "OK",
      "vis_m": 7000,
      "fzfg": false,
      "metar_trigger": false,
      "taf_trigger": false,
      "metar": "METAR EYPA 112150Z 09007KT 7000 OVC018 M05/M07 Q0988",
      "taf": "TAF EYPA 111700Z 1118/1218 VRB05KT 5000 BR BKN015"
    },
    {
      "icao": "EYVI",
      "alert": "OK",
      "vis_m": 8000,
      "fzfg": false,
      "metar_trigger": false,
      "taf_trigger": false,
      "metar": "METAR EYVI 112150Z 17009KT 8000 -SN OVC020 M01/M01 Q0988 NOSIG",
      "taf": "TAF EYVI 111705Z 1118/1218 17008KT 5000 SN BR SCT010 OVC015"
    },
    {
      "icao": "GCFV",
      "alert": "OK",
      "vis_m": 9999,
      "fzfg": false,
      "metar_trigger": false,
      "taf_trigger": false,
      "metar": "METAR GCFV 112200Z 03014KT 9999 BKN011 19/16 Q1026",
      "taf": "TAF GCFV 112000Z 1121/1221 04013KT 9999 BKN016 TX22/1214Z TN17/1206Z"
    },
    {
      "icao": "GCLP",
      "alert": "OK",
      "vis_m": 9999,
      "fzfg": false,
      "metar_trigger": false,
      "taf_trigger": false,
      "metar": "METAR GCLP 112200Z 01016KT 9999 SCT012 BKN020 19/16 Q1025 NOSIG",
      "taf": "TAF GCLP 112000Z 1121/1221 36015KT 9999 SCT015 TX23/1214Z TN17/1206Z"
    },
    {
      "icao": "GCTS",
      "alert": "OK",
      "vis_m": 9999,
      "fzfg": false,
      "metar_trigger": false,
      "taf_trigger": false,
      "metar": "METAR GCTS 112200Z 07016KT 9999 SCT020 18/15 Q1026 NOSIG",
      "taf": "TAF GCTS 112000Z 1121/1221 08015KT 9999 FEW020 TX25/1214Z TN17/1206Z"
    },
    {
      "icao": "GMAD",
      "alert": "OK",
      "vis_m": 1800,
      "fzfg": false,
      "metar_trigger": false,
      "taf_trigger": false,
      "metar": "METAR GMAD 112200Z 15003KT 1800 BR OVC006 16/15 Q1025 NOSIG",
      "taf": ""
    },
    {
      "icao": "GMMN",
      "alert": "OK",
      "vis_m": 8000,
      "fzfg": false,
      "metar_trigger": false,
      "taf_trigger": false,
      "metar": "METAR GMMN 112200Z VRB02KT 8000 SCT004 13/12 Q1027 NOSIG",
      "taf": "TAF GMMN 111700Z 1118/1224 32006KT 8000 SCT008"
    },
    {
      "icao": "GMMX",
      "alert": "OK",
      "vis_m": 9999,
      "fzfg": false,
      "metar_trigger": false,
      "taf_trigger": false,
      "metar": "METAR GMMX 112200Z 10004KT CAVOK 17/15 Q1026 NOSIG",
      "taf": "TAF GMMX 111700Z 1118/1224 28006KT CAVOK"
    },
    {
      "icao": "HEGN",
      "alert": "OK",
      "vis_m": 9999,
      "fzfg": false,
      "metar_trigger": false,
      "taf_trigger": false,
      "metar": "METAR HEGN 112100Z 28007KT CAVOK 19/01 Q1017 NOSIG",
      "taf": "TAF HEGN 111700Z 1118/1224 32010KT CAVOK"
    },
    {
      "icao": "HEMA",
      "alert": "OK",
      "vis_m": 9999,
      "fzfg": false,
      "metar_trigger": false,
      "taf_trigger": false,
      "metar": "METAR HEMA 112100Z 29004KT CAVOK 20/11 Q1016 NOSIG",
      "taf": "TAF HEMA 111700Z 1118/1224 29010KT CAVOK"
    },
    {
      "icao": "HESH",
      "alert": "OK",
      "vis_m": 9999,
      "fzfg": false,
      "metar_trigger": false,
      "taf_trigger": false,
      "metar": "METAR HESH 112100Z 32005KT CAVOK 21/13 Q1016 NOSIG",
      "taf": "TAF HESH 111700Z 1118/1224 34010KT CAVOK"
    },
    {
      "icao": "HESX",
      "alert": "OK",
      "vis_m": 9999,
      "fzfg": false,
      "metar_trigger": false,
      "taf_trigger": false,
      "metar": "METAR HESX 112100Z 19007KT CAVOK 15/03 Q1017 NOSIG",
      "taf": "TAF HESX 111700Z 1118/1224 27010KT CAVOK"
    },
    {
      "icao": "LATI",
      "alert": "OK",
      "vis_m": 9999,
      "fzfg": false,
      "metar_trigger": false,
      "taf_trigger": false,
      "metar": "METAR LATI 112150Z 36003KT 9999 -RA FEW040 BKN057 10/08 Q0997 NOSIG",
      "taf": "TAF LATI 111700Z 1118/1218 VRB05KT 9999 RA SCT040 OVC060 TX16/1212Z TN08/1205Z"
    },
    {
      "icao": "LBPD",
      "alert": "OK",
      "vis_m": 9999,
      "fzfg": false,
      "metar_trigger": false,
      "taf_trigger": false,
      "metar": "METAR LBPD 112200Z AUTO 27005KT 230V290 9999 OVC009/// 02/02 Q1003",
      "taf": "TAF LBPD 111700Z 1118/1218 VRB04KT 9999 BKN010"
    },
    {
      "icao": "LBSF",
      "alert": "OK",
      "vis_m": 9999,
      "fzfg": false,
      "metar_trigger": false,
      "taf_trigger": false,
      "metar": "METAR LBSF 112200Z AUTO 08007KT 9999 NSC M00/M01 Q1001 NOSIG",
      "taf": "TAF LBSF 111700Z 1118/1218 11012KT 9999 SCT030 BKN050"
    },
    {
      "icao": "LBWN",
      "alert": "OK",
      "vis_m": 9999,
      "fzfg": false,
      "metar_trigger": false,
      "taf_trigger": false,
      "metar": "METAR LBWN 112200Z AUTO 12006KT 9999 NCD 03/03 Q1002 NOSIG",
      "taf": ""
    },
    {
      "icao": "LCLK",
      "alert": "OK",
      "vis_m": 9999,
      "fzfg": false,
      "metar_trigger": false,
      "taf_trigger": false,
      "metar": "METAR LCLK 112200Z 23007KT 9999 FEW060 14/12 Q1012 NOSIG",
      "taf": "TAF LCLK 111730Z 1118/1218 24009KT 9999 FEW030"
    },
    {
      "icao": "LCPH",
      "alert": "OK",
      "vis_m": 8000,
      "fzfg": false,
      "metar_trigger": false,
      "taf_trigger": false,
      "metar": "METAR LCPH 112200Z 26009KT 250V320 8000 -RA SCT022 SCT040 BKN050 16/13 Q1012 RERA NOSIG",
      "taf": "TAF LCPH 111730Z 1118/1218 28015KT 9999 FEW025 SCT035"
    },
    {
      "icao": "LEAL",
      "alert": "OK",
      "vis_m": 9999,
      "fzfg": false,
      "metar_trigger": false,
      "taf_trigger": false,
      "metar": "METAR LEAL 112200Z 25014KT CAVOK 21/09 Q1008 NOSIG",
      "taf": "TAF LEAL 111700Z 1118/1218 27015KT 9999 FEW030 TX23/1213Z TN12/1206Z"
    },
    {
      "icao": "LEBB",
      "alert": "OK",
      "vis_m": 9999,
      "fzfg": false,
      "metar_trigger": false,
      "taf_trigger": false,
      "metar": "METAR LEBB 112200Z 26012G23KT 220V300 CAVOK 16/06 Q1000 NOSIG",
      "taf": "TAF LEBB 111700Z 1118/1218 22009KT 9999 FEW035 BKN050 TX19/1118Z TN09/1208Z"
    },
    {
      "icao": "LEBL",
      "alert": "OK",
      "vis_m": 9999,
      "fzfg": false,
      "metar_trigger": false,
      "taf_trigger": false,
      "metar": "METAR LEBL 112200Z 34005KT 9999 SCT034 13/12 Q0999 NOSIG",
      "taf": ""
    },
    {
      "icao": "LECH",
      "alert": "OK",
      "vis_m": 9999,
      "fzfg": false,
      "metar_trigger": false,
      "taf_trigger": false,
      "metar": "METAR LECH 112200Z AUTO 28016KT 240V320 CAVOK 20/09 Q1002",
      "taf": ""
    },
    {
      "icao": "LEMD",
      "alert": "OK",
      "vis_m": 9999,
      "fzfg": false,
      "metar_trigger": false,
      "taf_trigger": false,
      "metar": "METAR LEMD 112200Z 28019KT 9999 BKN065 14/06 Q1010 NOSIG",
      "taf": ""
    },
    {
      "icao": "LEMG",
      "alert": "OK",
      "vis_m": 9999,
      "fzfg": false,
      "metar_trigger": false,
      "taf_trigger": false,
      "metar": "METAR LEMG 112200Z 32002KT 9999 SCT075 14/13 Q1019 NOSIG",
      "taf": "TAF LEMG 111700Z 1118/1218 VRB03KT 9999 FEW050 TX23/1214Z TN11/1207Z"
    },
    {
      "icao": "LEVC",
      "alert": "OK",
      "vis_m": 9999,
      "fzfg": false,
      "metar_trigger": false,
      "taf_trigger": false,
      "metar": "METAR LEVC 112200Z 26032G47KT CAVOK 20/11 Q1004 NOSIG",
      "taf": "TAF LEVC 111700Z 1118/1218 27015KT 9999 FEW045 TX21/1214Z TN15/1206Z"
    },
    {
      "icao": "LEXJ",
      "alert": "OK",
      "vis_m": 9000,
      "fzfg": false,
      "metar_trigger": false,
      "taf_trigger": false,
      "metar": "METAR LEXJ 112200Z 29025G36KT 260V320 9000 FEW027 14/07 Q1000",
      "taf": ""
    },
    {
      "icao": "LEZG",
      "alert": "OK",
      "vis_m": 9999,
      "fzfg": false,
      "metar_trigger": false,
      "taf_trigger": false,
      "metar": "METAR LEZG 112200Z 27020G30KT 9999 FEW060 17/05 Q1003 NOSIG",
      "taf": ""
    },
    {
      "icao": "LEZL",
      "alert": "OK",
      "vis_m": 5000,
      "fzfg": false,
      "metar_trigger": false,
      "taf_trigger": false,
      "metar": "METAR LEZL 112200Z 23016KT 5000 -DZ OVC007 16/16 Q1020 NOSIG",
      "taf": "TAF LEZL 112000Z 1121/1221 24015KT 9999 BKN010 TX20/1215Z TN13/1207Z"
    },
    {
      "icao": "LFBD",
      "alert": "OK",
      "vis_m": 9999,
      "fzfg": false,
      "metar_trigger": false,
      "taf_trigger": false,
      "metar": "METAR LFBD 112200Z AUTO 26035G49KT 9999 BKN023 BKN029 OVC060 13/10 Q0992 TEMPO 27040G60KT 1500 TSRA BKN015 BKN025CB",
      "taf": ""
    },
    {
      "icao": "LFLL",
      "alert": "OK",
      "vis_m": 9999,
      "fzfg": false,
      "metar_trigger": false,
      "taf_trigger": false,
      "metar": "METAR LFLL 112200Z 19025KT CAVOK 13/06 Q0990 TEMPO 20030G45KT",
      "taf": "TAF LFLL 111700Z 1118/1224 18010KT 9999 BKN050"
    },
    {
      "icao": "LFLS",
      "alert": "OK",
      "vis_m": 9999,
      "fzfg": false,
      "metar_trigger": false,
      "taf_trigger": false,
      "metar": "METAR LFLS 112200Z AUTO 20010KT 140V240 9999 FEW048 SCT076 BKN098 11/05 Q0992",
      "taf": "TAF LFLS 111400Z 1115/1215 22008KT 9999 BKN040"
    },
    {
      "icao": "LFMN",
      "alert": "OK",
      "vis_m": 9999,
      "fzfg": false,
      "metar_trigger": false,
      "taf_trigger": false,
      "metar": "METAR LFMN 112200Z 33005KT 9999 BKN083 BKN160 11/09 Q0996 BECMG 26015KT",
      "taf": "TAF LFMN 112000Z 1121/1303 30008KT CAVOK"
    },
    {
      "icao": "LFOB",
      "alert": "OK",
      "vis_m": 7000,
      "fzfg": false,
      "metar_trigger": false,
      "taf_trigger": false,
      "metar": "METAR LFOB 112200Z AUTO 18010KT 7000 RA FEW012/// SCT035/// BKN048/// ///TCU 11/10 Q0974 TEMPO 19020G30KT 3000 RA BKN004",
      "taf": ""
    },
    {
      "icao": "LFPO",
      "alert": "OK",
      "vis_m": 8000,
      "fzfg": false,
      "metar_trigger": false,
      "taf_trigger": false,
      "metar": "METAR LFPO 112204Z 21015G25KT 8000 BKN018 12/10 Q0977 TEMPO 20015G30KT 2500 RA BKN014TCU",
      "taf": "TAF LFPO 111700Z 1118/1224 17010KT 6000 SCT033 BKN073"
    },
    {
      "icao": "LFSB",
      "alert": "OK",
      "vis_m": 9999,
      "fzfg": false,
      "metar_trigger": false,
      "taf_trigger": false,
      "metar": "METAR LFSB 112200Z AUTO 11004KT 080V180 9999 -RA ///CB 09/05 Q0986 TEMPO 4000 RA",
      "taf": "TAF LFSB 111700Z 1118/1218 17006KT 9999 SCT025 BKN050"
    },
    {
      "icao": "LGAV",
      "alert": "OK",
      "vis_m": 9000,
      "fzfg": false,
      "metar_trigger": false,
      "taf_trigger": false,
      "metar": "METAR LGAV 112150Z 28007KT 200V330 9000 -RA FEW005 FEW015TCU BKN025 14/13 Q0999 NOSIG",
      "taf": "TAF LGAV 111700Z 1118/1218 18010KT 9999 SCT020 BKN070"
    },
    {
      "icao": "LGTS",
      "alert": "OK",
      "vis_m": 9999,
      "fzfg": false,
      "metar_trigger": false,
      "taf_trigger": false,
      "metar": "METAR LGTS 112150Z 28010KT 9999 FEW010 BKN035 11/11 Q0999 NOSIG",
      "taf": "TAF LGTS 111700Z 1118/1218 14010KT 9999 FEW010 BKN030"
    },
    {
      "icao": "LHBP",
      "alert": "OK",
      "vis_m": 9999,
      "fzfg": false,
      "metar_trigger": false,
      "taf_trigger": false,
      "metar": "METAR LHBP 112200Z 15003KT 120V180 CAVOK 05/05 Q0993 NOSIG",
      "taf": "TAF LHBP 111715Z 1118/1218 18006KT CAVOK"
    },
    {
      "icao": "LHDC",
      "alert": "OK",
      "vis_m": 9999,
      "fzfg": false,
      "metar_trigger": false,
      "taf_trigger": false,
      "metar": "METAR LHDC 112145Z AUTO 19009KT 160V220 9999 OVC033 07/05 Q0995",
      "taf": "TAF LHDC 111415Z 1115/1124 19012KT 9999 BKN040 BKN060"
    },
    {
      "icao": "LIBD",
      "alert": "OK",
      "vis_m": 9999,
      "fzfg": false,
      "metar_trigger": false,
      "taf_trigger": false,
      "metar": "METAR LIBD 112150Z 22003KT CAVOK 09/09 Q0997",
      "taf": "TAF LIBD 111700Z 1118/1218 26006KT 9999 FEW040"
    },
    {
      "icao": "LIBG",
      "alert": "OK",
      "vis_m": null,
      "fzfg": false,
      "metar_trigger": false,
      "taf_trigger": false,
      "metar": "",
      "taf": "TAF LIBG 111700Z 1118/1203 VRB04KT 9999 FEW040"
    },
    {
      "icao": "LIBP",
      "alert": "OK",
      "vis_m": 9000,
      "fzfg": false,
      "metar_trigger": false,
      "taf_trigger": false,
      "metar": "METAR LIBP 112150Z AUTO VRB02KT 9000 NCD 07/06 Q0997",
      "taf": "TAF LIBP 111700Z 1118/1218 VRB05KT 9999 FEW060"
    },
    {
      "icao": "LIBR",
      "alert": "OK",
      "vis_m": 9999,
      "fzfg": false,
      "metar_trigger": false,
      "taf_trigger": false,
      "metar": "METAR LIBR 112150Z 28008KT 9999 BKN040 11/10 Q0997",
      "taf": "TAF LIBR 111700Z 1118/1218 VRB05KT 9999 SCT030"
    },
    {
      "icao": "LICA",
      "alert": "OK",
      "vis_m": 9999,
      "fzfg": false,
      "metar_trigger": false,
      "taf_trigger": false,
      "metar": "METAR LICA 112150Z AUTO 25014KT 9999 BKN030/// 15/12 Q1002",
      "taf": "TAF LICA 111700Z 1118/1218 25022G33KT 9999 BKN020"
    },
    {
      "icao": "LICC",
      "alert": "OK",
      "vis_m": 9999,
      "fzfg": false,
      "metar_trigger": false,
      "taf_trigger": false,
      "metar": "METAR LICC 112150Z 25009KT CAVOK 14/10 Q1004",
      "taf": "TAF LICC 111700Z 1118/1218 26018G30KT 9999 SCT030"
    },
    {
      "icao": "LICJ",
      "alert": "OK",
      "vis_m": 9999,
      "fzfg": false,
      "metar_trigger": false,
      "taf_trigger": false,
      "metar": "METAR LICJ 112150Z 22013KT CAVOK 15/12 Q1005",
      "taf": "TAF LICJ 111700Z 1118/1218 26022G35KT 9999 SCT020"
    },
    {
      "icao": "LIMC",
      "alert": "OK",
      "vis_m": 9999,
      "fzfg": false,
      "metar_trigger": false,
      "taf_trigger": false,
      "metar": "METAR LIMC 112150Z 05005KT 9999 BKN030 05/05 Q0995 NOSIG",
      "taf": "TAF LIMC 111700Z 1118/1224 VRB04KT 8000 FEW030"
    },
    {
      "icao": "LIME",
      "alert": "OK",
      "vis_m": 9999,
      "fzfg": false,
      "metar_trigger": false,
      "taf_trigger": false,
      "metar": "METAR LIME 112150Z 15003KT 130V210 9999 BKN035 08/07 Q0995 NOSIG",
      "taf": "TAF LIME 111700Z 1118/1218 VRB05KT 9999 SCT030"
    },
    {
      "icao": "LIMF",
      "alert": "OK",
      "vis_m": 9999,
      "fzfg": false,
      "metar_trigger": false,
      "taf_trigger": false,
      "metar": "METAR LIMF 112150Z 36003KT 320V020 CAVOK 06/04 Q0994",
      "taf": "TAF LIMF 111700Z 1118/1218 VRB03KT 9999 FEW025"
    },
    {
      "icao": "LIMJ",
      "alert": "OK",
      "vis_m": 9999,
      "fzfg": false,
      "metar_trigger": false,
      "taf_trigger": false,
      "metar": "METAR LIMJ 112150Z 04005KT 320V090 9999 FEW016 SCT027 12/09 Q0995",
      "taf": "TAF LIMJ 111700Z 1118/1218 VRB05KT 9999 FEW015"
    },
    {
      "icao": "LIPE",
      "alert": "OK",
      "vis_m": 9999,
      "fzfg": false,
      "metar_trigger": false,
      "taf_trigger": false,
      "metar": "METAR LIPE 112150Z 04002KT 9999 MIFG BKN018 06/06 Q0995",
      "taf": "TAF LIPE 111700Z 1118/1218 VRB05KT 8000 SCT020"
    },
    {
      "icao": "LIPH",
      "alert": "OK",
      "vis_m": 3000,
      "fzfg": false,
      "metar_trigger": false,
      "taf_trigger": false,
      "metar": "METAR LIPH 112150Z 19002KT 3000 BR BKN007 BKN010 08/08 Q0996",
      "taf": "TAF LIPH 111700Z 1118/1218 VRB05KT 7000 BKN010"
    },
    {
      "icao": "LIPQ",
      "alert": "OK",
      "vis_m": 1900,
      "fzfg": false,
      "metar_trigger": false,
      "taf_trigger": false,
      "metar": "METAR LIPQ 112150Z AUTO 27001KT 1900 BCFG OVC005/// 09/09 Q0995",
      "taf": "TAF LIPQ 111700Z 1118/1218 VRB04KT 2000 BR BKN005"
    },
    {
      "icao": "LIPR",
      "alert": "OK",
      "vis_m": 7000,
      "fzfg": false,
      "metar_trigger": false,
      "taf_trigger": false,
      "metar": "METAR LIPR 112150Z 15003KT 7000 R30/0650D MIFG NSC 06/06 Q0996",
      "taf": "TAF LIPR 111700Z 1118/1218 VRB05KT 4000 BR SCT020"
    },
    {
      "icao": "LIPX",
      "alert": "OK",
      "vis_m": 8000,
      "fzfg": false,
      "metar_trigger": false,
      "taf_trigger": false,
      "metar": "METAR LIPX 112150Z 27003KT 230V310 8000 BKN030 08/07 Q0996",
      "taf": "TAF LIPX 111700Z 1118/1218 VRB05KT 8000 BKN014"
    },
    {
      "icao": "LIPY",
      "alert": "OK",
      "vis_m": 2800,
      "fzfg": false,
      "metar_trigger": false,
      "taf_trigger": false,
      "metar": "METAR LIPY 112150Z AUTO 18003KT 2800 BR FEW007/// 08/08 Q0997",
      "taf": "TAF LIPY 111700Z 1118/1218 VRB05KT 4000 BR SCT040"
    },
    {
      "icao": "LIPZ",
      "alert": "OK",
      "vis_m": 7000,
      "fzfg": false,
      "metar_trigger": false,
      "taf_trigger": false,
      "metar": "METAR LIPZ 112150Z 24004KT 7000 BCFG NSC 08/08 Q0996 TEMPO 3000 BR",
      "taf": "TAF LIPZ 111700Z 1118/1224 VRB05KT 7000 BKN010"
    },
    {
      "icao": "LIRF",
      "alert": "OK",
      "vis_m": 9999,
      "fzfg": false,
      "metar_trigger": false,
      "taf_trigger": false,
      "metar": "METAR LIRF 112150Z 12004KT 100V170 CAVOK 11/10 Q0999 NOSIG",
      "taf": "TAF LIRF 111700Z 1118/1224 VRB05KT 9999 SCT020"
    },
    {
      "icao": "LIRN",
      "alert": "OK",
      "vis_m": 8000,
      "fzfg": false,
      "metar_trigger": false,
      "taf_trigger": false,
      "metar": "METAR LIRN 112150Z VRB01KT 8000 FEW020 12/10 Q0999 NOSIG",
      "taf": "TAF LIRN 111700Z 1118/1218 VRB05KT 9999 SCT020"
    },
    {
      "icao": "LIRP",
      "alert": "OK",
      "vis_m": 9999,
      "fzfg": false,
      "metar_trigger": false,
      "taf_trigger": false,
      "metar": "METAR LIRP 112145Z 23013KT 9999 SCT050 14/12 Q0996 NOSIG",
      "taf": "TAF LIRP 111700Z 1118/1218 VRB03KT 9999 FEW020"
    },
    {
      "icao": "LIRZ",
      "alert": "OK",
      "vis_m": 9999,
      "fzfg": false,
      "metar_trigger": false,
      "taf_trigger": false,
      "metar": "METAR LIRZ 112150Z AUTO VRB02KT 9999 SCT028/// BKN043/// BKN048/// 11/10 Q0998",
      "taf": "TAF LIRZ 111700Z 1118/1218 19008KT 9999 BKN030"
    },
    {
      "icao": "LJLJ",
      "alert": "OK",
      "vis_m": 9999,
      "fzfg": false,
      "metar_trigger": false,
      "taf_trigger": false,
      "metar": "METAR LJLJ 112200Z VRB02KT 9999 4000SE MIFG FEW001 BKN050 05/05 Q0994 TEMPO 0800 FG BKN002",
      "taf": "TAF LJLJ 111700Z 1118/1218 VRB02KT 9999 FEW003 SCT030 BKN045"
    },
    {
      "icao": "LKMT",
      "alert": "OK",
      "vis_m": 9999,
      "fzfg": false,
      "metar_trigger": false,
      "taf_trigger": false,
      "metar": "METAR LKMT 112200Z 23009KT 9999 BKN023 OVC028 06/05 Q0988 NOSIG",
      "taf": "TAF LKMT 111700Z 1118/1218 22012KT 9999 BKN022"
    },
    {
      "icao": "LKPR",
      "alert": "OK",
      "vis_m": 9999,
      "fzfg": false,
      "metar_trigger": false,
      "taf_trigger": false,
      "metar": "METAR LKPR 112200Z 21012KT 9999 FEW012 SCT035 07/06 Q0986 NOSIG",
      "taf": "TAF LKPR 112000Z 1121/1303 22014KT 9999 BKN040"
    },
    {
      "icao": "LLBG",
      "alert": "OK",
      "vis_m": 9999,
      "fzfg": false,
      "metar_trigger": false,
      "taf_trigger": false,
      "metar": "METAR LLBG 112150Z 15005KT CAVOK 15/10 Q1016 NOSIG",
      "taf": "TAF LLBG 111702Z 1118/1218 VRB04KT CAVOK"
    },
    {
      "icao": "LMML",
      "alert": "OK",
      "vis_m": 9999,
      "fzfg": false,
      "metar_trigger": false,
      "taf_trigger": false,
      "metar": "METAR LMML 112145Z 26018G30KT CAVOK 16/13 Q1008 NOSIG",
      "taf": "TAF LMML 111700Z 1118/1218 23025G35KT 9999 FEW020"
    },
    {
      "icao": "LOWW",
      "alert": "OK",
      "vis_m": 9000,
      "fzfg": false,
      "metar_trigger": false,
      "taf_trigger": false,
      "metar": "METAR LOWW 112150Z 19009KT 9000 -RA FEW038 BKN042 06/04 Q0991 NOSIG",
      "taf": "TAF LOWW 112015Z 1121/1303 20008KT 9999 FEW050 TX08/1303Z TN03/1203Z"
    },
    {
      "icao": "LPFR",
      "alert": "OK",
      "vis_m": 5000,
      "fzfg": false,
      "metar_trigger": false,
      "taf_trigger": false,
      "metar": "METAR LPFR 112200Z 25018KT 5000 -DZ BR OVC003 15/15 Q1021",
      "taf": ""
    },
    {
      "icao": "LPMA",
      "alert": "OK",
      "vis_m": 9999,
      "fzfg": false,
      "metar_trigger": false,
      "taf_trigger": false,
      "metar": "METAR LPMA 112200Z 17003KT 140V200 9999 BKN015 18/13 Q1027",
      "taf": "TAF LPMA 111700Z 1118/1218 04010KT 9999 FEW015 SCT030"
    },
    {
      "icao": "LPPR",
      "alert": "OK",
      "vis_m": 9999,
      "fzfg": false,
      "metar_trigger": false,
      "taf_trigger": false,
      "metar": "METAR LPPR 112200Z 29007KT 260V320 9999 FEW015 BKN030 14/10 Q1015",
      "taf": "TAF LPPR 111700Z 1118/1218 26012KT 9999 BKN020"
    },
    {
      "icao": "LPPS",
      "alert": "OK",
      "vis_m": 9999,
      "fzfg": false,
      "metar_trigger": false,
      "taf_trigger": false,
      "metar": "METAR LPPS 112200Z 28007KT 9999 SCT015 17/11 Q1027",
      "taf": "TAF LPPS 111700Z 1118/1224 27007KT 9999 FEW015 BKN030"
    },
    {
      "icao": "LPPT",
      "alert": "OK",
      "vis_m": 9999,
      "fzfg": false,
      "metar_trigger": false,
      "taf_trigger": false,
      "metar": "METAR LPPT 112200Z 27009KT 210V310 9999 FEW007 BKN013 15/14 Q1019",
      "taf": "TAF LPPT 111700Z 1118/1224 24015KT 5000 BR SCT003 BKN006"
    },
    {
      "icao": "LQBK",
      "alert": "OK",
      "vis_m": 7000,
      "fzfg": false,
      "metar_trigger": false,
      "taf_trigger": false,
      "metar": "METAR LQBK 112200Z VRB02KT 7000 FEW045 07/07 Q0995 NOSIG",
      "taf": "TAF LQBK 111700Z 1118/1218 16005KT 7000 SCT045 TX13/1213Z TN06/1205Z"
    },
    {
      "icao": "LQSA",
      "alert": "OK",
      "vis_m": 9999,
      "fzfg": false,
      "metar_trigger": false,
      "taf_trigger": false,
      "metar": "METAR LQSA 112200Z 33002KT CAVOK 06/05 Q0996 NOSIG",
      "taf": "TAF LQSA 111700Z 1118/1218 11005KT 9999 BKN050 TX13/1213Z TN04/1205Z"
    },
    {
      "icao": "LQTZ",
      "alert": "OK",
      "vis_m": 9999,
      "fzfg": false,
      "metar_trigger": false,
      "taf_trigger": false,
      "metar": "METAR LQTZ 112200Z 34002KT CAVOK 06/04 Q0995",
      "taf": "TAF LQTZ 111700Z 1118/1218 VRB02KT 9999 SCT060 TX15/1213Z TN04/1205Z"
    },
    {
      "icao": "LRBC",
      "alert": "OK",
      "vis_m": 250,
      "fzfg": false,
      "metar_trigger": false,
      "taf_trigger": false,
      "metar": "METAR LRBC 112200Z 16012KT 0250 R16/0400N FG VV001 00/00 Q0998",
      "taf": "TAF LRBC 112000Z 1121/1206 17010KT 0600 FG OVC001"
    },
    {
      "icao": "LRBS",
      "alert": "OK",
      "vis_m": 4800,
      "fzfg": false,
      "metar_trigger": false,
      "taf_trigger": false,
      "metar": "METAR LRBS 112200Z 00000KT 4800 BR NSC M01/M02 Q1001 BECMG 3000 BR",
      "taf": ""
    },
    {
      "icao": "LRBV",
      "alert": "OK",
      "vis_m": 9999,
      "fzfg": false,
      "metar_trigger": false,
      "taf_trigger": false,
      "metar": "METAR LRBV 112200Z AUTO 18008KT 140V200 9999 FEW096/// 04/M00 Q0997",
      "taf": "TAF LRBV 112000Z 1121/1206 VRB04KT CAVOK"
    },
    {
      "icao": "LRCL",
      "alert": "OK",
      "vis_m": 9999,
      "fzfg": false,
      "metar_trigger": false,
      "taf_trigger": false,
      "metar": "METAR LRCL 112200Z 07004KT 040V120 9999 -RA OVC070 06/02 Q0996",
      "taf": "TAF LRCL 112000Z 1121/1206 VRB04KT CAVOK"
    },
    {
      "icao": "LRCV",
      "alert": "OK",
      "vis_m": 1500,
      "fzfg": false,
      "metar_trigger": false,
      "taf_trigger": false,
      "metar": "METAR LRCV 112200Z 25004KT 1500 R26/2000D BR SCT001 M02/M02 Q1001",
      "taf": "TAF LRCV 112000Z 1121/1206 VRB04KT 3000 BR SCT015"
    },
    {
      "icao": "LRIA",
      "alert": "OK",
      "vis_m": 9999,
      "fzfg": false,
      "metar_trigger": false,
      "taf_trigger": false,
      "metar": "METAR LRIA 112200Z 13009KT 9999 FEW008 01/00 Q0998",
      "taf": "TAF LRIA 112000Z 1121/1206 VRB04KT 9999 BKN010"
    },
    {
      "icao": "LROP",
      "alert": "OK",
      "vis_m": 4500,
      "fzfg": false,
      "metar_trigger": false,
      "taf_trigger": false,
      "metar": "METAR LROP 112200Z VRB01KT 4500 BR NSC M01/M01 Q1001 BECMG 3000 BR",
      "taf": ""
    },
    {
      "icao": "LRSB",
      "alert": "OK",
      "vis_m": 9999,
      "fzfg": false,
      "metar_trigger": false,
      "taf_trigger": false,
      "metar": "METAR LRSB 112200Z 26003KT CAVOK M00/M02 Q0996",
      "taf": "TAF LRSB 111700Z 1118/1218 VRB04KT CAVOK"
    },
    {
      "icao": "LRSM",
      "alert": "OK",
      "vis_m": 9999,
      "fzfg": false,
      "metar_trigger": false,
      "taf_trigger": false,
      "metar": "METAR LRSM 112200Z AUTO 19003KT 9999 -DZ SCT031/// BKN038/// BKN046/// 07/03 Q0995",
      "taf": "TAF LRSM 111400Z 1115/1124 14007KT CAVOK"
    },
    {
      "icao": "LRSV",
      "alert": "OK",
      "vis_m": 7000,
      "fzfg": false,
      "metar_trigger": false,
      "taf_trigger": false,
      "metar": "METAR LRSV 112200Z 16003KT 7000 NSC M00/M00 Q0995",
      "taf": "TAF LRSV 112000Z 1121/1206 20007KT CAVOK"
    },
    {
      "icao": "LRTM",
      "alert": "OK",
      "vis_m": 9999,
      "fzfg": false,
      "metar_trigger": false,
      "taf_trigger": false,
      "metar": "METAR LRTM 112200Z AUTO 09005KT 9999 NCD 03/01 Q0997",
      "taf": "TAF LRTM 112000Z 1121/1206 VRB04KT CAVOK"
    },
    {
      "icao": "LRTR",
      "alert": "OK",
      "vis_m": 9999,
      "fzfg": false,
      "metar_trigger": false,
      "taf_trigger": false,
      "metar": "METAR LRTR 112200Z 09003KT 050V110 CAVOK 04/03 Q0997",
      "taf": "TAF LRTR 111700Z 1118/1218 12006KT CAVOK"
    },
    {
      "icao": "LTAC",
      "alert": "OK",
      "vis_m": 9999,
      "fzfg": false,
      "metar_trigger": false,
      "taf_trigger": false,
      "metar": "METAR LTAC 112150Z 30001KT 9999 SCT026 BKN100 03/02 Q1009 NOSIG RMK RWY21C VRB01KT RWY03L 00000KT RWY21R 00000KT RWY03R 00000KT RWY21L 00000KT",
      "taf": "TAF LTAC 111640Z 1118/1218 VRB02KT 9999 SCT040 SCT100"
    },
    {
      "icao": "LTFM",
      "alert": "OK",
      "vis_m": 7000,
      "fzfg": false,
      "metar_trigger": false,
      "taf_trigger": false,
      "metar": "METAR LTFM 112150Z 20004KT 7000 SCT040 SCT090 05/04 Q1005 NOSIG RMK RWY17L 18009KT RWY34L 18003KT RWY16R 17010KT RWY36 16007KT RWY18 18008KT",
      "taf": ""
    },
    {
      "icao": "LUKK",
      "alert": "OK",
      "vis_m": 9999,
      "fzfg": false,
      "metar_trigger": false,
      "taf_trigger": false,
      "metar": "METAR LUKK 112200Z 20009KT 9999 OVC009 02/01 Q1000 NOSIG",
      "taf": "TAF LUKK 111700Z 1118/1218 16009KT 9999 OVC018"
    },
    {
      "icao": "LWOH",
      "alert": "OK",
      "vis_m": null,
      "fzfg": false,
      "metar_trigger": false,
      "taf_trigger": false,
      "metar": "",
      "taf": "TAF LWOH 112030Z 1121/1221 VRB02KT 9999 RA SCT015 OVC040"
    },
    {
      "icao": "LWSK",
      "alert": "OK",
      "vis_m": 9999,
      "fzfg": false,
      "metar_trigger": false,
      "taf_trigger": false,
      "metar": "METAR LWSK 112150Z COR 13007KT 9999 -RA BKN018 OVC040 08/06 Q1000 NOSIG",
      "taf": ""
    },
    {
      "icao": "LYBE",
      "alert": "OK",
      "vis_m": 9999,
      "fzfg": false,
      "metar_trigger": false,
      "taf_trigger": false,
      "metar": "METAR LYBE 112200Z VRB01KT CAVOK 08/04 Q0996 NOSIG",
      "taf": "TAF LYBE 111700Z 1118/1218 13008KT CAVOK TX18/1212Z TN04/1206Z"
    },
    {
      "icao": "LYNI",
      "alert": "OK",
      "vis_m": 9999,
      "fzfg": false,
      "metar_trigger": false,
      "taf_trigger": false,
      "metar": "METAR LYNI 112200Z 10008KT 080V150 9999 FEW090 07/04 Q0999 NOSIG",
      "taf": "TAF LYNI 111700Z 1118/1218 12005KT 9999 SCT050 TX14/1212Z TN03/1206Z"
    },
    {
      "icao": "LYPG",
      "alert": "OK",
      "vis_m": 7000,
      "fzfg": false,
      "metar_trigger": false,
      "taf_trigger": false,
      "metar": "METAR LYPG 112200Z 28002KT 7000 3000S -RA FEW030 SCT050 OVC070 09/09 Q0998 NOSIG",
      "taf": "TAF LYPG 111700Z 1118/1218 36005KT 8000 FEW007 BKN040 OVC070 TX11/1213Z TN08/1205Z"
    },
    {
      "icao": "LZIB",
      "alert": "OK",
      "vis_m": 3200,
      "fzfg": false,
      "metar_trigger": false,
      "taf_trigger": false,
      "metar": "METAR LZIB 112200Z VRB01KT 3200 BR FEW007 SCT045 03/03 Q0991 TEMPO 1400 -RA BR BKN005",
      "taf": "TAF LZIB 111715Z 1118/1218 03006KT 7000 SCT004 BKN025"
    },
    {
      "icao": "LZKZ",
      "alert": "OK",
      "vis_m": 900,
      "fzfg": false,
      "metar_trigger": false,
      "taf_trigger": false,
      "metar": "METAR LZKZ 112200Z 12004KT 0900 R01/P2000N FG OVC008 01/01 Q0993 TEMPO 1500 BR",
      "taf": "TAF LZKZ 111715Z 1118/1218 21005KT 3500 BR BKN006 OVC010"
    },
    {
      "icao": "LZTT",
      "alert": "OK",
      "vis_m": 9999,
      "fzfg": false,
      "metar_trigger": false,
      "taf_trigger": false,
      "metar": "METAR LZTT 112200Z 27008KT 9999 FEW016 SCT040 03/01 Q0990",
      "taf": ""
    },
    {
      "icao": "OEJN",
      "alert": "OK",
      "vis_m": 9999,
      "fzfg": false,
      "metar_trigger": false,
      "taf_trigger": false,
      "metar": "METAR OEJN 112200Z 34004KT CAVOK 24/19 Q1013 NOSIG",
      "taf": "TAF OEJN 111700Z 1118/1224 36006KT 7000 NSC"
    },
    {
      "icao": "OEMA",
      "alert": "OK",
      "vis_m": 9999,
      "fzfg": false,
      "metar_trigger": false,
      "taf_trigger": false,
      "metar": "METAR OEMA 112200Z 26006KT CAVOK 25/09 Q1018 NOSIG",
      "taf": "TAF OEMA 111700Z 1118/1224 VRB03KT CAVOK"
    },
    {
      "icao": "OJAI",
      "alert": "OK",
      "vis_m": 4000,
      "fzfg": false,
      "metar_trigger": false,
      "taf_trigger": false,
      "metar": "METAR OJAI 112100Z 27006KT 4000 HZ NSC 09/04 Q1017 NOSIG",
      "taf": "TAF OJAI 111700Z 1118/1224 25012KT 5000 HZ FEW035"
    },
    {
      "icao": "OMAA",
      "alert": "OK",
      "vis_m": 8000,
      "fzfg": false,
      "metar_trigger": false,
      "taf_trigger": false,
      "metar": "METAR OMAA 112200Z 35002KT 8000 NSC 21/18 Q1017 NOSIG",
      "taf": "TAF OMAA 111700Z 1118/1300 01006KT 8000 NSC"
    },
    {
      "icao": "OMDB",
      "alert": "OK",
      "vis_m": 9999,
      "fzfg": false,
      "metar_trigger": false,
      "taf_trigger": false,
      "metar": "METAR OMDB 112200Z 09005KT 050V130 CAVOK 22/15 Q1017 NOSIG",
      "taf": "TAF OMDB 111700Z 1118/1300 09007KT 8000 NSC"
    },
    {
      "icao": "UAAA",
      "alert": "OK",
      "vis_m": 9999,
      "fzfg": false,
      "metar_trigger": false,
      "taf_trigger": false,
      "metar": "METAR UAAA 112200Z 04002MPS 360V070 9999 OVC004 M02/M03 Q1022 NOSIG RMK QBB130",
      "taf": "TAF UAAA 111702Z 1118/1218 02003G08MPS 1500 -SN BR BKN011 OVC020 TX00/1209Z TNM03/1203Z"
    },
    {
      "icao": "UBBB",
      "alert": "OK",
      "vis_m": 9999,
      "fzfg": false,
      "metar_trigger": false,
      "taf_trigger": false,
      "metar": "METAR UBBB 112200Z 15006KT 9999 OVC021 04/02 Q1016 NOSIG",
      "taf": "TAF UBBB 111702Z 1118/1218 16005KT 9999 SCT012 BKN030 TX07/1210Z TN00/1201Z"
    },
    {
      "icao": "UDSG",
      "alert": "OK",
      "vis_m": 1300,
      "fzfg": false,
      "metar_trigger": false,
      "taf_trigger": false,
      "metar": "METAR UDSG 112200Z 09001KT 1300 R02/P2000D BR OVC005 M01/M01 Q1014 NOSIG",
      "taf": "TAF UDSG 111658Z 1118/1218 VRB06KT 3000 BR OVC020"
    },
    {
      "icao": "UDYZ",
      "alert": "OK",
      "vis_m": 3400,
      "fzfg": false,
      "metar_trigger": false,
      "taf_trigger": false,
      "metar": "METAR UDYZ 112200Z 36001KT 3400 BR BKN020 02/02 Q1015 NOSIG",
      "taf": "TAF UDYZ 111700Z 1118/1218 VRB04KT 6000 BKN020"
    },
    {
      "icao": "UGKO",
      "alert": "OK",
      "vis_m": 9999,
      "fzfg": false,
      "metar_trigger": false,
      "taf_trigger": false,
      "metar": "METAR UGKO 112200Z 10011KT 9999 BKN098 05/00 Q1012 NOSIG",
      "taf": "TAF UGKO 111700Z 1118/1218 08015KT 9999 BKN050 TX17/1211Z TN04/1202Z"
    }
  ]
}