{
  "ts_utc": "2026-01-28T11:02:56Z",
  "threshold_m": 150,
  "source": "stations_override.txt (ICAO list) + aviationweather.gov (METAR/TAF raw)",
  "station_count": 159,
  "stations": [
    {
      "icao": "BIKF",
      "alert": "OK",
      "vis_m": 9999,
      "fzfg": false,
      "metar_trigger": false,
      "taf_trigger": false,
      "metar": "METAR BIKF 281030Z 08019KT CAVOK 05/M06 Q0998",
      "taf": "TAF BIKF 281033Z 2812/2912 07020G30KT CAVOK TX05/2812Z TN02/2904Z"
    },
    {
      "icao": "BKPR",
      "alert": "OK",
      "vis_m": 9999,
      "fzfg": false,
      "metar_trigger": false,
      "taf_trigger": false,
      "metar": "METAR BKPR 281100Z 18012KT 9999 SCT080 05/02 Q1004 NOSIG",
      "taf": "TAF BKPR 280530Z 2806/2906 17005KT 1200 BCFG BKN005"
    },
    {
      "icao": "EBCI",
      "alert": "OK",
      "vis_m": 4500,
      "fzfg": false,
      "metar_trigger": false,
      "taf_trigger": false,
      "metar": "METAR EBCI 281050Z 31005KT 280V350 4500 BR FEW045 05/04 Q0995 TEMPO 1200 BR",
      "taf": "TAF EBCI 280520Z 2806/2912 33003KT 6000 BKN008"
    },
    {
      "icao": "EDDB",
      "alert": "OK",
      "vis_m": 9999,
      "fzfg": false,
      "metar_trigger": false,
      "taf_trigger": false,
      "metar": "METAR EDDB 281050Z AUTO 07011KT 9999 OVC027 M00/M02 Q1000 NOSIG",
      "taf": "TAF EDDB 280500Z 2806/2906 07009KT 9000 SCT008 OVC015"
    },
    {
      "icao": "EDDH",
      "alert": "OK",
      "vis_m": 9999,
      "fzfg": false,
      "metar_trigger": false,
      "taf_trigger": false,
      "metar": "METAR EDDH 281050Z AUTO 10011KT 060V130 9999 OVC016 00/M03 Q1001 TEMPO OVC014",
      "taf": "TAF EDDH 280500Z 2806/2912 09011KT 9999 OVC012"
    },
    {
      "icao": "EDDK",
      "alert": "OK",
      "vis_m": 9999,
      "fzfg": false,
      "metar_trigger": false,
      "taf_trigger": false,
      "metar": "METAR EDDK 281050Z AUTO VRB01KT 9999 BKN006 OVC012 OVC024 05/03 Q0994 TEMPO OVC007",
      "taf": ""
    },
    {
      "icao": "EDDN",
      "alert": "OK",
      "vis_m": 9999,
      "fzfg": false,
      "metar_trigger": false,
      "taf_trigger": false,
      "metar": "METAR EDDN 281050Z AUTO 05006KT 360V090 CAVOK 03/M00 Q0992 NOSIG",
      "taf": "TAF EDDN 280500Z 2806/2906 05006KT 7000 NSC"
    },
    {
      "icao": "EDDS",
      "alert": "OK",
      "vis_m": 6000,
      "fzfg": false,
      "metar_trigger": false,
      "taf_trigger": false,
      "metar": "METAR EDDS 281050Z AUTO 35005KT 320V030 6000 1900 BR BKN002 BKN006 03/02 Q0990 NOSIG",
      "taf": ""
    },
    {
      "icao": "EDFH",
      "alert": "OK",
      "vis_m": 500,
      "fzfg": false,
      "metar_trigger": false,
      "taf_trigger": false,
      "metar": "METAR EDFH 281050Z 03003KT 0500 R21/P2000N -RA FG VV/// 03/03 Q0992",
      "taf": "TAF EDFH 280500Z 2806/2906 VRB03KT 2000 -RADZ OVC002"
    },
    {
      "icao": "EDJA",
      "alert": "OK",
      "vis_m": 6000,
      "fzfg": false,
      "metar_trigger": false,
      "taf_trigger": false,
      "metar": "METAR EDJA 281050Z VRB02KT 6000 OVC004 M00/M02 Q0989",
      "taf": "TAF EDJA 280800Z 2809/2818 03005KT 6000 BKN003"
    },
    {
      "icao": "EDLW",
      "alert": "OK",
      "vis_m": 5000,
      "fzfg": false,
      "metar_trigger": false,
      "taf_trigger": false,
      "metar": "METAR EDLW 281050Z 02005KT 340V050 5000 BR OVC002 01/01 Q0994",
      "taf": "TAF EDLW 280500Z 2806/2906 06007KT 3000 BR OVC010"
    },
    {
      "icao": "EDNY",
      "alert": "OK",
      "vis_m": 9999,
      "fzfg": false,
      "metar_trigger": false,
      "taf_trigger": false,
      "metar": "METAR EDNY 281050Z 01004KT 330V060 9999 OVC010 02/00 Q0990",
      "taf": "TAF EDNY 280800Z 2809/2818 VRB03KT 9999 FEW007"
    },
    {
      "icao": "EDSB",
      "alert": "OK",
      "vis_m": 9000,
      "fzfg": false,
      "metar_trigger": false,
      "taf_trigger": false,
      "metar": "METAR EDSB 281050Z 01009KT 9000 OVC004 05/04 Q0992",
      "taf": ""
    },
    {
      "icao": "EETN",
      "alert": "OK",
      "vis_m": 9999,
      "fzfg": false,
      "metar_trigger": false,
      "taf_trigger": false,
      "metar": "METAR EETN 281050Z 07012KT 9999 -SN OVC009 M09/M10 Q1014 NOSIG",
      "taf": "TAF EETN 280530Z 2806/2906 07010KT 9999 OVC008"
    },
    {
      "icao": "EFTU",
      "alert": "OK",
      "vis_m": 9999,
      "fzfg": false,
      "metar_trigger": false,
      "taf_trigger": false,
      "metar": "METAR EFTU 281050Z AUTO 10009KT CAVOK M12/M14 Q1016",
      "taf": "TAF EFTU 280825Z 2809/2909 08005KT CAVOK"
    },
    {
      "icao": "EGBB",
      "alert": "OK",
      "vis_m": 9999,
      "fzfg": false,
      "metar_trigger": false,
      "taf_trigger": false,
      "metar": "METAR EGBB 281050Z 11003KT CAVOK 04/03 Q0994",
      "taf": "TAF EGBB 280454Z 2806/2906 16005KT 9999 FEW025"
    },
    {
      "icao": "EGGP",
      "alert": "OK",
      "vis_m": 9999,
      "fzfg": false,
      "metar_trigger": false,
      "taf_trigger": false,
      "metar": "METAR EGGP 281050Z 12005KT 080V140 CAVOK 06/03 Q0993",
      "taf": "TAF EGGP 280454Z 2806/2906 15004KT 9999 FEW030"
    },
    {
      "icao": "EGGW",
      "alert": "OK",
      "vis_m": 9999,
      "fzfg": false,
      "metar_trigger": false,
      "taf_trigger": false,
      "metar": "METAR EGGW 281050Z AUTO 13006KT 9999 NCD 04/04 Q0994",
      "taf": "TAF EGGW 280457Z 2806/2906 VRB05KT 9999 FEW020"
    },
    {
      "icao": "EGKK",
      "alert": "OK",
      "vis_m": 9999,
      "fzfg": false,
      "metar_trigger": false,
      "taf_trigger": false,
      "metar": "METAR EGKK 281050Z VRB03KT 9999 FEW012 06/05 Q0994",
      "taf": "TAF EGKK 280455Z 2806/2912 14003KT 9999 FEW042"
    },
    {
      "icao": "EGNM",
      "alert": "OK",
      "vis_m": 9999,
      "fzfg": false,
      "metar_trigger": false,
      "taf_trigger": false,
      "metar": "METAR EGNM 281050Z VRB02KT 9999 VCFG NSC 05/04 Q0993",
      "taf": ""
    },
    {
      "icao": "EGPD",
      "alert": "OK",
      "vis_m": 9999,
      "fzfg": false,
      "metar_trigger": false,
      "taf_trigger": false,
      "metar": "METAR EGPD 281050Z AUTO 13010KT 090V150 9999 OVC005 06/05 Q0994 TEMPO RA",
      "taf": ""
    },
    {
      "icao": "EGPF",
      "alert": "OK",
      "vis_m": 9999,
      "fzfg": false,
      "metar_trigger": false,
      "taf_trigger": false,
      "metar": "METAR EGPF 281050Z AUTO 07007KT 9999 NCD 06/05 Q0993",
      "taf": "TAF EGPF 280459Z 2806/2906 09005KT 9999 FEW018"
    },
    {
      "icao": "EHBK",
      "alert": "OK",
      "vis_m": 2100,
      "fzfg": false,
      "metar_trigger": false,
      "taf_trigger": false,
      "metar": "METAR EHBK 281055Z AUTO 35003KT 320V030 2100 BR BKN002/// BKN005/// OVC007/// 06/05 Q0995 NOSIG",
      "taf": "TAF EHBK 280512Z 2806/2912 VRB02KT 9999 BKN030"
    },
    {
      "icao": "EHEH",
      "alert": "OK",
      "vis_m": null,
      "fzfg": false,
      "metar_trigger": false,
      "taf_trigger": false,
      "metar": "",
      "taf": ""
    },
    {
      "icao": "EKBI",
      "alert": "OK",
      "vis_m": 9999,
      "fzfg": false,
      "metar_trigger": false,
      "taf_trigger": false,
      "metar": "METAR EKBI 281050Z AUTO 08013KT 9999 -SN OVC010/// M01/M02 Q1004",
      "taf": "TAF EKBI 280827Z 2809/2909 08015KT 9999 -SN BKN008"
    },
    {
      "icao": "EKCH",
      "alert": "OK",
      "vis_m": 9999,
      "fzfg": false,
      "metar_trigger": false,
      "taf_trigger": false,
      "metar": "METAR EKCH 281050Z 05013KT 9999 BKN013 M01/M04 Q1006 BECMG BKN015",
      "taf": "TAF EKCH 280827Z 2809/2909 06016KT 9999 FEW015"
    },
    {
      "icao": "ENAL",
      "alert": "OK",
      "vis_m": 9999,
      "fzfg": false,
      "metar_trigger": false,
      "taf_trigger": false,
      "metar": "METAR ENAL 281050Z 16007KT CAVOK 00/M06 Q1007",
      "taf": "TAF ENAL 280800Z 2809/2818 16006KT CAVOK"
    },
    {
      "icao": "ENBR",
      "alert": "OK",
      "vis_m": 9999,
      "fzfg": false,
      "metar_trigger": false,
      "taf_trigger": false,
      "metar": "METAR ENBR 281050Z 00000KT CAVOK M06/M10 Q1007 NOSIG RMK WIND 1200FT 02009KT",
      "taf": "TAF ENBR 280500Z 2806/2906 08005KT CAVOK"
    },
    {
      "icao": "ENGM",
      "alert": "OK",
      "vis_m": 9000,
      "fzfg": false,
      "metar_trigger": false,
      "taf_trigger": false,
      "metar": "METAR ENGM 281050Z 04008KT 9000 -SN OVC025 M09/M12 Q1014 NOSIG",
      "taf": "TAF ENGM 280500Z 2806/2906 02005KT 9999 -SN BKN024"
    },
    {
      "icao": "ENHD",
      "alert": "OK",
      "vis_m": 9999,
      "fzfg": false,
      "metar_trigger": false,
      "taf_trigger": false,
      "metar": "METAR ENHD 281050Z 13004KT 9999 FEW047 M01/M10 Q1008",
      "taf": "TAF ENHD 280800Z 2809/2818 07005KT 9999 SCT040"
    },
    {
      "icao": "ENTC",
      "alert": "OK",
      "vis_m": 5000,
      "fzfg": false,
      "metar_trigger": false,
      "taf_trigger": false,
      "metar": "METAR ENTC 281050Z 20014KT 5000 -SN SCT007 SCT009 BKN019 M06/M08 Q1013 NOSIG RMK WIND 2600FT 19008KT",
      "taf": ""
    },
    {
      "icao": "ENTO",
      "alert": "OK",
      "vis_m": 9999,
      "fzfg": false,
      "metar_trigger": false,
      "taf_trigger": false,
      "metar": "METAR ENTO 281050Z 03010KT 9999 -SN OVC027 M06/M10 Q1014 NOSIG",
      "taf": "TAF ENTO 280500Z 2806/2906 02008KT 9999 BKN020"
    },
    {
      "icao": "ENVA",
      "alert": "OK",
      "vis_m": 9999,
      "fzfg": false,
      "metar_trigger": false,
      "taf_trigger": false,
      "metar": "METAR ENVA 281050Z 11010KT CAVOK M08/M18 Q1011 NOSIG RMK WIND 670FT 14023KT",
      "taf": "TAF ENVA 280500Z 2806/2906 10008KT CAVOK"
    },
    {
      "icao": "ENZV",
      "alert": "OK",
      "vis_m": 9999,
      "fzfg": false,
      "metar_trigger": false,
      "taf_trigger": false,
      "metar": "METAR ENZV 281050Z 11007KT CAVOK M02/M16 Q1008 NOSIG",
      "taf": "TAF ENZV 280500Z 2806/2906 11008KT CAVOK"
    },
    {
      "icao": "EPGD",
      "alert": "OK",
      "vis_m": 9000,
      "fzfg": false,
      "metar_trigger": false,
      "taf_trigger": false,
      "metar": "METAR EPGD 281030Z 04008KT 9000 OVC005 M03/M03 Q1002",
      "taf": ""
    },
    {
      "icao": "EPKK",
      "alert": "OK",
      "vis_m": 4000,
      "fzfg": false,
      "metar_trigger": false,
      "taf_trigger": false,
      "metar": "METAR EPKK 281030Z 04003KT 350V080 4000 BR BKN041 01/M01 Q0998",
      "taf": "TAF EPKK 280830Z 2809/2909 VRB02KT 3500 BR BKN040"
    },
    {
      "icao": "EPKT",
      "alert": "OK",
      "vis_m": 4800,
      "fzfg": false,
      "metar_trigger": false,
      "taf_trigger": false,
      "metar": "METAR EPKT 281030Z 04004KT 360V060 4800 BR SCT006 OVC042 01/M00 Q0998",
      "taf": "TAF EPKT 280530Z 2806/2906 VRB02KT 9999 OVC020"
    },
    {
      "icao": "EPLB",
      "alert": "OK",
      "vis_m": 6000,
      "fzfg": false,
      "metar_trigger": false,
      "taf_trigger": false,
      "metar": "METAR EPLB 281030Z VRB01KT 6000 1800E NSC 01/00 Q0998",
      "taf": "TAF EPLB 280530Z 2806/2906 VRB02KT 3000 BR SCT049"
    },
    {
      "icao": "EPMO",
      "alert": "OK",
      "vis_m": 5000,
      "fzfg": false,
      "metar_trigger": false,
      "taf_trigger": false,
      "metar": "METAR EPMO 281030Z 34005KT 5000 BR BKN009 M00/M01 Q1000",
      "taf": "TAF EPMO 280530Z 2806/2906 VRB02KT 2000 -SN BR BKN007"
    },
    {
      "icao": "EPPO",
      "alert": "OK",
      "vis_m": 6000,
      "fzfg": false,
      "metar_trigger": false,
      "taf_trigger": false,
      "metar": "METAR EPPO 281030Z 04004KT 6000 BKN020 00/M02 Q1001",
      "taf": "TAF EPPO 280530Z 2806/2906 07007KT 2000 BR OVC003"
    },
    {
      "icao": "EPRA",
      "alert": "OK",
      "vis_m": 2000,
      "fzfg": false,
      "metar_trigger": false,
      "taf_trigger": false,
      "metar": "METAR EPRA 281030Z 32006KT 290V350 2000 BR OVC003 M00/M01 Q0999",
      "taf": "TAF EPRA 280830Z 2809/2818 35008KT 5000 BR OVC005"
    },
    {
      "icao": "EPRZ",
      "alert": "OK",
      "vis_m": 9999,
      "fzfg": false,
      "metar_trigger": false,
      "taf_trigger": false,
      "metar": "METAR EPRZ 281030Z 19008KT 9999 BKN034 03/00 Q0998",
      "taf": "TAF EPRZ 280530Z 2806/2906 19007KT 6000 NSC"
    },
    {
      "icao": "EPSC",
      "alert": "OK",
      "vis_m": 2600,
      "fzfg": false,
      "metar_trigger": false,
      "taf_trigger": false,
      "metar": "METAR EPSC 281030Z 03003KT 360V090 2600 BR BKN002 OVC003 M01/M01 Q1002",
      "taf": ""
    },
    {
      "icao": "EPSY",
      "alert": "OK",
      "vis_m": 3500,
      "fzfg": false,
      "metar_trigger": false,
      "taf_trigger": false,
      "metar": "METAR EPSY 281030Z 02007KT 3500 BR OVC003 M02/M03 Q1000",
      "taf": "TAF EPSY 280830Z 2809/2818 01006KT 2000 BR OVC002"
    },
    {
      "icao": "EPWA",
      "alert": "OK",
      "vis_m": 2700,
      "fzfg": false,
      "metar_trigger": false,
      "taf_trigger": false,
      "metar": "METAR EPWA 281030Z 32006KT 2700 BR BKN005 M00/M01 Q1000 BECMG 4000 BR",
      "taf": ""
    },
    {
      "icao": "EPWR",
      "alert": "OK",
      "vis_m": 8000,
      "fzfg": false,
      "metar_trigger": false,
      "taf_trigger": false,
      "metar": "METAR EPWR 281030Z 06006KT 8000 SCT010 OVC038 01/M01 Q0999",
      "taf": "TAF EPWR 280830Z 2809/2909 08006KT 7000 BKN008 BKN013"
    },
    {
      "icao": "ESGG",
      "alert": "OK",
      "vis_m": 9999,
      "fzfg": false,
      "metar_trigger": false,
      "taf_trigger": false,
      "metar": "METAR ESGG 281050Z 08014KT 9999 FEW025 M03/M09 Q1008",
      "taf": "TAF ESGG 280830Z 2809/2909 07012KT 9999 SCT025"
    },
    {
      "icao": "ESKN",
      "alert": "OK",
      "vis_m": 9999,
      "fzfg": false,
      "metar_trigger": false,
      "taf_trigger": false,
      "metar": "METAR ESKN 281050Z 04010KT 010V080 9999 BKN035 M03/M07 Q1013",
      "taf": "TAF ESKN 280830Z 2809/2909 02010KT 9999 BKN030"
    },
    {
      "icao": "ESMS",
      "alert": "OK",
      "vis_m": 9999,
      "fzfg": false,
      "metar_trigger": false,
      "taf_trigger": false,
      "metar": "METAR ESMS 281050Z 07015KT 9999 OVC010 M01/M03 Q1005",
      "taf": ""
    },
    {
      "icao": "ESSA",
      "alert": "OK",
      "vis_m": 9999,
      "fzfg": false,
      "metar_trigger": false,
      "taf_trigger": false,
      "metar": "METAR ESSA 281050Z 04010KT 9999 SCT016 M06/M08 Q1015 NOSIG",
      "taf": "TAF ESSA 280830Z 2809/2909 05008KT 9999 BKN015"
    },
    {
      "icao": "EYKA",
      "alert": "OK",
      "vis_m": 9000,
      "fzfg": false,
      "metar_trigger": false,
      "taf_trigger": false,
      "metar": "METAR EYKA 281050Z 02006KT 340V050 9000 -SN OVC010 M06/M08 Q1002",
      "taf": ""
    },
    {
      "icao": "EYPA",
      "alert": "OK",
      "vis_m": 9999,
      "fzfg": false,
      "metar_trigger": false,
      "taf_trigger": false,
      "metar": "METAR EYPA 281050Z 07012KT 040V100 9999 -SN NSC M07/M10 Q1005",
      "taf": "TAF EYPA 281100Z 2812/2912 06011KT 5000 SN BR SCT020"
    },
    {
      "icao": "EYVI",
      "alert": "OK",
      "vis_m": 9999,
      "fzfg": false,
      "metar_trigger": false,
      "taf_trigger": false,
      "metar": "METAR EYVI 281050Z 04008KT 9999 -SN OVC007 M05/M06 Q1000 TEMPO 3000 SN BR BKN005 OVC015",
      "taf": ""
    },
    {
      "icao": "GCFV",
      "alert": "OK",
      "vis_m": 9999,
      "fzfg": false,
      "metar_trigger": false,
      "taf_trigger": false,
      "metar": "METAR GCFV 281030Z 25006KT 230V320 9999 BKN015 20/16 Q1023",
      "taf": "TAF GCFV 280800Z 2809/2909 34012KT 9999 SCT030 TX22/2814Z TN14/2906Z"
    },
    {
      "icao": "GCLP",
      "alert": "OK",
      "vis_m": 9999,
      "fzfg": false,
      "metar_trigger": false,
      "taf_trigger": false,
      "metar": "METAR GCLP 281030Z VRB03KT 9999 SCT020 20/15 Q1023 NOSIG",
      "taf": "TAF GCLP 280800Z 2809/2909 VRB05KT 9999 FEW030 TX22/2814Z TN15/2906Z"
    },
    {
      "icao": "GCTS",
      "alert": "OK",
      "vis_m": 9999,
      "fzfg": false,
      "metar_trigger": false,
      "taf_trigger": false,
      "metar": "METAR GCTS 281030Z 15004KT 110V200 9999 FEW030 21/14 Q1023 NOSIG",
      "taf": "TAF GCTS 280800Z 2809/2909 VRB05KT 9999 SCT030 TX22/2814Z TN16/2906Z"
    },
    {
      "icao": "GMAD",
      "alert": "OK",
      "vis_m": 8000,
      "fzfg": false,
      "metar_trigger": false,
      "taf_trigger": false,
      "metar": "METAR GMAD 281030Z 21004KT 8000 SCT006 BKN016 16/16 Q1022 NOSIG",
      "taf": "TAF GMAD 280500Z 2806/2912 22005KT 8000 SCT020 BKN080"
    },
    {
      "icao": "GMMN",
      "alert": "OK",
      "vis_m": 9999,
      "fzfg": false,
      "metar_trigger": false,
      "taf_trigger": false,
      "metar": "METAR GMMN 281030Z 22020KT 190V250 9999 BKN010 15/13 Q1018 NOSIG",
      "taf": "TAF GMMN 280500Z 2806/2912 22015KT 9999 BKN008"
    },
    {
      "icao": "GMMX",
      "alert": "OK",
      "vis_m": 8000,
      "fzfg": false,
      "metar_trigger": false,
      "taf_trigger": false,
      "metar": "METAR GMMX 281030Z 22005KT 150V260 8000 SCT020 18/13 Q1020 NOSIG",
      "taf": "TAF GMMX 280500Z 2806/2912 06006KT 8000 SCT023 SCT080"
    },
    {
      "icao": "HEGN",
      "alert": "OK",
      "vis_m": null,
      "fzfg": false,
      "metar_trigger": false,
      "taf_trigger": false,
      "metar": "",
      "taf": "TAF HEGN 280900Z 2809/2912 34018KT CAVOK"
    },
    {
      "icao": "HEMA",
      "alert": "OK",
      "vis_m": null,
      "fzfg": false,
      "metar_trigger": false,
      "taf_trigger": false,
      "metar": "",
      "taf": ""
    },
    {
      "icao": "HESH",
      "alert": "OK",
      "vis_m": null,
      "fzfg": false,
      "metar_trigger": false,
      "taf_trigger": false,
      "metar": "",
      "taf": ""
    },
    {
      "icao": "HESX",
      "alert": "OK",
      "vis_m": null,
      "fzfg": false,
      "metar_trigger": false,
      "taf_trigger": false,
      "metar": "",
      "taf": "TAF HESX 280500Z 2806/2912 24009KT 6000 SCT030"
    },
    {
      "icao": "LATI",
      "alert": "OK",
      "vis_m": 9999,
      "fzfg": false,
      "metar_trigger": false,
      "taf_trigger": false,
      "metar": "METAR LATI 281050Z 14009KT 9999 SCT070 BKN090 14/01 Q1005 NOSIG",
      "taf": "TAF LATI 280500Z 2806/2906 VRB05KT CAVOK TX15/2812Z TN05/2905Z"
    },
    {
      "icao": "LBPD",
      "alert": "OK",
      "vis_m": 9999,
      "fzfg": false,
      "metar_trigger": false,
      "taf_trigger": false,
      "metar": "METAR LBPD 281100Z AUTO 06003KT 010V130 9999 NCD 10/03 Q1006 NOSIG",
      "taf": "TAF LBPD 280500Z 2806/2906 VRB04KT CAVOK"
    },
    {
      "icao": "LBSF",
      "alert": "OK",
      "vis_m": 5000,
      "fzfg": false,
      "metar_trigger": false,
      "taf_trigger": false,
      "metar": "METAR LBSF 281100Z VRB02KT 5000 BR OVC003 01/00 Q1005 TEMPO 3000 BR",
      "taf": ""
    },
    {
      "icao": "LBWN",
      "alert": "OK",
      "vis_m": 9999,
      "fzfg": false,
      "metar_trigger": false,
      "taf_trigger": false,
      "metar": "METAR LBWN 281100Z AUTO 19012KT 9999 BKN026/// 11/06 Q1006 NOSIG",
      "taf": ""
    },
    {
      "icao": "LCLK",
      "alert": "OK",
      "vis_m": 5000,
      "fzfg": false,
      "metar_trigger": false,
      "taf_trigger": false,
      "metar": "METAR LCLK 281100Z 13006KT 5000 DU SCT042 18/13 Q1011 NOSIG",
      "taf": "TAF LCLK 280530Z 2806/2906 33006KT 9999 FEW020 SCT040"
    },
    {
      "icao": "LCPH",
      "alert": "OK",
      "vis_m": 6000,
      "fzfg": false,
      "metar_trigger": false,
      "taf_trigger": false,
      "metar": "METAR LCPH 281100Z 15005KT 090V160 6000 SCT025 BKN030 FEW035TCU 16/12 Q1011 NOSIG",
      "taf": "TAF LCPH 280530Z 2806/2906 08009KT 9999 FEW020 SCT050"
    },
    {
      "icao": "LEAL",
      "alert": "OK",
      "vis_m": 9999,
      "fzfg": false,
      "metar_trigger": false,
      "taf_trigger": false,
      "metar": "SPECI LEAL 281039Z VRB03KT 9999 -RA FEW025 SCT048 10/10 Q0996 RERA NOSIG",
      "taf": "TAF LEAL 280500Z 2806/2906 27010KT 9999 FEW040 TX20/2814Z TN10/2807Z"
    },
    {
      "icao": "LEBB",
      "alert": "OK",
      "vis_m": 9999,
      "fzfg": false,
      "metar_trigger": false,
      "taf_trigger": false,
      "metar": "METAR LEBB 281030Z 14008G19KT 070V210 CAVOK 10/01 Q0993 NOSIG",
      "taf": "TAF LEBB 280500Z 2806/2906 22009KT 9999 FEW030 TX10/2816Z TN04/2806Z"
    },
    {
      "icao": "LEBL",
      "alert": "OK",
      "vis_m": 9999,
      "fzfg": false,
      "metar_trigger": false,
      "taf_trigger": false,
      "metar": "METAR LEBL 281030Z 25013KT 9999 FEW040 10/02 Q0996 NOSIG",
      "taf": "TAF LEBL 280500Z 2806/2906 23008KT 9999 FEW020 TX12/2812Z TN07/2806Z"
    },
    {
      "icao": "LECH",
      "alert": "OK",
      "vis_m": 8000,
      "fzfg": false,
      "metar_trigger": false,
      "taf_trigger": false,
      "metar": "METAR LECH 281030Z AUTO 22006KT 8000 -RA FEW015 BKN029 BKN035 06/05 Q0995 RERA",
      "taf": ""
    },
    {
      "icao": "LEMD",
      "alert": "OK",
      "vis_m": 5000,
      "fzfg": false,
      "metar_trigger": false,
      "taf_trigger": false,
      "metar": "METAR LEMD 281030Z 35012KT 5000 -RA BR FEW005 BKN018 BKN025 00/00 Q0991 TEMPO DZRA",
      "taf": ""
    },
    {
      "icao": "LEMG",
      "alert": "OK",
      "vis_m": 2500,
      "fzfg": false,
      "metar_trigger": false,
      "taf_trigger": false,
      "metar": "SPECI LEMG 281035Z 31015G28KT 290V360 2500 +RA FEW020 SCT035 BKN045 13/12 Q1003 BECMG 8000 NSW SCT020",
      "taf": "TAF LEMG 280500Z 2806/2906 23014KT 9999 SCT025 TX19/2814Z TN14/2807Z"
    },
    {
      "icao": "LEVC",
      "alert": "OK",
      "vis_m": 9999,
      "fzfg": false,
      "metar_trigger": false,
      "taf_trigger": false,
      "metar": "SPECI LEVC 281053Z 13006KT 090V190 9999 RA FEW029 BKN035 09/06 Q0994 NOSIG",
      "taf": "TAF LEVC 280500Z 2806/2906 18005KT 9999 FEW040 TX18/2814Z TN08/2807Z"
    },
    {
      "icao": "LEXJ",
      "alert": "OK",
      "vis_m": 9999,
      "fzfg": false,
      "metar_trigger": false,
      "taf_trigger": false,
      "metar": "METAR LEXJ 281030Z 20009G19KT 160V260 CAVOK 10/02 Q0992",
      "taf": "TAF LEXJ 280800Z 2809/2909 20009KT 9999 FEW040 TX12/2814Z TN09/2905Z"
    },
    {
      "icao": "LEZG",
      "alert": "OK",
      "vis_m": 9999,
      "fzfg": false,
      "metar_trigger": false,
      "taf_trigger": false,
      "metar": "METAR LEZG 281030Z 08006KT 9999 -RA FEW040 BKN050 06/03 Q0995 NOSIG",
      "taf": "TAF LEZG 280500Z 2806/2906 25005KT 9999 FEW040 TX08/2813Z TN03/2900Z"
    },
    {
      "icao": "LEZL",
      "alert": "OK",
      "vis_m": 9999,
      "fzfg": false,
      "metar_trigger": false,
      "taf_trigger": false,
      "metar": "METAR LEZL 281030Z 28015KT CAVOK 16/11 Q1004 NOSIG",
      "taf": "TAF LEZL 280800Z 2809/2909 22016KT 9999 SCT020 TX18/2815Z TN15/2907Z"
    },
    {
      "icao": "LFBD",
      "alert": "OK",
      "vis_m": 9999,
      "fzfg": false,
      "metar_trigger": false,
      "taf_trigger": false,
      "metar": "METAR LFBD 281030Z AUTO 19004KT 140V220 9999 OVC004 07/06 Q0994 BECMG BKN030",
      "taf": ""
    },
    {
      "icao": "LFLL",
      "alert": "OK",
      "vis_m": 9000,
      "fzfg": false,
      "metar_trigger": false,
      "taf_trigger": false,
      "metar": "METAR LFLL 281030Z 32007KT 9000 -RA FEW016 BKN023 OVC033 06/05 Q0993 TEMPO BKN009",
      "taf": "TAF LFLL 280500Z 2806/2912 32009KT 9999 -RA FEW010 OVC025"
    },
    {
      "icao": "LFLS",
      "alert": "OK",
      "vis_m": 9999,
      "fzfg": false,
      "metar_trigger": false,
      "taf_trigger": false,
      "metar": "METAR LFLS 281030Z AUTO 13004KT 100V160 9999 -RA OVC016 04/03 Q0993 TEMPO 3000 SNRA BECMG BKN012 OVC020",
      "taf": "TAF LFLS 280800Z 2809/2909 34007KT 6000 -RA BKN012 OVC020"
    },
    {
      "icao": "LFMN",
      "alert": "OK",
      "vis_m": 5000,
      "fzfg": false,
      "metar_trigger": false,
      "taf_trigger": false,
      "metar": "METAR LFMN 281030Z 05013KT 5000 RA BR FEW008 OVC020 09/08 Q0990 TEMPO 4000 SHRA",
      "taf": ""
    },
    {
      "icao": "LFOB",
      "alert": "OK",
      "vis_m": 9000,
      "fzfg": false,
      "metar_trigger": false,
      "taf_trigger": false,
      "metar": "METAR LFOB 281030Z AUTO 32002KT 9000 FEW010 SCT170 03/03 Q0995 TEMPO 3000 BR BKN011",
      "taf": "TAF LFOB 280500Z 2806/2906 VRB03KT 9999 NSC"
    },
    {
      "icao": "LFPO",
      "alert": "OK",
      "vis_m": 9999,
      "fzfg": false,
      "metar_trigger": false,
      "taf_trigger": false,
      "metar": "METAR LFPO 281030Z AUTO 27004KT CAVOK 05/05 Q0995 TEMPO 0800 FG VV///",
      "taf": "TAF LFPO 280500Z 2806/2912 VRB03KT 6000 NSC"
    },
    {
      "icao": "LFSB",
      "alert": "OK",
      "vis_m": 7000,
      "fzfg": false,
      "metar_trigger": false,
      "taf_trigger": false,
      "metar": "METAR LFSB 281030Z AUTO 31007KT 7000 RA OVC004 05/04 Q0991 TEMPO 4000 -RA BKN014",
      "taf": ""
    },
    {
      "icao": "LGAV",
      "alert": "OK",
      "vis_m": 9999,
      "fzfg": false,
      "metar_trigger": false,
      "taf_trigger": false,
      "metar": "METAR LGAV 281050Z 24011KT 9999 FEW025 16/05 Q1010 NOSIG",
      "taf": "TAF LGAV 280500Z 2806/2906 27010KT 9999 FEW018 SCT030"
    },
    {
      "icao": "LGTS",
      "alert": "OK",
      "vis_m": 9999,
      "fzfg": false,
      "metar_trigger": false,
      "taf_trigger": false,
      "metar": "METAR LGTS 281050Z VRB03KT CAVOK 10/05 Q1008 NOSIG",
      "taf": "TAF LGTS 280500Z 2806/2906 34005KT 9999 FEW030"
    },
    {
      "icao": "LHBP",
      "alert": "OK",
      "vis_m": 9000,
      "fzfg": false,
      "metar_trigger": false,
      "taf_trigger": false,
      "metar": "METAR LHBP 281100Z 08005KT 9000 OVC049 03/01 Q0998 NOSIG",
      "taf": "TAF LHBP 280515Z 2806/2906 11007KT CAVOK"
    },
    {
      "icao": "LHDC",
      "alert": "OK",
      "vis_m": 9999,
      "fzfg": false,
      "metar_trigger": false,
      "taf_trigger": false,
      "metar": "METAR LHDC 281015Z AUTO 17006KT 9999 -SHRA OVC061 //////TCU 04/02 Q1001 NOSIG",
      "taf": "TAF LHDC 280815Z 2809/2818 16006KT 9999 BKN045 OVC080"
    },
    {
      "icao": "LIBD",
      "alert": "OK",
      "vis_m": 9999,
      "fzfg": false,
      "metar_trigger": false,
      "taf_trigger": false,
      "metar": "METAR LIBD 281050Z 15013KT 9999 FEW045 12/07 Q0998",
      "taf": "TAF LIBD 280500Z 2806/2906 19006KT 9999 SCT030"
    },
    {
      "icao": "LIBG",
      "alert": "OK",
      "vis_m": 8000,
      "fzfg": false,
      "metar_trigger": false,
      "taf_trigger": false,
      "metar": "METAR LIBG 280950Z 17013KT 8000 RA BKN020 13/11 Q1003",
      "taf": "TAF LIBG 280800Z 2809/2818 17013KT 9999 SCT020 SCT050"
    },
    {
      "icao": "LIBP",
      "alert": "OK",
      "vis_m": 9999,
      "fzfg": false,
      "metar_trigger": false,
      "taf_trigger": false,
      "metar": "METAR LIBP 281050Z AUTO 10004KT 070V130 9999 -RA OVC073/// 13/08 Q0992",
      "taf": "TAF LIBP 280500Z 2806/2906 23010KT 9999 SCT070"
    },
    {
      "icao": "LIBR",
      "alert": "OK",
      "vis_m": 9999,
      "fzfg": false,
      "metar_trigger": false,
      "taf_trigger": false,
      "metar": "METAR LIBR 281050Z 19017KT 9999 FEW025 14/10 Q1002",
      "taf": "TAF LIBR 280500Z 2806/2906 18006KT 9999 FEW030"
    },
    {
      "icao": "LICA",
      "alert": "OK",
      "vis_m": 9999,
      "fzfg": false,
      "metar_trigger": false,
      "taf_trigger": false,
      "metar": "METAR LICA 281050Z AUTO 06006KT 9999 -RA BKN029/// OVC076/// 10/10 Q1003 RERA",
      "taf": "TAF LICA 280500Z 2806/2906 07012KT 9999 SCT040"
    },
    {
      "icao": "LICC",
      "alert": "OK",
      "vis_m": 9999,
      "fzfg": false,
      "metar_trigger": false,
      "taf_trigger": false,
      "metar": "METAR LICC 281050Z 23010KT 9999 FEW050 16/13 Q1004",
      "taf": "TAF LICC 280500Z 2806/2906 26010KT 9999 SCT030"
    },
    {
      "icao": "LICJ",
      "alert": "OK",
      "vis_m": 9999,
      "fzfg": false,
      "metar_trigger": false,
      "taf_trigger": false,
      "metar": "METAR LICJ 281050Z 25026KT 9999 SCT040 16/09 Q1003",
      "taf": "TAF LICJ 280500Z 2806/2906 18018G30KT 9999 SCT040"
    },
    {
      "icao": "LIMC",
      "alert": "OK",
      "vis_m": 6000,
      "fzfg": false,
      "metar_trigger": false,
      "taf_trigger": false,
      "metar": "METAR LIMC 281050Z VRB01KT 6000 -RA FEW010 OVC020 05/05 Q0992 NOSIG",
      "taf": ""
    },
    {
      "icao": "LIME",
      "alert": "OK",
      "vis_m": 9999,
      "fzfg": false,
      "metar_trigger": false,
      "taf_trigger": false,
      "metar": "METAR LIME 281050Z AUTO 32005KT 9999 -RA OVC034/// 06/06 Q0990",
      "taf": "TAF LIME 280500Z 2806/2906 VRB04KT 3000 RA BKN014"
    },
    {
      "icao": "LIMF",
      "alert": "OK",
      "vis_m": 8000,
      "fzfg": false,
      "metar_trigger": false,
      "taf_trigger": false,
      "metar": "METAR LIMF 281050Z 21006KT 8000 -RA SCT003 BKN025 BKN060 05/03 Q0992",
      "taf": "TAF LIMF 280500Z 2806/2906 VRB04KT 4000 RA BKN014"
    },
    {
      "icao": "LIMJ",
      "alert": "OK",
      "vis_m": 9999,
      "fzfg": false,
      "metar_trigger": false,
      "taf_trigger": false,
      "metar": "METAR LIMJ 281050Z 04014KT 360V070 9999 SCT065 06/03 Q0991",
      "taf": ""
    },
    {
      "icao": "LIPE",
      "alert": "OK",
      "vis_m": 9999,
      "fzfg": false,
      "metar_trigger": false,
      "taf_trigger": false,
      "metar": "METAR LIPE 281050Z 29008KT 9999 FEW010 09/07 Q0990",
      "taf": "TAF LIPE 280500Z 2806/2906 09010KT 6000 BKN030"
    },
    {
      "icao": "LIPH",
      "alert": "OK",
      "vis_m": 4000,
      "fzfg": false,
      "metar_trigger": false,
      "taf_trigger": false,
      "metar": "METAR LIPH 281050Z 04013KT 4000 RA BR FEW005 BKN020 08/08 Q0991",
      "taf": "TAF LIPH 280500Z 2806/2906 05010KT 4000 RA BKN008"
    },
    {
      "icao": "LIPQ",
      "alert": "OK",
      "vis_m": 6000,
      "fzfg": false,
      "metar_trigger": false,
      "taf_trigger": false,
      "metar": "METAR LIPQ 281050Z AUTO 03006KT 6000 +RA OVC011/// 08/08 Q0993",
      "taf": "TAF LIPQ 280500Z 2806/2906 05007KT 4000 RA BKN020"
    },
    {
      "icao": "LIPR",
      "alert": "OK",
      "vis_m": 9999,
      "fzfg": false,
      "metar_trigger": false,
      "taf_trigger": false,
      "metar": "METAR LIPR 281050Z 14010KT 9999 FEW030 BKN050 11/08 Q0990",
      "taf": "TAF LIPR 280500Z 2806/2906 13012KT 9999 BKN030"
    },
    {
      "icao": "LIPX",
      "alert": "OK",
      "vis_m": 9000,
      "fzfg": false,
      "metar_trigger": false,
      "taf_trigger": false,
      "metar": "METAR LIPX 281050Z 03007KT 9000 -RA SCT010 BKN025 08/07 Q0990 RERA",
      "taf": "TAF LIPX 280500Z 2806/2906 06010KT 3000 RA BKN014"
    },
    {
      "icao": "LIPY",
      "alert": "OK",
      "vis_m": 9999,
      "fzfg": false,
      "metar_trigger": false,
      "taf_trigger": false,
      "metar": "METAR LIPY 281050Z AUTO 14007KT 120V180 9999 -RA OVC068/// 11/08 Q0992 RERA",
      "taf": "TAF LIPY 280500Z 2806/2906 14010KT 9999 BKN050"
    },
    {
      "icao": "LIPZ",
      "alert": "OK",
      "vis_m": 4000,
      "fzfg": false,
      "metar_trigger": false,
      "taf_trigger": false,
      "metar": "METAR LIPZ 281050Z 05015G26KT 4000 -RA BR SCT005 BKN012 07/07 Q0991 NOSIG",
      "taf": "TAF LIPZ 280500Z 2806/2912 05013KT 4000 RA BKN015"
    },
    {
      "icao": "LIRF",
      "alert": "OK",
      "vis_m": 9999,
      "fzfg": false,
      "metar_trigger": false,
      "taf_trigger": false,
      "metar": "METAR LIRF 281050Z 24019G31KT 9999 -RA SCT030 SCT045 14/09 Q0994 NOSIG",
      "taf": "TAF LIRF 280500Z 2806/2912 16020G30KT 9999 RA SCT030"
    },
    {
      "icao": "LIRN",
      "alert": "OK",
      "vis_m": 3000,
      "fzfg": false,
      "metar_trigger": false,
      "taf_trigger": false,
      "metar": "METAR LIRN 281050Z 21015G26KT 3000 -RA BR SCT010 BKN030 14/12 Q0997 NOSIG",
      "taf": "TAF LIRN 280500Z 2806/2906 17012KT 9999 SCT030"
    },
    {
      "icao": "LIRP",
      "alert": "OK",
      "vis_m": 9999,
      "fzfg": false,
      "metar_trigger": false,
      "taf_trigger": false,
      "metar": "METAR LIRP 281045Z 16004KT 9999 -RA SCT015 SCT020 13/13 Q0990 NOSIG",
      "taf": "TAF LIRP 280500Z 2806/2906 19012KT 6000 -RA FEW015 SCT020 BKN035"
    },
    {
      "icao": "LIRZ",
      "alert": "OK",
      "vis_m": 9999,
      "fzfg": false,
      "metar_trigger": false,
      "taf_trigger": false,
      "metar": "METAR LIRZ 281050Z AUTO 15009KT 9999 SCT014/// BKN061/// 12/10 Q0992 RERA",
      "taf": "TAF LIRZ 280500Z 2806/2906 17014KT 7000 RA BKN025"
    },
    {
      "icao": "LJLJ",
      "alert": "OK",
      "vis_m": 7000,
      "fzfg": false,
      "metar_trigger": false,
      "taf_trigger": false,
      "metar": "METAR LJLJ 281030Z 28005KT 7000 -RA FEW003 BKN023 BKN037 04/04 Q0994 NOSIG",
      "taf": "TAF LJLJ 281100Z 2812/2912 29005KT 7000 -RA SCT003 BKN020 OVC033"
    },
    {
      "icao": "LKMT",
      "alert": "OK",
      "vis_m": 4000,
      "fzfg": false,
      "metar_trigger": false,
      "taf_trigger": false,
      "metar": "METAR LKMT 281030Z 04004KT 4000 BR OVC031 01/00 Q0997 NOSIG",
      "taf": ""
    },
    {
      "icao": "LKPR",
      "alert": "OK",
      "vis_m": 3800,
      "fzfg": false,
      "metar_trigger": false,
      "taf_trigger": false,
      "metar": "METAR LKPR 281030Z 04007KT 3800 BR BKN004 OVC006 M00/M01 Q0995 NOSIG",
      "taf": "TAF LKPR 280800Z 2809/2915 06008KT 4500 BR BKN006"
    },
    {
      "icao": "LLBG",
      "alert": "OK",
      "vis_m": 5000,
      "fzfg": false,
      "metar_trigger": false,
      "taf_trigger": false,
      "metar": "METAR LLBG 281050Z 22023KT 5000 DU FEW030 BKN050 17/08 Q1014 TEMPO RA FEW025TCU BKN030",
      "taf": "TAF LLBG 280500Z 2806/2906 19010KT 8000 SCT040"
    },
    {
      "icao": "LMML",
      "alert": "OK",
      "vis_m": 9999,
      "fzfg": false,
      "metar_trigger": false,
      "taf_trigger": false,
      "metar": "METAR LMML 281045Z 26008KT 230V290 CAVOK 18/11 Q1008 NOSIG",
      "taf": "TAF LMML 280500Z 2806/2906 20015KT 9999 FEW025"
    },
    {
      "icao": "LOWW",
      "alert": "OK",
      "vis_m": 4000,
      "fzfg": false,
      "metar_trigger": false,
      "taf_trigger": false,
      "metar": "METAR LOWW 281050Z 13005KT 4000 BR FEW001 SCT003 OVC004 01/00 Q0995 TEMPO 5000 BR SCT003 OVC006",
      "taf": "TAF LOWW 280815Z 2809/2915 13007KT 0800 FG OVC001 TX01/2821Z TN00/2906Z"
    },
    {
      "icao": "LPFR",
      "alert": "OK",
      "vis_m": 8000,
      "fzfg": false,
      "metar_trigger": false,
      "taf_trigger": false,
      "metar": "METAR LPFR 281030Z 27016KT 8000 FEW010 SCT025 15/13 Q1006",
      "taf": ""
    },
    {
      "icao": "LPMA",
      "alert": "OK",
      "vis_m": 9999,
      "fzfg": false,
      "metar_trigger": false,
      "taf_trigger": false,
      "metar": "METAR LPMA 281030Z 05004KT 340V130 9999 FEW014 20/13 Q1018",
      "taf": "TAF LPMA 280500Z 2806/2906 VRB05KT 9999 FEW015"
    },
    {
      "icao": "LPPR",
      "alert": "OK",
      "vis_m": 9999,
      "fzfg": false,
      "metar_trigger": false,
      "taf_trigger": false,
      "metar": "METAR LPPR 281030Z 27007KT 220V310 9999 FEW015 SCT025 12/09 Q0998 RERA",
      "taf": ""
    },
    {
      "icao": "LPPS",
      "alert": "OK",
      "vis_m": 9999,
      "fzfg": false,
      "metar_trigger": false,
      "taf_trigger": false,
      "metar": "METAR LPPS 281030Z 27015KT 9999 FEW012 18/15 Q1018",
      "taf": "TAF LPPS 280500Z 2806/2912 27015KT 9999 SCT015 SCT030"
    },
    {
      "icao": "LPPT",
      "alert": "OK",
      "vis_m": 9999,
      "fzfg": false,
      "metar_trigger": false,
      "taf_trigger": false,
      "metar": "METAR LPPT 281030Z 27011KT 240V300 9999 FEW020 FEW025TCU 14/10 Q1003",
      "taf": "TAF LPPT 280500Z 2806/2912 29020G35KT 9999 SCT025"
    },
    {
      "icao": "LQBK",
      "alert": "OK",
      "vis_m": 9999,
      "fzfg": false,
      "metar_trigger": false,
      "taf_trigger": false,
      "metar": "METAR LQBK 281030Z 33004KT 290V020 9999 FEW043 06/05 Q0996 NOSIG",
      "taf": "TAF LQBK 280500Z 2806/2906 34005KT 9999 SCT040 TX11/2813Z TN01/2806Z"
    },
    {
      "icao": "LQSA",
      "alert": "OK",
      "vis_m": 9999,
      "fzfg": false,
      "metar_trigger": false,
      "taf_trigger": false,
      "metar": "METAR LQSA 281030Z 14022G33KT 9999 SCT060 10/02 Q1000 NOSIG",
      "taf": "TAF LQSA 280500Z 2806/2906 11008KT 9999 SCT050 TX12/2814Z TNM00/2806Z"
    },
    {
      "icao": "LQTZ",
      "alert": "OK",
      "vis_m": 9999,
      "fzfg": false,
      "metar_trigger": false,
      "taf_trigger": false,
      "metar": "METAR LQTZ 281030Z 20007KT 150V230 9999 SCT060 13/01 Q0998",
      "taf": "TAF LQTZ 280500Z 2806/2906 10005KT 9999 SCT060 TX14/2813Z TNM00/2806Z"
    },
    {
      "icao": "LRBC",
      "alert": "OK",
      "vis_m": 300,
      "fzfg": true,
      "metar_trigger": false,
      "taf_trigger": false,
      "metar": "METAR LRBC 281030Z 15008KT 0300 R16/0350N FG VV002 00/00 Q1003",
      "taf": "TAF LRBC 280800Z 2809/2818 16008KT 0300 FZFG VV001"
    },
    {
      "icao": "LRBS",
      "alert": "OK",
      "vis_m": 9999,
      "fzfg": false,
      "metar_trigger": false,
      "taf_trigger": false,
      "metar": "METAR LRBS 281030Z 25007KT 220V290 CAVOK 07/04 Q1005 NOSIG",
      "taf": ""
    },
    {
      "icao": "LRBV",
      "alert": "OK",
      "vis_m": 9999,
      "fzfg": false,
      "metar_trigger": false,
      "taf_trigger": false,
      "metar": "METAR LRBV 281030Z 08007KT 050V130 9999 FEW013 06/03 Q1001",
      "taf": "TAF LRBV 280800Z 2809/2818 VRB04KT 0600 FG BKN002"
    },
    {
      "icao": "LRCL",
      "alert": "OK",
      "vis_m": 9999,
      "fzfg": false,
      "metar_trigger": false,
      "taf_trigger": false,
      "metar": "METAR LRCL 281030Z COR 09009KT 9999 SCT004 02/01 Q1002",
      "taf": "TAF LRCL 280800Z 2809/2818 11007KT 5000 BR OVC005"
    },
    {
      "icao": "LRCV",
      "alert": "OK",
      "vis_m": 400,
      "fzfg": false,
      "metar_trigger": false,
      "taf_trigger": false,
      "metar": "METAR LRCV 281030Z 11003KT 0400 R26/0550U FG BKN002 03/03 Q1004",
      "taf": "TAF LRCV 280800Z 2809/2818 VRB04KT 0200 FG OVC001"
    },
    {
      "icao": "LRIA",
      "alert": "OK",
      "vis_m": 9999,
      "fzfg": false,
      "metar_trigger": false,
      "taf_trigger": false,
      "metar": "METAR LRIA 281030Z 11006KT 9999 BKN003 OVC006 03/02 Q1003",
      "taf": ""
    },
    {
      "icao": "LROP",
      "alert": "OK",
      "vis_m": 9999,
      "fzfg": false,
      "metar_trigger": false,
      "taf_trigger": false,
      "metar": "METAR LROP 281030Z 22007KT 9999 FEW007 07/07 Q1005 BECMG BKN010",
      "taf": "TAF LROP 280500Z 2806/2906 24008KT 0200 FG VV001"
    },
    {
      "icao": "LRSB",
      "alert": "OK",
      "vis_m": 3000,
      "fzfg": false,
      "metar_trigger": false,
      "taf_trigger": false,
      "metar": "METAR LRSB 281030Z VRB02KT 3000 SCT001 OVC003 04/04 Q1001",
      "taf": "TAF LRSB 280500Z 2806/2906 VRB04KT 0200 FG VV001"
    },
    {
      "icao": "LRSM",
      "alert": "OK",
      "vis_m": 9999,
      "fzfg": false,
      "metar_trigger": false,
      "taf_trigger": false,
      "metar": "METAR LRSM 281030Z VRB02KT 9999 FEW031 BKN040 05/03 Q1002",
      "taf": "TAF LRSM 280800Z 2809/2818 14010KT 9999 BKN045"
    },
    {
      "icao": "LRSV",
      "alert": "WARNING",
      "vis_m": 200,
      "fzfg": true,
      "metar_trigger": false,
      "taf_trigger": true,
      "metar": "METAR LRSV 281030Z VRB01KT 0200 R34/0275N FG BKN001 00/00 Q1000",
      "taf": "TAF LRSV 280800Z 2809/2818 VRB04KT 0100 FZFG VV001"
    },
    {
      "icao": "LRTM",
      "alert": "OK",
      "vis_m": 250,
      "fzfg": false,
      "metar_trigger": false,
      "taf_trigger": false,
      "metar": "METAR LRTM 281030Z VRB02KT 0250 R07/0550N FG SCT001 BKN002 OVC005 02/02 Q1002",
      "taf": "TAF LRTM 280800Z 2809/2818 VRB04KT 0200 FG BKN001 OVC003"
    },
    {
      "icao": "LRTR",
      "alert": "OK",
      "vis_m": 9999,
      "fzfg": false,
      "metar_trigger": false,
      "taf_trigger": false,
      "metar": "METAR LRTR 281030Z 13009KT CAVOK 07/03 Q1000 NOSIG",
      "taf": "TAF LRTR 280500Z 2806/2906 11010KT 0350 FG VV001"
    },
    {
      "icao": "LTAC",
      "alert": "OK",
      "vis_m": 9999,
      "fzfg": false,
      "metar_trigger": false,
      "taf_trigger": false,
      "metar": "METAR LTAC 281050Z VRB02KT 9999 SCT030 BKN080 07/02 Q1009 NOSIG",
      "taf": "TAF LTAC 281040Z 2812/2912 VRB02KT 9999 SCT040 BKN100"
    },
    {
      "icao": "LTFM",
      "alert": "OK",
      "vis_m": 9999,
      "fzfg": false,
      "metar_trigger": false,
      "taf_trigger": false,
      "metar": "METAR LTFM 281050Z 22017KT 9999 SCT018 BKN028 13/08 Q1008 NOSIG",
      "taf": "TAF LTFM 281040Z 2812/2918 VRB02KT 9999 SCT018 BKN028"
    },
    {
      "icao": "LUKK",
      "alert": "OK",
      "vis_m": 4900,
      "fzfg": true,
      "metar_trigger": false,
      "taf_trigger": false,
      "metar": "METAR LUKK 281030Z 19007KT 4900 1200SW R08/1300U BR OVC002 01/01 Q1004 TEMPO 0800 FG",
      "taf": "TAF LUKK 280523Z 2806/2906 13006KT 0300 FZFG VV001"
    },
    {
      "icao": "LWOH",
      "alert": "OK",
      "vis_m": 9999,
      "fzfg": false,
      "metar_trigger": false,
      "taf_trigger": false,
      "metar": "METAR LWOH 281050Z VRB01KT 9999 FEW040 SCT090 07/01 Q1006",
      "taf": "TAF LWOH 280840Z 2809/2909 VRB03KT 9999 FEW040 SCT090"
    },
    {
      "icao": "LWSK",
      "alert": "OK",
      "vis_m": 4000,
      "fzfg": false,
      "metar_trigger": false,
      "taf_trigger": false,
      "metar": "METAR LWSK 281050Z VRB02KT 4000 BR OVC003 02/01 Q1007 NOSIG",
      "taf": "TAF LWSK 280840Z 2809/2909 VRB02KT 0600 FG BKN003"
    },
    {
      "icao": "LYBE",
      "alert": "OK",
      "vis_m": 9999,
      "fzfg": false,
      "metar_trigger": false,
      "taf_trigger": false,
      "metar": "METAR LYBE 281030Z 14007KT CAVOK 11/01 Q0999 NOSIG",
      "taf": "TAF LYBE 280500Z 2806/2906 12006KT CAVOK TX11/2812Z TN01/2906Z"
    },
    {
      "icao": "LYNI",
      "alert": "OK",
      "vis_m": 9999,
      "fzfg": false,
      "metar_trigger": false,
      "taf_trigger": false,
      "metar": "METAR LYNI 281030Z 15007KT 110V230 CAVOK 07/05 Q1004 NOSIG",
      "taf": ""
    },
    {
      "icao": "LYPG",
      "alert": "OK",
      "vis_m": 9999,
      "fzfg": false,
      "metar_trigger": false,
      "taf_trigger": false,
      "metar": "METAR LYPG 281030Z 26004KT 9999 FEW030 BKN050 OVC080 09/05 Q1006 NOSIG",
      "taf": "TAF LYPG 280500Z 2806/2906 16006KT 9999 SCT040 BKN080 TX10/2813Z TN05/2806Z"
    },
    {
      "icao": "LZIB",
      "alert": "OK",
      "vis_m": 9000,
      "fzfg": false,
      "metar_trigger": false,
      "taf_trigger": false,
      "metar": "METAR LZIB 281100Z 05007KT 9000 SCT007 BKN009 03/02 Q0996 NOSIG",
      "taf": ""
    },
    {
      "icao": "LZKZ",
      "alert": "OK",
      "vis_m": 800,
      "fzfg": false,
      "metar_trigger": false,
      "taf_trigger": false,
      "metar": "METAR LZKZ 281100Z 13002KT 0800 R01/1100N -SN FG OVC004 00/00 Q0999 NOSIG",
      "taf": ""
    },
    {
      "icao": "LZTT",
      "alert": "OK",
      "vis_m": 9999,
      "fzfg": false,
      "metar_trigger": false,
      "taf_trigger": false,
      "metar": "METAR LZTT 281100Z 14007KT 9999 FEW013 BKN030 01/M01 Q0995 NOSIG",
      "taf": "TAF LZTT 280515Z 2806/2906 26008KT 9999 BKN035"
    },
    {
      "icao": "OEJN",
      "alert": "OK",
      "vis_m": 9999,
      "fzfg": false,
      "metar_trigger": false,
      "taf_trigger": false,
      "metar": "METAR OEJN 281100Z 31010KT 9999 SCT040 30/17 Q1014 NOSIG",
      "taf": "TAF OEJN 280500Z 2806/2912 28012KT 9999 FEW040"
    },
    {
      "icao": "OEMA",
      "alert": "OK",
      "vis_m": 9999,
      "fzfg": false,
      "metar_trigger": false,
      "taf_trigger": false,
      "metar": "METAR OEMA 281100Z 23011KT CAVOK 27/05 Q1016 NOSIG",
      "taf": "TAF OEMA 280500Z 2806/2912 28014KT 9999 SCT040"
    },
    {
      "icao": "OJAI",
      "alert": "OK",
      "vis_m": 1500,
      "fzfg": false,
      "metar_trigger": false,
      "taf_trigger": false,
      "metar": "METAR OJAI 281000Z 24027KT 1500 BLDU SCT035 SCT120 12/02 Q1015 NOSIG",
      "taf": "TAF OJAI 280434Z 2806/2912 26012KT 4000 HZ SCT035"
    },
    {
      "icao": "OMAA",
      "alert": "OK",
      "vis_m": 9999,
      "fzfg": false,
      "metar_trigger": false,
      "taf_trigger": false,
      "metar": "METAR OMAA 281100Z 18006KT 130V260 CAVOK 26/08 Q1018 BECMG 32010KT",
      "taf": "TAF OMAA 281100Z 2812/2918 21008KT 8000 NSC"
    },
    {
      "icao": "OMDB",
      "alert": "OK",
      "vis_m": 9999,
      "fzfg": false,
      "metar_trigger": false,
      "taf_trigger": false,
      "metar": "METAR OMDB 281100Z 32011KT 290V350 9999 FEW045 25/14 Q1018 NOSIG",
      "taf": "TAF OMDB 281100Z 2812/2918 34010KT 8000 NSC"
    },
    {
      "icao": "UAAA",
      "alert": "OK",
      "vis_m": 9999,
      "fzfg": false,
      "metar_trigger": false,
      "taf_trigger": false,
      "metar": "METAR UAAA 281030Z 03004MPS 9999 FEW050 SCT100 03/M01 Q1021 NOSIG",
      "taf": "TAF UAAA 280503Z 2806/2906 04003MPS 3100 BR FU BKN030CB OVC100 TX02/2806Z TNM05/2902Z"
    },
    {
      "icao": "UBBB",
      "alert": "OK",
      "vis_m": 9999,
      "fzfg": false,
      "metar_trigger": false,
      "taf_trigger": false,
      "metar": "METAR UBBB 281100Z 15012KT 9999 SCT012 OVC022 07/04 Q1019 NOSIG",
      "taf": "TAF UBBB 281058Z 2812/2912 15012KT 8000 SCT012 OVC025 TX07/2812Z TN05/2901Z"
    },
    {
      "icao": "UDSG",
      "alert": "OK",
      "vis_m": 3800,
      "fzfg": true,
      "metar_trigger": false,
      "taf_trigger": false,
      "metar": "METAR UDSG 281030Z 19001KT 3800 BR SCT023 M07/M08 Q1018 NOSIG",
      "taf": "TAF UDSG 280458Z 2806/2906 VRB06KT 0800 FZFG OVC010"
    },
    {
      "icao": "UDYZ",
      "alert": "OK",
      "vis_m": 4100,
      "fzfg": false,
      "metar_trigger": false,
      "taf_trigger": false,
      "metar": "METAR UDYZ 281030Z 00000KT 4100 BR BKN010 M03/M06 Q1021 NOSIG",
      "taf": "TAF UDYZ 280500Z 2806/2906 VRB04KT 2300 BR BKN008"
    },
    {
      "icao": "UGKO",
      "alert": "OK",
      "vis_m": 9999,
      "fzfg": false,
      "metar_trigger": false,
      "taf_trigger": false,
      "metar": "METAR UGKO 281030Z 10019KT CAVOK 13/M00 Q1011 NOSIG",
      "taf": "TAF UGKO 280500Z 2806/2906 08017KT CAVOK TX15/2812Z TN03/2903Z"
    }
  ]
}