{
  "ts_utc": "2026-07-22T18:36:14Z",
  "threshold_m": 150,
  "source": "stations_override.txt (ICAO list) + aviationweather.gov (METAR/TAF raw)",
  "station_count": 159,
  "stations": [
    {
      "icao": "BIKF",
      "alert": "OK",
      "vis_m": 900,
      "fzfg": false,
      "metar_trigger": false,
      "taf_trigger": false,
      "metar": "METAR BIKF 221830Z 21012KT 0900 R19/0900N FG OVC002 10/10 Q1011",
      "taf": "TAF BIKF 221653Z 2218/2318 22015KT 2500 -RADZ BR BKN003 TX13/2318Z TN10/2305Z"
    },
    {
      "icao": "BKPR",
      "alert": "OK",
      "vis_m": 9999,
      "fzfg": false,
      "metar_trigger": false,
      "taf_trigger": false,
      "metar": "METAR BKPR 221830Z 30005KT 9999 FEW085 18/13 Q1017 NOSIG",
      "taf": "TAF BKPR 221730Z 2218/2318 VRB05KT 9999 SCT050"
    },
    {
      "icao": "EBCI",
      "alert": "OK",
      "vis_m": 9999,
      "fzfg": false,
      "metar_trigger": false,
      "taf_trigger": false,
      "metar": "METAR EBCI 221820Z 36009KT 310V030 9999 FEW048 19/11 Q1023 NOSIG",
      "taf": "TAF EBCI 221703Z 2218/2324 34008KT 9999 SCT030"
    },
    {
      "icao": "EDDB",
      "alert": "OK",
      "vis_m": 9999,
      "fzfg": false,
      "metar_trigger": false,
      "taf_trigger": false,
      "metar": "METAR EDDB 221820Z AUTO 27011KT 230V290 9999 FEW041 SCT049 17/14 Q1014 NOSIG",
      "taf": "TAF EDDB 221700Z 2218/2318 26010KT 9999 SCT030"
    },
    {
      "icao": "EDDH",
      "alert": "OK",
      "vis_m": 9999,
      "fzfg": false,
      "metar_trigger": false,
      "taf_trigger": false,
      "metar": "METAR EDDH 221820Z AUTO 30012KT 270V330 9999 FEW025 BKN032 17/11 Q1016 NOSIG",
      "taf": "TAF EDDH 221700Z 2218/2324 29015G25KT 9999 SCT030"
    },
    {
      "icao": "EDDK",
      "alert": "OK",
      "vis_m": 9999,
      "fzfg": false,
      "metar_trigger": false,
      "taf_trigger": false,
      "metar": "METAR EDDK 221820Z AUTO 29012KT CAVOK 19/13 Q1021 NOSIG",
      "taf": "TAF EDDK 221700Z 2218/2324 31011KT 9999 BKN030"
    },
    {
      "icao": "EDDN",
      "alert": "OK",
      "vis_m": 9999,
      "fzfg": false,
      "metar_trigger": false,
      "taf_trigger": false,
      "metar": "METAR EDDN 221820Z AUTO 31011KT 280V340 CAVOK 19/09 Q1019 NOSIG",
      "taf": "TAF EDDN 221700Z 2218/2318 32012KT CAVOK"
    },
    {
      "icao": "EDDS",
      "alert": "OK",
      "vis_m": 9999,
      "fzfg": false,
      "metar_trigger": false,
      "taf_trigger": false,
      "metar": "METAR EDDS 221820Z AUTO 36009KT 320V040 CAVOK 22/10 Q1019 NOSIG",
      "taf": "TAF EDDS 221700Z 2218/2318 32007KT CAVOK"
    },
    {
      "icao": "EDFH",
      "alert": "OK",
      "vis_m": 9999,
      "fzfg": false,
      "metar_trigger": false,
      "taf_trigger": false,
      "metar": "METAR EDFH 221820Z 31008KT 280V340 9999 FEW043 18/09 Q1021",
      "taf": "TAF EDFH 221700Z 2218/2318 32006KT 9999 SCT040"
    },
    {
      "icao": "EDJA",
      "alert": "OK",
      "vis_m": 9999,
      "fzfg": false,
      "metar_trigger": false,
      "taf_trigger": false,
      "metar": "METAR EDJA 221820Z 35004KT CAVOK 22/08 Q1020",
      "taf": "TAF EDJA 221700Z 2218/2303 VRB03KT CAVOK"
    },
    {
      "icao": "EDLW",
      "alert": "OK",
      "vis_m": 9999,
      "fzfg": false,
      "metar_trigger": false,
      "taf_trigger": false,
      "metar": "METAR EDLW 221820Z 29006KT 240V340 9999 FEW036 19/11 Q1020",
      "taf": "TAF EDLW 221700Z 2218/2318 28010KT 9999 BKN035"
    },
    {
      "icao": "EDNY",
      "alert": "OK",
      "vis_m": 9999,
      "fzfg": false,
      "metar_trigger": false,
      "taf_trigger": false,
      "metar": "METAR EDNY 221820Z 17003KT CAVOK 22/10 Q1019",
      "taf": "TAF EDNY 221700Z 2218/2303 20005KT CAVOK"
    },
    {
      "icao": "EDSB",
      "alert": "OK",
      "vis_m": 9999,
      "fzfg": false,
      "metar_trigger": false,
      "taf_trigger": false,
      "metar": "METAR EDSB 221820Z AUTO 02010KT CAVOK 23/10 Q1019",
      "taf": "TAF EDSB 221700Z 2218/2318 01005KT CAVOK"
    },
    {
      "icao": "EETN",
      "alert": "OK",
      "vis_m": 9999,
      "fzfg": false,
      "metar_trigger": false,
      "taf_trigger": false,
      "metar": "METAR EETN 221820Z 29012KT 9999 SCT049 16/10 Q1007 NOSIG",
      "taf": "TAF EETN 221730Z 2218/2318 26007KT 9999 SCT035"
    },
    {
      "icao": "EFTU",
      "alert": "OK",
      "vis_m": 9999,
      "fzfg": false,
      "metar_trigger": false,
      "taf_trigger": false,
      "metar": "METAR EFTU 221820Z AUTO 32005KT 280V350 CAVOK 15/10 Q1008",
      "taf": "TAF EFTU 221737Z 2218/2318 28006KT 9999 FEW015"
    },
    {
      "icao": "EGBB",
      "alert": "OK",
      "vis_m": 9999,
      "fzfg": false,
      "metar_trigger": false,
      "taf_trigger": false,
      "metar": "METAR EGBB 221820Z 36007KT 9999 FEW049 23/11 Q1024",
      "taf": "TAF EGBB 221700Z 2218/2318 05010KT 9999 FEW030"
    },
    {
      "icao": "EGGP",
      "alert": "OK",
      "vis_m": 9999,
      "fzfg": false,
      "metar_trigger": false,
      "taf_trigger": false,
      "metar": "METAR EGGP 221820Z 31010KT CAVOK 19/13 Q1026",
      "taf": "TAF EGGP 221657Z 2218/2318 30007KT 9999 SCT040"
    },
    {
      "icao": "EGGW",
      "alert": "OK",
      "vis_m": 9999,
      "fzfg": false,
      "metar_trigger": false,
      "taf_trigger": false,
      "metar": "METAR EGGW 221820Z AUTO 03009KT 360V060 9999 NCD 22/11 Q1024",
      "taf": "TAF EGGW 221650Z 2218/2318 09006KT 9999 FEW045"
    },
    {
      "icao": "EGKK",
      "alert": "OK",
      "vis_m": 9999,
      "fzfg": false,
      "metar_trigger": false,
      "taf_trigger": false,
      "metar": "METAR EGKK 221820Z 16005KT 130V190 9999 SCT040 22/14 Q1023",
      "taf": "TAF EGKK 221659Z 2218/2324 19010KT 9999 FEW045"
    },
    {
      "icao": "EGNM",
      "alert": "OK",
      "vis_m": 9999,
      "fzfg": false,
      "metar_trigger": false,
      "taf_trigger": false,
      "metar": "METAR EGNM 221820Z 29008KT 9999 FEW043 20/13 Q1025",
      "taf": "TAF EGNM 221656Z 2218/2318 30007KT 9999 SCT045"
    },
    {
      "icao": "EGPD",
      "alert": "OK",
      "vis_m": 9999,
      "fzfg": false,
      "metar_trigger": false,
      "taf_trigger": false,
      "metar": "METAR EGPD 221820Z AUTO 35007KT 9999 FEW013 SCT036 17/14 Q1024",
      "taf": "TAF EGPD 221656Z 2218/2318 31012KT 9999 SCT012 BKN020"
    },
    {
      "icao": "EGPF",
      "alert": "OK",
      "vis_m": 9999,
      "fzfg": false,
      "metar_trigger": false,
      "taf_trigger": false,
      "metar": "METAR EGPF 221820Z AUTO 30013KT 9999 NCD 21/13 Q1025",
      "taf": "TAF EGPF 221658Z 2218/2318 30009KT 9999 FEW030"
    },
    {
      "icao": "EHBK",
      "alert": "OK",
      "vis_m": 9999,
      "fzfg": false,
      "metar_trigger": false,
      "taf_trigger": false,
      "metar": "METAR EHBK 221825Z AUTO 33007KT 280V010 9999 SCT031 19/11 Q1022 NOSIG",
      "taf": "TAF EHBK 221720Z 2218/2324 31010KT 9999 BKN035"
    },
    {
      "icao": "EHEH",
      "alert": "OK",
      "vis_m": 9999,
      "fzfg": false,
      "metar_trigger": false,
      "taf_trigger": false,
      "metar": "METAR EHEH 221825Z AUTO 32007KT 250V010 9999 FEW031 BKN049 OVC053 18/12 Q1022 BLU NOSIG RMK TREND REMOTE BY EHWX",
      "taf": "TAF EHEH 221744Z 2218/2324 31008KT 9999 BKN030"
    },
    {
      "icao": "EKBI",
      "alert": "OK",
      "vis_m": 9999,
      "fzfg": false,
      "metar_trigger": false,
      "taf_trigger": false,
      "metar": "METAR EKBI 221820Z AUTO 29012KT 9999 NCD 17/12 Q1014",
      "taf": "TAF EKBI 221727Z 2218/2318 29015KT 9999 FEW025"
    },
    {
      "icao": "EKCH",
      "alert": "OK",
      "vis_m": 9999,
      "fzfg": false,
      "metar_trigger": false,
      "taf_trigger": false,
      "metar": "METAR EKCH 221820Z AUTO 33012KT 9999 -RA FEW030/// FEW035/// BKN080/// 18/14 Q1010 TEMPO SHRA SCT020CB",
      "taf": "TAF EKCH 221727Z 2218/2318 33015KT 9999 BKN030"
    },
    {
      "icao": "ENAL",
      "alert": "OK",
      "vis_m": 9999,
      "fzfg": false,
      "metar_trigger": false,
      "taf_trigger": false,
      "metar": "METAR ENAL 221820Z 03011KT 9999 FEW019 13/09 Q1020",
      "taf": "TAF ENAL 221700Z 2218/2303 06008KT 9999 SCT015 BKN030"
    },
    {
      "icao": "ENBR",
      "alert": "OK",
      "vis_m": 9999,
      "fzfg": false,
      "metar_trigger": false,
      "taf_trigger": false,
      "metar": "METAR ENBR 221820Z 31011KT CAVOK 13/09 Q1017 NOSIG RMK WIND 1200FT 33019KT",
      "taf": "TAF ENBR 221700Z 2218/2318 32012KT 9999 FEW035"
    },
    {
      "icao": "ENGM",
      "alert": "OK",
      "vis_m": 9999,
      "fzfg": false,
      "metar_trigger": false,
      "taf_trigger": false,
      "metar": "METAR ENGM 221820Z 02017KT CAVOK 18/03 Q1013 NOSIG",
      "taf": "TAF ENGM 221700Z 2218/2318 01018KT CAVOK"
    },
    {
      "icao": "ENHD",
      "alert": "OK",
      "vis_m": 9999,
      "fzfg": false,
      "metar_trigger": false,
      "taf_trigger": false,
      "metar": "METAR ENHD 221820Z 33019KT 9999 FEW011 13/10 Q1017",
      "taf": "TAF ENHD 221400Z 2215/2222 33020KT 9999 SCT014"
    },
    {
      "icao": "ENTC",
      "alert": "OK",
      "vis_m": 9999,
      "fzfg": false,
      "metar_trigger": false,
      "taf_trigger": false,
      "metar": "METAR ENTC 221820Z 26005KT 220V290 9999 FEW020 BKN029 11/06 Q1014 NOSIG RMK WIND 2600FT 32014KT",
      "taf": "TAF ENTC 221700Z 2218/2318 22006KT 9999 FEW010 SCT015 BKN020"
    },
    {
      "icao": "ENTO",
      "alert": "OK",
      "vis_m": 9999,
      "fzfg": false,
      "metar_trigger": false,
      "taf_trigger": false,
      "metar": "METAR ENTO 221820Z 03006KT 360V060 CAVOK 20/06 Q1012 NOSIG",
      "taf": "TAF ENTO 221700Z 2218/2318 05008KT CAVOK"
    },
    {
      "icao": "ENVA",
      "alert": "OK",
      "vis_m": 9999,
      "fzfg": false,
      "metar_trigger": false,
      "taf_trigger": false,
      "metar": "METAR ENVA 221820Z 31010KT 9999 FEW030 BKN038 13/08 Q1019 NOSIG RMK WIND 670FT 31019KT",
      "taf": "TAF ENVA 221700Z 2218/2318 30012KT 9999 FEW012 BKN035"
    },
    {
      "icao": "ENZV",
      "alert": "OK",
      "vis_m": 9999,
      "fzfg": false,
      "metar_trigger": false,
      "taf_trigger": false,
      "metar": "METAR ENZV 221820Z 33019KT 9999 FEW025 13/10 Q1017 NOSIG",
      "taf": "TAF ENZV 221700Z 2218/2318 33018KT 9999 FEW020"
    },
    {
      "icao": "EPGD",
      "alert": "OK",
      "vis_m": 9999,
      "fzfg": false,
      "metar_trigger": false,
      "taf_trigger": false,
      "metar": "METAR EPGD 221830Z 26004KT 220V280 9999 -RA BKN046 16/12 Q1011",
      "taf": "TAF EPGD 221730Z 2218/2318 26010KT 9999 SCT030"
    },
    {
      "icao": "EPKK",
      "alert": "OK",
      "vis_m": 9999,
      "fzfg": false,
      "metar_trigger": false,
      "taf_trigger": false,
      "metar": "METAR EPKK 221830Z 22003KT CAVOK 19/08 Q1015",
      "taf": "TAF EPKK 221730Z 2218/2318 24005KT CAVOK"
    },
    {
      "icao": "EPKT",
      "alert": "OK",
      "vis_m": 9999,
      "fzfg": false,
      "metar_trigger": false,
      "taf_trigger": false,
      "metar": "METAR EPKT 221830Z 26004KT CAVOK 17/09 Q1015",
      "taf": "TAF EPKT 221730Z 2218/2318 26004KT CAVOK"
    },
    {
      "icao": "EPLB",
      "alert": "OK",
      "vis_m": 9999,
      "fzfg": false,
      "metar_trigger": false,
      "taf_trigger": false,
      "metar": "METAR EPLB 221830Z 26002KT CAVOK 19/09 Q1014",
      "taf": "TAF EPLB 221730Z 2218/2318 25005KT CAVOK"
    },
    {
      "icao": "EPMO",
      "alert": "OK",
      "vis_m": 9999,
      "fzfg": false,
      "metar_trigger": false,
      "taf_trigger": false,
      "metar": "METAR EPMO 221830Z 18005KT 9999 SCT049 16/14 Q1013",
      "taf": "TAF EPMO 221730Z 2218/2318 27010KT CAVOK"
    },
    {
      "icao": "EPPO",
      "alert": "OK",
      "vis_m": 9999,
      "fzfg": false,
      "metar_trigger": false,
      "taf_trigger": false,
      "metar": "METAR EPPO 221830Z 25006KT 220V280 9999 BKN038 18/11 Q1014",
      "taf": "TAF EPPO 221730Z 2218/2318 24008KT 9999 SCT035"
    },
    {
      "icao": "EPRA",
      "alert": "OK",
      "vis_m": 9999,
      "fzfg": false,
      "metar_trigger": false,
      "taf_trigger": false,
      "metar": "METAR EPRA 221830Z 30005KT 270V330 CAVOK 20/07 Q1014",
      "taf": "TAF EPRA 221730Z 2218/2303 26008KT CAVOK"
    },
    {
      "icao": "EPRZ",
      "alert": "OK",
      "vis_m": 9999,
      "fzfg": false,
      "metar_trigger": false,
      "taf_trigger": false,
      "metar": "METAR EPRZ 221830Z 25004KT CAVOK 19/05 Q1015",
      "taf": "TAF EPRZ 221730Z 2218/2318 28006KT CAVOK"
    },
    {
      "icao": "EPSC",
      "alert": "OK",
      "vis_m": 9999,
      "fzfg": false,
      "metar_trigger": false,
      "taf_trigger": false,
      "metar": "METAR EPSC 221830Z 20006KT 180V240 9999 -SHRA FEW003 SCT042CB 15/15 Q1012 RETS",
      "taf": "TAF EPSC 221730Z 2218/2318 25010KT 9999 BKN025"
    },
    {
      "icao": "EPSY",
      "alert": "OK",
      "vis_m": 9999,
      "fzfg": false,
      "metar_trigger": false,
      "taf_trigger": false,
      "metar": "METAR EPSY 221830Z 00000KT CAVOK 17/13 Q1012",
      "taf": "TAF EPSY 221730Z 2218/2303 VRB03KT CAVOK"
    },
    {
      "icao": "EPWA",
      "alert": "OK",
      "vis_m": 9999,
      "fzfg": false,
      "metar_trigger": false,
      "taf_trigger": false,
      "metar": "METAR EPWA 221830Z 23006KT 190V260 9999 FEW060CB 19/10 Q1013 NOSIG",
      "taf": "TAF EPWA 221730Z 2218/2318 26010KT 9999 FEW045"
    },
    {
      "icao": "EPWR",
      "alert": "OK",
      "vis_m": 9999,
      "fzfg": false,
      "metar_trigger": false,
      "taf_trigger": false,
      "metar": "METAR EPWR 221830Z 28012KT 9999 FEW045 19/09 Q1015",
      "taf": "TAF EPWR 221730Z 2218/2318 30015KT 9999 SCT035"
    },
    {
      "icao": "ESGG",
      "alert": "OK",
      "vis_m": 9999,
      "fzfg": false,
      "metar_trigger": false,
      "taf_trigger": false,
      "metar": "METAR ESGG 221820Z 36004KT 330V030 CAVOK 16/12 Q1011",
      "taf": "TAF ESGG 221730Z 2218/2318 02009KT 9999 SCT035"
    },
    {
      "icao": "ESKN",
      "alert": "OK",
      "vis_m": 9999,
      "fzfg": false,
      "metar_trigger": false,
      "taf_trigger": false,
      "metar": "METAR ESKN 221820Z 35008KT 320V030 9999 BKN007 12/11 Q1010",
      "taf": "TAF ESKN 221730Z 2218/2318 35009KT 9999 BKN025"
    },
    {
      "icao": "ESMS",
      "alert": "OK",
      "vis_m": 9999,
      "fzfg": false,
      "metar_trigger": false,
      "taf_trigger": false,
      "metar": "METAR ESMS 221820Z 33010KT CAVOK 17/16 Q1008",
      "taf": "TAF ESMS 221727Z 2218/2318 31012KT 9999 BKN025"
    },
    {
      "icao": "ESSA",
      "alert": "OK",
      "vis_m": 9999,
      "fzfg": false,
      "metar_trigger": false,
      "taf_trigger": false,
      "metar": "METAR ESSA 221820Z 35006KT 9999 -RA BKN006 11/10 Q1010 NOSIG",
      "taf": "TAF ESSA 221730Z 2218/2318 02010KT 9999 BKN035"
    },
    {
      "icao": "EYKA",
      "alert": "OK",
      "vis_m": 9999,
      "fzfg": false,
      "metar_trigger": false,
      "taf_trigger": false,
      "metar": "METAR EYKA 221820Z 32002KT 9999 FEW031 16/12 Q1011",
      "taf": "TAF EYKA 221700Z 2218/2318 VRB03KT 9000 NSC"
    },
    {
      "icao": "EYPA",
      "alert": "OK",
      "vis_m": 9999,
      "fzfg": false,
      "metar_trigger": false,
      "taf_trigger": false,
      "metar": "METAR EYPA 221820Z VRB02KT 9999 SCT017 15/13 Q1010",
      "taf": "TAF EYPA 221700Z 2218/2318 VRB03KT 9000 BKN015"
    },
    {
      "icao": "EYVI",
      "alert": "OK",
      "vis_m": 9999,
      "fzfg": false,
      "metar_trigger": false,
      "taf_trigger": false,
      "metar": "METAR EYVI 221820Z 30005KT CAVOK 16/11 Q1011 NOSIG",
      "taf": "TAF EYVI 221700Z 2218/2318 VRB03KT 9000 SCT040"
    },
    {
      "icao": "GCFV",
      "alert": "OK",
      "vis_m": 9999,
      "fzfg": false,
      "metar_trigger": false,
      "taf_trigger": false,
      "metar": "METAR GCFV 221830Z 02015KT CAVOK 26/19 Q1017",
      "taf": "TAF GCFV 221400Z 2215/2315 05020KT 9999 FEW020 TX28/2314Z TN22/2306Z"
    },
    {
      "icao": "GCLP",
      "alert": "OK",
      "vis_m": 9999,
      "fzfg": false,
      "metar_trigger": false,
      "taf_trigger": false,
      "metar": "METAR GCLP 221830Z 36023G34KT 9999 FEW030 26/18 Q1017 NOSIG",
      "taf": "TAF GCLP 221400Z 2215/2315 02028KT 9999 FEW025 TX29/2314Z TN23/2306Z"
    },
    {
      "icao": "GCTS",
      "alert": "OK",
      "vis_m": 9999,
      "fzfg": false,
      "metar_trigger": false,
      "taf_trigger": false,
      "metar": "METAR GCTS 221830Z 07019KT 9999 FEW025 26/19 Q1017 WS R07 NOSIG",
      "taf": "TAF GCTS 221400Z 2215/2315 10020KT 9999 FEW025 TX30/2314Z TN22/2306Z"
    },
    {
      "icao": "GMAD",
      "alert": "OK",
      "vis_m": 8000,
      "fzfg": false,
      "metar_trigger": false,
      "taf_trigger": false,
      "metar": "METAR GMAD 221830Z 28010KT 250V330 8000 NSC 27/18 Q1012 NOSIG",
      "taf": "TAF GMAD 221700Z 2218/2324 20008KT 8000 NSC"
    },
    {
      "icao": "GMMN",
      "alert": "OK",
      "vis_m": 9999,
      "fzfg": false,
      "metar_trigger": false,
      "taf_trigger": false,
      "metar": "METAR GMMN 221830Z 02012KT 350V050 CAVOK 26/19 Q1017 NOSIG",
      "taf": "TAF GMMN 221700Z 2218/2324 36012KT CAVOK"
    },
    {
      "icao": "GMMX",
      "alert": "OK",
      "vis_m": 8000,
      "fzfg": false,
      "metar_trigger": false,
      "taf_trigger": false,
      "metar": "METAR GMMX 221830Z 34005KT 290V050 8000 FEW040 SCT100 39/18 Q1016 NOSIG",
      "taf": "TAF GMMX 221700Z 2218/2324 24005KT 8000 SCT030"
    },
    {
      "icao": "HEGN",
      "alert": "OK",
      "vis_m": 9999,
      "fzfg": false,
      "metar_trigger": false,
      "taf_trigger": false,
      "metar": "METAR HEGN 221800Z 31005KT CAVOK 35/16 Q1005 NOSIG",
      "taf": "TAF HEGN 221700Z 2218/2324 33008G20KT CAVOK"
    },
    {
      "icao": "HEMA",
      "alert": "OK",
      "vis_m": 9999,
      "fzfg": false,
      "metar_trigger": false,
      "taf_trigger": false,
      "metar": "METAR HEMA 221800Z 23005KT CAVOK 33/07 Q1005 NOSIG",
      "taf": "TAF HEMA 221700Z 2218/2324 33008G20KT CAVOK"
    },
    {
      "icao": "HESH",
      "alert": "OK",
      "vis_m": 9999,
      "fzfg": false,
      "metar_trigger": false,
      "taf_trigger": false,
      "metar": "METAR HESH 221800Z 25002KT CAVOK 37/08 Q1004 NOSIG",
      "taf": "TAF HESH 221700Z 2218/2324 35012KT CAVOK"
    },
    {
      "icao": "HESX",
      "alert": "OK",
      "vis_m": 9999,
      "fzfg": false,
      "metar_trigger": false,
      "taf_trigger": false,
      "metar": "METAR HESX 221800Z 33007KT CAVOK 32/17 Q1008 NOSIG",
      "taf": "TAF HESX 221700Z 2218/2324 32012KT CAVOK"
    },
    {
      "icao": "LATI",
      "alert": "OK",
      "vis_m": 9999,
      "fzfg": false,
      "metar_trigger": false,
      "taf_trigger": false,
      "metar": "METAR LATI 221820Z VRB02KT CAVOK 25/18 Q1012 NOSIG",
      "taf": "TAF LATI 221700Z 2218/2318 VRB06KT CAVOK TX32/2312Z TN22/2304Z"
    },
    {
      "icao": "LBPD",
      "alert": "OK",
      "vis_m": 9999,
      "fzfg": false,
      "metar_trigger": false,
      "taf_trigger": false,
      "metar": "METAR LBPD 221830Z AUTO 33011KT 9999 BKN071/// 23/12 Q1013 NOSIG",
      "taf": "TAF LBPD 221700Z 2218/2318 31016KT 9999 SCT050"
    },
    {
      "icao": "LBSF",
      "alert": "OK",
      "vis_m": 9999,
      "fzfg": false,
      "metar_trigger": false,
      "taf_trigger": false,
      "metar": "METAR LBSF 221830Z AUTO 29005KT 9999 NCD 19/09 Q1016 NOSIG",
      "taf": "TAF LBSF 221700Z 2218/2318 29010KT 9999 SCT050"
    },
    {
      "icao": "LBWN",
      "alert": "OK",
      "vis_m": 9999,
      "fzfg": false,
      "metar_trigger": false,
      "taf_trigger": false,
      "metar": "METAR LBWN 221830Z AUTO 30011KT 9999 BKN019/// 19/16 Q1012 NOSIG",
      "taf": "TAF LBWN 221700Z 2218/2318 34012KT 9999 SCT010 BKN020"
    },
    {
      "icao": "LCLK",
      "alert": "OK",
      "vis_m": 9999,
      "fzfg": false,
      "metar_trigger": false,
      "taf_trigger": false,
      "metar": "METAR LCLK 221830Z 21010KT CAVOK 29/27 Q1004 NOSIG",
      "taf": "TAF LCLK 221730Z 2218/2318 22012KT 9999 FEW025"
    },
    {
      "icao": "LCPH",
      "alert": "OK",
      "vis_m": 9999,
      "fzfg": false,
      "metar_trigger": false,
      "taf_trigger": false,
      "metar": "METAR LCPH 221830Z AUTO 32007KT 9999 NCD 29/25 Q1005 NOSIG",
      "taf": "TAF LCPH 221730Z 2218/2318 30012KT 9999 FEW020"
    },
    {
      "icao": "LEAL",
      "alert": "OK",
      "vis_m": 9999,
      "fzfg": false,
      "metar_trigger": false,
      "taf_trigger": false,
      "metar": "METAR LEAL 221830Z 09009KT CAVOK 31/27 Q1015 NOSIG",
      "taf": "TAF LEAL 221700Z 2218/2318 10009KT 9999 SCT020 TX36/2313Z TN25/2305Z"
    },
    {
      "icao": "LEBB",
      "alert": "OK",
      "vis_m": 9999,
      "fzfg": false,
      "metar_trigger": false,
      "taf_trigger": false,
      "metar": "METAR LEBB 221830Z 31005KT 260V350 CAVOK 27/18 Q1018 NOSIG",
      "taf": "TAF LEBB 221700Z 2218/2318 30010KT CAVOK TX31/2313Z TN18/2305Z"
    },
    {
      "icao": "LEBL",
      "alert": "OK",
      "vis_m": 9999,
      "fzfg": false,
      "metar_trigger": false,
      "taf_trigger": false,
      "metar": "METAR LEBL 221830Z 11007KT 080V140 CAVOK 28/20 Q1016 NOSIG",
      "taf": "TAF LEBL 221700Z 2218/2318 16006KT 9999 FEW020 TX31/2313Z TN24/2306Z"
    },
    {
      "icao": "LECH",
      "alert": "OK",
      "vis_m": 9000,
      "fzfg": false,
      "metar_trigger": false,
      "taf_trigger": false,
      "metar": "METAR LECH 221830Z AUTO 13005KT 9000 NSC 27/20 Q1018",
      "taf": "TAF LECH 221700Z 2218/2318 12009KT CAVOK TX36/2314Z TN22/2305Z"
    },
    {
      "icao": "LEMD",
      "alert": "OK",
      "vis_m": 9999,
      "fzfg": false,
      "metar_trigger": false,
      "taf_trigger": false,
      "metar": "METAR LEMD 221830Z 26009KT 220V290 CAVOK 37/03 Q1017 NOSIG",
      "taf": "TAF LEMD 221700Z 2218/2324 23010KT CAVOK TX38/2316Z TN22/2305Z"
    },
    {
      "icao": "LEMG",
      "alert": "OK",
      "vis_m": 9999,
      "fzfg": false,
      "metar_trigger": false,
      "taf_trigger": false,
      "metar": "METAR LEMG 221830Z 13005KT 100V160 CAVOK 29/16 Q1015 NOSIG",
      "taf": "TAF LEMG 221700Z 2218/2318 13010KT CAVOK TX38/2314Z TN22/2305Z"
    },
    {
      "icao": "LEVC",
      "alert": "OK",
      "vis_m": 9999,
      "fzfg": false,
      "metar_trigger": false,
      "taf_trigger": false,
      "metar": "METAR LEVC 221830Z 08007KT 030V130 CAVOK 29/23 Q1016 NOSIG",
      "taf": ""
    },
    {
      "icao": "LEXJ",
      "alert": "OK",
      "vis_m": 9999,
      "fzfg": false,
      "metar_trigger": false,
      "taf_trigger": false,
      "metar": "METAR LEXJ 221830Z 05003KT 340V130 CAVOK 24/18 Q1018",
      "taf": "TAF LEXJ 221400Z 2215/2315 06010KT CAVOK TX29/2312Z TN17/2305Z"
    },
    {
      "icao": "LEZG",
      "alert": "OK",
      "vis_m": 9999,
      "fzfg": false,
      "metar_trigger": false,
      "taf_trigger": false,
      "metar": "METAR LEZG 221830Z 07005KT CAVOK 37/13 Q1013 NOSIG",
      "taf": "TAF LEZG 221700Z 2218/2318 11009KT CAVOK TX42/2315Z TN24/2305Z"
    },
    {
      "icao": "LEZL",
      "alert": "OK",
      "vis_m": 9999,
      "fzfg": false,
      "metar_trigger": false,
      "taf_trigger": false,
      "metar": "METAR LEZL 221830Z 22010KT 190V250 CAVOK 36/15 Q1014 NOSIG",
      "taf": "TAF LEZL 221400Z 2215/2315 22008KT CAVOK TX40/2215Z TN22/2305Z"
    },
    {
      "icao": "LFBD",
      "alert": "OK",
      "vis_m": 9999,
      "fzfg": false,
      "metar_trigger": false,
      "taf_trigger": false,
      "metar": "METAR LFBD 221830Z AUTO 01007KT CAVOK 31/05 Q1017 NOSIG",
      "taf": "TAF LFBD 221700Z 2218/2324 04010KT CAVOK TX36/2315Z TN20/2306Z"
    },
    {
      "icao": "LFLL",
      "alert": "OK",
      "vis_m": 9999,
      "fzfg": false,
      "metar_trigger": false,
      "taf_trigger": false,
      "metar": "METAR LFLL 221830Z 35010KT CAVOK 27/05 Q1019 NOSIG",
      "taf": "TAF LFLL 221700Z 2218/2324 35010KT CAVOK"
    },
    {
      "icao": "LFLS",
      "alert": "OK",
      "vis_m": 9999,
      "fzfg": false,
      "metar_trigger": false,
      "taf_trigger": false,
      "metar": "METAR LFLS 221830Z AUTO 34006KT 310V010 CAVOK 26/06 Q1019 NOSIG",
      "taf": "TAF LFLS 221400Z 2215/2315 35008KT CAVOK"
    },
    {
      "icao": "LFMN",
      "alert": "OK",
      "vis_m": 9999,
      "fzfg": false,
      "metar_trigger": false,
      "taf_trigger": false,
      "metar": "METAR LFMN 221830Z 21004KT 180V240 CAVOK 28/19 Q1015 NOSIG",
      "taf": "TAF LFMN 221400Z 2215/2321 18007KT CAVOK"
    },
    {
      "icao": "LFOB",
      "alert": "OK",
      "vis_m": 9999,
      "fzfg": false,
      "metar_trigger": false,
      "taf_trigger": false,
      "metar": "METAR LFOB 221830Z AUTO 03010KT 360V060 CAVOK 22/11 Q1023 NOSIG",
      "taf": "TAF LFOB 221700Z 2218/2318 03008KT CAVOK"
    },
    {
      "icao": "LFPO",
      "alert": "OK",
      "vis_m": 9999,
      "fzfg": false,
      "metar_trigger": false,
      "taf_trigger": false,
      "metar": "METAR LFPO 221830Z AUTO 04013KT CAVOK 24/10 Q1022 NOSIG",
      "taf": "TAF LFPO 221700Z 2218/2324 02010KT CAVOK"
    },
    {
      "icao": "LFSB",
      "alert": "OK",
      "vis_m": 9999,
      "fzfg": false,
      "metar_trigger": false,
      "taf_trigger": false,
      "metar": "METAR LFSB 221830Z AUTO 02008KT CAVOK 25/08 Q1019 NOSIG",
      "taf": "TAF LFSB 221700Z 2218/2318 35007KT CAVOK"
    },
    {
      "icao": "LGAV",
      "alert": "OK",
      "vis_m": 9999,
      "fzfg": false,
      "metar_trigger": false,
      "taf_trigger": false,
      "metar": "METAR LGAV 221820Z 16005KT 110V200 CAVOK 28/21 Q1007 NOSIG",
      "taf": "TAF LGAV 221700Z 2218/2318 VRB05KT 9999 FEW025"
    },
    {
      "icao": "LGTS",
      "alert": "OK",
      "vis_m": 9999,
      "fzfg": false,
      "metar_trigger": false,
      "taf_trigger": false,
      "metar": "METAR LGTS 221820Z 35018KT 9999 SCT020 29/14 Q1009 NOSIG",
      "taf": "TAF LGTS 221700Z 2218/2318 34015KT 9999 FEW030"
    },
    {
      "icao": "LHBP",
      "alert": "OK",
      "vis_m": 9999,
      "fzfg": false,
      "metar_trigger": false,
      "taf_trigger": false,
      "metar": "METAR LHBP 221830Z 32007KT CAVOK 23/04 Q1016 NOSIG",
      "taf": "TAF LHBP 221715Z 2218/2318 33008KT CAVOK"
    },
    {
      "icao": "LHDC",
      "alert": "OK",
      "vis_m": 9999,
      "fzfg": false,
      "metar_trigger": false,
      "taf_trigger": false,
      "metar": "METAR LHDC 221815Z AUTO 05005KT CAVOK 22/05 Q1015 NOSIG",
      "taf": "TAF LHDC 221715Z 2218/2303 33008KT CAVOK"
    },
    {
      "icao": "LIBD",
      "alert": "OK",
      "vis_m": 9999,
      "fzfg": false,
      "metar_trigger": false,
      "taf_trigger": false,
      "metar": "METAR LIBD 221820Z 35008KT 310V040 CAVOK 26/18 Q1014",
      "taf": "TAF LIBD 221700Z 2218/2318 35014KT 9999 FEW030"
    },
    {
      "icao": "LIBG",
      "alert": "OK",
      "vis_m": 9999,
      "fzfg": false,
      "metar_trigger": false,
      "taf_trigger": false,
      "metar": "METAR LIBG 221820Z AUTO 01011KT 9999 NCD 27/12 Q1014",
      "taf": "TAF LIBG 221700Z 2218/2318 02015KT CAVOK"
    },
    {
      "icao": "LIBP",
      "alert": "OK",
      "vis_m": 9999,
      "fzfg": false,
      "metar_trigger": false,
      "taf_trigger": false,
      "metar": "METAR LIBP 221820Z AUTO 33003KT 300V360 9999 OVC060/// 26/16 Q1016",
      "taf": "TAF LIBP 221700Z 2218/2318 VRB05KT 9999 SCT040"
    },
    {
      "icao": "LIBR",
      "alert": "OK",
      "vis_m": 9999,
      "fzfg": false,
      "metar_trigger": false,
      "taf_trigger": false,
      "metar": "METAR LIBR 221820Z 35014KT CAVOK 27/17 Q1013",
      "taf": "TAF LIBR 221700Z 2218/2318 35013KT 9999 FEW030"
    },
    {
      "icao": "LICA",
      "alert": "OK",
      "vis_m": 9999,
      "fzfg": false,
      "metar_trigger": false,
      "taf_trigger": false,
      "metar": "METAR LICA 221820Z AUTO 25008KT 9999 NCD 29/26 Q1013",
      "taf": "TAF LICA 221700Z 2218/2318 25010KT 9999 FEW018"
    },
    {
      "icao": "LICC",
      "alert": "OK",
      "vis_m": 9999,
      "fzfg": false,
      "metar_trigger": false,
      "taf_trigger": false,
      "metar": "METAR LICC 221820Z 09006KT CAVOK 29/20 Q1013",
      "taf": "TAF LICC 221700Z 2218/2318 VRB05KT 9999 FEW020"
    },
    {
      "icao": "LICJ",
      "alert": "OK",
      "vis_m": 9999,
      "fzfg": false,
      "metar_trigger": false,
      "taf_trigger": false,
      "metar": "METAR LICJ 221820Z VRB02KT CAVOK 29/27 Q1014",
      "taf": "TAF LICJ 221700Z 2218/2318 VRB05KT CAVOK"
    },
    {
      "icao": "LIMC",
      "alert": "OK",
      "vis_m": 9999,
      "fzfg": false,
      "metar_trigger": false,
      "taf_trigger": false,
      "metar": "METAR LIMC 221820Z 27006KT CAVOK 27/14 Q1016 NOSIG",
      "taf": "TAF LIMC 221700Z 2218/2324 VRB05KT CAVOK"
    },
    {
      "icao": "LIME",
      "alert": "OK",
      "vis_m": 9999,
      "fzfg": false,
      "metar_trigger": false,
      "taf_trigger": false,
      "metar": "METAR LIME 221820Z 15005KT 120V240 9999 FEW100 26/14 Q1016 NOSIG",
      "taf": "TAF LIME 221700Z 2218/2318 VRB05KT 9999 FEW060"
    },
    {
      "icao": "LIMF",
      "alert": "OK",
      "vis_m": 9999,
      "fzfg": false,
      "metar_trigger": false,
      "taf_trigger": false,
      "metar": "METAR LIMF 221820Z 07006KT 9999 FEW070 27/15 Q1016",
      "taf": "TAF LIMF 221700Z 2218/2318 VRB05KT CAVOK"
    },
    {
      "icao": "LIMJ",
      "alert": "OK",
      "vis_m": 9999,
      "fzfg": false,
      "metar_trigger": false,
      "taf_trigger": false,
      "metar": "METAR LIMJ 221820Z AUTO 27009KT 9999 NCD 29/20 Q1014",
      "taf": "TAF LIMJ 221700Z 2218/2318 25010KT CAVOK"
    },
    {
      "icao": "LIPE",
      "alert": "OK",
      "vis_m": 9999,
      "fzfg": false,
      "metar_trigger": false,
      "taf_trigger": false,
      "metar": "METAR LIPE 221820Z 11010KT CAVOK 26/11 Q1015",
      "taf": "TAF LIPE 221700Z 2218/2318 10010KT 9999 FEW040"
    },
    {
      "icao": "LIPH",
      "alert": "OK",
      "vis_m": 9999,
      "fzfg": false,
      "metar_trigger": false,
      "taf_trigger": false,
      "metar": "METAR LIPH 221820Z 14004KT CAVOK 26/12 Q1016",
      "taf": "TAF LIPH 221700Z 2218/2318 VRB05KT CAVOK"
    },
    {
      "icao": "LIPQ",
      "alert": "OK",
      "vis_m": 9999,
      "fzfg": false,
      "metar_trigger": false,
      "taf_trigger": false,
      "metar": "METAR LIPQ 221820Z AUTO 33004KT 9999 NCD 25/12 Q1015",
      "taf": "TAF LIPQ 221700Z 2218/2318 VRB05KT CAVOK"
    },
    {
      "icao": "LIPR",
      "alert": "OK",
      "vis_m": 9999,
      "fzfg": false,
      "metar_trigger": false,
      "taf_trigger": false,
      "metar": "METAR LIPR 221820Z 11005KT 070V130 CAVOK 25/15 Q1016",
      "taf": "TAF LIPR 221700Z 2218/2318 07010KT 9999 SCT040"
    },
    {
      "icao": "LIPX",
      "alert": "OK",
      "vis_m": 9999,
      "fzfg": false,
      "metar_trigger": false,
      "taf_trigger": false,
      "metar": "METAR LIPX 221820Z AUTO 16002KT 9999 NCD 26/16 Q1015",
      "taf": "TAF LIPX 221700Z 2218/2318 VRB05KT CAVOK"
    },
    {
      "icao": "LIPY",
      "alert": "OK",
      "vis_m": 9999,
      "fzfg": false,
      "metar_trigger": false,
      "taf_trigger": false,
      "metar": "METAR LIPY 221820Z AUTO VRB02KT 9999 NCD 25/16 Q1016",
      "taf": "TAF LIPY 221700Z 2218/2318 VRB05KT 9999 SCT040"
    },
    {
      "icao": "LIPZ",
      "alert": "OK",
      "vis_m": 9999,
      "fzfg": false,
      "metar_trigger": false,
      "taf_trigger": false,
      "metar": "METAR LIPZ 221820Z 15005KT CAVOK 26/11 Q1016 NOSIG",
      "taf": "TAF LIPZ 221700Z 2218/2324 VRB05KT CAVOK"
    },
    {
      "icao": "LIRF",
      "alert": "OK",
      "vis_m": 9999,
      "fzfg": false,
      "metar_trigger": false,
      "taf_trigger": false,
      "metar": "METAR LIRF 221820Z 29012KT CAVOK 29/21 Q1012 NOSIG",
      "taf": "TAF LIRF 221700Z 2218/2324 32015KT 9999 FEW030"
    },
    {
      "icao": "LIRN",
      "alert": "OK",
      "vis_m": 9999,
      "fzfg": false,
      "metar_trigger": false,
      "taf_trigger": false,
      "metar": "METAR LIRN 221820Z 32007KT 9999 FEW040 30/21 Q1013 NOSIG",
      "taf": "TAF LIRN 221700Z 2218/2318 VRB05KT CAVOK"
    },
    {
      "icao": "LIRP",
      "alert": "OK",
      "vis_m": 9999,
      "fzfg": false,
      "metar_trigger": false,
      "taf_trigger": false,
      "metar": "METAR LIRP 221815Z 30009KT CAVOK 29/18 Q1014 NOSIG",
      "taf": "TAF LIRP 221700Z 2218/2318 30010KT CAVOK"
    },
    {
      "icao": "LIRZ",
      "alert": "OK",
      "vis_m": 9999,
      "fzfg": false,
      "metar_trigger": false,
      "taf_trigger": false,
      "metar": "METAR LIRZ 221820Z AUTO 04009KT 9999 NCD 27/14 Q1015",
      "taf": "TAF LIRZ 221700Z 2218/2318 VRB05KT 9999 SCT040"
    },
    {
      "icao": "LJLJ",
      "alert": "OK",
      "vis_m": 9999,
      "fzfg": false,
      "metar_trigger": false,
      "taf_trigger": false,
      "metar": "METAR LJLJ 221830Z 08004KT 050V110 9999 SCT090 20/11 Q1018 NOSIG",
      "taf": "TAF LJLJ 221700Z 2218/2318 12006KT 9999 FEW090"
    },
    {
      "icao": "LKMT",
      "alert": "OK",
      "vis_m": 9999,
      "fzfg": false,
      "metar_trigger": false,
      "taf_trigger": false,
      "metar": "METAR LKMT 221830Z 24003KT CAVOK 19/07 Q1016 NOSIG",
      "taf": "TAF LKMT 221700Z 2218/2318 23008KT CAVOK"
    },
    {
      "icao": "LKPR",
      "alert": "OK",
      "vis_m": 9999,
      "fzfg": false,
      "metar_trigger": false,
      "taf_trigger": false,
      "metar": "METAR LKPR 221830Z 33011KT CAVOK 18/09 Q1017 NOSIG",
      "taf": "TAF LKPR 221700Z 2218/2324 29012KT CAVOK"
    },
    {
      "icao": "LLBG",
      "alert": "OK",
      "vis_m": 9999,
      "fzfg": false,
      "metar_trigger": false,
      "taf_trigger": false,
      "metar": "METAR LLBG 221820Z 24005KT CAVOK 29/24 Q1006 NOSIG",
      "taf": "TAF LLBG 221702Z 2218/2318 VRB04KT 9999 SCT017 TX33/2310Z TN24/2302Z"
    },
    {
      "icao": "LMML",
      "alert": "OK",
      "vis_m": 9999,
      "fzfg": false,
      "metar_trigger": false,
      "taf_trigger": false,
      "metar": "METAR LMML 221815Z 29013KT CAVOK 34/16 Q1013 NOSIG",
      "taf": "TAF LMML 221700Z 2218/2318 29015KT CAVOK"
    },
    {
      "icao": "LOWW",
      "alert": "OK",
      "vis_m": 9999,
      "fzfg": false,
      "metar_trigger": false,
      "taf_trigger": false,
      "metar": "METAR LOWW 221820Z 31009KT CAVOK 24/04 Q1016 NOSIG",
      "taf": "TAF LOWW 221715Z 2218/2324 28008KT 9999 FEW050 TX23/2313Z TN14/2324Z"
    },
    {
      "icao": "LPFR",
      "alert": "OK",
      "vis_m": 9999,
      "fzfg": false,
      "metar_trigger": false,
      "taf_trigger": false,
      "metar": "METAR LPFR 221830Z 26009KT CAVOK 25/17 Q1016",
      "taf": "TAF LPFR 221700Z 2218/2318 24010KT CAVOK"
    },
    {
      "icao": "LPMA",
      "alert": "OK",
      "vis_m": 9999,
      "fzfg": false,
      "metar_trigger": false,
      "taf_trigger": false,
      "metar": "METAR LPMA 221830Z 36009KT 320V040 9999 SCT016 24/18 Q1022",
      "taf": "TAF LPMA 221700Z 2218/2318 02012KT 9999 SCT015"
    },
    {
      "icao": "LPPR",
      "alert": "OK",
      "vis_m": 9999,
      "fzfg": false,
      "metar_trigger": false,
      "taf_trigger": false,
      "metar": "METAR LPPR 221830Z 26005KT 220V310 9999 SCT016 23/17 Q1018",
      "taf": "TAF LPPR 221700Z 2218/2318 26010KT 9999 SCT012"
    },
    {
      "icao": "LPPS",
      "alert": "OK",
      "vis_m": 9999,
      "fzfg": false,
      "metar_trigger": false,
      "taf_trigger": false,
      "metar": "METAR LPPS 221830Z 02012KT 350V050 9999 FEW015 23/17 Q1022",
      "taf": "TAF LPPS 221700Z 2218/2324 02012KT 9999 SCT015"
    },
    {
      "icao": "LPPT",
      "alert": "OK",
      "vis_m": 9999,
      "fzfg": false,
      "metar_trigger": false,
      "taf_trigger": false,
      "metar": "METAR LPPT 221830Z 30008KT 260V320 9999 FEW030 24/17 Q1018 NOSIG",
      "taf": "TAF LPPT 221700Z 2218/2324 30010KT 9999 FEW020"
    },
    {
      "icao": "LQBK",
      "alert": "OK",
      "vis_m": 9999,
      "fzfg": false,
      "metar_trigger": false,
      "taf_trigger": false,
      "metar": "METAR LQBK 221830Z 24001KT CAVOK 20/11 Q1017 NOSIG",
      "taf": "TAF LQBK 221700Z 2218/2318 20005KT CAVOK TX27/2314Z TN12/2303Z"
    },
    {
      "icao": "LQSA",
      "alert": "OK",
      "vis_m": 9999,
      "fzfg": false,
      "metar_trigger": false,
      "taf_trigger": false,
      "metar": "METAR LQSA 221830Z 32004KT 9999 FEW055 19/11 Q1018 NOSIG",
      "taf": "TAF LQSA 221700Z 2218/2318 VRB02KT CAVOK TX24/2313Z TN11/2304Z"
    },
    {
      "icao": "LQTZ",
      "alert": "OK",
      "vis_m": 9999,
      "fzfg": false,
      "metar_trigger": false,
      "taf_trigger": false,
      "metar": "METAR LQTZ 221830Z VRB01KT CAVOK 18/15 Q1018",
      "taf": "TAF LQTZ 221700Z 2218/2318 24005KT 9999 FEW050 TX26/2314Z TN10/2303Z"
    },
    {
      "icao": "LRBC",
      "alert": "OK",
      "vis_m": 9999,
      "fzfg": false,
      "metar_trigger": false,
      "taf_trigger": false,
      "metar": "METAR LRBC 221830Z VRB01KT 9999 -RA OVC060 17/15 Q1015",
      "taf": "TAF LRBC 221700Z 2218/2303 32006KT 9999 BKN045"
    },
    {
      "icao": "LRBS",
      "alert": "OK",
      "vis_m": 9999,
      "fzfg": false,
      "metar_trigger": false,
      "taf_trigger": false,
      "metar": "METAR LRBS 221830Z COR 24002KT 9999 FEW044 17/16 Q1014 NOSIG",
      "taf": "TAF LRBS 221700Z 2218/2318 VRB04KT 9999 BKN035"
    },
    {
      "icao": "LRBV",
      "alert": "OK",
      "vis_m": 9999,
      "fzfg": false,
      "metar_trigger": false,
      "taf_trigger": false,
      "metar": "METAR LRBV 221830Z 29007KT 250V320 9999 -RA FEW017 SCT025 BKN036 14/13 Q1016",
      "taf": "TAF LRBV 221700Z 2218/2303 28008KT 9999 BKN040"
    },
    {
      "icao": "LRCL",
      "alert": "OK",
      "vis_m": 9999,
      "fzfg": false,
      "metar_trigger": false,
      "taf_trigger": false,
      "metar": "METAR LRCL 221830Z 08002KT 9999 FEW068 16/13 Q1016",
      "taf": "TAF LRCL 221700Z 2218/2303 VRB04KT 9999 SCT050"
    },
    {
      "icao": "LRCV",
      "alert": "OK",
      "vis_m": 9999,
      "fzfg": false,
      "metar_trigger": false,
      "taf_trigger": false,
      "metar": "METAR LRCV 221830Z 20003KT CAVOK 18/16 Q1014",
      "taf": "TAF LRCV 221700Z 2218/2303 VRB04KT CAVOK"
    },
    {
      "icao": "LRIA",
      "alert": "OK",
      "vis_m": 9999,
      "fzfg": false,
      "metar_trigger": false,
      "taf_trigger": false,
      "metar": "METAR LRIA 221830Z VRB02KT 9999 -RA NSC 18/14 Q1014",
      "taf": "TAF LRIA 221700Z 2218/2303 27005KT CAVOK"
    },
    {
      "icao": "LROP",
      "alert": "OK",
      "vis_m": 9999,
      "fzfg": false,
      "metar_trigger": false,
      "taf_trigger": false,
      "metar": "METAR LROP 221830Z 25003KT 9999 SCT045 17/17 Q1014 NOSIG",
      "taf": "TAF LROP 221700Z 2218/2318 VRB04KT 9999 BKN035"
    },
    {
      "icao": "LRSB",
      "alert": "OK",
      "vis_m": 9999,
      "fzfg": false,
      "metar_trigger": false,
      "taf_trigger": false,
      "metar": "METAR LRSB 221830Z 26005KT 220V300 9999 -RA FEW040 BKN072 15/13 Q1016",
      "taf": "TAF LRSB 221700Z 2218/2318 VRB04KT 9999 BKN060"
    },
    {
      "icao": "LRSM",
      "alert": "OK",
      "vis_m": 9999,
      "fzfg": false,
      "metar_trigger": false,
      "taf_trigger": false,
      "metar": "METAR LRSM 221830Z AUTO 32005KT 9999 NCD 19/05 Q1015",
      "taf": "TAF LRSM 221400Z 2215/2224 32010KT CAVOK"
    },
    {
      "icao": "LRSV",
      "alert": "OK",
      "vis_m": 9999,
      "fzfg": false,
      "metar_trigger": false,
      "taf_trigger": false,
      "metar": "METAR LRSV 221830Z 28007KT 9999 -RA SCT046 17/12 Q1015",
      "taf": "TAF LRSV 221700Z 2218/2303 30006KT CAVOK"
    },
    {
      "icao": "LRTM",
      "alert": "OK",
      "vis_m": 9999,
      "fzfg": false,
      "metar_trigger": false,
      "taf_trigger": false,
      "metar": "METAR LRTM 221830Z 20004KT 9999 FEW047CB 16/13 Q1016",
      "taf": "TAF LRTM 221700Z 2218/2303 VRB04KT CAVOK"
    },
    {
      "icao": "LRTR",
      "alert": "OK",
      "vis_m": 9999,
      "fzfg": false,
      "metar_trigger": false,
      "taf_trigger": false,
      "metar": "METAR LRTR 221830Z VRB01KT CAVOK 21/09 Q1016",
      "taf": "TAF LRTR 221700Z 2218/2318 VRB04KT CAVOK"
    },
    {
      "icao": "LTAC",
      "alert": "OK",
      "vis_m": 9999,
      "fzfg": false,
      "metar_trigger": false,
      "taf_trigger": false,
      "metar": "METAR LTAC 221820Z 29004KT CAVOK 25/06 Q1012 NOSIG RMK RWY21C 28004KT RWY03L 29003KT RWY21R VRB02KT RWY03R 27002KT RWY21L 27004KT",
      "taf": "TAF LTAC 221640Z 2218/2318 VRB02KT CAVOK"
    },
    {
      "icao": "LTFM",
      "alert": "OK",
      "vis_m": 9999,
      "fzfg": false,
      "metar_trigger": false,
      "taf_trigger": false,
      "metar": "METAR LTFM 221820Z 02011KT 9999 SCT028 BKN080 22/20 Q1011 NOSIG RMK RWY17L 01011KT RWY34L 36011KT RWY16R 36009KT RWY36 02010KT RWY18 02010KT",
      "taf": "TAF LTFM 221640Z 2218/2324 01016KT 9999 SCT028 BKN100"
    },
    {
      "icao": "LUKK",
      "alert": "OK",
      "vis_m": 9999,
      "fzfg": false,
      "metar_trigger": false,
      "taf_trigger": false,
      "metar": "METAR LUKK 221830Z 28004KT 9999 -RA NSC 17/16 Q1014 NOSIG",
      "taf": "TAF LUKK 221645Z 2218/2318 33007KT CAVOK"
    },
    {
      "icao": "LWOH",
      "alert": "OK",
      "vis_m": 9999,
      "fzfg": false,
      "metar_trigger": false,
      "taf_trigger": false,
      "metar": "METAR LWOH 221820Z 29006KT 260V340 9999 FEW040 21/14 Q1015",
      "taf": "TAF LWOH 221705Z 2215/2315 30008KT CAVOK"
    },
    {
      "icao": "LWSK",
      "alert": "OK",
      "vis_m": 9999,
      "fzfg": false,
      "metar_trigger": false,
      "taf_trigger": false,
      "metar": "METAR LWSK 221820Z COR 01013KT 340V040 9999 BKN060 23/11 Q1015 NOSIG",
      "taf": "TAF LWSK 221705Z 2218/2318 36015KT CAVOK"
    },
    {
      "icao": "LYBE",
      "alert": "OK",
      "vis_m": 9999,
      "fzfg": false,
      "metar_trigger": false,
      "taf_trigger": false,
      "metar": "METAR LYBE 221830Z 28006KT CAVOK 21/09 Q1016 NOSIG",
      "taf": "TAF LYBE 221700Z 2218/2318 28008KT CAVOK TX27/2314Z TN13/2303Z"
    },
    {
      "icao": "LYNI",
      "alert": "OK",
      "vis_m": 9999,
      "fzfg": false,
      "metar_trigger": false,
      "taf_trigger": false,
      "metar": "METAR LYNI 221830Z VRB02KT 9999 FEW050 21/11 Q1016 NOSIG",
      "taf": "TAF LYNI 221700Z 2218/2318 12006KT 9999 SCT050 TX25/2314Z TN11/2303Z"
    },
    {
      "icao": "LYPG",
      "alert": "OK",
      "vis_m": 9999,
      "fzfg": false,
      "metar_trigger": false,
      "taf_trigger": false,
      "metar": "METAR LYPG 221830Z 01012KT 9999 FEW060 27/10 Q1012 NOSIG",
      "taf": "TAF LYPG 221700Z 2218/2318 35014KT 9999 FEW040 TX32/2313Z TN22/2303Z"
    },
    {
      "icao": "LZIB",
      "alert": "OK",
      "vis_m": 9999,
      "fzfg": false,
      "metar_trigger": false,
      "taf_trigger": false,
      "metar": "METAR LZIB 221830Z VRB01KT CAVOK 24/04 Q1016 NOSIG",
      "taf": "TAF LZIB 221715Z 2218/2318 30006KT CAVOK"
    },
    {
      "icao": "LZKZ",
      "alert": "OK",
      "vis_m": 9999,
      "fzfg": false,
      "metar_trigger": false,
      "taf_trigger": false,
      "metar": "METAR LZKZ 221830Z 01009KT CAVOK 21/07 Q1016 NOSIG",
      "taf": "TAF LZKZ 221715Z 2218/2318 01010KT CAVOK"
    },
    {
      "icao": "LZTT",
      "alert": "OK",
      "vis_m": 9999,
      "fzfg": false,
      "metar_trigger": false,
      "taf_trigger": false,
      "metar": "METAR LZTT 221830Z VRB03KT CAVOK 14/05 Q1017",
      "taf": "TAF LZTT 221715Z 2218/2318 28008KT 9999 FEW040 SCT060"
    },
    {
      "icao": "OEJN",
      "alert": "OK",
      "vis_m": 9999,
      "fzfg": false,
      "metar_trigger": false,
      "taf_trigger": false,
      "metar": "METAR OEJN 221800Z 36003KT CAVOK 34/19 Q1004 NOSIG",
      "taf": "TAF OEJN 221700Z 2218/2324 36006KT CAVOK"
    },
    {
      "icao": "OEMA",
      "alert": "OK",
      "vis_m": 9999,
      "fzfg": false,
      "metar_trigger": false,
      "taf_trigger": false,
      "metar": "METAR OEMA 221800Z 23011KT CAVOK 40/09 Q1008 NOSIG",
      "taf": "TAF OEMA 221700Z 2218/2324 VRB03KT CAVOK"
    },
    {
      "icao": "OJAI",
      "alert": "OK",
      "vis_m": 5000,
      "fzfg": false,
      "metar_trigger": false,
      "taf_trigger": false,
      "metar": "METAR OJAI 221800Z 28008KT 5000 HZ NSC 29/13 Q1011 NOSIG",
      "taf": "TAF OJAI 221700Z 2218/2324 29010KT 5000 HZ NSC"
    },
    {
      "icao": "OMAA",
      "alert": "OK",
      "vis_m": 9999,
      "fzfg": false,
      "metar_trigger": false,
      "taf_trigger": false,
      "metar": "METAR OMAA 221830Z 00000KT CAVOK 36/22 Q0997 NOSIG",
      "taf": "TAF OMAA 221700Z 2218/2400 19005KT 8000 NSC"
    },
    {
      "icao": "OMDB",
      "alert": "OK",
      "vis_m": 9999,
      "fzfg": false,
      "metar_trigger": false,
      "taf_trigger": false,
      "metar": "METAR OMDB 221830Z 22007KT 180V240 CAVOK 35/25 Q0997 NOSIG",
      "taf": "TAF OMDB 221700Z 2218/2400 19006KT 8000 NSC"
    },
    {
      "icao": "UAAA",
      "alert": "OK",
      "vis_m": 9999,
      "fzfg": false,
      "metar_trigger": false,
      "taf_trigger": false,
      "metar": "METAR UAAA 221830Z 25002MPS 200V300 9999 BKN050CB OVC100 22/18 Q1006 NOSIG",
      "taf": "TAF UAAA 221701Z 2218/2318 22003MPS 9999 SCT050CB BKN100 TX31/2309Z TN18/2300Z"
    },
    {
      "icao": "UBBB",
      "alert": "OK",
      "vis_m": 9999,
      "fzfg": false,
      "metar_trigger": false,
      "taf_trigger": false,
      "metar": "METAR UBBB 221830Z 00000KT CAVOK 27/17 Q1009 NOSIG",
      "taf": "TAF UBBB 221702Z 2218/2318 VRB04KT CAVOK TX32/2310Z TN22/2301Z"
    },
    {
      "icao": "UDSG",
      "alert": "OK",
      "vis_m": 9999,
      "fzfg": false,
      "metar_trigger": false,
      "taf_trigger": false,
      "metar": "METAR UDSG 221830Z 08011KT 9999 FEW049CB 20/13 Q1017 NOSIG",
      "taf": "TAF UDSG 221658Z 2218/2318 06006KT 9999 FEW050"
    },
    {
      "icao": "UDYZ",
      "alert": "OK",
      "vis_m": 9999,
      "fzfg": false,
      "metar_trigger": false,
      "taf_trigger": false,
      "metar": "METAR UDYZ 221830Z 03019G31KT 9999 NSC 27/13 Q1009 NOSIG",
      "taf": "TAF UDYZ 221700Z 2218/2318 05006KT 9999 FEW040"
    },
    {
      "icao": "UGKO",
      "alert": "OK",
      "vis_m": 9999,
      "fzfg": false,
      "metar_trigger": false,
      "taf_trigger": false,
      "metar": "METAR UGKO 221830Z VRB02KT 9999 OVC032 24/19 Q1009 NOSIG",
      "taf": "TAF UGKO 221700Z 2218/2318 26007KT 9999 SCT023 BKN050 TX30/2311Z TN20/2302Z"
    }
  ]
}