{
  "ts_utc": "2025-12-31T03:15:59Z",
  "threshold_m": 150,
  "source": "stations_override.txt (ICAO list) + aviationweather.gov (METAR/TAF raw)",
  "station_count": 159,
  "stations": [
    {
      "icao": "BIKF",
      "alert": "OK",
      "vis_m": 9999,
      "fzfg": false,
      "metar_trigger": false,
      "taf_trigger": false,
      "metar": "METAR BIKF 310300Z 27024KT 9999 -SHRA BKN014 BKN023 05/04 Q1026",
      "taf": "TAF BIKF 310107Z 3103/0103 27027KT 9999 SCT017 BKN020 TX06/3103Z TNM03/0101Z"
    },
    {
      "icao": "BKPR",
      "alert": "OK",
      "vis_m": 9999,
      "fzfg": false,
      "metar_trigger": false,
      "taf_trigger": false,
      "metar": "METAR BKPR 310300Z 26003KT CAVOK M08/M11 Q1016 NOSIG",
      "taf": "TAF BKPR 302330Z 3100/3124 33008KT 9999 FEW050"
    },
    {
      "icao": "EBCI",
      "alert": "OK",
      "vis_m": 4500,
      "fzfg": false,
      "metar_trigger": false,
      "taf_trigger": false,
      "metar": "METAR EBCI 310250Z 28003KT 4500 BR NSC M03/M03 Q1029 NOSIG",
      "taf": "TAF EBCI 302310Z 3100/0106 27006KT 9999 FEW018 SCT035"
    },
    {
      "icao": "EDDB",
      "alert": "OK",
      "vis_m": 9999,
      "fzfg": false,
      "metar_trigger": false,
      "taf_trigger": false,
      "metar": "METAR EDDB 310250Z AUTO 28009KT 9999 FEW034 M03/M06 Q1020 NOSIG",
      "taf": "TAF EDDB 302300Z 3100/3124 31011KT CAVOK"
    },
    {
      "icao": "EDDH",
      "alert": "OK",
      "vis_m": 9999,
      "fzfg": false,
      "metar_trigger": false,
      "taf_trigger": false,
      "metar": "METAR EDDH 310250Z AUTO 26008KT 230V290 CAVOK 01/M01 Q1020 NOSIG",
      "taf": "TAF EDDH 302300Z 3100/0106 27004KT 9999 BKN030"
    },
    {
      "icao": "EDDK",
      "alert": "OK",
      "vis_m": 9999,
      "fzfg": false,
      "metar_trigger": false,
      "taf_trigger": false,
      "metar": "METAR EDDK 310250Z AUTO 16001KT 9999 FEW011 BKN016 M03/M04 Q1028 TEMPO BKN010",
      "taf": "TAF EDDK 302300Z 3100/0106 VRB03KT 9999 SCT040"
    },
    {
      "icao": "EDDN",
      "alert": "OK",
      "vis_m": 9999,
      "fzfg": false,
      "metar_trigger": false,
      "taf_trigger": false,
      "metar": "METAR EDDN 310250Z AUTO 11006KT CAVOK M09/M11 Q1025",
      "taf": "TAF EDDN 302300Z 3100/3124 VRB03KT CAVOK"
    },
    {
      "icao": "EDDS",
      "alert": "OK",
      "vis_m": 9999,
      "fzfg": false,
      "metar_trigger": false,
      "taf_trigger": false,
      "metar": "METAR EDDS 310250Z AUTO VRB01KT CAVOK M09/M12 Q1025",
      "taf": "TAF EDDS 302300Z 3100/3124 24004KT CAVOK"
    },
    {
      "icao": "EDFH",
      "alert": "OK",
      "vis_m": 9999,
      "fzfg": false,
      "metar_trigger": false,
      "taf_trigger": false,
      "metar": "METAR EDFH 310250Z 26005KT 9999 FEW007 M04/M05 Q1025",
      "taf": "TAF EDFH 302300Z 3100/3124 23004KT 9999 FEW025"
    },
    {
      "icao": "EDJA",
      "alert": "OK",
      "vis_m": 9999,
      "fzfg": false,
      "metar_trigger": false,
      "taf_trigger": false,
      "metar": "METAR EDJA 310250Z AUTO VRB01KT 9999 // NCD M11/M12 Q1024",
      "taf": "TAF EDJA 310200Z 3103/3112 20003KT CAVOK"
    },
    {
      "icao": "EDLW",
      "alert": "OK",
      "vis_m": 9999,
      "fzfg": false,
      "metar_trigger": false,
      "taf_trigger": false,
      "metar": "METAR EDLW 310250Z AUTO 23007KT 9999 // FEW009/// M01/M02 Q1026",
      "taf": "TAF EDLW 301700Z 3018/3118 24005KT CAVOK"
    },
    {
      "icao": "EDNY",
      "alert": "OK",
      "vis_m": 9999,
      "fzfg": false,
      "metar_trigger": false,
      "taf_trigger": false,
      "metar": "METAR EDNY 310250Z AUTO 06004KT 9999 // NCD M07/M08 Q1025",
      "taf": "TAF EDNY 310200Z 3103/3112 06003KT CAVOK"
    },
    {
      "icao": "EDSB",
      "alert": "OK",
      "vis_m": 9999,
      "fzfg": false,
      "metar_trigger": false,
      "taf_trigger": false,
      "metar": "METAR EDSB 310250Z AUTO 02002KT 9999 NCD M07/M08 Q1028",
      "taf": "TAF EDSB 302300Z 3100/3124 03004KT CAVOK"
    },
    {
      "icao": "EETN",
      "alert": "OK",
      "vis_m": 9999,
      "fzfg": false,
      "metar_trigger": false,
      "taf_trigger": false,
      "metar": "METAR EETN 310250Z 01011KT 340V040 CAVOK M06/M13 Q1005",
      "taf": "TAF EETN 302330Z 3100/3124 01012KT CAVOK"
    },
    {
      "icao": "EFTU",
      "alert": "OK",
      "vis_m": 9999,
      "fzfg": false,
      "metar_trigger": false,
      "taf_trigger": false,
      "metar": "METAR EFTU 310250Z AUTO VRB02KT CAVOK M12/M14 Q1008",
      "taf": "TAF EFTU 310221Z 3103/0103 29004KT CAVOK"
    },
    {
      "icao": "EGBB",
      "alert": "OK",
      "vis_m": 9999,
      "fzfg": false,
      "metar_trigger": false,
      "taf_trigger": false,
      "metar": "METAR EGBB 310250Z 00000KT 9999 MIFG NSC M03/M03 Q1033",
      "taf": "TAF EGBB 302257Z 3100/3124 34004KT 9999 SCT040"
    },
    {
      "icao": "EGGP",
      "alert": "OK",
      "vis_m": 9999,
      "fzfg": false,
      "metar_trigger": false,
      "taf_trigger": false,
      "metar": "METAR EGGP 310250Z AUTO 28005KT 9999 NCD 00/M01 Q1034",
      "taf": "TAF EGGP 302300Z 3100/3124 32004KT 9999 SCT035"
    },
    {
      "icao": "EGGW",
      "alert": "OK",
      "vis_m": 7000,
      "fzfg": false,
      "metar_trigger": false,
      "taf_trigger": false,
      "metar": "METAR EGGW 310250Z AUTO 34005KT 7000 FEW024 00/M01 Q1032",
      "taf": "TAF EGGW 302302Z 3100/3124 34006KT 9999 FEW040"
    },
    {
      "icao": "EGKK",
      "alert": "OK",
      "vis_m": 6000,
      "fzfg": false,
      "metar_trigger": false,
      "taf_trigger": false,
      "metar": "METAR EGKK 310250Z 34004KT 6000 NSC M00/M00 Q1032",
      "taf": "TAF EGKK 302304Z 3100/0106 34005KT 9999 FEW040"
    },
    {
      "icao": "EGNM",
      "alert": "OK",
      "vis_m": null,
      "fzfg": false,
      "metar_trigger": false,
      "taf_trigger": false,
      "metar": "",
      "taf": "TAF EGNM 301655Z 3018/3118 35006KT 9999 SCT035"
    },
    {
      "icao": "EGPD",
      "alert": "OK",
      "vis_m": 9999,
      "fzfg": false,
      "metar_trigger": false,
      "taf_trigger": false,
      "metar": "METAR EGPD 310250Z COR AUTO 27012KT 9999 OVC025 04/M01 Q1030 NOSIG",
      "taf": "TAF EGPD 302255Z 3100/3124 28009KT 9999 SCT030"
    },
    {
      "icao": "EGPF",
      "alert": "OK",
      "vis_m": 8000,
      "fzfg": false,
      "metar_trigger": false,
      "taf_trigger": false,
      "metar": "METAR EGPF 310250Z AUTO 05002KT 8000 OVC023 M04/M04 Q1033",
      "taf": "TAF EGPF 302255Z 3100/3124 VRB02KT 9999 FEW040"
    },
    {
      "icao": "EHBK",
      "alert": "OK",
      "vis_m": 7000,
      "fzfg": false,
      "metar_trigger": false,
      "taf_trigger": false,
      "metar": "METAR EHBK 310255Z AUTO 21006KT 7000 SCT043 M03/M04 Q1028",
      "taf": "TAF EHBK 302316Z 3100/0106 24003KT 9999 BKN045"
    },
    {
      "icao": "EHEH",
      "alert": "OK",
      "vis_m": 3100,
      "fzfg": false,
      "metar_trigger": false,
      "taf_trigger": false,
      "metar": "METAR EHEH 310255Z AUTO 26003KT 3100 BR NCD M02/M03 Q1028 YLO",
      "taf": "TAF EHEH 302141Z 3100/0106 VRB02KT 6000 NSC"
    },
    {
      "icao": "EKBI",
      "alert": "OK",
      "vis_m": 9999,
      "fzfg": false,
      "metar_trigger": false,
      "taf_trigger": false,
      "metar": "METAR EKBI 310250Z AUTO 27008KT 9999 FEW005/// SCT024/// BKN043/// 02/02 Q1016",
      "taf": "TAF EKBI 310227Z 3103/0103 27008KT 9999 BKN020"
    },
    {
      "icao": "EKCH",
      "alert": "OK",
      "vis_m": 9999,
      "fzfg": false,
      "metar_trigger": false,
      "taf_trigger": false,
      "metar": "METAR EKCH 310250Z AUTO 25010KT 9999 OVC090/// 00/M03 Q1015 NOSIG",
      "taf": "TAF EKCH 310227Z 3103/0103 27009KT 9999 FEW040"
    },
    {
      "icao": "ENAL",
      "alert": "OK",
      "vis_m": 9999,
      "fzfg": false,
      "metar_trigger": false,
      "taf_trigger": false,
      "metar": "METAR ENAL 310250Z AUTO 32008KT 9999 FEW026/// SCT052/// 05/01 Q1015",
      "taf": "TAF ENAL 310200Z 3103/3112 32008KT 9999 FEW020 SCT040"
    },
    {
      "icao": "ENBR",
      "alert": "OK",
      "vis_m": 9999,
      "fzfg": false,
      "metar_trigger": false,
      "taf_trigger": false,
      "metar": "METAR ENBR 310250Z 33007KT 9999 -SHRA FEW005 SCT018 BKN034 03/02 Q1017 RMK WIND 1200FT 34022KT",
      "taf": "TAF ENBR 302300Z 3100/3124 35008KT 9999 -SHRASN SCT010 BKN020"
    },
    {
      "icao": "ENGM",
      "alert": "OK",
      "vis_m": 9999,
      "fzfg": false,
      "metar_trigger": false,
      "taf_trigger": false,
      "metar": "METAR ENGM 310250Z 33005KT 270V010 CAVOK M02/M07 Q1009",
      "taf": "TAF ENGM 302300Z 3100/3124 VRB03KT CAVOK"
    },
    {
      "icao": "ENHD",
      "alert": "OK",
      "vis_m": 9999,
      "fzfg": false,
      "metar_trigger": false,
      "taf_trigger": false,
      "metar": "METAR ENHD 310250Z AUTO 34025KT 9999 -RA FEW013/// SCT018/// BKN033/// 06/04 Q1017 REDZRA RERA",
      "taf": "TAF ENHD 310200Z 3103/3112 33022KT 9999 -SHRA FEW015 BKN030"
    },
    {
      "icao": "ENTC",
      "alert": "OK",
      "vis_m": 9999,
      "fzfg": false,
      "metar_trigger": false,
      "taf_trigger": false,
      "metar": "METAR ENTC 310250Z AUTO 07005KT 9999 NCD M08/M11 Q1011 RMK WIND 2600FT 01015KT",
      "taf": "TAF ENTC 302300Z 3100/3124 01008KT 9999 -SHSN FEW008 SCT030 BKN035"
    },
    {
      "icao": "ENTO",
      "alert": "OK",
      "vis_m": 9999,
      "fzfg": false,
      "metar_trigger": false,
      "taf_trigger": false,
      "metar": "METAR ENTO 310250Z AUTO 27005KT 9999 NCD M02/M06 Q1011",
      "taf": "TAF ENTO 302300Z 3100/3124 28005KT CAVOK"
    },
    {
      "icao": "ENVA",
      "alert": "OK",
      "vis_m": 9999,
      "fzfg": false,
      "metar_trigger": false,
      "taf_trigger": false,
      "metar": "METAR ENVA 310250Z AUTO 22003KT 9999 NCD M01/M02 Q1012 RMK WIND 670FT 19004KT",
      "taf": "TAF ENVA 302300Z 3100/3124 12008KT 9999 -SHSNRA FEW010TCU BKN025"
    },
    {
      "icao": "ENZV",
      "alert": "OK",
      "vis_m": 9999,
      "fzfg": false,
      "metar_trigger": false,
      "taf_trigger": false,
      "metar": "METAR ENZV 310250Z AUTO 01008KT 9999 -RA FEW010/// BKN016/// BKN023/// 04/03 Q1018 RERA",
      "taf": "TAF ENZV 302300Z 3100/3124 35005KT 9999 FEW015 BKN030"
    },
    {
      "icao": "EPGD",
      "alert": "OK",
      "vis_m": 9999,
      "fzfg": false,
      "metar_trigger": false,
      "taf_trigger": false,
      "metar": "METAR EPGD 310300Z 30011KT 9999 FEW040 M04/M09 Q1010",
      "taf": "TAF EPGD 302330Z 3100/3124 31012KT 8000 -SHSN BKN025CB"
    },
    {
      "icao": "EPKK",
      "alert": "OK",
      "vis_m": 9999,
      "fzfg": false,
      "metar_trigger": false,
      "taf_trigger": false,
      "metar": "METAR EPKK 310300Z 28014KT 9999 SCT019 M04/M08 Q1013",
      "taf": "TAF EPKK 310230Z 3103/0103 27012KT 9999 BKN020"
    },
    {
      "icao": "EPKT",
      "alert": "OK",
      "vis_m": 9999,
      "fzfg": false,
      "metar_trigger": false,
      "taf_trigger": false,
      "metar": "METAR EPKT 310300Z 28011KT CAVOK M06/M08 Q1013",
      "taf": "TAF EPKT 302330Z 3100/3124 30012KT 9999 BKN020"
    },
    {
      "icao": "EPLB",
      "alert": "OK",
      "vis_m": 9999,
      "fzfg": false,
      "metar_trigger": false,
      "taf_trigger": false,
      "metar": "METAR EPLB 310300Z 29014KT 9999 DRSN SCT014 BKN017 M03/M05 Q1006",
      "taf": "TAF EPLB 302330Z 3100/3124 30018KT 9999 BKN018"
    },
    {
      "icao": "EPMO",
      "alert": "OK",
      "vis_m": 9999,
      "fzfg": false,
      "metar_trigger": false,
      "taf_trigger": false,
      "metar": "METAR EPMO 310300Z 29016KT 9999 -SN BKN012 M03/M04 Q1009",
      "taf": "TAF EPMO 302330Z 3100/3124 29015KT 6000 -SHSN BKN012 BKN016CB"
    },
    {
      "icao": "EPPO",
      "alert": "OK",
      "vis_m": 9999,
      "fzfg": false,
      "metar_trigger": false,
      "taf_trigger": false,
      "metar": "METAR EPPO 310300Z 28011KT CAVOK M04/M07 Q1016",
      "taf": ""
    },
    {
      "icao": "EPRA",
      "alert": "OK",
      "vis_m": 9999,
      "fzfg": false,
      "metar_trigger": false,
      "taf_trigger": false,
      "metar": "METAR EPRA 310300Z 31014G28KT 9999 -SN OVC018 M03/M07 Q1009 RESN",
      "taf": "TAF EPRA 310230Z 3103/3112 30014KT 9999 BKN025"
    },
    {
      "icao": "EPRZ",
      "alert": "OK",
      "vis_m": 9999,
      "fzfg": false,
      "metar_trigger": false,
      "taf_trigger": false,
      "metar": "METAR EPRZ 310300Z 29021KT 9999 -SHSN BKN030CB M03/M07 Q1009",
      "taf": ""
    },
    {
      "icao": "EPSC",
      "alert": "OK",
      "vis_m": 9999,
      "fzfg": false,
      "metar_trigger": false,
      "taf_trigger": false,
      "metar": "METAR EPSC 310300Z 24005KT 9999 -SHSNGS FEW008 SCT024CB BKN045 M03/M06 Q1017",
      "taf": "TAF EPSC 302330Z 3100/3124 30010KT 9999 SCT040"
    },
    {
      "icao": "EPSY",
      "alert": "OK",
      "vis_m": 9999,
      "fzfg": false,
      "metar_trigger": false,
      "taf_trigger": false,
      "metar": "METAR EPSY 310300Z 31007KT CAVOK M04/M04 Q1007",
      "taf": "TAF EPSY 310230Z 3103/3112 31010KT CAVOK"
    },
    {
      "icao": "EPWA",
      "alert": "OK",
      "vis_m": 9999,
      "fzfg": false,
      "metar_trigger": false,
      "taf_trigger": false,
      "metar": "METAR EPWA 310300Z 29016KT 9999 -SHSN DRSN SCT013CB BKN034 M03/M04 Q1008 NOSIG",
      "taf": "TAF EPWA 310230Z 3103/0103 29015KT 7000 BKN015"
    },
    {
      "icao": "EPWR",
      "alert": "OK",
      "vis_m": 9999,
      "fzfg": false,
      "metar_trigger": false,
      "taf_trigger": false,
      "metar": "METAR EPWR 310300Z 28012KT CAVOK M04/M05 Q1017",
      "taf": "TAF EPWR 310230Z 3103/0103 29012KT CAVOK"
    },
    {
      "icao": "ESGG",
      "alert": "OK",
      "vis_m": 9999,
      "fzfg": false,
      "metar_trigger": false,
      "taf_trigger": false,
      "metar": "METAR ESGG 310250Z 24007KT CAVOK 00/M03 Q1010",
      "taf": "TAF ESGG 310230Z 3103/0103 25007KT CAVOK"
    },
    {
      "icao": "ESKN",
      "alert": "OK",
      "vis_m": 9999,
      "fzfg": false,
      "metar_trigger": false,
      "taf_trigger": false,
      "metar": "METAR ESKN 310250Z 25004KT CAVOK M07/M08 Q1010",
      "taf": "TAF ESKN 310230Z 3103/0103 25005KT CAVOK"
    },
    {
      "icao": "ESMS",
      "alert": "OK",
      "vis_m": 9999,
      "fzfg": false,
      "metar_trigger": false,
      "taf_trigger": false,
      "metar": "METAR ESMS 310250Z 26007KT CAVOK M01/M04 Q1014",
      "taf": "TAF ESMS 310227Z 3103/0103 28008KT 9999 FEW040"
    },
    {
      "icao": "ESSA",
      "alert": "OK",
      "vis_m": 9999,
      "fzfg": false,
      "metar_trigger": false,
      "taf_trigger": false,
      "metar": "METAR ESSA 310250Z 00000KT 9999 FEW031 BKN045 M08/M09 Q1009 TEMPO 4000 -SN",
      "taf": "TAF ESSA 310230Z 3103/0103 VRB03KT CAVOK"
    },
    {
      "icao": "EYKA",
      "alert": "OK",
      "vis_m": 9999,
      "fzfg": false,
      "metar_trigger": false,
      "taf_trigger": false,
      "metar": "METAR EYKA 310250Z 33006KT 250V060 9999 -SN BKN012 BKN022 OVC029 M04/M05 Q1002",
      "taf": "TAF EYKA 302300Z 3100/3124 32010KT 6000 BKN030"
    },
    {
      "icao": "EYPA",
      "alert": "OK",
      "vis_m": 9999,
      "fzfg": false,
      "metar_trigger": false,
      "taf_trigger": false,
      "metar": "METAR EYPA 310250Z 05010KT CAVOK M05/M12 Q1007",
      "taf": "TAF EYPA 302300Z 3100/3124 01010KT 9000 SCT030"
    },
    {
      "icao": "EYVI",
      "alert": "OK",
      "vis_m": 9000,
      "fzfg": false,
      "metar_trigger": false,
      "taf_trigger": false,
      "metar": "METAR EYVI 310250Z 34010KT 9000 -SN OVC014 M05/M07 Q0999 NOSIG",
      "taf": "TAF EYVI 302300Z 3100/3124 32010KT 5000 SN SCT010 BKN020"
    },
    {
      "icao": "GCFV",
      "alert": "OK",
      "vis_m": 9999,
      "fzfg": false,
      "metar_trigger": false,
      "taf_trigger": false,
      "metar": "METAR GCFV 310300Z AUTO VRB01KT CAVOK 14/12 Q1020",
      "taf": "TAF GCFV 310200Z 3103/0103 30005KT 9999 FEW025 TX21/3114Z TN14/3106Z"
    },
    {
      "icao": "GCLP",
      "alert": "OK",
      "vis_m": 9999,
      "fzfg": false,
      "metar_trigger": false,
      "taf_trigger": false,
      "metar": "METAR GCLP 310300Z 26005KT CAVOK 16/13 Q1020 NOSIG",
      "taf": "TAF GCLP 310200Z 3103/0103 29005KT 9999 SCT030 TX22/3114Z TN15/3106Z"
    },
    {
      "icao": "GCTS",
      "alert": "OK",
      "vis_m": 9999,
      "fzfg": false,
      "metar_trigger": false,
      "taf_trigger": false,
      "metar": "METAR GCTS 310300Z 04005KT 9999 FEW025 15/12 Q1020 NOSIG",
      "taf": "TAF GCTS 310200Z 3103/0103 33004KT 9999 FEW025 TX24/3114Z TN16/3106Z"
    },
    {
      "icao": "GMAD",
      "alert": "OK",
      "vis_m": 9999,
      "fzfg": false,
      "metar_trigger": false,
      "taf_trigger": false,
      "metar": "METAR GMAD 310300Z 04006KT CAVOK 10/10 Q1020 NOSIG",
      "taf": "TAF GMAD 302300Z 3100/0106 06008KT 8000 SCT020"
    },
    {
      "icao": "GMMN",
      "alert": "OK",
      "vis_m": 9999,
      "fzfg": false,
      "metar_trigger": false,
      "taf_trigger": false,
      "metar": "METAR GMMN 310300Z 20010KT 9999 BKN030 12/10 Q1019 NOSIG",
      "taf": "TAF GMMN 302300Z 3100/0106 21007KT 9999 BKN026"
    },
    {
      "icao": "GMMX",
      "alert": "OK",
      "vis_m": 8000,
      "fzfg": false,
      "metar_trigger": false,
      "taf_trigger": false,
      "metar": "METAR GMMX 310300Z VRB01KT 8000 FEW020 SCT080 09/08 Q1019 NOSIG",
      "taf": "TAF GMMX 302300Z 3100/0106 22006KT 8000 SCT020 SCT080"
    },
    {
      "icao": "HEGN",
      "alert": "OK",
      "vis_m": 9999,
      "fzfg": false,
      "metar_trigger": false,
      "taf_trigger": false,
      "metar": "METAR HEGN 310200Z 00000KT CAVOK 11/07 Q1017 NOSIG",
      "taf": "TAF HEGN 302300Z 3100/0106 28010KT CAVOK"
    },
    {
      "icao": "HEMA",
      "alert": "OK",
      "vis_m": 9999,
      "fzfg": false,
      "metar_trigger": false,
      "taf_trigger": false,
      "metar": "METAR HEMA 310200Z 25004KT CAVOK 14/09 Q1017 NOSIG",
      "taf": "TAF HEMA 302300Z 3100/0106 25010KT CAVOK"
    },
    {
      "icao": "HESH",
      "alert": "OK",
      "vis_m": 9999,
      "fzfg": false,
      "metar_trigger": false,
      "taf_trigger": false,
      "metar": "METAR HESH 310200Z 25005KT CAVOK 15/10 Q1017 NOSIG",
      "taf": "TAF HESH 302300Z 3100/0106 30010KT CAVOK"
    },
    {
      "icao": "HESX",
      "alert": "OK",
      "vis_m": 9999,
      "fzfg": false,
      "metar_trigger": false,
      "taf_trigger": false,
      "metar": "METAR HESX 310200Z 19006KT CAVOK 12/07 Q1015 NOSIG",
      "taf": "TAF HESX 302300Z 3100/0106 20009KT 6000 NSC"
    },
    {
      "icao": "LATI",
      "alert": "OK",
      "vis_m": 9999,
      "fzfg": false,
      "metar_trigger": false,
      "taf_trigger": false,
      "metar": "METAR LATI 310250Z 31010KT CAVOK 03/M12 Q1011 NOSIG",
      "taf": "TAF LATI 302300Z 3100/3124 30007KT 9999 FEW060 BKN080 TX07/3112Z TNM04/3123Z"
    },
    {
      "icao": "LBPD",
      "alert": "OK",
      "vis_m": 9999,
      "fzfg": false,
      "metar_trigger": false,
      "taf_trigger": false,
      "metar": "METAR LBPD 310300Z AUTO 28016KT 9999 NCD M01/M08 Q1014",
      "taf": "TAF LBPD 302300Z 3100/3124 28016KT 9999 SCT050"
    },
    {
      "icao": "LBSF",
      "alert": "OK",
      "vis_m": 9999,
      "fzfg": false,
      "metar_trigger": false,
      "taf_trigger": false,
      "metar": "METAR LBSF 310300Z AUTO 28009KT 9999 NCD M05/M10 Q1014 NOSIG",
      "taf": "TAF LBSF 302300Z 3100/3124 28012KT 9999 SCT050"
    },
    {
      "icao": "LBWN",
      "alert": "OK",
      "vis_m": 9999,
      "fzfg": false,
      "metar_trigger": false,
      "taf_trigger": false,
      "metar": "METAR LBWN 310300Z AUTO 27008KT 9999 NCD M04/M06 Q1011 NOSIG",
      "taf": "TAF LBWN 302300Z 3100/3124 29012KT 9999 SCT020 BKN045"
    },
    {
      "icao": "LCLK",
      "alert": "OK",
      "vis_m": 5000,
      "fzfg": false,
      "metar_trigger": false,
      "taf_trigger": false,
      "metar": "METAR LCLK 310300Z 26018KT 5000 SHRA FEW008 FEW030CB BKN040 15/13 Q1008 NOSIG RMK LIGHTNING TO SE",
      "taf": "TAF LCLK 302330Z 3100/0100 22020KT 9999 FEW020 SCT040"
    },
    {
      "icao": "LCPH",
      "alert": "OK",
      "vis_m": 9999,
      "fzfg": false,
      "metar_trigger": false,
      "taf_trigger": false,
      "metar": "METAR LCPH 310300Z AUTO 26016KT 9999 FEW033 SCT038 OVC070 18/13 Q1008 NOSIG",
      "taf": "TAF LCPH 302330Z 3100/0100 24020KT 9999 SCT020 BKN040"
    },
    {
      "icao": "LEAL",
      "alert": "OK",
      "vis_m": 9999,
      "fzfg": false,
      "metar_trigger": false,
      "taf_trigger": false,
      "metar": "METAR LEAL 310300Z 29007KT 250V320 CAVOK 12/05 Q1018 NOSIG",
      "taf": "TAF LEAL 302300Z 3100/3124 29008KT CAVOK TX17/3114Z TN07/3106Z"
    },
    {
      "icao": "LEBB",
      "alert": "OK",
      "vis_m": 9999,
      "fzfg": false,
      "metar_trigger": false,
      "taf_trigger": false,
      "metar": "METAR LEBB 310300Z AUTO 00000KT 9999 OVC020 08/06 Q1022",
      "taf": "TAF LEBB 302300Z 3100/3124 VRB03KT 9999 SCT010 BKN020 TX10/3114Z TN01/3124Z"
    },
    {
      "icao": "LEBL",
      "alert": "OK",
      "vis_m": 9999,
      "fzfg": false,
      "metar_trigger": false,
      "taf_trigger": false,
      "metar": "METAR LEBL 310300Z 32012KT 9999 FEW020 SCT030 08/05 Q1017 NOSIG",
      "taf": "TAF LEBL 302300Z 3100/3124 34010KT 9999 FEW020 TX15/3112Z TN07/3107Z"
    },
    {
      "icao": "LECH",
      "alert": "OK",
      "vis_m": 9999,
      "fzfg": false,
      "metar_trigger": false,
      "taf_trigger": false,
      "metar": "METAR LECH 310300Z AUTO 00000KT CAVOK 06/01 Q1017",
      "taf": ""
    },
    {
      "icao": "LEMD",
      "alert": "OK",
      "vis_m": 9999,
      "fzfg": false,
      "metar_trigger": false,
      "taf_trigger": false,
      "metar": "METAR LEMD 310300Z 12001KT CAVOK M02/M02 Q1019 NOSIG",
      "taf": ""
    },
    {
      "icao": "LEMG",
      "alert": "OK",
      "vis_m": 9999,
      "fzfg": false,
      "metar_trigger": false,
      "taf_trigger": false,
      "metar": "METAR LEMG 310300Z 30005KT CAVOK 06/06 Q1019 NOSIG",
      "taf": "TAF LEMG 302300Z 3100/3124 29007KT CAVOK TX18/3114Z TN08/3106Z"
    },
    {
      "icao": "LEVC",
      "alert": "OK",
      "vis_m": 9999,
      "fzfg": false,
      "metar_trigger": false,
      "taf_trigger": false,
      "metar": "METAR LEVC 310300Z 29004KT 260V320 CAVOK 05/03 Q1018 NOSIG",
      "taf": "TAF LEVC 302300Z 3100/3124 29006KT 9999 FEW020 TX17/3114Z TN05/3106Z"
    },
    {
      "icao": "LEXJ",
      "alert": "OK",
      "vis_m": 6000,
      "fzfg": false,
      "metar_trigger": false,
      "taf_trigger": false,
      "metar": "METAR LEXJ 310300Z AUTO 14003KT 6000 OVC021 08/05 Q1023",
      "taf": "TAF LEXJ 310200Z 3103/0103 VRB03KT 9999 SCT015 BKN035 TX10/3115Z TN03/0103Z"
    },
    {
      "icao": "LEZG",
      "alert": "OK",
      "vis_m": 9999,
      "fzfg": false,
      "metar_trigger": false,
      "taf_trigger": false,
      "metar": "METAR LEZG 310300Z 27013KT 9999 SCT032 07/04 Q1018 NOSIG",
      "taf": "TAF LEZG 302300Z 3100/3124 29010KT 9999 FEW020 TX12/3114Z TN05/3106Z"
    },
    {
      "icao": "LEZL",
      "alert": "OK",
      "vis_m": 3400,
      "fzfg": false,
      "metar_trigger": false,
      "taf_trigger": false,
      "metar": "METAR LEZL 310300Z AUTO 02003KT 3400 BR NCD 06/06 Q1020",
      "taf": "TAF LEZL 310200Z 3103/0103 05005KT CAVOK TX15/3115Z TN04/3106Z"
    },
    {
      "icao": "LFBD",
      "alert": "OK",
      "vis_m": 9999,
      "fzfg": true,
      "metar_trigger": false,
      "taf_trigger": false,
      "metar": "METAR LFBD 310300Z AUTO 02002KT CAVOK M02/M03 Q1023 TEMPO 0800 FZFG VV///",
      "taf": "TAF LFBD 302300Z 3100/0106 02005KT CAVOK TX05/3114Z TNM03/3106Z"
    },
    {
      "icao": "LFLL",
      "alert": "OK",
      "vis_m": 9999,
      "fzfg": false,
      "metar_trigger": false,
      "taf_trigger": false,
      "metar": "METAR LFLL 310300Z 28004KT CAVOK M04/M06 Q1023 NOSIG",
      "taf": "TAF LFLL 302300Z 3100/0106 36005KT CAVOK"
    },
    {
      "icao": "LFLS",
      "alert": "OK",
      "vis_m": 9999,
      "fzfg": false,
      "metar_trigger": false,
      "taf_trigger": false,
      "metar": "METAR LFLS 310300Z AUTO VRB02KT CAVOK M06/M07 Q1021 TEMPO BKN013",
      "taf": "TAF LFLS 310200Z 3103/0103 36005KT CAVOK"
    },
    {
      "icao": "LFMN",
      "alert": "OK",
      "vis_m": 9999,
      "fzfg": false,
      "metar_trigger": false,
      "taf_trigger": false,
      "metar": "METAR LFMN 310300Z 34008KT 9999 FEW038 07/01 Q1015 NOSIG",
      "taf": "TAF LFMN 310200Z 3103/0109 33010KT CAVOK"
    },
    {
      "icao": "LFOB",
      "alert": "OK",
      "vis_m": 9999,
      "fzfg": false,
      "metar_trigger": false,
      "taf_trigger": false,
      "metar": "METAR LFOB 310300Z AUTO 34006KT CAVOK M03/M03 Q1030",
      "taf": ""
    },
    {
      "icao": "LFPO",
      "alert": "OK",
      "vis_m": 9999,
      "fzfg": false,
      "metar_trigger": false,
      "taf_trigger": false,
      "metar": "METAR LFPO 310300Z AUTO 03005KT CAVOK M01/M03 Q1029",
      "taf": "TAF LFPO 301700Z 3018/3124 01005KT CAVOK"
    },
    {
      "icao": "LFSB",
      "alert": "OK",
      "vis_m": 7000,
      "fzfg": true,
      "metar_trigger": false,
      "taf_trigger": false,
      "metar": "METAR LFSB 310300Z AUTO 33003KT 7000 NSC M07/M08 Q1026 TEMPO 0300 FZFG VV///",
      "taf": "TAF LFSB 302300Z 3100/3124 31003KT 4000 BR NSC"
    },
    {
      "icao": "LGAV",
      "alert": "OK",
      "vis_m": 9999,
      "fzfg": false,
      "metar_trigger": false,
      "taf_trigger": false,
      "metar": "METAR LGAV 310250Z 01007KT 9999 FEW025 SCT045 10/03 Q1007 NOSIG",
      "taf": "TAF LGAV 302300Z 3100/3124 35015KT 9999 SCT025 BKN070"
    },
    {
      "icao": "LGTS",
      "alert": "OK",
      "vis_m": 9999,
      "fzfg": false,
      "metar_trigger": false,
      "taf_trigger": false,
      "metar": "METAR LGTS 310250Z 34015G25KT 9999 FEW025 05/M07 Q1012 NOSIG",
      "taf": "TAF LGTS 302300Z 3100/3124 34015G25KT 9999 SCT040"
    },
    {
      "icao": "LHBP",
      "alert": "OK",
      "vis_m": 9999,
      "fzfg": false,
      "metar_trigger": false,
      "taf_trigger": false,
      "metar": "METAR LHBP 310300Z 30009G22KT CAVOK M03/M07 Q1016 NOSIG",
      "taf": "TAF LHBP 302315Z 3100/3124 31012KT CAVOK"
    },
    {
      "icao": "LHDC",
      "alert": "OK",
      "vis_m": 9999,
      "fzfg": false,
      "metar_trigger": false,
      "taf_trigger": false,
      "metar": "METAR LHDC 310245Z AUTO 29007KT 250V320 CAVOK M04/M07 Q1014",
      "taf": ""
    },
    {
      "icao": "LIBD",
      "alert": "OK",
      "vis_m": 9999,
      "fzfg": false,
      "metar_trigger": false,
      "taf_trigger": false,
      "metar": "METAR LIBD 310250Z 35009KT 320V020 CAVOK 07/M04 Q1015",
      "taf": "TAF LIBD 302300Z 3100/3124 36015KT 9999 FEW050"
    },
    {
      "icao": "LIBG",
      "alert": "OK",
      "vis_m": null,
      "fzfg": false,
      "metar_trigger": false,
      "taf_trigger": false,
      "metar": "",
      "taf": "TAF LIBG 301700Z 3018/3103 33007KT CAVOK"
    },
    {
      "icao": "LIBP",
      "alert": "OK",
      "vis_m": 9999,
      "fzfg": false,
      "metar_trigger": false,
      "taf_trigger": false,
      "metar": "METAR LIBP 310250Z AUTO 05011KT 020V080 9999 OVC063/// 08/M06 Q1020",
      "taf": "TAF LIBP 302300Z 3100/3124 04012KT 9999 SCT045"
    },
    {
      "icao": "LIBR",
      "alert": "OK",
      "vis_m": 9999,
      "fzfg": false,
      "metar_trigger": false,
      "taf_trigger": false,
      "metar": "METAR LIBR 310250Z 35017KT CAVOK 09/M03 Q1012",
      "taf": "TAF LIBR 302300Z 3100/3124 01016KT 9999 SCT020"
    },
    {
      "icao": "LICA",
      "alert": "OK",
      "vis_m": 9999,
      "fzfg": false,
      "metar_trigger": false,
      "taf_trigger": false,
      "metar": "METAR LICA 310250Z AUTO 02005KT 9999 FEW055/// BKN084/// 09/08 Q1012",
      "taf": "TAF LICA 302300Z 3100/3124 08010KT 9999 FEW020 SCT060"
    },
    {
      "icao": "LICC",
      "alert": "OK",
      "vis_m": 9999,
      "fzfg": false,
      "metar_trigger": false,
      "taf_trigger": false,
      "metar": "METAR LICC 310250Z 26007KT CAVOK 10/07 Q1011",
      "taf": "TAF LICC 302300Z 3100/3124 29010KT 9999 FEW050"
    },
    {
      "icao": "LICJ",
      "alert": "OK",
      "vis_m": 9999,
      "fzfg": false,
      "metar_trigger": false,
      "taf_trigger": false,
      "metar": "METAR LICJ 310250Z 17005KT 9999 SCT060 12/10 Q1013",
      "taf": "TAF LICJ 302300Z 3100/3124 28010KT 9999 SCT010 SCT040"
    },
    {
      "icao": "LIMC",
      "alert": "OK",
      "vis_m": 9999,
      "fzfg": false,
      "metar_trigger": false,
      "taf_trigger": false,
      "metar": "METAR LIMC 310250Z 04003KT 9999 BKN030 02/01 Q1020 NOSIG",
      "taf": "TAF LIMC 302300Z 3100/0106 03006KT 9999 BKN030"
    },
    {
      "icao": "LIME",
      "alert": "OK",
      "vis_m": 9999,
      "fzfg": false,
      "metar_trigger": false,
      "taf_trigger": false,
      "metar": "METAR LIME 310250Z 01003KT 9999 SCT045 03/01 Q1019 NOSIG",
      "taf": "TAF LIME 302300Z 3100/3124 VRB05KT 9999 BKN030"
    },
    {
      "icao": "LIMF",
      "alert": "OK",
      "vis_m": 5000,
      "fzfg": false,
      "metar_trigger": false,
      "taf_trigger": false,
      "metar": "METAR LIMF 310250Z VRB01KT 5000 BR SCT013 BKN040 04/01 Q1019",
      "taf": "TAF LIMF 302300Z 3100/3124 VRB05KT 1500 BR SCT010"
    },
    {
      "icao": "LIMJ",
      "alert": "OK",
      "vis_m": 9000,
      "fzfg": false,
      "metar_trigger": false,
      "taf_trigger": false,
      "metar": "METAR LIMJ 310250Z 03013KT 9000 NSC 06/01 Q1018",
      "taf": "TAF LIMJ 302300Z 3100/3124 02016KT 9999 FEW020"
    },
    {
      "icao": "LIPE",
      "alert": "OK",
      "vis_m": 2200,
      "fzfg": false,
      "metar_trigger": false,
      "taf_trigger": false,
      "metar": "METAR LIPE 310250Z 24005KT 140V250 2200 BR FEW067 02/02 Q1019",
      "taf": "TAF LIPE 302300Z 3100/3124 VRB04KT 3000 BR BKN020"
    },
    {
      "icao": "LIPH",
      "alert": "OK",
      "vis_m": 9999,
      "fzfg": false,
      "metar_trigger": false,
      "taf_trigger": false,
      "metar": "METAR LIPH 310250Z AUTO 01003KT 9999 BKN060/// M01/M04 Q1020",
      "taf": "TAF LIPH 302300Z 3100/3124 VRB04KT 9999 SCT045"
    },
    {
      "icao": "LIPQ",
      "alert": "OK",
      "vis_m": 9999,
      "fzfg": false,
      "metar_trigger": false,
      "taf_trigger": false,
      "metar": "METAR LIPQ 310250Z AUTO VRB01KT 9999 NCD M04/M06 Q1020",
      "taf": "TAF LIPQ 302300Z 3100/3124 VRB05KT 9999 SCT050"
    },
    {
      "icao": "LIPR",
      "alert": "OK",
      "vis_m": 2300,
      "fzfg": false,
      "metar_trigger": false,
      "taf_trigger": false,
      "metar": "METAR LIPR 310250Z AUTO 21002KT 2300 BR BKN055/// BKN079/// 03/02 Q1019",
      "taf": "TAF LIPR 302300Z 3100/3124 29005KT 3000 BR BKN020"
    },
    {
      "icao": "LIPX",
      "alert": "OK",
      "vis_m": 9999,
      "fzfg": false,
      "metar_trigger": false,
      "taf_trigger": false,
      "metar": "METAR LIPX 310250Z 35006KT 9999 BKN050 01/M02 Q1020",
      "taf": "TAF LIPX 302300Z 3100/3124 VRB05KT 9999 SCT040"
    },
    {
      "icao": "LIPY",
      "alert": "OK",
      "vis_m": 9999,
      "fzfg": false,
      "metar_trigger": false,
      "taf_trigger": false,
      "metar": "METAR LIPY 310250Z AUTO 13005KT 9999 FEW090/// 06/M04 Q1019",
      "taf": "TAF LIPY 302300Z 3100/3124 13006KT 6000 SCT045"
    },
    {
      "icao": "LIPZ",
      "alert": "OK",
      "vis_m": 9999,
      "fzfg": false,
      "metar_trigger": false,
      "taf_trigger": false,
      "metar": "METAR LIPZ 310250Z 04007KT CAVOK M01/M04 Q1020 NOSIG",
      "taf": "TAF LIPZ 302300Z 3100/0106 03006KT 9999 SCT040"
    },
    {
      "icao": "LIRF",
      "alert": "OK",
      "vis_m": 9999,
      "fzfg": false,
      "metar_trigger": false,
      "taf_trigger": false,
      "metar": "METAR LIRF 310250Z 05007KT CAVOK 06/00 Q1014 NOSIG",
      "taf": "TAF LIRF 302300Z 3100/0106 03012KT 9999 SCT030"
    },
    {
      "icao": "LIRN",
      "alert": "OK",
      "vis_m": 9999,
      "fzfg": false,
      "metar_trigger": false,
      "taf_trigger": false,
      "metar": "METAR LIRN 310250Z 04010KT CAVOK 07/M01 Q1015 NOSIG",
      "taf": "TAF LIRN 302300Z 3100/3124 05015KT CAVOK"
    },
    {
      "icao": "LIRP",
      "alert": "OK",
      "vis_m": null,
      "fzfg": false,
      "metar_trigger": false,
      "taf_trigger": false,
      "metar": "",
      "taf": "TAF LIRP 302300Z 3100/3124 09011KT 9999 FEW050"
    },
    {
      "icao": "LIRZ",
      "alert": "OK",
      "vis_m": 9999,
      "fzfg": false,
      "metar_trigger": false,
      "taf_trigger": false,
      "metar": "METAR LIRZ 310250Z AUTO 03010KT 9999 NCD 04/M03 Q1016",
      "taf": "TAF LIRZ 302300Z 3100/3124 04010KT CAVOK"
    },
    {
      "icao": "LJLJ",
      "alert": "OK",
      "vis_m": 9999,
      "fzfg": false,
      "metar_trigger": false,
      "taf_trigger": false,
      "metar": "METAR LJLJ 310300Z VRB02KT 9999 MIFG FEW060 M08/M09 Q1020 NOSIG",
      "taf": "TAF LJLJ 302300Z 3100/0100 VRB02KT 9999 SCT045 BKN075"
    },
    {
      "icao": "LKMT",
      "alert": "OK",
      "vis_m": 9999,
      "fzfg": false,
      "metar_trigger": false,
      "taf_trigger": false,
      "metar": "METAR LKMT 310300Z 24010KT 9999 BKN038 M05/M08 Q1017 NOSIG",
      "taf": "TAF LKMT 302300Z 3100/3124 32008KT 9999 SCT020"
    },
    {
      "icao": "LKPR",
      "alert": "OK",
      "vis_m": 9999,
      "fzfg": false,
      "metar_trigger": false,
      "taf_trigger": false,
      "metar": "METAR LKPR 310300Z 24011KT 9999 FEW027 M04/M07 Q1020 NOSIG",
      "taf": "TAF LKPR 310200Z 3103/0109 29013KT 9999 SCT025 BKN040"
    },
    {
      "icao": "LLBG",
      "alert": "OK",
      "vis_m": 9999,
      "fzfg": false,
      "metar_trigger": false,
      "taf_trigger": false,
      "metar": "METAR LLBG 310250Z 16005KT CAVOK 14/06 Q1014 NOSIG",
      "taf": "TAF LLBG 302311Z 3100/3124 15007KT CAVOK"
    },
    {
      "icao": "LMML",
      "alert": "OK",
      "vis_m": 9999,
      "fzfg": false,
      "metar_trigger": false,
      "taf_trigger": false,
      "metar": "METAR LMML 310245Z 29007KT 9999 FEW020TCU 12/10 Q1013 NOSIG",
      "taf": "TAF LMML 302300Z 3100/3124 30012KT 9999 SCT020TCU"
    },
    {
      "icao": "LOWW",
      "alert": "OK",
      "vis_m": 9999,
      "fzfg": false,
      "metar_trigger": false,
      "taf_trigger": false,
      "metar": "METAR LOWW 310250Z 32020KT 9999 FEW050 M02/M08 Q1019 NOSIG",
      "taf": "TAF LOWW 310215Z 3103/0109 31017KT CAVOK TX04/0109Z TNM02/3106Z"
    },
    {
      "icao": "LPFR",
      "alert": "OK",
      "vis_m": 9999,
      "fzfg": false,
      "metar_trigger": false,
      "taf_trigger": false,
      "metar": "METAR LPFR 310300Z 06009KT CAVOK 12/09 Q1018",
      "taf": "TAF LPFR 302300Z 3100/3124 03007KT CAVOK"
    },
    {
      "icao": "LPMA",
      "alert": "OK",
      "vis_m": 9999,
      "fzfg": false,
      "metar_trigger": false,
      "taf_trigger": false,
      "metar": "METAR LPMA 310300Z VRB02KT 9999 FEW015 16/13 Q1017",
      "taf": "TAF LPMA 302300Z 3100/3124 VRB05KT 9999 SCT013"
    },
    {
      "icao": "LPPR",
      "alert": "OK",
      "vis_m": 6000,
      "fzfg": false,
      "metar_trigger": false,
      "taf_trigger": false,
      "metar": "METAR LPPR 310300Z VRB02KT 6000 NSC 07/06 Q1020",
      "taf": "TAF LPPR 302300Z 3100/3124 09005KT CAVOK"
    },
    {
      "icao": "LPPS",
      "alert": "OK",
      "vis_m": 9999,
      "fzfg": false,
      "metar_trigger": false,
      "taf_trigger": false,
      "metar": "METAR LPPS 310300Z 22004KT 9999 SCT010 17/15 Q1017",
      "taf": "TAF LPPS 302300Z 3100/0106 27005KT 9999 SCT010"
    },
    {
      "icao": "LPPT",
      "alert": "OK",
      "vis_m": 4000,
      "fzfg": false,
      "metar_trigger": false,
      "taf_trigger": false,
      "metar": "METAR LPPT 310300Z 05003KT 4000 BR BCFG FEW001 06/06 Q1019",
      "taf": "TAF LPPT 302300Z 3100/0106 05005KT 5000 BR SCT003"
    },
    {
      "icao": "LQBK",
      "alert": "OK",
      "vis_m": 9999,
      "fzfg": false,
      "metar_trigger": false,
      "taf_trigger": false,
      "metar": "METAR LQBK 310300Z 15003KT CAVOK M07/M08 Q1022 NOSIG",
      "taf": "TAF LQBK 302300Z 3100/3124 16005KT CAVOK TX01/3113Z TNM08/3105Z"
    },
    {
      "icao": "LQSA",
      "alert": "OK",
      "vis_m": 9999,
      "fzfg": false,
      "metar_trigger": false,
      "taf_trigger": false,
      "metar": "METAR LQSA 310300Z 33002KT CAVOK M08/M09 Q1018",
      "taf": "TAF LQSA 302300Z 3100/3124 29005KT 9999 SCT040 TXM00/3113Z TNM10/3106Z"
    },
    {
      "icao": "LQTZ",
      "alert": "OK",
      "vis_m": 7000,
      "fzfg": false,
      "metar_trigger": false,
      "taf_trigger": false,
      "metar": "METAR LQTZ 310300Z VRB02KT 7000 NSC M09/M10 Q1020",
      "taf": "TAF LQTZ 302300Z 3100/3124 27006KT CAVOK TX02/3113Z TNM09/3105Z"
    },
    {
      "icao": "LRBC",
      "alert": "OK",
      "vis_m": 9999,
      "fzfg": false,
      "metar_trigger": false,
      "taf_trigger": false,
      "metar": "METAR LRBC 310300Z 26009KT CAVOK M03/M12 Q1006",
      "taf": "TAF LRBC 310200Z 3103/3112 29007KT CAVOK"
    },
    {
      "icao": "LRBS",
      "alert": "OK",
      "vis_m": 9999,
      "fzfg": false,
      "metar_trigger": false,
      "taf_trigger": false,
      "metar": "METAR LRBS 310300Z 29005KT 230V340 CAVOK M04/M09 Q1012 NOSIG",
      "taf": "TAF LRBS 302300Z 3100/3124 27007KT CAVOK"
    },
    {
      "icao": "LRBV",
      "alert": "OK",
      "vis_m": 9999,
      "fzfg": false,
      "metar_trigger": false,
      "taf_trigger": false,
      "metar": "METAR LRBV 310300Z AUTO 32007KT 280V350 9999 NCD M07/M12 Q1008",
      "taf": "TAF LRBV 310200Z 3103/3112 30010KT 9999 BKN040"
    },
    {
      "icao": "LRCL",
      "alert": "OK",
      "vis_m": 9999,
      "fzfg": false,
      "metar_trigger": false,
      "taf_trigger": false,
      "metar": "METAR LRCL 310300Z 27006KT 9999 OVC052 M05/M09 Q1011",
      "taf": "TAF LRCL 310200Z 3103/3112 28008KT CAVOK"
    },
    {
      "icao": "LRCV",
      "alert": "OK",
      "vis_m": 9999,
      "fzfg": false,
      "metar_trigger": false,
      "taf_trigger": false,
      "metar": "METAR LRCV 310300Z 28012KT CAVOK M05/M09 Q1013",
      "taf": "TAF LRCV 310200Z 3103/3112 29013KT CAVOK"
    },
    {
      "icao": "LRIA",
      "alert": "OK",
      "vis_m": 9999,
      "fzfg": false,
      "metar_trigger": false,
      "taf_trigger": false,
      "metar": "METAR LRIA 310300Z 25008KT 210V300 CAVOK M02/M12 Q1005",
      "taf": "TAF LRIA 310200Z 3103/3112 24008KT CAVOK"
    },
    {
      "icao": "LROP",
      "alert": "OK",
      "vis_m": 9999,
      "fzfg": false,
      "metar_trigger": false,
      "taf_trigger": false,
      "metar": "METAR LROP 310300Z 26008KT CAVOK M06/M11 Q1011 NOSIG",
      "taf": "TAF LROP 302300Z 3100/3124 VRB04KT CAVOK"
    },
    {
      "icao": "LRSB",
      "alert": "OK",
      "vis_m": 9999,
      "fzfg": false,
      "metar_trigger": false,
      "taf_trigger": false,
      "metar": "METAR LRSB 310300Z 22003KT 120V280 CAVOK M10/M13 Q1010",
      "taf": "TAF LRSB 302300Z 3100/3124 29010KT 9999 SCT040"
    },
    {
      "icao": "LRSM",
      "alert": "OK",
      "vis_m": 9999,
      "fzfg": false,
      "metar_trigger": false,
      "taf_trigger": false,
      "metar": "METAR LRSM 310300Z AUTO 25011KT 9999 BKN039/// M04/M08 Q1012",
      "taf": "TAF LRSM 310200Z 3103/3112 26011KT 9999 BKN040"
    },
    {
      "icao": "LRSV",
      "alert": "OK",
      "vis_m": 3000,
      "fzfg": false,
      "metar_trigger": false,
      "taf_trigger": false,
      "metar": "METAR LRSV 310300Z 31011KT 3000 -SN BKN015 M05/M07 Q1004",
      "taf": "TAF LRSV 310200Z 3103/3112 30010KT CAVOK"
    },
    {
      "icao": "LRTM",
      "alert": "OK",
      "vis_m": 9999,
      "fzfg": false,
      "metar_trigger": false,
      "taf_trigger": false,
      "metar": "METAR LRTM 310300Z AUTO 22007KT 9999 R25////// FEW046/// BKN060/// BKN110/// M07/M09 Q1011",
      "taf": "TAF LRTM 310200Z 3103/3112 26007KT 9999 BKN040"
    },
    {
      "icao": "LRTR",
      "alert": "OK",
      "vis_m": 9999,
      "fzfg": false,
      "metar_trigger": false,
      "taf_trigger": false,
      "metar": "METAR LRTR 310300Z 23004KT 130V250 CAVOK M07/M09 Q1016",
      "taf": "TAF LRTR 302300Z 3100/3124 29009KT CAVOK"
    },
    {
      "icao": "LTAC",
      "alert": "OK",
      "vis_m": 9999,
      "fzfg": false,
      "metar_trigger": false,
      "taf_trigger": false,
      "metar": "METAR LTAC 310250Z 22003KT 180V290 9999 -RA FEW017 BKN023 BKN080 02/01 Q1001 NOSIG RMK RWY21C 25004KT 200V270 RWY03L 27003KT 190V330 RWY21R 24003KT 200V260 RWY03R VRB01KT RWY21L 23005KT",
      "taf": "TAF LTAC 302240Z 3100/3124 VRB02KT 9999 SCT040 BKN100"
    },
    {
      "icao": "LTFM",
      "alert": "OK",
      "vis_m": 9999,
      "fzfg": false,
      "metar_trigger": false,
      "taf_trigger": false,
      "metar": "METAR LTFM 310250Z 33017KT 9999 BKN023 04/M03 Q1010 NOSIG RMK RWY17L 33019KT RWY34L 32015KT RWY16R 33016KT RWY36 33017KT RWY18 34018KT",
      "taf": "TAF LTFM 302240Z 3100/0106 35015KT 9999 SCT025"
    },
    {
      "icao": "LUKK",
      "alert": "OK",
      "vis_m": 9999,
      "fzfg": false,
      "metar_trigger": false,
      "taf_trigger": false,
      "metar": "METAR LUKK 310300Z 26011KT CAVOK M05/M12 Q1004 NOSIG",
      "taf": "TAF LUKK 302318Z 3100/3124 29012KT 9999 SCT035"
    },
    {
      "icao": "LWOH",
      "alert": "OK",
      "vis_m": null,
      "fzfg": false,
      "metar_trigger": false,
      "taf_trigger": false,
      "metar": "",
      "taf": "TAF LWOH 310230Z 3103/0103 33010KT 9999 FEW040 SCT070"
    },
    {
      "icao": "LWSK",
      "alert": "OK",
      "vis_m": 9999,
      "fzfg": false,
      "metar_trigger": false,
      "taf_trigger": false,
      "metar": "METAR LWSK 310250Z 02011KT 9999 FEW085 M02/M09 Q1017 NOSIG",
      "taf": "TAF LWSK 310230Z 3103/0103 01010KT CAVOK"
    },
    {
      "icao": "LYBE",
      "alert": "OK",
      "vis_m": 9999,
      "fzfg": false,
      "metar_trigger": false,
      "taf_trigger": false,
      "metar": "METAR LYBE 310300Z 27010KT CAVOK M04/M07 Q1019 NOSIG",
      "taf": "TAF LYBE 302300Z 3100/3124 25010KT CAVOK TX00/3112Z TNM06/3106Z"
    },
    {
      "icao": "LYNI",
      "alert": "OK",
      "vis_m": 9999,
      "fzfg": false,
      "metar_trigger": false,
      "taf_trigger": false,
      "metar": "METAR LYNI 310300Z 00000KT 9999 SCT043 M03/M10 Q1017 NOSIG",
      "taf": "TAF LYNI 302300Z 3100/3124 28008KT 9999 SCT040 TXM00/3112Z TNM05/3103Z"
    },
    {
      "icao": "LYPG",
      "alert": "OK",
      "vis_m": 9999,
      "fzfg": false,
      "metar_trigger": false,
      "taf_trigger": false,
      "metar": "METAR LYPG 310300Z 36018G28KT CAVOK 02/M15 Q1015 NOSIG",
      "taf": "TAF LYPG 302300Z 3100/3124 01015G25KT CAVOK TX07/3112Z TN02/3105Z"
    },
    {
      "icao": "LZIB",
      "alert": "OK",
      "vis_m": 9999,
      "fzfg": false,
      "metar_trigger": false,
      "taf_trigger": false,
      "metar": "METAR LZIB 310300Z 31018KT 9999 FEW020 M02/M07 Q1019 NOSIG",
      "taf": "TAF LZIB 302315Z 3100/0100 31012KT 9999 FEW035"
    },
    {
      "icao": "LZKZ",
      "alert": "OK",
      "vis_m": 9999,
      "fzfg": false,
      "metar_trigger": false,
      "taf_trigger": false,
      "metar": "METAR LZKZ 310300Z 33010KT CAVOK M02/M12 Q1011 NOSIG",
      "taf": "TAF LZKZ 302315Z 3100/0100 30009KT 9999 FEW045"
    },
    {
      "icao": "LZTT",
      "alert": "OK",
      "vis_m": 9999,
      "fzfg": false,
      "metar_trigger": false,
      "taf_trigger": false,
      "metar": "METAR LZTT 310300Z 28019KT 9999 -SN SCT036 M06/M13 Q1009",
      "taf": "TAF LZTT 302315Z 3100/0100 26009KT 9999 -SN FEW012 BKN040"
    },
    {
      "icao": "OEJN",
      "alert": "OK",
      "vis_m": 9999,
      "fzfg": false,
      "metar_trigger": false,
      "taf_trigger": false,
      "metar": "METAR OEJN 310300Z 34004KT CAVOK 19/07 Q1014 NOSIG",
      "taf": "TAF OEJN 302300Z 3100/0106 VRB03KT 7000 NSC"
    },
    {
      "icao": "OEMA",
      "alert": "OK",
      "vis_m": 9999,
      "fzfg": false,
      "metar_trigger": false,
      "taf_trigger": false,
      "metar": "METAR OEMA 310300Z 05008KT CAVOK 14/M03 Q1020 NOSIG",
      "taf": "TAF OEMA 302300Z 3100/0106 11008KT CAVOK"
    },
    {
      "icao": "OJAI",
      "alert": "OK",
      "vis_m": 3000,
      "fzfg": false,
      "metar_trigger": false,
      "taf_trigger": false,
      "metar": "METAR OJAI 310300Z 00000KT 3000 BR NSC 04/03 Q1016 NOSIG",
      "taf": "TAF OJAI 302247Z 3100/0106 VRB02KT 4000 BR FEW030"
    },
    {
      "icao": "OMAA",
      "alert": "OK",
      "vis_m": 9999,
      "fzfg": false,
      "metar_trigger": false,
      "taf_trigger": false,
      "metar": "METAR OMAA 310300Z 31015KT 9999 SCT045 20/09 Q1017 NOSIG",
      "taf": "TAF OMAA 302300Z 3100/0106 31013KT 8000 FEW040"
    },
    {
      "icao": "OMDB",
      "alert": "OK",
      "vis_m": 9999,
      "fzfg": false,
      "metar_trigger": false,
      "taf_trigger": false,
      "metar": "METAR OMDB 310300Z 28015KT 9999 BKN044 21/10 Q1016 TEMPO 28020G30KT",
      "taf": "TAF OMDB 302300Z 3100/0106 29012KT 8000 FEW040"
    },
    {
      "icao": "UAAA",
      "alert": "OK",
      "vis_m": 9999,
      "fzfg": false,
      "metar_trigger": false,
      "taf_trigger": false,
      "metar": "METAR UAAA 310300Z 21004MPS 9999 BKN100 OVC200 06/01 Q1010 NOSIG",
      "taf": "TAF UAAA 302301Z 3100/3124 29003MPS 3100 BR FU SCT050CB BKN100 TX07/3109Z TNM02/3101Z"
    },
    {
      "icao": "UBBB",
      "alert": "OK",
      "vis_m": 9999,
      "fzfg": false,
      "metar_trigger": false,
      "taf_trigger": false,
      "metar": "METAR UBBB 310300Z 21020G30KT CAVOK 06/M04 Q1007 NOSIG",
      "taf": "TAF UBBB 302301Z 3100/3124 19018G28KT CAVOK TX10/3110Z TN04/3103Z"
    },
    {
      "icao": "UDSG",
      "alert": "OK",
      "vis_m": 9999,
      "fzfg": false,
      "metar_trigger": false,
      "taf_trigger": false,
      "metar": "METAR UDSG 310300Z 31001KT 9999 NSC M12/M15 Q1013 NOSIG",
      "taf": "TAF UDSG 302258Z 3100/3124 VRB06KT 9999 BKN040"
    },
    {
      "icao": "UDYZ",
      "alert": "OK",
      "vis_m": 9999,
      "fzfg": false,
      "metar_trigger": false,
      "taf_trigger": false,
      "metar": "METAR UDYZ 310300Z 04003KT 9999 NSC M11/M13 Q1017 NOSIG",
      "taf": "TAF UDYZ 302300Z 3100/3124 VRB06KT 6000 NSC"
    },
    {
      "icao": "UGKO",
      "alert": "OK",
      "vis_m": 9999,
      "fzfg": false,
      "metar_trigger": false,
      "taf_trigger": false,
      "metar": "METAR UGKO 310300Z AUTO 09018KT CAVOK 03/M04 Q1007 NOSIG",
      "taf": "TAF UGKO 302300Z 3100/3124 08015KT CAVOK TX04/3112Z TNM01/3102Z"
    }
  ]
}