{
  "ts_utc": "2026-01-15T09:58:38Z",
  "threshold_m": 150,
  "source": "stations_override.txt (ICAO list) + aviationweather.gov (METAR/TAF raw)",
  "station_count": 159,
  "stations": [
    {
      "icao": "BIKF",
      "alert": "OK",
      "vis_m": 9999,
      "fzfg": false,
      "metar_trigger": false,
      "taf_trigger": false,
      "metar": "METAR BIKF 150930Z 02013KT CAVOK 00/M04 Q0987",
      "taf": "TAF BIKF 150743Z 1509/1609 02020KT 9999 SCT025 BKN045 TX02/1606Z TN00/1510Z"
    },
    {
      "icao": "BKPR",
      "alert": "OK",
      "vis_m": null,
      "fzfg": false,
      "metar_trigger": false,
      "taf_trigger": false,
      "metar": "",
      "taf": "TAF BKPR 150530Z 1506/1606 VRB03KT 9999 SCT060"
    },
    {
      "icao": "EBCI",
      "alert": "OK",
      "vis_m": 9999,
      "fzfg": false,
      "metar_trigger": false,
      "taf_trigger": false,
      "metar": "METAR EBCI 150950Z 20014KT 9999 FEW020 09/05 Q1010 NOSIG",
      "taf": "TAF EBCI 150500Z 1506/1612 20011KT 9999 SCT010 SCT020"
    },
    {
      "icao": "EDDB",
      "alert": "OK",
      "vis_m": 4400,
      "fzfg": false,
      "metar_trigger": false,
      "taf_trigger": false,
      "metar": "METAR EDDB 150950Z AUTO 13007KT 4400 BR OVC002 03/03 Q1015 TEMPO 4000 -RADZ",
      "taf": "TAF EDDB 150500Z 1506/1606 14006KT 8000 SCT015 OVC020"
    },
    {
      "icao": "EDDH",
      "alert": "OK",
      "vis_m": 4000,
      "fzfg": false,
      "metar_trigger": false,
      "taf_trigger": false,
      "metar": "METAR EDDH 150950Z AUTO 14009KT 4000 -SHRA BR BKN003 OVC026 OVC035 FEW///TCU 04/04 Q1011 BECMG 7000 SCT003 BKN025",
      "taf": "TAF EDDH 150500Z 1506/1612 16010KT 9999 BKN007"
    },
    {
      "icao": "EDDK",
      "alert": "OK",
      "vis_m": 9999,
      "fzfg": false,
      "metar_trigger": false,
      "taf_trigger": false,
      "metar": "METAR EDDK 150950Z AUTO 15009KT 9999 OVC043 10/08 Q1012 NOSIG",
      "taf": "TAF EDDK 150500Z 1506/1612 15010KT 9999 SCT025"
    },
    {
      "icao": "EDDN",
      "alert": "OK",
      "vis_m": 9999,
      "fzfg": false,
      "metar_trigger": false,
      "taf_trigger": false,
      "metar": "METAR EDDN 150950Z AUTO 13007KT 9999 FEW022 BKN029 OVC045 05/04 Q1017 NOSIG",
      "taf": ""
    },
    {
      "icao": "EDDS",
      "alert": "OK",
      "vis_m": 9999,
      "fzfg": false,
      "metar_trigger": false,
      "taf_trigger": false,
      "metar": "METAR EDDS 150950Z AUTO VRB01KT 9999 BKN042 08/05 Q1016 NOSIG",
      "taf": "TAF EDDS 150500Z 1506/1606 22004KT 9999 BKN030"
    },
    {
      "icao": "EDFH",
      "alert": "OK",
      "vis_m": 9999,
      "fzfg": false,
      "metar_trigger": false,
      "taf_trigger": false,
      "metar": "METAR EDFH 150950Z 20014KT 9999 FEW011 BKN013 OVC039 08/06 Q1013",
      "taf": ""
    },
    {
      "icao": "EDJA",
      "alert": "OK",
      "vis_m": 9999,
      "fzfg": false,
      "metar_trigger": false,
      "taf_trigger": false,
      "metar": "METAR EDJA 150950Z 21007KT CAVOK 08/02 Q1017",
      "taf": "TAF EDJA 150800Z 1509/1518 22006KT CAVOK"
    },
    {
      "icao": "EDLW",
      "alert": "OK",
      "vis_m": 9999,
      "fzfg": false,
      "metar_trigger": false,
      "taf_trigger": false,
      "metar": "METAR EDLW 150950Z 18012KT CAVOK 10/07 Q1010",
      "taf": "TAF EDLW 150500Z 1506/1606 18013KT 9999 SCT030"
    },
    {
      "icao": "EDNY",
      "alert": "OK",
      "vis_m": 9999,
      "fzfg": false,
      "metar_trigger": false,
      "taf_trigger": false,
      "metar": "METAR EDNY 150950Z 31003KT 240V010 CAVOK 05/04 Q1018",
      "taf": "TAF EDNY 150800Z 1509/1518 VRB03KT 8000 SCT045"
    },
    {
      "icao": "EDSB",
      "alert": "OK",
      "vis_m": 9999,
      "fzfg": false,
      "metar_trigger": false,
      "taf_trigger": false,
      "metar": "METAR EDSB 150950Z 20006KT CAVOK 10/08 Q1016",
      "taf": "TAF EDSB 150500Z 1506/1606 21004KT 9999 BKN030"
    },
    {
      "icao": "EETN",
      "alert": "OK",
      "vis_m": 9999,
      "fzfg": false,
      "metar_trigger": false,
      "taf_trigger": false,
      "metar": "METAR EETN 150950Z 17011KT 9999 DRSN OVC010 M10/M12 Q1018 NOSIG",
      "taf": "TAF EETN 150530Z 1506/1606 16012KT 2000 SN SCT010 BKN020"
    },
    {
      "icao": "EFTU",
      "alert": "OK",
      "vis_m": 1800,
      "fzfg": false,
      "metar_trigger": false,
      "taf_trigger": false,
      "metar": "METAR EFTU 150950Z AUTO 14008KT 1800 -SN OVC008 M04/M05 Q1014",
      "taf": ""
    },
    {
      "icao": "EGBB",
      "alert": "OK",
      "vis_m": 9999,
      "fzfg": false,
      "metar_trigger": false,
      "taf_trigger": false,
      "metar": "METAR EGBB 150950Z 15004KT 9999 VCSH NSC 06/05 Q1001",
      "taf": "TAF EGBB 150502Z 1506/1606 18009KT 9999 SCT010"
    },
    {
      "icao": "EGGP",
      "alert": "OK",
      "vis_m": 9999,
      "fzfg": false,
      "metar_trigger": false,
      "taf_trigger": false,
      "metar": "METAR EGGP 150950Z 16005KT 9999 FEW040 05/03 Q1000",
      "taf": "TAF EGGP 150503Z 1506/1606 16006KT 9999 SCT025"
    },
    {
      "icao": "EGGW",
      "alert": "OK",
      "vis_m": 9000,
      "fzfg": false,
      "metar_trigger": false,
      "taf_trigger": false,
      "metar": "METAR EGGW 150950Z AUTO 17006KT 150V230 9000 BKN004 BKN007 08/08 Q1002",
      "taf": "TAF EGGW 150457Z 1506/1606 19010KT 9999 SCT004 BKN020"
    },
    {
      "icao": "EGKK",
      "alert": "OK",
      "vis_m": 8000,
      "fzfg": false,
      "metar_trigger": false,
      "taf_trigger": false,
      "metar": "METAR EGKK 150950Z 19010KT 8000 -RA BKN007 BKN024 08/08 Q1004",
      "taf": "TAF EGKK 150456Z 1506/1612 21009KT 9999 SCT010"
    },
    {
      "icao": "EGNM",
      "alert": "OK",
      "vis_m": 9999,
      "fzfg": false,
      "metar_trigger": false,
      "taf_trigger": false,
      "metar": "METAR EGNM 150950Z 23003KT 190V270 9999 FEW012 06/04 Q0999",
      "taf": "TAF EGNM 150504Z 1505/1524 21010KT 9999 SCT020"
    },
    {
      "icao": "EGPD",
      "alert": "OK",
      "vis_m": 9999,
      "fzfg": false,
      "metar_trigger": false,
      "taf_trigger": false,
      "metar": "METAR EGPD 150950Z COR AUTO 22010KT 9999 NCD 05/02 Q0993 NOSIG",
      "taf": "TAF EGPD 150455Z 1506/1606 20008KT 9999 FEW015"
    },
    {
      "icao": "EGPF",
      "alert": "OK",
      "vis_m": 9999,
      "fzfg": false,
      "metar_trigger": false,
      "taf_trigger": false,
      "metar": "METAR EGPF 150950Z AUTO 21012KT 9999 FEW018 SCT031 06/04 Q0995",
      "taf": ""
    },
    {
      "icao": "EHBK",
      "alert": "OK",
      "vis_m": 9999,
      "fzfg": false,
      "metar_trigger": false,
      "taf_trigger": false,
      "metar": "METAR EHBK 150925Z AUTO 20014KT 170V230 9999 BKN016 OVC023 10/08 Q1010 NOSIG",
      "taf": "TAF EHBK 150504Z 1506/1612 19010KT 9999 BKN020"
    },
    {
      "icao": "EHEH",
      "alert": "OK",
      "vis_m": 9999,
      "fzfg": false,
      "metar_trigger": false,
      "taf_trigger": false,
      "metar": "METAR EHEH 150955Z AUTO 19009KT 150V220 9999 SCT012 BKN014 OVC016 10/08 Q1009 GRN TEMPO SCT010 FEW012CB RMK TREND REMOTE BY EHWX",
      "taf": "TAF EHEH 150554Z 1506/1612 18009KT 9999 OVC025"
    },
    {
      "icao": "EKBI",
      "alert": "OK",
      "vis_m": 2900,
      "fzfg": false,
      "metar_trigger": false,
      "taf_trigger": false,
      "metar": "METAR EKBI 150950Z AUTO 14009KT 2900 -RA BR OVC002/// 03/03 Q1007",
      "taf": "TAF EKBI 150827Z 1509/1609 14010KT 1200 -RADZ BR OVC003"
    },
    {
      "icao": "EKCH",
      "alert": "OK",
      "vis_m": 9999,
      "fzfg": false,
      "metar_trigger": false,
      "taf_trigger": false,
      "metar": "METAR EKCH 150950Z AUTO 15013KT 9999 SCT052/// 03/02 Q1013 BECMG BKN008",
      "taf": "TAF EKCH 150827Z 1509/1609 16006KT 9999 SCT020"
    },
    {
      "icao": "ENAL",
      "alert": "OK",
      "vis_m": 9999,
      "fzfg": false,
      "metar_trigger": false,
      "taf_trigger": false,
      "metar": "METAR ENAL 150950Z 14009KT CAVOK 07/M01 Q0998",
      "taf": "TAF ENAL 150800Z 1509/1518 13008KT 9999 SCT050"
    },
    {
      "icao": "ENBR",
      "alert": "OK",
      "vis_m": 9999,
      "fzfg": false,
      "metar_trigger": false,
      "taf_trigger": false,
      "metar": "METAR ENBR 150950Z 14010KT 9999 BKN050 05/M00 Q0999 NOSIG RMK WIND 1200FT 14025KT",
      "taf": "TAF ENBR 150500Z 1506/1606 14015KT 9999 -SHRA FEW015TCU BKN025"
    },
    {
      "icao": "ENGM",
      "alert": "OK",
      "vis_m": 4100,
      "fzfg": true,
      "metar_trigger": false,
      "taf_trigger": false,
      "metar": "METAR ENGM 150950Z 34002KT 4100 0650E R19R/P2000N R01R/1500D R19L/1100D R01L/P2000N PRFG BKN002 M08/M09 Q1008 TEMPO 0500 FZFG",
      "taf": "TAF ENGM 150500Z 1506/1606 VRB03KT 0300 FZFG VV001"
    },
    {
      "icao": "ENHD",
      "alert": "OK",
      "vis_m": 9999,
      "fzfg": false,
      "metar_trigger": false,
      "taf_trigger": false,
      "metar": "METAR ENHD 150950Z 14015KT CAVOK 05/01 Q0999",
      "taf": "TAF ENHD 150800Z 1509/1518 14018KT 9999 -SHRA FEW020 BKN030"
    },
    {
      "icao": "ENTC",
      "alert": "OK",
      "vis_m": 9999,
      "fzfg": false,
      "metar_trigger": false,
      "taf_trigger": false,
      "metar": "METAR ENTC 150950Z 10003KT CAVOK M05/M08 Q1007 NOSIG RMK WIND 2600FT 18014KT",
      "taf": "TAF ENTC 150500Z 1506/1606 20008KT CAVOK"
    },
    {
      "icao": "ENTO",
      "alert": "OK",
      "vis_m": 3000,
      "fzfg": false,
      "metar_trigger": false,
      "taf_trigger": false,
      "metar": "METAR ENTO 150950Z 01004KT 3000 -FZRA BR VV003 M03/M04 Q1008 TEMPO 1500 BR",
      "taf": ""
    },
    {
      "icao": "ENVA",
      "alert": "OK",
      "vis_m": 9999,
      "fzfg": false,
      "metar_trigger": false,
      "taf_trigger": false,
      "metar": "METAR ENVA 150950Z 08008KT CAVOK M02/M06 Q1004 NOSIG RMK WIND 670FT 10011KT",
      "taf": "TAF ENVA 150500Z 1506/1606 12008KT CAVOK"
    },
    {
      "icao": "ENZV",
      "alert": "OK",
      "vis_m": 9999,
      "fzfg": false,
      "metar_trigger": false,
      "taf_trigger": false,
      "metar": "METAR ENZV 150950Z 14017KT CAVOK 05/M00 Q1000 NOSIG",
      "taf": "TAF ENZV 150500Z 1506/1606 16012KT 9999 SCT030"
    },
    {
      "icao": "EPGD",
      "alert": "OK",
      "vis_m": 9999,
      "fzfg": false,
      "metar_trigger": false,
      "taf_trigger": false,
      "metar": "METAR EPGD 150930Z 20005KT 150V220 9999 BKN014 01/01 Q1018",
      "taf": ""
    },
    {
      "icao": "EPKK",
      "alert": "OK",
      "vis_m": 400,
      "fzfg": true,
      "metar_trigger": false,
      "taf_trigger": false,
      "metar": "METAR EPKK 150930Z 07004KT 0400 R25/0200N FZFG VV000 M02/M02 Q1020",
      "taf": ""
    },
    {
      "icao": "EPKT",
      "alert": "OK",
      "vis_m": 4000,
      "fzfg": false,
      "metar_trigger": false,
      "taf_trigger": false,
      "metar": "METAR EPKT 150930Z 11004KT 4000 BR SCT006 BKN019 02/01 Q1019",
      "taf": "TAF EPKT 150530Z 1506/1606 16004KT 3000 BR BKN008"
    },
    {
      "icao": "EPLB",
      "alert": "OK",
      "vis_m": 1500,
      "fzfg": false,
      "metar_trigger": false,
      "taf_trigger": false,
      "metar": "METAR EPLB 150930Z 14001KT 1500 BR BKN003 OVC010 M03/M03 Q1020",
      "taf": "TAF EPLB 150530Z 1506/1606 VRB02KT 2500 BR OVC002"
    },
    {
      "icao": "EPMO",
      "alert": "OK",
      "vis_m": 800,
      "fzfg": true,
      "metar_trigger": false,
      "taf_trigger": false,
      "metar": "METAR EPMO 150930Z 09003KT 0800 R08/0900U FZFG FEW001 BKN033 M02/M02 Q1020",
      "taf": ""
    },
    {
      "icao": "EPPO",
      "alert": "WARNING",
      "vis_m": 400,
      "fzfg": true,
      "metar_trigger": false,
      "taf_trigger": true,
      "metar": "METAR EPPO 150930Z 13007KT 0400 R28/0700N FZFG VV002 M01/M01 Q1019",
      "taf": "TAF EPPO 150530Z 1506/1606 13005KT 0100 FZFG BKN000"
    },
    {
      "icao": "EPRA",
      "alert": "OK",
      "vis_m": 9999,
      "fzfg": false,
      "metar_trigger": false,
      "taf_trigger": false,
      "metar": "METAR EPRA 150930Z 28002KT 9999 BKN012 02/M00 Q1020",
      "taf": "TAF EPRA 150830Z 1509/1518 27005KT 9999 BKN025"
    },
    {
      "icao": "EPRZ",
      "alert": "OK",
      "vis_m": 8000,
      "fzfg": false,
      "metar_trigger": false,
      "taf_trigger": false,
      "metar": "METAR EPRZ 150930Z 25004KT 8000 OVC006 02/01 Q1020",
      "taf": "TAF EPRZ 150530Z 1506/1606 26010KT 2000 BR OVC003"
    },
    {
      "icao": "EPSC",
      "alert": "OK",
      "vis_m": 9999,
      "fzfg": false,
      "metar_trigger": false,
      "taf_trigger": false,
      "metar": "METAR EPSC 150930Z 13009KT 9999 FEW024 SCT028 00/M01 Q1016",
      "taf": "TAF EPSC 150530Z 1506/1606 14010KT 6000 NSC"
    },
    {
      "icao": "EPSY",
      "alert": "OK",
      "vis_m": 3100,
      "fzfg": false,
      "metar_trigger": false,
      "taf_trigger": false,
      "metar": "METAR EPSY 150930Z 15004KT 120V190 3100 BR OVC004 M05/M06 Q1020",
      "taf": "TAF EPSY 150830Z 1509/1518 14004KT 4500 BR OVC004"
    },
    {
      "icao": "EPWA",
      "alert": "OK",
      "vis_m": 1500,
      "fzfg": false,
      "metar_trigger": false,
      "taf_trigger": false,
      "metar": "METAR EPWA 150930Z 10004KT 1500 1300W BR BKN003 OVC030 M00/M01 Q1020 TEMPO 0800 FG",
      "taf": "TAF EPWA 150830Z 1509/1609 VRB02KT 6000 BKN020"
    },
    {
      "icao": "EPWR",
      "alert": "OK",
      "vis_m": 2800,
      "fzfg": false,
      "metar_trigger": false,
      "taf_trigger": false,
      "metar": "METAR EPWR 150930Z 11004KT 2800 BR BKN040 02/02 Q1018",
      "taf": "TAF EPWR 150830Z 1509/1609 12005KT 2500 BR BKN045"
    },
    {
      "icao": "ESGG",
      "alert": "OK",
      "vis_m": 9999,
      "fzfg": false,
      "metar_trigger": false,
      "taf_trigger": false,
      "metar": "METAR ESGG 150950Z 16008KT 9999 BKN004 02/01 Q1010",
      "taf": "TAF ESGG 150830Z 1509/1609 18006KT 8000 SCT004"
    },
    {
      "icao": "ESKN",
      "alert": "OK",
      "vis_m": 9999,
      "fzfg": false,
      "metar_trigger": false,
      "taf_trigger": false,
      "metar": "METAR ESKN 150950Z 19006KT 9999 SCT005 01/01 Q1013",
      "taf": "TAF ESKN 150830Z 1509/1609 19006KT 9999 OVC020"
    },
    {
      "icao": "ESMS",
      "alert": "OK",
      "vis_m": 9999,
      "fzfg": false,
      "metar_trigger": false,
      "taf_trigger": false,
      "metar": "METAR ESMS 150950Z 15010KT CAVOK 02/02 Q1013",
      "taf": "TAF ESMS 150827Z 1509/1609 18006KT 9999 FEW020"
    },
    {
      "icao": "ESSA",
      "alert": "OK",
      "vis_m": 9999,
      "fzfg": false,
      "metar_trigger": false,
      "taf_trigger": false,
      "metar": "METAR ESSA 150950Z 23009KT 9999 BKN012 01/M01 Q1012 NOSIG",
      "taf": "TAF ESSA 150830Z 1509/1609 24008KT 9999 SCT010 BKN015"
    },
    {
      "icao": "EYKA",
      "alert": "OK",
      "vis_m": 5000,
      "fzfg": false,
      "metar_trigger": false,
      "taf_trigger": false,
      "metar": "METAR EYKA 150950Z 17008KT 130V220 5000 -SN BR SCT029 BKN036 OVC042 M10/M13 Q1022",
      "taf": "TAF EYKA 150513Z 1506/1606 15009KT 8000 SCT010 BKN015"
    },
    {
      "icao": "EYPA",
      "alert": "OK",
      "vis_m": 6000,
      "fzfg": false,
      "metar_trigger": false,
      "taf_trigger": false,
      "metar": "METAR EYPA 150950Z 16009KT 120V180 6000 BKN006 OVC026 M05/M07 Q1019",
      "taf": "TAF EYPA 150500Z 1506/1606 16010KT 6000 BKN005"
    },
    {
      "icao": "EYVI",
      "alert": "OK",
      "vis_m": 9000,
      "fzfg": false,
      "metar_trigger": false,
      "taf_trigger": false,
      "metar": "METAR EYVI 150950Z 16009KT 9000 NSC M14/M16 Q1023 NOSIG",
      "taf": "TAF EYVI 150506Z 1506/1606 17009KT 7000 NSC"
    },
    {
      "icao": "GCFV",
      "alert": "OK",
      "vis_m": 9999,
      "fzfg": false,
      "metar_trigger": false,
      "taf_trigger": false,
      "metar": "METAR GCFV 150930Z 34009KT 9999 FEW035 SCT044 16/09 Q1024",
      "taf": "TAF GCFV 150800Z 1509/1609 04011KT 9999 SCT040 TX20/1514Z TN15/1606Z"
    },
    {
      "icao": "GCLP",
      "alert": "OK",
      "vis_m": 9999,
      "fzfg": false,
      "metar_trigger": false,
      "taf_trigger": false,
      "metar": "METAR GCLP 150930Z 36010KT 9999 BKN040 18/09 Q1024 NOSIG",
      "taf": "TAF GCLP 150800Z 1509/1609 02016KT 9999 SCT040 TX20/1514Z TN15/1606Z"
    },
    {
      "icao": "GCTS",
      "alert": "OK",
      "vis_m": 9999,
      "fzfg": false,
      "metar_trigger": false,
      "taf_trigger": false,
      "metar": "METAR GCTS 150930Z 07007KT 030V100 9999 BKN040 17/09 Q1025 NOSIG",
      "taf": "TAF GCTS 150800Z 1509/1609 06015KT 9999 SCT040 TX22/1514Z TN14/1606Z"
    },
    {
      "icao": "GMAD",
      "alert": "OK",
      "vis_m": 9999,
      "fzfg": false,
      "metar_trigger": false,
      "taf_trigger": false,
      "metar": "METAR GMAD 150930Z 05005KT CAVOK 12/12 Q1022 NOSIG",
      "taf": "TAF GMAD 150500Z 1506/1612 06008KT 8000 SCT020"
    },
    {
      "icao": "GMMN",
      "alert": "OK",
      "vis_m": 8000,
      "fzfg": false,
      "metar_trigger": false,
      "taf_trigger": false,
      "metar": "METAR GMMN 150930Z 21006KT 8000 FEW016 11/10 Q1023 NOSIG",
      "taf": "TAF GMMN 150500Z 1506/1612 20004KT 2000 BR FEW003 SCT020"
    },
    {
      "icao": "GMMX",
      "alert": "OK",
      "vis_m": 9999,
      "fzfg": false,
      "metar_trigger": false,
      "taf_trigger": false,
      "metar": "METAR GMMX 150930Z VRB01KT 9999 FEW026 12/09 Q1023 NOSIG",
      "taf": "TAF GMMX 150500Z 1506/1612 06006KT 8000 SCT026"
    },
    {
      "icao": "HEGN",
      "alert": "OK",
      "vis_m": 9999,
      "fzfg": false,
      "metar_trigger": false,
      "taf_trigger": false,
      "metar": "METAR HEGN 150900Z 33014KT CAVOK 18/07 Q1024 NOSIG",
      "taf": "TAF HEGN 150500Z 1506/1612 31010G20KT 6000 FEW025"
    },
    {
      "icao": "HEMA",
      "alert": "OK",
      "vis_m": 9999,
      "fzfg": false,
      "metar_trigger": false,
      "taf_trigger": false,
      "metar": "METAR HEMA 150900Z 36023KT 9999 FEW020 SCT025 20/09 Q1022 NOSIG",
      "taf": "TAF HEMA 150500Z 1506/1612 33010G20KT 6000 FEW025"
    },
    {
      "icao": "HESH",
      "alert": "OK",
      "vis_m": 9999,
      "fzfg": false,
      "metar_trigger": false,
      "taf_trigger": false,
      "metar": "METAR HESH 150900Z 01016KT CAVOK 19/05 Q1024 NOSIG",
      "taf": "TAF HESH 150500Z 1506/1612 35010KT CAVOK"
    },
    {
      "icao": "HESX",
      "alert": "OK",
      "vis_m": 9999,
      "fzfg": false,
      "metar_trigger": false,
      "taf_trigger": false,
      "metar": "METAR HESX 150900Z 21005KT 9999 FEW030 SCT100 15/07 Q1026 NOSIG",
      "taf": "TAF HESX 150500Z 1506/1612 34008KT 9999 SCT025"
    },
    {
      "icao": "LATI",
      "alert": "OK",
      "vis_m": 9999,
      "fzfg": false,
      "metar_trigger": false,
      "taf_trigger": false,
      "metar": "METAR LATI 150950Z 20004KT 160V240 9999 BKN120 12/04 Q1026 NOSIG",
      "taf": "TAF LATI 150500Z 1506/1606 VRB05KT CAVOK TX15/1512Z TN03/1506Z"
    },
    {
      "icao": "LBPD",
      "alert": "OK",
      "vis_m": 9999,
      "fzfg": false,
      "metar_trigger": false,
      "taf_trigger": false,
      "metar": "METAR LBPD 150930Z AUTO 29014KT 9999 NCD 14/03 Q1021 NOSIG",
      "taf": "TAF LBPD 150500Z 1506/1606 VRB04KT 9999 BKN070"
    },
    {
      "icao": "LBSF",
      "alert": "OK",
      "vis_m": 9999,
      "fzfg": false,
      "metar_trigger": false,
      "taf_trigger": false,
      "metar": "METAR LBSF 150930Z VRB02KT CAVOK 06/01 Q1023 NOSIG",
      "taf": "TAF LBSF 150500Z 1506/1606 VRB04KT 9999 SCT060"
    },
    {
      "icao": "LBWN",
      "alert": "OK",
      "vis_m": 9999,
      "fzfg": false,
      "metar_trigger": false,
      "taf_trigger": false,
      "metar": "METAR LBWN 150930Z 28018KT 9999 SCT048 11/03 Q1019 NOSIG",
      "taf": "TAF LBWN 150500Z 1506/1606 VRB03KT 9999 SCT040"
    },
    {
      "icao": "LCLK",
      "alert": "OK",
      "vis_m": 9999,
      "fzfg": false,
      "metar_trigger": false,
      "taf_trigger": false,
      "metar": "METAR LCLK 150930Z COR 06006KT 9999 FEW050 15/04 Q1024 NOSIG",
      "taf": "TAF LCLK 150530Z 1506/1606 32007KT 9999 FEW030"
    },
    {
      "icao": "LCPH",
      "alert": "OK",
      "vis_m": 9999,
      "fzfg": false,
      "metar_trigger": false,
      "taf_trigger": false,
      "metar": "METAR LCPH 150930Z 17005KT 9999 FEW043 SCT050 17/06 Q1024 NOSIG",
      "taf": "TAF LCPH 150530Z 1506/1606 03007KT 9999 SCT030"
    },
    {
      "icao": "LEAL",
      "alert": "OK",
      "vis_m": 9999,
      "fzfg": false,
      "metar_trigger": false,
      "taf_trigger": false,
      "metar": "METAR LEAL 150930Z 21004KT 190V250 CAVOK 12/08 Q1020 NOSIG",
      "taf": "TAF LEAL 150500Z 1506/1606 VRB04KT CAVOK TX18/1513Z TN07/1506Z"
    },
    {
      "icao": "LEBB",
      "alert": "OK",
      "vis_m": 9999,
      "fzfg": false,
      "metar_trigger": false,
      "taf_trigger": false,
      "metar": "METAR LEBB 150930Z 17011KT 110V230 9999 FEW035 15/03 Q1010 NOSIG",
      "taf": "TAF LEBB 150500Z 1506/1606 20009KT 9999 FEW025 TX13/1512Z TN05/1506Z"
    },
    {
      "icao": "LEBL",
      "alert": "OK",
      "vis_m": 9999,
      "fzfg": false,
      "metar_trigger": false,
      "taf_trigger": false,
      "metar": "METAR LEBL 150930Z 33010KT 270V350 9999 FEW015 09/06 Q1018 NOSIG",
      "taf": "TAF LEBL 150500Z 1506/1606 34008KT 9999 FEW015 TX15/1512Z TN05/1506Z"
    },
    {
      "icao": "LECH",
      "alert": "OK",
      "vis_m": 9999,
      "fzfg": false,
      "metar_trigger": false,
      "taf_trigger": false,
      "metar": "METAR LECH 150930Z AUTO 18003KT CAVOK 08/04 Q1019",
      "taf": ""
    },
    {
      "icao": "LEMD",
      "alert": "OK",
      "vis_m": 450,
      "fzfg": false,
      "metar_trigger": false,
      "taf_trigger": false,
      "metar": "METAR LEMD 150930Z VRB01KT 0450 0150 R32L/0900N R32R/0600N FG VV001 03/03 Q1019 NOSIG",
      "taf": ""
    },
    {
      "icao": "LEMG",
      "alert": "OK",
      "vis_m": 9999,
      "fzfg": false,
      "metar_trigger": false,
      "taf_trigger": false,
      "metar": "METAR LEMG 150930Z 32004KT 290V360 CAVOK 10/07 Q1021 NOSIG",
      "taf": "TAF LEMG 150500Z 1506/1606 29006KT 9999 FEW030 TX18/1514Z TN07/1507Z"
    },
    {
      "icao": "LEVC",
      "alert": "OK",
      "vis_m": 9999,
      "fzfg": false,
      "metar_trigger": false,
      "taf_trigger": false,
      "metar": "METAR LEVC 150930Z 24004KT CAVOK 10/05 Q1019 NOSIG",
      "taf": "TAF LEVC 150500Z 1506/1606 VRB04KT CAVOK TX18/1512Z TN05/1506Z"
    },
    {
      "icao": "LEXJ",
      "alert": "OK",
      "vis_m": 9999,
      "fzfg": false,
      "metar_trigger": false,
      "taf_trigger": false,
      "metar": "METAR LEXJ 150930Z 21016G28KT 130V260 CAVOK 14/03 Q1008",
      "taf": ""
    },
    {
      "icao": "LEZG",
      "alert": "OK",
      "vis_m": 5000,
      "fzfg": false,
      "metar_trigger": false,
      "taf_trigger": false,
      "metar": "METAR LEZG 150930Z 08005KT 5000 BR FEW001 04/04 Q1018 NOSIG",
      "taf": "TAF LEZG 150500Z 1506/1606 VRB04KT 9999 FEW020 TX17/1514Z TN05/1506Z"
    },
    {
      "icao": "LEZL",
      "alert": "OK",
      "vis_m": 1200,
      "fzfg": false,
      "metar_trigger": false,
      "taf_trigger": false,
      "metar": "SPECI LEZL 150952Z 04003KT 010V070 1200 R27/1900N R09/1300U BR VV002 08/08 Q1022 NOSIG",
      "taf": "TAF LEZL 150800Z 1509/1609 07003KT 0500 FG VV001 TX14/1515Z TN08/1607Z"
    },
    {
      "icao": "LFBD",
      "alert": "OK",
      "vis_m": 9999,
      "fzfg": false,
      "metar_trigger": false,
      "taf_trigger": false,
      "metar": "METAR LFBD 150930Z AUTO 14011KT CAVOK 07/07 Q1011 NOSIG",
      "taf": "TAF LFBD 150500Z 1506/1612 18005KT 6000 NSC TX13/1514Z TN05/1506Z"
    },
    {
      "icao": "LFLL",
      "alert": "OK",
      "vis_m": 9999,
      "fzfg": false,
      "metar_trigger": false,
      "taf_trigger": false,
      "metar": "METAR LFLL 150930Z 15010KT 9999 FEW050 SCT078 11/06 Q1017 NOSIG",
      "taf": "TAF LFLL 150500Z 1506/1612 19012KT CAVOK"
    },
    {
      "icao": "LFLS",
      "alert": "OK",
      "vis_m": 9999,
      "fzfg": false,
      "metar_trigger": false,
      "taf_trigger": false,
      "metar": "METAR LFLS 150930Z AUTO 09007KT CAVOK 08/04 Q1017 BECMG 22012KT",
      "taf": "TAF LFLS 150800Z 1509/1609 08006KT CAVOK"
    },
    {
      "icao": "LFMN",
      "alert": "OK",
      "vis_m": 9999,
      "fzfg": false,
      "metar_trigger": false,
      "taf_trigger": false,
      "metar": "METAR LFMN 150930Z 33011KT CAVOK 11/04 Q1020 BECMG 12005KT",
      "taf": "TAF LFMN 150800Z 1509/1615 33010KT CAVOK"
    },
    {
      "icao": "LFOB",
      "alert": "OK",
      "vis_m": 9999,
      "fzfg": false,
      "metar_trigger": false,
      "taf_trigger": false,
      "metar": "METAR LFOB 150930Z AUTO 16009KT 9999 OVC040 09/06 Q1009 TEMPO 4000 DZ BKN013 BECMG 22012G22KT",
      "taf": "TAF LFOB 150500Z 1506/1606 22012G22KT 9999 OVC011"
    },
    {
      "icao": "LFPO",
      "alert": "OK",
      "vis_m": 9999,
      "fzfg": false,
      "metar_trigger": false,
      "taf_trigger": false,
      "metar": "METAR LFPO 150930Z 19012KT 160V220 9999 SCT011 BKN043 09/07 Q1011 NOSIG",
      "taf": ""
    },
    {
      "icao": "LFSB",
      "alert": "OK",
      "vis_m": 9999,
      "fzfg": false,
      "metar_trigger": false,
      "taf_trigger": false,
      "metar": "METAR LFSB 150930Z AUTO 16005KT 9999 OVC054 07/04 Q1017 NOSIG",
      "taf": "TAF LFSB 150500Z 1506/1606 18005KT 9999 OVC040"
    },
    {
      "icao": "LGAV",
      "alert": "OK",
      "vis_m": 9999,
      "fzfg": false,
      "metar_trigger": false,
      "taf_trigger": false,
      "metar": "METAR LGAV 150950Z VRB02KT 9999 FEW030 14/06 Q1024 NOSIG",
      "taf": "TAF LGAV 150500Z 1506/1606 VRB05KT 9999 FEW016 SCT025"
    },
    {
      "icao": "LGTS",
      "alert": "OK",
      "vis_m": 9999,
      "fzfg": false,
      "metar_trigger": false,
      "taf_trigger": false,
      "metar": "METAR LGTS 150950Z VRB03KT CAVOK 08/03 Q1024 NOSIG",
      "taf": "TAF LGTS 150500Z 1506/1606 VRB03KT 9999 FEW030"
    },
    {
      "icao": "LHBP",
      "alert": "OK",
      "vis_m": 2200,
      "fzfg": false,
      "metar_trigger": false,
      "taf_trigger": false,
      "metar": "METAR LHBP 150930Z 06004KT 2200 BR BKN005 M02/M03 Q1023 NOSIG",
      "taf": "TAF LHBP 150515Z 1506/1606 09005KT 5000 BR SCT005 BKN080"
    },
    {
      "icao": "LHDC",
      "alert": "OK",
      "vis_m": 2700,
      "fzfg": false,
      "metar_trigger": false,
      "taf_trigger": false,
      "metar": "METAR LHDC 150915Z AUTO 09003KT 050V120 2700 BR FEW005 BKN038 M01/M01 Q1023 NOSIG",
      "taf": "TAF LHDC 150815Z 1509/1518 VRB03KT 5000 BR SCT005 OVC035"
    },
    {
      "icao": "LIBD",
      "alert": "OK",
      "vis_m": 9999,
      "fzfg": false,
      "metar_trigger": false,
      "taf_trigger": false,
      "metar": "METAR LIBD 150950Z 06004KT 010V080 CAVOK 12/09 Q1024",
      "taf": "TAF LIBD 150500Z 1506/1606 VRB06KT 9999 FEW040"
    },
    {
      "icao": "LIBG",
      "alert": "OK",
      "vis_m": 9999,
      "fzfg": false,
      "metar_trigger": false,
      "taf_trigger": false,
      "metar": "METAR LIBG 150850Z 12003KT CAVOK 11/11 Q1024",
      "taf": "TAF LIBG 150800Z 1509/1518 VRB05KT 9999 FEW030"
    },
    {
      "icao": "LIBP",
      "alert": "OK",
      "vis_m": 9999,
      "fzfg": false,
      "metar_trigger": false,
      "taf_trigger": false,
      "metar": "METAR LIBP 150950Z AUTO 20003KT 180V250 9999 NCD 13/05 Q1024",
      "taf": "TAF LIBP 150500Z 1506/1606 VRB05KT CAVOK"
    },
    {
      "icao": "LIBR",
      "alert": "OK",
      "vis_m": 9999,
      "fzfg": false,
      "metar_trigger": false,
      "taf_trigger": false,
      "metar": "METAR LIBR 150950Z 21004KT 160V230 9999 FEW025 14/09 Q1024",
      "taf": "TAF LIBR 150500Z 1506/1606 VRB06KT 9000 FEW025"
    },
    {
      "icao": "LICA",
      "alert": "OK",
      "vis_m": 9999,
      "fzfg": false,
      "metar_trigger": false,
      "taf_trigger": false,
      "metar": "METAR LICA 150950Z AUTO 07008KT 9999 NCD 15/07 Q1023",
      "taf": "TAF LICA 150500Z 1506/1606 VRB05KT CAVOK"
    },
    {
      "icao": "LICC",
      "alert": "OK",
      "vis_m": 9999,
      "fzfg": false,
      "metar_trigger": false,
      "taf_trigger": false,
      "metar": "METAR LICC 150950Z 21005KT 9999 FEW040 16/12 Q1024",
      "taf": "TAF LICC 150500Z 1506/1606 25010KT 9999 FEW040"
    },
    {
      "icao": "LICJ",
      "alert": "OK",
      "vis_m": 9999,
      "fzfg": false,
      "metar_trigger": false,
      "taf_trigger": false,
      "metar": "METAR LICJ 150950Z 04006KT CAVOK 15/09 Q1022",
      "taf": "TAF LICJ 150500Z 1506/1606 VRB06KT CAVOK"
    },
    {
      "icao": "LIMC",
      "alert": "OK",
      "vis_m": 800,
      "fzfg": false,
      "metar_trigger": false,
      "taf_trigger": false,
      "metar": "METAR LIMC 150950Z VRB01KT 0800 R35R/1800N R17L/1900N R35L/1900N -RA FG OVC003 06/05 Q1023 NOSIG",
      "taf": "TAF LIMC 150500Z 1506/1612 VRB05KT 8000 BKN030"
    },
    {
      "icao": "LIME",
      "alert": "OK",
      "vis_m": 1500,
      "fzfg": false,
      "metar_trigger": false,
      "taf_trigger": false,
      "metar": "METAR LIME 150950Z VRB01KT 1500 -RA BR SCT010 BKN040 06/06 Q1022 NOSIG",
      "taf": "TAF LIME 150500Z 1506/1606 VRB04KT 4000 BR FEW005 BKN040"
    },
    {
      "icao": "LIMF",
      "alert": "OK",
      "vis_m": 9999,
      "fzfg": false,
      "metar_trigger": false,
      "taf_trigger": false,
      "metar": "METAR LIMF 150950Z 02002KT 9999 BKN050 05/01 Q1023",
      "taf": "TAF LIMF 150500Z 1506/1606 VRB03KT 8000 SCT050"
    },
    {
      "icao": "LIMJ",
      "alert": "OK",
      "vis_m": 9999,
      "fzfg": false,
      "metar_trigger": false,
      "taf_trigger": false,
      "metar": "METAR LIMJ 150950Z 05009KT 9999 SCT020 SCT045 11/07 Q1021",
      "taf": "TAF LIMJ 150500Z 1506/1606 04010KT 9999 BKN030"
    },
    {
      "icao": "LIPE",
      "alert": "OK",
      "vis_m": 3500,
      "fzfg": false,
      "metar_trigger": false,
      "taf_trigger": false,
      "metar": "METAR LIPE 150950Z VRB02KT 3500 BR FEW015 BKN065 06/05 Q1023",
      "taf": "TAF LIPE 150500Z 1506/1606 VRB04KT 4000 BR SCT020 BKN060"
    },
    {
      "icao": "LIPH",
      "alert": "OK",
      "vis_m": 6000,
      "fzfg": false,
      "metar_trigger": false,
      "taf_trigger": false,
      "metar": "METAR LIPH 150950Z VRB01KT 6000 BKN080 06/02 Q1023",
      "taf": "TAF LIPH 150500Z 1506/1606 VRB04KT 3000 BR SCT040"
    },
    {
      "icao": "LIPQ",
      "alert": "OK",
      "vis_m": 7000,
      "fzfg": false,
      "metar_trigger": false,
      "taf_trigger": false,
      "metar": "METAR LIPQ 150950Z AUTO VRB02KT 7000 BKN042/// OVC078/// 08/07 Q1023",
      "taf": "TAF LIPQ 150500Z 1506/1606 VRB04KT 2000 BR BKN030"
    },
    {
      "icao": "LIPR",
      "alert": "OK",
      "vis_m": 4000,
      "fzfg": false,
      "metar_trigger": false,
      "taf_trigger": false,
      "metar": "METAR LIPR 150950Z VRB01KT 4000 BR SCT060 08/06 Q1023",
      "taf": "TAF LIPR 150500Z 1506/1606 VRB05KT 3000 BR BKN050"
    },
    {
      "icao": "LIPX",
      "alert": "OK",
      "vis_m": 6000,
      "fzfg": false,
      "metar_trigger": false,
      "taf_trigger": false,
      "metar": "METAR LIPX 150950Z VRB02KT 6000 BKN065 07/04 Q1023",
      "taf": "TAF LIPX 150500Z 1506/1606 VRB04KT 3000 BR FEW010 BKN050"
    },
    {
      "icao": "LIPY",
      "alert": "OK",
      "vis_m": 8000,
      "fzfg": false,
      "metar_trigger": false,
      "taf_trigger": false,
      "metar": "METAR LIPY 150950Z AUTO 26003KT 200V290 8000 BKN079/// 11/07 Q1023",
      "taf": "TAF LIPY 150500Z 1506/1606 VRB05KT 3000 BR BKN060"
    },
    {
      "icao": "LIPZ",
      "alert": "OK",
      "vis_m": 6000,
      "fzfg": false,
      "metar_trigger": false,
      "taf_trigger": false,
      "metar": "METAR LIPZ 150950Z VRB02KT 6000 SCT070 06/03 Q1023 NOSIG",
      "taf": "TAF LIPZ 150500Z 1506/1612 VRB04KT 8000 SCT040"
    },
    {
      "icao": "LIRF",
      "alert": "OK",
      "vis_m": 9999,
      "fzfg": false,
      "metar_trigger": false,
      "taf_trigger": false,
      "metar": "METAR LIRF 150950Z 12009KT 100V170 CAVOK 15/09 Q1023 NOSIG",
      "taf": "TAF LIRF 150500Z 1506/1612 09007KT 9999 SCT050"
    },
    {
      "icao": "LIRN",
      "alert": "OK",
      "vis_m": 9999,
      "fzfg": false,
      "metar_trigger": false,
      "taf_trigger": false,
      "metar": "METAR LIRN 150950Z VRB02KT CAVOK 13/06 Q1024 NOSIG",
      "taf": "TAF LIRN 150500Z 1506/1606 VRB05KT 9999 SCT040"
    },
    {
      "icao": "LIRP",
      "alert": "OK",
      "vis_m": 9999,
      "fzfg": false,
      "metar_trigger": false,
      "taf_trigger": false,
      "metar": "METAR LIRP 150945Z 12004KT 9999 -RA SCT030 BKN050 11/11 Q1021 TEMPO 5000 RA",
      "taf": "TAF LIRP 150500Z 1506/1606 12005KT 9999 SCT030 BKN060"
    },
    {
      "icao": "LIRZ",
      "alert": "OK",
      "vis_m": 9999,
      "fzfg": false,
      "metar_trigger": false,
      "taf_trigger": false,
      "metar": "METAR LIRZ 150950Z AUTO VRB01KT 9999 BKN068/// 11/07 Q1023",
      "taf": "TAF LIRZ 150500Z 1506/1606 VRB05KT 9999 BKN040"
    },
    {
      "icao": "LJLJ",
      "alert": "OK",
      "vis_m": 9999,
      "fzfg": false,
      "metar_trigger": false,
      "taf_trigger": false,
      "metar": "METAR LJLJ 150930Z VRB01KT 9999 FEW040 OVC055 00/M00 Q1022 NOSIG",
      "taf": "TAF LJLJ 150500Z 1506/1606 30003KT 9999 FEW010 SCT045"
    },
    {
      "icao": "LKMT",
      "alert": "OK",
      "vis_m": 5000,
      "fzfg": false,
      "metar_trigger": false,
      "taf_trigger": false,
      "metar": "METAR LKMT 150930Z 23007KT 5000 BR OVC019 01/M00 Q1020 NOSIG",
      "taf": "TAF LKMT 150500Z 1506/1606 23011KT 8000 BKN025"
    },
    {
      "icao": "LKPR",
      "alert": "OK",
      "vis_m": 3000,
      "fzfg": false,
      "metar_trigger": false,
      "taf_trigger": false,
      "metar": "METAR LKPR 150930Z 17003KT 3000 -RA BR FEW022 BKN042 03/03 Q1018 NOSIG",
      "taf": "TAF LKPR 150800Z 1509/1615 12004KT 6000 OVC040"
    },
    {
      "icao": "LLBG",
      "alert": "OK",
      "vis_m": 9999,
      "fzfg": false,
      "metar_trigger": false,
      "taf_trigger": false,
      "metar": "METAR LLBG 150950Z VRB02KT 9999 FEW045 17/06 Q1024 NOSIG",
      "taf": "TAF LLBG 150501Z 1506/1606 VRB04KT 9999 FEW045"
    },
    {
      "icao": "LMML",
      "alert": "OK",
      "vis_m": 9999,
      "fzfg": false,
      "metar_trigger": false,
      "taf_trigger": false,
      "metar": "METAR LMML 150945Z 13012KT 9999 FEW022 18/14 Q1023 NOSIG",
      "taf": "TAF LMML 150500Z 1506/1606 15010KT 9999 FEW020"
    },
    {
      "icao": "LOWW",
      "alert": "OK",
      "vis_m": 900,
      "fzfg": true,
      "metar_trigger": false,
      "taf_trigger": false,
      "metar": "METAR LOWW 150950Z VRB02KT 0900 0400E R16/1100D R29/0450N FZFG BKN001 M02/M03 Q1021 TEMPO 1300 BR BKN002",
      "taf": "TAF LOWW 150815Z 1509/1615 15004KT 0800 FZFG SCT001 OVC002 TX00/1613Z TNM02/1509Z"
    },
    {
      "icao": "LPFR",
      "alert": "OK",
      "vis_m": 9999,
      "fzfg": false,
      "metar_trigger": false,
      "taf_trigger": false,
      "metar": "METAR LPFR 150930Z 32003KT 280V350 9999 FEW012 10/09 Q1021",
      "taf": "TAF LPFR 150500Z 1506/1606 01005KT 9999 FEW012"
    },
    {
      "icao": "LPMA",
      "alert": "OK",
      "vis_m": 9999,
      "fzfg": false,
      "metar_trigger": false,
      "taf_trigger": false,
      "metar": "METAR LPMA 150930Z 29005KT 9999 SCT015 15/08 Q1025",
      "taf": "TAF LPMA 150500Z 1506/1606 32007KT 9999 SCT015"
    },
    {
      "icao": "LPPR",
      "alert": "OK",
      "vis_m": 9999,
      "fzfg": false,
      "metar_trigger": false,
      "taf_trigger": false,
      "metar": "METAR LPPR 150930Z 17021KT 9999 -RA SCT023 BKN027 11/09 Q1014",
      "taf": "TAF LPPR 150500Z 1506/1606 18010KT 9999 SCT018 BKN030"
    },
    {
      "icao": "LPPS",
      "alert": "OK",
      "vis_m": 9999,
      "fzfg": false,
      "metar_trigger": false,
      "taf_trigger": false,
      "metar": "METAR LPPS 150930Z 32008KT 9999 SCT014 SCT030 15/12 Q1025",
      "taf": "TAF LPPS 150500Z 1506/1612 32007KT 9999 SCT015"
    },
    {
      "icao": "LPPT",
      "alert": "OK",
      "vis_m": 9999,
      "fzfg": false,
      "metar_trigger": false,
      "taf_trigger": false,
      "metar": "METAR LPPT 150930Z 21008KT 9999 FEW025 BKN035 12/09 Q1019",
      "taf": "TAF LPPT 150500Z 1506/1612 21005KT 9999 BKN035"
    },
    {
      "icao": "LQBK",
      "alert": "OK",
      "vis_m": 9999,
      "fzfg": false,
      "metar_trigger": false,
      "taf_trigger": false,
      "metar": "METAR LQBK 150930Z 35002KT CAVOK 03/01 Q1022 NOSIG",
      "taf": "TAF LQBK 150500Z 1506/1606 15006KT 9999 SCT040 TX10/1513Z TN02/1605Z"
    },
    {
      "icao": "LQSA",
      "alert": "OK",
      "vis_m": 8000,
      "fzfg": false,
      "metar_trigger": false,
      "taf_trigger": false,
      "metar": "METAR LQSA 150930Z 27002KT 8000 BKN050 03/02 Q1024 NOSIG",
      "taf": "TAF LQSA 150500Z 1506/1606 VRB02KT 8000 FEW012 SCT060 TX08/1514Z TN00/1506Z"
    },
    {
      "icao": "LQTZ",
      "alert": "OK",
      "vis_m": 5000,
      "fzfg": false,
      "metar_trigger": false,
      "taf_trigger": false,
      "metar": "METAR LQTZ 150930Z 13002KT 5000 -RA BR BKN049 03/02 Q1023",
      "taf": "TAF LQTZ 150500Z 1506/1606 VRB02KT 9999 SCT040 TX08/1513Z TN00/1605Z"
    },
    {
      "icao": "LRBC",
      "alert": "OK",
      "vis_m": 7000,
      "fzfg": false,
      "metar_trigger": false,
      "taf_trigger": false,
      "metar": "METAR LRBC 150930Z 35006KT 7000 FEW018 OVC047 M02/M05 Q1021",
      "taf": "TAF LRBC 150800Z 1509/1518 36007KT 7000 BKN045"
    },
    {
      "icao": "LRBS",
      "alert": "OK",
      "vis_m": 8000,
      "fzfg": false,
      "metar_trigger": false,
      "taf_trigger": false,
      "metar": "METAR LRBS 150930Z 09006KT 8000 NSC 02/M03 Q1020 NOSIG",
      "taf": "TAF LRBS 150500Z 1506/1606 25006KT 5000 BR NSC"
    },
    {
      "icao": "LRBV",
      "alert": "OK",
      "vis_m": 3000,
      "fzfg": false,
      "metar_trigger": false,
      "taf_trigger": false,
      "metar": "METAR LRBV 150930Z 28003KT 240V320 3000 -RADZ BR BKN009 OVC012 02/01 Q1020 RERA",
      "taf": "TAF LRBV 150800Z 1509/1518 29008KT 5000 BR BKN010 OVC025"
    },
    {
      "icao": "LRCL",
      "alert": "OK",
      "vis_m": 1400,
      "fzfg": false,
      "metar_trigger": false,
      "taf_trigger": false,
      "metar": "METAR LRCL 150930Z 00000KT 1400 R25/1900D -SN BR OVC009 M01/M02 Q1022",
      "taf": "TAF LRCL 150800Z 1509/1518 VRB04KT 1500 -SN BR BKN005 OVC015"
    },
    {
      "icao": "LRCV",
      "alert": "OK",
      "vis_m": 9999,
      "fzfg": false,
      "metar_trigger": false,
      "taf_trigger": false,
      "metar": "METAR LRCV 150930Z 28011KT CAVOK 07/04 Q1021",
      "taf": "TAF LRCV 150800Z 1509/1518 27010KT CAVOK"
    },
    {
      "icao": "LRIA",
      "alert": "OK",
      "vis_m": 4500,
      "fzfg": false,
      "metar_trigger": false,
      "taf_trigger": false,
      "metar": "METAR LRIA 150930Z 32004KT 4500 -SN FEW006 OVC026 M05/M06 Q1022",
      "taf": "TAF LRIA 150800Z 1509/1518 VRB04KT 5000 -SN OVC025"
    },
    {
      "icao": "LROP",
      "alert": "OK",
      "vis_m": 6000,
      "fzfg": false,
      "metar_trigger": false,
      "taf_trigger": false,
      "metar": "METAR LROP 150930Z 08006KT 6000 NSC M00/M05 Q1020 NOSIG",
      "taf": "TAF LROP 150500Z 1506/1606 25006KT 5000 BR NSC"
    },
    {
      "icao": "LRSB",
      "alert": "OK",
      "vis_m": 4000,
      "fzfg": false,
      "metar_trigger": false,
      "taf_trigger": false,
      "metar": "METAR LRSB 150930Z 06003KT 010V070 4000 BR BKN007 BKN011 03/02 Q1021",
      "taf": "TAF LRSB 150500Z 1506/1606 VRB04KT 9999 BKN045"
    },
    {
      "icao": "LRSM",
      "alert": "OK",
      "vis_m": 3000,
      "fzfg": false,
      "metar_trigger": false,
      "taf_trigger": false,
      "metar": "METAR LRSM 150930Z 16003KT 3000 BR SCT003 M00/M01 Q1023",
      "taf": "TAF LRSM 150800Z 1509/1518 VRB04KT 3000 BR OVC010"
    },
    {
      "icao": "LRSV",
      "alert": "OK",
      "vis_m": 4000,
      "fzfg": false,
      "metar_trigger": false,
      "taf_trigger": false,
      "metar": "METAR LRSV 150930Z 07004KT 4000 -SN OVC008 M06/M07 Q1020",
      "taf": "TAF LRSV 150800Z 1509/1518 05005KT 3000 -SN BKN005 OVC020"
    },
    {
      "icao": "LRTM",
      "alert": "OK",
      "vis_m": 1400,
      "fzfg": false,
      "metar_trigger": false,
      "taf_trigger": false,
      "metar": "METAR LRTM 150930Z 00000KT 1400 R07/1500D -SHSN BR BKN007 OVC025 01/M01 Q1022",
      "taf": "TAF LRTM 150800Z 1509/1518 VRB04KT 1500 -SN BR BKN010 OVC025"
    },
    {
      "icao": "LRTR",
      "alert": "OK",
      "vis_m": 4000,
      "fzfg": false,
      "metar_trigger": false,
      "taf_trigger": false,
      "metar": "METAR LRTR 150930Z VRB02KT 4000 BR FEW035 02/02 Q1022",
      "taf": "TAF LRTR 150500Z 1506/1606 VRB04KT 1500 BR SCT020"
    },
    {
      "icao": "LTAC",
      "alert": "OK",
      "vis_m": 9000,
      "fzfg": false,
      "metar_trigger": false,
      "taf_trigger": false,
      "metar": "METAR LTAC 150950Z 23009KT 9000 SCT010 SCT035 BKN090 01/M02 Q1022 NOSIG",
      "taf": "TAF LTAC 150440Z 1506/1606 22008KT 9999 FEW010 SCT040 BKN100"
    },
    {
      "icao": "LTFM",
      "alert": "OK",
      "vis_m": 9999,
      "fzfg": false,
      "metar_trigger": false,
      "taf_trigger": false,
      "metar": "METAR LTFM 150950Z 22016KT 9999 FEW025 BKN070 11/06 Q1021 NOSIG",
      "taf": "TAF LTFM 150440Z 1506/1612 22017KT 9999 BKN040"
    },
    {
      "icao": "LUKK",
      "alert": "OK",
      "vis_m": 4000,
      "fzfg": false,
      "metar_trigger": false,
      "taf_trigger": false,
      "metar": "METAR LUKK 150930Z 05007KT 4000 -SN BR OVC009 M05/M07 Q1022 TEMPO 4000 SN BR BKN007",
      "taf": "TAF LUKK 150506Z 1506/1606 03008KT 4000 SN BR BKN015"
    },
    {
      "icao": "LWOH",
      "alert": "OK",
      "vis_m": 9999,
      "fzfg": false,
      "metar_trigger": false,
      "taf_trigger": false,
      "metar": "METAR LWOH 150950Z VRB02KT 9999 FEW033 07/04 Q1025",
      "taf": "TAF LWOH 150825Z 1509/1609 VRB02KT 9999 FEW020"
    },
    {
      "icao": "LWSK",
      "alert": "OK",
      "vis_m": 8000,
      "fzfg": false,
      "metar_trigger": false,
      "taf_trigger": false,
      "metar": "METAR LWSK 150950Z VRB02KT 8000 NSC 04/M00 Q1026 NOSIG",
      "taf": "TAF LWSK 150825Z 1509/1609 VRB02KT CAVOK"
    },
    {
      "icao": "LYBE",
      "alert": "OK",
      "vis_m": 9999,
      "fzfg": false,
      "metar_trigger": false,
      "taf_trigger": false,
      "metar": "METAR LYBE 150930Z 00000KT CAVOK 07/01 Q1023 NOSIG",
      "taf": "TAF LYBE 150500Z 1506/1606 18005KT 8000 NSC TX08/1513Z TN03/1506Z"
    },
    {
      "icao": "LYNI",
      "alert": "OK",
      "vis_m": 9999,
      "fzfg": false,
      "metar_trigger": false,
      "taf_trigger": false,
      "metar": "METAR LYNI 150930Z VRB02KT 9999 FEW050 BKN070 07/04 Q1024 NOSIG",
      "taf": "TAF LYNI 150500Z 1506/1606 11004KT 5000 BR BKN045 TX07/1513Z TN00/1606Z"
    },
    {
      "icao": "LYPG",
      "alert": "OK",
      "vis_m": 9999,
      "fzfg": false,
      "metar_trigger": false,
      "taf_trigger": false,
      "metar": "METAR LYPG 150930Z VRB01KT 9999 FEW030 BKN070 08/06 Q1027 NOSIG",
      "taf": "TAF LYPG 150500Z 1506/1606 17005KT 9999 SCT034 SCT070 TX12/1513Z TN04/1506Z"
    },
    {
      "icao": "LZIB",
      "alert": "OK",
      "vis_m": 2800,
      "fzfg": false,
      "metar_trigger": false,
      "taf_trigger": false,
      "metar": "METAR LZIB 150930Z 17003KT 130V190 2800 BR FEW002 M02/M02 Q1021 BECMG 4000 BR FEW005",
      "taf": ""
    },
    {
      "icao": "LZKZ",
      "alert": "OK",
      "vis_m": 6000,
      "fzfg": false,
      "metar_trigger": false,
      "taf_trigger": false,
      "metar": "METAR LZKZ 150930Z 00000KT 6000 BKN018 M02/M03 Q1022 NOSIG",
      "taf": ""
    },
    {
      "icao": "LZTT",
      "alert": "OK",
      "vis_m": 9999,
      "fzfg": false,
      "metar_trigger": false,
      "taf_trigger": false,
      "metar": "METAR LZTT 150930Z 00000KT 9999 VCFG BKN008 BKN017 01/M01 Q1019 NOSIG",
      "taf": ""
    },
    {
      "icao": "OEJN",
      "alert": "OK",
      "vis_m": 9999,
      "fzfg": false,
      "metar_trigger": false,
      "taf_trigger": false,
      "metar": "METAR OEJN 150900Z 32008KT CAVOK 27/08 Q1015 NOSIG",
      "taf": "TAF OEJN 150500Z 1506/1612 33010KT CAVOK"
    },
    {
      "icao": "OEMA",
      "alert": "OK",
      "vis_m": 9999,
      "fzfg": false,
      "metar_trigger": false,
      "taf_trigger": false,
      "metar": "METAR OEMA 150900Z 04009KT CAVOK 18/M02 Q1023 NOSIG",
      "taf": "TAF OEMA 150500Z 1506/1612 08015KT 7000 NSC"
    },
    {
      "icao": "OJAI",
      "alert": "OK",
      "vis_m": 5000,
      "fzfg": false,
      "metar_trigger": false,
      "taf_trigger": false,
      "metar": "METAR OJAI 150900Z 26008KT 5000 HZ SCT030 09/02 Q1025 NOSIG",
      "taf": "TAF OJAI 150500Z 1506/1612 27012KT 5000 HZ SCT030"
    },
    {
      "icao": "OMAA",
      "alert": "OK",
      "vis_m": 9999,
      "fzfg": false,
      "metar_trigger": false,
      "taf_trigger": false,
      "metar": "METAR OMAA 150900Z 25007KT 190V280 CAVOK 28/04 Q1016 BECMG 32013KT",
      "taf": "TAF OMAA 150500Z 1506/1612 VRB02KT 8000 FEW045"
    },
    {
      "icao": "OMDB",
      "alert": "OK",
      "vis_m": 9999,
      "fzfg": false,
      "metar_trigger": false,
      "taf_trigger": false,
      "metar": "METAR OMDB 150930Z 27009KT 220V330 CAVOK 27/05 Q1015 NOSIG",
      "taf": "TAF OMDB 150500Z 1506/1612 19005KT 8000 NSC"
    },
    {
      "icao": "UAAA",
      "alert": "OK",
      "vis_m": 4800,
      "fzfg": false,
      "metar_trigger": false,
      "taf_trigger": false,
      "metar": "METAR UAAA 150930Z 01002MPS 340V050 4800 BR OVC007 M06/M08 Q1020 NOSIG",
      "taf": "TAF UAAA 150505Z 1506/1606 02003G08MPS 3100 BR FU BKN011CB OVC020 TXM04/1509Z TNM10/1603Z"
    },
    {
      "icao": "UBBB",
      "alert": "OK",
      "vis_m": 9999,
      "fzfg": false,
      "metar_trigger": false,
      "taf_trigger": false,
      "metar": "METAR UBBB 150930Z 34014KT 9999 FEW048 06/M01 Q1023 NOSIG",
      "taf": "TAF UBBB 150500Z 1506/1606 33012KT 9999 BKN020 TX06/1510Z TN01/1601Z"
    },
    {
      "icao": "UDSG",
      "alert": "OK",
      "vis_m": 9999,
      "fzfg": false,
      "metar_trigger": false,
      "taf_trigger": false,
      "metar": "METAR UDSG 150930Z 13004KT 9999 NSC M10/M15 Q1019 NOSIG",
      "taf": "TAF UDSG 150458Z 1506/1606 VRB06KT 9999 FEW040"
    },
    {
      "icao": "UDYZ",
      "alert": "OK",
      "vis_m": 9999,
      "fzfg": false,
      "metar_trigger": false,
      "taf_trigger": false,
      "metar": "METAR UDYZ 150930Z VRB01KT 9999 FEW046 01/M07 Q1020 NOSIG",
      "taf": "TAF UDYZ 150500Z 1506/1606 VRB06KT 9999 BKN040"
    },
    {
      "icao": "UGKO",
      "alert": "OK",
      "vis_m": 9999,
      "fzfg": false,
      "metar_trigger": false,
      "taf_trigger": false,
      "metar": "METAR UGKO 150930Z VRB02KT 9999 -SHRA SCT008 BKN014CB OVC034 04/01 Q1025 NOSIG",
      "taf": "TAF UGKO 150500Z 1506/1606 08007KT 9999 BKN050 TX06/1511Z TNM01/1602Z"
    }
  ]
}