{
  "ts_utc": "2026-01-03T13:47:50Z",
  "threshold_m": 150,
  "source": "stations_override.txt (ICAO list) + aviationweather.gov (METAR/TAF raw)",
  "station_count": 159,
  "stations": [
    {
      "icao": "BIKF",
      "alert": "OK",
      "vis_m": 9999,
      "fzfg": false,
      "metar_trigger": false,
      "taf_trigger": false,
      "metar": "METAR BIKF 031330Z 35006KT CAVOK M05/M09 Q1029",
      "taf": "TAF BIKF 031045Z 0312/0412 01008KT CAVOK TXM01/0403Z TNM07/0315Z"
    },
    {
      "icao": "BKPR",
      "alert": "OK",
      "vis_m": 9999,
      "fzfg": false,
      "metar_trigger": false,
      "taf_trigger": false,
      "metar": "METAR BKPR 031330Z 26004KT 230V300 9999 FEW016 BKN035 10/06 Q1006 NOSIG",
      "taf": "TAF BKPR 031130Z 0312/0412 18008KT 9999 BKN030"
    },
    {
      "icao": "EBCI",
      "alert": "OK",
      "vis_m": 9999,
      "fzfg": false,
      "metar_trigger": false,
      "taf_trigger": false,
      "metar": "METAR EBCI 031320Z 26010KT 220V320 9999 SCT024 BKN034 00/M04 Q1005 NOSIG",
      "taf": "TAF EBCI 031120Z 0312/0418 26010KT 9999 FEW015 SCT025"
    },
    {
      "icao": "EDDB",
      "alert": "OK",
      "vis_m": 1200,
      "fzfg": false,
      "metar_trigger": false,
      "taf_trigger": false,
      "metar": "METAR EDDB 031320Z AUTO 23016KT 1200 1000 R24R/1900N R24L/1400U SN BR BKN005 M00/M00 Q0996 TEMPO 24015G25KT 2000 -SN BKN004",
      "taf": ""
    },
    {
      "icao": "EDDH",
      "alert": "OK",
      "vis_m": 9999,
      "fzfg": false,
      "metar_trigger": false,
      "taf_trigger": false,
      "metar": "METAR EDDH 031320Z COR AUTO 24004KT 210V270 9999 BKN005 01/M01 Q0995 TEMPO SCT005",
      "taf": "TAF EDDH 031100Z 0312/0418 24004KT 8000 SCT005"
    },
    {
      "icao": "EDDK",
      "alert": "OK",
      "vis_m": 9999,
      "fzfg": false,
      "metar_trigger": false,
      "taf_trigger": false,
      "metar": "METAR EDDK 031320Z AUTO 26014G24KT 9999 BKN018 OVC026 01/M02 Q1002 TEMPO FM1415 2500 SN BKN008",
      "taf": "TAF EDDK 031100Z 0312/0418 27012KT 9000 BKN020"
    },
    {
      "icao": "EDDN",
      "alert": "OK",
      "vis_m": 9999,
      "fzfg": false,
      "metar_trigger": false,
      "taf_trigger": false,
      "metar": "METAR EDDN 031320Z AUTO 21010KT 9999 FEW029 M00/M06 Q1003 NOSIG",
      "taf": "TAF EDDN 031100Z 0312/0412 24010KT 9999 OVC030"
    },
    {
      "icao": "EDDS",
      "alert": "OK",
      "vis_m": 9999,
      "fzfg": false,
      "metar_trigger": false,
      "taf_trigger": false,
      "metar": "METAR EDDS 031320Z AUTO 23008KT 170V310 CAVOK M00/M07 Q1003 TEMPO 25015G25KT 3000 SHSN BKN015TCU",
      "taf": "TAF EDDS 031100Z 0312/0412 22010KT 9999 FEW015 SCT025"
    },
    {
      "icao": "EDFH",
      "alert": "OK",
      "vis_m": 9999,
      "fzfg": false,
      "metar_trigger": false,
      "taf_trigger": false,
      "metar": "METAR EDFH 031320Z 26012KT 9999 -SN OVC008 M03/M05 Q1002",
      "taf": "TAF EDFH 031100Z 0312/0412 26012KT 9999 SCT006 BKN012"
    },
    {
      "icao": "EDJA",
      "alert": "OK",
      "vis_m": 9999,
      "fzfg": false,
      "metar_trigger": false,
      "taf_trigger": false,
      "metar": "METAR EDJA 031320Z 23014G25KT CAVOK M03/M07 Q1004",
      "taf": "TAF EDJA 031100Z 0312/0321 23012KT CAVOK"
    },
    {
      "icao": "EDLW",
      "alert": "OK",
      "vis_m": 9999,
      "fzfg": false,
      "metar_trigger": false,
      "taf_trigger": false,
      "metar": "METAR EDLW 031320Z COR 23015KT 9999 SCT011 OVC013 00/M02 Q0999",
      "taf": "TAF EDLW 031100Z 0312/0412 26015KT 8000 BKN012"
    },
    {
      "icao": "EDNY",
      "alert": "OK",
      "vis_m": 9999,
      "fzfg": false,
      "metar_trigger": false,
      "taf_trigger": false,
      "metar": "METAR EDNY 031320Z 26010KT 230V290 CAVOK M02/M05 Q1007",
      "taf": ""
    },
    {
      "icao": "EDSB",
      "alert": "OK",
      "vis_m": 2500,
      "fzfg": false,
      "metar_trigger": false,
      "taf_trigger": false,
      "metar": "METAR EDSB 031320Z 21014KT 2500 SN SCT025 OVC034 M01/M03 Q1007 RESN",
      "taf": "TAF EDSB 031100Z 0312/0412 20014KT 9999 SCT025 BKN035"
    },
    {
      "icao": "EETN",
      "alert": "OK",
      "vis_m": 5000,
      "fzfg": false,
      "metar_trigger": false,
      "taf_trigger": false,
      "metar": "METAR EETN 031320Z 08011KT 5000 SN FEW016 OVC030 M04/M05 Q0989 TEMPO 2000",
      "taf": ""
    },
    {
      "icao": "EFTU",
      "alert": "OK",
      "vis_m": 9999,
      "fzfg": false,
      "metar_trigger": false,
      "taf_trigger": false,
      "metar": "METAR EFTU 031320Z AUTO 07009KT 9999 OVC010 M07/M10 Q0991",
      "taf": "TAF EFTU 031124Z 0312/0412 06012KT 9999 OVC010"
    },
    {
      "icao": "EGBB",
      "alert": "OK",
      "vis_m": 9999,
      "fzfg": false,
      "metar_trigger": false,
      "taf_trigger": false,
      "metar": "METAR EGBB 031320Z 32014KT CAVOK 02/M05 Q1011",
      "taf": "TAF EGBB 031058Z 0312/0412 30012KT CAVOK"
    },
    {
      "icao": "EGGP",
      "alert": "OK",
      "vis_m": 9999,
      "fzfg": false,
      "metar_trigger": false,
      "taf_trigger": false,
      "metar": "METAR EGGP 031320Z 33015KT 9999 FEW038 03/M05 Q1013",
      "taf": "TAF EGGP 031057Z 0312/0412 31009KT 9999 SCT030"
    },
    {
      "icao": "EGGW",
      "alert": "OK",
      "vis_m": 9999,
      "fzfg": false,
      "metar_trigger": false,
      "taf_trigger": false,
      "metar": "METAR EGGW 031320Z AUTO 32017KT 9999 NCD 01/M05 Q1009",
      "taf": "TAF EGGW 031056Z 0312/0412 30012KT 9999 FEW025"
    },
    {
      "icao": "EGKK",
      "alert": "OK",
      "vis_m": 9999,
      "fzfg": false,
      "metar_trigger": false,
      "taf_trigger": false,
      "metar": "METAR EGKK 031320Z 32011KT 290V350 CAVOK 03/M05 Q1010",
      "taf": "TAF EGKK 031053Z 0312/0418 30010KT CAVOK"
    },
    {
      "icao": "EGNM",
      "alert": "OK",
      "vis_m": 9999,
      "fzfg": false,
      "metar_trigger": false,
      "taf_trigger": false,
      "metar": "METAR EGNM 031320Z 32017KT 9999 FEW030 01/M05 Q1010",
      "taf": "TAF EGNM 031059Z 0312/0412 30015KT 9999 FEW030"
    },
    {
      "icao": "EGPD",
      "alert": "OK",
      "vis_m": 4000,
      "fzfg": false,
      "metar_trigger": false,
      "taf_trigger": false,
      "metar": "METAR EGPD 031320Z 32017G27KT 4000 -SHSN -SHGS SCT028CB SCT039 01/M04 Q1010 TEMPO 1800 SHSN BKN012",
      "taf": "TAF EGPD 031057Z 0312/0412 31012KT 9999 SCT012"
    },
    {
      "icao": "EGPF",
      "alert": "OK",
      "vis_m": 9999,
      "fzfg": false,
      "metar_trigger": false,
      "taf_trigger": false,
      "metar": "METAR EGPF 031320Z AUTO 30011KT 9999 NCD 03/M05 Q1014",
      "taf": "TAF EGPF 031103Z 0312/0412 30009KT 9999 FEW030"
    },
    {
      "icao": "EHBK",
      "alert": "OK",
      "vis_m": 9999,
      "fzfg": false,
      "metar_trigger": false,
      "taf_trigger": false,
      "metar": "METAR EHBK 031325Z AUTO 24010KT 200V280 9999 FEW023 SCT027 BKN037 01/M03 Q1003 NOSIG",
      "taf": "TAF EHBK 031122Z 0312/0418 25011KT 9999 SCT015"
    },
    {
      "icao": "EHEH",
      "alert": "OK",
      "vis_m": 400,
      "fzfg": false,
      "metar_trigger": false,
      "taf_trigger": false,
      "metar": "METAR EHEH 031325Z AUTO 26010KT 230V310 0400 R21/1100D SN SCT000 BKN003 BKN005 FEW015CB 00/M00 Q1002 RED TEMPO 0600 SHSN SCT003 BKN005 SCT015CB RMK TREND REMOTE BY EHWX",
      "taf": ""
    },
    {
      "icao": "EKBI",
      "alert": "OK",
      "vis_m": 9999,
      "fzfg": false,
      "metar_trigger": false,
      "taf_trigger": false,
      "metar": "METAR EKBI 031320Z AUTO 25002KT 9999 NCD M04/M07 Q0994",
      "taf": "TAF EKBI 031127Z 0312/0412 26005KT 9999 FEW030"
    },
    {
      "icao": "EKCH",
      "alert": "OK",
      "vis_m": 1500,
      "fzfg": false,
      "metar_trigger": false,
      "taf_trigger": false,
      "metar": "METAR EKCH 031320Z 29010KT 1500 -SHSN SCT009 BKN018 M02/M04 Q0992 RESN TEMPO 1200 SHSN BKN012",
      "taf": "TAF EKCH 031127Z 0312/0412 28010KT 9999 BKN040"
    },
    {
      "icao": "ENAL",
      "alert": "OK",
      "vis_m": 9999,
      "fzfg": false,
      "metar_trigger": false,
      "taf_trigger": false,
      "metar": "METAR ENAL 031320Z 06008KT CAVOK M05/M12 Q1002",
      "taf": ""
    },
    {
      "icao": "ENBR",
      "alert": "OK",
      "vis_m": 9999,
      "fzfg": false,
      "metar_trigger": false,
      "taf_trigger": false,
      "metar": "METAR ENBR 031320Z 34006KT 320V020 CAVOK M05/M14 Q1000 NOSIG RMK WIND 1200FT 03010KT",
      "taf": "TAF ENBR 031100Z 0312/0412 01008KT CAVOK"
    },
    {
      "icao": "ENGM",
      "alert": "OK",
      "vis_m": 8000,
      "fzfg": false,
      "metar_trigger": false,
      "taf_trigger": false,
      "metar": "METAR ENGM 031320Z 01016KT 8000 -SHSN SCT043 M08/M13 Q0996 TEMPO 4000",
      "taf": "TAF ENGM 031100Z 0312/0412 36015KT 9000 -SN BKN040"
    },
    {
      "icao": "ENHD",
      "alert": "OK",
      "vis_m": 9999,
      "fzfg": false,
      "metar_trigger": false,
      "taf_trigger": false,
      "metar": "METAR ENHD 031320Z 04008KT CAVOK M03/M13 Q0999",
      "taf": "TAF ENHD 031100Z 0312/0321 06009KT CAVOK"
    },
    {
      "icao": "ENTC",
      "alert": "OK",
      "vis_m": 9999,
      "fzfg": false,
      "metar_trigger": false,
      "taf_trigger": false,
      "metar": "METAR ENTC 031320Z 18011KT 9999 SCT030 BKN056 M05/M09 Q1001 NOSIG RMK WIND 2600FT 18018KT",
      "taf": "TAF ENTC 031100Z 0312/0412 19009KT 9999 FEW020 BKN050"
    },
    {
      "icao": "ENTO",
      "alert": "OK",
      "vis_m": 4100,
      "fzfg": false,
      "metar_trigger": false,
      "taf_trigger": false,
      "metar": "METAR ENTO 031320Z 36015KT 4100 -SN VV015 M07/M10 Q0995 TEMPO 8000",
      "taf": "TAF ENTO 031100Z 0312/0412 01015KT 8000 -SN BKN025"
    },
    {
      "icao": "ENVA",
      "alert": "OK",
      "vis_m": 9999,
      "fzfg": false,
      "metar_trigger": false,
      "taf_trigger": false,
      "metar": "METAR ENVA 031320Z 12008KT CAVOK M15/M16 Q1005 NOSIG RMK WIND 670FT 15007KT",
      "taf": "TAF ENVA 031100Z 0312/0412 12008KT CAVOK"
    },
    {
      "icao": "ENZV",
      "alert": "OK",
      "vis_m": 9999,
      "fzfg": false,
      "metar_trigger": false,
      "taf_trigger": false,
      "metar": "METAR ENZV 031320Z 04008KT CAVOK M03/M13 Q0998 NOSIG",
      "taf": "TAF ENZV 031100Z 0312/0412 03010KT CAVOK"
    },
    {
      "icao": "EPGD",
      "alert": "OK",
      "vis_m": 9999,
      "fzfg": false,
      "metar_trigger": false,
      "taf_trigger": false,
      "metar": "METAR EPGD 031330Z 24017KT 9999 DRSN BKN025 M02/M07 Q0990",
      "taf": "TAF EPGD 031130Z 0312/0412 24015KT 8000 -SHSN BKN013TCU BKN015"
    },
    {
      "icao": "EPKK",
      "alert": "OK",
      "vis_m": 9999,
      "fzfg": false,
      "metar_trigger": false,
      "taf_trigger": false,
      "metar": "METAR EPKK 031330Z 24014KT 9999 FEW064 01/M07 Q1002",
      "taf": "TAF EPKK 031130Z 0312/0412 23011KT 9999 SCT040"
    },
    {
      "icao": "EPKT",
      "alert": "OK",
      "vis_m": 9999,
      "fzfg": false,
      "metar_trigger": false,
      "taf_trigger": false,
      "metar": "METAR EPKT 031330Z 22016KT 9999 FEW032 SCT042 01/M05 Q1000",
      "taf": "TAF EPKT 031130Z 0312/0412 24013KT 9999 SCT040"
    },
    {
      "icao": "EPLB",
      "alert": "OK",
      "vis_m": 9999,
      "fzfg": false,
      "metar_trigger": false,
      "taf_trigger": false,
      "metar": "METAR EPLB 031330Z 26017KT 9999 DRSN NSC M01/M07 Q0999",
      "taf": "TAF EPLB 031130Z 0312/0412 24015KT 9999 BKN040"
    },
    {
      "icao": "EPMO",
      "alert": "OK",
      "vis_m": 9999,
      "fzfg": false,
      "metar_trigger": false,
      "taf_trigger": false,
      "metar": "METAR EPMO 031330Z 24014KT 9999 DRSN BKN025 M01/M04 Q0996",
      "taf": "TAF EPMO 031130Z 0312/0412 24015KT 9999 BKN030"
    },
    {
      "icao": "EPPO",
      "alert": "OK",
      "vis_m": 1800,
      "fzfg": false,
      "metar_trigger": false,
      "taf_trigger": false,
      "metar": "METAR EPPO 031330Z 24010KT 1800 -SN BR BKN005 00/M01 Q0995 RESHSN",
      "taf": "TAF EPPO 031130Z 0312/0412 23014KT 9999 FEW017"
    },
    {
      "icao": "EPRA",
      "alert": "OK",
      "vis_m": 9999,
      "fzfg": false,
      "metar_trigger": false,
      "taf_trigger": false,
      "metar": "METAR EPRA 031330Z 24012KT 9999 BKN032 M00/M06 Q0999",
      "taf": "TAF EPRA 031130Z 0312/0321 25014KT 9999 BKN030"
    },
    {
      "icao": "EPRZ",
      "alert": "OK",
      "vis_m": 9999,
      "fzfg": false,
      "metar_trigger": false,
      "taf_trigger": false,
      "metar": "METAR EPRZ 031330Z 25016KT 9999 FEW046 01/M08 Q1002",
      "taf": ""
    },
    {
      "icao": "EPSC",
      "alert": "OK",
      "vis_m": 9999,
      "fzfg": false,
      "metar_trigger": false,
      "taf_trigger": false,
      "metar": "METAR EPSC 031330Z 26005KT 220V310 CAVOK M01/M05 Q0994",
      "taf": "TAF EPSC 031130Z 0312/0412 24008KT 9999 SCT020"
    },
    {
      "icao": "EPSY",
      "alert": "OK",
      "vis_m": 9999,
      "fzfg": false,
      "metar_trigger": false,
      "taf_trigger": false,
      "metar": "METAR EPSY 031330Z 23012KT 9999 FEW024 M02/M06 Q0993",
      "taf": "TAF EPSY 031130Z 0312/0321 23010KT 9999 BKN020"
    },
    {
      "icao": "EPWA",
      "alert": "OK",
      "vis_m": 9999,
      "fzfg": false,
      "metar_trigger": false,
      "taf_trigger": false,
      "metar": "METAR EPWA 031330Z 24009KT 9999 DRSN FEW032 M00/M05 Q0997 TEMPO 2000 SHSN BKN014",
      "taf": "TAF EPWA 031130Z 0312/0412 24014KT 9999 BKN030"
    },
    {
      "icao": "EPWR",
      "alert": "OK",
      "vis_m": 9999,
      "fzfg": false,
      "metar_trigger": false,
      "taf_trigger": false,
      "metar": "METAR EPWR 031330Z 23014KT CAVOK 02/M04 Q0999",
      "taf": "TAF EPWR 031130Z 0312/0412 24015KT 9999 BKN040"
    },
    {
      "icao": "ESGG",
      "alert": "OK",
      "vis_m": 2900,
      "fzfg": false,
      "metar_trigger": false,
      "taf_trigger": false,
      "metar": "METAR ESGG 031320Z 34011KT 2900 -SN OVC010 M07/M08 Q0990",
      "taf": "TAF ESGG 031130Z 0312/0412 34009KT 6000 -SN BKN020"
    },
    {
      "icao": "ESKN",
      "alert": "OK",
      "vis_m": 8000,
      "fzfg": false,
      "metar_trigger": false,
      "taf_trigger": false,
      "metar": "METAR ESKN 031320Z 01009KT 340V040 8000 -SN BKN006 M02/M02 Q0986",
      "taf": "TAF ESKN 031130Z 0312/0412 01012G22KT 9999 SCT008 BKN015"
    },
    {
      "icao": "ESMS",
      "alert": "OK",
      "vis_m": 9999,
      "fzfg": false,
      "metar_trigger": false,
      "taf_trigger": false,
      "metar": "METAR ESMS 031320Z 30009KT 9999 -SN BKN016 M02/M04 Q0990",
      "taf": "TAF ESMS 031127Z 0312/0412 30012KT 9999 -SN BKN020"
    },
    {
      "icao": "ESSA",
      "alert": "OK",
      "vis_m": 9999,
      "fzfg": false,
      "metar_trigger": false,
      "taf_trigger": false,
      "metar": "METAR ESSA 031320Z 03017KT 9999 -SN OVC007 M03/M04 Q0988 TEMPO 2000 SN VV015",
      "taf": "TAF ESSA 031130Z 0312/0412 02015KT 9000 -SN BKN007"
    },
    {
      "icao": "EYKA",
      "alert": "OK",
      "vis_m": 9999,
      "fzfg": false,
      "metar_trigger": false,
      "taf_trigger": false,
      "metar": "METAR EYKA 031320Z 23006KT 190V250 9999 -SNRA FEW020 SCT024 OVC042 00/M03 Q0991",
      "taf": ""
    },
    {
      "icao": "EYPA",
      "alert": "OK",
      "vis_m": 9999,
      "fzfg": false,
      "metar_trigger": false,
      "taf_trigger": false,
      "metar": "METAR EYPA 031320Z 24008KT 190V280 9999 -SHSNRA SCT005 BKN011CB BKN021 00/M01 Q0986",
      "taf": "TAF EYPA 031100Z 0312/0412 22013KT 3000 SNRA SCT005 BKN015"
    },
    {
      "icao": "EYVI",
      "alert": "OK",
      "vis_m": 8000,
      "fzfg": false,
      "metar_trigger": false,
      "taf_trigger": false,
      "metar": "METAR EYVI 031320Z 21010KT 8000 -SHSN BKN009CB M01/M02 Q0991 TEMPO 1500 SHSN",
      "taf": "TAF EYVI 031100Z 0312/0412 22010KT 9000 BKN010"
    },
    {
      "icao": "GCFV",
      "alert": "OK",
      "vis_m": 9999,
      "fzfg": false,
      "metar_trigger": false,
      "taf_trigger": false,
      "metar": "METAR GCFV 031330Z 26021KT 9999 FEW030 SCT045 22/13 Q1007",
      "taf": ""
    },
    {
      "icao": "GCLP",
      "alert": "OK",
      "vis_m": 9999,
      "fzfg": false,
      "metar_trigger": false,
      "taf_trigger": false,
      "metar": "METAR GCLP 031330Z 05007KT 9999 BKN040 21/14 Q1007 NOSIG",
      "taf": "TAF GCLP 030800Z 0309/0409 23010KT 9999 SCT035 TX23/0314Z TN16/0406Z"
    },
    {
      "icao": "GCTS",
      "alert": "OK",
      "vis_m": 9999,
      "fzfg": false,
      "metar_trigger": false,
      "taf_trigger": false,
      "metar": "METAR GCTS 031330Z 29026G37KT 9999 FEW030 22/13 Q1007 WS R25 NOSIG",
      "taf": "TAF GCTS 030800Z 0309/0409 28022KT 9999 FEW040 TX24/0314Z TN16/0406Z"
    },
    {
      "icao": "GMAD",
      "alert": "OK",
      "vis_m": 5000,
      "fzfg": false,
      "metar_trigger": false,
      "taf_trigger": false,
      "metar": "METAR GMAD 031330Z 22014KT 5000 -RA SCT010 SCT016 BKN026TCU 17/16 Q1005 TEMPO 4000 RA",
      "taf": "TAF GMAD 031100Z 0312/0418 24013KT 6000 BKN20TCU BKN080"
    },
    {
      "icao": "GMMN",
      "alert": "OK",
      "vis_m": 9999,
      "fzfg": false,
      "metar_trigger": false,
      "taf_trigger": false,
      "metar": "METAR GMMN 031330Z 21021KT 9999 BKN030 18/13 Q0999 NOSIG",
      "taf": "TAF GMMN 031100Z 0312/0418 18016KT 9999 SCT020 BKN040"
    },
    {
      "icao": "GMMX",
      "alert": "OK",
      "vis_m": 9999,
      "fzfg": false,
      "metar_trigger": false,
      "taf_trigger": false,
      "metar": "METAR GMMX 031330Z VRB02KT 9999 FEW016 SCT023 18/11 Q1001 NOSIG",
      "taf": "TAF GMMX 031100Z 0312/0418 12006KT 8000 SCT016 BKN023"
    },
    {
      "icao": "HEGN",
      "alert": "OK",
      "vis_m": 9999,
      "fzfg": false,
      "metar_trigger": false,
      "taf_trigger": false,
      "metar": "METAR HEGN 031300Z 36010KT CAVOK 21/08 Q1021 NOSIG",
      "taf": "TAF HEGN 031115Z 0312/0418 02015KT CAVOK"
    },
    {
      "icao": "HEMA",
      "alert": "OK",
      "vis_m": 9999,
      "fzfg": false,
      "metar_trigger": false,
      "taf_trigger": false,
      "metar": "METAR HEMA 031300Z 34019KT 9999 SCT025 21/12 Q1019 NOSIG",
      "taf": "TAF HEMA 031115Z 0312/0418 36018KT CAVOK"
    },
    {
      "icao": "HESH",
      "alert": "OK",
      "vis_m": 9999,
      "fzfg": false,
      "metar_trigger": false,
      "taf_trigger": false,
      "metar": "METAR HESH 031300Z 35010KT CAVOK 22/09 Q1020 NOSIG",
      "taf": "TAF HESH 031115Z 0312/0418 03015KT CAVOK"
    },
    {
      "icao": "HESX",
      "alert": "OK",
      "vis_m": 9999,
      "fzfg": false,
      "metar_trigger": false,
      "taf_trigger": false,
      "metar": "METAR HESX 031300Z 06015KT CAVOK 17/03 Q1023 NOSIG",
      "taf": "TAF HESX 031115Z 0312/0418 05007G17KT CAVOK"
    },
    {
      "icao": "LATI",
      "alert": "OK",
      "vis_m": 8000,
      "fzfg": false,
      "metar_trigger": false,
      "taf_trigger": false,
      "metar": "METAR LATI 031320Z 16005KT 8000 -RA FEW021 BKN040 OVC055 11/09 Q1009 NOSIG",
      "taf": "TAF LATI 031100Z 0312/0412 13010KT 9999 FEW010 SCT025 OVC050 TX16/0412Z TN09/0403Z"
    },
    {
      "icao": "LBPD",
      "alert": "OK",
      "vis_m": 9999,
      "fzfg": false,
      "metar_trigger": false,
      "taf_trigger": false,
      "metar": "METAR LBPD 031330Z AUTO VRB03KT 9999 FEW100/// 10/00 Q1005 NOSIG",
      "taf": "TAF LBPD 031100Z 0312/0412 VRB03KT 9999 SCT020 BKN080"
    },
    {
      "icao": "LBSF",
      "alert": "OK",
      "vis_m": 9999,
      "fzfg": false,
      "metar_trigger": false,
      "taf_trigger": false,
      "metar": "METAR LBSF 031330Z 22011KT 180V250 9999 SCT056 BKN068 13/02 Q1005 TEMPO 21016G32KT",
      "taf": "TAF LBSF 031100Z 0312/0412 20012KT 9999 SCT025 BKN050"
    },
    {
      "icao": "LBWN",
      "alert": "OK",
      "vis_m": 9999,
      "fzfg": false,
      "metar_trigger": false,
      "taf_trigger": false,
      "metar": "METAR LBWN 031330Z 24013G23KT 9999 SCT045 15/05 Q1004 TEMPO 24020G30KT",
      "taf": "TAF LBWN 031100Z 0312/0412 23012KT CAVOK"
    },
    {
      "icao": "LCLK",
      "alert": "OK",
      "vis_m": 9999,
      "fzfg": false,
      "metar_trigger": false,
      "taf_trigger": false,
      "metar": "METAR LCLK 031330Z 15005KT 9999 FEW030 SCT060 17/06 Q1026 NOSIG",
      "taf": "TAF LCLK 031130Z 0312/0412 14010KT 9999 FEW030 SCT050"
    },
    {
      "icao": "LCPH",
      "alert": "OK",
      "vis_m": 9999,
      "fzfg": false,
      "metar_trigger": false,
      "taf_trigger": false,
      "metar": "METAR LCPH 031330Z 14004KT 090V170 9999 FEW030 SCT060 17/08 Q1026 NOSIG",
      "taf": "TAF LCPH 031130Z 0312/0412 17010KT 9999 FEW030 SCT050"
    },
    {
      "icao": "LEAL",
      "alert": "OK",
      "vis_m": 9999,
      "fzfg": false,
      "metar_trigger": false,
      "taf_trigger": false,
      "metar": "METAR LEAL 031330Z 07009KT 030V100 9999 OVC035 17/12 Q1002 NOSIG",
      "taf": "TAF LEAL 031100Z 0312/0412 08009KT 9999 SCT020 TX17/0314Z TN11/0406Z"
    },
    {
      "icao": "LEBB",
      "alert": "OK",
      "vis_m": 9999,
      "fzfg": false,
      "metar_trigger": false,
      "taf_trigger": false,
      "metar": "METAR LEBB 031330Z 10006KT 010V150 9999 -RA SCT016 BKN034 07/05 Q1010 TEMPO BKN010",
      "taf": "TAF LEBB 031100Z 0312/0412 VRB03KT 9000 SCT010 BKN020 TX07/0312Z TNM00/0406Z"
    },
    {
      "icao": "LEBL",
      "alert": "OK",
      "vis_m": 9999,
      "fzfg": false,
      "metar_trigger": false,
      "taf_trigger": false,
      "metar": "METAR LEBL 031330Z 06010KT 030V090 9999 BKN023 12/07 Q1007 NOSIG",
      "taf": "TAF LEBL 031100Z 0312/0412 07010KT 9999 BKN025 TX12/0312Z TN08/0406Z"
    },
    {
      "icao": "LECH",
      "alert": "OK",
      "vis_m": 9000,
      "fzfg": false,
      "metar_trigger": false,
      "taf_trigger": false,
      "metar": "METAR LECH 031330Z AUTO 07008KT 040V100 9000 NSC 12/09 Q1005",
      "taf": ""
    },
    {
      "icao": "LEMD",
      "alert": "OK",
      "vis_m": 9999,
      "fzfg": false,
      "metar_trigger": false,
      "taf_trigger": false,
      "metar": "METAR LEMD 031330Z VRB02KT 9999 FEW070 12/07 Q1004 NOSIG",
      "taf": "TAF LEMD 031100Z 0312/0418 VRB03KT 9999 FEW045 TX12/0314Z TN03/0407Z"
    },
    {
      "icao": "LEMG",
      "alert": "OK",
      "vis_m": 9999,
      "fzfg": false,
      "metar_trigger": false,
      "taf_trigger": false,
      "metar": "METAR LEMG 031330Z 09002KT 9999 FEW030 BKN070 17/11 Q1002 NOSIG",
      "taf": "TAF LEMG 031100Z 0312/0412 13010KT 9999 FEW030 TX18/0314Z TN11/0407Z"
    },
    {
      "icao": "LEVC",
      "alert": "OK",
      "vis_m": 9999,
      "fzfg": false,
      "metar_trigger": false,
      "taf_trigger": false,
      "metar": "METAR LEVC 031330Z 08007KT 360V130 9999 FEW015 15/10 Q1005 NOSIG",
      "taf": "TAF LEVC 031100Z 0312/0412 VRB05KT 9999 SCT020 TX15/0314Z TN08/0406Z"
    },
    {
      "icao": "LEXJ",
      "alert": "OK",
      "vis_m": 9999,
      "fzfg": false,
      "metar_trigger": false,
      "taf_trigger": false,
      "metar": "METAR LEXJ 031330Z 09008KT 030V140 9999 -RA OVC036 08/04 Q1010",
      "taf": "TAF LEXJ 030800Z 0309/0409 08009KT 8000 SCT070 TX10/0313Z TN05/0408Z"
    },
    {
      "icao": "LEZG",
      "alert": "OK",
      "vis_m": 5000,
      "fzfg": false,
      "metar_trigger": false,
      "taf_trigger": false,
      "metar": "METAR LEZG 031330Z 30003KT 230V350 5000 BR FEW009 08/06 Q1006 NOSIG",
      "taf": "TAF LEZG 031100Z 0312/0412 VRB04KT CAVOK TX10/0315Z TN02/0406Z"
    },
    {
      "icao": "LEZL",
      "alert": "OK",
      "vis_m": 9999,
      "fzfg": false,
      "metar_trigger": false,
      "taf_trigger": false,
      "metar": "METAR LEZL 031330Z 11009KT 080V150 9999 BKN038 17/13 Q1001 NOSIG",
      "taf": "TAF LEZL 030800Z 0309/0409 08008KT 9999 SCT030 TX19/0315Z TN09/0407Z"
    },
    {
      "icao": "LFBD",
      "alert": "OK",
      "vis_m": 9999,
      "fzfg": true,
      "metar_trigger": false,
      "taf_trigger": false,
      "metar": "METAR LFBD 031330Z AUTO 01003KT 340V050 9999 FEW010 02/00 Q1012",
      "taf": "TAF LFBD 030500Z 0306/0412 VRB03KT 0500 FZFG VV/// TX03/0313Z TNM04/0406Z"
    },
    {
      "icao": "LFLL",
      "alert": "OK",
      "vis_m": 9999,
      "fzfg": false,
      "metar_trigger": false,
      "taf_trigger": false,
      "metar": "METAR LFLL 031330Z 35010KT CAVOK 03/M05 Q1010 NOSIG",
      "taf": "TAF LFLL 031100Z 0312/0418 35007KT CAVOK"
    },
    {
      "icao": "LFLS",
      "alert": "OK",
      "vis_m": 9999,
      "fzfg": false,
      "metar_trigger": false,
      "taf_trigger": false,
      "metar": "METAR LFLS 031330Z AUTO 35008KT 320V020 CAVOK 02/M05 Q1009 NOSIG",
      "taf": "TAF LFLS 030800Z 0309/0409 35006KT 9999 OVC013"
    },
    {
      "icao": "LFMN",
      "alert": "OK",
      "vis_m": 9999,
      "fzfg": false,
      "metar_trigger": false,
      "taf_trigger": false,
      "metar": "METAR LFMN 031330Z VRB02KT 9999 FEW033 SCT260 14/05 Q1002 NOSIG",
      "taf": "TAF LFMN 030800Z 0309/0415 33012KT 9999 SCT030"
    },
    {
      "icao": "LFOB",
      "alert": "OK",
      "vis_m": 9999,
      "fzfg": false,
      "metar_trigger": false,
      "taf_trigger": false,
      "metar": "METAR LFOB 031330Z AUTO 30014KT CAVOK 03/M03 Q1009 NOSIG",
      "taf": "TAF LFOB 031100Z 0312/0412 28008KT CAVOK"
    },
    {
      "icao": "LFPO",
      "alert": "OK",
      "vis_m": 9999,
      "fzfg": false,
      "metar_trigger": false,
      "taf_trigger": false,
      "metar": "METAR LFPO 031330Z AUTO 30009KT 9999 SCT035 SCT044 04/M03 Q1010",
      "taf": ""
    },
    {
      "icao": "LFSB",
      "alert": "OK",
      "vis_m": 9999,
      "fzfg": false,
      "metar_trigger": false,
      "taf_trigger": false,
      "metar": "METAR LFSB 031330Z AUTO 25010KT CAVOK 01/M05 Q1008 NOSIG",
      "taf": "TAF LFSB 031100Z 0312/0412 27010KT 9999 FEW025"
    },
    {
      "icao": "LGAV",
      "alert": "OK",
      "vis_m": 9999,
      "fzfg": false,
      "metar_trigger": false,
      "taf_trigger": false,
      "metar": "METAR LGAV 031320Z 21014KT 9999 FEW025 SCT060 17/10 Q1016 NOSIG",
      "taf": "TAF LGAV 031100Z 0312/0412 21018KT 9999 FEW025 SCT060"
    },
    {
      "icao": "LGTS",
      "alert": "OK",
      "vis_m": 9999,
      "fzfg": false,
      "metar_trigger": false,
      "taf_trigger": false,
      "metar": "METAR LGTS 031320Z VRB02KT 9999 FEW015 SCT025 08/04 Q1009 NOSIG",
      "taf": "TAF LGTS 031100Z 0312/0412 VRB03KT 9999 SCT025"
    },
    {
      "icao": "LHBP",
      "alert": "OK",
      "vis_m": 9999,
      "fzfg": false,
      "metar_trigger": false,
      "taf_trigger": false,
      "metar": "METAR LHBP 031330Z 31008KT CAVOK 04/M08 Q1008 NOSIG",
      "taf": "TAF LHBP 031115Z 0312/0412 30014KT CAVOK"
    },
    {
      "icao": "LHDC",
      "alert": "OK",
      "vis_m": 9999,
      "fzfg": false,
      "metar_trigger": false,
      "taf_trigger": false,
      "metar": "METAR LHDC 031315Z AUTO 27012KT CAVOK 04/M05 Q1007 NOSIG",
      "taf": "TAF LHDC 031115Z 0312/0321 24012KT CAVOK"
    },
    {
      "icao": "LIBD",
      "alert": "OK",
      "vis_m": 9999,
      "fzfg": false,
      "metar_trigger": false,
      "taf_trigger": false,
      "metar": "METAR LIBD 031320Z 21009KT CAVOK 18/09 Q1005",
      "taf": "TAF LIBD 031100Z 0312/0412 21012KT 9999 FEW040"
    },
    {
      "icao": "LIBG",
      "alert": "OK",
      "vis_m": 9999,
      "fzfg": false,
      "metar_trigger": false,
      "taf_trigger": false,
      "metar": "METAR LIBG 031250Z 22011KT 190V250 CAVOK 17/12 Q1007",
      "taf": "TAF LIBG 031100Z 0312/0321 22012KT 9999 SCT040"
    },
    {
      "icao": "LIBP",
      "alert": "OK",
      "vis_m": 9999,
      "fzfg": false,
      "metar_trigger": false,
      "taf_trigger": false,
      "metar": "METAR LIBP 031320Z AUTO VRB02KT 9999 FEW015/// BKN071/// BKN140/// 13/10 Q1004",
      "taf": "TAF LIBP 031100Z 0312/0412 35007KT 9999 SCT020"
    },
    {
      "icao": "LIBR",
      "alert": "OK",
      "vis_m": 9999,
      "fzfg": false,
      "metar_trigger": false,
      "taf_trigger": false,
      "metar": "METAR LIBR 031320Z 20009KT CAVOK 16/11 Q1007",
      "taf": "TAF LIBR 031100Z 0312/0412 20014KT 9999 FEW030"
    },
    {
      "icao": "LICA",
      "alert": "OK",
      "vis_m": 9999,
      "fzfg": false,
      "metar_trigger": false,
      "taf_trigger": false,
      "metar": "METAR LICA 031320Z AUTO 23003KT 200V270 9999 NCD 20/10 Q1010",
      "taf": "TAF LICA 031100Z 0312/0412 27010KT 9999 SCT040"
    },
    {
      "icao": "LICC",
      "alert": "OK",
      "vis_m": 9999,
      "fzfg": false,
      "metar_trigger": false,
      "taf_trigger": false,
      "metar": "METAR LICC 031320Z 25018KT 9999 FEW040 18/14 Q1011",
      "taf": "TAF LICC 031100Z 0312/0412 26015KT 9999 SCT030"
    },
    {
      "icao": "LICJ",
      "alert": "OK",
      "vis_m": 9999,
      "fzfg": false,
      "metar_trigger": false,
      "taf_trigger": false,
      "metar": "METAR LICJ 031320Z AUTO 19016KT 9999 NCD 18/09 Q1008",
      "taf": "TAF LICJ 031100Z 0312/0412 19015G30KT CAVOK"
    },
    {
      "icao": "LIMC",
      "alert": "OK",
      "vis_m": 4000,
      "fzfg": false,
      "metar_trigger": false,
      "taf_trigger": false,
      "metar": "METAR LIMC 031320Z 15004KT 4000 BR SCT003 01/00 Q1003 BECMG 6000",
      "taf": ""
    },
    {
      "icao": "LIME",
      "alert": "OK",
      "vis_m": 5000,
      "fzfg": true,
      "metar_trigger": false,
      "taf_trigger": false,
      "metar": "METAR LIME 031320Z 17003KT 130V190 5000 BR FEW002 02/02 Q1003 NOSIG",
      "taf": "TAF LIME 031100Z 0312/0412 VRB04KT 0500 FZFG BKN001"
    },
    {
      "icao": "LIMF",
      "alert": "OK",
      "vis_m": 9999,
      "fzfg": false,
      "metar_trigger": false,
      "taf_trigger": false,
      "metar": "METAR LIMF 031320Z 09004KT CAVOK 08/M04 Q1002",
      "taf": "TAF LIMF 031100Z 0312/0412 VRB04KT CAVOK"
    },
    {
      "icao": "LIMJ",
      "alert": "OK",
      "vis_m": 9999,
      "fzfg": false,
      "metar_trigger": false,
      "taf_trigger": false,
      "metar": "METAR LIMJ 031320Z 04012KT CAVOK 12/M01 Q1001",
      "taf": "TAF LIMJ 031100Z 0312/0412 03013KT CAVOK"
    },
    {
      "icao": "LIPE",
      "alert": "OK",
      "vis_m": 500,
      "fzfg": false,
      "metar_trigger": false,
      "taf_trigger": false,
      "metar": "METAR LIPE 031320Z 26003KT 230V310 0500 R12/1300D R30/1100D FG VV001 02/02 Q1005",
      "taf": "TAF LIPE 031100Z 0312/0412 VRB05KT 0500 FG BKN001"
    },
    {
      "icao": "LIPH",
      "alert": "OK",
      "vis_m": 9999,
      "fzfg": false,
      "metar_trigger": false,
      "taf_trigger": false,
      "metar": "METAR LIPH 031320Z 07008KT CAVOK 09/02 Q1004",
      "taf": "TAF LIPH 031100Z 0312/0412 02006KT 9999 FEW030"
    },
    {
      "icao": "LIPQ",
      "alert": "OK",
      "vis_m": 9999,
      "fzfg": false,
      "metar_trigger": false,
      "taf_trigger": false,
      "metar": "METAR LIPQ 031320Z AUTO 10010KT 9999 FEW045/// 10/M01 Q1004",
      "taf": "TAF LIPQ 031100Z 0312/0412 08008KT 9999 SCT050"
    },
    {
      "icao": "LIPR",
      "alert": "OK",
      "vis_m": 600,
      "fzfg": false,
      "metar_trigger": false,
      "taf_trigger": false,
      "metar": "METAR LIPR 031320Z 30005KT 0600 R30/1200N FG BKN002 03/03 Q1004",
      "taf": "TAF LIPR 031100Z 0312/0412 VRB05KT 0600 FG BKN002"
    },
    {
      "icao": "LIPX",
      "alert": "OK",
      "vis_m": 2000,
      "fzfg": false,
      "metar_trigger": false,
      "taf_trigger": false,
      "metar": "METAR LIPX 031320Z 19003KT 130V240 2000 BR SCT008 05/02 Q1004",
      "taf": "TAF LIPX 031100Z 0312/0412 VRB04KT 3000 BR BKN015"
    },
    {
      "icao": "LIPY",
      "alert": "OK",
      "vis_m": 3600,
      "fzfg": false,
      "metar_trigger": false,
      "taf_trigger": false,
      "metar": "METAR LIPY 031320Z AUTO 23003KT 3600 BR BKN007/// 08/06 Q1004",
      "taf": "TAF LIPY 031100Z 0312/0412 32010KT 5000 BR BKN010"
    },
    {
      "icao": "LIPZ",
      "alert": "OK",
      "vis_m": 9999,
      "fzfg": false,
      "metar_trigger": false,
      "taf_trigger": false,
      "metar": "METAR LIPZ 031320Z 11004KT 9999 FEW025 07/02 Q1004 NOSIG",
      "taf": "TAF LIPZ 031100Z 0312/0418 02008KT 9999 FEW030"
    },
    {
      "icao": "LIRF",
      "alert": "OK",
      "vis_m": 9999,
      "fzfg": false,
      "metar_trigger": false,
      "taf_trigger": false,
      "metar": "METAR LIRF 031320Z 24011KT 9999 SCT025 16/11 Q1005 NOSIG",
      "taf": "TAF LIRF 031100Z 0312/0418 24015KT 9999 SCT030"
    },
    {
      "icao": "LIRN",
      "alert": "OK",
      "vis_m": 9999,
      "fzfg": false,
      "metar_trigger": false,
      "taf_trigger": false,
      "metar": "METAR LIRN 031320Z 22011KT 9999 FEW020 SCT050 17/13 Q1007 NOSIG",
      "taf": "TAF LIRN 031100Z 0312/0412 22014KT 9999 SCT030"
    },
    {
      "icao": "LIRP",
      "alert": "OK",
      "vis_m": 9999,
      "fzfg": false,
      "metar_trigger": false,
      "taf_trigger": false,
      "metar": "METAR LIRP 031315Z 25011KT 9999 FEW025 SCT030 12/06 Q1003 NOSIG",
      "taf": "TAF LIRP 031100Z 0312/0412 11008KT 9999 FEW020 SCT040"
    },
    {
      "icao": "LIRZ",
      "alert": "OK",
      "vis_m": 9999,
      "fzfg": false,
      "metar_trigger": false,
      "taf_trigger": false,
      "metar": "METAR LIRZ 031320Z AUTO 18005KT 9999 BKN027/// 13/09 Q1003",
      "taf": "TAF LIRZ 031100Z 0312/0412 19013KT 9999 SCT030"
    },
    {
      "icao": "LJLJ",
      "alert": "OK",
      "vis_m": 9999,
      "fzfg": false,
      "metar_trigger": false,
      "taf_trigger": false,
      "metar": "METAR LJLJ 031330Z 11007KT 9999 FEW020 BKN030 BKN065 03/M01 Q1006 NOSIG",
      "taf": "TAF LJLJ 031100Z 0312/0412 VRB02KT 9999 FEW007 BKN017"
    },
    {
      "icao": "LKMT",
      "alert": "OK",
      "vis_m": 9999,
      "fzfg": false,
      "metar_trigger": false,
      "taf_trigger": false,
      "metar": "METAR LKMT 031330Z 21015KT 9999 BKN048 01/M06 Q1003 NOSIG",
      "taf": "TAF LKMT 031100Z 0312/0412 22014KT 9999 SCT040"
    },
    {
      "icao": "LKPR",
      "alert": "OK",
      "vis_m": 9999,
      "fzfg": false,
      "metar_trigger": false,
      "taf_trigger": false,
      "metar": "METAR LKPR 031330Z 22026KT 9999 BKN030 M01/M06 Q1001 NOSIG",
      "taf": ""
    },
    {
      "icao": "LLBG",
      "alert": "OK",
      "vis_m": 9999,
      "fzfg": false,
      "metar_trigger": false,
      "taf_trigger": false,
      "metar": "METAR LLBG 031320Z 35009KT CAVOK 17/06 Q1025 NOSIG",
      "taf": "TAF LLBG 031105Z 0312/0412 36012KT CAVOK"
    },
    {
      "icao": "LMML",
      "alert": "OK",
      "vis_m": 9999,
      "fzfg": false,
      "metar_trigger": false,
      "taf_trigger": false,
      "metar": "METAR LMML 031345Z 21015G26KT 170V240 9999 FEW020 17/13 Q1013 NOSIG",
      "taf": "TAF LMML 031100Z 0312/0412 22020KT 9999 FEW020"
    },
    {
      "icao": "LOWW",
      "alert": "OK",
      "vis_m": 9999,
      "fzfg": false,
      "metar_trigger": false,
      "taf_trigger": false,
      "metar": "METAR LOWW 031320Z 26006KT 220V280 9999 FEW040 05/M07 Q1006 BECMG 16008KT",
      "taf": "TAF LOWW 031115Z 0312/0418 27015KT 9999 FEW050 TX04/0312Z TNM02/0418Z"
    },
    {
      "icao": "LPFR",
      "alert": "OK",
      "vis_m": 6000,
      "fzfg": false,
      "metar_trigger": false,
      "taf_trigger": false,
      "metar": "METAR LPFR 031330Z 16009KT 6000 -RA FEW014 FEW018TCU SCT022 15/13 Q0997",
      "taf": "TAF LPFR 031100Z 0312/0412 16012KT 9999 SCT015 SCT030"
    },
    {
      "icao": "LPMA",
      "alert": "OK",
      "vis_m": 9999,
      "fzfg": false,
      "metar_trigger": false,
      "taf_trigger": false,
      "metar": "METAR LPMA 031330Z 18003KT 120V240 9999 FEW015TCU 21/12 Q1000",
      "taf": "TAF LPMA 031100Z 0312/0412 29007KT 9999 SCT015"
    },
    {
      "icao": "LPPR",
      "alert": "OK",
      "vis_m": 9999,
      "fzfg": false,
      "metar_trigger": false,
      "taf_trigger": false,
      "metar": "METAR LPPR 031330Z 10007KT 060V130 CAVOK 18/10 Q1000",
      "taf": "TAF LPPR 031100Z 0312/0412 08010KT 9999 BKN045"
    },
    {
      "icao": "LPPS",
      "alert": "OK",
      "vis_m": 9999,
      "fzfg": false,
      "metar_trigger": false,
      "taf_trigger": false,
      "metar": "METAR LPPS 031330Z 30024KT 9999 SCT012 18/14 Q0999",
      "taf": "TAF LPPS 031100Z 0312/0418 29020KT 9999 SCT015 SCT030"
    },
    {
      "icao": "LPPT",
      "alert": "OK",
      "vis_m": 9999,
      "fzfg": false,
      "metar_trigger": false,
      "taf_trigger": false,
      "metar": "METAR LPPT 031330Z 11009KT 9999 BKN012 15/13 Q0997",
      "taf": "TAF LPPT 031100Z 0312/0418 10010KT 9999 SCT012 SCT018"
    },
    {
      "icao": "LQBK",
      "alert": "OK",
      "vis_m": 9999,
      "fzfg": false,
      "metar_trigger": false,
      "taf_trigger": false,
      "metar": "METAR LQBK 031330Z 35005KT 9999 4500N FEW002 01/01 Q1008 NOSIG",
      "taf": "TAF LQBK 031100Z 0312/0412 03005KT 9999 SCT015 BKN040 TX04/0313Z TNM01/0404Z"
    },
    {
      "icao": "LQSA",
      "alert": "OK",
      "vis_m": 8000,
      "fzfg": false,
      "metar_trigger": false,
      "taf_trigger": false,
      "metar": "METAR LQSA 031330Z VRB03KT 8000 SCT012 BKN025 01/01 Q1007 NOSIG",
      "taf": ""
    },
    {
      "icao": "LQTZ",
      "alert": "OK",
      "vis_m": 8000,
      "fzfg": false,
      "metar_trigger": false,
      "taf_trigger": false,
      "metar": "METAR LQTZ 031330Z 11005KT 8000 FEW003 SCT018 BKN050 02/02 Q1008",
      "taf": "TAF LQTZ 031100Z 0312/0412 27005KT 8000 SCT010 BKN025 TX02/0314Z TNM00/0406Z"
    },
    {
      "icao": "LRBC",
      "alert": "OK",
      "vis_m": 9999,
      "fzfg": false,
      "metar_trigger": false,
      "taf_trigger": false,
      "metar": "METAR LRBC 031330Z 28007KT 250V320 CAVOK 06/M03 Q1003",
      "taf": "TAF LRBC 031100Z 0312/0321 VRB04KT CAVOK"
    },
    {
      "icao": "LRBS",
      "alert": "OK",
      "vis_m": 9999,
      "fzfg": false,
      "metar_trigger": false,
      "taf_trigger": false,
      "metar": "METAR LRBS 031330Z 27004KT 240V320 9999 -RA NSC 05/04 Q1005 NOSIG",
      "taf": "TAF LRBS 031100Z 0312/0412 VRB04KT 9999 BKN045"
    },
    {
      "icao": "LRBV",
      "alert": "OK",
      "vis_m": 6000,
      "fzfg": false,
      "metar_trigger": false,
      "taf_trigger": false,
      "metar": "METAR LRBV 031330Z 28007KT 6000 SG OVC008 00/M01 Q1006",
      "taf": ""
    },
    {
      "icao": "LRCL",
      "alert": "OK",
      "vis_m": 8000,
      "fzfg": false,
      "metar_trigger": false,
      "taf_trigger": false,
      "metar": "METAR LRCL 031330Z VRB02KT 8000 SCT022 BKN040 01/M00 Q1007",
      "taf": "TAF LRCL 031100Z 0312/0321 VRB04KT 9999 BKN045"
    },
    {
      "icao": "LRCV",
      "alert": "OK",
      "vis_m": 1900,
      "fzfg": false,
      "metar_trigger": false,
      "taf_trigger": false,
      "metar": "METAR LRCV 031330Z 29006KT 1900 BR BKN003 BKN048 02/02 Q1007",
      "taf": ""
    },
    {
      "icao": "LRIA",
      "alert": "OK",
      "vis_m": 9999,
      "fzfg": false,
      "metar_trigger": false,
      "taf_trigger": false,
      "metar": "METAR LRIA 031330Z 20004KT 150V240 9999 FEW023 06/01 Q1003",
      "taf": "TAF LRIA 031100Z 0312/0321 18008KT 9999 BKN045"
    },
    {
      "icao": "LROP",
      "alert": "OK",
      "vis_m": 9999,
      "fzfg": false,
      "metar_trigger": false,
      "taf_trigger": false,
      "metar": "METAR LROP 031330Z 29005KT 9999 -SHRA FEW045CB 04/04 Q1005 NOSIG",
      "taf": "TAF LROP 031100Z 0312/0412 VRB04KT 9999 BKN045"
    },
    {
      "icao": "LRSB",
      "alert": "OK",
      "vis_m": 9999,
      "fzfg": false,
      "metar_trigger": false,
      "taf_trigger": false,
      "metar": "METAR LRSB 031330Z 23004KT 9999 FEW010 SCT017 BKN035 00/M00 Q1007 NOSIG",
      "taf": "TAF LRSB 031100Z 0312/0412 VRB04KT 9999 SCT020 BKN050"
    },
    {
      "icao": "LRSM",
      "alert": "OK",
      "vis_m": 9999,
      "fzfg": false,
      "metar_trigger": false,
      "taf_trigger": false,
      "metar": "METAR LRSM 031330Z AUTO 25013KT 9999 NCD 03/M02 Q1007",
      "taf": ""
    },
    {
      "icao": "LRSV",
      "alert": "OK",
      "vis_m": 9999,
      "fzfg": false,
      "metar_trigger": false,
      "taf_trigger": false,
      "metar": "METAR LRSV 031330Z 25011KT CAVOK 03/M05 Q1001",
      "taf": "TAF LRSV 031100Z 0312/0321 26008KT CAVOK"
    },
    {
      "icao": "LRTM",
      "alert": "OK",
      "vis_m": 9000,
      "fzfg": false,
      "metar_trigger": false,
      "taf_trigger": false,
      "metar": "METAR LRTM 031330Z VRB02KT 9000 FEW008 SCT027 01/M00 Q1007",
      "taf": "TAF LRTM 031100Z 0312/0321 24006KT 3000 -SN BR BKN010 OVC025"
    },
    {
      "icao": "LRTR",
      "alert": "OK",
      "vis_m": 9999,
      "fzfg": false,
      "metar_trigger": false,
      "taf_trigger": false,
      "metar": "METAR LRTR 031330Z 21004KT CAVOK 01/01 Q1010",
      "taf": "TAF LRTR 031100Z 0312/0412 30008KT 9999 SCT005 OVC015"
    },
    {
      "icao": "LTAC",
      "alert": "OK",
      "vis_m": 9999,
      "fzfg": false,
      "metar_trigger": false,
      "taf_trigger": false,
      "metar": "METAR LTAC 031320Z 08004KT 010V100 9999 BKN035 BKN080 M02/M08 Q1021 RESHSN NOSIG RMK RWY21C 05003KT 020V080 RWY03L 06004KT 040V100 RWY21R 04004KT RWY03R VRB02KT RWY21L 06003KT",
      "taf": "TAF LTAC 031040Z 0312/0412 VRB02KT 9999 SCT035 BKN100"
    },
    {
      "icao": "LTFM",
      "alert": "OK",
      "vis_m": 9999,
      "fzfg": false,
      "metar_trigger": false,
      "taf_trigger": false,
      "metar": "METAR LTFM 031320Z 21032G42KT 9999 -SHRA SCT035 BKN080 13/07 Q1010 NOSIG RMK RWY17L 21030G40KT RWY34L 20030G40KT RWY16R 21030G41KT RWY36 21032KT RWY18 21034G47KT",
      "taf": "TAF LTFM 031040Z 0312/0418 21033G48KT 9999 -SHRA SCT035 BKN080"
    },
    {
      "icao": "LUKK",
      "alert": "OK",
      "vis_m": 9999,
      "fzfg": false,
      "metar_trigger": false,
      "taf_trigger": false,
      "metar": "METAR LUKK 031330Z 30003KT 270V010 CAVOK 04/M00 Q1002 NOSIG",
      "taf": "TAF LUKK 031115Z 0312/0412 VRB05KT 9999 SCT035"
    },
    {
      "icao": "LWOH",
      "alert": "OK",
      "vis_m": null,
      "fzfg": false,
      "metar_trigger": false,
      "taf_trigger": false,
      "metar": "",
      "taf": "TAF LWOH 031125Z 0312/0412 14012KT 9999 SCT020 OVC035"
    },
    {
      "icao": "LWSK",
      "alert": "OK",
      "vis_m": null,
      "fzfg": false,
      "metar_trigger": false,
      "taf_trigger": false,
      "metar": "",
      "taf": "TAF LWSK 031125Z 0312/0412 VRB02KT FEW040 SCT060"
    },
    {
      "icao": "LYBE",
      "alert": "OK",
      "vis_m": 6000,
      "fzfg": false,
      "metar_trigger": false,
      "taf_trigger": false,
      "metar": "METAR LYBE 031330Z 36004KT 6000 -SN BKN003 BKN026 01/00 Q1011 NOSIG",
      "taf": ""
    },
    {
      "icao": "LYNI",
      "alert": "OK",
      "vis_m": 9999,
      "fzfg": false,
      "metar_trigger": false,
      "taf_trigger": false,
      "metar": "METAR LYNI 031330Z 32010KT 290V010 9999 -RASN SCT010 BKN033 OVC070 02/01 Q1009 NOSIG",
      "taf": "TAF LYNI 031100Z 0312/0412 33016KT 9999 SCT017 BKN035 OVC067 TX13/0411Z TN02/0324Z"
    },
    {
      "icao": "LYPG",
      "alert": "OK",
      "vis_m": 9999,
      "fzfg": false,
      "metar_trigger": false,
      "taf_trigger": false,
      "metar": "METAR LYPG 031330Z 13009KT 9999 -RA FEW020 SCT033 OVC070 12/10 Q1007 NOSIG",
      "taf": "TAF LYPG 031100Z 0312/0412 15009KT 9999 FEW020 BKN040 OVC070 TX13/0313Z TN08/0406Z"
    },
    {
      "icao": "LZIB",
      "alert": "OK",
      "vis_m": 9999,
      "fzfg": false,
      "metar_trigger": false,
      "taf_trigger": false,
      "metar": "METAR LZIB 031330Z 26007KT 230V290 9999 FEW047 05/M07 Q1006 BECMG FM1400 19007KT",
      "taf": "TAF LZIB 031115Z 0312/0412 29016KT CAVOK"
    },
    {
      "icao": "LZKZ",
      "alert": "OK",
      "vis_m": 9999,
      "fzfg": false,
      "metar_trigger": false,
      "taf_trigger": false,
      "metar": "METAR LZKZ 031330Z 23008KT CAVOK 04/M08 Q1004 NOSIG",
      "taf": "TAF LZKZ 031115Z 0312/0412 24010KT 9999 FEW040"
    },
    {
      "icao": "LZTT",
      "alert": "OK",
      "vis_m": 9999,
      "fzfg": false,
      "metar_trigger": false,
      "taf_trigger": false,
      "metar": "METAR LZTT 031330Z 26020G31KT CAVOK M02/M11 Q1001 NOSIG",
      "taf": "TAF LZTT 031115Z 0312/0412 27022KT 9999 FEW010 BKN036"
    },
    {
      "icao": "OEJN",
      "alert": "OK",
      "vis_m": 9999,
      "fzfg": false,
      "metar_trigger": false,
      "taf_trigger": false,
      "metar": "METAR OEJN 031300Z 30009KT CAVOK 28/17 Q1014 NOSIG",
      "taf": "TAF OEJN 031100Z 0312/0418 31010KT CAVOK"
    },
    {
      "icao": "OEMA",
      "alert": "OK",
      "vis_m": 9999,
      "fzfg": false,
      "metar_trigger": false,
      "taf_trigger": false,
      "metar": "METAR OEMA 031300Z VRB03KT CAVOK 27/02 Q1019 NOSIG",
      "taf": "TAF OEMA 031100Z 0312/0418 07008KT CAVOK"
    },
    {
      "icao": "OJAI",
      "alert": "OK",
      "vis_m": 5000,
      "fzfg": false,
      "metar_trigger": false,
      "taf_trigger": false,
      "metar": "METAR OJAI 031300Z 10005KT 5000 HZ NSC 11/M01 Q1026 NOSIG",
      "taf": "TAF OJAI 031100Z 0312/0418 10012KT 5000 HZ FEW035"
    },
    {
      "icao": "OMAA",
      "alert": "OK",
      "vis_m": 9999,
      "fzfg": false,
      "metar_trigger": false,
      "taf_trigger": false,
      "metar": "METAR OMAA 031300Z 29008KT CAVOK 23/15 Q1018 NOSIG",
      "taf": "TAF OMAA 031100Z 0312/0418 32011KT 8000 NSC"
    },
    {
      "icao": "OMDB",
      "alert": "OK",
      "vis_m": 9999,
      "fzfg": false,
      "metar_trigger": false,
      "taf_trigger": false,
      "metar": "METAR OMDB 031330Z 28008KT 9999 FEW025 24/16 Q1018 NOSIG",
      "taf": "TAF OMDB 031100Z 0312/0418 30010KT 8000 NSC"
    },
    {
      "icao": "UAAA",
      "alert": "OK",
      "vis_m": 400,
      "fzfg": true,
      "metar_trigger": false,
      "taf_trigger": false,
      "metar": "METAR UAAA 031330Z 14001MPS 0400 R23L/1200N FZFG BKN200 M01/M02 Q1022 NOSIG",
      "taf": "TAF UAAA 031101Z 0312/0412 20003MPS 0600 FZFG VV003 TX02/0409Z TNM03/0402Z"
    },
    {
      "icao": "UBBB",
      "alert": "OK",
      "vis_m": 9999,
      "fzfg": false,
      "metar_trigger": false,
      "taf_trigger": false,
      "metar": "METAR UBBB 031330Z 19012KT CAVOK 05/00 Q1024 NOSIG",
      "taf": "TAF UBBB 031053Z 0312/0412 19014KT 9999 SCT030 TX06/0312Z TN01/0401Z"
    },
    {
      "icao": "UDSG",
      "alert": "OK",
      "vis_m": 9999,
      "fzfg": false,
      "metar_trigger": false,
      "taf_trigger": false,
      "metar": "METAR UDSG 031330Z 25001KT 9999 NSC M15/M20 Q1026 NOSIG",
      "taf": "TAF UDSG 031058Z 0312/0412 VRB06KT 9999 FEW040"
    },
    {
      "icao": "UDYZ",
      "alert": "OK",
      "vis_m": 9999,
      "fzfg": false,
      "metar_trigger": false,
      "taf_trigger": false,
      "metar": "METAR UDYZ 031330Z 03002KT 9999 NSC M06/M13 Q1029 NOSIG",
      "taf": "TAF UDYZ 031100Z 0312/0412 VRB06KT 9999 NSC"
    },
    {
      "icao": "UGKO",
      "alert": "OK",
      "vis_m": 9999,
      "fzfg": false,
      "metar_trigger": false,
      "taf_trigger": false,
      "metar": "METAR UGKO 031330Z 09012KT CAVOK 05/M06 Q1022 NOSIG",
      "taf": "TAF UGKO 031100Z 0312/0412 08010KT CAVOK TX07/0412Z TNM02/0402Z"
    }
  ]
}