{
  "ts_utc": "2026-01-11T15:58:38Z",
  "threshold_m": 150,
  "source": "stations_override.txt (ICAO list) + aviationweather.gov (METAR/TAF raw)",
  "station_count": 159,
  "stations": [
    {
      "icao": "BIKF",
      "alert": "OK",
      "vis_m": 9999,
      "fzfg": false,
      "metar_trigger": false,
      "taf_trigger": false,
      "metar": "METAR BIKF 111530Z 01007KT 9999 FEW035 M03/M06 Q0994",
      "taf": "TAF BIKF 111342Z 1115/1215 36013KT 9999 FEW030 TX00/1203Z TNM02/1215Z"
    },
    {
      "icao": "BKPR",
      "alert": "OK",
      "vis_m": null,
      "fzfg": false,
      "metar_trigger": false,
      "taf_trigger": false,
      "metar": "",
      "taf": "TAF BKPR 111130Z 1112/1212 35008KT 9999 SCT010 BKN030"
    },
    {
      "icao": "EBCI",
      "alert": "OK",
      "vis_m": 9000,
      "fzfg": false,
      "metar_trigger": false,
      "taf_trigger": false,
      "metar": "METAR EBCI 111550Z 18012KT 9000 SCT010 BKN014 M01/M03 Q1021 TEMPO SCT012",
      "taf": "TAF EBCI 111100Z 1112/1218 19010KT 9999 BKN013"
    },
    {
      "icao": "EDDB",
      "alert": "OK",
      "vis_m": 9999,
      "fzfg": false,
      "metar_trigger": false,
      "taf_trigger": false,
      "metar": "METAR EDDB 111550Z AUTO 29010KT CAVOK M05/M07 Q1022 NOSIG",
      "taf": "TAF EDDB 111100Z 1112/1212 29011KT CAVOK"
    },
    {
      "icao": "EDDH",
      "alert": "OK",
      "vis_m": 2100,
      "fzfg": true,
      "metar_trigger": false,
      "taf_trigger": false,
      "metar": "METAR EDDH 111550Z AUTO 07001KT 2100 0250 R23/P2000N R15/0325N BCFG FEW009 M08/M08 Q1024 TEMPO 6000",
      "taf": "TAF EDDH 111100Z 1112/1218 VRB02KT 0500 FZFG BKN001"
    },
    {
      "icao": "EDDK",
      "alert": "OK",
      "vis_m": 9999,
      "fzfg": false,
      "metar_trigger": false,
      "taf_trigger": false,
      "metar": "METAR EDDK 111550Z AUTO 13007KT 9999 OVC017 M02/M04 Q1023 NOSIG",
      "taf": "TAF EDDK 111100Z 1112/1218 14009KT 9999 SCT020"
    },
    {
      "icao": "EDDN",
      "alert": "OK",
      "vis_m": 9999,
      "fzfg": false,
      "metar_trigger": false,
      "taf_trigger": false,
      "metar": "METAR EDDN 111550Z AUTO 10003KT 9999 FEW021 M04/M07 Q1025 NOSIG",
      "taf": "TAF EDDN 111100Z 1112/1212 VRB03KT CAVOK"
    },
    {
      "icao": "EDDS",
      "alert": "OK",
      "vis_m": 9999,
      "fzfg": false,
      "metar_trigger": false,
      "taf_trigger": false,
      "metar": "METAR EDDS 111550Z AUTO 24003KT 180V290 9999 OVC018 00/M04 Q1023 NOSIG",
      "taf": "TAF EDDS 111100Z 1112/1212 VRB03KT 9999 SCT015"
    },
    {
      "icao": "EDFH",
      "alert": "OK",
      "vis_m": 5000,
      "fzfg": false,
      "metar_trigger": false,
      "taf_trigger": false,
      "metar": "METAR EDFH 111550Z 18007KT 5000 BR BKN004 M03/M04 Q1022",
      "taf": "TAF EDFH 111100Z 1112/1212 17008KT 8000 BKN008"
    },
    {
      "icao": "EDJA",
      "alert": "OK",
      "vis_m": 9999,
      "fzfg": false,
      "metar_trigger": false,
      "taf_trigger": false,
      "metar": "METAR EDJA 111550Z 25004KT 9999 R24/0800N OVC018 M02/M05 Q1023",
      "taf": "TAF EDJA 111400Z 1115/1124 23003KT 9999 FEW013 BKN020"
    },
    {
      "icao": "EDLW",
      "alert": "OK",
      "vis_m": 9999,
      "fzfg": false,
      "metar_trigger": false,
      "taf_trigger": false,
      "metar": "METAR EDLW 111550Z 19007KT CAVOK M02/M06 Q1022",
      "taf": "TAF EDLW 111120Z 1112/1212 17008KT CAVOK"
    },
    {
      "icao": "EDNY",
      "alert": "OK",
      "vis_m": 9999,
      "fzfg": false,
      "metar_trigger": false,
      "taf_trigger": false,
      "metar": "METAR EDNY 111550Z 36002KT 9999 SCT025 M00/M02 Q1024",
      "taf": "TAF EDNY 111400Z 1115/1124 04003KT 9999 FEW020"
    },
    {
      "icao": "EDSB",
      "alert": "OK",
      "vis_m": 9999,
      "fzfg": false,
      "metar_trigger": false,
      "taf_trigger": false,
      "metar": "METAR EDSB 111550Z 03003KT 9999 OVC026 00/M02 Q1025",
      "taf": "TAF EDSB 111100Z 1112/1212 VRB03KT 8000 BKN020"
    },
    {
      "icao": "EETN",
      "alert": "OK",
      "vis_m": 9000,
      "fzfg": false,
      "metar_trigger": false,
      "taf_trigger": false,
      "metar": "METAR EETN 111550Z 05010KT 9000 -SN BKN014 OVC020 M04/M06 Q1012 TEMPO 4000 SN",
      "taf": "TAF EETN 111130Z 1112/1212 07012KT 2500 SN DRSN BKN010 OVC020"
    },
    {
      "icao": "EFTU",
      "alert": "OK",
      "vis_m": 9999,
      "fzfg": false,
      "metar_trigger": false,
      "taf_trigger": false,
      "metar": "METAR EFTU 111550Z AUTO 02006KT 350V060 9999 -SHSN NSC M07/M09 Q1016",
      "taf": "TAF EFTU 111436Z 1115/1215 02006KT 8000 -SN OVC020"
    },
    {
      "icao": "EGBB",
      "alert": "OK",
      "vis_m": 9999,
      "fzfg": false,
      "metar_trigger": false,
      "taf_trigger": false,
      "metar": "METAR EGBB 111550Z 17014KT 9999 BKN009 07/06 Q1003",
      "taf": ""
    },
    {
      "icao": "EGGP",
      "alert": "OK",
      "vis_m": 9999,
      "fzfg": false,
      "metar_trigger": false,
      "taf_trigger": false,
      "metar": "METAR EGGP 111550Z 16014KT 9999 FEW005 BKN014 BKN020 08/06 Q0998",
      "taf": ""
    },
    {
      "icao": "EGGW",
      "alert": "OK",
      "vis_m": 8000,
      "fzfg": false,
      "metar_trigger": false,
      "taf_trigger": false,
      "metar": "METAR EGGW 111550Z AUTO 18012KT 150V210 8000 -RA OVC006 06/05 Q1007",
      "taf": "TAF EGGW 111103Z 1112/1212 17018G32KT 9999 FEW010 BKN040"
    },
    {
      "icao": "EGKK",
      "alert": "OK",
      "vis_m": 4500,
      "fzfg": false,
      "metar_trigger": false,
      "taf_trigger": false,
      "metar": "METAR EGKK 111550Z 17013G23KT 140V200 4500 -RADZ BKN007 BKN014 07/06 Q1010",
      "taf": "TAF EGKK 111057Z 1112/1218 16010KT 9999 SCT015"
    },
    {
      "icao": "EGNM",
      "alert": "OK",
      "vis_m": 9999,
      "fzfg": false,
      "metar_trigger": false,
      "taf_trigger": false,
      "metar": "METAR EGNM 111550Z 15014KT 9999 -RA SCT003 BKN005 05/04 Q1000",
      "taf": "TAF EGNM 111100Z 1112/1212 15015G28KT 9999 BKN006"
    },
    {
      "icao": "EGPD",
      "alert": "OK",
      "vis_m": 4000,
      "fzfg": false,
      "metar_trigger": false,
      "taf_trigger": false,
      "metar": "METAR EGPD 111550Z 17023KT 4000 -RADZ OVC006 04/03 Q0993",
      "taf": ""
    },
    {
      "icao": "EGPF",
      "alert": "OK",
      "vis_m": 9999,
      "fzfg": false,
      "metar_trigger": false,
      "taf_trigger": false,
      "metar": "METAR EGPF 111550Z AUTO 16013KT 9999 -RA //////CB 08/07 Q0991",
      "taf": "TAF EGPF 111103Z 1112/1212 14009KT 9999 FEW015 SCT030"
    },
    {
      "icao": "EHBK",
      "alert": "OK",
      "vis_m": 9999,
      "fzfg": false,
      "metar_trigger": false,
      "taf_trigger": false,
      "metar": "METAR EHBK 111555Z AUTO 19006KT 9999 BKN013 OVC015 M00/M02 Q1021 TEMPO BKN016",
      "taf": ""
    },
    {
      "icao": "EHEH",
      "alert": "OK",
      "vis_m": 8000,
      "fzfg": false,
      "metar_trigger": false,
      "taf_trigger": false,
      "metar": "METAR EHEH 111525Z AUTO 18009KT 8000 BR OVC010 M00/M03 Q1021 GRN NOSIG RMK TREND REMOTE BY EHWX",
      "taf": "TAF EHEH 111136Z 1112/1218 18008KT 9999 OVC014"
    },
    {
      "icao": "EKBI",
      "alert": "OK",
      "vis_m": 9999,
      "fzfg": false,
      "metar_trigger": false,
      "taf_trigger": false,
      "metar": "METAR EKBI 111550Z AUTO 11005KT 9999 OVC210/// M07/M10 Q1022",
      "taf": "TAF EKBI 111427Z 1115/1215 VRB04KT CAVOK"
    },
    {
      "icao": "EKCH",
      "alert": "OK",
      "vis_m": 9999,
      "fzfg": false,
      "metar_trigger": false,
      "taf_trigger": false,
      "metar": "METAR EKCH 111550Z AUTO 32007KT 9999 NCD M04/M09 Q1023 NOSIG",
      "taf": "TAF EKCH 111427Z 1115/1215 33010KT CAVOK"
    },
    {
      "icao": "ENAL",
      "alert": "OK",
      "vis_m": 9999,
      "fzfg": false,
      "metar_trigger": false,
      "taf_trigger": false,
      "metar": "METAR ENAL 111550Z 13012KT CAVOK 03/M09 Q1010",
      "taf": "TAF ENAL 111400Z 1115/1124 12015KT CAVOK"
    },
    {
      "icao": "ENBR",
      "alert": "OK",
      "vis_m": 9999,
      "fzfg": false,
      "metar_trigger": false,
      "taf_trigger": false,
      "metar": "METAR ENBR 111550Z 14025G36KT 9999 FEW045 01/M07 Q1012 WS R17 TEMPO 13023KT RMK WIND 1200FT 14042KT",
      "taf": "TAF ENBR 111100Z 1112/1212 13012KT 9999 SCT045"
    },
    {
      "icao": "ENGM",
      "alert": "OK",
      "vis_m": 9999,
      "fzfg": false,
      "metar_trigger": false,
      "taf_trigger": false,
      "metar": "METAR ENGM 111550Z 00000KT 9999 SCT003 M18/M20 Q1022 NOSIG",
      "taf": "TAF ENGM 111100Z 1112/1212 VRB03KT CAVOK"
    },
    {
      "icao": "ENHD",
      "alert": "OK",
      "vis_m": 9999,
      "fzfg": false,
      "metar_trigger": false,
      "taf_trigger": false,
      "metar": "METAR ENHD 111550Z 14028G41KT 9999 BKN036 01/M05 Q1013",
      "taf": "TAF ENHD 111400Z 1115/1123 14025KT 9999 BKN040"
    },
    {
      "icao": "ENTC",
      "alert": "OK",
      "vis_m": 9999,
      "fzfg": false,
      "metar_trigger": false,
      "taf_trigger": false,
      "metar": "METAR ENTC 111550Z VRB02KT CAVOK M10/M13 Q1021 NOSIG RMK WIND 2600FT 18018KT",
      "taf": "TAF ENTC 111100Z 1112/1212 20005KT CAVOK"
    },
    {
      "icao": "ENTO",
      "alert": "OK",
      "vis_m": 9999,
      "fzfg": false,
      "metar_trigger": false,
      "taf_trigger": false,
      "metar": "METAR ENTO 111550Z 33004KT CAVOK M14/M16 Q1023 NOSIG",
      "taf": ""
    },
    {
      "icao": "ENVA",
      "alert": "OK",
      "vis_m": 9999,
      "fzfg": false,
      "metar_trigger": false,
      "taf_trigger": false,
      "metar": "METAR ENVA 111550Z 08003KT 030V100 CAVOK M09/M13 Q1017 RMK WIND 670FT 12011KT",
      "taf": "TAF ENVA 111100Z 1112/1212 10008KT CAVOK"
    },
    {
      "icao": "ENZV",
      "alert": "OK",
      "vis_m": 9999,
      "fzfg": false,
      "metar_trigger": false,
      "taf_trigger": false,
      "metar": "METAR ENZV 111550Z 14026G37KT 9999 SCT040 00/M06 Q1014 TEMPO 14025KT",
      "taf": ""
    },
    {
      "icao": "EPGD",
      "alert": "OK",
      "vis_m": 8000,
      "fzfg": false,
      "metar_trigger": false,
      "taf_trigger": false,
      "metar": "METAR EPGD 111530Z 34017G28KT 8000 -SHSN DRSN SCT011 SCT017TCU M02/M03 Q1011 RESHSN",
      "taf": "TAF EPGD 111130Z 1112/1212 33012KT 9999 SCT016"
    },
    {
      "icao": "EPKK",
      "alert": "OK",
      "vis_m": 3500,
      "fzfg": false,
      "metar_trigger": false,
      "taf_trigger": false,
      "metar": "METAR EPKK 111530Z 27016KT 3500 -SN DRSN BR BKN026 M05/M07 Q1013",
      "taf": "TAF EPKK 111430Z 1115/1215 27015KT 5000 -SN BR BKN020"
    },
    {
      "icao": "EPKT",
      "alert": "OK",
      "vis_m": 1600,
      "fzfg": false,
      "metar_trigger": false,
      "taf_trigger": false,
      "metar": "METAR EPKT 111530Z 28013KT 1600 SN DRSN FEW009 BKN014 M05/M07 Q1013",
      "taf": "TAF EPKT 111130Z 1112/1212 28015KT 3000 -SN BR BKN014 BKN016"
    },
    {
      "icao": "EPLB",
      "alert": "OK",
      "vis_m": 9000,
      "fzfg": false,
      "metar_trigger": false,
      "taf_trigger": false,
      "metar": "METAR EPLB 111530Z 29005KT 9000 -SN FEW016 SCT020 M05/M07 Q1008",
      "taf": "TAF EPLB 111130Z 1112/1212 30010KT 8000 -SN BKN030"
    },
    {
      "icao": "EPMO",
      "alert": "OK",
      "vis_m": 3700,
      "fzfg": false,
      "metar_trigger": false,
      "taf_trigger": false,
      "metar": "METAR EPMO 111530Z 27008KT 3700 SN FEW008 BKN020 M04/M05 Q1009",
      "taf": "TAF EPMO 111130Z 1112/1212 31010KT 7000 -SN BKN025"
    },
    {
      "icao": "EPPO",
      "alert": "OK",
      "vis_m": 9999,
      "fzfg": false,
      "metar_trigger": false,
      "taf_trigger": false,
      "metar": "METAR EPPO 111530Z 29013KT 9999 SCT023CB BKN035 M02/M05 Q1016",
      "taf": "TAF EPPO 111130Z 1112/1212 30012KT 9999 BKN020"
    },
    {
      "icao": "EPRA",
      "alert": "OK",
      "vis_m": 5000,
      "fzfg": false,
      "metar_trigger": false,
      "taf_trigger": false,
      "metar": "METAR EPRA 111530Z 30008KT 5000 -SN SCT026 BKN036 OVC044 M04/M05 Q1010 RESN",
      "taf": "TAF EPRA 111430Z 1115/1124 29010KT 8000 -SN BKN024"
    },
    {
      "icao": "EPRZ",
      "alert": "OK",
      "vis_m": 3000,
      "fzfg": false,
      "metar_trigger": false,
      "taf_trigger": false,
      "metar": "METAR EPRZ 111530Z 27015KT 3000 -SN BR SCT003 OVC013 M03/M05 Q1010",
      "taf": "TAF EPRZ 111130Z 1112/1212 28008KT 3000 -SN BR BKN016"
    },
    {
      "icao": "EPSC",
      "alert": "OK",
      "vis_m": 9999,
      "fzfg": false,
      "metar_trigger": false,
      "taf_trigger": false,
      "metar": "METAR EPSC 111530Z 29010KT 9999 BKN023 M02/M05 Q1019",
      "taf": "TAF EPSC 111130Z 1112/1212 33014KT 9999 BKN020"
    },
    {
      "icao": "EPSY",
      "alert": "OK",
      "vis_m": 9999,
      "fzfg": false,
      "metar_trigger": false,
      "taf_trigger": false,
      "metar": "METAR EPSY 111530Z 26003KT 9999 -SN SCT029 M05/M06 Q1008",
      "taf": "TAF EPSY 111430Z 1115/1124 31005KT 4500 -SN BKN013"
    },
    {
      "icao": "EPWA",
      "alert": "OK",
      "vis_m": 5000,
      "fzfg": false,
      "metar_trigger": false,
      "taf_trigger": false,
      "metar": "METAR EPWA 111530Z 28008KT 5000 -SN BKN036 M04/M05 Q1009 TEMPO 3000 SN BKN013",
      "taf": "TAF EPWA 111430Z 1115/1215 30008KT 9999 SCT012 BKN020"
    },
    {
      "icao": "EPWR",
      "alert": "OK",
      "vis_m": 9999,
      "fzfg": false,
      "metar_trigger": false,
      "taf_trigger": false,
      "metar": "METAR EPWR 111530Z 28016KT 9999 -SN DRSN FEW026 BKN043 M04/M08 Q1018",
      "taf": "TAF EPWR 111430Z 1115/1215 29015KT 9999 -SN BKN020"
    },
    {
      "icao": "ESGG",
      "alert": "OK",
      "vis_m": 9999,
      "fzfg": false,
      "metar_trigger": false,
      "taf_trigger": false,
      "metar": "METAR ESGG 111550Z 00000KT CAVOK M11/M12 Q1021",
      "taf": "TAF ESGG 111430Z 1115/1215 08004KT CAVOK"
    },
    {
      "icao": "ESKN",
      "alert": "OK",
      "vis_m": 9999,
      "fzfg": false,
      "metar_trigger": false,
      "taf_trigger": false,
      "metar": "METAR ESKN 111550Z 33014KT CAVOK M07/M09 Q1019",
      "taf": "TAF ESKN 111430Z 1115/1215 33013KT CAVOK"
    },
    {
      "icao": "ESMS",
      "alert": "OK",
      "vis_m": 9999,
      "fzfg": false,
      "metar_trigger": false,
      "taf_trigger": false,
      "metar": "METAR ESMS 111550Z 30009KT CAVOK M07/M11 Q1021",
      "taf": "TAF ESMS 111427Z 1115/1215 31010KT CAVOK"
    },
    {
      "icao": "ESSA",
      "alert": "OK",
      "vis_m": 7000,
      "fzfg": false,
      "metar_trigger": false,
      "taf_trigger": false,
      "metar": "METAR ESSA 111550Z 33012KT 7000 -SN FEW011 BKN025 M06/M08 Q1018 TEMPO 2500",
      "taf": "TAF ESSA 111430Z 1115/1215 32014KT CAVOK"
    },
    {
      "icao": "EYKA",
      "alert": "OK",
      "vis_m": 8000,
      "fzfg": false,
      "metar_trigger": false,
      "taf_trigger": false,
      "metar": "METAR EYKA 111550Z VRB01KT 8000 -SN FEW037 M11/M12 Q1008",
      "taf": "TAF EYKA 111110Z 1112/1212 VRB03KT 5000 SN BKN030"
    },
    {
      "icao": "EYPA",
      "alert": "OK",
      "vis_m": 9999,
      "fzfg": false,
      "metar_trigger": false,
      "taf_trigger": false,
      "metar": "METAR EYPA 111550Z 03004KT 350V050 9999 FEW024 M06/M08 Q1010",
      "taf": "TAF EYPA 111102Z 1112/1212 02007KT 7000 BKN030"
    },
    {
      "icao": "EYVI",
      "alert": "OK",
      "vis_m": 9999,
      "fzfg": false,
      "metar_trigger": false,
      "taf_trigger": false,
      "metar": "METAR EYVI 111550Z 33005KT 9999 -SN SCT008 M13/M14 Q1006 TEMPO 3000 SN BKN010",
      "taf": "TAF EYVI 111100Z 1112/1212 VRB04KT 5000 SN BKN025"
    },
    {
      "icao": "GCFV",
      "alert": "OK",
      "vis_m": 9999,
      "fzfg": false,
      "metar_trigger": false,
      "taf_trigger": false,
      "metar": "METAR GCFV 111530Z 05008KT 9999 FEW020 19/12 Q1023",
      "taf": "TAF GCFV 111400Z 1115/1215 05008KT 9999 FEW025 TX21/1214Z TN14/1206Z"
    },
    {
      "icao": "GCLP",
      "alert": "OK",
      "vis_m": 9999,
      "fzfg": false,
      "metar_trigger": false,
      "taf_trigger": false,
      "metar": "METAR GCLP 111530Z 04012KT 020V080 9999 FEW030 20/13 Q1023 NOSIG",
      "taf": "TAF GCLP 111400Z 1115/1215 04012KT 9999 FEW030 TX21/1214Z TN15/1206Z"
    },
    {
      "icao": "GCTS",
      "alert": "OK",
      "vis_m": 9999,
      "fzfg": false,
      "metar_trigger": false,
      "taf_trigger": false,
      "metar": "METAR GCTS 111530Z 10018KT 070V130 9999 FEW035 21/13 Q1023 NOSIG",
      "taf": "TAF GCTS 111400Z 1115/1215 09017KT 9999 FEW040 TX23/1214Z TN16/1206Z"
    },
    {
      "icao": "GMAD",
      "alert": "OK",
      "vis_m": 9999,
      "fzfg": false,
      "metar_trigger": false,
      "taf_trigger": false,
      "metar": "METAR GMAD 111530Z 00000KT CAVOK 23/06 Q1022 NOSIG",
      "taf": "TAF GMAD 111100Z 1112/1218 06005KT CAVOK"
    },
    {
      "icao": "GMMN",
      "alert": "OK",
      "vis_m": 9999,
      "fzfg": false,
      "metar_trigger": false,
      "taf_trigger": false,
      "metar": "METAR GMMN 111530Z 02008KT CAVOK 16/11 Q1024 NOSIG",
      "taf": "TAF GMMN 111100Z 1112/1218 05012KT 9999 FEW020"
    },
    {
      "icao": "GMMX",
      "alert": "OK",
      "vis_m": 9999,
      "fzfg": false,
      "metar_trigger": false,
      "taf_trigger": false,
      "metar": "METAR GMMX 111530Z 28004KT 240V350 CAVOK 18/09 Q1023 NOSIG",
      "taf": "TAF GMMX 111100Z 1112/1218 06006KT CAVOK"
    },
    {
      "icao": "HEGN",
      "alert": "OK",
      "vis_m": 9999,
      "fzfg": false,
      "metar_trigger": false,
      "taf_trigger": false,
      "metar": "METAR HEGN 111500Z 12003KT CAVOK 21/12 Q1016 NOSIG",
      "taf": "TAF HEGN 111100Z 1112/1218 36013KT CAVOK"
    },
    {
      "icao": "HEMA",
      "alert": "OK",
      "vis_m": 9999,
      "fzfg": false,
      "metar_trigger": false,
      "taf_trigger": false,
      "metar": "METAR HEMA 111500Z 01006KT CAVOK 21/15 Q1015 NOSIG",
      "taf": "TAF HEMA 111100Z 1112/1218 36015KT CAVOK"
    },
    {
      "icao": "HESH",
      "alert": "OK",
      "vis_m": 9999,
      "fzfg": false,
      "metar_trigger": false,
      "taf_trigger": false,
      "metar": "METAR HESH 111500Z 14008KT CAVOK 22/11 Q1016 NOSIG",
      "taf": "TAF HESH 111100Z 1112/1218 01012KT CAVOK"
    },
    {
      "icao": "HESX",
      "alert": "OK",
      "vis_m": 9999,
      "fzfg": false,
      "metar_trigger": false,
      "taf_trigger": false,
      "metar": "METAR HESX 111500Z 26007KT CAVOK 19/02 Q1015 NOSIG",
      "taf": "TAF HESX 111100Z 1112/1218 22010KT 9999 FEW020"
    },
    {
      "icao": "LATI",
      "alert": "OK",
      "vis_m": 9999,
      "fzfg": false,
      "metar_trigger": false,
      "taf_trigger": false,
      "metar": "METAR LATI 111550Z 31012KT CAVOK 05/M04 Q1011 NOSIG",
      "taf": "TAF LATI 111100Z 1112/1212 34012KT CAVOK TX12/1112Z TNM04/1205Z"
    },
    {
      "icao": "LBPD",
      "alert": "OK",
      "vis_m": 6000,
      "fzfg": false,
      "metar_trigger": false,
      "taf_trigger": false,
      "metar": "METAR LBPD 111530Z AUTO 29018KT 6000 -SN OVC031/// M01/M01 Q1011 TEMPO 4000 SN",
      "taf": "TAF LBPD 111100Z 1112/1212 28020KT 9999 SCT020 BKN050"
    },
    {
      "icao": "LBSF",
      "alert": "OK",
      "vis_m": 9999,
      "fzfg": false,
      "metar_trigger": false,
      "taf_trigger": false,
      "metar": "METAR LBSF 111530Z 28016KT 260V320 9999 BKN033 BKN058 M05/M10 Q1013 NOSIG",
      "taf": "TAF LBSF 111100Z 1112/1212 28018KT 7000 BKN012 OVC040"
    },
    {
      "icao": "LBWN",
      "alert": "OK",
      "vis_m": 9999,
      "fzfg": false,
      "metar_trigger": false,
      "taf_trigger": false,
      "metar": "METAR LBWN 111530Z 31006KT 9999 -SN SCT033 OVC040 M03/M06 Q1013 NOSIG",
      "taf": "TAF LBWN 111100Z 1112/1212 33010KT 9999 SCT010 BKN015 OVC030"
    },
    {
      "icao": "LCLK",
      "alert": "OK",
      "vis_m": 9999,
      "fzfg": false,
      "metar_trigger": false,
      "taf_trigger": false,
      "metar": "METAR LCLK 111530Z 21018KT 9999 SCT020 FEW025TCU FEW030CB SCT050 17/14 Q1011 NOSIG RMK CB TO NW W",
      "taf": "TAF LCLK 111130Z 1112/1212 21021KT 9999 FEW025TCU FEW030CB SCT035"
    },
    {
      "icao": "LCPH",
      "alert": "OK",
      "vis_m": 9999,
      "fzfg": false,
      "metar_trigger": false,
      "taf_trigger": false,
      "metar": "METAR LCPH 111530Z 24011KT 9999 FEW030 FEW035TCU SCT040 18/11 Q1012 NOSIG",
      "taf": "TAF LCPH 111130Z 1112/1212 24019KT 9999 FEW025TCU SCT030 FEW035CB"
    },
    {
      "icao": "LEAL",
      "alert": "OK",
      "vis_m": 9999,
      "fzfg": false,
      "metar_trigger": false,
      "taf_trigger": false,
      "metar": "METAR LEAL 111530Z 10004KT 050V120 CAVOK 15/06 Q1024 NOSIG",
      "taf": "TAF LEAL 111100Z 1112/1212 28008KT CAVOK TX16/1113Z TN07/1206Z"
    },
    {
      "icao": "LEBB",
      "alert": "OK",
      "vis_m": 9999,
      "fzfg": false,
      "metar_trigger": false,
      "taf_trigger": false,
      "metar": "METAR LEBB 111530Z VRB02KT 9999 BKN070 15/08 Q1020 NOSIG",
      "taf": "TAF LEBB 111100Z 1112/1212 18008KT 9999 FEW040 TX14/1114Z TN12/1207Z"
    },
    {
      "icao": "LEBL",
      "alert": "OK",
      "vis_m": 9999,
      "fzfg": false,
      "metar_trigger": false,
      "taf_trigger": false,
      "metar": "METAR LEBL 111530Z 23006KT CAVOK 12/06 Q1023 NOSIG",
      "taf": ""
    },
    {
      "icao": "LECH",
      "alert": "OK",
      "vis_m": 9999,
      "fzfg": false,
      "metar_trigger": false,
      "taf_trigger": false,
      "metar": "METAR LECH 111530Z AUTO 17006KT 140V200 CAVOK 13/00 Q1023",
      "taf": ""
    },
    {
      "icao": "LEMD",
      "alert": "OK",
      "vis_m": 9999,
      "fzfg": false,
      "metar_trigger": false,
      "taf_trigger": false,
      "metar": "METAR LEMD 111530Z 15005KT 110V210 CAVOK 10/02 Q1024 NOSIG",
      "taf": "TAF LEMD 111100Z 1112/1218 VRB03KT CAVOK TX10/1114Z TN02/1200Z"
    },
    {
      "icao": "LEMG",
      "alert": "OK",
      "vis_m": 9999,
      "fzfg": false,
      "metar_trigger": false,
      "taf_trigger": false,
      "metar": "METAR LEMG 111530Z 16006KT 120V200 CAVOK 15/07 Q1025 NOSIG",
      "taf": "TAF LEMG 111100Z 1112/1212 26006KT CAVOK TX17/1114Z TN07/1207Z"
    },
    {
      "icao": "LEVC",
      "alert": "OK",
      "vis_m": 9999,
      "fzfg": false,
      "metar_trigger": false,
      "taf_trigger": false,
      "metar": "METAR LEVC 111530Z 20006KT 160V230 CAVOK 17/02 Q1023 NOSIG",
      "taf": "TAF LEVC 111100Z 1112/1212 27008KT CAVOK TX16/1114Z TN05/1206Z"
    },
    {
      "icao": "LEXJ",
      "alert": "OK",
      "vis_m": 9999,
      "fzfg": false,
      "metar_trigger": false,
      "taf_trigger": false,
      "metar": "METAR LEXJ 111530Z 18005KT 120V250 CAVOK 17/07 Q1018",
      "taf": "TAF LEXJ 111400Z 1115/1215 22009KT 9999 SCT060 TX15/1213Z TN12/1208Z"
    },
    {
      "icao": "LEZG",
      "alert": "OK",
      "vis_m": 9999,
      "fzfg": false,
      "metar_trigger": false,
      "taf_trigger": false,
      "metar": "METAR LEZG 111530Z 25009KT CAVOK 14/04 Q1022 NOSIG",
      "taf": "TAF LEZG 111100Z 1112/1212 24009KT 9999 FEW050 TX13/1115Z TN04/1206Z"
    },
    {
      "icao": "LEZL",
      "alert": "OK",
      "vis_m": 9999,
      "fzfg": false,
      "metar_trigger": false,
      "taf_trigger": false,
      "metar": "METAR LEZL 111530Z 12004KT 070V170 CAVOK 15/07 Q1026 NOSIG",
      "taf": "TAF LEZL 111400Z 1115/1215 06004KT CAVOK TX16/1115Z TN05/1207Z"
    },
    {
      "icao": "LFBD",
      "alert": "OK",
      "vis_m": 9999,
      "fzfg": false,
      "metar_trigger": false,
      "taf_trigger": false,
      "metar": "METAR LFBD 111530Z AUTO 12009KT 9999 BKN005 BKN044 OVC062 07/06 Q1020",
      "taf": ""
    },
    {
      "icao": "LFLL",
      "alert": "OK",
      "vis_m": 9999,
      "fzfg": false,
      "metar_trigger": false,
      "taf_trigger": false,
      "metar": "METAR LFLL 111530Z VRB01KT CAVOK 04/M02 Q1023 NOSIG",
      "taf": "TAF LFLL 111100Z 1112/1218 35008KT 9999 SCT020"
    },
    {
      "icao": "LFLS",
      "alert": "OK",
      "vis_m": 9999,
      "fzfg": false,
      "metar_trigger": false,
      "taf_trigger": false,
      "metar": "METAR LFLS 111530Z AUTO 12005KT 9999 BKN023 02/M01 Q1023",
      "taf": ""
    },
    {
      "icao": "LFMN",
      "alert": "OK",
      "vis_m": 9999,
      "fzfg": false,
      "metar_trigger": false,
      "taf_trigger": false,
      "metar": "METAR LFMN 111530Z 25013KT CAVOK 13/00 Q1019 NOSIG",
      "taf": "TAF LFMN 111400Z 1115/1221 22010KT CAVOK"
    },
    {
      "icao": "LFOB",
      "alert": "OK",
      "vis_m": 9999,
      "fzfg": false,
      "metar_trigger": false,
      "taf_trigger": false,
      "metar": "METAR LFOB 111530Z AUTO 16012KT CAVOK 04/00 Q1019 NOSIG",
      "taf": "TAF LFOB 111100Z 1112/1212 18012KT 9999 BKN020"
    },
    {
      "icao": "LFPO",
      "alert": "OK",
      "vis_m": 9999,
      "fzfg": false,
      "metar_trigger": false,
      "taf_trigger": false,
      "metar": "METAR LFPO 111530Z AUTO 16008KT CAVOK 05/M00 Q1020",
      "taf": "TAF LFPO 110500Z 1106/1212 19005KT CAVOK"
    },
    {
      "icao": "LFSB",
      "alert": "OK",
      "vis_m": 9999,
      "fzfg": false,
      "metar_trigger": false,
      "taf_trigger": false,
      "metar": "METAR LFSB 111530Z AUTO 00000KT 9999 OVC018 01/M01 Q1024 NOSIG",
      "taf": ""
    },
    {
      "icao": "LGAV",
      "alert": "OK",
      "vis_m": 9999,
      "fzfg": false,
      "metar_trigger": false,
      "taf_trigger": false,
      "metar": "METAR LGAV 111550Z 36006KT 9999 SCT020 12/02 Q1006 NOSIG",
      "taf": "TAF LGAV 111100Z 1112/1212 30013G23KT 9999 SCT025 SCT070"
    },
    {
      "icao": "LGTS",
      "alert": "OK",
      "vis_m": 9999,
      "fzfg": false,
      "metar_trigger": false,
      "taf_trigger": false,
      "metar": "METAR LGTS 111550Z 34023G33KT 9999 FEW015 SCT025 04/M04 Q1011 NOSIG",
      "taf": "TAF LGTS 111100Z 1112/1212 34015KT 9999 SCT030"
    },
    {
      "icao": "LHBP",
      "alert": "OK",
      "vis_m": 9999,
      "fzfg": false,
      "metar_trigger": false,
      "taf_trigger": false,
      "metar": "METAR LHBP 111530Z 31018KT 9999 DRSN FEW023 BKN090 M03/M07 Q1017 NOSIG",
      "taf": "TAF LHBP 111115Z 1112/1212 30020G30KT 9999 DRSN FEW020 SCT080"
    },
    {
      "icao": "LHDC",
      "alert": "OK",
      "vis_m": null,
      "fzfg": false,
      "metar_trigger": false,
      "taf_trigger": false,
      "metar": "",
      "taf": "TAF LHDC 111415Z 1115/1124 19007KT CAVOK"
    },
    {
      "icao": "LIBD",
      "alert": "OK",
      "vis_m": 9999,
      "fzfg": false,
      "metar_trigger": false,
      "taf_trigger": false,
      "metar": "METAR LIBD 111550Z 32012G22KT 290V030 9999 SCT045 08/M02 Q1016",
      "taf": "TAF LIBD 111100Z 1112/1212 34018G28KT 9999 FEW040"
    },
    {
      "icao": "LIBG",
      "alert": "OK",
      "vis_m": 9999,
      "fzfg": false,
      "metar_trigger": false,
      "taf_trigger": false,
      "metar": "METAR LIBG 111450Z 34015KT 9999 FEW040 09/M00 Q1013",
      "taf": "TAF LIBG 111400Z 1115/1124 33014KT 9999 SCT040"
    },
    {
      "icao": "LIBP",
      "alert": "OK",
      "vis_m": 9999,
      "fzfg": false,
      "metar_trigger": false,
      "taf_trigger": false,
      "metar": "METAR LIBP 111550Z AUTO 24005KT 9999 BKN051/// BKN078/// 04/04 Q1021",
      "taf": "TAF LIBP 111100Z 1112/1212 35010KT 9999 SCT040"
    },
    {
      "icao": "LIBR",
      "alert": "OK",
      "vis_m": 9999,
      "fzfg": false,
      "metar_trigger": false,
      "taf_trigger": false,
      "metar": "METAR LIBR 111550Z 35018G30KT 320V020 9999 FEW040 09/M01 Q1013",
      "taf": "TAF LIBR 111100Z 1112/1212 34018G30KT 9999 SCT040"
    },
    {
      "icao": "LICA",
      "alert": "OK",
      "vis_m": 9999,
      "fzfg": false,
      "metar_trigger": false,
      "taf_trigger": false,
      "metar": "METAR LICA 111550Z AUTO 32005KT 280V360 9999 FEW064/// 10/02 Q1014",
      "taf": "TAF LICA 111100Z 1112/1212 28010KT 9999 FEW030"
    },
    {
      "icao": "LICC",
      "alert": "OK",
      "vis_m": 9999,
      "fzfg": false,
      "metar_trigger": false,
      "taf_trigger": false,
      "metar": "METAR LICC 111550Z 13006KT 9999 FEW050 12/07 Q1015",
      "taf": "TAF LICC 111100Z 1112/1212 26016KT 9999 SCT040"
    },
    {
      "icao": "LICJ",
      "alert": "OK",
      "vis_m": 9999,
      "fzfg": false,
      "metar_trigger": false,
      "taf_trigger": false,
      "metar": "METAR LICJ 111550Z 14004KT 9999 SCT050 09/05 Q1018",
      "taf": "TAF LICJ 111100Z 1112/1212 35011KT 9999 SCT030"
    },
    {
      "icao": "LIMC",
      "alert": "OK",
      "vis_m": 9999,
      "fzfg": false,
      "metar_trigger": false,
      "taf_trigger": false,
      "metar": "METAR LIMC 111550Z 32004KT 250V360 CAVOK 09/M11 Q1019 NOSIG",
      "taf": "TAF LIMC 111100Z 1112/1218 01006KT CAVOK"
    },
    {
      "icao": "LIME",
      "alert": "OK",
      "vis_m": 9999,
      "fzfg": false,
      "metar_trigger": false,
      "taf_trigger": false,
      "metar": "METAR LIME 111550Z VRB02KT CAVOK 07/M05 Q1019 NOSIG",
      "taf": "TAF LIME 111100Z 1112/1212 VRB05KT CAVOK"
    },
    {
      "icao": "LIMF",
      "alert": "OK",
      "vis_m": 9999,
      "fzfg": false,
      "metar_trigger": false,
      "taf_trigger": false,
      "metar": "METAR LIMF 111550Z VRB01KT CAVOK 09/M09 Q1019",
      "taf": "TAF LIMF 111100Z 1112/1212 VRB05KT CAVOK"
    },
    {
      "icao": "LIMJ",
      "alert": "OK",
      "vis_m": 9999,
      "fzfg": false,
      "metar_trigger": false,
      "taf_trigger": false,
      "metar": "METAR LIMJ 111550Z 34007KT CAVOK 12/M10 Q1019",
      "taf": "TAF LIMJ 111100Z 1112/1212 03012KT CAVOK"
    },
    {
      "icao": "LIPE",
      "alert": "OK",
      "vis_m": 9999,
      "fzfg": false,
      "metar_trigger": false,
      "taf_trigger": false,
      "metar": "METAR LIPE 111550Z 08004KT CAVOK 07/M02 Q1020",
      "taf": "TAF LIPE 111100Z 1112/1212 VRB06KT CAVOK"
    },
    {
      "icao": "LIPH",
      "alert": "OK",
      "vis_m": 9999,
      "fzfg": false,
      "metar_trigger": false,
      "taf_trigger": false,
      "metar": "METAR LIPH 111550Z 13003KT 9999 BKN030 06/01 Q1021",
      "taf": "TAF LIPH 111100Z 1112/1212 VRB05KT CAVOK"
    },
    {
      "icao": "LIPQ",
      "alert": "OK",
      "vis_m": 9999,
      "fzfg": false,
      "metar_trigger": false,
      "taf_trigger": false,
      "metar": "METAR LIPQ 111550Z AUTO 04003KT 9999 SCT047/// 04/M04 Q1021",
      "taf": "TAF LIPQ 111100Z 1112/1212 VRB05KT CAVOK"
    },
    {
      "icao": "LIPR",
      "alert": "OK",
      "vis_m": 9999,
      "fzfg": false,
      "metar_trigger": false,
      "taf_trigger": false,
      "metar": "METAR LIPR 111550Z 17003KT CAVOK 04/M00 Q1020",
      "taf": "TAF LIPR 111100Z 1112/1212 VRB05KT 9999 FEW040"
    },
    {
      "icao": "LIPX",
      "alert": "OK",
      "vis_m": 9999,
      "fzfg": false,
      "metar_trigger": false,
      "taf_trigger": false,
      "metar": "METAR LIPX 111550Z 09005KT CAVOK 07/M02 Q1020",
      "taf": "TAF LIPX 111100Z 1112/1212 VRB05KT CAVOK"
    },
    {
      "icao": "LIPY",
      "alert": "OK",
      "vis_m": 9999,
      "fzfg": false,
      "metar_trigger": false,
      "taf_trigger": false,
      "metar": "METAR LIPY 111550Z AUTO 18003KT 9999 FEW055/// 06/01 Q1021",
      "taf": "TAF LIPY 111100Z 1112/1212 VRB05KT 9999 SCT030"
    },
    {
      "icao": "LIPZ",
      "alert": "OK",
      "vis_m": 9999,
      "fzfg": false,
      "metar_trigger": false,
      "taf_trigger": false,
      "metar": "METAR LIPZ 111550Z 18002KT 9999 SCT030 05/01 Q1021 NOSIG",
      "taf": "TAF LIPZ 111100Z 1112/1218 VRB06KT CAVOK"
    },
    {
      "icao": "LIRF",
      "alert": "OK",
      "vis_m": 9999,
      "fzfg": false,
      "metar_trigger": false,
      "taf_trigger": false,
      "metar": "METAR LIRF 111550Z 35006KT CAVOK 10/01 Q1018 NOSIG",
      "taf": "TAF LIRF 111100Z 1112/1218 02009KT CAVOK"
    },
    {
      "icao": "LIRN",
      "alert": "OK",
      "vis_m": 9999,
      "fzfg": false,
      "metar_trigger": false,
      "taf_trigger": false,
      "metar": "METAR LIRN 111550Z 06008KT 030V090 CAVOK 08/M01 Q1017 NOSIG",
      "taf": "TAF LIRN 111100Z 1112/1212 03012KT 9999 SCT030"
    },
    {
      "icao": "LIRP",
      "alert": "OK",
      "vis_m": 9999,
      "fzfg": false,
      "metar_trigger": false,
      "taf_trigger": false,
      "metar": "METAR LIRP 111545Z VRB02KT CAVOK 11/M01 Q1020 NOSIG",
      "taf": "TAF LIRP 111100Z 1112/1212 12005KT CAVOK"
    },
    {
      "icao": "LIRZ",
      "alert": "OK",
      "vis_m": 9999,
      "fzfg": false,
      "metar_trigger": false,
      "taf_trigger": false,
      "metar": "METAR LIRZ 111550Z AUTO 01006KT 9999 SCT064/// 05/M01 Q1019",
      "taf": "TAF LIRZ 111100Z 1112/1212 02013KT 9999 FEW030"
    },
    {
      "icao": "LJLJ",
      "alert": "OK",
      "vis_m": 9999,
      "fzfg": false,
      "metar_trigger": false,
      "taf_trigger": false,
      "metar": "METAR LJLJ 111530Z VRB01KT CAVOK M06/M07 Q1020 NOSIG",
      "taf": "TAF LJLJ 111100Z 1112/1212 11008KT 9999 SCT010 BKN018"
    },
    {
      "icao": "LKMT",
      "alert": "OK",
      "vis_m": 9000,
      "fzfg": false,
      "metar_trigger": false,
      "taf_trigger": false,
      "metar": "METAR LKMT 111530Z 22009KT 9000 -SN SCT011 OVC028 M05/M07 Q1017 TEMPO 4000 SN",
      "taf": ""
    },
    {
      "icao": "LKPR",
      "alert": "OK",
      "vis_m": 9999,
      "fzfg": false,
      "metar_trigger": false,
      "taf_trigger": false,
      "metar": "METAR LKPR 111530Z 25013KT 9999 DRSN NSC M06/M14 Q1021 NOSIG",
      "taf": "TAF LKPR 111400Z 1115/1221 28012KT CAVOK"
    },
    {
      "icao": "LLBG",
      "alert": "OK",
      "vis_m": 9999,
      "fzfg": false,
      "metar_trigger": false,
      "taf_trigger": false,
      "metar": "METAR LLBG 111550Z VRB02KT CAVOK 16/10 Q1016 NOSIG",
      "taf": "TAF LLBG 111116Z 1112/1212 25010KT CAVOK"
    },
    {
      "icao": "LMML",
      "alert": "OK",
      "vis_m": 9999,
      "fzfg": false,
      "metar_trigger": false,
      "taf_trigger": false,
      "metar": "METAR LMML 111545Z 30016KT 9999 SCT025 11/06 Q1016 NOSIG",
      "taf": "TAF LMML 111100Z 1112/1212 30021G32KT 9999 FEW020"
    },
    {
      "icao": "LOWW",
      "alert": "OK",
      "vis_m": 9999,
      "fzfg": false,
      "metar_trigger": false,
      "taf_trigger": false,
      "metar": "METAR LOWW 111550Z 30019KT CAVOK M03/M11 Q1020 NOSIG",
      "taf": "TAF LOWW 111415Z 1115/1221 30015KT CAVOK TXM03/1115Z TNM08/1207Z"
    },
    {
      "icao": "LPFR",
      "alert": "OK",
      "vis_m": 9999,
      "fzfg": false,
      "metar_trigger": false,
      "taf_trigger": false,
      "metar": "METAR LPFR 111530Z 18006KT 150V210 9999 FEW020 15/10 Q1026",
      "taf": "TAF LPFR 111106Z 1112/1212 VRB05KT CAVOK"
    },
    {
      "icao": "LPMA",
      "alert": "OK",
      "vis_m": 9999,
      "fzfg": false,
      "metar_trigger": false,
      "taf_trigger": false,
      "metar": "METAR LPMA 111530Z 04006KT 320V090 9999 SCT013 18/13 Q1025",
      "taf": "TAF LPMA 111106Z 1112/1212 VRB05KT 9999 SCT015"
    },
    {
      "icao": "LPPR",
      "alert": "OK",
      "vis_m": 9999,
      "fzfg": false,
      "metar_trigger": false,
      "taf_trigger": false,
      "metar": "METAR LPPR 111530Z 18014KT 9999 SCT005 BKN007 14/13 Q1023",
      "taf": "TAF LPPR 111106Z 1112/1212 18013KT 9999 SCT006 BKN015"
    },
    {
      "icao": "LPPS",
      "alert": "OK",
      "vis_m": 9999,
      "fzfg": false,
      "metar_trigger": false,
      "taf_trigger": false,
      "metar": "METAR LPPS 111530Z 01004KT 320V060 9999 FEW015 SCT030 18/12 Q1025",
      "taf": "TAF LPPS 111106Z 1112/1218 VRB05KT 9999 SCT015"
    },
    {
      "icao": "LPPT",
      "alert": "OK",
      "vis_m": 9999,
      "fzfg": false,
      "metar_trigger": false,
      "taf_trigger": false,
      "metar": "METAR LPPT 111530Z 21012KT 9999 FEW008 BKN012 14/13 Q1025",
      "taf": ""
    },
    {
      "icao": "LQBK",
      "alert": "OK",
      "vis_m": 9999,
      "fzfg": false,
      "metar_trigger": false,
      "taf_trigger": false,
      "metar": "METAR LQBK 111530Z 22002KT CAVOK M03/M07 Q1021 NOSIG",
      "taf": "TAF LQBK 111100Z 1112/1212 30006KT CAVOK TXM01/1112Z TNM12/1206Z"
    },
    {
      "icao": "LQSA",
      "alert": "OK",
      "vis_m": 9999,
      "fzfg": false,
      "metar_trigger": false,
      "taf_trigger": false,
      "metar": "METAR LQSA 111530Z 32004KT 290V020 9999 -SN FEW030 BKN050 M05/M07 Q1018 NOSIG",
      "taf": "TAF LQSA 111100Z 1112/1212 29006KT 9999 BKN030 TXM04/1212Z TNM14/1206Z"
    },
    {
      "icao": "LQTZ",
      "alert": "OK",
      "vis_m": 9999,
      "fzfg": false,
      "metar_trigger": false,
      "taf_trigger": false,
      "metar": "METAR LQTZ 111530Z 31004KT 9999 SCT028 BKN036 M02/M06 Q1020",
      "taf": "TAF LQTZ 111100Z 1112/1212 34007KT 9999 BKN030 TXM02/1113Z TNM13/1206Z"
    },
    {
      "icao": "LRBC",
      "alert": "OK",
      "vis_m": 9999,
      "fzfg": false,
      "metar_trigger": false,
      "taf_trigger": false,
      "metar": "METAR LRBC 111530Z 28004KT 240V340 CAVOK M04/M12 Q1010",
      "taf": "TAF LRBC 111400Z 1115/1124 VRB04KT CAVOK"
    },
    {
      "icao": "LRBS",
      "alert": "OK",
      "vis_m": 6000,
      "fzfg": false,
      "metar_trigger": false,
      "taf_trigger": false,
      "metar": "METAR LRBS 111530Z 20003KT 170V230 6000 SCT013 BKN027 M04/M06 Q1014 TEMPO 5000 BR",
      "taf": "TAF LRBS 111100Z 1112/1212 07008KT 5000 BR BKN035"
    },
    {
      "icao": "LRBV",
      "alert": "OK",
      "vis_m": 9999,
      "fzfg": false,
      "metar_trigger": false,
      "taf_trigger": false,
      "metar": "METAR LRBV 111530Z 29003KT 9999 FEW027 SCT034 BKN043 M07/M11 Q1012",
      "taf": "TAF LRBV 111400Z 1115/1124 30015KT 9999 BKN025 BKN050"
    },
    {
      "icao": "LRCL",
      "alert": "OK",
      "vis_m": 9999,
      "fzfg": false,
      "metar_trigger": false,
      "taf_trigger": false,
      "metar": "METAR LRCL 111530Z 10007KT 9999 OVC067 M05/M09 Q1013",
      "taf": "TAF LRCL 111400Z 1115/1124 VRB04KT 9999 OVC045"
    },
    {
      "icao": "LRCV",
      "alert": "OK",
      "vis_m": 4800,
      "fzfg": false,
      "metar_trigger": false,
      "taf_trigger": false,
      "metar": "METAR LRCV 111530Z 22004KT 190V260 4800 BR NSC M03/M03 Q1013",
      "taf": "TAF LRCV 111400Z 1115/1124 VRB04KT 3000 BR BKN005 OVC025"
    },
    {
      "icao": "LRIA",
      "alert": "OK",
      "vis_m": 9999,
      "fzfg": false,
      "metar_trigger": false,
      "taf_trigger": false,
      "metar": "METAR LRIA 111530Z VRB02KT CAVOK M04/M09 Q1010",
      "taf": "TAF LRIA 111400Z 1115/1124 30006KT CAVOK"
    },
    {
      "icao": "LROP",
      "alert": "OK",
      "vis_m": 5000,
      "fzfg": false,
      "metar_trigger": false,
      "taf_trigger": false,
      "metar": "METAR LROP 111530Z 26003KT 5000 BR NSC M04/M05 Q1014 TEMPO 3000 BR",
      "taf": "TAF LROP 111100Z 1112/1212 07008KT 5000 BR BKN035"
    },
    {
      "icao": "LRSB",
      "alert": "OK",
      "vis_m": 9999,
      "fzfg": false,
      "metar_trigger": false,
      "taf_trigger": false,
      "metar": "METAR LRSB 111530Z 16003KT 9999 FEW031 OVC047 M05/M09 Q1013",
      "taf": "TAF LRSB 111100Z 1112/1212 35008KT 9999 BKN025 OVC040"
    },
    {
      "icao": "LRSM",
      "alert": "OK",
      "vis_m": 9999,
      "fzfg": false,
      "metar_trigger": false,
      "taf_trigger": false,
      "metar": "METAR LRSM 111530Z 26006KT CAVOK M07/M10 Q1015",
      "taf": "TAF LRSM 111400Z 1115/1124 27014KT 9999 BKN040"
    },
    {
      "icao": "LRSV",
      "alert": "OK",
      "vis_m": 9999,
      "fzfg": false,
      "metar_trigger": false,
      "taf_trigger": false,
      "metar": "METAR LRSV 111530Z 28011KT CAVOK M04/M12 Q1007",
      "taf": "TAF LRSV 111400Z 1115/1124 26008KT CAVOK"
    },
    {
      "icao": "LRTM",
      "alert": "OK",
      "vis_m": 9999,
      "fzfg": false,
      "metar_trigger": false,
      "taf_trigger": false,
      "metar": "METAR LRTM 111530Z VRB01KT 9999 SCT044 M05/M09 Q1013",
      "taf": "TAF LRTM 111400Z 1115/1124 VRB04KT 9999 OVC045"
    },
    {
      "icao": "LRTR",
      "alert": "OK",
      "vis_m": 9999,
      "fzfg": false,
      "metar_trigger": false,
      "taf_trigger": false,
      "metar": "METAR LRTR 111530Z 17003KT 9999 OVC027 M05/M07 Q1018",
      "taf": "TAF LRTR 111100Z 1112/1212 28010KT CAVOK"
    },
    {
      "icao": "LTAC",
      "alert": "OK",
      "vis_m": 3600,
      "fzfg": false,
      "metar_trigger": false,
      "taf_trigger": false,
      "metar": "METAR LTAC 111550Z 00000KT 3600 -SN BR SCT009 BKN020 BKN080 00/M00 Q1005 NOSIG",
      "taf": "TAF LTAC 111040Z 1112/1212 VRB02KT 6000 SCT035 BKN090"
    },
    {
      "icao": "LTFM",
      "alert": "OK",
      "vis_m": 7000,
      "fzfg": false,
      "metar_trigger": false,
      "taf_trigger": false,
      "metar": "METAR LTFM 111550Z 02022KT 7000 -RA BKN012 BKN020 04/02 Q1009 NOSIG",
      "taf": "TAF LTFM 111040Z 1112/1218 03015KT 9999 -RA BKN012 BKN020"
    },
    {
      "icao": "LUKK",
      "alert": "OK",
      "vis_m": 9999,
      "fzfg": false,
      "metar_trigger": false,
      "taf_trigger": false,
      "metar": "METAR LUKK 111530Z 26005KT CAVOK M07/M11 Q1010 NOSIG",
      "taf": "TAF LUKK 111116Z 1112/1212 28009KT CAVOK"
    },
    {
      "icao": "LWOH",
      "alert": "OK",
      "vis_m": 9999,
      "fzfg": false,
      "metar_trigger": false,
      "taf_trigger": false,
      "metar": "METAR LWOH 111550Z 31009KT 9999 FEW015 SCT040 M02/M05 Q1010",
      "taf": "TAF LWOH 111140Z 1112/1212 36010KT 9999 SCT050"
    },
    {
      "icao": "LWSK",
      "alert": "OK",
      "vis_m": 9999,
      "fzfg": false,
      "metar_trigger": false,
      "taf_trigger": false,
      "metar": "METAR LWSK 111550Z 01016KT 9999 BKN045 M02/M08 Q1016 NOSIG",
      "taf": "TAF LWSK 111455Z 1115/1215 01015KT 9999 BKN045"
    },
    {
      "icao": "LYBE",
      "alert": "OK",
      "vis_m": 9999,
      "fzfg": false,
      "metar_trigger": false,
      "taf_trigger": false,
      "metar": "METAR LYBE 111530Z 29013KT 9999 BKN033 M03/M06 Q1019 NOSIG",
      "taf": "TAF LYBE 111100Z 1112/1212 28015KT 9999 BKN020 TXM02/1212Z TNM10/1206Z"
    },
    {
      "icao": "LYNI",
      "alert": "OK",
      "vis_m": 9999,
      "fzfg": false,
      "metar_trigger": false,
      "taf_trigger": false,
      "metar": "METAR LYNI 111530Z 31006KT 280V350 9999 FEW017 BKN030 M04/M06 Q1018 NOSIG",
      "taf": "TAF LYNI 111100Z 1112/1212 32010KT 9999 SCT015 BKN025 TXM02/1212Z TNM07/1206Z"
    },
    {
      "icao": "LYPG",
      "alert": "OK",
      "vis_m": 9999,
      "fzfg": false,
      "metar_trigger": false,
      "taf_trigger": false,
      "metar": "METAR LYPG 111530Z 36019G29KT 9999 FEW040 02/M12 Q1015 NOSIG",
      "taf": "TAF LYPG 111100Z 1112/1212 36015G25KT CAVOK TX08/1112Z TNM01/1205Z"
    },
    {
      "icao": "LZIB",
      "alert": "OK",
      "vis_m": 9999,
      "fzfg": false,
      "metar_trigger": false,
      "taf_trigger": false,
      "metar": "METAR LZIB 111530Z 29014KT CAVOK M02/M11 Q1019 NOSIG",
      "taf": "TAF LZIB 111115Z 1112/1212 29015KT 9999 SCT030"
    },
    {
      "icao": "LZKZ",
      "alert": "OK",
      "vis_m": 9999,
      "fzfg": false,
      "metar_trigger": false,
      "taf_trigger": false,
      "metar": "METAR LZKZ 111530Z VRB01KT 9999 FEW041 M05/M09 Q1013 NOSIG",
      "taf": "TAF LZKZ 111115Z 1112/1212 23005KT 9999 SCT045"
    },
    {
      "icao": "LZTT",
      "alert": "OK",
      "vis_m": 9999,
      "fzfg": false,
      "metar_trigger": false,
      "taf_trigger": false,
      "metar": "METAR LZTT 111530Z 27021KT 9999 -SN DRSN FEW011 BKN050 M06/M10 Q1009 NOSIG",
      "taf": "TAF LZTT 111115Z 1112/1212 25012KT 9999 -SN DRSN FEW013 OVC040"
    },
    {
      "icao": "OEJN",
      "alert": "OK",
      "vis_m": 9999,
      "fzfg": false,
      "metar_trigger": false,
      "taf_trigger": false,
      "metar": "METAR OEJN 111500Z 25006KT CAVOK 27/16 Q1013 NOSIG",
      "taf": "TAF OEJN 111100Z 1112/1218 22010KT 7000 FEW040"
    },
    {
      "icao": "OEMA",
      "alert": "OK",
      "vis_m": 9999,
      "fzfg": false,
      "metar_trigger": false,
      "taf_trigger": false,
      "metar": "METAR OEMA 111500Z 01004KT CAVOK 25/01 Q1018 NOSIG",
      "taf": "TAF OEMA 111100Z 1112/1218 12012KT 7000 NSC"
    },
    {
      "icao": "OJAI",
      "alert": "OK",
      "vis_m": 5000,
      "fzfg": false,
      "metar_trigger": false,
      "taf_trigger": false,
      "metar": "METAR OJAI 111500Z 20006KT 5000 HZ NSC 14/06 Q1017 NOSIG",
      "taf": "TAF OJAI 111047Z 1112/1218 24012KT 5000HZ"
    },
    {
      "icao": "OMAA",
      "alert": "OK",
      "vis_m": 9999,
      "fzfg": false,
      "metar_trigger": false,
      "taf_trigger": false,
      "metar": "METAR OMAA 111500Z 32007KT CAVOK 21/14 Q1021 NOSIG",
      "taf": "TAF OMAA 111100Z 1112/1218 33012KT 8000 NSC"
    },
    {
      "icao": "OMDB",
      "alert": "OK",
      "vis_m": 9999,
      "fzfg": false,
      "metar_trigger": false,
      "taf_trigger": false,
      "metar": "METAR OMDB 111530Z 33007KT CAVOK 23/12 Q1021 NOSIG",
      "taf": "TAF OMDB 111100Z 1112/1218 30010KT 8000 NSC"
    },
    {
      "icao": "UAAA",
      "alert": "OK",
      "vis_m": 800,
      "fzfg": false,
      "metar_trigger": false,
      "taf_trigger": false,
      "metar": "METAR UAAA 111530Z 16002MPS 0800 R05R/P2000N BR FU BKN200 M01/M04 Q1020 NOSIG",
      "taf": "TAF UAAA 111103Z 1112/1212 21002MPS 1200 BR FU SCT050 BKN100 TX07/1209Z TNM04/1201Z"
    },
    {
      "icao": "UBBB",
      "alert": "OK",
      "vis_m": 9999,
      "fzfg": false,
      "metar_trigger": false,
      "taf_trigger": false,
      "metar": "METAR UBBB 111530Z 19022G32KT CAVOK 11/05 Q1011 NOSIG",
      "taf": "TAF UBBB 111054Z 1112/1212 19024G34KT 9999 SCT030 TX11/1112Z TN05/1202Z"
    },
    {
      "icao": "UDSG",
      "alert": "OK",
      "vis_m": 9999,
      "fzfg": false,
      "metar_trigger": false,
      "taf_trigger": false,
      "metar": "METAR UDSG 111530Z 34003KT 9999 BKN043 M01/M05 Q1020 NOSIG",
      "taf": "TAF UDSG 111058Z 1112/1212 VRB06KT 9999 SCT040"
    },
    {
      "icao": "UDYZ",
      "alert": "OK",
      "vis_m": 3500,
      "fzfg": false,
      "metar_trigger": false,
      "taf_trigger": false,
      "metar": "METAR UDYZ 111530Z 05003KT 3500 BR SCT046 00/M02 Q1021 NOSIG",
      "taf": "TAF UDYZ 111100Z 1112/1212 VRB06KT 3500 BR SCT040"
    },
    {
      "icao": "UGKO",
      "alert": "OK",
      "vis_m": 9999,
      "fzfg": false,
      "metar_trigger": false,
      "taf_trigger": false,
      "metar": "METAR UGKO 111530Z 09020G30KT CAVOK 12/M02 Q1010 NOSIG",
      "taf": "TAF UGKO 111100Z 1112/1212 08012KT CAVOK TX14/1212Z TN09/1202Z"
    }
  ]
}