{
  "ts_utc": "2026-04-22T19:59:58Z",
  "threshold_m": 150,
  "source": "stations_override.txt (ICAO list) + aviationweather.gov (METAR/TAF raw)",
  "station_count": 159,
  "stations": [
    {
      "icao": "BIKF",
      "alert": "OK",
      "vis_m": 9999,
      "fzfg": false,
      "metar_trigger": false,
      "taf_trigger": false,
      "metar": "METAR BIKF 221930Z 33011KT 9999 OVC017 07/03 Q1032",
      "taf": "TAF BIKF 221923Z 2221/2321 32010KT 9999 BKN012 TX07/2315Z TN04/2306Z"
    },
    {
      "icao": "BKPR",
      "alert": "OK",
      "vis_m": null,
      "fzfg": false,
      "metar_trigger": false,
      "taf_trigger": false,
      "metar": "",
      "taf": "TAF BKPR 221730Z 2218/2318 32008KT 9999 SCT030 BKN080"
    },
    {
      "icao": "EBCI",
      "alert": "OK",
      "vis_m": 9999,
      "fzfg": false,
      "metar_trigger": false,
      "taf_trigger": false,
      "metar": "METAR EBCI 221950Z 06008KT CAVOK 12/00 Q1025 NOSIG",
      "taf": "TAF EBCI 221720Z 2218/2324 06006KT CAVOK"
    },
    {
      "icao": "EDDB",
      "alert": "OK",
      "vis_m": 9999,
      "fzfg": false,
      "metar_trigger": false,
      "taf_trigger": false,
      "metar": "METAR EDDB 221950Z AUTO 31007KT CAVOK 12/01 Q1023 NOSIG",
      "taf": "TAF EDDB 221700Z 2218/2318 29010KT CAVOK"
    },
    {
      "icao": "EDDH",
      "alert": "OK",
      "vis_m": 9999,
      "fzfg": false,
      "metar_trigger": false,
      "taf_trigger": false,
      "metar": "METAR EDDH 221950Z AUTO 29009KT CAVOK 09/05 Q1026 NOSIG",
      "taf": "TAF EDDH 221700Z 2218/2324 30008KT CAVOK"
    },
    {
      "icao": "EDDK",
      "alert": "OK",
      "vis_m": 9999,
      "fzfg": false,
      "metar_trigger": false,
      "taf_trigger": false,
      "metar": "METAR EDDK 221950Z AUTO 05007KT CAVOK 12/01 Q1026 NOSIG",
      "taf": "TAF EDDK 221700Z 2218/2324 04007KT CAVOK"
    },
    {
      "icao": "EDDN",
      "alert": "OK",
      "vis_m": 9999,
      "fzfg": false,
      "metar_trigger": false,
      "taf_trigger": false,
      "metar": "METAR EDDN 221950Z AUTO 05004KT CAVOK 10/M01 Q1025 NOSIG",
      "taf": "TAF EDDN 221700Z 2218/2318 02007KT CAVOK"
    },
    {
      "icao": "EDDS",
      "alert": "OK",
      "vis_m": 9999,
      "fzfg": false,
      "metar_trigger": false,
      "taf_trigger": false,
      "metar": "METAR EDDS 221950Z AUTO 04004KT CAVOK 09/M01 Q1024 NOSIG",
      "taf": "TAF EDDS 221700Z 2218/2318 06008KT CAVOK"
    },
    {
      "icao": "EDFH",
      "alert": "OK",
      "vis_m": 9999,
      "fzfg": false,
      "metar_trigger": false,
      "taf_trigger": false,
      "metar": "METAR EDFH 221950Z 09003KT 040V150 CAVOK 09/M01 Q1025",
      "taf": "TAF EDFH 221700Z 2218/2318 08009KT CAVOK"
    },
    {
      "icao": "EDJA",
      "alert": "OK",
      "vis_m": 9999,
      "fzfg": false,
      "metar_trigger": false,
      "taf_trigger": false,
      "metar": "METAR EDJA 221950Z 06007KT CAVOK 06/M04 Q1023",
      "taf": "TAF EDJA 221700Z 2218/2303 06010KT CAVOK"
    },
    {
      "icao": "EDLW",
      "alert": "OK",
      "vis_m": 9999,
      "fzfg": false,
      "metar_trigger": false,
      "taf_trigger": false,
      "metar": "METAR EDLW 221950Z 06004KT CAVOK 11/M01 Q1026",
      "taf": "TAF EDLW 221700Z 2218/2318 06005KT CAVOK"
    },
    {
      "icao": "EDNY",
      "alert": "OK",
      "vis_m": 9999,
      "fzfg": false,
      "metar_trigger": false,
      "taf_trigger": false,
      "metar": "METAR EDNY 221950Z 03009KT CAVOK 11/M03 Q1023",
      "taf": "TAF EDNY 221700Z 2218/2303 04013KT CAVOK"
    },
    {
      "icao": "EDSB",
      "alert": "OK",
      "vis_m": 9999,
      "fzfg": false,
      "metar_trigger": false,
      "taf_trigger": false,
      "metar": "METAR EDSB 221950Z 04008KT CAVOK 10/M01 Q1024",
      "taf": "TAF EDSB 221700Z 2218/2318 04012KT CAVOK"
    },
    {
      "icao": "EETN",
      "alert": "OK",
      "vis_m": 9999,
      "fzfg": false,
      "metar_trigger": false,
      "taf_trigger": false,
      "metar": "METAR EETN 221950Z 31014KT 9999 -RA NSC 08/02 Q1005 NOSIG",
      "taf": "TAF EETN 221730Z 2218/2318 33015G26KT 9999 SCT040"
    },
    {
      "icao": "EFTU",
      "alert": "OK",
      "vis_m": 9999,
      "fzfg": false,
      "metar_trigger": false,
      "taf_trigger": false,
      "metar": "METAR EFTU 221950Z AUTO 31007KT 280V350 CAVOK 06/01 Q1009",
      "taf": "TAF EFTU 221733Z 2218/2318 32012KT CAVOK"
    },
    {
      "icao": "EGBB",
      "alert": "OK",
      "vis_m": 9999,
      "fzfg": false,
      "metar_trigger": false,
      "taf_trigger": false,
      "metar": "METAR EGBB 221950Z 06009KT 030V090 CAVOK 10/03 Q1028",
      "taf": "TAF EGBB 221700Z 2218/2318 07012KT CAVOK"
    },
    {
      "icao": "EGGP",
      "alert": "OK",
      "vis_m": 9999,
      "fzfg": false,
      "metar_trigger": false,
      "taf_trigger": false,
      "metar": "METAR EGGP 221950Z 09015KT CAVOK 10/M00 Q1028",
      "taf": "TAF EGGP 221656Z 2218/2318 09015KT CAVOK"
    },
    {
      "icao": "EGGW",
      "alert": "OK",
      "vis_m": 9999,
      "fzfg": false,
      "metar_trigger": false,
      "taf_trigger": false,
      "metar": "METAR EGGW 221950Z AUTO 07009KT 9999 NCD 08/01 Q1027",
      "taf": "TAF EGGW 221657Z 2218/2318 07008KT 9999 FEW040"
    },
    {
      "icao": "EGKK",
      "alert": "OK",
      "vis_m": 9999,
      "fzfg": false,
      "metar_trigger": false,
      "taf_trigger": false,
      "metar": "METAR EGKK 221950Z 07008KT CAVOK 09/04 Q1026",
      "taf": "TAF EGKK 221701Z 2218/2324 07014KT 9999 FEW045"
    },
    {
      "icao": "EGNM",
      "alert": "OK",
      "vis_m": 9999,
      "fzfg": false,
      "metar_trigger": false,
      "taf_trigger": false,
      "metar": "METAR EGNM 221950Z 06005KT 9999 FEW013 05/03 Q1030",
      "taf": "TAF EGNM 221657Z 2218/2318 07009KT 9999 FEW035"
    },
    {
      "icao": "EGPD",
      "alert": "OK",
      "vis_m": 9999,
      "fzfg": false,
      "metar_trigger": false,
      "taf_trigger": false,
      "metar": "METAR EGPD 221950Z COR AUTO 10003KT 090V150 9999 BKN017 04/01 Q1034 NOSIG",
      "taf": "TAF EGPD 221657Z 2218/2318 09007KT 9999 FEW020"
    },
    {
      "icao": "EGPF",
      "alert": "OK",
      "vis_m": 9999,
      "fzfg": false,
      "metar_trigger": false,
      "taf_trigger": false,
      "metar": "METAR EGPF 221950Z AUTO 07012KT 9999 NCD 07/03 Q1032",
      "taf": "TAF EGPF 221654Z 2218/2318 08014KT 9999 FEW030"
    },
    {
      "icao": "EHBK",
      "alert": "OK",
      "vis_m": 9999,
      "fzfg": false,
      "metar_trigger": false,
      "taf_trigger": false,
      "metar": "METAR EHBK 221955Z AUTO 04005KT 9999 NCD 11/M00 Q1026 NOSIG",
      "taf": "TAF EHBK 221717Z 2218/2324 05010KT CAVOK"
    },
    {
      "icao": "EHEH",
      "alert": "OK",
      "vis_m": 9999,
      "fzfg": false,
      "metar_trigger": false,
      "taf_trigger": false,
      "metar": "METAR EHEH 221925Z AUTO 03003KT 9999 NCD 12/00 Q1026 BLU NOSIG RMK TREND REMOTE BY EHWX",
      "taf": "TAF EHEH 221808Z 2218/2400 05008KT CAVOK"
    },
    {
      "icao": "EKBI",
      "alert": "OK",
      "vis_m": 9999,
      "fzfg": false,
      "metar_trigger": false,
      "taf_trigger": false,
      "metar": "METAR EKBI 221950Z AUTO 28016KT 9999 BKN008/// 06/05 Q1025",
      "taf": "TAF EKBI 221727Z 2218/2318 29010KT 9999 SCT006"
    },
    {
      "icao": "EKCH",
      "alert": "OK",
      "vis_m": 9999,
      "fzfg": false,
      "metar_trigger": false,
      "taf_trigger": false,
      "metar": "METAR EKCH 221950Z AUTO 30010KT 270V330 9999 NCD 12/01 Q1021 NOSIG",
      "taf": "TAF EKCH 221727Z 2218/2318 31012KT CAVOK"
    },
    {
      "icao": "ENAL",
      "alert": "OK",
      "vis_m": 9999,
      "fzfg": false,
      "metar_trigger": false,
      "taf_trigger": false,
      "metar": "METAR ENAL 221950Z 28009KT 250V310 9999 BKN019 07/04 Q1030",
      "taf": "TAF ENAL 221700Z 2218/2303 25012KT 9999 FEW010 BKN020"
    },
    {
      "icao": "ENBR",
      "alert": "OK",
      "vis_m": 9999,
      "fzfg": false,
      "metar_trigger": false,
      "taf_trigger": false,
      "metar": "METAR ENBR 221950Z 33010KT CAVOK 08/03 Q1028 RMK WIND 1200FT 34017KT",
      "taf": "TAF ENBR 221700Z 2218/2318 33009KT 9999 FEW012"
    },
    {
      "icao": "ENGM",
      "alert": "OK",
      "vis_m": 9999,
      "fzfg": false,
      "metar_trigger": false,
      "taf_trigger": false,
      "metar": "METAR ENGM 221950Z 35008KT CAVOK 11/M00 Q1022 NOSIG",
      "taf": "TAF ENGM 221700Z 2218/2318 36008KT CAVOK"
    },
    {
      "icao": "ENHD",
      "alert": "OK",
      "vis_m": 9999,
      "fzfg": false,
      "metar_trigger": false,
      "taf_trigger": false,
      "metar": "METAR ENHD 221950Z 34018KT CAVOK 07/05 Q1028",
      "taf": "TAF ENHD 221400Z 2215/2222 34020KT CAVOK"
    },
    {
      "icao": "ENTC",
      "alert": "OK",
      "vis_m": 9999,
      "fzfg": false,
      "metar_trigger": false,
      "taf_trigger": false,
      "metar": "METAR ENTC 221950Z 36006KT 330V030 9999 BKN028 03/M01 Q1017 NOSIG RMK WIND 2600FT 32022KT",
      "taf": "TAF ENTC 221700Z 2218/2318 34008KT 9999 -SHRA FEW020 BKN035"
    },
    {
      "icao": "ENTO",
      "alert": "OK",
      "vis_m": 9999,
      "fzfg": false,
      "metar_trigger": false,
      "taf_trigger": false,
      "metar": "METAR ENTO 221950Z VRB02KT CAVOK 12/04 Q1021",
      "taf": "TAF ENTO 221700Z 2218/2318 34005KT CAVOK"
    },
    {
      "icao": "ENVA",
      "alert": "OK",
      "vis_m": 7000,
      "fzfg": false,
      "metar_trigger": false,
      "taf_trigger": false,
      "metar": "METAR ENVA 221950Z 27019KT 7000 -DZ SCT005 OVC010 07/06 Q1025 RMK WIND 670FT 28021KT",
      "taf": ""
    },
    {
      "icao": "ENZV",
      "alert": "OK",
      "vis_m": 9999,
      "fzfg": false,
      "metar_trigger": false,
      "taf_trigger": false,
      "metar": "METAR ENZV 221950Z 33015KT CAVOK 08/05 Q1028",
      "taf": "TAF ENZV 221700Z 2218/2318 34015KT 9999 FEW012"
    },
    {
      "icao": "EPGD",
      "alert": "OK",
      "vis_m": 9999,
      "fzfg": false,
      "metar_trigger": false,
      "taf_trigger": false,
      "metar": "METAR EPGD 221930Z 28005KT CAVOK 09/01 Q1016",
      "taf": "TAF EPGD 221730Z 2218/2318 30010KT CAVOK"
    },
    {
      "icao": "EPKK",
      "alert": "OK",
      "vis_m": 9999,
      "fzfg": false,
      "metar_trigger": false,
      "taf_trigger": false,
      "metar": "METAR EPKK 221930Z 27006KT CAVOK 06/M03 Q1019",
      "taf": "TAF EPKK 221730Z 2218/2318 31012KT CAVOK"
    },
    {
      "icao": "EPKT",
      "alert": "OK",
      "vis_m": 9999,
      "fzfg": false,
      "metar_trigger": false,
      "taf_trigger": false,
      "metar": "METAR EPKT 221930Z 25005KT CAVOK 04/M04 Q1019",
      "taf": "TAF EPKT 221730Z 2218/2318 34010KT CAVOK"
    },
    {
      "icao": "EPLB",
      "alert": "OK",
      "vis_m": 9999,
      "fzfg": false,
      "metar_trigger": false,
      "taf_trigger": false,
      "metar": "METAR EPLB 221930Z 28006KT CAVOK 09/M02 Q1014",
      "taf": "TAF EPLB 221730Z 2218/2318 27008KT CAVOK"
    },
    {
      "icao": "EPMO",
      "alert": "OK",
      "vis_m": 9999,
      "fzfg": false,
      "metar_trigger": false,
      "taf_trigger": false,
      "metar": "METAR EPMO 221930Z 29006KT CAVOK 10/M00 Q1015",
      "taf": "TAF EPMO 221730Z 2218/2318 29008KT CAVOK"
    },
    {
      "icao": "EPPO",
      "alert": "OK",
      "vis_m": 9999,
      "fzfg": false,
      "metar_trigger": false,
      "taf_trigger": false,
      "metar": "METAR EPPO 221930Z 31006KT CAVOK 11/M00 Q1020",
      "taf": "TAF EPPO 221730Z 2218/2318 33010KT CAVOK"
    },
    {
      "icao": "EPRA",
      "alert": "OK",
      "vis_m": 9999,
      "fzfg": false,
      "metar_trigger": false,
      "taf_trigger": false,
      "metar": "METAR EPRA 221930Z 28009KT CAVOK 11/M03 Q1015",
      "taf": "TAF EPRA 221730Z 2218/2303 32010KT CAVOK"
    },
    {
      "icao": "EPRZ",
      "alert": "OK",
      "vis_m": 9999,
      "fzfg": false,
      "metar_trigger": false,
      "taf_trigger": false,
      "metar": "METAR EPRZ 221930Z 27008KT CAVOK 09/M03 Q1016",
      "taf": "TAF EPRZ 221730Z 2218/2318 27010KT CAVOK"
    },
    {
      "icao": "EPSC",
      "alert": "OK",
      "vis_m": 9999,
      "fzfg": false,
      "metar_trigger": false,
      "taf_trigger": false,
      "metar": "METAR EPSC 221930Z 28008KT CAVOK 11/01 Q1021",
      "taf": "TAF EPSC 221730Z 2218/2318 30012KT CAVOK"
    },
    {
      "icao": "EPSY",
      "alert": "OK",
      "vis_m": 9999,
      "fzfg": false,
      "metar_trigger": false,
      "taf_trigger": false,
      "metar": "METAR EPSY 221930Z 31009KT 260V350 CAVOK 10/M01 Q1014",
      "taf": "TAF EPSY 221730Z 2218/2303 30008KT CAVOK"
    },
    {
      "icao": "EPWA",
      "alert": "OK",
      "vis_m": 9999,
      "fzfg": false,
      "metar_trigger": false,
      "taf_trigger": false,
      "metar": "METAR EPWA 221930Z 26005KT CAVOK 11/M01 Q1015 NOSIG",
      "taf": "TAF EPWA 221730Z 2218/2318 29008KT CAVOK"
    },
    {
      "icao": "EPWR",
      "alert": "OK",
      "vis_m": 9999,
      "fzfg": false,
      "metar_trigger": false,
      "taf_trigger": false,
      "metar": "METAR EPWR 221930Z 28010KT CAVOK 11/01 Q1020",
      "taf": "TAF EPWR 221730Z 2218/2318 31011KT CAVOK"
    },
    {
      "icao": "ESGG",
      "alert": "OK",
      "vis_m": 9999,
      "fzfg": false,
      "metar_trigger": false,
      "taf_trigger": false,
      "metar": "METAR ESGG 221950Z 27003KT CAVOK 07/00 Q1020",
      "taf": "TAF ESGG 221730Z 2218/2318 30005KT CAVOK"
    },
    {
      "icao": "ESKN",
      "alert": "OK",
      "vis_m": 9999,
      "fzfg": false,
      "metar_trigger": false,
      "taf_trigger": false,
      "metar": "METAR ESKN 221950Z 29011KT CAVOK 10/01 Q1015",
      "taf": "TAF ESKN 221730Z 2218/2318 29010KT CAVOK"
    },
    {
      "icao": "ESMS",
      "alert": "OK",
      "vis_m": 9999,
      "fzfg": false,
      "metar_trigger": false,
      "taf_trigger": false,
      "metar": "METAR ESMS 221950Z 31010KT CAVOK 11/M01 Q1020",
      "taf": "TAF ESMS 221727Z 2218/2318 31012KT CAVOK"
    },
    {
      "icao": "ESSA",
      "alert": "OK",
      "vis_m": 9999,
      "fzfg": false,
      "metar_trigger": false,
      "taf_trigger": false,
      "metar": "METAR ESSA 221950Z 01012KT CAVOK 10/01 Q1015 NOSIG",
      "taf": "TAF ESSA 221730Z 2218/2318 36012KT CAVOK"
    },
    {
      "icao": "EYKA",
      "alert": "OK",
      "vis_m": 9999,
      "fzfg": false,
      "metar_trigger": false,
      "taf_trigger": false,
      "metar": "METAR EYKA 221950Z 34008KT 290V040 CAVOK 09/M01 Q1009",
      "taf": "TAF EYKA 221700Z 2218/2318 31012KT 9000 NSC"
    },
    {
      "icao": "EYPA",
      "alert": "OK",
      "vis_m": 9999,
      "fzfg": false,
      "metar_trigger": false,
      "taf_trigger": false,
      "metar": "METAR EYPA 221950Z VRB02KT CAVOK 04/03 Q1014",
      "taf": "TAF EYPA 221700Z 2218/2318 VRB04KT 9000 NSC"
    },
    {
      "icao": "EYVI",
      "alert": "OK",
      "vis_m": 9999,
      "fzfg": false,
      "metar_trigger": false,
      "taf_trigger": false,
      "metar": "METAR EYVI 221950Z 31012G22KT CAVOK 10/M01 Q1007 NOSIG",
      "taf": "TAF EYVI 221700Z 2218/2318 31012KT 9000 NSC"
    },
    {
      "icao": "GCFV",
      "alert": "OK",
      "vis_m": 9999,
      "fzfg": false,
      "metar_trigger": false,
      "taf_trigger": false,
      "metar": "METAR GCFV 221930Z 15006KT 120V180 9999 SCT038 20/14 Q1014",
      "taf": "TAF GCFV 221400Z 2215/2315 07007KT 9999 BKN040 TX22/2314Z TN15/2306Z"
    },
    {
      "icao": "GCLP",
      "alert": "OK",
      "vis_m": 9999,
      "fzfg": false,
      "metar_trigger": false,
      "taf_trigger": false,
      "metar": "METAR GCLP 221930Z 05004KT 9999 BKN035 19/14 Q1014 NOSIG",
      "taf": "TAF GCLP 221400Z 2215/2315 06005KT 9999 BKN035 TX22/2314Z TN16/2306Z"
    },
    {
      "icao": "GCTS",
      "alert": "OK",
      "vis_m": 9999,
      "fzfg": false,
      "metar_trigger": false,
      "taf_trigger": false,
      "metar": "METAR GCTS 221930Z 07009KT 9999 SCT035 19/13 Q1014 NOSIG",
      "taf": ""
    },
    {
      "icao": "GMAD",
      "alert": "OK",
      "vis_m": 8000,
      "fzfg": false,
      "metar_trigger": false,
      "taf_trigger": false,
      "metar": "METAR GMAD 221930Z 23012KT 8000 NSC 18/15 Q1012 NOSIG",
      "taf": "TAF GMAD 221700Z 2218/2324 20010KT 8000 NSC"
    },
    {
      "icao": "GMMN",
      "alert": "OK",
      "vis_m": 9999,
      "fzfg": false,
      "metar_trigger": false,
      "taf_trigger": false,
      "metar": "METAR GMMN 221930Z 35007KT 9999 SCT013 17/14 Q1013 NOSIG",
      "taf": "TAF GMMN 221700Z 2218/2324 36012KT CAVOK"
    },
    {
      "icao": "GMMX",
      "alert": "OK",
      "vis_m": 8000,
      "fzfg": false,
      "metar_trigger": false,
      "taf_trigger": false,
      "metar": "METAR GMMX 221930Z 26009KT 8000 SCT030 23/14 Q1011 NOSIG",
      "taf": "TAF GMMX 221700Z 2218/2324 06006KT 9999 FEW030"
    },
    {
      "icao": "HEGN",
      "alert": "OK",
      "vis_m": 9999,
      "fzfg": false,
      "metar_trigger": false,
      "taf_trigger": false,
      "metar": "METAR HEGN 221900Z 31010KT CAVOK 24/05 Q1010 NOSIG",
      "taf": "TAF HEGN 221700Z 2218/2324 30015KT CAVOK"
    },
    {
      "icao": "HEMA",
      "alert": "OK",
      "vis_m": 9999,
      "fzfg": false,
      "metar_trigger": false,
      "taf_trigger": false,
      "metar": "METAR HEMA 221900Z 32010KT CAVOK 24/04 Q1008 NOSIG",
      "taf": "TAF HEMA 221700Z 2218/2324 31015KT CAVOK"
    },
    {
      "icao": "HESH",
      "alert": "OK",
      "vis_m": 9999,
      "fzfg": false,
      "metar_trigger": false,
      "taf_trigger": false,
      "metar": "METAR HESH 221900Z 34006KT CAVOK 26/02 Q1008 NOSIG",
      "taf": "TAF HESH 221700Z 2218/2324 34010KT CAVOK"
    },
    {
      "icao": "HESX",
      "alert": "OK",
      "vis_m": 9999,
      "fzfg": false,
      "metar_trigger": false,
      "taf_trigger": false,
      "metar": "METAR HESX 221900Z 03006KT CAVOK 19/10 Q1014 NOSIG",
      "taf": "TAF HESX 221700Z 2218/2324 01012KT CAVOK"
    },
    {
      "icao": "LATI",
      "alert": "OK",
      "vis_m": 9999,
      "fzfg": false,
      "metar_trigger": false,
      "taf_trigger": false,
      "metar": "METAR LATI 221950Z 33007KT 9999 FEW047 12/06 Q1014 NOSIG",
      "taf": "TAF LATI 221700Z 2218/2318 VRB05KT 9999 FEW040 SCT070 TX22/2312Z TN07/2304Z"
    },
    {
      "icao": "LBPD",
      "alert": "OK",
      "vis_m": 9999,
      "fzfg": false,
      "metar_trigger": false,
      "taf_trigger": false,
      "metar": "METAR LBPD 221930Z AUTO 24005KT 210V280 9999 -RA OVC038/// 09/09 Q1016",
      "taf": "TAF LBPD 221700Z 2218/2318 VRB03KT 9999 SCT030 OVC050"
    },
    {
      "icao": "LBSF",
      "alert": "OK",
      "vis_m": 9999,
      "fzfg": false,
      "metar_trigger": false,
      "taf_trigger": false,
      "metar": "METAR LBSF 221930Z AUTO VRB02KT 9999 SCT062/// 07/03 Q1015 NOSIG",
      "taf": "TAF LBSF 221700Z 2218/2318 VRB03KT 9999 SCT050"
    },
    {
      "icao": "LBWN",
      "alert": "OK",
      "vis_m": 9999,
      "fzfg": false,
      "metar_trigger": false,
      "taf_trigger": false,
      "metar": "METAR LBWN 221930Z AUTO 34003KT 290V010 9999 NSC 07/07 Q1016 NOSIG",
      "taf": "TAF LBWN 221700Z 2218/2318 VRB04KT 9999 SCT020 BKN045"
    },
    {
      "icao": "LCLK",
      "alert": "OK",
      "vis_m": 9999,
      "fzfg": false,
      "metar_trigger": false,
      "taf_trigger": false,
      "metar": "METAR LCLK 221930Z 30004KT CAVOK 15/13 Q1014 NOSIG",
      "taf": "TAF LCLK 221730Z 2218/2318 30006KT 9999 FEW018"
    },
    {
      "icao": "LCPH",
      "alert": "OK",
      "vis_m": 9999,
      "fzfg": false,
      "metar_trigger": false,
      "taf_trigger": false,
      "metar": "METAR LCPH 221930Z 02006KT 9999 FEW020 15/12 Q1014 NOSIG",
      "taf": "TAF LCPH 221730Z 2218/2318 34009KT 9999 FEW018"
    },
    {
      "icao": "LEAL",
      "alert": "OK",
      "vis_m": 9999,
      "fzfg": false,
      "metar_trigger": false,
      "taf_trigger": false,
      "metar": "METAR LEAL 221930Z VRB01KT CAVOK 20/13 Q1013 NOSIG",
      "taf": "TAF LEAL 221700Z 2218/2318 VRB03KT 9999 FEW015 TX25/2312Z TN13/2306Z"
    },
    {
      "icao": "LEBB",
      "alert": "OK",
      "vis_m": 9999,
      "fzfg": false,
      "metar_trigger": false,
      "taf_trigger": false,
      "metar": "METAR LEBB 221930Z VRB02KT 9999 OVC050 16/08 Q1018 NOSIG",
      "taf": "TAF LEBB 221700Z 2218/2318 12008KT 9999 SCT040 TX28/2314Z TN10/2306Z"
    },
    {
      "icao": "LEBL",
      "alert": "OK",
      "vis_m": 9999,
      "fzfg": false,
      "metar_trigger": false,
      "taf_trigger": false,
      "metar": "METAR LEBL 221930Z 08014KT 9999 FEW011 SCT042 17/15 Q1016 NOSIG",
      "taf": "TAF LEBL 221700Z 2218/2318 06012KT 9999 FEW010 TX20/2312Z TN14/2305Z"
    },
    {
      "icao": "LECH",
      "alert": "OK",
      "vis_m": 5000,
      "fzfg": false,
      "metar_trigger": false,
      "taf_trigger": false,
      "metar": "METAR LECH 221930Z AUTO 10008KT 060V130 5000 BR BKN001 16/15 Q1015",
      "taf": "TAF LECH 221700Z 2218/2318 10007KT 9999 SCT010 TX22/2313Z TN11/2306Z"
    },
    {
      "icao": "LEMD",
      "alert": "OK",
      "vis_m": 9999,
      "fzfg": false,
      "metar_trigger": false,
      "taf_trigger": false,
      "metar": "METAR LEMD 221930Z 28005KT CAVOK 21/05 Q1014 NOSIG",
      "taf": "TAF LEMD 221700Z 2218/2324 VRB04KT CAVOK TX30/2316Z TN11/2306Z"
    },
    {
      "icao": "LEMG",
      "alert": "OK",
      "vis_m": 9999,
      "fzfg": false,
      "metar_trigger": false,
      "taf_trigger": false,
      "metar": "METAR LEMG 221930Z 12004KT CAVOK 17/14 Q1012 NOSIG",
      "taf": "TAF LEMG 221700Z 2218/2318 VRB03KT CAVOK TX24/2314Z TN14/2306Z"
    },
    {
      "icao": "LEVC",
      "alert": "OK",
      "vis_m": 9999,
      "fzfg": false,
      "metar_trigger": false,
      "taf_trigger": false,
      "metar": "METAR LEVC 221930Z 07007KT 030V100 9999 FEW060 20/12 Q1013 NOSIG",
      "taf": "TAF LEVC 221700Z 2218/2318 07009KT 9999 FEW015 TX22/2312Z TN14/2306Z"
    },
    {
      "icao": "LEXJ",
      "alert": "OK",
      "vis_m": 9999,
      "fzfg": false,
      "metar_trigger": false,
      "taf_trigger": false,
      "metar": "METAR LEXJ 221930Z 32003KT 290V350 9999 SCT055 15/10 Q1017",
      "taf": "TAF LEXJ 221400Z 2215/2315 30008KT 9999 SCT040 TX24/2313Z TN11/2306Z"
    },
    {
      "icao": "LEZG",
      "alert": "OK",
      "vis_m": 9999,
      "fzfg": false,
      "metar_trigger": false,
      "taf_trigger": false,
      "metar": "METAR LEZG 221930Z 28005KT 240V310 CAVOK 24/09 Q1012 NOSIG",
      "taf": "TAF LEZG 221700Z 2218/2318 28010KT CAVOK TX24/2315Z TN14/2306Z"
    },
    {
      "icao": "LEZL",
      "alert": "OK",
      "vis_m": 9999,
      "fzfg": false,
      "metar_trigger": false,
      "taf_trigger": false,
      "metar": "METAR LEZL 221930Z 35003KT CAVOK 24/13 Q1011 NOSIG",
      "taf": "TAF LEZL 221400Z 2215/2315 25005KT 9999 FEW045 TX25/2215Z TN13/2306Z"
    },
    {
      "icao": "LFBD",
      "alert": "OK",
      "vis_m": 9999,
      "fzfg": false,
      "metar_trigger": false,
      "taf_trigger": false,
      "metar": "METAR LFBD 221930Z AUTO 23008KT CAVOK 15/12 Q1016 NOSIG",
      "taf": "TAF LFBD 221700Z 2218/2324 24010KT CAVOK TX27/2314Z TN13/2305Z"
    },
    {
      "icao": "LFLL",
      "alert": "OK",
      "vis_m": 9999,
      "fzfg": false,
      "metar_trigger": false,
      "taf_trigger": false,
      "metar": "METAR LFLL 221930Z 24003KT 190V350 CAVOK 16/07 Q1018 NOSIG",
      "taf": "TAF LFLL 221700Z 2218/2324 VRB03KT CAVOK"
    },
    {
      "icao": "LFLS",
      "alert": "OK",
      "vis_m": 9999,
      "fzfg": false,
      "metar_trigger": false,
      "taf_trigger": false,
      "metar": "METAR LFLS 221930Z AUTO 27004KT 9999 BKN045 BKN054 OVC066 13/09 Q1019 NOSIG",
      "taf": "TAF LFLS 221400Z 2215/2315 22006KT 9999 SCT040"
    },
    {
      "icao": "LFMN",
      "alert": "OK",
      "vis_m": 9999,
      "fzfg": false,
      "metar_trigger": false,
      "taf_trigger": false,
      "metar": "METAR LFMN 221930Z 33006KT 300V010 9999 BKN083 SCT130 16/12 Q1019 NOSIG",
      "taf": "TAF LFMN 221400Z 2215/2321 11010KT 9999 SCT020 BKN040"
    },
    {
      "icao": "LFOB",
      "alert": "OK",
      "vis_m": 9999,
      "fzfg": false,
      "metar_trigger": false,
      "taf_trigger": false,
      "metar": "METAR LFOB 221930Z AUTO 06007KT CAVOK 07/03 Q1023 NOSIG",
      "taf": "TAF LFOB 221700Z 2218/2318 08015G27KT CAVOK"
    },
    {
      "icao": "LFPO",
      "alert": "OK",
      "vis_m": 9999,
      "fzfg": false,
      "metar_trigger": false,
      "taf_trigger": false,
      "metar": "METAR LFPO 221930Z 08009KT CAVOK 15/00 Q1022 NOSIG",
      "taf": "TAF LFPO 221700Z 2218/2324 07012G22KT CAVOK"
    },
    {
      "icao": "LFSB",
      "alert": "OK",
      "vis_m": 9999,
      "fzfg": false,
      "metar_trigger": false,
      "taf_trigger": false,
      "metar": "METAR LFSB 221930Z AUTO 10008KT CAVOK 14/M03 Q1022 NOSIG",
      "taf": "TAF LFSB 221700Z 2218/2318 10010KT CAVOK"
    },
    {
      "icao": "LGAV",
      "alert": "OK",
      "vis_m": 9999,
      "fzfg": false,
      "metar_trigger": false,
      "taf_trigger": false,
      "metar": "METAR LGAV 221950Z 01010KT 9999 FEW015 BKN025 13/10 Q1013 NOSIG",
      "taf": "TAF LGAV 221700Z 2218/2318 03015KT 9999 SCT015 BKN025"
    },
    {
      "icao": "LGTS",
      "alert": "OK",
      "vis_m": 8000,
      "fzfg": false,
      "metar_trigger": false,
      "taf_trigger": false,
      "metar": "METAR LGTS 221950Z VRB02KT 8000 -RA SCT005 BKN025 OVC050 11/11 Q1016 NOSIG",
      "taf": "TAF LGTS 221700Z 2218/2318 VRB03KT 9999 BKN030"
    },
    {
      "icao": "LHBP",
      "alert": "OK",
      "vis_m": 9999,
      "fzfg": false,
      "metar_trigger": false,
      "taf_trigger": false,
      "metar": "METAR LHBP 221930Z 31009KT CAVOK 11/M03 Q1018 NOSIG",
      "taf": "TAF LHBP 221715Z 2218/2318 31006KT CAVOK"
    },
    {
      "icao": "LHDC",
      "alert": "OK",
      "vis_m": 9999,
      "fzfg": false,
      "metar_trigger": false,
      "taf_trigger": false,
      "metar": "METAR LHDC 221915Z AUTO 31004KT CAVOK 10/M04 Q1017",
      "taf": "TAF LHDC 221415Z 2215/2224 36008KT CAVOK"
    },
    {
      "icao": "LIBD",
      "alert": "OK",
      "vis_m": 9999,
      "fzfg": false,
      "metar_trigger": false,
      "taf_trigger": false,
      "metar": "METAR LIBD 221950Z 32011KT 9999 FEW030 14/08 Q1016",
      "taf": "TAF LIBD 221700Z 2218/2318 34013KT 9999 SCT040"
    },
    {
      "icao": "LIBG",
      "alert": "OK",
      "vis_m": null,
      "fzfg": false,
      "metar_trigger": false,
      "taf_trigger": false,
      "metar": "",
      "taf": "TAF LIBG 221400Z 2215/2224 35012KT 9999 SCT030"
    },
    {
      "icao": "LIBP",
      "alert": "OK",
      "vis_m": 9999,
      "fzfg": false,
      "metar_trigger": false,
      "taf_trigger": false,
      "metar": "METAR LIBP 221950Z AUTO 22006KT 9999 NCD 10/08 Q1020",
      "taf": "TAF LIBP 221700Z 2218/2318 35010KT 9999 SCT030"
    },
    {
      "icao": "LIBR",
      "alert": "OK",
      "vis_m": 9999,
      "fzfg": false,
      "metar_trigger": false,
      "taf_trigger": false,
      "metar": "METAR LIBR 221950Z 34013KT 9999 FEW035 15/08 Q1015",
      "taf": "TAF LIBR 221700Z 2218/2318 33013KT 9999 SCT040"
    },
    {
      "icao": "LICA",
      "alert": "OK",
      "vis_m": 9999,
      "fzfg": false,
      "metar_trigger": false,
      "taf_trigger": false,
      "metar": "METAR LICA 221950Z AUTO 05013KT 9999 BKN100/// 16/11 Q1014",
      "taf": "TAF LICA 221700Z 2218/2318 08012KT 9999 FEW070"
    },
    {
      "icao": "LICC",
      "alert": "OK",
      "vis_m": 9999,
      "fzfg": false,
      "metar_trigger": false,
      "taf_trigger": false,
      "metar": "METAR LICC 221950Z 06008KT 9999 FEW015 17/14 Q1015",
      "taf": "TAF LICC 221700Z 2218/2318 VRB05KT 9999 SCT020"
    },
    {
      "icao": "LICJ",
      "alert": "OK",
      "vis_m": 9999,
      "fzfg": false,
      "metar_trigger": false,
      "taf_trigger": false,
      "metar": "METAR LICJ 221950Z 06014KT CAVOK 18/15 Q1014",
      "taf": "TAF LICJ 221700Z 2218/2318 05015KT CAVOK"
    },
    {
      "icao": "LIMC",
      "alert": "OK",
      "vis_m": 9999,
      "fzfg": false,
      "metar_trigger": false,
      "taf_trigger": false,
      "metar": "METAR LIMC 221950Z 10002KT CAVOK 10/08 Q1020 NOSIG",
      "taf": "TAF LIMC 221700Z 2218/2324 VRB05KT 9999 BKN040"
    },
    {
      "icao": "LIME",
      "alert": "OK",
      "vis_m": 9999,
      "fzfg": false,
      "metar_trigger": false,
      "taf_trigger": false,
      "metar": "METAR LIME 221950Z 04003KT 9999 BKN060 13/07 Q1021 NOSIG",
      "taf": "TAF LIME 221700Z 2218/2318 VRB05KT 9999 SCT050"
    },
    {
      "icao": "LIMF",
      "alert": "OK",
      "vis_m": 9999,
      "fzfg": false,
      "metar_trigger": false,
      "taf_trigger": false,
      "metar": "METAR LIMF 221950Z 21005KT 9999 SCT060 14/07 Q1020",
      "taf": "TAF LIMF 221700Z 2218/2318 VRB05KT 9999 SCT030"
    },
    {
      "icao": "LIMJ",
      "alert": "OK",
      "vis_m": 9999,
      "fzfg": false,
      "metar_trigger": false,
      "taf_trigger": false,
      "metar": "METAR LIMJ 221950Z 05009KT 350V060 CAVOK 17/06 Q1019",
      "taf": "TAF LIMJ 221700Z 2218/2318 34012KT 9999 SCT030"
    },
    {
      "icao": "LIPE",
      "alert": "OK",
      "vis_m": 9999,
      "fzfg": false,
      "metar_trigger": false,
      "taf_trigger": false,
      "metar": "METAR LIPE 221950Z 11004KT CAVOK 09/03 Q1021",
      "taf": "TAF LIPE 221700Z 2218/2318 VRB05KT 9999 FEW040"
    },
    {
      "icao": "LIPH",
      "alert": "OK",
      "vis_m": 9999,
      "fzfg": false,
      "metar_trigger": false,
      "taf_trigger": false,
      "metar": "METAR LIPH 221950Z VRB01KT CAVOK 11/01 Q1021",
      "taf": "TAF LIPH 221700Z 2218/2318 VRB05KT 9999 FEW050"
    },
    {
      "icao": "LIPQ",
      "alert": "OK",
      "vis_m": 9999,
      "fzfg": false,
      "metar_trigger": false,
      "taf_trigger": false,
      "metar": "METAR LIPQ 221950Z AUTO VRB01KT 9999 NCD 10/03 Q1021",
      "taf": "TAF LIPQ 221700Z 2218/2318 08010KT 9999 SCT050"
    },
    {
      "icao": "LIPR",
      "alert": "OK",
      "vis_m": 9999,
      "fzfg": false,
      "metar_trigger": false,
      "taf_trigger": false,
      "metar": "METAR LIPR 221950Z 21003KT CAVOK 09/06 Q1021",
      "taf": "TAF LIPR 221700Z 2218/2318 07007KT CAVOK"
    },
    {
      "icao": "LIPX",
      "alert": "OK",
      "vis_m": 9999,
      "fzfg": false,
      "metar_trigger": false,
      "taf_trigger": false,
      "metar": "METAR LIPX 221950Z 11003KT CAVOK 11/04 Q1021",
      "taf": "TAF LIPX 221700Z 2218/2318 VRB05KT 9999 SCT070"
    },
    {
      "icao": "LIPY",
      "alert": "OK",
      "vis_m": 9999,
      "fzfg": false,
      "metar_trigger": false,
      "taf_trigger": false,
      "metar": "METAR LIPY 221950Z AUTO 02009KT 9999 FEW062/// 14/04 Q1020",
      "taf": "TAF LIPY 221700Z 2218/2318 02012KT CAVOK"
    },
    {
      "icao": "LIPZ",
      "alert": "OK",
      "vis_m": 9999,
      "fzfg": false,
      "metar_trigger": false,
      "taf_trigger": false,
      "metar": "METAR LIPZ 221950Z VRB01KT CAVOK 13/M02 Q1021 NOSIG",
      "taf": "TAF LIPZ 221700Z 2218/2324 11010KT 9999 FEW050"
    },
    {
      "icao": "LIRF",
      "alert": "OK",
      "vis_m": 9999,
      "fzfg": false,
      "metar_trigger": false,
      "taf_trigger": false,
      "metar": "METAR LIRF 221950Z 02010KT CAVOK 15/06 Q1015 NOSIG",
      "taf": "TAF LIRF 221700Z 2218/2324 03012KT 9999 FEW050"
    },
    {
      "icao": "LIRN",
      "alert": "OK",
      "vis_m": 9999,
      "fzfg": false,
      "metar_trigger": false,
      "taf_trigger": false,
      "metar": "METAR LIRN 221950Z 02009KT CAVOK 15/04 Q1016 NOSIG",
      "taf": "TAF LIRN 221700Z 2218/2318 04012KT 9999 SCT050"
    },
    {
      "icao": "LIRP",
      "alert": "OK",
      "vis_m": 9999,
      "fzfg": false,
      "metar_trigger": false,
      "taf_trigger": false,
      "metar": "METAR LIRP 221945Z 08005KT CAVOK 14/03 Q1019 NOSIG",
      "taf": "TAF LIRP 221700Z 2218/2318 09012KT 9999 FEW030 SCT050"
    },
    {
      "icao": "LIRZ",
      "alert": "OK",
      "vis_m": 9999,
      "fzfg": false,
      "metar_trigger": false,
      "taf_trigger": false,
      "metar": "METAR LIRZ 221950Z AUTO 02006KT 9999 NCD 09/02 Q1019",
      "taf": "TAF LIRZ 221700Z 2218/2318 02006KT 9999 FEW040"
    },
    {
      "icao": "LJLJ",
      "alert": "OK",
      "vis_m": 9999,
      "fzfg": false,
      "metar_trigger": false,
      "taf_trigger": false,
      "metar": "METAR LJLJ 221930Z 30002KT 9999 FEW075 05/01 Q1021 NOSIG",
      "taf": "TAF LJLJ 221700Z 2218/2318 14007KT 9999 FEW080"
    },
    {
      "icao": "LKMT",
      "alert": "OK",
      "vis_m": 9999,
      "fzfg": false,
      "metar_trigger": false,
      "taf_trigger": false,
      "metar": "METAR LKMT 221930Z 23006KT CAVOK 04/M02 Q1020 NOSIG",
      "taf": "TAF LKMT 221700Z 2218/2318 34013KT CAVOK"
    },
    {
      "icao": "LKPR",
      "alert": "OK",
      "vis_m": 9999,
      "fzfg": false,
      "metar_trigger": false,
      "taf_trigger": false,
      "metar": "METAR LKPR 221930Z 30007KT CAVOK 08/M01 Q1023 NOSIG",
      "taf": "TAF LKPR 221700Z 2218/2324 33008KT CAVOK"
    },
    {
      "icao": "LLBG",
      "alert": "OK",
      "vis_m": 9999,
      "fzfg": false,
      "metar_trigger": false,
      "taf_trigger": false,
      "metar": "METAR LLBG 221950Z VRB02KT CAVOK 17/12 Q1014 NOSIG",
      "taf": "TAF LLBG 221703Z 2218/2318 VRB04KT CAVOK TX25/2310Z TN11/2303Z"
    },
    {
      "icao": "LMML",
      "alert": "OK",
      "vis_m": 9000,
      "fzfg": false,
      "metar_trigger": false,
      "taf_trigger": false,
      "metar": "METAR LMML 221945Z 06009KT 9000 BKN006 18/16 Q1013 NOSIG",
      "taf": ""
    },
    {
      "icao": "LOWW",
      "alert": "OK",
      "vis_m": 9999,
      "fzfg": false,
      "metar_trigger": false,
      "taf_trigger": false,
      "metar": "METAR LOWW 221950Z 32010KT CAVOK 11/M02 Q1021 NOSIG",
      "taf": "TAF LOWW 221715Z 2218/2324 33015KT CAVOK TX18/2315Z TN07/2224Z"
    },
    {
      "icao": "LPFR",
      "alert": "OK",
      "vis_m": 9999,
      "fzfg": false,
      "metar_trigger": false,
      "taf_trigger": false,
      "metar": "METAR LPFR 221930Z 26009KT CAVOK 16/12 Q1013",
      "taf": "TAF LPFR 221700Z 2218/2318 25010KT CAVOK"
    },
    {
      "icao": "LPMA",
      "alert": "OK",
      "vis_m": 9999,
      "fzfg": false,
      "metar_trigger": false,
      "taf_trigger": false,
      "metar": "METAR LPMA 221930Z 35005KT 240V030 9999 FEW015 17/10 Q1011",
      "taf": "TAF LPMA 221700Z 2218/2318 21017KT 9999 SCT015"
    },
    {
      "icao": "LPPR",
      "alert": "OK",
      "vis_m": 9999,
      "fzfg": false,
      "metar_trigger": false,
      "taf_trigger": false,
      "metar": "METAR LPPR 221930Z 35005KT 330V040 CAVOK 14/11 Q1013",
      "taf": "TAF LPPR 221700Z 2218/2318 29007KT CAVOK"
    },
    {
      "icao": "LPPS",
      "alert": "OK",
      "vis_m": 9999,
      "fzfg": false,
      "metar_trigger": false,
      "taf_trigger": false,
      "metar": "METAR LPPS 221930Z 21005KT 9999 FEW015 17/11 Q1012",
      "taf": "TAF LPPS 221700Z 2218/2324 19012KT 9999 SCT015"
    },
    {
      "icao": "LPPT",
      "alert": "OK",
      "vis_m": 9999,
      "fzfg": false,
      "metar_trigger": false,
      "taf_trigger": false,
      "metar": "METAR LPPT 221930Z 31008KT CAVOK 15/10 Q1012",
      "taf": "TAF LPPT 221700Z 2218/2324 21007KT CAVOK"
    },
    {
      "icao": "LQBK",
      "alert": "OK",
      "vis_m": 9999,
      "fzfg": false,
      "metar_trigger": false,
      "taf_trigger": false,
      "metar": "METAR LQBK 221930Z 16005KT CAVOK 07/03 Q1021 NOSIG",
      "taf": "TAF LQBK 221700Z 2218/2318 15003KT CAVOK TX18/2314Z TN02/2304Z"
    },
    {
      "icao": "LQSA",
      "alert": "OK",
      "vis_m": 9999,
      "fzfg": false,
      "metar_trigger": false,
      "taf_trigger": false,
      "metar": "METAR LQSA 221930Z 00000KT 9999 SCT035 BKN055 06/05 Q1020 NOSIG",
      "taf": "TAF LQSA 221700Z 2218/2318 29005KT 9999 SCT060 TX14/2314Z TN01/2305Z"
    },
    {
      "icao": "LQTZ",
      "alert": "OK",
      "vis_m": 9999,
      "fzfg": false,
      "metar_trigger": false,
      "taf_trigger": false,
      "metar": "METAR LQTZ 221930Z 34001KT CAVOK 05/05 Q1021",
      "taf": "TAF LQTZ 221700Z 2218/2318 27005KT 9999 FEW050 TX15/2313Z TN01/2304Z"
    },
    {
      "icao": "LRBC",
      "alert": "OK",
      "vis_m": 9999,
      "fzfg": false,
      "metar_trigger": false,
      "taf_trigger": false,
      "metar": "METAR LRBC 221930Z VRB02KT CAVOK 06/M00 Q1016",
      "taf": "TAF LRBC 221700Z 2218/2303 34006KT CAVOK"
    },
    {
      "icao": "LRBS",
      "alert": "OK",
      "vis_m": 9999,
      "fzfg": false,
      "metar_trigger": false,
      "taf_trigger": false,
      "metar": "METAR LRBS 221930Z 05003KT 360V080 CAVOK 09/04 Q1017 NOSIG",
      "taf": "TAF LRBS 221700Z 2218/2318 06008KT 9999 SCT040"
    },
    {
      "icao": "LRBV",
      "alert": "OK",
      "vis_m": 9999,
      "fzfg": false,
      "metar_trigger": false,
      "taf_trigger": false,
      "metar": "METAR LRBV 221930Z 21006KT CAVOK 04/02 Q1016",
      "taf": "TAF LRBV 221700Z 2218/2303 VRB04KT 9999 SCT060"
    },
    {
      "icao": "LRCL",
      "alert": "OK",
      "vis_m": 9999,
      "fzfg": false,
      "metar_trigger": false,
      "taf_trigger": false,
      "metar": "METAR LRCL 221930Z 22003KT 180V260 CAVOK 07/M03 Q1016",
      "taf": "TAF LRCL 221700Z 2218/2303 34005KT CAVOK"
    },
    {
      "icao": "LRCV",
      "alert": "OK",
      "vis_m": 9999,
      "fzfg": false,
      "metar_trigger": false,
      "taf_trigger": false,
      "metar": "METAR LRCV 221930Z 07005KT CAVOK 07/06 Q1017",
      "taf": "TAF LRCV 221700Z 2218/2303 09008KT 9999 SCT045"
    },
    {
      "icao": "LRIA",
      "alert": "OK",
      "vis_m": 9999,
      "fzfg": false,
      "metar_trigger": false,
      "taf_trigger": false,
      "metar": "METAR LRIA 221930Z 22006KT CAVOK 08/M01 Q1015",
      "taf": "TAF LRIA 221700Z 2218/2303 VRB04KT CAVOK"
    },
    {
      "icao": "LROP",
      "alert": "OK",
      "vis_m": 9999,
      "fzfg": false,
      "metar_trigger": false,
      "taf_trigger": false,
      "metar": "METAR LROP 221930Z 05004KT 010V080 CAVOK 09/02 Q1017 NOSIG",
      "taf": "TAF LROP 221700Z 2218/2318 06008KT 9999 SCT040"
    },
    {
      "icao": "LRSB",
      "alert": "OK",
      "vis_m": 9999,
      "fzfg": false,
      "metar_trigger": false,
      "taf_trigger": false,
      "metar": "METAR LRSB 221930Z 27009KT 9999 SCT085 05/01 Q1016",
      "taf": "TAF LRSB 221700Z 2218/2318 VRB04KT 9999 SCT060"
    },
    {
      "icao": "LRSM",
      "alert": "OK",
      "vis_m": 9999,
      "fzfg": false,
      "metar_trigger": false,
      "taf_trigger": false,
      "metar": "METAR LRSM 221930Z AUTO 25006KT 9999 SCT095/// 06/M00 Q1016",
      "taf": "TAF LRSM 221400Z 2215/2224 30006KT CAVOK"
    },
    {
      "icao": "LRSV",
      "alert": "OK",
      "vis_m": 9999,
      "fzfg": false,
      "metar_trigger": false,
      "taf_trigger": false,
      "metar": "METAR LRSV 221930Z 24007KT CAVOK 06/M01 Q1014",
      "taf": "TAF LRSV 221700Z 2218/2303 30006KT 9999 SCT045"
    },
    {
      "icao": "LRTM",
      "alert": "OK",
      "vis_m": 9999,
      "fzfg": false,
      "metar_trigger": false,
      "taf_trigger": false,
      "metar": "METAR LRTM 221930Z 25004KT CAVOK 08/03 Q1016",
      "taf": "TAF LRTM 221700Z 2218/2303 33006KT 9999 SCT045"
    },
    {
      "icao": "LRTR",
      "alert": "OK",
      "vis_m": 9999,
      "fzfg": false,
      "metar_trigger": false,
      "taf_trigger": false,
      "metar": "METAR LRTR 221930Z 34007KT CAVOK 06/M00 Q1018",
      "taf": "TAF LRTR 221700Z 2218/2318 34006KT CAVOK"
    },
    {
      "icao": "LTAC",
      "alert": "OK",
      "vis_m": 9999,
      "fzfg": false,
      "metar_trigger": false,
      "taf_trigger": false,
      "metar": "METAR LTAC 221950Z 29007KT 9999 BKN030 BKN080 07/03 Q1012 NOSIG RMK RWY21C 25008KT RWY03L 27006KT RWY21R 24007KT RWY03R 24006KT RWY21L 27007KT",
      "taf": "TAF LTAC 221640Z 2218/2318 VRB02KT 9999 SCT040 BKN100"
    },
    {
      "icao": "LTFM",
      "alert": "OK",
      "vis_m": 9999,
      "fzfg": false,
      "metar_trigger": false,
      "taf_trigger": false,
      "metar": "METAR LTFM 221950Z 10007KT 9999 SCT017 SCT032 BKN120 09/06 Q1016 NOSIG RMK RWY17L 11006KT RWY34L 09008KT RWY16R 10007KT RWY36 10005KT 040V200 RWY18 11005KT",
      "taf": "TAF LTFM 221640Z 2218/2324 11007KT 9999 SCT017 SCT030 BKN120"
    },
    {
      "icao": "LUKK",
      "alert": "OK",
      "vis_m": 9999,
      "fzfg": false,
      "metar_trigger": false,
      "taf_trigger": false,
      "metar": "METAR LUKK 221930Z 27004KT CAVOK 08/M02 Q1014 NOSIG",
      "taf": "TAF LUKK 221703Z 2218/2318 33006KT CAVOK"
    },
    {
      "icao": "LWOH",
      "alert": "OK",
      "vis_m": 9999,
      "fzfg": false,
      "metar_trigger": false,
      "taf_trigger": false,
      "metar": "METAR LWOH 221850Z 34005KT 320V020 9999 -RA FEW020 BKN035 06/05 Q1015",
      "taf": "TAF LWOH 221730Z 2218/2318 33010KT 9999 FEW025 BKN045"
    },
    {
      "icao": "LWSK",
      "alert": "OK",
      "vis_m": 9999,
      "fzfg": false,
      "metar_trigger": false,
      "taf_trigger": false,
      "metar": "METAR LWSK 221950Z 23003KT 180V300 9999 SCT050 BKN100 11/05 Q1016 NOSIG",
      "taf": "TAF LWSK 221730Z 2218/2318 27006KT 9999 SCT050 OVC080"
    },
    {
      "icao": "LYBE",
      "alert": "OK",
      "vis_m": 9999,
      "fzfg": false,
      "metar_trigger": false,
      "taf_trigger": false,
      "metar": "METAR LYBE 221930Z 30006KT CAVOK 08/01 Q1019 NOSIG",
      "taf": "TAF LYBE 221700Z 2218/2318 28005KT CAVOK TX18/2313Z TN04/2304Z"
    },
    {
      "icao": "LYNI",
      "alert": "OK",
      "vis_m": 9999,
      "fzfg": false,
      "metar_trigger": false,
      "taf_trigger": false,
      "metar": "METAR LYNI 221930Z 32006KT CAVOK 10/M03 Q1017 NOSIG",
      "taf": "TAF LYNI 221700Z 2218/2318 32014KT CAVOK TX17/2313Z TN04/2304Z"
    },
    {
      "icao": "LYPG",
      "alert": "OK",
      "vis_m": 9999,
      "fzfg": false,
      "metar_trigger": false,
      "taf_trigger": false,
      "metar": "METAR LYPG 221930Z 02006KT 330V070 9999 -RA FEW040 BKN070 12/05 Q1017 NOSIG",
      "taf": ""
    },
    {
      "icao": "LZIB",
      "alert": "OK",
      "vis_m": 9999,
      "fzfg": false,
      "metar_trigger": false,
      "taf_trigger": false,
      "metar": "METAR LZIB 221930Z 30006KT CAVOK 10/M01 Q1020 NOSIG",
      "taf": "TAF LZIB 221715Z 2218/2318 35010KT CAVOK"
    },
    {
      "icao": "LZKZ",
      "alert": "OK",
      "vis_m": 9999,
      "fzfg": false,
      "metar_trigger": false,
      "taf_trigger": false,
      "metar": "METAR LZKZ 221930Z 33005KT CAVOK 10/M04 Q1018 NOSIG",
      "taf": "TAF LZKZ 221715Z 2218/2318 01007KT CAVOK"
    },
    {
      "icao": "LZTT",
      "alert": "OK",
      "vis_m": 9999,
      "fzfg": false,
      "metar_trigger": false,
      "taf_trigger": false,
      "metar": "METAR LZTT 221930Z 19003KT 9999 FEW063 04/M05 Q1017",
      "taf": "TAF LZTT 221715Z 2218/2318 26007KT 9999 SCT055"
    },
    {
      "icao": "OEJN",
      "alert": "OK",
      "vis_m": 9999,
      "fzfg": false,
      "metar_trigger": false,
      "taf_trigger": false,
      "metar": "METAR OEJN 221900Z 35008KT CAVOK 27/18 Q1006 NOSIG",
      "taf": "TAF OEJN 221700Z 2218/2324 01010KT 9999 FEW030"
    },
    {
      "icao": "OEMA",
      "alert": "OK",
      "vis_m": 9999,
      "fzfg": false,
      "metar_trigger": false,
      "taf_trigger": false,
      "metar": "METAR OEMA 221900Z 25007KT CAVOK 30/04 Q1010 NOSIG",
      "taf": "TAF OEMA 221700Z 2218/2324 28005KT 9999 FEW045"
    },
    {
      "icao": "OJAI",
      "alert": "OK",
      "vis_m": 5000,
      "fzfg": false,
      "metar_trigger": false,
      "taf_trigger": false,
      "metar": "METAR OJAI 221900Z 00000KT 5000 HZ NSC 12/00 Q1015 NOSIG",
      "taf": "TAF OJAI 221700Z 2218/2324 29008KT 5000 HZ NSC"
    },
    {
      "icao": "OMAA",
      "alert": "OK",
      "vis_m": null,
      "fzfg": false,
      "metar_trigger": false,
      "taf_trigger": false,
      "metar": "",
      "taf": ""
    },
    {
      "icao": "OMDB",
      "alert": "OK",
      "vis_m": null,
      "fzfg": false,
      "metar_trigger": false,
      "taf_trigger": false,
      "metar": "",
      "taf": ""
    },
    {
      "icao": "UAAA",
      "alert": "OK",
      "vis_m": 9999,
      "fzfg": false,
      "metar_trigger": false,
      "taf_trigger": false,
      "metar": "METAR UAAA 221930Z 21002MPS 9999 FEW100 BKN200 13/08 Q1006 NOSIG",
      "taf": "TAF UAAA 221701Z 2218/2318 21002G07MPS 9999 SCT050 BKN100 TX22/2309Z TN11/2301Z"
    },
    {
      "icao": "UBBB",
      "alert": "OK",
      "vis_m": 9999,
      "fzfg": false,
      "metar_trigger": false,
      "taf_trigger": false,
      "metar": "METAR UBBB 221930Z 17014KT CAVOK 13/12 Q1009 NOSIG",
      "taf": "TAF UBBB 221701Z 2218/2318 17014KT 9999 SCT015 TX14/2310Z TN09/2301Z"
    },
    {
      "icao": "UDSG",
      "alert": "OK",
      "vis_m": 9999,
      "fzfg": false,
      "metar_trigger": false,
      "taf_trigger": false,
      "metar": "METAR UDSG 221930Z 03006KT 9999 NSC 03/M00 Q1014 NOSIG",
      "taf": "TAF UDSG 221700Z 2218/2318 21006KT 9999 FEW050"
    },
    {
      "icao": "UDYZ",
      "alert": "OK",
      "vis_m": 9999,
      "fzfg": false,
      "metar_trigger": false,
      "taf_trigger": false,
      "metar": "METAR UDYZ 221930Z 11002KT 9999 SCT046 14/06 Q1012 NOSIG",
      "taf": "TAF UDYZ 221700Z 2218/2318 04006KT 9999 FEW040"
    },
    {
      "icao": "UGKO",
      "alert": "OK",
      "vis_m": 9999,
      "fzfg": false,
      "metar_trigger": false,
      "taf_trigger": false,
      "metar": "METAR UGKO 221930Z 22014KT 9999 SCT095 14/08 Q1009 NOSIG",
      "taf": "TAF UGKO 221700Z 2218/2318 27007KT 9999 BKN070 TX14/2312Z TN09/2301Z"
    }
  ]
}