{
  "ts_utc": "2026-03-28T09:58:43Z",
  "threshold_m": 150,
  "source": "stations_override.txt (ICAO list) + aviationweather.gov (METAR/TAF raw)",
  "station_count": 159,
  "stations": [
    {
      "icao": "BIKF",
      "alert": "OK",
      "vis_m": 9999,
      "fzfg": false,
      "metar_trigger": false,
      "taf_trigger": false,
      "metar": "METAR BIKF 280930Z 11006KT CAVOK M03/M07 Q1011",
      "taf": "TAF BIKF 280737Z 2809/2909 01007KT 9999 FEW035 TX03/2821Z TNM04/2809Z"
    },
    {
      "icao": "BKPR",
      "alert": "OK",
      "vis_m": null,
      "fzfg": false,
      "metar_trigger": false,
      "taf_trigger": false,
      "metar": "",
      "taf": "TAF BKPR 280530Z 2806/2906 34009KT 9999 BKN040"
    },
    {
      "icao": "EBCI",
      "alert": "OK",
      "vis_m": 9999,
      "fzfg": false,
      "metar_trigger": false,
      "taf_trigger": false,
      "metar": "METAR EBCI 280950Z 32009KT 270V360 9999 SCT019 08/02 Q1020 NOSIG",
      "taf": "TAF EBCI 280515Z 2806/2912 30009KT 9999 SCT016 BKN035"
    },
    {
      "icao": "EDDB",
      "alert": "OK",
      "vis_m": 9999,
      "fzfg": false,
      "metar_trigger": false,
      "taf_trigger": false,
      "metar": "METAR EDDB 280950Z AUTO 20010KT 160V250 CAVOK 09/M02 Q1017 NOSIG",
      "taf": "TAF EDDB 280500Z 2806/2906 18004KT CAVOK"
    },
    {
      "icao": "EDDH",
      "alert": "OK",
      "vis_m": 9999,
      "fzfg": false,
      "metar_trigger": false,
      "taf_trigger": false,
      "metar": "METAR EDDH 280950Z AUTO 24005KT 210V270 9999 BKN007 BKN012 07/06 Q1015 BECMG 30006KT BKN010",
      "taf": "TAF EDDH 280500Z 2806/2912 21009KT 9000 BKN015"
    },
    {
      "icao": "EDDK",
      "alert": "OK",
      "vis_m": 9999,
      "fzfg": false,
      "metar_trigger": false,
      "taf_trigger": false,
      "metar": "METAR EDDK 280950Z AUTO 28008KT 240V310 9999 -RA FEW008 BKN018 BKN027 06/05 Q1018 TEMPO RA BKN012",
      "taf": "TAF EDDK 280500Z 2806/2912 16006KT 9999 BKN020"
    },
    {
      "icao": "EDDN",
      "alert": "OK",
      "vis_m": 9999,
      "fzfg": false,
      "metar_trigger": false,
      "taf_trigger": false,
      "metar": "METAR EDDN 280950Z AUTO 25008KT 200V290 CAVOK 06/M06 Q1019 NOSIG",
      "taf": "TAF EDDN 280500Z 2806/2906 12006KT CAVOK"
    },
    {
      "icao": "EDDS",
      "alert": "OK",
      "vis_m": 9999,
      "fzfg": false,
      "metar_trigger": false,
      "taf_trigger": false,
      "metar": "METAR EDDS 280950Z AUTO 23008KT 170V280 CAVOK 06/M06 Q1019 NOSIG",
      "taf": "TAF EDDS 280500Z 2806/2906 VRB03KT CAVOK"
    },
    {
      "icao": "EDFH",
      "alert": "OK",
      "vis_m": 5000,
      "fzfg": false,
      "metar_trigger": false,
      "taf_trigger": false,
      "metar": "METAR EDFH 280950Z 25009KT 5000 -SN OVC002 01/00 Q1018",
      "taf": "TAF EDFH 280500Z 2806/2906 22007KT 9999 BKN020"
    },
    {
      "icao": "EDJA",
      "alert": "OK",
      "vis_m": 9999,
      "fzfg": false,
      "metar_trigger": false,
      "taf_trigger": false,
      "metar": "METAR EDJA 280950Z 22005KT 180V250 CAVOK 03/M05 Q1019",
      "taf": "TAF EDJA 280800Z 2809/2818 24007KT CAVOK"
    },
    {
      "icao": "EDLW",
      "alert": "OK",
      "vis_m": 8000,
      "fzfg": false,
      "metar_trigger": false,
      "taf_trigger": false,
      "metar": "METAR EDLW 280950Z 24004KT 210V280 8000 -RA SCT007 BKN009 OVC018 06/05 Q1017",
      "taf": "TAF EDLW 280500Z 2806/2906 19010KT 9999 BKN015"
    },
    {
      "icao": "EDNY",
      "alert": "OK",
      "vis_m": 9999,
      "fzfg": false,
      "metar_trigger": false,
      "taf_trigger": false,
      "metar": "METAR EDNY 280950Z VRB03KT CAVOK 04/M01 Q1020",
      "taf": "TAF EDNY 280800Z 2809/2818 23005KT CAVOK"
    },
    {
      "icao": "EDSB",
      "alert": "OK",
      "vis_m": 9999,
      "fzfg": false,
      "metar_trigger": false,
      "taf_trigger": false,
      "metar": "METAR EDSB 280950Z 21010KT 9999 BKN049 05/M03 Q1021",
      "taf": "TAF EDSB 280500Z 2806/2906 20005KT CAVOK"
    },
    {
      "icao": "EETN",
      "alert": "OK",
      "vis_m": 9999,
      "fzfg": false,
      "metar_trigger": false,
      "taf_trigger": false,
      "metar": "METAR EETN 280950Z 19014KT CAVOK 07/M01 Q1017 NOSIG",
      "taf": "TAF EETN 280530Z 2806/2906 20010KT CAVOK"
    },
    {
      "icao": "EFTU",
      "alert": "OK",
      "vis_m": 9999,
      "fzfg": false,
      "metar_trigger": false,
      "taf_trigger": false,
      "metar": "METAR EFTU 280950Z AUTO 20011KT 160V230 9999 OVC009 01/M01 Q1015",
      "taf": "TAF EFTU 280826Z 2809/2909 19008KT 9999 BKN004"
    },
    {
      "icao": "EGBB",
      "alert": "OK",
      "vis_m": 9999,
      "fzfg": false,
      "metar_trigger": false,
      "taf_trigger": false,
      "metar": "METAR EGBB 280950Z 30013KT 9999 SCT035 08/M00 Q1024",
      "taf": "TAF EGBB 280454Z 2806/2906 28009KT 9999 FEW025"
    },
    {
      "icao": "EGGP",
      "alert": "OK",
      "vis_m": 9999,
      "fzfg": false,
      "metar_trigger": false,
      "taf_trigger": false,
      "metar": "METAR EGGP 280950Z 28021G31KT 9999 SCT024 BKN032TCU 07/01 Q1024",
      "taf": "TAF EGGP 280645Z 2806/2906 29012KT 9999 FEW030"
    },
    {
      "icao": "EGGW",
      "alert": "OK",
      "vis_m": 9999,
      "fzfg": false,
      "metar_trigger": false,
      "taf_trigger": false,
      "metar": "METAR EGGW 280950Z AUTO 31017KT 9999 SCT036 08/M00 Q1023",
      "taf": "TAF EGGW 280504Z 2806/2906 30014KT 9999 FEW040"
    },
    {
      "icao": "EGKK",
      "alert": "OK",
      "vis_m": 9999,
      "fzfg": false,
      "metar_trigger": false,
      "taf_trigger": false,
      "metar": "METAR EGKK 280950Z 30016KT 9999 FEW038 08/M00 Q1024",
      "taf": "TAF EGKK 280502Z 2806/2912 31009KT 9999 FEW040"
    },
    {
      "icao": "EGNM",
      "alert": "OK",
      "vis_m": 9999,
      "fzfg": false,
      "metar_trigger": false,
      "taf_trigger": false,
      "metar": "METAR EGNM 280950Z 28020G30KT 9999 VCSH FEW025 SCT032 06/M00 Q1020",
      "taf": "TAF EGNM 280457Z 2806/2906 28012KT 9999 FEW025"
    },
    {
      "icao": "EGPD",
      "alert": "OK",
      "vis_m": 9999,
      "fzfg": false,
      "metar_trigger": false,
      "taf_trigger": false,
      "metar": "METAR EGPD 280950Z COR AUTO 28019KT 9999 SCT036 08/M01 Q1013 NOSIG",
      "taf": "TAF EGPD 280454Z 2806/2906 24012KT 9999 FEW025"
    },
    {
      "icao": "EGPF",
      "alert": "OK",
      "vis_m": 4700,
      "fzfg": false,
      "metar_trigger": false,
      "taf_trigger": false,
      "metar": "METAR EGPF 280950Z AUTO 29028G39KT 4700 RA FEW018/// SCT029/// BKN035/// //////TCU 06/02 Q1019",
      "taf": ""
    },
    {
      "icao": "EHBK",
      "alert": "OK",
      "vis_m": 9999,
      "fzfg": false,
      "metar_trigger": false,
      "taf_trigger": false,
      "metar": "METAR EHBK 280955Z AUTO 31006KT 260V010 9999 FEW011/// SCT013/// OVC015/// 07/05 Q1019 BECMG BKN020",
      "taf": "TAF EHBK 280458Z 2806/2912 22009KT 6000 -RADZ BKN006"
    },
    {
      "icao": "EHEH",
      "alert": "OK",
      "vis_m": 9999,
      "fzfg": false,
      "metar_trigger": false,
      "taf_trigger": false,
      "metar": "METAR EHEH 280925Z AUTO 32008KT 260V360 9999 SCT019 BKN022 BKN028 08/04 Q1019 WHT NOSIG RMK TREND REMOTE BY EHWX",
      "taf": "TAF EHEH 280552Z 2806/2912 25004KT 4500 BR -RADZ SCT002 BKN005"
    },
    {
      "icao": "EKBI",
      "alert": "OK",
      "vis_m": 9999,
      "fzfg": false,
      "metar_trigger": false,
      "taf_trigger": false,
      "metar": "METAR EKBI 280950Z AUTO 29009KT 9999 BKN015/// 07/04 Q1013",
      "taf": ""
    },
    {
      "icao": "EKCH",
      "alert": "OK",
      "vis_m": 4000,
      "fzfg": false,
      "metar_trigger": false,
      "taf_trigger": false,
      "metar": "METAR EKCH 280950Z 20009KT 4000 -RA BR OVC005 04/04 Q1013 TEMPO 6000",
      "taf": "TAF EKCH 280827Z 2809/2909 20012KT 9000 -RADZ BKN008"
    },
    {
      "icao": "ENAL",
      "alert": "OK",
      "vis_m": 9999,
      "fzfg": false,
      "metar_trigger": false,
      "taf_trigger": false,
      "metar": "METAR ENAL 280950Z 17014KT 9999 FEW054 07/M02 Q0998",
      "taf": "TAF ENAL 280800Z 2809/2818 20012KT 9999 -SHRA SCT050"
    },
    {
      "icao": "ENBR",
      "alert": "OK",
      "vis_m": 9999,
      "fzfg": false,
      "metar_trigger": false,
      "taf_trigger": false,
      "metar": "METAR ENBR 280950Z 16021KT 9999 FEW026CB SCT039 05/01 Q1004 TEMPO 4000 SHRA BKN008 SCT020CB RMK WIND 1200FT 17025KT",
      "taf": "TAF ENBR 280500Z 2806/2906 15015KT 9999 FEW005 BKN025"
    },
    {
      "icao": "ENGM",
      "alert": "OK",
      "vis_m": 9999,
      "fzfg": false,
      "metar_trigger": false,
      "taf_trigger": false,
      "metar": "METAR ENGM 280950Z 18008KT 140V210 9999 SCT010 05/01 Q1006 NOSIG",
      "taf": ""
    },
    {
      "icao": "ENHD",
      "alert": "OK",
      "vis_m": 9999,
      "fzfg": false,
      "metar_trigger": false,
      "taf_trigger": false,
      "metar": "METAR ENHD 280950Z 18014KT 9999 FEW030 SCT045 07/02 Q1006",
      "taf": "TAF ENHD 280800Z 2809/2818 19012KT 9999 FEW005"
    },
    {
      "icao": "ENTC",
      "alert": "OK",
      "vis_m": 9999,
      "fzfg": false,
      "metar_trigger": false,
      "taf_trigger": false,
      "metar": "METAR ENTC 280950Z 24008KT CAVOK 02/M08 Q1001 NOSIG RMK WIND 2600FT 19020KT",
      "taf": "TAF ENTC 280500Z 2806/2906 VRB03KT 9999 SCT060"
    },
    {
      "icao": "ENTO",
      "alert": "OK",
      "vis_m": 9999,
      "fzfg": false,
      "metar_trigger": false,
      "taf_trigger": false,
      "metar": "METAR ENTO 280950Z 22009KT 9999 SCT015 06/02 Q1008 NOSIG",
      "taf": "TAF ENTO 280500Z 2806/2906 21008KT 9999 FEW008"
    },
    {
      "icao": "ENVA",
      "alert": "OK",
      "vis_m": 9999,
      "fzfg": false,
      "metar_trigger": false,
      "taf_trigger": false,
      "metar": "METAR ENVA 280950Z 13004KT 080V160 CAVOK 09/M03 Q1001 NOSIG RMK WIND 670FT 16006KT",
      "taf": "TAF ENVA 280500Z 2806/2906 10008KT CAVOK"
    },
    {
      "icao": "ENZV",
      "alert": "OK",
      "vis_m": 9999,
      "fzfg": false,
      "metar_trigger": false,
      "taf_trigger": false,
      "metar": "METAR ENZV 280950Z 20014KT 9999 SCT022 SCT027 07/02 Q1007 NOSIG",
      "taf": "TAF ENZV 280500Z 2806/2906 20008KT 9999 SCT030"
    },
    {
      "icao": "EPGD",
      "alert": "OK",
      "vis_m": 9999,
      "fzfg": false,
      "metar_trigger": false,
      "taf_trigger": false,
      "metar": "METAR EPGD 280930Z 26005KT 230V320 CAVOK 08/M04 Q1018",
      "taf": "TAF EPGD 280530Z 2806/2906 VRB04KT CAVOK"
    },
    {
      "icao": "EPKK",
      "alert": "OK",
      "vis_m": 9999,
      "fzfg": false,
      "metar_trigger": false,
      "taf_trigger": false,
      "metar": "METAR EPKK 280930Z 22008KT 9999 OVC015 05/03 Q1014",
      "taf": "TAF EPKK 280830Z 2809/2909 22004KT 9999 BKN015"
    },
    {
      "icao": "EPKT",
      "alert": "OK",
      "vis_m": 9999,
      "fzfg": false,
      "metar_trigger": false,
      "taf_trigger": false,
      "metar": "METAR EPKT 280930Z 34009KT 9999 OVC007 04/02 Q1014",
      "taf": ""
    },
    {
      "icao": "EPLB",
      "alert": "OK",
      "vis_m": 9999,
      "fzfg": false,
      "metar_trigger": false,
      "taf_trigger": false,
      "metar": "METAR EPLB 280930Z 04006KT 020V080 CAVOK 14/06 Q1013",
      "taf": "TAF EPLB 280530Z 2806/2906 04004KT CAVOK"
    },
    {
      "icao": "EPMO",
      "alert": "OK",
      "vis_m": 9999,
      "fzfg": false,
      "metar_trigger": false,
      "taf_trigger": false,
      "metar": "METAR EPMO 280930Z 01010KT 330V040 CAVOK 10/00 Q1016",
      "taf": "TAF EPMO 280530Z 2806/2906 03005KT CAVOK"
    },
    {
      "icao": "EPPO",
      "alert": "OK",
      "vis_m": 9999,
      "fzfg": false,
      "metar_trigger": false,
      "taf_trigger": false,
      "metar": "METAR EPPO 280930Z VRB03KT CAVOK 08/M05 Q1018",
      "taf": "TAF EPPO 280530Z 2806/2906 33003KT CAVOK"
    },
    {
      "icao": "EPRA",
      "alert": "OK",
      "vis_m": 9999,
      "fzfg": false,
      "metar_trigger": false,
      "taf_trigger": false,
      "metar": "METAR EPRA 280930Z 36007KT 330V030 CAVOK 07/01 Q1015",
      "taf": "TAF EPRA 280830Z 2809/2818 35010KT CAVOK"
    },
    {
      "icao": "EPRZ",
      "alert": "OK",
      "vis_m": 9999,
      "fzfg": false,
      "metar_trigger": false,
      "taf_trigger": false,
      "metar": "METAR EPRZ 280930Z 02006KT 320V100 9999 FEW020 12/06 Q1012",
      "taf": ""
    },
    {
      "icao": "EPSC",
      "alert": "OK",
      "vis_m": 9999,
      "fzfg": false,
      "metar_trigger": false,
      "taf_trigger": false,
      "metar": "METAR EPSC 280930Z 19010KT 160V220 CAVOK 08/M03 Q1017",
      "taf": "TAF EPSC 280530Z 2806/2906 13007KT CAVOK"
    },
    {
      "icao": "EPSY",
      "alert": "OK",
      "vis_m": 9999,
      "fzfg": false,
      "metar_trigger": false,
      "taf_trigger": false,
      "metar": "METAR EPSY 280930Z 01010KT CAVOK 06/M05 Q1017",
      "taf": "TAF EPSY 280830Z 2809/2818 01008KT CAVOK"
    },
    {
      "icao": "EPWA",
      "alert": "OK",
      "vis_m": 9999,
      "fzfg": false,
      "metar_trigger": false,
      "taf_trigger": false,
      "metar": "METAR EPWA 280930Z 03005KT 350V070 CAVOK 10/01 Q1016 NOSIG",
      "taf": "TAF EPWA 280830Z 2809/2909 02010KT CAVOK"
    },
    {
      "icao": "EPWR",
      "alert": "OK",
      "vis_m": 9999,
      "fzfg": false,
      "metar_trigger": false,
      "taf_trigger": false,
      "metar": "METAR EPWR 280930Z 33009KT 9999 BKN047 06/M02 Q1018",
      "taf": "TAF EPWR 280830Z 2809/2909 31009KT 9999 BKN045"
    },
    {
      "icao": "ESGG",
      "alert": "OK",
      "vis_m": 9999,
      "fzfg": false,
      "metar_trigger": false,
      "taf_trigger": false,
      "metar": "METAR ESGG 280950Z 23007KT 9999 SCT015 06/03 Q1010",
      "taf": "TAF ESGG 280830Z 2809/2909 21009KT 9999 BKN004"
    },
    {
      "icao": "ESKN",
      "alert": "OK",
      "vis_m": 9999,
      "fzfg": false,
      "metar_trigger": false,
      "taf_trigger": false,
      "metar": "METAR ESKN 280950Z 19010KT 9999 -DZ BKN017 05/02 Q1011",
      "taf": "TAF ESKN 280830Z 2809/2909 17008KT 9999 -RA SCT025"
    },
    {
      "icao": "ESMS",
      "alert": "OK",
      "vis_m": 2400,
      "fzfg": false,
      "metar_trigger": false,
      "taf_trigger": false,
      "metar": "METAR ESMS 280950Z 21012KT 2400 BR BKN004 OVC010 03/03 Q1013",
      "taf": "TAF ESMS 280827Z 2809/2909 20008KT 9999 BKN012"
    },
    {
      "icao": "ESSA",
      "alert": "OK",
      "vis_m": 9999,
      "fzfg": false,
      "metar_trigger": false,
      "taf_trigger": false,
      "metar": "METAR ESSA 280950Z 19012KT 9999 BKN020 05/00 Q1010 TEMPO BKN012",
      "taf": "TAF ESSA 280830Z 2809/2909 20013KT 9999 BKN016"
    },
    {
      "icao": "EYKA",
      "alert": "OK",
      "vis_m": 9999,
      "fzfg": false,
      "metar_trigger": false,
      "taf_trigger": false,
      "metar": "METAR EYKA 280950Z 35005KT 320V040 CAVOK 10/02 Q1018",
      "taf": "TAF EYKA 280503Z 2806/2906 VRB03KT 9000 NSC"
    },
    {
      "icao": "EYPA",
      "alert": "OK",
      "vis_m": 9999,
      "fzfg": false,
      "metar_trigger": false,
      "taf_trigger": false,
      "metar": "METAR EYPA 280950Z 25004KT 190V310 9999 FEW010 04/00 Q1019",
      "taf": "TAF EYPA 280500Z 2806/2906 21007KT 5000 BR OVC002"
    },
    {
      "icao": "EYVI",
      "alert": "OK",
      "vis_m": 9999,
      "fzfg": false,
      "metar_trigger": false,
      "taf_trigger": false,
      "metar": "METAR EYVI 280950Z 35007KT 320V040 CAVOK 13/00 Q1017 NOSIG",
      "taf": "TAF EYVI 280500Z 2806/2906 VRB04KT 9000 NSC"
    },
    {
      "icao": "GCFV",
      "alert": "OK",
      "vis_m": 9999,
      "fzfg": false,
      "metar_trigger": false,
      "taf_trigger": false,
      "metar": "METAR GCFV 280930Z 01011KT 9999 SCT022 20/13 Q1019",
      "taf": "TAF GCFV 280800Z 2809/2909 04012KT 9999 FEW025 TX22/2814Z TN16/2906Z"
    },
    {
      "icao": "GCLP",
      "alert": "OK",
      "vis_m": 9999,
      "fzfg": false,
      "metar_trigger": false,
      "taf_trigger": false,
      "metar": "METAR GCLP 280930Z 36016KT 9999 FEW026 20/12 Q1019 NOSIG",
      "taf": "TAF GCLP 280800Z 2809/2909 01022KT 9999 FEW025 TX22/2814Z TN16/2906Z"
    },
    {
      "icao": "GCTS",
      "alert": "OK",
      "vis_m": 9999,
      "fzfg": false,
      "metar_trigger": false,
      "taf_trigger": false,
      "metar": "METAR GCTS 280930Z 09015KT 9999 FEW025 19/12 Q1020 NOSIG",
      "taf": "TAF GCTS 280800Z 2809/2909 07015KT 9999 SCT030 TX23/2814Z TN16/2906Z"
    },
    {
      "icao": "GMAD",
      "alert": "OK",
      "vis_m": 8000,
      "fzfg": false,
      "metar_trigger": false,
      "taf_trigger": false,
      "metar": "METAR GMAD 280930Z 29003KT 260V360 8000 FEW020 19/13 Q1016 NOSIG",
      "taf": "TAF GMAD 280500Z 2806/2912 20004KT 6000 BKN010"
    },
    {
      "icao": "GMMN",
      "alert": "OK",
      "vis_m": 9999,
      "fzfg": false,
      "metar_trigger": false,
      "taf_trigger": false,
      "metar": "METAR GMMN 280930Z VRB03KT 9999 BKN016 17/13 Q1017 NOSIG",
      "taf": "TAF GMMN 280500Z 2806/2912 20004KT 4000 BR SCT010 SCT016"
    },
    {
      "icao": "GMMX",
      "alert": "OK",
      "vis_m": 6000,
      "fzfg": false,
      "metar_trigger": false,
      "taf_trigger": false,
      "metar": "METAR GMMX 280930Z 32003KT 270V070 6000 BKN016 16/14 Q1017 BECMG 8000",
      "taf": "TAF GMMX 280500Z 2806/2912 22002KT 8000 SCT016"
    },
    {
      "icao": "HEGN",
      "alert": "OK",
      "vis_m": 9999,
      "fzfg": false,
      "metar_trigger": false,
      "taf_trigger": false,
      "metar": "METAR HEGN 280900Z 10007KT CAVOK 24/11 Q1015 NOSIG",
      "taf": "TAF HEGN 280500Z 2806/2912 29010KT 9999 SCT025"
    },
    {
      "icao": "HEMA",
      "alert": "OK",
      "vis_m": 9999,
      "fzfg": false,
      "metar_trigger": false,
      "taf_trigger": false,
      "metar": "METAR HEMA 280900Z 07007KT CAVOK 24/07 Q1015 NOSIG",
      "taf": "TAF HEMA 280500Z 2806/2912 31010KT CAVOK"
    },
    {
      "icao": "HESH",
      "alert": "OK",
      "vis_m": 9999,
      "fzfg": false,
      "metar_trigger": false,
      "taf_trigger": false,
      "metar": "METAR HESH 280900Z 08007KT CAVOK 24/11 Q1015 NOSIG",
      "taf": "TAF HESH 280500Z 2806/2912 32010KT 9999 SCT025"
    },
    {
      "icao": "HESX",
      "alert": "OK",
      "vis_m": 9999,
      "fzfg": false,
      "metar_trigger": false,
      "taf_trigger": false,
      "metar": "METAR HESX 280900Z 19011KT CAVOK 24/00 Q1013 NOSIG",
      "taf": "TAF HESX 280500Z 2806/2912 17010KT 8000 NSC"
    },
    {
      "icao": "LATI",
      "alert": "OK",
      "vis_m": 9999,
      "fzfg": false,
      "metar_trigger": false,
      "taf_trigger": false,
      "metar": "METAR LATI 280950Z 30005KT 240V030 9999 FEW027 SCT040 13/04 Q1003 NOSIG",
      "taf": "TAF LATI 280500Z 2806/2906 VRB03KT 9999 BKN070 TX15/2812Z TN04/2905Z"
    },
    {
      "icao": "LBPD",
      "alert": "OK",
      "vis_m": 9999,
      "fzfg": false,
      "metar_trigger": false,
      "taf_trigger": false,
      "metar": "METAR LBPD 280930Z AUTO VRB03KT 9999 FEW025/// SCT029/// BKN170/// 11/04 Q1002 NOSIG",
      "taf": "TAF LBPD 280500Z 2806/2906 VRB03KT 9999 BKN020 OVC040"
    },
    {
      "icao": "LBSF",
      "alert": "OK",
      "vis_m": 9999,
      "fzfg": false,
      "metar_trigger": false,
      "taf_trigger": false,
      "metar": "METAR LBSF 280930Z 06004KT 030V090 9999 OVC009 04/02 Q1003 TEMPO SCT006 BKN009",
      "taf": "TAF LBSF 280500Z 2806/2906 VRB03KT 9999 SCT010 BKN015 OVC020"
    },
    {
      "icao": "LBWN",
      "alert": "OK",
      "vis_m": 9999,
      "fzfg": false,
      "metar_trigger": false,
      "taf_trigger": false,
      "metar": "METAR LBWN 280930Z 11008KT 9999 FEW010 SCT021 13/10 Q1003 NOSIG",
      "taf": "TAF LBWN 280500Z 2806/2906 10014KT 9999 SCT010 OVC025"
    },
    {
      "icao": "LCLK",
      "alert": "OK",
      "vis_m": 9999,
      "fzfg": false,
      "metar_trigger": false,
      "taf_trigger": false,
      "metar": "METAR LCLK 280930Z 22014KT 9999 FEW020 21/14 Q1012 NOSIG",
      "taf": "TAF LCLK 280530Z 2806/2906 26009KT 9999 FEW020 SCT035"
    },
    {
      "icao": "LCPH",
      "alert": "OK",
      "vis_m": 9999,
      "fzfg": false,
      "metar_trigger": false,
      "taf_trigger": false,
      "metar": "METAR LCPH 280930Z 15011KT 100V160 9999 FEW030 20/12 Q1011 NOSIG",
      "taf": "TAF LCPH 280530Z 2806/2906 35009KT 9999 FEW020 SCT040"
    },
    {
      "icao": "LEAL",
      "alert": "OK",
      "vis_m": 9999,
      "fzfg": false,
      "metar_trigger": false,
      "taf_trigger": false,
      "metar": "METAR LEAL 280930Z 22005KT 170V260 9999 FEW026 16/09 Q1021 NOSIG",
      "taf": "TAF LEAL 280500Z 2806/2906 VRB04KT 9999 FEW025 TX18/2812Z TN07/2806Z"
    },
    {
      "icao": "LEBB",
      "alert": "OK",
      "vis_m": 9999,
      "fzfg": false,
      "metar_trigger": false,
      "taf_trigger": false,
      "metar": "METAR LEBB 280930Z 30011KT 260V330 9999 BKN015 BKN025 12/09 Q1029 NOSIG",
      "taf": "TAF LEBB 280500Z 2806/2906 29009KT 9999 FEW010 BKN025 TX12/2812Z TN07/2904Z"
    },
    {
      "icao": "LEBL",
      "alert": "OK",
      "vis_m": 9999,
      "fzfg": false,
      "metar_trigger": false,
      "taf_trigger": false,
      "metar": "METAR LEBL 280930Z 32010KT 290V010 CAVOK 14/04 Q1019 NOSIG",
      "taf": "TAF LEBL 280500Z 2806/2906 34008KT 9999 FEW020 TX17/2812Z TN08/2806Z"
    },
    {
      "icao": "LECH",
      "alert": "OK",
      "vis_m": 9999,
      "fzfg": false,
      "metar_trigger": false,
      "taf_trigger": false,
      "metar": "METAR LECH 280930Z AUTO 13002KT CAVOK 13/M01 Q1020",
      "taf": "TAF LECH 280500Z 2806/2906 VRB04KT 9999 FEW030 TX19/2813Z TN04/2806Z"
    },
    {
      "icao": "LEMD",
      "alert": "OK",
      "vis_m": 9999,
      "fzfg": false,
      "metar_trigger": false,
      "taf_trigger": false,
      "metar": "METAR LEMD 280930Z 05003KT 330V130 CAVOK 11/00 Q1022 NOSIG",
      "taf": "TAF LEMD 280500Z 2806/2912 VRB05KT CAVOK TX19/2815Z TN02/2906Z"
    },
    {
      "icao": "LEMG",
      "alert": "OK",
      "vis_m": 9999,
      "fzfg": false,
      "metar_trigger": false,
      "taf_trigger": false,
      "metar": "METAR LEMG 280930Z 09004KT 9999 FEW023 16/11 Q1022 NOSIG",
      "taf": "TAF LEMG 280500Z 2806/2906 28005KT 9999 SCT025 BKN045 TX17/2813Z TN13/2806Z"
    },
    {
      "icao": "LEVC",
      "alert": "OK",
      "vis_m": 9999,
      "fzfg": false,
      "metar_trigger": false,
      "taf_trigger": false,
      "metar": "METAR LEVC 280930Z 28003KT CAVOK 15/01 Q1021 NOSIG",
      "taf": "TAF LEVC 280500Z 2806/2906 VRB03KT 9999 FEW025 TX19/2813Z TN07/2806Z"
    },
    {
      "icao": "LEXJ",
      "alert": "OK",
      "vis_m": 9999,
      "fzfg": false,
      "metar_trigger": false,
      "taf_trigger": false,
      "metar": "METAR LEXJ 280930Z 28007KT 260V320 9999 BKN009 BKN015 10/09 Q1030",
      "taf": "TAF LEXJ 280800Z 2809/2909 26006KT 9999 SCT020 BKN045 TX11/2813Z TN10/2906Z"
    },
    {
      "icao": "LEZG",
      "alert": "OK",
      "vis_m": 9999,
      "fzfg": false,
      "metar_trigger": false,
      "taf_trigger": false,
      "metar": "METAR LEZG 280930Z 30026KT 280V340 CAVOK 12/03 Q1022 NOSIG",
      "taf": "TAF LEZG 280500Z 2806/2906 31020KT 9999 FEW045 TX17/2814Z TN06/2806Z"
    },
    {
      "icao": "LEZL",
      "alert": "OK",
      "vis_m": 9999,
      "fzfg": false,
      "metar_trigger": false,
      "taf_trigger": false,
      "metar": "METAR LEZL 280930Z 05002KT CAVOK 16/11 Q1020 NOSIG",
      "taf": "TAF LEZL 280800Z 2809/2909 04007KT CAVOK TX25/2815Z TN12/2907Z"
    },
    {
      "icao": "LFBD",
      "alert": "OK",
      "vis_m": 3200,
      "fzfg": false,
      "metar_trigger": false,
      "taf_trigger": false,
      "metar": "METAR LFBD 280930Z AUTO 23010KT 3200 -RADZ BR BKN005 BKN013 OVC035 10/09 Q1025 TEMPO 2000 -RA BR BKN005 BKN020TCU BECMG 36010KT",
      "taf": ""
    },
    {
      "icao": "LFLL",
      "alert": "OK",
      "vis_m": 9999,
      "fzfg": false,
      "metar_trigger": false,
      "taf_trigger": false,
      "metar": "METAR LFLL 280930Z 35008KT 9999 BKN043 BKN260 08/M04 Q1022 NOSIG",
      "taf": "TAF LFLL 280500Z 2806/2912 VRB02KT CAVOK"
    },
    {
      "icao": "LFLS",
      "alert": "OK",
      "vis_m": 9999,
      "fzfg": false,
      "metar_trigger": false,
      "taf_trigger": false,
      "metar": "METAR LFLS 280930Z AUTO 03007KT 360V070 CAVOK 06/M03 Q1021 NOSIG",
      "taf": "TAF LFLS 280800Z 2809/2909 36010KT CAVOK"
    },
    {
      "icao": "LFMN",
      "alert": "OK",
      "vis_m": 9999,
      "fzfg": false,
      "metar_trigger": false,
      "taf_trigger": false,
      "metar": "METAR LFMN 280930Z 22009KT CAVOK 14/02 Q1012 NOSIG",
      "taf": "TAF LFMN 280800Z 2809/2915 VRB02KT CAVOK"
    },
    {
      "icao": "LFOB",
      "alert": "OK",
      "vis_m": 9999,
      "fzfg": false,
      "metar_trigger": false,
      "taf_trigger": false,
      "metar": "METAR LFOB 280930Z AUTO 34014KT 310V010 9999 SCT029 BKN036 BKN066 09/04 Q1023 TEMPO 33015G25KT SCT035TCU",
      "taf": ""
    },
    {
      "icao": "LFPO",
      "alert": "OK",
      "vis_m": 9999,
      "fzfg": false,
      "metar_trigger": false,
      "taf_trigger": false,
      "metar": "METAR LFPO 280930Z 34014KT 9999 BKN021 09/04 Q1023 NOSIG",
      "taf": ""
    },
    {
      "icao": "LFSB",
      "alert": "OK",
      "vis_m": 9999,
      "fzfg": false,
      "metar_trigger": false,
      "taf_trigger": false,
      "metar": "METAR LFSB 280930Z AUTO 16004KT 100V210 CAVOK 05/M02 Q1021 NOSIG",
      "taf": "TAF LFSB 280500Z 2806/2906 18005KT CAVOK"
    },
    {
      "icao": "LGAV",
      "alert": "OK",
      "vis_m": 9999,
      "fzfg": false,
      "metar_trigger": false,
      "taf_trigger": false,
      "metar": "METAR LGAV 280950Z 21006KT 150V260 9999 FEW020 16/03 Q1002 NOSIG",
      "taf": "TAF LGAV 280500Z 2806/2906 VRB05KT 9999 FEW025 BKN070"
    },
    {
      "icao": "LGTS",
      "alert": "OK",
      "vis_m": 9999,
      "fzfg": false,
      "metar_trigger": false,
      "taf_trigger": false,
      "metar": "METAR LGTS 280950Z 31010KT 9999 FEW020 15/05 Q1002 NOSIG",
      "taf": "TAF LGTS 280500Z 2806/2906 34013KT 9999 SCT025"
    },
    {
      "icao": "LHBP",
      "alert": "OK",
      "vis_m": 9999,
      "fzfg": false,
      "metar_trigger": false,
      "taf_trigger": false,
      "metar": "METAR LHBP 280930Z 35013KT CAVOK 10/01 Q1009 NOSIG",
      "taf": "TAF LHBP 280515Z 2806/2906 33010KT CAVOK"
    },
    {
      "icao": "LHDC",
      "alert": "OK",
      "vis_m": 9999,
      "fzfg": false,
      "metar_trigger": false,
      "taf_trigger": false,
      "metar": "METAR LHDC 280915Z AUTO 03011KT 350V050 CAVOK 12/05 Q1007 NOSIG",
      "taf": "TAF LHDC 280815Z 2809/2818 04014G24KT CAVOK"
    },
    {
      "icao": "LIBD",
      "alert": "OK",
      "vis_m": 6000,
      "fzfg": false,
      "metar_trigger": false,
      "taf_trigger": false,
      "metar": "METAR LIBD 280950Z 28010KT 6000 RA BKN015 07/06 Q1006",
      "taf": "TAF LIBD 280500Z 2806/2906 28012KT 9999 FEW015 BKN045"
    },
    {
      "icao": "LIBG",
      "alert": "OK",
      "vis_m": 9999,
      "fzfg": false,
      "metar_trigger": false,
      "taf_trigger": false,
      "metar": "METAR LIBG 280850Z 31010KT 280V340 9999 FEW025 SCT045 10/05 Q1005",
      "taf": "TAF LIBG 280800Z 2809/2818 33010KT 9999 SCT030"
    },
    {
      "icao": "LIBP",
      "alert": "OK",
      "vis_m": 9999,
      "fzfg": false,
      "metar_trigger": false,
      "taf_trigger": false,
      "metar": "METAR LIBP 280950Z AUTO 32007KT 290V360 9999 OVC043/// 10/03 Q1011",
      "taf": "TAF LIBP 280500Z 2806/2906 33012KT 9999 OVC040"
    },
    {
      "icao": "LIBR",
      "alert": "OK",
      "vis_m": 9999,
      "fzfg": false,
      "metar_trigger": false,
      "taf_trigger": false,
      "metar": "METAR LIBR 280950Z 31022KT 9999 FEW045 11/07 Q1004",
      "taf": "TAF LIBR 280500Z 2806/2906 33015KT 9999 BKN040"
    },
    {
      "icao": "LICA",
      "alert": "OK",
      "vis_m": 9999,
      "fzfg": false,
      "metar_trigger": false,
      "taf_trigger": false,
      "metar": "METAR LICA 280950Z AUTO 26014KT 9999 FEW086/// 14/07 Q1007",
      "taf": "TAF LICA 280500Z 2806/2906 VRB06KT 9999 SCT040"
    },
    {
      "icao": "LICC",
      "alert": "OK",
      "vis_m": 9999,
      "fzfg": false,
      "metar_trigger": false,
      "taf_trigger": false,
      "metar": "METAR LICC 280950Z 11011KT 080V140 9999 FEW060 15/10 Q1007",
      "taf": "TAF LICC 280500Z 2806/2906 28012KT CAVOK"
    },
    {
      "icao": "LICJ",
      "alert": "OK",
      "vis_m": 9999,
      "fzfg": false,
      "metar_trigger": false,
      "taf_trigger": false,
      "metar": "METAR LICJ 280950Z 33010KT 9999 SCT035 14/07 Q1010",
      "taf": "TAF LICJ 280500Z 2806/2906 33016KT 9999 SCT030"
    },
    {
      "icao": "LIMC",
      "alert": "OK",
      "vis_m": 9999,
      "fzfg": false,
      "metar_trigger": false,
      "taf_trigger": false,
      "metar": "METAR LIMC 280950Z 28004KT 210V330 CAVOK 13/M06 Q1012 NOSIG",
      "taf": "TAF LIMC 280500Z 2806/2912 VRB05KT CAVOK"
    },
    {
      "icao": "LIME",
      "alert": "OK",
      "vis_m": 9999,
      "fzfg": false,
      "metar_trigger": false,
      "taf_trigger": false,
      "metar": "METAR LIME 280950Z 24005KT 210V300 CAVOK 13/M04 Q1012 NOSIG",
      "taf": "TAF LIME 280500Z 2806/2906 01006KT CAVOK"
    },
    {
      "icao": "LIMF",
      "alert": "OK",
      "vis_m": 9999,
      "fzfg": false,
      "metar_trigger": false,
      "taf_trigger": false,
      "metar": "METAR LIMF 280950Z 21003KT 180V260 CAVOK 13/M06 Q1012",
      "taf": "TAF LIMF 280500Z 2806/2906 VRB05KT CAVOK"
    },
    {
      "icao": "LIMJ",
      "alert": "OK",
      "vis_m": 9999,
      "fzfg": false,
      "metar_trigger": false,
      "taf_trigger": false,
      "metar": "METAR LIMJ 280950Z 21006KT CAVOK 15/M04 Q1012",
      "taf": "TAF LIMJ 280500Z 2806/2906 36013KT CAVOK"
    },
    {
      "icao": "LIPE",
      "alert": "OK",
      "vis_m": 9999,
      "fzfg": false,
      "metar_trigger": false,
      "taf_trigger": false,
      "metar": "METAR LIPE 280950Z 30006KT 270V340 CAVOK 12/01 Q1012",
      "taf": "TAF LIPE 280500Z 2806/2906 VRB05KT CAVOK"
    },
    {
      "icao": "LIPH",
      "alert": "OK",
      "vis_m": 9999,
      "fzfg": false,
      "metar_trigger": false,
      "taf_trigger": false,
      "metar": "METAR LIPH 280950Z 26005KT 200V290 CAVOK 14/M03 Q1011",
      "taf": "TAF LIPH 280500Z 2806/2906 VRB05KT CAVOK"
    },
    {
      "icao": "LIPQ",
      "alert": "OK",
      "vis_m": 9999,
      "fzfg": false,
      "metar_trigger": false,
      "taf_trigger": false,
      "metar": "METAR LIPQ 280950Z AUTO VRB05KT 9999 NCD 15/M01 Q1011",
      "taf": "TAF LIPQ 280500Z 2806/2906 VRB05KT CAVOK"
    },
    {
      "icao": "LIPR",
      "alert": "OK",
      "vis_m": 9999,
      "fzfg": false,
      "metar_trigger": false,
      "taf_trigger": false,
      "metar": "METAR LIPR 280950Z 32009KT 300V360 CAVOK 13/03 Q1012",
      "taf": "TAF LIPR 280500Z 2806/2906 VRB05KT 9999 SCT070"
    },
    {
      "icao": "LIPX",
      "alert": "OK",
      "vis_m": 9999,
      "fzfg": false,
      "metar_trigger": false,
      "taf_trigger": false,
      "metar": "METAR LIPX 280950Z 27007KT 190V300 CAVOK 15/M04 Q1012",
      "taf": "TAF LIPX 280500Z 2806/2906 VRB05KT CAVOK"
    },
    {
      "icao": "LIPY",
      "alert": "OK",
      "vis_m": 9999,
      "fzfg": false,
      "metar_trigger": false,
      "taf_trigger": false,
      "metar": "METAR LIPY 280950Z AUTO 33012KT 9999 NCD 12/06 Q1011",
      "taf": "TAF LIPY 280500Z 2806/2906 35005KT 9999 OVC050"
    },
    {
      "icao": "LIPZ",
      "alert": "OK",
      "vis_m": 9999,
      "fzfg": false,
      "metar_trigger": false,
      "taf_trigger": false,
      "metar": "METAR LIPZ 280950Z 15004KT 130V210 CAVOK 13/M01 Q1012 NOSIG",
      "taf": "TAF LIPZ 280500Z 2806/2912 VRB05KT CAVOK"
    },
    {
      "icao": "LIRF",
      "alert": "OK",
      "vis_m": 9999,
      "fzfg": false,
      "metar_trigger": false,
      "taf_trigger": false,
      "metar": "METAR LIRF 280950Z 01018KT CAVOK 14/01 Q1009 NOSIG",
      "taf": "TAF LIRF 280500Z 2806/2912 01012KT CAVOK"
    },
    {
      "icao": "LIRN",
      "alert": "OK",
      "vis_m": 9999,
      "fzfg": false,
      "metar_trigger": false,
      "taf_trigger": false,
      "metar": "METAR LIRN 280950Z 03004KT 330V110 9999 FEW060 12/03 Q1009 NOSIG",
      "taf": "TAF LIRN 280500Z 2806/2906 04008KT 9999 SCT050"
    },
    {
      "icao": "LIRP",
      "alert": "OK",
      "vis_m": 9999,
      "fzfg": false,
      "metar_trigger": false,
      "taf_trigger": false,
      "metar": "METAR LIRP 280915Z 14004KT CAVOK 14/00 Q1012 NOSIG",
      "taf": "TAF LIRP 280500Z 2806/2906 11004KT CAVOK"
    },
    {
      "icao": "LIRZ",
      "alert": "OK",
      "vis_m": 9999,
      "fzfg": false,
      "metar_trigger": false,
      "taf_trigger": false,
      "metar": "METAR LIRZ 280950Z AUTO 01014KT 9999 NCD 12/00 Q1011",
      "taf": "TAF LIRZ 280500Z 2806/2906 VRB05KT 9999 FEW080"
    },
    {
      "icao": "LJLJ",
      "alert": "OK",
      "vis_m": 9999,
      "fzfg": false,
      "metar_trigger": false,
      "taf_trigger": false,
      "metar": "METAR LJLJ 280930Z 11007KT 070V140 9999 FEW070 12/M03 Q1011 NOSIG",
      "taf": "TAF LJLJ 280500Z 2806/2906 VRB02KT 9999 FEW075"
    },
    {
      "icao": "LKMT",
      "alert": "OK",
      "vis_m": 9999,
      "fzfg": false,
      "metar_trigger": false,
      "taf_trigger": false,
      "metar": "METAR LKMT 280930Z 02006KT 340V060 9999 OVC022 03/00 Q1016 NOSIG",
      "taf": "TAF LKMT 280500Z 2806/2906 36010KT 9999 OVC030"
    },
    {
      "icao": "LKPR",
      "alert": "OK",
      "vis_m": 9999,
      "fzfg": false,
      "metar_trigger": false,
      "taf_trigger": false,
      "metar": "METAR LKPR 280930Z 28007KT 250V320 CAVOK 06/M05 Q1018 NOSIG",
      "taf": "TAF LKPR 280800Z 2809/2915 22006KT CAVOK"
    },
    {
      "icao": "LLBG",
      "alert": "OK",
      "vis_m": 9999,
      "fzfg": false,
      "metar_trigger": false,
      "taf_trigger": false,
      "metar": "METAR LLBG 280950Z 22010KT CAVOK 24/06 Q1013 NOSIG",
      "taf": "TAF LLBG 280501Z 2806/2906 15005KT CAVOK TX23/2811Z TN15/2900Z"
    },
    {
      "icao": "LMML",
      "alert": "OK",
      "vis_m": 9999,
      "fzfg": false,
      "metar_trigger": false,
      "taf_trigger": false,
      "metar": "METAR LMML 280945Z 33016KT 300V360 9999 FEW037 15/07 Q1009 NOSIG",
      "taf": "TAF LMML 280500Z 2806/2906 31018G28KT 9999 FEW025"
    },
    {
      "icao": "LOWW",
      "alert": "OK",
      "vis_m": 9999,
      "fzfg": false,
      "metar_trigger": false,
      "taf_trigger": false,
      "metar": "METAR LOWW 280950Z 31020KT 9999 FEW034 BKN038 04/M03 Q1016 NOSIG",
      "taf": "TAF LOWW 280817Z 2809/2915 32018KT 9999 FEW030 OVC040 TX08/2815Z TN03/2809Z"
    },
    {
      "icao": "LPFR",
      "alert": "OK",
      "vis_m": 9999,
      "fzfg": false,
      "metar_trigger": false,
      "taf_trigger": false,
      "metar": "METAR LPFR 280930Z 10004KT 060V150 CAVOK 18/11 Q1020",
      "taf": "TAF LPFR 280500Z 2806/2906 04008KT CAVOK"
    },
    {
      "icao": "LPMA",
      "alert": "OK",
      "vis_m": 9999,
      "fzfg": false,
      "metar_trigger": false,
      "taf_trigger": false,
      "metar": "METAR LPMA 280930Z 02018G30KT 350V050 9999 FEW015 17/11 Q1022",
      "taf": "TAF LPMA 280500Z 2806/2906 02015KT 9999 SCT015"
    },
    {
      "icao": "LPPR",
      "alert": "OK",
      "vis_m": 9999,
      "fzfg": false,
      "metar_trigger": false,
      "taf_trigger": false,
      "metar": "METAR LPPR 280930Z 03008KT 360V060 CAVOK 14/07 Q1025",
      "taf": "TAF LPPR 280500Z 2806/2906 VRB02KT CAVOK"
    },
    {
      "icao": "LPPS",
      "alert": "OK",
      "vis_m": 9999,
      "fzfg": false,
      "metar_trigger": false,
      "taf_trigger": false,
      "metar": "METAR LPPS 280930Z 02012KT 360V060 9999 FEW014 SCT030 16/11 Q1023",
      "taf": "TAF LPPS 280500Z 2806/2912 02013KT 9999 SCT015 SCT030"
    },
    {
      "icao": "LPPT",
      "alert": "OK",
      "vis_m": 9999,
      "fzfg": false,
      "metar_trigger": false,
      "taf_trigger": false,
      "metar": "METAR LPPT 280930Z 05014G27KT 010V080 CAVOK 17/04 Q1022",
      "taf": "TAF LPPT 280500Z 2806/2912 35008KT CAVOK"
    },
    {
      "icao": "LQBK",
      "alert": "OK",
      "vis_m": 9999,
      "fzfg": false,
      "metar_trigger": false,
      "taf_trigger": false,
      "metar": "METAR LQBK 280930Z 27010KT 9999 RA FEW015 BKN023 OVC030 03/00 Q1011 NOSIG",
      "taf": "TAF LQBK 280500Z 2806/2906 30011KT 7000 SCT010 BKN015 OVC030 TX05/2813Z TN02/2905Z"
    },
    {
      "icao": "LQSA",
      "alert": "OK",
      "vis_m": 2500,
      "fzfg": false,
      "metar_trigger": false,
      "taf_trigger": false,
      "metar": "METAR LQSA 280930Z 29009KT 260V320 2500 SN BR FEW005 BKN014 OVC020 01/00 Q1008 NOSIG",
      "taf": "TAF LQSA 280500Z 2806/2906 28006KT 8000 SCT015 BKN035 TX03/2813Z TN00/2906Z"
    },
    {
      "icao": "LQTZ",
      "alert": "OK",
      "vis_m": 600,
      "fzfg": false,
      "metar_trigger": false,
      "taf_trigger": false,
      "metar": "METAR LQTZ 280930Z 29005KT 0600 R09/0750N -SN FG OVC002 00/00 Q1009",
      "taf": ""
    },
    {
      "icao": "LRBC",
      "alert": "OK",
      "vis_m": 5000,
      "fzfg": false,
      "metar_trigger": false,
      "taf_trigger": false,
      "metar": "METAR LRBC 280930Z 36007KT 5000 -RA BR FEW008 OVC024 07/06 Q1009 RERA",
      "taf": "TAF LRBC 280800Z 2809/2818 VRB04KT 5000 -RA BKN025"
    },
    {
      "icao": "LRBS",
      "alert": "OK",
      "vis_m": 4000,
      "fzfg": false,
      "metar_trigger": false,
      "taf_trigger": false,
      "metar": "METAR LRBS 280930Z 06011KT 4000 -RA OVC004 08/07 Q1005 NOSIG",
      "taf": "TAF LRBS 280500Z 2806/2906 05014KT 5000 -RA BR BKN005 OVC020"
    },
    {
      "icao": "LRBV",
      "alert": "OK",
      "vis_m": 9999,
      "fzfg": false,
      "metar_trigger": false,
      "taf_trigger": false,
      "metar": "METAR LRBV 280930Z 07009KT 9999 -RA FEW011 OVC034 06/05 Q1006",
      "taf": "TAF LRBV 280800Z 2809/2818 07012KT 9999 BKN040"
    },
    {
      "icao": "LRCL",
      "alert": "OK",
      "vis_m": 9999,
      "fzfg": false,
      "metar_trigger": false,
      "taf_trigger": false,
      "metar": "METAR LRCL 280930Z VRB01KT 9999 -RA OVC040 09/07 Q1006",
      "taf": "TAF LRCL 280800Z 2809/2818 VRB04KT 9999 OVC040"
    },
    {
      "icao": "LRCV",
      "alert": "OK",
      "vis_m": 9999,
      "fzfg": false,
      "metar_trigger": false,
      "taf_trigger": false,
      "metar": "METAR LRCV 280930Z 06010KT 9999 SCT007 BKN030 09/08 Q1003",
      "taf": "TAF LRCV 280800Z 2809/2818 10010KT 9999 BKN005 BKN020"
    },
    {
      "icao": "LRIA",
      "alert": "OK",
      "vis_m": 9999,
      "fzfg": false,
      "metar_trigger": false,
      "taf_trigger": false,
      "metar": "METAR LRIA 280930Z 32003KT 270V060 9999 FEW041 12/04 Q1009",
      "taf": "TAF LRIA 280800Z 2809/2818 VRB04KT 9999 BKN040"
    },
    {
      "icao": "LROP",
      "alert": "OK",
      "vis_m": 9999,
      "fzfg": false,
      "metar_trigger": false,
      "taf_trigger": false,
      "metar": "METAR LROP 280930Z 06015KT 9999 -RA OVC006 08/08 Q1005 NOSIG",
      "taf": "TAF LROP 280500Z 2806/2906 07020KT 5000 -RA BR BKN005 OVC020"
    },
    {
      "icao": "LRSB",
      "alert": "OK",
      "vis_m": 9999,
      "fzfg": false,
      "metar_trigger": false,
      "taf_trigger": false,
      "metar": "METAR LRSB 280930Z 10012KT 9999 -RA FEW017 SCT022 OVC037 08/05 Q1004",
      "taf": ""
    },
    {
      "icao": "LRSM",
      "alert": "OK",
      "vis_m": 9999,
      "fzfg": false,
      "metar_trigger": false,
      "taf_trigger": false,
      "metar": "METAR LRSM 280930Z AUTO 09005KT 050V130 9999 SCT090/// BKN100/// 15/02 Q1007",
      "taf": "TAF LRSM 280200Z 2803/2812 06007KT CAVOK"
    },
    {
      "icao": "LRSV",
      "alert": "OK",
      "vis_m": 9999,
      "fzfg": false,
      "metar_trigger": false,
      "taf_trigger": false,
      "metar": "METAR LRSV 280930Z 01006KT 9999 BKN037 11/04 Q1009",
      "taf": "TAF LRSV 280800Z 2809/2818 32007KT 9999 BKN040"
    },
    {
      "icao": "LRTM",
      "alert": "OK",
      "vis_m": 9999,
      "fzfg": false,
      "metar_trigger": false,
      "taf_trigger": false,
      "metar": "METAR LRTM 280930Z 09010KT 9999 -RA FEW020 BKN044 11/06 Q1006",
      "taf": "TAF LRTM 280800Z 2809/2818 08008KT 9999 BKN045"
    },
    {
      "icao": "LRTR",
      "alert": "OK",
      "vis_m": 9999,
      "fzfg": false,
      "metar_trigger": false,
      "taf_trigger": false,
      "metar": "METAR LRTR 280930Z 35010KT 9999 FEW010 BKN040 10/08 Q1004",
      "taf": "TAF LRTR 280500Z 2806/2906 36010KT 5000 RA BKN040"
    },
    {
      "icao": "LTAC",
      "alert": "OK",
      "vis_m": 9999,
      "fzfg": false,
      "metar_trigger": false,
      "taf_trigger": false,
      "metar": "METAR LTAC 280950Z 22010KT 9999 SCT040 BKN080 15/03 Q1008 NOSIG RMK RWY21C VRB05KT RWY03L 21010KT RWY21R 23010KT 170V270 RWY03R 20011KT RWY21L 19008KT 130V220",
      "taf": "TAF LTAC 280440Z 2806/2906 VRB02KT CAVOK"
    },
    {
      "icao": "LTFM",
      "alert": "OK",
      "vis_m": 9999,
      "fzfg": false,
      "metar_trigger": false,
      "taf_trigger": false,
      "metar": "METAR LTFM 280950Z 19010KT 9999 -SHRA SCT040 BKN080 12/09 Q1004 NOSIG RMK RWY17L 18012KT RWY34L 18010KT RWY16R 18013KT RWY36 18010KT RWY18 19012KT",
      "taf": "TAF LTFM 280440Z 2806/2912 19013KT 9999 SCT040 BKN090"
    },
    {
      "icao": "LUKK",
      "alert": "OK",
      "vis_m": 9999,
      "fzfg": false,
      "metar_trigger": false,
      "taf_trigger": false,
      "metar": "METAR LUKK 280930Z 09008KT 060V130 9999 FEW040 18/08 Q1008 NOSIG",
      "taf": "TAF LUKK 280516Z 2806/2906 08010KT 9999 SCT040"
    },
    {
      "icao": "LWOH",
      "alert": "OK",
      "vis_m": 9999,
      "fzfg": false,
      "metar_trigger": false,
      "taf_trigger": false,
      "metar": "METAR LWOH 280950Z 16005KT 9999 SCT030 08/03 Q1002",
      "taf": "TAF LWOH 280810Z 2809/2909 18006KT 9999 SCT020 BKN033"
    },
    {
      "icao": "LWSK",
      "alert": "OK",
      "vis_m": 9999,
      "fzfg": false,
      "metar_trigger": false,
      "taf_trigger": false,
      "metar": "METAR LWSK 280950Z 03010KT 330V060 9999 BKN050 12/05 Q1002 NOSIG",
      "taf": "TAF LWSK 280810Z 2809/2909 VRB02KT 9999 BKN040"
    },
    {
      "icao": "LYBE",
      "alert": "OK",
      "vis_m": 8000,
      "fzfg": false,
      "metar_trigger": false,
      "taf_trigger": false,
      "metar": "METAR LYBE 280930Z 32011KT 8000 -RA BKN008 06/04 Q1005 NOSIG",
      "taf": "TAF LYBE 280500Z 2806/2906 34014KT 8000 BKN010 BKN027 TX08/2812Z TN05/2905Z"
    },
    {
      "icao": "LYNI",
      "alert": "OK",
      "vis_m": 1000,
      "fzfg": false,
      "metar_trigger": false,
      "taf_trigger": false,
      "metar": "METAR LYNI 280930Z VRB02KT 1000 R29/1800D R11/P2000N +SN BKN003 OVC025 00/00 Q1005 NOSIG",
      "taf": ""
    },
    {
      "icao": "LYPG",
      "alert": "OK",
      "vis_m": 9999,
      "fzfg": false,
      "metar_trigger": false,
      "taf_trigger": false,
      "metar": "METAR LYPG 280930Z 35015KT 320V030 9999 FEW040 14/M01 Q1003 TEMPO 35025KT",
      "taf": "TAF LYPG 280500Z 2806/2906 35010KT 9999 FEW060 SCT080 TX14/2812Z TN07/2904Z"
    },
    {
      "icao": "LZIB",
      "alert": "OK",
      "vis_m": 9999,
      "fzfg": false,
      "metar_trigger": false,
      "taf_trigger": false,
      "metar": "METAR LZIB 280930Z 32016KT 9999 FEW024 BKN032 05/M01 Q1014 NOSIG",
      "taf": "TAF LZIB 280519Z 2806/2906 35016KT 9999 FEW016 BKN035"
    },
    {
      "icao": "LZKZ",
      "alert": "OK",
      "vis_m": 9999,
      "fzfg": false,
      "metar_trigger": false,
      "taf_trigger": false,
      "metar": "METAR LZKZ 280930Z 36020KT CAVOK 11/03 Q1009 NOSIG",
      "taf": "TAF LZKZ 280519Z 2806/2906 01020KT 9999 FEW025 BKN040"
    },
    {
      "icao": "LZTT",
      "alert": "OK",
      "vis_m": 9999,
      "fzfg": false,
      "metar_trigger": false,
      "taf_trigger": false,
      "metar": "METAR LZTT 280930Z VRB02KT 9999 FEW008 BKN016 OVC030 04/01 Q1011 NOSIG",
      "taf": ""
    },
    {
      "icao": "OEJN",
      "alert": "OK",
      "vis_m": 9999,
      "fzfg": false,
      "metar_trigger": false,
      "taf_trigger": false,
      "metar": "METAR OEJN 280900Z 33008KT CAVOK 29/02 Q1013 NOSIG",
      "taf": "TAF OEJN 280500Z 2806/2912 34012KT CAVOK"
    },
    {
      "icao": "OEMA",
      "alert": "OK",
      "vis_m": 9999,
      "fzfg": false,
      "metar_trigger": false,
      "taf_trigger": false,
      "metar": "METAR OEMA 280900Z 22004KT CAVOK 23/01 Q1017 NOSIG",
      "taf": "TAF OEMA 280500Z 2806/2912 14008KT CAVOK"
    },
    {
      "icao": "OJAI",
      "alert": "OK",
      "vis_m": 4000,
      "fzfg": false,
      "metar_trigger": false,
      "taf_trigger": false,
      "metar": "METAR OJAI 280900Z 22012KT 4000 HZ NSC 16/06 Q1016 NOSIG",
      "taf": "TAF OJAI 280429Z 2806/2912 26010KT 5000 HZ NSC"
    },
    {
      "icao": "OMAA",
      "alert": "OK",
      "vis_m": null,
      "fzfg": false,
      "metar_trigger": false,
      "taf_trigger": false,
      "metar": "",
      "taf": ""
    },
    {
      "icao": "OMDB",
      "alert": "OK",
      "vis_m": null,
      "fzfg": false,
      "metar_trigger": false,
      "taf_trigger": false,
      "metar": "",
      "taf": ""
    },
    {
      "icao": "UAAA",
      "alert": "OK",
      "vis_m": 9999,
      "fzfg": false,
      "metar_trigger": false,
      "taf_trigger": false,
      "metar": "METAR UAAA 280930Z 03003MPS 340V080 9999 FEW100 17/01 Q1007 NOSIG",
      "taf": "TAF UAAA 280503Z 2806/2906 34002G07MPS 9999 FEW100 TX18/2810Z TN05/2901Z"
    },
    {
      "icao": "UBBB",
      "alert": "OK",
      "vis_m": 9999,
      "fzfg": false,
      "metar_trigger": false,
      "taf_trigger": false,
      "metar": "METAR UBBB 280930Z 20006KT 9999 -SHRA SCT008 BKN040CB OVC040 12/11 Q0999 NOSIG",
      "taf": "TAF UBBB 280504Z 2806/2906 26005KT 8000 -SHRA SCT010 SCT040CB OVC040 TX14/2810Z TN10/2902Z"
    },
    {
      "icao": "UDSG",
      "alert": "OK",
      "vis_m": 9999,
      "fzfg": false,
      "metar_trigger": false,
      "taf_trigger": false,
      "metar": "METAR UDSG 280930Z 15003KT 9999 BKN033CB 07/01 Q1007 NOSIG",
      "taf": "TAF UDSG 280458Z 2806/2906 24006KT 9999 BKN040"
    },
    {
      "icao": "UDYZ",
      "alert": "OK",
      "vis_m": 9999,
      "fzfg": false,
      "metar_trigger": false,
      "taf_trigger": false,
      "metar": "METAR UDYZ 280930Z VRB01KT 9999 BKN043CB 12/05 Q1004 NOSIG",
      "taf": "TAF UDYZ 280500Z 2806/2906 16006KT 6000 BKN030"
    },
    {
      "icao": "UGKO",
      "alert": "OK",
      "vis_m": 9999,
      "fzfg": false,
      "metar_trigger": false,
      "taf_trigger": false,
      "metar": "METAR UGKO 280930Z 25004KT 180V300 9999 BKN024 13/07 Q1008 NOSIG",
      "taf": "TAF UGKO 280500Z 2806/2906 26006KT 9999 OVC050 TX18/2811Z TN06/2903Z"
    }
  ]
}