{
  "ts_utc": "2026-04-27T14:28:28Z",
  "threshold_m": 150,
  "source": "stations_override.txt (ICAO list) + aviationweather.gov (METAR/TAF raw)",
  "station_count": 159,
  "stations": [
    {
      "icao": "BIKF",
      "alert": "OK",
      "vis_m": 3000,
      "fzfg": false,
      "metar_trigger": false,
      "taf_trigger": false,
      "metar": "METAR BIKF 271400Z 16022G32KT 3000 -RA OVC004 09/09 Q1006",
      "taf": "TAF BIKF 271333Z 2715/2815 17025KT 9999 -RADZ BKN008 OVC018 TX09/2715Z TN07/2804Z"
    },
    {
      "icao": "BKPR",
      "alert": "OK",
      "vis_m": null,
      "fzfg": false,
      "metar_trigger": false,
      "taf_trigger": false,
      "metar": "",
      "taf": "TAF BKPR 271130Z 2712/2812 03005KT CAVOK"
    },
    {
      "icao": "EBCI",
      "alert": "OK",
      "vis_m": 9999,
      "fzfg": false,
      "metar_trigger": false,
      "taf_trigger": false,
      "metar": "METAR EBCI 271420Z 02008KT 340V070 CAVOK 19/01 Q1021 NOSIG",
      "taf": "TAF EBCI 271100Z 2712/2818 05006KT CAVOK"
    },
    {
      "icao": "EDDB",
      "alert": "OK",
      "vis_m": 9999,
      "fzfg": false,
      "metar_trigger": false,
      "taf_trigger": false,
      "metar": "METAR EDDB 271420Z AUTO 34006KT 280V020 CAVOK 16/01 Q1022 NOSIG",
      "taf": "TAF EDDB 271100Z 2712/2812 30006KT CAVOK"
    },
    {
      "icao": "EDDH",
      "alert": "OK",
      "vis_m": 9999,
      "fzfg": false,
      "metar_trigger": false,
      "taf_trigger": false,
      "metar": "METAR EDDH 271420Z AUTO 05006KT 330V080 CAVOK 14/03 Q1024 NOSIG",
      "taf": "TAF EDDH 271100Z 2712/2818 VRB03KT CAVOK"
    },
    {
      "icao": "EDDK",
      "alert": "OK",
      "vis_m": 9999,
      "fzfg": false,
      "metar_trigger": false,
      "taf_trigger": false,
      "metar": "METAR EDDK 271420Z AUTO 28004KT 170V330 CAVOK 20/03 Q1021 NOSIG",
      "taf": "TAF EDDK 271100Z 2712/2818 VRB03KT CAVOK"
    },
    {
      "icao": "EDDN",
      "alert": "OK",
      "vis_m": 9999,
      "fzfg": false,
      "metar_trigger": false,
      "taf_trigger": false,
      "metar": "METAR EDDN 271420Z AUTO 29007KT 260V330 CAVOK 18/M01 Q1020 NOSIG",
      "taf": ""
    },
    {
      "icao": "EDDS",
      "alert": "OK",
      "vis_m": 9999,
      "fzfg": false,
      "metar_trigger": false,
      "taf_trigger": false,
      "metar": "METAR EDDS 271420Z AUTO 36005KT 310V030 CAVOK 19/M00 Q1019 NOSIG",
      "taf": "TAF EDDS 271100Z 2712/2812 03005KT CAVOK"
    },
    {
      "icao": "EDFH",
      "alert": "OK",
      "vis_m": 9999,
      "fzfg": false,
      "metar_trigger": false,
      "taf_trigger": false,
      "metar": "METAR EDFH 271420Z VRB03KT CAVOK 17/01 Q1021",
      "taf": "TAF EDFH 271100Z 2712/2812 09006KT CAVOK"
    },
    {
      "icao": "EDJA",
      "alert": "OK",
      "vis_m": 9999,
      "fzfg": false,
      "metar_trigger": false,
      "taf_trigger": false,
      "metar": "METAR EDJA 271420Z COR 03006KT 330V100 CAVOK 19/03 Q1019",
      "taf": "TAF EDJA 271400Z 2715/2724 04006KT CAVOK"
    },
    {
      "icao": "EDLW",
      "alert": "OK",
      "vis_m": 9999,
      "fzfg": false,
      "metar_trigger": false,
      "taf_trigger": false,
      "metar": "METAR EDLW 271420Z 04004KT 350V110 CAVOK 16/02 Q1022",
      "taf": "TAF EDLW 271100Z 2712/2812 05006KT CAVOK"
    },
    {
      "icao": "EDNY",
      "alert": "OK",
      "vis_m": 9999,
      "fzfg": false,
      "metar_trigger": false,
      "taf_trigger": false,
      "metar": "METAR EDNY 271420Z VRB03KT CAVOK 22/00 Q1018",
      "taf": "TAF EDNY 271400Z 2715/2724 32006KT CAVOK"
    },
    {
      "icao": "EDSB",
      "alert": "OK",
      "vis_m": 9999,
      "fzfg": false,
      "metar_trigger": false,
      "taf_trigger": false,
      "metar": "METAR EDSB 271420Z 01010KT 330V040 CAVOK 20/04 Q1019",
      "taf": "TAF EDSB 271100Z 2712/2812 02010KT CAVOK"
    },
    {
      "icao": "EETN",
      "alert": "OK",
      "vis_m": 9999,
      "fzfg": false,
      "metar_trigger": false,
      "taf_trigger": false,
      "metar": "METAR EETN 271420Z 32013KT 9999 FEW030CB 07/M05 Q1014 NOSIG",
      "taf": "TAF EETN 271130Z 2712/2812 30014KT 9999 SCT045"
    },
    {
      "icao": "EFTU",
      "alert": "OK",
      "vis_m": 9999,
      "fzfg": false,
      "metar_trigger": false,
      "taf_trigger": false,
      "metar": "METAR EFTU 271420Z AUTO 33013G26KT 290V360 CAVOK 07/M07 Q1016",
      "taf": "TAF EFTU 271125Z 2712/2812 33012KT 9999 FEW045"
    },
    {
      "icao": "EGBB",
      "alert": "OK",
      "vis_m": 9999,
      "fzfg": false,
      "metar_trigger": false,
      "taf_trigger": false,
      "metar": "METAR EGBB 271420Z 33009KT 9999 FEW047 18/07 Q1024",
      "taf": "TAF EGBB 271103Z 2712/2812 33009KT 9999 FEW045"
    },
    {
      "icao": "EGGP",
      "alert": "OK",
      "vis_m": 9999,
      "fzfg": false,
      "metar_trigger": false,
      "taf_trigger": false,
      "metar": "METAR EGGP 271420Z 30012KT 260V330 9999 FEW033 15/07 Q1026",
      "taf": "TAF EGGP 271058Z 2712/2812 31012KT 9999 FEW020"
    },
    {
      "icao": "EGGW",
      "alert": "OK",
      "vis_m": 9999,
      "fzfg": false,
      "metar_trigger": false,
      "taf_trigger": false,
      "metar": "METAR EGGW 271420Z AUTO 02006KT 310V080 9999 NCD 19/03 Q1022",
      "taf": "TAF EGGW 271102Z 2712/2812 01009KT 9999 FEW045"
    },
    {
      "icao": "EGKK",
      "alert": "OK",
      "vis_m": 9999,
      "fzfg": false,
      "metar_trigger": false,
      "taf_trigger": false,
      "metar": "METAR EGKK 271420Z 04008KT 340V090 CAVOK 20/04 Q1022",
      "taf": "TAF EGKK 271101Z 2712/2818 07008KT 9999 FEW045"
    },
    {
      "icao": "EGNM",
      "alert": "OK",
      "vis_m": 9999,
      "fzfg": false,
      "metar_trigger": false,
      "taf_trigger": false,
      "metar": "METAR EGNM 271420Z 03009KT 9999 BKN045 14/07 Q1025",
      "taf": "TAF EGNM 271059Z 2712/2812 02006KT 9999 FEW035 SCT045"
    },
    {
      "icao": "EGPD",
      "alert": "OK",
      "vis_m": 9999,
      "fzfg": false,
      "metar_trigger": false,
      "taf_trigger": false,
      "metar": "METAR EGPD 271420Z 12005KT 9999 FEW007 BKN024 11/09 Q1027 TEMPO SHRA",
      "taf": ""
    },
    {
      "icao": "EGPF",
      "alert": "OK",
      "vis_m": 9999,
      "fzfg": false,
      "metar_trigger": false,
      "taf_trigger": false,
      "metar": "METAR EGPF 271420Z AUTO 28003KT 200V350 9999 FEW046 17/07 Q1026",
      "taf": ""
    },
    {
      "icao": "EHBK",
      "alert": "OK",
      "vis_m": 9999,
      "fzfg": false,
      "metar_trigger": false,
      "taf_trigger": false,
      "metar": "METAR EHBK 271355Z AUTO 06008KT 010V100 9999 NSC 18/03 Q1021 NOSIG",
      "taf": "TAF EHBK 271107Z 2712/2818 03005KT CAVOK"
    },
    {
      "icao": "EHEH",
      "alert": "OK",
      "vis_m": 9999,
      "fzfg": false,
      "metar_trigger": false,
      "taf_trigger": false,
      "metar": "METAR EHEH 271355Z AUTO 36006KT 300V080 9999 OVC140 19/M00 Q1022 BLU NOSIG RMK TREND REMOTE BY EHWX",
      "taf": "TAF EHEH 271114Z 2712/2818 04007KT CAVOK"
    },
    {
      "icao": "EKBI",
      "alert": "OK",
      "vis_m": 9999,
      "fzfg": false,
      "metar_trigger": false,
      "taf_trigger": false,
      "metar": "METAR EKBI 271420Z AUTO 11006KT 070V150 9999 NCD 12/01 Q1025",
      "taf": "TAF EKBI 271127Z 2712/2812 VRB03KT 9999 SCT025"
    },
    {
      "icao": "EKCH",
      "alert": "OK",
      "vis_m": 9999,
      "fzfg": false,
      "metar_trigger": false,
      "taf_trigger": false,
      "metar": "METAR EKCH 271420Z AUTO 01011KT 9999 NCD 12/M05 Q1025 NOSIG",
      "taf": "TAF EKCH 271127Z 2712/2812 36012KT CAVOK"
    },
    {
      "icao": "ENAL",
      "alert": "OK",
      "vis_m": 9999,
      "fzfg": false,
      "metar_trigger": false,
      "taf_trigger": false,
      "metar": "METAR ENAL 271420Z 06013KT CAVOK 09/01 Q1029",
      "taf": "TAF ENAL 271100Z 2712/2721 07015KT CAVOK"
    },
    {
      "icao": "ENBR",
      "alert": "OK",
      "vis_m": 9999,
      "fzfg": false,
      "metar_trigger": false,
      "taf_trigger": false,
      "metar": "METAR ENBR 271420Z 29006KT 240V320 CAVOK 10/M03 Q1028 NOSIG RMK WIND 1200FT 29009KT",
      "taf": "TAF ENBR 271100Z 2712/2812 22006KT CAVOK"
    },
    {
      "icao": "ENGM",
      "alert": "OK",
      "vis_m": 9999,
      "fzfg": false,
      "metar_trigger": false,
      "taf_trigger": false,
      "metar": "METAR ENGM 271420Z 03009KT 360V070 CAVOK 11/M06 Q1025 NOSIG",
      "taf": "TAF ENGM 271100Z 2712/2812 01008KT CAVOK"
    },
    {
      "icao": "ENHD",
      "alert": "OK",
      "vis_m": 9999,
      "fzfg": false,
      "metar_trigger": false,
      "taf_trigger": false,
      "metar": "METAR ENHD 271420Z 24005KT 210V270 CAVOK 09/01 Q1028",
      "taf": "TAF ENHD 271100Z 2712/2721 25004KT CAVOK"
    },
    {
      "icao": "ENTC",
      "alert": "OK",
      "vis_m": 9999,
      "fzfg": false,
      "metar_trigger": false,
      "taf_trigger": false,
      "metar": "METAR ENTC 271420Z 24007KT 9999 VCSH SCT022 SCT038 01/M01 Q1025 TEMPO 1000 SHSN VV008 RMK WIND 2600FT 34019KT",
      "taf": "TAF ENTC 271100Z 2712/2812 20005KT 9999 FEW006 SCT020 BKN035"
    },
    {
      "icao": "ENTO",
      "alert": "OK",
      "vis_m": 9999,
      "fzfg": false,
      "metar_trigger": false,
      "taf_trigger": false,
      "metar": "METAR ENTO 271420Z 21009KT CAVOK 10/M03 Q1026 NOSIG",
      "taf": "TAF ENTO 271100Z 2712/2812 01008KT CAVOK"
    },
    {
      "icao": "ENVA",
      "alert": "OK",
      "vis_m": 9999,
      "fzfg": false,
      "metar_trigger": false,
      "taf_trigger": false,
      "metar": "METAR ENVA 271420Z 27011KT 9999 FEW038 SCT046 08/01 Q1029 NOSIG RMK WIND 670FT 29013KT",
      "taf": "TAF ENVA 271100Z 2712/2812 27010KT 9999 FEW015 BKN030"
    },
    {
      "icao": "ENZV",
      "alert": "OK",
      "vis_m": 9999,
      "fzfg": false,
      "metar_trigger": false,
      "taf_trigger": false,
      "metar": "METAR ENZV 271420Z 29009KT 260V320 CAVOK 09/02 Q1028 NOSIG",
      "taf": "TAF ENZV 271100Z 2712/2812 31010KT CAVOK"
    },
    {
      "icao": "EPGD",
      "alert": "OK",
      "vis_m": 9999,
      "fzfg": false,
      "metar_trigger": false,
      "taf_trigger": false,
      "metar": "METAR EPGD 271400Z 36013KT 340V040 CAVOK 08/M03 Q1023",
      "taf": "TAF EPGD 271130Z 2712/2812 34014KT CAVOK"
    },
    {
      "icao": "EPKK",
      "alert": "OK",
      "vis_m": 9999,
      "fzfg": false,
      "metar_trigger": false,
      "taf_trigger": false,
      "metar": "METAR EPKK 271400Z 28009KT 250V310 CAVOK 15/M09 Q1020",
      "taf": "TAF EPKK 271130Z 2712/2812 29012KT CAVOK"
    },
    {
      "icao": "EPKT",
      "alert": "OK",
      "vis_m": 9999,
      "fzfg": false,
      "metar_trigger": false,
      "taf_trigger": false,
      "metar": "METAR EPKT 271400Z 32008KT 260V030 CAVOK 14/M10 Q1021",
      "taf": "TAF EPKT 271130Z 2712/2812 31012KT CAVOK"
    },
    {
      "icao": "EPLB",
      "alert": "OK",
      "vis_m": 9999,
      "fzfg": false,
      "metar_trigger": false,
      "taf_trigger": false,
      "metar": "METAR EPLB 271400Z 32013KT CAVOK 13/M06 Q1019",
      "taf": "TAF EPLB 271130Z 2712/2812 29015KT CAVOK"
    },
    {
      "icao": "EPMO",
      "alert": "OK",
      "vis_m": 9999,
      "fzfg": false,
      "metar_trigger": false,
      "taf_trigger": false,
      "metar": "METAR EPMO 271400Z 29015KT 260V330 CAVOK 14/M07 Q1020",
      "taf": "TAF EPMO 271130Z 2712/2812 30013KT CAVOK"
    },
    {
      "icao": "EPPO",
      "alert": "OK",
      "vis_m": 9999,
      "fzfg": false,
      "metar_trigger": false,
      "taf_trigger": false,
      "metar": "METAR EPPO 271400Z 31008KT 250V330 CAVOK 16/M02 Q1022",
      "taf": "TAF EPPO 271130Z 2712/2812 33010KT CAVOK"
    },
    {
      "icao": "EPRA",
      "alert": "OK",
      "vis_m": 9999,
      "fzfg": false,
      "metar_trigger": false,
      "taf_trigger": false,
      "metar": "METAR EPRA 271400Z 31014KT 270V340 CAVOK 13/M08 Q1020",
      "taf": "TAF EPRA 271130Z 2712/2721 30012KT CAVOK"
    },
    {
      "icao": "EPRZ",
      "alert": "OK",
      "vis_m": 9999,
      "fzfg": false,
      "metar_trigger": false,
      "taf_trigger": false,
      "metar": "METAR EPRZ 271400Z 29015KT CAVOK 14/M08 Q1020",
      "taf": "TAF EPRZ 271130Z 2712/2812 27014KT CAVOK"
    },
    {
      "icao": "EPSC",
      "alert": "OK",
      "vis_m": 9999,
      "fzfg": false,
      "metar_trigger": false,
      "taf_trigger": false,
      "metar": "METAR EPSC 271400Z 31011KT 280V350 CAVOK 15/M02 Q1022",
      "taf": "TAF EPSC 271130Z 2712/2812 29008KT CAVOK"
    },
    {
      "icao": "EPSY",
      "alert": "OK",
      "vis_m": 9999,
      "fzfg": false,
      "metar_trigger": false,
      "taf_trigger": false,
      "metar": "METAR EPSY 271400Z 33017G27KT 270V360 CAVOK 10/M07 Q1020",
      "taf": "TAF EPSY 271130Z 2712/2721 32010KT CAVOK"
    },
    {
      "icao": "EPWA",
      "alert": "OK",
      "vis_m": 9999,
      "fzfg": false,
      "metar_trigger": false,
      "taf_trigger": false,
      "metar": "METAR EPWA 271400Z 31016KT 270V340 CAVOK 13/M07 Q1020 NOSIG",
      "taf": "TAF EPWA 271130Z 2712/2812 31012KT CAVOK"
    },
    {
      "icao": "EPWR",
      "alert": "OK",
      "vis_m": 9999,
      "fzfg": false,
      "metar_trigger": false,
      "taf_trigger": false,
      "metar": "METAR EPWR 271400Z 29009KT 250V330 CAVOK 16/M06 Q1022",
      "taf": "TAF EPWR 271130Z 2712/2812 33010KT CAVOK"
    },
    {
      "icao": "ESGG",
      "alert": "OK",
      "vis_m": 9999,
      "fzfg": false,
      "metar_trigger": false,
      "taf_trigger": false,
      "metar": "METAR ESGG 271420Z 02010KT 350V050 CAVOK 10/M07 Q1025",
      "taf": "TAF ESGG 271130Z 2712/2812 01009KT CAVOK"
    },
    {
      "icao": "ESKN",
      "alert": "OK",
      "vis_m": 9999,
      "fzfg": false,
      "metar_trigger": false,
      "taf_trigger": false,
      "metar": "METAR ESKN 271420Z 31010KT 9999 VCSH SCT080TCU 10/M08 Q1022",
      "taf": ""
    },
    {
      "icao": "ESMS",
      "alert": "OK",
      "vis_m": 9999,
      "fzfg": false,
      "metar_trigger": false,
      "taf_trigger": false,
      "metar": "METAR ESMS 271420Z 29012KT CAVOK 12/M03 Q1023",
      "taf": "TAF ESMS 271127Z 2712/2812 36008KT CAVOK"
    },
    {
      "icao": "ESSA",
      "alert": "OK",
      "vis_m": 9999,
      "fzfg": false,
      "metar_trigger": false,
      "taf_trigger": false,
      "metar": "METAR ESSA 271420Z 01010KT 9999 VCSH SCT065TCU 07/M08 Q1022 NOSIG",
      "taf": "TAF ESSA 271130Z 2712/2812 34014KT 9999 FEW040"
    },
    {
      "icao": "EYKA",
      "alert": "OK",
      "vis_m": 9999,
      "fzfg": false,
      "metar_trigger": false,
      "taf_trigger": false,
      "metar": "METAR EYKA 271420Z 33007KT 270V040 9999 VCSH SCT088CB 09/M09 Q1016",
      "taf": "TAF EYKA 271100Z 2712/2812 33013KT 9000 NSC"
    },
    {
      "icao": "EYPA",
      "alert": "OK",
      "vis_m": 9999,
      "fzfg": false,
      "metar_trigger": false,
      "taf_trigger": false,
      "metar": "METAR EYPA 271420Z 36010KT 310V030 9999 BKN013 06/01 Q1021",
      "taf": "TAF EYPA 271100Z 2712/2812 34010KT 9000 NSC"
    },
    {
      "icao": "EYVI",
      "alert": "OK",
      "vis_m": 9999,
      "fzfg": false,
      "metar_trigger": false,
      "taf_trigger": false,
      "metar": "METAR EYVI 271420Z 32012KT 290V350 9999 VCSH FEW065CB 08/M08 Q1015 NOSIG",
      "taf": ""
    },
    {
      "icao": "GCFV",
      "alert": "OK",
      "vis_m": 9999,
      "fzfg": false,
      "metar_trigger": false,
      "taf_trigger": false,
      "metar": "METAR GCFV 271400Z 02015KT 9999 FEW025 SCT030 BKN045 21/16 Q1014",
      "taf": "TAF GCFV 271400Z 2715/2815 36012KT 9999 SCT020 BKN035 TX22/2814Z TN17/2806Z"
    },
    {
      "icao": "GCLP",
      "alert": "OK",
      "vis_m": 9999,
      "fzfg": false,
      "metar_trigger": false,
      "taf_trigger": false,
      "metar": "METAR GCLP 271400Z 35019KT 9999 SCT030 24/15 Q1014 NOSIG",
      "taf": "TAF GCLP 271400Z 2715/2815 35015KT 9999 SCT035 TX24/2814Z TN17/2806Z"
    },
    {
      "icao": "GCTS",
      "alert": "OK",
      "vis_m": 9999,
      "fzfg": false,
      "metar_trigger": false,
      "taf_trigger": false,
      "metar": "METAR GCTS 271400Z 12011KT 090V150 9999 SCT040 21/13 Q1016 NOSIG",
      "taf": "TAF GCTS 271400Z 2715/2815 18010KT 9999 BKN035 TX23/2814Z TN16/2806Z"
    },
    {
      "icao": "GMAD",
      "alert": "OK",
      "vis_m": 9999,
      "fzfg": false,
      "metar_trigger": false,
      "taf_trigger": false,
      "metar": "METAR GMAD 271400Z 26017KT 9999 FEW030 SCT100 24/15 Q1009 NOSIG",
      "taf": "TAF GMAD 271100Z 2712/2818 26012KT 8000 SCT016 BKN080"
    },
    {
      "icao": "GMMN",
      "alert": "OK",
      "vis_m": 9999,
      "fzfg": false,
      "metar_trigger": false,
      "taf_trigger": false,
      "metar": "METAR GMMN 271400Z 32012KT CAVOK 26/19 Q1008 NOSIG",
      "taf": "TAF GMMN 271100Z 2712/2818 30010KT CAVOK"
    },
    {
      "icao": "GMMX",
      "alert": "OK",
      "vis_m": 9999,
      "fzfg": false,
      "metar_trigger": false,
      "taf_trigger": false,
      "metar": "METAR GMMX 271400Z 27009KT 220V310 9999 FEW026 28/16 Q1008 NOSIG",
      "taf": "TAF GMMX 271100Z 2712/2818 06006KT 8000 SCT026"
    },
    {
      "icao": "HEGN",
      "alert": "OK",
      "vis_m": 9999,
      "fzfg": false,
      "metar_trigger": false,
      "taf_trigger": false,
      "metar": "METAR HEGN 271400Z 36017KT CAVOK 26/10 Q1009 NOSIG",
      "taf": "TAF HEGN 271100Z 2712/2818 34012G24KT CAVOK"
    },
    {
      "icao": "HEMA",
      "alert": "OK",
      "vis_m": 9999,
      "fzfg": false,
      "metar_trigger": false,
      "taf_trigger": false,
      "metar": "METAR HEMA 271400Z 04008KT CAVOK 26/08 Q1009 NOSIG",
      "taf": "TAF HEMA 271100Z 2712/2818 02013G26KT CAVOK"
    },
    {
      "icao": "HESH",
      "alert": "OK",
      "vis_m": 9999,
      "fzfg": false,
      "metar_trigger": false,
      "taf_trigger": false,
      "metar": "METAR HESH 271400Z 05008KT CAVOK 28/10 Q1008 NOSIG",
      "taf": "TAF HESH 271100Z 2712/2818 04013KT CAVOK"
    },
    {
      "icao": "HESX",
      "alert": "OK",
      "vis_m": 9999,
      "fzfg": false,
      "metar_trigger": false,
      "taf_trigger": false,
      "metar": "METAR HESX 271400Z 01009KT 9999 SCT020 24/10 Q1012 NOSIG",
      "taf": "TAF HESX 271100Z 2712/2818 32012KT 9999 SCT020"
    },
    {
      "icao": "LATI",
      "alert": "OK",
      "vis_m": 9999,
      "fzfg": false,
      "metar_trigger": false,
      "taf_trigger": false,
      "metar": "METAR LATI 271420Z 28007KT 250V310 9999 FEW064 27/06 Q1015 NOSIG",
      "taf": "TAF LATI 271100Z 2712/2812 32010KT CAVOK TX27/2712Z TN10/2804Z"
    },
    {
      "icao": "LBPD",
      "alert": "OK",
      "vis_m": 9999,
      "fzfg": false,
      "metar_trigger": false,
      "taf_trigger": false,
      "metar": "METAR LBPD 271400Z AUTO 08004KT 330V130 9999 NCD 18/05 Q1020 NOSIG",
      "taf": "TAF LBPD 271100Z 2712/2812 13010KT 9999 SCT060"
    },
    {
      "icao": "LBSF",
      "alert": "OK",
      "vis_m": 9999,
      "fzfg": false,
      "metar_trigger": false,
      "taf_trigger": false,
      "metar": "METAR LBSF 271400Z 09006KT 040V140 CAVOK 19/02 Q1019 NOSIG",
      "taf": "TAF LBSF 271100Z 2712/2812 11010KT CAVOK"
    },
    {
      "icao": "LBWN",
      "alert": "OK",
      "vis_m": 9999,
      "fzfg": false,
      "metar_trigger": false,
      "taf_trigger": false,
      "metar": "METAR LBWN 271400Z 11012KT CAVOK 12/M01 Q1023 NOSIG",
      "taf": "TAF LBWN 271100Z 2712/2812 12014KT CAVOK"
    },
    {
      "icao": "LCLK",
      "alert": "OK",
      "vis_m": 9999,
      "fzfg": false,
      "metar_trigger": false,
      "taf_trigger": false,
      "metar": "METAR LCLK 271400Z 21009KT 180V240 9999 FEW025 24/16 Q1011 NOSIG",
      "taf": "TAF LCLK 271130Z 2712/2812 19014KT 9999 SCT015"
    },
    {
      "icao": "LCPH",
      "alert": "OK",
      "vis_m": 9999,
      "fzfg": false,
      "metar_trigger": false,
      "taf_trigger": false,
      "metar": "METAR LCPH 271400Z 31011KT 280V340 9999 SCT030 21/16 Q1012 NOSIG",
      "taf": "TAF LCPH 271130Z 2712/2812 22012KT 9999 FEW010 SCT015"
    },
    {
      "icao": "LEAL",
      "alert": "OK",
      "vis_m": 9999,
      "fzfg": false,
      "metar_trigger": false,
      "taf_trigger": false,
      "metar": "METAR LEAL 271400Z 09012KT 060V120 9999 FEW013 21/14 Q1017 NOSIG",
      "taf": "TAF LEAL 271100Z 2712/2812 08012KT 9999 FEW030 TX22/2712Z TN12/2806Z"
    },
    {
      "icao": "LEBB",
      "alert": "OK",
      "vis_m": 9999,
      "fzfg": false,
      "metar_trigger": false,
      "taf_trigger": false,
      "metar": "METAR LEBB 271400Z 11004KT 080V160 9999 BKN015 18/15 Q1018 NOSIG",
      "taf": "TAF LEBB 271100Z 2712/2812 04008KT 9999 SCT010 BKN020 TX21/2715Z TN12/2803Z"
    },
    {
      "icao": "LEBL",
      "alert": "OK",
      "vis_m": 9999,
      "fzfg": false,
      "metar_trigger": false,
      "taf_trigger": false,
      "metar": "METAR LEBL 271400Z 19006KT 140V220 CAVOK 20/15 Q1018 NOSIG",
      "taf": "TAF LEBL 271100Z 2712/2812 16009KT 9999 FEW025 TX22/2712Z TN13/2805Z"
    },
    {
      "icao": "LECH",
      "alert": "OK",
      "vis_m": 9000,
      "fzfg": false,
      "metar_trigger": false,
      "taf_trigger": false,
      "metar": "METAR LECH 271400Z AUTO 15007KT 090V220 9000 NCD 22/M00 Q1018",
      "taf": "TAF LECH 271100Z 2712/2812 13010KT 9999 FEW030 TX25/2713Z TN08/2806Z"
    },
    {
      "icao": "LEMD",
      "alert": "OK",
      "vis_m": 9999,
      "fzfg": false,
      "metar_trigger": false,
      "taf_trigger": false,
      "metar": "METAR LEMD 271400Z 16005KT 080V240 9999 FEW055 26/05 Q1015 NOSIG",
      "taf": "TAF LEMD 271100Z 2712/2818 VRB04KT CAVOK TX28/2715Z TN11/2806Z"
    },
    {
      "icao": "LEMG",
      "alert": "OK",
      "vis_m": 9999,
      "fzfg": false,
      "metar_trigger": false,
      "taf_trigger": false,
      "metar": "METAR LEMG 271400Z 13008KT 100V170 9999 SCT017 BKN029 19/14 Q1015 NOSIG",
      "taf": "TAF LEMG 271100Z 2712/2812 13010KT 9999 SCT018 SCT030 TX23/2715Z TN15/2806Z"
    },
    {
      "icao": "LEVC",
      "alert": "OK",
      "vis_m": 9999,
      "fzfg": false,
      "metar_trigger": false,
      "taf_trigger": false,
      "metar": "METAR LEVC 271400Z 10008KT 060V160 CAVOK 23/03 Q1018 NOSIG",
      "taf": "TAF LEVC 271100Z 2712/2812 11012KT 9999 FEW030 TX24/2712Z TN11/2806Z"
    },
    {
      "icao": "LEXJ",
      "alert": "OK",
      "vis_m": 9000,
      "fzfg": false,
      "metar_trigger": false,
      "taf_trigger": false,
      "metar": "METAR LEXJ 271400Z 05005KT 330V110 9000 OVC014 16/14 Q1018",
      "taf": "TAF LEXJ 271400Z 2715/2815 06009KT 9999 SCT011 BKN016 TX17/2813Z TN13/2807Z"
    },
    {
      "icao": "LEZG",
      "alert": "OK",
      "vis_m": 9999,
      "fzfg": false,
      "metar_trigger": false,
      "taf_trigger": false,
      "metar": "METAR LEZG 271400Z 08007KT 360V120 CAVOK 27/06 Q1015 NOSIG",
      "taf": "TAF LEZG 271100Z 2712/2812 10008KT 9999 FEW050 TX29/2714Z TN13/2806Z"
    },
    {
      "icao": "LEZL",
      "alert": "OK",
      "vis_m": 9999,
      "fzfg": false,
      "metar_trigger": false,
      "taf_trigger": false,
      "metar": "METAR LEZL 271400Z 07010KT 040V100 CAVOK 29/13 Q1011 NOSIG",
      "taf": "TAF LEZL 271400Z 2715/2815 08004KT CAVOK TX26/2815Z TN15/2806Z"
    },
    {
      "icao": "LFBD",
      "alert": "OK",
      "vis_m": 9999,
      "fzfg": false,
      "metar_trigger": false,
      "taf_trigger": false,
      "metar": "METAR LFBD 271400Z AUTO VRB07KT CAVOK 26/08 Q1017 NOSIG",
      "taf": "TAF LFBD 271100Z 2712/2818 01005KT CAVOK TX27/2715Z TN14/2804Z"
    },
    {
      "icao": "LFLL",
      "alert": "OK",
      "vis_m": 9999,
      "fzfg": false,
      "metar_trigger": false,
      "taf_trigger": false,
      "metar": "METAR LFLL 271400Z 34005KT 240V030 CAVOK 24/03 Q1017 NOSIG",
      "taf": "TAF LFLL 271100Z 2712/2818 36005KT CAVOK"
    },
    {
      "icao": "LFLS",
      "alert": "OK",
      "vis_m": 9999,
      "fzfg": false,
      "metar_trigger": false,
      "taf_trigger": false,
      "metar": "METAR LFLS 271400Z AUTO 04004KT 020V100 CAVOK 23/06 Q1017 NOSIG",
      "taf": "TAF LFLS 271400Z 2715/2815 09005KT CAVOK"
    },
    {
      "icao": "LFMN",
      "alert": "OK",
      "vis_m": 9999,
      "fzfg": false,
      "metar_trigger": false,
      "taf_trigger": false,
      "metar": "METAR LFMN 271400Z 16005KT 9999 FEW020 19/14 Q1018 NOSIG",
      "taf": "TAF LFMN 271400Z 2715/2821 16008KT CAVOK"
    },
    {
      "icao": "LFOB",
      "alert": "OK",
      "vis_m": 9999,
      "fzfg": false,
      "metar_trigger": false,
      "taf_trigger": false,
      "metar": "METAR LFOB 271400Z AUTO 03006KT 340V070 CAVOK 20/04 Q1021 NOSIG",
      "taf": "TAF LFOB 271100Z 2712/2812 04010KT CAVOK"
    },
    {
      "icao": "LFPO",
      "alert": "OK",
      "vis_m": 9999,
      "fzfg": false,
      "metar_trigger": false,
      "taf_trigger": false,
      "metar": "METAR LFPO 271400Z 34007KT 280V040 CAVOK 22/05 Q1020 NOSIG",
      "taf": "TAF LFPO 271100Z 2712/2818 02005KT CAVOK"
    },
    {
      "icao": "LFSB",
      "alert": "OK",
      "vis_m": 9999,
      "fzfg": false,
      "metar_trigger": false,
      "taf_trigger": false,
      "metar": "METAR LFSB 271400Z AUTO 02008KT 350V060 CAVOK 22/04 Q1018 NOSIG",
      "taf": "TAF LFSB 271100Z 2712/2812 36005KT CAVOK"
    },
    {
      "icao": "LGAV",
      "alert": "OK",
      "vis_m": 9999,
      "fzfg": false,
      "metar_trigger": false,
      "taf_trigger": false,
      "metar": "METAR LGAV 271420Z 05009KT 350V090 9999 FEW020 20/11 Q1018 NOSIG",
      "taf": "TAF LGAV 271100Z 2712/2812 05020KT CAVOK"
    },
    {
      "icao": "LGTS",
      "alert": "OK",
      "vis_m": 9999,
      "fzfg": false,
      "metar_trigger": false,
      "taf_trigger": false,
      "metar": "METAR LGTS 271420Z 18013KT 9999 FEW030 20/11 Q1019 NOSIG",
      "taf": "TAF LGTS 271100Z 2712/2812 17013KT 9999 FEW030"
    },
    {
      "icao": "LHBP",
      "alert": "OK",
      "vis_m": 9999,
      "fzfg": false,
      "metar_trigger": false,
      "taf_trigger": false,
      "metar": "METAR LHBP 271400Z 16005KT 110V260 CAVOK 18/M05 Q1020 NOSIG",
      "taf": "TAF LHBP 271115Z 2712/2812 VRB03KT CAVOK"
    },
    {
      "icao": "LHDC",
      "alert": "OK",
      "vis_m": 9999,
      "fzfg": false,
      "metar_trigger": false,
      "taf_trigger": false,
      "metar": "METAR LHDC 271345Z AUTO VRB04KT CAVOK 17/M06 Q1020 NOSIG",
      "taf": "TAF LHDC 271415Z 2715/2724 VRB03KT CAVOK"
    },
    {
      "icao": "LIBD",
      "alert": "OK",
      "vis_m": 9999,
      "fzfg": false,
      "metar_trigger": false,
      "taf_trigger": false,
      "metar": "METAR LIBD 271420Z 07005KT 020V110 CAVOK 22/08 Q1016",
      "taf": "TAF LIBD 271100Z 2712/2812 02012KT CAVOK"
    },
    {
      "icao": "LIBG",
      "alert": "OK",
      "vis_m": 9999,
      "fzfg": false,
      "metar_trigger": false,
      "taf_trigger": false,
      "metar": "METAR LIBG 271350Z 22008KT CAVOK 26/07 Q1016",
      "taf": "TAF LIBG 271400Z 2715/2724 19010KT CAVOK"
    },
    {
      "icao": "LIBP",
      "alert": "OK",
      "vis_m": 9999,
      "fzfg": false,
      "metar_trigger": false,
      "taf_trigger": false,
      "metar": "METAR LIBP 271420Z AUTO 05008KT 9999 NCD 22/12 Q1016",
      "taf": "TAF LIBP 271100Z 2712/2812 06010KT CAVOK"
    },
    {
      "icao": "LIBR",
      "alert": "OK",
      "vis_m": 9999,
      "fzfg": false,
      "metar_trigger": false,
      "taf_trigger": false,
      "metar": "METAR LIBR 271420Z 03006KT 350V060 CAVOK 19/16 Q1016",
      "taf": "TAF LIBR 271100Z 2712/2812 36010KT CAVOK"
    },
    {
      "icao": "LICA",
      "alert": "OK",
      "vis_m": 9999,
      "fzfg": false,
      "metar_trigger": false,
      "taf_trigger": false,
      "metar": "METAR LICA 271420Z AUTO 24007KT 9999 NCD 20/14 Q1017",
      "taf": "TAF LICA 271100Z 2712/2812 26012KT CAVOK"
    },
    {
      "icao": "LICC",
      "alert": "OK",
      "vis_m": 9999,
      "fzfg": false,
      "metar_trigger": false,
      "taf_trigger": false,
      "metar": "METAR LICC 271420Z 08008KT 9999 FEW080 22/16 Q1017",
      "taf": "TAF LICC 271100Z 2712/2812 09012KT CAVOK"
    },
    {
      "icao": "LICJ",
      "alert": "OK",
      "vis_m": 9999,
      "fzfg": false,
      "metar_trigger": false,
      "taf_trigger": false,
      "metar": "METAR LICJ 271420Z 06013KT CAVOK 21/12 Q1017",
      "taf": "TAF LICJ 271100Z 2712/2812 05014KT CAVOK"
    },
    {
      "icao": "LIMC",
      "alert": "OK",
      "vis_m": 9999,
      "fzfg": false,
      "metar_trigger": false,
      "taf_trigger": false,
      "metar": "METAR LIMC 271420Z VRB03KT CAVOK 26/09 Q1015 NOSIG",
      "taf": "TAF LIMC 271100Z 2712/2818 VRB05KT 9999 FEW060"
    },
    {
      "icao": "LIME",
      "alert": "OK",
      "vis_m": 9999,
      "fzfg": false,
      "metar_trigger": false,
      "taf_trigger": false,
      "metar": "METAR LIME 271420Z VRB03KT 9999 FEW020 25/10 Q1016 NOSIG",
      "taf": "TAF LIME 271100Z 2712/2812 VRB05KT CAVOK"
    },
    {
      "icao": "LIMF",
      "alert": "OK",
      "vis_m": 9999,
      "fzfg": false,
      "metar_trigger": false,
      "taf_trigger": false,
      "metar": "METAR LIMF 271420Z 09006KT 9999 FEW060 24/12 Q1016",
      "taf": "TAF LIMF 271100Z 2712/2812 VRB04KT CAVOK"
    },
    {
      "icao": "LIMJ",
      "alert": "OK",
      "vis_m": 9999,
      "fzfg": false,
      "metar_trigger": false,
      "taf_trigger": false,
      "metar": "METAR LIMJ 271420Z 22005KT CAVOK 18/14 Q1018",
      "taf": "TAF LIMJ 271100Z 2712/2812 20010KT 9999 FEW020"
    },
    {
      "icao": "LIPE",
      "alert": "OK",
      "vis_m": 9999,
      "fzfg": false,
      "metar_trigger": false,
      "taf_trigger": false,
      "metar": "METAR LIPE 271420Z 06006KT 010V100 CAVOK 25/11 Q1015",
      "taf": "TAF LIPE 271100Z 2712/2812 VRB05KT CAVOK"
    },
    {
      "icao": "LIPH",
      "alert": "OK",
      "vis_m": 9999,
      "fzfg": false,
      "metar_trigger": false,
      "taf_trigger": false,
      "metar": "METAR LIPH 271420Z 19003KT 140V240 CAVOK 24/08 Q1016",
      "taf": "TAF LIPH 271100Z 2712/2812 09010KT CAVOK"
    },
    {
      "icao": "LIPQ",
      "alert": "OK",
      "vis_m": 9999,
      "fzfg": false,
      "metar_trigger": false,
      "taf_trigger": false,
      "metar": "METAR LIPQ 271420Z AUTO 24006KT 210V280 9999 NCD 24/07 Q1016",
      "taf": "TAF LIPQ 271100Z 2712/2812 21010KT CAVOK"
    },
    {
      "icao": "LIPR",
      "alert": "OK",
      "vis_m": 9999,
      "fzfg": false,
      "metar_trigger": false,
      "taf_trigger": false,
      "metar": "METAR LIPR 271420Z 08007KT 040V120 CAVOK 20/16 Q1016",
      "taf": "TAF LIPR 271100Z 2712/2812 VRB05KT CAVOK"
    },
    {
      "icao": "LIPX",
      "alert": "OK",
      "vis_m": 9999,
      "fzfg": false,
      "metar_trigger": false,
      "taf_trigger": false,
      "metar": "METAR LIPX 271420Z 12004KT 060V180 CAVOK 25/09 Q1015",
      "taf": "TAF LIPX 271100Z 2712/2812 11010KT CAVOK"
    },
    {
      "icao": "LIPY",
      "alert": "OK",
      "vis_m": 9999,
      "fzfg": false,
      "metar_trigger": false,
      "taf_trigger": false,
      "metar": "METAR LIPY 271420Z AUTO 05008KT 030V090 9999 NCD 21/15 Q1016",
      "taf": "TAF LIPY 271100Z 2712/2812 06010KT CAVOK"
    },
    {
      "icao": "LIPZ",
      "alert": "OK",
      "vis_m": 9999,
      "fzfg": false,
      "metar_trigger": false,
      "taf_trigger": false,
      "metar": "METAR LIPZ 271420Z 16008KT 140V200 CAVOK 21/12 Q1016 NOSIG",
      "taf": "TAF LIPZ 271100Z 2712/2818 15010KT 9999 FEW040"
    },
    {
      "icao": "LIRF",
      "alert": "OK",
      "vis_m": 9999,
      "fzfg": false,
      "metar_trigger": false,
      "taf_trigger": false,
      "metar": "METAR LIRF 271420Z 27011KT CAVOK 20/14 Q1018 NOSIG",
      "taf": "TAF LIRF 271100Z 2712/2818 26012KT CAVOK"
    },
    {
      "icao": "LIRN",
      "alert": "OK",
      "vis_m": 9999,
      "fzfg": false,
      "metar_trigger": false,
      "taf_trigger": false,
      "metar": "METAR LIRN 271420Z 17009KT CAVOK 20/14 Q1017 NOSIG",
      "taf": "TAF LIRN 271100Z 2712/2812 26010KT CAVOK"
    },
    {
      "icao": "LIRP",
      "alert": "OK",
      "vis_m": 9999,
      "fzfg": false,
      "metar_trigger": false,
      "taf_trigger": false,
      "metar": "METAR LIRP 271415Z 28009KT 9999 FEW030 21/13 Q1018 NOSIG",
      "taf": "TAF LIRP 271100Z 2712/2812 30007KT CAVOK"
    },
    {
      "icao": "LIRZ",
      "alert": "OK",
      "vis_m": 9999,
      "fzfg": false,
      "metar_trigger": false,
      "taf_trigger": false,
      "metar": "METAR LIRZ 271420Z AUTO 20005KT 150V230 9999 NCD 25/05 Q1016",
      "taf": "TAF LIRZ 271100Z 2712/2812 VRB05KT CAVOK"
    },
    {
      "icao": "LJLJ",
      "alert": "OK",
      "vis_m": 9999,
      "fzfg": false,
      "metar_trigger": false,
      "taf_trigger": false,
      "metar": "METAR LJLJ 271400Z 10006KT 040V140 9999 FEW100 20/03 Q1018 NOSIG",
      "taf": "TAF LJLJ 271100Z 2712/2812 08004KT CAVOK"
    },
    {
      "icao": "LKMT",
      "alert": "OK",
      "vis_m": 9999,
      "fzfg": false,
      "metar_trigger": false,
      "taf_trigger": false,
      "metar": "METAR LKMT 271400Z 04005KT 360V080 CAVOK 16/M02 Q1021 NOSIG",
      "taf": "TAF LKMT 271100Z 2712/2812 03004KT CAVOK"
    },
    {
      "icao": "LKPR",
      "alert": "OK",
      "vis_m": 9999,
      "fzfg": false,
      "metar_trigger": false,
      "taf_trigger": false,
      "metar": "METAR LKPR 271400Z VRB04KT CAVOK 15/M04 Q1021 NOSIG",
      "taf": "TAF LKPR 271400Z 2715/2821 04005KT CAVOK"
    },
    {
      "icao": "LLBG",
      "alert": "OK",
      "vis_m": 9999,
      "fzfg": false,
      "metar_trigger": false,
      "taf_trigger": false,
      "metar": "METAR LLBG 271420Z 31011KT 9999 FEW030 23/10 Q1011 NOSIG",
      "taf": "TAF LLBG 271106Z 2712/2812 29010KT 9999 SCT030 TX23/2712Z TN16/2803Z"
    },
    {
      "icao": "LMML",
      "alert": "OK",
      "vis_m": 9999,
      "fzfg": false,
      "metar_trigger": false,
      "taf_trigger": false,
      "metar": "METAR LMML 271415Z 17008KT 140V200 9999 FEW040 20/13 Q1018 NOSIG",
      "taf": "TAF LMML 271100Z 2712/2812 13009KT CAVOK"
    },
    {
      "icao": "LOWW",
      "alert": "OK",
      "vis_m": 9999,
      "fzfg": false,
      "metar_trigger": false,
      "taf_trigger": false,
      "metar": "METAR LOWW 271420Z 08005KT 020V140 CAVOK 18/01 Q1020 NOSIG",
      "taf": "TAF LOWW 271415Z 2715/2821 06005KT CAVOK TX19/2814Z TN06/2804Z"
    },
    {
      "icao": "LPFR",
      "alert": "OK",
      "vis_m": 9999,
      "fzfg": false,
      "metar_trigger": false,
      "taf_trigger": false,
      "metar": "METAR LPFR 271400Z 13011KT 9999 FEW040 23/14 Q1011",
      "taf": "TAF LPFR 271100Z 2712/2812 12013KT CAVOK"
    },
    {
      "icao": "LPMA",
      "alert": "OK",
      "vis_m": 9999,
      "fzfg": false,
      "metar_trigger": false,
      "taf_trigger": false,
      "metar": "METAR LPMA 271400Z 11005KT 060V220 9999 SCT015 20/13 Q1017",
      "taf": "TAF LPMA 271100Z 2712/2812 VRB05KT 9999 SCT015"
    },
    {
      "icao": "LPPR",
      "alert": "OK",
      "vis_m": 9999,
      "fzfg": false,
      "metar_trigger": false,
      "taf_trigger": false,
      "metar": "METAR LPPR 271400Z 30006KT 270V340 9999 FEW020 22/15 Q1013",
      "taf": "TAF LPPR 271100Z 2712/2812 30008KT CAVOK"
    },
    {
      "icao": "LPPS",
      "alert": "OK",
      "vis_m": 9999,
      "fzfg": false,
      "metar_trigger": false,
      "taf_trigger": false,
      "metar": "METAR LPPS 271400Z 36012KT 9999 FEW015 BKN030 18/12 Q1017",
      "taf": "TAF LPPS 271100Z 2712/2818 36013KT 9999 FEW015 BKN030"
    },
    {
      "icao": "LPPT",
      "alert": "OK",
      "vis_m": 9999,
      "fzfg": false,
      "metar_trigger": false,
      "taf_trigger": false,
      "metar": "METAR LPPT 271400Z VRB06G17KT 9999 FEW042 28/10 Q1012",
      "taf": "TAF LPPT 271100Z 2712/2818 10005KT CAVOK"
    },
    {
      "icao": "LQBK",
      "alert": "OK",
      "vis_m": 9999,
      "fzfg": false,
      "metar_trigger": false,
      "taf_trigger": false,
      "metar": "METAR LQBK 271400Z 05005KT 350V130 CAVOK 21/02 Q1018 NOSIG",
      "taf": "TAF LQBK 271100Z 2712/2812 33005KT CAVOK TX21/2812Z TN05/2804Z"
    },
    {
      "icao": "LQSA",
      "alert": "OK",
      "vis_m": 9999,
      "fzfg": false,
      "metar_trigger": false,
      "taf_trigger": false,
      "metar": "METAR LQSA 271400Z 26006KT 180V320 9999 SCT060 24/02 Q1016 NOSIG",
      "taf": "TAF LQSA 271100Z 2712/2812 VRB02KT CAVOK TX25/2712Z TN06/2804Z"
    },
    {
      "icao": "LQTZ",
      "alert": "OK",
      "vis_m": 9999,
      "fzfg": false,
      "metar_trigger": false,
      "taf_trigger": false,
      "metar": "METAR LQTZ 271400Z 10005KT 020V140 CAVOK 22/04 Q1018",
      "taf": "TAF LQTZ 271100Z 2712/2812 03005KT CAVOK TX21/2713Z TN02/2804Z"
    },
    {
      "icao": "LRBC",
      "alert": "OK",
      "vis_m": 9999,
      "fzfg": false,
      "metar_trigger": false,
      "taf_trigger": false,
      "metar": "METAR LRBC 271400Z 14012KT CAVOK 15/01 Q1019",
      "taf": "TAF LRBC 271100Z 2712/2721 15012KT CAVOK"
    },
    {
      "icao": "LRBS",
      "alert": "OK",
      "vis_m": 9999,
      "fzfg": false,
      "metar_trigger": false,
      "taf_trigger": false,
      "metar": "METAR LRBS 271400Z 15003KT CAVOK 17/M01 Q1021 NOSIG",
      "taf": "TAF LRBS 271100Z 2712/2812 VRB04KT CAVOK"
    },
    {
      "icao": "LRBV",
      "alert": "OK",
      "vis_m": 9999,
      "fzfg": false,
      "metar_trigger": false,
      "taf_trigger": false,
      "metar": "METAR LRBV 271400Z 31010KT 270V010 CAVOK 15/M01 Q1019",
      "taf": "TAF LRBV 271100Z 2712/2721 VRB04KT CAVOK"
    },
    {
      "icao": "LRCL",
      "alert": "OK",
      "vis_m": 9999,
      "fzfg": false,
      "metar_trigger": false,
      "taf_trigger": false,
      "metar": "METAR LRCL 271400Z 34008KT 300V010 CAVOK 16/M05 Q1019",
      "taf": "TAF LRCL 271100Z 2712/2721 VRB04KT CAVOK"
    },
    {
      "icao": "LRCV",
      "alert": "OK",
      "vis_m": 9999,
      "fzfg": false,
      "metar_trigger": false,
      "taf_trigger": false,
      "metar": "METAR LRCV 271400Z VRB02KT CAVOK 17/M00 Q1021",
      "taf": "TAF LRCV 271100Z 2712/2721 12005KT CAVOK"
    },
    {
      "icao": "LRIA",
      "alert": "OK",
      "vis_m": 9999,
      "fzfg": false,
      "metar_trigger": false,
      "taf_trigger": false,
      "metar": "METAR LRIA 271400Z 35006KT 300V030 CAVOK 14/M06 Q1020",
      "taf": "TAF LRIA 271100Z 2712/2721 VRB04KT CAVOK"
    },
    {
      "icao": "LROP",
      "alert": "OK",
      "vis_m": 9999,
      "fzfg": false,
      "metar_trigger": false,
      "taf_trigger": false,
      "metar": "METAR LROP 271400Z 19007KT 160V240 CAVOK 17/M02 Q1021 NOSIG",
      "taf": "TAF LROP 271100Z 2712/2812 VRB04KT CAVOK"
    },
    {
      "icao": "LRSB",
      "alert": "OK",
      "vis_m": 9999,
      "fzfg": false,
      "metar_trigger": false,
      "taf_trigger": false,
      "metar": "METAR LRSB 271400Z VRB03KT CAVOK 17/M02 Q1019",
      "taf": "TAF LRSB 271100Z 2712/2812 VRB04KT CAVOK"
    },
    {
      "icao": "LRSM",
      "alert": "OK",
      "vis_m": 9999,
      "fzfg": false,
      "metar_trigger": false,
      "taf_trigger": false,
      "metar": "METAR LRSM 271400Z 23006KT 190V270 CAVOK 16/M06 Q1021",
      "taf": "TAF LRSM 271100Z 2712/2721 VRB04KT CAVOK"
    },
    {
      "icao": "LRSV",
      "alert": "OK",
      "vis_m": 9999,
      "fzfg": false,
      "metar_trigger": false,
      "taf_trigger": false,
      "metar": "METAR LRSV 271400Z VRB02KT CAVOK 13/M10 Q1019",
      "taf": "TAF LRSV 271100Z 2712/2721 VRB04KT CAVOK"
    },
    {
      "icao": "LRTM",
      "alert": "OK",
      "vis_m": 9999,
      "fzfg": false,
      "metar_trigger": false,
      "taf_trigger": false,
      "metar": "METAR LRTM 271400Z 36004KT 320V050 CAVOK 14/M05 Q1020",
      "taf": "TAF LRTM 271100Z 2712/2721 VRB04KT CAVOK"
    },
    {
      "icao": "LRTR",
      "alert": "OK",
      "vis_m": 9999,
      "fzfg": false,
      "metar_trigger": false,
      "taf_trigger": false,
      "metar": "METAR LRTR 271400Z VRB04KT CAVOK 19/01 Q1020 NOSIG",
      "taf": "TAF LRTR 271100Z 2712/2812 VRB04KT CAVOK"
    },
    {
      "icao": "LTAC",
      "alert": "OK",
      "vis_m": 9999,
      "fzfg": false,
      "metar_trigger": false,
      "taf_trigger": false,
      "metar": "METAR LTAC 271420Z 05006KT 020V080 9999 SCT040 19/02 Q1016 NOSIG",
      "taf": "TAF LTAC 271040Z 2712/2812 VRB02KT 9999 SCT040"
    },
    {
      "icao": "LTFM",
      "alert": "OK",
      "vis_m": 9999,
      "fzfg": false,
      "metar_trigger": false,
      "taf_trigger": false,
      "metar": "METAR LTFM 271420Z 06020KT CAVOK 12/02 Q1022 NOSIG",
      "taf": "TAF LTFM 271040Z 2712/2818 06020G30KT CAVOK"
    },
    {
      "icao": "LUKK",
      "alert": "OK",
      "vis_m": 9999,
      "fzfg": false,
      "metar_trigger": false,
      "taf_trigger": false,
      "metar": "METAR LUKK 271400Z 32010KT 270V360 CAVOK 14/M11 Q1020 NOSIG",
      "taf": "TAF LUKK 271103Z 2712/2812 33012KT CAVOK"
    },
    {
      "icao": "LWOH",
      "alert": "OK",
      "vis_m": 9999,
      "fzfg": false,
      "metar_trigger": false,
      "taf_trigger": false,
      "metar": "METAR LWOH 271420Z 19005KT 150V220 9999 FEW035 SCT090 20/04 Q1017",
      "taf": "TAF LWOH 271120Z 2712/2812 16006KT 9999 SCT040"
    },
    {
      "icao": "LWSK",
      "alert": "OK",
      "vis_m": 9999,
      "fzfg": false,
      "metar_trigger": false,
      "taf_trigger": false,
      "metar": "METAR LWSK 271420Z VRB03KT CAVOK 25/02 Q1017 NOSIG",
      "taf": "TAF LWSK 271120Z 2712/2812 VRB02KT CAVOK"
    },
    {
      "icao": "LYBE",
      "alert": "OK",
      "vis_m": 9999,
      "fzfg": false,
      "metar_trigger": false,
      "taf_trigger": false,
      "metar": "METAR LYBE 271400Z VRB04KT CAVOK 20/02 Q1019 NOSIG",
      "taf": "TAF LYBE 271100Z 2712/2812 10006KT CAVOK TX20/2713Z TN06/2805Z"
    },
    {
      "icao": "LYNI",
      "alert": "OK",
      "vis_m": 9999,
      "fzfg": false,
      "metar_trigger": false,
      "taf_trigger": false,
      "metar": "METAR LYNI 271400Z 10001KT CAVOK 22/00 Q1019 NOSIG",
      "taf": "TAF LYNI 271100Z 2712/2812 02006KT CAVOK TX24/2713Z TN04/2804Z"
    },
    {
      "icao": "LYPG",
      "alert": "OK",
      "vis_m": 9999,
      "fzfg": false,
      "metar_trigger": false,
      "taf_trigger": false,
      "metar": "METAR LYPG 271400Z 16005KT 120V220 9999 FEW050 27/01 Q1015 NOSIG",
      "taf": "TAF LYPG 271100Z 2712/2812 16008KT CAVOK TX26/2713Z TN10/2804Z"
    },
    {
      "icao": "LZIB",
      "alert": "OK",
      "vis_m": 9999,
      "fzfg": false,
      "metar_trigger": false,
      "taf_trigger": false,
      "metar": "METAR LZIB 271400Z VRB03KT CAVOK 18/M00 Q1020 NOSIG",
      "taf": "TAF LZIB 271115Z 2712/2812 05006KT CAVOK"
    },
    {
      "icao": "LZKZ",
      "alert": "OK",
      "vis_m": 9999,
      "fzfg": false,
      "metar_trigger": false,
      "taf_trigger": false,
      "metar": "METAR LZKZ 271400Z 16007KT 110V210 CAVOK 16/M02 Q1020 NOSIG",
      "taf": "TAF LZKZ 271115Z 2712/2812 21007KT CAVOK"
    },
    {
      "icao": "LZTT",
      "alert": "OK",
      "vis_m": 9999,
      "fzfg": false,
      "metar_trigger": false,
      "taf_trigger": false,
      "metar": "METAR LZTT 271400Z 27012KT 9999 FEW033 15/M05 Q1019 NOSIG",
      "taf": "TAF LZTT 271115Z 2712/2812 27008KT CAVOK"
    },
    {
      "icao": "OEJN",
      "alert": "OK",
      "vis_m": 9999,
      "fzfg": false,
      "metar_trigger": false,
      "taf_trigger": false,
      "metar": "METAR OEJN 271400Z 32015KT 9999 SCT040 31/15 Q1007 NOSIG",
      "taf": "TAF OEJN 271100Z 2712/2818 32015KT 9999 SCT040"
    },
    {
      "icao": "OEMA",
      "alert": "OK",
      "vis_m": 9999,
      "fzfg": false,
      "metar_trigger": false,
      "taf_trigger": false,
      "metar": "METAR OEMA 271400Z 28014KT CAVOK 36/M06 Q1009 NOSIG",
      "taf": "TAF OEMA 271100Z 2712/2818 27015KT 7000 NSC"
    },
    {
      "icao": "OJAI",
      "alert": "OK",
      "vis_m": 4000,
      "fzfg": false,
      "metar_trigger": false,
      "taf_trigger": false,
      "metar": "METAR OJAI 271400Z 26017KT 4000 BLDU FEW030 FEW030 19/10 Q1012 NOSIG",
      "taf": "TAF OJAI 271100Z 2712/2818 29012KT 4000 DU SCT035"
    },
    {
      "icao": "OMAA",
      "alert": "OK",
      "vis_m": 9999,
      "fzfg": false,
      "metar_trigger": false,
      "taf_trigger": false,
      "metar": "METAR OMAA 271400Z 31009KT CAVOK 34/15 Q1005 NOSIG",
      "taf": "TAF OMAA 271100Z 2712/2818 30010KT CAVOK"
    },
    {
      "icao": "OMDB",
      "alert": "OK",
      "vis_m": 9999,
      "fzfg": false,
      "metar_trigger": false,
      "taf_trigger": false,
      "metar": "METAR OMDB 271400Z 26011KT CAVOK 34/14 Q1004 NOSIG",
      "taf": "TAF OMDB 271100Z 2712/2818 28014KT CAVOK"
    },
    {
      "icao": "UAAA",
      "alert": "OK",
      "vis_m": 9999,
      "fzfg": false,
      "metar_trigger": false,
      "taf_trigger": false,
      "metar": "METAR UAAA 271400Z 01003MPS 9999 SCT050CB OVC100 19/09 Q1016 NOSIG",
      "taf": "TAF UAAA 271101Z 2712/2812 17003MPS 9999 BKN040CB OVC100 TX25/2809Z TN14/2801Z"
    },
    {
      "icao": "UBBB",
      "alert": "OK",
      "vis_m": 9999,
      "fzfg": false,
      "metar_trigger": false,
      "taf_trigger": false,
      "metar": "METAR UBBB 271400Z 32025G35KT CAVOK 14/10 Q1011 NOSIG",
      "taf": "TAF UBBB 271118Z 2712/2812 32024G34KT 9999 SCT012 TX14/2712Z TN11/2801Z"
    },
    {
      "icao": "UDSG",
      "alert": "OK",
      "vis_m": 9999,
      "fzfg": false,
      "metar_trigger": false,
      "taf_trigger": false,
      "metar": "METAR UDSG 271400Z 36012KT 9999 FEW049CB 12/02 Q1017 NOSIG",
      "taf": "TAF UDSG 271100Z 2712/2812 36006KT 9999 SCT040"
    },
    {
      "icao": "UDYZ",
      "alert": "OK",
      "vis_m": 9999,
      "fzfg": false,
      "metar_trigger": false,
      "taf_trigger": false,
      "metar": "METAR UDYZ 271400Z 20009KT 9999 VCTS SCT043CB 20/06 Q1012 NOSIG",
      "taf": "TAF UDYZ 271100Z 2712/2812 24006KT 9999 SCT040"
    },
    {
      "icao": "UGKO",
      "alert": "OK",
      "vis_m": 9999,
      "fzfg": false,
      "metar_trigger": false,
      "taf_trigger": false,
      "metar": "METAR UGKO 271400Z 25015KT 9999 BKN082 15/07 Q1019 NOSIG",
      "taf": "TAF UGKO 271100Z 2712/2812 26010KT 9999 BKN050 TX20/2811Z TN08/2802Z"
    }
  ]
}