{
  "ts_utc": "2026-02-13T08:56:44Z",
  "threshold_m": 150,
  "source": "stations_override.txt (ICAO list) + aviationweather.gov (METAR/TAF raw)",
  "station_count": 159,
  "stations": [
    {
      "icao": "BIKF",
      "alert": "OK",
      "vis_m": 9999,
      "fzfg": false,
      "metar_trigger": false,
      "taf_trigger": false,
      "metar": "METAR BIKF 130830Z 36011KT 9999 FEW025 BKN220 M05/M09 Q1008",
      "taf": "TAF BIKF 130753Z 1309/1409 36012KT 9999 SCT030 TXM02/1316Z TNM08/1324Z"
    },
    {
      "icao": "BKPR",
      "alert": "OK",
      "vis_m": null,
      "fzfg": false,
      "metar_trigger": false,
      "taf_trigger": false,
      "metar": "",
      "taf": "TAF BKPR 130530Z 1306/1406 01008KT 9999 BKN040"
    },
    {
      "icao": "EBCI",
      "alert": "OK",
      "vis_m": 1800,
      "fzfg": false,
      "metar_trigger": false,
      "taf_trigger": false,
      "metar": "METAR EBCI 130850Z 20007KT 1800 SHRA SCT004 BKN012 06/06 Q0991 TEMPO BKN008",
      "taf": "TAF EBCI 130510Z 1306/1412 23006KT 9999 SCT012 BKN020"
    },
    {
      "icao": "EDDB",
      "alert": "OK",
      "vis_m": 9999,
      "fzfg": false,
      "metar_trigger": false,
      "taf_trigger": false,
      "metar": "METAR EDDB 130850Z AUTO 35008KT 9999 OVC012 02/00 Q0990 NOSIG",
      "taf": "TAF EDDB 130500Z 1306/1406 31008KT 9999 OVC006"
    },
    {
      "icao": "EDDH",
      "alert": "OK",
      "vis_m": 1600,
      "fzfg": false,
      "metar_trigger": false,
      "taf_trigger": false,
      "metar": "METAR EDDH 130850Z AUTO 03006KT 350V070 1600 1300 R05/1900N R33/1800D SN BR SCT006 BKN023 OVC027 M01/M02 Q0993 TEMPO 5000 NSW BKN008",
      "taf": ""
    },
    {
      "icao": "EDDK",
      "alert": "OK",
      "vis_m": 9999,
      "fzfg": false,
      "metar_trigger": false,
      "taf_trigger": false,
      "metar": "METAR EDDK 130850Z AUTO 24004KT 9999 FEW016 BKN026 OVC033 06/04 Q0992 NOSIG",
      "taf": "TAF EDDK 130500Z 1306/1412 26008KT 9999 BKN020"
    },
    {
      "icao": "EDDN",
      "alert": "OK",
      "vis_m": 9999,
      "fzfg": false,
      "metar_trigger": false,
      "taf_trigger": false,
      "metar": "METAR EDDN 130850Z AUTO 25011KT 9999 SCT022 BKN033 BKN045 07/03 Q0993 NOSIG",
      "taf": "TAF EDDN 130500Z 1306/1406 26010KT 9999 BKN025"
    },
    {
      "icao": "EDDS",
      "alert": "OK",
      "vis_m": 8000,
      "fzfg": false,
      "metar_trigger": false,
      "taf_trigger": false,
      "metar": "METAR EDDS 130850Z AUTO 23006KT 170V270 8000 SHRA BKN018 BKN022 BKN028 FEW///TCU 05/04 Q0994 BECMG NSW",
      "taf": "TAF EDDS 130500Z 1306/1406 23008KT 9999 BKN030"
    },
    {
      "icao": "EDFH",
      "alert": "OK",
      "vis_m": 9999,
      "fzfg": false,
      "metar_trigger": false,
      "taf_trigger": false,
      "metar": "METAR EDFH 130850Z 25009KT 210V290 9999 BKN006 05/04 Q0992",
      "taf": "TAF EDFH 130500Z 1306/1406 26015G25KT 9999 BKN015"
    },
    {
      "icao": "EDJA",
      "alert": "OK",
      "vis_m": 9999,
      "fzfg": false,
      "metar_trigger": false,
      "taf_trigger": false,
      "metar": "METAR EDJA 130850Z 23013KT 9999 FEW018 05/02 Q0995",
      "taf": "TAF EDJA 130800Z 1309/1318 23015G25KT 9999 FEW010 SCT025"
    },
    {
      "icao": "EDLW",
      "alert": "OK",
      "vis_m": 9999,
      "fzfg": false,
      "metar_trigger": false,
      "taf_trigger": false,
      "metar": "METAR EDLW 130850Z 25007KT 230V290 9999 SCT012 BKN015 OVC018 04/01 Q0991",
      "taf": "TAF EDLW 130500Z 1306/1406 25008KT 9999 SCT010 BKN015"
    },
    {
      "icao": "EDNY",
      "alert": "OK",
      "vis_m": 9999,
      "fzfg": false,
      "metar_trigger": false,
      "taf_trigger": false,
      "metar": "METAR EDNY 130850Z 23008KT 9999 SCT041 BKN052 07/03 Q0996",
      "taf": "TAF EDNY 130800Z 1309/1318 24008KT 9999 FEW045"
    },
    {
      "icao": "EDSB",
      "alert": "OK",
      "vis_m": 9999,
      "fzfg": false,
      "metar_trigger": false,
      "taf_trigger": false,
      "metar": "METAR EDSB 130850Z 20010KT 9999 -RA SCT036 07/06 Q0995",
      "taf": "TAF EDSB 130500Z 1306/1406 20010KT 9999 SCT030"
    },
    {
      "icao": "EETN",
      "alert": "OK",
      "vis_m": 9999,
      "fzfg": false,
      "metar_trigger": false,
      "taf_trigger": false,
      "metar": "METAR EETN 130850Z 07011KT CAVOK M10/M14 Q1001 NOSIG",
      "taf": "TAF EETN 130530Z 1306/1406 07012KT CAVOK"
    },
    {
      "icao": "EFTU",
      "alert": "OK",
      "vis_m": 9999,
      "fzfg": false,
      "metar_trigger": false,
      "taf_trigger": false,
      "metar": "METAR EFTU 130850Z AUTO 09007KT CAVOK M15/M18 Q1002",
      "taf": "TAF EFTU 130824Z 1309/1409 07007KT CAVOK"
    },
    {
      "icao": "EGBB",
      "alert": "OK",
      "vis_m": 6000,
      "fzfg": false,
      "metar_trigger": false,
      "taf_trigger": false,
      "metar": "METAR EGBB 130850Z 06009KT 030V100 6000 -RA OVC004 03/03 Q0990",
      "taf": "TAF EGBB 130458Z 1306/1406 07008KT 9999 BKN016"
    },
    {
      "icao": "EGGP",
      "alert": "OK",
      "vis_m": 9999,
      "fzfg": false,
      "metar_trigger": false,
      "taf_trigger": false,
      "metar": "METAR EGGP 130850Z 06010KT 9999 -DZRA BKN015 BKN027 03/01 Q0992",
      "taf": "TAF EGGP 130458Z 1306/1406 08014KT 9999 BKN025"
    },
    {
      "icao": "EGGW",
      "alert": "OK",
      "vis_m": 450,
      "fzfg": false,
      "metar_trigger": false,
      "taf_trigger": false,
      "metar": "METAR EGGW 130850Z AUTO 11007KT 0450 R07/0800N FG OVC002/// //////TCU 05/05 Q0989",
      "taf": ""
    },
    {
      "icao": "EGKK",
      "alert": "OK",
      "vis_m": 4500,
      "fzfg": false,
      "metar_trigger": false,
      "taf_trigger": false,
      "metar": "METAR EGKK 130850Z COR 08004KT 4500 2000E BR VCFG FEW003 SCT025 06/06 Q0989",
      "taf": "TAF EGKK 130454Z 1306/1412 VRB03KT 9999 SCT030"
    },
    {
      "icao": "EGNM",
      "alert": "OK",
      "vis_m": 1000,
      "fzfg": false,
      "metar_trigger": false,
      "taf_trigger": false,
      "metar": "METAR EGNM 130850Z 03008KT 1000 R32/P1500N -SN BR VV/// 00/00 Q0993",
      "taf": "TAF EGNM 130522Z 1306/1406 06010KT 9999 BKN005"
    },
    {
      "icao": "EGPD",
      "alert": "OK",
      "vis_m": 9999,
      "fzfg": false,
      "metar_trigger": false,
      "taf_trigger": false,
      "metar": "METAR EGPD 130850Z COR AUTO 31003KT 260V330 9999 NCD M01/M03 Q1000 NOSIG",
      "taf": "TAF EGPD 130458Z 1306/1406 31005KT 9999 FEW015"
    },
    {
      "icao": "EGPF",
      "alert": "OK",
      "vis_m": 9999,
      "fzfg": false,
      "metar_trigger": false,
      "taf_trigger": false,
      "metar": "METAR EGPF 130850Z AUTO 07009KT 9999 NCD 01/M03 Q1000",
      "taf": "TAF EGPF 130458Z 1306/1406 02010KT 9999 SCT035"
    },
    {
      "icao": "EHBK",
      "alert": "OK",
      "vis_m": 9999,
      "fzfg": false,
      "metar_trigger": false,
      "taf_trigger": false,
      "metar": "METAR EHBK 130825Z AUTO 23003KT 9999 FEW012 OVC015 06/05 Q0992 TEMPO BKN012",
      "taf": "TAF EHBK 130519Z 1306/1412 26006KT 9999 SCT008 BKN016"
    },
    {
      "icao": "EHEH",
      "alert": "OK",
      "vis_m": 9999,
      "fzfg": false,
      "metar_trigger": false,
      "taf_trigger": false,
      "metar": "SPECI EHEH 130832Z AUTO 35004KT 260V050 9999 BKN014 OVC020 04/01 Q0992 GRN TEMPO SCT012 BKN015 OVC025 RMK TREND REMOTE BY EHWX",
      "taf": "TAF EHEH 130557Z 1306/1412 30005KT 9999 OVC025"
    },
    {
      "icao": "EKBI",
      "alert": "OK",
      "vis_m": 9999,
      "fzfg": false,
      "metar_trigger": false,
      "taf_trigger": false,
      "metar": "METAR EKBI 130850Z AUTO 02011KT 9999 FEW015/// OVC044/// M03/M07 Q0996",
      "taf": "TAF EKBI 130827Z 1309/1409 03010KT 9999 BKN040"
    },
    {
      "icao": "EKCH",
      "alert": "OK",
      "vis_m": 9999,
      "fzfg": false,
      "metar_trigger": false,
      "taf_trigger": false,
      "metar": "METAR EKCH 130850Z AUTO 02015KT 9999 FEW018/// OVC037/// M02/M05 Q0994 NOSIG",
      "taf": "TAF EKCH 130827Z 1309/1409 02015KT 9999 FEW020 BKN035"
    },
    {
      "icao": "ENAL",
      "alert": "OK",
      "vis_m": 9999,
      "fzfg": false,
      "metar_trigger": false,
      "taf_trigger": false,
      "metar": "METAR ENAL 130850Z 15009KT 9999 FEW020CB M02/M08 Q0997",
      "taf": "TAF ENAL 130800Z 1309/1318 14010KT 9999 SCT050"
    },
    {
      "icao": "ENBR",
      "alert": "OK",
      "vis_m": 9999,
      "fzfg": false,
      "metar_trigger": false,
      "taf_trigger": false,
      "metar": "METAR ENBR 130850Z 13010KT 9999 BKN019 M02/M08 Q0997 NOSIG RMK WIND 1200FT 14022KT",
      "taf": "TAF ENBR 130500Z 1306/1406 14010KT 9999 BKN025"
    },
    {
      "icao": "ENGM",
      "alert": "OK",
      "vis_m": 9999,
      "fzfg": false,
      "metar_trigger": false,
      "taf_trigger": false,
      "metar": "METAR ENGM 130850Z 01002KT 9999 VCSH BKN043 M10/M12 Q1001 NOSIG",
      "taf": "TAF ENGM 130500Z 1306/1406 01003KT 9999 FEW020 BKN040"
    },
    {
      "icao": "ENHD",
      "alert": "OK",
      "vis_m": 9999,
      "fzfg": false,
      "metar_trigger": false,
      "taf_trigger": false,
      "metar": "METAR ENHD 130850Z 14013KT 9999 BKN018 BKN022 M03/M06 Q0998",
      "taf": "TAF ENHD 130800Z 1309/1318 12018KT 9999 -SHSN FEW020CB BKN030"
    },
    {
      "icao": "ENTC",
      "alert": "OK",
      "vis_m": 2300,
      "fzfg": false,
      "metar_trigger": false,
      "taf_trigger": false,
      "metar": "METAR ENTC 130850Z 20016KT 2300 -SHSN VV016 M06/M08 Q0994 RMK WIND 2600FT 19013KT",
      "taf": "TAF ENTC 130500Z 1306/1406 21012KT 9999 FEW020 BKN035"
    },
    {
      "icao": "ENTO",
      "alert": "OK",
      "vis_m": 9999,
      "fzfg": false,
      "metar_trigger": false,
      "taf_trigger": false,
      "metar": "METAR ENTO 130850Z 02004KT 9999 -SN FEW020 OVC040 M07/M09 Q1001 NOSIG",
      "taf": "TAF ENTO 130500Z 1306/1406 01005KT 9999 FEW020 BKN040"
    },
    {
      "icao": "ENVA",
      "alert": "OK",
      "vis_m": 9999,
      "fzfg": false,
      "metar_trigger": false,
      "taf_trigger": false,
      "metar": "METAR ENVA 130850Z 09006KT CAVOK M13/M17 Q0999 NOSIG RMK WIND 670FT 14008KT",
      "taf": "TAF ENVA 130500Z 1306/1406 10008KT CAVOK"
    },
    {
      "icao": "ENZV",
      "alert": "OK",
      "vis_m": 9999,
      "fzfg": false,
      "metar_trigger": false,
      "taf_trigger": false,
      "metar": "METAR ENZV 130850Z 15006KT 9999 BKN034 M04/M11 Q0999 NOSIG",
      "taf": "TAF ENZV 130500Z 1306/1406 12008KT CAVOK"
    },
    {
      "icao": "EPGD",
      "alert": "OK",
      "vis_m": 1200,
      "fzfg": false,
      "metar_trigger": false,
      "taf_trigger": false,
      "metar": "METAR EPGD 130830Z 01009KT 1200 R29/1300N SN BR OVC002 M01/M01 Q0983",
      "taf": ""
    },
    {
      "icao": "EPKK",
      "alert": "OK",
      "vis_m": 9999,
      "fzfg": false,
      "metar_trigger": false,
      "taf_trigger": false,
      "metar": "METAR EPKK 130830Z 23008KT 9999 BKN042 07/04 Q0989",
      "taf": "TAF EPKK 130830Z 1309/1409 24008KT 9999 SCT040"
    },
    {
      "icao": "EPKT",
      "alert": "OK",
      "vis_m": 9999,
      "fzfg": false,
      "metar_trigger": false,
      "taf_trigger": false,
      "metar": "METAR EPKT 130830Z 24012KT 9999 SCT023 BKN028 07/04 Q0988",
      "taf": ""
    },
    {
      "icao": "EPLB",
      "alert": "OK",
      "vis_m": 9999,
      "fzfg": false,
      "metar_trigger": false,
      "taf_trigger": false,
      "metar": "METAR EPLB 130830Z 22009KT 9999 SCT021 BKN038 05/03 Q0987",
      "taf": "TAF EPLB 130530Z 1306/1406 19007KT 9999 SCT030"
    },
    {
      "icao": "EPMO",
      "alert": "OK",
      "vis_m": 4700,
      "fzfg": false,
      "metar_trigger": false,
      "taf_trigger": false,
      "metar": "METAR EPMO 130830Z 23012KT 4700 -DZ BR OVC005 04/04 Q0984",
      "taf": "TAF EPMO 130530Z 1306/1406 18006KT 4000 -RA BR BKN012"
    },
    {
      "icao": "EPPO",
      "alert": "OK",
      "vis_m": 9999,
      "fzfg": false,
      "metar_trigger": false,
      "taf_trigger": false,
      "metar": "METAR EPPO 130830Z 27016KT 9999 OVC007 02/M00 Q0986",
      "taf": "TAF EPPO 130530Z 1306/1406 26012KT 9999 BKN005"
    },
    {
      "icao": "EPRA",
      "alert": "OK",
      "vis_m": 9999,
      "fzfg": false,
      "metar_trigger": false,
      "taf_trigger": false,
      "metar": "METAR EPRA 130830Z 27013KT 9999 BKN017 06/03 Q0986",
      "taf": "TAF EPRA 130830Z 1309/1318 24012KT 9999 BKN017"
    },
    {
      "icao": "EPRZ",
      "alert": "OK",
      "vis_m": 9999,
      "fzfg": false,
      "metar_trigger": false,
      "taf_trigger": false,
      "metar": "METAR EPRZ 130830Z 25013KT 9999 SCT030 08/04 Q0989",
      "taf": "TAF EPRZ 130530Z 1306/1406 19005KT CAVOK"
    },
    {
      "icao": "EPSC",
      "alert": "OK",
      "vis_m": 9999,
      "fzfg": false,
      "metar_trigger": false,
      "taf_trigger": false,
      "metar": "METAR EPSC 130830Z 33008KT 9999 OVC005 00/00 Q0988",
      "taf": "TAF EPSC 130530Z 1306/1406 36010KT 6000 -SN BKN005"
    },
    {
      "icao": "EPSY",
      "alert": "OK",
      "vis_m": 400,
      "fzfg": false,
      "metar_trigger": false,
      "taf_trigger": false,
      "metar": "METAR EPSY 130830Z 18004KT 0400 R01/1400N -RA FG OVC001 03/03 Q0982",
      "taf": "TAF EPSY 130830Z 1309/1318 20007KT 2000 BR OVC003"
    },
    {
      "icao": "EPWA",
      "alert": "OK",
      "vis_m": 9999,
      "fzfg": false,
      "metar_trigger": false,
      "taf_trigger": false,
      "metar": "METAR EPWA 130830Z 23010KT 9999 BKN008 05/04 Q0985 BECMG BKN010",
      "taf": "TAF EPWA 130830Z 1309/1409 24010KT 9999 BKN018"
    },
    {
      "icao": "EPWR",
      "alert": "OK",
      "vis_m": 9999,
      "fzfg": false,
      "metar_trigger": false,
      "taf_trigger": false,
      "metar": "METAR EPWR 130830Z 26011KT 9999 FEW024 BKN042 08/04 Q0988",
      "taf": "TAF EPWR 130830Z 1309/1409 25010KT 9999 BKN030"
    },
    {
      "icao": "ESGG",
      "alert": "OK",
      "vis_m": 9999,
      "fzfg": false,
      "metar_trigger": false,
      "taf_trigger": false,
      "metar": "METAR ESGG 130850Z 02014KT 9999 OVC020 M09/M12 Q0997",
      "taf": "TAF ESGG 130830Z 1309/1409 03010KT 9999 BKN035"
    },
    {
      "icao": "ESKN",
      "alert": "OK",
      "vis_m": 7000,
      "fzfg": false,
      "metar_trigger": false,
      "taf_trigger": false,
      "metar": "METAR ESKN 130850Z 01009KT 350V050 7000 -SN FEW019 BKN033 M06/M08 Q0999",
      "taf": "TAF ESKN 130830Z 1309/1409 02010KT 9000 -SN FEW012 BKN030"
    },
    {
      "icao": "ESMS",
      "alert": "OK",
      "vis_m": 9999,
      "fzfg": false,
      "metar_trigger": false,
      "taf_trigger": false,
      "metar": "METAR ESMS 130850Z 02009KT 9999 FEW018 BKN042 M02/M06 Q0993",
      "taf": "TAF ESMS 130827Z 1309/1409 02010KT 9999 FEW020 BKN040"
    },
    {
      "icao": "ESSA",
      "alert": "OK",
      "vis_m": 9999,
      "fzfg": false,
      "metar_trigger": false,
      "taf_trigger": false,
      "metar": "METAR ESSA 130850Z 02010KT 9999 -SN FEW007 BKN021 M08/M10 Q1000 NOSIG",
      "taf": "TAF ESSA 130830Z 1309/1409 02009KT 9999 -SN SCT008 BKN020"
    },
    {
      "icao": "EYKA",
      "alert": "OK",
      "vis_m": 4700,
      "fzfg": false,
      "metar_trigger": false,
      "taf_trigger": false,
      "metar": "METAR EYKA 130850Z 08005KT 4700 -RA BR OVC003 01/01 Q0985",
      "taf": "TAF EYKA 130515Z 1306/1406 VRB03KT 3000 RA BR OVC002"
    },
    {
      "icao": "EYPA",
      "alert": "OK",
      "vis_m": 2100,
      "fzfg": false,
      "metar_trigger": false,
      "taf_trigger": false,
      "metar": "METAR EYPA 130850Z 07016KT 2100 SN BLSN FEW026 BKN036 OVC045 M04/M07 Q0987",
      "taf": "TAF EYPA 130507Z 1306/1406 06015G25KT 3000 SN BLSN OVC030"
    },
    {
      "icao": "EYVI",
      "alert": "OK",
      "vis_m": 9000,
      "fzfg": false,
      "metar_trigger": false,
      "taf_trigger": false,
      "metar": "METAR EYVI 130850Z 13007KT 9000 OVC004 02/02 Q0985 NOSIG",
      "taf": "TAF EYVI 130500Z 1306/1406 14010KT 5000 BR OVC005"
    },
    {
      "icao": "GCFV",
      "alert": "OK",
      "vis_m": 9999,
      "fzfg": false,
      "metar_trigger": false,
      "taf_trigger": false,
      "metar": "METAR GCFV 130830Z 33011KT 9999 FEW025 BKN030 18/12 Q1023",
      "taf": "TAF GCFV 130800Z 1309/1409 36015KT 9999 BKN030 TX22/1314Z TN16/1406Z"
    },
    {
      "icao": "GCLP",
      "alert": "OK",
      "vis_m": 9999,
      "fzfg": false,
      "metar_trigger": false,
      "taf_trigger": false,
      "metar": "METAR GCLP 130830Z 01020KT 9999 FEW025 18/13 Q1023 NOSIG",
      "taf": "TAF GCLP 130800Z 1309/1409 36015KT 9999 SCT025 TX23/1314Z TN17/1406Z"
    },
    {
      "icao": "GCTS",
      "alert": "OK",
      "vis_m": 9999,
      "fzfg": false,
      "metar_trigger": false,
      "taf_trigger": false,
      "metar": "METAR GCTS 130830Z 00000KT 9999 FEW022 17/13 Q1024 NOSIG",
      "taf": "TAF GCTS 130800Z 1309/1409 20007KT 9999 SCT025 TX25/1314Z TN15/1406Z"
    },
    {
      "icao": "GMAD",
      "alert": "OK",
      "vis_m": 6000,
      "fzfg": false,
      "metar_trigger": false,
      "taf_trigger": false,
      "metar": "METAR GMAD 130830Z 22004KT 6000 FEW010 BKN026 15/13 Q1020 NOSIG",
      "taf": ""
    },
    {
      "icao": "GMMN",
      "alert": "OK",
      "vis_m": 9999,
      "fzfg": false,
      "metar_trigger": false,
      "taf_trigger": false,
      "metar": "METAR GMMN 130830Z 22017KT 9999 BKN023 14/12 Q1018 NOSIG",
      "taf": "TAF GMMN 130500Z 1306/1412 22014KT 9999 BKN020"
    },
    {
      "icao": "GMMX",
      "alert": "OK",
      "vis_m": 8000,
      "fzfg": false,
      "metar_trigger": false,
      "taf_trigger": false,
      "metar": "METAR GMMX 130830Z 26007KT 8000 BKN023 13/11 Q1021 NOSIG",
      "taf": "TAF GMMX 130500Z 1306/1412 28006KT 8000 BKN006"
    },
    {
      "icao": "HEGN",
      "alert": "OK",
      "vis_m": 9999,
      "fzfg": false,
      "metar_trigger": false,
      "taf_trigger": false,
      "metar": "METAR HEGN 130800Z 13006KT CAVOK 25/08 Q1014 NOSIG",
      "taf": "TAF HEGN 130500Z 1306/1412 17008KT 6000 FEW025"
    },
    {
      "icao": "HEMA",
      "alert": "OK",
      "vis_m": 9999,
      "fzfg": false,
      "metar_trigger": false,
      "taf_trigger": false,
      "metar": "METAR HEMA 130800Z 20004KT CAVOK 22/03 Q1015 NOSIG",
      "taf": "TAF HEMA 130500Z 1306/1412 19008KT 6000 FEW025"
    },
    {
      "icao": "HESH",
      "alert": "OK",
      "vis_m": 9999,
      "fzfg": false,
      "metar_trigger": false,
      "taf_trigger": false,
      "metar": "METAR HESH 130800Z 35005KT CAVOK 23/13 Q1014 NOSIG",
      "taf": "TAF HESH 130500Z 1306/1412 18008KT 6000 FEW025"
    },
    {
      "icao": "HESX",
      "alert": "OK",
      "vis_m": 4000,
      "fzfg": false,
      "metar_trigger": false,
      "taf_trigger": false,
      "metar": "METAR HESX 130800Z 19022KT 4000 SA NSC 21/01 Q1007 NOSIG",
      "taf": "TAF HESX 130700Z 1307/1412 21025KT 6000 NSC"
    },
    {
      "icao": "LATI",
      "alert": "OK",
      "vis_m": 9999,
      "fzfg": false,
      "metar_trigger": false,
      "taf_trigger": false,
      "metar": "METAR LATI 130850Z 00000KT 9999 SCT120 13/07 Q0990 NOSIG",
      "taf": "TAF LATI 130500Z 1306/1406 VRB05KT 9999 SCT040 BKN080 TX15/1312Z TN06/1403Z"
    },
    {
      "icao": "LBPD",
      "alert": "OK",
      "vis_m": 3500,
      "fzfg": false,
      "metar_trigger": false,
      "taf_trigger": false,
      "metar": "METAR LBPD 130830Z AUTO 00000KT 3500 RA FEW021/// OVC037/// 07/07 Q0990 BECMG 2500 RA",
      "taf": "TAF LBPD 130500Z 1306/1406 VRB04KT 5000 RA BKN007 OVC015"
    },
    {
      "icao": "LBSF",
      "alert": "OK",
      "vis_m": 7000,
      "fzfg": false,
      "metar_trigger": false,
      "taf_trigger": false,
      "metar": "METAR LBSF 130830Z 30003KT 250V340 7000 OVC007 05/03 Q0990 TEMPO 4000 BR",
      "taf": "TAF LBSF 130500Z 1306/1406 VRB04KT 9999 SCT015 BKN030"
    },
    {
      "icao": "LBWN",
      "alert": "OK",
      "vis_m": 2500,
      "fzfg": false,
      "metar_trigger": false,
      "taf_trigger": false,
      "metar": "METAR LBWN 130830Z 20005KT 2500 BR SCT002 BKN021 08/08 Q0990 NOSIG",
      "taf": "TAF LBWN 130500Z 1306/1406 VRB04KT 2000 BR BKN005 OVC015"
    },
    {
      "icao": "LCLK",
      "alert": "OK",
      "vis_m": 6000,
      "fzfg": false,
      "metar_trigger": false,
      "taf_trigger": false,
      "metar": "METAR LCLK 130830Z 20025G42KT 6000 -RA FEW025 SCT030 21/16 Q1002 RERA NOSIG",
      "taf": "TAF LCLK 130530Z 1306/1406 22009KT 9999 FEW020 SCT035"
    },
    {
      "icao": "LCPH",
      "alert": "OK",
      "vis_m": 9999,
      "fzfg": false,
      "metar_trigger": false,
      "taf_trigger": false,
      "metar": "METAR LCPH 130830Z 30018KT 250V320 9999 FEW014 SCT020 BKN080 16/12 Q1002 NOSIG",
      "taf": "TAF LCPH 130530Z 1306/1406 18010KT 9999 FEW020 SCT035"
    },
    {
      "icao": "LEAL",
      "alert": "OK",
      "vis_m": 9999,
      "fzfg": false,
      "metar_trigger": false,
      "taf_trigger": false,
      "metar": "METAR LEAL 130830Z VRB01KT CAVOK 15/09 Q0998 NOSIG",
      "taf": ""
    },
    {
      "icao": "LEBB",
      "alert": "OK",
      "vis_m": 9999,
      "fzfg": false,
      "metar_trigger": false,
      "taf_trigger": false,
      "metar": "METAR LEBB 130830Z 13005KT 060V230 9999 FEW045 BKN070 12/07 Q0988 NOSIG",
      "taf": "TAF LEBB 130500Z 1306/1406 14009KT 9999 FEW025 BKN050 TX12/1312Z TN08/1323Z"
    },
    {
      "icao": "LEBL",
      "alert": "OK",
      "vis_m": 9000,
      "fzfg": false,
      "metar_trigger": false,
      "taf_trigger": false,
      "metar": "METAR LEBL 130830Z 02004KT 320V070 9000 -RA FEW015 FEW035TCU SCT040 BKN050 12/07 Q0996 NOSIG",
      "taf": ""
    },
    {
      "icao": "LECH",
      "alert": "OK",
      "vis_m": 9000,
      "fzfg": false,
      "metar_trigger": false,
      "taf_trigger": false,
      "metar": "METAR LECH 130830Z AUTO 21005KT 160V240 9000 BKN040 OVC046 11/08 Q0996",
      "taf": ""
    },
    {
      "icao": "LEMD",
      "alert": "OK",
      "vis_m": 9999,
      "fzfg": false,
      "metar_trigger": false,
      "taf_trigger": false,
      "metar": "SPECI LEMD 130841Z 26011KT 9999 -RA SCT030 BKN046 BKN076 10/07 Q0993 RERA NOSIG",
      "taf": ""
    },
    {
      "icao": "LEMG",
      "alert": "OK",
      "vis_m": 9999,
      "fzfg": false,
      "metar_trigger": false,
      "taf_trigger": false,
      "metar": "METAR LEMG 130830Z 30005KT 270V340 9999 FEW030 SCT060 14/11 Q1005 NOSIG",
      "taf": "TAF LEMG 130500Z 1306/1406 23015KT 9999 SCT020 TX23/1314Z TN14/1307Z"
    },
    {
      "icao": "LEVC",
      "alert": "OK",
      "vis_m": 9999,
      "fzfg": false,
      "metar_trigger": false,
      "taf_trigger": false,
      "metar": "METAR LEVC 130830Z 28003KT 9999 BKN064 12/08 Q0996 NOSIG",
      "taf": ""
    },
    {
      "icao": "LEXJ",
      "alert": "OK",
      "vis_m": 9000,
      "fzfg": false,
      "metar_trigger": false,
      "taf_trigger": false,
      "metar": "METAR LEXJ 130830Z 25008KT 200V270 9000 -RA FEW055 OVC076 12/06 Q0988",
      "taf": ""
    },
    {
      "icao": "LEZG",
      "alert": "OK",
      "vis_m": 5000,
      "fzfg": false,
      "metar_trigger": false,
      "taf_trigger": false,
      "metar": "METAR LEZG 130830Z 12010KT 5000 -RA FEW010 BKN045 09/08 Q0993 NOSIG",
      "taf": "TAF LEZG 130500Z 1306/1406 11010KT 9999 FEW020 TX12/1312Z TN08/1306Z"
    },
    {
      "icao": "LEZL",
      "alert": "OK",
      "vis_m": 9999,
      "fzfg": false,
      "metar_trigger": false,
      "taf_trigger": false,
      "metar": "METAR LEZL 130830Z 27017G30KT 240V300 9999 FEW030 BKN048 14/12 Q1006 RERA NOSIG",
      "taf": "TAF LEZL 130800Z 1309/1409 27016KT 9999 FEW025 TX20/1315Z TN14/1407Z"
    },
    {
      "icao": "LFBD",
      "alert": "OK",
      "vis_m": 9999,
      "fzfg": false,
      "metar_trigger": false,
      "taf_trigger": false,
      "metar": "METAR LFBD 130830Z AUTO 15011KT 9999 RA SCT039 BKN048 BKN064 09/06 Q0991 TEMPO NSW",
      "taf": "TAF LFBD 130500Z 1306/1412 18010KT CAVOK TX12/1314Z TN09/1306Z"
    },
    {
      "icao": "LFLL",
      "alert": "OK",
      "vis_m": 9999,
      "fzfg": false,
      "metar_trigger": false,
      "taf_trigger": false,
      "metar": "METAR LFLL 130830Z 19007KT CAVOK 07/03 Q0996 NOSIG",
      "taf": "TAF LFLL 130500Z 1306/1412 16008KT CAVOK"
    },
    {
      "icao": "LFLS",
      "alert": "OK",
      "vis_m": 9999,
      "fzfg": false,
      "metar_trigger": false,
      "taf_trigger": false,
      "metar": "METAR LFLS 130830Z AUTO VRB03KT CAVOK 05/03 Q0997 NOSIG",
      "taf": "TAF LFLS 130800Z 1309/1409 VRB03KT CAVOK"
    },
    {
      "icao": "LFMN",
      "alert": "OK",
      "vis_m": 9999,
      "fzfg": false,
      "metar_trigger": false,
      "taf_trigger": false,
      "metar": "METAR LFMN 130830Z 34009KT CAVOK 12/M01 Q0995 NOSIG",
      "taf": "TAF LFMN 130800Z 1309/1415 35005KT CAVOK"
    },
    {
      "icao": "LFOB",
      "alert": "OK",
      "vis_m": 9999,
      "fzfg": false,
      "metar_trigger": false,
      "taf_trigger": false,
      "metar": "METAR LFOB 130830Z AUTO 19003KT 170V230 9999 OVC009 08/07 Q0991 BECMG 10010KT",
      "taf": "TAF LFOB 130500Z 1306/1406 19007KT 9999 BKN020"
    },
    {
      "icao": "LFPO",
      "alert": "OK",
      "vis_m": 6000,
      "fzfg": false,
      "metar_trigger": false,
      "taf_trigger": false,
      "metar": "METAR LFPO 130830Z 16004KT 130V190 6000 OVC004 08/07 Q0992 NOSIG",
      "taf": "TAF LFPO 130500Z 1306/1412 19006KT 9999 BKN010 BKN200"
    },
    {
      "icao": "LFSB",
      "alert": "OK",
      "vis_m": 9999,
      "fzfg": false,
      "metar_trigger": false,
      "taf_trigger": false,
      "metar": "METAR LFSB 130830Z AUTO 11004KT 070V170 9999 FEW047 BKN160 BKN180 08/05 Q0995 NOSIG",
      "taf": ""
    },
    {
      "icao": "LGAV",
      "alert": "OK",
      "vis_m": 9999,
      "fzfg": false,
      "metar_trigger": false,
      "taf_trigger": false,
      "metar": "METAR LGAV 130850Z 24009KT 9999 SCT025 SCT070 15/07 Q0988 NOSIG",
      "taf": "TAF LGAV 130500Z 1306/1406 25011KT 9999 FEW012 SCT025"
    },
    {
      "icao": "LGTS",
      "alert": "OK",
      "vis_m": 8000,
      "fzfg": false,
      "metar_trigger": false,
      "taf_trigger": false,
      "metar": "METAR LGTS 130850Z 30008KT 8000 -RA FEW008 BKN030 11/11 Q0988 NOSIG",
      "taf": "TAF LGTS 130500Z 1306/1406 VRB03KT 9999 BKN025"
    },
    {
      "icao": "LHBP",
      "alert": "OK",
      "vis_m": 9999,
      "fzfg": false,
      "metar_trigger": false,
      "taf_trigger": false,
      "metar": "METAR LHBP 130830Z 31013KT 9999 FEW023 10/05 Q0992 NOSIG",
      "taf": "TAF LHBP 130515Z 1306/1406 31011G21KT CAVOK"
    },
    {
      "icao": "LHDC",
      "alert": "OK",
      "vis_m": 9000,
      "fzfg": false,
      "metar_trigger": false,
      "taf_trigger": false,
      "metar": "METAR LHDC 130815Z AUTO 19005KT 9000 FEW003 OVC021 07/06 Q0991 NOSIG",
      "taf": "TAF LHDC 130815Z 1309/1318 21005KT 9999 OVC002"
    },
    {
      "icao": "LIBD",
      "alert": "OK",
      "vis_m": 9999,
      "fzfg": false,
      "metar_trigger": false,
      "taf_trigger": false,
      "metar": "METAR LIBD 130850Z 28015KT 9999 -RA FEW035 12/08 Q0992",
      "taf": "TAF LIBD 130500Z 1306/1406 29014KT 9999 SCT030"
    },
    {
      "icao": "LIBG",
      "alert": "OK",
      "vis_m": 9999,
      "fzfg": false,
      "metar_trigger": false,
      "taf_trigger": false,
      "metar": "METAR LIBG 130750Z 27005KT 240V310 9999 FEW020 12/08 Q0991",
      "taf": "TAF LIBG 130800Z 1309/1318 30011KT 9999 BKN025"
    },
    {
      "icao": "LIBP",
      "alert": "OK",
      "vis_m": 9999,
      "fzfg": false,
      "metar_trigger": false,
      "taf_trigger": false,
      "metar": "METAR LIBP 130850Z AUTO 27006KT 9999 OVC065/// 14/06 Q0996",
      "taf": "TAF LIBP 130500Z 1306/1406 VRB05KT 9999 SCT050"
    },
    {
      "icao": "LIBR",
      "alert": "OK",
      "vis_m": 9999,
      "fzfg": false,
      "metar_trigger": false,
      "taf_trigger": false,
      "metar": "METAR LIBR 130850Z 30018KT 9999 DZ SCT048 13/09 Q0990",
      "taf": "TAF LIBR 130500Z 1306/1406 30014KT 9999 FEW020"
    },
    {
      "icao": "LICA",
      "alert": "OK",
      "vis_m": 9999,
      "fzfg": false,
      "metar_trigger": false,
      "taf_trigger": false,
      "metar": "METAR LICA 130850Z AUTO 28024KT 9999 BKN028/// BKN063/// 14/10 Q0995",
      "taf": "TAF LICA 130500Z 1306/1406 26025G35KT 9999 BKN020"
    },
    {
      "icao": "LICC",
      "alert": "OK",
      "vis_m": 9999,
      "fzfg": false,
      "metar_trigger": false,
      "taf_trigger": false,
      "metar": "METAR LICC 130850Z 28018KT CAVOK 17/13 Q0998",
      "taf": "TAF LICC 130500Z 1306/1406 28025G35KT 9999 SCT060"
    },
    {
      "icao": "LICJ",
      "alert": "OK",
      "vis_m": 9000,
      "fzfg": false,
      "metar_trigger": false,
      "taf_trigger": false,
      "metar": "METAR LICJ 130850Z 27025KT 9000 FEW030 15/10 Q1002",
      "taf": "TAF LICJ 130500Z 1306/1406 25028G38KT 7000 SCT030"
    },
    {
      "icao": "LIMC",
      "alert": "OK",
      "vis_m": 9999,
      "fzfg": false,
      "metar_trigger": false,
      "taf_trigger": false,
      "metar": "METAR LIMC 130850Z 36003KT 290V050 CAVOK 10/04 Q0994 NOSIG",
      "taf": "TAF LIMC 130500Z 1306/1412 VRB05KT CAVOK"
    },
    {
      "icao": "LIME",
      "alert": "OK",
      "vis_m": 9999,
      "fzfg": false,
      "metar_trigger": false,
      "taf_trigger": false,
      "metar": "METAR LIME 130850Z 03003KT 350V050 CAVOK 13/M02 Q0994 NOSIG",
      "taf": "TAF LIME 130500Z 1306/1406 VRB06KT 9999 FEW020"
    },
    {
      "icao": "LIMF",
      "alert": "OK",
      "vis_m": 9999,
      "fzfg": false,
      "metar_trigger": false,
      "taf_trigger": false,
      "metar": "METAR LIMF 130850Z 11003KT 080V180 CAVOK 09/01 Q0995",
      "taf": "TAF LIMF 130500Z 1306/1406 VRB05KT 8000 FEW030"
    },
    {
      "icao": "LIMJ",
      "alert": "OK",
      "vis_m": 9999,
      "fzfg": false,
      "metar_trigger": false,
      "taf_trigger": false,
      "metar": "METAR LIMJ 130850Z 07008KT CAVOK 14/01 Q0995",
      "taf": "TAF LIMJ 130500Z 1306/1406 VRB05KT CAVOK"
    },
    {
      "icao": "LIPE",
      "alert": "OK",
      "vis_m": 9999,
      "fzfg": false,
      "metar_trigger": false,
      "taf_trigger": false,
      "metar": "METAR LIPE 130850Z 22003KT CAVOK 10/05 Q0995",
      "taf": "TAF LIPE 130500Z 1306/1406 VRB05KT CAVOK"
    },
    {
      "icao": "LIPH",
      "alert": "OK",
      "vis_m": 1200,
      "fzfg": false,
      "metar_trigger": false,
      "taf_trigger": false,
      "metar": "METAR LIPH 130850Z VRB01KT 1200 R07/0800U BR BKN001 07/07 Q0995",
      "taf": "TAF LIPH 130500Z 1306/1406 VRB05KT 0100 FG BKN001"
    },
    {
      "icao": "LIPQ",
      "alert": "OK",
      "vis_m": 550,
      "fzfg": false,
      "metar_trigger": false,
      "taf_trigger": false,
      "metar": "METAR LIPQ 130850Z AUTO VRB02KT 0550 R09/0800U FG VV002 08/08 Q0995",
      "taf": "TAF LIPQ 130500Z 1306/1406 VRB05KT 0200 FG BKN001"
    },
    {
      "icao": "LIPR",
      "alert": "OK",
      "vis_m": 9999,
      "fzfg": false,
      "metar_trigger": false,
      "taf_trigger": false,
      "metar": "METAR LIPR 130850Z VRB01KT CAVOK 12/06 Q0995",
      "taf": "TAF LIPR 130500Z 1306/1406 VRB05KT CAVOK"
    },
    {
      "icao": "LIPX",
      "alert": "OK",
      "vis_m": 8000,
      "fzfg": false,
      "metar_trigger": false,
      "taf_trigger": false,
      "metar": "METAR LIPX 130850Z 23004KT 8000 FEW010 07/07 Q0995",
      "taf": ""
    },
    {
      "icao": "LIPY",
      "alert": "OK",
      "vis_m": 9999,
      "fzfg": false,
      "metar_trigger": false,
      "taf_trigger": false,
      "metar": "METAR LIPY 130850Z AUTO 26005KT 9999 SCT210/// 13/07 Q0996",
      "taf": "TAF LIPY 130500Z 1306/1406 VRB05KT 9999 FEW040"
    },
    {
      "icao": "LIPZ",
      "alert": "OK",
      "vis_m": 150,
      "fzfg": false,
      "metar_trigger": false,
      "taf_trigger": false,
      "metar": "METAR LIPZ 130850Z VRB02KT 0150 R04R/0250N FG VV001 04/04 Q0995 NOSIG",
      "taf": "TAF LIPZ 130500Z 1306/1412 VRB05KT 0300 FG BKN002"
    },
    {
      "icao": "LIRF",
      "alert": "OK",
      "vis_m": 9999,
      "fzfg": false,
      "metar_trigger": false,
      "taf_trigger": false,
      "metar": "METAR LIRF 130850Z 31006KT CAVOK 13/09 Q0997 NOSIG",
      "taf": "TAF LIRF 130500Z 1306/1412 30009KT 9999 FEW020 BKN050"
    },
    {
      "icao": "LIRN",
      "alert": "OK",
      "vis_m": 9999,
      "fzfg": false,
      "metar_trigger": false,
      "taf_trigger": false,
      "metar": "METAR LIRN 130850Z 36005KT 300V070 CAVOK 13/08 Q0995 NOSIG",
      "taf": "TAF LIRN 130500Z 1306/1406 VRB06KT 9999 SCT060"
    },
    {
      "icao": "LIRP",
      "alert": "OK",
      "vis_m": 9999,
      "fzfg": false,
      "metar_trigger": false,
      "taf_trigger": false,
      "metar": "METAR LIRP 130845Z 15006KT CAVOK 11/10 Q0996 NOSIG",
      "taf": "TAF LIRP 130500Z 1306/1406 VRB03KT 9999 FEW020"
    },
    {
      "icao": "LIRZ",
      "alert": "OK",
      "vis_m": 9999,
      "fzfg": false,
      "metar_trigger": false,
      "taf_trigger": false,
      "metar": "METAR LIRZ 130850Z AUTO VRB02KT 9999 SCT002/// BKN017/// 08/08 Q0997",
      "taf": "TAF LIRZ 130500Z 1306/1406 VRB05KT 3000 BR SCT015"
    },
    {
      "icao": "LJLJ",
      "alert": "OK",
      "vis_m": 2500,
      "fzfg": false,
      "metar_trigger": false,
      "taf_trigger": false,
      "metar": "METAR LJLJ 130830Z VRB02KT 2500 BR BKN002 05/04 Q0995 NOSIG",
      "taf": ""
    },
    {
      "icao": "LKMT",
      "alert": "OK",
      "vis_m": 9999,
      "fzfg": false,
      "metar_trigger": false,
      "taf_trigger": false,
      "metar": "METAR LKMT 130830Z 22014KT 9999 FEW030 SCT047 08/04 Q0990 NOSIG",
      "taf": "TAF LKMT 130500Z 1306/1406 23012KT 9999 BKN040"
    },
    {
      "icao": "LKPR",
      "alert": "OK",
      "vis_m": 9999,
      "fzfg": false,
      "metar_trigger": false,
      "taf_trigger": false,
      "metar": "METAR LKPR 130830Z 21014KT 9999 SCT016 06/04 Q0990 TEMPO BKN016",
      "taf": "TAF LKPR 130800Z 1309/1415 21014KT 9999 SCT035"
    },
    {
      "icao": "LLBG",
      "alert": "OK",
      "vis_m": 9999,
      "fzfg": false,
      "metar_trigger": false,
      "taf_trigger": false,
      "metar": "METAR LLBG 130850Z 17016KT CAVOK 26/03 Q1008 NOSIG",
      "taf": "TAF LLBG 130500Z 1306/1406 17010KT CAVOK"
    },
    {
      "icao": "LMML",
      "alert": "OK",
      "vis_m": 9999,
      "fzfg": false,
      "metar_trigger": false,
      "taf_trigger": false,
      "metar": "METAR LMML 130845Z 28029KT 9999 FEW027 16/09 Q1004 NOSIG",
      "taf": "TAF LMML 130500Z 1306/1406 28030G42KT 9999 FEW020"
    },
    {
      "icao": "LOWW",
      "alert": "OK",
      "vis_m": 9999,
      "fzfg": false,
      "metar_trigger": false,
      "taf_trigger": false,
      "metar": "METAR LOWW 130850Z 28013KT 250V310 9999 FEW030 SCT032 BKN050 11/03 Q0994 BECMG 28025G35KT",
      "taf": "TAF LOWW 130815Z 1309/1415 27015G25KT 9999 FEW050 TX11/1311Z TN02/1402Z"
    },
    {
      "icao": "LPFR",
      "alert": "OK",
      "vis_m": 9999,
      "fzfg": false,
      "metar_trigger": false,
      "taf_trigger": false,
      "metar": "METAR LPFR 130830Z 28019KT 9999 FEW018 FEW022CB 14/11 Q1009",
      "taf": "TAF LPFR 130500Z 1306/1406 28018G30KT 9999 SCT020"
    },
    {
      "icao": "LPMA",
      "alert": "OK",
      "vis_m": 9999,
      "fzfg": false,
      "metar_trigger": false,
      "taf_trigger": false,
      "metar": "METAR LPMA 130830Z 34012G26KT 260V020 9999 FEW015 17/06 Q1023",
      "taf": "TAF LPMA 130500Z 1306/1406 33012KT 9999 SCT015"
    },
    {
      "icao": "LPPR",
      "alert": "OK",
      "vis_m": 9999,
      "fzfg": false,
      "metar_trigger": false,
      "taf_trigger": false,
      "metar": "METAR LPPR 130830Z 30015G27KT 270V330 9999 VCSH FEW015 BKN020 FEW022CB 13/09 Q0998",
      "taf": "TAF LPPR 130500Z 1306/1406 29015G25KT 9999 SCT018"
    },
    {
      "icao": "LPPS",
      "alert": "OK",
      "vis_m": 9999,
      "fzfg": false,
      "metar_trigger": false,
      "taf_trigger": false,
      "metar": "METAR LPPS 130830Z 31018KT 9999 FEW014 16/10 Q1024",
      "taf": "TAF LPPS 130500Z 1306/1412 32018KT 9999 SCT015"
    },
    {
      "icao": "LPPT",
      "alert": "OK",
      "vis_m": 9999,
      "fzfg": false,
      "metar_trigger": false,
      "taf_trigger": false,
      "metar": "METAR LPPT 130830Z 28017G33KT 9999 FEW025 FEW030TCU 13/09 Q1005 WS R20",
      "taf": "TAF LPPT 130500Z 1306/1412 29018G30KT 9999 SCT020"
    },
    {
      "icao": "LQBK",
      "alert": "OK",
      "vis_m": 9999,
      "fzfg": false,
      "metar_trigger": false,
      "taf_trigger": false,
      "metar": "METAR LQBK 130830Z 18009KT 9999 FEW001 SCT047 10/08 Q0995 NOSIG",
      "taf": ""
    },
    {
      "icao": "LQSA",
      "alert": "OK",
      "vis_m": 9999,
      "fzfg": false,
      "metar_trigger": false,
      "taf_trigger": false,
      "metar": "METAR LQSA 130830Z 30007KT 9999 -RA SCT020 BKN035 07/07 Q0993 NOSIG",
      "taf": "TAF LQSA 130500Z 1306/1406 17005KT 9999 OVC030 TX09/1313Z TN01/1404Z"
    },
    {
      "icao": "LQTZ",
      "alert": "OK",
      "vis_m": 9999,
      "fzfg": false,
      "metar_trigger": false,
      "taf_trigger": false,
      "metar": "METAR LQTZ 130830Z 26004KT 9999 -RA FEW020 SCT030 BKN040 08/08 Q0994",
      "taf": ""
    },
    {
      "icao": "LRBC",
      "alert": "OK",
      "vis_m": 400,
      "fzfg": false,
      "metar_trigger": false,
      "taf_trigger": false,
      "metar": "METAR LRBC 130830Z 20006KT 0400 R16/0700N FG VV002 03/03 Q0992",
      "taf": "TAF LRBC 130800Z 1309/1318 17006KT 0600 FG VV002"
    },
    {
      "icao": "LRBS",
      "alert": "OK",
      "vis_m": 250,
      "fzfg": false,
      "metar_trigger": false,
      "taf_trigger": false,
      "metar": "METAR LRBS 130830Z 36004KT 330V050 0250 R07/0450N FG VV001 03/03 Q0992 NOSIG",
      "taf": "TAF LRBS 130500Z 1306/1406 VRB04KT 0100 FG VV001"
    },
    {
      "icao": "LRBV",
      "alert": "OK",
      "vis_m": 9999,
      "fzfg": false,
      "metar_trigger": false,
      "taf_trigger": false,
      "metar": "METAR LRBV 130830Z VRB02KT CAVOK 01/M00 Q0992",
      "taf": "TAF LRBV 130800Z 1309/1318 VRB04KT CAVOK"
    },
    {
      "icao": "LRCL",
      "alert": "OK",
      "vis_m": 9999,
      "fzfg": false,
      "metar_trigger": false,
      "taf_trigger": false,
      "metar": "METAR LRCL 130830Z 00000KT CAVOK 04/01 Q0992",
      "taf": "TAF LRCL 130800Z 1309/1318 VRB04KT CAVOK"
    },
    {
      "icao": "LRCV",
      "alert": "OK",
      "vis_m": 400,
      "fzfg": false,
      "metar_trigger": false,
      "taf_trigger": false,
      "metar": "METAR LRCV 130830Z 29004KT 0400 R26/0650U FG VV002 02/02 Q0992",
      "taf": "TAF LRCV 130800Z 1309/1318 30005KT 0200 FG VV001"
    },
    {
      "icao": "LRIA",
      "alert": "OK",
      "vis_m": 150,
      "fzfg": false,
      "metar_trigger": false,
      "taf_trigger": false,
      "metar": "METAR LRIA 130830Z 09007KT 0150 R14/0325N FG VV001 03/02 Q0993",
      "taf": "TAF LRIA 130800Z 1309/1318 11006KT 0200 FG VV001"
    },
    {
      "icao": "LROP",
      "alert": "OK",
      "vis_m": 250,
      "fzfg": false,
      "metar_trigger": false,
      "taf_trigger": false,
      "metar": "METAR LROP 130830Z 01004KT 0250 R08R/0400U R08L/0550U FG VV001 04/04 Q0992 NOSIG",
      "taf": "TAF LROP 130500Z 1306/1406 VRB04KT 0100 FG VV001"
    },
    {
      "icao": "LRSB",
      "alert": "OK",
      "vis_m": 9999,
      "fzfg": false,
      "metar_trigger": false,
      "taf_trigger": false,
      "metar": "METAR LRSB 130830Z 19003KT 150V220 CAVOK 06/03 Q0991",
      "taf": "TAF LRSB 130500Z 1306/1406 09005KT CAVOK"
    },
    {
      "icao": "LRSM",
      "alert": "OK",
      "vis_m": 9999,
      "fzfg": false,
      "metar_trigger": false,
      "taf_trigger": false,
      "metar": "METAR LRSM 130830Z 24005KT CAVOK 09/06 Q0991",
      "taf": "TAF LRSM 130800Z 1309/1318 VRB04KT 9999 SCT045"
    },
    {
      "icao": "LRSV",
      "alert": "OK",
      "vis_m": 9999,
      "fzfg": false,
      "metar_trigger": false,
      "taf_trigger": false,
      "metar": "METAR LRSV 130830Z 22007KT CAVOK 03/02 Q0990",
      "taf": "TAF LRSV 130800Z 1309/1318 22006KT 5000 BR SCT015"
    },
    {
      "icao": "LRTM",
      "alert": "OK",
      "vis_m": 9999,
      "fzfg": false,
      "metar_trigger": false,
      "taf_trigger": false,
      "metar": "METAR LRTM 130830Z 08003KT 040V130 CAVOK 04/01 Q0992",
      "taf": "TAF LRTM 130800Z 1309/1318 VRB04KT CAVOK"
    },
    {
      "icao": "LRTR",
      "alert": "OK",
      "vis_m": 9999,
      "fzfg": false,
      "metar_trigger": false,
      "taf_trigger": false,
      "metar": "METAR LRTR 130830Z 29007KT CAVOK 09/04 Q0992 NOSIG",
      "taf": "TAF LRTR 130500Z 1306/1406 33006KT CAVOK"
    },
    {
      "icao": "LTAC",
      "alert": "OK",
      "vis_m": 9999,
      "fzfg": false,
      "metar_trigger": false,
      "taf_trigger": false,
      "metar": "METAR LTAC 130850Z 19018KT 9999 SCT035 BKN100 10/05 Q0995 NOSIG",
      "taf": "TAF LTAC 130440Z 1306/1406 21009KT 9999 SCT040 BKN100"
    },
    {
      "icao": "LTFM",
      "alert": "OK",
      "vis_m": 9999,
      "fzfg": false,
      "metar_trigger": false,
      "taf_trigger": false,
      "metar": "METAR LTFM 130850Z 11008KT 9999 -SHRA SCT035 BKN080 12/09 Q0989 NOSIG",
      "taf": "TAF LTFM 130440Z 1306/1412 10008KT 9999 SCT032 BKN080"
    },
    {
      "icao": "LUKK",
      "alert": "OK",
      "vis_m": 450,
      "fzfg": false,
      "metar_trigger": false,
      "taf_trigger": false,
      "metar": "METAR LUKK 130830Z VRB02KT 0450 0350SW R08/0400N FG VV002 03/03 Q0993 TEMPO 0300 FG VV001",
      "taf": "TAF LUKK 130518Z 1306/1406 VRB05KT 0300 FG VV001"
    },
    {
      "icao": "LWOH",
      "alert": "OK",
      "vis_m": 9999,
      "fzfg": false,
      "metar_trigger": false,
      "taf_trigger": false,
      "metar": "METAR LWOH 130850Z 15004KT 110V170 9999 FEW020 BKN040 08/07 Q0990",
      "taf": "TAF LWOH 130820Z 1309/1409 VRB02KT 9999 SCT020 OVC035"
    },
    {
      "icao": "LWSK",
      "alert": "OK",
      "vis_m": 9999,
      "fzfg": false,
      "metar_trigger": false,
      "taf_trigger": false,
      "metar": "METAR LWSK 130850Z VRB03KT 9999 SCT035 13/08 Q0990 NOSIG",
      "taf": "TAF LWSK 130820Z 1309/1409 VRB02KT 9999 SCT035 BKN070"
    },
    {
      "icao": "LYBE",
      "alert": "OK",
      "vis_m": 9999,
      "fzfg": false,
      "metar_trigger": false,
      "taf_trigger": false,
      "metar": "METAR LYBE 130830Z 02003KT 300V060 9999 FEW018 06/02 Q0993 NOSIG",
      "taf": "TAF LYBE 130500Z 1306/1406 33008KT 9999 SCT045 TX13/1313Z TN03/1406Z"
    },
    {
      "icao": "LYNI",
      "alert": "OK",
      "vis_m": 9999,
      "fzfg": false,
      "metar_trigger": false,
      "taf_trigger": false,
      "metar": "METAR LYNI 130830Z 31008KT 9999 BKN067 06/04 Q0992 NOSIG",
      "taf": "TAF LYNI 130500Z 1306/1406 29006KT 9999 BKN060 TX11/1313Z TN03/1306Z"
    },
    {
      "icao": "LYPG",
      "alert": "OK",
      "vis_m": 9999,
      "fzfg": false,
      "metar_trigger": false,
      "taf_trigger": false,
      "metar": "METAR LYPG 130830Z VRB02KT 9999 FEW005 BKN080 11/11 Q0990 NOSIG",
      "taf": "TAF LYPG 130500Z 1306/1406 16005KT 9999 SCT040 BKN070 TX14/1312Z TN07/1405Z"
    },
    {
      "icao": "LZIB",
      "alert": "OK",
      "vis_m": 9999,
      "fzfg": false,
      "metar_trigger": false,
      "taf_trigger": false,
      "metar": "METAR LZIB 130830Z 27017KT 9999 FEW048 09/04 Q0993 NOSIG",
      "taf": "TAF LZIB 130524Z 1306/1406 28010KT 9999 FEW050"
    },
    {
      "icao": "LZKZ",
      "alert": "OK",
      "vis_m": 4000,
      "fzfg": false,
      "metar_trigger": false,
      "taf_trigger": false,
      "metar": "METAR LZKZ 130830Z 30005KT 4000 BR OVC005 07/06 Q0990 NOSIG",
      "taf": "TAF LZKZ 130524Z 1306/1406 20004KT 3000 BR OVC008"
    },
    {
      "icao": "LZTT",
      "alert": "OK",
      "vis_m": 9999,
      "fzfg": false,
      "metar_trigger": false,
      "taf_trigger": false,
      "metar": "METAR LZTT 130830Z 26013KT 9999 FEW015 BKN020 06/03 Q0989 NOSIG",
      "taf": ""
    },
    {
      "icao": "OEJN",
      "alert": "OK",
      "vis_m": 9999,
      "fzfg": false,
      "metar_trigger": false,
      "taf_trigger": false,
      "metar": "METAR OEJN 130800Z 29004KT CAVOK 30/15 Q1013 NOSIG",
      "taf": "TAF OEJN 130500Z 1306/1412 30010KT CAVOK"
    },
    {
      "icao": "OEMA",
      "alert": "OK",
      "vis_m": 9999,
      "fzfg": false,
      "metar_trigger": false,
      "taf_trigger": false,
      "metar": "METAR OEMA 130800Z 12003KT CAVOK 26/09 Q1018 NOSIG",
      "taf": "TAF OEMA 130500Z 1306/1412 VRB03KT CAVOK"
    },
    {
      "icao": "OJAI",
      "alert": "OK",
      "vis_m": 5000,
      "fzfg": false,
      "metar_trigger": false,
      "taf_trigger": false,
      "metar": "METAR OJAI 130800Z 17012KT 5000 HZ NSC 16/02 Q1014 NOSIG",
      "taf": ""
    },
    {
      "icao": "OMAA",
      "alert": "OK",
      "vis_m": 9999,
      "fzfg": false,
      "metar_trigger": false,
      "taf_trigger": false,
      "metar": "METAR OMAA 130830Z 13005KT 060V200 CAVOK 31/08 Q1017 NOSIG",
      "taf": "TAF OMAA 130500Z 1306/1412 VRB02KT 8000 NSC"
    },
    {
      "icao": "OMDB",
      "alert": "OK",
      "vis_m": 8000,
      "fzfg": false,
      "metar_trigger": false,
      "taf_trigger": false,
      "metar": "METAR OMDB 130830Z 32009KT 290V350 8000 NSC 29/19 Q1017 NOSIG",
      "taf": "TAF OMDB 130500Z 1306/1412 16005KT 8000 NSC"
    },
    {
      "icao": "UAAA",
      "alert": "OK",
      "vis_m": 9999,
      "fzfg": false,
      "metar_trigger": false,
      "taf_trigger": false,
      "metar": "METAR UAAA 130830Z 01003MPS 360V060 9999 BKN050CB OVC100 M04/M06 Q1020 NOSIG",
      "taf": "TAF UAAA 130502Z 1306/1406 30003MPS 6000 BKN011CB OVC020 TX00/1309Z TNM07/1403Z"
    },
    {
      "icao": "UBBB",
      "alert": "OK",
      "vis_m": 9999,
      "fzfg": false,
      "metar_trigger": false,
      "taf_trigger": false,
      "metar": "METAR UBBB 130830Z 18024KT CAVOK 09/04 Q1008 NOSIG",
      "taf": "TAF UBBB 130507Z 1306/1406 18018G28KT 9999 SCT030 TX12/1310Z TN06/1401Z"
    },
    {
      "icao": "UDSG",
      "alert": "OK",
      "vis_m": 9999,
      "fzfg": false,
      "metar_trigger": false,
      "taf_trigger": false,
      "metar": "METAR UDSG 130830Z 31003KT 9999 OVC040 03/01 Q1014 NOSIG",
      "taf": "TAF UDSG 130500Z 1306/1406 VRB06KT 5000 BR BKN020"
    },
    {
      "icao": "UDYZ",
      "alert": "OK",
      "vis_m": 3800,
      "fzfg": false,
      "metar_trigger": false,
      "taf_trigger": false,
      "metar": "METAR UDYZ 130830Z 13001KT 3800 BR SCT046 06/04 Q1014 NOSIG",
      "taf": "TAF UDYZ 130500Z 1306/1406 28006KT 2000 BR SCT040"
    },
    {
      "icao": "UGKO",
      "alert": "OK",
      "vis_m": 9999,
      "fzfg": false,
      "metar_trigger": false,
      "taf_trigger": false,
      "metar": "METAR UGKO 130830Z 09018KT CAVOK 16/05 Q1005 NOSIG",
      "taf": "TAF UGKO 130500Z 1306/1406 08020KT 9999 BKN070 TX19/1311Z TN13/1306Z"
    }
  ]
}