{
  "ts_utc": "2026-02-05T08:23:59Z",
  "threshold_m": 150,
  "source": "stations_override.txt (ICAO list) + aviationweather.gov (METAR/TAF raw)",
  "station_count": 159,
  "stations": [
    {
      "icao": "BIKF",
      "alert": "OK",
      "vis_m": 9999,
      "fzfg": false,
      "metar_trigger": false,
      "taf_trigger": false,
      "metar": "METAR BIKF 050800Z 07004KT CAVOK M01/M06 Q1006",
      "taf": "TAF BIKF 050758Z 0509/0609 05008KT CAVOK TX03/0515Z TNM02/0603Z"
    },
    {
      "icao": "BKPR",
      "alert": "OK",
      "vis_m": null,
      "fzfg": false,
      "metar_trigger": false,
      "taf_trigger": false,
      "metar": "",
      "taf": "TAF BKPR 050530Z 0506/0606 19006KT 9999 BKN060"
    },
    {
      "icao": "EBCI",
      "alert": "OK",
      "vis_m": 9999,
      "fzfg": false,
      "metar_trigger": false,
      "taf_trigger": false,
      "metar": "METAR EBCI 050750Z 15009KT 9999 SCT030 BKN045 04/01 Q0988 NOSIG",
      "taf": "TAF EBCI 050515Z 0506/0612 15008KT CAVOK"
    },
    {
      "icao": "EDDB",
      "alert": "OK",
      "vis_m": 4800,
      "fzfg": false,
      "metar_trigger": false,
      "taf_trigger": false,
      "metar": "METAR EDDB 050750Z AUTO 07010KT 4800 BR OVC005 M04/M05 Q0998 TEMPO 4000 -FZRA OVC004",
      "taf": "TAF EDDB 050500Z 0506/0606 07011KT 6000 OVC008"
    },
    {
      "icao": "EDDH",
      "alert": "OK",
      "vis_m": 3300,
      "fzfg": false,
      "metar_trigger": false,
      "taf_trigger": false,
      "metar": "METAR EDDH 050750Z AUTO 08010KT 3300 -SN BR FEW009 BKN022 BKN027 M03/M04 Q0999 RESN TEMPO 2500 SN OVC008",
      "taf": "TAF EDDH 050500Z 0506/0612 08010KT 7000 OVC008"
    },
    {
      "icao": "EDDK",
      "alert": "OK",
      "vis_m": 9999,
      "fzfg": false,
      "metar_trigger": false,
      "taf_trigger": false,
      "metar": "METAR EDDK 050750Z AUTO 13010KT 090V150 9999 BKN014 03/M00 Q0992 BECMG SCT015",
      "taf": "TAF EDDK 050500Z 0506/0612 11008KT 9999 BKN030"
    },
    {
      "icao": "EDDN",
      "alert": "OK",
      "vis_m": 9999,
      "fzfg": false,
      "metar_trigger": false,
      "taf_trigger": false,
      "metar": "METAR EDDN 050750Z AUTO 12005KT 9999 BKN006 OVC013 01/00 Q0993 NOSIG",
      "taf": ""
    },
    {
      "icao": "EDDS",
      "alert": "OK",
      "vis_m": 6000,
      "fzfg": false,
      "metar_trigger": false,
      "taf_trigger": false,
      "metar": "METAR EDDS 050750Z AUTO 17003KT 140V200 6000 OVC003 M01/M02 Q0992 NOSIG",
      "taf": "TAF EDDS 050500Z 0506/0606 VRB02KT 3000 BR SCT005"
    },
    {
      "icao": "EDFH",
      "alert": "OK",
      "vis_m": 350,
      "fzfg": true,
      "metar_trigger": false,
      "taf_trigger": false,
      "metar": "METAR EDFH 050750Z 14016KT 0350 R21/0600N FZFG OVC001 M00/M00 Q0991",
      "taf": ""
    },
    {
      "icao": "EDJA",
      "alert": "OK",
      "vis_m": 2500,
      "fzfg": false,
      "metar_trigger": false,
      "taf_trigger": false,
      "metar": "METAR EDJA 050750Z 23005KT 2500 BR OVC002 M01/M01 Q0993",
      "taf": "TAF EDJA 050500Z 0506/0515 23005KT 4000 BR BKN002"
    },
    {
      "icao": "EDLW",
      "alert": "OK",
      "vis_m": 5000,
      "fzfg": false,
      "metar_trigger": false,
      "taf_trigger": false,
      "metar": "METAR EDLW 050750Z 04010KT 5000 BR OVC015 00/M01 Q0992",
      "taf": "TAF EDLW 050500Z 0506/0606 08008KT 8000 BKN030"
    },
    {
      "icao": "EDNY",
      "alert": "OK",
      "vis_m": 7000,
      "fzfg": false,
      "metar_trigger": false,
      "taf_trigger": false,
      "metar": "METAR EDNY 050750Z 23003KT 190V280 7000 OVC008 02/00 Q0994",
      "taf": "TAF EDNY 050500Z 0506/0515 VRB02KT 6000 OVC008"
    },
    {
      "icao": "EDSB",
      "alert": "OK",
      "vis_m": 6000,
      "fzfg": false,
      "metar_trigger": false,
      "taf_trigger": false,
      "metar": "METAR EDSB 050750Z VRB01KT 6000 OVC004 02/01 Q0993",
      "taf": "TAF EDSB 050500Z 0506/0606 02004KT 9000 OVC006"
    },
    {
      "icao": "EETN",
      "alert": "OK",
      "vis_m": 9999,
      "fzfg": false,
      "metar_trigger": false,
      "taf_trigger": false,
      "metar": "METAR EETN 050820Z 10007KT 9999 FEW002 M16/M18 Q1021 NOSIG",
      "taf": "TAF EETN 050530Z 0506/0606 10008KT 9999 OVC007"
    },
    {
      "icao": "EFTU",
      "alert": "OK",
      "vis_m": 9999,
      "fzfg": false,
      "metar_trigger": false,
      "taf_trigger": false,
      "metar": "METAR EFTU 050820Z AUTO 06003KT 030V090 9999 -SHSN OVC008 M13/M15 Q1021",
      "taf": "TAF EFTU 050537Z 0506/0606 07005KT 9999 -SN OVC005"
    },
    {
      "icao": "EGBB",
      "alert": "OK",
      "vis_m": 4500,
      "fzfg": false,
      "metar_trigger": false,
      "taf_trigger": false,
      "metar": "METAR EGBB 050750Z 08015KT 4500 RADZ OVC008 05/04 Q0983",
      "taf": ""
    },
    {
      "icao": "EGGP",
      "alert": "OK",
      "vis_m": 9999,
      "fzfg": false,
      "metar_trigger": false,
      "taf_trigger": false,
      "metar": "METAR EGGP 050750Z 09019KT 9999 FEW018 SCT043 05/02 Q0984",
      "taf": "TAF EGGP 050455Z 0506/0606 09020G30KT 9999 SCT017"
    },
    {
      "icao": "EGGW",
      "alert": "OK",
      "vis_m": 2700,
      "fzfg": false,
      "metar_trigger": false,
      "taf_trigger": false,
      "metar": "METAR EGGW 050750Z AUTO 10015KT 2700 -RA OVC004 05/04 Q0983",
      "taf": ""
    },
    {
      "icao": "EGKK",
      "alert": "OK",
      "vis_m": 2700,
      "fzfg": false,
      "metar_trigger": false,
      "taf_trigger": false,
      "metar": "METAR EGKK 050750Z 09010KT 2700 -RA BKN005 BKN009 07/06 Q0982",
      "taf": "TAF EGKK 050456Z 0506/0612 09009KT 9999 BKN010"
    },
    {
      "icao": "EGNM",
      "alert": "OK",
      "vis_m": 7000,
      "fzfg": false,
      "metar_trigger": false,
      "taf_trigger": false,
      "metar": "METAR EGNM 050750Z 07013G27KT 030V100 7000 SCT005 BKN007 03/02 Q0988",
      "taf": "TAF EGNM 050524Z 0506/0606 07009KT 4000 -DZ BR SCT004 BKN006"
    },
    {
      "icao": "EGPD",
      "alert": "OK",
      "vis_m": 8000,
      "fzfg": false,
      "metar_trigger": false,
      "taf_trigger": false,
      "metar": "METAR EGPD 050750Z AUTO 11016G28KT 080V140 8000 OVC007/// //////TCU 04/03 Q0998",
      "taf": "TAF EGPD 050500Z 0506/0606 12015KT 9999 BKN016"
    },
    {
      "icao": "EGPF",
      "alert": "OK",
      "vis_m": 9999,
      "fzfg": false,
      "metar_trigger": false,
      "taf_trigger": false,
      "metar": "METAR EGPF 050750Z AUTO 07016G26KT 9999 BKN011 OVC016 06/04 Q0992",
      "taf": ""
    },
    {
      "icao": "EHBK",
      "alert": "OK",
      "vis_m": 9000,
      "fzfg": false,
      "metar_trigger": false,
      "taf_trigger": false,
      "metar": "METAR EHBK 050755Z AUTO 09005KT 070V130 9000 NSC 02/00 Q0990 BECMG 9000",
      "taf": "TAF EHBK 050506Z 0506/0612 08008KT 8000 NSC"
    },
    {
      "icao": "EHEH",
      "alert": "OK",
      "vis_m": null,
      "fzfg": false,
      "metar_trigger": false,
      "taf_trigger": false,
      "metar": "",
      "taf": "TAF EHEH 050557Z 0506/0612 08010KT 6000 BR BKN016"
    },
    {
      "icao": "EKBI",
      "alert": "OK",
      "vis_m": 6000,
      "fzfg": false,
      "metar_trigger": false,
      "taf_trigger": false,
      "metar": "METAR EKBI 050819Z 06019KT 6000 -SN DRSN BKN011 BKN020 M03/M04 Q1003",
      "taf": "TAF EKBI 050527Z 0506/0606 07016KT 9999 BKN012"
    },
    {
      "icao": "EKCH",
      "alert": "OK",
      "vis_m": 9999,
      "fzfg": false,
      "metar_trigger": false,
      "taf_trigger": false,
      "metar": "METAR EKCH 050820Z 06019KT 9999 BKN009 M02/M04 Q1006 TEMPO 07017G27KT",
      "taf": "TAF EKCH 050527Z 0506/0606 07016KT 9999 BKN012"
    },
    {
      "icao": "ENAL",
      "alert": "OK",
      "vis_m": 9999,
      "fzfg": false,
      "metar_trigger": false,
      "taf_trigger": false,
      "metar": "METAR ENAL 050750Z 14009KT CAVOK M02/M11 Q1011",
      "taf": "TAF ENAL 050500Z 0506/0515 14009KT CAVOK"
    },
    {
      "icao": "ENBR",
      "alert": "OK",
      "vis_m": 9999,
      "fzfg": false,
      "metar_trigger": false,
      "taf_trigger": false,
      "metar": "METAR ENBR 050750Z 06003KT CAVOK M07/M13 Q1010 NOSIG RMK WIND 1200FT 16003KT",
      "taf": "TAF ENBR 050500Z 0506/0606 06005KT CAVOK"
    },
    {
      "icao": "ENGM",
      "alert": "OK",
      "vis_m": 9999,
      "fzfg": false,
      "metar_trigger": false,
      "taf_trigger": false,
      "metar": "METAR ENGM 050750Z 36006KT 9999 -SHSN BKN027 M11/M14 Q1017 NOSIG",
      "taf": "TAF ENGM 050500Z 0506/0606 02008KT 9999 -SN BKN025"
    },
    {
      "icao": "ENHD",
      "alert": "OK",
      "vis_m": 9999,
      "fzfg": false,
      "metar_trigger": false,
      "taf_trigger": false,
      "metar": "METAR ENHD 050750Z 07003KT 010V130 CAVOK M05/M13 Q1010",
      "taf": "TAF ENHD 050500Z 0506/0515 08008KT CAVOK"
    },
    {
      "icao": "ENTC",
      "alert": "OK",
      "vis_m": 9999,
      "fzfg": false,
      "metar_trigger": false,
      "taf_trigger": false,
      "metar": "METAR ENTC 050750Z 25003KT 210V280 9999 FEW022 SCT030 BKN035 00/M01 Q1015 TEMPO 4000 -SN VV0014 RMK WIND 2600FT 31017KT",
      "taf": "TAF ENTC 050500Z 0506/0606 19005KT 9999 SCT020 BKN030"
    },
    {
      "icao": "ENTO",
      "alert": "OK",
      "vis_m": 9999,
      "fzfg": false,
      "metar_trigger": false,
      "taf_trigger": false,
      "metar": "METAR ENTO 050750Z 02013KT 9999 -SN OVC023 M08/M11 Q1016 NOSIG",
      "taf": "TAF ENTO 050500Z 0506/0606 03012KT 9999 BKN025"
    },
    {
      "icao": "ENVA",
      "alert": "OK",
      "vis_m": 9999,
      "fzfg": false,
      "metar_trigger": false,
      "taf_trigger": false,
      "metar": "METAR ENVA 050750Z 10005KT CAVOK M13/M18 Q1015 NOSIG RMK WIND 670FT 11009KT",
      "taf": "TAF ENVA 050500Z 0506/0606 10008KT CAVOK"
    },
    {
      "icao": "ENZV",
      "alert": "OK",
      "vis_m": 9999,
      "fzfg": false,
      "metar_trigger": false,
      "taf_trigger": false,
      "metar": "METAR ENZV 050750Z 06008KT CAVOK M03/M12 Q1009 NOSIG",
      "taf": ""
    },
    {
      "icao": "EPGD",
      "alert": "OK",
      "vis_m": 9999,
      "fzfg": false,
      "metar_trigger": false,
      "taf_trigger": false,
      "metar": "METAR EPGD 050800Z 08008KT 9999 OVC007 M08/M09 Q1006",
      "taf": "TAF EPGD 050530Z 0506/0606 09010KT 9000 OVC007"
    },
    {
      "icao": "EPKK",
      "alert": "OK",
      "vis_m": 5000,
      "fzfg": false,
      "metar_trigger": false,
      "taf_trigger": false,
      "metar": "METAR EPKK 050800Z 06010KT 5000 BR OVC005 M00/M01 Q0999",
      "taf": "TAF EPKK 050530Z 0506/0606 06008KT 4000 BR BKN005"
    },
    {
      "icao": "EPKT",
      "alert": "OK",
      "vis_m": 3100,
      "fzfg": false,
      "metar_trigger": false,
      "taf_trigger": false,
      "metar": "METAR EPKT 050800Z 06007KT 3100 BR OVC002 M00/M00 Q0999",
      "taf": "TAF EPKT 050530Z 0506/0606 07005KT 1200 BR BKN002"
    },
    {
      "icao": "EPLB",
      "alert": "OK",
      "vis_m": 800,
      "fzfg": true,
      "metar_trigger": false,
      "taf_trigger": false,
      "metar": "METAR EPLB 050800Z 10012KT 0800 R25/1100N FZFG OVC002 M02/M02 Q1004",
      "taf": ""
    },
    {
      "icao": "EPMO",
      "alert": "OK",
      "vis_m": 6000,
      "fzfg": false,
      "metar_trigger": false,
      "taf_trigger": false,
      "metar": "METAR EPMO 050800Z 08014KT 6000 OVC006 M05/M05 Q1004",
      "taf": "TAF EPMO 050530Z 0506/0606 08010KT 6000 BKN007 OVC012"
    },
    {
      "icao": "EPPO",
      "alert": "OK",
      "vis_m": 5000,
      "fzfg": false,
      "metar_trigger": false,
      "taf_trigger": false,
      "metar": "METAR EPPO 050800Z 10010KT 5000 -FZRA BR OVC006 M04/M06 Q1001",
      "taf": ""
    },
    {
      "icao": "EPRA",
      "alert": "OK",
      "vis_m": 6000,
      "fzfg": false,
      "metar_trigger": false,
      "taf_trigger": false,
      "metar": "METAR EPRA 050800Z 10012KT 6000 OVC003 M01/M02 Q1002",
      "taf": "TAF EPRA 050530Z 0506/0515 10010KT 5000 BR OVC005"
    },
    {
      "icao": "EPRZ",
      "alert": "OK",
      "vis_m": 4500,
      "fzfg": false,
      "metar_trigger": false,
      "taf_trigger": false,
      "metar": "METAR EPRZ 050800Z 09016KT 4500 BR OVC003 01/01 Q1001",
      "taf": "TAF EPRZ 050530Z 0506/0606 08012KT 4000 BR OVC004"
    },
    {
      "icao": "EPSC",
      "alert": "OK",
      "vis_m": 8000,
      "fzfg": false,
      "metar_trigger": false,
      "taf_trigger": false,
      "metar": "METAR EPSC 050800Z 08008KT 8000 -FZRA OVC009 M05/M07 Q1001",
      "taf": "TAF EPSC 050530Z 0506/0606 08008KT 7000 -SN BKN020"
    },
    {
      "icao": "EPSY",
      "alert": "OK",
      "vis_m": 6000,
      "fzfg": false,
      "metar_trigger": false,
      "taf_trigger": false,
      "metar": "METAR EPSY 050800Z 08006KT 030V130 6000 OVC004 M07/M08 Q1007",
      "taf": "TAF EPSY 050530Z 0506/0515 09008KT 8000 BKN008 OVC011"
    },
    {
      "icao": "EPWA",
      "alert": "OK",
      "vis_m": 9999,
      "fzfg": false,
      "metar_trigger": false,
      "taf_trigger": false,
      "metar": "METAR EPWA 050800Z 09011KT 9999 OVC007 M04/M05 Q1004 TEMPO -FZDZ",
      "taf": "TAF EPWA 050530Z 0506/0606 09010KT 6000 BKN007 OVC012"
    },
    {
      "icao": "EPWR",
      "alert": "OK",
      "vis_m": 4500,
      "fzfg": false,
      "metar_trigger": false,
      "taf_trigger": false,
      "metar": "METAR EPWR 050800Z 09007KT 4500 BR OVC005 M02/M03 Q0999",
      "taf": ""
    },
    {
      "icao": "ESGG",
      "alert": "OK",
      "vis_m": 9999,
      "fzfg": false,
      "metar_trigger": false,
      "taf_trigger": false,
      "metar": "METAR ESGG 050750Z 06013KT 9999 OVC062 M05/M08 Q1010",
      "taf": "TAF ESGG 050530Z 0506/0606 08013KT 9999 OVC020"
    },
    {
      "icao": "ESKN",
      "alert": "OK",
      "vis_m": 9999,
      "fzfg": false,
      "metar_trigger": false,
      "taf_trigger": false,
      "metar": "METAR ESKN 050750Z AUTO 05007KT 9999 OVC012/// M05/M08 Q1016",
      "taf": "TAF ESKN 050530Z 0506/0606 03007KT 9999 OVC020"
    },
    {
      "icao": "ESMS",
      "alert": "OK",
      "vis_m": 7000,
      "fzfg": false,
      "metar_trigger": false,
      "taf_trigger": false,
      "metar": "METAR ESMS 050750Z 08024KT 7000 OVC005 M02/M02 Q1005",
      "taf": "TAF ESMS 050527Z 0506/0606 08018KT 7000 BKN006"
    },
    {
      "icao": "ESSA",
      "alert": "OK",
      "vis_m": 9999,
      "fzfg": false,
      "metar_trigger": false,
      "taf_trigger": false,
      "metar": "METAR ESSA 050750Z 09010KT 9999 -SN FEW008 BKN018 M06/M10 Q1018 TEMPO BKN014",
      "taf": "TAF ESSA 050530Z 0506/0606 07008KT 9999 -SN BKN015"
    },
    {
      "icao": "EYKA",
      "alert": "OK",
      "vis_m": 9999,
      "fzfg": false,
      "metar_trigger": false,
      "taf_trigger": false,
      "metar": "METAR EYKA 050820Z 10010KT 9999 FEW022 OVC031 M09/M12 Q1013",
      "taf": "TAF EYKA 050500Z 0506/0606 10009KT 8000 BKN030"
    },
    {
      "icao": "EYPA",
      "alert": "OK",
      "vis_m": 9999,
      "fzfg": false,
      "metar_trigger": false,
      "taf_trigger": false,
      "metar": "METAR EYPA 050820Z 10008KT 070V130 CAVOK M11/M15 Q1012",
      "taf": "TAF EYPA 050500Z 0506/0606 09010KT 8000 NSC"
    },
    {
      "icao": "EYVI",
      "alert": "OK",
      "vis_m": 7000,
      "fzfg": false,
      "metar_trigger": false,
      "taf_trigger": false,
      "metar": "METAR EYVI 050820Z COR 12009KT 7000 BKN009 M10/M12 Q1012 NOSIG",
      "taf": "TAF EYVI 050505Z 0506/0606 10010KT 9000 OVC025"
    },
    {
      "icao": "GCFV",
      "alert": "OK",
      "vis_m": 9999,
      "fzfg": false,
      "metar_trigger": false,
      "taf_trigger": false,
      "metar": "METAR GCFV 050800Z 21005KT 190V250 9999 SCT025 BKN030 17/13 Q1016",
      "taf": "TAF GCFV 050200Z 0503/0603 25005KT 9999 SCT025 TX22/0514Z TN14/0506Z"
    },
    {
      "icao": "GCLP",
      "alert": "OK",
      "vis_m": 9999,
      "fzfg": false,
      "metar_trigger": false,
      "taf_trigger": false,
      "metar": "METAR GCLP 050800Z 00000KT 9999 FEW020 17/13 Q1015 NOSIG",
      "taf": "TAF GCLP 050200Z 0503/0603 32005KT 9999 SCT025 TX22/0514Z TN15/0506Z"
    },
    {
      "icao": "GCTS",
      "alert": "OK",
      "vis_m": 9999,
      "fzfg": false,
      "metar_trigger": false,
      "taf_trigger": false,
      "metar": "METAR GCTS 050800Z 28011KT 9999 SCT025 18/15 Q1015 NOSIG",
      "taf": "TAF GCTS 050200Z 0503/0603 23012KT 9999 FEW025 TX25/0514Z TN16/0506Z"
    },
    {
      "icao": "GMAD",
      "alert": "OK",
      "vis_m": 4000,
      "fzfg": false,
      "metar_trigger": false,
      "taf_trigger": false,
      "metar": "METAR GMAD 050800Z 12004KT 4000 BR SCT003 BKN023 13/13 Q1016 BECMG 8000 BKN023",
      "taf": "TAF GMAD 050500Z 0506/0612 12004KT 0800 FG OVC003"
    },
    {
      "icao": "GMMN",
      "alert": "OK",
      "vis_m": 9999,
      "fzfg": false,
      "metar_trigger": false,
      "taf_trigger": false,
      "metar": "METAR GMMN 050800Z 23020KT 190V270 9999 BKN007 15/13 Q1011 TEMPO 23022G32KT",
      "taf": "TAF GMMN 050500Z 0506/0612 22017KT 9999 BKN008 SCT016"
    },
    {
      "icao": "GMMX",
      "alert": "OK",
      "vis_m": 9000,
      "fzfg": false,
      "metar_trigger": false,
      "taf_trigger": false,
      "metar": "METAR GMMX 050800Z 07004KT 9000 VCFG FEW010 SCT200 10/10 Q1013 NOSIG",
      "taf": "TAF GMMX 050500Z 0506/0612 06006KT 3000 BR OVC004"
    },
    {
      "icao": "HEGN",
      "alert": "OK",
      "vis_m": 9999,
      "fzfg": false,
      "metar_trigger": false,
      "taf_trigger": false,
      "metar": "METAR HEGN 050800Z 32007KT CAVOK 20/07 Q1016 NOSIG",
      "taf": "TAF HEGN 050500Z 0506/0612 34009KT CAVOK"
    },
    {
      "icao": "HEMA",
      "alert": "OK",
      "vis_m": 9999,
      "fzfg": false,
      "metar_trigger": false,
      "taf_trigger": false,
      "metar": "METAR HEMA 050800Z 32011KT CAVOK 22/05 Q1015 NOSIG",
      "taf": "TAF HEMA 050500Z 0506/0612 33014KT CAVOK"
    },
    {
      "icao": "HESH",
      "alert": "OK",
      "vis_m": 9999,
      "fzfg": false,
      "metar_trigger": false,
      "taf_trigger": false,
      "metar": "METAR HESH 050800Z 36009KT CAVOK 22/07 Q1015 NOSIG",
      "taf": "TAF HESH 050500Z 0506/0612 36009KT CAVOK"
    },
    {
      "icao": "HESX",
      "alert": "OK",
      "vis_m": 9999,
      "fzfg": false,
      "metar_trigger": false,
      "taf_trigger": false,
      "metar": "METAR HESX 050800Z 16006KT CAVOK 16/07 Q1014 NOSIG",
      "taf": "TAF HESX 050500Z 0506/0612 08007KT CAVOK"
    },
    {
      "icao": "LATI",
      "alert": "OK",
      "vis_m": 9999,
      "fzfg": false,
      "metar_trigger": false,
      "taf_trigger": false,
      "metar": "METAR LATI 050820Z 14011KT 9999 BKN059 BKN110 12/05 Q0998 NOSIG",
      "taf": "TAF LATI 050500Z 0506/0606 15010KT 9999 SCT040 BKN080 TX15/0511Z TN08/0523Z"
    },
    {
      "icao": "LBPD",
      "alert": "OK",
      "vis_m": 3300,
      "fzfg": false,
      "metar_trigger": false,
      "taf_trigger": false,
      "metar": "METAR LBPD 050800Z AUTO 29004KT 3300 -RASN SCT009/// OVC014/// 00/00 Q1003 TEMPO 1500 RA BR SCT002 BKN003 OVC008",
      "taf": "TAF LBPD 050500Z 0506/0606 VRB03KT 2000 RA BR SCT003 BKN007 OVC012"
    },
    {
      "icao": "LBSF",
      "alert": "OK",
      "vis_m": 8000,
      "fzfg": false,
      "metar_trigger": false,
      "taf_trigger": false,
      "metar": "METAR LBSF 050800Z 10011KT 8000 -RA SCT018 BKN053 OVC062 03/02 Q1000 TEMPO RA",
      "taf": "TAF LBSF 050500Z 0506/0606 10012KT 9999 SCT012 BKN025 OVC040"
    },
    {
      "icao": "LBWN",
      "alert": "OK",
      "vis_m": 9999,
      "fzfg": false,
      "metar_trigger": false,
      "taf_trigger": false,
      "metar": "METAR LBWN 050800Z 11012KT 9999 -RA FEW009 SCT020 OVC040 08/08 Q1007 NOSIG",
      "taf": "TAF LBWN 050500Z 0506/0606 09010KT 9999 BKN008 OVC040"
    },
    {
      "icao": "LCLK",
      "alert": "OK",
      "vis_m": 9999,
      "fzfg": false,
      "metar_trigger": false,
      "taf_trigger": false,
      "metar": "METAR LCLK 050800Z 06009KT 9999 FEW020 18/12 Q1016 NOSIG",
      "taf": "TAF LCLK 050530Z 0506/0606 32006KT 9999 FEW025"
    },
    {
      "icao": "LCPH",
      "alert": "OK",
      "vis_m": 9999,
      "fzfg": false,
      "metar_trigger": false,
      "taf_trigger": false,
      "metar": "METAR LCPH 050800Z 15009KT 090V160 9999 SCT034 18/10 Q1016 NOSIG",
      "taf": "TAF LCPH 050530Z 0506/0606 04007KT 9999 FEW020"
    },
    {
      "icao": "LEAL",
      "alert": "OK",
      "vis_m": 2000,
      "fzfg": false,
      "metar_trigger": false,
      "taf_trigger": false,
      "metar": "SPECI LEAL 050815Z VRB01KT 2000 BR SCT003 BKN006 13/13 Q0996 NOSIG",
      "taf": ""
    },
    {
      "icao": "LEBB",
      "alert": "OK",
      "vis_m": 9000,
      "fzfg": false,
      "metar_trigger": false,
      "taf_trigger": false,
      "metar": "METAR LEBB 050800Z 12010KT 080V160 9000 -RA FEW038 SCT057 BKN070 12/07 Q0983 NOSIG",
      "taf": "TAF LEBB 050500Z 0506/0606 20009KT 9999 FEW040 TX19/0514Z TN11/0506Z"
    },
    {
      "icao": "LEBL",
      "alert": "OK",
      "vis_m": 9000,
      "fzfg": false,
      "metar_trigger": false,
      "taf_trigger": false,
      "metar": "SPECI LEBL 050806Z 31006KT 250V350 9000 RA FEW010 FEW035TCU SCT050 09/07 Q0994 NOSIG",
      "taf": ""
    },
    {
      "icao": "LECH",
      "alert": "OK",
      "vis_m": 9999,
      "fzfg": false,
      "metar_trigger": false,
      "taf_trigger": false,
      "metar": "METAR LECH 050800Z 19003KT 150V210 9999 -RA FEW045 SCT050 BKN066 09/08 Q0994",
      "taf": ""
    },
    {
      "icao": "LEMD",
      "alert": "OK",
      "vis_m": 3500,
      "fzfg": false,
      "metar_trigger": false,
      "taf_trigger": false,
      "metar": "METAR LEMD 050800Z VRB02KT 3500 RA BR BKN005 OVC011 08/08 Q0989 NOSIG",
      "taf": ""
    },
    {
      "icao": "LEMG",
      "alert": "OK",
      "vis_m": 9999,
      "fzfg": false,
      "metar_trigger": false,
      "taf_trigger": false,
      "metar": "METAR LEMG 050800Z 25021G44KT 210V290 9999 SCT040 18/12 Q1001 TEMPO 4000 RA",
      "taf": ""
    },
    {
      "icao": "LEVC",
      "alert": "OK",
      "vis_m": 9999,
      "fzfg": false,
      "metar_trigger": false,
      "taf_trigger": false,
      "metar": "METAR LEVC 050800Z VRB02KT 9999 FEW037 BKN042 12/08 Q0995 NOSIG",
      "taf": ""
    },
    {
      "icao": "LEXJ",
      "alert": "OK",
      "vis_m": 9999,
      "fzfg": false,
      "metar_trigger": false,
      "taf_trigger": false,
      "metar": "METAR LEXJ 050800Z 22009KT 170V270 9999 -RA FEW025 BKN085 14/07 Q0980",
      "taf": ""
    },
    {
      "icao": "LEZG",
      "alert": "OK",
      "vis_m": 6000,
      "fzfg": false,
      "metar_trigger": false,
      "taf_trigger": false,
      "metar": "METAR LEZG 050800Z 12014KT 080V140 6000 RA BKN055 09/09 Q0991 NOSIG",
      "taf": "TAF LEZG 050500Z 0506/0606 10009KT 9999 FEW020 TX17/0514Z TN03/0606Z"
    },
    {
      "icao": "LEZL",
      "alert": "OK",
      "vis_m": 5000,
      "fzfg": false,
      "metar_trigger": false,
      "taf_trigger": false,
      "metar": "METAR LEZL 050800Z 22028G41KT 5000 -RA OVC010 17/16 Q0999 RERA NOSIG",
      "taf": "TAF LEZL 050200Z 0503/0603 23022KT 9999 BKN020 TX20/0515Z TN13/0507Z"
    },
    {
      "icao": "LFBD",
      "alert": "OK",
      "vis_m": 9999,
      "fzfg": false,
      "metar_trigger": false,
      "taf_trigger": false,
      "metar": "METAR LFBD 050800Z AUTO 15009KT CAVOK 09/06 Q0984 TEMPO 4000 SHRA BKN040TCU",
      "taf": "TAF LFBD 050500Z 0506/0612 14005KT CAVOK TX12/0515Z TN07/0506Z"
    },
    {
      "icao": "LFLL",
      "alert": "OK",
      "vis_m": 9999,
      "fzfg": false,
      "metar_trigger": false,
      "taf_trigger": false,
      "metar": "METAR LFLL 050800Z 16011KT CAVOK 09/06 Q0992 NOSIG",
      "taf": "TAF LFLL 050500Z 0506/0612 17012KT CAVOK"
    },
    {
      "icao": "LFLS",
      "alert": "OK",
      "vis_m": 8000,
      "fzfg": false,
      "metar_trigger": false,
      "taf_trigger": false,
      "metar": "METAR LFLS 050800Z AUTO 07005KT 8000 FEW017 BKN070 BKN080 04/04 Q0993 TEMPO 2000 MIFG",
      "taf": "TAF LFLS 050800Z 0509/0609 09007KT 9999 FEW020 SCT080"
    },
    {
      "icao": "LFMN",
      "alert": "OK",
      "vis_m": 9999,
      "fzfg": false,
      "metar_trigger": false,
      "taf_trigger": false,
      "metar": "METAR LFMN 050800Z 33011KT 9999 FEW016 07/03 Q0995 NOSIG",
      "taf": "TAF LFMN 050200Z 0503/0609 33010KT CAVOK"
    },
    {
      "icao": "LFOB",
      "alert": "OK",
      "vis_m": 9999,
      "fzfg": false,
      "metar_trigger": false,
      "taf_trigger": false,
      "metar": "METAR LFOB 050800Z AUTO 13009KT 9999 OVC005 07/07 Q0984 TEMPO 4000 RA BKN003 BKN012 SCT030TCU",
      "taf": ""
    },
    {
      "icao": "LFPO",
      "alert": "OK",
      "vis_m": 9999,
      "fzfg": false,
      "metar_trigger": false,
      "taf_trigger": false,
      "metar": "METAR LFPO 050800Z 17009KT 9999 -RA OVC008 08/08 Q0985 NOSIG",
      "taf": "TAF LFPO 050500Z 0506/0612 16009KT 9999 BKN013"
    },
    {
      "icao": "LFSB",
      "alert": "OK",
      "vis_m": 8000,
      "fzfg": false,
      "metar_trigger": false,
      "taf_trigger": false,
      "metar": "METAR LFSB 050800Z AUTO 15007KT 8000 BKN048 01/00 Q0992 NOSIG",
      "taf": ""
    },
    {
      "icao": "LGAV",
      "alert": "OK",
      "vis_m": 7000,
      "fzfg": false,
      "metar_trigger": false,
      "taf_trigger": false,
      "metar": "METAR LGAV 050750Z 20021KT 7000 DZ FEW010 BKN030 BKN070 14/11 Q1002 NOSIG",
      "taf": "TAF LGAV 050500Z 0506/0606 19020KT 9999 FEW020 SCT035"
    },
    {
      "icao": "LGTS",
      "alert": "OK",
      "vis_m": 9999,
      "fzfg": false,
      "metar_trigger": false,
      "taf_trigger": false,
      "metar": "METAR LGTS 050750Z 18009KT 9999 FEW020 15/12 Q0999 NOSIG",
      "taf": "TAF LGTS 050500Z 0506/0606 VRB03KT 9999 FEW010 BKN030"
    },
    {
      "icao": "LHBP",
      "alert": "OK",
      "vis_m": 9999,
      "fzfg": false,
      "metar_trigger": false,
      "taf_trigger": false,
      "metar": "METAR LHBP 050800Z 09010KT 9999 FEW006 BKN040 06/04 Q0997 NOSIG",
      "taf": "TAF LHBP 050515Z 0506/0606 08012KT 9999 BKN045"
    },
    {
      "icao": "LHDC",
      "alert": "OK",
      "vis_m": 9999,
      "fzfg": false,
      "metar_trigger": false,
      "taf_trigger": false,
      "metar": "METAR LHDC 050745Z AUTO 06004KT 020V100 CAVOK 06/04 Q0998 NOSIG",
      "taf": "TAF LHDC 050515Z 0506/0515 06008KT CAVOK"
    },
    {
      "icao": "LIBD",
      "alert": "OK",
      "vis_m": 9999,
      "fzfg": false,
      "metar_trigger": false,
      "taf_trigger": false,
      "metar": "METAR LIBD 050750Z 20009KT CAVOK 12/06 Q0995",
      "taf": "TAF LIBD 050500Z 0506/0606 17012KT 8000 SCT030"
    },
    {
      "icao": "LIBG",
      "alert": "OK",
      "vis_m": 9999,
      "fzfg": false,
      "metar_trigger": false,
      "taf_trigger": false,
      "metar": "METAR LIBG 050750Z VRB02KT 9999 SCT045 10/09 Q0996",
      "taf": "TAF LIBG 050800Z 0509/0518 VRB05KT 9999 SCT045"
    },
    {
      "icao": "LIBP",
      "alert": "OK",
      "vis_m": 9999,
      "fzfg": false,
      "metar_trigger": false,
      "taf_trigger": false,
      "metar": "METAR LIBP 050750Z AUTO 20003KT 170V280 9999 BKN006/// 10/10 Q0994",
      "taf": "TAF LIBP 050500Z 0506/0606 VRB05KT 9999 BKN030"
    },
    {
      "icao": "LIBR",
      "alert": "OK",
      "vis_m": 9999,
      "fzfg": false,
      "metar_trigger": false,
      "taf_trigger": false,
      "metar": "METAR LIBR 050750Z 20007KT CAVOK 12/09 Q0996",
      "taf": "TAF LIBR 050500Z 0506/0606 20012KT 8000 SCT025"
    },
    {
      "icao": "LICA",
      "alert": "OK",
      "vis_m": 9999,
      "fzfg": false,
      "metar_trigger": false,
      "taf_trigger": false,
      "metar": "METAR LICA 050750Z AUTO VRB01KT 9999 -RA OVC038/// 11/10 Q0998",
      "taf": "TAF LICA 050500Z 0506/0606 VRB05KT 9999 BKN030"
    },
    {
      "icao": "LICC",
      "alert": "OK",
      "vis_m": 9999,
      "fzfg": false,
      "metar_trigger": false,
      "taf_trigger": false,
      "metar": "METAR LICC 050750Z 25013KT 9999 FEW040 14/12 Q0999",
      "taf": "TAF LICC 050500Z 0506/0606 23012KT 9999 SCT030 BKN050"
    },
    {
      "icao": "LICJ",
      "alert": "OK",
      "vis_m": 9999,
      "fzfg": false,
      "metar_trigger": false,
      "taf_trigger": false,
      "metar": "METAR LICJ 050750Z 24019KT 9999 SCT031 16/10 Q0999",
      "taf": "TAF LICJ 050500Z 0506/0606 21016KT 9999 SCT030"
    },
    {
      "icao": "LIMC",
      "alert": "OK",
      "vis_m": 500,
      "fzfg": false,
      "metar_trigger": false,
      "taf_trigger": false,
      "metar": "METAR LIMC 050750Z 01003KT 0500 R35R/0700D R17L/0450D R35L/1200D FG NSC 01/01 Q0993 NOSIG",
      "taf": "TAF LIMC 050500Z 0506/0612 VRB05KT 3000 BR BKN030"
    },
    {
      "icao": "LIME",
      "alert": "OK",
      "vis_m": 450,
      "fzfg": false,
      "metar_trigger": false,
      "taf_trigger": false,
      "metar": "METAR LIME 050750Z VRB02KT 0450 R28/0600U FG VV002 05/05 Q0993 NOSIG",
      "taf": "TAF LIME 050500Z 0506/0606 VRB05KT 6000 BKN030"
    },
    {
      "icao": "LIMF",
      "alert": "OK",
      "vis_m": 9999,
      "fzfg": false,
      "metar_trigger": false,
      "taf_trigger": false,
      "metar": "METAR LIMF 050750Z 26003KT 230V320 CAVOK 02/M00 Q0993",
      "taf": "TAF LIMF 050500Z 0506/0606 VRB05KT 9999 BKN030"
    },
    {
      "icao": "LIMJ",
      "alert": "OK",
      "vis_m": 9999,
      "fzfg": false,
      "metar_trigger": false,
      "taf_trigger": false,
      "metar": "METAR LIMJ 050750Z 04006KT CAVOK 08/03 Q0994",
      "taf": "TAF LIMJ 050500Z 0506/0606 03014KT 9999 SCT050"
    },
    {
      "icao": "LIPE",
      "alert": "OK",
      "vis_m": 9999,
      "fzfg": false,
      "metar_trigger": false,
      "taf_trigger": false,
      "metar": "METAR LIPE 050750Z 26005KT 9999 SCT020 BKN050 07/05 Q0994",
      "taf": "TAF LIPE 050500Z 0506/0606 27008KT 7000 BKN020"
    },
    {
      "icao": "LIPH",
      "alert": "OK",
      "vis_m": 9999,
      "fzfg": false,
      "metar_trigger": false,
      "taf_trigger": false,
      "metar": "METAR LIPH 050750Z 28005KT 9999 BKN050 BKN080 07/07 Q0992",
      "taf": "TAF LIPH 050500Z 0506/0606 30010KT 8000 BKN020"
    },
    {
      "icao": "LIPQ",
      "alert": "OK",
      "vis_m": 9999,
      "fzfg": false,
      "metar_trigger": false,
      "taf_trigger": false,
      "metar": "METAR LIPQ 050750Z AUTO 11014KT 9999 OVC016/// 08/05 Q0991",
      "taf": "TAF LIPQ 050500Z 0506/0606 04010KT 8000 BKN040"
    },
    {
      "icao": "LIPR",
      "alert": "OK",
      "vis_m": 9999,
      "fzfg": false,
      "metar_trigger": false,
      "taf_trigger": false,
      "metar": "METAR LIPR 050750Z 31009KT 9999 BKN035 08/06 Q0994",
      "taf": "TAF LIPR 050500Z 0506/0606 28013KT 7000 BKN030"
    },
    {
      "icao": "LIPX",
      "alert": "OK",
      "vis_m": 5000,
      "fzfg": false,
      "metar_trigger": false,
      "taf_trigger": false,
      "metar": "METAR LIPX 050750Z 29005KT 5000 BR SCT030 06/06 Q0993",
      "taf": "TAF LIPX 050500Z 0506/0606 27006KT 6000 BKN020"
    },
    {
      "icao": "LIPY",
      "alert": "OK",
      "vis_m": 9999,
      "fzfg": false,
      "metar_trigger": false,
      "taf_trigger": false,
      "metar": "METAR LIPY 050750Z AUTO VRB01KT 9999 OVC021/// 09/08 Q0994",
      "taf": "TAF LIPY 050500Z 0506/0606 VRB05KT 9999 BKN020"
    },
    {
      "icao": "LIPZ",
      "alert": "OK",
      "vis_m": 9999,
      "fzfg": false,
      "metar_trigger": false,
      "taf_trigger": false,
      "metar": "METAR LIPZ 050750Z 29007KT 260V350 9999 SCT030 BKN070 08/07 Q0992 NOSIG",
      "taf": "TAF LIPZ 050500Z 0506/0612 30010KT 7000 BKN050"
    },
    {
      "icao": "LIRF",
      "alert": "OK",
      "vis_m": 9000,
      "fzfg": false,
      "metar_trigger": false,
      "taf_trigger": false,
      "metar": "METAR LIRF 050750Z COR VRB01KT 9000 NSC 09/09 Q0996 NOSIG",
      "taf": ""
    },
    {
      "icao": "LIRN",
      "alert": "OK",
      "vis_m": 9999,
      "fzfg": false,
      "metar_trigger": false,
      "taf_trigger": false,
      "metar": "METAR LIRN 050750Z 19002KT 9999 FEW050 10/09 Q0996 NOSIG",
      "taf": "TAF LIRN 050500Z 0506/0606 24010KT 9999 BKN030"
    },
    {
      "icao": "LIRP",
      "alert": "OK",
      "vis_m": 9999,
      "fzfg": false,
      "metar_trigger": false,
      "taf_trigger": false,
      "metar": "METAR LIRP 050745Z VRB01KT 9999 FEW025 BKN030 07/07 Q0994 NOSIG",
      "taf": "TAF LIRP 050500Z 0506/0606 30012KT 9999 SCT025"
    },
    {
      "icao": "LIRZ",
      "alert": "OK",
      "vis_m": 9999,
      "fzfg": false,
      "metar_trigger": false,
      "taf_trigger": false,
      "metar": "METAR LIRZ 050750Z AUTO 21005KT 9999 BKN019/// 09/07 Q0995",
      "taf": "TAF LIRZ 050500Z 0506/0606 22006KT 6000 SCT040"
    },
    {
      "icao": "LJLJ",
      "alert": "OK",
      "vis_m": 5000,
      "fzfg": false,
      "metar_trigger": false,
      "taf_trigger": false,
      "metar": "METAR LJLJ 050800Z VRB01KT 5000 -RA BR FEW002 BKN012 OVC025 04/03 Q0994 NOSIG",
      "taf": "TAF LJLJ 050500Z 0506/0606 30004KT 8000 -RA BKN010 OVC040"
    },
    {
      "icao": "LKMT",
      "alert": "OK",
      "vis_m": 2000,
      "fzfg": false,
      "metar_trigger": false,
      "taf_trigger": false,
      "metar": "METAR LKMT 050800Z 03006KT 2000 BR BKN006 M01/M02 Q0999 NOSIG",
      "taf": "TAF LKMT 050500Z 0506/0606 02004KT 4500 BR NSC"
    },
    {
      "icao": "LKPR",
      "alert": "OK",
      "vis_m": 2700,
      "fzfg": false,
      "metar_trigger": false,
      "taf_trigger": false,
      "metar": "METAR LKPR 050800Z 10005KT 2700 BR FEW003 OVC013 02/02 Q0994 NOSIG",
      "taf": "TAF LKPR 050800Z 0509/0615 10008KT 2500 BR OVC012"
    },
    {
      "icao": "LLBG",
      "alert": "OK",
      "vis_m": 9999,
      "fzfg": false,
      "metar_trigger": false,
      "taf_trigger": false,
      "metar": "METAR LLBG 050820Z VRB01KT CAVOK 19/08 Q1016 NOSIG",
      "taf": "TAF LLBG 050503Z 0506/0606 VRB03KT CAVOK"
    },
    {
      "icao": "LMML",
      "alert": "OK",
      "vis_m": 9999,
      "fzfg": false,
      "metar_trigger": false,
      "taf_trigger": false,
      "metar": "METAR LMML 050815Z 25012KT CAVOK 16/12 Q1002 NOSIG",
      "taf": "TAF LMML 050500Z 0506/0606 25012KT 8000 FEW015"
    },
    {
      "icao": "LOWW",
      "alert": "OK",
      "vis_m": 9999,
      "fzfg": false,
      "metar_trigger": false,
      "taf_trigger": false,
      "metar": "METAR LOWW 050750Z VRB02KT 9999 FEW015 BKN022 04/03 Q0996 NOSIG",
      "taf": "TAF LOWW 050815Z 0509/0615 12005KT 9000 FEW010 BKN020 TX04/0511Z TN02/0605Z"
    },
    {
      "icao": "LPFR",
      "alert": "OK",
      "vis_m": 5000,
      "fzfg": false,
      "metar_trigger": false,
      "taf_trigger": false,
      "metar": "METAR LPFR 050800Z 23022G36KT 5000 -RADZ BR FEW006 SCT009 BKN018 16/15 Q0999",
      "taf": "TAF LPFR 050500Z 0506/0606 23017KT 8000 SCT012 BKN025"
    },
    {
      "icao": "LPMA",
      "alert": "OK",
      "vis_m": 9999,
      "fzfg": false,
      "metar_trigger": false,
      "taf_trigger": false,
      "metar": "METAR LPMA 050800Z VRB04KT 9999 FEW015 18/14 Q1007",
      "taf": "TAF LPMA 050500Z 0506/0606 24012KT 9999 SCT015"
    },
    {
      "icao": "LPPR",
      "alert": "OK",
      "vis_m": 9999,
      "fzfg": false,
      "metar_trigger": false,
      "taf_trigger": false,
      "metar": "METAR LPPR 050800Z 23013KT 200V260 9999 SCT014 BKN020 14/12 Q0986",
      "taf": "TAF LPPR 050500Z 0506/0606 22017KT 4000 RADZ BR BKN008"
    },
    {
      "icao": "LPPS",
      "alert": "OK",
      "vis_m": 9999,
      "fzfg": false,
      "metar_trigger": false,
      "taf_trigger": false,
      "metar": "METAR LPPS 050800Z 26018KT 9999 FEW014 17/14 Q1008",
      "taf": "TAF LPPS 050500Z 0506/0612 26017KT 9999 SCT015"
    },
    {
      "icao": "LPPT",
      "alert": "OK",
      "vis_m": 9999,
      "fzfg": false,
      "metar_trigger": false,
      "taf_trigger": false,
      "metar": "METAR LPPT 050800Z 24018G30KT 9999 VCSH SCT012 FEW025 SCT036 13/11 Q0993 RERA WS R20",
      "taf": "TAF LPPT 050500Z 0506/0612 25017KT 3000 RADZ BR BKN004"
    },
    {
      "icao": "LQBK",
      "alert": "OK",
      "vis_m": 7000,
      "fzfg": false,
      "metar_trigger": false,
      "taf_trigger": false,
      "metar": "METAR LQBK 050800Z 00000KT 7000 FEW010 SCT047 05/05 Q0994 NOSIG",
      "taf": "TAF LQBK 050500Z 0506/0606 08005KT 9999 SCT045 TX10/0513Z TN03/0605Z"
    },
    {
      "icao": "LQSA",
      "alert": "OK",
      "vis_m": 9999,
      "fzfg": false,
      "metar_trigger": false,
      "taf_trigger": false,
      "metar": "METAR LQSA 050800Z 01003KT 320V050 9999 SCT050 08/07 Q0993 NOSIG",
      "taf": "TAF LQSA 050500Z 0506/0606 12006KT 9999 FEW030 BKN055 TX10/0513Z TN01/0605Z"
    },
    {
      "icao": "LQTZ",
      "alert": "OK",
      "vis_m": 9999,
      "fzfg": false,
      "metar_trigger": false,
      "taf_trigger": false,
      "metar": "METAR LQTZ 050800Z 12003KT CAVOK 09/05 Q0994",
      "taf": "TAF LQTZ 050500Z 0506/0606 10005KT 9999 SCT050 TX15/0514Z TN03/0605Z"
    },
    {
      "icao": "LRBC",
      "alert": "OK",
      "vis_m": 1500,
      "fzfg": false,
      "metar_trigger": false,
      "taf_trigger": false,
      "metar": "METAR LRBC 050800Z COR 17011KT 1500 BR OVC001 04/04 Q1008",
      "taf": "TAF LRBC 050500Z 0506/0515 16012KT 5000 -RADZ BR OVC002"
    },
    {
      "icao": "LRBS",
      "alert": "OK",
      "vis_m": 9999,
      "fzfg": false,
      "metar_trigger": false,
      "taf_trigger": false,
      "metar": "METAR LRBS 050800Z 06009KT 020V080 9999 FEW006 05/04 Q1005 TEMPO 5000 -RA BR BKN010 OVC040",
      "taf": "TAF LRBS 050500Z 0506/0606 05012KT 5000 -RA BR BKN010 BKN040"
    },
    {
      "icao": "LRBV",
      "alert": "OK",
      "vis_m": 9999,
      "fzfg": false,
      "metar_trigger": false,
      "taf_trigger": false,
      "metar": "METAR LRBV 050800Z 10005KT 060V130 9999 FEW044 BKN075 04/02 Q1002",
      "taf": "TAF LRBV 050500Z 0506/0515 VRB04KT 9999 BKN040"
    },
    {
      "icao": "LRCL",
      "alert": "OK",
      "vis_m": 9999,
      "fzfg": false,
      "metar_trigger": false,
      "taf_trigger": false,
      "metar": "METAR LRCL 050800Z 06003KT CAVOK 05/02 Q1001",
      "taf": "TAF LRCL 050500Z 0506/0515 09008KT 9999 BKN045"
    },
    {
      "icao": "LRCV",
      "alert": "OK",
      "vis_m": 750,
      "fzfg": false,
      "metar_trigger": false,
      "taf_trigger": false,
      "metar": "METAR LRCV 050800Z 10013KT 0750 R26/1500U FG OVC001 03/03 Q1002",
      "taf": "TAF LRCV 050500Z 0506/0515 10010KT 0350 FG OVC001"
    },
    {
      "icao": "LRIA",
      "alert": "OK",
      "vis_m": 8000,
      "fzfg": false,
      "metar_trigger": false,
      "taf_trigger": false,
      "metar": "METAR LRIA 050800Z COR 12019KT 8000 -DZ BKN002 OVC005 03/02 Q1009",
      "taf": "TAF LRIA 050500Z 0506/0515 12016KT 9999 OVC010"
    },
    {
      "icao": "LROP",
      "alert": "OK",
      "vis_m": 9999,
      "fzfg": false,
      "metar_trigger": false,
      "taf_trigger": false,
      "metar": "METAR LROP 050800Z 06007KT 020V080 9999 FEW044 05/05 Q1005 TEMPO 5000 -RA BR BKN010 BKN040",
      "taf": "TAF LROP 050500Z 0506/0606 05012KT 5000 -RA BR BKN010 BKN040"
    },
    {
      "icao": "LRSB",
      "alert": "OK",
      "vis_m": 9999,
      "fzfg": false,
      "metar_trigger": false,
      "taf_trigger": false,
      "metar": "METAR LRSB 050800Z AUTO 15012KT 9999 FEW110/// 12/04 Q1000",
      "taf": "TAF LRSB 050500Z 0506/0606 13012KT CAVOK"
    },
    {
      "icao": "LRSM",
      "alert": "OK",
      "vis_m": 9999,
      "fzfg": false,
      "metar_trigger": false,
      "taf_trigger": false,
      "metar": "METAR LRSM 050800Z 13006KT CAVOK 09/03 Q0999",
      "taf": "TAF LRSM 050500Z 0506/0515 12008KT 9999 BKN045"
    },
    {
      "icao": "LRSV",
      "alert": "OK",
      "vis_m": 200,
      "fzfg": false,
      "metar_trigger": false,
      "taf_trigger": false,
      "metar": "METAR LRSV 050800Z 13014KT 0200 R34/0400N -DZ FG VV001 02/02 Q1005",
      "taf": ""
    },
    {
      "icao": "LRTM",
      "alert": "OK",
      "vis_m": 9999,
      "fzfg": false,
      "metar_trigger": false,
      "taf_trigger": false,
      "metar": "METAR LRTM 050800Z 10003KT 9999 FEW040 05/03 Q1001",
      "taf": "TAF LRTM 050500Z 0506/0515 09008KT 9999 BKN045"
    },
    {
      "icao": "LRTR",
      "alert": "OK",
      "vis_m": 9999,
      "fzfg": false,
      "metar_trigger": false,
      "taf_trigger": false,
      "metar": "METAR LRTR 050800Z 11015KT CAVOK 10/05 Q0997 NOSIG",
      "taf": "TAF LRTR 050500Z 0506/0606 10010KT CAVOK"
    },
    {
      "icao": "LTAC",
      "alert": "OK",
      "vis_m": 9999,
      "fzfg": false,
      "metar_trigger": false,
      "taf_trigger": false,
      "metar": "METAR LTAC 050750Z VRB02KT 9999 FEW040 BKN180 04/M01 Q1014 NOSIG",
      "taf": "TAF LTAC 050440Z 0506/0606 VRB02KT 9999 FEW040 BKN100"
    },
    {
      "icao": "LTFM",
      "alert": "OK",
      "vis_m": 9999,
      "fzfg": false,
      "metar_trigger": false,
      "taf_trigger": false,
      "metar": "METAR LTFM 050750Z 18007KT CAVOK 11/04 Q1007 NOSIG",
      "taf": "TAF LTFM 050440Z 0506/0612 16010KT CAVOK"
    },
    {
      "icao": "LUKK",
      "alert": "OK",
      "vis_m": 4800,
      "fzfg": false,
      "metar_trigger": false,
      "taf_trigger": false,
      "metar": "METAR LUKK 050800Z 11013KT 4800 BR OVC003 M01/M02 Q1012 NOSIG",
      "taf": "TAF LUKK 050526Z 0506/0606 11014KT 3000 -FZDZ BR OVC003"
    },
    {
      "icao": "LWOH",
      "alert": "OK",
      "vis_m": 9999,
      "fzfg": false,
      "metar_trigger": false,
      "taf_trigger": false,
      "metar": "METAR LWOH 050820Z VRB02KT 9999 FEW015 BKN035 07/05 Q0999",
      "taf": "TAF LWOH 050540Z 0506/0606 VRB03KT 9999 SCT020 BKN040"
    },
    {
      "icao": "LWSK",
      "alert": "OK",
      "vis_m": 9999,
      "fzfg": false,
      "metar_trigger": false,
      "taf_trigger": false,
      "metar": "METAR LWSK 050820Z VRB01KT 9999 FEW036 09/07 Q0999 NOSIG",
      "taf": ""
    },
    {
      "icao": "LYBE",
      "alert": "OK",
      "vis_m": 9999,
      "fzfg": false,
      "metar_trigger": false,
      "taf_trigger": false,
      "metar": "METAR LYBE 050800Z 13019KT CAVOK 08/01 Q0996 NOSIG",
      "taf": "TAF LYBE 050500Z 0506/0606 14014KT CAVOK TX13/0513Z TN04/0606Z"
    },
    {
      "icao": "LYNI",
      "alert": "OK",
      "vis_m": 9999,
      "fzfg": false,
      "metar_trigger": false,
      "taf_trigger": false,
      "metar": "METAR LYNI 050800Z 09018KT 9999 FEW037 BKN047 08/03 Q0998 NOSIG",
      "taf": "TAF LYNI 050500Z 0506/0606 07010KT 9999 BKN050 TX12/0513Z TN01/0606Z"
    },
    {
      "icao": "LYPG",
      "alert": "OK",
      "vis_m": 9999,
      "fzfg": false,
      "metar_trigger": false,
      "taf_trigger": false,
      "metar": "METAR LYPG 050800Z 11010KT 080V140 9999 -RA FEW010 SCT034 OVC080 11/08 Q0997 NOSIG",
      "taf": "TAF LYPG 050500Z 0506/0606 16005KT 9999 FEW010 BKN040 OVC070 TX11/0512Z TN08/0605Z"
    },
    {
      "icao": "LZIB",
      "alert": "OK",
      "vis_m": 9999,
      "fzfg": false,
      "metar_trigger": false,
      "taf_trigger": false,
      "metar": "METAR LZIB 050800Z 05007KT 9999 -RA FEW010 SCT014 BKN023 05/04 Q0996 WS R31 BECMG BKN013",
      "taf": "TAF LZIB 050515Z 0506/0606 04010KT 9999 FEW010 BKN018"
    },
    {
      "icao": "LZKZ",
      "alert": "OK",
      "vis_m": 9999,
      "fzfg": false,
      "metar_trigger": false,
      "taf_trigger": false,
      "metar": "METAR LZKZ 050800Z 03005KT 9999 -RA NSC 03/02 Q1000 NOSIG",
      "taf": "TAF LZKZ 050515Z 0506/0606 01009KT 9999 FEW017 BKN025"
    },
    {
      "icao": "LZTT",
      "alert": "OK",
      "vis_m": 9999,
      "fzfg": false,
      "metar_trigger": false,
      "taf_trigger": false,
      "metar": "METAR LZTT 050800Z 00000KT 9999 FEW004 BKN045 01/01 Q0998 NOSIG",
      "taf": "TAF LZTT 050515Z 0506/0606 VRB02KT 9999 FEW005 BKN020 OVC033"
    },
    {
      "icao": "OEJN",
      "alert": "OK",
      "vis_m": 9999,
      "fzfg": false,
      "metar_trigger": false,
      "taf_trigger": false,
      "metar": "METAR OEJN 050800Z 03004KT CAVOK 29/06 Q1013 NOSIG",
      "taf": "TAF OEJN 050500Z 0506/0612 36008KT CAVOK"
    },
    {
      "icao": "OEMA",
      "alert": "OK",
      "vis_m": 9999,
      "fzfg": false,
      "metar_trigger": false,
      "taf_trigger": false,
      "metar": "METAR OEMA 050800Z 09011KT CAVOK 21/M01 Q1020 NOSIG",
      "taf": "TAF OEMA 050500Z 0506/0612 12010KT 7000 FEW045"
    },
    {
      "icao": "OJAI",
      "alert": "OK",
      "vis_m": 5000,
      "fzfg": false,
      "metar_trigger": false,
      "taf_trigger": false,
      "metar": "METAR OJAI 050800Z 12010KT 5000 HZ NSC 14/03 Q1019 NOSIG",
      "taf": "TAF OJAI 050500Z 0506/0612 14010KT 4000 BR NSC"
    },
    {
      "icao": "OMAA",
      "alert": "OK",
      "vis_m": 8000,
      "fzfg": false,
      "metar_trigger": false,
      "taf_trigger": false,
      "metar": "METAR OMAA 050800Z 31005KT 230V030 8000 FEW025 24/16 Q1019 NOSIG",
      "taf": "TAF OMAA 050500Z 0506/0612 29010KT 8000 FEW020"
    },
    {
      "icao": "OMDB",
      "alert": "OK",
      "vis_m": 7000,
      "fzfg": false,
      "metar_trigger": false,
      "taf_trigger": false,
      "metar": "METAR OMDB 050800Z 23005KT 180V300 7000 SCT025 25/17 Q1019 NOSIG",
      "taf": "TAF OMDB 050500Z 0506/0612 21007KT 8000 NSC"
    },
    {
      "icao": "UAAA",
      "alert": "OK",
      "vis_m": 5000,
      "fzfg": false,
      "metar_trigger": false,
      "taf_trigger": false,
      "metar": "METAR UAAA 050800Z VRB01MPS 5000 FU SCT200 05/M01 Q1013 NOSIG",
      "taf": "TAF UAAA 050503Z 0506/0606 04003G08MPS 3100 BR FU SCT050 BKN100 TX06/0508Z TNM02/0524Z"
    },
    {
      "icao": "UBBB",
      "alert": "OK",
      "vis_m": 9999,
      "fzfg": false,
      "metar_trigger": false,
      "taf_trigger": false,
      "metar": "METAR UBBB 050800Z 32010KT 9999 BKN016 01/M02 Q1028 NOSIG",
      "taf": "TAF UBBB 050500Z 0506/0606 34014KT 9999 SCT012 BKN025 TX03/0510Z TN02/0602Z"
    },
    {
      "icao": "UDSG",
      "alert": "OK",
      "vis_m": 9999,
      "fzfg": false,
      "metar_trigger": false,
      "taf_trigger": false,
      "metar": "METAR UDSG 050800Z 16001KT 9999 NSC M07/M13 Q1023 NOSIG",
      "taf": "TAF UDSG 050458Z 0506/0606 VRB06KT 9999 SCT040"
    },
    {
      "icao": "UDYZ",
      "alert": "OK",
      "vis_m": 9999,
      "fzfg": false,
      "metar_trigger": false,
      "taf_trigger": false,
      "metar": "METAR UDYZ 050800Z 13004KT 9999 NSC 01/M06 Q1024 NOSIG",
      "taf": "TAF UDYZ 050500Z 0506/0606 VRB04KT 9999 FEW040"
    },
    {
      "icao": "UGKO",
      "alert": "OK",
      "vis_m": 9999,
      "fzfg": false,
      "metar_trigger": false,
      "taf_trigger": false,
      "metar": "METAR UGKO 050800Z 08024KT CAVOK 08/M02 Q1017 NOSIG",
      "taf": "TAF UGKO 050500Z 0506/0606 08020G37KT CAVOK TX13/0511Z TN02/0506Z"
    }
  ]
}