{
  "ts_utc": "2026-01-05T21:16:23Z",
  "threshold_m": 150,
  "source": "stations_override.txt (ICAO list) + aviationweather.gov (METAR/TAF raw)",
  "station_count": 159,
  "stations": [
    {
      "icao": "BIKF",
      "alert": "OK",
      "vis_m": 9999,
      "fzfg": false,
      "metar_trigger": false,
      "taf_trigger": false,
      "metar": "METAR BIKF 052100Z 04006KT CAVOK M02/M04 Q1015",
      "taf": "TAF BIKF 051931Z 0521/0621 03013KT CAVOK TXM02/0521Z TNM06/0610Z"
    },
    {
      "icao": "BKPR",
      "alert": "OK",
      "vis_m": 9999,
      "fzfg": false,
      "metar_trigger": false,
      "taf_trigger": false,
      "metar": "METAR BKPR 052100Z 20006KT 9999 FEW055 08/06 Q1008 NOSIG",
      "taf": "TAF BKPR 051730Z 0518/0618 18008KT 9999 SCT020 BKN040"
    },
    {
      "icao": "EBCI",
      "alert": "OK",
      "vis_m": 9999,
      "fzfg": false,
      "metar_trigger": false,
      "taf_trigger": false,
      "metar": "METAR EBCI 052050Z 20009KT 9999 FEW007 SCT018 M02/M04 Q1012 NOSIG",
      "taf": "TAF EBCI 051715Z 0518/0624 23007KT 9999 SCT007 BKN011"
    },
    {
      "icao": "EDDB",
      "alert": "OK",
      "vis_m": 9999,
      "fzfg": false,
      "metar_trigger": false,
      "taf_trigger": false,
      "metar": "METAR EDDB 052050Z AUTO 18004KT CAVOK M06/M07 Q1013 NOSIG",
      "taf": "TAF EDDB 051700Z 0518/0618 17004KT 9999 SCT045"
    },
    {
      "icao": "EDDH",
      "alert": "OK",
      "vis_m": 9999,
      "fzfg": false,
      "metar_trigger": false,
      "taf_trigger": false,
      "metar": "METAR EDDH 052050Z AUTO 22008KT 9999 OVC013 M01/M02 Q1010 TEMPO BKN008",
      "taf": "TAF EDDH 051700Z 0518/0624 21004KT 9999 BKN015"
    },
    {
      "icao": "EDDK",
      "alert": "OK",
      "vis_m": 9999,
      "fzfg": false,
      "metar_trigger": false,
      "taf_trigger": false,
      "metar": "METAR EDDK 052050Z AUTO 20003KT 170V230 9999 FEW017 BKN024 M02/M04 Q1013 NOSIG",
      "taf": "TAF EDDK 051700Z 0518/0624 16007KT 9999 FEW008 BKN020"
    },
    {
      "icao": "EDDN",
      "alert": "OK",
      "vis_m": 9999,
      "fzfg": false,
      "metar_trigger": false,
      "taf_trigger": false,
      "metar": "METAR EDDN 052050Z AUTO 11008KT CAVOK M09/M11 Q1013 NOSIG",
      "taf": "TAF EDDN 051700Z 0518/0618 VRB02KT 9999 SCT030"
    },
    {
      "icao": "EDDS",
      "alert": "OK",
      "vis_m": 9999,
      "fzfg": false,
      "metar_trigger": false,
      "taf_trigger": false,
      "metar": "METAR EDDS 052050Z AUTO VRB01KT CAVOK M07/M10 Q1012",
      "taf": "TAF EDDS 051700Z 0518/0618 VRB03KT CAVOK"
    },
    {
      "icao": "EDFH",
      "alert": "OK",
      "vis_m": 5000,
      "fzfg": false,
      "metar_trigger": false,
      "taf_trigger": false,
      "metar": "METAR EDFH 052050Z 25009KT 5000 -SN SCT002 BKN004 OVC020 M05/M06 Q1011",
      "taf": "TAF EDFH 051700Z 0518/0618 20006KT 9999 OVC010"
    },
    {
      "icao": "EDJA",
      "alert": "OK",
      "vis_m": 9999,
      "fzfg": false,
      "metar_trigger": false,
      "taf_trigger": false,
      "metar": "METAR EDJA 052050Z COR 17004KT CAVOK M13/M15 Q1012",
      "taf": "TAF EDJA 051700Z 0518/0603 22004KT CAVOK"
    },
    {
      "icao": "EDLW",
      "alert": "OK",
      "vis_m": 9999,
      "fzfg": false,
      "metar_trigger": false,
      "taf_trigger": false,
      "metar": "METAR EDLW 052050Z 23011KT 9999 BKN014 BKN018 BKN021 M01/M04 Q1011",
      "taf": "TAF EDLW 051700Z 0518/0618 22008KT 9999 BKN020"
    },
    {
      "icao": "EDNY",
      "alert": "OK",
      "vis_m": 9999,
      "fzfg": false,
      "metar_trigger": false,
      "taf_trigger": false,
      "metar": "METAR EDNY 052050Z 05003KT 020V100 9999 SCT024 M12/M14 Q1014",
      "taf": "TAF EDNY 051700Z 0518/0603 VRB03KT CAVOK"
    },
    {
      "icao": "EDSB",
      "alert": "OK",
      "vis_m": 9999,
      "fzfg": false,
      "metar_trigger": false,
      "taf_trigger": false,
      "metar": "METAR EDSB 052050Z 17004KT CAVOK M08/M09 Q1015",
      "taf": "TAF EDSB 051700Z 0518/0618 VRB03KT CAVOK"
    },
    {
      "icao": "EETN",
      "alert": "OK",
      "vis_m": 9999,
      "fzfg": false,
      "metar_trigger": false,
      "taf_trigger": false,
      "metar": "METAR EETN 052050Z VRB02KT CAVOK M16/M17 Q1020 NOSIG",
      "taf": "TAF EETN 051730Z 0518/0618 VRB02KT CAVOK"
    },
    {
      "icao": "EFTU",
      "alert": "OK",
      "vis_m": 9999,
      "fzfg": false,
      "metar_trigger": false,
      "taf_trigger": false,
      "metar": "METAR EFTU 052050Z AUTO 10002KT CAVOK M20/M23 Q1018",
      "taf": "TAF EFTU 052027Z 0521/0621 VRB02KT CAVOK"
    },
    {
      "icao": "EGBB",
      "alert": "OK",
      "vis_m": 9999,
      "fzfg": false,
      "metar_trigger": false,
      "taf_trigger": false,
      "metar": "METAR EGBB 052050Z 00000KT CAVOK M04/M06 Q1018",
      "taf": "TAF EGBB 051656Z 0518/0618 30005KT 9999 FEW025"
    },
    {
      "icao": "EGGP",
      "alert": "OK",
      "vis_m": 9999,
      "fzfg": false,
      "metar_trigger": false,
      "taf_trigger": false,
      "metar": "METAR EGGP 052050Z 16003KT CAVOK M02/M05 Q1018",
      "taf": "TAF EGGP 051654Z 0518/0618 31005KT 9999 FEW030"
    },
    {
      "icao": "EGGW",
      "alert": "OK",
      "vis_m": 9999,
      "fzfg": false,
      "metar_trigger": false,
      "taf_trigger": false,
      "metar": "METAR EGGW 052050Z AUTO 31009KT 9999 NCD M03/M05 Q1016",
      "taf": "TAF EGGW 051658Z 0518/0618 31009KT 9999 FEW030"
    },
    {
      "icao": "EGKK",
      "alert": "OK",
      "vis_m": 9999,
      "fzfg": false,
      "metar_trigger": false,
      "taf_trigger": false,
      "metar": "METAR EGKK 052050Z 31007KT CAVOK M02/M05 Q1017",
      "taf": "TAF EGKK 051653Z 0518/0624 30006KT 9999 FEW035"
    },
    {
      "icao": "EGNM",
      "alert": "OK",
      "vis_m": 9999,
      "fzfg": false,
      "metar_trigger": false,
      "taf_trigger": false,
      "metar": "METAR EGNM 052050Z 26007KT CAVOK M04/M06 Q1016",
      "taf": "TAF EGNM 051659Z 0518/0618 27009KT 9999 FEW020"
    },
    {
      "icao": "EGPD",
      "alert": "OK",
      "vis_m": 9999,
      "fzfg": false,
      "metar_trigger": false,
      "taf_trigger": false,
      "metar": "METAR EGPD 052050Z COR AUTO 27009KT 9999 NCD M03/M04 Q1014 NOSIG",
      "taf": "TAF EGPD 051653Z 0518/0618 29010KT 9999 FEW012"
    },
    {
      "icao": "EGPF",
      "alert": "OK",
      "vis_m": 9999,
      "fzfg": false,
      "metar_trigger": false,
      "taf_trigger": false,
      "metar": "METAR EGPF 052050Z AUTO 26005KT 9999 NCD M03/M05 Q1017",
      "taf": "TAF EGPF 051655Z 0518/0618 28005KT CAVOK"
    },
    {
      "icao": "EHBK",
      "alert": "OK",
      "vis_m": 9999,
      "fzfg": false,
      "metar_trigger": false,
      "taf_trigger": false,
      "metar": "METAR EHBK 052055Z AUTO 20012KT 9999 OVC017 M02/M04 Q1012 NOSIG",
      "taf": "TAF EHBK 051721Z 0518/0624 22007KT 9999 BKN008"
    },
    {
      "icao": "EHEH",
      "alert": "OK",
      "vis_m": 8000,
      "fzfg": false,
      "metar_trigger": false,
      "taf_trigger": false,
      "metar": "METAR EHEH 052055Z AUTO 21010KT 8000 BR BKN008 OVC009 M01/M03 Q1011 GRN TEMPO 2000 SHSNGS SCT004 SCT015CB RMK TREND REMOTE BY EHWX",
      "taf": ""
    },
    {
      "icao": "EKBI",
      "alert": "OK",
      "vis_m": 9999,
      "fzfg": false,
      "metar_trigger": false,
      "taf_trigger": false,
      "metar": "METAR EKBI 052050Z AUTO 01002KT 9999 OVC031/// M02/M03 Q1010",
      "taf": "TAF EKBI 052027Z 0521/0621 05005KT 9999 FEW006 BKN018"
    },
    {
      "icao": "EKCH",
      "alert": "OK",
      "vis_m": 4000,
      "fzfg": false,
      "metar_trigger": false,
      "taf_trigger": false,
      "metar": "METAR EKCH 052050Z 23003KT 4000 -SN BKN006 M01/M01 Q1010 TEMPO 1200 SHSN BKN012 SCT020CB",
      "taf": "TAF EKCH 052027Z 0521/0621 23004KT 8000 SCT030"
    },
    {
      "icao": "ENAL",
      "alert": "OK",
      "vis_m": 9999,
      "fzfg": false,
      "metar_trigger": false,
      "taf_trigger": false,
      "metar": "METAR ENAL 052050Z 14013KT 9999 SCT038 BKN058 M05/M12 Q1011",
      "taf": "TAF ENAL 052000Z 0521/0606 14012KT 9999 SCT040"
    },
    {
      "icao": "ENBR",
      "alert": "OK",
      "vis_m": 9999,
      "fzfg": false,
      "metar_trigger": false,
      "taf_trigger": false,
      "metar": "METAR ENBR 052050Z 05003KT 9999 FEW030 SCT040 M08/M13 Q1010 RMK WIND 1200FT 07004KT",
      "taf": "TAF ENBR 051700Z 0518/0618 07005KT 9999 SCT050"
    },
    {
      "icao": "ENGM",
      "alert": "OK",
      "vis_m": 9999,
      "fzfg": false,
      "metar_trigger": false,
      "taf_trigger": false,
      "metar": "METAR ENGM 052050Z 01005KT 9999 -SN FEW031 SCT045 M09/M11 Q1013 TEMPO 4000",
      "taf": "TAF ENGM 051700Z 0518/0618 02005KT 8000 -SN SCT020 BKN040"
    },
    {
      "icao": "ENHD",
      "alert": "OK",
      "vis_m": 7000,
      "fzfg": false,
      "metar_trigger": false,
      "taf_trigger": false,
      "metar": "METAR ENHD 052050Z 09010KT 7000 -SN FEW002 SCT011 BKN016 M04/M05 Q1010",
      "taf": "TAF ENHD 051400Z 0515/0523 11015KT 9999 -SHSN FEW015CB BKN025"
    },
    {
      "icao": "ENTC",
      "alert": "OK",
      "vis_m": 9999,
      "fzfg": false,
      "metar_trigger": false,
      "taf_trigger": false,
      "metar": "METAR ENTC 052050Z 21009KT 180V250 CAVOK M08/M12 Q1013 NOSIG RMK WIND 2600FT 13013KT",
      "taf": "TAF ENTC 051700Z 0518/0618 23005KT CAVOK"
    },
    {
      "icao": "ENTO",
      "alert": "OK",
      "vis_m": 9999,
      "fzfg": false,
      "metar_trigger": false,
      "taf_trigger": false,
      "metar": "METAR ENTO 052050Z 36011KT 9999 -SN BKN014 OVC034 M08/M09 Q1013 TEMPO SCT014 BKN030",
      "taf": ""
    },
    {
      "icao": "ENVA",
      "alert": "OK",
      "vis_m": 9999,
      "fzfg": false,
      "metar_trigger": false,
      "taf_trigger": false,
      "metar": "METAR ENVA 052050Z 10009KT CAVOK M16/M19 Q1015 RMK WIND 670FT 11008KT",
      "taf": "TAF ENVA 051700Z 0518/0618 10007KT CAVOK"
    },
    {
      "icao": "ENZV",
      "alert": "OK",
      "vis_m": 9999,
      "fzfg": false,
      "metar_trigger": false,
      "taf_trigger": false,
      "metar": "METAR ENZV 052050Z 10009KT 070V130 9999 VCSH BKN039 OVC046 M03/M06 Q1009 RESHSN",
      "taf": ""
    },
    {
      "icao": "EPGD",
      "alert": "OK",
      "vis_m": 9999,
      "fzfg": false,
      "metar_trigger": false,
      "taf_trigger": false,
      "metar": "METAR EPGD 052100Z 19003KT 160V230 9999 FEW045 M03/M04 Q1013",
      "taf": "TAF EPGD 051730Z 0518/0618 19006KT 9999 BKN030"
    },
    {
      "icao": "EPKK",
      "alert": "OK",
      "vis_m": 9999,
      "fzfg": false,
      "metar_trigger": false,
      "taf_trigger": false,
      "metar": "METAR EPKK 052100Z 04003KT 9999 BKN063 M03/M07 Q1011",
      "taf": "TAF EPKK 052030Z 0521/0621 06006KT CAVOK"
    },
    {
      "icao": "EPKT",
      "alert": "OK",
      "vis_m": 9999,
      "fzfg": false,
      "metar_trigger": false,
      "taf_trigger": false,
      "metar": "METAR EPKT 052100Z 33001KT CAVOK M05/M07 Q1012",
      "taf": "TAF EPKT 051730Z 0518/0618 VRB02KT CAVOK"
    },
    {
      "icao": "EPLB",
      "alert": "OK",
      "vis_m": 9999,
      "fzfg": false,
      "metar_trigger": false,
      "taf_trigger": false,
      "metar": "METAR EPLB 052100Z 07007KT CAVOK M05/M07 Q1013",
      "taf": "TAF EPLB 051730Z 0518/0618 09005KT CAVOK"
    },
    {
      "icao": "EPMO",
      "alert": "OK",
      "vis_m": 2000,
      "fzfg": false,
      "metar_trigger": false,
      "taf_trigger": false,
      "metar": "METAR EPMO 052100Z 06004KT 2000 0500E BCFG BR NSC M10/M10 Q1015",
      "taf": ""
    },
    {
      "icao": "EPPO",
      "alert": "OK",
      "vis_m": 6000,
      "fzfg": false,
      "metar_trigger": false,
      "taf_trigger": false,
      "metar": "METAR EPPO 052100Z 18002KT 6000 NSC M08/M09 Q1014",
      "taf": "TAF EPPO 051730Z 0518/0618 16004KT CAVOK"
    },
    {
      "icao": "EPRA",
      "alert": "OK",
      "vis_m": 9999,
      "fzfg": false,
      "metar_trigger": false,
      "taf_trigger": false,
      "metar": "METAR EPRA 052100Z 05005KT CAVOK M06/M08 Q1013",
      "taf": "TAF EPRA 052030Z 0521/0606 05006KT CAVOK"
    },
    {
      "icao": "EPRZ",
      "alert": "OK",
      "vis_m": 9999,
      "fzfg": false,
      "metar_trigger": false,
      "taf_trigger": false,
      "metar": "METAR EPRZ 052100Z 06005KT CAVOK M03/M07 Q1011",
      "taf": "TAF EPRZ 051730Z 0518/0618 06008KT CAVOK"
    },
    {
      "icao": "EPSC",
      "alert": "OK",
      "vis_m": 9999,
      "fzfg": false,
      "metar_trigger": false,
      "taf_trigger": false,
      "metar": "METAR EPSC 052100Z 15007KT CAVOK M02/M05 Q1012",
      "taf": "TAF EPSC 051730Z 0518/0618 16006KT 9999 BKN040"
    },
    {
      "icao": "EPSY",
      "alert": "OK",
      "vis_m": 800,
      "fzfg": true,
      "metar_trigger": false,
      "taf_trigger": false,
      "metar": "METAR EPSY 052100Z VRB01KT 0800 R01/1200U FZFG NSC M12/M13 Q1015",
      "taf": "TAF EPSY 052030Z 0521/0606 VRB02KT 0300 FZFG NSC"
    },
    {
      "icao": "EPWA",
      "alert": "OK",
      "vis_m": 9999,
      "fzfg": false,
      "metar_trigger": false,
      "taf_trigger": false,
      "metar": "METAR EPWA 052100Z VRB02KT CAVOK M07/M09 Q1014 NOSIG",
      "taf": "TAF EPWA 052030Z 0521/0621 VRB04KT CAVOK"
    },
    {
      "icao": "EPWR",
      "alert": "OK",
      "vis_m": 8000,
      "fzfg": false,
      "metar_trigger": false,
      "taf_trigger": false,
      "metar": "METAR EPWR 052100Z VRB01KT 8000 NSC M08/M08 Q1013",
      "taf": "TAF EPWR 052030Z 0521/0621 29003KT CAVOK"
    },
    {
      "icao": "ESGG",
      "alert": "OK",
      "vis_m": 9999,
      "fzfg": false,
      "metar_trigger": false,
      "taf_trigger": false,
      "metar": "METAR ESGG 052050Z 10005KT 9999 SCT049 M07/M07 Q1010",
      "taf": "TAF ESGG 052030Z 0521/0621 VRB02KT 9999 SCT045"
    },
    {
      "icao": "ESKN",
      "alert": "OK",
      "vis_m": 9999,
      "fzfg": false,
      "metar_trigger": false,
      "taf_trigger": false,
      "metar": "METAR ESKN 052050Z 03009KT 9999 SCT005 BKN020 BKN028 M03/M03 Q1011",
      "taf": "TAF ESKN 052030Z 0521/0621 06008KT 8000 -SN BKN030"
    },
    {
      "icao": "ESMS",
      "alert": "OK",
      "vis_m": 3000,
      "fzfg": false,
      "metar_trigger": false,
      "taf_trigger": false,
      "metar": "METAR ESMS 052050Z 20001KT 3000 -SN OVC015 M01/M01 Q1009",
      "taf": "TAF ESMS 052027Z 0521/0621 18004KT 9999 BKN015"
    },
    {
      "icao": "ESSA",
      "alert": "OK",
      "vis_m": 9999,
      "fzfg": false,
      "metar_trigger": false,
      "taf_trigger": false,
      "metar": "METAR ESSA 052050Z 07009KT CAVOK M08/M10 Q1014 NOSIG",
      "taf": "TAF ESSA 052030Z 0521/0621 04010KT 9999 FEW035"
    },
    {
      "icao": "EYKA",
      "alert": "OK",
      "vis_m": 9000,
      "fzfg": false,
      "metar_trigger": false,
      "taf_trigger": false,
      "metar": "METAR EYKA 052050Z 18005KT 150V220 9000 NSC M04/M06 Q1017",
      "taf": "TAF EYKA 051712Z 0518/0618 VRB04KT 5000 BR BKN015"
    },
    {
      "icao": "EYPA",
      "alert": "OK",
      "vis_m": 3600,
      "fzfg": false,
      "metar_trigger": false,
      "taf_trigger": false,
      "metar": "METAR EYPA 052050Z 13007KT 3600 SHSN BKN005 BKN014CB M02/M02 Q1014",
      "taf": ""
    },
    {
      "icao": "EYVI",
      "alert": "OK",
      "vis_m": 6000,
      "fzfg": false,
      "metar_trigger": false,
      "taf_trigger": false,
      "metar": "METAR EYVI 052050Z 17008KT 6000 FEW031 M07/M08 Q1017 TEMPO 3000 BR",
      "taf": "TAF EYVI 051706Z 0518/0618 19010KT 5000 BR SCT010 BKN015"
    },
    {
      "icao": "GCFV",
      "alert": "OK",
      "vis_m": 9999,
      "fzfg": false,
      "metar_trigger": false,
      "taf_trigger": false,
      "metar": "METAR GCFV 052100Z 34012KT 9999 FEW018 17/12 Q1018",
      "taf": "TAF GCFV 052000Z 0521/0621 02014KT 9999 SCT030 TX21/0614Z TN15/0606Z"
    },
    {
      "icao": "GCLP",
      "alert": "OK",
      "vis_m": 9999,
      "fzfg": false,
      "metar_trigger": false,
      "taf_trigger": false,
      "metar": "METAR GCLP 052100Z 01015KT 9999 SCT025 BKN045 18/14 Q1019 NOSIG",
      "taf": "TAF GCLP 052000Z 0521/0621 36017KT 9999 SCT030 TX21/0614Z TN15/0606Z"
    },
    {
      "icao": "GCTS",
      "alert": "OK",
      "vis_m": 9999,
      "fzfg": false,
      "metar_trigger": false,
      "taf_trigger": false,
      "metar": "METAR GCTS 052100Z 07015KT 9999 FEW030 SCT040 18/12 Q1019 NOSIG",
      "taf": "TAF GCTS 052000Z 0521/0621 07014KT 9999 SCT030 TX23/0614Z TN16/0606Z"
    },
    {
      "icao": "GMAD",
      "alert": "OK",
      "vis_m": 9999,
      "fzfg": false,
      "metar_trigger": false,
      "taf_trigger": false,
      "metar": "METAR GMAD 052100Z 27011KT 9999 FEW030 15/13 Q1012 NOSIG",
      "taf": "TAF GMAD 051700Z 0518/0624 27010KT 8000 SCT023TCU SCT080"
    },
    {
      "icao": "GMMN",
      "alert": "OK",
      "vis_m": 9999,
      "fzfg": false,
      "metar_trigger": false,
      "taf_trigger": false,
      "metar": "METAR GMMN 052100Z 31008KT 9999 BKN030 11/08 Q1015 NOSIG",
      "taf": "TAF GMMN 051700Z 0518/0618 32012KT 9999 BKN020 SCT030TCU"
    },
    {
      "icao": "GMMX",
      "alert": "OK",
      "vis_m": 8000,
      "fzfg": false,
      "metar_trigger": false,
      "taf_trigger": false,
      "metar": "METAR GMMX 052100Z 30007KT 270V330 8000 SCT013 BKN020 12/10 Q1015 NOSIG",
      "taf": "TAF GMMX 051700Z 0518/0624 30008KT 8000 BKN023 SCT080"
    },
    {
      "icao": "HEGN",
      "alert": "OK",
      "vis_m": 9999,
      "fzfg": false,
      "metar_trigger": false,
      "taf_trigger": false,
      "metar": "METAR HEGN 052000Z 29003KT CAVOK 17/09 Q1018 NOSIG",
      "taf": "TAF HEGN 051700Z 0518/0624 34012KT CAVOK"
    },
    {
      "icao": "HEMA",
      "alert": "OK",
      "vis_m": 6000,
      "fzfg": false,
      "metar_trigger": false,
      "taf_trigger": false,
      "metar": "METAR HEMA 052000Z 30009KT 6000 NSC 18/16 Q1017 NOSIG",
      "taf": "TAF HEMA 051700Z 0518/0624 33013KT 6000 NSC"
    },
    {
      "icao": "HESH",
      "alert": "OK",
      "vis_m": 9999,
      "fzfg": false,
      "metar_trigger": false,
      "taf_trigger": false,
      "metar": "METAR HESH 052000Z 01007KT CAVOK 19/12 Q1018 NOSIG",
      "taf": "TAF HESH 051700Z 0518/0624 36010KT CAVOK"
    },
    {
      "icao": "HESX",
      "alert": "OK",
      "vis_m": 6000,
      "fzfg": false,
      "metar_trigger": false,
      "taf_trigger": false,
      "metar": "METAR HESX 052000Z 32003KT 6000 NSC 11/07 Q1020 NOSIG",
      "taf": "TAF HESX 051700Z 0518/0624 26006KT CAVOK"
    },
    {
      "icao": "LATI",
      "alert": "OK",
      "vis_m": 9999,
      "fzfg": false,
      "metar_trigger": false,
      "taf_trigger": false,
      "metar": "METAR LATI 052050Z VRB02KT 9999 RA OVC064 11/09 Q1008 NOSIG",
      "taf": "TAF LATI 051700Z 0518/0618 14012KT 9999 SCT040 BKN080 TX18/0612Z TN12/0605Z"
    },
    {
      "icao": "LBPD",
      "alert": "OK",
      "vis_m": 9999,
      "fzfg": false,
      "metar_trigger": false,
      "taf_trigger": false,
      "metar": "METAR LBPD 052100Z AUTO 24002KT 9999 OVC180/// 08/08 Q1011",
      "taf": "TAF LBPD 051700Z 0518/0618 VRB03KT 9999 SCT060"
    },
    {
      "icao": "LBSF",
      "alert": "OK",
      "vis_m": 9999,
      "fzfg": false,
      "metar_trigger": false,
      "taf_trigger": false,
      "metar": "METAR LBSF 052100Z AUTO 06003KT 030V090 9999 FEW062/// OVC087/// 09/05 Q1011 NOSIG",
      "taf": "TAF LBSF 051700Z 0518/0618 11010KT 9999 SCT040 BKN060"
    },
    {
      "icao": "LBWN",
      "alert": "OK",
      "vis_m": 9999,
      "fzfg": false,
      "metar_trigger": false,
      "taf_trigger": false,
      "metar": "METAR LBWN 052100Z AUTO 09006KT 9999 NSC 11/11 Q1013 NOSIG",
      "taf": "TAF LBWN 051700Z 0518/0618 VRB04KT 9999 BKN040"
    },
    {
      "icao": "LCLK",
      "alert": "OK",
      "vis_m": 9999,
      "fzfg": false,
      "metar_trigger": false,
      "taf_trigger": false,
      "metar": "METAR LCLK 052100Z 34008KT CAVOK 12/09 Q1021 NOSIG",
      "taf": "TAF LCLK 051730Z 0518/0618 34008KT CAVOK"
    },
    {
      "icao": "LCPH",
      "alert": "OK",
      "vis_m": 9999,
      "fzfg": false,
      "metar_trigger": false,
      "taf_trigger": false,
      "metar": "METAR LCPH 052100Z 01005KT CAVOK 11/06 Q1020 NOSIG",
      "taf": "TAF LCPH 051730Z 0518/0618 08008KT 9999 FEW040"
    },
    {
      "icao": "LEAL",
      "alert": "OK",
      "vis_m": 9999,
      "fzfg": false,
      "metar_trigger": false,
      "taf_trigger": false,
      "metar": "METAR LEAL 052100Z 05005KT 9999 -RA SCT025 OVC035 09/06 Q1009 NOSIG",
      "taf": "TAF LEAL 051700Z 0518/0618 VRB04KT 9999 SCT020 TX12/0614Z TN04/0606Z"
    },
    {
      "icao": "LEBB",
      "alert": "OK",
      "vis_m": 9999,
      "fzfg": false,
      "metar_trigger": false,
      "taf_trigger": false,
      "metar": "METAR LEBB 052100Z 09004KT 040V120 9999 SCT070 00/M02 Q1016 NOSIG",
      "taf": "TAF LEBB 051700Z 0518/0618 13005KT 9999 FEW030 TX07/0618Z TNM00/0521Z"
    },
    {
      "icao": "LEBL",
      "alert": "OK",
      "vis_m": 9999,
      "fzfg": false,
      "metar_trigger": false,
      "taf_trigger": false,
      "metar": "METAR LEBL 052100Z 33013G23KT 9999 FEW025 04/M01 Q1009 NOSIG",
      "taf": "TAF LEBL 051700Z 0518/0618 33013KT 9999 FEW030 SCT040 TX11/0613Z TN01/0606Z"
    },
    {
      "icao": "LECH",
      "alert": "OK",
      "vis_m": 9000,
      "fzfg": false,
      "metar_trigger": false,
      "taf_trigger": false,
      "metar": "METAR LECH 052100Z AUTO 34001KT 9000 NCD 03/M08 Q1010",
      "taf": ""
    },
    {
      "icao": "LEMD",
      "alert": "OK",
      "vis_m": 9999,
      "fzfg": false,
      "metar_trigger": false,
      "taf_trigger": false,
      "metar": "METAR LEMD 052100Z 36011KT 330V030 CAVOK 01/M07 Q1011 NOSIG",
      "taf": "TAF LEMD 051700Z 0518/0624 01010KT 9999 FEW040 TX06/0614Z TNM03/0607Z"
    },
    {
      "icao": "LEMG",
      "alert": "OK",
      "vis_m": 7000,
      "fzfg": false,
      "metar_trigger": false,
      "taf_trigger": false,
      "metar": "METAR LEMG 052100Z 27013KT 7000 -SHRA FEW020TCU SCT045 BKN060 11/09 Q1008 RESHRA BECMG NSW",
      "taf": "TAF LEMG 051700Z 0518/0618 VRB04KT 9999 FEW050 TX12/0614Z TN04/0606Z"
    },
    {
      "icao": "LEVC",
      "alert": "OK",
      "vis_m": 9999,
      "fzfg": false,
      "metar_trigger": false,
      "taf_trigger": false,
      "metar": "METAR LEVC 052100Z 30005KT 270V330 9999 BKN060 07/01 Q1011 NOSIG",
      "taf": "TAF LEVC 051700Z 0518/0618 VRB04KT 9999 BKN015 TX12/0614Z TN00/0606Z"
    },
    {
      "icao": "LEXJ",
      "alert": "OK",
      "vis_m": 7000,
      "fzfg": false,
      "metar_trigger": false,
      "taf_trigger": false,
      "metar": "METAR LEXJ 052100Z 23008KT 200V260 7000 BKN049 OVC058 07/M02 Q1015",
      "taf": "TAF LEXJ 052000Z 0521/0621 22005KT 9999 SCT010 BKN040 TX09/0614Z TN03/0523Z"
    },
    {
      "icao": "LEZG",
      "alert": "OK",
      "vis_m": 9999,
      "fzfg": false,
      "metar_trigger": false,
      "taf_trigger": false,
      "metar": "METAR LEZG 052100Z 30015KT 260V320 CAVOK 02/M07 Q1012 NOSIG",
      "taf": "TAF LEZG 051700Z 0518/0618 31018KT 9999 FEW050 TX07/0615Z TN00/0606Z"
    },
    {
      "icao": "LEZL",
      "alert": "OK",
      "vis_m": 9999,
      "fzfg": false,
      "metar_trigger": false,
      "taf_trigger": false,
      "metar": "METAR LEZL 052100Z 35008KT 320V020 CAVOK 09/M01 Q1011 NOSIG",
      "taf": "TAF LEZL 052000Z 0521/0621 30004KT CAVOK TX13/0615Z TN02/0607Z"
    },
    {
      "icao": "LFBD",
      "alert": "OK",
      "vis_m": 9999,
      "fzfg": false,
      "metar_trigger": false,
      "taf_trigger": false,
      "metar": "METAR LFBD 052100Z AUTO 21006KT 9999 FEW047 M00/M05 Q1015 NOSIG",
      "taf": ""
    },
    {
      "icao": "LFLL",
      "alert": "OK",
      "vis_m": 9999,
      "fzfg": false,
      "metar_trigger": false,
      "taf_trigger": false,
      "metar": "METAR LFLL 052100Z 34006KT CAVOK M05/M06 Q1014 NOSIG",
      "taf": "TAF LFLL 051700Z 0518/0624 34008KT CAVOK"
    },
    {
      "icao": "LFLS",
      "alert": "OK",
      "vis_m": 9999,
      "fzfg": false,
      "metar_trigger": false,
      "taf_trigger": false,
      "metar": "METAR LFLS 052100Z AUTO 35010KT CAVOK M05/M07 Q1012",
      "taf": "TAF LFLS 051400Z 0515/0615 36008KT CAVOK"
    },
    {
      "icao": "LFMN",
      "alert": "OK",
      "vis_m": 9999,
      "fzfg": false,
      "metar_trigger": false,
      "taf_trigger": false,
      "metar": "METAR LFMN 052100Z 32011KT 9999 BKN040 06/01 Q1005 NOSIG",
      "taf": "TAF LFMN 052000Z 0521/0703 32010KT 9999 BKN055 BKN135"
    },
    {
      "icao": "LFOB",
      "alert": "OK",
      "vis_m": 2100,
      "fzfg": true,
      "metar_trigger": false,
      "taf_trigger": false,
      "metar": "METAR LFOB 052100Z AUTO 32004KT 2100 1200 R30/1100U R12/2800U BR VV/// M03/M03 Q1015 TEMPO 0500 FZFG",
      "taf": ""
    },
    {
      "icao": "LFPO",
      "alert": "OK",
      "vis_m": 6000,
      "fzfg": false,
      "metar_trigger": false,
      "taf_trigger": false,
      "metar": "METAR LFPO 052100Z AUTO 29004KT 6000 BKN010 BKN120 OVC150 M01/M02 Q1015 TEMPO 2500 BR BKN004",
      "taf": "TAF LFPO 051700Z 0518/0624 26004KT 6000 BKN008"
    },
    {
      "icao": "LFSB",
      "alert": "OK",
      "vis_m": 9999,
      "fzfg": false,
      "metar_trigger": false,
      "taf_trigger": false,
      "metar": "METAR LFSB 052100Z AUTO VRB02KT CAVOK M07/M09 Q1014 NOSIG",
      "taf": "TAF LFSB 051700Z 0518/0618 VRB03KT CAVOK"
    },
    {
      "icao": "LGAV",
      "alert": "OK",
      "vis_m": 9999,
      "fzfg": false,
      "metar_trigger": false,
      "taf_trigger": false,
      "metar": "METAR LGAV 052050Z 14005KT 9999 FEW018 SCT030 15/10 Q1015 NOSIG",
      "taf": "TAF LGAV 051700Z 0518/0618 19014KT 9999 FEW018 SCT030 BKN070"
    },
    {
      "icao": "LGTS",
      "alert": "OK",
      "vis_m": 9999,
      "fzfg": false,
      "metar_trigger": false,
      "taf_trigger": false,
      "metar": "METAR LGTS 052050Z 12005KT 9999 SCT035 15/10 Q1012 NOSIG",
      "taf": "TAF LGTS 051700Z 0518/0618 14010KT 9999 SCT030"
    },
    {
      "icao": "LHBP",
      "alert": "OK",
      "vis_m": 3000,
      "fzfg": false,
      "metar_trigger": false,
      "taf_trigger": false,
      "metar": "METAR LHBP 052100Z 34006KT 3000 SN FEW005 BKN025 OVC037 M02/M03 Q1010 NOSIG",
      "taf": "TAF LHBP 051715Z 0518/0618 35006KT 5000 -SN SCT010 OVC020"
    },
    {
      "icao": "LHDC",
      "alert": "OK",
      "vis_m": 5000,
      "fzfg": false,
      "metar_trigger": false,
      "taf_trigger": false,
      "metar": "METAR LHDC 052045Z AUTO 04004KT 5000 -RASN BR BKN014 OVC049 M00/M01 Q1009 NOSIG",
      "taf": "TAF LHDC 051715Z 0518/0603 05006KT 4000 -SN SCT012 OVC025"
    },
    {
      "icao": "LIBD",
      "alert": "OK",
      "vis_m": 8000,
      "fzfg": false,
      "metar_trigger": false,
      "taf_trigger": false,
      "metar": "METAR LIBD 052050Z 30005KT 270V330 8000 SCT010 BKN020 12/11 Q1004",
      "taf": "TAF LIBD 051700Z 0518/0618 28007KT 9999 SCT015"
    },
    {
      "icao": "LIBG",
      "alert": "OK",
      "vis_m": null,
      "fzfg": false,
      "metar_trigger": false,
      "taf_trigger": false,
      "metar": "",
      "taf": "TAF LIBG 051700Z 0518/0603 17012KT 9999 SCT030"
    },
    {
      "icao": "LIBP",
      "alert": "OK",
      "vis_m": 9999,
      "fzfg": false,
      "metar_trigger": false,
      "taf_trigger": false,
      "metar": "METAR LIBP 052050Z AUTO VRB02KT 9999 OVC008/// 07/06 Q1007",
      "taf": "TAF LIBP 051700Z 0518/0618 34007KT 9999 OVC008"
    },
    {
      "icao": "LIBR",
      "alert": "OK",
      "vis_m": 7000,
      "fzfg": false,
      "metar_trigger": false,
      "taf_trigger": false,
      "metar": "METAR LIBR 052050Z 21015KT 7000 -DZRA VCTS FEW015 SCT025CB 15/13 Q1004",
      "taf": "TAF LIBR 051700Z 0518/0618 17013KT 9999 BKN015"
    },
    {
      "icao": "LICA",
      "alert": "OK",
      "vis_m": 5000,
      "fzfg": false,
      "metar_trigger": false,
      "taf_trigger": false,
      "metar": "METAR LICA 052050Z AUTO 06004KT 5000 BR NCD 11/11 Q1005",
      "taf": "TAF LICA 051700Z 0518/0618 VRB05KT 9999 SCT050"
    },
    {
      "icao": "LICC",
      "alert": "OK",
      "vis_m": 9999,
      "fzfg": false,
      "metar_trigger": false,
      "taf_trigger": false,
      "metar": "METAR LICC 052050Z 26009KT CAVOK 13/10 Q1006",
      "taf": "TAF LICC 051700Z 0518/0618 26013KT 9999 SCT030"
    },
    {
      "icao": "LICJ",
      "alert": "OK",
      "vis_m": 9999,
      "fzfg": false,
      "metar_trigger": false,
      "taf_trigger": false,
      "metar": "METAR LICJ 052050Z 20015KT CAVOK 17/08 Q1003",
      "taf": "TAF LICJ 051700Z 0518/0618 21016KT 9999 FEW030"
    },
    {
      "icao": "LIMC",
      "alert": "OK",
      "vis_m": 9999,
      "fzfg": false,
      "metar_trigger": false,
      "taf_trigger": false,
      "metar": "METAR LIMC 052050Z 03003KT CAVOK M03/M06 Q1008 NOSIG",
      "taf": "TAF LIMC 051700Z 0518/0624 VRB03KT CAVOK"
    },
    {
      "icao": "LIME",
      "alert": "OK",
      "vis_m": 9999,
      "fzfg": false,
      "metar_trigger": false,
      "taf_trigger": false,
      "metar": "METAR LIME 052050Z VRB01KT CAVOK M00/M04 Q1007 NOSIG",
      "taf": "TAF LIME 051700Z 0518/0618 VRB03KT CAVOK"
    },
    {
      "icao": "LIMF",
      "alert": "OK",
      "vis_m": 9999,
      "fzfg": false,
      "metar_trigger": false,
      "taf_trigger": false,
      "metar": "METAR LIMF 052050Z 36003KT CAVOK M01/M08 Q1007",
      "taf": "TAF LIMF 051700Z 0518/0618 VRB03KT CAVOK"
    },
    {
      "icao": "LIMJ",
      "alert": "OK",
      "vis_m": 9999,
      "fzfg": false,
      "metar_trigger": false,
      "taf_trigger": false,
      "metar": "METAR LIMJ 052050Z 03015KT CAVOK 04/M04 Q1006",
      "taf": "TAF LIMJ 051700Z 0518/0618 01014KT CAVOK"
    },
    {
      "icao": "LIPE",
      "alert": "OK",
      "vis_m": 9999,
      "fzfg": false,
      "metar_trigger": false,
      "taf_trigger": false,
      "metar": "METAR LIPE 052050Z 28003KT 9999 BKN040 03/M03 Q1008",
      "taf": "TAF LIPE 051700Z 0518/0618 28007KT 9999 BKN020"
    },
    {
      "icao": "LIPH",
      "alert": "OK",
      "vis_m": 9999,
      "fzfg": false,
      "metar_trigger": false,
      "taf_trigger": false,
      "metar": "METAR LIPH 052050Z 02003KT CAVOK 01/M03 Q1008",
      "taf": "TAF LIPH 051700Z 0518/0618 03006KT 9999 SCT070"
    },
    {
      "icao": "LIPQ",
      "alert": "OK",
      "vis_m": 9999,
      "fzfg": false,
      "metar_trigger": false,
      "taf_trigger": false,
      "metar": "METAR LIPQ 052050Z AUTO 06004KT 030V090 9999 OVC045/// 04/M04 Q1008",
      "taf": "TAF LIPQ 051700Z 0518/0618 08008KT 9999 BKN030"
    },
    {
      "icao": "LIPR",
      "alert": "OK",
      "vis_m": 9999,
      "fzfg": false,
      "metar_trigger": false,
      "taf_trigger": false,
      "metar": "METAR LIPR 052050Z 28008KT 9999 BKN020 03/M01 Q1008",
      "taf": "TAF LIPR 051700Z 0518/0618 30012KT 9999 BKN020"
    },
    {
      "icao": "LIPX",
      "alert": "OK",
      "vis_m": 9999,
      "fzfg": false,
      "metar_trigger": false,
      "taf_trigger": false,
      "metar": "METAR LIPX 052050Z 36005KT CAVOK M01/M09 Q1008",
      "taf": "TAF LIPX 051700Z 0518/0618 VRB04KT CAVOK"
    },
    {
      "icao": "LIPY",
      "alert": "OK",
      "vis_m": 4400,
      "fzfg": false,
      "metar_trigger": false,
      "taf_trigger": false,
      "metar": "METAR LIPY 052050Z AUTO 28004KT 260V330 4400 -RA OVC008/// 04/03 Q1007",
      "taf": "TAF LIPY 051700Z 0518/0618 32010KT 9999 BKN010"
    },
    {
      "icao": "LIPZ",
      "alert": "OK",
      "vis_m": 9999,
      "fzfg": false,
      "metar_trigger": false,
      "taf_trigger": false,
      "metar": "METAR LIPZ 052050Z 01005KT CAVOK 02/M02 Q1008 NOSIG",
      "taf": "TAF LIPZ 051700Z 0518/0624 02008KT 9999 SCT070"
    },
    {
      "icao": "LIRF",
      "alert": "OK",
      "vis_m": 9999,
      "fzfg": false,
      "metar_trigger": false,
      "taf_trigger": false,
      "metar": "METAR LIRF 052050Z 35004KT 9999 -RA SCT020 SCT040 12/11 Q1003 NOSIG",
      "taf": "TAF LIRF 051700Z 0518/0624 09008KT 9999 SCT020"
    },
    {
      "icao": "LIRN",
      "alert": "OK",
      "vis_m": 9999,
      "fzfg": false,
      "metar_trigger": false,
      "taf_trigger": false,
      "metar": "METAR LIRN 052050Z 35004KT 300V040 9999 SCT070 13/10 Q1003 NOSIG",
      "taf": "TAF LIRN 051700Z 0518/0618 VRB06KT 9999 SCT020 SCT050"
    },
    {
      "icao": "LIRP",
      "alert": "OK",
      "vis_m": 9999,
      "fzfg": false,
      "metar_trigger": false,
      "taf_trigger": false,
      "metar": "METAR LIRP 052045Z VRB02KT CAVOK 03/M01 Q1005 NOSIG",
      "taf": "TAF LIRP 051700Z 0518/0618 12008KT 9999 SCT040 BKN070"
    },
    {
      "icao": "LIRZ",
      "alert": "OK",
      "vis_m": 9999,
      "fzfg": false,
      "metar_trigger": false,
      "taf_trigger": false,
      "metar": "METAR LIRZ 052050Z AUTO 34007KT 9999 OVC015/// 05/04 Q1004",
      "taf": "TAF LIRZ 051700Z 0518/0618 01010KT 6000 RA BKN012 BKN020"
    },
    {
      "icao": "LJLJ",
      "alert": "OK",
      "vis_m": 8000,
      "fzfg": false,
      "metar_trigger": false,
      "taf_trigger": false,
      "metar": "METAR LJLJ 052100Z 08001KT 8000 FEW004 BKN015 OVC055 M03/M04 Q1010 NOSIG",
      "taf": "TAF LJLJ 051700Z 0518/0618 10004KT 7000 -SN SCT020 OVC040"
    },
    {
      "icao": "LKMT",
      "alert": "OK",
      "vis_m": 9999,
      "fzfg": false,
      "metar_trigger": false,
      "taf_trigger": false,
      "metar": "METAR LKMT 052100Z 13003KT CAVOK M03/M06 Q1012 NOSIG",
      "taf": "TAF LKMT 051700Z 0518/0618 18003KT CAVOK"
    },
    {
      "icao": "LKPR",
      "alert": "OK",
      "vis_m": 9999,
      "fzfg": false,
      "metar_trigger": false,
      "taf_trigger": false,
      "metar": "METAR LKPR 052100Z 20006KT 9999 FEW040 M07/M11 Q1012 NOSIG",
      "taf": "TAF LKPR 052000Z 0521/0703 23006KT 9999 BKN040"
    },
    {
      "icao": "LLBG",
      "alert": "OK",
      "vis_m": 9999,
      "fzfg": false,
      "metar_trigger": false,
      "taf_trigger": false,
      "metar": "METAR LLBG 052050Z VRB02KT CAVOK 13/07 Q1019 NOSIG",
      "taf": "TAF LLBG 051700Z 0518/0618 VRB03KT CAVOK"
    },
    {
      "icao": "LMML",
      "alert": "OK",
      "vis_m": 8000,
      "fzfg": false,
      "metar_trigger": false,
      "taf_trigger": false,
      "metar": "METAR LMML 052115Z 19006KT 150V220 8000 NSC 16/15 Q1007 NOSIG",
      "taf": "TAF LMML 051700Z 0518/0618 22012KT 8000 NSC"
    },
    {
      "icao": "LOWW",
      "alert": "OK",
      "vis_m": 9999,
      "fzfg": false,
      "metar_trigger": false,
      "taf_trigger": false,
      "metar": "METAR LOWW 052050Z 34007KT 9999 FEW040 BKN042 M03/M08 Q1013 NOSIG",
      "taf": "TAF LOWW 052015Z 0521/0703 33010KT 9999 SCT050 TXM02/0613Z TNM04/0607Z"
    },
    {
      "icao": "LPFR",
      "alert": "OK",
      "vis_m": 9999,
      "fzfg": false,
      "metar_trigger": false,
      "taf_trigger": false,
      "metar": "METAR LPFR 052100Z 34009KT CAVOK 08/M02 Q1014",
      "taf": ""
    },
    {
      "icao": "LPMA",
      "alert": "OK",
      "vis_m": 9999,
      "fzfg": false,
      "metar_trigger": false,
      "taf_trigger": false,
      "metar": "METAR LPMA 052100Z 02019G29KT 350V050 9999 SCT015 FEW018TCU 15/07 Q1023",
      "taf": "TAF LPMA 051700Z 0518/0618 02017KT 9999 SCT015"
    },
    {
      "icao": "LPPR",
      "alert": "OK",
      "vis_m": 9999,
      "fzfg": false,
      "metar_trigger": false,
      "taf_trigger": false,
      "metar": "METAR LPPR 052100Z 01007KT CAVOK 06/02 Q1018",
      "taf": "TAF LPPR 051700Z 0518/0618 02010KT CAVOK"
    },
    {
      "icao": "LPPS",
      "alert": "OK",
      "vis_m": 9999,
      "fzfg": false,
      "metar_trigger": false,
      "taf_trigger": false,
      "metar": "METAR LPPS 052100Z 04017G28KT 9999 SCT015 SCT030 14/08 Q1024",
      "taf": "TAF LPPS 051700Z 0518/0624 02015KT 9999 SCT015"
    },
    {
      "icao": "LPPT",
      "alert": "OK",
      "vis_m": 9999,
      "fzfg": false,
      "metar_trigger": false,
      "taf_trigger": false,
      "metar": "METAR LPPT 052100Z 34008KT 9999 FEW035 07/04 Q1016",
      "taf": ""
    },
    {
      "icao": "LQBK",
      "alert": "OK",
      "vis_m": 8000,
      "fzfg": false,
      "metar_trigger": false,
      "taf_trigger": false,
      "metar": "METAR LQBK 052100Z 31006KT 8000 FZRA FEW007 SCT015 OVC023 M01/M01 Q1011 NOSIG",
      "taf": ""
    },
    {
      "icao": "LQSA",
      "alert": "OK",
      "vis_m": 800,
      "fzfg": false,
      "metar_trigger": false,
      "taf_trigger": false,
      "metar": "METAR LQSA 052100Z 00000KT 0800 R11/0900N RA BKN004 OVC030 00/00 Q1006 BECMG SN BKN004 OVC020",
      "taf": "TAF LQSA 052033Z 0520/0618 30005KT 2000 RA BKN008 OVC030 TX00/0520Z TNM02/0618Z"
    },
    {
      "icao": "LQTZ",
      "alert": "OK",
      "vis_m": 5000,
      "fzfg": false,
      "metar_trigger": false,
      "taf_trigger": false,
      "metar": "METAR LQTZ 052100Z 29004KT 5000 BR OVC006 M01/M01 Q1010",
      "taf": "TAF LQTZ 051700Z 0518/0618 30005KT 5000 BR BKN005 OVC015 TXM00/0613Z TNM03/0605Z"
    },
    {
      "icao": "LRBC",
      "alert": "OK",
      "vis_m": 1500,
      "fzfg": false,
      "metar_trigger": false,
      "taf_trigger": false,
      "metar": "METAR LRBC 052100Z 08002KT 1500 -DZ BR OVC003 M01/M02 Q1015",
      "taf": "TAF LRBC 052000Z 0521/0606 VRB03KT 3000 -SN BKN002 OVC010"
    },
    {
      "icao": "LRBS",
      "alert": "OK",
      "vis_m": 600,
      "fzfg": false,
      "metar_trigger": false,
      "taf_trigger": false,
      "metar": "METAR LRBS 052100Z 05005KT 020V080 0600 R07/2000N -DZ FG OVC001 01/01 Q1014 NOSIG",
      "taf": ""
    },
    {
      "icao": "LRBV",
      "alert": "OK",
      "vis_m": 9999,
      "fzfg": false,
      "metar_trigger": false,
      "taf_trigger": false,
      "metar": "METAR LRBV 052100Z 14006KT 110V200 9999 FEW045 02/M00 Q1010",
      "taf": ""
    },
    {
      "icao": "LRCL",
      "alert": "OK",
      "vis_m": 9999,
      "fzfg": false,
      "metar_trigger": false,
      "taf_trigger": false,
      "metar": "METAR LRCL 052100Z 07008KT 9999 SCT045 OVC068 01/M00 Q1009",
      "taf": "TAF LRCL 052000Z 0521/0606 06010KT 9999 OVC040"
    },
    {
      "icao": "LRCV",
      "alert": "OK",
      "vis_m": 300,
      "fzfg": false,
      "metar_trigger": false,
      "taf_trigger": false,
      "metar": "METAR LRCV 052100Z 07004KT 0300 R26/0550N -RASN FG VV001 01/01 Q1013",
      "taf": "TAF LRCV 052000Z 0521/0606 VRB04KT 0500 FG VV001"
    },
    {
      "icao": "LRIA",
      "alert": "OK",
      "vis_m": 2600,
      "fzfg": false,
      "metar_trigger": false,
      "taf_trigger": false,
      "metar": "METAR LRIA 052100Z 12007KT 2600 -FZRA BR BKN001 OVC002 M00/M00 Q1015",
      "taf": "TAF LRIA 052000Z 0521/0606 10008KT 3000 -DZ BKN002 OVC010"
    },
    {
      "icao": "LROP",
      "alert": "OK",
      "vis_m": 2000,
      "fzfg": false,
      "metar_trigger": false,
      "taf_trigger": false,
      "metar": "METAR LROP 052100Z 06010KT 2000 BR OVC002 02/02 Q1014 BECMG 1500 BR",
      "taf": "TAF LROP 051700Z 0518/0618 05010KT 9999 -RA OVC005"
    },
    {
      "icao": "LRSB",
      "alert": "OK",
      "vis_m": 6000,
      "fzfg": false,
      "metar_trigger": false,
      "taf_trigger": false,
      "metar": "METAR LRSB 052100Z VRB02KT 6000 SCT085 M01/M02 Q1009",
      "taf": "TAF LRSB 051700Z 0518/0618 VRB04KT 5000 BR SCT005 BKN060"
    },
    {
      "icao": "LRSM",
      "alert": "OK",
      "vis_m": 2400,
      "fzfg": false,
      "metar_trigger": false,
      "taf_trigger": false,
      "metar": "METAR LRSM 052100Z AUTO 00000KT 2400 DZ SCT037/// BKN042/// OVC050/// 01/M00 Q1009",
      "taf": "TAF LRSM 051400Z 0515/0524 06006KT 9999 BKN035"
    },
    {
      "icao": "LRSV",
      "alert": "OK",
      "vis_m": 800,
      "fzfg": true,
      "metar_trigger": false,
      "taf_trigger": false,
      "metar": "METAR LRSV 052100Z 14015KT 0800 R34/P2000 FZFG VV002 M02/M02 Q1012",
      "taf": "TAF LRSV 052000Z 0521/0606 13012KT 1500 BR OVC003"
    },
    {
      "icao": "LRTM",
      "alert": "OK",
      "vis_m": 3100,
      "fzfg": false,
      "metar_trigger": false,
      "taf_trigger": false,
      "metar": "METAR LRTM 052100Z AUTO 00000KT 3100 -FZRA BKN050/// M00/M01 Q1010",
      "taf": "TAF LRTM 051400Z 0515/0524 VRB04KT 3000 -RASN BR BKN010 OVC025"
    },
    {
      "icao": "LRTR",
      "alert": "OK",
      "vis_m": 3000,
      "fzfg": false,
      "metar_trigger": false,
      "taf_trigger": false,
      "metar": "METAR LRTR 052100Z VRB01KT 3000 RA BR BKN007 OVC038 01/01 Q1009",
      "taf": "TAF LRTR 051700Z 0518/0618 VRB04KT 5000 -RA BR OVC030"
    },
    {
      "icao": "LTAC",
      "alert": "OK",
      "vis_m": 6000,
      "fzfg": false,
      "metar_trigger": false,
      "taf_trigger": false,
      "metar": "METAR LTAC 052050Z VRB02KT 6000 NSC 00/M01 Q1022 NOSIG RMK RWY21C 15004KT RWY03L 14002KT RWY21R 15002KT RWY03R VRB02KT RWY21L 15003KT",
      "taf": "TAF LTAC 051640Z 0518/0618 VRB02KT CAVOK"
    },
    {
      "icao": "LTFM",
      "alert": "OK",
      "vis_m": 9999,
      "fzfg": false,
      "metar_trigger": false,
      "taf_trigger": false,
      "metar": "METAR LTFM 052050Z 18009KT 9999 SCT040 BKN100 13/06 Q1017 NOSIG RMK RWY17L 19009KT RWY34L 18009KT RWY16R 18009KT RWY36 17008KT RWY18 18008KT",
      "taf": ""
    },
    {
      "icao": "LUKK",
      "alert": "OK",
      "vis_m": 7000,
      "fzfg": false,
      "metar_trigger": false,
      "taf_trigger": false,
      "metar": "METAR LUKK 052100Z 10009KT 7000 -FZRA OVC003 M00/M00 Q1016 TEMPO 1500 FZDZ BR",
      "taf": "TAF LUKK 051705Z 0518/0618 12006KT 5000 SN BKN008"
    },
    {
      "icao": "LWOH",
      "alert": "OK",
      "vis_m": 9999,
      "fzfg": false,
      "metar_trigger": false,
      "taf_trigger": false,
      "metar": "METAR LWOH 051950Z 34003KT 280V030 9999 BKN050 08/06 Q1010",
      "taf": "TAF LWOH 052045Z 0521/0621 VRB02KT 9999 -RA SCT020 BKN040"
    },
    {
      "icao": "LWSK",
      "alert": "OK",
      "vis_m": null,
      "fzfg": false,
      "metar_trigger": false,
      "taf_trigger": false,
      "metar": "",
      "taf": "TAF LWSK 052045Z 0521/0621 12012KT 9999 SCT040 BKN070"
    },
    {
      "icao": "LYBE",
      "alert": "OK",
      "vis_m": 3500,
      "fzfg": false,
      "metar_trigger": false,
      "taf_trigger": false,
      "metar": "METAR LYBE 052100Z 26005KT 3500 FZRA BR BKN003 BKN013 M00/M01 Q1010 NOSIG",
      "taf": "TAF LYBE 051700Z 0518/0618 27005KT 4000 BR BKN005 BKN025 TX00/0518Z TNM01/0606Z"
    },
    {
      "icao": "LYNI",
      "alert": "OK",
      "vis_m": 9999,
      "fzfg": false,
      "metar_trigger": false,
      "taf_trigger": false,
      "metar": "METAR LYNI 052100Z 00000KT 9999 FEW043 OVC083 03/03 Q1009 NOSIG",
      "taf": "TAF LYNI 051700Z 0518/0618 05004KT 9999 BKN080 TX03/0518Z TN01/0606Z"
    },
    {
      "icao": "LYPG",
      "alert": "OK",
      "vis_m": 9999,
      "fzfg": false,
      "metar_trigger": false,
      "taf_trigger": false,
      "metar": "METAR LYPG 052100Z VRB02KT 9999 -RA FEW030 BKN040 OVC065 11/10 Q1006 RERA TEMPO 5000 SHRA FEW027TCU BKN040",
      "taf": "TAF LYPG 051700Z 0518/0618 14012KT 6000 RA FEW015 BKN040 OVC070 TX14/0613Z TN11/0605Z"
    },
    {
      "icao": "LZIB",
      "alert": "OK",
      "vis_m": 9999,
      "fzfg": false,
      "metar_trigger": false,
      "taf_trigger": false,
      "metar": "METAR LZIB 052100Z 30011KT 9999 FEW027 SCT035 M02/M06 Q1012 NOSIG",
      "taf": ""
    },
    {
      "icao": "LZKZ",
      "alert": "OK",
      "vis_m": 3200,
      "fzfg": false,
      "metar_trigger": false,
      "taf_trigger": false,
      "metar": "METAR LZKZ 052100Z 03006KT 3200 -SN FEW020 OVC025 M02/M03 Q1010 TEMPO 1500 SN",
      "taf": "TAF LZKZ 051715Z 0518/0618 02006KT 9999 SCT040"
    },
    {
      "icao": "LZTT",
      "alert": "OK",
      "vis_m": 9999,
      "fzfg": false,
      "metar_trigger": false,
      "taf_trigger": false,
      "metar": "METAR LZTT 052100Z 28002KT 9999 BKN050 M05/M08 Q1008",
      "taf": "TAF LZTT 051715Z 0518/0618 VRB02KT 9999 SCT055 BKN080"
    },
    {
      "icao": "OEJN",
      "alert": "OK",
      "vis_m": 8000,
      "fzfg": false,
      "metar_trigger": false,
      "taf_trigger": false,
      "metar": "METAR OEJN 052100Z 00000KT 8000 NSC 26/16 Q1015 NOSIG",
      "taf": "TAF OEJN 051700Z 0518/0624 35006KT 7000 FEW040"
    },
    {
      "icao": "OEMA",
      "alert": "OK",
      "vis_m": 2000,
      "fzfg": false,
      "metar_trigger": false,
      "taf_trigger": false,
      "metar": "METAR OEMA 052100Z 06009KT 2000 DU FEW045 21/M01 Q1021 NOSIG",
      "taf": "TAF OEMA 051700Z 0518/0624 09010KT 7000 NSC"
    },
    {
      "icao": "OJAI",
      "alert": "OK",
      "vis_m": 5000,
      "fzfg": false,
      "metar_trigger": false,
      "taf_trigger": false,
      "metar": "METAR OJAI 052100Z 05005KT 5000 HZ NSC 07/01 Q1023 NOSIG",
      "taf": "TAF OJAI 051649Z 0518/0624 VRB02KT 5000 HZ NSC"
    },
    {
      "icao": "OMAA",
      "alert": "OK",
      "vis_m": 9999,
      "fzfg": false,
      "metar_trigger": false,
      "taf_trigger": false,
      "metar": "METAR OMAA 052100Z 30004KT CAVOK 20/15 Q1020 NOSIG",
      "taf": "TAF OMAA 051700Z 0518/0700 05005KT 8000 FEW030"
    },
    {
      "icao": "OMDB",
      "alert": "OK",
      "vis_m": 9999,
      "fzfg": false,
      "metar_trigger": false,
      "taf_trigger": false,
      "metar": "METAR OMDB 052100Z 08004KT 040V120 CAVOK 21/11 Q1020 NOSIG",
      "taf": "TAF OMDB 051700Z 0518/0700 06007KT 8000 FEW035"
    },
    {
      "icao": "UAAA",
      "alert": "OK",
      "vis_m": 4500,
      "fzfg": false,
      "metar_trigger": false,
      "taf_trigger": false,
      "metar": "METAR UAAA 052100Z 14002MPS 4500 BR OVC009 M01/M03 Q1036 NOSIG",
      "taf": "TAF UAAA 051701Z 0518/0618 06003MPS 3100 BR FU BKN011 OVC030 TX01/0609Z TNM03/0602Z"
    },
    {
      "icao": "UBBB",
      "alert": "OK",
      "vis_m": 250,
      "fzfg": false,
      "metar_trigger": false,
      "taf_trigger": false,
      "metar": "METAR UBBB 052100Z 31002KT 0250 R34/0800 R35/0750 FG SCT001 03/02 Q1025 NOSIG",
      "taf": ""
    },
    {
      "icao": "UDSG",
      "alert": "OK",
      "vis_m": 4200,
      "fzfg": false,
      "metar_trigger": false,
      "taf_trigger": false,
      "metar": "METAR UDSG 052100Z 09002KT 4200 BR NSC M19/M20 Q1030 NOSIG",
      "taf": "TAF UDSG 051700Z 0518/0618 VRB06KT 5000 BR FEW040"
    },
    {
      "icao": "UDYZ",
      "alert": "OK",
      "vis_m": 3200,
      "fzfg": false,
      "metar_trigger": false,
      "taf_trigger": false,
      "metar": "METAR UDYZ 052100Z 35002KT 3200 BR NSC M11/M13 Q1032 NOSIG",
      "taf": "TAF UDYZ 051700Z 0518/0618 VRB04KT 2300 BR NSC"
    },
    {
      "icao": "UGKO",
      "alert": "OK",
      "vis_m": 9999,
      "fzfg": false,
      "metar_trigger": false,
      "taf_trigger": false,
      "metar": "METAR UGKO 052100Z 09007KT 360V100 CAVOK 03/M00 Q1022 NOSIG",
      "taf": "TAF UGKO 051700Z 0518/0618 08007KT CAVOK TX16/0611Z TN03/0523Z"
    }
  ]
}