{
  "ts_utc": "2026-01-19T19:36:04Z",
  "threshold_m": 150,
  "source": "stations_override.txt (ICAO list) + aviationweather.gov (METAR/TAF raw)",
  "station_count": 159,
  "stations": [
    {
      "icao": "BIKF",
      "alert": "OK",
      "vis_m": 8000,
      "fzfg": false,
      "metar_trigger": false,
      "taf_trigger": false,
      "metar": "METAR BIKF 191930Z 15026G43KT 8000 SHRA SCT014CB BKN025 BKN070 02/01 Q0994",
      "taf": "TAF BIKF 191935Z 1921/2021 15020G30KT 9999 -SHRA FEW015 BKN035 TX06/2012Z TN02/2018Z"
    },
    {
      "icao": "BKPR",
      "alert": "OK",
      "vis_m": 9999,
      "fzfg": false,
      "metar_trigger": false,
      "taf_trigger": false,
      "metar": "METAR BKPR 191930Z 35008KT CAVOK M04/M07 Q1031 NOSIG",
      "taf": "TAF BKPR 191730Z 1918/2018 02008KT CAVOK"
    },
    {
      "icao": "EBCI",
      "alert": "OK",
      "vis_m": 9999,
      "fzfg": false,
      "metar_trigger": false,
      "taf_trigger": false,
      "metar": "METAR EBCI 191920Z 16006KT 150V210 CAVOK 06/04 Q1018 NOSIG",
      "taf": "TAF EBCI 191710Z 1918/2024 17007KT CAVOK"
    },
    {
      "icao": "EDDB",
      "alert": "OK",
      "vis_m": 9999,
      "fzfg": false,
      "metar_trigger": false,
      "taf_trigger": false,
      "metar": "METAR EDDB 191920Z AUTO 13006KT CAVOK M00/M07 Q1024 NOSIG",
      "taf": "TAF EDDB 191700Z 1918/2018 14007KT CAVOK"
    },
    {
      "icao": "EDDH",
      "alert": "OK",
      "vis_m": 9999,
      "fzfg": false,
      "metar_trigger": false,
      "taf_trigger": false,
      "metar": "METAR EDDH 191920Z AUTO 12006KT CAVOK M01/M04 Q1021 NOSIG",
      "taf": "TAF EDDH 191700Z 1918/2024 11006KT CAVOK"
    },
    {
      "icao": "EDDK",
      "alert": "OK",
      "vis_m": 8000,
      "fzfg": false,
      "metar_trigger": false,
      "taf_trigger": false,
      "metar": "METAR EDDK 191920Z AUTO 13010KT 8000 OVC008 01/M01 Q1021 NOSIG",
      "taf": "TAF EDDK 191700Z 1918/2024 12007KT 9999 OVC010"
    },
    {
      "icao": "EDDN",
      "alert": "OK",
      "vis_m": 9999,
      "fzfg": false,
      "metar_trigger": false,
      "taf_trigger": false,
      "metar": "METAR EDDN 191920Z AUTO 11008KT CAVOK M01/M06 Q1021 NOSIG",
      "taf": "TAF EDDN 191700Z 1918/2018 11008KT CAVOK"
    },
    {
      "icao": "EDDS",
      "alert": "OK",
      "vis_m": 9999,
      "fzfg": false,
      "metar_trigger": false,
      "taf_trigger": false,
      "metar": "METAR EDDS 191920Z AUTO VRB01KT CAVOK M01/M02 Q1019 NOSIG",
      "taf": "TAF EDDS 191700Z 1918/2018 VRB03KT CAVOK"
    },
    {
      "icao": "EDFH",
      "alert": "OK",
      "vis_m": 250,
      "fzfg": true,
      "metar_trigger": false,
      "taf_trigger": false,
      "metar": "METAR EDFH 191920Z 13008KT 100V160 0250 R21/0300N FZFG VV/// M02/M02 Q1018",
      "taf": "TAF EDFH 191700Z 1918/2018 14010KT 0400 FZFG OVC001"
    },
    {
      "icao": "EDJA",
      "alert": "OK",
      "vis_m": 5000,
      "fzfg": false,
      "metar_trigger": false,
      "taf_trigger": false,
      "metar": "METAR EDJA 191920Z VRB02KT 5000 FEW004 M02/M02 Q1019",
      "taf": "TAF EDJA 191700Z 1918/2003 05004KT CAVOK"
    },
    {
      "icao": "EDLW",
      "alert": "OK",
      "vis_m": 9999,
      "fzfg": false,
      "metar_trigger": false,
      "taf_trigger": false,
      "metar": "METAR EDLW 191920Z 16007KT CAVOK 01/M02 Q1019",
      "taf": "TAF EDLW 191700Z 1918/2018 14004KT CAVOK"
    },
    {
      "icao": "EDNY",
      "alert": "OK",
      "vis_m": 5000,
      "fzfg": false,
      "metar_trigger": false,
      "taf_trigger": false,
      "metar": "METAR EDNY 191920Z 05003KT 010V080 5000 BR OVC002 M01/M01 Q1020",
      "taf": "TAF EDNY 191700Z 1918/2003 04003KT CAVOK"
    },
    {
      "icao": "EDSB",
      "alert": "OK",
      "vis_m": 6000,
      "fzfg": false,
      "metar_trigger": false,
      "taf_trigger": false,
      "metar": "METAR EDSB 191920Z 02005KT 360V060 6000 OVC005 01/00 Q1020",
      "taf": "TAF EDSB 191700Z 1918/2018 07005KT 7000 OVC006"
    },
    {
      "icao": "EETN",
      "alert": "OK",
      "vis_m": 600,
      "fzfg": false,
      "metar_trigger": false,
      "taf_trigger": false,
      "metar": "METAR EETN 191920Z 18003KT 0600 R08/1400U FG VV002 M07/M08 Q1032 NOSIG",
      "taf": ""
    },
    {
      "icao": "EFTU",
      "alert": "OK",
      "vis_m": 9999,
      "fzfg": false,
      "metar_trigger": false,
      "taf_trigger": false,
      "metar": "METAR EFTU 191920Z AUTO 13005KT 9999 OVC010 M01/M02 Q1030",
      "taf": "TAF EFTU 191737Z 1918/2018 15005KT 9999 BKN008"
    },
    {
      "icao": "EGBB",
      "alert": "OK",
      "vis_m": 7000,
      "fzfg": false,
      "metar_trigger": false,
      "taf_trigger": false,
      "metar": "METAR EGBB 191920Z 14007KT 7000 BKN007 09/08 Q1011 REDZ",
      "taf": "TAF EGBB 191656Z 1918/2018 14005KT 9999 SCT018"
    },
    {
      "icao": "EGGP",
      "alert": "OK",
      "vis_m": 4500,
      "fzfg": false,
      "metar_trigger": false,
      "taf_trigger": false,
      "metar": "METAR EGGP 191920Z 11004KT 4500 -RADZ SCT005 BKN033 06/05 Q1010",
      "taf": "TAF EGGP 191701Z 1918/2018 15008KT 9999 FEW010 SCT020"
    },
    {
      "icao": "EGGW",
      "alert": "OK",
      "vis_m": 9999,
      "fzfg": false,
      "metar_trigger": false,
      "taf_trigger": false,
      "metar": "METAR EGGW 191920Z AUTO 16007KT 9999 -RA OVC010 08/08 Q1013",
      "taf": "TAF EGGW 191657Z 1918/2018 16010KT 9999 SCT010 BKN020"
    },
    {
      "icao": "EGKK",
      "alert": "OK",
      "vis_m": 9999,
      "fzfg": false,
      "metar_trigger": false,
      "taf_trigger": false,
      "metar": "METAR EGKK 191920Z 13005KT 9999 -RA SCT009 BKN012 09/09 Q1014",
      "taf": ""
    },
    {
      "icao": "EGNM",
      "alert": "OK",
      "vis_m": 100,
      "fzfg": false,
      "metar_trigger": false,
      "taf_trigger": false,
      "metar": "METAR EGNM 191920Z 12007KT 0100 R32/0400N FG VV/// 08/07 Q1011",
      "taf": "TAF EGNM 191704Z 1918/2018 14007KT 0300 FG VV///"
    },
    {
      "icao": "EGPD",
      "alert": "OK",
      "vis_m": 800,
      "fzfg": false,
      "metar_trigger": false,
      "taf_trigger": false,
      "metar": "METAR EGPD 191920Z VRB01KT 0800 R16/0650D FG VV/// 06/06 Q1012",
      "taf": ""
    },
    {
      "icao": "EGPF",
      "alert": "OK",
      "vis_m": 7000,
      "fzfg": false,
      "metar_trigger": false,
      "taf_trigger": false,
      "metar": "METAR EGPF 191920Z AUTO 08005KT 030V100 7000 NCD 03/02 Q1011",
      "taf": "TAF EGPF 191704Z 1918/2018 07006KT 9999 FEW015 SCT030"
    },
    {
      "icao": "EHBK",
      "alert": "OK",
      "vis_m": 9999,
      "fzfg": false,
      "metar_trigger": false,
      "taf_trigger": false,
      "metar": "METAR EHBK 191925Z AUTO 10003KT 9999 NSC 02/00 Q1019 NOSIG",
      "taf": "TAF EHBK 191711Z 1918/2024 11003KT CAVOK"
    },
    {
      "icao": "EHEH",
      "alert": "OK",
      "vis_m": 9999,
      "fzfg": false,
      "metar_trigger": false,
      "taf_trigger": false,
      "metar": "METAR EHEH 191925Z AUTO 13006KT 110V210 9999 FEW052 SCT060 BKN067 03/01 Q1019 BLU NOSIG RMK TREND REMOTE BY EHWX",
      "taf": "TAF EHEH 191712Z 1918/2024 14005KT CAVOK"
    },
    {
      "icao": "EKBI",
      "alert": "OK",
      "vis_m": 9999,
      "fzfg": false,
      "metar_trigger": false,
      "taf_trigger": false,
      "metar": "METAR EKBI 191920Z AUTO 10005KT 9999 NCD M01/M03 Q1021",
      "taf": "TAF EKBI 191727Z 1918/2018 12008KT CAVOK"
    },
    {
      "icao": "EKCH",
      "alert": "OK",
      "vis_m": 9999,
      "fzfg": false,
      "metar_trigger": false,
      "taf_trigger": false,
      "metar": "METAR EKCH 191920Z AUTO 15013KT 9999 NCD 02/M01 Q1024 NOSIG",
      "taf": "TAF EKCH 191727Z 1918/2018 11015KT CAVOK"
    },
    {
      "icao": "ENAL",
      "alert": "OK",
      "vis_m": 9999,
      "fzfg": false,
      "metar_trigger": false,
      "taf_trigger": false,
      "metar": "METAR ENAL 191920Z 10003KT 9999 FEW053 04/02 Q1020",
      "taf": "TAF ENAL 191700Z 1918/2003 VRB05KT 9999 -RA FEW010 BKN040"
    },
    {
      "icao": "ENBR",
      "alert": "OK",
      "vis_m": 9999,
      "fzfg": false,
      "metar_trigger": false,
      "taf_trigger": false,
      "metar": "METAR ENBR 191920Z 07002KT CAVOK 02/02 Q1020 NOSIG RMK WIND 1200FT 17005KT",
      "taf": ""
    },
    {
      "icao": "ENGM",
      "alert": "OK",
      "vis_m": 9999,
      "fzfg": false,
      "metar_trigger": false,
      "taf_trigger": false,
      "metar": "METAR ENGM 191920Z VRB02KT 9999 OVC020 M01/M03 Q1026 TEMPO BKN014",
      "taf": "TAF ENGM 191700Z 1918/2018 14005KT 9999 -SN FEW008 BKN020"
    },
    {
      "icao": "ENHD",
      "alert": "OK",
      "vis_m": 9999,
      "fzfg": false,
      "metar_trigger": false,
      "taf_trigger": false,
      "metar": "METAR ENHD 191920Z 16005KT CAVOK 02/01 Q1020",
      "taf": "TAF ENHD 191400Z 1915/1923 16008KT 9999 FEW050"
    },
    {
      "icao": "ENTC",
      "alert": "OK",
      "vis_m": 200,
      "fzfg": true,
      "metar_trigger": false,
      "taf_trigger": false,
      "metar": "METAR ENTC 191920Z 06003KT 020V110 0200 R36/0800N R18/0550N FZFG VV001 M01/M02 Q1027 NOSIG RMK WIND 2600FT 09006KT",
      "taf": ""
    },
    {
      "icao": "ENTO",
      "alert": "OK",
      "vis_m": 9999,
      "fzfg": false,
      "metar_trigger": false,
      "taf_trigger": false,
      "metar": "METAR ENTO 191920Z 03003KT 010V070 9999 OVC022 M00/M00 Q1026 TEMPO BKN012",
      "taf": "TAF ENTO 191700Z 1918/2018 03008KT 9999 BKN018"
    },
    {
      "icao": "ENVA",
      "alert": "OK",
      "vis_m": 9999,
      "fzfg": false,
      "metar_trigger": false,
      "taf_trigger": false,
      "metar": "METAR ENVA 191920Z VRB02KT CAVOK M01/M03 Q1023 NOSIG RMK WIND 670FT 13006KT",
      "taf": "TAF ENVA 191700Z 1918/2018 09005KT CAVOK"
    },
    {
      "icao": "ENZV",
      "alert": "OK",
      "vis_m": 9999,
      "fzfg": false,
      "metar_trigger": false,
      "taf_trigger": false,
      "metar": "METAR ENZV 191920Z 18005KT CAVOK 02/M02 Q1021 NOSIG",
      "taf": "TAF ENZV 191700Z 1918/2018 12005KT CAVOK"
    },
    {
      "icao": "EPGD",
      "alert": "OK",
      "vis_m": 8000,
      "fzfg": false,
      "metar_trigger": false,
      "taf_trigger": false,
      "metar": "METAR EPGD 191930Z 18005KT 8000 NSC M07/M10 Q1029",
      "taf": "TAF EPGD 191730Z 1918/2018 16006KT 7000 NSC"
    },
    {
      "icao": "EPKK",
      "alert": "OK",
      "vis_m": 3000,
      "fzfg": false,
      "metar_trigger": false,
      "taf_trigger": false,
      "metar": "METAR EPKK 191930Z 05002KT 3000 BR NSC M10/M12 Q1033",
      "taf": "TAF EPKK 191730Z 1918/2018 VRB02KT 4000 BR NSC"
    },
    {
      "icao": "EPKT",
      "alert": "OK",
      "vis_m": 5000,
      "fzfg": false,
      "metar_trigger": false,
      "taf_trigger": false,
      "metar": "METAR EPKT 191930Z 15006KT 5000 BR NSC M06/M09 Q1032",
      "taf": "TAF EPKT 191730Z 1918/2018 14006KT 6000 NSC"
    },
    {
      "icao": "EPLB",
      "alert": "OK",
      "vis_m": 5000,
      "fzfg": false,
      "metar_trigger": false,
      "taf_trigger": false,
      "metar": "METAR EPLB 191930Z 13002KT 5000 BR NSC M13/M14 Q1034",
      "taf": "TAF EPLB 191730Z 1918/2018 10004KT 5000 BR NSC"
    },
    {
      "icao": "EPMO",
      "alert": "OK",
      "vis_m": 3500,
      "fzfg": false,
      "metar_trigger": false,
      "taf_trigger": false,
      "metar": "METAR EPMO 191930Z 11004KT 3500 BR NSC M12/M13 Q1033",
      "taf": "TAF EPMO 191730Z 1918/2018 12006KT 5000 BR NSC"
    },
    {
      "icao": "EPPO",
      "alert": "OK",
      "vis_m": 9999,
      "fzfg": false,
      "metar_trigger": false,
      "taf_trigger": false,
      "metar": "METAR EPPO 191930Z 13013KT CAVOK M01/M05 Q1028",
      "taf": "TAF EPPO 191730Z 1918/2018 11010KT CAVOK"
    },
    {
      "icao": "EPRA",
      "alert": "OK",
      "vis_m": 9999,
      "fzfg": false,
      "metar_trigger": false,
      "taf_trigger": false,
      "metar": "METAR EPRA 191930Z 16009KT CAVOK M08/M13 Q1033",
      "taf": "TAF EPRA 191730Z 1918/2003 15008KT CAVOK"
    },
    {
      "icao": "EPRZ",
      "alert": "OK",
      "vis_m": 5000,
      "fzfg": false,
      "metar_trigger": false,
      "taf_trigger": false,
      "metar": "METAR EPRZ 191930Z 09005KT 5000 BR NSC M10/M13 Q1034",
      "taf": "TAF EPRZ 191730Z 1918/2018 10008KT 7000 NSC"
    },
    {
      "icao": "EPSC",
      "alert": "OK",
      "vis_m": 9999,
      "fzfg": false,
      "metar_trigger": false,
      "taf_trigger": false,
      "metar": "METAR EPSC 191930Z 13011KT CAVOK M00/M05 Q1026",
      "taf": "TAF EPSC 191730Z 1918/2018 14010KT CAVOK"
    },
    {
      "icao": "EPSY",
      "alert": "OK",
      "vis_m": 3600,
      "fzfg": false,
      "metar_trigger": false,
      "taf_trigger": false,
      "metar": "METAR EPSY 191930Z 00000KT 3600 BR NSC M17/M19 Q1033",
      "taf": "TAF EPSY 191730Z 1918/2003 VRB02KT 8000 NSC"
    },
    {
      "icao": "EPWA",
      "alert": "OK",
      "vis_m": 7000,
      "fzfg": false,
      "metar_trigger": false,
      "taf_trigger": false,
      "metar": "METAR EPWA 191930Z 13004KT 7000 NSC M11/M13 Q1033 NOSIG",
      "taf": "TAF EPWA 191730Z 1918/2018 13005KT 7000 NSC"
    },
    {
      "icao": "EPWR",
      "alert": "OK",
      "vis_m": 9999,
      "fzfg": false,
      "metar_trigger": false,
      "taf_trigger": false,
      "metar": "METAR EPWR 191930Z 14015KT CAVOK M00/M07 Q1028",
      "taf": "TAF EPWR 191730Z 1918/2018 15010KT CAVOK"
    },
    {
      "icao": "ESGG",
      "alert": "OK",
      "vis_m": 9999,
      "fzfg": false,
      "metar_trigger": false,
      "taf_trigger": false,
      "metar": "METAR ESGG 191920Z 10008KT CAVOK M04/M05 Q1024",
      "taf": "TAF ESGG 191730Z 1918/2018 11009KT 9999 FEW007"
    },
    {
      "icao": "ESKN",
      "alert": "OK",
      "vis_m": 9000,
      "fzfg": false,
      "metar_trigger": false,
      "taf_trigger": false,
      "metar": "METAR ESKN 191920Z 19006KT 9000 OVC007 00/M01 Q1028",
      "taf": "TAF ESKN 191730Z 1918/2018 16005KT 9999 BKN007"
    },
    {
      "icao": "ESMS",
      "alert": "OK",
      "vis_m": 9999,
      "fzfg": false,
      "metar_trigger": false,
      "taf_trigger": false,
      "metar": "METAR ESMS 191920Z 15009KT CAVOK 01/M01 Q1024",
      "taf": "TAF ESMS 191727Z 1918/2018 12010KT CAVOK"
    },
    {
      "icao": "ESSA",
      "alert": "OK",
      "vis_m": 9999,
      "fzfg": false,
      "metar_trigger": false,
      "taf_trigger": false,
      "metar": "METAR ESSA 191920Z 18007KT 9999 BKN009 M01/M02 Q1028 NOSIG",
      "taf": "TAF ESSA 191730Z 1918/2018 16007KT 9999 OVC007"
    },
    {
      "icao": "EYKA",
      "alert": "OK",
      "vis_m": 9000,
      "fzfg": false,
      "metar_trigger": false,
      "taf_trigger": false,
      "metar": "METAR EYKA 191920Z 16003KT 120V220 9000 NSC M12/M14 Q1034",
      "taf": "TAF EYKA 191700Z 1918/2018 VRB04KT 9000 NSC"
    },
    {
      "icao": "EYPA",
      "alert": "OK",
      "vis_m": 9999,
      "fzfg": false,
      "metar_trigger": false,
      "taf_trigger": false,
      "metar": "METAR EYPA 191920Z 16007KT CAVOK M10/M13 Q1032",
      "taf": "TAF EYPA 191700Z 1918/2018 15008KT 9000 NSC"
    },
    {
      "icao": "EYVI",
      "alert": "OK",
      "vis_m": 7000,
      "fzfg": false,
      "metar_trigger": false,
      "taf_trigger": false,
      "metar": "METAR EYVI 191920Z 18006KT 7000 NSC M14/M16 Q1034 NOSIG",
      "taf": "TAF EYVI 191700Z 1918/2018 17008KT 5000 BR NSC"
    },
    {
      "icao": "GCFV",
      "alert": "OK",
      "vis_m": 9999,
      "fzfg": false,
      "metar_trigger": false,
      "taf_trigger": false,
      "metar": "METAR GCFV 191930Z 01019KT 9999 SCT030 17/10 Q1023",
      "taf": "TAF GCFV 191400Z 1915/2015 02020KT 9999 SCT035 TX21/2014Z TN14/2006Z"
    },
    {
      "icao": "GCLP",
      "alert": "OK",
      "vis_m": 9999,
      "fzfg": false,
      "metar_trigger": false,
      "taf_trigger": false,
      "metar": "METAR GCLP 191930Z 02020KT 9999 FEW035 17/10 Q1023 NOSIG",
      "taf": "TAF GCLP 191400Z 1915/2015 02023KT 9999 BKN035 TX20/2014Z TN16/2006Z"
    },
    {
      "icao": "GCTS",
      "alert": "OK",
      "vis_m": 9999,
      "fzfg": false,
      "metar_trigger": false,
      "taf_trigger": false,
      "metar": "METAR GCTS 191930Z 07019KT 9999 FEW040 17/09 Q1023 NOSIG",
      "taf": "TAF GCTS 191400Z 1915/2015 08020KT 9999 SCT040 TX22/2014Z TN14/2006Z"
    },
    {
      "icao": "GMAD",
      "alert": "OK",
      "vis_m": 9999,
      "fzfg": false,
      "metar_trigger": false,
      "taf_trigger": false,
      "metar": "METAR GMAD 191930Z 04004KT CAVOK 13/02 Q1018 NOSIG",
      "taf": "TAF GMAD 191700Z 1918/2024 20008KT 8000 SCT020"
    },
    {
      "icao": "GMMN",
      "alert": "OK",
      "vis_m": 9999,
      "fzfg": false,
      "metar_trigger": false,
      "taf_trigger": false,
      "metar": "METAR GMMN 191930Z 27003KT 9999 SCT030 09/06 Q1022 NOSIG",
      "taf": "TAF GMMN 191700Z 1918/2024 34008KT 9999 SCT030"
    },
    {
      "icao": "GMMX",
      "alert": "OK",
      "vis_m": 8000,
      "fzfg": false,
      "metar_trigger": false,
      "taf_trigger": false,
      "metar": "METAR GMMX 191930Z VRB02KT 8000 NSC 10/06 Q1021 NOSIG",
      "taf": "TAF GMMX 191700Z 1918/2024 06006KT 8000 BKN023 SCT080"
    },
    {
      "icao": "HEGN",
      "alert": "OK",
      "vis_m": 9999,
      "fzfg": false,
      "metar_trigger": false,
      "taf_trigger": false,
      "metar": "METAR HEGN 191900Z 33010KT CAVOK 17/06 Q1019 NOSIG",
      "taf": "TAF HEGN 191700Z 1918/2024 30012KT CAVOK"
    },
    {
      "icao": "HEMA",
      "alert": "OK",
      "vis_m": 9999,
      "fzfg": false,
      "metar_trigger": false,
      "taf_trigger": false,
      "metar": "METAR HEMA 191900Z 28008KT CAVOK 17/08 Q1018 NOSIG",
      "taf": "TAF HEMA 191700Z 1918/2024 31012KT CAVOK"
    },
    {
      "icao": "HESH",
      "alert": "OK",
      "vis_m": 9999,
      "fzfg": false,
      "metar_trigger": false,
      "taf_trigger": false,
      "metar": "METAR HESH 191900Z 34006KT CAVOK 18/07 Q1018 NOSIG",
      "taf": "TAF HESH 191700Z 1918/2024 33010KT CAVOK"
    },
    {
      "icao": "HESX",
      "alert": "OK",
      "vis_m": 9999,
      "fzfg": false,
      "metar_trigger": false,
      "taf_trigger": false,
      "metar": "METAR HESX 191900Z 36006KT CAVOK 12/08 Q1020 NOSIG",
      "taf": "TAF HESX 191700Z 1918/2024 01008KT CAVOK"
    },
    {
      "icao": "LATI",
      "alert": "OK",
      "vis_m": 9999,
      "fzfg": false,
      "metar_trigger": false,
      "taf_trigger": false,
      "metar": "METAR LATI 191920Z 00000KT CAVOK 02/M04 Q1026 NOSIG",
      "taf": "TAF LATI 191700Z 1918/2018 VRB05KT CAVOK TX13/2012Z TNM05/2005Z"
    },
    {
      "icao": "LBPD",
      "alert": "OK",
      "vis_m": 9999,
      "fzfg": false,
      "metar_trigger": false,
      "taf_trigger": false,
      "metar": "METAR LBPD 191930Z AUTO 26002KT 9999 BKN053/// M03/M06 Q1036 NOSIG",
      "taf": "TAF LBPD 191700Z 1918/2018 VRB03KT 9999 SCT030"
    },
    {
      "icao": "LBSF",
      "alert": "OK",
      "vis_m": 9999,
      "fzfg": false,
      "metar_trigger": false,
      "taf_trigger": false,
      "metar": "METAR LBSF 191930Z AUTO 12005KT 9999 NCD M07/M09 Q1034 NOSIG",
      "taf": ""
    },
    {
      "icao": "LBWN",
      "alert": "OK",
      "vis_m": 9999,
      "fzfg": false,
      "metar_trigger": false,
      "taf_trigger": false,
      "metar": "METAR LBWN 191930Z AUTO 30007KT 260V330 9999 OVC014/// M04/M06 Q1037 NOSIG",
      "taf": "TAF LBWN 191700Z 1918/2018 32010KT 9999 BKN010"
    },
    {
      "icao": "LCLK",
      "alert": "OK",
      "vis_m": 9999,
      "fzfg": false,
      "metar_trigger": false,
      "taf_trigger": false,
      "metar": "METAR LCLK 191930Z 31006KT CAVOK 05/00 Q1022 NOSIG",
      "taf": "TAF LCLK 191730Z 1918/2018 34009KT 9999 FEW030"
    },
    {
      "icao": "LCPH",
      "alert": "OK",
      "vis_m": 9999,
      "fzfg": false,
      "metar_trigger": false,
      "taf_trigger": false,
      "metar": "METAR LCPH 191930Z 07007KT 9999 FEW035 08/00 Q1021 NOSIG",
      "taf": "TAF LCPH 191730Z 1918/2018 06008KT 9999 FEW030 SCT045"
    },
    {
      "icao": "LEAL",
      "alert": "OK",
      "vis_m": 9999,
      "fzfg": false,
      "metar_trigger": false,
      "taf_trigger": false,
      "metar": "METAR LEAL 191930Z 32009KT 9999 FEW030 OVC065 13/06 Q1013 NOSIG",
      "taf": "TAF LEAL 191700Z 1918/2018 32005KT 9999 FEW035 TX17/2013Z TN10/2006Z"
    },
    {
      "icao": "LEBB",
      "alert": "OK",
      "vis_m": 9999,
      "fzfg": false,
      "metar_trigger": false,
      "taf_trigger": false,
      "metar": "METAR LEBB 191900Z 28006KT 9999 SCT039 BKN050 10/08 Q1019 TEMPO RA",
      "taf": "TAF LEBB 191700Z 1918/2018 VRB03KT 9999 BKN030 TX13/2013Z TN02/2007Z"
    },
    {
      "icao": "LEBL",
      "alert": "OK",
      "vis_m": 9999,
      "fzfg": false,
      "metar_trigger": false,
      "taf_trigger": false,
      "metar": "METAR LEBL 191930Z 02010KT 9999 -RA FEW017 SCT021 BKN028 11/10 Q1014 NOSIG",
      "taf": "TAF LEBL 191700Z 1918/2018 01013KT 9999 SCT020 BKN030 TX14/2013Z TN09/2006Z"
    },
    {
      "icao": "LECH",
      "alert": "OK",
      "vis_m": 9999,
      "fzfg": false,
      "metar_trigger": false,
      "taf_trigger": false,
      "metar": "METAR LECH 191930Z AUTO 01010KT 350V050 9999 BKN060 11/04 Q1014",
      "taf": ""
    },
    {
      "icao": "LEMD",
      "alert": "OK",
      "vis_m": 9999,
      "fzfg": false,
      "metar_trigger": false,
      "taf_trigger": false,
      "metar": "METAR LEMD 191930Z 34007KT 310V010 9999 FEW060 06/02 Q1017 NOSIG",
      "taf": "TAF LEMD 191700Z 1918/2024 VRB04KT CAVOK TX12/2014Z TNM03/2006Z"
    },
    {
      "icao": "LEMG",
      "alert": "OK",
      "vis_m": 9999,
      "fzfg": false,
      "metar_trigger": false,
      "taf_trigger": false,
      "metar": "METAR LEMG 191930Z 30012KT CAVOK 11/03 Q1017 NOSIG",
      "taf": "TAF LEMG 191700Z 1918/2018 29012KT CAVOK TX14/2014Z TN05/2006Z"
    },
    {
      "icao": "LEVC",
      "alert": "OK",
      "vis_m": 9999,
      "fzfg": false,
      "metar_trigger": false,
      "taf_trigger": false,
      "metar": "METAR LEVC 191930Z 28004KT 9999 -RA FEW022 BKN055 10/09 Q1014 NOSIG",
      "taf": "TAF LEVC 191700Z 1918/2018 30007KT 9999 SCT035 TX15/2013Z TN07/2006Z"
    },
    {
      "icao": "LEXJ",
      "alert": "OK",
      "vis_m": 9999,
      "fzfg": false,
      "metar_trigger": false,
      "taf_trigger": false,
      "metar": "METAR LEXJ 191930Z 27009KT 9999 SCT035 SCT045 BKN055 11/05 Q1020",
      "taf": "TAF LEXJ 191400Z 1915/2015 22009KT 9999 SCT040 TX13/2014Z TN05/2006Z"
    },
    {
      "icao": "LEZG",
      "alert": "OK",
      "vis_m": 9999,
      "fzfg": false,
      "metar_trigger": false,
      "taf_trigger": false,
      "metar": "METAR LEZG 191930Z 28009KT 9999 FEW050 10/05 Q1016 NOSIG",
      "taf": "TAF LEZG 191700Z 1918/2018 30010KT 9999 SCT030 TX10/2015Z TN03/2006Z"
    },
    {
      "icao": "LEZL",
      "alert": "OK",
      "vis_m": 9999,
      "fzfg": false,
      "metar_trigger": false,
      "taf_trigger": false,
      "metar": "METAR LEZL 191930Z 35005KT 290V020 CAVOK 12/05 Q1019 NOSIG",
      "taf": "TAF LEZL 191400Z 1915/2015 36003KT CAVOK TX16/1915Z TN04/2007Z"
    },
    {
      "icao": "LFBD",
      "alert": "OK",
      "vis_m": 6000,
      "fzfg": false,
      "metar_trigger": false,
      "taf_trigger": false,
      "metar": "METAR LFBD 191930Z AUTO 16003KT 6000 0750 R23/P2300 R05/1100D R29/P2300 BCFG NSC 08/07 Q1018 NOSIG",
      "taf": "TAF LFBD 191700Z 1918/2024 VRB03KT 9999 SCT030 TX12/2013Z TN04/2007Z"
    },
    {
      "icao": "LFLL",
      "alert": "OK",
      "vis_m": 650,
      "fzfg": false,
      "metar_trigger": false,
      "taf_trigger": false,
      "metar": "METAR LFLL 191930Z VRB02KT 0650 R35L/0600N R17R/0800N R35R/0600N R17L/1000D FG VV/// 03/03 Q1019 NOSIG",
      "taf": "TAF LFLL 191700Z 1918/2024 VRB02KT 1200 BR OVC001"
    },
    {
      "icao": "LFLS",
      "alert": "OK",
      "vis_m": 500,
      "fzfg": false,
      "metar_trigger": false,
      "taf_trigger": false,
      "metar": "METAR LFLS 191930Z AUTO 32005KT 0500 0450 R09/0275D R27/0400D FG VV/// 03/03 Q1018 TEMPO 0600 FG",
      "taf": ""
    },
    {
      "icao": "LFMN",
      "alert": "OK",
      "vis_m": 9999,
      "fzfg": false,
      "metar_trigger": false,
      "taf_trigger": false,
      "metar": "METAR LFMN 191930Z 08018KT CAVOK 14/07 Q1017 NOSIG",
      "taf": ""
    },
    {
      "icao": "LFOB",
      "alert": "OK",
      "vis_m": 9999,
      "fzfg": false,
      "metar_trigger": false,
      "taf_trigger": false,
      "metar": "METAR LFOB 191930Z AUTO 13003KT CAVOK 07/06 Q1017 TEMPO 4000 BR",
      "taf": "TAF LFOB 191700Z 1918/2018 12005KT 8000 NSC"
    },
    {
      "icao": "LFPO",
      "alert": "OK",
      "vis_m": 9999,
      "fzfg": false,
      "metar_trigger": false,
      "taf_trigger": false,
      "metar": "METAR LFPO 191930Z AUTO 11003KT CAVOK 08/05 Q1018",
      "taf": "TAF LFPO 191700Z 1918/2024 11005KT CAVOK"
    },
    {
      "icao": "LFSB",
      "alert": "OK",
      "vis_m": 8000,
      "fzfg": true,
      "metar_trigger": false,
      "taf_trigger": false,
      "metar": "METAR LFSB 191930Z AUTO VRB02KT 8000 OVC004 01/00 Q1020 TEMPO 0300 FZFG VV///",
      "taf": ""
    },
    {
      "icao": "LGAV",
      "alert": "OK",
      "vis_m": 9999,
      "fzfg": false,
      "metar_trigger": false,
      "taf_trigger": false,
      "metar": "METAR LGAV 191920Z 01014KT 9999 FEW020 BKN040 05/M00 Q1030 NOSIG",
      "taf": ""
    },
    {
      "icao": "LGTS",
      "alert": "OK",
      "vis_m": 9999,
      "fzfg": false,
      "metar_trigger": false,
      "taf_trigger": false,
      "metar": "METAR LGTS 191920Z 12006KT 9999 FEW020 SCT035 01/M05 Q1035 NOSIG",
      "taf": "TAF LGTS 191700Z 1918/2018 11008KT 9999 SCT030"
    },
    {
      "icao": "LHBP",
      "alert": "OK",
      "vis_m": 3200,
      "fzfg": false,
      "metar_trigger": false,
      "taf_trigger": false,
      "metar": "METAR LHBP 191930Z 08006KT 050V110 3200 -SG BR OVC003 M07/M08 Q1037 TEMPO 2000 BR OVC002",
      "taf": "TAF LHBP 191715Z 1918/2018 09005KT 5000 BR BKN007"
    },
    {
      "icao": "LHDC",
      "alert": "OK",
      "vis_m": 4800,
      "fzfg": false,
      "metar_trigger": false,
      "taf_trigger": false,
      "metar": "METAR LHDC 191915Z AUTO VRB01KT 4800 BR OVC003 M06/M07 Q1038 NOSIG",
      "taf": "TAF LHDC 191715Z 1918/2003 VRB02KT 3000 BR OVC002"
    },
    {
      "icao": "LIBD",
      "alert": "OK",
      "vis_m": 9999,
      "fzfg": false,
      "metar_trigger": false,
      "taf_trigger": false,
      "metar": "METAR LIBD 191920Z 12006KT 9999 BKN045 10/05 Q1024",
      "taf": "TAF LIBD 191700Z 1918/2018 16008KT 9999 SCT040"
    },
    {
      "icao": "LIBG",
      "alert": "OK",
      "vis_m": 9999,
      "fzfg": false,
      "metar_trigger": false,
      "taf_trigger": false,
      "metar": "METAR LIBG 191850Z 07006KT CAVOK 10/07 Q1023",
      "taf": "TAF LIBG 191700Z 1918/2003 11008KT 9999 SCT030"
    },
    {
      "icao": "LIBP",
      "alert": "OK",
      "vis_m": 9999,
      "fzfg": false,
      "metar_trigger": false,
      "taf_trigger": false,
      "metar": "METAR LIBP 191920Z AUTO VRB01KT 9999 FEW031/// OVC053/// 09/08 Q1024",
      "taf": "TAF LIBP 191700Z 1918/2018 10010KT 9999 BKN030"
    },
    {
      "icao": "LIBR",
      "alert": "OK",
      "vis_m": 9999,
      "fzfg": false,
      "metar_trigger": false,
      "taf_trigger": false,
      "metar": "METAR LIBR 191920Z 16004KT CAVOK 10/04 Q1024",
      "taf": "TAF LIBR 191700Z 1918/2018 VRB05KT 9999 SCT040"
    },
    {
      "icao": "LICA",
      "alert": "OK",
      "vis_m": 9999,
      "fzfg": false,
      "metar_trigger": false,
      "taf_trigger": false,
      "metar": "METAR LICA 191920Z AUTO 08020KT 9999 -DZRA BKN038/// BKN110/// 13/09 Q1019",
      "taf": "TAF LICA 191700Z 1918/2018 09024G40KT 9999 SCT020 BKN060"
    },
    {
      "icao": "LICC",
      "alert": "OK",
      "vis_m": 5000,
      "fzfg": false,
      "metar_trigger": false,
      "taf_trigger": false,
      "metar": "METAR LICC 191920Z 10023G33KT 5000 R08/1400N -RA BKN015 BKN040 14/11 Q1016",
      "taf": "TAF LICC 191700Z 1918/2018 10023G40KT 4000 RA BKN015"
    },
    {
      "icao": "LICJ",
      "alert": "OK",
      "vis_m": 9999,
      "fzfg": false,
      "metar_trigger": false,
      "taf_trigger": false,
      "metar": "METAR LICJ 191920Z 08021KT 9999 -RA SCT040 BKN070 15/10 Q1011",
      "taf": "TAF LICJ 191700Z 1918/2018 10025G45KT 9999 SCT040 BKN060"
    },
    {
      "icao": "LIMC",
      "alert": "OK",
      "vis_m": 9999,
      "fzfg": false,
      "metar_trigger": false,
      "taf_trigger": false,
      "metar": "METAR LIMC 191920Z 21002KT 9999 SCT040 SCT060 05/01 Q1027 NOSIG",
      "taf": "TAF LIMC 191700Z 1918/2024 VRB04KT 9999 SCT050 SCT090"
    },
    {
      "icao": "LIME",
      "alert": "OK",
      "vis_m": 9999,
      "fzfg": false,
      "metar_trigger": false,
      "taf_trigger": false,
      "metar": "METAR LIME 191920Z 19003KT 160V230 9999 BKN045 05/M02 Q1027 NOSIG",
      "taf": "TAF LIME 191700Z 1918/2018 VRB04KT 9999 BKN040"
    },
    {
      "icao": "LIMF",
      "alert": "OK",
      "vis_m": 9999,
      "fzfg": false,
      "metar_trigger": false,
      "taf_trigger": false,
      "metar": "METAR LIMF 191920Z 01002KT 9999 BKN040 OVC060 05/00 Q1027",
      "taf": "TAF LIMF 191700Z 1918/2018 VRB04KT 8000 BKN060"
    },
    {
      "icao": "LIMJ",
      "alert": "OK",
      "vis_m": 9999,
      "fzfg": false,
      "metar_trigger": false,
      "taf_trigger": false,
      "metar": "METAR LIMJ 191920Z 03011KT 340V060 CAVOK 08/01 Q1022",
      "taf": "TAF LIMJ 191700Z 1918/2018 02015KT CAVOK"
    },
    {
      "icao": "LIPE",
      "alert": "OK",
      "vis_m": 8000,
      "fzfg": false,
      "metar_trigger": false,
      "taf_trigger": false,
      "metar": "METAR LIPE 191920Z 27004KT 8000 BKN033 05/03 Q1027",
      "taf": "TAF LIPE 191700Z 1918/2018 28006KT 9000 BKN020"
    },
    {
      "icao": "LIPH",
      "alert": "OK",
      "vis_m": 9999,
      "fzfg": false,
      "metar_trigger": false,
      "taf_trigger": false,
      "metar": "METAR LIPH 191920Z 03004KT CAVOK 03/M06 Q1028",
      "taf": "TAF LIPH 191700Z 1918/2018 06008KT CAVOK"
    },
    {
      "icao": "LIPQ",
      "alert": "OK",
      "vis_m": 9999,
      "fzfg": false,
      "metar_trigger": false,
      "taf_trigger": false,
      "metar": "METAR LIPQ 191920Z AUTO 10005KT 050V140 9999 NCD 03/M08 Q1028",
      "taf": "TAF LIPQ 191700Z 1918/2018 08010KT CAVOK"
    },
    {
      "icao": "LIPR",
      "alert": "OK",
      "vis_m": 9999,
      "fzfg": false,
      "metar_trigger": false,
      "taf_trigger": false,
      "metar": "METAR LIPR 191920Z 09010KT 9999 BKN030 SCT060 10/04 Q1025",
      "taf": "TAF LIPR 191700Z 1918/2018 10012KT 9999 BKN030"
    },
    {
      "icao": "LIPX",
      "alert": "OK",
      "vis_m": 9999,
      "fzfg": false,
      "metar_trigger": false,
      "taf_trigger": false,
      "metar": "METAR LIPX 191920Z 27003KT 220V300 9999 FEW040 SCT060 03/M03 Q1027",
      "taf": "TAF LIPX 191700Z 1918/2018 VRB05KT 9999 SCT050"
    },
    {
      "icao": "LIPY",
      "alert": "OK",
      "vis_m": 9999,
      "fzfg": false,
      "metar_trigger": false,
      "taf_trigger": false,
      "metar": "METAR LIPY 191920Z AUTO 11006KT 9999 SCT054/// 11/04 Q1024",
      "taf": "TAF LIPY 191700Z 1918/2018 09011KT 9999 BKN040"
    },
    {
      "icao": "LIPZ",
      "alert": "OK",
      "vis_m": 9999,
      "fzfg": false,
      "metar_trigger": false,
      "taf_trigger": false,
      "metar": "METAR LIPZ 191920Z 04007KT 9999 FEW050 02/M05 Q1028 NOSIG",
      "taf": "TAF LIPZ 191700Z 1918/2024 05011KT CAVOK"
    },
    {
      "icao": "LIRF",
      "alert": "OK",
      "vis_m": 9999,
      "fzfg": false,
      "metar_trigger": false,
      "taf_trigger": false,
      "metar": "METAR LIRF 191920Z 06011KT 9999 -DZ SCT045 BKN055 11/07 Q1018 NOSIG",
      "taf": "TAF LIRF 191700Z 1918/2024 06013KT 9999 SCT050"
    },
    {
      "icao": "LIRN",
      "alert": "OK",
      "vis_m": 9999,
      "fzfg": false,
      "metar_trigger": false,
      "taf_trigger": false,
      "metar": "METAR LIRN 191920Z 01007KT 260V040 9999 BKN070 11/06 Q1019 NOSIG",
      "taf": "TAF LIRN 191700Z 1918/2018 05012KT 9999 SCT060"
    },
    {
      "icao": "LIRP",
      "alert": "OK",
      "vis_m": 9999,
      "fzfg": false,
      "metar_trigger": false,
      "taf_trigger": false,
      "metar": "METAR LIRP 191915Z 07013KT 9999 FEW080 10/03 Q1021 NOSIG",
      "taf": "TAF LIRP 191700Z 1918/2018 07016KT 9999 SCT060"
    },
    {
      "icao": "LIRZ",
      "alert": "OK",
      "vis_m": 9999,
      "fzfg": false,
      "metar_trigger": false,
      "taf_trigger": false,
      "metar": "METAR LIRZ 191920Z AUTO 05011KT 9999 BKN088/// 10/03 Q1020",
      "taf": "TAF LIRZ 191700Z 1918/2018 04015KT 9999 SCT070"
    },
    {
      "icao": "LJLJ",
      "alert": "OK",
      "vis_m": 9999,
      "fzfg": false,
      "metar_trigger": false,
      "taf_trigger": false,
      "metar": "METAR LJLJ 191930Z 12008KT 9999 FEW003 OVC024 M03/M06 Q1032 NOSIG",
      "taf": "TAF LJLJ 191700Z 1918/2018 12006KT 9999 BKN025"
    },
    {
      "icao": "LKMT",
      "alert": "OK",
      "vis_m": 9999,
      "fzfg": false,
      "metar_trigger": false,
      "taf_trigger": false,
      "metar": "METAR LKMT 191930Z 26008KT CAVOK M04/M08 Q1032 NOSIG",
      "taf": "TAF LKMT 191700Z 1918/2018 23012KT CAVOK"
    },
    {
      "icao": "LKPR",
      "alert": "OK",
      "vis_m": 9999,
      "fzfg": false,
      "metar_trigger": false,
      "taf_trigger": false,
      "metar": "METAR LKPR 191930Z 09004KT CAVOK M07/M08 Q1026 NOSIG",
      "taf": "TAF LKPR 191700Z 1918/2024 11007KT CAVOK"
    },
    {
      "icao": "LLBG",
      "alert": "OK",
      "vis_m": 9999,
      "fzfg": false,
      "metar_trigger": false,
      "taf_trigger": false,
      "metar": "METAR LLBG 191920Z VRB02KT CAVOK 10/03 Q1021 NOSIG RMK FEW075",
      "taf": "TAF LLBG 191714Z 1918/2018 03006KT 9999 FEW040"
    },
    {
      "icao": "LMML",
      "alert": "OK",
      "vis_m": 9999,
      "fzfg": false,
      "metar_trigger": false,
      "taf_trigger": false,
      "metar": "METAR LMML 191915Z 10029G41KT 9999 BKN017 16/12 Q1011 NOSIG",
      "taf": "TAF LMML 191700Z 1918/2018 11032G42KT 9999 BKN016"
    },
    {
      "icao": "LOWW",
      "alert": "OK",
      "vis_m": 9999,
      "fzfg": false,
      "metar_trigger": false,
      "taf_trigger": false,
      "metar": "METAR LOWW 191920Z 14015KT CAVOK M05/M07 Q1033 NOSIG",
      "taf": "TAF LOWW 191715Z 1918/2024 14013KT 9999 FEW015 TXM04/1918Z TNM07/2007Z"
    },
    {
      "icao": "LPFR",
      "alert": "OK",
      "vis_m": 9999,
      "fzfg": false,
      "metar_trigger": false,
      "taf_trigger": false,
      "metar": "METAR LPFR 191930Z 31010KT 9999 FEW018 11/07 Q1020",
      "taf": "TAF LPFR 191700Z 1918/2018 33013KT CAVOK"
    },
    {
      "icao": "LPMA",
      "alert": "OK",
      "vis_m": 9999,
      "fzfg": false,
      "metar_trigger": false,
      "taf_trigger": false,
      "metar": "METAR LPMA 191930Z 32003KT 270V360 9999 FEW015 15/09 Q1026",
      "taf": "TAF LPMA 191700Z 1918/2018 02008KT 9999 SCT015"
    },
    {
      "icao": "LPPR",
      "alert": "OK",
      "vis_m": 5000,
      "fzfg": false,
      "metar_trigger": false,
      "taf_trigger": false,
      "metar": "METAR LPPR 191930Z 01003KT 340V050 5000 MIFG BR FEW024 07/07 Q1022",
      "taf": "TAF LPPR 191700Z 1918/2018 VRB02KT 9999 FEW012"
    },
    {
      "icao": "LPPS",
      "alert": "OK",
      "vis_m": 9999,
      "fzfg": false,
      "metar_trigger": false,
      "taf_trigger": false,
      "metar": "METAR LPPS 191930Z 34007KT 9999 SCT015 15/11 Q1026",
      "taf": "TAF LPPS 191700Z 1918/2024 36010KT 9999 SCT015"
    },
    {
      "icao": "LPPT",
      "alert": "OK",
      "vis_m": 9999,
      "fzfg": false,
      "metar_trigger": false,
      "taf_trigger": false,
      "metar": "METAR LPPT 191930Z 32006KT 9999 FEW010 11/09 Q1022",
      "taf": "TAF LPPT 191700Z 1918/2024 29007KT 9999 FEW012 SCT025"
    },
    {
      "icao": "LQBK",
      "alert": "OK",
      "vis_m": 9999,
      "fzfg": false,
      "metar_trigger": false,
      "taf_trigger": false,
      "metar": "METAR LQBK 191930Z 00000KT 9999 OVC023 M02/M05 Q1034 NOSIG",
      "taf": "TAF LQBK 191700Z 1918/2018 VRB04KT 9999 BKN020 TXM01/2014Z TNM05/2006Z"
    },
    {
      "icao": "LQSA",
      "alert": "OK",
      "vis_m": 6000,
      "fzfg": false,
      "metar_trigger": false,
      "taf_trigger": false,
      "metar": "METAR LQSA 191930Z VRB02KT 6000 NSC M05/M06 Q1029 NOSIG",
      "taf": "TAF LQSA 191700Z 1918/2018 VRB02KT 9999 FEW035 TX00/2013Z TNM09/2006Z"
    },
    {
      "icao": "LQTZ",
      "alert": "OK",
      "vis_m": 5000,
      "fzfg": false,
      "metar_trigger": false,
      "taf_trigger": false,
      "metar": "METAR LQTZ 191930Z VRB01KT 5000 BR NSC M06/M06 Q1033",
      "taf": "TAF LQTZ 191700Z 1918/2018 10005KT 8000 NSC TX02/2013Z TNM09/2006Z"
    },
    {
      "icao": "LRBC",
      "alert": "OK",
      "vis_m": 7000,
      "fzfg": false,
      "metar_trigger": false,
      "taf_trigger": false,
      "metar": "METAR LRBC 191930Z VRB01KT 7000 NSC M08/M11 Q1037",
      "taf": "TAF LRBC 191700Z 1918/2003 VRB04KT CAVOK"
    },
    {
      "icao": "LRBS",
      "alert": "OK",
      "vis_m": 5000,
      "fzfg": false,
      "metar_trigger": false,
      "taf_trigger": false,
      "metar": "METAR LRBS 191930Z 27004KT 5000 BR NSC M06/M08 Q1038 NOSIG",
      "taf": "TAF LRBS 191700Z 1918/2018 25006KT CAVOK"
    },
    {
      "icao": "LRBV",
      "alert": "OK",
      "vis_m": 9999,
      "fzfg": false,
      "metar_trigger": false,
      "taf_trigger": false,
      "metar": "METAR LRBV 191930Z 21008KT CAVOK M09/M11 Q1034",
      "taf": "TAF LRBV 191700Z 1918/2003 20008KT CAVOK"
    },
    {
      "icao": "LRCL",
      "alert": "OK",
      "vis_m": 9999,
      "fzfg": false,
      "metar_trigger": false,
      "taf_trigger": false,
      "metar": "METAR LRCL 191930Z 00000KT CAVOK M10/M12 Q1036",
      "taf": "TAF LRCL 191700Z 1918/2003 VRB04KT CAVOK"
    },
    {
      "icao": "LRCV",
      "alert": "OK",
      "vis_m": 9000,
      "fzfg": false,
      "metar_trigger": false,
      "taf_trigger": false,
      "metar": "METAR LRCV 191930Z 26007KT 9000 BKN038 M05/M07 Q1038",
      "taf": "TAF LRCV 191700Z 1918/2003 VRB04KT 5000 BR BKN035"
    },
    {
      "icao": "LRIA",
      "alert": "OK",
      "vis_m": 6000,
      "fzfg": false,
      "metar_trigger": false,
      "taf_trigger": false,
      "metar": "METAR LRIA 191930Z VRB02KT 6000 NSC M13/M15 Q1038",
      "taf": "TAF LRIA 191700Z 1918/2003 VRB04KT CAVOK"
    },
    {
      "icao": "LROP",
      "alert": "OK",
      "vis_m": 5000,
      "fzfg": false,
      "metar_trigger": false,
      "taf_trigger": false,
      "metar": "METAR LROP 191930Z 24006KT 5000 BR NSC M07/M09 Q1038 NOSIG",
      "taf": "TAF LROP 191700Z 1918/2018 25006KT CAVOK"
    },
    {
      "icao": "LRSB",
      "alert": "OK",
      "vis_m": 5000,
      "fzfg": false,
      "metar_trigger": false,
      "taf_trigger": false,
      "metar": "METAR LRSB 191930Z 26006KT 5000 BR NSC M11/M12 Q1035",
      "taf": "TAF LRSB 191700Z 1918/2018 VRB04KT CAVOK"
    },
    {
      "icao": "LRSM",
      "alert": "OK",
      "vis_m": 6000,
      "fzfg": false,
      "metar_trigger": false,
      "taf_trigger": false,
      "metar": "METAR LRSM 191930Z AUTO 00000KT 6000 NCD M12/M14 Q1038",
      "taf": "TAF LRSM 191400Z 1915/1924 VRB04KT CAVOK"
    },
    {
      "icao": "LRSV",
      "alert": "OK",
      "vis_m": 9999,
      "fzfg": false,
      "metar_trigger": false,
      "taf_trigger": false,
      "metar": "METAR LRSV 191930Z 16004KT CAVOK M09/M10 Q1034",
      "taf": "TAF LRSV 191700Z 1918/2003 VRB04KT CAVOK"
    },
    {
      "icao": "LRTM",
      "alert": "OK",
      "vis_m": 2900,
      "fzfg": false,
      "metar_trigger": false,
      "taf_trigger": false,
      "metar": "METAR LRTM 191930Z AUTO 00000KT 2900 BR NCD M14/M16 Q1037",
      "taf": "TAF LRTM 191400Z 1915/1924 VRB04KT 5000 BR FEW010"
    },
    {
      "icao": "LRTR",
      "alert": "OK",
      "vis_m": 6000,
      "fzfg": false,
      "metar_trigger": false,
      "taf_trigger": false,
      "metar": "METAR LRTR 191930Z 08004KT 6000 NSC M06/M06 Q1036",
      "taf": "TAF LRTR 191700Z 1918/2018 VRB04KT CAVOK"
    },
    {
      "icao": "LTAC",
      "alert": "OK",
      "vis_m": 9999,
      "fzfg": false,
      "metar_trigger": false,
      "taf_trigger": false,
      "metar": "METAR LTAC 191920Z 34005KT 310V030 9999 FEW035 M04/M08 Q1024 NOSIG RMK RWY21C VRB02KT RWY03L 32003KT 290V040 RWY21R VRB02KT RWY03R 01004KT 330V040 RWY21L 11003KT 060V120",
      "taf": "TAF LTAC 191640Z 1918/2018 VRB02KT 9999 SCT035"
    },
    {
      "icao": "LTFM",
      "alert": "OK",
      "vis_m": 3400,
      "fzfg": false,
      "metar_trigger": false,
      "taf_trigger": false,
      "metar": "METAR LTFM 191920Z 01025KT 3400 -RA BR BKN009 BKN022 02/01 Q1033 BECMG TL2000 9999 RMK RWY17L 01022KT RWY34L 01023KT RWY16R 01022KT RWY36 01026KT RWY18 01022KT",
      "taf": "TAF LTFM 191640Z 1918/2024 34022G37KT 7000 -RA BKN011 BKN022"
    },
    {
      "icao": "LUKK",
      "alert": "OK",
      "vis_m": 9000,
      "fzfg": false,
      "metar_trigger": false,
      "taf_trigger": false,
      "metar": "METAR LUKK 191930Z 02004KT 330V070 9000 NSC M10/M12 Q1038 NOSIG",
      "taf": "TAF LUKK 191716Z 1918/2018 VRB04KT CAVOK"
    },
    {
      "icao": "LWOH",
      "alert": "OK",
      "vis_m": 9999,
      "fzfg": false,
      "metar_trigger": false,
      "taf_trigger": false,
      "metar": "METAR LWOH 191920Z VRB04KT CAVOK M00/M06 Q1029",
      "taf": "TAF LWOH 191750Z 1918/2018 04006KT 9999 FEW040"
    },
    {
      "icao": "LWSK",
      "alert": "OK",
      "vis_m": 9999,
      "fzfg": false,
      "metar_trigger": false,
      "taf_trigger": false,
      "metar": "METAR LWSK 191920Z 04003KT 350V060 CAVOK M04/M07 Q1033 NOSIG",
      "taf": "TAF LWSK 191750Z 1918/2018 VRB03KT CAVOK"
    },
    {
      "icao": "LYBE",
      "alert": "OK",
      "vis_m": 9999,
      "fzfg": false,
      "metar_trigger": false,
      "taf_trigger": false,
      "metar": "METAR LYBE 191930Z 09006KT CAVOK M03/M08 Q1035 NOSIG",
      "taf": "TAF LYBE 191700Z 1918/2018 10013KT CAVOK TX03/2013Z TNM06/2005Z"
    },
    {
      "icao": "LYNI",
      "alert": "OK",
      "vis_m": 9999,
      "fzfg": false,
      "metar_trigger": false,
      "taf_trigger": false,
      "metar": "METAR LYNI 191930Z 06011KT CAVOK M04/M08 Q1035 NOSIG",
      "taf": "TAF LYNI 191700Z 1918/2018 06006KT CAVOK TX04/2013Z TNM09/2005Z"
    },
    {
      "icao": "LYPG",
      "alert": "OK",
      "vis_m": 9999,
      "fzfg": false,
      "metar_trigger": false,
      "taf_trigger": false,
      "metar": "METAR LYPG 191930Z 28004KT 200V330 CAVOK 01/M04 Q1027 NOSIG",
      "taf": "TAF LYPG 191700Z 1918/2018 35005KT CAVOK TX10/2013Z TNM03/2005Z"
    },
    {
      "icao": "LZIB",
      "alert": "OK",
      "vis_m": 9999,
      "fzfg": false,
      "metar_trigger": false,
      "taf_trigger": false,
      "metar": "METAR LZIB 191930Z 11007KT 9999 FEW010 M06/M07 Q1035 NOSIG",
      "taf": "TAF LZIB 191715Z 1918/2018 12009KT 9999 FEW015"
    },
    {
      "icao": "LZKZ",
      "alert": "OK",
      "vis_m": 3100,
      "fzfg": false,
      "metar_trigger": false,
      "taf_trigger": false,
      "metar": "METAR LZKZ 191930Z VRB02KT 3100 BR NSC M10/M12 Q1036 BECMG 2800 BR",
      "taf": "TAF LZKZ 191715Z 1918/2018 20004KT CAVOK"
    },
    {
      "icao": "LZTT",
      "alert": "OK",
      "vis_m": 9999,
      "fzfg": false,
      "metar_trigger": false,
      "taf_trigger": false,
      "metar": "METAR LZTT 191930Z 28007KT CAVOK M12/M14 Q1032",
      "taf": "TAF LZTT 191715Z 1918/2018 27005KT CAVOK"
    },
    {
      "icao": "OEJN",
      "alert": "OK",
      "vis_m": 9999,
      "fzfg": false,
      "metar_trigger": false,
      "taf_trigger": false,
      "metar": "METAR OEJN 191900Z 36006KT CAVOK 23/11 Q1015 NOSIG",
      "taf": "TAF OEJN 191700Z 1918/2024 02008KT 9999 FEW040"
    },
    {
      "icao": "OEMA",
      "alert": "OK",
      "vis_m": 9999,
      "fzfg": false,
      "metar_trigger": false,
      "taf_trigger": false,
      "metar": "METAR OEMA 191900Z 35004KT CAVOK 18/M06 Q1018 NOSIG",
      "taf": "TAF OEMA 191700Z 1918/2024 34008KT CAVOK"
    },
    {
      "icao": "OJAI",
      "alert": "OK",
      "vis_m": 5000,
      "fzfg": false,
      "metar_trigger": false,
      "taf_trigger": false,
      "metar": "METAR OJAI 191900Z 31006KT 5000 HZ SCT035 06/04 Q1020 NOSIG",
      "taf": "TAF OJAI 191652Z 1918/2024 29006KT 7000 FEW035"
    },
    {
      "icao": "OMAA",
      "alert": "OK",
      "vis_m": 9999,
      "fzfg": false,
      "metar_trigger": false,
      "taf_trigger": false,
      "metar": "METAR OMAA 191900Z 07004KT CAVOK 18/12 Q1015 NOSIG",
      "taf": "TAF OMAA 191700Z 1918/2100 08005KT 8000 NSC"
    },
    {
      "icao": "OMDB",
      "alert": "OK",
      "vis_m": 9999,
      "fzfg": false,
      "metar_trigger": false,
      "taf_trigger": false,
      "metar": "METAR OMDB 191930Z 10005KT CAVOK 20/15 Q1015 NOSIG",
      "taf": "TAF OMDB 191700Z 1918/2100 13005KT 8000 NSC"
    },
    {
      "icao": "UAAA",
      "alert": "OK",
      "vis_m": 1000,
      "fzfg": false,
      "metar_trigger": false,
      "taf_trigger": false,
      "metar": "METAR UAAA 191930Z 00000MPS 1000 R05R/P2000 BR FEW100 M14/M16 Q1025 NOSIG",
      "taf": "TAF UAAA 191703Z 1918/2018 22003MPS 1100 BR FU SCT011 BKN030 TXM07/2008Z TNM17/2003Z"
    },
    {
      "icao": "UBBB",
      "alert": "OK",
      "vis_m": 9999,
      "fzfg": false,
      "metar_trigger": false,
      "taf_trigger": false,
      "metar": "METAR UBBB 191930Z 36010KT 9999 SCT049 02/M02 Q1025 NOSIG",
      "taf": "TAF UBBB 191700Z 1918/2018 02012KT 9999 OVC025 TX03/2010Z TN00/2001Z"
    },
    {
      "icao": "UDSG",
      "alert": "OK",
      "vis_m": 9999,
      "fzfg": false,
      "metar_trigger": false,
      "taf_trigger": false,
      "metar": "METAR UDSG 191930Z 04009KT 9999 BKN043 M05/M10 Q1012 NOSIG",
      "taf": "TAF UDSG 191658Z 1918/2018 36006KT 5000 BR BKN030"
    },
    {
      "icao": "UDYZ",
      "alert": "OK",
      "vis_m": 5000,
      "fzfg": false,
      "metar_trigger": false,
      "taf_trigger": false,
      "metar": "METAR UDYZ 191930Z VRB02KT 5000 BR BKN046 00/M01 Q1012 NOSIG",
      "taf": "TAF UDYZ 191700Z 1918/2018 VRB06KT 2000 BR OVC020"
    },
    {
      "icao": "UGKO",
      "alert": "OK",
      "vis_m": 9999,
      "fzfg": false,
      "metar_trigger": false,
      "taf_trigger": false,
      "metar": "METAR UGKO 191930Z VRB02KT 9999 BKN075 02/02 Q1020 NOSIG",
      "taf": "TAF UGKO 191700Z 1918/2018 08006KT 9999 SCT020 OVC050 TX06/2012Z TNM01/2002Z"
    }
  ]
}