{
  "ts_utc": "2026-01-27T09:01:12Z",
  "threshold_m": 150,
  "source": "stations_override.txt (ICAO list) + aviationweather.gov (METAR/TAF raw)",
  "station_count": 159,
  "stations": [
    {
      "icao": "BIKF",
      "alert": "OK",
      "vis_m": 9999,
      "fzfg": false,
      "metar_trigger": false,
      "taf_trigger": false,
      "metar": "METAR BIKF 270830Z 06024KT CAVOK 05/M05 Q0996",
      "taf": "TAF BIKF 270756Z 2709/2809 08020G30KT 9999 SCT030 BKN045 TX06/2715Z TN01/2807Z"
    },
    {
      "icao": "BKPR",
      "alert": "OK",
      "vis_m": 9999,
      "fzfg": false,
      "metar_trigger": false,
      "taf_trigger": false,
      "metar": "METAR BKPR 270900Z 03003KT 9999 BKN050 05/04 Q1004 NOSIG",
      "taf": "TAF BKPR 270530Z 2706/2806 35008KT 9999 SCT030 BKN060"
    },
    {
      "icao": "EBCI",
      "alert": "OK",
      "vis_m": 9999,
      "fzfg": false,
      "metar_trigger": false,
      "taf_trigger": false,
      "metar": "METAR EBCI 270850Z 14008KT 110V170 9999 -RA FEW033 BKN045 04/01 Q0994 NOSIG",
      "taf": "TAF EBCI 270520Z 2706/2812 14010KT 6000 SCT008 BKN014"
    },
    {
      "icao": "EDDB",
      "alert": "OK",
      "vis_m": 8000,
      "fzfg": false,
      "metar_trigger": false,
      "taf_trigger": false,
      "metar": "METAR EDDB 270850Z AUTO 05003KT 030V090 8000 BKN013 BKN020 BKN026 M01/M02 Q1002 BECMG SCT013 BKN020",
      "taf": ""
    },
    {
      "icao": "EDDH",
      "alert": "OK",
      "vis_m": 9000,
      "fzfg": false,
      "metar_trigger": false,
      "taf_trigger": false,
      "metar": "METAR EDDH 270850Z AUTO 09005KT 9000 2600 BR BKN007 OVC038 00/M01 Q1003 NOSIG",
      "taf": "TAF EDDH 270500Z 2706/2812 VRB03KT 9999 OVC008"
    },
    {
      "icao": "EDDK",
      "alert": "OK",
      "vis_m": 9999,
      "fzfg": false,
      "metar_trigger": false,
      "taf_trigger": false,
      "metar": "METAR EDDK 270850Z AUTO 09006KT 060V130 9999 FEW026 02/M01 Q0999 NOSIG",
      "taf": "TAF EDDK 270500Z 2706/2812 12005KT 9000 OVC030"
    },
    {
      "icao": "EDDN",
      "alert": "OK",
      "vis_m": 6000,
      "fzfg": false,
      "metar_trigger": false,
      "taf_trigger": false,
      "metar": "METAR EDDN 270850Z AUTO VRB02KT 6000 OVC026 01/M00 Q1001 NOSIG",
      "taf": "TAF EDDN 270500Z 2706/2806 10004KT 9000 BKN020"
    },
    {
      "icao": "EDDS",
      "alert": "OK",
      "vis_m": 9999,
      "fzfg": false,
      "metar_trigger": false,
      "taf_trigger": false,
      "metar": "METAR EDDS 270850Z AUTO VRB01KT CAVOK M00/M01 Q0999 NOSIG",
      "taf": ""
    },
    {
      "icao": "EDFH",
      "alert": "OK",
      "vis_m": 800,
      "fzfg": true,
      "metar_trigger": false,
      "taf_trigger": false,
      "metar": "METAR EDFH 270820Z 14013KT 0800 R21/1500U FZFG BKN000 M00/M01 Q0997",
      "taf": ""
    },
    {
      "icao": "EDJA",
      "alert": "OK",
      "vis_m": 9999,
      "fzfg": false,
      "metar_trigger": false,
      "taf_trigger": false,
      "metar": "METAR EDJA 270850Z VRB02KT CAVOK M02/M03 Q0999",
      "taf": "TAF EDJA 270800Z 2709/2718 VRB03KT CAVOK"
    },
    {
      "icao": "EDLW",
      "alert": "OK",
      "vis_m": 6000,
      "fzfg": false,
      "metar_trigger": false,
      "taf_trigger": false,
      "metar": "METAR EDLW 270850Z COR 05006KT 6000 OVC026 00/M01 Q0999",
      "taf": "TAF EDLW 270500Z 2706/2806 10004KT 3000 BR BKN008 OVC025"
    },
    {
      "icao": "EDNY",
      "alert": "OK",
      "vis_m": 9999,
      "fzfg": false,
      "metar_trigger": false,
      "taf_trigger": false,
      "metar": "METAR EDNY 270850Z 07004KT 9999 SCT005 M00/M01 Q1000",
      "taf": "TAF EDNY 270800Z 2709/2718 VRB02KT CAVOK"
    },
    {
      "icao": "EDSB",
      "alert": "OK",
      "vis_m": 250,
      "fzfg": true,
      "metar_trigger": false,
      "taf_trigger": false,
      "metar": "METAR EDSB 270850Z VRB02KT 0250 R21/0225N FZFG VV/// M02/M02 Q0999",
      "taf": "TAF EDSB 270500Z 2706/2806 VRB03KT 0300 FZFG OVC001"
    },
    {
      "icao": "EETN",
      "alert": "OK",
      "vis_m": 9999,
      "fzfg": false,
      "metar_trigger": false,
      "taf_trigger": false,
      "metar": "METAR EETN 270850Z 11007KT 9999 OVC010 M06/M08 Q1014 TEMPO OVC008",
      "taf": "TAF EETN 270530Z 2706/2806 09010KT 9999 OVC013"
    },
    {
      "icao": "EFTU",
      "alert": "OK",
      "vis_m": 9999,
      "fzfg": false,
      "metar_trigger": false,
      "taf_trigger": false,
      "metar": "METAR EFTU 270850Z AUTO 06004KT 020V100 9999 OVC006 M09/M10 Q1015",
      "taf": "TAF EFTU 270829Z 2709/2809 06003KT 9999 OVC006"
    },
    {
      "icao": "EGBB",
      "alert": "OK",
      "vis_m": 4000,
      "fzfg": false,
      "metar_trigger": false,
      "taf_trigger": false,
      "metar": "METAR EGBB 270850Z 13019G29KT 4000 -RA OVC008 06/05 Q0980 RERA",
      "taf": "TAF EGBB 270458Z 2706/2806 11020G35KT 9999 SCT008 BKN030"
    },
    {
      "icao": "EGGP",
      "alert": "OK",
      "vis_m": 9999,
      "fzfg": false,
      "metar_trigger": false,
      "taf_trigger": false,
      "metar": "METAR EGGP 270850Z 11023G34KT 9999 -RA BKN014 OVC030 06/04 Q0978",
      "taf": "TAF EGGP 270501Z 2706/2806 11016G28KT 9999 SCT015"
    },
    {
      "icao": "EGGW",
      "alert": "OK",
      "vis_m": 9999,
      "fzfg": false,
      "metar_trigger": false,
      "taf_trigger": false,
      "metar": "METAR EGGW 270850Z AUTO 13019KT 9999 -RA OVC005 05/04 Q0984",
      "taf": "TAF EGGW 270456Z 2706/2806 12020G32KT 6000 -RA OVC010"
    },
    {
      "icao": "EGKK",
      "alert": "OK",
      "vis_m": 9999,
      "fzfg": false,
      "metar_trigger": false,
      "taf_trigger": false,
      "metar": "METAR EGKK 270850Z 13011KT 9999 -RA BKN007 07/07 Q0984",
      "taf": "TAF EGKK 270453Z 2706/2812 11010KT 9999 SCT015"
    },
    {
      "icao": "EGNM",
      "alert": "OK",
      "vis_m": 3000,
      "fzfg": false,
      "metar_trigger": false,
      "taf_trigger": false,
      "metar": "METAR EGNM 270850Z 10023G33KT 3000 -RA SCT004 BKN007 03/03 Q0983",
      "taf": ""
    },
    {
      "icao": "EGPD",
      "alert": "OK",
      "vis_m": 9999,
      "fzfg": false,
      "metar_trigger": false,
      "taf_trigger": false,
      "metar": "METAR EGPD 270850Z COR AUTO 12020G32KT 9999 -RA BKN013 OVC032 04/02 Q0993 RERA NOSIG",
      "taf": "TAF EGPD 270454Z 2706/2806 11015KT 9999 SCT010 BKN025"
    },
    {
      "icao": "EGPF",
      "alert": "OK",
      "vis_m": 5000,
      "fzfg": false,
      "metar_trigger": false,
      "taf_trigger": false,
      "metar": "METAR EGPF 270850Z AUTO 08021G31KT 5000 -RA BKN017/// OVC021/// //////TCU 04/02 Q0983",
      "taf": "TAF EGPF 270459Z 2706/2806 08017KT 9999 BKN018"
    },
    {
      "icao": "EHBK",
      "alert": "OK",
      "vis_m": 9999,
      "fzfg": false,
      "metar_trigger": false,
      "taf_trigger": false,
      "metar": "METAR EHBK 270855Z AUTO 09007KT 9999 NSC 02/M00 Q0996 NOSIG",
      "taf": "TAF EHBK 270514Z 2706/2812 11006KT 4000 BR BKN030"
    },
    {
      "icao": "EHEH",
      "alert": "OK",
      "vis_m": null,
      "fzfg": false,
      "metar_trigger": false,
      "taf_trigger": false,
      "metar": "",
      "taf": "TAF EHEH 270549Z 2706/2812 10006KT 5000 OVC030"
    },
    {
      "icao": "EKBI",
      "alert": "OK",
      "vis_m": 9999,
      "fzfg": false,
      "metar_trigger": false,
      "taf_trigger": false,
      "metar": "METAR EKBI 270850Z AUTO 07016KT 9999 OVC015/// M00/M03 Q1005",
      "taf": "TAF EKBI 270827Z 2709/2809 08012KT 9999 BKN014"
    },
    {
      "icao": "EKCH",
      "alert": "OK",
      "vis_m": 9999,
      "fzfg": false,
      "metar_trigger": false,
      "taf_trigger": false,
      "metar": "METAR EKCH 270850Z 05014KT 9999 BKN015 M01/M03 Q1007 TEMPO 4000 BKN014",
      "taf": "TAF EKCH 270827Z 2709/2809 05015KT 9999 BKN018"
    },
    {
      "icao": "ENAL",
      "alert": "OK",
      "vis_m": 9999,
      "fzfg": false,
      "metar_trigger": false,
      "taf_trigger": false,
      "metar": "METAR ENAL 270850Z 15005KT 110V170 CAVOK M05/M08 Q1010",
      "taf": "TAF ENAL 270800Z 2709/2718 06010KT CAVOK"
    },
    {
      "icao": "ENBR",
      "alert": "OK",
      "vis_m": 9999,
      "fzfg": false,
      "metar_trigger": false,
      "taf_trigger": false,
      "metar": "METAR ENBR 270850Z VRB02KT CAVOK M06/M11 Q1008 NOSIG RMK WIND 1200FT 12006KT",
      "taf": "TAF ENBR 270500Z 2706/2806 07004KT CAVOK"
    },
    {
      "icao": "ENGM",
      "alert": "OK",
      "vis_m": 6000,
      "fzfg": false,
      "metar_trigger": false,
      "taf_trigger": false,
      "metar": "METAR ENGM 270850Z VRB02KT 6000 -SHSN FEW006 BKN014 M08/M10 Q1014 TEMPO FEW006 BKN016",
      "taf": "TAF ENGM 270500Z 2706/2806 02005KT 9000 SCT005 BKN015"
    },
    {
      "icao": "ENHD",
      "alert": "OK",
      "vis_m": 9999,
      "fzfg": false,
      "metar_trigger": false,
      "taf_trigger": false,
      "metar": "METAR ENHD 270850Z /////KT CAVOK M04/M07 Q1008 RMK WIND RWY 31 08005KT",
      "taf": "TAF ENHD 270800Z 2709/2718 12005KT CAVOK"
    },
    {
      "icao": "ENTC",
      "alert": "OK",
      "vis_m": 9999,
      "fzfg": false,
      "metar_trigger": false,
      "taf_trigger": false,
      "metar": "METAR ENTC 270850Z 00000KT 9999 SCT010 M07/M09 Q1010 TEMPO 1500 -SHSN VV009 RMK WIND 2600FT 16010KT",
      "taf": "TAF ENTC 270500Z 2706/2806 18005KT 9999 FEW012 SCT025 BKN035"
    },
    {
      "icao": "ENTO",
      "alert": "OK",
      "vis_m": 9999,
      "fzfg": false,
      "metar_trigger": false,
      "taf_trigger": false,
      "metar": "METAR ENTO 270850Z 01007KT 9999 -SN OVC016 M06/M08 Q1014 NOSIG",
      "taf": "TAF ENTO 270500Z 2706/2806 02010KT 9999 BKN008"
    },
    {
      "icao": "ENVA",
      "alert": "OK",
      "vis_m": 9999,
      "fzfg": false,
      "metar_trigger": false,
      "taf_trigger": false,
      "metar": "METAR ENVA 270850Z 11006KT CAVOK M14/M16 Q1013 NOSIG RMK WIND 670FT 15006KT",
      "taf": "TAF ENVA 270500Z 2706/2806 10005KT CAVOK"
    },
    {
      "icao": "ENZV",
      "alert": "OK",
      "vis_m": 9999,
      "fzfg": false,
      "metar_trigger": false,
      "taf_trigger": false,
      "metar": "METAR ENZV 270850Z 10002KT CAVOK M04/M10 Q1008 NOSIG",
      "taf": "TAF ENZV 270500Z 2706/2806 15005KT CAVOK"
    },
    {
      "icao": "EPGD",
      "alert": "OK",
      "vis_m": 300,
      "fzfg": true,
      "metar_trigger": false,
      "taf_trigger": false,
      "metar": "METAR EPGD 270830Z 08004KT 0300 R29/0600N FZFG VV001 M02/M02 Q1003",
      "taf": ""
    },
    {
      "icao": "EPKK",
      "alert": "OK",
      "vis_m": 3000,
      "fzfg": false,
      "metar_trigger": false,
      "taf_trigger": false,
      "metar": "METAR EPKK 270830Z 23003KT 3000 BR BKN032 M01/M02 Q1003",
      "taf": "TAF EPKK 270830Z 2709/2809 VRB02KT 3000 BR BKN033"
    },
    {
      "icao": "EPKT",
      "alert": "OK",
      "vis_m": 4600,
      "fzfg": false,
      "metar_trigger": false,
      "taf_trigger": false,
      "metar": "METAR EPKT 270830Z 25002KT 4600 BR OVC021 01/00 Q1003",
      "taf": "TAF EPKT 270530Z 2706/2806 VRB02KT 6000 BKN020"
    },
    {
      "icao": "EPLB",
      "alert": "OK",
      "vis_m": 1700,
      "fzfg": false,
      "metar_trigger": false,
      "taf_trigger": false,
      "metar": "METAR EPLB 270830Z 27002KT 1700 BR OVC003 01/01 Q1002",
      "taf": "TAF EPLB 270530Z 2706/2806 VRB03KT 2500 BR BKN006"
    },
    {
      "icao": "EPMO",
      "alert": "OK",
      "vis_m": 1000,
      "fzfg": false,
      "metar_trigger": false,
      "taf_trigger": false,
      "metar": "METAR EPMO 270830Z VRB02KT 1000 R08/1200N BR BKN002 M02/M02 Q1002",
      "taf": ""
    },
    {
      "icao": "EPPO",
      "alert": "OK",
      "vis_m": 4000,
      "fzfg": false,
      "metar_trigger": false,
      "taf_trigger": false,
      "metar": "METAR EPPO 270830Z 21003KT 4000 -SN BR FEW003 BKN015 M02/M02 Q1002",
      "taf": ""
    },
    {
      "icao": "EPRA",
      "alert": "OK",
      "vis_m": 800,
      "fzfg": true,
      "metar_trigger": false,
      "taf_trigger": false,
      "metar": "METAR EPRA 270830Z 20001KT 0800 R25/1100N FZFG NSC M02/M03 Q1002",
      "taf": "TAF EPRA 270830Z 2709/2718 19005KT 1500 BR BKN004"
    },
    {
      "icao": "EPRZ",
      "alert": "OK",
      "vis_m": 2300,
      "fzfg": false,
      "metar_trigger": false,
      "taf_trigger": false,
      "metar": "METAR EPRZ 270830Z 24004KT 2300 BR OVC043 02/02 Q1003",
      "taf": "TAF EPRZ 270530Z 2706/2806 24004KT 1500 BR FEW003 OVC030"
    },
    {
      "icao": "EPSC",
      "alert": "OK",
      "vis_m": 1400,
      "fzfg": false,
      "metar_trigger": false,
      "taf_trigger": false,
      "metar": "METAR EPSC 270830Z VRB02KT 1400 R31/1600N -SN BR OVC002 M01/M01 Q1002",
      "taf": "TAF EPSC 270530Z 2706/2806 VRB04KT 2500 BR OVC003"
    },
    {
      "icao": "EPSY",
      "alert": "OK",
      "vis_m": 350,
      "fzfg": true,
      "metar_trigger": false,
      "taf_trigger": false,
      "metar": "METAR EPSY 270830Z VRB02KT 0350 R01/0500N FZFG OVC001 M01/M01 Q1003",
      "taf": "TAF EPSY 270830Z 2709/2718 VRB02KT 0400 FZFG OVC002"
    },
    {
      "icao": "EPWA",
      "alert": "OK",
      "vis_m": 200,
      "fzfg": true,
      "metar_trigger": false,
      "taf_trigger": false,
      "metar": "METAR EPWA 270830Z VRB01KT 0200 0150SE R33/0175N FZFG VV002 M01/M01 Q1002 TEMPO 0800 FZFG",
      "taf": "TAF EPWA 270830Z 2709/2809 VRB02KT 2500 BR OVC003"
    },
    {
      "icao": "EPWR",
      "alert": "OK",
      "vis_m": 9999,
      "fzfg": false,
      "metar_trigger": false,
      "taf_trigger": false,
      "metar": "METAR EPWR 270830Z 17003KT 9999 -SN BKN033 00/M02 Q1003",
      "taf": "TAF EPWR 270830Z 2709/2809 VRB02KT 8000 BKN025"
    },
    {
      "icao": "ESGG",
      "alert": "OK",
      "vis_m": 9999,
      "fzfg": false,
      "metar_trigger": false,
      "taf_trigger": false,
      "metar": "METAR ESGG 270850Z 04009KT CAVOK M05/M06 Q1009",
      "taf": "TAF ESGG 270830Z 2709/2809 05010KT 9999 SCT028"
    },
    {
      "icao": "ESKN",
      "alert": "OK",
      "vis_m": 9999,
      "fzfg": false,
      "metar_trigger": false,
      "taf_trigger": false,
      "metar": "METAR ESKN 270850Z 01007KT 9999 BKN030 M06/M08 Q1013",
      "taf": "TAF ESKN 270830Z 2709/2809 02008KT 9999 BKN030"
    },
    {
      "icao": "ESMS",
      "alert": "OK",
      "vis_m": 7000,
      "fzfg": false,
      "metar_trigger": false,
      "taf_trigger": false,
      "metar": "METAR ESMS 270850Z 07011KT 7000 SG BKN010 OVC012 M01/M01 Q1005",
      "taf": "TAF ESMS 270827Z 2709/2809 06012KT 3000 SN BKN008"
    },
    {
      "icao": "ESSA",
      "alert": "OK",
      "vis_m": 9999,
      "fzfg": false,
      "metar_trigger": false,
      "taf_trigger": false,
      "metar": "METAR ESSA 270850Z 35002KT 9999 BKN015 M10/M11 Q1014 NOSIG",
      "taf": "TAF ESSA 270830Z 2709/2809 05003KT 9999 BKN020"
    },
    {
      "icao": "EYKA",
      "alert": "OK",
      "vis_m": 2300,
      "fzfg": false,
      "metar_trigger": false,
      "taf_trigger": false,
      "metar": "METAR EYKA 270850Z 01005KT 330V040 2300 SN BR OVC009 M04/M05 Q1005",
      "taf": ""
    },
    {
      "icao": "EYPA",
      "alert": "OK",
      "vis_m": 2200,
      "fzfg": false,
      "metar_trigger": false,
      "taf_trigger": false,
      "metar": "METAR EYPA 270850Z 08009KT 2200 -SN BR FEW023 OVC037 M06/M09 Q1007",
      "taf": ""
    },
    {
      "icao": "EYVI",
      "alert": "OK",
      "vis_m": 5000,
      "fzfg": false,
      "metar_trigger": false,
      "taf_trigger": false,
      "metar": "METAR EYVI 270850Z 09007KT 5000 -FZDZ BR BKN004 OVC027 M02/M03 Q1004 NOSIG",
      "taf": "TAF EYVI 270503Z 2706/2806 09010KT 5000 FZDZ BR OVC005"
    },
    {
      "icao": "GCFV",
      "alert": "OK",
      "vis_m": 9999,
      "fzfg": false,
      "metar_trigger": false,
      "taf_trigger": false,
      "metar": "METAR GCFV 270830Z 22005KT 9999 SCT030 15/10 Q1023",
      "taf": "TAF GCFV 270800Z 2709/2809 30005KT 9999 FEW035 TX22/2714Z TN14/2806Z"
    },
    {
      "icao": "GCLP",
      "alert": "OK",
      "vis_m": 9999,
      "fzfg": false,
      "metar_trigger": false,
      "taf_trigger": false,
      "metar": "METAR GCLP 270830Z 29004KT 260V340 9999 SCT030 15/10 Q1023 NOSIG",
      "taf": "TAF GCLP 270800Z 2709/2809 19010KT 9999 FEW035 TX22/2714Z TN15/2806Z"
    },
    {
      "icao": "GCTS",
      "alert": "OK",
      "vis_m": 9999,
      "fzfg": false,
      "metar_trigger": false,
      "taf_trigger": false,
      "metar": "METAR GCTS 270830Z 02007KT 9999 SCT030 14/09 Q1023 NOSIG",
      "taf": "TAF GCTS 270800Z 2709/2809 17006KT 9999 FEW035 TX22/2714Z TN16/2806Z"
    },
    {
      "icao": "GMAD",
      "alert": "OK",
      "vis_m": 8000,
      "fzfg": false,
      "metar_trigger": false,
      "taf_trigger": false,
      "metar": "METAR GMAD 270830Z 11003KT 8000 NSC 09/09 Q1023 NOSIG",
      "taf": "TAF GMAD 270500Z 2706/2812 22004KT 8000 NSC"
    },
    {
      "icao": "GMMN",
      "alert": "OK",
      "vis_m": 9999,
      "fzfg": false,
      "metar_trigger": false,
      "taf_trigger": false,
      "metar": "METAR GMMN 270830Z 21019KT 9999 FEW040 BKN080 13/10 Q1016 NOSIG",
      "taf": "TAF GMMN 270500Z 2706/2812 20015KT 9999 BKN026"
    },
    {
      "icao": "GMMX",
      "alert": "OK",
      "vis_m": 8000,
      "fzfg": false,
      "metar_trigger": false,
      "taf_trigger": false,
      "metar": "METAR GMMX 270830Z 10006KT 8000 SCT020 11/10 Q1019 NOSIG",
      "taf": "TAF GMMX 270500Z 2706/2812 26006KT 8000 BKN015"
    },
    {
      "icao": "HEGN",
      "alert": "OK",
      "vis_m": 9999,
      "fzfg": false,
      "metar_trigger": false,
      "taf_trigger": false,
      "metar": "METAR HEGN 270800Z 33010KT CAVOK 21/04 Q1017 NOSIG",
      "taf": "TAF HEGN 270500Z 2706/2812 34018KT 6000 NSC"
    },
    {
      "icao": "HEMA",
      "alert": "OK",
      "vis_m": 9999,
      "fzfg": false,
      "metar_trigger": false,
      "taf_trigger": false,
      "metar": "METAR HEMA 270800Z 33015KT CAVOK 25/04 Q1015 NOSIG",
      "taf": "TAF HEMA 270500Z 2706/2812 36018KT 6000 NSC"
    },
    {
      "icao": "HESH",
      "alert": "OK",
      "vis_m": 9999,
      "fzfg": false,
      "metar_trigger": false,
      "taf_trigger": false,
      "metar": "METAR HESH 270800Z 01003KT CAVOK 23/12 Q1016 NOSIG",
      "taf": "TAF HESH 270500Z 2706/2812 30008KT CAVOK"
    },
    {
      "icao": "HESX",
      "alert": "OK",
      "vis_m": 9999,
      "fzfg": false,
      "metar_trigger": false,
      "taf_trigger": false,
      "metar": "METAR HESX 270800Z 21009KT CAVOK 12/M00 Q1016 NOSIG",
      "taf": "TAF HESX 270500Z 2706/2812 23009KT 6000 NSC"
    },
    {
      "icao": "LATI",
      "alert": "OK",
      "vis_m": 9999,
      "fzfg": false,
      "metar_trigger": false,
      "taf_trigger": false,
      "metar": "METAR LATI 270850Z VRB01KT CAVOK 09/07 Q1004 NOSIG",
      "taf": "TAF LATI 270500Z 2706/2806 VRB04KT 6000 NSC TX14/2713Z TN04/2805Z"
    },
    {
      "icao": "LBPD",
      "alert": "OK",
      "vis_m": 6000,
      "fzfg": false,
      "metar_trigger": false,
      "taf_trigger": false,
      "metar": "METAR LBPD 270830Z AUTO 28009KT 6000 FEW003/// BKN014/// OVC030/// 08/08 Q1000 NOSIG",
      "taf": "TAF LBPD 270500Z 2706/2806 VRB03KT 5000 BR BKN003 OVC005"
    },
    {
      "icao": "LBSF",
      "alert": "OK",
      "vis_m": 9999,
      "fzfg": false,
      "metar_trigger": false,
      "taf_trigger": false,
      "metar": "METAR LBSF 270830Z 28012KT 9999 SCT008 BKN028 OVC040 03/01 Q1002 TEMPO 5000 RASN SCT006 BKN012",
      "taf": "TAF LBSF 270500Z 2706/2806 28014KT 9999 -RA SCT010 BKN020 OVC030"
    },
    {
      "icao": "LBWN",
      "alert": "OK",
      "vis_m": 9999,
      "fzfg": false,
      "metar_trigger": false,
      "taf_trigger": false,
      "metar": "METAR LBWN 270830Z 12006KT 9999 FEW015 BKN045 09/09 Q1001 NOSIG",
      "taf": "TAF LBWN 270500Z 2706/2806 VRB03KT 9999 SCT010 BKN030"
    },
    {
      "icao": "LCLK",
      "alert": "OK",
      "vis_m": 9999,
      "fzfg": false,
      "metar_trigger": false,
      "taf_trigger": false,
      "metar": "METAR LCLK 270830Z 19008KT 9999 FEW030 19/12 Q1013 NOSIG",
      "taf": ""
    },
    {
      "icao": "LCPH",
      "alert": "OK",
      "vis_m": 2000,
      "fzfg": false,
      "metar_trigger": false,
      "taf_trigger": false,
      "metar": "METAR LCPH 270830Z 19009KT 170V240 2000 DU FEW025 SCT035 17/10 Q1012 TEMPO 1500 DU",
      "taf": ""
    },
    {
      "icao": "LEAL",
      "alert": "OK",
      "vis_m": 9999,
      "fzfg": false,
      "metar_trigger": false,
      "taf_trigger": false,
      "metar": "METAR LEAL 270830Z VRB02KT CAVOK 12/10 Q1004 NOSIG",
      "taf": ""
    },
    {
      "icao": "LEBB",
      "alert": "OK",
      "vis_m": 6000,
      "fzfg": false,
      "metar_trigger": false,
      "taf_trigger": false,
      "metar": "METAR LEBB 270830Z 30010KT 260V330 6000 -RA SCT009 BKN026 BKN055 11/10 Q0995 RERA TEMPO 3000 RA",
      "taf": "TAF LEBB 270500Z 2706/2806 20009KT 9999 SCT040 TX14/2706Z TN06/2805Z"
    },
    {
      "icao": "LEBL",
      "alert": "OK",
      "vis_m": 9999,
      "fzfg": false,
      "metar_trigger": false,
      "taf_trigger": false,
      "metar": "METAR LEBL 270830Z 31003KT 9999 FEW035 09/08 Q1000 NOSIG",
      "taf": "TAF LEBL 270500Z 2706/2806 VRB04KT 9999 FEW055 TX16/2712Z TN08/2706Z"
    },
    {
      "icao": "LECH",
      "alert": "OK",
      "vis_m": 9999,
      "fzfg": false,
      "metar_trigger": false,
      "taf_trigger": false,
      "metar": "METAR LECH 270830Z AUTO 20012KT CAVOK 13/08 Q1000",
      "taf": ""
    },
    {
      "icao": "LEMD",
      "alert": "OK",
      "vis_m": 6000,
      "fzfg": false,
      "metar_trigger": false,
      "taf_trigger": false,
      "metar": "SPECI LEMD 270848Z 20012KT 6000 RA FEW016 SCT031 BKN045 09/09 Q0998 NOSIG",
      "taf": ""
    },
    {
      "icao": "LEMG",
      "alert": "OK",
      "vis_m": 9999,
      "fzfg": false,
      "metar_trigger": false,
      "taf_trigger": false,
      "metar": "METAR LEMG 270830Z 25008KT 190V290 9999 SCT025 BKN035 OVC045 15/11 Q1009 RERA NOSIG",
      "taf": "TAF LEMG 270500Z 2706/2806 21014KT 9999 FEW010 SCT030 TX19/2714Z TN10/2707Z"
    },
    {
      "icao": "LEVC",
      "alert": "OK",
      "vis_m": 9999,
      "fzfg": false,
      "metar_trigger": false,
      "taf_trigger": false,
      "metar": "METAR LEVC 270830Z 25014KT 220V280 9999 FEW030 16/07 Q1002 NOSIG",
      "taf": "TAF LEVC 270500Z 2706/2806 24012KT 9999 FEW040 TX20/2712Z TN09/2806Z"
    },
    {
      "icao": "LEXJ",
      "alert": "OK",
      "vis_m": 5000,
      "fzfg": false,
      "metar_trigger": false,
      "taf_trigger": false,
      "metar": "METAR LEXJ 270830Z 28007KT 5000 RA SCT016 BKN025 OVC055 09/08 Q0994",
      "taf": "TAF LEXJ 270800Z 2709/2809 23009KT 9999 SCT040 TX15/2712Z TN07/2802Z"
    },
    {
      "icao": "LEZG",
      "alert": "OK",
      "vis_m": 9999,
      "fzfg": false,
      "metar_trigger": false,
      "taf_trigger": false,
      "metar": "METAR LEZG 270830Z 10008KT 9999 BKN050 08/08 Q0998 NOSIG",
      "taf": ""
    },
    {
      "icao": "LEZL",
      "alert": "OK",
      "vis_m": 3000,
      "fzfg": false,
      "metar_trigger": false,
      "taf_trigger": false,
      "metar": "METAR LEZL 270830Z 22022G33KT 170V250 3000 RA BKN005 OVC010 15/15 Q1004 NOSIG",
      "taf": "TAF LEZL 270800Z 2709/2809 24020KT 9999 FEW015 SCT030 TX17/2715Z TN10/2807Z"
    },
    {
      "icao": "LFBD",
      "alert": "OK",
      "vis_m": 9999,
      "fzfg": false,
      "metar_trigger": false,
      "taf_trigger": false,
      "metar": "METAR LFBD 270830Z AUTO VRB02KT 9999 -RA BKN015/// BKN021/// OVC035/// ///TCU 09/08 Q0993 TEMPO 18015G25KT 4500 -RA BKN020",
      "taf": "TAF LFBD 270500Z 2706/2812 17010KT 9999 BKN045 TX11/2713Z TN04/2807Z"
    },
    {
      "icao": "LFLL",
      "alert": "OK",
      "vis_m": 9999,
      "fzfg": false,
      "metar_trigger": false,
      "taf_trigger": false,
      "metar": "METAR LFLL 270830Z 13007KT 100V170 CAVOK 07/M01 Q0999 NOSIG",
      "taf": ""
    },
    {
      "icao": "LFLS",
      "alert": "OK",
      "vis_m": 9999,
      "fzfg": false,
      "metar_trigger": false,
      "taf_trigger": false,
      "metar": "METAR LFLS 270830Z AUTO 04005KT CAVOK 02/M01 Q0999 NOSIG",
      "taf": "TAF LFLS 270800Z 2709/2809 VRB05KT CAVOK"
    },
    {
      "icao": "LFMN",
      "alert": "OK",
      "vis_m": 9999,
      "fzfg": false,
      "metar_trigger": false,
      "taf_trigger": false,
      "metar": "METAR LFMN 270830Z 33011KT 9999 SCT050 OVC073 07/M01 Q1005 TEMPO 4000 RA",
      "taf": "TAF LFMN 270800Z 2709/2815 34012KT 9999 FEW030 OVC060"
    },
    {
      "icao": "LFOB",
      "alert": "OK",
      "vis_m": 8000,
      "fzfg": false,
      "metar_trigger": false,
      "taf_trigger": false,
      "metar": "METAR LFOB 270830Z AUTO 12013KT 8000 OVC006 04/04 Q0990 TEMPO 2500 RADZ OVC004",
      "taf": "TAF LFOB 270500Z 2706/2806 14010G20KT 7000 -RA SCT045 OVC080"
    },
    {
      "icao": "LFPO",
      "alert": "OK",
      "vis_m": 9999,
      "fzfg": false,
      "metar_trigger": false,
      "taf_trigger": false,
      "metar": "METAR LFPO 270830Z 15008KT 120V180 9999 RA BKN009 OVC014 05/05 Q0990 NOSIG",
      "taf": "TAF LFPO 270500Z 2706/2812 16009KT 9999 BKN030"
    },
    {
      "icao": "LFSB",
      "alert": "OK",
      "vis_m": 9999,
      "fzfg": false,
      "metar_trigger": false,
      "taf_trigger": false,
      "metar": "METAR LFSB 270830Z AUTO 16005KT CAVOK 01/M01 Q0999 NOSIG",
      "taf": "TAF LFSB 270500Z 2706/2806 VRB03KT CAVOK"
    },
    {
      "icao": "LGAV",
      "alert": "OK",
      "vis_m": 9999,
      "fzfg": false,
      "metar_trigger": false,
      "taf_trigger": false,
      "metar": "METAR LGAV 270850Z VRB02KT 9999 FEW020 15/05 Q1002 NOSIG",
      "taf": "TAF LGAV 270500Z 2706/2806 VRB05KT 9999 FEW020 SCT070"
    },
    {
      "icao": "LGTS",
      "alert": "OK",
      "vis_m": 9999,
      "fzfg": false,
      "metar_trigger": false,
      "taf_trigger": false,
      "metar": "METAR LGTS 270850Z 34014G24KT 9999 -RA FEW012 BKN030 10/05 Q1001 NOSIG",
      "taf": ""
    },
    {
      "icao": "LHBP",
      "alert": "OK",
      "vis_m": 6000,
      "fzfg": false,
      "metar_trigger": false,
      "taf_trigger": false,
      "metar": "SPECI LHBP 270850Z 00000KT 6000 NSC 01/01 Q1005 NOSIG",
      "taf": "TAF LHBP 270515Z 2706/2806 31005KT 5000 BCFG BR NSC"
    },
    {
      "icao": "LHDC",
      "alert": "OK",
      "vis_m": 2000,
      "fzfg": false,
      "metar_trigger": false,
      "taf_trigger": false,
      "metar": "METAR LHDC 270815Z AUTO 27004KT 2000 BR SCT001 OVC022 03/03 Q1003 BECMG 3000",
      "taf": "TAF LHDC 270815Z 2709/2718 26005KT 2500 BR BKN003 OVC025"
    },
    {
      "icao": "LIBD",
      "alert": "OK",
      "vis_m": 9999,
      "fzfg": false,
      "metar_trigger": false,
      "taf_trigger": false,
      "metar": "METAR LIBD 270850Z 28009KT 250V310 CAVOK 11/06 Q1007",
      "taf": "TAF LIBD 270500Z 2706/2806 28013KT 9999 SCT025"
    },
    {
      "icao": "LIBG",
      "alert": "OK",
      "vis_m": 9999,
      "fzfg": false,
      "metar_trigger": false,
      "taf_trigger": false,
      "metar": "METAR LIBG 270750Z 26007KT 230V290 CAVOK 08/05 Q1006",
      "taf": "TAF LIBG 270800Z 2709/2718 30010KT CAVOK"
    },
    {
      "icao": "LIBP",
      "alert": "OK",
      "vis_m": 9999,
      "fzfg": false,
      "metar_trigger": false,
      "taf_trigger": false,
      "metar": "METAR LIBP 270850Z AUTO 23005KT 9999 NCD 07/04 Q1008",
      "taf": "TAF LIBP 270500Z 2706/2806 VRB05KT CAVOK"
    },
    {
      "icao": "LIBR",
      "alert": "OK",
      "vis_m": 9999,
      "fzfg": false,
      "metar_trigger": false,
      "taf_trigger": false,
      "metar": "METAR LIBR 270850Z 31019KT 9999 FEW030 12/07 Q1005",
      "taf": "TAF LIBR 270500Z 2706/2806 31016KT 9999 FEW020"
    },
    {
      "icao": "LICA",
      "alert": "OK",
      "vis_m": 9999,
      "fzfg": false,
      "metar_trigger": false,
      "taf_trigger": false,
      "metar": "METAR LICA 270850Z AUTO 18004KT 140V220 9999 FEW021/// SCT050/// 13/11 Q1009",
      "taf": "TAF LICA 270500Z 2706/2806 VRB05KT 9999 SCT040"
    },
    {
      "icao": "LICC",
      "alert": "OK",
      "vis_m": 9999,
      "fzfg": false,
      "metar_trigger": false,
      "taf_trigger": false,
      "metar": "METAR LICC 270850Z 24005KT 9999 FEW070 13/10 Q1010",
      "taf": "TAF LICC 270500Z 2706/2806 26010KT 9999 FEW050"
    },
    {
      "icao": "LICJ",
      "alert": "OK",
      "vis_m": 9999,
      "fzfg": false,
      "metar_trigger": false,
      "taf_trigger": false,
      "metar": "METAR LICJ 270850Z 32006KT 9999 SCT035 14/08 Q1011",
      "taf": "TAF LICJ 270500Z 2706/2806 34012KT 9999 SCT030"
    },
    {
      "icao": "LIMC",
      "alert": "OK",
      "vis_m": 9999,
      "fzfg": false,
      "metar_trigger": false,
      "taf_trigger": false,
      "metar": "METAR LIMC 270850Z 05003KT CAVOK 02/01 Q1006 NOSIG",
      "taf": "TAF LIMC 270500Z 2706/2812 VRB04KT 6000 SCT025"
    },
    {
      "icao": "LIME",
      "alert": "OK",
      "vis_m": 9999,
      "fzfg": false,
      "metar_trigger": false,
      "taf_trigger": false,
      "metar": "METAR LIME 270850Z 01003KT 310V030 CAVOK 05/00 Q1006 NOSIG",
      "taf": "TAF LIME 270500Z 2706/2806 VRB05KT 7000 FEW020"
    },
    {
      "icao": "LIMF",
      "alert": "OK",
      "vis_m": 9999,
      "fzfg": false,
      "metar_trigger": false,
      "taf_trigger": false,
      "metar": "METAR LIMF 270850Z 30003KT CAVOK 03/M02 Q1006",
      "taf": "TAF LIMF 270500Z 2706/2806 VRB04KT 6000 SCT020"
    },
    {
      "icao": "LIMJ",
      "alert": "OK",
      "vis_m": 9999,
      "fzfg": false,
      "metar_trigger": false,
      "taf_trigger": false,
      "metar": "METAR LIMJ 270850Z 16009KT 9999 BKN030 13/06 Q1006",
      "taf": "TAF LIMJ 270500Z 2706/2806 17010KT 9999 SCT040"
    },
    {
      "icao": "LIPE",
      "alert": "OK",
      "vis_m": 9999,
      "fzfg": false,
      "metar_trigger": false,
      "taf_trigger": false,
      "metar": "METAR LIPE 270850Z 19007KT CAVOK 06/01 Q1007",
      "taf": "TAF LIPE 270500Z 2706/2806 VRB05KT 8000 SCT020"
    },
    {
      "icao": "LIPH",
      "alert": "OK",
      "vis_m": 9999,
      "fzfg": false,
      "metar_trigger": false,
      "taf_trigger": false,
      "metar": "METAR LIPH 270850Z VRB01KT CAVOK 04/03 Q1006",
      "taf": "TAF LIPH 270500Z 2706/2806 VRB05KT 1200 BCFG BKN004"
    },
    {
      "icao": "LIPQ",
      "alert": "OK",
      "vis_m": 9999,
      "fzfg": false,
      "metar_trigger": false,
      "taf_trigger": false,
      "metar": "METAR LIPQ 270850Z AUTO 10004KT 9999 OVC002/// 04/03 Q1006",
      "taf": "TAF LIPQ 270500Z 2706/2806 VRB04KT 9999 SCT020"
    },
    {
      "icao": "LIPR",
      "alert": "OK",
      "vis_m": 9999,
      "fzfg": false,
      "metar_trigger": false,
      "taf_trigger": false,
      "metar": "METAR LIPR 270850Z 22003KT CAVOK 06/02 Q1007",
      "taf": "TAF LIPR 270500Z 2706/2806 23005KT 9999 SCT015"
    },
    {
      "icao": "LIPX",
      "alert": "OK",
      "vis_m": 9999,
      "fzfg": false,
      "metar_trigger": false,
      "taf_trigger": false,
      "metar": "METAR LIPX 270850Z VRB01KT CAVOK 04/01 Q1006",
      "taf": "TAF LIPX 270500Z 2706/2806 VRB04KT 4000 BR SCT020"
    },
    {
      "icao": "LIPY",
      "alert": "OK",
      "vis_m": 9999,
      "fzfg": false,
      "metar_trigger": false,
      "taf_trigger": false,
      "metar": "METAR LIPY 270850Z AUTO 20003KT 150V240 9999 NCD 07/03 Q1007",
      "taf": "TAF LIPY 270500Z 2706/2806 VRB05KT 9999 SCT015"
    },
    {
      "icao": "LIPZ",
      "alert": "OK",
      "vis_m": 5000,
      "fzfg": false,
      "metar_trigger": false,
      "taf_trigger": false,
      "metar": "METAR LIPZ 270850Z VRB02KT 5000 BR FEW005 03/03 Q1007 NOSIG",
      "taf": "TAF LIPZ 270500Z 2706/2812 VRB04KT 1200 BCFG BKN002"
    },
    {
      "icao": "LIRF",
      "alert": "OK",
      "vis_m": 9999,
      "fzfg": false,
      "metar_trigger": false,
      "taf_trigger": false,
      "metar": "METAR LIRF 270850Z 08005KT CAVOK 07/05 Q1009 NOSIG",
      "taf": "TAF LIRF 270500Z 2706/2812 05005KT 9999 FEW030"
    },
    {
      "icao": "LIRN",
      "alert": "OK",
      "vis_m": 9999,
      "fzfg": false,
      "metar_trigger": false,
      "taf_trigger": false,
      "metar": "METAR LIRN 270850Z 36003KT 320V040 9999 FEW030 09/04 Q1009 NOSIG",
      "taf": "TAF LIRN 270500Z 2706/2806 VRB05KT 9999 FEW040"
    },
    {
      "icao": "LIRP",
      "alert": "OK",
      "vis_m": 9999,
      "fzfg": false,
      "metar_trigger": false,
      "taf_trigger": false,
      "metar": "METAR LIRP 270845Z 11007KT 9999 FEW035 SCT060 06/06 Q1008 NOSIG",
      "taf": "TAF LIRP 270500Z 2706/2806 09003KT 7000 FEW020"
    },
    {
      "icao": "LIRZ",
      "alert": "OK",
      "vis_m": 9999,
      "fzfg": false,
      "metar_trigger": false,
      "taf_trigger": false,
      "metar": "METAR LIRZ 270850Z AUTO VRB02KT 9999 OVC025/// 01/M00 Q1009",
      "taf": "TAF LIRZ 270500Z 2706/2806 VRB04KT 9999 SCT020"
    },
    {
      "icao": "LJLJ",
      "alert": "OK",
      "vis_m": 700,
      "fzfg": true,
      "metar_trigger": false,
      "taf_trigger": false,
      "metar": "METAR LJLJ 270830Z 32001KT 0700 R30/0900N FZFG VV002 M01/M01 Q1006 NOSIG",
      "taf": "TAF LJLJ 270500Z 2706/2806 30003KT 5000 BR OVC003"
    },
    {
      "icao": "LKMT",
      "alert": "OK",
      "vis_m": 9999,
      "fzfg": false,
      "metar_trigger": false,
      "taf_trigger": false,
      "metar": "METAR LKMT 270830Z 28004KT 9999 FEW017 BKN032 02/01 Q1003 NOSIG",
      "taf": "TAF LKMT 270500Z 2706/2806 23008KT CAVOK"
    },
    {
      "icao": "LKPR",
      "alert": "OK",
      "vis_m": 9999,
      "fzfg": false,
      "metar_trigger": false,
      "taf_trigger": false,
      "metar": "METAR LKPR 270830Z 22007KT 9999 BKN036 M00/M02 Q1002 NOSIG",
      "taf": "TAF LKPR 270800Z 2709/2815 20006KT 9999 BKN017"
    },
    {
      "icao": "LLBG",
      "alert": "OK",
      "vis_m": 7000,
      "fzfg": false,
      "metar_trigger": false,
      "taf_trigger": false,
      "metar": "METAR LLBG 270850Z 20009KT 7000 FEW030 SCT040 18/12 Q1015 BECMG 8000",
      "taf": "TAF LLBG 270501Z 2706/2806 18006KT 9999 SCT025"
    },
    {
      "icao": "LMML",
      "alert": "OK",
      "vis_m": 9999,
      "fzfg": false,
      "metar_trigger": false,
      "taf_trigger": false,
      "metar": "METAR LMML 270845Z 29014KT 9999 FEW025 15/10 Q1011 NOSIG",
      "taf": "TAF LMML 270500Z 2706/2806 30018G28KT 9999 FEW020"
    },
    {
      "icao": "LOWW",
      "alert": "OK",
      "vis_m": 9999,
      "fzfg": false,
      "metar_trigger": false,
      "taf_trigger": false,
      "metar": "METAR LOWW 270850Z 19003KT 160V230 CAVOK 03/00 Q1004 NOSIG",
      "taf": "TAF LOWW 270815Z 2709/2815 16007KT CAVOK TX04/2712Z TNM00/2722Z"
    },
    {
      "icao": "LPFR",
      "alert": "OK",
      "vis_m": 6000,
      "fzfg": false,
      "metar_trigger": false,
      "taf_trigger": false,
      "metar": "METAR LPFR 270830Z 24020KT 6000 FEW007 SCT012 15/14 Q1004",
      "taf": "TAF LPFR 270500Z 2706/2806 21020G30KT 5000 RA SCT006 BKN012"
    },
    {
      "icao": "LPMA",
      "alert": "OK",
      "vis_m": 9999,
      "fzfg": false,
      "metar_trigger": false,
      "taf_trigger": false,
      "metar": "METAR LPMA 270830Z 04008KT 360V080 9999 FEW015 17/13 Q1015",
      "taf": "TAF LPMA 270500Z 2706/2806 VRB05KT 9999 SCT015"
    },
    {
      "icao": "LPPR",
      "alert": "OK",
      "vis_m": 9999,
      "fzfg": false,
      "metar_trigger": false,
      "taf_trigger": false,
      "metar": "METAR LPPR 270830Z 23009KT 200V260 9999 FEW014 SCT030 11/06 Q0996",
      "taf": "TAF LPPR 270500Z 2706/2806 24010KT 9999 SCT020"
    },
    {
      "icao": "LPPS",
      "alert": "OK",
      "vis_m": 9999,
      "fzfg": false,
      "metar_trigger": false,
      "taf_trigger": false,
      "metar": "METAR LPPS 270830Z 28016KT 9999 SCT011 SCT030 17/14 Q1015",
      "taf": "TAF LPPS 270500Z 2706/2812 27018KT 9999 SCT015 SCT030"
    },
    {
      "icao": "LPPT",
      "alert": "OK",
      "vis_m": 9999,
      "fzfg": false,
      "metar_trigger": false,
      "taf_trigger": false,
      "metar": "METAR LPPT 270830Z 24012KT 9999 -RA FEW012 SCT018 12/10 Q1001 RERA",
      "taf": "TAF LPPT 270500Z 2706/2812 26012KT 9999 SCT020"
    },
    {
      "icao": "LQBK",
      "alert": "OK",
      "vis_m": 400,
      "fzfg": false,
      "metar_trigger": false,
      "taf_trigger": false,
      "metar": "METAR LQBK 270830Z 16008KT 0400 R16/0650N FG VV003 03/03 Q1007 NOSIG",
      "taf": "TAF LQBK 270500Z 2706/2806 16005KT 8000 SCT040 TX08/2714Z TN01/2801Z"
    },
    {
      "icao": "LQSA",
      "alert": "OK",
      "vis_m": 9999,
      "fzfg": false,
      "metar_trigger": false,
      "taf_trigger": false,
      "metar": "METAR LQSA 270830Z VRB02KT CAVOK 05/04 Q1006 NOSIG",
      "taf": "TAF LQSA 270500Z 2706/2806 VRB02KT CAVOK TX10/2714Z TNM02/2801Z"
    },
    {
      "icao": "LQTZ",
      "alert": "OK",
      "vis_m": 450,
      "fzfg": false,
      "metar_trigger": false,
      "taf_trigger": false,
      "metar": "METAR LQTZ 270830Z VRB02KT 0450 R09/0375N FG OVC002 03/03 Q1007",
      "taf": "TAF LQTZ 270500Z 2706/2806 12005KT 9999 SCT050 TX10/2713Z TN01/2800Z"
    },
    {
      "icao": "LRBC",
      "alert": "OK",
      "vis_m": 3000,
      "fzfg": false,
      "metar_trigger": false,
      "taf_trigger": false,
      "metar": "METAR LRBC 270830Z 16006KT 3000 -RA BR BKN003 OVC015 02/02 Q1004",
      "taf": "TAF LRBC 270800Z 2709/2718 17007KT 5000 -RA BR BKN010 OVC015"
    },
    {
      "icao": "LRBS",
      "alert": "OK",
      "vis_m": 2000,
      "fzfg": false,
      "metar_trigger": false,
      "taf_trigger": false,
      "metar": "METAR LRBS 270830Z 05011KT 020V080 2000 BR OVC003 03/03 Q1002 BECMG 3000",
      "taf": "TAF LRBS 270500Z 2706/2806 07014KT 3000 BR OVC003"
    },
    {
      "icao": "LRBV",
      "alert": "OK",
      "vis_m": 9999,
      "fzfg": false,
      "metar_trigger": false,
      "taf_trigger": false,
      "metar": "METAR LRBV 270830Z 27003KT 240V300 9999 -RADZ BKN020 SCT060 04/03 Q1001",
      "taf": "TAF LRBV 270800Z 2709/2718 VRB04KT 9999 BKN020 BKN045"
    },
    {
      "icao": "LRCL",
      "alert": "OK",
      "vis_m": 9999,
      "fzfg": false,
      "metar_trigger": false,
      "taf_trigger": false,
      "metar": "METAR LRCL 270830Z 27004KT 9999 FEW010 BKN035 05/05 Q1002",
      "taf": "TAF LRCL 270800Z 2709/2718 VRB04KT 9999 SCT010 BKN030"
    },
    {
      "icao": "LRCV",
      "alert": "OK",
      "vis_m": 4000,
      "fzfg": false,
      "metar_trigger": false,
      "taf_trigger": false,
      "metar": "METAR LRCV 270830Z 36004KT 4000 -RADZ BR OVC004 06/06 Q1002",
      "taf": "TAF LRCV 270800Z 2709/2718 VRB04KT 5000 -RADZ BR BKN004 OVC010"
    },
    {
      "icao": "LRIA",
      "alert": "OK",
      "vis_m": 9999,
      "fzfg": false,
      "metar_trigger": false,
      "taf_trigger": false,
      "metar": "METAR LRIA 270830Z 10011KT 9999 OVC007 01/00 Q1004",
      "taf": "TAF LRIA 270800Z 2709/2718 10010KT 7000 -RA OVC005"
    },
    {
      "icao": "LROP",
      "alert": "OK",
      "vis_m": 5000,
      "fzfg": false,
      "metar_trigger": false,
      "taf_trigger": false,
      "metar": "METAR LROP 270830Z 06015KT 5000 BR OVC003 03/03 Q1002 NOSIG",
      "taf": "TAF LROP 270500Z 2706/2806 07014KT 3000 BR OVC003"
    },
    {
      "icao": "LRSB",
      "alert": "OK",
      "vis_m": 1200,
      "fzfg": false,
      "metar_trigger": false,
      "taf_trigger": false,
      "metar": "METAR LRSB 270830Z VRB01KT 1200 0600SW R27/0650U -RA PRFG BR BKN001 OVC003 05/05 Q1001 BECMG 0800 -RA FG",
      "taf": "TAF LRSB 270500Z 2706/2806 35006KT 3000 -DZ BR BKN005 BKN050"
    },
    {
      "icao": "LRSM",
      "alert": "OK",
      "vis_m": 400,
      "fzfg": false,
      "metar_trigger": false,
      "taf_trigger": false,
      "metar": "METAR LRSM 270830Z 25005KT 0400 R19/0750N FG VV002 03/03 Q1002",
      "taf": "TAF LRSM 270800Z 2709/2718 VRB04KT 0300 -RADZ FG VV001"
    },
    {
      "icao": "LRSV",
      "alert": "OK",
      "vis_m": 150,
      "fzfg": false,
      "metar_trigger": false,
      "taf_trigger": false,
      "metar": "METAR LRSV 270830Z 13009KT 0150 R34/0300N -RA FG VV002 01/01 Q1002",
      "taf": "TAF LRSV 270800Z 2709/2718 14008KT 0150 FG VV001"
    },
    {
      "icao": "LRTM",
      "alert": "OK",
      "vis_m": 1000,
      "fzfg": false,
      "metar_trigger": false,
      "taf_trigger": false,
      "metar": "METAR LRTM 270830Z 24004KT 1000 R07/1600D BR BKN001 BKN004 OVC033 01/01 Q1002",
      "taf": "TAF LRTM 270800Z 2709/2718 24007KT 3000 BR BKN005 OVC040"
    },
    {
      "icao": "LRTR",
      "alert": "OK",
      "vis_m": 2500,
      "fzfg": false,
      "metar_trigger": false,
      "taf_trigger": false,
      "metar": "METAR LRTR 270830Z 29010KT 2500 BR BKN002 BKN003 OVC004 02/02 Q1005",
      "taf": "TAF LRTR 270500Z 2706/2806 31006KT 5000 BR BKN005 OVC020"
    },
    {
      "icao": "LTAC",
      "alert": "OK",
      "vis_m": 9999,
      "fzfg": false,
      "metar_trigger": false,
      "taf_trigger": false,
      "metar": "METAR LTAC 270850Z 02005KT 330V040 9999 SCT040 BKN100 09/03 Q1009 NOSIG",
      "taf": "TAF LTAC 270440Z 2706/2806 19009KT 9999 SCT040 BKN100"
    },
    {
      "icao": "LTFM",
      "alert": "OK",
      "vis_m": 9999,
      "fzfg": false,
      "metar_trigger": false,
      "taf_trigger": false,
      "metar": "METAR LTFM 270850Z 22018KT 9999 SCT040 BKN100 14/06 Q1002 NOSIG",
      "taf": "TAF LTFM 270440Z 2706/2812 19014KT 9999 SCT040 BKN100"
    },
    {
      "icao": "LUKK",
      "alert": "OK",
      "vis_m": 5000,
      "fzfg": false,
      "metar_trigger": false,
      "taf_trigger": false,
      "metar": "METAR LUKK 270830Z 09008KT 5000 -FZRA BR OVC005 M02/M02 Q1006 NOSIG",
      "taf": "TAF LUKK 270519Z 2706/2806 08010KT 5000 -FZRA BR OVC004"
    },
    {
      "icao": "LWOH",
      "alert": "OK",
      "vis_m": 9999,
      "fzfg": false,
      "metar_trigger": false,
      "taf_trigger": false,
      "metar": "METAR LWOH 270850Z VRB04KT 9999 SCT015 BKN035 08/04 Q1003",
      "taf": "TAF LWOH 270817Z 2709/2809 VRB02KT 9999 SCT015 BKN040 OVC090"
    },
    {
      "icao": "LWSK",
      "alert": "OK",
      "vis_m": 9999,
      "fzfg": false,
      "metar_trigger": false,
      "taf_trigger": false,
      "metar": "METAR LWSK 270850Z VRB01KT 9999 SCT026 BKN045 OVC070 08/04 Q1004 NOSIG",
      "taf": "TAF LWSK 270817Z 2709/2809 36010KT 9999 FEW025 OVC040"
    },
    {
      "icao": "LYBE",
      "alert": "OK",
      "vis_m": 8000,
      "fzfg": false,
      "metar_trigger": false,
      "taf_trigger": false,
      "metar": "METAR LYBE 270830Z 28011KT 8000 OVC003 02/01 Q1007 NOSIG",
      "taf": "TAF LYBE 270500Z 2706/2806 27010KT 8000 OVC004 TX10/2712Z TN03/2706Z"
    },
    {
      "icao": "LYNI",
      "alert": "OK",
      "vis_m": 9999,
      "fzfg": false,
      "metar_trigger": false,
      "taf_trigger": false,
      "metar": "METAR LYNI 270830Z 32013KT 9999 RA BKN008 OVC047 04/03 Q1005 NOSIG",
      "taf": "TAF LYNI 270500Z 2706/2806 35013KT 9999 RA BKN008 OVC027 TX07/2713Z TNM01/2806Z"
    },
    {
      "icao": "LYPG",
      "alert": "OK",
      "vis_m": 9999,
      "fzfg": false,
      "metar_trigger": false,
      "taf_trigger": false,
      "metar": "METAR LYPG 270830Z 32008KT 9999 FEW010 11/02 Q1004 NOSIG",
      "taf": "TAF LYPG 270500Z 2706/2806 34006KT 9999 FEW030 TX14/2713Z TN04/2723Z"
    },
    {
      "icao": "LZIB",
      "alert": "OK",
      "vis_m": 200,
      "fzfg": true,
      "metar_trigger": false,
      "taf_trigger": false,
      "metar": "METAR LZIB 270830Z 00000KT 0200 R31/0275N R22/0400N FZFG VV001 M03/M04 Q1005 NOSIG",
      "taf": ""
    },
    {
      "icao": "LZKZ",
      "alert": "OK",
      "vis_m": 200,
      "fzfg": false,
      "metar_trigger": false,
      "taf_trigger": false,
      "metar": "METAR LZKZ 270830Z 12002KT 0200 R01/0400N FG BKN001 00/M00 Q1003 TEMPO 0600 FG",
      "taf": ""
    },
    {
      "icao": "LZTT",
      "alert": "OK",
      "vis_m": 9999,
      "fzfg": false,
      "metar_trigger": false,
      "taf_trigger": false,
      "metar": "METAR LZTT 270830Z VRB02KT 9999 2000NE BCFG FEW002 01/M02 Q1002 NOSIG",
      "taf": "TAF LZTT 270515Z 2706/2806 28008KT 9999 FEW010 BKN025"
    },
    {
      "icao": "OEJN",
      "alert": "OK",
      "vis_m": 8000,
      "fzfg": false,
      "metar_trigger": false,
      "taf_trigger": false,
      "metar": "METAR OEJN 270800Z 19004KT 8000 NSC 30/15 Q1014 NOSIG",
      "taf": "TAF OEJN 270500Z 2706/2812 22010KT 7000 NSC"
    },
    {
      "icao": "OEMA",
      "alert": "OK",
      "vis_m": 6000,
      "fzfg": false,
      "metar_trigger": false,
      "taf_trigger": false,
      "metar": "METAR OEMA 270800Z VRB02KT 6000 NSC 20/00 Q1020 NOSIG",
      "taf": "TAF OEMA 270500Z 2706/2812 07006KT CAVOK"
    },
    {
      "icao": "OJAI",
      "alert": "OK",
      "vis_m": 4000,
      "fzfg": false,
      "metar_trigger": false,
      "taf_trigger": false,
      "metar": "METAR OJAI 270800Z 00000KT 4000 HZ NSC 12/01 Q1018 NOSIG",
      "taf": "TAF OJAI 270500Z 2706/2812 24012KT 5000 HZ NSC"
    },
    {
      "icao": "OMAA",
      "alert": "OK",
      "vis_m": 9999,
      "fzfg": false,
      "metar_trigger": false,
      "taf_trigger": false,
      "metar": "METAR OMAA 270900Z 03006KT 310V090 CAVOK 24/05 Q1020 BECMG 33011KT",
      "taf": "TAF OMAA 270500Z 2706/2812 06006KT 8000 NSC"
    },
    {
      "icao": "OMDB",
      "alert": "OK",
      "vis_m": 9999,
      "fzfg": false,
      "metar_trigger": false,
      "taf_trigger": false,
      "metar": "METAR OMDB 270830Z 07008KT 360V120 CAVOK 24/07 Q1021 NOSIG",
      "taf": "TAF OMDB 270500Z 2706/2812 08005KT 8000 NSC"
    },
    {
      "icao": "UAAA",
      "alert": "OK",
      "vis_m": 5000,
      "fzfg": false,
      "metar_trigger": false,
      "taf_trigger": false,
      "metar": "METAR UAAA 270830Z 02002MPS 5000 FU SCT100 BKN200 01/M07 Q1019 NOSIG",
      "taf": "TAF UAAA 270507Z 2706/2806 34003MPS 6000 SCT050 BKN100 TX03/2708Z TNM06/2802Z"
    },
    {
      "icao": "UBBB",
      "alert": "OK",
      "vis_m": 9999,
      "fzfg": false,
      "metar_trigger": false,
      "taf_trigger": false,
      "metar": "METAR UBBB 270830Z 02010KT 9999 OVC019 03/M01 Q1026 NOSIG",
      "taf": "TAF UBBB 270459Z 2706/2806 04012KT 9999 BKN012 BKN020 TX05/2710Z TN01/2800Z"
    },
    {
      "icao": "UDSG",
      "alert": "OK",
      "vis_m": 3600,
      "fzfg": false,
      "metar_trigger": false,
      "taf_trigger": false,
      "metar": "METAR UDSG 270830Z 01001KT 3600 BR FEW006 BKN033 M08/M09 Q1021 NOSIG",
      "taf": "TAF UDSG 270458Z 2706/2806 VRB06KT 1500 BR BKN020"
    },
    {
      "icao": "UDYZ",
      "alert": "OK",
      "vis_m": 4500,
      "fzfg": false,
      "metar_trigger": false,
      "taf_trigger": false,
      "metar": "METAR UDYZ 270830Z VRB02KT 4500 BR BKN008 M05/M06 Q1025 NOSIG",
      "taf": "TAF UDYZ 270500Z 2706/2806 VRB04KT 2300 BR BKN010"
    },
    {
      "icao": "UGKO",
      "alert": "OK",
      "vis_m": 9999,
      "fzfg": false,
      "metar_trigger": false,
      "taf_trigger": false,
      "metar": "METAR UGKO 270830Z 08032G46KT CAVOK 12/00 Q1013 NOSIG",
      "taf": "TAF UGKO 270500Z 2706/2806 08027G41KT CAVOK TX13/2711Z TN06/2802Z"
    }
  ]
}