{
  "ts_utc": "2026-07-02T05:51:49Z",
  "threshold_m": 150,
  "source": "stations_override.txt (ICAO list) + aviationweather.gov (METAR/TAF raw)",
  "station_count": 159,
  "stations": [
    {
      "icao": "BIKF",
      "alert": "OK",
      "vis_m": 9999,
      "fzfg": false,
      "metar_trigger": false,
      "taf_trigger": false,
      "metar": "METAR BIKF 020530Z 22022KT 9999 FEW014CB BKN023 07/04 Q1000",
      "taf": "TAF BIKF 020442Z 0206/0306 24024G36KT 9999 SCT015 BKN025 TX11/0216Z TN06/0301Z"
    },
    {
      "icao": "BKPR",
      "alert": "OK",
      "vis_m": 600,
      "fzfg": false,
      "metar_trigger": false,
      "taf_trigger": false,
      "metar": "METAR BKPR 020530Z 35003KT 330V050 0600 R17/1700U R35/0550U FG BKN001 15/15 Q1014 BECMG 1500 BR",
      "taf": "TAF BKPR 020530Z 0206/0306 02006KT 4000 BR SCT010"
    },
    {
      "icao": "EBCI",
      "alert": "OK",
      "vis_m": 9999,
      "fzfg": false,
      "metar_trigger": false,
      "taf_trigger": false,
      "metar": "METAR EBCI 020520Z 22009KT CAVOK 15/13 Q1023 NOSIG",
      "taf": "TAF EBCI 020520Z 0206/0312 23008KT CAVOK"
    },
    {
      "icao": "EDDB",
      "alert": "OK",
      "vis_m": 9999,
      "fzfg": false,
      "metar_trigger": false,
      "taf_trigger": false,
      "metar": "METAR EDDB 020520Z AUTO 26004KT CAVOK 17/15 Q1019 NOSIG",
      "taf": "TAF EDDB 020500Z 0206/0306 26007KT 9999 FEW030"
    },
    {
      "icao": "EDDH",
      "alert": "OK",
      "vis_m": 9999,
      "fzfg": false,
      "metar_trigger": false,
      "taf_trigger": false,
      "metar": "METAR EDDH 020520Z AUTO 20006KT CAVOK 17/14 Q1017 NOSIG",
      "taf": "TAF EDDH 020500Z 0206/0312 21005KT CAVOK"
    },
    {
      "icao": "EDDK",
      "alert": "OK",
      "vis_m": 9999,
      "fzfg": false,
      "metar_trigger": false,
      "taf_trigger": false,
      "metar": "METAR EDDK 020520Z AUTO VRB02KT CAVOK 17/13 Q1021 BECMG 21007KT",
      "taf": "TAF EDDK 020500Z 0206/0312 21007KT CAVOK"
    },
    {
      "icao": "EDDN",
      "alert": "OK",
      "vis_m": 350,
      "fzfg": false,
      "metar_trigger": false,
      "taf_trigger": false,
      "metar": "METAR EDDN 020520Z AUTO 10004KT 0350 R28/0700U FG VV002 14/13 Q1022 BECMG 9999 SCT005",
      "taf": "TAF EDDN 020500Z 0206/0306 VRB02KT CAVOK"
    },
    {
      "icao": "EDDS",
      "alert": "OK",
      "vis_m": 9999,
      "fzfg": false,
      "metar_trigger": false,
      "taf_trigger": false,
      "metar": "METAR EDDS 020520Z AUTO VRB01KT CAVOK 20/12 Q1022 NOSIG",
      "taf": "TAF EDDS 020500Z 0206/0306 VRB03KT CAVOK"
    },
    {
      "icao": "EDFH",
      "alert": "OK",
      "vis_m": 9999,
      "fzfg": false,
      "metar_trigger": false,
      "taf_trigger": false,
      "metar": "METAR EDFH 020520Z 26005KT CAVOK 16/11 Q1023",
      "taf": "TAF EDFH 020500Z 0206/0306 26004KT CAVOK"
    },
    {
      "icao": "EDJA",
      "alert": "OK",
      "vis_m": 9999,
      "fzfg": false,
      "metar_trigger": false,
      "taf_trigger": false,
      "metar": "METAR EDJA 020520Z VRB02KT CAVOK 13/12 Q1023",
      "taf": "TAF EDJA 020500Z 0206/0215 VRB03KT CAVOK"
    },
    {
      "icao": "EDLW",
      "alert": "OK",
      "vis_m": 9999,
      "fzfg": false,
      "metar_trigger": false,
      "taf_trigger": false,
      "metar": "METAR EDLW 020520Z 19007KT CAVOK 18/13 Q1020",
      "taf": "TAF EDLW 020500Z 0206/0306 23014KT CAVOK"
    },
    {
      "icao": "EDNY",
      "alert": "OK",
      "vis_m": 9999,
      "fzfg": false,
      "metar_trigger": false,
      "taf_trigger": false,
      "metar": "METAR EDNY 020520Z 06004KT CAVOK 16/14 Q1023",
      "taf": "TAF EDNY 020500Z 0206/0215 VRB03KT CAVOK"
    },
    {
      "icao": "EDSB",
      "alert": "OK",
      "vis_m": 9999,
      "fzfg": false,
      "metar_trigger": false,
      "taf_trigger": false,
      "metar": "METAR EDSB 020520Z 20004KT CAVOK 16/12 Q1022",
      "taf": "TAF EDSB 020500Z 0206/0306 VRB03KT CAVOK"
    },
    {
      "icao": "EETN",
      "alert": "OK",
      "vis_m": 9999,
      "fzfg": false,
      "metar_trigger": false,
      "taf_trigger": false,
      "metar": "METAR EETN 020550Z 01003KT 9999 FEW007 BKN010 17/15 Q1010 NOSIG",
      "taf": "TAF EETN 020530Z 0206/0306 07006KT 9999 SCT045"
    },
    {
      "icao": "EFTU",
      "alert": "OK",
      "vis_m": 9999,
      "fzfg": false,
      "metar_trigger": false,
      "taf_trigger": false,
      "metar": "METAR EFTU 020520Z AUTO VRB02KT 9999 FEW014 16/14 Q1011",
      "taf": "TAF EFTU 020525Z 0206/0306 07002KT 9999 FEW015"
    },
    {
      "icao": "EGBB",
      "alert": "OK",
      "vis_m": 9999,
      "fzfg": false,
      "metar_trigger": false,
      "taf_trigger": false,
      "metar": "METAR EGBB 020520Z 28009KT 230V310 9999 VCSH SCT021 18/14 Q1018",
      "taf": "TAF EGBB 020500Z 0206/0306 31012KT 9999 SCT040"
    },
    {
      "icao": "EGGP",
      "alert": "OK",
      "vis_m": 9999,
      "fzfg": false,
      "metar_trigger": false,
      "taf_trigger": false,
      "metar": "METAR EGGP 020520Z 28021KT 9999 -RA SCT022 BKN026 14/10 Q1018",
      "taf": "TAF EGGP 020457Z 0206/0306 28019G32KT 9999 SCT025"
    },
    {
      "icao": "EGGW",
      "alert": "OK",
      "vis_m": 9999,
      "fzfg": false,
      "metar_trigger": false,
      "taf_trigger": false,
      "metar": "METAR EGGW 020520Z AUTO 25014KT 9999 -RA OVC010 16/15 Q1018",
      "taf": "TAF EGGW 020501Z 0206/0306 26015KT 9999 BKN015"
    },
    {
      "icao": "EGKK",
      "alert": "OK",
      "vis_m": 9999,
      "fzfg": false,
      "metar_trigger": false,
      "taf_trigger": false,
      "metar": "METAR EGKK 020520Z 24009KT 9999 BKN012 18/15 Q1020",
      "taf": "TAF EGKK 020459Z 0206/0312 25011KT 9999 BKN016"
    },
    {
      "icao": "EGNM",
      "alert": "OK",
      "vis_m": 9999,
      "fzfg": false,
      "metar_trigger": false,
      "taf_trigger": false,
      "metar": "METAR EGNM 020520Z 25014KT 9999 SCT014 SCT019 13/10 Q1015",
      "taf": "TAF EGNM 020459Z 0206/0306 28018G31KT 9999 SCT020"
    },
    {
      "icao": "EGPD",
      "alert": "OK",
      "vis_m": 9999,
      "fzfg": false,
      "metar_trigger": false,
      "taf_trigger": false,
      "metar": "METAR EGPD 020520Z AUTO 23007KT 200V280 9999 BKN029 OVC034 15/11 Q1005",
      "taf": "TAF EGPD 020453Z 0206/0306 23010KT 9999 SCT030"
    },
    {
      "icao": "EGPF",
      "alert": "OK",
      "vis_m": 9999,
      "fzfg": false,
      "metar_trigger": false,
      "taf_trigger": false,
      "metar": "METAR EGPF 020520Z AUTO 25013KT 9999 BKN020 OVC029 14/10 Q1012",
      "taf": "TAF EGPF 020500Z 0206/0306 27015G25KT 9999 BKN020"
    },
    {
      "icao": "EHBK",
      "alert": "OK",
      "vis_m": 9999,
      "fzfg": false,
      "metar_trigger": false,
      "taf_trigger": false,
      "metar": "METAR EHBK 020525Z AUTO 20008KT 170V230 9999 NCD 17/14 Q1021 NOSIG",
      "taf": "TAF EHBK 020505Z 0206/0312 20009KT CAVOK"
    },
    {
      "icao": "EHEH",
      "alert": "OK",
      "vis_m": 9999,
      "fzfg": false,
      "metar_trigger": false,
      "taf_trigger": false,
      "metar": "METAR EHEH 020525Z AUTO 22008KT 190V260 9999 NCD 17/14 Q1020 BLU NOSIG RMK TREND REMOTE BY EHWX",
      "taf": "TAF EHEH 012307Z 0200/0306 22004KT CAVOK"
    },
    {
      "icao": "EKBI",
      "alert": "OK",
      "vis_m": 9999,
      "fzfg": false,
      "metar_trigger": false,
      "taf_trigger": false,
      "metar": "METAR EKBI 020520Z AUTO 16006KT 9999 SCT056/// OVC094/// 14/13 Q1014",
      "taf": "TAF EKBI 020527Z 0206/0306 18008KT 9999 FEW016"
    },
    {
      "icao": "EKCH",
      "alert": "OK",
      "vis_m": 9999,
      "fzfg": false,
      "metar_trigger": false,
      "taf_trigger": false,
      "metar": "METAR EKCH 020520Z AUTO 28004KT 250V320 9999 NCD 18/13 Q1015 NOSIG",
      "taf": "TAF EKCH 020527Z 0206/0306 28004KT 9999 FEW030"
    },
    {
      "icao": "ENAL",
      "alert": "OK",
      "vis_m": 9999,
      "fzfg": false,
      "metar_trigger": false,
      "taf_trigger": false,
      "metar": "METAR ENAL 020520Z 10004KT CAVOK 14/11 Q1007",
      "taf": "TAF ENAL 020500Z 0206/0215 14003KT CAVOK"
    },
    {
      "icao": "ENBR",
      "alert": "OK",
      "vis_m": 9999,
      "fzfg": false,
      "metar_trigger": false,
      "taf_trigger": false,
      "metar": "METAR ENBR 020520Z 12008KT 9999 VCSH FEW030 BKN055 14/11 Q1007 NOSIG RMK WIND 1200FT 14016KT",
      "taf": "TAF ENBR 020500Z 0206/0306 14010KT 9999 -RA SCT020 BKN050"
    },
    {
      "icao": "ENGM",
      "alert": "OK",
      "vis_m": 9999,
      "fzfg": false,
      "metar_trigger": false,
      "taf_trigger": false,
      "metar": "METAR ENGM 020520Z VRB02KT 9999 FEW001 13/12 Q1011 NOSIG",
      "taf": "TAF ENGM 020500Z 0206/0306 VRB03KT 9999 BKN015"
    },
    {
      "icao": "ENHD",
      "alert": "OK",
      "vis_m": 9999,
      "fzfg": false,
      "metar_trigger": false,
      "taf_trigger": false,
      "metar": "METAR ENHD 020520Z AUTO 11015KT 9999 -RA VV000 14/12 Q1005",
      "taf": "TAF ENHD 020500Z 0206/0215 14015KT 9999 -RA FEW008 BKN015"
    },
    {
      "icao": "ENTC",
      "alert": "OK",
      "vis_m": 9999,
      "fzfg": false,
      "metar_trigger": false,
      "taf_trigger": false,
      "metar": "METAR ENTC 020520Z 28006KT 9999 -RA FEW029 SCT044 BKN050 09/06 Q1014 NOSIG RMK WIND 2600FT 22011KT",
      "taf": "TAF ENTC 020500Z 0206/0306 27009KT 9999 -SHRA BKN050"
    },
    {
      "icao": "ENTO",
      "alert": "OK",
      "vis_m": 9999,
      "fzfg": false,
      "metar_trigger": false,
      "taf_trigger": false,
      "metar": "METAR ENTO 020520Z 20009KT 9999 SCT008 16/14 Q1010 NOSIG",
      "taf": "TAF ENTO 020500Z 0206/0306 20012KT 9999 -RADZ SCT008"
    },
    {
      "icao": "ENVA",
      "alert": "OK",
      "vis_m": 9999,
      "fzfg": false,
      "metar_trigger": false,
      "taf_trigger": false,
      "metar": "METAR ENVA 020520Z 10007KT CAVOK 15/12 Q1010 NOSIG RMK WIND 670FT 10007KT",
      "taf": "TAF ENVA 020500Z 0206/0306 13008KT CAVOK"
    },
    {
      "icao": "ENZV",
      "alert": "OK",
      "vis_m": 9999,
      "fzfg": false,
      "metar_trigger": false,
      "taf_trigger": false,
      "metar": "METAR ENZV 020520Z 12008KT 9999 -RA NSC 14/12 Q1006 BECMG BKN014",
      "taf": "TAF ENZV 020500Z 0206/0306 16008KT 9999 -RA BKN020"
    },
    {
      "icao": "EPGD",
      "alert": "OK",
      "vis_m": 9999,
      "fzfg": false,
      "metar_trigger": false,
      "taf_trigger": false,
      "metar": "METAR EPGD 020530Z 28006KT 9999 FEW006 18/16 Q1015",
      "taf": "TAF EPGD 020530Z 0206/0306 28010KT CAVOK"
    },
    {
      "icao": "EPKK",
      "alert": "OK",
      "vis_m": 9999,
      "fzfg": false,
      "metar_trigger": false,
      "taf_trigger": false,
      "metar": "METAR EPKK 020530Z 31004KT 290V350 9999 -RA BKN008 17/15 Q1017",
      "taf": "TAF EPKK 020530Z 0206/0306 29010KT 9999 BKN008"
    },
    {
      "icao": "EPKT",
      "alert": "OK",
      "vis_m": 9999,
      "fzfg": false,
      "metar_trigger": false,
      "taf_trigger": false,
      "metar": "METAR EPKT 020530Z 30004KT 9999 FEW003 OVC005 16/16 Q1018",
      "taf": "TAF EPKT 020530Z 0206/0306 32008KT 9999 BKN009"
    },
    {
      "icao": "EPLB",
      "alert": "OK",
      "vis_m": 9999,
      "fzfg": false,
      "metar_trigger": false,
      "taf_trigger": false,
      "metar": "METAR EPLB 020530Z 30008KT 9999 FEW008 BKN017 OVC021 20/18 Q1014",
      "taf": "TAF EPLB 020530Z 0206/0306 31010KT 9999 OVC020"
    },
    {
      "icao": "EPMO",
      "alert": "OK",
      "vis_m": 9999,
      "fzfg": false,
      "metar_trigger": false,
      "taf_trigger": false,
      "metar": "METAR EPMO 020530Z 30008KT 9999 FEW039 18/14 Q1016",
      "taf": "TAF EPMO 020530Z 0206/0306 31010KT 9999 SCT040"
    },
    {
      "icao": "EPPO",
      "alert": "OK",
      "vis_m": 9999,
      "fzfg": false,
      "metar_trigger": false,
      "taf_trigger": false,
      "metar": "METAR EPPO 020530Z 31007KT CAVOK 18/15 Q1018",
      "taf": "TAF EPPO 020530Z 0206/0306 27010KT CAVOK"
    },
    {
      "icao": "EPRA",
      "alert": "OK",
      "vis_m": 9999,
      "fzfg": false,
      "metar_trigger": false,
      "taf_trigger": false,
      "metar": "METAR EPRA 020530Z 32008KT 9999 OVC009 17/16 Q1016",
      "taf": "TAF EPRA 020530Z 0206/0215 32010KT 9999 BKN014"
    },
    {
      "icao": "EPRZ",
      "alert": "OK",
      "vis_m": 9999,
      "fzfg": false,
      "metar_trigger": false,
      "taf_trigger": false,
      "metar": "METAR EPRZ 020530Z 32005KT 9999 BKN009 21/18 Q1015",
      "taf": "TAF EPRZ 020530Z 0206/0306 32008KT 9999 BKN008"
    },
    {
      "icao": "EPSC",
      "alert": "OK",
      "vis_m": 9999,
      "fzfg": false,
      "metar_trigger": false,
      "taf_trigger": false,
      "metar": "METAR EPSC 020530Z 24003KT 200V270 CAVOK 18/16 Q1017",
      "taf": "TAF EPSC 020530Z 0206/0306 27008KT CAVOK"
    },
    {
      "icao": "EPSY",
      "alert": "OK",
      "vis_m": 9999,
      "fzfg": false,
      "metar_trigger": false,
      "taf_trigger": false,
      "metar": "METAR EPSY 020530Z 29005KT 260V320 9999 FEW006 BKN045 17/16 Q1015",
      "taf": "TAF EPSY 020530Z 0206/0215 31008KT 9999 BKN025"
    },
    {
      "icao": "EPWA",
      "alert": "OK",
      "vis_m": 9999,
      "fzfg": false,
      "metar_trigger": false,
      "taf_trigger": false,
      "metar": "METAR EPWA 020530Z 29009KT 9999 SCT014 BKN026 18/15 Q1016 NOSIG",
      "taf": "TAF EPWA 020530Z 0206/0306 31010KT 9999 BKN028"
    },
    {
      "icao": "EPWR",
      "alert": "OK",
      "vis_m": 9999,
      "fzfg": false,
      "metar_trigger": false,
      "taf_trigger": false,
      "metar": "METAR EPWR 020530Z 30008KT 9999 FEW006 17/16 Q1019",
      "taf": "TAF EPWR 020530Z 0206/0306 29010KT 9999 BKN003"
    },
    {
      "icao": "ESGG",
      "alert": "OK",
      "vis_m": 9999,
      "fzfg": false,
      "metar_trigger": false,
      "taf_trigger": false,
      "metar": "METAR ESGG 020520Z 21005KT 9999 FEW014 15/14 Q1013",
      "taf": "TAF ESGG 020530Z 0206/0306 21006KT 9999 SCT012"
    },
    {
      "icao": "ESKN",
      "alert": "OK",
      "vis_m": 9999,
      "fzfg": false,
      "metar_trigger": false,
      "taf_trigger": false,
      "metar": "METAR ESKN 020520Z 25004KT 230V300 CAVOK 17/14 Q1012",
      "taf": "TAF ESKN 020530Z 0206/0306 25004KT CAVOK"
    },
    {
      "icao": "ESMS",
      "alert": "OK",
      "vis_m": 9999,
      "fzfg": false,
      "metar_trigger": false,
      "taf_trigger": false,
      "metar": "METAR ESMS 020520Z 20004KT CAVOK 18/17 Q1015",
      "taf": "TAF ESMS 020527Z 0206/0306 22002KT 9999 FEW030"
    },
    {
      "icao": "ESSA",
      "alert": "OK",
      "vis_m": 9999,
      "fzfg": false,
      "metar_trigger": false,
      "taf_trigger": false,
      "metar": "METAR ESSA 020520Z VRB03KT CAVOK 16/11 Q1012 NOSIG",
      "taf": "TAF ESSA 020530Z 0206/0306 09005KT CAVOK"
    },
    {
      "icao": "EYKA",
      "alert": "OK",
      "vis_m": 9999,
      "fzfg": false,
      "metar_trigger": false,
      "taf_trigger": false,
      "metar": "METAR EYKA 020550Z 32007KT 280V010 9999 FEW008 BKN034 16/14 Q1012",
      "taf": "TAF EYKA 020500Z 0206/0306 29007KT 8000 BKN010 BKN030"
    },
    {
      "icao": "EYPA",
      "alert": "OK",
      "vis_m": 9999,
      "fzfg": false,
      "metar_trigger": false,
      "taf_trigger": false,
      "metar": "METAR EYPA 020550Z VRB01KT CAVOK 18/17 Q1013",
      "taf": "TAF EYPA 020500Z 0206/0306 VRB03KT 8000 FEW020"
    },
    {
      "icao": "EYVI",
      "alert": "OK",
      "vis_m": 9999,
      "fzfg": false,
      "metar_trigger": false,
      "taf_trigger": false,
      "metar": "METAR EYVI 020550Z 29006KT 260V330 9999 BKN006 OVC011 19/18 Q1011 NOSIG",
      "taf": "TAF EYVI 020500Z 0206/0306 VRB03KT 9000 BKN005"
    },
    {
      "icao": "GCFV",
      "alert": "OK",
      "vis_m": 9999,
      "fzfg": false,
      "metar_trigger": false,
      "taf_trigger": false,
      "metar": "METAR GCFV 020530Z 01011KT 9999 BKN020 22/18 Q1014",
      "taf": "TAF GCFV 020200Z 0203/0303 36012KT 9999 BKN020 TX28/0214Z TN22/0206Z"
    },
    {
      "icao": "GCLP",
      "alert": "OK",
      "vis_m": 9999,
      "fzfg": false,
      "metar_trigger": false,
      "taf_trigger": false,
      "metar": "METAR GCLP 020530Z 01019KT 9999 BKN020 22/18 Q1014 NOSIG",
      "taf": "TAF GCLP 020200Z 0203/0303 36021KT 9999 SCT020 TX28/0214Z TN22/0206Z"
    },
    {
      "icao": "GCTS",
      "alert": "OK",
      "vis_m": 9999,
      "fzfg": false,
      "metar_trigger": false,
      "taf_trigger": false,
      "metar": "METAR GCTS 020530Z 29007KT 9999 SCT019 22/18 Q1015 NOSIG",
      "taf": "TAF GCTS 020200Z 0203/0303 29005KT 9999 SCT020 TX28/0214Z TN20/0206Z"
    },
    {
      "icao": "GMAD",
      "alert": "OK",
      "vis_m": 2000,
      "fzfg": false,
      "metar_trigger": false,
      "taf_trigger": false,
      "metar": "METAR GMAD 020530Z 24007KT 2000 BR OVC002 18/18 Q1013 NOSIG",
      "taf": "TAF GMAD 012300Z 0200/0306 12004KT 6000 SCT008 BKN016"
    },
    {
      "icao": "GMMN",
      "alert": "OK",
      "vis_m": 300,
      "fzfg": false,
      "metar_trigger": false,
      "taf_trigger": false,
      "metar": "METAR GMMN 020530Z VRB02KT 0300 R35L/0200N FG BKN001 20/19 Q1012 NOSIG",
      "taf": "TAF GMMN 012300Z 0200/0306 26006KT CAVOK"
    },
    {
      "icao": "GMMX",
      "alert": "OK",
      "vis_m": 9999,
      "fzfg": false,
      "metar_trigger": false,
      "taf_trigger": false,
      "metar": "METAR GMMX 020530Z 02003KT CAVOK 27/12 Q1013 NOSIG",
      "taf": "TAF GMMX 020500Z 0206/0312 06006KT 8000 NSC"
    },
    {
      "icao": "HEGN",
      "alert": "OK",
      "vis_m": 9999,
      "fzfg": false,
      "metar_trigger": false,
      "taf_trigger": false,
      "metar": "METAR HEGN 020500Z 31016KT CAVOK 30/11 Q1007 NOSIG",
      "taf": "TAF HEGN 020500Z 0206/0312 32010G20KT CAVOK"
    },
    {
      "icao": "HEMA",
      "alert": "OK",
      "vis_m": null,
      "fzfg": false,
      "metar_trigger": false,
      "taf_trigger": false,
      "metar": "",
      "taf": "TAF HEMA 020500Z 0206/0312 33010G20KT CAVOK"
    },
    {
      "icao": "HESH",
      "alert": "OK",
      "vis_m": 9999,
      "fzfg": false,
      "metar_trigger": false,
      "taf_trigger": false,
      "metar": "METAR HESH 020500Z 35016KT CAVOK 32/12 Q1005 NOSIG",
      "taf": "TAF HESH 020500Z 0206/0312 36010G20KT CAVOK"
    },
    {
      "icao": "HESX",
      "alert": "OK",
      "vis_m": 6000,
      "fzfg": false,
      "metar_trigger": false,
      "taf_trigger": false,
      "metar": "METAR HESX 020500Z 35006KT 6000 NSC 24/18 Q1011 NOSIG",
      "taf": "TAF HESX 020500Z 0206/0312 34009KT CAVOK"
    },
    {
      "icao": "LATI",
      "alert": "OK",
      "vis_m": 9999,
      "fzfg": false,
      "metar_trigger": false,
      "taf_trigger": false,
      "metar": "METAR LATI 020550Z VRB02KT 9999 SCT110 26/14 Q1010 NOSIG",
      "taf": "TAF LATI 020500Z 0206/0306 VRB05KT CAVOK TX34/0212Z TN21/0304Z"
    },
    {
      "icao": "LBPD",
      "alert": "OK",
      "vis_m": 9999,
      "fzfg": false,
      "metar_trigger": false,
      "taf_trigger": false,
      "metar": "METAR LBPD 020530Z AUTO 28005KT 9999 OVC190/// 20/19 Q1011 NOSIG",
      "taf": "TAF LBPD 020500Z 0206/0306 VRB04KT 9999 SCT065"
    },
    {
      "icao": "LBSF",
      "alert": "OK",
      "vis_m": 5000,
      "fzfg": false,
      "metar_trigger": false,
      "taf_trigger": false,
      "metar": "METAR LBSF 020530Z VRB02KT 5000 BR SCT003 17/16 Q1014 TEMPO 3000 BR BKN004",
      "taf": "TAF LBSF 020500Z 0206/0306 VRB04KT 1200 BR SCT002 BKN005"
    },
    {
      "icao": "LBWN",
      "alert": "OK",
      "vis_m": 9999,
      "fzfg": false,
      "metar_trigger": false,
      "taf_trigger": false,
      "metar": "METAR LBWN 020530Z 25004KT 210V280 9999 FEW049 23/18 Q1010 NOSIG",
      "taf": "TAF LBWN 020500Z 0206/0306 30008KT 9999 SCT045"
    },
    {
      "icao": "LCLK",
      "alert": "OK",
      "vis_m": 9999,
      "fzfg": false,
      "metar_trigger": false,
      "taf_trigger": false,
      "metar": "METAR LCLK 020530Z 07004KT 030V100 9999 FEW010 29/23 Q1007 NOSIG",
      "taf": "TAF LCLK 020530Z 0206/0306 10006KT 9999 FEW025"
    },
    {
      "icao": "LCPH",
      "alert": "OK",
      "vis_m": 9999,
      "fzfg": false,
      "metar_trigger": false,
      "taf_trigger": false,
      "metar": "METAR LCPH 020530Z VRB03KT 9999 FEW016 27/19 Q1007 NOSIG",
      "taf": "TAF LCPH 020530Z 0206/0306 34008KT 9999 SCT015"
    },
    {
      "icao": "LEAL",
      "alert": "OK",
      "vis_m": 9999,
      "fzfg": false,
      "metar_trigger": false,
      "taf_trigger": false,
      "metar": "METAR LEAL 020530Z 02005KT 350V070 9999 SCT012 26/21 Q1019 NOSIG",
      "taf": "TAF LEAL 020500Z 0206/0306 10012KT 9999 FEW020 TX31/0212Z TN22/0305Z"
    },
    {
      "icao": "LEBB",
      "alert": "OK",
      "vis_m": 9999,
      "fzfg": false,
      "metar_trigger": false,
      "taf_trigger": false,
      "metar": "METAR LEBB 020530Z 09003KT 020V140 9999 FEW035 BKN052 18/16 Q1029 NOSIG",
      "taf": "TAF LEBB 020500Z 0206/0306 34009KT 9999 SCT040 TX24/0214Z TN18/0305Z"
    },
    {
      "icao": "LEBL",
      "alert": "OK",
      "vis_m": 9999,
      "fzfg": false,
      "metar_trigger": false,
      "taf_trigger": false,
      "metar": "METAR LEBL 020530Z 33007KT 290V010 CAVOK 24/14 Q1019 NOSIG",
      "taf": "TAF LEBL 020500Z 0206/0306 33007KT 9999 FEW020 TX30/0213Z TN23/0206Z"
    },
    {
      "icao": "LECH",
      "alert": "OK",
      "vis_m": 9999,
      "fzfg": false,
      "metar_trigger": false,
      "taf_trigger": false,
      "metar": "METAR LECH 020530Z AUTO VRB02KT CAVOK 18/09 Q1022",
      "taf": "TAF LECH 020500Z 0206/0306 VRB04KT CAVOK TX32/0212Z TN18/0305Z"
    },
    {
      "icao": "LEMD",
      "alert": "OK",
      "vis_m": 9999,
      "fzfg": false,
      "metar_trigger": false,
      "taf_trigger": false,
      "metar": "METAR LEMD 020530Z 35009KT CAVOK 17/06 Q1024 NOSIG",
      "taf": "TAF LEMD 020500Z 0206/0312 04010KT CAVOK TX36/0216Z TN17/0305Z"
    },
    {
      "icao": "LEMG",
      "alert": "OK",
      "vis_m": 9999,
      "fzfg": false,
      "metar_trigger": false,
      "taf_trigger": false,
      "metar": "METAR LEMG 020530Z 29002KT CAVOK 22/14 Q1018 NOSIG",
      "taf": "TAF LEMG 020500Z 0206/0306 28005KT CAVOK TX32/0214Z TN23/0305Z"
    },
    {
      "icao": "LEVC",
      "alert": "OK",
      "vis_m": 9999,
      "fzfg": false,
      "metar_trigger": false,
      "taf_trigger": false,
      "metar": "METAR LEVC 020530Z VRB03KT 9999 FEW030 BKN050 25/18 Q1020 NOSIG",
      "taf": "TAF LEVC 020500Z 0206/0306 VRB04KT 9999 FEW020 TX31/0212Z TN22/0305Z"
    },
    {
      "icao": "LEXJ",
      "alert": "OK",
      "vis_m": 9999,
      "fzfg": false,
      "metar_trigger": false,
      "taf_trigger": false,
      "metar": "METAR LEXJ 020530Z 23004KT 200V270 9999 SCT030 SCT040 BKN045 17/15 Q1029",
      "taf": "TAF LEXJ 020200Z 0203/0303 VRB03KT 9999 SCT025 TX25/0213Z TN18/0205Z"
    },
    {
      "icao": "LEZG",
      "alert": "OK",
      "vis_m": 9999,
      "fzfg": false,
      "metar_trigger": false,
      "taf_trigger": false,
      "metar": "METAR LEZG 020530Z 29018KT CAVOK 19/11 Q1024 NOSIG",
      "taf": "TAF LEZG 020500Z 0206/0306 30020KT CAVOK TX33/0214Z TN18/0305Z"
    },
    {
      "icao": "LEZL",
      "alert": "OK",
      "vis_m": 9999,
      "fzfg": false,
      "metar_trigger": false,
      "taf_trigger": false,
      "metar": "METAR LEZL 020530Z VRB02KT CAVOK 26/19 Q1015 NOSIG",
      "taf": "TAF LEZL 020200Z 0203/0303 21004KT CAVOK TX42/0215Z TN25/0205Z"
    },
    {
      "icao": "LFBD",
      "alert": "OK",
      "vis_m": 9999,
      "fzfg": false,
      "metar_trigger": false,
      "taf_trigger": false,
      "metar": "METAR LFBD 020530Z AUTO VRB02KT CAVOK 17/15 Q1027 NOSIG",
      "taf": "TAF LFBD 020500Z 0206/0312 VRB03KT CAVOK TX31/0213Z TN16/0206Z"
    },
    {
      "icao": "LFLL",
      "alert": "OK",
      "vis_m": 9999,
      "fzfg": false,
      "metar_trigger": false,
      "taf_trigger": false,
      "metar": "METAR LFLL 020530Z 34013KT CAVOK 19/11 Q1023 NOSIG",
      "taf": "TAF LFLL 020500Z 0206/0312 34010KT CAVOK"
    },
    {
      "icao": "LFLS",
      "alert": "OK",
      "vis_m": 9999,
      "fzfg": false,
      "metar_trigger": false,
      "taf_trigger": false,
      "metar": "METAR LFLS 020530Z AUTO 36003KT 310V120 CAVOK 18/11 Q1023 BECMG 36015KT",
      "taf": "TAF LFLS 020200Z 0203/0303 36015KT CAVOK"
    },
    {
      "icao": "LFMN",
      "alert": "OK",
      "vis_m": 9999,
      "fzfg": false,
      "metar_trigger": false,
      "taf_trigger": false,
      "metar": "METAR LFMN 020530Z 35008KT CAVOK 23/13 Q1013 NOSIG",
      "taf": "TAF LFMN 020200Z 0203/0309 35010KT CAVOK"
    },
    {
      "icao": "LFOB",
      "alert": "OK",
      "vis_m": 9999,
      "fzfg": false,
      "metar_trigger": false,
      "taf_trigger": false,
      "metar": "METAR LFOB 020530Z AUTO 26007KT 9999 BKN010 15/13 Q1024 NOSIG",
      "taf": "TAF LFOB 020500Z 0206/0306 28009KT 9999 OVC012"
    },
    {
      "icao": "LFPO",
      "alert": "OK",
      "vis_m": 9999,
      "fzfg": false,
      "metar_trigger": false,
      "taf_trigger": false,
      "metar": "METAR LFPO 020530Z 29007KT 260V320 9999 FEW013 16/13 Q1025 NOSIG",
      "taf": "TAF LFPO 020500Z 0206/0312 32008KT CAVOK"
    },
    {
      "icao": "LFSB",
      "alert": "OK",
      "vis_m": 9999,
      "fzfg": false,
      "metar_trigger": false,
      "taf_trigger": false,
      "metar": "METAR LFSB 020530Z AUTO VRB02KT CAVOK 17/15 Q1023 NOSIG",
      "taf": "TAF LFSB 020500Z 0206/0306 VRB03KT CAVOK"
    },
    {
      "icao": "LGAV",
      "alert": "OK",
      "vis_m": 9999,
      "fzfg": false,
      "metar_trigger": false,
      "taf_trigger": false,
      "metar": "METAR LGAV 020520Z 00000KT CAVOK 26/16 Q1009 NOSIG",
      "taf": "TAF LGAV 020500Z 0206/0306 07010KT 9999 FEW025"
    },
    {
      "icao": "LGTS",
      "alert": "OK",
      "vis_m": 9999,
      "fzfg": false,
      "metar_trigger": false,
      "taf_trigger": false,
      "metar": "METAR LGTS 020520Z VRB02KT CAVOK 25/17 Q1009 NOSIG",
      "taf": "TAF LGTS 020500Z 0206/0306 VRB03KT 9999 FEW030"
    },
    {
      "icao": "LHBP",
      "alert": "OK",
      "vis_m": 9999,
      "fzfg": false,
      "metar_trigger": false,
      "taf_trigger": false,
      "metar": "METAR LHBP 020530Z 32007KT CAVOK 23/17 Q1014 NOSIG",
      "taf": "TAF LHBP 020515Z 0206/0306 32012KT CAVOK"
    },
    {
      "icao": "LHDC",
      "alert": "OK",
      "vis_m": 9999,
      "fzfg": false,
      "metar_trigger": false,
      "taf_trigger": false,
      "metar": "METAR LHDC 020515Z AUTO 02009KT 340V050 CAVOK 23/17 Q1012 NOSIG",
      "taf": "TAF LHDC 020515Z 0206/0215 01007KT CAVOK"
    },
    {
      "icao": "LIBD",
      "alert": "OK",
      "vis_m": 9999,
      "fzfg": false,
      "metar_trigger": false,
      "taf_trigger": false,
      "metar": "METAR LIBD 020520Z 29009KT 260V320 CAVOK 27/21 Q1010",
      "taf": "TAF LIBD 020500Z 0206/0306 28008KT CAVOK"
    },
    {
      "icao": "LIBG",
      "alert": "OK",
      "vis_m": 9999,
      "fzfg": false,
      "metar_trigger": false,
      "taf_trigger": false,
      "metar": "METAR LIBG 020520Z AUTO VRB01KT 9999 NCD 26/21 Q1010",
      "taf": "TAF LIBG 020500Z 0206/0306 VRB05KT CAVOK"
    },
    {
      "icao": "LIBP",
      "alert": "OK",
      "vis_m": 9999,
      "fzfg": false,
      "metar_trigger": false,
      "taf_trigger": false,
      "metar": "METAR LIBP 020520Z AUTO 25003KT 9999 OVC027/// 24/19 Q1012",
      "taf": "TAF LIBP 020500Z 0206/0306 VRB05KT 9999 SCT060"
    },
    {
      "icao": "LIBR",
      "alert": "OK",
      "vis_m": 9999,
      "fzfg": false,
      "metar_trigger": false,
      "taf_trigger": false,
      "metar": "METAR LIBR 020520Z VRB02KT CAVOK 26/21 Q1009",
      "taf": "TAF LIBR 020500Z 0206/0306 35012KT CAVOK"
    },
    {
      "icao": "LICA",
      "alert": "OK",
      "vis_m": 9999,
      "fzfg": false,
      "metar_trigger": false,
      "taf_trigger": false,
      "metar": "METAR LICA 020520Z AUTO 28003KT 250V320 9999 FEW023/// 27/23 Q1011",
      "taf": "TAF LICA 020500Z 0206/0306 26010KT 9999 BKN020"
    },
    {
      "icao": "LICC",
      "alert": "OK",
      "vis_m": 9999,
      "fzfg": false,
      "metar_trigger": false,
      "taf_trigger": false,
      "metar": "METAR LICC 020520Z 24007KT CAVOK 25/18 Q1011",
      "taf": "TAF LICC 020500Z 0206/0306 26007KT 9999 FEW040"
    },
    {
      "icao": "LICJ",
      "alert": "OK",
      "vis_m": 9999,
      "fzfg": false,
      "metar_trigger": false,
      "taf_trigger": false,
      "metar": "METAR LICJ 020520Z 17011KT 9999 FEW002 28/22 Q1010",
      "taf": "TAF LICJ 020500Z 0206/0306 21013KT 9999 FEW020"
    },
    {
      "icao": "LIMC",
      "alert": "OK",
      "vis_m": 9999,
      "fzfg": false,
      "metar_trigger": false,
      "taf_trigger": false,
      "metar": "METAR LIMC 020520Z 03003KT CAVOK 20/16 Q1016 NOSIG",
      "taf": "TAF LIMC 020500Z 0206/0312 VRB05KT CAVOK"
    },
    {
      "icao": "LIME",
      "alert": "OK",
      "vis_m": 9999,
      "fzfg": false,
      "metar_trigger": false,
      "taf_trigger": false,
      "metar": "METAR LIME 020520Z 01004KT CAVOK 20/13 Q1016 NOSIG",
      "taf": "TAF LIME 020500Z 0206/0306 01005KT CAVOK"
    },
    {
      "icao": "LIMF",
      "alert": "OK",
      "vis_m": 9999,
      "fzfg": false,
      "metar_trigger": false,
      "taf_trigger": false,
      "metar": "METAR LIMF 020520Z 07003KT CAVOK 18/14 Q1017",
      "taf": "TAF LIMF 020500Z 0206/0306 VRB05KT CAVOK"
    },
    {
      "icao": "LIMJ",
      "alert": "OK",
      "vis_m": 9999,
      "fzfg": false,
      "metar_trigger": false,
      "taf_trigger": false,
      "metar": "METAR LIMJ 020520Z 06007KT 010V110 9999 SCT070 27/11 Q1012",
      "taf": "TAF LIMJ 020500Z 0206/0306 01013KT CAVOK"
    },
    {
      "icao": "LIPE",
      "alert": "OK",
      "vis_m": 6000,
      "fzfg": false,
      "metar_trigger": false,
      "taf_trigger": false,
      "metar": "METAR LIPE 020520Z 25005KT 190V300 6000 RA SCT010 18/18 Q1015",
      "taf": "TAF LIPE 020500Z 0206/0306 29008KT 9999 SCT030"
    },
    {
      "icao": "LIPH",
      "alert": "OK",
      "vis_m": 9999,
      "fzfg": false,
      "metar_trigger": false,
      "taf_trigger": false,
      "metar": "METAR LIPH 020520Z 25004KT CAVOK 21/18 Q1014",
      "taf": "TAF LIPH 020500Z 0206/0306 VRB05KT 9999 FEW030"
    },
    {
      "icao": "LIPQ",
      "alert": "OK",
      "vis_m": 9999,
      "fzfg": false,
      "metar_trigger": false,
      "taf_trigger": false,
      "metar": "METAR LIPQ 020520Z VRB02KT 9999 SCT050 21/19 Q1013",
      "taf": "TAF LIPQ 020500Z 0206/0306 VRB05KT 9999 SCT030"
    },
    {
      "icao": "LIPR",
      "alert": "OK",
      "vis_m": 9999,
      "fzfg": false,
      "metar_trigger": false,
      "taf_trigger": false,
      "metar": "METAR LIPR 020520Z 29011KT 9999 SCT045 21/19 Q1013",
      "taf": "TAF LIPR 020500Z 0206/0306 06010KT 9999 BKN040"
    },
    {
      "icao": "LIPX",
      "alert": "OK",
      "vis_m": 9999,
      "fzfg": false,
      "metar_trigger": false,
      "taf_trigger": false,
      "metar": "METAR LIPX 020520Z 25005KT 220V280 9999 BKN090 20/18 Q1015",
      "taf": "TAF LIPX 020500Z 0206/0306 VRB05KT 9999 FEW050"
    },
    {
      "icao": "LIPY",
      "alert": "OK",
      "vis_m": 9999,
      "fzfg": false,
      "metar_trigger": false,
      "taf_trigger": false,
      "metar": "METAR LIPY 020520Z AUTO 23003KT 190V280 9999 BKN020/// 22/19 Q1012",
      "taf": "TAF LIPY 020500Z 0206/0306 32008KT 9999 SCT030"
    },
    {
      "icao": "LIPZ",
      "alert": "OK",
      "vis_m": 9999,
      "fzfg": false,
      "metar_trigger": false,
      "taf_trigger": false,
      "metar": "METAR LIPZ 020520Z 31005KT 290V360 CAVOK 22/17 Q1014 NOSIG",
      "taf": "TAF LIPZ 020500Z 0206/0312 03008KT 9999 FEW030"
    },
    {
      "icao": "LIRF",
      "alert": "OK",
      "vis_m": 9999,
      "fzfg": false,
      "metar_trigger": false,
      "taf_trigger": false,
      "metar": "METAR LIRF 020520Z 07010KT 9999 -TSRA FEW018CB SCT040 20/18 Q1009 TEMPO 4000 TSRA",
      "taf": "TAF LIRF 020500Z 0206/0312 02012KT CAVOK"
    },
    {
      "icao": "LIRN",
      "alert": "OK",
      "vis_m": 9999,
      "fzfg": false,
      "metar_trigger": false,
      "taf_trigger": false,
      "metar": "METAR LIRN 020520Z 06004KT 040V110 9999 FEW025 27/21 Q1011 TEMPO 4000 TSRA",
      "taf": "TAF LIRN 020500Z 0206/0306 VRB05KT CAVOK"
    },
    {
      "icao": "LIRP",
      "alert": "OK",
      "vis_m": 9999,
      "fzfg": false,
      "metar_trigger": false,
      "taf_trigger": false,
      "metar": "METAR LIRP 020515Z 12004KT CAVOK 21/16 Q1011 NOSIG",
      "taf": "TAF LIRP 020500Z 0206/0306 VRB03KT 9999 -RA FEW025 SCT070"
    },
    {
      "icao": "LIRZ",
      "alert": "OK",
      "vis_m": 9999,
      "fzfg": false,
      "metar_trigger": false,
      "taf_trigger": false,
      "metar": "METAR LIRZ 020520Z AUTO 23005KT 190V270 9999 BKN031/// 21/15 Q1013",
      "taf": "TAF LIRZ 020500Z 0206/0306 02012KT CAVOK"
    },
    {
      "icao": "LJLJ",
      "alert": "OK",
      "vis_m": 9999,
      "fzfg": false,
      "metar_trigger": false,
      "taf_trigger": false,
      "metar": "METAR LJLJ 020530Z 06007KT 9999 FEW060 SCT080 BKN120 19/16 Q1017 NOSIG",
      "taf": "TAF LJLJ 020500Z 0206/0306 04005KT 9999 FEW060 SCT080"
    },
    {
      "icao": "LKMT",
      "alert": "OK",
      "vis_m": 9999,
      "fzfg": false,
      "metar_trigger": false,
      "taf_trigger": false,
      "metar": "METAR LKMT 020530Z 13004KT 040V190 9999 FEW017 SCT028 16/14 Q1019 NOSIG",
      "taf": "TAF LKMT 020500Z 0206/0306 03010KT CAVOK"
    },
    {
      "icao": "LKPR",
      "alert": "OK",
      "vis_m": 9999,
      "fzfg": false,
      "metar_trigger": false,
      "taf_trigger": false,
      "metar": "METAR LKPR 020530Z 27008KT CAVOK 17/14 Q1021 NOSIG",
      "taf": "TAF LKPR 020500Z 0206/0312 26007KT CAVOK"
    },
    {
      "icao": "LLBG",
      "alert": "OK",
      "vis_m": 9999,
      "fzfg": false,
      "metar_trigger": false,
      "taf_trigger": false,
      "metar": "METAR LLBG 020550Z 22007KT 9999 SCT022 27/20 Q1009 NOSIG",
      "taf": "TAF LLBG 020502Z 0206/0306 19006KT 9999 SCT025 TX31/0210Z TN23/0303Z"
    },
    {
      "icao": "LMML",
      "alert": "OK",
      "vis_m": 9999,
      "fzfg": false,
      "metar_trigger": false,
      "taf_trigger": false,
      "metar": "METAR LMML 020545Z 29015KT 9999 SCT015 27/23 Q1013 NOSIG",
      "taf": "TAF LMML 020500Z 0206/0306 29015KT 9999 FEW018"
    },
    {
      "icao": "LOWW",
      "alert": "OK",
      "vis_m": 9999,
      "fzfg": false,
      "metar_trigger": false,
      "taf_trigger": false,
      "metar": "METAR LOWW 020520Z 32015KT 9999 FEW024 SCT048 20/14 Q1019 NOSIG",
      "taf": "TAF LOWW 020515Z 0206/0312 31015G25KT 9999 FEW050 TX28/0215Z TN18/0303Z"
    },
    {
      "icao": "LPFR",
      "alert": "OK",
      "vis_m": 9999,
      "fzfg": false,
      "metar_trigger": false,
      "taf_trigger": false,
      "metar": "METAR LPFR 020530Z 03006G17KT 010V070 CAVOK 26/14 Q1015",
      "taf": "TAF LPFR 020500Z 0206/0306 VRB02KT CAVOK"
    },
    {
      "icao": "LPMA",
      "alert": "OK",
      "vis_m": 9999,
      "fzfg": false,
      "metar_trigger": false,
      "taf_trigger": false,
      "metar": "METAR LPMA 020530Z 00000KT 9999 FEW015 21/19 Q1018",
      "taf": "TAF LPMA 020500Z 0206/0306 VRB05KT 9999 SCT015"
    },
    {
      "icao": "LPPR",
      "alert": "OK",
      "vis_m": 9999,
      "fzfg": false,
      "metar_trigger": false,
      "taf_trigger": false,
      "metar": "METAR LPPR 020530Z 07010KT 040V110 CAVOK 24/06 Q1020",
      "taf": "TAF LPPR 020500Z 0206/0306 08012KT CAVOK"
    },
    {
      "icao": "LPPS",
      "alert": "OK",
      "vis_m": 9999,
      "fzfg": false,
      "metar_trigger": false,
      "taf_trigger": false,
      "metar": "METAR LPPS 020530Z 01014KT 9999 BKN013 20/17 Q1019",
      "taf": "TAF LPPS 020500Z 0206/0312 02012KT 9999 BKN013"
    },
    {
      "icao": "LPPT",
      "alert": "OK",
      "vis_m": 9999,
      "fzfg": false,
      "metar_trigger": false,
      "taf_trigger": false,
      "metar": "METAR LPPT 020530Z 02006KT 330V070 CAVOK 25/12 Q1017 NOSIG",
      "taf": "TAF LPPT 020500Z 0206/0312 04007KT CAVOK"
    },
    {
      "icao": "LQBK",
      "alert": "OK",
      "vis_m": 9999,
      "fzfg": false,
      "metar_trigger": false,
      "taf_trigger": false,
      "metar": "METAR LQBK 020530Z 29009KT 9999 -RA FEW030 BKN047 19/16 Q1016 NOSIG",
      "taf": "TAF LQBK 020500Z 0206/0306 29007KT 9999 SCT030 BKN045 TX25/0214Z TN16/0303Z"
    },
    {
      "icao": "LQSA",
      "alert": "OK",
      "vis_m": 9999,
      "fzfg": false,
      "metar_trigger": false,
      "taf_trigger": false,
      "metar": "METAR LQSA 020530Z 32005KT 9999 -RA FEW015 BKN025 BKN045 19/17 Q1016 NOSIG",
      "taf": "TAF LQSA 020500Z 0206/0306 29007KT 9999 FEW018 SCT035 TX24/0213Z TN15/0303Z"
    },
    {
      "icao": "LQTZ",
      "alert": "OK",
      "vis_m": 9999,
      "fzfg": false,
      "metar_trigger": false,
      "taf_trigger": false,
      "metar": "METAR LQTZ 020530Z 28007KT 9999 -RA BKN008 OVC020 19/19 Q1015",
      "taf": "TAF LQTZ 020500Z 0206/0306 34007KT 9999 SCT017 BKN035 TX23/0216Z TN17/0304Z"
    },
    {
      "icao": "LRBC",
      "alert": "OK",
      "vis_m": 9999,
      "fzfg": false,
      "metar_trigger": false,
      "taf_trigger": false,
      "metar": "METAR LRBC 020530Z 35005KT CAVOK 25/18 Q1011",
      "taf": "TAF LRBC 020500Z 0206/0215 VRB04KT CAVOK"
    },
    {
      "icao": "LRBS",
      "alert": "OK",
      "vis_m": 9999,
      "fzfg": false,
      "metar_trigger": false,
      "taf_trigger": false,
      "metar": "METAR LRBS 020530Z 27005KT 220V340 CAVOK 22/19 Q1011 NOSIG",
      "taf": "TAF LRBS 020500Z 0206/0306 27007KT CAVOK"
    },
    {
      "icao": "LRBV",
      "alert": "OK",
      "vis_m": 9999,
      "fzfg": false,
      "metar_trigger": false,
      "taf_trigger": false,
      "metar": "METAR LRBV 020530Z 22006KT 180V260 9999 FEW055CB 19/18 Q1013",
      "taf": "TAF LRBV 020500Z 0206/0215 VRB04KT 9999 SCT065"
    },
    {
      "icao": "LRCL",
      "alert": "OK",
      "vis_m": 9999,
      "fzfg": false,
      "metar_trigger": false,
      "taf_trigger": false,
      "metar": "METAR LRCL 020530Z 26003KT 220V330 9999 FEW044CB SCT050 21/19 Q1012",
      "taf": "TAF LRCL 020500Z 0206/0215 VRB04KT 9999 SCT045"
    },
    {
      "icao": "LRCV",
      "alert": "OK",
      "vis_m": 9999,
      "fzfg": false,
      "metar_trigger": false,
      "taf_trigger": false,
      "metar": "METAR LRCV 020530Z 32005KT 290V350 9999 SCT004 21/21 Q1012",
      "taf": "TAF LRCV 020500Z 0206/0215 28006KT 9999 BKN005"
    },
    {
      "icao": "LRIA",
      "alert": "OK",
      "vis_m": 9999,
      "fzfg": false,
      "metar_trigger": false,
      "taf_trigger": false,
      "metar": "METAR LRIA 020530Z VRB02KT CAVOK 25/19 Q1011",
      "taf": "TAF LRIA 020500Z 0206/0215 VRB04KT CAVOK"
    },
    {
      "icao": "LROP",
      "alert": "OK",
      "vis_m": 9999,
      "fzfg": false,
      "metar_trigger": false,
      "taf_trigger": false,
      "metar": "METAR LROP 020530Z 28007KT CAVOK 23/21 Q1011 NOSIG",
      "taf": "TAF LROP 020500Z 0206/0306 27007KT CAVOK"
    },
    {
      "icao": "LRSB",
      "alert": "OK",
      "vis_m": 9999,
      "fzfg": false,
      "metar_trigger": false,
      "taf_trigger": false,
      "metar": "METAR LRSB 020530Z VRB01KT CAVOK 22/17 Q1013 NOSIG",
      "taf": "TAF LRSB 020500Z 0206/0306 VRB04KT 9999 SCT065"
    },
    {
      "icao": "LRSM",
      "alert": "OK",
      "vis_m": 9999,
      "fzfg": false,
      "metar_trigger": false,
      "taf_trigger": false,
      "metar": "METAR LRSM 020530Z AUTO 00000KT 9999 FEW110/// BKN130/// 21/19 Q1011",
      "taf": ""
    },
    {
      "icao": "LRSV",
      "alert": "OK",
      "vis_m": 9999,
      "fzfg": false,
      "metar_trigger": false,
      "taf_trigger": false,
      "metar": "METAR LRSV 020530Z 32005KT 270V350 CAVOK 24/18 Q1012",
      "taf": "TAF LRSV 020500Z 0206/0215 VRB04KT CAVOK"
    },
    {
      "icao": "LRTM",
      "alert": "OK",
      "vis_m": 9999,
      "fzfg": false,
      "metar_trigger": false,
      "taf_trigger": false,
      "metar": "METAR LRTM 020530Z 23006KT 9999 FEW020 23/21 Q1012",
      "taf": "TAF LRTM 020500Z 0206/0215 VRB04KT 9999 SCT040"
    },
    {
      "icao": "LRTR",
      "alert": "OK",
      "vis_m": 9999,
      "fzfg": false,
      "metar_trigger": false,
      "taf_trigger": false,
      "metar": "METAR LRTR 020530Z 15004KT 9999 FEW055CB 22/21 Q1011",
      "taf": "TAF LRTR 020500Z 0206/0306 VRB04KT 9999 SCT045CB"
    },
    {
      "icao": "LTAC",
      "alert": "OK",
      "vis_m": 9999,
      "fzfg": false,
      "metar_trigger": false,
      "taf_trigger": false,
      "metar": "METAR LTAC 020520Z VRB03KT CAVOK 22/11 Q1012 NOSIG RMK RWY21C VRB03KT RWY03L VRB02KT RWY21R 18003KT 110V240 RWY03R VRB01KT RWY21L VRB01KT",
      "taf": "TAF LTAC 020440Z 0206/0306 VRB02KT CAVOK"
    },
    {
      "icao": "LTFM",
      "alert": "OK",
      "vis_m": 9999,
      "fzfg": false,
      "metar_trigger": false,
      "taf_trigger": false,
      "metar": "METAR LTFM 020520Z 02014KT 9999 SCT013 26/23 Q1009 NOSIG RMK RWY17L 03013KT RWY34L 01014KT RWY16R 03012KT RWY36 03015KT RWY18 04014KT",
      "taf": "TAF LTFM 020440Z 0206/0312 04014KT 9999 SCT011"
    },
    {
      "icao": "LUKK",
      "alert": "OK",
      "vis_m": 9999,
      "fzfg": false,
      "metar_trigger": false,
      "taf_trigger": false,
      "metar": "METAR LUKK 020530Z 09004KT 060V130 CAVOK 24/16 Q1011 NOSIG",
      "taf": "TAF LUKK 020501Z 0206/0306 11008KT CAVOK"
    },
    {
      "icao": "LWOH",
      "alert": "OK",
      "vis_m": 9999,
      "fzfg": false,
      "metar_trigger": false,
      "taf_trigger": false,
      "metar": "METAR LWOH 020550Z VRB02KT 9999 FEW050 BKN090 19/16 Q1014",
      "taf": "TAF LWOH 020505Z 0206/0306 16008KT 9999 FEW050 TEMP0 0212/0218 VRB15G25KT TSRA SCT033CB BKN045"
    },
    {
      "icao": "LWSK",
      "alert": "OK",
      "vis_m": 8000,
      "fzfg": false,
      "metar_trigger": false,
      "taf_trigger": false,
      "metar": "METAR LWSK 020550Z VRB02KT 8000 FEW004 18/16 Q1013 NOSIG",
      "taf": "TAF LWSK 020510Z 0206/0306 VRB02KT 5000 BR OVC005"
    },
    {
      "icao": "LYBE",
      "alert": "OK",
      "vis_m": 9999,
      "fzfg": false,
      "metar_trigger": false,
      "taf_trigger": false,
      "metar": "METAR LYBE 020530Z 30003KT 260V340 9999 BKN027 21/19 Q1013 NOSIG",
      "taf": "TAF LYBE 020500Z 0206/0306 30008KT 9999 SCT045 TX27/0213Z TN19/0303Z"
    },
    {
      "icao": "LYNI",
      "alert": "OK",
      "vis_m": 9999,
      "fzfg": false,
      "metar_trigger": false,
      "taf_trigger": false,
      "metar": "METAR LYNI 020530Z VRB02KT 9999 -RA FEW050 18/16 Q1012 TEMPO SHRA FEW043TCU SCT050",
      "taf": "TAF LYNI 020500Z 0206/0306 34005KT 9999 SCT090 TX28/0214Z TN19/0303Z"
    },
    {
      "icao": "LYPG",
      "alert": "OK",
      "vis_m": 9999,
      "fzfg": false,
      "metar_trigger": false,
      "taf_trigger": false,
      "metar": "METAR LYPG 020530Z 31008KT 9999 FEW033 SCT080 23/21 Q1010 NOSIG",
      "taf": "TAF LYPG 020500Z 0206/0306 36006KT 9999 SCT050 SCT080 TX33/0212Z TN23/0301Z"
    },
    {
      "icao": "LZIB",
      "alert": "OK",
      "vis_m": 9999,
      "fzfg": false,
      "metar_trigger": false,
      "taf_trigger": false,
      "metar": "METAR LZIB 020530Z 31015KT 9999 FEW045 20/12 Q1018 NOSIG",
      "taf": "TAF LZIB 020515Z 0206/0306 31013KT 9999 FEW040"
    },
    {
      "icao": "LZKZ",
      "alert": "OK",
      "vis_m": 9999,
      "fzfg": false,
      "metar_trigger": false,
      "taf_trigger": false,
      "metar": "METAR LZKZ 020530Z 35016KT 9999 FEW020 22/18 Q1013 NOSIG",
      "taf": "TAF LZKZ 020515Z 0206/0306 01015KT CAVOK"
    },
    {
      "icao": "LZTT",
      "alert": "OK",
      "vis_m": 9999,
      "fzfg": false,
      "metar_trigger": false,
      "taf_trigger": false,
      "metar": "METAR LZTT 020530Z 26007KT 9999 FEW007 BKN030 18/16 Q1017 NOSIG",
      "taf": "TAF LZTT 020515Z 0206/0306 07005KT 9999 FEW015 BKN050"
    },
    {
      "icao": "OEJN",
      "alert": "OK",
      "vis_m": 9999,
      "fzfg": false,
      "metar_trigger": false,
      "taf_trigger": false,
      "metar": "METAR OEJN 020500Z 34008KT CAVOK 31/25 Q1002 NOSIG",
      "taf": "TAF OEJN 020500Z 0206/0312 32014KT CAVOK"
    },
    {
      "icao": "OEMA",
      "alert": "OK",
      "vis_m": 9999,
      "fzfg": false,
      "metar_trigger": false,
      "taf_trigger": false,
      "metar": "METAR OEMA 020500Z 10006KT CAVOK 35/M04 Q1009 NOSIG",
      "taf": "TAF OEMA 020500Z 0206/0312 28012KT CAVOK"
    },
    {
      "icao": "OJAI",
      "alert": "OK",
      "vis_m": 5000,
      "fzfg": false,
      "metar_trigger": false,
      "taf_trigger": false,
      "metar": "METAR OJAI 020500Z 28008KT 5000 HZ NSC 22/12 Q1013 NOSIG",
      "taf": "TAF OJAI 020500Z 0206/0312 28010KT 5000 HZ NSC"
    },
    {
      "icao": "OMAA",
      "alert": "OK",
      "vis_m": 9999,
      "fzfg": false,
      "metar_trigger": false,
      "taf_trigger": false,
      "metar": "METAR OMAA 020530Z VRB02KT CAVOK 35/23 Q0998 BECMG 31012KT",
      "taf": "TAF OMAA 020500Z 0206/0312 VRB02KT 8000 NSC"
    },
    {
      "icao": "OMDB",
      "alert": "OK",
      "vis_m": 9999,
      "fzfg": false,
      "metar_trigger": false,
      "taf_trigger": false,
      "metar": "METAR OMDB 020530Z 19006KT 140V240 CAVOK 37/22 Q0997 NOSIG",
      "taf": "TAF OMDB 020500Z 0206/0312 22007KT 8000 NSC"
    },
    {
      "icao": "UAAA",
      "alert": "OK",
      "vis_m": 9999,
      "fzfg": false,
      "metar_trigger": false,
      "taf_trigger": false,
      "metar": "METAR UAAA 020530Z 02003MPS 350V050 9999 SCT050CB BKN100 25/17 Q1006 NOSIG",
      "taf": "TAF UAAA 020505Z 0206/0306 02003G08MPS 9999 BKN040CB OVC100 TX31/0210Z TN18/0301Z"
    },
    {
      "icao": "UBBB",
      "alert": "OK",
      "vis_m": 9999,
      "fzfg": false,
      "metar_trigger": false,
      "taf_trigger": false,
      "metar": "METAR UBBB 020530Z 23010KT CAVOK 30/12 Q1010 NOSIG",
      "taf": "TAF UBBB 020501Z 0206/0306 20012KT CAVOK TX32/0210Z TN22/0301Z"
    },
    {
      "icao": "UDSG",
      "alert": "OK",
      "vis_m": 9999,
      "fzfg": false,
      "metar_trigger": false,
      "taf_trigger": false,
      "metar": "METAR UDSG 020530Z 19002KT 9999 NSC 21/08 Q1018 NOSIG",
      "taf": "TAF UDSG 020458Z 0206/0306 24006KT 9999 FEW050"
    },
    {
      "icao": "UDYZ",
      "alert": "OK",
      "vis_m": 9999,
      "fzfg": false,
      "metar_trigger": false,
      "taf_trigger": false,
      "metar": "METAR UDYZ 020530Z 14005KT 9999 NSC 25/10 Q1014 NOSIG",
      "taf": "TAF UDYZ 020500Z 0206/0306 16006KT 9999 FEW040"
    },
    {
      "icao": "UGKO",
      "alert": "OK",
      "vis_m": 9999,
      "fzfg": false,
      "metar_trigger": false,
      "taf_trigger": false,
      "metar": "METAR UGKO 020530Z 09015KT CAVOK 27/18 Q1006 NOSIG",
      "taf": "TAF UGKO 020500Z 0206/0306 08015KT CAVOK TX34/0211Z TN19/0302Z"
    }
  ]
}