{
  "ts_utc": "2026-01-14T04:00:23Z",
  "threshold_m": 150,
  "source": "stations_override.txt (ICAO list) + aviationweather.gov (METAR/TAF raw)",
  "station_count": 159,
  "stations": [
    {
      "icao": "BIKF",
      "alert": "OK",
      "vis_m": 9999,
      "fzfg": false,
      "metar_trigger": false,
      "taf_trigger": false,
      "metar": "METAR BIKF 140330Z 08007KT CAVOK M04/M07 Q0991",
      "taf": "TAF BIKF 140105Z 1403/1503 01015KT 9999 SCT035 TX01/1419Z TNM04/1403Z"
    },
    {
      "icao": "BKPR",
      "alert": "OK",
      "vis_m": null,
      "fzfg": false,
      "metar_trigger": false,
      "taf_trigger": false,
      "metar": "",
      "taf": "TAF BKPR 132330Z 1400/1424 32005KT CAVOK"
    },
    {
      "icao": "EBCI",
      "alert": "OK",
      "vis_m": 9999,
      "fzfg": false,
      "metar_trigger": false,
      "taf_trigger": false,
      "metar": "METAR EBCI 140350Z 22013KT 9999 BKN016 09/06 Q1011 NOSIG",
      "taf": "TAF EBCI 132316Z 1400/1506 21009KT 9999 SCT008 BKN018"
    },
    {
      "icao": "EDDB",
      "alert": "OK",
      "vis_m": 7000,
      "fzfg": false,
      "metar_trigger": false,
      "taf_trigger": false,
      "metar": "METAR EDDB 140350Z AUTO 17006KT 7000 NSC 03/03 Q1010 NOSIG",
      "taf": "TAF EDDB 132300Z 1400/1424 17007KT 8000 SCT030"
    },
    {
      "icao": "EDDH",
      "alert": "OK",
      "vis_m": 6000,
      "fzfg": false,
      "metar_trigger": false,
      "taf_trigger": false,
      "metar": "METAR EDDH 140350Z AUTO 22007KT 6000 -RADZ SCT006 OVC010 05/05 Q1006 TEMPO 3000 RA BKN004",
      "taf": "TAF EDDH 132300Z 1400/1506 17007KT 6000 SCT003 BKN020"
    },
    {
      "icao": "EDDK",
      "alert": "OK",
      "vis_m": 9999,
      "fzfg": false,
      "metar_trigger": false,
      "taf_trigger": false,
      "metar": "METAR EDDK 140350Z AUTO 19007KT 9999 VCSH FEW///TCU 10/06 Q1010 RESHRA TEMPO RA",
      "taf": "TAF EDDK 132300Z 1400/1506 17009KT CAVOK"
    },
    {
      "icao": "EDDN",
      "alert": "OK",
      "vis_m": 6000,
      "fzfg": false,
      "metar_trigger": false,
      "taf_trigger": false,
      "metar": "METAR EDDN 140350Z AUTO 11007KT 6000 NCD 01/M00 Q1014",
      "taf": "TAF EDDN 132300Z 1400/1424 12006KT CAVOK"
    },
    {
      "icao": "EDDS",
      "alert": "OK",
      "vis_m": 9999,
      "fzfg": false,
      "metar_trigger": false,
      "taf_trigger": false,
      "metar": "METAR EDDS 140350Z AUTO VRB02KT CAVOK 03/01 Q1014",
      "taf": "TAF EDDS 132300Z 1400/1424 VRB02KT CAVOK"
    },
    {
      "icao": "EDFH",
      "alert": "OK",
      "vis_m": 9999,
      "fzfg": false,
      "metar_trigger": false,
      "taf_trigger": false,
      "metar": "METAR EDFH 140350Z 22010KT 190V250 9999 -RA FEW023 BKN045 08/05 Q1012",
      "taf": "TAF EDFH 132300Z 1400/1424 18008KT 9999 FEW040"
    },
    {
      "icao": "EDJA",
      "alert": "OK",
      "vis_m": 9999,
      "fzfg": false,
      "metar_trigger": false,
      "taf_trigger": false,
      "metar": "METAR EDJA 140350Z AUTO 20003KT 140V240 9999 // FEW140/// M00/M02 Q1015",
      "taf": "TAF EDJA 140200Z 1403/1412 22005KT CAVOK"
    },
    {
      "icao": "EDLW",
      "alert": "OK",
      "vis_m": 9999,
      "fzfg": false,
      "metar_trigger": false,
      "taf_trigger": false,
      "metar": "METAR EDLW 140350Z AUTO 21013KT 9999 // OVC021/// 10/06 Q1008",
      "taf": "TAF EDLW 131700Z 1318/1418 18012KT CAVOK"
    },
    {
      "icao": "EDNY",
      "alert": "OK",
      "vis_m": 300,
      "fzfg": false,
      "metar_trigger": false,
      "taf_trigger": false,
      "metar": "METAR EDNY 140350Z AUTO 04004KT 0300 R06/0350N // VV/// M00/M01 Q1017",
      "taf": "TAF EDNY 140200Z 1403/1412 VRB02KT 2000 BR NSC"
    },
    {
      "icao": "EDSB",
      "alert": "OK",
      "vis_m": 9999,
      "fzfg": false,
      "metar_trigger": false,
      "taf_trigger": false,
      "metar": "METAR EDSB 140350Z AUTO 20008KT 9999 // SCT068/// BKN130/// OVC160/// 08/05 Q1014",
      "taf": "TAF EDSB 132300Z 1400/1424 21004KT CAVOK"
    },
    {
      "icao": "EETN",
      "alert": "OK",
      "vis_m": 1900,
      "fzfg": true,
      "metar_trigger": false,
      "taf_trigger": false,
      "metar": "METAR EETN 140350Z 17007KT 140V200 1900 BR OVC002 M12/M13 Q1022 TEMPO 0800 FZFG",
      "taf": "TAF EETN 132330Z 1400/1424 14005KT 9999 SCT020"
    },
    {
      "icao": "EFTU",
      "alert": "OK",
      "vis_m": 9999,
      "fzfg": false,
      "metar_trigger": false,
      "taf_trigger": false,
      "metar": "METAR EFTU 140350Z AUTO 13008KT 100V160 9999 -SHSN OVC006 M07/M08 Q1019",
      "taf": "TAF EFTU 140237Z 1403/1503 15011KT 9999 OVC007"
    },
    {
      "icao": "EGBB",
      "alert": "OK",
      "vis_m": 9999,
      "fzfg": false,
      "metar_trigger": false,
      "taf_trigger": false,
      "metar": "METAR EGBB 140350Z 18004KT CAVOK M03/M03 Q1011",
      "taf": "TAF EGBB 132255Z 1400/1424 25007KT 9999 FEW025"
    },
    {
      "icao": "EGGP",
      "alert": "OK",
      "vis_m": 9999,
      "fzfg": false,
      "metar_trigger": false,
      "taf_trigger": false,
      "metar": "METAR EGGP 140350Z AUTO 20003KT 150V250 9999 NCD 01/M01 Q1010",
      "taf": ""
    },
    {
      "icao": "EGGW",
      "alert": "OK",
      "vis_m": 9999,
      "fzfg": false,
      "metar_trigger": false,
      "taf_trigger": false,
      "metar": "METAR EGGW 140350Z AUTO 30006KT 9999 NCD 01/M00 Q1011",
      "taf": "TAF EGGW 132301Z 1400/1424 30005KT 9999 FEW010"
    },
    {
      "icao": "EGKK",
      "alert": "OK",
      "vis_m": 9999,
      "fzfg": false,
      "metar_trigger": false,
      "taf_trigger": false,
      "metar": "METAR EGKK 140350Z 19001KT CAVOK 03/02 Q1011",
      "taf": "TAF EGKK 132254Z 1400/1506 32010KT 9999 FEW015 SCT025"
    },
    {
      "icao": "EGNM",
      "alert": "OK",
      "vis_m": null,
      "fzfg": false,
      "metar_trigger": false,
      "taf_trigger": false,
      "metar": "",
      "taf": "TAF EGNM 132258Z 1400/1424 27010KT 9999 FEW025"
    },
    {
      "icao": "EGPD",
      "alert": "OK",
      "vis_m": 9999,
      "fzfg": false,
      "metar_trigger": false,
      "taf_trigger": false,
      "metar": "METAR EGPD 140350Z COR AUTO 23008KT 9999 NCD 02/M02 Q1002 NOSIG",
      "taf": "TAF EGPD 132255Z 1400/1424 24009KT 9999 FEW040"
    },
    {
      "icao": "EGPF",
      "alert": "OK",
      "vis_m": 9999,
      "fzfg": false,
      "metar_trigger": false,
      "taf_trigger": false,
      "metar": "METAR EGPF 140350Z AUTO 24011KT 9999 -RA FEW020 BKN024 BKN029 04/03 Q1005",
      "taf": "TAF EGPF 132302Z 1400/1424 26009KT 9999 SCT025"
    },
    {
      "icao": "EHBK",
      "alert": "OK",
      "vis_m": 9999,
      "fzfg": false,
      "metar_trigger": false,
      "taf_trigger": false,
      "metar": "METAR EHBK 140355Z AUTO 22012KT 9999 +DZ OVC018/// 09/08 Q1010",
      "taf": "TAF EHBK 132310Z 1400/1506 20013KT 9999 BKN018"
    },
    {
      "icao": "EHEH",
      "alert": "OK",
      "vis_m": 4800,
      "fzfg": false,
      "metar_trigger": false,
      "taf_trigger": false,
      "metar": "METAR EHEH 140325Z AUTO 22008KT 4800 -DZ SCT005 BKN007 OVC008 09/08 Q1009 REDZ GRN",
      "taf": "TAF EHEH 132310Z 1400/1506 19010KT 9999 SCT030"
    },
    {
      "icao": "EKBI",
      "alert": "OK",
      "vis_m": 2800,
      "fzfg": false,
      "metar_trigger": false,
      "taf_trigger": false,
      "metar": "METAR EKBI 140350Z AUTO 26008KT 2800 DZRA BR OVC002/// 05/05 Q1003",
      "taf": ""
    },
    {
      "icao": "EKCH",
      "alert": "OK",
      "vis_m": 3800,
      "fzfg": false,
      "metar_trigger": false,
      "taf_trigger": false,
      "metar": "METAR EKCH 140350Z 16012KT 3800 -RA OVC003 04/03 Q1004 BECMG 6000 RA",
      "taf": "TAF EKCH 140227Z 1403/1503 15015KT 6000 -RA OVC004"
    },
    {
      "icao": "ENAL",
      "alert": "OK",
      "vis_m": 9999,
      "fzfg": false,
      "metar_trigger": false,
      "taf_trigger": false,
      "metar": "METAR ENAL 140350Z AUTO 14010KT 9999 FEW048/// SCT060/// 06/M03 Q0992",
      "taf": "TAF ENAL 140200Z 1403/1412 13018KT 9999 BKN050"
    },
    {
      "icao": "ENBR",
      "alert": "OK",
      "vis_m": 6000,
      "fzfg": false,
      "metar_trigger": false,
      "taf_trigger": false,
      "metar": "METAR ENBR 140350Z 15019KT 6000 -SHRA BKN012 03/02 Q0995 RMK WIND 1200FT 16029KT",
      "taf": ""
    },
    {
      "icao": "ENGM",
      "alert": "OK",
      "vis_m": 4000,
      "fzfg": false,
      "metar_trigger": false,
      "taf_trigger": false,
      "metar": "METAR ENGM 140350Z 03006KT 4000 -SN OVC007 M02/M03 Q1002",
      "taf": "TAF ENGM 132300Z 1400/1424 05010KT 3000 -SN FEW008 BKN015"
    },
    {
      "icao": "ENHD",
      "alert": "OK",
      "vis_m": 9999,
      "fzfg": false,
      "metar_trigger": false,
      "taf_trigger": false,
      "metar": "METAR ENHD 140350Z AUTO 23014KT 9999 -RA FEW012/// BKN018/// BKN024/// 05/04 Q0996",
      "taf": "TAF ENHD 140200Z 1403/1412 24015KT 9999 BKN025"
    },
    {
      "icao": "ENTC",
      "alert": "OK",
      "vis_m": 9999,
      "fzfg": false,
      "metar_trigger": false,
      "taf_trigger": false,
      "metar": "METAR ENTC 140350Z AUTO 19014KT 9999 OVC056/// M05/M12 Q1009 RMK WIND 2600FT 17009KT",
      "taf": "TAF ENTC 132300Z 1400/1424 19014KT 9999 BKN055"
    },
    {
      "icao": "ENTO",
      "alert": "OK",
      "vis_m": 1100,
      "fzfg": false,
      "metar_trigger": false,
      "taf_trigger": false,
      "metar": "METAR ENTO 140350Z AUTO 03004KT 1100 R18/P2000N R36/P2000N -SN SCT001/// BKN007/// BKN009/// M00/M00 Q1000",
      "taf": "TAF ENTO 132300Z 1400/1424 VRB07KT 3000 -SN VV005"
    },
    {
      "icao": "ENVA",
      "alert": "OK",
      "vis_m": 9999,
      "fzfg": false,
      "metar_trigger": false,
      "taf_trigger": false,
      "metar": "METAR ENVA 140350Z AUTO 10008G18KT 070V160 9999 NCD 02/M06 Q1000 RMK WIND 670FT 15007KT",
      "taf": "TAF ENVA 132300Z 1400/1424 11009KT CAVOK"
    },
    {
      "icao": "ENZV",
      "alert": "OK",
      "vis_m": 9999,
      "fzfg": false,
      "metar_trigger": false,
      "taf_trigger": false,
      "metar": "METAR ENZV 140350Z 24005KT 200V290 9999 -SHRA FEW008 SCT019 BKN024 04/03 Q0998",
      "taf": "TAF ENZV 132300Z 1400/1424 13018KT 9999 -RA FEW020 BKN035"
    },
    {
      "icao": "EPGD",
      "alert": "OK",
      "vis_m": 7000,
      "fzfg": false,
      "metar_trigger": false,
      "taf_trigger": false,
      "metar": "METAR EPGD 140330Z 15011KT 7000 BKN017 M04/M05 Q1015",
      "taf": "TAF EPGD 132330Z 1400/1424 15010KT 8000 BKN030"
    },
    {
      "icao": "EPKK",
      "alert": "OK",
      "vis_m": 2700,
      "fzfg": false,
      "metar_trigger": false,
      "taf_trigger": false,
      "metar": "METAR EPKK 140330Z 05004KT 2700 BR OVC006 M03/M04 Q1018",
      "taf": "TAF EPKK 140230Z 1403/1503 06004KT 3000 BR OVC007"
    },
    {
      "icao": "EPKT",
      "alert": "OK",
      "vis_m": 250,
      "fzfg": true,
      "metar_trigger": false,
      "taf_trigger": false,
      "metar": "METAR EPKT 140330Z 15005KT 0250 R26/0800N FZFG OVC001 M01/M01 Q1017",
      "taf": "TAF EPKT 132330Z 1400/1424 18004KT 2000 BR OVC007"
    },
    {
      "icao": "EPLB",
      "alert": "OK",
      "vis_m": 2200,
      "fzfg": false,
      "metar_trigger": false,
      "taf_trigger": false,
      "metar": "METAR EPLB 140330Z 08004KT 2200 BR OVC005 M11/M12 Q1021",
      "taf": "TAF EPLB 132330Z 1400/1424 VRB02KT 3000 BR BKN006"
    },
    {
      "icao": "EPMO",
      "alert": "OK",
      "vis_m": 600,
      "fzfg": true,
      "metar_trigger": false,
      "taf_trigger": false,
      "metar": "METAR EPMO 140330Z 11005KT 080V140 0600 R08/0500U FZFG OVC002 M09/M10 Q1019",
      "taf": "TAF EPMO 132330Z 1400/1424 12007KT 3000 BR NSC"
    },
    {
      "icao": "EPPO",
      "alert": "OK",
      "vis_m": 2500,
      "fzfg": false,
      "metar_trigger": false,
      "taf_trigger": false,
      "metar": "METAR EPPO 140330Z 13010KT 2500 -FZRA BR FEW004 OVC032 00/M01 Q1014",
      "taf": ""
    },
    {
      "icao": "EPRA",
      "alert": "OK",
      "vis_m": 5000,
      "fzfg": false,
      "metar_trigger": false,
      "taf_trigger": false,
      "metar": "METAR EPRA 140330Z 14005KT 5000 BR SCT003 M11/M12 Q1019",
      "taf": "TAF EPRA 140230Z 1403/1412 14006KT 5000 BR SCT005"
    },
    {
      "icao": "EPRZ",
      "alert": "OK",
      "vis_m": 2900,
      "fzfg": false,
      "metar_trigger": false,
      "taf_trigger": false,
      "metar": "METAR EPRZ 140330Z 09006KT 2900 BR FEW011 OVC022 M06/M07 Q1020",
      "taf": "TAF EPRZ 132330Z 1400/1424 20004KT 9999 OVC017"
    },
    {
      "icao": "EPSC",
      "alert": "OK",
      "vis_m": 4000,
      "fzfg": false,
      "metar_trigger": false,
      "taf_trigger": false,
      "metar": "METAR EPSC 140330Z 14014KT 4000 BR OVC004 02/01 Q1010",
      "taf": "TAF EPSC 132330Z 1400/1424 14013KT 1800 BR OVC002"
    },
    {
      "icao": "EPSY",
      "alert": "OK",
      "vis_m": 4700,
      "fzfg": false,
      "metar_trigger": false,
      "taf_trigger": false,
      "metar": "METAR EPSY 140330Z 12004KT 080V170 4700 BR BKN004 M13/M14 Q1020",
      "taf": "TAF EPSY 140230Z 1403/1412 13005KT 4000 BR NSC"
    },
    {
      "icao": "EPWA",
      "alert": "OK",
      "vis_m": 1100,
      "fzfg": true,
      "metar_trigger": false,
      "taf_trigger": false,
      "metar": "METAR EPWA 140330Z 13009KT 1100 0900W R11/1000U BCFG BR OVC002 M09/M10 Q1020 TEMPO 0800 FZFG OVC001",
      "taf": "TAF EPWA 140230Z 1403/1503 13008KT 1500 BR BKN003"
    },
    {
      "icao": "EPWR",
      "alert": "OK",
      "vis_m": 9999,
      "fzfg": false,
      "metar_trigger": false,
      "taf_trigger": false,
      "metar": "METAR EPWR 140330Z 12008KT 9999 FEW040 02/01 Q1015",
      "taf": "TAF EPWR 140230Z 1403/1503 11010KT 5000 BR BKN040"
    },
    {
      "icao": "ESGG",
      "alert": "OK",
      "vis_m": 9000,
      "fzfg": false,
      "metar_trigger": false,
      "taf_trigger": false,
      "metar": "METAR ESGG 140350Z 13012KT 9000 -RA OVC003 02/01 Q1001",
      "taf": "TAF ESGG 140230Z 1403/1503 14012KT 8000 -RA OVC002"
    },
    {
      "icao": "ESKN",
      "alert": "OK",
      "vis_m": 3600,
      "fzfg": false,
      "metar_trigger": false,
      "taf_trigger": false,
      "metar": "METAR ESKN 140350Z 14016KT 3600 RASN OVC005 00/00 Q1011",
      "taf": ""
    },
    {
      "icao": "ESMS",
      "alert": "OK",
      "vis_m": 2700,
      "fzfg": false,
      "metar_trigger": false,
      "taf_trigger": false,
      "metar": "METAR ESMS 140350Z 16011KT 2700 RA OVC002 02/02 Q1005",
      "taf": ""
    },
    {
      "icao": "ESSA",
      "alert": "OK",
      "vis_m": 5000,
      "fzfg": false,
      "metar_trigger": false,
      "taf_trigger": false,
      "metar": "METAR ESSA 140350Z 13010KT 5000 -SN VV018 M01/M02 Q1013 TEMPO 2500",
      "taf": "TAF ESSA 140230Z 1403/1503 14010KT 8000 -SN FEW008 BKN015"
    },
    {
      "icao": "EYKA",
      "alert": "OK",
      "vis_m": 7000,
      "fzfg": false,
      "metar_trigger": false,
      "taf_trigger": false,
      "metar": "METAR EYKA 140350Z 13002KT 7000 -SN OVC003 M15/M17 Q1023",
      "taf": "TAF EYKA 132300Z 1400/1424 VRB04KT 5000 BR SCT005"
    },
    {
      "icao": "EYPA",
      "alert": "OK",
      "vis_m": 9999,
      "fzfg": false,
      "metar_trigger": false,
      "taf_trigger": false,
      "metar": "METAR EYPA 140350Z 13009KT 9999 OVC003 M10/M11 Q1019",
      "taf": ""
    },
    {
      "icao": "EYVI",
      "alert": "OK",
      "vis_m": 7000,
      "fzfg": false,
      "metar_trigger": false,
      "taf_trigger": false,
      "metar": "METAR EYVI 140350Z 14005KT 100V170 7000 -SN OVC003 M10/M11 Q1022 NOSIG",
      "taf": "TAF EYVI 132300Z 1400/1424 VRB04KT 5000 BR BKN002"
    },
    {
      "icao": "GCFV",
      "alert": "OK",
      "vis_m": 9999,
      "fzfg": false,
      "metar_trigger": false,
      "taf_trigger": false,
      "metar": "METAR GCFV 140330Z AUTO 32010KT CAVOK 16/10 Q1021",
      "taf": "TAF GCFV 140200Z 1403/1503 32007KT 9999 SCT025 TX20/1414Z TN14/1406Z"
    },
    {
      "icao": "GCLP",
      "alert": "OK",
      "vis_m": 9999,
      "fzfg": false,
      "metar_trigger": false,
      "taf_trigger": false,
      "metar": "METAR GCLP 140330Z 34009KT 9999 SCT035 SCT060 16/11 Q1021 NOSIG",
      "taf": "TAF GCLP 140200Z 1403/1503 36016KT 9999 SCT030 TX20/1414Z TN16/1406Z"
    },
    {
      "icao": "GCTS",
      "alert": "OK",
      "vis_m": 9999,
      "fzfg": false,
      "metar_trigger": false,
      "taf_trigger": false,
      "metar": "METAR GCTS 140330Z 02005KT 9999 FEW040 15/09 Q1021 NOSIG",
      "taf": "TAF GCTS 140200Z 1403/1503 02005KT 9999 SCT040 TX23/1414Z TN14/1406Z"
    },
    {
      "icao": "GMAD",
      "alert": "OK",
      "vis_m": 9999,
      "fzfg": false,
      "metar_trigger": false,
      "taf_trigger": false,
      "metar": "METAR GMAD 140330Z 02005KT CAVOK 12/11 Q1018 NOSIG",
      "taf": "TAF GMAD 132300Z 1400/1506 06006KT 8000 SCT020 BKN080"
    },
    {
      "icao": "GMMN",
      "alert": "OK",
      "vis_m": 9999,
      "fzfg": false,
      "metar_trigger": false,
      "taf_trigger": false,
      "metar": "METAR GMMN 140330Z 21008KT 9999 SCT020 09/07 Q1018 NOSIG",
      "taf": "TAF GMMN 132300Z 1400/1506 20010KT 9999 SCT030 SCT100"
    },
    {
      "icao": "GMMX",
      "alert": "OK",
      "vis_m": 6000,
      "fzfg": false,
      "metar_trigger": false,
      "taf_trigger": false,
      "metar": "METAR GMMX 140330Z VRB02KT 6000 SCT010 BKN016 11/09 Q1019 TEMPO 3000 SHRA",
      "taf": "TAF GMMX 132300Z 1400/1506 12006KT 8000 SCT010 BKN016"
    },
    {
      "icao": "HEGN",
      "alert": "OK",
      "vis_m": 9999,
      "fzfg": false,
      "metar_trigger": false,
      "taf_trigger": false,
      "metar": "METAR HEGN 140300Z 30012KT CAVOK 13/03 Q1022 NOSIG",
      "taf": "TAF HEGN 132300Z 1400/1506 29010G20KT 6000 NSC"
    },
    {
      "icao": "HEMA",
      "alert": "OK",
      "vis_m": 9999,
      "fzfg": false,
      "metar_trigger": false,
      "taf_trigger": false,
      "metar": "METAR HEMA 140300Z 29013KT CAVOK 14/01 Q1021 NOSIG",
      "taf": "TAF HEMA 132300Z 1400/1506 30010G20KT 8000 NSC"
    },
    {
      "icao": "HESH",
      "alert": "OK",
      "vis_m": 9999,
      "fzfg": false,
      "metar_trigger": false,
      "taf_trigger": false,
      "metar": "METAR HESH 140300Z 34010KT CAVOK 14/03 Q1021 NOSIG",
      "taf": "TAF HESH 132300Z 1400/1506 33012KT 8000 NSC"
    },
    {
      "icao": "HESX",
      "alert": "OK",
      "vis_m": 9999,
      "fzfg": false,
      "metar_trigger": false,
      "taf_trigger": false,
      "metar": "METAR HESX 140300Z 27044KT CAVOK 09/04 Q1024 NOSIG",
      "taf": "TAF HESX 132300Z 1400/1506 29009KT 6000 SCT030"
    },
    {
      "icao": "LATI",
      "alert": "OK",
      "vis_m": 9999,
      "fzfg": false,
      "metar_trigger": false,
      "taf_trigger": false,
      "metar": "METAR LATI 140350Z 18004KT 9999 OVC061 07/03 Q1026 NOSIG",
      "taf": "TAF LATI 132300Z 1400/1424 VRB05KT 9999 SCT025 BKN060 TX12/1412Z TN03/1405Z"
    },
    {
      "icao": "LBPD",
      "alert": "OK",
      "vis_m": 9999,
      "fzfg": false,
      "metar_trigger": false,
      "taf_trigger": false,
      "metar": "METAR LBPD 140330Z AUTO VRB02KT 9999 FEW064/// M02/M05 Q1021",
      "taf": "TAF LBPD 132300Z 1400/1424 VRB04KT 9999 OVC050"
    },
    {
      "icao": "LBSF",
      "alert": "OK",
      "vis_m": 9999,
      "fzfg": false,
      "metar_trigger": false,
      "taf_trigger": false,
      "metar": "METAR LBSF 140330Z AUTO VRB02KT 9999 OVC042/// 02/M01 Q1022 NOSIG",
      "taf": "TAF LBSF 132300Z 1400/1424 30010KT 9999 OVC040"
    },
    {
      "icao": "LBWN",
      "alert": "OK",
      "vis_m": 9999,
      "fzfg": false,
      "metar_trigger": false,
      "taf_trigger": false,
      "metar": "METAR LBWN 140330Z AUTO 33010KT 9999 FEW010/// BKN021/// 00/M00 Q1022 NOSIG",
      "taf": "TAF LBWN 132300Z 1400/1424 VRB03KT 9999 SCT030"
    },
    {
      "icao": "LCLK",
      "alert": "OK",
      "vis_m": 9999,
      "fzfg": false,
      "metar_trigger": false,
      "taf_trigger": false,
      "metar": "METAR LCLK 140330Z 30006KT CAVOK 05/02 Q1019 NOSIG",
      "taf": "TAF LCLK 132330Z 1400/1500 33009KT 9999 FEW020"
    },
    {
      "icao": "LCPH",
      "alert": "OK",
      "vis_m": 9999,
      "fzfg": false,
      "metar_trigger": false,
      "taf_trigger": false,
      "metar": "METAR LCPH 140330Z AUTO 01005KT 9999 SCT044 08/02 Q1019 NOSIG",
      "taf": "TAF LCPH 132330Z 1400/1500 35008KT 9999 FEW020"
    },
    {
      "icao": "LEAL",
      "alert": "OK",
      "vis_m": 9999,
      "fzfg": false,
      "metar_trigger": false,
      "taf_trigger": false,
      "metar": "METAR LEAL 140330Z VRB02KT CAVOK 07/06 Q1017 NOSIG",
      "taf": "TAF LEAL 132300Z 1400/1424 VRB04KT 9999 SCT010 TX16/1413Z TN06/1406Z"
    },
    {
      "icao": "LEBB",
      "alert": "OK",
      "vis_m": 9999,
      "fzfg": false,
      "metar_trigger": false,
      "taf_trigger": false,
      "metar": "METAR LEBB 140330Z AUTO VRB04KT CAVOK 12/07 Q1014",
      "taf": "TAF LEBB 132300Z 1400/1424 13008KT 9999 FEW040 SCT060 TX18/1413Z TN07/1424Z"
    },
    {
      "icao": "LEBL",
      "alert": "OK",
      "vis_m": 9000,
      "fzfg": false,
      "metar_trigger": false,
      "taf_trigger": false,
      "metar": "METAR LEBL 140330Z 33010KT 9000 SCT015 08/07 Q1017 NOSIG",
      "taf": "TAF LEBL 132300Z 1400/1424 34007KT 9999 FEW010 BKN020 TX15/1412Z TN06/1406Z"
    },
    {
      "icao": "LECH",
      "alert": "OK",
      "vis_m": 200,
      "fzfg": false,
      "metar_trigger": false,
      "taf_trigger": false,
      "metar": "METAR LECH 140330Z AUTO 04005KT 0200 R06/0100D FG VV002 05/05 Q1017",
      "taf": ""
    },
    {
      "icao": "LEMD",
      "alert": "OK",
      "vis_m": 8000,
      "fzfg": false,
      "metar_trigger": false,
      "taf_trigger": false,
      "metar": "METAR LEMD 140330Z VRB02KT 8000 SCT035 BKN040 07/07 Q1016 NOSIG",
      "taf": "TAF LEMD 132300Z 1400/1506 VRB03KT 9999 SCT030 TX12/1415Z TN04/1407Z"
    },
    {
      "icao": "LEMG",
      "alert": "OK",
      "vis_m": 9999,
      "fzfg": false,
      "metar_trigger": false,
      "taf_trigger": false,
      "metar": "METAR LEMG 140330Z VRB02KT 9999 -RA FEW010 BKN070 11/10 Q1018 NOSIG",
      "taf": "TAF LEMG 132300Z 1400/1424 27008KT 9999 FEW030 TX17/1414Z TN10/1407Z"
    },
    {
      "icao": "LEVC",
      "alert": "OK",
      "vis_m": 8000,
      "fzfg": false,
      "metar_trigger": false,
      "taf_trigger": false,
      "metar": "METAR LEVC 140330Z 21003KT 180V250 8000 FEW010 05/04 Q1017 NOSIG",
      "taf": "TAF LEVC 132300Z 1400/1424 VRB04KT 9999 FEW015 TX19/1414Z TN04/1406Z"
    },
    {
      "icao": "LEXJ",
      "alert": "OK",
      "vis_m": 9999,
      "fzfg": false,
      "metar_trigger": false,
      "taf_trigger": false,
      "metar": "METAR LEXJ 140330Z AUTO 24005KT 200V270 9999 4400E NSC 12/06 Q1013",
      "taf": "TAF LEXJ 140200Z 1403/1503 21009KT 9999 FEW040 SCT070 TX17/1412Z TN08/1503Z"
    },
    {
      "icao": "LEZG",
      "alert": "OK",
      "vis_m": 2500,
      "fzfg": false,
      "metar_trigger": false,
      "taf_trigger": false,
      "metar": "METAR LEZG 140330Z 07004KT 2500 BR FEW002 06/06 Q1016 NOSIG",
      "taf": "TAF LEZG 132300Z 1400/1424 10005KT 9999 FEW010 TX14/1415Z TN05/1406Z"
    },
    {
      "icao": "LEZL",
      "alert": "OK",
      "vis_m": 5000,
      "fzfg": false,
      "metar_trigger": false,
      "taf_trigger": false,
      "metar": "METAR LEZL 140330Z AUTO 00000KT 5000 BR BKN023 11/11 Q1017",
      "taf": "TAF LEZL 140200Z 1403/1503 VRB03KT 9999 FEW030 TX17/1415Z TN08/1407Z"
    },
    {
      "icao": "LFBD",
      "alert": "OK",
      "vis_m": 9999,
      "fzfg": false,
      "metar_trigger": false,
      "taf_trigger": false,
      "metar": "METAR LFBD 140330Z AUTO 15009KT CAVOK 09/09 Q1014 NOSIG",
      "taf": "TAF LFBD 132300Z 1400/1506 15005KT CAVOK TX15/1414Z TN05/1502Z"
    },
    {
      "icao": "LFLL",
      "alert": "OK",
      "vis_m": 9999,
      "fzfg": false,
      "metar_trigger": false,
      "taf_trigger": false,
      "metar": "METAR LFLL 140330Z 17008KT 130V210 CAVOK 11/06 Q1018 NOSIG",
      "taf": "TAF LFLL 132300Z 1400/1506 18012KT CAVOK"
    },
    {
      "icao": "LFLS",
      "alert": "OK",
      "vis_m": 9999,
      "fzfg": false,
      "metar_trigger": false,
      "taf_trigger": false,
      "metar": "METAR LFLS 140330Z AUTO VRB02KT CAVOK 05/03 Q1018 NOSIG",
      "taf": "TAF LFLS 140200Z 1403/1503 VRB03KT CAVOK"
    },
    {
      "icao": "LFMN",
      "alert": "OK",
      "vis_m": 9999,
      "fzfg": false,
      "metar_trigger": false,
      "taf_trigger": false,
      "metar": "METAR LFMN 140330Z 33008KT 9999 FEW043 10/05 Q1022 NOSIG",
      "taf": "TAF LFMN 140200Z 1403/1509 34010KT 9999 SCT035"
    },
    {
      "icao": "LFOB",
      "alert": "OK",
      "vis_m": 9999,
      "fzfg": false,
      "metar_trigger": false,
      "taf_trigger": false,
      "metar": "METAR LFOB 140330Z AUTO 23005KT CAVOK 10/07 Q1011 BECMG OVC009",
      "taf": "TAF LFOB 132300Z 1400/1424 20007KT CAVOK"
    },
    {
      "icao": "LFPO",
      "alert": "OK",
      "vis_m": 9999,
      "fzfg": false,
      "metar_trigger": false,
      "taf_trigger": false,
      "metar": "METAR LFPO 140330Z 21005KT 190V250 CAVOK 09/06 Q1013 NOSIG",
      "taf": "TAF LFPO 132300Z 1400/1506 20005KT CAVOK"
    },
    {
      "icao": "LFSB",
      "alert": "OK",
      "vis_m": 9999,
      "fzfg": false,
      "metar_trigger": false,
      "taf_trigger": false,
      "metar": "METAR LFSB 140330Z AUTO 16007KT CAVOK 02/01 Q1016 NOSIG",
      "taf": "TAF LFSB 132300Z 1400/1424 17005KT CAVOK"
    },
    {
      "icao": "LGAV",
      "alert": "OK",
      "vis_m": 9999,
      "fzfg": false,
      "metar_trigger": false,
      "taf_trigger": false,
      "metar": "METAR LGAV 140350Z 27005KT 9999 FEW025 03/00 Q1024 NOSIG",
      "taf": "TAF LGAV 132300Z 1400/1424 VRB03KT 9999 FEW025"
    },
    {
      "icao": "LGTS",
      "alert": "OK",
      "vis_m": 9999,
      "fzfg": false,
      "metar_trigger": false,
      "taf_trigger": false,
      "metar": "METAR LGTS 140350Z 10005KT 9999 FEW025 M02/M04 Q1024 NOSIG",
      "taf": "TAF LGTS 132300Z 1400/1424 34013KT 9999 FEW025"
    },
    {
      "icao": "LHBP",
      "alert": "OK",
      "vis_m": 6000,
      "fzfg": false,
      "metar_trigger": false,
      "taf_trigger": false,
      "metar": "METAR LHBP 140330Z 09005KT 6000 OVC006 M06/M08 Q1023 NOSIG",
      "taf": "TAF LHBP 132315Z 1400/1424 VRB03KT 6000 OVC015"
    },
    {
      "icao": "LHDC",
      "alert": "OK",
      "vis_m": 6000,
      "fzfg": false,
      "metar_trigger": false,
      "taf_trigger": false,
      "metar": "METAR LHDC 140315Z AUTO 07005KT 6000 OVC009 M06/M07 Q1023",
      "taf": ""
    },
    {
      "icao": "LIBD",
      "alert": "OK",
      "vis_m": 9999,
      "fzfg": false,
      "metar_trigger": false,
      "taf_trigger": false,
      "metar": "METAR LIBD 140350Z 20008KT CAVOK 05/03 Q1024",
      "taf": "TAF LIBD 132300Z 1400/1424 22007KT 9999 FEW040"
    },
    {
      "icao": "LIBG",
      "alert": "OK",
      "vis_m": null,
      "fzfg": false,
      "metar_trigger": false,
      "taf_trigger": false,
      "metar": "",
      "taf": "TAF LIBG 131700Z 1318/1403 VRB04KT 9999 FEW040"
    },
    {
      "icao": "LIBP",
      "alert": "OK",
      "vis_m": 9999,
      "fzfg": false,
      "metar_trigger": false,
      "taf_trigger": false,
      "metar": "METAR LIBP 140350Z AUTO VRB02KT 9999 NCD 02/02 Q1024",
      "taf": "TAF LIBP 132300Z 1400/1424 VRB06KT CAVOK"
    },
    {
      "icao": "LIBR",
      "alert": "OK",
      "vis_m": 9999,
      "fzfg": false,
      "metar_trigger": false,
      "taf_trigger": false,
      "metar": "METAR LIBR 140350Z 23006KT CAVOK 04/02 Q1025",
      "taf": "TAF LIBR 132300Z 1400/1424 VRB06KT 9999 FEW030"
    },
    {
      "icao": "LICA",
      "alert": "OK",
      "vis_m": 9999,
      "fzfg": false,
      "metar_trigger": false,
      "taf_trigger": false,
      "metar": "METAR LICA 140350Z AUTO 08007KT 9999 NCD 02/01 Q1026",
      "taf": "TAF LICA 132300Z 1400/1424 VRB05KT CAVOK"
    },
    {
      "icao": "LICC",
      "alert": "OK",
      "vis_m": 9999,
      "fzfg": false,
      "metar_trigger": false,
      "taf_trigger": false,
      "metar": "METAR LICC 140350Z 23007KT 9999 SCT040 10/05 Q1025",
      "taf": "TAF LICC 132300Z 1400/1424 26010KT CAVOK"
    },
    {
      "icao": "LICJ",
      "alert": "OK",
      "vis_m": 9999,
      "fzfg": false,
      "metar_trigger": false,
      "taf_trigger": false,
      "metar": "METAR LICJ 140350Z 18005KT 140V220 CAVOK 14/06 Q1024",
      "taf": "TAF LICJ 132300Z 1400/1424 18010KT CAVOK"
    },
    {
      "icao": "LIMC",
      "alert": "OK",
      "vis_m": 4500,
      "fzfg": false,
      "metar_trigger": false,
      "taf_trigger": false,
      "metar": "METAR LIMC 140350Z VRB01KT 4500 BR OVC040 03/02 Q1023 NOSIG",
      "taf": "TAF LIMC 132300Z 1400/1506 VRB05KT 9999 BKN040"
    },
    {
      "icao": "LIME",
      "alert": "OK",
      "vis_m": 2000,
      "fzfg": false,
      "metar_trigger": false,
      "taf_trigger": false,
      "metar": "METAR LIME 140350Z VRB01KT 2000 -RA BR BKN025 03/03 Q1023 NOSIG",
      "taf": "TAF LIME 132300Z 1400/1424 VRB04KT 4000 BR SCT035"
    },
    {
      "icao": "LIMF",
      "alert": "OK",
      "vis_m": 9999,
      "fzfg": false,
      "metar_trigger": false,
      "taf_trigger": false,
      "metar": "METAR LIMF 140350Z AUTO VRB01KT 9999 OVC036/// 03/M01 Q1023",
      "taf": "TAF LIMF 132300Z 1400/1424 VRB03KT 9999 SCT040"
    },
    {
      "icao": "LIMJ",
      "alert": "OK",
      "vis_m": 9999,
      "fzfg": false,
      "metar_trigger": false,
      "taf_trigger": false,
      "metar": "METAR LIMJ 140350Z 05005KT 030V090 9999 FEW015 BKN040 10/09 Q1022",
      "taf": "TAF LIMJ 132300Z 1400/1424 VRB05KT 9999 BKN020 BKN040"
    },
    {
      "icao": "LIPE",
      "alert": "OK",
      "vis_m": 9000,
      "fzfg": false,
      "metar_trigger": false,
      "taf_trigger": false,
      "metar": "METAR LIPE 140350Z 27005KT 9000 SCT060 04/01 Q1023",
      "taf": "TAF LIPE 132300Z 1400/1424 VRB04KT 9999 BKN060"
    },
    {
      "icao": "LIPH",
      "alert": "OK",
      "vis_m": 9999,
      "fzfg": false,
      "metar_trigger": false,
      "taf_trigger": false,
      "metar": "METAR LIPH 140350Z AUTO 18001KT 9999 OVC025/// 04/01 Q1023",
      "taf": "TAF LIPH 132300Z 1400/1424 VRB04KT 9999 BKN040"
    },
    {
      "icao": "LIPQ",
      "alert": "OK",
      "vis_m": 5000,
      "fzfg": false,
      "metar_trigger": false,
      "taf_trigger": false,
      "metar": "METAR LIPQ 140350Z AUTO 01003KT 5000 -RA OVC028/// 05/04 Q1023 REDZ",
      "taf": "TAF LIPQ 132300Z 1400/1424 VRB04KT 9999 BKN035"
    },
    {
      "icao": "LIPR",
      "alert": "OK",
      "vis_m": 6000,
      "fzfg": false,
      "metar_trigger": false,
      "taf_trigger": false,
      "metar": "METAR LIPR 140350Z AUTO 27004KT 6000 BKN068/// 03/01 Q1023",
      "taf": "TAF LIPR 132300Z 1400/1424 VRB05KT 9999 SCT050"
    },
    {
      "icao": "LIPX",
      "alert": "OK",
      "vis_m": 6000,
      "fzfg": false,
      "metar_trigger": false,
      "taf_trigger": false,
      "metar": "METAR LIPX 140350Z 28002KT 6000 OVC017 04/03 Q1023",
      "taf": "TAF LIPX 132300Z 1400/1424 VRB04KT 9999 BKN040"
    },
    {
      "icao": "LIPY",
      "alert": "OK",
      "vis_m": 9999,
      "fzfg": false,
      "metar_trigger": false,
      "taf_trigger": false,
      "metar": "METAR LIPY 140350Z AUTO VRB01KT 9999 FEW076/// 05/02 Q1023",
      "taf": "TAF LIPY 132300Z 1400/1424 VRB05KT 9999 SCT050"
    },
    {
      "icao": "LIPZ",
      "alert": "OK",
      "vis_m": 8000,
      "fzfg": false,
      "metar_trigger": false,
      "taf_trigger": false,
      "metar": "METAR LIPZ 140350Z 31002KT 8000 -RA BKN020 04/02 Q1023 NOSIG",
      "taf": "TAF LIPZ 132300Z 1400/1506 VRB04KT 9999 BKN040"
    },
    {
      "icao": "LIRF",
      "alert": "OK",
      "vis_m": 9999,
      "fzfg": false,
      "metar_trigger": false,
      "taf_trigger": false,
      "metar": "METAR LIRF 140350Z 09006KT 9999 SCT050 08/07 Q1024 NOSIG",
      "taf": "TAF LIRF 132300Z 1400/1506 09007KT 9999 SCT030"
    },
    {
      "icao": "LIRN",
      "alert": "OK",
      "vis_m": 9999,
      "fzfg": false,
      "metar_trigger": false,
      "taf_trigger": false,
      "metar": "METAR LIRN 140350Z 06002KT 9999 BKN050 06/05 Q1025 NOSIG",
      "taf": "TAF LIRN 132300Z 1400/1424 VRB05KT 9999 SCT030"
    },
    {
      "icao": "LIRP",
      "alert": "OK",
      "vis_m": 9999,
      "fzfg": false,
      "metar_trigger": false,
      "taf_trigger": false,
      "metar": "METAR LIRP 140345Z 11003KT 9999 SCT035 08/08 Q1023 NOSIG",
      "taf": "TAF LIRP 132300Z 1400/1424 12005KT 9999 SCT030 BKN050"
    },
    {
      "icao": "LIRZ",
      "alert": "OK",
      "vis_m": 9999,
      "fzfg": false,
      "metar_trigger": false,
      "taf_trigger": false,
      "metar": "METAR LIRZ 140350Z AUTO VRB01KT 9999 FEW038/// BKN051/// 06/05 Q1024",
      "taf": "TAF LIRZ 132300Z 1400/1424 VRB05KT 9999 SCT050"
    },
    {
      "icao": "LJLJ",
      "alert": "OK",
      "vis_m": 9999,
      "fzfg": false,
      "metar_trigger": false,
      "taf_trigger": false,
      "metar": "METAR LJLJ 140330Z 29004KT 9999 FEW003 BKN033 OVC045 01/00 Q1020 NOSIG",
      "taf": "TAF LJLJ 132300Z 1400/1500 28005KT 9999 FEW003 BKN025 OVC030"
    },
    {
      "icao": "LKMT",
      "alert": "OK",
      "vis_m": 4500,
      "fzfg": false,
      "metar_trigger": false,
      "taf_trigger": false,
      "metar": "METAR LKMT 140330Z 24010KT 4500 BR FEW017 OVC022 00/M00 Q1018 NOSIG",
      "taf": "TAF LKMT 132300Z 1400/1424 23012KT 4000 BR SCT005 OVC030"
    },
    {
      "icao": "LKPR",
      "alert": "OK",
      "vis_m": 250,
      "fzfg": true,
      "metar_trigger": false,
      "taf_trigger": false,
      "metar": "METAR LKPR 140330Z 26002KT 0250 R24/0300N R30/0300N FZFG VV001 M01/M01 Q1015 NOSIG",
      "taf": "TAF LKPR 140200Z 1403/1509 20004KT 0500 FG VV002"
    },
    {
      "icao": "LLBG",
      "alert": "OK",
      "vis_m": 9999,
      "fzfg": false,
      "metar_trigger": false,
      "taf_trigger": false,
      "metar": "METAR LLBG 140350Z 32006KT 9999 DZ FEW034 BKN045 13/09 Q1020 TEMPO 8000 RA BKN030",
      "taf": "TAF LLBG 132311Z 1400/1424 30015KT 9999 SCT040"
    },
    {
      "icao": "LMML",
      "alert": "OK",
      "vis_m": 9999,
      "fzfg": false,
      "metar_trigger": false,
      "taf_trigger": false,
      "metar": "METAR LMML 140345Z 19005KT 160V220 9999 BKN028 14/09 Q1025 NOSIG",
      "taf": "TAF LMML 132300Z 1400/1424 20010KT 9999 SCT025"
    },
    {
      "icao": "LOWW",
      "alert": "OK",
      "vis_m": 3600,
      "fzfg": false,
      "metar_trigger": false,
      "taf_trigger": false,
      "metar": "METAR LOWW 140350Z 14009KT 3600 BR OVC004 M03/M04 Q1019 NOSIG",
      "taf": "TAF LOWW 140215Z 1403/1509 13008KT 4000 BR OVC005 TXM01/1413Z TNM03/1408Z"
    },
    {
      "icao": "LPFR",
      "alert": "OK",
      "vis_m": 9999,
      "fzfg": false,
      "metar_trigger": false,
      "taf_trigger": false,
      "metar": "METAR LPFR 140330Z 02006KT CAVOK 10/09 Q1017",
      "taf": "TAF LPFR 132300Z 1400/1424 VRB02KT 9999 FEW008"
    },
    {
      "icao": "LPMA",
      "alert": "OK",
      "vis_m": 9999,
      "fzfg": false,
      "metar_trigger": false,
      "taf_trigger": false,
      "metar": "METAR LPMA 140330Z 01005G15KT 290V090 9999 BKN015 15/06 Q1023",
      "taf": "TAF LPMA 132300Z 1400/1424 35010KT 9999 SCT015"
    },
    {
      "icao": "LPPR",
      "alert": "OK",
      "vis_m": 9999,
      "fzfg": false,
      "metar_trigger": false,
      "taf_trigger": false,
      "metar": "METAR LPPR 140330Z 17007KT 9999 FEW004 SCT014 BKN020 11/11 Q1014",
      "taf": "TAF LPPR 132300Z 1400/1424 17007KT 9999 SCT012 BKN025"
    },
    {
      "icao": "LPPS",
      "alert": "OK",
      "vis_m": 9999,
      "fzfg": false,
      "metar_trigger": false,
      "taf_trigger": false,
      "metar": "METAR LPPS 140330Z 36013KT 9999 SCT015 14/09 Q1023",
      "taf": "TAF LPPS 132300Z 1400/1506 35018KT 9999 SCT015"
    },
    {
      "icao": "LPPT",
      "alert": "OK",
      "vis_m": 9999,
      "fzfg": false,
      "metar_trigger": false,
      "taf_trigger": false,
      "metar": "METAR LPPT 140330Z 24005KT 9999 FEW015 10/09 Q1017",
      "taf": "TAF LPPT 132300Z 1400/1506 VRB05KT 9999 SCT012"
    },
    {
      "icao": "LQBK",
      "alert": "OK",
      "vis_m": 9999,
      "fzfg": false,
      "metar_trigger": false,
      "taf_trigger": false,
      "metar": "METAR LQBK 140330Z 19011KT CAVOK 06/02 Q1021 NOSIG",
      "taf": "TAF LQBK 132300Z 1400/1424 21006KT CAVOK TX11/1413Z TNM01/1406Z"
    },
    {
      "icao": "LQSA",
      "alert": "OK",
      "vis_m": 300,
      "fzfg": true,
      "metar_trigger": false,
      "taf_trigger": false,
      "metar": "METAR LQSA 140330Z VRB02KT 0300 R11/0450U FZFG BKN005 M04/M04 Q1024",
      "taf": "TAF LQSA 132300Z 1400/1424 VRB02KT 2000 BR BKN008 TX08/1414Z TNM03/1406Z"
    },
    {
      "icao": "LQTZ",
      "alert": "OK",
      "vis_m": 5000,
      "fzfg": false,
      "metar_trigger": false,
      "taf_trigger": false,
      "metar": "METAR LQTZ 140330Z 00000KT 5000 BR BKN050 01/01 Q1022",
      "taf": "TAF LQTZ 132300Z 1400/1424 VRB02KT 4000 BR SCT005 TX03/1413Z TNM02/1405Z"
    },
    {
      "icao": "LRBC",
      "alert": "OK",
      "vis_m": 8000,
      "fzfg": false,
      "metar_trigger": false,
      "taf_trigger": false,
      "metar": "METAR LRBC 140330Z 30006KT 8000 SCT032 M06/M09 Q1022",
      "taf": "TAF LRBC 140200Z 1403/1412 VRB04KT 9999 BKN030"
    },
    {
      "icao": "LRBS",
      "alert": "OK",
      "vis_m": 4500,
      "fzfg": true,
      "metar_trigger": false,
      "taf_trigger": false,
      "metar": "METAR LRBS 140330Z 00000KT 4500 BCFG BR NSC M08/M08 Q1023 TEMPO 0800 FZFG",
      "taf": "TAF LRBS 132300Z 1400/1424 VRB04KT 9999 BKN040"
    },
    {
      "icao": "LRBV",
      "alert": "OK",
      "vis_m": 7000,
      "fzfg": false,
      "metar_trigger": false,
      "taf_trigger": false,
      "metar": "METAR LRBV 140330Z AUTO VRB03KT 7000 OVC005/// M04/M05 Q1021",
      "taf": "TAF LRBV 140200Z 1403/1412 VRB04KT 5000 BR OVC005"
    },
    {
      "icao": "LRCL",
      "alert": "OK",
      "vis_m": 7000,
      "fzfg": false,
      "metar_trigger": false,
      "taf_trigger": false,
      "metar": "METAR LRCL 140330Z 05003KT 7000 OVC009 M06/M08 Q1023",
      "taf": "TAF LRCL 140200Z 1403/1412 VRB03KT 9999 BKN010 OVC020"
    },
    {
      "icao": "LRCV",
      "alert": "OK",
      "vis_m": 5000,
      "fzfg": false,
      "metar_trigger": false,
      "taf_trigger": false,
      "metar": "METAR LRCV 140330Z 11004KT 5000 BR OVC007 M03/M04 Q1022",
      "taf": "TAF LRCV 140200Z 1403/1412 VRB04KT 3000 BR OVC010"
    },
    {
      "icao": "LRIA",
      "alert": "OK",
      "vis_m": 8000,
      "fzfg": false,
      "metar_trigger": false,
      "taf_trigger": false,
      "metar": "METAR LRIA 140330Z VRB02KT 8000 NSC M08/M09 Q1023",
      "taf": "TAF LRIA 140200Z 1403/1412 VRB04KT 5000 BR NSC"
    },
    {
      "icao": "LROP",
      "alert": "OK",
      "vis_m": 1500,
      "fzfg": true,
      "metar_trigger": false,
      "taf_trigger": false,
      "metar": "METAR LROP 140330Z VRB01KT 1500 BR SCT004 M10/M11 Q1023 TEMPO 0600 FZFG",
      "taf": "TAF LROP 132300Z 1400/1424 VRB04KT 5000 BR BKN040"
    },
    {
      "icao": "LRSB",
      "alert": "OK",
      "vis_m": 600,
      "fzfg": true,
      "metar_trigger": false,
      "taf_trigger": false,
      "metar": "METAR LRSB 140330Z 25003KT 0600 R27/1000U FZFG OVC004 M04/M05 Q1022",
      "taf": ""
    },
    {
      "icao": "LRSM",
      "alert": "OK",
      "vis_m": null,
      "fzfg": true,
      "metar_trigger": false,
      "taf_trigger": false,
      "metar": "",
      "taf": "TAF LRSM 140200Z 1403/1412 VRB04KT 0300 FZFG VV001"
    },
    {
      "icao": "LRSV",
      "alert": "OK",
      "vis_m": 6000,
      "fzfg": false,
      "metar_trigger": false,
      "taf_trigger": false,
      "metar": "METAR LRSV 140330Z 00000KT 6000 BKN031 M09/M10 Q1020",
      "taf": "TAF LRSV 140200Z 1403/1412 33006KT 9999 BKN040"
    },
    {
      "icao": "LRTM",
      "alert": "OK",
      "vis_m": 8000,
      "fzfg": false,
      "metar_trigger": false,
      "taf_trigger": false,
      "metar": "METAR LRTM 140330Z AUTO 25003KT 8000 SCT012/// OVC017/// M06/M08 Q1023",
      "taf": "TAF LRTM 140200Z 1403/1412 VRB02KT 9999 OVC015"
    },
    {
      "icao": "LRTR",
      "alert": "OK",
      "vis_m": 3500,
      "fzfg": false,
      "metar_trigger": false,
      "taf_trigger": false,
      "metar": "METAR LRTR 140330Z 10003KT 3500 BR FEW010 OVC043 M03/M03 Q1023",
      "taf": "TAF LRTR 132300Z 1400/1424 VRB04KT 3000 BR SCT005 BKN010"
    },
    {
      "icao": "LTAC",
      "alert": "OK",
      "vis_m": 9999,
      "fzfg": false,
      "metar_trigger": false,
      "taf_trigger": false,
      "metar": "METAR LTAC 140350Z VRB02KT CAVOK M07/M09 Q1019 NOSIG RMK RWY21C 02002KT RWY03L VRB01KT RWY21R 00000KT RWY03R VRB01KT RWY21L 35002KT",
      "taf": "TAF LTAC 132240Z 1400/1424 VRB02KT CAVOK"
    },
    {
      "icao": "LTFM",
      "alert": "OK",
      "vis_m": 9999,
      "fzfg": false,
      "metar_trigger": false,
      "taf_trigger": false,
      "metar": "METAR LTFM 140350Z 23012KT 9999 -SHRA FEW013 BKN026 BKN090 04/02 Q1022 NOSIG RMK RWY17L 22012KT RWY34L 21010KT RWY16R 22010KT RWY36 22010KT RWY18 23015KT",
      "taf": "TAF LTFM 132240Z 1400/1506 21012KT 9999 -SHRASN SCT013 BKN025"
    },
    {
      "icao": "LUKK",
      "alert": "OK",
      "vis_m": 8000,
      "fzfg": false,
      "metar_trigger": false,
      "taf_trigger": false,
      "metar": "METAR LUKK 140330Z 05004KT 310V100 8000 NSC M10/M11 Q1022 TEMPO 3000 BR",
      "taf": "TAF LUKK 132321Z 1400/1424 VRB04KT 5000 BR SCT020"
    },
    {
      "icao": "LWOH",
      "alert": "OK",
      "vis_m": null,
      "fzfg": false,
      "metar_trigger": false,
      "taf_trigger": false,
      "metar": "",
      "taf": "TAF LWOH 140230Z 1403/1503 VRB02KT 9999 SCT040"
    },
    {
      "icao": "LWSK",
      "alert": "OK",
      "vis_m": 9999,
      "fzfg": false,
      "metar_trigger": false,
      "taf_trigger": false,
      "metar": "METAR LWSK 140350Z VRB01KT CAVOK M06/M08 Q1026 NOSIG",
      "taf": "TAF LWSK 140230Z 1403/1503 VRB02KT CAVOK"
    },
    {
      "icao": "LYBE",
      "alert": "OK",
      "vis_m": 8000,
      "fzfg": false,
      "metar_trigger": false,
      "taf_trigger": false,
      "metar": "METAR LYBE 140330Z 07004KT 8000 BKN045 02/M01 Q1022 NOSIG",
      "taf": "TAF LYBE 132300Z 1400/1424 05005KT 6000 BKN040 TX06/1412Z TN00/1405Z"
    },
    {
      "icao": "LYNI",
      "alert": "OK",
      "vis_m": 7000,
      "fzfg": false,
      "metar_trigger": false,
      "taf_trigger": false,
      "metar": "METAR LYNI 140330Z VRB02KT 7000 BKN050 01/M00 Q1024 NOSIG",
      "taf": "TAF LYNI 132300Z 1400/1424 09004KT 6000 BKN050 TX04/1413Z TN00/1406Z"
    },
    {
      "icao": "LYPG",
      "alert": "OK",
      "vis_m": 9999,
      "fzfg": false,
      "metar_trigger": false,
      "taf_trigger": false,
      "metar": "METAR LYPG 140330Z 35003KT 9999 SCT040 BKN070 03/02 Q1027 NOSIG",
      "taf": "TAF LYPG 132300Z 1400/1424 36005KT 9999 SCT034 BKN070 TX11/1413Z TN01/1406Z"
    },
    {
      "icao": "LZIB",
      "alert": "OK",
      "vis_m": 6000,
      "fzfg": false,
      "metar_trigger": false,
      "taf_trigger": false,
      "metar": "METAR LZIB 140330Z 04010KT 6000 OVC009 M04/M05 Q1020 NOSIG",
      "taf": ""
    },
    {
      "icao": "LZKZ",
      "alert": "OK",
      "vis_m": 9999,
      "fzfg": false,
      "metar_trigger": false,
      "taf_trigger": false,
      "metar": "METAR LZKZ 140330Z 15002KT 9999 FEW010 OVC029 M07/M08 Q1022 NOSIG",
      "taf": "TAF LZKZ 132315Z 1400/1500 VRB02KT 7000 FEW014 OVC028"
    },
    {
      "icao": "LZTT",
      "alert": "OK",
      "vis_m": 9999,
      "fzfg": false,
      "metar_trigger": false,
      "taf_trigger": false,
      "metar": "METAR LZTT 140330Z 00000KT 9999 OVC008 M06/M08 Q1018",
      "taf": "TAF LZTT 132315Z 1400/1500 VRB02KT 8000 OVC012"
    },
    {
      "icao": "OEJN",
      "alert": "OK",
      "vis_m": 9999,
      "fzfg": false,
      "metar_trigger": false,
      "taf_trigger": false,
      "metar": "METAR OEJN 140300Z 36005KT CAVOK 22/13 Q1017 NOSIG",
      "taf": "TAF OEJN 132300Z 1400/1506 02008KT 7000 FEW040"
    },
    {
      "icao": "OEMA",
      "alert": "OK",
      "vis_m": 8000,
      "fzfg": false,
      "metar_trigger": false,
      "taf_trigger": false,
      "metar": "METAR OEMA 140300Z 31005KT 8000 NSC 14/04 Q1020 NOSIG",
      "taf": "TAF OEMA 132300Z 1400/1506 33005KT CAVOK"
    },
    {
      "icao": "OJAI",
      "alert": "OK",
      "vis_m": 2000,
      "fzfg": false,
      "metar_trigger": false,
      "taf_trigger": false,
      "metar": "METAR OJAI 140300Z 27022KT 2000 BR SCT025 BKN030 06/05 Q1017 NOSIG",
      "taf": "TAF OJAI 132237Z 1400/1506 24018KT 3000 -RA BR BKN035"
    },
    {
      "icao": "OMAA",
      "alert": "OK",
      "vis_m": 4500,
      "fzfg": false,
      "metar_trigger": false,
      "taf_trigger": false,
      "metar": "SPECI OMAA 140330Z 09002KT 4500 HZ NSC 15/10 Q1019 BECMG 7000 NSW",
      "taf": "TAF OMAA 132300Z 1400/1506 12005KT 7000 NSC"
    },
    {
      "icao": "OMDB",
      "alert": "OK",
      "vis_m": 4500,
      "fzfg": false,
      "metar_trigger": false,
      "taf_trigger": false,
      "metar": "METAR OMDB 140330Z 10005KT 4500 HZ NSC 16/11 Q1019 NOSIG",
      "taf": "TAF OMDB 132300Z 1400/1506 13005KT 6000 NSC"
    },
    {
      "icao": "UAAA",
      "alert": "OK",
      "vis_m": 1700,
      "fzfg": false,
      "metar_trigger": false,
      "taf_trigger": false,
      "metar": "SPECI UAAA 140355Z 29002MPS 1700 R23L/1700 BR OVC004 M02/M02 Q1018 NOSIG RMK QBB130",
      "taf": ""
    },
    {
      "icao": "UBBB",
      "alert": "OK",
      "vis_m": 9999,
      "fzfg": false,
      "metar_trigger": false,
      "taf_trigger": false,
      "metar": "METAR UBBB 140330Z 33024G34KT 9999 -SHRA SCT014 BKN034CB OVC034 04/02 Q1015 NOSIG",
      "taf": "TAF UBBB 132258Z 1400/1424 32024G34KT 8000 SCT010 FEW030CB OVC030 TX06/1410Z TN03/1401Z"
    },
    {
      "icao": "UDSG",
      "alert": "OK",
      "vis_m": 9999,
      "fzfg": false,
      "metar_trigger": false,
      "taf_trigger": false,
      "metar": "METAR UDSG 140330Z 34007KT 9999 BKN049 M06/M12 Q1012 NOSIG",
      "taf": "TAF UDSG 132300Z 1400/1424 VRB06KT 5000 BR BKN030"
    },
    {
      "icao": "UDYZ",
      "alert": "OK",
      "vis_m": 9999,
      "fzfg": false,
      "metar_trigger": false,
      "taf_trigger": false,
      "metar": "METAR UDYZ 140330Z VRB02KT 9999 BKN006 M00/M01 Q1012 NOSIG",
      "taf": "TAF UDYZ 132300Z 1400/1424 14006KT 2300 BR SCT040"
    },
    {
      "icao": "UGKO",
      "alert": "OK",
      "vis_m": 9999,
      "fzfg": false,
      "metar_trigger": false,
      "taf_trigger": false,
      "metar": "METAR UGKO 140330Z 26002KT 9999 BKN097 01/01 Q1021 NOSIG",
      "taf": "TAF UGKO 132300Z 1400/1424 26007KT 9999 SCT017 BKN050 TX06/1411Z TN01/1403Z"
    }
  ]
}