{
  "ts_utc": "2026-01-21T19:38:56Z",
  "threshold_m": 150,
  "source": "stations_override.txt (ICAO list) + aviationweather.gov (METAR/TAF raw)",
  "station_count": 159,
  "stations": [
    {
      "icao": "BIKF",
      "alert": "OK",
      "vis_m": 9999,
      "fzfg": false,
      "metar_trigger": false,
      "taf_trigger": false,
      "metar": "METAR BIKF 211931Z 04015KT 9999 SCT036 BKN055 05/02 Q0993",
      "taf": "TAF BIKF 211658Z 2118/2218 05010KT 9999 FEW020 BKN045 TX08/2218Z TN04/2205Z"
    },
    {
      "icao": "BKPR",
      "alert": "OK",
      "vis_m": 9999,
      "fzfg": false,
      "metar_trigger": false,
      "taf_trigger": false,
      "metar": "METAR BKPR 211930Z 15003KT 9999 FEW090 M00/M01 Q1009 NOSIG",
      "taf": "TAF BKPR 211730Z 2118/2218 17008KT 9999 SCT030"
    },
    {
      "icao": "EBCI",
      "alert": "OK",
      "vis_m": 9999,
      "fzfg": false,
      "metar_trigger": false,
      "taf_trigger": false,
      "metar": "METAR EBCI 211920Z 12009KT CAVOK 05/02 Q0996 NOSIG",
      "taf": "TAF EBCI 211720Z 2118/2224 14010KT CAVOK"
    },
    {
      "icao": "EDDB",
      "alert": "OK",
      "vis_m": 9999,
      "fzfg": false,
      "metar_trigger": false,
      "taf_trigger": false,
      "metar": "METAR EDDB 211920Z AUTO 10006KT CAVOK M04/M07 Q1006 NOSIG",
      "taf": "TAF EDDB 211700Z 2118/2218 07006KT CAVOK"
    },
    {
      "icao": "EDDH",
      "alert": "OK",
      "vis_m": 9999,
      "fzfg": false,
      "metar_trigger": false,
      "taf_trigger": false,
      "metar": "METAR EDDH 211920Z AUTO 07007KT CAVOK M03/M05 Q1006 NOSIG",
      "taf": "TAF EDDH 211700Z 2118/2224 08010KT CAVOK"
    },
    {
      "icao": "EDDK",
      "alert": "OK",
      "vis_m": 9999,
      "fzfg": false,
      "metar_trigger": false,
      "taf_trigger": false,
      "metar": "METAR EDDK 211920Z AUTO 11006KT 080V140 CAVOK 03/M02 Q1000 NOSIG",
      "taf": "TAF EDDK 211700Z 2118/2224 12008KT CAVOK"
    },
    {
      "icao": "EDDN",
      "alert": "OK",
      "vis_m": 9999,
      "fzfg": false,
      "metar_trigger": false,
      "taf_trigger": false,
      "metar": "METAR EDDN 211920Z AUTO 09004KT CAVOK M04/M08 Q1003 NOSIG",
      "taf": "TAF EDDN 211700Z 2118/2218 11006KT CAVOK"
    },
    {
      "icao": "EDDS",
      "alert": "OK",
      "vis_m": 9999,
      "fzfg": false,
      "metar_trigger": false,
      "taf_trigger": false,
      "metar": "METAR EDDS 211920Z AUTO VRB02KT CAVOK M00/M03 Q0999 NOSIG",
      "taf": "TAF EDDS 211700Z 2118/2218 VRB03KT CAVOK"
    },
    {
      "icao": "EDFH",
      "alert": "OK",
      "vis_m": 9999,
      "fzfg": false,
      "metar_trigger": false,
      "taf_trigger": false,
      "metar": "METAR EDFH 211920Z 14015KT 120V180 CAVOK M03/M04 Q0999",
      "taf": "TAF EDFH 211700Z 2118/2218 14013KT 5000 BR NSC"
    },
    {
      "icao": "EDJA",
      "alert": "OK",
      "vis_m": 7000,
      "fzfg": false,
      "metar_trigger": false,
      "taf_trigger": false,
      "metar": "METAR EDJA 211920Z 03007KT 7000 NSC M02/M03 Q0999",
      "taf": "TAF EDJA 211700Z 2118/2203 VRB03KT CAVOK"
    },
    {
      "icao": "EDLW",
      "alert": "OK",
      "vis_m": 9999,
      "fzfg": false,
      "metar_trigger": false,
      "taf_trigger": false,
      "metar": "METAR EDLW 211920Z 00000KT CAVOK 04/M00 Q1000",
      "taf": "TAF EDLW 211700Z 2118/2218 08006KT CAVOK"
    },
    {
      "icao": "EDNY",
      "alert": "OK",
      "vis_m": 500,
      "fzfg": true,
      "metar_trigger": false,
      "taf_trigger": false,
      "metar": "METAR EDNY 211920Z 05003KT 0500 R24/0600N FZFG VV/// M02/M02 Q1000",
      "taf": "TAF EDNY 211700Z 2118/2203 VRB03KT 2500 BR OVC002"
    },
    {
      "icao": "EDSB",
      "alert": "OK",
      "vis_m": 3000,
      "fzfg": false,
      "metar_trigger": false,
      "taf_trigger": false,
      "metar": "METAR EDSB 211920Z 13002KT 3000 BR OVC003 M01/M01 Q1001",
      "taf": "TAF EDSB 211700Z 2118/2218 03004KT 3000 BR OVC003"
    },
    {
      "icao": "EETN",
      "alert": "OK",
      "vis_m": 9999,
      "fzfg": false,
      "metar_trigger": false,
      "taf_trigger": false,
      "metar": "METAR EETN 211920Z 10014KT 9999 OVC007 M04/M05 Q1023 TEMPO OVC004",
      "taf": "TAF EETN 211730Z 2118/2218 10012KT 9999 BKN006 OVC015"
    },
    {
      "icao": "EFTU",
      "alert": "OK",
      "vis_m": 9999,
      "fzfg": false,
      "metar_trigger": false,
      "taf_trigger": false,
      "metar": "METAR EFTU 211920Z AUTO 10011KT 070V130 9999 OVC006 M04/M05 Q1024",
      "taf": "TAF EFTU 211734Z 2118/2218 09009KT 9999 OVC007"
    },
    {
      "icao": "EGBB",
      "alert": "OK",
      "vis_m": 9999,
      "fzfg": false,
      "metar_trigger": false,
      "taf_trigger": false,
      "metar": "METAR EGBB 211920Z 13018KT 9999 OVC008 09/07 Q0985",
      "taf": "TAF EGBB 211704Z 2118/2218 14014KT 9999 BKN012"
    },
    {
      "icao": "EGGP",
      "alert": "OK",
      "vis_m": 9999,
      "fzfg": false,
      "metar_trigger": false,
      "taf_trigger": false,
      "metar": "METAR EGGP 211920Z 13017KT 9999 BKN012 OVC013 09/07 Q0983",
      "taf": "TAF EGGP 211702Z 2118/2218 12018G30KT 9999 BKN012"
    },
    {
      "icao": "EGGW",
      "alert": "OK",
      "vis_m": 2300,
      "fzfg": false,
      "metar_trigger": false,
      "taf_trigger": false,
      "metar": "METAR EGGW 211920Z AUTO 13014KT 2300 -RA OVC005 08/07 Q0987 RERA",
      "taf": ""
    },
    {
      "icao": "EGKK",
      "alert": "OK",
      "vis_m": 9999,
      "fzfg": false,
      "metar_trigger": false,
      "taf_trigger": false,
      "metar": "METAR EGKK 211920Z 13012KT 9999 -RA SCT010 BKN027 09/09 Q0987",
      "taf": "TAF EGKK 211704Z 2118/2224 13012KT 9999 SCT016"
    },
    {
      "icao": "EGNM",
      "alert": "OK",
      "vis_m": 3500,
      "fzfg": false,
      "metar_trigger": false,
      "taf_trigger": false,
      "metar": "METAR EGNM 211920Z 12015G25KT 3500 -RA SCT003 BKN008 07/07 Q0986",
      "taf": "TAF EGNM 211701Z 2118/2218 13016G26KT 9999 BKN008"
    },
    {
      "icao": "EGPD",
      "alert": "OK",
      "vis_m": 2900,
      "fzfg": false,
      "metar_trigger": false,
      "taf_trigger": false,
      "metar": "METAR EGPD 211920Z AUTO 12018G34KT 2900 RADZ OVC003/// //////TCU 07/06 Q0992 NOSIG",
      "taf": ""
    },
    {
      "icao": "EGPF",
      "alert": "OK",
      "vis_m": 9999,
      "fzfg": false,
      "metar_trigger": false,
      "taf_trigger": false,
      "metar": "METAR EGPF 211920Z AUTO 07012KT 9999 OVC021 07/06 Q0985",
      "taf": "TAF EGPF 211700Z 2118/2218 08016G28KT 9999 BKN025"
    },
    {
      "icao": "EHBK",
      "alert": "OK",
      "vis_m": 9999,
      "fzfg": false,
      "metar_trigger": false,
      "taf_trigger": false,
      "metar": "METAR EHBK 211925Z AUTO 09006KT 9999 NSC 03/01 Q0998 NOSIG",
      "taf": "TAF EHBK 211653Z 2118/2224 09007KT CAVOK"
    },
    {
      "icao": "EHEH",
      "alert": "OK",
      "vis_m": 9999,
      "fzfg": false,
      "metar_trigger": false,
      "taf_trigger": false,
      "metar": "METAR EHEH 211925Z AUTO 13007KT 100V160 9999 OVC280 04/00 Q0998 BLU NOSIG",
      "taf": "TAF EHEH 211717Z 2118/2224 12008KT CAVOK"
    },
    {
      "icao": "EKBI",
      "alert": "OK",
      "vis_m": 9999,
      "fzfg": false,
      "metar_trigger": false,
      "taf_trigger": false,
      "metar": "METAR EKBI 211920Z AUTO 08021KT 9999 OVC018/// M01/M04 Q1009",
      "taf": "TAF EKBI 211727Z 2118/2218 09015KT 9999 OVC016"
    },
    {
      "icao": "EKCH",
      "alert": "OK",
      "vis_m": 9000,
      "fzfg": false,
      "metar_trigger": false,
      "taf_trigger": false,
      "metar": "METAR EKCH 211920Z AUTO 05011KT 9000 SCT013/// OVC030/// 01/M01 Q1010 TEMPO BKN012",
      "taf": "TAF EKCH 211727Z 2118/2218 05010KT 9999 OVC020"
    },
    {
      "icao": "ENAL",
      "alert": "OK",
      "vis_m": 9999,
      "fzfg": false,
      "metar_trigger": false,
      "taf_trigger": false,
      "metar": "METAR ENAL 211920Z 13017KT CAVOK 05/M08 Q1010",
      "taf": "TAF ENAL 211700Z 2118/2203 14010KT CAVOK"
    },
    {
      "icao": "ENBR",
      "alert": "OK",
      "vis_m": 9999,
      "fzfg": false,
      "metar_trigger": false,
      "taf_trigger": false,
      "metar": "METAR ENBR 211920Z 07007KT CAVOK 02/M07 Q1009 NOSIG RMK WIND 1200FT 11010KT",
      "taf": "TAF ENBR 211700Z 2118/2218 VRB03KT CAVOK"
    },
    {
      "icao": "ENGM",
      "alert": "OK",
      "vis_m": 9999,
      "fzfg": false,
      "metar_trigger": false,
      "taf_trigger": false,
      "metar": "METAR ENGM 211920Z 03008KT 9999 FEW017 BKN021 M02/M05 Q1020 NOSIG",
      "taf": "TAF ENGM 211700Z 2118/2218 02008KT 9999 -SN OVC022"
    },
    {
      "icao": "ENHD",
      "alert": "OK",
      "vis_m": 9999,
      "fzfg": false,
      "metar_trigger": false,
      "taf_trigger": false,
      "metar": "METAR ENHD 211920Z 09013G24KT CAVOK 03/M09 Q1008",
      "taf": "TAF ENHD 211400Z 2115/2123 10018KT CAVOK"
    },
    {
      "icao": "ENTC",
      "alert": "OK",
      "vis_m": 9999,
      "fzfg": false,
      "metar_trigger": false,
      "taf_trigger": false,
      "metar": "METAR ENTC 211920Z 07002KT CAVOK M08/M10 Q1025 NOSIG RMK WIND 2600FT 12003KT",
      "taf": "TAF ENTC 211700Z 2118/2218 VRB02KT 9999 FEW001"
    },
    {
      "icao": "ENTO",
      "alert": "OK",
      "vis_m": 9999,
      "fzfg": false,
      "metar_trigger": false,
      "taf_trigger": false,
      "metar": "METAR ENTO 211920Z 03009KT 9999 OVC025 M01/M04 Q1018 NOSIG",
      "taf": "TAF ENTO 211700Z 2118/2218 05012KT 9999 OVC015"
    },
    {
      "icao": "ENVA",
      "alert": "OK",
      "vis_m": 9999,
      "fzfg": false,
      "metar_trigger": false,
      "taf_trigger": false,
      "metar": "METAR ENVA 211920Z 09013KT CAVOK 01/M06 Q1018 TEMPO 14015G25KT RMK WIND 670FT 12013KT",
      "taf": "TAF ENVA 211700Z 2118/2218 11010KT CAVOK"
    },
    {
      "icao": "ENZV",
      "alert": "OK",
      "vis_m": 9999,
      "fzfg": false,
      "metar_trigger": false,
      "taf_trigger": false,
      "metar": "METAR ENZV 211920Z 09013KT CAVOK 02/M08 Q1009 TEMPO 12018G28KT",
      "taf": "TAF ENZV 211700Z 2118/2218 08015KT CAVOK"
    },
    {
      "icao": "EPGD",
      "alert": "OK",
      "vis_m": 1200,
      "fzfg": false,
      "metar_trigger": false,
      "taf_trigger": false,
      "metar": "METAR EPGD 211930Z 22001KT 1200 0750W R29/P2000N BCFG BR NSC M13/M15 Q1009",
      "taf": "TAF EPGD 211730Z 2118/2218 VRB02KT 2000 BR NSC"
    },
    {
      "icao": "EPKK",
      "alert": "OK",
      "vis_m": 4500,
      "fzfg": false,
      "metar_trigger": false,
      "taf_trigger": false,
      "metar": "METAR EPKK 211930Z 13004KT 4500 BR NSC M07/M10 Q1009",
      "taf": "TAF EPKK 211730Z 2118/2218 VRB02KT 5000 HZ NSC"
    },
    {
      "icao": "EPKT",
      "alert": "OK",
      "vis_m": 6000,
      "fzfg": false,
      "metar_trigger": false,
      "taf_trigger": false,
      "metar": "METAR EPKT 211930Z VRB02KT 6000 NSC M08/M11 Q1008",
      "taf": "TAF EPKT 211730Z 2118/2218 15004KT 8000 NSC"
    },
    {
      "icao": "EPLB",
      "alert": "OK",
      "vis_m": 3100,
      "fzfg": false,
      "metar_trigger": false,
      "taf_trigger": false,
      "metar": "METAR EPLB 211930Z 06004KT 3100 BR NSC M11/M12 Q1010",
      "taf": "TAF EPLB 211730Z 2118/2218 09003KT 4000 BR NSC"
    },
    {
      "icao": "EPMO",
      "alert": "OK",
      "vis_m": 5000,
      "fzfg": false,
      "metar_trigger": false,
      "taf_trigger": false,
      "metar": "METAR EPMO 211930Z 13005KT 5000 BR NSC M06/M08 Q1010",
      "taf": "TAF EPMO 211730Z 2118/2218 11003KT 4500 BR NSC"
    },
    {
      "icao": "EPPO",
      "alert": "OK",
      "vis_m": 7000,
      "fzfg": false,
      "metar_trigger": false,
      "taf_trigger": false,
      "metar": "METAR EPPO 211930Z 09003KT 7000 NSC M07/M09 Q1007",
      "taf": "TAF EPPO 211730Z 2118/2218 11005KT 5000 BR NSC"
    },
    {
      "icao": "EPRA",
      "alert": "OK",
      "vis_m": 8000,
      "fzfg": false,
      "metar_trigger": false,
      "taf_trigger": false,
      "metar": "METAR EPRA 211930Z 15003KT 8000 NSC M08/M10 Q1010",
      "taf": "TAF EPRA 211730Z 2118/2203 13006KT CAVOK"
    },
    {
      "icao": "EPRZ",
      "alert": "OK",
      "vis_m": 4800,
      "fzfg": false,
      "metar_trigger": false,
      "taf_trigger": false,
      "metar": "METAR EPRZ 211930Z 10004KT 4800 HZ NSC M06/M11 Q1010",
      "taf": "TAF EPRZ 211730Z 2118/2218 08003KT CAVOK"
    },
    {
      "icao": "EPSC",
      "alert": "OK",
      "vis_m": 9999,
      "fzfg": false,
      "metar_trigger": false,
      "taf_trigger": false,
      "metar": "METAR EPSC 211930Z VRB01KT CAVOK M05/M08 Q1007",
      "taf": "TAF EPSC 211730Z 2118/2218 VRB02KT CAVOK"
    },
    {
      "icao": "EPSY",
      "alert": "OK",
      "vis_m": 2200,
      "fzfg": false,
      "metar_trigger": false,
      "taf_trigger": false,
      "metar": "METAR EPSY 211930Z 02002KT 2200 BR NSC M15/M17 Q1010",
      "taf": "TAF EPSY 211730Z 2118/2203 VRB02KT 2000 BR NSC"
    },
    {
      "icao": "EPWA",
      "alert": "OK",
      "vis_m": 9000,
      "fzfg": false,
      "metar_trigger": false,
      "taf_trigger": false,
      "metar": "METAR EPWA 211930Z 13005KT 9000 NSC M07/M09 Q1010 NOSIG",
      "taf": "TAF EPWA 211730Z 2118/2218 14005KT 8000 NSC"
    },
    {
      "icao": "EPWR",
      "alert": "OK",
      "vis_m": 9999,
      "fzfg": false,
      "metar_trigger": false,
      "taf_trigger": false,
      "metar": "METAR EPWR 211930Z 18003KT 140V210 CAVOK M03/M09 Q1007",
      "taf": "TAF EPWR 211730Z 2118/2218 17005KT CAVOK"
    },
    {
      "icao": "ESGG",
      "alert": "OK",
      "vis_m": 9999,
      "fzfg": false,
      "metar_trigger": false,
      "taf_trigger": false,
      "metar": "METAR ESGG 211920Z 08013KT 9999 BKN022 M02/M05 Q1013",
      "taf": "TAF ESGG 211730Z 2118/2218 05010KT 9999 OVC018"
    },
    {
      "icao": "ESKN",
      "alert": "OK",
      "vis_m": 2100,
      "fzfg": false,
      "metar_trigger": false,
      "taf_trigger": false,
      "metar": "METAR ESKN 211920Z 07011KT 2100 SN SCT003 BKN006 BKN014 M00/M00 Q1018",
      "taf": "TAF ESKN 211730Z 2118/2218 07010KT 9999 OVC020"
    },
    {
      "icao": "ESMS",
      "alert": "OK",
      "vis_m": 9000,
      "fzfg": false,
      "metar_trigger": false,
      "taf_trigger": false,
      "metar": "METAR ESMS 211920Z 06007KT 9000 SCT015 BKN022 00/M02 Q1009",
      "taf": "TAF ESMS 211727Z 2118/2218 05010KT 9000 BKN018"
    },
    {
      "icao": "ESSA",
      "alert": "OK",
      "vis_m": 3200,
      "fzfg": false,
      "metar_trigger": false,
      "taf_trigger": false,
      "metar": "METAR ESSA 211920Z 05008KT 3200 -SN BKN006 M01/M01 Q1020 TEMPO SHSN OVC004",
      "taf": "TAF ESSA 211730Z 2118/2218 06012KT 6000 -SN OVC020"
    },
    {
      "icao": "EYKA",
      "alert": "OK",
      "vis_m": 4400,
      "fzfg": false,
      "metar_trigger": false,
      "taf_trigger": false,
      "metar": "METAR EYKA 211920Z VRB06KT 4400 BR NSC M10/M11 Q1014",
      "taf": "TAF EYKA 211110Z 2112/2212 VRB04KT 5000 BR NSC"
    },
    {
      "icao": "EYPA",
      "alert": "OK",
      "vis_m": 5000,
      "fzfg": false,
      "metar_trigger": false,
      "taf_trigger": false,
      "metar": "METAR EYPA 211920Z 09009KT 5000 BR NSC M11/M14 Q1013",
      "taf": "TAF EYPA 211714Z 2118/2218 08010KT 5000 BR NSC"
    },
    {
      "icao": "EYVI",
      "alert": "OK",
      "vis_m": 5000,
      "fzfg": false,
      "metar_trigger": false,
      "taf_trigger": false,
      "metar": "METAR EYVI 211920Z 08005KT 5000 BR NSC M11/M13 Q1014 NOSIG",
      "taf": "TAF EYVI 211714Z 2118/2218 09008KT 5000 BR NSC"
    },
    {
      "icao": "GCFV",
      "alert": "OK",
      "vis_m": 9999,
      "fzfg": false,
      "metar_trigger": false,
      "taf_trigger": false,
      "metar": "METAR GCFV 211930Z 33005KT 290V350 9999 FEW030 18/11 Q1020",
      "taf": "TAF GCFV 211400Z 2115/2215 32012KT 9999 FEW040 TX21/2214Z TN15/2206Z"
    },
    {
      "icao": "GCLP",
      "alert": "OK",
      "vis_m": 9999,
      "fzfg": false,
      "metar_trigger": false,
      "taf_trigger": false,
      "metar": "METAR GCLP 211930Z 35008KT 320V020 9999 FEW035 18/12 Q1021 NOSIG",
      "taf": "TAF GCLP 211400Z 2115/2215 36015KT 9999 FEW035 TX21/2214Z TN15/2206Z"
    },
    {
      "icao": "GCTS",
      "alert": "OK",
      "vis_m": 9999,
      "fzfg": false,
      "metar_trigger": false,
      "taf_trigger": false,
      "metar": "METAR GCTS 211930Z 00000KT 9999 FEW035 17/11 Q1021 NOSIG",
      "taf": "TAF GCTS 211400Z 2115/2215 20007KT 9999 SCT035 TX22/2214Z TN15/2206Z"
    },
    {
      "icao": "GMAD",
      "alert": "OK",
      "vis_m": 9999,
      "fzfg": false,
      "metar_trigger": false,
      "taf_trigger": false,
      "metar": "METAR GMAD 211930Z 18008KT 9999 SCT033 14/12 Q1018 NOSIG",
      "taf": ""
    },
    {
      "icao": "GMMN",
      "alert": "OK",
      "vis_m": 9999,
      "fzfg": false,
      "metar_trigger": false,
      "taf_trigger": false,
      "metar": "METAR GMMN 211930Z 21013KT 9999 BKN030TCU 13/10 Q1016 NOSIG",
      "taf": "TAF GMMN 211700Z 2118/2224 22014KT 9999 BKN030"
    },
    {
      "icao": "GMMX",
      "alert": "OK",
      "vis_m": 9999,
      "fzfg": false,
      "metar_trigger": false,
      "taf_trigger": false,
      "metar": "METAR GMMX 211930Z 24003KT 9999 FEW026 SCT080 12/08 Q1018 NOSIG",
      "taf": "TAF GMMX 211700Z 2118/2224 24014KT 8000 SCT023 SCT080"
    },
    {
      "icao": "HEGN",
      "alert": "OK",
      "vis_m": 9999,
      "fzfg": false,
      "metar_trigger": false,
      "taf_trigger": false,
      "metar": "METAR HEGN 211900Z 00000KT CAVOK 18/10 Q1017 NOSIG",
      "taf": "TAF HEGN 211700Z 2118/2224 17010KT CAVOK"
    },
    {
      "icao": "HEMA",
      "alert": "OK",
      "vis_m": 9999,
      "fzfg": false,
      "metar_trigger": false,
      "taf_trigger": false,
      "metar": "METAR HEMA 211900Z 30010KT CAVOK 19/13 Q1016 NOSIG",
      "taf": "TAF HEMA 211700Z 2118/2224 30012KT CAVOK"
    },
    {
      "icao": "HESH",
      "alert": "OK",
      "vis_m": 9999,
      "fzfg": false,
      "metar_trigger": false,
      "taf_trigger": false,
      "metar": "METAR HESH 211900Z 36010KT CAVOK 20/09 Q1017 NOSIG",
      "taf": "TAF HESH 211700Z 2118/2224 35010KT CAVOK"
    },
    {
      "icao": "HESX",
      "alert": "OK",
      "vis_m": 9999,
      "fzfg": false,
      "metar_trigger": false,
      "taf_trigger": false,
      "metar": "METAR HESX 211900Z 08006KT CAVOK 14/07 Q1013 NOSIG",
      "taf": "TAF HESX 211700Z 2118/2224 04009KT CAVOK"
    },
    {
      "icao": "LATI",
      "alert": "OK",
      "vis_m": 9999,
      "fzfg": false,
      "metar_trigger": false,
      "taf_trigger": false,
      "metar": "METAR LATI 211920Z 34004KT 290V010 9999 BKN064 08/04 Q1004 NOSIG",
      "taf": "TAF LATI 211700Z 2118/2218 VRB05KT 9999 SCT030 BKN050 TX13/2212Z TN04/2205Z"
    },
    {
      "icao": "LBPD",
      "alert": "OK",
      "vis_m": 9999,
      "fzfg": false,
      "metar_trigger": false,
      "taf_trigger": false,
      "metar": "METAR LBPD 211930Z AUTO 26001KT 9999 OVC015/// M01/M03 Q1015 NOSIG",
      "taf": "TAF LBPD 211700Z 2118/2218 VRB04KT 4000 SN BKN025 OVC040"
    },
    {
      "icao": "LBSF",
      "alert": "OK",
      "vis_m": 7000,
      "fzfg": false,
      "metar_trigger": false,
      "taf_trigger": false,
      "metar": "METAR LBSF 211930Z AUTO 14008KT 7000 -SN SCT016/// BKN019/// OVC026/// M01/M03 Q1012 TEMPO 2000 SN BKN005",
      "taf": "TAF LBSF 211700Z 2118/2218 12010KT 8000 SCT015 BKN020 OVC050"
    },
    {
      "icao": "LBWN",
      "alert": "OK",
      "vis_m": 9999,
      "fzfg": false,
      "metar_trigger": false,
      "taf_trigger": false,
      "metar": "METAR LBWN 211930Z AUTO 10006KT 9999 BKN026/// 03/03 Q1016 NOSIG",
      "taf": "TAF LBWN 211700Z 2118/2218 11010KT 9999 BKN020"
    },
    {
      "icao": "LCLK",
      "alert": "OK",
      "vis_m": 9999,
      "fzfg": false,
      "metar_trigger": false,
      "taf_trigger": false,
      "metar": "METAR LCLK 211930Z 33008KT CAVOK 11/05 Q1022 NOSIG",
      "taf": "TAF LCLK 211730Z 2118/2218 05016KT CAVOK"
    },
    {
      "icao": "LCPH",
      "alert": "OK",
      "vis_m": 9999,
      "fzfg": false,
      "metar_trigger": false,
      "taf_trigger": false,
      "metar": "METAR LCPH 211930Z 10016G26KT 080V160 9999 FEW030 SCT060 14/01 Q1018 TEMPO 5000 RA",
      "taf": "TAF LCPH 211730Z 2118/2218 12020KT CAVOK"
    },
    {
      "icao": "LEAL",
      "alert": "OK",
      "vis_m": 9999,
      "fzfg": false,
      "metar_trigger": false,
      "taf_trigger": false,
      "metar": "METAR LEAL 211930Z 00000KT 9999 -RA FEW030 SCT065 12/10 Q1003 NOSIG",
      "taf": "TAF LEAL 211700Z 2118/2218 29010KT 9999 BKN040 TX18/2213Z TN10/2206Z"
    },
    {
      "icao": "LEBB",
      "alert": "OK",
      "vis_m": 9999,
      "fzfg": false,
      "metar_trigger": false,
      "taf_trigger": false,
      "metar": "METAR LEBB 211930Z 12007KT 070V150 9999 FEW022 BKN051 10/09 Q0993 TEMPO 3000 RA",
      "taf": ""
    },
    {
      "icao": "LEBL",
      "alert": "OK",
      "vis_m": 9999,
      "fzfg": false,
      "metar_trigger": false,
      "taf_trigger": false,
      "metar": "METAR LEBL 211930Z 23013KT 9999 -RA FEW020 BKN037 13/10 Q0999 NOSIG",
      "taf": "TAF LEBL 211700Z 2118/2218 23010KT 9999 BKN020 TX15/2213Z TN07/2206Z"
    },
    {
      "icao": "LECH",
      "alert": "OK",
      "vis_m": 9000,
      "fzfg": false,
      "metar_trigger": false,
      "taf_trigger": false,
      "metar": "METAR LECH 211930Z AUTO 22016KT 9000 NSC 10/05 Q0999",
      "taf": ""
    },
    {
      "icao": "LEMD",
      "alert": "OK",
      "vis_m": 3500,
      "fzfg": false,
      "metar_trigger": false,
      "taf_trigger": false,
      "metar": "METAR LEMD 211930Z 20003KT 3500 DZ BKN006 BKN012 OVC020 08/07 Q0997 NOSIG",
      "taf": "TAF LEMD 211700Z 2118/2224 VRB05KT 9999 BKN010 TX10/2215Z TN04/2207Z"
    },
    {
      "icao": "LEMG",
      "alert": "OK",
      "vis_m": 9999,
      "fzfg": false,
      "metar_trigger": false,
      "taf_trigger": false,
      "metar": "METAR LEMG 211930Z 22009KT 160V290 9999 FEW015 BKN036 14/11 Q1006 NOSIG",
      "taf": "TAF LEMG 211700Z 2118/2218 VRB03KT 9999 FEW040 TX17/2214Z TN11/2207Z"
    },
    {
      "icao": "LEVC",
      "alert": "OK",
      "vis_m": 9999,
      "fzfg": false,
      "metar_trigger": false,
      "taf_trigger": false,
      "metar": "METAR LEVC 211930Z VRB01KT 9999 FEW016 BKN047 11/08 Q1001 NOSIG",
      "taf": "TAF LEVC 211700Z 2118/2218 27006KT 9999 BKN040 TX18/2213Z TN09/2205Z"
    },
    {
      "icao": "LEXJ",
      "alert": "OK",
      "vis_m": 9999,
      "fzfg": false,
      "metar_trigger": false,
      "taf_trigger": false,
      "metar": "METAR LEXJ 211930Z 26006KT 220V290 9999 FEW025 BKN035 OVC040 10/08 Q0992",
      "taf": "TAF LEXJ 211400Z 2115/2215 24009KT 9999 SCT040 TX16/2115Z TN08/2206Z"
    },
    {
      "icao": "LEZG",
      "alert": "OK",
      "vis_m": 9999,
      "fzfg": false,
      "metar_trigger": false,
      "taf_trigger": false,
      "metar": "METAR LEZG 211930Z 12009KT 9999 FEW050 BKN075 09/08 Q0997 TEMPO 4000 SHRA FEW040TCU",
      "taf": "TAF LEZG 211700Z 2118/2218 13010KT 9999 FEW040 TX13/2215Z TN05/2206Z"
    },
    {
      "icao": "LEZL",
      "alert": "OK",
      "vis_m": 9999,
      "fzfg": false,
      "metar_trigger": false,
      "taf_trigger": false,
      "metar": "METAR LEZL 211930Z 26012KT 9999 FEW020 BKN035 16/15 Q1005 NOSIG",
      "taf": ""
    },
    {
      "icao": "LFBD",
      "alert": "OK",
      "vis_m": 9999,
      "fzfg": false,
      "metar_trigger": false,
      "taf_trigger": false,
      "metar": "METAR LFBD 211930Z AUTO 22009KT 9999 -RA FEW025/// BKN048/// OVC056/// ///CB 09/08 Q0993 TEMPO 24015G25KT 3500 -SHRA",
      "taf": ""
    },
    {
      "icao": "LFLL",
      "alert": "OK",
      "vis_m": 9999,
      "fzfg": false,
      "metar_trigger": false,
      "taf_trigger": false,
      "metar": "METAR LFLL 211930Z 14007KT CAVOK 06/03 Q0998 NOSIG",
      "taf": "TAF LFLL 211700Z 2118/2224 17008KT CAVOK"
    },
    {
      "icao": "LFLS",
      "alert": "OK",
      "vis_m": 9999,
      "fzfg": false,
      "metar_trigger": false,
      "taf_trigger": false,
      "metar": "METAR LFLS 211930Z AUTO 10004KT CAVOK 01/M01 Q0998 NOSIG",
      "taf": "TAF LFLS 211400Z 2115/2215 23010KT CAVOK"
    },
    {
      "icao": "LFMN",
      "alert": "OK",
      "vis_m": 9999,
      "fzfg": false,
      "metar_trigger": false,
      "taf_trigger": false,
      "metar": "METAR LFMN 211930Z 33007KT CAVOK 07/03 Q1004 NOSIG",
      "taf": "TAF LFMN 211400Z 2115/2221 14006KT CAVOK"
    },
    {
      "icao": "LFOB",
      "alert": "OK",
      "vis_m": 9999,
      "fzfg": false,
      "metar_trigger": false,
      "taf_trigger": false,
      "metar": "METAR LFOB 211930Z AUTO 13008KT 9999 BKN042 OVC052 10/06 Q0992 TEMPO 4000 SHRA BKN014 BKN020TCU",
      "taf": "TAF LFOB 211700Z 2118/2218 15014KT CAVOK"
    },
    {
      "icao": "LFPO",
      "alert": "OK",
      "vis_m": 9999,
      "fzfg": false,
      "metar_trigger": false,
      "taf_trigger": false,
      "metar": "METAR LFPO 211930Z 16005KT 140V200 9999 -RA NSC 11/06 Q0993",
      "taf": "TAF LFPO 211700Z 2118/2224 14010KT CAVOK"
    },
    {
      "icao": "LFSB",
      "alert": "OK",
      "vis_m": 450,
      "fzfg": true,
      "metar_trigger": false,
      "taf_trigger": false,
      "metar": "METAR LFSB 211930Z AUTO 31004KT 280V340 0450 R15/0650N R33/0650N FZFG VV/// M01/M01 Q1000 TEMPO 0300 FZFG",
      "taf": "TAF LFSB 211700Z 2118/2218 33004KT 1500 BR OVC001"
    },
    {
      "icao": "LGAV",
      "alert": "OK",
      "vis_m": 3000,
      "fzfg": false,
      "metar_trigger": false,
      "taf_trigger": false,
      "metar": "METAR LGAV 211920Z 26004KT 200V320 3000 TSRA SCT015CB BKN025 10/08 Q1007 NOSIG",
      "taf": "TAF LGAV 211700Z 2118/2218 22010G25KT 6000 FEW012 BKN025 BKN070"
    },
    {
      "icao": "LGTS",
      "alert": "OK",
      "vis_m": 9999,
      "fzfg": false,
      "metar_trigger": false,
      "taf_trigger": false,
      "metar": "METAR LGTS 211920Z 29009KT 9999 -DZ SCT006 BKN035 06/06 Q1011 NOSIG",
      "taf": "TAF LGTS 211700Z 2118/2218 34013KT 9999 FEW010 BKN025"
    },
    {
      "icao": "LHBP",
      "alert": "OK",
      "vis_m": 9999,
      "fzfg": false,
      "metar_trigger": false,
      "taf_trigger": false,
      "metar": "METAR LHBP 211930Z 11007KT 9999 OVC043 M03/M06 Q1011 NOSIG",
      "taf": "TAF LHBP 211715Z 2118/2218 09005KT CAVOK"
    },
    {
      "icao": "LHDC",
      "alert": "OK",
      "vis_m": 4600,
      "fzfg": false,
      "metar_trigger": false,
      "taf_trigger": false,
      "metar": "METAR LHDC 211915Z AUTO VRB01KT 4600 BR NSC M06/M07 Q1011",
      "taf": ""
    },
    {
      "icao": "LIBD",
      "alert": "OK",
      "vis_m": 6000,
      "fzfg": false,
      "metar_trigger": false,
      "taf_trigger": false,
      "metar": "METAR LIBD 211920Z 10013KT 6000 -RA SCT007 BKN020 11/10 Q1001",
      "taf": "TAF LIBD 211700Z 2118/2218 11015KT 7000 BKN020"
    },
    {
      "icao": "LIBG",
      "alert": "OK",
      "vis_m": 5000,
      "fzfg": false,
      "metar_trigger": false,
      "taf_trigger": false,
      "metar": "METAR LIBG 211850Z 07003KT 040V120 5000 SHRA BKN010 10/10 Q1002",
      "taf": "TAF LIBG 211700Z 2118/2203 07012KT 7000 SCT015 BKN030"
    },
    {
      "icao": "LIBP",
      "alert": "OK",
      "vis_m": 2600,
      "fzfg": false,
      "metar_trigger": false,
      "taf_trigger": false,
      "metar": "METAR LIBP 211920Z AUTO 22005KT 2600 DZ BR OVC019/// 07/07 Q1005",
      "taf": "TAF LIBP 211700Z 2118/2218 28006KT 9999 BKN040"
    },
    {
      "icao": "LIBR",
      "alert": "OK",
      "vis_m": 9999,
      "fzfg": false,
      "metar_trigger": false,
      "taf_trigger": false,
      "metar": "METAR LIBR 211920Z 16008KT 9999 BKN040 12/09 Q1002",
      "taf": "TAF LIBR 211700Z 2118/2218 12012KT 8000 BKN030"
    },
    {
      "icao": "LICA",
      "alert": "OK",
      "vis_m": 9999,
      "fzfg": false,
      "metar_trigger": false,
      "taf_trigger": false,
      "metar": "METAR LICA 211920Z AUTO 06011KT 9999 NCD 11/09 Q1000",
      "taf": "TAF LICA 211700Z 2118/2218 08018G30KT 9999 BKN040"
    },
    {
      "icao": "LICC",
      "alert": "OK",
      "vis_m": 9999,
      "fzfg": false,
      "metar_trigger": false,
      "taf_trigger": false,
      "metar": "METAR LICC 211920Z 24004KT 9999 BKN065 11/09 Q1000",
      "taf": "TAF LICC 211700Z 2118/2218 VRB05KT 7000 SCT020"
    },
    {
      "icao": "LICJ",
      "alert": "OK",
      "vis_m": 7000,
      "fzfg": false,
      "metar_trigger": false,
      "taf_trigger": false,
      "metar": "METAR LICJ 211920Z 20008KT 7000 -RA FEW020 SCT060 13/11 Q0999",
      "taf": "TAF LICJ 211700Z 2118/2218 34012KT 9999 SCT030"
    },
    {
      "icao": "LIMC",
      "alert": "OK",
      "vis_m": 8000,
      "fzfg": false,
      "metar_trigger": false,
      "taf_trigger": false,
      "metar": "METAR LIMC 211920Z VRB01KT 8000 NSC 01/M00 Q1006 NOSIG",
      "taf": "TAF LIMC 211700Z 2118/2224 VRB04KT 7000 FEW020"
    },
    {
      "icao": "LIME",
      "alert": "OK",
      "vis_m": 9999,
      "fzfg": false,
      "metar_trigger": false,
      "taf_trigger": false,
      "metar": "METAR LIME 211920Z 02003KT CAVOK 01/M01 Q1006 NOSIG",
      "taf": "TAF LIME 211700Z 2118/2218 VRB04KT 7000 FEW020"
    },
    {
      "icao": "LIMF",
      "alert": "OK",
      "vis_m": 6000,
      "fzfg": false,
      "metar_trigger": false,
      "taf_trigger": false,
      "metar": "METAR LIMF 211920Z 33002KT 6000 NSC 02/M01 Q1005",
      "taf": "TAF LIMF 211700Z 2118/2218 VRB04KT 6000 FEW050"
    },
    {
      "icao": "LIMJ",
      "alert": "OK",
      "vis_m": 9999,
      "fzfg": false,
      "metar_trigger": false,
      "taf_trigger": false,
      "metar": "METAR LIMJ 211920Z 02013KT 350V050 CAVOK 06/00 Q1004",
      "taf": "TAF LIMJ 211700Z 2118/2218 02015KT CAVOK"
    },
    {
      "icao": "LIPE",
      "alert": "OK",
      "vis_m": 9999,
      "fzfg": false,
      "metar_trigger": false,
      "taf_trigger": false,
      "metar": "METAR LIPE 211920Z 08002KT 9999 BKN050 04/01 Q1006",
      "taf": "TAF LIPE 211700Z 2118/2218 VRB05KT 7000 BKN040"
    },
    {
      "icao": "LIPH",
      "alert": "OK",
      "vis_m": 9999,
      "fzfg": false,
      "metar_trigger": false,
      "taf_trigger": false,
      "metar": "METAR LIPH 211920Z 31003KT CAVOK 00/M07 Q1006",
      "taf": "TAF LIPH 211700Z 2118/2218 VRB05KT CAVOK"
    },
    {
      "icao": "LIPQ",
      "alert": "OK",
      "vis_m": 9999,
      "fzfg": false,
      "metar_trigger": false,
      "taf_trigger": false,
      "metar": "METAR LIPQ 211920Z AUTO 06003KT 030V120 9999 NCD 00/M07 Q1006",
      "taf": "TAF LIPQ 211700Z 2118/2218 VRB05KT CAVOK"
    },
    {
      "icao": "LIPR",
      "alert": "OK",
      "vis_m": 9999,
      "fzfg": false,
      "metar_trigger": false,
      "taf_trigger": false,
      "metar": "METAR LIPR 211920Z 29008KT 9999 BKN018 04/M00 Q1006",
      "taf": "TAF LIPR 211700Z 2118/2218 30008KT 9999 BKN025"
    },
    {
      "icao": "LIPX",
      "alert": "OK",
      "vis_m": 9999,
      "fzfg": false,
      "metar_trigger": false,
      "taf_trigger": false,
      "metar": "METAR LIPX 211920Z 34005KT CAVOK M02/M05 Q1006",
      "taf": "TAF LIPX 211700Z 2118/2218 VRB04KT 9000 FEW050"
    },
    {
      "icao": "LIPY",
      "alert": "OK",
      "vis_m": 9999,
      "fzfg": false,
      "metar_trigger": false,
      "taf_trigger": false,
      "metar": "METAR LIPY 211920Z AUTO 26005KT 9999 SCT015/// OVC032/// 05/02 Q1006",
      "taf": "TAF LIPY 211700Z 2118/2218 26006KT 9999 SCT015 BKN030"
    },
    {
      "icao": "LIPZ",
      "alert": "OK",
      "vis_m": 9999,
      "fzfg": false,
      "metar_trigger": false,
      "taf_trigger": false,
      "metar": "METAR LIPZ 211920Z 15004KT CAVOK 01/M04 Q1007 NOSIG",
      "taf": "TAF LIPZ 211700Z 2118/2224 02006KT CAVOK"
    },
    {
      "icao": "LIRF",
      "alert": "OK",
      "vis_m": 9999,
      "fzfg": false,
      "metar_trigger": false,
      "taf_trigger": false,
      "metar": "METAR LIRF 211920Z 04002KT CAVOK 08/04 Q1002 NOSIG",
      "taf": "TAF LIRF 211700Z 2118/2224 34007KT 9999 SCT050"
    },
    {
      "icao": "LIRN",
      "alert": "OK",
      "vis_m": 9999,
      "fzfg": false,
      "metar_trigger": false,
      "taf_trigger": false,
      "metar": "METAR LIRN 211920Z 36006KT 9999 FEW080 09/05 Q1001 NOSIG",
      "taf": "TAF LIRN 211700Z 2118/2218 05012KT 9999 BKN060"
    },
    {
      "icao": "LIRP",
      "alert": "OK",
      "vis_m": 9999,
      "fzfg": false,
      "metar_trigger": false,
      "taf_trigger": false,
      "metar": "METAR LIRP 211915Z 15007KT CAVOK 04/02 Q1004 NOSIG",
      "taf": "TAF LIRP 211700Z 2118/2218 11006KT CAVOK"
    },
    {
      "icao": "LIRZ",
      "alert": "OK",
      "vis_m": 9999,
      "fzfg": false,
      "metar_trigger": false,
      "taf_trigger": false,
      "metar": "METAR LIRZ 211920Z AUTO 36008KT 9999 OVC061/// 06/02 Q1003",
      "taf": "TAF LIRZ 211700Z 2118/2218 02015KT 9999 SCT060"
    },
    {
      "icao": "LJLJ",
      "alert": "OK",
      "vis_m": 8000,
      "fzfg": false,
      "metar_trigger": false,
      "taf_trigger": false,
      "metar": "METAR LJLJ 211930Z 27004KT 200V300 8000 OVC013 M06/M09 Q1008 NOSIG",
      "taf": "TAF LJLJ 211700Z 2118/2218 12003KT 9999 OVC015"
    },
    {
      "icao": "LKMT",
      "alert": "OK",
      "vis_m": 9999,
      "fzfg": false,
      "metar_trigger": false,
      "taf_trigger": false,
      "metar": "METAR LKMT 211930Z VRB01KT CAVOK M02/M10 Q1008 NOSIG",
      "taf": "TAF LKMT 211700Z 2118/2218 23014KT CAVOK"
    },
    {
      "icao": "LKPR",
      "alert": "OK",
      "vis_m": 7000,
      "fzfg": false,
      "metar_trigger": false,
      "taf_trigger": false,
      "metar": "METAR LKPR 211930Z VRB02KT 7000 NSC M09/M10 Q1006 NOSIG",
      "taf": "TAF LKPR 211700Z 2118/2224 16005KT CAVOK"
    },
    {
      "icao": "LLBG",
      "alert": "OK",
      "vis_m": 9999,
      "fzfg": false,
      "metar_trigger": false,
      "taf_trigger": false,
      "metar": "METAR LLBG 211920Z 11009KT CAVOK 17/M03 Q1018 NOSIG RMK BKN120",
      "taf": "TAF LLBG 211703Z 2118/2218 11010KT CAVOK"
    },
    {
      "icao": "LMML",
      "alert": "OK",
      "vis_m": 9999,
      "fzfg": false,
      "metar_trigger": false,
      "taf_trigger": false,
      "metar": "METAR LMML 211915Z 09004KT 9999 FEW028 BKN049 11/10 Q0999 TEMPO 8000 SHRA",
      "taf": "TAF LMML 211700Z 2118/2218 20010KT 9999 SCT015"
    },
    {
      "icao": "LOWW",
      "alert": "OK",
      "vis_m": 7000,
      "fzfg": false,
      "metar_trigger": false,
      "taf_trigger": false,
      "metar": "METAR LOWW 211920Z 15011KT 7000 BKN006 M05/M07 Q1009 TEMPO FM2000 4000 BR BKN005",
      "taf": "TAF LOWW 211715Z 2118/2224 14013KT 4000 BR OVC006 TXM03/2214Z TNM07/2205Z"
    },
    {
      "icao": "LPFR",
      "alert": "OK",
      "vis_m": 9999,
      "fzfg": false,
      "metar_trigger": false,
      "taf_trigger": false,
      "metar": "METAR LPFR 211930Z 27012KT 9999 SCT025 14/13 Q1007",
      "taf": "TAF LPFR 211700Z 2118/2218 29015KT 9999 SCT020"
    },
    {
      "icao": "LPMA",
      "alert": "OK",
      "vis_m": 9999,
      "fzfg": false,
      "metar_trigger": false,
      "taf_trigger": false,
      "metar": "METAR LPMA 211930Z 26007KT 9999 FEW013 18/14 Q1019",
      "taf": "TAF LPMA 211700Z 2118/2218 VRB05KT 9999 SCT015"
    },
    {
      "icao": "LPPR",
      "alert": "OK",
      "vis_m": 9999,
      "fzfg": false,
      "metar_trigger": false,
      "taf_trigger": false,
      "metar": "METAR LPPR 211930Z 31014G24KT 280V340 9999 VCSH SCT016 FEW025CB BKN030 12/08 Q1001 RESHRA",
      "taf": "TAF LPPR 211700Z 2118/2218 30013KT 9999 SCT020"
    },
    {
      "icao": "LPPS",
      "alert": "OK",
      "vis_m": 7000,
      "fzfg": false,
      "metar_trigger": false,
      "taf_trigger": false,
      "metar": "METAR LPPS 211930Z 30013KT 7000 SCT006 BKN010 17/16 Q1019",
      "taf": "TAF LPPS 211700Z 2118/2224 29015KT 9999 SCT015"
    },
    {
      "icao": "LPPT",
      "alert": "OK",
      "vis_m": 9999,
      "fzfg": false,
      "metar_trigger": false,
      "taf_trigger": false,
      "metar": "METAR LPPT 211930Z 28009G22KT 230V330 9999 FEW010 BKN020 13/10 Q1006",
      "taf": "TAF LPPT 211700Z 2118/2224 30012KT 9999 SCT020"
    },
    {
      "icao": "LQBK",
      "alert": "OK",
      "vis_m": 9999,
      "fzfg": false,
      "metar_trigger": false,
      "taf_trigger": false,
      "metar": "METAR LQBK 211930Z 01003KT 9999 OVC010 M03/M05 Q1010 NOSIG",
      "taf": "TAF LQBK 211700Z 2118/2218 VRB03KT 7000 BKN012 OVC024 TX01/2213Z TNM04/2205Z"
    },
    {
      "icao": "LQSA",
      "alert": "OK",
      "vis_m": 4000,
      "fzfg": false,
      "metar_trigger": false,
      "taf_trigger": false,
      "metar": "METAR LQSA 211930Z VRB02KT 4000 BR BKN045 M03/M05 Q1007 NOSIG",
      "taf": "TAF LQSA 211700Z 2118/2218 VRB02KT 4000 BR SCT010 BKN020 TXM00/2214Z TNM06/2200Z"
    },
    {
      "icao": "LQTZ",
      "alert": "OK",
      "vis_m": 3700,
      "fzfg": false,
      "metar_trigger": false,
      "taf_trigger": false,
      "metar": "METAR LQTZ 211930Z VRB01KT 3700 BR OVC009 M05/M05 Q1009",
      "taf": ""
    },
    {
      "icao": "LRBC",
      "alert": "OK",
      "vis_m": 6000,
      "fzfg": false,
      "metar_trigger": false,
      "taf_trigger": false,
      "metar": "METAR LRBC 211930Z 17012KT 6000 OVC003 M02/M04 Q1014",
      "taf": "TAF LRBC 211700Z 2118/2203 17012KT 8000 OVC005"
    },
    {
      "icao": "LRBS",
      "alert": "OK",
      "vis_m": 5000,
      "fzfg": false,
      "metar_trigger": false,
      "taf_trigger": false,
      "metar": "METAR LRBS 211930Z 03003KT 360V070 5000 BR NSC M02/M03 Q1016 NOSIG",
      "taf": "TAF LRBS 211700Z 2118/2218 06006KT 3000 BR BKN002"
    },
    {
      "icao": "LRBV",
      "alert": "OK",
      "vis_m": 8000,
      "fzfg": false,
      "metar_trigger": false,
      "taf_trigger": false,
      "metar": "METAR LRBV 211930Z 00000KT 8000 BKN071 M06/M07 Q1012",
      "taf": "TAF LRBV 211700Z 2118/2203 VRB04KT 5000 BR NSC"
    },
    {
      "icao": "LRCL",
      "alert": "OK",
      "vis_m": 4500,
      "fzfg": false,
      "metar_trigger": false,
      "taf_trigger": false,
      "metar": "METAR LRCL 211930Z VRB02KT 4500 BR NSC M09/M11 Q1011",
      "taf": "TAF LRCL 211700Z 2118/2203 VRB04KT 5000 BR NSC"
    },
    {
      "icao": "LRCV",
      "alert": "OK",
      "vis_m": 7000,
      "fzfg": false,
      "metar_trigger": false,
      "taf_trigger": false,
      "metar": "METAR LRCV 211930Z 06003KT 7000 OVC035 M03/M04 Q1015",
      "taf": "TAF LRCV 211700Z 2118/2203 11008KT CAVOK"
    },
    {
      "icao": "LRIA",
      "alert": "OK",
      "vis_m": 9999,
      "fzfg": false,
      "metar_trigger": false,
      "taf_trigger": false,
      "metar": "METAR LRIA 211930Z 09005KT CAVOK M03/M04 Q1015",
      "taf": "TAF LRIA 211700Z 2118/2203 12008KT CAVOK"
    },
    {
      "icao": "LROP",
      "alert": "OK",
      "vis_m": 5000,
      "fzfg": false,
      "metar_trigger": false,
      "taf_trigger": false,
      "metar": "METAR LROP 211930Z 05007KT 5000 BR NSC M02/M03 Q1015 NOSIG",
      "taf": "TAF LROP 211700Z 2118/2218 06006KT 3000 BR BKN002"
    },
    {
      "icao": "LRSB",
      "alert": "OK",
      "vis_m": 8000,
      "fzfg": false,
      "metar_trigger": false,
      "taf_trigger": false,
      "metar": "METAR LRSB 211930Z VRB04KT 8000 FEW066 BKN082 01/M10 Q1009",
      "taf": "TAF LRSB 211700Z 2118/2218 VRB04KT 5000 BR NSC"
    },
    {
      "icao": "LRSM",
      "alert": "OK",
      "vis_m": 9999,
      "fzfg": false,
      "metar_trigger": false,
      "taf_trigger": false,
      "metar": "METAR LRSM 211930Z AUTO 08006KT 9999 NCD M07/M10 Q1011",
      "taf": "TAF LRSM 211400Z 2115/2124 VRB04KT CAVOK"
    },
    {
      "icao": "LRSV",
      "alert": "CRITICAL",
      "vis_m": 100,
      "fzfg": true,
      "metar_trigger": true,
      "taf_trigger": true,
      "metar": "METAR LRSV 211930Z 14005KT 110V170 0100 R34/0325N FZFG VV001 M08/M09 Q1012",
      "taf": "TAF LRSV 211700Z 2118/2203 VRB04KT 0100 FZFG VV001"
    },
    {
      "icao": "LRTM",
      "alert": "OK",
      "vis_m": 2600,
      "fzfg": false,
      "metar_trigger": false,
      "taf_trigger": false,
      "metar": "METAR LRTM 211930Z AUTO 08004KT 2600 BR NCD M13/M15 Q1012",
      "taf": "TAF LRTM 211400Z 2115/2124 VRB04KT 1500 BR BKN002"
    },
    {
      "icao": "LRTR",
      "alert": "OK",
      "vis_m": 6000,
      "fzfg": false,
      "metar_trigger": false,
      "taf_trigger": false,
      "metar": "METAR LRTR 211930Z VRB01KT 6000 BKN039 M02/M04 Q1011",
      "taf": "TAF LRTR 211700Z 2118/2218 10006KT 7000 NSC"
    },
    {
      "icao": "LTAC",
      "alert": "OK",
      "vis_m": 9999,
      "fzfg": false,
      "metar_trigger": false,
      "taf_trigger": false,
      "metar": "METAR LTAC 211920Z 08005KT 020V090 9999 SCT040 BKN100 M03/M07 Q1020 NOSIG RMK RWY21C 05006KT RWY03L 07006KT RWY21R 05007KT RWY03R 07006KT RWY21L 03005KT",
      "taf": "TAF LTAC 211640Z 2118/2218 VRB02KT 9999 SCT040 BKN100"
    },
    {
      "icao": "LTFM",
      "alert": "OK",
      "vis_m": 9999,
      "fzfg": false,
      "metar_trigger": false,
      "taf_trigger": false,
      "metar": "METAR LTFM 211920Z 06006KT 9999 -RA BKN035 BKN090 06/M00 Q1016 NOSIG RMK RWY17L 07005KT RWY34L 06005KT RWY16R 08006KT RWY36 05006KT 330V080 RWY18 08004KT 030V120",
      "taf": "TAF LTFM 211640Z 2118/2224 VRB02KT 9999 -RA BKN032 BKN080"
    },
    {
      "icao": "LUKK",
      "alert": "OK",
      "vis_m": 9999,
      "fzfg": false,
      "metar_trigger": false,
      "taf_trigger": false,
      "metar": "METAR LUKK 211930Z 20009KT 9999 OVC012 M00/M02 Q1017 NOSIG",
      "taf": "TAF LUKK 211724Z 2118/2218 16008KT 9999 BKN010"
    },
    {
      "icao": "LWOH",
      "alert": "OK",
      "vis_m": 9999,
      "fzfg": false,
      "metar_trigger": false,
      "taf_trigger": false,
      "metar": "METAR LWOH 211920Z 03009KT 350V060 9999 FEW020 BKN040 03/M01 Q1008",
      "taf": "TAF LWOH 211730Z 2118/2218 03010KT 9999 SCT020 BKN040"
    },
    {
      "icao": "LWSK",
      "alert": "OK",
      "vis_m": 1500,
      "fzfg": false,
      "metar_trigger": false,
      "taf_trigger": false,
      "metar": "METAR LWSK 211920Z VRB02KT 1500 BR SCT017 BKN030 M00/M01 Q1012 NOSIG",
      "taf": ""
    },
    {
      "icao": "LYBE",
      "alert": "OK",
      "vis_m": 7000,
      "fzfg": false,
      "metar_trigger": false,
      "taf_trigger": false,
      "metar": "METAR LYBE 211930Z 30004KT 7000 BKN007 M05/M06 Q1011 BECMG 3000 BKN003",
      "taf": "TAF LYBE 211700Z 2118/2218 30005KT 5000 BR BKN006 TX02/2212Z TNM06/2205Z"
    },
    {
      "icao": "LYNI",
      "alert": "OK",
      "vis_m": 9999,
      "fzfg": false,
      "metar_trigger": false,
      "taf_trigger": false,
      "metar": "METAR LYNI 211930Z 10018KT CAVOK 03/M04 Q1011 NOSIG",
      "taf": "TAF LYNI 211700Z 2118/2218 10015KT 9999 SCT040 SCT080 TX05/2213Z TN01/2205Z"
    },
    {
      "icao": "LYPG",
      "alert": "OK",
      "vis_m": 6000,
      "fzfg": false,
      "metar_trigger": false,
      "taf_trigger": false,
      "metar": "METAR LYPG 211930Z VRB02KT 6000 -RA FEW013 BKN050 OVC070 04/03 Q1007 NOSIG",
      "taf": "TAF LYPG 211700Z 2118/2218 02005KT 8000 FEW010 BKN040 OVC070 TX11/2213Z TN04/2120Z"
    },
    {
      "icao": "LZIB",
      "alert": "OK",
      "vis_m": 9999,
      "fzfg": false,
      "metar_trigger": false,
      "taf_trigger": false,
      "metar": "METAR LZIB 211930Z 15002KT 9999 FEW010 M06/M08 Q1010 NOSIG",
      "taf": "TAF LZIB 211724Z 2118/2218 12005KT 9999 FEW011"
    },
    {
      "icao": "LZKZ",
      "alert": "OK",
      "vis_m": 9999,
      "fzfg": false,
      "metar_trigger": false,
      "taf_trigger": false,
      "metar": "METAR LZKZ 211930Z 35003KT CAVOK M06/M09 Q1011 NOSIG",
      "taf": "TAF LZKZ 211724Z 2118/2218 VRB02KT CAVOK"
    },
    {
      "icao": "LZTT",
      "alert": "OK",
      "vis_m": 9999,
      "fzfg": false,
      "metar_trigger": false,
      "taf_trigger": false,
      "metar": "METAR LZTT 211930Z 14005KT CAVOK M08/M15 Q1008",
      "taf": "TAF LZTT 211724Z 2118/2218 27005KT CAVOK"
    },
    {
      "icao": "OEJN",
      "alert": "OK",
      "vis_m": 9999,
      "fzfg": false,
      "metar_trigger": false,
      "taf_trigger": false,
      "metar": "METAR OEJN 211900Z 01005KT CAVOK 24/16 Q1014 NOSIG",
      "taf": "TAF OEJN 211700Z 2118/2224 03006KT CAVOK"
    },
    {
      "icao": "OEMA",
      "alert": "OK",
      "vis_m": 9999,
      "fzfg": false,
      "metar_trigger": false,
      "taf_trigger": false,
      "metar": "METAR OEMA 211900Z 07012KT CAVOK 17/M04 Q1024 NOSIG",
      "taf": "TAF OEMA 211700Z 2118/2224 09015KT 7000 NSC"
    },
    {
      "icao": "OJAI",
      "alert": "OK",
      "vis_m": 4000,
      "fzfg": false,
      "metar_trigger": false,
      "taf_trigger": false,
      "metar": "METAR OJAI 211900Z 10017KT 4000 BLDU NSC 07/M04 Q1024 NOSIG",
      "taf": ""
    },
    {
      "icao": "OMAA",
      "alert": "OK",
      "vis_m": 9999,
      "fzfg": false,
      "metar_trigger": false,
      "taf_trigger": false,
      "metar": "METAR OMAA 211900Z 30012KT 9999 SCT045 18/08 Q1020 NOSIG",
      "taf": "TAF OMAA 211700Z 2118/2300 30012KT 8000 SCT040"
    },
    {
      "icao": "OMDB",
      "alert": "OK",
      "vis_m": 9999,
      "fzfg": false,
      "metar_trigger": false,
      "taf_trigger": false,
      "metar": "METAR OMDB 211930Z 28014KT 9999 FEW045 18/05 Q1019 NOSIG",
      "taf": "TAF OMDB 211700Z 2118/2300 28016KT 8000 SCT035"
    },
    {
      "icao": "UAAA",
      "alert": "OK",
      "vis_m": 1000,
      "fzfg": false,
      "metar_trigger": false,
      "taf_trigger": false,
      "metar": "METAR UAAA 211930Z 25004MPS 1000 R05R/P2000 BR OVC004 M12/M14 Q1012 NOSIG RMK QBB130",
      "taf": "TAF UAAA 211700Z 2118/2218 24003MPS 1000 BR FU SCT011 BKN050 TXM04/2208Z TNM12/2202Z"
    },
    {
      "icao": "UBBB",
      "alert": "OK",
      "vis_m": 9999,
      "fzfg": false,
      "metar_trigger": false,
      "taf_trigger": false,
      "metar": "METAR UBBB 211930Z 00000KT CAVOK M01/M03 Q1028 NOSIG",
      "taf": "TAF UBBB 211708Z 2118/2218 20010KT 9999 SCT015 TX06/2210Z TN00/2201Z"
    },
    {
      "icao": "UDSG",
      "alert": "OK",
      "vis_m": 9999,
      "fzfg": false,
      "metar_trigger": false,
      "taf_trigger": false,
      "metar": "METAR UDSG 211930Z 01002KT 9999 NSC M15/M17 Q1025 NOSIG",
      "taf": "TAF UDSG 211700Z 2118/2218 VRB06KT 9999 FEW050"
    },
    {
      "icao": "UDYZ",
      "alert": "OK",
      "vis_m": 9000,
      "fzfg": false,
      "metar_trigger": false,
      "taf_trigger": false,
      "metar": "METAR UDYZ 211930Z 00000KT 9000 NSC M07/M09 Q1028 NOSIG",
      "taf": "TAF UDYZ 211700Z 2118/2218 VRB04KT 6000 NSC"
    },
    {
      "icao": "UGKO",
      "alert": "OK",
      "vis_m": 9999,
      "fzfg": false,
      "metar_trigger": false,
      "taf_trigger": false,
      "metar": "METAR UGKO 211930Z 08012KT CAVOK M00/M01 Q1026 NOSIG",
      "taf": "TAF UGKO 211700Z 2118/2218 08010KT CAVOK TX08/2211Z TNM01/2204Z"
    }
  ]
}