{
  "ts_utc": "2026-04-10T06:11:30Z",
  "threshold_m": 150,
  "source": "stations_override.txt (ICAO list) + aviationweather.gov (METAR/TAF raw)",
  "station_count": 159,
  "stations": [
    {
      "icao": "BIKF",
      "alert": "OK",
      "vis_m": 9999,
      "fzfg": false,
      "metar_trigger": false,
      "taf_trigger": false,
      "metar": "METAR BIKF 100600Z 21010KT 9999 FEW028CB SCT072 01/M03 Q0996",
      "taf": "TAF BIKF 100454Z 1006/1106 19015KT 9999 SCT030 TX04/1015Z TNM03/1103Z"
    },
    {
      "icao": "BKPR",
      "alert": "OK",
      "vis_m": 9999,
      "fzfg": false,
      "metar_trigger": false,
      "taf_trigger": false,
      "metar": "METAR BKPR 100600Z VRB01KT CAVOK 02/M01 Q1018 NOSIG",
      "taf": "TAF BKPR 100530Z 1006/1106 01008KT 9999 BKN050"
    },
    {
      "icao": "EBCI",
      "alert": "OK",
      "vis_m": 9999,
      "fzfg": false,
      "metar_trigger": false,
      "taf_trigger": false,
      "metar": "METAR EBCI 100550Z 33006KT 300V010 CAVOK 07/01 Q1020 NOSIG",
      "taf": "TAF EBCI 100508Z 1006/1112 31004KT 9999 SCT025"
    },
    {
      "icao": "EDDB",
      "alert": "OK",
      "vis_m": 9999,
      "fzfg": false,
      "metar_trigger": false,
      "taf_trigger": false,
      "metar": "METAR EDDB 100550Z AUTO 11008KT CAVOK 02/M04 Q1016 NOSIG",
      "taf": "TAF EDDB 100500Z 1006/1106 13007KT CAVOK"
    },
    {
      "icao": "EDDH",
      "alert": "OK",
      "vis_m": 9999,
      "fzfg": false,
      "metar_trigger": false,
      "taf_trigger": false,
      "metar": "METAR EDDH 100550Z AUTO 17010KT 9999 BKN015 OVC020 04/02 Q1015 TEMPO 30013KT 4500 DZ BKN007",
      "taf": "TAF EDDH 100500Z 1006/1112 16008KT 9999 BKN020"
    },
    {
      "icao": "EDDK",
      "alert": "OK",
      "vis_m": 9999,
      "fzfg": false,
      "metar_trigger": false,
      "taf_trigger": false,
      "metar": "METAR EDDK 100550Z AUTO 33011KT 300V360 CAVOK 08/03 Q1019 NOSIG",
      "taf": "TAF EDDK 100500Z 1006/1112 31012KT 9999 BKN030"
    },
    {
      "icao": "EDDN",
      "alert": "OK",
      "vis_m": 9999,
      "fzfg": false,
      "metar_trigger": false,
      "taf_trigger": false,
      "metar": "METAR EDDN 100550Z AUTO VRB02KT 9999 -SHRA FEW025 SCT039 BKN046 FEW///TCU 06/05 Q1014 RESHRA TEMPO SHRA",
      "taf": "TAF EDDN 100500Z 1006/1106 12005KT 9999 BKN030"
    },
    {
      "icao": "EDDS",
      "alert": "OK",
      "vis_m": 9999,
      "fzfg": false,
      "metar_trigger": false,
      "taf_trigger": false,
      "metar": "METAR EDDS 100550Z AUTO 25005KT 210V280 CAVOK 10/07 Q1014 NOSIG",
      "taf": "TAF EDDS 100500Z 1006/1106 30005KT 9999 BKN045"
    },
    {
      "icao": "EDFH",
      "alert": "OK",
      "vis_m": 9999,
      "fzfg": false,
      "metar_trigger": false,
      "taf_trigger": false,
      "metar": "METAR EDFH 100550Z 32009KT 280V350 9999 SCT039 07/02 Q1017",
      "taf": "TAF EDFH 100500Z 1006/1106 32007KT 9999 SCT025"
    },
    {
      "icao": "EDJA",
      "alert": "OK",
      "vis_m": 9999,
      "fzfg": false,
      "metar_trigger": false,
      "taf_trigger": false,
      "metar": "METAR EDJA 100550Z 21007KT CAVOK 09/05 Q1016",
      "taf": "TAF EDJA 100500Z 1006/1015 23010KT CAVOK"
    },
    {
      "icao": "EDLW",
      "alert": "OK",
      "vis_m": 9999,
      "fzfg": false,
      "metar_trigger": false,
      "taf_trigger": false,
      "metar": "METAR EDLW 100550Z 27007KT 230V310 9999 FEW018 08/04 Q1018",
      "taf": "TAF EDLW 100500Z 1006/1106 30007KT 9999 BKN025"
    },
    {
      "icao": "EDNY",
      "alert": "OK",
      "vis_m": 9999,
      "fzfg": false,
      "metar_trigger": false,
      "taf_trigger": false,
      "metar": "METAR EDNY 100550Z VRB01KT 9999 VCSH BKN068CB 07/05 Q1017",
      "taf": "TAF EDNY 100500Z 1006/1015 VRB03KT CAVOK"
    },
    {
      "icao": "EDSB",
      "alert": "OK",
      "vis_m": 9999,
      "fzfg": false,
      "metar_trigger": false,
      "taf_trigger": false,
      "metar": "METAR EDSB 100550Z 18006KT 9999 BKN020 OVC032 11/09 Q1016",
      "taf": "TAF EDSB 100500Z 1006/1106 VRB03KT 9999 BKN030"
    },
    {
      "icao": "EETN",
      "alert": "OK",
      "vis_m": 9999,
      "fzfg": false,
      "metar_trigger": false,
      "taf_trigger": false,
      "metar": "METAR EETN 100550Z 08007KT CAVOK 02/M01 Q1025 NOSIG",
      "taf": "TAF EETN 100530Z 1006/1106 07012KT CAVOK"
    },
    {
      "icao": "EFTU",
      "alert": "OK",
      "vis_m": 9999,
      "fzfg": false,
      "metar_trigger": false,
      "taf_trigger": false,
      "metar": "METAR EFTU 100550Z AUTO 09005KT CAVOK 01/M06 Q1026",
      "taf": "TAF EFTU 100525Z 1006/1106 09002KT CAVOK"
    },
    {
      "icao": "EGBB",
      "alert": "OK",
      "vis_m": 9999,
      "fzfg": false,
      "metar_trigger": false,
      "taf_trigger": false,
      "metar": "METAR EGBB 100550Z 17002KT CAVOK 04/01 Q1020",
      "taf": "TAF EGBB 100457Z 1006/1106 VRB03KT 9999 FEW045"
    },
    {
      "icao": "EGGP",
      "alert": "OK",
      "vis_m": 9999,
      "fzfg": false,
      "metar_trigger": false,
      "taf_trigger": false,
      "metar": "METAR EGGP 100550Z 28008KT 9999 FEW026 04/01 Q1019",
      "taf": "TAF EGGP 100457Z 1006/1106 24008KT 9999 FEW025"
    },
    {
      "icao": "EGGW",
      "alert": "OK",
      "vis_m": 9999,
      "fzfg": false,
      "metar_trigger": false,
      "taf_trigger": false,
      "metar": "METAR EGGW 100550Z AUTO 26007KT 230V290 9999 NCD 05/01 Q1020",
      "taf": "TAF EGGW 100453Z 1006/1106 31005KT 9999 SCT040"
    },
    {
      "icao": "EGKK",
      "alert": "OK",
      "vis_m": 9999,
      "fzfg": false,
      "metar_trigger": false,
      "taf_trigger": false,
      "metar": "METAR EGKK 100550Z 32004KT 280V360 CAVOK 07/00 Q1021",
      "taf": "TAF EGKK 100457Z 1006/1112 33005KT CAVOK"
    },
    {
      "icao": "EGNM",
      "alert": "OK",
      "vis_m": 9999,
      "fzfg": false,
      "metar_trigger": false,
      "taf_trigger": false,
      "metar": "METAR EGNM 100550Z 27012KT 9999 FEW028 03/00 Q1017",
      "taf": "TAF EGNM 100456Z 1006/1106 26008KT 9999 FEW025"
    },
    {
      "icao": "EGPD",
      "alert": "OK",
      "vis_m": 9999,
      "fzfg": false,
      "metar_trigger": false,
      "taf_trigger": false,
      "metar": "METAR EGPD 100550Z COR AUTO 27009KT 9999 NCD 04/M01 Q1013 NOSIG",
      "taf": "TAF EGPD 100457Z 1006/1106 27009KT 9999 FEW045"
    },
    {
      "icao": "EGPF",
      "alert": "OK",
      "vis_m": 9999,
      "fzfg": false,
      "metar_trigger": false,
      "taf_trigger": false,
      "metar": "METAR EGPF 100550Z AUTO 22008KT 9999 NCD 02/00 Q1016",
      "taf": "TAF EGPF 100455Z 1006/1106 26004KT 9999 FEW030"
    },
    {
      "icao": "EHBK",
      "alert": "OK",
      "vis_m": 9999,
      "fzfg": false,
      "metar_trigger": false,
      "taf_trigger": false,
      "metar": "METAR EHBK 100555Z AUTO 32009KT 280V020 9999 NSC 08/01 Q1019 NOSIG",
      "taf": "TAF EHBK 100508Z 1006/1112 30005KT 9999 SCT030"
    },
    {
      "icao": "EHEH",
      "alert": "OK",
      "vis_m": 9999,
      "fzfg": false,
      "metar_trigger": false,
      "taf_trigger": false,
      "metar": "METAR EHEH 100555Z AUTO 30004KT 250V340 9999 OVC120 08/02 Q1019 BLU NOSIG RMK TREND REMOTE BY EHWX",
      "taf": "TAF EHEH 100511Z 1006/1112 29006KT CAVOK"
    },
    {
      "icao": "EKBI",
      "alert": "OK",
      "vis_m": 6000,
      "fzfg": false,
      "metar_trigger": false,
      "taf_trigger": false,
      "metar": "METAR EKBI 100550Z AUTO 13012KT 090V150 6000 -SN OVC005/// 01/00 Q1012",
      "taf": "TAF EKBI 100527Z 1006/1106 13015KT 5000 RASN BKN010"
    },
    {
      "icao": "EKCH",
      "alert": "OK",
      "vis_m": 9999,
      "fzfg": false,
      "metar_trigger": false,
      "taf_trigger": false,
      "metar": "METAR EKCH 100550Z AUTO 14019KT 9999 NCD 04/M01 Q1017 NOSIG",
      "taf": "TAF EKCH 100527Z 1006/1106 13018KT CAVOK"
    },
    {
      "icao": "ENAL",
      "alert": "OK",
      "vis_m": 9999,
      "fzfg": false,
      "metar_trigger": false,
      "taf_trigger": false,
      "metar": "METAR ENAL 100550Z VRB02KT 9999 -RA FEW016 SCT034 BKN043 05/05 Q1009",
      "taf": "TAF ENAL 100500Z 1006/1015 05012KT 9999 -RA BKN040"
    },
    {
      "icao": "ENBR",
      "alert": "OK",
      "vis_m": 9999,
      "fzfg": false,
      "metar_trigger": false,
      "taf_trigger": false,
      "metar": "METAR ENBR 100550Z 13014KT 9999 VCSH FEW029 BKN041 04/M03 Q1009 NOSIG RMK WIND 1200FT 13025KT",
      "taf": "TAF ENBR 100500Z 1006/1106 15012KT 9999 -RA SCT015 BKN030"
    },
    {
      "icao": "ENGM",
      "alert": "OK",
      "vis_m": 9999,
      "fzfg": false,
      "metar_trigger": false,
      "taf_trigger": false,
      "metar": "METAR ENGM 100550Z 09005KT 060V130 9999 FEW022 M00/M06 Q1018 NOSIG",
      "taf": "TAF ENGM 100500Z 1006/1106 VRB03KT CAVOK"
    },
    {
      "icao": "ENHD",
      "alert": "OK",
      "vis_m": 9999,
      "fzfg": false,
      "metar_trigger": false,
      "taf_trigger": false,
      "metar": "METAR ENHD 100550Z 12024KT 9999 -RA BKN031 04/M00 Q1008",
      "taf": "TAF ENHD 100500Z 1006/1015 14018KT 9999 -RA BKN030"
    },
    {
      "icao": "ENTC",
      "alert": "OK",
      "vis_m": 9999,
      "fzfg": false,
      "metar_trigger": false,
      "taf_trigger": false,
      "metar": "METAR ENTC 100550Z 24005KT CAVOK 05/00 Q1014 NOSIG RMK WIND 2600FT 18006KT",
      "taf": "TAF ENTC 100500Z 1006/1106 20005KT CAVOK"
    },
    {
      "icao": "ENTO",
      "alert": "OK",
      "vis_m": 9999,
      "fzfg": false,
      "metar_trigger": false,
      "taf_trigger": false,
      "metar": "METAR ENTO 100550Z 14007KT 100V170 CAVOK 02/M04 Q1017 NOSIG",
      "taf": "TAF ENTO 100500Z 1006/1106 15008KT 9999 SCT020"
    },
    {
      "icao": "ENVA",
      "alert": "OK",
      "vis_m": 9999,
      "fzfg": false,
      "metar_trigger": false,
      "taf_trigger": false,
      "metar": "METAR ENVA 100550Z 12008KT 080V160 CAVOK 07/M06 Q1014 NOSIG RMK WIND 670FT 15020G34KT",
      "taf": "TAF ENVA 100500Z 1006/1106 14012KT CAVOK"
    },
    {
      "icao": "ENZV",
      "alert": "OK",
      "vis_m": 9999,
      "fzfg": false,
      "metar_trigger": false,
      "taf_trigger": false,
      "metar": "METAR ENZV 100550Z 12017KT 9999 OVC046 03/M00 Q1009 NOSIG",
      "taf": "TAF ENZV 100500Z 1006/1106 14018KT 9000 -RA BKN020"
    },
    {
      "icao": "EPGD",
      "alert": "OK",
      "vis_m": 9999,
      "fzfg": false,
      "metar_trigger": false,
      "taf_trigger": false,
      "metar": "METAR EPGD 100600Z 13005KT CAVOK 01/M04 Q1021",
      "taf": "TAF EPGD 100530Z 1006/1106 12005KT CAVOK"
    },
    {
      "icao": "EPKK",
      "alert": "OK",
      "vis_m": 4700,
      "fzfg": false,
      "metar_trigger": false,
      "taf_trigger": false,
      "metar": "METAR EPKK 100600Z VRB01KT 4700 BR NSC 01/M02 Q1020",
      "taf": "TAF EPKK 100530Z 1006/1106 VRB02KT 4000 BR SCT002"
    },
    {
      "icao": "EPKT",
      "alert": "OK",
      "vis_m": 5000,
      "fzfg": false,
      "metar_trigger": false,
      "taf_trigger": false,
      "metar": "METAR EPKT 100600Z 11003KT 5000 BR NSC M01/M03 Q1019",
      "taf": "TAF EPKT 100530Z 1006/1106 VRB02KT 3000 BR NSC"
    },
    {
      "icao": "EPLB",
      "alert": "OK",
      "vis_m": 9999,
      "fzfg": false,
      "metar_trigger": false,
      "taf_trigger": false,
      "metar": "METAR EPLB 100600Z 07003KT 030V100 CAVOK 01/M01 Q1021",
      "taf": "TAF EPLB 100530Z 1006/1106 VRB05KT 9999 SCT035"
    },
    {
      "icao": "EPMO",
      "alert": "OK",
      "vis_m": 9999,
      "fzfg": false,
      "metar_trigger": false,
      "taf_trigger": false,
      "metar": "METAR EPMO 100600Z 07006KT CAVOK 02/M01 Q1022",
      "taf": "TAF EPMO 100530Z 1006/1106 VRB04KT 9999 SCT035"
    },
    {
      "icao": "EPPO",
      "alert": "OK",
      "vis_m": 9999,
      "fzfg": false,
      "metar_trigger": false,
      "taf_trigger": false,
      "metar": "METAR EPPO 100600Z 10007KT CAVOK 03/M03 Q1019",
      "taf": "TAF EPPO 100530Z 1006/1106 09007KT CAVOK"
    },
    {
      "icao": "EPRA",
      "alert": "OK",
      "vis_m": 9999,
      "fzfg": false,
      "metar_trigger": false,
      "taf_trigger": false,
      "metar": "METAR EPRA 100600Z 07005KT CAVOK 02/M01 Q1021",
      "taf": "TAF EPRA 100530Z 1006/1015 VRB02KT CAVOK"
    },
    {
      "icao": "EPRZ",
      "alert": "CRITICAL",
      "vis_m": 100,
      "fzfg": true,
      "metar_trigger": true,
      "taf_trigger": true,
      "metar": "METAR EPRZ 100600Z VRB02KT 0100 R27/0250N FZFG VV001 M00/M01 Q1020",
      "taf": "TAF EPRZ 100530Z 1006/1106 VRB02KT 0100 FZFG OVC001"
    },
    {
      "icao": "EPSC",
      "alert": "OK",
      "vis_m": 9999,
      "fzfg": false,
      "metar_trigger": false,
      "taf_trigger": false,
      "metar": "METAR EPSC 100600Z 13013KT CAVOK 02/M03 Q1018",
      "taf": "TAF EPSC 100530Z 1006/1106 12011KT CAVOK"
    },
    {
      "icao": "EPSY",
      "alert": "OK",
      "vis_m": 9999,
      "fzfg": false,
      "metar_trigger": false,
      "taf_trigger": false,
      "metar": "METAR EPSY 100600Z 07003KT CAVOK 01/M04 Q1022",
      "taf": "TAF EPSY 100530Z 1006/1015 03006KT CAVOK"
    },
    {
      "icao": "EPWA",
      "alert": "OK",
      "vis_m": 9999,
      "fzfg": false,
      "metar_trigger": false,
      "taf_trigger": false,
      "metar": "METAR EPWA 100600Z 09005KT CAVOK 02/M02 Q1021 NOSIG",
      "taf": "TAF EPWA 100530Z 1006/1106 VRB02KT 9999 SCT035"
    },
    {
      "icao": "EPWR",
      "alert": "OK",
      "vis_m": 9999,
      "fzfg": false,
      "metar_trigger": false,
      "taf_trigger": false,
      "metar": "METAR EPWR 100600Z 11004KT CAVOK M00/M04 Q1019",
      "taf": "TAF EPWR 100530Z 1006/1106 13007KT CAVOK"
    },
    {
      "icao": "ESGG",
      "alert": "OK",
      "vis_m": 9999,
      "fzfg": false,
      "metar_trigger": false,
      "taf_trigger": false,
      "metar": "METAR ESGG 100550Z 13009KT CAVOK M00/M03 Q1017",
      "taf": "TAF ESGG 100530Z 1006/1106 14009KT CAVOK"
    },
    {
      "icao": "ESKN",
      "alert": "OK",
      "vis_m": 9999,
      "fzfg": false,
      "metar_trigger": false,
      "taf_trigger": false,
      "metar": "METAR ESKN 100550Z 08003KT CAVOK 01/00 Q1023",
      "taf": "TAF ESKN 100530Z 1006/1106 12007KT CAVOK"
    },
    {
      "icao": "ESMS",
      "alert": "OK",
      "vis_m": 9999,
      "fzfg": false,
      "metar_trigger": false,
      "taf_trigger": false,
      "metar": "METAR ESMS 100550Z 12012KT CAVOK 03/M01 Q1017",
      "taf": "TAF ESMS 100527Z 1006/1106 14010KT CAVOK"
    },
    {
      "icao": "ESSA",
      "alert": "OK",
      "vis_m": 9999,
      "fzfg": false,
      "metar_trigger": false,
      "taf_trigger": false,
      "metar": "METAR ESSA 100550Z 13004KT 110V190 CAVOK M00/M02 Q1024 NOSIG",
      "taf": "TAF ESSA 100530Z 1006/1106 11006KT CAVOK"
    },
    {
      "icao": "EYKA",
      "alert": "OK",
      "vis_m": 9999,
      "fzfg": false,
      "metar_trigger": false,
      "taf_trigger": false,
      "metar": "METAR EYKA 100550Z 33005KT CAVOK 01/M03 Q1021",
      "taf": "TAF EYKA 100500Z 1006/1106 VRB04KT 9000 SCT040"
    },
    {
      "icao": "EYPA",
      "alert": "OK",
      "vis_m": 9999,
      "fzfg": false,
      "metar_trigger": false,
      "taf_trigger": false,
      "metar": "METAR EYPA 100550Z VRB01KT CAVOK 01/M02 Q1024",
      "taf": "TAF EYPA 100500Z 1006/1106 VRB04KT 9000 SCT040"
    },
    {
      "icao": "EYVI",
      "alert": "OK",
      "vis_m": 9999,
      "fzfg": false,
      "metar_trigger": false,
      "taf_trigger": false,
      "metar": "METAR EYVI 100550Z 33006KT CAVOK 01/M03 Q1020 NOSIG",
      "taf": "TAF EYVI 100500Z 1006/1106 VRB04KT 9000 NSC"
    },
    {
      "icao": "GCFV",
      "alert": "OK",
      "vis_m": 9999,
      "fzfg": false,
      "metar_trigger": false,
      "taf_trigger": false,
      "metar": "METAR GCFV 100600Z 30011KT 9999 SCT030 17/10 Q1016",
      "taf": "TAF GCFV 100200Z 1003/1103 31010KT 9999 SCT030 TX21/1014Z TN15/1006Z"
    },
    {
      "icao": "GCLP",
      "alert": "OK",
      "vis_m": 9999,
      "fzfg": false,
      "metar_trigger": false,
      "taf_trigger": false,
      "metar": "METAR GCLP 100600Z 33007KT 300V360 9999 FEW035 16/08 Q1017 NOSIG",
      "taf": "TAF GCLP 100200Z 1003/1103 34014KT 9999 SCT030 TX22/1014Z TN15/1006Z"
    },
    {
      "icao": "GCTS",
      "alert": "OK",
      "vis_m": 9999,
      "fzfg": false,
      "metar_trigger": false,
      "taf_trigger": false,
      "metar": "METAR GCTS 100600Z 30006KT 9999 FEW025 16/11 Q1017 NOSIG",
      "taf": "TAF GCTS 100200Z 1003/1103 VRB08KT 9999 SCT030 TX23/1014Z TN15/1006Z"
    },
    {
      "icao": "GMAD",
      "alert": "OK",
      "vis_m": 9999,
      "fzfg": false,
      "metar_trigger": false,
      "taf_trigger": false,
      "metar": "METAR GMAD 100600Z 16005KT 9999 -RA SCT016 SCT026 13/12 Q1012 NOSIG",
      "taf": "TAF GMAD 100500Z 1006/1112 18006KT 6000 SCT020 SCT080"
    },
    {
      "icao": "GMMN",
      "alert": "OK",
      "vis_m": 9999,
      "fzfg": false,
      "metar_trigger": false,
      "taf_trigger": false,
      "metar": "METAR GMMN 100600Z COR 03003KT 360V060 9999 SCT016 09/08 Q1012 NOSIG",
      "taf": "TAF GMMN 100500Z 1006/1112 04005KT 9999 SCT016"
    },
    {
      "icao": "GMMX",
      "alert": "OK",
      "vis_m": 6000,
      "fzfg": false,
      "metar_trigger": false,
      "taf_trigger": false,
      "metar": "METAR GMMX 100600Z 26007KT 6000 SCT006 BKN016 11/10 Q1012 NOSIG",
      "taf": "TAF GMMX 100500Z 1006/1112 26006KT 8000 SCT013 SCT023"
    },
    {
      "icao": "HEGN",
      "alert": "OK",
      "vis_m": 9999,
      "fzfg": false,
      "metar_trigger": false,
      "taf_trigger": false,
      "metar": "METAR HEGN 100500Z 30010KT CAVOK 18/M05 Q1015 NOSIG",
      "taf": "TAF HEGN 100500Z 1006/1112 32015KT CAVOK"
    },
    {
      "icao": "HEMA",
      "alert": "OK",
      "vis_m": 9999,
      "fzfg": false,
      "metar_trigger": false,
      "taf_trigger": false,
      "metar": "METAR HEMA 100500Z 30012KT CAVOK 20/05 Q1015 NOSIG",
      "taf": "TAF HEMA 100500Z 1006/1112 33015KT CAVOK"
    },
    {
      "icao": "HESH",
      "alert": "OK",
      "vis_m": 9999,
      "fzfg": false,
      "metar_trigger": false,
      "taf_trigger": false,
      "metar": "METAR HESH 100500Z 00000KT CAVOK 20/06 Q1015 NOSIG",
      "taf": "TAF HESH 100500Z 1006/1112 19010KT CAVOK"
    },
    {
      "icao": "HESX",
      "alert": "OK",
      "vis_m": 9999,
      "fzfg": false,
      "metar_trigger": false,
      "taf_trigger": false,
      "metar": "METAR HESX 100500Z 27005KT CAVOK 13/08 Q1015 NOSIG",
      "taf": "TAF HESX 100500Z 1006/1112 28010KT CAVOK"
    },
    {
      "icao": "LATI",
      "alert": "OK",
      "vis_m": 9999,
      "fzfg": false,
      "metar_trigger": false,
      "taf_trigger": false,
      "metar": "METAR LATI 100550Z 16004KT 130V200 9999 FEW030 10/02 Q1016 NOSIG",
      "taf": "TAF LATI 100500Z 1006/1106 VRB05KT CAVOK TX21/1012Z TN05/1104Z"
    },
    {
      "icao": "LBPD",
      "alert": "OK",
      "vis_m": 9999,
      "fzfg": false,
      "metar_trigger": false,
      "taf_trigger": false,
      "metar": "METAR LBPD 100600Z AUTO 29012KT 9999 SCT075/// 08/M00 Q1017 NOSIG",
      "taf": "TAF LBPD 100500Z 1006/1106 29012KT 9999 SCT060"
    },
    {
      "icao": "LBSF",
      "alert": "OK",
      "vis_m": 9999,
      "fzfg": false,
      "metar_trigger": false,
      "taf_trigger": false,
      "metar": "METAR LBSF 100600Z 29010KT CAVOK 05/M04 Q1017 NOSIG",
      "taf": "TAF LBSF 100500Z 1006/1106 VRB03KT 9999 BKN060"
    },
    {
      "icao": "LBWN",
      "alert": "OK",
      "vis_m": 9999,
      "fzfg": false,
      "metar_trigger": false,
      "taf_trigger": false,
      "metar": "METAR LBWN 100600Z AUTO VRB05G15KT 9999 FEW016/// BKN045/// 06/02 Q1017 NOSIG",
      "taf": "TAF LBWN 100500Z 1006/1106 02010KT 9999 SCT025 BKN045"
    },
    {
      "icao": "LCLK",
      "alert": "OK",
      "vis_m": 9999,
      "fzfg": false,
      "metar_trigger": false,
      "taf_trigger": false,
      "metar": "METAR LCLK 100600Z VRB03KT 9999 FEW025 FEW030TCU BKN060 17/14 Q1012 NOSIG",
      "taf": "TAF LCLK 100530Z 1006/1106 24009KT 9999 FEW020"
    },
    {
      "icao": "LCPH",
      "alert": "OK",
      "vis_m": 9999,
      "fzfg": false,
      "metar_trigger": false,
      "taf_trigger": false,
      "metar": "METAR LCPH 100600Z 33010KT 310V010 9999 FEW020 SCT030 18/12 Q1012 NOSIG",
      "taf": "TAF LCPH 100530Z 1006/1106 26006KT 9999 FEW020"
    },
    {
      "icao": "LEAL",
      "alert": "OK",
      "vis_m": 9999,
      "fzfg": false,
      "metar_trigger": false,
      "taf_trigger": false,
      "metar": "METAR LEAL 100600Z 27004KT CAVOK 14/05 Q1017 NOSIG",
      "taf": "TAF LEAL 100500Z 1006/1106 VRB04KT CAVOK TX26/1013Z TN14/1006Z"
    },
    {
      "icao": "LEBB",
      "alert": "OK",
      "vis_m": 9000,
      "fzfg": false,
      "metar_trigger": false,
      "taf_trigger": false,
      "metar": "METAR LEBB 100600Z VRB02KT 9000 BKN017 14/12 Q1021 NOSIG",
      "taf": "TAF LEBB 100500Z 1006/1106 12008KT 9999 FEW015 TX31/1014Z TN11/1006Z"
    },
    {
      "icao": "LEBL",
      "alert": "OK",
      "vis_m": 9999,
      "fzfg": false,
      "metar_trigger": false,
      "taf_trigger": false,
      "metar": "METAR LEBL 100600Z 34009G20KT 280V010 CAVOK 14/07 Q1017 NOSIG",
      "taf": "TAF LEBL 100500Z 1006/1106 20005KT 9999 FEW005 TX23/1012Z TN12/1106Z"
    },
    {
      "icao": "LECH",
      "alert": "OK",
      "vis_m": 9999,
      "fzfg": false,
      "metar_trigger": false,
      "taf_trigger": false,
      "metar": "METAR LECH 100600Z AUTO 18002KT CAVOK 11/04 Q1019",
      "taf": "TAF LECH 100500Z 1006/1106 VRB04KT CAVOK TX26/1014Z TN09/1006Z"
    },
    {
      "icao": "LEMD",
      "alert": "OK",
      "vis_m": 9999,
      "fzfg": false,
      "metar_trigger": false,
      "taf_trigger": false,
      "metar": "METAR LEMD 100600Z VRB01KT CAVOK 11/05 Q1019 NOSIG",
      "taf": "TAF LEMD 100500Z 1006/1112 VRB04KT CAVOK TX29/1015Z TN10/1006Z"
    },
    {
      "icao": "LEMG",
      "alert": "OK",
      "vis_m": 9999,
      "fzfg": false,
      "metar_trigger": false,
      "taf_trigger": false,
      "metar": "METAR LEMG 100600Z 30006KT 260V320 CAVOK 13/12 Q1012 NOSIG",
      "taf": "TAF LEMG 100500Z 1006/1106 29005KT 9999 FEW020 TX24/1014Z TN14/1007Z"
    },
    {
      "icao": "LEVC",
      "alert": "OK",
      "vis_m": 9999,
      "fzfg": false,
      "metar_trigger": false,
      "taf_trigger": false,
      "metar": "METAR LEVC 100600Z VRB02KT CAVOK 12/05 Q1018 NOSIG",
      "taf": "TAF LEVC 100500Z 1006/1106 VRB04KT CAVOK TX26/1013Z TN13/1006Z"
    },
    {
      "icao": "LEXJ",
      "alert": "OK",
      "vis_m": 8000,
      "fzfg": false,
      "metar_trigger": false,
      "taf_trigger": false,
      "metar": "METAR LEXJ 100600Z 00000KT 8000 OVC018 13/11 Q1020",
      "taf": "TAF LEXJ 100200Z 1003/1103 28007KT 9000 SCT010 TX24/1014Z TN12/1007Z"
    },
    {
      "icao": "LEZG",
      "alert": "OK",
      "vis_m": 9999,
      "fzfg": false,
      "metar_trigger": false,
      "taf_trigger": false,
      "metar": "METAR LEZG 100600Z 26009KT CAVOK 14/07 Q1019 NOSIG",
      "taf": "TAF LEZG 100500Z 1006/1106 29010KT CAVOK TX30/1015Z TN12/1006Z"
    },
    {
      "icao": "LEZL",
      "alert": "OK",
      "vis_m": 9000,
      "fzfg": false,
      "metar_trigger": false,
      "taf_trigger": false,
      "metar": "METAR LEZL 100600Z VRB02KT 9000 NSC 12/12 Q1013 NOSIG",
      "taf": "TAF LEZL 100200Z 1003/1103 21006KT CAVOK TX26/1015Z TN11/1007Z"
    },
    {
      "icao": "LFBD",
      "alert": "OK",
      "vis_m": 9999,
      "fzfg": false,
      "metar_trigger": false,
      "taf_trigger": false,
      "metar": "METAR LFBD 100600Z AUTO 36004KT 9999 BKN006 OVC010 13/13 Q1020 NOSIG",
      "taf": "TAF LFBD 100500Z 1006/1112 27008KT 3000 BR BKN003 TX27/1015Z TN13/1006Z"
    },
    {
      "icao": "LFLL",
      "alert": "OK",
      "vis_m": 9999,
      "fzfg": false,
      "metar_trigger": false,
      "taf_trigger": false,
      "metar": "METAR LFLL 100600Z 15002KT CAVOK 11/07 Q1017 NOSIG",
      "taf": "TAF LFLL 100500Z 1006/1112 35006KT CAVOK"
    },
    {
      "icao": "LFLS",
      "alert": "OK",
      "vis_m": 9999,
      "fzfg": false,
      "metar_trigger": false,
      "taf_trigger": false,
      "metar": "METAR LFLS 100600Z AUTO 07004KT CAVOK 08/06 Q1017 NOSIG",
      "taf": "TAF LFLS 100200Z 1003/1103 09005KT CAVOK"
    },
    {
      "icao": "LFMN",
      "alert": "OK",
      "vis_m": 9999,
      "fzfg": false,
      "metar_trigger": false,
      "taf_trigger": false,
      "metar": "METAR LFMN 100600Z 32006KT 9999 BKN014 13/09 Q1015 NOSIG",
      "taf": "TAF LFMN 100200Z 1003/1109 01005KT 9999 OVC015"
    },
    {
      "icao": "LFOB",
      "alert": "OK",
      "vis_m": 9999,
      "fzfg": false,
      "metar_trigger": false,
      "taf_trigger": false,
      "metar": "METAR LFOB 100600Z AUTO 34004KT CAVOK 05/03 Q1021 NOSIG",
      "taf": "TAF LFOB 100500Z 1006/1106 VRB04KT CAVOK"
    },
    {
      "icao": "LFPO",
      "alert": "OK",
      "vis_m": 9999,
      "fzfg": false,
      "metar_trigger": false,
      "taf_trigger": false,
      "metar": "METAR LFPO 100600Z 02008KT CAVOK 09/04 Q1021 NOSIG",
      "taf": "TAF LFPO 100500Z 1006/1112 34008KT CAVOK"
    },
    {
      "icao": "LFSB",
      "alert": "OK",
      "vis_m": 9999,
      "fzfg": false,
      "metar_trigger": false,
      "taf_trigger": false,
      "metar": "METAR LFSB 100600Z AUTO VRB03KT CAVOK 10/08 Q1017 TEMPO FEW045TCU",
      "taf": "TAF LFSB 100500Z 1006/1106 35005KT 9999 SCT050 BKN080"
    },
    {
      "icao": "LGAV",
      "alert": "OK",
      "vis_m": 9999,
      "fzfg": false,
      "metar_trigger": false,
      "taf_trigger": false,
      "metar": "METAR LGAV 100550Z 26003KT 9999 FEW025 SCT070 14/07 Q1015 NOSIG",
      "taf": "TAF LGAV 100500Z 1006/1106 VRB03KT 9999 SCT025 BKN070"
    },
    {
      "icao": "LGTS",
      "alert": "OK",
      "vis_m": 9999,
      "fzfg": false,
      "metar_trigger": false,
      "taf_trigger": false,
      "metar": "METAR LGTS 100550Z 00000KT 9999 FEW030 10/08 Q1017 NOSIG",
      "taf": "TAF LGTS 100500Z 1006/1106 34015KT 9999 FEW025"
    },
    {
      "icao": "LHBP",
      "alert": "OK",
      "vis_m": 9999,
      "fzfg": false,
      "metar_trigger": false,
      "taf_trigger": false,
      "metar": "METAR LHBP 100600Z 34005KT CAVOK 03/M02 Q1019 NOSIG",
      "taf": "TAF LHBP 100515Z 1006/1106 36004KT CAVOK"
    },
    {
      "icao": "LHDC",
      "alert": "OK",
      "vis_m": 9999,
      "fzfg": false,
      "metar_trigger": false,
      "taf_trigger": false,
      "metar": "METAR LHDC 100545Z AUTO 04008KT 350V070 CAVOK 03/M03 Q1018 NOSIG",
      "taf": "TAF LHDC 100515Z 1006/1015 05007KT CAVOK"
    },
    {
      "icao": "LIBD",
      "alert": "OK",
      "vis_m": 9999,
      "fzfg": false,
      "metar_trigger": false,
      "taf_trigger": false,
      "metar": "METAR LIBD 100550Z 21005KT CAVOK 10/07 Q1015",
      "taf": "TAF LIBD 100500Z 1006/1106 22006KT CAVOK"
    },
    {
      "icao": "LIBG",
      "alert": "OK",
      "vis_m": 9999,
      "fzfg": false,
      "metar_trigger": false,
      "taf_trigger": false,
      "metar": "SPECI LIBG 100555Z VRB02KT CAVOK 12/07 Q1015",
      "taf": ""
    },
    {
      "icao": "LIBP",
      "alert": "OK",
      "vis_m": 9999,
      "fzfg": false,
      "metar_trigger": false,
      "taf_trigger": false,
      "metar": "METAR LIBP 100550Z AUTO 23005KT 9999 SCT070/// 09/08 Q1016",
      "taf": "TAF LIBP 100500Z 1006/1106 VRB05KT CAVOK"
    },
    {
      "icao": "LIBR",
      "alert": "OK",
      "vis_m": 9999,
      "fzfg": false,
      "metar_trigger": false,
      "taf_trigger": false,
      "metar": "METAR LIBR 100550Z VRB02KT CAVOK 12/07 Q1015",
      "taf": "TAF LIBR 100500Z 1006/1106 VRB05KT CAVOK"
    },
    {
      "icao": "LICA",
      "alert": "OK",
      "vis_m": 9999,
      "fzfg": false,
      "metar_trigger": false,
      "taf_trigger": false,
      "metar": "METAR LICA 100550Z AUTO 03002KT 9999 NCD 12/10 Q1017",
      "taf": "TAF LICA 100500Z 1006/1106 VRB05KT CAVOK"
    },
    {
      "icao": "LICC",
      "alert": "OK",
      "vis_m": 9999,
      "fzfg": false,
      "metar_trigger": false,
      "taf_trigger": false,
      "metar": "METAR LICC 100550Z 22004KT CAVOK 09/05 Q1016",
      "taf": "TAF LICC 100500Z 1006/1106 VRB05KT CAVOK"
    },
    {
      "icao": "LICJ",
      "alert": "OK",
      "vis_m": 9999,
      "fzfg": false,
      "metar_trigger": false,
      "taf_trigger": false,
      "metar": "METAR LICJ 100550Z 17003KT CAVOK 13/08 Q1016",
      "taf": "TAF LICJ 100500Z 1006/1106 21010KT CAVOK"
    },
    {
      "icao": "LIMC",
      "alert": "OK",
      "vis_m": 9999,
      "fzfg": false,
      "metar_trigger": false,
      "taf_trigger": false,
      "metar": "METAR LIMC 100550Z VRB02KT CAVOK 09/07 Q1015 NOSIG",
      "taf": "TAF LIMC 100500Z 1006/1112 VRB05KT CAVOK"
    },
    {
      "icao": "LIME",
      "alert": "OK",
      "vis_m": 9999,
      "fzfg": false,
      "metar_trigger": false,
      "taf_trigger": false,
      "metar": "METAR LIME 100550Z 36003KT CAVOK 10/07 Q1015 NOSIG",
      "taf": "TAF LIME 100500Z 1006/1106 VRB05KT CAVOK"
    },
    {
      "icao": "LIMF",
      "alert": "OK",
      "vis_m": 9999,
      "fzfg": false,
      "metar_trigger": false,
      "taf_trigger": false,
      "metar": "METAR LIMF 100550Z 03004KT CAVOK 11/07 Q1015",
      "taf": "TAF LIMF 100500Z 1006/1106 VRB05KT 9999 FEW030"
    },
    {
      "icao": "LIMJ",
      "alert": "OK",
      "vis_m": 9999,
      "fzfg": false,
      "metar_trigger": false,
      "taf_trigger": false,
      "metar": "METAR LIMJ 100550Z 04006KT 9999 BKN015 14/11 Q1015",
      "taf": "TAF LIMJ 100500Z 1006/1106 VRB05KT 9999 FEW020"
    },
    {
      "icao": "LIPE",
      "alert": "OK",
      "vis_m": 9999,
      "fzfg": false,
      "metar_trigger": false,
      "taf_trigger": false,
      "metar": "METAR LIPE 100550Z VRB01KT CAVOK 08/M03 Q1015",
      "taf": "TAF LIPE 100500Z 1006/1106 VRB05KT CAVOK"
    },
    {
      "icao": "LIPH",
      "alert": "OK",
      "vis_m": 9999,
      "fzfg": false,
      "metar_trigger": false,
      "taf_trigger": false,
      "metar": "METAR LIPH 100550Z VRB02KT CAVOK 09/06 Q1015",
      "taf": "TAF LIPH 100500Z 1006/1106 VRB05KT CAVOK"
    },
    {
      "icao": "LIPQ",
      "alert": "OK",
      "vis_m": 9999,
      "fzfg": false,
      "metar_trigger": false,
      "taf_trigger": false,
      "metar": "METAR LIPQ 100550Z AUTO 03002KT 9999 FEW240/// 07/05 Q1015",
      "taf": "TAF LIPQ 100500Z 1006/1106 VRB05KT CAVOK"
    },
    {
      "icao": "LIPR",
      "alert": "OK",
      "vis_m": 9999,
      "fzfg": false,
      "metar_trigger": false,
      "taf_trigger": false,
      "metar": "METAR LIPR 100550Z 21003KT 160V230 CAVOK 11/10 Q1015",
      "taf": "TAF LIPR 100500Z 1006/1106 VRB05KT CAVOK"
    },
    {
      "icao": "LIPX",
      "alert": "OK",
      "vis_m": 9999,
      "fzfg": false,
      "metar_trigger": false,
      "taf_trigger": false,
      "metar": "METAR LIPX 100550Z VRB01KT CAVOK 09/07 Q1015",
      "taf": "TAF LIPX 100500Z 1006/1106 VRB05KT CAVOK"
    },
    {
      "icao": "LIPY",
      "alert": "OK",
      "vis_m": 9999,
      "fzfg": false,
      "metar_trigger": false,
      "taf_trigger": false,
      "metar": "METAR LIPY 100550Z AUTO 22003KT 9999 NCD 10/08 Q1015",
      "taf": "TAF LIPY 100500Z 1006/1106 VRB05KT CAVOK"
    },
    {
      "icao": "LIPZ",
      "alert": "OK",
      "vis_m": 9999,
      "fzfg": false,
      "metar_trigger": false,
      "taf_trigger": false,
      "metar": "METAR LIPZ 100550Z 34004KT 310V030 CAVOK 08/06 Q1015 NOSIG",
      "taf": "TAF LIPZ 100500Z 1006/1112 VRB05KT CAVOK"
    },
    {
      "icao": "LIRF",
      "alert": "OK",
      "vis_m": 8000,
      "fzfg": false,
      "metar_trigger": false,
      "taf_trigger": false,
      "metar": "METAR LIRF 100550Z 07002KT 8000 BKN006 10/09 Q1016 TEMPO 3000 BCFG",
      "taf": "TAF LIRF 100500Z 1006/1112 VRB05KT CAVOK"
    },
    {
      "icao": "LIRN",
      "alert": "OK",
      "vis_m": 9999,
      "fzfg": false,
      "metar_trigger": false,
      "taf_trigger": false,
      "metar": "METAR LIRN 100550Z 04002KT CAVOK 13/10 Q1016 NOSIG",
      "taf": "TAF LIRN 100500Z 1006/1106 VRB05KT CAVOK"
    },
    {
      "icao": "LIRP",
      "alert": "OK",
      "vis_m": 9999,
      "fzfg": false,
      "metar_trigger": false,
      "taf_trigger": false,
      "metar": "METAR LIRP 100545Z 11005KT CAVOK 09/08 Q1015 NOSIG",
      "taf": "TAF LIRP 100500Z 1006/1106 12003KT 9999 FEW015"
    },
    {
      "icao": "LIRZ",
      "alert": "OK",
      "vis_m": 9999,
      "fzfg": false,
      "metar_trigger": false,
      "taf_trigger": false,
      "metar": "METAR LIRZ 100550Z AUTO VRB01KT 9999 NCD 08/06 Q1016",
      "taf": "TAF LIRZ 100500Z 1006/1106 VRB05KT CAVOK"
    },
    {
      "icao": "LJLJ",
      "alert": "OK",
      "vis_m": 9999,
      "fzfg": false,
      "metar_trigger": false,
      "taf_trigger": false,
      "metar": "METAR LJLJ 100600Z 29001KT 9999 FEW060 BKN200 03/01 Q1017 NOSIG",
      "taf": "TAF LJLJ 100500Z 1006/1106 VRB02KT 9999 FEW090"
    },
    {
      "icao": "LKMT",
      "alert": "OK",
      "vis_m": 5000,
      "fzfg": false,
      "metar_trigger": false,
      "taf_trigger": false,
      "metar": "METAR LKMT 100600Z VRB01KT 5000 BR NSC M01/M03 Q1019 NOSIG",
      "taf": "TAF LKMT 100500Z 1006/1106 VRB02KT CAVOK"
    },
    {
      "icao": "LKPR",
      "alert": "OK",
      "vis_m": 9999,
      "fzfg": false,
      "metar_trigger": false,
      "taf_trigger": false,
      "metar": "METAR LKPR 100600Z 15004KT CAVOK 02/M05 Q1017 BECMG 4000 -SNRA BKN017",
      "taf": "TAF LKPR 100500Z 1006/1112 13006KT CAVOK"
    },
    {
      "icao": "LLBG",
      "alert": "OK",
      "vis_m": 9999,
      "fzfg": false,
      "metar_trigger": false,
      "taf_trigger": false,
      "metar": "METAR LLBG 100550Z 18006KT CAVOK 18/11 Q1015 NOSIG",
      "taf": "TAF LLBG 100502Z 1006/1106 VRB04KT 9999 SCT030 TX22/1011Z TN12/1103Z"
    },
    {
      "icao": "LMML",
      "alert": "OK",
      "vis_m": 9999,
      "fzfg": false,
      "metar_trigger": false,
      "taf_trigger": false,
      "metar": "METAR LMML 100545Z 24006KT CAVOK 16/12 Q1018 NOSIG",
      "taf": "TAF LMML 100500Z 1006/1106 26008KT CAVOK ."
    },
    {
      "icao": "LOWW",
      "alert": "OK",
      "vis_m": 9999,
      "fzfg": false,
      "metar_trigger": false,
      "taf_trigger": false,
      "metar": "METAR LOWW 100550Z 05003KT CAVOK 01/M03 Q1018 NOSIG",
      "taf": "TAF LOWW 100515Z 1006/1112 VRB04KT 9999 SCT030 TX12/1112Z TN01/1006Z"
    },
    {
      "icao": "LPFR",
      "alert": "OK",
      "vis_m": 9999,
      "fzfg": false,
      "metar_trigger": false,
      "taf_trigger": false,
      "metar": "METAR LPFR 100600Z 28005KT 9999 FEW010 14/13 Q1013",
      "taf": "TAF LPFR 100500Z 1006/1106 VRB05KT 9999 FEW030"
    },
    {
      "icao": "LPMA",
      "alert": "OK",
      "vis_m": 9999,
      "fzfg": false,
      "metar_trigger": false,
      "taf_trigger": false,
      "metar": "METAR LPMA 100600Z 35019G33KT 310V020 9999 BKN015 FEW016TCU 16/11 Q1016",
      "taf": "TAF LPMA 100500Z 1006/1106 36015KT 9999 SCT015"
    },
    {
      "icao": "LPPR",
      "alert": "OK",
      "vis_m": 9999,
      "fzfg": false,
      "metar_trigger": false,
      "taf_trigger": false,
      "metar": "METAR LPPR 100600Z 03006KT 010V070 CAVOK 16/10 Q1013",
      "taf": "TAF LPPR 100500Z 1006/1106 08005KT CAVOK"
    },
    {
      "icao": "LPPS",
      "alert": "OK",
      "vis_m": 9999,
      "fzfg": false,
      "metar_trigger": false,
      "taf_trigger": false,
      "metar": "METAR LPPS 100600Z 36019KT 9999 FEW012 BKN030 15/13 Q1017",
      "taf": "TAF LPPS 100500Z 1006/1112 36015KT 9999 SCT012 SCT030"
    },
    {
      "icao": "LPPT",
      "alert": "OK",
      "vis_m": 9999,
      "fzfg": false,
      "metar_trigger": false,
      "taf_trigger": false,
      "metar": "METAR LPPT 100600Z 05005KT CAVOK 15/13 Q1012",
      "taf": "TAF LPPT 100500Z 1006/1112 04005KT 9999 FEW030"
    },
    {
      "icao": "LQBK",
      "alert": "OK",
      "vis_m": 9999,
      "fzfg": false,
      "metar_trigger": false,
      "taf_trigger": false,
      "metar": "METAR LQBK 100600Z VRB03KT CAVOK 03/M01 Q1017 NOSIG",
      "taf": "TAF LQBK 100500Z 1006/1106 17005KT CAVOK TX16/1013Z TN00/1006Z"
    },
    {
      "icao": "LQSA",
      "alert": "OK",
      "vis_m": 9999,
      "fzfg": false,
      "metar_trigger": false,
      "taf_trigger": false,
      "metar": "METAR LQSA 100600Z 00000KT CAVOK 01/M03 Q1019 NOSIG",
      "taf": "TAF LQSA 100500Z 1006/1106 32006KT 9999 SCT060 TX15/1014Z TNM01/1006Z"
    },
    {
      "icao": "LQTZ",
      "alert": "OK",
      "vis_m": 9999,
      "fzfg": false,
      "metar_trigger": false,
      "taf_trigger": false,
      "metar": "METAR LQTZ 100600Z 00000KT CAVOK 01/M00 Q1018",
      "taf": "TAF LQTZ 100500Z 1006/1106 VRB02KT CAVOK TX15/1013Z TNM02/1006Z"
    },
    {
      "icao": "LRBC",
      "alert": "OK",
      "vis_m": 5000,
      "fzfg": false,
      "metar_trigger": false,
      "taf_trigger": false,
      "metar": "METAR LRBC 100600Z 34010KT 5000 SN BKN021 OVC033 02/00 Q1018",
      "taf": "TAF LRBC 100500Z 1006/1015 34010KT 9999 SCT020 BKN035"
    },
    {
      "icao": "LRBS",
      "alert": "OK",
      "vis_m": 9999,
      "fzfg": false,
      "metar_trigger": false,
      "taf_trigger": false,
      "metar": "METAR LRBS 100600Z 07004KT 050V110 9999 FEW040CB BKN043 05/00 Q1018 NOSIG",
      "taf": "TAF LRBS 100500Z 1006/1106 VRB04KT 9999 SCT045"
    },
    {
      "icao": "LRBV",
      "alert": "OK",
      "vis_m": 9999,
      "fzfg": false,
      "metar_trigger": false,
      "taf_trigger": false,
      "metar": "METAR LRBV 100600Z VRB01KT 9999 FEW020 SCT025 OVC044 00/M02 Q1017",
      "taf": "TAF LRBV 100500Z 1006/1015 VRB04KT 9999 BKN020"
    },
    {
      "icao": "LRCL",
      "alert": "OK",
      "vis_m": 9999,
      "fzfg": false,
      "metar_trigger": false,
      "taf_trigger": false,
      "metar": "METAR LRCL 100600Z 07001KT CAVOK 01/M03 Q1018",
      "taf": "TAF LRCL 100500Z 1006/1015 VRB04KT 9999 SCT045"
    },
    {
      "icao": "LRCV",
      "alert": "OK",
      "vis_m": 9999,
      "fzfg": false,
      "metar_trigger": false,
      "taf_trigger": false,
      "metar": "METAR LRCV 100600Z 13007KT 9999 FEW007 SCT030 05/04 Q1018",
      "taf": "TAF LRCV 100500Z 1006/1015 VRB04KT CAVOK"
    },
    {
      "icao": "LRIA",
      "alert": "OK",
      "vis_m": 9999,
      "fzfg": false,
      "metar_trigger": false,
      "taf_trigger": false,
      "metar": "METAR LRIA 100600Z 32010KT 9999 FEW006 03/01 Q1018",
      "taf": "TAF LRIA 100500Z 1006/1015 32010KT 9999 BKN045"
    },
    {
      "icao": "LROP",
      "alert": "OK",
      "vis_m": 9999,
      "fzfg": false,
      "metar_trigger": false,
      "taf_trigger": false,
      "metar": "METAR LROP 100600Z 10004KT 060V130 9999 BKN042 05/M02 Q1018 NOSIG",
      "taf": "TAF LROP 100500Z 1006/1106 VRB04KT 9999 SCT045"
    },
    {
      "icao": "LRSB",
      "alert": "OK",
      "vis_m": 9999,
      "fzfg": false,
      "metar_trigger": false,
      "taf_trigger": false,
      "metar": "METAR LRSB 100600Z VRB01KT 9999 SCT075 04/M00 Q1017",
      "taf": "TAF LRSB 100500Z 1006/1106 VRB04KT 9999 SCT045"
    },
    {
      "icao": "LRSM",
      "alert": "OK",
      "vis_m": 9999,
      "fzfg": false,
      "metar_trigger": false,
      "taf_trigger": false,
      "metar": "METAR LRSM 100600Z 11003KT 080V150 CAVOK 02/M04 Q1019",
      "taf": "TAF LRSM 100500Z 1006/1015 VRB04KT CAVOK"
    },
    {
      "icao": "LRSV",
      "alert": "OK",
      "vis_m": 9999,
      "fzfg": false,
      "metar_trigger": false,
      "taf_trigger": false,
      "metar": "METAR LRSV 100600Z 31010KT CAVOK 01/M02 Q1017",
      "taf": "TAF LRSV 100500Z 1006/1015 32010KT 9999 SCT045"
    },
    {
      "icao": "LRTM",
      "alert": "OK",
      "vis_m": 9999,
      "fzfg": false,
      "metar_trigger": false,
      "taf_trigger": false,
      "metar": "METAR LRTM 100600Z 07003KT 040V110 CAVOK 01/M02 Q1018",
      "taf": "TAF LRTM 100500Z 1006/1015 VRB04KT CAVOK"
    },
    {
      "icao": "LRTR",
      "alert": "OK",
      "vis_m": 9999,
      "fzfg": false,
      "metar_trigger": false,
      "taf_trigger": false,
      "metar": "METAR LRTR 100600Z 12006KT CAVOK 04/01 Q1017",
      "taf": "TAF LRTR 100500Z 1006/1106 11008KT CAVOK"
    },
    {
      "icao": "LTAC",
      "alert": "OK",
      "vis_m": 9999,
      "fzfg": false,
      "metar_trigger": false,
      "taf_trigger": false,
      "metar": "METAR LTAC 100550Z 08003KT 020V140 9999 FEW010 SCT030 BKN080 03/M00 Q1012 NOSIG RMK RWY21C VRB01KT RWY03L 06003KT 360V150 RWY21R VRB01KT RWY03R 04003KT 340V100 RWY21L VRB02KT",
      "taf": "TAF LTAC 100440Z 1006/1106 26012KT 9999 SCT035 BKN100"
    },
    {
      "icao": "LTFM",
      "alert": "OK",
      "vis_m": 9999,
      "fzfg": false,
      "metar_trigger": false,
      "taf_trigger": false,
      "metar": "METAR LTFM 100550Z 31009KT 270V340 9999 -SHRA FEW018TCU SCT024 BKN080 07/05 Q1016 NOSIG RMK RWY17L 28008KT RWY34L 30007KT 270V330 RWY16R 28006KT 250V310 RWY36 30010KT RWY18 29010KT",
      "taf": "TAF LTFM 100440Z 1006/1112 01012KT 9999 SCT020 BKN080"
    },
    {
      "icao": "LUKK",
      "alert": "OK",
      "vis_m": 9999,
      "fzfg": false,
      "metar_trigger": false,
      "taf_trigger": false,
      "metar": "METAR LUKK 100600Z 36008KT 330V030 CAVOK 04/01 Q1017 NOSIG",
      "taf": "TAF LUKK 100516Z 1006/1106 34010KT 9999 BKN035"
    },
    {
      "icao": "LWOH",
      "alert": "OK",
      "vis_m": 9999,
      "fzfg": false,
      "metar_trigger": false,
      "taf_trigger": false,
      "metar": "METAR LWOH 100550Z 33006KT 290V360 CAVOK 06/M00 Q1016",
      "taf": "TAF LWOH 100515Z 1006/1106 34006KT CAVOK"
    },
    {
      "icao": "LWSK",
      "alert": "OK",
      "vis_m": 9999,
      "fzfg": false,
      "metar_trigger": false,
      "taf_trigger": false,
      "metar": "METAR LWSK 100550Z 18001KT 9999 FEW070 06/M00 Q1019 NOSIG",
      "taf": "TAF LWSK 100515Z 1006/1106 VRB02KT 9999 SCT070"
    },
    {
      "icao": "LYBE",
      "alert": "OK",
      "vis_m": 9999,
      "fzfg": false,
      "metar_trigger": false,
      "taf_trigger": false,
      "metar": "METAR LYBE 100600Z 21005KT CAVOK 06/00 Q1018 NOSIG",
      "taf": "TAF LYBE 100500Z 1006/1106 26006KT 9999 SCT045 TX13/1013Z TN04/1006Z"
    },
    {
      "icao": "LYNI",
      "alert": "OK",
      "vis_m": 9999,
      "fzfg": false,
      "metar_trigger": false,
      "taf_trigger": false,
      "metar": "METAR LYNI 100600Z VRB02KT CAVOK 03/01 Q1019 NOSIG",
      "taf": "TAF LYNI 100500Z 1006/1106 31006KT 9999 SCT060 TX14/1012Z TN03/1006Z"
    },
    {
      "icao": "LYPG",
      "alert": "OK",
      "vis_m": 9999,
      "fzfg": false,
      "metar_trigger": false,
      "taf_trigger": false,
      "metar": "METAR LYPG 100600Z 33011KT 290V350 CAVOK 13/M05 Q1017 NOSIG",
      "taf": "TAF LYPG 100500Z 1006/1106 36008KT CAVOK TX22/1013Z TN11/1104Z"
    },
    {
      "icao": "LZIB",
      "alert": "OK",
      "vis_m": 9999,
      "fzfg": false,
      "metar_trigger": false,
      "taf_trigger": false,
      "metar": "METAR LZIB 100600Z 03006KT CAVOK 02/M03 Q1019 NOSIG",
      "taf": "TAF LZIB 100515Z 1006/1106 04007KT CAVOK"
    },
    {
      "icao": "LZKZ",
      "alert": "OK",
      "vis_m": 9999,
      "fzfg": false,
      "metar_trigger": false,
      "taf_trigger": false,
      "metar": "METAR LZKZ 100600Z 01013KT CAVOK 03/M03 Q1019 NOSIG",
      "taf": "TAF LZKZ 100515Z 1006/1106 04005KT CAVOK"
    },
    {
      "icao": "LZTT",
      "alert": "OK",
      "vis_m": 9999,
      "fzfg": false,
      "metar_trigger": false,
      "taf_trigger": false,
      "metar": "METAR LZTT 100600Z VRB03KT 9999 FEW023 M01/M06 Q1017 NOSIG",
      "taf": "TAF LZTT 100515Z 1006/1106 30005KT 9999 SCT040"
    },
    {
      "icao": "OEJN",
      "alert": "OK",
      "vis_m": 9999,
      "fzfg": false,
      "metar_trigger": false,
      "taf_trigger": false,
      "metar": "METAR OEJN 100600Z 33007KT CAVOK 26/14 Q1013 NOSIG",
      "taf": "TAF OEJN 100500Z 1006/1112 30015KT 7000 NSC"
    },
    {
      "icao": "OEMA",
      "alert": "OK",
      "vis_m": 9999,
      "fzfg": false,
      "metar_trigger": false,
      "taf_trigger": false,
      "metar": "METAR OEMA 100600Z VRB02KT CAVOK 23/00 Q1017 NOSIG",
      "taf": "TAF OEMA 100500Z 1006/1112 10010KT CAVOK"
    },
    {
      "icao": "OJAI",
      "alert": "OK",
      "vis_m": 4000,
      "fzfg": false,
      "metar_trigger": false,
      "taf_trigger": false,
      "metar": "METAR OJAI 100600Z 15003KT 4000 HZ NSC 11/07 Q1017 NOSIG",
      "taf": "TAF OJAI 100500Z 1006/1112 25012KT 5000 HZ NSC"
    },
    {
      "icao": "OMAA",
      "alert": "OK",
      "vis_m": null,
      "fzfg": false,
      "metar_trigger": false,
      "taf_trigger": false,
      "metar": "",
      "taf": ""
    },
    {
      "icao": "OMDB",
      "alert": "OK",
      "vis_m": null,
      "fzfg": false,
      "metar_trigger": false,
      "taf_trigger": false,
      "metar": "",
      "taf": ""
    },
    {
      "icao": "UAAA",
      "alert": "OK",
      "vis_m": 9999,
      "fzfg": false,
      "metar_trigger": false,
      "taf_trigger": false,
      "metar": "METAR UAAA 100600Z 07002MPS 9999 SCT050CB BKN100 18/07 Q1021 NOSIG",
      "taf": "TAF UAAA 100501Z 1006/1106 34002G07MPS 9999 BKN050CB OVC100 TX18/1008Z TN07/1101Z"
    },
    {
      "icao": "UBBB",
      "alert": "OK",
      "vis_m": 9999,
      "fzfg": false,
      "metar_trigger": false,
      "taf_trigger": false,
      "metar": "METAR UBBB 100600Z 16008KT 9999 FEW020 12/06 Q1016 NOSIG",
      "taf": "TAF UBBB 100501Z 1006/1106 16014KT 9999 SCT025 TX15/1010Z TN07/1101Z"
    },
    {
      "icao": "UDSG",
      "alert": "OK",
      "vis_m": 9999,
      "fzfg": false,
      "metar_trigger": false,
      "taf_trigger": false,
      "metar": "METAR UDSG 100600Z 23004KT 180V270 9999 BKN033CB 04/01 Q1012 NOSIG",
      "taf": "TAF UDSG 100500Z 1006/1106 20010KT 9999 BKN030"
    },
    {
      "icao": "UDYZ",
      "alert": "OK",
      "vis_m": 9999,
      "fzfg": false,
      "metar_trigger": false,
      "taf_trigger": false,
      "metar": "METAR UDYZ 100600Z 02005KT 9999 -SHRA OVC040CB 08/07 Q1012 NOSIG",
      "taf": "TAF UDYZ 100500Z 1006/1106 28006KT 6000 SCT030"
    },
    {
      "icao": "UGKO",
      "alert": "OK",
      "vis_m": 9999,
      "fzfg": false,
      "metar_trigger": false,
      "taf_trigger": false,
      "metar": "METAR UGKO 100600Z 10003KT 100V160 9999 SCT024CB OVC049 07/04 Q1014 NOSIG",
      "taf": "TAF UGKO 100500Z 1006/1106 26007KT 9999 SCT020 OVC050 TX12/1011Z TN05/1103Z"
    }
  ]
}