{
  "ts_utc": "2026-03-07T06:27:15Z",
  "threshold_m": 150,
  "source": "stations_override.txt (ICAO list) + aviationweather.gov (METAR/TAF raw)",
  "station_count": 159,
  "stations": [
    {
      "icao": "BIKF",
      "alert": "OK",
      "vis_m": 9999,
      "fzfg": false,
      "metar_trigger": false,
      "taf_trigger": false,
      "metar": "METAR BIKF 070600Z 18033KT 9999 VCSH SCT011CB BKN021 03/M00 Q0973",
      "taf": "TAF BIKF 070445Z 0706/0806 20038G52KT 9999 SCT015 BKN035 TX04/0710Z TN01/0706Z"
    },
    {
      "icao": "BKPR",
      "alert": "OK",
      "vis_m": null,
      "fzfg": false,
      "metar_trigger": false,
      "taf_trigger": false,
      "metar": "",
      "taf": "TAF BKPR 070530Z 0706/0806 VRB03KT 3000 BR FEW030"
    },
    {
      "icao": "EBCI",
      "alert": "OK",
      "vis_m": 6000,
      "fzfg": false,
      "metar_trigger": false,
      "taf_trigger": false,
      "metar": "METAR EBCI 070550Z 03004KT 6000 NSC 08/07 Q1024 TEMPO 2500 BR",
      "taf": "TAF EBCI 070510Z 0706/0812 04005KT CAVOK"
    },
    {
      "icao": "EDDB",
      "alert": "OK",
      "vis_m": 9999,
      "fzfg": false,
      "metar_trigger": false,
      "taf_trigger": false,
      "metar": "METAR EDDB 070620Z AUTO 09004KT CAVOK 01/M02 Q1026 NOSIG",
      "taf": "TAF EDDB 070500Z 0706/0806 12004KT CAVOK"
    },
    {
      "icao": "EDDH",
      "alert": "OK",
      "vis_m": 9999,
      "fzfg": false,
      "metar_trigger": false,
      "taf_trigger": false,
      "metar": "METAR EDDH 070620Z AUTO 14004KT 090V180 CAVOK 04/01 Q1024 NOSIG",
      "taf": "TAF EDDH 070500Z 0706/0812 VRB03KT CAVOK"
    },
    {
      "icao": "EDDK",
      "alert": "OK",
      "vis_m": 9999,
      "fzfg": false,
      "metar_trigger": false,
      "taf_trigger": false,
      "metar": "METAR EDDK 070620Z AUTO VRB02KT CAVOK 02/01 Q1024 NOSIG",
      "taf": "TAF EDDK 070500Z 0706/0812 VRB03KT CAVOK"
    },
    {
      "icao": "EDDN",
      "alert": "OK",
      "vis_m": 7000,
      "fzfg": false,
      "metar_trigger": false,
      "taf_trigger": false,
      "metar": "METAR EDDN 070620Z AUTO VRB02KT 7000 NSC M01/M02 Q1024 NOSIG",
      "taf": "TAF EDDN 070500Z 0706/0806 VRB03KT 8000 NSC"
    },
    {
      "icao": "EDDS",
      "alert": "OK",
      "vis_m": 4300,
      "fzfg": false,
      "metar_trigger": false,
      "taf_trigger": false,
      "metar": "METAR EDDS 070620Z AUTO VRB01KT 4300 0750 R07/P2000N BCFG NSC 02/02 Q1023 BECMG 6000 NSW",
      "taf": "TAF EDDS 070500Z 0706/0806 VRB03KT CAVOK"
    },
    {
      "icao": "EDFH",
      "alert": "OK",
      "vis_m": 9999,
      "fzfg": false,
      "metar_trigger": false,
      "taf_trigger": false,
      "metar": "METAR EDFH 070550Z 12007KT CAVOK 05/03 Q1023",
      "taf": "TAF EDFH 070500Z 0706/0806 10005KT CAVOK"
    },
    {
      "icao": "EDJA",
      "alert": "OK",
      "vis_m": 9999,
      "fzfg": false,
      "metar_trigger": false,
      "taf_trigger": false,
      "metar": "METAR EDJA 070550Z 00000KT CAVOK M01/M02 Q1023",
      "taf": "TAF EDJA 070500Z 0706/0715 VRB02KT CAVOK"
    },
    {
      "icao": "EDLW",
      "alert": "OK",
      "vis_m": 9999,
      "fzfg": false,
      "metar_trigger": false,
      "taf_trigger": false,
      "metar": "METAR EDLW 070550Z 13007KT CAVOK 06/03 Q1024",
      "taf": "TAF EDLW 070500Z 0706/0806 15007KT CAVOK"
    },
    {
      "icao": "EDNY",
      "alert": "OK",
      "vis_m": 5000,
      "fzfg": false,
      "metar_trigger": false,
      "taf_trigger": false,
      "metar": "METAR EDNY 070550Z AUTO 06003KT 5000 1800 NCD M00/M00 Q1023",
      "taf": "TAF EDNY 070500Z 0706/0715 VRB02KT 6000 NSC"
    },
    {
      "icao": "EDSB",
      "alert": "OK",
      "vis_m": 9999,
      "fzfg": false,
      "metar_trigger": false,
      "taf_trigger": false,
      "metar": "METAR EDSB 070550Z 20001KT CAVOK 03/02 Q1023",
      "taf": "TAF EDSB 070500Z 0706/0806 VRB03KT CAVOK"
    },
    {
      "icao": "EETN",
      "alert": "OK",
      "vis_m": 9999,
      "fzfg": false,
      "metar_trigger": false,
      "taf_trigger": false,
      "metar": "METAR EETN 070620Z 32003KT CAVOK 01/M01 Q1026 NOSIG",
      "taf": "TAF EETN 070530Z 0706/0806 28007KT CAVOK"
    },
    {
      "icao": "EFTU",
      "alert": "OK",
      "vis_m": 9999,
      "fzfg": false,
      "metar_trigger": false,
      "taf_trigger": false,
      "metar": "METAR EFTU 070620Z AUTO 00000KT CAVOK M02/M03 Q1026",
      "taf": "TAF EFTU 070523Z 0706/0806 30003KT CAVOK"
    },
    {
      "icao": "EGBB",
      "alert": "OK",
      "vis_m": 6000,
      "fzfg": false,
      "metar_trigger": false,
      "taf_trigger": false,
      "metar": "METAR EGBB 070550Z 10003KT 080V140 6000 BKN013 OVC031 05/04 Q1026",
      "taf": "TAF EGBB 070454Z 0706/0806 08003KT 9999 BKN025"
    },
    {
      "icao": "EGGP",
      "alert": "OK",
      "vis_m": 9999,
      "fzfg": false,
      "metar_trigger": false,
      "taf_trigger": false,
      "metar": "METAR EGGP 070550Z VRB02KT 9999 OVC024 04/03 Q1027",
      "taf": "TAF EGGP 070454Z 0706/0806 VRB03KT 9999 SCT030"
    },
    {
      "icao": "EGGW",
      "alert": "OK",
      "vis_m": 2600,
      "fzfg": false,
      "metar_trigger": false,
      "taf_trigger": false,
      "metar": "METAR EGGW 070550Z AUTO 04007KT 010V070 2600 BR OVC002 05/05 Q1026",
      "taf": "TAF EGGW 070501Z 0706/0806 07005KT 9999 BKN004"
    },
    {
      "icao": "EGKK",
      "alert": "OK",
      "vis_m": 4000,
      "fzfg": false,
      "metar_trigger": false,
      "taf_trigger": false,
      "metar": "METAR EGKK 070550Z 04007KT 4000 BR OVC003 07/07 Q1025",
      "taf": "TAF EGKK 070500Z 0706/0812 02005KT 9999 BKN010"
    },
    {
      "icao": "EGNM",
      "alert": "OK",
      "vis_m": 9999,
      "fzfg": false,
      "metar_trigger": false,
      "taf_trigger": false,
      "metar": "METAR EGNM 070550Z VRB02KT 9999 BKN022 04/02 Q1026",
      "taf": "TAF EGNM 070526Z 0706/0806 14003KT 9999 SCT020"
    },
    {
      "icao": "EGPD",
      "alert": "OK",
      "vis_m": 9999,
      "fzfg": false,
      "metar_trigger": false,
      "taf_trigger": false,
      "metar": "METAR EGPD 070550Z COR AUTO VRB02KT 9999 NCD M02/M04 Q1022 NOSIG",
      "taf": "TAF EGPD 070456Z 0706/0806 14005KT CAVOK"
    },
    {
      "icao": "EGPF",
      "alert": "OK",
      "vis_m": 9999,
      "fzfg": false,
      "metar_trigger": false,
      "taf_trigger": false,
      "metar": "METAR EGPF 070550Z AUTO VRB02KT 9999 NCD M04/M04 Q1025",
      "taf": "TAF EGPF 070456Z 0706/0806 18004KT 9999 FEW035"
    },
    {
      "icao": "EHBK",
      "alert": "OK",
      "vis_m": 9999,
      "fzfg": false,
      "metar_trigger": false,
      "taf_trigger": false,
      "metar": "METAR EHBK 070555Z AUTO 22001KT 9999 NSC 06/05 Q1024 NOSIG",
      "taf": "TAF EHBK 070459Z 0706/0812 VRB02KT CAVOK"
    },
    {
      "icao": "EHEH",
      "alert": "OK",
      "vis_m": 900,
      "fzfg": false,
      "metar_trigger": false,
      "taf_trigger": false,
      "metar": "METAR EHEH 070555Z AUTO 01001KT 0900 R03/1300D FG NCD 04/03 Q1024 AMB NOSIG RMK TREND REMOTE BY EHWX",
      "taf": "TAF EHEH 070543Z 0706/0812 35002KT 3000 BR NSC"
    },
    {
      "icao": "EKBI",
      "alert": "OK",
      "vis_m": 7000,
      "fzfg": false,
      "metar_trigger": false,
      "taf_trigger": false,
      "metar": "METAR EKBI 070620Z AUTO 00000KT 7000 -RA OVC071/// 05/02 Q1024",
      "taf": "TAF EKBI 070527Z 0706/0806 10003KT 9999 FEW040"
    },
    {
      "icao": "EKCH",
      "alert": "OK",
      "vis_m": 8000,
      "fzfg": false,
      "metar_trigger": false,
      "taf_trigger": false,
      "metar": "METAR EKCH 070620Z AUTO 13002KT 8000 NCD 03/00 Q1025 NOSIG",
      "taf": "TAF EKCH 070527Z 0706/0806 15007KT CAVOK"
    },
    {
      "icao": "ENAL",
      "alert": "OK",
      "vis_m": 9999,
      "fzfg": false,
      "metar_trigger": false,
      "taf_trigger": false,
      "metar": "METAR ENAL 070550Z 15007KT 9999 FEW043 01/01 Q1022",
      "taf": "TAF ENAL 070500Z 0706/0715 15006KT CAVOK"
    },
    {
      "icao": "ENBR",
      "alert": "OK",
      "vis_m": 100,
      "fzfg": false,
      "metar_trigger": false,
      "taf_trigger": false,
      "metar": "METAR ENBR 070550Z VRB02KT 0100 R17/0400N R35/0450N FG VV001 04/04 Q1023 TEMPO 0500 -DZ FG VV002 RMK WIND 1200FT 15005KT",
      "taf": "TAF ENBR 070500Z 0706/0806 VRB04KT 4000 -RADZ BR SCT003 OVC008"
    },
    {
      "icao": "ENGM",
      "alert": "OK",
      "vis_m": 4400,
      "fzfg": false,
      "metar_trigger": false,
      "taf_trigger": false,
      "metar": "METAR ENGM 070550Z 01003KT 4400 BR FEW003 BKN008 00/M00 Q1024 TEMPO 2000",
      "taf": "TAF ENGM 070500Z 0706/0806 36005KT 9999 BKN015"
    },
    {
      "icao": "ENHD",
      "alert": "OK",
      "vis_m": 1200,
      "fzfg": false,
      "metar_trigger": false,
      "taf_trigger": false,
      "metar": "METAR ENHD 070550Z AUTO VRB01KT 1200 R13/P2000N R31/P2000N SCT002/// OVC005/// 04/04 Q1024",
      "taf": "TAF ENHD 070500Z 0706/0715 20008KT 1500 BR BKN003"
    },
    {
      "icao": "ENTC",
      "alert": "OK",
      "vis_m": 9999,
      "fzfg": false,
      "metar_trigger": false,
      "taf_trigger": false,
      "metar": "METAR ENTC 070550Z 23008KT 180V270 9999 -SHRA FEW009 BKN025 03/01 Q1012 RMK WIND 2600FT 30032KT",
      "taf": "TAF ENTC 070500Z 0706/0806 25012KT 9999 FEW015 SCT025"
    },
    {
      "icao": "ENTO",
      "alert": "OK",
      "vis_m": 2300,
      "fzfg": false,
      "metar_trigger": false,
      "taf_trigger": false,
      "metar": "METAR ENTO 070550Z AUTO 01003KT 2300 +RA NCD 01/01 Q1024",
      "taf": "TAF ENTO 070500Z 0706/0806 01005KT 9999 BKN020"
    },
    {
      "icao": "ENVA",
      "alert": "OK",
      "vis_m": 9999,
      "fzfg": false,
      "metar_trigger": false,
      "taf_trigger": false,
      "metar": "METAR ENVA 070550Z 12004KT CAVOK M02/M04 Q1023 NOSIG RMK WIND 670FT 14007KT",
      "taf": "TAF ENVA 070500Z 0706/0806 12006KT 9999 FEW030"
    },
    {
      "icao": "ENZV",
      "alert": "OK",
      "vis_m": 7000,
      "fzfg": false,
      "metar_trigger": false,
      "taf_trigger": false,
      "metar": "METAR ENZV 070550Z 12003KT 7000 OVC016 04/04 Q1024 TEMPO 2000 -DZ BR OVC003",
      "taf": ""
    },
    {
      "icao": "EPGD",
      "alert": "OK",
      "vis_m": 9999,
      "fzfg": false,
      "metar_trigger": false,
      "taf_trigger": false,
      "metar": "METAR EPGD 070600Z 26001KT CAVOK 02/M01 Q1027",
      "taf": "TAF EPGD 070530Z 0706/0806 VRB02KT CAVOK"
    },
    {
      "icao": "EPKK",
      "alert": "OK",
      "vis_m": 9000,
      "fzfg": false,
      "metar_trigger": false,
      "taf_trigger": false,
      "metar": "METAR EPKK 070600Z VRB02KT 9000 NSC M02/M05 Q1028",
      "taf": "TAF EPKK 070530Z 0706/0806 06005KT CAVOK"
    },
    {
      "icao": "EPKT",
      "alert": "OK",
      "vis_m": 9999,
      "fzfg": false,
      "metar_trigger": false,
      "taf_trigger": false,
      "metar": "METAR EPKT 070600Z 06002KT CAVOK M05/M07 Q1027",
      "taf": "TAF EPKT 070530Z 0706/0806 11005KT CAVOK"
    },
    {
      "icao": "EPLB",
      "alert": "OK",
      "vis_m": 6000,
      "fzfg": false,
      "metar_trigger": false,
      "taf_trigger": false,
      "metar": "METAR EPLB 070600Z 00000KT 6000 NSC M03/M04 Q1029",
      "taf": "TAF EPLB 070530Z 0706/0806 VRB02KT CAVOK"
    },
    {
      "icao": "EPMO",
      "alert": "OK",
      "vis_m": 6000,
      "fzfg": false,
      "metar_trigger": false,
      "taf_trigger": false,
      "metar": "METAR EPMO 070600Z 07004KT 6000 NSC M02/M03 Q1029",
      "taf": "TAF EPMO 070530Z 0706/0806 VRB03KT CAVOK"
    },
    {
      "icao": "EPPO",
      "alert": "OK",
      "vis_m": 9999,
      "fzfg": false,
      "metar_trigger": false,
      "taf_trigger": false,
      "metar": "METAR EPPO 070600Z 12004KT CAVOK 01/M05 Q1027",
      "taf": "TAF EPPO 070530Z 0706/0806 12004KT CAVOK"
    },
    {
      "icao": "EPRA",
      "alert": "OK",
      "vis_m": 9999,
      "fzfg": false,
      "metar_trigger": false,
      "taf_trigger": false,
      "metar": "METAR EPRA 070600Z 17001KT CAVOK M02/M05 Q1028",
      "taf": "TAF EPRA 070530Z 0706/0715 VRB02KT CAVOK"
    },
    {
      "icao": "EPRZ",
      "alert": "OK",
      "vis_m": 6000,
      "fzfg": false,
      "metar_trigger": false,
      "taf_trigger": false,
      "metar": "METAR EPRZ 070600Z VRB01KT 6000 NSC M02/M03 Q1028",
      "taf": "TAF EPRZ 070530Z 0706/0806 VRB02KT 8000 NSC"
    },
    {
      "icao": "EPSC",
      "alert": "OK",
      "vis_m": 9999,
      "fzfg": false,
      "metar_trigger": false,
      "taf_trigger": false,
      "metar": "METAR EPSC 070600Z 12007KT CAVOK 01/M02 Q1026",
      "taf": "TAF EPSC 070530Z 0706/0806 12006KT CAVOK"
    },
    {
      "icao": "EPSY",
      "alert": "OK",
      "vis_m": 9999,
      "fzfg": false,
      "metar_trigger": false,
      "taf_trigger": false,
      "metar": "METAR EPSY 070600Z 00000KT CAVOK M06/M07 Q1028",
      "taf": "TAF EPSY 070530Z 0706/0715 VRB03KT CAVOK"
    },
    {
      "icao": "EPWA",
      "alert": "OK",
      "vis_m": 9000,
      "fzfg": false,
      "metar_trigger": false,
      "taf_trigger": false,
      "metar": "METAR EPWA 070600Z 13002KT 9000 NSC M02/M04 Q1029 NOSIG",
      "taf": "TAF EPWA 070530Z 0706/0806 14003KT CAVOK"
    },
    {
      "icao": "EPWR",
      "alert": "OK",
      "vis_m": 9999,
      "fzfg": false,
      "metar_trigger": false,
      "taf_trigger": false,
      "metar": "METAR EPWR 070600Z 05002KT CAVOK M01/M03 Q1027",
      "taf": "TAF EPWR 070530Z 0706/0806 13004KT CAVOK"
    },
    {
      "icao": "ESGG",
      "alert": "OK",
      "vis_m": 9999,
      "fzfg": false,
      "metar_trigger": false,
      "taf_trigger": false,
      "metar": "METAR ESGG 070550Z 14005KT CAVOK 02/M02 Q1024",
      "taf": "TAF ESGG 070530Z 0706/0806 13006KT CAVOK"
    },
    {
      "icao": "ESKN",
      "alert": "OK",
      "vis_m": 8000,
      "fzfg": false,
      "metar_trigger": false,
      "taf_trigger": false,
      "metar": "METAR ESKN 070550Z 27003KT 8000 NSC M03/M03 Q1025",
      "taf": "TAF ESKN 070530Z 0706/0806 VRB02KT CAVOK"
    },
    {
      "icao": "ESMS",
      "alert": "OK",
      "vis_m": 9999,
      "fzfg": false,
      "metar_trigger": false,
      "taf_trigger": false,
      "metar": "METAR ESMS 070550Z 11003KT CAVOK M01/M02 Q1025",
      "taf": "TAF ESMS 070527Z 0706/0806 12003KT CAVOK"
    },
    {
      "icao": "ESSA",
      "alert": "OK",
      "vis_m": 9999,
      "fzfg": false,
      "metar_trigger": false,
      "taf_trigger": false,
      "metar": "METAR ESSA 070550Z 02005KT 9999 BKN045 01/M00 Q1026 NOSIG",
      "taf": "TAF ESSA 070530Z 0706/0806 08003KT 9999 BKN045"
    },
    {
      "icao": "EYKA",
      "alert": "OK",
      "vis_m": 8000,
      "fzfg": false,
      "metar_trigger": false,
      "taf_trigger": false,
      "metar": "METAR EYKA 070620Z VRB02KT 8000 NSC M01/M01 Q1028",
      "taf": "TAF EYKA 070505Z 0706/0806 VRB04KT 5000 BR SCT005"
    },
    {
      "icao": "EYPA",
      "alert": "OK",
      "vis_m": 9999,
      "fzfg": false,
      "metar_trigger": false,
      "taf_trigger": false,
      "metar": "METAR EYPA 070620Z 14003KT CAVOK M02/M03 Q1027",
      "taf": "TAF EYPA 070504Z 0706/0806 VRB04KT 9000 NSC"
    },
    {
      "icao": "EYVI",
      "alert": "OK",
      "vis_m": 9999,
      "fzfg": false,
      "metar_trigger": false,
      "taf_trigger": false,
      "metar": "METAR EYVI 070620Z 18004KT CAVOK M03/M04 Q1027 NOSIG",
      "taf": "TAF EYVI 070502Z 0706/0806 VRB04KT 5000 BR SCT002"
    },
    {
      "icao": "GCFV",
      "alert": "OK",
      "vis_m": 9999,
      "fzfg": false,
      "metar_trigger": false,
      "taf_trigger": false,
      "metar": "METAR GCFV 070600Z 01019KT 9999 BKN040 16/07 Q1019",
      "taf": "TAF GCFV 070200Z 0703/0803 02018KT 9999 BKN030 TX20/0714Z TN14/0706Z"
    },
    {
      "icao": "GCLP",
      "alert": "OK",
      "vis_m": 9999,
      "fzfg": false,
      "metar_trigger": false,
      "taf_trigger": false,
      "metar": "METAR GCLP 070600Z 01019KT 9999 BKN040 16/09 Q1020 NOSIG",
      "taf": "TAF GCLP 070200Z 0703/0803 02020KT 9999 BKN030 TX18/0714Z TN14/0706Z"
    },
    {
      "icao": "GCTS",
      "alert": "OK",
      "vis_m": 9999,
      "fzfg": false,
      "metar_trigger": false,
      "taf_trigger": false,
      "metar": "METAR GCTS 070600Z 07016KT 9999 BKN040 15/07 Q1020 NOSIG",
      "taf": "TAF GCTS 070200Z 0703/0803 05015KT 9999 SCT040 TX22/0714Z TN14/0706Z"
    },
    {
      "icao": "GMAD",
      "alert": "OK",
      "vis_m": 8000,
      "fzfg": false,
      "metar_trigger": false,
      "taf_trigger": false,
      "metar": "METAR GMAD 070600Z 11003KT 8000 NSC 09/07 Q1016 NOSIG",
      "taf": "TAF GMAD 070500Z 0706/0812 06008KT 8000 NSC"
    },
    {
      "icao": "GMMN",
      "alert": "OK",
      "vis_m": 8000,
      "fzfg": false,
      "metar_trigger": false,
      "taf_trigger": false,
      "metar": "METAR GMMN 070600Z 19006KT 8000 SCT026TCU 05/04 Q1019 NOSIG",
      "taf": "TAF GMMN 070500Z 0706/0812 20007KT 9999 SCT020 SCT040"
    },
    {
      "icao": "GMMX",
      "alert": "OK",
      "vis_m": 9999,
      "fzfg": false,
      "metar_trigger": false,
      "taf_trigger": false,
      "metar": "METAR GMMX 070600Z 05003KT 9999 BKN026 08/06 Q1018 NOSIG",
      "taf": "TAF GMMX 070500Z 0706/0812 06006KT 8000 SCT020"
    },
    {
      "icao": "HEGN",
      "alert": "OK",
      "vis_m": 9999,
      "fzfg": false,
      "metar_trigger": false,
      "taf_trigger": false,
      "metar": "METAR HEGN 070500Z 31008KT CAVOK 15/07 Q1016 NOSIG",
      "taf": "TAF HEGN 070500Z 0706/0812 32010G24KT CAVOK"
    },
    {
      "icao": "HEMA",
      "alert": "OK",
      "vis_m": 9999,
      "fzfg": false,
      "metar_trigger": false,
      "taf_trigger": false,
      "metar": "METAR HEMA 070500Z 30012KT CAVOK 19/05 Q1015 NOSIG",
      "taf": "TAF HEMA 070500Z 0706/0812 33010G24KT 6000 NSC"
    },
    {
      "icao": "HESH",
      "alert": "OK",
      "vis_m": 9999,
      "fzfg": false,
      "metar_trigger": false,
      "taf_trigger": false,
      "metar": "METAR HESH 070500Z 34011KT CAVOK 17/07 Q1015 NOSIG",
      "taf": "TAF HESH 070500Z 0706/0812 34016KT CAVOK"
    },
    {
      "icao": "HESX",
      "alert": "OK",
      "vis_m": 2000,
      "fzfg": false,
      "metar_trigger": false,
      "taf_trigger": false,
      "metar": "METAR HESX 070500Z 31002KT 2000 BR NSC 09/08 Q1020 NOSIG",
      "taf": "TAF HESX 070501Z 0706/0812 34010KT 6000 NSC"
    },
    {
      "icao": "LATI",
      "alert": "OK",
      "vis_m": 9999,
      "fzfg": false,
      "metar_trigger": false,
      "taf_trigger": false,
      "metar": "METAR LATI 070620Z 16003KT CAVOK 06/02 Q1026 NOSIG",
      "taf": "TAF LATI 070500Z 0706/0806 VRB03KT CAVOK TX21/0713Z TN04/0706Z"
    },
    {
      "icao": "LBPD",
      "alert": "OK",
      "vis_m": 9999,
      "fzfg": false,
      "metar_trigger": false,
      "taf_trigger": false,
      "metar": "METAR LBPD 070600Z AUTO 21002KT 9999 FEW040/// 05/05 Q1030 NOSIG",
      "taf": "TAF LBPD 070500Z 0706/0806 VRB03KT 9999 SCT060"
    },
    {
      "icao": "LBSF",
      "alert": "OK",
      "vis_m": 8000,
      "fzfg": false,
      "metar_trigger": false,
      "taf_trigger": false,
      "metar": "METAR LBSF 070600Z 13004KT 8000 NSC 01/M00 Q1029 TEMPO 3000 BR",
      "taf": "TAF LBSF 070500Z 0706/0806 10010KT CAVOK"
    },
    {
      "icao": "LBWN",
      "alert": "OK",
      "vis_m": 9999,
      "fzfg": false,
      "metar_trigger": false,
      "taf_trigger": false,
      "metar": "METAR LBWN 070600Z VRB02KT CAVOK 03/M00 Q1030 NOSIG",
      "taf": "TAF LBWN 070500Z 0706/0806 VRB03KT 9999 SCT040"
    },
    {
      "icao": "LCLK",
      "alert": "OK",
      "vis_m": 9999,
      "fzfg": false,
      "metar_trigger": false,
      "taf_trigger": false,
      "metar": "METAR LCLK 070600Z 33006KT 9999 FEW025 SCT050 14/07 Q1019 NOSIG",
      "taf": "TAF LCLK 070530Z 0706/0806 34008KT 9999 FEW030"
    },
    {
      "icao": "LCPH",
      "alert": "OK",
      "vis_m": 9999,
      "fzfg": false,
      "metar_trigger": false,
      "taf_trigger": false,
      "metar": "METAR LCPH 070600Z VRB03KT 9999 FEW030 13/09 Q1018 NOSIG",
      "taf": "TAF LCPH 070530Z 0706/0806 09008KT 9999 FEW030"
    },
    {
      "icao": "LEAL",
      "alert": "OK",
      "vis_m": 9999,
      "fzfg": false,
      "metar_trigger": false,
      "taf_trigger": false,
      "metar": "METAR LEAL 070600Z 27003KT 9999 FEW030 07/07 Q1015 NOSIG",
      "taf": "TAF LEAL 070500Z 0706/0806 VRB04KT 9999 FEW020 TX15/0713Z TN09/0706Z"
    },
    {
      "icao": "LEBB",
      "alert": "OK",
      "vis_m": 8000,
      "fzfg": false,
      "metar_trigger": false,
      "taf_trigger": false,
      "metar": "METAR LEBB 070600Z 29006KT 8000 -RA OVC015 10/09 Q1019 TEMPO 3000 BR",
      "taf": "TAF LEBB 070500Z 0706/0806 31009KT 7000 BKN016 TX14/0714Z TN07/0806Z"
    },
    {
      "icao": "LEBL",
      "alert": "OK",
      "vis_m": 9000,
      "fzfg": false,
      "metar_trigger": false,
      "taf_trigger": false,
      "metar": "METAR LEBL 070600Z 14003KT 100V170 9000 FEW031 14/12 Q1018 NOSIG",
      "taf": "TAF LEBL 070500Z 0706/0806 09014KT 9999 FEW030 SCT040 TX15/0712Z TN11/0706Z"
    },
    {
      "icao": "LECH",
      "alert": "OK",
      "vis_m": 7000,
      "fzfg": false,
      "metar_trigger": false,
      "taf_trigger": false,
      "metar": "METAR LECH 070600Z AUTO 03005KT 360V060 7000 SCT009 BKN013 BKN018 09/09 Q1016",
      "taf": ""
    },
    {
      "icao": "LEMD",
      "alert": "OK",
      "vis_m": 9999,
      "fzfg": false,
      "metar_trigger": false,
      "taf_trigger": false,
      "metar": "METAR LEMD 070600Z 01005KT 320V060 9999 FEW060 BKN070 08/04 Q1015 NOSIG",
      "taf": "TAF LEMD 070500Z 0706/0812 02007KT 9999 SCT030 TX14/0714Z TN05/0806Z"
    },
    {
      "icao": "LEMG",
      "alert": "OK",
      "vis_m": 9999,
      "fzfg": false,
      "metar_trigger": false,
      "taf_trigger": false,
      "metar": "METAR LEMG 070600Z 29005KT 9999 FEW050 BKN070 08/06 Q1015 NOSIG",
      "taf": "TAF LEMG 070500Z 0706/0806 29006KT 9999 SCT035 TX18/0714Z TN07/0707Z"
    },
    {
      "icao": "LEVC",
      "alert": "OK",
      "vis_m": 9999,
      "fzfg": false,
      "metar_trigger": false,
      "taf_trigger": false,
      "metar": "METAR LEVC 070600Z 28004KT 250V320 9999 FEW006 BKN010 10/09 Q1014 NOSIG",
      "taf": "TAF LEVC 070500Z 0706/0806 VRB04KT 9999 SCT015 TX14/0713Z TN09/0706Z"
    },
    {
      "icao": "LEXJ",
      "alert": "OK",
      "vis_m": 2000,
      "fzfg": false,
      "metar_trigger": false,
      "taf_trigger": false,
      "metar": "METAR LEXJ 070600Z 27015G25KT 240V320 2000 -RA BR OVC010 07/06 Q1020 RERA",
      "taf": ""
    },
    {
      "icao": "LEZG",
      "alert": "OK",
      "vis_m": 5000,
      "fzfg": false,
      "metar_trigger": false,
      "taf_trigger": false,
      "metar": "METAR LEZG 070600Z 06006KT 5000 -RA BKN015 BKN020 10/10 Q1016 NOSIG",
      "taf": "TAF LEZG 070500Z 0706/0806 11010KT 9999 SCT020 TX15/0714Z TN08/0706Z"
    },
    {
      "icao": "LEZL",
      "alert": "OK",
      "vis_m": 9999,
      "fzfg": false,
      "metar_trigger": false,
      "taf_trigger": false,
      "metar": "METAR LEZL 070600Z 18005KT 9999 FEW040 11/10 Q1015 NOSIG",
      "taf": "TAF LEZL 070200Z 0703/0803 VRB03KT 9999 SCT040 TX17/0715Z TN08/0707Z"
    },
    {
      "icao": "LFBD",
      "alert": "OK",
      "vis_m": 9999,
      "fzfg": false,
      "metar_trigger": false,
      "taf_trigger": false,
      "metar": "METAR LFBD 070600Z AUTO 07004KT 9999 FEW035 BKN160 12/08 Q1019 NOSIG",
      "taf": "TAF LFBD 070500Z 0706/0812 08007KT 9999 BKN035 TX17/0715Z TN10/0805Z"
    },
    {
      "icao": "LFLL",
      "alert": "OK",
      "vis_m": 9999,
      "fzfg": false,
      "metar_trigger": false,
      "taf_trigger": false,
      "metar": "METAR LFLL 070600Z 15007KT CAVOK 08/06 Q1022 NOSIG",
      "taf": "TAF LFLL 070500Z 0706/0812 15005KT CAVOK"
    },
    {
      "icao": "LFLS",
      "alert": "OK",
      "vis_m": 9999,
      "fzfg": false,
      "metar_trigger": false,
      "taf_trigger": false,
      "metar": "METAR LFLS 070600Z AUTO 08007KT CAVOK 05/04 Q1022 NOSIG",
      "taf": "TAF LFLS 070200Z 0703/0803 09006KT CAVOK"
    },
    {
      "icao": "LFMN",
      "alert": "OK",
      "vis_m": 9999,
      "fzfg": false,
      "metar_trigger": false,
      "taf_trigger": false,
      "metar": "METAR LFMN 070600Z 32007KT 9999 BKN063 12/06 Q1023 NOSIG",
      "taf": "TAF LFMN 070200Z 0703/0809 02006KT 9999 BKN080"
    },
    {
      "icao": "LFOB",
      "alert": "OK",
      "vis_m": 2800,
      "fzfg": false,
      "metar_trigger": false,
      "taf_trigger": false,
      "metar": "METAR LFOB 070600Z AUTO 34002KT 2800 BR NSC 07/07 Q1024 TEMPO 0500 FG VV///",
      "taf": ""
    },
    {
      "icao": "LFPO",
      "alert": "OK",
      "vis_m": 8000,
      "fzfg": false,
      "metar_trigger": false,
      "taf_trigger": false,
      "metar": "METAR LFPO 070600Z VRB02KT 8000 NSC 10/09 Q1023 NOSIG",
      "taf": "TAF LFPO 070500Z 0706/0812 04005KT CAVOK"
    },
    {
      "icao": "LFSB",
      "alert": "OK",
      "vis_m": 4300,
      "fzfg": false,
      "metar_trigger": false,
      "taf_trigger": false,
      "metar": "METAR LFSB 070600Z AUTO VRB01KT 4300 BR NSC 01/01 Q1023 NOSIG",
      "taf": "TAF LFSB 070500Z 0706/0806 VRB03KT 7000 NSC"
    },
    {
      "icao": "LGAV",
      "alert": "OK",
      "vis_m": 9999,
      "fzfg": false,
      "metar_trigger": false,
      "taf_trigger": false,
      "metar": "METAR LGAV 070550Z 27003KT 9999 FEW030 10/04 Q1027 NOSIG",
      "taf": "TAF LGAV 070500Z 0706/0806 03010KT 9999 FEW025"
    },
    {
      "icao": "LGTS",
      "alert": "OK",
      "vis_m": 9999,
      "fzfg": false,
      "metar_trigger": false,
      "taf_trigger": false,
      "metar": "METAR LGTS 070550Z VRB02KT CAVOK 06/03 Q1028 NOSIG",
      "taf": "TAF LGTS 070500Z 0706/0806 VRB03KT 9999 FEW025"
    },
    {
      "icao": "LHBP",
      "alert": "OK",
      "vis_m": 9999,
      "fzfg": false,
      "metar_trigger": false,
      "taf_trigger": false,
      "metar": "METAR LHBP 070600Z 36004KT CAVOK M02/M04 Q1027 NOSIG",
      "taf": "TAF LHBP 070515Z 0706/0806 VRB03KT CAVOK"
    },
    {
      "icao": "LHDC",
      "alert": "OK",
      "vis_m": 9999,
      "fzfg": false,
      "metar_trigger": false,
      "taf_trigger": false,
      "metar": "METAR LHDC 070545Z AUTO 05004KT CAVOK M01/M04 Q1027",
      "taf": "TAF LHDC 070515Z 0706/0715 VRB03KT CAVOK"
    },
    {
      "icao": "LIBD",
      "alert": "OK",
      "vis_m": 3500,
      "fzfg": false,
      "metar_trigger": false,
      "taf_trigger": false,
      "metar": "METAR LIBD 070550Z 27004KT 3500 BR SCT004 10/10 Q1026",
      "taf": "TAF LIBD 070500Z 0706/0806 VRB05KT 6000 SCT015"
    },
    {
      "icao": "LIBG",
      "alert": "OK",
      "vis_m": null,
      "fzfg": false,
      "metar_trigger": false,
      "taf_trigger": false,
      "metar": "",
      "taf": ""
    },
    {
      "icao": "LIBP",
      "alert": "OK",
      "vis_m": 3400,
      "fzfg": false,
      "metar_trigger": false,
      "taf_trigger": false,
      "metar": "METAR LIBP 070550Z AUTO 22004KT 3400 BR NCD 06/06 Q1026",
      "taf": "TAF LIBP 070500Z 0706/0806 VRB04KT 9999 FEW020"
    },
    {
      "icao": "LIBR",
      "alert": "OK",
      "vis_m": 6000,
      "fzfg": false,
      "metar_trigger": false,
      "taf_trigger": false,
      "metar": "METAR LIBR 070550Z 28003KT 6000 NSC 10/10 Q1025",
      "taf": "TAF LIBR 070500Z 0706/0806 VRB04KT 6000 FEW015"
    },
    {
      "icao": "LICA",
      "alert": "OK",
      "vis_m": 9999,
      "fzfg": false,
      "metar_trigger": false,
      "taf_trigger": false,
      "metar": "METAR LICA 070550Z AUTO 05011KT 9999 OVC052/// 13/10 Q1024",
      "taf": "TAF LICA 070500Z 0706/0806 08010KT 9999 SCT040"
    },
    {
      "icao": "LICC",
      "alert": "OK",
      "vis_m": 9999,
      "fzfg": false,
      "metar_trigger": false,
      "taf_trigger": false,
      "metar": "METAR LICC 070550Z VRB04KT 9999 FEW045 13/11 Q1024",
      "taf": "TAF LICC 070500Z 0706/0806 07010KT 9999 SCT030"
    },
    {
      "icao": "LICJ",
      "alert": "OK",
      "vis_m": 9999,
      "fzfg": false,
      "metar_trigger": false,
      "taf_trigger": false,
      "metar": "METAR LICJ 070550Z 19004KT 9999 FEW064 10/08 Q1022",
      "taf": "TAF LICJ 070500Z 0706/0806 VRB05KT 9999 FEW040"
    },
    {
      "icao": "LIMC",
      "alert": "OK",
      "vis_m": 3000,
      "fzfg": false,
      "metar_trigger": false,
      "taf_trigger": false,
      "metar": "METAR LIMC 070550Z 03004KT 3000 R35R/1000D R17L/0650N R35L/P2000N BR BCFG NSC 03/02 Q1026 NOSIG",
      "taf": "TAF LIMC 070500Z 0706/0812 VRB05KT 4000 BR NSC"
    },
    {
      "icao": "LIME",
      "alert": "OK",
      "vis_m": 5000,
      "fzfg": false,
      "metar_trigger": false,
      "taf_trigger": false,
      "metar": "METAR LIME 070550Z 36002KT 5000 BR NSC 05/04 Q1026 NOSIG",
      "taf": "TAF LIME 070500Z 0706/0806 VRB05KT 9000 FEW030"
    },
    {
      "icao": "LIMF",
      "alert": "OK",
      "vis_m": 3500,
      "fzfg": false,
      "metar_trigger": false,
      "taf_trigger": false,
      "metar": "METAR LIMF 070550Z 36002KT 3500 BR NSC 05/03 Q1025",
      "taf": "TAF LIMF 070500Z 0706/0806 VRB04KT 4000 BR SCT035"
    },
    {
      "icao": "LIMJ",
      "alert": "OK",
      "vis_m": 9000,
      "fzfg": false,
      "metar_trigger": false,
      "taf_trigger": false,
      "metar": "METAR LIMJ 070550Z 04014KT 9000 NSC 11/05 Q1024",
      "taf": "TAF LIMJ 070500Z 0706/0806 03015KT 8000 SCT040"
    },
    {
      "icao": "LIPE",
      "alert": "OK",
      "vis_m": 5000,
      "fzfg": false,
      "metar_trigger": false,
      "taf_trigger": false,
      "metar": "METAR LIPE 070550Z 23003KT 5000 BR NSC 05/04 Q1026",
      "taf": "TAF LIPE 070500Z 0706/0806 VRB04KT 4000 BR FEW016"
    },
    {
      "icao": "LIPH",
      "alert": "OK",
      "vis_m": 4300,
      "fzfg": false,
      "metar_trigger": false,
      "taf_trigger": false,
      "metar": "METAR LIPH 070550Z AUTO 20002KT 4300 BR FEW002/// 03/03 Q1025",
      "taf": "TAF LIPH 070500Z 0706/0806 VRB03KT 3000 BR NSC"
    },
    {
      "icao": "LIPQ",
      "alert": "OK",
      "vis_m": 4300,
      "fzfg": false,
      "metar_trigger": false,
      "taf_trigger": false,
      "metar": "METAR LIPQ 070550Z AUTO 03002KT 4300 BR NCD 02/01 Q1025",
      "taf": "TAF LIPQ 070500Z 0706/0806 VRB04KT 7000 NSC"
    },
    {
      "icao": "LIPR",
      "alert": "OK",
      "vis_m": 5000,
      "fzfg": false,
      "metar_trigger": false,
      "taf_trigger": false,
      "metar": "METAR LIPR 070550Z AUTO VRB02KT 5000 BR NCD 03/03 Q1026",
      "taf": "TAF LIPR 070500Z 0706/0806 VRB06KT 3000 BR FEW020"
    },
    {
      "icao": "LIPX",
      "alert": "OK",
      "vis_m": 7000,
      "fzfg": false,
      "metar_trigger": false,
      "taf_trigger": false,
      "metar": "METAR LIPX 070550Z 32003KT 7000 NSC 03/02 Q1025",
      "taf": "TAF LIPX 070500Z 0706/0806 VRB05KT 7000 NSC"
    },
    {
      "icao": "LIPY",
      "alert": "OK",
      "vis_m": 3700,
      "fzfg": false,
      "metar_trigger": false,
      "taf_trigger": false,
      "metar": "METAR LIPY 070550Z AUTO 19002KT 3700 BR NCD 04/04 Q1026",
      "taf": "TAF LIPY 070500Z 0706/0806 VRB04KT 3000 BR FEW015"
    },
    {
      "icao": "LIPZ",
      "alert": "OK",
      "vis_m": 5000,
      "fzfg": false,
      "metar_trigger": false,
      "taf_trigger": false,
      "metar": "METAR LIPZ 070550Z VRB02KT 5000 BR NSC 05/04 Q1025 NOSIG",
      "taf": "TAF LIPZ 070500Z 0706/0812 VRB04KT 3000 BR NSC"
    },
    {
      "icao": "LIRF",
      "alert": "OK",
      "vis_m": 6000,
      "fzfg": false,
      "metar_trigger": false,
      "taf_trigger": false,
      "metar": "METAR LIRF 070550Z 04003KT 6000 NSC 10/08 Q1024 NOSIG",
      "taf": "TAF LIRF 070500Z 0706/0812 05006KT CAVOK"
    },
    {
      "icao": "LIRN",
      "alert": "OK",
      "vis_m": 9999,
      "fzfg": false,
      "metar_trigger": false,
      "taf_trigger": false,
      "metar": "METAR LIRN 070550Z 03005KT 350V060 CAVOK 13/07 Q1024 NOSIG",
      "taf": "TAF LIRN 070500Z 0706/0806 04006KT 9999 SCT050"
    },
    {
      "icao": "LIRP",
      "alert": "OK",
      "vis_m": 9999,
      "fzfg": false,
      "metar_trigger": false,
      "taf_trigger": false,
      "metar": "METAR LIRP 070545Z 10006KT 9999 FEW040 08/07 Q1024 NOSIG",
      "taf": "TAF LIRP 070500Z 0706/0806 11005KT 9999 FEW030 SCT060"
    },
    {
      "icao": "LIRZ",
      "alert": "OK",
      "vis_m": 9999,
      "fzfg": false,
      "metar_trigger": false,
      "taf_trigger": false,
      "metar": "METAR LIRZ 070550Z AUTO 03004KT 9999 NCD 05/04 Q1025",
      "taf": "TAF LIRZ 070500Z 0706/0806 VRB05KT CAVOK"
    },
    {
      "icao": "LJLJ",
      "alert": "OK",
      "vis_m": 9999,
      "fzfg": false,
      "metar_trigger": false,
      "taf_trigger": false,
      "metar": "METAR LJLJ 070600Z VRB01KT CAVOK M02/M02 Q1026 NOSIG",
      "taf": "TAF LJLJ 070500Z 0706/0806 28002KT CAVOK"
    },
    {
      "icao": "LKMT",
      "alert": "OK",
      "vis_m": 9999,
      "fzfg": false,
      "metar_trigger": false,
      "taf_trigger": false,
      "metar": "METAR LKMT 070600Z VRB02KT CAVOK M01/M03 Q1027 NOSIG",
      "taf": "TAF LKMT 070500Z 0706/0806 VRB02KT CAVOK"
    },
    {
      "icao": "LKPR",
      "alert": "OK",
      "vis_m": 2500,
      "fzfg": true,
      "metar_trigger": false,
      "taf_trigger": false,
      "metar": "METAR LKPR 070600Z VRB01KT 2500 1000E R24/P2000N R30/P2000N BR BCFG NSC M00/M00 Q1025 TEMPO 0900 FZFG",
      "taf": "TAF LKPR 070500Z 0706/0812 02003KT 2500 BR NSC"
    },
    {
      "icao": "LLBG",
      "alert": "OK",
      "vis_m": 9999,
      "fzfg": false,
      "metar_trigger": false,
      "taf_trigger": false,
      "metar": "METAR LLBG 070620Z 16004KT 120V200 9999 FEW035 15/08 Q1019 NOSIG",
      "taf": "TAF LLBG 070502Z 0706/0806 VRB04KT 9999 SCT035 TX19/0711Z TN08/0804Z"
    },
    {
      "icao": "LMML",
      "alert": "OK",
      "vis_m": 9999,
      "fzfg": false,
      "metar_trigger": false,
      "taf_trigger": false,
      "metar": "METAR LMML 070615Z 07009KT 9999 BKN007 15/14 Q1022 BECMG 9999",
      "taf": "TAF LMML 070500Z 0706/0806 10013KT 9999 SCT013"
    },
    {
      "icao": "LOWW",
      "alert": "OK",
      "vis_m": 9999,
      "fzfg": false,
      "metar_trigger": false,
      "taf_trigger": false,
      "metar": "METAR LOWW 070550Z 12008KT CAVOK 06/01 Q1026 NOSIG",
      "taf": "TAF LOWW 070515Z 0706/0812 13012KT CAVOK TX16/0714Z TN02/0805Z"
    },
    {
      "icao": "LPFR",
      "alert": "OK",
      "vis_m": 9999,
      "fzfg": false,
      "metar_trigger": false,
      "taf_trigger": false,
      "metar": "METAR LPFR 070600Z 29007KT CAVOK 11/07 Q1016",
      "taf": "TAF LPFR 070500Z 0706/0806 30008KT CAVOK"
    },
    {
      "icao": "LPMA",
      "alert": "OK",
      "vis_m": 9999,
      "fzfg": false,
      "metar_trigger": false,
      "taf_trigger": false,
      "metar": "METAR LPMA 070600Z 01014KT 9999 BKN016 13/06 Q1024",
      "taf": "TAF LPMA 070500Z 0706/0806 02012KT 9999 SCT015"
    },
    {
      "icao": "LPPR",
      "alert": "OK",
      "vis_m": 9999,
      "fzfg": false,
      "metar_trigger": false,
      "taf_trigger": false,
      "metar": "METAR LPPR 070600Z 36005KT CAVOK 05/03 Q1019",
      "taf": "TAF LPPR 070500Z 0706/0806 01007KT CAVOK"
    },
    {
      "icao": "LPPS",
      "alert": "OK",
      "vis_m": 9999,
      "fzfg": false,
      "metar_trigger": false,
      "taf_trigger": false,
      "metar": "METAR LPPS 070600Z 02013KT 9999 FEW015 BKN030 13/05 Q1025",
      "taf": "TAF LPPS 070500Z 0706/0812 03010KT 9999 FEW015 BKN030"
    },
    {
      "icao": "LPPT",
      "alert": "OK",
      "vis_m": 9999,
      "fzfg": false,
      "metar_trigger": false,
      "taf_trigger": false,
      "metar": "METAR LPPT 070600Z 32011KT 290V350 CAVOK 10/07 Q1017",
      "taf": "TAF LPPT 070500Z 0706/0812 33012KT CAVOK"
    },
    {
      "icao": "LQBK",
      "alert": "OK",
      "vis_m": 5000,
      "fzfg": false,
      "metar_trigger": false,
      "taf_trigger": false,
      "metar": "METAR LQBK 070600Z 15005KT 5000 BR NSC 00/M01 Q1026 NOSIG",
      "taf": "TAF LQBK 070500Z 0706/0806 16005KT CAVOK TX17/0714Z TN01/0806Z"
    },
    {
      "icao": "LQSA",
      "alert": "OK",
      "vis_m": 9999,
      "fzfg": false,
      "metar_trigger": false,
      "taf_trigger": false,
      "metar": "METAR LQSA 070600Z 00000KT CAVOK M01/M01 Q1027 NOSIG",
      "taf": "TAF LQSA 070500Z 0706/0806 VRB02KT CAVOK TX18/0714Z TNM01/0706Z"
    },
    {
      "icao": "LQTZ",
      "alert": "OK",
      "vis_m": 5000,
      "fzfg": false,
      "metar_trigger": false,
      "taf_trigger": false,
      "metar": "METAR LQTZ 070600Z 11002KT 5000 BR NSC M01/M01 Q1026",
      "taf": "TAF LQTZ 070500Z 0706/0806 10005KT CAVOK TX17/0714Z TNM00/0805Z"
    },
    {
      "icao": "LRBC",
      "alert": "OK",
      "vis_m": 9999,
      "fzfg": false,
      "metar_trigger": false,
      "taf_trigger": false,
      "metar": "METAR LRBC 070600Z VRB02KT CAVOK 00/M01 Q1030",
      "taf": "TAF LRBC 070500Z 0706/0715 VRB04KT CAVOK"
    },
    {
      "icao": "LRBS",
      "alert": "OK",
      "vis_m": 9999,
      "fzfg": false,
      "metar_trigger": false,
      "taf_trigger": false,
      "metar": "METAR LRBS 070600Z 00000KT CAVOK 03/M00 Q1031 NOSIG",
      "taf": "TAF LRBS 070500Z 0706/0806 VRB04KT CAVOK"
    },
    {
      "icao": "LRBV",
      "alert": "OK",
      "vis_m": 9999,
      "fzfg": false,
      "metar_trigger": false,
      "taf_trigger": false,
      "metar": "METAR LRBV 070600Z VRB03KT CAVOK M00/M03 Q1029",
      "taf": "TAF LRBV 070500Z 0706/0715 VRB04KT CAVOK"
    },
    {
      "icao": "LRCL",
      "alert": "OK",
      "vis_m": 9999,
      "fzfg": false,
      "metar_trigger": false,
      "taf_trigger": false,
      "metar": "METAR LRCL 070600Z 00000KT CAVOK M02/M05 Q1029",
      "taf": "TAF LRCL 070500Z 0706/0715 VRB04KT CAVOK"
    },
    {
      "icao": "LRCV",
      "alert": "OK",
      "vis_m": 9999,
      "fzfg": false,
      "metar_trigger": false,
      "taf_trigger": false,
      "metar": "METAR LRCV 070600Z 05011KT CAVOK 04/01 Q1029",
      "taf": "TAF LRCV 070500Z 0706/0715 05010KT CAVOK"
    },
    {
      "icao": "LRIA",
      "alert": "OK",
      "vis_m": 9999,
      "fzfg": false,
      "metar_trigger": false,
      "taf_trigger": false,
      "metar": "METAR LRIA 070600Z 00000KT CAVOK 02/M01 Q1030",
      "taf": "TAF LRIA 070500Z 0706/0715 VRB04KT CAVOK"
    },
    {
      "icao": "LROP",
      "alert": "OK",
      "vis_m": 9999,
      "fzfg": false,
      "metar_trigger": false,
      "taf_trigger": false,
      "metar": "METAR LROP 070600Z 03004KT CAVOK 03/M03 Q1031 NOSIG",
      "taf": "TAF LROP 070500Z 0706/0806 VRB04KT CAVOK"
    },
    {
      "icao": "LRSB",
      "alert": "OK",
      "vis_m": 9999,
      "fzfg": false,
      "metar_trigger": false,
      "taf_trigger": false,
      "metar": "METAR LRSB 070600Z COR 21003KT CAVOK M00/M03 Q1028 NOSIG",
      "taf": "TAF LRSB 070500Z 0706/0806 VRB04KT CAVOK"
    },
    {
      "icao": "LRSM",
      "alert": "OK",
      "vis_m": 9999,
      "fzfg": false,
      "metar_trigger": false,
      "taf_trigger": false,
      "metar": "METAR LRSM 070600Z AUTO 08002KT 9999 NCD M00/M03 Q1028",
      "taf": "TAF LRSM 070500Z 0706/0715 VRB04KT CAVOK"
    },
    {
      "icao": "LRSV",
      "alert": "OK",
      "vis_m": 9999,
      "fzfg": false,
      "metar_trigger": false,
      "taf_trigger": false,
      "metar": "METAR LRSV 070600Z VRB02KT CAVOK 04/M00 Q1028",
      "taf": "TAF LRSV 070500Z 0706/0715 VRB04KT CAVOK"
    },
    {
      "icao": "LRTM",
      "alert": "OK",
      "vis_m": 9999,
      "fzfg": false,
      "metar_trigger": false,
      "taf_trigger": false,
      "metar": "METAR LRTM 070600Z 10004KT CAVOK M01/M04 Q1029",
      "taf": "TAF LRTM 070500Z 0706/0715 09005KT CAVOK"
    },
    {
      "icao": "LRTR",
      "alert": "OK",
      "vis_m": 9999,
      "fzfg": false,
      "metar_trigger": false,
      "taf_trigger": false,
      "metar": "METAR LRTR 070600Z 10006KT CAVOK 00/M01 Q1028 NOSIG",
      "taf": "TAF LRTR 070500Z 0706/0806 13007KT CAVOK"
    },
    {
      "icao": "LTAC",
      "alert": "OK",
      "vis_m": 9999,
      "fzfg": false,
      "metar_trigger": false,
      "taf_trigger": false,
      "metar": "METAR LTAC 070550Z 04007KT 9999 FEW040 01/M08 Q1024 NOSIG RMK RWY21C 05009KT RWY03L 02007KT 340V050 RWY21R 04009KT 010V070 RWY03R 02009KT RWY21L 04009KT",
      "taf": "TAF LTAC 070440Z 0706/0806 03008KT 9999 BKN033"
    },
    {
      "icao": "LTFM",
      "alert": "OK",
      "vis_m": 9999,
      "fzfg": false,
      "metar_trigger": false,
      "taf_trigger": false,
      "metar": "METAR LTFM 070550Z 31008KT 9999 FEW010 05/01 Q1030 NOSIG RMK RWY17L 28005KT RWY34L 31008KT RWY16R 28004KT RWY36 30006KT 200V320 RWY18 30006G17KT 280V010",
      "taf": "TAF LTFM 070440Z 0706/0812 VRB02KT 9999 FEW010"
    },
    {
      "icao": "LUKK",
      "alert": "OK",
      "vis_m": 9999,
      "fzfg": false,
      "metar_trigger": false,
      "taf_trigger": false,
      "metar": "METAR LUKK 070600Z VRB01KT CAVOK 00/M03 Q1030 NOSIG",
      "taf": "TAF LUKK 070510Z 0706/0806 VRB05KT CAVOK"
    },
    {
      "icao": "LWOH",
      "alert": "OK",
      "vis_m": 9999,
      "fzfg": false,
      "metar_trigger": false,
      "taf_trigger": false,
      "metar": "METAR LWOH 070620Z VRB02KT CAVOK 02/M00 Q1027",
      "taf": "TAF LWOH 070545Z 0706/0806 VRB02KT CAVOK"
    },
    {
      "icao": "LWSK",
      "alert": "OK",
      "vis_m": 9999,
      "fzfg": false,
      "metar_trigger": false,
      "taf_trigger": false,
      "metar": "METAR LWSK 070620Z 14001KT CAVOK 02/00 Q1029 NOSIG",
      "taf": "TAF LWSK 070545Z 0706/0806 VRB02KT CAVOK"
    },
    {
      "icao": "LYBE",
      "alert": "OK",
      "vis_m": 9999,
      "fzfg": false,
      "metar_trigger": false,
      "taf_trigger": false,
      "metar": "METAR LYBE 070600Z 06004KT CAVOK 04/M00 Q1027 NOSIG",
      "taf": "TAF LYBE 070500Z 0706/0806 07004KT CAVOK TX18/0713Z TN02/0805Z"
    },
    {
      "icao": "LYNI",
      "alert": "OK",
      "vis_m": 9999,
      "fzfg": false,
      "metar_trigger": false,
      "taf_trigger": false,
      "metar": "METAR LYNI 070600Z VRB02KT CAVOK 01/M00 Q1028 NOSIG",
      "taf": "TAF LYNI 070500Z 0706/0806 13004KT CAVOK TX18/0714Z TN03/0706Z"
    },
    {
      "icao": "LYPG",
      "alert": "OK",
      "vis_m": 9999,
      "fzfg": false,
      "metar_trigger": false,
      "taf_trigger": false,
      "metar": "METAR LYPG 070600Z 35004KT CAVOK 07/01 Q1026 NOSIG",
      "taf": "TAF LYPG 070500Z 0706/0806 16005KT CAVOK TX20/0714Z TN05/0805Z"
    },
    {
      "icao": "LZIB",
      "alert": "OK",
      "vis_m": 9999,
      "fzfg": false,
      "metar_trigger": false,
      "taf_trigger": false,
      "metar": "METAR LZIB 070600Z 03008KT CAVOK 02/M01 Q1027 NOSIG",
      "taf": "TAF LZIB 070515Z 0706/0806 04005KT CAVOK"
    },
    {
      "icao": "LZKZ",
      "alert": "OK",
      "vis_m": 9999,
      "fzfg": false,
      "metar_trigger": false,
      "taf_trigger": false,
      "metar": "METAR LZKZ 070600Z 33002KT CAVOK 01/M04 Q1028 NOSIG",
      "taf": "TAF LZKZ 070515Z 0706/0806 VRB02KT CAVOK"
    },
    {
      "icao": "LZTT",
      "alert": "OK",
      "vis_m": 9999,
      "fzfg": false,
      "metar_trigger": false,
      "taf_trigger": false,
      "metar": "METAR LZTT 070600Z VRB01KT CAVOK M03/M05 Q1027 NOSIG",
      "taf": "TAF LZTT 070515Z 0706/0806 VRB02KT CAVOK"
    },
    {
      "icao": "OEJN",
      "alert": "OK",
      "vis_m": 9999,
      "fzfg": false,
      "metar_trigger": false,
      "taf_trigger": false,
      "metar": "METAR OEJN 070600Z 33006KT 9999 SCT040 25/19 Q1013 NOSIG",
      "taf": "TAF OEJN 070500Z 0706/0812 29012KT 7000 SCT040"
    },
    {
      "icao": "OEMA",
      "alert": "OK",
      "vis_m": 9999,
      "fzfg": false,
      "metar_trigger": false,
      "taf_trigger": false,
      "metar": "METAR OEMA 070600Z 00000KT 9999 FEW045 23/03 Q1016 NOSIG",
      "taf": "TAF OEMA 070500Z 0706/0812 27012KT 9999 FEW040"
    },
    {
      "icao": "OJAI",
      "alert": "OK",
      "vis_m": 4000,
      "fzfg": false,
      "metar_trigger": false,
      "taf_trigger": false,
      "metar": "METAR OJAI 070600Z 12006KT 4000 HZ FEW030 08/04 Q1019 NOSIG",
      "taf": "TAF OJAI 070431Z 0706/0812 28006KT 5000 HZ SCT035"
    },
    {
      "icao": "OMAA",
      "alert": "OK",
      "vis_m": null,
      "fzfg": false,
      "metar_trigger": false,
      "taf_trigger": false,
      "metar": "",
      "taf": ""
    },
    {
      "icao": "OMDB",
      "alert": "OK",
      "vis_m": null,
      "fzfg": false,
      "metar_trigger": false,
      "taf_trigger": false,
      "metar": "",
      "taf": ""
    },
    {
      "icao": "UAAA",
      "alert": "OK",
      "vis_m": 9999,
      "fzfg": false,
      "metar_trigger": false,
      "taf_trigger": false,
      "metar": "METAR UAAA 070600Z VRB01MPS 9999 BKN014 04/01 Q1023 NOSIG",
      "taf": "TAF UAAA 070502Z 0706/0806 04003G08MPS 9999 SCT011 BKN100 TX10/0709Z TN00/0801Z"
    },
    {
      "icao": "UBBB",
      "alert": "OK",
      "vis_m": 9999,
      "fzfg": false,
      "metar_trigger": false,
      "taf_trigger": false,
      "metar": "METAR UBBB 070600Z 33020G30KT 9999 BKN013 08/04 Q1021 NOSIG",
      "taf": "TAF UBBB 070504Z 0706/0806 33018G28KT 9999 BKN010 BKN030 TX09/0710Z TN05/0801Z"
    },
    {
      "icao": "UDSG",
      "alert": "OK",
      "vis_m": 9999,
      "fzfg": false,
      "metar_trigger": false,
      "taf_trigger": false,
      "metar": "METAR UDSG 070600Z 12004KT 9999 OVC043 M03/M05 Q1017 NOSIG",
      "taf": "TAF UDSG 070458Z 0706/0806 VRB06KT 9999 BKN040"
    },
    {
      "icao": "UDYZ",
      "alert": "OK",
      "vis_m": 4200,
      "fzfg": false,
      "metar_trigger": false,
      "taf_trigger": false,
      "metar": "METAR UDYZ 070600Z VRB01KT 4200 -SN BR SCT002 OVC016 01/01 Q1018 NOSIG",
      "taf": "TAF UDYZ 070500Z 0706/0806 22006KT 6000 BKN020"
    },
    {
      "icao": "UGKO",
      "alert": "OK",
      "vis_m": 9999,
      "fzfg": false,
      "metar_trigger": false,
      "taf_trigger": false,
      "metar": "METAR UGKO 070600Z 09004KT 9999 -RA SCT011 BKN015 OVC029 02/01 Q1024 NOSIG",
      "taf": "TAF UGKO 070500Z 0706/0806 10006KT 9999 SCT022 BKN040 TX09/0711Z TN02/0804Z"
    }
  ]
}