{
  "ts_utc": "2026-02-22T11:32:28Z",
  "threshold_m": 150,
  "source": "stations_override.txt (ICAO list) + aviationweather.gov (METAR/TAF raw)",
  "station_count": 159,
  "stations": [
    {
      "icao": "BIKF",
      "alert": "OK",
      "vis_m": 9999,
      "fzfg": false,
      "metar_trigger": false,
      "taf_trigger": false,
      "metar": "METAR BIKF 221100Z 09015KT 9999 VCSH FEW034 BKN052 03/M04 Q0992",
      "taf": "TAF BIKF 221057Z 2212/2312 08015KT 9999 BKN035 TX07/2312Z TN02/2220Z"
    },
    {
      "icao": "BKPR",
      "alert": "OK",
      "vis_m": 9999,
      "fzfg": false,
      "metar_trigger": false,
      "taf_trigger": false,
      "metar": "METAR BKPR 221130Z 19007KT 160V220 9999 FEW015 BKN030 05/02 Q1024 NOSIG",
      "taf": "TAF BKPR 221130Z 2212/2312 35008KT 9999 BKN050"
    },
    {
      "icao": "EBCI",
      "alert": "OK",
      "vis_m": 9000,
      "fzfg": false,
      "metar_trigger": false,
      "taf_trigger": false,
      "metar": "METAR EBCI 221120Z 24017KT 9000 -RA SCT006 BKN009 11/10 Q1019 TEMPO 23017G27KT 4000 RADZ",
      "taf": "TAF EBCI 221120Z 2212/2318 24014KT 9999 -RADZ SCT004 BKN007"
    },
    {
      "icao": "EDDB",
      "alert": "OK",
      "vis_m": 9000,
      "fzfg": false,
      "metar_trigger": false,
      "taf_trigger": false,
      "metar": "METAR EDDB 221120Z AUTO 25014KT 9000 -RA BKN006 10/10 Q1012 TEMPO BKN004",
      "taf": "TAF EDDB 221100Z 2212/2312 24012KT 9000 SCT008 OVC015"
    },
    {
      "icao": "EDDH",
      "alert": "OK",
      "vis_m": 6000,
      "fzfg": false,
      "metar_trigger": false,
      "taf_trigger": false,
      "metar": "METAR EDDH 221120Z AUTO 24007KT 200V270 6000 SHRA BKN006 FEW///CB 10/10 Q1009 TEMPO 4000 -RADZ",
      "taf": "TAF EDDH 221100Z 2212/2318 26008KT 8000 OVC006"
    },
    {
      "icao": "EDDK",
      "alert": "OK",
      "vis_m": 9999,
      "fzfg": false,
      "metar_trigger": false,
      "taf_trigger": false,
      "metar": "METAR EDDK 221120Z AUTO 23012KT 9999 -RA BKN023 13/10 Q1017 TEMPO 24015G25KT 3500 RA",
      "taf": "TAF EDDK 221100Z 2212/2318 25012KT 9999 BKN020"
    },
    {
      "icao": "EDDN",
      "alert": "OK",
      "vis_m": 9999,
      "fzfg": false,
      "metar_trigger": false,
      "taf_trigger": false,
      "metar": "METAR EDDN 221120Z AUTO 24009KT 9999 SHRA OVC011 SCT///CB 10/08 Q1020 BECMG NSW",
      "taf": "TAF EDDN 221100Z 2212/2312 25012KT 9999 SCT012 BKN020"
    },
    {
      "icao": "EDDS",
      "alert": "OK",
      "vis_m": 9999,
      "fzfg": false,
      "metar_trigger": false,
      "taf_trigger": false,
      "metar": "METAR EDDS 221120Z AUTO 24013KT 180V290 CAVOK 11/07 Q1021 NOSIG",
      "taf": "TAF EDDS 221100Z 2212/2312 22008KT 9999 BKN025"
    },
    {
      "icao": "EDFH",
      "alert": "OK",
      "vis_m": 9999,
      "fzfg": false,
      "metar_trigger": false,
      "taf_trigger": false,
      "metar": "METAR EDFH 221120Z 25018G28KT 9999 OVC008 10/08 Q1020",
      "taf": "TAF EDFH 221100Z 2212/2312 26012KT 9999 SCT002 BKN010"
    },
    {
      "icao": "EDJA",
      "alert": "OK",
      "vis_m": 9999,
      "fzfg": false,
      "metar_trigger": false,
      "taf_trigger": false,
      "metar": "METAR EDJA 221120Z 23019G31KT 9999 BKN047 08/04 Q1024",
      "taf": "TAF EDJA 221100Z 2212/2221 23013KT 9999 FEW050"
    },
    {
      "icao": "EDLW",
      "alert": "OK",
      "vis_m": 6000,
      "fzfg": false,
      "metar_trigger": false,
      "taf_trigger": false,
      "metar": "METAR EDLW 221120Z 23015KT 6000 -RA BKN011 OVC013 12/11 Q1015",
      "taf": "TAF EDLW 221100Z 2212/2312 24015G25KT 9999 BKN012"
    },
    {
      "icao": "EDNY",
      "alert": "OK",
      "vis_m": 9999,
      "fzfg": false,
      "metar_trigger": false,
      "taf_trigger": false,
      "metar": "METAR EDNY 221120Z 23007KT 9999 BKN045 OVC054 10/05 Q1026",
      "taf": "TAF EDNY 221100Z 2212/2221 23008KT 9999 FEW050"
    },
    {
      "icao": "EDSB",
      "alert": "OK",
      "vis_m": 4000,
      "fzfg": false,
      "metar_trigger": false,
      "taf_trigger": false,
      "metar": "METAR EDSB 221120Z 21012KT 4000 -RA BR BKN015 OVC021 11/09 Q1024",
      "taf": "TAF EDSB 221100Z 2212/2312 21012KT 9999 BKN025"
    },
    {
      "icao": "EETN",
      "alert": "OK",
      "vis_m": 9999,
      "fzfg": false,
      "metar_trigger": false,
      "taf_trigger": false,
      "metar": "METAR EETN 221120Z 30018KT 9999 DRSN BKN013 M03/M05 Q1004 TEMPO 30018G30KT",
      "taf": "TAF EETN 221130Z 2212/2312 30018G30KT 9999 DRSN BKN013"
    },
    {
      "icao": "EFTU",
      "alert": "OK",
      "vis_m": 9999,
      "fzfg": false,
      "metar_trigger": false,
      "taf_trigger": false,
      "metar": "METAR EFTU 221120Z AUTO 32007KT 280V010 9999 SCT012 M04/M05 Q1006",
      "taf": "TAF EFTU 220829Z 2209/2309 31010KT 9999 SCT012"
    },
    {
      "icao": "EGBB",
      "alert": "OK",
      "vis_m": 9999,
      "fzfg": false,
      "metar_trigger": false,
      "taf_trigger": false,
      "metar": "METAR EGBB 221120Z 25006KT 210V290 9999 SCT026 12/07 Q1014",
      "taf": "TAF EGBB 221102Z 2212/2312 23012KT 9999 FEW025"
    },
    {
      "icao": "EGGP",
      "alert": "OK",
      "vis_m": 9999,
      "fzfg": false,
      "metar_trigger": false,
      "taf_trigger": false,
      "metar": "METAR EGGP 221120Z 24017KT CAVOK 12/06 Q1012",
      "taf": "TAF EGGP 221100Z 2212/2312 24010KT 9999 FEW020 SCT030"
    },
    {
      "icao": "EGGW",
      "alert": "OK",
      "vis_m": 9999,
      "fzfg": false,
      "metar_trigger": false,
      "taf_trigger": false,
      "metar": "METAR EGGW 221120Z AUTO 25016KT 9999 NCD 12/09 Q1015",
      "taf": "TAF EGGW 221055Z 2212/2312 25013KT 9999 FEW030"
    },
    {
      "icao": "EGKK",
      "alert": "OK",
      "vis_m": 9999,
      "fzfg": false,
      "metar_trigger": false,
      "taf_trigger": false,
      "metar": "METAR EGKK 221120Z 23011KT 9999 VCSH SCT008 BKN021 12/11 Q1017",
      "taf": "TAF EGKK 221053Z 2212/2318 23012KT 9999 BKN012"
    },
    {
      "icao": "EGNM",
      "alert": "OK",
      "vis_m": 9999,
      "fzfg": false,
      "metar_trigger": false,
      "taf_trigger": false,
      "metar": "METAR EGNM 221120Z 24014KT 200V270 9999 SCT026 11/06 Q1010",
      "taf": "TAF EGNM 221055Z 2212/2312 26014KT 9999 SCT030"
    },
    {
      "icao": "EGPD",
      "alert": "OK",
      "vis_m": 9999,
      "fzfg": false,
      "metar_trigger": false,
      "taf_trigger": false,
      "metar": "METAR EGPD 221120Z COR AUTO 25012KT 210V290 9999 NCD 10/04 Q1002 NOSIG",
      "taf": "TAF EGPD 221057Z 2212/2312 23009KT 9999 FEW035"
    },
    {
      "icao": "EGPF",
      "alert": "OK",
      "vis_m": 9999,
      "fzfg": false,
      "metar_trigger": false,
      "taf_trigger": false,
      "metar": "METAR EGPF 221120Z AUTO 23020KT 9999 -RA SCT033/// BKN043/// //////TCU 09/06 Q1006",
      "taf": "TAF EGPF 221057Z 2212/2312 22009KT 9999 FEW020 SCT035"
    },
    {
      "icao": "EHBK",
      "alert": "OK",
      "vis_m": 4100,
      "fzfg": false,
      "metar_trigger": false,
      "taf_trigger": false,
      "metar": "METAR EHBK 221125Z COR AUTO 23018KT 200V260 4100 +DZ FEW006 SCT007 BKN008 12/11 Q1017 BECMG 9999 NSW BKN014",
      "taf": "TAF EHBK 221115Z 2212/2318 25015KT 7000 -RADZ SCT008 BKN012"
    },
    {
      "icao": "EHEH",
      "alert": "OK",
      "vis_m": 3200,
      "fzfg": false,
      "metar_trigger": false,
      "taf_trigger": false,
      "metar": "METAR EHEH 221125Z AUTO 24015KT 210V280 3200 R21/P3000N DZ FEW008 SCT009 BKN010 FEW015CB 12/11 Q1016 YLO TEMPO 25013G25KT 4000 RADZ RMK TREND REMOTE BY EHWX",
      "taf": "TAF EHEH 220513Z 2206/2312 24012G22KT 7000 -RA FEW006 BKN008 OVC012"
    },
    {
      "icao": "EKBI",
      "alert": "OK",
      "vis_m": 1600,
      "fzfg": false,
      "metar_trigger": false,
      "taf_trigger": false,
      "metar": "METAR EKBI 221120Z AUTO 14005KT 100V160 1600 DZ BR OVC002/// 02/02 Q1007",
      "taf": "TAF EKBI 221127Z 2212/2312 11010KT 0500 -RADZ BCFG BKN001"
    },
    {
      "icao": "EKCH",
      "alert": "OK",
      "vis_m": 8000,
      "fzfg": false,
      "metar_trigger": false,
      "taf_trigger": false,
      "metar": "METAR EKCH 221120Z 13012KT 8000 -RA OVC004 01/01 Q1010 NOSIG",
      "taf": "TAF EKCH 221127Z 2212/2312 12010KT 6000 -RADZ BKN005"
    },
    {
      "icao": "ENAL",
      "alert": "OK",
      "vis_m": 9999,
      "fzfg": false,
      "metar_trigger": false,
      "taf_trigger": false,
      "metar": "METAR ENAL 221120Z 14011KT CAVOK 02/M03 Q1002",
      "taf": "TAF ENAL 220800Z 2209/2218 13009KT CAVOK"
    },
    {
      "icao": "ENBR",
      "alert": "OK",
      "vis_m": 3000,
      "fzfg": false,
      "metar_trigger": false,
      "taf_trigger": false,
      "metar": "METAR ENBR 221120Z 12006KT 3000 -SN BKN016 00/M00 Q1001 TEMPO 2000 SN VV012 RMK WIND 1200FT 12018KT",
      "taf": ""
    },
    {
      "icao": "ENGM",
      "alert": "OK",
      "vis_m": 9999,
      "fzfg": false,
      "metar_trigger": false,
      "taf_trigger": false,
      "metar": "METAR ENGM 221120Z 21002KT CAVOK M06/M09 Q1009 NOSIG",
      "taf": "TAF ENGM 220500Z 2206/2306 VRB03KT 9999 FEW040"
    },
    {
      "icao": "ENHD",
      "alert": "OK",
      "vis_m": 6000,
      "fzfg": false,
      "metar_trigger": false,
      "taf_trigger": false,
      "metar": "METAR ENHD 221120Z 13014KT 6000 -RA SCT003 BKN005 OVC006 01/01 Q1002",
      "taf": ""
    },
    {
      "icao": "ENTC",
      "alert": "OK",
      "vis_m": 800,
      "fzfg": false,
      "metar_trigger": false,
      "taf_trigger": false,
      "metar": "METAR ENTC 221120Z 21007KT 0800 R36/1400D R18/1200U SHSN VV007 M02/M03 Q1001 TEMPO 2000 -SHSN VV012 RMK WIND 2600FT 23003KT",
      "taf": ""
    },
    {
      "icao": "ENTO",
      "alert": "OK",
      "vis_m": 9999,
      "fzfg": false,
      "metar_trigger": false,
      "taf_trigger": false,
      "metar": "METAR ENTO 221120Z 01005KT CAVOK M04/M05 Q1009 NOSIG",
      "taf": ""
    },
    {
      "icao": "ENVA",
      "alert": "OK",
      "vis_m": 9999,
      "fzfg": false,
      "metar_trigger": false,
      "taf_trigger": false,
      "metar": "METAR ENVA 221120Z 08003KT CAVOK 00/M03 Q1007 NOSIG RMK WIND 670FT 14008KT",
      "taf": "TAF ENVA 220500Z 2206/2306 12008KT 9999 FEW010 BKN020"
    },
    {
      "icao": "ENZV",
      "alert": "OK",
      "vis_m": 9999,
      "fzfg": false,
      "metar_trigger": false,
      "taf_trigger": false,
      "metar": "METAR ENZV 221120Z 15020KT 9999 -SHRA SCT031 BKN043 03/M01 Q1002 NOSIG",
      "taf": "TAF ENZV 220500Z 2206/2306 15008KT 9999 FEW020 BKN040"
    },
    {
      "icao": "EPGD",
      "alert": "OK",
      "vis_m": 9999,
      "fzfg": false,
      "metar_trigger": false,
      "taf_trigger": false,
      "metar": "METAR EPGD 221100Z VRB01KT CAVOK 03/M01 Q1013",
      "taf": "TAF EPGD 221130Z 2212/2312 14008KT CAVOK"
    },
    {
      "icao": "EPKK",
      "alert": "OK",
      "vis_m": 9999,
      "fzfg": false,
      "metar_trigger": false,
      "taf_trigger": false,
      "metar": "METAR EPKK 221100Z 25010KT 9999 FEW053 07/01 Q1018",
      "taf": "TAF EPKK 221130Z 2212/2312 25010KT 9999 BKN040"
    },
    {
      "icao": "EPKT",
      "alert": "OK",
      "vis_m": 9999,
      "fzfg": false,
      "metar_trigger": false,
      "taf_trigger": false,
      "metar": "METAR EPKT 221100Z 22015KT 9999 SCT012 BKN026 06/03 Q1017",
      "taf": "TAF EPKT 221130Z 2212/2312 23015KT 8000 -RA BKN012 OVC020"
    },
    {
      "icao": "EPLB",
      "alert": "OK",
      "vis_m": 7000,
      "fzfg": false,
      "metar_trigger": false,
      "taf_trigger": false,
      "metar": "METAR EPLB 221100Z 22009KT 7000 -RA BKN015 OVC025 03/03 Q1017",
      "taf": "TAF EPLB 221130Z 2212/2312 22008KT 6000 -RA BKN015"
    },
    {
      "icao": "EPMO",
      "alert": "OK",
      "vis_m": 8000,
      "fzfg": false,
      "metar_trigger": false,
      "taf_trigger": false,
      "metar": "METAR EPMO 221100Z 22006KT 200V260 8000 SCT008 BKN018 05/04 Q1015",
      "taf": "TAF EPMO 221130Z 2212/2312 22007KT 5000 BR BKN007 BKN015"
    },
    {
      "icao": "EPPO",
      "alert": "OK",
      "vis_m": 2900,
      "fzfg": false,
      "metar_trigger": false,
      "taf_trigger": false,
      "metar": "METAR EPPO 221100Z 19008KT 2900 -RA BR OVC002 06/06 Q1013",
      "taf": "TAF EPPO 221130Z 2212/2312 19006KT 1400 -DZ BR OVC001"
    },
    {
      "icao": "EPRA",
      "alert": "OK",
      "vis_m": 9999,
      "fzfg": false,
      "metar_trigger": false,
      "taf_trigger": false,
      "metar": "METAR EPRA 221100Z 23006KT 9999 -RA OVC014 05/04 Q1016",
      "taf": "TAF EPRA 221130Z 2212/2221 21008KT 8000 OVC012"
    },
    {
      "icao": "EPRZ",
      "alert": "OK",
      "vis_m": 9999,
      "fzfg": false,
      "metar_trigger": false,
      "taf_trigger": false,
      "metar": "METAR EPRZ 221100Z 21010KT CAVOK 05/M00 Q1019",
      "taf": "TAF EPRZ 221130Z 2212/2312 21014KT 9999 BKN040"
    },
    {
      "icao": "EPSC",
      "alert": "OK",
      "vis_m": 6000,
      "fzfg": false,
      "metar_trigger": false,
      "taf_trigger": false,
      "metar": "METAR EPSC 221100Z 14008KT 6000 -RA OVC002 05/05 Q1011",
      "taf": "TAF EPSC 221130Z 2212/2312 18008KT 6000 BKN002"
    },
    {
      "icao": "EPSY",
      "alert": "OK",
      "vis_m": 9999,
      "fzfg": false,
      "metar_trigger": false,
      "taf_trigger": false,
      "metar": "METAR EPSY 221100Z 25005KT 230V320 9999 SCT022 04/M02 Q1014",
      "taf": "TAF EPSY 221130Z 2212/2221 22005KT 9999 SCT020"
    },
    {
      "icao": "EPWA",
      "alert": "OK",
      "vis_m": 9999,
      "fzfg": false,
      "metar_trigger": false,
      "taf_trigger": false,
      "metar": "METAR EPWA 221100Z 26007KT 9999 BKN009 05/04 Q1016 NOSIG",
      "taf": "TAF EPWA 221130Z 2212/2312 24008KT 9999 BKN008 BKN012"
    },
    {
      "icao": "EPWR",
      "alert": "OK",
      "vis_m": 9999,
      "fzfg": false,
      "metar_trigger": false,
      "taf_trigger": false,
      "metar": "METAR EPWR 221100Z 19006KT 160V230 9999 -RADZ SCT005 BKN018 07/06 Q1016",
      "taf": "TAF EPWR 221130Z 2212/2312 19008KT 9999 BKN018"
    },
    {
      "icao": "ESGG",
      "alert": "OK",
      "vis_m": 9999,
      "fzfg": false,
      "metar_trigger": false,
      "taf_trigger": false,
      "metar": "METAR ESGG 221120Z 15007KT CAVOK M00/M03 Q1009",
      "taf": "TAF ESGG 220830Z 2209/2309 13005KT CAVOK"
    },
    {
      "icao": "ESKN",
      "alert": "OK",
      "vis_m": 9999,
      "fzfg": false,
      "metar_trigger": false,
      "taf_trigger": false,
      "metar": "METAR ESKN 221120Z 24006KT CAVOK M01/M04 Q1011",
      "taf": "TAF ESKN 220830Z 2209/2309 27007KT CAVOK"
    },
    {
      "icao": "ESMS",
      "alert": "OK",
      "vis_m": 3900,
      "fzfg": false,
      "metar_trigger": false,
      "taf_trigger": false,
      "metar": "METAR ESMS 221120Z 11009KT 3900 DZ OVC003 01/01 Q1009",
      "taf": "TAF ESMS 221127Z 2212/2312 12010KT 5000 -RADZ BKN005"
    },
    {
      "icao": "ESSA",
      "alert": "OK",
      "vis_m": 9999,
      "fzfg": false,
      "metar_trigger": false,
      "taf_trigger": false,
      "metar": "METAR ESSA 221120Z 28005KT CAVOK M02/M05 Q1010 NOSIG",
      "taf": "TAF ESSA 221130Z 2212/2312 28006KT CAVOK"
    },
    {
      "icao": "EYKA",
      "alert": "OK",
      "vis_m": 9999,
      "fzfg": false,
      "metar_trigger": false,
      "taf_trigger": false,
      "metar": "METAR EYKA 221120Z 27012KT 9999 BKN023 02/M04 Q1012",
      "taf": "TAF EYKA 221104Z 2212/2312 VRB04KT 9000 SCT025"
    },
    {
      "icao": "EYPA",
      "alert": "OK",
      "vis_m": 9999,
      "fzfg": false,
      "metar_trigger": false,
      "taf_trigger": false,
      "metar": "METAR EYPA 221120Z 28003KT 240V330 9999 FEW021 02/M03 Q1013",
      "taf": "TAF EYPA 221104Z 2212/2312 VRB04KT 9000 SCT030"
    },
    {
      "icao": "EYVI",
      "alert": "OK",
      "vis_m": 9999,
      "fzfg": false,
      "metar_trigger": false,
      "taf_trigger": false,
      "metar": "METAR EYVI 221120Z 28013KT 250V310 9999 BKN018 02/M02 Q1011 NOSIG",
      "taf": "TAF EYVI 221100Z 2212/2312 27012KT 9000 BKN020"
    },
    {
      "icao": "GCFV",
      "alert": "OK",
      "vis_m": 9999,
      "fzfg": false,
      "metar_trigger": false,
      "taf_trigger": false,
      "metar": "METAR GCFV 221100Z 04004KT 010V080 CAVOK 21/15 Q1024",
      "taf": "TAF GCFV 220800Z 2209/2309 14005KT 8000 NSC TX25/2214Z TN17/2306Z"
    },
    {
      "icao": "GCLP",
      "alert": "OK",
      "vis_m": 9999,
      "fzfg": false,
      "metar_trigger": false,
      "taf_trigger": false,
      "metar": "METAR GCLP 221100Z 03005KT 350V050 CAVOK 22/14 Q1023 BECMG 13010KT",
      "taf": ""
    },
    {
      "icao": "GCTS",
      "alert": "OK",
      "vis_m": 9999,
      "fzfg": false,
      "metar_trigger": false,
      "taf_trigger": false,
      "metar": "METAR GCTS 221100Z 09012KT 060V120 CAVOK 24/15 Q1022 NOSIG",
      "taf": "TAF GCTS 220800Z 2209/2309 10010KT 9000 NSC TX28/2214Z TN17/2306Z"
    },
    {
      "icao": "GMAD",
      "alert": "OK",
      "vis_m": 9999,
      "fzfg": false,
      "metar_trigger": false,
      "taf_trigger": false,
      "metar": "METAR GMAD 221100Z 05007KT CAVOK 27/06 Q1024 NOSIG",
      "taf": "TAF GMAD 221100Z 2212/2318 08010KT CAVOK"
    },
    {
      "icao": "GMMN",
      "alert": "OK",
      "vis_m": 9999,
      "fzfg": false,
      "metar_trigger": false,
      "taf_trigger": false,
      "metar": "METAR GMMN 221100Z 15003KT 110V190 CAVOK 23/16 Q1026 NOSIG",
      "taf": "TAF GMMN 221100Z 2212/2318 12006KT CAVOK"
    },
    {
      "icao": "GMMX",
      "alert": "OK",
      "vis_m": 9999,
      "fzfg": false,
      "metar_trigger": false,
      "taf_trigger": false,
      "metar": "METAR GMMX 221100Z 09003KT 010V140 CAVOK 24/11 Q1026 NOSIG",
      "taf": "TAF GMMX 221100Z 2212/2318 06006KT 8000 NSC"
    },
    {
      "icao": "HEGN",
      "alert": "OK",
      "vis_m": 9999,
      "fzfg": false,
      "metar_trigger": false,
      "taf_trigger": false,
      "metar": "METAR HEGN 221100Z 35017KT CAVOK 25/04 Q1012 NOSIG",
      "taf": "TAF HEGN 221100Z 2212/2318 34012G22KT CAVOK"
    },
    {
      "icao": "HEMA",
      "alert": "OK",
      "vis_m": 9999,
      "fzfg": false,
      "metar_trigger": false,
      "taf_trigger": false,
      "metar": "METAR HEMA 221100Z 33022KT CAVOK 26/06 Q1012 NOSIG",
      "taf": "TAF HEMA 221100Z 2212/2318 35012G25KT CAVOK"
    },
    {
      "icao": "HESH",
      "alert": "OK",
      "vis_m": 9999,
      "fzfg": false,
      "metar_trigger": false,
      "taf_trigger": false,
      "metar": "METAR HESH 221100Z 36015KT CAVOK 25/08 Q1012 NOSIG",
      "taf": "TAF HESH 221100Z 2212/2318 01014KT CAVOK"
    },
    {
      "icao": "HESX",
      "alert": "OK",
      "vis_m": 9999,
      "fzfg": false,
      "metar_trigger": false,
      "taf_trigger": false,
      "metar": "METAR HESX 221100Z 33007KT CAVOK 22/07 Q1016 NOSIG",
      "taf": "TAF HESX 221113Z 2212/2318 30009KT CAVOK"
    },
    {
      "icao": "LATI",
      "alert": "OK",
      "vis_m": 9999,
      "fzfg": false,
      "metar_trigger": false,
      "taf_trigger": false,
      "metar": "METAR LATI 221120Z 33010KT 300V010 CAVOK 14/01 Q1021 NOSIG",
      "taf": "TAF LATI 221100Z 2212/2312 34010KT CAVOK TX16/2312Z TN04/2305Z"
    },
    {
      "icao": "LBPD",
      "alert": "OK",
      "vis_m": 9999,
      "fzfg": false,
      "metar_trigger": false,
      "taf_trigger": false,
      "metar": "METAR LBPD 221130Z AUTO 28014KT 9999 FEW064/// 08/M00 Q1022 NOSIG",
      "taf": "TAF LBPD 221100Z 2212/2312 27016KT 9999 SCT040 BKN060"
    },
    {
      "icao": "LBSF",
      "alert": "OK",
      "vis_m": 9999,
      "fzfg": false,
      "metar_trigger": false,
      "taf_trigger": false,
      "metar": "METAR LBSF 221130Z 28009KT 9999 FEW015 BKN037 02/M01 Q1023 NOSIG",
      "taf": "TAF LBSF 221100Z 2212/2312 29012KT 9999 SCT025 BKN050"
    },
    {
      "icao": "LBWN",
      "alert": "OK",
      "vis_m": 9999,
      "fzfg": false,
      "metar_trigger": false,
      "taf_trigger": false,
      "metar": "METAR LBWN 221130Z 29022KT 9999 BKN015 05/01 Q1021 NOSIG",
      "taf": "TAF LBWN 221100Z 2212/2312 31016KT 9999 OVC015"
    },
    {
      "icao": "LCLK",
      "alert": "OK",
      "vis_m": 9999,
      "fzfg": false,
      "metar_trigger": false,
      "taf_trigger": false,
      "metar": "METAR LCLK 221130Z 22014KT 9999 FEW025 SCT030 FEW032TCU BKN050 19/12 Q1013 NOSIG",
      "taf": "TAF LCLK 221130Z 2212/2312 22016KT 9999 FEW025"
    },
    {
      "icao": "LCPH",
      "alert": "OK",
      "vis_m": 9999,
      "fzfg": false,
      "metar_trigger": false,
      "taf_trigger": false,
      "metar": "METAR LCPH 221130Z 31010KT 9999 FEW030TCU SCT040 BKN060 17/10 Q1014 NOSIG",
      "taf": "TAF LCPH 221130Z 2212/2312 28012KT 9999 SCT020"
    },
    {
      "icao": "LEAL",
      "alert": "OK",
      "vis_m": 9999,
      "fzfg": false,
      "metar_trigger": false,
      "taf_trigger": false,
      "metar": "METAR LEAL 221100Z 21005KT 170V240 CAVOK 19/08 Q1030 NOSIG",
      "taf": "TAF LEAL 221100Z 2212/2312 19009KT CAVOK TX20/2212Z TN08/2306Z"
    },
    {
      "icao": "LEBB",
      "alert": "OK",
      "vis_m": 9999,
      "fzfg": false,
      "metar_trigger": false,
      "taf_trigger": false,
      "metar": "METAR LEBB 221100Z VRB02KT CAVOK 15/09 Q1029 NOSIG",
      "taf": "TAF LEBB 221100Z 2212/2312 10005KT CAVOK TX17/2212Z TN04/2307Z"
    },
    {
      "icao": "LEBL",
      "alert": "OK",
      "vis_m": 9999,
      "fzfg": false,
      "metar_trigger": false,
      "taf_trigger": false,
      "metar": "METAR LEBL 221100Z 24005KT 200V280 CAVOK 15/06 Q1028 NOSIG",
      "taf": "TAF LEBL 221100Z 2212/2312 20010KT CAVOK TX18/2312Z TN07/2306Z"
    },
    {
      "icao": "LECH",
      "alert": "OK",
      "vis_m": 9000,
      "fzfg": false,
      "metar_trigger": false,
      "taf_trigger": false,
      "metar": "METAR LECH 221100Z AUTO 08003KT 9000 NCD 18/07 Q1029",
      "taf": ""
    },
    {
      "icao": "LEMD",
      "alert": "OK",
      "vis_m": 9999,
      "fzfg": false,
      "metar_trigger": false,
      "taf_trigger": false,
      "metar": "METAR LEMD 221100Z VRB02KT CAVOK 12/04 Q1031 NOSIG",
      "taf": "TAF LEMD 221100Z 2212/2318 VRB04KT CAVOK TX20/2216Z TN02/2307Z"
    },
    {
      "icao": "LEMG",
      "alert": "OK",
      "vis_m": 9999,
      "fzfg": false,
      "metar_trigger": false,
      "taf_trigger": false,
      "metar": "METAR LEMG 221100Z 07002KT CAVOK 17/04 Q1030 NOSIG",
      "taf": "TAF LEMG 221100Z 2212/2312 13006KT CAVOK TX17/2214Z TN06/2307Z"
    },
    {
      "icao": "LEVC",
      "alert": "OK",
      "vis_m": 9999,
      "fzfg": false,
      "metar_trigger": false,
      "taf_trigger": false,
      "metar": "METAR LEVC 221100Z VRB03KT CAVOK 18/04 Q1029 NOSIG",
      "taf": "TAF LEVC 221100Z 2212/2312 VRB04KT CAVOK TX23/2212Z TN07/2306Z"
    },
    {
      "icao": "LEXJ",
      "alert": "OK",
      "vis_m": 9999,
      "fzfg": false,
      "metar_trigger": false,
      "taf_trigger": false,
      "metar": "METAR LEXJ 221100Z VRB02KT CAVOK 14/09 Q1029",
      "taf": "TAF LEXJ 220800Z 2209/2309 VRB03KT CAVOK TX15/2213Z TN04/2209Z"
    },
    {
      "icao": "LEZG",
      "alert": "OK",
      "vis_m": 9999,
      "fzfg": false,
      "metar_trigger": false,
      "taf_trigger": false,
      "metar": "METAR LEZG 221100Z 28009KT CAVOK 12/06 Q1030 NOSIG",
      "taf": "TAF LEZG 221100Z 2212/2312 30009KT CAVOK TX19/2214Z TN05/2306Z"
    },
    {
      "icao": "LEZL",
      "alert": "OK",
      "vis_m": 9999,
      "fzfg": false,
      "metar_trigger": false,
      "taf_trigger": false,
      "metar": "METAR LEZL 221100Z 06008KT CAVOK 18/07 Q1028 NOSIG",
      "taf": "TAF LEZL 220800Z 2209/2309 05007KT CAVOK TX22/2215Z TN08/2307Z"
    },
    {
      "icao": "LFBD",
      "alert": "OK",
      "vis_m": 9999,
      "fzfg": false,
      "metar_trigger": false,
      "taf_trigger": false,
      "metar": "METAR LFBD 221100Z AUTO 16007KT CAVOK 14/09 Q1029 NOSIG",
      "taf": "TAF LFBD 220500Z 2206/2312 VRB03KT 6000 NSC TX16/2214Z TN04/2207Z"
    },
    {
      "icao": "LFLL",
      "alert": "OK",
      "vis_m": 9999,
      "fzfg": false,
      "metar_trigger": false,
      "taf_trigger": false,
      "metar": "METAR LFLL 221100Z VRB03KT CAVOK 12/06 Q1028 NOSIG",
      "taf": "TAF LFLL 221100Z 2212/2318 VRB02KT CAVOK"
    },
    {
      "icao": "LFLS",
      "alert": "OK",
      "vis_m": 9999,
      "fzfg": false,
      "metar_trigger": false,
      "taf_trigger": false,
      "metar": "METAR LFLS 221100Z AUTO 07008KT CAVOK 12/06 Q1027 NOSIG",
      "taf": "TAF LFLS 220800Z 2209/2309 07007KT CAVOK"
    },
    {
      "icao": "LFMN",
      "alert": "OK",
      "vis_m": 9999,
      "fzfg": false,
      "metar_trigger": false,
      "taf_trigger": false,
      "metar": "METAR LFMN 221100Z 09011KT 9999 SCT016 SCT170 15/11 Q1026 NOSIG",
      "taf": "TAF LFMN 220800Z 2209/2315 33010KT 9999 FEW010"
    },
    {
      "icao": "LFOB",
      "alert": "OK",
      "vis_m": 9999,
      "fzfg": false,
      "metar_trigger": false,
      "taf_trigger": false,
      "metar": "METAR LFOB 221100Z AUTO 23011KT 200V260 9999 BKN016 BKN021 OVC035 13/10 Q1022 NOSIG",
      "taf": "TAF LFOB 221100Z 2212/2312 23012KT 9999 BKN016 OVC030"
    },
    {
      "icao": "LFPO",
      "alert": "OK",
      "vis_m": 9999,
      "fzfg": false,
      "metar_trigger": false,
      "taf_trigger": false,
      "metar": "METAR LFPO 221100Z 23011KT 190V250 9999 OVC013 13/10 Q1024 NOSIG",
      "taf": "TAF LFPO 221100Z 2212/2318 23012KT 9999 BKN014"
    },
    {
      "icao": "LFSB",
      "alert": "OK",
      "vis_m": 9999,
      "fzfg": false,
      "metar_trigger": false,
      "taf_trigger": false,
      "metar": "METAR LFSB 221100Z AUTO 24014KT 9999 SCT026 BKN190 12/08 Q1026 NOSIG",
      "taf": "TAF LFSB 220500Z 2206/2306 15005KT 9999 BKN050"
    },
    {
      "icao": "LGAV",
      "alert": "OK",
      "vis_m": 9999,
      "fzfg": false,
      "metar_trigger": false,
      "taf_trigger": false,
      "metar": "METAR LGAV 221120Z 03013KT 340V050 9999 BKN025 11/05 Q1019 NOSIG",
      "taf": "TAF LGAV 221100Z 2212/2312 02013KT 9999 FEW020 SCT040"
    },
    {
      "icao": "LGTS",
      "alert": "OK",
      "vis_m": 9999,
      "fzfg": false,
      "metar_trigger": false,
      "taf_trigger": false,
      "metar": "METAR LGTS 221120Z 30007KT 9999 FEW025 SCT050 10/01 Q1023 NOSIG",
      "taf": "TAF LGTS 221100Z 2212/2312 34015KT 9999 FEW030"
    },
    {
      "icao": "LHBP",
      "alert": "OK",
      "vis_m": 9999,
      "fzfg": false,
      "metar_trigger": false,
      "taf_trigger": false,
      "metar": "METAR LHBP 221130Z 21007KT 9999 BKN011 OVC018 06/03 Q1024 NOSIG",
      "taf": "TAF LHBP 221115Z 2212/2312 19005KT 9999 SCT040 BKN070"
    },
    {
      "icao": "LHDC",
      "alert": "OK",
      "vis_m": 8000,
      "fzfg": false,
      "metar_trigger": false,
      "taf_trigger": false,
      "metar": "METAR LHDC 221045Z AUTO 19007KT 160V230 8000 OVC009 04/02 Q1025 BECMG OVC010",
      "taf": "TAF LHDC 221115Z 2212/2221 22007KT 8000 FEW009 OVC020"
    },
    {
      "icao": "LIBD",
      "alert": "OK",
      "vis_m": 9999,
      "fzfg": false,
      "metar_trigger": false,
      "taf_trigger": false,
      "metar": "METAR LIBD 221120Z 31010KT 280V350 9999 FEW020 14/07 Q1025",
      "taf": "TAF LIBD 221100Z 2212/2312 34016KT 9999 FEW020"
    },
    {
      "icao": "LIBG",
      "alert": "OK",
      "vis_m": 9999,
      "fzfg": false,
      "metar_trigger": false,
      "taf_trigger": false,
      "metar": "METAR LIBG 221050Z 36021KT 9999 FEW030 14/03 Q1024",
      "taf": "TAF LIBG 221100Z 2212/2221 34015KT 9999 SCT030"
    },
    {
      "icao": "LIBP",
      "alert": "OK",
      "vis_m": 9999,
      "fzfg": false,
      "metar_trigger": false,
      "taf_trigger": false,
      "metar": "METAR LIBP 221120Z AUTO VRB02KT 9999 NCD 18/02 Q1026",
      "taf": "TAF LIBP 221100Z 2212/2312 VRB06KT CAVOK"
    },
    {
      "icao": "LIBR",
      "alert": "OK",
      "vis_m": 9999,
      "fzfg": false,
      "metar_trigger": false,
      "taf_trigger": false,
      "metar": "METAR LIBR 221120Z 01016KT CAVOK 14/04 Q1023",
      "taf": "TAF LIBR 221100Z 2212/2312 36016KT 9999 SCT020"
    },
    {
      "icao": "LICA",
      "alert": "OK",
      "vis_m": 9999,
      "fzfg": false,
      "metar_trigger": false,
      "taf_trigger": false,
      "metar": "METAR LICA 221120Z AUTO 27016KT 9999 NCD 15/06 Q1024",
      "taf": "TAF LICA 221100Z 2212/2312 28013KT 9999 FEW020"
    },
    {
      "icao": "LICC",
      "alert": "OK",
      "vis_m": 9999,
      "fzfg": false,
      "metar_trigger": false,
      "taf_trigger": false,
      "metar": "METAR LICC 221120Z 12008KT 090V150 9999 FEW040 18/15 Q1024",
      "taf": "TAF LICC 221100Z 2212/2312 11010KT CAVOK"
    },
    {
      "icao": "LICJ",
      "alert": "OK",
      "vis_m": 9999,
      "fzfg": false,
      "metar_trigger": false,
      "taf_trigger": false,
      "metar": "METAR LICJ 221120Z 34006KT 9999 SCT030 16/11 Q1028",
      "taf": "TAF LICJ 221100Z 2212/2312 33014KT 9999 FEW030"
    },
    {
      "icao": "LIMC",
      "alert": "OK",
      "vis_m": 9999,
      "fzfg": false,
      "metar_trigger": false,
      "taf_trigger": false,
      "metar": "METAR LIMC 221120Z VRB02KT CAVOK 12/05 Q1026 NOSIG",
      "taf": "TAF LIMC 221100Z 2212/2318 VRB05KT CAVOK"
    },
    {
      "icao": "LIME",
      "alert": "OK",
      "vis_m": 9999,
      "fzfg": false,
      "metar_trigger": false,
      "taf_trigger": false,
      "metar": "METAR LIME 221120Z VRB02KT CAVOK 13/05 Q1025 NOSIG",
      "taf": "TAF LIME 221100Z 2212/2312 VRB05KT CAVOK"
    },
    {
      "icao": "LIMF",
      "alert": "OK",
      "vis_m": 9999,
      "fzfg": false,
      "metar_trigger": false,
      "taf_trigger": false,
      "metar": "METAR LIMF 221120Z 12004KT 060V170 9999 4500S NSC 11/06 Q1026",
      "taf": "TAF LIMF 221100Z 2212/2312 VRB05KT CAVOK"
    },
    {
      "icao": "LIMJ",
      "alert": "OK",
      "vis_m": 9999,
      "fzfg": false,
      "metar_trigger": false,
      "taf_trigger": false,
      "metar": "METAR LIMJ 221120Z 16003KT 9999 FEW024 14/10 Q1027",
      "taf": "TAF LIMJ 221100Z 2212/2312 15010KT 9999 FEW020"
    },
    {
      "icao": "LIPE",
      "alert": "OK",
      "vis_m": 9999,
      "fzfg": false,
      "metar_trigger": false,
      "taf_trigger": false,
      "metar": "METAR LIPE 221120Z 03003KT 320V110 CAVOK 13/07 Q1026",
      "taf": "TAF LIPE 221100Z 2212/2312 VRB05KT CAVOK"
    },
    {
      "icao": "LIPH",
      "alert": "OK",
      "vis_m": 9999,
      "fzfg": false,
      "metar_trigger": false,
      "taf_trigger": false,
      "metar": "METAR LIPH 221120Z 32003KT 280V020 CAVOK 11/06 Q1026",
      "taf": "TAF LIPH 221100Z 2212/2312 VRB05KT CAVOK"
    },
    {
      "icao": "LIPQ",
      "alert": "OK",
      "vis_m": 9999,
      "fzfg": false,
      "metar_trigger": false,
      "taf_trigger": false,
      "metar": "METAR LIPQ 221120Z AUTO 24003KT 180V320 9999 BKN140/// 12/04 Q1026",
      "taf": "TAF LIPQ 221100Z 2212/2312 VRB06KT CAVOK"
    },
    {
      "icao": "LIPR",
      "alert": "OK",
      "vis_m": 9999,
      "fzfg": false,
      "metar_trigger": false,
      "taf_trigger": false,
      "metar": "METAR LIPR 221120Z 10006KT 060V120 CAVOK 12/06 Q1026",
      "taf": "TAF LIPR 221100Z 2212/2312 VRB05KT CAVOK"
    },
    {
      "icao": "LIPX",
      "alert": "OK",
      "vis_m": 9999,
      "fzfg": false,
      "metar_trigger": false,
      "taf_trigger": false,
      "metar": "METAR LIPX 221120Z VRB01KT CAVOK 13/04 Q1026",
      "taf": "TAF LIPX 221100Z 2212/2312 VRB05KT CAVOK"
    },
    {
      "icao": "LIPY",
      "alert": "OK",
      "vis_m": 9999,
      "fzfg": false,
      "metar_trigger": false,
      "taf_trigger": false,
      "metar": "METAR LIPY 221120Z AUTO 05007KT 9999 NCD 13/07 Q1026",
      "taf": "TAF LIPY 221100Z 2212/2312 VRB05KT CAVOK"
    },
    {
      "icao": "LIPZ",
      "alert": "OK",
      "vis_m": 9999,
      "fzfg": false,
      "metar_trigger": false,
      "taf_trigger": false,
      "metar": "METAR LIPZ 221120Z 17003KT 130V200 CAVOK 11/06 Q1026 NOSIG",
      "taf": "TAF LIPZ 221100Z 2212/2318 VRB05KT 9999 FEW060"
    },
    {
      "icao": "LIRF",
      "alert": "OK",
      "vis_m": 9999,
      "fzfg": false,
      "metar_trigger": false,
      "taf_trigger": false,
      "metar": "METAR LIRF 221120Z VRB02KT CAVOK 17/05 Q1027 NOSIG",
      "taf": "TAF LIRF 221100Z 2212/2318 28008KT CAVOK"
    },
    {
      "icao": "LIRN",
      "alert": "OK",
      "vis_m": 9999,
      "fzfg": false,
      "metar_trigger": false,
      "taf_trigger": false,
      "metar": "METAR LIRN 221120Z 02005KT 280V060 CAVOK 17/03 Q1026 NOSIG",
      "taf": "TAF LIRN 221100Z 2212/2312 29008KT CAVOK"
    },
    {
      "icao": "LIRP",
      "alert": "OK",
      "vis_m": 9999,
      "fzfg": false,
      "metar_trigger": false,
      "taf_trigger": false,
      "metar": "METAR LIRP 221115Z VRB02KT CAVOK 15/10 Q1027 NOSIG",
      "taf": "TAF LIRP 221100Z 2212/2312 26004KT CAVOK"
    },
    {
      "icao": "LIRZ",
      "alert": "OK",
      "vis_m": 9999,
      "fzfg": false,
      "metar_trigger": false,
      "taf_trigger": false,
      "metar": "METAR LIRZ 221120Z AUTO 15004KT 100V190 9999 NCD 12/05 Q1026",
      "taf": "TAF LIRZ 221100Z 2212/2312 VRB05KT 9999 FEW030"
    },
    {
      "icao": "LJLJ",
      "alert": "OK",
      "vis_m": 8000,
      "fzfg": false,
      "metar_trigger": false,
      "taf_trigger": false,
      "metar": "METAR LJLJ 221030Z 04001KT 8000 BKN002 BKN110 01/01 Q1026 BECMG BKN005",
      "taf": "TAF LJLJ 221100Z 2212/2312 VRB02KT 9999 FEW005"
    },
    {
      "icao": "LKMT",
      "alert": "OK",
      "vis_m": 7000,
      "fzfg": false,
      "metar_trigger": false,
      "taf_trigger": false,
      "metar": "METAR LKMT 221100Z 22011KT 7000 -RA SCT013 BKN022 04/04 Q1019 NOSIG",
      "taf": "TAF LKMT 221100Z 2212/2312 24012KT 8000 BKN040"
    },
    {
      "icao": "LKPR",
      "alert": "OK",
      "vis_m": 9999,
      "fzfg": false,
      "metar_trigger": false,
      "taf_trigger": false,
      "metar": "METAR LKPR 221100Z 21021KT 9999 -RA FEW013 SCT048 09/07 Q1017 NOSIG",
      "taf": "TAF LKPR 221100Z 2212/2318 22018KT 9999 BKN040"
    },
    {
      "icao": "LLBG",
      "alert": "OK",
      "vis_m": 9999,
      "fzfg": false,
      "metar_trigger": false,
      "taf_trigger": false,
      "metar": "METAR LLBG 221120Z 28010KT 9999 SCT030 20/10 Q1015 NOSIG",
      "taf": "TAF LLBG 221105Z 2212/2312 28010KT 9999 SCT030"
    },
    {
      "icao": "LMML",
      "alert": "OK",
      "vis_m": 9999,
      "fzfg": false,
      "metar_trigger": false,
      "taf_trigger": false,
      "metar": "METAR LMML 221115Z 32015KT 9999 FEW025 16/09 Q1026 NOSIG",
      "taf": "TAF LMML 221100Z 2212/2312 34016KT CAVOK"
    },
    {
      "icao": "LOWW",
      "alert": "OK",
      "vis_m": 9999,
      "fzfg": false,
      "metar_trigger": false,
      "taf_trigger": false,
      "metar": "METAR LOWW 221120Z 18007KT 9999 -RA FEW032 BKN044 05/04 Q1022 NOSIG",
      "taf": "TAF LOWW 221115Z 2212/2318 19006KT 9999 FEW030 BKN040 TX12/2314Z TN04/2212Z"
    },
    {
      "icao": "LPFR",
      "alert": "OK",
      "vis_m": 9999,
      "fzfg": false,
      "metar_trigger": false,
      "taf_trigger": false,
      "metar": "METAR LPFR 221100Z 09009KT CAVOK 18/06 Q1028",
      "taf": "TAF LPFR 221100Z 2212/2312 10010KT CAVOK"
    },
    {
      "icao": "LPMA",
      "alert": "OK",
      "vis_m": 9999,
      "fzfg": false,
      "metar_trigger": false,
      "taf_trigger": false,
      "metar": "METAR LPMA 221100Z 05008KT 020V080 9999 SCT016 18/11 Q1026",
      "taf": "TAF LPMA 221100Z 2212/2312 02010KT 9999 SCT015"
    },
    {
      "icao": "LPPR",
      "alert": "OK",
      "vis_m": 9999,
      "fzfg": false,
      "metar_trigger": false,
      "taf_trigger": false,
      "metar": "METAR LPPR 221100Z 00000KT CAVOK 14/08 Q1030",
      "taf": "TAF LPPR 221100Z 2212/2312 VRB02KT CAVOK"
    },
    {
      "icao": "LPPS",
      "alert": "OK",
      "vis_m": 9999,
      "fzfg": false,
      "metar_trigger": false,
      "taf_trigger": false,
      "metar": "METAR LPPS 221100Z 12008KT 9999 BKN015 17/11 Q1026",
      "taf": "TAF LPPS 221100Z 2212/2318 09008KT 9999 SCT015 SCT030"
    },
    {
      "icao": "LPPT",
      "alert": "OK",
      "vis_m": 9999,
      "fzfg": false,
      "metar_trigger": false,
      "taf_trigger": false,
      "metar": "METAR LPPT 221100Z 05006KT 310V090 CAVOK 15/08 Q1029",
      "taf": "TAF LPPT 221100Z 2212/2318 06007KT CAVOK"
    },
    {
      "icao": "LQBK",
      "alert": "OK",
      "vis_m": 9999,
      "fzfg": false,
      "metar_trigger": false,
      "taf_trigger": false,
      "metar": "METAR LQBK 221100Z 28006KT 230V320 CAVOK 12/02 Q1026 NOSIG",
      "taf": "TAF LQBK 221100Z 2212/2312 22005KT CAVOK TX14/2312Z TN02/2306Z"
    },
    {
      "icao": "LQSA",
      "alert": "OK",
      "vis_m": 9999,
      "fzfg": false,
      "metar_trigger": false,
      "taf_trigger": false,
      "metar": "METAR LQSA 221100Z VRB02KT 9999 FEW020 BKN045 06/02 Q1026 NOSIG",
      "taf": "TAF LQSA 221100Z 2212/2312 VRB02KT 9999 BKN030 TX12/2312Z TN01/2304Z"
    },
    {
      "icao": "LQTZ",
      "alert": "OK",
      "vis_m": 9999,
      "fzfg": false,
      "metar_trigger": false,
      "taf_trigger": false,
      "metar": "METAR LQTZ 221100Z 32005KT 290V090 9999 FEW035 09/03 Q1027",
      "taf": "TAF LQTZ 221100Z 2212/2312 VRB02KT 9999 SCT050 TX11/2213Z TNM01/2305Z"
    },
    {
      "icao": "LRBC",
      "alert": "OK",
      "vis_m": 9999,
      "fzfg": false,
      "metar_trigger": false,
      "taf_trigger": false,
      "metar": "METAR LRBC 221030Z VRB01KT 9999 FEW031 SCT044 BKN068 04/M01 Q1022",
      "taf": "TAF LRBC 221100Z 2212/2221 VRB04KT 9999 OVC040"
    },
    {
      "icao": "LRBS",
      "alert": "OK",
      "vis_m": 9999,
      "fzfg": false,
      "metar_trigger": false,
      "taf_trigger": false,
      "metar": "METAR LRBS 221100Z 26011KT CAVOK 03/M02 Q1023 NOSIG",
      "taf": "TAF LRBS 221100Z 2212/2312 25009KT CAVOK"
    },
    {
      "icao": "LRBV",
      "alert": "OK",
      "vis_m": 9999,
      "fzfg": false,
      "metar_trigger": false,
      "taf_trigger": false,
      "metar": "METAR LRBV 221030Z 29006KT 9999 BKN008 BKN013 01/M01 Q1023",
      "taf": "TAF LRBV 221100Z 2212/2221 29006KT 9999 SCT010 OVC015"
    },
    {
      "icao": "LRCL",
      "alert": "OK",
      "vis_m": 9999,
      "fzfg": false,
      "metar_trigger": false,
      "taf_trigger": false,
      "metar": "METAR LRCL 221030Z 00000KT 9999 BKN023 05/00 Q1024",
      "taf": "TAF LRCL 221100Z 2212/2221 VRB03KT 9999 BKN025"
    },
    {
      "icao": "LRCV",
      "alert": "OK",
      "vis_m": null,
      "fzfg": false,
      "metar_trigger": false,
      "taf_trigger": false,
      "metar": "",
      "taf": "TAF LRCV 221100Z 2212/2221 28005KT 8000 OVC004"
    },
    {
      "icao": "LRIA",
      "alert": "OK",
      "vis_m": 9999,
      "fzfg": false,
      "metar_trigger": false,
      "taf_trigger": false,
      "metar": "METAR LRIA 221030Z 33004KT 300V360 CAVOK 02/M00 Q1022",
      "taf": "TAF LRIA 221100Z 2212/2221 30006KT CAVOK"
    },
    {
      "icao": "LROP",
      "alert": "OK",
      "vis_m": 9999,
      "fzfg": false,
      "metar_trigger": false,
      "taf_trigger": false,
      "metar": "METAR LROP 221100Z 27009KT CAVOK 04/M04 Q1023 NOSIG",
      "taf": "TAF LROP 221100Z 2212/2312 25009KT CAVOK"
    },
    {
      "icao": "LRSB",
      "alert": "OK",
      "vis_m": 7000,
      "fzfg": false,
      "metar_trigger": false,
      "taf_trigger": false,
      "metar": "METAR LRSB 221030Z VRB01KT 7000 SCT009 SCT022 BKN038 03/00 Q1024 NOSIG",
      "taf": "TAF LRSB 221100Z 2212/2312 VRB03KT 9999 SCT010 BKN035"
    },
    {
      "icao": "LRSM",
      "alert": "OK",
      "vis_m": 7000,
      "fzfg": false,
      "metar_trigger": false,
      "taf_trigger": false,
      "metar": "METAR LRSM 221030Z VRB01KT 7000 FEW004 OVC013 04/02 Q1025",
      "taf": "TAF LRSM 221100Z 2212/2221 VRB04KT 9999 OVC015"
    },
    {
      "icao": "LRSV",
      "alert": "OK",
      "vis_m": 9999,
      "fzfg": false,
      "metar_trigger": false,
      "taf_trigger": false,
      "metar": "METAR LRSV 221030Z 18003KT 130V210 CAVOK 04/M00 Q1020",
      "taf": "TAF LRSV 221100Z 2212/2221 VRB04KT CAVOK"
    },
    {
      "icao": "LRTM",
      "alert": "OK",
      "vis_m": 9999,
      "fzfg": false,
      "metar_trigger": false,
      "taf_trigger": false,
      "metar": "METAR LRTM 221100Z 23004KT 190V260 9999 FEW010 SCT015 BKN028 03/00 Q1024",
      "taf": "TAF LRTM 221100Z 2212/2221 23004KT 9999 SCT010 BKN030"
    },
    {
      "icao": "LRTR",
      "alert": "OK",
      "vis_m": 9999,
      "fzfg": false,
      "metar_trigger": false,
      "taf_trigger": false,
      "metar": "METAR LRTR 221100Z VRB03KT 9999 OVC011 05/04 Q1026 BECMG BKN015",
      "taf": "TAF LRTR 221100Z 2212/2312 VRB04KT 9999 OVC010"
    },
    {
      "icao": "LTAC",
      "alert": "OK",
      "vis_m": 9999,
      "fzfg": false,
      "metar_trigger": false,
      "taf_trigger": false,
      "metar": "METAR LTAC 221120Z 21004KT 120V250 9999 -SHRA SCT008 BKN025 BKN080 06/04 Q1012 NOSIG RMK RWY21C 20004KT 140V220 RWY03L VRB02KT RWY21R 19004KT RWY03R 21006KT RWY21L 21004KT",
      "taf": "TAF LTAC 221040Z 2212/2312 VRB02KT 9999 SCT030 BKN100"
    },
    {
      "icao": "LTFM",
      "alert": "OK",
      "vis_m": 9999,
      "fzfg": false,
      "metar_trigger": false,
      "taf_trigger": false,
      "metar": "METAR LTFM 221120Z 35017KT 9999 BKN008 BKN023 03/01 Q1021 NOSIG RMK RWY17L 35016KT RWY34L 34016KT RWY16R 35012KT RWY36 35016KT RWY18 36017KT",
      "taf": "TAF LTFM 221040Z 2212/2318 36017KT 9999 BKN009 BKN025"
    },
    {
      "icao": "LUKK",
      "alert": "OK",
      "vis_m": 9999,
      "fzfg": false,
      "metar_trigger": false,
      "taf_trigger": false,
      "metar": "METAR LUKK 221100Z 35009KT 320V020 CAVOK 03/M05 Q1021 NOSIG",
      "taf": "TAF LUKK 221101Z 2212/2312 34009KT CAVOK"
    },
    {
      "icao": "LWOH",
      "alert": "OK",
      "vis_m": 9999,
      "fzfg": false,
      "metar_trigger": false,
      "taf_trigger": false,
      "metar": "METAR LWOH 221120Z 35011KT 310V050 9999 SCT040 08/00 Q1021",
      "taf": "TAF LWOH 220815Z 2209/2309 36010KT 9999 SCT040"
    },
    {
      "icao": "LWSK",
      "alert": "OK",
      "vis_m": 9999,
      "fzfg": false,
      "metar_trigger": false,
      "taf_trigger": false,
      "metar": "METAR LWSK 221120Z 30004KT 220V360 9999 SCT035 BKN075 07/M00 Q1025 NOSIG",
      "taf": "TAF LWSK 220815Z 2209/2309 03012KT 9999 BKN030 BKN070"
    },
    {
      "icao": "LYBE",
      "alert": "OK",
      "vis_m": 9999,
      "fzfg": false,
      "metar_trigger": false,
      "taf_trigger": false,
      "metar": "METAR LYBE 221100Z 26006KT 9999 BKN017 08/03 Q1026 NOSIG",
      "taf": "TAF LYBE 221100Z 2212/2312 27008KT 9999 SCT020 TX13/2312Z TN04/2306Z"
    },
    {
      "icao": "LYNI",
      "alert": "OK",
      "vis_m": 9999,
      "fzfg": false,
      "metar_trigger": false,
      "taf_trigger": false,
      "metar": "METAR LYNI 221100Z 32005KT 240V040 9999 FEW010 BKN017 BKN027 04/03 Q1026 NOSIG",
      "taf": "TAF LYNI 221100Z 2212/2312 32010KT 9999 SCT012 BKN023 TX12/2312Z TNM01/2305Z"
    },
    {
      "icao": "LYPG",
      "alert": "OK",
      "vis_m": 9999,
      "fzfg": false,
      "metar_trigger": false,
      "taf_trigger": false,
      "metar": "METAR LYPG 221100Z 01008KT 320V040 9999 FEW060 15/M01 Q1024 TEMPO 01018KT",
      "taf": "TAF LYPG 221100Z 2212/2312 36009KT CAVOK TX16/2213Z TN02/2305Z"
    },
    {
      "icao": "LZIB",
      "alert": "OK",
      "vis_m": 900,
      "fzfg": false,
      "metar_trigger": false,
      "taf_trigger": false,
      "metar": "METAR LZIB 221130Z VRB02KT 0900 R31/1300N R22/1300U -RA FG BKN002 OVC028 01/01 Q1023 TEMPO RA",
      "taf": "TAF LZIB 221115Z 2212/2312 VRB02KT 3000 -RA BR BKN005 OVC015"
    },
    {
      "icao": "LZKZ",
      "alert": "OK",
      "vis_m": 5000,
      "fzfg": false,
      "metar_trigger": false,
      "taf_trigger": false,
      "metar": "METAR LZKZ 221130Z 20008KT 5000 BR BKN010 02/00 Q1022 TEMPO SCT004 BKN009",
      "taf": "TAF LZKZ 221115Z 2212/2312 19007KT 5000 BR SCT005 BKN040"
    },
    {
      "icao": "LZTT",
      "alert": "OK",
      "vis_m": 9999,
      "fzfg": false,
      "metar_trigger": false,
      "taf_trigger": false,
      "metar": "METAR LZTT 221130Z 25010KT 220V280 9999 FEW033 SCT056 08/00 Q1018 NOSIG",
      "taf": "TAF LZTT 221115Z 2212/2312 25008KT 9999 FEW030 SCT060"
    },
    {
      "icao": "OEJN",
      "alert": "OK",
      "vis_m": 9999,
      "fzfg": false,
      "metar_trigger": false,
      "taf_trigger": false,
      "metar": "METAR OEJN 221100Z 29008KT CAVOK 30/18 Q1009 NOSIG",
      "taf": "TAF OEJN 221100Z 2212/2318 30010KT CAVOK"
    },
    {
      "icao": "OEMA",
      "alert": "OK",
      "vis_m": 9999,
      "fzfg": false,
      "metar_trigger": false,
      "taf_trigger": false,
      "metar": "METAR OEMA 221100Z 07009KT CAVOK 30/M08 Q1013 NOSIG",
      "taf": "TAF OEMA 221100Z 2212/2318 12010KT 7000 NSC"
    },
    {
      "icao": "OJAI",
      "alert": "OK",
      "vis_m": 5000,
      "fzfg": false,
      "metar_trigger": false,
      "taf_trigger": false,
      "metar": "METAR OJAI 221100Z 27008KT 5000 HZ FEW030 15/06 Q1016 NOSIG",
      "taf": "TAF OJAI 221100Z 2212/2318 29012KT 5000 HZ SCT030"
    },
    {
      "icao": "OMAA",
      "alert": "OK",
      "vis_m": 9999,
      "fzfg": false,
      "metar_trigger": false,
      "taf_trigger": false,
      "metar": "METAR OMAA 221130Z 30013KT CAVOK 27/13 Q1009 NOSIG",
      "taf": "TAF OMAA 221100Z 2212/2318 31011KT 8000 NSC"
    },
    {
      "icao": "OMDB",
      "alert": "OK",
      "vis_m": 9999,
      "fzfg": false,
      "metar_trigger": false,
      "taf_trigger": false,
      "metar": "METAR OMDB 221130Z 28010KT 250V330 CAVOK 27/16 Q1009 NOSIG",
      "taf": "TAF OMDB 221100Z 2212/2318 29010KT 8000 NSC"
    },
    {
      "icao": "UAAA",
      "alert": "OK",
      "vis_m": 9999,
      "fzfg": false,
      "metar_trigger": false,
      "taf_trigger": false,
      "metar": "METAR UAAA 221100Z VRB01MPS 9999 SCT200 11/02 Q1016 NOSIG",
      "taf": "TAF UAAA 221102Z 2212/2312 23003MPS 3100 BR FU SCT030 BKN100 TX08/2309Z TN00/2301Z"
    },
    {
      "icao": "UBBB",
      "alert": "OK",
      "vis_m": 9999,
      "fzfg": false,
      "metar_trigger": false,
      "taf_trigger": false,
      "metar": "METAR UBBB 221130Z 34024G30KT 9999 BKN011 09/05 Q1017 NOSIG",
      "taf": "TAF UBBB 221048Z 2212/2312 34016G26KT 9999 BKN010 BKN025 TX09/2212Z TN04/2301Z"
    },
    {
      "icao": "UDSG",
      "alert": "OK",
      "vis_m": 9999,
      "fzfg": false,
      "metar_trigger": false,
      "taf_trigger": false,
      "metar": "METAR UDSG 221100Z 27006KT 9999 SCT049 06/M03 Q1014 NOSIG",
      "taf": "TAF UDSG 221100Z 2212/2312 VRB06KT 9999 SCT050"
    },
    {
      "icao": "UDYZ",
      "alert": "OK",
      "vis_m": 9999,
      "fzfg": false,
      "metar_trigger": false,
      "taf_trigger": false,
      "metar": "METAR UDYZ 221100Z VRB02KT 9999 NSC 13/M02 Q1012 NOSIG",
      "taf": "TAF UDYZ 221100Z 2212/2312 24006KT 9999 SCT040"
    },
    {
      "icao": "UGKO",
      "alert": "OK",
      "vis_m": 9999,
      "fzfg": false,
      "metar_trigger": false,
      "taf_trigger": false,
      "metar": "METAR UGKO 221100Z 09018KT CAVOK 16/02 Q1008 NOSIG",
      "taf": "TAF UGKO 221100Z 2212/2312 08017KT 9999 BKN050 TX17/2212Z TN07/2303Z"
    }
  ]
}