{
  "ts_utc": "2026-07-12T23:26:28Z",
  "threshold_m": 150,
  "source": "stations_override.txt (ICAO list) + aviationweather.gov (METAR/TAF raw)",
  "station_count": 159,
  "stations": [
    {
      "icao": "BIKF",
      "alert": "OK",
      "vis_m": 4000,
      "fzfg": false,
      "metar_trigger": false,
      "taf_trigger": false,
      "metar": "METAR BIKF 122300Z 18021KT 4000 DZRA BR BKN005 OVC011 10/10 Q1020",
      "taf": "TAF BIKF 122231Z 1300/1400 18020KT 4000 RADZ BKN005 OVC010 TX11/1314Z TN10/1306Z"
    },
    {
      "icao": "BKPR",
      "alert": "OK",
      "vis_m": null,
      "fzfg": false,
      "metar_trigger": false,
      "taf_trigger": false,
      "metar": "",
      "taf": "TAF BKPR 121730Z 1218/1318 VRB03KT 9999 SCT090"
    },
    {
      "icao": "EBCI",
      "alert": "OK",
      "vis_m": 9999,
      "fzfg": false,
      "metar_trigger": false,
      "taf_trigger": false,
      "metar": "METAR EBCI 122250Z 04012KT CAVOK 22/11 Q1021 NOSIG",
      "taf": "TAF EBCI 122301Z 1300/1406 04008KT CAVOK"
    },
    {
      "icao": "EDDB",
      "alert": "OK",
      "vis_m": 9999,
      "fzfg": false,
      "metar_trigger": false,
      "taf_trigger": false,
      "metar": "METAR EDDB 122320Z AUTO 02006KT CAVOK 20/14 Q1021 NOSIG",
      "taf": "TAF EDDB 122300Z 1300/1324 02004KT CAVOK"
    },
    {
      "icao": "EDDH",
      "alert": "OK",
      "vis_m": 9999,
      "fzfg": false,
      "metar_trigger": false,
      "taf_trigger": false,
      "metar": "METAR EDDH 122320Z AUTO 32003KT 9999 0750 R23/P2000N R33/P2000N BCFG NCD 15/14 Q1023 TEMPO 2000",
      "taf": "TAF EDDH 122300Z 1300/1406 32003KT CAVOK"
    },
    {
      "icao": "EDDK",
      "alert": "OK",
      "vis_m": 9999,
      "fzfg": false,
      "metar_trigger": false,
      "taf_trigger": false,
      "metar": "METAR EDDK 122320Z AUTO 05005KT CAVOK 22/13 Q1021 NOSIG",
      "taf": "TAF EDDK 122300Z 1300/1406 VRB03KT CAVOK"
    },
    {
      "icao": "EDDN",
      "alert": "OK",
      "vis_m": 9999,
      "fzfg": false,
      "metar_trigger": false,
      "taf_trigger": false,
      "metar": "METAR EDDN 122320Z AUTO 02001KT CAVOK 18/12 Q1021",
      "taf": "TAF EDDN 122300Z 1300/1324 06004KT CAVOK"
    },
    {
      "icao": "EDDS",
      "alert": "OK",
      "vis_m": 9999,
      "fzfg": false,
      "metar_trigger": false,
      "taf_trigger": false,
      "metar": "METAR EDDS 122320Z AUTO 05002KT CAVOK 20/09 Q1020",
      "taf": "TAF EDDS 122300Z 1300/1324 VRB03KT CAVOK"
    },
    {
      "icao": "EDFH",
      "alert": "OK",
      "vis_m": 9999,
      "fzfg": false,
      "metar_trigger": false,
      "taf_trigger": false,
      "metar": "METAR EDFH 122250Z 08004KT 050V130 CAVOK 21/12 Q1022",
      "taf": "TAF EDFH 122300Z 1300/1324 08007KT CAVOK"
    },
    {
      "icao": "EDJA",
      "alert": "OK",
      "vis_m": 9999,
      "fzfg": false,
      "metar_trigger": false,
      "taf_trigger": false,
      "metar": "METAR EDJA 122250Z AUTO 09004KT 060V120 9999 // NCD 17/09 Q1022",
      "taf": "TAF EDJA 121700Z 1218/1303 05005KT CAVOK"
    },
    {
      "icao": "EDLW",
      "alert": "OK",
      "vis_m": 9999,
      "fzfg": false,
      "metar_trigger": false,
      "taf_trigger": false,
      "metar": "METAR EDLW 122250Z AUTO 04003KT 9999 // NCD 20/10 Q1022",
      "taf": "TAF EDLW 121700Z 1218/1318 03006KT CAVOK"
    },
    {
      "icao": "EDNY",
      "alert": "OK",
      "vis_m": 9999,
      "fzfg": false,
      "metar_trigger": false,
      "taf_trigger": false,
      "metar": "METAR EDNY 122250Z AUTO 03008KT 9999 // NCD 22/09 Q1020",
      "taf": "TAF EDNY 121700Z 1218/1303 03007KT CAVOK"
    },
    {
      "icao": "EDSB",
      "alert": "OK",
      "vis_m": 9999,
      "fzfg": false,
      "metar_trigger": false,
      "taf_trigger": false,
      "metar": "METAR EDSB 122250Z AUTO 01005KT CAVOK 21/11 Q1019",
      "taf": "TAF EDSB 122300Z 1300/1324 03005KT CAVOK"
    },
    {
      "icao": "EETN",
      "alert": "OK",
      "vis_m": 9999,
      "fzfg": false,
      "metar_trigger": false,
      "taf_trigger": false,
      "metar": "METAR EETN 122320Z 35005KT 330V030 CAVOK 20/17 Q1017",
      "taf": "TAF EETN 121730Z 1218/1318 34010KT CAVOK"
    },
    {
      "icao": "EFTU",
      "alert": "OK",
      "vis_m": 9999,
      "fzfg": false,
      "metar_trigger": false,
      "taf_trigger": false,
      "metar": "METAR EFTU 122320Z AUTO 36006KT 320V040 CAVOK 17/15 Q1020",
      "taf": "TAF EFTU 122025Z 1221/1321 01005KT CAVOK"
    },
    {
      "icao": "EGBB",
      "alert": "OK",
      "vis_m": 9999,
      "fzfg": false,
      "metar_trigger": false,
      "taf_trigger": false,
      "metar": "METAR EGBB 122320Z 04011KT CAVOK 16/10 Q1027",
      "taf": "TAF EGBB 122259Z 1300/1324 05012KT CAVOK"
    },
    {
      "icao": "EGGP",
      "alert": "OK",
      "vis_m": 9000,
      "fzfg": false,
      "metar_trigger": false,
      "taf_trigger": false,
      "metar": "METAR EGGP 122320Z 09006KT 060V120 9000 NSC 17/10 Q1028",
      "taf": "TAF EGGP 122258Z 1300/1324 08008KT CAVOK"
    },
    {
      "icao": "EGGW",
      "alert": "OK",
      "vis_m": 9999,
      "fzfg": false,
      "metar_trigger": false,
      "taf_trigger": false,
      "metar": "METAR EGGW 122320Z AUTO 03012KT 9999 NCD 15/10 Q1026",
      "taf": "TAF EGGW 122254Z 1300/1324 05012KT 9999 FEW012"
    },
    {
      "icao": "EGKK",
      "alert": "OK",
      "vis_m": 9999,
      "fzfg": false,
      "metar_trigger": false,
      "taf_trigger": false,
      "metar": "METAR EGKK 122320Z 05011KT CAVOK 18/09 Q1024",
      "taf": "TAF EGKK 122254Z 1300/1406 04010KT 9999 FEW045"
    },
    {
      "icao": "EGNM",
      "alert": "OK",
      "vis_m": 9999,
      "fzfg": false,
      "metar_trigger": false,
      "taf_trigger": false,
      "metar": "METAR EGNM 122320Z 03006KT 360V070 9999 FEW015 13/11 Q1029",
      "taf": "TAF EGNM 122256Z 1300/1324 04008KT 9999 FEW015"
    },
    {
      "icao": "EGPD",
      "alert": "OK",
      "vis_m": 9999,
      "fzfg": false,
      "metar_trigger": false,
      "taf_trigger": false,
      "metar": "METAR EGPD 122320Z AUTO 33001KT 9999 NCD 11/10 Q1032",
      "taf": "TAF EGPD 122253Z 1300/1324 VRB03KT 9999 FEW015"
    },
    {
      "icao": "EGPF",
      "alert": "OK",
      "vis_m": 9999,
      "fzfg": false,
      "metar_trigger": false,
      "taf_trigger": false,
      "metar": "METAR EGPF 122320Z AUTO 06006KT 9999 NCD 13/11 Q1031",
      "taf": "TAF EGPF 122251Z 1300/1324 07009KT 9999 FEW025"
    },
    {
      "icao": "EHBK",
      "alert": "OK",
      "vis_m": 9999,
      "fzfg": false,
      "metar_trigger": false,
      "taf_trigger": false,
      "metar": "METAR EHBK 122255Z AUTO 04012KT 010V070 9999 NCD 22/11 Q1022",
      "taf": "TAF EHBK 122304Z 1300/1406 03009KT CAVOK"
    },
    {
      "icao": "EHEH",
      "alert": "OK",
      "vis_m": 9999,
      "fzfg": false,
      "metar_trigger": false,
      "taf_trigger": false,
      "metar": "METAR EHEH 122255Z AUTO 01007KT 9999 NCD 19/13 Q1023 BLU",
      "taf": ""
    },
    {
      "icao": "EKBI",
      "alert": "OK",
      "vis_m": 9999,
      "fzfg": false,
      "metar_trigger": false,
      "taf_trigger": false,
      "metar": "METAR EKBI 122320Z AUTO 01004KT 9999 NCD 17/15 Q1024",
      "taf": "TAF EKBI 122027Z 1221/1321 06005KT 9999 FEW030"
    },
    {
      "icao": "EKCH",
      "alert": "OK",
      "vis_m": 9999,
      "fzfg": false,
      "metar_trigger": false,
      "taf_trigger": false,
      "metar": "METAR EKCH 122320Z AUTO 14006KT 9999 OVC150/// 18/15 Q1023 NOSIG",
      "taf": "TAF EKCH 122027Z 1221/1321 36005KT CAVOK"
    },
    {
      "icao": "ENAL",
      "alert": "OK",
      "vis_m": 9999,
      "fzfg": false,
      "metar_trigger": false,
      "taf_trigger": false,
      "metar": "METAR ENAL 122250Z 06010KT CAVOK 12/10 Q1031",
      "taf": "TAF ENAL 122000Z 1221/1306 04009KT CAVOK"
    },
    {
      "icao": "ENBR",
      "alert": "OK",
      "vis_m": 9999,
      "fzfg": false,
      "metar_trigger": false,
      "taf_trigger": false,
      "metar": "METAR ENBR 122250Z 35005KT CAVOK 11/10 Q1027 RMK WIND 1200FT 01014KT",
      "taf": "TAF ENBR 121700Z 1218/1318 34009KT CAVOK"
    },
    {
      "icao": "ENGM",
      "alert": "OK",
      "vis_m": 9999,
      "fzfg": false,
      "metar_trigger": false,
      "taf_trigger": false,
      "metar": "METAR ENGM 122250Z 01003KT CAVOK 13/07 Q1027",
      "taf": "TAF ENGM 121700Z 1218/1318 01008KT CAVOK"
    },
    {
      "icao": "ENHD",
      "alert": "OK",
      "vis_m": 9999,
      "fzfg": false,
      "metar_trigger": false,
      "taf_trigger": false,
      "metar": "METAR ENHD 122250Z AUTO 35014KT 9999 NCD 12/10 Q1027",
      "taf": "TAF ENHD 121400Z 1215/1222 34018KT CAVOK"
    },
    {
      "icao": "ENTC",
      "alert": "OK",
      "vis_m": 9999,
      "fzfg": false,
      "metar_trigger": false,
      "taf_trigger": false,
      "metar": "METAR ENTC 122250Z 22020KT 9999 BKN040 12/07 Q1025 RMK WIND 2600FT 20022KT",
      "taf": ""
    },
    {
      "icao": "ENTO",
      "alert": "OK",
      "vis_m": 9999,
      "fzfg": false,
      "metar_trigger": false,
      "taf_trigger": false,
      "metar": "METAR ENTO 122250Z AUTO 34002KT 9999 // NCD 17/09 Q1026",
      "taf": "TAF ENTO 121700Z 1218/1318 02008KT CAVOK"
    },
    {
      "icao": "ENVA",
      "alert": "OK",
      "vis_m": 9999,
      "fzfg": false,
      "metar_trigger": false,
      "taf_trigger": false,
      "metar": "METAR ENVA 122250Z AUTO 25007KT 9999 R09/P2000N R27///// NCD 13/10 Q1031 RMK WIND 670FT 28010KT",
      "taf": "TAF ENVA 121700Z 1218/1318 27005KT CAVOK"
    },
    {
      "icao": "ENZV",
      "alert": "OK",
      "vis_m": 9999,
      "fzfg": false,
      "metar_trigger": false,
      "taf_trigger": false,
      "metar": "METAR ENZV 122250Z 33006KT CAVOK 13/10 Q1027",
      "taf": "TAF ENZV 121700Z 1218/1318 30008KT CAVOK"
    },
    {
      "icao": "EPGD",
      "alert": "OK",
      "vis_m": 9999,
      "fzfg": false,
      "metar_trigger": false,
      "taf_trigger": false,
      "metar": "METAR EPGD 122300Z 31011KT 9999 BKN003 16/15 Q1020",
      "taf": ""
    },
    {
      "icao": "EPKK",
      "alert": "OK",
      "vis_m": 9999,
      "fzfg": false,
      "metar_trigger": false,
      "taf_trigger": false,
      "metar": "METAR EPKK 122300Z 23003KT 9999 BKN052 17/14 Q1018",
      "taf": "TAF EPKK 122030Z 1221/1321 VRB02KT 9999 BKN040"
    },
    {
      "icao": "EPKT",
      "alert": "OK",
      "vis_m": 9999,
      "fzfg": false,
      "metar_trigger": false,
      "taf_trigger": false,
      "metar": "METAR EPKT 122300Z 33001KT 9999 SCT026 BKN043 15/14 Q1019",
      "taf": "TAF EPKT 121730Z 1218/1318 35005KT 9999 SCT030"
    },
    {
      "icao": "EPLB",
      "alert": "OK",
      "vis_m": 9999,
      "fzfg": false,
      "metar_trigger": false,
      "taf_trigger": false,
      "metar": "METAR EPLB 122300Z 32005KT CAVOK 13/13 Q1017",
      "taf": "TAF EPLB 121730Z 1218/1318 VRB04KT 9999 BKN035"
    },
    {
      "icao": "EPMO",
      "alert": "OK",
      "vis_m": 9999,
      "fzfg": false,
      "metar_trigger": false,
      "taf_trigger": false,
      "metar": "METAR EPMO 122300Z 29004KT 9999 SCT048 16/15 Q1018",
      "taf": "TAF EPMO 121730Z 1218/1318 34006KT 9999 BKN030"
    },
    {
      "icao": "EPPO",
      "alert": "OK",
      "vis_m": 9999,
      "fzfg": false,
      "metar_trigger": false,
      "taf_trigger": false,
      "metar": "METAR EPPO 122300Z 35005KT 9999 SCT030 19/16 Q1020",
      "taf": "TAF EPPO 121730Z 1218/1318 36008KT CAVOK"
    },
    {
      "icao": "EPRA",
      "alert": "OK",
      "vis_m": 9000,
      "fzfg": false,
      "metar_trigger": false,
      "taf_trigger": false,
      "metar": "METAR EPRA 122300Z 31003KT 9000 NSC 15/14 Q1017",
      "taf": "TAF EPRA 122030Z 1221/1306 33004KT 9999 SCT040"
    },
    {
      "icao": "EPRZ",
      "alert": "OK",
      "vis_m": 9999,
      "fzfg": false,
      "metar_trigger": false,
      "taf_trigger": false,
      "metar": "METAR EPRZ 122300Z 30002KT 9999 OVC030 16/16 Q1017",
      "taf": ""
    },
    {
      "icao": "EPSC",
      "alert": "OK",
      "vis_m": 9999,
      "fzfg": false,
      "metar_trigger": false,
      "taf_trigger": false,
      "metar": "METAR EPSC 122300Z 35005KT 9999 SCT007 17/16 Q1022",
      "taf": "TAF EPSC 121730Z 1218/1318 01006KT 9999 SCT035"
    },
    {
      "icao": "EPSY",
      "alert": "OK",
      "vis_m": 9999,
      "fzfg": false,
      "metar_trigger": false,
      "taf_trigger": false,
      "metar": "METAR EPSY 122300Z 33011KT CAVOK 16/15 Q1017",
      "taf": "TAF EPSY 122030Z 1221/1306 31004KT 9999 BKN040"
    },
    {
      "icao": "EPWA",
      "alert": "OK",
      "vis_m": 9999,
      "fzfg": false,
      "metar_trigger": false,
      "taf_trigger": false,
      "metar": "METAR EPWA 122300Z 27005KT CAVOK 15/14 Q1017 NOSIG",
      "taf": "TAF EPWA 122030Z 1221/1321 31005KT 9999 BKN030"
    },
    {
      "icao": "EPWR",
      "alert": "OK",
      "vis_m": 9999,
      "fzfg": false,
      "metar_trigger": false,
      "taf_trigger": false,
      "metar": "METAR EPWR 122300Z 35004KT 9999 FEW043 19/16 Q1019",
      "taf": "TAF EPWR 122030Z 1221/1321 34010KT CAVOK"
    },
    {
      "icao": "ESGG",
      "alert": "OK",
      "vis_m": 9999,
      "fzfg": false,
      "metar_trigger": false,
      "taf_trigger": false,
      "metar": "METAR ESGG 122320Z 04006KT CAVOK 16/14 Q1025",
      "taf": "TAF ESGG 122030Z 1221/1321 03009KT CAVOK"
    },
    {
      "icao": "ESKN",
      "alert": "OK",
      "vis_m": 9999,
      "fzfg": false,
      "metar_trigger": false,
      "taf_trigger": false,
      "metar": "METAR ESKN 122320Z 33005KT CAVOK 16/09 Q1024",
      "taf": "TAF ESKN 122030Z 1221/1321 35005KT CAVOK"
    },
    {
      "icao": "ESMS",
      "alert": "OK",
      "vis_m": 9999,
      "fzfg": false,
      "metar_trigger": false,
      "taf_trigger": false,
      "metar": "METAR ESMS 122320Z 14004KT CAVOK 16/16 Q1023",
      "taf": "TAF ESMS 122027Z 1221/1321 15004KT CAVOK"
    },
    {
      "icao": "ESSA",
      "alert": "OK",
      "vis_m": 9999,
      "fzfg": false,
      "metar_trigger": false,
      "taf_trigger": false,
      "metar": "METAR ESSA 122320Z 34007KT CAVOK 12/07 Q1024 NOSIG",
      "taf": "TAF ESSA 122030Z 1221/1321 36009KT CAVOK"
    },
    {
      "icao": "EYKA",
      "alert": "OK",
      "vis_m": 7000,
      "fzfg": false,
      "metar_trigger": false,
      "taf_trigger": false,
      "metar": "METAR EYKA 122320Z AUTO 30003KT 280V350 7000 SHRA SCT048/// BKN064/// BKN081/// 18/17 Q1015 RERA",
      "taf": "TAF EYKA 122300Z 1300/1324 VRB03KT 9000 NSC"
    },
    {
      "icao": "EYPA",
      "alert": "OK",
      "vis_m": 9999,
      "fzfg": false,
      "metar_trigger": false,
      "taf_trigger": false,
      "metar": "METAR EYPA 122320Z AUTO 01004KT 340V040 9999 NCD 17/16 Q1018",
      "taf": "TAF EYPA 122300Z 1300/1324 VRB03KT 9000 NSC"
    },
    {
      "icao": "EYVI",
      "alert": "OK",
      "vis_m": 9999,
      "fzfg": false,
      "metar_trigger": false,
      "taf_trigger": false,
      "metar": "METAR EYVI 122320Z COR 33010KT 9999 -TSRA SCT022CB 17/16 Q1015 TEMPO 3000 TSRA",
      "taf": "TAF EYVI 122300Z 1300/1324 VRB03KT 9000 NSC"
    },
    {
      "icao": "GCFV",
      "alert": "OK",
      "vis_m": 9999,
      "fzfg": false,
      "metar_trigger": false,
      "taf_trigger": false,
      "metar": "METAR GCFV 122300Z AUTO 36007KT CAVOK 22/16 Q1018",
      "taf": "TAF GCFV 122000Z 1221/1321 06010KT 9999 SCT030 TX25/1314Z TN21/1306Z"
    },
    {
      "icao": "GCLP",
      "alert": "OK",
      "vis_m": 9999,
      "fzfg": false,
      "metar_trigger": false,
      "taf_trigger": false,
      "metar": "METAR GCLP 122300Z 35011KT 9999 FEW030 22/16 Q1018 NOSIG",
      "taf": "TAF GCLP 122000Z 1221/1321 02016KT 9999 FEW030 TX26/1314Z TN20/1306Z"
    },
    {
      "icao": "GCTS",
      "alert": "OK",
      "vis_m": 9999,
      "fzfg": false,
      "metar_trigger": false,
      "taf_trigger": false,
      "metar": "METAR GCTS 122300Z 08010KT 9999 BKN030 23/16 Q1018 NOSIG",
      "taf": "TAF GCTS 122000Z 1221/1321 05009KT 9999 SCT030 TX26/1314Z TN19/1306Z"
    },
    {
      "icao": "GMAD",
      "alert": "OK",
      "vis_m": 8000,
      "fzfg": false,
      "metar_trigger": false,
      "taf_trigger": false,
      "metar": "METAR GMAD 122300Z 18004KT 8000 NSC 21/17 Q1016 NOSIG",
      "taf": "TAF GMAD 122300Z 1300/1406 12004KT 8000 SCT020"
    },
    {
      "icao": "GMMN",
      "alert": "OK",
      "vis_m": 9999,
      "fzfg": false,
      "metar_trigger": false,
      "taf_trigger": false,
      "metar": "METAR GMMN 122300Z 04007KT 9999 FEW020 22/17 Q1017 NOSIG",
      "taf": "TAF GMMN 122300Z 1300/1406 05006KT 9999 FEW030"
    },
    {
      "icao": "GMMX",
      "alert": "OK",
      "vis_m": 9999,
      "fzfg": false,
      "metar_trigger": false,
      "taf_trigger": false,
      "metar": "METAR GMMX 122300Z 34005KT 280V020 9999 SCT030 25/16 Q1016 NOSIG",
      "taf": "TAF GMMX 122300Z 1300/1406 30006KT 8000 SCT030"
    },
    {
      "icao": "HEGN",
      "alert": "OK",
      "vis_m": 9999,
      "fzfg": false,
      "metar_trigger": false,
      "taf_trigger": false,
      "metar": "METAR HEGN 122300Z 28008KT CAVOK 31/10 Q1006 NOSIG",
      "taf": "TAF HEGN 122300Z 1300/1406 31015KT CAVOK"
    },
    {
      "icao": "HEMA",
      "alert": "OK",
      "vis_m": 9999,
      "fzfg": false,
      "metar_trigger": false,
      "taf_trigger": false,
      "metar": "METAR HEMA 122300Z 31008KT CAVOK 30/07 Q1007 NOSIG",
      "taf": "TAF HEMA 122300Z 1300/1406 30015KT CAVOK"
    },
    {
      "icao": "HESH",
      "alert": "OK",
      "vis_m": 9999,
      "fzfg": false,
      "metar_trigger": false,
      "taf_trigger": false,
      "metar": "METAR HESH 122300Z 34009KT CAVOK 32/15 Q1004 NOSIG",
      "taf": "TAF HESH 122300Z 1300/1406 35014KT CAVOK"
    },
    {
      "icao": "HESX",
      "alert": "OK",
      "vis_m": 9999,
      "fzfg": false,
      "metar_trigger": false,
      "taf_trigger": false,
      "metar": "METAR HESX 122300Z 35006KT CAVOK 23/18 Q1011 NOSIG",
      "taf": "TAF HESX 122300Z 1300/1406 35005KT CAVOK"
    },
    {
      "icao": "LATI",
      "alert": "OK",
      "vis_m": 9999,
      "fzfg": false,
      "metar_trigger": false,
      "taf_trigger": false,
      "metar": "METAR LATI 122320Z 18004KT CAVOK 21/16 Q1014 NOSIG",
      "taf": "TAF LATI 122300Z 1300/1324 VRB03KT CAVOK TX36/1312Z TN17/1304Z"
    },
    {
      "icao": "LBPD",
      "alert": "OK",
      "vis_m": 9999,
      "fzfg": false,
      "metar_trigger": false,
      "taf_trigger": false,
      "metar": "METAR LBPD 122300Z AUTO 29009KT 9999 BKN150/// 21/17 Q1014",
      "taf": "TAF LBPD 122300Z 1300/1324 27015KT 9999 SCT070"
    },
    {
      "icao": "LBSF",
      "alert": "OK",
      "vis_m": 9999,
      "fzfg": false,
      "metar_trigger": false,
      "taf_trigger": false,
      "metar": "METAR LBSF 122300Z AUTO 33004KT 290V020 9999 NSC 17/16 Q1018 NOSIG",
      "taf": "TAF LBSF 122300Z 1300/1324 29012KT 9999 SCT050"
    },
    {
      "icao": "LBWN",
      "alert": "OK",
      "vis_m": 9999,
      "fzfg": false,
      "metar_trigger": false,
      "taf_trigger": false,
      "metar": "METAR LBWN 122300Z AUTO 34003KT 9999 -SHRA NSC 20/20 Q1014 NOSIG",
      "taf": "TAF LBWN 122300Z 1300/1324 30006KT 9999 BKN045"
    },
    {
      "icao": "LCLK",
      "alert": "OK",
      "vis_m": 9999,
      "fzfg": false,
      "metar_trigger": false,
      "taf_trigger": false,
      "metar": "METAR LCLK 122300Z VRB02KT CAVOK 24/22 Q1006 NOSIG",
      "taf": "TAF LCLK 121730Z 1218/1318 22005KT CAVOK"
    },
    {
      "icao": "LCPH",
      "alert": "OK",
      "vis_m": 9999,
      "fzfg": false,
      "metar_trigger": false,
      "taf_trigger": false,
      "metar": "METAR LCPH 122300Z 01005KT CAVOK 24/18 Q1006 NOSIG",
      "taf": "TAF LCPH 121730Z 1218/1318 34008KT CAVOK"
    },
    {
      "icao": "LEAL",
      "alert": "OK",
      "vis_m": 9999,
      "fzfg": false,
      "metar_trigger": false,
      "taf_trigger": false,
      "metar": "METAR LEAL 122300Z 06003KT 030V100 9999 BKN025 29/24 Q1013 NOSIG",
      "taf": "TAF LEAL 122300Z 1300/1324 VRB03KT 9999 FEW010 TX33/1312Z TN24/1306Z"
    },
    {
      "icao": "LEBB",
      "alert": "OK",
      "vis_m": 9999,
      "fzfg": false,
      "metar_trigger": false,
      "taf_trigger": false,
      "metar": "METAR LEBB 122300Z AUTO 34006KT 290V010 9999 FEW028 23/20 Q1012",
      "taf": "TAF LEBB 122300Z 1300/1324 35006KT 9999 SCT040 TX28/1314Z TN21/1305Z"
    },
    {
      "icao": "LEBL",
      "alert": "OK",
      "vis_m": 9999,
      "fzfg": false,
      "metar_trigger": false,
      "taf_trigger": false,
      "metar": "METAR LEBL 122300Z 06005KT 9999 FEW015 28/19 Q1014 NOSIG",
      "taf": "TAF LEBL 122300Z 1300/1324 04009KT 9999 FEW015 TX32/1312Z TN25/1306Z"
    },
    {
      "icao": "LECH",
      "alert": "OK",
      "vis_m": 9000,
      "fzfg": false,
      "metar_trigger": false,
      "taf_trigger": false,
      "metar": "METAR LECH 122300Z AUTO 04004KT 9000 NCD 23/21 Q1016",
      "taf": "TAF LECH 122300Z 1300/1324 VRB03KT 9999 FEW010 TX34/1312Z TN19/1306Z"
    },
    {
      "icao": "LEMD",
      "alert": "OK",
      "vis_m": 9999,
      "fzfg": false,
      "metar_trigger": false,
      "taf_trigger": false,
      "metar": "METAR LEMD 122300Z 25006KT 240V300 CAVOK 27/08 Q1015 NOSIG",
      "taf": "TAF LEMD 122300Z 1300/1406 VRB04KT CAVOK TX34/1316Z TN18/1305Z"
    },
    {
      "icao": "LEMG",
      "alert": "OK",
      "vis_m": 9999,
      "fzfg": false,
      "metar_trigger": false,
      "taf_trigger": false,
      "metar": "METAR LEMG 122300Z 28008KT CAVOK 27/13 Q1014 NOSIG",
      "taf": "TAF LEMG 122300Z 1300/1324 27013KT CAVOK TX34/1314Z TN21/1305Z"
    },
    {
      "icao": "LEVC",
      "alert": "OK",
      "vis_m": 9999,
      "fzfg": false,
      "metar_trigger": false,
      "taf_trigger": false,
      "metar": "METAR LEVC 122300Z 07003KT 040V100 9999 SCT027 27/24 Q1014 NOSIG",
      "taf": "TAF LEVC 122300Z 1300/1324 VRB03KT 9999 FEW015 TX33/1314Z TN23/1306Z"
    },
    {
      "icao": "LEXJ",
      "alert": "OK",
      "vis_m": 9000,
      "fzfg": false,
      "metar_trigger": false,
      "taf_trigger": false,
      "metar": "METAR LEXJ 122300Z AUTO 22006KT 170V260 9000 OVC026 21/19 Q1014",
      "taf": "TAF LEXJ 122000Z 1221/1321 28009KT 9999 FEW020 SCT040 TX27/1314Z TN21/1304Z"
    },
    {
      "icao": "LEZG",
      "alert": "OK",
      "vis_m": 9999,
      "fzfg": false,
      "metar_trigger": false,
      "taf_trigger": false,
      "metar": "METAR LEZG 122300Z 10014KT CAVOK 27/20 Q1012 NOSIG",
      "taf": "TAF LEZG 122300Z 1300/1324 10008KT CAVOK TX37/1315Z TN23/1306Z"
    },
    {
      "icao": "LEZL",
      "alert": "OK",
      "vis_m": 9999,
      "fzfg": false,
      "metar_trigger": false,
      "taf_trigger": false,
      "metar": "METAR LEZL 122300Z 24009KT CAVOK 23/18 Q1015 NOSIG",
      "taf": "TAF LEZL 122000Z 1221/1321 23010KT CAVOK TX33/1315Z TN18/1305Z"
    },
    {
      "icao": "LFBD",
      "alert": "OK",
      "vis_m": 9999,
      "fzfg": false,
      "metar_trigger": false,
      "taf_trigger": false,
      "metar": "METAR LFBD 122300Z AUTO 15009KT CAVOK 30/15 Q1009 NOSIG",
      "taf": "TAF LFBD 122300Z 1300/1406 15010KT CAVOK TX33/1314Z TN23/1404Z"
    },
    {
      "icao": "LFLL",
      "alert": "OK",
      "vis_m": 9999,
      "fzfg": false,
      "metar_trigger": false,
      "taf_trigger": false,
      "metar": "METAR LFLL 122300Z 15007KT CAVOK 28/14 Q1015 NOSIG",
      "taf": "TAF LFLL 122300Z 1300/1406 16008KT CAVOK"
    },
    {
      "icao": "LFLS",
      "alert": "OK",
      "vis_m": 9999,
      "fzfg": false,
      "metar_trigger": false,
      "taf_trigger": false,
      "metar": "METAR LFLS 122300Z AUTO VRB03KT CAVOK 25/15 Q1017",
      "taf": ""
    },
    {
      "icao": "LFMN",
      "alert": "OK",
      "vis_m": 9999,
      "fzfg": false,
      "metar_trigger": false,
      "taf_trigger": false,
      "metar": "METAR LFMN 122300Z VRB02KT CAVOK 27/19 Q1016 NOSIG",
      "taf": "TAF LFMN 122000Z 1221/1403 VRB04KT CAVOK"
    },
    {
      "icao": "LFOB",
      "alert": "OK",
      "vis_m": 9999,
      "fzfg": false,
      "metar_trigger": false,
      "taf_trigger": false,
      "metar": "METAR LFOB 122300Z AUTO 03015KT CAVOK 24/16 Q1018 BECMG 04012G22KT",
      "taf": "TAF LFOB 122300Z 1300/1324 04012G22KT CAVOK"
    },
    {
      "icao": "LFPO",
      "alert": "OK",
      "vis_m": 9999,
      "fzfg": false,
      "metar_trigger": false,
      "taf_trigger": false,
      "metar": "METAR LFPO 122300Z AUTO 05010KT CAVOK 27/10 Q1017 NOSIG",
      "taf": "TAF LFPO 122300Z 1300/1406 06008KT CAVOK"
    },
    {
      "icao": "LFSB",
      "alert": "OK",
      "vis_m": 9999,
      "fzfg": false,
      "metar_trigger": false,
      "taf_trigger": false,
      "metar": "METAR LFSB 122300Z AUTO 00000KT CAVOK 18/11 Q1018 NOSIG",
      "taf": "TAF LFSB 122300Z 1300/1324 VRB03KT CAVOK"
    },
    {
      "icao": "LGAV",
      "alert": "OK",
      "vis_m": 9999,
      "fzfg": false,
      "metar_trigger": false,
      "taf_trigger": false,
      "metar": "METAR LGAV 122320Z 36004KT 300V050 9999 FEW025 23/12 Q1013 NOSIG",
      "taf": "TAF LGAV 122300Z 1300/1324 03010KT 9999 FEW025"
    },
    {
      "icao": "LGTS",
      "alert": "OK",
      "vis_m": 9999,
      "fzfg": false,
      "metar_trigger": false,
      "taf_trigger": false,
      "metar": "METAR LGTS 122250Z 31004KT CAVOK 25/20 Q1013 NOSIG",
      "taf": "TAF LGTS 122300Z 1300/1324 33015KT 9999 FEW030"
    },
    {
      "icao": "LHBP",
      "alert": "OK",
      "vis_m": 9999,
      "fzfg": false,
      "metar_trigger": false,
      "taf_trigger": false,
      "metar": "METAR LHBP 122300Z 05005KT 360V090 CAVOK 19/14 Q1017 NOSIG",
      "taf": "TAF LHBP 122315Z 1300/1324 32005KT CAVOK"
    },
    {
      "icao": "LHDC",
      "alert": "OK",
      "vis_m": 9999,
      "fzfg": false,
      "metar_trigger": false,
      "taf_trigger": false,
      "metar": "METAR LHDC 122245Z AUTO 03007KT 360V070 CAVOK 18/13 Q1016",
      "taf": "TAF LHDC 122315Z 1300/1309 33003KT CAVOK"
    },
    {
      "icao": "LIBD",
      "alert": "OK",
      "vis_m": 9999,
      "fzfg": false,
      "metar_trigger": false,
      "taf_trigger": false,
      "metar": "METAR LIBD 122250Z 28003KT CAVOK 23/20 Q1016",
      "taf": "TAF LIBD 122300Z 1300/1324 32005KT CAVOK"
    },
    {
      "icao": "LIBG",
      "alert": "OK",
      "vis_m": 9999,
      "fzfg": false,
      "metar_trigger": false,
      "taf_trigger": false,
      "metar": "METAR LIBG 122250Z AUTO 36003KT 290V050 9999 NCD 24/20 Q1015",
      "taf": "TAF LIBG 122300Z 1300/1324 VRB05KT CAVOK"
    },
    {
      "icao": "LIBP",
      "alert": "OK",
      "vis_m": 9999,
      "fzfg": false,
      "metar_trigger": false,
      "taf_trigger": false,
      "metar": "METAR LIBP 122250Z AUTO 24003KT 9999 NCD 21/20 Q1018",
      "taf": "TAF LIBP 122300Z 1300/1324 VRB05KT CAVOK"
    },
    {
      "icao": "LIBR",
      "alert": "OK",
      "vis_m": 9999,
      "fzfg": false,
      "metar_trigger": false,
      "taf_trigger": false,
      "metar": "METAR LIBR 122250Z 35011KT CAVOK 26/20 Q1015",
      "taf": "TAF LIBR 122300Z 1300/1324 34013KT CAVOK"
    },
    {
      "icao": "LICA",
      "alert": "OK",
      "vis_m": 9999,
      "fzfg": false,
      "metar_trigger": false,
      "taf_trigger": false,
      "metar": "METAR LICA 122250Z AUTO 09005KT 9999 NCD 23/20 Q1014",
      "taf": "TAF LICA 122300Z 1300/1324 08005KT CAVOK"
    },
    {
      "icao": "LICC",
      "alert": "OK",
      "vis_m": 9999,
      "fzfg": false,
      "metar_trigger": false,
      "taf_trigger": false,
      "metar": "METAR LICC 122250Z 28004KT CAVOK 26/13 Q1013",
      "taf": "TAF LICC 122300Z 1300/1324 VRB05KT CAVOK"
    },
    {
      "icao": "LICJ",
      "alert": "OK",
      "vis_m": 9999,
      "fzfg": false,
      "metar_trigger": false,
      "taf_trigger": false,
      "metar": "METAR LICJ 122250Z 07013KT CAVOK 28/23 Q1015",
      "taf": "TAF LICJ 122300Z 1300/1324 05010KT 9999 FEW020"
    },
    {
      "icao": "LIMC",
      "alert": "OK",
      "vis_m": 9999,
      "fzfg": false,
      "metar_trigger": false,
      "taf_trigger": false,
      "metar": "METAR LIMC 122250Z 04004KT CAVOK 24/18 Q1018 NOSIG",
      "taf": "TAF LIMC 122300Z 1300/1406 VRB05KT CAVOK"
    },
    {
      "icao": "LIME",
      "alert": "OK",
      "vis_m": 9999,
      "fzfg": false,
      "metar_trigger": false,
      "taf_trigger": false,
      "metar": "METAR LIME 122250Z 01004KT CAVOK 26/19 Q1018 NOSIG",
      "taf": "TAF LIME 122300Z 1300/1324 VRB05KT CAVOK"
    },
    {
      "icao": "LIMF",
      "alert": "OK",
      "vis_m": 9999,
      "fzfg": false,
      "metar_trigger": false,
      "taf_trigger": false,
      "metar": "METAR LIMF 122250Z 34006KT CAVOK 25/19 Q1018",
      "taf": "TAF LIMF 122300Z 1300/1324 VRB05KT CAVOK"
    },
    {
      "icao": "LIMJ",
      "alert": "OK",
      "vis_m": 9999,
      "fzfg": false,
      "metar_trigger": false,
      "taf_trigger": false,
      "metar": "METAR LIMJ 122250Z 06003KT CAVOK 27/20 Q1016",
      "taf": "TAF LIMJ 122300Z 1300/1324 VRB05KT CAVOK"
    },
    {
      "icao": "LIPE",
      "alert": "OK",
      "vis_m": 9999,
      "fzfg": false,
      "metar_trigger": false,
      "taf_trigger": false,
      "metar": "METAR LIPE 122250Z 09004KT CAVOK 24/19 Q1017",
      "taf": "TAF LIPE 122300Z 1300/1324 VRB05KT CAVOK"
    },
    {
      "icao": "LIPH",
      "alert": "OK",
      "vis_m": 9999,
      "fzfg": false,
      "metar_trigger": false,
      "taf_trigger": false,
      "metar": "METAR LIPH 122250Z AUTO 03002KT 9999 NCD 25/22 Q1018",
      "taf": "TAF LIPH 122300Z 1300/1324 VRB05KT CAVOK"
    },
    {
      "icao": "LIPQ",
      "alert": "OK",
      "vis_m": 9999,
      "fzfg": false,
      "metar_trigger": false,
      "taf_trigger": false,
      "metar": "METAR LIPQ 122250Z AUTO 03004KT 9999 BKN084/// 24/21 Q1018",
      "taf": "TAF LIPQ 122300Z 1300/1324 VRB05KT CAVOK"
    },
    {
      "icao": "LIPR",
      "alert": "OK",
      "vis_m": null,
      "fzfg": false,
      "metar_trigger": false,
      "taf_trigger": false,
      "metar": "",
      "taf": "TAF LIPR 122300Z 1300/1324 VRB05KT CAVOK"
    },
    {
      "icao": "LIPX",
      "alert": "OK",
      "vis_m": 9999,
      "fzfg": false,
      "metar_trigger": false,
      "taf_trigger": false,
      "metar": "METAR LIPX 122250Z 09005KT CAVOK 25/21 Q1018",
      "taf": "TAF LIPX 122300Z 1300/1324 VRB05KT CAVOK"
    },
    {
      "icao": "LIPY",
      "alert": "OK",
      "vis_m": 9999,
      "fzfg": false,
      "metar_trigger": false,
      "taf_trigger": false,
      "metar": "METAR LIPY 122250Z AUTO 16002KT 9999 NCD 23/16 Q1018",
      "taf": "TAF LIPY 122300Z 1300/1324 VRB05KT CAVOK"
    },
    {
      "icao": "LIPZ",
      "alert": "OK",
      "vis_m": 9999,
      "fzfg": false,
      "metar_trigger": false,
      "taf_trigger": false,
      "metar": "METAR LIPZ 122250Z 03005KT CAVOK 24/21 Q1018 NOSIG",
      "taf": "TAF LIPZ 122300Z 1300/1406 VRB05KT CAVOK"
    },
    {
      "icao": "LIRF",
      "alert": "OK",
      "vis_m": 9999,
      "fzfg": false,
      "metar_trigger": false,
      "taf_trigger": false,
      "metar": "METAR LIRF 122250Z 07002KT CAVOK 25/23 Q1015 NOSIG",
      "taf": "TAF LIRF 122300Z 1300/1406 05005KT CAVOK"
    },
    {
      "icao": "LIRN",
      "alert": "OK",
      "vis_m": 9999,
      "fzfg": false,
      "metar_trigger": false,
      "taf_trigger": false,
      "metar": "METAR LIRN 122250Z 07007KT 040V110 CAVOK 28/15 Q1016 NOSIG",
      "taf": "TAF LIRN 122300Z 1300/1324 01007KT CAVOK"
    },
    {
      "icao": "LIRP",
      "alert": "OK",
      "vis_m": 9999,
      "fzfg": false,
      "metar_trigger": false,
      "taf_trigger": false,
      "metar": "METAR LIRP 122245Z 20003KT CAVOK 22/20 Q1016 NOSIG",
      "taf": "TAF LIRP 122300Z 1300/1324 10003KT CAVOK"
    },
    {
      "icao": "LIRZ",
      "alert": "OK",
      "vis_m": 9999,
      "fzfg": false,
      "metar_trigger": false,
      "taf_trigger": false,
      "metar": "METAR LIRZ 122250Z AUTO 35008KT 9999 NCD 24/16 Q1017",
      "taf": "TAF LIRZ 122300Z 1300/1324 VRB05KT CAVOK"
    },
    {
      "icao": "LJLJ",
      "alert": "OK",
      "vis_m": 9999,
      "fzfg": false,
      "metar_trigger": false,
      "taf_trigger": false,
      "metar": "METAR LJLJ 122300Z 26002KT 9999 FEW070 17/15 Q1021 NOSIG",
      "taf": "TAF LJLJ 122300Z 1300/1400 30003KT 9999 FEW050"
    },
    {
      "icao": "LKMT",
      "alert": "OK",
      "vis_m": 9999,
      "fzfg": false,
      "metar_trigger": false,
      "taf_trigger": false,
      "metar": "METAR LKMT 122300Z 14003KT 9999 SCT046 17/17 Q1019 NOSIG",
      "taf": "TAF LKMT 122300Z 1300/1324 VRB02KT CAVOK"
    },
    {
      "icao": "LKPR",
      "alert": "OK",
      "vis_m": 9999,
      "fzfg": false,
      "metar_trigger": false,
      "taf_trigger": false,
      "metar": "METAR LKPR 122300Z VRB02KT CAVOK 19/12 Q1021 NOSIG",
      "taf": "TAF LKPR 122300Z 1300/1406 33008KT CAVOK"
    },
    {
      "icao": "LLBG",
      "alert": "OK",
      "vis_m": 9999,
      "fzfg": false,
      "metar_trigger": false,
      "taf_trigger": false,
      "metar": "METAR LLBG 122320Z 16007KT 9999 FEW022 25/22 Q1008 NOSIG",
      "taf": "TAF LLBG 122308Z 1300/1324 16004KT 9999 SCT022 TX31/1311Z TN23/1302Z"
    },
    {
      "icao": "LMML",
      "alert": "OK",
      "vis_m": 9999,
      "fzfg": false,
      "metar_trigger": false,
      "taf_trigger": false,
      "metar": "METAR LMML 122315Z VRB01KT 9999 FEW011 24/23 Q1014 NOSIG",
      "taf": "TAF LMML 122300Z 1300/1324 05008KT 9999 FEW010"
    },
    {
      "icao": "LOWW",
      "alert": "OK",
      "vis_m": 9999,
      "fzfg": false,
      "metar_trigger": false,
      "taf_trigger": false,
      "metar": "METAR LOWW 122320Z 31006KT CAVOK 22/13 Q1019 NOSIG",
      "taf": "TAF LOWW 122315Z 1300/1406 35005KT CAVOK TX30/1315Z TN17/1403Z"
    },
    {
      "icao": "LPFR",
      "alert": "OK",
      "vis_m": 9999,
      "fzfg": false,
      "metar_trigger": false,
      "taf_trigger": false,
      "metar": "METAR LPFR 122300Z 27007KT CAVOK 22/19 Q1016",
      "taf": "TAF LPFR 122300Z 1300/1324 25008KT CAVOK"
    },
    {
      "icao": "LPMA",
      "alert": "OK",
      "vis_m": 9999,
      "fzfg": false,
      "metar_trigger": false,
      "taf_trigger": false,
      "metar": "METAR LPMA 122300Z 00000KT 9999 BKN015 22/18 Q1018",
      "taf": "TAF LPMA 122300Z 1300/1324 VRB05KT 9999 SCT015"
    },
    {
      "icao": "LPPR",
      "alert": "OK",
      "vis_m": 9999,
      "fzfg": false,
      "metar_trigger": false,
      "taf_trigger": false,
      "metar": "METAR LPPR 122300Z 19006KT 9999 FEW014 19/16 Q1015",
      "taf": "TAF LPPR 122300Z 1300/1324 19008KT 9999 SCT015"
    },
    {
      "icao": "LPPS",
      "alert": "OK",
      "vis_m": 9999,
      "fzfg": false,
      "metar_trigger": false,
      "taf_trigger": false,
      "metar": "METAR LPPS 122300Z 31006KT 270V340 9999 FEW012 22/18 Q1018",
      "taf": "TAF LPPS 122300Z 1300/1406 VRB05KT 9999 SCT015"
    },
    {
      "icao": "LPPT",
      "alert": "OK",
      "vis_m": 9999,
      "fzfg": false,
      "metar_trigger": false,
      "taf_trigger": false,
      "metar": "METAR LPPT 122300Z 25006KT CAVOK 20/16 Q1016 NOSIG",
      "taf": "TAF LPPT 122300Z 1300/1406 25008KT CAVOK"
    },
    {
      "icao": "LQBK",
      "alert": "OK",
      "vis_m": 9999,
      "fzfg": false,
      "metar_trigger": false,
      "taf_trigger": false,
      "metar": "METAR LQBK 122300Z 14003KT CAVOK 16/12 Q1019 NOSIG",
      "taf": "TAF LQBK 122300Z 1300/1324 16005KT CAVOK TX33/1314Z TN16/1304Z"
    },
    {
      "icao": "LQSA",
      "alert": "OK",
      "vis_m": 9999,
      "fzfg": false,
      "metar_trigger": false,
      "taf_trigger": false,
      "metar": "METAR LQSA 122300Z 13003KT CAVOK 16/16 Q1021",
      "taf": "TAF LQSA 122300Z 1300/1324 VRB02KT CAVOK TX27/1313Z TN15/1303Z"
    },
    {
      "icao": "LQTZ",
      "alert": "OK",
      "vis_m": 9999,
      "fzfg": false,
      "metar_trigger": false,
      "taf_trigger": false,
      "metar": "METAR LQTZ 122300Z VRB01KT CAVOK 16/16 Q1019",
      "taf": "TAF LQTZ 122300Z 1300/1324 27006KT 9999 SCT050 TX29/1314Z TN14/1303Z"
    },
    {
      "icao": "LRBC",
      "alert": "OK",
      "vis_m": 9999,
      "fzfg": false,
      "metar_trigger": false,
      "taf_trigger": false,
      "metar": "METAR LRBC 122300Z 33007KT 9999 FEW025 16/15 Q1015",
      "taf": "TAF LRBC 122000Z 1221/1306 VRB04KT 9999 SCT040"
    },
    {
      "icao": "LRBS",
      "alert": "OK",
      "vis_m": 9999,
      "fzfg": false,
      "metar_trigger": false,
      "taf_trigger": false,
      "metar": "METAR LRBS 122300Z 11004KT 080V150 9999 FEW045CB 21/15 Q1015 NOSIG",
      "taf": "TAF LRBS 121700Z 1218/1318 VRB04KT 9999 SCT045"
    },
    {
      "icao": "LRBV",
      "alert": "OK",
      "vis_m": 9999,
      "fzfg": false,
      "metar_trigger": false,
      "taf_trigger": false,
      "metar": "METAR LRBV 122300Z AUTO 27004KT 210V340 9999 FEW078/// OVC110/// 13/12 Q1017",
      "taf": "TAF LRBV 121700Z 1218/1303 20006KT 9999 SCT015 SCT040"
    },
    {
      "icao": "LRCL",
      "alert": "OK",
      "vis_m": 8000,
      "fzfg": false,
      "metar_trigger": false,
      "taf_trigger": false,
      "metar": "METAR LRCL 122300Z 25003KT 220V310 8000 NSC 14/13 Q1016",
      "taf": "TAF LRCL 122000Z 1221/1306 27005KT 9999 SCT045"
    },
    {
      "icao": "LRCV",
      "alert": "OK",
      "vis_m": 9999,
      "fzfg": false,
      "metar_trigger": false,
      "taf_trigger": false,
      "metar": "METAR LRCV 122300Z 31007KT CAVOK 19/17 Q1015",
      "taf": "TAF LRCV 122000Z 1221/1306 26010KT CAVOK"
    },
    {
      "icao": "LRIA",
      "alert": "OK",
      "vis_m": 9999,
      "fzfg": false,
      "metar_trigger": false,
      "taf_trigger": false,
      "metar": "METAR LRIA 122300Z 28004KT 240V320 CAVOK 16/14 Q1015",
      "taf": "TAF LRIA 122000Z 1221/1306 30007KT CAVOK"
    },
    {
      "icao": "LROP",
      "alert": "OK",
      "vis_m": 9999,
      "fzfg": false,
      "metar_trigger": false,
      "taf_trigger": false,
      "metar": "METAR LROP 122300Z 11005KT 090V150 CAVOK 20/16 Q1015 NOSIG",
      "taf": "TAF LROP 121700Z 1218/1318 VRB04KT 9999 SCT045"
    },
    {
      "icao": "LRSB",
      "alert": "OK",
      "vis_m": 9999,
      "fzfg": false,
      "metar_trigger": false,
      "taf_trigger": false,
      "metar": "METAR LRSB 122300Z 23004KT CAVOK 14/13 Q1017",
      "taf": "TAF LRSB 121700Z 1218/1318 30012KT 9999 SCT045"
    },
    {
      "icao": "LRSM",
      "alert": "OK",
      "vis_m": 9999,
      "fzfg": false,
      "metar_trigger": false,
      "taf_trigger": false,
      "metar": "METAR LRSM 122300Z AUTO 00000KT 9999 BKN070/// OVC100/// 15/13 Q1016",
      "taf": ""
    },
    {
      "icao": "LRSV",
      "alert": "OK",
      "vis_m": 9999,
      "fzfg": false,
      "metar_trigger": false,
      "taf_trigger": false,
      "metar": "METAR LRSV 122300Z 32005KT CAVOK 14/12 Q1015",
      "taf": "TAF LRSV 122000Z 1221/1306 VRB04KT CAVOK"
    },
    {
      "icao": "LRTM",
      "alert": "OK",
      "vis_m": 9999,
      "fzfg": false,
      "metar_trigger": false,
      "taf_trigger": false,
      "metar": "METAR LRTM 122300Z 07005KT CAVOK 13/13 Q1016",
      "taf": "TAF LRTM 122000Z 1221/1306 VRB04KT 9999 SCT045"
    },
    {
      "icao": "LRTR",
      "alert": "OK",
      "vis_m": 9999,
      "fzfg": false,
      "metar_trigger": false,
      "taf_trigger": false,
      "metar": "METAR LRTR 122300Z 27004KT CAVOK 16/11 Q1015",
      "taf": "TAF LRTR 121700Z 1218/1318 34008KT CAVOK"
    },
    {
      "icao": "LTAC",
      "alert": "OK",
      "vis_m": 9999,
      "fzfg": false,
      "metar_trigger": false,
      "taf_trigger": false,
      "metar": "METAR LTAC 122250Z 05010KT CAVOK 20/11 Q1015 NOSIG RMK RWY21C 05005KT RWY03L 05008KT RWY21R 03007KT RWY03R 04012KT RWY21L 06007KT 020V080",
      "taf": "TAF LTAC 122240Z 1300/1324 VRB02KT CAVOK"
    },
    {
      "icao": "LTFM",
      "alert": "OK",
      "vis_m": 9999,
      "fzfg": false,
      "metar_trigger": false,
      "taf_trigger": false,
      "metar": "METAR LTFM 122250Z 09008KT CAVOK 23/17 Q1012 NOSIG RMK RWY17L 11004KT RWY34L 08008KT RWY16R 11006KT RWY36 09006KT 030V110 RWY18 11004KT",
      "taf": "TAF LTFM 122240Z 1300/1406 VRB02KT CAVOK"
    },
    {
      "icao": "LUKK",
      "alert": "OK",
      "vis_m": 9999,
      "fzfg": false,
      "metar_trigger": false,
      "taf_trigger": false,
      "metar": "METAR LUKK 122300Z 26005KT 210V300 9999 SCT049CB 19/15 Q1014 NOSIG",
      "taf": "TAF LUKK 122311Z 1300/1324 VRB04KT 9999 SCT045"
    },
    {
      "icao": "LWOH",
      "alert": "OK",
      "vis_m": 9999,
      "fzfg": false,
      "metar_trigger": false,
      "taf_trigger": false,
      "metar": "METAR LWOH 122320Z 35005KT CAVOK 17/13 Q1018",
      "taf": "TAF LWOH 122010Z 1221/1321 32006KT 9999 FEW040"
    },
    {
      "icao": "LWSK",
      "alert": "OK",
      "vis_m": 9999,
      "fzfg": false,
      "metar_trigger": false,
      "taf_trigger": false,
      "metar": "METAR LWSK 122320Z 30003KT 210V340 9999 FEW040 BKN100 21/18 Q1017 NOSIG",
      "taf": "TAF LWSK 122010Z 1221/1321 VRB03KT 9999 FEW050 SCT100"
    },
    {
      "icao": "LYBE",
      "alert": "OK",
      "vis_m": 9999,
      "fzfg": false,
      "metar_trigger": false,
      "taf_trigger": false,
      "metar": "METAR LYBE 122300Z 30006KT CAVOK 19/13 Q1017 NOSIG",
      "taf": "TAF LYBE 122300Z 1300/1324 26006KT CAVOK TX29/1314Z TN16/1303Z"
    },
    {
      "icao": "LYNI",
      "alert": "OK",
      "vis_m": 9999,
      "fzfg": false,
      "metar_trigger": false,
      "taf_trigger": false,
      "metar": "METAR LYNI 122300Z 00000KT CAVOK 18/17 Q1017 NOSIG",
      "taf": "TAF LYNI 122300Z 1300/1324 26004KT CAVOK TX28/1314Z TN15/1303Z"
    },
    {
      "icao": "LYPG",
      "alert": "OK",
      "vis_m": 9999,
      "fzfg": false,
      "metar_trigger": false,
      "taf_trigger": false,
      "metar": "METAR LYPG 122300Z 34014KT CAVOK 26/14 Q1015 NOSIG",
      "taf": "TAF LYPG 122300Z 1300/1324 36013KT CAVOK TX35/1314Z TN25/1303Z"
    },
    {
      "icao": "LZIB",
      "alert": "OK",
      "vis_m": 9999,
      "fzfg": false,
      "metar_trigger": false,
      "taf_trigger": false,
      "metar": "METAR LZIB 122300Z 31007KT CAVOK 23/13 Q1018 NOSIG",
      "taf": "TAF LZIB 122315Z 1300/1400 31007KT CAVOK"
    },
    {
      "icao": "LZKZ",
      "alert": "OK",
      "vis_m": 9999,
      "fzfg": false,
      "metar_trigger": false,
      "taf_trigger": false,
      "metar": "METAR LZKZ 122300Z VRB03KT 9999 FEW025 SCT035 16/15 Q1017 NOSIG",
      "taf": "TAF LZKZ 122315Z 1300/1400 VRB02KT 9999 FEW025 SCT035"
    },
    {
      "icao": "LZTT",
      "alert": "OK",
      "vis_m": 9999,
      "fzfg": false,
      "metar_trigger": false,
      "taf_trigger": false,
      "metar": "METAR LZTT 122300Z 27003KT 9999 SCT004 BKN030 13/13 Q1018",
      "taf": "TAF LZTT 122315Z 1300/1400 27004KT 9999 SCT010 BKN030"
    },
    {
      "icao": "OEJN",
      "alert": "OK",
      "vis_m": 9999,
      "fzfg": false,
      "metar_trigger": false,
      "taf_trigger": false,
      "metar": "METAR OEJN 122300Z VRB03KT 9999 FEW040 33/14 Q1003 NOSIG",
      "taf": "TAF OEJN 122300Z 1300/1406 VRB03KT 9999 FEW040"
    },
    {
      "icao": "OEMA",
      "alert": "OK",
      "vis_m": 9999,
      "fzfg": false,
      "metar_trigger": false,
      "taf_trigger": false,
      "metar": "METAR OEMA 122300Z 33003KT CAVOK 36/06 Q1008 NOSIG",
      "taf": "TAF OEMA 122300Z 1300/1406 VRB03KT CAVOK"
    },
    {
      "icao": "OJAI",
      "alert": "OK",
      "vis_m": 5000,
      "fzfg": false,
      "metar_trigger": false,
      "taf_trigger": false,
      "metar": "METAR OJAI 122300Z 25005KT 5000 HZ NSC 20/14 Q1012 NOSIG",
      "taf": "TAF OJAI 122300Z 1300/1406 30010KT 5000 HZ NSC"
    },
    {
      "icao": "OMAA",
      "alert": "OK",
      "vis_m": 9999,
      "fzfg": false,
      "metar_trigger": false,
      "taf_trigger": false,
      "metar": "METAR OMAA 122300Z 28003KT CAVOK 33/26 Q0996 NOSIG",
      "taf": "TAF OMAA 122300Z 1300/1406 21007KT 8000 NSC"
    },
    {
      "icao": "OMDB",
      "alert": "OK",
      "vis_m": 9000,
      "fzfg": false,
      "metar_trigger": false,
      "taf_trigger": false,
      "metar": "METAR OMDB 122300Z 19005KT 130V230 9000 NSC 33/27 Q0996 NOSIG",
      "taf": "TAF OMDB 122300Z 1300/1406 18005KT 8000 NSC"
    },
    {
      "icao": "UAAA",
      "alert": "OK",
      "vis_m": 9999,
      "fzfg": false,
      "metar_trigger": false,
      "taf_trigger": false,
      "metar": "METAR UAAA 122300Z 17002MPS 9999 FEW050CB SCT100 BKN200 21/11 Q1005 NOSIG",
      "taf": "TAF UAAA 122301Z 1300/1324 19002MPS 9999 SCT050CB BKN100 TX32/1310Z TN20/1301Z"
    },
    {
      "icao": "UBBB",
      "alert": "OK",
      "vis_m": 9999,
      "fzfg": false,
      "metar_trigger": false,
      "taf_trigger": false,
      "metar": "METAR UBBB 122300Z 31010KT CAVOK 25/20 Q1009 NOSIG",
      "taf": "TAF UBBB 122305Z 1300/1324 32012KT CAVOK TX31/1310Z TN22/1301Z"
    },
    {
      "icao": "UDSG",
      "alert": "OK",
      "vis_m": 9999,
      "fzfg": false,
      "metar_trigger": false,
      "taf_trigger": false,
      "metar": "METAR UDSG 122300Z 24004KT 9999 FEW049 18/15 Q1018 NOSIG",
      "taf": "TAF UDSG 122300Z 1300/1324 VRB06KT 9999 FEW050"
    },
    {
      "icao": "UDYZ",
      "alert": "OK",
      "vis_m": 9999,
      "fzfg": false,
      "metar_trigger": false,
      "taf_trigger": false,
      "metar": "METAR UDYZ 122300Z 35009KT 9999 NSC 26/15 Q1011 NOSIG",
      "taf": "TAF UDYZ 122300Z 1300/1324 33010KT 9999 FEW040"
    },
    {
      "icao": "UGKO",
      "alert": "OK",
      "vis_m": 9999,
      "fzfg": false,
      "metar_trigger": false,
      "taf_trigger": false,
      "metar": "METAR UGKO 122300Z 08005KT 9999 BKN028 OVC032 21/19 Q1012 NOSIG",
      "taf": "TAF UGKO 122300Z 1300/1324 08007KT 9999 SCT020 BKN050 TX28/1311Z TN20/1301Z"
    }
  ]
}