{
  "ts_utc": "2026-01-06T06:47:54Z",
  "threshold_m": 150,
  "source": "stations_override.txt (ICAO list) + aviationweather.gov (METAR/TAF raw)",
  "station_count": 159,
  "stations": [
    {
      "icao": "BIKF",
      "alert": "OK",
      "vis_m": 9999,
      "fzfg": false,
      "metar_trigger": false,
      "taf_trigger": false,
      "metar": "METAR BIKF 060630Z 07006KT CAVOK M04/M09 Q1020",
      "taf": "TAF BIKF 060439Z 0606/0706 07015KT CAVOK TXM01/0703Z TNM06/0610Z"
    },
    {
      "icao": "BKPR",
      "alert": "OK",
      "vis_m": 9999,
      "fzfg": false,
      "metar_trigger": false,
      "taf_trigger": false,
      "metar": "METAR BKPR 060630Z 18005KT 9999 -RA BKN040 07/07 Q1009 NOSIG",
      "taf": "TAF BKPR 060530Z 0606/0706 17008KT 9999 SCT020 BKN040"
    },
    {
      "icao": "EBCI",
      "alert": "OK",
      "vis_m": 600,
      "fzfg": true,
      "metar_trigger": false,
      "taf_trigger": false,
      "metar": "METAR EBCI 060620Z 25006KT 0600 R24/P2000N FZFG BKN001 BKN025 M04/M04 Q1015 TEMPO 0100 -SHSN FZFG BKN001",
      "taf": "TAF EBCI 060500Z 0606/0712 26007KT 9999 SCT006 BKN010"
    },
    {
      "icao": "EDDB",
      "alert": "OK",
      "vis_m": 9999,
      "fzfg": false,
      "metar_trigger": false,
      "taf_trigger": false,
      "metar": "METAR EDDB 060620Z AUTO 19005KT CAVOK M10/M11 Q1013 TEMPO BKN014",
      "taf": "TAF EDDB 060500Z 0606/0706 09004KT CAVOK"
    },
    {
      "icao": "EDDH",
      "alert": "OK",
      "vis_m": 6000,
      "fzfg": false,
      "metar_trigger": false,
      "taf_trigger": false,
      "metar": "METAR EDDH 060620Z AUTO 22005KT 6000 -SHSN BKN008 BKN017 FEW///TCU M01/M02 Q1012 TEMPO 1400 SHSN BKN004",
      "taf": "TAF EDDH 060500Z 0606/0712 20005KT 8000 OVC007"
    },
    {
      "icao": "EDDK",
      "alert": "OK",
      "vis_m": 9999,
      "fzfg": false,
      "metar_trigger": false,
      "taf_trigger": false,
      "metar": "METAR EDDK 060620Z AUTO 15004KT 9999 OVC011 M02/M04 Q1014 TEMPO 1200 SN OVC007",
      "taf": "TAF EDDK 060500Z 0606/0712 21004KT 9999 BKN010"
    },
    {
      "icao": "EDDN",
      "alert": "OK",
      "vis_m": 9999,
      "fzfg": false,
      "metar_trigger": false,
      "taf_trigger": false,
      "metar": "METAR EDDN 060620Z AUTO 11006KT 9999 BKN017 BKN048 M11/M13 Q1014 NOSIG",
      "taf": "TAF EDDN 060500Z 0606/0706 12006KT 9999 BKN020"
    },
    {
      "icao": "EDDS",
      "alert": "OK",
      "vis_m": 9999,
      "fzfg": false,
      "metar_trigger": false,
      "taf_trigger": false,
      "metar": "METAR EDDS 060620Z AUTO VRB02KT 9999 BKN035 M07/M10 Q1013 TEMPO 4000 -SN",
      "taf": "TAF EDDS 060500Z 0606/0706 VRB03KT 9999 BKN020"
    },
    {
      "icao": "EDFH",
      "alert": "OK",
      "vis_m": 4500,
      "fzfg": false,
      "metar_trigger": false,
      "taf_trigger": false,
      "metar": "METAR EDFH 060620Z 26006KT 4500 -SN BR OVC001 M05/M06 Q1012",
      "taf": ""
    },
    {
      "icao": "EDJA",
      "alert": "OK",
      "vis_m": 9999,
      "fzfg": false,
      "metar_trigger": false,
      "taf_trigger": false,
      "metar": "METAR EDJA 060620Z 16005KT CAVOK M16/M18 Q1012",
      "taf": "TAF EDJA 060500Z 0606/0615 VRB03KT CAVOK"
    },
    {
      "icao": "EDLW",
      "alert": "OK",
      "vis_m": 9999,
      "fzfg": false,
      "metar_trigger": false,
      "taf_trigger": false,
      "metar": "METAR EDLW 060620Z 22009KT 9999 SCT007 OVC009 M02/M03 Q1013",
      "taf": "TAF EDLW 060500Z 0606/0706 21008KT 9999 BKN012"
    },
    {
      "icao": "EDNY",
      "alert": "OK",
      "vis_m": 9999,
      "fzfg": false,
      "metar_trigger": false,
      "taf_trigger": false,
      "metar": "METAR EDNY 060620Z 05006KT 9999 SCT010 OVC012 M09/M11 Q1014",
      "taf": "TAF EDNY 060500Z 0606/0615 VRB03KT 9999 OVC012"
    },
    {
      "icao": "EDSB",
      "alert": "OK",
      "vis_m": 9000,
      "fzfg": false,
      "metar_trigger": false,
      "taf_trigger": false,
      "metar": "METAR EDSB 060620Z 19007KT 9000 -SN OVC016 M05/M06 Q1016 RESN",
      "taf": "TAF EDSB 060500Z 0606/0706 20004KT 9999 BKN020"
    },
    {
      "icao": "EETN",
      "alert": "OK",
      "vis_m": 9999,
      "fzfg": false,
      "metar_trigger": false,
      "taf_trigger": false,
      "metar": "METAR EETN 060620Z 10011KT CAVOK M12/M13 Q1018 NOSIG",
      "taf": "TAF EETN 060530Z 0606/0706 14012KT CAVOK"
    },
    {
      "icao": "EFTU",
      "alert": "OK",
      "vis_m": 9999,
      "fzfg": false,
      "metar_trigger": false,
      "taf_trigger": false,
      "metar": "METAR EFTU 060620Z AUTO 11008KT 9999 BKN023 M11/M14 Q1017",
      "taf": "TAF EFTU 060525Z 0606/0706 10007KT CAVOK"
    },
    {
      "icao": "EGBB",
      "alert": "OK",
      "vis_m": 9999,
      "fzfg": false,
      "metar_trigger": false,
      "taf_trigger": false,
      "metar": "METAR EGBB 060620Z 24005KT CAVOK M03/M04 Q1016",
      "taf": "TAF EGBB 060456Z 0606/0706 21007KT 9999 FEW035"
    },
    {
      "icao": "EGGP",
      "alert": "OK",
      "vis_m": 9999,
      "fzfg": false,
      "metar_trigger": false,
      "taf_trigger": false,
      "metar": "METAR EGGP 060620Z 18004KT 9999 -RA SCT012 BKN017 00/M01 Q1015",
      "taf": "TAF EGGP 060454Z 0606/0706 31005KT 9999 FEW030"
    },
    {
      "icao": "EGGW",
      "alert": "OK",
      "vis_m": 9999,
      "fzfg": false,
      "metar_trigger": false,
      "taf_trigger": false,
      "metar": "METAR EGGW 060620Z AUTO 27008KT 9999 NCD M04/M06 Q1016",
      "taf": "TAF EGGW 060503Z 0606/0706 26007KT CAVOK"
    },
    {
      "icao": "EGKK",
      "alert": "OK",
      "vis_m": 9999,
      "fzfg": false,
      "metar_trigger": false,
      "taf_trigger": false,
      "metar": "METAR EGKK 060620Z VRB02KT CAVOK M07/M07 Q1018",
      "taf": "TAF EGKK 060455Z 0606/0712 24005KT CAVOK"
    },
    {
      "icao": "EGNM",
      "alert": "OK",
      "vis_m": 9999,
      "fzfg": false,
      "metar_trigger": false,
      "taf_trigger": false,
      "metar": "METAR EGNM 060620Z 27008KT CAVOK M02/M05 Q1013",
      "taf": "TAF EGNM 060454Z 0606/0706 27009KT 9999 FEW040"
    },
    {
      "icao": "EGPD",
      "alert": "OK",
      "vis_m": 9999,
      "fzfg": false,
      "metar_trigger": false,
      "taf_trigger": false,
      "metar": "METAR EGPD 060620Z AUTO 17004KT 110V230 9999 NCD M01/M05 Q1009 TEMPO 4000 -SN",
      "taf": "TAF EGPD 060456Z 0606/0706 20004KT 9999 FEW012"
    },
    {
      "icao": "EGPF",
      "alert": "OK",
      "vis_m": 9999,
      "fzfg": false,
      "metar_trigger": false,
      "taf_trigger": false,
      "metar": "METAR EGPF 060620Z AUTO 07001KT 9999 FEW038 M02/M03 Q1011 RERA",
      "taf": ""
    },
    {
      "icao": "EHBK",
      "alert": "OK",
      "vis_m": 9999,
      "fzfg": false,
      "metar_trigger": false,
      "taf_trigger": false,
      "metar": "METAR EHBK 060625Z AUTO 30003KT 270V340 9999 BKN005/// OVC006/// M01/M02 Q1014 NOSIG",
      "taf": "TAF EHBK 060523Z 0606/0712 20008KT 6000 BKN018"
    },
    {
      "icao": "EHEH",
      "alert": "OK",
      "vis_m": 1800,
      "fzfg": false,
      "metar_trigger": false,
      "taf_trigger": false,
      "metar": "SPECI EHEH 060525Z AUTO 31003KT 260V010 1800 R21/2500U BR OVC001 M01/M01 Q1015 RED RMK TREND REMOTE BY EHWX",
      "taf": "TAF EHEH 060550Z 0606/0712 29003KT 3000 BR BKN002 OVC003"
    },
    {
      "icao": "EKBI",
      "alert": "OK",
      "vis_m": 350,
      "fzfg": true,
      "metar_trigger": false,
      "taf_trigger": false,
      "metar": "METAR EKBI 060620Z AUTO 19002KT 0350 R09/1000D R27/0800N -SN FZFG OVC002/// M05/M06 Q1010",
      "taf": "TAF EKBI 060527Z 0606/0706 VRB02KT 0200 FZFG VV002"
    },
    {
      "icao": "EKCH",
      "alert": "OK",
      "vis_m": 5000,
      "fzfg": false,
      "metar_trigger": false,
      "taf_trigger": false,
      "metar": "METAR EKCH 060620Z 25002KT 5000 FEW002 BKN041 M03/M03 Q1011 TEMPO 3000 BR",
      "taf": ""
    },
    {
      "icao": "ENAL",
      "alert": "OK",
      "vis_m": 9999,
      "fzfg": false,
      "metar_trigger": false,
      "taf_trigger": false,
      "metar": "METAR ENAL 060620Z 14013KT CAVOK M06/M11 Q1011",
      "taf": "TAF ENAL 060500Z 0606/0615 14008KT CAVOK"
    },
    {
      "icao": "ENBR",
      "alert": "OK",
      "vis_m": 9999,
      "fzfg": false,
      "metar_trigger": false,
      "taf_trigger": false,
      "metar": "METAR ENBR 060620Z 08003KT 050V110 CAVOK M08/M12 Q1010 NOSIG RMK WIND 1200FT 12010KT",
      "taf": "TAF ENBR 060500Z 0606/0706 07005KT CAVOK"
    },
    {
      "icao": "ENGM",
      "alert": "OK",
      "vis_m": 2300,
      "fzfg": false,
      "metar_trigger": false,
      "taf_trigger": false,
      "metar": "METAR ENGM 060620Z 02007KT 2300 -SN BR OVC019 M09/M10 Q1011 TEMPO 3000 BKN014",
      "taf": "TAF ENGM 060500Z 0606/0706 01009KT 8000 -SN FEW008 BKN020"
    },
    {
      "icao": "ENHD",
      "alert": "OK",
      "vis_m": 9999,
      "fzfg": false,
      "metar_trigger": false,
      "taf_trigger": false,
      "metar": "METAR ENHD 060620Z 10006KT CAVOK M04/M07 Q1010",
      "taf": "TAF ENHD 060500Z 0606/0615 09008KT 9999 SCT035"
    },
    {
      "icao": "ENTC",
      "alert": "OK",
      "vis_m": 9999,
      "fzfg": false,
      "metar_trigger": false,
      "taf_trigger": false,
      "metar": "METAR ENTC 060620Z 17003KT 140V210 CAVOK M12/M14 Q1017 NOSIG RMK WIND 2600FT 18004KT",
      "taf": "TAF ENTC 060500Z 0606/0706 22005KT CAVOK"
    },
    {
      "icao": "ENTO",
      "alert": "OK",
      "vis_m": 3400,
      "fzfg": false,
      "metar_trigger": false,
      "taf_trigger": false,
      "metar": "METAR ENTO 060620Z 35009KT 3400 -SN OVC012 M09/M11 Q1012 NOSIG",
      "taf": ""
    },
    {
      "icao": "ENVA",
      "alert": "OK",
      "vis_m": 9999,
      "fzfg": false,
      "metar_trigger": false,
      "taf_trigger": false,
      "metar": "METAR ENVA 060620Z 12009KT CAVOK M17/M20 Q1015 NOSIG RMK WIND 670FT 11009KT",
      "taf": "TAF ENVA 060500Z 0606/0706 12008KT CAVOK"
    },
    {
      "icao": "ENZV",
      "alert": "OK",
      "vis_m": 9999,
      "fzfg": false,
      "metar_trigger": false,
      "taf_trigger": false,
      "metar": "METAR ENZV 060620Z 08005KT 9999 -SN BKN031 M03/M05 Q1010 TEMPO 3000 SHSN BKN012",
      "taf": "TAF ENZV 060500Z 0606/0706 06008KT 9999 FEW010 BKN035"
    },
    {
      "icao": "EPGD",
      "alert": "OK",
      "vis_m": 4200,
      "fzfg": false,
      "metar_trigger": false,
      "taf_trigger": false,
      "metar": "METAR EPGD 060630Z 20003KT 190V270 4200 BR SCT046 M06/M06 Q1012",
      "taf": ""
    },
    {
      "icao": "EPKK",
      "alert": "OK",
      "vis_m": 9000,
      "fzfg": false,
      "metar_trigger": false,
      "taf_trigger": false,
      "metar": "METAR EPKK 060630Z 26008KT 9000 NSC M03/M07 Q1012",
      "taf": "TAF EPKK 060530Z 0606/0706 25010KT 9000 BKN060"
    },
    {
      "icao": "EPKT",
      "alert": "OK",
      "vis_m": 4700,
      "fzfg": false,
      "metar_trigger": false,
      "taf_trigger": false,
      "metar": "METAR EPKT 060630Z 26005KT 4700 BR NSC M12/M13 Q1012",
      "taf": "TAF EPKT 060530Z 0606/0706 27005KT 3500 BR NSC"
    },
    {
      "icao": "EPLB",
      "alert": "OK",
      "vis_m": 9999,
      "fzfg": false,
      "metar_trigger": false,
      "taf_trigger": false,
      "metar": "METAR EPLB 060630Z 30003KT 9999 OVC014 M04/M04 Q1011",
      "taf": "TAF EPLB 060530Z 0606/0706 08006KT 6000 -SN BKN018"
    },
    {
      "icao": "EPMO",
      "alert": "OK",
      "vis_m": 3200,
      "fzfg": false,
      "metar_trigger": false,
      "taf_trigger": false,
      "metar": "METAR EPMO 060630Z 29002KT 3200 BR FEW029 M14/M15 Q1013",
      "taf": "TAF EPMO 060530Z 0606/0706 30003KT 3000 BR SCT025"
    },
    {
      "icao": "EPPO",
      "alert": "WARNING",
      "vis_m": 1900,
      "fzfg": true,
      "metar_trigger": false,
      "taf_trigger": true,
      "metar": "METAR EPPO 060630Z 20001KT 1900 0100NW BCFG BR NSC M12/M14 Q1013",
      "taf": "TAF EPPO 060530Z 0606/0706 VRB02KT 0100 FZFG NSC"
    },
    {
      "icao": "EPRA",
      "alert": "OK",
      "vis_m": 9999,
      "fzfg": false,
      "metar_trigger": false,
      "taf_trigger": false,
      "metar": "METAR EPRA 060630Z 30005KT CAVOK M07/M09 Q1011",
      "taf": "TAF EPRA 060530Z 0606/0615 30006KT CAVOK"
    },
    {
      "icao": "EPRZ",
      "alert": "OK",
      "vis_m": 6000,
      "fzfg": false,
      "metar_trigger": false,
      "taf_trigger": false,
      "metar": "METAR EPRZ 060630Z 27008KT 6000 -SN OVC017 M04/M06 Q1011",
      "taf": "TAF EPRZ 060530Z 0606/0706 26010KT 7000 -SN FEW005 OVC017"
    },
    {
      "icao": "EPSC",
      "alert": "OK",
      "vis_m": 9999,
      "fzfg": false,
      "metar_trigger": false,
      "taf_trigger": false,
      "metar": "METAR EPSC 060630Z 15006KT 9999 OVC046 M06/M07 Q1013",
      "taf": "TAF EPSC 060530Z 0606/0706 18006KT 9999 SCT035"
    },
    {
      "icao": "EPSY",
      "alert": "OK",
      "vis_m": 7000,
      "fzfg": false,
      "metar_trigger": false,
      "taf_trigger": false,
      "metar": "METAR EPSY 060630Z VRB02KT 7000 BKN028 BKN046 M09/M10 Q1012",
      "taf": "TAF EPSY 060530Z 0606/0615 VRB02KT 8000 BKN030"
    },
    {
      "icao": "EPWA",
      "alert": "OK",
      "vis_m": 6000,
      "fzfg": false,
      "metar_trigger": false,
      "taf_trigger": false,
      "metar": "METAR EPWA 060630Z 25005KT 6000 BKN022 M10/M11 Q1012 TEMPO 4000 BR",
      "taf": "TAF EPWA 060530Z 0606/0706 30003KT 8000 BKN025"
    },
    {
      "icao": "EPWR",
      "alert": "OK",
      "vis_m": 9999,
      "fzfg": false,
      "metar_trigger": false,
      "taf_trigger": false,
      "metar": "METAR EPWR 060630Z 24003KT 9999 FEW030 BKN040 M06/M09 Q1014",
      "taf": "TAF EPWR 060530Z 0606/0706 24007KT 9999 BKN035"
    },
    {
      "icao": "ESGG",
      "alert": "OK",
      "vis_m": 200,
      "fzfg": true,
      "metar_trigger": false,
      "taf_trigger": false,
      "metar": "METAR ESGG 060620Z 07005KT 0200 R03/P2000N R21/1200D FZFG NSC M11/M12 Q1010",
      "taf": ""
    },
    {
      "icao": "ESKN",
      "alert": "OK",
      "vis_m": 7000,
      "fzfg": false,
      "metar_trigger": false,
      "taf_trigger": false,
      "metar": "METAR ESKN 060620Z 31006KT 7000 0600W R08/P2000N R26/P2000N -SN SCT005 BKN017 M05/M05 Q1010",
      "taf": "TAF ESKN 060530Z 0606/0706 VRB03KT 9000 -SN SCT006 BKN030"
    },
    {
      "icao": "ESMS",
      "alert": "CRITICAL",
      "vis_m": 50,
      "fzfg": true,
      "metar_trigger": true,
      "taf_trigger": false,
      "metar": "METAR ESMS 060620Z 00000KT 0050 R17/0650N R35/0350N FZFG VV001 M07/M07 Q1010",
      "taf": ""
    },
    {
      "icao": "ESSA",
      "alert": "OK",
      "vis_m": 9999,
      "fzfg": false,
      "metar_trigger": false,
      "taf_trigger": false,
      "metar": "METAR ESSA 060620Z 11006KT 9999 BKN042 M02/M04 Q1010 TEMPO 1400 SHSN BKN009",
      "taf": "TAF ESSA 060530Z 0606/0706 09008KT 9999 SCT035"
    },
    {
      "icao": "EYKA",
      "alert": "OK",
      "vis_m": 9999,
      "fzfg": false,
      "metar_trigger": false,
      "taf_trigger": false,
      "metar": "METAR EYKA 060620Z 09005KT CAVOK M11/M13 Q1016",
      "taf": "TAF EYKA 060526Z 0606/0706 09007KT 9000 NSC"
    },
    {
      "icao": "EYPA",
      "alert": "OK",
      "vis_m": 9999,
      "fzfg": false,
      "metar_trigger": false,
      "taf_trigger": false,
      "metar": "METAR EYPA 060620Z 15011KT 9999 -SHSN FEW017 SCT035CB BKN047 M04/M05 Q1013",
      "taf": "TAF EYPA 060515Z 0606/0706 15010KT 7000 BKN035"
    },
    {
      "icao": "EYVI",
      "alert": "OK",
      "vis_m": 9999,
      "fzfg": false,
      "metar_trigger": false,
      "taf_trigger": false,
      "metar": "METAR EYVI 060620Z 11007KT CAVOK M07/M09 Q1015 NOSIG",
      "taf": "TAF EYVI 060509Z 0606/0706 VRB04KT 9000 BKN020"
    },
    {
      "icao": "GCFV",
      "alert": "OK",
      "vis_m": 9999,
      "fzfg": false,
      "metar_trigger": false,
      "taf_trigger": false,
      "metar": "METAR GCFV 060630Z 34011KT 9999 SCT035 BKN045 16/07 Q1021",
      "taf": "TAF GCFV 060200Z 0603/0703 36013KT 9999 SCT030 TX21/0614Z TN15/0606Z"
    },
    {
      "icao": "GCLP",
      "alert": "OK",
      "vis_m": 9999,
      "fzfg": false,
      "metar_trigger": false,
      "taf_trigger": false,
      "metar": "METAR GCLP 060630Z 02013KT 350V050 9999 FEW035 BKN055 16/12 Q1021 NOSIG",
      "taf": "TAF GCLP 060200Z 0603/0703 36014KT 9999 SCT025 BKN035 TX21/0614Z TN15/0606Z"
    },
    {
      "icao": "GCTS",
      "alert": "OK",
      "vis_m": 9999,
      "fzfg": false,
      "metar_trigger": false,
      "taf_trigger": false,
      "metar": "METAR GCTS 060630Z 06014KT 9999 FEW045 16/09 Q1021 NOSIG",
      "taf": "TAF GCTS 060200Z 0603/0703 06014KT 9999 SCT040 TX23/0614Z TN16/0606Z"
    },
    {
      "icao": "GMAD",
      "alert": "OK",
      "vis_m": 9999,
      "fzfg": false,
      "metar_trigger": false,
      "taf_trigger": false,
      "metar": "METAR GMAD 060630Z 17007KT 9999 FEW026 09/08 Q1014 NOSIG",
      "taf": "TAF GMAD 060500Z 0606/0712 24006KT 8000 SCT023"
    },
    {
      "icao": "GMMN",
      "alert": "OK",
      "vis_m": 8000,
      "fzfg": false,
      "metar_trigger": false,
      "taf_trigger": false,
      "metar": "METAR GMMN 060630Z 31004KT 8000 -RA BKN012 BKN020 08/06 Q1018 NOSIG",
      "taf": "TAF GMMN 060500Z 0606/0712 25006KT 9999 BKN030"
    },
    {
      "icao": "GMMX",
      "alert": "OK",
      "vis_m": 8000,
      "fzfg": false,
      "metar_trigger": false,
      "taf_trigger": false,
      "metar": "METAR GMMX 060630Z 23004KT 8000 BKN023 09/07 Q1018 NOSIG",
      "taf": ""
    },
    {
      "icao": "HEGN",
      "alert": "OK",
      "vis_m": 9999,
      "fzfg": false,
      "metar_trigger": false,
      "taf_trigger": false,
      "metar": "METAR HEGN 060600Z 30008KT CAVOK 18/02 Q1020 NOSIG",
      "taf": "TAF HEGN 060500Z 0606/0712 32013KT CAVOK"
    },
    {
      "icao": "HEMA",
      "alert": "OK",
      "vis_m": 9999,
      "fzfg": false,
      "metar_trigger": false,
      "taf_trigger": false,
      "metar": "METAR HEMA 060600Z 30011KT CAVOK 21/11 Q1019 NOSIG",
      "taf": "TAF HEMA 060500Z 0606/0712 33014KT CAVOK"
    },
    {
      "icao": "HESH",
      "alert": "OK",
      "vis_m": 9999,
      "fzfg": false,
      "metar_trigger": false,
      "taf_trigger": false,
      "metar": "METAR HESH 060600Z 33006KT CAVOK 20/11 Q1020 NOSIG",
      "taf": "TAF HESH 060500Z 0606/0712 35011KT CAVOK"
    },
    {
      "icao": "HESX",
      "alert": "OK",
      "vis_m": 9999,
      "fzfg": false,
      "metar_trigger": false,
      "taf_trigger": false,
      "metar": "METAR HESX 060600Z 24002KT CAVOK 08/00 Q1021 NOSIG",
      "taf": "TAF HESX 060500Z 0606/0712 VRB02KT 6000 NSC"
    },
    {
      "icao": "LATI",
      "alert": "OK",
      "vis_m": null,
      "fzfg": false,
      "metar_trigger": false,
      "taf_trigger": false,
      "metar": "",
      "taf": "TAF LATI 060500Z 0606/0706 VRB04KT 9999 RA BKN030 OVC060 TX16/0612Z TN12/0705Z"
    },
    {
      "icao": "LBPD",
      "alert": "OK",
      "vis_m": 500,
      "fzfg": false,
      "metar_trigger": false,
      "taf_trigger": false,
      "metar": "METAR LBPD 060630Z AUTO 00000KT 0500 0300SW R30/0650N -SHRA FG FEW005/// 03/03 Q1011 TEMPO 0600 BCFG",
      "taf": ""
    },
    {
      "icao": "LBSF",
      "alert": "OK",
      "vis_m": 9999,
      "fzfg": false,
      "metar_trigger": false,
      "taf_trigger": false,
      "metar": "METAR LBSF 060630Z 13008KT 110V210 9999 SCT053 BKN068 09/04 Q1009 NOSIG",
      "taf": "TAF LBSF 060500Z 0606/0706 10012KT 9999 SCT040 BKN060"
    },
    {
      "icao": "LBWN",
      "alert": "OK",
      "vis_m": 9999,
      "fzfg": false,
      "metar_trigger": false,
      "taf_trigger": false,
      "metar": "METAR LBWN 060630Z 11005KT 9999 FEW026 11/11 Q1012 NOSIG",
      "taf": "TAF LBWN 060500Z 0606/0706 11008KT 9999 SCT030"
    },
    {
      "icao": "LCLK",
      "alert": "OK",
      "vis_m": 9999,
      "fzfg": false,
      "metar_trigger": false,
      "taf_trigger": false,
      "metar": "METAR LCLK 060630Z 33006KT CAVOK 14/10 Q1022 NOSIG",
      "taf": "TAF LCLK 060530Z 0606/0706 35010KT CAVOK"
    },
    {
      "icao": "LCPH",
      "alert": "OK",
      "vis_m": 9999,
      "fzfg": false,
      "metar_trigger": false,
      "taf_trigger": false,
      "metar": "METAR LCPH 060630Z 02008KT 010V070 9999 SCT036 13/04 Q1021 NOSIG",
      "taf": "TAF LCPH 060530Z 0606/0706 06008KT 9999 FEW040"
    },
    {
      "icao": "LEAL",
      "alert": "OK",
      "vis_m": 9999,
      "fzfg": false,
      "metar_trigger": false,
      "taf_trigger": false,
      "metar": "METAR LEAL 060630Z 31009KT 280V340 9999 SCT025 OVC059 07/02 Q1011 NOSIG",
      "taf": "TAF LEAL 060500Z 0606/0706 VRB04KT 9999 SCT020 TX12/0614Z TN04/0606Z"
    },
    {
      "icao": "LEBB",
      "alert": "OK",
      "vis_m": 9999,
      "fzfg": false,
      "metar_trigger": false,
      "taf_trigger": false,
      "metar": "METAR LEBB 060630Z 31014KT 280V350 9999 BKN070 06/M01 Q1018 NOSIG",
      "taf": ""
    },
    {
      "icao": "LEBL",
      "alert": "OK",
      "vis_m": 9999,
      "fzfg": false,
      "metar_trigger": false,
      "taf_trigger": false,
      "metar": "METAR LEBL 060630Z 33014KT 9999 FEW035 02/M02 Q1010 NOSIG",
      "taf": "TAF LEBL 060500Z 0606/0706 34013KT 9999 FEW025 TX11/0613Z TN00/0706Z"
    },
    {
      "icao": "LECH",
      "alert": "OK",
      "vis_m": 9999,
      "fzfg": false,
      "metar_trigger": false,
      "taf_trigger": false,
      "metar": "METAR LECH 060630Z AUTO 34013KT 300V020 CAVOK 04/M08 Q1010",
      "taf": ""
    },
    {
      "icao": "LEMD",
      "alert": "OK",
      "vis_m": 9999,
      "fzfg": false,
      "metar_trigger": false,
      "taf_trigger": false,
      "metar": "METAR LEMD 060630Z 36010KT 330V030 CAVOK 01/M06 Q1014 NOSIG",
      "taf": "TAF LEMD 060500Z 0606/0712 VRB05KT 9999 SCT025 TX06/0614Z TNM03/0607Z"
    },
    {
      "icao": "LEMG",
      "alert": "OK",
      "vis_m": 9999,
      "fzfg": false,
      "metar_trigger": false,
      "taf_trigger": false,
      "metar": "METAR LEMG 060630Z 28020KT CAVOK 06/M03 Q1012 NOSIG",
      "taf": "TAF LEMG 060500Z 0606/0706 30012KT 9999 FEW060 TX12/0614Z TN04/0606Z"
    },
    {
      "icao": "LEVC",
      "alert": "OK",
      "vis_m": 9999,
      "fzfg": false,
      "metar_trigger": false,
      "taf_trigger": false,
      "metar": "METAR LEVC 060630Z 27005KT CAVOK 00/M04 Q1012 NOSIG",
      "taf": "TAF LEVC 060500Z 0606/0706 30006KT 9999 BKN040 TX12/0614Z TN01/0606Z"
    },
    {
      "icao": "LEXJ",
      "alert": "OK",
      "vis_m": 9999,
      "fzfg": false,
      "metar_trigger": false,
      "taf_trigger": false,
      "metar": "METAR LEXJ 060630Z 01012KT 330V060 9999 SCT045 BKN055 07/M01 Q1021",
      "taf": "TAF LEXJ 060200Z 0603/0703 35012KT 9999 FEW040 BKN060 TX09/0614Z TN04/0621Z"
    },
    {
      "icao": "LEZG",
      "alert": "OK",
      "vis_m": 9999,
      "fzfg": false,
      "metar_trigger": false,
      "taf_trigger": false,
      "metar": "METAR LEZG 060630Z 27014KT 9999 SCT035 02/M02 Q1013 NOSIG",
      "taf": "TAF LEZG 060500Z 0606/0706 31012KT 9999 FEW050 TX07/0615Z TN00/0606Z"
    },
    {
      "icao": "LEZL",
      "alert": "OK",
      "vis_m": 9999,
      "fzfg": false,
      "metar_trigger": false,
      "taf_trigger": false,
      "metar": "METAR LEZL 060630Z 03003KT CAVOK 03/00 Q1017 NOSIG",
      "taf": "TAF LEZL 060200Z 0603/0703 35006KT CAVOK TX13/0615Z TN02/0607Z"
    },
    {
      "icao": "LFBD",
      "alert": "OK",
      "vis_m": 9999,
      "fzfg": false,
      "metar_trigger": false,
      "taf_trigger": false,
      "metar": "METAR LFBD 060630Z AUTO 05006KT CAVOK M01/M04 Q1018",
      "taf": "TAF LFBD 060500Z 0606/0712 03010KT 9999 BKN045 TX04/0614Z TNM03/0700Z"
    },
    {
      "icao": "LFLL",
      "alert": "OK",
      "vis_m": 8000,
      "fzfg": false,
      "metar_trigger": false,
      "taf_trigger": false,
      "metar": "METAR LFLL 060630Z 36005KT 8000 BKN006 M06/M07 Q1016 NOSIG",
      "taf": "TAF LFLL 060500Z 0606/0712 34005KT 9999 BKN012 BKN035"
    },
    {
      "icao": "LFLS",
      "alert": "OK",
      "vis_m": 9999,
      "fzfg": false,
      "metar_trigger": false,
      "taf_trigger": false,
      "metar": "METAR LFLS 060630Z AUTO VRB03KT 9999 BKN009 M08/M10 Q1014 NOSIG",
      "taf": ""
    },
    {
      "icao": "LFMN",
      "alert": "OK",
      "vis_m": 9999,
      "fzfg": false,
      "metar_trigger": false,
      "taf_trigger": false,
      "metar": "METAR LFMN 060630Z 33013KT CAVOK 04/M03 Q1005 NOSIG",
      "taf": "TAF LFMN 060200Z 0603/0709 32010KT 9999 FEW045 BKN150"
    },
    {
      "icao": "LFOB",
      "alert": "OK",
      "vis_m": 4100,
      "fzfg": true,
      "metar_trigger": false,
      "taf_trigger": false,
      "metar": "METAR LFOB 060630Z AUTO 27003KT 4100 1200 R30/2700D R12/P5000 BR FEW001 M07/M08 Q1018 TEMPO 0500 FZFG VV///",
      "taf": "TAF LFOB 060500Z 0606/0706 27005KT 6000 NSC"
    },
    {
      "icao": "LFPO",
      "alert": "OK",
      "vis_m": 8000,
      "fzfg": false,
      "metar_trigger": false,
      "taf_trigger": false,
      "metar": "METAR LFPO 060630Z 27003KT 8000 R07/0500D R24/1400U MIFG NSC M07/M08 Q1018 NOSIG",
      "taf": "TAF LFPO 060500Z 0606/0712 30005KT 6000 FEW003"
    },
    {
      "icao": "LFSB",
      "alert": "OK",
      "vis_m": 9999,
      "fzfg": false,
      "metar_trigger": false,
      "taf_trigger": false,
      "metar": "METAR LFSB 060630Z AUTO 14006KT 9999 FEW045 BKN056 OVC068 M06/M09 Q1015 TEMPO 3000 -SN BR BKN009",
      "taf": "TAF LFSB 060500Z 0606/0706 VRB03KT CAVOK"
    },
    {
      "icao": "LGAV",
      "alert": "OK",
      "vis_m": 9999,
      "fzfg": false,
      "metar_trigger": false,
      "taf_trigger": false,
      "metar": "METAR LGAV 060620Z 35002KT 9999 FEW020 SCT035 13/09 Q1015 NOSIG",
      "taf": "TAF LGAV 060500Z 0606/0706 18015KT 9999 FEW018 SCT030"
    },
    {
      "icao": "LGTS",
      "alert": "OK",
      "vis_m": 9999,
      "fzfg": false,
      "metar_trigger": false,
      "taf_trigger": false,
      "metar": "METAR LGTS 060620Z 11006KT 9999 FEW025 12/10 Q1012 NOSIG",
      "taf": "TAF LGTS 060500Z 0606/0706 14010KT 9999 SCT030"
    },
    {
      "icao": "LHBP",
      "alert": "OK",
      "vis_m": 9999,
      "fzfg": false,
      "metar_trigger": false,
      "taf_trigger": false,
      "metar": "METAR LHBP 060630Z 30009KT 9999 BKN043 BKN100 M03/M05 Q1012 NOSIG",
      "taf": "TAF LHBP 060515Z 0606/0706 34009KT 9999 BKN045"
    },
    {
      "icao": "LHDC",
      "alert": "OK",
      "vis_m": 4400,
      "fzfg": false,
      "metar_trigger": false,
      "taf_trigger": false,
      "metar": "METAR LHDC 060615Z AUTO 02003KT 350V050 4400 -FZDZ BR OVC006 M01/M01 Q1011 NOSIG",
      "taf": "TAF LHDC 060515Z 0606/0615 36003KT 2000 -SN -SNRA OVC002"
    },
    {
      "icao": "LIBD",
      "alert": "OK",
      "vis_m": 4500,
      "fzfg": false,
      "metar_trigger": false,
      "taf_trigger": false,
      "metar": "METAR LIBD 060620Z 24002KT 4500 -DZ BR OVC010 10/10 Q1005",
      "taf": "TAF LIBD 060500Z 0606/0706 30007KT 9999 BKN012"
    },
    {
      "icao": "LIBG",
      "alert": "OK",
      "vis_m": null,
      "fzfg": false,
      "metar_trigger": false,
      "taf_trigger": false,
      "metar": "",
      "taf": ""
    },
    {
      "icao": "LIBP",
      "alert": "OK",
      "vis_m": 4100,
      "fzfg": false,
      "metar_trigger": false,
      "taf_trigger": false,
      "metar": "METAR LIBP 060620Z AUTO VRB01KT 4100 -RA BR OVC004/// 07/07 Q1006",
      "taf": "TAF LIBP 060500Z 0606/0706 VRB05KT 4000 RA OVC005"
    },
    {
      "icao": "LIBR",
      "alert": "OK",
      "vis_m": 9999,
      "fzfg": false,
      "metar_trigger": false,
      "taf_trigger": false,
      "metar": "METAR LIBR 060620Z VRB02KT 9999 BKN012 13/13 Q1005",
      "taf": "TAF LIBR 060500Z 0606/0706 VRB05KT 9999 BKN012"
    },
    {
      "icao": "LICA",
      "alert": "OK",
      "vis_m": 9999,
      "fzfg": false,
      "metar_trigger": false,
      "taf_trigger": false,
      "metar": "METAR LICA 060620Z AUTO 06004KT 9999 NCD 09/08 Q1005",
      "taf": "TAF LICA 060500Z 0606/0706 07010KT 9999 SCT050"
    },
    {
      "icao": "LICC",
      "alert": "OK",
      "vis_m": 9999,
      "fzfg": false,
      "metar_trigger": false,
      "taf_trigger": false,
      "metar": "METAR LICC 060620Z 22007KT CAVOK 09/07 Q1006",
      "taf": "TAF LICC 060500Z 0606/0706 26013KT 9999 FEW030"
    },
    {
      "icao": "LICJ",
      "alert": "OK",
      "vis_m": 9999,
      "fzfg": false,
      "metar_trigger": false,
      "taf_trigger": false,
      "metar": "METAR LICJ 060620Z 19015KT CAVOK 18/10 Q1001",
      "taf": "TAF LICJ 060500Z 0606/0706 21016KT 9999 FEW030"
    },
    {
      "icao": "LIMC",
      "alert": "OK",
      "vis_m": 9999,
      "fzfg": false,
      "metar_trigger": false,
      "taf_trigger": false,
      "metar": "METAR LIMC 060620Z 03004KT CAVOK M05/M08 Q1008 NOSIG",
      "taf": "TAF LIMC 060500Z 0606/0712 VRB03KT CAVOK"
    },
    {
      "icao": "LIME",
      "alert": "OK",
      "vis_m": 9999,
      "fzfg": false,
      "metar_trigger": false,
      "taf_trigger": false,
      "metar": "METAR LIME 060620Z 01002KT CAVOK M02/M06 Q1008 NOSIG",
      "taf": "TAF LIME 060500Z 0606/0706 VRB03KT CAVOK"
    },
    {
      "icao": "LIMF",
      "alert": "OK",
      "vis_m": 9999,
      "fzfg": false,
      "metar_trigger": false,
      "taf_trigger": false,
      "metar": "METAR LIMF 060620Z 29005KT CAVOK M04/M11 Q1008",
      "taf": "TAF LIMF 060500Z 0606/0706 VRB03KT CAVOK"
    },
    {
      "icao": "LIMJ",
      "alert": "OK",
      "vis_m": 9999,
      "fzfg": false,
      "metar_trigger": false,
      "taf_trigger": false,
      "metar": "METAR LIMJ 060620Z 04007KT 360V080 CAVOK 04/M07 Q1006",
      "taf": "TAF LIMJ 060500Z 0606/0706 03015KT CAVOK"
    },
    {
      "icao": "LIPE",
      "alert": "OK",
      "vis_m": 5000,
      "fzfg": false,
      "metar_trigger": false,
      "taf_trigger": false,
      "metar": "METAR LIPE 060620Z VRB02KT 5000 -SN SCT015 BKN030 02/M02 Q1009",
      "taf": "TAF LIPE 060500Z 0606/0706 28007KT 9999 BKN020"
    },
    {
      "icao": "LIPH",
      "alert": "OK",
      "vis_m": 9999,
      "fzfg": false,
      "metar_trigger": false,
      "taf_trigger": false,
      "metar": "METAR LIPH 060620Z 02005KT CAVOK 02/M06 Q1008",
      "taf": "TAF LIPH 060500Z 0606/0706 03006KT 9999 SCT070"
    },
    {
      "icao": "LIPQ",
      "alert": "OK",
      "vis_m": 9999,
      "fzfg": false,
      "metar_trigger": false,
      "taf_trigger": false,
      "metar": "METAR LIPQ 060620Z AUTO VRB01KT 9999 OVC075/// 03/M05 Q1009",
      "taf": "TAF LIPQ 060500Z 0606/0706 08008KT 9999 BKN030"
    },
    {
      "icao": "LIPR",
      "alert": "OK",
      "vis_m": 2000,
      "fzfg": false,
      "metar_trigger": false,
      "taf_trigger": false,
      "metar": "METAR LIPR 060620Z 28010KT 2000 -SN BR FEW010 BKN015 00/00 Q1008",
      "taf": "TAF LIPR 060500Z 0606/0706 30012KT 1200 SN BKN020"
    },
    {
      "icao": "LIPX",
      "alert": "OK",
      "vis_m": 9999,
      "fzfg": false,
      "metar_trigger": false,
      "taf_trigger": false,
      "metar": "METAR LIPX 060620Z 32005KT 9999 BKN080 M01/M06 Q1008",
      "taf": "TAF LIPX 060500Z 0606/0706 VRB04KT CAVOK"
    },
    {
      "icao": "LIPY",
      "alert": "OK",
      "vis_m": 6000,
      "fzfg": false,
      "metar_trigger": false,
      "taf_trigger": false,
      "metar": "METAR LIPY 060620Z AUTO 28006KT 250V310 6000 -RA OVC008/// 02/02 Q1007",
      "taf": "TAF LIPY 060500Z 0606/0706 VRB05KT 4000 RA BKN010"
    },
    {
      "icao": "LIPZ",
      "alert": "OK",
      "vis_m": 9999,
      "fzfg": false,
      "metar_trigger": false,
      "taf_trigger": false,
      "metar": "METAR LIPZ 060620Z 02008KT 9999 SCT060 02/M04 Q1008 NOSIG",
      "taf": "TAF LIPZ 060500Z 0606/0712 02008KT 9999 SCT070"
    },
    {
      "icao": "LIRF",
      "alert": "OK",
      "vis_m": 9999,
      "fzfg": false,
      "metar_trigger": false,
      "taf_trigger": false,
      "metar": "METAR LIRF 060620Z 04004KT CAVOK 10/10 Q1000 NOSIG",
      "taf": "TAF LIRF 060500Z 0606/0712 05005KT 9999 SCT020"
    },
    {
      "icao": "LIRN",
      "alert": "OK",
      "vis_m": 7000,
      "fzfg": false,
      "metar_trigger": false,
      "taf_trigger": false,
      "metar": "METAR LIRN 060620Z VRB06KT 7000 -RA FEW015 SCT040 14/10 Q1002 NOSIG",
      "taf": "TAF LIRN 060500Z 0606/0706 VRB06KT 9999 SCT020 SCT050"
    },
    {
      "icao": "LIRP",
      "alert": "OK",
      "vis_m": 9999,
      "fzfg": false,
      "metar_trigger": false,
      "taf_trigger": false,
      "metar": "METAR LIRP 060615Z 12011KT 9999 FEW040 BKN070 04/00 Q1004 NOSIG",
      "taf": "TAF LIRP 060500Z 0606/0706 12005KT 9999 FEW030"
    },
    {
      "icao": "LIRZ",
      "alert": "OK",
      "vis_m": 9999,
      "fzfg": false,
      "metar_trigger": false,
      "taf_trigger": false,
      "metar": "METAR LIRZ 060620Z AUTO 34008KT 9999 -RA SCT023/// BKN044/// 05/04 Q1002",
      "taf": "TAF LIRZ 060500Z 0606/0706 01010KT 6000 RA BKN020"
    },
    {
      "icao": "LJLJ",
      "alert": "OK",
      "vis_m": 9999,
      "fzfg": false,
      "metar_trigger": false,
      "taf_trigger": false,
      "metar": "METAR LJLJ 060630Z VRB01KT 9999 -SN BKN017 OVC024 M03/M04 Q1012 NOSIG",
      "taf": "TAF LJLJ 060500Z 0606/0706 VRB02KT 8000 BKN016 OVC025"
    },
    {
      "icao": "LKMT",
      "alert": "OK",
      "vis_m": 9999,
      "fzfg": false,
      "metar_trigger": false,
      "taf_trigger": false,
      "metar": "METAR LKMT 060630Z VRB02KT CAVOK M07/M09 Q1014 NOSIG",
      "taf": "TAF LKMT 060500Z 0606/0706 VRB02KT CAVOK"
    },
    {
      "icao": "LKPR",
      "alert": "OK",
      "vis_m": 9999,
      "fzfg": false,
      "metar_trigger": false,
      "taf_trigger": false,
      "metar": "METAR LKPR 060630Z 20007KT CAVOK M10/M11 Q1013 NOSIG",
      "taf": "TAF LKPR 060500Z 0606/0712 21008KT CAVOK"
    },
    {
      "icao": "LLBG",
      "alert": "OK",
      "vis_m": 9999,
      "fzfg": false,
      "metar_trigger": false,
      "taf_trigger": false,
      "metar": "METAR LLBG 060620Z VRB01KT CAVOK 12/07 Q1021 NOSIG",
      "taf": "TAF LLBG 060501Z 0606/0706 13004KT CAVOK"
    },
    {
      "icao": "LMML",
      "alert": "OK",
      "vis_m": 8000,
      "fzfg": false,
      "metar_trigger": false,
      "taf_trigger": false,
      "metar": "METAR LMML 060645Z 19009KT 160V220 8000 NSC 17/15 Q1006 NOSIG",
      "taf": "TAF LMML 060500Z 0606/0706 20015KT 8000 NSC"
    },
    {
      "icao": "LOWW",
      "alert": "OK",
      "vis_m": 9999,
      "fzfg": false,
      "metar_trigger": false,
      "taf_trigger": false,
      "metar": "METAR LOWW 060620Z 32010KT CAVOK M04/M11 Q1014 NOSIG",
      "taf": "TAF LOWW 060515Z 0606/0712 32012KT 9999 FEW050 TXM02/0612Z TNM04/0706Z"
    },
    {
      "icao": "LPFR",
      "alert": "OK",
      "vis_m": 9999,
      "fzfg": false,
      "metar_trigger": false,
      "taf_trigger": false,
      "metar": "METAR LPFR 060630Z VRB02KT CAVOK 06/M01 Q1019",
      "taf": "TAF LPFR 060500Z 0606/0706 VRB02KT CAVOK"
    },
    {
      "icao": "LPMA",
      "alert": "OK",
      "vis_m": 9999,
      "fzfg": false,
      "metar_trigger": false,
      "taf_trigger": false,
      "metar": "METAR LPMA 060630Z 02015KT 340V040 9999 SCT015 FEW018TCU 16/06 Q1025",
      "taf": "TAF LPMA 060500Z 0606/0706 02015KT 9999 SCT015"
    },
    {
      "icao": "LPPR",
      "alert": "OK",
      "vis_m": 9999,
      "fzfg": false,
      "metar_trigger": false,
      "taf_trigger": false,
      "metar": "METAR LPPR 060630Z VRB02KT CAVOK 02/M00 Q1022",
      "taf": "TAF LPPR 060500Z 0606/0706 01008KT CAVOK"
    },
    {
      "icao": "LPPS",
      "alert": "OK",
      "vis_m": 9999,
      "fzfg": false,
      "metar_trigger": false,
      "taf_trigger": false,
      "metar": "METAR LPPS 060630Z 02012KT 9999 SCT015 SCT030 15/08 Q1025",
      "taf": "TAF LPPS 060500Z 0606/0712 03013KT 9999 SCT015 SCT030"
    },
    {
      "icao": "LPPT",
      "alert": "OK",
      "vis_m": 9999,
      "fzfg": false,
      "metar_trigger": false,
      "taf_trigger": false,
      "metar": "METAR LPPT 060630Z 33016KT CAVOK 07/04 Q1021",
      "taf": "TAF LPPT 060500Z 0606/0712 36010KT CAVOK"
    },
    {
      "icao": "LQBK",
      "alert": "OK",
      "vis_m": 9999,
      "fzfg": false,
      "metar_trigger": false,
      "taf_trigger": false,
      "metar": "METAR LQBK 060630Z VRB01KT 9999 FEW010 BKN015 OVC023 M02/M03 Q1013 NOSIG",
      "taf": "TAF LQBK 060500Z 0606/0706 33007KT 7000 -SN SCT010 OVC020 TXM00/0613Z TNM05/0705Z"
    },
    {
      "icao": "LQSA",
      "alert": "OK",
      "vis_m": 9999,
      "fzfg": false,
      "metar_trigger": false,
      "taf_trigger": false,
      "metar": "METAR LQSA 060630Z 34002KT 9999 BKN008 M00/M01 Q1009 NOSIG",
      "taf": "TAF LQSA 060500Z 0606/0706 29005KT 7000 SCT010 OVC030 TX00/0606Z TNM04/0706Z"
    },
    {
      "icao": "LQTZ",
      "alert": "OK",
      "vis_m": 3000,
      "fzfg": false,
      "metar_trigger": false,
      "taf_trigger": false,
      "metar": "METAR LQTZ 060630Z 26002KT 3000 BR OVC004 M01/M01 Q1013",
      "taf": ""
    },
    {
      "icao": "LRBC",
      "alert": "OK",
      "vis_m": 450,
      "fzfg": false,
      "metar_trigger": false,
      "taf_trigger": false,
      "metar": "METAR LRBC 060630Z 17003KT 0450 R16/0600N FG VV002 00/00 Q1010",
      "taf": "TAF LRBC 060500Z 0606/0615 16006KT 0600 FG VV002"
    },
    {
      "icao": "LRBS",
      "alert": "OK",
      "vis_m": 400,
      "fzfg": false,
      "metar_trigger": false,
      "taf_trigger": false,
      "metar": "METAR LRBS 060630Z 00000KT 0400 R07/0800N FG VV002 02/02 Q1012 BECMG 0800",
      "taf": "TAF LRBS 060500Z 0606/0706 VRB04KT 0300 FG VV001"
    },
    {
      "icao": "LRBV",
      "alert": "OK",
      "vis_m": 9999,
      "fzfg": false,
      "metar_trigger": false,
      "taf_trigger": false,
      "metar": "METAR LRBV 060630Z 20018KT 9999 BKN077 07/02 Q1008",
      "taf": "TAF LRBV 060500Z 0606/0615 15010KT 9999 SCT045"
    },
    {
      "icao": "LRCL",
      "alert": "OK",
      "vis_m": 5000,
      "fzfg": false,
      "metar_trigger": false,
      "taf_trigger": false,
      "metar": "METAR LRCL 060630Z 00000KT 5000 BR FEW017 OVC044 01/00 Q1010",
      "taf": "TAF LRCL 060500Z 0606/0615 VRB04KT 5000 BR SCT010 OVC045"
    },
    {
      "icao": "LRCV",
      "alert": "OK",
      "vis_m": 2500,
      "fzfg": false,
      "metar_trigger": false,
      "taf_trigger": false,
      "metar": "METAR LRCV 060630Z 00000KT 2500 RA BR SCT006 BKN012 OVC030 01/01 Q1011",
      "taf": "TAF LRCV 060500Z 0606/0615 VRB04KT 1500 BR BKN005 OVC035"
    },
    {
      "icao": "LRIA",
      "alert": "OK",
      "vis_m": 150,
      "fzfg": false,
      "metar_trigger": false,
      "taf_trigger": false,
      "metar": "METAR LRIA 060630Z 10006KT 0150 R14/0400N FG VV001 01/01 Q1010",
      "taf": "TAF LRIA 060500Z 0606/0615 10006KT 0150 FG VV001"
    },
    {
      "icao": "LROP",
      "alert": "OK",
      "vis_m": 500,
      "fzfg": false,
      "metar_trigger": false,
      "taf_trigger": false,
      "metar": "METAR LROP 060630Z 28003KT 0500 R08R/0800N R08L/0550N FG BKN002 OVC003 02/02 Q1012 BECMG 0800",
      "taf": "TAF LROP 060500Z 0606/0706 VRB04KT 0300 FG VV001"
    },
    {
      "icao": "LRSB",
      "alert": "OK",
      "vis_m": 6000,
      "fzfg": false,
      "metar_trigger": false,
      "taf_trigger": false,
      "metar": "METAR LRSB 060630Z VRB01KT 6000 -RA SCT053 BKN075 01/00 Q1009 NOSIG",
      "taf": "TAF LRSB 060500Z 0606/0706 VRB04KT 5000 BR SCT015 SCT060"
    },
    {
      "icao": "LRSM",
      "alert": "OK",
      "vis_m": 400,
      "fzfg": false,
      "metar_trigger": false,
      "taf_trigger": false,
      "metar": "METAR LRSM 060630Z 00000KT 0400 R19/0900D -RA FG VV002 01/00 Q1011",
      "taf": "TAF LRSM 060500Z 0606/0615 VRB04KT 1500 -RADZ BR OVC005"
    },
    {
      "icao": "LRSV",
      "alert": "OK",
      "vis_m": 300,
      "fzfg": true,
      "metar_trigger": false,
      "taf_trigger": false,
      "metar": "METAR LRSV 060630Z VRB02KT 0300 R34/0600N FZFG OVC003 M01/M01 Q1008",
      "taf": "TAF LRSV 060500Z 0606/0615 VRB04KT 0300 FZFG VV002"
    },
    {
      "icao": "LRTM",
      "alert": "OK",
      "vis_m": 1800,
      "fzfg": false,
      "metar_trigger": false,
      "taf_trigger": false,
      "metar": "METAR LRTM 060630Z 24004KT 1800 BR SCT003 BKN006 OVC033 00/M00 Q1009",
      "taf": "TAF LRTM 060500Z 0606/0615 VRB04KT 5000 BR SCT010 BKN040"
    },
    {
      "icao": "LRTR",
      "alert": "OK",
      "vis_m": 3000,
      "fzfg": false,
      "metar_trigger": false,
      "taf_trigger": false,
      "metar": "METAR LRTR 060630Z 27005KT 3000 -FZDZ BR SCT002 OVC003 M00/M00 Q1012",
      "taf": "TAF LRTR 060500Z 0606/0706 26006KT 3000 -FZDZ BR BKN005 OVC010"
    },
    {
      "icao": "LTAC",
      "alert": "OK",
      "vis_m": 200,
      "fzfg": true,
      "metar_trigger": false,
      "taf_trigger": false,
      "metar": "METAR LTAC 060620Z VRB02KT 0200 R03C/0300N R21C/0200N R03L/0225N R03R/0200N FZFG VV001 M03/M03 Q1022 NOSIG RMK RWY21C VRB01KT RWY03L 00000KT RWY21R 00000KT RWY03R VRB02KT RWY21L VRB02KT",
      "taf": "TAF LTAC 060440Z 0606/0706 VRB02KT 0200 FZFG VV001"
    },
    {
      "icao": "LTFM",
      "alert": "OK",
      "vis_m": 9999,
      "fzfg": false,
      "metar_trigger": false,
      "taf_trigger": false,
      "metar": "METAR LTFM 060620Z 19014KT 9999 FEW040 BKN100 14/05 Q1015 NOSIG RMK RWY17L 19013KT RWY34L 18014KT RWY16R 19010KT RWY36 19013KT RWY18 19013KT",
      "taf": "TAF LTFM 060440Z 0606/0712 19012KT 9999 SCT040 BKN090"
    },
    {
      "icao": "LUKK",
      "alert": "OK",
      "vis_m": 300,
      "fzfg": false,
      "metar_trigger": false,
      "taf_trigger": false,
      "metar": "METAR LUKK 060630Z 10003KT 0300 0250SE R08/0450N FG VV002 00/00 Q1011 NOSIG",
      "taf": "TAF LUKK 060526Z 0606/0706 VRB05KT 0300 -DZ FG VV002"
    },
    {
      "icao": "LWOH",
      "alert": "OK",
      "vis_m": null,
      "fzfg": false,
      "metar_trigger": false,
      "taf_trigger": false,
      "metar": "",
      "taf": "TAF LWOH 060545Z 0606/0706 VRB02KT 9999 -RA SCT020 OVC040"
    },
    {
      "icao": "LWSK",
      "alert": "OK",
      "vis_m": null,
      "fzfg": false,
      "metar_trigger": false,
      "taf_trigger": false,
      "metar": "",
      "taf": "TAF LWSK 060545Z 0606/0706 VRB02KT 9999 BKN045 BKN075"
    },
    {
      "icao": "LYBE",
      "alert": "OK",
      "vis_m": 6000,
      "fzfg": false,
      "metar_trigger": false,
      "taf_trigger": false,
      "metar": "METAR LYBE 060630Z 28006KT 6000 -FZDZ BKN006 M01/M02 Q1013 NOSIG",
      "taf": "TAF LYBE 060500Z 0606/0706 30007KT 7000 BKN006 BKN025 TXM00/0612Z TNM03/0706Z"
    },
    {
      "icao": "LYNI",
      "alert": "OK",
      "vis_m": 9999,
      "fzfg": false,
      "metar_trigger": false,
      "taf_trigger": false,
      "metar": "METAR LYNI 060630Z 33019KT 9999 -RA FEW005 BKN012 BKN020 02/02 Q1010 RERA NOSIG",
      "taf": "TAF LYNI 060500Z 0606/0706 33010KT 9999 SCT010 BKN030 OVC070 TX03/0606Z TNM01/0706Z"
    },
    {
      "icao": "LYPG",
      "alert": "OK",
      "vis_m": 8000,
      "fzfg": false,
      "metar_trigger": false,
      "taf_trigger": false,
      "metar": "METAR LYPG 060630Z 31003KT 8000 -RA FEW006 SCT013 BKN026 10/10 Q1007 TEMPO 5000 RA",
      "taf": "TAF LYPG 060500Z 0606/0706 14005KT 8000 RA FEW010 BKN030 OVC070 TX14/0613Z TN09/0705Z"
    },
    {
      "icao": "LZIB",
      "alert": "OK",
      "vis_m": 9999,
      "fzfg": false,
      "metar_trigger": false,
      "taf_trigger": false,
      "metar": "METAR LZIB 060630Z 30015KT CAVOK M03/M11 Q1013 NOSIG",
      "taf": "TAF LZIB 060515Z 0606/0706 31015KT CAVOK"
    },
    {
      "icao": "LZKZ",
      "alert": "OK",
      "vis_m": 9999,
      "fzfg": false,
      "metar_trigger": false,
      "taf_trigger": false,
      "metar": "METAR LZKZ 060630Z VRB02KT 9999 BKN044 M03/M05 Q1011 NOSIG",
      "taf": "TAF LZKZ 060515Z 0606/0706 04006KT 9999 SCT045"
    },
    {
      "icao": "LZTT",
      "alert": "OK",
      "vis_m": 9999,
      "fzfg": false,
      "metar_trigger": false,
      "taf_trigger": false,
      "metar": "METAR LZTT 060630Z 30006KT 9999 FEW019 BKN058 M05/M08 Q1008 NOSIG",
      "taf": "TAF LZTT 060515Z 0606/0706 31005KT 9999 BKN057"
    },
    {
      "icao": "OEJN",
      "alert": "OK",
      "vis_m": 7000,
      "fzfg": false,
      "metar_trigger": false,
      "taf_trigger": false,
      "metar": "METAR OEJN 060600Z 05002KT 7000 NSC 27/09 Q1017 NOSIG",
      "taf": "TAF OEJN 060500Z 0606/0712 VRB03KT 7000 NSC"
    },
    {
      "icao": "OEMA",
      "alert": "OK",
      "vis_m": 5000,
      "fzfg": false,
      "metar_trigger": false,
      "taf_trigger": false,
      "metar": "METAR OEMA 060600Z 01008KT 5000 DU FEW045 SCT100 18/00 Q1024 NOSIG",
      "taf": "TAF OEMA 060500Z 0606/0712 09010KT 7000 FEW045"
    },
    {
      "icao": "OJAI",
      "alert": "OK",
      "vis_m": 4500,
      "fzfg": false,
      "metar_trigger": false,
      "taf_trigger": false,
      "metar": "METAR OJAI 060600Z 06013KT 4500 HZ NSC 05/M01 Q1024 NOSIG",
      "taf": "TAF OJAI 060446Z 0606/0712 12012KT 5000 HZ NSC"
    },
    {
      "icao": "OMAA",
      "alert": "OK",
      "vis_m": 9999,
      "fzfg": false,
      "metar_trigger": false,
      "taf_trigger": false,
      "metar": "METAR OMAA 060600Z 02005KT 330V080 CAVOK 21/11 Q1022 NOSIG",
      "taf": "TAF OMAA 060500Z 0606/0712 07005KT 8000 FEW025"
    },
    {
      "icao": "OMDB",
      "alert": "OK",
      "vis_m": 9999,
      "fzfg": false,
      "metar_trigger": false,
      "taf_trigger": false,
      "metar": "METAR OMDB 060630Z 08006KT 030V110 CAVOK 24/11 Q1022 NOSIG",
      "taf": "TAF OMDB 060500Z 0606/0712 07007KT 8000 NSC"
    },
    {
      "icao": "UAAA",
      "alert": "OK",
      "vis_m": 4100,
      "fzfg": false,
      "metar_trigger": false,
      "taf_trigger": false,
      "metar": "METAR UAAA 060630Z 36002MPS 320V070 4100 BR BKN100 M00/M03 Q1031 NOSIG",
      "taf": "TAF UAAA 060503Z 0606/0706 04003MPS 6000 SCT011 BKN050 TX01/0609Z TNM04/0701Z"
    },
    {
      "icao": "UBBB",
      "alert": "OK",
      "vis_m": 7000,
      "fzfg": false,
      "metar_trigger": false,
      "taf_trigger": false,
      "metar": "METAR UBBB 060630Z 32004KT 7000 SCT019 08/07 Q1027 NOSIG",
      "taf": "TAF UBBB 060458Z 0606/0706 35005KT 6000 NSC TX12/0610Z TN04/0702Z"
    },
    {
      "icao": "UDSG",
      "alert": "OK",
      "vis_m": 6000,
      "fzfg": false,
      "metar_trigger": false,
      "taf_trigger": false,
      "metar": "METAR UDSG 060630Z 08003KT 6000 NSC M17/M19 Q1030 NOSIG",
      "taf": "TAF UDSG 060458Z 0606/0706 VRB06KT 9999 FEW040"
    },
    {
      "icao": "UDYZ",
      "alert": "OK",
      "vis_m": 2000,
      "fzfg": false,
      "metar_trigger": false,
      "taf_trigger": false,
      "metar": "METAR UDYZ 060630Z 00000KT 2000 R08/1600D BR NSC M09/M12 Q1033 NOSIG",
      "taf": "TAF UDYZ 060500Z 0606/0706 VRB06KT 6000 FEW040"
    },
    {
      "icao": "UGKO",
      "alert": "OK",
      "vis_m": 9999,
      "fzfg": false,
      "metar_trigger": false,
      "taf_trigger": false,
      "metar": "METAR UGKO 060630Z 09014KT CAVOK 11/00 Q1019 NOSIG",
      "taf": "TAF UGKO 060500Z 0606/0706 08007KT CAVOK TX16/0611Z TN02/0703Z"
    }
  ]
}