{
  "ts_utc": "2026-01-15T13:25:01Z",
  "threshold_m": 150,
  "source": "stations_override.txt (ICAO list) + aviationweather.gov (METAR/TAF raw)",
  "station_count": 159,
  "stations": [
    {
      "icao": "BIKF",
      "alert": "OK",
      "vis_m": 9999,
      "fzfg": false,
      "metar_trigger": false,
      "taf_trigger": false,
      "metar": "METAR BIKF 151300Z 03016KT 9999 FEW020 SCT075 BKN160 00/M04 Q0987",
      "taf": "TAF BIKF 151034Z 1512/1612 02018KT 9999 FEW025 SCT045 TX02/1606Z TN00/1512Z"
    },
    {
      "icao": "BKPR",
      "alert": "OK",
      "vis_m": 9999,
      "fzfg": false,
      "metar_trigger": false,
      "taf_trigger": false,
      "metar": "METAR BKPR 151300Z 01005KT 340V060 9999 FEW035 BKN060 12/05 Q1023 NOSIG",
      "taf": "TAF BKPR 151130Z 1512/1612 30006KT 9999 BKN060"
    },
    {
      "icao": "EBCI",
      "alert": "OK",
      "vis_m": 9999,
      "fzfg": false,
      "metar_trigger": false,
      "taf_trigger": false,
      "metar": "METAR EBCI 151250Z 20012KT 9999 FEW020 BKN047 09/05 Q1009 NOSIG",
      "taf": "TAF EBCI 151110Z 1512/1618 19012KT 9999 SCT020"
    },
    {
      "icao": "EDDB",
      "alert": "OK",
      "vis_m": 5000,
      "fzfg": false,
      "metar_trigger": false,
      "taf_trigger": false,
      "metar": "METAR EDDB 151320Z AUTO 14005KT 5000 BR OVC002 05/04 Q1014 BECMG SCT003",
      "taf": "TAF EDDB 151100Z 1512/1612 14007KT 4000 BR BKN002"
    },
    {
      "icao": "EDDH",
      "alert": "OK",
      "vis_m": 9999,
      "fzfg": false,
      "metar_trigger": false,
      "taf_trigger": false,
      "metar": "METAR EDDH 151320Z AUTO 14008KT 9999 SCT026 BKN032 07/06 Q1010 NOSIG",
      "taf": "TAF EDDH 151100Z 1512/1618 15008KT 9999 SCT020"
    },
    {
      "icao": "EDDK",
      "alert": "OK",
      "vis_m": 9999,
      "fzfg": false,
      "metar_trigger": false,
      "taf_trigger": false,
      "metar": "METAR EDDK 151320Z AUTO 17009KT 150V210 9999 -DZ FEW018 BKN029 OVC037 10/08 Q1011 NOSIG",
      "taf": "TAF EDDK 151100Z 1512/1618 15009KT 9999 BKN030"
    },
    {
      "icao": "EDDN",
      "alert": "OK",
      "vis_m": 9999,
      "fzfg": false,
      "metar_trigger": false,
      "taf_trigger": false,
      "metar": "METAR EDDN 151320Z AUTO 12003KT CAVOK 10/06 Q1015 NOSIG",
      "taf": "TAF EDDN 151100Z 1512/1612 12007KT 9999 FEW030 BKN040"
    },
    {
      "icao": "EDDS",
      "alert": "OK",
      "vis_m": 9999,
      "fzfg": false,
      "metar_trigger": false,
      "taf_trigger": false,
      "metar": "METAR EDDS 151320Z AUTO 17006KT 140V200 CAVOK 13/05 Q1013 NOSIG",
      "taf": "TAF EDDS 151100Z 1512/1612 VRB03KT CAVOK"
    },
    {
      "icao": "EDFH",
      "alert": "OK",
      "vis_m": 9999,
      "fzfg": false,
      "metar_trigger": false,
      "taf_trigger": false,
      "metar": "METAR EDFH 151250Z 21010KT 9999 BKN016 BKN025 08/06 Q1011",
      "taf": "TAF EDFH 151100Z 1512/1612 19012KT 9999 BKN030"
    },
    {
      "icao": "EDJA",
      "alert": "OK",
      "vis_m": 9999,
      "fzfg": false,
      "metar_trigger": false,
      "taf_trigger": false,
      "metar": "METAR EDJA 151250Z 22005KT CAVOK 11/03 Q1015",
      "taf": "TAF EDJA 151100Z 1512/1521 22007KT CAVOK"
    },
    {
      "icao": "EDLW",
      "alert": "OK",
      "vis_m": 9999,
      "fzfg": false,
      "metar_trigger": false,
      "taf_trigger": false,
      "metar": "METAR EDLW 151250Z 19012KT 9999 FEW019 11/07 Q1010",
      "taf": "TAF EDLW 151100Z 1512/1612 18013KT 9999 SCT035"
    },
    {
      "icao": "EDNY",
      "alert": "OK",
      "vis_m": 9999,
      "fzfg": false,
      "metar_trigger": false,
      "taf_trigger": false,
      "metar": "METAR EDNY 151250Z VRB02KT CAVOK 11/05 Q1015",
      "taf": "TAF EDNY 151100Z 1512/1521 VRB03KT CAVOK"
    },
    {
      "icao": "EDSB",
      "alert": "OK",
      "vis_m": 9999,
      "fzfg": false,
      "metar_trigger": false,
      "taf_trigger": false,
      "metar": "METAR EDSB 151250Z 20010KT CAVOK 14/06 Q1013",
      "taf": "TAF EDSB 151100Z 1512/1612 19010KT CAVOK"
    },
    {
      "icao": "EETN",
      "alert": "OK",
      "vis_m": 9000,
      "fzfg": false,
      "metar_trigger": false,
      "taf_trigger": false,
      "metar": "METAR EETN 151320Z 18013KT 9000 DRSN FEW008 OVC037 M09/M10 Q1019 NOSIG",
      "taf": "TAF EETN 151130Z 1512/1612 17012KT 9999 BKN007 BKN035"
    },
    {
      "icao": "EFTU",
      "alert": "OK",
      "vis_m": 5000,
      "fzfg": false,
      "metar_trigger": false,
      "taf_trigger": false,
      "metar": "METAR EFTU 151320Z AUTO 15003KT 100V170 5000 -SHSN OVC003 M01/M02 Q1015",
      "taf": ""
    },
    {
      "icao": "EGBB",
      "alert": "OK",
      "vis_m": 3000,
      "fzfg": false,
      "metar_trigger": false,
      "taf_trigger": false,
      "metar": "METAR EGBB 151250Z 16002KT 3000 DZ BR BKN002 07/07 Q0999 REDZ",
      "taf": ""
    },
    {
      "icao": "EGGP",
      "alert": "OK",
      "vis_m": 9999,
      "fzfg": false,
      "metar_trigger": false,
      "taf_trigger": false,
      "metar": "METAR EGGP 151220Z 15004KT 110V210 9999 FEW038 05/04 Q0999",
      "taf": "TAF EGGP 151056Z 1512/1612 16005KT 9999 FEW035"
    },
    {
      "icao": "EGGW",
      "alert": "OK",
      "vis_m": 9999,
      "fzfg": false,
      "metar_trigger": false,
      "taf_trigger": false,
      "metar": "METAR EGGW 151250Z AUTO 17007KT 130V200 9999 -RA OVC005 07/07 Q1000",
      "taf": "TAF EGGW 151102Z 1512/1612 16010KT 9999 SCT004 BKN020"
    },
    {
      "icao": "EGKK",
      "alert": "OK",
      "vis_m": 6000,
      "fzfg": false,
      "metar_trigger": false,
      "taf_trigger": false,
      "metar": "METAR EGKK 151250Z 16008KT 6000 -RA BKN007 09/08 Q1001",
      "taf": "TAF EGKK 151056Z 1512/1618 17012KT 9999 BKN015"
    },
    {
      "icao": "EGNM",
      "alert": "OK",
      "vis_m": 9999,
      "fzfg": false,
      "metar_trigger": false,
      "taf_trigger": false,
      "metar": "METAR EGNM 151250Z 16004KT 9999 FEW015 06/04 Q0999",
      "taf": "TAF EGNM 151056Z 1512/1612 17010KT 9999 FEW012"
    },
    {
      "icao": "EGPD",
      "alert": "OK",
      "vis_m": 9999,
      "fzfg": false,
      "metar_trigger": false,
      "taf_trigger": false,
      "metar": "METAR EGPD 151250Z COR AUTO 22010KT 9999 NCD 07/02 Q0994 NOSIG",
      "taf": "TAF EGPD 151102Z 1512/1612 20008KT 9999 FEW015"
    },
    {
      "icao": "EGPF",
      "alert": "OK",
      "vis_m": 9999,
      "fzfg": false,
      "metar_trigger": false,
      "taf_trigger": false,
      "metar": "METAR EGPF 151250Z AUTO 22013KT 9999 BKN018 BKN032 07/05 Q0996",
      "taf": "TAF EGPF 151054Z 1512/1612 21014KT 9999 FEW045"
    },
    {
      "icao": "EHBK",
      "alert": "OK",
      "vis_m": 9999,
      "fzfg": false,
      "metar_trigger": false,
      "taf_trigger": false,
      "metar": "METAR EHBK 151255Z AUTO 20010KT 9999 SCT021 BKN024 OVC034 10/07 Q1009 NOSIG",
      "taf": "TAF EHBK 151054Z 1512/1618 20012KT 9999 BKN020"
    },
    {
      "icao": "EHEH",
      "alert": "OK",
      "vis_m": 9999,
      "fzfg": false,
      "metar_trigger": false,
      "taf_trigger": false,
      "metar": "METAR EHEH 151255Z AUTO 20012KT 160V240 9999 FEW029 OVC130 11/05 Q1009 BLU NOSIG RMK TREND REMOTE BY EHWX",
      "taf": "TAF EHEH 151106Z 1512/1618 19010KT 9999 BKN020"
    },
    {
      "icao": "EKBI",
      "alert": "OK",
      "vis_m": 1300,
      "fzfg": false,
      "metar_trigger": false,
      "taf_trigger": false,
      "metar": "METAR EKBI 151320Z AUTO 16006KT 130V200 1300 R09/P1500N R27/P1500N BR OVC002/// 05/05 Q1007",
      "taf": "TAF EKBI 151127Z 1512/1612 14010KT 1200 -RADZ BR OVC002"
    },
    {
      "icao": "EKCH",
      "alert": "OK",
      "vis_m": 2000,
      "fzfg": false,
      "metar_trigger": false,
      "taf_trigger": false,
      "metar": "METAR EKCH 151320Z 16013KT 2000 BR OVC002 03/03 Q1012 BECMG 4000 BR",
      "taf": "TAF EKCH 151127Z 1512/1612 16017KT 9999 BKN008"
    },
    {
      "icao": "ENAL",
      "alert": "OK",
      "vis_m": 9999,
      "fzfg": false,
      "metar_trigger": false,
      "taf_trigger": false,
      "metar": "METAR ENAL 151250Z 12008KT CAVOK 07/M01 Q0997",
      "taf": "TAF ENAL 151100Z 1512/1521 13008KT 9999 SCT060"
    },
    {
      "icao": "ENBR",
      "alert": "OK",
      "vis_m": 9999,
      "fzfg": false,
      "metar_trigger": false,
      "taf_trigger": false,
      "metar": "METAR ENBR 151250Z 13012KT 9999 -SHRA SCT018 BKN032 04/01 Q0998 TEMPO 4000 SHRA BKN012 SCT020CB RMK WIND 1200FT 13029KT",
      "taf": "TAF ENBR 151100Z 1512/1612 14012KT 9999 -SHRA FEW020 BKN040"
    },
    {
      "icao": "ENGM",
      "alert": "OK",
      "vis_m": 8000,
      "fzfg": false,
      "metar_trigger": false,
      "taf_trigger": false,
      "metar": "METAR ENGM 151250Z VRB02KT 8000 1500NE -SN BKN005 M06/M07 Q1008 TEMPO 1200 -SN BR BKN004",
      "taf": ""
    },
    {
      "icao": "ENHD",
      "alert": "OK",
      "vis_m": 9000,
      "fzfg": false,
      "metar_trigger": false,
      "taf_trigger": false,
      "metar": "METAR ENHD 151250Z 12022KT 9000 -RA FEW010 BKN022 04/02 Q0998",
      "taf": "TAF ENHD 151100Z 1512/1521 14018KT 9999 -SHRA FEW015 BKN030"
    },
    {
      "icao": "ENTC",
      "alert": "OK",
      "vis_m": 9999,
      "fzfg": false,
      "metar_trigger": false,
      "taf_trigger": false,
      "metar": "METAR ENTC 151250Z 19012KT CAVOK M03/M08 Q1007 NOSIG RMK WIND 2600FT 18013KT",
      "taf": "TAF ENTC 151100Z 1512/1612 20008KT CAVOK"
    },
    {
      "icao": "ENTO",
      "alert": "OK",
      "vis_m": 5000,
      "fzfg": false,
      "metar_trigger": false,
      "taf_trigger": false,
      "metar": "METAR ENTO 151250Z 36002KT 5000 BR BKN010 OVC013 01/01 Q1007 TEMPO 2000 -SN BKN006",
      "taf": ""
    },
    {
      "icao": "ENVA",
      "alert": "OK",
      "vis_m": 9999,
      "fzfg": false,
      "metar_trigger": false,
      "taf_trigger": false,
      "metar": "METAR ENVA 151250Z 07008KT CAVOK M01/M06 Q1003 NOSIG RMK WIND 670FT 11011KT",
      "taf": "TAF ENVA 151100Z 1512/1612 09008KT CAVOK"
    },
    {
      "icao": "ENZV",
      "alert": "OK",
      "vis_m": 9999,
      "fzfg": false,
      "metar_trigger": false,
      "taf_trigger": false,
      "metar": "METAR ENZV 151250Z 14020KT 9999 -SHRA BKN024 04/01 Q0999 NOSIG",
      "taf": "TAF ENZV 151100Z 1512/1612 13015KT 9999 -SHRA FEW015 BKN030"
    },
    {
      "icao": "EPGD",
      "alert": "OK",
      "vis_m": 9999,
      "fzfg": false,
      "metar_trigger": false,
      "taf_trigger": false,
      "metar": "METAR EPGD 151300Z 20008KT 170V230 9999 BKN012 02/M00 Q1018",
      "taf": "TAF EPGD 151130Z 1512/1612 16010KT 8000 NSC"
    },
    {
      "icao": "EPKK",
      "alert": "OK",
      "vis_m": 8000,
      "fzfg": false,
      "metar_trigger": false,
      "taf_trigger": false,
      "metar": "METAR EPKK 151300Z 06006KT 8000 NSC 03/00 Q1019",
      "taf": "TAF EPKK 151130Z 1512/1612 07005KT 5000 BR NSC"
    },
    {
      "icao": "EPKT",
      "alert": "OK",
      "vis_m": 8000,
      "fzfg": false,
      "metar_trigger": false,
      "taf_trigger": false,
      "metar": "METAR EPKT 151300Z 12003KT 8000 FEW011 BKN014 03/01 Q1018",
      "taf": "TAF EPKT 151130Z 1512/1612 15004KT 7000 NSC"
    },
    {
      "icao": "EPLB",
      "alert": "OK",
      "vis_m": 2300,
      "fzfg": false,
      "metar_trigger": false,
      "taf_trigger": false,
      "metar": "METAR EPLB 151300Z 09002KT 2300 BR OVC004 M03/M03 Q1021",
      "taf": "TAF EPLB 151130Z 1512/1612 VRB02KT 2500 BR BKN004"
    },
    {
      "icao": "EPMO",
      "alert": "OK",
      "vis_m": 1000,
      "fzfg": false,
      "metar_trigger": false,
      "taf_trigger": false,
      "metar": "METAR EPMO 151300Z VRB02KT 1000 0900E R08/1100N BCFG BR SCT002 BKN030 M00/M00 Q1020",
      "taf": ""
    },
    {
      "icao": "EPPO",
      "alert": "OK",
      "vis_m": 2200,
      "fzfg": false,
      "metar_trigger": false,
      "taf_trigger": false,
      "metar": "METAR EPPO 151300Z 11007KT 2200 BR OVC001 00/M00 Q1018",
      "taf": ""
    },
    {
      "icao": "EPRA",
      "alert": "OK",
      "vis_m": 9999,
      "fzfg": false,
      "metar_trigger": false,
      "taf_trigger": false,
      "metar": "METAR EPRA 151300Z 04003KT 9999 BKN024 02/M02 Q1020",
      "taf": "TAF EPRA 151130Z 1512/1521 27005KT 9999 BKN023"
    },
    {
      "icao": "EPRZ",
      "alert": "OK",
      "vis_m": 9999,
      "fzfg": false,
      "metar_trigger": false,
      "taf_trigger": false,
      "metar": "METAR EPRZ 151300Z 13002KT 9999 FEW016 BKN024 03/00 Q1021",
      "taf": "TAF EPRZ 151130Z 1512/1612 VRB02KT 9999 OVC009"
    },
    {
      "icao": "EPSC",
      "alert": "OK",
      "vis_m": 9999,
      "fzfg": false,
      "metar_trigger": false,
      "taf_trigger": false,
      "metar": "METAR EPSC 151300Z 13012KT 9999 OVC018 02/01 Q1015",
      "taf": "TAF EPSC 151130Z 1512/1612 14010KT 8000 OVC012"
    },
    {
      "icao": "EPSY",
      "alert": "OK",
      "vis_m": 3500,
      "fzfg": false,
      "metar_trigger": false,
      "taf_trigger": false,
      "metar": "METAR EPSY 151300Z VRB02KT 3500 BR OVC005 M04/M04 Q1021",
      "taf": "TAF EPSY 151130Z 1512/1521 14006KT 4000 BR BKN004"
    },
    {
      "icao": "EPWA",
      "alert": "OK",
      "vis_m": 2000,
      "fzfg": false,
      "metar_trigger": false,
      "taf_trigger": false,
      "metar": "METAR EPWA 151300Z 12005KT 2000 BR SCT002 BKN030 00/00 Q1020 NOSIG",
      "taf": "TAF EPWA 151130Z 1512/1612 VRB04KT 2000 BR BKN020"
    },
    {
      "icao": "EPWR",
      "alert": "OK",
      "vis_m": 4000,
      "fzfg": false,
      "metar_trigger": false,
      "taf_trigger": false,
      "metar": "METAR EPWR 151300Z 13007KT 4000 BR BKN040 03/02 Q1017",
      "taf": "TAF EPWR 151130Z 1512/1612 12007KT 5000 BR SCT045"
    },
    {
      "icao": "ESGG",
      "alert": "OK",
      "vis_m": 9999,
      "fzfg": false,
      "metar_trigger": false,
      "taf_trigger": false,
      "metar": "METAR ESGG 151250Z 16010KT 9999 FEW009 BKN049 02/00 Q1009",
      "taf": ""
    },
    {
      "icao": "ESKN",
      "alert": "OK",
      "vis_m": 9999,
      "fzfg": false,
      "metar_trigger": false,
      "taf_trigger": false,
      "metar": "METAR ESKN 151250Z 20007KT 9999 BKN006 02/01 Q1014",
      "taf": "TAF ESKN 151130Z 1512/1612 19006KT 9999 OVC015"
    },
    {
      "icao": "ESMS",
      "alert": "OK",
      "vis_m": 8000,
      "fzfg": false,
      "metar_trigger": false,
      "taf_trigger": false,
      "metar": "METAR ESMS 151250Z 14010KT 8000 OVC009 03/02 Q1013",
      "taf": "TAF ESMS 151148Z 1512/1612 16010KT 9999 BKN010"
    },
    {
      "icao": "ESSA",
      "alert": "OK",
      "vis_m": 9999,
      "fzfg": false,
      "metar_trigger": false,
      "taf_trigger": false,
      "metar": "METAR ESSA 151250Z 21006KT 9999 SCT009 BKN011 01/00 Q1013 NOSIG",
      "taf": ""
    },
    {
      "icao": "EYKA",
      "alert": "OK",
      "vis_m": 9999,
      "fzfg": false,
      "metar_trigger": false,
      "taf_trigger": false,
      "metar": "METAR EYKA 151320Z 17005KT 130V220 9999 OVC024 M09/M12 Q1023",
      "taf": "TAF EYKA 151100Z 1512/1612 VRB04KT 8000 SCT015 BKN020"
    },
    {
      "icao": "EYPA",
      "alert": "OK",
      "vis_m": 5000,
      "fzfg": false,
      "metar_trigger": false,
      "taf_trigger": false,
      "metar": "METAR EYPA 151320Z 15008KT 120V180 5000 BR BKN030 M04/M06 Q1020",
      "taf": "TAF EYPA 151109Z 1512/1612 15009KT 5000 BR SCT005 BKN015"
    },
    {
      "icao": "EYVI",
      "alert": "OK",
      "vis_m": 9999,
      "fzfg": false,
      "metar_trigger": false,
      "taf_trigger": false,
      "metar": "METAR EYVI 151320Z 16009KT 9999 OVC008 M12/M14 Q1023 NOSIG",
      "taf": ""
    },
    {
      "icao": "GCFV",
      "alert": "OK",
      "vis_m": 9999,
      "fzfg": false,
      "metar_trigger": false,
      "taf_trigger": false,
      "metar": "METAR GCFV 151300Z 03013KT 9999 SCT035 20/09 Q1024",
      "taf": "TAF GCFV 150800Z 1509/1609 04011KT 9999 SCT040 TX20/1514Z TN15/1606Z"
    },
    {
      "icao": "GCLP",
      "alert": "OK",
      "vis_m": 9999,
      "fzfg": false,
      "metar_trigger": false,
      "taf_trigger": false,
      "metar": "METAR GCLP 151300Z 01017KT 340V040 9999 BKN039 20/10 Q1024 NOSIG",
      "taf": "TAF GCLP 150800Z 1509/1609 02016KT 9999 SCT040 TX20/1514Z TN15/1606Z"
    },
    {
      "icao": "GCTS",
      "alert": "OK",
      "vis_m": 9999,
      "fzfg": false,
      "metar_trigger": false,
      "taf_trigger": false,
      "metar": "METAR GCTS 151300Z 10016KT 9999 BKN040 20/10 Q1024 NOSIG",
      "taf": "TAF GCTS 150800Z 1509/1609 06015KT 9999 SCT040 TX22/1514Z TN14/1606Z"
    },
    {
      "icao": "GMAD",
      "alert": "OK",
      "vis_m": 9999,
      "fzfg": false,
      "metar_trigger": false,
      "taf_trigger": false,
      "metar": "METAR GMAD 151300Z 27004KT 220V320 9999 SCT030 SCT200 18/13 Q1022 NOSIG",
      "taf": "TAF GMAD 151100Z 1512/1618 27010KT 8000 FEW030"
    },
    {
      "icao": "GMMN",
      "alert": "OK",
      "vis_m": 9999,
      "fzfg": false,
      "metar_trigger": false,
      "taf_trigger": false,
      "metar": "METAR GMMN 151300Z 24004KT 170V300 9999 SCT020 17/12 Q1022 NOSIG",
      "taf": "TAF GMMN 151100Z 1512/1618 26006KT 9999 FEW020"
    },
    {
      "icao": "GMMX",
      "alert": "OK",
      "vis_m": 9999,
      "fzfg": false,
      "metar_trigger": false,
      "taf_trigger": false,
      "metar": "METAR GMMX 151300Z 35004KT 300V080 CAVOK 15/08 Q1022 NOSIG",
      "taf": "TAF GMMX 151100Z 1512/1618 06006KT 8000 SCT026"
    },
    {
      "icao": "HEGN",
      "alert": "OK",
      "vis_m": 9999,
      "fzfg": false,
      "metar_trigger": false,
      "taf_trigger": false,
      "metar": "METAR HEGN 151200Z 36012KT CAVOK 20/07 Q1021 NOSIG",
      "taf": "TAF HEGN 151100Z 1512/1618 35010G20KT CAVOK"
    },
    {
      "icao": "HEMA",
      "alert": "OK",
      "vis_m": 9999,
      "fzfg": false,
      "metar_trigger": false,
      "taf_trigger": false,
      "metar": "METAR HEMA 151200Z 35020KT 9999 SCT020 SCT025 20/09 Q1020 NOSIG",
      "taf": "TAF HEMA 151100Z 1512/1618 36015G25KT 6000 SCT025"
    },
    {
      "icao": "HESH",
      "alert": "OK",
      "vis_m": 9999,
      "fzfg": false,
      "metar_trigger": false,
      "taf_trigger": false,
      "metar": "METAR HESH 151200Z 34011KT CAVOK 21/07 Q1021 NOSIG",
      "taf": "TAF HESH 151100Z 1512/1618 02010G20KT CAVOK"
    },
    {
      "icao": "HESX",
      "alert": "OK",
      "vis_m": 9999,
      "fzfg": false,
      "metar_trigger": false,
      "taf_trigger": false,
      "metar": "METAR HESX 151200Z 25004KT 9999 SCT030 18/08 Q1024 NOSIG",
      "taf": "TAF HESX 151101Z 1512/1618 35010KT 9999 FEW020 BKN070"
    },
    {
      "icao": "LATI",
      "alert": "OK",
      "vis_m": 9999,
      "fzfg": false,
      "metar_trigger": false,
      "taf_trigger": false,
      "metar": "METAR LATI 151320Z 19003KT 150V230 9999 FEW053 BKN090 16/04 Q1024 NOSIG",
      "taf": "TAF LATI 151100Z 1512/1612 VRB05KT CAVOK TX16/1512Z TN03/1605Z"
    },
    {
      "icao": "LBPD",
      "alert": "OK",
      "vis_m": 9999,
      "fzfg": false,
      "metar_trigger": false,
      "taf_trigger": false,
      "metar": "METAR LBPD 151300Z AUTO 29014KT 9999 NCD 16/03 Q1020 NOSIG",
      "taf": "TAF LBPD 151100Z 1512/1612 28010KT 9999 BKN070"
    },
    {
      "icao": "LBSF",
      "alert": "OK",
      "vis_m": 9999,
      "fzfg": false,
      "metar_trigger": false,
      "taf_trigger": false,
      "metar": "METAR LBSF 151300Z 29014KT CAVOK 12/02 Q1022 NOSIG",
      "taf": "TAF LBSF 151100Z 1512/1612 31010KT 9999 SCT060"
    },
    {
      "icao": "LBWN",
      "alert": "OK",
      "vis_m": 9999,
      "fzfg": false,
      "metar_trigger": false,
      "taf_trigger": false,
      "metar": "METAR LBWN 151300Z 33010KT 9999 FEW030 SCT040 11/04 Q1019 NOSIG",
      "taf": "TAF LBWN 151100Z 1512/1612 28012KT 9999 SCT040"
    },
    {
      "icao": "LCLK",
      "alert": "OK",
      "vis_m": 9999,
      "fzfg": false,
      "metar_trigger": false,
      "taf_trigger": false,
      "metar": "METAR LCLK 151300Z 16005KT 120V200 9999 FEW040 BKN050 15/07 Q1023 NOSIG",
      "taf": "TAF LCLK 151130Z 1512/1612 11010KT 9999 FEW040"
    },
    {
      "icao": "LCPH",
      "alert": "OK",
      "vis_m": 9999,
      "fzfg": false,
      "metar_trigger": false,
      "taf_trigger": false,
      "metar": "METAR LCPH 151300Z 26004KT 230V320 9999 FEW040 SCT050 17/07 Q1023 NOSIG",
      "taf": "TAF LCPH 151130Z 1512/1612 23010KT 9999 FEW035 SCT045"
    },
    {
      "icao": "LEAL",
      "alert": "OK",
      "vis_m": 9999,
      "fzfg": false,
      "metar_trigger": false,
      "taf_trigger": false,
      "metar": "METAR LEAL 151300Z 22003KT 150V280 CAVOK 19/07 Q1018 NOSIG",
      "taf": "TAF LEAL 151100Z 1512/1612 VRB04KT CAVOK TX17/1513Z TN07/1606Z"
    },
    {
      "icao": "LEBB",
      "alert": "OK",
      "vis_m": 9999,
      "fzfg": false,
      "metar_trigger": false,
      "taf_trigger": false,
      "metar": "METAR LEBB 151300Z 18012G27KT 130V240 9999 -RA FEW035 14/05 Q1009 NOSIG",
      "taf": "TAF LEBB 151100Z 1512/1612 20009KT 9999 FEW025 SCT060 TX16/1512Z TN05/1607Z"
    },
    {
      "icao": "LEBL",
      "alert": "OK",
      "vis_m": 9999,
      "fzfg": false,
      "metar_trigger": false,
      "taf_trigger": false,
      "metar": "METAR LEBL 151300Z 21008KT 170V240 CAVOK 14/11 Q1017 NOSIG",
      "taf": "TAF LEBL 151100Z 1512/1612 21010KT 9999 FEW015 TX15/1512Z TN06/1606Z"
    },
    {
      "icao": "LECH",
      "alert": "OK",
      "vis_m": 9999,
      "fzfg": false,
      "metar_trigger": false,
      "taf_trigger": false,
      "metar": "METAR LECH 151300Z AUTO 14008KT 110V170 CAVOK 14/05 Q1017",
      "taf": ""
    },
    {
      "icao": "LEMD",
      "alert": "OK",
      "vis_m": 9999,
      "fzfg": false,
      "metar_trigger": false,
      "taf_trigger": false,
      "metar": "METAR LEMD 151300Z 17006KT 130V210 9999 SCT008 SCT014 BKN039 07/06 Q1018 NOSIG",
      "taf": ""
    },
    {
      "icao": "LEMG",
      "alert": "OK",
      "vis_m": 9999,
      "fzfg": false,
      "metar_trigger": false,
      "taf_trigger": false,
      "metar": "METAR LEMG 151300Z 16006KT 130V190 9999 FEW025 SCT070 15/11 Q1019 NOSIG",
      "taf": "TAF LEMG 151100Z 1512/1612 29006KT 9999 SCT040 TX18/1514Z TN11/1607Z"
    },
    {
      "icao": "LEVC",
      "alert": "OK",
      "vis_m": 9999,
      "fzfg": false,
      "metar_trigger": false,
      "taf_trigger": false,
      "metar": "METAR LEVC 151300Z 24006KT 160V320 CAVOK 18/06 Q1017 NOSIG",
      "taf": "TAF LEVC 151100Z 1512/1612 26005KT CAVOK TX18/1512Z TN06/1606Z"
    },
    {
      "icao": "LEXJ",
      "alert": "OK",
      "vis_m": 9999,
      "fzfg": false,
      "metar_trigger": false,
      "taf_trigger": false,
      "metar": "METAR LEXJ 151300Z 20021G43KT 160V250 9999 SCT077 15/03 Q1007",
      "taf": ""
    },
    {
      "icao": "LEZG",
      "alert": "OK",
      "vis_m": 9999,
      "fzfg": false,
      "metar_trigger": false,
      "taf_trigger": false,
      "metar": "METAR LEZG 151300Z 08006KT 050V110 CAVOK 11/05 Q1016 NOSIG",
      "taf": ""
    },
    {
      "icao": "LEZL",
      "alert": "OK",
      "vis_m": 8000,
      "fzfg": false,
      "metar_trigger": false,
      "taf_trigger": false,
      "metar": "METAR LEZL 151300Z 33001KT 8000 OVC004 11/10 Q1021 NOSIG",
      "taf": "TAF LEZL 150800Z 1509/1609 07003KT 0500 FG VV001 TX14/1515Z TN08/1607Z"
    },
    {
      "icao": "LFBD",
      "alert": "OK",
      "vis_m": 9999,
      "fzfg": false,
      "metar_trigger": false,
      "taf_trigger": false,
      "metar": "METAR LFBD 151300Z AUTO 20010KT CAVOK 14/08 Q1009 NOSIG",
      "taf": "TAF LFBD 151100Z 1512/1618 15010KT CAVOK TX13/1514Z TN08/1608Z"
    },
    {
      "icao": "LFLL",
      "alert": "OK",
      "vis_m": 9999,
      "fzfg": false,
      "metar_trigger": false,
      "taf_trigger": false,
      "metar": "METAR LFLL 151300Z 18015KT 9999 FEW038 SCT260 14/05 Q1013 NOSIG",
      "taf": "TAF LFLL 151100Z 1512/1618 18015G25KT CAVOK"
    },
    {
      "icao": "LFLS",
      "alert": "OK",
      "vis_m": 9999,
      "fzfg": false,
      "metar_trigger": false,
      "taf_trigger": false,
      "metar": "METAR LFLS 151300Z AUTO 21010KT 180V240 CAVOK 13/05 Q1014 NOSIG",
      "taf": "TAF LFLS 150800Z 1509/1609 08006KT CAVOK"
    },
    {
      "icao": "LFMN",
      "alert": "OK",
      "vis_m": 9999,
      "fzfg": false,
      "metar_trigger": false,
      "taf_trigger": false,
      "metar": "METAR LFMN 151300Z 09004KT 060V120 9999 FEW026 15/09 Q1019 NOSIG",
      "taf": "TAF LFMN 150800Z 1509/1615 33010KT CAVOK"
    },
    {
      "icao": "LFOB",
      "alert": "OK",
      "vis_m": 9999,
      "fzfg": false,
      "metar_trigger": false,
      "taf_trigger": false,
      "metar": "METAR LFOB 151300Z AUTO 17013KT 9999 BKN019 OVC047 10/07 Q1007 NOSIG",
      "taf": "TAF LFOB 151100Z 1512/1612 22010G20KT 9999 BKN025"
    },
    {
      "icao": "LFPO",
      "alert": "OK",
      "vis_m": 9999,
      "fzfg": false,
      "metar_trigger": false,
      "taf_trigger": false,
      "metar": "METAR LFPO 151300Z 18010KT 150V220 CAVOK 13/07 Q1007 NOSIG",
      "taf": "TAF LFPO 151100Z 1512/1618 18010KT 9999 BKN012"
    },
    {
      "icao": "LFSB",
      "alert": "OK",
      "vis_m": 9999,
      "fzfg": false,
      "metar_trigger": false,
      "taf_trigger": false,
      "metar": "METAR LFSB 151300Z AUTO 12010KT CAVOK 13/05 Q1013 NOSIG",
      "taf": "TAF LFSB 151100Z 1512/1612 15008KT CAVOK"
    },
    {
      "icao": "LGAV",
      "alert": "OK",
      "vis_m": 9999,
      "fzfg": false,
      "metar_trigger": false,
      "taf_trigger": false,
      "metar": "METAR LGAV 151250Z 09007KT 9999 FEW030 15/07 Q1023 NOSIG",
      "taf": "TAF LGAV 151100Z 1512/1612 VRB05KT 9999 FEW016 SCT025"
    },
    {
      "icao": "LGTS",
      "alert": "OK",
      "vis_m": 9999,
      "fzfg": false,
      "metar_trigger": false,
      "taf_trigger": false,
      "metar": "METAR LGTS 151250Z 25004KT CAVOK 13/04 Q1023 NOSIG",
      "taf": "TAF LGTS 151100Z 1512/1612 VRB03KT 9999 FEW030"
    },
    {
      "icao": "LHBP",
      "alert": "OK",
      "vis_m": 3200,
      "fzfg": false,
      "metar_trigger": false,
      "taf_trigger": false,
      "metar": "METAR LHBP 151300Z 08004KT 3200 BR SCT007 BKN100 M01/M03 Q1022 NOSIG",
      "taf": "TAF LHBP 151115Z 1512/1612 09005KT 2500 BR OVC005"
    },
    {
      "icao": "LHDC",
      "alert": "OK",
      "vis_m": 2800,
      "fzfg": false,
      "metar_trigger": false,
      "taf_trigger": false,
      "metar": "METAR LHDC 151245Z AUTO VRB02KT 2800 BR OVC008 01/00 Q1022 NOSIG",
      "taf": "TAF LHDC 151115Z 1512/1521 VRB03KT 5000 BR SCT004 OVC035"
    },
    {
      "icao": "LIBD",
      "alert": "OK",
      "vis_m": 9999,
      "fzfg": false,
      "metar_trigger": false,
      "taf_trigger": false,
      "metar": "METAR LIBD 151250Z 01004KT 310V060 CAVOK 13/09 Q1022",
      "taf": "TAF LIBD 151100Z 1512/1612 VRB06KT 9999 FEW030"
    },
    {
      "icao": "LIBG",
      "alert": "OK",
      "vis_m": 9999,
      "fzfg": false,
      "metar_trigger": false,
      "taf_trigger": false,
      "metar": "METAR LIBG 151250Z 18005KT 9999 FEW030 15/12 Q1022",
      "taf": "TAF LIBG 151100Z 1512/1521 VRB05KT 8000 FEW025"
    },
    {
      "icao": "LIBP",
      "alert": "OK",
      "vis_m": 9999,
      "fzfg": false,
      "metar_trigger": false,
      "taf_trigger": false,
      "metar": "METAR LIBP 151250Z AUTO 03005KT 9999 NCD 14/06 Q1022",
      "taf": "TAF LIBP 151100Z 1512/1612 VRB05KT CAVOK"
    },
    {
      "icao": "LIBR",
      "alert": "OK",
      "vis_m": 9999,
      "fzfg": false,
      "metar_trigger": false,
      "taf_trigger": false,
      "metar": "METAR LIBR 151250Z 18006KT 140V220 9999 SCT030 15/09 Q1022",
      "taf": "TAF LIBR 151100Z 1512/1612 VRB06KT 9999 FEW025"
    },
    {
      "icao": "LICA",
      "alert": "OK",
      "vis_m": 9999,
      "fzfg": false,
      "metar_trigger": false,
      "taf_trigger": false,
      "metar": "METAR LICA 151250Z AUTO 28008KT 9999 NCD 16/08 Q1022",
      "taf": "TAF LICA 151100Z 1512/1612 08010KT CAVOK"
    },
    {
      "icao": "LICC",
      "alert": "OK",
      "vis_m": 9999,
      "fzfg": false,
      "metar_trigger": false,
      "taf_trigger": false,
      "metar": "METAR LICC 151250Z 19003KT 130V250 9999 SCT040 19/15 Q1022",
      "taf": "TAF LICC 151100Z 1512/1612 VRB05KT 9999 SCT040"
    },
    {
      "icao": "LICJ",
      "alert": "OK",
      "vis_m": 9999,
      "fzfg": false,
      "metar_trigger": false,
      "taf_trigger": false,
      "metar": "METAR LICJ 151250Z 05011KT CAVOK 17/07 Q1021",
      "taf": "TAF LICJ 151100Z 1512/1612 05010KT CAVOK"
    },
    {
      "icao": "LIMC",
      "alert": "OK",
      "vis_m": 2000,
      "fzfg": false,
      "metar_trigger": false,
      "taf_trigger": false,
      "metar": "METAR LIMC 151250Z VRB02KT 2000 -DZ BR BKN006 07/06 Q1021 NOSIG",
      "taf": "TAF LIMC 151100Z 1512/1618 VRB05KT 0800 -RA FG BKN003"
    },
    {
      "icao": "LIME",
      "alert": "OK",
      "vis_m": 1700,
      "fzfg": false,
      "metar_trigger": false,
      "taf_trigger": false,
      "metar": "METAR LIME 151250Z 18003KT 150V220 1700 -RA BKN010 07/05 Q1021 NOSIG",
      "taf": "TAF LIME 151100Z 1512/1612 VRB04KT 3000 BR SCT010 BKN040"
    },
    {
      "icao": "LIMF",
      "alert": "OK",
      "vis_m": 7000,
      "fzfg": false,
      "metar_trigger": false,
      "taf_trigger": false,
      "metar": "METAR LIMF 151250Z VRB02KT 7000 BKN055 08/01 Q1021",
      "taf": "TAF LIMF 151100Z 1512/1612 VRB03KT 8000 SCT050"
    },
    {
      "icao": "LIMJ",
      "alert": "OK",
      "vis_m": 9999,
      "fzfg": false,
      "metar_trigger": false,
      "taf_trigger": false,
      "metar": "METAR LIMJ 151250Z 07008KT 9999 FEW015 SCT027 13/08 Q1020",
      "taf": "TAF LIMJ 151100Z 1512/1612 04008KT 9999 SCT020 SCT050"
    },
    {
      "icao": "LIPE",
      "alert": "OK",
      "vis_m": 3000,
      "fzfg": false,
      "metar_trigger": false,
      "taf_trigger": false,
      "metar": "METAR LIPE 151250Z VRB02KT 3000 BR FEW005 BKN055 06/05 Q1022",
      "taf": "TAF LIPE 151100Z 1512/1612 VRB04KT 3000 BR BKN040"
    },
    {
      "icao": "LIPH",
      "alert": "OK",
      "vis_m": 6000,
      "fzfg": false,
      "metar_trigger": false,
      "taf_trigger": false,
      "metar": "METAR LIPH 151250Z VRB01KT 6000 BKN080 09/05 Q1022",
      "taf": "TAF LIPH 151100Z 1512/1612 VRB04KT 6000 SCT040"
    },
    {
      "icao": "LIPQ",
      "alert": "OK",
      "vis_m": 9000,
      "fzfg": false,
      "metar_trigger": false,
      "taf_trigger": false,
      "metar": "METAR LIPQ 151250Z AUTO VRB02KT 9000 OVC014/// 10/07 Q1022",
      "taf": "TAF LIPQ 151100Z 1512/1612 VRB04KT 7000 BKN035"
    },
    {
      "icao": "LIPR",
      "alert": "OK",
      "vis_m": 4000,
      "fzfg": false,
      "metar_trigger": false,
      "taf_trigger": false,
      "metar": "METAR LIPR 151250Z 01005KT 4000 BR BKN009 08/06 Q1021",
      "taf": "TAF LIPR 151100Z 1512/1612 VRB04KT 3000 BR SCT020"
    },
    {
      "icao": "LIPX",
      "alert": "OK",
      "vis_m": 6000,
      "fzfg": false,
      "metar_trigger": false,
      "taf_trigger": false,
      "metar": "METAR LIPX 151250Z VRB02KT 6000 FEW045 BKN080 08/05 Q1022",
      "taf": "TAF LIPX 151100Z 1512/1612 VRB04KT 6000 BKN050"
    },
    {
      "icao": "LIPY",
      "alert": "OK",
      "vis_m": 5000,
      "fzfg": false,
      "metar_trigger": false,
      "taf_trigger": false,
      "metar": "METAR LIPY 151250Z AUTO 01005KT 5000 BR OVC080/// 11/09 Q1021",
      "taf": "TAF LIPY 151100Z 1512/1612 VRB05KT 7000 SCT060"
    },
    {
      "icao": "LIPZ",
      "alert": "OK",
      "vis_m": 6000,
      "fzfg": false,
      "metar_trigger": false,
      "taf_trigger": false,
      "metar": "METAR LIPZ 151250Z 16003KT 6000 BKN035 07/03 Q1022 NOSIG",
      "taf": "TAF LIPZ 151100Z 1512/1618 VRB04KT 6000 SCT040"
    },
    {
      "icao": "LIRF",
      "alert": "OK",
      "vis_m": 9999,
      "fzfg": false,
      "metar_trigger": false,
      "taf_trigger": false,
      "metar": "METAR LIRF 151250Z 14012KT 120V180 9999 FEW030 16/11 Q1021 NOSIG",
      "taf": "TAF LIRF 151100Z 1512/1618 15012KT 9999 SCT030"
    },
    {
      "icao": "LIRN",
      "alert": "OK",
      "vis_m": 9999,
      "fzfg": false,
      "metar_trigger": false,
      "taf_trigger": false,
      "metar": "METAR LIRN 151250Z VRB02KT 9999 FEW040 15/06 Q1022 NOSIG",
      "taf": "TAF LIRN 151100Z 1512/1612 VRB05KT CAVOK"
    },
    {
      "icao": "LIRP",
      "alert": "OK",
      "vis_m": 9999,
      "fzfg": false,
      "metar_trigger": false,
      "taf_trigger": false,
      "metar": "METAR LIRP 151245Z 10005KT 9999 FEW020 BKN025 15/11 Q1020 NOSIG",
      "taf": "TAF LIRP 151100Z 1512/1612 12005KT 9999 SCT020 SCT040"
    },
    {
      "icao": "LIRZ",
      "alert": "OK",
      "vis_m": 9999,
      "fzfg": false,
      "metar_trigger": false,
      "taf_trigger": false,
      "metar": "METAR LIRZ 151250Z AUTO 12004KT 080V190 9999 BKN043/// BKN075/// 14/07 Q1021",
      "taf": "TAF LIRZ 151100Z 1512/1612 VRB05KT 9999 SCT040"
    },
    {
      "icao": "LJLJ",
      "alert": "OK",
      "vis_m": 9999,
      "fzfg": false,
      "metar_trigger": false,
      "taf_trigger": false,
      "metar": "METAR LJLJ 151300Z 07004KT 9999 SCT040 BKN055 03/01 Q1020 NOSIG",
      "taf": "TAF LJLJ 151100Z 1512/1612 30003KT 9999 FEW040 BKN060"
    },
    {
      "icao": "LKMT",
      "alert": "OK",
      "vis_m": 4500,
      "fzfg": false,
      "metar_trigger": false,
      "taf_trigger": false,
      "metar": "METAR LKMT 151300Z 22007KT 4500 BR BKN014 OVC033 01/M00 Q1019 NOSIG",
      "taf": "TAF LKMT 151100Z 1512/1612 22008KT 6000 BKN025"
    },
    {
      "icao": "LKPR",
      "alert": "OK",
      "vis_m": 2800,
      "fzfg": false,
      "metar_trigger": false,
      "taf_trigger": false,
      "metar": "METAR LKPR 151300Z 18003KT 2800 BR BKN025 04/04 Q1017 NOSIG",
      "taf": "TAF LKPR 151100Z 1512/1618 12004KT 3000 BR BKN022"
    },
    {
      "icao": "LLBG",
      "alert": "OK",
      "vis_m": 9999,
      "fzfg": false,
      "metar_trigger": false,
      "taf_trigger": false,
      "metar": "METAR LLBG 151320Z 28012KT 9999 SCT050 17/07 Q1023 NOSIG",
      "taf": "TAF LLBG 151112Z 1512/1612 32010KT 9999 FEW040"
    },
    {
      "icao": "LMML",
      "alert": "OK",
      "vis_m": 9999,
      "fzfg": false,
      "metar_trigger": false,
      "taf_trigger": false,
      "metar": "METAR LMML 151315Z 15013KT 9999 FEW019 18/13 Q1021 NOSIG",
      "taf": "TAF LMML 151100Z 1512/1612 15012KT 9999 FEW018"
    },
    {
      "icao": "LOWW",
      "alert": "OK",
      "vis_m": 3000,
      "fzfg": true,
      "metar_trigger": false,
      "taf_trigger": false,
      "metar": "METAR LOWW 151250Z VRB02KT 3000 BR FEW003 BKN004 M01/M02 Q1020 NOSIG",
      "taf": "TAF LOWW 151115Z 1512/1618 15004KT 0800 FZFG FEW001 BKN002 TX00/1615Z TNM02/1512Z"
    },
    {
      "icao": "LPFR",
      "alert": "OK",
      "vis_m": 9999,
      "fzfg": false,
      "metar_trigger": false,
      "taf_trigger": false,
      "metar": "METAR LPFR 151300Z 24004KT 210V270 9999 FEW014 BKN045 14/11 Q1020",
      "taf": "TAF LPFR 151100Z 1512/1612 27005KT 9999 FEW015"
    },
    {
      "icao": "LPMA",
      "alert": "OK",
      "vis_m": 9999,
      "fzfg": false,
      "metar_trigger": false,
      "taf_trigger": false,
      "metar": "METAR LPMA 151300Z 21007KT 180V240 9999 FEW015 SCT030 18/11 Q1025",
      "taf": "TAF LPMA 151100Z 1512/1612 VRB05KT 9999 SCT015"
    },
    {
      "icao": "LPPR",
      "alert": "OK",
      "vis_m": 3800,
      "fzfg": false,
      "metar_trigger": false,
      "taf_trigger": false,
      "metar": "METAR LPPR 151300Z 18021KT 3800 RA BR BKN007 SCT013TCU OVC022 11/10 Q1012 WS R17",
      "taf": "TAF LPPR 151100Z 1512/1612 17020KT 8000 -RA SCT008 BKN015"
    },
    {
      "icao": "LPPS",
      "alert": "OK",
      "vis_m": 9999,
      "fzfg": false,
      "metar_trigger": false,
      "taf_trigger": false,
      "metar": "METAR LPPS 151300Z 29012KT 9999 FEW014 SCT030 17/12 Q1025",
      "taf": "TAF LPPS 151100Z 1512/1618 30010KT 9999 SCT015 BKN030"
    },
    {
      "icao": "LPPT",
      "alert": "OK",
      "vis_m": 9999,
      "fzfg": false,
      "metar_trigger": false,
      "taf_trigger": false,
      "metar": "METAR LPPT 151300Z 21015KT 9999 -RA BKN016 13/11 Q1017",
      "taf": "TAF LPPT 151100Z 1512/1618 22015KT 9999 FEW025 BKN035"
    },
    {
      "icao": "LQBK",
      "alert": "OK",
      "vis_m": 9999,
      "fzfg": false,
      "metar_trigger": false,
      "taf_trigger": false,
      "metar": "METAR LQBK 151300Z VRB03KT CAVOK 08/03 Q1021 NOSIG",
      "taf": "TAF LQBK 151100Z 1512/1612 22005KT CAVOK TX08/1513Z TN02/1605Z"
    },
    {
      "icao": "LQSA",
      "alert": "OK",
      "vis_m": 9999,
      "fzfg": false,
      "metar_trigger": false,
      "taf_trigger": false,
      "metar": "METAR LQSA 151300Z 00000KT 9999 BKN050 08/02 Q1022 NOSIG",
      "taf": "TAF LQSA 151100Z 1512/1612 VRB02KT 8000 FEW012 SCT050 TX08/1514Z TN00/1605Z"
    },
    {
      "icao": "LQTZ",
      "alert": "OK",
      "vis_m": 9999,
      "fzfg": false,
      "metar_trigger": false,
      "taf_trigger": false,
      "metar": "METAR LQTZ 151300Z 11002KT 9999 BKN062 06/04 Q1022",
      "taf": "TAF LQTZ 151100Z 1512/1612 VRB02KT 7000 BKN045 TX07/1513Z TN00/1605Z"
    },
    {
      "icao": "LRBC",
      "alert": "OK",
      "vis_m": 8000,
      "fzfg": false,
      "metar_trigger": false,
      "taf_trigger": false,
      "metar": "METAR LRBC 151300Z 35005KT 8000 OVC015 M02/M06 Q1022",
      "taf": "TAF LRBC 151100Z 1512/1521 36007KT 8000 BKN015 OVC025"
    },
    {
      "icao": "LRBS",
      "alert": "OK",
      "vis_m": 7000,
      "fzfg": false,
      "metar_trigger": false,
      "taf_trigger": false,
      "metar": "METAR LRBS 151300Z 07008KT 7000 NSC 02/M02 Q1021 NOSIG",
      "taf": "TAF LRBS 151100Z 1512/1612 09010KT 5000 BR NSC"
    },
    {
      "icao": "LRBV",
      "alert": "OK",
      "vis_m": 8000,
      "fzfg": false,
      "metar_trigger": false,
      "taf_trigger": false,
      "metar": "METAR LRBV 151300Z VRB03KT 8000 -RADZ FEW006 BKN011 BKN014 02/01 Q1020",
      "taf": "TAF LRBV 151100Z 1512/1521 29006KT 5000 -RADZ BR BKN010 OVC015"
    },
    {
      "icao": "LRCL",
      "alert": "OK",
      "vis_m": 1500,
      "fzfg": false,
      "metar_trigger": false,
      "taf_trigger": false,
      "metar": "METAR LRCL 151300Z 00000KT 1500 R25/P2000 -DZ BR OVC014 01/M01 Q1022",
      "taf": "TAF LRCL 151100Z 1512/1521 VRB04KT 1500 -SN BR BKN005 OVC015"
    },
    {
      "icao": "LRCV",
      "alert": "OK",
      "vis_m": 9999,
      "fzfg": false,
      "metar_trigger": false,
      "taf_trigger": false,
      "metar": "METAR LRCV 151300Z 29010KT CAVOK 10/05 Q1020",
      "taf": "TAF LRCV 151100Z 1512/1521 29012KT CAVOK"
    },
    {
      "icao": "LRIA",
      "alert": "OK",
      "vis_m": 9999,
      "fzfg": false,
      "metar_trigger": false,
      "taf_trigger": false,
      "metar": "METAR LRIA 151300Z VRB02KT 9999 OVC009 M04/M06 Q1023",
      "taf": "TAF LRIA 151100Z 1512/1521 32006KT 9999 SCT005 BKN035"
    },
    {
      "icao": "LROP",
      "alert": "OK",
      "vis_m": 5000,
      "fzfg": false,
      "metar_trigger": false,
      "taf_trigger": false,
      "metar": "METAR LROP 151300Z 08009KT 5000 HZ NSC 02/M03 Q1021 NOSIG",
      "taf": "TAF LROP 151100Z 1512/1612 09010KT 5000 BR NSC"
    },
    {
      "icao": "LRSB",
      "alert": "OK",
      "vis_m": 3000,
      "fzfg": false,
      "metar_trigger": false,
      "taf_trigger": false,
      "metar": "METAR LRSB 151300Z VRB02KT 3000 -DZ BR OVC008 02/02 Q1021",
      "taf": "TAF LRSB 151100Z 1512/1612 VRB04KT 5000 BR BKN010 OVC020"
    },
    {
      "icao": "LRSM",
      "alert": "OK",
      "vis_m": 5000,
      "fzfg": false,
      "metar_trigger": false,
      "taf_trigger": false,
      "metar": "METAR LRSM 151300Z 08002KT 5000 BR FEW005 01/M01 Q1023",
      "taf": "TAF LRSM 151100Z 1512/1521 VRB04KT 3000 BR BKN002"
    },
    {
      "icao": "LRSV",
      "alert": "OK",
      "vis_m": 4000,
      "fzfg": false,
      "metar_trigger": false,
      "taf_trigger": false,
      "metar": "METAR LRSV 151300Z 00000KT 4000 BR OVC005 M05/M07 Q1020",
      "taf": "TAF LRSV 151100Z 1512/1521 07005KT 5000 BR OVC010"
    },
    {
      "icao": "LRTM",
      "alert": "OK",
      "vis_m": 2500,
      "fzfg": false,
      "metar_trigger": false,
      "taf_trigger": false,
      "metar": "METAR LRTM 151300Z 25003KT 2500 -SN BR FEW006 BKN017 BKN032 01/M00 Q1022",
      "taf": "TAF LRTM 151100Z 1512/1521 VRB04KT 1500 -SN BR BKN005 OVC020"
    },
    {
      "icao": "LRTR",
      "alert": "OK",
      "vis_m": 7000,
      "fzfg": false,
      "metar_trigger": false,
      "taf_trigger": false,
      "metar": "METAR LRTR 151300Z 08005KT 7000 NSC 04/02 Q1022",
      "taf": "TAF LRTR 151100Z 1512/1612 VRB04KT 5000 BR BKN020"
    },
    {
      "icao": "LTAC",
      "alert": "OK",
      "vis_m": 9999,
      "fzfg": false,
      "metar_trigger": false,
      "taf_trigger": false,
      "metar": "METAR LTAC 151250Z 24006KT 200V270 9999 SCT010 SCT035 BKN090 02/M01 Q1021 NOSIG RMK RWY21C 23009KT RWY03L 23006KT 190V260 RWY21R 23007KT RWY03R 24009KT 210V270 RWY21L 25007KT 210V270",
      "taf": "TAF LTAC 151040Z 1512/1612 22008KT 9999 SCT010 SCT040 BKN100"
    },
    {
      "icao": "LTFM",
      "alert": "OK",
      "vis_m": 9999,
      "fzfg": false,
      "metar_trigger": false,
      "taf_trigger": false,
      "metar": "METAR LTFM 151250Z 21017KT 9999 FEW025 BKN070 11/06 Q1021 NOSIG RMK RWY17L 21013KT RWY34L 20017KT RWY16R 21013KT RWY36 22017KT RWY18 22017KT",
      "taf": "TAF LTFM 151040Z 1512/1618 23017G27KT 9999 FEW025 BKN070"
    },
    {
      "icao": "LUKK",
      "alert": "OK",
      "vis_m": 9999,
      "fzfg": false,
      "metar_trigger": false,
      "taf_trigger": false,
      "metar": "METAR LUKK 151300Z 05008KT 9999 -SN BKN014 OVC020 M06/M08 Q1023 TEMPO 5000 -SN OVC010",
      "taf": "TAF LUKK 151105Z 1512/1612 03008KT 9999 BKN012"
    },
    {
      "icao": "LWOH",
      "alert": "OK",
      "vis_m": 9999,
      "fzfg": false,
      "metar_trigger": false,
      "taf_trigger": false,
      "metar": "METAR LWOH 151320Z 17004KT 140V210 9999 FEW033 09/03 Q1024",
      "taf": "TAF LWOH 151120Z 1512/1612 VRB02KT 9999 FEW033"
    },
    {
      "icao": "LWSK",
      "alert": "OK",
      "vis_m": 9999,
      "fzfg": false,
      "metar_trigger": false,
      "taf_trigger": false,
      "metar": "METAR LWSK 151320Z VRB02KT CAVOK 11/02 Q1024 NOSIG",
      "taf": "TAF LWSK 151120Z 1512/1612 VRB02KT CAVOK"
    },
    {
      "icao": "LYBE",
      "alert": "OK",
      "vis_m": 9999,
      "fzfg": false,
      "metar_trigger": false,
      "taf_trigger": false,
      "metar": "METAR LYBE 151300Z VRB01KT CAVOK 09/02 Q1022 NOSIG",
      "taf": "TAF LYBE 151100Z 1512/1612 18005KT 9999 SCT045 TX08/1513Z TN02/1606Z"
    },
    {
      "icao": "LYNI",
      "alert": "OK",
      "vis_m": 9999,
      "fzfg": false,
      "metar_trigger": false,
      "taf_trigger": false,
      "metar": "METAR LYNI 151300Z 10003KT 9999 FEW050 BKN070 10/05 Q1023 NOSIG",
      "taf": "TAF LYNI 151100Z 1512/1612 11004KT 9999 SCT060 TX10/1513Z TN00/1606Z"
    },
    {
      "icao": "LYPG",
      "alert": "OK",
      "vis_m": 9999,
      "fzfg": false,
      "metar_trigger": false,
      "taf_trigger": false,
      "metar": "METAR LYPG 151300Z 22004KT 140V290 9999 FEW050 BKN070 13/05 Q1025 NOSIG",
      "taf": "TAF LYPG 151100Z 1512/1612 17005KT 9999 FEW040 BKN080 TX13/1513Z TN05/1605Z"
    },
    {
      "icao": "LZIB",
      "alert": "OK",
      "vis_m": 2400,
      "fzfg": false,
      "metar_trigger": false,
      "taf_trigger": false,
      "metar": "METAR LZIB 151300Z 08005KT 2400 BR BKN003 BKN005 M01/M01 Q1021 TEMPO 1500 BR BKN002",
      "taf": ""
    },
    {
      "icao": "LZKZ",
      "alert": "OK",
      "vis_m": 6000,
      "fzfg": false,
      "metar_trigger": false,
      "taf_trigger": false,
      "metar": "METAR LZKZ 151300Z 00000KT 6000 OVC015 M00/M03 Q1022 TEMPO OVC014",
      "taf": "TAF LZKZ 151115Z 1512/1612 VRB02KT 9999 SCT010 BKN025"
    },
    {
      "icao": "LZTT",
      "alert": "OK",
      "vis_m": 9999,
      "fzfg": false,
      "metar_trigger": false,
      "taf_trigger": false,
      "metar": "METAR LZTT 151300Z 07003KT 9999 FEW010 BKN020 02/M00 Q1018 NOSIG",
      "taf": "TAF LZTT 151115Z 1512/1612 VRB02KT 9999 FEW009 SCT014 BKN025"
    },
    {
      "icao": "OEJN",
      "alert": "OK",
      "vis_m": 9999,
      "fzfg": false,
      "metar_trigger": false,
      "taf_trigger": false,
      "metar": "METAR OEJN 151300Z 31013KT CAVOK 28/08 Q1013 NOSIG",
      "taf": "TAF OEJN 151100Z 1512/1618 33014KT 9999 FEW040"
    },
    {
      "icao": "OEMA",
      "alert": "OK",
      "vis_m": 9999,
      "fzfg": false,
      "metar_trigger": false,
      "taf_trigger": false,
      "metar": "METAR OEMA 151300Z 05007KT CAVOK 22/M04 Q1020 NOSIG",
      "taf": "TAF OEMA 151100Z 1512/1618 08012KT 7000 NSC"
    },
    {
      "icao": "OJAI",
      "alert": "OK",
      "vis_m": 5000,
      "fzfg": false,
      "metar_trigger": false,
      "taf_trigger": false,
      "metar": "METAR OJAI 151300Z 29011KT 5000 HZ FEW030 11/04 Q1023 NOSIG",
      "taf": "TAF OJAI 151100Z 1512/1618 29008KT 5000 HZ FEW030"
    },
    {
      "icao": "OMAA",
      "alert": "OK",
      "vis_m": 9999,
      "fzfg": false,
      "metar_trigger": false,
      "taf_trigger": false,
      "metar": "METAR OMAA 151300Z 29014KT CAVOK 23/12 Q1016 NOSIG",
      "taf": "TAF OMAA 151100Z 1512/1618 32015KT 8000 FEW045"
    },
    {
      "icao": "OMDB",
      "alert": "OK",
      "vis_m": 9999,
      "fzfg": false,
      "metar_trigger": false,
      "taf_trigger": false,
      "metar": "METAR OMDB 151300Z 29014KT 220V310 CAVOK 25/11 Q1016 NOSIG",
      "taf": ""
    },
    {
      "icao": "UAAA",
      "alert": "OK",
      "vis_m": 5000,
      "fzfg": false,
      "metar_trigger": false,
      "taf_trigger": false,
      "metar": "METAR UAAA 151300Z 35002MPS 5000 BR OVC008 M07/M08 Q1021 NOSIG",
      "taf": "TAF UAAA 151110Z 1512/1612 34003G08MPS 1600 BR FU BKN011CB OVC020 TXM07/1608Z TNM10/1603Z"
    },
    {
      "icao": "UBBB",
      "alert": "OK",
      "vis_m": 9999,
      "fzfg": false,
      "metar_trigger": false,
      "taf_trigger": false,
      "metar": "METAR UBBB 151300Z 01012KT CAVOK 04/M03 Q1023 NOSIG",
      "taf": "TAF UBBB 151051Z 1512/1612 01010KT 9999 SCT030 TX05/1512Z TN01/1601Z"
    },
    {
      "icao": "UDSG",
      "alert": "OK",
      "vis_m": 9999,
      "fzfg": false,
      "metar_trigger": false,
      "taf_trigger": false,
      "metar": "METAR UDSG 151300Z 14001KT 9999 NSC M08/M14 Q1019 NOSIG",
      "taf": "TAF UDSG 151058Z 1512/1612 VRB06KT 9999 FEW040"
    },
    {
      "icao": "UDYZ",
      "alert": "OK",
      "vis_m": 9999,
      "fzfg": false,
      "metar_trigger": false,
      "taf_trigger": false,
      "metar": "METAR UDYZ 151300Z 03002KT 9999 FEW046 02/M09 Q1020 NOSIG",
      "taf": "TAF UDYZ 151100Z 1512/1612 VRB06KT 6000 FEW040"
    },
    {
      "icao": "UGKO",
      "alert": "OK",
      "vis_m": 9999,
      "fzfg": false,
      "metar_trigger": false,
      "taf_trigger": false,
      "metar": "METAR UGKO 151300Z 09004KT 050V130 9999 BKN020 04/00 Q1024 NOSIG",
      "taf": "TAF UGKO 151100Z 1512/1612 VRB02KT 9999 SCT020 BKN050 TX05/1512Z TNM01/1601Z"
    }
  ]
}