{
  "ts_utc": "2026-06-22T21:48:35Z",
  "threshold_m": 150,
  "source": "stations_override.txt (ICAO list) + aviationweather.gov (METAR/TAF raw)",
  "station_count": 159,
  "stations": [
    {
      "icao": "BIKF",
      "alert": "OK",
      "vis_m": 9999,
      "fzfg": false,
      "metar_trigger": false,
      "taf_trigger": false,
      "metar": "METAR BIKF 222130Z 04005KT 9999 BKN045 BKN240 10/05 Q1015",
      "taf": "TAF BIKF 221947Z 2221/2321 05008KT 9999 FEW020 BKN035 TX10/2314Z TN08/2303Z"
    },
    {
      "icao": "BKPR",
      "alert": "OK",
      "vis_m": 9999,
      "fzfg": false,
      "metar_trigger": false,
      "taf_trigger": false,
      "metar": "METAR BKPR 222130Z 29006KT CAVOK 21/15 Q1021 NOSIG",
      "taf": "TAF BKPR 221730Z 2218/2318 36007KT 9999 FEW050"
    },
    {
      "icao": "EBCI",
      "alert": "OK",
      "vis_m": 9999,
      "fzfg": false,
      "metar_trigger": false,
      "taf_trigger": false,
      "metar": "METAR EBCI 222120Z 02006KT CAVOK 24/19 Q1024 NOSIG",
      "taf": "TAF EBCI 221700Z 2218/2324 03008KT CAVOK"
    },
    {
      "icao": "EDDB",
      "alert": "OK",
      "vis_m": 9999,
      "fzfg": false,
      "metar_trigger": false,
      "taf_trigger": false,
      "metar": "METAR EDDB 222120Z AUTO 05006KT CAVOK 19/13 Q1024 NOSIG",
      "taf": "TAF EDDB 221700Z 2218/2318 02008KT CAVOK"
    },
    {
      "icao": "EDDH",
      "alert": "OK",
      "vis_m": 9999,
      "fzfg": false,
      "metar_trigger": false,
      "taf_trigger": false,
      "metar": "METAR EDDH 222120Z AUTO VRB02KT CAVOK 18/11 Q1025 NOSIG",
      "taf": "TAF EDDH 221700Z 2218/2324 VRB03KT CAVOK"
    },
    {
      "icao": "EDDK",
      "alert": "OK",
      "vis_m": 9999,
      "fzfg": false,
      "metar_trigger": false,
      "taf_trigger": false,
      "metar": "METAR EDDK 222120Z AUTO VRB02KT CAVOK 23/19 Q1023 NOSIG",
      "taf": "TAF EDDK 221700Z 2218/2324 01007KT CAVOK"
    },
    {
      "icao": "EDDN",
      "alert": "OK",
      "vis_m": 9999,
      "fzfg": false,
      "metar_trigger": false,
      "taf_trigger": false,
      "metar": "METAR EDDN 222120Z AUTO 36002KT CAVOK 22/19 Q1023",
      "taf": "TAF EDDN 221700Z 2218/2318 02005KT CAVOK"
    },
    {
      "icao": "EDDS",
      "alert": "OK",
      "vis_m": 9999,
      "fzfg": false,
      "metar_trigger": false,
      "taf_trigger": false,
      "metar": "METAR EDDS 222120Z AUTO VRB01KT CAVOK 25/17 Q1022",
      "taf": "TAF EDDS 221700Z 2218/2318 01007KT CAVOK"
    },
    {
      "icao": "EDFH",
      "alert": "OK",
      "vis_m": 9999,
      "fzfg": false,
      "metar_trigger": false,
      "taf_trigger": false,
      "metar": "METAR EDFH 222120Z 02004KT 350V060 CAVOK 24/18 Q1024",
      "taf": "TAF EDFH 221700Z 2218/2318 02005KT CAVOK"
    },
    {
      "icao": "EDJA",
      "alert": "OK",
      "vis_m": 9999,
      "fzfg": false,
      "metar_trigger": false,
      "taf_trigger": false,
      "metar": "METAR EDJA 222120Z AUTO VRB02KT 9999 // FEW140/// 21/16 Q1024",
      "taf": "TAF EDJA 221700Z 2218/2303 06006KT CAVOK"
    },
    {
      "icao": "EDLW",
      "alert": "OK",
      "vis_m": 9999,
      "fzfg": false,
      "metar_trigger": false,
      "taf_trigger": false,
      "metar": "METAR EDLW 222120Z AUTO 02006KT 9999 // NCD 21/18 Q1024",
      "taf": "TAF EDLW 221700Z 2218/2318 03006KT CAVOK"
    },
    {
      "icao": "EDNY",
      "alert": "OK",
      "vis_m": 9999,
      "fzfg": false,
      "metar_trigger": false,
      "taf_trigger": false,
      "metar": "METAR EDNY 222120Z AUTO VRB02KT 9999 // BKN094/// 23/17 Q1022",
      "taf": "TAF EDNY 221700Z 2218/2303 VRB03KT CAVOK"
    },
    {
      "icao": "EDSB",
      "alert": "OK",
      "vis_m": 9999,
      "fzfg": false,
      "metar_trigger": false,
      "taf_trigger": false,
      "metar": "METAR EDSB 222120Z 02004KT CAVOK 27/19 Q1021",
      "taf": "TAF EDSB 221700Z 2218/2318 01005KT CAVOK"
    },
    {
      "icao": "EETN",
      "alert": "OK",
      "vis_m": 9999,
      "fzfg": false,
      "metar_trigger": false,
      "taf_trigger": false,
      "metar": "METAR EETN 222120Z 33010KT CAVOK 16/08 Q1020 NOSIG",
      "taf": "TAF EETN 221730Z 2218/2318 30012KT CAVOK"
    },
    {
      "icao": "EFTU",
      "alert": "OK",
      "vis_m": 9999,
      "fzfg": false,
      "metar_trigger": false,
      "taf_trigger": false,
      "metar": "METAR EFTU 222120Z AUTO 28004KT CAVOK 11/06 Q1022",
      "taf": "TAF EFTU 222026Z 2221/2321 32006KT CAVOK"
    },
    {
      "icao": "EGBB",
      "alert": "OK",
      "vis_m": 9999,
      "fzfg": false,
      "metar_trigger": false,
      "taf_trigger": false,
      "metar": "METAR EGBB 222120Z 11007KT CAVOK 22/18 Q1023",
      "taf": "TAF EGBB 221659Z 2218/2318 12010KT 9999 FEW040"
    },
    {
      "icao": "EGGP",
      "alert": "OK",
      "vis_m": 9999,
      "fzfg": false,
      "metar_trigger": false,
      "taf_trigger": false,
      "metar": "METAR EGGP 222120Z 10008KT CAVOK 22/14 Q1022",
      "taf": "TAF EGGP 221653Z 2218/2318 11011KT 9999 FEW045"
    },
    {
      "icao": "EGGW",
      "alert": "OK",
      "vis_m": 9999,
      "fzfg": false,
      "metar_trigger": false,
      "taf_trigger": false,
      "metar": "METAR EGGW 222120Z AUTO 11011KT 9999 -RA NCD 18/17 Q1023",
      "taf": "TAF EGGW 221700Z 2218/2318 09010KT 9999 FEW045"
    },
    {
      "icao": "EGKK",
      "alert": "OK",
      "vis_m": 9999,
      "fzfg": false,
      "metar_trigger": false,
      "taf_trigger": false,
      "metar": "METAR EGKK 222120Z 06012KT CAVOK 20/15 Q1024",
      "taf": ""
    },
    {
      "icao": "EGNM",
      "alert": "OK",
      "vis_m": 9999,
      "fzfg": false,
      "metar_trigger": false,
      "taf_trigger": false,
      "metar": "METAR EGNM 222120Z 12007KT CAVOK 16/07 Q1025",
      "taf": "TAF EGNM 221655Z 2218/2318 12010KT 9999 FEW045"
    },
    {
      "icao": "EGPD",
      "alert": "OK",
      "vis_m": 9999,
      "fzfg": false,
      "metar_trigger": false,
      "taf_trigger": false,
      "metar": "METAR EGPD 222120Z AUTO 16004KT 130V190 9999 NCD 16/14 Q1023",
      "taf": "TAF EGPD 221659Z 2218/2318 16010KT 9999 FEW006 SCT040"
    },
    {
      "icao": "EGPF",
      "alert": "OK",
      "vis_m": 9999,
      "fzfg": false,
      "metar_trigger": false,
      "taf_trigger": false,
      "metar": "METAR EGPF 222120Z AUTO 05003KT 020V090 9999 NCD 18/16 Q1023",
      "taf": "TAF EGPF 221657Z 2218/2318 VRB02KT 9999 FEW020"
    },
    {
      "icao": "EHBK",
      "alert": "OK",
      "vis_m": 9999,
      "fzfg": false,
      "metar_trigger": false,
      "taf_trigger": false,
      "metar": "METAR EHBK 222125Z AUTO 03007KT 9999 NSC 23/19 Q1023",
      "taf": "TAF EHBK 221712Z 2218/2324 01007KT CAVOK"
    },
    {
      "icao": "EHEH",
      "alert": "OK",
      "vis_m": 9999,
      "fzfg": false,
      "metar_trigger": false,
      "taf_trigger": false,
      "metar": "METAR EHEH 222125Z AUTO 03005KT 360V070 9999 OVC340 22/18 Q1024 BLU NOSIG RMK TREND REMOTE BY EHWX",
      "taf": ""
    },
    {
      "icao": "EKBI",
      "alert": "OK",
      "vis_m": 9999,
      "fzfg": false,
      "metar_trigger": false,
      "taf_trigger": false,
      "metar": "METAR EKBI 222120Z AUTO 30006KT 9999 BKN200/// 12/09 Q1026",
      "taf": "TAF EKBI 222027Z 2221/2321 30006KT CAVOK"
    },
    {
      "icao": "EKCH",
      "alert": "OK",
      "vis_m": 9999,
      "fzfg": false,
      "metar_trigger": false,
      "taf_trigger": false,
      "metar": "METAR EKCH 222120Z AUTO 33005KT 9999 NCD 16/10 Q1025 NOSIG",
      "taf": "TAF EKCH 222027Z 2221/2321 34006KT CAVOK"
    },
    {
      "icao": "ENAL",
      "alert": "OK",
      "vis_m": 9999,
      "fzfg": false,
      "metar_trigger": false,
      "taf_trigger": false,
      "metar": "METAR ENAL 222120Z 25005KT 9999 BKN059 12/09 Q1025",
      "taf": "TAF ENAL 222000Z 2221/2306 24007KT 9999 FEW020 BKN040"
    },
    {
      "icao": "ENBR",
      "alert": "OK",
      "vis_m": 9999,
      "fzfg": false,
      "metar_trigger": false,
      "taf_trigger": false,
      "metar": "METAR ENBR 222120Z 35003KT CAVOK 11/08 Q1026 RMK WIND 1200FT VRB02KT",
      "taf": "TAF ENBR 221700Z 2218/2318 33006KT 9999 FEW020 BKN035"
    },
    {
      "icao": "ENGM",
      "alert": "OK",
      "vis_m": 9999,
      "fzfg": false,
      "metar_trigger": false,
      "taf_trigger": false,
      "metar": "METAR ENGM 222120Z 24003KT CAVOK 15/06 Q1023",
      "taf": "TAF ENGM 221700Z 2218/2318 19010KT CAVOK"
    },
    {
      "icao": "ENHD",
      "alert": "OK",
      "vis_m": 9999,
      "fzfg": false,
      "metar_trigger": false,
      "taf_trigger": false,
      "metar": "METAR ENHD 222120Z 31006KT 280V340 CAVOK 12/09 Q1027",
      "taf": "TAF ENHD 221400Z 2215/2222 33010KT 9999 SCT015"
    },
    {
      "icao": "ENTC",
      "alert": "OK",
      "vis_m": 9999,
      "fzfg": false,
      "metar_trigger": false,
      "taf_trigger": false,
      "metar": "METAR ENTC 222120Z 28010KT 9999 -RA FEW007 SCT014 BKN017 09/07 Q1015 RMK WIND 2600FT 23012KT",
      "taf": ""
    },
    {
      "icao": "ENTO",
      "alert": "OK",
      "vis_m": 2700,
      "fzfg": false,
      "metar_trigger": false,
      "taf_trigger": false,
      "metar": "METAR ENTO 222120Z AUTO 20004KT 2700 // NCD 13/06 Q1023",
      "taf": "TAF ENTO 221700Z 2218/2318 20010KT CAVOK"
    },
    {
      "icao": "ENVA",
      "alert": "OK",
      "vis_m": 9999,
      "fzfg": false,
      "metar_trigger": false,
      "taf_trigger": false,
      "metar": "METAR ENVA 222120Z 30010KT 9999 FEW044 11/07 Q1025 RMK WIND 670FT 29011KT",
      "taf": "TAF ENVA 221700Z 2218/2318 27012KT 9999 -SHRA FEW020 BKN035"
    },
    {
      "icao": "ENZV",
      "alert": "OK",
      "vis_m": 9999,
      "fzfg": false,
      "metar_trigger": false,
      "taf_trigger": false,
      "metar": "METAR ENZV 222120Z 31005KT CAVOK 13/09 Q1026",
      "taf": "TAF ENZV 221700Z 2218/2318 32012KT 9999 FEW010 SCT020"
    },
    {
      "icao": "EPGD",
      "alert": "OK",
      "vis_m": 9999,
      "fzfg": false,
      "metar_trigger": false,
      "taf_trigger": false,
      "metar": "METAR EPGD 222130Z 26004KT 210V280 CAVOK 14/11 Q1024",
      "taf": "TAF EPGD 221730Z 2218/2318 28010KT CAVOK"
    },
    {
      "icao": "EPKK",
      "alert": "OK",
      "vis_m": 4000,
      "fzfg": false,
      "metar_trigger": false,
      "taf_trigger": false,
      "metar": "METAR EPKK 222130Z 24003KT 4000 MIFG BR NSC 17/17 Q1022",
      "taf": ""
    },
    {
      "icao": "EPKT",
      "alert": "OK",
      "vis_m": 9999,
      "fzfg": false,
      "metar_trigger": false,
      "taf_trigger": false,
      "metar": "METAR EPKT 222130Z 34002KT CAVOK 16/14 Q1023",
      "taf": "TAF EPKT 221730Z 2218/2318 01006KT 9999 SCT030"
    },
    {
      "icao": "EPLB",
      "alert": "OK",
      "vis_m": 9999,
      "fzfg": false,
      "metar_trigger": false,
      "taf_trigger": false,
      "metar": "METAR EPLB 222130Z 33005KT CAVOK 21/18 Q1020",
      "taf": "TAF EPLB 221730Z 2218/2318 27010KT CAVOK"
    },
    {
      "icao": "EPMO",
      "alert": "OK",
      "vis_m": 9999,
      "fzfg": false,
      "metar_trigger": false,
      "taf_trigger": false,
      "metar": "METAR EPMO 222130Z 36007KT CAVOK 18/12 Q1022",
      "taf": "TAF EPMO 221730Z 2218/2318 35006KT CAVOK"
    },
    {
      "icao": "EPPO",
      "alert": "OK",
      "vis_m": 9999,
      "fzfg": false,
      "metar_trigger": false,
      "taf_trigger": false,
      "metar": "METAR EPPO 222130Z 35004KT CAVOK 17/10 Q1024",
      "taf": "TAF EPPO 221730Z 2218/2318 35007KT CAVOK"
    },
    {
      "icao": "EPRA",
      "alert": "OK",
      "vis_m": 9999,
      "fzfg": false,
      "metar_trigger": false,
      "taf_trigger": false,
      "metar": "METAR EPRA 222130Z 34005KT CAVOK 22/11 Q1021",
      "taf": "TAF EPRA 222030Z 2221/2306 33006KT CAVOK"
    },
    {
      "icao": "EPRZ",
      "alert": "OK",
      "vis_m": 9999,
      "fzfg": false,
      "metar_trigger": false,
      "taf_trigger": false,
      "metar": "METAR EPRZ 222130Z 26005KT CAVOK 20/20 Q1021",
      "taf": "TAF EPRZ 221730Z 2218/2318 25005KT CAVOK"
    },
    {
      "icao": "EPSC",
      "alert": "OK",
      "vis_m": 9999,
      "fzfg": false,
      "metar_trigger": false,
      "taf_trigger": false,
      "metar": "METAR EPSC 222130Z 00000KT CAVOK 12/10 Q1024",
      "taf": "TAF EPSC 221730Z 2218/2318 34010KT CAVOK"
    },
    {
      "icao": "EPSY",
      "alert": "OK",
      "vis_m": 9999,
      "fzfg": false,
      "metar_trigger": false,
      "taf_trigger": false,
      "metar": "METAR EPSY 222130Z 33006KT CAVOK 16/12 Q1022",
      "taf": "TAF EPSY 222030Z 2221/2306 32008KT CAVOK"
    },
    {
      "icao": "EPWA",
      "alert": "OK",
      "vis_m": 9999,
      "fzfg": false,
      "metar_trigger": false,
      "taf_trigger": false,
      "metar": "METAR EPWA 222130Z 36011KT CAVOK 22/12 Q1021 NOSIG",
      "taf": "TAF EPWA 222030Z 2221/2321 34005KT CAVOK"
    },
    {
      "icao": "EPWR",
      "alert": "OK",
      "vis_m": 9999,
      "fzfg": false,
      "metar_trigger": false,
      "taf_trigger": false,
      "metar": "METAR EPWR 222130Z 31003KT CAVOK 21/14 Q1023",
      "taf": "TAF EPWR 222030Z 2221/2321 36005KT CAVOK"
    },
    {
      "icao": "ESGG",
      "alert": "OK",
      "vis_m": 9999,
      "fzfg": false,
      "metar_trigger": false,
      "taf_trigger": false,
      "metar": "METAR ESGG 222120Z 28003KT 230V300 CAVOK 12/08 Q1024",
      "taf": "TAF ESGG 222030Z 2221/2321 30004KT CAVOK"
    },
    {
      "icao": "ESKN",
      "alert": "OK",
      "vis_m": 9999,
      "fzfg": false,
      "metar_trigger": false,
      "taf_trigger": false,
      "metar": "METAR ESKN 222120Z 11003KT CAVOK 13/12 Q1023",
      "taf": "TAF ESKN 222030Z 2221/2321 13005KT CAVOK"
    },
    {
      "icao": "ESMS",
      "alert": "OK",
      "vis_m": 9999,
      "fzfg": false,
      "metar_trigger": false,
      "taf_trigger": false,
      "metar": "METAR ESMS 222120Z 30006KT CAVOK 13/10 Q1024",
      "taf": "TAF ESMS 222027Z 2221/2321 31007KT CAVOK"
    },
    {
      "icao": "ESSA",
      "alert": "OK",
      "vis_m": 9999,
      "fzfg": false,
      "metar_trigger": false,
      "taf_trigger": false,
      "metar": "METAR ESSA 222120Z 14005KT CAVOK 14/05 Q1023 NOSIG",
      "taf": "TAF ESSA 222030Z 2221/2321 13007KT CAVOK"
    },
    {
      "icao": "EYKA",
      "alert": "OK",
      "vis_m": 9999,
      "fzfg": false,
      "metar_trigger": false,
      "taf_trigger": false,
      "metar": "METAR EYKA 222120Z 32004KT 280V350 CAVOK 18/11 Q1020",
      "taf": "TAF EYKA 221700Z 2218/2318 VRB03KT 9000 FEW045"
    },
    {
      "icao": "EYPA",
      "alert": "OK",
      "vis_m": 9999,
      "fzfg": false,
      "metar_trigger": false,
      "taf_trigger": false,
      "metar": "METAR EYPA 222120Z VRB01KT CAVOK 16/15 Q1022",
      "taf": "TAF EYPA 221702Z 2218/2318 VRB03KT 7000 NSC"
    },
    {
      "icao": "EYVI",
      "alert": "OK",
      "vis_m": 9999,
      "fzfg": false,
      "metar_trigger": false,
      "taf_trigger": false,
      "metar": "METAR EYVI 222120Z VRB01KT CAVOK 15/12 Q1020 NOSIG",
      "taf": "TAF EYVI 221715Z 2218/2318 VRB03KT 9000 FEW045"
    },
    {
      "icao": "GCFV",
      "alert": "OK",
      "vis_m": 9999,
      "fzfg": false,
      "metar_trigger": false,
      "taf_trigger": false,
      "metar": "METAR GCFV 222130Z 35009KT 9999 FEW025 22/15 Q1018",
      "taf": "TAF GCFV 222000Z 2221/2321 05012KT 9999 FEW020 TX26/2314Z TN19/2306Z"
    },
    {
      "icao": "GCLP",
      "alert": "OK",
      "vis_m": 9999,
      "fzfg": false,
      "metar_trigger": false,
      "taf_trigger": false,
      "metar": "METAR GCLP 222130Z 01015KT 9999 FEW030 22/18 Q1018 NOSIG",
      "taf": "TAF GCLP 222000Z 2221/2321 02020KT 9999 FEW025 TX27/2314Z TN20/2306Z"
    },
    {
      "icao": "GCTS",
      "alert": "OK",
      "vis_m": 9999,
      "fzfg": false,
      "metar_trigger": false,
      "taf_trigger": false,
      "metar": "METAR GCTS 222130Z 09007KT 020V120 9999 SCT020 23/18 Q1019 NOSIG",
      "taf": "TAF GCTS 222000Z 2221/2321 VRB07KT 9999 FEW025 TX27/2314Z TN19/2306Z"
    },
    {
      "icao": "GMAD",
      "alert": "OK",
      "vis_m": 8000,
      "fzfg": false,
      "metar_trigger": false,
      "taf_trigger": false,
      "metar": "METAR GMAD 222130Z 18006KT 150V210 8000 SCT013 20/18 Q1016 NOSIG",
      "taf": "TAF GMAD 221700Z 2218/2324 20008KT 8000 SCT016"
    },
    {
      "icao": "GMMN",
      "alert": "OK",
      "vis_m": 9999,
      "fzfg": false,
      "metar_trigger": false,
      "taf_trigger": false,
      "metar": "METAR GMMN 222130Z 34004KT 9999 FEW016 21/17 Q1017 NOSIG",
      "taf": "TAF GMMN 221700Z 2218/2324 34010KT CAVOK"
    },
    {
      "icao": "GMMX",
      "alert": "OK",
      "vis_m": 9999,
      "fzfg": false,
      "metar_trigger": false,
      "taf_trigger": false,
      "metar": "METAR GMMX 222130Z 36005KT 320V050 CAVOK 28/16 Q1016 NOSIG",
      "taf": "TAF GMMX 221700Z 2218/2324 28006KT 8000 NSC"
    },
    {
      "icao": "HEGN",
      "alert": "OK",
      "vis_m": 9999,
      "fzfg": false,
      "metar_trigger": false,
      "taf_trigger": false,
      "metar": "METAR HEGN 222100Z 30006KT CAVOK 28/07 Q1008 NOSIG",
      "taf": "TAF HEGN 221710Z 2218/2324 33008G20KT CAVOK"
    },
    {
      "icao": "HEMA",
      "alert": "OK",
      "vis_m": 9999,
      "fzfg": false,
      "metar_trigger": false,
      "taf_trigger": false,
      "metar": "METAR HEMA 222100Z 29009KT CAVOK 28/05 Q1007 NOSIG",
      "taf": "TAF HEMA 221710Z 2218/2324 33008G20KT CAVOK"
    },
    {
      "icao": "HESH",
      "alert": "OK",
      "vis_m": 9999,
      "fzfg": false,
      "metar_trigger": false,
      "taf_trigger": false,
      "metar": "METAR HESH 222100Z 35008KT CAVOK 30/18 Q1007 NOSIG",
      "taf": "TAF HESH 221710Z 2218/2324 36013KT CAVOK"
    },
    {
      "icao": "HESX",
      "alert": "OK",
      "vis_m": 9999,
      "fzfg": false,
      "metar_trigger": false,
      "taf_trigger": false,
      "metar": "METAR HESX 222100Z 35003KT CAVOK 23/16 Q1011 NOSIG",
      "taf": "TAF HESX 221710Z 2218/2324 32009KT CAVOK"
    },
    {
      "icao": "LATI",
      "alert": "OK",
      "vis_m": null,
      "fzfg": false,
      "metar_trigger": false,
      "taf_trigger": false,
      "metar": "",
      "taf": "TAF LATI 221700Z 2218/2318 VRB03KT CAVOK TX35/2312Z TN18/2304Z"
    },
    {
      "icao": "LBPD",
      "alert": "OK",
      "vis_m": 9999,
      "fzfg": false,
      "metar_trigger": false,
      "taf_trigger": false,
      "metar": "METAR LBPD 222130Z AUTO 16004KT 9999 FEW075/// 22/17 Q1018",
      "taf": "TAF LBPD 221700Z 2218/2318 VRB03KT 9999 SCT070"
    },
    {
      "icao": "LBSF",
      "alert": "OK",
      "vis_m": 9999,
      "fzfg": false,
      "metar_trigger": false,
      "taf_trigger": false,
      "metar": "METAR LBSF 222130Z AUTO 00000KT 9999 NCD 18/16 Q1020 NOSIG",
      "taf": "TAF LBSF 221700Z 2218/2318 10010KT 9999 SCT060"
    },
    {
      "icao": "LBWN",
      "alert": "OK",
      "vis_m": 9999,
      "fzfg": false,
      "metar_trigger": false,
      "taf_trigger": false,
      "metar": "METAR LBWN 222130Z AUTO 01003KT 340V050 9999 NCD 17/12 Q1018 NOSIG",
      "taf": "TAF LBWN 221700Z 2218/2318 11010KT CAVOK"
    },
    {
      "icao": "LCLK",
      "alert": "OK",
      "vis_m": 9999,
      "fzfg": false,
      "metar_trigger": false,
      "taf_trigger": false,
      "metar": "METAR LCLK 222130Z 21006KT CAVOK 25/24 Q1007 NOSIG",
      "taf": "TAF LCLK 221730Z 2218/2318 22010KT CAVOK"
    },
    {
      "icao": "LCPH",
      "alert": "OK",
      "vis_m": 9999,
      "fzfg": false,
      "metar_trigger": false,
      "taf_trigger": false,
      "metar": "METAR LCPH 222130Z 35004KT CAVOK 23/16 Q1008 NOSIG",
      "taf": "TAF LCPH 221730Z 2218/2318 34008KT CAVOK"
    },
    {
      "icao": "LEAL",
      "alert": "OK",
      "vis_m": 9999,
      "fzfg": false,
      "metar_trigger": false,
      "taf_trigger": false,
      "metar": "METAR LEAL 222130Z 05005KT CAVOK 29/13 Q1019 NOSIG",
      "taf": "TAF LEAL 221700Z 2218/2318 07010KT CAVOK TX33/2312Z TN24/2306Z"
    },
    {
      "icao": "LEBB",
      "alert": "OK",
      "vis_m": 9999,
      "fzfg": false,
      "metar_trigger": false,
      "taf_trigger": false,
      "metar": "METAR LEBB 222130Z VRB02KT CAVOK 24/23 Q1018 NOSIG",
      "taf": "TAF LEBB 221700Z 2218/2318 08009KT CAVOK TX42/2313Z TN21/2302Z"
    },
    {
      "icao": "LEBL",
      "alert": "OK",
      "vis_m": 9999,
      "fzfg": false,
      "metar_trigger": false,
      "taf_trigger": false,
      "metar": "METAR LEBL 222130Z 21005KT CAVOK 26/24 Q1019 NOSIG",
      "taf": "TAF LEBL 221700Z 2218/2318 19008KT 9999 FEW025 TX31/2312Z TN23/2306Z"
    },
    {
      "icao": "LECH",
      "alert": "OK",
      "vis_m": 9999,
      "fzfg": false,
      "metar_trigger": false,
      "taf_trigger": false,
      "metar": "METAR LECH 222130Z AUTO VRB02KT CAVOK 26/12 Q1021",
      "taf": "TAF LECH 221700Z 2218/2318 17008KT CAVOK TX36/2312Z TN20/2306Z"
    },
    {
      "icao": "LEMD",
      "alert": "OK",
      "vis_m": 9999,
      "fzfg": false,
      "metar_trigger": false,
      "taf_trigger": false,
      "metar": "METAR LEMD 222130Z 11004KT 050V170 CAVOK 31/03 Q1020 NOSIG",
      "taf": "TAF LEMD 221700Z 2218/2324 14010KT CAVOK TX40/2316Z TN23/2305Z"
    },
    {
      "icao": "LEMG",
      "alert": "OK",
      "vis_m": 9999,
      "fzfg": false,
      "metar_trigger": false,
      "taf_trigger": false,
      "metar": "METAR LEMG 222130Z 11005KT CAVOK 25/20 Q1017 NOSIG",
      "taf": "TAF LEMG 221700Z 2218/2318 15010KT CAVOK TX32/2314Z TN22/2306Z"
    },
    {
      "icao": "LEVC",
      "alert": "OK",
      "vis_m": 9999,
      "fzfg": false,
      "metar_trigger": false,
      "taf_trigger": false,
      "metar": "METAR LEVC 222130Z VRB02KT CAVOK 28/14 Q1020 NOSIG",
      "taf": "TAF LEVC 221700Z 2218/2318 11008KT CAVOK TX36/2312Z TN22/2306Z"
    },
    {
      "icao": "LEXJ",
      "alert": "OK",
      "vis_m": 8000,
      "fzfg": false,
      "metar_trigger": false,
      "taf_trigger": false,
      "metar": "METAR LEXJ 222130Z AUTO VRB02KT 8000 NCD 22/21 Q1016",
      "taf": "TAF LEXJ 222000Z 2221/2321 05009KT 9999 FEW010 TX32/2314Z TN20/2303Z"
    },
    {
      "icao": "LEZG",
      "alert": "OK",
      "vis_m": 9999,
      "fzfg": false,
      "metar_trigger": false,
      "taf_trigger": false,
      "metar": "METAR LEZG 222130Z 17004KT 140V200 CAVOK 32/09 Q1019 NOSIG",
      "taf": "TAF LEZG 221700Z 2218/2318 09008KT CAVOK TX42/2315Z TN24/2306Z"
    },
    {
      "icao": "LEZL",
      "alert": "OK",
      "vis_m": 9999,
      "fzfg": false,
      "metar_trigger": false,
      "taf_trigger": false,
      "metar": "METAR LEZL 222130Z 21007KT CAVOK 28/20 Q1015 NOSIG",
      "taf": "TAF LEZL 222000Z 2221/2321 VRB03KT CAVOK TX38/2315Z TN23/2306Z"
    },
    {
      "icao": "LFBD",
      "alert": "OK",
      "vis_m": 9999,
      "fzfg": false,
      "metar_trigger": false,
      "taf_trigger": false,
      "metar": "METAR LFBD 222130Z AUTO 00000KT CAVOK 30/17 Q1017 NOSIG",
      "taf": "TAF LFBD 221700Z 2218/2324 12005KT CAVOK TX43/2315Z TN27/2305Z"
    },
    {
      "icao": "LFLL",
      "alert": "OK",
      "vis_m": 9999,
      "fzfg": false,
      "metar_trigger": false,
      "taf_trigger": false,
      "metar": "METAR LFLL 222130Z 01002KT CAVOK 28/15 Q1020 NOSIG",
      "taf": "TAF LFLL 221700Z 2218/2324 36008KT CAVOK"
    },
    {
      "icao": "LFLS",
      "alert": "OK",
      "vis_m": 9999,
      "fzfg": false,
      "metar_trigger": false,
      "taf_trigger": false,
      "metar": "METAR LFLS 222130Z AUTO 10003KT 070V130 CAVOK 24/17 Q1021",
      "taf": "TAF LFLS 221400Z 2215/2315 36010KT CAVOK"
    },
    {
      "icao": "LFMN",
      "alert": "OK",
      "vis_m": 9999,
      "fzfg": false,
      "metar_trigger": false,
      "taf_trigger": false,
      "metar": "METAR LFMN 222130Z 34012KT CAVOK 27/17 Q1019 NOSIG",
      "taf": "TAF LFMN 222000Z 2221/2403 33010KT CAVOK"
    },
    {
      "icao": "LFOB",
      "alert": "OK",
      "vis_m": 9999,
      "fzfg": false,
      "metar_trigger": false,
      "taf_trigger": false,
      "metar": "METAR LFOB 222130Z AUTO 04004KT CAVOK 24/20 Q1023 NOSIG",
      "taf": "TAF LFOB 221700Z 2218/2318 08008KT CAVOK"
    },
    {
      "icao": "LFPO",
      "alert": "OK",
      "vis_m": 9999,
      "fzfg": false,
      "metar_trigger": false,
      "taf_trigger": false,
      "metar": "METAR LFPO 222130Z AUTO 05008KT CAVOK 30/19 Q1022 NOSIG",
      "taf": "TAF LFPO 221700Z 2218/2324 05006KT CAVOK"
    },
    {
      "icao": "LFSB",
      "alert": "OK",
      "vis_m": 9999,
      "fzfg": false,
      "metar_trigger": false,
      "taf_trigger": false,
      "metar": "METAR LFSB 222130Z AUTO VRB03KT CAVOK 27/16 Q1021 NOSIG",
      "taf": "TAF LFSB 221700Z 2218/2318 36008KT CAVOK"
    },
    {
      "icao": "LGAV",
      "alert": "OK",
      "vis_m": 9999,
      "fzfg": false,
      "metar_trigger": false,
      "taf_trigger": false,
      "metar": "METAR LGAV 222120Z 36011KT CAVOK 26/10 Q1015 NOSIG",
      "taf": "TAF LGAV 221700Z 2218/2318 02015KT 9999 FEW025"
    },
    {
      "icao": "LGTS",
      "alert": "OK",
      "vis_m": 9999,
      "fzfg": false,
      "metar_trigger": false,
      "taf_trigger": false,
      "metar": "METAR LGTS 222120Z 00000KT 9999 FEW020 26/17 Q1016 NOSIG",
      "taf": "TAF LGTS 221700Z 2218/2318 VRB03KT 9999 FEW030"
    },
    {
      "icao": "LHBP",
      "alert": "OK",
      "vis_m": 9999,
      "fzfg": false,
      "metar_trigger": false,
      "taf_trigger": false,
      "metar": "METAR LHBP 222130Z VRB02KT CAVOK 23/16 Q1020 NOSIG",
      "taf": "TAF LHBP 221715Z 2218/2318 01006KT CAVOK"
    },
    {
      "icao": "LHDC",
      "alert": "OK",
      "vis_m": 9999,
      "fzfg": false,
      "metar_trigger": false,
      "taf_trigger": false,
      "metar": "METAR LHDC 222115Z AUTO 02007KT 340V060 CAVOK 24/18 Q1019",
      "taf": "TAF LHDC 221415Z 2215/2224 01007KT CAVOK"
    },
    {
      "icao": "LIBD",
      "alert": "OK",
      "vis_m": 9999,
      "fzfg": false,
      "metar_trigger": false,
      "taf_trigger": false,
      "metar": "METAR LIBD 222120Z 27004KT CAVOK 24/22 Q1018",
      "taf": "TAF LIBD 221700Z 2218/2318 28007KT CAVOK"
    },
    {
      "icao": "LIBG",
      "alert": "OK",
      "vis_m": 9999,
      "fzfg": false,
      "metar_trigger": false,
      "taf_trigger": false,
      "metar": "METAR LIBG 222050Z AUTO 33003KT 290V360 9999 NCD 26/20 Q1017",
      "taf": "TAF LIBG 221700Z 2218/2318 VRB05KT 9999 FEW040"
    },
    {
      "icao": "LIBP",
      "alert": "OK",
      "vis_m": 9999,
      "fzfg": false,
      "metar_trigger": false,
      "taf_trigger": false,
      "metar": "METAR LIBP 222120Z AUTO 24005KT 9999 NCD 24/20 Q1019",
      "taf": "TAF LIBP 221700Z 2218/2318 VRB05KT CAVOK"
    },
    {
      "icao": "LIBR",
      "alert": "OK",
      "vis_m": 9999,
      "fzfg": false,
      "metar_trigger": false,
      "taf_trigger": false,
      "metar": "METAR LIBR 222120Z 32010KT CAVOK 25/25 Q1017",
      "taf": "TAF LIBR 221700Z 2218/2318 33012KT CAVOK"
    },
    {
      "icao": "LICA",
      "alert": "OK",
      "vis_m": 9999,
      "fzfg": false,
      "metar_trigger": false,
      "taf_trigger": false,
      "metar": "METAR LICA 222120Z AUTO 20003KT 170V230 9999 BKN015/// 26/23 Q1018",
      "taf": "TAF LICA 221700Z 2218/2318 VRB05KT 9999 FEW020"
    },
    {
      "icao": "LICC",
      "alert": "OK",
      "vis_m": 9999,
      "fzfg": false,
      "metar_trigger": false,
      "taf_trigger": false,
      "metar": "METAR LICC 222120Z 29003KT CAVOK 26/15 Q1018",
      "taf": "TAF LICC 221700Z 2218/2318 VRB05KT CAVOK"
    },
    {
      "icao": "LICJ",
      "alert": "OK",
      "vis_m": 9999,
      "fzfg": false,
      "metar_trigger": false,
      "taf_trigger": false,
      "metar": "METAR LICJ 222120Z 26006KT CAVOK 25/23 Q1018",
      "taf": "TAF LICJ 221700Z 2218/2318 05012KT CAVOK"
    },
    {
      "icao": "LIMC",
      "alert": "OK",
      "vis_m": 9999,
      "fzfg": false,
      "metar_trigger": false,
      "taf_trigger": false,
      "metar": "METAR LIMC 222120Z 02004KT CAVOK 27/20 Q1020 NOSIG",
      "taf": "TAF LIMC 221700Z 2218/2324 VRB06KT CAVOK"
    },
    {
      "icao": "LIME",
      "alert": "OK",
      "vis_m": 9999,
      "fzfg": false,
      "metar_trigger": false,
      "taf_trigger": false,
      "metar": "METAR LIME 222120Z 03006KT CAVOK 29/17 Q1021",
      "taf": "TAF LIME 221700Z 2218/2318 VRB06KT CAVOK"
    },
    {
      "icao": "LIMF",
      "alert": "OK",
      "vis_m": 9999,
      "fzfg": false,
      "metar_trigger": false,
      "taf_trigger": false,
      "metar": "METAR LIMF 222120Z 34011KT 9999 4000W -TSRA SCT035CB OVC120 27/22 Q1021",
      "taf": ""
    },
    {
      "icao": "LIMJ",
      "alert": "OK",
      "vis_m": 9999,
      "fzfg": false,
      "metar_trigger": false,
      "taf_trigger": false,
      "metar": "METAR LIMJ 222120Z VRB02KT CAVOK 28/20 Q1018",
      "taf": "TAF LIMJ 221700Z 2218/2318 VRB06KT CAVOK"
    },
    {
      "icao": "LIPE",
      "alert": "OK",
      "vis_m": 9999,
      "fzfg": false,
      "metar_trigger": false,
      "taf_trigger": false,
      "metar": "METAR LIPE 222120Z 15003KT 130V190 CAVOK 27/17 Q1020",
      "taf": "TAF LIPE 221700Z 2218/2318 VRB05KT CAVOK"
    },
    {
      "icao": "LIPH",
      "alert": "OK",
      "vis_m": 9999,
      "fzfg": false,
      "metar_trigger": false,
      "taf_trigger": false,
      "metar": "METAR LIPH 222120Z AUTO 28010KT 9999 -RA FEW094/// BKN160/// 25/20 Q1021",
      "taf": ""
    },
    {
      "icao": "LIPQ",
      "alert": "OK",
      "vis_m": 9999,
      "fzfg": false,
      "metar_trigger": false,
      "taf_trigger": false,
      "metar": "METAR LIPQ 222120Z AUTO 03004KT 9999 NCD 22/19 Q1020",
      "taf": "TAF LIPQ 221700Z 2218/2318 VRB05KT 9999 FEW040"
    },
    {
      "icao": "LIPR",
      "alert": "OK",
      "vis_m": 9999,
      "fzfg": false,
      "metar_trigger": false,
      "taf_trigger": false,
      "metar": "METAR LIPR 222120Z AUTO 23003KT 9999 NCD 25/19 Q1019",
      "taf": "TAF LIPR 221700Z 2218/2318 VRB05KT 9999 FEW030"
    },
    {
      "icao": "LIPX",
      "alert": "OK",
      "vis_m": 9999,
      "fzfg": false,
      "metar_trigger": false,
      "taf_trigger": false,
      "metar": "METAR LIPX 222120Z 05017G27KT 9999 -TSRA SCT080CB 28/17 Q1021",
      "taf": ""
    },
    {
      "icao": "LIPY",
      "alert": "OK",
      "vis_m": 9999,
      "fzfg": false,
      "metar_trigger": false,
      "taf_trigger": false,
      "metar": "METAR LIPY 222120Z AUTO 17003KT 9999 NCD 25/22 Q1019",
      "taf": "TAF LIPY 221700Z 2218/2318 VRB05KT CAVOK"
    },
    {
      "icao": "LIPZ",
      "alert": "OK",
      "vis_m": 9999,
      "fzfg": false,
      "metar_trigger": false,
      "taf_trigger": false,
      "metar": "METAR LIPZ 222120Z 34014KT 9999 FEW070 25/17 Q1021 NOSIG",
      "taf": ""
    },
    {
      "icao": "LIRF",
      "alert": "OK",
      "vis_m": 9999,
      "fzfg": false,
      "metar_trigger": false,
      "taf_trigger": false,
      "metar": "METAR LIRF 222120Z 34004KT CAVOK 23/18 Q1018 NOSIG",
      "taf": "TAF LIRF 221700Z 2218/2324 VRB05KT 9999 FEW030"
    },
    {
      "icao": "LIRN",
      "alert": "OK",
      "vis_m": 9999,
      "fzfg": false,
      "metar_trigger": false,
      "taf_trigger": false,
      "metar": "METAR LIRN 222120Z VRB02KT CAVOK 25/19 Q1019 NOSIG",
      "taf": "TAF LIRN 221700Z 2218/2318 VRB05KT 9999 SCT030"
    },
    {
      "icao": "LIRP",
      "alert": "OK",
      "vis_m": 9999,
      "fzfg": false,
      "metar_trigger": false,
      "taf_trigger": false,
      "metar": "METAR LIRP 222115Z 30003KT CAVOK 27/19 Q1019 NOSIG",
      "taf": "TAF LIRP 221700Z 2218/2318 30007KT CAVOK"
    },
    {
      "icao": "LIRZ",
      "alert": "OK",
      "vis_m": 9999,
      "fzfg": false,
      "metar_trigger": false,
      "taf_trigger": false,
      "metar": "METAR LIRZ 222120Z AUTO 04010KT 9999 NCD 26/16 Q1020",
      "taf": "TAF LIRZ 221700Z 2218/2318 VRB05KT CAVOK"
    },
    {
      "icao": "LJLJ",
      "alert": "OK",
      "vis_m": 9999,
      "fzfg": false,
      "metar_trigger": false,
      "taf_trigger": false,
      "metar": "METAR LJLJ 222130Z 32008KT 9999 FEW007 BKN250 20/17 Q1023 NOSIG",
      "taf": "TAF LJLJ 221700Z 2218/2318 08005KT 9999 FEW060"
    },
    {
      "icao": "LKMT",
      "alert": "OK",
      "vis_m": 9999,
      "fzfg": false,
      "metar_trigger": false,
      "taf_trigger": false,
      "metar": "METAR LKMT 222130Z 02004KT CAVOK 20/16 Q1023 NOSIG",
      "taf": "TAF LKMT 221700Z 2218/2318 36008KT CAVOK"
    },
    {
      "icao": "LKPR",
      "alert": "OK",
      "vis_m": 9999,
      "fzfg": false,
      "metar_trigger": false,
      "taf_trigger": false,
      "metar": "METAR LKPR 222130Z 06004KT 020V080 CAVOK 21/16 Q1024 NOSIG",
      "taf": "TAF LKPR 222000Z 2221/2403 03004KT CAVOK"
    },
    {
      "icao": "LLBG",
      "alert": "OK",
      "vis_m": 9999,
      "fzfg": false,
      "metar_trigger": false,
      "taf_trigger": false,
      "metar": "METAR LLBG 222120Z VRB03KT 9999 SCT023 24/19 Q1010 NOSIG",
      "taf": "TAF LLBG 221703Z 2218/2318 30007KT 9999 FEW025 TX29/2311Z TN21/2303Z"
    },
    {
      "icao": "LMML",
      "alert": "OK",
      "vis_m": 9999,
      "fzfg": false,
      "metar_trigger": false,
      "taf_trigger": false,
      "metar": "METAR LMML 222145Z 30004KT CAVOK 25/22 Q1019 NOSIG",
      "taf": "TAF LMML 221700Z 2218/2318 30009KT 9999 FEW015"
    },
    {
      "icao": "LOWW",
      "alert": "OK",
      "vis_m": 9999,
      "fzfg": false,
      "metar_trigger": false,
      "taf_trigger": false,
      "metar": "METAR LOWW 222120Z 02003KT CAVOK 24/17 Q1022 NOSIG",
      "taf": "TAF LOWW 222015Z 2221/2403 33004KT 9999 FEW050 TX31/2313Z TN18/2403Z"
    },
    {
      "icao": "LPFR",
      "alert": "OK",
      "vis_m": 9999,
      "fzfg": false,
      "metar_trigger": false,
      "taf_trigger": false,
      "metar": "METAR LPFR 222130Z 29003KT 250V330 CAVOK 22/20 Q1015",
      "taf": "TAF LPFR 221700Z 2218/2318 26008KT 9999 FEW012"
    },
    {
      "icao": "LPMA",
      "alert": "OK",
      "vis_m": 9999,
      "fzfg": false,
      "metar_trigger": false,
      "taf_trigger": false,
      "metar": "METAR LPMA 222130Z 35011KT 330V030 9999 SCT015 22/15 Q1019",
      "taf": "TAF LPMA 221700Z 2218/2318 36012KT 9999 SCT015"
    },
    {
      "icao": "LPPR",
      "alert": "OK",
      "vis_m": 8000,
      "fzfg": false,
      "metar_trigger": false,
      "taf_trigger": false,
      "metar": "METAR LPPR 222130Z 06003KT 010V130 8000 NSC 20/18 Q1016",
      "taf": ""
    },
    {
      "icao": "LPPS",
      "alert": "OK",
      "vis_m": 9999,
      "fzfg": false,
      "metar_trigger": false,
      "taf_trigger": false,
      "metar": "METAR LPPS 222130Z 34012KT 9999 SCT014 21/17 Q1020",
      "taf": "TAF LPPS 221700Z 2218/2324 34012KT 9999 SCT012"
    },
    {
      "icao": "LPPT",
      "alert": "OK",
      "vis_m": 9999,
      "fzfg": false,
      "metar_trigger": false,
      "taf_trigger": false,
      "metar": "METAR LPPT 222130Z 31008KT CAVOK 23/15 Q1015",
      "taf": "TAF LPPT 221700Z 2218/2324 31013KT CAVOK"
    },
    {
      "icao": "LQBK",
      "alert": "OK",
      "vis_m": 9999,
      "fzfg": false,
      "metar_trigger": false,
      "taf_trigger": false,
      "metar": "METAR LQBK 222130Z VRB01KT CAVOK 23/18 Q1020 NOSIG",
      "taf": "TAF LQBK 221700Z 2218/2318 28007KT CAVOK TX32/2314Z TN20/2303Z"
    },
    {
      "icao": "LQSA",
      "alert": "OK",
      "vis_m": 9999,
      "fzfg": false,
      "metar_trigger": false,
      "taf_trigger": false,
      "metar": "METAR LQSA 222130Z 14003KT 100V180 9999 FEW050 19/17 Q1022 NOSIG",
      "taf": "TAF LQSA 221700Z 2218/2318 VRB02KT CAVOK TX28/2311Z TN16/2303Z"
    },
    {
      "icao": "LQTZ",
      "alert": "OK",
      "vis_m": 9999,
      "fzfg": false,
      "metar_trigger": false,
      "taf_trigger": false,
      "metar": "METAR LQTZ 222130Z 00000KT 9999 SCT071 20/20 Q1020",
      "taf": "TAF LQTZ 221700Z 2218/2318 28005KT 9999 SCT050 TX27/2314Z TN17/2303Z"
    },
    {
      "icao": "LRBC",
      "alert": "OK",
      "vis_m": 9999,
      "fzfg": false,
      "metar_trigger": false,
      "taf_trigger": false,
      "metar": "METAR LRBC 222130Z 32002KT CAVOK 19/16 Q1018",
      "taf": "TAF LRBC 222000Z 2221/2306 VRB04KT CAVOK"
    },
    {
      "icao": "LRBS",
      "alert": "OK",
      "vis_m": 9999,
      "fzfg": false,
      "metar_trigger": false,
      "taf_trigger": false,
      "metar": "METAR LRBS 222130Z VRB02KT CAVOK 23/17 Q1017 NOSIG",
      "taf": "TAF LRBS 221700Z 2218/2318 02005KT CAVOK"
    },
    {
      "icao": "LRBV",
      "alert": "OK",
      "vis_m": 7000,
      "fzfg": false,
      "metar_trigger": false,
      "taf_trigger": false,
      "metar": "METAR LRBV 222130Z AUTO 25002KT 7000 OVC097/// 18/17 Q1021",
      "taf": "TAF LRBV 221700Z 2218/2303 34008KT 9999 SCT060"
    },
    {
      "icao": "LRCL",
      "alert": "OK",
      "vis_m": 9999,
      "fzfg": false,
      "metar_trigger": false,
      "taf_trigger": false,
      "metar": "METAR LRCL 222130Z 00000KT CAVOK 18/17 Q1020",
      "taf": "TAF LRCL 222000Z 2221/2306 VRB04KT 9999 FEW050"
    },
    {
      "icao": "LRCV",
      "alert": "OK",
      "vis_m": 8000,
      "fzfg": false,
      "metar_trigger": false,
      "taf_trigger": false,
      "metar": "METAR LRCV 222130Z 30004KT 8000 FEW007 20/20 Q1019",
      "taf": "TAF LRCV 222000Z 2221/2306 VRB04KT 9999 SCT045"
    },
    {
      "icao": "LRIA",
      "alert": "OK",
      "vis_m": 9999,
      "fzfg": false,
      "metar_trigger": false,
      "taf_trigger": false,
      "metar": "METAR LRIA 222130Z 00000KT CAVOK 21/16 Q1018",
      "taf": "TAF LRIA 222000Z 2221/2306 VRB04KT CAVOK"
    },
    {
      "icao": "LROP",
      "alert": "OK",
      "vis_m": 9999,
      "fzfg": false,
      "metar_trigger": false,
      "taf_trigger": false,
      "metar": "METAR LROP 222130Z 11002KT CAVOK 23/18 Q1018 NOSIG",
      "taf": "TAF LROP 221700Z 2218/2318 02005KT CAVOK"
    },
    {
      "icao": "LRSB",
      "alert": "OK",
      "vis_m": 9999,
      "fzfg": false,
      "metar_trigger": false,
      "taf_trigger": false,
      "metar": "METAR LRSB 222130Z VRB02KT CAVOK 19/19 Q1020",
      "taf": "TAF LRSB 221700Z 2218/2318 VRB04KT 9999 SCT045"
    },
    {
      "icao": "LRSM",
      "alert": "OK",
      "vis_m": 9999,
      "fzfg": false,
      "metar_trigger": false,
      "taf_trigger": false,
      "metar": "METAR LRSM 222130Z AUTO 18004KT 9999 FEW120/// BKN140/// 22/19 Q1018",
      "taf": "TAF LRSM 221400Z 2215/2224 VRB04KT 9999 SCT040"
    },
    {
      "icao": "LRSV",
      "alert": "OK",
      "vis_m": 9999,
      "fzfg": false,
      "metar_trigger": false,
      "taf_trigger": false,
      "metar": "METAR LRSV 222130Z 02002KT CAVOK 19/14 Q1019",
      "taf": "TAF LRSV 222000Z 2221/2306 VRB04KT CAVOK"
    },
    {
      "icao": "LRTM",
      "alert": "OK",
      "vis_m": 9999,
      "fzfg": false,
      "metar_trigger": false,
      "taf_trigger": false,
      "metar": "METAR LRTM 222130Z VRB02KT CAVOK 19/18 Q1020",
      "taf": "TAF LRTM 222000Z 2221/2306 VRB04KT 9999 SCT040"
    },
    {
      "icao": "LRTR",
      "alert": "OK",
      "vis_m": 9999,
      "fzfg": false,
      "metar_trigger": false,
      "taf_trigger": false,
      "metar": "METAR LRTR 222130Z 08005KT CAVOK 20/20 Q1018",
      "taf": "TAF LRTR 221700Z 2218/2318 VRB04KT 9999 FEW050CB"
    },
    {
      "icao": "LTAC",
      "alert": "OK",
      "vis_m": 9999,
      "fzfg": false,
      "metar_trigger": false,
      "taf_trigger": false,
      "metar": "METAR LTAC 222120Z 05011KT CAVOK 15/08 Q1018 NOSIG RMK RWY21C 03010KT RWY03L 04010KT RWY21R 03008KT RWY03R 04011KT RWY21L 05007KT",
      "taf": "TAF LTAC 221640Z 2218/2318 05012KT CAVOK"
    },
    {
      "icao": "LTFM",
      "alert": "OK",
      "vis_m": 9999,
      "fzfg": false,
      "metar_trigger": false,
      "taf_trigger": false,
      "metar": "METAR LTFM 222120Z 05008KT CAVOK 22/19 Q1017 NOSIG RMK RWY17L 05005KT RWY34L 03006KT RWY16R 05004KT RWY36 06008KT RWY18 07006KT",
      "taf": "TAF LTFM 221640Z 2218/2324 04015KT CAVOK"
    },
    {
      "icao": "LUKK",
      "alert": "OK",
      "vis_m": 9999,
      "fzfg": false,
      "metar_trigger": false,
      "taf_trigger": false,
      "metar": "METAR LUKK 222130Z 24008KT CAVOK 19/17 Q1018 NOSIG",
      "taf": "TAF LUKK 221721Z 2218/2318 VRB04KT CAVOK"
    },
    {
      "icao": "LWOH",
      "alert": "OK",
      "vis_m": null,
      "fzfg": false,
      "metar_trigger": false,
      "taf_trigger": false,
      "metar": "",
      "taf": "TAF LWOH 222015Z 2221/2321 34006KT CAVOK"
    },
    {
      "icao": "LWSK",
      "alert": "OK",
      "vis_m": null,
      "fzfg": false,
      "metar_trigger": false,
      "taf_trigger": false,
      "metar": "",
      "taf": "TAF LWSK 222015Z 2221/2321 VRB02KT CAVOK"
    },
    {
      "icao": "LYBE",
      "alert": "OK",
      "vis_m": 9999,
      "fzfg": false,
      "metar_trigger": false,
      "taf_trigger": false,
      "metar": "METAR LYBE 222130Z 28004KT 260V320 CAVOK 22/18 Q1018 NOSIG",
      "taf": "TAF LYBE 221700Z 2218/2318 30008KT 9999 SCT045 TX30/2314Z TN20/2303Z"
    },
    {
      "icao": "LYNI",
      "alert": "OK",
      "vis_m": 9999,
      "fzfg": false,
      "metar_trigger": false,
      "taf_trigger": false,
      "metar": "METAR LYNI 222130Z 32003KT 290V010 CAVOK 21/18 Q1019 NOSIG",
      "taf": "TAF LYNI 221700Z 2218/2318 06005KT 9999 SCT055 TX29/2314Z TN17/2303Z"
    },
    {
      "icao": "LYPG",
      "alert": "OK",
      "vis_m": 9999,
      "fzfg": false,
      "metar_trigger": false,
      "taf_trigger": false,
      "metar": "METAR LYPG 222130Z 34004KT CAVOK 26/16 Q1016 NOSIG",
      "taf": "TAF LYPG 221700Z 2218/2318 36008KT 9999 SCT050 TX34/2313Z TN21/2303Z"
    },
    {
      "icao": "LZIB",
      "alert": "OK",
      "vis_m": 9999,
      "fzfg": false,
      "metar_trigger": false,
      "taf_trigger": false,
      "metar": "METAR LZIB 222130Z 03006KT CAVOK 23/16 Q1021 NOSIG",
      "taf": "TAF LZIB 221715Z 2218/2318 35009KT CAVOK"
    },
    {
      "icao": "LZKZ",
      "alert": "OK",
      "vis_m": 9999,
      "fzfg": false,
      "metar_trigger": false,
      "taf_trigger": false,
      "metar": "METAR LZKZ 222130Z 02006KT CAVOK 21/18 Q1020 NOSIG",
      "taf": "TAF LZKZ 221715Z 2218/2318 36010KT CAVOK"
    },
    {
      "icao": "LZTT",
      "alert": "OK",
      "vis_m": 9999,
      "fzfg": false,
      "metar_trigger": false,
      "taf_trigger": false,
      "metar": "METAR LZTT 222130Z 32004KT 260V030 9999 FEW030 15/15 Q1024",
      "taf": "TAF LZTT 221715Z 2218/2318 07006KT 9999 FEW020"
    },
    {
      "icao": "OEJN",
      "alert": "OK",
      "vis_m": 9999,
      "fzfg": false,
      "metar_trigger": false,
      "taf_trigger": false,
      "metar": "METAR OEJN 222100Z 26004KT CAVOK 31/24 Q1005 NOSIG",
      "taf": "TAF OEJN 221700Z 2218/2324 34007KT CAVOK"
    },
    {
      "icao": "OEMA",
      "alert": "OK",
      "vis_m": 9999,
      "fzfg": false,
      "metar_trigger": false,
      "taf_trigger": false,
      "metar": "METAR OEMA 222100Z 31012KT CAVOK 38/M03 Q1009 NOSIG",
      "taf": "TAF OEMA 221700Z 2218/2324 32009KT CAVOK"
    },
    {
      "icao": "OJAI",
      "alert": "OK",
      "vis_m": 5000,
      "fzfg": false,
      "metar_trigger": false,
      "taf_trigger": false,
      "metar": "METAR OJAI 222100Z 28010KT 5000 HZ NSC 19/15 Q1013 NOSIG",
      "taf": "TAF OJAI 221651Z 2218/2324 28010KT 5000 HZ NSC"
    },
    {
      "icao": "OMAA",
      "alert": "OK",
      "vis_m": 9999,
      "fzfg": false,
      "metar_trigger": false,
      "taf_trigger": false,
      "metar": "METAR OMAA 222130Z 23004KT CAVOK 33/23 Q0997 NOSIG",
      "taf": "TAF OMAA 221700Z 2218/2400 04006KT 8000 NSC"
    },
    {
      "icao": "OMDB",
      "alert": "OK",
      "vis_m": 9999,
      "fzfg": false,
      "metar_trigger": false,
      "taf_trigger": false,
      "metar": "METAR OMDB 222130Z 32009KT CAVOK 34/22 Q0998 NOSIG",
      "taf": "TAF OMDB 221700Z 2218/2400 VRB02KT 8000 NSC"
    },
    {
      "icao": "UAAA",
      "alert": "OK",
      "vis_m": 9999,
      "fzfg": false,
      "metar_trigger": false,
      "taf_trigger": false,
      "metar": "METAR UAAA 222130Z 16003MPS 9999 FEW200 21/05 Q1010 NOSIG",
      "taf": "TAF UAAA 221702Z 2218/2318 20003MPS 9999 FEW050CB SCT100 TX35/2310Z TN20/2301Z"
    },
    {
      "icao": "UBBB",
      "alert": "OK",
      "vis_m": 9999,
      "fzfg": false,
      "metar_trigger": false,
      "taf_trigger": false,
      "metar": "METAR UBBB 222130Z VRB02KT 9999 FEW060CB 23/14 Q1015 NOSIG",
      "taf": "TAF UBBB 221714Z 2218/2318 34012KT 9999 BKN040 TX28/2310Z TN20/2301Z"
    },
    {
      "icao": "UDSG",
      "alert": "OK",
      "vis_m": 9999,
      "fzfg": false,
      "metar_trigger": false,
      "taf_trigger": false,
      "metar": "METAR UDSG 222130Z 26003KT 9999 NSC 12/10 Q1021 NOSIG",
      "taf": "TAF UDSG 221700Z 2218/2318 03006KT 9999 FEW050"
    },
    {
      "icao": "UDYZ",
      "alert": "OK",
      "vis_m": 9999,
      "fzfg": false,
      "metar_trigger": false,
      "taf_trigger": false,
      "metar": "METAR UDYZ 222130Z 01011G21KT 9999 FEW046 23/11 Q1015 NOSIG",
      "taf": "TAF UDYZ 221700Z 2218/2318 04006KT 9999 FEW040"
    },
    {
      "icao": "UGKO",
      "alert": "OK",
      "vis_m": 9999,
      "fzfg": false,
      "metar_trigger": false,
      "taf_trigger": false,
      "metar": "METAR UGKO 222130Z 08003KT CAVOK 17/16 Q1016 NOSIG",
      "taf": "TAF UGKO 221700Z 2218/2318 26007KT CAVOK TX30/2311Z TN16/2302Z"
    }
  ]
}