{
  "ts_utc": "2026-02-21T06:56:12Z",
  "threshold_m": 150,
  "source": "stations_override.txt (ICAO list) + aviationweather.gov (METAR/TAF raw)",
  "station_count": 159,
  "stations": [
    {
      "icao": "BIKF",
      "alert": "OK",
      "vis_m": 9999,
      "fzfg": false,
      "metar_trigger": false,
      "taf_trigger": false,
      "metar": "METAR BIKF 210630Z 06008KT CAVOK M05/M08 Q1007",
      "taf": "TAF BIKF 210455Z 2106/2206 08008KT CAVOK TX02/2115Z TNM06/2106Z"
    },
    {
      "icao": "BKPR",
      "alert": "OK",
      "vis_m": null,
      "fzfg": false,
      "metar_trigger": false,
      "taf_trigger": false,
      "metar": "",
      "taf": "TAF BKPR 210530Z 2106/2206 01015KT 9999 BKN040"
    },
    {
      "icao": "EBCI",
      "alert": "OK",
      "vis_m": 9999,
      "fzfg": false,
      "metar_trigger": false,
      "taf_trigger": false,
      "metar": "METAR EBCI 210620Z 26007KT 9999 -RADZ FEW010 08/06 Q1020 TEMPO 3500 RADZ BKN007",
      "taf": "TAF EBCI 210510Z 2106/2212 24012KT 9999 SCT012 BKN020"
    },
    {
      "icao": "EDDB",
      "alert": "OK",
      "vis_m": 9999,
      "fzfg": false,
      "metar_trigger": false,
      "taf_trigger": false,
      "metar": "METAR EDDB 210650Z AUTO 21009KT 9999 SHRA FEW010 BKN028 BKN033 FEW///TCU 03/02 Q1013 TEMPO 4000 RADZ BKN009",
      "taf": "TAF EDDB 210500Z 2106/2206 19010KT 9999 SCT013 BKN025"
    },
    {
      "icao": "EDDH",
      "alert": "OK",
      "vis_m": 9999,
      "fzfg": false,
      "metar_trigger": false,
      "taf_trigger": false,
      "metar": "METAR EDDH 210650Z AUTO 26012KT 220V290 9999 OVC008 06/05 Q1010 NOSIG",
      "taf": "TAF EDDH 210500Z 2106/2212 26012KT 8000 OVC007"
    },
    {
      "icao": "EDDK",
      "alert": "OK",
      "vis_m": 9999,
      "fzfg": false,
      "metar_trigger": false,
      "taf_trigger": false,
      "metar": "METAR EDDK 210650Z AUTO 27010KT 9999 SCT019 BKN029 09/06 Q1019 NOSIG",
      "taf": "TAF EDDK 210500Z 2106/2212 26010KT 9999 BKN020"
    },
    {
      "icao": "EDDN",
      "alert": "OK",
      "vis_m": 9999,
      "fzfg": false,
      "metar_trigger": false,
      "taf_trigger": false,
      "metar": "METAR EDDN 210650Z AUTO 23008KT 9999 OVC014 05/03 Q1020 NOSIG",
      "taf": "TAF EDDN 210500Z 2106/2206 22008KT 9999 OVC015"
    },
    {
      "icao": "EDDS",
      "alert": "OK",
      "vis_m": 9999,
      "fzfg": false,
      "metar_trigger": false,
      "taf_trigger": false,
      "metar": "METAR EDDS 210650Z AUTO 21007KT 170V260 9999 BKN032 BKN049 06/04 Q1021 NOSIG",
      "taf": "TAF EDDS 210500Z 2106/2206 23008KT 9999 BKN025"
    },
    {
      "icao": "EDFH",
      "alert": "OK",
      "vis_m": 9999,
      "fzfg": false,
      "metar_trigger": false,
      "taf_trigger": false,
      "metar": "METAR EDFH 210620Z 26013KT 9999 -RA FEW006 BKN010 OVC016 06/05 Q1019",
      "taf": "TAF EDFH 210500Z 2106/2206 27015G25KT 9999 BKN012"
    },
    {
      "icao": "EDJA",
      "alert": "OK",
      "vis_m": 9999,
      "fzfg": false,
      "metar_trigger": false,
      "taf_trigger": false,
      "metar": "METAR EDJA 210620Z 24018G28KT 9999 OVC010 03/02 Q1023",
      "taf": "TAF EDJA 210500Z 2106/2115 23015G25KT 9999 SCT010 BKN030"
    },
    {
      "icao": "EDLW",
      "alert": "OK",
      "vis_m": 9000,
      "fzfg": false,
      "metar_trigger": false,
      "taf_trigger": false,
      "metar": "METAR EDLW 210620Z 23011KT 9000 -DZ FEW014 OVC018 07/06 Q1016",
      "taf": "TAF EDLW 210500Z 2106/2206 25012KT 9999 BKN030"
    },
    {
      "icao": "EDNY",
      "alert": "OK",
      "vis_m": 9999,
      "fzfg": false,
      "metar_trigger": false,
      "taf_trigger": false,
      "metar": "METAR EDNY 210620Z 23012KT 9999 OVC020 05/03 Q1025",
      "taf": "TAF EDNY 210500Z 2106/2115 23007KT 9999 FEW015 BKN040"
    },
    {
      "icao": "EDSB",
      "alert": "OK",
      "vis_m": 9999,
      "fzfg": false,
      "metar_trigger": false,
      "taf_trigger": false,
      "metar": "METAR EDSB 210620Z 20016KT 9999 OVC028 07/05 Q1023",
      "taf": "TAF EDSB 210500Z 2106/2206 20013KT 9999 BKN020"
    },
    {
      "icao": "EETN",
      "alert": "OK",
      "vis_m": 9999,
      "fzfg": false,
      "metar_trigger": false,
      "taf_trigger": false,
      "metar": "METAR EETN 210650Z 21013KT 9999 DRSN OVC019 M03/M06 Q1010 TEMPO 19015G25KT",
      "taf": "TAF EETN 210530Z 2106/2206 19015G26KT 9999 DRSN SCT015 BKN020"
    },
    {
      "icao": "EFTU",
      "alert": "OK",
      "vis_m": 3300,
      "fzfg": false,
      "metar_trigger": false,
      "taf_trigger": false,
      "metar": "METAR EFTU 210650Z AUTO 24010KT 3300 -SN OVC007 M02/M03 Q1005",
      "taf": "TAF EFTU 210527Z 2106/2206 23012KT 8000 -SN OVC006"
    },
    {
      "icao": "EGBB",
      "alert": "OK",
      "vis_m": 9999,
      "fzfg": false,
      "metar_trigger": false,
      "taf_trigger": false,
      "metar": "METAR EGBB 210650Z 23007KT 210V270 9999 BKN021 10/08 Q1017",
      "taf": "TAF EGBB 210501Z 2106/2206 17006KT 9999 FEW012 SCT022"
    },
    {
      "icao": "EGGP",
      "alert": "OK",
      "vis_m": 9999,
      "fzfg": false,
      "metar_trigger": false,
      "taf_trigger": false,
      "metar": "METAR EGGP 210650Z 25011KT CAVOK 08/07 Q1014",
      "taf": ""
    },
    {
      "icao": "EGGW",
      "alert": "OK",
      "vis_m": 9999,
      "fzfg": false,
      "metar_trigger": false,
      "taf_trigger": false,
      "metar": "METAR EGGW 210650Z AUTO 25016KT 9999 BKN011 OVC026 09/08 Q1017",
      "taf": "TAF EGGW 210456Z 2106/2206 25012KT 9999 SCT020"
    },
    {
      "icao": "EGKK",
      "alert": "OK",
      "vis_m": 9999,
      "fzfg": false,
      "metar_trigger": false,
      "taf_trigger": false,
      "metar": "METAR EGKK 210650Z 24012KT 9999 FEW018 10/08 Q1019",
      "taf": "TAF EGKK 210455Z 2106/2212 24011KT 9999 FEW012 SCT030"
    },
    {
      "icao": "EGNM",
      "alert": "OK",
      "vis_m": 9999,
      "fzfg": false,
      "metar_trigger": false,
      "taf_trigger": false,
      "metar": "METAR EGNM 210650Z 24010KT 9999 6000W -RA SCT008 SCT030 07/06 Q1013",
      "taf": "TAF EGNM 210528Z 2106/2206 21010KT 9999 SCT020"
    },
    {
      "icao": "EGPD",
      "alert": "OK",
      "vis_m": 9999,
      "fzfg": false,
      "metar_trigger": false,
      "taf_trigger": false,
      "metar": "METAR EGPD 210650Z COR AUTO VRB02KT 9999 BKN035 OVC046 05/04 Q1006 NOSIG",
      "taf": "TAF EGPD 210459Z 2106/2206 24007KT 9999 SCT030"
    },
    {
      "icao": "EGPF",
      "alert": "OK",
      "vis_m": 9999,
      "fzfg": false,
      "metar_trigger": false,
      "taf_trigger": false,
      "metar": "METAR EGPF 210650Z AUTO 23015KT 9999 -RA BKN017 BKN030 09/06 Q1009",
      "taf": ""
    },
    {
      "icao": "EHBK",
      "alert": "OK",
      "vis_m": 9999,
      "fzfg": false,
      "metar_trigger": false,
      "taf_trigger": false,
      "metar": "METAR EHBK 210625Z AUTO 22011KT 9999 BKN039 BKN044 08/06 Q1018 NOSIG",
      "taf": "TAF EHBK 210509Z 2106/2212 24010KT 9999 BKN025"
    },
    {
      "icao": "EHEH",
      "alert": "OK",
      "vis_m": 9000,
      "fzfg": false,
      "metar_trigger": false,
      "taf_trigger": false,
      "metar": "METAR EHEH 210625Z AUTO 23008KT 9000 BR FEW031 BKN040 BKN045 08/06 Q1017 BLU NOSIG RMK TREND REMOTE BY EHWX",
      "taf": "TAF EHEH 210517Z 2106/2212 25010KT 9999 SCT040"
    },
    {
      "icao": "EKBI",
      "alert": "OK",
      "vis_m": 2500,
      "fzfg": false,
      "metar_trigger": false,
      "taf_trigger": false,
      "metar": "METAR EKBI 210650Z AUTO 24009KT 2500 BR OVC003/// 03/03 Q1005",
      "taf": "TAF EKBI 210542Z 2106/2206 24008KT 0400 FG BKN002"
    },
    {
      "icao": "EKCH",
      "alert": "OK",
      "vis_m": 3000,
      "fzfg": false,
      "metar_trigger": false,
      "taf_trigger": false,
      "metar": "METAR EKCH 210650Z 17014KT 3000 -RA BR OVC003 01/01 Q1005 NOSIG",
      "taf": ""
    },
    {
      "icao": "ENAL",
      "alert": "OK",
      "vis_m": 9999,
      "fzfg": false,
      "metar_trigger": false,
      "taf_trigger": false,
      "metar": "METAR ENAL 210620Z 05014KT 9999 -SHRASN FEW006 SCT013 BKN021 01/00 Q0999",
      "taf": "TAF ENAL 210500Z 2106/2115 02008KT 9999 SCT012 BKN025"
    },
    {
      "icao": "ENBR",
      "alert": "OK",
      "vis_m": 9999,
      "fzfg": false,
      "metar_trigger": false,
      "taf_trigger": false,
      "metar": "METAR ENBR 210620Z 33013KT 9999 FEW010 SCT013 02/01 Q0998 NOSIG RMK WIND 1200FT 33027KT",
      "taf": "TAF ENBR 210500Z 2106/2206 32012KT 9999 BKN007"
    },
    {
      "icao": "ENGM",
      "alert": "OK",
      "vis_m": 8000,
      "fzfg": false,
      "metar_trigger": false,
      "taf_trigger": false,
      "metar": "METAR ENGM 210620Z 18003KT 160V230 8000 OVC003 M01/M02 Q0997 NOSIG",
      "taf": "TAF ENGM 210500Z 2106/2206 17010KT 6000 -SN BKN012"
    },
    {
      "icao": "ENHD",
      "alert": "OK",
      "vis_m": 3700,
      "fzfg": false,
      "metar_trigger": false,
      "taf_trigger": false,
      "metar": "METAR ENHD 210620Z AUTO 33017KT 3700 +RA FEW003/// BKN004/// BKN008/// 04/04 Q0999 RERA",
      "taf": ""
    },
    {
      "icao": "ENTC",
      "alert": "OK",
      "vis_m": 9999,
      "fzfg": false,
      "metar_trigger": false,
      "taf_trigger": false,
      "metar": "METAR ENTC 210620Z 19012KT 9999 -SHSN BKN021 BKN040 M09/M14 Q0996 NOSIG RMK WIND 2600FT 32006KT",
      "taf": "TAF ENTC 210500Z 2106/2206 18012KT 9999 SCT020 BKN030"
    },
    {
      "icao": "ENTO",
      "alert": "OK",
      "vis_m": 150,
      "fzfg": false,
      "metar_trigger": false,
      "taf_trigger": false,
      "metar": "METAR ENTO 210620Z 20011KT 0150 R18/0750N R36/0700N -DZRA VV002 01/01 Q0999 TEMPO 0800 DZ FG",
      "taf": ""
    },
    {
      "icao": "ENVA",
      "alert": "OK",
      "vis_m": 4000,
      "fzfg": false,
      "metar_trigger": false,
      "taf_trigger": false,
      "metar": "METAR ENVA 210620Z 36003KT 4000 -SN OVC008 M01/M01 Q0996 BECMG 27010KT TEMPO 1500 SN SCT008 BKN012 RMK WIND 670FT VRB02KT",
      "taf": "TAF ENVA 210500Z 2106/2206 12005KT 8000 -SN BKN020"
    },
    {
      "icao": "ENZV",
      "alert": "OK",
      "vis_m": 7000,
      "fzfg": false,
      "metar_trigger": false,
      "taf_trigger": false,
      "metar": "METAR ENZV 210620Z 25009KT 7000 RA SCT005 BKN011 06/05 Q0999 BECMG 32012KT SCT011 BKN025",
      "taf": ""
    },
    {
      "icao": "EPGD",
      "alert": "OK",
      "vis_m": 9999,
      "fzfg": false,
      "metar_trigger": false,
      "taf_trigger": false,
      "metar": "METAR EPGD 210630Z 19010KT CAVOK M04/M09 Q1014",
      "taf": "TAF EPGD 210530Z 2106/2206 18012KT CAVOK"
    },
    {
      "icao": "EPKK",
      "alert": "OK",
      "vis_m": 6000,
      "fzfg": false,
      "metar_trigger": false,
      "taf_trigger": false,
      "metar": "METAR EPKK 210630Z VRB01KT 6000 NSC M10/M12 Q1021",
      "taf": "TAF EPKK 210530Z 2106/2206 VRB02KT CAVOK"
    },
    {
      "icao": "EPKT",
      "alert": "OK",
      "vis_m": 9999,
      "fzfg": false,
      "metar_trigger": false,
      "taf_trigger": false,
      "metar": "METAR EPKT 210630Z 20005KT CAVOK M06/M09 Q1019",
      "taf": "TAF EPKT 210530Z 2106/2206 18008KT CAVOK"
    },
    {
      "icao": "EPLB",
      "alert": "OK",
      "vis_m": 9999,
      "fzfg": false,
      "metar_trigger": false,
      "taf_trigger": false,
      "metar": "METAR EPLB 210630Z 14009KT CAVOK M08/M11 Q1022",
      "taf": "TAF EPLB 210530Z 2106/2206 14008KT CAVOK"
    },
    {
      "icao": "EPMO",
      "alert": "OK",
      "vis_m": 9999,
      "fzfg": false,
      "metar_trigger": false,
      "taf_trigger": false,
      "metar": "METAR EPMO 210630Z 13007KT CAVOK M08/M10 Q1020",
      "taf": "TAF EPMO 210530Z 2106/2206 16008KT CAVOK"
    },
    {
      "icao": "EPPO",
      "alert": "OK",
      "vis_m": 9999,
      "fzfg": false,
      "metar_trigger": false,
      "taf_trigger": false,
      "metar": "METAR EPPO 210630Z 16008KT 9999 OVC018 M04/M08 Q1016",
      "taf": "TAF EPPO 210530Z 2106/2206 18010KT 9999 BKN020"
    },
    {
      "icao": "EPRA",
      "alert": "OK",
      "vis_m": 9999,
      "fzfg": false,
      "metar_trigger": false,
      "taf_trigger": false,
      "metar": "METAR EPRA 210630Z 15010KT CAVOK M08/M11 Q1019",
      "taf": "TAF EPRA 210530Z 2106/2115 16010KT CAVOK"
    },
    {
      "icao": "EPRZ",
      "alert": "OK",
      "vis_m": 9999,
      "fzfg": false,
      "metar_trigger": false,
      "taf_trigger": false,
      "metar": "METAR EPRZ 210630Z 08005KT CAVOK M07/M10 Q1022",
      "taf": "TAF EPRZ 210530Z 2106/2206 12008KT CAVOK"
    },
    {
      "icao": "EPSC",
      "alert": "OK",
      "vis_m": 5000,
      "fzfg": false,
      "metar_trigger": false,
      "taf_trigger": false,
      "metar": "METAR EPSC 210630Z 15013KT 5000 -FZRA BR BKN007 M01/M02 Q1011",
      "taf": "TAF EPSC 210530Z 2106/2206 17013KT 4000 -SN BR OVC010"
    },
    {
      "icao": "EPSY",
      "alert": "OK",
      "vis_m": 9999,
      "fzfg": false,
      "metar_trigger": false,
      "taf_trigger": false,
      "metar": "METAR EPSY 210630Z 13003KT 100V160 CAVOK M09/M11 Q1020",
      "taf": "TAF EPSY 210530Z 2106/2115 17010KT CAVOK"
    },
    {
      "icao": "EPWA",
      "alert": "OK",
      "vis_m": 9999,
      "fzfg": false,
      "metar_trigger": false,
      "taf_trigger": false,
      "metar": "METAR EPWA 210630Z 14011KT CAVOK M09/M11 Q1020 NOSIG",
      "taf": "TAF EPWA 210530Z 2106/2206 16008KT CAVOK"
    },
    {
      "icao": "EPWR",
      "alert": "OK",
      "vis_m": 9999,
      "fzfg": false,
      "metar_trigger": false,
      "taf_trigger": false,
      "metar": "METAR EPWR 210630Z 12006KT 9999 BKN027 M05/M07 Q1018",
      "taf": ""
    },
    {
      "icao": "ESGG",
      "alert": "OK",
      "vis_m": 2200,
      "fzfg": false,
      "metar_trigger": false,
      "taf_trigger": false,
      "metar": "METAR ESGG 210650Z 18010KT 2200 -RASN VV004 00/M00 Q1003",
      "taf": "TAF ESGG 210530Z 2106/2206 18012KT 4000 -RADZ OVC003"
    },
    {
      "icao": "ESKN",
      "alert": "OK",
      "vis_m": 9999,
      "fzfg": false,
      "metar_trigger": false,
      "taf_trigger": false,
      "metar": "METAR ESKN 210650Z 19009KT 9999 BKN023 M02/M04 Q1005",
      "taf": "TAF ESKN 210530Z 2106/2206 18007KT 9999 SCT030"
    },
    {
      "icao": "ESMS",
      "alert": "OK",
      "vis_m": 3200,
      "fzfg": false,
      "metar_trigger": false,
      "taf_trigger": false,
      "metar": "METAR ESMS 210650Z 17014KT 3200 -RASN OVC003 00/00 Q1006",
      "taf": "TAF ESMS 210527Z 2106/2206 19016KT 4000 -SN BKN003"
    },
    {
      "icao": "ESSA",
      "alert": "OK",
      "vis_m": 9999,
      "fzfg": false,
      "metar_trigger": false,
      "taf_trigger": false,
      "metar": "METAR ESSA 210650Z 19010KT 9999 SCT027 M03/M05 Q1004 NOSIG",
      "taf": "TAF ESSA 210530Z 2106/2206 21010KT 9999 BKN025"
    },
    {
      "icao": "EYKA",
      "alert": "OK",
      "vis_m": 9999,
      "fzfg": false,
      "metar_trigger": false,
      "taf_trigger": false,
      "metar": "METAR EYKA 210650Z 19004KT 150V230 CAVOK M07/M11 Q1022",
      "taf": "TAF EYKA 210511Z 2106/2206 16010KT 9000 NSC"
    },
    {
      "icao": "EYPA",
      "alert": "OK",
      "vis_m": 9999,
      "fzfg": false,
      "metar_trigger": false,
      "taf_trigger": false,
      "metar": "METAR EYPA 210650Z 18019KT CAVOK M05/M10 Q1016",
      "taf": "TAF EYPA 210510Z 2106/2206 17015G25KT 9000 NSC"
    },
    {
      "icao": "EYVI",
      "alert": "OK",
      "vis_m": 9999,
      "fzfg": false,
      "metar_trigger": false,
      "taf_trigger": false,
      "metar": "METAR EYVI 210650Z 17011KT CAVOK M08/M10 Q1022 NOSIG",
      "taf": "TAF EYVI 210500Z 2106/2206 18010KT 9000 NSC"
    },
    {
      "icao": "GCFV",
      "alert": "OK",
      "vis_m": 9999,
      "fzfg": false,
      "metar_trigger": false,
      "taf_trigger": false,
      "metar": "METAR GCFV 210630Z 34006KT 9999 BKN013 15/13 Q1022",
      "taf": "TAF GCFV 210200Z 2103/2203 02008KT 9999 FEW015 TX23/2114Z TN15/2106Z"
    },
    {
      "icao": "GCLP",
      "alert": "OK",
      "vis_m": 9999,
      "fzfg": false,
      "metar_trigger": false,
      "taf_trigger": false,
      "metar": "METAR GCLP 210630Z 36012KT 9999 BKN018 16/12 Q1022 NOSIG",
      "taf": "TAF GCLP 210200Z 2103/2203 36017KT 9999 FEW020 TX23/2114Z TN15/2106Z"
    },
    {
      "icao": "GCTS",
      "alert": "OK",
      "vis_m": 9999,
      "fzfg": false,
      "metar_trigger": false,
      "taf_trigger": false,
      "metar": "METAR GCTS 210630Z 06007KT 010V090 CAVOK 13/09 Q1022 NOSIG",
      "taf": "TAF GCTS 210200Z 2103/2203 05010KT CAVOK TX26/2114Z TN16/2106Z"
    },
    {
      "icao": "GMAD",
      "alert": "OK",
      "vis_m": 6000,
      "fzfg": false,
      "metar_trigger": false,
      "taf_trigger": false,
      "metar": "METAR GMAD 210630Z 09003KT 6000 FEW016 09/08 Q1022 NOSIG",
      "taf": "TAF GMAD 210500Z 2106/2212 08004KT 6000 SCT016"
    },
    {
      "icao": "GMMN",
      "alert": "OK",
      "vis_m": 4000,
      "fzfg": false,
      "metar_trigger": false,
      "taf_trigger": false,
      "metar": "METAR GMMN 210630Z 19003KT 4000 BR NSC 05/05 Q1024 NOSIG",
      "taf": "TAF GMMN 210500Z 2106/2212 20003KT 4000 BR FEW001"
    },
    {
      "icao": "GMMX",
      "alert": "OK",
      "vis_m": 9999,
      "fzfg": false,
      "metar_trigger": false,
      "taf_trigger": false,
      "metar": "METAR GMMX 210630Z 09005KT CAVOK 08/05 Q1024 NOSIG",
      "taf": "TAF GMMX 210500Z 2106/2212 06006KT 8000 NSC"
    },
    {
      "icao": "HEGN",
      "alert": "OK",
      "vis_m": 9999,
      "fzfg": false,
      "metar_trigger": false,
      "taf_trigger": false,
      "metar": "METAR HEGN 210600Z 32008KT CAVOK 17/05 Q1016 NOSIG",
      "taf": "TAF HEGN 210500Z 2106/2212 34015KT CAVOK"
    },
    {
      "icao": "HEMA",
      "alert": "OK",
      "vis_m": 9999,
      "fzfg": false,
      "metar_trigger": false,
      "taf_trigger": false,
      "metar": "METAR HEMA 210600Z 32010KT CAVOK 21/08 Q1015 NOSIG",
      "taf": "TAF HEMA 210500Z 2106/2212 35016KT CAVOK"
    },
    {
      "icao": "HESH",
      "alert": "OK",
      "vis_m": 9999,
      "fzfg": false,
      "metar_trigger": false,
      "taf_trigger": false,
      "metar": "METAR HESH 210600Z 34006KT CAVOK 22/08 Q1015 NOSIG",
      "taf": "TAF HESH 210500Z 2106/2212 01014KT CAVOK"
    },
    {
      "icao": "HESX",
      "alert": "OK",
      "vis_m": 4000,
      "fzfg": false,
      "metar_trigger": false,
      "taf_trigger": false,
      "metar": "METAR HESX 210600Z 29003KT 4000 BR NSC 09/07 Q1018 NOSIG",
      "taf": "TAF HESX 210500Z 2106/2212 30005KT 6000 NSC"
    },
    {
      "icao": "LATI",
      "alert": "OK",
      "vis_m": 6000,
      "fzfg": false,
      "metar_trigger": false,
      "taf_trigger": false,
      "metar": "METAR LATI 210650Z 00000KT 6000 MIFG NSC 06/04 Q1017 NOSIG",
      "taf": "TAF LATI 210500Z 2106/2206 VRB03KT 9999 SCT072 TX15/2112Z TN02/2204Z"
    },
    {
      "icao": "LBPD",
      "alert": "OK",
      "vis_m": 9999,
      "fzfg": false,
      "metar_trigger": false,
      "taf_trigger": false,
      "metar": "METAR LBPD 210630Z AUTO 14007KT 9999 -RASN SCT009/// OVC013/// 04/04 Q1019 TEMPO 4000 RA",
      "taf": "TAF LBPD 210500Z 2106/2206 28014KT 5000 RA BKN008 OVC020"
    },
    {
      "icao": "LBSF",
      "alert": "OK",
      "vis_m": 900,
      "fzfg": false,
      "metar_trigger": false,
      "taf_trigger": false,
      "metar": "METAR LBSF 210630Z 34006KT 310V010 0900 R27/1200U SN VV011 M02/M02 Q1019 TEMPO 1000 SN",
      "taf": "TAF LBSF 210500Z 2106/2206 35010KT 5000 -SN SCT015 BKN030"
    },
    {
      "icao": "LBWN",
      "alert": "OK",
      "vis_m": 6000,
      "fzfg": false,
      "metar_trigger": false,
      "taf_trigger": false,
      "metar": "METAR LBWN 210630Z VRB04KT 6000 OVC006 02/02 Q1020 WS ALL RWY TEMPO 5000 BR OVC005",
      "taf": "TAF LBWN 210500Z 2106/2206 06014KT 9999 BKN010 OVC015"
    },
    {
      "icao": "LCLK",
      "alert": "OK",
      "vis_m": 9999,
      "fzfg": false,
      "metar_trigger": false,
      "taf_trigger": false,
      "metar": "METAR LCLK 210630Z 34008KT 9999 FEW030 17/13 Q1017 NOSIG",
      "taf": "TAF LCLK 210530Z 2106/2206 34007KT 9999 FEW025"
    },
    {
      "icao": "LCPH",
      "alert": "OK",
      "vis_m": 9999,
      "fzfg": false,
      "metar_trigger": false,
      "taf_trigger": false,
      "metar": "METAR LCPH 210630Z 07004KT CAVOK 15/08 Q1016 NOSIG",
      "taf": "TAF LCPH 210530Z 2106/2206 02008KT 9999 FEW020"
    },
    {
      "icao": "LEAL",
      "alert": "OK",
      "vis_m": 9999,
      "fzfg": false,
      "metar_trigger": false,
      "taf_trigger": false,
      "metar": "METAR LEAL 210630Z 30003KT 270V340 CAVOK 07/02 Q1030 NOSIG",
      "taf": "TAF LEAL 210500Z 2106/2206 VRB04KT CAVOK TX18/2113Z TN08/2106Z"
    },
    {
      "icao": "LEBB",
      "alert": "OK",
      "vis_m": 9999,
      "fzfg": false,
      "metar_trigger": false,
      "taf_trigger": false,
      "metar": "METAR LEBB 210630Z VRB02KT CAVOK 04/03 Q1033 NOSIG",
      "taf": "TAF LEBB 210500Z 2106/2206 12005KT CAVOK TX18/2115Z TN04/2106Z"
    },
    {
      "icao": "LEBL",
      "alert": "OK",
      "vis_m": 9999,
      "fzfg": false,
      "metar_trigger": false,
      "taf_trigger": false,
      "metar": "METAR LEBL 210630Z 34013G27KT 280V360 9999 FEW020 07/04 Q1029 NOSIG",
      "taf": "TAF LEBL 210500Z 2106/2206 33012KT 9999 SCT020 TX17/2113Z TN07/2107Z"
    },
    {
      "icao": "LECH",
      "alert": "OK",
      "vis_m": 9999,
      "fzfg": false,
      "metar_trigger": false,
      "taf_trigger": false,
      "metar": "METAR LECH 210630Z AUTO 31001KT CAVOK 04/M01 Q1030",
      "taf": ""
    },
    {
      "icao": "LEMD",
      "alert": "OK",
      "vis_m": 9999,
      "fzfg": false,
      "metar_trigger": false,
      "taf_trigger": false,
      "metar": "METAR LEMD 210630Z 35003KT CAVOK 00/M01 Q1030 NOSIG",
      "taf": "TAF LEMD 210500Z 2106/2212 VRB05KT CAVOK TX16/2114Z TN01/2107Z"
    },
    {
      "icao": "LEMG",
      "alert": "OK",
      "vis_m": 9999,
      "fzfg": false,
      "metar_trigger": false,
      "taf_trigger": false,
      "metar": "METAR LEMG 210630Z 29007KT CAVOK 05/04 Q1030 NOSIG",
      "taf": "TAF LEMG 210500Z 2106/2206 29005KT CAVOK TX20/2114Z TN11/2107Z"
    },
    {
      "icao": "LEVC",
      "alert": "OK",
      "vis_m": 9999,
      "fzfg": false,
      "metar_trigger": false,
      "taf_trigger": false,
      "metar": "METAR LEVC 210630Z 30004KT 270V330 CAVOK 04/01 Q1030 NOSIG",
      "taf": "TAF LEVC 210500Z 2106/2206 VRB03KT CAVOK TX19/2114Z TN06/2106Z"
    },
    {
      "icao": "LEXJ",
      "alert": "OK",
      "vis_m": 9999,
      "fzfg": false,
      "metar_trigger": false,
      "taf_trigger": false,
      "metar": "METAR LEXJ 210630Z VRB01KT CAVOK 05/03 Q1032",
      "taf": "TAF LEXJ 210200Z 2103/2203 22006KT 9999 SCT040 TX16/2114Z TN06/2105Z"
    },
    {
      "icao": "LEZG",
      "alert": "OK",
      "vis_m": 9999,
      "fzfg": false,
      "metar_trigger": false,
      "taf_trigger": false,
      "metar": "METAR LEZG 210630Z VRB01KT CAVOK 04/02 Q1031 NOSIG",
      "taf": ""
    },
    {
      "icao": "LEZL",
      "alert": "OK",
      "vis_m": 9999,
      "fzfg": false,
      "metar_trigger": false,
      "taf_trigger": false,
      "metar": "METAR LEZL 210630Z VRB02KT CAVOK 09/06 Q1027 NOSIG",
      "taf": "TAF LEZL 210200Z 2103/2203 04007KT CAVOK TX22/2115Z TN05/2107Z"
    },
    {
      "icao": "LFBD",
      "alert": "OK",
      "vis_m": 4000,
      "fzfg": false,
      "metar_trigger": false,
      "taf_trigger": false,
      "metar": "METAR LFBD 210630Z AUTO 20006KT 4000 1700 R23/1200U BR SCT013 SCT022 07/07 Q1032 TEMPO 0600 BCFG BKN010",
      "taf": ""
    },
    {
      "icao": "LFLL",
      "alert": "OK",
      "vis_m": 5000,
      "fzfg": false,
      "metar_trigger": false,
      "taf_trigger": false,
      "metar": "METAR LFLL 210630Z 14004KT 5000 -DZ FEW015 OVC028 06/05 Q1030 NOSIG",
      "taf": "TAF LFLL 210500Z 2106/2212 15005KT 9999 OVC022"
    },
    {
      "icao": "LFLS",
      "alert": "OK",
      "vis_m": 9999,
      "fzfg": false,
      "metar_trigger": false,
      "taf_trigger": false,
      "metar": "METAR LFLS 210630Z AUTO 11003KT 9999 BKN027 OVC034 05/04 Q1030 NOSIG",
      "taf": "TAF LFLS 210200Z 2103/2203 09007KT 9999 BKN025"
    },
    {
      "icao": "LFMN",
      "alert": "OK",
      "vis_m": 9999,
      "fzfg": false,
      "metar_trigger": false,
      "taf_trigger": false,
      "metar": "METAR LFMN 210630Z 33010KT CAVOK 09/M01 Q1022 NOSIG",
      "taf": "TAF LFMN 210200Z 2103/2209 33010KT CAVOK"
    },
    {
      "icao": "LFOB",
      "alert": "OK",
      "vis_m": 9999,
      "fzfg": false,
      "metar_trigger": false,
      "taf_trigger": false,
      "metar": "METAR LFOB 210630Z AUTO 25010KT 9999 OVC015 11/08 Q1023 TEMPO 25015G25KT 4000 -RADZ BKN012 OVC020",
      "taf": "TAF LFOB 210500Z 2106/2206 25012KT 9999 OVC020"
    },
    {
      "icao": "LFPO",
      "alert": "OK",
      "vis_m": 9999,
      "fzfg": false,
      "metar_trigger": false,
      "taf_trigger": false,
      "metar": "METAR LFPO 210630Z 23009KT 9999 BKN016 BKN063 11/08 Q1024 NOSIG",
      "taf": "TAF LFPO 210500Z 2106/2212 25010KT 9999 BKN020"
    },
    {
      "icao": "LFSB",
      "alert": "OK",
      "vis_m": 9999,
      "fzfg": false,
      "metar_trigger": false,
      "taf_trigger": false,
      "metar": "METAR LFSB 210630Z AUTO 25011KT 220V280 9999 BKN022/// BKN029/// OVC034/// ///TCU 08/05 Q1026 TEMPO 26015G25KT",
      "taf": ""
    },
    {
      "icao": "LGAV",
      "alert": "OK",
      "vis_m": 9999,
      "fzfg": false,
      "metar_trigger": false,
      "taf_trigger": false,
      "metar": "METAR LGAV 210650Z 27002KT 9999 FEW020 10/08 Q1014 NOSIG",
      "taf": "TAF LGAV 210500Z 2106/2206 27010KT 9999 SCT025"
    },
    {
      "icao": "LGTS",
      "alert": "OK",
      "vis_m": 700,
      "fzfg": false,
      "metar_trigger": false,
      "taf_trigger": false,
      "metar": "METAR LGTS 210620Z VRB03KT 0700 R28/0300 R10/1700 FG SCT002 09/09 Q1014 NOSIG",
      "taf": "TAF LGTS 210500Z 2106/2206 VRB03KT 5000 BR BKN006 BKN020"
    },
    {
      "icao": "LHBP",
      "alert": "OK",
      "vis_m": 9999,
      "fzfg": false,
      "metar_trigger": false,
      "taf_trigger": false,
      "metar": "METAR LHBP 210630Z 30003KT 230V330 CAVOK 01/M06 Q1023 NOSIG",
      "taf": "TAF LHBP 210515Z 2106/2206 VRB03KT CAVOK"
    },
    {
      "icao": "LHDC",
      "alert": "OK",
      "vis_m": 9999,
      "fzfg": false,
      "metar_trigger": false,
      "taf_trigger": false,
      "metar": "METAR LHDC 210615Z AUTO 21007KT 9999 OVC027 00/M01 Q1023 NOSIG",
      "taf": "TAF LHDC 210515Z 2106/2115 15004KT 8000 SCT015 OVC040"
    },
    {
      "icao": "LIBD",
      "alert": "OK",
      "vis_m": 9999,
      "fzfg": false,
      "metar_trigger": false,
      "taf_trigger": false,
      "metar": "METAR LIBD 210620Z 27009KT 9999 FEW025 08/05 Q1018",
      "taf": "TAF LIBD 210500Z 2106/2206 27012KT CAVOK"
    },
    {
      "icao": "LIBG",
      "alert": "OK",
      "vis_m": null,
      "fzfg": false,
      "metar_trigger": false,
      "taf_trigger": false,
      "metar": "",
      "taf": ""
    },
    {
      "icao": "LIBP",
      "alert": "OK",
      "vis_m": 9999,
      "fzfg": false,
      "metar_trigger": false,
      "taf_trigger": false,
      "metar": "METAR LIBP 210620Z AUTO 30005KT 9999 OVC053/// 09/02 Q1022",
      "taf": "TAF LIBP 210500Z 2106/2206 34012KT 9999 SCT030"
    },
    {
      "icao": "LIBR",
      "alert": "OK",
      "vis_m": 9999,
      "fzfg": false,
      "metar_trigger": false,
      "taf_trigger": false,
      "metar": "METAR LIBR 210620Z 33011KT 9999 FEW015 10/07 Q1017",
      "taf": "TAF LIBR 210500Z 2106/2206 34015KT CAVOK"
    },
    {
      "icao": "LICA",
      "alert": "OK",
      "vis_m": 9999,
      "fzfg": false,
      "metar_trigger": false,
      "taf_trigger": false,
      "metar": "METAR LICA 210620Z AUTO 07003KT 9999 NCD 07/06 Q1018",
      "taf": "TAF LICA 210500Z 2106/2206 VRB05KT 9999 SCT020"
    },
    {
      "icao": "LICC",
      "alert": "OK",
      "vis_m": 9999,
      "fzfg": false,
      "metar_trigger": false,
      "taf_trigger": false,
      "metar": "METAR LICC 210620Z 22010KT 9999 FEW060 09/06 Q1017",
      "taf": "TAF LICC 210500Z 2106/2206 28012KT 9999 SCT040"
    },
    {
      "icao": "LICJ",
      "alert": "OK",
      "vis_m": 9999,
      "fzfg": false,
      "metar_trigger": false,
      "taf_trigger": false,
      "metar": "METAR LICJ 210620Z 30014KT 9999 SCT020 15/11 Q1020",
      "taf": "TAF LICJ 210500Z 2106/2206 33020G30KT 9999 FEW030"
    },
    {
      "icao": "LIMC",
      "alert": "OK",
      "vis_m": 9999,
      "fzfg": false,
      "metar_trigger": false,
      "taf_trigger": false,
      "metar": "METAR LIMC 210620Z 02005KT CAVOK 01/M00 Q1023 NOSIG",
      "taf": "TAF LIMC 210500Z 2106/2212 VRB05KT CAVOK"
    },
    {
      "icao": "LIME",
      "alert": "OK",
      "vis_m": 9999,
      "fzfg": false,
      "metar_trigger": false,
      "taf_trigger": false,
      "metar": "METAR LIME 210620Z 01003KT CAVOK 03/01 Q1023 NOSIG",
      "taf": "TAF LIME 210500Z 2106/2206 VRB05KT CAVOK"
    },
    {
      "icao": "LIMF",
      "alert": "OK",
      "vis_m": 9999,
      "fzfg": false,
      "metar_trigger": false,
      "taf_trigger": false,
      "metar": "METAR LIMF 210620Z VRB01KT 9999 BKN015 06/03 Q1023",
      "taf": "TAF LIMF 210500Z 2106/2206 VRB05KT CAVOK"
    },
    {
      "icao": "LIMJ",
      "alert": "OK",
      "vis_m": 9999,
      "fzfg": false,
      "metar_trigger": false,
      "taf_trigger": false,
      "metar": "METAR LIMJ 210620Z 07003KT 010V090 CAVOK 09/03 Q1022",
      "taf": "TAF LIMJ 210500Z 2106/2206 VRB05KT CAVOK"
    },
    {
      "icao": "LIPE",
      "alert": "OK",
      "vis_m": 9999,
      "fzfg": false,
      "metar_trigger": false,
      "taf_trigger": false,
      "metar": "METAR LIPE 210620Z 16003KT 110V200 CAVOK 03/00 Q1023",
      "taf": "TAF LIPE 210500Z 2106/2206 VRB05KT CAVOK"
    },
    {
      "icao": "LIPH",
      "alert": "OK",
      "vis_m": 9999,
      "fzfg": false,
      "metar_trigger": false,
      "taf_trigger": false,
      "metar": "METAR LIPH 210620Z 34002KT 9999 BKN025 05/03 Q1023",
      "taf": "TAF LIPH 210500Z 2106/2206 VRB05KT 9999 FEW040"
    },
    {
      "icao": "LIPQ",
      "alert": "OK",
      "vis_m": 9999,
      "fzfg": false,
      "metar_trigger": false,
      "taf_trigger": false,
      "metar": "METAR LIPQ 210620Z AUTO VRB02KT 9999 FEW100/// SCT240/// 03/01 Q1023",
      "taf": "TAF LIPQ 210500Z 2106/2206 VRB06KT 9999 FEW030"
    },
    {
      "icao": "LIPR",
      "alert": "OK",
      "vis_m": 9999,
      "fzfg": false,
      "metar_trigger": false,
      "taf_trigger": false,
      "metar": "METAR LIPR 210620Z 22005KT CAVOK 03/02 Q1023",
      "taf": "TAF LIPR 210500Z 2106/2206 VRB06KT 9999 SCT030"
    },
    {
      "icao": "LIPX",
      "alert": "OK",
      "vis_m": 9999,
      "fzfg": false,
      "metar_trigger": false,
      "taf_trigger": false,
      "metar": "METAR LIPX 210620Z 32004KT 290V350 CAVOK 02/01 Q1023",
      "taf": "TAF LIPX 210500Z 2106/2206 VRB05KT 9999 SCT020"
    },
    {
      "icao": "LIPY",
      "alert": "OK",
      "vis_m": 9999,
      "fzfg": false,
      "metar_trigger": false,
      "taf_trigger": false,
      "metar": "METAR LIPY 210620Z AUTO 16002KT 9999 BKN032/// 06/03 Q1023",
      "taf": "TAF LIPY 210500Z 2106/2206 35015KT 9999 SCT030"
    },
    {
      "icao": "LIPZ",
      "alert": "OK",
      "vis_m": 9999,
      "fzfg": false,
      "metar_trigger": false,
      "taf_trigger": false,
      "metar": "METAR LIPZ 210620Z 03006KT CAVOK 03/01 Q1023 NOSIG",
      "taf": "TAF LIPZ 210500Z 2106/2212 VRB05KT CAVOK"
    },
    {
      "icao": "LIRF",
      "alert": "OK",
      "vis_m": 9999,
      "fzfg": false,
      "metar_trigger": false,
      "taf_trigger": false,
      "metar": "METAR LIRF 210620Z VRB02KT CAVOK 06/03 Q1020 NOSIG",
      "taf": "TAF LIRF 210500Z 2106/2212 03010KT CAVOK"
    },
    {
      "icao": "LIRN",
      "alert": "OK",
      "vis_m": 9999,
      "fzfg": false,
      "metar_trigger": false,
      "taf_trigger": false,
      "metar": "METAR LIRN 210620Z 02005KT CAVOK 08/04 Q1019 NOSIG",
      "taf": "TAF LIRN 210500Z 2106/2206 04008KT 9999 SCT030"
    },
    {
      "icao": "LIRP",
      "alert": "OK",
      "vis_m": 9999,
      "fzfg": false,
      "metar_trigger": false,
      "taf_trigger": false,
      "metar": "METAR LIRP 210615Z 10004KT CAVOK 04/03 Q1022 NOSIG",
      "taf": "TAF LIRP 210500Z 2106/2206 10005KT CAVOK"
    },
    {
      "icao": "LIRZ",
      "alert": "OK",
      "vis_m": 9999,
      "fzfg": false,
      "metar_trigger": false,
      "taf_trigger": false,
      "metar": "METAR LIRZ 210620Z AUTO 02006KT 9999 FEW240/// 03/01 Q1021",
      "taf": "TAF LIRZ 210500Z 2106/2206 01007KT CAVOK"
    },
    {
      "icao": "LJLJ",
      "alert": "OK",
      "vis_m": 3000,
      "fzfg": false,
      "metar_trigger": false,
      "taf_trigger": false,
      "metar": "METAR LJLJ 210630Z 27002KT 3000 BR FEW003 BKN130 00/M00 Q1024 NOSIG",
      "taf": "TAF LJLJ 210500Z 2106/2206 VRB02KT 6000 FEW005 BKN015"
    },
    {
      "icao": "LKMT",
      "alert": "OK",
      "vis_m": 9999,
      "fzfg": false,
      "metar_trigger": false,
      "taf_trigger": false,
      "metar": "METAR LKMT 210630Z 24013KT CAVOK M06/M09 Q1021 NOSIG",
      "taf": "TAF LKMT 210500Z 2106/2206 23008KT CAVOK"
    },
    {
      "icao": "LKPR",
      "alert": "OK",
      "vis_m": 9999,
      "fzfg": false,
      "metar_trigger": false,
      "taf_trigger": false,
      "metar": "METAR LKPR 210630Z 20010KT 9999 BKN017 02/01 Q1017 NOSIG",
      "taf": "TAF LKPR 210500Z 2106/2212 16006KT 9999 OVC017"
    },
    {
      "icao": "LLBG",
      "alert": "OK",
      "vis_m": 9999,
      "fzfg": false,
      "metar_trigger": false,
      "taf_trigger": false,
      "metar": "METAR LLBG 210650Z 16009KT CAVOK 18/13 Q1017 NOSIG",
      "taf": "TAF LLBG 210503Z 2106/2206 17008KT 9999 SCT018"
    },
    {
      "icao": "LMML",
      "alert": "OK",
      "vis_m": 9999,
      "fzfg": false,
      "metar_trigger": false,
      "taf_trigger": false,
      "metar": "METAR LMML 210645Z 29012KT 9999 FEW015 13/10 Q1020 NOSIG",
      "taf": "TAF LMML 210500Z 2106/2206 30015KT 9999 FEW018"
    },
    {
      "icao": "LOWW",
      "alert": "OK",
      "vis_m": 9999,
      "fzfg": false,
      "metar_trigger": false,
      "taf_trigger": false,
      "metar": "METAR LOWW 210620Z 19004KT 9999 FEW024 BKN028 M06/M08 Q1023 NOSIG",
      "taf": "TAF LOWW 210515Z 2106/2212 17006KT 9000 BKN040 TX06/2211Z TNM06/2106Z"
    },
    {
      "icao": "LPFR",
      "alert": "OK",
      "vis_m": 9999,
      "fzfg": false,
      "metar_trigger": false,
      "taf_trigger": false,
      "metar": "METAR LPFR 210630Z 02007KT CAVOK 10/06 Q1027",
      "taf": "TAF LPFR 210500Z 2106/2206 03010KT CAVOK"
    },
    {
      "icao": "LPMA",
      "alert": "OK",
      "vis_m": 9999,
      "fzfg": false,
      "metar_trigger": false,
      "taf_trigger": false,
      "metar": "METAR LPMA 210630Z 01010KT 330V030 9999 SCT016 15/10 Q1026",
      "taf": "TAF LPMA 210500Z 2106/2206 03010KT 9999 SCT016"
    },
    {
      "icao": "LPPR",
      "alert": "OK",
      "vis_m": 9999,
      "fzfg": false,
      "metar_trigger": false,
      "taf_trigger": false,
      "metar": "METAR LPPR 210630Z VRB06KT CAVOK 07/05 Q1029",
      "taf": "TAF LPPR 210500Z 2106/2206 09005KT CAVOK"
    },
    {
      "icao": "LPPS",
      "alert": "OK",
      "vis_m": 9999,
      "fzfg": false,
      "metar_trigger": false,
      "taf_trigger": false,
      "metar": "METAR LPPS 210630Z 05008KT 9999 FEW015 BKN030 15/10 Q1026",
      "taf": "TAF LPPS 210500Z 2106/2212 09010KT 9999 SCT015 BKN030"
    },
    {
      "icao": "LPPT",
      "alert": "OK",
      "vis_m": 9999,
      "fzfg": false,
      "metar_trigger": false,
      "taf_trigger": false,
      "metar": "METAR LPPT 210630Z 35002KT 9999 FEW010 06/05 Q1029",
      "taf": "TAF LPPT 210500Z 2106/2212 02005KT CAVOK"
    },
    {
      "icao": "LQBK",
      "alert": "OK",
      "vis_m": 9999,
      "fzfg": false,
      "metar_trigger": false,
      "taf_trigger": false,
      "metar": "METAR LQBK 210630Z 19003KT 9999 FEW017 BKN047 00/M01 Q1026 NOSIG",
      "taf": "TAF LQBK 210500Z 2106/2206 30007KT 9999 BKN040 TX05/2113Z TNM01/2106Z"
    },
    {
      "icao": "LQSA",
      "alert": "OK",
      "vis_m": 8000,
      "fzfg": false,
      "metar_trigger": false,
      "taf_trigger": false,
      "metar": "METAR LQSA 210630Z 33004KT 8000 -SN FEW020 OVC040 00/M00 Q1022 NOSIG",
      "taf": "TAF LQSA 210500Z 2106/2206 29006KT 9999 BKN030 TX04/2113Z TNM01/2204Z"
    },
    {
      "icao": "LQTZ",
      "alert": "OK",
      "vis_m": 2500,
      "fzfg": false,
      "metar_trigger": false,
      "taf_trigger": false,
      "metar": "METAR LQTZ 210630Z VRB01KT 2500 -SN BR FEW006 SCT012 OVC020 M00/M00 Q1024",
      "taf": "TAF LQTZ 210500Z 2106/2206 27007KT 9999 SCT015 OVC030 TX03/2113Z TNM01/2106Z"
    },
    {
      "icao": "LRBC",
      "alert": "OK",
      "vis_m": 9999,
      "fzfg": false,
      "metar_trigger": false,
      "taf_trigger": false,
      "metar": "METAR LRBC 210630Z 35006KT CAVOK M03/M08 Q1029",
      "taf": "TAF LRBC 210500Z 2106/2115 35008KT CAVOK"
    },
    {
      "icao": "LRBS",
      "alert": "OK",
      "vis_m": 1400,
      "fzfg": false,
      "metar_trigger": false,
      "taf_trigger": false,
      "metar": "METAR LRBS 210630Z 05015KT 1400 R07/1900N -SN BLSN SCT008 BKN013 OVC030 M03/M05 Q1026 RESN NOSIG",
      "taf": "TAF LRBS 210500Z 2106/2206 06018KT 3000 SN BR BKN010 OVC030"
    },
    {
      "icao": "LRBV",
      "alert": "OK",
      "vis_m": 9999,
      "fzfg": false,
      "metar_trigger": false,
      "taf_trigger": false,
      "metar": "METAR LRBV 210630Z 12007KT 9999 FEW022 BKN044 BKN062 M04/M10 Q1024",
      "taf": "TAF LRBV 210500Z 2106/2115 10007KT 9999 SCT030 OVC045"
    },
    {
      "icao": "LRCL",
      "alert": "OK",
      "vis_m": 9999,
      "fzfg": false,
      "metar_trigger": false,
      "taf_trigger": false,
      "metar": "METAR LRCL 210630Z 13006KT 9999 OVC046 01/M04 Q1024",
      "taf": "TAF LRCL 210500Z 2106/2115 VRB04KT 9999 SCT020 BKN045"
    },
    {
      "icao": "LRCV",
      "alert": "OK",
      "vis_m": 9999,
      "fzfg": false,
      "metar_trigger": false,
      "taf_trigger": false,
      "metar": "METAR LRCV 210630Z 11009KT 9999 -SN FEW007 OVC030 M02/M03 Q1025",
      "taf": "TAF LRCV 210500Z 2106/2115 10010KT 9999 BKN015 OVC025"
    },
    {
      "icao": "LRIA",
      "alert": "OK",
      "vis_m": 9999,
      "fzfg": false,
      "metar_trigger": false,
      "taf_trigger": false,
      "metar": "METAR LRIA 210630Z 01005KT 340V040 CAVOK M03/M06 Q1029",
      "taf": "TAF LRIA 210500Z 2106/2115 01006KT CAVOK"
    },
    {
      "icao": "LROP",
      "alert": "OK",
      "vis_m": 800,
      "fzfg": false,
      "metar_trigger": false,
      "taf_trigger": false,
      "metar": "METAR LROP 210630Z 06018KT 0800 R08R/1100U SN BLSN OVC012 M03/M05 Q1026 NOSIG",
      "taf": "TAF LROP 210500Z 2106/2206 06018KT 3000 SN BR BKN010 OVC030"
    },
    {
      "icao": "LRSB",
      "alert": "OK",
      "vis_m": 9999,
      "fzfg": false,
      "metar_trigger": false,
      "taf_trigger": false,
      "metar": "METAR LRSB 210630Z 12004KT 9999 SCT015 OVC021 M02/M04 Q1023",
      "taf": "TAF LRSB 210500Z 2106/2206 12006KT 9999 SCT015 OVC035"
    },
    {
      "icao": "LRSM",
      "alert": "OK",
      "vis_m": 9999,
      "fzfg": false,
      "metar_trigger": false,
      "taf_trigger": false,
      "metar": "METAR LRSM 210630Z AUTO 15007KT 9999 -SHRA OVC021/// 02/00 Q1024",
      "taf": ""
    },
    {
      "icao": "LRSV",
      "alert": "OK",
      "vis_m": 9999,
      "fzfg": false,
      "metar_trigger": false,
      "taf_trigger": false,
      "metar": "METAR LRSV 210630Z 14006KT CAVOK M06/M09 Q1026",
      "taf": "TAF LRSV 210500Z 2106/2115 13008KT CAVOK"
    },
    {
      "icao": "LRTM",
      "alert": "OK",
      "vis_m": 9999,
      "fzfg": false,
      "metar_trigger": false,
      "taf_trigger": false,
      "metar": "METAR LRTM 210630Z 25001KT 9999 SCT036 BKN045 01/M03 Q1024",
      "taf": "TAF LRTM 210500Z 2106/2115 VRB04KT 9999 BKN030"
    },
    {
      "icao": "LRTR",
      "alert": "OK",
      "vis_m": 9999,
      "fzfg": false,
      "metar_trigger": false,
      "taf_trigger": false,
      "metar": "METAR LRTR 210630Z 23007KT 200V260 9999 BKN013 OVC034 03/02 Q1024",
      "taf": "TAF LRTR 210500Z 2106/2206 VRB04KT 9999 BKN030"
    },
    {
      "icao": "LTAC",
      "alert": "OK",
      "vis_m": 9999,
      "fzfg": false,
      "metar_trigger": false,
      "taf_trigger": false,
      "metar": "METAR LTAC 210620Z 09004KT 060V130 CAVOK 01/M02 Q1018 NOSIG RMK RWY21C 12003KT 080V140 RWY03L 09004KT 050V110 RWY21R 11003KT 070V130 RWY03R 07004KT RWY21L 10004KT",
      "taf": "TAF LTAC 210440Z 2106/2206 VRB02KT 9999 SCT040 SCT100"
    },
    {
      "icao": "LTFM",
      "alert": "OK",
      "vis_m": 1800,
      "fzfg": false,
      "metar_trigger": false,
      "taf_trigger": false,
      "metar": "METAR LTFM 210620Z 31015KT 1800 R35R/P1500N R17L/1300U R34L/P1500U R36/P1500N BCFG BKN002 SCT028 08/07 Q1017 NOSIG RMK RWY17L 30014KT RWY34L 32012KT RWY16R 31010KT RWY36 32014KT RWY18 31014KT",
      "taf": "TAF LTFM 210440Z 2106/2212 32014KT 2200 BCFG BKN001 BKN028"
    },
    {
      "icao": "LUKK",
      "alert": "OK",
      "vis_m": 9999,
      "fzfg": false,
      "metar_trigger": false,
      "taf_trigger": false,
      "metar": "METAR LUKK 210630Z 06009KT CAVOK M05/M10 Q1029 NOSIG",
      "taf": "TAF LUKK 210524Z 2106/2206 03010KT CAVOK"
    },
    {
      "icao": "LWOH",
      "alert": "OK",
      "vis_m": 9999,
      "fzfg": false,
      "metar_trigger": false,
      "taf_trigger": false,
      "metar": "METAR LWOH 210650Z 35005KT 320V020 9999 FEW015 SCT035 03/02 Q1016",
      "taf": ""
    },
    {
      "icao": "LWSK",
      "alert": "OK",
      "vis_m": 9999,
      "fzfg": false,
      "metar_trigger": false,
      "taf_trigger": false,
      "metar": "METAR LWSK 210650Z 01015KT 9999 FEW023 BKN050 06/01 Q1019 NOSIG",
      "taf": ""
    },
    {
      "icao": "LYBE",
      "alert": "OK",
      "vis_m": 7000,
      "fzfg": false,
      "metar_trigger": false,
      "taf_trigger": false,
      "metar": "METAR LYBE 210630Z 23007KT 7000 -RASN BKN005 BKN030 00/M00 Q1025 NOSIG",
      "taf": "TAF LYBE 210500Z 2106/2206 25008KT 8000 BKN005 BKN027 TX03/2113Z TN00/2106Z"
    },
    {
      "icao": "LYNI",
      "alert": "OK",
      "vis_m": 9999,
      "fzfg": false,
      "metar_trigger": false,
      "taf_trigger": false,
      "metar": "METAR LYNI 210630Z 32007KT 9999 FEW017 BKN027 BKN037 02/M01 Q1023 NOSIG",
      "taf": "TAF LYNI 210500Z 2106/2206 36010KT 9999 SCT015 BKN030 TX03/2114Z TN01/2106Z"
    },
    {
      "icao": "LYPG",
      "alert": "OK",
      "vis_m": 9999,
      "fzfg": false,
      "metar_trigger": false,
      "taf_trigger": false,
      "metar": "METAR LYPG 210630Z 36003KT 330V040 CAVOK 04/03 Q1018 NOSIG",
      "taf": "TAF LYPG 210500Z 2106/2206 01007KT 9999 FEW050 TX14/2113Z TN04/2106Z"
    },
    {
      "icao": "LZIB",
      "alert": "OK",
      "vis_m": 9999,
      "fzfg": false,
      "metar_trigger": false,
      "taf_trigger": false,
      "metar": "METAR LZIB 210630Z 21005KT 9999 FEW026 SCT046 M04/M07 Q1024 NOSIG",
      "taf": "TAF LZIB 210515Z 2106/2206 VRB02KT CAVOK"
    },
    {
      "icao": "LZKZ",
      "alert": "OK",
      "vis_m": 9999,
      "fzfg": false,
      "metar_trigger": false,
      "taf_trigger": false,
      "metar": "METAR LZKZ 210630Z 01005KT 9999 SCT019 OVC026 M02/M07 Q1022 NOSIG",
      "taf": "TAF LZKZ 210515Z 2106/2206 VRB02KT 9999 BKN030"
    },
    {
      "icao": "LZTT",
      "alert": "OK",
      "vis_m": 9999,
      "fzfg": false,
      "metar_trigger": false,
      "taf_trigger": false,
      "metar": "METAR LZTT 210630Z VRB01KT CAVOK M10/M12 Q1019 NOSIG",
      "taf": "TAF LZTT 210515Z 2106/2206 VRB02KT 9999 FEW050"
    },
    {
      "icao": "OEJN",
      "alert": "OK",
      "vis_m": 8000,
      "fzfg": false,
      "metar_trigger": false,
      "taf_trigger": false,
      "metar": "METAR OEJN 210600Z 00000KT 8000 NSC 28/18 Q1013 NOSIG",
      "taf": "TAF OEJN 210500Z 2106/2212 26010KT 7000 NSC"
    },
    {
      "icao": "OEMA",
      "alert": "OK",
      "vis_m": 9999,
      "fzfg": false,
      "metar_trigger": false,
      "taf_trigger": false,
      "metar": "METAR OEMA 210600Z 04006KT CAVOK 21/M01 Q1021 NOSIG",
      "taf": "TAF OEMA 210500Z 2106/2212 13010KT 7000 NSC"
    },
    {
      "icao": "OJAI",
      "alert": "OK",
      "vis_m": 4000,
      "fzfg": false,
      "metar_trigger": false,
      "taf_trigger": false,
      "metar": "METAR OJAI 210600Z 09013KT 4000 HZ NSC 11/M01 Q1019 NOSIG",
      "taf": "TAF OJAI 210429Z 2106/2212 14010KT 5000 HZ NSC"
    },
    {
      "icao": "OMAA",
      "alert": "OK",
      "vis_m": 9999,
      "fzfg": false,
      "metar_trigger": false,
      "taf_trigger": false,
      "metar": "METAR OMAA 210630Z 09004KT 060V120 CAVOK 25/09 Q1018 NOSIG",
      "taf": "TAF OMAA 210500Z 2106/2212 07005KT 8000 NSC"
    },
    {
      "icao": "OMDB",
      "alert": "OK",
      "vis_m": 9999,
      "fzfg": false,
      "metar_trigger": false,
      "taf_trigger": false,
      "metar": "METAR OMDB 210630Z 19008KT 160V230 CAVOK 28/09 Q1018 NOSIG",
      "taf": "TAF OMDB 210500Z 2106/2212 17005KT 8000 NSC"
    },
    {
      "icao": "UAAA",
      "alert": "OK",
      "vis_m": 9999,
      "fzfg": false,
      "metar_trigger": false,
      "taf_trigger": false,
      "metar": "METAR UAAA 210630Z 19003MPS 130V230 9999 BKN050CB OVC100 09/04 Q1026 NOSIG",
      "taf": "TAF UAAA 210501Z 2106/2206 26003G08MPS 6000 BKN011CB OVC100 TX08/2107Z TNM03/2201Z"
    },
    {
      "icao": "UBBB",
      "alert": "OK",
      "vis_m": 9999,
      "fzfg": false,
      "metar_trigger": false,
      "taf_trigger": false,
      "metar": "METAR UBBB 210630Z 19022KT 9999 SCT007 09/07 Q1022 NOSIG",
      "taf": "TAF UBBB 210514Z 2106/2206 18016G26KT 8000 BKN007 TX12/2110Z TN08/2101Z"
    },
    {
      "icao": "UDSG",
      "alert": "OK",
      "vis_m": 9999,
      "fzfg": false,
      "metar_trigger": false,
      "taf_trigger": false,
      "metar": "METAR UDSG 210630Z 23001KT 9999 NSC M03/M06 Q1027 NOSIG",
      "taf": "TAF UDSG 210458Z 2106/2206 VRB06KT 9999 FEW040"
    },
    {
      "icao": "UDYZ",
      "alert": "OK",
      "vis_m": 9999,
      "fzfg": false,
      "metar_trigger": false,
      "taf_trigger": false,
      "metar": "METAR UDYZ 210630Z 16003KT 9999 NSC 04/M01 Q1027 NOSIG",
      "taf": "TAF UDYZ 210500Z 2106/2206 VRB06KT 9999 FEW040"
    },
    {
      "icao": "UGKO",
      "alert": "OK",
      "vis_m": 9999,
      "fzfg": false,
      "metar_trigger": false,
      "taf_trigger": false,
      "metar": "METAR UGKO 210630Z 09016KT CAVOK 13/M03 Q1020 NOSIG",
      "taf": "TAF UGKO 210500Z 2106/2206 08017KT CAVOK TX22/2111Z TN10/2119Z"
    }
  ]
}