{
  "ts_utc": "2025-12-21T22:35:00Z",
  "threshold_m": 150,
  "source": "stations_override.txt (ICAO list) + aviationweather.gov (METAR/TAF raw)",
  "station_count": 114,
  "stations": [
    {
      "icao": "BIKF",
      "alert": "OK",
      "vis_m": 9999,
      "fzfg": false,
      "metar_trigger": false,
      "taf_trigger": false,
      "metar": "METAR BIKF 212230Z 13027KT 9999 FEW016 SCT049 08/06 Q1004",
      "taf": "TAF BIKF 211959Z 2121/2221 13022G32KT 9999 SCT010 BKN020 TX08/2121Z TN03/2221Z"
    },
    {
      "icao": "BKPR",
      "alert": "OK",
      "vis_m": 3500,
      "fzfg": false,
      "metar_trigger": false,
      "taf_trigger": false,
      "metar": "METAR BKPR 212230Z 03003KT 3500 BR BKN005 02/02 Q1019 NOSIG",
      "taf": "TAF BKPR 211730Z 2118/2218 VRB03KT 3000 BR BKN010"
    },
    {
      "icao": "EBBR",
      "alert": "OK",
      "vis_m": 9999,
      "fzfg": false,
      "metar_trigger": false,
      "taf_trigger": false,
      "metar": "METAR EBBR 212220Z 11004KT CAVOK 06/03 Q1007 NOSIG",
      "taf": "TAF EBBR 211700Z 2118/2224 10007KT CAVOK"
    },
    {
      "icao": "EBCI",
      "alert": "OK",
      "vis_m": 9999,
      "fzfg": false,
      "metar_trigger": false,
      "taf_trigger": false,
      "metar": "METAR EBCI 212220Z 09004KT 070V140 CAVOK 06/04 Q1007 NOSIG",
      "taf": "TAF EBCI 211700Z 2118/2224 11007KT CAVOK"
    },
    {
      "icao": "EDDB",
      "alert": "OK",
      "vis_m": 9000,
      "fzfg": false,
      "metar_trigger": false,
      "taf_trigger": false,
      "metar": "METAR EDDB 212220Z AUTO 12011KT 9000 OVC004 05/04 Q1019 TEMPO 4000 BR OVC005",
      "taf": "TAF EDDB 211700Z 2118/2218 08010KT 6000 OVC004"
    },
    {
      "icao": "EDDH",
      "alert": "OK",
      "vis_m": 4500,
      "fzfg": false,
      "metar_trigger": false,
      "taf_trigger": false,
      "metar": "METAR EDDH 212220Z AUTO 10009KT 4500 BR OVC002 05/05 Q1017 TEMPO 3500",
      "taf": "TAF EDDH 211700Z 2118/2224 09011KT 8000 OVC004"
    },
    {
      "icao": "EDDK",
      "alert": "OK",
      "vis_m": 9999,
      "fzfg": false,
      "metar_trigger": false,
      "taf_trigger": false,
      "metar": "METAR EDDK 212220Z AUTO 10005KT CAVOK 07/02 Q1008 NOSIG",
      "taf": "TAF EDDK 211700Z 2118/2224 11006KT CAVOK"
    },
    {
      "icao": "EDDN",
      "alert": "OK",
      "vis_m": 9999,
      "fzfg": false,
      "metar_trigger": false,
      "taf_trigger": false,
      "metar": "METAR EDDN 212220Z AUTO 11007KT 9999 FEW010 00/M01 Q1012",
      "taf": ""
    },
    {
      "icao": "EDFH",
      "alert": "OK",
      "vis_m": 9999,
      "fzfg": false,
      "metar_trigger": false,
      "taf_trigger": false,
      "metar": "METAR EDFH 212220Z 13013KT CAVOK 03/00 Q1007",
      "taf": "TAF EDFH 211700Z 2118/2218 12010KT CAVOK"
    },
    {
      "icao": "EDJA",
      "alert": "OK",
      "vis_m": 1700,
      "fzfg": false,
      "metar_trigger": false,
      "taf_trigger": false,
      "metar": "METAR EDJA 212220Z AUTO 05006KT 1700 // VV/// M02/M02 Q1009",
      "taf": "TAF EDJA 211700Z 2118/2203 06004KT 4000 BR OVC002"
    },
    {
      "icao": "EDLW",
      "alert": "OK",
      "vis_m": 9999,
      "fzfg": false,
      "metar_trigger": false,
      "taf_trigger": false,
      "metar": "METAR EDLW 212220Z AUTO 04010KT 9999 // FEW240/// 06/03 Q1009",
      "taf": "TAF EDLW 211700Z 2118/2218 07007KT CAVOK"
    },
    {
      "icao": "EDSB",
      "alert": "OK",
      "vis_m": 9999,
      "fzfg": false,
      "metar_trigger": false,
      "taf_trigger": false,
      "metar": "METAR EDSB 212220Z AUTO 04003KT 010V110 9999 // OVC008/// 02/00 Q1008",
      "taf": "TAF EDSB 211700Z 2118/2218 02009KT CAVOK"
    },
    {
      "icao": "EETN",
      "alert": "OK",
      "vis_m": 9999,
      "fzfg": false,
      "metar_trigger": false,
      "taf_trigger": false,
      "metar": "METAR EETN 212220Z 35009KT 9999 OVC009 03/01 Q1017",
      "taf": "TAF EETN 211730Z 2118/2218 34012KT 9999 SCT015 BKN020"
    },
    {
      "icao": "EFHK",
      "alert": "OK",
      "vis_m": 9999,
      "fzfg": false,
      "metar_trigger": false,
      "taf_trigger": false,
      "metar": "METAR EFHK 212220Z 32009KT 9999 FEW011 BKN012 02/M00 Q1016 NOSIG",
      "taf": "TAF EFHK 212031Z 2121/2221 32009KT 9999 BKN012"
    },
    {
      "icao": "EFTU",
      "alert": "OK",
      "vis_m": 9999,
      "fzfg": false,
      "metar_trigger": false,
      "taf_trigger": false,
      "metar": "METAR EFTU 212220Z AUTO 31004KT 280V350 9999 FEW002 01/00 Q1018",
      "taf": "TAF EFTU 212031Z 2121/2221 31008KT CAVOK"
    },
    {
      "icao": "EGGW",
      "alert": "OK",
      "vis_m": 4600,
      "fzfg": false,
      "metar_trigger": false,
      "taf_trigger": false,
      "metar": "METAR EGGW 212220Z AUTO 10011KT 4600 -RADZ BKN005 10/09 Q1006",
      "taf": "TAF EGGW 211659Z 2118/2218 10008KT 9999 BKN005"
    },
    {
      "icao": "EGKK",
      "alert": "OK",
      "vis_m": 8000,
      "fzfg": false,
      "metar_trigger": false,
      "taf_trigger": false,
      "metar": "METAR EGKK 212220Z 09009KT 8000 -RA SCT009 SCT021 10/10 Q1004",
      "taf": ""
    },
    {
      "icao": "EHEH",
      "alert": "OK",
      "vis_m": 9999,
      "fzfg": false,
      "metar_trigger": false,
      "taf_trigger": false,
      "metar": "METAR EHEH 212225Z AUTO 08006KT 9999 OVC360 08/04 Q1008 BLU NOSIG RMK TREND REMOTE BY EHWX",
      "taf": "TAF EHEH 211740Z 2118/2224 09006KT CAVOK"
    },
    {
      "icao": "EKBI",
      "alert": "OK",
      "vis_m": 9999,
      "fzfg": false,
      "metar_trigger": false,
      "taf_trigger": false,
      "metar": "METAR EKBI 212220Z AUTO 09013KT 9999 BKN010/// BKN064/// 05/03 Q1020",
      "taf": "TAF EKBI 212027Z 2121/2221 10012KT 9999 BKN008"
    },
    {
      "icao": "EKCH",
      "alert": "OK",
      "vis_m": 9999,
      "fzfg": false,
      "metar_trigger": false,
      "taf_trigger": false,
      "metar": "METAR EKCH 212220Z AUTO 08009KT 9999 OVC017/// 05/03 Q1022 NOSIG",
      "taf": "TAF EKCH 212027Z 2121/2221 11007KT 9999 BKN016"
    },
    {
      "icao": "ENTO",
      "alert": "OK",
      "vis_m": 9999,
      "fzfg": false,
      "metar_trigger": false,
      "taf_trigger": false,
      "metar": "METAR ENTO 212220Z 01007KT CAVOK M01/M03 Q1025",
      "taf": "TAF ENTO 211700Z 2118/2218 36008KT CAVOK"
    },
    {
      "icao": "EPGD",
      "alert": "OK",
      "vis_m": 9999,
      "fzfg": false,
      "metar_trigger": false,
      "taf_trigger": false,
      "metar": "METAR EPGD 212230Z 34003KT 9999 BKN018 03/02 Q1022",
      "taf": "TAF EPGD 211730Z 2118/2218 28005KT 9999 BKN020"
    },
    {
      "icao": "EPKK",
      "alert": "OK",
      "vis_m": 4500,
      "fzfg": false,
      "metar_trigger": false,
      "taf_trigger": false,
      "metar": "METAR EPKK 212230Z 06009KT 4500 BR OVC003 03/03 Q1020",
      "taf": "TAF EPKK 212030Z 2121/2221 06007KT 5000 -DZ BR OVC003"
    },
    {
      "icao": "EPKT",
      "alert": "OK",
      "vis_m": 8000,
      "fzfg": false,
      "metar_trigger": false,
      "taf_trigger": false,
      "metar": "METAR EPKT 212230Z 07005KT 8000 OVC003 04/03 Q1019",
      "taf": "TAF EPKT 211730Z 2118/2218 09007KT 6000 OVC003"
    },
    {
      "icao": "EPWA",
      "alert": "OK",
      "vis_m": 9999,
      "fzfg": false,
      "metar_trigger": false,
      "taf_trigger": false,
      "metar": "METAR EPWA 212230Z VRB02KT 9999 BKN018 02/M01 Q1022 NOSIG",
      "taf": "TAF EPWA 212030Z 2121/2221 VRB03KT 9999 BKN019"
    },
    {
      "icao": "EPWR",
      "alert": "OK",
      "vis_m": 3500,
      "fzfg": false,
      "metar_trigger": false,
      "taf_trigger": false,
      "metar": "METAR EPWR 212230Z 08006KT 3500 BR OVC002 05/05 Q1019",
      "taf": "TAF EPWR 212030Z 2121/2221 09009KT 6000 OVC004"
    },
    {
      "icao": "ESGG",
      "alert": "OK",
      "vis_m": 2800,
      "fzfg": false,
      "metar_trigger": false,
      "taf_trigger": false,
      "metar": "METAR ESGG 212220Z VRB03KT 2800 BR NSC M01/M01 Q1023",
      "taf": ""
    },
    {
      "icao": "ESKN",
      "alert": "OK",
      "vis_m": 9999,
      "fzfg": false,
      "metar_trigger": false,
      "taf_trigger": false,
      "metar": "METAR ESKN 212220Z 27005KT CAVOK M02/M03 Q1023",
      "taf": "TAF ESKN 212030Z 2121/2221 30005KT CAVOK"
    },
    {
      "icao": "ESMX",
      "alert": "CRITICAL",
      "vis_m": 100,
      "fzfg": true,
      "metar_trigger": true,
      "taf_trigger": false,
      "metar": "METAR ESMX 212220Z AUTO 01004KT 0100 R01/0400N R19/0450N FZFG VV002 M01/M01 Q1023",
      "taf": ""
    },
    {
      "icao": "EVRA",
      "alert": "OK",
      "vis_m": 9999,
      "fzfg": false,
      "metar_trigger": false,
      "taf_trigger": false,
      "metar": "METAR EVRA 212220Z 34012KT 9999 BKN020 06/02 Q1018 NOSIG",
      "taf": "TAF EVRA 212025Z 2121/2221 30010KT 9999 BKN015"
    },
    {
      "icao": "EYKA",
      "alert": "OK",
      "vis_m": 9999,
      "fzfg": false,
      "metar_trigger": false,
      "taf_trigger": false,
      "metar": "METAR EYKA 212220Z AUTO 27006KT 9999 NCD 03/02 Q1019",
      "taf": "TAF EYKA 211700Z 2118/2218 28008KT 8000 OVC025"
    },
    {
      "icao": "EYVI",
      "alert": "OK",
      "vis_m": 9999,
      "fzfg": false,
      "metar_trigger": false,
      "taf_trigger": false,
      "metar": "METAR EYVI 212220Z 30007KT 9999 -RA SCT011 BKN021 03/02 Q1018 NOSIG",
      "taf": "TAF EYVI 211700Z 2118/2218 29008KT 8000 SCT010 OVC025"
    },
    {
      "icao": "GCLP",
      "alert": "OK",
      "vis_m": 9999,
      "fzfg": false,
      "metar_trigger": false,
      "taf_trigger": false,
      "metar": "METAR GCLP 212200Z 01006KT 310V040 9999 FEW025 SCT050 17/12 Q1019 NOSIG",
      "taf": "TAF GCLP 212000Z 2121/2221 34008KT 9999 SCT025 BKN050 TX20/2214Z TN15/2206Z"
    },
    {
      "icao": "GCTS",
      "alert": "OK",
      "vis_m": 9999,
      "fzfg": false,
      "metar_trigger": false,
      "taf_trigger": false,
      "metar": "METAR GCTS 212200Z 36007KT 9999 FEW030 16/09 Q1020 NOSIG",
      "taf": "TAF GCTS 212000Z 2121/2221 19005KT 9999 SCT035 TX24/2214Z TN16/2206Z"
    },
    {
      "icao": "HECA",
      "alert": "OK",
      "vis_m": 9999,
      "fzfg": false,
      "metar_trigger": false,
      "taf_trigger": false,
      "metar": "METAR HECA 212230Z 18008KT CAVOK 18/01 Q1013 NOSIG",
      "taf": ""
    },
    {
      "icao": "HEGN",
      "alert": "OK",
      "vis_m": 9999,
      "fzfg": false,
      "metar_trigger": false,
      "taf_trigger": false,
      "metar": "METAR HEGN 212200Z 23003KT CAVOK 16/10 Q1014 NOSIG",
      "taf": ""
    },
    {
      "icao": "HESH",
      "alert": "OK",
      "vis_m": 9999,
      "fzfg": false,
      "metar_trigger": false,
      "taf_trigger": false,
      "metar": "METAR HESH 212200Z 29004KT CAVOK 18/11 Q1015 NOSIG",
      "taf": ""
    },
    {
      "icao": "HESX",
      "alert": "OK",
      "vis_m": 9999,
      "fzfg": false,
      "metar_trigger": false,
      "taf_trigger": false,
      "metar": "METAR HESX 212200Z 20006KT CAVOK 13/03 Q1013 NOSIG",
      "taf": ""
    },
    {
      "icao": "LATI",
      "alert": "OK",
      "vis_m": 8000,
      "fzfg": false,
      "metar_trigger": false,
      "taf_trigger": false,
      "metar": "METAR LATI 212220Z VRB02KT 8000 NSC 04/01 Q1016 NOSIG",
      "taf": "TAF LATI 211700Z 2118/2218 VRB05KT CAVOK TX17/2212Z TN01/2205Z"
    },
    {
      "icao": "LBSF",
      "alert": "OK",
      "vis_m": 5000,
      "fzfg": false,
      "metar_trigger": false,
      "taf_trigger": false,
      "metar": "METAR LBSF 212230Z AUTO 30003KT 5000 BR FEW024/// M01/M02 Q1019 TEMPO 2000 BR",
      "taf": "TAF LBSF 211700Z 2118/2218 VRB04KT 8000 SCT030"
    },
    {
      "icao": "LBWN",
      "alert": "OK",
      "vis_m": 9999,
      "fzfg": false,
      "metar_trigger": false,
      "taf_trigger": false,
      "metar": "METAR LBWN 212230Z AUTO 34006KT 310V010 9999 OVC019/// 06/06 Q1020 NOSIG",
      "taf": "TAF LBWN 211700Z 2118/2218 35008KT 7000 BKN010 OVC030"
    },
    {
      "icao": "LCLK",
      "alert": "OK",
      "vis_m": 9999,
      "fzfg": false,
      "metar_trigger": false,
      "taf_trigger": false,
      "metar": "METAR LCLK 212230Z 02008KT 9999 FEW018TCU SCT050 15/13 Q1014 NOSIG",
      "taf": "TAF LCLK 211730Z 2118/2218 01009KT 9999 FEW020 SCT030"
    },
    {
      "icao": "LDDU",
      "alert": "OK",
      "vis_m": 9999,
      "fzfg": false,
      "metar_trigger": false,
      "taf_trigger": false,
      "metar": "METAR LDDU 212230Z 05005KT 330V080 CAVOK 10/05 Q1015",
      "taf": "TAF LDDU 211725Z 2118/2218 VRB02KT CAVOK TX15/2211Z TN08/2203Z"
    },
    {
      "icao": "LDSP",
      "alert": "OK",
      "vis_m": 9999,
      "fzfg": false,
      "metar_trigger": false,
      "taf_trigger": false,
      "metar": "METAR LDSP 212230Z AUTO 36003KT 300V020 CAVOK 08/05 Q1015",
      "taf": "TAF LDSP 211725Z 2118/2218 VRB02KT CAVOK TX16/2212Z TN07/2205Z"
    },
    {
      "icao": "LDZA",
      "alert": "OK",
      "vis_m": 8000,
      "fzfg": false,
      "metar_trigger": false,
      "taf_trigger": false,
      "metar": "METAR LDZA 212230Z 00000KT 8000 FEW004 OVC020 03/03 Q1020 TEMPO OVC011",
      "taf": "TAF LDZA 211725Z 2118/2218 VRB02KT 6000 OVC015 TX06/2213Z TN03/2118Z"
    },
    {
      "icao": "LEAL",
      "alert": "OK",
      "vis_m": 9999,
      "fzfg": false,
      "metar_trigger": false,
      "taf_trigger": false,
      "metar": "METAR LEAL 212200Z 27004KT 9999 -RA FEW030 BKN055 10/10 Q1006 NOSIG",
      "taf": "TAF LEAL 211700Z 2118/2218 25008KT 9999 FEW020 BKN040 TX13/2213Z TN07/2207Z"
    },
    {
      "icao": "LEBL",
      "alert": "OK",
      "vis_m": 9999,
      "fzfg": false,
      "metar_trigger": false,
      "taf_trigger": false,
      "metar": "METAR LEBL 212200Z 33008KT 280V350 9999 FEW028 SCT034 12/10 Q1003 NOSIG",
      "taf": "TAF LEBL 211700Z 2118/2218 VRB04KT 9999 SCT040 TX14/2118Z TN09/2206Z"
    },
    {
      "icao": "LECH",
      "alert": "OK",
      "vis_m": 9999,
      "fzfg": false,
      "metar_trigger": false,
      "taf_trigger": false,
      "metar": "METAR LECH 212200Z AUTO 06008KT CAVOK 09/03 Q1004",
      "taf": ""
    },
    {
      "icao": "LEMD",
      "alert": "OK",
      "vis_m": 9999,
      "fzfg": false,
      "metar_trigger": false,
      "taf_trigger": false,
      "metar": "METAR LEMD 212200Z 14003KT 100V170 CAVOK M00/M00 Q1005 NOSIG",
      "taf": "TAF LEMD 211700Z 2118/2224 VRB04KT 9999 SCT030 TX07/2215Z TNM01/2207Z"
    },
    {
      "icao": "LEMG",
      "alert": "OK",
      "vis_m": 9999,
      "fzfg": false,
      "metar_trigger": false,
      "taf_trigger": false,
      "metar": "METAR LEMG 212200Z 29009KT CAVOK 08/06 Q1008 NOSIG",
      "taf": "TAF LEMG 211700Z 2118/2218 30008KT 9999 FEW012 SCT060 TX14/2214Z TN07/2206Z"
    },
    {
      "icao": "LERS",
      "alert": "OK",
      "vis_m": 9999,
      "fzfg": false,
      "metar_trigger": false,
      "taf_trigger": false,
      "metar": "METAR LERS 212200Z AUTO 05004KT 9999 FEW035 09/08 Q1004",
      "taf": "TAF LERS 212000Z 2121/2221 VRB04KT 9999 SCT025 TX12/2213Z TN06/2206Z"
    },
    {
      "icao": "LEVC",
      "alert": "OK",
      "vis_m": 9999,
      "fzfg": false,
      "metar_trigger": false,
      "taf_trigger": false,
      "metar": "METAR LEVC 212200Z 24007KT CAVOK 10/04 Q1004 NOSIG",
      "taf": "TAF LEVC 211700Z 2118/2218 27008KT 9999 FEW040 TX12/2213Z TN05/2207Z"
    },
    {
      "icao": "LFLL",
      "alert": "OK",
      "vis_m": 9000,
      "fzfg": false,
      "metar_trigger": false,
      "taf_trigger": false,
      "metar": "METAR LFLL 212230Z 14010KT 9000 -RA NSC 08/07 Q1006 TEMPO 4500 -RA",
      "taf": "TAF LFLL 211700Z 2118/2224 12006KT CAVOK"
    },
    {
      "icao": "LFMN",
      "alert": "OK",
      "vis_m": 8000,
      "fzfg": false,
      "metar_trigger": false,
      "taf_trigger": false,
      "metar": "METAR LFMN 212230Z 06016KT 8000 RA SCT043 BKN053 13/09 Q1010 NOSIG",
      "taf": "TAF LFMN 212000Z 2121/2303 08015KT 9999 BKN040"
    },
    {
      "icao": "LFOB",
      "alert": "OK",
      "vis_m": 9999,
      "fzfg": false,
      "metar_trigger": false,
      "taf_trigger": false,
      "metar": "METAR LFOB 212230Z AUTO 10011KT CAVOK 09/08 Q1004 NOSIG",
      "taf": ""
    },
    {
      "icao": "LFPO",
      "alert": "OK",
      "vis_m": 9999,
      "fzfg": false,
      "metar_trigger": false,
      "taf_trigger": false,
      "metar": "METAR LFPO 212230Z AUTO 11010KT CAVOK 11/08 Q1003 NOSIG",
      "taf": "TAF LFPO 211700Z 2118/2224 11010KT 9999 NSC"
    },
    {
      "icao": "LFSB",
      "alert": "OK",
      "vis_m": 9999,
      "fzfg": false,
      "metar_trigger": false,
      "taf_trigger": false,
      "metar": "METAR LFSB 212230Z AUTO 05003KT 020V100 CAVOK 03/01 Q1008 TEMPO 3000 BR BKN003",
      "taf": "TAF LFSB 211710Z 2118/2218 VRB03KT 8000 SCT006"
    },
    {
      "icao": "LGAV",
      "alert": "OK",
      "vis_m": 9999,
      "fzfg": false,
      "metar_trigger": false,
      "taf_trigger": false,
      "metar": "METAR LGAV 212220Z 36007KT 9999 SCT030 13/09 Q1016 NOSIG",
      "taf": "TAF LGAV 211700Z 2118/2218 36010KT 9999 SCT025 SCT070"
    },
    {
      "icao": "LGIR",
      "alert": "OK",
      "vis_m": 9999,
      "fzfg": false,
      "metar_trigger": false,
      "taf_trigger": false,
      "metar": "METAR LGIR 212220Z 18006KT 9999 FEW020 12/10 Q1014 NOSIG",
      "taf": "TAF LGIR 211700Z 2118/2218 VRB05KT 9999 SCT020 SCT080"
    },
    {
      "icao": "LGKR",
      "alert": "OK",
      "vis_m": 9999,
      "fzfg": false,
      "metar_trigger": false,
      "taf_trigger": false,
      "metar": "METAR LGKR 212220Z 00000KT 9999 FEW010 09/07 Q1014 NOSIG",
      "taf": "TAF LGKR 211700Z 2118/2218 VRB03KT 9999 FEW010 SCT020"
    },
    {
      "icao": "LGRP",
      "alert": "OK",
      "vis_m": 7000,
      "fzfg": false,
      "metar_trigger": false,
      "taf_trigger": false,
      "metar": "METAR LGRP 212220Z 10005KT 050V180 7000 RA FEW012 SCT020 17/12 Q1013 WS R06 NOSIG",
      "taf": "TAF LGRP 211700Z 2118/2218 14010KT 9999 FEW012 BKN020"
    },
    {
      "icao": "LGTS",
      "alert": "OK",
      "vis_m": 9999,
      "fzfg": false,
      "metar_trigger": false,
      "taf_trigger": false,
      "metar": "METAR LGTS 212220Z 12005KT 9999 FEW012 06/06 Q1018 NOSIG",
      "taf": "TAF LGTS 211700Z 2118/2218 VRB03KT 9999 FEW025"
    },
    {
      "icao": "LGZA",
      "alert": "OK",
      "vis_m": null,
      "fzfg": false,
      "metar_trigger": false,
      "taf_trigger": false,
      "metar": "",
      "taf": "TAF LGZA 212000Z 2121/2206 08010KT 9000 FEW020 BKN080"
    },
    {
      "icao": "LHBP",
      "alert": "OK",
      "vis_m": 7000,
      "fzfg": false,
      "metar_trigger": false,
      "taf_trigger": false,
      "metar": "METAR LHBP 212230Z 09003KT 030V120 7000 -DZ OVC004 04/03 Q1021 NOSIG",
      "taf": "TAF LHBP 211715Z 2118/2218 10005KT 6000 OVC006"
    },
    {
      "icao": "LHDC",
      "alert": "OK",
      "vis_m": 4500,
      "fzfg": false,
      "metar_trigger": false,
      "taf_trigger": false,
      "metar": "METAR LHDC 212215Z AUTO VRB01KT 4500 BR OVC016 04/04 Q1021",
      "taf": ""
    },
    {
      "icao": "LIBD",
      "alert": "OK",
      "vis_m": 9999,
      "fzfg": false,
      "metar_trigger": false,
      "taf_trigger": false,
      "metar": "METAR LIBD 212220Z 22005KT CAVOK 09/09 Q1015",
      "taf": "TAF LIBD 211700Z 2118/2218 VRB05KT 9999 FEW030"
    },
    {
      "icao": "LICC",
      "alert": "OK",
      "vis_m": 9999,
      "fzfg": false,
      "metar_trigger": false,
      "taf_trigger": false,
      "metar": "METAR LICC 212220Z 04010KT 9999 SCT010 BKN070 14/13 Q1011 RERA",
      "taf": "TAF LICC 211700Z 2118/2218 07012KT 8000 RA BKN040"
    },
    {
      "icao": "LICJ",
      "alert": "OK",
      "vis_m": 9999,
      "fzfg": false,
      "metar_trigger": false,
      "taf_trigger": false,
      "metar": "METAR LICJ 212220Z 17004KT 9999 FEW065 13/12 Q1010",
      "taf": "TAF LICJ 211700Z 2118/2218 20010KT 9999 SCT040"
    },
    {
      "icao": "LIEO",
      "alert": "OK",
      "vis_m": 9999,
      "fzfg": false,
      "metar_trigger": false,
      "taf_trigger": false,
      "metar": "METAR LIEO 212220Z 24003KT 9999 SCT050 11/11 Q1010",
      "taf": "TAF LIEO 211700Z 2118/2218 VRB05KT 8000 BKN020"
    },
    {
      "icao": "LIMC",
      "alert": "OK",
      "vis_m": 9999,
      "fzfg": false,
      "metar_trigger": false,
      "taf_trigger": false,
      "metar": "METAR LIMC 212220Z 35005KT 9999 BKN035 09/06 Q1016 NOSIG",
      "taf": "TAF LIMC 211700Z 2118/2224 VRB03KT 8000 BKN040"
    },
    {
      "icao": "LIME",
      "alert": "OK",
      "vis_m": 9999,
      "fzfg": false,
      "metar_trigger": false,
      "taf_trigger": false,
      "metar": "METAR LIME 212220Z 04002KT 9999 SCT035 07/05 Q1016 NOSIG",
      "taf": "TAF LIME 211700Z 2118/2218 VRB03KT 8000 SCT030"
    },
    {
      "icao": "LIPH",
      "alert": "OK",
      "vis_m": 9999,
      "fzfg": false,
      "metar_trigger": false,
      "taf_trigger": false,
      "metar": "METAR LIPH 212220Z AUTO 36002KT 9999 NCD 04/03 Q1016",
      "taf": "TAF LIPH 211700Z 2118/2218 VRB04KT 9999 FEW030"
    },
    {
      "icao": "LIPQ",
      "alert": "OK",
      "vis_m": 9999,
      "fzfg": false,
      "metar_trigger": false,
      "taf_trigger": false,
      "metar": "METAR LIPQ 212220Z AUTO 02003KT 350V060 9999 NCD 04/02 Q1016",
      "taf": "TAF LIPQ 211700Z 2118/2218 12007KT CAVOK"
    },
    {
      "icao": "LIPX",
      "alert": "OK",
      "vis_m": 9999,
      "fzfg": false,
      "metar_trigger": false,
      "taf_trigger": false,
      "metar": "METAR LIPX 212220Z VRB01KT 9999 BKN040 06/04 Q1016",
      "taf": "TAF LIPX 211700Z 2118/2218 VRB03KT 8000 NSC"
    },
    {
      "icao": "LIPY",
      "alert": "OK",
      "vis_m": 2400,
      "fzfg": false,
      "metar_trigger": false,
      "taf_trigger": false,
      "metar": "METAR LIPY 212220Z AUTO VRB02KT 2400 BR SCT032/// OVC063/// 09/09 Q1015",
      "taf": "TAF LIPY 211700Z 2118/2218 VRB05KT 3000 BR BKN010"
    },
    {
      "icao": "LIPZ",
      "alert": "OK",
      "vis_m": 9999,
      "fzfg": false,
      "metar_trigger": false,
      "taf_trigger": false,
      "metar": "METAR LIPZ 212220Z 01006KT CAVOK 05/03 Q1016 NOSIG",
      "taf": "TAF LIPZ 211700Z 2118/2224 03005KT 9999 FEW030"
    },
    {
      "icao": "LIRA",
      "alert": "OK",
      "vis_m": 9999,
      "fzfg": false,
      "metar_trigger": false,
      "taf_trigger": false,
      "metar": "METAR LIRA 212220Z 06002KT CAVOK 08/06 Q1012",
      "taf": "TAF LIRA 211700Z 2118/2218 04005KT 9999 FEW060"
    },
    {
      "icao": "LIRN",
      "alert": "OK",
      "vis_m": 9999,
      "fzfg": false,
      "metar_trigger": false,
      "taf_trigger": false,
      "metar": "METAR LIRN 212220Z 36006KT 280V030 9999 SCT060 13/07 Q1012 NOSIG",
      "taf": "TAF LIRN 211700Z 2118/2218 05006KT 9999 SCT060"
    },
    {
      "icao": "LLBG",
      "alert": "OK",
      "vis_m": 9999,
      "fzfg": false,
      "metar_trigger": false,
      "taf_trigger": false,
      "metar": "METAR LLBG 212220Z VRB01KT CAVOK 12/07 Q1014 NOSIG",
      "taf": "TAF LLBG 211716Z 2118/2218 VRB03KT CAVOK"
    },
    {
      "icao": "LMML",
      "alert": "OK",
      "vis_m": 9999,
      "fzfg": false,
      "metar_trigger": false,
      "taf_trigger": false,
      "metar": "METAR LMML 212215Z 17001KT CAVOK 13/12 Q1010 NOSIG",
      "taf": "TAF LMML 211700Z 2118/2218 VRB05KT 9999 SCT020"
    },
    {
      "icao": "LOWW",
      "alert": "OK",
      "vis_m": 6000,
      "fzfg": false,
      "metar_trigger": false,
      "taf_trigger": false,
      "metar": "METAR LOWW 212220Z 13014KT 6000 FEW001 BKN002 02/01 Q1019 TEMPO BKN004",
      "taf": "TAF LOWW 212015Z 2121/2303 14013KT 6000 OVC003 TX04/2213Z TN03/2121Z"
    },
    {
      "icao": "LPFR",
      "alert": "OK",
      "vis_m": 9999,
      "fzfg": false,
      "metar_trigger": false,
      "taf_trigger": false,
      "metar": "METAR LPFR 212200Z 31007KT CAVOK 09/05 Q1011",
      "taf": "TAF LPFR 211700Z 2118/2218 31010KT 9999 FEW015 SCT030"
    },
    {
      "icao": "LPPR",
      "alert": "OK",
      "vis_m": 9999,
      "fzfg": false,
      "metar_trigger": false,
      "taf_trigger": false,
      "metar": "METAR LPPR 212200Z 20004KT 150V260 9999 -SHRA FEW022 FEW026CB BKN033 BKN040 08/06 Q1008",
      "taf": "TAF LPPR 211700Z 2118/2218 15007KT 9999 FEW012 SCT035"
    },
    {
      "icao": "LPPT",
      "alert": "OK",
      "vis_m": 9999,
      "fzfg": false,
      "metar_trigger": false,
      "taf_trigger": false,
      "metar": "METAR LPPT 212200Z 31008KT 9999 FEW045 07/04 Q1010",
      "taf": "TAF LPPT 211700Z 2118/2224 29007KT 9999 SCT035"
    },
    {
      "icao": "LQSA",
      "alert": "OK",
      "vis_m": 9999,
      "fzfg": false,
      "metar_trigger": false,
      "taf_trigger": false,
      "metar": "METAR LQSA 212230Z 12004KT 090V150 9999 OVC015 02/01 Q1018",
      "taf": ""
    },
    {
      "icao": "LQTZ",
      "alert": "OK",
      "vis_m": 6000,
      "fzfg": false,
      "metar_trigger": false,
      "taf_trigger": false,
      "metar": "METAR LQTZ 212230Z 10001KT 6000 OVC017 04/04 Q1019",
      "taf": "TAF LQTZ 211700Z 2118/2218 VRB02KT 7000 OVC015 TX05/2213Z TN02/2205Z"
    },
    {
      "icao": "LRCL",
      "alert": "OK",
      "vis_m": 5000,
      "fzfg": false,
      "metar_trigger": false,
      "taf_trigger": false,
      "metar": "METAR LRCL 212200Z 09003KT 5000 BR SCT006 BKN010 BKN015 05/04 Q1020",
      "taf": "TAF LRCL 212000Z 2121/2206 VRB04KT 5000 BR BKN010 OVC030"
    },
    {
      "icao": "LRCV",
      "alert": "OK",
      "vis_m": 2500,
      "fzfg": false,
      "metar_trigger": false,
      "taf_trigger": false,
      "metar": "METAR LRCV 212200Z 29002KT 2500 BR OVC007 04/04 Q1021",
      "taf": "TAF LRCV 212000Z 2121/2206 VRB04KT 1500 BR OVC005"
    },
    {
      "icao": "LRIA",
      "alert": "OK",
      "vis_m": 800,
      "fzfg": false,
      "metar_trigger": false,
      "taf_trigger": false,
      "metar": "METAR LRIA 212200Z 28004KT 0800 R14/P2000N -DZ FG OVC001 01/01 Q1022",
      "taf": "TAF LRIA 212000Z 2121/2206 30005KT 5000 BR OVC002"
    },
    {
      "icao": "LROP",
      "alert": "OK",
      "vis_m": 3000,
      "fzfg": false,
      "metar_trigger": false,
      "taf_trigger": false,
      "metar": "METAR LROP 212200Z 01004KT 3000 BR OVC012 05/05 Q1022 BECMG 1500 BR OVC010",
      "taf": "TAF LROP 211700Z 2118/2218 VRB04KT 5000 BR SCT005 OVC015"
    },
    {
      "icao": "LRSB",
      "alert": "OK",
      "vis_m": 150,
      "fzfg": true,
      "metar_trigger": false,
      "taf_trigger": false,
      "metar": "METAR LRSB 212200Z VRB01KT 0150 R27/0450N FZFG OVC002 M01/M01 Q1020 NOSIG",
      "taf": ""
    },
    {
      "icao": "LRTR",
      "alert": "OK",
      "vis_m": 6000,
      "fzfg": false,
      "metar_trigger": false,
      "taf_trigger": false,
      "metar": "METAR LRTR 212200Z VRB02KT 6000 OVC004 04/04 Q1021 BECMG 5000 BR OVC003",
      "taf": "TAF LRTR 211700Z 2118/2218 VRB04KT 5000 BR OVC005"
    },
    {
      "icao": "LTAF",
      "alert": "OK",
      "vis_m": 9999,
      "fzfg": false,
      "metar_trigger": false,
      "taf_trigger": false,
      "metar": "METAR LTAF 212220Z 02006KT CAVOK 12/01 Q1017 NOSIG RMK RWY23 04006KT 4CI200",
      "taf": "TAF LTAF 211640Z 2118/2218 03009KT CAVOK"
    },
    {
      "icao": "LTAI",
      "alert": "OK",
      "vis_m": 9999,
      "fzfg": false,
      "metar_trigger": false,
      "taf_trigger": false,
      "metar": "METAR LTAI 212220Z VRB02KT 9999 -SHRA SCT030 BKN080 12/09 Q1015 NOSIG RMK RWY18C VRB02KT RWY36R VRB02KT RWY18L VRB01KT",
      "taf": "TAF LTAI 211640Z 2118/2218 34009KT 9999 SCT030 BKN100"
    },
    {
      "icao": "LTFM",
      "alert": "OK",
      "vis_m": 8000,
      "fzfg": false,
      "metar_trigger": false,
      "taf_trigger": false,
      "metar": "METAR LTFM 212220Z 35007KT 290V020 8000 3900N SHRA SCT008 FEW018TCU BKN022 11/09 Q1017 BECMG TL2250 NSW RMK RWY17L 29003KT 260V360 RWY34L 34005KT 310V010 RWY16R 07006KT 010V180 RWY36 35005KT 310V020 RWY18 25004KT",
      "taf": ""
    },
    {
      "icao": "LUBL",
      "alert": "OK",
      "vis_m": null,
      "fzfg": false,
      "metar_trigger": false,
      "taf_trigger": false,
      "metar": "",
      "taf": ""
    },
    {
      "icao": "LUKK",
      "alert": "OK",
      "vis_m": 9000,
      "fzfg": false,
      "metar_trigger": false,
      "taf_trigger": false,
      "metar": "METAR LUKK 212230Z 32005KT 270V010 9000 -DZ OVC003 01/01 Q1021 BECMG 3000 BR",
      "taf": "TAF LUKK 211722Z 2118/2218 VRB04KT 3000 BR OVC003"
    },
    {
      "icao": "LWSK",
      "alert": "OK",
      "vis_m": 1500,
      "fzfg": false,
      "metar_trigger": false,
      "taf_trigger": false,
      "metar": "METAR LWSK 212220Z VRB01KT 1500 BR VV002 02/01 Q1020 NOSIG",
      "taf": "TAF LWSK 212040Z 2121/2221 VRB02KT 0600 FG VV002"
    },
    {
      "icao": "LYBE",
      "alert": "OK",
      "vis_m": 3000,
      "fzfg": false,
      "metar_trigger": false,
      "taf_trigger": false,
      "metar": "METAR LYBE 212230Z 14003KT 3000 -DZ BR OVC008 04/04 Q1021 TEMPO OVC003",
      "taf": "TAF LYBE 211700Z 2118/2218 07006KT 5000 BR OVC005 TX08/2213Z TN02/2206Z"
    },
    {
      "icao": "LZIB",
      "alert": "OK",
      "vis_m": 7000,
      "fzfg": false,
      "metar_trigger": false,
      "taf_trigger": false,
      "metar": "METAR LZIB 212230Z 14008KT 7000 -DZ SCT003 OVC004 03/03 Q1020 NOSIG",
      "taf": "TAF LZIB 211715Z 2118/2218 12004KT 6000 OVC005"
    },
    {
      "icao": "LZKZ",
      "alert": "OK",
      "vis_m": 5000,
      "fzfg": false,
      "metar_trigger": false,
      "taf_trigger": false,
      "metar": "METAR LZKZ 212230Z 29002KT 5000 BR BKN012 OVC030 05/04 Q1020 NOSIG",
      "taf": ""
    },
    {
      "icao": "LZTT",
      "alert": "OK",
      "vis_m": 5000,
      "fzfg": false,
      "metar_trigger": false,
      "taf_trigger": false,
      "metar": "METAR LZTT 212230Z 30004KT 5000 BR OVC004 M00/M00 Q1019",
      "taf": ""
    },
    {
      "icao": "OEJN",
      "alert": "OK",
      "vis_m": 9999,
      "fzfg": false,
      "metar_trigger": false,
      "taf_trigger": false,
      "metar": "METAR OEJN 212200Z 35003KT CAVOK 24/20 Q1012 NOSIG",
      "taf": "TAF OEJN 211700Z 2118/2224 VRB03KT 9999 FEW040"
    },
    {
      "icao": "OEMA",
      "alert": "OK",
      "vis_m": 9999,
      "fzfg": false,
      "metar_trigger": false,
      "taf_trigger": false,
      "metar": "METAR OEMA 212200Z 04004KT CAVOK 15/M03 Q1018 NOSIG",
      "taf": "TAF OEMA 211700Z 2118/2224 07006KT CAVOK"
    },
    {
      "icao": "OERK",
      "alert": "OK",
      "vis_m": 9999,
      "fzfg": false,
      "metar_trigger": false,
      "taf_trigger": false,
      "metar": "METAR OERK 212200Z 10002KT CAVOK 08/04 Q1022 NOSIG",
      "taf": "TAF OERK 211700Z 2118/2224 10005KT 7000 NSC"
    },
    {
      "icao": "OJAI",
      "alert": "OK",
      "vis_m": 5000,
      "fzfg": false,
      "metar_trigger": false,
      "taf_trigger": false,
      "metar": "METAR OJAI 212200Z 06003KT 5000 HZ NSC 06/01 Q1017 NOSIG",
      "taf": "TAF OJAI 211700Z 2118/2224 12010KT 5000 HZ NSC"
    },
    {
      "icao": "OKBK",
      "alert": "OK",
      "vis_m": null,
      "fzfg": false,
      "metar_trigger": false,
      "taf_trigger": false,
      "metar": "",
      "taf": ""
    },
    {
      "icao": "OMAA",
      "alert": "OK",
      "vis_m": 9999,
      "fzfg": false,
      "metar_trigger": false,
      "taf_trigger": false,
      "metar": "METAR OMAA 212200Z 06007KT CAVOK 18/11 Q1019 NOSIG",
      "taf": "TAF OMAA 211700Z 2118/2300 05005KT 8000 NSC"
    },
    {
      "icao": "UAAA",
      "alert": "OK",
      "vis_m": 800,
      "fzfg": true,
      "metar_trigger": false,
      "taf_trigger": false,
      "metar": "METAR UAAA 212200Z 08002MPS 0800 R23L/P2000 FZFG VV001 M02/M02 Q1031 NOSIG RMK QBB050",
      "taf": ""
    },
    {
      "icao": "UCFM",
      "alert": "CRITICAL",
      "vis_m": 50,
      "fzfg": true,
      "metar_trigger": true,
      "taf_trigger": false,
      "metar": "METAR UCFM 212200Z 06002MPS 0050 R07/0200N FZFG VV001 M02/M02 Q1030 NOSIG",
      "taf": "TAF UCFM 211655Z 2118/2218 12003MPS 0300 FZFG VV001"
    },
    {
      "icao": "UDYZ",
      "alert": "OK",
      "vis_m": 2300,
      "fzfg": false,
      "metar_trigger": false,
      "taf_trigger": false,
      "metar": "METAR UDYZ 212200Z 00000KT 2300 BR NSC M03/M05 Q1023 NOSIG",
      "taf": "TAF UDYZ 211700Z 2118/2218 VRB04KT 3000 BR FEW040"
    },
    {
      "icao": "UGTB",
      "alert": "OK",
      "vis_m": 9000,
      "fzfg": false,
      "metar_trigger": false,
      "taf_trigger": false,
      "metar": "METAR UGTB 212200Z 26002KT 9000 OVC022 02/M01 Q1022 NOSIG",
      "taf": "TAF UGTB 211700Z 2118/2218 VRB02KT 5000 OVC024 TX09/2212Z TNM02/2203Z"
    },
    {
      "icao": "UKKK",
      "alert": "OK",
      "vis_m": null,
      "fzfg": false,
      "metar_trigger": false,
      "taf_trigger": false,
      "metar": "",
      "taf": ""
    },
    {
      "icao": "UTTT",
      "alert": "OK",
      "vis_m": null,
      "fzfg": false,
      "metar_trigger": false,
      "taf_trigger": false,
      "metar": "",
      "taf": ""
    }
  ]
}