{
  "ts_utc": "2026-03-28T10:41:37Z",
  "threshold_m": 150,
  "source": "stations_override.txt (ICAO list) + aviationweather.gov (METAR/TAF raw)",
  "station_count": 159,
  "stations": [
    {
      "icao": "BIKF",
      "alert": "OK",
      "vis_m": 9999,
      "fzfg": false,
      "metar_trigger": false,
      "taf_trigger": false,
      "metar": "METAR BIKF 281030Z 12010KT CAVOK M02/M07 Q1010",
      "taf": "TAF BIKF 281026Z 2812/2912 12010KT 9999 FEW035 TX03/2821Z TNM01/2812Z"
    },
    {
      "icao": "BKPR",
      "alert": "OK",
      "vis_m": 9999,
      "fzfg": false,
      "metar_trigger": false,
      "taf_trigger": false,
      "metar": "METAR BKPR 281030Z 35011KT 9999 -RA SCT015 BKN025 04/03 Q1003 NOSIG",
      "taf": "TAF BKPR 280530Z 2806/2906 34009KT 9999 BKN040"
    },
    {
      "icao": "EBCI",
      "alert": "OK",
      "vis_m": 9999,
      "fzfg": false,
      "metar_trigger": false,
      "taf_trigger": false,
      "metar": "METAR EBCI 281020Z 33011KT 9999 SCT021 07/02 Q1021 NOSIG",
      "taf": "TAF EBCI 280515Z 2806/2912 30009KT 9999 SCT016 BKN035"
    },
    {
      "icao": "EDDB",
      "alert": "OK",
      "vis_m": 9999,
      "fzfg": false,
      "metar_trigger": false,
      "taf_trigger": false,
      "metar": "METAR EDDB 281020Z AUTO 20012KT 170V250 CAVOK 10/M02 Q1017 NOSIG",
      "taf": "TAF EDDB 280500Z 2806/2906 18004KT CAVOK"
    },
    {
      "icao": "EDDH",
      "alert": "OK",
      "vis_m": 9999,
      "fzfg": false,
      "metar_trigger": false,
      "taf_trigger": false,
      "metar": "METAR EDDH 281020Z AUTO 26007KT 230V290 9999 SCT007 BKN011 BKN017 07/05 Q1015 BECMG SCT015",
      "taf": "TAF EDDH 280500Z 2806/2912 21009KT 9000 BKN015"
    },
    {
      "icao": "EDDK",
      "alert": "OK",
      "vis_m": 9999,
      "fzfg": false,
      "metar_trigger": false,
      "taf_trigger": false,
      "metar": "METAR EDDK 281020Z AUTO 27004KT 230V300 9999 -RA SCT010 BKN027 OVC042 07/05 Q1018 TEMPO SHRA BKN014TCU",
      "taf": "TAF EDDK 280500Z 2806/2912 16006KT 9999 BKN020"
    },
    {
      "icao": "EDDN",
      "alert": "OK",
      "vis_m": 9999,
      "fzfg": false,
      "metar_trigger": false,
      "taf_trigger": false,
      "metar": "METAR EDDN 281020Z AUTO 27007KT 230V320 CAVOK 07/M05 Q1019 NOSIG",
      "taf": "TAF EDDN 280500Z 2806/2906 12006KT CAVOK"
    },
    {
      "icao": "EDDS",
      "alert": "OK",
      "vis_m": 9999,
      "fzfg": false,
      "metar_trigger": false,
      "taf_trigger": false,
      "metar": "METAR EDDS 281020Z AUTO 26011KT 220V290 CAVOK 06/M06 Q1019 NOSIG",
      "taf": "TAF EDDS 280500Z 2806/2906 VRB03KT CAVOK"
    },
    {
      "icao": "EDFH",
      "alert": "OK",
      "vis_m": 2500,
      "fzfg": false,
      "metar_trigger": false,
      "taf_trigger": false,
      "metar": "METAR EDFH 281020Z 26009KT 2500 -SN OVC002 01/00 Q1017",
      "taf": "TAF EDFH 280500Z 2806/2906 22007KT 9999 BKN020"
    },
    {
      "icao": "EDJA",
      "alert": "OK",
      "vis_m": 9999,
      "fzfg": false,
      "metar_trigger": false,
      "taf_trigger": false,
      "metar": "METAR EDJA 281020Z 21004KT 140V260 9999 SCT033 05/M03 Q1018",
      "taf": "TAF EDJA 280800Z 2809/2818 24007KT CAVOK"
    },
    {
      "icao": "EDLW",
      "alert": "OK",
      "vis_m": 9999,
      "fzfg": false,
      "metar_trigger": false,
      "taf_trigger": false,
      "metar": "METAR EDLW 281020Z 26004KT 210V310 9999 -RA FEW007 BKN014 OVC023 06/05 Q1017",
      "taf": "TAF EDLW 280500Z 2806/2906 19010KT 9999 BKN015"
    },
    {
      "icao": "EDNY",
      "alert": "OK",
      "vis_m": 9999,
      "fzfg": false,
      "metar_trigger": false,
      "taf_trigger": false,
      "metar": "METAR EDNY 281020Z 23004KT 170V290 CAVOK 05/M01 Q1020",
      "taf": "TAF EDNY 280800Z 2809/2818 23005KT CAVOK"
    },
    {
      "icao": "EDSB",
      "alert": "OK",
      "vis_m": 9999,
      "fzfg": false,
      "metar_trigger": false,
      "taf_trigger": false,
      "metar": "METAR EDSB 281020Z 20010KT CAVOK 06/M02 Q1020",
      "taf": "TAF EDSB 280500Z 2806/2906 20005KT CAVOK"
    },
    {
      "icao": "EETN",
      "alert": "OK",
      "vis_m": 9999,
      "fzfg": false,
      "metar_trigger": false,
      "taf_trigger": false,
      "metar": "METAR EETN 281020Z 21011KT CAVOK 08/M00 Q1017 NOSIG",
      "taf": "TAF EETN 280530Z 2806/2906 20010KT CAVOK"
    },
    {
      "icao": "EFTU",
      "alert": "OK",
      "vis_m": 9999,
      "fzfg": false,
      "metar_trigger": false,
      "taf_trigger": false,
      "metar": "METAR EFTU 281020Z AUTO 18009KT 150V220 9999 OVC008 02/M00 Q1015",
      "taf": "TAF EFTU 280826Z 2809/2909 19008KT 9999 BKN004"
    },
    {
      "icao": "EGBB",
      "alert": "OK",
      "vis_m": 9999,
      "fzfg": false,
      "metar_trigger": false,
      "taf_trigger": false,
      "metar": "METAR EGBB 281020Z 30015KT 9999 BKN040 08/M01 Q1024",
      "taf": "TAF EGBB 280454Z 2806/2906 28009KT 9999 FEW025"
    },
    {
      "icao": "EGGP",
      "alert": "OK",
      "vis_m": 9999,
      "fzfg": false,
      "metar_trigger": false,
      "taf_trigger": false,
      "metar": "METAR EGGP 281020Z 29021G31KT 9999 VCSH SCT022 BKN030TCU 07/01 Q1024",
      "taf": "TAF EGGP 280645Z 2806/2906 29012KT 9999 FEW030"
    },
    {
      "icao": "EGGW",
      "alert": "OK",
      "vis_m": 9999,
      "fzfg": false,
      "metar_trigger": false,
      "taf_trigger": false,
      "metar": "METAR EGGW 281020Z AUTO 32018KT 290V350 9999 SCT038 08/M01 Q1023",
      "taf": "TAF EGGW 280504Z 2806/2906 30014KT 9999 FEW040"
    },
    {
      "icao": "EGKK",
      "alert": "OK",
      "vis_m": 9999,
      "fzfg": false,
      "metar_trigger": false,
      "taf_trigger": false,
      "metar": "METAR EGKK 281020Z 31015KT 290V350 9999 SCT039 09/M01 Q1025",
      "taf": "TAF EGKK 280502Z 2806/2912 31009KT 9999 FEW040"
    },
    {
      "icao": "EGNM",
      "alert": "OK",
      "vis_m": 9999,
      "fzfg": false,
      "metar_trigger": false,
      "taf_trigger": false,
      "metar": "METAR EGNM 281020Z 28022KT 9999 FEW025 SCT032 06/M01 Q1020",
      "taf": "TAF EGNM 280457Z 2806/2906 28012KT 9999 FEW025"
    },
    {
      "icao": "EGPD",
      "alert": "OK",
      "vis_m": 9999,
      "fzfg": false,
      "metar_trigger": false,
      "taf_trigger": false,
      "metar": "METAR EGPD 281020Z COR AUTO 28018KT 9999 BKN038 08/M01 Q1013 NOSIG",
      "taf": "TAF EGPD 280454Z 2806/2906 24012KT 9999 FEW025"
    },
    {
      "icao": "EGPF",
      "alert": "OK",
      "vis_m": 9999,
      "fzfg": false,
      "metar_trigger": false,
      "taf_trigger": false,
      "metar": "METAR EGPF 281020Z AUTO 28012KT 9999 FEW024/// SCT042/// //////CB 05/02 Q1020 RERA",
      "taf": ""
    },
    {
      "icao": "EHBK",
      "alert": "OK",
      "vis_m": 9999,
      "fzfg": false,
      "metar_trigger": false,
      "taf_trigger": false,
      "metar": "METAR EHBK 281025Z AUTO 32009KT 240V360 9999 SCT014/// BKN017/// BKN020/// 08/05 Q1019 BECMG BKN020",
      "taf": "TAF EHBK 280458Z 2806/2912 22009KT 6000 -RADZ BKN006"
    },
    {
      "icao": "EHEH",
      "alert": "OK",
      "vis_m": 9999,
      "fzfg": false,
      "metar_trigger": false,
      "taf_trigger": false,
      "metar": "METAR EHEH 281025Z AUTO 32008KT 270V020 9999 FEW022CB BKN026 BKN031 BKN036 09/03 Q1019 BLU NOSIG RMK TREND REMOTE BY EHWX",
      "taf": "TAF EHEH 280552Z 2806/2912 25004KT 4500 BR -RADZ SCT002 BKN005"
    },
    {
      "icao": "EKBI",
      "alert": "OK",
      "vis_m": 9999,
      "fzfg": false,
      "metar_trigger": false,
      "taf_trigger": false,
      "metar": "METAR EKBI 281020Z AUTO 28013KT 9999 BKN016/// 07/04 Q1013",
      "taf": ""
    },
    {
      "icao": "EKCH",
      "alert": "OK",
      "vis_m": 5000,
      "fzfg": false,
      "metar_trigger": false,
      "taf_trigger": false,
      "metar": "METAR EKCH 281020Z 21009KT 180V240 5000 -RA OVC005 05/04 Q1013 TEMPO 6000",
      "taf": "TAF EKCH 280827Z 2809/2909 20012KT 9000 -RADZ BKN008"
    },
    {
      "icao": "ENAL",
      "alert": "OK",
      "vis_m": 9999,
      "fzfg": false,
      "metar_trigger": false,
      "taf_trigger": false,
      "metar": "METAR ENAL 281020Z 18015G30KT 150V220 9999 FEW054 07/M02 Q0998",
      "taf": "TAF ENAL 280800Z 2809/2818 20012KT 9999 -SHRA SCT050"
    },
    {
      "icao": "ENBR",
      "alert": "OK",
      "vis_m": 9999,
      "fzfg": false,
      "metar_trigger": false,
      "taf_trigger": false,
      "metar": "METAR ENBR 281020Z 16019KT 9999 VCSH SCT019CB BKN029 BKN045 05/02 Q1004 TEMPO 16019G29KT 4000 SHRA BKN008 SCT020CB RMK WIND 1200FT 17024G34KT",
      "taf": "TAF ENBR 280500Z 2806/2906 15015KT 9999 FEW005 BKN025"
    },
    {
      "icao": "ENGM",
      "alert": "OK",
      "vis_m": 9999,
      "fzfg": false,
      "metar_trigger": false,
      "taf_trigger": false,
      "metar": "METAR ENGM 281020Z 17009KT 9999 BKN015 06/01 Q1006 NOSIG",
      "taf": ""
    },
    {
      "icao": "ENHD",
      "alert": "OK",
      "vis_m": 9999,
      "fzfg": false,
      "metar_trigger": false,
      "taf_trigger": false,
      "metar": "METAR ENHD 281020Z 18016KT 9999 -DZ FEW017 SCT040 07/03 Q1006",
      "taf": "TAF ENHD 280800Z 2809/2818 19012KT 9999 FEW005"
    },
    {
      "icao": "ENTC",
      "alert": "OK",
      "vis_m": 9999,
      "fzfg": false,
      "metar_trigger": false,
      "taf_trigger": false,
      "metar": "METAR ENTC 281020Z 24007KT CAVOK 02/M07 Q1001 NOSIG RMK WIND 2600FT 19021KT",
      "taf": "TAF ENTC 280500Z 2806/2906 VRB03KT 9999 SCT060"
    },
    {
      "icao": "ENTO",
      "alert": "OK",
      "vis_m": 9999,
      "fzfg": false,
      "metar_trigger": false,
      "taf_trigger": false,
      "metar": "METAR ENTO 281020Z 21010KT 180V240 9999 SCT015 06/02 Q1008 NOSIG",
      "taf": "TAF ENTO 280500Z 2806/2906 21008KT 9999 FEW008"
    },
    {
      "icao": "ENVA",
      "alert": "OK",
      "vis_m": 9999,
      "fzfg": false,
      "metar_trigger": false,
      "taf_trigger": false,
      "metar": "METAR ENVA 281020Z 13007KT 090V160 CAVOK 09/M03 Q1002 NOSIG RMK WIND 670FT 15010KT",
      "taf": "TAF ENVA 280500Z 2806/2906 10008KT CAVOK"
    },
    {
      "icao": "ENZV",
      "alert": "OK",
      "vis_m": 9999,
      "fzfg": false,
      "metar_trigger": false,
      "taf_trigger": false,
      "metar": "METAR ENZV 281020Z 20015KT 9999 SCT021 SCT045 07/02 Q1008 NOSIG",
      "taf": "TAF ENZV 280500Z 2806/2906 20008KT 9999 SCT030"
    },
    {
      "icao": "EPGD",
      "alert": "OK",
      "vis_m": 9999,
      "fzfg": false,
      "metar_trigger": false,
      "taf_trigger": false,
      "metar": "METAR EPGD 281030Z 13006KT 040V160 CAVOK 08/M03 Q1017",
      "taf": "TAF EPGD 280530Z 2806/2906 VRB04KT CAVOK"
    },
    {
      "icao": "EPKK",
      "alert": "OK",
      "vis_m": 8000,
      "fzfg": false,
      "metar_trigger": false,
      "taf_trigger": false,
      "metar": "METAR EPKK 281030Z 22006KT 8000 OVC017 05/03 Q1014",
      "taf": "TAF EPKK 280830Z 2809/2909 22004KT 9999 BKN015"
    },
    {
      "icao": "EPKT",
      "alert": "OK",
      "vis_m": 9999,
      "fzfg": false,
      "metar_trigger": false,
      "taf_trigger": false,
      "metar": "METAR EPKT 281030Z 35009KT 320V020 9999 OVC009 05/02 Q1014",
      "taf": ""
    },
    {
      "icao": "EPLB",
      "alert": "OK",
      "vis_m": 9999,
      "fzfg": false,
      "metar_trigger": false,
      "taf_trigger": false,
      "metar": "METAR EPLB 281030Z 07008KT 040V100 CAVOK 16/05 Q1013",
      "taf": "TAF EPLB 280530Z 2806/2906 04004KT CAVOK"
    },
    {
      "icao": "EPMO",
      "alert": "OK",
      "vis_m": 9999,
      "fzfg": false,
      "metar_trigger": false,
      "taf_trigger": false,
      "metar": "METAR EPMO 281030Z 36007KT 330V030 CAVOK 11/02 Q1016",
      "taf": "TAF EPMO 280530Z 2806/2906 03005KT CAVOK"
    },
    {
      "icao": "EPPO",
      "alert": "OK",
      "vis_m": 9999,
      "fzfg": false,
      "metar_trigger": false,
      "taf_trigger": false,
      "metar": "METAR EPPO 281030Z 22003KT 190V270 CAVOK 09/M04 Q1018",
      "taf": "TAF EPPO 280530Z 2806/2906 33003KT CAVOK"
    },
    {
      "icao": "EPRA",
      "alert": "OK",
      "vis_m": 9999,
      "fzfg": false,
      "metar_trigger": false,
      "taf_trigger": false,
      "metar": "METAR EPRA 281030Z 35006KT 310V020 CAVOK 09/02 Q1014",
      "taf": "TAF EPRA 280830Z 2809/2818 35010KT CAVOK"
    },
    {
      "icao": "EPRZ",
      "alert": "OK",
      "vis_m": 9999,
      "fzfg": false,
      "metar_trigger": false,
      "taf_trigger": false,
      "metar": "METAR EPRZ 281030Z VRB02KT 9999 SCT044 13/06 Q1012",
      "taf": ""
    },
    {
      "icao": "EPSC",
      "alert": "OK",
      "vis_m": 9999,
      "fzfg": false,
      "metar_trigger": false,
      "taf_trigger": false,
      "metar": "METAR EPSC 281030Z 18013KT CAVOK 10/M04 Q1016",
      "taf": "TAF EPSC 280530Z 2806/2906 13007KT CAVOK"
    },
    {
      "icao": "EPSY",
      "alert": "OK",
      "vis_m": 9999,
      "fzfg": false,
      "metar_trigger": false,
      "taf_trigger": false,
      "metar": "METAR EPSY 281030Z 36010KT 330V040 CAVOK 08/M03 Q1017",
      "taf": "TAF EPSY 280830Z 2809/2818 01008KT CAVOK"
    },
    {
      "icao": "EPWA",
      "alert": "OK",
      "vis_m": 9999,
      "fzfg": false,
      "metar_trigger": false,
      "taf_trigger": false,
      "metar": "METAR EPWA 281030Z 02006KT 350V090 CAVOK 11/01 Q1015 NOSIG",
      "taf": "TAF EPWA 280830Z 2809/2909 02010KT CAVOK"
    },
    {
      "icao": "EPWR",
      "alert": "OK",
      "vis_m": 9999,
      "fzfg": false,
      "metar_trigger": false,
      "taf_trigger": false,
      "metar": "METAR EPWR 281030Z 34008KT 9999 BKN046 06/M02 Q1018",
      "taf": "TAF EPWR 280830Z 2809/2909 31009KT 9999 BKN045"
    },
    {
      "icao": "ESGG",
      "alert": "OK",
      "vis_m": 9999,
      "fzfg": false,
      "metar_trigger": false,
      "taf_trigger": false,
      "metar": "METAR ESGG 281020Z 23008KT 9999 SCT015 BKN022 06/03 Q1010",
      "taf": "TAF ESGG 280830Z 2809/2909 21009KT 9999 BKN004"
    },
    {
      "icao": "ESKN",
      "alert": "OK",
      "vis_m": 9999,
      "fzfg": false,
      "metar_trigger": false,
      "taf_trigger": false,
      "metar": "METAR ESKN 281020Z 19009KT 9999 SCT014 BKN018 04/03 Q1011",
      "taf": "TAF ESKN 280830Z 2809/2909 17008KT 9999 -RA SCT025"
    },
    {
      "icao": "ESMS",
      "alert": "OK",
      "vis_m": 2600,
      "fzfg": false,
      "metar_trigger": false,
      "taf_trigger": false,
      "metar": "METAR ESMS 281020Z 20011KT 2600 BR BKN003 03/03 Q1013",
      "taf": "TAF ESMS 280827Z 2809/2909 20008KT 9999 BKN012"
    },
    {
      "icao": "ESSA",
      "alert": "OK",
      "vis_m": 9999,
      "fzfg": false,
      "metar_trigger": false,
      "taf_trigger": false,
      "metar": "METAR ESSA 281020Z 21013KT 9999 BKN020 05/01 Q1010 TEMPO BKN012",
      "taf": "TAF ESSA 280830Z 2809/2909 20013KT 9999 BKN016"
    },
    {
      "icao": "EYKA",
      "alert": "OK",
      "vis_m": 9999,
      "fzfg": false,
      "metar_trigger": false,
      "taf_trigger": false,
      "metar": "METAR EYKA 281020Z 34006KT 300V040 CAVOK 11/01 Q1018",
      "taf": "TAF EYKA 280503Z 2806/2906 VRB03KT 9000 NSC"
    },
    {
      "icao": "EYPA",
      "alert": "OK",
      "vis_m": 9999,
      "fzfg": false,
      "metar_trigger": false,
      "taf_trigger": false,
      "metar": "METAR EYPA 281020Z 24005KT 180V290 CAVOK 03/00 Q1019",
      "taf": "TAF EYPA 280500Z 2806/2906 21007KT 5000 BR OVC002"
    },
    {
      "icao": "EYVI",
      "alert": "OK",
      "vis_m": 9999,
      "fzfg": false,
      "metar_trigger": false,
      "taf_trigger": false,
      "metar": "METAR EYVI 281020Z 34006KT 310V030 CAVOK 13/01 Q1017 NOSIG",
      "taf": "TAF EYVI 280500Z 2806/2906 VRB04KT 9000 NSC"
    },
    {
      "icao": "GCFV",
      "alert": "OK",
      "vis_m": 9999,
      "fzfg": false,
      "metar_trigger": false,
      "taf_trigger": false,
      "metar": "METAR GCFV 281030Z 03013KT 9999 FEW024 20/13 Q1019",
      "taf": "TAF GCFV 280800Z 2809/2909 04012KT 9999 FEW025 TX22/2814Z TN16/2906Z"
    },
    {
      "icao": "GCLP",
      "alert": "OK",
      "vis_m": 9999,
      "fzfg": false,
      "metar_trigger": false,
      "taf_trigger": false,
      "metar": "METAR GCLP 281030Z 02018KT 9999 FEW026 20/12 Q1019 NOSIG",
      "taf": "TAF GCLP 280800Z 2809/2909 01022KT 9999 FEW025 TX22/2814Z TN16/2906Z"
    },
    {
      "icao": "GCTS",
      "alert": "OK",
      "vis_m": 9999,
      "fzfg": false,
      "metar_trigger": false,
      "taf_trigger": false,
      "metar": "METAR GCTS 281030Z 08014KT 060V120 9999 FEW025 20/12 Q1020 NOSIG",
      "taf": "TAF GCTS 280800Z 2809/2909 07015KT 9999 SCT030 TX23/2814Z TN16/2906Z"
    },
    {
      "icao": "GMAD",
      "alert": "OK",
      "vis_m": 8000,
      "fzfg": false,
      "metar_trigger": false,
      "taf_trigger": false,
      "metar": "METAR GMAD 281030Z 25005KT 220V290 8000 FEW020 21/14 Q1016 NOSIG",
      "taf": "TAF GMAD 280500Z 2806/2912 20004KT 6000 BKN010"
    },
    {
      "icao": "GMMN",
      "alert": "OK",
      "vis_m": 9999,
      "fzfg": false,
      "metar_trigger": false,
      "taf_trigger": false,
      "metar": "METAR GMMN 281030Z 29003KT 200V320 9999 BKN016 17/13 Q1018 NOSIG",
      "taf": "TAF GMMN 280500Z 2806/2912 20004KT 4000 BR SCT010 SCT016"
    },
    {
      "icao": "GMMX",
      "alert": "OK",
      "vis_m": 6000,
      "fzfg": false,
      "metar_trigger": false,
      "taf_trigger": false,
      "metar": "METAR GMMX 281030Z 02003KT 330V070 6000 BKN016 18/14 Q1017 BECMG 8000",
      "taf": "TAF GMMX 280500Z 2806/2912 22002KT 8000 SCT016"
    },
    {
      "icao": "HEGN",
      "alert": "OK",
      "vis_m": 9999,
      "fzfg": false,
      "metar_trigger": false,
      "taf_trigger": false,
      "metar": "METAR HEGN 281000Z 10008KT CAVOK 24/10 Q1014 NOSIG",
      "taf": "TAF HEGN 280500Z 2806/2912 29010KT 9999 SCT025"
    },
    {
      "icao": "HEMA",
      "alert": "OK",
      "vis_m": 9999,
      "fzfg": false,
      "metar_trigger": false,
      "taf_trigger": false,
      "metar": "METAR HEMA 281000Z 07006KT CAVOK 25/06 Q1015 NOSIG",
      "taf": "TAF HEMA 280500Z 2806/2912 31010KT CAVOK"
    },
    {
      "icao": "HESH",
      "alert": "OK",
      "vis_m": 9999,
      "fzfg": false,
      "metar_trigger": false,
      "taf_trigger": false,
      "metar": "METAR HESH 281000Z 11009KT CAVOK 24/11 Q1015 NOSIG",
      "taf": "TAF HESH 280500Z 2806/2912 32010KT 9999 SCT025"
    },
    {
      "icao": "HESX",
      "alert": "OK",
      "vis_m": 9999,
      "fzfg": false,
      "metar_trigger": false,
      "taf_trigger": false,
      "metar": "METAR HESX 281000Z 20014KT CAVOK 25/00 Q1012 NOSIG",
      "taf": "TAF HESX 280500Z 2806/2912 17010KT 8000 NSC"
    },
    {
      "icao": "LATI",
      "alert": "OK",
      "vis_m": 9999,
      "fzfg": false,
      "metar_trigger": false,
      "taf_trigger": false,
      "metar": "METAR LATI 281020Z 33005KT 250V040 9999 SCT040 15/06 Q1003 BECMG 34012KT FEW030TCU",
      "taf": "TAF LATI 280500Z 2806/2906 VRB03KT 9999 BKN070 TX15/2812Z TN04/2905Z"
    },
    {
      "icao": "LBPD",
      "alert": "OK",
      "vis_m": 9999,
      "fzfg": false,
      "metar_trigger": false,
      "taf_trigger": false,
      "metar": "METAR LBPD 281030Z AUTO 12008KT 9999 OVC028/// 10/05 Q1002 NOSIG",
      "taf": "TAF LBPD 280500Z 2806/2906 VRB03KT 9999 BKN020 OVC040"
    },
    {
      "icao": "LBSF",
      "alert": "OK",
      "vis_m": 9999,
      "fzfg": false,
      "metar_trigger": false,
      "taf_trigger": false,
      "metar": "METAR LBSF 281030Z VRB01KT 9999 SCT011 BKN013 OVC018 05/03 Q1003 TEMPO BKN012",
      "taf": "TAF LBSF 280500Z 2806/2906 VRB03KT 9999 SCT010 BKN015 OVC020"
    },
    {
      "icao": "LBWN",
      "alert": "OK",
      "vis_m": 9999,
      "fzfg": false,
      "metar_trigger": false,
      "taf_trigger": false,
      "metar": "METAR LBWN 281030Z 12009KT 9999 SCT013 13/10 Q1003 NOSIG",
      "taf": "TAF LBWN 280500Z 2806/2906 10014KT 9999 SCT010 OVC025"
    },
    {
      "icao": "LCLK",
      "alert": "OK",
      "vis_m": 9999,
      "fzfg": false,
      "metar_trigger": false,
      "taf_trigger": false,
      "metar": "METAR LCLK 281030Z 21014KT 9999 FEW025 21/12 Q1011 NOSIG",
      "taf": "TAF LCLK 280530Z 2806/2906 26009KT 9999 FEW020 SCT035"
    },
    {
      "icao": "LCPH",
      "alert": "OK",
      "vis_m": 9999,
      "fzfg": false,
      "metar_trigger": false,
      "taf_trigger": false,
      "metar": "METAR LCPH 281030Z 16009KT 9999 FEW030 20/12 Q1011 NOSIG",
      "taf": "TAF LCPH 280530Z 2806/2906 35009KT 9999 FEW020 SCT040"
    },
    {
      "icao": "LEAL",
      "alert": "OK",
      "vis_m": 9999,
      "fzfg": false,
      "metar_trigger": false,
      "taf_trigger": false,
      "metar": "METAR LEAL 281030Z 25006KT 200V320 9999 FEW026 17/08 Q1021 NOSIG",
      "taf": "TAF LEAL 280500Z 2806/2906 VRB04KT 9999 FEW025 TX18/2812Z TN07/2806Z"
    },
    {
      "icao": "LEBB",
      "alert": "OK",
      "vis_m": 9999,
      "fzfg": false,
      "metar_trigger": false,
      "taf_trigger": false,
      "metar": "METAR LEBB 281030Z 30012KT 250V340 9999 BKN014 BKN023 12/10 Q1029 TEMPO 3000 RA",
      "taf": "TAF LEBB 280500Z 2806/2906 29009KT 9999 FEW010 BKN025 TX12/2812Z TN07/2904Z"
    },
    {
      "icao": "LEBL",
      "alert": "OK",
      "vis_m": 9999,
      "fzfg": false,
      "metar_trigger": false,
      "taf_trigger": false,
      "metar": "METAR LEBL 281030Z 27005KT CAVOK 15/06 Q1019 NOSIG",
      "taf": "TAF LEBL 280500Z 2806/2906 34008KT 9999 FEW020 TX17/2812Z TN08/2806Z"
    },
    {
      "icao": "LECH",
      "alert": "OK",
      "vis_m": 9999,
      "fzfg": false,
      "metar_trigger": false,
      "taf_trigger": false,
      "metar": "METAR LECH 281030Z AUTO 09004KT 030V170 CAVOK 14/M01 Q1020",
      "taf": "TAF LECH 280500Z 2806/2906 VRB04KT 9999 FEW030 TX19/2813Z TN04/2806Z"
    },
    {
      "icao": "LEMD",
      "alert": "OK",
      "vis_m": 9999,
      "fzfg": false,
      "metar_trigger": false,
      "taf_trigger": false,
      "metar": "METAR LEMD 281030Z 03005KT 340V100 CAVOK 13/M00 Q1023 NOSIG",
      "taf": "TAF LEMD 280500Z 2806/2912 VRB05KT CAVOK TX19/2815Z TN02/2906Z"
    },
    {
      "icao": "LEMG",
      "alert": "OK",
      "vis_m": 9999,
      "fzfg": false,
      "metar_trigger": false,
      "taf_trigger": false,
      "metar": "METAR LEMG 281030Z 11009KT 080V150 9999 SCT022 16/11 Q1022 NOSIG",
      "taf": "TAF LEMG 280500Z 2806/2906 28005KT 9999 SCT025 BKN045 TX17/2813Z TN13/2806Z"
    },
    {
      "icao": "LEVC",
      "alert": "OK",
      "vis_m": 9999,
      "fzfg": false,
      "metar_trigger": false,
      "taf_trigger": false,
      "metar": "METAR LEVC 281030Z 17004KT 120V240 CAVOK 16/03 Q1020 NOSIG",
      "taf": "TAF LEVC 280500Z 2806/2906 VRB03KT 9999 FEW025 TX19/2813Z TN07/2806Z"
    },
    {
      "icao": "LEXJ",
      "alert": "OK",
      "vis_m": 9999,
      "fzfg": false,
      "metar_trigger": false,
      "taf_trigger": false,
      "metar": "METAR LEXJ 281030Z 30011KT 270V330 9999 BKN015 BKN028 12/10 Q1030",
      "taf": "TAF LEXJ 280800Z 2809/2909 26006KT 9999 SCT020 BKN045 TX11/2813Z TN10/2906Z"
    },
    {
      "icao": "LEZG",
      "alert": "OK",
      "vis_m": 9999,
      "fzfg": false,
      "metar_trigger": false,
      "taf_trigger": false,
      "metar": "METAR LEZG 281030Z 31026KT 280V340 9999 FEW035 14/03 Q1022 NOSIG",
      "taf": "TAF LEZG 280500Z 2806/2906 31020KT 9999 FEW045 TX17/2814Z TN06/2806Z"
    },
    {
      "icao": "LEZL",
      "alert": "OK",
      "vis_m": 9999,
      "fzfg": false,
      "metar_trigger": false,
      "taf_trigger": false,
      "metar": "METAR LEZL 281030Z 36002KT CAVOK 18/10 Q1020 NOSIG",
      "taf": "TAF LEZL 280800Z 2809/2909 04007KT CAVOK TX25/2815Z TN12/2907Z"
    },
    {
      "icao": "LFBD",
      "alert": "OK",
      "vis_m": 7000,
      "fzfg": false,
      "metar_trigger": false,
      "taf_trigger": false,
      "metar": "METAR LFBD 281030Z AUTO 23009KT 7000 OVC005 11/10 Q1025 TEMPO 35015G25KT 2000 -RA BR BKN005 BKN020TCU",
      "taf": ""
    },
    {
      "icao": "LFLL",
      "alert": "OK",
      "vis_m": 9999,
      "fzfg": false,
      "metar_trigger": false,
      "taf_trigger": false,
      "metar": "METAR LFLL 281030Z 36009KT 9999 BKN038 08/M04 Q1021 NOSIG",
      "taf": "TAF LFLL 280500Z 2806/2912 VRB02KT CAVOK"
    },
    {
      "icao": "LFLS",
      "alert": "OK",
      "vis_m": 9999,
      "fzfg": false,
      "metar_trigger": false,
      "taf_trigger": false,
      "metar": "METAR LFLS 281030Z AUTO 02010KT 350V050 9999 BKN049 08/M03 Q1020 NOSIG",
      "taf": "TAF LFLS 280800Z 2809/2909 36010KT CAVOK"
    },
    {
      "icao": "LFMN",
      "alert": "OK",
      "vis_m": 9999,
      "fzfg": false,
      "metar_trigger": false,
      "taf_trigger": false,
      "metar": "METAR LFMN 281030Z 19010KT CAVOK 14/05 Q1012 NOSIG",
      "taf": "TAF LFMN 280800Z 2809/2915 VRB02KT CAVOK"
    },
    {
      "icao": "LFOB",
      "alert": "OK",
      "vis_m": 9999,
      "fzfg": false,
      "metar_trigger": false,
      "taf_trigger": false,
      "metar": "METAR LFOB 281030Z AUTO 34017KT 9999 SCT036 BKN042 BKN049 10/02 Q1024 TEMPO 33015G25KT SCT035TCU",
      "taf": ""
    },
    {
      "icao": "LFPO",
      "alert": "OK",
      "vis_m": 9999,
      "fzfg": false,
      "metar_trigger": false,
      "taf_trigger": false,
      "metar": "METAR LFPO 281030Z 35013KT 310V020 9999 SCT033 SCT070 10/02 Q1023 NOSIG",
      "taf": ""
    },
    {
      "icao": "LFSB",
      "alert": "OK",
      "vis_m": 9999,
      "fzfg": false,
      "metar_trigger": false,
      "taf_trigger": false,
      "metar": "METAR LFSB 281030Z AUTO VRB03KT CAVOK 07/M03 Q1021 NOSIG",
      "taf": "TAF LFSB 280500Z 2806/2906 18005KT CAVOK"
    },
    {
      "icao": "LGAV",
      "alert": "OK",
      "vis_m": 9999,
      "fzfg": false,
      "metar_trigger": false,
      "taf_trigger": false,
      "metar": "METAR LGAV 281020Z 20009KT 9999 FEW020 16/03 Q1001 NOSIG",
      "taf": "TAF LGAV 280500Z 2806/2906 VRB05KT 9999 FEW025 BKN070"
    },
    {
      "icao": "LGTS",
      "alert": "OK",
      "vis_m": 9999,
      "fzfg": false,
      "metar_trigger": false,
      "taf_trigger": false,
      "metar": "METAR LGTS 281020Z 31011KT 9999 FEW020 15/05 Q1001 NOSIG",
      "taf": "TAF LGTS 280500Z 2806/2906 34013KT 9999 SCT025"
    },
    {
      "icao": "LHBP",
      "alert": "OK",
      "vis_m": 9999,
      "fzfg": false,
      "metar_trigger": false,
      "taf_trigger": false,
      "metar": "METAR LHBP 281030Z 35014KT CAVOK 11/02 Q1008 TEMPO 5000 SHRA SCT040TCU BKN050",
      "taf": "TAF LHBP 280515Z 2806/2906 33010KT CAVOK"
    },
    {
      "icao": "LHDC",
      "alert": "OK",
      "vis_m": 9999,
      "fzfg": false,
      "metar_trigger": false,
      "taf_trigger": false,
      "metar": "METAR LHDC 281015Z AUTO 08011KT 9999 -RA NSC 13/05 Q1007 TEMPO TL1100 6000 RA BECMG FM1100 NSW",
      "taf": "TAF LHDC 280815Z 2809/2818 04014G24KT CAVOK"
    },
    {
      "icao": "LIBD",
      "alert": "OK",
      "vis_m": 8000,
      "fzfg": false,
      "metar_trigger": false,
      "taf_trigger": false,
      "metar": "METAR LIBD 281020Z 29010KT 8000 -RA BKN015 08/07 Q1006 RERA",
      "taf": "TAF LIBD 280500Z 2806/2906 28012KT 9999 FEW015 BKN045"
    },
    {
      "icao": "LIBG",
      "alert": "OK",
      "vis_m": 9999,
      "fzfg": false,
      "metar_trigger": false,
      "taf_trigger": false,
      "metar": "METAR LIBG 280950Z 30011KT 9999 FEW020 SCT045 10/05 Q1005",
      "taf": "TAF LIBG 280800Z 2809/2818 33010KT 9999 SCT030"
    },
    {
      "icao": "LIBP",
      "alert": "OK",
      "vis_m": 9999,
      "fzfg": false,
      "metar_trigger": false,
      "taf_trigger": false,
      "metar": "METAR LIBP 281020Z AUTO 33007KT 290V010 9999 BKN044/// BKN120/// 12/04 Q1011",
      "taf": "TAF LIBP 280500Z 2806/2906 33012KT 9999 OVC040"
    },
    {
      "icao": "LIBR",
      "alert": "OK",
      "vis_m": 9999,
      "fzfg": false,
      "metar_trigger": false,
      "taf_trigger": false,
      "metar": "METAR LIBR 281020Z 30022KT 9999 FEW012 11/07 Q1004",
      "taf": "TAF LIBR 280500Z 2806/2906 33015KT 9999 BKN040"
    },
    {
      "icao": "LICA",
      "alert": "OK",
      "vis_m": 9999,
      "fzfg": false,
      "metar_trigger": false,
      "taf_trigger": false,
      "metar": "METAR LICA 281020Z AUTO 27016KT 9999 NCD 14/07 Q1007",
      "taf": "TAF LICA 280500Z 2806/2906 VRB06KT 9999 SCT040"
    },
    {
      "icao": "LICC",
      "alert": "OK",
      "vis_m": 9999,
      "fzfg": false,
      "metar_trigger": false,
      "taf_trigger": false,
      "metar": "METAR LICC 281020Z 12012KT 100V160 9999 FEW050 15/10 Q1007",
      "taf": "TAF LICC 280500Z 2806/2906 28012KT CAVOK"
    },
    {
      "icao": "LICJ",
      "alert": "OK",
      "vis_m": 9999,
      "fzfg": false,
      "metar_trigger": false,
      "taf_trigger": false,
      "metar": "METAR LICJ 281020Z 33011KT 9999 SCT030 14/07 Q1010",
      "taf": "TAF LICJ 280500Z 2806/2906 33016KT 9999 SCT030"
    },
    {
      "icao": "LIMC",
      "alert": "OK",
      "vis_m": 9999,
      "fzfg": false,
      "metar_trigger": false,
      "taf_trigger": false,
      "metar": "METAR LIMC 281020Z VRB02KT CAVOK 14/M05 Q1012 NOSIG",
      "taf": "TAF LIMC 280500Z 2806/2912 VRB05KT CAVOK"
    },
    {
      "icao": "LIME",
      "alert": "OK",
      "vis_m": 9999,
      "fzfg": false,
      "metar_trigger": false,
      "taf_trigger": false,
      "metar": "METAR LIME 281020Z 23006KT CAVOK 13/M04 Q1012 NOSIG",
      "taf": "TAF LIME 280500Z 2806/2906 01006KT CAVOK"
    },
    {
      "icao": "LIMF",
      "alert": "OK",
      "vis_m": 9999,
      "fzfg": false,
      "metar_trigger": false,
      "taf_trigger": false,
      "metar": "METAR LIMF 281020Z 15005KT 100V190 CAVOK 13/M05 Q1012",
      "taf": "TAF LIMF 280500Z 2806/2906 VRB05KT CAVOK"
    },
    {
      "icao": "LIMJ",
      "alert": "OK",
      "vis_m": 9999,
      "fzfg": false,
      "metar_trigger": false,
      "taf_trigger": false,
      "metar": "METAR LIMJ 281020Z 25007KT CAVOK 15/02 Q1011",
      "taf": "TAF LIMJ 280500Z 2806/2906 36013KT CAVOK"
    },
    {
      "icao": "LIPE",
      "alert": "OK",
      "vis_m": 9999,
      "fzfg": false,
      "metar_trigger": false,
      "taf_trigger": false,
      "metar": "METAR LIPE 281020Z 34004KT 290V030 CAVOK 13/02 Q1012",
      "taf": "TAF LIPE 280500Z 2806/2906 VRB05KT CAVOK"
    },
    {
      "icao": "LIPH",
      "alert": "OK",
      "vis_m": 9999,
      "fzfg": false,
      "metar_trigger": false,
      "taf_trigger": false,
      "metar": "METAR LIPH 281020Z 25005KT 210V360 CAVOK 15/M01 Q1011",
      "taf": "TAF LIPH 280500Z 2806/2906 VRB05KT CAVOK"
    },
    {
      "icao": "LIPQ",
      "alert": "OK",
      "vis_m": 9999,
      "fzfg": false,
      "metar_trigger": false,
      "taf_trigger": false,
      "metar": "METAR LIPQ 281020Z AUTO 30006KT 250V340 9999 NCD 16/M01 Q1010",
      "taf": "TAF LIPQ 280500Z 2806/2906 VRB05KT CAVOK"
    },
    {
      "icao": "LIPR",
      "alert": "OK",
      "vis_m": 9999,
      "fzfg": false,
      "metar_trigger": false,
      "taf_trigger": false,
      "metar": "METAR LIPR 281020Z 33008KT 310V020 CAVOK 13/02 Q1012",
      "taf": "TAF LIPR 280500Z 2806/2906 VRB05KT 9999 SCT070"
    },
    {
      "icao": "LIPX",
      "alert": "OK",
      "vis_m": 9999,
      "fzfg": false,
      "metar_trigger": false,
      "taf_trigger": false,
      "metar": "METAR LIPX 281020Z 27009KT 240V300 CAVOK 15/M05 Q1012",
      "taf": "TAF LIPX 280500Z 2806/2906 VRB05KT CAVOK"
    },
    {
      "icao": "LIPY",
      "alert": "OK",
      "vis_m": 9999,
      "fzfg": false,
      "metar_trigger": false,
      "taf_trigger": false,
      "metar": "METAR LIPY 281020Z AUTO 33012KT 9999 NCD 12/06 Q1011",
      "taf": "TAF LIPY 280500Z 2806/2906 35005KT 9999 OVC050"
    },
    {
      "icao": "LIPZ",
      "alert": "OK",
      "vis_m": 9999,
      "fzfg": false,
      "metar_trigger": false,
      "taf_trigger": false,
      "metar": "METAR LIPZ 281020Z 15005KT CAVOK 14/M02 Q1012 NOSIG",
      "taf": "TAF LIPZ 280500Z 2806/2912 VRB05KT CAVOK"
    },
    {
      "icao": "LIRF",
      "alert": "OK",
      "vis_m": 9999,
      "fzfg": false,
      "metar_trigger": false,
      "taf_trigger": false,
      "metar": "METAR LIRF 281020Z 36018KT 330V030 CAVOK 15/01 Q1009 NOSIG",
      "taf": "TAF LIRF 280500Z 2806/2912 01012KT CAVOK"
    },
    {
      "icao": "LIRN",
      "alert": "OK",
      "vis_m": 9999,
      "fzfg": false,
      "metar_trigger": false,
      "taf_trigger": false,
      "metar": "METAR LIRN 281020Z VRB03KT 9999 FEW060 13/02 Q1009 NOSIG",
      "taf": "TAF LIRN 280500Z 2806/2906 04008KT 9999 SCT050"
    },
    {
      "icao": "LIRP",
      "alert": "OK",
      "vis_m": 9999,
      "fzfg": false,
      "metar_trigger": false,
      "taf_trigger": false,
      "metar": "METAR LIRP 281015Z COR 30004KT CAVOK 16/01 Q1012 NOSIG",
      "taf": "TAF LIRP 280500Z 2806/2906 11004KT CAVOK"
    },
    {
      "icao": "LIRZ",
      "alert": "OK",
      "vis_m": 9999,
      "fzfg": false,
      "metar_trigger": false,
      "taf_trigger": false,
      "metar": "METAR LIRZ 281020Z AUTO 02013KT 9999 NCD 13/M00 Q1011",
      "taf": "TAF LIRZ 280500Z 2806/2906 VRB05KT 9999 FEW080"
    },
    {
      "icao": "LJLJ",
      "alert": "OK",
      "vis_m": 9999,
      "fzfg": false,
      "metar_trigger": false,
      "taf_trigger": false,
      "metar": "METAR LJLJ 281030Z 13004KT 020V190 9999 FEW075 12/M05 Q1010 NOSIG",
      "taf": "TAF LJLJ 280500Z 2806/2906 VRB02KT 9999 FEW075"
    },
    {
      "icao": "LKMT",
      "alert": "OK",
      "vis_m": 9999,
      "fzfg": false,
      "metar_trigger": false,
      "taf_trigger": false,
      "metar": "METAR LKMT 281030Z 02009KT 9999 OVC024 03/00 Q1015 NOSIG",
      "taf": "TAF LKMT 280500Z 2806/2906 36010KT 9999 OVC030"
    },
    {
      "icao": "LKPR",
      "alert": "OK",
      "vis_m": 9999,
      "fzfg": false,
      "metar_trigger": false,
      "taf_trigger": false,
      "metar": "METAR LKPR 281030Z 26008KT 230V300 CAVOK 07/M06 Q1017 NOSIG",
      "taf": "TAF LKPR 280800Z 2809/2915 22006KT CAVOK"
    },
    {
      "icao": "LLBG",
      "alert": "OK",
      "vis_m": 9999,
      "fzfg": false,
      "metar_trigger": false,
      "taf_trigger": false,
      "metar": "METAR LLBG 281020Z 24006KT CAVOK 24/04 Q1012 NOSIG",
      "taf": "TAF LLBG 280501Z 2806/2906 15005KT CAVOK TX23/2811Z TN15/2900Z"
    },
    {
      "icao": "LMML",
      "alert": "OK",
      "vis_m": 9999,
      "fzfg": false,
      "metar_trigger": false,
      "taf_trigger": false,
      "metar": "METAR LMML 281015Z 32015KT 290V350 9999 FEW035 15/06 Q1010 NOSIG",
      "taf": "TAF LMML 280500Z 2806/2906 31018G28KT 9999 FEW025"
    },
    {
      "icao": "LOWW",
      "alert": "OK",
      "vis_m": 9999,
      "fzfg": false,
      "metar_trigger": false,
      "taf_trigger": false,
      "metar": "METAR LOWW 281020Z 31020KT 9999 FEW034 BKN036 04/M03 Q1015 NOSIG",
      "taf": "TAF LOWW 280817Z 2809/2915 32018KT 9999 FEW030 OVC040 TX08/2815Z TN03/2809Z"
    },
    {
      "icao": "LPFR",
      "alert": "OK",
      "vis_m": 9999,
      "fzfg": false,
      "metar_trigger": false,
      "taf_trigger": false,
      "metar": "METAR LPFR 281030Z 12006KT 080V150 CAVOK 18/11 Q1021",
      "taf": "TAF LPFR 280500Z 2806/2906 04008KT CAVOK"
    },
    {
      "icao": "LPMA",
      "alert": "OK",
      "vis_m": 9999,
      "fzfg": false,
      "metar_trigger": false,
      "taf_trigger": false,
      "metar": "METAR LPMA 281030Z 02019G32KT 340V050 9999 FEW015 17/10 Q1023",
      "taf": "TAF LPMA 280500Z 2806/2906 02015KT 9999 SCT015"
    },
    {
      "icao": "LPPR",
      "alert": "OK",
      "vis_m": 9999,
      "fzfg": false,
      "metar_trigger": false,
      "taf_trigger": false,
      "metar": "METAR LPPR 281030Z 03009KT 360V080 CAVOK 16/07 Q1025",
      "taf": "TAF LPPR 280500Z 2806/2906 VRB02KT CAVOK"
    },
    {
      "icao": "LPPS",
      "alert": "OK",
      "vis_m": 9999,
      "fzfg": false,
      "metar_trigger": false,
      "taf_trigger": false,
      "metar": "METAR LPPS 281030Z 03012G22KT 360V070 9999 SCT014 BKN030 16/11 Q1024",
      "taf": "TAF LPPS 280500Z 2806/2912 02013KT 9999 SCT015 SCT030"
    },
    {
      "icao": "LPPT",
      "alert": "OK",
      "vis_m": 9999,
      "fzfg": false,
      "metar_trigger": false,
      "taf_trigger": false,
      "metar": "METAR LPPT 281030Z 03012KT CAVOK 18/05 Q1022",
      "taf": "TAF LPPT 280500Z 2806/2912 35008KT CAVOK"
    },
    {
      "icao": "LQBK",
      "alert": "OK",
      "vis_m": 9999,
      "fzfg": false,
      "metar_trigger": false,
      "taf_trigger": false,
      "metar": "METAR LQBK 281030Z 25009KT 9999 -RA BKN025 OVC033 04/01 Q1011 NOSIG",
      "taf": "TAF LQBK 280500Z 2806/2906 30011KT 7000 SCT010 BKN015 OVC030 TX05/2813Z TN02/2905Z"
    },
    {
      "icao": "LQSA",
      "alert": "OK",
      "vis_m": 4000,
      "fzfg": false,
      "metar_trigger": false,
      "taf_trigger": false,
      "metar": "METAR LQSA 281030Z 29009KT 4000 SN BR FEW005 SCT015 BKN020 02/01 Q1008 NOSIG",
      "taf": "TAF LQSA 280500Z 2806/2906 28006KT 8000 SCT015 BKN035 TX03/2813Z TN00/2906Z"
    },
    {
      "icao": "LQTZ",
      "alert": "OK",
      "vis_m": 1700,
      "fzfg": false,
      "metar_trigger": false,
      "taf_trigger": false,
      "metar": "METAR LQTZ 281030Z 30006KT 1700 SN BR OVC003 00/00 Q1009",
      "taf": ""
    },
    {
      "icao": "LRBC",
      "alert": "OK",
      "vis_m": 6000,
      "fzfg": false,
      "metar_trigger": false,
      "taf_trigger": false,
      "metar": "METAR LRBC 281030Z 34010KT 6000 OVC038 08/07 Q1008 RERA",
      "taf": "TAF LRBC 280800Z 2809/2818 VRB04KT 5000 -RA BKN025"
    },
    {
      "icao": "LRBS",
      "alert": "OK",
      "vis_m": 8000,
      "fzfg": false,
      "metar_trigger": false,
      "taf_trigger": false,
      "metar": "METAR LRBS 281030Z 06012KT 8000 -RA OVC005 08/08 Q1004 NOSIG",
      "taf": ""
    },
    {
      "icao": "LRBV",
      "alert": "OK",
      "vis_m": 9999,
      "fzfg": false,
      "metar_trigger": false,
      "taf_trigger": false,
      "metar": "METAR LRBV 281030Z 07009KT 9999 -RA FEW009 SCT021 OVC035 06/04 Q1005",
      "taf": "TAF LRBV 280800Z 2809/2818 07012KT 9999 BKN040"
    },
    {
      "icao": "LRCL",
      "alert": "OK",
      "vis_m": 9999,
      "fzfg": false,
      "metar_trigger": false,
      "taf_trigger": false,
      "metar": "METAR LRCL 281030Z COR 08007KT 9999 -RA OVC041 10/06 Q1006",
      "taf": "TAF LRCL 280800Z 2809/2818 VRB04KT 9999 OVC040"
    },
    {
      "icao": "LRCV",
      "alert": "OK",
      "vis_m": 9999,
      "fzfg": false,
      "metar_trigger": false,
      "taf_trigger": false,
      "metar": "METAR LRCV 281030Z 07009KT 9999 SCT007 OVC030 10/08 Q1003",
      "taf": "TAF LRCV 280800Z 2809/2818 10010KT 9999 BKN005 BKN020"
    },
    {
      "icao": "LRIA",
      "alert": "OK",
      "vis_m": 9999,
      "fzfg": false,
      "metar_trigger": false,
      "taf_trigger": false,
      "metar": "METAR LRIA 281030Z 29006KT 250V320 CAVOK 13/05 Q1008",
      "taf": "TAF LRIA 280800Z 2809/2818 VRB04KT 9999 BKN040"
    },
    {
      "icao": "LROP",
      "alert": "OK",
      "vis_m": 8000,
      "fzfg": false,
      "metar_trigger": false,
      "taf_trigger": false,
      "metar": "METAR LROP 281030Z 06017KT 8000 -RA OVC006 08/08 Q1004 NOSIG",
      "taf": ""
    },
    {
      "icao": "LRSB",
      "alert": "OK",
      "vis_m": 9999,
      "fzfg": false,
      "metar_trigger": false,
      "taf_trigger": false,
      "metar": "METAR LRSB 281030Z 10013KT 9999 FEW019 BKN024 OVC038 09/05 Q1004",
      "taf": ""
    },
    {
      "icao": "LRSM",
      "alert": "OK",
      "vis_m": 9999,
      "fzfg": false,
      "metar_trigger": false,
      "taf_trigger": false,
      "metar": "METAR LRSM 281030Z AUTO 14004KT 110V180 9999 BKN100/// 16/03 Q1007",
      "taf": "TAF LRSM 280200Z 2803/2812 06007KT CAVOK"
    },
    {
      "icao": "LRSV",
      "alert": "OK",
      "vis_m": 9999,
      "fzfg": false,
      "metar_trigger": false,
      "taf_trigger": false,
      "metar": "METAR LRSV 281030Z 36007KT 9999 -RA BKN035 09/07 Q1008",
      "taf": "TAF LRSV 280800Z 2809/2818 32007KT 9999 BKN040"
    },
    {
      "icao": "LRTM",
      "alert": "OK",
      "vis_m": 9999,
      "fzfg": false,
      "metar_trigger": false,
      "taf_trigger": false,
      "metar": "METAR LRTM 281030Z 08013KT 9999 -RA FEW022 BKN046 11/05 Q1005",
      "taf": "TAF LRTM 280800Z 2809/2818 08008KT 9999 BKN045"
    },
    {
      "icao": "LRTR",
      "alert": "OK",
      "vis_m": 9999,
      "fzfg": false,
      "metar_trigger": false,
      "taf_trigger": false,
      "metar": "METAR LRTR 281030Z 36010KT 9999 -RA SCT031 SCT043 10/08 Q1004",
      "taf": "TAF LRTR 280500Z 2806/2906 36010KT 5000 RA BKN040"
    },
    {
      "icao": "LTAC",
      "alert": "OK",
      "vis_m": 9999,
      "fzfg": false,
      "metar_trigger": false,
      "taf_trigger": false,
      "metar": "METAR LTAC 281020Z 21012KT 180V250 9999 SCT040 BKN080 17/04 Q1007 NOSIG RMK RWY21C 15008KT 020V170 RWY03L 21011KT 160V230 RWY21R 16010KT 120V210 RWY03R 20014KT RWY21L 19007KT 130V250",
      "taf": "TAF LTAC 280440Z 2806/2906 VRB02KT CAVOK"
    },
    {
      "icao": "LTFM",
      "alert": "OK",
      "vis_m": 9999,
      "fzfg": false,
      "metar_trigger": false,
      "taf_trigger": false,
      "metar": "METAR LTFM 281020Z 18010KT 9999 -SHRA SCT040 BKN080 12/09 Q1004 NOSIG RMK RWY17L 18011KT RWY34L 18011KT RWY16R 18012KT RWY36 16011KT RWY18 18010KT",
      "taf": "TAF LTFM 280440Z 2806/2912 19013KT 9999 SCT040 BKN090"
    },
    {
      "icao": "LUKK",
      "alert": "OK",
      "vis_m": 9999,
      "fzfg": false,
      "metar_trigger": false,
      "taf_trigger": false,
      "metar": "METAR LUKK 281030Z 10011KT 060V150 9999 FEW044 18/08 Q1008 NOSIG",
      "taf": "TAF LUKK 280516Z 2806/2906 08010KT 9999 SCT040"
    },
    {
      "icao": "LWOH",
      "alert": "OK",
      "vis_m": 9999,
      "fzfg": false,
      "metar_trigger": false,
      "taf_trigger": false,
      "metar": "METAR LWOH 281020Z 16007KT 130V190 9999 SCT030 09/04 Q1001",
      "taf": "TAF LWOH 280810Z 2809/2909 18006KT 9999 SCT020 BKN033"
    },
    {
      "icao": "LWSK",
      "alert": "OK",
      "vis_m": 9999,
      "fzfg": false,
      "metar_trigger": false,
      "taf_trigger": false,
      "metar": "METAR LWSK 281020Z 01011KT 340V050 9999 BKN050 11/03 Q1002 NOSIG",
      "taf": "TAF LWSK 280810Z 2809/2909 VRB02KT 9999 BKN040"
    },
    {
      "icao": "LYBE",
      "alert": "OK",
      "vis_m": 8000,
      "fzfg": false,
      "metar_trigger": false,
      "taf_trigger": false,
      "metar": "METAR LYBE 281030Z 30010KT 8000 -RA BKN008 06/05 Q1005 NOSIG",
      "taf": "TAF LYBE 280500Z 2806/2906 34014KT 8000 BKN010 BKN027 TX08/2812Z TN05/2905Z"
    },
    {
      "icao": "LYNI",
      "alert": "OK",
      "vis_m": 1000,
      "fzfg": false,
      "metar_trigger": false,
      "taf_trigger": false,
      "metar": "METAR LYNI 281030Z 11001KT 1000 R29/P2000N R11/1800N +SN BKN003 OVC023 01/01 Q1005 NOSIG",
      "taf": ""
    },
    {
      "icao": "LYPG",
      "alert": "OK",
      "vis_m": 9999,
      "fzfg": false,
      "metar_trigger": false,
      "taf_trigger": false,
      "metar": "METAR LYPG 281030Z 01013KT 330V030 9999 FEW030 14/M01 Q1003 TEMPO 01023KT",
      "taf": "TAF LYPG 280500Z 2806/2906 35010KT 9999 FEW060 SCT080 TX14/2812Z TN07/2904Z"
    },
    {
      "icao": "LZIB",
      "alert": "OK",
      "vis_m": 9999,
      "fzfg": false,
      "metar_trigger": false,
      "taf_trigger": false,
      "metar": "METAR LZIB 281030Z 30019G31KT 9999 FEW027 BKN035 06/M02 Q1013 NOSIG",
      "taf": "TAF LZIB 280519Z 2806/2906 35016KT 9999 FEW016 BKN035"
    },
    {
      "icao": "LZKZ",
      "alert": "OK",
      "vis_m": 9999,
      "fzfg": false,
      "metar_trigger": false,
      "taf_trigger": false,
      "metar": "METAR LZKZ 281030Z 36020KT CAVOK 12/04 Q1008 NOSIG",
      "taf": "TAF LZKZ 280519Z 2806/2906 01020KT 9999 FEW025 BKN040"
    },
    {
      "icao": "LZTT",
      "alert": "OK",
      "vis_m": 9999,
      "fzfg": false,
      "metar_trigger": false,
      "taf_trigger": false,
      "metar": "METAR LZTT 281030Z 09010KT 9999 FEW008 SCT020 OVC036 05/03 Q1011 NOSIG",
      "taf": ""
    },
    {
      "icao": "OEJN",
      "alert": "OK",
      "vis_m": 9999,
      "fzfg": false,
      "metar_trigger": false,
      "taf_trigger": false,
      "metar": "METAR OEJN 281000Z 33014KT CAVOK 30/04 Q1012 NOSIG",
      "taf": "TAF OEJN 280500Z 2806/2912 34012KT CAVOK"
    },
    {
      "icao": "OEMA",
      "alert": "OK",
      "vis_m": 9999,
      "fzfg": false,
      "metar_trigger": false,
      "taf_trigger": false,
      "metar": "METAR OEMA 281000Z VRB03KT CAVOK 26/M02 Q1016 NOSIG",
      "taf": "TAF OEMA 280500Z 2806/2912 14008KT CAVOK"
    },
    {
      "icao": "OJAI",
      "alert": "OK",
      "vis_m": 5000,
      "fzfg": false,
      "metar_trigger": false,
      "taf_trigger": false,
      "metar": "METAR OJAI 281000Z 21012KT 5000 HZ NSC 17/05 Q1015 NOSIG",
      "taf": "TAF OJAI 280429Z 2806/2912 26010KT 5000 HZ NSC"
    },
    {
      "icao": "OMAA",
      "alert": "OK",
      "vis_m": null,
      "fzfg": false,
      "metar_trigger": false,
      "taf_trigger": false,
      "metar": "",
      "taf": ""
    },
    {
      "icao": "OMDB",
      "alert": "OK",
      "vis_m": null,
      "fzfg": false,
      "metar_trigger": false,
      "taf_trigger": false,
      "metar": "",
      "taf": ""
    },
    {
      "icao": "UAAA",
      "alert": "OK",
      "vis_m": 9999,
      "fzfg": false,
      "metar_trigger": false,
      "taf_trigger": false,
      "metar": "METAR UAAA 281030Z 35002MPS 290V060 9999 FEW100 18/02 Q1007 NOSIG",
      "taf": "TAF UAAA 280503Z 2806/2906 34002G07MPS 9999 FEW100 TX18/2810Z TN05/2901Z"
    },
    {
      "icao": "UBBB",
      "alert": "OK",
      "vis_m": 9999,
      "fzfg": false,
      "metar_trigger": false,
      "taf_trigger": false,
      "metar": "METAR UBBB 281030Z 20008KT 9999 -SHRA FEW010 BKN030CB OVC030 12/11 Q0999 NOSIG",
      "taf": "TAF UBBB 280504Z 2806/2906 26005KT 8000 -SHRA SCT010 SCT040CB OVC040 TX14/2810Z TN10/2902Z"
    },
    {
      "icao": "UDSG",
      "alert": "OK",
      "vis_m": 9999,
      "fzfg": false,
      "metar_trigger": false,
      "taf_trigger": false,
      "metar": "METAR UDSG 281030Z 19004KT 150V240 9999 BKN033CB 07/02 Q1007 NOSIG",
      "taf": "TAF UDSG 280458Z 2806/2906 24006KT 9999 BKN040"
    },
    {
      "icao": "UDYZ",
      "alert": "OK",
      "vis_m": 9999,
      "fzfg": false,
      "metar_trigger": false,
      "taf_trigger": false,
      "metar": "METAR UDYZ 281030Z VRB01KT 9999 SCT043CB 12/05 Q1004 NOSIG",
      "taf": "TAF UDYZ 280500Z 2806/2906 16006KT 6000 BKN030"
    },
    {
      "icao": "UGKO",
      "alert": "OK",
      "vis_m": 9999,
      "fzfg": false,
      "metar_trigger": false,
      "taf_trigger": false,
      "metar": "METAR UGKO 281030Z 25005KT 200V320 9999 BKN037 14/08 Q1008 NOSIG",
      "taf": "TAF UGKO 280500Z 2806/2906 26006KT 9999 OVC050 TX18/2811Z TN06/2903Z"
    }
  ]
}