{
  "ts_utc": "2026-01-26T11:52:06Z",
  "threshold_m": 150,
  "source": "stations_override.txt (ICAO list) + aviationweather.gov (METAR/TAF raw)",
  "station_count": 159,
  "stations": [
    {
      "icao": "BIKF",
      "alert": "OK",
      "vis_m": 9999,
      "fzfg": false,
      "metar_trigger": false,
      "taf_trigger": false,
      "metar": "METAR BIKF 261130Z 07019KT 9999 SCT043 BKN180 04/M02 Q0999",
      "taf": "TAF BIKF 261033Z 2612/2712 08017KT 9999 FEW025 TX05/2615Z TN02/2612Z"
    },
    {
      "icao": "BKPR",
      "alert": "OK",
      "vis_m": 9999,
      "fzfg": false,
      "metar_trigger": false,
      "taf_trigger": false,
      "metar": "METAR BKPR 261130Z 20005KT 150V230 9999 BKN030 11/07 Q0997 NOSIG",
      "taf": "TAF BKPR 261130Z 2612/2712 15008KT 9999 SCT020 BKN060"
    },
    {
      "icao": "EBCI",
      "alert": "OK",
      "vis_m": 200,
      "fzfg": true,
      "metar_trigger": false,
      "taf_trigger": false,
      "metar": "METAR EBCI 261120Z 31003KT 260V360 0200 R24/1300D FZFG OVC001 M02/M02 Q1002 NOSIG",
      "taf": "TAF EBCI 261110Z 2612/2718 VRB03KT 2000 BR BKN003"
    },
    {
      "icao": "EDDB",
      "alert": "OK",
      "vis_m": 3400,
      "fzfg": false,
      "metar_trigger": false,
      "taf_trigger": false,
      "metar": "METAR EDDB 261120Z AUTO 14007KT 110V170 3400 BR BKN003 BKN007 00/00 Q0997 TEMPO 5000 BR BKN005",
      "taf": "TAF EDDB 261100Z 2612/2712 12008KT 2000 -DZ BR BKN003"
    },
    {
      "icao": "EDDH",
      "alert": "OK",
      "vis_m": 9999,
      "fzfg": false,
      "metar_trigger": false,
      "taf_trigger": false,
      "metar": "METAR EDDH 261120Z AUTO 04008KT 360V070 9999 OVC007 01/00 Q0998 TEMPO 4500 -SN OVC004",
      "taf": "TAF EDDH 261100Z 2612/2718 06007KT 8000 OVC007"
    },
    {
      "icao": "EDDK",
      "alert": "OK",
      "vis_m": 3000,
      "fzfg": false,
      "metar_trigger": false,
      "taf_trigger": false,
      "metar": "METAR EDDK 261120Z AUTO 28012KT 3000 -SN BR BKN005 M01/M02 Q1001 TEMPO 4500 BKN007",
      "taf": "TAF EDDK 261100Z 2612/2718 29008KT 2900 BR BKN005"
    },
    {
      "icao": "EDDN",
      "alert": "OK",
      "vis_m": 1600,
      "fzfg": false,
      "metar_trigger": false,
      "taf_trigger": false,
      "metar": "METAR EDDN 261120Z AUTO 20003KT 1600 1300 R28/1900N SN BR BKN002 BKN008 01/M00 Q0998 TEMPO 1200 SN OVC001",
      "taf": "TAF EDDN 261100Z 2612/2712 25005KT 2000 -SN BR OVC003"
    },
    {
      "icao": "EDDS",
      "alert": "OK",
      "vis_m": 9999,
      "fzfg": false,
      "metar_trigger": false,
      "taf_trigger": false,
      "metar": "METAR EDDS 261120Z AUTO 25005KT 210V280 9999 BKN024 BKN035 04/01 Q0999 NOSIG",
      "taf": "TAF EDDS 261100Z 2612/2712 24006KT 9999 BKN020"
    },
    {
      "icao": "EDFH",
      "alert": "OK",
      "vis_m": 9999,
      "fzfg": false,
      "metar_trigger": false,
      "taf_trigger": false,
      "metar": "METAR EDFH 261120Z 28013KT 9999 FEW004 BKN007 M00/M01 Q0998",
      "taf": "TAF EDFH 261100Z 2612/2712 27010KT 8000 BKN006"
    },
    {
      "icao": "EDJA",
      "alert": "OK",
      "vis_m": 9999,
      "fzfg": false,
      "metar_trigger": false,
      "taf_trigger": false,
      "metar": "METAR EDJA 261120Z 23012KT 9999 OVC009 02/01 Q1000",
      "taf": "TAF EDJA 261100Z 2612/2621 24010KT 9999 OVC008"
    },
    {
      "icao": "EDLW",
      "alert": "OK",
      "vis_m": 2300,
      "fzfg": false,
      "metar_trigger": false,
      "taf_trigger": false,
      "metar": "METAR EDLW 261120Z 25006KT 220V280 2300 -SN BR BKN006 OVC014 M01/M02 Q0999",
      "taf": "TAF EDLW 261100Z 2612/2712 27006KT 6000 OVC006"
    },
    {
      "icao": "EDNY",
      "alert": "OK",
      "vis_m": 9999,
      "fzfg": false,
      "metar_trigger": false,
      "taf_trigger": false,
      "metar": "METAR EDNY 261120Z COR 24013KT 9999 OVC019 05/03 Q1002",
      "taf": "TAF EDNY 261100Z 2612/2621 25010KT 9999 OVC015"
    },
    {
      "icao": "EDSB",
      "alert": "OK",
      "vis_m": 5000,
      "fzfg": false,
      "metar_trigger": false,
      "taf_trigger": false,
      "metar": "METAR EDSB 261120Z 20009KT 5000 FEW005 05/03 Q1002",
      "taf": "TAF EDSB 261100Z 2612/2712 21007KT 6000 BKN020"
    },
    {
      "icao": "EETN",
      "alert": "OK",
      "vis_m": 9999,
      "fzfg": false,
      "metar_trigger": false,
      "taf_trigger": false,
      "metar": "METAR EETN 261150Z 25003KT 9999 -SN OVC009 M07/M09 Q1010 NOSIG",
      "taf": "TAF EETN 261130Z 2612/2712 VRB02KT 9999 OVC012"
    },
    {
      "icao": "EFTU",
      "alert": "OK",
      "vis_m": 9999,
      "fzfg": false,
      "metar_trigger": false,
      "taf_trigger": false,
      "metar": "METAR EFTU 261120Z AUTO 26003KT 9999 OVC041 M07/M09 Q1011",
      "taf": "TAF EFTU 261136Z 2612/2712 VRB02KT 9999 BKN040"
    },
    {
      "icao": "EGBB",
      "alert": "OK",
      "vis_m": 3800,
      "fzfg": false,
      "metar_trigger": false,
      "taf_trigger": false,
      "metar": "METAR EGBB 261120Z 13008KT 3800 BR OVC009 03/02 Q1001",
      "taf": "TAF EGBB 261100Z 2612/2712 12009KT 4000 BR BKN008"
    },
    {
      "icao": "EGGP",
      "alert": "OK",
      "vis_m": 9000,
      "fzfg": false,
      "metar_trigger": false,
      "taf_trigger": false,
      "metar": "METAR EGGP 261120Z 12010KT 9000 BKN014 OVC030 03/01 Q1000",
      "taf": "TAF EGGP 261057Z 2612/2712 12010KT 9999 SCT025"
    },
    {
      "icao": "EGGW",
      "alert": "OK",
      "vis_m": 5000,
      "fzfg": false,
      "metar_trigger": false,
      "taf_trigger": false,
      "metar": "METAR EGGW 261120Z AUTO 12006KT 5000 HZ OVC007 03/02 Q1002",
      "taf": "TAF EGGW 261102Z 2612/2712 13009KT 5000 HZ BKN006"
    },
    {
      "icao": "EGKK",
      "alert": "OK",
      "vis_m": 5000,
      "fzfg": false,
      "metar_trigger": false,
      "taf_trigger": false,
      "metar": "METAR EGKK 261120Z 08006KT 050V120 5000 HZ BKN009 05/04 Q1002",
      "taf": "TAF EGKK 261101Z 2612/2718 06005KT 4000 BR BKN009"
    },
    {
      "icao": "EGNM",
      "alert": "OK",
      "vis_m": 4000,
      "fzfg": false,
      "metar_trigger": false,
      "taf_trigger": false,
      "metar": "METAR EGNM 261120Z 11008KT 4000 BR SCT005 BKN007 02/01 Q1001",
      "taf": "TAF EGNM 261056Z 2612/2712 11008KT 7000 BKN010"
    },
    {
      "icao": "EGPD",
      "alert": "OK",
      "vis_m": 9999,
      "fzfg": false,
      "metar_trigger": false,
      "taf_trigger": false,
      "metar": "METAR EGPD 261120Z 14011KT 100V170 9999 VCSH SCT015 BKN020 05/02 Q1003 TEMPO BKN012",
      "taf": "TAF EGPD 261056Z 2612/2712 12009KT 9999 SCT016 BKN030"
    },
    {
      "icao": "EGPF",
      "alert": "OK",
      "vis_m": 9999,
      "fzfg": false,
      "metar_trigger": false,
      "taf_trigger": false,
      "metar": "METAR EGPF 261120Z AUTO 08011KT 9999 BKN022 OVC027 05/02 Q1000",
      "taf": "TAF EGPF 261058Z 2612/2712 08011KT 9999 FEW018 SCT030"
    },
    {
      "icao": "EHBK",
      "alert": "OK",
      "vis_m": 1900,
      "fzfg": false,
      "metar_trigger": false,
      "taf_trigger": false,
      "metar": "METAR EHBK 261125Z AUTO 25007KT 210V290 1900 BR OVC003/// M02/M02 Q1002 TEMPO BKN006",
      "taf": "TAF EHBK 261114Z 2612/2718 30003KT 2000 BR BKN003"
    },
    {
      "icao": "EHEH",
      "alert": "OK",
      "vis_m": null,
      "fzfg": false,
      "metar_trigger": false,
      "taf_trigger": false,
      "metar": "",
      "taf": "TAF EHEH 260554Z 2606/2712 33004KT 2500 BR BKN008"
    },
    {
      "icao": "EKBI",
      "alert": "OK",
      "vis_m": 9999,
      "fzfg": false,
      "metar_trigger": false,
      "taf_trigger": false,
      "metar": "METAR EKBI 261120Z 05016KT 010V070 9999 BKN020 M03/M07 Q1005",
      "taf": "TAF EKBI 261127Z 2612/2712 05015KT 9999 BKN018"
    },
    {
      "icao": "EKCH",
      "alert": "OK",
      "vis_m": 9999,
      "fzfg": false,
      "metar_trigger": false,
      "taf_trigger": false,
      "metar": "METAR EKCH 261120Z 04015KT 9999 OVC010 M01/M03 Q1003 TEMPO BKN008",
      "taf": "TAF EKCH 261127Z 2612/2712 05020KT 9999 OVC015"
    },
    {
      "icao": "ENAL",
      "alert": "OK",
      "vis_m": 9999,
      "fzfg": false,
      "metar_trigger": false,
      "taf_trigger": false,
      "metar": "METAR ENAL 261120Z 17005KT 130V190 CAVOK M00/M07 Q1011",
      "taf": "TAF ENAL 261100Z 2612/2621 16005KT CAVOK"
    },
    {
      "icao": "ENBR",
      "alert": "OK",
      "vis_m": 9999,
      "fzfg": false,
      "metar_trigger": false,
      "taf_trigger": false,
      "metar": "METAR ENBR 261120Z 12002KT CAVOK M03/M07 Q1010 NOSIG RMK WIND 1200FT 35008KT",
      "taf": "TAF ENBR 261100Z 2612/2712 VRB03KT CAVOK"
    },
    {
      "icao": "ENGM",
      "alert": "OK",
      "vis_m": 9999,
      "fzfg": false,
      "metar_trigger": false,
      "taf_trigger": false,
      "metar": "METAR ENGM 261120Z 02005KT CAVOK M12/M15 Q1013 NOSIG",
      "taf": "TAF ENGM 261100Z 2612/2712 36008KT CAVOK"
    },
    {
      "icao": "ENHD",
      "alert": "OK",
      "vis_m": 9999,
      "fzfg": false,
      "metar_trigger": false,
      "taf_trigger": false,
      "metar": "METAR ENHD 261120Z /////KT CAVOK M02/M10 Q1011 RMK WIND RWY 31 10004KT",
      "taf": "TAF ENHD 261100Z 2612/2621 12004KT CAVOK"
    },
    {
      "icao": "ENTC",
      "alert": "OK",
      "vis_m": 9999,
      "fzfg": false,
      "metar_trigger": false,
      "taf_trigger": false,
      "metar": "METAR ENTC 261120Z 12003KT 050V150 9999 BKN058 M04/M07 Q1013 NOSIG RMK WIND 2600FT 36016KT",
      "taf": "TAF ENTC 261100Z 2612/2712 04006KT 9999 FEW012 BKN030"
    },
    {
      "icao": "ENTO",
      "alert": "OK",
      "vis_m": 9999,
      "fzfg": false,
      "metar_trigger": false,
      "taf_trigger": false,
      "metar": "METAR ENTO 261120Z 36010KT CAVOK M10/M13 Q1013 NOSIG",
      "taf": "TAF ENTO 261100Z 2612/2712 01010KT CAVOK"
    },
    {
      "icao": "ENVA",
      "alert": "OK",
      "vis_m": 9999,
      "fzfg": false,
      "metar_trigger": false,
      "taf_trigger": false,
      "metar": "METAR ENVA 261120Z 07004KT CAVOK M10/M14 Q1015 NOSIG RMK WIND 670FT 12005KT",
      "taf": "TAF ENVA 261100Z 2612/2712 11008KT CAVOK"
    },
    {
      "icao": "ENZV",
      "alert": "OK",
      "vis_m": 9999,
      "fzfg": false,
      "metar_trigger": false,
      "taf_trigger": false,
      "metar": "METAR ENZV 261120Z 13008KT CAVOK M02/M10 Q1011 NOSIG",
      "taf": "TAF ENZV 261100Z 2612/2712 12006KT CAVOK"
    },
    {
      "icao": "EPGD",
      "alert": "OK",
      "vis_m": 4700,
      "fzfg": false,
      "metar_trigger": false,
      "taf_trigger": false,
      "metar": "METAR EPGD 261130Z 08007KT 4700 -FZRA BR BKN004 M03/M04 Q1001",
      "taf": "TAF EPGD 261130Z 2612/2712 09010KT 6000 -FZRA OVC005"
    },
    {
      "icao": "EPKK",
      "alert": "OK",
      "vis_m": 8000,
      "fzfg": false,
      "metar_trigger": false,
      "taf_trigger": false,
      "metar": "METAR EPKK 261130Z 21003KT 8000 NSC 04/01 Q0999",
      "taf": "TAF EPKK 261130Z 2612/2712 22004KT 9999 SCT040"
    },
    {
      "icao": "EPKT",
      "alert": "OK",
      "vis_m": 8000,
      "fzfg": false,
      "metar_trigger": false,
      "taf_trigger": false,
      "metar": "METAR EPKT 261130Z 21008KT 8000 FEW039 06/04 Q0998",
      "taf": "TAF EPKT 261130Z 2612/2712 22007KT 9999 BKN030"
    },
    {
      "icao": "EPLB",
      "alert": "OK",
      "vis_m": 9999,
      "fzfg": false,
      "metar_trigger": false,
      "taf_trigger": false,
      "metar": "METAR EPLB 261130Z 12009KT 9999 SCT009 BKN010 01/M00 Q1001",
      "taf": "TAF EPLB 261130Z 2612/2712 11012KT 9999 BKN035"
    },
    {
      "icao": "EPMO",
      "alert": "OK",
      "vis_m": 5000,
      "fzfg": false,
      "metar_trigger": false,
      "taf_trigger": false,
      "metar": "METAR EPMO 261130Z 09007KT 5000 BR BKN007 M01/M02 Q1001 REFZRA",
      "taf": "TAF EPMO 261130Z 2612/2712 10012KT 4000 -RA BR BKN008"
    },
    {
      "icao": "EPPO",
      "alert": "OK",
      "vis_m": 2900,
      "fzfg": false,
      "metar_trigger": false,
      "taf_trigger": false,
      "metar": "METAR EPPO 261130Z 09005KT 2900 BR OVC004 00/M01 Q0998",
      "taf": "TAF EPPO 261130Z 2612/2712 13005KT 2500 BR OVC004"
    },
    {
      "icao": "EPRA",
      "alert": "OK",
      "vis_m": 9999,
      "fzfg": false,
      "metar_trigger": false,
      "taf_trigger": false,
      "metar": "METAR EPRA 261130Z 13007KT CAVOK 02/M00 Q1000",
      "taf": "TAF EPRA 261130Z 2612/2621 15008KT 9999 BKN040"
    },
    {
      "icao": "EPRZ",
      "alert": "OK",
      "vis_m": 9999,
      "fzfg": false,
      "metar_trigger": false,
      "taf_trigger": false,
      "metar": "METAR EPRZ 261130Z 08008KT CAVOK 02/M00 Q1000",
      "taf": "TAF EPRZ 261130Z 2612/2712 10012KT 9999 BKN040"
    },
    {
      "icao": "EPSC",
      "alert": "OK",
      "vis_m": 5000,
      "fzfg": false,
      "metar_trigger": false,
      "taf_trigger": false,
      "metar": "METAR EPSC 261130Z 08006KT 5000 BR SCT004 OVC005 M01/M01 Q0998",
      "taf": "TAF EPSC 261130Z 2612/2712 09005KT 6000 OVC005"
    },
    {
      "icao": "EPSY",
      "alert": "OK",
      "vis_m": 4200,
      "fzfg": false,
      "metar_trigger": false,
      "taf_trigger": false,
      "metar": "METAR EPSY 261130Z 12005KT 080V160 4200 -FZRA BR OVC005 M04/M05 Q1002",
      "taf": "TAF EPSY 261130Z 2612/2621 12008KT 7000 BKN006"
    },
    {
      "icao": "EPWA",
      "alert": "OK",
      "vis_m": 7000,
      "fzfg": false,
      "metar_trigger": false,
      "taf_trigger": false,
      "metar": "METAR EPWA 261130Z 11009KT 7000 BKN008 00/M01 Q1000 NOSIG",
      "taf": "TAF EPWA 261130Z 2612/2712 11012KT 8000 SCT008 BKN025"
    },
    {
      "icao": "EPWR",
      "alert": "OK",
      "vis_m": 9999,
      "fzfg": false,
      "metar_trigger": false,
      "taf_trigger": false,
      "metar": "METAR EPWR 261130Z 21010KT 9999 SCT028 07/01 Q0998",
      "taf": "TAF EPWR 261130Z 2612/2712 24010KT 9999 SCT030"
    },
    {
      "icao": "ESGG",
      "alert": "OK",
      "vis_m": 9999,
      "fzfg": false,
      "metar_trigger": false,
      "taf_trigger": false,
      "metar": "METAR ESGG 261120Z 04011KT 9999 OVC024 M05/M08 Q1008",
      "taf": "TAF ESGG 261130Z 2612/2712 04013KT 9999 BKN020"
    },
    {
      "icao": "ESKN",
      "alert": "OK",
      "vis_m": 9999,
      "fzfg": false,
      "metar_trigger": false,
      "taf_trigger": false,
      "metar": "METAR ESKN 261120Z 02010KT 340V050 9999 FEW012 SCT042 M04/M06 Q1010",
      "taf": "TAF ESKN 261130Z 2612/2712 01009KT 9999 FEW012 BKN030"
    },
    {
      "icao": "ESMS",
      "alert": "OK",
      "vis_m": 9000,
      "fzfg": false,
      "metar_trigger": false,
      "taf_trigger": false,
      "metar": "METAR ESMS 261120Z 07018KT 9000 OVC007 00/M01 Q1002",
      "taf": "TAF ESMS 261127Z 2612/2712 06012KT 9999 BKN006"
    },
    {
      "icao": "ESSA",
      "alert": "OK",
      "vis_m": 9999,
      "fzfg": false,
      "metar_trigger": false,
      "taf_trigger": false,
      "metar": "METAR ESSA 261120Z 02009KT CAVOK M06/M10 Q1012 NOSIG",
      "taf": "TAF ESSA 261130Z 2612/2712 02008KT 9999 SCT020"
    },
    {
      "icao": "EYKA",
      "alert": "OK",
      "vis_m": 9999,
      "fzfg": false,
      "metar_trigger": false,
      "taf_trigger": false,
      "metar": "METAR EYKA 261150Z 12008KT 9999 OVC013 M06/M09 Q1006",
      "taf": "TAF EYKA 261105Z 2612/2712 10008KT 9000 OVC015"
    },
    {
      "icao": "EYPA",
      "alert": "OK",
      "vis_m": 9999,
      "fzfg": false,
      "metar_trigger": false,
      "taf_trigger": false,
      "metar": "METAR EYPA 261150Z 09006KT 9999 OVC013 M05/M09 Q1006",
      "taf": "TAF EYPA 261105Z 2612/2712 08008KT 9000 OVC015"
    },
    {
      "icao": "EYVI",
      "alert": "OK",
      "vis_m": 9999,
      "fzfg": false,
      "metar_trigger": false,
      "taf_trigger": false,
      "metar": "METAR EYVI 261150Z 14010KT 9999 OVC008 M07/M09 Q1006 NOSIG",
      "taf": "TAF EYVI 261102Z 2612/2712 14010KT 8000 OVC005"
    },
    {
      "icao": "GCFV",
      "alert": "OK",
      "vis_m": 9999,
      "fzfg": false,
      "metar_trigger": false,
      "taf_trigger": false,
      "metar": "METAR GCFV 261130Z 06005KT 030V090 9999 FEW033 19/11 Q1025",
      "taf": "TAF GCFV 260800Z 2609/2709 09006KT 9999 FEW035 TX20/2614Z TN12/2706Z"
    },
    {
      "icao": "GCLP",
      "alert": "OK",
      "vis_m": 9999,
      "fzfg": false,
      "metar_trigger": false,
      "taf_trigger": false,
      "metar": "METAR GCLP 261130Z 11005KT 050V150 9999 FEW035 19/10 Q1026 NOSIG",
      "taf": "TAF GCLP 260800Z 2609/2709 10005KT 9999 FEW035 TX20/2614Z TN14/2706Z"
    },
    {
      "icao": "GCTS",
      "alert": "OK",
      "vis_m": 9999,
      "fzfg": false,
      "metar_trigger": false,
      "taf_trigger": false,
      "metar": "METAR GCTS 261130Z 21007KT 160V250 9999 SCT035 19/10 Q1026 NOSIG",
      "taf": "TAF GCTS 260800Z 2609/2709 24010KT 9999 SCT035 TX22/2614Z TN14/2706Z"
    },
    {
      "icao": "GMAD",
      "alert": "OK",
      "vis_m": 8000,
      "fzfg": false,
      "metar_trigger": false,
      "taf_trigger": false,
      "metar": "METAR GMAD 261130Z 05005KT 010V110 8000 NSC 16/13 Q1025 NOSIG",
      "taf": "TAF GMAD 261100Z 2612/2718 06005KT 8000 NSC"
    },
    {
      "icao": "GMMN",
      "alert": "OK",
      "vis_m": 9999,
      "fzfg": false,
      "metar_trigger": false,
      "taf_trigger": false,
      "metar": "METAR GMMN 261130Z 21011KT 190V250 9999 SCT030 17/12 Q1023 NOSIG",
      "taf": "TAF GMMN 261100Z 2612/2718 20012KT 9999 SCT030"
    },
    {
      "icao": "GMMX",
      "alert": "OK",
      "vis_m": 9999,
      "fzfg": false,
      "metar_trigger": false,
      "taf_trigger": false,
      "metar": "METAR GMMX 261130Z VRB01KT CAVOK 16/08 Q1024 NOSIG",
      "taf": "TAF GMMX 261100Z 2612/2718 24006KT 8000 NSC"
    },
    {
      "icao": "HEGN",
      "alert": "OK",
      "vis_m": 9999,
      "fzfg": false,
      "metar_trigger": false,
      "taf_trigger": false,
      "metar": "METAR HEGN 261100Z 10006KT CAVOK 25/09 Q1015 NOSIG",
      "taf": "TAF HEGN 261100Z 2612/2718 12012KT CAVOK"
    },
    {
      "icao": "HEMA",
      "alert": "OK",
      "vis_m": 9999,
      "fzfg": false,
      "metar_trigger": false,
      "taf_trigger": false,
      "metar": "METAR HEMA 261100Z 09006KT CAVOK 24/10 Q1014 NOSIG",
      "taf": "TAF HEMA 261100Z 2612/2718 13012KT CAVOK"
    },
    {
      "icao": "HESH",
      "alert": "OK",
      "vis_m": 9999,
      "fzfg": false,
      "metar_trigger": false,
      "taf_trigger": false,
      "metar": "METAR HESH 261100Z 03003KT CAVOK 25/08 Q1016 NOSIG",
      "taf": "TAF HESH 261100Z 2612/2718 18012KT CAVOK"
    },
    {
      "icao": "HESX",
      "alert": "OK",
      "vis_m": 9999,
      "fzfg": false,
      "metar_trigger": false,
      "taf_trigger": false,
      "metar": "METAR HESX 261100Z 18012KT 9999 FEW030 SCT100 19/00 Q1013 NOSIG",
      "taf": "TAF HESX 261100Z 2612/2718 18011KT 9999 FEW030 SCT100"
    },
    {
      "icao": "LATI",
      "alert": "OK",
      "vis_m": 9999,
      "fzfg": false,
      "metar_trigger": false,
      "taf_trigger": false,
      "metar": "METAR LATI 261150Z 34006KT 9999 FEW013 SCT035 BKN060 11/07 Q0999 NOSIG",
      "taf": "TAF LATI 261100Z 2612/2712 VRB05KT 9999 SCT012 BKN060 TX14/2712Z TN05/2704Z"
    },
    {
      "icao": "LBPD",
      "alert": "OK",
      "vis_m": 4900,
      "fzfg": false,
      "metar_trigger": false,
      "taf_trigger": false,
      "metar": "METAR LBPD 261130Z AUTO 28006KT 4900 -RA BR OVC004/// 06/06 Q1000 NOSIG",
      "taf": "TAF LBPD 261100Z 2612/2712 VRB04KT 5000 BR BKN004 OVC050"
    },
    {
      "icao": "LBSF",
      "alert": "OK",
      "vis_m": 9999,
      "fzfg": false,
      "metar_trigger": false,
      "taf_trigger": false,
      "metar": "METAR LBSF 261130Z 14009KT 100V160 9999 -RA OVC016 09/06 Q0999 TEMPO 5000 RA",
      "taf": "TAF LBSF 261100Z 2612/2712 14010KT 9999 SCT012 OVC025"
    },
    {
      "icao": "LBWN",
      "alert": "OK",
      "vis_m": 9999,
      "fzfg": false,
      "metar_trigger": false,
      "taf_trigger": false,
      "metar": "METAR LBWN 261130Z 11009KT 9999 BKN049 12/08 Q1005 NOSIG",
      "taf": "TAF LBWN 261100Z 2612/2712 10010KT 9999 SCT040"
    },
    {
      "icao": "LCLK",
      "alert": "OK",
      "vis_m": 9999,
      "fzfg": false,
      "metar_trigger": false,
      "taf_trigger": false,
      "metar": "METAR LCLK 261130Z 08012KT 9999 FEW020 SCT045 19/15 Q1014 NOSIG",
      "taf": "TAF LCLK 261130Z 2612/2712 10013KT 9999 FEW020"
    },
    {
      "icao": "LCPH",
      "alert": "OK",
      "vis_m": 9999,
      "fzfg": false,
      "metar_trigger": false,
      "taf_trigger": false,
      "metar": "METAR LCPH 261130Z 11018KT 090V160 9999 FEW025 SCT030 19/11 Q1012 NOSIG",
      "taf": "TAF LCPH 261130Z 2612/2712 11020KT 9999 FEW030"
    },
    {
      "icao": "LEAL",
      "alert": "OK",
      "vis_m": 9999,
      "fzfg": false,
      "metar_trigger": false,
      "taf_trigger": false,
      "metar": "METAR LEAL 261130Z 13005KT 100V160 9999 FEW030 18/09 Q1011 NOSIG",
      "taf": "TAF LEAL 261100Z 2612/2712 25012KT 9999 FEW040 TX20/2612Z TN11/2706Z"
    },
    {
      "icao": "LEBB",
      "alert": "OK",
      "vis_m": 9999,
      "fzfg": false,
      "metar_trigger": false,
      "taf_trigger": false,
      "metar": "METAR LEBB 261130Z 17007KT 120V230 9999 -RA FEW060 12/06 Q1005 NOSIG",
      "taf": "TAF LEBB 261100Z 2612/2712 20009KT 9999 FEW020 BKN035 TX18/2623Z TN05/2710Z"
    },
    {
      "icao": "LEBL",
      "alert": "OK",
      "vis_m": 9999,
      "fzfg": false,
      "metar_trigger": false,
      "taf_trigger": false,
      "metar": "METAR LEBL 261130Z 32018KT 9999 FEW025 13/05 Q1007 NOSIG",
      "taf": "TAF LEBL 261100Z 2612/2712 28010KT 9999 FEW050 TX16/2612Z TN09/2706Z"
    },
    {
      "icao": "LECH",
      "alert": "OK",
      "vis_m": 9999,
      "fzfg": false,
      "metar_trigger": false,
      "taf_trigger": false,
      "metar": "METAR LECH 261130Z AUTO VRB03KT 9999 BKN070 15/M02 Q1009",
      "taf": ""
    },
    {
      "icao": "LEMD",
      "alert": "OK",
      "vis_m": 2000,
      "fzfg": false,
      "metar_trigger": false,
      "taf_trigger": false,
      "metar": "SPECI LEMD 261141Z 17004KT 120V220 2000 -RA BR SCT005 BKN009 07/07 Q1011 TEMPO BKN005",
      "taf": "TAF LEMD 261100Z 2612/2718 23010KT 9999 SCT020 TX11/2619Z TN09/2703Z"
    },
    {
      "icao": "LEMG",
      "alert": "OK",
      "vis_m": 9999,
      "fzfg": false,
      "metar_trigger": false,
      "taf_trigger": false,
      "metar": "METAR LEMG 261130Z 31009KT 9999 SCT055 18/11 Q1016 NOSIG",
      "taf": "TAF LEMG 261100Z 2612/2712 30009KT 9999 FEW040 TX20/2614Z TN10/2707Z"
    },
    {
      "icao": "LEVC",
      "alert": "OK",
      "vis_m": 9999,
      "fzfg": false,
      "metar_trigger": false,
      "taf_trigger": false,
      "metar": "METAR LEVC 261130Z 25003KT 220V280 CAVOK 16/03 Q1010 NOSIG",
      "taf": "TAF LEVC 261100Z 2612/2712 27010KT 9999 FEW040 TX18/2612Z TN11/2706Z"
    },
    {
      "icao": "LEXJ",
      "alert": "OK",
      "vis_m": 9999,
      "fzfg": false,
      "metar_trigger": false,
      "taf_trigger": false,
      "metar": "METAR LEXJ 261130Z 21012G24KT 170V280 9999 -RA SCT065 12/05 Q1003",
      "taf": ""
    },
    {
      "icao": "LEZG",
      "alert": "OK",
      "vis_m": 9999,
      "fzfg": false,
      "metar_trigger": false,
      "taf_trigger": false,
      "metar": "METAR LEZG 261130Z 25020KT 9999 BKN070 OVC080 12/04 Q1009 NOSIG",
      "taf": "TAF LEZG 261100Z 2612/2712 25010KT 9999 FEW040 TX12/2614Z TN08/2706Z"
    },
    {
      "icao": "LEZL",
      "alert": "OK",
      "vis_m": 9999,
      "fzfg": false,
      "metar_trigger": false,
      "taf_trigger": false,
      "metar": "METAR LEZL 261130Z 26008KT 230V290 9999 FEW010 OVC020 17/14 Q1017 NOSIG",
      "taf": "TAF LEZL 260800Z 2609/2709 24010KT 9999 SCT025 TX19/2615Z TN11/2707Z"
    },
    {
      "icao": "LFBD",
      "alert": "OK",
      "vis_m": 9999,
      "fzfg": false,
      "metar_trigger": false,
      "taf_trigger": false,
      "metar": "METAR LFBD 261130Z AUTO 18010KT 9999 FEW012 BKN052 BKN062 11/09 Q1005 NOSIG",
      "taf": "TAF LFBD 261100Z 2612/2718 18010KT 9999 BKN040 TX12/2614Z TN08/2706Z"
    },
    {
      "icao": "LFLL",
      "alert": "OK",
      "vis_m": 9999,
      "fzfg": false,
      "metar_trigger": false,
      "taf_trigger": false,
      "metar": "METAR LFLL 261130Z VRB02KT 9999 FEW016 BKN053 07/03 Q1006 NOSIG",
      "taf": "TAF LFLL 261100Z 2612/2718 VRB03KT 9999 BKN045"
    },
    {
      "icao": "LFLS",
      "alert": "OK",
      "vis_m": 9999,
      "fzfg": false,
      "metar_trigger": false,
      "taf_trigger": false,
      "metar": "METAR LFLS 261130Z AUTO VRB02KT 9999 FEW020 SCT027 OVC048 06/04 Q1006 NOSIG",
      "taf": "TAF LFLS 260800Z 2609/2709 VRB02KT 9999 BKN020"
    },
    {
      "icao": "LFMN",
      "alert": "OK",
      "vis_m": 9999,
      "fzfg": false,
      "metar_trigger": false,
      "taf_trigger": false,
      "metar": "METAR LFMN 261130Z 33007KT 9999 FEW040 13/02 Q1001 BECMG 21010KT",
      "taf": "TAF LFMN 260800Z 2609/2715 33010KT CAVOK"
    },
    {
      "icao": "LFOB",
      "alert": "OK",
      "vis_m": 750,
      "fzfg": false,
      "metar_trigger": false,
      "taf_trigger": false,
      "metar": "METAR LFOB 261130Z AUTO 13004KT 0750 0700 R30/0900D R12/1000U FG VV/// 05/05 Q1002 BECMG 9999 NSW OVC012",
      "taf": "TAF LFOB 261100Z 2612/2712 16010KT 2000 BR OVC002"
    },
    {
      "icao": "LFPO",
      "alert": "OK",
      "vis_m": 8000,
      "fzfg": false,
      "metar_trigger": false,
      "taf_trigger": false,
      "metar": "METAR LFPO 261130Z 17005KT 140V200 8000 BKN006 06/05 Q1003 NOSIG",
      "taf": "TAF LFPO 261100Z 2612/2718 17005KT 9999 BKN006"
    },
    {
      "icao": "LFSB",
      "alert": "OK",
      "vis_m": 9999,
      "fzfg": false,
      "metar_trigger": false,
      "taf_trigger": false,
      "metar": "METAR LFSB 261130Z AUTO 25011KT 9999 BKN021 OVC028 07/03 Q1003 NOSIG",
      "taf": "TAF LFSB 261100Z 2612/2712 25011KT 9999 BKN020"
    },
    {
      "icao": "LGAV",
      "alert": "OK",
      "vis_m": 9999,
      "fzfg": false,
      "metar_trigger": false,
      "taf_trigger": false,
      "metar": "METAR LGAV 261120Z 30004KT 210V330 9999 FEW015 BKN025 BKN070 12/09 Q0997 RETS NOSIG",
      "taf": "TAF LGAV 261100Z 2612/2712 20012KT 9999 SCT020 BKN070"
    },
    {
      "icao": "LGTS",
      "alert": "OK",
      "vis_m": 8000,
      "fzfg": false,
      "metar_trigger": false,
      "taf_trigger": false,
      "metar": "METAR LGTS 261120Z 10007KT 8000 RA FEW010 FEW018TCU BKN025 13/13 Q0998 TEMPO 5000 RA",
      "taf": "TAF LGTS 261100Z 2612/2712 14005KT 9999 FEW008 BKN025"
    },
    {
      "icao": "LHBP",
      "alert": "OK",
      "vis_m": 7000,
      "fzfg": false,
      "metar_trigger": false,
      "taf_trigger": false,
      "metar": "METAR LHBP 261130Z 36003KT 320V060 7000 OVC006 06/04 Q1000 NOSIG",
      "taf": "TAF LHBP 261115Z 2612/2712 35005KT 8000 BKN012"
    },
    {
      "icao": "LHDC",
      "alert": "OK",
      "vis_m": 9999,
      "fzfg": false,
      "metar_trigger": false,
      "taf_trigger": false,
      "metar": "METAR LHDC 261115Z AUTO VRB03KT 9999 RA OVC039 //////TCU 07/05 Q1001 NOSIG",
      "taf": "TAF LHDC 261115Z 2612/2621 02004KT 8000 -RA SCT020 OVC040"
    },
    {
      "icao": "LIBD",
      "alert": "OK",
      "vis_m": 9999,
      "fzfg": false,
      "metar_trigger": false,
      "taf_trigger": false,
      "metar": "METAR LIBD 261120Z 34006KT 280V040 9999 FEW030 14/05 Q0999",
      "taf": "TAF LIBD 261100Z 2612/2712 34008KT 9999 SCT025"
    },
    {
      "icao": "LIBG",
      "alert": "OK",
      "vis_m": 9999,
      "fzfg": false,
      "metar_trigger": false,
      "taf_trigger": false,
      "metar": "METAR LIBG 261050Z VRB02KT CAVOK 13/09 Q0999",
      "taf": "TAF LIBG 261100Z 2612/2621 VRB06KT 9999 SCT020"
    },
    {
      "icao": "LIBP",
      "alert": "OK",
      "vis_m": 9999,
      "fzfg": false,
      "metar_trigger": false,
      "taf_trigger": false,
      "metar": "METAR LIBP 261120Z AUTO 05007KT 020V080 9999 NCD 12/06 Q1000",
      "taf": "TAF LIBP 261100Z 2612/2712 33010KT CAVOK"
    },
    {
      "icao": "LIBR",
      "alert": "OK",
      "vis_m": 9999,
      "fzfg": false,
      "metar_trigger": false,
      "taf_trigger": false,
      "metar": "METAR LIBR 261120Z 25008KT CAVOK 13/08 Q0999",
      "taf": "TAF LIBR 261100Z 2612/2712 VRB06KT 9999 SCT025"
    },
    {
      "icao": "LICA",
      "alert": "OK",
      "vis_m": 9999,
      "fzfg": false,
      "metar_trigger": false,
      "taf_trigger": false,
      "metar": "METAR LICA 261120Z AUTO 26007KT 9999 NCD 15/10 Q1000",
      "taf": "TAF LICA 261100Z 2612/2712 26012KT 9999 BKN030"
    },
    {
      "icao": "LICC",
      "alert": "OK",
      "vis_m": 9999,
      "fzfg": false,
      "metar_trigger": false,
      "taf_trigger": false,
      "metar": "METAR LICC 261120Z 24007KT 210V270 9999 FEW030 SCT050 BKN100 16/13 Q0999",
      "taf": "TAF LICC 261100Z 2612/2712 26012KT 9999 SCT030"
    },
    {
      "icao": "LICJ",
      "alert": "OK",
      "vis_m": 9999,
      "fzfg": false,
      "metar_trigger": false,
      "taf_trigger": false,
      "metar": "METAR LICJ 261120Z 20010KT 9999 -RA SCT020 SCT040 12/09 Q0999",
      "taf": "TAF LICJ 261100Z 2612/2712 22013KT 9999 BKN030"
    },
    {
      "icao": "LIMC",
      "alert": "OK",
      "vis_m": 9999,
      "fzfg": false,
      "metar_trigger": false,
      "taf_trigger": false,
      "metar": "METAR LIMC 261120Z 01003KT 300V060 9999 SCT020 08/03 Q1002 NOSIG",
      "taf": "TAF LIMC 261100Z 2612/2718 VRB04KT 9999 SCT015"
    },
    {
      "icao": "LIME",
      "alert": "OK",
      "vis_m": 9999,
      "fzfg": false,
      "metar_trigger": false,
      "taf_trigger": false,
      "metar": "METAR LIME 261120Z 27005KT 9999 FEW020 08/02 Q1001 NOSIG",
      "taf": "TAF LIME 261100Z 2612/2712 VRB05KT 7000 FEW020"
    },
    {
      "icao": "LIMF",
      "alert": "OK",
      "vis_m": 6000,
      "fzfg": false,
      "metar_trigger": false,
      "taf_trigger": false,
      "metar": "METAR LIMF 261120Z VRB02KT 6000 NSC 06/04 Q1002",
      "taf": "TAF LIMF 261100Z 2612/2712 VRB04KT 6000 SCT020"
    },
    {
      "icao": "LIMJ",
      "alert": "OK",
      "vis_m": 9999,
      "fzfg": false,
      "metar_trigger": false,
      "taf_trigger": false,
      "metar": "METAR LIMJ 261120Z 03016KT CAVOK 10/02 Q1001",
      "taf": "TAF LIMJ 261100Z 2612/2712 03010KT 9999 BKN040"
    },
    {
      "icao": "LIPE",
      "alert": "OK",
      "vis_m": 6000,
      "fzfg": false,
      "metar_trigger": false,
      "taf_trigger": false,
      "metar": "METAR LIPE 261120Z 26008KT 6000 BKN017 07/04 Q1002",
      "taf": "TAF LIPE 261100Z 2612/2712 VRB04KT 6000 SCT015"
    },
    {
      "icao": "LIPH",
      "alert": "OK",
      "vis_m": 9999,
      "fzfg": false,
      "metar_trigger": false,
      "taf_trigger": false,
      "metar": "METAR LIPH 261120Z 23006KT 210V270 9999 BKN010 08/06 Q1001",
      "taf": "TAF LIPH 261100Z 2612/2712 VRB04KT 9999 FEW025"
    },
    {
      "icao": "LIPQ",
      "alert": "OK",
      "vis_m": 9999,
      "fzfg": false,
      "metar_trigger": false,
      "taf_trigger": false,
      "metar": "METAR LIPQ 261120Z AUTO 27003KT 210V350 9999 FEW023/// 11/05 Q1001",
      "taf": "TAF LIPQ 261100Z 2612/2712 VRB04KT 9999 SCT020"
    },
    {
      "icao": "LIPR",
      "alert": "OK",
      "vis_m": 8000,
      "fzfg": false,
      "metar_trigger": false,
      "taf_trigger": false,
      "metar": "METAR LIPR 261120Z 31008KT 8000 BKN012 06/04 Q1002",
      "taf": "TAF LIPR 261100Z 2612/2712 30010KT 9999 SCT025"
    },
    {
      "icao": "LIPX",
      "alert": "OK",
      "vis_m": 9999,
      "fzfg": false,
      "metar_trigger": false,
      "taf_trigger": false,
      "metar": "METAR LIPX 261120Z 26009KT 9999 FEW015 08/04 Q1001",
      "taf": "TAF LIPX 261100Z 2612/2712 27010KT 8000 SCT020"
    },
    {
      "icao": "LIPY",
      "alert": "OK",
      "vis_m": 9999,
      "fzfg": false,
      "metar_trigger": false,
      "taf_trigger": false,
      "metar": "METAR LIPY 261120Z AUTO 32011KT 280V350 9999 OVC011/// 07/05 Q1001",
      "taf": "TAF LIPY 261100Z 2612/2712 34010KT 9999 SCT020"
    },
    {
      "icao": "LIPZ",
      "alert": "OK",
      "vis_m": 9999,
      "fzfg": false,
      "metar_trigger": false,
      "taf_trigger": false,
      "metar": "METAR LIPZ 261120Z 29004KT 260V340 9999 BKN013 08/05 Q1001 NOSIG",
      "taf": "TAF LIPZ 261100Z 2612/2718 VRB04KT 7000 FEW020"
    },
    {
      "icao": "LIRF",
      "alert": "OK",
      "vis_m": 9999,
      "fzfg": false,
      "metar_trigger": false,
      "taf_trigger": false,
      "metar": "METAR LIRF 261120Z 10007KT 9999 DZ FEW050 09/08 Q0999 NOSIG",
      "taf": "TAF LIRF 261100Z 2612/2718 36006KT 9999 SCT030"
    },
    {
      "icao": "LIRN",
      "alert": "OK",
      "vis_m": 9999,
      "fzfg": false,
      "metar_trigger": false,
      "taf_trigger": false,
      "metar": "METAR LIRN 261120Z 01005KT 9999 SCT050 11/07 Q0999 NOSIG",
      "taf": "TAF LIRN 261100Z 2612/2712 VRB05KT 9999 SCT040"
    },
    {
      "icao": "LIRP",
      "alert": "OK",
      "vis_m": 9999,
      "fzfg": false,
      "metar_trigger": false,
      "taf_trigger": false,
      "metar": "METAR LIRP 261115Z 10010KT 9999 FEW025 BKN050 09/08 Q1001 NOSIG",
      "taf": "TAF LIRP 261100Z 2612/2712 12004KT 9999 FEW020 SCT040"
    },
    {
      "icao": "LIRZ",
      "alert": "OK",
      "vis_m": 9999,
      "fzfg": false,
      "metar_trigger": false,
      "taf_trigger": false,
      "metar": "METAR LIRZ 261120Z AUTO 30005KT 9999 NCD 09/05 Q1000",
      "taf": "TAF LIRZ 261100Z 2612/2712 VRB05KT 9999 FEW040"
    },
    {
      "icao": "LJLJ",
      "alert": "OK",
      "vis_m": 3500,
      "fzfg": false,
      "metar_trigger": false,
      "taf_trigger": false,
      "metar": "METAR LJLJ 261130Z 15003KT 120V240 3500 BR BKN003 04/03 Q1000 NOSIG",
      "taf": "TAF LJLJ 261100Z 2612/2712 VRB02KT 3500 BR BKN002"
    },
    {
      "icao": "LKMT",
      "alert": "OK",
      "vis_m": 9999,
      "fzfg": false,
      "metar_trigger": false,
      "taf_trigger": false,
      "metar": "METAR LKMT 261130Z 25008KT 9999 FEW009 BKN019 05/04 Q1000 NOSIG",
      "taf": "TAF LKMT 261100Z 2612/2712 23008KT 9999 SCT008 BKN016"
    },
    {
      "icao": "LKPR",
      "alert": "OK",
      "vis_m": 9999,
      "fzfg": false,
      "metar_trigger": false,
      "taf_trigger": false,
      "metar": "METAR LKPR 261130Z 17009KT 9999 SCT016 BKN022 02/M00 Q0997 NOSIG",
      "taf": "TAF LKPR 261100Z 2612/2718 20010KT 9999 BKN017"
    },
    {
      "icao": "LLBG",
      "alert": "OK",
      "vis_m": 9999,
      "fzfg": false,
      "metar_trigger": false,
      "taf_trigger": false,
      "metar": "METAR LLBG 261120Z 20012KT CAVOK 24/01 Q1013 NOSIG",
      "taf": "TAF LLBG 261104Z 2612/2712 20008KT CAVOK"
    },
    {
      "icao": "LMML",
      "alert": "OK",
      "vis_m": 9999,
      "fzfg": false,
      "metar_trigger": false,
      "taf_trigger": false,
      "metar": "METAR LMML 261145Z 27015KT 9999 SCT026TCU 12/10 Q1000 RESHRA NOSIG",
      "taf": "TAF LMML 261100Z 2612/2712 25020G30KT 9999 SCT015"
    },
    {
      "icao": "LOWW",
      "alert": "OK",
      "vis_m": 4800,
      "fzfg": false,
      "metar_trigger": false,
      "taf_trigger": false,
      "metar": "METAR LOWW 261120Z 14005KT 4800 BR FEW002 BKN004 02/01 Q1001 TEMPO 6000 SCT003 BKN005",
      "taf": "TAF LOWW 261115Z 2612/2718 VRB04KT 9999 FEW010 TX04/2613Z TNM01/2706Z"
    },
    {
      "icao": "LPFR",
      "alert": "OK",
      "vis_m": 8000,
      "fzfg": false,
      "metar_trigger": false,
      "taf_trigger": false,
      "metar": "METAR LPFR 261130Z 25015KT 8000 FEW008 BKN038 16/15 Q1018",
      "taf": "TAF LPFR 261100Z 2612/2712 25015KT 9999 SCT012 BKN025"
    },
    {
      "icao": "LPMA",
      "alert": "OK",
      "vis_m": 9999,
      "fzfg": false,
      "metar_trigger": false,
      "taf_trigger": false,
      "metar": "METAR LPMA 261130Z 21012G23KT 160V250 9999 FEW016 SCT033 18/09 Q1022",
      "taf": "TAF LPMA 261100Z 2612/2712 22018KT 9999 SCT015"
    },
    {
      "icao": "LPPR",
      "alert": "OK",
      "vis_m": 6000,
      "fzfg": false,
      "metar_trigger": false,
      "taf_trigger": false,
      "metar": "METAR LPPR 261130Z 20015KT 180V240 6000 -RA SCT007 BKN011 14/14 Q1008",
      "taf": "TAF LPPR 261100Z 2612/2712 19015KT 9999 SCT012 BKN025"
    },
    {
      "icao": "LPPS",
      "alert": "OK",
      "vis_m": 9999,
      "fzfg": false,
      "metar_trigger": false,
      "taf_trigger": false,
      "metar": "METAR LPPS 261130Z 21006KT 170V260 9999 FEW015 BKN030 19/11 Q1022",
      "taf": "TAF LPPS 261100Z 2612/2718 VRB05KT 9999 SCT015 SCT030"
    },
    {
      "icao": "LPPT",
      "alert": "OK",
      "vis_m": 7000,
      "fzfg": false,
      "metar_trigger": false,
      "taf_trigger": false,
      "metar": "METAR LPPT 261130Z 23017KT 200V270 7000 VCSH FEW005 BKN007 15/14 Q1014",
      "taf": "TAF LPPT 261100Z 2612/2718 23017KT 9999 SCT012 BKN025"
    },
    {
      "icao": "LQBK",
      "alert": "OK",
      "vis_m": 6000,
      "fzfg": false,
      "metar_trigger": false,
      "taf_trigger": false,
      "metar": "METAR LQBK 261130Z VRB02KT 6000 SCT002 BKN010 05/05 Q1000 NOSIG",
      "taf": "TAF LQBK 261100Z 2612/2712 30005KT 6000 NSC TX06/2613Z TN02/2706Z"
    },
    {
      "icao": "LQSA",
      "alert": "OK",
      "vis_m": 9999,
      "fzfg": false,
      "metar_trigger": false,
      "taf_trigger": false,
      "metar": "METAR LQSA 261130Z VRB01KT 9999 FEW025 SCT045 07/03 Q0999 NOSIG",
      "taf": "TAF LQSA 261100Z 2612/2712 VRB02KT 9999 SCT050 TX09/2613Z TN01/2704Z"
    },
    {
      "icao": "LQTZ",
      "alert": "OK",
      "vis_m": 9999,
      "fzfg": false,
      "metar_trigger": false,
      "taf_trigger": false,
      "metar": "METAR LQTZ 261130Z VRB03KT CAVOK 11/06 Q0999",
      "taf": "TAF LQTZ 261100Z 2612/2712 28006KT 9999 SCT040 TX11/2613Z TN01/2706Z"
    },
    {
      "icao": "LRBC",
      "alert": "OK",
      "vis_m": 200,
      "fzfg": false,
      "metar_trigger": false,
      "taf_trigger": false,
      "metar": "METAR LRBC 261130Z 13004KT 0200 R16/0600N FG VV002 03/03 Q1006",
      "taf": "TAF LRBC 261100Z 2612/2621 15006KT 0150 FG VV002"
    },
    {
      "icao": "LRBS",
      "alert": "OK",
      "vis_m": 1800,
      "fzfg": false,
      "metar_trigger": false,
      "taf_trigger": false,
      "metar": "METAR LRBS 261130Z 06011KT 1800 -RA BR OVC001 05/05 Q1004 BECMG 3000 OVC005",
      "taf": "TAF LRBS 261100Z 2612/2712 06012KT 1500 BR OVC001"
    },
    {
      "icao": "LRBV",
      "alert": "OK",
      "vis_m": 9999,
      "fzfg": false,
      "metar_trigger": false,
      "taf_trigger": false,
      "metar": "METAR LRBV 261130Z VRB03KT 9999 FEW047 08/04 Q1002",
      "taf": "TAF LRBV 261100Z 2612/2621 13010KT 9999 SCT055"
    },
    {
      "icao": "LRCL",
      "alert": "OK",
      "vis_m": 9999,
      "fzfg": false,
      "metar_trigger": false,
      "taf_trigger": false,
      "metar": "METAR LRCL 261130Z 04006KT CAVOK 07/01 Q1001",
      "taf": "TAF LRCL 261100Z 2612/2621 08005KT 9999 BKN045"
    },
    {
      "icao": "LRCV",
      "alert": "OK",
      "vis_m": 300,
      "fzfg": false,
      "metar_trigger": false,
      "taf_trigger": false,
      "metar": "METAR LRCV 261130Z 09010KT 0300 R26/0400N -RA FG VV002 05/05 Q1001",
      "taf": "TAF LRCV 261100Z 2612/2621 08010KT 0250 -RA FG VV002"
    },
    {
      "icao": "LRIA",
      "alert": "OK",
      "vis_m": 100,
      "fzfg": false,
      "metar_trigger": false,
      "taf_trigger": false,
      "metar": "METAR LRIA 261130Z 10019KT 0100 R14/0350N -DZ FG VV001 03/03 Q1007",
      "taf": "TAF LRIA 261100Z 2612/2621 11016KT 0100 -DZ FG VV001"
    },
    {
      "icao": "LROP",
      "alert": "OK",
      "vis_m": 1800,
      "fzfg": false,
      "metar_trigger": false,
      "taf_trigger": false,
      "metar": "METAR LROP 261130Z 08015KT 1800 R08R/2000D R08L/1300U BR OVC001 06/06 Q1004 BECMG 3000 BR OVC005",
      "taf": "TAF LROP 261100Z 2612/2712 06012KT 1500 BR OVC001"
    },
    {
      "icao": "LRSB",
      "alert": "OK",
      "vis_m": 9999,
      "fzfg": false,
      "metar_trigger": false,
      "taf_trigger": false,
      "metar": "METAR LRSB 261130Z 16022G34KT 9999 FEW046 12/06 Q0999",
      "taf": "TAF LRSB 261100Z 2612/2712 15017KT CAVOK"
    },
    {
      "icao": "LRSM",
      "alert": "OK",
      "vis_m": 9999,
      "fzfg": false,
      "metar_trigger": false,
      "taf_trigger": false,
      "metar": "METAR LRSM 261130Z 32007KT CAVOK 06/03 Q1000",
      "taf": "TAF LRSM 261100Z 2612/2621 17010KT CAVOK"
    },
    {
      "icao": "LRSV",
      "alert": "OK",
      "vis_m": 100,
      "fzfg": false,
      "metar_trigger": false,
      "taf_trigger": false,
      "metar": "METAR LRSV 261130Z 13013KT 0100 R34/0275N FG VV001 02/02 Q1004",
      "taf": "TAF LRSV 261100Z 2612/2621 13012KT 0150 FG VV001"
    },
    {
      "icao": "LRTM",
      "alert": "OK",
      "vis_m": 9999,
      "fzfg": false,
      "metar_trigger": false,
      "taf_trigger": false,
      "metar": "METAR LRTM 261130Z VRB02KT 9999 -RA FEW015 03/01 Q1001",
      "taf": "TAF LRTM 261100Z 2612/2621 VRB04KT 9999 SCT020"
    },
    {
      "icao": "LRTR",
      "alert": "OK",
      "vis_m": 4000,
      "fzfg": false,
      "metar_trigger": false,
      "taf_trigger": false,
      "metar": "METAR LRTR 261130Z VRB02KT 4000 RA BR SCT045 08/08 Q0999 TEMPO 3000 RA BR",
      "taf": "TAF LRTR 261100Z 2612/2712 VRB04KT 9999 SCT045"
    },
    {
      "icao": "LTAC",
      "alert": "OK",
      "vis_m": 9999,
      "fzfg": false,
      "metar_trigger": false,
      "taf_trigger": false,
      "metar": "METAR LTAC 261120Z 14008KT 100V190 9999 SCT035 BKN100 10/03 Q1012 NOSIG",
      "taf": "TAF LTAC 261040Z 2612/2712 17008KT 9999 SCT035 BKN090"
    },
    {
      "icao": "LTFM",
      "alert": "OK",
      "vis_m": 9999,
      "fzfg": false,
      "metar_trigger": false,
      "taf_trigger": false,
      "metar": "METAR LTFM 261120Z 15010KT CAVOK 17/06 Q1005 NOSIG",
      "taf": "TAF LTFM 261040Z 2612/2718 12009KT CAVOK"
    },
    {
      "icao": "LUKK",
      "alert": "OK",
      "vis_m": 1100,
      "fzfg": false,
      "metar_trigger": false,
      "taf_trigger": false,
      "metar": "METAR LUKK 261130Z 12011KT 1100 0450SW R08/0550N BR PRFG OVC001 01/01 Q1010 NOSIG",
      "taf": "TAF LUKK 261126Z 2612/2712 11014KT 0500 DZ FG VV002"
    },
    {
      "icao": "LWOH",
      "alert": "OK",
      "vis_m": 9999,
      "fzfg": false,
      "metar_trigger": false,
      "taf_trigger": false,
      "metar": "METAR LWOH 261150Z VRB01KT 9999 FEW015 BKN035 09/05 Q0997",
      "taf": "TAF LWOH 261130Z 2612/2712 VRB02KT 9999 SCT020 OVC050"
    },
    {
      "icao": "LWSK",
      "alert": "OK",
      "vis_m": 5000,
      "fzfg": false,
      "metar_trigger": false,
      "taf_trigger": false,
      "metar": "METAR LWSK 261150Z 27003KT 210V320 5000 RA BKN011 BKN031 OVC080 10/09 Q0997 NOSIG",
      "taf": "TAF LWSK 261130Z 2612/2712 VRB02KT 5000 RA SCT010 BKN033 OVC070"
    },
    {
      "icao": "LYBE",
      "alert": "OK",
      "vis_m": 9999,
      "fzfg": false,
      "metar_trigger": false,
      "taf_trigger": false,
      "metar": "METAR LYBE 261130Z 11006KT CAVOK 08/04 Q0999 NOSIG",
      "taf": "TAF LYBE 261100Z 2612/2712 14010KT 9999 SCT040 TX10/2712Z TN03/2706Z"
    },
    {
      "icao": "LYNI",
      "alert": "OK",
      "vis_m": 9999,
      "fzfg": false,
      "metar_trigger": false,
      "taf_trigger": false,
      "metar": "METAR LYNI 261130Z 12001KT 9999 -RA SCT050 OVC070 11/06 Q0998 TEMPO 05013KT RA",
      "taf": "TAF LYNI 261100Z 2612/2712 05013KT 9999 SCT020 BKN050 TX11/2612Z TN03/2706Z"
    },
    {
      "icao": "LYPG",
      "alert": "OK",
      "vis_m": 9999,
      "fzfg": false,
      "metar_trigger": false,
      "taf_trigger": false,
      "metar": "METAR LYPG 261130Z 30004KT 260V350 9999 FEW013 SCT040 BKN080 11/07 Q0999 NOSIG",
      "taf": "TAF LYPG 261100Z 2612/2712 34006KT 9999 FEW013 SCT040 BKN080 TX11/2613Z TN04/2704Z"
    },
    {
      "icao": "LZIB",
      "alert": "OK",
      "vis_m": 9999,
      "fzfg": false,
      "metar_trigger": false,
      "taf_trigger": false,
      "metar": "METAR LZIB 261130Z VRB02KT 9999 FEW009 06/03 Q1001 NOSIG",
      "taf": "TAF LZIB 261115Z 2612/2712 VRB02KT 9999 FEW013"
    },
    {
      "icao": "LZKZ",
      "alert": "OK",
      "vis_m": 9999,
      "fzfg": false,
      "metar_trigger": false,
      "taf_trigger": false,
      "metar": "METAR LZKZ 261130Z 02002KT 9999 -RA SCT045 05/05 Q1000 NOSIG",
      "taf": "TAF LZKZ 261115Z 2612/2712 27005KT 9999 FEW015 BKN030"
    },
    {
      "icao": "LZTT",
      "alert": "OK",
      "vis_m": 5000,
      "fzfg": false,
      "metar_trigger": false,
      "taf_trigger": false,
      "metar": "METAR LZTT 261130Z VRB02KT 5000 -RA BR BKN004 OVC023 03/03 Q0999 BECMG FEW004",
      "taf": "TAF LZTT 261115Z 2612/2712 16005KT 9999 FEW008 BKN035"
    },
    {
      "icao": "OEJN",
      "alert": "OK",
      "vis_m": 8000,
      "fzfg": false,
      "metar_trigger": false,
      "taf_trigger": false,
      "metar": "METAR OEJN 261100Z VRB03KT 8000 NSC 33/08 Q1011 NOSIG",
      "taf": "TAF OEJN 261100Z 2612/2718 27010KT 7000 NSC"
    },
    {
      "icao": "OEMA",
      "alert": "OK",
      "vis_m": 9999,
      "fzfg": false,
      "metar_trigger": false,
      "taf_trigger": false,
      "metar": "METAR OEMA 261100Z 08006KT CAVOK 21/M01 Q1020 NOSIG",
      "taf": "TAF OEMA 261100Z 2612/2718 09012KT 7000 NSC"
    },
    {
      "icao": "OJAI",
      "alert": "OK",
      "vis_m": 4500,
      "fzfg": false,
      "metar_trigger": false,
      "taf_trigger": false,
      "metar": "METAR OJAI 261100Z 16015KT 4500 BLDU NSC 17/01 Q1018 NOSIG",
      "taf": "TAF OJAI 261034Z 2612/2718 13008KT 5000 HZ NSC"
    },
    {
      "icao": "OMAA",
      "alert": "OK",
      "vis_m": 9999,
      "fzfg": false,
      "metar_trigger": false,
      "taf_trigger": false,
      "metar": "METAR OMAA 261130Z 31016KT 9999 SCT035 22/12 Q1015 NOSIG",
      "taf": "TAF OMAA 261100Z 2612/2718 33014KT 8000 SCT040"
    },
    {
      "icao": "OMDB",
      "alert": "OK",
      "vis_m": 9999,
      "fzfg": false,
      "metar_trigger": false,
      "taf_trigger": false,
      "metar": "METAR OMDB 261130Z 27012KT 180V300 9999 SCT030 23/14 Q1015 NOSIG",
      "taf": "TAF OMDB 261100Z 2612/2718 31013KT 8000 SCT035"
    },
    {
      "icao": "UAAA",
      "alert": "OK",
      "vis_m": 9999,
      "fzfg": false,
      "metar_trigger": false,
      "taf_trigger": false,
      "metar": "METAR UAAA 261130Z 01002MPS 310V060 9999 SCT200 01/M06 Q1021 NOSIG",
      "taf": "TAF UAAA 261102Z 2612/2712 23003MPS 3100 BR FU SCT050 BKN100 TX03/2708Z TNM11/2702Z"
    },
    {
      "icao": "UBBB",
      "alert": "OK",
      "vis_m": 9999,
      "fzfg": false,
      "metar_trigger": false,
      "taf_trigger": false,
      "metar": "METAR UBBB 261130Z 31022G32KT 9999 BKN009 OVC026 06/04 Q1021 NOSIG",
      "taf": "TAF UBBB 261055Z 2612/2712 34016KT 9999 SCT012 BKN030 TX07/2612Z TN02/2701Z"
    },
    {
      "icao": "UDSG",
      "alert": "OK",
      "vis_m": 4700,
      "fzfg": false,
      "metar_trigger": false,
      "taf_trigger": false,
      "metar": "METAR UDSG 261130Z 24001KT 4700 BR FEW036 M06/M06 Q1021 NOSIG",
      "taf": "TAF UDSG 261058Z 2612/2712 VRB06KT 3000 BR BKN030"
    },
    {
      "icao": "UDYZ",
      "alert": "OK",
      "vis_m": 2800,
      "fzfg": false,
      "metar_trigger": false,
      "taf_trigger": false,
      "metar": "METAR UDYZ 261130Z 21002KT 2800 BR BKN008 M04/M06 Q1025 NOSIG",
      "taf": "TAF UDYZ 261100Z 2612/2712 VRB04KT 2300 BR BKN005"
    },
    {
      "icao": "UGKO",
      "alert": "OK",
      "vis_m": 9999,
      "fzfg": false,
      "metar_trigger": false,
      "taf_trigger": false,
      "metar": "METAR UGKO 261130Z 11009KT CAVOK 16/05 Q1016 NOSIG",
      "taf": "TAF UGKO 261100Z 2612/2712 08020KT CAVOK TX16/2612Z TN07/2618Z"
    }
  ]
}