{
  "ts_utc": "2026-05-01T21:33:37Z",
  "threshold_m": 150,
  "source": "stations_override.txt (ICAO list) + aviationweather.gov (METAR/TAF raw)",
  "station_count": 159,
  "stations": [
    {
      "icao": "BIKF",
      "alert": "OK",
      "vis_m": 9999,
      "fzfg": false,
      "metar_trigger": false,
      "taf_trigger": false,
      "metar": "METAR BIKF 012130Z 33008KT CAVOK 01/M06 Q1021",
      "taf": "TAF BIKF 011916Z 0121/0221 32012KT 9999 SCT030 TX08/0215Z TNM02/0204Z"
    },
    {
      "icao": "BKPR",
      "alert": "OK",
      "vis_m": 9999,
      "fzfg": false,
      "metar_trigger": false,
      "taf_trigger": false,
      "metar": "METAR BKPR 012130Z VRB01KT 9999 BKN050 06/01 Q1024 NOSIG",
      "taf": "TAF BKPR 011730Z 0118/0218 01008KT 9999 FEW040 SCT080"
    },
    {
      "icao": "EBCI",
      "alert": "OK",
      "vis_m": 9999,
      "fzfg": false,
      "metar_trigger": false,
      "taf_trigger": false,
      "metar": "METAR EBCI 012120Z 15003KT CAVOK 17/02 Q1021 NOSIG",
      "taf": "TAF EBCI 011710Z 0118/0224 15006KT CAVOK"
    },
    {
      "icao": "EDDB",
      "alert": "OK",
      "vis_m": 9999,
      "fzfg": false,
      "metar_trigger": false,
      "taf_trigger": false,
      "metar": "METAR EDDB 012120Z AUTO VRB02KT CAVOK 11/06 Q1025 NOSIG",
      "taf": "TAF EDDB 011700Z 0118/0218 VRB03KT CAVOK"
    },
    {
      "icao": "EDDH",
      "alert": "OK",
      "vis_m": 9999,
      "fzfg": false,
      "metar_trigger": false,
      "taf_trigger": false,
      "metar": "METAR EDDH 012120Z AUTO 13006KT CAVOK 15/06 Q1023 NOSIG",
      "taf": "TAF EDDH 011700Z 0118/0224 14007KT CAVOK"
    },
    {
      "icao": "EDDK",
      "alert": "OK",
      "vis_m": 9999,
      "fzfg": false,
      "metar_trigger": false,
      "taf_trigger": false,
      "metar": "METAR EDDK 012120Z AUTO 08003KT CAVOK 14/04 Q1022 NOSIG",
      "taf": "TAF EDDK 011700Z 0118/0224 12005KT CAVOK"
    },
    {
      "icao": "EDDN",
      "alert": "OK",
      "vis_m": 9999,
      "fzfg": false,
      "metar_trigger": false,
      "taf_trigger": false,
      "metar": "METAR EDDN 012120Z AUTO 11005KT CAVOK 13/04 Q1025",
      "taf": "TAF EDDN 011700Z 0118/0218 10004KT CAVOK"
    },
    {
      "icao": "EDDS",
      "alert": "OK",
      "vis_m": 9999,
      "fzfg": false,
      "metar_trigger": false,
      "taf_trigger": false,
      "metar": "METAR EDDS 012120Z AUTO VRB01KT CAVOK 10/03 Q1023",
      "taf": "TAF EDDS 011700Z 0118/0218 09008KT CAVOK"
    },
    {
      "icao": "EDFH",
      "alert": "OK",
      "vis_m": 9999,
      "fzfg": false,
      "metar_trigger": false,
      "taf_trigger": false,
      "metar": "METAR EDFH 012120Z 13006KT CAVOK 16/01 Q1023",
      "taf": "TAF EDFH 011700Z 0118/0218 14009KT CAVOK"
    },
    {
      "icao": "EDJA",
      "alert": "OK",
      "vis_m": 9999,
      "fzfg": false,
      "metar_trigger": false,
      "taf_trigger": false,
      "metar": "METAR EDJA 012120Z AUTO 06006KT 9999 // NCD 10/02 Q1024",
      "taf": "TAF EDJA 011700Z 0118/0203 06008KT CAVOK"
    },
    {
      "icao": "EDLW",
      "alert": "OK",
      "vis_m": 9999,
      "fzfg": false,
      "metar_trigger": false,
      "taf_trigger": false,
      "metar": "METAR EDLW 012120Z AUTO 17004KT 9999 // NCD 16/03 Q1022",
      "taf": "TAF EDLW 011700Z 0118/0218 15007KT CAVOK"
    },
    {
      "icao": "EDNY",
      "alert": "OK",
      "vis_m": 9999,
      "fzfg": false,
      "metar_trigger": false,
      "taf_trigger": false,
      "metar": "METAR EDNY 012120Z AUTO 05005KT 9999 // NCD 12/03 Q1023",
      "taf": "TAF EDNY 011700Z 0118/0203 04004KT CAVOK"
    },
    {
      "icao": "EDSB",
      "alert": "OK",
      "vis_m": 9999,
      "fzfg": false,
      "metar_trigger": false,
      "taf_trigger": false,
      "metar": "METAR EDSB 012120Z VRB02KT CAVOK 14/04 Q1022",
      "taf": "TAF EDSB 011700Z 0118/0218 02006KT CAVOK"
    },
    {
      "icao": "EETN",
      "alert": "OK",
      "vis_m": 9999,
      "fzfg": false,
      "metar_trigger": false,
      "taf_trigger": false,
      "metar": "METAR EETN 012120Z 21005KT CAVOK 11/04 Q1015 NOSIG",
      "taf": "TAF EETN 011730Z 0118/0218 27012KT CAVOK"
    },
    {
      "icao": "EFTU",
      "alert": "OK",
      "vis_m": 9999,
      "fzfg": false,
      "metar_trigger": false,
      "taf_trigger": false,
      "metar": "METAR EFTU 012120Z AUTO 16004KT 130V190 CAVOK 07/04 Q1014",
      "taf": "TAF EFTU 012023Z 0121/0221 17004KT CAVOK"
    },
    {
      "icao": "EGBB",
      "alert": "OK",
      "vis_m": 9999,
      "fzfg": false,
      "metar_trigger": false,
      "taf_trigger": false,
      "metar": "METAR EGBB 012120Z 28003KT 260V320 9999 SCT017 13/10 Q1019",
      "taf": "TAF EGBB 011712Z 0118/0218 26008KT 9999 FEW040"
    },
    {
      "icao": "EGGP",
      "alert": "OK",
      "vis_m": 9999,
      "fzfg": false,
      "metar_trigger": false,
      "taf_trigger": false,
      "metar": "METAR EGGP 012120Z 09001KT CAVOK 11/09 Q1019",
      "taf": "TAF EGGP 011657Z 0118/0218 VRB04KT 9999 SCT040"
    },
    {
      "icao": "EGGW",
      "alert": "OK",
      "vis_m": 9999,
      "fzfg": false,
      "metar_trigger": false,
      "taf_trigger": false,
      "metar": "METAR EGGW 012120Z AUTO 21006KT 170V230 9999 NCD 15/11 Q1019",
      "taf": "TAF EGGW 011657Z 0118/0218 21008KT 9999 FEW045"
    },
    {
      "icao": "EGKK",
      "alert": "OK",
      "vis_m": 9999,
      "fzfg": false,
      "metar_trigger": false,
      "taf_trigger": false,
      "metar": "METAR EGKK 012120Z 22004KT CAVOK 14/11 Q1020",
      "taf": "TAF EGKK 011656Z 0118/0224 22010KT CAVOK"
    },
    {
      "icao": "EGNM",
      "alert": "OK",
      "vis_m": 9999,
      "fzfg": false,
      "metar_trigger": false,
      "taf_trigger": false,
      "metar": "METAR EGNM 012120Z 27013KT CAVOK 12/09 Q1017",
      "taf": "TAF EGNM 011656Z 0118/0218 26010KT 9999 SCT045"
    },
    {
      "icao": "EGPD",
      "alert": "OK",
      "vis_m": 9999,
      "fzfg": false,
      "metar_trigger": false,
      "taf_trigger": false,
      "metar": "METAR EGPD 012120Z COR AUTO 18004KT 140V230 9999 -RA NCD 12/10 Q1014 NOSIG",
      "taf": "TAF EGPD 011700Z 0118/0218 21010KT CAVOK"
    },
    {
      "icao": "EGPF",
      "alert": "OK",
      "vis_m": 9999,
      "fzfg": false,
      "metar_trigger": false,
      "taf_trigger": false,
      "metar": "METAR EGPF 012120Z AUTO VRB01KT 9999 NCD 11/09 Q1017",
      "taf": "TAF EGPF 011654Z 0118/0218 20005KT 9999 BKN030"
    },
    {
      "icao": "EHBK",
      "alert": "OK",
      "vis_m": 9999,
      "fzfg": false,
      "metar_trigger": false,
      "taf_trigger": false,
      "metar": "METAR EHBK 012125Z AUTO 15005KT 9999 NCD 17/02 Q1021",
      "taf": "TAF EHBK 011718Z 0118/0224 17006KT CAVOK"
    },
    {
      "icao": "EHEH",
      "alert": "OK",
      "vis_m": 9999,
      "fzfg": false,
      "metar_trigger": false,
      "taf_trigger": false,
      "metar": "METAR EHEH 012125Z AUTO 14006KT 120V180 9999 NCD 16/03 Q1020 BLU",
      "taf": "TAF EHEH 011703Z 0118/0224 13009KT CAVOK"
    },
    {
      "icao": "EKBI",
      "alert": "OK",
      "vis_m": 9999,
      "fzfg": false,
      "metar_trigger": false,
      "taf_trigger": false,
      "metar": "METAR EKBI 012120Z AUTO 12003KT 9999 NCD 10/05 Q1022",
      "taf": "TAF EKBI 012027Z 0121/0221 17008KT CAVOK"
    },
    {
      "icao": "EKCH",
      "alert": "OK",
      "vis_m": 9999,
      "fzfg": false,
      "metar_trigger": false,
      "taf_trigger": false,
      "metar": "METAR EKCH 012120Z AUTO VRB03KT 9999 NCD 10/05 Q1024 NOSIG",
      "taf": "TAF EKCH 012027Z 0121/0221 VRB04KT CAVOK"
    },
    {
      "icao": "ENAL",
      "alert": "OK",
      "vis_m": 9999,
      "fzfg": false,
      "metar_trigger": false,
      "taf_trigger": false,
      "metar": "METAR ENAL 012120Z 25017KT 9999 -RA OVC059 11/04 Q1012",
      "taf": "TAF ENAL 012000Z 0121/0206 24015KT 9999 FEW015"
    },
    {
      "icao": "ENBR",
      "alert": "OK",
      "vis_m": 9999,
      "fzfg": false,
      "metar_trigger": false,
      "taf_trigger": false,
      "metar": "METAR ENBR 012120Z 16011KT CAVOK 09/05 Q1017 RMK WIND 1200FT 16021KT",
      "taf": "TAF ENBR 011700Z 0118/0218 16015KT CAVOK"
    },
    {
      "icao": "ENGM",
      "alert": "OK",
      "vis_m": 9999,
      "fzfg": false,
      "metar_trigger": false,
      "taf_trigger": false,
      "metar": "METAR ENGM 012120Z 21008KT CAVOK 10/03 Q1016",
      "taf": "TAF ENGM 011700Z 0118/0218 20012KT CAVOK"
    },
    {
      "icao": "ENHD",
      "alert": "OK",
      "vis_m": 9999,
      "fzfg": false,
      "metar_trigger": false,
      "taf_trigger": false,
      "metar": "METAR ENHD 012120Z AUTO 17014KT 9999 NCD 09/06 Q1018",
      "taf": "TAF ENHD 011400Z 0115/0122 17015KT CAVOK"
    },
    {
      "icao": "ENTC",
      "alert": "OK",
      "vis_m": 9999,
      "fzfg": false,
      "metar_trigger": false,
      "taf_trigger": false,
      "metar": "METAR ENTC 012120Z 19014KT 9999 -RA BKN016 04/02 Q1001 RMK WIND 2600FT 19019KT",
      "taf": ""
    },
    {
      "icao": "ENTO",
      "alert": "OK",
      "vis_m": 9999,
      "fzfg": false,
      "metar_trigger": false,
      "taf_trigger": false,
      "metar": "METAR ENTO 012120Z AUTO 21010KT 9999 NCD 12/03 Q1018",
      "taf": "TAF ENTO 011700Z 0118/0218 21012KT CAVOK"
    },
    {
      "icao": "ENVA",
      "alert": "OK",
      "vis_m": 9999,
      "fzfg": false,
      "metar_trigger": false,
      "taf_trigger": false,
      "metar": "METAR ENVA 012120Z 25003KT CAVOK 10/05 Q1012 RMK WIND 670FT 30006KT",
      "taf": "TAF ENVA 011700Z 0118/0218 VRB05KT CAVOK"
    },
    {
      "icao": "ENZV",
      "alert": "OK",
      "vis_m": 9999,
      "fzfg": false,
      "metar_trigger": false,
      "taf_trigger": false,
      "metar": "METAR ENZV 012120Z 19007KT CAVOK 09/02 Q1019",
      "taf": "TAF ENZV 011700Z 0118/0218 18018KT CAVOK"
    },
    {
      "icao": "EPGD",
      "alert": "OK",
      "vis_m": 9999,
      "fzfg": false,
      "metar_trigger": false,
      "taf_trigger": false,
      "metar": "METAR EPGD 012130Z 24005KT CAVOK 13/M01 Q1024",
      "taf": "TAF EPGD 011730Z 0118/0218 11005KT CAVOK"
    },
    {
      "icao": "EPKK",
      "alert": "OK",
      "vis_m": 9999,
      "fzfg": false,
      "metar_trigger": false,
      "taf_trigger": false,
      "metar": "METAR EPKK 012130Z VRB02KT CAVOK 10/04 Q1024",
      "taf": "TAF EPKK 012030Z 0121/0221 03005KT CAVOK"
    },
    {
      "icao": "EPKT",
      "alert": "OK",
      "vis_m": 9999,
      "fzfg": false,
      "metar_trigger": false,
      "taf_trigger": false,
      "metar": "METAR EPKT 012130Z 30001KT CAVOK 05/01 Q1025",
      "taf": "TAF EPKT 011730Z 0118/0218 36010KT CAVOK"
    },
    {
      "icao": "EPLB",
      "alert": "OK",
      "vis_m": 9999,
      "fzfg": false,
      "metar_trigger": false,
      "taf_trigger": false,
      "metar": "METAR EPLB 012130Z 08001KT CAVOK 05/03 Q1025",
      "taf": "TAF EPLB 011730Z 0118/0218 VRB02KT CAVOK"
    },
    {
      "icao": "EPMO",
      "alert": "OK",
      "vis_m": 9999,
      "fzfg": false,
      "metar_trigger": false,
      "taf_trigger": false,
      "metar": "METAR EPMO 012130Z VRB01KT CAVOK 09/03 Q1025",
      "taf": "TAF EPMO 011730Z 0118/0218 02010KT CAVOK"
    },
    {
      "icao": "EPPO",
      "alert": "OK",
      "vis_m": 9999,
      "fzfg": false,
      "metar_trigger": false,
      "taf_trigger": false,
      "metar": "METAR EPPO 012130Z 36005KT CAVOK 12/05 Q1025",
      "taf": "TAF EPPO 011730Z 0118/0218 03005KT CAVOK"
    },
    {
      "icao": "EPRA",
      "alert": "OK",
      "vis_m": 9999,
      "fzfg": false,
      "metar_trigger": false,
      "taf_trigger": false,
      "metar": "METAR EPRA 012130Z 15005KT CAVOK 11/03 Q1025",
      "taf": "TAF EPRA 012030Z 0121/0206 VRB02KT CAVOK"
    },
    {
      "icao": "EPRZ",
      "alert": "OK",
      "vis_m": 9999,
      "fzfg": false,
      "metar_trigger": false,
      "taf_trigger": false,
      "metar": "METAR EPRZ 012130Z 06003KT CAVOK 09/04 Q1025",
      "taf": "TAF EPRZ 011730Z 0118/0218 34010KT CAVOK"
    },
    {
      "icao": "EPSC",
      "alert": "OK",
      "vis_m": 9999,
      "fzfg": false,
      "metar_trigger": false,
      "taf_trigger": false,
      "metar": "METAR EPSC 012130Z 10002KT CAVOK 07/01 Q1025",
      "taf": "TAF EPSC 011730Z 0118/0218 30010KT CAVOK"
    },
    {
      "icao": "EPSY",
      "alert": "OK",
      "vis_m": 9999,
      "fzfg": false,
      "metar_trigger": false,
      "taf_trigger": false,
      "metar": "METAR EPSY 012130Z VRB01KT CAVOK 06/03 Q1024",
      "taf": "TAF EPSY 012030Z 0121/0206 VRB02KT CAVOK"
    },
    {
      "icao": "EPWA",
      "alert": "OK",
      "vis_m": 9999,
      "fzfg": false,
      "metar_trigger": false,
      "taf_trigger": false,
      "metar": "METAR EPWA 012130Z 15003KT CAVOK 09/03 Q1025 NOSIG",
      "taf": "TAF EPWA 012030Z 0121/0221 VRB03KT CAVOK"
    },
    {
      "icao": "EPWR",
      "alert": "OK",
      "vis_m": 9999,
      "fzfg": false,
      "metar_trigger": false,
      "taf_trigger": false,
      "metar": "METAR EPWR 012130Z VRB01KT CAVOK 09/05 Q1025",
      "taf": "TAF EPWR 012030Z 0121/0221 VRB02KT CAVOK"
    },
    {
      "icao": "ESGG",
      "alert": "OK",
      "vis_m": 9999,
      "fzfg": false,
      "metar_trigger": false,
      "taf_trigger": false,
      "metar": "METAR ESGG 012120Z 19008KT CAVOK 10/02 Q1022",
      "taf": "TAF ESGG 012030Z 0121/0221 16005KT CAVOK"
    },
    {
      "icao": "ESKN",
      "alert": "OK",
      "vis_m": 9999,
      "fzfg": false,
      "metar_trigger": false,
      "taf_trigger": false,
      "metar": "METAR ESKN 012120Z 26010KT CAVOK 13/01 Q1019",
      "taf": "TAF ESKN 012030Z 0121/0221 27010KT CAVOK"
    },
    {
      "icao": "ESMS",
      "alert": "OK",
      "vis_m": 9999,
      "fzfg": false,
      "metar_trigger": false,
      "taf_trigger": false,
      "metar": "METAR ESMS 012120Z 21006KT CAVOK 09/04 Q1024",
      "taf": "TAF ESMS 012027Z 0121/0221 19010KT CAVOK"
    },
    {
      "icao": "ESSA",
      "alert": "OK",
      "vis_m": 9999,
      "fzfg": false,
      "metar_trigger": false,
      "taf_trigger": false,
      "metar": "METAR ESSA 012120Z 25015KT CAVOK 14/01 Q1016 NOSIG",
      "taf": "TAF ESSA 012030Z 0121/0221 24010KT CAVOK"
    },
    {
      "icao": "EYKA",
      "alert": "OK",
      "vis_m": 9999,
      "fzfg": false,
      "metar_trigger": false,
      "taf_trigger": false,
      "metar": "METAR EYKA 012120Z 26005KT CAVOK 10/04 Q1022",
      "taf": "TAF EYKA 011700Z 0118/0218 VRB02KT 9000 NSC"
    },
    {
      "icao": "EYPA",
      "alert": "OK",
      "vis_m": 9999,
      "fzfg": false,
      "metar_trigger": false,
      "taf_trigger": false,
      "metar": "METAR EYPA 012120Z 19006KT CAVOK 05/04 Q1022",
      "taf": "TAF EYPA 011700Z 0118/0218 VRB04KT 9000 NSC"
    },
    {
      "icao": "EYVI",
      "alert": "OK",
      "vis_m": 9999,
      "fzfg": false,
      "metar_trigger": false,
      "taf_trigger": false,
      "metar": "METAR EYVI 012120Z 19006KT CAVOK 07/03 Q1022 NOSIG",
      "taf": ""
    },
    {
      "icao": "GCFV",
      "alert": "OK",
      "vis_m": 9999,
      "fzfg": false,
      "metar_trigger": false,
      "taf_trigger": false,
      "metar": "METAR GCFV 012100Z 03008KT CAVOK 19/14 Q1020",
      "taf": "TAF GCFV 012000Z 0121/0221 04010KT 9999 FEW020 TX22/0214Z TN16/0206Z"
    },
    {
      "icao": "GCLP",
      "alert": "OK",
      "vis_m": 9999,
      "fzfg": false,
      "metar_trigger": false,
      "taf_trigger": false,
      "metar": "METAR GCLP 012100Z 02008KT 350V050 9999 FEW030 20/14 Q1019 NOSIG",
      "taf": "TAF GCLP 012000Z 0121/0221 36011KT 9999 FEW030 TX23/0214Z TN16/0206Z"
    },
    {
      "icao": "GCTS",
      "alert": "OK",
      "vis_m": 9999,
      "fzfg": false,
      "metar_trigger": false,
      "taf_trigger": false,
      "metar": "METAR GCTS 012100Z 27003KT 240V010 9999 SCT027 20/16 Q1019 NOSIG",
      "taf": "TAF GCTS 012000Z 0121/0221 04007KT 9999 FEW030 TX24/0214Z TN15/0206Z"
    },
    {
      "icao": "GMAD",
      "alert": "OK",
      "vis_m": 9999,
      "fzfg": false,
      "metar_trigger": false,
      "taf_trigger": false,
      "metar": "METAR GMAD 012130Z 18007KT CAVOK 17/13 Q1018 NOSIG",
      "taf": "TAF GMAD 011700Z 0118/0224 26008KT CAVOK"
    },
    {
      "icao": "GMMN",
      "alert": "OK",
      "vis_m": 9999,
      "fzfg": false,
      "metar_trigger": false,
      "taf_trigger": false,
      "metar": "METAR GMMN 012130Z 04005KT CAVOK 16/12 Q1020 NOSIG",
      "taf": "TAF GMMN 011700Z 0118/0224 02012KT CAVOK"
    },
    {
      "icao": "GMMX",
      "alert": "OK",
      "vis_m": 9999,
      "fzfg": false,
      "metar_trigger": false,
      "taf_trigger": false,
      "metar": "METAR GMMX 012130Z 29003KT 220V030 CAVOK 20/12 Q1019 NOSIG",
      "taf": "TAF GMMX 011700Z 0118/0224 02006KT 8000 SCT026"
    },
    {
      "icao": "HEGN",
      "alert": "OK",
      "vis_m": 9999,
      "fzfg": false,
      "metar_trigger": false,
      "taf_trigger": false,
      "metar": "METAR HEGN 012100Z 30010KT CAVOK 26/M06 Q1011 NOSIG",
      "taf": "TAF HEGN 011700Z 0118/0224 32014KT CAVOK"
    },
    {
      "icao": "HEMA",
      "alert": "OK",
      "vis_m": 9999,
      "fzfg": false,
      "metar_trigger": false,
      "taf_trigger": false,
      "metar": "METAR HEMA 012100Z 26007KT CAVOK 22/M00 Q1011 NOSIG",
      "taf": "TAF HEMA 011700Z 0118/0224 33013KT CAVOK"
    },
    {
      "icao": "HESH",
      "alert": "OK",
      "vis_m": 9999,
      "fzfg": false,
      "metar_trigger": false,
      "taf_trigger": false,
      "metar": "METAR HESH 012100Z 34008KT CAVOK 26/09 Q1010 NOSIG",
      "taf": "TAF HESH 011700Z 0118/0224 36013KT CAVOK"
    },
    {
      "icao": "HESX",
      "alert": "OK",
      "vis_m": 9999,
      "fzfg": false,
      "metar_trigger": false,
      "taf_trigger": false,
      "metar": "METAR HESX 012100Z 07009KT CAVOK 20/14 Q1012 NOSIG",
      "taf": "TAF HESX 011701Z 0118/0224 02010KT CAVOK"
    },
    {
      "icao": "LATI",
      "alert": "OK",
      "vis_m": 9999,
      "fzfg": false,
      "metar_trigger": false,
      "taf_trigger": false,
      "metar": "METAR LATI 012120Z 05010KT 320V090 CAVOK 14/M04 Q1020 NOSIG",
      "taf": ""
    },
    {
      "icao": "LBPD",
      "alert": "OK",
      "vis_m": 9999,
      "fzfg": false,
      "metar_trigger": false,
      "taf_trigger": false,
      "metar": "METAR LBPD 012130Z AUTO 25005KT 9999 OVC095/// 07/03 Q1025",
      "taf": "TAF LBPD 011700Z 0118/0218 VRB03KT 9999 BKN060"
    },
    {
      "icao": "LBSF",
      "alert": "OK",
      "vis_m": 9999,
      "fzfg": false,
      "metar_trigger": false,
      "taf_trigger": false,
      "metar": "METAR LBSF 012130Z AUTO 02001KT 9999 NSC 01/M00 Q1024 NOSIG",
      "taf": "TAF LBSF 011700Z 0118/0218 03010KT 9999 BKN060"
    },
    {
      "icao": "LBWN",
      "alert": "OK",
      "vis_m": 9999,
      "fzfg": false,
      "metar_trigger": false,
      "taf_trigger": false,
      "metar": "METAR LBWN 012130Z AUTO VRB02KT 9999 NSC 03/01 Q1024 NOSIG",
      "taf": "TAF LBWN 011700Z 0118/0218 VRB04KT 9999 SCT030 BKN045"
    },
    {
      "icao": "LCLK",
      "alert": "OK",
      "vis_m": 9999,
      "fzfg": false,
      "metar_trigger": false,
      "taf_trigger": false,
      "metar": "METAR LCLK 012130Z VRB01KT CAVOK 17/14 Q1011 NOSIG",
      "taf": "TAF LCLK 011730Z 0118/0218 26006KT 9999 FEW020"
    },
    {
      "icao": "LCPH",
      "alert": "OK",
      "vis_m": 9999,
      "fzfg": false,
      "metar_trigger": false,
      "taf_trigger": false,
      "metar": "METAR LCPH 012130Z 02007KT CAVOK 16/12 Q1012 NOSIG",
      "taf": "TAF LCPH 011730Z 0118/0218 33010KT 9999 FEW020"
    },
    {
      "icao": "LEAL",
      "alert": "OK",
      "vis_m": 9999,
      "fzfg": false,
      "metar_trigger": false,
      "taf_trigger": false,
      "metar": "METAR LEAL 012100Z 08008KT 9999 BKN025 19/16 Q1022 NOSIG",
      "taf": "TAF LEAL 011700Z 0118/0218 09008KT 9999 SCT025 TX22/0213Z TN15/0206Z"
    },
    {
      "icao": "LEBB",
      "alert": "OK",
      "vis_m": 9999,
      "fzfg": false,
      "metar_trigger": false,
      "taf_trigger": false,
      "metar": "METAR LEBB 012100Z 16005KT 100V230 CAVOK 20/16 Q1017 NOSIG",
      "taf": ""
    },
    {
      "icao": "LEBL",
      "alert": "OK",
      "vis_m": 8000,
      "fzfg": false,
      "metar_trigger": false,
      "taf_trigger": false,
      "metar": "METAR LEBL 012100Z 07009KT 8000 SCT035 18/16 Q1024 NOSIG",
      "taf": ""
    },
    {
      "icao": "LECH",
      "alert": "OK",
      "vis_m": 7000,
      "fzfg": false,
      "metar_trigger": false,
      "taf_trigger": false,
      "metar": "METAR LECH 012100Z AUTO 04004KT 7000 OVC042 15/14 Q1024",
      "taf": ""
    },
    {
      "icao": "LEMD",
      "alert": "OK",
      "vis_m": 9999,
      "fzfg": false,
      "metar_trigger": false,
      "taf_trigger": false,
      "metar": "METAR LEMD 012100Z 16014KT 9999 FEW080 20/12 Q1019 NOSIG",
      "taf": "TAF LEMD 011700Z 0118/0224 VRB05KT CAVOK TX25/0118Z TN12/0205Z"
    },
    {
      "icao": "LEMG",
      "alert": "OK",
      "vis_m": 9999,
      "fzfg": false,
      "metar_trigger": false,
      "taf_trigger": false,
      "metar": "METAR LEMG 012100Z 14004KT CAVOK 18/15 Q1020 NOSIG",
      "taf": "TAF LEMG 011700Z 0118/0218 13010KT CAVOK TX23/0214Z TN14/0206Z"
    },
    {
      "icao": "LEVC",
      "alert": "OK",
      "vis_m": 9999,
      "fzfg": false,
      "metar_trigger": false,
      "taf_trigger": false,
      "metar": "SPECI LEVC 012120Z 09006KT 050V140 9999 SCT012 BKN032 18/16 Q1023 NOSIG",
      "taf": ""
    },
    {
      "icao": "LEXJ",
      "alert": "OK",
      "vis_m": 9999,
      "fzfg": false,
      "metar_trigger": false,
      "taf_trigger": false,
      "metar": "METAR LEXJ 012100Z 30006KT 9999 SCT010 BKN020 16/15 Q1017",
      "taf": "TAF LEXJ 012000Z 0121/0221 VRB03KT 9999 SCT025 TX18/0213Z TN15/0206Z"
    },
    {
      "icao": "LEZG",
      "alert": "OK",
      "vis_m": 9999,
      "fzfg": false,
      "metar_trigger": false,
      "taf_trigger": false,
      "metar": "METAR LEZG 012100Z 11011KT 080V140 CAVOK 18/10 Q1021 NOSIG",
      "taf": "TAF LEZG 011700Z 0118/0218 12011KT 9999 FEW030 SCT060 TX21/0214Z TN14/0206Z"
    },
    {
      "icao": "LEZL",
      "alert": "OK",
      "vis_m": 9999,
      "fzfg": false,
      "metar_trigger": false,
      "taf_trigger": false,
      "metar": "METAR LEZL 012100Z 21005KT CAVOK 21/11 Q1019 NOSIG",
      "taf": "TAF LEZL 012000Z 0121/0221 22010KT CAVOK TX28/0215Z TN13/0206Z"
    },
    {
      "icao": "LFBD",
      "alert": "OK",
      "vis_m": 9999,
      "fzfg": false,
      "metar_trigger": false,
      "taf_trigger": false,
      "metar": "METAR LFBD 012130Z AUTO 14010KT CAVOK 19/07 Q1019 NOSIG",
      "taf": "TAF LFBD 011700Z 0118/0224 13010KT CAVOK TX22/0118Z TN14/0205Z"
    },
    {
      "icao": "LFLL",
      "alert": "OK",
      "vis_m": 9999,
      "fzfg": false,
      "metar_trigger": false,
      "taf_trigger": false,
      "metar": "METAR LFLL 012130Z 16011KT CAVOK 20/08 Q1023 NOSIG",
      "taf": "TAF LFLL 011700Z 0118/0224 19010KT CAVOK"
    },
    {
      "icao": "LFLS",
      "alert": "OK",
      "vis_m": 9999,
      "fzfg": false,
      "metar_trigger": false,
      "taf_trigger": false,
      "metar": "METAR LFLS 012130Z AUTO 21009KT CAVOK 16/05 Q1025",
      "taf": "TAF LFLS 011400Z 0115/0215 22005KT CAVOK"
    },
    {
      "icao": "LFMN",
      "alert": "OK",
      "vis_m": 9999,
      "fzfg": false,
      "metar_trigger": false,
      "taf_trigger": false,
      "metar": "METAR LFMN 012130Z 32007KT CAVOK 16/09 Q1025 NOSIG",
      "taf": "TAF LFMN 012000Z 0121/0303 34007KT CAVOK"
    },
    {
      "icao": "LFOB",
      "alert": "OK",
      "vis_m": 9999,
      "fzfg": false,
      "metar_trigger": false,
      "taf_trigger": false,
      "metar": "METAR LFOB 012130Z AUTO 01002KT 9999 ///CB 15/14 Q1020 TEMPO VRB15G30KT 2000 -TSRA BECMG NSC",
      "taf": "TAF LFOB 011700Z 0118/0218 VRB04KT CAVOK"
    },
    {
      "icao": "LFPO",
      "alert": "OK",
      "vis_m": 9999,
      "fzfg": false,
      "metar_trigger": false,
      "taf_trigger": false,
      "metar": "METAR LFPO 012130Z AUTO 19004KT 9999 ///CB 17/14 Q1021 BECMG FEW040 BKN090",
      "taf": ""
    },
    {
      "icao": "LFSB",
      "alert": "OK",
      "vis_m": 9999,
      "fzfg": false,
      "metar_trigger": false,
      "taf_trigger": false,
      "metar": "METAR LFSB 012130Z AUTO VRB01KT CAVOK 10/05 Q1023 NOSIG",
      "taf": "TAF LFSB 011700Z 0118/0218 10005KT CAVOK"
    },
    {
      "icao": "LGAV",
      "alert": "OK",
      "vis_m": 9999,
      "fzfg": false,
      "metar_trigger": false,
      "taf_trigger": false,
      "metar": "METAR LGAV 012120Z 03014G26KT 9999 BKN025 12/06 Q1019 NOSIG",
      "taf": "TAF LGAV 011700Z 0118/0218 02017KT 9999 SCT020 BKN040"
    },
    {
      "icao": "LGTS",
      "alert": "OK",
      "vis_m": 9999,
      "fzfg": false,
      "metar_trigger": false,
      "taf_trigger": false,
      "metar": "METAR LGTS 012120Z 08003KT 9999 FEW018 BKN030 10/10 Q1024 NOSIG",
      "taf": "TAF LGTS 011700Z 0118/0218 VRB03KT 9999 BKN035"
    },
    {
      "icao": "LHBP",
      "alert": "OK",
      "vis_m": 9999,
      "fzfg": false,
      "metar_trigger": false,
      "taf_trigger": false,
      "metar": "METAR LHBP 012130Z 09004KT CAVOK 09/00 Q1024 NOSIG",
      "taf": "TAF LHBP 011715Z 0118/0218 VRB02KT CAVOK"
    },
    {
      "icao": "LHDC",
      "alert": "OK",
      "vis_m": 9999,
      "fzfg": false,
      "metar_trigger": false,
      "taf_trigger": false,
      "metar": "METAR LHDC 012115Z AUTO 31003KT CAVOK 11/01 Q1024",
      "taf": "TAF LHDC 011715Z 0118/0203 36009KT CAVOK"
    },
    {
      "icao": "LIBD",
      "alert": "OK",
      "vis_m": 9999,
      "fzfg": false,
      "metar_trigger": false,
      "taf_trigger": false,
      "metar": "METAR LIBD 012120Z 30007KT 240V340 CAVOK 15/10 Q1021",
      "taf": "TAF LIBD 011700Z 0118/0218 34016KT CAVOK"
    },
    {
      "icao": "LIBG",
      "alert": "OK",
      "vis_m": null,
      "fzfg": false,
      "metar_trigger": false,
      "taf_trigger": false,
      "metar": "",
      "taf": "TAF LIBG 011400Z 0115/0124 03015KT CAVOK"
    },
    {
      "icao": "LIBP",
      "alert": "OK",
      "vis_m": 9999,
      "fzfg": false,
      "metar_trigger": false,
      "taf_trigger": false,
      "metar": "METAR LIBP 012120Z AUTO 24006KT 9999 NCD 08/04 Q1025",
      "taf": "TAF LIBP 011700Z 0118/0218 36010KT 9999 FEW050"
    },
    {
      "icao": "LIBR",
      "alert": "OK",
      "vis_m": 9999,
      "fzfg": false,
      "metar_trigger": false,
      "taf_trigger": false,
      "metar": "METAR LIBR 012120Z 05020KT CAVOK 16/04 Q1020",
      "taf": "TAF LIBR 011700Z 0118/0218 02016G28KT CAVOK"
    },
    {
      "icao": "LICA",
      "alert": "OK",
      "vis_m": 9999,
      "fzfg": false,
      "metar_trigger": false,
      "taf_trigger": false,
      "metar": "METAR LICA 012120Z AUTO 02013KT 9999 NCD 14/M00 Q1020",
      "taf": "TAF LICA 011700Z 0118/0218 28010KT CAVOK"
    },
    {
      "icao": "LICC",
      "alert": "OK",
      "vis_m": 9999,
      "fzfg": false,
      "metar_trigger": false,
      "taf_trigger": false,
      "metar": "METAR LICC 012120Z 09004KT 9999 SCT060 16/11 Q1020",
      "taf": "TAF LICC 011700Z 0118/0218 10010KT 9999 SCT030"
    },
    {
      "icao": "LICJ",
      "alert": "OK",
      "vis_m": 9999,
      "fzfg": false,
      "metar_trigger": false,
      "taf_trigger": false,
      "metar": "METAR LICJ 012120Z 04017KT 9999 SCT055 17/08 Q1021",
      "taf": "TAF LICJ 011700Z 0118/0218 04016KT 9999 FEW020"
    },
    {
      "icao": "LIMC",
      "alert": "OK",
      "vis_m": 9999,
      "fzfg": false,
      "metar_trigger": false,
      "taf_trigger": false,
      "metar": "METAR LIMC 012120Z VRB01KT CAVOK 09/05 Q1026 NOSIG",
      "taf": "TAF LIMC 011700Z 0118/0224 VRB05KT CAVOK"
    },
    {
      "icao": "LIME",
      "alert": "OK",
      "vis_m": 9999,
      "fzfg": false,
      "metar_trigger": false,
      "taf_trigger": false,
      "metar": "METAR LIME 012120Z 02005KT CAVOK 13/04 Q1026 NOSIG",
      "taf": "TAF LIME 011700Z 0118/0218 VRB05KT CAVOK"
    },
    {
      "icao": "LIMF",
      "alert": "OK",
      "vis_m": 9999,
      "fzfg": false,
      "metar_trigger": false,
      "taf_trigger": false,
      "metar": "METAR LIMF 012120Z 31004KT CAVOK 13/07 Q1026",
      "taf": "TAF LIMF 011700Z 0118/0218 VRB05KT CAVOK"
    },
    {
      "icao": "LIMJ",
      "alert": "OK",
      "vis_m": 9999,
      "fzfg": false,
      "metar_trigger": false,
      "taf_trigger": false,
      "metar": "METAR LIMJ 012120Z AUTO 04014KT 9999 NCD 18/03 Q1025",
      "taf": "TAF LIMJ 011700Z 0118/0218 36010KT CAVOK"
    },
    {
      "icao": "LIPE",
      "alert": "OK",
      "vis_m": 9999,
      "fzfg": false,
      "metar_trigger": false,
      "taf_trigger": false,
      "metar": "METAR LIPE 012120Z AUTO 20007KT 9999 NCD 11/02 Q1026",
      "taf": "TAF LIPE 011700Z 0118/0218 VRB05KT CAVOK"
    },
    {
      "icao": "LIPH",
      "alert": "OK",
      "vis_m": 9999,
      "fzfg": false,
      "metar_trigger": false,
      "taf_trigger": false,
      "metar": "METAR LIPH 012120Z AUTO 31003KT 9999 NCD 15/01 Q1025",
      "taf": "TAF LIPH 011700Z 0118/0218 VRB06KT CAVOK"
    },
    {
      "icao": "LIPQ",
      "alert": "OK",
      "vis_m": 9999,
      "fzfg": false,
      "metar_trigger": false,
      "taf_trigger": false,
      "metar": "METAR LIPQ 012120Z AUTO 10004KT 9999 NCD 12/07 Q1026",
      "taf": "TAF LIPQ 011700Z 0118/0218 VRB05KT CAVOK"
    },
    {
      "icao": "LIPR",
      "alert": "OK",
      "vis_m": 9999,
      "fzfg": false,
      "metar_trigger": false,
      "taf_trigger": false,
      "metar": "METAR LIPR 012120Z AUTO 23003KT 9999 NCD 09/02 Q1026",
      "taf": "TAF LIPR 011700Z 0118/0218 VRB05KT CAVOK"
    },
    {
      "icao": "LIPX",
      "alert": "OK",
      "vis_m": 9999,
      "fzfg": false,
      "metar_trigger": false,
      "taf_trigger": false,
      "metar": "METAR LIPX 012120Z 35004KT CAVOK 11/03 Q1026",
      "taf": "TAF LIPX 011700Z 0118/0218 VRB05KT 9999 FEW060"
    },
    {
      "icao": "LIPY",
      "alert": "OK",
      "vis_m": 9999,
      "fzfg": false,
      "metar_trigger": false,
      "taf_trigger": false,
      "metar": "METAR LIPY 012120Z AUTO 19003KT 160V240 9999 NCD 10/04 Q1026",
      "taf": "TAF LIPY 011700Z 0118/0218 34008KT CAVOK"
    },
    {
      "icao": "LIPZ",
      "alert": "OK",
      "vis_m": 9999,
      "fzfg": false,
      "metar_trigger": false,
      "taf_trigger": false,
      "metar": "METAR LIPZ 012120Z 25003KT CAVOK 15/05 Q1025 NOSIG",
      "taf": "TAF LIPZ 011700Z 0118/0224 20010KT CAVOK"
    },
    {
      "icao": "LIRF",
      "alert": "OK",
      "vis_m": 9999,
      "fzfg": false,
      "metar_trigger": false,
      "taf_trigger": false,
      "metar": "METAR LIRF 012120Z 02008KT CAVOK 14/00 Q1023 NOSIG",
      "taf": "TAF LIRF 011700Z 0118/0224 02012KT CAVOK"
    },
    {
      "icao": "LIRN",
      "alert": "OK",
      "vis_m": 9999,
      "fzfg": false,
      "metar_trigger": false,
      "taf_trigger": false,
      "metar": "METAR LIRN 012120Z VRB02KT CAVOK 13/M04 Q1023 NOSIG",
      "taf": "TAF LIRN 011700Z 0118/0218 03015KT CAVOK"
    },
    {
      "icao": "LIRP",
      "alert": "OK",
      "vis_m": 9999,
      "fzfg": false,
      "metar_trigger": false,
      "taf_trigger": false,
      "metar": "METAR LIRP 012115Z 15005KT CAVOK 12/01 Q1025 NOSIG",
      "taf": "TAF LIRP 011700Z 0118/0218 09007KT CAVOK"
    },
    {
      "icao": "LIRZ",
      "alert": "OK",
      "vis_m": 9999,
      "fzfg": false,
      "metar_trigger": false,
      "taf_trigger": false,
      "metar": "METAR LIRZ 012120Z AUTO 36006KT 9999 NCD 08/M02 Q1025",
      "taf": "TAF LIRZ 011700Z 0118/0218 04012KT CAVOK"
    },
    {
      "icao": "LJLJ",
      "alert": "OK",
      "vis_m": 9999,
      "fzfg": false,
      "metar_trigger": false,
      "taf_trigger": false,
      "metar": "METAR LJLJ 012100Z 32002KT CAVOK 08/04 Q1027 NOSIG",
      "taf": "TAF LJLJ 011700Z 0118/0218 VRB02KT CAVOK"
    },
    {
      "icao": "LKMT",
      "alert": "OK",
      "vis_m": 9999,
      "fzfg": false,
      "metar_trigger": false,
      "taf_trigger": false,
      "metar": "METAR LKMT 012130Z 18001KT CAVOK 10/04 Q1025 NOSIG",
      "taf": "TAF LKMT 011700Z 0118/0218 03008KT CAVOK"
    },
    {
      "icao": "LKPR",
      "alert": "OK",
      "vis_m": 9999,
      "fzfg": false,
      "metar_trigger": false,
      "taf_trigger": false,
      "metar": "METAR LKPR 012130Z 00000KT CAVOK 09/02 Q1026 NOSIG",
      "taf": "TAF LKPR 012000Z 0121/0303 06004KT CAVOK"
    },
    {
      "icao": "LLBG",
      "alert": "OK",
      "vis_m": 9999,
      "fzfg": false,
      "metar_trigger": false,
      "taf_trigger": false,
      "metar": "METAR LLBG 012120Z 12004KT CAVOK 16/12 Q1013 NOSIG",
      "taf": "TAF LLBG 011704Z 0118/0218 VRB03KT CAVOK TX29/0212Z TN12/0203Z"
    },
    {
      "icao": "LMML",
      "alert": "OK",
      "vis_m": 9999,
      "fzfg": false,
      "metar_trigger": false,
      "taf_trigger": false,
      "metar": "METAR LMML 012115Z 06007KT 9999 FEW024 16/11 Q1019 NOSIG",
      "taf": "TAF LMML 011700Z 0118/0218 07010KT 9999 FEW020 BKN045"
    },
    {
      "icao": "LOWW",
      "alert": "OK",
      "vis_m": 9999,
      "fzfg": false,
      "metar_trigger": false,
      "taf_trigger": false,
      "metar": "METAR LOWW 012120Z 18003KT 150V220 CAVOK 11/04 Q1025 NOSIG",
      "taf": "TAF LOWW 012015Z 0121/0303 VRB03KT CAVOK TX24/0214Z TN07/0204Z"
    },
    {
      "icao": "LPFR",
      "alert": "OK",
      "vis_m": 9999,
      "fzfg": false,
      "metar_trigger": false,
      "taf_trigger": false,
      "metar": "METAR LPFR 012100Z 30007KT CAVOK 18/10 Q1018",
      "taf": "TAF LPFR 011707Z 0118/0218 26010KT CAVOK"
    },
    {
      "icao": "LPMA",
      "alert": "OK",
      "vis_m": 9999,
      "fzfg": false,
      "metar_trigger": false,
      "taf_trigger": false,
      "metar": "METAR LPMA 012100Z VRB02KT 9999 FEW015 18/13 Q1020",
      "taf": "TAF LPMA 011707Z 0118/0218 VRB05KT 9999 SCT015"
    },
    {
      "icao": "LPPR",
      "alert": "OK",
      "vis_m": 9999,
      "fzfg": false,
      "metar_trigger": false,
      "taf_trigger": false,
      "metar": "METAR LPPR 012100Z 36002KT CAVOK 15/12 Q1019",
      "taf": "TAF LPPR 011707Z 0118/0218 29005KT CAVOK"
    },
    {
      "icao": "LPPS",
      "alert": "OK",
      "vis_m": 9999,
      "fzfg": false,
      "metar_trigger": false,
      "taf_trigger": false,
      "metar": "METAR LPPS 012100Z 28007KT 9999 FEW015 18/14 Q1020",
      "taf": "TAF LPPS 011707Z 0118/0224 27008KT 9999 SCT015"
    },
    {
      "icao": "LPPT",
      "alert": "OK",
      "vis_m": 9999,
      "fzfg": false,
      "metar_trigger": false,
      "taf_trigger": false,
      "metar": "METAR LPPT 012100Z 28004KT 240V310 9999 FEW020 16/11 Q1019",
      "taf": "TAF LPPT 011707Z 0118/0224 21008KT 9999 FEW040"
    },
    {
      "icao": "LQBK",
      "alert": "OK",
      "vis_m": 9999,
      "fzfg": false,
      "metar_trigger": false,
      "taf_trigger": false,
      "metar": "METAR LQBK 012100Z VRB02KT CAVOK 06/02 Q1025 NOSIG",
      "taf": "TAF LQBK 011700Z 0118/0218 VRB03KT CAVOK TX17/0214Z TN02/0201Z"
    },
    {
      "icao": "LQSA",
      "alert": "OK",
      "vis_m": 9999,
      "fzfg": false,
      "metar_trigger": false,
      "taf_trigger": false,
      "metar": "METAR LQSA 012100Z VRB02KT CAVOK 08/02 Q1025 NOSIG",
      "taf": "TAF LQSA 011700Z 0118/0218 31005KT CAVOK TX18/0214Z TN01/0204Z"
    },
    {
      "icao": "LQTZ",
      "alert": "OK",
      "vis_m": 9999,
      "fzfg": false,
      "metar_trigger": false,
      "taf_trigger": false,
      "metar": "METAR LQTZ 012100Z VRB01KT CAVOK 08/04 Q1025",
      "taf": "TAF LQTZ 011700Z 0118/0218 VRB02KT CAVOK TX16/0213Z TNM00/0201Z"
    },
    {
      "icao": "LRBC",
      "alert": "OK",
      "vis_m": 9999,
      "fzfg": false,
      "metar_trigger": false,
      "taf_trigger": false,
      "metar": "METAR LRBC 012100Z 33002KT CAVOK 08/00 Q1024",
      "taf": "TAF LRBC 012000Z 0121/0206 35006KT CAVOK"
    },
    {
      "icao": "LRBS",
      "alert": "OK",
      "vis_m": 9999,
      "fzfg": false,
      "metar_trigger": false,
      "taf_trigger": false,
      "metar": "METAR LRBS 012100Z 25004KT CAVOK 09/01 Q1025 NOSIG",
      "taf": "TAF LRBS 011700Z 0118/0218 VRB04KT 9999 SCT035"
    },
    {
      "icao": "LRBV",
      "alert": "OK",
      "vis_m": 9999,
      "fzfg": false,
      "metar_trigger": false,
      "taf_trigger": false,
      "metar": "METAR LRBV 012100Z AUTO 26003KT 230V300 9999 BKN063/// OVC082/// 07/M02 Q1023",
      "taf": "TAF LRBV 012000Z 0121/0206 05006KT 9999 BKN060"
    },
    {
      "icao": "LRCL",
      "alert": "OK",
      "vis_m": 9999,
      "fzfg": false,
      "metar_trigger": false,
      "taf_trigger": false,
      "metar": "METAR LRCL 012100Z VRB01KT CAVOK 08/M02 Q1023",
      "taf": "TAF LRCL 012000Z 0121/0206 VRB04KT CAVOK"
    },
    {
      "icao": "LRCV",
      "alert": "OK",
      "vis_m": 9999,
      "fzfg": false,
      "metar_trigger": false,
      "taf_trigger": false,
      "metar": "METAR LRCV 012100Z 24004KT CAVOK 07/03 Q1024",
      "taf": "TAF LRCV 012000Z 0121/0206 VRB04KT 9999 SCT045"
    },
    {
      "icao": "LRIA",
      "alert": "OK",
      "vis_m": 9999,
      "fzfg": false,
      "metar_trigger": false,
      "taf_trigger": false,
      "metar": "METAR LRIA 012100Z 01006KT 9999 BKN047 10/02 Q1024",
      "taf": "TAF LRIA 012000Z 0121/0206 34007KT CAVOK"
    },
    {
      "icao": "LROP",
      "alert": "OK",
      "vis_m": 9999,
      "fzfg": false,
      "metar_trigger": false,
      "taf_trigger": false,
      "metar": "METAR LROP 012100Z 26005KT CAVOK 08/02 Q1025 NOSIG",
      "taf": "TAF LROP 011700Z 0118/0218 VRB04KT 9999 SCT035"
    },
    {
      "icao": "LRSB",
      "alert": "OK",
      "vis_m": 9999,
      "fzfg": false,
      "metar_trigger": false,
      "taf_trigger": false,
      "metar": "METAR LRSB 012100Z 21005KT 120V250 9999 SCT075 07/M01 Q1023",
      "taf": "TAF LRSB 011700Z 0118/0218 VRB04KT 9999 SCT065"
    },
    {
      "icao": "LRSM",
      "alert": "OK",
      "vis_m": 9999,
      "fzfg": false,
      "metar_trigger": false,
      "taf_trigger": false,
      "metar": "METAR LRSM 012100Z AUTO 08004KT 040V110 9999 SCT065/// BKN090/// 10/00 Q1024",
      "taf": "TAF LRSM 011400Z 0115/0124 34012KT CAVOK"
    },
    {
      "icao": "LRSV",
      "alert": "OK",
      "vis_m": 9999,
      "fzfg": false,
      "metar_trigger": false,
      "taf_trigger": false,
      "metar": "METAR LRSV 012100Z 31007KT 9999 BKN039 08/04 Q1024",
      "taf": "TAF LRSV 012000Z 0121/0206 34006KT 9999 BKN040"
    },
    {
      "icao": "LRTM",
      "alert": "OK",
      "vis_m": 9999,
      "fzfg": false,
      "metar_trigger": false,
      "taf_trigger": false,
      "metar": "METAR LRTM 012100Z COR 17002KT CAVOK 08/M01 Q1023",
      "taf": "TAF LRTM 012000Z 0121/0206 VRB04KT CAVOK"
    },
    {
      "icao": "LRTR",
      "alert": "OK",
      "vis_m": 9999,
      "fzfg": false,
      "metar_trigger": false,
      "taf_trigger": false,
      "metar": "METAR LRTR 012100Z 35005KT CAVOK 06/00 Q1023",
      "taf": "TAF LRTR 011700Z 0118/0218 36010KT CAVOK"
    },
    {
      "icao": "LTAC",
      "alert": "OK",
      "vis_m": 9999,
      "fzfg": false,
      "metar_trigger": false,
      "taf_trigger": false,
      "metar": "METAR LTAC 012120Z 05011KT 9999 SCT030 BKN080 05/01 Q1015 NOSIG RMK RWY21C 06009KT RWY03L 05008KT RWY21R 06008KT RWY03R 03011KT RWY21L 05012KT",
      "taf": "TAF LTAC 011640Z 0118/0218 VRB02KT 9999 SCT035 BKN090"
    },
    {
      "icao": "LTFM",
      "alert": "OK",
      "vis_m": 9999,
      "fzfg": false,
      "metar_trigger": false,
      "taf_trigger": false,
      "metar": "METAR LTFM 012120Z 05015KT 9999 SCT028 BKN090 09/03 Q1022 NOSIG RMK RWY17L 05015KT RWY34L 04014KT RWY16R 05016KT RWY36 05014KT RWY18 06014KT",
      "taf": "TAF LTFM 011640Z 0118/0224 03015KT 9999 -SHRA SCT028 BKN090"
    },
    {
      "icao": "LUKK",
      "alert": "OK",
      "vis_m": 9999,
      "fzfg": false,
      "metar_trigger": false,
      "taf_trigger": false,
      "metar": "METAR LUKK 012100Z 33006KT CAVOK 10/M01 Q1023 NOSIG",
      "taf": "TAF LUKK 011716Z 0118/0218 VRB04KT 9999 SCT035"
    },
    {
      "icao": "LWOH",
      "alert": "OK",
      "vis_m": null,
      "fzfg": false,
      "metar_trigger": false,
      "taf_trigger": false,
      "metar": "",
      "taf": "TAF LWOH 012030Z 0121/0221 02008KT 9999 SCT050 SCT100"
    },
    {
      "icao": "LWSK",
      "alert": "OK",
      "vis_m": 9999,
      "fzfg": false,
      "metar_trigger": false,
      "taf_trigger": false,
      "metar": "METAR LWSK 012050Z VRB01KT 9999 FEW085 03/M02 Q1024 NOSIG",
      "taf": "TAF LWSK 012030Z 0121/0221 35006KT 9999 SCT080"
    },
    {
      "icao": "LYBE",
      "alert": "OK",
      "vis_m": 9999,
      "fzfg": false,
      "metar_trigger": false,
      "taf_trigger": false,
      "metar": "METAR LYBE 012100Z 35003KT CAVOK 08/M01 Q1024 NOSIG",
      "taf": "TAF LYBE 011700Z 0118/0218 34006KT CAVOK TX19/0213Z TN03/0204Z"
    },
    {
      "icao": "LYNI",
      "alert": "OK",
      "vis_m": 9999,
      "fzfg": false,
      "metar_trigger": false,
      "taf_trigger": false,
      "metar": "METAR LYNI 012100Z VRB01KT 9999 BKN080 09/01 Q1024 NOSIG",
      "taf": "TAF LYNI 011700Z 0118/0218 34006KT 9999 SCT080 TX16/0212Z TN02/0204Z"
    },
    {
      "icao": "LYPG",
      "alert": "OK",
      "vis_m": 9999,
      "fzfg": false,
      "metar_trigger": false,
      "taf_trigger": false,
      "metar": "METAR LYPG 012100Z 36011KT 9999 FEW080 14/M03 Q1022 TEMPO 36021KT",
      "taf": "TAF LYPG 011700Z 0118/0218 36012KT 9999 FEW050 SCT090 TX20/0213Z TN13/0204Z"
    },
    {
      "icao": "LZIB",
      "alert": "OK",
      "vis_m": 9999,
      "fzfg": false,
      "metar_trigger": false,
      "taf_trigger": false,
      "metar": "METAR LZIB 012130Z 27003KT CAVOK 13/04 Q1024 NOSIG",
      "taf": "TAF LZIB 011715Z 0118/0218 36004KT CAVOK"
    },
    {
      "icao": "LZKZ",
      "alert": "OK",
      "vis_m": 9999,
      "fzfg": false,
      "metar_trigger": false,
      "taf_trigger": false,
      "metar": "METAR LZKZ 012130Z 10003KT CAVOK 08/03 Q1024 NOSIG",
      "taf": "TAF LZKZ 011715Z 0118/0218 04007KT CAVOK"
    },
    {
      "icao": "LZTT",
      "alert": "OK",
      "vis_m": 9999,
      "fzfg": false,
      "metar_trigger": false,
      "taf_trigger": false,
      "metar": "METAR LZTT 012130Z VRB03KT 9999 FEW063 SCT080 07/02 Q1024",
      "taf": "TAF LZTT 011715Z 0118/0218 VRB04KT 9999 FEW045 BKN063"
    },
    {
      "icao": "OEJN",
      "alert": "OK",
      "vis_m": 9999,
      "fzfg": false,
      "metar_trigger": false,
      "taf_trigger": false,
      "metar": "METAR OEJN 012100Z 36005KT CAVOK 26/10 Q1009 NOSIG",
      "taf": "TAF OEJN 011700Z 0118/0224 03006KT CAVOK"
    },
    {
      "icao": "OEMA",
      "alert": "OK",
      "vis_m": 9999,
      "fzfg": false,
      "metar_trigger": false,
      "taf_trigger": false,
      "metar": "METAR OEMA 012100Z 24009KT CAVOK 29/02 Q1013 NOSIG",
      "taf": "TAF OEMA 011700Z 0118/0224 VRB03KT CAVOK"
    },
    {
      "icao": "OJAI",
      "alert": "OK",
      "vis_m": 5000,
      "fzfg": false,
      "metar_trigger": false,
      "taf_trigger": false,
      "metar": "METAR OJAI 012100Z 26005KT 5000 HZ NSC 12/04 Q1015 NOSIG",
      "taf": "TAF OJAI 011645Z 0118/0224 30012KT 5000 HZ NSC"
    },
    {
      "icao": "OMAA",
      "alert": "OK",
      "vis_m": 9999,
      "fzfg": false,
      "metar_trigger": false,
      "taf_trigger": false,
      "metar": "METAR OMAA 012130Z 31005KT CAVOK 29/17 Q1007 NOSIG",
      "taf": "TAF OMAA 011700Z 0118/0300 VRB02KT CAVOK"
    },
    {
      "icao": "OMDB",
      "alert": "OK",
      "vis_m": 9999,
      "fzfg": false,
      "metar_trigger": false,
      "taf_trigger": false,
      "metar": "METAR OMDB 012130Z 28010KT CAVOK 31/17 Q1007 NOSIG",
      "taf": "TAF OMDB 011700Z 0118/0300 23005KT CAVOK"
    },
    {
      "icao": "UAAA",
      "alert": "OK",
      "vis_m": 9999,
      "fzfg": false,
      "metar_trigger": false,
      "taf_trigger": false,
      "metar": "METAR UAAA 012100Z 22002MPS 150V260 9999 FEW100 BKN200 15/08 Q1014 NOSIG",
      "taf": "TAF UAAA 011700Z 0118/0218 16003MPS 9999 SCT050CB BKN100 TX27/0209Z TN12/0201Z"
    },
    {
      "icao": "UBBB",
      "alert": "OK",
      "vis_m": 9999,
      "fzfg": false,
      "metar_trigger": false,
      "taf_trigger": false,
      "metar": "METAR UBBB 012130Z 18016KT 9999 BKN010 14/12 Q1013 NOSIG",
      "taf": "TAF UBBB 011709Z 0118/0218 16018KT 9999 SCT010 TX17/0210Z TN11/0201Z"
    },
    {
      "icao": "UDSG",
      "alert": "OK",
      "vis_m": 9999,
      "fzfg": false,
      "metar_trigger": false,
      "taf_trigger": false,
      "metar": "METAR UDSG 012100Z 33002KT 9999 FEW049 09/03 Q1015 NOSIG",
      "taf": "TAF UDSG 011700Z 0118/0218 36006KT 9999 SCT040"
    },
    {
      "icao": "UDYZ",
      "alert": "OK",
      "vis_m": 9999,
      "fzfg": false,
      "metar_trigger": false,
      "taf_trigger": false,
      "metar": "METAR UDYZ 012100Z 34002KT 9999 SCT043CB 12/07 Q1012 NOSIG",
      "taf": "TAF UDYZ 011700Z 0118/0218 13006KT 9999 SCT040"
    },
    {
      "icao": "UGKO",
      "alert": "OK",
      "vis_m": 3300,
      "fzfg": false,
      "metar_trigger": false,
      "taf_trigger": false,
      "metar": "METAR UGKO 012100Z 25009KT 3300 -RA BR FEW006 SCT010 BKN053 11/09 Q1016 NOSIG",
      "taf": "TAF UGKO 011700Z 0118/0218 25010KT 9999 SCT020 BKN050 TX14/0211Z TN10/0202Z"
    }
  ]
}