{
  "ts_utc": "2026-01-11T06:56:18Z",
  "threshold_m": 150,
  "source": "stations_override.txt (ICAO list) + aviationweather.gov (METAR/TAF raw)",
  "station_count": 159,
  "stations": [
    {
      "icao": "BIKF",
      "alert": "OK",
      "vis_m": 9999,
      "fzfg": false,
      "metar_trigger": false,
      "taf_trigger": false,
      "metar": "METAR BIKF 110630Z 01010KT CAVOK M03/M06 Q0999",
      "taf": "TAF BIKF 110459Z 1106/1206 02008KT 9999 FEW030 TXM01/1206Z TNM04/1114Z"
    },
    {
      "icao": "BKPR",
      "alert": "OK",
      "vis_m": null,
      "fzfg": false,
      "metar_trigger": false,
      "taf_trigger": false,
      "metar": "",
      "taf": ""
    },
    {
      "icao": "EBCI",
      "alert": "OK",
      "vis_m": 4000,
      "fzfg": false,
      "metar_trigger": false,
      "taf_trigger": false,
      "metar": "METAR EBCI 110650Z 17007KT 4000 BR SCT008 BKN011 M03/M04 Q1023 TEMPO BKN008",
      "taf": "TAF EBCI 110508Z 1106/1212 18005KT 8000 SCT005 BKN012"
    },
    {
      "icao": "EDDB",
      "alert": "OK",
      "vis_m": 9999,
      "fzfg": false,
      "metar_trigger": false,
      "taf_trigger": false,
      "metar": "METAR EDDB 110650Z AUTO 30011KT CAVOK M07/M10 Q1020 NOSIG",
      "taf": "TAF EDDB 110500Z 1106/1206 30010KT CAVOK"
    },
    {
      "icao": "EDDH",
      "alert": "OK",
      "vis_m": 1100,
      "fzfg": true,
      "metar_trigger": false,
      "taf_trigger": false,
      "metar": "METAR EDDH 110650Z AUTO VRB02KT 1100 0300 R23/1700N R15/1100U BCFG BKN001 M13/M14 Q1025 TEMPO 0500 FZFG",
      "taf": "TAF EDDH 110500Z 1106/1212 VRB03KT CAVOK"
    },
    {
      "icao": "EDDK",
      "alert": "OK",
      "vis_m": 9999,
      "fzfg": false,
      "metar_trigger": false,
      "taf_trigger": false,
      "metar": "METAR EDDK 110650Z AUTO 09003KT 060V130 CAVOK M08/M10 Q1026 NOSIG",
      "taf": "TAF EDDK 110500Z 1106/1212 12006KT CAVOK"
    },
    {
      "icao": "EDDN",
      "alert": "OK",
      "vis_m": 9999,
      "fzfg": false,
      "metar_trigger": false,
      "taf_trigger": false,
      "metar": "METAR EDDN 110650Z AUTO 11002KT CAVOK M11/M13 Q1024 NOSIG",
      "taf": "TAF EDDN 110500Z 1106/1206 32002KT 9999 FEW010"
    },
    {
      "icao": "EDDS",
      "alert": "OK",
      "vis_m": 9999,
      "fzfg": false,
      "metar_trigger": false,
      "taf_trigger": false,
      "metar": "METAR EDDS 110650Z AUTO VRB01KT 9999 FEW008 OVC016 M03/M05 Q1023 TEMPO BKN014",
      "taf": "TAF EDDS 110500Z 1106/1206 VRB03KT 9999 OVC008"
    },
    {
      "icao": "EDFH",
      "alert": "OK",
      "vis_m": 9999,
      "fzfg": false,
      "metar_trigger": false,
      "taf_trigger": false,
      "metar": "METAR EDFH 110650Z 14009KT 9999 SCT014 M08/M09 Q1022",
      "taf": "TAF EDFH 110500Z 1106/1206 15005KT 9999 SCT030"
    },
    {
      "icao": "EDJA",
      "alert": "OK",
      "vis_m": 5000,
      "fzfg": false,
      "metar_trigger": false,
      "taf_trigger": false,
      "metar": "METAR EDJA 110650Z 01002KT 5000 OVC005 M04/M06 Q1022",
      "taf": "TAF EDJA 110500Z 1106/1115 VRB03KT 6000 BKN015"
    },
    {
      "icao": "EDLW",
      "alert": "OK",
      "vis_m": 9999,
      "fzfg": false,
      "metar_trigger": false,
      "taf_trigger": false,
      "metar": "METAR EDLW 110650Z 00000KT CAVOK M09/M10 Q1025",
      "taf": "TAF EDLW 110500Z 1106/1206 15005KT CAVOK"
    },
    {
      "icao": "EDNY",
      "alert": "OK",
      "vis_m": 9999,
      "fzfg": false,
      "metar_trigger": false,
      "taf_trigger": false,
      "metar": "METAR EDNY 110650Z AUTO 04003KT 360V080 9999 // OVC017/// M01/M02 Q1023",
      "taf": "TAF EDNY 110500Z 1106/1115 30007KT 9999 BKN020"
    },
    {
      "icao": "EDSB",
      "alert": "OK",
      "vis_m": 8000,
      "fzfg": false,
      "metar_trigger": false,
      "taf_trigger": false,
      "metar": "METAR EDSB 110650Z 03004KT 8000 OVC022 M02/M03 Q1025",
      "taf": "TAF EDSB 110500Z 1106/1206 VRB03KT 9999 BKN015"
    },
    {
      "icao": "EETN",
      "alert": "OK",
      "vis_m": 800,
      "fzfg": false,
      "metar_trigger": false,
      "taf_trigger": false,
      "metar": "METAR EETN 110650Z 05012G22KT 0800 R08/1500 +SN DRSN VV007 M05/M06 Q1008 NOSIG",
      "taf": "TAF EETN 110530Z 1106/1206 04015KT 2000 SN DRSN BKN010 OVC020"
    },
    {
      "icao": "EFTU",
      "alert": "OK",
      "vis_m": 9999,
      "fzfg": false,
      "metar_trigger": false,
      "taf_trigger": false,
      "metar": "METAR EFTU 110650Z AUTO 02009KT 330V060 9999 -SN FEW018 OVC047 M07/M10 Q1013",
      "taf": "TAF EFTU 110528Z 1106/1206 02010KT 8000 -SN NSC"
    },
    {
      "icao": "EGBB",
      "alert": "OK",
      "vis_m": 9999,
      "fzfg": false,
      "metar_trigger": false,
      "taf_trigger": false,
      "metar": "METAR EGBB 110650Z 16012KT CAVOK 02/00 Q1014",
      "taf": "TAF EGBB 110506Z 1106/1206 15010KT 9999 FEW015 SCT030"
    },
    {
      "icao": "EGGP",
      "alert": "OK",
      "vis_m": 9999,
      "fzfg": false,
      "metar_trigger": false,
      "taf_trigger": false,
      "metar": "METAR EGGP 110650Z 15016KT 9999 SCT020 SCT032 03/01 Q1010",
      "taf": "TAF EGGP 110458Z 1106/1206 16015G25KT 9999 SCT030"
    },
    {
      "icao": "EGGW",
      "alert": "OK",
      "vis_m": 6000,
      "fzfg": false,
      "metar_trigger": false,
      "taf_trigger": false,
      "metar": "METAR EGGW 110650Z AUTO 16008KT 6000 NCD M01/M01 Q1017",
      "taf": "TAF EGGW 110505Z 1106/1206 15012KT 9999 FEW012 SCT040"
    },
    {
      "icao": "EGKK",
      "alert": "OK",
      "vis_m": 9999,
      "fzfg": false,
      "metar_trigger": false,
      "taf_trigger": false,
      "metar": "METAR EGKK 110650Z 15004KT 9999 FEW021 02/01 Q1018",
      "taf": "TAF EGKK 110501Z 1106/1212 10005KT 9999 FEW020"
    },
    {
      "icao": "EGNM",
      "alert": "OK",
      "vis_m": 4500,
      "fzfg": false,
      "metar_trigger": false,
      "taf_trigger": false,
      "metar": "METAR EGNM 110650Z 14010KT 4500 -SN SCT004 BKN006 M01/M01 Q1012",
      "taf": "TAF EGNM 110457Z 1106/1206 15012KT 9999 SCT020"
    },
    {
      "icao": "EGPD",
      "alert": "OK",
      "vis_m": 5000,
      "fzfg": false,
      "metar_trigger": false,
      "taf_trigger": false,
      "metar": "METAR EGPD 110650Z COR AUTO 17026G39KT 5000 -RA BKN009/// OVC024/// //////CB 03/01 Q1004 RERA TEMPO 3000 RA BKN006",
      "taf": "TAF EGPD 110457Z 1106/1206 17022G38KT 9999 BKN016"
    },
    {
      "icao": "EGPF",
      "alert": "OK",
      "vis_m": 6000,
      "fzfg": false,
      "metar_trigger": false,
      "taf_trigger": false,
      "metar": "METAR EGPF 110650Z AUTO 14009KT 110V170 6000 -RA BKN017/// BKN035/// OVC043/// //////TCU 04/03 Q1002",
      "taf": "TAF EGPF 110459Z 1106/1206 14012KT 9999 FEW015 SCT030"
    },
    {
      "icao": "EHBK",
      "alert": "OK",
      "vis_m": 7000,
      "fzfg": false,
      "metar_trigger": false,
      "taf_trigger": false,
      "metar": "METAR EHBK 110625Z AUTO 18003KT 7000 BKN013/// OVC015/// M03/M04 Q1024 TEMPO BKN016",
      "taf": "TAF EHBK 110553Z 1106/1212 VRB02KT 7000 BKN010"
    },
    {
      "icao": "EHEH",
      "alert": "OK",
      "vis_m": 9999,
      "fzfg": false,
      "metar_trigger": false,
      "taf_trigger": false,
      "metar": "METAR EHEH 110625Z AUTO 14005KT 100V200 9999 SCT016 M06/M08 Q1024 BLU NOSIG RMK TREND REMOTE BY EHWX",
      "taf": "TAF EHEH 102353Z 1100/1206 07004KT CAVOK"
    },
    {
      "icao": "EKBI",
      "alert": "OK",
      "vis_m": 9999,
      "fzfg": false,
      "metar_trigger": false,
      "taf_trigger": false,
      "metar": "METAR EKBI 110650Z AUTO 25001KT 9999 NCD M16/M17 Q1024",
      "taf": "TAF EKBI 110527Z 1106/1206 VRB02KT CAVOK"
    },
    {
      "icao": "EKCH",
      "alert": "OK",
      "vis_m": 9999,
      "fzfg": false,
      "metar_trigger": false,
      "taf_trigger": false,
      "metar": "METAR EKCH 110650Z AUTO 32010KT 9999 NCD M04/M10 Q1022 NOSIG",
      "taf": "TAF EKCH 110527Z 1106/1206 33010KT CAVOK"
    },
    {
      "icao": "ENAL",
      "alert": "OK",
      "vis_m": 9999,
      "fzfg": false,
      "metar_trigger": false,
      "taf_trigger": false,
      "metar": "METAR ENAL 110650Z 16015KT CAVOK 01/M11 Q1016",
      "taf": "TAF ENAL 110500Z 1106/1115 14018KT CAVOK"
    },
    {
      "icao": "ENBR",
      "alert": "OK",
      "vis_m": 9999,
      "fzfg": false,
      "metar_trigger": false,
      "taf_trigger": false,
      "metar": "METAR ENBR 110650Z 13012KT 9999 BKN047 M00/M08 Q1018 NOSIG RMK WIND 1200FT 13027KT",
      "taf": ""
    },
    {
      "icao": "ENGM",
      "alert": "OK",
      "vis_m": 9999,
      "fzfg": false,
      "metar_trigger": false,
      "taf_trigger": false,
      "metar": "METAR ENGM 110650Z 33004KT 9999 FEW004 M20/M22 Q1023 TEMPO BKN004",
      "taf": "TAF ENGM 110500Z 1106/1206 34005KT CAVOK"
    },
    {
      "icao": "ENHD",
      "alert": "OK",
      "vis_m": 9999,
      "fzfg": false,
      "metar_trigger": false,
      "taf_trigger": false,
      "metar": "METAR ENHD 110650Z AUTO 12019KT 9999 BKN042/// BKN049/// 01/M05 Q1019",
      "taf": "TAF ENHD 110500Z 1106/1115 13018KT 9999 SCT050"
    },
    {
      "icao": "ENTC",
      "alert": "OK",
      "vis_m": 9999,
      "fzfg": false,
      "metar_trigger": false,
      "taf_trigger": false,
      "metar": "METAR ENTC 110650Z 23010KT CAVOK M06/M10 Q1019 RMK WIND 2600FT 17010KT",
      "taf": "TAF ENTC 110500Z 1106/1206 20005KT CAVOK"
    },
    {
      "icao": "ENTO",
      "alert": "OK",
      "vis_m": 9999,
      "fzfg": false,
      "metar_trigger": false,
      "taf_trigger": false,
      "metar": "METAR ENTO 110650Z 36003KT 320V020 CAVOK M17/M19 Q1024 NOSIG",
      "taf": "TAF ENTO 110500Z 1106/1206 36003KT CAVOK"
    },
    {
      "icao": "ENVA",
      "alert": "OK",
      "vis_m": 9999,
      "fzfg": false,
      "metar_trigger": false,
      "taf_trigger": false,
      "metar": "METAR ENVA 110650Z 11008KT CAVOK M13/M14 Q1021 NOSIG RMK WIND 670FT 10011KT",
      "taf": "TAF ENVA 110500Z 1106/1206 11008KT CAVOK"
    },
    {
      "icao": "ENZV",
      "alert": "OK",
      "vis_m": 9999,
      "fzfg": false,
      "metar_trigger": false,
      "taf_trigger": false,
      "metar": "METAR ENZV 110650Z 13013KT CAVOK 00/M06 Q1020 NOSIG",
      "taf": "TAF ENZV 110500Z 1106/1206 13015KT 9999 SCT045"
    },
    {
      "icao": "EPGD",
      "alert": "OK",
      "vis_m": 5000,
      "fzfg": false,
      "metar_trigger": false,
      "taf_trigger": false,
      "metar": "METAR EPGD 110630Z 35011KT 5000 -SHSN DRSN FEW002 FEW015CB BKN023 M02/M04 Q1007",
      "taf": "TAF EPGD 110530Z 1106/1206 33012KT 3500 -SHSN DRSN BKN012 BKN016CB"
    },
    {
      "icao": "EPKK",
      "alert": "OK",
      "vis_m": 5000,
      "fzfg": false,
      "metar_trigger": false,
      "taf_trigger": false,
      "metar": "METAR EPKK 110630Z 27014KT 5000 -SN BR BKN014 M04/M06 Q1009 REBLSN",
      "taf": "TAF EPKK 110530Z 1106/1206 26012KT 5000 -SN BR BKN012 BKN015"
    },
    {
      "icao": "EPKT",
      "alert": "OK",
      "vis_m": 2200,
      "fzfg": false,
      "metar_trigger": false,
      "taf_trigger": false,
      "metar": "METAR EPKT 110630Z 28014KT 2200 SN DRSN FEW008 BKN015 M04/M06 Q1009",
      "taf": "TAF EPKT 110530Z 1106/1206 28012KT 3500 -SN BR BKN014 BKN017"
    },
    {
      "icao": "EPLB",
      "alert": "OK",
      "vis_m": 3600,
      "fzfg": false,
      "metar_trigger": false,
      "taf_trigger": false,
      "metar": "METAR EPLB 110630Z 28006KT 3600 -SN BR FEW021 SCT031 BKN043 M07/M08 Q1005",
      "taf": "TAF EPLB 110530Z 1106/1206 29008KT 7000 -SN BKN030"
    },
    {
      "icao": "EPMO",
      "alert": "OK",
      "vis_m": 9999,
      "fzfg": false,
      "metar_trigger": false,
      "taf_trigger": false,
      "metar": "METAR EPMO 110630Z 28007KT 9999 -SN BKN047 M05/M06 Q1006",
      "taf": "TAF EPMO 110530Z 1106/1206 30010KT 9999 BKN025"
    },
    {
      "icao": "EPPO",
      "alert": "OK",
      "vis_m": 8000,
      "fzfg": false,
      "metar_trigger": false,
      "taf_trigger": false,
      "metar": "METAR EPPO 110630Z 29013KT 8000 -SN DRSN BKN009 M03/M05 Q1013 RESN REBLSN",
      "taf": "TAF EPPO 110530Z 1106/1206 30014KT 9999 -SN BKN020"
    },
    {
      "icao": "EPRA",
      "alert": "OK",
      "vis_m": 7000,
      "fzfg": false,
      "metar_trigger": false,
      "taf_trigger": false,
      "metar": "METAR EPRA 110630Z 31008KT 7000 -SN BKN022 M05/M06 Q1006",
      "taf": "TAF EPRA 110530Z 1106/1115 31010KT 8000 -SN BKN020"
    },
    {
      "icao": "EPRZ",
      "alert": "OK",
      "vis_m": 4000,
      "fzfg": false,
      "metar_trigger": false,
      "taf_trigger": false,
      "metar": "METAR EPRZ 110630Z COR 26013KT 4000 -SN BR FEW014 OVC023 M05/M07 Q1006",
      "taf": "TAF EPRZ 110530Z 1106/1206 26014KT 6000 -SN BKN014 BKN017"
    },
    {
      "icao": "EPSC",
      "alert": "OK",
      "vis_m": 9999,
      "fzfg": false,
      "metar_trigger": false,
      "taf_trigger": false,
      "metar": "METAR EPSC 110630Z 32012KT 9999 BKN027 M01/M07 Q1016",
      "taf": "TAF EPSC 110530Z 1106/1206 30012KT CAVOK"
    },
    {
      "icao": "EPSY",
      "alert": "OK",
      "vis_m": 9999,
      "fzfg": false,
      "metar_trigger": false,
      "taf_trigger": false,
      "metar": "METAR EPSY 110630Z 28003KT 260V330 9999 -SN BKN030 M07/M08 Q1005",
      "taf": "TAF EPSY 110530Z 1106/1115 32007KT 9999 BKN030"
    },
    {
      "icao": "EPWA",
      "alert": "OK",
      "vis_m": 6000,
      "fzfg": false,
      "metar_trigger": false,
      "taf_trigger": false,
      "metar": "METAR EPWA 110630Z 30007KT 280V340 6000 -SN FEW030 M05/M06 Q1006 TEMPO 4000 SN BKN008",
      "taf": "TAF EPWA 110530Z 1106/1206 30008KT 9999 BKN025"
    },
    {
      "icao": "EPWR",
      "alert": "OK",
      "vis_m": 9999,
      "fzfg": false,
      "metar_trigger": false,
      "taf_trigger": false,
      "metar": "METAR EPWR 110630Z 29016KT 9999 BKN017 M04/M07 Q1014",
      "taf": "TAF EPWR 110530Z 1106/1206 29015KT 9999 -SN BKN020"
    },
    {
      "icao": "ESGG",
      "alert": "OK",
      "vis_m": 6000,
      "fzfg": false,
      "metar_trigger": false,
      "taf_trigger": false,
      "metar": "METAR ESGG 110650Z 35003KT 6000 VV002 M13/M15 Q1022",
      "taf": "TAF ESGG 110530Z 1106/1206 36006KT CAVOK"
    },
    {
      "icao": "ESKN",
      "alert": "OK",
      "vis_m": 9999,
      "fzfg": false,
      "metar_trigger": false,
      "taf_trigger": false,
      "metar": "METAR ESKN 110650Z 33014KT CAVOK M08/M09 Q1018",
      "taf": "TAF ESKN 110530Z 1106/1206 35015KT 9999 SCT010"
    },
    {
      "icao": "ESMS",
      "alert": "OK",
      "vis_m": 9999,
      "fzfg": false,
      "metar_trigger": false,
      "taf_trigger": false,
      "metar": "METAR ESMS 110650Z 31009KT CAVOK M10/M13 Q1020",
      "taf": "TAF ESMS 110527Z 1106/1206 32010KT CAVOK"
    },
    {
      "icao": "ESSA",
      "alert": "OK",
      "vis_m": 9999,
      "fzfg": false,
      "metar_trigger": false,
      "taf_trigger": false,
      "metar": "METAR ESSA 110650Z 33014KT CAVOK M06/M08 Q1017 NOSIG",
      "taf": "TAF ESSA 110530Z 1106/1206 33014KT 9999 FEW008"
    },
    {
      "icao": "EYKA",
      "alert": "OK",
      "vis_m": 6000,
      "fzfg": false,
      "metar_trigger": false,
      "taf_trigger": false,
      "metar": "METAR EYKA 110650Z 28002KT 6000 -SN NSC M13/M15 Q1005",
      "taf": "TAF EYKA 110512Z 1106/1206 VRB03KT 5000 SN BKN030"
    },
    {
      "icao": "EYPA",
      "alert": "OK",
      "vis_m": 9999,
      "fzfg": false,
      "metar_trigger": false,
      "taf_trigger": false,
      "metar": "METAR EYPA 110650Z 36004KT 330V030 9999 FEW016 M04/M07 Q1007",
      "taf": "TAF EYPA 110511Z 1106/1206 02007KT 7000 BKN030"
    },
    {
      "icao": "EYVI",
      "alert": "OK",
      "vis_m": 8000,
      "fzfg": false,
      "metar_trigger": false,
      "taf_trigger": false,
      "metar": "METAR EYVI 110650Z 32003KT 8000 -SN SCT011 M15/M17 Q1003 TEMPO 3000 SN BKN010",
      "taf": "TAF EYVI 110503Z 1106/1206 VRB03KT 5000 SN BKN025"
    },
    {
      "icao": "GCFV",
      "alert": "OK",
      "vis_m": 9999,
      "fzfg": false,
      "metar_trigger": false,
      "taf_trigger": false,
      "metar": "METAR GCFV 110630Z 04014KT 9999 SCT025 BKN035 18/12 Q1025",
      "taf": "TAF GCFV 110200Z 1103/1203 05012KT 9999 BKN025 TX20/1114Z TN14/1106Z"
    },
    {
      "icao": "GCLP",
      "alert": "OK",
      "vis_m": 9999,
      "fzfg": false,
      "metar_trigger": false,
      "taf_trigger": false,
      "metar": "METAR GCLP 110630Z 02010KT 350V050 9999 FEW025 BKN034 17/12 Q1025 NOSIG",
      "taf": "TAF GCLP 110200Z 1103/1203 01012KT 9999 BKN030 TX21/1114Z TN15/1106Z"
    },
    {
      "icao": "GCTS",
      "alert": "OK",
      "vis_m": 9999,
      "fzfg": false,
      "metar_trigger": false,
      "taf_trigger": false,
      "metar": "METAR GCTS 110630Z 36006KT 9999 SCT040 15/08 Q1025 NOSIG",
      "taf": "TAF GCTS 110200Z 1103/1203 03008KT 9999 FEW040 TX23/1114Z TN16/1106Z"
    },
    {
      "icao": "GMAD",
      "alert": "OK",
      "vis_m": 9999,
      "fzfg": false,
      "metar_trigger": false,
      "taf_trigger": false,
      "metar": "METAR GMAD 110630Z 08006KT CAVOK 06/06 Q1024 NOSIG",
      "taf": "TAF GMAD 110500Z 1106/1212 05006KT CAVOK"
    },
    {
      "icao": "GMMN",
      "alert": "OK",
      "vis_m": 9999,
      "fzfg": false,
      "metar_trigger": false,
      "taf_trigger": false,
      "metar": "METAR GMMN 110630Z 06007KT 9999 SCT023 08/07 Q1026 NOSIG",
      "taf": "TAF GMMN 110500Z 1106/1212 04007KT 9999 SCT023"
    },
    {
      "icao": "GMMX",
      "alert": "OK",
      "vis_m": 9999,
      "fzfg": false,
      "metar_trigger": false,
      "taf_trigger": false,
      "metar": "METAR GMMX 110630Z VRB02KT CAVOK 06/05 Q1025 NOSIG",
      "taf": "TAF GMMX 110500Z 1106/1212 06005KT CAVOK"
    },
    {
      "icao": "HEGN",
      "alert": "OK",
      "vis_m": 9999,
      "fzfg": false,
      "metar_trigger": false,
      "taf_trigger": false,
      "metar": "METAR HEGN 110600Z 28006KT CAVOK 14/05 Q1019 NOSIG",
      "taf": "TAF HEGN 110500Z 1106/1212 32015KT CAVOK"
    },
    {
      "icao": "HEMA",
      "alert": "OK",
      "vis_m": 9999,
      "fzfg": false,
      "metar_trigger": false,
      "taf_trigger": false,
      "metar": "METAR HEMA 110600Z 28010KT CAVOK 17/10 Q1018 NOSIG",
      "taf": "TAF HEMA 110500Z 1106/1212 33016KT CAVOK"
    },
    {
      "icao": "HESH",
      "alert": "OK",
      "vis_m": 9999,
      "fzfg": false,
      "metar_trigger": false,
      "taf_trigger": false,
      "metar": "METAR HESH 110600Z 33007KT CAVOK 18/07 Q1018 NOSIG",
      "taf": "TAF HESH 110500Z 1106/1212 34014KT CAVOK"
    },
    {
      "icao": "HESX",
      "alert": "OK",
      "vis_m": 9999,
      "fzfg": false,
      "metar_trigger": false,
      "taf_trigger": false,
      "metar": "METAR HESX 110600Z 19002KT CAVOK 12/07 Q1018 NOSIG",
      "taf": "TAF HESX 110500Z 1106/1212 23009KT CAVOK"
    },
    {
      "icao": "LATI",
      "alert": "OK",
      "vis_m": 9999,
      "fzfg": false,
      "metar_trigger": false,
      "taf_trigger": false,
      "metar": "METAR LATI 110650Z 08004KT 9999 SCT095 04/02 Q1006 NOSIG",
      "taf": "TAF LATI 110500Z 1106/1206 VRB04KT CAVOK TX08/1112Z TNM04/1205Z"
    },
    {
      "icao": "LBPD",
      "alert": "OK",
      "vis_m": 9999,
      "fzfg": false,
      "metar_trigger": false,
      "taf_trigger": false,
      "metar": "METAR LBPD 110630Z AUTO 28015KT 9999 SCT059/// BKN074/// OVC110/// 05/M01 Q1004 NOSIG",
      "taf": "TAF LBPD 110500Z 1106/1206 28015G28KT 9999 SCT020 BKN050"
    },
    {
      "icao": "LBSF",
      "alert": "OK",
      "vis_m": 8000,
      "fzfg": false,
      "metar_trigger": false,
      "taf_trigger": false,
      "metar": "METAR LBSF 110630Z 28015KT 8000 -SN SCT011 SCT022 OVC027 M01/M03 Q1006 TEMPO 2500 SN BKN010",
      "taf": "TAF LBSF 110500Z 1106/1206 28015KT 5000 SN BKN008 OVC020"
    },
    {
      "icao": "LBWN",
      "alert": "OK",
      "vis_m": 9999,
      "fzfg": false,
      "metar_trigger": false,
      "taf_trigger": false,
      "metar": "METAR LBWN 110630Z VRB06KT 9999 FEW018 OVC039 M02/M05 Q1006 TEMPO 3000 SN BKN010",
      "taf": "TAF LBWN 110500Z 1106/1206 36018G30KT 4000 SN BKN010 OVC020"
    },
    {
      "icao": "LCLK",
      "alert": "OK",
      "vis_m": 9999,
      "fzfg": false,
      "metar_trigger": false,
      "taf_trigger": false,
      "metar": "METAR LCLK 110630Z VRB02KT 9999 FEW020 FEW025TCU 18/13 Q1016 BECMG 22020KT",
      "taf": "TAF LCLK 110530Z 1106/1206 22020KT 9999 FEW020"
    },
    {
      "icao": "LCPH",
      "alert": "OK",
      "vis_m": 9999,
      "fzfg": false,
      "metar_trigger": false,
      "taf_trigger": false,
      "metar": "METAR LCPH 110630Z 24010KT 9999 FEW030 18/11 Q1015 NOSIG",
      "taf": "TAF LCPH 110530Z 1106/1206 22022KT 9999 SCT020 SCT040"
    },
    {
      "icao": "LEAL",
      "alert": "OK",
      "vis_m": 9999,
      "fzfg": false,
      "metar_trigger": false,
      "taf_trigger": false,
      "metar": "METAR LEAL 110630Z 29010KT 260V320 CAVOK 11/01 Q1025 NOSIG",
      "taf": "TAF LEAL 110500Z 1106/1206 29008KT CAVOK TX17/1114Z TN07/1106Z"
    },
    {
      "icao": "LEBB",
      "alert": "OK",
      "vis_m": 9999,
      "fzfg": false,
      "metar_trigger": false,
      "taf_trigger": false,
      "metar": "METAR LEBB 110630Z 11004KT 070V130 9999 FEW068 04/04 Q1023 NOSIG",
      "taf": "TAF LEBB 110500Z 1106/1206 14008KT 9999 FEW040 SCT060 TX14/1114Z TN05/1106Z"
    },
    {
      "icao": "LEBL",
      "alert": "OK",
      "vis_m": 9999,
      "fzfg": false,
      "metar_trigger": false,
      "taf_trigger": false,
      "metar": "METAR LEBL 110630Z 33013KT 290V350 9999 FEW030 06/02 Q1023 NOSIG",
      "taf": "TAF LEBL 110500Z 1106/1206 35009KT 9999 FEW020 TX13/1113Z TN05/1106Z"
    },
    {
      "icao": "LECH",
      "alert": "OK",
      "vis_m": 9999,
      "fzfg": false,
      "metar_trigger": false,
      "taf_trigger": false,
      "metar": "METAR LECH 110630Z AUTO 14003KT 090V190 CAVOK 07/M01 Q1023",
      "taf": ""
    },
    {
      "icao": "LEMD",
      "alert": "OK",
      "vis_m": 9999,
      "fzfg": false,
      "metar_trigger": false,
      "taf_trigger": false,
      "metar": "METAR LEMD 110630Z VRB01KT CAVOK M03/M03 Q1026 NOSIG",
      "taf": "TAF LEMD 110500Z 1106/1212 VRB03KT CAVOK TX10/1114Z TNM03/1106Z"
    },
    {
      "icao": "LEMG",
      "alert": "OK",
      "vis_m": 9999,
      "fzfg": false,
      "metar_trigger": false,
      "taf_trigger": false,
      "metar": "METAR LEMG 110630Z 29009KT 260V320 CAVOK 10/04 Q1026 NOSIG",
      "taf": "TAF LEMG 110500Z 1106/1206 29012KT CAVOK TX17/1114Z TN06/1107Z"
    },
    {
      "icao": "LEVC",
      "alert": "OK",
      "vis_m": 9999,
      "fzfg": false,
      "metar_trigger": false,
      "taf_trigger": false,
      "metar": "METAR LEVC 110630Z 28005KT CAVOK 03/M00 Q1024 NOSIG",
      "taf": "TAF LEVC 110500Z 1106/1206 27008KT CAVOK TX16/1114Z TN04/1106Z"
    },
    {
      "icao": "LEXJ",
      "alert": "OK",
      "vis_m": 9999,
      "fzfg": false,
      "metar_trigger": false,
      "taf_trigger": false,
      "metar": "METAR LEXJ 110630Z 18003KT 9999 FEW082 05/03 Q1022",
      "taf": "TAF LEXJ 110200Z 1103/1203 22009KT 9999 FEW040 SCT060 TX16/1113Z TN07/1103Z"
    },
    {
      "icao": "LEZG",
      "alert": "OK",
      "vis_m": 9999,
      "fzfg": false,
      "metar_trigger": false,
      "taf_trigger": false,
      "metar": "METAR LEZG 110630Z 26005G17KT CAVOK 04/00 Q1024 NOSIG",
      "taf": "TAF LEZG 110500Z 1106/1206 24009KT 9999 FEW020 TX12/1115Z TN03/1106Z"
    },
    {
      "icao": "LEZL",
      "alert": "OK",
      "vis_m": 9999,
      "fzfg": false,
      "metar_trigger": false,
      "taf_trigger": false,
      "metar": "METAR LEZL 110630Z VRB01KT CAVOK 05/05 Q1028 NOSIG",
      "taf": "TAF LEZL 110200Z 1103/1203 06004KT CAVOK TX15/1115Z TN04/1107Z"
    },
    {
      "icao": "LFBD",
      "alert": "OK",
      "vis_m": 650,
      "fzfg": false,
      "metar_trigger": false,
      "taf_trigger": false,
      "metar": "METAR LFBD 110630Z AUTO 13004KT 0650 0550 R23/0650N R05/1000D R29/0750N FG VV/// 01/01 Q1024",
      "taf": ""
    },
    {
      "icao": "LFLL",
      "alert": "OK",
      "vis_m": 9999,
      "fzfg": false,
      "metar_trigger": false,
      "taf_trigger": false,
      "metar": "METAR LFLL 110630Z 03004KT 340V070 9999 BKN027 01/M00 Q1024 NOSIG",
      "taf": "TAF LFLL 110500Z 1106/1212 34005KT 9999 BKN028"
    },
    {
      "icao": "LFLS",
      "alert": "OK",
      "vis_m": 9999,
      "fzfg": false,
      "metar_trigger": false,
      "taf_trigger": false,
      "metar": "METAR LFLS 110630Z AUTO 34008KT 320V020 9999 BKN043 BKN049 BKN056 00/M02 Q1023 TEMPO 2500 BR BKN006",
      "taf": "TAF LFLS 110200Z 1103/1203 33008KT 9999 FEW013 BKN030"
    },
    {
      "icao": "LFMN",
      "alert": "OK",
      "vis_m": 9999,
      "fzfg": false,
      "metar_trigger": false,
      "taf_trigger": false,
      "metar": "METAR LFMN 110630Z 33013KT CAVOK 06/M08 Q1015 NOSIG",
      "taf": "TAF LFMN 110200Z 1103/1209 33010KT CAVOK"
    },
    {
      "icao": "LFOB",
      "alert": "OK",
      "vis_m": 9000,
      "fzfg": false,
      "metar_trigger": false,
      "taf_trigger": false,
      "metar": "METAR LFOB 110630Z AUTO 13005KT 9000 NSC M01/M02 Q1023 NOSIG",
      "taf": "TAF LFOB 110500Z 1106/1206 18008KT 9999 BKN020"
    },
    {
      "icao": "LFPO",
      "alert": "OK",
      "vis_m": 9999,
      "fzfg": false,
      "metar_trigger": false,
      "taf_trigger": false,
      "metar": "METAR LFPO 110630Z AUTO 19003KT CAVOK M01/M02 Q1024",
      "taf": "TAF LFPO 110500Z 1106/1212 19005KT CAVOK"
    },
    {
      "icao": "LFSB",
      "alert": "OK",
      "vis_m": 6000,
      "fzfg": false,
      "metar_trigger": false,
      "taf_trigger": false,
      "metar": "METAR LFSB 110630Z AUTO VRB01KT 6000 BKN012 BKN017 OVC024 M00/M01 Q1024 NOSIG",
      "taf": "TAF LFSB 110500Z 1106/1206 30004KT 9999 FEW010 OVC025"
    },
    {
      "icao": "LGAV",
      "alert": "OK",
      "vis_m": 9999,
      "fzfg": false,
      "metar_trigger": false,
      "taf_trigger": false,
      "metar": "METAR LGAV 110650Z 27011KT 9999 FEW020 11/03 Q1004 NOSIG",
      "taf": "TAF LGAV 110500Z 1106/1206 24012KT 9999 SCT025 SCT070"
    },
    {
      "icao": "LGTS",
      "alert": "OK",
      "vis_m": 9999,
      "fzfg": false,
      "metar_trigger": false,
      "taf_trigger": false,
      "metar": "METAR LGTS 110650Z 33011KT 9999 FEW015 SCT030 06/02 Q1004 NOSIG",
      "taf": "TAF LGTS 110500Z 1106/1206 34015KT 9999 SCT030"
    },
    {
      "icao": "LHBP",
      "alert": "OK",
      "vis_m": 9999,
      "fzfg": false,
      "metar_trigger": false,
      "taf_trigger": false,
      "metar": "METAR LHBP 110630Z 32008G21KT 9999 DRSN NSC M09/M11 Q1013 NOSIG",
      "taf": "TAF LHBP 110515Z 1106/1206 30012KT CAVOK"
    },
    {
      "icao": "LHDC",
      "alert": "OK",
      "vis_m": null,
      "fzfg": false,
      "metar_trigger": false,
      "taf_trigger": false,
      "metar": "",
      "taf": "TAF LHDC 110515Z 1106/1115 VRB02KT 9999 BKN008"
    },
    {
      "icao": "LIBD",
      "alert": "OK",
      "vis_m": 9999,
      "fzfg": false,
      "metar_trigger": false,
      "taf_trigger": false,
      "metar": "METAR LIBD 110620Z 27013KT 9999 SCT015 SCT030 06/02 Q1008",
      "taf": "TAF LIBD 110500Z 1106/1206 29014KT 9999 FEW040"
    },
    {
      "icao": "LIBG",
      "alert": "OK",
      "vis_m": null,
      "fzfg": false,
      "metar_trigger": false,
      "taf_trigger": false,
      "metar": "",
      "taf": ""
    },
    {
      "icao": "LIBP",
      "alert": "OK",
      "vis_m": 9999,
      "fzfg": false,
      "metar_trigger": false,
      "taf_trigger": false,
      "metar": "METAR LIBP 110620Z AUTO 24004KT 9999 OVC033/// 03/01 Q1014 RERA",
      "taf": "TAF LIBP 110500Z 1106/1206 23007KT 9999 SCT040"
    },
    {
      "icao": "LIBR",
      "alert": "OK",
      "vis_m": 9999,
      "fzfg": false,
      "metar_trigger": false,
      "taf_trigger": false,
      "metar": "METAR LIBR 110620Z 28014KT 9999 -RA BKN035 07/03 Q1007 RERA",
      "taf": "TAF LIBR 110500Z 1106/1206 31015KT 9999 SCT040"
    },
    {
      "icao": "LICA",
      "alert": "OK",
      "vis_m": 9999,
      "fzfg": false,
      "metar_trigger": false,
      "taf_trigger": false,
      "metar": "METAR LICA 110620Z AUTO 09007KT 9999 NCD 03/02 Q1009",
      "taf": "TAF LICA 110500Z 1106/1206 VRB05KT 9999 SCT020"
    },
    {
      "icao": "LICC",
      "alert": "OK",
      "vis_m": 9999,
      "fzfg": false,
      "metar_trigger": false,
      "taf_trigger": false,
      "metar": "METAR LICC 110620Z 26008KT 9999 FEW090 06/02 Q1011",
      "taf": "TAF LICC 110500Z 1106/1206 26017KT 9999 SCT040"
    },
    {
      "icao": "LICJ",
      "alert": "OK",
      "vis_m": 9999,
      "fzfg": false,
      "metar_trigger": false,
      "taf_trigger": false,
      "metar": "METAR LICJ 110620Z 32016KT 9999 BKN050 12/06 Q1012",
      "taf": "TAF LICJ 110500Z 1106/1206 30020G30KT 9999 SCT030"
    },
    {
      "icao": "LIMC",
      "alert": "OK",
      "vis_m": 9999,
      "fzfg": false,
      "metar_trigger": false,
      "taf_trigger": false,
      "metar": "METAR LIMC 110620Z 33007KT CAVOK 05/M07 Q1015 NOSIG",
      "taf": "TAF LIMC 110500Z 1106/1212 01007KT CAVOK"
    },
    {
      "icao": "LIME",
      "alert": "OK",
      "vis_m": 9999,
      "fzfg": false,
      "metar_trigger": false,
      "taf_trigger": false,
      "metar": "METAR LIME 110620Z 02006KT 340V040 CAVOK 00/M09 Q1014 NOSIG",
      "taf": "TAF LIME 110500Z 1106/1206 VRB06KT CAVOK"
    },
    {
      "icao": "LIMF",
      "alert": "OK",
      "vis_m": 9999,
      "fzfg": false,
      "metar_trigger": false,
      "taf_trigger": false,
      "metar": "METAR LIMF 110620Z 28003KT CAVOK M00/M10 Q1015",
      "taf": "TAF LIMF 110500Z 1106/1206 VRB05KT CAVOK"
    },
    {
      "icao": "LIMJ",
      "alert": "OK",
      "vis_m": 9999,
      "fzfg": false,
      "metar_trigger": false,
      "taf_trigger": false,
      "metar": "METAR LIMJ 110620Z 12005KT 080V180 CAVOK 09/M07 Q1014",
      "taf": "TAF LIMJ 110500Z 1106/1206 03012KT CAVOK"
    },
    {
      "icao": "LIPE",
      "alert": "OK",
      "vis_m": 9999,
      "fzfg": false,
      "metar_trigger": false,
      "taf_trigger": false,
      "metar": "METAR LIPE 110620Z 21004KT CAVOK M01/M05 Q1015",
      "taf": "TAF LIPE 110500Z 1106/1206 VRB06KT CAVOK"
    },
    {
      "icao": "LIPH",
      "alert": "OK",
      "vis_m": 9999,
      "fzfg": false,
      "metar_trigger": false,
      "taf_trigger": false,
      "metar": "METAR LIPH 110620Z 28003KT 240V010 CAVOK M02/M05 Q1014",
      "taf": "TAF LIPH 110500Z 1106/1206 VRB05KT CAVOK"
    },
    {
      "icao": "LIPQ",
      "alert": "OK",
      "vis_m": 9999,
      "fzfg": false,
      "metar_trigger": false,
      "taf_trigger": false,
      "metar": "METAR LIPQ 110620Z AUTO 34003KT 280V040 9999 NCD M04/M06 Q1014",
      "taf": "TAF LIPQ 110500Z 1106/1206 VRB05KT CAVOK"
    },
    {
      "icao": "LIPR",
      "alert": "OK",
      "vis_m": 9999,
      "fzfg": false,
      "metar_trigger": false,
      "taf_trigger": false,
      "metar": "METAR LIPR 110620Z 28004KT 9999 BKN030 00/M03 Q1014",
      "taf": "TAF LIPR 110500Z 1106/1206 28010KT 9999 FEW040"
    },
    {
      "icao": "LIPX",
      "alert": "OK",
      "vis_m": 9999,
      "fzfg": false,
      "metar_trigger": false,
      "taf_trigger": false,
      "metar": "METAR LIPX 110620Z 35003KT CAVOK M04/M07 Q1014",
      "taf": "TAF LIPX 110500Z 1106/1206 VRB05KT CAVOK"
    },
    {
      "icao": "LIPY",
      "alert": "OK",
      "vis_m": 9999,
      "fzfg": false,
      "metar_trigger": false,
      "taf_trigger": false,
      "metar": "METAR LIPY 110620Z AUTO 24005KT 9999 BKN072/// 02/01 Q1015",
      "taf": "TAF LIPY 110500Z 1106/1206 28007KT 9999 FEW040"
    },
    {
      "icao": "LIPZ",
      "alert": "OK",
      "vis_m": 9999,
      "fzfg": false,
      "metar_trigger": false,
      "taf_trigger": false,
      "metar": "METAR LIPZ 110620Z 30006KT 280V350 CAVOK 01/M03 Q1014 NOSIG",
      "taf": "TAF LIPZ 110500Z 1106/1212 VRB05KT CAVOK"
    },
    {
      "icao": "LIRF",
      "alert": "OK",
      "vis_m": 9999,
      "fzfg": false,
      "metar_trigger": false,
      "taf_trigger": false,
      "metar": "METAR LIRF 110620Z 07006KT CAVOK 01/M01 Q1012 NOSIG",
      "taf": "TAF LIRF 110500Z 1106/1212 03007KT 9999 SCT030"
    },
    {
      "icao": "LIRN",
      "alert": "OK",
      "vis_m": 9999,
      "fzfg": false,
      "metar_trigger": false,
      "taf_trigger": false,
      "metar": "METAR LIRN 110620Z 33003KT 290V010 CAVOK 04/01 Q1011 NOSIG",
      "taf": "TAF LIRN 110500Z 1106/1206 05005KT 9999 SCT030"
    },
    {
      "icao": "LIRP",
      "alert": "OK",
      "vis_m": 9999,
      "fzfg": false,
      "metar_trigger": false,
      "taf_trigger": false,
      "metar": "METAR LIRP 110615Z 15005KT CAVOK M02/M02 Q1013 NOSIG",
      "taf": "TAF LIRP 110500Z 1106/1206 10005KT CAVOK"
    },
    {
      "icao": "LIRZ",
      "alert": "OK",
      "vis_m": 9999,
      "fzfg": false,
      "metar_trigger": false,
      "taf_trigger": false,
      "metar": "METAR LIRZ 110620Z AUTO 36005KT 330V040 9999 NCD M01/M03 Q1013",
      "taf": "TAF LIRZ 110500Z 1106/1206 VRB05KT 9999 FEW030"
    },
    {
      "icao": "LJLJ",
      "alert": "OK",
      "vis_m": 5000,
      "fzfg": false,
      "metar_trigger": false,
      "taf_trigger": false,
      "metar": "METAR LJLJ 110630Z 12010KT 5000 -SN BR FEW003 BKN013 BKN023 M04/M05 Q1017 NOSIG",
      "taf": ""
    },
    {
      "icao": "LKMT",
      "alert": "OK",
      "vis_m": 1500,
      "fzfg": false,
      "metar_trigger": false,
      "taf_trigger": false,
      "metar": "METAR LKMT 110630Z 22009KT 1500 SN SCT020 OVC026 M05/M06 Q1013 NOSIG",
      "taf": "TAF LKMT 110500Z 1106/1206 34012KT 9999 BKN030"
    },
    {
      "icao": "LKPR",
      "alert": "OK",
      "vis_m": 9999,
      "fzfg": false,
      "metar_trigger": false,
      "taf_trigger": false,
      "metar": "METAR LKPR 110630Z 26011KT CAVOK M08/M10 Q1019 NOSIG",
      "taf": ""
    },
    {
      "icao": "LLBG",
      "alert": "OK",
      "vis_m": 9999,
      "fzfg": false,
      "metar_trigger": false,
      "taf_trigger": false,
      "metar": "METAR LLBG 110650Z VRB01KT CAVOK 14/08 Q1019 NOSIG",
      "taf": "TAF LLBG 110501Z 1106/1206 VRB04KT CAVOK"
    },
    {
      "icao": "LMML",
      "alert": "OK",
      "vis_m": 9999,
      "fzfg": false,
      "metar_trigger": false,
      "taf_trigger": false,
      "metar": "METAR LMML 110645Z 29022G39KT 9999 FEW030TCU 12/03 Q1014 NOSIG",
      "taf": "TAF LMML 110500Z 1106/1206 30028G38KT 9999 FEW015 SCT045"
    },
    {
      "icao": "LOWW",
      "alert": "OK",
      "vis_m": 9999,
      "fzfg": false,
      "metar_trigger": false,
      "taf_trigger": false,
      "metar": "METAR LOWW 110650Z 30019KT 9999 FEW024 BKN048 M04/M08 Q1018 NOSIG",
      "taf": "TAF LOWW 110515Z 1106/1212 30015G25KT CAVOK TXM03/1113Z TNM08/1206Z"
    },
    {
      "icao": "LPFR",
      "alert": "OK",
      "vis_m": 9999,
      "fzfg": false,
      "metar_trigger": false,
      "taf_trigger": false,
      "metar": "METAR LPFR 110630Z 02006KT CAVOK 08/07 Q1028",
      "taf": "TAF LPFR 110500Z 1106/1206 VRB02KT CAVOK"
    },
    {
      "icao": "LPMA",
      "alert": "OK",
      "vis_m": 9999,
      "fzfg": false,
      "metar_trigger": false,
      "taf_trigger": false,
      "metar": "METAR LPMA 110630Z 31005KT 9999 FEW015 13/10 Q1027",
      "taf": "TAF LPMA 110500Z 1106/1206 VRB05KT 9999 SCT015"
    },
    {
      "icao": "LPPR",
      "alert": "OK",
      "vis_m": 8000,
      "fzfg": false,
      "metar_trigger": false,
      "taf_trigger": false,
      "metar": "METAR LPPR 110630Z 16015KT 8000 -RADZ BKN005 11/11 Q1024",
      "taf": "TAF LPPR 110500Z 1106/1206 18012KT 8000 -RA SCT006 BKN015"
    },
    {
      "icao": "LPPS",
      "alert": "OK",
      "vis_m": 9999,
      "fzfg": false,
      "metar_trigger": false,
      "taf_trigger": false,
      "metar": "METAR LPPS 110630Z 36005KT 9999 FEW015 13/12 Q1027",
      "taf": "TAF LPPS 110500Z 1106/1212 VRB05KT 9999 SCT015"
    },
    {
      "icao": "LPPT",
      "alert": "OK",
      "vis_m": 6000,
      "fzfg": false,
      "metar_trigger": false,
      "taf_trigger": false,
      "metar": "METAR LPPT 110630Z VRB02KT 6000 FEW001 BKN010 09/09 Q1026",
      "taf": "TAF LPPT 110500Z 1106/1212 VRB02KT 9999 SCT012 BKN025"
    },
    {
      "icao": "LQBK",
      "alert": "OK",
      "vis_m": 9999,
      "fzfg": false,
      "metar_trigger": false,
      "taf_trigger": false,
      "metar": "METAR LQBK 110630Z 28004KT CAVOK M07/M09 Q1019 NOSIG",
      "taf": "TAF LQBK 110500Z 1106/1206 29007KT 9999 SCT040 TXM01/1113Z TNM12/1206Z"
    },
    {
      "icao": "LQSA",
      "alert": "OK",
      "vis_m": 9999,
      "fzfg": false,
      "metar_trigger": false,
      "taf_trigger": false,
      "metar": "METAR LQSA 110630Z 31008KT 9999 BKN035 M03/M07 Q1013 NOSIG",
      "taf": "TAF LQSA 110500Z 1106/1206 29006KT 9999 BKN020 TXM02/1106Z TNM14/1206Z"
    },
    {
      "icao": "LQTZ",
      "alert": "OK",
      "vis_m": 9999,
      "fzfg": false,
      "metar_trigger": false,
      "taf_trigger": false,
      "metar": "METAR LQTZ 110630Z 29007KT 260V320 9999 OVC012 M04/M06 Q1017",
      "taf": "TAF LQTZ 110500Z 1106/1206 34007KT 9999 SCT010 BKN025 TXM01/1113Z TNM13/1206Z"
    },
    {
      "icao": "LRBC",
      "alert": "OK",
      "vis_m": 9999,
      "fzfg": false,
      "metar_trigger": false,
      "taf_trigger": false,
      "metar": "METAR LRBC 110630Z 33007KT 9999 BKN037 OVC055 M07/M13 Q1008",
      "taf": "TAF LRBC 110500Z 1106/1115 35012KT 9999 OVC045"
    },
    {
      "icao": "LRBS",
      "alert": "OK",
      "vis_m": 7000,
      "fzfg": false,
      "metar_trigger": false,
      "taf_trigger": false,
      "metar": "METAR LRBS 110630Z 06008KT 7000 -SN SCT012 OVC025 M05/M07 Q1009 TEMPO 3000 -SN BR",
      "taf": "TAF LRBS 110500Z 1106/1206 07008KT 7000 SCT015 OVC030"
    },
    {
      "icao": "LRBV",
      "alert": "OK",
      "vis_m": 2000,
      "fzfg": false,
      "metar_trigger": false,
      "taf_trigger": false,
      "metar": "METAR LRBV 110630Z 30014KT 2000 -SN BR FEW010 SCT016 BKN031 M05/M07 Q1005 RESN",
      "taf": "TAF LRBV 110500Z 1106/1115 30010KT 5000 -SN BR BKN008 OVC015"
    },
    {
      "icao": "LRCL",
      "alert": "OK",
      "vis_m": 9999,
      "fzfg": false,
      "metar_trigger": false,
      "taf_trigger": false,
      "metar": "METAR LRCL 110630Z 27009KT CAVOK M08/M14 Q1010",
      "taf": "TAF LRCL 110500Z 1106/1115 27010KT 9999 SCT040"
    },
    {
      "icao": "LRCV",
      "alert": "OK",
      "vis_m": 1200,
      "fzfg": false,
      "metar_trigger": false,
      "taf_trigger": false,
      "metar": "METAR LRCV 110630Z 15006KT 1200 R26/2000D -SN BR OVC002 M01/M01 Q1006",
      "taf": "TAF LRCV 110500Z 1106/1115 VRB04KT 3000 -SN BR BKN005 OVC025"
    },
    {
      "icao": "LRIA",
      "alert": "OK",
      "vis_m": 9999,
      "fzfg": false,
      "metar_trigger": false,
      "taf_trigger": false,
      "metar": "METAR LRIA 110630Z 28004KT CAVOK M08/M12 Q1008",
      "taf": "TAF LRIA 110500Z 1106/1115 31008KT 9999 BKN040"
    },
    {
      "icao": "LROP",
      "alert": "OK",
      "vis_m": 4000,
      "fzfg": false,
      "metar_trigger": false,
      "taf_trigger": false,
      "metar": "METAR LROP 110630Z 08007KT 4000 -SN BR OVC012 M05/M06 Q1008 NOSIG",
      "taf": "TAF LROP 110500Z 1106/1206 07008KT 7000 SCT015 OVC030"
    },
    {
      "icao": "LRSB",
      "alert": "OK",
      "vis_m": 9000,
      "fzfg": false,
      "metar_trigger": false,
      "taf_trigger": false,
      "metar": "METAR LRSB 110630Z VRB02KT 9000 -SN FEW017 SCT030 OVC040 M06/M07 Q1008",
      "taf": "TAF LRSB 110500Z 1106/1206 35008KT 9999 BKN030"
    },
    {
      "icao": "LRSM",
      "alert": "OK",
      "vis_m": 9999,
      "fzfg": false,
      "metar_trigger": false,
      "taf_trigger": false,
      "metar": "METAR LRSM 110630Z 21005KT 9999 BKN040 M12/M15 Q1012",
      "taf": "TAF LRSM 110500Z 1106/1115 25005KT 9999 BKN040"
    },
    {
      "icao": "LRSV",
      "alert": "OK",
      "vis_m": 9999,
      "fzfg": false,
      "metar_trigger": false,
      "taf_trigger": false,
      "metar": "METAR LRSV 110630Z 23005KT 210V280 9999 SCT039 M10/M13 Q1005",
      "taf": "TAF LRSV 110500Z 1106/1115 28008KT 9999 BKN040"
    },
    {
      "icao": "LRTM",
      "alert": "OK",
      "vis_m": 9999,
      "fzfg": false,
      "metar_trigger": false,
      "taf_trigger": false,
      "metar": "METAR LRTM 110630Z VRB01KT 9999 FEW037 M10/M15 Q1009",
      "taf": "TAF LRTM 110500Z 1106/1115 VRB04KT 9999 SCT040"
    },
    {
      "icao": "LRTR",
      "alert": "OK",
      "vis_m": 9999,
      "fzfg": false,
      "metar_trigger": false,
      "taf_trigger": false,
      "metar": "METAR LRTR 110630Z 33010KT CAVOK M11/M14 Q1014",
      "taf": "TAF LRTR 110500Z 1106/1206 34015KT 9999 BKN040"
    },
    {
      "icao": "LTAC",
      "alert": "OK",
      "vis_m": 9999,
      "fzfg": false,
      "metar_trigger": false,
      "taf_trigger": false,
      "metar": "METAR LTAC 110650Z 21019KT 9999 -SHRA SCT040 BKN100 08/01 Q1003 NOSIG",
      "taf": "TAF LTAC 110440Z 1106/1206 21012KT 9999 SCT040 BKN100"
    },
    {
      "icao": "LTFM",
      "alert": "OK",
      "vis_m": 9000,
      "fzfg": false,
      "metar_trigger": false,
      "taf_trigger": false,
      "metar": "METAR LTFM 110650Z 36015KT 9000 -SHRA SCT009 BKN025 06/04 Q1004 NOSIG",
      "taf": "TAF LTFM 110440Z 1106/1212 01014KT 9999 -SHRA SCT035 BKN100"
    },
    {
      "icao": "LUKK",
      "alert": "OK",
      "vis_m": 9999,
      "fzfg": false,
      "metar_trigger": false,
      "taf_trigger": false,
      "metar": "METAR LUKK 110630Z 35010KT CAVOK M08/M13 Q1007 TEMPO 35016G26KT",
      "taf": "TAF LUKK 110503Z 1106/1206 34012KT 9999 BKN030"
    },
    {
      "icao": "LWOH",
      "alert": "OK",
      "vis_m": 8000,
      "fzfg": false,
      "metar_trigger": false,
      "taf_trigger": false,
      "metar": "METAR LWOH 110650Z 31010KT 280V340 8000 SN VV008 00/M01 Q1004",
      "taf": "TAF LWOH 110530Z 1106/1206 36012KT 9999 SCT025 BKN040 OVC060"
    },
    {
      "icao": "LWSK",
      "alert": "OK",
      "vis_m": 9999,
      "fzfg": false,
      "metar_trigger": false,
      "taf_trigger": false,
      "metar": "METAR LWSK 110650Z 03015KT 9999 FEW025 SCT040 BKN075 01/M02 Q1009 NOSIG",
      "taf": "TAF LWSK 110530Z 1106/1206 02015KT 9999 FEW020 BKN040 OVC070"
    },
    {
      "icao": "LYBE",
      "alert": "OK",
      "vis_m": 8000,
      "fzfg": false,
      "metar_trigger": false,
      "taf_trigger": false,
      "metar": "METAR LYBE 110630Z 30009KT 8000 NSC M06/M08 Q1015 NOSIG",
      "taf": "TAF LYBE 110500Z 1106/1206 35012KT 9999 SCT010 BKN030 TXM03/1112Z TNM05/1106Z"
    },
    {
      "icao": "LYNI",
      "alert": "OK",
      "vis_m": 9999,
      "fzfg": false,
      "metar_trigger": false,
      "taf_trigger": false,
      "metar": "METAR LYNI 110630Z 31016KT 9999 BKN010 BKN020 M02/M03 Q1011 NOSIG",
      "taf": "TAF LYNI 110500Z 1106/1206 35014KT 8000 SCT008 BKN025 TXM01/1106Z TNM07/1118Z"
    },
    {
      "icao": "LYPG",
      "alert": "OK",
      "vis_m": 9999,
      "fzfg": false,
      "metar_trigger": false,
      "taf_trigger": false,
      "metar": "METAR LYPG 110630Z 34015KT 320V020 9999 FEW050 06/M03 Q1008 NOSIG",
      "taf": "TAF LYPG 110500Z 1106/1206 36015KT 9999 FEW050 SCT080 TX09/1112Z TNM01/1205Z"
    },
    {
      "icao": "LZIB",
      "alert": "OK",
      "vis_m": 9999,
      "fzfg": false,
      "metar_trigger": false,
      "taf_trigger": false,
      "metar": "METAR LZIB 110630Z 29013KT 250V310 9999 FEW020 M04/M08 Q1016 NOSIG",
      "taf": "TAF LZIB 110515Z 1106/1206 29015KT 9999 SCT030"
    },
    {
      "icao": "LZKZ",
      "alert": "OK",
      "vis_m": 9999,
      "fzfg": false,
      "metar_trigger": false,
      "taf_trigger": false,
      "metar": "METAR LZKZ 110630Z VRB01KT CAVOK M14/M16 Q1009 NOSIG",
      "taf": "TAF LZKZ 110515Z 1106/1206 22005KT CAVOK"
    },
    {
      "icao": "LZTT",
      "alert": "OK",
      "vis_m": 8000,
      "fzfg": false,
      "metar_trigger": false,
      "taf_trigger": false,
      "metar": "METAR LZTT 110630Z 26019KT 8000 -SN DRSN FEW012 BKN040 M07/M10 Q1005 NOSIG",
      "taf": "TAF LZTT 110515Z 1106/1206 27018KT 9999 -SN DRSN FEW013 BKN030"
    },
    {
      "icao": "OEJN",
      "alert": "OK",
      "vis_m": 9999,
      "fzfg": false,
      "metar_trigger": false,
      "taf_trigger": false,
      "metar": "METAR OEJN 110600Z 01004KT CAVOK 24/12 Q1015",
      "taf": "TAF OEJN 110500Z 1106/1212 26008KT 7000 FEW040"
    },
    {
      "icao": "OEMA",
      "alert": "OK",
      "vis_m": 9999,
      "fzfg": false,
      "metar_trigger": false,
      "taf_trigger": false,
      "metar": "METAR OEMA 110600Z 06010KT CAVOK 16/02 Q1024 NOSIG",
      "taf": "TAF OEMA 110500Z 1106/1212 10012KT 7000 FEW040"
    },
    {
      "icao": "OJAI",
      "alert": "OK",
      "vis_m": 4000,
      "fzfg": false,
      "metar_trigger": false,
      "taf_trigger": false,
      "metar": "METAR OJAI 110600Z 10003KT 4000 HZ NSC 07/04 Q1021 NOSIG",
      "taf": "TAF OJAI 110500Z 1106/1212 14006KT 3000 BR NSC"
    },
    {
      "icao": "OMAA",
      "alert": "OK",
      "vis_m": 8000,
      "fzfg": false,
      "metar_trigger": false,
      "taf_trigger": false,
      "metar": "METAR OMAA 110600Z 13001KT 8000 NSC 21/12 Q1022 NOSIG",
      "taf": "TAF OMAA 110500Z 1106/1212 VRB02KT 8000 NSC"
    },
    {
      "icao": "OMDB",
      "alert": "OK",
      "vis_m": 9999,
      "fzfg": false,
      "metar_trigger": false,
      "taf_trigger": false,
      "metar": "METAR OMDB 110630Z 09003KT 010V140 CAVOK 23/14 Q1022 NOSIG",
      "taf": "TAF OMDB 110500Z 1106/1212 16005KT 8000 NSC"
    },
    {
      "icao": "UAAA",
      "alert": "OK",
      "vis_m": 3400,
      "fzfg": false,
      "metar_trigger": false,
      "taf_trigger": false,
      "metar": "METAR UAAA 110630Z 35003MPS 320V030 3400 BR FU SCT100 BKN200 05/M02 Q1017 NOSIG",
      "taf": "TAF UAAA 110508Z 1106/1206 03003G08MPS 3100 BR FU SCT050CB BKN100 TX06/1109Z TNM04/1201Z"
    },
    {
      "icao": "UBBB",
      "alert": "OK",
      "vis_m": 9999,
      "fzfg": false,
      "metar_trigger": false,
      "taf_trigger": false,
      "metar": "METAR UBBB 110630Z 19020G30KT CAVOK 09/05 Q1016 NOSIG",
      "taf": "TAF UBBB 110504Z 1106/1206 17018G28KT 9999 SCT008 BKN025 TX12/1110Z TN05/1202Z"
    },
    {
      "icao": "UDSG",
      "alert": "OK",
      "vis_m": 9999,
      "fzfg": false,
      "metar_trigger": false,
      "taf_trigger": false,
      "metar": "METAR UDSG 110630Z 06003KT 9999 SCT046 M14/M16 Q1021 NOSIG",
      "taf": "TAF UDSG 110458Z 1106/1206 VRB06KT 9999 SCT040"
    },
    {
      "icao": "UDYZ",
      "alert": "OK",
      "vis_m": 3500,
      "fzfg": false,
      "metar_trigger": false,
      "taf_trigger": false,
      "metar": "METAR UDYZ 110630Z 21002KT 3500 BR FEW046 M04/M06 Q1023 NOSIG",
      "taf": "TAF UDYZ 110500Z 1106/1206 VRB06KT 3500 BR FEW030"
    },
    {
      "icao": "UGKO",
      "alert": "OK",
      "vis_m": 9999,
      "fzfg": false,
      "metar_trigger": false,
      "taf_trigger": false,
      "metar": "METAR UGKO 110630Z 09023G34KT CAVOK 09/M03 Q1011 NOSIG",
      "taf": "TAF UGKO 110500Z 1106/1206 08017KT CAVOK TX14/1111Z TN09/1106Z"
    }
  ]
}