{
  "ts_utc": "2026-01-06T05:57:35Z",
  "threshold_m": 150,
  "source": "stations_override.txt (ICAO list) + aviationweather.gov (METAR/TAF raw)",
  "station_count": 159,
  "stations": [
    {
      "icao": "BIKF",
      "alert": "OK",
      "vis_m": 9999,
      "fzfg": false,
      "metar_trigger": false,
      "taf_trigger": false,
      "metar": "METAR BIKF 060532Z 07007KT CAVOK M04/M09 Q1019",
      "taf": "TAF BIKF 060439Z 0606/0706 07015KT CAVOK TXM01/0703Z TNM06/0610Z"
    },
    {
      "icao": "BKPR",
      "alert": "OK",
      "vis_m": null,
      "fzfg": false,
      "metar_trigger": false,
      "taf_trigger": false,
      "metar": "",
      "taf": "TAF BKPR 060530Z 0606/0706 17008KT 9999 SCT020 BKN040"
    },
    {
      "icao": "EBCI",
      "alert": "OK",
      "vis_m": 600,
      "fzfg": true,
      "metar_trigger": false,
      "taf_trigger": false,
      "metar": "METAR EBCI 060550Z 24006KT 0600 R24/1600U FZFG BKN001 BKN034 M04/M04 Q1015 TEMPO 0100 -SHSN FZFG",
      "taf": "TAF EBCI 060500Z 0606/0712 26007KT 9999 SCT006 BKN010"
    },
    {
      "icao": "EDDB",
      "alert": "OK",
      "vis_m": 9999,
      "fzfg": false,
      "metar_trigger": false,
      "taf_trigger": false,
      "metar": "METAR EDDB 060550Z AUTO 20005KT CAVOK M10/M11 Q1013 NOSIG",
      "taf": "TAF EDDB 060500Z 0606/0706 09004KT CAVOK"
    },
    {
      "icao": "EDDH",
      "alert": "OK",
      "vis_m": 5000,
      "fzfg": false,
      "metar_trigger": false,
      "taf_trigger": false,
      "metar": "METAR EDDH 060550Z AUTO 22005KT 200V270 5000 -SN BR BKN009 OVC018 M01/M02 Q1011 TEMPO 1500 -SHSN BKN004TCU",
      "taf": "TAF EDDH 060500Z 0606/0712 20005KT 8000 OVC007"
    },
    {
      "icao": "EDDK",
      "alert": "OK",
      "vis_m": 9999,
      "fzfg": false,
      "metar_trigger": false,
      "taf_trigger": false,
      "metar": "METAR EDDK 060550Z AUTO 15004KT 9999 -SN BKN012 M02/M05 Q1014 TEMPO BKN009",
      "taf": "TAF EDDK 060500Z 0606/0712 21004KT 9999 BKN010"
    },
    {
      "icao": "EDDN",
      "alert": "OK",
      "vis_m": 9999,
      "fzfg": false,
      "metar_trigger": false,
      "taf_trigger": false,
      "metar": "METAR EDDN 060550Z AUTO 11009KT 9999 FEW017 SCT049 M12/M14 Q1014 BECMG 12004KT",
      "taf": "TAF EDDN 060500Z 0606/0706 12006KT 9999 BKN020"
    },
    {
      "icao": "EDDS",
      "alert": "OK",
      "vis_m": 9999,
      "fzfg": false,
      "metar_trigger": false,
      "taf_trigger": false,
      "metar": "METAR EDDS 060550Z AUTO VRB01KT 9999 SCT022 BKN043 M07/M10 Q1013 TEMPO 4000 -SN",
      "taf": "TAF EDDS 060500Z 0606/0706 VRB03KT 9999 BKN020"
    },
    {
      "icao": "EDFH",
      "alert": "OK",
      "vis_m": 3000,
      "fzfg": false,
      "metar_trigger": false,
      "taf_trigger": false,
      "metar": "METAR EDFH 060550Z 25008KT 3000 -SN BR OVC002 M05/M06 Q1012",
      "taf": "TAF EDFH 060500Z 0606/0706 23007KT 8000 BKN005"
    },
    {
      "icao": "EDJA",
      "alert": "OK",
      "vis_m": 9999,
      "fzfg": false,
      "metar_trigger": false,
      "taf_trigger": false,
      "metar": "METAR EDJA 060550Z VRB02KT CAVOK M16/M18 Q1012",
      "taf": "TAF EDJA 060500Z 0606/0615 VRB03KT CAVOK"
    },
    {
      "icao": "EDLW",
      "alert": "OK",
      "vis_m": 9000,
      "fzfg": false,
      "metar_trigger": false,
      "taf_trigger": false,
      "metar": "METAR EDLW 060550Z 22008KT 9000 SCT009 OVC011 M02/M03 Q1013",
      "taf": "TAF EDLW 060500Z 0606/0706 21008KT 9999 BKN012"
    },
    {
      "icao": "EDNY",
      "alert": "OK",
      "vis_m": 9999,
      "fzfg": false,
      "metar_trigger": false,
      "taf_trigger": false,
      "metar": "METAR EDNY 060550Z 06006KT 9999 OVC011 M09/M11 Q1014",
      "taf": "TAF EDNY 060500Z 0606/0615 VRB03KT 9999 OVC012"
    },
    {
      "icao": "EDSB",
      "alert": "OK",
      "vis_m": 5000,
      "fzfg": false,
      "metar_trigger": false,
      "taf_trigger": false,
      "metar": "METAR EDSB 060550Z 19007KT 5000 SN BR OVC017 M05/M06 Q1016",
      "taf": "TAF EDSB 060500Z 0606/0706 20004KT 9999 BKN020"
    },
    {
      "icao": "EETN",
      "alert": "OK",
      "vis_m": 9999,
      "fzfg": false,
      "metar_trigger": false,
      "taf_trigger": false,
      "metar": "METAR EETN 060550Z 11009KT CAVOK M12/M14 Q1019 NOSIG",
      "taf": "TAF EETN 060530Z 0606/0706 14012KT CAVOK"
    },
    {
      "icao": "EFTU",
      "alert": "OK",
      "vis_m": 9999,
      "fzfg": false,
      "metar_trigger": false,
      "taf_trigger": false,
      "metar": "METAR EFTU 060550Z AUTO 10006KT 9999 FEW022 M12/M14 Q1017",
      "taf": "TAF EFTU 060525Z 0606/0706 10007KT CAVOK"
    },
    {
      "icao": "EGBB",
      "alert": "OK",
      "vis_m": 9999,
      "fzfg": false,
      "metar_trigger": false,
      "taf_trigger": false,
      "metar": "METAR EGBB 060550Z 25004KT 190V300 CAVOK M04/M05 Q1016",
      "taf": "TAF EGBB 060456Z 0606/0706 21007KT 9999 FEW035"
    },
    {
      "icao": "EGGP",
      "alert": "OK",
      "vis_m": 8000,
      "fzfg": false,
      "metar_trigger": false,
      "taf_trigger": false,
      "metar": "METAR EGGP 060550Z 21004KT 170V250 8000 -RA SCT012 BKN017 01/M00 Q1016",
      "taf": "TAF EGGP 060454Z 0606/0706 31005KT 9999 FEW030"
    },
    {
      "icao": "EGGW",
      "alert": "OK",
      "vis_m": 9999,
      "fzfg": false,
      "metar_trigger": false,
      "taf_trigger": false,
      "metar": "METAR EGGW 060550Z AUTO 27007KT 9999 NCD M05/M07 Q1016",
      "taf": "TAF EGGW 060503Z 0606/0706 26007KT CAVOK"
    },
    {
      "icao": "EGKK",
      "alert": "OK",
      "vis_m": 9999,
      "fzfg": false,
      "metar_trigger": false,
      "taf_trigger": false,
      "metar": "METAR EGKK 060550Z 19002KT CAVOK M06/M07 Q1018",
      "taf": "TAF EGKK 060455Z 0606/0712 24005KT CAVOK"
    },
    {
      "icao": "EGNM",
      "alert": "OK",
      "vis_m": 9999,
      "fzfg": false,
      "metar_trigger": false,
      "taf_trigger": false,
      "metar": "METAR EGNM 060550Z 27007KT CAVOK M03/M05 Q1014",
      "taf": "TAF EGNM 060454Z 0606/0706 27009KT 9999 FEW040"
    },
    {
      "icao": "EGPD",
      "alert": "OK",
      "vis_m": 9999,
      "fzfg": false,
      "metar_trigger": false,
      "taf_trigger": false,
      "metar": "METAR EGPD 060550Z AUTO 18003KT 080V240 9999 NCD M01/M04 Q1010 TEMPO 4000 -SN",
      "taf": "TAF EGPD 060456Z 0606/0706 20004KT 9999 FEW012"
    },
    {
      "icao": "EGPF",
      "alert": "OK",
      "vis_m": 9999,
      "fzfg": false,
      "metar_trigger": false,
      "taf_trigger": false,
      "metar": "METAR EGPF 060550Z AUTO 09001KT 9999 -RA SCT014/// BKN037/// //////TCU M01/M03 Q1012 RERA",
      "taf": "TAF EGPF 060500Z 0606/0706 VRB03KT 9999 FEW015 SCT030"
    },
    {
      "icao": "EHBK",
      "alert": "OK",
      "vis_m": 9999,
      "fzfg": false,
      "metar_trigger": false,
      "taf_trigger": false,
      "metar": "METAR EHBK 060525Z AUTO 30003KT 250V350 9999 FEW007/// BKN008/// OVC010/// M01/M02 Q1014 NOSIG",
      "taf": "TAF EHBK 060523Z 0606/0712 20008KT 6000 BKN018"
    },
    {
      "icao": "EHEH",
      "alert": "OK",
      "vis_m": 1800,
      "fzfg": false,
      "metar_trigger": false,
      "taf_trigger": false,
      "metar": "METAR EHEH 060525Z AUTO 31004KT 220V010 1800 BR OVC001 M01/M02 Q1015 RED RMK TREND REMOTE BY EHWX",
      "taf": "TAF EHEH 052347Z 0600/0706 21010KT 6000 BKN008 OVC010"
    },
    {
      "icao": "EKBI",
      "alert": "OK",
      "vis_m": 150,
      "fzfg": true,
      "metar_trigger": false,
      "taf_trigger": false,
      "metar": "METAR EKBI 060550Z AUTO 18003KT 0150 R09/0550N R27/0500N FZFG VV002 M05/M06 Q1010",
      "taf": "TAF EKBI 060527Z 0606/0706 VRB02KT 0200 FZFG VV002"
    },
    {
      "icao": "EKCH",
      "alert": "OK",
      "vis_m": 5000,
      "fzfg": false,
      "metar_trigger": false,
      "taf_trigger": false,
      "metar": "METAR EKCH 060550Z 28003KT 5000 FEW002 BKN041 M02/M02 Q1011 TEMPO 3000 BR",
      "taf": "TAF EKCH 060527Z 0606/0706 28004KT 8000 BKN040"
    },
    {
      "icao": "ENAL",
      "alert": "OK",
      "vis_m": 9999,
      "fzfg": false,
      "metar_trigger": false,
      "taf_trigger": false,
      "metar": "METAR ENAL 060550Z 14014KT CAVOK M06/M12 Q1011",
      "taf": "TAF ENAL 060500Z 0606/0615 14008KT CAVOK"
    },
    {
      "icao": "ENBR",
      "alert": "OK",
      "vis_m": 9999,
      "fzfg": false,
      "metar_trigger": false,
      "taf_trigger": false,
      "metar": "METAR ENBR 060550Z VRB02KT CAVOK M08/M13 Q1010 NOSIG RMK WIND 1200FT 13009KT",
      "taf": "TAF ENBR 060500Z 0606/0706 07005KT CAVOK"
    },
    {
      "icao": "ENGM",
      "alert": "OK",
      "vis_m": 2600,
      "fzfg": false,
      "metar_trigger": false,
      "taf_trigger": false,
      "metar": "METAR ENGM 060550Z 02009KT 2600 -SN BR FEW016 OVC022 M09/M10 Q1011 TEMPO 3000 BKN014",
      "taf": "TAF ENGM 060500Z 0606/0706 01009KT 8000 -SN FEW008 BKN020"
    },
    {
      "icao": "ENHD",
      "alert": "OK",
      "vis_m": 9999,
      "fzfg": false,
      "metar_trigger": false,
      "taf_trigger": false,
      "metar": "METAR ENHD 060550Z 08007KT CAVOK M05/M07 Q1010",
      "taf": "TAF ENHD 060500Z 0606/0615 09008KT 9999 SCT035"
    },
    {
      "icao": "ENTC",
      "alert": "OK",
      "vis_m": 9999,
      "fzfg": false,
      "metar_trigger": false,
      "taf_trigger": false,
      "metar": "METAR ENTC 060550Z 19003KT 120V260 CAVOK M12/M14 Q1017 RMK WIND 2600FT 14005KT",
      "taf": "TAF ENTC 060500Z 0606/0706 22005KT CAVOK"
    },
    {
      "icao": "ENTO",
      "alert": "OK",
      "vis_m": 9999,
      "fzfg": false,
      "metar_trigger": false,
      "taf_trigger": false,
      "metar": "METAR ENTO 060550Z 36009KT 9999 -SHSN OVC012 M08/M11 Q1012 RESN BECMG BKN018",
      "taf": ""
    },
    {
      "icao": "ENVA",
      "alert": "OK",
      "vis_m": 9999,
      "fzfg": false,
      "metar_trigger": false,
      "taf_trigger": false,
      "metar": "METAR ENVA 060550Z 11009KT CAVOK M17/M21 Q1015 NOSIG RMK WIND 670FT 09012KT",
      "taf": "TAF ENVA 060500Z 0606/0706 12008KT CAVOK"
    },
    {
      "icao": "ENZV",
      "alert": "OK",
      "vis_m": 5000,
      "fzfg": false,
      "metar_trigger": false,
      "taf_trigger": false,
      "metar": "METAR ENZV 060550Z 04004KT 5000 -SHSN VV017 M03/M04 Q1010 TEMPO 3000 SHSN BKN012",
      "taf": "TAF ENZV 060500Z 0606/0706 06008KT 9999 FEW010 BKN035"
    },
    {
      "icao": "EPGD",
      "alert": "OK",
      "vis_m": 5000,
      "fzfg": false,
      "metar_trigger": false,
      "taf_trigger": false,
      "metar": "METAR EPGD 060530Z 25003KT 5000 BR FEW024 BKN043 M05/M06 Q1012",
      "taf": "TAF EPGD 060530Z 0606/0706 19003KT 9999 SCT035"
    },
    {
      "icao": "EPKK",
      "alert": "OK",
      "vis_m": 9000,
      "fzfg": false,
      "metar_trigger": false,
      "taf_trigger": false,
      "metar": "METAR EPKK 060530Z 26008KT 9000 BKN068 M03/M07 Q1012",
      "taf": "TAF EPKK 060530Z 0606/0706 25010KT 9000 BKN060"
    },
    {
      "icao": "EPKT",
      "alert": "OK",
      "vis_m": 4000,
      "fzfg": false,
      "metar_trigger": false,
      "taf_trigger": false,
      "metar": "METAR EPKT 060530Z 26005KT 4000 BR NSC M10/M11 Q1012",
      "taf": "TAF EPKT 060530Z 0606/0706 27005KT 3500 BR NSC"
    },
    {
      "icao": "EPLB",
      "alert": "OK",
      "vis_m": 8000,
      "fzfg": false,
      "metar_trigger": false,
      "taf_trigger": false,
      "metar": "METAR EPLB 060530Z 33002KT 8000 -SN OVC017 M03/M04 Q1010",
      "taf": "TAF EPLB 060530Z 0606/0706 08006KT 6000 -SN BKN018"
    },
    {
      "icao": "EPMO",
      "alert": "OK",
      "vis_m": 3400,
      "fzfg": false,
      "metar_trigger": false,
      "taf_trigger": false,
      "metar": "METAR EPMO 060530Z VRB01KT 3400 BR NSC M14/M14 Q1012",
      "taf": "TAF EPMO 060530Z 0606/0706 30003KT 3000 BR SCT025"
    },
    {
      "icao": "EPPO",
      "alert": "CRITICAL",
      "vis_m": 50,
      "fzfg": true,
      "metar_trigger": true,
      "taf_trigger": true,
      "metar": "METAR EPPO 060530Z 18001KT 0050 R28/0300U FZFG NSC M13/M14 Q1013",
      "taf": "TAF EPPO 060530Z 0606/0706 VRB02KT 0100 FZFG NSC"
    },
    {
      "icao": "EPRA",
      "alert": "OK",
      "vis_m": 9999,
      "fzfg": false,
      "metar_trigger": false,
      "taf_trigger": false,
      "metar": "METAR EPRA 060530Z 31004KT CAVOK M06/M08 Q1011",
      "taf": "TAF EPRA 060530Z 0606/0615 30006KT CAVOK"
    },
    {
      "icao": "EPRZ",
      "alert": "OK",
      "vis_m": 9999,
      "fzfg": false,
      "metar_trigger": false,
      "taf_trigger": false,
      "metar": "METAR EPRZ 060530Z 26007KT 9999 -SN BKN016 M04/M06 Q1011",
      "taf": "TAF EPRZ 060530Z 0606/0706 26010KT 7000 -SN FEW005 OVC017"
    },
    {
      "icao": "EPSC",
      "alert": "OK",
      "vis_m": 9999,
      "fzfg": false,
      "metar_trigger": false,
      "taf_trigger": false,
      "metar": "METAR EPSC 060530Z 14005KT 9999 SCT042 M06/M08 Q1012",
      "taf": "TAF EPSC 060530Z 0606/0706 18006KT 9999 SCT035"
    },
    {
      "icao": "EPSY",
      "alert": "OK",
      "vis_m": 6000,
      "fzfg": false,
      "metar_trigger": false,
      "taf_trigger": false,
      "metar": "METAR EPSY 060530Z VRB02KT 6000 BKN027 BKN044 M09/M10 Q1012",
      "taf": "TAF EPSY 060530Z 0606/0615 VRB02KT 8000 BKN030"
    },
    {
      "icao": "EPWA",
      "alert": "OK",
      "vis_m": 8000,
      "fzfg": false,
      "metar_trigger": false,
      "taf_trigger": false,
      "metar": "METAR EPWA 060530Z 27003KT 8000 BKN025 M07/M09 Q1012 NOSIG",
      "taf": "TAF EPWA 060530Z 0606/0706 30003KT 8000 BKN025"
    },
    {
      "icao": "EPWR",
      "alert": "OK",
      "vis_m": 9999,
      "fzfg": false,
      "metar_trigger": false,
      "taf_trigger": false,
      "metar": "METAR EPWR 060530Z 24003KT 190V260 9999 BKN035 M06/M09 Q1014",
      "taf": "TAF EPWR 060530Z 0606/0706 24007KT 9999 BKN035"
    },
    {
      "icao": "ESGG",
      "alert": "OK",
      "vis_m": 350,
      "fzfg": true,
      "metar_trigger": false,
      "taf_trigger": false,
      "metar": "METAR ESGG 060550Z 07004KT 0350 R03/P2000N R21/1200D FZFG NSC M12/M14 Q1010",
      "taf": "TAF ESGG 060530Z 0606/0706 09004KT 6000 MIFG NSC"
    },
    {
      "icao": "ESKN",
      "alert": "OK",
      "vis_m": 9000,
      "fzfg": false,
      "metar_trigger": false,
      "taf_trigger": false,
      "metar": "METAR ESKN 060550Z 30006KT 9000 -SN SCT005 BKN038 M05/M05 Q1010",
      "taf": "TAF ESKN 060530Z 0606/0706 VRB03KT 9000 -SN SCT006 BKN030"
    },
    {
      "icao": "ESMS",
      "alert": "CRITICAL",
      "vis_m": 50,
      "fzfg": true,
      "metar_trigger": true,
      "taf_trigger": false,
      "metar": "METAR ESMS 060550Z VRB01KT 0050 R17/0275N R35/0225N FZFG VV001 M07/M08 Q1010",
      "taf": "TAF ESMS 060527Z 0606/0706 VRB02KT 2000 BR BKN015"
    },
    {
      "icao": "ESSA",
      "alert": "OK",
      "vis_m": 9999,
      "fzfg": false,
      "metar_trigger": false,
      "taf_trigger": false,
      "metar": "METAR ESSA 060550Z 12004KT 090V150 9999 FEW037 BKN053 M03/M04 Q1010 TEMPO 1400 SHSN BKN009",
      "taf": "TAF ESSA 060530Z 0606/0706 09008KT 9999 SCT035"
    },
    {
      "icao": "EYKA",
      "alert": "OK",
      "vis_m": 9999,
      "fzfg": false,
      "metar_trigger": false,
      "taf_trigger": false,
      "metar": "METAR EYKA 060550Z 08004KT CAVOK M12/M14 Q1016",
      "taf": "TAF EYKA 060526Z 0606/0706 09007KT 9000 NSC"
    },
    {
      "icao": "EYPA",
      "alert": "OK",
      "vis_m": 9999,
      "fzfg": false,
      "metar_trigger": false,
      "taf_trigger": false,
      "metar": "METAR EYPA 060550Z 14005KT 100V180 9999 -SHSN FEW025CB SCT046 M04/M05 Q1013",
      "taf": "TAF EYPA 060515Z 0606/0706 15010KT 7000 BKN035"
    },
    {
      "icao": "EYVI",
      "alert": "OK",
      "vis_m": 9999,
      "fzfg": false,
      "metar_trigger": false,
      "taf_trigger": false,
      "metar": "METAR EYVI 060550Z 10008KT CAVOK M08/M10 Q1015 TEMPO 1500 BR SCT005",
      "taf": "TAF EYVI 060509Z 0606/0706 VRB04KT 9000 BKN020"
    },
    {
      "icao": "GCFV",
      "alert": "OK",
      "vis_m": 9999,
      "fzfg": false,
      "metar_trigger": false,
      "taf_trigger": false,
      "metar": "METAR GCFV 060530Z AUTO 33011KT CAVOK 16/07 Q1020",
      "taf": "TAF GCFV 060200Z 0603/0703 36013KT 9999 SCT030 TX21/0614Z TN15/0606Z"
    },
    {
      "icao": "GCLP",
      "alert": "OK",
      "vis_m": 9999,
      "fzfg": false,
      "metar_trigger": false,
      "taf_trigger": false,
      "metar": "METAR GCLP 060530Z 01015KT 9999 FEW030 BKN055 17/11 Q1021 NOSIG",
      "taf": "TAF GCLP 060200Z 0603/0703 36014KT 9999 SCT025 BKN035 TX21/0614Z TN15/0606Z"
    },
    {
      "icao": "GCTS",
      "alert": "OK",
      "vis_m": 9999,
      "fzfg": false,
      "metar_trigger": false,
      "taf_trigger": false,
      "metar": "METAR GCTS 060530Z 06012KT 9999 BKN045 16/08 Q1021 NOSIG",
      "taf": "TAF GCTS 060200Z 0603/0703 06014KT 9999 SCT040 TX23/0614Z TN16/0606Z"
    },
    {
      "icao": "GMAD",
      "alert": "OK",
      "vis_m": 9999,
      "fzfg": false,
      "metar_trigger": false,
      "taf_trigger": false,
      "metar": "METAR GMAD 060530Z 16007KT 9999 FEW026 10/09 Q1014 NOSIG",
      "taf": "TAF GMAD 060500Z 0606/0712 24006KT 8000 SCT023"
    },
    {
      "icao": "GMMN",
      "alert": "OK",
      "vis_m": 9999,
      "fzfg": false,
      "metar_trigger": false,
      "taf_trigger": false,
      "metar": "METAR GMMN 060530Z 22003KT 9999 BKN030 06/04 Q1017 NOSIG",
      "taf": "TAF GMMN 060500Z 0606/0712 25006KT 9999 BKN030"
    },
    {
      "icao": "GMMX",
      "alert": "OK",
      "vis_m": 8000,
      "fzfg": false,
      "metar_trigger": false,
      "taf_trigger": false,
      "metar": "METAR GMMX 060530Z VRB01KT 8000 BKN023 09/07 Q1018 NOSIG",
      "taf": "TAF GMMX 052300Z 0600/0706 26006KT 8000 SCT023 SCT080"
    },
    {
      "icao": "HEGN",
      "alert": "OK",
      "vis_m": 9999,
      "fzfg": false,
      "metar_trigger": false,
      "taf_trigger": false,
      "metar": "METAR HEGN 060500Z 29009KT CAVOK 16/01 Q1020 NOSIG",
      "taf": "TAF HEGN 060500Z 0606/0712 32013KT CAVOK"
    },
    {
      "icao": "HEMA",
      "alert": "OK",
      "vis_m": 9999,
      "fzfg": false,
      "metar_trigger": false,
      "taf_trigger": false,
      "metar": "METAR HEMA 060500Z 28010KT CAVOK 19/13 Q1018 NOSIG",
      "taf": "TAF HEMA 060500Z 0606/0712 33014KT CAVOK"
    },
    {
      "icao": "HESH",
      "alert": "OK",
      "vis_m": 9999,
      "fzfg": false,
      "metar_trigger": false,
      "taf_trigger": false,
      "metar": "METAR HESH 060500Z 33008KT CAVOK 20/12 Q1019 NOSIG",
      "taf": "TAF HESH 060500Z 0606/0712 35011KT CAVOK"
    },
    {
      "icao": "HESX",
      "alert": "OK",
      "vis_m": 9999,
      "fzfg": false,
      "metar_trigger": false,
      "taf_trigger": false,
      "metar": "METAR HESX 060500Z 18004KT CAVOK 05/00 Q1020 NOSIG",
      "taf": "TAF HESX 060500Z 0606/0712 VRB02KT 6000 NSC"
    },
    {
      "icao": "LATI",
      "alert": "OK",
      "vis_m": 9999,
      "fzfg": false,
      "metar_trigger": false,
      "taf_trigger": false,
      "metar": "METAR LATI 060550Z VRB02KT 9999 -TSRA FEW026CB BKN044 OVC060 12/10 Q1007 NOSIG",
      "taf": "TAF LATI 060500Z 0606/0706 VRB04KT 9999 RA BKN030 OVC060 TX16/0612Z TN12/0705Z"
    },
    {
      "icao": "LBPD",
      "alert": "OK",
      "vis_m": 8000,
      "fzfg": false,
      "metar_trigger": false,
      "taf_trigger": false,
      "metar": "METAR LBPD 060530Z AUTO 00000KT 8000 FEW190/// 05/05 Q1011 TEMPO 5000 BR",
      "taf": "TAF LBPD 060500Z 0606/0706 VRB03KT 8000 BKN060"
    },
    {
      "icao": "LBSF",
      "alert": "OK",
      "vis_m": 9999,
      "fzfg": false,
      "metar_trigger": false,
      "taf_trigger": false,
      "metar": "METAR LBSF 060530Z 14007KT 100V170 9999 FEW062 BKN080 07/04 Q1009 NOSIG",
      "taf": "TAF LBSF 060500Z 0606/0706 10012KT 9999 SCT040 BKN060"
    },
    {
      "icao": "LBWN",
      "alert": "OK",
      "vis_m": 9999,
      "fzfg": false,
      "metar_trigger": false,
      "taf_trigger": false,
      "metar": "METAR LBWN 060530Z AUTO 12007KT 9999 NCD 10/10 Q1012 NOSIG",
      "taf": "TAF LBWN 060500Z 0606/0706 11008KT 9999 SCT030"
    },
    {
      "icao": "LCLK",
      "alert": "OK",
      "vis_m": 9999,
      "fzfg": false,
      "metar_trigger": false,
      "taf_trigger": false,
      "metar": "METAR LCLK 060530Z 32007KT CAVOK 12/09 Q1021 NOSIG",
      "taf": "TAF LCLK 060530Z 0606/0706 35010KT CAVOK"
    },
    {
      "icao": "LCPH",
      "alert": "OK",
      "vis_m": 9999,
      "fzfg": false,
      "metar_trigger": false,
      "taf_trigger": false,
      "metar": "METAR LCPH 060530Z 07009KT 010V080 9999 FEW050 11/03 Q1020 NOSIG",
      "taf": "TAF LCPH 060530Z 0606/0706 06008KT 9999 FEW040"
    },
    {
      "icao": "LEAL",
      "alert": "OK",
      "vis_m": 9999,
      "fzfg": false,
      "metar_trigger": false,
      "taf_trigger": false,
      "metar": "METAR LEAL 060530Z 31007KT 280V340 9999 SCT025 OVC055 08/03 Q1010 NOSIG",
      "taf": "TAF LEAL 060500Z 0606/0706 VRB04KT 9999 SCT020 TX12/0614Z TN04/0606Z"
    },
    {
      "icao": "LEBB",
      "alert": "OK",
      "vis_m": 8000,
      "fzfg": false,
      "metar_trigger": false,
      "taf_trigger": false,
      "metar": "METAR LEBB 060530Z COR 30016KT 8000 -RA BKN046 OVC059 04/M00 Q1018 RERA NOSIG",
      "taf": ""
    },
    {
      "icao": "LEBL",
      "alert": "OK",
      "vis_m": 9999,
      "fzfg": false,
      "metar_trigger": false,
      "taf_trigger": false,
      "metar": "METAR LEBL 060530Z 34015KT 9999 FEW035 02/M03 Q1010 NOSIG",
      "taf": "TAF LEBL 060500Z 0606/0706 34013KT 9999 FEW025 TX11/0613Z TN00/0706Z"
    },
    {
      "icao": "LECH",
      "alert": "OK",
      "vis_m": 9999,
      "fzfg": false,
      "metar_trigger": false,
      "taf_trigger": false,
      "metar": "METAR LECH 060530Z AUTO 33006KT 280V030 CAVOK 03/M08 Q1010",
      "taf": ""
    },
    {
      "icao": "LEMD",
      "alert": "OK",
      "vis_m": 9999,
      "fzfg": false,
      "metar_trigger": false,
      "taf_trigger": false,
      "metar": "METAR LEMD 060530Z 18001KT CAVOK M03/M06 Q1014 NOSIG",
      "taf": "TAF LEMD 060500Z 0606/0712 VRB05KT 9999 SCT025 TX06/0614Z TNM03/0607Z"
    },
    {
      "icao": "LEMG",
      "alert": "OK",
      "vis_m": 9999,
      "fzfg": false,
      "metar_trigger": false,
      "taf_trigger": false,
      "metar": "METAR LEMG 060530Z 29018KT CAVOK 06/M01 Q1011 NOSIG",
      "taf": "TAF LEMG 060500Z 0606/0706 30012KT 9999 FEW060 TX12/0614Z TN04/0606Z"
    },
    {
      "icao": "LEVC",
      "alert": "OK",
      "vis_m": 9999,
      "fzfg": false,
      "metar_trigger": false,
      "taf_trigger": false,
      "metar": "METAR LEVC 060530Z 29006KT CAVOK 01/M04 Q1012 NOSIG",
      "taf": "TAF LEVC 060500Z 0606/0706 30006KT 9999 BKN040 TX12/0614Z TN01/0606Z"
    },
    {
      "icao": "LEXJ",
      "alert": "OK",
      "vis_m": 9999,
      "fzfg": false,
      "metar_trigger": false,
      "taf_trigger": false,
      "metar": "METAR LEXJ 060530Z 01008KT 300V060 9999 SCT050 BKN065 BKN075 08/M03 Q1020",
      "taf": "TAF LEXJ 060200Z 0603/0703 35012KT 9999 FEW040 BKN060 TX09/0614Z TN04/0621Z"
    },
    {
      "icao": "LEZG",
      "alert": "OK",
      "vis_m": 9999,
      "fzfg": false,
      "metar_trigger": false,
      "taf_trigger": false,
      "metar": "METAR LEZG 060530Z 28015KT 9999 FEW035 02/M02 Q1013 NOSIG",
      "taf": "TAF LEZG 060500Z 0606/0706 31012KT 9999 FEW050 TX07/0615Z TN00/0606Z"
    },
    {
      "icao": "LEZL",
      "alert": "OK",
      "vis_m": 9999,
      "fzfg": false,
      "metar_trigger": false,
      "taf_trigger": false,
      "metar": "METAR LEZL 060530Z VRB02KT CAVOK 02/01 Q1016 NOSIG",
      "taf": "TAF LEZL 060200Z 0603/0703 35006KT CAVOK TX13/0615Z TN02/0607Z"
    },
    {
      "icao": "LFBD",
      "alert": "OK",
      "vis_m": 9999,
      "fzfg": false,
      "metar_trigger": false,
      "taf_trigger": false,
      "metar": "METAR LFBD 060530Z AUTO 06011KT 9999 FEW035 OVC054 M01/M04 Q1017 TEMPO 2000 -SN BKN030TCU",
      "taf": "TAF LFBD 060500Z 0606/0712 03010KT 9999 BKN045 TX04/0614Z TNM03/0700Z"
    },
    {
      "icao": "LFLL",
      "alert": "OK",
      "vis_m": 8000,
      "fzfg": false,
      "metar_trigger": false,
      "taf_trigger": false,
      "metar": "METAR LFLL 060530Z 33007KT 8000 BKN006 M05/M06 Q1015 NOSIG",
      "taf": "TAF LFLL 060500Z 0606/0712 34005KT 9999 BKN012 BKN035"
    },
    {
      "icao": "LFLS",
      "alert": "OK",
      "vis_m": 9999,
      "fzfg": false,
      "metar_trigger": false,
      "taf_trigger": false,
      "metar": "METAR LFLS 060530Z AUTO VRB02KT 9999 BKN008 M07/M08 Q1013 BECMG NSC",
      "taf": "TAF LFLS 060200Z 0603/0703 36008KT CAVOK"
    },
    {
      "icao": "LFMN",
      "alert": "OK",
      "vis_m": 9999,
      "fzfg": false,
      "metar_trigger": false,
      "taf_trigger": false,
      "metar": "METAR LFMN 060530Z 33014KT CAVOK 05/M02 Q1005 NOSIG",
      "taf": "TAF LFMN 060200Z 0603/0709 32010KT 9999 FEW045 BKN150"
    },
    {
      "icao": "LFOB",
      "alert": "OK",
      "vis_m": 9000,
      "fzfg": true,
      "metar_trigger": false,
      "taf_trigger": false,
      "metar": "METAR LFOB 060530Z AUTO 32005KT 300V360 9000 NSC M07/M07 Q1018 TEMPO 0600 FZFG VV///",
      "taf": "TAF LFOB 060500Z 0606/0706 27005KT 6000 NSC"
    },
    {
      "icao": "LFPO",
      "alert": "OK",
      "vis_m": 1900,
      "fzfg": true,
      "metar_trigger": false,
      "taf_trigger": false,
      "metar": "METAR LFPO 060530Z AUTO 27004KT 1900 0450 R02/0550D R25/1800D R07/0600N R24/0700N R06/P2000 BCFG FEW014 M06/M07 Q1018 TEMPO 0800 FZFG VV///",
      "taf": "TAF LFPO 060500Z 0606/0712 30005KT 6000 FEW003"
    },
    {
      "icao": "LFSB",
      "alert": "OK",
      "vis_m": 9999,
      "fzfg": false,
      "metar_trigger": false,
      "taf_trigger": false,
      "metar": "METAR LFSB 060530Z AUTO 16006KT CAVOK M07/M09 Q1015 TEMPO 3000 -SN BR BKN009",
      "taf": "TAF LFSB 060500Z 0606/0706 VRB03KT CAVOK"
    },
    {
      "icao": "LGAV",
      "alert": "OK",
      "vis_m": 9999,
      "fzfg": false,
      "metar_trigger": false,
      "taf_trigger": false,
      "metar": "METAR LGAV 060550Z VRB02KT 9999 FEW018 SCT030 13/09 Q1015 NOSIG",
      "taf": "TAF LGAV 060500Z 0606/0706 18015KT 9999 FEW018 SCT030"
    },
    {
      "icao": "LGTS",
      "alert": "OK",
      "vis_m": 9999,
      "fzfg": false,
      "metar_trigger": false,
      "taf_trigger": false,
      "metar": "METAR LGTS 060550Z 12008KT 9999 FEW025 12/11 Q1011 NOSIG",
      "taf": "TAF LGTS 060500Z 0606/0706 14010KT 9999 SCT030"
    },
    {
      "icao": "LHBP",
      "alert": "OK",
      "vis_m": 9999,
      "fzfg": false,
      "metar_trigger": false,
      "taf_trigger": false,
      "metar": "METAR LHBP 060530Z 31008KT 9999 BKN043 OVC100 M03/M05 Q1011 NOSIG",
      "taf": "TAF LHBP 060515Z 0606/0706 34009KT 9999 BKN045"
    },
    {
      "icao": "LHDC",
      "alert": "OK",
      "vis_m": 4200,
      "fzfg": false,
      "metar_trigger": false,
      "taf_trigger": false,
      "metar": "METAR LHDC 060515Z AUTO 03003KT 4200 -SN BR OVC005 M01/M01 Q1010 NOSIG",
      "taf": "TAF LHDC 060515Z 0606/0615 36003KT 2000 -SN -SNRA OVC002"
    },
    {
      "icao": "LIBD",
      "alert": "OK",
      "vis_m": 7000,
      "fzfg": false,
      "metar_trigger": false,
      "taf_trigger": false,
      "metar": "METAR LIBD 060550Z VRB02KT 7000 OVC010 11/10 Q1005",
      "taf": "TAF LIBD 060500Z 0606/0706 30007KT 9999 BKN012"
    },
    {
      "icao": "LIBG",
      "alert": "OK",
      "vis_m": null,
      "fzfg": false,
      "metar_trigger": false,
      "taf_trigger": false,
      "metar": "",
      "taf": ""
    },
    {
      "icao": "LIBP",
      "alert": "OK",
      "vis_m": 2800,
      "fzfg": false,
      "metar_trigger": false,
      "taf_trigger": false,
      "metar": "METAR LIBP 060550Z AUTO 20001KT 2800 -RA BR OVC003/// 07/07 Q1006",
      "taf": "TAF LIBP 060500Z 0606/0706 VRB05KT 4000 RA OVC005"
    },
    {
      "icao": "LIBR",
      "alert": "OK",
      "vis_m": 8000,
      "fzfg": false,
      "metar_trigger": false,
      "taf_trigger": false,
      "metar": "METAR LIBR 060550Z VRB02KT 8000 OVC012 13/13 Q1005",
      "taf": "TAF LIBR 060500Z 0606/0706 VRB05KT 9999 BKN012"
    },
    {
      "icao": "LICA",
      "alert": "OK",
      "vis_m": 9999,
      "fzfg": false,
      "metar_trigger": false,
      "taf_trigger": false,
      "metar": "METAR LICA 060550Z AUTO 07006KT 9999 NCD 09/08 Q1005",
      "taf": "TAF LICA 060500Z 0606/0706 07010KT 9999 SCT050"
    },
    {
      "icao": "LICC",
      "alert": "OK",
      "vis_m": 9999,
      "fzfg": false,
      "metar_trigger": false,
      "taf_trigger": false,
      "metar": "METAR LICC 060550Z 24006KT CAVOK 09/06 Q1005",
      "taf": "TAF LICC 060500Z 0606/0706 26013KT 9999 FEW030"
    },
    {
      "icao": "LICJ",
      "alert": "OK",
      "vis_m": 9999,
      "fzfg": false,
      "metar_trigger": false,
      "taf_trigger": false,
      "metar": "METAR LICJ 060550Z 19014G24KT 160V220 CAVOK 17/10 Q1001",
      "taf": "TAF LICJ 060500Z 0606/0706 21016KT 9999 FEW030"
    },
    {
      "icao": "LIMC",
      "alert": "OK",
      "vis_m": 9999,
      "fzfg": false,
      "metar_trigger": false,
      "taf_trigger": false,
      "metar": "METAR LIMC 060550Z 01006KT CAVOK M05/M07 Q1008 NOSIG",
      "taf": "TAF LIMC 060500Z 0606/0712 VRB03KT CAVOK"
    },
    {
      "icao": "LIME",
      "alert": "OK",
      "vis_m": 9999,
      "fzfg": false,
      "metar_trigger": false,
      "taf_trigger": false,
      "metar": "METAR LIME 060550Z 35002KT CAVOK M01/M06 Q1008 NOSIG",
      "taf": "TAF LIME 060500Z 0606/0706 VRB03KT CAVOK"
    },
    {
      "icao": "LIMF",
      "alert": "OK",
      "vis_m": 9999,
      "fzfg": false,
      "metar_trigger": false,
      "taf_trigger": false,
      "metar": "METAR LIMF 060550Z 30002KT CAVOK M04/M11 Q1008",
      "taf": "TAF LIMF 060500Z 0606/0706 VRB03KT CAVOK"
    },
    {
      "icao": "LIMJ",
      "alert": "OK",
      "vis_m": 9999,
      "fzfg": false,
      "metar_trigger": false,
      "taf_trigger": false,
      "metar": "METAR LIMJ 060550Z 05011KT 030V090 CAVOK 04/M07 Q1005",
      "taf": "TAF LIMJ 060500Z 0606/0706 03015KT CAVOK"
    },
    {
      "icao": "LIPE",
      "alert": "OK",
      "vis_m": 9999,
      "fzfg": false,
      "metar_trigger": false,
      "taf_trigger": false,
      "metar": "METAR LIPE 060550Z 28003KT 9999 -SN BKN035 02/M02 Q1009",
      "taf": "TAF LIPE 060500Z 0606/0706 28007KT 9999 BKN020"
    },
    {
      "icao": "LIPH",
      "alert": "OK",
      "vis_m": 9999,
      "fzfg": false,
      "metar_trigger": false,
      "taf_trigger": false,
      "metar": "METAR LIPH 060550Z AUTO 01004KT 9999 OVC110/// 02/M05 Q1008",
      "taf": "TAF LIPH 060500Z 0606/0706 03006KT 9999 SCT070"
    },
    {
      "icao": "LIPQ",
      "alert": "OK",
      "vis_m": 9999,
      "fzfg": false,
      "metar_trigger": false,
      "taf_trigger": false,
      "metar": "METAR LIPQ 060550Z AUTO 08007KT 040V110 9999 FEW061/// SCT079/// OVC099/// 03/M05 Q1008",
      "taf": "TAF LIPQ 060500Z 0606/0706 08008KT 9999 BKN030"
    },
    {
      "icao": "LIPR",
      "alert": "OK",
      "vis_m": 1600,
      "fzfg": false,
      "metar_trigger": false,
      "taf_trigger": false,
      "metar": "METAR LIPR 060550Z AUTO 28009KT 1600 -SN OVC014/// 00/00 Q1007",
      "taf": "TAF LIPR 060500Z 0606/0706 30012KT 1200 SN BKN020"
    },
    {
      "icao": "LIPX",
      "alert": "OK",
      "vis_m": 9999,
      "fzfg": false,
      "metar_trigger": false,
      "taf_trigger": false,
      "metar": "METAR LIPX 060550Z 36003KT CAVOK M02/M06 Q1008",
      "taf": "TAF LIPX 060500Z 0606/0706 VRB04KT CAVOK"
    },
    {
      "icao": "LIPY",
      "alert": "OK",
      "vis_m": 9000,
      "fzfg": false,
      "metar_trigger": false,
      "taf_trigger": false,
      "metar": "METAR LIPY 060550Z AUTO 28006KT 9000 -RA OVC009/// 02/02 Q1007",
      "taf": "TAF LIPY 060500Z 0606/0706 VRB05KT 4000 RA BKN010"
    },
    {
      "icao": "LIPZ",
      "alert": "OK",
      "vis_m": 9999,
      "fzfg": false,
      "metar_trigger": false,
      "taf_trigger": false,
      "metar": "METAR LIPZ 060550Z 02008KT CAVOK 02/M04 Q1008 NOSIG",
      "taf": "TAF LIPZ 060500Z 0606/0712 02008KT 9999 SCT070"
    },
    {
      "icao": "LIRF",
      "alert": "OK",
      "vis_m": 9999,
      "fzfg": false,
      "metar_trigger": false,
      "taf_trigger": false,
      "metar": "METAR LIRF 060550Z 07006KT 9999 -DZ FEW050 10/10 Q1000 NOSIG",
      "taf": "TAF LIRF 060500Z 0606/0712 05005KT 9999 SCT020"
    },
    {
      "icao": "LIRN",
      "alert": "OK",
      "vis_m": 8000,
      "fzfg": false,
      "metar_trigger": false,
      "taf_trigger": false,
      "metar": "METAR LIRN 060550Z 19004KT 150V240 8000 SCT020 15/13 Q1002 NOSIG",
      "taf": "TAF LIRN 060500Z 0606/0706 VRB06KT 9999 SCT020 SCT050"
    },
    {
      "icao": "LIRP",
      "alert": "OK",
      "vis_m": 9999,
      "fzfg": false,
      "metar_trigger": false,
      "taf_trigger": false,
      "metar": "METAR LIRP 060545Z 10010KT 9999 FEW030 BKN080 04/01 Q1004 NOSIG",
      "taf": "TAF LIRP 060500Z 0606/0706 12005KT 9999 FEW030"
    },
    {
      "icao": "LIRZ",
      "alert": "OK",
      "vis_m": 9999,
      "fzfg": false,
      "metar_trigger": false,
      "taf_trigger": false,
      "metar": "METAR LIRZ 060550Z AUTO 35010KT 9999 OVC022/// 05/04 Q1002",
      "taf": "TAF LIRZ 060500Z 0606/0706 01010KT 6000 RA BKN020"
    },
    {
      "icao": "LJLJ",
      "alert": "OK",
      "vis_m": 9999,
      "fzfg": false,
      "metar_trigger": false,
      "taf_trigger": false,
      "metar": "METAR LJLJ 060530Z 26001KT 9999 BKN017 OVC024 M03/M04 Q1011 NOSIG",
      "taf": "TAF LJLJ 060500Z 0606/0706 VRB02KT 8000 BKN016 OVC025"
    },
    {
      "icao": "LKMT",
      "alert": "OK",
      "vis_m": 9999,
      "fzfg": false,
      "metar_trigger": false,
      "taf_trigger": false,
      "metar": "METAR LKMT 060530Z VRB01KT CAVOK M06/M09 Q1013 NOSIG",
      "taf": "TAF LKMT 060500Z 0606/0706 VRB02KT CAVOK"
    },
    {
      "icao": "LKPR",
      "alert": "OK",
      "vis_m": 9999,
      "fzfg": false,
      "metar_trigger": false,
      "taf_trigger": false,
      "metar": "METAR LKPR 060530Z 21009KT CAVOK M09/M11 Q1013 NOSIG",
      "taf": "TAF LKPR 060500Z 0606/0712 21008KT CAVOK"
    },
    {
      "icao": "LLBG",
      "alert": "OK",
      "vis_m": 9999,
      "fzfg": false,
      "metar_trigger": false,
      "taf_trigger": false,
      "metar": "METAR LLBG 060550Z VRB01KT CAVOK 11/07 Q1021 NOSIG",
      "taf": "TAF LLBG 060501Z 0606/0706 13004KT CAVOK"
    },
    {
      "icao": "LMML",
      "alert": "OK",
      "vis_m": 8000,
      "fzfg": false,
      "metar_trigger": false,
      "taf_trigger": false,
      "metar": "METAR LMML 060545Z 19007KT 150V220 8000 NSC 17/15 Q1006 NOSIG",
      "taf": "TAF LMML 060500Z 0606/0706 20015KT 8000 NSC"
    },
    {
      "icao": "LOWW",
      "alert": "OK",
      "vis_m": 9999,
      "fzfg": false,
      "metar_trigger": false,
      "taf_trigger": false,
      "metar": "METAR LOWW 060550Z 32012KT CAVOK M03/M11 Q1015 NOSIG",
      "taf": "TAF LOWW 060515Z 0606/0712 32012KT 9999 FEW050 TXM02/0612Z TNM04/0706Z"
    },
    {
      "icao": "LPFR",
      "alert": "OK",
      "vis_m": 9999,
      "fzfg": false,
      "metar_trigger": false,
      "taf_trigger": false,
      "metar": "METAR LPFR 060530Z VRB02KT CAVOK 07/M02 Q1018",
      "taf": "TAF LPFR 060500Z 0606/0706 VRB02KT CAVOK"
    },
    {
      "icao": "LPMA",
      "alert": "OK",
      "vis_m": 9999,
      "fzfg": false,
      "metar_trigger": false,
      "taf_trigger": false,
      "metar": "METAR LPMA 060530Z 02015KT 9999 SCT015 FEW018TCU 16/04 Q1025",
      "taf": "TAF LPMA 060500Z 0606/0706 02015KT 9999 SCT015"
    },
    {
      "icao": "LPPR",
      "alert": "OK",
      "vis_m": 9999,
      "fzfg": false,
      "metar_trigger": false,
      "taf_trigger": false,
      "metar": "METAR LPPR 060530Z 32005KT 270V070 CAVOK 04/01 Q1022",
      "taf": "TAF LPPR 060500Z 0606/0706 01008KT CAVOK"
    },
    {
      "icao": "LPPS",
      "alert": "OK",
      "vis_m": 9999,
      "fzfg": false,
      "metar_trigger": false,
      "taf_trigger": false,
      "metar": "METAR LPPS 060530Z 03014G26KT 360V070 9999 SCT015 SCT030 15/08 Q1025",
      "taf": "TAF LPPS 060500Z 0606/0712 03013KT 9999 SCT015 SCT030"
    },
    {
      "icao": "LPPT",
      "alert": "OK",
      "vis_m": 9999,
      "fzfg": false,
      "metar_trigger": false,
      "taf_trigger": false,
      "metar": "METAR LPPT 060530Z 34010KT CAVOK 07/04 Q1020",
      "taf": "TAF LPPT 060500Z 0606/0712 36010KT CAVOK"
    },
    {
      "icao": "LQBK",
      "alert": "OK",
      "vis_m": 9999,
      "fzfg": false,
      "metar_trigger": false,
      "taf_trigger": false,
      "metar": "METAR LQBK 060530Z 28004KT 250V320 9999 SCT013 OVC023 M02/M03 Q1013 NOSIG",
      "taf": "TAF LQBK 060500Z 0606/0706 33007KT 7000 -SN SCT010 OVC020 TXM00/0613Z TNM05/0705Z"
    },
    {
      "icao": "LQSA",
      "alert": "OK",
      "vis_m": 8000,
      "fzfg": false,
      "metar_trigger": false,
      "taf_trigger": false,
      "metar": "METAR LQSA 060530Z VRB01KT 8000 BKN008 M00/M01 Q1009 NOSIG",
      "taf": "TAF LQSA 060500Z 0606/0706 29005KT 7000 SCT010 OVC030 TX00/0606Z TNM04/0706Z"
    },
    {
      "icao": "LQTZ",
      "alert": "OK",
      "vis_m": 3500,
      "fzfg": false,
      "metar_trigger": false,
      "taf_trigger": false,
      "metar": "METAR LQTZ 060530Z 00000KT 3500 BR SCT003 OVC010 M01/M01 Q1012",
      "taf": "TAF LQTZ 060500Z 0606/0706 30005KT 6000 SCT005 BKN015 OVC030 TXM00/0613Z TNM06/0705Z"
    },
    {
      "icao": "LRBC",
      "alert": "OK",
      "vis_m": 400,
      "fzfg": false,
      "metar_trigger": false,
      "taf_trigger": false,
      "metar": "METAR LRBC 060530Z 20004KT 0400 R16/0750N FG VV002 00/M00 Q1010",
      "taf": "TAF LRBC 060500Z 0606/0615 16006KT 0600 FG VV002"
    },
    {
      "icao": "LRBS",
      "alert": "OK",
      "vis_m": 300,
      "fzfg": false,
      "metar_trigger": false,
      "taf_trigger": false,
      "metar": "METAR LRBS 060530Z 00000KT 0300 R07/0700N FG VV002 02/02 Q1012 NOSIG",
      "taf": "TAF LRBS 060500Z 0606/0706 VRB04KT 0300 FG VV001"
    },
    {
      "icao": "LRBV",
      "alert": "OK",
      "vis_m": 9999,
      "fzfg": false,
      "metar_trigger": false,
      "taf_trigger": false,
      "metar": "METAR LRBV 060530Z 20013KT CAVOK 05/02 Q1008",
      "taf": "TAF LRBV 060500Z 0606/0615 15010KT 9999 SCT045"
    },
    {
      "icao": "LRCL",
      "alert": "OK",
      "vis_m": 5000,
      "fzfg": false,
      "metar_trigger": false,
      "taf_trigger": false,
      "metar": "METAR LRCL 060530Z 00000KT 5000 BR OVC043 01/00 Q1009",
      "taf": "TAF LRCL 060500Z 0606/0615 VRB04KT 5000 BR SCT010 OVC045"
    },
    {
      "icao": "LRCV",
      "alert": "OK",
      "vis_m": 5000,
      "fzfg": false,
      "metar_trigger": false,
      "taf_trigger": false,
      "metar": "METAR LRCV 060530Z 00000KT 5000 RA BR VV007 01/01 Q1011",
      "taf": "TAF LRCV 060500Z 0606/0615 VRB04KT 1500 BR BKN005 OVC035"
    },
    {
      "icao": "LRIA",
      "alert": "OK",
      "vis_m": 150,
      "fzfg": false,
      "metar_trigger": false,
      "taf_trigger": false,
      "metar": "METAR LRIA 060530Z 11007KT 0150 R14/0500N FG VV001 01/01 Q1010",
      "taf": "TAF LRIA 060500Z 0606/0615 10006KT 0150 FG VV001"
    },
    {
      "icao": "LROP",
      "alert": "OK",
      "vis_m": 250,
      "fzfg": false,
      "metar_trigger": false,
      "taf_trigger": false,
      "metar": "METAR LROP 060530Z 23001KT 0250 R08R/0300N R08L/0350N FG VV002 02/02 Q1012 NOSIG",
      "taf": "TAF LROP 060500Z 0606/0706 VRB04KT 0300 FG VV001"
    },
    {
      "icao": "LRSB",
      "alert": "OK",
      "vis_m": 7000,
      "fzfg": false,
      "metar_trigger": false,
      "taf_trigger": false,
      "metar": "METAR LRSB 060530Z 29004KT 7000 BKN075 01/00 Q1008 NOSIG",
      "taf": "TAF LRSB 060500Z 0606/0706 VRB04KT 5000 BR SCT015 SCT060"
    },
    {
      "icao": "LRSM",
      "alert": "OK",
      "vis_m": 700,
      "fzfg": false,
      "metar_trigger": false,
      "taf_trigger": false,
      "metar": "METAR LRSM 060530Z 00000KT 0700 R19/1300D -RA FG VV003 01/00 Q1010",
      "taf": "TAF LRSM 060500Z 0606/0615 VRB04KT 1500 -RADZ BR OVC005"
    },
    {
      "icao": "LRSV",
      "alert": "OK",
      "vis_m": 300,
      "fzfg": true,
      "metar_trigger": false,
      "taf_trigger": false,
      "metar": "METAR LRSV 060530Z 00000KT 0300 R34/0750D FZFG OVC003 M01/M01 Q1008",
      "taf": "TAF LRSV 060500Z 0606/0615 VRB04KT 0300 FZFG VV002"
    },
    {
      "icao": "LRTM",
      "alert": "OK",
      "vis_m": 2000,
      "fzfg": false,
      "metar_trigger": false,
      "taf_trigger": false,
      "metar": "METAR LRTM 060530Z 26002KT 2000 BR FEW004 SCT008 BKN034 00/M00 Q1009",
      "taf": "TAF LRTM 060500Z 0606/0615 VRB04KT 5000 BR SCT010 BKN040"
    },
    {
      "icao": "LRTR",
      "alert": "OK",
      "vis_m": 2500,
      "fzfg": false,
      "metar_trigger": false,
      "taf_trigger": false,
      "metar": "METAR LRTR 060530Z 26004KT 2500 -FZDZ BR SCT002 OVC003 M00/M00 Q1011",
      "taf": "TAF LRTR 060500Z 0606/0706 26006KT 3000 -FZDZ BR BKN005 OVC010"
    },
    {
      "icao": "LTAC",
      "alert": "OK",
      "vis_m": 150,
      "fzfg": true,
      "metar_trigger": false,
      "taf_trigger": false,
      "metar": "METAR LTAC 060550Z 03004KT 0150 R03C/0275N R21C/0175N R03L/0250N R03R/0300N FZFG VV001 M03/M03 Q1022 NOSIG",
      "taf": "TAF LTAC 060440Z 0606/0706 VRB02KT 0200 FZFG VV001"
    },
    {
      "icao": "LTFM",
      "alert": "OK",
      "vis_m": 9999,
      "fzfg": false,
      "metar_trigger": false,
      "taf_trigger": false,
      "metar": "METAR LTFM 060550Z 20016KT 9999 FEW040 BKN100 14/05 Q1015 NOSIG",
      "taf": "TAF LTFM 060440Z 0606/0712 19012KT 9999 SCT040 BKN090"
    },
    {
      "icao": "LUKK",
      "alert": "OK",
      "vis_m": 550,
      "fzfg": false,
      "metar_trigger": false,
      "taf_trigger": false,
      "metar": "METAR LUKK 060530Z VRB03KT 0550 0450SE R08/0650N FG VV002 00/00 Q1011 NOSIG",
      "taf": "TAF LUKK 060526Z 0606/0706 VRB05KT 0300 -DZ FG VV002"
    },
    {
      "icao": "LWOH",
      "alert": "OK",
      "vis_m": 9999,
      "fzfg": false,
      "metar_trigger": false,
      "taf_trigger": false,
      "metar": "METAR LWOH 060550Z 14006KT 120V180 9999 SCT015 OVC040 09/07 Q1009",
      "taf": "TAF LWOH 060545Z 0606/0706 VRB02KT 9999 -RA SCT020 OVC040"
    },
    {
      "icao": "LWSK",
      "alert": "OK",
      "vis_m": 9999,
      "fzfg": false,
      "metar_trigger": false,
      "taf_trigger": false,
      "metar": "METAR LWSK 060550Z VRB02KT 9999 FEW045 BKN075 09/07 Q1010 NOSIG",
      "taf": "TAF LWSK 060545Z 0606/0706 VRB02KT 9999 BKN045 BKN075"
    },
    {
      "icao": "LYBE",
      "alert": "OK",
      "vis_m": 8000,
      "fzfg": false,
      "metar_trigger": false,
      "taf_trigger": false,
      "metar": "METAR LYBE 060530Z 28007KT 8000 -FZDZ BKN006 M01/M02 Q1013 NOSIG",
      "taf": "TAF LYBE 060500Z 0606/0706 30007KT 7000 BKN006 BKN025 TXM00/0612Z TNM03/0706Z"
    },
    {
      "icao": "LYNI",
      "alert": "OK",
      "vis_m": 9999,
      "fzfg": false,
      "metar_trigger": false,
      "taf_trigger": false,
      "metar": "METAR LYNI 060530Z 33011KT 300V010 9999 RA SCT004 BKN027 OVC060 04/04 Q1009 NOSIG",
      "taf": "TAF LYNI 060500Z 0606/0706 33010KT 9999 SCT010 BKN030 OVC070 TX03/0606Z TNM01/0706Z"
    },
    {
      "icao": "LYPG",
      "alert": "OK",
      "vis_m": 6000,
      "fzfg": false,
      "metar_trigger": false,
      "taf_trigger": false,
      "metar": "METAR LYPG 060530Z VRB01KT 6000 -RA FEW006 SCT013 BKN026 10/10 Q1007 TEMPO 4000 BR",
      "taf": "TAF LYPG 060500Z 0606/0706 14005KT 8000 RA FEW010 BKN030 OVC070 TX14/0613Z TN09/0705Z"
    },
    {
      "icao": "LZIB",
      "alert": "OK",
      "vis_m": 9999,
      "fzfg": false,
      "metar_trigger": false,
      "taf_trigger": false,
      "metar": "METAR LZIB 060530Z 30013KT 9999 FEW045 M03/M10 Q1013 NOSIG",
      "taf": "TAF LZIB 060515Z 0606/0706 31015KT CAVOK"
    },
    {
      "icao": "LZKZ",
      "alert": "OK",
      "vis_m": 7000,
      "fzfg": false,
      "metar_trigger": false,
      "taf_trigger": false,
      "metar": "METAR LZKZ 060530Z 05006KT 7000 -SN NSC M03/M04 Q1010 NOSIG",
      "taf": "TAF LZKZ 060515Z 0606/0706 04006KT 9999 SCT045"
    },
    {
      "icao": "LZTT",
      "alert": "OK",
      "vis_m": 9999,
      "fzfg": false,
      "metar_trigger": false,
      "taf_trigger": false,
      "metar": "METAR LZTT 060530Z 30005KT 9999 -SN FEW035 BKN055 M06/M08 Q1008",
      "taf": "TAF LZTT 060515Z 0606/0706 31005KT 9999 BKN057"
    },
    {
      "icao": "OEJN",
      "alert": "OK",
      "vis_m": 7000,
      "fzfg": false,
      "metar_trigger": false,
      "taf_trigger": false,
      "metar": "METAR OEJN 060500Z 09002KT 7000 NSC 25/12 Q1016 NOSIG",
      "taf": "TAF OEJN 060500Z 0606/0712 VRB03KT 7000 NSC"
    },
    {
      "icao": "OEMA",
      "alert": "OK",
      "vis_m": 6000,
      "fzfg": false,
      "metar_trigger": false,
      "taf_trigger": false,
      "metar": "METAR OEMA 060500Z 05006KT 6000 FEW045 17/00 Q1023 NOSIG",
      "taf": "TAF OEMA 060500Z 0606/0712 09010KT 7000 FEW045"
    },
    {
      "icao": "OJAI",
      "alert": "OK",
      "vis_m": 4500,
      "fzfg": false,
      "metar_trigger": false,
      "taf_trigger": false,
      "metar": "METAR OJAI 060500Z 05008KT 4500 HZ FEW025 FEW080 05/M01 Q1024 NOSIG",
      "taf": "TAF OJAI 060446Z 0606/0712 12012KT 5000 HZ NSC"
    },
    {
      "icao": "OMAA",
      "alert": "OK",
      "vis_m": 9999,
      "fzfg": false,
      "metar_trigger": false,
      "taf_trigger": false,
      "metar": "METAR OMAA 060500Z 06005KT 010V130 CAVOK 18/11 Q1022 NOSIG",
      "taf": "TAF OMAA 060500Z 0606/0712 07005KT 8000 FEW025"
    },
    {
      "icao": "OMDB",
      "alert": "OK",
      "vis_m": 9999,
      "fzfg": false,
      "metar_trigger": false,
      "taf_trigger": false,
      "metar": "METAR OMDB 060530Z 07004KT 040V110 CAVOK 22/11 Q1022 NOSIG",
      "taf": "TAF OMDB 060500Z 0606/0712 07007KT 8000 NSC"
    },
    {
      "icao": "UAAA",
      "alert": "OK",
      "vis_m": 3400,
      "fzfg": false,
      "metar_trigger": false,
      "taf_trigger": false,
      "metar": "METAR UAAA 060530Z 24002MPS 210V280 3400 BR FEW008 BKN100 M01/M02 Q1031 NOSIG",
      "taf": "TAF UAAA 060503Z 0606/0706 04003MPS 6000 SCT011 BKN050 TX01/0609Z TNM04/0701Z"
    },
    {
      "icao": "UBBB",
      "alert": "OK",
      "vis_m": 3000,
      "fzfg": false,
      "metar_trigger": false,
      "taf_trigger": false,
      "metar": "METAR UBBB 060530Z VRB02KT 3000 BR NSC 04/04 Q1027 NOSIG",
      "taf": "TAF UBBB 060458Z 0606/0706 35005KT 6000 NSC TX12/0610Z TN04/0702Z"
    },
    {
      "icao": "UDSG",
      "alert": "OK",
      "vis_m": 7000,
      "fzfg": false,
      "metar_trigger": false,
      "taf_trigger": false,
      "metar": "METAR UDSG 060530Z 03001KT 7000 NSC M18/M19 Q1030 NOSIG",
      "taf": "TAF UDSG 060458Z 0606/0706 VRB06KT 9999 FEW040"
    },
    {
      "icao": "UDYZ",
      "alert": "OK",
      "vis_m": 3600,
      "fzfg": false,
      "metar_trigger": false,
      "taf_trigger": false,
      "metar": "METAR UDYZ 060530Z 00000KT 3600 BR NSC M13/M15 Q1033 NOSIG",
      "taf": "TAF UDYZ 060500Z 0606/0706 VRB06KT 6000 FEW040"
    },
    {
      "icao": "UGKO",
      "alert": "OK",
      "vis_m": 9999,
      "fzfg": false,
      "metar_trigger": false,
      "taf_trigger": false,
      "metar": "METAR UGKO 060530Z 10013KT CAVOK 10/M00 Q1019 NOSIG",
      "taf": "TAF UGKO 060500Z 0606/0706 08007KT CAVOK TX16/0611Z TN02/0703Z"
    }
  ]
}