{
  "ts_utc": "2026-02-16T10:09:07Z",
  "threshold_m": 150,
  "source": "stations_override.txt (ICAO list) + aviationweather.gov (METAR/TAF raw)",
  "station_count": 159,
  "stations": [
    {
      "icao": "BIKF",
      "alert": "OK",
      "vis_m": 9999,
      "fzfg": false,
      "metar_trigger": false,
      "taf_trigger": false,
      "metar": "METAR BIKF 161000Z 01009KT CAVOK M05/M09 Q1010",
      "taf": "TAF BIKF 160800Z 1609/1709 04008KT CAVOK TXM01/1614Z TNM06/1609Z"
    },
    {
      "icao": "BKPR",
      "alert": "OK",
      "vis_m": 9999,
      "fzfg": false,
      "metar_trigger": false,
      "taf_trigger": false,
      "metar": "METAR BKPR 161000Z 13004KT 9999 SCT020 BKN040 03/01 Q1007 NOSIG",
      "taf": "TAF BKPR 160530Z 1606/1706 19006KT 9999 SCT040"
    },
    {
      "icao": "EBCI",
      "alert": "OK",
      "vis_m": 5000,
      "fzfg": false,
      "metar_trigger": false,
      "taf_trigger": false,
      "metar": "METAR EBCI 160950Z COR 23013G25KT 5000 -SHRA SCT008 BKN015TCU BKN032 05/04 Q0996 TEMPO 24015G25KT 3000 SHRA SCT008 BKN013TCU",
      "taf": "TAF EBCI 160500Z 1606/1712 24010KT 9999 FEW013 BKN025"
    },
    {
      "icao": "EDDB",
      "alert": "OK",
      "vis_m": 9999,
      "fzfg": false,
      "metar_trigger": false,
      "taf_trigger": false,
      "metar": "METAR EDDB 160950Z AUTO 11015KT 9999 -SN BKN030 BKN040 M03/M08 Q0998 BECMG 4000 -SN BR BKN013",
      "taf": "TAF EDDB 160500Z 1606/1706 13011KT CAVOK"
    },
    {
      "icao": "EDDH",
      "alert": "OK",
      "vis_m": 2400,
      "fzfg": false,
      "metar_trigger": false,
      "taf_trigger": false,
      "metar": "METAR EDDH 160950Z AUTO 12012KT 2400 -SN BR FEW012 SCT022 M03/M05 Q0995 TEMPO 4000 BKN012",
      "taf": "TAF EDDH 160500Z 1606/1712 12013KT 6000 BKN015"
    },
    {
      "icao": "EDDK",
      "alert": "OK",
      "vis_m": 9999,
      "fzfg": false,
      "metar_trigger": false,
      "taf_trigger": false,
      "metar": "METAR EDDK 160950Z AUTO 24009KT 9999 VCSH BKN017 FEW///TCU 06/04 Q0995 TEMPO SHRA",
      "taf": "TAF EDDK 160500Z 1606/1712 24008KT 9999 BKN012"
    },
    {
      "icao": "EDDN",
      "alert": "OK",
      "vis_m": 9999,
      "fzfg": false,
      "metar_trigger": false,
      "taf_trigger": false,
      "metar": "METAR EDDN 160950Z AUTO 26011KT 9999 BKN018 BKN029 OVC041 04/02 Q0997 NOSIG",
      "taf": "TAF EDDN 160500Z 1606/1706 14006KT 9999 FEW012 BKN025"
    },
    {
      "icao": "EDDS",
      "alert": "OK",
      "vis_m": 9999,
      "fzfg": false,
      "metar_trigger": false,
      "taf_trigger": false,
      "metar": "METAR EDDS 160950Z AUTO 23011KT 190V260 9999 FEW020 BKN038 07/03 Q0998 NOSIG",
      "taf": "TAF EDDS 160500Z 1606/1706 24008KT 9999 BKN025"
    },
    {
      "icao": "EDFH",
      "alert": "OK",
      "vis_m": 9999,
      "fzfg": false,
      "metar_trigger": false,
      "taf_trigger": false,
      "metar": "METAR EDFH 160950Z 25011KT 220V280 9999 SCT007 BKN010CB OVC015 04/02 Q0996",
      "taf": "TAF EDFH 160500Z 1606/1706 26013KT 6000 BKN005"
    },
    {
      "icao": "EDJA",
      "alert": "OK",
      "vis_m": 9999,
      "fzfg": false,
      "metar_trigger": false,
      "taf_trigger": false,
      "metar": "METAR EDJA 160950Z 23018G29KT 9999 FEW012 BKN044 OVC057 05/02 Q1000",
      "taf": "TAF EDJA 160800Z 1609/1618 23015G25KT 9999 FEW012 BKN035"
    },
    {
      "icao": "EDLW",
      "alert": "OK",
      "vis_m": 9999,
      "fzfg": false,
      "metar_trigger": false,
      "taf_trigger": false,
      "metar": "METAR EDLW 160950Z 23011KT 9999 R24///// SCT008 BKN012 BKN034 05/04 Q0994",
      "taf": ""
    },
    {
      "icao": "EDNY",
      "alert": "OK",
      "vis_m": 9999,
      "fzfg": false,
      "metar_trigger": false,
      "taf_trigger": false,
      "metar": "METAR EDNY 160950Z 23010KT 9999 FEW026 SCT048 BKN055 06/03 Q1002",
      "taf": "TAF EDNY 160800Z 1609/1618 24010KT 9999 SCT015 BKN030"
    },
    {
      "icao": "EDSB",
      "alert": "OK",
      "vis_m": 9999,
      "fzfg": false,
      "metar_trigger": false,
      "taf_trigger": false,
      "metar": "METAR EDSB 160950Z 20016KT 9999 BKN029 OVC035 08/04 Q1000",
      "taf": "TAF EDSB 160500Z 1606/1706 21011KT 9999 BKN020"
    },
    {
      "icao": "EETN",
      "alert": "OK",
      "vis_m": 9999,
      "fzfg": false,
      "metar_trigger": false,
      "taf_trigger": false,
      "metar": "METAR EETN 160950Z 10003KT 9999 OVC019 M05/M08 Q1012 NOSIG",
      "taf": "TAF EETN 160530Z 1606/1706 VRB02KT 9999 BKN025"
    },
    {
      "icao": "EFTU",
      "alert": "OK",
      "vis_m": 9999,
      "fzfg": false,
      "metar_trigger": false,
      "taf_trigger": false,
      "metar": "METAR EFTU 160950Z AUTO 11003KT 9999 OVC005 M08/M09 Q1012",
      "taf": "TAF EFTU 160822Z 1609/1709 12004KT 9999 OVC006"
    },
    {
      "icao": "EGBB",
      "alert": "OK",
      "vis_m": 9999,
      "fzfg": false,
      "metar_trigger": false,
      "taf_trigger": false,
      "metar": "METAR EGBB 160950Z 26011KT 220V290 9999 SCT025 06/02 Q0994",
      "taf": "TAF EGBB 160458Z 1606/1706 23009KT 9999 SCT030"
    },
    {
      "icao": "EGGP",
      "alert": "OK",
      "vis_m": 8000,
      "fzfg": false,
      "metar_trigger": false,
      "taf_trigger": false,
      "metar": "METAR EGGP 160950Z 27018KT 8000 -RA SCT014 BKN025 06/04 Q0993",
      "taf": "TAF EGGP 160454Z 1606/1706 26014KT 9999 SCT025"
    },
    {
      "icao": "EGGW",
      "alert": "OK",
      "vis_m": 9999,
      "fzfg": false,
      "metar_trigger": false,
      "taf_trigger": false,
      "metar": "METAR EGGW 160950Z AUTO 27017KT 9999 NCD 06/03 Q0995",
      "taf": "TAF EGGW 160454Z 1606/1706 25014KT 9999 FEW030"
    },
    {
      "icao": "EGKK",
      "alert": "OK",
      "vis_m": 9999,
      "fzfg": false,
      "metar_trigger": false,
      "taf_trigger": false,
      "metar": "METAR EGKK 160950Z 27015KT 9999 FEW023 07/03 Q0997",
      "taf": "TAF EGKK 160454Z 1606/1712 25010KT 9999 FEW040"
    },
    {
      "icao": "EGNM",
      "alert": "OK",
      "vis_m": 9999,
      "fzfg": false,
      "metar_trigger": false,
      "taf_trigger": false,
      "metar": "METAR EGNM 160950Z 28014KT 9999 VCSH FEW008 SCT019 04/03 Q0991",
      "taf": "TAF EGNM 160453Z 1606/1706 28012KT 9999 SCT015"
    },
    {
      "icao": "EGPD",
      "alert": "OK",
      "vis_m": 9999,
      "fzfg": false,
      "metar_trigger": false,
      "taf_trigger": false,
      "metar": "METAR EGPD 160950Z COR AUTO 28008KT 9999 NCD 04/01 Q0987 NOSIG",
      "taf": ""
    },
    {
      "icao": "EGPF",
      "alert": "OK",
      "vis_m": 9999,
      "fzfg": false,
      "metar_trigger": false,
      "taf_trigger": false,
      "metar": "METAR EGPF 160950Z AUTO 26003KT 230V300 9999 SCT027 BKN031 BKN045 05/03 Q0990",
      "taf": "TAF EGPF 160456Z 1606/1706 26005KT 9999 FEW015 SCT025"
    },
    {
      "icao": "EHBK",
      "alert": "OK",
      "vis_m": 9999,
      "fzfg": false,
      "metar_trigger": false,
      "taf_trigger": false,
      "metar": "METAR EHBK 160955Z AUTO 22012KT 9999 FEW013 BKN015 BKN019 07/05 Q0995 TEMPO BKN013",
      "taf": ""
    },
    {
      "icao": "EHEH",
      "alert": "OK",
      "vis_m": 9999,
      "fzfg": false,
      "metar_trigger": false,
      "taf_trigger": false,
      "metar": "METAR EHEH 160955Z AUTO 23010KT 200V260 9999 FEW010 SCT190 07/05 Q0994 BLU BECMG SCT012 BKN015 RMK TREND REMOTE BY EHWX",
      "taf": "TAF EHEH 160556Z 1606/1712 24008KT 6000 BKN006"
    },
    {
      "icao": "EKBI",
      "alert": "OK",
      "vis_m": 9999,
      "fzfg": false,
      "metar_trigger": false,
      "taf_trigger": false,
      "metar": "METAR EKBI 160950Z 11013KT 080V140 9999 -SN DRSN BKN014 M04/M07 Q0996",
      "taf": "TAF EKBI 160827Z 1609/1709 13015KT 9999 -SN BKN018"
    },
    {
      "icao": "EKCH",
      "alert": "OK",
      "vis_m": 9999,
      "fzfg": false,
      "metar_trigger": false,
      "taf_trigger": false,
      "metar": "METAR EKCH 160950Z AUTO 13023KT 9999 NCD M03/M10 Q1002 TEMPO 12023G33KT",
      "taf": "TAF EKCH 160827Z 1609/1709 12020KT CAVOK"
    },
    {
      "icao": "ENAL",
      "alert": "OK",
      "vis_m": 9999,
      "fzfg": false,
      "metar_trigger": false,
      "taf_trigger": false,
      "metar": "METAR ENAL 160950Z 19011KT CAVOK 04/M09 Q0992",
      "taf": "TAF ENAL 160800Z 1609/1618 18012KT CAVOK"
    },
    {
      "icao": "ENBR",
      "alert": "OK",
      "vis_m": 9999,
      "fzfg": false,
      "metar_trigger": false,
      "taf_trigger": false,
      "metar": "METAR ENBR 160950Z 13013KT CAVOK 01/M10 Q0993 NOSIG RMK WIND 1200FT 13031KT",
      "taf": "TAF ENBR 160500Z 1606/1706 14012KT CAVOK"
    },
    {
      "icao": "ENGM",
      "alert": "OK",
      "vis_m": 9999,
      "fzfg": false,
      "metar_trigger": false,
      "taf_trigger": false,
      "metar": "METAR ENGM 160950Z 14007KT 9999 -SN SCT020 OVC023 M06/M10 Q1003 NOSIG",
      "taf": "TAF ENGM 160500Z 1606/1706 16008KT 9999 -SN BKN020"
    },
    {
      "icao": "ENHD",
      "alert": "OK",
      "vis_m": 9999,
      "fzfg": false,
      "metar_trigger": false,
      "taf_trigger": false,
      "metar": "METAR ENHD 160950Z 12018KT CAVOK 01/M07 Q0993",
      "taf": "TAF ENHD 160800Z 1609/1618 11020KT 9999 SCT040"
    },
    {
      "icao": "ENTC",
      "alert": "OK",
      "vis_m": 9999,
      "fzfg": false,
      "metar_trigger": false,
      "taf_trigger": false,
      "metar": "METAR ENTC 160950Z 07003KT CAVOK M05/M07 Q0994 NOSIG RMK WIND 2600FT 16013KT",
      "taf": "TAF ENTC 160500Z 1606/1706 02006KT 9999 SCT015 BKN025"
    },
    {
      "icao": "ENTO",
      "alert": "OK",
      "vis_m": 9999,
      "fzfg": false,
      "metar_trigger": false,
      "taf_trigger": false,
      "metar": "METAR ENTO 160950Z 11006KT 060V160 9999 BKN013 OVC017 M05/M08 Q1003 RESN TEMPO BKN015",
      "taf": "TAF ENTO 160500Z 1606/1706 12007KT 9999 OVC018"
    },
    {
      "icao": "ENVA",
      "alert": "OK",
      "vis_m": 9999,
      "fzfg": false,
      "metar_trigger": false,
      "taf_trigger": false,
      "metar": "METAR ENVA 160950Z 15010KT 120V180 CAVOK M01/M10 Q0995 WS R09 NOSIG RMK WIND 670FT 17019G30KT",
      "taf": "TAF ENVA 160500Z 1606/1706 14009KT CAVOK"
    },
    {
      "icao": "ENZV",
      "alert": "OK",
      "vis_m": 9999,
      "fzfg": false,
      "metar_trigger": false,
      "taf_trigger": false,
      "metar": "METAR ENZV 160950Z 13022KT CAVOK 01/M07 Q0993 TEMPO 13020G30KT",
      "taf": "TAF ENZV 160500Z 1606/1706 14015KT 9999 SCT035"
    },
    {
      "icao": "EPGD",
      "alert": "OK",
      "vis_m": 9999,
      "fzfg": false,
      "metar_trigger": false,
      "taf_trigger": false,
      "metar": "METAR EPGD 161000Z 12013KT CAVOK M11/M19 Q1008",
      "taf": "TAF EPGD 160530Z 1606/1706 11012KT CAVOK"
    },
    {
      "icao": "EPKK",
      "alert": "OK",
      "vis_m": 9999,
      "fzfg": false,
      "metar_trigger": false,
      "taf_trigger": false,
      "metar": "METAR EPKK 161000Z 07012KT 9999 BKN013 M06/M10 Q1003",
      "taf": "TAF EPKK 160830Z 1609/1709 08012KT 9999 OVC011"
    },
    {
      "icao": "EPKT",
      "alert": "OK",
      "vis_m": 9999,
      "fzfg": false,
      "metar_trigger": false,
      "taf_trigger": false,
      "metar": "METAR EPKT 161000Z 09013KT CAVOK M07/M10 Q1002",
      "taf": "TAF EPKT 160530Z 1606/1706 10010KT 9999 -SN BKN005"
    },
    {
      "icao": "EPLB",
      "alert": "OK",
      "vis_m": 9999,
      "fzfg": false,
      "metar_trigger": false,
      "taf_trigger": false,
      "metar": "METAR EPLB 161000Z VRB02KT CAVOK M10/M14 Q1007",
      "taf": "TAF EPLB 160530Z 1606/1706 10010KT CAVOK"
    },
    {
      "icao": "EPMO",
      "alert": "OK",
      "vis_m": 9999,
      "fzfg": false,
      "metar_trigger": false,
      "taf_trigger": false,
      "metar": "METAR EPMO 161000Z 06008KT CAVOK M09/M13 Q1008",
      "taf": "TAF EPMO 160530Z 1606/1706 09010KT CAVOK"
    },
    {
      "icao": "EPPO",
      "alert": "OK",
      "vis_m": 9999,
      "fzfg": false,
      "metar_trigger": false,
      "taf_trigger": false,
      "metar": "METAR EPPO 161000Z 12017KT CAVOK M06/M11 Q1003",
      "taf": "TAF EPPO 160530Z 1606/1706 11010KT CAVOK"
    },
    {
      "icao": "EPRA",
      "alert": "OK",
      "vis_m": 9999,
      "fzfg": false,
      "metar_trigger": false,
      "taf_trigger": false,
      "metar": "METAR EPRA 161000Z 09008KT 070V130 CAVOK M08/M13 Q1006",
      "taf": "TAF EPRA 160830Z 1609/1618 13008KT CAVOK"
    },
    {
      "icao": "EPRZ",
      "alert": "OK",
      "vis_m": 9999,
      "fzfg": false,
      "metar_trigger": false,
      "taf_trigger": false,
      "metar": "METAR EPRZ 161000Z 08006KT 9999 SCT016 M07/M11 Q1006",
      "taf": ""
    },
    {
      "icao": "EPSC",
      "alert": "OK",
      "vis_m": 9999,
      "fzfg": false,
      "metar_trigger": false,
      "taf_trigger": false,
      "metar": "METAR EPSC 161000Z 11016KT CAVOK M05/M12 Q1002",
      "taf": "TAF EPSC 160530Z 1606/1706 13015KT CAVOK"
    },
    {
      "icao": "EPSY",
      "alert": "OK",
      "vis_m": 9999,
      "fzfg": false,
      "metar_trigger": false,
      "taf_trigger": false,
      "metar": "METAR EPSY 161000Z 10009G19KT 060V220 CAVOK M09/M19 Q1008",
      "taf": "TAF EPSY 160830Z 1609/1618 07006KT CAVOK"
    },
    {
      "icao": "EPWA",
      "alert": "OK",
      "vis_m": 9999,
      "fzfg": false,
      "metar_trigger": false,
      "taf_trigger": false,
      "metar": "METAR EPWA 161000Z 10008KT 060V130 CAVOK M08/M14 Q1007 NOSIG",
      "taf": "TAF EPWA 160830Z 1609/1709 10010KT CAVOK"
    },
    {
      "icao": "EPWR",
      "alert": "OK",
      "vis_m": 9999,
      "fzfg": false,
      "metar_trigger": false,
      "taf_trigger": false,
      "metar": "METAR EPWR 161000Z 13018KT 9999 BKN017 M04/M09 Q1001",
      "taf": "TAF EPWR 160830Z 1609/1709 14015KT 9999 BKN020"
    },
    {
      "icao": "ESGG",
      "alert": "OK",
      "vis_m": 9999,
      "fzfg": false,
      "metar_trigger": false,
      "taf_trigger": false,
      "metar": "METAR ESGG 160950Z 14014KT CAVOK M05/M12 Q1002",
      "taf": "TAF ESGG 160830Z 1609/1709 15014G25KT CAVOK"
    },
    {
      "icao": "ESKN",
      "alert": "OK",
      "vis_m": 9999,
      "fzfg": false,
      "metar_trigger": false,
      "taf_trigger": false,
      "metar": "METAR ESKN 160950Z 14004KT CAVOK M05/M09 Q1009",
      "taf": "TAF ESKN 160830Z 1609/1709 VRB03KT CAVOK"
    },
    {
      "icao": "ESMS",
      "alert": "OK",
      "vis_m": 9999,
      "fzfg": false,
      "metar_trigger": false,
      "taf_trigger": false,
      "metar": "METAR ESMS 160950Z 12015G25KT 090V150 CAVOK M03/M12 Q1002",
      "taf": "TAF ESMS 160827Z 1609/1709 13015KT CAVOK"
    },
    {
      "icao": "ESSA",
      "alert": "OK",
      "vis_m": 9999,
      "fzfg": false,
      "metar_trigger": false,
      "taf_trigger": false,
      "metar": "METAR ESSA 160950Z 15005KT CAVOK M06/M09 Q1010 NOSIG",
      "taf": "TAF ESSA 160830Z 1609/1709 16005KT CAVOK"
    },
    {
      "icao": "EYKA",
      "alert": "OK",
      "vis_m": 9999,
      "fzfg": false,
      "metar_trigger": false,
      "taf_trigger": false,
      "metar": "METAR EYKA 160950Z 34011KT CAVOK M09/M14 Q1011",
      "taf": "TAF EYKA 160501Z 1606/1706 VRB04KT 9000 NSC"
    },
    {
      "icao": "EYPA",
      "alert": "OK",
      "vis_m": 9999,
      "fzfg": false,
      "metar_trigger": false,
      "taf_trigger": false,
      "metar": "METAR EYPA 160950Z 17003KT 140V200 9999 BKN028 M08/M14 Q1013",
      "taf": "TAF EYPA 160500Z 1606/1706 VRB04KT 9000 NSC"
    },
    {
      "icao": "EYVI",
      "alert": "OK",
      "vis_m": 9999,
      "fzfg": false,
      "metar_trigger": false,
      "taf_trigger": false,
      "metar": "METAR EYVI 160950Z 03006KT CAVOK M11/M20 Q1009 NOSIG",
      "taf": "TAF EYVI 160500Z 1606/1706 02008KT 8000 SCT020"
    },
    {
      "icao": "GCFV",
      "alert": "OK",
      "vis_m": 9999,
      "fzfg": false,
      "metar_trigger": false,
      "taf_trigger": false,
      "metar": "METAR GCFV 161000Z 01006KT 340V050 9999 FEW010 BKN030 19/16 Q1030",
      "taf": "TAF GCFV 160800Z 1609/1709 07010KT 7000 NSC TX25/1614Z TN17/1706Z"
    },
    {
      "icao": "GCLP",
      "alert": "OK",
      "vis_m": 7000,
      "fzfg": false,
      "metar_trigger": false,
      "taf_trigger": false,
      "metar": "METAR GCLP 161000Z 16007KT 7000 NSC 21/12 Q1029 NOSIG",
      "taf": "TAF GCLP 160800Z 1609/1709 16008KT 7000 NSC TX26/1614Z TN16/1706Z"
    },
    {
      "icao": "GCTS",
      "alert": "OK",
      "vis_m": 9000,
      "fzfg": false,
      "metar_trigger": false,
      "taf_trigger": false,
      "metar": "METAR GCTS 161000Z 08012KT 9000 NSC 22/07 Q1028 NOSIG",
      "taf": "TAF GCTS 160800Z 1609/1709 09014KT 7000 NSC TX27/1614Z TN18/1706Z"
    },
    {
      "icao": "GMAD",
      "alert": "OK",
      "vis_m": 9999,
      "fzfg": false,
      "metar_trigger": false,
      "taf_trigger": false,
      "metar": "METAR GMAD 161000Z 08008KT CAVOK 18/10 Q1028 NOSIG",
      "taf": "TAF GMAD 160500Z 1606/1712 06008KT CAVOK"
    },
    {
      "icao": "GMMN",
      "alert": "OK",
      "vis_m": 9999,
      "fzfg": false,
      "metar_trigger": false,
      "taf_trigger": false,
      "metar": "METAR GMMN 161000Z 05011KT CAVOK 13/10 Q1032 NOSIG",
      "taf": "TAF GMMN 160500Z 1606/1712 06008KT CAVOK"
    },
    {
      "icao": "GMMX",
      "alert": "OK",
      "vis_m": 9999,
      "fzfg": false,
      "metar_trigger": false,
      "taf_trigger": false,
      "metar": "METAR GMMX 161000Z 08007KT 050V110 CAVOK 15/07 Q1030 NOSIG",
      "taf": "TAF GMMX 160500Z 1606/1712 06006KT 8000 NSC"
    },
    {
      "icao": "HEGN",
      "alert": "OK",
      "vis_m": 9999,
      "fzfg": false,
      "metar_trigger": false,
      "taf_trigger": false,
      "metar": "METAR HEGN 160900Z 12004KT CAVOK 28/03 Q1014 NOSIG",
      "taf": "TAF HEGN 160500Z 1606/1712 27008KT 6000 NSC"
    },
    {
      "icao": "HEMA",
      "alert": "OK",
      "vis_m": 9999,
      "fzfg": false,
      "metar_trigger": false,
      "taf_trigger": false,
      "metar": "METAR HEMA 160900Z 36012KT CAVOK 28/04 Q1014 NOSIG",
      "taf": "TAF HEMA 160500Z 1606/1712 26008KT 6000 NSC"
    },
    {
      "icao": "HESH",
      "alert": "OK",
      "vis_m": 8000,
      "fzfg": false,
      "metar_trigger": false,
      "taf_trigger": false,
      "metar": "METAR HESH 160900Z 02008KT 8000 NSC 30/05 Q1014 NOSIG",
      "taf": "TAF HESH 160500Z 1606/1712 31008KT 6000 NSC"
    },
    {
      "icao": "HESX",
      "alert": "OK",
      "vis_m": 9999,
      "fzfg": false,
      "metar_trigger": false,
      "taf_trigger": false,
      "metar": "METAR HESX 160900Z 20010KT CAVOK 27/M06 Q1013 NOSIG",
      "taf": "TAF HESX 160500Z 1606/1712 18007KT 6000 NSC"
    },
    {
      "icao": "LATI",
      "alert": "OK",
      "vis_m": 9999,
      "fzfg": false,
      "metar_trigger": false,
      "taf_trigger": false,
      "metar": "METAR LATI 160950Z 13006KT 080V160 9999 FEW045 SCT080 14/06 Q1008 NOSIG",
      "taf": "TAF LATI 160500Z 1606/1706 VRB05KT 9999 BKN040 TX13/1612Z TN08/1606Z"
    },
    {
      "icao": "LBPD",
      "alert": "OK",
      "vis_m": 9999,
      "fzfg": false,
      "metar_trigger": false,
      "taf_trigger": false,
      "metar": "METAR LBPD 161000Z AUTO 13006KT 9999 BKN100/// 08/04 Q1006 NOSIG",
      "taf": "TAF LBPD 160500Z 1606/1706 29010KT 9999 BKN040"
    },
    {
      "icao": "LBSF",
      "alert": "OK",
      "vis_m": 9999,
      "fzfg": false,
      "metar_trigger": false,
      "taf_trigger": false,
      "metar": "METAR LBSF 161000Z VRB02KT 9999 OVC019 04/M01 Q1007 NOSIG",
      "taf": "TAF LBSF 160500Z 1606/1706 29010KT 9999 BKN040"
    },
    {
      "icao": "LBWN",
      "alert": "OK",
      "vis_m": 9999,
      "fzfg": false,
      "metar_trigger": false,
      "taf_trigger": false,
      "metar": "METAR LBWN 161000Z 28005KT 240V300 9999 -RA BKN035 OVC040 06/00 Q1008 NOSIG",
      "taf": "TAF LBWN 160500Z 1606/1706 30010KT 9999 SCT045"
    },
    {
      "icao": "LCLK",
      "alert": "OK",
      "vis_m": 6000,
      "fzfg": false,
      "metar_trigger": false,
      "taf_trigger": false,
      "metar": "METAR LCLK 161000Z 08007KT 6000 NSC 22/17 Q1014 BECMG 5000 DU",
      "taf": "TAF LCLK 160530Z 1606/1706 35007KT 9999 FEW025"
    },
    {
      "icao": "LCPH",
      "alert": "OK",
      "vis_m": 5000,
      "fzfg": false,
      "metar_trigger": false,
      "taf_trigger": false,
      "metar": "METAR LCPH 161000Z 15017KT 5000 DU NSC 22/10 Q1013 NOSIG",
      "taf": "TAF LCPH 160530Z 1606/1706 08009KT 9999 FEW020"
    },
    {
      "icao": "LEAL",
      "alert": "OK",
      "vis_m": 9999,
      "fzfg": false,
      "metar_trigger": false,
      "taf_trigger": false,
      "metar": "METAR LEAL 161000Z 28019KT 250V320 9999 FEW010 17/06 Q1022 NOSIG",
      "taf": "TAF LEAL 160500Z 1606/1706 29012KT CAVOK TX22/1613Z TN13/1606Z"
    },
    {
      "icao": "LEBB",
      "alert": "OK",
      "vis_m": 3500,
      "fzfg": false,
      "metar_trigger": false,
      "taf_trigger": false,
      "metar": "METAR LEBB 161000Z 24005KT 190V300 3500 RA FEW015 OVC021 12/11 Q1019 NOSIG",
      "taf": "TAF LEBB 160500Z 1606/1706 20008KT 9999 FEW015 BKN025 TX14/1609Z TN10/1706Z"
    },
    {
      "icao": "LEBL",
      "alert": "OK",
      "vis_m": 9999,
      "fzfg": false,
      "metar_trigger": false,
      "taf_trigger": false,
      "metar": "METAR LEBL 161000Z 25016KT 9999 FEW030 17/09 Q1014 NOSIG",
      "taf": "TAF LEBL 160500Z 1606/1706 23012KT 9999 FEW035 TX21/1613Z TN13/1606Z"
    },
    {
      "icao": "LECH",
      "alert": "OK",
      "vis_m": 9999,
      "fzfg": false,
      "metar_trigger": false,
      "taf_trigger": false,
      "metar": "METAR LECH 161000Z AUTO 22006KT CAVOK 17/06 Q1017",
      "taf": ""
    },
    {
      "icao": "LEMD",
      "alert": "OK",
      "vis_m": 9999,
      "fzfg": false,
      "metar_trigger": false,
      "taf_trigger": false,
      "metar": "METAR LEMD 161000Z 21014KT 9999 FEW070 10/08 Q1025 NOSIG",
      "taf": ""
    },
    {
      "icao": "LEMG",
      "alert": "OK",
      "vis_m": 9999,
      "fzfg": false,
      "metar_trigger": false,
      "taf_trigger": false,
      "metar": "METAR LEMG 161000Z 30021G32KT 9999 FEW040 15/07 Q1029 NOSIG",
      "taf": "TAF LEMG 160500Z 1606/1706 30012KT 9999 SCT040 TX19/1614Z TN12/1607Z"
    },
    {
      "icao": "LEVC",
      "alert": "OK",
      "vis_m": 9999,
      "fzfg": false,
      "metar_trigger": false,
      "taf_trigger": false,
      "metar": "METAR LEVC 161000Z 26028G39KT CAVOK 16/06 Q1019 NOSIG",
      "taf": "TAF LEVC 160500Z 1606/1706 27014KT CAVOK TX23/1614Z TN13/1606Z"
    },
    {
      "icao": "LEXJ",
      "alert": "OK",
      "vis_m": 1400,
      "fzfg": false,
      "metar_trigger": false,
      "taf_trigger": false,
      "metar": "METAR LEXJ 161000Z 24008KT 200V290 1400 R29/P2000 R11/P2000 RA OVC008 12/11 Q1019",
      "taf": "TAF LEXJ 160800Z 1609/1709 24009KT 9999 SCT005 BKN016 TX14/1613Z TN11/1706Z"
    },
    {
      "icao": "LEZG",
      "alert": "OK",
      "vis_m": 9999,
      "fzfg": false,
      "metar_trigger": false,
      "taf_trigger": false,
      "metar": "METAR LEZG 161000Z 27021KT 9999 FEW080 17/08 Q1018 NOSIG",
      "taf": "TAF LEZG 160500Z 1606/1706 27012KT CAVOK TX17/1612Z TN11/1606Z"
    },
    {
      "icao": "LEZL",
      "alert": "OK",
      "vis_m": 9999,
      "fzfg": false,
      "metar_trigger": false,
      "taf_trigger": false,
      "metar": "METAR LEZL 161000Z 24004KT 190V280 9999 FEW038 15/10 Q1032 NOSIG",
      "taf": "TAF LEZL 160800Z 1609/1709 27006KT 9999 SCT040 TX19/1615Z TN08/1707Z"
    },
    {
      "icao": "LFBD",
      "alert": "OK",
      "vis_m": 9999,
      "fzfg": false,
      "metar_trigger": false,
      "taf_trigger": false,
      "metar": "METAR LFBD 161000Z AUTO 29012KT 9999 OVC021 13/10 Q1014 TEMPO 29020G30KT 4000 SHRA BKN006 BKN015TCU",
      "taf": "TAF LFBD 160500Z 1606/1712 27015KT 9999 BKN012 TX14/1614Z TN12/1621Z"
    },
    {
      "icao": "LFLL",
      "alert": "OK",
      "vis_m": 9999,
      "fzfg": false,
      "metar_trigger": false,
      "taf_trigger": false,
      "metar": "METAR LFLL 161000Z 11007KT 9999 -RA SCT030CB BKN036 07/06 Q1007 TEMPO 4000 SHRA FEW030CB BKN040TCU",
      "taf": "TAF LFLL 160500Z 1606/1712 20010KT 9999 BKN040"
    },
    {
      "icao": "LFLS",
      "alert": "OK",
      "vis_m": 9999,
      "fzfg": false,
      "metar_trigger": false,
      "taf_trigger": false,
      "metar": "METAR LFLS 161000Z AUTO 10005KT 9999 BKN017 BKN024 OVC029 07/06 Q1007 TEMPO VRB15G30KT 4000 SHRA BKN025TCU",
      "taf": "TAF LFLS 160800Z 1609/1709 VRB05KT 9000 -RA SCT015 OVC040"
    },
    {
      "icao": "LFMN",
      "alert": "OK",
      "vis_m": 9999,
      "fzfg": false,
      "metar_trigger": false,
      "taf_trigger": false,
      "metar": "METAR LFMN 161000Z 30020KT CAVOK 18/04 Q1003 NOSIG",
      "taf": "TAF LFMN 160800Z 1609/1715 26020KT CAVOK"
    },
    {
      "icao": "LFOB",
      "alert": "OK",
      "vis_m": 9999,
      "fzfg": false,
      "metar_trigger": false,
      "taf_trigger": false,
      "metar": "METAR LFOB 161000Z AUTO 26015KT 9999 BKN021/// BKN026/// ///TCU 08/05 Q0999 TEMPO 27018G35KT 3500 SHRA SCT014 SCT020CB SCT030TCU",
      "taf": "TAF LFOB 160500Z 1606/1706 24010G20KT 9999 BKN030"
    },
    {
      "icao": "LFPO",
      "alert": "OK",
      "vis_m": 9999,
      "fzfg": false,
      "metar_trigger": false,
      "taf_trigger": false,
      "metar": "METAR LFPO 161000Z 27016KT 9999 FEW016 SCT160 09/04 Q1001 TEMPO 27015G30KT",
      "taf": "TAF LFPO 160500Z 1606/1712 26010KT CAVOK"
    },
    {
      "icao": "LFSB",
      "alert": "OK",
      "vis_m": 9999,
      "fzfg": false,
      "metar_trigger": false,
      "taf_trigger": false,
      "metar": "METAR LFSB 161000Z AUTO 22005KT 9999 FEW015/// BKN026/// BKN066/// ///TCU 09/05 Q1002 TEMPO 4500 SHRA FEW025CB BECMG 25015G25KT",
      "taf": "TAF LFSB 160500Z 1606/1706 25015G25KT 9999 FEW030 BKN045"
    },
    {
      "icao": "LGAV",
      "alert": "OK",
      "vis_m": 9999,
      "fzfg": false,
      "metar_trigger": false,
      "taf_trigger": false,
      "metar": "METAR LGAV 160950Z 21017KT 9999 SCT018 17/11 Q1007 NOSIG",
      "taf": "TAF LGAV 160500Z 1606/1706 24010KT 9999 FEW018 SCT025"
    },
    {
      "icao": "LGTS",
      "alert": "OK",
      "vis_m": 9999,
      "fzfg": false,
      "metar_trigger": false,
      "taf_trigger": false,
      "metar": "METAR LGTS 160950Z 29004KT 9999 FEW025 13/08 Q1006 NOSIG",
      "taf": "TAF LGTS 160500Z 1606/1706 VRB03KT 9999 FEW025"
    },
    {
      "icao": "LHBP",
      "alert": "OK",
      "vis_m": 9999,
      "fzfg": false,
      "metar_trigger": false,
      "taf_trigger": false,
      "metar": "METAR LHBP 161000Z 14007KT 110V170 9999 BKN040 OVC050 M02/M07 Q1005 NOSIG",
      "taf": "TAF LHBP 160515Z 1606/1706 12005KT CAVOK"
    },
    {
      "icao": "LHDC",
      "alert": "OK",
      "vis_m": 9999,
      "fzfg": false,
      "metar_trigger": false,
      "taf_trigger": false,
      "metar": "METAR LHDC 160945Z AUTO 15005KT 100V220 9999 SCT046 M01/M06 Q1007 NOSIG",
      "taf": "TAF LHDC 160815Z 1609/1618 10006KT CAVOK"
    },
    {
      "icao": "LIBD",
      "alert": "OK",
      "vis_m": 8000,
      "fzfg": false,
      "metar_trigger": false,
      "taf_trigger": false,
      "metar": "METAR LIBD 160950Z 14007KT 8000 NSC 12/06 Q1008",
      "taf": "TAF LIBD 160500Z 1606/1706 VRB05KT 9999 SCT030"
    },
    {
      "icao": "LIBG",
      "alert": "OK",
      "vis_m": 9999,
      "fzfg": false,
      "metar_trigger": false,
      "taf_trigger": false,
      "metar": "METAR LIBG 160950Z VRB02KT CAVOK 12/07 Q1009",
      "taf": "TAF LIBG 160800Z 1609/1618 VRB05KT 9999 FEW020"
    },
    {
      "icao": "LIBP",
      "alert": "OK",
      "vis_m": 9999,
      "fzfg": false,
      "metar_trigger": false,
      "taf_trigger": false,
      "metar": "METAR LIBP 160950Z AUTO 01004KT 320V050 9999 BKN160/// BKN190/// 12/06 Q1005",
      "taf": "TAF LIBP 160500Z 1606/1706 VRB05KT 9999 FEW030 SCT060"
    },
    {
      "icao": "LIBR",
      "alert": "OK",
      "vis_m": 9999,
      "fzfg": false,
      "metar_trigger": false,
      "taf_trigger": false,
      "metar": "METAR LIBR 160950Z 24004KT CAVOK 12/05 Q1009",
      "taf": "TAF LIBR 160500Z 1606/1706 29013KT 9999 SCT030"
    },
    {
      "icao": "LICA",
      "alert": "OK",
      "vis_m": 9999,
      "fzfg": false,
      "metar_trigger": false,
      "taf_trigger": false,
      "metar": "METAR LICA 160950Z AUTO 26015KT 9999 SCT026/// 14/10 Q1011",
      "taf": "TAF LICA 160500Z 1606/1706 28015KT 9999 FEW030"
    },
    {
      "icao": "LICC",
      "alert": "OK",
      "vis_m": 9999,
      "fzfg": false,
      "metar_trigger": false,
      "taf_trigger": false,
      "metar": "METAR LICC 160950Z 26014KT CAVOK 15/12 Q1012",
      "taf": "TAF LICC 160500Z 1606/1706 27016KT 9999 SCT020"
    },
    {
      "icao": "LICJ",
      "alert": "OK",
      "vis_m": 9999,
      "fzfg": false,
      "metar_trigger": false,
      "taf_trigger": false,
      "metar": "METAR LICJ 160950Z 26021KT 9999 SCT020 15/12 Q1012",
      "taf": "TAF LICJ 160500Z 1606/1706 28017KT 9999 SCT030"
    },
    {
      "icao": "LIMC",
      "alert": "OK",
      "vis_m": 9999,
      "fzfg": false,
      "metar_trigger": false,
      "taf_trigger": false,
      "metar": "METAR LIMC 160950Z 01004KT 320V040 9999 BKN090 08/02 Q1002 NOSIG",
      "taf": "TAF LIMC 160500Z 1606/1712 VRB05KT CAVOK"
    },
    {
      "icao": "LIME",
      "alert": "OK",
      "vis_m": 9999,
      "fzfg": false,
      "metar_trigger": false,
      "taf_trigger": false,
      "metar": "METAR LIME 160950Z AUTO 27005KT 250V310 9999 NCD 08/02 Q1003",
      "taf": "TAF LIME 160500Z 1606/1706 VRB05KT CAVOK"
    },
    {
      "icao": "LIMF",
      "alert": "OK",
      "vis_m": null,
      "fzfg": false,
      "metar_trigger": false,
      "taf_trigger": false,
      "metar": "METAR LIMF 160950Z AUTO VRB04KT //// // FEW088/// SCT120/// 07/00 Q1003",
      "taf": "TAF LIMF 160500Z 1606/1706 VRB05KT CAVOK"
    },
    {
      "icao": "LIMJ",
      "alert": "OK",
      "vis_m": 9999,
      "fzfg": false,
      "metar_trigger": false,
      "taf_trigger": false,
      "metar": "METAR LIMJ 160950Z 06003KT 360V100 9999 SCT030 13/07 Q1003",
      "taf": "TAF LIMJ 160500Z 1606/1706 VRB05KT CAVOK"
    },
    {
      "icao": "LIPE",
      "alert": "OK",
      "vis_m": 9999,
      "fzfg": false,
      "metar_trigger": false,
      "taf_trigger": false,
      "metar": "METAR LIPE 160950Z 33004KT 270V360 CAVOK 09/06 Q1003",
      "taf": "TAF LIPE 160500Z 1606/1706 VRB05KT 6000 FEW060"
    },
    {
      "icao": "LIPH",
      "alert": "OK",
      "vis_m": 9999,
      "fzfg": false,
      "metar_trigger": false,
      "taf_trigger": false,
      "metar": "METAR LIPH 160950Z 06008KT 030V090 9999 SCT030 09/03 Q1003",
      "taf": "TAF LIPH 160500Z 1606/1706 VRB05KT 9999 FEW020 SCT060"
    },
    {
      "icao": "LIPQ",
      "alert": "OK",
      "vis_m": 9999,
      "fzfg": false,
      "metar_trigger": false,
      "taf_trigger": false,
      "metar": "METAR LIPQ 160950Z AUTO 03006KT 9999 BKN031/// BKN042/// 08/02 Q1003",
      "taf": "TAF LIPQ 160500Z 1606/1706 07007KT 9999 FEW060"
    },
    {
      "icao": "LIPR",
      "alert": "OK",
      "vis_m": 9999,
      "fzfg": false,
      "metar_trigger": false,
      "taf_trigger": false,
      "metar": "METAR LIPR 160950Z 18008KT 140V200 9999 SCT050 13/06 Q1002",
      "taf": "TAF LIPR 160500Z 1606/1706 15007KT CAVOK"
    },
    {
      "icao": "LIPX",
      "alert": "OK",
      "vis_m": 9999,
      "fzfg": false,
      "metar_trigger": false,
      "taf_trigger": false,
      "metar": "METAR LIPX 160950Z VRB01KT CAVOK 09/03 Q1003",
      "taf": "TAF LIPX 160500Z 1606/1706 VRB05KT CAVOK"
    },
    {
      "icao": "LIPY",
      "alert": "OK",
      "vis_m": 9999,
      "fzfg": false,
      "metar_trigger": false,
      "taf_trigger": false,
      "metar": "METAR LIPY 160950Z AUTO 20004KT 160V240 9999 BKN054/// BKN066/// 14/07 Q1003",
      "taf": "TAF LIPY 160500Z 1606/1706 VRB05KT 9999 FEW020"
    },
    {
      "icao": "LIPZ",
      "alert": "OK",
      "vis_m": 9999,
      "fzfg": false,
      "metar_trigger": false,
      "taf_trigger": false,
      "metar": "METAR LIPZ 160950Z 05011KT 9999 FEW035 09/03 Q1003 NOSIG",
      "taf": "TAF LIPZ 160500Z 1606/1712 VRB05KT 9999 FEW060"
    },
    {
      "icao": "LIRF",
      "alert": "OK",
      "vis_m": 9999,
      "fzfg": false,
      "metar_trigger": false,
      "taf_trigger": false,
      "metar": "METAR LIRF 160950Z 11004KT 080V170 CAVOK 14/09 Q1006 NOSIG",
      "taf": "TAF LIRF 160500Z 1606/1712 VRB05KT CAVOK"
    },
    {
      "icao": "LIRN",
      "alert": "OK",
      "vis_m": 9999,
      "fzfg": false,
      "metar_trigger": false,
      "taf_trigger": false,
      "metar": "METAR LIRN 160950Z 17004KT 110V230 9999 SCT020 13/09 Q1008 NOSIG",
      "taf": "TAF LIRN 160500Z 1606/1706 VRB05KT CAVOK"
    },
    {
      "icao": "LIRP",
      "alert": "OK",
      "vis_m": 9999,
      "fzfg": false,
      "metar_trigger": false,
      "taf_trigger": false,
      "metar": "METAR LIRP 160945Z 23017G27KT 9999 SCT020 BKN040 15/14 Q1004 NOSIG",
      "taf": "TAF LIRP 160500Z 1606/1706 VRB03KT 9999 BKN030"
    },
    {
      "icao": "LIRZ",
      "alert": "OK",
      "vis_m": 9999,
      "fzfg": false,
      "metar_trigger": false,
      "taf_trigger": false,
      "metar": "METAR LIRZ 160950Z AUTO VRB02KT 9999 OVC037/// 06/04 Q1005",
      "taf": "TAF LIRZ 160500Z 1606/1706 VRB05KT CAVOK"
    },
    {
      "icao": "LJLJ",
      "alert": "OK",
      "vis_m": 9999,
      "fzfg": false,
      "metar_trigger": false,
      "taf_trigger": false,
      "metar": "METAR LJLJ 161000Z 27004KT 230V300 9999 SCT033 BKN040 BKN110 02/M02 Q1002 NOSIG",
      "taf": "TAF LJLJ 160500Z 1606/1706 VRB02KT 9999 BKN040"
    },
    {
      "icao": "LKMT",
      "alert": "OK",
      "vis_m": 6000,
      "fzfg": false,
      "metar_trigger": false,
      "taf_trigger": false,
      "metar": "METAR LKMT 161000Z 05002KT 6000 OVC028 M08/M10 Q1002 NOSIG",
      "taf": "TAF LKMT 160500Z 1606/1706 VRB02KT CAVOK"
    },
    {
      "icao": "LKPR",
      "alert": "OK",
      "vis_m": 9999,
      "fzfg": false,
      "metar_trigger": false,
      "taf_trigger": false,
      "metar": "METAR LKPR 161000Z 15007KT 9999 -SN FEW009 OVC014 M04/M05 Q0996 TEMPO 5000 -SN",
      "taf": "TAF LKPR 160800Z 1609/1715 14007KT 6000 -SN OVC011"
    },
    {
      "icao": "LLBG",
      "alert": "OK",
      "vis_m": 9000,
      "fzfg": false,
      "metar_trigger": false,
      "taf_trigger": false,
      "metar": "METAR LLBG 160950Z 29006KT 9000 NSC 29/08 Q1012 BECMG 6000 NSC",
      "taf": "TAF LLBG 160502Z 1606/1706 VRB04KT 8000 NSC"
    },
    {
      "icao": "LMML",
      "alert": "OK",
      "vis_m": 9999,
      "fzfg": false,
      "metar_trigger": false,
      "taf_trigger": false,
      "metar": "METAR LMML 160945Z 30014KT 9999 FEW006 SCT019 BKN049 13/12 Q1015 NOSIG",
      "taf": ""
    },
    {
      "icao": "LOWW",
      "alert": "OK",
      "vis_m": 9999,
      "fzfg": false,
      "metar_trigger": false,
      "taf_trigger": false,
      "metar": "METAR LOWW 160950Z 14013KT 9999 FEW016 OVC026 M01/M05 Q1001 TEMPO FM1015 3000 -SN BKN010",
      "taf": "TAF LOWW 160815Z 1609/1715 13012KT 9999 BKN030 TX04/1714Z TNM03/1609Z"
    },
    {
      "icao": "LPFR",
      "alert": "OK",
      "vis_m": 9999,
      "fzfg": false,
      "metar_trigger": false,
      "taf_trigger": false,
      "metar": "METAR LPFR 161000Z 25004KT 9999 BKN035 15/09 Q1033",
      "taf": "TAF LPFR 160500Z 1606/1706 VRB05KT 9999 BKN030"
    },
    {
      "icao": "LPMA",
      "alert": "OK",
      "vis_m": 9999,
      "fzfg": false,
      "metar_trigger": false,
      "taf_trigger": false,
      "metar": "METAR LPMA 161000Z 03008KT 9999 BKN014 17/12 Q1032",
      "taf": ""
    },
    {
      "icao": "LPPR",
      "alert": "OK",
      "vis_m": 7000,
      "fzfg": false,
      "metar_trigger": false,
      "taf_trigger": false,
      "metar": "METAR LPPR 161000Z 26006KT 190V310 7000 SCT003 BKN005 14/13 Q1028",
      "taf": ""
    },
    {
      "icao": "LPPS",
      "alert": "OK",
      "vis_m": 9999,
      "fzfg": false,
      "metar_trigger": false,
      "taf_trigger": false,
      "metar": "METAR LPPS 161000Z 11016KT 9999 BKN013 16/12 Q1032",
      "taf": ""
    },
    {
      "icao": "LPPT",
      "alert": "OK",
      "vis_m": 9999,
      "fzfg": false,
      "metar_trigger": false,
      "taf_trigger": false,
      "metar": "METAR LPPT 161000Z 24008KT 9999 FEW012 SCT036 14/11 Q1032",
      "taf": "TAF LPPT 160500Z 1606/1712 26010KT 9999 SCT020"
    },
    {
      "icao": "LQBK",
      "alert": "OK",
      "vis_m": 9999,
      "fzfg": false,
      "metar_trigger": false,
      "taf_trigger": false,
      "metar": "METAR LQBK 161000Z 11004KT CAVOK 00/M03 Q1005 NOSIG",
      "taf": "TAF LQBK 160500Z 1606/1706 09004KT CAVOK TX07/1613Z TNM05/1606Z"
    },
    {
      "icao": "LQSA",
      "alert": "OK",
      "vis_m": 9999,
      "fzfg": false,
      "metar_trigger": false,
      "taf_trigger": false,
      "metar": "METAR LQSA 161000Z 14003KT 050V170 9999 FEW020 03/M01 Q1006 NOSIG",
      "taf": "TAF LQSA 160500Z 1606/1706 VRB02KT 9999 SCT035 TX06/1614Z TNM03/1606Z"
    },
    {
      "icao": "LQTZ",
      "alert": "OK",
      "vis_m": 9999,
      "fzfg": false,
      "metar_trigger": false,
      "taf_trigger": false,
      "metar": "METAR LQTZ 161000Z 09003KT 050V120 9999 FEW015 01/M00 Q1006",
      "taf": "TAF LQTZ 160500Z 1606/1706 09005KT CAVOK TX07/1614Z TNM04/1606Z"
    },
    {
      "icao": "LRBC",
      "alert": "OK",
      "vis_m": 9999,
      "fzfg": false,
      "metar_trigger": false,
      "taf_trigger": false,
      "metar": "METAR LRBC 161000Z 13004KT 100V160 9999 FEW052 M01/M06 Q1008",
      "taf": "TAF LRBC 160800Z 1609/1618 01008KT 9999 BKN050"
    },
    {
      "icao": "LRBS",
      "alert": "OK",
      "vis_m": 9999,
      "fzfg": false,
      "metar_trigger": false,
      "taf_trigger": false,
      "metar": "METAR LRBS 161000Z VRB01KT 9999 OVC010 04/01 Q1008 NOSIG",
      "taf": ""
    },
    {
      "icao": "LRBV",
      "alert": "OK",
      "vis_m": 9999,
      "fzfg": false,
      "metar_trigger": false,
      "taf_trigger": false,
      "metar": "METAR LRBV 161000Z 31006KT 280V350 9999 FEW019 BKN033 01/M03 Q1006",
      "taf": "TAF LRBV 160800Z 1609/1618 VRB04KT 9999 BKN035"
    },
    {
      "icao": "LRCL",
      "alert": "OK",
      "vis_m": 9999,
      "fzfg": false,
      "metar_trigger": false,
      "taf_trigger": false,
      "metar": "METAR LRCL 161000Z 10005KT 070V140 9999 SCT014 M01/M05 Q1007",
      "taf": "TAF LRCL 160800Z 1609/1618 VRB04KT 9999 OVC015"
    },
    {
      "icao": "LRCV",
      "alert": "OK",
      "vis_m": 9999,
      "fzfg": false,
      "metar_trigger": false,
      "taf_trigger": false,
      "metar": "METAR LRCV 161000Z 28009KT 260V320 CAVOK 06/M00 Q1006",
      "taf": "TAF LRCV 160800Z 1609/1618 27012KT CAVOK"
    },
    {
      "icao": "LRIA",
      "alert": "OK",
      "vis_m": 9999,
      "fzfg": false,
      "metar_trigger": false,
      "taf_trigger": false,
      "metar": "METAR LRIA 161000Z 30009KT 270V340 9999 FEW019 M04/M07 Q1008",
      "taf": "TAF LRIA 160800Z 1609/1618 30010KT 9999 BKN045"
    },
    {
      "icao": "LROP",
      "alert": "OK",
      "vis_m": 9000,
      "fzfg": false,
      "metar_trigger": false,
      "taf_trigger": false,
      "metar": "METAR LROP 161000Z 05009KT 9000 SCT006 OVC009 02/01 Q1008 NOSIG",
      "taf": ""
    },
    {
      "icao": "LRSB",
      "alert": "OK",
      "vis_m": 9999,
      "fzfg": false,
      "metar_trigger": false,
      "taf_trigger": false,
      "metar": "METAR LRSB 161000Z VRB02KT 9999 BKN012 01/M02 Q1006",
      "taf": "TAF LRSB 160500Z 1606/1706 VRB04KT 9999 SCT040"
    },
    {
      "icao": "LRSM",
      "alert": "OK",
      "vis_m": 9999,
      "fzfg": false,
      "metar_trigger": false,
      "taf_trigger": false,
      "metar": "METAR LRSM 161000Z 20004KT 160V280 CAVOK M01/M06 Q1008",
      "taf": "TAF LRSM 160800Z 1609/1618 VRB04KT CAVOK"
    },
    {
      "icao": "LRSV",
      "alert": "OK",
      "vis_m": 9999,
      "fzfg": false,
      "metar_trigger": false,
      "taf_trigger": false,
      "metar": "METAR LRSV 161000Z VRB01KT 9999 BKN046 M04/M08 Q1005",
      "taf": "TAF LRSV 160800Z 1609/1618 32005KT 9999 BKN035"
    },
    {
      "icao": "LRTM",
      "alert": "OK",
      "vis_m": 9999,
      "fzfg": false,
      "metar_trigger": false,
      "taf_trigger": false,
      "metar": "METAR LRTM 161000Z 05005KT 350V090 9999 SCT016 BKN033 M01/M04 Q1007",
      "taf": "TAF LRTM 160800Z 1609/1618 VRB04KT 9999 BKN015 BKN035"
    },
    {
      "icao": "LRTR",
      "alert": "OK",
      "vis_m": 9999,
      "fzfg": false,
      "metar_trigger": false,
      "taf_trigger": false,
      "metar": "METAR LRTR 161000Z 16006KT 120V200 9999 FEW015 BKN020 02/M03 Q1007 NOSIG",
      "taf": "TAF LRTR 160500Z 1606/1706 VRB04KT 9999 BKN015 BKN040"
    },
    {
      "icao": "LTAC",
      "alert": "OK",
      "vis_m": 9999,
      "fzfg": false,
      "metar_trigger": false,
      "taf_trigger": false,
      "metar": "METAR LTAC 160950Z 22009KT 180V240 9999 FEW040 BKN180 14/M02 Q1012 NOSIG RMK RWY21C 23010KT RWY03L 23009KT RWY21R 22011KT RWY03R 21012KT RWY21L 22012KT",
      "taf": ""
    },
    {
      "icao": "LTFM",
      "alert": "OK",
      "vis_m": 9999,
      "fzfg": false,
      "metar_trigger": false,
      "taf_trigger": false,
      "metar": "METAR LTFM 160950Z 23016KT 9999 FEW032 17/08 Q1007 NOSIG RMK RWY17L 22015KT RWY34L 20016KT RWY16R 21014KT RWY36 22017KT RWY18 22016KT",
      "taf": "TAF LTFM 160440Z 1606/1712 21012KT CAVOK"
    },
    {
      "icao": "LUKK",
      "alert": "OK",
      "vis_m": 9999,
      "fzfg": false,
      "metar_trigger": false,
      "taf_trigger": false,
      "metar": "METAR LUKK 161000Z 32009KT 290V020 9999 FEW025 M03/M07 Q1007 NOSIG",
      "taf": "TAF LUKK 160507Z 1606/1706 32010KT 9999 BKN025"
    },
    {
      "icao": "LWOH",
      "alert": "OK",
      "vis_m": 9999,
      "fzfg": false,
      "metar_trigger": false,
      "taf_trigger": false,
      "metar": "METAR LWOH 160950Z 17010KT 9999 FEW015 SCT040 10/06 Q1007",
      "taf": "TAF LWOH 160830Z 1609/1709 20008KT 9999 SCT010 BKN040"
    },
    {
      "icao": "LWSK",
      "alert": "OK",
      "vis_m": 9999,
      "fzfg": false,
      "metar_trigger": false,
      "taf_trigger": false,
      "metar": "METAR LWSK 160950Z VRB02KT 9999 FEW015 BKN029 07/02 Q1008 NOSIG",
      "taf": "TAF LWSK 160830Z 1609/1709 VRB02KT 9999 FEW015 BKN035"
    },
    {
      "icao": "LYBE",
      "alert": "OK",
      "vis_m": 9999,
      "fzfg": false,
      "metar_trigger": false,
      "taf_trigger": false,
      "metar": "METAR LYBE 161000Z 13005KT 070V190 CAVOK 02/M02 Q1007 NOSIG",
      "taf": "TAF LYBE 160500Z 1606/1706 14007KT 9999 SCT020 TX07/1613Z TNM03/1606Z"
    },
    {
      "icao": "LYNI",
      "alert": "OK",
      "vis_m": 9999,
      "fzfg": false,
      "metar_trigger": false,
      "taf_trigger": false,
      "metar": "METAR LYNI 161000Z 16005KT 110V240 9999 FEW020 06/01 Q1007 NOSIG",
      "taf": "TAF LYNI 160500Z 1606/1706 19004KT 9999 SCT025 TX08/1613Z TN00/1606Z"
    },
    {
      "icao": "LYPG",
      "alert": "OK",
      "vis_m": 9999,
      "fzfg": false,
      "metar_trigger": false,
      "taf_trigger": false,
      "metar": "METAR LYPG 161000Z 12005KT 080V140 9999 FEW030 SCT040 10/05 Q1008 NOSIG",
      "taf": "TAF LYPG 160500Z 1606/1706 36005KT 9999 SCT040 SCT070 TX13/1612Z TN05/1606Z"
    },
    {
      "icao": "LZIB",
      "alert": "OK",
      "vis_m": 9999,
      "fzfg": false,
      "metar_trigger": false,
      "taf_trigger": false,
      "metar": "METAR LZIB 161000Z 09008KT 9999 FEW009 BKN011 BKN015 M03/M05 Q1003 NOSIG",
      "taf": "TAF LZIB 160515Z 1606/1706 13008KT 9999 FEW025"
    },
    {
      "icao": "LZKZ",
      "alert": "OK",
      "vis_m": 9999,
      "fzfg": false,
      "metar_trigger": false,
      "taf_trigger": false,
      "metar": "METAR LZKZ 161000Z 17006KT 9999 FEW017 BKN033 OVC037 M03/M07 Q1006 NOSIG",
      "taf": "TAF LZKZ 160515Z 1606/1706 02008KT 9999 FEW010 BKN035"
    },
    {
      "icao": "LZTT",
      "alert": "OK",
      "vis_m": 9999,
      "fzfg": false,
      "metar_trigger": false,
      "taf_trigger": false,
      "metar": "METAR LZTT 161000Z VRB02KT 9999 FEW013 M05/M09 Q1000 NOSIG",
      "taf": "TAF LZTT 160515Z 1606/1706 24005KT 9999 FEW012 SCT030"
    },
    {
      "icao": "OEJN",
      "alert": "OK",
      "vis_m": 6000,
      "fzfg": false,
      "metar_trigger": false,
      "taf_trigger": false,
      "metar": "METAR OEJN 161000Z 22008KT 6000 NSC 33/18 Q1012 NOSIG",
      "taf": "TAF OEJN 160500Z 1606/1712 25010KT CAVOK"
    },
    {
      "icao": "OEMA",
      "alert": "OK",
      "vis_m": 5000,
      "fzfg": false,
      "metar_trigger": false,
      "taf_trigger": false,
      "metar": "METAR OEMA 161000Z 07010KT 5000 DU NSC 27/M03 Q1020 NOSIG",
      "taf": "TAF OEMA 160500Z 1606/1712 09010KT 7000 NSC"
    },
    {
      "icao": "OJAI",
      "alert": "OK",
      "vis_m": 3000,
      "fzfg": false,
      "metar_trigger": false,
      "taf_trigger": false,
      "metar": "METAR OJAI 161000Z 10012KT 3000 DU NSC 21/01 Q1019 NOSIG",
      "taf": "TAF OJAI 160500Z 1606/1712 13010KT 3000 DU NSC"
    },
    {
      "icao": "OMAA",
      "alert": "OK",
      "vis_m": 9999,
      "fzfg": false,
      "metar_trigger": false,
      "taf_trigger": false,
      "metar": "METAR OMAA 161000Z 30016KT 9999 SCT035 24/15 Q1012 NOSIG",
      "taf": "TAF OMAA 160500Z 1606/1712 30014KT 7000 NSC"
    },
    {
      "icao": "OMDB",
      "alert": "OK",
      "vis_m": 6000,
      "fzfg": false,
      "metar_trigger": false,
      "taf_trigger": false,
      "metar": "METAR OMDB 161000Z 27008KT 230V320 6000 FEW030 26/15 Q1011 TEMPO 4000 DU",
      "taf": "TAF OMDB 160500Z 1606/1712 30014KT 7000 NSC"
    },
    {
      "icao": "UAAA",
      "alert": "OK",
      "vis_m": 5000,
      "fzfg": false,
      "metar_trigger": false,
      "taf_trigger": false,
      "metar": "METAR UAAA 161000Z VRB01MPS 5000 FU SCT050CB BKN100 08/02 Q1016 NOSIG",
      "taf": "TAF UAAA 160510Z 1606/1706 03002MPS 6000 SCT030 BKN050 TX07/1609Z TNM01/1702Z"
    },
    {
      "icao": "UBBB",
      "alert": "OK",
      "vis_m": 9999,
      "fzfg": false,
      "metar_trigger": false,
      "taf_trigger": false,
      "metar": "METAR UBBB 161000Z 18020G30KT CAVOK 13/09 Q1015 NOSIG",
      "taf": ""
    },
    {
      "icao": "UDSG",
      "alert": "OK",
      "vis_m": 9999,
      "fzfg": false,
      "metar_trigger": false,
      "taf_trigger": false,
      "metar": "METAR UDSG 161000Z 13001KT 9999 NSC 03/M02 Q1024 NOSIG",
      "taf": "TAF UDSG 160458Z 1606/1706 VRB06KT 9999 FEW040"
    },
    {
      "icao": "UDYZ",
      "alert": "OK",
      "vis_m": 9999,
      "fzfg": false,
      "metar_trigger": false,
      "taf_trigger": false,
      "metar": "METAR UDYZ 161000Z 21004KT 170V290 9999 NSC 13/01 Q1023 NOSIG",
      "taf": "TAF UDYZ 160500Z 1606/1706 VRB06KT 9999 NSC"
    },
    {
      "icao": "UGKO",
      "alert": "OK",
      "vis_m": 9999,
      "fzfg": false,
      "metar_trigger": false,
      "taf_trigger": false,
      "metar": "METAR UGKO 161000Z 09018G28KT CAVOK 22/04 Q1012 NOSIG",
      "taf": "TAF UGKO 160500Z 1606/1706 08015KT CAVOK TX23/1611Z TN13/1703Z"
    }
  ]
}