{
  "ts_utc": "2026-06-28T17:21:59Z",
  "threshold_m": 150,
  "source": "stations_override.txt (ICAO list) + aviationweather.gov (METAR/TAF raw)",
  "station_count": 159,
  "stations": [
    {
      "icao": "BIKF",
      "alert": "OK",
      "vis_m": 9999,
      "fzfg": false,
      "metar_trigger": false,
      "taf_trigger": false,
      "metar": "METAR BIKF 281700Z 01006KT 350V050 9999 FEW018 BKN035 OVC065 12/09 Q0992",
      "taf": "TAF BIKF 281641Z 2818/2918 36007KT 9999 -RA FEW015 SCT023 BKN030 TX11/2915Z TN08/2906Z"
    },
    {
      "icao": "BKPR",
      "alert": "OK",
      "vis_m": null,
      "fzfg": false,
      "metar_trigger": false,
      "taf_trigger": false,
      "metar": "",
      "taf": ""
    },
    {
      "icao": "EBCI",
      "alert": "OK",
      "vis_m": 9999,
      "fzfg": false,
      "metar_trigger": false,
      "taf_trigger": false,
      "metar": "METAR EBCI 281650Z 30007KT 250V340 9999 FEW032 25/18 Q1021 NOSIG",
      "taf": "TAF EBCI 281114Z 2812/2918 28008KT 9999 FEW040"
    },
    {
      "icao": "EDDB",
      "alert": "OK",
      "vis_m": 9999,
      "fzfg": false,
      "metar_trigger": false,
      "taf_trigger": false,
      "metar": "METAR EDDB 281650Z AUTO 31011KT CAVOK 37/19 Q1015 NOSIG",
      "taf": "TAF EDDB 281100Z 2812/2912 29009KT CAVOK"
    },
    {
      "icao": "EDDH",
      "alert": "OK",
      "vis_m": 9999,
      "fzfg": false,
      "metar_trigger": false,
      "taf_trigger": false,
      "metar": "METAR EDDH 281650Z AUTO 33010KT 9999 FEW043 30/20 Q1017 NOSIG",
      "taf": ""
    },
    {
      "icao": "EDDK",
      "alert": "OK",
      "vis_m": 9999,
      "fzfg": false,
      "metar_trigger": false,
      "taf_trigger": false,
      "metar": "METAR EDDK 281650Z AUTO 32009KT CAVOK 31/18 Q1018 NOSIG",
      "taf": "TAF EDDK 281100Z 2812/2918 22005KT CAVOK"
    },
    {
      "icao": "EDDN",
      "alert": "OK",
      "vis_m": 9999,
      "fzfg": false,
      "metar_trigger": false,
      "taf_trigger": false,
      "metar": "METAR EDDN 281650Z AUTO 06003KT 030V090 CAVOK 35/16 Q1017 NOSIG",
      "taf": ""
    },
    {
      "icao": "EDDS",
      "alert": "OK",
      "vis_m": 9999,
      "fzfg": false,
      "metar_trigger": false,
      "taf_trigger": false,
      "metar": "METAR EDDS 281650Z AUTO 31005KT 280V350 CAVOK 34/15 Q1018 NOSIG",
      "taf": "TAF EDDS 281100Z 2812/2912 07004KT CAVOK"
    },
    {
      "icao": "EDFH",
      "alert": "OK",
      "vis_m": 9999,
      "fzfg": false,
      "metar_trigger": false,
      "taf_trigger": false,
      "metar": "METAR EDFH 281650Z 29007KT 250V330 CAVOK 31/14 Q1021",
      "taf": "TAF EDFH 281100Z 2812/2912 28009KT CAVOK"
    },
    {
      "icao": "EDJA",
      "alert": "OK",
      "vis_m": 9999,
      "fzfg": false,
      "metar_trigger": false,
      "taf_trigger": false,
      "metar": "METAR EDJA 281650Z 07004KT CAVOK 31/13 Q1021",
      "taf": "TAF EDJA 281400Z 2815/2824 21007KT CAVOK"
    },
    {
      "icao": "EDLW",
      "alert": "OK",
      "vis_m": 9999,
      "fzfg": false,
      "metar_trigger": false,
      "taf_trigger": false,
      "metar": "METAR EDLW 281650Z 30004KT 220V360 CAVOK 27/18 Q1019",
      "taf": "TAF EDLW 281100Z 2812/2912 28006KT CAVOK"
    },
    {
      "icao": "EDNY",
      "alert": "OK",
      "vis_m": 9999,
      "fzfg": false,
      "metar_trigger": false,
      "taf_trigger": false,
      "metar": "METAR EDNY 281650Z 22006KT CAVOK 32/16 Q1019",
      "taf": "TAF EDNY 281400Z 2815/2824 05005KT CAVOK"
    },
    {
      "icao": "EDSB",
      "alert": "OK",
      "vis_m": 9999,
      "fzfg": false,
      "metar_trigger": false,
      "taf_trigger": false,
      "metar": "METAR EDSB 281650Z 34004KT 300V010 CAVOK 35/15 Q1017",
      "taf": "TAF EDSB 281100Z 2812/2912 29006KT CAVOK"
    },
    {
      "icao": "EETN",
      "alert": "OK",
      "vis_m": 9999,
      "fzfg": false,
      "metar_trigger": false,
      "taf_trigger": false,
      "metar": "METAR EETN 281720Z 23005KT 9999 -SHRA FEW035CB SCT048 19/18 Q1015 TEMPO 4000 SHRA",
      "taf": "TAF EETN 281130Z 2812/2912 19012KT 9999 FEW035CB"
    },
    {
      "icao": "EFTU",
      "alert": "OK",
      "vis_m": 9999,
      "fzfg": false,
      "metar_trigger": false,
      "taf_trigger": false,
      "metar": "METAR EFTU 281650Z AUTO 23004KT 9999 -SHRA //////CB 19/18 Q1012",
      "taf": "TAF EFTU 281432Z 2815/2915 22009KT 9999 FEW008 SCT060CB"
    },
    {
      "icao": "EGBB",
      "alert": "OK",
      "vis_m": 9999,
      "fzfg": false,
      "metar_trigger": false,
      "taf_trigger": false,
      "metar": "METAR EGBB 281650Z 26011KT CAVOK 21/07 Q1019",
      "taf": "TAF EGBB 281657Z 2818/2918 25009KT 9999 SCT045"
    },
    {
      "icao": "EGGP",
      "alert": "OK",
      "vis_m": 9999,
      "fzfg": false,
      "metar_trigger": false,
      "taf_trigger": false,
      "metar": "METAR EGGP 281650Z 23013G23KT CAVOK 18/07 Q1018",
      "taf": "TAF EGGP 281659Z 2818/2918 23013KT 9999 FEW030"
    },
    {
      "icao": "EGGW",
      "alert": "OK",
      "vis_m": 9999,
      "fzfg": false,
      "metar_trigger": false,
      "taf_trigger": false,
      "metar": "METAR EGGW 281650Z AUTO 29015KT 9999 NCD 21/09 Q1019",
      "taf": "TAF EGGW 281659Z 2818/2918 26009KT 9999 FEW045"
    },
    {
      "icao": "EGKK",
      "alert": "OK",
      "vis_m": 9999,
      "fzfg": false,
      "metar_trigger": false,
      "taf_trigger": false,
      "metar": "METAR EGKK 281650Z 24013KT CAVOK 21/11 Q1020",
      "taf": "TAF EGKK 281658Z 2818/2924 22014KT 9999 FEW040"
    },
    {
      "icao": "EGNM",
      "alert": "OK",
      "vis_m": 9999,
      "fzfg": false,
      "metar_trigger": false,
      "taf_trigger": false,
      "metar": "METAR EGNM 281650Z 25015G25KT 9999 SCT048 18/08 Q1017",
      "taf": "TAF EGNM 281657Z 2818/2918 27012KT 9999 FEW025"
    },
    {
      "icao": "EGPD",
      "alert": "OK",
      "vis_m": 9999,
      "fzfg": false,
      "metar_trigger": false,
      "taf_trigger": false,
      "metar": "METAR EGPD 281650Z AUTO 22013KT 9999 NCD 19/07 Q1011",
      "taf": "TAF EGPD 281657Z 2818/2918 23010KT 9999 SCT045"
    },
    {
      "icao": "EGPF",
      "alert": "OK",
      "vis_m": 9999,
      "fzfg": false,
      "metar_trigger": false,
      "taf_trigger": false,
      "metar": "METAR EGPF 281650Z AUTO 22017KT 9999 NCD 17/10 Q1014",
      "taf": "TAF EGPF 281655Z 2818/2918 22010KT 9999 SCT035"
    },
    {
      "icao": "EHBK",
      "alert": "OK",
      "vis_m": 9999,
      "fzfg": false,
      "metar_trigger": false,
      "taf_trigger": false,
      "metar": "METAR EHBK 281655Z AUTO 25006KT 190V290 9999 NSC 28/20 Q1019 NOSIG",
      "taf": "TAF EHBK 281103Z 2812/2918 27010KT 9999 FEW045"
    },
    {
      "icao": "EHEH",
      "alert": "OK",
      "vis_m": 9999,
      "fzfg": false,
      "metar_trigger": false,
      "taf_trigger": false,
      "metar": "METAR EHEH 281655Z AUTO 30006KT 250V040 9999 NCD 26/18 Q1019 BLU NOSIG RMK TREND REMOTE BY EHWX",
      "taf": "TAF EHEH 281108Z 2812/2918 27008KT CAVOK"
    },
    {
      "icao": "EKBI",
      "alert": "OK",
      "vis_m": 9999,
      "fzfg": false,
      "metar_trigger": false,
      "taf_trigger": false,
      "metar": "METAR EKBI 281650Z AUTO 21009KT 190V250 9999 FEW071/// 25/18 Q1017",
      "taf": "TAF EKBI 281427Z 2815/2915 23010KT 9999 SCT030"
    },
    {
      "icao": "EKCH",
      "alert": "OK",
      "vis_m": 9999,
      "fzfg": false,
      "metar_trigger": false,
      "taf_trigger": false,
      "metar": "METAR EKCH 281650Z AUTO 25010KT 9999 NCD 28/18 Q1016 NOSIG",
      "taf": "TAF EKCH 281427Z 2815/2915 28010KT CAVOK"
    },
    {
      "icao": "ENAL",
      "alert": "OK",
      "vis_m": 9999,
      "fzfg": false,
      "metar_trigger": false,
      "taf_trigger": false,
      "metar": "METAR ENAL 281650Z 08004KT 040V140 9999 -SHRA FEW045 21/15 Q1009",
      "taf": "TAF ENAL 281400Z 2815/2824 VRB03KT 9999 SCT050"
    },
    {
      "icao": "ENBR",
      "alert": "OK",
      "vis_m": 9999,
      "fzfg": false,
      "metar_trigger": false,
      "taf_trigger": false,
      "metar": "METAR ENBR 281650Z 18016KT 9999 SCT005CB BKN007 17/15 Q1011 TEMPO SCT010 BKN020CB RMK WIND 1200FT 18022KT",
      "taf": "TAF ENBR 281100Z 2812/2912 16009KT 9999 FEW015 SCT050"
    },
    {
      "icao": "ENGM",
      "alert": "OK",
      "vis_m": 9999,
      "fzfg": false,
      "metar_trigger": false,
      "taf_trigger": false,
      "metar": "METAR ENGM 281650Z 23010KT CAVOK 28/12 Q1012 NOSIG",
      "taf": "TAF ENGM 281100Z 2812/2912 20012KT CAVOK"
    },
    {
      "icao": "ENHD",
      "alert": "OK",
      "vis_m": 9999,
      "fzfg": false,
      "metar_trigger": false,
      "taf_trigger": false,
      "metar": "METAR ENHD 281650Z 19018KT 9999 OVC006 19/16 Q1012",
      "taf": "TAF ENHD 281400Z 2815/2822 18012KT 9999 BKN045"
    },
    {
      "icao": "ENTC",
      "alert": "OK",
      "vis_m": 9999,
      "fzfg": false,
      "metar_trigger": false,
      "taf_trigger": false,
      "metar": "METAR ENTC 281650Z 03012KT CAVOK 13/06 Q1012 NOSIG RMK WIND 2600FT 02005KT",
      "taf": "TAF ENTC 281100Z 2812/2912 02008KT 9999 FEW050"
    },
    {
      "icao": "ENTO",
      "alert": "OK",
      "vis_m": 9999,
      "fzfg": false,
      "metar_trigger": false,
      "taf_trigger": false,
      "metar": "METAR ENTO 281650Z 21012KT CAVOK 25/14 Q1014 NOSIG",
      "taf": "TAF ENTO 281100Z 2812/2912 18008KT CAVOK"
    },
    {
      "icao": "ENVA",
      "alert": "OK",
      "vis_m": 9999,
      "fzfg": false,
      "metar_trigger": false,
      "taf_trigger": false,
      "metar": "METAR ENVA 281650Z 24005KT 180V250 CAVOK 25/15 Q1011 RMK WIND 670FT 10003KT",
      "taf": "TAF ENVA 281100Z 2812/2912 25008KT 9999 FEW030 BKN045"
    },
    {
      "icao": "ENZV",
      "alert": "OK",
      "vis_m": 9999,
      "fzfg": false,
      "metar_trigger": false,
      "taf_trigger": false,
      "metar": "METAR ENZV 281650Z 19013KT 9999 SCT017 22/17 Q1012 NOSIG",
      "taf": ""
    },
    {
      "icao": "EPGD",
      "alert": "OK",
      "vis_m": 9999,
      "fzfg": false,
      "metar_trigger": false,
      "taf_trigger": false,
      "metar": "METAR EPGD 281700Z 13006KT CAVOK 32/19 Q1015",
      "taf": "TAF EPGD 281130Z 2812/2912 VRB06KT CAVOK"
    },
    {
      "icao": "EPKK",
      "alert": "OK",
      "vis_m": 9999,
      "fzfg": false,
      "metar_trigger": false,
      "taf_trigger": false,
      "metar": "METAR EPKK 281700Z VRB02KT CAVOK 35/16 Q1018",
      "taf": "TAF EPKK 281430Z 2815/2915 23005KT CAVOK"
    },
    {
      "icao": "EPKT",
      "alert": "OK",
      "vis_m": 9999,
      "fzfg": false,
      "metar_trigger": false,
      "taf_trigger": false,
      "metar": "METAR EPKT 281700Z 24008KT CAVOK 35/14 Q1018",
      "taf": "TAF EPKT 281130Z 2812/2912 24012KT CAVOK"
    },
    {
      "icao": "EPLB",
      "alert": "OK",
      "vis_m": 9999,
      "fzfg": false,
      "metar_trigger": false,
      "taf_trigger": false,
      "metar": "METAR EPLB 281700Z 27004KT 240V330 CAVOK 36/17 Q1016",
      "taf": "TAF EPLB 281130Z 2812/2912 24008KT CAVOK"
    },
    {
      "icao": "EPMO",
      "alert": "OK",
      "vis_m": 9999,
      "fzfg": false,
      "metar_trigger": false,
      "taf_trigger": false,
      "metar": "METAR EPMO 281700Z 27007KT CAVOK 37/17 Q1015",
      "taf": "TAF EPMO 281130Z 2812/2912 26005KT CAVOK"
    },
    {
      "icao": "EPPO",
      "alert": "OK",
      "vis_m": 9999,
      "fzfg": false,
      "metar_trigger": false,
      "taf_trigger": false,
      "metar": "METAR EPPO 281700Z 19006KT CAVOK 37/15 Q1014",
      "taf": "TAF EPPO 281130Z 2812/2912 19006KT CAVOK"
    },
    {
      "icao": "EPRA",
      "alert": "OK",
      "vis_m": 9999,
      "fzfg": false,
      "metar_trigger": false,
      "taf_trigger": false,
      "metar": "METAR EPRA 281700Z 29006KT 260V330 CAVOK 37/13 Q1016",
      "taf": "TAF EPRA 281430Z 2815/2824 VRB02KT CAVOK"
    },
    {
      "icao": "EPRZ",
      "alert": "OK",
      "vis_m": 9999,
      "fzfg": false,
      "metar_trigger": false,
      "taf_trigger": false,
      "metar": "METAR EPRZ 281700Z 23008KT CAVOK 35/17 Q1018",
      "taf": "TAF EPRZ 281130Z 2812/2912 20010KT CAVOK"
    },
    {
      "icao": "EPSC",
      "alert": "OK",
      "vis_m": 9999,
      "fzfg": false,
      "metar_trigger": false,
      "taf_trigger": false,
      "metar": "METAR EPSC 281700Z 33015KT CAVOK 28/18 Q1016",
      "taf": "TAF EPSC 281130Z 2812/2912 VRB06KT CAVOK"
    },
    {
      "icao": "EPSY",
      "alert": "OK",
      "vis_m": 9999,
      "fzfg": false,
      "metar_trigger": false,
      "taf_trigger": false,
      "metar": "METAR EPSY 281700Z 35003KT 300V030 CAVOK 36/17 Q1015",
      "taf": "TAF EPSY 281430Z 2815/2824 VRB02KT CAVOK"
    },
    {
      "icao": "EPWA",
      "alert": "OK",
      "vis_m": 9999,
      "fzfg": false,
      "metar_trigger": false,
      "taf_trigger": false,
      "metar": "METAR EPWA 281700Z 20005KT 9999 FEW073TCU 37/17 Q1015 NOSIG",
      "taf": "TAF EPWA 281430Z 2815/2915 27005KT CAVOK"
    },
    {
      "icao": "EPWR",
      "alert": "OK",
      "vis_m": 9999,
      "fzfg": false,
      "metar_trigger": false,
      "taf_trigger": false,
      "metar": "METAR EPWR 281700Z 14006KT CAVOK 35/18 Q1015",
      "taf": "TAF EPWR 281430Z 2815/2915 17008KT CAVOK"
    },
    {
      "icao": "ESGG",
      "alert": "OK",
      "vis_m": 9999,
      "fzfg": false,
      "metar_trigger": false,
      "taf_trigger": false,
      "metar": "METAR ESGG 281650Z 22007KT 200V260 CAVOK 22/18 Q1016",
      "taf": "TAF ESGG 281430Z 2815/2915 22007KT CAVOK"
    },
    {
      "icao": "ESKN",
      "alert": "OK",
      "vis_m": 9999,
      "fzfg": false,
      "metar_trigger": false,
      "taf_trigger": false,
      "metar": "METAR ESKN 281650Z VRB02KT CAVOK 24/21 Q1014",
      "taf": "TAF ESKN 281430Z 2815/2915 24005KT CAVOK"
    },
    {
      "icao": "ESMS",
      "alert": "OK",
      "vis_m": 9999,
      "fzfg": false,
      "metar_trigger": false,
      "taf_trigger": false,
      "metar": "METAR ESMS 281650Z 27010KT CAVOK 28/18 Q1016",
      "taf": "TAF ESMS 281427Z 2815/2915 29008KT CAVOK"
    },
    {
      "icao": "ESSA",
      "alert": "OK",
      "vis_m": 9999,
      "fzfg": false,
      "metar_trigger": false,
      "taf_trigger": false,
      "metar": "METAR ESSA 281650Z 24012KT CAVOK 21/16 Q1013 NOSIG",
      "taf": "TAF ESSA 281430Z 2815/2915 22006KT 9999 BKN060"
    },
    {
      "icao": "EYKA",
      "alert": "OK",
      "vis_m": 9999,
      "fzfg": false,
      "metar_trigger": false,
      "taf_trigger": false,
      "metar": "METAR EYKA 281720Z 15003KT CAVOK 31/17 Q1016",
      "taf": "TAF EYKA 281700Z 2818/2918 VRB03KT 9000 NSC"
    },
    {
      "icao": "EYPA",
      "alert": "OK",
      "vis_m": 9999,
      "fzfg": false,
      "metar_trigger": false,
      "taf_trigger": false,
      "metar": "METAR EYPA 281720Z 27004KT 230V360 CAVOK 28/21 Q1015",
      "taf": "TAF EYPA 281700Z 2818/2918 VRB03KT 9000 NSC"
    },
    {
      "icao": "EYVI",
      "alert": "OK",
      "vis_m": 9999,
      "fzfg": false,
      "metar_trigger": false,
      "taf_trigger": false,
      "metar": "METAR EYVI 281720Z 14006KT CAVOK 29/19 Q1017 NOSIG",
      "taf": "TAF EYVI 281700Z 2818/2918 VRB03KT 9000 NSC"
    },
    {
      "icao": "GCFV",
      "alert": "OK",
      "vis_m": 9999,
      "fzfg": false,
      "metar_trigger": false,
      "taf_trigger": false,
      "metar": "METAR GCFV 281700Z 05019KT 9999 FEW020 24/19 Q1018",
      "taf": "TAF GCFV 281400Z 2815/2915 04020KT 9999 FEW025 TX27/2914Z TN22/2906Z"
    },
    {
      "icao": "GCLP",
      "alert": "OK",
      "vis_m": 9999,
      "fzfg": false,
      "metar_trigger": false,
      "taf_trigger": false,
      "metar": "METAR GCLP 281700Z 01025G35KT 9999 FEW030 26/17 Q1019 NOSIG",
      "taf": "TAF GCLP 281400Z 2815/2915 02027KT 9999 FEW030 TX29/2914Z TN22/2906Z"
    },
    {
      "icao": "GCTS",
      "alert": "OK",
      "vis_m": 9999,
      "fzfg": false,
      "metar_trigger": false,
      "taf_trigger": false,
      "metar": "METAR GCTS 281700Z 08019KT 9999 FEW025 27/18 Q1019 WS R07 NOSIG",
      "taf": "TAF GCTS 281400Z 2815/2915 08018KT 9999 FEW025 TX29/2914Z TN22/2906Z"
    },
    {
      "icao": "GMAD",
      "alert": "OK",
      "vis_m": 8000,
      "fzfg": false,
      "metar_trigger": false,
      "taf_trigger": false,
      "metar": "METAR GMAD 281700Z 31005KT 270V350 8000 FEW013 BKN200 29/17 Q1015 NOSIG",
      "taf": "TAF GMAD 281700Z 2818/2924 2600KT 8000 SCT016 BKN100"
    },
    {
      "icao": "GMMN",
      "alert": "OK",
      "vis_m": 9999,
      "fzfg": false,
      "metar_trigger": false,
      "taf_trigger": false,
      "metar": "METAR GMMN 281700Z 36012KT 330V040 CAVOK 27/19 Q1020 NOSIG",
      "taf": "TAF GMMN 281700Z 2818/2924 36012KT CAVOK"
    },
    {
      "icao": "GMMX",
      "alert": "OK",
      "vis_m": 9999,
      "fzfg": false,
      "metar_trigger": false,
      "taf_trigger": false,
      "metar": "METAR GMMX 281700Z VRB04KT 9999 FEW033 36/16 Q1018 NOSIG",
      "taf": "TAF GMMX 281100Z 2812/2918 02006KT CAVOK"
    },
    {
      "icao": "HEGN",
      "alert": "OK",
      "vis_m": 9999,
      "fzfg": false,
      "metar_trigger": false,
      "taf_trigger": false,
      "metar": "METAR HEGN 281700Z 32008KT CAVOK 33/11 Q1006 NOSIG",
      "taf": "TAF HEGN 281700Z 2818/2924 34012KT CAVOK"
    },
    {
      "icao": "HEMA",
      "alert": "OK",
      "vis_m": 9999,
      "fzfg": false,
      "metar_trigger": false,
      "taf_trigger": false,
      "metar": "METAR HEMA 281700Z 36008KT CAVOK 32/13 Q1007 NOSIG",
      "taf": "TAF HEMA 281700Z 2818/2924 33008G20KT CAVOK"
    },
    {
      "icao": "HESH",
      "alert": "OK",
      "vis_m": 9999,
      "fzfg": false,
      "metar_trigger": false,
      "taf_trigger": false,
      "metar": "METAR HESH 281700Z 14005KT CAVOK 35/12 Q1005 NOSIG",
      "taf": "TAF HESH 281700Z 2818/2924 36011KT CAVOK"
    },
    {
      "icao": "HESX",
      "alert": "OK",
      "vis_m": 9999,
      "fzfg": false,
      "metar_trigger": false,
      "taf_trigger": false,
      "metar": "METAR HESX 281700Z 04007KT CAVOK 32/12 Q1010 NOSIG",
      "taf": "TAF HESX 281700Z 2818/2924 36010KT CAVOK"
    },
    {
      "icao": "LATI",
      "alert": "OK",
      "vis_m": 9999,
      "fzfg": false,
      "metar_trigger": false,
      "taf_trigger": false,
      "metar": "METAR LATI 281720Z 32004KT 290V350 CAVOK 31/19 Q1015 NOSIG",
      "taf": "TAF LATI 281700Z 2818/2918 VRB05KT CAVOK TX37/2912Z TN21/2904Z"
    },
    {
      "icao": "LBPD",
      "alert": "OK",
      "vis_m": 9999,
      "fzfg": false,
      "metar_trigger": false,
      "taf_trigger": false,
      "metar": "METAR LBPD 281700Z AUTO 14007KT 9999 NCD 31/10 Q1019 NOSIG",
      "taf": "TAF LBPD 281700Z 2818/2918 VRB03KT CAVOK"
    },
    {
      "icao": "LBSF",
      "alert": "OK",
      "vis_m": 9999,
      "fzfg": false,
      "metar_trigger": false,
      "taf_trigger": false,
      "metar": "METAR LBSF 281700Z AUTO 04008KT 9999 NCD 28/14 Q1021 NOSIG",
      "taf": "TAF LBSF 281700Z 2818/2918 05010KT CAVOK"
    },
    {
      "icao": "LBWN",
      "alert": "OK",
      "vis_m": 9999,
      "fzfg": false,
      "metar_trigger": false,
      "taf_trigger": false,
      "metar": "METAR LBWN 281700Z AUTO 18003KT 9999 NSC 28/13 Q1019 NOSIG",
      "taf": "TAF LBWN 281700Z 2818/2918 VRB04KT CAVOK"
    },
    {
      "icao": "LCLK",
      "alert": "OK",
      "vis_m": 9999,
      "fzfg": false,
      "metar_trigger": false,
      "taf_trigger": false,
      "metar": "METAR LCLK 281700Z 22006KT CAVOK 30/17 Q1009 NOSIG",
      "taf": "TAF LCLK 281130Z 2812/2912 18011KT 9999 FEW020"
    },
    {
      "icao": "LCPH",
      "alert": "OK",
      "vis_m": 9999,
      "fzfg": false,
      "metar_trigger": false,
      "taf_trigger": false,
      "metar": "METAR LCPH 281700Z 31006KT 250V330 CAVOK 28/23 Q1010 NOSIG",
      "taf": "TAF LCPH 281130Z 2812/2912 27010KT 9999 FEW020"
    },
    {
      "icao": "LEAL",
      "alert": "OK",
      "vis_m": 9999,
      "fzfg": false,
      "metar_trigger": false,
      "taf_trigger": false,
      "metar": "METAR LEAL 281700Z 09008KT 050V120 9999 FEW018 28/23 Q1017 NOSIG",
      "taf": "TAF LEAL 281100Z 2812/2912 09010KT 9999 FEW015 TX32/2812Z TN24/2906Z"
    },
    {
      "icao": "LEBB",
      "alert": "OK",
      "vis_m": 7000,
      "fzfg": false,
      "metar_trigger": false,
      "taf_trigger": false,
      "metar": "METAR LEBB 281700Z 29005KT 240V330 7000 -DZ BKN012 OVC025 21/21 Q1024 NOSIG",
      "taf": ""
    },
    {
      "icao": "LEBL",
      "alert": "OK",
      "vis_m": 9999,
      "fzfg": false,
      "metar_trigger": false,
      "taf_trigger": false,
      "metar": "METAR LEBL 281700Z 16003KT 120V200 CAVOK 29/24 Q1018 NOSIG",
      "taf": "TAF LEBL 281100Z 2812/2912 15009KT CAVOK TX34/2814Z TN25/2905Z"
    },
    {
      "icao": "LECH",
      "alert": "OK",
      "vis_m": 9999,
      "fzfg": false,
      "metar_trigger": false,
      "taf_trigger": false,
      "metar": "METAR LECH 281700Z AUTO 19006KT 160V230 CAVOK 28/14 Q1021",
      "taf": "TAF LECH 281100Z 2812/2912 13010KT CAVOK TX34/2812Z TN19/2906Z"
    },
    {
      "icao": "LEMD",
      "alert": "OK",
      "vis_m": 9999,
      "fzfg": false,
      "metar_trigger": false,
      "taf_trigger": false,
      "metar": "METAR LEMD 281700Z 25008KT 190V300 9999 SCT080 34/07 Q1018 NOSIG",
      "taf": "TAF LEMD 281100Z 2812/2918 VRB04KT CAVOK TX34/2816Z TN17/2905Z"
    },
    {
      "icao": "LEMG",
      "alert": "OK",
      "vis_m": 9999,
      "fzfg": false,
      "metar_trigger": false,
      "taf_trigger": false,
      "metar": "METAR LEMG 281700Z 11007KT 080V140 9999 FEW070 25/18 Q1016 NOSIG",
      "taf": "TAF LEMG 281100Z 2812/2912 13010KT CAVOK TX33/2812Z TN22/2905Z"
    },
    {
      "icao": "LEVC",
      "alert": "OK",
      "vis_m": 9999,
      "fzfg": false,
      "metar_trigger": false,
      "taf_trigger": false,
      "metar": "METAR LEVC 281700Z 07010KT 030V140 9999 FEW030 29/18 Q1017 NOSIG",
      "taf": "TAF LEVC 281100Z 2812/2912 09010KT CAVOK TX33/2812Z TN23/2906Z"
    },
    {
      "icao": "LEXJ",
      "alert": "OK",
      "vis_m": 9999,
      "fzfg": false,
      "metar_trigger": false,
      "taf_trigger": false,
      "metar": "METAR LEXJ 281700Z 02006KT 320V110 9999 SCT016 OVC036 22/19 Q1024",
      "taf": "TAF LEXJ 281400Z 2815/2915 04008KT 9999 BKN020 TX24/2914Z TN19/2905Z"
    },
    {
      "icao": "LEZG",
      "alert": "OK",
      "vis_m": 9999,
      "fzfg": false,
      "metar_trigger": false,
      "taf_trigger": false,
      "metar": "METAR LEZG 281700Z 19006KT 9999 FEW085 25/18 Q1019 NOSIG",
      "taf": ""
    },
    {
      "icao": "LEZL",
      "alert": "OK",
      "vis_m": 9999,
      "fzfg": false,
      "metar_trigger": false,
      "taf_trigger": false,
      "metar": "METAR LEZL 281700Z 22013KT CAVOK 35/15 Q1016 NOSIG",
      "taf": "TAF LEZL 281400Z 2815/2915 22012KT CAVOK TX40/2915Z TN22/2905Z"
    },
    {
      "icao": "LFBD",
      "alert": "OK",
      "vis_m": 9999,
      "fzfg": false,
      "metar_trigger": false,
      "taf_trigger": false,
      "metar": "METAR LFBD 281700Z AUTO 34013KT 310V010 CAVOK 26/19 Q1021 TEMPO 30015G25KT 4000 SHRA BKN040CB",
      "taf": "TAF LFBD 281700Z 2818/2924 34008KT 9999 SCT020 TX30/2914Z TN19/2905Z"
    },
    {
      "icao": "LFLL",
      "alert": "OK",
      "vis_m": 9999,
      "fzfg": false,
      "metar_trigger": false,
      "taf_trigger": false,
      "metar": "METAR LFLL 281700Z 36008KT 330V030 CAVOK 35/14 Q1017 NOSIG",
      "taf": "TAF LFLL 281700Z 2818/2924 36012KT CAVOK"
    },
    {
      "icao": "LFLS",
      "alert": "OK",
      "vis_m": 9999,
      "fzfg": false,
      "metar_trigger": false,
      "taf_trigger": false,
      "metar": "METAR LFLS 281700Z AUTO 21006KT 180V240 CAVOK 35/12 Q1018 TEMPO 34015G25KT FEW090CB",
      "taf": "TAF LFLS 281400Z 2815/2915 25008KT CAVOK"
    },
    {
      "icao": "LFMN",
      "alert": "OK",
      "vis_m": 9999,
      "fzfg": false,
      "metar_trigger": false,
      "taf_trigger": false,
      "metar": "METAR LFMN 281700Z 10005KT CAVOK 30/22 Q1017 NOSIG",
      "taf": "TAF LFMN 281400Z 2815/2921 16005KT CAVOK"
    },
    {
      "icao": "LFOB",
      "alert": "OK",
      "vis_m": 9999,
      "fzfg": false,
      "metar_trigger": false,
      "taf_trigger": false,
      "metar": "METAR LFOB 281700Z AUTO 36011KT 9999 FEW039/// SCT064/// BKN130/// ///CB 26/17 Q1020 TEMPO VRB15G25KT 3000 -TSRA",
      "taf": ""
    },
    {
      "icao": "LFPO",
      "alert": "OK",
      "vis_m": 9999,
      "fzfg": false,
      "metar_trigger": false,
      "taf_trigger": false,
      "metar": "METAR LFPO 281700Z 29010KT CAVOK 30/14 Q1019 TEMPO -TSRA SCT090CB",
      "taf": "TAF LFPO 281700Z 2818/2924 33012KT CAVOK"
    },
    {
      "icao": "LFSB",
      "alert": "OK",
      "vis_m": 9999,
      "fzfg": false,
      "metar_trigger": false,
      "taf_trigger": false,
      "metar": "METAR LFSB 281700Z AUTO 01007KT CAVOK 35/18 Q1018 TEMPO 29010KT FEW080TCU",
      "taf": "TAF LFSB 281700Z 2818/2918 34005KT CAVOK"
    },
    {
      "icao": "LGAV",
      "alert": "OK",
      "vis_m": 9999,
      "fzfg": false,
      "metar_trigger": false,
      "taf_trigger": false,
      "metar": "METAR LGAV 281650Z 01014KT CAVOK 28/14 Q1015 NOSIG",
      "taf": "TAF LGAV 281700Z 2818/2918 02018KT 9999 FEW025"
    },
    {
      "icao": "LGTS",
      "alert": "OK",
      "vis_m": 9999,
      "fzfg": false,
      "metar_trigger": false,
      "taf_trigger": false,
      "metar": "METAR LGTS 281650Z 17008KT CAVOK 30/14 Q1017 NOSIG",
      "taf": "TAF LGTS 281700Z 2818/2918 14013KT 9999 FEW030"
    },
    {
      "icao": "LHBP",
      "alert": "OK",
      "vis_m": 9999,
      "fzfg": false,
      "metar_trigger": false,
      "taf_trigger": false,
      "metar": "METAR LHBP 281700Z 15006KT 9999 FEW100TCU 36/15 Q1017 NOSIG",
      "taf": "TAF LHBP 281115Z 2812/2912 13009KT CAVOK"
    },
    {
      "icao": "LHDC",
      "alert": "OK",
      "vis_m": 9999,
      "fzfg": false,
      "metar_trigger": false,
      "taf_trigger": false,
      "metar": "METAR LHDC 281645Z AUTO VRB03KT 9999 ////// 37/11 Q1018 NOSIG",
      "taf": "TAF LHDC 281415Z 2815/2824 VRB04KT CAVOK"
    },
    {
      "icao": "LIBD",
      "alert": "OK",
      "vis_m": 9999,
      "fzfg": false,
      "metar_trigger": false,
      "taf_trigger": false,
      "metar": "METAR LIBD 281650Z 33004KT 280V020 CAVOK 32/14 Q1016",
      "taf": "TAF LIBD 281700Z 2818/2918 VRB05KT CAVOK"
    },
    {
      "icao": "LIBG",
      "alert": "OK",
      "vis_m": 9999,
      "fzfg": false,
      "metar_trigger": false,
      "taf_trigger": false,
      "metar": "METAR LIBG 281650Z AUTO 03008KT 9999 NCD 35/15 Q1015",
      "taf": "TAF LIBG 281700Z 2818/2918 VRB05KT CAVOK"
    },
    {
      "icao": "LIBP",
      "alert": "OK",
      "vis_m": 9999,
      "fzfg": false,
      "metar_trigger": false,
      "taf_trigger": false,
      "metar": "METAR LIBP 281650Z AUTO 05008KT 9999 NCD 33/14 Q1016",
      "taf": "TAF LIBP 281700Z 2818/2918 VRB05KT CAVOK"
    },
    {
      "icao": "LIBR",
      "alert": "OK",
      "vis_m": 9999,
      "fzfg": false,
      "metar_trigger": false,
      "taf_trigger": false,
      "metar": "METAR LIBR 281650Z 33010KT CAVOK 29/26 Q1015",
      "taf": "TAF LIBR 281700Z 2818/2918 33010KT CAVOK"
    },
    {
      "icao": "LICA",
      "alert": "OK",
      "vis_m": 9999,
      "fzfg": false,
      "metar_trigger": false,
      "taf_trigger": false,
      "metar": "METAR LICA 281650Z AUTO 22005KT 9999 BKN025/// 29/25 Q1017",
      "taf": "TAF LICA 281700Z 2818/2918 VRB05KT 9999 SCT030"
    },
    {
      "icao": "LICC",
      "alert": "OK",
      "vis_m": 9999,
      "fzfg": false,
      "metar_trigger": false,
      "taf_trigger": false,
      "metar": "METAR LICC 281650Z 12004KT 090V170 9999 SCT110 31/21 Q1016",
      "taf": "TAF LICC 281700Z 2818/2918 VRB05KT CAVOK"
    },
    {
      "icao": "LICJ",
      "alert": "OK",
      "vis_m": 9999,
      "fzfg": false,
      "metar_trigger": false,
      "taf_trigger": false,
      "metar": "METAR LICJ 281650Z AUTO 03009KT 9999 NCD 29/26 Q1017",
      "taf": "TAF LICJ 281700Z 2818/2918 04011KT CAVOK"
    },
    {
      "icao": "LIMC",
      "alert": "OK",
      "vis_m": 9999,
      "fzfg": false,
      "metar_trigger": false,
      "taf_trigger": false,
      "metar": "METAR LIMC 281650Z 04012KT 9999 BKN080 34/13 Q1018 NOSIG",
      "taf": "TAF LIMC 281700Z 2818/2924 VRB05KT CAVOK"
    },
    {
      "icao": "LIME",
      "alert": "OK",
      "vis_m": 9999,
      "fzfg": false,
      "metar_trigger": false,
      "taf_trigger": false,
      "metar": "METAR LIME 281650Z 36009KT 9999 SCT070 33/18 Q1018 NOSIG",
      "taf": "TAF LIME 281700Z 2818/2918 VRB05KT CAVOK"
    },
    {
      "icao": "LIMF",
      "alert": "OK",
      "vis_m": 9999,
      "fzfg": false,
      "metar_trigger": false,
      "taf_trigger": false,
      "metar": "METAR LIMF 281650Z 29018KT 9999 -TSRA SCT040CB SCT080 26/18 Q1018",
      "taf": "TAF LIMF 281700Z 2818/2918 VRB05KT CAVOK"
    },
    {
      "icao": "LIMJ",
      "alert": "OK",
      "vis_m": 9999,
      "fzfg": false,
      "metar_trigger": false,
      "taf_trigger": false,
      "metar": "METAR LIMJ 281650Z 23004KT CAVOK 29/25 Q1017",
      "taf": "TAF LIMJ 281700Z 2818/2918 VRB05KT CAVOK"
    },
    {
      "icao": "LIPE",
      "alert": "OK",
      "vis_m": 9999,
      "fzfg": false,
      "metar_trigger": false,
      "taf_trigger": false,
      "metar": "METAR LIPE 281650Z 03006KT 340V100 CAVOK 36/18 Q1015",
      "taf": "TAF LIPE 281700Z 2818/2918 VRB05KT CAVOK"
    },
    {
      "icao": "LIPH",
      "alert": "OK",
      "vis_m": 9999,
      "fzfg": false,
      "metar_trigger": false,
      "taf_trigger": false,
      "metar": "METAR LIPH 281650Z 15004KT 130V190 CAVOK 34/17 Q1016",
      "taf": "TAF LIPH 281700Z 2818/2918 VRB05KT CAVOK"
    },
    {
      "icao": "LIPQ",
      "alert": "OK",
      "vis_m": 9999,
      "fzfg": false,
      "metar_trigger": false,
      "taf_trigger": false,
      "metar": "METAR LIPQ 281650Z AUTO 24005KT 9999 NCD 34/21 Q1016",
      "taf": "TAF LIPQ 281700Z 2818/2918 VRB05KT CAVOK"
    },
    {
      "icao": "LIPR",
      "alert": "OK",
      "vis_m": 9999,
      "fzfg": false,
      "metar_trigger": false,
      "taf_trigger": false,
      "metar": "METAR LIPR 281650Z 08004KT 040V110 CAVOK 31/22 Q1016",
      "taf": "TAF LIPR 281700Z 2818/2918 VRB05KT CAVOK"
    },
    {
      "icao": "LIPX",
      "alert": "OK",
      "vis_m": 9999,
      "fzfg": false,
      "metar_trigger": false,
      "taf_trigger": false,
      "metar": "METAR LIPX 281650Z VRB02KT CAVOK 36/20 Q1016",
      "taf": "TAF LIPX 281700Z 2818/2918 VRB05KT CAVOK"
    },
    {
      "icao": "LIPY",
      "alert": "OK",
      "vis_m": 9999,
      "fzfg": false,
      "metar_trigger": false,
      "taf_trigger": false,
      "metar": "METAR LIPY 281650Z AUTO 03006KT 9999 NCD 31/21 Q1016",
      "taf": "TAF LIPY 281700Z 2818/2918 VRB05KT CAVOK"
    },
    {
      "icao": "LIPZ",
      "alert": "OK",
      "vis_m": 9999,
      "fzfg": false,
      "metar_trigger": false,
      "taf_trigger": false,
      "metar": "METAR LIPZ 281650Z 19004KT CAVOK 33/18 Q1016 NOSIG",
      "taf": "TAF LIPZ 281700Z 2818/2924 VRB05KT CAVOK"
    },
    {
      "icao": "LIRF",
      "alert": "OK",
      "vis_m": 9999,
      "fzfg": false,
      "metar_trigger": false,
      "taf_trigger": false,
      "metar": "METAR LIRF 281650Z 28011KT CAVOK 31/21 Q1016 NOSIG",
      "taf": "TAF LIRF 281700Z 2818/2924 31007KT CAVOK"
    },
    {
      "icao": "LIRN",
      "alert": "OK",
      "vis_m": 9999,
      "fzfg": false,
      "metar_trigger": false,
      "taf_trigger": false,
      "metar": "METAR LIRN 281650Z 27007KT 250V350 CAVOK 34/18 Q1016 NOSIG",
      "taf": "TAF LIRN 281700Z 2818/2918 VRB05KT CAVOK"
    },
    {
      "icao": "LIRP",
      "alert": "OK",
      "vis_m": 9999,
      "fzfg": false,
      "metar_trigger": false,
      "taf_trigger": false,
      "metar": "METAR LIRP 281645Z 28009KT CAVOK 32/20 Q1017 NOSIG",
      "taf": "TAF LIRP 281700Z 2818/2918 27005KT CAVOK"
    },
    {
      "icao": "LIRZ",
      "alert": "OK",
      "vis_m": 9999,
      "fzfg": false,
      "metar_trigger": false,
      "taf_trigger": false,
      "metar": "METAR LIRZ 281650Z AUTO VRB02KT 9999 FEW092/// 37/12 Q1016",
      "taf": "TAF LIRZ 281700Z 2818/2918 VRB04KT CAVOK"
    },
    {
      "icao": "LJLJ",
      "alert": "OK",
      "vis_m": 9999,
      "fzfg": false,
      "metar_trigger": false,
      "taf_trigger": false,
      "metar": "METAR LJLJ 281700Z 04005KT 9999 FEW060 SCT200 33/19 Q1018 NOSIG",
      "taf": "TAF LJLJ 281700Z 2818/2918 15004KT 9999 FEW060"
    },
    {
      "icao": "LKMT",
      "alert": "OK",
      "vis_m": 9999,
      "fzfg": false,
      "metar_trigger": false,
      "taf_trigger": false,
      "metar": "METAR LKMT 281700Z 19006KT CAVOK 35/17 Q1017 NOSIG",
      "taf": "TAF LKMT 281700Z 2818/2918 21005KT CAVOK"
    },
    {
      "icao": "LKPR",
      "alert": "OK",
      "vis_m": 9999,
      "fzfg": false,
      "metar_trigger": false,
      "taf_trigger": false,
      "metar": "METAR LKPR 281700Z 36004KT 280V030 CAVOK 37/13 Q1017 NOSIG",
      "taf": "TAF LKPR 281700Z 2818/2924 08003KT CAVOK"
    },
    {
      "icao": "LLBG",
      "alert": "OK",
      "vis_m": 9999,
      "fzfg": false,
      "metar_trigger": false,
      "taf_trigger": false,
      "metar": "METAR LLBG 281650Z 34006KT CAVOK 28/22 Q1009 NOSIG",
      "taf": "TAF LLBG 281704Z 2818/2918 34006KT CAVOK TX33/2911Z TN23/2903Z"
    },
    {
      "icao": "LMML",
      "alert": "OK",
      "vis_m": 9999,
      "fzfg": false,
      "metar_trigger": false,
      "taf_trigger": false,
      "metar": "METAR LMML 281715Z VRB03KT CAVOK 31/18 Q1017 NOSIG",
      "taf": "TAF LMML 281700Z 2818/2918 VRB06KT CAVOK"
    },
    {
      "icao": "LOWW",
      "alert": "OK",
      "vis_m": 9999,
      "fzfg": false,
      "metar_trigger": false,
      "taf_trigger": false,
      "metar": "METAR LOWW 281650Z 16013KT CAVOK 36/13 Q1016 NOSIG",
      "taf": "TAF LOWW 281715Z 2818/2924 16013KT CAVOK TX37/2913Z TN22/2903Z"
    },
    {
      "icao": "LPFR",
      "alert": "OK",
      "vis_m": 9999,
      "fzfg": false,
      "metar_trigger": false,
      "taf_trigger": false,
      "metar": "METAR LPFR 281700Z 25013KT CAVOK 27/19 Q1018",
      "taf": "TAF LPFR 281700Z 2818/2918 25013KT CAVOK"
    },
    {
      "icao": "LPMA",
      "alert": "OK",
      "vis_m": 9999,
      "fzfg": false,
      "metar_trigger": false,
      "taf_trigger": false,
      "metar": "METAR LPMA 281700Z 02014KT 330V040 9999 SCT014 BKN030 23/18 Q1024",
      "taf": "TAF LPMA 281700Z 2818/2918 02013KT 9999 SCT015 BKN030"
    },
    {
      "icao": "LPPR",
      "alert": "OK",
      "vis_m": 9999,
      "fzfg": false,
      "metar_trigger": false,
      "taf_trigger": false,
      "metar": "METAR LPPR 281700Z 32012KT 9999 FEW025 23/17 Q1022",
      "taf": "TAF LPPR 281700Z 2818/2918 33012KT 9999 FEW025"
    },
    {
      "icao": "LPPS",
      "alert": "OK",
      "vis_m": 9999,
      "fzfg": false,
      "metar_trigger": false,
      "taf_trigger": false,
      "metar": "METAR LPPS 281700Z 04013KT 360V070 9999 SCT014 BKN030 23/19 Q1024",
      "taf": "TAF LPPS 281700Z 2818/2924 03012KT 9999 SCT015 BKN030"
    },
    {
      "icao": "LPPT",
      "alert": "OK",
      "vis_m": 9999,
      "fzfg": false,
      "metar_trigger": false,
      "taf_trigger": false,
      "metar": "METAR LPPT 281700Z 35016KT 300V020 9999 FEW036 26/14 Q1021",
      "taf": "TAF LPPT 281700Z 2818/2924 35015KT CAVOK"
    },
    {
      "icao": "LQBK",
      "alert": "OK",
      "vis_m": 9999,
      "fzfg": false,
      "metar_trigger": false,
      "taf_trigger": false,
      "metar": "METAR LQBK 281700Z 05006KT 030V090 CAVOK 34/17 Q1016 NOSIG",
      "taf": "TAF LQBK 281700Z 2818/2918 06005KT CAVOK TX37/2913Z TN19/2903Z"
    },
    {
      "icao": "LQSA",
      "alert": "OK",
      "vis_m": 9999,
      "fzfg": false,
      "metar_trigger": false,
      "taf_trigger": false,
      "metar": "METAR LQSA 281700Z 29007KT 270V330 CAVOK 31/17 Q1018 NOSIG",
      "taf": "TAF LQSA 281700Z 2818/2918 VRB02KT CAVOK TX36/2913Z TN18/2903Z"
    },
    {
      "icao": "LQTZ",
      "alert": "OK",
      "vis_m": 9999,
      "fzfg": false,
      "metar_trigger": false,
      "taf_trigger": false,
      "metar": "METAR LQTZ 281700Z 11011KT CAVOK 34/17 Q1017",
      "taf": "TAF LQTZ 281700Z 2818/2918 05007KT CAVOK TX38/2914Z TN19/2903Z"
    },
    {
      "icao": "LRBC",
      "alert": "OK",
      "vis_m": 9999,
      "fzfg": false,
      "metar_trigger": false,
      "taf_trigger": false,
      "metar": "METAR LRBC 281700Z 26002KT CAVOK 29/20 Q1019",
      "taf": "TAF LRBC 281400Z 2815/2824 VRB04KT CAVOK"
    },
    {
      "icao": "LRBS",
      "alert": "OK",
      "vis_m": 9999,
      "fzfg": false,
      "metar_trigger": false,
      "taf_trigger": false,
      "metar": "METAR LRBS 281700Z 28004KT 260V320 CAVOK 33/16 Q1019 NOSIG",
      "taf": "TAF LRBS 281100Z 2812/2912 VRB04KT CAVOK"
    },
    {
      "icao": "LRBV",
      "alert": "OK",
      "vis_m": 9999,
      "fzfg": false,
      "metar_trigger": false,
      "taf_trigger": false,
      "metar": "METAR LRBV 281700Z 29004KT CAVOK 30/18 Q1022",
      "taf": "TAF LRBV 281400Z 2815/2824 VRB04KT CAVOK"
    },
    {
      "icao": "LRCL",
      "alert": "OK",
      "vis_m": 9999,
      "fzfg": false,
      "metar_trigger": false,
      "taf_trigger": false,
      "metar": "METAR LRCL 281700Z 18005KT CAVOK 34/15 Q1020",
      "taf": "TAF LRCL 281400Z 2815/2824 VRB04KT CAVOK"
    },
    {
      "icao": "LRCV",
      "alert": "OK",
      "vis_m": 9999,
      "fzfg": false,
      "metar_trigger": false,
      "taf_trigger": false,
      "metar": "METAR LRCV 281700Z 00000KT CAVOK 33/18 Q1020",
      "taf": "TAF LRCV 281400Z 2815/2824 VRB04KT CAVOK"
    },
    {
      "icao": "LRIA",
      "alert": "OK",
      "vis_m": 9999,
      "fzfg": false,
      "metar_trigger": false,
      "taf_trigger": false,
      "metar": "METAR LRIA 281700Z 25003KT CAVOK 32/16 Q1018",
      "taf": "TAF LRIA 281400Z 2815/2824 VRB04KT CAVOK"
    },
    {
      "icao": "LROP",
      "alert": "OK",
      "vis_m": 9999,
      "fzfg": false,
      "metar_trigger": false,
      "taf_trigger": false,
      "metar": "METAR LROP 281700Z 25005KT CAVOK 30/18 Q1019 NOSIG",
      "taf": "TAF LROP 281100Z 2812/2912 VRB04KT CAVOK"
    },
    {
      "icao": "LRSB",
      "alert": "OK",
      "vis_m": 9999,
      "fzfg": false,
      "metar_trigger": false,
      "taf_trigger": false,
      "metar": "METAR LRSB 281700Z VRB03KT CAVOK 32/17 Q1021",
      "taf": "TAF LRSB 281100Z 2812/2912 VRB04KT CAVOK"
    },
    {
      "icao": "LRSM",
      "alert": "OK",
      "vis_m": 9999,
      "fzfg": false,
      "metar_trigger": false,
      "taf_trigger": false,
      "metar": "METAR LRSM 281700Z AUTO 04005KT 9999 NCD 35/16 Q1018",
      "taf": ""
    },
    {
      "icao": "LRSV",
      "alert": "OK",
      "vis_m": 9999,
      "fzfg": false,
      "metar_trigger": false,
      "taf_trigger": false,
      "metar": "METAR LRSV 281700Z 29003KT 260V340 CAVOK 32/18 Q1020",
      "taf": "TAF LRSV 281400Z 2815/2824 VRB04KT CAVOK"
    },
    {
      "icao": "LRTM",
      "alert": "OK",
      "vis_m": 9999,
      "fzfg": false,
      "metar_trigger": false,
      "taf_trigger": false,
      "metar": "METAR LRTM 281700Z 00000KT CAVOK 36/21 Q1020",
      "taf": "TAF LRTM 281400Z 2815/2824 24010KT CAVOK"
    },
    {
      "icao": "LRTR",
      "alert": "OK",
      "vis_m": 9999,
      "fzfg": false,
      "metar_trigger": false,
      "taf_trigger": false,
      "metar": "METAR LRTR 281700Z 14005KT CAVOK 35/16 Q1018 NOSIG",
      "taf": "TAF LRTR 281100Z 2812/2912 VRB04KT CAVOK"
    },
    {
      "icao": "LTAC",
      "alert": "OK",
      "vis_m": 9999,
      "fzfg": false,
      "metar_trigger": false,
      "taf_trigger": false,
      "metar": "METAR LTAC 281650Z 10012KT 9999 FEW040 24/07 Q1020 NOSIG RMK RWY21C 10011KT RWY03L 09012KT RWY21R 08011KT RWY03R 07008KT RWY21L 09011KT",
      "taf": "TAF LTAC 281640Z 2818/2918 04012KT 9999 FEW040"
    },
    {
      "icao": "LTFM",
      "alert": "OK",
      "vis_m": 9999,
      "fzfg": false,
      "metar_trigger": false,
      "taf_trigger": false,
      "metar": "METAR LTFM 281650Z 05017KT CAVOK 25/17 Q1019 NOSIG RMK RWY17L 05015KT RWY34L 04016KT RWY16R 04015KT RWY36 04016KT RWY18 05013KT",
      "taf": "TAF LTFM 281640Z 2818/2924 06018G28KT CAVOK"
    },
    {
      "icao": "LUKK",
      "alert": "OK",
      "vis_m": 9999,
      "fzfg": false,
      "metar_trigger": false,
      "taf_trigger": false,
      "metar": "METAR LUKK 281700Z 30006KT CAVOK 31/18 Q1018 NOSIG",
      "taf": "TAF LUKK 281634Z 2818/2918 VRB04KT CAVOK"
    },
    {
      "icao": "LWOH",
      "alert": "OK",
      "vis_m": 9999,
      "fzfg": false,
      "metar_trigger": false,
      "taf_trigger": false,
      "metar": "METAR LWOH 281720Z 05006KT 9999 FEW040 29/15 Q1020",
      "taf": "TAF LWOH 281710Z 2818/2918 04008KT 9999 SCT040"
    },
    {
      "icao": "LWSK",
      "alert": "OK",
      "vis_m": 9999,
      "fzfg": false,
      "metar_trigger": false,
      "taf_trigger": false,
      "metar": "METAR LWSK 281720Z 04010KT 9999 FEW060 35/15 Q1017 NOSIG",
      "taf": "TAF LWSK 281710Z 2818/2918 03010KT CAVOK"
    },
    {
      "icao": "LYBE",
      "alert": "OK",
      "vis_m": 9999,
      "fzfg": false,
      "metar_trigger": false,
      "taf_trigger": false,
      "metar": "METAR LYBE 281700Z 09008KT CAVOK 34/17 Q1018 NOSIG",
      "taf": "TAF LYBE 281700Z 2818/2918 10007KT CAVOK TX38/2913Z TN22/2903Z"
    },
    {
      "icao": "LYNI",
      "alert": "OK",
      "vis_m": 9999,
      "fzfg": false,
      "metar_trigger": false,
      "taf_trigger": false,
      "metar": "METAR LYNI 281700Z 04009KT 010V070 CAVOK 32/16 Q1018 NOSIG",
      "taf": "TAF LYNI 281700Z 2818/2918 09005KT CAVOK TX37/2914Z TN20/2903Z"
    },
    {
      "icao": "LYPG",
      "alert": "OK",
      "vis_m": 9999,
      "fzfg": false,
      "metar_trigger": false,
      "taf_trigger": false,
      "metar": "METAR LYPG 281700Z 23004KT 160V260 CAVOK 37/16 Q1014 NOSIG",
      "taf": "TAF LYPG 281700Z 2818/2918 21007KT CAVOK TX38/2914Z TN25/2903Z"
    },
    {
      "icao": "LZIB",
      "alert": "OK",
      "vis_m": 9999,
      "fzfg": false,
      "metar_trigger": false,
      "taf_trigger": false,
      "metar": "METAR LZIB 281700Z 15010KT CAVOK 37/13 Q1016 NOSIG",
      "taf": "TAF LZIB 281715Z 2818/2918 16006KT CAVOK"
    },
    {
      "icao": "LZKZ",
      "alert": "OK",
      "vis_m": 9999,
      "fzfg": false,
      "metar_trigger": false,
      "taf_trigger": false,
      "metar": "METAR LZKZ 281700Z 16005KT 130V190 CAVOK 35/15 Q1018 NOSIG",
      "taf": "TAF LZKZ 281715Z 2818/2918 22005KT CAVOK"
    },
    {
      "icao": "LZTT",
      "alert": "OK",
      "vis_m": 9999,
      "fzfg": false,
      "metar_trigger": false,
      "taf_trigger": false,
      "metar": "METAR LZTT 281700Z 16003KT 130V210 9999 FEW066 28/18 Q1022 NOSIG",
      "taf": "TAF LZTT 281715Z 2818/2918 26005KT CAVOK"
    },
    {
      "icao": "OEJN",
      "alert": "OK",
      "vis_m": 9999,
      "fzfg": false,
      "metar_trigger": false,
      "taf_trigger": false,
      "metar": "METAR OEJN 281700Z 34015KT CAVOK 34/15 Q1005 NOSIG",
      "taf": "TAF OEJN 281700Z 2818/2924 35012KT CAVOK"
    },
    {
      "icao": "OEMA",
      "alert": "OK",
      "vis_m": 9999,
      "fzfg": false,
      "metar_trigger": false,
      "taf_trigger": false,
      "metar": "METAR OEMA 281700Z 30006KT CAVOK 40/M07 Q1009 NOSIG",
      "taf": "TAF OEMA 281700Z 2818/2924 33010KT CAVOK"
    },
    {
      "icao": "OJAI",
      "alert": "OK",
      "vis_m": 5000,
      "fzfg": false,
      "metar_trigger": false,
      "taf_trigger": false,
      "metar": "METAR OJAI 281700Z 28011KT 5000 HZ NSC 27/14 Q1013 NOSIG",
      "taf": "TAF OJAI 281700Z 2818/2924 29008KT 5000 HZ NSC"
    },
    {
      "icao": "OMAA",
      "alert": "OK",
      "vis_m": 9999,
      "fzfg": false,
      "metar_trigger": false,
      "taf_trigger": false,
      "metar": "METAR OMAA 281700Z 31008KT CAVOK 33/24 Q0999 NOSIG",
      "taf": "TAF OMAA 281700Z 2818/3000 33010KT 8000 NSC"
    },
    {
      "icao": "OMDB",
      "alert": "OK",
      "vis_m": 9999,
      "fzfg": false,
      "metar_trigger": false,
      "taf_trigger": false,
      "metar": "METAR OMDB 281700Z 30007KT 280V340 CAVOK 34/27 Q0999 NOSIG",
      "taf": "TAF OMDB 281700Z 2818/3000 VRB02KT 8000 NSC"
    },
    {
      "icao": "UAAA",
      "alert": "OK",
      "vis_m": 9999,
      "fzfg": false,
      "metar_trigger": false,
      "taf_trigger": false,
      "metar": "METAR UAAA 281700Z 16003MPS 9999 FEW050CB SCT100 24/11 Q1009 NOSIG",
      "taf": "TAF UAAA 281701Z 2818/2918 17003MPS 9999 SCT050CB BKN100 TX36/2910Z TN20/2901Z"
    },
    {
      "icao": "UBBB",
      "alert": "OK",
      "vis_m": 9999,
      "fzfg": false,
      "metar_trigger": false,
      "taf_trigger": false,
      "metar": "METAR UBBB 281700Z 16004KT CAVOK 22/13 Q1015 NOSIG",
      "taf": "TAF UBBB 281701Z 2818/2918 19005KT CAVOK TX26/2910Z TN19/2900Z"
    },
    {
      "icao": "UDSG",
      "alert": "OK",
      "vis_m": 9999,
      "fzfg": false,
      "metar_trigger": false,
      "taf_trigger": false,
      "metar": "METAR UDSG 281700Z 13001KT 9999 FEW049 13/06 Q1022 NOSIG",
      "taf": "TAF UDSG 281658Z 2818/2918 36008KT 9999 FEW050"
    },
    {
      "icao": "UDYZ",
      "alert": "OK",
      "vis_m": 9999,
      "fzfg": false,
      "metar_trigger": false,
      "taf_trigger": false,
      "metar": "METAR UDYZ 281700Z 04011KT 9999 NSC 24/09 Q1015 NOSIG",
      "taf": "TAF UDYZ 281700Z 2818/2918 05010KT CAVOK"
    },
    {
      "icao": "UGKO",
      "alert": "OK",
      "vis_m": 9999,
      "fzfg": false,
      "metar_trigger": false,
      "taf_trigger": false,
      "metar": "METAR UGKO 281700Z 27005KT CAVOK 20/17 Q1018 NOSIG",
      "taf": "TAF UGKO 281700Z 2818/2918 25007KT CAVOK TX25/2911Z TN16/2902Z"
    }
  ]
}