{
  "ts_utc": "2026-06-04T23:15:40Z",
  "threshold_m": 150,
  "source": "stations_override.txt (ICAO list) + aviationweather.gov (METAR/TAF raw)",
  "station_count": 159,
  "stations": [
    {
      "icao": "BIKF",
      "alert": "OK",
      "vis_m": 9999,
      "fzfg": false,
      "metar_trigger": false,
      "taf_trigger": false,
      "metar": "METAR BIKF 042300Z 07003KT 9999 FEW028 BKN076 10/09 Q0985",
      "taf": "TAF BIKF 041915Z 0421/0521 33005KT 9999 SCT015 BKN025 TX11/0421Z TN08/0517Z"
    },
    {
      "icao": "BKPR",
      "alert": "OK",
      "vis_m": 9999,
      "fzfg": false,
      "metar_trigger": false,
      "taf_trigger": false,
      "metar": "METAR BKPR 042300Z VRB02KT 9999 BKN060 16/13 Q1014 NOSIG",
      "taf": "TAF BKPR 041730Z 0418/0518 03006KT 9999 SCT080"
    },
    {
      "icao": "EBCI",
      "alert": "OK",
      "vis_m": 9999,
      "fzfg": false,
      "metar_trigger": false,
      "taf_trigger": false,
      "metar": "METAR EBCI 042250Z 22010KT 9999 BKN030 13/10 Q1008 NOSIG",
      "taf": "TAF EBCI 041700Z 0418/0524 24012KT 9999 SCT035"
    },
    {
      "icao": "EDDB",
      "alert": "OK",
      "vis_m": 9999,
      "fzfg": false,
      "metar_trigger": false,
      "taf_trigger": false,
      "metar": "METAR EDDB 042250Z AUTO 19007KT 9999 -RA NSC 16/13 Q1007 NOSIG",
      "taf": ""
    },
    {
      "icao": "EDDH",
      "alert": "OK",
      "vis_m": 9999,
      "fzfg": false,
      "metar_trigger": false,
      "taf_trigger": false,
      "metar": "METAR EDDH 042250Z AUTO 21009KT CAVOK 14/11 Q1003 NOSIG",
      "taf": "TAF EDDH 041700Z 0418/0524 20010KT 9999 SCT030"
    },
    {
      "icao": "EDDK",
      "alert": "OK",
      "vis_m": 9999,
      "fzfg": false,
      "metar_trigger": false,
      "taf_trigger": false,
      "metar": "METAR EDDK 042250Z AUTO 18008KT CAVOK 12/10 Q1008 NOSIG",
      "taf": "TAF EDDK 041700Z 0418/0524 18007KT 9999 SCT030"
    },
    {
      "icao": "EDDN",
      "alert": "OK",
      "vis_m": 9999,
      "fzfg": false,
      "metar_trigger": false,
      "taf_trigger": false,
      "metar": "METAR EDDN 042250Z AUTO 19006KT 150V220 9999 -RA FEW014 SCT035 13/11 Q1011",
      "taf": "TAF EDDN 041700Z 0418/0518 23007KT 9999 BKN045"
    },
    {
      "icao": "EDDS",
      "alert": "OK",
      "vis_m": 9999,
      "fzfg": false,
      "metar_trigger": false,
      "taf_trigger": false,
      "metar": "METAR EDDS 042250Z AUTO 20003KT 140V240 9999 -SHRA FEW///TCU 13/10 Q1011",
      "taf": "TAF EDDS 041700Z 0418/0518 22009KT 9999 SCT015"
    },
    {
      "icao": "EDFH",
      "alert": "OK",
      "vis_m": 9999,
      "fzfg": false,
      "metar_trigger": false,
      "taf_trigger": false,
      "metar": "METAR EDFH 042250Z 24008KT 200V260 CAVOK 10/09 Q1009",
      "taf": "TAF EDFH 041700Z 0418/0518 23010KT 9999 SCT030"
    },
    {
      "icao": "EDJA",
      "alert": "OK",
      "vis_m": 9999,
      "fzfg": false,
      "metar_trigger": false,
      "taf_trigger": false,
      "metar": "METAR EDJA 042250Z AUTO 21011KT 9999 // FEW017/// BKN053/// OVC062/// 11/10 Q1012",
      "taf": "TAF EDJA 041700Z 0418/0503 24010KT 9999 FEW010 OVC030"
    },
    {
      "icao": "EDLW",
      "alert": "OK",
      "vis_m": 9999,
      "fzfg": false,
      "metar_trigger": false,
      "taf_trigger": false,
      "metar": "METAR EDLW 042250Z AUTO 19010KT 9999 // FEW038/// BKN043/// BKN062/// 13/10 Q1006",
      "taf": "TAF EDLW 041700Z 0418/0518 21011KT 9999 SCT030"
    },
    {
      "icao": "EDNY",
      "alert": "OK",
      "vis_m": 9999,
      "fzfg": false,
      "metar_trigger": false,
      "taf_trigger": false,
      "metar": "METAR EDNY 042250Z AUTO VRB02KT 9999 // BKN038/// BKN045/// OVC056/// 12/11 Q1014",
      "taf": "TAF EDNY 041700Z 0418/0503 24008KT 9999 FEW015 OVC035"
    },
    {
      "icao": "EDSB",
      "alert": "OK",
      "vis_m": 9999,
      "fzfg": false,
      "metar_trigger": false,
      "taf_trigger": false,
      "metar": "METAR EDSB 042250Z AUTO 20011KT 9999 // FEW048/// SCT055/// OVC070/// 15/11 Q1011",
      "taf": "TAF EDSB 041700Z 0418/0518 20010KT 9999 SCT025"
    },
    {
      "icao": "EETN",
      "alert": "OK",
      "vis_m": 9999,
      "fzfg": false,
      "metar_trigger": false,
      "taf_trigger": false,
      "metar": "METAR EETN 042250Z 10006KT CAVOK 14/10 Q1011",
      "taf": "TAF EETN 041730Z 0418/0518 16010KT CAVOK"
    },
    {
      "icao": "EFTU",
      "alert": "OK",
      "vis_m": 9999,
      "fzfg": false,
      "metar_trigger": false,
      "taf_trigger": false,
      "metar": "METAR EFTU 042250Z AUTO 16009KT 120V180 CAVOK 18/10 Q1009",
      "taf": "TAF EFTU 041732Z 0418/0518 18007KT CAVOK"
    },
    {
      "icao": "EGBB",
      "alert": "OK",
      "vis_m": 9999,
      "fzfg": false,
      "metar_trigger": false,
      "taf_trigger": false,
      "metar": "METAR EGBB 042250Z 26007KT CAVOK 13/08 Q1004",
      "taf": "TAF EGBB 041657Z 0418/0518 26012KT 9999 FEW015 SCT030"
    },
    {
      "icao": "EGGP",
      "alert": "OK",
      "vis_m": 9999,
      "fzfg": false,
      "metar_trigger": false,
      "taf_trigger": false,
      "metar": "METAR EGGP 042250Z 28018KT 9999 SCT022 SCT035 13/09 Q1002",
      "taf": "TAF EGGP 041658Z 0418/0518 27018KT 9999 SCT035"
    },
    {
      "icao": "EGGW",
      "alert": "OK",
      "vis_m": 9999,
      "fzfg": false,
      "metar_trigger": false,
      "taf_trigger": false,
      "metar": "METAR EGGW 042250Z AUTO 25012KT 9999 NCD 12/10 Q1004",
      "taf": "TAF EGGW 041654Z 0418/0518 26009KT 9999 SCT020"
    },
    {
      "icao": "EGKK",
      "alert": "OK",
      "vis_m": 9999,
      "fzfg": false,
      "metar_trigger": false,
      "taf_trigger": false,
      "metar": "METAR EGKK 042250Z 24010KT CAVOK 13/10 Q1005",
      "taf": "TAF EGKK 041652Z 0418/0524 23014KT 9999 SCT025"
    },
    {
      "icao": "EGNM",
      "alert": "OK",
      "vis_m": 9999,
      "fzfg": false,
      "metar_trigger": false,
      "taf_trigger": false,
      "metar": "METAR EGNM 042250Z 26014KT 9999 -SHRA FEW010 SCT035 11/10 Q1000",
      "taf": "TAF EGNM 041659Z 0418/0518 27013KT 9999 FEW015 SCT025"
    },
    {
      "icao": "EGPD",
      "alert": "OK",
      "vis_m": 9999,
      "fzfg": false,
      "metar_trigger": false,
      "taf_trigger": false,
      "metar": "METAR EGPD 042250Z COR AUTO 27008KT 9999 NCD 12/08 Q0992 NOSIG",
      "taf": "TAF EGPD 041655Z 0418/0518 27006KT 9999 FEW020 SCT040"
    },
    {
      "icao": "EGPF",
      "alert": "OK",
      "vis_m": 4200,
      "fzfg": false,
      "metar_trigger": false,
      "taf_trigger": false,
      "metar": "METAR EGPF 042250Z AUTO 25013G23KT 4200 -DZ BKN013 BKN019 OVC033 11/10 Q0997",
      "taf": ""
    },
    {
      "icao": "EHBK",
      "alert": "OK",
      "vis_m": 9999,
      "fzfg": false,
      "metar_trigger": false,
      "taf_trigger": false,
      "metar": "METAR EHBK 042255Z AUTO 22013KT 170V250 9999 BKN040 OVC045 14/10 Q1007",
      "taf": "TAF EHBK 041707Z 0418/0524 22012KT 9999 SCT040"
    },
    {
      "icao": "EHEH",
      "alert": "OK",
      "vis_m": 9999,
      "fzfg": false,
      "metar_trigger": false,
      "taf_trigger": false,
      "metar": "METAR EHEH 042255Z AUTO 23011KT 180V270 9999 SCT045 OVC050 15/10 Q1005 BLU",
      "taf": ""
    },
    {
      "icao": "EKBI",
      "alert": "OK",
      "vis_m": 9999,
      "fzfg": false,
      "metar_trigger": false,
      "taf_trigger": false,
      "metar": "METAR EKBI 042250Z 17008KT 140V210 9999 -RA BKN009 FEW022CB BKN055 12/12 Q1000",
      "taf": "TAF EKBI 041727Z 0418/0518 18012KT 9999 SCT025"
    },
    {
      "icao": "EKCH",
      "alert": "OK",
      "vis_m": 9999,
      "fzfg": false,
      "metar_trigger": false,
      "taf_trigger": false,
      "metar": "METAR EKCH 042250Z AUTO 18008KT 9999 FEW016/// FEW096/// 14/14 Q1002 NOSIG",
      "taf": "TAF EKCH 041727Z 0418/0518 18012KT 9999 SCT030"
    },
    {
      "icao": "ENAL",
      "alert": "OK",
      "vis_m": 9999,
      "fzfg": false,
      "metar_trigger": false,
      "taf_trigger": false,
      "metar": "METAR ENAL 042250Z AUTO 06007KT 9999 NCD 12/11 Q0994",
      "taf": "TAF ENAL 041700Z 0418/0503 27015KT 9999 FEW030 SCT060"
    },
    {
      "icao": "ENBR",
      "alert": "OK",
      "vis_m": 9999,
      "fzfg": false,
      "metar_trigger": false,
      "taf_trigger": false,
      "metar": "METAR ENBR 042250Z 15004KT 120V180 9999 -SHRA FEW023CB BKN037 12/11 Q0994 RMK WIND 1200FT 15016KT",
      "taf": "TAF ENBR 041700Z 0418/0518 15008KT 9999 -SHRA FEW010 BKN030"
    },
    {
      "icao": "ENGM",
      "alert": "OK",
      "vis_m": 9999,
      "fzfg": false,
      "metar_trigger": false,
      "taf_trigger": false,
      "metar": "METAR ENGM 042250Z 16005KT 9999 VCSH FEW004 BKN018 13/12 Q0999",
      "taf": ""
    },
    {
      "icao": "ENHD",
      "alert": "OK",
      "vis_m": 9999,
      "fzfg": false,
      "metar_trigger": false,
      "taf_trigger": false,
      "metar": "METAR ENHD 042250Z AUTO 14010KT 9999 FEW016/// 13/10 Q0993",
      "taf": "TAF ENHD 041400Z 0415/0422 16015KT 9999 -SHRA FEW018 SCT030"
    },
    {
      "icao": "ENTC",
      "alert": "OK",
      "vis_m": 9999,
      "fzfg": false,
      "metar_trigger": false,
      "taf_trigger": false,
      "metar": "METAR ENTC 042250Z 00000KT CAVOK 15/09 Q1004 RMK WIND 2600FT 17015KT",
      "taf": "TAF ENTC 041700Z 0418/0518 03010KT CAVOK"
    },
    {
      "icao": "ENTO",
      "alert": "OK",
      "vis_m": 9999,
      "fzfg": false,
      "metar_trigger": false,
      "taf_trigger": false,
      "metar": "METAR ENTO 042250Z AUTO 11003KT 9999 -RA SCT005/// BKN009/// 13/13 Q0998",
      "taf": "TAF ENTO 041700Z 0418/0518 18008KT 9999 BKN015"
    },
    {
      "icao": "ENVA",
      "alert": "OK",
      "vis_m": 9999,
      "fzfg": false,
      "metar_trigger": false,
      "taf_trigger": false,
      "metar": "METAR ENVA 042250Z 12010KT 090V160 CAVOK 17/09 Q0997 RMK WIND 670FT 13013KT",
      "taf": "TAF ENVA 041700Z 0418/0518 14012KT 9999 FEW050"
    },
    {
      "icao": "ENZV",
      "alert": "OK",
      "vis_m": 9999,
      "fzfg": false,
      "metar_trigger": false,
      "taf_trigger": false,
      "metar": "METAR ENZV 042250Z 15011KT CAVOK 14/10 Q0994",
      "taf": "TAF ENZV 041700Z 0418/0518 16012KT 9999 -SHRA SCT018 BKN030"
    },
    {
      "icao": "EPGD",
      "alert": "OK",
      "vis_m": 9999,
      "fzfg": false,
      "metar_trigger": false,
      "taf_trigger": false,
      "metar": "METAR EPGD 042300Z 15009KT CAVOK 18/12 Q1006",
      "taf": "TAF EPGD 041730Z 0418/0518 17010KT CAVOK"
    },
    {
      "icao": "EPKK",
      "alert": "OK",
      "vis_m": 9999,
      "fzfg": false,
      "metar_trigger": false,
      "taf_trigger": false,
      "metar": "METAR EPKK 042300Z VRB01KT 9999 MIFG NSC 14/13 Q1010",
      "taf": "TAF EPKK 041730Z 0418/0518 VRB02KT 9999 SCT026"
    },
    {
      "icao": "EPKT",
      "alert": "OK",
      "vis_m": 9999,
      "fzfg": false,
      "metar_trigger": false,
      "taf_trigger": false,
      "metar": "METAR EPKT 042300Z 11004KT CAVOK 14/13 Q1009",
      "taf": "TAF EPKT 041730Z 0418/0518 18006KT CAVOK"
    },
    {
      "icao": "EPLB",
      "alert": "OK",
      "vis_m": 3200,
      "fzfg": false,
      "metar_trigger": false,
      "taf_trigger": false,
      "metar": "METAR EPLB 042300Z 08003KT 3200 BR NSC 16/16 Q1010",
      "taf": "TAF EPLB 041730Z 0418/0518 VRB04KT CAVOK"
    },
    {
      "icao": "EPMO",
      "alert": "OK",
      "vis_m": 9999,
      "fzfg": false,
      "metar_trigger": false,
      "taf_trigger": false,
      "metar": "METAR EPMO 042300Z 12005KT CAVOK 16/15 Q1010",
      "taf": "TAF EPMO 041730Z 0418/0518 13005KT CAVOK"
    },
    {
      "icao": "EPPO",
      "alert": "OK",
      "vis_m": 9999,
      "fzfg": false,
      "metar_trigger": false,
      "taf_trigger": false,
      "metar": "METAR EPPO 042300Z 28006KT 9999 FEW026 18/13 Q1007",
      "taf": "TAF EPPO 041730Z 0418/0518 17010KT CAVOK"
    },
    {
      "icao": "EPRA",
      "alert": "OK",
      "vis_m": 9999,
      "fzfg": false,
      "metar_trigger": false,
      "taf_trigger": false,
      "metar": "METAR EPRA 042300Z 12003KT CAVOK 16/15 Q1010",
      "taf": "TAF EPRA 041730Z 0418/0503 14005KT CAVOK"
    },
    {
      "icao": "EPRZ",
      "alert": "OK",
      "vis_m": 5000,
      "fzfg": false,
      "metar_trigger": false,
      "taf_trigger": false,
      "metar": "METAR EPRZ 042300Z VRB02KT 5000 BR NSC 17/17 Q1010",
      "taf": "TAF EPRZ 041730Z 0418/0518 10010KT 9999 BKN040"
    },
    {
      "icao": "EPSC",
      "alert": "OK",
      "vis_m": 9999,
      "fzfg": false,
      "metar_trigger": false,
      "taf_trigger": false,
      "metar": "METAR EPSC 042300Z 14005KT CAVOK 15/14 Q1006",
      "taf": "TAF EPSC 041730Z 0418/0518 20005KT CAVOK"
    },
    {
      "icao": "EPSY",
      "alert": "OK",
      "vis_m": 9999,
      "fzfg": false,
      "metar_trigger": false,
      "taf_trigger": false,
      "metar": "METAR EPSY 042300Z 16004KT 130V190 CAVOK 15/15 Q1010",
      "taf": "TAF EPSY 041730Z 0418/0503 15006KT CAVOK"
    },
    {
      "icao": "EPWA",
      "alert": "OK",
      "vis_m": 9999,
      "fzfg": false,
      "metar_trigger": false,
      "taf_trigger": false,
      "metar": "METAR EPWA 042300Z 14003KT 9999 MIFG NSC 15/14 Q1009 BECMG 3000 BR",
      "taf": "TAF EPWA 041730Z 0418/0518 15005KT CAVOK"
    },
    {
      "icao": "EPWR",
      "alert": "OK",
      "vis_m": 9999,
      "fzfg": false,
      "metar_trigger": false,
      "taf_trigger": false,
      "metar": "METAR EPWR 042300Z 14007KT CAVOK 17/14 Q1007",
      "taf": "TAF EPWR 041730Z 0418/0518 18008KT CAVOK"
    },
    {
      "icao": "ESGG",
      "alert": "OK",
      "vis_m": 9999,
      "fzfg": false,
      "metar_trigger": false,
      "taf_trigger": false,
      "metar": "METAR ESGG 042250Z 17009KT 9999 -RA FEW005 BKN010 BKN015 13/12 Q0999",
      "taf": ""
    },
    {
      "icao": "ESKN",
      "alert": "OK",
      "vis_m": 9999,
      "fzfg": false,
      "metar_trigger": false,
      "taf_trigger": false,
      "metar": "METAR ESKN 042250Z 13010KT 9999 OVC004 14/14 Q1004",
      "taf": ""
    },
    {
      "icao": "ESMS",
      "alert": "OK",
      "vis_m": 9999,
      "fzfg": false,
      "metar_trigger": false,
      "taf_trigger": false,
      "metar": "METAR ESMS 042250Z 16006KT CAVOK 13/13 Q1002",
      "taf": "TAF ESMS 041727Z 0418/0518 18010KT 9999 SCT025"
    },
    {
      "icao": "ESSA",
      "alert": "OK",
      "vis_m": 9999,
      "fzfg": false,
      "metar_trigger": false,
      "taf_trigger": false,
      "metar": "METAR ESSA 042250Z 14008KT 9999 BKN010 13/12 Q1005 NOSIG",
      "taf": "TAF ESSA 041730Z 0418/0518 15011KT 9999 -RA BKN010"
    },
    {
      "icao": "EYKA",
      "alert": "OK",
      "vis_m": 9999,
      "fzfg": false,
      "metar_trigger": false,
      "taf_trigger": false,
      "metar": "METAR EYKA 042250Z 12004KT 9999 FEW032 SCT040 BKN047 15/15 Q1011",
      "taf": "TAF EYKA 041700Z 0418/0518 13008KT 9000 BKN030"
    },
    {
      "icao": "EYPA",
      "alert": "OK",
      "vis_m": 9999,
      "fzfg": false,
      "metar_trigger": false,
      "taf_trigger": false,
      "metar": "METAR EYPA 042250Z AUTO 15009KT 9999 FEW008/// 16/15 Q1008",
      "taf": "TAF EYPA 041700Z 0418/0518 15010KT 8000 SCT015"
    },
    {
      "icao": "EYVI",
      "alert": "OK",
      "vis_m": 9999,
      "fzfg": false,
      "metar_trigger": false,
      "taf_trigger": false,
      "metar": "METAR EYVI 042250Z 15010KT 9999 FEW042 16/13 Q1012 NOSIG",
      "taf": "TAF EYVI 041701Z 0418/0518 14010KT 9000 SCT045"
    },
    {
      "icao": "GCFV",
      "alert": "OK",
      "vis_m": 9999,
      "fzfg": false,
      "metar_trigger": false,
      "taf_trigger": false,
      "metar": "METAR GCFV 042300Z AUTO 36018KT 9999 SCT021 20/15 Q1019",
      "taf": "TAF GCFV 041400Z 0415/0515 01017KT 9999 FEW020 TX24/0514Z TN19/0506Z"
    },
    {
      "icao": "GCLP",
      "alert": "OK",
      "vis_m": 9999,
      "fzfg": false,
      "metar_trigger": false,
      "taf_trigger": false,
      "metar": "METAR GCLP 042300Z 01024KT 9999 SCT020 20/17 Q1019 NOSIG",
      "taf": "TAF GCLP 041400Z 0415/0515 01028KT 9999 FEW020 TX24/0514Z TN19/0506Z"
    },
    {
      "icao": "GCTS",
      "alert": "OK",
      "vis_m": 9999,
      "fzfg": false,
      "metar_trigger": false,
      "taf_trigger": false,
      "metar": "METAR GCTS 042300Z 07003KT 040V110 9999 FEW025 21/16 Q1020 NOSIG",
      "taf": ""
    },
    {
      "icao": "GMAD",
      "alert": "OK",
      "vis_m": 8000,
      "fzfg": false,
      "metar_trigger": false,
      "taf_trigger": false,
      "metar": "METAR GMAD 042300Z 21007KT 170V250 8000 FEW010 SCT016 19/16 Q1012 NOSIG",
      "taf": "TAF GMAD 041700Z 0418/0524 20008KT 6000 BKN016"
    },
    {
      "icao": "GMMN",
      "alert": "OK",
      "vis_m": 9999,
      "fzfg": false,
      "metar_trigger": false,
      "taf_trigger": false,
      "metar": "METAR GMMN 042300Z 02007KT 340V050 9999 BKN016 19/15 Q1017 NOSIG",
      "taf": "TAF GMMN 041700Z 0418/0524 36014KT 9999 BKN016"
    },
    {
      "icao": "GMMX",
      "alert": "OK",
      "vis_m": 8000,
      "fzfg": false,
      "metar_trigger": false,
      "taf_trigger": false,
      "metar": "METAR GMMX 042300Z 01007KT 330V050 8000 FEW040 23/15 Q1016 NOSIG",
      "taf": "TAF GMMX 041700Z 0418/0524 06006KT 8000 NSC"
    },
    {
      "icao": "HEGN",
      "alert": "OK",
      "vis_m": 9999,
      "fzfg": false,
      "metar_trigger": false,
      "taf_trigger": false,
      "metar": "METAR HEGN 042300Z 29012KT CAVOK 30/04 Q1009 NOSIG",
      "taf": "TAF HEGN 041700Z 0418/0524 33010KT CAVOK"
    },
    {
      "icao": "HEMA",
      "alert": "OK",
      "vis_m": 9999,
      "fzfg": false,
      "metar_trigger": false,
      "taf_trigger": false,
      "metar": "METAR HEMA 042300Z 24005KT CAVOK 29/03 Q1010 NOSIG",
      "taf": "TAF HEMA 041700Z 0418/0524 32010KT CAVOK"
    },
    {
      "icao": "HESH",
      "alert": "OK",
      "vis_m": 9999,
      "fzfg": false,
      "metar_trigger": false,
      "taf_trigger": false,
      "metar": "METAR HESH 042300Z 36008KT CAVOK 31/08 Q1009 NOSIG",
      "taf": "TAF HESH 041700Z 0418/0524 01010KT CAVOK"
    },
    {
      "icao": "HESX",
      "alert": "OK",
      "vis_m": 9999,
      "fzfg": false,
      "metar_trigger": false,
      "taf_trigger": false,
      "metar": "METAR HESX 042300Z 04012KT CAVOK 23/12 Q1014 NOSIG",
      "taf": "TAF HESX 041800Z 0418/0524 04015KT CAVOK"
    },
    {
      "icao": "LATI",
      "alert": "OK",
      "vis_m": 9999,
      "fzfg": false,
      "metar_trigger": false,
      "taf_trigger": false,
      "metar": "METAR LATI 042250Z 16002KT CAVOK 18/14 Q1012 NOSIG",
      "taf": "TAF LATI 041700Z 0418/0518 VRB05KT CAVOK TX28/0512Z TN14/0504Z"
    },
    {
      "icao": "LBPD",
      "alert": "OK",
      "vis_m": 9999,
      "fzfg": false,
      "metar_trigger": false,
      "taf_trigger": false,
      "metar": "METAR LBPD 042300Z AUTO 23003KT 9999 FEW040/// OVC067/// 16/16 Q1013",
      "taf": "TAF LBPD 041700Z 0418/0518 VRB04KT 9999 BKN050"
    },
    {
      "icao": "LBSF",
      "alert": "OK",
      "vis_m": 9999,
      "fzfg": false,
      "metar_trigger": false,
      "taf_trigger": false,
      "metar": "METAR LBSF 042300Z AUTO 00000KT 9999 NCD 13/12 Q1014 NOSIG",
      "taf": "TAF LBSF 041700Z 0418/0518 30010KT 9999 BKN050"
    },
    {
      "icao": "LBWN",
      "alert": "OK",
      "vis_m": 9999,
      "fzfg": false,
      "metar_trigger": false,
      "taf_trigger": false,
      "metar": "METAR LBWN 042300Z AUTO 28003KT 250V310 9999 FEW002/// BKN016/// 15/15 Q1012 TEMPO 1500 BR",
      "taf": "TAF LBWN 041700Z 0418/0518 VRB03KT 9999 SCT040"
    },
    {
      "icao": "LCLK",
      "alert": "OK",
      "vis_m": 9999,
      "fzfg": false,
      "metar_trigger": false,
      "taf_trigger": false,
      "metar": "METAR LCLK 042300Z 32006KT CAVOK 21/16 Q1013 NOSIG",
      "taf": "TAF LCLK 041730Z 0418/0518 34008KT 9999 FEW020"
    },
    {
      "icao": "LCPH",
      "alert": "OK",
      "vis_m": 9999,
      "fzfg": false,
      "metar_trigger": false,
      "taf_trigger": false,
      "metar": "METAR LCPH 042300Z 02007KT 9999 FEW018 18/10 Q1013 NOSIG",
      "taf": "TAF LCPH 041730Z 0418/0518 35008KT 9999 FEW020"
    },
    {
      "icao": "LEAL",
      "alert": "OK",
      "vis_m": 9999,
      "fzfg": false,
      "metar_trigger": false,
      "taf_trigger": false,
      "metar": "METAR LEAL 042300Z 04003KT 360V080 CAVOK 23/21 Q1009 NOSIG",
      "taf": "TAF LEAL 041700Z 0418/0518 18010KT CAVOK TX27/0512Z TN20/0506Z"
    },
    {
      "icao": "LEBB",
      "alert": "OK",
      "vis_m": 9999,
      "fzfg": false,
      "metar_trigger": false,
      "taf_trigger": false,
      "metar": "METAR LEBB 042300Z AUTO 05004KT 010V090 9999 -RA BKN029 BKN037 OVC057 14/13 Q1020",
      "taf": ""
    },
    {
      "icao": "LEBL",
      "alert": "OK",
      "vis_m": 6000,
      "fzfg": false,
      "metar_trigger": false,
      "taf_trigger": false,
      "metar": "METAR LEBL 042300Z 06012KT 6000 FEW015CB BKN045 18/17 Q1015 TEMPO 3000 TSRA",
      "taf": ""
    },
    {
      "icao": "LECH",
      "alert": "OK",
      "vis_m": 9999,
      "fzfg": false,
      "metar_trigger": false,
      "taf_trigger": false,
      "metar": "METAR LECH 042300Z AUTO 03006KT 350V050 9999 SCT059 BKN070 21/10 Q1014",
      "taf": "TAF LECH 041700Z 0418/0518 01012KT 9999 FEW040 TX25/0513Z TN14/0506Z"
    },
    {
      "icao": "LEMD",
      "alert": "OK",
      "vis_m": 9999,
      "fzfg": false,
      "metar_trigger": false,
      "taf_trigger": false,
      "metar": "METAR LEMD 042300Z VRB02KT 9999 FEW077 19/04 Q1014 NOSIG",
      "taf": "TAF LEMD 041700Z 0418/0524 30010KT CAVOK TX29/0516Z TN10/0505Z"
    },
    {
      "icao": "LEMG",
      "alert": "OK",
      "vis_m": 9999,
      "fzfg": false,
      "metar_trigger": false,
      "taf_trigger": false,
      "metar": "METAR LEMG 042300Z 29014KT CAVOK 26/10 Q1011 NOSIG",
      "taf": "TAF LEMG 041700Z 0418/0518 31010KT CAVOK TX30/0418Z TN19/0506Z"
    },
    {
      "icao": "LEVC",
      "alert": "OK",
      "vis_m": 9999,
      "fzfg": false,
      "metar_trigger": false,
      "taf_trigger": false,
      "metar": "METAR LEVC 042300Z 06013KT 020V090 9999 FEW030 24/17 Q1012 NOSIG",
      "taf": "TAF LEVC 041700Z 0418/0518 06010KT CAVOK TX25/0512Z TN19/0506Z"
    },
    {
      "icao": "LEXJ",
      "alert": "OK",
      "vis_m": 9999,
      "fzfg": false,
      "metar_trigger": false,
      "taf_trigger": false,
      "metar": "METAR LEXJ 042300Z AUTO 23007KT 190V260 9999 -RA SCT030 BKN038 OVC050 13/12 Q1020",
      "taf": "TAF LEXJ 041400Z 0415/0515 29009KT 9999 FEW020 BKN040 TX21/0513Z TN12/0505Z"
    },
    {
      "icao": "LEZG",
      "alert": "OK",
      "vis_m": 9999,
      "fzfg": false,
      "metar_trigger": false,
      "taf_trigger": false,
      "metar": "METAR LEZG 042300Z 28015KT CAVOK 15/08 Q1017 NOSIG",
      "taf": "TAF LEZG 041700Z 0418/0518 32010KT CAVOK TX27/0515Z TN13/0506Z"
    },
    {
      "icao": "LEZL",
      "alert": "OK",
      "vis_m": 9999,
      "fzfg": false,
      "metar_trigger": false,
      "taf_trigger": false,
      "metar": "METAR LEZL 042300Z 32003KT 290V350 CAVOK 25/09 Q1013 NOSIG",
      "taf": "TAF LEZL 041400Z 0415/0515 25007KT CAVOK TX35/0415Z TN17/0506Z"
    },
    {
      "icao": "LFBD",
      "alert": "OK",
      "vis_m": 9999,
      "fzfg": false,
      "metar_trigger": false,
      "taf_trigger": false,
      "metar": "METAR LFBD 042300Z AUTO 28006KT 250V310 9999 FEW035 SCT043 BKN080 13/10 Q1017 NOSIG",
      "taf": "TAF LFBD 041700Z 0418/0524 28010KT 9999 BKN030 TX21/0515Z TN11/0505Z"
    },
    {
      "icao": "LFLL",
      "alert": "OK",
      "vis_m": 9999,
      "fzfg": false,
      "metar_trigger": false,
      "taf_trigger": false,
      "metar": "METAR LFLL 042300Z VRB02KT 9999 -SHRA FEW006 BKN041 BKN053 13/12 Q1015 NOSIG",
      "taf": "TAF LFLL 041700Z 0418/0524 13007KT 9999 -RA SCT045"
    },
    {
      "icao": "LFLS",
      "alert": "OK",
      "vis_m": 9999,
      "fzfg": false,
      "metar_trigger": false,
      "taf_trigger": false,
      "metar": "METAR LFLS 042300Z AUTO VRB02KT CAVOK 10/10 Q1015",
      "taf": "TAF LFLS 041400Z 0415/0515 34008KT 9999 BKN035"
    },
    {
      "icao": "LFMN",
      "alert": "OK",
      "vis_m": 9999,
      "fzfg": false,
      "metar_trigger": false,
      "taf_trigger": false,
      "metar": "METAR LFMN 042300Z 31003KT 9999 FEW016 BKN100 20/18 Q1008 NOSIG",
      "taf": "TAF LFMN 042000Z 0421/0603 22008KT 9999 SCT020 BKN060"
    },
    {
      "icao": "LFOB",
      "alert": "OK",
      "vis_m": 9999,
      "fzfg": false,
      "metar_trigger": false,
      "taf_trigger": false,
      "metar": "METAR LFOB 042300Z AUTO 23009KT 9999 FEW030 12/09 Q1010 NOSIG",
      "taf": "TAF LFOB 041700Z 0418/0518 26010KT 9999 SCT020"
    },
    {
      "icao": "LFPO",
      "alert": "OK",
      "vis_m": 9999,
      "fzfg": false,
      "metar_trigger": false,
      "taf_trigger": false,
      "metar": "METAR LFPO 042300Z AUTO 25005KT 220V290 9999 FEW042 SCT120 13/09 Q1011 NOSIG",
      "taf": "TAF LFPO 041700Z 0418/0524 25010KT 9999 SCT030"
    },
    {
      "icao": "LFSB",
      "alert": "OK",
      "vis_m": 9999,
      "fzfg": false,
      "metar_trigger": false,
      "taf_trigger": false,
      "metar": "METAR LFSB 042300Z AUTO VRB01KT 9999 BKN040/// BKN052/// OVC084/// ///TCU 14/12 Q1013 BECMG FEW040 BKN080",
      "taf": "TAF LFSB 041700Z 0418/0518 19005KT 9999 FEW040 BKN080"
    },
    {
      "icao": "LGAV",
      "alert": "OK",
      "vis_m": 9999,
      "fzfg": false,
      "metar_trigger": false,
      "taf_trigger": false,
      "metar": "METAR LGAV 042250Z 09003KT 9999 SCT020 20/16 Q1011 NOSIG",
      "taf": "TAF LGAV 041700Z 0418/0518 20014KT 9999 FEW025 SCT060"
    },
    {
      "icao": "LGTS",
      "alert": "OK",
      "vis_m": 9999,
      "fzfg": false,
      "metar_trigger": false,
      "taf_trigger": false,
      "metar": "METAR LGTS 042250Z 12004KT 9999 FEW025 16/16 Q1011 NOSIG",
      "taf": "TAF LGTS 041700Z 0418/0518 34010KT 9999 SCT030"
    },
    {
      "icao": "LHBP",
      "alert": "OK",
      "vis_m": 9999,
      "fzfg": false,
      "metar_trigger": false,
      "taf_trigger": false,
      "metar": "METAR LHBP 042300Z VRB01KT CAVOK 15/14 Q1010 NOSIG",
      "taf": "TAF LHBP 041715Z 0418/0518 VRB03KT CAVOK"
    },
    {
      "icao": "LHDC",
      "alert": "OK",
      "vis_m": 9999,
      "fzfg": false,
      "metar_trigger": false,
      "taf_trigger": false,
      "metar": "METAR LHDC 042245Z AUTO 19006KT 160V220 CAVOK 17/14 Q1012",
      "taf": "TAF LHDC 041715Z 0418/0503 22009KT CAVOK"
    },
    {
      "icao": "LIBD",
      "alert": "OK",
      "vis_m": 9999,
      "fzfg": false,
      "metar_trigger": false,
      "taf_trigger": false,
      "metar": "METAR LIBD 042250Z VRB02KT CAVOK 17/14 Q1012",
      "taf": "TAF LIBD 041700Z 0418/0518 VRB05KT CAVOK"
    },
    {
      "icao": "LIBG",
      "alert": "OK",
      "vis_m": 9999,
      "fzfg": false,
      "metar_trigger": false,
      "taf_trigger": false,
      "metar": "METAR LIBG 042250Z AUTO 02003KT 9999 NCD 16/14 Q1013",
      "taf": "TAF LIBG 041700Z 0418/0518 VRB05KT CAVOK"
    },
    {
      "icao": "LIBP",
      "alert": "OK",
      "vis_m": 9999,
      "fzfg": false,
      "metar_trigger": false,
      "taf_trigger": false,
      "metar": "METAR LIBP 042250Z AUTO 22004KT 9999 NCD 17/15 Q1011",
      "taf": "TAF LIBP 041700Z 0418/0518 VRB05KT CAVOK"
    },
    {
      "icao": "LIBR",
      "alert": "OK",
      "vis_m": 9999,
      "fzfg": false,
      "metar_trigger": false,
      "taf_trigger": false,
      "metar": "METAR LIBR 042250Z 24006KT CAVOK 18/16 Q1012",
      "taf": "TAF LIBR 041700Z 0418/0518 VRB05KT CAVOK"
    },
    {
      "icao": "LICA",
      "alert": "OK",
      "vis_m": 9999,
      "fzfg": false,
      "metar_trigger": false,
      "taf_trigger": false,
      "metar": "METAR LICA 042250Z AUTO 08005KT 9999 NCD 16/15 Q1013",
      "taf": "TAF LICA 041700Z 0418/0518 26010KT CAVOK"
    },
    {
      "icao": "LICC",
      "alert": "OK",
      "vis_m": 9999,
      "fzfg": false,
      "metar_trigger": false,
      "taf_trigger": false,
      "metar": "METAR LICC 042250Z 06005KT CAVOK 22/14 Q1012",
      "taf": "TAF LICC 041700Z 0418/0518 09010KT CAVOK"
    },
    {
      "icao": "LICJ",
      "alert": "OK",
      "vis_m": 9999,
      "fzfg": false,
      "metar_trigger": false,
      "taf_trigger": false,
      "metar": "METAR LICJ 042250Z 20004KT CAVOK 21/17 Q1011",
      "taf": "TAF LICJ 041700Z 0418/0518 05012KT CAVOK"
    },
    {
      "icao": "LIMC",
      "alert": "OK",
      "vis_m": 9000,
      "fzfg": false,
      "metar_trigger": false,
      "taf_trigger": false,
      "metar": "METAR LIMC 042250Z 01010KT 9000 RA BKN030 16/15 Q1009 NOSIG",
      "taf": "TAF LIMC 041700Z 0418/0524 02010KT 9999 SCT030"
    },
    {
      "icao": "LIME",
      "alert": "OK",
      "vis_m": 9999,
      "fzfg": false,
      "metar_trigger": false,
      "taf_trigger": false,
      "metar": "METAR LIME 042250Z 13009KT 9999 -RA SCT020 BKN045 19/15 Q1008 BECMG RA",
      "taf": "TAF LIME 041700Z 0418/0518 13008KT 9999 SCT030"
    },
    {
      "icao": "LIMF",
      "alert": "OK",
      "vis_m": 9999,
      "fzfg": false,
      "metar_trigger": false,
      "taf_trigger": false,
      "metar": "METAR LIMF 042250Z VRB02KT 9999 FEW100 16/15 Q1008",
      "taf": "TAF LIMF 041700Z 0418/0518 VRB05KT 9999 SCT030"
    },
    {
      "icao": "LIMJ",
      "alert": "OK",
      "vis_m": 9999,
      "fzfg": false,
      "metar_trigger": false,
      "taf_trigger": false,
      "metar": "METAR LIMJ 042250Z 17015KT 9999 -RA SCT010 FEW015TCU BKN018 21/20 Q1008",
      "taf": "TAF LIMJ 041700Z 0418/0518 15015KT 9999 SCT020"
    },
    {
      "icao": "LIPE",
      "alert": "OK",
      "vis_m": 9999,
      "fzfg": false,
      "metar_trigger": false,
      "taf_trigger": false,
      "metar": "METAR LIPE 042250Z 22004KT CAVOK 22/10 Q1008",
      "taf": "TAF LIPE 041700Z 0418/0518 20012KT CAVOK"
    },
    {
      "icao": "LIPH",
      "alert": "OK",
      "vis_m": 9999,
      "fzfg": false,
      "metar_trigger": false,
      "taf_trigger": false,
      "metar": "METAR LIPH 042250Z AUTO 04005KT 9999 BKN063/// BKN130/// 20/15 Q1009",
      "taf": "TAF LIPH 041700Z 0418/0518 VRB05KT 9999 FEW030"
    },
    {
      "icao": "LIPQ",
      "alert": "OK",
      "vis_m": 9999,
      "fzfg": false,
      "metar_trigger": false,
      "taf_trigger": false,
      "metar": "METAR LIPQ 042250Z AUTO VRB01KT 9999 FEW074/// 16/14 Q1010",
      "taf": "TAF LIPQ 041700Z 0418/0518 VRB05KT 9999 SCT060"
    },
    {
      "icao": "LIPR",
      "alert": "OK",
      "vis_m": 9999,
      "fzfg": false,
      "metar_trigger": false,
      "taf_trigger": false,
      "metar": "METAR LIPR 042250Z AUTO 18005KT 9999 NCD 21/14 Q1009",
      "taf": "TAF LIPR 041700Z 0418/0518 14010KT CAVOK"
    },
    {
      "icao": "LIPX",
      "alert": "OK",
      "vis_m": 9999,
      "fzfg": false,
      "metar_trigger": false,
      "taf_trigger": false,
      "metar": "METAR LIPX 042250Z 09005KT 060V120 9999 FEW090 20/14 Q1009",
      "taf": "TAF LIPX 041700Z 0418/0518 09008KT 9999 SCT030"
    },
    {
      "icao": "LIPY",
      "alert": "OK",
      "vis_m": 9999,
      "fzfg": false,
      "metar_trigger": false,
      "taf_trigger": false,
      "metar": "METAR LIPY 042250Z AUTO 18005KT 9999 NCD 21/15 Q1010",
      "taf": "TAF LIPY 041700Z 0418/0518 13012KT CAVOK"
    },
    {
      "icao": "LIPZ",
      "alert": "OK",
      "vis_m": 9999,
      "fzfg": false,
      "metar_trigger": false,
      "taf_trigger": false,
      "metar": "METAR LIPZ 042250Z 06007KT 030V090 9999 SCT065 20/16 Q1009 NOSIG",
      "taf": "TAF LIPZ 041700Z 0418/0524 15010KT CAVOK"
    },
    {
      "icao": "LIRF",
      "alert": "OK",
      "vis_m": 9999,
      "fzfg": false,
      "metar_trigger": false,
      "taf_trigger": false,
      "metar": "METAR LIRF 042250Z 07003KT CAVOK 18/17 Q1012 NOSIG",
      "taf": "TAF LIRF 041700Z 0418/0524 25010KT 9999 FEW015"
    },
    {
      "icao": "LIRN",
      "alert": "OK",
      "vis_m": 9999,
      "fzfg": false,
      "metar_trigger": false,
      "taf_trigger": false,
      "metar": "METAR LIRN 042250Z 08005KT CAVOK 20/17 Q1012 NOSIG",
      "taf": "TAF LIRN 041700Z 0418/0518 VRB06KT 9999 FEW015"
    },
    {
      "icao": "LIRP",
      "alert": "OK",
      "vis_m": 9999,
      "fzfg": false,
      "metar_trigger": false,
      "taf_trigger": false,
      "metar": "METAR LIRP 042245Z 16004KT 9999 FEW030 SCT070 17/14 Q1011 NOSIG",
      "taf": "TAF LIRP 041700Z 0418/0518 30007KT 9999 FEW030 SCT070"
    },
    {
      "icao": "LIRZ",
      "alert": "OK",
      "vis_m": 9999,
      "fzfg": false,
      "metar_trigger": false,
      "taf_trigger": false,
      "metar": "METAR LIRZ 042250Z AUTO 24008KT 9999 NCD 18/15 Q1012",
      "taf": "TAF LIRZ 041700Z 0418/0518 VRB05KT 9999 SCT040"
    },
    {
      "icao": "LJLJ",
      "alert": "OK",
      "vis_m": 9999,
      "fzfg": false,
      "metar_trigger": false,
      "taf_trigger": false,
      "metar": "METAR LJLJ 042300Z 26005KT 9999 FEW060 SCT230 15/11 Q1011 NOSIG",
      "taf": "TAF LJLJ 042300Z 0500/0600 26005KT 9999 FEW060"
    },
    {
      "icao": "LKMT",
      "alert": "OK",
      "vis_m": 9999,
      "fzfg": false,
      "metar_trigger": false,
      "taf_trigger": false,
      "metar": "METAR LKMT 042300Z VRB01KT CAVOK 14/12 Q1009 NOSIG",
      "taf": "TAF LKMT 041700Z 0418/0518 VRB02KT CAVOK"
    },
    {
      "icao": "LKPR",
      "alert": "OK",
      "vis_m": 9999,
      "fzfg": false,
      "metar_trigger": false,
      "taf_trigger": false,
      "metar": "METAR LKPR 042300Z 27008KT CAVOK 15/11 Q1010 NOSIG",
      "taf": "TAF LKPR 042000Z 0421/0603 24008KT CAVOK"
    },
    {
      "icao": "LLBG",
      "alert": "OK",
      "vis_m": 9999,
      "fzfg": false,
      "metar_trigger": false,
      "taf_trigger": false,
      "metar": "METAR LLBG 042250Z VRB01KT CAVOK 22/14 Q1013 NOSIG",
      "taf": "TAF LLBG 042313Z 0500/0524 VRB04KT CAVOK TX30/0510Z TN20/0503Z"
    },
    {
      "icao": "LMML",
      "alert": "OK",
      "vis_m": 9999,
      "fzfg": false,
      "metar_trigger": false,
      "taf_trigger": false,
      "metar": "METAR LMML 042245Z 08005KT CAVOK 21/19 Q1012 NOSIG",
      "taf": "TAF LMML 042300Z 0500/0524 VRB06KT 9999 FEW015"
    },
    {
      "icao": "LOWW",
      "alert": "OK",
      "vis_m": 9999,
      "fzfg": false,
      "metar_trigger": false,
      "taf_trigger": false,
      "metar": "METAR LOWW 042250Z 15010KT CAVOK 18/12 Q1008 BECMG FM0030 27015G25KT",
      "taf": "TAF LOWW 042015Z 0421/0603 15010KT CAVOK TX18/0421Z TN11/0603Z"
    },
    {
      "icao": "LPFR",
      "alert": "OK",
      "vis_m": 9999,
      "fzfg": false,
      "metar_trigger": false,
      "taf_trigger": false,
      "metar": "METAR LPFR 042300Z 34013KT CAVOK 20/10 Q1016",
      "taf": "TAF LPFR 042300Z 0500/0524 33012KT CAVOK"
    },
    {
      "icao": "LPMA",
      "alert": "OK",
      "vis_m": 9999,
      "fzfg": false,
      "metar_trigger": false,
      "taf_trigger": false,
      "metar": "METAR LPMA 042300Z 01014KT 330V040 9999 BKN013 20/16 Q1023",
      "taf": "TAF LPMA 042300Z 0500/0524 02013KT 9999 SCT015"
    },
    {
      "icao": "LPPR",
      "alert": "OK",
      "vis_m": 9999,
      "fzfg": false,
      "metar_trigger": false,
      "taf_trigger": false,
      "metar": "METAR LPPR 042300Z 34008KT CAVOK 14/09 Q1019",
      "taf": "TAF LPPR 042300Z 0500/0524 33008KT 9999 SCT020"
    },
    {
      "icao": "LPPS",
      "alert": "OK",
      "vis_m": 9999,
      "fzfg": false,
      "metar_trigger": false,
      "taf_trigger": false,
      "metar": "METAR LPPS 042300Z 01016KT 9999 FEW014 BKN030 19/16 Q1023",
      "taf": "TAF LPPS 042300Z 0500/0606 01015KT 9999 FEW015 BKN030"
    },
    {
      "icao": "LPPT",
      "alert": "OK",
      "vis_m": 9999,
      "fzfg": false,
      "metar_trigger": false,
      "taf_trigger": false,
      "metar": "METAR LPPT 042300Z 34017KT 9999 FEW020 15/11 Q1019",
      "taf": "TAF LPPT 042300Z 0500/0606 34013KT 9999 FEW025"
    },
    {
      "icao": "LQBK",
      "alert": "OK",
      "vis_m": 9999,
      "fzfg": false,
      "metar_trigger": false,
      "taf_trigger": false,
      "metar": "METAR LQBK 042300Z 13004KT 090V150 CAVOK 14/11 Q1011 NOSIG",
      "taf": "TAF LQBK 042300Z 0500/0524 15005KT CAVOK TX27/0514Z TN11/0503Z"
    },
    {
      "icao": "LQSA",
      "alert": "OK",
      "vis_m": 9999,
      "fzfg": false,
      "metar_trigger": false,
      "taf_trigger": false,
      "metar": "METAR LQSA 042300Z 00000KT CAVOK 11/10 Q1014",
      "taf": "TAF LQSA 042300Z 0500/0524 VRB02KT CAVOK TX28/0514Z TN09/0503Z"
    },
    {
      "icao": "LQTZ",
      "alert": "OK",
      "vis_m": 9999,
      "fzfg": false,
      "metar_trigger": false,
      "taf_trigger": false,
      "metar": "METAR LQTZ 042300Z VRB01KT CAVOK 11/11 Q1012",
      "taf": "TAF LQTZ 042300Z 0500/0524 VRB02KT CAVOK TX27/0514Z TN10/0503Z"
    },
    {
      "icao": "LRBC",
      "alert": "OK",
      "vis_m": 9999,
      "fzfg": false,
      "metar_trigger": false,
      "taf_trigger": false,
      "metar": "METAR LRBC 042300Z AUTO 17003KT 9999 NCD 17/17 Q1013",
      "taf": "TAF LRBC 042000Z 0421/0506 16008KT CAVOK"
    },
    {
      "icao": "LRBS",
      "alert": "OK",
      "vis_m": 6000,
      "fzfg": false,
      "metar_trigger": false,
      "taf_trigger": false,
      "metar": "METAR LRBS 042300Z 21004KT 6000 FEW037 17/17 Q1013 BECMG 5000 BR BKN005",
      "taf": "TAF LRBS 041700Z 0418/0518 VRB04KT 9999 BKN040"
    },
    {
      "icao": "LRBV",
      "alert": "OK",
      "vis_m": 9999,
      "fzfg": false,
      "metar_trigger": false,
      "taf_trigger": false,
      "metar": "METAR LRBV 042300Z AUTO 30003KT 9999 OVC097/// 14/13 Q1014",
      "taf": "TAF LRBV 041700Z 0418/0503 VRB04KT 9999 SCT040"
    },
    {
      "icao": "LRCL",
      "alert": "OK",
      "vis_m": 9999,
      "fzfg": false,
      "metar_trigger": false,
      "taf_trigger": false,
      "metar": "METAR LRCL 042300Z 27003KT 230V310 9999 FEW055 16/15 Q1012",
      "taf": "TAF LRCL 042000Z 0421/0506 VRB04KT 9999 SCT045"
    },
    {
      "icao": "LRCV",
      "alert": "OK",
      "vis_m": 9999,
      "fzfg": false,
      "metar_trigger": false,
      "taf_trigger": false,
      "metar": "METAR LRCV 042300Z 03002KT CAVOK 15/15 Q1013",
      "taf": "TAF LRCV 042000Z 0421/0506 VRB04KT 9999 SCT035"
    },
    {
      "icao": "LRIA",
      "alert": "OK",
      "vis_m": 9999,
      "fzfg": false,
      "metar_trigger": false,
      "taf_trigger": false,
      "metar": "METAR LRIA 042300Z 12007KT CAVOK 17/14 Q1013",
      "taf": "TAF LRIA 042000Z 0421/0506 13008KT CAVOK"
    },
    {
      "icao": "LROP",
      "alert": "OK",
      "vis_m": 9999,
      "fzfg": false,
      "metar_trigger": false,
      "taf_trigger": false,
      "metar": "METAR LROP 042300Z 26004KT 230V300 CAVOK 17/17 Q1013 BECMG 5000 BR BKN010",
      "taf": "TAF LROP 041700Z 0418/0518 VRB04KT 9999 BKN040"
    },
    {
      "icao": "LRSB",
      "alert": "OK",
      "vis_m": 9999,
      "fzfg": false,
      "metar_trigger": false,
      "taf_trigger": false,
      "metar": "METAR LRSB 042300Z VRB01KT CAVOK 14/13 Q1013",
      "taf": "TAF LRSB 041700Z 0418/0518 VRB04KT 9999 SCT045"
    },
    {
      "icao": "LRSM",
      "alert": "OK",
      "vis_m": 9999,
      "fzfg": false,
      "metar_trigger": false,
      "taf_trigger": false,
      "metar": "METAR LRSM 042300Z AUTO 22003KT 9999 BKN065/// BKN080/// 18/15 Q1012",
      "taf": "TAF LRSM 041400Z 0415/0424 28008KT 9999 SCT045"
    },
    {
      "icao": "LRSV",
      "alert": "OK",
      "vis_m": 9999,
      "fzfg": false,
      "metar_trigger": false,
      "taf_trigger": false,
      "metar": "METAR LRSV 042300Z 12008KT CAVOK 17/16 Q1013",
      "taf": "TAF LRSV 042000Z 0421/0506 14006KT CAVOK"
    },
    {
      "icao": "LRTM",
      "alert": "OK",
      "vis_m": 9999,
      "fzfg": false,
      "metar_trigger": false,
      "taf_trigger": false,
      "metar": "METAR LRTM 042300Z 08003KT CAVOK 15/14 Q1013",
      "taf": "TAF LRTM 042000Z 0421/0506 VRB04KT 9999 SCT045"
    },
    {
      "icao": "LRTR",
      "alert": "OK",
      "vis_m": 4000,
      "fzfg": false,
      "metar_trigger": false,
      "taf_trigger": false,
      "metar": "METAR LRTR 042300Z 10004KT 4000 BR NSC 13/13 Q1012",
      "taf": "TAF LRTR 041700Z 0418/0518 14004KT 9999 SCT025"
    },
    {
      "icao": "LTAC",
      "alert": "OK",
      "vis_m": 9999,
      "fzfg": false,
      "metar_trigger": false,
      "taf_trigger": false,
      "metar": "METAR LTAC 042250Z 18003KT 060V220 9999 SCT040 BKN080 15/11 Q1017 NOSIG RMK RWY21C 14006KT 100V170 RWY03L 18004KT 130V210 RWY21R 14005KT 100V180 RWY03R 15003KT 090V190 RWY21L 14003KT 080V220",
      "taf": "TAF LTAC 042240Z 0500/0524 VRB02KT 9999 SCT040 SCT100"
    },
    {
      "icao": "LTFM",
      "alert": "OK",
      "vis_m": 9999,
      "fzfg": false,
      "metar_trigger": false,
      "taf_trigger": false,
      "metar": "METAR LTFM 042250Z 33007KT CAVOK 20/18 Q1011 NOSIG RMK RWY17L 30006KT RWY34L 33007KT 310V010 RWY16R 31006KT RWY36 31009KT 280V340 RWY18 31006KT",
      "taf": "TAF LTFM 042240Z 0500/0606 VRB02KT CAVOK"
    },
    {
      "icao": "LUKK",
      "alert": "OK",
      "vis_m": 6000,
      "fzfg": false,
      "metar_trigger": false,
      "taf_trigger": false,
      "metar": "METAR LUKK 042300Z 21004KT 6000 0700S BCFG NSC 14/14 Q1014 TEMPO 0600 FG",
      "taf": "TAF LUKK 042306Z 0500/0524 VRB05KT 4000 BR NSC"
    },
    {
      "icao": "LWOH",
      "alert": "OK",
      "vis_m": null,
      "fzfg": false,
      "metar_trigger": false,
      "taf_trigger": false,
      "metar": "",
      "taf": "TAF LWOH 042305Z 0500/0524 VRB02KT 9999 FEW040"
    },
    {
      "icao": "LWSK",
      "alert": "OK",
      "vis_m": 9999,
      "fzfg": false,
      "metar_trigger": false,
      "taf_trigger": false,
      "metar": "METAR LWSK 042250Z VRB01KT CAVOK 14/12 Q1013 NOSIG",
      "taf": "TAF LWSK 042305Z 0500/0524 VRB03KT CAVOK"
    },
    {
      "icao": "LYBE",
      "alert": "OK",
      "vis_m": 9999,
      "fzfg": false,
      "metar_trigger": false,
      "taf_trigger": false,
      "metar": "METAR LYBE 042300Z 15004KT CAVOK 15/13 Q1012 NOSIG",
      "taf": "TAF LYBE 041700Z 0418/0518 19005KT 9999 SCT040 TX28/0513Z TN13/0503Z"
    },
    {
      "icao": "LYNI",
      "alert": "OK",
      "vis_m": 9999,
      "fzfg": false,
      "metar_trigger": false,
      "taf_trigger": false,
      "metar": "METAR LYNI 042300Z 00000KT CAVOK 14/13 Q1013 NOSIG",
      "taf": "TAF LYNI 041700Z 0418/0518 34004KT 9999 SCT050 TX29/0514Z TN09/0503Z"
    },
    {
      "icao": "LYPG",
      "alert": "OK",
      "vis_m": 9999,
      "fzfg": false,
      "metar_trigger": false,
      "taf_trigger": false,
      "metar": "METAR LYPG 042300Z 00000KT CAVOK 18/16 Q1012 NOSIG",
      "taf": "TAF LYPG 041700Z 0418/0518 36005KT CAVOK TX28/0513Z TN18/0504Z"
    },
    {
      "icao": "LZIB",
      "alert": "OK",
      "vis_m": 9999,
      "fzfg": false,
      "metar_trigger": false,
      "taf_trigger": false,
      "metar": "METAR LZIB 042300Z 03004KT CAVOK 16/11 Q1008 NOSIG",
      "taf": "TAF LZIB 042315Z 0500/0600 15004KT CAVOK"
    },
    {
      "icao": "LZKZ",
      "alert": "OK",
      "vis_m": 9999,
      "fzfg": false,
      "metar_trigger": false,
      "taf_trigger": false,
      "metar": "METAR LZKZ 042300Z 00000KT CAVOK 17/16 Q1011 NOSIG",
      "taf": "TAF LZKZ 042315Z 0500/0600 20004KT CAVOK"
    },
    {
      "icao": "LZTT",
      "alert": "OK",
      "vis_m": 9999,
      "fzfg": false,
      "metar_trigger": false,
      "taf_trigger": false,
      "metar": "METAR LZTT 042300Z 18003KT 130V210 9999 3500E BCFG FEW002 11/11 Q1012",
      "taf": "TAF LZTT 042315Z 0500/0600 VRB02KT 9999 FEW010 SCT025 BKN040"
    },
    {
      "icao": "OEJN",
      "alert": "OK",
      "vis_m": 9999,
      "fzfg": false,
      "metar_trigger": false,
      "taf_trigger": false,
      "metar": "METAR OEJN 042300Z 22003KT CAVOK 31/23 Q1006 NOSIG",
      "taf": "TAF OEJN 042300Z 0500/0606 VRB03KT CAVOK"
    },
    {
      "icao": "OEMA",
      "alert": "OK",
      "vis_m": 9999,
      "fzfg": false,
      "metar_trigger": false,
      "taf_trigger": false,
      "metar": "METAR OEMA 042300Z 35007KT CAVOK 36/M02 Q1012 NOSIG",
      "taf": "TAF OEMA 042300Z 0500/0606 VRB03KT CAVOK"
    },
    {
      "icao": "OJAI",
      "alert": "OK",
      "vis_m": 5000,
      "fzfg": false,
      "metar_trigger": false,
      "taf_trigger": false,
      "metar": "METAR OJAI 042300Z 31008KT 5000 HZ NSC 18/10 Q1017 NOSIG",
      "taf": "TAF OJAI 042300Z 0500/0606 30012KT 5000 HZ NSC"
    },
    {
      "icao": "OMAA",
      "alert": "OK",
      "vis_m": 9999,
      "fzfg": false,
      "metar_trigger": false,
      "taf_trigger": false,
      "metar": "METAR OMAA 042300Z 29008KT CAVOK 33/17 Q1000 NOSIG",
      "taf": "TAF OMAA 042300Z 0500/0606 24006KT 8000 NSC"
    },
    {
      "icao": "OMDB",
      "alert": "OK",
      "vis_m": 9999,
      "fzfg": false,
      "metar_trigger": false,
      "taf_trigger": false,
      "metar": "METAR OMDB 042300Z 19009KT CAVOK 31/19 Q0999 NOSIG",
      "taf": "TAF OMDB 042300Z 0500/0606 20008KT CAVOK"
    },
    {
      "icao": "UAAA",
      "alert": "OK",
      "vis_m": 9999,
      "fzfg": false,
      "metar_trigger": false,
      "taf_trigger": false,
      "metar": "METAR UAAA 042300Z 29003MPS 250V320 9999 SCT050CB BKN100 22/09 Q1011 NOSIG",
      "taf": "TAF UAAA 041701Z 0418/0518 22003MPS 9999 SCT050CB BKN100 TX27/0509Z TN18/0501Z"
    },
    {
      "icao": "UBBB",
      "alert": "OK",
      "vis_m": 9999,
      "fzfg": false,
      "metar_trigger": false,
      "taf_trigger": false,
      "metar": "METAR UBBB 042300Z 00000KT CAVOK 18/14 Q1014 NOSIG",
      "taf": "TAF UBBB 042302Z 0500/0524 VRB04KT CAVOK TX27/0510Z TN17/0501Z"
    },
    {
      "icao": "UDSG",
      "alert": "OK",
      "vis_m": 9999,
      "fzfg": false,
      "metar_trigger": false,
      "taf_trigger": false,
      "metar": "METAR UDSG 042300Z 11004KT 9999 FEW049 11/10 Q1020 NOSIG",
      "taf": "TAF UDSG 041658Z 0418/0518 24006KT 9999 SCT050"
    },
    {
      "icao": "UDYZ",
      "alert": "OK",
      "vis_m": 9999,
      "fzfg": false,
      "metar_trigger": false,
      "taf_trigger": false,
      "metar": "METAR UDYZ 042300Z 06004KT 9999 SCT043CB 17/13 Q1016 NOSIG",
      "taf": "TAF UDYZ 041700Z 0418/0518 05006KT 9999 SCT040"
    },
    {
      "icao": "UGKO",
      "alert": "OK",
      "vis_m": 9999,
      "fzfg": false,
      "metar_trigger": false,
      "taf_trigger": false,
      "metar": "METAR UGKO 042300Z 10002KT CAVOK 15/14 Q1013 NOSIG",
      "taf": "TAF UGKO 042300Z 0500/0524 26007KT CAVOK TX30/0511Z TN13/0502Z"
    }
  ]
}