{
  "ts_utc": "2026-01-05T23:21:29Z",
  "threshold_m": 150,
  "source": "stations_override.txt (ICAO list) + aviationweather.gov (METAR/TAF raw)",
  "station_count": 159,
  "stations": [
    {
      "icao": "BIKF",
      "alert": "OK",
      "vis_m": 9999,
      "fzfg": false,
      "metar_trigger": false,
      "taf_trigger": false,
      "metar": "METAR BIKF 052300Z 03006KT CAVOK M02/M04 Q1016",
      "taf": "TAF BIKF 052231Z 0600/0700 07010KT CAVOK TXM02/0600Z TNM06/0610Z"
    },
    {
      "icao": "BKPR",
      "alert": "OK",
      "vis_m": 9999,
      "fzfg": false,
      "metar_trigger": false,
      "taf_trigger": false,
      "metar": "METAR BKPR 052300Z 17006KT 130V200 9999 -RA FEW020 BKN050 09/06 Q1008 NOSIG",
      "taf": ""
    },
    {
      "icao": "EBCI",
      "alert": "OK",
      "vis_m": 1800,
      "fzfg": false,
      "metar_trigger": false,
      "taf_trigger": false,
      "metar": "METAR EBCI 052250Z 23011KT 1800 -SHSN SCT005 BKN009 BKN018 M02/M03 Q1013 TEMPO 3000 -SHSN BKN005",
      "taf": "TAF EBCI 051715Z 0518/0624 23007KT 9999 SCT007 BKN011"
    },
    {
      "icao": "EDDB",
      "alert": "OK",
      "vis_m": 9999,
      "fzfg": false,
      "metar_trigger": false,
      "taf_trigger": false,
      "metar": "METAR EDDB 052250Z AUTO 18004KT CAVOK M07/M08 Q1013 NOSIG",
      "taf": "TAF EDDB 051700Z 0518/0618 17004KT 9999 SCT045"
    },
    {
      "icao": "EDDH",
      "alert": "OK",
      "vis_m": 9999,
      "fzfg": false,
      "metar_trigger": false,
      "taf_trigger": false,
      "metar": "METAR EDDH 052250Z AUTO 21008KT 9999 FEW011 OVC017 M01/M02 Q1011 TEMPO BKN012",
      "taf": "TAF EDDH 051700Z 0518/0624 21004KT 9999 BKN015"
    },
    {
      "icao": "EDDK",
      "alert": "OK",
      "vis_m": 9999,
      "fzfg": false,
      "metar_trigger": false,
      "taf_trigger": false,
      "metar": "METAR EDDK 052250Z AUTO 17004KT 9999 BKN026 OVC034 M02/M04 Q1013 NOSIG",
      "taf": "TAF EDDK 051700Z 0518/0624 16007KT 9999 FEW008 BKN020"
    },
    {
      "icao": "EDDN",
      "alert": "OK",
      "vis_m": 9999,
      "fzfg": false,
      "metar_trigger": false,
      "taf_trigger": false,
      "metar": "METAR EDDN 052250Z AUTO 11008KT CAVOK M11/M12 Q1014",
      "taf": "TAF EDDN 051700Z 0518/0618 VRB02KT 9999 SCT030"
    },
    {
      "icao": "EDDS",
      "alert": "OK",
      "vis_m": 9999,
      "fzfg": false,
      "metar_trigger": false,
      "taf_trigger": false,
      "metar": "METAR EDDS 052250Z AUTO 19003KT CAVOK M06/M11 Q1012",
      "taf": "TAF EDDS 051700Z 0518/0618 VRB03KT CAVOK"
    },
    {
      "icao": "EDFH",
      "alert": "OK",
      "vis_m": 9999,
      "fzfg": false,
      "metar_trigger": false,
      "taf_trigger": false,
      "metar": "METAR EDFH 052250Z COR 25006KT 9999 SCT005 OVC007 M06/M06 Q1011",
      "taf": "TAF EDFH 051700Z 0518/0618 20006KT 9999 OVC010"
    },
    {
      "icao": "EDJA",
      "alert": "OK",
      "vis_m": 9999,
      "fzfg": false,
      "metar_trigger": false,
      "taf_trigger": false,
      "metar": "METAR EDJA 052250Z AUTO 18003KT 160V220 9999 // NCD M13/M15 Q1012",
      "taf": "TAF EDJA 051700Z 0518/0603 22004KT CAVOK"
    },
    {
      "icao": "EDLW",
      "alert": "OK",
      "vis_m": 9999,
      "fzfg": false,
      "metar_trigger": false,
      "taf_trigger": false,
      "metar": "METAR EDLW 052250Z AUTO 20011KT 9999 // FEW017/// SCT034/// OVC052/// M01/M04 Q1011",
      "taf": "TAF EDLW 051700Z 0518/0618 22008KT 9999 BKN020"
    },
    {
      "icao": "EDNY",
      "alert": "OK",
      "vis_m": 9999,
      "fzfg": false,
      "metar_trigger": false,
      "taf_trigger": false,
      "metar": "METAR EDNY 052250Z AUTO 05003KT 9999 // NCD M13/M14 Q1014",
      "taf": "TAF EDNY 051700Z 0518/0603 VRB03KT CAVOK"
    },
    {
      "icao": "EDSB",
      "alert": "OK",
      "vis_m": 9999,
      "fzfg": false,
      "metar_trigger": false,
      "taf_trigger": false,
      "metar": "METAR EDSB 052250Z 22004KT CAVOK M07/M09 Q1014",
      "taf": "TAF EDSB 051700Z 0518/0618 VRB03KT CAVOK"
    },
    {
      "icao": "EETN",
      "alert": "OK",
      "vis_m": 9999,
      "fzfg": false,
      "metar_trigger": false,
      "taf_trigger": false,
      "metar": "METAR EETN 052250Z 16005KT CAVOK M14/M16 Q1020",
      "taf": "TAF EETN 051730Z 0518/0618 VRB02KT CAVOK"
    },
    {
      "icao": "EFTU",
      "alert": "OK",
      "vis_m": 9999,
      "fzfg": false,
      "metar_trigger": false,
      "taf_trigger": false,
      "metar": "METAR EFTU 052250Z AUTO 08002KT CAVOK M21/M23 Q1018",
      "taf": "TAF EFTU 052027Z 0521/0621 VRB02KT CAVOK"
    },
    {
      "icao": "EGBB",
      "alert": "OK",
      "vis_m": 9999,
      "fzfg": false,
      "metar_trigger": false,
      "taf_trigger": false,
      "metar": "METAR EGBB 052250Z 25003KT CAVOK M06/M07 Q1018",
      "taf": "TAF EGBB 052258Z 0600/0624 27004KT 9999 FEW025"
    },
    {
      "icao": "EGGP",
      "alert": "OK",
      "vis_m": 9999,
      "fzfg": false,
      "metar_trigger": false,
      "taf_trigger": false,
      "metar": "METAR EGGP 052250Z 14003KT 9999 FEW034 M03/M05 Q1018",
      "taf": "TAF EGGP 052255Z 0600/0624 31005KT 9999 FEW030"
    },
    {
      "icao": "EGGW",
      "alert": "OK",
      "vis_m": 9999,
      "fzfg": false,
      "metar_trigger": false,
      "taf_trigger": false,
      "metar": "METAR EGGW 052250Z AUTO 29007KT 9999 NCD M04/M06 Q1017",
      "taf": "TAF EGGW 052305Z 0600/0624 30006KT CAVOK"
    },
    {
      "icao": "EGKK",
      "alert": "OK",
      "vis_m": 9999,
      "fzfg": false,
      "metar_trigger": false,
      "taf_trigger": false,
      "metar": "METAR EGKK 052250Z 31003KT CAVOK M02/M05 Q1018",
      "taf": "TAF EGKK 052254Z 0600/0706 31003KT CAVOK"
    },
    {
      "icao": "EGNM",
      "alert": "OK",
      "vis_m": 9999,
      "fzfg": false,
      "metar_trigger": false,
      "taf_trigger": false,
      "metar": "METAR EGNM 052250Z 26010KT CAVOK M04/M06 Q1016",
      "taf": "TAF EGNM 052255Z 0600/0624 27009KT 9999 FEW040"
    },
    {
      "icao": "EGPD",
      "alert": "OK",
      "vis_m": 9999,
      "fzfg": false,
      "metar_trigger": false,
      "taf_trigger": false,
      "metar": "METAR EGPD 052250Z COR AUTO 27012KT 9999 NCD M02/M05 Q1013 NOSIG",
      "taf": "TAF EGPD 052257Z 0600/0624 29010KT 9999 FEW012"
    },
    {
      "icao": "EGPF",
      "alert": "OK",
      "vis_m": 9999,
      "fzfg": false,
      "metar_trigger": false,
      "taf_trigger": false,
      "metar": "METAR EGPF 052250Z AUTO 28003KT 9999 NCD M02/M04 Q1016",
      "taf": "TAF EGPF 052304Z 0600/0624 28005KT 9999 FEW015 SCT030"
    },
    {
      "icao": "EHBK",
      "alert": "OK",
      "vis_m": 9999,
      "fzfg": false,
      "metar_trigger": false,
      "taf_trigger": false,
      "metar": "METAR EHBK 052255Z AUTO 20012KT 9999 OVC015/// M02/M04 Q1012",
      "taf": "TAF EHBK 051721Z 0518/0624 22007KT 9999 BKN008"
    },
    {
      "icao": "EHEH",
      "alert": "OK",
      "vis_m": 7000,
      "fzfg": false,
      "metar_trigger": false,
      "taf_trigger": false,
      "metar": "METAR EHEH 052255Z AUTO 22008KT 7000 BR BKN006 OVC007 M01/M02 Q1012 REFZDZ YLO",
      "taf": ""
    },
    {
      "icao": "EKBI",
      "alert": "OK",
      "vis_m": 9999,
      "fzfg": false,
      "metar_trigger": false,
      "taf_trigger": false,
      "metar": "METAR EKBI 052250Z AUTO 02003KT 9999 FEW006/// BKN037/// M04/M04 Q1010",
      "taf": "TAF EKBI 052027Z 0521/0621 05005KT 9999 FEW006 BKN018"
    },
    {
      "icao": "EKCH",
      "alert": "OK",
      "vis_m": 7000,
      "fzfg": false,
      "metar_trigger": false,
      "taf_trigger": false,
      "metar": "METAR EKCH 052250Z 25005KT 7000 -SN FEW010 BKN052 M01/M02 Q1010 TEMPO 1200 SHSN BKN012 SCT020CB",
      "taf": "TAF EKCH 052027Z 0521/0621 23004KT 8000 SCT030"
    },
    {
      "icao": "ENAL",
      "alert": "OK",
      "vis_m": 9999,
      "fzfg": false,
      "metar_trigger": false,
      "taf_trigger": false,
      "metar": "METAR ENAL 052250Z AUTO 13015KT 9999 NCD M05/M11 Q1011",
      "taf": "TAF ENAL 052000Z 0521/0606 14012KT 9999 SCT040"
    },
    {
      "icao": "ENBR",
      "alert": "OK",
      "vis_m": 9999,
      "fzfg": false,
      "metar_trigger": false,
      "taf_trigger": false,
      "metar": "METAR ENBR 052250Z 08003KT CAVOK M09/M13 Q1011 RMK WIND 1200FT 13003KT",
      "taf": "TAF ENBR 051700Z 0518/0618 07005KT 9999 SCT050"
    },
    {
      "icao": "ENGM",
      "alert": "OK",
      "vis_m": 9999,
      "fzfg": false,
      "metar_trigger": false,
      "taf_trigger": false,
      "metar": "METAR ENGM 052250Z 04005KT 9999 -SN FEW013 M09/M11 Q1012",
      "taf": "TAF ENGM 051700Z 0518/0618 02005KT 8000 -SN SCT020 BKN040"
    },
    {
      "icao": "ENHD",
      "alert": "OK",
      "vis_m": 9999,
      "fzfg": false,
      "metar_trigger": false,
      "taf_trigger": false,
      "metar": "METAR ENHD 052250Z 09013KT 9999 OVC038 M03/M06 Q1010 RESN",
      "taf": "TAF ENHD 051400Z 0515/0523 11015KT 9999 -SHSN FEW015CB BKN025"
    },
    {
      "icao": "ENTC",
      "alert": "OK",
      "vis_m": 9999,
      "fzfg": false,
      "metar_trigger": false,
      "taf_trigger": false,
      "metar": "METAR ENTC 052250Z 22005KT 150V300 CAVOK M12/M15 Q1014 RMK WIND 2600FT 11011KT",
      "taf": "TAF ENTC 051700Z 0518/0618 23005KT CAVOK"
    },
    {
      "icao": "ENTO",
      "alert": "OK",
      "vis_m": 9999,
      "fzfg": false,
      "metar_trigger": false,
      "taf_trigger": false,
      "metar": "METAR ENTO 052250Z 36010KT 9999 -SHSN OVC013 M08/M10 Q1012 RESN",
      "taf": ""
    },
    {
      "icao": "ENVA",
      "alert": "OK",
      "vis_m": 9999,
      "fzfg": false,
      "metar_trigger": false,
      "taf_trigger": false,
      "metar": "METAR ENVA 052250Z 11010KT CAVOK M17/M19 Q1015 RMK WIND 670FT 09012KT",
      "taf": "TAF ENVA 051700Z 0518/0618 10007KT CAVOK"
    },
    {
      "icao": "ENZV",
      "alert": "OK",
      "vis_m": 9999,
      "fzfg": false,
      "metar_trigger": false,
      "taf_trigger": false,
      "metar": "METAR ENZV 052250Z 12003KT 070V180 9999 BKN030 M03/M06 Q1010",
      "taf": ""
    },
    {
      "icao": "EPGD",
      "alert": "OK",
      "vis_m": 9999,
      "fzfg": false,
      "metar_trigger": false,
      "taf_trigger": false,
      "metar": "METAR EPGD 052300Z 16003KT CAVOK M03/M04 Q1013",
      "taf": "TAF EPGD 051730Z 0518/0618 19006KT 9999 BKN030"
    },
    {
      "icao": "EPKK",
      "alert": "OK",
      "vis_m": 9999,
      "fzfg": false,
      "metar_trigger": false,
      "taf_trigger": false,
      "metar": "METAR EPKK 052300Z VRB01KT CAVOK M03/M07 Q1011",
      "taf": ""
    },
    {
      "icao": "EPKT",
      "alert": "OK",
      "vis_m": 9999,
      "fzfg": false,
      "metar_trigger": false,
      "taf_trigger": false,
      "metar": "METAR EPKT 052300Z 33002KT CAVOK M06/M07 Q1011",
      "taf": "TAF EPKT 051730Z 0518/0618 VRB02KT CAVOK"
    },
    {
      "icao": "EPLB",
      "alert": "OK",
      "vis_m": 9999,
      "fzfg": false,
      "metar_trigger": false,
      "taf_trigger": false,
      "metar": "METAR EPLB 052300Z 06004KT 9999 OVC016 M04/M06 Q1012",
      "taf": "TAF EPLB 051730Z 0518/0618 09005KT CAVOK"
    },
    {
      "icao": "EPMO",
      "alert": "OK",
      "vis_m": 2700,
      "fzfg": false,
      "metar_trigger": false,
      "taf_trigger": false,
      "metar": "METAR EPMO 052300Z 07005KT 2700 1100W R08/1100D MIFG BR NSC M09/M10 Q1014",
      "taf": ""
    },
    {
      "icao": "EPPO",
      "alert": "OK",
      "vis_m": 6000,
      "fzfg": false,
      "metar_trigger": false,
      "taf_trigger": false,
      "metar": "METAR EPPO 052300Z 33001KT 6000 BKN036 M06/M08 Q1013",
      "taf": "TAF EPPO 051730Z 0518/0618 16004KT CAVOK"
    },
    {
      "icao": "EPRA",
      "alert": "OK",
      "vis_m": 9999,
      "fzfg": false,
      "metar_trigger": false,
      "taf_trigger": false,
      "metar": "METAR EPRA 052300Z 06004KT CAVOK M05/M08 Q1012",
      "taf": "TAF EPRA 052030Z 0521/0606 05006KT CAVOK"
    },
    {
      "icao": "EPRZ",
      "alert": "OK",
      "vis_m": 9999,
      "fzfg": false,
      "metar_trigger": false,
      "taf_trigger": false,
      "metar": "METAR EPRZ 052300Z 03004KT 9999 BKN016 M03/M06 Q1010",
      "taf": ""
    },
    {
      "icao": "EPSC",
      "alert": "OK",
      "vis_m": 9999,
      "fzfg": false,
      "metar_trigger": false,
      "taf_trigger": false,
      "metar": "METAR EPSC 052300Z 15006KT CAVOK M03/M06 Q1013",
      "taf": "TAF EPSC 051730Z 0518/0618 16006KT 9999 BKN040"
    },
    {
      "icao": "EPSY",
      "alert": "OK",
      "vis_m": 2600,
      "fzfg": true,
      "metar_trigger": false,
      "taf_trigger": false,
      "metar": "METAR EPSY 052300Z VRB02KT 2600 BR FEW002 M13/M14 Q1015",
      "taf": "TAF EPSY 052030Z 0521/0606 VRB02KT 0300 FZFG NSC"
    },
    {
      "icao": "EPWA",
      "alert": "OK",
      "vis_m": 9999,
      "fzfg": false,
      "metar_trigger": false,
      "taf_trigger": false,
      "metar": "METAR EPWA 052300Z 10003KT 030V130 CAVOK M06/M09 Q1013 NOSIG",
      "taf": "TAF EPWA 052030Z 0521/0621 VRB04KT CAVOK"
    },
    {
      "icao": "EPWR",
      "alert": "OK",
      "vis_m": 7000,
      "fzfg": false,
      "metar_trigger": false,
      "taf_trigger": false,
      "metar": "METAR EPWR 052300Z 31004KT 7000 NSC M09/M10 Q1013",
      "taf": "TAF EPWR 052030Z 0521/0621 29003KT CAVOK"
    },
    {
      "icao": "ESGG",
      "alert": "OK",
      "vis_m": 9999,
      "fzfg": false,
      "metar_trigger": false,
      "taf_trigger": false,
      "metar": "METAR ESGG 052250Z 10006KT CAVOK M08/M09 Q1010",
      "taf": "TAF ESGG 052030Z 0521/0621 VRB02KT 9999 SCT045"
    },
    {
      "icao": "ESKN",
      "alert": "OK",
      "vis_m": 9999,
      "fzfg": false,
      "metar_trigger": false,
      "taf_trigger": false,
      "metar": "METAR ESKN 052250Z 20005KT 9999 SCT012 BKN035 M02/M03 Q1011",
      "taf": "TAF ESKN 052030Z 0521/0621 06008KT 8000 -SN BKN030"
    },
    {
      "icao": "ESMS",
      "alert": "OK",
      "vis_m": 3000,
      "fzfg": false,
      "metar_trigger": false,
      "taf_trigger": false,
      "metar": "METAR ESMS 052250Z 00000KT 3000 BR FEW010 M03/M03 Q1010",
      "taf": "TAF ESMS 052027Z 0521/0621 18004KT 9999 BKN015"
    },
    {
      "icao": "ESSA",
      "alert": "OK",
      "vis_m": 9999,
      "fzfg": false,
      "metar_trigger": false,
      "taf_trigger": false,
      "metar": "METAR ESSA 052250Z 07010KT CAVOK M06/M08 Q1013 TEMPO 1400 SHSN BKN009",
      "taf": "TAF ESSA 052030Z 0521/0621 04010KT 9999 FEW035"
    },
    {
      "icao": "EYKA",
      "alert": "OK",
      "vis_m": 9000,
      "fzfg": false,
      "metar_trigger": false,
      "taf_trigger": false,
      "metar": "METAR EYKA 052250Z 17004KT 130V210 9000 NSC M06/M06 Q1017",
      "taf": "TAF EYKA 052300Z 0600/0624 VRB04KT 5000 BR SCT005"
    },
    {
      "icao": "EYPA",
      "alert": "OK",
      "vis_m": 8000,
      "fzfg": false,
      "metar_trigger": false,
      "taf_trigger": false,
      "metar": "METAR EYPA 052250Z 15009KT 8000 OVC004 M03/M04 Q1015",
      "taf": ""
    },
    {
      "icao": "EYVI",
      "alert": "OK",
      "vis_m": 7000,
      "fzfg": true,
      "metar_trigger": false,
      "taf_trigger": false,
      "metar": "METAR EYVI 052250Z 12005KT 7000 0100S BCFG NSC M08/M09 Q1017 TEMPO 0350 FZFG SCT002",
      "taf": "TAF EYVI 052300Z 0600/0624 VRB04KT 5000 BR SCT005"
    },
    {
      "icao": "GCFV",
      "alert": "OK",
      "vis_m": 9999,
      "fzfg": false,
      "metar_trigger": false,
      "taf_trigger": false,
      "metar": "METAR GCFV 052300Z 34012KT 9999 FEW020 16/11 Q1019",
      "taf": "TAF GCFV 052000Z 0521/0621 02014KT 9999 SCT030 TX21/0614Z TN15/0606Z"
    },
    {
      "icao": "GCLP",
      "alert": "OK",
      "vis_m": 9999,
      "fzfg": false,
      "metar_trigger": false,
      "taf_trigger": false,
      "metar": "METAR GCLP 052300Z 01019KT 9999 SCT025 BKN040 17/13 Q1020 NOSIG",
      "taf": "TAF GCLP 052000Z 0521/0621 36017KT 9999 SCT030 TX21/0614Z TN15/0606Z"
    },
    {
      "icao": "GCTS",
      "alert": "OK",
      "vis_m": 9999,
      "fzfg": false,
      "metar_trigger": false,
      "taf_trigger": false,
      "metar": "METAR GCTS 052300Z 06014KT 9999 FEW040 SCT050 17/10 Q1020 NOSIG",
      "taf": "TAF GCTS 052000Z 0521/0621 07014KT 9999 SCT030 TX23/0614Z TN16/0606Z"
    },
    {
      "icao": "GMAD",
      "alert": "OK",
      "vis_m": 9999,
      "fzfg": false,
      "metar_trigger": false,
      "taf_trigger": false,
      "metar": "METAR GMAD 052300Z 31004KT 9999 FEW026 14/11 Q1013 NOSIG",
      "taf": "TAF GMAD 052300Z 0600/0706 24006KT 8000 SCT023 SCT080"
    },
    {
      "icao": "GMMN",
      "alert": "OK",
      "vis_m": 9999,
      "fzfg": false,
      "metar_trigger": false,
      "taf_trigger": false,
      "metar": "METAR GMMN 052300Z 29006KT 9999 BKN030 10/07 Q1016 NOSIG",
      "taf": "TAF GMMN 052300Z 0600/0706 31006KT 9999 BKN030"
    },
    {
      "icao": "GMMX",
      "alert": "OK",
      "vis_m": 8000,
      "fzfg": false,
      "metar_trigger": false,
      "taf_trigger": false,
      "metar": "METAR GMMX 052300Z 35007KT 310V030 8000 SCT013 BKN020 11/09 Q1016 NOSIG",
      "taf": "TAF GMMX 051700Z 0518/0624 30008KT 8000 BKN023 SCT080"
    },
    {
      "icao": "HEGN",
      "alert": "OK",
      "vis_m": 9999,
      "fzfg": false,
      "metar_trigger": false,
      "taf_trigger": false,
      "metar": "METAR HEGN 052300Z 31005KT CAVOK 16/04 Q1018 NOSIG",
      "taf": "TAF HEGN 052300Z 0600/0706 29011KT CAVOK"
    },
    {
      "icao": "HEMA",
      "alert": "OK",
      "vis_m": 9999,
      "fzfg": false,
      "metar_trigger": false,
      "taf_trigger": false,
      "metar": "METAR HEMA 052300Z 28008KT CAVOK 18/14 Q1016 NOSIG",
      "taf": "TAF HEMA 052300Z 0600/0706 29011KT CAVOK"
    },
    {
      "icao": "HESH",
      "alert": "OK",
      "vis_m": 9999,
      "fzfg": false,
      "metar_trigger": false,
      "taf_trigger": false,
      "metar": "METAR HESH 052300Z 34005KT CAVOK 19/14 Q1018 NOSIG",
      "taf": "TAF HESH 052300Z 0600/0706 33010KT CAVOK"
    },
    {
      "icao": "HESX",
      "alert": "OK",
      "vis_m": 6000,
      "fzfg": false,
      "metar_trigger": false,
      "taf_trigger": false,
      "metar": "METAR HESX 052300Z 16003KT 6000 NSC 08/04 Q1019 NOSIG",
      "taf": "TAF HESX 052300Z 0600/0706 VRB02KT 6000 NSC"
    },
    {
      "icao": "LATI",
      "alert": "OK",
      "vis_m": 9999,
      "fzfg": false,
      "metar_trigger": false,
      "taf_trigger": false,
      "metar": "METAR LATI 052320Z 19005KT 160V220 9999 -RA SCT044 BKN064 OVC078 12/09 Q1005 NOSIG",
      "taf": "TAF LATI 052300Z 0600/0624 16014KT 9999 RA FEW025CB OVC050 TX16/0612Z TN12/0605Z"
    },
    {
      "icao": "LBPD",
      "alert": "OK",
      "vis_m": 9999,
      "fzfg": false,
      "metar_trigger": false,
      "taf_trigger": false,
      "metar": "METAR LBPD 052300Z AUTO 23002KT 9999 BKN120/// 06/06 Q1011",
      "taf": "TAF LBPD 052300Z 0600/0624 VRB03KT 5000 BR BKN060"
    },
    {
      "icao": "LBSF",
      "alert": "OK",
      "vis_m": 9999,
      "fzfg": false,
      "metar_trigger": false,
      "taf_trigger": false,
      "metar": "METAR LBSF 052300Z AUTO VRB04KT 9999 SCT086/// 07/04 Q1010 NOSIG",
      "taf": "TAF LBSF 052300Z 0600/0624 VRB03KT 7000 SCT040 BKN060"
    },
    {
      "icao": "LBWN",
      "alert": "OK",
      "vis_m": 9999,
      "fzfg": false,
      "metar_trigger": false,
      "taf_trigger": false,
      "metar": "METAR LBWN 052300Z AUTO 11006KT 9999 NSC 11/10 Q1013 NOSIG",
      "taf": "TAF LBWN 052300Z 0600/0624 11008KT 9999 BKN040"
    },
    {
      "icao": "LCLK",
      "alert": "OK",
      "vis_m": 9999,
      "fzfg": false,
      "metar_trigger": false,
      "taf_trigger": false,
      "metar": "METAR LCLK 052300Z 34007KT CAVOK 12/08 Q1021 NOSIG",
      "taf": "TAF LCLK 051730Z 0518/0618 34008KT CAVOK"
    },
    {
      "icao": "LCPH",
      "alert": "OK",
      "vis_m": 9999,
      "fzfg": false,
      "metar_trigger": false,
      "taf_trigger": false,
      "metar": "METAR LCPH 052300Z 02008KT CAVOK 11/04 Q1020 NOSIG",
      "taf": "TAF LCPH 051730Z 0518/0618 08008KT 9999 FEW040"
    },
    {
      "icao": "LEAL",
      "alert": "OK",
      "vis_m": 9999,
      "fzfg": false,
      "metar_trigger": false,
      "taf_trigger": false,
      "metar": "METAR LEAL 052300Z 31004KT 270V330 9999 -RA SCT025 OVC035 09/08 Q1010 NOSIG",
      "taf": "TAF LEAL 051700Z 0518/0618 VRB04KT 9999 SCT020 TX12/0614Z TN04/0606Z"
    },
    {
      "icao": "LEBB",
      "alert": "OK",
      "vis_m": 9000,
      "fzfg": false,
      "metar_trigger": false,
      "taf_trigger": false,
      "metar": "METAR LEBB 052300Z AUTO 24004KT 140V310 9000 RASN FEW032 BKN049 BKN065 01/M01 Q1016",
      "taf": "TAF LEBB 051700Z 0518/0618 13005KT 9999 FEW030 TX07/0618Z TNM00/0521Z"
    },
    {
      "icao": "LEBL",
      "alert": "OK",
      "vis_m": 9999,
      "fzfg": false,
      "metar_trigger": false,
      "taf_trigger": false,
      "metar": "METAR LEBL 052300Z 33013KT 9999 FEW030 04/M01 Q1010 NOSIG",
      "taf": "TAF LEBL 051700Z 0518/0618 33013KT 9999 FEW030 SCT040 TX11/0613Z TN01/0606Z"
    },
    {
      "icao": "LECH",
      "alert": "OK",
      "vis_m": 9999,
      "fzfg": false,
      "metar_trigger": false,
      "taf_trigger": false,
      "metar": "METAR LECH 052300Z AUTO VRB02KT CAVOK 01/M06 Q1010",
      "taf": ""
    },
    {
      "icao": "LEMD",
      "alert": "OK",
      "vis_m": 9999,
      "fzfg": false,
      "metar_trigger": false,
      "taf_trigger": false,
      "metar": "METAR LEMD 052300Z 01004KT 330V050 CAVOK M00/M08 Q1012 NOSIG",
      "taf": ""
    },
    {
      "icao": "LEMG",
      "alert": "OK",
      "vis_m": 9999,
      "fzfg": false,
      "metar_trigger": false,
      "taf_trigger": false,
      "metar": "METAR LEMG 052300Z 28014KT 9999 FEW050 BKN070 10/07 Q1009 NOSIG",
      "taf": "TAF LEMG 051700Z 0518/0618 VRB04KT 9999 FEW050 TX12/0614Z TN04/0606Z"
    },
    {
      "icao": "LEVC",
      "alert": "OK",
      "vis_m": 9999,
      "fzfg": false,
      "metar_trigger": false,
      "taf_trigger": false,
      "metar": "METAR LEVC 052300Z 33006KT 300V360 9999 OVC062 06/M04 Q1011 NOSIG",
      "taf": "TAF LEVC 051700Z 0518/0618 VRB04KT 9999 BKN015 TX12/0614Z TN00/0606Z"
    },
    {
      "icao": "LEXJ",
      "alert": "OK",
      "vis_m": 6000,
      "fzfg": false,
      "metar_trigger": false,
      "taf_trigger": false,
      "metar": "METAR LEXJ 052300Z AUTO 23011KT 190V250 6000 -RA SCT027 BKN032 BKN041 05/03 Q1016",
      "taf": "TAF LEXJ 052000Z 0521/0621 22005KT 9999 SCT010 BKN040 TX09/0614Z TN03/0523Z"
    },
    {
      "icao": "LEZG",
      "alert": "OK",
      "vis_m": 9999,
      "fzfg": false,
      "metar_trigger": false,
      "taf_trigger": false,
      "metar": "METAR LEZG 052300Z 28010KT 260V320 9999 FEW075 01/M05 Q1012 NOSIG",
      "taf": "TAF LEZG 051700Z 0518/0618 31018KT 9999 FEW050 TX07/0615Z TN00/0606Z"
    },
    {
      "icao": "LEZL",
      "alert": "OK",
      "vis_m": 9999,
      "fzfg": false,
      "metar_trigger": false,
      "taf_trigger": false,
      "metar": "METAR LEZL 052300Z 01007KT 330V030 CAVOK 08/M01 Q1013 NOSIG",
      "taf": "TAF LEZL 052000Z 0521/0621 30004KT CAVOK TX13/0615Z TN02/0607Z"
    },
    {
      "icao": "LFBD",
      "alert": "OK",
      "vis_m": 9999,
      "fzfg": false,
      "metar_trigger": false,
      "taf_trigger": false,
      "metar": "METAR LFBD 052300Z AUTO 18010KT 9999 FEW042 M01/M05 Q1014 NOSIG",
      "taf": ""
    },
    {
      "icao": "LFLL",
      "alert": "OK",
      "vis_m": 9000,
      "fzfg": false,
      "metar_trigger": false,
      "taf_trigger": false,
      "metar": "METAR LFLL 052300Z VRB02KT 9000 NSC M05/M06 Q1014 NOSIG",
      "taf": "TAF LFLL 052300Z 0600/0706 34006KT CAVOK"
    },
    {
      "icao": "LFLS",
      "alert": "OK",
      "vis_m": 9999,
      "fzfg": false,
      "metar_trigger": false,
      "taf_trigger": false,
      "metar": "METAR LFLS 052300Z AUTO VRB02KT CAVOK M06/M08 Q1013",
      "taf": "TAF LFLS 051400Z 0515/0615 36008KT CAVOK"
    },
    {
      "icao": "LFMN",
      "alert": "OK",
      "vis_m": 9999,
      "fzfg": false,
      "metar_trigger": false,
      "taf_trigger": false,
      "metar": "METAR LFMN 052300Z 34010KT 9999 BKN040 06/M00 Q1006 NOSIG",
      "taf": "TAF LFMN 052000Z 0521/0703 32010KT 9999 BKN055 BKN135"
    },
    {
      "icao": "LFOB",
      "alert": "OK",
      "vis_m": 9999,
      "fzfg": true,
      "metar_trigger": false,
      "taf_trigger": false,
      "metar": "METAR LFOB 052300Z AUTO 29006KT 9999 SCT028 M04/M05 Q1016 TEMPO 0500 FZFG VV///",
      "taf": "TAF LFOB 052300Z 0600/0624 29006KT 6000 SCT020"
    },
    {
      "icao": "LFPO",
      "alert": "OK",
      "vis_m": 6000,
      "fzfg": false,
      "metar_trigger": false,
      "taf_trigger": false,
      "metar": "METAR LFPO 052300Z AUTO 29005KT 6000 OVC036 M01/M02 Q1016 TEMPO 2500 BR BKN004",
      "taf": "TAF LFPO 051700Z 0518/0624 26004KT 6000 BKN008"
    },
    {
      "icao": "LFSB",
      "alert": "OK",
      "vis_m": 9999,
      "fzfg": false,
      "metar_trigger": false,
      "taf_trigger": false,
      "metar": "METAR LFSB 052300Z AUTO 17005KT CAVOK M08/M10 Q1015 NOSIG",
      "taf": "TAF LFSB 052300Z 0600/0624 VRB03KT CAVOK"
    },
    {
      "icao": "LGAV",
      "alert": "OK",
      "vis_m": 9999,
      "fzfg": false,
      "metar_trigger": false,
      "taf_trigger": false,
      "metar": "METAR LGAV 052250Z 24007KT 9999 FEW018 BKN035 14/11 Q1015 NOSIG",
      "taf": "TAF LGAV 052300Z 0600/0624 22010KT 9999 FEW018 BKN035"
    },
    {
      "icao": "LGTS",
      "alert": "OK",
      "vis_m": 9999,
      "fzfg": false,
      "metar_trigger": false,
      "taf_trigger": false,
      "metar": "METAR LGTS 052250Z 13006KT 9999 FEW030 15/11 Q1012 NOSIG",
      "taf": "TAF LGTS 052300Z 0600/0624 14010KT 9999 SCT030"
    },
    {
      "icao": "LHBP",
      "alert": "OK",
      "vis_m": 4000,
      "fzfg": false,
      "metar_trigger": false,
      "taf_trigger": false,
      "metar": "METAR LHBP 052300Z 31007KT 4000 -SN FEW004 BKN019 OVC044 M02/M03 Q1010 TEMPO 5000",
      "taf": "TAF LHBP 051715Z 0518/0618 35006KT 5000 -SN SCT010 OVC020"
    },
    {
      "icao": "LHDC",
      "alert": "OK",
      "vis_m": 5000,
      "fzfg": false,
      "metar_trigger": false,
      "taf_trigger": false,
      "metar": "METAR LHDC 052245Z AUTO 04003KT 5000 -RASN BR OVC008 M00/M00 Q1009",
      "taf": "TAF LHDC 051715Z 0518/0603 05006KT 4000 -SN SCT012 OVC025"
    },
    {
      "icao": "LIBD",
      "alert": "OK",
      "vis_m": 9999,
      "fzfg": false,
      "metar_trigger": false,
      "taf_trigger": false,
      "metar": "METAR LIBD 052250Z VRB02KT 9999 BKN012 12/11 Q1005",
      "taf": "TAF LIBD 052300Z 0600/0624 30007KT 9999 SCT015"
    },
    {
      "icao": "LIBG",
      "alert": "OK",
      "vis_m": null,
      "fzfg": false,
      "metar_trigger": false,
      "taf_trigger": false,
      "metar": "",
      "taf": "TAF LIBG 051700Z 0518/0603 17012KT 9999 SCT030"
    },
    {
      "icao": "LIBP",
      "alert": "OK",
      "vis_m": 9999,
      "fzfg": false,
      "metar_trigger": false,
      "taf_trigger": false,
      "metar": "METAR LIBP 052250Z AUTO VRB01KT 9999 OVC007/// 07/06 Q1007",
      "taf": "TAF LIBP 052300Z 0600/0624 VRB05KT 9999 OVC008"
    },
    {
      "icao": "LIBR",
      "alert": "OK",
      "vis_m": 6000,
      "fzfg": false,
      "metar_trigger": false,
      "taf_trigger": false,
      "metar": "METAR LIBR 052250Z 21014KT 6000 BKN010 16/15 Q1005",
      "taf": "TAF LIBR 052300Z 0600/0624 VRB05KT 9999 BKN015"
    },
    {
      "icao": "LICA",
      "alert": "OK",
      "vis_m": 9999,
      "fzfg": false,
      "metar_trigger": false,
      "taf_trigger": false,
      "metar": "METAR LICA 052250Z AUTO 08006KT 9999 NCD 10/10 Q1005",
      "taf": "TAF LICA 052300Z 0600/0624 VRB05KT 9999 SCT050"
    },
    {
      "icao": "LICC",
      "alert": "OK",
      "vis_m": 9999,
      "fzfg": false,
      "metar_trigger": false,
      "taf_trigger": false,
      "metar": "METAR LICC 052250Z 28009KT CAVOK 13/10 Q1006",
      "taf": "TAF LICC 052300Z 0600/0624 26013KT 9999 FEW030"
    },
    {
      "icao": "LICJ",
      "alert": "OK",
      "vis_m": 9999,
      "fzfg": false,
      "metar_trigger": false,
      "taf_trigger": false,
      "metar": "METAR LICJ 052250Z 21014KT CAVOK 17/07 Q1003",
      "taf": "TAF LICJ 052300Z 0600/0624 21016KT 9999 FEW030"
    },
    {
      "icao": "LIMC",
      "alert": "OK",
      "vis_m": 9999,
      "fzfg": false,
      "metar_trigger": false,
      "taf_trigger": false,
      "metar": "METAR LIMC 052250Z 02005KT CAVOK M05/M07 Q1008 NOSIG",
      "taf": "TAF LIMC 052300Z 0600/0706 VRB03KT CAVOK"
    },
    {
      "icao": "LIME",
      "alert": "OK",
      "vis_m": 9999,
      "fzfg": false,
      "metar_trigger": false,
      "taf_trigger": false,
      "metar": "METAR LIME 052250Z 02004KT CAVOK M01/M05 Q1008 NOSIG",
      "taf": "TAF LIME 052300Z 0600/0624 VRB03KT CAVOK"
    },
    {
      "icao": "LIMF",
      "alert": "OK",
      "vis_m": 9999,
      "fzfg": false,
      "metar_trigger": false,
      "taf_trigger": false,
      "metar": "METAR LIMF 052250Z VRB02KT CAVOK M03/M09 Q1008",
      "taf": "TAF LIMF 052300Z 0600/0624 VRB03KT CAVOK"
    },
    {
      "icao": "LIMJ",
      "alert": "OK",
      "vis_m": 9999,
      "fzfg": false,
      "metar_trigger": false,
      "taf_trigger": false,
      "metar": "METAR LIMJ 052250Z 04014KT CAVOK 04/M05 Q1006",
      "taf": "TAF LIMJ 052300Z 0600/0624 03017KT CAVOK"
    },
    {
      "icao": "LIPE",
      "alert": "OK",
      "vis_m": 9999,
      "fzfg": false,
      "metar_trigger": false,
      "taf_trigger": false,
      "metar": "METAR LIPE 052250Z 27005KT 9999 BKN040 03/M03 Q1009",
      "taf": "TAF LIPE 052300Z 0600/0624 28007KT 9999 BKN020"
    },
    {
      "icao": "LIPH",
      "alert": "OK",
      "vis_m": 9999,
      "fzfg": false,
      "metar_trigger": false,
      "taf_trigger": false,
      "metar": "METAR LIPH 052250Z AUTO 33003KT 9999 SCT074/// BKN120/// 01/M04 Q1009",
      "taf": "TAF LIPH 052300Z 0600/0624 03006KT 9999 SCT070"
    },
    {
      "icao": "LIPQ",
      "alert": "OK",
      "vis_m": 9999,
      "fzfg": false,
      "metar_trigger": false,
      "taf_trigger": false,
      "metar": "METAR LIPQ 052250Z AUTO 09008KT 9999 OVC048/// 04/M05 Q1008",
      "taf": "TAF LIPQ 052300Z 0600/0624 08008KT 9999 BKN030"
    },
    {
      "icao": "LIPR",
      "alert": "OK",
      "vis_m": 9999,
      "fzfg": false,
      "metar_trigger": false,
      "taf_trigger": false,
      "metar": "METAR LIPR 052250Z AUTO 29010KT 9999 -DZ OVC015/// 02/M00 Q1008",
      "taf": "TAF LIPR 052300Z 0600/0624 30012KT 9999 BKN020"
    },
    {
      "icao": "LIPX",
      "alert": "OK",
      "vis_m": 9999,
      "fzfg": false,
      "metar_trigger": false,
      "taf_trigger": false,
      "metar": "METAR LIPX 052250Z 02004KT CAVOK M02/M08 Q1008",
      "taf": "TAF LIPX 052300Z 0600/0624 VRB04KT CAVOK"
    },
    {
      "icao": "LIPY",
      "alert": "OK",
      "vis_m": 9999,
      "fzfg": false,
      "metar_trigger": false,
      "taf_trigger": false,
      "metar": "METAR LIPY 052250Z AUTO 27004KT 9999 DZ OVC018/// 03/02 Q1008",
      "taf": "TAF LIPY 052300Z 0600/0624 VRB05KT 4000 RA BKN010"
    },
    {
      "icao": "LIPZ",
      "alert": "OK",
      "vis_m": 9000,
      "fzfg": false,
      "metar_trigger": false,
      "taf_trigger": false,
      "metar": "METAR LIPZ 052250Z 34006KT 9000 FEW070 01/M03 Q1009 NOSIG",
      "taf": "TAF LIPZ 052300Z 0600/0706 02008KT 9999 SCT070"
    },
    {
      "icao": "LIRF",
      "alert": "OK",
      "vis_m": 9999,
      "fzfg": false,
      "metar_trigger": false,
      "taf_trigger": false,
      "metar": "METAR LIRF 052250Z VRB02KT 9999 SCT020 10/10 Q1003 NOSIG",
      "taf": "TAF LIRF 052300Z 0600/0706 05005KT 9999 SCT020"
    },
    {
      "icao": "LIRN",
      "alert": "OK",
      "vis_m": 9999,
      "fzfg": false,
      "metar_trigger": false,
      "taf_trigger": false,
      "metar": "METAR LIRN 052250Z VRB02KT 9999 SCT070 12/10 Q1003 NOSIG",
      "taf": "TAF LIRN 052300Z 0600/0624 VRB06KT 9999 SCT020 SCT050"
    },
    {
      "icao": "LIRP",
      "alert": "OK",
      "vis_m": 9999,
      "fzfg": false,
      "metar_trigger": false,
      "taf_trigger": false,
      "metar": "METAR LIRP 052245Z VRB02KT CAVOK 03/M01 Q1005 NOSIG",
      "taf": "TAF LIRP 052300Z 0600/0624 10006KT CAVOK"
    },
    {
      "icao": "LIRZ",
      "alert": "OK",
      "vis_m": 9999,
      "fzfg": false,
      "metar_trigger": false,
      "taf_trigger": false,
      "metar": "METAR LIRZ 052250Z AUTO 35006KT 9999 OVC016/// 05/04 Q1004",
      "taf": "TAF LIRZ 052300Z 0600/0624 02010KT 9999 BKN020"
    },
    {
      "icao": "LJLJ",
      "alert": "OK",
      "vis_m": 9999,
      "fzfg": false,
      "metar_trigger": false,
      "taf_trigger": false,
      "metar": "METAR LJLJ 052300Z VRB01KT 9999 BKN015 OVC055 M03/M04 Q1011 NOSIG",
      "taf": "TAF LJLJ 052300Z 0600/0700 VRB02KT 7000 -SN FEW004 BKN010 OVC055"
    },
    {
      "icao": "LKMT",
      "alert": "OK",
      "vis_m": 9999,
      "fzfg": false,
      "metar_trigger": false,
      "taf_trigger": false,
      "metar": "METAR LKMT 052300Z VRB02KT CAVOK M04/M06 Q1012 NOSIG",
      "taf": "TAF LKMT 052300Z 0600/0624 VRB02KT CAVOK"
    },
    {
      "icao": "LKPR",
      "alert": "OK",
      "vis_m": 9999,
      "fzfg": false,
      "metar_trigger": false,
      "taf_trigger": false,
      "metar": "METAR LKPR 052300Z 20008KT CAVOK M08/M11 Q1012 NOSIG",
      "taf": "TAF LKPR 052300Z 0600/0706 23006KT CAVOK"
    },
    {
      "icao": "LLBG",
      "alert": "OK",
      "vis_m": 9999,
      "fzfg": false,
      "metar_trigger": false,
      "taf_trigger": false,
      "metar": "METAR LLBG 052250Z VRB03KT CAVOK 12/06 Q1019 NOSIG",
      "taf": "TAF LLBG 051700Z 0518/0618 VRB03KT CAVOK"
    },
    {
      "icao": "LMML",
      "alert": "OK",
      "vis_m": 8000,
      "fzfg": false,
      "metar_trigger": false,
      "taf_trigger": false,
      "metar": "METAR LMML 052315Z 20007KT 170V230 8000 NSC 17/15 Q1007 NOSIG",
      "taf": "TAF LMML 052300Z 0600/0624 20014KT 8000 FEW013"
    },
    {
      "icao": "LOWW",
      "alert": "OK",
      "vis_m": 9999,
      "fzfg": false,
      "metar_trigger": false,
      "taf_trigger": false,
      "metar": "METAR LOWW 052250Z 33010KT 9999 OVC050 M03/M09 Q1014 NOSIG",
      "taf": "TAF LOWW 052315Z 0600/0706 33010KT 9999 SCT050 TXM02/0613Z TNM05/0706Z"
    },
    {
      "icao": "LPFR",
      "alert": "OK",
      "vis_m": 9999,
      "fzfg": false,
      "metar_trigger": false,
      "taf_trigger": false,
      "metar": "METAR LPFR 052300Z 35006KT CAVOK 08/M02 Q1015",
      "taf": "TAF LPFR 052300Z 0600/0624 36008KT CAVOK"
    },
    {
      "icao": "LPMA",
      "alert": "OK",
      "vis_m": 9999,
      "fzfg": false,
      "metar_trigger": false,
      "taf_trigger": false,
      "metar": "METAR LPMA 052300Z 03019G31KT 350V060 9999 SCT015 FEW018TCU 15/06 Q1024",
      "taf": "TAF LPMA 052300Z 0600/0624 02017KT 9999 SCT015"
    },
    {
      "icao": "LPPR",
      "alert": "OK",
      "vis_m": 9999,
      "fzfg": false,
      "metar_trigger": false,
      "taf_trigger": false,
      "metar": "METAR LPPR 052300Z 34009KT CAVOK 06/02 Q1019",
      "taf": "TAF LPPR 052300Z 0600/0624 36010KT CAVOK"
    },
    {
      "icao": "LPPS",
      "alert": "OK",
      "vis_m": 9999,
      "fzfg": false,
      "metar_trigger": false,
      "taf_trigger": false,
      "metar": "METAR LPPS 052300Z 04011KT 360V070 9999 SCT015 SCT030 15/08 Q1025",
      "taf": "TAF LPPS 052300Z 0600/0706 04015KT 9999 SCT015 SCT030"
    },
    {
      "icao": "LPPT",
      "alert": "OK",
      "vis_m": 9999,
      "fzfg": false,
      "metar_trigger": false,
      "taf_trigger": false,
      "metar": "METAR LPPT 052300Z 34006KT 9999 FEW022 SCT038 07/06 Q1017",
      "taf": "TAF LPPT 052300Z 0600/0706 36008KT 9999 FEW030"
    },
    {
      "icao": "LQBK",
      "alert": "OK",
      "vis_m": 9999,
      "fzfg": false,
      "metar_trigger": false,
      "taf_trigger": false,
      "metar": "METAR LQBK 052300Z 29007KT 9999 -SN BKN017 OVC027 M01/M03 Q1012 NOSIG",
      "taf": "TAF LQBK 052300Z 0600/0624 33007KT 7000 -SN SCT010 OVC020 TXM00/0613Z TNM03/0605Z"
    },
    {
      "icao": "LQSA",
      "alert": "OK",
      "vis_m": 2500,
      "fzfg": false,
      "metar_trigger": false,
      "taf_trigger": false,
      "metar": "METAR LQSA 052300Z 32003KT 290V360 2500 -RA BR BKN007 OVC025 00/00 Q1007",
      "taf": "TAF LQSA 052300Z 0600/0624 29005KT 2500 -SN BKN010 OVC030 TX00/0600Z TNM04/0624Z"
    },
    {
      "icao": "LQTZ",
      "alert": "OK",
      "vis_m": 4000,
      "fzfg": false,
      "metar_trigger": false,
      "taf_trigger": false,
      "metar": "METAR LQTZ 052300Z 31004KT 4000 BR OVC004 M01/M01 Q1010",
      "taf": "TAF LQTZ 052300Z 0600/0624 30005KT 6000 SCT005 BKN015 OVC030 TXM00/0613Z TNM03/0605Z"
    },
    {
      "icao": "LRBC",
      "alert": "OK",
      "vis_m": 2000,
      "fzfg": false,
      "metar_trigger": false,
      "taf_trigger": false,
      "metar": "METAR LRBC 052300Z 13002KT 2000 BR OVC002 M00/M02 Q1013",
      "taf": "TAF LRBC 052000Z 0521/0606 VRB03KT 3000 -SN BKN002 OVC010"
    },
    {
      "icao": "LRBS",
      "alert": "OK",
      "vis_m": 350,
      "fzfg": false,
      "metar_trigger": false,
      "taf_trigger": false,
      "metar": "METAR LRBS 052300Z 05005KT 0350 R07/1100D -DZ FG VV001 02/02 Q1013 NOSIG",
      "taf": ""
    },
    {
      "icao": "LRBV",
      "alert": "OK",
      "vis_m": 9999,
      "fzfg": false,
      "metar_trigger": false,
      "taf_trigger": false,
      "metar": "METAR LRBV 052300Z AUTO 16005KT 120V200 9999 BKN046/// OVC170/// 01/M00 Q1009",
      "taf": ""
    },
    {
      "icao": "LRCL",
      "alert": "OK",
      "vis_m": 9999,
      "fzfg": false,
      "metar_trigger": false,
      "taf_trigger": false,
      "metar": "METAR LRCL 052300Z 06007KT 9999 SCT052 OVC068 01/00 Q1009",
      "taf": "TAF LRCL 052000Z 0521/0606 06010KT 9999 OVC040"
    },
    {
      "icao": "LRCV",
      "alert": "OK",
      "vis_m": 250,
      "fzfg": false,
      "metar_trigger": false,
      "taf_trigger": false,
      "metar": "METAR LRCV 052300Z 05004KT 0250 R26/0400N FG VV001 01/01 Q1012",
      "taf": "TAF LRCV 052000Z 0521/0606 VRB04KT 0500 FG VV001"
    },
    {
      "icao": "LRIA",
      "alert": "OK",
      "vis_m": 2100,
      "fzfg": false,
      "metar_trigger": false,
      "taf_trigger": false,
      "metar": "METAR LRIA 052300Z 12006KT 2100 DZ BR BKN000 OVC002 00/00 Q1014",
      "taf": "TAF LRIA 052000Z 0521/0606 10008KT 3000 -DZ BKN002 OVC010"
    },
    {
      "icao": "LROP",
      "alert": "OK",
      "vis_m": 300,
      "fzfg": false,
      "metar_trigger": false,
      "taf_trigger": false,
      "metar": "METAR LROP 052300Z 08005KT 0300 R08R/1000N R08L/1000N FG VV002 02/02 Q1013 NOSIG",
      "taf": "TAF LROP 051700Z 0518/0618 05010KT 9999 -RA OVC005"
    },
    {
      "icao": "LRSB",
      "alert": "OK",
      "vis_m": 5000,
      "fzfg": false,
      "metar_trigger": false,
      "taf_trigger": false,
      "metar": "METAR LRSB 052300Z 24003KT 5000 BR FEW086 M01/M01 Q1008",
      "taf": ""
    },
    {
      "icao": "LRSM",
      "alert": "OK",
      "vis_m": 1700,
      "fzfg": false,
      "metar_trigger": false,
      "taf_trigger": false,
      "metar": "METAR LRSM 052300Z AUTO 00000KT 1700 R19/1900U -RA SCT032/// OVC040/// 01/00 Q1009",
      "taf": "TAF LRSM 051400Z 0515/0524 06006KT 9999 BKN035"
    },
    {
      "icao": "LRSV",
      "alert": "OK",
      "vis_m": 400,
      "fzfg": true,
      "metar_trigger": false,
      "taf_trigger": false,
      "metar": "METAR LRSV 052300Z 14015KT 0400 R34/0900D FZFG VV002 M02/M02 Q1010",
      "taf": "TAF LRSV 052000Z 0521/0606 13012KT 1500 BR OVC003"
    },
    {
      "icao": "LRTM",
      "alert": "OK",
      "vis_m": 2800,
      "fzfg": false,
      "metar_trigger": false,
      "taf_trigger": false,
      "metar": "METAR LRTM 052300Z AUTO VRB02KT 2800 -RA BKN050/// 01/M00 Q1009",
      "taf": "TAF LRTM 051400Z 0515/0524 VRB04KT 3000 -RASN BR BKN010 OVC025"
    },
    {
      "icao": "LRTR",
      "alert": "OK",
      "vis_m": 3000,
      "fzfg": false,
      "metar_trigger": false,
      "taf_trigger": false,
      "metar": "METAR LRTR 052300Z 15003KT 130V210 3000 0800E R29/0900N -DZ BCFG BKN005 OVC032 01/01 Q1009",
      "taf": "TAF LRTR 051700Z 0518/0618 VRB04KT 5000 -RA BR OVC030"
    },
    {
      "icao": "LTAC",
      "alert": "OK",
      "vis_m": 4000,
      "fzfg": false,
      "metar_trigger": false,
      "taf_trigger": false,
      "metar": "METAR LTAC 052250Z VRB01KT 4000 BR NSC M01/M01 Q1021 NOSIG RMK RWY21C VRB01KT RWY03L VRB01KT RWY21R 00000KT RWY03R VRB01KT RWY21L 00000KT",
      "taf": "TAF LTAC 052240Z 0600/0624 VRB02KT 4000 BR NSC"
    },
    {
      "icao": "LTFM",
      "alert": "OK",
      "vis_m": 9999,
      "fzfg": false,
      "metar_trigger": false,
      "taf_trigger": false,
      "metar": "METAR LTFM 052250Z 19009KT 9999 SCT040 BKN100 13/06 Q1016 NOSIG RMK RWY17L 19011KT RWY34L 19009KT RWY16R 18011KT RWY36 19010KT RWY18 19011KT",
      "taf": "TAF LTFM 052240Z 0600/0706 19012KT 9999 SCT040 BKN100"
    },
    {
      "icao": "LUKK",
      "alert": "OK",
      "vis_m": 2400,
      "fzfg": true,
      "metar_trigger": false,
      "taf_trigger": false,
      "metar": "METAR LUKK 052300Z 09006KT 2400 1200SW -FZRA BR OVC001 M00/M00 Q1015 TEMPO 0800 FZFG OVC001",
      "taf": "TAF LUKK 051705Z 0518/0618 12006KT 5000 SN BKN008"
    },
    {
      "icao": "LWOH",
      "alert": "OK",
      "vis_m": null,
      "fzfg": false,
      "metar_trigger": false,
      "taf_trigger": false,
      "metar": "",
      "taf": "TAF LWOH 052045Z 0521/0621 VRB02KT 9999 -RA SCT020 BKN040"
    },
    {
      "icao": "LWSK",
      "alert": "OK",
      "vis_m": 9999,
      "fzfg": false,
      "metar_trigger": false,
      "taf_trigger": false,
      "metar": "METAR LWSK 052320Z 13013KT 9999 SCT060 OVC090 12/07 Q1010 NOSIG",
      "taf": ""
    },
    {
      "icao": "LYBE",
      "alert": "OK",
      "vis_m": 7000,
      "fzfg": false,
      "metar_trigger": false,
      "taf_trigger": false,
      "metar": "METAR LYBE 052300Z 26007KT 7000 -FZRA BKN004 BKN019 M00/M01 Q1010 NOSIG",
      "taf": "TAF LYBE 052300Z 0600/0624 27007KT 6000 BKN006 BKN025 TXM00/0612Z TNM03/0624Z"
    },
    {
      "icao": "LYNI",
      "alert": "OK",
      "vis_m": 9999,
      "fzfg": false,
      "metar_trigger": false,
      "taf_trigger": false,
      "metar": "METAR LYNI 052300Z VRB02KT 9999 FEW040 OVC083 03/03 Q1008 NOSIG",
      "taf": "TAF LYNI 052300Z 0600/0624 05004KT 9999 BKN080 TX03/0600Z TN00/0624Z"
    },
    {
      "icao": "LYPG",
      "alert": "OK",
      "vis_m": 9999,
      "fzfg": false,
      "metar_trigger": false,
      "taf_trigger": false,
      "metar": "METAR LYPG 052300Z 12007KT 080V150 9999 RA FEW024 BKN040 OVC070 11/10 Q1006 NOSIG",
      "taf": "TAF LYPG 052300Z 0600/0624 14008KT 6000 RA FEW025 BKN040 OVC070 TX14/0613Z TN11/0605Z"
    },
    {
      "icao": "LZIB",
      "alert": "OK",
      "vis_m": 9999,
      "fzfg": false,
      "metar_trigger": false,
      "taf_trigger": false,
      "metar": "METAR LZIB 052300Z 30015KT 9999 FEW039 SCT041 M03/M07 Q1012 NOSIG",
      "taf": "TAF LZIB 052315Z 0600/0700 30013KT 9999 FEW039"
    },
    {
      "icao": "LZKZ",
      "alert": "OK",
      "vis_m": 2500,
      "fzfg": false,
      "metar_trigger": false,
      "taf_trigger": false,
      "metar": "METAR LZKZ 052300Z 03005KT 2500 SN BR SCT016 OVC022 M02/M03 Q1009 TEMPO 1200 SN OVC013",
      "taf": "TAF LZKZ 052315Z 0600/0700 03006KT 9999 BKN036"
    },
    {
      "icao": "LZTT",
      "alert": "OK",
      "vis_m": 8000,
      "fzfg": false,
      "metar_trigger": false,
      "taf_trigger": false,
      "metar": "METAR LZTT 052300Z 29004KT 8000 -SN FEW026 BKN040 M05/M07 Q1007",
      "taf": "TAF LZTT 052315Z 0600/0700 VRB02KT 9999 FEW024 BKN040"
    },
    {
      "icao": "OEJN",
      "alert": "OK",
      "vis_m": 9999,
      "fzfg": false,
      "metar_trigger": false,
      "taf_trigger": false,
      "metar": "METAR OEJN 052300Z 00000KT CAVOK 25/16 Q1015 NOSIG",
      "taf": "TAF OEJN 052300Z 0600/0706 04005KT 6000 FEW030"
    },
    {
      "icao": "OEMA",
      "alert": "OK",
      "vis_m": 3000,
      "fzfg": false,
      "metar_trigger": false,
      "taf_trigger": false,
      "metar": "METAR OEMA 052300Z 04009KT 3000 DU NSC 20/M01 Q1022 NOSIG",
      "taf": "TAF OEMA 052300Z 0600/0706 09010KT 7000 NSC"
    },
    {
      "icao": "OJAI",
      "alert": "OK",
      "vis_m": 5000,
      "fzfg": false,
      "metar_trigger": false,
      "taf_trigger": false,
      "metar": "METAR OJAI 052300Z 05005KT 5000 HZ NSC 07/01 Q1023 NOSIG",
      "taf": "TAF OJAI 052250Z 0600/0706 VRB02KT 5000 HZ NSC"
    },
    {
      "icao": "OMAA",
      "alert": "OK",
      "vis_m": 9999,
      "fzfg": false,
      "metar_trigger": false,
      "taf_trigger": false,
      "metar": "METAR OMAA 052300Z VRB04KT CAVOK 20/14 Q1019 NOSIG",
      "taf": "TAF OMAA 052300Z 0600/0706 05005KT 8000 FEW025"
    },
    {
      "icao": "OMDB",
      "alert": "OK",
      "vis_m": 9999,
      "fzfg": false,
      "metar_trigger": false,
      "taf_trigger": false,
      "metar": "METAR OMDB 052300Z 06003KT 020V100 CAVOK 19/11 Q1019 NOSIG",
      "taf": "TAF OMDB 052300Z 0600/0706 08007KT 8000 NSC"
    },
    {
      "icao": "UAAA",
      "alert": "OK",
      "vis_m": 3500,
      "fzfg": false,
      "metar_trigger": false,
      "taf_trigger": false,
      "metar": "METAR UAAA 052300Z 14002MPS 3500 BR SCT100 M03/M04 Q1034 NOSIG",
      "taf": "TAF UAAA 052301Z 0600/0624 06003MPS 3100 BR FU BKN011 OVC030 TX01/0609Z TNM03/0602Z"
    },
    {
      "icao": "UBBB",
      "alert": "OK",
      "vis_m": 100,
      "fzfg": false,
      "metar_trigger": false,
      "taf_trigger": false,
      "metar": "METAR UBBB 052300Z 00000KT 0100 R34/0550 R35/0350 FG BKN001 04/04 Q1025 NOSIG",
      "taf": "TAF UBBB 052309Z 0600/0624 30006KT 0200 FG BKN001 TX12/0610Z TN02/0602Z"
    },
    {
      "icao": "UDSG",
      "alert": "OK",
      "vis_m": 6000,
      "fzfg": false,
      "metar_trigger": false,
      "taf_trigger": false,
      "metar": "METAR UDSG 052300Z 01001KT 6000 NSC M17/M20 Q1030 NOSIG",
      "taf": "TAF UDSG 052300Z 0600/0624 VRB06KT 5000 BR FEW040"
    },
    {
      "icao": "UDYZ",
      "alert": "OK",
      "vis_m": 2900,
      "fzfg": false,
      "metar_trigger": false,
      "taf_trigger": false,
      "metar": "METAR UDYZ 052300Z 06001KT 2900 BR NSC M12/M13 Q1033 NOSIG",
      "taf": "TAF UDYZ 052300Z 0600/0624 VRB04KT 2300 BR NSC"
    },
    {
      "icao": "UGKO",
      "alert": "OK",
      "vis_m": 9999,
      "fzfg": false,
      "metar_trigger": false,
      "taf_trigger": false,
      "metar": "METAR UGKO 052300Z 09004KT CAVOK 03/M00 Q1021 NOSIG",
      "taf": "TAF UGKO 052300Z 0600/0624 08007KT CAVOK TX16/0611Z TN03/0600Z"
    }
  ]
}