{
  "ts_utc": "2025-12-26T23:58:50Z",
  "threshold_m": 150,
  "source": "stations_override.txt (ICAO list) + aviationweather.gov (METAR/TAF raw)",
  "station_count": 159,
  "stations": [
    {
      "icao": "BIKF",
      "alert": "OK",
      "vis_m": 9999,
      "fzfg": false,
      "metar_trigger": false,
      "taf_trigger": false,
      "metar": "METAR BIKF 262330Z 25007KT 9999 BKN031 03/M02 Q1045",
      "taf": "TAF BIKF 262230Z 2700/2800 24007KT 9999 BKN030 TX07/2718Z TNM01/2703Z"
    },
    {
      "icao": "BKPR",
      "alert": "OK",
      "vis_m": null,
      "fzfg": false,
      "metar_trigger": false,
      "taf_trigger": false,
      "metar": "",
      "taf": "TAF BKPR 262330Z 2700/2724 35006KT 9999 SCT012 BKN025"
    },
    {
      "icao": "EBCI",
      "alert": "OK",
      "vis_m": 9999,
      "fzfg": false,
      "metar_trigger": false,
      "taf_trigger": false,
      "metar": "METAR EBCI 262350Z 04006KT CAVOK M03/M05 Q1029 NOSIG",
      "taf": "TAF EBCI 262301Z 2700/2806 05006KT CAVOK"
    },
    {
      "icao": "EDDB",
      "alert": "OK",
      "vis_m": 2600,
      "fzfg": false,
      "metar_trigger": false,
      "taf_trigger": false,
      "metar": "METAR EDDB 262350Z AUTO 24004KT 2600 -FZDZ BR OVC002 M01/M02 Q1034 NOSIG",
      "taf": "TAF EDDB 262300Z 2700/2724 25004KT 4000 BR OVC006"
    },
    {
      "icao": "EDDH",
      "alert": "OK",
      "vis_m": 1000,
      "fzfg": false,
      "metar_trigger": false,
      "taf_trigger": false,
      "metar": "METAR EDDH 262350Z AUTO VRB02KT 1000 0900 R23/1100D R33/1500N BCFG BKN001 OVC007 01/01 Q1035 TEMPO 0500 FG OVC002",
      "taf": "TAF EDDH 262300Z 2700/2806 VRB03KT 2000 BR OVC003"
    },
    {
      "icao": "EDDK",
      "alert": "OK",
      "vis_m": 9999,
      "fzfg": false,
      "metar_trigger": false,
      "taf_trigger": false,
      "metar": "METAR EDDK 262350Z AUTO 06004KT 010V170 CAVOK M04/M05 Q1032 NOSIG",
      "taf": "TAF EDDK 262300Z 2700/2806 VRB03KT CAVOK"
    },
    {
      "icao": "EDDN",
      "alert": "OK",
      "vis_m": 9999,
      "fzfg": false,
      "metar_trigger": false,
      "taf_trigger": false,
      "metar": "METAR EDDN 262350Z AUTO 36002KT CAVOK M05/M06 Q1030",
      "taf": "TAF EDDN 262300Z 2700/2724 VRB03KT CAVOK"
    },
    {
      "icao": "EDDS",
      "alert": "OK",
      "vis_m": 9999,
      "fzfg": false,
      "metar_trigger": false,
      "taf_trigger": false,
      "metar": "METAR EDDS 262350Z AUTO 04004KT CAVOK M02/M04 Q1027",
      "taf": "TAF EDDS 262300Z 2700/2724 01004KT CAVOK"
    },
    {
      "icao": "EDFH",
      "alert": "OK",
      "vis_m": 9999,
      "fzfg": false,
      "metar_trigger": false,
      "taf_trigger": false,
      "metar": "METAR EDFH 262350Z 10009KT CAVOK 01/M03 Q1028",
      "taf": "TAF EDFH 262300Z 2700/2724 10011KT CAVOK"
    },
    {
      "icao": "EDJA",
      "alert": "OK",
      "vis_m": 9000,
      "fzfg": false,
      "metar_trigger": false,
      "taf_trigger": false,
      "metar": "METAR EDJA 262350Z AUTO 06009KT 9000 // OVC004/// M02/M03 Q1026",
      "taf": "TAF EDJA 261700Z 2618/2703 06010KT 9999 OVC005"
    },
    {
      "icao": "EDLW",
      "alert": "OK",
      "vis_m": 9999,
      "fzfg": false,
      "metar_trigger": false,
      "taf_trigger": false,
      "metar": "METAR EDLW 262350Z AUTO 03003KT 9999 // NCD M03/M05 Q1032",
      "taf": "TAF EDLW 261700Z 2618/2718 04004KT CAVOK"
    },
    {
      "icao": "EDNY",
      "alert": "OK",
      "vis_m": 9999,
      "fzfg": false,
      "metar_trigger": false,
      "taf_trigger": false,
      "metar": "METAR EDNY 262350Z AUTO 06008KT 9999 // OVC014/// M01/M03 Q1027",
      "taf": "TAF EDNY 261700Z 2618/2703 03007KT 9999 BKN015"
    },
    {
      "icao": "EDSB",
      "alert": "OK",
      "vis_m": 9999,
      "fzfg": false,
      "metar_trigger": false,
      "taf_trigger": false,
      "metar": "METAR EDSB 262350Z AUTO 04013KT 9999 // NCD 01/M02 Q1028",
      "taf": "TAF EDSB 262300Z 2700/2724 01004KT CAVOK"
    },
    {
      "icao": "EETN",
      "alert": "OK",
      "vis_m": 600,
      "fzfg": false,
      "metar_trigger": false,
      "taf_trigger": false,
      "metar": "METAR EETN 262350Z 27007KT 0600 R26/1800U -DZ FG VV002 03/03 Q1018",
      "taf": "TAF EETN 262330Z 2700/2724 28008KT 0400 FG VV002"
    },
    {
      "icao": "EFTU",
      "alert": "OK",
      "vis_m": 500,
      "fzfg": false,
      "metar_trigger": false,
      "taf_trigger": false,
      "metar": "METAR EFTU 262350Z AUTO 26003KT 0500 R26/0650N FG VV002 01/01 Q1018",
      "taf": "TAF EFTU 262329Z 2700/2724 28002KT 0300 FG VV001"
    },
    {
      "icao": "EGBB",
      "alert": "OK",
      "vis_m": 9999,
      "fzfg": false,
      "metar_trigger": false,
      "taf_trigger": false,
      "metar": "METAR EGBB 262350Z 02005KT CAVOK 02/01 Q1035",
      "taf": "TAF EGBB 262301Z 2700/2724 03008KT 9999 FEW030"
    },
    {
      "icao": "EGGP",
      "alert": "OK",
      "vis_m": 9999,
      "fzfg": false,
      "metar_trigger": false,
      "taf_trigger": false,
      "metar": "METAR EGGP 262350Z 05007KT CAVOK 02/00 Q1036",
      "taf": "TAF EGGP 262303Z 2700/2724 04007KT CAVOK"
    },
    {
      "icao": "EGGW",
      "alert": "OK",
      "vis_m": 5000,
      "fzfg": false,
      "metar_trigger": false,
      "taf_trigger": false,
      "metar": "METAR EGGW 262350Z AUTO 03008KT 5000 BR BKN002 01/00 Q1033",
      "taf": "TAF EGGW 262259Z 2700/2724 03008KT 9999 FEW010"
    },
    {
      "icao": "EGKK",
      "alert": "OK",
      "vis_m": 9999,
      "fzfg": false,
      "metar_trigger": false,
      "taf_trigger": false,
      "metar": "METAR EGKK 262350Z 02004KT 9999 FEW017 02/02 Q1032",
      "taf": "TAF EGKK 262257Z 2700/2806 04007KT 9999 FEW012"
    },
    {
      "icao": "EGNM",
      "alert": "OK",
      "vis_m": 9999,
      "fzfg": false,
      "metar_trigger": false,
      "taf_trigger": false,
      "metar": "METAR EGNM 262320Z 02008KT CAVOK 03/01 Q1037",
      "taf": "TAF EGNM 262302Z 2700/2724 04008KT CAVOK"
    },
    {
      "icao": "EGPD",
      "alert": "OK",
      "vis_m": 9000,
      "fzfg": false,
      "metar_trigger": false,
      "taf_trigger": false,
      "metar": "METAR EGPD 262350Z AUTO 31010KT 9000 -RA OVC018 04/01 Q1041 TEMPO BKN014",
      "taf": "TAF EGPD 262256Z 2700/2724 31006KT 9999 BKN015"
    },
    {
      "icao": "EGPF",
      "alert": "OK",
      "vis_m": 9999,
      "fzfg": false,
      "metar_trigger": false,
      "taf_trigger": false,
      "metar": "METAR EGPF 262350Z AUTO VRB01KT 9999 OVC021 03/02 Q1040",
      "taf": "TAF EGPF 262303Z 2700/2724 07005KT 9999 SCT025"
    },
    {
      "icao": "EHBK",
      "alert": "OK",
      "vis_m": 9999,
      "fzfg": false,
      "metar_trigger": false,
      "taf_trigger": false,
      "metar": "METAR EHBK 262355Z AUTO 04008KT 9999 NSC M02/M04 Q1030 NOSIG",
      "taf": "TAF EHBK 262317Z 2700/2806 05007KT CAVOK"
    },
    {
      "icao": "EHEH",
      "alert": "OK",
      "vis_m": 9999,
      "fzfg": false,
      "metar_trigger": false,
      "taf_trigger": false,
      "metar": "METAR EHEH 262325Z AUTO 06007KT 9999 NCD M01/M04 Q1032 BLU",
      "taf": "TAF EHEH 262315Z 2700/2806 06006KT CAVOK"
    },
    {
      "icao": "EKBI",
      "alert": "OK",
      "vis_m": 3300,
      "fzfg": false,
      "metar_trigger": false,
      "taf_trigger": false,
      "metar": "METAR EKBI 262350Z AUTO 25004KT 3300 R09/P1500N R27/0900U BCFG BKN008/// 03/03 Q1033",
      "taf": "TAF EKBI 262327Z 2700/2724 28004KT 9000 NSC"
    },
    {
      "icao": "EKCH",
      "alert": "OK",
      "vis_m": 7000,
      "fzfg": false,
      "metar_trigger": false,
      "taf_trigger": false,
      "metar": "METAR EKCH 262350Z 29007KT 7000 OVC003 04/03 Q1032 TEMPO 3000 BR",
      "taf": "TAF EKCH 262327Z 2700/2724 30006KT 6000 OVC003"
    },
    {
      "icao": "ENAL",
      "alert": "OK",
      "vis_m": 9999,
      "fzfg": false,
      "metar_trigger": false,
      "taf_trigger": false,
      "metar": "METAR ENAL 262350Z AUTO 28016KT 240V310 9999 -RA OVC037/// 07/05 Q1032 REDZRA",
      "taf": "TAF ENAL 262300Z 2700/2709 30018KT 9999 FEW025 BKN040"
    },
    {
      "icao": "ENBR",
      "alert": "OK",
      "vis_m": 6000,
      "fzfg": false,
      "metar_trigger": false,
      "taf_trigger": false,
      "metar": "METAR ENBR 262350Z 03003KT 6000 -SHRA FEW004 BKN008 04/03 Q1035 RMK WIND 1200FT 32014KT",
      "taf": "TAF ENBR 262300Z 2700/2724 35005KT 9999 FEW006 BKN018"
    },
    {
      "icao": "ENGM",
      "alert": "OK",
      "vis_m": 9999,
      "fzfg": false,
      "metar_trigger": false,
      "taf_trigger": false,
      "metar": "METAR ENGM 262350Z 17004KT 120V220 9999 FEW001 M05/M06 Q1024",
      "taf": "TAF ENGM 262300Z 2700/2724 VRB03KT CAVOK"
    },
    {
      "icao": "ENHD",
      "alert": "OK",
      "vis_m": 3600,
      "fzfg": false,
      "metar_trigger": false,
      "taf_trigger": false,
      "metar": "METAR ENHD 262350Z AUTO 35012KT 3600 FEW002/// OVC005/// 07/06 Q1035",
      "taf": "TAF ENHD 261400Z 2615/2623 32005KT CAVOK"
    },
    {
      "icao": "ENTC",
      "alert": "OK",
      "vis_m": 9999,
      "fzfg": false,
      "metar_trigger": false,
      "taf_trigger": false,
      "metar": "METAR ENTC 262350Z AUTO 17019KT 9999 -RA FEW005/// SCT015/// BKN019/// 05/02 Q0992 RMK WIND 2600FT 19037KT",
      "taf": "TAF ENTC 262300Z 2700/2724 21018KT 9999 -RA FEW020 BKN035"
    },
    {
      "icao": "ENTO",
      "alert": "OK",
      "vis_m": 9999,
      "fzfg": false,
      "metar_trigger": false,
      "taf_trigger": false,
      "metar": "METAR ENTO 262350Z AUTO VRB02KT 9999 NCD M02/M02 Q1027",
      "taf": "TAF ENTO 262300Z 2700/2724 30008KT CAVOK"
    },
    {
      "icao": "ENVA",
      "alert": "OK",
      "vis_m": 9999,
      "fzfg": false,
      "metar_trigger": false,
      "taf_trigger": false,
      "metar": "METAR ENVA 262350Z 24018KT 9999 FEW019 BKN028 07/05 Q1021 RMK WIND 670FT 26022G34KT",
      "taf": "TAF ENVA 262300Z 2700/2724 23025KT 9999 SCT012 BKN030"
    },
    {
      "icao": "ENZV",
      "alert": "OK",
      "vis_m": 9999,
      "fzfg": false,
      "metar_trigger": false,
      "taf_trigger": false,
      "metar": "METAR ENZV 262350Z VRB02KT 9999 R18/P2000N R36/P2000N R10/P2000N BCFG OVC012 03/03 Q1035",
      "taf": "TAF ENZV 262300Z 2700/2724 03005KT 9999"
    },
    {
      "icao": "EPGD",
      "alert": "OK",
      "vis_m": 4000,
      "fzfg": false,
      "metar_trigger": false,
      "taf_trigger": false,
      "metar": "METAR EPGD 262330Z 28011KT 4000 -DZ BR OVC002 04/04 Q1029",
      "taf": "TAF EPGD 262330Z 2700/2724 28010KT 6000 OVC002"
    },
    {
      "icao": "EPKK",
      "alert": "OK",
      "vis_m": 1600,
      "fzfg": false,
      "metar_trigger": false,
      "taf_trigger": false,
      "metar": "METAR EPKK 262330Z 24007KT 1600 SN BR OVC006 M03/M04 Q1031",
      "taf": "TAF EPKK 262330Z 2700/2724 25007KT 4000 BR OVC009"
    },
    {
      "icao": "EPKT",
      "alert": "OK",
      "vis_m": 1200,
      "fzfg": false,
      "metar_trigger": false,
      "taf_trigger": false,
      "metar": "METAR EPKT 262330Z 26005KT 1200 SN BR OVC002 M03/M03 Q1031 REFZDZ",
      "taf": "TAF EPKT 262330Z 2700/2724 26004KT 3500 BR OVC002"
    },
    {
      "icao": "EPLB",
      "alert": "OK",
      "vis_m": 1300,
      "fzfg": false,
      "metar_trigger": false,
      "taf_trigger": false,
      "metar": "METAR EPLB 262330Z 30009KT 1300 R25/P2000N BR OVC002 00/M00 Q1026",
      "taf": "TAF EPLB 262330Z 2700/2724 29010KT 3000 BR OVC003"
    },
    {
      "icao": "EPMO",
      "alert": "OK",
      "vis_m": 1300,
      "fzfg": false,
      "metar_trigger": false,
      "taf_trigger": false,
      "metar": "METAR EPMO 262330Z 26007KT 1300 R08/1300N BR OVC001 01/01 Q1028",
      "taf": "TAF EPMO 262330Z 2700/2724 27010KT 1600 BR OVC002"
    },
    {
      "icao": "EPPO",
      "alert": "OK",
      "vis_m": 1400,
      "fzfg": false,
      "metar_trigger": false,
      "taf_trigger": false,
      "metar": "METAR EPPO 262330Z 25005KT 1400 R28/P2000N -FZDZ BR OVC001 M01/M02 Q1032",
      "taf": "TAF EPPO 262330Z 2700/2724 28004KT 1500 -FZDZ BR OVC001"
    },
    {
      "icao": "EPRA",
      "alert": "OK",
      "vis_m": 3000,
      "fzfg": false,
      "metar_trigger": false,
      "taf_trigger": false,
      "metar": "METAR EPRA 262330Z 28008KT 3000 BR OVC002 M00/M01 Q1028",
      "taf": "TAF EPRA 262330Z 2700/2709 29007KT 3000 BR OVC003"
    },
    {
      "icao": "EPRZ",
      "alert": "OK",
      "vis_m": 6000,
      "fzfg": false,
      "metar_trigger": false,
      "taf_trigger": false,
      "metar": "METAR EPRZ 262330Z 27011KT 6000 -FZDZ OVC004 M01/M02 Q1028",
      "taf": "TAF EPRZ 262330Z 2700/2724 28012KT 5000 BR OVC003"
    },
    {
      "icao": "EPSC",
      "alert": "OK",
      "vis_m": 300,
      "fzfg": false,
      "metar_trigger": false,
      "taf_trigger": false,
      "metar": "METAR EPSC 262330Z 20003KT 0300 R31/0900N -FZDZ FG VV001 01/01 Q1032",
      "taf": "TAF EPSC 262330Z 2700/2724 VRB02KT 0800 FG OVC002"
    },
    {
      "icao": "EPSY",
      "alert": "OK",
      "vis_m": 6000,
      "fzfg": false,
      "metar_trigger": false,
      "taf_trigger": false,
      "metar": "METAR EPSY 262330Z 30007KT 270V330 6000 OVC002 04/04 Q1027",
      "taf": "TAF EPSY 262330Z 2700/2709 31006KT 5000 BR OVC002"
    },
    {
      "icao": "EPWA",
      "alert": "OK",
      "vis_m": 1700,
      "fzfg": false,
      "metar_trigger": false,
      "taf_trigger": false,
      "metar": "METAR EPWA 262330Z 28009KT 1700 BR OVC001 00/00 Q1028 NOSIG",
      "taf": "TAF EPWA 262330Z 2700/2724 28008KT 2500 BR OVC003"
    },
    {
      "icao": "EPWR",
      "alert": "OK",
      "vis_m": 3500,
      "fzfg": false,
      "metar_trigger": false,
      "taf_trigger": false,
      "metar": "METAR EPWR 262330Z 28004KT 3500 -SG BR FEW003 SCT009 OVC011 M02/M03 Q1033",
      "taf": "TAF EPWR 262330Z 2700/2724 30005KT 5000 -SN BR OVC010"
    },
    {
      "icao": "ESGG",
      "alert": "WARNING",
      "vis_m": 100,
      "fzfg": true,
      "metar_trigger": false,
      "taf_trigger": true,
      "metar": "METAR ESGG 262350Z 20007KT 0100 R03/0450N R21/0800N FG VV002 00/M00 Q1029",
      "taf": "TAF ESGG 262330Z 2700/2724 VRB02KT 0100 FZFG VV002"
    },
    {
      "icao": "ESKN",
      "alert": "OK",
      "vis_m": 9999,
      "fzfg": false,
      "metar_trigger": false,
      "taf_trigger": false,
      "metar": "METAR ESKN 262350Z 27008KT CAVOK 01/00 Q1024",
      "taf": "TAF ESKN 262330Z 2700/2724 28005KT CAVOK"
    },
    {
      "icao": "ESMS",
      "alert": "OK",
      "vis_m": 100,
      "fzfg": false,
      "metar_trigger": false,
      "taf_trigger": false,
      "metar": "METAR ESMS 262350Z 31009KT 0100 R17/0600N R35/0500N FG VV001 03/03 Q1031",
      "taf": "TAF ESMS 262327Z 2700/2724 33004KT 0100 FG VV001"
    },
    {
      "icao": "ESSA",
      "alert": "OK",
      "vis_m": 9999,
      "fzfg": false,
      "metar_trigger": false,
      "taf_trigger": false,
      "metar": "METAR ESSA 262350Z 23005KT CAVOK M02/M02 Q1021 NOSIG",
      "taf": "TAF ESSA 262330Z 2700/2724 25005KT 9999 FEW002"
    },
    {
      "icao": "EYKA",
      "alert": "OK",
      "vis_m": 4000,
      "fzfg": false,
      "metar_trigger": false,
      "taf_trigger": false,
      "metar": "METAR EYKA 262350Z AUTO 28005KT 250V310 4000 -UP OVC004/// 04/04 Q1023",
      "taf": "TAF EYKA 262302Z 2700/2724 VRB04KT 5000 BR OVC005"
    },
    {
      "icao": "EYPA",
      "alert": "OK",
      "vis_m": 9999,
      "fzfg": false,
      "metar_trigger": false,
      "taf_trigger": false,
      "metar": "METAR EYPA 262350Z AUTO 31003KT 220V360 9999 OVC008/// 06/05 Q1024",
      "taf": "TAF EYPA 262301Z 2700/2724 VRB04KT 9000 OVC005"
    },
    {
      "icao": "EYVI",
      "alert": "OK",
      "vis_m": 5000,
      "fzfg": false,
      "metar_trigger": false,
      "taf_trigger": false,
      "metar": "METAR EYVI 262350Z 33007KT 300V360 5000 BR OVC002 03/02 Q1021 NOSIG",
      "taf": "TAF EYVI 262303Z 2700/2724 32008KT 5000 BR OVC002"
    },
    {
      "icao": "GCFV",
      "alert": "OK",
      "vis_m": 9999,
      "fzfg": false,
      "metar_trigger": false,
      "taf_trigger": false,
      "metar": "METAR GCFV 262330Z AUTO 25003KT CAVOK 15/12 Q1019",
      "taf": ""
    },
    {
      "icao": "GCLP",
      "alert": "OK",
      "vis_m": 9999,
      "fzfg": false,
      "metar_trigger": false,
      "taf_trigger": false,
      "metar": "METAR GCLP 262330Z 30004KT 240V360 9999 SCT050 16/11 Q1020 NOSIG",
      "taf": ""
    },
    {
      "icao": "GCTS",
      "alert": "OK",
      "vis_m": 9999,
      "fzfg": false,
      "metar_trigger": false,
      "taf_trigger": false,
      "metar": "METAR GCTS 262330Z 01008KT 9999 FEW040 17/08 Q1020 NOSIG",
      "taf": "TAF GCTS 262000Z 2621/2721 36009KT 9999 FEW035 TX23/2714Z TN15/2706Z"
    },
    {
      "icao": "GMAD",
      "alert": "OK",
      "vis_m": 9999,
      "fzfg": false,
      "metar_trigger": false,
      "taf_trigger": false,
      "metar": "METAR GMAD 262330Z 00000KT 9999 FEW020 SCT066 11/11 Q1017 NOSIG",
      "taf": "TAF GMAD 262300Z 2700/2806 12004KT 9999 FEW020 SCT066"
    },
    {
      "icao": "GMMN",
      "alert": "OK",
      "vis_m": 9999,
      "fzfg": false,
      "metar_trigger": false,
      "taf_trigger": false,
      "metar": "METAR GMMN 262330Z 21010KT 9999 BKN016 11/10 Q1014 NOSIG",
      "taf": "TAF GMMN 262300Z 2700/2806 20012KT 9999 BKN016"
    },
    {
      "icao": "GMMX",
      "alert": "OK",
      "vis_m": 8000,
      "fzfg": false,
      "metar_trigger": false,
      "taf_trigger": false,
      "metar": "METAR GMMX 262330Z VRB02KT 8000 SCT023 SCT080 09/08 Q1015 NOSIG",
      "taf": "TAF GMMX 262300Z 2700/2806 26006KT 8000 SCT023 BKN090"
    },
    {
      "icao": "HEGN",
      "alert": "OK",
      "vis_m": 9999,
      "fzfg": false,
      "metar_trigger": false,
      "taf_trigger": false,
      "metar": "METAR HEGN 262300Z 29012KT CAVOK 17/09 Q1013 NOSIG",
      "taf": "TAF HEGN 262300Z 2700/2806 29014KT CAVOK"
    },
    {
      "icao": "HEMA",
      "alert": "OK",
      "vis_m": 9999,
      "fzfg": false,
      "metar_trigger": false,
      "taf_trigger": false,
      "metar": "METAR HEMA 262300Z 28011KT CAVOK 17/10 Q1014 NOSIG",
      "taf": "TAF HEMA 262300Z 2700/2806 30014KT CAVOK"
    },
    {
      "icao": "HESH",
      "alert": "OK",
      "vis_m": 9999,
      "fzfg": false,
      "metar_trigger": false,
      "taf_trigger": false,
      "metar": "METAR HESH 262300Z 33006KT CAVOK 18/07 Q1013 NOSIG",
      "taf": "TAF HESH 262300Z 2700/2806 34012KT CAVOK"
    },
    {
      "icao": "HESX",
      "alert": "OK",
      "vis_m": 2000,
      "fzfg": false,
      "metar_trigger": false,
      "taf_trigger": false,
      "metar": "METAR HESX 262300Z 00000KT 2000 BR NSC 12/10 Q1016 NOSIG",
      "taf": "TAF HESX 262302Z 2700/2806 VRB03KT 6000 NSC"
    },
    {
      "icao": "LATI",
      "alert": "OK",
      "vis_m": 9999,
      "fzfg": false,
      "metar_trigger": false,
      "taf_trigger": false,
      "metar": "METAR LATI 262350Z 19003KT CAVOK 03/01 Q1022 NOSIG",
      "taf": "TAF LATI 262300Z 2700/2724 VRB05KT CAVOK TX15/2712Z TN00/2705Z"
    },
    {
      "icao": "LBPD",
      "alert": "OK",
      "vis_m": 9999,
      "fzfg": false,
      "metar_trigger": false,
      "taf_trigger": false,
      "metar": "METAR LBPD 262330Z AUTO 30017KT 9999 NCD 03/M00 Q1021",
      "taf": "TAF LBPD 262300Z 2700/2724 29018KT 9999 SCT020"
    },
    {
      "icao": "LBSF",
      "alert": "OK",
      "vis_m": 9999,
      "fzfg": false,
      "metar_trigger": false,
      "taf_trigger": false,
      "metar": "METAR LBSF 262330Z AUTO 28014KT 9999 OVC012/// 00/M02 Q1023 NOSIG",
      "taf": "TAF LBSF 262300Z 2700/2724 29016KT 9999 BKN010"
    },
    {
      "icao": "LBWN",
      "alert": "OK",
      "vis_m": 9999,
      "fzfg": false,
      "metar_trigger": false,
      "taf_trigger": false,
      "metar": "METAR LBWN 262330Z AUTO 29009KT 270V330 9999 BKN046/// 01/M02 Q1021 NOSIG",
      "taf": "TAF LBWN 262300Z 2700/2724 33012KT 9999 SCT015 BKN040"
    },
    {
      "icao": "LCLK",
      "alert": "OK",
      "vis_m": 9999,
      "fzfg": false,
      "metar_trigger": false,
      "taf_trigger": false,
      "metar": "METAR LCLK 262330Z 31004KT 9999 FEW030TCU SCT060 12/09 Q1011 NOSIG",
      "taf": "TAF LCLK 262330Z 2700/2800 29007KT 9999 FEW025 FEW030TCU"
    },
    {
      "icao": "LCPH",
      "alert": "OK",
      "vis_m": 9999,
      "fzfg": false,
      "metar_trigger": false,
      "taf_trigger": false,
      "metar": "METAR LCPH 262330Z 02007KT 360V080 9999 TS SCT035 BKN050 18/11 Q1011 TEMPO 4000 TSRA",
      "taf": "TAF LCPH 262330Z 2700/2800 33008KT 9999 FEW025 FEW030TCU SCT035"
    },
    {
      "icao": "LEAL",
      "alert": "OK",
      "vis_m": 9999,
      "fzfg": false,
      "metar_trigger": false,
      "taf_trigger": false,
      "metar": "METAR LEAL 262330Z 29004KT 260V330 9999 FEW038 10/09 Q1015 NOSIG",
      "taf": "TAF LEAL 262300Z 2700/2724 31005KT 9999 SCT040 TX15/2713Z TN07/2706Z"
    },
    {
      "icao": "LEBB",
      "alert": "OK",
      "vis_m": 9999,
      "fzfg": false,
      "metar_trigger": false,
      "taf_trigger": false,
      "metar": "METAR LEBB 262330Z AUTO VRB02KT 9999 OVC055 07/07 Q1018",
      "taf": "TAF LEBB 262300Z 2700/2724 11005KT 9999 FEW040 TX14/2714Z TN03/2708Z"
    },
    {
      "icao": "LEBL",
      "alert": "OK",
      "vis_m": 9000,
      "fzfg": false,
      "metar_trigger": false,
      "taf_trigger": false,
      "metar": "METAR LEBL 262330Z 05014KT 9000 FEW010 SCT029 13/11 Q1017 NOSIG",
      "taf": "TAF LEBL 262300Z 2700/2724 07012KT 9999 SCT014 TX14/2712Z TN11/2706Z"
    },
    {
      "icao": "LECH",
      "alert": "OK",
      "vis_m": 6000,
      "fzfg": false,
      "metar_trigger": false,
      "taf_trigger": false,
      "metar": "METAR LECH 262330Z AUTO VRB02KT 6000 RA BKN016 BKN021 07/07 Q1016",
      "taf": ""
    },
    {
      "icao": "LEMD",
      "alert": "OK",
      "vis_m": 9999,
      "fzfg": false,
      "metar_trigger": false,
      "taf_trigger": false,
      "metar": "METAR LEMD 262330Z VRB01KT 9999 FEW040 03/03 Q1015 NOSIG",
      "taf": "TAF LEMD 262300Z 2700/2806 VRB03KT CAVOK TX12/2715Z TN00/2706Z"
    },
    {
      "icao": "LEMG",
      "alert": "OK",
      "vis_m": 9999,
      "fzfg": false,
      "metar_trigger": false,
      "taf_trigger": false,
      "metar": "METAR LEMG 262330Z 30005KT 9999 FEW080 07/06 Q1014 NOSIG",
      "taf": "TAF LEMG 262300Z 2700/2724 29005KT 9999 FEW045 TX15/2714Z TN05/2706Z"
    },
    {
      "icao": "LEVC",
      "alert": "OK",
      "vis_m": 9999,
      "fzfg": false,
      "metar_trigger": false,
      "taf_trigger": false,
      "metar": "METAR LEVC 262330Z 29004KT 9999 BKN022 10/09 Q1016 NOSIG",
      "taf": "TAF LEVC 262300Z 2700/2724 30005KT 9999 FEW025 BKN030 TX14/2713Z TN07/2706Z"
    },
    {
      "icao": "LEXJ",
      "alert": "OK",
      "vis_m": 5000,
      "fzfg": false,
      "metar_trigger": false,
      "taf_trigger": false,
      "metar": "METAR LEXJ 262330Z AUTO 22001KT 5000 BR BKN069 07/06 Q1017",
      "taf": "TAF LEXJ 262000Z 2621/2721 VRB03KT 9999 BKN045 TX13/2714Z TN03/2708Z"
    },
    {
      "icao": "LEZG",
      "alert": "OK",
      "vis_m": 400,
      "fzfg": false,
      "metar_trigger": false,
      "taf_trigger": false,
      "metar": "METAR LEZG 262330Z 00000KT 0400 R30R/1700N R12R/P2000 R30L/1400U R12L/P2000 FG SCT001 BKN010 06/06 Q1018 NOSIG",
      "taf": "TAF LEZG 262300Z 2700/2724 VRB04KT 9999 FEW015 BKN025 TX12/2714Z TN05/2706Z"
    },
    {
      "icao": "LEZL",
      "alert": "OK",
      "vis_m": 9999,
      "fzfg": false,
      "metar_trigger": false,
      "taf_trigger": false,
      "metar": "METAR LEZL 262330Z 07003KT CAVOK 07/05 Q1014 NOSIG",
      "taf": "TAF LEZL 262000Z 2621/2721 VRB03KT 9999 FEW030 TX16/2715Z TN06/2707Z"
    },
    {
      "icao": "LFBD",
      "alert": "OK",
      "vis_m": 9999,
      "fzfg": false,
      "metar_trigger": false,
      "taf_trigger": false,
      "metar": "METAR LFBD 262330Z AUTO 06007KT CAVOK 09/04 Q1019 NOSIG",
      "taf": "TAF LFBD 262300Z 2700/2806 07010KT CAVOK TX12/2714Z TN03/2707Z"
    },
    {
      "icao": "LFLL",
      "alert": "OK",
      "vis_m": 4300,
      "fzfg": false,
      "metar_trigger": false,
      "taf_trigger": false,
      "metar": "METAR LFLL 262330Z AUTO 27003KT 4300 BR OVC003 00/M00 Q1025",
      "taf": ""
    },
    {
      "icao": "LFLS",
      "alert": "OK",
      "vis_m": 4500,
      "fzfg": false,
      "metar_trigger": false,
      "taf_trigger": false,
      "metar": "METAR LFLS 262330Z AUTO 00000KT 4500 BR BKN005 BKN013 M02/M02 Q1023",
      "taf": "TAF LFLS 261400Z 2615/2715 36006KT CAVOK"
    },
    {
      "icao": "LFMN",
      "alert": "OK",
      "vis_m": 9999,
      "fzfg": false,
      "metar_trigger": false,
      "taf_trigger": false,
      "metar": "METAR LFMN 262330Z 33011KT CAVOK 08/02 Q1022 NOSIG",
      "taf": "TAF LFMN 262000Z 2621/2803 33010KT CAVOK"
    },
    {
      "icao": "LFOB",
      "alert": "OK",
      "vis_m": 6000,
      "fzfg": false,
      "metar_trigger": false,
      "taf_trigger": false,
      "metar": "METAR LFOB 262330Z AUTO 05004KT 020V090 6000 NSC M03/M04 Q1029 NOSIG",
      "taf": "TAF LFOB 262300Z 2700/2724 04006KT 6000 NSC"
    },
    {
      "icao": "LFPO",
      "alert": "OK",
      "vis_m": 9000,
      "fzfg": false,
      "metar_trigger": false,
      "taf_trigger": false,
      "metar": "METAR LFPO 262330Z AUTO 03007KT 9000 NSC M00/M02 Q1027",
      "taf": "TAF LFPO 261700Z 2618/2724 04007KT CAVOK"
    },
    {
      "icao": "LFSB",
      "alert": "OK",
      "vis_m": 9000,
      "fzfg": false,
      "metar_trigger": false,
      "taf_trigger": false,
      "metar": "METAR LFSB 262330Z AUTO 36006KT 9000 OVC019 M00/M01 Q1027 TEMPO 4000 BR BKN010",
      "taf": "TAF LFSB 262300Z 2700/2724 34005KT 7000 OVC017"
    },
    {
      "icao": "LGAV",
      "alert": "OK",
      "vis_m": 9999,
      "fzfg": false,
      "metar_trigger": false,
      "taf_trigger": false,
      "metar": "METAR LGAV 262350Z VRB03KT 9999 FEW020 06/03 Q1020 NOSIG",
      "taf": "TAF LGAV 262300Z 2700/2724 01014KT 9999 FEW018 SCT030 BKN070"
    },
    {
      "icao": "LGTS",
      "alert": "OK",
      "vis_m": 9999,
      "fzfg": false,
      "metar_trigger": false,
      "taf_trigger": false,
      "metar": "METAR LGTS 262350Z 33013G23KT 9999 FEW025 07/02 Q1022 NOSIG",
      "taf": "TAF LGTS 262300Z 2700/2724 34015KT 9999 FEW025"
    },
    {
      "icao": "LHBP",
      "alert": "OK",
      "vis_m": 9000,
      "fzfg": false,
      "metar_trigger": false,
      "taf_trigger": false,
      "metar": "METAR LHBP 262330Z 29003KT 260V330 9000 NSC M04/M05 Q1028 TEMPO 4000 BCFG",
      "taf": "TAF LHBP 262315Z 2700/2724 VRB02KT 6000 NSC"
    },
    {
      "icao": "LHDC",
      "alert": "OK",
      "vis_m": 9999,
      "fzfg": false,
      "metar_trigger": false,
      "taf_trigger": false,
      "metar": "METAR LHDC 262315Z AUTO VRB02KT CAVOK 01/M03 Q1028",
      "taf": ""
    },
    {
      "icao": "LIBD",
      "alert": "OK",
      "vis_m": 9999,
      "fzfg": false,
      "metar_trigger": false,
      "taf_trigger": false,
      "metar": "METAR LIBD 262350Z 31004KT 260V350 9999 BKN025 10/09 Q1023",
      "taf": "TAF LIBD 262300Z 2700/2724 26006KT 9999 SCT020"
    },
    {
      "icao": "LIBG",
      "alert": "OK",
      "vis_m": null,
      "fzfg": false,
      "metar_trigger": false,
      "taf_trigger": false,
      "metar": "",
      "taf": "TAF LIBG 261700Z 2618/2703 03007KT CAVOK"
    },
    {
      "icao": "LIBP",
      "alert": "OK",
      "vis_m": 9999,
      "fzfg": false,
      "metar_trigger": false,
      "taf_trigger": false,
      "metar": "METAR LIBP 262350Z AUTO 22006KT 9999 OVC047/// 08/07 Q1027",
      "taf": "TAF LIBP 262300Z 2700/2724 VRB05KT 9999 OVC030"
    },
    {
      "icao": "LIBR",
      "alert": "OK",
      "vis_m": 9999,
      "fzfg": false,
      "metar_trigger": false,
      "taf_trigger": false,
      "metar": "METAR LIBR 262350Z 01010KT 9999 SCT025 13/10 Q1022",
      "taf": "TAF LIBR 262300Z 2700/2724 35012KT 9999 SCT020"
    },
    {
      "icao": "LICA",
      "alert": "OK",
      "vis_m": 9999,
      "fzfg": false,
      "metar_trigger": false,
      "taf_trigger": false,
      "metar": "METAR LICA 262350Z AUTO 03009KT 9999 NCD 11/08 Q1020",
      "taf": "TAF LICA 262300Z 2700/2724 04010KT CAVOK"
    },
    {
      "icao": "LICC",
      "alert": "OK",
      "vis_m": 9999,
      "fzfg": false,
      "metar_trigger": false,
      "taf_trigger": false,
      "metar": "METAR LICC 262350Z 08022KT 9999 BKN050 16/14 Q1018",
      "taf": "TAF LICC 262300Z 2700/2724 07015KT 9999 SCT040"
    },
    {
      "icao": "LICJ",
      "alert": "OK",
      "vis_m": 9999,
      "fzfg": false,
      "metar_trigger": false,
      "taf_trigger": false,
      "metar": "METAR LICJ 262320Z 17005KT CAVOK 12/09 Q1018",
      "taf": "TAF LICJ 262300Z 2700/2724 VRB05KT 9999 FEW040"
    },
    {
      "icao": "LIMC",
      "alert": "OK",
      "vis_m": 9999,
      "fzfg": false,
      "metar_trigger": false,
      "taf_trigger": false,
      "metar": "METAR LIMC 262350Z 01002KT 9999 BKN030 06/03 Q1029 NOSIG",
      "taf": "TAF LIMC 262300Z 2700/2806 VRB05KT 9999 FEW030"
    },
    {
      "icao": "LIME",
      "alert": "OK",
      "vis_m": 9999,
      "fzfg": false,
      "metar_trigger": false,
      "taf_trigger": false,
      "metar": "METAR LIME 262350Z 34004KT CAVOK 03/03 Q1029 NOSIG",
      "taf": "TAF LIME 262300Z 2700/2724 VRB05KT 7000 SCT030"
    },
    {
      "icao": "LIMF",
      "alert": "OK",
      "vis_m": 9999,
      "fzfg": false,
      "metar_trigger": false,
      "taf_trigger": false,
      "metar": "METAR LIMF 262350Z VRB02KT 9999 BKN030 05/02 Q1029",
      "taf": "TAF LIMF 262300Z 2700/2724 VRB05KT 9999 FEW040"
    },
    {
      "icao": "LIMJ",
      "alert": "OK",
      "vis_m": 9999,
      "fzfg": false,
      "metar_trigger": false,
      "taf_trigger": false,
      "metar": "METAR LIMJ 262350Z 03019KT CAVOK 08/00 Q1026",
      "taf": "TAF LIMJ 262300Z 2700/2724 03015KT CAVOK"
    },
    {
      "icao": "LIPE",
      "alert": "OK",
      "vis_m": 9999,
      "fzfg": false,
      "metar_trigger": false,
      "taf_trigger": false,
      "metar": "METAR LIPE 262350Z 28004KT 250V310 CAVOK 04/02 Q1029",
      "taf": "TAF LIPE 262300Z 2700/2724 VRB05KT 9999 SCT030"
    },
    {
      "icao": "LIPH",
      "alert": "OK",
      "vis_m": 9999,
      "fzfg": false,
      "metar_trigger": false,
      "taf_trigger": false,
      "metar": "METAR LIPH 262350Z AUTO VRB01KT 9999 NCD 01/M00 Q1029",
      "taf": "TAF LIPH 262300Z 2700/2724 VRB03KT CAVOK"
    },
    {
      "icao": "LIPQ",
      "alert": "OK",
      "vis_m": 9999,
      "fzfg": false,
      "metar_trigger": false,
      "taf_trigger": false,
      "metar": "METAR LIPQ 262350Z AUTO 36004KT 310V020 9999 NCD 00/M03 Q1028",
      "taf": "TAF LIPQ 262300Z 2700/2724 VRB04KT CAVOK"
    },
    {
      "icao": "LIPR",
      "alert": "OK",
      "vis_m": 9999,
      "fzfg": false,
      "metar_trigger": false,
      "taf_trigger": false,
      "metar": "METAR LIPR 262350Z AUTO 30009KT 9999 OVC035/// 07/03 Q1028",
      "taf": "TAF LIPR 262300Z 2700/2724 29010KT 9999 BKN030"
    },
    {
      "icao": "LIPX",
      "alert": "OK",
      "vis_m": 9999,
      "fzfg": false,
      "metar_trigger": false,
      "taf_trigger": false,
      "metar": "METAR LIPX 262350Z 33004KT CAVOK M00/M01 Q1029",
      "taf": "TAF LIPX 262300Z 2700/2724 VRB05KT 7000 FEW030"
    },
    {
      "icao": "LIPY",
      "alert": "OK",
      "vis_m": 9999,
      "fzfg": false,
      "metar_trigger": false,
      "taf_trigger": false,
      "metar": "METAR LIPY 262350Z AUTO 31004KT 9999 OVC030/// 07/04 Q1027",
      "taf": "TAF LIPY 262300Z 2700/2724 VRB05KT 9999 BKN030"
    },
    {
      "icao": "LIPZ",
      "alert": "OK",
      "vis_m": 9999,
      "fzfg": false,
      "metar_trigger": false,
      "taf_trigger": false,
      "metar": "METAR LIPZ 262350Z 34004KT CAVOK 01/M01 Q1029 NOSIG",
      "taf": "TAF LIPZ 262300Z 2700/2806 VRB05KT CAVOK"
    },
    {
      "icao": "LIRF",
      "alert": "OK",
      "vis_m": 9999,
      "fzfg": false,
      "metar_trigger": false,
      "taf_trigger": false,
      "metar": "METAR LIRF 262350Z 03008KT CAVOK 08/04 Q1023 NOSIG",
      "taf": "TAF LIRF 262300Z 2700/2806 05010KT CAVOK"
    },
    {
      "icao": "LIRN",
      "alert": "OK",
      "vis_m": 9999,
      "fzfg": false,
      "metar_trigger": false,
      "taf_trigger": false,
      "metar": "METAR LIRN 262350Z 05011KT CAVOK 11/05 Q1022 NOSIG",
      "taf": "TAF LIRN 262300Z 2700/2724 03009KT CAVOK"
    },
    {
      "icao": "LIRP",
      "alert": "OK",
      "vis_m": 9999,
      "fzfg": false,
      "metar_trigger": false,
      "taf_trigger": false,
      "metar": "METAR LIRP 262345Z 12015KT CAVOK 07/03 Q1025 NOSIG",
      "taf": "TAF LIRP 262300Z 2700/2724 11012KT CAVOK"
    },
    {
      "icao": "LIRZ",
      "alert": "OK",
      "vis_m": 9999,
      "fzfg": false,
      "metar_trigger": false,
      "taf_trigger": false,
      "metar": "METAR LIRZ 262350Z AUTO 36008KT 9999 NCD 06/03 Q1025",
      "taf": "TAF LIRZ 262300Z 2700/2724 36008KT 9999 FEW030"
    },
    {
      "icao": "LJLJ",
      "alert": "OK",
      "vis_m": 400,
      "fzfg": true,
      "metar_trigger": false,
      "taf_trigger": false,
      "metar": "METAR LJLJ 262330Z 00000KT 0400 R30/0500N FZFG FEW001 M03/M04 Q1030 NOSIG",
      "taf": "TAF LJLJ 262300Z 2700/2800 30002KT 0300 FZFG VV002"
    },
    {
      "icao": "LKMT",
      "alert": "OK",
      "vis_m": 2500,
      "fzfg": false,
      "metar_trigger": false,
      "taf_trigger": false,
      "metar": "METAR LKMT 262330Z 05005KT 2500 BR SCT003 OVC008 M04/M04 Q1032 TEMPO 1200 BR BKN003",
      "taf": "TAF LKMT 262300Z 2700/2724 02006KT 3500 BR BKN010"
    },
    {
      "icao": "LKPR",
      "alert": "OK",
      "vis_m": 9999,
      "fzfg": false,
      "metar_trigger": false,
      "taf_trigger": false,
      "metar": "METAR LKPR 262330Z 24003KT 220V300 CAVOK M04/M06 Q1031 NOSIG",
      "taf": "TAF LKPR 262300Z 2700/2806 23004KT CAVOK"
    },
    {
      "icao": "LLBG",
      "alert": "OK",
      "vis_m": 9999,
      "fzfg": false,
      "metar_trigger": false,
      "taf_trigger": false,
      "metar": "METAR LLBG 262350Z VRB03KT 9999 FEW030 SCT038 14/12 Q1013 TEMPO 7000 RA FEW020TCU BKN025 RMK BKN070 RERA",
      "taf": "TAF LLBG 262308Z 2700/2724 VRB04KT 9999 SCT030"
    },
    {
      "icao": "LMML",
      "alert": "OK",
      "vis_m": 9999,
      "fzfg": false,
      "metar_trigger": false,
      "taf_trigger": false,
      "metar": "METAR LMML 262345Z 10012KT 9999 FEW023 16/12 Q1016 NOSIG",
      "taf": "TAF LMML 262300Z 2700/2724 10015KT 9999 SCT020"
    },
    {
      "icao": "LOWW",
      "alert": "OK",
      "vis_m": 9999,
      "fzfg": false,
      "metar_trigger": false,
      "taf_trigger": false,
      "metar": "METAR LOWW 262350Z 32008KT CAVOK M02/M03 Q1030 NOSIG",
      "taf": "TAF LOWW 262315Z 2700/2806 33007KT CAVOK TX03/2722Z TNM02/2701Z"
    },
    {
      "icao": "LPFR",
      "alert": "OK",
      "vis_m": 9999,
      "fzfg": false,
      "metar_trigger": false,
      "taf_trigger": false,
      "metar": "METAR LPFR 262330Z 04006KT CAVOK 09/04 Q1013",
      "taf": "TAF LPFR 262300Z 2700/2724 06010KT CAVOK"
    },
    {
      "icao": "LPMA",
      "alert": "OK",
      "vis_m": 9999,
      "fzfg": false,
      "metar_trigger": false,
      "taf_trigger": false,
      "metar": "METAR LPMA 262330Z 03009KT 9999 SCT015 17/10 Q1016",
      "taf": "TAF LPMA 262300Z 2700/2724 34008KT 9999 SCT015"
    },
    {
      "icao": "LPPR",
      "alert": "OK",
      "vis_m": 9999,
      "fzfg": false,
      "metar_trigger": false,
      "taf_trigger": false,
      "metar": "METAR LPPR 262330Z 10007KT CAVOK 07/M00 Q1015",
      "taf": "TAF LPPR 262300Z 2700/2724 09010KT CAVOK"
    },
    {
      "icao": "LPPS",
      "alert": "OK",
      "vis_m": 9999,
      "fzfg": false,
      "metar_trigger": false,
      "taf_trigger": false,
      "metar": "METAR LPPS 262330Z 31021G31KT 9999 BKN013 16/10 Q1015",
      "taf": "TAF LPPS 262300Z 2700/2806 30017KT 9999 SCT015"
    },
    {
      "icao": "LPPT",
      "alert": "OK",
      "vis_m": 9999,
      "fzfg": false,
      "metar_trigger": false,
      "taf_trigger": false,
      "metar": "METAR LPPT 262330Z 05006KT 360V070 CAVOK 07/06 Q1013",
      "taf": "TAF LPPT 262300Z 2700/2806 08005KT 9999 FEW030"
    },
    {
      "icao": "LQBK",
      "alert": "OK",
      "vis_m": 9999,
      "fzfg": false,
      "metar_trigger": false,
      "taf_trigger": false,
      "metar": "METAR LQBK 262330Z VRB02KT 9999 BKN030 02/01 Q1031 NOSIG",
      "taf": "TAF LQBK 262300Z 2700/2724 16005KT 9999 BKN035 TX03/2713Z TNM03/2705Z"
    },
    {
      "icao": "LQSA",
      "alert": "OK",
      "vis_m": 8000,
      "fzfg": false,
      "metar_trigger": false,
      "taf_trigger": false,
      "metar": "METAR LQSA 262330Z 30004KT 8000 OVC018 01/M01 Q1028",
      "taf": "TAF LQSA 262300Z 2700/2724 VRB02KT 9999 SCT015 BKN025 TX04/2713Z TNM01/2705Z"
    },
    {
      "icao": "LQTZ",
      "alert": "OK",
      "vis_m": 6000,
      "fzfg": false,
      "metar_trigger": false,
      "taf_trigger": false,
      "metar": "METAR LQTZ 262330Z 34003KT 310V010 6000 OVC024 01/01 Q1030",
      "taf": "TAF LQTZ 262300Z 2700/2724 30005KT 7000 FEW012 BKN030 TX03/2713Z TNM04/2705Z"
    },
    {
      "icao": "LRBC",
      "alert": "OK",
      "vis_m": 9999,
      "fzfg": false,
      "metar_trigger": false,
      "taf_trigger": false,
      "metar": "METAR LRBC 262330Z 33011KT 9999 BKN035 00/M03 Q1021",
      "taf": "TAF LRBC 262300Z 2700/2709 36012KT 9999 OVC030"
    },
    {
      "icao": "LRBS",
      "alert": "OK",
      "vis_m": 2000,
      "fzfg": true,
      "metar_trigger": false,
      "taf_trigger": false,
      "metar": "METAR LRBS 262330Z 21004KT 170V240 2000 BR OVC002 M02/M02 Q1022 NOSIG",
      "taf": "TAF LRBS 262300Z 2700/2724 23007KT 0300 FZFG VV001"
    },
    {
      "icao": "LRBV",
      "alert": "OK",
      "vis_m": 9999,
      "fzfg": false,
      "metar_trigger": false,
      "taf_trigger": false,
      "metar": "METAR LRBV 262330Z AUTO 31014G25KT 280V340 9999 OVC027/// 01/M05 Q1022",
      "taf": "TAF LRBV 262000Z 2621/2706 30012KT 9999 BKN020 BKN050"
    },
    {
      "icao": "LRCL",
      "alert": "OK",
      "vis_m": 9999,
      "fzfg": false,
      "metar_trigger": false,
      "taf_trigger": false,
      "metar": "METAR LRCL 262330Z 30011KT 9999 FEW018 BKN030 01/M02 Q1025",
      "taf": "TAF LRCL 262300Z 2700/2709 30010KT 9999 BKN025"
    },
    {
      "icao": "LRCV",
      "alert": "OK",
      "vis_m": 6000,
      "fzfg": false,
      "metar_trigger": false,
      "taf_trigger": false,
      "metar": "METAR LRCV 262330Z 28007KT 6000 NCD M04/M04 Q1022",
      "taf": "TAF LRCV 262300Z 2700/2709 26006KT 5000 BR NSC"
    },
    {
      "icao": "LRIA",
      "alert": "OK",
      "vis_m": 9999,
      "fzfg": false,
      "metar_trigger": false,
      "taf_trigger": false,
      "metar": "METAR LRIA 262330Z 30015KT 270V330 9999 -FZDZ OVC014 M00/M02 Q1020",
      "taf": "TAF LRIA 262300Z 2700/2709 31016KT 9999 OVC010"
    },
    {
      "icao": "LROP",
      "alert": "OK",
      "vis_m": 1200,
      "fzfg": true,
      "metar_trigger": false,
      "taf_trigger": false,
      "metar": "METAR LROP 262330Z 23005KT 1200 R08R/P2000 R08L/2000U BR OVC001 M02/M02 Q1022 NOSIG",
      "taf": "TAF LROP 262300Z 2700/2724 23007KT 0300 FZFG VV001"
    },
    {
      "icao": "LRSB",
      "alert": "OK",
      "vis_m": 9999,
      "fzfg": false,
      "metar_trigger": false,
      "taf_trigger": false,
      "metar": "METAR LRSB 262330Z 33003KT 300V010 9999 SCT045 00/M02 Q1024",
      "taf": "TAF LRSB 262300Z 2700/2724 VRB04KT 9999 BKN045"
    },
    {
      "icao": "LRSM",
      "alert": "OK",
      "vis_m": 9999,
      "fzfg": false,
      "metar_trigger": false,
      "taf_trigger": false,
      "metar": "METAR LRSM 262330Z AUTO 25006KT 9999 NCD M03/M04 Q1027",
      "taf": "TAF LRSM 261400Z 2615/2624 29008KT CAVOK"
    },
    {
      "icao": "LRSV",
      "alert": "OK",
      "vis_m": 9999,
      "fzfg": false,
      "metar_trigger": false,
      "taf_trigger": false,
      "metar": "METAR LRSV 262330Z 33023G33KT 9999 BKN016 M01/M04 Q1020",
      "taf": ""
    },
    {
      "icao": "LRTM",
      "alert": "OK",
      "vis_m": 9999,
      "fzfg": false,
      "metar_trigger": false,
      "taf_trigger": false,
      "metar": "METAR LRTM 262330Z AUTO VRB01KT 9999 R25////// FEW023/// OVC028/// M00/M04 Q1024",
      "taf": "TAF LRTM 261400Z 2615/2624 26012KT CAVOK"
    },
    {
      "icao": "LRTR",
      "alert": "OK",
      "vis_m": 7000,
      "fzfg": false,
      "metar_trigger": false,
      "taf_trigger": false,
      "metar": "METAR LRTR 262330Z 28006KT 7000 BR SCT003 OVC016 00/00 Q1028",
      "taf": "TAF LRTR 262300Z 2700/2724 28006KT 5000 BR SCT005 BKN015"
    },
    {
      "icao": "LTAC",
      "alert": "OK",
      "vis_m": 9999,
      "fzfg": false,
      "metar_trigger": false,
      "taf_trigger": false,
      "metar": "METAR LTAC 262320Z 27006KT 9999 BKN029 BKN080 02/M04 Q1011 TEMPO FM0000 4000 BR RMK RWY21C 27008KT RWY03L 27006KT RWY21R 26007KT RWY03R 26005KT RWY21L 27007KT",
      "taf": "TAF LTAC 262240Z 2700/2724 VRB02KT 9999 BKN025 BKN080"
    },
    {
      "icao": "LTFM",
      "alert": "OK",
      "vis_m": 8000,
      "fzfg": false,
      "metar_trigger": false,
      "taf_trigger": false,
      "metar": "METAR LTFM 262320Z 34017KT 8000 SCT016 BKN020 06/03 Q1019 RERA NOSIG RMK RWY17L 35020KT RWY34L 33013KT RWY16R 34017KT RWY36 35019KT RWY18 35021KT",
      "taf": "TAF LTFM 262240Z 2700/2806 34015KT 9999 BKN012 BKN020"
    },
    {
      "icao": "LUKK",
      "alert": "OK",
      "vis_m": 9999,
      "fzfg": false,
      "metar_trigger": false,
      "taf_trigger": false,
      "metar": "METAR LUKK 262330Z 34013KT 9999 -SN OVC014 00/M02 Q1018 TEMPO BKN008",
      "taf": "TAF LUKK 262306Z 2700/2724 33014KT 9999 BKN012"
    },
    {
      "icao": "LWOH",
      "alert": "OK",
      "vis_m": null,
      "fzfg": false,
      "metar_trigger": false,
      "taf_trigger": false,
      "metar": "",
      "taf": ""
    },
    {
      "icao": "LWSK",
      "alert": "OK",
      "vis_m": 9999,
      "fzfg": false,
      "metar_trigger": false,
      "taf_trigger": false,
      "metar": "METAR LWSK 262350Z 02006KT 9999 SCT025 BKN050 03/M00 Q1026 NOSIG",
      "taf": ""
    },
    {
      "icao": "LYBE",
      "alert": "OK",
      "vis_m": 8000,
      "fzfg": false,
      "metar_trigger": false,
      "taf_trigger": false,
      "metar": "METAR LYBE 262330Z 25007KT 8000 SCT008 BKN025 M00/M01 Q1030 BECMG BKN008 BKN023",
      "taf": "TAF LYBE 262300Z 2700/2724 26006KT 8000 SCT033 TX03/2713Z TNM01/2702Z"
    },
    {
      "icao": "LYNI",
      "alert": "OK",
      "vis_m": 9999,
      "fzfg": false,
      "metar_trigger": false,
      "taf_trigger": false,
      "metar": "METAR LYNI 262330Z VRB02KT 9999 OVC013 01/M00 Q1028 NOSIG",
      "taf": "TAF LYNI 262300Z 2700/2724 30005KT 9999 OVC012 TX02/2712Z TN00/2706Z"
    },
    {
      "icao": "LYPG",
      "alert": "OK",
      "vis_m": 9999,
      "fzfg": false,
      "metar_trigger": false,
      "taf_trigger": false,
      "metar": "METAR LYPG 262330Z VRB01KT CAVOK 02/00 Q1024 NOSIG",
      "taf": "TAF LYPG 262300Z 2700/2724 34005KT CAVOK TX15/2713Z TN03/2705Z"
    },
    {
      "icao": "LZIB",
      "alert": "OK",
      "vis_m": 9999,
      "fzfg": false,
      "metar_trigger": false,
      "taf_trigger": false,
      "metar": "METAR LZIB 262330Z VRB03KT CAVOK 01/M09 Q1029 NOSIG",
      "taf": "TAF LZIB 262315Z 2700/2800 32006KT CAVOK"
    },
    {
      "icao": "LZKZ",
      "alert": "OK",
      "vis_m": 9999,
      "fzfg": false,
      "metar_trigger": false,
      "taf_trigger": false,
      "metar": "METAR LZKZ 262330Z 32004KT 290V350 CAVOK M00/M03 Q1027 NOSIG",
      "taf": "TAF LZKZ 262315Z 2700/2800 VRB02KT CAVOK"
    },
    {
      "icao": "LZTT",
      "alert": "OK",
      "vis_m": 9999,
      "fzfg": false,
      "metar_trigger": false,
      "taf_trigger": false,
      "metar": "METAR LZTT 262330Z 01004KT 310V030 CAVOK M06/M09 Q1026",
      "taf": "TAF LZTT 262315Z 2700/2800 28005KT CAVOK"
    },
    {
      "icao": "OEJN",
      "alert": "OK",
      "vis_m": 9999,
      "fzfg": false,
      "metar_trigger": false,
      "taf_trigger": false,
      "metar": "METAR OEJN 262300Z 32005KT CAVOK 24/22 Q1011 NOSIG",
      "taf": "TAF OEJN 262300Z 2700/2806 03005KT 7000 FEW040"
    },
    {
      "icao": "OEMA",
      "alert": "OK",
      "vis_m": 9999,
      "fzfg": false,
      "metar_trigger": false,
      "taf_trigger": false,
      "metar": "METAR OEMA 262300Z 13005KT CAVOK 18/12 Q1014 NOSIG",
      "taf": "TAF OEMA 262300Z 2700/2806 VRB03KT 7000 NSC"
    },
    {
      "icao": "OJAI",
      "alert": "OK",
      "vis_m": 2000,
      "fzfg": false,
      "metar_trigger": false,
      "taf_trigger": false,
      "metar": "METAR OJAI 262300Z 03003KT 2000 BR NSC 05/04 Q1015 NOSIG",
      "taf": ""
    },
    {
      "icao": "OMAA",
      "alert": "OK",
      "vis_m": 7000,
      "fzfg": false,
      "metar_trigger": false,
      "taf_trigger": false,
      "metar": "METAR OMAA 262300Z 30002KT 7000 NSC 20/16 Q1014 NOSIG",
      "taf": "TAF OMAA 262300Z 2700/2806 VRB02KT 6000 NSC"
    },
    {
      "icao": "OMDB",
      "alert": "OK",
      "vis_m": 9999,
      "fzfg": false,
      "metar_trigger": false,
      "taf_trigger": false,
      "metar": "METAR OMDB 262300Z VRB02KT CAVOK 20/13 Q1014 NOSIG",
      "taf": "TAF OMDB 262300Z 2700/2806 12005KT 8000 NSC"
    },
    {
      "icao": "UAAA",
      "alert": "OK",
      "vis_m": 6000,
      "fzfg": false,
      "metar_trigger": false,
      "taf_trigger": false,
      "metar": "METAR UAAA 262330Z 04002MPS 360V070 6000 OVC005 M01/M02 Q1023 NOSIG RMK QBB150",
      "taf": "TAF UAAA 262300Z 2700/2724 04003MPS 3100 BR BKN011 OVC030 TX00/2709Z TNM03/2701Z"
    },
    {
      "icao": "UBBB",
      "alert": "OK",
      "vis_m": 9999,
      "fzfg": false,
      "metar_trigger": false,
      "taf_trigger": false,
      "metar": "METAR UBBB 262330Z 16010KT CAVOK 05/02 Q1009 NOSIG",
      "taf": "TAF UBBB 262303Z 2700/2724 18012KT CAVOK TX09/2710Z TN03/2702Z"
    },
    {
      "icao": "UDSG",
      "alert": "OK",
      "vis_m": 1000,
      "fzfg": false,
      "metar_trigger": false,
      "taf_trigger": false,
      "metar": "METAR UDSG 262330Z 00000KT 1000 R02/1900N SN BR FEW006 OVC020 M02/M02 Q1008 NOSIG",
      "taf": "TAF UDSG 262258Z 2700/2724 VRB06KT 2000 BR OVC020"
    },
    {
      "icao": "UDYZ",
      "alert": "OK",
      "vis_m": 1200,
      "fzfg": false,
      "metar_trigger": false,
      "taf_trigger": false,
      "metar": "METAR UDYZ 262330Z 00000KT 1200 R08/P2000D BR BKN046 00/M02 Q1009 NOSIG",
      "taf": "TAF UDYZ 262300Z 2700/2724 VRB06KT 2000 BR BKN030"
    },
    {
      "icao": "UGKO",
      "alert": "OK",
      "vis_m": 9999,
      "fzfg": false,
      "metar_trigger": false,
      "taf_trigger": false,
      "metar": "METAR UGKO 262330Z VRB02KT 9999 -SHRA SCT013CB OVC020 05/04 Q1010 NOSIG",
      "taf": "TAF UGKO 262300Z 2700/2724 24007KT 9999 OVC050 TX06/2711Z TN01/2723Z"
    }
  ]
}