{
  "ts_utc": "2025-12-21T11:59:27Z",
  "threshold_m": 150,
  "source": "stations_override.txt (ICAO list) + aviationweather.gov (METAR/TAF raw)",
  "station_count": 114,
  "stations": [
    {
      "icao": "BIKF",
      "alert": "OK",
      "vis_m": 9999,
      "fzfg": false,
      "metar_trigger": false,
      "taf_trigger": false,
      "metar": "METAR BIKF 211130Z 13022KT 9999 VCSH BKN010 OVC035 09/08 Q1009",
      "taf": "TAF BIKF 211037Z 2112/2212 11018G28KT 9999 BKN025 TX08/2112Z TN06/2205Z"
    },
    {
      "icao": "BKPR",
      "alert": "OK",
      "vis_m": null,
      "fzfg": false,
      "metar_trigger": false,
      "taf_trigger": false,
      "metar": "",
      "taf": "TAF BKPR 211130Z 2112/2212 VRB03KT 3000 BR BKN010"
    },
    {
      "icao": "EBBR",
      "alert": "OK",
      "vis_m": 9999,
      "fzfg": false,
      "metar_trigger": false,
      "taf_trigger": false,
      "metar": "METAR EBBR 211150Z 10006KT CAVOK 11/09 Q1010 NOSIG",
      "taf": "TAF EBBR 211105Z 2112/2218 11006KT CAVOK"
    },
    {
      "icao": "EBCI",
      "alert": "OK",
      "vis_m": 9999,
      "fzfg": false,
      "metar_trigger": false,
      "taf_trigger": false,
      "metar": "METAR EBCI 211150Z 10005KT CAVOK 11/09 Q1009 NOSIG",
      "taf": "TAF EBCI 211105Z 2112/2218 11006KT CAVOK"
    },
    {
      "icao": "EDDB",
      "alert": "OK",
      "vis_m": 9000,
      "fzfg": false,
      "metar_trigger": false,
      "taf_trigger": false,
      "metar": "METAR EDDB 211150Z AUTO 10008KT 9000 OVC006 07/06 Q1018 NOSIG",
      "taf": "TAF EDDB 211100Z 2112/2212 09010KT 8000 OVC006"
    },
    {
      "icao": "EDDH",
      "alert": "OK",
      "vis_m": 9999,
      "fzfg": false,
      "metar_trigger": false,
      "taf_trigger": false,
      "metar": "METAR EDDH 211150Z AUTO 11009KT 080V150 9999 OVC004 07/06 Q1017",
      "taf": "TAF EDDH 211100Z 2112/2218 09009KT 9999 BKN003"
    },
    {
      "icao": "EDDK",
      "alert": "OK",
      "vis_m": 9999,
      "fzfg": false,
      "metar_trigger": false,
      "taf_trigger": false,
      "metar": "METAR EDDK 211150Z AUTO 13006KT 090V150 CAVOK 11/06 Q1012 NOSIG",
      "taf": "TAF EDDK 211100Z 2112/2218 11006KT CAVOK"
    },
    {
      "icao": "EDDN",
      "alert": "OK",
      "vis_m": 9999,
      "fzfg": false,
      "metar_trigger": false,
      "taf_trigger": false,
      "metar": "METAR EDDN 211150Z AUTO 10009KT CAVOK 04/00 Q1013 NOSIG",
      "taf": "TAF EDDN 211100Z 2112/2212 10006KT 9999 FEW010"
    },
    {
      "icao": "EDFH",
      "alert": "OK",
      "vis_m": 9999,
      "fzfg": false,
      "metar_trigger": false,
      "taf_trigger": false,
      "metar": "METAR EDFH 211150Z 09009KT CAVOK 08/05 Q1011",
      "taf": "TAF EDFH 211100Z 2112/2212 13011KT CAVOK"
    },
    {
      "icao": "EDJA",
      "alert": "OK",
      "vis_m": 1100,
      "fzfg": true,
      "metar_trigger": false,
      "taf_trigger": false,
      "metar": "METAR EDJA 211150Z 06008KT 1100 R06/1500U FZFG BKN001 OVC005 M01/M02 Q1010",
      "taf": "TAF EDJA 211100Z 2112/2121 06007KT 0900 FZFG OVC001"
    },
    {
      "icao": "EDLW",
      "alert": "OK",
      "vis_m": 9999,
      "fzfg": false,
      "metar_trigger": false,
      "taf_trigger": false,
      "metar": "METAR EDLW 211150Z 04003KT 350V070 CAVOK 11/07 Q1012",
      "taf": "TAF EDLW 211100Z 2112/2212 VRB03KT CAVOK"
    },
    {
      "icao": "EDSB",
      "alert": "OK",
      "vis_m": 9999,
      "fzfg": false,
      "metar_trigger": false,
      "taf_trigger": false,
      "metar": "METAR EDSB 211150Z VRB02KT CAVOK 07/05 Q1010",
      "taf": "TAF EDSB 211100Z 2112/2212 03005KT CAVOK"
    },
    {
      "icao": "EETN",
      "alert": "OK",
      "vis_m": 9999,
      "fzfg": false,
      "metar_trigger": false,
      "taf_trigger": false,
      "metar": "METAR EETN 211150Z 32012KT 9999 BKN013 OVC019 04/02 Q1011 NOSIG",
      "taf": "TAF EETN 211130Z 2112/2212 33014KT 9999 OVC015"
    },
    {
      "icao": "EFHK",
      "alert": "OK",
      "vis_m": 9999,
      "fzfg": false,
      "metar_trigger": false,
      "taf_trigger": false,
      "metar": "METAR EFHK 211150Z 31011KT 9999 BKN013 03/00 Q1010 TEMPO BKN016",
      "taf": "TAF EFHK 211136Z 2112/2212 32011KT 9999 BKN015"
    },
    {
      "icao": "EFTU",
      "alert": "OK",
      "vis_m": 9999,
      "fzfg": false,
      "metar_trigger": false,
      "taf_trigger": false,
      "metar": "METAR EFTU 211150Z AUTO 31005KT 280V350 9999 SCT015 BKN049 05/03 Q1013",
      "taf": "TAF EFTU 211136Z 2112/2212 33007KT 9999 SCT014"
    },
    {
      "icao": "EGGW",
      "alert": "OK",
      "vis_m": 7000,
      "fzfg": false,
      "metar_trigger": false,
      "taf_trigger": false,
      "metar": "METAR EGGW 211150Z AUTO 10006KT 7000 FEW005 OVC014 08/08 Q1008",
      "taf": "TAF EGGW 211102Z 2112/2212 11008KT 3000 -RA BR BKN002"
    },
    {
      "icao": "EGKK",
      "alert": "OK",
      "vis_m": 9999,
      "fzfg": false,
      "metar_trigger": false,
      "taf_trigger": false,
      "metar": "METAR EGKK 211150Z 08006KT 9999 SCT011 BKN017 10/10 Q1007",
      "taf": "TAF EGKK 211057Z 2112/2218 10005KT 9999 BKN018"
    },
    {
      "icao": "EHEH",
      "alert": "OK",
      "vis_m": 9999,
      "fzfg": false,
      "metar_trigger": false,
      "taf_trigger": false,
      "metar": "METAR EHEH 211125Z AUTO 10003KT 070V140 9999 OVC097 10/08 Q1011 BLU NOSIG RMK TREND REMOTE BY EHWX",
      "taf": "TAF EHEH 210537Z 2106/2212 10005KT 4800 BR FEW020"
    },
    {
      "icao": "EKBI",
      "alert": "OK",
      "vis_m": 9999,
      "fzfg": false,
      "metar_trigger": false,
      "taf_trigger": false,
      "metar": "METAR EKBI 211150Z AUTO 09011KT 9999 OVC007/// 05/04 Q1019",
      "taf": "TAF EKBI 211128Z 2112/2212 09010KT 9999 BKN008"
    },
    {
      "icao": "EKCH",
      "alert": "OK",
      "vis_m": 9999,
      "fzfg": false,
      "metar_trigger": false,
      "taf_trigger": false,
      "metar": "METAR EKCH 211150Z AUTO 08005KT 9999 FEW017/// 06/04 Q1022 NOSIG",
      "taf": "TAF EKCH 211127Z 2112/2212 09006KT 9999 BKN018"
    },
    {
      "icao": "ENTO",
      "alert": "OK",
      "vis_m": 9999,
      "fzfg": false,
      "metar_trigger": false,
      "taf_trigger": false,
      "metar": "METAR ENTO 211150Z 36007KT CAVOK 01/M01 Q1023 NOSIG",
      "taf": "TAF ENTO 211100Z 2112/2212 02008KT CAVOK"
    },
    {
      "icao": "EPGD",
      "alert": "OK",
      "vis_m": 9999,
      "fzfg": false,
      "metar_trigger": false,
      "taf_trigger": false,
      "metar": "METAR EPGD 211130Z 29007KT 9999 BKN021 06/02 Q1021",
      "taf": "TAF EPGD 211130Z 2112/2212 27005KT 9999 BKN020"
    },
    {
      "icao": "EPKK",
      "alert": "OK",
      "vis_m": 4200,
      "fzfg": false,
      "metar_trigger": false,
      "taf_trigger": false,
      "metar": "METAR EPKK 211130Z 08006KT 4200 BR OVC003 05/04 Q1019",
      "taf": "TAF EPKK 211130Z 2112/2212 07008KT 2400 BR OVC003"
    },
    {
      "icao": "EPKT",
      "alert": "OK",
      "vis_m": 1900,
      "fzfg": false,
      "metar_trigger": false,
      "taf_trigger": false,
      "metar": "METAR EPKT 211130Z 07005KT 1900 BR OVC002 05/05 Q1019",
      "taf": "TAF EPKT 211130Z 2112/2212 07005KT 1100 BR OVC002"
    },
    {
      "icao": "EPWA",
      "alert": "OK",
      "vis_m": 9999,
      "fzfg": false,
      "metar_trigger": false,
      "taf_trigger": false,
      "metar": "METAR EPWA 211130Z 01004KT 340V060 9999 BKN015 03/00 Q1021 NOSIG",
      "taf": "TAF EPWA 211130Z 2112/2212 VRB03KT 9999 BKN016"
    },
    {
      "icao": "EPWR",
      "alert": "OK",
      "vis_m": 5000,
      "fzfg": false,
      "metar_trigger": false,
      "taf_trigger": false,
      "metar": "METAR EPWR 211130Z 10005KT 5000 BR BKN006 BKN008 06/05 Q1019",
      "taf": "TAF EPWR 211130Z 2112/2212 11007KT 5000 BR OVC006"
    },
    {
      "icao": "ESGG",
      "alert": "OK",
      "vis_m": 9999,
      "fzfg": false,
      "metar_trigger": false,
      "taf_trigger": false,
      "metar": "METAR ESGG 211150Z VRB02KT 9999 BKN004 03/03 Q1022",
      "taf": "TAF ESGG 211130Z 2112/2212 VRB03KT 9999 BKN005"
    },
    {
      "icao": "ESKN",
      "alert": "OK",
      "vis_m": 9999,
      "fzfg": false,
      "metar_trigger": false,
      "taf_trigger": false,
      "metar": "METAR ESKN 211150Z 28006KT CAVOK 04/01 Q1020",
      "taf": "TAF ESKN 211130Z 2112/2212 28008KT CAVOK"
    },
    {
      "icao": "ESMX",
      "alert": "OK",
      "vis_m": 9999,
      "fzfg": false,
      "metar_trigger": false,
      "taf_trigger": false,
      "metar": "METAR ESMX 211150Z AUTO 36005KT 9999 OVC002/// 03/03 Q1021",
      "taf": "TAF ESMX 211130Z 2112/2120 35006KT 9999 OVC003"
    },
    {
      "icao": "EVRA",
      "alert": "OK",
      "vis_m": 9999,
      "fzfg": false,
      "metar_trigger": false,
      "taf_trigger": false,
      "metar": "METAR EVRA 211150Z 31007KT 240V360 9999 OVC018 07/04 Q1014 NOSIG",
      "taf": "TAF EVRA 211101Z 2112/2212 30010KT 9999 BKN020"
    },
    {
      "icao": "EYKA",
      "alert": "OK",
      "vis_m": 9999,
      "fzfg": false,
      "metar_trigger": false,
      "taf_trigger": false,
      "metar": "METAR EYKA 211150Z 27010KT 9999 OVC023 06/04 Q1017",
      "taf": "TAF EYKA 211110Z 2112/2212 28008KT 9000 BKN020"
    },
    {
      "icao": "EYVI",
      "alert": "OK",
      "vis_m": 9999,
      "fzfg": false,
      "metar_trigger": false,
      "taf_trigger": false,
      "metar": "METAR EYVI 211150Z 27009KT 9999 OVC009 05/03 Q1016 NOSIG",
      "taf": "TAF EYVI 211100Z 2112/2212 29010KT 9000 BKN010 OVC015"
    },
    {
      "icao": "GCLP",
      "alert": "OK",
      "vis_m": 9999,
      "fzfg": false,
      "metar_trigger": false,
      "taf_trigger": false,
      "metar": "METAR GCLP 211130Z 36014KT 9999 SCT047 19/08 Q1022 NOSIG",
      "taf": "TAF GCLP 210800Z 2109/2209 01015KT 9999 FEW035 TX21/2114Z TN15/2206Z"
    },
    {
      "icao": "GCTS",
      "alert": "OK",
      "vis_m": 9999,
      "fzfg": false,
      "metar_trigger": false,
      "taf_trigger": false,
      "metar": "METAR GCTS 211130Z 20007KT 160V240 9999 SCT040 20/11 Q1022 NOSIG",
      "taf": ""
    },
    {
      "icao": "HECA",
      "alert": "OK",
      "vis_m": 4000,
      "fzfg": false,
      "metar_trigger": false,
      "taf_trigger": false,
      "metar": "METAR HECA 211130Z 19015KT 4000 SA NSC 22/00 Q1012 NOSIG",
      "taf": "TAF HECA 211100Z 2112/2218 19012KT CAVOK"
    },
    {
      "icao": "HEGN",
      "alert": "OK",
      "vis_m": 9999,
      "fzfg": false,
      "metar_trigger": false,
      "taf_trigger": false,
      "metar": "METAR HEGN 211100Z 12009KT CAVOK 24/10 Q1013 NOSIG",
      "taf": "TAF HEGN 211100Z 2112/2218 14008KT CAVOK"
    },
    {
      "icao": "HESH",
      "alert": "OK",
      "vis_m": 9999,
      "fzfg": false,
      "metar_trigger": false,
      "taf_trigger": false,
      "metar": "METAR HESH 211100Z 18005KT CAVOK 24/11 Q1014 NOSIG",
      "taf": "TAF HESH 211100Z 2112/2218 19008KT CAVOK"
    },
    {
      "icao": "HESX",
      "alert": "OK",
      "vis_m": 9999,
      "fzfg": false,
      "metar_trigger": false,
      "taf_trigger": false,
      "metar": "METAR HESX 211100Z 19012KT CAVOK 20/02 Q1013 NOSIG",
      "taf": "TAF HESX 211100Z 2112/2218 18009KT CAVOK"
    },
    {
      "icao": "LATI",
      "alert": "OK",
      "vis_m": 9999,
      "fzfg": false,
      "metar_trigger": false,
      "taf_trigger": false,
      "metar": "METAR LATI 211150Z 33003KT 280V030 CAVOK 16/05 Q1015 NOSIG",
      "taf": "TAF LATI 211100Z 2112/2212 VRB05KT CAVOK TX17/2112Z TN01/2205Z"
    },
    {
      "icao": "LBSF",
      "alert": "OK",
      "vis_m": 6000,
      "fzfg": false,
      "metar_trigger": false,
      "taf_trigger": false,
      "metar": "METAR LBSF 211130Z VRB02KT 6000 FEW009 SCT032 06/04 Q1018 NOSIG",
      "taf": "TAF LBSF 211100Z 2112/2212 VRB03KT 9999 SCT030"
    },
    {
      "icao": "LBWN",
      "alert": "OK",
      "vis_m": 9999,
      "fzfg": false,
      "metar_trigger": false,
      "taf_trigger": false,
      "metar": "METAR LBWN 211130Z AUTO 25005KT 9999 FEW010/// BKN034/// 08/08 Q1018 TEMPO 3000 DZ BR",
      "taf": "TAF LBWN 211100Z 2112/2212 35008KT 7000 BKN015 OVC035"
    },
    {
      "icao": "LCLK",
      "alert": "OK",
      "vis_m": 9999,
      "fzfg": false,
      "metar_trigger": false,
      "taf_trigger": false,
      "metar": "METAR LCLK 211130Z 12009KT 9999 SCT030 BKN060 21/13 Q1012 NOSIG",
      "taf": "TAF LCLK 211130Z 2112/2212 12012KT 9999 FEW020 SCT030"
    },
    {
      "icao": "LDDU",
      "alert": "OK",
      "vis_m": 9999,
      "fzfg": false,
      "metar_trigger": false,
      "taf_trigger": false,
      "metar": "METAR LDDU 211130Z 27004KT 240V300 9999 FEW040 15/05 Q1015 NOSIG",
      "taf": "TAF LDDU 211125Z 2112/2212 VRB02KT CAVOK TX15/2112Z TN08/2203Z"
    },
    {
      "icao": "LDSP",
      "alert": "OK",
      "vis_m": 9999,
      "fzfg": false,
      "metar_trigger": false,
      "taf_trigger": false,
      "metar": "METAR LDSP 211130Z VRB02KT CAVOK 15/03 Q1015 NOSIG",
      "taf": "TAF LDSP 211125Z 2112/2212 VRB02KT CAVOK TX15/2113Z TN07/2205Z"
    },
    {
      "icao": "LDZA",
      "alert": "OK",
      "vis_m": 3500,
      "fzfg": false,
      "metar_trigger": false,
      "taf_trigger": false,
      "metar": "METAR LDZA 211130Z 11003KT 060V150 3500 BR OVC003 04/03 Q1020 BECMG 5000 OVC005",
      "taf": "TAF LDZA 211125Z 2112/2212 VRB02KT 6000 OVC005 TX05/2211Z TN03/2206Z"
    },
    {
      "icao": "LEAL",
      "alert": "OK",
      "vis_m": 9999,
      "fzfg": false,
      "metar_trigger": false,
      "taf_trigger": false,
      "metar": "METAR LEAL 211130Z 26004KT 230V300 CAVOK 13/07 Q1008 NOSIG",
      "taf": "TAF LEAL 211100Z 2112/2212 25008KT 9999 FEW020 SCT040 TX16/2113Z TN07/2207Z"
    },
    {
      "icao": "LEBL",
      "alert": "OK",
      "vis_m": 9999,
      "fzfg": false,
      "metar_trigger": false,
      "taf_trigger": false,
      "metar": "METAR LEBL 211130Z 31001KT 9999 FEW020 SCT040 15/12 Q1005 NOSIG",
      "taf": "TAF LEBL 211100Z 2112/2212 21012KT 9999 FEW020 TX16/2112Z TN07/2206Z"
    },
    {
      "icao": "LECH",
      "alert": "OK",
      "vis_m": 9000,
      "fzfg": false,
      "metar_trigger": false,
      "taf_trigger": false,
      "metar": "METAR LECH 211130Z AUTO 23010KT 9000 FEW070 12/05 Q1005",
      "taf": ""
    },
    {
      "icao": "LEMD",
      "alert": "OK",
      "vis_m": 9999,
      "fzfg": false,
      "metar_trigger": false,
      "taf_trigger": false,
      "metar": "METAR LEMD 211130Z 21008G27KT 140V240 9999 FEW017 SCT024 07/03 Q1005 NOSIG",
      "taf": ""
    },
    {
      "icao": "LEMG",
      "alert": "OK",
      "vis_m": 9999,
      "fzfg": false,
      "metar_trigger": false,
      "taf_trigger": false,
      "metar": "METAR LEMG 211130Z 29004KT 250V310 9999 FEW015 SCT035 BKN050 13/11 Q1009 NOSIG",
      "taf": "TAF LEMG 211100Z 2112/2212 30008KT 9999 FEW012 SCT060 TX14/2114Z TN07/2206Z"
    },
    {
      "icao": "LERS",
      "alert": "OK",
      "vis_m": 9999,
      "fzfg": false,
      "metar_trigger": false,
      "taf_trigger": false,
      "metar": "METAR LERS 211130Z 05003KT 9999 SCT015 BKN025 13/11 Q1005",
      "taf": "TAF LERS 210800Z 2109/2209 VRB04KT 9999 FEW015 TX16/2112Z TN06/2206Z"
    },
    {
      "icao": "LEVC",
      "alert": "OK",
      "vis_m": 9999,
      "fzfg": false,
      "metar_trigger": false,
      "taf_trigger": false,
      "metar": "METAR LEVC 211130Z 23007KT 200V260 CAVOK 13/06 Q1006 NOSIG",
      "taf": "TAF LEVC 211100Z 2112/2212 26008KT 9999 SCT040 TX16/2113Z TN05/2207Z"
    },
    {
      "icao": "LFLL",
      "alert": "OK",
      "vis_m": 9999,
      "fzfg": false,
      "metar_trigger": false,
      "taf_trigger": false,
      "metar": "METAR LFLL 211130Z 11007KT CAVOK 12/06 Q1007 NOSIG",
      "taf": "TAF LFLL 211100Z 2112/2218 14006KT CAVOK"
    },
    {
      "icao": "LFMN",
      "alert": "OK",
      "vis_m": 9999,
      "fzfg": false,
      "metar_trigger": false,
      "taf_trigger": false,
      "metar": "METAR LFMN 211130Z 09022KT 9999 SCT046 BKN076 16/10 Q1011 TEMPO 09025G35KT",
      "taf": "TAF LFMN 210800Z 2109/2215 08020KT 9999 BKN035"
    },
    {
      "icao": "LFOB",
      "alert": "OK",
      "vis_m": 5000,
      "fzfg": false,
      "metar_trigger": false,
      "taf_trigger": false,
      "metar": "METAR LFOB 211130Z AUTO 09009KT 5000 -RA BR BKN004/// OVC009/// ///TCU 10/10 Q1007 TEMPO RA BKN006",
      "taf": "TAF LFOB 211100Z 2112/2212 08009KT 9999 OVC002"
    },
    {
      "icao": "LFPO",
      "alert": "OK",
      "vis_m": 9999,
      "fzfg": false,
      "metar_trigger": false,
      "taf_trigger": false,
      "metar": "METAR LFPO 211130Z AUTO 12006KT 9999 -RA FEW008 BKN041 BKN050 11/10 Q1006 TEMPO 4500 -RA",
      "taf": "TAF LFPO 211100Z 2112/2218 11008KT 9999 BKN040"
    },
    {
      "icao": "LFSB",
      "alert": "OK",
      "vis_m": 9999,
      "fzfg": false,
      "metar_trigger": false,
      "taf_trigger": false,
      "metar": "METAR LFSB 211130Z AUTO 01005KT 330V040 CAVOK 08/03 Q1009 NOSIG",
      "taf": "TAF LFSB 211145Z 2112/2212 01005KT 9999 FEW010"
    },
    {
      "icao": "LGAV",
      "alert": "OK",
      "vis_m": 9999,
      "fzfg": false,
      "metar_trigger": false,
      "taf_trigger": false,
      "metar": "METAR LGAV 211150Z 04013KT 9999 FEW025 15/09 Q1015 NOSIG",
      "taf": "TAF LGAV 211100Z 2112/2212 02012KT 9999 SCT025 SCT070"
    },
    {
      "icao": "LGIR",
      "alert": "OK",
      "vis_m": 9999,
      "fzfg": false,
      "metar_trigger": false,
      "taf_trigger": false,
      "metar": "METAR LGIR 211150Z 03004KT 9999 SCT020 17/11 Q1012 NOSIG",
      "taf": "TAF LGIR 211100Z 2112/2212 33010KT 9999 SCT020 SCT080"
    },
    {
      "icao": "LGKR",
      "alert": "OK",
      "vis_m": 9999,
      "fzfg": false,
      "metar_trigger": false,
      "taf_trigger": false,
      "metar": "METAR LGKR 211150Z VRB01KT 9999 FEW025 18/09 Q1014 NOSIG",
      "taf": "TAF LGKR 211100Z 2112/2212 VRB03KT 9999 SCT015"
    },
    {
      "icao": "LGRP",
      "alert": "OK",
      "vis_m": 9999,
      "fzfg": false,
      "metar_trigger": false,
      "taf_trigger": false,
      "metar": "METAR LGRP 211150Z 04008KT 9999 BKN020 17/13 Q1012 NOSIG",
      "taf": "TAF LGRP 211100Z 2112/2212 14010KT 9999 FEW018 SCT020"
    },
    {
      "icao": "LGTS",
      "alert": "OK",
      "vis_m": 8000,
      "fzfg": false,
      "metar_trigger": false,
      "taf_trigger": false,
      "metar": "METAR LGTS 211150Z 28003KT 8000 FEW012 13/09 Q1017 NOSIG",
      "taf": "TAF LGTS 211100Z 2112/2212 VRB03KT 9999 FEW020"
    },
    {
      "icao": "LGZA",
      "alert": "OK",
      "vis_m": 9999,
      "fzfg": false,
      "metar_trigger": false,
      "taf_trigger": false,
      "metar": "METAR LGZA 211150Z 00000KT 9999 FEW025 BKN080 16/09 Q1013",
      "taf": "TAF LGZA 211100Z 2112/2121 03008KT 9999 FEW020 SCT080"
    },
    {
      "icao": "LHBP",
      "alert": "OK",
      "vis_m": 3000,
      "fzfg": false,
      "metar_trigger": false,
      "taf_trigger": false,
      "metar": "METAR LHBP 211130Z VRB02KT 3000 -DZ BR OVC004 05/04 Q1020 TEMPO OVC005",
      "taf": "TAF LHBP 211115Z 2112/2212 21005KT 5000 BR OVC005"
    },
    {
      "icao": "LHDC",
      "alert": "OK",
      "vis_m": 6000,
      "fzfg": false,
      "metar_trigger": false,
      "taf_trigger": false,
      "metar": "METAR LHDC 211115Z AUTO 21004KT 6000 BKN006 06/05 Q1020 NOSIG",
      "taf": "TAF LHDC 211115Z 2112/2121 VRB03KT 7000 BKN025"
    },
    {
      "icao": "LIBD",
      "alert": "OK",
      "vis_m": 9999,
      "fzfg": false,
      "metar_trigger": false,
      "taf_trigger": false,
      "metar": "METAR LIBD 211150Z 01003KT 320V050 CAVOK 15/10 Q1014",
      "taf": "TAF LIBD 211100Z 2112/2212 VRB04KT 9999 SCT040"
    },
    {
      "icao": "LICC",
      "alert": "OK",
      "vis_m": 8000,
      "fzfg": false,
      "metar_trigger": false,
      "taf_trigger": false,
      "metar": "METAR LICC 211150Z 04008KT 8000 -RA BKN050 15/14 Q1011",
      "taf": "TAF LICC 211100Z 2112/2212 07012KT 6000 RA BKN010 BKN060"
    },
    {
      "icao": "LICJ",
      "alert": "OK",
      "vis_m": 9999,
      "fzfg": false,
      "metar_trigger": false,
      "taf_trigger": false,
      "metar": "METAR LICJ 211150Z 23003KT 9999 SCT040 16/12 Q1009",
      "taf": "TAF LICJ 211100Z 2112/2212 10010KT 9999 SCT040"
    },
    {
      "icao": "LIEO",
      "alert": "OK",
      "vis_m": 9000,
      "fzfg": false,
      "metar_trigger": false,
      "taf_trigger": false,
      "metar": "METAR LIEO 211150Z 04003KT 9000 -RA BKN020 14/13 Q1010",
      "taf": "TAF LIEO 211100Z 2112/2212 10010KT 6000 RA BKN010"
    },
    {
      "icao": "LIMC",
      "alert": "OK",
      "vis_m": 5000,
      "fzfg": false,
      "metar_trigger": false,
      "taf_trigger": false,
      "metar": "METAR LIMC 211150Z 17003KT 5000 BR SCT012 10/07 Q1016 NOSIG",
      "taf": "TAF LIMC 211100Z 2112/2218 VRB03KT 7000 SCT040"
    },
    {
      "icao": "LIME",
      "alert": "OK",
      "vis_m": 9999,
      "fzfg": false,
      "metar_trigger": false,
      "taf_trigger": false,
      "metar": "METAR LIME 211150Z 18004KT 140V240 CAVOK 09/06 Q1016 NOSIG",
      "taf": "TAF LIME 211100Z 2112/2212 VRB03KT 9000 SCT080"
    },
    {
      "icao": "LIPH",
      "alert": "OK",
      "vis_m": 9999,
      "fzfg": false,
      "metar_trigger": false,
      "taf_trigger": false,
      "metar": "METAR LIPH 211150Z 02003KT 320V060 CAVOK 12/05 Q1016",
      "taf": "TAF LIPH 211100Z 2112/2212 VRB04KT 8000 FEW030"
    },
    {
      "icao": "LIPQ",
      "alert": "OK",
      "vis_m": 9999,
      "fzfg": false,
      "metar_trigger": false,
      "taf_trigger": false,
      "metar": "METAR LIPQ 211150Z AUTO 11008KT 9999 NCD 14/05 Q1016",
      "taf": "TAF LIPQ 211100Z 2112/2212 VRB04KT CAVOK"
    },
    {
      "icao": "LIPX",
      "alert": "OK",
      "vis_m": 9999,
      "fzfg": false,
      "metar_trigger": false,
      "taf_trigger": false,
      "metar": "METAR LIPX 211150Z VRB01KT 9999 SCT030 10/06 Q1016",
      "taf": "TAF LIPX 211100Z 2112/2212 VRB03KT 9999 FEW040"
    },
    {
      "icao": "LIPY",
      "alert": "OK",
      "vis_m": 8000,
      "fzfg": false,
      "metar_trigger": false,
      "taf_trigger": false,
      "metar": "METAR LIPY 211150Z AUTO 33003KT 310V010 8000 FEW011/// SCT024/// BKN046/// 12/11 Q1015",
      "taf": "TAF LIPY 211100Z 2112/2212 VRB05KT 4000 BR OVC020"
    },
    {
      "icao": "LIPZ",
      "alert": "OK",
      "vis_m": 9999,
      "fzfg": false,
      "metar_trigger": false,
      "taf_trigger": false,
      "metar": "METAR LIPZ 211150Z 02004KT 340V050 CAVOK 12/05 Q1016 NOSIG",
      "taf": "TAF LIPZ 211100Z 2112/2218 02005KT 9999 FEW020"
    },
    {
      "icao": "LIRA",
      "alert": "OK",
      "vis_m": 9999,
      "fzfg": false,
      "metar_trigger": false,
      "taf_trigger": false,
      "metar": "METAR LIRA 211150Z 01004KT CAVOK 14/07 Q1013",
      "taf": "TAF LIRA 211100Z 2112/2212 04005KT 9999 FEW060"
    },
    {
      "icao": "LIRN",
      "alert": "OK",
      "vis_m": 9999,
      "fzfg": false,
      "metar_trigger": false,
      "taf_trigger": false,
      "metar": "METAR LIRN 211150Z 06004KT 020V110 CAVOK 17/07 Q1012 NOSIG",
      "taf": "TAF LIRN 211100Z 2112/2212 05006KT 9999 SCT060"
    },
    {
      "icao": "LLBG",
      "alert": "OK",
      "vis_m": 9999,
      "fzfg": false,
      "metar_trigger": false,
      "taf_trigger": false,
      "metar": "METAR LLBG 211150Z 16008KT CAVOK 22/06 Q1012 NOSIG",
      "taf": "TAF LLBG 211102Z 2112/2212 25010KT CAVOK"
    },
    {
      "icao": "LMML",
      "alert": "OK",
      "vis_m": 9999,
      "fzfg": false,
      "metar_trigger": false,
      "taf_trigger": false,
      "metar": "METAR LMML 211145Z 21006KT 160V250 9999 VCSH FEW020TCU SCT036 17/14 Q1010 TEMPO 8000 SHRA",
      "taf": "TAF LMML 211100Z 2112/2212 24008KT 9999 FEW015 SCT020"
    },
    {
      "icao": "LOWW",
      "alert": "OK",
      "vis_m": 5000,
      "fzfg": false,
      "metar_trigger": false,
      "taf_trigger": false,
      "metar": "METAR LOWW 211150Z 12009KT 5000 BR VV002 01/01 Q1019 TEMPO 4500 BR BECMG OVC003",
      "taf": "TAF LOWW 211115Z 2112/2218 14007KT 0800 FG SCT001 OVC002 TX04/2214Z TN02/2112Z"
    },
    {
      "icao": "LPFR",
      "alert": "OK",
      "vis_m": 9999,
      "fzfg": false,
      "metar_trigger": false,
      "taf_trigger": false,
      "metar": "METAR LPFR 211130Z 27004KT 9999 FEW015 12/08 Q1011",
      "taf": "TAF LPFR 211100Z 2112/2212 27010KT 9999 FEW015 SCT030"
    },
    {
      "icao": "LPPR",
      "alert": "OK",
      "vis_m": 9999,
      "fzfg": false,
      "metar_trigger": false,
      "taf_trigger": false,
      "metar": "METAR LPPR 211130Z 15009KT 9999 FEW015 FEW020CB SCT036 BKN044 08/05 Q1007",
      "taf": "TAF LPPR 211100Z 2112/2212 13010KT 9999 FEW012 SCT035"
    },
    {
      "icao": "LPPT",
      "alert": "OK",
      "vis_m": 9999,
      "fzfg": false,
      "metar_trigger": false,
      "taf_trigger": false,
      "metar": "METAR LPPT 211130Z 24008KT 9999 FEW027 FEW032TCU 10/06 Q1010",
      "taf": "TAF LPPT 211100Z 2112/2218 29007KT 9999 SCT035"
    },
    {
      "icao": "LQSA",
      "alert": "OK",
      "vis_m": 9999,
      "fzfg": false,
      "metar_trigger": false,
      "taf_trigger": false,
      "metar": "METAR LQSA 211130Z 26004KT 220V300 9999 BKN010 OVC020 03/01 Q1018 NOSIG",
      "taf": "TAF LQSA 211100Z 2112/2212 VRB02KT 8000 BKN010 OVC020 TX04/2113Z TNM02/2205Z"
    },
    {
      "icao": "LQTZ",
      "alert": "OK",
      "vis_m": 5000,
      "fzfg": false,
      "metar_trigger": false,
      "taf_trigger": false,
      "metar": "METAR LQTZ 211130Z VRB02KT 5000 -DZ BR OVC006 05/05 Q1019",
      "taf": "TAF LQTZ 211100Z 2112/2212 12005KT 4000 BR OVC006 TX06/2113Z TN02/2205Z"
    },
    {
      "icao": "LRCL",
      "alert": "OK",
      "vis_m": 9999,
      "fzfg": false,
      "metar_trigger": false,
      "taf_trigger": false,
      "metar": "METAR LRCL 211130Z COR 34006KT 9999 BKN009 05/03 Q1019",
      "taf": "TAF LRCL 211100Z 2112/2121 VRB04KT 9999 BKN010"
    },
    {
      "icao": "LRCV",
      "alert": "OK",
      "vis_m": 6000,
      "fzfg": false,
      "metar_trigger": false,
      "taf_trigger": false,
      "metar": "METAR LRCV 211130Z 30005KT 6000 BKN006 OVC019 05/05 Q1020",
      "taf": "TAF LRCV 211100Z 2112/2121 31006KT 5000 BR BKN005"
    },
    {
      "icao": "LRIA",
      "alert": "OK",
      "vis_m": 3000,
      "fzfg": false,
      "metar_trigger": false,
      "taf_trigger": false,
      "metar": "METAR LRIA 211130Z VRB02KT 3000 BR OVC002 02/02 Q1020",
      "taf": "TAF LRIA 211100Z 2112/2121 VRB03KT 3000 BR OVC002"
    },
    {
      "icao": "LROP",
      "alert": "OK",
      "vis_m": 8000,
      "fzfg": false,
      "metar_trigger": false,
      "taf_trigger": false,
      "metar": "METAR LROP 211130Z 22006KT 8000 SCT008 BKN020 07/07 Q1020 NOSIG",
      "taf": "TAF LROP 211100Z 2112/2212 23006KT 5000 BR BKN010"
    },
    {
      "icao": "LRSB",
      "alert": "OK",
      "vis_m": 6000,
      "fzfg": false,
      "metar_trigger": false,
      "taf_trigger": false,
      "metar": "METAR LRSB 211130Z 09004KT 6000 1600SE BCFG SCT002 02/02 Q1018",
      "taf": "TAF LRSB 211100Z 2112/2212 VRB04KT 3000 BR NSC"
    },
    {
      "icao": "LRTR",
      "alert": "OK",
      "vis_m": 6000,
      "fzfg": false,
      "metar_trigger": false,
      "taf_trigger": false,
      "metar": "METAR LRTR 211130Z 04004KT 010V090 6000 1200E R11/P2000 BCFG SCT002 BKN006 OVC010 06/05 Q1020",
      "taf": "TAF LRTR 211100Z 2112/2212 VRB04KT 3000 BR OVC002"
    },
    {
      "icao": "LTAF",
      "alert": "OK",
      "vis_m": 9999,
      "fzfg": false,
      "metar_trigger": false,
      "taf_trigger": false,
      "metar": "METAR LTAF 211120Z 05013KT CAVOK 20/M02 Q1015 NOSIG RMK RWY23 07011KT 6CI200",
      "taf": "TAF LTAF 211040Z 2112/2212 05009KT CAVOK"
    },
    {
      "icao": "LTAI",
      "alert": "OK",
      "vis_m": 7000,
      "fzfg": false,
      "metar_trigger": false,
      "taf_trigger": false,
      "metar": "METAR LTAI 211120Z VRB02KT 7000 -SHRA FEW020CB BKN030 13/13 Q1016 BECMG TL1200 4000 SHRA BR RMK RWY18C 20003KT 160V250 RWY36R VRB02KT RWY18L 00000KT",
      "taf": "TAF LTAI 211040Z 2112/2212 34009KT 4000 SHRA BR FEW015CB BKN025"
    },
    {
      "icao": "LTFM",
      "alert": "OK",
      "vis_m": 9999,
      "fzfg": false,
      "metar_trigger": false,
      "taf_trigger": false,
      "metar": "METAR LTFM 211120Z 03007KT 350V070 9999 FEW016 SCT025 BKN120 13/08 Q1017 NOSIG RMK RWY17L 36008KT RWY34L 36008KT RWY16R 02008KT RWY36 01008KT RWY18 36008KT 320V020",
      "taf": "TAF LTFM 211040Z 2112/2218 05008KT 9999 SCT015 BKN025"
    },
    {
      "icao": "LUBL",
      "alert": "OK",
      "vis_m": null,
      "fzfg": false,
      "metar_trigger": false,
      "taf_trigger": false,
      "metar": "",
      "taf": ""
    },
    {
      "icao": "LUKK",
      "alert": "OK",
      "vis_m": 1100,
      "fzfg": false,
      "metar_trigger": false,
      "taf_trigger": false,
      "metar": "METAR LUKK 211130Z 12003KT 1100 0500SW R08/0650N BR PRFG OVC002 01/01 Q1020 NOSIG",
      "taf": "TAF LUKK 211131Z 2112/2212 VRB04KT 0800 FG VV002"
    },
    {
      "icao": "LWSK",
      "alert": "OK",
      "vis_m": 1500,
      "fzfg": false,
      "metar_trigger": false,
      "taf_trigger": false,
      "metar": "METAR LWSK 211150Z VRB01KT 1500 BR OVC003 01/01 Q1019 NOSIG",
      "taf": "TAF LWSK 211105Z 2112/2212 VRB02KT 1500 BR OVC003"
    },
    {
      "icao": "LYBE",
      "alert": "OK",
      "vis_m": 4000,
      "fzfg": false,
      "metar_trigger": false,
      "taf_trigger": false,
      "metar": "METAR LYBE 211130Z 08004KT 050V120 4000 BR OVC007 05/03 Q1020 NOSIG",
      "taf": "TAF LYBE 211100Z 2112/2212 07006KT 5000 BR OVC008 TX05/2113Z TN02/2206Z"
    },
    {
      "icao": "LZIB",
      "alert": "OK",
      "vis_m": 1800,
      "fzfg": false,
      "metar_trigger": false,
      "taf_trigger": false,
      "metar": "METAR LZIB 211130Z 11004KT 1800 -DZ BR FEW001 OVC002 03/03 Q1020 TEMPO 0400 FG OVC001",
      "taf": ""
    },
    {
      "icao": "LZKZ",
      "alert": "OK",
      "vis_m": 9999,
      "fzfg": false,
      "metar_trigger": false,
      "taf_trigger": false,
      "metar": "METAR LZKZ 211130Z 00000KT 9999 BKN008 05/04 Q1020 NOSIG",
      "taf": "TAF LZKZ 211115Z 2112/2212 VRB02KT 9999 OVC007"
    },
    {
      "icao": "LZTT",
      "alert": "OK",
      "vis_m": 9999,
      "fzfg": false,
      "metar_trigger": false,
      "taf_trigger": false,
      "metar": "METAR LZTT 211130Z VRB01KT 9999 FEW002 SCT053 02/01 Q1018 NOSIG",
      "taf": "TAF LZTT 211115Z 2112/2212 VRB02KT 9999 FEW033"
    },
    {
      "icao": "OEJN",
      "alert": "OK",
      "vis_m": 9999,
      "fzfg": false,
      "metar_trigger": false,
      "taf_trigger": false,
      "metar": "METAR OEJN 211100Z 14004KT 9999 FEW040 31/12 Q1011 NOSIG",
      "taf": "TAF OEJN 211100Z 2112/2218 27012KT 9999 FEW040"
    },
    {
      "icao": "OEMA",
      "alert": "OK",
      "vis_m": 9999,
      "fzfg": false,
      "metar_trigger": false,
      "taf_trigger": false,
      "metar": "METAR OEMA 211100Z 12010KT 9999 FEW045 SCT100 21/M05 Q1018 NOSIG",
      "taf": "TAF OEMA 211100Z 2112/2218 14012KT 9999 FEW040"
    },
    {
      "icao": "OERK",
      "alert": "OK",
      "vis_m": 9999,
      "fzfg": false,
      "metar_trigger": false,
      "taf_trigger": false,
      "metar": "METAR OERK 211100Z 03003KT 9999 FEW040 16/M02 Q1021 NOSIG",
      "taf": "TAF OERK 211100Z 2112/2218 10010KT 9999 FEW040"
    },
    {
      "icao": "OJAI",
      "alert": "OK",
      "vis_m": 4000,
      "fzfg": false,
      "metar_trigger": false,
      "taf_trigger": false,
      "metar": "METAR OJAI 211100Z 13012KT 4000 BLDU FEW030 FEW080 16/02 Q1016 NOSIG",
      "taf": "TAF OJAI 211035Z 2112/2218 12010KT 5000 HZ NSC"
    },
    {
      "icao": "OKBK",
      "alert": "OK",
      "vis_m": null,
      "fzfg": false,
      "metar_trigger": false,
      "taf_trigger": false,
      "metar": "",
      "taf": ""
    },
    {
      "icao": "OMAA",
      "alert": "OK",
      "vis_m": 9999,
      "fzfg": false,
      "metar_trigger": false,
      "taf_trigger": false,
      "metar": "METAR OMAA 211100Z 35006KT 9999 FEW035 22/10 Q1018 NOSIG",
      "taf": "TAF OMAA 211100Z 2112/2218 33008KT 8000 FEW040"
    },
    {
      "icao": "UAAA",
      "alert": "OK",
      "vis_m": 1600,
      "fzfg": false,
      "metar_trigger": false,
      "taf_trigger": false,
      "metar": "METAR UAAA 211130Z 00000MPS 1600 R23L/1900 -SN BR BKN010 OVC029 M01/M02 Q1026 NOSIG",
      "taf": "TAF UAAA 211102Z 2112/2212 19003MPS 3100 BR SCT011 BKN020CB OVC050 TXM00/2207Z TNM06/2201Z"
    },
    {
      "icao": "UCFM",
      "alert": "OK",
      "vis_m": 2200,
      "fzfg": true,
      "metar_trigger": false,
      "taf_trigger": false,
      "metar": "METAR UCFM 211130Z VRB01MPS 2200 1400E R07/P1500N -SN BR BKN003 OVC023 00/M00 Q1027 NOSIG",
      "taf": "TAF UCFM 211056Z 2112/2212 12003MPS 0800 FZFG FEW003 OVC030CB"
    },
    {
      "icao": "UDYZ",
      "alert": "OK",
      "vis_m": 7000,
      "fzfg": false,
      "metar_trigger": false,
      "taf_trigger": false,
      "metar": "METAR UDYZ 211130Z VRB01KT 7000 NSC 06/M04 Q1024 NOSIG",
      "taf": "TAF UDYZ 211100Z 2112/2212 VRB04KT 6000 NSC"
    },
    {
      "icao": "UGTB",
      "alert": "OK",
      "vis_m": 6000,
      "fzfg": false,
      "metar_trigger": false,
      "taf_trigger": false,
      "metar": "METAR UGTB 211130Z 00000KT 6000 OVC024 03/M00 Q1025 NOSIG",
      "taf": "TAF UGTB 211100Z 2112/2212 VRB02KT 6000 SCT014 OVC025 TX09/2212Z TNM02/2203Z"
    },
    {
      "icao": "UKKK",
      "alert": "OK",
      "vis_m": null,
      "fzfg": false,
      "metar_trigger": false,
      "taf_trigger": false,
      "metar": "",
      "taf": ""
    },
    {
      "icao": "UTTT",
      "alert": "OK",
      "vis_m": null,
      "fzfg": false,
      "metar_trigger": false,
      "taf_trigger": false,
      "metar": "",
      "taf": ""
    }
  ]
}