{
  "ts_utc": "2026-01-20T20:50:09Z",
  "threshold_m": 150,
  "source": "stations_override.txt (ICAO list) + aviationweather.gov (METAR/TAF raw)",
  "station_count": 159,
  "stations": [
    {
      "icao": "BIKF",
      "alert": "OK",
      "vis_m": 9999,
      "fzfg": false,
      "metar_trigger": false,
      "taf_trigger": false,
      "metar": "METAR BIKF 202030Z 05010KT CAVOK 02/M00 Q1002",
      "taf": "TAF BIKF 201941Z 2021/2121 05012KT 9999 FEW020 BKN045 TX05/2117Z TN01/2101Z"
    },
    {
      "icao": "BKPR",
      "alert": "OK",
      "vis_m": 9999,
      "fzfg": false,
      "metar_trigger": false,
      "taf_trigger": false,
      "metar": "METAR BKPR 202030Z 09010KT CAVOK 00/M06 Q1023 NOSIG",
      "taf": "TAF BKPR 201730Z 2018/2118 10006KT CAVOK"
    },
    {
      "icao": "EBCI",
      "alert": "OK",
      "vis_m": 9999,
      "fzfg": false,
      "metar_trigger": false,
      "taf_trigger": false,
      "metar": "METAR EBCI 202020Z 16006KT 130V190 CAVOK 04/02 Q1011 NOSIG",
      "taf": "TAF EBCI 201702Z 2018/2124 16007KT CAVOK"
    },
    {
      "icao": "EDDB",
      "alert": "OK",
      "vis_m": 9999,
      "fzfg": false,
      "metar_trigger": false,
      "taf_trigger": false,
      "metar": "METAR EDDB 202020Z AUTO 13005KT CAVOK M05/M08 Q1018 NOSIG",
      "taf": "TAF EDDB 201700Z 2018/2118 12005KT CAVOK"
    },
    {
      "icao": "EDDH",
      "alert": "OK",
      "vis_m": 9999,
      "fzfg": false,
      "metar_trigger": false,
      "taf_trigger": false,
      "metar": "METAR EDDH 202020Z AUTO 09006KT CAVOK M01/M04 Q1016 NOSIG",
      "taf": "TAF EDDH 201700Z 2018/2124 10006KT CAVOK"
    },
    {
      "icao": "EDDK",
      "alert": "OK",
      "vis_m": 9999,
      "fzfg": false,
      "metar_trigger": false,
      "taf_trigger": false,
      "metar": "METAR EDDK 202020Z AUTO 13007KT CAVOK 01/M02 Q1014 NOSIG",
      "taf": "TAF EDDK 201700Z 2018/2124 13008KT CAVOK"
    },
    {
      "icao": "EDDN",
      "alert": "OK",
      "vis_m": 9999,
      "fzfg": false,
      "metar_trigger": false,
      "taf_trigger": false,
      "metar": "METAR EDDN 202020Z AUTO 11006KT CAVOK M03/M08 Q1016 NOSIG",
      "taf": "TAF EDDN 201700Z 2018/2118 11006KT CAVOK"
    },
    {
      "icao": "EDDS",
      "alert": "OK",
      "vis_m": 9999,
      "fzfg": false,
      "metar_trigger": false,
      "taf_trigger": false,
      "metar": "METAR EDDS 202020Z AUTO 22002KT CAVOK M02/M03 Q1014 NOSIG",
      "taf": "TAF EDDS 201700Z 2018/2118 VRB03KT CAVOK"
    },
    {
      "icao": "EDFH",
      "alert": "OK",
      "vis_m": 350,
      "fzfg": true,
      "metar_trigger": false,
      "taf_trigger": false,
      "metar": "METAR EDFH 202020Z 16009KT 130V210 0350 R21/0400N FZFG VV/// M02/M02 Q1013",
      "taf": ""
    },
    {
      "icao": "EDJA",
      "alert": "OK",
      "vis_m": 2700,
      "fzfg": false,
      "metar_trigger": false,
      "taf_trigger": false,
      "metar": "METAR EDJA 202020Z 00000KT 2700 BR NSC M03/M04 Q1014",
      "taf": "TAF EDJA 201700Z 2018/2103 05003KT CAVOK"
    },
    {
      "icao": "EDLW",
      "alert": "OK",
      "vis_m": 9999,
      "fzfg": false,
      "metar_trigger": false,
      "taf_trigger": false,
      "metar": "METAR EDLW 202020Z 00000KT CAVOK 03/M02 Q1013",
      "taf": "TAF EDLW 201700Z 2018/2118 14005KT CAVOK"
    },
    {
      "icao": "EDNY",
      "alert": "OK",
      "vis_m": 500,
      "fzfg": true,
      "metar_trigger": false,
      "taf_trigger": false,
      "metar": "METAR EDNY 202020Z 09003KT 070V130 0500 R24/0500N FZFG VV/// M01/M01 Q1015",
      "taf": "TAF EDNY 201700Z 2018/2103 VRB02KT 1200 BR BKN002"
    },
    {
      "icao": "EDSB",
      "alert": "OK",
      "vis_m": 500,
      "fzfg": true,
      "metar_trigger": false,
      "taf_trigger": false,
      "metar": "METAR EDSB 202020Z 02003KT 310V050 0500 R21/0650N FZFG VV/// M01/M01 Q1016",
      "taf": "TAF EDSB 201700Z 2018/2118 VRB02KT 4000 BR OVC003"
    },
    {
      "icao": "EETN",
      "alert": "OK",
      "vis_m": 1100,
      "fzfg": true,
      "metar_trigger": false,
      "taf_trigger": false,
      "metar": "METAR EETN 202020Z 09001KT 1100 R08/P2000N BR BKN002 OVC006 M08/M08 Q1024 TEMPO 0800 FZFG VV002",
      "taf": "TAF EETN 201730Z 2018/2118 10007KT 8000 OVC005"
    },
    {
      "icao": "EFTU",
      "alert": "OK",
      "vis_m": 9999,
      "fzfg": false,
      "metar_trigger": false,
      "taf_trigger": false,
      "metar": "METAR EFTU 202020Z AUTO VRB02KT 9999 OVC020 M04/M05 Q1024",
      "taf": "TAF EFTU 202030Z 2021/2121 04003KT 9999 FEW008 BKN020"
    },
    {
      "icao": "EGBB",
      "alert": "OK",
      "vis_m": 9000,
      "fzfg": false,
      "metar_trigger": false,
      "taf_trigger": false,
      "metar": "METAR EGBB 202020Z 14016KT 9000 -RA BKN018 OVC028 07/05 Q0998 RERA",
      "taf": "TAF EGBB 201700Z 2018/2118 15016G28KT 9999 BKN020"
    },
    {
      "icao": "EGGP",
      "alert": "OK",
      "vis_m": 9999,
      "fzfg": false,
      "metar_trigger": false,
      "taf_trigger": false,
      "metar": "METAR EGGP 202020Z 13023KT 9999 SCT040 08/04 Q0996",
      "taf": "TAF EGGP 201703Z 2018/2118 14020G30KT 9999 BKN025"
    },
    {
      "icao": "EGGW",
      "alert": "OK",
      "vis_m": 9999,
      "fzfg": false,
      "metar_trigger": false,
      "taf_trigger": false,
      "metar": "METAR EGGW 202020Z AUTO 15015KT 9999 BKN019 BKN025 OVC048 07/05 Q1001",
      "taf": "TAF EGGW 201702Z 2018/2118 15016G26KT 9999 BKN017"
    },
    {
      "icao": "EGKK",
      "alert": "OK",
      "vis_m": 9999,
      "fzfg": false,
      "metar_trigger": false,
      "taf_trigger": false,
      "metar": "METAR EGKK 202020Z 15014G24KT 9999 -RA BKN019 BKN031 09/06 Q1002",
      "taf": "TAF EGKK 201659Z 2018/2124 15009KT 9999 SCT020"
    },
    {
      "icao": "EGNM",
      "alert": "OK",
      "vis_m": 9999,
      "fzfg": false,
      "metar_trigger": false,
      "taf_trigger": false,
      "metar": "METAR EGNM 202020Z 12014KT 9999 BKN011 06/04 Q1000",
      "taf": "TAF EGNM 201704Z 2018/2118 13015G25KT 9999 BKN015"
    },
    {
      "icao": "EGPD",
      "alert": "OK",
      "vis_m": 9999,
      "fzfg": false,
      "metar_trigger": false,
      "taf_trigger": false,
      "metar": "METAR EGPD 202020Z AUTO 15021KT 9999 FEW011 BKN016 BKN020 08/05 Q1003 TEMPO BKN014",
      "taf": "TAF EGPD 201700Z 2018/2118 13018G30KT 9999 SCT012 BKN020"
    },
    {
      "icao": "EGPF",
      "alert": "OK",
      "vis_m": 9999,
      "fzfg": false,
      "metar_trigger": false,
      "taf_trigger": false,
      "metar": "METAR EGPF 202020Z AUTO 08014KT 9999 OVC029 08/04 Q0997",
      "taf": "TAF EGPF 201658Z 2018/2118 11015G30KT 9999 SCT035"
    },
    {
      "icao": "EHBK",
      "alert": "OK",
      "vis_m": 9999,
      "fzfg": false,
      "metar_trigger": false,
      "taf_trigger": false,
      "metar": "METAR EHBK 202025Z AUTO 15004KT 9999 NSC 03/01 Q1012 NOSIG",
      "taf": "TAF EHBK 201713Z 2018/2124 15005KT CAVOK"
    },
    {
      "icao": "EHEH",
      "alert": "OK",
      "vis_m": 9999,
      "fzfg": false,
      "metar_trigger": false,
      "taf_trigger": false,
      "metar": "METAR EHEH 202025Z AUTO 14006KT 9999 OVC190 02/01 Q1012 BLU NOSIG RMK TREND REMOTE BY EHWX",
      "taf": "TAF EHEH 201742Z 2018/2124 13004KT CAVOK"
    },
    {
      "icao": "EKBI",
      "alert": "OK",
      "vis_m": 6000,
      "fzfg": false,
      "metar_trigger": false,
      "taf_trigger": false,
      "metar": "METAR EKBI 202020Z AUTO 08008KT 6000 BKN006/// M01/M01 Q1017",
      "taf": "TAF EKBI 202027Z 2021/2121 08010KT 7000 NSC"
    },
    {
      "icao": "EKCH",
      "alert": "OK",
      "vis_m": 9999,
      "fzfg": false,
      "metar_trigger": false,
      "taf_trigger": false,
      "metar": "METAR EKCH 202020Z AUTO 08006KT 9999 NCD M02/M03 Q1019 NOSIG",
      "taf": "TAF EKCH 202027Z 2021/2121 09006KT 8000 NSC"
    },
    {
      "icao": "ENAL",
      "alert": "OK",
      "vis_m": 9999,
      "fzfg": false,
      "metar_trigger": false,
      "taf_trigger": false,
      "metar": "METAR ENAL 202020Z 16007KT 9999 SCT013 BKN028 04/02 Q1018",
      "taf": "TAF ENAL 202000Z 2021/2106 16005KT 9999 BKN015"
    },
    {
      "icao": "ENBR",
      "alert": "OK",
      "vis_m": 9999,
      "fzfg": false,
      "metar_trigger": false,
      "taf_trigger": false,
      "metar": "METAR ENBR 202020Z 00000KT CAVOK 01/M00 Q1017 NOSIG RMK WIND 1200FT 13006KT",
      "taf": "TAF ENBR 201700Z 2018/2118 09005KT 9999 FEW015 BKN030"
    },
    {
      "icao": "ENGM",
      "alert": "OK",
      "vis_m": 9999,
      "fzfg": false,
      "metar_trigger": false,
      "taf_trigger": false,
      "metar": "METAR ENGM 201950Z 04007KT 9999 OVC012 M04/M07 Q1023 NOSIG",
      "taf": "TAF ENGM 201700Z 2018/2118 03008KT 9999 BKN012"
    },
    {
      "icao": "ENHD",
      "alert": "OK",
      "vis_m": 9999,
      "fzfg": false,
      "metar_trigger": false,
      "taf_trigger": false,
      "metar": "METAR ENHD 202020Z 12005KT CAVOK 01/M02 Q1018",
      "taf": "TAF ENHD 201400Z 2015/2023 10006KT CAVOK"
    },
    {
      "icao": "ENTC",
      "alert": "OK",
      "vis_m": 9999,
      "fzfg": false,
      "metar_trigger": false,
      "taf_trigger": false,
      "metar": "METAR ENTC 202020Z 03002KT CAVOK M08/M09 Q1027 NOSIG RMK WIND 2600FT 11006KT",
      "taf": ""
    },
    {
      "icao": "ENTO",
      "alert": "OK",
      "vis_m": 9999,
      "fzfg": false,
      "metar_trigger": false,
      "taf_trigger": false,
      "metar": "METAR ENTO 202020Z 04008KT 9999 OVC013 M03/M05 Q1023 NOSIG",
      "taf": "TAF ENTO 201700Z 2018/2118 03008KT 9999 BKN012"
    },
    {
      "icao": "ENVA",
      "alert": "OK",
      "vis_m": 9999,
      "fzfg": false,
      "metar_trigger": false,
      "taf_trigger": false,
      "metar": "METAR ENVA 202020Z 06007KT CAVOK M03/M06 Q1022 NOSIG RMK WIND 670FT 11012KT",
      "taf": "TAF ENVA 201700Z 2018/2118 12008KT CAVOK"
    },
    {
      "icao": "ENZV",
      "alert": "OK",
      "vis_m": 9999,
      "fzfg": false,
      "metar_trigger": false,
      "taf_trigger": false,
      "metar": "METAR ENZV 202020Z 00000KT CAVOK M01/M03 Q1018 NOSIG",
      "taf": "TAF ENZV 201700Z 2018/2118 10005KT 9999 SCT040"
    },
    {
      "icao": "EPGD",
      "alert": "OK",
      "vis_m": 2500,
      "fzfg": false,
      "metar_trigger": false,
      "taf_trigger": false,
      "metar": "METAR EPGD 202030Z VRB01KT 2500 BR NSC M10/M11 Q1020",
      "taf": "TAF EPGD 201730Z 2018/2118 VRB02KT 5000 BR NSC"
    },
    {
      "icao": "EPKK",
      "alert": "OK",
      "vis_m": 3500,
      "fzfg": false,
      "metar_trigger": false,
      "taf_trigger": false,
      "metar": "METAR EPKK 202030Z VRB01KT 3500 BR NSC M09/M11 Q1023",
      "taf": "TAF EPKK 202030Z 2021/2121 VRB02KT 3500 BR NSC"
    },
    {
      "icao": "EPKT",
      "alert": "OK",
      "vis_m": 6000,
      "fzfg": false,
      "metar_trigger": false,
      "taf_trigger": false,
      "metar": "METAR EPKT 202030Z 15005KT 6000 NSC M06/M10 Q1022",
      "taf": "TAF EPKT 201730Z 2018/2118 15003KT 8000 NSC"
    },
    {
      "icao": "EPLB",
      "alert": "OK",
      "vis_m": 2400,
      "fzfg": false,
      "metar_trigger": false,
      "taf_trigger": false,
      "metar": "METAR EPLB 202030Z 09002KT 2400 BR NSC M13/M14 Q1024",
      "taf": "TAF EPLB 201730Z 2018/2118 VRB03KT 4500 BR NSC"
    },
    {
      "icao": "EPMO",
      "alert": "OK",
      "vis_m": 5000,
      "fzfg": false,
      "metar_trigger": false,
      "taf_trigger": false,
      "metar": "METAR EPMO 202030Z 12004KT 070V140 5000 BR NSC M08/M11 Q1023",
      "taf": "TAF EPMO 201730Z 2018/2118 12005KT 6000 NSC"
    },
    {
      "icao": "EPPO",
      "alert": "OK",
      "vis_m": 9999,
      "fzfg": false,
      "metar_trigger": false,
      "taf_trigger": false,
      "metar": "METAR EPPO 202030Z 11006KT CAVOK M04/M08 Q1020",
      "taf": "TAF EPPO 201730Z 2018/2118 13005KT CAVOK"
    },
    {
      "icao": "EPRA",
      "alert": "OK",
      "vis_m": 7000,
      "fzfg": false,
      "metar_trigger": false,
      "taf_trigger": false,
      "metar": "METAR EPRA 202030Z 15005KT 7000 NSC M09/M12 Q1023",
      "taf": "TAF EPRA 202030Z 2021/2106 14005KT 8000 NSC"
    },
    {
      "icao": "EPRZ",
      "alert": "OK",
      "vis_m": 7000,
      "fzfg": false,
      "metar_trigger": false,
      "taf_trigger": false,
      "metar": "METAR EPRZ 202030Z 21005KT 7000 NSC M07/M09 Q1024",
      "taf": "TAF EPRZ 201730Z 2018/2118 17006KT CAVOK"
    },
    {
      "icao": "EPSC",
      "alert": "OK",
      "vis_m": 9999,
      "fzfg": false,
      "metar_trigger": false,
      "taf_trigger": false,
      "metar": "METAR EPSC 202030Z 12007KT CAVOK M04/M07 Q1019",
      "taf": "TAF EPSC 201730Z 2018/2118 14005KT CAVOK"
    },
    {
      "icao": "EPSY",
      "alert": "OK",
      "vis_m": 1400,
      "fzfg": false,
      "metar_trigger": false,
      "taf_trigger": false,
      "metar": "METAR EPSY 202030Z 21002KT 1400 1300W R01/1800D BR MIFG NSC M16/M17 Q1022",
      "taf": "TAF EPSY 202030Z 2021/2106 VRB02KT 3000 BR NSC"
    },
    {
      "icao": "EPWA",
      "alert": "OK",
      "vis_m": 8000,
      "fzfg": false,
      "metar_trigger": false,
      "taf_trigger": false,
      "metar": "METAR EPWA 202030Z 12005KT 8000 NSC M09/M10 Q1023 NOSIG",
      "taf": "TAF EPWA 202030Z 2021/2121 12005KT 7000 NSC"
    },
    {
      "icao": "EPWR",
      "alert": "OK",
      "vis_m": 9999,
      "fzfg": false,
      "metar_trigger": false,
      "taf_trigger": false,
      "metar": "METAR EPWR 202030Z 18011KT CAVOK M00/M08 Q1020",
      "taf": "TAF EPWR 202030Z 2021/2121 18010KT CAVOK"
    },
    {
      "icao": "ESGG",
      "alert": "OK",
      "vis_m": 8000,
      "fzfg": false,
      "metar_trigger": false,
      "taf_trigger": false,
      "metar": "METAR ESGG 202020Z 05006KT 030V090 8000 OVC006 M03/M04 Q1020",
      "taf": "TAF ESGG 202030Z 2021/2121 07007KT 9000 OVC006"
    },
    {
      "icao": "ESKN",
      "alert": "OK",
      "vis_m": 8000,
      "fzfg": false,
      "metar_trigger": false,
      "taf_trigger": false,
      "metar": "METAR ESKN 202020Z 36005KT 330V030 8000 SCT007 OVC013 M02/M02 Q1022",
      "taf": "TAF ESKN 202030Z 2021/2121 04006KT 8000 BKN006 OVC012"
    },
    {
      "icao": "ESMS",
      "alert": "OK",
      "vis_m": 7000,
      "fzfg": false,
      "metar_trigger": false,
      "taf_trigger": false,
      "metar": "METAR ESMS 202020Z 08004KT 7000 NSC M03/M03 Q1018",
      "taf": "TAF ESMS 202027Z 2021/2121 09005KT 8000 NSC"
    },
    {
      "icao": "ESSA",
      "alert": "OK",
      "vis_m": 9999,
      "fzfg": false,
      "metar_trigger": false,
      "taf_trigger": false,
      "metar": "METAR ESSA 202020Z 36007KT 9999 BKN021 M03/M05 Q1023 TEMPO BKN012",
      "taf": "TAF ESSA 202030Z 2021/2121 03008KT 9999 OVC020"
    },
    {
      "icao": "EYKA",
      "alert": "OK",
      "vis_m": 3300,
      "fzfg": false,
      "metar_trigger": false,
      "taf_trigger": false,
      "metar": "METAR EYKA 202020Z VRB02KT 3300 BR NSC M11/M12 Q1023",
      "taf": "TAF EYKA 201700Z 2018/2118 VRB03KT 5000 BR NSC"
    },
    {
      "icao": "EYPA",
      "alert": "OK",
      "vis_m": 6000,
      "fzfg": false,
      "metar_trigger": false,
      "taf_trigger": false,
      "metar": "METAR EYPA 202020Z 14004KT 090V170 6000 NSC M10/M12 Q1022",
      "taf": "TAF EYPA 201700Z 2018/2118 VRB04KT 5000 BR SCT005"
    },
    {
      "icao": "EYVI",
      "alert": "OK",
      "vis_m": 2500,
      "fzfg": false,
      "metar_trigger": false,
      "taf_trigger": false,
      "metar": "METAR EYVI 202020Z 18007KT 2500 BR NSC M13/M15 Q1023 NOSIG",
      "taf": ""
    },
    {
      "icao": "GCFV",
      "alert": "OK",
      "vis_m": 9999,
      "fzfg": false,
      "metar_trigger": false,
      "taf_trigger": false,
      "metar": "METAR GCFV 202030Z 33008KT 9999 FEW040 17/08 Q1024",
      "taf": "TAF GCFV 202000Z 2021/2121 35010KT 9999 SCT035 TX21/2114Z TN14/2106Z"
    },
    {
      "icao": "GCLP",
      "alert": "OK",
      "vis_m": 9999,
      "fzfg": false,
      "metar_trigger": false,
      "taf_trigger": false,
      "metar": "METAR GCLP 202030Z 36010KT 9999 SCT040 17/09 Q1024 NOSIG",
      "taf": "TAF GCLP 202000Z 2021/2121 34008KT 9999 BKN040 TX21/2114Z TN14/2106Z"
    },
    {
      "icao": "GCTS",
      "alert": "OK",
      "vis_m": 9999,
      "fzfg": false,
      "metar_trigger": false,
      "taf_trigger": false,
      "metar": "METAR GCTS 202030Z 11005KT 030V170 9999 BKN040 18/08 Q1025 NOSIG",
      "taf": "TAF GCTS 202000Z 2021/2121 VRB05KT 9999 SCT035 TX22/2114Z TN14/2106Z"
    },
    {
      "icao": "GMAD",
      "alert": "OK",
      "vis_m": 9999,
      "fzfg": false,
      "metar_trigger": false,
      "taf_trigger": false,
      "metar": "METAR GMAD 202030Z 15006KT CAVOK 12/11 Q1019 NOSIG",
      "taf": "TAF GMAD 201700Z 2018/2124 23004KT CAVOK"
    },
    {
      "icao": "GMMN",
      "alert": "OK",
      "vis_m": 9999,
      "fzfg": false,
      "metar_trigger": false,
      "taf_trigger": false,
      "metar": "METAR GMMN 202030Z 19007KT 9999 SCT021 BKN080 10/09 Q1022 NOSIG",
      "taf": "TAF GMMN 201700Z 2018/2124 22010KT 9999 SCT040 BKN080"
    },
    {
      "icao": "GMMX",
      "alert": "OK",
      "vis_m": 9999,
      "fzfg": false,
      "metar_trigger": false,
      "taf_trigger": false,
      "metar": "METAR GMMX 202030Z VRB02KT 9999 FEW026 SCT200 11/05 Q1021 NOSIG",
      "taf": "TAF GMMX 201700Z 2018/2124 28006KT 8000 SCT026"
    },
    {
      "icao": "HEGN",
      "alert": "OK",
      "vis_m": 9999,
      "fzfg": false,
      "metar_trigger": false,
      "taf_trigger": false,
      "metar": "METAR HEGN 202000Z 30007KT CAVOK 15/07 Q1020 NOSIG",
      "taf": "TAF HEGN 201700Z 2018/2124 30012KT CAVOK"
    },
    {
      "icao": "HEMA",
      "alert": "OK",
      "vis_m": 9999,
      "fzfg": false,
      "metar_trigger": false,
      "taf_trigger": false,
      "metar": "METAR HEMA 202000Z 27008KT CAVOK 16/11 Q1019 NOSIG",
      "taf": "TAF HEMA 201700Z 2018/2124 29014KT CAVOK"
    },
    {
      "icao": "HESH",
      "alert": "OK",
      "vis_m": 9999,
      "fzfg": false,
      "metar_trigger": false,
      "taf_trigger": false,
      "metar": "METAR HESH 202000Z 34009KT CAVOK 18/07 Q1019 NOSIG",
      "taf": "TAF HESH 201700Z 2018/2124 34010KT CAVOK"
    },
    {
      "icao": "HESX",
      "alert": "OK",
      "vis_m": 9999,
      "fzfg": false,
      "metar_trigger": false,
      "taf_trigger": false,
      "metar": "METAR HESX 202000Z 05009KT CAVOK 12/06 Q1021 NOSIG",
      "taf": "TAF HESX 201700Z 2018/2124 06014G24KT 8000 NSC"
    },
    {
      "icao": "LATI",
      "alert": "OK",
      "vis_m": null,
      "fzfg": false,
      "metar_trigger": false,
      "taf_trigger": false,
      "metar": "",
      "taf": "TAF LATI 201700Z 2018/2118 VRB04KT CAVOK TX12/2112Z TN02/2105Z"
    },
    {
      "icao": "LBPD",
      "alert": "OK",
      "vis_m": 9999,
      "fzfg": false,
      "metar_trigger": false,
      "taf_trigger": false,
      "metar": "METAR LBPD 202030Z AUTO 00000KT 9999 NCD M05/M07 Q1031",
      "taf": "TAF LBPD 201700Z 2018/2118 10008KT 9999 SCT030 SCT080"
    },
    {
      "icao": "LBSF",
      "alert": "OK",
      "vis_m": 9999,
      "fzfg": false,
      "metar_trigger": false,
      "taf_trigger": false,
      "metar": "METAR LBSF 202030Z AUTO 09009KT 9999 NCD M04/M07 Q1027 NOSIG",
      "taf": "TAF LBSF 201700Z 2018/2118 11010KT 9999 SCT060"
    },
    {
      "icao": "LBWN",
      "alert": "OK",
      "vis_m": 6000,
      "fzfg": false,
      "metar_trigger": false,
      "taf_trigger": false,
      "metar": "METAR LBWN 202030Z AUTO VRB02KT 6000 SCT017/// M05/M05 Q1032 TEMPO 4000 BR",
      "taf": "TAF LBWN 201700Z 2018/2118 VRB03KT 7000 NSC"
    },
    {
      "icao": "LCLK",
      "alert": "OK",
      "vis_m": 9999,
      "fzfg": false,
      "metar_trigger": false,
      "taf_trigger": false,
      "metar": "METAR LCLK 202030Z 32008KT CAVOK 04/00 Q1026 NOSIG",
      "taf": "TAF LCLK 201730Z 2018/2118 32007KT 9999 FEW040"
    },
    {
      "icao": "LCPH",
      "alert": "OK",
      "vis_m": 9999,
      "fzfg": false,
      "metar_trigger": false,
      "taf_trigger": false,
      "metar": "METAR LCPH 202030Z 06005KT 010V080 CAVOK 06/M02 Q1025 NOSIG",
      "taf": "TAF LCPH 201730Z 2018/2118 06008KT 9999 FEW040"
    },
    {
      "icao": "LEAL",
      "alert": "OK",
      "vis_m": 9999,
      "fzfg": false,
      "metar_trigger": false,
      "taf_trigger": false,
      "metar": "METAR LEAL 202030Z 36006KT 320V040 9999 -RA BKN050 14/04 Q1011 RERA NOSIG",
      "taf": "TAF LEAL 201700Z 2018/2118 30007KT 9999 FEW050 TX19/2113Z TN10/2106Z"
    },
    {
      "icao": "LEBB",
      "alert": "OK",
      "vis_m": 9999,
      "fzfg": false,
      "metar_trigger": false,
      "taf_trigger": false,
      "metar": "METAR LEBB 202030Z 18008KT 110V240 CAVOK 12/03 Q1010 NOSIG",
      "taf": "TAF LEBB 201700Z 2018/2118 20008KT 9999 SCT040 TX14/2115Z TN09/2021Z"
    },
    {
      "icao": "LEBL",
      "alert": "OK",
      "vis_m": 9000,
      "fzfg": false,
      "metar_trigger": false,
      "taf_trigger": false,
      "metar": "METAR LEBL 202030Z 04014KT 9000 FEW020 BKN030 12/10 Q1013 NOSIG",
      "taf": "TAF LEBL 201700Z 2018/2118 01013KT 9999 BKN020 TX14/2113Z TN08/2106Z"
    },
    {
      "icao": "LECH",
      "alert": "OK",
      "vis_m": 9999,
      "fzfg": false,
      "metar_trigger": false,
      "taf_trigger": false,
      "metar": "METAR LECH 202030Z AUTO 02010KT 350V060 9999 -RA FEW026 SCT050 BKN067 08/06 Q1012",
      "taf": ""
    },
    {
      "icao": "LEMD",
      "alert": "OK",
      "vis_m": 9999,
      "fzfg": false,
      "metar_trigger": false,
      "taf_trigger": false,
      "metar": "METAR LEMD 202030Z 36004KT 310V050 CAVOK 04/00 Q1015 NOSIG",
      "taf": "TAF LEMD 201700Z 2018/2124 VRB03KT CAVOK TX08/2114Z TNM03/2106Z"
    },
    {
      "icao": "LEMG",
      "alert": "OK",
      "vis_m": 9999,
      "fzfg": false,
      "metar_trigger": false,
      "taf_trigger": false,
      "metar": "METAR LEMG 202030Z 29010KT CAVOK 10/03 Q1017 NOSIG",
      "taf": "TAF LEMG 201700Z 2018/2118 29012KT CAVOK TX17/2114Z TN08/2107Z"
    },
    {
      "icao": "LEVC",
      "alert": "OK",
      "vis_m": 9999,
      "fzfg": false,
      "metar_trigger": false,
      "taf_trigger": false,
      "metar": "METAR LEVC 202030Z COR 30010KT 9999 RA BKN035 OVC055 10/08 Q1012 NOSIG",
      "taf": "TAF LEVC 201700Z 2018/2118 36005KT 9999 FEW040 TX15/2113Z TN09/2106Z"
    },
    {
      "icao": "LEXJ",
      "alert": "OK",
      "vis_m": 9000,
      "fzfg": false,
      "metar_trigger": false,
      "taf_trigger": false,
      "metar": "METAR LEXJ 202030Z 20019G30KT 160V250 9000 NSC 12/03 Q1008",
      "taf": "TAF LEXJ 202000Z 2021/2121 22009KT 9999 SCT040 TX15/2115Z TN08/2021Z"
    },
    {
      "icao": "LEZG",
      "alert": "OK",
      "vis_m": 9999,
      "fzfg": false,
      "metar_trigger": false,
      "taf_trigger": false,
      "metar": "METAR LEZG 202030Z 00000KT CAVOK 06/03 Q1014 NOSIG",
      "taf": "TAF LEZG 201700Z 2018/2118 VRB04KT 9999 FEW040 TX14/2115Z TN05/2106Z"
    },
    {
      "icao": "LEZL",
      "alert": "OK",
      "vis_m": 9999,
      "fzfg": false,
      "metar_trigger": false,
      "taf_trigger": false,
      "metar": "METAR LEZL 202030Z 28004KT CAVOK 10/05 Q1019 NOSIG",
      "taf": "TAF LEZL 202000Z 2021/2121 VRB04KT 9999 FEW030 TX15/2115Z TN05/2107Z"
    },
    {
      "icao": "LFBD",
      "alert": "OK",
      "vis_m": 9999,
      "fzfg": false,
      "metar_trigger": false,
      "taf_trigger": false,
      "metar": "METAR LFBD 202030Z AUTO 16009KT CAVOK 08/06 Q1010 NOSIG",
      "taf": "TAF LFBD 201700Z 2018/2124 15008KT 9999 BKN020 TX14/2114Z TN07/2105Z"
    },
    {
      "icao": "LFLL",
      "alert": "OK",
      "vis_m": 500,
      "fzfg": false,
      "metar_trigger": false,
      "taf_trigger": false,
      "metar": "METAR LFLL 202030Z 15003KT 100V220 0500 R35L/0550N R17R/0900N R35R/0600N R17L/0700D FG VV/// 01/01 Q1014 NOSIG",
      "taf": "TAF LFLL 201700Z 2018/2124 VRB02KT 0400 FG VV///"
    },
    {
      "icao": "LFLS",
      "alert": "OK",
      "vis_m": 900,
      "fzfg": true,
      "metar_trigger": false,
      "taf_trigger": false,
      "metar": "METAR LFLS 202030Z AUTO 11001KT 0900 R09/1700U R27/1100U FZFG VV/// M01/M01 Q1014 TEMPO 0200",
      "taf": ""
    },
    {
      "icao": "LFMN",
      "alert": "OK",
      "vis_m": 9999,
      "fzfg": false,
      "metar_trigger": false,
      "taf_trigger": false,
      "metar": "METAR LFMN 202030Z 32011KT CAVOK 09/03 Q1014 NOSIG",
      "taf": "TAF LFMN 202000Z 2021/2203 33010KT CAVOK"
    },
    {
      "icao": "LFOB",
      "alert": "OK",
      "vis_m": 9999,
      "fzfg": false,
      "metar_trigger": false,
      "taf_trigger": false,
      "metar": "METAR LFOB 202030Z AUTO 13014KT 9999 BKN040 OVC050 07/05 Q1008 NOSIG",
      "taf": "TAF LFOB 201700Z 2018/2118 14010G20KT 9999 OVC045"
    },
    {
      "icao": "LFPO",
      "alert": "OK",
      "vis_m": 9999,
      "fzfg": false,
      "metar_trigger": false,
      "taf_trigger": false,
      "metar": "METAR LFPO 202030Z 16010KT CAVOK 08/05 Q1009 NOSIG",
      "taf": "TAF LFPO 201700Z 2018/2124 14010KT CAVOK"
    },
    {
      "icao": "LFSB",
      "alert": "OK",
      "vis_m": 800,
      "fzfg": true,
      "metar_trigger": false,
      "taf_trigger": false,
      "metar": "METAR LFSB 202030Z AUTO VRB02KT 0800 0550 R15/1300U R33/1000N FZFG VV/// M01/M01 Q1015 TEMPO 0300 FZFG",
      "taf": "TAF LFSB 201700Z 2018/2118 34006KT 1500 BR OVC002"
    },
    {
      "icao": "LGAV",
      "alert": "OK",
      "vis_m": 9999,
      "fzfg": false,
      "metar_trigger": false,
      "taf_trigger": false,
      "metar": "METAR LGAV 202020Z 02010KT 9999 FEW020 SCT030 09/02 Q1023 NOSIG",
      "taf": "TAF LGAV 201700Z 2018/2118 05018KT 9999 FEW018 BKN025"
    },
    {
      "icao": "LGTS",
      "alert": "OK",
      "vis_m": 9999,
      "fzfg": false,
      "metar_trigger": false,
      "taf_trigger": false,
      "metar": "METAR LGTS 202020Z VRB02KT 9999 SCT025 03/M03 Q1029 NOSIG",
      "taf": "TAF LGTS 201700Z 2018/2118 11010KT 9999 FEW010 BKN025"
    },
    {
      "icao": "LHBP",
      "alert": "OK",
      "vis_m": 6000,
      "fzfg": false,
      "metar_trigger": false,
      "taf_trigger": false,
      "metar": "METAR LHBP 202030Z VRB01KT 6000 NSC M12/M13 Q1028 BECMG 1400 BCFG BR BKN002",
      "taf": "TAF LHBP 201715Z 2018/2118 08006KT 5000 BR SCT006"
    },
    {
      "icao": "LHDC",
      "alert": "OK",
      "vis_m": 4900,
      "fzfg": false,
      "metar_trigger": false,
      "taf_trigger": false,
      "metar": "METAR LHDC 202015Z AUTO 04006KT 4900 BR NCD M08/M10 Q1028",
      "taf": "TAF LHDC 201415Z 2015/2024 VRB03KT 3500 BR NSC"
    },
    {
      "icao": "LIBD",
      "alert": "OK",
      "vis_m": 9999,
      "fzfg": false,
      "metar_trigger": false,
      "taf_trigger": false,
      "metar": "METAR LIBD 202020Z AUTO 19003KT 9999 BKN110/// 06/04 Q1017",
      "taf": "TAF LIBD 201700Z 2018/2118 11012KT CAVOK"
    },
    {
      "icao": "LIBG",
      "alert": "OK",
      "vis_m": null,
      "fzfg": false,
      "metar_trigger": false,
      "taf_trigger": false,
      "metar": "",
      "taf": "TAF LIBG 201700Z 2018/2103 12007KT CAVOK"
    },
    {
      "icao": "LIBP",
      "alert": "OK",
      "vis_m": 9999,
      "fzfg": false,
      "metar_trigger": false,
      "taf_trigger": false,
      "metar": "METAR LIBP 202020Z AUTO 24002KT 9999 BKN041/// BKN170/// 07/06 Q1018",
      "taf": "TAF LIBP 201700Z 2018/2118 VRB05KT 9999 FEW050"
    },
    {
      "icao": "LIBR",
      "alert": "OK",
      "vis_m": 9999,
      "fzfg": false,
      "metar_trigger": false,
      "taf_trigger": false,
      "metar": "METAR LIBR 202020Z VRB02KT CAVOK 09/02 Q1017",
      "taf": "TAF LIBR 201700Z 2018/2118 08005KT CAVOK"
    },
    {
      "icao": "LICA",
      "alert": "OK",
      "vis_m": 9999,
      "fzfg": false,
      "metar_trigger": false,
      "taf_trigger": false,
      "metar": "METAR LICA 202020Z AUTO 07026G39KT 9999 -RA OVC040/// 09/06 Q1008",
      "taf": "TAF LICA 201700Z 2018/2118 08025G40KT 8000 BKN030"
    },
    {
      "icao": "LICC",
      "alert": "OK",
      "vis_m": 2000,
      "fzfg": false,
      "metar_trigger": false,
      "taf_trigger": false,
      "metar": "METAR LICC 202020Z 07037G52KT 2000 RA BR BKN005 OVC015 13/11 Q1003",
      "taf": "TAF LICC 201700Z 2018/2118 08030G50KT 4000 RA BKN015"
    },
    {
      "icao": "LICJ",
      "alert": "OK",
      "vis_m": 9999,
      "fzfg": false,
      "metar_trigger": false,
      "taf_trigger": false,
      "metar": "METAR LICJ 202020Z AUTO 08031KT 9999 -RA BKN026/// 12/08 Q1002",
      "taf": "TAF LICJ 201700Z 2018/2118 08030G50KT 9999 BKN040"
    },
    {
      "icao": "LIMC",
      "alert": "OK",
      "vis_m": 9999,
      "fzfg": false,
      "metar_trigger": false,
      "taf_trigger": false,
      "metar": "METAR LIMC 202020Z VRB02KT 9999 BKN065 05/00 Q1020 NOSIG",
      "taf": "TAF LIMC 201700Z 2018/2124 VRB04KT 9999 SCT080"
    },
    {
      "icao": "LIME",
      "alert": "OK",
      "vis_m": 8000,
      "fzfg": false,
      "metar_trigger": false,
      "taf_trigger": false,
      "metar": "METAR LIME 202020Z 35003KT 8000 SCT070 01/M01 Q1020 NOSIG",
      "taf": "TAF LIME 201700Z 2018/2118 VRB04KT 9999 FEW060"
    },
    {
      "icao": "LIMF",
      "alert": "OK",
      "vis_m": 8000,
      "fzfg": false,
      "metar_trigger": false,
      "taf_trigger": false,
      "metar": "METAR LIMF 202020Z 28003KT 8000 NSC 01/M01 Q1020",
      "taf": "TAF LIMF 201700Z 2018/2118 VRB04KT 9999 BKN060"
    },
    {
      "icao": "LIMJ",
      "alert": "OK",
      "vis_m": 9999,
      "fzfg": false,
      "metar_trigger": false,
      "taf_trigger": false,
      "metar": "METAR LIMJ 202020Z AUTO 04018KT 9999 NCD 06/M04 Q1017",
      "taf": "TAF LIMJ 201700Z 2018/2118 02015KT 9999 FEW080"
    },
    {
      "icao": "LIPE",
      "alert": "OK",
      "vis_m": 9999,
      "fzfg": false,
      "metar_trigger": false,
      "taf_trigger": false,
      "metar": "METAR LIPE 202020Z 23004KT 9999 FEW030 SCT050 01/M01 Q1021",
      "taf": "TAF LIPE 201700Z 2018/2118 VRB05KT 8000 BKN030"
    },
    {
      "icao": "LIPH",
      "alert": "OK",
      "vis_m": 9999,
      "fzfg": false,
      "metar_trigger": false,
      "taf_trigger": false,
      "metar": "METAR LIPH 202020Z 34002KT CAVOK M00/M04 Q1020",
      "taf": "TAF LIPH 201700Z 2018/2118 VRB05KT CAVOK"
    },
    {
      "icao": "LIPQ",
      "alert": "OK",
      "vis_m": 9999,
      "fzfg": false,
      "metar_trigger": false,
      "taf_trigger": false,
      "metar": "METAR LIPQ 202020Z AUTO VRB02KT 9999 NCD M01/M08 Q1020",
      "taf": "TAF LIPQ 201700Z 2018/2118 VRB05KT CAVOK"
    },
    {
      "icao": "LIPR",
      "alert": "OK",
      "vis_m": 9999,
      "fzfg": false,
      "metar_trigger": false,
      "taf_trigger": false,
      "metar": "METAR LIPR 202020Z 30009KT 9999 FEW040 03/01 Q1020",
      "taf": "TAF LIPR 201700Z 2018/2118 30015KT 9999 BKN030"
    },
    {
      "icao": "LIPX",
      "alert": "OK",
      "vis_m": 9999,
      "fzfg": false,
      "metar_trigger": false,
      "taf_trigger": false,
      "metar": "METAR LIPX 202020Z 31004KT CAVOK 00/M03 Q1021",
      "taf": "TAF LIPX 201700Z 2018/2118 VRB04KT 9999 SCT070"
    },
    {
      "icao": "LIPY",
      "alert": "OK",
      "vis_m": 8000,
      "fzfg": false,
      "metar_trigger": false,
      "taf_trigger": false,
      "metar": "METAR LIPY 202020Z AUTO VRB04KT 8000 BKN008/// BKN033/// BKN230/// 06/05 Q1019",
      "taf": "TAF LIPY 201700Z 2018/2118 33010KT 9999 BKN030"
    },
    {
      "icao": "LIPZ",
      "alert": "OK",
      "vis_m": 9999,
      "fzfg": false,
      "metar_trigger": false,
      "taf_trigger": false,
      "metar": "METAR LIPZ 202020Z 01003KT CAVOK 02/M05 Q1020 NOSIG",
      "taf": "TAF LIPZ 201700Z 2018/2124 02008KT CAVOK"
    },
    {
      "icao": "LIRF",
      "alert": "OK",
      "vis_m": 9999,
      "fzfg": false,
      "metar_trigger": false,
      "taf_trigger": false,
      "metar": "METAR LIRF 202020Z 08003KT 040V120 CAVOK 09/01 Q1013 NOSIG",
      "taf": "TAF LIRF 201700Z 2018/2124 VRB04KT 9999 SCT050"
    },
    {
      "icao": "LIRN",
      "alert": "OK",
      "vis_m": 9999,
      "fzfg": false,
      "metar_trigger": false,
      "taf_trigger": false,
      "metar": "METAR LIRN 202020Z 04010KT 9999 BKN060 09/02 Q1014 NOSIG",
      "taf": "TAF LIRN 201700Z 2018/2118 05015G26KT 9999 BKN035"
    },
    {
      "icao": "LIRP",
      "alert": "OK",
      "vis_m": 9999,
      "fzfg": false,
      "metar_trigger": false,
      "taf_trigger": false,
      "metar": "METAR LIRP 202015Z 10006KT CAVOK 08/01 Q1016 NOSIG",
      "taf": "TAF LIRP 201700Z 2018/2118 08015KT CAVOK"
    },
    {
      "icao": "LIRZ",
      "alert": "OK",
      "vis_m": 9999,
      "fzfg": false,
      "metar_trigger": false,
      "taf_trigger": false,
      "metar": "METAR LIRZ 202020Z AUTO 06012KT 9999 FEW200/// 09/01 Q1015",
      "taf": "TAF LIRZ 201700Z 2018/2118 05015KT 9999 SCT070"
    },
    {
      "icao": "LJLJ",
      "alert": "OK",
      "vis_m": 8000,
      "fzfg": false,
      "metar_trigger": false,
      "taf_trigger": false,
      "metar": "METAR LJLJ 202030Z 11004KT 080V140 8000 OVC017 M04/M08 Q1024 NOSIG",
      "taf": "TAF LJLJ 201700Z 2018/2118 12003KT 9999 SCT018"
    },
    {
      "icao": "LKMT",
      "alert": "OK",
      "vis_m": 9999,
      "fzfg": false,
      "metar_trigger": false,
      "taf_trigger": false,
      "metar": "METAR LKMT 202030Z 25015KT CAVOK M02/M07 Q1023 NOSIG",
      "taf": "TAF LKMT 201700Z 2018/2118 23014KT CAVOK"
    },
    {
      "icao": "LKPR",
      "alert": "OK",
      "vis_m": 9999,
      "fzfg": false,
      "metar_trigger": false,
      "taf_trigger": false,
      "metar": "METAR LKPR 202030Z 14005KT CAVOK M07/M09 Q1020 NOSIG",
      "taf": "TAF LKPR 202000Z 2021/2203 14005KT CAVOK"
    },
    {
      "icao": "LLBG",
      "alert": "OK",
      "vis_m": 9999,
      "fzfg": false,
      "metar_trigger": false,
      "taf_trigger": false,
      "metar": "METAR LLBG 202020Z VRB03KT 9999 FEW050 09/03 Q1024 NOSIG",
      "taf": "TAF LLBG 201719Z 2018/2118 VRB04KT CAVOK"
    },
    {
      "icao": "LMML",
      "alert": "OK",
      "vis_m": 9000,
      "fzfg": false,
      "metar_trigger": false,
      "taf_trigger": false,
      "metar": "METAR LMML 202045Z 33004KT 250V020 9000 -RA FEW007 10/09 Q1000 RETS NOSIG",
      "taf": "TAF LMML 201700Z 2018/2118 12025G37KT 5000 DU SCT015"
    },
    {
      "icao": "LOWW",
      "alert": "OK",
      "vis_m": 9000,
      "fzfg": false,
      "metar_trigger": false,
      "taf_trigger": false,
      "metar": "METAR LOWW 202020Z 14019KT 9000 FEW008 BKN009 M06/M08 Q1024 NOSIG",
      "taf": "TAF LOWW 202015Z 2021/2203 14013KT 9999 FEW008 BKN010 TXM05/2114Z TNM07/2109Z"
    },
    {
      "icao": "LPFR",
      "alert": "OK",
      "vis_m": 9999,
      "fzfg": false,
      "metar_trigger": false,
      "taf_trigger": false,
      "metar": "METAR LPFR 202030Z 27003KT 9999 FEW040 12/08 Q1019",
      "taf": "TAF LPFR 201700Z 2018/2118 28008KT 9999 SCT040"
    },
    {
      "icao": "LPMA",
      "alert": "OK",
      "vis_m": 9999,
      "fzfg": false,
      "metar_trigger": false,
      "taf_trigger": false,
      "metar": "METAR LPMA 202030Z 29006KT 270V330 9999 SCT016 16/08 Q1024",
      "taf": "TAF LPMA 201700Z 2018/2118 VRB05KT 9999 SCT016 SCT030"
    },
    {
      "icao": "LPPR",
      "alert": "OK",
      "vis_m": 2000,
      "fzfg": false,
      "metar_trigger": false,
      "taf_trigger": false,
      "metar": "METAR LPPR 202030Z 22008KT 2000 RA BR FEW004 BKN021 BKN034 12/12 Q1012",
      "taf": "TAF LPPR 201700Z 2018/2118 19010KT 8000 -RA SCT008 BKN025"
    },
    {
      "icao": "LPPS",
      "alert": "OK",
      "vis_m": 9999,
      "fzfg": false,
      "metar_trigger": false,
      "taf_trigger": false,
      "metar": "METAR LPPS 202030Z 32011KT 9999 SCT014 16/11 Q1024",
      "taf": "TAF LPPS 201700Z 2018/2124 29012KT 9999 SCT015 SCT030"
    },
    {
      "icao": "LPPT",
      "alert": "OK",
      "vis_m": 9999,
      "fzfg": false,
      "metar_trigger": false,
      "taf_trigger": false,
      "metar": "METAR LPPT 202030Z 23006KT 210V270 9999 FEW015 SCT045 12/11 Q1016",
      "taf": "TAF LPPT 201700Z 2018/2124 25010KT 9999 SCT035"
    },
    {
      "icao": "LQBK",
      "alert": "OK",
      "vis_m": 9999,
      "fzfg": false,
      "metar_trigger": false,
      "taf_trigger": false,
      "metar": "METAR LQBK 202030Z 03004KT 360V060 9999 OVC018 M02/M05 Q1026 NOSIG",
      "taf": "TAF LQBK 201700Z 2018/2118 VRB02KT 9999 BKN020 TXM01/2113Z TNM06/2106Z"
    },
    {
      "icao": "LQSA",
      "alert": "OK",
      "vis_m": 6000,
      "fzfg": false,
      "metar_trigger": false,
      "taf_trigger": false,
      "metar": "METAR LQSA 202030Z VRB01KT 6000 NSC M07/M07 Q1022 NOSIG",
      "taf": "TAF LQSA 201700Z 2018/2118 VRB02KT 8000 SCT020 TXM00/2113Z TNM09/2106Z"
    },
    {
      "icao": "LQTZ",
      "alert": "OK",
      "vis_m": 2000,
      "fzfg": false,
      "metar_trigger": false,
      "taf_trigger": false,
      "metar": "METAR LQTZ 202030Z 00000KT 2000 BR FEW011 M08/M08 Q1025",
      "taf": ""
    },
    {
      "icao": "LRBC",
      "alert": "OK",
      "vis_m": 6000,
      "fzfg": false,
      "metar_trigger": false,
      "taf_trigger": false,
      "metar": "METAR LRBC 202030Z 17006KT 6000 NSC M07/M10 Q1030",
      "taf": "TAF LRBC 202000Z 2021/2106 15008KT 5000 BR NSC"
    },
    {
      "icao": "LRBS",
      "alert": "OK",
      "vis_m": 3500,
      "fzfg": false,
      "metar_trigger": false,
      "taf_trigger": false,
      "metar": "METAR LRBS 202030Z 27002KT 3500 BR NSC M06/M08 Q1031 BECMG 1500 BR",
      "taf": "TAF LRBS 201700Z 2018/2118 VRB04KT 5000 BR NSC"
    },
    {
      "icao": "LRBV",
      "alert": "OK",
      "vis_m": 8000,
      "fzfg": false,
      "metar_trigger": false,
      "taf_trigger": false,
      "metar": "METAR LRBV 202030Z 21006KT 8000 NSC M10/M12 Q1027",
      "taf": "TAF LRBV 202000Z 2021/2106 20006KT 8000 NSC"
    },
    {
      "icao": "LRCL",
      "alert": "OK",
      "vis_m": 4000,
      "fzfg": false,
      "metar_trigger": false,
      "taf_trigger": false,
      "metar": "METAR LRCL 202030Z 00000KT 4000 BR FEW007 M13/M15 Q1029",
      "taf": "TAF LRCL 202000Z 2021/2106 VRB04KT 3000 BR NSC"
    },
    {
      "icao": "LRCV",
      "alert": "OK",
      "vis_m": 3500,
      "fzfg": false,
      "metar_trigger": false,
      "taf_trigger": false,
      "metar": "METAR LRCV 202030Z 33002KT 3500 BR NSC M07/M08 Q1030",
      "taf": "TAF LRCV 202000Z 2021/2106 VRB04KT 3000 BR NSC"
    },
    {
      "icao": "LRIA",
      "alert": "OK",
      "vis_m": 4000,
      "fzfg": false,
      "metar_trigger": false,
      "taf_trigger": false,
      "metar": "METAR LRIA 202030Z 16001KT 4000 BR NSC M10/M12 Q1030",
      "taf": "TAF LRIA 202000Z 2021/2106 15008KT 5000 BR NSC"
    },
    {
      "icao": "LROP",
      "alert": "OK",
      "vis_m": 3500,
      "fzfg": false,
      "metar_trigger": false,
      "taf_trigger": false,
      "metar": "METAR LROP 202030Z 27004KT 3500 1400NE R08R/P2000 R08L/P2000 BR NSC M07/M09 Q1031 BECMG 1500 BR",
      "taf": "TAF LROP 201700Z 2018/2118 VRB04KT 5000 BR NSC"
    },
    {
      "icao": "LRSB",
      "alert": "OK",
      "vis_m": 3500,
      "fzfg": false,
      "metar_trigger": false,
      "taf_trigger": false,
      "metar": "METAR LRSB 202030Z 27003KT 3500 BR NSC M10/M11 Q1027",
      "taf": "TAF LRSB 201700Z 2018/2118 VRB04KT 7000 NSC"
    },
    {
      "icao": "LRSM",
      "alert": "OK",
      "vis_m": 3800,
      "fzfg": false,
      "metar_trigger": false,
      "taf_trigger": false,
      "metar": "METAR LRSM 202030Z AUTO 07003KT 3800 BR NCD M12/M14 Q1029",
      "taf": "TAF LRSM 201400Z 2015/2024 VRB04KT 5000 BR NSC"
    },
    {
      "icao": "LRSV",
      "alert": "OK",
      "vis_m": 9999,
      "fzfg": false,
      "metar_trigger": false,
      "taf_trigger": false,
      "metar": "METAR LRSV 202030Z 22005KT CAVOK M06/M08 Q1026",
      "taf": "TAF LRSV 202000Z 2021/2106 VRB04KT 5000 BR NSC"
    },
    {
      "icao": "LRTM",
      "alert": "OK",
      "vis_m": 3500,
      "fzfg": false,
      "metar_trigger": false,
      "taf_trigger": false,
      "metar": "METAR LRTM 202030Z AUTO 04001KT 3500 BR NCD M16/M18 Q1029",
      "taf": "TAF LRTM 201400Z 2015/2024 VRB04KT 5000 BR NSC"
    },
    {
      "icao": "LRTR",
      "alert": "OK",
      "vis_m": 7000,
      "fzfg": false,
      "metar_trigger": false,
      "taf_trigger": false,
      "metar": "METAR LRTR 202030Z 18002KT 7000 NSC M05/M06 Q1027",
      "taf": "TAF LRTR 201700Z 2018/2118 02008KT 5000 BR NSC"
    },
    {
      "icao": "LTAC",
      "alert": "OK",
      "vis_m": 9999,
      "fzfg": false,
      "metar_trigger": false,
      "taf_trigger": false,
      "metar": "METAR LTAC 202020Z 04003KT 010V070 CAVOK M05/M11 Q1028 NOSIG RMK RWY21C VRB01KT RWY03L VRB02KT RWY21R VRB01KT RWY03R VRB01KT RWY21L 00000KT",
      "taf": "TAF LTAC 201640Z 2018/2118 VRB02KT CAVOK"
    },
    {
      "icao": "LTFM",
      "alert": "OK",
      "vis_m": 9999,
      "fzfg": false,
      "metar_trigger": false,
      "taf_trigger": false,
      "metar": "METAR LTFM 202020Z 09005KT 9999 SCT035 04/M02 Q1030 NOSIG RMK RWY17L 08008KT RWY34L 07006KT RWY16R 07006KT RWY36 10006KT 040V110 RWY18 11005KT",
      "taf": "TAF LTFM 201640Z 2018/2124 05013KT 9999 FEW018 BKN032"
    },
    {
      "icao": "LUKK",
      "alert": "OK",
      "vis_m": 3800,
      "fzfg": false,
      "metar_trigger": false,
      "taf_trigger": false,
      "metar": "METAR LUKK 202030Z VRB03KT 3800 BR NSC M11/M13 Q1030 TEMPO 1500 BR",
      "taf": "TAF LUKK 201729Z 2018/2118 VRB04KT 5000 BR NSC"
    },
    {
      "icao": "LWOH",
      "alert": "OK",
      "vis_m": 9999,
      "fzfg": false,
      "metar_trigger": false,
      "taf_trigger": false,
      "metar": "METAR LWOH 201950Z 02012KT 330V060 9999 SCT035 01/M05 Q1023",
      "taf": "TAF LWOH 202020Z 2021/2121 03012KT 9999 SCT035"
    },
    {
      "icao": "LWSK",
      "alert": "OK",
      "vis_m": null,
      "fzfg": false,
      "metar_trigger": false,
      "taf_trigger": false,
      "metar": "",
      "taf": "TAF LWSK 202020Z 2021/2121 VRB02KT CAVOK"
    },
    {
      "icao": "LYBE",
      "alert": "OK",
      "vis_m": 9999,
      "fzfg": false,
      "metar_trigger": false,
      "taf_trigger": false,
      "metar": "METAR LYBE 202030Z 10009KT CAVOK M01/M06 Q1026 NOSIG",
      "taf": "TAF LYBE 201700Z 2018/2118 10007KT CAVOK TX05/2113Z TNM05/2106Z"
    },
    {
      "icao": "LYNI",
      "alert": "OK",
      "vis_m": 9999,
      "fzfg": false,
      "metar_trigger": false,
      "taf_trigger": false,
      "metar": "METAR LYNI 202030Z VRB02KT CAVOK M04/M07 Q1027 NOSIG",
      "taf": "TAF LYNI 201700Z 2018/2118 08006KT CAVOK TX05/2113Z TNM07/2106Z"
    },
    {
      "icao": "LYPG",
      "alert": "OK",
      "vis_m": 9999,
      "fzfg": false,
      "metar_trigger": false,
      "taf_trigger": false,
      "metar": "METAR LYPG 202030Z 34006KT CAVOK 01/M03 Q1020 NOSIG",
      "taf": "TAF LYPG 201700Z 2018/2118 36005KT 9999 FEW050 BKN080 TX08/2113Z TN01/2022Z"
    },
    {
      "icao": "LZIB",
      "alert": "OK",
      "vis_m": 7000,
      "fzfg": false,
      "metar_trigger": false,
      "taf_trigger": false,
      "metar": "METAR LZIB 202030Z 14007KT 7000 OVC006 M06/M07 Q1027 NOSIG",
      "taf": "TAF LZIB 201715Z 2018/2118 10008KT 8000 SCT010"
    },
    {
      "icao": "LZKZ",
      "alert": "OK",
      "vis_m": 4300,
      "fzfg": false,
      "metar_trigger": false,
      "taf_trigger": false,
      "metar": "METAR LZKZ 202030Z 00000KT 4300 BR NSC M11/M12 Q1028 NOSIG",
      "taf": "TAF LZKZ 201715Z 2018/2118 VRB02KT 4500 BR NSC"
    },
    {
      "icao": "LZTT",
      "alert": "OK",
      "vis_m": 9999,
      "fzfg": false,
      "metar_trigger": false,
      "taf_trigger": false,
      "metar": "METAR LZTT 202030Z VRB03KT CAVOK M10/M12 Q1023",
      "taf": "TAF LZTT 201715Z 2018/2118 24005KT CAVOK"
    },
    {
      "icao": "OEJN",
      "alert": "OK",
      "vis_m": 9999,
      "fzfg": false,
      "metar_trigger": false,
      "taf_trigger": false,
      "metar": "METAR OEJN 202000Z 35005KT CAVOK 23/12 Q1015 NOSIG",
      "taf": "TAF OEJN 201700Z 2018/2124 36006KT 9999 FEW040"
    },
    {
      "icao": "OEMA",
      "alert": "OK",
      "vis_m": 9999,
      "fzfg": false,
      "metar_trigger": false,
      "taf_trigger": false,
      "metar": "METAR OEMA 202000Z 02005KT CAVOK 18/M12 Q1020 NOSIG",
      "taf": "TAF OEMA 201700Z 2018/2124 VRB03KT CAVOK"
    },
    {
      "icao": "OJAI",
      "alert": "OK",
      "vis_m": 5000,
      "fzfg": false,
      "metar_trigger": false,
      "taf_trigger": false,
      "metar": "METAR OJAI 202000Z 03003KT 5000 HZ NSC 04/01 Q1023 NOSIG",
      "taf": "TAF OJAI 201700Z 2018/2124 11010KT 5000 HZ FEW030"
    },
    {
      "icao": "OMAA",
      "alert": "OK",
      "vis_m": 9999,
      "fzfg": false,
      "metar_trigger": false,
      "taf_trigger": false,
      "metar": "METAR OMAA 202000Z 31004KT CAVOK 19/16 Q1015 NOSIG",
      "taf": "TAF OMAA 201700Z 2018/2200 VRB02KT 8000 FEW030"
    },
    {
      "icao": "OMDB",
      "alert": "OK",
      "vis_m": 9999,
      "fzfg": false,
      "metar_trigger": false,
      "taf_trigger": false,
      "metar": "METAR OMDB 202030Z 23004KT 9999 FEW045 21/16 Q1014 NOSIG",
      "taf": "TAF OMDB 201700Z 2018/2200 29012KT 8000 FEW035"
    },
    {
      "icao": "UAAA",
      "alert": "CRITICAL",
      "vis_m": 0,
      "fzfg": true,
      "metar_trigger": true,
      "taf_trigger": false,
      "metar": "METAR UAAA 202030Z VRB01MPS 0000 R23L/0150N FZFG VV001 M12/M14 Q1022 NOSIG RMK QBB050",
      "taf": ""
    },
    {
      "icao": "UBBB",
      "alert": "OK",
      "vis_m": 9999,
      "fzfg": false,
      "metar_trigger": false,
      "taf_trigger": false,
      "metar": "METAR UBBB 202030Z 32024G34KT 9999 OVC020 02/M01 Q1023 NOSIG",
      "taf": "TAF UBBB 201700Z 2018/2118 32016G26KT 8000 SCT010 OVC020 TX04/2110Z TN00/2101Z"
    },
    {
      "icao": "UDSG",
      "alert": "OK",
      "vis_m": 9999,
      "fzfg": false,
      "metar_trigger": false,
      "taf_trigger": false,
      "metar": "METAR UDSG 202030Z 22002KT 9999 BKN043 M07/M11 Q1019 NOSIG",
      "taf": "TAF UDSG 201700Z 2018/2118 VRB06KT 9999 BKN040"
    },
    {
      "icao": "UDYZ",
      "alert": "OK",
      "vis_m": 6000,
      "fzfg": false,
      "metar_trigger": false,
      "taf_trigger": false,
      "metar": "METAR UDYZ 202030Z 02003KT 6000 NSC M06/M08 Q1021 NOSIG",
      "taf": "TAF UDYZ 201700Z 2018/2118 06004KT 3500 BR NSC"
    },
    {
      "icao": "UGKO",
      "alert": "OK",
      "vis_m": 9999,
      "fzfg": false,
      "metar_trigger": false,
      "taf_trigger": false,
      "metar": "METAR UGKO 202030Z 24015KT 9999 -RA BKN021 OVC037 03/01 Q1026 NOSIG",
      "taf": "TAF UGKO 201700Z 2018/2118 26007KT 9999 SCT015 OVC050 TX07/2111Z TN01/2106Z"
    }
  ]
}