{
  "ts_utc": "2025-12-22T20:13:15Z",
  "threshold_m": 150,
  "source": "stations_override.txt (ICAO list) + aviationweather.gov (METAR/TAF raw)",
  "station_count": 159,
  "stations": [
    {
      "icao": "BIKF",
      "alert": "OK",
      "vis_m": 9999,
      "fzfg": false,
      "metar_trigger": false,
      "taf_trigger": false,
      "metar": "METAR BIKF 222000Z 23013KT 9999 -RA BKN012 OVC028 05/05 Q0996",
      "taf": "TAF BIKF 221947Z 2221/2321 26018G30KT 7000 -SHRA SCT015 BKN030 TX07/2318Z TN02/2306Z"
    },
    {
      "icao": "BKPR",
      "alert": "OK",
      "vis_m": 8000,
      "fzfg": false,
      "metar_trigger": false,
      "taf_trigger": false,
      "metar": "METAR BKPR 222000Z 28008KT 8000 BKN006 02/02 Q1019 NOSIG",
      "taf": "TAF BKPR 221730Z 2218/2318 VRB05KT 9999 BKN010"
    },
    {
      "icao": "EBCI",
      "alert": "OK",
      "vis_m": 9999,
      "fzfg": false,
      "metar_trigger": false,
      "taf_trigger": false,
      "metar": "METAR EBCI 221950Z 06003KT CAVOK 03/01 Q1010 NOSIG",
      "taf": "TAF EBCI 221709Z 2218/2324 06006KT CAVOK"
    },
    {
      "icao": "EDDB",
      "alert": "OK",
      "vis_m": 3500,
      "fzfg": false,
      "metar_trigger": false,
      "taf_trigger": false,
      "metar": "METAR EDDB 221950Z AUTO 07013KT 3500 BR OVC004 01/00 Q1020 TEMPO OVC005",
      "taf": "TAF EDDB 221700Z 2218/2318 08010KT 6000 OVC004"
    },
    {
      "icao": "EDDH",
      "alert": "OK",
      "vis_m": 5000,
      "fzfg": false,
      "metar_trigger": false,
      "taf_trigger": false,
      "metar": "METAR EDDH 221950Z AUTO 08010KT 5000 BR OVC003 02/02 Q1020 TEMPO 3500 -DZRA",
      "taf": "TAF EDDH 221700Z 2218/2324 09011KT 7000 OVC004"
    },
    {
      "icao": "EDDK",
      "alert": "OK",
      "vis_m": 9999,
      "fzfg": false,
      "metar_trigger": false,
      "taf_trigger": false,
      "metar": "METAR EDDK 221950Z AUTO 11008KT 060V140 9999 OVC018 05/01 Q1013 NOSIG",
      "taf": "TAF EDDK 221700Z 2218/2324 10007KT 9999 OVC015"
    },
    {
      "icao": "EDDN",
      "alert": "OK",
      "vis_m": 9999,
      "fzfg": false,
      "metar_trigger": false,
      "taf_trigger": false,
      "metar": "METAR EDDN 221950Z AUTO 09006KT 060V130 9999 OVC012 03/00 Q1013 NOSIG",
      "taf": "TAF EDDN 221700Z 2218/2318 08006KT 9000 BKN012"
    },
    {
      "icao": "EDDS",
      "alert": "OK",
      "vis_m": 9999,
      "fzfg": false,
      "metar_trigger": false,
      "taf_trigger": false,
      "metar": "METAR EDDS 221950Z AUTO 06006KT 9999 OVC010 01/M01 Q1010 TEMPO OVC008",
      "taf": ""
    },
    {
      "icao": "EDFH",
      "alert": "OK",
      "vis_m": 9999,
      "fzfg": false,
      "metar_trigger": false,
      "taf_trigger": false,
      "metar": "METAR EDFH 221950Z 11010KT 9999 BKN005 01/00 Q1010",
      "taf": "TAF EDFH 221700Z 2218/2318 11010KT 9000 SCT002 OVC004"
    },
    {
      "icao": "EDJA",
      "alert": "OK",
      "vis_m": 2500,
      "fzfg": false,
      "metar_trigger": false,
      "taf_trigger": false,
      "metar": "METAR EDJA 221950Z 05008KT 2500 BR OVC002 M02/M03 Q1010",
      "taf": "TAF EDJA 221700Z 2218/2303 05008KT 3000 BR OVC002"
    },
    {
      "icao": "EDLW",
      "alert": "OK",
      "vis_m": 9999,
      "fzfg": false,
      "metar_trigger": false,
      "taf_trigger": false,
      "metar": "METAR EDLW 221950Z 06006KT 9999 FEW019 02/M00 Q1013",
      "taf": "TAF EDLW 221700Z 2218/2318 07008KT 9999 SCT020"
    },
    {
      "icao": "EDNY",
      "alert": "OK",
      "vis_m": 9999,
      "fzfg": false,
      "metar_trigger": false,
      "taf_trigger": false,
      "metar": "METAR EDNY 221950Z AUTO 02008KT 9999 // BKN009/// M00/M02 Q1010",
      "taf": "TAF EDNY 221700Z 2218/2303 02005KT 9999 SCT012"
    },
    {
      "icao": "EDSB",
      "alert": "OK",
      "vis_m": 9999,
      "fzfg": false,
      "metar_trigger": false,
      "taf_trigger": false,
      "metar": "METAR EDSB 221950Z 05005KT 9999 FEW015 01/M01 Q1011",
      "taf": "TAF EDSB 221700Z 2218/2318 03007KT 9000 OVC015"
    },
    {
      "icao": "EETN",
      "alert": "OK",
      "vis_m": 9999,
      "fzfg": false,
      "metar_trigger": false,
      "taf_trigger": false,
      "metar": "METAR EETN 221950Z 09010KT 9999 -SN FEW020 OVC033 M03/M08 Q1028 NOSIG",
      "taf": "TAF EETN 221730Z 2218/2318 08012KT 9999 SCT010 BKN020"
    },
    {
      "icao": "EFTU",
      "alert": "OK",
      "vis_m": 9999,
      "fzfg": false,
      "metar_trigger": false,
      "taf_trigger": false,
      "metar": "METAR EFTU 221950Z AUTO 11012KT 9999 OVC020 M04/M09 Q1030",
      "taf": "TAF EFTU 221731Z 2218/2318 07010KT 9999 -SN FEW014 BKN020"
    },
    {
      "icao": "EGBB",
      "alert": "OK",
      "vis_m": 500,
      "fzfg": false,
      "metar_trigger": false,
      "taf_trigger": false,
      "metar": "METAR EGBB 221950Z 03004KT 360V070 0500 R15/1400U FG OVC002 07/07 Q1011",
      "taf": ""
    },
    {
      "icao": "EGGP",
      "alert": "OK",
      "vis_m": 7000,
      "fzfg": false,
      "metar_trigger": false,
      "taf_trigger": false,
      "metar": "METAR EGGP 221950Z 14005KT 110V180 7000 -RA OVC009 08/07 Q1012",
      "taf": ""
    },
    {
      "icao": "EGGW",
      "alert": "OK",
      "vis_m": 3300,
      "fzfg": false,
      "metar_trigger": false,
      "taf_trigger": false,
      "metar": "METAR EGGW 221950Z AUTO 08005KT 3300 BR OVC003 07/07 Q1011",
      "taf": ""
    },
    {
      "icao": "EGKK",
      "alert": "OK",
      "vis_m": 7000,
      "fzfg": false,
      "metar_trigger": false,
      "taf_trigger": false,
      "metar": "METAR EGKK 221950Z COR 07004KT 7000 SCT008 08/08 Q1010",
      "taf": "TAF EGKK 221702Z 2218/2324 10006KT 9999 SCT025"
    },
    {
      "icao": "EGNM",
      "alert": "OK",
      "vis_m": 3500,
      "fzfg": false,
      "metar_trigger": false,
      "taf_trigger": false,
      "metar": "METAR EGNM 221950Z 08007KT 3500 BR BKN003 07/06 Q1013",
      "taf": "TAF EGNM 221659Z 2218/2318 07005KT 6000 SCT003 BKN006"
    },
    {
      "icao": "EGPD",
      "alert": "OK",
      "vis_m": 9999,
      "fzfg": false,
      "metar_trigger": false,
      "taf_trigger": false,
      "metar": "METAR EGPD 221950Z AUTO 15011KT 9999 SCT010 OVC025 09/07 Q1015 TEMPO BKN010",
      "taf": "TAF EGPD 221658Z 2218/2318 15012KT 9999 BKN012"
    },
    {
      "icao": "EGPF",
      "alert": "OK",
      "vis_m": 9000,
      "fzfg": false,
      "metar_trigger": false,
      "taf_trigger": false,
      "metar": "METAR EGPF 221950Z AUTO 09008KT 9000 OVC043 08/07 Q1014",
      "taf": "TAF EGPF 221704Z 2218/2318 07008KT 9999 FEW012 SCT025"
    },
    {
      "icao": "EHBK",
      "alert": "OK",
      "vis_m": 9999,
      "fzfg": false,
      "metar_trigger": false,
      "taf_trigger": false,
      "metar": "METAR EHBK 221955Z AUTO 08012KT 050V130 9999 NSC 03/01 Q1011 NOSIG",
      "taf": "TAF EHBK 221716Z 2218/2324 07009KT CAVOK"
    },
    {
      "icao": "EHEH",
      "alert": "OK",
      "vis_m": 9000,
      "fzfg": false,
      "metar_trigger": false,
      "taf_trigger": false,
      "metar": "METAR EHEH 221955Z AUTO 07007KT 9000 BR OVC160 05/02 Q1012 BLU TEMPO BKN015",
      "taf": ""
    },
    {
      "icao": "EKBI",
      "alert": "OK",
      "vis_m": 9999,
      "fzfg": false,
      "metar_trigger": false,
      "taf_trigger": false,
      "metar": "METAR EKBI 221950Z AUTO 09013KT 9999 OVC016/// 05/02 Q1022",
      "taf": "TAF EKBI 221727Z 2218/2318 09012KT 9999 OVC015"
    },
    {
      "icao": "EKCH",
      "alert": "OK",
      "vis_m": 9999,
      "fzfg": false,
      "metar_trigger": false,
      "taf_trigger": false,
      "metar": "METAR EKCH 221950Z AUTO 08008KT 9999 OVC028/// 06/02 Q1024 NOSIG",
      "taf": "TAF EKCH 221727Z 2218/2318 10012KT 9999 OVC025"
    },
    {
      "icao": "ENAL",
      "alert": "OK",
      "vis_m": 9999,
      "fzfg": false,
      "metar_trigger": false,
      "taf_trigger": false,
      "metar": "METAR ENAL 221950Z 14010KT CAVOK 02/M03 Q1024",
      "taf": "TAF ENAL 221700Z 2218/2303 14007KT CAVOK"
    },
    {
      "icao": "ENBR",
      "alert": "OK",
      "vis_m": 9999,
      "fzfg": false,
      "metar_trigger": false,
      "taf_trigger": false,
      "metar": "METAR ENBR 221950Z 00000KT CAVOK M00/M02 Q1024 NOSIG RMK WIND 1200FT 12007KT",
      "taf": "TAF ENBR 221700Z 2218/2318 12005KT CAVOK"
    },
    {
      "icao": "ENGM",
      "alert": "OK",
      "vis_m": 9999,
      "fzfg": false,
      "metar_trigger": false,
      "taf_trigger": false,
      "metar": "METAR ENGM 221950Z 02004KT CAVOK M06/M07 Q1029 NOSIG",
      "taf": "TAF ENGM 221700Z 2218/2318 02007KT 9999 FEW008"
    },
    {
      "icao": "ENHD",
      "alert": "OK",
      "vis_m": 9999,
      "fzfg": false,
      "metar_trigger": false,
      "taf_trigger": false,
      "metar": "METAR ENHD 221950Z 11007KT CAVOK 06/M02 Q1023",
      "taf": "TAF ENHD 221400Z 2215/2223 09007KT CAVOK"
    },
    {
      "icao": "ENTC",
      "alert": "OK",
      "vis_m": 9999,
      "fzfg": false,
      "metar_trigger": false,
      "taf_trigger": false,
      "metar": "METAR ENTC 221950Z 20015KT 9999 -SHRA FEW012 SCT017 BKN023 02/M01 Q1027 TEMPO BKN012 RMK WIND 2600FT 22012KT",
      "taf": "TAF ENTC 221700Z 2218/2318 22014KT 9999 FEW008 BKN025"
    },
    {
      "icao": "ENTO",
      "alert": "OK",
      "vis_m": 9999,
      "fzfg": false,
      "metar_trigger": false,
      "taf_trigger": false,
      "metar": "METAR ENTO 221950Z 36008KT CAVOK M03/M03 Q1029 NOSIG",
      "taf": "TAF ENTO 221700Z 2218/2318 02008KT CAVOK"
    },
    {
      "icao": "ENVA",
      "alert": "OK",
      "vis_m": 9999,
      "fzfg": false,
      "metar_trigger": false,
      "taf_trigger": false,
      "metar": "METAR ENVA 221950Z 12008KT CAVOK M01/M03 Q1028 NOSIG RMK WIND 670FT 11008KT",
      "taf": "TAF ENVA 221700Z 2218/2318 11007KT CAVOK"
    },
    {
      "icao": "ENZV",
      "alert": "OK",
      "vis_m": 9999,
      "fzfg": false,
      "metar_trigger": false,
      "taf_trigger": false,
      "metar": "METAR ENZV 221950Z 20003KT 140V220 CAVOK 02/M02 Q1024 NOSIG",
      "taf": "TAF ENZV 221700Z 2218/2318 12005KT CAVOK"
    },
    {
      "icao": "EPGD",
      "alert": "OK",
      "vis_m": 9999,
      "fzfg": false,
      "metar_trigger": false,
      "taf_trigger": false,
      "metar": "METAR EPGD 222000Z 06004KT 9999 -SHRA FEW009 BKN016TCU 03/00 Q1024",
      "taf": "TAF EPGD 221730Z 2218/2318 VRB02KT 9999 OVC029"
    },
    {
      "icao": "EPKK",
      "alert": "OK",
      "vis_m": 2500,
      "fzfg": false,
      "metar_trigger": false,
      "taf_trigger": false,
      "metar": "METAR EPKK 222000Z 06008KT 2500 -DZ BR OVC003 02/01 Q1019",
      "taf": "TAF EPKK 221730Z 2218/2318 06010KT 4000 BR OVC004"
    },
    {
      "icao": "EPKT",
      "alert": "OK",
      "vis_m": 2400,
      "fzfg": false,
      "metar_trigger": false,
      "taf_trigger": false,
      "metar": "METAR EPKT 222000Z 08005KT 2400 -DZ BR OVC002 02/02 Q1019",
      "taf": "TAF EPKT 221730Z 2218/2318 08006KT 2500 BR OVC002"
    },
    {
      "icao": "EPLB",
      "alert": "OK",
      "vis_m": 9999,
      "fzfg": false,
      "metar_trigger": false,
      "taf_trigger": false,
      "metar": "METAR EPLB 222000Z 11003KT 9999 OVC021 01/M00 Q1022",
      "taf": "TAF EPLB 221730Z 2218/2318 10005KT 9999 OVC020"
    },
    {
      "icao": "EPMO",
      "alert": "OK",
      "vis_m": 9999,
      "fzfg": false,
      "metar_trigger": false,
      "taf_trigger": false,
      "metar": "METAR EPMO 222000Z 10005KT 9999 OVC025 02/M01 Q1023",
      "taf": "TAF EPMO 221730Z 2218/2318 08005KT 9999 BKN025"
    },
    {
      "icao": "EPPO",
      "alert": "OK",
      "vis_m": 9999,
      "fzfg": false,
      "metar_trigger": false,
      "taf_trigger": false,
      "metar": "METAR EPPO 222000Z 10010KT 9999 OVC012 01/M01 Q1021",
      "taf": "TAF EPPO 221730Z 2218/2318 09010KT 9999 OVC011"
    },
    {
      "icao": "EPRA",
      "alert": "OK",
      "vis_m": 9999,
      "fzfg": false,
      "metar_trigger": false,
      "taf_trigger": false,
      "metar": "METAR EPRA 222000Z 10008KT 9999 OVC019 01/M02 Q1022",
      "taf": "TAF EPRA 221730Z 2218/2303 12006KT 9999 OVC018"
    },
    {
      "icao": "EPRZ",
      "alert": "OK",
      "vis_m": 9999,
      "fzfg": false,
      "metar_trigger": false,
      "taf_trigger": false,
      "metar": "METAR EPRZ 222000Z 08011KT 9999 BKN016 00/M02 Q1021",
      "taf": "TAF EPRZ 221730Z 2218/2318 08010KT 9999 BKN020"
    },
    {
      "icao": "EPSC",
      "alert": "OK",
      "vis_m": 9999,
      "fzfg": false,
      "metar_trigger": false,
      "taf_trigger": false,
      "metar": "METAR EPSC 222000Z 10007KT 9999 OVC017 02/M01 Q1022",
      "taf": "TAF EPSC 221730Z 2218/2318 10010KT 9999 OVC015"
    },
    {
      "icao": "EPSY",
      "alert": "OK",
      "vis_m": 9999,
      "fzfg": false,
      "metar_trigger": false,
      "taf_trigger": false,
      "metar": "METAR EPSY 222000Z VRB03KT 9999 OVC027 03/M00 Q1023",
      "taf": "TAF EPSY 221730Z 2218/2303 VRB02KT 9999 BKN020"
    },
    {
      "icao": "EPWA",
      "alert": "OK",
      "vis_m": 9999,
      "fzfg": false,
      "metar_trigger": false,
      "taf_trigger": false,
      "metar": "METAR EPWA 222000Z 11008KT 9999 BKN022 03/M02 Q1023 NOSIG",
      "taf": "TAF EPWA 221730Z 2218/2318 09006KT 9999 BKN020"
    },
    {
      "icao": "EPWR",
      "alert": "OK",
      "vis_m": 8000,
      "fzfg": false,
      "metar_trigger": false,
      "taf_trigger": false,
      "metar": "METAR EPWR 222000Z 13011KT 8000 SCT006 OVC009 04/03 Q1019",
      "taf": "TAF EPWR 221730Z 2218/2318 09009KT 6000 OVC006"
    },
    {
      "icao": "ESGG",
      "alert": "OK",
      "vis_m": 1300,
      "fzfg": false,
      "metar_trigger": false,
      "taf_trigger": false,
      "metar": "METAR ESGG 221950Z 10008KT 1300 R03/P2000N R21/P2000N BR VV003 M02/M02 Q1026",
      "taf": "TAF ESGG 221730Z 2218/2318 07005KT 7000 BKN002"
    },
    {
      "icao": "ESKN",
      "alert": "OK",
      "vis_m": 9999,
      "fzfg": false,
      "metar_trigger": false,
      "taf_trigger": false,
      "metar": "METAR ESKN 221950Z 34005KT 9999 BKN020 01/00 Q1028",
      "taf": ""
    },
    {
      "icao": "ESMS",
      "alert": "OK",
      "vis_m": 9999,
      "fzfg": false,
      "metar_trigger": false,
      "taf_trigger": false,
      "metar": "METAR ESMS 221950Z 10013KT 9999 BKN028 05/00 Q1024",
      "taf": "TAF ESMS 221727Z 2218/2318 10010KT 9999 OVC025"
    },
    {
      "icao": "ESSA",
      "alert": "OK",
      "vis_m": 9999,
      "fzfg": false,
      "metar_trigger": false,
      "taf_trigger": false,
      "metar": "METAR ESSA 221950Z 01006KT 9999 BKN011 M01/M01 Q1029 NOSIG",
      "taf": "TAF ESSA 221730Z 2218/2318 01005KT 9999 BKN020"
    },
    {
      "icao": "EYKA",
      "alert": "OK",
      "vis_m": 9000,
      "fzfg": false,
      "metar_trigger": false,
      "taf_trigger": false,
      "metar": "METAR EYKA 221950Z 26002KT 9000 OVC032 02/01 Q1023",
      "taf": "TAF EYKA 221708Z 2218/2318 VRB04KT 6000 BKN015"
    },
    {
      "icao": "EYPA",
      "alert": "OK",
      "vis_m": 6000,
      "fzfg": false,
      "metar_trigger": false,
      "taf_trigger": false,
      "metar": "METAR EYPA 221950Z COR VRB01KT 6000 SCT030 BKN047 01/01 Q1024",
      "taf": "TAF EYPA 221700Z 2218/2318 VRB04KT 6000 BKN020"
    },
    {
      "icao": "EYVI",
      "alert": "OK",
      "vis_m": 9999,
      "fzfg": false,
      "metar_trigger": false,
      "taf_trigger": false,
      "metar": "METAR EYVI 221950Z 30005KT 9999 FEW006 OVC022 01/00 Q1022 TEMPO 3000 SHSNRA BKN005 BKN015CB",
      "taf": "TAF EYVI 221714Z 2218/2318 VRB04KT 8000 SCT005 OVC015"
    },
    {
      "icao": "GCFV",
      "alert": "OK",
      "vis_m": 9999,
      "fzfg": false,
      "metar_trigger": false,
      "taf_trigger": false,
      "metar": "METAR GCFV 222000Z 35014KT 9999 FEW025 SCT030 17/12 Q1021",
      "taf": "TAF GCFV 221400Z 2215/2315 02015KT 9999 SCT025 TX21/2314Z TN15/2306Z"
    },
    {
      "icao": "GCLP",
      "alert": "OK",
      "vis_m": 9999,
      "fzfg": false,
      "metar_trigger": false,
      "taf_trigger": false,
      "metar": "METAR GCLP 222000Z 35012KT 9999 BKN035 18/13 Q1021 NOSIG",
      "taf": "TAF GCLP 221400Z 2215/2315 02017KT 9999 BKN020 TX21/2314Z TN16/2306Z"
    },
    {
      "icao": "GCTS",
      "alert": "OK",
      "vis_m": 9999,
      "fzfg": false,
      "metar_trigger": false,
      "taf_trigger": false,
      "metar": "METAR GCTS 222000Z 06013KT 9999 FEW030 18/11 Q1021 NOSIG",
      "taf": "TAF GCTS 221400Z 2215/2315 08018KT 9999 BKN030 TX24/2314Z TN15/2306Z"
    },
    {
      "icao": "GMAD",
      "alert": "OK",
      "vis_m": 9999,
      "fzfg": false,
      "metar_trigger": false,
      "taf_trigger": false,
      "metar": "METAR GMAD 222000Z 27012KT 9999 FEW026 15/06 Q1014 NOSIG",
      "taf": "TAF GMAD 221700Z 2218/2324 20008KT 8000 SCT020"
    },
    {
      "icao": "GMMN",
      "alert": "OK",
      "vis_m": 9999,
      "fzfg": false,
      "metar_trigger": false,
      "taf_trigger": false,
      "metar": "METAR GMMN 222000Z 22006KT 9999 BKN026 10/08 Q1020 NOSIG",
      "taf": "TAF GMMN 221700Z 2218/2324 22003KT 9999 BKN030"
    },
    {
      "icao": "GMMX",
      "alert": "OK",
      "vis_m": 9999,
      "fzfg": false,
      "metar_trigger": false,
      "taf_trigger": false,
      "metar": "METAR GMMX 222000Z 10003KT 9999 FEW023 11/08 Q1020 NOSIG",
      "taf": "TAF GMMX 221700Z 2218/2324 12006KT 8000 SCT023"
    },
    {
      "icao": "HEGN",
      "alert": "OK",
      "vis_m": 9999,
      "fzfg": false,
      "metar_trigger": false,
      "taf_trigger": false,
      "metar": "METAR HEGN 222000Z 24006KT CAVOK 18/12 Q1015 NOSIG",
      "taf": "TAF HEGN 221700Z 2218/2324 21008KT CAVOK"
    },
    {
      "icao": "HEMA",
      "alert": "OK",
      "vis_m": 9999,
      "fzfg": false,
      "metar_trigger": false,
      "taf_trigger": false,
      "metar": "METAR HEMA 222000Z 27003KT CAVOK 19/12 Q1014 NOSIG",
      "taf": "TAF HEMA 221700Z 2218/2324 21008KT CAVOK"
    },
    {
      "icao": "HESH",
      "alert": "OK",
      "vis_m": 9999,
      "fzfg": false,
      "metar_trigger": false,
      "taf_trigger": false,
      "metar": "METAR HESH 222000Z 32005KT CAVOK 19/12 Q1015 NOSIG",
      "taf": "TAF HESH 221700Z 2218/2324 28010KT CAVOK"
    },
    {
      "icao": "HESX",
      "alert": "OK",
      "vis_m": 9999,
      "fzfg": false,
      "metar_trigger": false,
      "taf_trigger": false,
      "metar": "METAR HESX 222000Z 23005KT CAVOK 12/02 Q1015 NOSIG",
      "taf": "TAF HESX 221700Z 2218/2324 23009KT CAVOK"
    },
    {
      "icao": "LATI",
      "alert": "OK",
      "vis_m": 6000,
      "fzfg": false,
      "metar_trigger": false,
      "taf_trigger": false,
      "metar": "METAR LATI 221950Z 15003KT 6000 NSC 05/02 Q1015 NOSIG",
      "taf": "TAF LATI 221700Z 2218/2318 VRB03KT CAVOK TX17/2312Z TN02/2305Z"
    },
    {
      "icao": "LBPD",
      "alert": "OK",
      "vis_m": 8000,
      "fzfg": false,
      "metar_trigger": false,
      "taf_trigger": false,
      "metar": "METAR LBPD 222000Z AUTO 06005KT 8000 FEW022/// BKN032/// OVC074/// 07/07 Q1021 NOSIG",
      "taf": "TAF LBPD 221700Z 2218/2318 VRB03KT 5000 BR SCT006 BKN012 OVC020"
    },
    {
      "icao": "LBSF",
      "alert": "OK",
      "vis_m": 9999,
      "fzfg": false,
      "metar_trigger": false,
      "taf_trigger": false,
      "metar": "METAR LBSF 222000Z AUTO 11006KT 9999 FEW037/// BKN044/// 05/03 Q1019 NOSIG",
      "taf": "TAF LBSF 221700Z 2218/2318 VRB03KT 6000 FEW015 BKN040"
    },
    {
      "icao": "LBWN",
      "alert": "OK",
      "vis_m": 9999,
      "fzfg": false,
      "metar_trigger": false,
      "taf_trigger": false,
      "metar": "METAR LBWN 222000Z AUTO 04007KT 010V080 9999 OVC009/// 02/02 Q1023 NOSIG",
      "taf": "TAF LBWN 221700Z 2218/2318 35010KT 7000 SCT005 OVC007"
    },
    {
      "icao": "LCLK",
      "alert": "OK",
      "vis_m": 9999,
      "fzfg": false,
      "metar_trigger": false,
      "taf_trigger": false,
      "metar": "METAR LCLK 222000Z 09011KT 9999 FEW030 SCT050 17/13 Q1015 NOSIG",
      "taf": "TAF LCLK 221730Z 2218/2318 02009KT 9999 FEW022 SCT030"
    },
    {
      "icao": "LCPH",
      "alert": "OK",
      "vis_m": 8000,
      "fzfg": false,
      "metar_trigger": false,
      "taf_trigger": false,
      "metar": "METAR LCPH 222000Z 09010KT 8000 -TSRA FEW025TCU FEW030CB BKN035 BKN080 17/13 Q1013 BECMG 3000 SHRA",
      "taf": "TAF LCPH 221730Z 2218/2318 08009KT 9999 FEW022 SCT030"
    },
    {
      "icao": "LEAL",
      "alert": "OK",
      "vis_m": 9999,
      "fzfg": false,
      "metar_trigger": false,
      "taf_trigger": false,
      "metar": "METAR LEAL 222000Z 29009KT 260V360 CAVOK 10/02 Q1011 NOSIG",
      "taf": "TAF LEAL 221700Z 2218/2318 30010KT 9999 FEW040 TX15/2313Z TN08/2307Z"
    },
    {
      "icao": "LEBB",
      "alert": "OK",
      "vis_m": 9999,
      "fzfg": false,
      "metar_trigger": false,
      "taf_trigger": false,
      "metar": "METAR LEBB 222000Z 15004KT 130V200 9999 -RA BKN043 08/07 Q1010 TEMPO 3000 SHRA SCT040TCU",
      "taf": "TAF LEBB 221700Z 2218/2318 22008KT 9999 SCT035 BKN050 TX11/2312Z TN06/2307Z"
    },
    {
      "icao": "LEBL",
      "alert": "OK",
      "vis_m": 9999,
      "fzfg": false,
      "metar_trigger": false,
      "taf_trigger": false,
      "metar": "METAR LEBL 222000Z 31004KT 220V010 9999 FEW020 07/05 Q1006 NOSIG",
      "taf": "TAF LEBL 221700Z 2218/2318 33004KT 9999 FEW020 TX10/2313Z TN06/2306Z"
    },
    {
      "icao": "LECH",
      "alert": "OK",
      "vis_m": 9999,
      "fzfg": false,
      "metar_trigger": false,
      "taf_trigger": false,
      "metar": "METAR LECH 222000Z AUTO 35002KT CAVOK 08/M03 Q1008",
      "taf": ""
    },
    {
      "icao": "LEMD",
      "alert": "OK",
      "vis_m": 9999,
      "fzfg": false,
      "metar_trigger": false,
      "taf_trigger": false,
      "metar": "METAR LEMD 222000Z 21005KT 130V260 CAVOK 03/01 Q1011 NOSIG",
      "taf": "TAF LEMD 221700Z 2218/2324 VRB04KT 9999 SCT030 TX08/2315Z TNM01/2306Z"
    },
    {
      "icao": "LEMG",
      "alert": "OK",
      "vis_m": 9999,
      "fzfg": false,
      "metar_trigger": false,
      "taf_trigger": false,
      "metar": "METAR LEMG 222000Z 30004KT 9999 FEW045 08/04 Q1015 NOSIG",
      "taf": "TAF LEMG 221700Z 2218/2318 32006KT 9999 FEW040 SCT050 TX15/2314Z TN07/2307Z"
    },
    {
      "icao": "LEVC",
      "alert": "OK",
      "vis_m": 9999,
      "fzfg": false,
      "metar_trigger": false,
      "taf_trigger": false,
      "metar": "METAR LEVC 222000Z 29013KT CAVOK 09/M01 Q1010 NOSIG",
      "taf": "TAF LEVC 221700Z 2218/2318 27010KT 9999 FEW040 TX14/2313Z TN07/2307Z"
    },
    {
      "icao": "LEXJ",
      "alert": "OK",
      "vis_m": 9999,
      "fzfg": false,
      "metar_trigger": false,
      "taf_trigger": false,
      "metar": "METAR LEXJ 222000Z 22007KT 190V250 9999 SCT045 BKN055 BKN065 10/04 Q1008",
      "taf": "TAF LEXJ 221400Z 2215/2315 25009KT 9999 SCT040 TX13/2313Z TN07/2307Z"
    },
    {
      "icao": "LEZG",
      "alert": "OK",
      "vis_m": 9999,
      "fzfg": false,
      "metar_trigger": false,
      "taf_trigger": false,
      "metar": "METAR LEZG 222000Z 25008KT 9999 FEW085 06/02 Q1009 NOSIG",
      "taf": "TAF LEZG 221700Z 2218/2318 27006KT 9999 FEW040 TX11/2314Z TN03/2306Z"
    },
    {
      "icao": "LEZL",
      "alert": "OK",
      "vis_m": 9999,
      "fzfg": false,
      "metar_trigger": false,
      "taf_trigger": false,
      "metar": "METAR LEZL 222000Z 22006KT CAVOK 11/08 Q1015 NOSIG",
      "taf": ""
    },
    {
      "icao": "LFBD",
      "alert": "OK",
      "vis_m": 9999,
      "fzfg": false,
      "metar_trigger": false,
      "taf_trigger": false,
      "metar": "METAR LFBD 222000Z AUTO 14006KT CAVOK 05/04 Q1008 NOSIG",
      "taf": "TAF LFBD 221700Z 2218/2324 15005KT CAVOK TX10/2314Z TN04/2300Z"
    },
    {
      "icao": "LFLL",
      "alert": "OK",
      "vis_m": 3500,
      "fzfg": false,
      "metar_trigger": false,
      "taf_trigger": false,
      "metar": "METAR LFLL 222000Z 35003KT 3500 BR FEW009 SCT060 BKN083 08/08 Q1007 NOSIG",
      "taf": ""
    },
    {
      "icao": "LFLS",
      "alert": "OK",
      "vis_m": 600,
      "fzfg": false,
      "metar_trigger": false,
      "taf_trigger": false,
      "metar": "METAR LFLS 222000Z AUTO VRB01KT 0600 0400 R09/0800U R27/0500D FG VV/// 06/06 Q1007 TEMPO 3000 BR BKN045",
      "taf": ""
    },
    {
      "icao": "LFMN",
      "alert": "OK",
      "vis_m": 9999,
      "fzfg": false,
      "metar_trigger": false,
      "taf_trigger": false,
      "metar": "METAR LFMN 222000Z 01012KT 9999 VCSH BKN053 14/06 Q1007 TEMPO SHRA",
      "taf": "TAF LFMN 221400Z 2215/2321 06015KT 9999 BKN048"
    },
    {
      "icao": "LFOB",
      "alert": "OK",
      "vis_m": 9999,
      "fzfg": false,
      "metar_trigger": false,
      "taf_trigger": false,
      "metar": "METAR LFOB 222000Z AUTO 06005KT CAVOK 06/05 Q1010 TEMPO 4000 BR",
      "taf": "TAF LFOB 221700Z 2218/2318 06006KT CAVOK"
    },
    {
      "icao": "LFPO",
      "alert": "OK",
      "vis_m": null,
      "fzfg": false,
      "metar_trigger": false,
      "taf_trigger": false,
      "metar": "",
      "taf": "TAF LFPO 221700Z 2218/2324 09008KT CAVOK"
    },
    {
      "icao": "LFSB",
      "alert": "OK",
      "vis_m": 6000,
      "fzfg": false,
      "metar_trigger": false,
      "taf_trigger": false,
      "metar": "METAR LFSB 222000Z AUTO 35005KT 330V030 6000 OVC003 02/02 Q1010 TEMPO 0500 FG VV///",
      "taf": ""
    },
    {
      "icao": "LGAV",
      "alert": "OK",
      "vis_m": 9999,
      "fzfg": false,
      "metar_trigger": false,
      "taf_trigger": false,
      "metar": "METAR LGAV 221950Z 01006KT 9999 FEW020 SCT035 BKN070 13/08 Q1017 NOSIG",
      "taf": "TAF LGAV 221700Z 2218/2318 36012KT 9999 SCT025 BKN070"
    },
    {
      "icao": "LGTS",
      "alert": "OK",
      "vis_m": 9999,
      "fzfg": false,
      "metar_trigger": false,
      "taf_trigger": false,
      "metar": "METAR LGTS 221950Z 11006KT 9999 FEW018 09/06 Q1019 NOSIG",
      "taf": "TAF LGTS 221700Z 2218/2318 VRB03KT 9999 FEW010 SCT025"
    },
    {
      "icao": "LHBP",
      "alert": "OK",
      "vis_m": 9999,
      "fzfg": false,
      "metar_trigger": false,
      "taf_trigger": false,
      "metar": "METAR LHBP 222000Z 13008KT 9999 -DZ OVC007 04/02 Q1020 TEMPO OVC010",
      "taf": "TAF LHBP 221715Z 2218/2318 13005KT 8000 SCT006 OVC015"
    },
    {
      "icao": "LHDC",
      "alert": "OK",
      "vis_m": 9999,
      "fzfg": false,
      "metar_trigger": false,
      "taf_trigger": false,
      "metar": "METAR LHDC 221945Z AUTO 21003KT 9999 OVC018 05/04 Q1020 NOSIG",
      "taf": ""
    },
    {
      "icao": "LIBD",
      "alert": "OK",
      "vis_m": 9999,
      "fzfg": false,
      "metar_trigger": false,
      "taf_trigger": false,
      "metar": "METAR LIBD 221950Z 18003KT CAVOK 09/09 Q1014",
      "taf": "TAF LIBD 221700Z 2218/2318 11007KT 9999 FEW040"
    },
    {
      "icao": "LIBG",
      "alert": "OK",
      "vis_m": 9999,
      "fzfg": false,
      "metar_trigger": false,
      "taf_trigger": false,
      "metar": "METAR LIBG 221850Z 10003KT 9999 FEW010 SCT040 10/10 Q1014",
      "taf": "TAF LIBG 221700Z 2218/2303 10007KT 9999 FEW040"
    },
    {
      "icao": "LIBP",
      "alert": "OK",
      "vis_m": 9999,
      "fzfg": false,
      "metar_trigger": false,
      "taf_trigger": false,
      "metar": "METAR LIBP 221950Z AUTO 21003KT 9999 OVC019/// 11/10 Q1014",
      "taf": "TAF LIBP 221700Z 2218/2318 VRB04KT 9999 FEW010 BKN030"
    },
    {
      "icao": "LIBR",
      "alert": "OK",
      "vis_m": 9999,
      "fzfg": false,
      "metar_trigger": false,
      "taf_trigger": false,
      "metar": "METAR LIBR 221950Z 19002KT 9999 FEW030 SCT045 13/11 Q1014",
      "taf": "TAF LIBR 221700Z 2218/2318 11010KT 9999 SCT020"
    },
    {
      "icao": "LICA",
      "alert": "OK",
      "vis_m": 9999,
      "fzfg": false,
      "metar_trigger": false,
      "taf_trigger": false,
      "metar": "METAR LICA 221950Z AUTO 06008KT 9999 FEW053/// 13/11 Q1013",
      "taf": "TAF LICA 221700Z 2218/2318 07015KT 9999 SCT040"
    },
    {
      "icao": "LICC",
      "alert": "OK",
      "vis_m": 9999,
      "fzfg": false,
      "metar_trigger": false,
      "taf_trigger": false,
      "metar": "METAR LICC 221950Z 04006KT 9999 BKN015 16/15 Q1012",
      "taf": "TAF LICC 221700Z 2218/2318 VRB05KT 9999 SCT040"
    },
    {
      "icao": "LICJ",
      "alert": "OK",
      "vis_m": 9999,
      "fzfg": false,
      "metar_trigger": false,
      "taf_trigger": false,
      "metar": "METAR LICJ 221950Z 11003KT 050V180 CAVOK 15/10 Q1010",
      "taf": "TAF LICJ 221700Z 2218/2318 19012KT 9999 SCT040"
    },
    {
      "icao": "LIMC",
      "alert": "OK",
      "vis_m": 9999,
      "fzfg": false,
      "metar_trigger": false,
      "taf_trigger": false,
      "metar": "METAR LIMC 221950Z VRB01KT 9999 BKN070 06/05 Q1015 NOSIG",
      "taf": "TAF LIMC 221700Z 2218/2324 VRB04KT 9000 FEW030 BKN050"
    },
    {
      "icao": "LIME",
      "alert": "OK",
      "vis_m": 9999,
      "fzfg": false,
      "metar_trigger": false,
      "taf_trigger": false,
      "metar": "METAR LIME 221950Z 10004KT 9999 SCT060 07/05 Q1014 NOSIG",
      "taf": "TAF LIME 221700Z 2218/2318 VRB04KT 9000 SCT050"
    },
    {
      "icao": "LIMF",
      "alert": "OK",
      "vis_m": 8000,
      "fzfg": false,
      "metar_trigger": false,
      "taf_trigger": false,
      "metar": "METAR LIMF 221950Z VRB01KT 8000 BKN035 OVC050 07/06 Q1015",
      "taf": "TAF LIMF 221700Z 2218/2318 VRB04KT 7000 BKN015 OVC040"
    },
    {
      "icao": "LIMJ",
      "alert": "OK",
      "vis_m": 9999,
      "fzfg": false,
      "metar_trigger": false,
      "taf_trigger": false,
      "metar": "METAR LIMJ 221950Z 04013KT 9999 -RA BKN060 10/07 Q1011",
      "taf": "TAF LIMJ 221700Z 2218/2318 03015KT 7000 RA BKN040"
    },
    {
      "icao": "LIPE",
      "alert": "OK",
      "vis_m": 4000,
      "fzfg": false,
      "metar_trigger": false,
      "taf_trigger": false,
      "metar": "METAR LIPE 221950Z 24004KT 4000 -DZ BR OVC020 08/07 Q1014",
      "taf": "TAF LIPE 221700Z 2218/2318 VRB04KT 5000 BR BKN015"
    },
    {
      "icao": "LIPH",
      "alert": "OK",
      "vis_m": 9999,
      "fzfg": false,
      "metar_trigger": false,
      "taf_trigger": false,
      "metar": "METAR LIPH 221950Z 03004KT 9999 BKN050 08/05 Q1015",
      "taf": "TAF LIPH 221700Z 2218/2318 05005KT 9999 FEW050"
    },
    {
      "icao": "LIPQ",
      "alert": "OK",
      "vis_m": 9999,
      "fzfg": false,
      "metar_trigger": false,
      "taf_trigger": false,
      "metar": "METAR LIPQ 221950Z AUTO 05003KT 9999 OVC067/// 08/04 Q1015",
      "taf": "TAF LIPQ 221700Z 2218/2318 07006KT 9999 FEW060"
    },
    {
      "icao": "LIPR",
      "alert": "OK",
      "vis_m": 4000,
      "fzfg": false,
      "metar_trigger": false,
      "taf_trigger": false,
      "metar": "METAR LIPR 221950Z 30005KT 4000 BR FEW005 BKN035 09/09 Q1014",
      "taf": "TAF LIPR 221700Z 2218/2318 30007KT 3000 BR BKN013"
    },
    {
      "icao": "LIPX",
      "alert": "OK",
      "vis_m": 9999,
      "fzfg": false,
      "metar_trigger": false,
      "taf_trigger": false,
      "metar": "METAR LIPX 221950Z 33003KT 300V010 9999 BKN050 07/04 Q1014",
      "taf": "TAF LIPX 221700Z 2218/2318 VRB05KT 9999 BKN040"
    },
    {
      "icao": "LIPY",
      "alert": "OK",
      "vis_m": 4700,
      "fzfg": false,
      "metar_trigger": false,
      "taf_trigger": false,
      "metar": "METAR LIPY 221950Z AUTO 03002KT 4700 BR OVC036/// 11/10 Q1013",
      "taf": "TAF LIPY 221700Z 2218/2318 VRB05KT 6000 BKN040"
    },
    {
      "icao": "LIPZ",
      "alert": "OK",
      "vis_m": 9999,
      "fzfg": false,
      "metar_trigger": false,
      "taf_trigger": false,
      "metar": "METAR LIPZ 221950Z 03007KT 9999 SCT055 08/04 Q1015 NOSIG",
      "taf": "TAF LIPZ 221700Z 2218/2324 03007KT 9999 SCT050"
    },
    {
      "icao": "LIRF",
      "alert": "OK",
      "vis_m": 9999,
      "fzfg": false,
      "metar_trigger": false,
      "taf_trigger": false,
      "metar": "METAR LIRF 221950Z AUTO 11010KT 9999 BKN034/// BKN039/// 15/09 Q1010",
      "taf": "TAF LIRF 221700Z 2218/2324 12015KT 9999 SCT040"
    },
    {
      "icao": "LIRN",
      "alert": "OK",
      "vis_m": 9999,
      "fzfg": false,
      "metar_trigger": false,
      "taf_trigger": false,
      "metar": "METAR LIRN 221950Z VRB02KT 9999 SCT060 14/09 Q1011 NOSIG",
      "taf": "TAF LIRN 221700Z 2218/2318 05005KT 9999 SCT040"
    },
    {
      "icao": "LIRP",
      "alert": "OK",
      "vis_m": 9999,
      "fzfg": false,
      "metar_trigger": false,
      "taf_trigger": false,
      "metar": "METAR LIRP 221945Z 12010KT 9999 SCT040 BKN060 12/07 Q1010 NOSIG",
      "taf": "TAF LIRP 221700Z 2218/2318 13006KT 9999 SCT040 BKN050"
    },
    {
      "icao": "LIRZ",
      "alert": "OK",
      "vis_m": 8000,
      "fzfg": false,
      "metar_trigger": false,
      "taf_trigger": false,
      "metar": "METAR LIRZ 221950Z AUTO 09004KT 8000 BKN071/// 08/07 Q1011",
      "taf": "TAF LIRZ 221700Z 2218/2318 VRB05KT 9999 SCT040"
    },
    {
      "icao": "LJLJ",
      "alert": "OK",
      "vis_m": 8000,
      "fzfg": false,
      "metar_trigger": false,
      "taf_trigger": false,
      "metar": "METAR LJLJ 222000Z 00000KT 8000 BKN007 OVC013 02/01 Q1017 NOSIG",
      "taf": "TAF LJLJ 221700Z 2218/2318 VRB02KT 9999 OVC010"
    },
    {
      "icao": "LKMT",
      "alert": "OK",
      "vis_m": 6000,
      "fzfg": false,
      "metar_trigger": false,
      "taf_trigger": false,
      "metar": "METAR LKMT 222000Z VRB02KT 6000 OVC006 02/01 Q1019 NOSIG",
      "taf": "TAF LKMT 221700Z 2218/2318 13006KT 4000 BR OVC005"
    },
    {
      "icao": "LKPR",
      "alert": "OK",
      "vis_m": 8000,
      "fzfg": false,
      "metar_trigger": false,
      "taf_trigger": false,
      "metar": "METAR LKPR 222000Z 09009KT 8000 -DZ BKN004 OVC014 02/02 Q1015 BECMG BKN008",
      "taf": ""
    },
    {
      "icao": "LLBG",
      "alert": "OK",
      "vis_m": 9999,
      "fzfg": false,
      "metar_trigger": false,
      "taf_trigger": false,
      "metar": "METAR LLBG 221950Z VRB01KT CAVOK 14/09 Q1014 NOSIG",
      "taf": "TAF LLBG 221710Z 2218/2318 VRB04KT CAVOK"
    },
    {
      "icao": "LMML",
      "alert": "OK",
      "vis_m": 9999,
      "fzfg": false,
      "metar_trigger": false,
      "taf_trigger": false,
      "metar": "METAR LMML 221945Z 13004KT 9999 FEW018 14/12 Q1012 NOSIG",
      "taf": "TAF LMML 221700Z 2218/2318 VRB05KT 9999 FEW020"
    },
    {
      "icao": "LOWW",
      "alert": "OK",
      "vis_m": 9999,
      "fzfg": false,
      "metar_trigger": false,
      "taf_trigger": false,
      "metar": "METAR LOWW 221950Z 14015KT 9999 FEW008 SCT011 BKN013 04/02 Q1017 TEMPO BKN009",
      "taf": "TAF LOWW 221715Z 2218/2324 14013KT 8000 BKN007 TX04/2221Z TN02/2324Z"
    },
    {
      "icao": "LPFR",
      "alert": "OK",
      "vis_m": 9999,
      "fzfg": false,
      "metar_trigger": false,
      "taf_trigger": false,
      "metar": "METAR LPFR 222000Z 29007KT 9999 FEW025 SCT045 13/09 Q1016",
      "taf": "TAF LPFR 221700Z 2218/2318 31008KT 9999 FEW020"
    },
    {
      "icao": "LPMA",
      "alert": "OK",
      "vis_m": 9999,
      "fzfg": false,
      "metar_trigger": false,
      "taf_trigger": false,
      "metar": "METAR LPMA 222000Z 36009KT 320V020 9999 FEW015 16/09 Q1023",
      "taf": "TAF LPMA 221700Z 2218/2318 36010KT 9999 SCT015"
    },
    {
      "icao": "LPPR",
      "alert": "OK",
      "vis_m": 9999,
      "fzfg": false,
      "metar_trigger": false,
      "taf_trigger": false,
      "metar": "METAR LPPR 222000Z 32007KT 9999 -RA FEW011 SCT018 BKN044 10/09 Q1012",
      "taf": "TAF LPPR 221700Z 2218/2318 18008KT 9999 FEW015 SCT030"
    },
    {
      "icao": "LPPS",
      "alert": "OK",
      "vis_m": 9999,
      "fzfg": false,
      "metar_trigger": false,
      "taf_trigger": false,
      "metar": "METAR LPPS 222000Z 33008KT 9999 SCT015 17/09 Q1024",
      "taf": "TAF LPPS 221700Z 2218/2324 34012KT 9999 SCT015"
    },
    {
      "icao": "LPPT",
      "alert": "OK",
      "vis_m": 9999,
      "fzfg": false,
      "metar_trigger": false,
      "taf_trigger": false,
      "metar": "METAR LPPT 222000Z 31003KT 260V030 9999 FEW012 SCT018 12/11 Q1015",
      "taf": "TAF LPPT 221700Z 2218/2324 26005KT 9999 SCT030"
    },
    {
      "icao": "LQBK",
      "alert": "OK",
      "vis_m": 8000,
      "fzfg": false,
      "metar_trigger": false,
      "taf_trigger": false,
      "metar": "METAR LQBK 222000Z 20003KT 8000 OVC013 04/02 Q1019 NOSIG",
      "taf": ""
    },
    {
      "icao": "LQSA",
      "alert": "OK",
      "vis_m": 9999,
      "fzfg": false,
      "metar_trigger": false,
      "taf_trigger": false,
      "metar": "METAR LQSA 222000Z 22003KT 9999 OVC010 02/01 Q1018 NOSIG",
      "taf": "TAF LQSA 221700Z 2218/2318 VRB02KT 9999 BKN011 TX05/2313Z TNM02/2305Z"
    },
    {
      "icao": "LQTZ",
      "alert": "OK",
      "vis_m": 9999,
      "fzfg": false,
      "metar_trigger": false,
      "taf_trigger": false,
      "metar": "METAR LQTZ 222000Z VRB02KT 9999 OVC015 05/03 Q1018",
      "taf": "TAF LQTZ 221700Z 2218/2318 VRB02KT 9999 SCT015 BKN035 TX05/2313Z TNM01/2305Z"
    },
    {
      "icao": "LRBC",
      "alert": "OK",
      "vis_m": 4000,
      "fzfg": false,
      "metar_trigger": false,
      "taf_trigger": false,
      "metar": "METAR LRBC 222000Z 14006KT 4000 BR OVC007 04/03 Q1023",
      "taf": "TAF LRBC 221700Z 2218/2303 VRB04KT 5000 BR OVC005"
    },
    {
      "icao": "LRBS",
      "alert": "OK",
      "vis_m": 9999,
      "fzfg": false,
      "metar_trigger": false,
      "taf_trigger": false,
      "metar": "METAR LRBS 222000Z 07008KT 9999 OVC005 03/02 Q1024 NOSIG",
      "taf": "TAF LRBS 221700Z 2218/2318 06006KT 7000 OVC005"
    },
    {
      "icao": "LRBV",
      "alert": "OK",
      "vis_m": 300,
      "fzfg": true,
      "metar_trigger": false,
      "taf_trigger": false,
      "metar": "METAR LRBV 222000Z VRB03KT 0300 R21/0600N FZFG VV002 M01/M01 Q1020",
      "taf": "TAF LRBV 221700Z 2218/2303 VRB04KT 0150 FZFG VV001"
    },
    {
      "icao": "LRCL",
      "alert": "OK",
      "vis_m": 8000,
      "fzfg": false,
      "metar_trigger": false,
      "taf_trigger": false,
      "metar": "METAR LRCL 222000Z 11004KT 8000 OVC007 02/01 Q1021",
      "taf": "TAF LRCL 221700Z 2218/2303 VRB04KT 9999 OVC005"
    },
    {
      "icao": "LRCV",
      "alert": "OK",
      "vis_m": 3000,
      "fzfg": false,
      "metar_trigger": false,
      "taf_trigger": false,
      "metar": "METAR LRCV 222000Z 11006KT 3000 -DZ BR OVC002 04/04 Q1022",
      "taf": "TAF LRCV 221700Z 2218/2303 10007KT 0800 FG VV002"
    },
    {
      "icao": "LRIA",
      "alert": "OK",
      "vis_m": 9999,
      "fzfg": false,
      "metar_trigger": false,
      "taf_trigger": false,
      "metar": "METAR LRIA 222000Z VRB02KT 9999 OVC020 02/00 Q1023",
      "taf": "TAF LRIA 221700Z 2218/2303 VRB04KT 9999 BKN020"
    },
    {
      "icao": "LROP",
      "alert": "OK",
      "vis_m": 7000,
      "fzfg": false,
      "metar_trigger": false,
      "taf_trigger": false,
      "metar": "METAR LROP 222000Z 09008KT 7000 OVC003 03/03 Q1024 NOSIG",
      "taf": "TAF LROP 221700Z 2218/2318 07007KT 7000 OVC005"
    },
    {
      "icao": "LRSB",
      "alert": "OK",
      "vis_m": 500,
      "fzfg": true,
      "metar_trigger": false,
      "taf_trigger": false,
      "metar": "METAR LRSB 222000Z 25003KT 0500 R27/1300N FZFG OVC002 M01/M01 Q1020",
      "taf": "TAF LRSB 221700Z 2218/2318 VRB04KT 0350 FZFG VV001"
    },
    {
      "icao": "LRSM",
      "alert": "OK",
      "vis_m": 3400,
      "fzfg": false,
      "metar_trigger": false,
      "taf_trigger": false,
      "metar": "METAR LRSM 222000Z AUTO 24001KT 3400 BR SCT022/// BKN026/// OVC030/// 05/04 Q1021",
      "taf": "TAF LRSM 221400Z 2215/2224 VRB04KT 5000 BR OVC030"
    },
    {
      "icao": "LRSV",
      "alert": "OK",
      "vis_m": 100,
      "fzfg": false,
      "metar_trigger": false,
      "taf_trigger": false,
      "metar": "METAR LRSV 222000Z 10009KT 0100 R34/0400N -DZ FG VV001 01/01 Q1021",
      "taf": ""
    },
    {
      "icao": "LRTM",
      "alert": "OK",
      "vis_m": 5000,
      "fzfg": false,
      "metar_trigger": false,
      "taf_trigger": false,
      "metar": "METAR LRTM 222000Z AUTO 24003KT 5000 -DZ SCT003/// BKN006/// OVC009/// 01/00 Q1021",
      "taf": "TAF LRTM 221400Z 2215/2224 VRB04KT 3000 BR BKN002 OVC005"
    },
    {
      "icao": "LRTR",
      "alert": "OK",
      "vis_m": 5000,
      "fzfg": false,
      "metar_trigger": false,
      "taf_trigger": false,
      "metar": "METAR LRTR 222000Z 08004KT 040V100 5000 BR SCT002 OVC003 02/02 Q1021",
      "taf": "TAF LRTR 221700Z 2218/2318 VRB04KT 9999 OVC010"
    },
    {
      "icao": "LTAC",
      "alert": "OK",
      "vis_m": 6000,
      "fzfg": false,
      "metar_trigger": false,
      "taf_trigger": false,
      "metar": "METAR LTAC 221950Z 04006KT 6000 -RA FEW019 BKN023 BKN080 04/03 Q1017 NOSIG RMK RWY21C 02006KT RWY03L 03006KT RWY21R 02006KT RWY03R 02004KT RWY21L 02005KT",
      "taf": "TAF LTAC 221640Z 2218/2318 04007KT 8000 -RA BKN035 BKN080"
    },
    {
      "icao": "LTFM",
      "alert": "OK",
      "vis_m": 9999,
      "fzfg": false,
      "metar_trigger": false,
      "taf_trigger": false,
      "metar": "METAR LTFM 221950Z 03016KT 9999 -SHRA SCT014 BKN022 11/08 Q1019 NOSIG RMK RWY17L 03015KT RWY34L 02016KT RWY16R 03014KT RWY36 03017KT RWY18 03014KT",
      "taf": "TAF LTFM 221640Z 2218/2324 03018G28KT 9999 SCT014 BKN022"
    },
    {
      "icao": "LUKK",
      "alert": "OK",
      "vis_m": 9999,
      "fzfg": false,
      "metar_trigger": false,
      "taf_trigger": false,
      "metar": "METAR LUKK 222000Z 02004KT 340V050 9999 OVC023 02/M02 Q1024 NOSIG",
      "taf": "TAF LUKK 221713Z 2218/2318 VRB05KT 9999 BKN015"
    },
    {
      "icao": "LWOH",
      "alert": "OK",
      "vis_m": 9999,
      "fzfg": false,
      "metar_trigger": false,
      "taf_trigger": false,
      "metar": "METAR LWOH 221950Z 33004KT 9999 SCT045 01/M00 Q1017",
      "taf": "TAF LWOH 221740Z 2218/2318 VRB02KT 9999 BKN040"
    },
    {
      "icao": "LWSK",
      "alert": "OK",
      "vis_m": 7000,
      "fzfg": false,
      "metar_trigger": false,
      "taf_trigger": false,
      "metar": "METAR LWSK 221950Z VRB02KT 7000 BKN007 OVC013 04/02 Q1020 NOSIG",
      "taf": "TAF LWSK 221740Z 2218/2318 VRB02KT 7000 BKN007"
    },
    {
      "icao": "LYBE",
      "alert": "OK",
      "vis_m": 9999,
      "fzfg": false,
      "metar_trigger": false,
      "taf_trigger": false,
      "metar": "METAR LYBE 222000Z 12004KT 9999 BKN025 05/03 Q1019 NOSIG",
      "taf": "TAF LYBE 221700Z 2218/2318 10005KT 9999 BKN025 TX09/2313Z TN02/2306Z"
    },
    {
      "icao": "LYNI",
      "alert": "OK",
      "vis_m": 9999,
      "fzfg": false,
      "metar_trigger": false,
      "taf_trigger": false,
      "metar": "METAR LYNI 222000Z 07004KT 9999 BKN015 BKN023 03/01 Q1020 NOSIG",
      "taf": "TAF LYNI 221700Z 2218/2318 07005KT 9999 BKN013 BKN023 TX09/2312Z TNM01/2306Z"
    },
    {
      "icao": "LYPG",
      "alert": "OK",
      "vis_m": 7000,
      "fzfg": false,
      "metar_trigger": false,
      "taf_trigger": false,
      "metar": "METAR LYPG 222000Z 36002KT 7000 NSC 02/01 Q1017 NOSIG",
      "taf": "TAF LYPG 221700Z 2218/2318 VRB02KT 9999 SCT040 TX11/2313Z TN03/2301Z"
    },
    {
      "icao": "LZIB",
      "alert": "OK",
      "vis_m": 9999,
      "fzfg": false,
      "metar_trigger": false,
      "taf_trigger": false,
      "metar": "METAR LZIB 222000Z 11014KT 9999 -RA FEW008 OVC020 04/03 Q1018 NOSIG",
      "taf": "TAF LZIB 221715Z 2218/2318 12011KT 9999 SCT007 OVC015"
    },
    {
      "icao": "LZKZ",
      "alert": "OK",
      "vis_m": 9999,
      "fzfg": false,
      "metar_trigger": false,
      "taf_trigger": false,
      "metar": "METAR LZKZ 222000Z 26002KT 9999 OVC022 05/03 Q1020 NOSIG",
      "taf": "TAF LZKZ 221715Z 2218/2318 VRB02KT 8000 OVC016"
    },
    {
      "icao": "LZTT",
      "alert": "OK",
      "vis_m": 1300,
      "fzfg": false,
      "metar_trigger": false,
      "taf_trigger": false,
      "metar": "METAR LZTT 222000Z 00000KT 1300 R27/P2000N BR OVC002 02/01 Q1018",
      "taf": "TAF LZTT 221715Z 2218/2318 VRB02KT 3000 BR FEW002 BKN005"
    },
    {
      "icao": "OEJN",
      "alert": "OK",
      "vis_m": 9999,
      "fzfg": false,
      "metar_trigger": false,
      "taf_trigger": false,
      "metar": "METAR OEJN 222000Z 31005KT 9999 FEW040 27/22 Q1013 NOSIG",
      "taf": "TAF OEJN 221700Z 2218/2324 VRB03KT 7000 NSC"
    },
    {
      "icao": "OEMA",
      "alert": "OK",
      "vis_m": 9999,
      "fzfg": false,
      "metar_trigger": false,
      "taf_trigger": false,
      "metar": "METAR OEMA 222000Z 01005KT CAVOK 20/04 Q1018 NOSIG",
      "taf": "TAF OEMA 221700Z 2218/2324 VRB03KT CAVOK"
    },
    {
      "icao": "OJAI",
      "alert": "OK",
      "vis_m": 5000,
      "fzfg": false,
      "metar_trigger": false,
      "taf_trigger": false,
      "metar": "METAR OJAI 222000Z 32003KT 5000 HZ NSC 08/01 Q1017 NOSIG",
      "taf": "TAF OJAI 221650Z 2218/2324 VRB01KT 5000 HZ NSC"
    },
    {
      "icao": "OMAA",
      "alert": "OK",
      "vis_m": 9999,
      "fzfg": false,
      "metar_trigger": false,
      "taf_trigger": false,
      "metar": "METAR OMAA 222000Z 06005KT CAVOK 17/11 Q1019 NOSIG",
      "taf": "TAF OMAA 221700Z 2218/2400 05008KT 8000 NSC"
    },
    {
      "icao": "OMDB",
      "alert": "OK",
      "vis_m": 9999,
      "fzfg": false,
      "metar_trigger": false,
      "taf_trigger": false,
      "metar": "METAR OMDB 222000Z 09006KT CAVOK 19/10 Q1020 NOSIG",
      "taf": "TAF OMDB 221700Z 2218/2400 07005KT CAVOK"
    },
    {
      "icao": "UAAA",
      "alert": "OK",
      "vis_m": 1000,
      "fzfg": false,
      "metar_trigger": false,
      "taf_trigger": false,
      "metar": "SPECI UAAA 222010Z VRB01MPS 1000 R23L/P2000 BR OVC002 M03/M04 Q1027 NOSIG RMK QBB080",
      "taf": "TAF UAAA 221705Z 2218/2318 24002MPS 1200 BR FU BKN011 OVC030 TXM01/2308Z TNM06/2301Z"
    },
    {
      "icao": "UBBB",
      "alert": "OK",
      "vis_m": 9999,
      "fzfg": false,
      "metar_trigger": false,
      "taf_trigger": false,
      "metar": "METAR UBBB 222000Z 30006KT CAVOK 05/04 Q1019 NOSIG",
      "taf": "TAF UBBB 221659Z 2218/2318 VRB04KT CAVOK TX11/2310Z TN04/2302Z"
    },
    {
      "icao": "UDSG",
      "alert": "OK",
      "vis_m": 3700,
      "fzfg": false,
      "metar_trigger": false,
      "taf_trigger": false,
      "metar": "METAR UDSG 222000Z 05005KT 3700 BR NSC M08/M09 Q1021 NOSIG",
      "taf": "TAF UDSG 221658Z 2218/2318 VRB06KT 5000 BR SCT050"
    },
    {
      "icao": "UDYZ",
      "alert": "OK",
      "vis_m": 1300,
      "fzfg": false,
      "metar_trigger": false,
      "taf_trigger": false,
      "metar": "METAR UDYZ 222000Z VRB01KT 1300 1200N BR NSC M04/M06 Q1022 NOSIG",
      "taf": "TAF UDYZ 221700Z 2218/2318 VRB04KT 2300 BR NSC"
    },
    {
      "icao": "UGKO",
      "alert": "OK",
      "vis_m": 9999,
      "fzfg": false,
      "metar_trigger": false,
      "taf_trigger": false,
      "metar": "METAR UGKO 222000Z 07007KT 9999 BKN088 06/02 Q1018 NOSIG",
      "taf": "TAF UGKO 221700Z 2218/2318 08007KT 9999 BKN080 TX15/2312Z TN03/2303Z"
    }
  ]
}