{
  "ts_utc": "2026-06-30T11:48:32Z",
  "threshold_m": 150,
  "source": "stations_override.txt (ICAO list) + aviationweather.gov (METAR/TAF raw)",
  "station_count": 159,
  "stations": [
    {
      "icao": "BIKF",
      "alert": "OK",
      "vis_m": 8000,
      "fzfg": false,
      "metar_trigger": false,
      "taf_trigger": false,
      "metar": "METAR BIKF 301130Z 16019KT 8000 -DZRA OVC015 10/09 Q1010",
      "taf": "TAF BIKF 301039Z 3012/0112 17017KT 9999 SCT017 BKN028 TX12/3012Z TN09/0106Z"
    },
    {
      "icao": "BKPR",
      "alert": "OK",
      "vis_m": 9999,
      "fzfg": false,
      "metar_trigger": false,
      "taf_trigger": false,
      "metar": "METAR BKPR 301130Z 01013KT 9999 FEW030TCU SCT040 34/15 Q1018 TEMPO TS",
      "taf": "TAF BKPR 301130Z 3012/0112 01008KT 9999 SCT040"
    },
    {
      "icao": "EBCI",
      "alert": "OK",
      "vis_m": 9999,
      "fzfg": false,
      "metar_trigger": false,
      "taf_trigger": false,
      "metar": "METAR EBCI 301120Z 30004KT 220V340 CAVOK 22/16 Q1024 NOSIG",
      "taf": "TAF EBCI 301100Z 3012/0118 29005KT 9999 FEW035"
    },
    {
      "icao": "EDDB",
      "alert": "OK",
      "vis_m": 9999,
      "fzfg": false,
      "metar_trigger": false,
      "taf_trigger": false,
      "metar": "METAR EDDB 301120Z AUTO 05007KT 360V110 CAVOK 28/10 Q1023 NOSIG",
      "taf": "TAF EDDB 301100Z 3012/0112 05006KT 9999 SCT040"
    },
    {
      "icao": "EDDH",
      "alert": "OK",
      "vis_m": 9999,
      "fzfg": false,
      "metar_trigger": false,
      "taf_trigger": false,
      "metar": "METAR EDDH 301120Z AUTO 05005KT 340V080 9999 BKN037 BKN045 22/13 Q1024 NOSIG",
      "taf": "TAF EDDH 301100Z 3012/0118 07006KT 9999 BKN030"
    },
    {
      "icao": "EDDK",
      "alert": "OK",
      "vis_m": 9999,
      "fzfg": false,
      "metar_trigger": false,
      "taf_trigger": false,
      "metar": "METAR EDDK 301120Z AUTO VRB03KT CAVOK 27/16 Q1022 NOSIG",
      "taf": "TAF EDDK 301100Z 3012/0118 VRB03KT CAVOK"
    },
    {
      "icao": "EDDN",
      "alert": "OK",
      "vis_m": 9999,
      "fzfg": false,
      "metar_trigger": false,
      "taf_trigger": false,
      "metar": "METAR EDDN 301120Z AUTO VRB02KT 9999 BKN029 BKN042 26/18 Q1022 BECMG 04005KT",
      "taf": "TAF EDDN 301100Z 3012/0112 04004KT 9999 BKN035"
    },
    {
      "icao": "EDDS",
      "alert": "OK",
      "vis_m": 9999,
      "fzfg": false,
      "metar_trigger": false,
      "taf_trigger": false,
      "metar": "METAR EDDS 301120Z AUTO 11005KT 060V210 9999 SCT043 30/17 Q1021 NOSIG",
      "taf": "TAF EDDS 301100Z 3012/0112 07006KT 9999 SCT040"
    },
    {
      "icao": "EDFH",
      "alert": "OK",
      "vis_m": 9999,
      "fzfg": false,
      "metar_trigger": false,
      "taf_trigger": false,
      "metar": "METAR EDFH 301120Z VRB03KT 9999 FEW044 25/14 Q1023",
      "taf": "TAF EDFH 301100Z 3012/0112 05005KT CAVOK"
    },
    {
      "icao": "EDJA",
      "alert": "OK",
      "vis_m": 9999,
      "fzfg": false,
      "metar_trigger": false,
      "taf_trigger": false,
      "metar": "METAR EDJA 301120Z 02006KT 320V070 9999 FEW046 27/16 Q1022",
      "taf": "TAF EDJA 301100Z 3012/3021 05005KT 9999 FEW040"
    },
    {
      "icao": "EDLW",
      "alert": "OK",
      "vis_m": 9999,
      "fzfg": false,
      "metar_trigger": false,
      "taf_trigger": false,
      "metar": "METAR EDLW 301120Z VRB04KT CAVOK 26/15 Q1022",
      "taf": "TAF EDLW 301100Z 3012/0112 31005KT CAVOK"
    },
    {
      "icao": "EDNY",
      "alert": "OK",
      "vis_m": 9999,
      "fzfg": false,
      "metar_trigger": false,
      "taf_trigger": false,
      "metar": "METAR EDNY 301120Z 22006KT 160V260 9999 FEW049 30/18 Q1020",
      "taf": "TAF EDNY 301100Z 3012/3021 VRB03KT 9999 FEW040"
    },
    {
      "icao": "EDSB",
      "alert": "OK",
      "vis_m": 9999,
      "fzfg": false,
      "metar_trigger": false,
      "taf_trigger": false,
      "metar": "METAR EDSB 301120Z 03007KT 340V070 9999 SCT041 29/19 Q1020",
      "taf": "TAF EDSB 301100Z 3012/0112 02007KT CAVOK"
    },
    {
      "icao": "EETN",
      "alert": "OK",
      "vis_m": 9999,
      "fzfg": false,
      "metar_trigger": false,
      "taf_trigger": false,
      "metar": "METAR EETN 301120Z 27016KT 9999 FEW040 24/16 Q1017 NOSIG",
      "taf": "TAF EETN 301130Z 3012/0112 28015KT 9999 FEW040"
    },
    {
      "icao": "EFTU",
      "alert": "OK",
      "vis_m": 9999,
      "fzfg": false,
      "metar_trigger": false,
      "taf_trigger": false,
      "metar": "METAR EFTU 301120Z AUTO 34009KT 300V020 CAVOK 24/10 Q1018",
      "taf": "TAF EFTU 301124Z 3012/0112 34009KT CAVOK"
    },
    {
      "icao": "EGBB",
      "alert": "OK",
      "vis_m": 9999,
      "fzfg": false,
      "metar_trigger": false,
      "taf_trigger": false,
      "metar": "METAR EGBB 301120Z 19007KT 140V270 9999 SCT043 21/10 Q1021",
      "taf": "TAF EGBB 301105Z 3012/0112 21010KT 9999 SCT030"
    },
    {
      "icao": "EGGP",
      "alert": "OK",
      "vis_m": 9999,
      "fzfg": false,
      "metar_trigger": false,
      "taf_trigger": false,
      "metar": "METAR EGGP 301120Z VRB04KT 9999 FEW039 BKN045 21/09 Q1020",
      "taf": "TAF EGGP 301103Z 3012/0112 21010KT 9999 SCT025"
    },
    {
      "icao": "EGGW",
      "alert": "OK",
      "vis_m": 9999,
      "fzfg": false,
      "metar_trigger": false,
      "taf_trigger": false,
      "metar": "METAR EGGW 301120Z AUTO 23010KT 200V260 9999 SCT036 20/11 Q1022",
      "taf": "TAF EGGW 301101Z 3012/0112 23008KT 9999 SCT035"
    },
    {
      "icao": "EGKK",
      "alert": "OK",
      "vis_m": 9999,
      "fzfg": false,
      "metar_trigger": false,
      "taf_trigger": false,
      "metar": "METAR EGKK 301120Z 23008KT 200V260 9999 FEW016 SCT025 18/12 Q1023",
      "taf": "TAF EGKK 301057Z 3012/0118 24010KT 9999 SCT045"
    },
    {
      "icao": "EGNM",
      "alert": "OK",
      "vis_m": 9999,
      "fzfg": false,
      "metar_trigger": false,
      "taf_trigger": false,
      "metar": "METAR EGNM 301120Z 21007KT 140V260 9999 SCT040 20/10 Q1021",
      "taf": "TAF EGNM 301102Z 3012/0112 20010KT 9999 SCT030"
    },
    {
      "icao": "EGPD",
      "alert": "OK",
      "vis_m": 9999,
      "fzfg": false,
      "metar_trigger": false,
      "taf_trigger": false,
      "metar": "METAR EGPD 301120Z AUTO 13009KT 9999 NCD 18/11 Q1020",
      "taf": "TAF EGPD 301100Z 3012/0112 17010KT 9999 FEW030"
    },
    {
      "icao": "EGPF",
      "alert": "OK",
      "vis_m": 4900,
      "fzfg": false,
      "metar_trigger": false,
      "taf_trigger": false,
      "metar": "METAR EGPF 301120Z AUTO 21007KT 4900 -RA FEW018/// SCT022/// BKN027/// //////CB 16/13 Q1019",
      "taf": "TAF EGPF 301053Z 3012/0112 VRB04KT 9999 BKN025"
    },
    {
      "icao": "EHBK",
      "alert": "OK",
      "vis_m": 9999,
      "fzfg": false,
      "metar_trigger": false,
      "taf_trigger": false,
      "metar": "METAR EHBK 301125Z AUTO 33005KT 280V010 9999 NSC 23/16 Q1023 NOSIG",
      "taf": "TAF EHBK 301101Z 3012/0118 33006KT CAVOK"
    },
    {
      "icao": "EHEH",
      "alert": "OK",
      "vis_m": 9999,
      "fzfg": false,
      "metar_trigger": false,
      "taf_trigger": false,
      "metar": "METAR EHEH 301125Z AUTO 28004KT 240V330 9999 OVC120 23/15 Q1023 BLU NOSIG RMK TREND REMOTE BY EHWX",
      "taf": "TAF EHEH 300613Z 3006/0112 VRB02KT CAVOK"
    },
    {
      "icao": "EKBI",
      "alert": "OK",
      "vis_m": 9999,
      "fzfg": false,
      "metar_trigger": false,
      "taf_trigger": false,
      "metar": "METAR EKBI 301120Z AUTO 19005KT 140V270 9999 FEW039/// 20/10 Q1025",
      "taf": "TAF EKBI 301131Z 3012/0112 VRB03KT 9999 SCT030"
    },
    {
      "icao": "EKCH",
      "alert": "OK",
      "vis_m": 9999,
      "fzfg": false,
      "metar_trigger": false,
      "taf_trigger": false,
      "metar": "METAR EKCH 301120Z AUTO 21009KT 180V250 9999 BKN042/// 23/12 Q1025 NOSIG",
      "taf": "TAF EKCH 301127Z 3012/0112 23010KT 9999 SCT040"
    },
    {
      "icao": "ENAL",
      "alert": "OK",
      "vis_m": 9999,
      "fzfg": false,
      "metar_trigger": false,
      "taf_trigger": false,
      "metar": "METAR ENAL 301120Z 25007KT 9999 -RA FEW010 SCT027 BKN040 12/11 Q1023",
      "taf": "TAF ENAL 301100Z 3012/3021 25012KT 9999 FEW020 BKN040"
    },
    {
      "icao": "ENBR",
      "alert": "OK",
      "vis_m": 9999,
      "fzfg": false,
      "metar_trigger": false,
      "taf_trigger": false,
      "metar": "METAR ENBR 301120Z 20007KT 9999 FEW030 15/09 Q1024 NOSIG RMK WIND 1200FT 20009KT",
      "taf": "TAF ENBR 301100Z 3012/0112 19008KT 9999 FEW018 SCT045"
    },
    {
      "icao": "ENGM",
      "alert": "OK",
      "vis_m": 9999,
      "fzfg": false,
      "metar_trigger": false,
      "taf_trigger": false,
      "metar": "METAR ENGM 301120Z 18007KT 110V220 CAVOK 22/06 Q1020 NOSIG",
      "taf": ""
    },
    {
      "icao": "ENHD",
      "alert": "OK",
      "vis_m": 9999,
      "fzfg": false,
      "metar_trigger": false,
      "taf_trigger": false,
      "metar": "METAR ENHD 301120Z 22012KT 9999 SCT033 17/11 Q1024",
      "taf": "TAF ENHD 301100Z 3012/3021 21010KT 9999 FEW020 SCT045"
    },
    {
      "icao": "ENTC",
      "alert": "OK",
      "vis_m": 9999,
      "fzfg": false,
      "metar_trigger": false,
      "taf_trigger": false,
      "metar": "METAR ENTC 301120Z 18004KT 160V230 9999 -RA SCT025 BKN032 BKN039 12/10 Q1010 NOSIG RMK WIND 2600FT 25018KT",
      "taf": "TAF ENTC 301100Z 3012/0112 22010KT 9999 -SHRA FEW015 BKN020"
    },
    {
      "icao": "ENTO",
      "alert": "OK",
      "vis_m": 9999,
      "fzfg": false,
      "metar_trigger": false,
      "taf_trigger": false,
      "metar": "METAR ENTO 301120Z 17011KT CAVOK 19/07 Q1022 NOSIG",
      "taf": "TAF ENTO 301100Z 3012/0112 19012KT CAVOK"
    },
    {
      "icao": "ENVA",
      "alert": "OK",
      "vis_m": 9999,
      "fzfg": false,
      "metar_trigger": false,
      "taf_trigger": false,
      "metar": "METAR ENVA 301120Z 30010KT 9999 -RA FEW030CB BKN055 15/11 Q1023 NOSIG RMK WIND 670FT 31020KT",
      "taf": "TAF ENVA 301100Z 3012/0112 31012KT 9999 FEW020 BKN040"
    },
    {
      "icao": "ENZV",
      "alert": "OK",
      "vis_m": 9999,
      "fzfg": false,
      "metar_trigger": false,
      "taf_trigger": false,
      "metar": "METAR ENZV 301120Z 22006KT 170V260 9999 FEW039 17/11 Q1024 NOSIG",
      "taf": "TAF ENZV 301100Z 3012/0112 24008KT 9999 FEW035"
    },
    {
      "icao": "EPGD",
      "alert": "OK",
      "vis_m": 9999,
      "fzfg": false,
      "metar_trigger": false,
      "taf_trigger": false,
      "metar": "METAR EPGD 301130Z VRB04KT 9999 FEW035 22/15 Q1024",
      "taf": "TAF EPGD 301130Z 3012/0112 33007KT CAVOK"
    },
    {
      "icao": "EPKK",
      "alert": "OK",
      "vis_m": 9999,
      "fzfg": false,
      "metar_trigger": false,
      "taf_trigger": false,
      "metar": "METAR EPKK 301130Z 08006KT 050V110 CAVOK 30/19 Q1021",
      "taf": "TAF EPKK 301130Z 3012/0112 06010KT CAVOK"
    },
    {
      "icao": "EPKT",
      "alert": "OK",
      "vis_m": 9999,
      "fzfg": false,
      "metar_trigger": false,
      "taf_trigger": false,
      "metar": "METAR EPKT 301130Z 06004KT 330V130 9999 FEW048 30/18 Q1021",
      "taf": "TAF EPKT 301130Z 3012/0112 06010KT CAVOK"
    },
    {
      "icao": "EPLB",
      "alert": "OK",
      "vis_m": 9999,
      "fzfg": false,
      "metar_trigger": false,
      "taf_trigger": false,
      "metar": "METAR EPLB 301130Z 32008KT CAVOK 32/18 Q1021",
      "taf": "TAF EPLB 301130Z 3012/0112 03010KT CAVOK"
    },
    {
      "icao": "EPMO",
      "alert": "OK",
      "vis_m": 9999,
      "fzfg": false,
      "metar_trigger": false,
      "taf_trigger": false,
      "metar": "METAR EPMO 301130Z 32006KT 220V020 CAVOK 30/16 Q1022",
      "taf": ""
    },
    {
      "icao": "EPPO",
      "alert": "OK",
      "vis_m": 9999,
      "fzfg": false,
      "metar_trigger": false,
      "taf_trigger": false,
      "metar": "METAR EPPO 301130Z 10005KT 030V130 CAVOK 27/15 Q1023",
      "taf": "TAF EPPO 301130Z 3012/0112 07007KT CAVOK"
    },
    {
      "icao": "EPRA",
      "alert": "OK",
      "vis_m": 9999,
      "fzfg": false,
      "metar_trigger": false,
      "taf_trigger": false,
      "metar": "METAR EPRA 301130Z 36006KT 320V100 CAVOK 31/16 Q1021",
      "taf": "TAF EPRA 301130Z 3012/3021 03008KT CAVOK"
    },
    {
      "icao": "EPRZ",
      "alert": "OK",
      "vis_m": 9999,
      "fzfg": false,
      "metar_trigger": false,
      "taf_trigger": false,
      "metar": "METAR EPRZ 301130Z VRB01KT CAVOK 34/18 Q1020",
      "taf": "TAF EPRZ 301130Z 3012/0112 06010KT CAVOK"
    },
    {
      "icao": "EPSC",
      "alert": "OK",
      "vis_m": 9999,
      "fzfg": false,
      "metar_trigger": false,
      "taf_trigger": false,
      "metar": "METAR EPSC 301130Z VRB04KT CAVOK 25/13 Q1023",
      "taf": "TAF EPSC 301130Z 3012/0112 VRB04KT CAVOK"
    },
    {
      "icao": "EPSY",
      "alert": "OK",
      "vis_m": 9999,
      "fzfg": false,
      "metar_trigger": false,
      "taf_trigger": false,
      "metar": "METAR EPSY 301130Z 33008KT 290V010 9999 FEW040 26/17 Q1023",
      "taf": "TAF EPSY 301130Z 3012/3021 35008KT CAVOK"
    },
    {
      "icao": "EPWA",
      "alert": "OK",
      "vis_m": 9999,
      "fzfg": false,
      "metar_trigger": false,
      "taf_trigger": false,
      "metar": "METAR EPWA 301130Z 36006KT 290V070 CAVOK 31/15 Q1022 NOSIG",
      "taf": "TAF EPWA 301130Z 3012/0112 03008KT CAVOK"
    },
    {
      "icao": "EPWR",
      "alert": "OK",
      "vis_m": 9999,
      "fzfg": false,
      "metar_trigger": false,
      "taf_trigger": false,
      "metar": "METAR EPWR 301130Z 36005KT 330V090 9999 SCT030 29/19 Q1021",
      "taf": "TAF EPWR 301130Z 3012/0112 02007KT 9999 SCT030"
    },
    {
      "icao": "ESGG",
      "alert": "OK",
      "vis_m": 9999,
      "fzfg": false,
      "metar_trigger": false,
      "taf_trigger": false,
      "metar": "METAR ESGG 301120Z 27008KT 9999 FEW027 BKN037 17/10 Q1024",
      "taf": "TAF ESGG 301130Z 3012/0112 26009KT 9999 SCT035"
    },
    {
      "icao": "ESKN",
      "alert": "OK",
      "vis_m": 9999,
      "fzfg": false,
      "metar_trigger": false,
      "taf_trigger": false,
      "metar": "METAR ESKN 301120Z 33004KT 290V010 CAVOK 24/09 Q1021",
      "taf": "TAF ESKN 301130Z 3012/0112 31007KT CAVOK"
    },
    {
      "icao": "ESMS",
      "alert": "OK",
      "vis_m": 9999,
      "fzfg": false,
      "metar_trigger": false,
      "taf_trigger": false,
      "metar": "METAR ESMS 301120Z 25009KT 190V280 9999 FEW040 23/11 Q1025",
      "taf": "TAF ESMS 301127Z 3012/0112 28008KT 9999 FEW040"
    },
    {
      "icao": "ESSA",
      "alert": "OK",
      "vis_m": 9999,
      "fzfg": false,
      "metar_trigger": false,
      "taf_trigger": false,
      "metar": "METAR ESSA 301120Z 36006KT 320V040 CAVOK 21/09 Q1021 TEMPO SCT050TCU",
      "taf": "TAF ESSA 301130Z 3012/0112 35006KT 9999 SCT045"
    },
    {
      "icao": "EYKA",
      "alert": "OK",
      "vis_m": 9999,
      "fzfg": false,
      "metar_trigger": false,
      "taf_trigger": false,
      "metar": "METAR EYKA 301120Z 31006KT 280V060 9999 FEW048 27/17 Q1021",
      "taf": "TAF EYKA 301100Z 3012/0112 29010KT 9000 NSC"
    },
    {
      "icao": "EYPA",
      "alert": "OK",
      "vis_m": 9999,
      "fzfg": false,
      "metar_trigger": false,
      "taf_trigger": false,
      "metar": "METAR EYPA 301120Z VRB05KT 9999 FEW020 23/15 Q1023",
      "taf": "TAF EYPA 301100Z 3012/0112 VRB03KT 9000 NSC"
    },
    {
      "icao": "EYVI",
      "alert": "OK",
      "vis_m": 9999,
      "fzfg": false,
      "metar_trigger": false,
      "taf_trigger": false,
      "metar": "METAR EYVI 301120Z 27007KT 240V340 9999 FEW041 28/18 Q1021 NOSIG",
      "taf": "TAF EYVI 301100Z 3012/0112 VRB03KT 9000 FEW045"
    },
    {
      "icao": "GCFV",
      "alert": "OK",
      "vis_m": 9999,
      "fzfg": false,
      "metar_trigger": false,
      "taf_trigger": false,
      "metar": "METAR GCFV 301130Z 04011KT CAVOK 25/19 Q1017",
      "taf": "TAF GCFV 300800Z 3009/0109 03014KT CAVOK TX28/3014Z TN21/0106Z"
    },
    {
      "icao": "GCLP",
      "alert": "OK",
      "vis_m": 9999,
      "fzfg": false,
      "metar_trigger": false,
      "taf_trigger": false,
      "metar": "METAR GCLP 301130Z 01028KT 9999 FEW020 27/19 Q1017 NOSIG",
      "taf": "TAF GCLP 300800Z 3009/0109 01026KT 9999 FEW020 TX31/3014Z TN22/0106Z"
    },
    {
      "icao": "GCTS",
      "alert": "OK",
      "vis_m": 9999,
      "fzfg": false,
      "metar_trigger": false,
      "taf_trigger": false,
      "metar": "METAR GCTS 301130Z 08019KT 9999 FEW025 31/13 Q1017 WS R07 NOSIG",
      "taf": "TAF GCTS 300800Z 3009/0109 09017KT CAVOK TX33/3014Z TN21/0106Z"
    },
    {
      "icao": "GMAD",
      "alert": "OK",
      "vis_m": 9999,
      "fzfg": false,
      "metar_trigger": false,
      "taf_trigger": false,
      "metar": "METAR GMAD 301130Z 26010KT CAVOK 30/18 Q1013 NOSIG",
      "taf": "TAF GMAD 300500Z 3006/0112 12005KT 8000 NSC"
    },
    {
      "icao": "GMMN",
      "alert": "OK",
      "vis_m": 9999,
      "fzfg": false,
      "metar_trigger": false,
      "taf_trigger": false,
      "metar": "METAR GMMN 301130Z 33011KT 310V010 CAVOK 31/20 Q1017 NOSIG",
      "taf": "TAF GMMN 301100Z 3012/0118 34012KT CAVOK"
    },
    {
      "icao": "GMMX",
      "alert": "OK",
      "vis_m": 9999,
      "fzfg": false,
      "metar_trigger": false,
      "taf_trigger": false,
      "metar": "METAR GMMX 301130Z 35004KT 270V060 CAVOK 35/16 Q1016 NOSIG",
      "taf": "TAF GMMX 301100Z 3012/0118 24006KT 8000 NSC"
    },
    {
      "icao": "HEGN",
      "alert": "OK",
      "vis_m": 9999,
      "fzfg": false,
      "metar_trigger": false,
      "taf_trigger": false,
      "metar": "METAR HEGN 301100Z 01010KT CAVOK 36/14 Q1006 NOSIG",
      "taf": "TAF HEGN 301100Z 3012/0118 36012G22KT CAVOK"
    },
    {
      "icao": "HEMA",
      "alert": "OK",
      "vis_m": 9999,
      "fzfg": false,
      "metar_trigger": false,
      "taf_trigger": false,
      "metar": "METAR HEMA 301100Z 33022KT CAVOK 37/09 Q1006 NOSIG",
      "taf": "TAF HEMA 301100Z 3012/0118 01012G22KT CAVOK"
    },
    {
      "icao": "HESH",
      "alert": "OK",
      "vis_m": 9999,
      "fzfg": false,
      "metar_trigger": false,
      "taf_trigger": false,
      "metar": "METAR HESH 301100Z 01011KT CAVOK 37/16 Q1007 NOSIG",
      "taf": "TAF HESH 301100Z 3012/0118 02010G20KT CAVOK"
    },
    {
      "icao": "HESX",
      "alert": "OK",
      "vis_m": 9999,
      "fzfg": false,
      "metar_trigger": false,
      "taf_trigger": false,
      "metar": "METAR HESX 301100Z 01009KT CAVOK 35/13 Q1011 NOSIG",
      "taf": "TAF HESX 301100Z 3012/0118 34014KT CAVOK"
    },
    {
      "icao": "LATI",
      "alert": "OK",
      "vis_m": null,
      "fzfg": false,
      "metar_trigger": false,
      "taf_trigger": false,
      "metar": "",
      "taf": "TAF LATI 301100Z 3012/0112 32012KT CAVOK TX38/3012Z TN21/0104Z"
    },
    {
      "icao": "LBPD",
      "alert": "OK",
      "vis_m": 9999,
      "fzfg": false,
      "metar_trigger": false,
      "taf_trigger": false,
      "metar": "METAR LBPD 301130Z AUTO 09010KT 050V190 9999 FEW078/// 36/15 Q1015 NOSIG",
      "taf": "TAF LBPD 301100Z 3012/0112 11010KT 9999 SCT065"
    },
    {
      "icao": "LBSF",
      "alert": "OK",
      "vis_m": 9999,
      "fzfg": false,
      "metar_trigger": false,
      "taf_trigger": false,
      "metar": "METAR LBSF 301130Z 09010KT 050V110 9999 VCTS FEW045CB SCT078 32/16 Q1018 TEMPO 5000 TSRA SCT033CB",
      "taf": "TAF LBSF 301100Z 3012/0112 07010KT 9999 SCT060"
    },
    {
      "icao": "LBWN",
      "alert": "OK",
      "vis_m": 9999,
      "fzfg": false,
      "metar_trigger": false,
      "taf_trigger": false,
      "metar": "METAR LBWN 301130Z 13009KT CAVOK 32/13 Q1016 NOSIG",
      "taf": "TAF LBWN 301100Z 3012/0112 12010KT CAVOK"
    },
    {
      "icao": "LCLK",
      "alert": "OK",
      "vis_m": 9999,
      "fzfg": false,
      "metar_trigger": false,
      "taf_trigger": false,
      "metar": "METAR LCLK 301130Z 19013KT CAVOK 34/23 Q1008 NOSIG",
      "taf": "TAF LCLK 301130Z 3012/0112 22017KT 9999 FEW025"
    },
    {
      "icao": "LCPH",
      "alert": "OK",
      "vis_m": 9999,
      "fzfg": false,
      "metar_trigger": false,
      "taf_trigger": false,
      "metar": "METAR LCPH 301130Z 31018KT 250V320 9999 FEW040 28/25 Q1008 NOSIG",
      "taf": "TAF LCPH 301130Z 3012/0112 29015KT 9999 FEW020"
    },
    {
      "icao": "LEAL",
      "alert": "OK",
      "vis_m": 9999,
      "fzfg": false,
      "metar_trigger": false,
      "taf_trigger": false,
      "metar": "METAR LEAL 301130Z 10009KT 070V160 CAVOK 30/21 Q1020 NOSIG",
      "taf": "TAF LEAL 301100Z 3012/0112 10010KT CAVOK TX32/3012Z TN23/0106Z"
    },
    {
      "icao": "LEBB",
      "alert": "OK",
      "vis_m": 9999,
      "fzfg": false,
      "metar_trigger": false,
      "taf_trigger": false,
      "metar": "METAR LEBB 301130Z 06006KT 340V130 9999 SCT028 BKN048 25/18 Q1025 NOSIG",
      "taf": "TAF LEBB 301100Z 3012/0112 34009KT 9999 FEW020 SCT030 TX24/3015Z TN19/0105Z"
    },
    {
      "icao": "LEBL",
      "alert": "OK",
      "vis_m": 9999,
      "fzfg": false,
      "metar_trigger": false,
      "taf_trigger": false,
      "metar": "METAR LEBL 301100Z 21011KT CAVOK 30/23 Q1019 NOSIG",
      "taf": "TAF LEBL 301100Z 3012/0112 22012KT CAVOK TX33/3013Z TN24/0106Z"
    },
    {
      "icao": "LECH",
      "alert": "OK",
      "vis_m": 9999,
      "fzfg": false,
      "metar_trigger": false,
      "taf_trigger": false,
      "metar": "METAR LECH 301130Z AUTO 13010KT 100V170 CAVOK 30/18 Q1021",
      "taf": "TAF LECH 301100Z 3012/0112 15009KT CAVOK TX32/3012Z TN20/0106Z"
    },
    {
      "icao": "LEMD",
      "alert": "OK",
      "vis_m": 9999,
      "fzfg": false,
      "metar_trigger": false,
      "taf_trigger": false,
      "metar": "METAR LEMD 301130Z 16005KT 090V210 CAVOK 33/12 Q1022 NOSIG",
      "taf": "TAF LEMD 301100Z 3012/0118 VRB04KT CAVOK TX38/0116Z TN20/0105Z"
    },
    {
      "icao": "LEMG",
      "alert": "OK",
      "vis_m": 9999,
      "fzfg": false,
      "metar_trigger": false,
      "taf_trigger": false,
      "metar": "METAR LEMG 301130Z 15008KT 100V200 9999 FEW045 31/17 Q1020 NOSIG",
      "taf": "TAF LEMG 301100Z 3012/0112 14010KT CAVOK TX31/3013Z TN24/0105Z"
    },
    {
      "icao": "LEVC",
      "alert": "OK",
      "vis_m": 9999,
      "fzfg": false,
      "metar_trigger": false,
      "taf_trigger": false,
      "metar": "METAR LEVC 301130Z 09008KT 030V130 CAVOK 34/17 Q1020 NOSIG",
      "taf": ""
    },
    {
      "icao": "LEXJ",
      "alert": "OK",
      "vis_m": 9999,
      "fzfg": false,
      "metar_trigger": false,
      "taf_trigger": false,
      "metar": "METAR LEXJ 301130Z 06004KT 350V150 9999 BKN022 BKN040 22/18 Q1025",
      "taf": "TAF LEXJ 300800Z 3009/0109 04009KT 9999 BKN020 TX22/3014Z TN19/0107Z"
    },
    {
      "icao": "LEZG",
      "alert": "OK",
      "vis_m": 9999,
      "fzfg": false,
      "metar_trigger": false,
      "taf_trigger": false,
      "metar": "METAR LEZG 301130Z 30010KT 260V340 CAVOK 29/13 Q1022 NOSIG",
      "taf": "TAF LEZG 301100Z 3012/0112 31012KT CAVOK TX34/3015Z TN18/0106Z"
    },
    {
      "icao": "LEZL",
      "alert": "OK",
      "vis_m": 9999,
      "fzfg": false,
      "metar_trigger": false,
      "taf_trigger": false,
      "metar": "METAR LEZL 301130Z 27004KT CAVOK 35/16 Q1018 NOSIG",
      "taf": "TAF LEZL 300800Z 3009/0109 VRB03KT CAVOK TX40/3015Z TN24/0105Z"
    },
    {
      "icao": "LFBD",
      "alert": "OK",
      "vis_m": 9999,
      "fzfg": false,
      "metar_trigger": false,
      "taf_trigger": false,
      "metar": "METAR LFBD 301130Z AUTO 28011KT 240V310 9999 FEW045 28/15 Q1023 NOSIG",
      "taf": "TAF LFBD 301100Z 3012/0118 30010KT CAVOK TX31/3013Z TN17/0102Z"
    },
    {
      "icao": "LFLL",
      "alert": "OK",
      "vis_m": 9999,
      "fzfg": false,
      "metar_trigger": false,
      "taf_trigger": false,
      "metar": "METAR LFLL 301130Z 35010KT 290V020 9999 SCT041 30/18 Q1020 NOSIG",
      "taf": "TAF LFLL 301100Z 3012/0118 36010KT 9999 SCT045"
    },
    {
      "icao": "LFLS",
      "alert": "OK",
      "vis_m": 9999,
      "fzfg": false,
      "metar_trigger": false,
      "taf_trigger": false,
      "metar": "METAR LFLS 301130Z AUTO 35005KT 290V060 9999 BKN045 30/18 Q1021 NOSIG",
      "taf": "TAF LFLS 300800Z 3009/0109 35010KT 9999 SCT035"
    },
    {
      "icao": "LFMN",
      "alert": "OK",
      "vis_m": 9999,
      "fzfg": false,
      "metar_trigger": false,
      "taf_trigger": false,
      "metar": "METAR LFMN 301130Z 12004KT 9999 FEW100CB 30/23 Q1018 NOSIG",
      "taf": ""
    },
    {
      "icao": "LFOB",
      "alert": "OK",
      "vis_m": 9999,
      "fzfg": false,
      "metar_trigger": false,
      "taf_trigger": false,
      "metar": "METAR LFOB 301130Z AUTO 28005KT 160V330 CAVOK 25/13 Q1023 NOSIG",
      "taf": "TAF LFOB 301100Z 3012/0112 30005KT CAVOK"
    },
    {
      "icao": "LFPO",
      "alert": "OK",
      "vis_m": 9999,
      "fzfg": false,
      "metar_trigger": false,
      "taf_trigger": false,
      "metar": "METAR LFPO 301130Z 06004KT 010V150 CAVOK 26/14 Q1023 NOSIG",
      "taf": "TAF LFPO 300500Z 3006/0112 02006KT CAVOK"
    },
    {
      "icao": "LFSB",
      "alert": "OK",
      "vis_m": 9999,
      "fzfg": false,
      "metar_trigger": false,
      "taf_trigger": false,
      "metar": "METAR LFSB 301130Z AUTO 08006KT 020V150 CAVOK 31/17 Q1020 TEMPO 30010G20KT 3000 TSRA SCT050CB",
      "taf": "TAF LFSB 301100Z 3012/0112 35005KT CAVOK"
    },
    {
      "icao": "LGAV",
      "alert": "OK",
      "vis_m": 9999,
      "fzfg": false,
      "metar_trigger": false,
      "taf_trigger": false,
      "metar": "METAR LGAV 301120Z 07014KT 9999 FEW030 32/16 Q1012 NOSIG",
      "taf": "TAF LGAV 301100Z 3012/0112 03018KT 9999 FEW025"
    },
    {
      "icao": "LGTS",
      "alert": "OK",
      "vis_m": 9999,
      "fzfg": false,
      "metar_trigger": false,
      "taf_trigger": false,
      "metar": "METAR LGTS 301120Z 19013KT 9999 SCT030 36/17 Q1013 NOSIG",
      "taf": "TAF LGTS 301100Z 3012/0112 19013KT 9999 FEW030"
    },
    {
      "icao": "LHBP",
      "alert": "OK",
      "vis_m": 9999,
      "fzfg": false,
      "metar_trigger": false,
      "taf_trigger": false,
      "metar": "METAR LHBP 301130Z 34006KT 300V020 CAVOK 39/11 Q1017 NOSIG",
      "taf": "TAF LHBP 301115Z 3012/0112 35007KT CAVOK"
    },
    {
      "icao": "LHDC",
      "alert": "OK",
      "vis_m": 9999,
      "fzfg": false,
      "metar_trigger": false,
      "taf_trigger": false,
      "metar": "METAR LHDC 301115Z AUTO VRB05KT 9999 ////// 39/15 Q1016 NOSIG",
      "taf": "TAF LHDC 301115Z 3012/3021 04007KT CAVOK"
    },
    {
      "icao": "LIBD",
      "alert": "OK",
      "vis_m": 9999,
      "fzfg": false,
      "metar_trigger": false,
      "taf_trigger": false,
      "metar": "METAR LIBD 301120Z 01007KT 330V070 CAVOK 32/18 Q1016",
      "taf": "TAF LIBD 301100Z 3012/0112 02012KT CAVOK"
    },
    {
      "icao": "LIBG",
      "alert": "OK",
      "vis_m": 9999,
      "fzfg": false,
      "metar_trigger": false,
      "taf_trigger": false,
      "metar": "METAR LIBG 301120Z AUTO 02013KT 350V050 9999 FEW150/// 37/13 Q1014",
      "taf": "TAF LIBG 301100Z 3012/0112 02012KT CAVOK"
    },
    {
      "icao": "LIBP",
      "alert": "OK",
      "vis_m": 9999,
      "fzfg": false,
      "metar_trigger": false,
      "taf_trigger": false,
      "metar": "METAR LIBP 301120Z AUTO 06009KT 030V090 9999 NCD 32/23 Q1017",
      "taf": "TAF LIBP 301100Z 3012/0112 06010KT CAVOK"
    },
    {
      "icao": "LIBR",
      "alert": "OK",
      "vis_m": 9999,
      "fzfg": false,
      "metar_trigger": false,
      "taf_trigger": false,
      "metar": "METAR LIBR 301120Z 33015KT CAVOK 30/25 Q1014",
      "taf": "TAF LIBR 301100Z 3012/0112 32014KT CAVOK"
    },
    {
      "icao": "LICA",
      "alert": "OK",
      "vis_m": 9999,
      "fzfg": false,
      "metar_trigger": false,
      "taf_trigger": false,
      "metar": "METAR LICA 301120Z AUTO 25011KT 220V280 9999 VCTS NCD 29/25 Q1015",
      "taf": "TAF LICA 301100Z 3012/0112 28015KT 9999 FEW030"
    },
    {
      "icao": "LICC",
      "alert": "OK",
      "vis_m": 9999,
      "fzfg": false,
      "metar_trigger": false,
      "taf_trigger": false,
      "metar": "METAR LICC 301120Z 10007KT 060V130 9999 FEW030TCU 31/23 Q1015",
      "taf": "TAF LICC 301100Z 3012/0112 09010KT 9999 FEW020"
    },
    {
      "icao": "LICJ",
      "alert": "OK",
      "vis_m": 9999,
      "fzfg": false,
      "metar_trigger": false,
      "taf_trigger": false,
      "metar": "METAR LICJ 301120Z 03010KT 9999 FEW020CB 30/25 Q1016",
      "taf": "TAF LICJ 301100Z 3012/0112 36010KT 9999 FEW020"
    },
    {
      "icao": "LIMC",
      "alert": "OK",
      "vis_m": 9999,
      "fzfg": false,
      "metar_trigger": false,
      "taf_trigger": false,
      "metar": "METAR LIMC 301120Z VRB03KT CAVOK 31/17 Q1019 NOSIG",
      "taf": "TAF LIMC 301100Z 3012/0118 VRB05KT CAVOK"
    },
    {
      "icao": "LIME",
      "alert": "OK",
      "vis_m": 9999,
      "fzfg": false,
      "metar_trigger": false,
      "taf_trigger": false,
      "metar": "METAR LIME 301120Z 36008KT 330V030 9999 FEW080 29/17 Q1019 NOSIG",
      "taf": "TAF LIME 301100Z 3012/0112 VRB05KT CAVOK"
    },
    {
      "icao": "LIMF",
      "alert": "OK",
      "vis_m": 9999,
      "fzfg": false,
      "metar_trigger": false,
      "taf_trigger": false,
      "metar": "METAR LIMF 301120Z 12006KT 060V190 CAVOK 32/15 Q1019",
      "taf": "TAF LIMF 301100Z 3012/0112 VRB05KT CAVOK"
    },
    {
      "icao": "LIMJ",
      "alert": "OK",
      "vis_m": 9999,
      "fzfg": false,
      "metar_trigger": false,
      "taf_trigger": false,
      "metar": "METAR LIMJ 301120Z 13005KT CAVOK 27/22 Q1018",
      "taf": "TAF LIMJ 301100Z 3012/0112 VRB05KT CAVOK"
    },
    {
      "icao": "LIPE",
      "alert": "OK",
      "vis_m": 9999,
      "fzfg": false,
      "metar_trigger": false,
      "taf_trigger": false,
      "metar": "METAR LIPE 301120Z 32006KT 270V020 CAVOK 33/17 Q1017",
      "taf": "TAF LIPE 301100Z 3012/0112 VRB05KT 9999 SCT030"
    },
    {
      "icao": "LIPH",
      "alert": "OK",
      "vis_m": 9999,
      "fzfg": false,
      "metar_trigger": false,
      "taf_trigger": false,
      "metar": "METAR LIPH 301120Z 10006KT 020V170 CAVOK 36/17 Q1016",
      "taf": "TAF LIPH 301100Z 3012/0112 VRB06KT 9999 FEW030"
    },
    {
      "icao": "LIPQ",
      "alert": "OK",
      "vis_m": 9999,
      "fzfg": false,
      "metar_trigger": false,
      "taf_trigger": false,
      "metar": "METAR LIPQ 301120Z 25004KT 180V340 9999 FEW040 36/18 Q1016",
      "taf": "TAF LIPQ 301100Z 3012/0112 VRB05KT 9999 FEW040"
    },
    {
      "icao": "LIPR",
      "alert": "OK",
      "vis_m": 9999,
      "fzfg": false,
      "metar_trigger": false,
      "taf_trigger": false,
      "metar": "METAR LIPR 301120Z 03009KT CAVOK 31/21 Q1017",
      "taf": "TAF LIPR 301100Z 3012/0112 02010KT CAVOK"
    },
    {
      "icao": "LIPX",
      "alert": "OK",
      "vis_m": 9999,
      "fzfg": false,
      "metar_trigger": false,
      "taf_trigger": false,
      "metar": "METAR LIPX 301120Z 22004KT 170V270 CAVOK 33/19 Q1018",
      "taf": "TAF LIPX 301100Z 3012/0112 VRB05KT CAVOK"
    },
    {
      "icao": "LIPY",
      "alert": "OK",
      "vis_m": 9999,
      "fzfg": false,
      "metar_trigger": false,
      "taf_trigger": false,
      "metar": "METAR LIPY 301120Z AUTO 01010KT 340V040 9999 NCD 30/22 Q1017",
      "taf": "TAF LIPY 301100Z 3012/0112 01010KT CAVOK"
    },
    {
      "icao": "LIPZ",
      "alert": "OK",
      "vis_m": 9999,
      "fzfg": false,
      "metar_trigger": false,
      "taf_trigger": false,
      "metar": "METAR LIPZ 301120Z 21007KT 180V240 CAVOK 33/22 Q1017 NOSIG",
      "taf": "TAF LIPZ 301100Z 3012/0118 15010KT 9999 FEW040"
    },
    {
      "icao": "LIRF",
      "alert": "OK",
      "vis_m": 9999,
      "fzfg": false,
      "metar_trigger": false,
      "taf_trigger": false,
      "metar": "METAR LIRF 301120Z 27012KT CAVOK 32/20 Q1016 NOSIG",
      "taf": "TAF LIRF 301100Z 3012/0118 28011KT CAVOK"
    },
    {
      "icao": "LIRN",
      "alert": "OK",
      "vis_m": 9999,
      "fzfg": false,
      "metar_trigger": false,
      "taf_trigger": false,
      "metar": "METAR LIRN 301120Z 20006KT 140V250 CAVOK 34/18 Q1016 NOSIG",
      "taf": "TAF LIRN 301100Z 3012/0112 22010KT CAVOK"
    },
    {
      "icao": "LIRP",
      "alert": "OK",
      "vis_m": 9999,
      "fzfg": false,
      "metar_trigger": false,
      "taf_trigger": false,
      "metar": "METAR LIRP 301115Z 17005KT CAVOK 32/17 Q1017 NOSIG",
      "taf": "TAF LIRP 301100Z 3012/0112 30013KT CAVOK"
    },
    {
      "icao": "LIRZ",
      "alert": "OK",
      "vis_m": 9999,
      "fzfg": false,
      "metar_trigger": false,
      "taf_trigger": false,
      "metar": "METAR LIRZ 301120Z AUTO 29004KT 210V340 9999 NCD 35/14 Q1017",
      "taf": "TAF LIRZ 301100Z 3012/0112 VRB05KT CAVOK"
    },
    {
      "icao": "LJLJ",
      "alert": "OK",
      "vis_m": 9999,
      "fzfg": false,
      "metar_trigger": false,
      "taf_trigger": false,
      "metar": "METAR LJLJ 301130Z 06005KT 020V100 9999 FEW060 32/19 Q1020 NOSIG",
      "taf": "TAF LJLJ 301100Z 3012/0112 03004KT 9999 FEW060"
    },
    {
      "icao": "LKMT",
      "alert": "OK",
      "vis_m": 9999,
      "fzfg": false,
      "metar_trigger": false,
      "taf_trigger": false,
      "metar": "METAR LKMT 301130Z 02010KT 350V050 9999 FEW047 29/20 Q1021 NOSIG",
      "taf": "TAF LKMT 301100Z 3012/0112 02008KT CAVOK"
    },
    {
      "icao": "LKPR",
      "alert": "OK",
      "vis_m": 9999,
      "fzfg": false,
      "metar_trigger": false,
      "taf_trigger": false,
      "metar": "METAR LKPR 301130Z 33010KT 9999 FEW030 24/19 Q1022 NOSIG",
      "taf": "TAF LKPR 301100Z 3012/0118 34008KT CAVOK"
    },
    {
      "icao": "LLBG",
      "alert": "OK",
      "vis_m": 9999,
      "fzfg": false,
      "metar_trigger": false,
      "taf_trigger": false,
      "metar": "METAR LLBG 301120Z 29011KT 260V320 CAVOK 32/17 Q1009 NOSIG",
      "taf": "TAF LLBG 301110Z 3012/0112 29012KT CAVOK TX32/3012Z TN22/0103Z"
    },
    {
      "icao": "LMML",
      "alert": "OK",
      "vis_m": 9999,
      "fzfg": false,
      "metar_trigger": false,
      "taf_trigger": false,
      "metar": "METAR LMML 301145Z 19005KT 130V240 9999 FEW020 32/19 Q1016 NOSIG",
      "taf": "TAF LMML 301100Z 3012/0112 VRB06KT 9999 FEW030"
    },
    {
      "icao": "LOWW",
      "alert": "OK",
      "vis_m": 9999,
      "fzfg": false,
      "metar_trigger": false,
      "taf_trigger": false,
      "metar": "METAR LOWW 301120Z 02007KT 330V070 CAVOK 33/18 Q1019 NOSIG",
      "taf": "TAF LOWW 301115Z 3012/0118 32010KT CAVOK TX34/3015Z TN21/0118Z"
    },
    {
      "icao": "LPFR",
      "alert": "OK",
      "vis_m": 9999,
      "fzfg": false,
      "metar_trigger": false,
      "taf_trigger": false,
      "metar": "METAR LPFR 301130Z 18007KT CAVOK 30/17 Q1019",
      "taf": "TAF LPFR 301100Z 3012/0112 19005KT CAVOK"
    },
    {
      "icao": "LPMA",
      "alert": "OK",
      "vis_m": 9999,
      "fzfg": false,
      "metar_trigger": false,
      "taf_trigger": false,
      "metar": "METAR LPMA 301130Z 01017G34KT 330V050 9999 FEW014 24/16 Q1023",
      "taf": "TAF LPMA 301100Z 3012/0112 03018G30KT 9999 SCT015"
    },
    {
      "icao": "LPPR",
      "alert": "OK",
      "vis_m": 9999,
      "fzfg": false,
      "metar_trigger": false,
      "taf_trigger": false,
      "metar": "METAR LPPR 301130Z 30007KT CAVOK 25/18 Q1022",
      "taf": "TAF LPPR 301100Z 3012/0112 32005KT CAVOK"
    },
    {
      "icao": "LPPS",
      "alert": "OK",
      "vis_m": 9999,
      "fzfg": false,
      "metar_trigger": false,
      "taf_trigger": false,
      "metar": "METAR LPPS 301130Z 02017KT 350V050 9999 SCT015 SCT030 23/15 Q1024",
      "taf": "TAF LPPS 301100Z 3012/0118 03015KT 9999 SCT015 SCT030"
    },
    {
      "icao": "LPPT",
      "alert": "OK",
      "vis_m": 9999,
      "fzfg": false,
      "metar_trigger": false,
      "taf_trigger": false,
      "metar": "METAR LPPT 301130Z 31010KT 280V350 CAVOK 25/18 Q1021",
      "taf": "TAF LPPT 301100Z 3012/0118 33015KT CAVOK"
    },
    {
      "icao": "LQBK",
      "alert": "OK",
      "vis_m": 9999,
      "fzfg": false,
      "metar_trigger": false,
      "taf_trigger": false,
      "metar": "METAR LQBK 301130Z VRB04KT CAVOK 34/17 Q1018 NOSIG",
      "taf": "TAF LQBK 301100Z 3012/0112 34006KT CAVOK TX37/3014Z TN19/0103Z"
    },
    {
      "icao": "LQSA",
      "alert": "OK",
      "vis_m": 9999,
      "fzfg": false,
      "metar_trigger": false,
      "taf_trigger": false,
      "metar": "METAR LQSA 301130Z 07004KT 030V140 9999 -SHRA FEW035CB 28/19 Q1019 TEMPO TSRA",
      "taf": "TAF LQSA 301100Z 3012/0112 VRB02KT CAVOK TX35/3013Z TN18/0103Z"
    },
    {
      "icao": "LQTZ",
      "alert": "OK",
      "vis_m": 9999,
      "fzfg": false,
      "metar_trigger": false,
      "taf_trigger": false,
      "metar": "METAR LQTZ 301130Z 30005KT 250V340 9999 FEW050 35/17 Q1017",
      "taf": "TAF LQTZ 301100Z 3012/0112 04005KT 9999 FEW050 TX36/3013Z TN19/0103Z"
    },
    {
      "icao": "LRBC",
      "alert": "OK",
      "vis_m": 9999,
      "fzfg": false,
      "metar_trigger": false,
      "taf_trigger": false,
      "metar": "METAR LRBC 301130Z 03008KT 360V060 CAVOK 35/20 Q1016",
      "taf": "TAF LRBC 301100Z 3012/3021 02012KT CAVOK"
    },
    {
      "icao": "LRBS",
      "alert": "OK",
      "vis_m": 9999,
      "fzfg": false,
      "metar_trigger": false,
      "taf_trigger": false,
      "metar": "METAR LRBS 301130Z VRB02KT CAVOK 38/18 Q1015 NOSIG",
      "taf": "TAF LRBS 301100Z 3012/0112 VRB04KT CAVOK"
    },
    {
      "icao": "LRBV",
      "alert": "OK",
      "vis_m": 9999,
      "fzfg": false,
      "metar_trigger": false,
      "taf_trigger": false,
      "metar": "METAR LRBV 301130Z VRB02KT 9999 FEW055CB FEW056 32/17 Q1019",
      "taf": "TAF LRBV 301100Z 3012/3021 VRB04KT 9999 FEW040CB"
    },
    {
      "icao": "LRCL",
      "alert": "OK",
      "vis_m": 9999,
      "fzfg": false,
      "metar_trigger": false,
      "taf_trigger": false,
      "metar": "METAR LRCL 301130Z 05004KT 310V120 9999 FEW038 36/16 Q1017",
      "taf": "TAF LRCL 301100Z 3012/3021 VRB04KT CAVOK"
    },
    {
      "icao": "LRCV",
      "alert": "OK",
      "vis_m": 9999,
      "fzfg": false,
      "metar_trigger": false,
      "taf_trigger": false,
      "metar": "METAR LRCV 301130Z 17006KT 120V250 CAVOK 35/18 Q1016",
      "taf": "TAF LRCV 301100Z 3012/3021 VRB04KT CAVOK"
    },
    {
      "icao": "LRIA",
      "alert": "OK",
      "vis_m": 9999,
      "fzfg": false,
      "metar_trigger": false,
      "taf_trigger": false,
      "metar": "METAR LRIA 301130Z 33011KT CAVOK 35/20 Q1016",
      "taf": "TAF LRIA 301100Z 3012/3021 01012KT CAVOK"
    },
    {
      "icao": "LROP",
      "alert": "OK",
      "vis_m": 9999,
      "fzfg": false,
      "metar_trigger": false,
      "taf_trigger": false,
      "metar": "METAR LROP 301130Z 12007KT CAVOK 37/16 Q1015 NOSIG",
      "taf": "TAF LROP 301100Z 3012/0112 VRB04KT CAVOK"
    },
    {
      "icao": "LRSB",
      "alert": "OK",
      "vis_m": 9999,
      "fzfg": false,
      "metar_trigger": false,
      "taf_trigger": false,
      "metar": "METAR LRSB 301130Z 08004KT 340V130 9999 FEW040CB 34/16 Q1018 NOSIG",
      "taf": "TAF LRSB 301100Z 3012/0112 VRB04KT CAVOK"
    },
    {
      "icao": "LRSM",
      "alert": "OK",
      "vis_m": 9999,
      "fzfg": false,
      "metar_trigger": false,
      "taf_trigger": false,
      "metar": "METAR LRSM 301130Z VRB02KT 9999 FEW050TCU 38/17 Q1016",
      "taf": "TAF LRSM 301100Z 3012/3021 06006KT 9999 SCT040"
    },
    {
      "icao": "LRSV",
      "alert": "OK",
      "vis_m": 9999,
      "fzfg": false,
      "metar_trigger": false,
      "taf_trigger": false,
      "metar": "METAR LRSV 301130Z 36011KT CAVOK 33/20 Q1019",
      "taf": "TAF LRSV 301100Z 3012/3021 02012KT CAVOK"
    },
    {
      "icao": "LRTM",
      "alert": "OK",
      "vis_m": 9999,
      "fzfg": false,
      "metar_trigger": false,
      "taf_trigger": false,
      "metar": "METAR LRTM 301130Z VRB05KT 9999 FEW034 FEW037CB 36/23 Q1017",
      "taf": "TAF LRTM 301100Z 3012/3021 VRB04KT CAVOK"
    },
    {
      "icao": "LRTR",
      "alert": "OK",
      "vis_m": 9999,
      "fzfg": false,
      "metar_trigger": false,
      "taf_trigger": false,
      "metar": "METAR LRTR 301130Z 12006KT 070V170 9999 FEW050TCU 38/16 Q1015 NOSIG",
      "taf": "TAF LRTR 301100Z 3012/0112 02006KT 9999 SCT045"
    },
    {
      "icao": "LTAC",
      "alert": "OK",
      "vis_m": 9999,
      "fzfg": false,
      "metar_trigger": false,
      "taf_trigger": false,
      "metar": "METAR LTAC 301120Z VRB09KT 9999 FEW040 30/07 Q1017 NOSIG RMK RWY21C 08005KT 350V160 RWY03L VRB07KT RWY21R VRB05KT RWY03R 05007KT 320V110 RWY21L VRB06KT",
      "taf": "TAF LTAC 301040Z 3012/0112 VRB02KT 9999 FEW040"
    },
    {
      "icao": "LTFM",
      "alert": "OK",
      "vis_m": 9999,
      "fzfg": false,
      "metar_trigger": false,
      "taf_trigger": false,
      "metar": "METAR LTFM 301120Z 04018KT 9999 SCT013 26/21 Q1015 NOSIG RMK RWY17L 04015KT RWY34L 03015KT RWY16R 04014KT RWY36 06017G28KT RWY18 06014KT",
      "taf": "TAF LTFM 301040Z 3012/0118 05016G26KT 9999 SCT012"
    },
    {
      "icao": "LUKK",
      "alert": "OK",
      "vis_m": 9999,
      "fzfg": false,
      "metar_trigger": false,
      "taf_trigger": false,
      "metar": "METAR LUKK 301130Z 35014KT 320V020 CAVOK 36/18 Q1014 TEMPO 35016G26KT",
      "taf": "TAF LUKK 301103Z 3012/0112 35012KT CAVOK"
    },
    {
      "icao": "LWOH",
      "alert": "OK",
      "vis_m": null,
      "fzfg": false,
      "metar_trigger": false,
      "taf_trigger": false,
      "metar": "",
      "taf": "TAF LWOH 301145Z 3012/0112 16006KT 9999 SCT040"
    },
    {
      "icao": "LWSK",
      "alert": "OK",
      "vis_m": null,
      "fzfg": false,
      "metar_trigger": false,
      "taf_trigger": false,
      "metar": "",
      "taf": "TAF LWSK 301145Z 3012/0112 VRB02KT 9999 FEW040"
    },
    {
      "icao": "LYBE",
      "alert": "OK",
      "vis_m": 9999,
      "fzfg": false,
      "metar_trigger": false,
      "taf_trigger": false,
      "metar": "METAR LYBE 301130Z 01005KT 300V110 CAVOK 37/17 Q1016 NOSIG",
      "taf": "TAF LYBE 301100Z 3012/0112 02006KT CAVOK TX38/3013Z TN21/0103Z"
    },
    {
      "icao": "LYNI",
      "alert": "OK",
      "vis_m": 9999,
      "fzfg": false,
      "metar_trigger": false,
      "taf_trigger": false,
      "metar": "METAR LYNI 301130Z VRB05KT 9999 FEW040 36/16 Q1015 NOSIG",
      "taf": "TAF LYNI 301100Z 3012/0112 36007KT 9999 SCT060 TX37/3014Z TN19/0103Z"
    },
    {
      "icao": "LYPG",
      "alert": "OK",
      "vis_m": 9999,
      "fzfg": false,
      "metar_trigger": false,
      "taf_trigger": false,
      "metar": "METAR LYPG 301130Z 18008KT 150V220 9999 FEW034 SCT080 38/13 Q1013 NOSIG",
      "taf": "TAF LYPG 301100Z 3012/0112 18010KT 9999 FEW040 TX39/3014Z TN26/0103Z"
    },
    {
      "icao": "LZIB",
      "alert": "OK",
      "vis_m": 9999,
      "fzfg": false,
      "metar_trigger": false,
      "taf_trigger": false,
      "metar": "METAR LZIB 301130Z VRB02KT CAVOK 35/19 Q1018 NOSIG",
      "taf": "TAF LZIB 301115Z 3012/0112 35007KT CAVOK"
    },
    {
      "icao": "LZKZ",
      "alert": "OK",
      "vis_m": 9999,
      "fzfg": false,
      "metar_trigger": false,
      "taf_trigger": false,
      "metar": "METAR LZKZ 301130Z 01011KT CAVOK 33/19 Q1018 TEMPO FEW050CB",
      "taf": "TAF LZKZ 301115Z 3012/0112 03010KT CAVOK"
    },
    {
      "icao": "LZTT",
      "alert": "OK",
      "vis_m": 9999,
      "fzfg": false,
      "metar_trigger": false,
      "taf_trigger": false,
      "metar": "METAR LZTT 301130Z 05005KT 360V070 9999 FEW033 FEW050CB 31/19 Q1022 TEMPO TSRA",
      "taf": "TAF LZTT 301115Z 3012/0112 07005KT 9999 FEW053"
    },
    {
      "icao": "OEJN",
      "alert": "OK",
      "vis_m": 9999,
      "fzfg": false,
      "metar_trigger": false,
      "taf_trigger": false,
      "metar": "METAR OEJN 301100Z 33021KT CAVOK 41/12 Q1003 NOSIG",
      "taf": "TAF OEJN 301100Z 3012/0118 33015KT CAVOK"
    },
    {
      "icao": "OEMA",
      "alert": "OK",
      "vis_m": 9999,
      "fzfg": false,
      "metar_trigger": false,
      "taf_trigger": false,
      "metar": "METAR OEMA 301100Z 28008KT CAVOK 44/M04 Q1008 NOSIG",
      "taf": "TAF OEMA 301100Z 3012/0118 28010KT CAVOK"
    },
    {
      "icao": "OJAI",
      "alert": "OK",
      "vis_m": 5000,
      "fzfg": false,
      "metar_trigger": false,
      "taf_trigger": false,
      "metar": "METAR OJAI 301100Z 29010KT 5000 HZ NSC 33/11 Q1013 NOSIG",
      "taf": "TAF OJAI 301100Z 3012/0118 31010KT 5000 HZ NSC"
    },
    {
      "icao": "OMAA",
      "alert": "OK",
      "vis_m": 9999,
      "fzfg": false,
      "metar_trigger": false,
      "taf_trigger": false,
      "metar": "METAR OMAA 301130Z 30008KT 280V340 CAVOK 39/19 Q0997 NOSIG",
      "taf": "TAF OMAA 301100Z 3012/0118 30011KT 8000 NSC"
    },
    {
      "icao": "OMDB",
      "alert": "OK",
      "vis_m": 9999,
      "fzfg": false,
      "metar_trigger": false,
      "taf_trigger": false,
      "metar": "METAR OMDB 301130Z 28011KT 190V300 CAVOK 38/26 Q0996 NOSIG",
      "taf": "TAF OMDB 301100Z 3012/0118 28010KT 8000 NSC"
    },
    {
      "icao": "UAAA",
      "alert": "OK",
      "vis_m": 9999,
      "fzfg": false,
      "metar_trigger": false,
      "taf_trigger": false,
      "metar": "METAR UAAA 301130Z 24003MPS 200V280 9999 SCT050CB BKN100 33/13 Q1008 NOSIG",
      "taf": "TAF UAAA 301102Z 3012/0112 35003G08MPS 9999 BKN040CB OVC100 TX27/0110Z TN20/0101Z"
    },
    {
      "icao": "UBBB",
      "alert": "OK",
      "vis_m": 9999,
      "fzfg": false,
      "metar_trigger": false,
      "taf_trigger": false,
      "metar": "METAR UBBB 301130Z 08008KT CAVOK 29/16 Q1010 NOSIG",
      "taf": "TAF UBBB 301046Z 3012/0112 06005KT 9999 SCT040 TX29/3012Z TN19/0101Z"
    },
    {
      "icao": "UDSG",
      "alert": "OK",
      "vis_m": 9999,
      "fzfg": false,
      "metar_trigger": false,
      "taf_trigger": false,
      "metar": "METAR UDSG 301130Z 36006KT 320V040 9999 SCT049 23/08 Q1018 NOSIG",
      "taf": "TAF UDSG 301100Z 3012/0112 36006KT 9999 FEW050"
    },
    {
      "icao": "UDYZ",
      "alert": "OK",
      "vis_m": 9999,
      "fzfg": false,
      "metar_trigger": false,
      "taf_trigger": false,
      "metar": "METAR UDYZ 301130Z 22004KT 180V260 9999 FEW046 29/08 Q1012 NOSIG",
      "taf": "TAF UDYZ 301100Z 3012/0112 23006KT 9999 FEW040"
    },
    {
      "icao": "UGKO",
      "alert": "OK",
      "vis_m": 9999,
      "fzfg": false,
      "metar_trigger": false,
      "taf_trigger": false,
      "metar": "METAR UGKO 301130Z 25014KT 230V290 9999 SCT047 26/17 Q1012 NOSIG",
      "taf": "TAF UGKO 301100Z 3012/0112 25010KT 9999 SCT060 TX30/0111Z TN18/0102Z"
    }
  ]
}