{
  "ts_utc": "2026-01-02T16:56:05Z",
  "threshold_m": 150,
  "source": "stations_override.txt (ICAO list) + aviationweather.gov (METAR/TAF raw)",
  "station_count": 159,
  "stations": [
    {
      "icao": "BIKF",
      "alert": "OK",
      "vis_m": 9999,
      "fzfg": false,
      "metar_trigger": false,
      "taf_trigger": false,
      "metar": "METAR BIKF 021630Z 05007KT CAVOK M02/M09 Q1026",
      "taf": "TAF BIKF 021622Z 0218/0318 07006KT CAVOK TXM02/0218Z TNM08/0308Z"
    },
    {
      "icao": "BKPR",
      "alert": "OK",
      "vis_m": null,
      "fzfg": false,
      "metar_trigger": false,
      "taf_trigger": false,
      "metar": "",
      "taf": "TAF BKPR 021130Z 0212/0312 18008KT 9999 BKN040"
    },
    {
      "icao": "EBCI",
      "alert": "OK",
      "vis_m": 9999,
      "fzfg": false,
      "metar_trigger": false,
      "taf_trigger": false,
      "metar": "METAR EBCI 021650Z 26007KT 9999 FEW018 SCT046 01/M03 Q1004 TEMPO 2500 -SN BKN005",
      "taf": "TAF EBCI 021120Z 0212/0318 27009KT 9999 SCT008 SCT015TCU"
    },
    {
      "icao": "EDDB",
      "alert": "OK",
      "vis_m": 9999,
      "fzfg": false,
      "metar_trigger": false,
      "taf_trigger": false,
      "metar": "METAR EDDB 021650Z AUTO 25021G31KT 9999 BKN030 OVC040 02/M02 Q0989 NOSIG",
      "taf": "TAF EDDB 021100Z 0212/0312 24020G30KT 1500 SN BKN008"
    },
    {
      "icao": "EDDH",
      "alert": "OK",
      "vis_m": 9999,
      "fzfg": false,
      "metar_trigger": false,
      "taf_trigger": false,
      "metar": "METAR EDDH 021650Z AUTO 25009KT 9999 FEW007 SCT020 BKN039 01/M00 Q0987 TEMPO 29015G25KT 2000 SHSN BKN005CB",
      "taf": ""
    },
    {
      "icao": "EDDK",
      "alert": "OK",
      "vis_m": 8000,
      "fzfg": false,
      "metar_trigger": false,
      "taf_trigger": false,
      "metar": "METAR EDDK 021650Z AUTO 27005KT 240V320 8000 -SN BKN003 BKN009 BKN014 00/M00 Q1001 RESHSN BECMG BKN007",
      "taf": "TAF EDDK 021100Z 0212/0318 26015G25KT 9999 BKN025"
    },
    {
      "icao": "EDDN",
      "alert": "OK",
      "vis_m": 2500,
      "fzfg": false,
      "metar_trigger": false,
      "taf_trigger": false,
      "metar": "METAR EDDN 021650Z AUTO 29007KT 2500 SN BR BKN005 BKN017 M01/M01 Q0999 TEMPO 4000 NSW BKN004",
      "taf": "TAF EDDN 021100Z 0212/0312 24015G25KT 9999 FEW020"
    },
    {
      "icao": "EDDS",
      "alert": "OK",
      "vis_m": 9999,
      "fzfg": false,
      "metar_trigger": false,
      "taf_trigger": false,
      "metar": "METAR EDDS 021650Z AUTO 23006KT 180V280 9999 BKN024 BKN038 01/M03 Q1000 TEMPO 2000 SHSN BKN008 BKN012TCU",
      "taf": "TAF EDDS 021100Z 0212/0312 23010KT 9999 BKN025"
    },
    {
      "icao": "EDFH",
      "alert": "OK",
      "vis_m": 9999,
      "fzfg": false,
      "metar_trigger": false,
      "taf_trigger": false,
      "metar": "METAR EDFH 021620Z 29011KT 9999 FEW019 M02/M05 Q0999",
      "taf": ""
    },
    {
      "icao": "EDJA",
      "alert": "OK",
      "vis_m": 9999,
      "fzfg": false,
      "metar_trigger": false,
      "taf_trigger": false,
      "metar": "METAR EDJA 021620Z 23015G26KT 9999 FEW041 M00/M04 Q1001",
      "taf": "TAF EDJA 021400Z 0215/0224 24020G30KT 9999 FEW020 BKN045"
    },
    {
      "icao": "EDLW",
      "alert": "OK",
      "vis_m": 9999,
      "fzfg": false,
      "metar_trigger": false,
      "taf_trigger": false,
      "metar": "METAR EDLW 021620Z 24012KT 9999 BKN010 01/M00 Q0997",
      "taf": "TAF EDLW 021100Z 0212/0312 24015G25KT 9999 SCT012 BKN015"
    },
    {
      "icao": "EDNY",
      "alert": "OK",
      "vis_m": 9999,
      "fzfg": false,
      "metar_trigger": false,
      "taf_trigger": false,
      "metar": "METAR EDNY 021620Z 23009KT 9999 FEW033 BKN039 OVC048 02/M03 Q1003",
      "taf": "TAF EDNY 021400Z 0215/0224 25008KT 9999 BKN030"
    },
    {
      "icao": "EDSB",
      "alert": "OK",
      "vis_m": 2000,
      "fzfg": false,
      "metar_trigger": false,
      "taf_trigger": false,
      "metar": "METAR EDSB 021620Z 23006KT 2000 +SHRA BR FEW002 OVC008 00/M00 Q1003",
      "taf": ""
    },
    {
      "icao": "EETN",
      "alert": "OK",
      "vis_m": 9999,
      "fzfg": false,
      "metar_trigger": false,
      "taf_trigger": false,
      "metar": "METAR EETN 021650Z 11012KT 9999 -SN DRSN SCT008 OVC016 M06/M07 Q0983 TEMPO 3000 SN",
      "taf": "TAF EETN 021130Z 0212/0312 11014KT 8000 DRSN SCT015 BKN020 OVC035"
    },
    {
      "icao": "EFTU",
      "alert": "OK",
      "vis_m": 9999,
      "fzfg": false,
      "metar_trigger": false,
      "taf_trigger": false,
      "metar": "METAR EFTU 021650Z AUTO 08012KT 9999 OVC013 M08/M10 Q0984",
      "taf": "TAF EFTU 021436Z 0215/0315 07011KT 8000 -SN OVC015"
    },
    {
      "icao": "EGBB",
      "alert": "OK",
      "vis_m": 9999,
      "fzfg": false,
      "metar_trigger": false,
      "taf_trigger": false,
      "metar": "METAR EGBB 021650Z 30007KT 9999 FEW038 02/M02 Q1008",
      "taf": "TAF EGBB 021056Z 0212/0312 31009KT CAVOK"
    },
    {
      "icao": "EGGP",
      "alert": "OK",
      "vis_m": 9999,
      "fzfg": false,
      "metar_trigger": false,
      "taf_trigger": false,
      "metar": "METAR EGGP 021650Z 33006KT 9999 SCT045 03/M03 Q1008",
      "taf": "TAF EGGP 021055Z 0212/0312 33009KT 9999 SCT030"
    },
    {
      "icao": "EGGW",
      "alert": "OK",
      "vis_m": 9999,
      "fzfg": false,
      "metar_trigger": false,
      "taf_trigger": false,
      "metar": "METAR EGGW 021650Z AUTO 31010KT 9999 NCD 01/M04 Q1007",
      "taf": "TAF EGGW 021056Z 0212/0312 30012KT 9999 FEW030"
    },
    {
      "icao": "EGKK",
      "alert": "OK",
      "vis_m": 9999,
      "fzfg": false,
      "metar_trigger": false,
      "taf_trigger": false,
      "metar": "METAR EGKK 021650Z 30007KT CAVOK 02/M04 Q1008",
      "taf": "TAF EGKK 021053Z 0212/0318 30009KT 9999 FEW025"
    },
    {
      "icao": "EGNM",
      "alert": "OK",
      "vis_m": 9999,
      "fzfg": false,
      "metar_trigger": false,
      "taf_trigger": false,
      "metar": "METAR EGNM 021650Z 30012KT 9999 FEW030 M00/M04 Q1006",
      "taf": "TAF EGNM 021055Z 0212/0312 30009KT 9999 FEW030"
    },
    {
      "icao": "EGPD",
      "alert": "OK",
      "vis_m": 4000,
      "fzfg": false,
      "metar_trigger": false,
      "taf_trigger": false,
      "metar": "METAR EGPD 021650Z AUTO 32019KT 4000 -SN BKN008 BKN015 M00/M01 Q1004 RESN",
      "taf": "TAF EGPD 021055Z 0212/0312 31012KT 9999 SCT012"
    },
    {
      "icao": "EGPF",
      "alert": "OK",
      "vis_m": 9999,
      "fzfg": false,
      "metar_trigger": false,
      "taf_trigger": false,
      "metar": "METAR EGPF 021650Z AUTO 30009KT 9999 NCD 02/M02 Q1008",
      "taf": "TAF EGPF 021102Z 0212/0312 29009KT 9999 FEW035"
    },
    {
      "icao": "EHBK",
      "alert": "OK",
      "vis_m": 900,
      "fzfg": false,
      "metar_trigger": false,
      "taf_trigger": false,
      "metar": "METAR EHBK 021625Z AUTO 26007KT 220V310 0900 R21/1800N SN FEW001/// BKN003/// BKN004/// 00/M00 Q1002 TEMPO 1500 SHSN SCT020CB",
      "taf": "TAF EHBK 021121Z 0212/0318 25012KT 9999 SCT022"
    },
    {
      "icao": "EHEH",
      "alert": "OK",
      "vis_m": 9999,
      "fzfg": false,
      "metar_trigger": false,
      "taf_trigger": false,
      "metar": "METAR EHEH 021625Z AUTO 25009KT 9999 SCT037 OVC110 01/M00 Q1001 BLU TEMPO 0500 SHSNRA FEW003 SCT005 BKN008 SCT015CB",
      "taf": "TAF EHEH 021111Z 0212/0318 27010G20KT 9999 SCT035 BKN040"
    },
    {
      "icao": "EKBI",
      "alert": "OK",
      "vis_m": 8000,
      "fzfg": false,
      "metar_trigger": false,
      "taf_trigger": false,
      "metar": "METAR EKBI 021650Z 33014KT 8000 -SHSN FEW008 BKN012 FEW020CB M02/M03 Q0987",
      "taf": "TAF EKBI 021427Z 0215/0315 32012KT 9999 BKN020"
    },
    {
      "icao": "EKCH",
      "alert": "OK",
      "vis_m": 9999,
      "fzfg": false,
      "metar_trigger": false,
      "taf_trigger": false,
      "metar": "METAR EKCH 021650Z 25009KT 9999 -SN BKN022 00/M03 Q0981 TEMPO 1400 SHSN BKN010 SCT020CB",
      "taf": "TAF EKCH 021427Z 0215/0315 26014KT 9999 SCT035"
    },
    {
      "icao": "ENAL",
      "alert": "OK",
      "vis_m": 9999,
      "fzfg": false,
      "metar_trigger": false,
      "taf_trigger": false,
      "metar": "METAR ENAL 021620Z 07013KT 040V100 9999 VCSH FEW020 BKN032 M02/M08 Q0995",
      "taf": "TAF ENAL 021400Z 0215/0224 05015KT 9999 FEW010 SCT025CB BKN040"
    },
    {
      "icao": "ENBR",
      "alert": "OK",
      "vis_m": 9999,
      "fzfg": false,
      "metar_trigger": false,
      "taf_trigger": false,
      "metar": "METAR ENBR 021620Z 08003KT 9999 FEW015TCU M04/M08 Q0993 NOSIG RMK WIND 1200FT 36010KT",
      "taf": "TAF ENBR 021100Z 0212/0312 35012KT CAVOK"
    },
    {
      "icao": "ENGM",
      "alert": "OK",
      "vis_m": 9000,
      "fzfg": false,
      "metar_trigger": false,
      "taf_trigger": false,
      "metar": "METAR ENGM 021620Z 36017KT 9000 -SN FEW031 M08/M11 Q0989 NOSIG",
      "taf": "TAF ENGM 021100Z 0212/0312 01015KT 9999 SCT035"
    },
    {
      "icao": "ENHD",
      "alert": "OK",
      "vis_m": 9999,
      "fzfg": false,
      "metar_trigger": false,
      "taf_trigger": false,
      "metar": "METAR ENHD 021620Z 03012KT CAVOK M01/M10 Q0993",
      "taf": "TAF ENHD 021400Z 0215/0223 01015KT CAVOK"
    },
    {
      "icao": "ENTC",
      "alert": "OK",
      "vis_m": 9999,
      "fzfg": false,
      "metar_trigger": false,
      "taf_trigger": false,
      "metar": "METAR ENTC 021620Z 19010KT 9999 -SHSN FEW016 SCT037 BKN044 M06/M07 Q0999 TEMPO 1000 SHSN BKN008 SCT015CB RMK WIND 2600FT 34029KT",
      "taf": "TAF ENTC 021100Z 0212/0315 20015KT 8000 -SHSN SCT010 BKN025"
    },
    {
      "icao": "ENTO",
      "alert": "OK",
      "vis_m": 9999,
      "fzfg": false,
      "metar_trigger": false,
      "taf_trigger": false,
      "metar": "METAR ENTO 021620Z 36014KT 9999 FEW037 M06/M12 Q0988 NOSIG",
      "taf": "TAF ENTO 021100Z 0212/0312 01015KT 9999 SCT035"
    },
    {
      "icao": "ENVA",
      "alert": "OK",
      "vis_m": 9999,
      "fzfg": false,
      "metar_trigger": false,
      "taf_trigger": false,
      "metar": "METAR ENVA 021620Z 06008KT 360V080 9999 FEW035 M08/M13 Q0998 NOSIG RMK WIND 670FT 07013KT",
      "taf": "TAF ENVA 021100Z 0212/0312 07008KT 9999 FEW030 BKN055"
    },
    {
      "icao": "ENZV",
      "alert": "OK",
      "vis_m": 9999,
      "fzfg": false,
      "metar_trigger": false,
      "taf_trigger": false,
      "metar": "METAR ENZV 021620Z 36014KT CAVOK M00/M10 Q0992 NOSIG",
      "taf": "TAF ENZV 021100Z 0212/0312 36012KT CAVOK"
    },
    {
      "icao": "EPGD",
      "alert": "OK",
      "vis_m": 9999,
      "fzfg": false,
      "metar_trigger": false,
      "taf_trigger": false,
      "metar": "METAR EPGD 021630Z 21010KT 9999 BKN017 BKN045 01/M02 Q0983",
      "taf": "TAF EPGD 021130Z 0212/0312 24014KT 9999 SCT012 BKN025"
    },
    {
      "icao": "EPKK",
      "alert": "OK",
      "vis_m": 9999,
      "fzfg": false,
      "metar_trigger": false,
      "taf_trigger": false,
      "metar": "METAR EPKK 021630Z 25015KT 9999 BKN037 02/M03 Q0995",
      "taf": "TAF EPKK 021430Z 0215/0315 23010KT 9999 BKN040"
    },
    {
      "icao": "EPKT",
      "alert": "OK",
      "vis_m": 9999,
      "fzfg": false,
      "metar_trigger": false,
      "taf_trigger": false,
      "metar": "METAR EPKT 021630Z 22016KT 9999 -SHSN FEW010CB SCT044 00/M02 Q0994",
      "taf": "TAF EPKT 021130Z 0212/0312 23015KT 9999 BKN040"
    },
    {
      "icao": "EPLB",
      "alert": "OK",
      "vis_m": 9999,
      "fzfg": false,
      "metar_trigger": false,
      "taf_trigger": false,
      "metar": "METAR EPLB 021630Z 22015KT 9999 -SN FEW043 00/M01 Q0993",
      "taf": "TAF EPLB 021130Z 0212/0312 22014KT 9999 BKN020"
    },
    {
      "icao": "EPMO",
      "alert": "OK",
      "vis_m": 2600,
      "fzfg": false,
      "metar_trigger": false,
      "taf_trigger": false,
      "metar": "METAR EPMO 021630Z 22011KT 2600 -SHSN BR BKN016 BKN019TCU 01/M00 Q0989",
      "taf": "TAF EPMO 021130Z 0212/0312 22015KT 9999 BKN020"
    },
    {
      "icao": "EPPO",
      "alert": "OK",
      "vis_m": 1900,
      "fzfg": false,
      "metar_trigger": false,
      "taf_trigger": false,
      "metar": "METAR EPPO 021630Z 25009KT 1900 -SN BR OVC004 00/M01 Q0988",
      "taf": "TAF EPPO 021130Z 0212/0312 24015KT 9999 BKN025"
    },
    {
      "icao": "EPRA",
      "alert": "OK",
      "vis_m": 9999,
      "fzfg": false,
      "metar_trigger": false,
      "taf_trigger": false,
      "metar": "METAR EPRA 021630Z 22013KT 9999 SCT032 01/M03 Q0992",
      "taf": "TAF EPRA 021430Z 0215/0224 22012KT 9999 BKN025"
    },
    {
      "icao": "EPRZ",
      "alert": "OK",
      "vis_m": 9999,
      "fzfg": false,
      "metar_trigger": false,
      "taf_trigger": false,
      "metar": "METAR EPRZ 021630Z 20015KT 9999 -SHSN BKN022CB 00/M02 Q0996",
      "taf": "TAF EPRZ 021130Z 0212/0312 22015KT 9999 SCT040"
    },
    {
      "icao": "EPSC",
      "alert": "OK",
      "vis_m": 9999,
      "fzfg": false,
      "metar_trigger": false,
      "taf_trigger": false,
      "metar": "METAR EPSC 021630Z 22006KT 190V250 9999 -SN SCT006 BKN009 01/00 Q0985",
      "taf": "TAF EPSC 021130Z 0212/0312 24012KT 9999 BKN020"
    },
    {
      "icao": "EPSY",
      "alert": "OK",
      "vis_m": 9999,
      "fzfg": false,
      "metar_trigger": false,
      "taf_trigger": false,
      "metar": "METAR EPSY 021630Z 20011KT 9999 -SN BKN007 OVC011 00/M00 Q0986",
      "taf": "TAF EPSY 021430Z 0215/0224 21012KT 6000 -RASN OVC010"
    },
    {
      "icao": "EPWA",
      "alert": "OK",
      "vis_m": 9999,
      "fzfg": false,
      "metar_trigger": false,
      "taf_trigger": false,
      "metar": "METAR EPWA 021630Z 22011KT 9999 FEW033 02/M02 Q0990 NOSIG",
      "taf": "TAF EPWA 021430Z 0215/0315 22012KT 9999 SCT015 BKN020"
    },
    {
      "icao": "EPWR",
      "alert": "OK",
      "vis_m": 9999,
      "fzfg": false,
      "metar_trigger": false,
      "taf_trigger": false,
      "metar": "METAR EPWR 021630Z 25018G29KT 230V290 9999 SCT029 BKN044 02/M03 Q0993",
      "taf": "TAF EPWR 021430Z 0215/0315 24015KT 9999 BKN030"
    },
    {
      "icao": "ESGG",
      "alert": "OK",
      "vis_m": 2000,
      "fzfg": false,
      "metar_trigger": false,
      "taf_trigger": false,
      "metar": "METAR ESGG 021650Z 35015KT 2000 -SN VV016 M05/M07 Q0981",
      "taf": "TAF ESGG 021430Z 0215/0315 36015G25KT 6000 -SN SCT005 BKN015"
    },
    {
      "icao": "ESKN",
      "alert": "OK",
      "vis_m": 9000,
      "fzfg": false,
      "metar_trigger": false,
      "taf_trigger": false,
      "metar": "METAR ESKN 021650Z 01010KT 340V040 9000 -SN BKN009 M02/M03 Q0979",
      "taf": "TAF ESKN 021430Z 0215/0315 33010KT 7000 -SN BKN004"
    },
    {
      "icao": "ESMS",
      "alert": "OK",
      "vis_m": 9999,
      "fzfg": false,
      "metar_trigger": false,
      "taf_trigger": false,
      "metar": "METAR ESMS 021650Z 27009KT 9999 BKN032 00/M04 Q0980",
      "taf": "TAF ESMS 021427Z 0215/0315 27012KT 9999 BKN025"
    },
    {
      "icao": "ESSA",
      "alert": "OK",
      "vis_m": 9000,
      "fzfg": false,
      "metar_trigger": false,
      "taf_trigger": false,
      "metar": "METAR ESSA 021650Z 02017KT 9000 -SN BKN007 M04/M05 Q0981 TEMPO 03015G25KT 1000 -SN VV015",
      "taf": "TAF ESSA 021430Z 0215/0315 02015G25KT 7000 -SN BKN006"
    },
    {
      "icao": "EYKA",
      "alert": "OK",
      "vis_m": 1100,
      "fzfg": false,
      "metar_trigger": false,
      "taf_trigger": false,
      "metar": "METAR EYKA 021650Z 21009KT 160V250 1100 R26/P2000N SNRA BR OVC004 00/00 Q0985",
      "taf": "TAF EYKA 021103Z 0212/0312 20011KT 9000 SCT010 OVC015"
    },
    {
      "icao": "EYPA",
      "alert": "OK",
      "vis_m": 9000,
      "fzfg": false,
      "metar_trigger": false,
      "taf_trigger": false,
      "metar": "METAR EYPA 021650Z 22008KT 190V280 9000 -SHSNRA FEW019 BKN026CB OVC031 02/00 Q0980",
      "taf": ""
    },
    {
      "icao": "EYVI",
      "alert": "OK",
      "vis_m": 900,
      "fzfg": false,
      "metar_trigger": false,
      "taf_trigger": false,
      "metar": "METAR EYVI 021650Z 18011KT 0900 R19/1600VP2000N +SN OVC004 M00/M01 Q0986 TEMPO 0600 +SN OVC002",
      "taf": "TAF EYVI 021100Z 0212/0312 21012KT 8000 OVC010"
    },
    {
      "icao": "GCFV",
      "alert": "OK",
      "vis_m": 9999,
      "fzfg": false,
      "metar_trigger": false,
      "taf_trigger": false,
      "metar": "METAR GCFV 021630Z 22022G34KT 9999 SCT030 BKN035 23/14 Q1004",
      "taf": "TAF GCFV 021400Z 0215/0315 23025KT 9999 SCT025 TX22/0314Z TN18/0306Z"
    },
    {
      "icao": "GCLP",
      "alert": "OK",
      "vis_m": 9999,
      "fzfg": false,
      "metar_trigger": false,
      "taf_trigger": false,
      "metar": "METAR GCLP 021630Z 21022KT 9999 FEW035 BKN045 21/17 Q1004 NOSIG",
      "taf": "TAF GCLP 021400Z 0215/0315 22024KT 9999 SCT030 TX23/0314Z TN17/0306Z"
    },
    {
      "icao": "GCTS",
      "alert": "OK",
      "vis_m": 9999,
      "fzfg": false,
      "metar_trigger": false,
      "taf_trigger": false,
      "metar": "METAR GCTS 021630Z 30021G31KT 9999 FEW030 22/12 Q1005 NOSIG",
      "taf": "TAF GCTS 021400Z 0215/0315 28025KT 9999 SCT025 TX22/0314Z TN18/0306Z"
    },
    {
      "icao": "GMAD",
      "alert": "OK",
      "vis_m": 9999,
      "fzfg": false,
      "metar_trigger": false,
      "taf_trigger": false,
      "metar": "METAR GMAD 021630Z 18011KT CAVOK 24/03 Q1006 NOSIG",
      "taf": "TAF GMAD 021100Z 0212/0318 24016KT 8000 SCT020 BKN080"
    },
    {
      "icao": "GMMN",
      "alert": "OK",
      "vis_m": 9999,
      "fzfg": false,
      "metar_trigger": false,
      "taf_trigger": false,
      "metar": "METAR GMMN 021630Z 17010KT 9999 FEW030 BKN200 19/12 Q1003 NOSIG",
      "taf": "TAF GMMN 021100Z 0212/0318 16012KT CAVOK"
    },
    {
      "icao": "GMMX",
      "alert": "OK",
      "vis_m": 8000,
      "fzfg": false,
      "metar_trigger": false,
      "taf_trigger": false,
      "metar": "METAR GMMX 021630Z 19024G41KT 170V230 8000 SCT020 BKN090 23/02 Q1002 NOSIG",
      "taf": "TAF GMMX 021100Z 0212/0318 22018G32KT 6000 SCT026 SCT100"
    },
    {
      "icao": "HEGN",
      "alert": "OK",
      "vis_m": 9999,
      "fzfg": false,
      "metar_trigger": false,
      "taf_trigger": false,
      "metar": "METAR HEGN 021600Z 35015KT CAVOK 19/07 Q1020 NOSIG",
      "taf": "TAF HEGN 021100Z 0212/0318 34018KT CAVOK"
    },
    {
      "icao": "HEMA",
      "alert": "OK",
      "vis_m": 8000,
      "fzfg": false,
      "metar_trigger": false,
      "taf_trigger": false,
      "metar": "METAR HEMA 021600Z 34012KT 8000 FEW025 21/13 Q1019 NOSIG",
      "taf": "TAF HEMA 021100Z 0212/0318 01015KT CAVOK"
    },
    {
      "icao": "HESH",
      "alert": "OK",
      "vis_m": 9999,
      "fzfg": false,
      "metar_trigger": false,
      "taf_trigger": false,
      "metar": "METAR HESH 021600Z 35008KT CAVOK 20/10 Q1019 NOSIG",
      "taf": "TAF HESH 021100Z 0212/0318 34010KT CAVOK"
    },
    {
      "icao": "HESX",
      "alert": "OK",
      "vis_m": 9999,
      "fzfg": false,
      "metar_trigger": false,
      "taf_trigger": false,
      "metar": "METAR HESX 021600Z 02009KT CAVOK 14/05 Q1023 NOSIG",
      "taf": "TAF HESX 021100Z 0212/0318 36010KT 9999 SCT025"
    },
    {
      "icao": "LATI",
      "alert": "OK",
      "vis_m": 9999,
      "fzfg": false,
      "metar_trigger": false,
      "taf_trigger": false,
      "metar": "METAR LATI 021650Z 14010KT 9999 -RA BKN040 OVC051 10/05 Q1012 NOSIG",
      "taf": "TAF LATI 021100Z 0212/0312 16013KT 9999 BKN030 OVC060 TX15/0312Z TN09/0300Z"
    },
    {
      "icao": "LBPD",
      "alert": "OK",
      "vis_m": 9999,
      "fzfg": false,
      "metar_trigger": false,
      "taf_trigger": false,
      "metar": "METAR LBPD 021630Z AUTO VRB01KT 9999 NCD M01/M06 Q1013 NOSIG",
      "taf": "TAF LBPD 021100Z 0212/0312 VRB03KT 9999 SCT070"
    },
    {
      "icao": "LBSF",
      "alert": "OK",
      "vis_m": 9999,
      "fzfg": false,
      "metar_trigger": false,
      "taf_trigger": false,
      "metar": "METAR LBSF 021630Z AUTO 32005KT 270V050 9999 FEW067/// 03/M06 Q1009 NOSIG",
      "taf": "TAF LBSF 021100Z 0212/0312 06010KT 9999 SCT050"
    },
    {
      "icao": "LBWN",
      "alert": "OK",
      "vis_m": 9999,
      "fzfg": false,
      "metar_trigger": false,
      "taf_trigger": false,
      "metar": "METAR LBWN 021630Z AUTO VRB02KT 9999 NCD 04/M04 Q1011 NOSIG",
      "taf": "TAF LBWN 021100Z 0212/0312 29010KT CAVOK"
    },
    {
      "icao": "LCLK",
      "alert": "OK",
      "vis_m": 9999,
      "fzfg": false,
      "metar_trigger": false,
      "taf_trigger": false,
      "metar": "METAR LCLK 021630Z 30004KT 270V360 9999 FEW035 BKN055 11/06 Q1023 NOSIG",
      "taf": "TAF LCLK 021130Z 0212/0312 04010KT 9999 FEW040"
    },
    {
      "icao": "LCPH",
      "alert": "OK",
      "vis_m": 9999,
      "fzfg": false,
      "metar_trigger": false,
      "taf_trigger": false,
      "metar": "METAR LCPH 021630Z AUTO 02006KT 9999 BKN049 10/03 Q1023 NOSIG",
      "taf": "TAF LCPH 021130Z 0212/0312 29010KT 9999 SCT045"
    },
    {
      "icao": "LEAL",
      "alert": "OK",
      "vis_m": 9999,
      "fzfg": false,
      "metar_trigger": false,
      "taf_trigger": false,
      "metar": "METAR LEAL 021630Z 22003KT CAVOK 14/11 Q1009 NOSIG",
      "taf": "TAF LEAL 021100Z 0212/0312 VRB05KT CAVOK TX15/0214Z TN08/0306Z"
    },
    {
      "icao": "LEBB",
      "alert": "OK",
      "vis_m": 9999,
      "fzfg": false,
      "metar_trigger": false,
      "taf_trigger": false,
      "metar": "METAR LEBB 021630Z 00000KT CAVOK 11/09 Q1008 NOSIG",
      "taf": ""
    },
    {
      "icao": "LEBL",
      "alert": "OK",
      "vis_m": 9999,
      "fzfg": false,
      "metar_trigger": false,
      "taf_trigger": false,
      "metar": "METAR LEBL 021630Z 34003KT 270V020 9999 FEW025 11/05 Q1008 NOSIG",
      "taf": "TAF LEBL 021100Z 0212/0312 34009KT 9999 FEW015 TX13/0212Z TN05/0306Z"
    },
    {
      "icao": "LECH",
      "alert": "OK",
      "vis_m": 8000,
      "fzfg": false,
      "metar_trigger": false,
      "taf_trigger": false,
      "metar": "METAR LECH 021630Z AUTO 09003KT 8000 NCD 10/09 Q1009",
      "taf": ""
    },
    {
      "icao": "LEMD",
      "alert": "OK",
      "vis_m": 9999,
      "fzfg": false,
      "metar_trigger": false,
      "taf_trigger": false,
      "metar": "METAR LEMD 021630Z 34003KT 9999 -RA FEW050 SCT060 BKN070 08/08 Q1010 NOSIG",
      "taf": "TAF LEMD 021100Z 0212/0318 VRB03KT 9999 FEW020 TX11/0215Z TN04/0307Z"
    },
    {
      "icao": "LEMG",
      "alert": "OK",
      "vis_m": 9999,
      "fzfg": false,
      "metar_trigger": false,
      "taf_trigger": false,
      "metar": "METAR LEMG 021630Z 10003KT CAVOK 15/10 Q1008 NOSIG",
      "taf": ""
    },
    {
      "icao": "LEVC",
      "alert": "OK",
      "vis_m": 9999,
      "fzfg": false,
      "metar_trigger": false,
      "taf_trigger": false,
      "metar": "METAR LEVC 021630Z 08003KT 030V100 CAVOK 13/10 Q1008 NOSIG",
      "taf": "TAF LEVC 021100Z 0212/0312 VRB05KT CAVOK TX15/0214Z TN07/0306Z"
    },
    {
      "icao": "LEXJ",
      "alert": "OK",
      "vis_m": 7000,
      "fzfg": false,
      "metar_trigger": false,
      "taf_trigger": false,
      "metar": "METAR LEXJ 021630Z 07006KT 030V120 7000 BKN077 11/08 Q1008",
      "taf": "TAF LEXJ 021400Z 0215/0315 10009KT 9999 SCT070 TX10/0313Z TN06/0308Z"
    },
    {
      "icao": "LEZG",
      "alert": "OK",
      "vis_m": 8000,
      "fzfg": false,
      "metar_trigger": false,
      "taf_trigger": false,
      "metar": "METAR LEZG 021630Z 00000KT 8000 NSC 06/04 Q1010 NOSIG",
      "taf": "TAF LEZG 021100Z 0212/0312 VRB04KT CAVOK TX08/0215Z TN02/0306Z"
    },
    {
      "icao": "LEZL",
      "alert": "OK",
      "vis_m": 9999,
      "fzfg": false,
      "metar_trigger": false,
      "taf_trigger": false,
      "metar": "METAR LEZL 021630Z 02004KT 350V050 CAVOK 16/12 Q1005 NOSIG",
      "taf": "TAF LEZL 021400Z 0215/0315 08008KT CAVOK TX19/0215Z TN12/0307Z"
    },
    {
      "icao": "LFBD",
      "alert": "OK",
      "vis_m": 5000,
      "fzfg": false,
      "metar_trigger": false,
      "taf_trigger": false,
      "metar": "METAR LFBD 021630Z AUTO 15005KT 5000 BR NSC M01/M02 Q1011 NOSIG",
      "taf": "TAF LFBD 021100Z 0212/0318 07005KT 8000 BKN005 TX04/0314Z TNM02/0306Z"
    },
    {
      "icao": "LFLL",
      "alert": "OK",
      "vis_m": 9999,
      "fzfg": false,
      "metar_trigger": false,
      "taf_trigger": false,
      "metar": "METAR LFLL 021630Z 10004KT 9999 FEW049 03/M03 Q1008 NOSIG",
      "taf": "TAF LFLL 021100Z 0212/0318 VRB03KT CAVOK"
    },
    {
      "icao": "LFLS",
      "alert": "OK",
      "vis_m": 9999,
      "fzfg": false,
      "metar_trigger": false,
      "taf_trigger": false,
      "metar": "METAR LFLS 021630Z AUTO 00000KT CAVOK 01/M03 Q1008 NOSIG",
      "taf": "TAF LFLS 021400Z 0215/0315 VRB03KT CAVOK"
    },
    {
      "icao": "LFMN",
      "alert": "OK",
      "vis_m": 9999,
      "fzfg": false,
      "metar_trigger": false,
      "taf_trigger": false,
      "metar": "METAR LFMN 021630Z 25021KT CAVOK 12/01 Q1000 NOSIG",
      "taf": "TAF LFMN 021400Z 0215/0321 24020G30KT CAVOK"
    },
    {
      "icao": "LFOB",
      "alert": "OK",
      "vis_m": 9999,
      "fzfg": false,
      "metar_trigger": false,
      "taf_trigger": false,
      "metar": "METAR LFOB 021630Z AUTO 28007KT CAVOK 01/M02 Q1007 NOSIG",
      "taf": ""
    },
    {
      "icao": "LFPO",
      "alert": "OK",
      "vis_m": 9999,
      "fzfg": false,
      "metar_trigger": false,
      "taf_trigger": false,
      "metar": "METAR LFPO 021630Z AUTO 29005KT 9999 FEW007 OVC092 02/01 Q1007 BECMG 23010KT",
      "taf": "TAF LFPO 021100Z 0212/0318 23010KT 9999 BKN012"
    },
    {
      "icao": "LFSB",
      "alert": "OK",
      "vis_m": 9999,
      "fzfg": false,
      "metar_trigger": false,
      "taf_trigger": false,
      "metar": "METAR LFSB 021630Z AUTO 23009KT 190V280 CAVOK 03/M02 Q1005 TEMPO 26015G25KT 2000 SHSN FEW020TCU",
      "taf": ""
    },
    {
      "icao": "LGAV",
      "alert": "OK",
      "vis_m": 9999,
      "fzfg": false,
      "metar_trigger": false,
      "taf_trigger": false,
      "metar": "METAR LGAV 021650Z 21006KT CAVOK 08/02 Q1020 NOSIG",
      "taf": "TAF LGAV 021100Z 0212/0312 23010KT 9999 FEW025"
    },
    {
      "icao": "LGTS",
      "alert": "OK",
      "vis_m": 9999,
      "fzfg": false,
      "metar_trigger": false,
      "taf_trigger": false,
      "metar": "METAR LGTS 021650Z VRB03KT 9999 FEW025 03/M01 Q1016 NOSIG",
      "taf": "TAF LGTS 021100Z 0212/0312 VRB03KT 9999 FEW030"
    },
    {
      "icao": "LHBP",
      "alert": "OK",
      "vis_m": 9999,
      "fzfg": false,
      "metar_trigger": false,
      "taf_trigger": false,
      "metar": "METAR LHBP 021630Z VRB01KT CAVOK 02/01 Q1001 NOSIG",
      "taf": "TAF LHBP 021115Z 0212/0312 19005KT CAVOK"
    },
    {
      "icao": "LHDC",
      "alert": "OK",
      "vis_m": 9999,
      "fzfg": false,
      "metar_trigger": false,
      "taf_trigger": false,
      "metar": "METAR LHDC 021615Z AUTO 19008KT CAVOK 02/M00 Q1002 NOSIG",
      "taf": "TAF LHDC 021415Z 0215/0224 19013KT 9999 SCT040 BKN080"
    },
    {
      "icao": "LIBD",
      "alert": "OK",
      "vis_m": 9999,
      "fzfg": false,
      "metar_trigger": false,
      "taf_trigger": false,
      "metar": "METAR LIBD 021620Z 20008KT CAVOK 14/05 Q1008",
      "taf": "TAF LIBD 021100Z 0212/0312 22015KT 9999 SCT040"
    },
    {
      "icao": "LIBG",
      "alert": "OK",
      "vis_m": 9999,
      "fzfg": false,
      "metar_trigger": false,
      "taf_trigger": false,
      "metar": "METAR LIBG 021550Z 22004KT CAVOK 13/09 Q1010",
      "taf": "TAF LIBG 021400Z 0215/0224 22012KT CAVOK"
    },
    {
      "icao": "LIBP",
      "alert": "OK",
      "vis_m": 9999,
      "fzfg": false,
      "metar_trigger": false,
      "taf_trigger": false,
      "metar": "METAR LIBP 021620Z AUTO 22018G28KT 9999 NCD 15/04 Q1004",
      "taf": "TAF LIBP 021100Z 0212/0312 22012KT 9999 SCT035"
    },
    {
      "icao": "LIBR",
      "alert": "OK",
      "vis_m": 9999,
      "fzfg": false,
      "metar_trigger": false,
      "taf_trigger": false,
      "metar": "METAR LIBR 021620Z 22009KT CAVOK 13/08 Q1011",
      "taf": "TAF LIBR 021100Z 0212/0312 20015KT 9999 SCT040"
    },
    {
      "icao": "LICA",
      "alert": "OK",
      "vis_m": 9999,
      "fzfg": false,
      "metar_trigger": false,
      "taf_trigger": false,
      "metar": "METAR LICA 021620Z AUTO 10004KT 070V130 9999 FEW056/// 11/08 Q1012",
      "taf": "TAF LICA 021100Z 0212/0312 23010KT 9999 SCT040"
    },
    {
      "icao": "LICC",
      "alert": "OK",
      "vis_m": 9999,
      "fzfg": false,
      "metar_trigger": false,
      "taf_trigger": false,
      "metar": "METAR LICC 021620Z 26012KT 9999 FEW060 14/11 Q1015",
      "taf": "TAF LICC 021100Z 0212/0312 25012KT 9999 SCT035"
    },
    {
      "icao": "LICJ",
      "alert": "OK",
      "vis_m": 9999,
      "fzfg": false,
      "metar_trigger": false,
      "taf_trigger": false,
      "metar": "METAR LICJ 021620Z AUTO 20013KT 9999 NCD 14/07 Q1012",
      "taf": "TAF LICJ 021100Z 0212/0312 20025G40KT 9999 FEW030"
    },
    {
      "icao": "LIMC",
      "alert": "OK",
      "vis_m": 9999,
      "fzfg": false,
      "metar_trigger": false,
      "taf_trigger": false,
      "metar": "METAR LIMC 021620Z 20003KT CAVOK 05/02 Q1001 NOSIG",
      "taf": "TAF LIMC 021100Z 0212/0318 VRB04KT 7000 FEW050"
    },
    {
      "icao": "LIME",
      "alert": "OK",
      "vis_m": 5000,
      "fzfg": false,
      "metar_trigger": false,
      "taf_trigger": false,
      "metar": "METAR LIME 021620Z 14003KT 110V170 5000 BR FEW110 04/02 Q1001 NOSIG",
      "taf": "TAF LIME 021100Z 0212/0312 VRB04KT 8000 NSC"
    },
    {
      "icao": "LIMF",
      "alert": "OK",
      "vis_m": 9999,
      "fzfg": false,
      "metar_trigger": false,
      "taf_trigger": false,
      "metar": "METAR LIMF 021620Z VRB02KT CAVOK 05/M03 Q1001",
      "taf": "TAF LIMF 021100Z 0212/0312 VRB04KT CAVOK"
    },
    {
      "icao": "LIMJ",
      "alert": "OK",
      "vis_m": 9999,
      "fzfg": false,
      "metar_trigger": false,
      "taf_trigger": false,
      "metar": "METAR LIMJ 021620Z 12017KT 9999 SCT032 13/06 Q1001",
      "taf": "TAF LIMJ 021100Z 0212/0312 14016KT 9999 SCT030"
    },
    {
      "icao": "LIPE",
      "alert": "OK",
      "vis_m": 4500,
      "fzfg": false,
      "metar_trigger": false,
      "taf_trigger": false,
      "metar": "METAR LIPE 021620Z 03003KT 4500 BR NSC 04/02 Q1002",
      "taf": "TAF LIPE 021100Z 0212/0312 VRB05KT 9999 SCT010 BKN050"
    },
    {
      "icao": "LIPH",
      "alert": "OK",
      "vis_m": 8000,
      "fzfg": false,
      "metar_trigger": false,
      "taf_trigger": false,
      "metar": "METAR LIPH 021620Z 35003KT 8000 SCT050 03/M01 Q1002",
      "taf": "TAF LIPH 021100Z 0212/0312 VRB04KT 9999 BKN035"
    },
    {
      "icao": "LIPQ",
      "alert": "OK",
      "vis_m": 9999,
      "fzfg": false,
      "metar_trigger": false,
      "taf_trigger": false,
      "metar": "METAR LIPQ 021620Z AUTO 35003KT 9999 OVC048/// 05/03 Q1002",
      "taf": "TAF LIPQ 021100Z 0212/0312 VRB05KT 9999 SCT020"
    },
    {
      "icao": "LIPR",
      "alert": "OK",
      "vis_m": 7000,
      "fzfg": false,
      "metar_trigger": false,
      "taf_trigger": false,
      "metar": "METAR LIPR 021620Z AUTO 23003KT 190V270 7000 BKN064/// 05/04 Q1002",
      "taf": "TAF LIPR 021100Z 0212/0312 30007KT 9999 SCT050"
    },
    {
      "icao": "LIPX",
      "alert": "OK",
      "vis_m": 4000,
      "fzfg": false,
      "metar_trigger": false,
      "taf_trigger": false,
      "metar": "METAR LIPX 021620Z VRB01KT 4000 BR BKN007 03/01 Q1002",
      "taf": "TAF LIPX 021100Z 0212/0312 VRB04KT 2000 BR SCT030"
    },
    {
      "icao": "LIPY",
      "alert": "OK",
      "vis_m": 9999,
      "fzfg": false,
      "metar_trigger": false,
      "taf_trigger": false,
      "metar": "METAR LIPY 021620Z AUTO 21004KT 180V240 9999 FEW056/// BKN073/// 13/05 Q1002",
      "taf": "TAF LIPY 021100Z 0212/0312 20015KT 9999 BKN045"
    },
    {
      "icao": "LIPZ",
      "alert": "OK",
      "vis_m": 9999,
      "fzfg": false,
      "metar_trigger": false,
      "taf_trigger": false,
      "metar": "METAR LIPZ 021620Z 36004KT CAVOK 03/M00 Q1002 NOSIG",
      "taf": "TAF LIPZ 021100Z 0212/0318 VRB05KT 9999 BKN030"
    },
    {
      "icao": "LIRF",
      "alert": "OK",
      "vis_m": 9999,
      "fzfg": false,
      "metar_trigger": false,
      "taf_trigger": false,
      "metar": "METAR LIRF 021620Z 22016KT 9999 SCT035 15/08 Q1007 NOSIG",
      "taf": "TAF LIRF 021100Z 0212/0318 23015KT 9999 SCT025"
    },
    {
      "icao": "LIRN",
      "alert": "OK",
      "vis_m": 9999,
      "fzfg": false,
      "metar_trigger": false,
      "taf_trigger": false,
      "metar": "METAR LIRN 021620Z 22006KT 9999 FEW040 13/07 Q1009 NOSIG",
      "taf": "TAF LIRN 021100Z 0212/0312 23012KT 9999 BKN030"
    },
    {
      "icao": "LIRP",
      "alert": "OK",
      "vis_m": 9999,
      "fzfg": false,
      "metar_trigger": false,
      "taf_trigger": false,
      "metar": "METAR LIRP 021615Z 23013KT 9999 BKN050 11/07 Q1004 NOSIG",
      "taf": "TAF LIRP 021100Z 0212/0312 24022G32KT 9999 BKN030"
    },
    {
      "icao": "LIRZ",
      "alert": "OK",
      "vis_m": 9999,
      "fzfg": false,
      "metar_trigger": false,
      "taf_trigger": false,
      "metar": "METAR LIRZ 021620Z AUTO 19010KT 9999 BKN027/// 12/07 Q1005",
      "taf": "TAF LIRZ 021100Z 0212/0312 20013KT 9999 SCT030"
    },
    {
      "icao": "LJLJ",
      "alert": "OK",
      "vis_m": 9999,
      "fzfg": false,
      "metar_trigger": false,
      "taf_trigger": false,
      "metar": "METAR LJLJ 021630Z 05003KT 9999 BKN037 BKN060 03/01 Q1000 NOSIG",
      "taf": "TAF LJLJ 021100Z 0212/0312 30004KT 9999 BKN027 OVC045"
    },
    {
      "icao": "LKMT",
      "alert": "OK",
      "vis_m": 9999,
      "fzfg": false,
      "metar_trigger": false,
      "taf_trigger": false,
      "metar": "METAR LKMT 021630Z 22014KT 9999 -SN NSC 01/M04 Q0996 NOSIG",
      "taf": "TAF LKMT 021100Z 0212/0312 22018KT 9999 SCT035"
    },
    {
      "icao": "LKPR",
      "alert": "OK",
      "vis_m": 9999,
      "fzfg": false,
      "metar_trigger": false,
      "taf_trigger": false,
      "metar": "METAR LKPR 021630Z 23015KT 9999 -SHSN BKN025 BKN035 M00/M04 Q0995 BECMG NSW",
      "taf": "TAF LKPR 021400Z 0215/0321 23018KT 9999 SCT035"
    },
    {
      "icao": "LLBG",
      "alert": "OK",
      "vis_m": 9999,
      "fzfg": false,
      "metar_trigger": false,
      "taf_trigger": false,
      "metar": "METAR LLBG 021650Z 14005KT 9999 SCT042 13/07 Q1023 NOSIG",
      "taf": "TAF LLBG 021106Z 0212/0312 28012KT 9999 SCT040"
    },
    {
      "icao": "LMML",
      "alert": "OK",
      "vis_m": 9999,
      "fzfg": false,
      "metar_trigger": false,
      "taf_trigger": false,
      "metar": "METAR LMML 021645Z 21015KT 9999 FEW034 15/09 Q1017 NOSIG",
      "taf": "TAF LMML 021100Z 0212/0312 22010KT 9999 FEW020"
    },
    {
      "icao": "LOWW",
      "alert": "OK",
      "vis_m": 9999,
      "fzfg": false,
      "metar_trigger": false,
      "taf_trigger": false,
      "metar": "METAR LOWW 021650Z 29009KT 9999 FEW028 02/M02 Q1001 BECMG TL1845 18007KT",
      "taf": "TAF LOWW 021415Z 0215/0321 26015G25KT CAVOK TX04/0215Z TNM01/0320Z"
    },
    {
      "icao": "LPFR",
      "alert": "OK",
      "vis_m": 9999,
      "fzfg": false,
      "metar_trigger": false,
      "taf_trigger": false,
      "metar": "METAR LPFR 021630Z 14017KT 9999 -SHRA FEW020 FEW025TCU SCT045 18/14 Q1002",
      "taf": "TAF LPFR 021100Z 0212/0312 15017KT 9999 SCT012 SCT025"
    },
    {
      "icao": "LPMA",
      "alert": "OK",
      "vis_m": 9999,
      "fzfg": false,
      "metar_trigger": false,
      "taf_trigger": false,
      "metar": "METAR LPMA 021630Z VRB02KT 9999 VCSH BKN014 FEW016CB 19/11 Q0997",
      "taf": ""
    },
    {
      "icao": "LPPR",
      "alert": "OK",
      "vis_m": 9999,
      "fzfg": false,
      "metar_trigger": false,
      "taf_trigger": false,
      "metar": "METAR LPPR 021630Z 11010KT 9999 VCSH FEW020 BKN035 15/10 Q1002",
      "taf": "TAF LPPR 021100Z 0212/0312 12012KT 9999 SCT040"
    },
    {
      "icao": "LPPS",
      "alert": "OK",
      "vis_m": 9999,
      "fzfg": false,
      "metar_trigger": false,
      "taf_trigger": false,
      "metar": "METAR LPPS 021630Z 28018KT 9999 FEW014 FEW018CB 17/13 Q0996",
      "taf": "TAF LPPS 021100Z 0212/0318 27020KT 9999 SCT015 SCT030"
    },
    {
      "icao": "LPPT",
      "alert": "OK",
      "vis_m": 5000,
      "fzfg": false,
      "metar_trigger": false,
      "taf_trigger": false,
      "metar": "METAR LPPT 021630Z 15007KT 120V180 5000 SHRA VCTS FEW008 SCT016 SCT025CB BKN030 15/14 Q0999 RESHRA",
      "taf": ""
    },
    {
      "icao": "LQBK",
      "alert": "OK",
      "vis_m": 9999,
      "fzfg": false,
      "metar_trigger": false,
      "taf_trigger": false,
      "metar": "METAR LQBK 021630Z 20012KT CAVOK 12/03 Q1002 NOSIG",
      "taf": "TAF LQBK 021100Z 0212/0312 22010KT CAVOK TX15/0213Z TNM00/0308Z"
    },
    {
      "icao": "LQSA",
      "alert": "OK",
      "vis_m": 9999,
      "fzfg": false,
      "metar_trigger": false,
      "taf_trigger": false,
      "metar": "METAR LQSA 021630Z VRB03KT 9999 FEW040 BKN050 05/04 Q1004 NOSIG",
      "taf": "TAF LQSA 021100Z 0212/0312 20006KT 9999 FEW030 BKN050 TX10/0312Z TN01/0301Z"
    },
    {
      "icao": "LQTZ",
      "alert": "OK",
      "vis_m": 9999,
      "fzfg": false,
      "metar_trigger": false,
      "taf_trigger": false,
      "metar": "METAR LQTZ 021630Z VRB03KT 9999 FEW060 11/02 Q1002",
      "taf": "TAF LQTZ 021100Z 0212/0312 16005KT 9999 SCT040 TX14/0213Z TN01/0306Z"
    },
    {
      "icao": "LRBC",
      "alert": "OK",
      "vis_m": 9999,
      "fzfg": false,
      "metar_trigger": false,
      "taf_trigger": false,
      "metar": "METAR LRBC 021630Z 16011KT CAVOK 02/M05 Q1002",
      "taf": "TAF LRBC 021400Z 0215/0224 17009KT CAVOK"
    },
    {
      "icao": "LRBS",
      "alert": "OK",
      "vis_m": 9999,
      "fzfg": false,
      "metar_trigger": false,
      "taf_trigger": false,
      "metar": "METAR LRBS 021630Z 31004KT CAVOK 03/M06 Q1008 NOSIG",
      "taf": "TAF LRBS 021100Z 0212/0312 VRB04KT CAVOK"
    },
    {
      "icao": "LRBV",
      "alert": "OK",
      "vis_m": 9999,
      "fzfg": false,
      "metar_trigger": false,
      "taf_trigger": false,
      "metar": "METAR LRBV 021630Z 22016KT 9999 SCT066 03/M01 Q1003",
      "taf": "TAF LRBV 021400Z 0215/0224 22020KT CAVOK"
    },
    {
      "icao": "LRCL",
      "alert": "OK",
      "vis_m": 5000,
      "fzfg": false,
      "metar_trigger": false,
      "taf_trigger": false,
      "metar": "METAR LRCL 021630Z 07003KT 040V100 5000 -RASN BR FEW006 OVC012 01/M00 Q1003",
      "taf": "TAF LRCL 021400Z 0215/0224 VRB04KT 9999 BKN040"
    },
    {
      "icao": "LRCV",
      "alert": "OK",
      "vis_m": 9999,
      "fzfg": false,
      "metar_trigger": false,
      "taf_trigger": false,
      "metar": "METAR LRCV 021630Z 05005KT CAVOK 01/M02 Q1008",
      "taf": "TAF LRCV 021400Z 0215/0224 VRB04KT CAVOK"
    },
    {
      "icao": "LRIA",
      "alert": "OK",
      "vis_m": 9999,
      "fzfg": false,
      "metar_trigger": false,
      "taf_trigger": false,
      "metar": "METAR LRIA 021630Z 13007KT 110V170 CAVOK 03/M04 Q1002",
      "taf": "TAF LRIA 021400Z 0215/0224 17007KT CAVOK"
    },
    {
      "icao": "LROP",
      "alert": "OK",
      "vis_m": 9999,
      "fzfg": false,
      "metar_trigger": false,
      "taf_trigger": false,
      "metar": "METAR LROP 021630Z 30006KT CAVOK 02/M07 Q1008 NOSIG",
      "taf": "TAF LROP 021100Z 0212/0312 VRB04KT CAVOK"
    },
    {
      "icao": "LRSB",
      "alert": "OK",
      "vis_m": 9999,
      "fzfg": false,
      "metar_trigger": false,
      "taf_trigger": false,
      "metar": "METAR LRSB 021630Z VRB02KT 9999 SCT045 BKN065 02/01 Q1002",
      "taf": "TAF LRSB 021100Z 0212/0312 VRB04KT 9999 BKN045"
    },
    {
      "icao": "LRSM",
      "alert": "OK",
      "vis_m": 9999,
      "fzfg": false,
      "metar_trigger": false,
      "taf_trigger": false,
      "metar": "METAR LRSM 021630Z AUTO 18008KT 9999 FEW023/// SCT027/// BKN065/// 02/00 Q1001",
      "taf": "TAF LRSM 021100Z 0212/0221 22012KT 9999 SCT015 BKN030"
    },
    {
      "icao": "LRSV",
      "alert": "OK",
      "vis_m": 9999,
      "fzfg": false,
      "metar_trigger": false,
      "taf_trigger": false,
      "metar": "METAR LRSV 021630Z VRB01KT CAVOK 03/M02 Q1000",
      "taf": "TAF LRSV 021400Z 0215/0224 19008KT 9999 SCT045"
    },
    {
      "icao": "LRTM",
      "alert": "OK",
      "vis_m": 9999,
      "fzfg": false,
      "metar_trigger": false,
      "taf_trigger": false,
      "metar": "METAR LRTM 021630Z 22005KT 9999 SCT036 BKN043 04/01 Q1002",
      "taf": "TAF LRTM 021400Z 0215/0224 20007KT 9999 BKN040"
    },
    {
      "icao": "LRTR",
      "alert": "OK",
      "vis_m": 9999,
      "fzfg": false,
      "metar_trigger": false,
      "taf_trigger": false,
      "metar": "METAR LRTR 021630Z 18012KT 9999 -RA NSC 06/M00 Q1001",
      "taf": "TAF LRTR 021100Z 0212/0312 19014KT 9999 BKN045"
    },
    {
      "icao": "LTAC",
      "alert": "OK",
      "vis_m": 9999,
      "fzfg": false,
      "metar_trigger": false,
      "taf_trigger": false,
      "metar": "METAR LTAC 021650Z 07003KT CAVOK M08/M12 Q1021 NOSIG",
      "taf": "TAF LTAC 021040Z 0212/0312 VRB02KT CAVOK"
    },
    {
      "icao": "LTFM",
      "alert": "OK",
      "vis_m": 9999,
      "fzfg": false,
      "metar_trigger": false,
      "taf_trigger": false,
      "metar": "METAR LTFM 021650Z 21018KT CAVOK 06/M03 Q1016 NOSIG",
      "taf": "TAF LTFM 021040Z 0212/0318 20020G30KT CAVOK"
    },
    {
      "icao": "LUKK",
      "alert": "OK",
      "vis_m": 9999,
      "fzfg": false,
      "metar_trigger": false,
      "taf_trigger": false,
      "metar": "METAR LUKK 021630Z 23016KT CAVOK 04/M07 Q1003 TEMPO 23016G28KT",
      "taf": "TAF LUKK 021118Z 0212/0312 22012KT CAVOK"
    },
    {
      "icao": "LWOH",
      "alert": "OK",
      "vis_m": 9999,
      "fzfg": false,
      "metar_trigger": false,
      "taf_trigger": false,
      "metar": "METAR LWOH 021650Z 16022KT 9999 FEW015 BKN035 07/03 Q1011",
      "taf": "TAF LWOH 021430Z 0215/0315 16010KT 9999 SCT015 BKN035"
    },
    {
      "icao": "LWSK",
      "alert": "OK",
      "vis_m": 9999,
      "fzfg": false,
      "metar_trigger": false,
      "taf_trigger": false,
      "metar": "METAR LWSK 021650Z VRB01KT 9999 SCT050 BKN085 00/M07 Q1012 NOSIG",
      "taf": "TAF LWSK 021430Z 0215/0315 VRB02KT 9999 SCT040 BKN070"
    },
    {
      "icao": "LYBE",
      "alert": "OK",
      "vis_m": 9999,
      "fzfg": false,
      "metar_trigger": false,
      "taf_trigger": false,
      "metar": "METAR LYBE 021630Z 16008KT CAVOK 09/00 Q1002 NOSIG",
      "taf": ""
    },
    {
      "icao": "LYNI",
      "alert": "OK",
      "vis_m": 9999,
      "fzfg": false,
      "metar_trigger": false,
      "taf_trigger": false,
      "metar": "METAR LYNI 021630Z 16003KT 100V220 9999 BKN043 07/M04 Q1009 NOSIG",
      "taf": "TAF LYNI 021100Z 0212/0312 16012KT CAVOK TX10/0213Z TN02/0312Z"
    },
    {
      "icao": "LYPG",
      "alert": "OK",
      "vis_m": 9999,
      "fzfg": false,
      "metar_trigger": false,
      "taf_trigger": false,
      "metar": "METAR LYPG 021630Z 35009KT 330V030 9999 -RA SCT030 BKN040 OVC080 02/02 Q1010 NOSIG",
      "taf": "TAF LYPG 021100Z 0212/0312 36006KT 5000 RA FEW015 BKN030 OVC070 TX09/0312Z TN01/0212Z"
    },
    {
      "icao": "LZIB",
      "alert": "OK",
      "vis_m": 9999,
      "fzfg": false,
      "metar_trigger": false,
      "taf_trigger": false,
      "metar": "METAR LZIB 021630Z 26016G29KT 9999 FEW032 04/M03 Q1001 NOSIG",
      "taf": "TAF LZIB 021115Z 0212/0312 22008KT CAVOK"
    },
    {
      "icao": "LZKZ",
      "alert": "OK",
      "vis_m": 9999,
      "fzfg": false,
      "metar_trigger": false,
      "taf_trigger": false,
      "metar": "METAR LZKZ 021630Z 20012KT CAVOK 00/M01 Q0998 NOSIG",
      "taf": "TAF LZKZ 021115Z 0212/0312 22010KT 9999 SCT020"
    },
    {
      "icao": "LZTT",
      "alert": "OK",
      "vis_m": 6000,
      "fzfg": false,
      "metar_trigger": false,
      "taf_trigger": false,
      "metar": "METAR LZTT 021630Z 24010KT 6000 -SN FEW012 BKN030 M02/M04 Q0995 NOSIG",
      "taf": "TAF LZTT 021115Z 0212/0312 26015KT 9999 BKN033"
    },
    {
      "icao": "OEJN",
      "alert": "OK",
      "vis_m": 9999,
      "fzfg": false,
      "metar_trigger": false,
      "taf_trigger": false,
      "metar": "METAR OEJN 021600Z 32008KT CAVOK 27/16 Q1015 NOSIG",
      "taf": "TAF OEJN 021100Z 0212/0318 32010KT CAVOK"
    },
    {
      "icao": "OEMA",
      "alert": "OK",
      "vis_m": 9999,
      "fzfg": false,
      "metar_trigger": false,
      "taf_trigger": false,
      "metar": "METAR OEMA 021600Z 31003KT CAVOK 24/M05 Q1019 NOSIG",
      "taf": "TAF OEMA 021100Z 0212/0318 07008KT CAVOK"
    },
    {
      "icao": "OJAI",
      "alert": "OK",
      "vis_m": 4000,
      "fzfg": false,
      "metar_trigger": false,
      "taf_trigger": false,
      "metar": "METAR OJAI 021600Z 26008KT 4000 BR FEW040 08/07 Q1022 NOSIG",
      "taf": "TAF OJAI 021040Z 0212/0318 25014KT 3000 BR SCT025 BKN035"
    },
    {
      "icao": "OMAA",
      "alert": "OK",
      "vis_m": 9999,
      "fzfg": false,
      "metar_trigger": false,
      "taf_trigger": false,
      "metar": "METAR OMAA 021600Z 30005KT CAVOK 19/15 Q1019 NOSIG",
      "taf": "TAF OMAA 021100Z 0212/0318 31010KT 9999 FEW040"
    },
    {
      "icao": "OMDB",
      "alert": "OK",
      "vis_m": 9999,
      "fzfg": false,
      "metar_trigger": false,
      "taf_trigger": false,
      "metar": "METAR OMDB 021630Z 31008KT CAVOK 23/14 Q1019 NOSIG",
      "taf": ""
    },
    {
      "icao": "UAAA",
      "alert": "OK",
      "vis_m": 2600,
      "fzfg": false,
      "metar_trigger": false,
      "taf_trigger": false,
      "metar": "METAR UAAA 021630Z VRB01MPS 2600 BR OVC004 M00/M01 Q1020 NOSIG RMK QBB140",
      "taf": "TAF UAAA 021105Z 0212/0312 16003MPS 1200 BR FU BKN011 OVC030 TX03/0309Z TNM03/0302Z"
    },
    {
      "icao": "UBBB",
      "alert": "OK",
      "vis_m": 9999,
      "fzfg": false,
      "metar_trigger": false,
      "taf_trigger": false,
      "metar": "METAR UBBB 021630Z 32010KT 9999 SCT011 SCT028CB BKN028 03/01 Q1029 NOSIG",
      "taf": ""
    },
    {
      "icao": "UDSG",
      "alert": "OK",
      "vis_m": 9999,
      "fzfg": false,
      "metar_trigger": false,
      "taf_trigger": false,
      "metar": "METAR UDSG 021630Z 08001KT 9999 NSC M20/M23 Q1023 NOSIG",
      "taf": "TAF UDSG 021058Z 0212/0312 VRB06KT 9999 FEW040"
    },
    {
      "icao": "UDYZ",
      "alert": "OK",
      "vis_m": 9999,
      "fzfg": false,
      "metar_trigger": false,
      "taf_trigger": false,
      "metar": "METAR UDYZ 021630Z 08004KT 9999 NSC M08/M13 Q1025 NOSIG",
      "taf": "TAF UDYZ 021100Z 0212/0312 VRB06KT 9999 FEW040"
    },
    {
      "icao": "UGKO",
      "alert": "OK",
      "vis_m": 9999,
      "fzfg": false,
      "metar_trigger": false,
      "taf_trigger": false,
      "metar": "METAR UGKO 021630Z 07009KT CAVOK M01/M05 Q1025 NOSIG",
      "taf": "TAF UGKO 021100Z 0212/0312 08017KT CAVOK TX07/0212Z TNM04/0303Z"
    }
  ]
}