{
  "ts_utc": "2026-02-28T07:03:20Z",
  "threshold_m": 150,
  "source": "stations_override.txt (ICAO list) + aviationweather.gov (METAR/TAF raw)",
  "station_count": 159,
  "stations": [
    {
      "icao": "BIKF",
      "alert": "OK",
      "vis_m": 9999,
      "fzfg": false,
      "metar_trigger": false,
      "taf_trigger": false,
      "metar": "METAR BIKF 280630Z 15005KT 9999 FEW035 BKN060 M02/M08 Q1000",
      "taf": "TAF BIKF 280459Z 2806/0106 27012KT 9999 FEW020 BKN040 TX02/2814Z TNM03/0103Z"
    },
    {
      "icao": "BKPR",
      "alert": "OK",
      "vis_m": 7000,
      "fzfg": false,
      "metar_trigger": false,
      "taf_trigger": false,
      "metar": "METAR BKPR 280700Z 08003KT 7000 FEW010 M00/M02 Q1026 NOSIG",
      "taf": "TAF BKPR 280530Z 2806/0106 VRB05KT CAVOK"
    },
    {
      "icao": "EBCI",
      "alert": "OK",
      "vis_m": 9999,
      "fzfg": false,
      "metar_trigger": false,
      "taf_trigger": false,
      "metar": "METAR EBCI 280650Z 21017KT 9999 BKN022 09/05 Q1016 TEMPO 21015G25KT",
      "taf": "TAF EBCI 280515Z 2806/0112 21012KT 9999 SCT016 BKN025"
    },
    {
      "icao": "EDDB",
      "alert": "OK",
      "vis_m": 9999,
      "fzfg": false,
      "metar_trigger": false,
      "taf_trigger": false,
      "metar": "METAR EDDB 280650Z AUTO 19004KT CAVOK 08/05 Q1017 NOSIG",
      "taf": "TAF EDDB 280500Z 2806/0106 17005KT CAVOK"
    },
    {
      "icao": "EDDH",
      "alert": "OK",
      "vis_m": 9999,
      "fzfg": false,
      "metar_trigger": false,
      "taf_trigger": false,
      "metar": "METAR EDDH 280650Z AUTO 19007KT 9999 -SHRA BKN009 OVC014 SCT///TCU 11/11 Q1014 RESHRA TEMPO 4000 RA",
      "taf": "TAF EDDH 280500Z 2806/0112 20006KT 9999 BKN020"
    },
    {
      "icao": "EDDK",
      "alert": "OK",
      "vis_m": 9999,
      "fzfg": false,
      "metar_trigger": false,
      "taf_trigger": false,
      "metar": "METAR EDDK 280650Z AUTO 21012KT 170V230 CAVOK 12/05 Q1017 NOSIG",
      "taf": "TAF EDDK 280500Z 2806/0112 17007KT 9999 FEW045"
    },
    {
      "icao": "EDDN",
      "alert": "OK",
      "vis_m": 9999,
      "fzfg": false,
      "metar_trigger": false,
      "taf_trigger": false,
      "metar": "METAR EDDN 280650Z AUTO 12006KT CAVOK 04/03 Q1020 NOSIG",
      "taf": "TAF EDDN 280500Z 2806/0106 13006KT CAVOK"
    },
    {
      "icao": "EDDS",
      "alert": "OK",
      "vis_m": 9999,
      "fzfg": false,
      "metar_trigger": false,
      "taf_trigger": false,
      "metar": "METAR EDDS 280650Z AUTO VRB02KT CAVOK 05/02 Q1020 NOSIG",
      "taf": "TAF EDDS 280500Z 2806/0106 VRB03KT CAVOK"
    },
    {
      "icao": "EDFH",
      "alert": "OK",
      "vis_m": 9999,
      "fzfg": false,
      "metar_trigger": false,
      "taf_trigger": false,
      "metar": "METAR EDFH 280650Z 22011KT 190V250 9999 FEW018 08/05 Q1018",
      "taf": "TAF EDFH 280500Z 2806/0106 22009KT 9999 SCT015"
    },
    {
      "icao": "EDJA",
      "alert": "OK",
      "vis_m": 9999,
      "fzfg": false,
      "metar_trigger": false,
      "taf_trigger": false,
      "metar": "METAR EDJA 280650Z 21004KT CAVOK 04/00 Q1021",
      "taf": "TAF EDJA 280500Z 2806/2815 20005KT CAVOK"
    },
    {
      "icao": "EDLW",
      "alert": "OK",
      "vis_m": 9999,
      "fzfg": false,
      "metar_trigger": false,
      "taf_trigger": false,
      "metar": "METAR EDLW 280650Z 22009KT 9999 FEW038 11/06 Q1016",
      "taf": "TAF EDLW 280500Z 2806/0106 19010KT 9999 BKN035"
    },
    {
      "icao": "EDNY",
      "alert": "OK",
      "vis_m": 9999,
      "fzfg": false,
      "metar_trigger": false,
      "taf_trigger": false,
      "metar": "METAR EDNY 280650Z 06003KT 020V080 CAVOK M00/M00 Q1022",
      "taf": "TAF EDNY 280500Z 2806/2815 06002KT CAVOK"
    },
    {
      "icao": "EDSB",
      "alert": "OK",
      "vis_m": 9999,
      "fzfg": false,
      "metar_trigger": false,
      "taf_trigger": false,
      "metar": "METAR EDSB 280650Z 21008KT CAVOK 09/07 Q1021",
      "taf": "TAF EDSB 280500Z 2806/0106 22005KT 9999 SCT030"
    },
    {
      "icao": "EETN",
      "alert": "OK",
      "vis_m": 5000,
      "fzfg": false,
      "metar_trigger": false,
      "taf_trigger": false,
      "metar": "METAR EETN 280650Z 25005KT 5000 BR BKN002 OVC004 02/02 Q1013 TEMPO 3000",
      "taf": "TAF EETN 280530Z 2806/0106 21010KT 4000 BR OVC002"
    },
    {
      "icao": "EFTU",
      "alert": "OK",
      "vis_m": 9999,
      "fzfg": false,
      "metar_trigger": false,
      "taf_trigger": false,
      "metar": "METAR EFTU 280650Z AUTO 25007KT 9999 OVC004 02/02 Q1012",
      "taf": "TAF EFTU 280536Z 2806/0106 25006KT 9000 OVC004"
    },
    {
      "icao": "EGBB",
      "alert": "OK",
      "vis_m": 9999,
      "fzfg": false,
      "metar_trigger": false,
      "taf_trigger": false,
      "metar": "METAR EGBB 280650Z 30011KT 9999 DZ BKN024 06/05 Q1012",
      "taf": ""
    },
    {
      "icao": "EGGP",
      "alert": "OK",
      "vis_m": 9999,
      "fzfg": false,
      "metar_trigger": false,
      "taf_trigger": false,
      "metar": "METAR EGGP 280650Z 28010KT 9999 BKN041 06/04 Q1014",
      "taf": "TAF EGGP 280457Z 2806/0106 29003KT 9999 FEW020"
    },
    {
      "icao": "EGGW",
      "alert": "OK",
      "vis_m": 2900,
      "fzfg": false,
      "metar_trigger": false,
      "taf_trigger": false,
      "metar": "METAR EGGW 280650Z AUTO 32018KT 2900 -RADZ OVC004 06/06 Q1009 REDZ",
      "taf": "TAF EGGW 280502Z 2806/0106 33009KT 9999 BKN006"
    },
    {
      "icao": "EGKK",
      "alert": "OK",
      "vis_m": 9999,
      "fzfg": false,
      "metar_trigger": false,
      "taf_trigger": false,
      "metar": "METAR EGKK 280650Z 29016KT 9999 SCT009 BKN015 08/07 Q1010",
      "taf": "TAF EGKK 280459Z 2806/0112 29012KT 9999 SCT007 BKN020"
    },
    {
      "icao": "EGNM",
      "alert": "OK",
      "vis_m": 7000,
      "fzfg": false,
      "metar_trigger": false,
      "taf_trigger": false,
      "metar": "METAR EGNM 280650Z 01010KT 7000 -RADZ SCT008 BKN012 05/04 Q1012",
      "taf": "TAF EGNM 280526Z 2806/0106 02012KT 9999 FEW008 SCT012"
    },
    {
      "icao": "EGPD",
      "alert": "OK",
      "vis_m": 9999,
      "fzfg": false,
      "metar_trigger": false,
      "taf_trigger": false,
      "metar": "METAR EGPD 280650Z COR AUTO VRB02KT 9999 NCD M03/M04 Q1015 NOSIG",
      "taf": "TAF EGPD 280458Z 2806/0106 VRB03KT 9999 FEW040"
    },
    {
      "icao": "EGPF",
      "alert": "OK",
      "vis_m": 9999,
      "fzfg": false,
      "metar_trigger": false,
      "taf_trigger": false,
      "metar": "METAR EGPF 280650Z AUTO 04004KT 9999 OVC026 04/02 Q1016",
      "taf": "TAF EGPF 280456Z 2806/0106 30005KT 9999 FEW020 SCT035"
    },
    {
      "icao": "EHBK",
      "alert": "OK",
      "vis_m": 9999,
      "fzfg": false,
      "metar_trigger": false,
      "taf_trigger": false,
      "metar": "METAR EHBK 280655Z AUTO 21013KT 9999 BKN032/// OVC038/// 10/06 Q1016 NOSIG",
      "taf": "TAF EHBK 280459Z 2806/0112 21012KT CAVOK"
    },
    {
      "icao": "EHEH",
      "alert": "OK",
      "vis_m": 9999,
      "fzfg": false,
      "metar_trigger": false,
      "taf_trigger": false,
      "metar": "METAR EHEH 280625Z AUTO 19009KT 160V220 9999 SCT037 OVC042 11/07 Q1014 BLU BECMG 22010G25KT RMK TREND REMOTE BY EHWX",
      "taf": "TAF EHEH 280535Z 2806/0112 20011KT 9999 SCT045"
    },
    {
      "icao": "EKBI",
      "alert": "OK",
      "vis_m": 400,
      "fzfg": false,
      "metar_trigger": false,
      "taf_trigger": false,
      "metar": "METAR EKBI 280650Z AUTO 15004KT 100V180 0400 R09/1000N R27/0900D FG VV003 08/08 Q1011",
      "taf": "TAF EKBI 280527Z 2806/0106 20005KT 1500 -RADZ BR BKN003"
    },
    {
      "icao": "EKCH",
      "alert": "OK",
      "vis_m": 1800,
      "fzfg": false,
      "metar_trigger": false,
      "taf_trigger": false,
      "metar": "METAR EKCH 280650Z 18005KT 1800 BR -RA OVC018 05/05 Q1014 NOSIG",
      "taf": "TAF EKCH 280532Z 2806/0106 14003KT 2000 BR BKN020"
    },
    {
      "icao": "ENAL",
      "alert": "OK",
      "vis_m": 9999,
      "fzfg": false,
      "metar_trigger": false,
      "taf_trigger": false,
      "metar": "METAR ENAL 280650Z 20010KT 9999 FEW020TCU FEW058 03/01 Q1012",
      "taf": "TAF ENAL 280500Z 2806/2815 21018KT 9999 SCT030"
    },
    {
      "icao": "ENBR",
      "alert": "OK",
      "vis_m": 9999,
      "fzfg": false,
      "metar_trigger": false,
      "taf_trigger": false,
      "metar": "METAR ENBR 280650Z 00000KT CAVOK M01/M01 Q1014 NOSIG RMK WIND 1200FT 36004KT",
      "taf": "TAF ENBR 280500Z 2806/0106 VRB03KT 9999 FEW025"
    },
    {
      "icao": "ENGM",
      "alert": "OK",
      "vis_m": 350,
      "fzfg": true,
      "metar_trigger": false,
      "taf_trigger": false,
      "metar": "METAR ENGM 280650Z VRB02KT 0350 0300SE R19R/0650U R01R/0400N R19L/0375N R01L/0400D FZFG VV002 M03/M03 Q1013 NOSIG",
      "taf": "TAF ENGM 280500Z 2806/0106 VRB03KT 0300 FZFG VV002"
    },
    {
      "icao": "ENHD",
      "alert": "OK",
      "vis_m": 8000,
      "fzfg": false,
      "metar_trigger": false,
      "taf_trigger": false,
      "metar": "METAR ENHD 280650Z AUTO 10004KT 8000 NCD M01/M02 Q1014",
      "taf": ""
    },
    {
      "icao": "ENTC",
      "alert": "OK",
      "vis_m": 9999,
      "fzfg": false,
      "metar_trigger": false,
      "taf_trigger": false,
      "metar": "METAR ENTC 280650Z 18017KT 9999 BKN043 02/M02 Q0999 NOSIG RMK WIND 2600FT 19027KT",
      "taf": "TAF ENTC 280500Z 2806/0106 18014KT 9999 SCT025 BKN035"
    },
    {
      "icao": "ENTO",
      "alert": "WARNING",
      "vis_m": 150,
      "fzfg": true,
      "metar_trigger": false,
      "taf_trigger": true,
      "metar": "METAR ENTO 280650Z 03004KT 0150 R18/0450N R36/0500N FZFG VV001 M02/M02 Q1013 TEMPO 0200",
      "taf": "TAF ENTO 280500Z 2806/0106 02005KT 0100 FZFG VV001"
    },
    {
      "icao": "ENVA",
      "alert": "OK",
      "vis_m": 9999,
      "fzfg": false,
      "metar_trigger": false,
      "taf_trigger": false,
      "metar": "METAR ENVA 280620Z 07004KT 040V100 CAVOK M03/M03 Q1010 NOSIG RMK WIND 670FT 18011KT",
      "taf": "TAF ENVA 280500Z 2806/0106 24008KT 9999 SCT040"
    },
    {
      "icao": "ENZV",
      "alert": "OK",
      "vis_m": 100,
      "fzfg": false,
      "metar_trigger": false,
      "taf_trigger": false,
      "metar": "METAR ENZV 280650Z 03004KT 0100 R18/0600N R36/0700N R10/0400N FG VV001 01/01 Q1013 BECMG 1200 BCFG BKN003",
      "taf": "TAF ENZV 280500Z 2806/0106 VRB03KT 0400 FG VV002"
    },
    {
      "icao": "EPGD",
      "alert": "OK",
      "vis_m": 9999,
      "fzfg": false,
      "metar_trigger": false,
      "taf_trigger": false,
      "metar": "METAR EPGD 280630Z 24005KT CAVOK 04/04 Q1017",
      "taf": "TAF EPGD 280530Z 2806/0106 22006KT CAVOK"
    },
    {
      "icao": "EPKK",
      "alert": "OK",
      "vis_m": 2500,
      "fzfg": false,
      "metar_trigger": false,
      "taf_trigger": false,
      "metar": "METAR EPKK 280630Z VRB01KT 2500 0300S BCFG BR NSC M01/M02 Q1023",
      "taf": "TAF EPKK 280530Z 2806/0106 VRB02KT 2000 BR NSC"
    },
    {
      "icao": "EPKT",
      "alert": "OK",
      "vis_m": 9000,
      "fzfg": false,
      "metar_trigger": false,
      "taf_trigger": false,
      "metar": "METAR EPKT 280630Z VRB02KT 9000 NSC 02/01 Q1023",
      "taf": "TAF EPKT 280530Z 2806/0106 18004KT CAVOK"
    },
    {
      "icao": "EPLB",
      "alert": "OK",
      "vis_m": 9999,
      "fzfg": false,
      "metar_trigger": false,
      "taf_trigger": false,
      "metar": "METAR EPLB 280630Z 21006KT CAVOK 03/M00 Q1024",
      "taf": "TAF EPLB 280530Z 2806/0106 20010KT CAVOK"
    },
    {
      "icao": "EPMO",
      "alert": "OK",
      "vis_m": 8000,
      "fzfg": false,
      "metar_trigger": false,
      "taf_trigger": false,
      "metar": "METAR EPMO 280630Z 17006KT 8000 NSC 03/02 Q1021",
      "taf": "TAF EPMO 280530Z 2806/0106 15004KT CAVOK"
    },
    {
      "icao": "EPPO",
      "alert": "OK",
      "vis_m": 8000,
      "fzfg": false,
      "metar_trigger": false,
      "taf_trigger": false,
      "metar": "METAR EPPO 280630Z 15003KT 8000 MIFG NSC 04/03 Q1019",
      "taf": "TAF EPPO 280530Z 2806/0106 16003KT 5000 BR NSC"
    },
    {
      "icao": "EPRA",
      "alert": "OK",
      "vis_m": 9999,
      "fzfg": false,
      "metar_trigger": false,
      "taf_trigger": false,
      "metar": "METAR EPRA 280630Z 18006KT CAVOK 02/M01 Q1023",
      "taf": "TAF EPRA 280530Z 2806/2815 17010KT CAVOK"
    },
    {
      "icao": "EPRZ",
      "alert": "OK",
      "vis_m": 9999,
      "fzfg": false,
      "metar_trigger": false,
      "taf_trigger": false,
      "metar": "METAR EPRZ 280630Z VRB02KT CAVOK 01/M02 Q1024",
      "taf": "TAF EPRZ 280530Z 2806/0106 VRB02KT CAVOK"
    },
    {
      "icao": "EPSC",
      "alert": "OK",
      "vis_m": 9999,
      "fzfg": false,
      "metar_trigger": false,
      "taf_trigger": false,
      "metar": "METAR EPSC 280630Z 13008KT CAVOK 05/04 Q1016",
      "taf": "TAF EPSC 280530Z 2806/0106 16007KT CAVOK"
    },
    {
      "icao": "EPSY",
      "alert": "OK",
      "vis_m": 7000,
      "fzfg": false,
      "metar_trigger": false,
      "taf_trigger": false,
      "metar": "METAR EPSY 280630Z COR 19004KT 7000 MIFG NSC 01/01 Q1020",
      "taf": ""
    },
    {
      "icao": "EPWA",
      "alert": "OK",
      "vis_m": 9999,
      "fzfg": false,
      "metar_trigger": false,
      "taf_trigger": false,
      "metar": "METAR EPWA 280630Z 14005KT CAVOK 02/01 Q1022 NOSIG",
      "taf": "TAF EPWA 280530Z 2806/0106 18008KT CAVOK"
    },
    {
      "icao": "EPWR",
      "alert": "OK",
      "vis_m": 9999,
      "fzfg": false,
      "metar_trigger": false,
      "taf_trigger": false,
      "metar": "METAR EPWR 280630Z 11004KT 9999 MIFG NSC 03/02 Q1020",
      "taf": "TAF EPWR 280530Z 2806/0106 12005KT CAVOK"
    },
    {
      "icao": "ESGG",
      "alert": "OK",
      "vis_m": 150,
      "fzfg": false,
      "metar_trigger": false,
      "taf_trigger": false,
      "metar": "METAR ESGG 280650Z 11004KT 090V150 0150 R03/0650N R21/0500N FG VV002 04/04 Q1012",
      "taf": "TAF ESGG 280530Z 2806/0106 15004KT 0100 FG VV002"
    },
    {
      "icao": "ESKN",
      "alert": "OK",
      "vis_m": 9999,
      "fzfg": false,
      "metar_trigger": false,
      "taf_trigger": false,
      "metar": "METAR ESKN 280650Z 27005KT 9999 BKN007 05/04 Q1013",
      "taf": "TAF ESKN 280530Z 2806/0106 25007KT 9999 SCT008 BKN015"
    },
    {
      "icao": "ESMS",
      "alert": "OK",
      "vis_m": 3500,
      "fzfg": false,
      "metar_trigger": false,
      "taf_trigger": false,
      "metar": "METAR ESMS 280650Z 15005KT 3500 -DZ BR FEW023 BKN034 07/07 Q1013",
      "taf": ""
    },
    {
      "icao": "ESSA",
      "alert": "OK",
      "vis_m": 9999,
      "fzfg": false,
      "metar_trigger": false,
      "taf_trigger": false,
      "metar": "METAR ESSA 280650Z 26006KT 9999 OVC003 02/01 Q1013 TEMPO BKN008",
      "taf": "TAF ESSA 280530Z 2806/0106 25009KT 9999 BKN010"
    },
    {
      "icao": "EYKA",
      "alert": "OK",
      "vis_m": 9999,
      "fzfg": false,
      "metar_trigger": false,
      "taf_trigger": false,
      "metar": "METAR EYKA 280650Z 16004KT 130V200 CAVOK 02/00 Q1020",
      "taf": "TAF EYKA 280502Z 2806/0106 VRB04KT 8000 NSC"
    },
    {
      "icao": "EYPA",
      "alert": "OK",
      "vis_m": 2300,
      "fzfg": false,
      "metar_trigger": false,
      "taf_trigger": false,
      "metar": "METAR EYPA 280650Z 15003KT 100V170 2300 BR NSC 03/02 Q1017",
      "taf": "TAF EYPA 280506Z 2806/0106 VRB04KT 5000 BR SCT005 SCT025"
    },
    {
      "icao": "EYVI",
      "alert": "OK",
      "vis_m": 9999,
      "fzfg": false,
      "metar_trigger": false,
      "taf_trigger": false,
      "metar": "METAR EYVI 280650Z 18009KT CAVOK 00/M01 Q1020 NOSIG",
      "taf": "TAF EYVI 280500Z 2806/0106 VRB04KT 8000 NSC"
    },
    {
      "icao": "GCFV",
      "alert": "OK",
      "vis_m": 9999,
      "fzfg": false,
      "metar_trigger": false,
      "taf_trigger": false,
      "metar": "METAR GCFV 280630Z 33018KT CAVOK 17/12 Q1018",
      "taf": "TAF GCFV 280200Z 2803/0103 01018KT 9999 SCT020 TX22/2814Z TN15/2806Z"
    },
    {
      "icao": "GCLP",
      "alert": "OK",
      "vis_m": 9999,
      "fzfg": false,
      "metar_trigger": false,
      "taf_trigger": false,
      "metar": "METAR GCLP 280630Z 36026G36KT 9999 FEW020 17/12 Q1019 NOSIG",
      "taf": "TAF GCLP 280200Z 2803/0103 36027KT 9999 SCT020 TX21/2814Z TN16/2806Z"
    },
    {
      "icao": "GCTS",
      "alert": "OK",
      "vis_m": 9999,
      "fzfg": false,
      "metar_trigger": false,
      "taf_trigger": false,
      "metar": "METAR GCTS 280630Z 01005KT 320V070 CAVOK 18/07 Q1020 WS R07 NOSIG",
      "taf": "TAF GCTS 280200Z 2803/0103 07015KT CAVOK TX24/2814Z TN16/2806Z"
    },
    {
      "icao": "GMAD",
      "alert": "OK",
      "vis_m": 6000,
      "fzfg": false,
      "metar_trigger": false,
      "taf_trigger": false,
      "metar": "METAR GMAD 280630Z 16003KT 6000 NSC 10/08 Q1014 NOSIG",
      "taf": "TAF GMAD 280500Z 2806/0112 03004KT 6000 NSC"
    },
    {
      "icao": "GMMN",
      "alert": "OK",
      "vis_m": 300,
      "fzfg": false,
      "metar_trigger": false,
      "taf_trigger": false,
      "metar": "METAR GMMN 280630Z 10003KT 0300 R35L/0400N FG BKN001 SCT016 11/10 Q1021 NOSIG",
      "taf": "TAF GMMN 280500Z 2806/0112 14003KT 0300 FG BKN001 SCT016"
    },
    {
      "icao": "GMMX",
      "alert": "OK",
      "vis_m": 6000,
      "fzfg": false,
      "metar_trigger": false,
      "taf_trigger": false,
      "metar": "METAR GMMX 280630Z 07004KT 030V090 6000 BKN006 12/10 Q1020 NOSIG",
      "taf": "TAF GMMX 280500Z 2806/0112 02006KT 8000 BKN013"
    },
    {
      "icao": "HEGN",
      "alert": "OK",
      "vis_m": 9999,
      "fzfg": false,
      "metar_trigger": false,
      "taf_trigger": false,
      "metar": "METAR HEGN 280600Z 30017KT CAVOK 14/02 Q1016 NOSIG",
      "taf": "TAF HEGN 280500Z 2806/0112 34018G28KT CAVOK"
    },
    {
      "icao": "HEMA",
      "alert": "OK",
      "vis_m": 9999,
      "fzfg": false,
      "metar_trigger": false,
      "taf_trigger": false,
      "metar": "METAR HEMA 280600Z 31018KT CAVOK 17/03 Q1015 NOSIG",
      "taf": "TAF HEMA 280500Z 2806/0112 36018KT CAVOK"
    },
    {
      "icao": "HESH",
      "alert": "OK",
      "vis_m": 9999,
      "fzfg": false,
      "metar_trigger": false,
      "taf_trigger": false,
      "metar": "METAR HESH 280600Z 35017KT CAVOK 16/01 Q1015 NOSIG",
      "taf": "TAF HESH 280500Z 2806/0112 03015KT CAVOK"
    },
    {
      "icao": "HESX",
      "alert": "OK",
      "vis_m": 9999,
      "fzfg": false,
      "metar_trigger": false,
      "taf_trigger": false,
      "metar": "METAR HESX 280600Z 33005KT CAVOK 10/05 Q1018 NOSIG",
      "taf": "TAF HESX 280500Z 2806/0112 VRB04KT CAVOK"
    },
    {
      "icao": "LATI",
      "alert": "OK",
      "vis_m": 9999,
      "fzfg": false,
      "metar_trigger": false,
      "taf_trigger": false,
      "metar": "METAR LATI 280650Z VRB02KT CAVOK 08/05 Q1025 NOSIG",
      "taf": "TAF LATI 280500Z 2806/0106 VRB03KT CAVOK TX18/2812Z TN06/0104Z"
    },
    {
      "icao": "LBPD",
      "alert": "OK",
      "vis_m": 4200,
      "fzfg": false,
      "metar_trigger": false,
      "taf_trigger": false,
      "metar": "METAR LBPD 280630Z AUTO 30006KT 4200 BR SCT002/// OVC004/// M00/M00 Q1030 TEMPO 1200 BR",
      "taf": "TAF LBPD 280500Z 2806/0106 VRB04KT 3000 BR BKN007"
    },
    {
      "icao": "LBSF",
      "alert": "OK",
      "vis_m": 8000,
      "fzfg": false,
      "metar_trigger": false,
      "taf_trigger": false,
      "metar": "METAR LBSF 280630Z 05003KT 030V090 8000 NSC M01/M03 Q1028 TEMPO 5000 BR",
      "taf": "TAF LBSF 280500Z 2806/0106 VRB04KT CAVOK"
    },
    {
      "icao": "LBWN",
      "alert": "OK",
      "vis_m": 9999,
      "fzfg": false,
      "metar_trigger": false,
      "taf_trigger": false,
      "metar": "METAR LBWN 280630Z 05005KT 9999 OVC017 01/M02 Q1030 NOSIG",
      "taf": "TAF LBWN 280500Z 2806/0106 VRB04KT 9999 OVC012"
    },
    {
      "icao": "LCLK",
      "alert": "OK",
      "vis_m": 9999,
      "fzfg": false,
      "metar_trigger": false,
      "taf_trigger": false,
      "metar": "METAR LCLK 280630Z 33005KT 9999 FEW025 13/05 Q1018 NOSIG",
      "taf": "TAF LCLK 280530Z 2806/0106 33009KT 9999 FEW030"
    },
    {
      "icao": "LCPH",
      "alert": "OK",
      "vis_m": 9999,
      "fzfg": false,
      "metar_trigger": false,
      "taf_trigger": false,
      "metar": "METAR LCPH 280630Z 07008KT 010V080 9999 FEW025 12/00 Q1018 NOSIG",
      "taf": "TAF LCPH 280530Z 2806/0106 05009KT 9999 FEW040"
    },
    {
      "icao": "LEAL",
      "alert": "OK",
      "vis_m": 9999,
      "fzfg": false,
      "metar_trigger": false,
      "taf_trigger": false,
      "metar": "METAR LEAL 280630Z 29005KT 270V330 9999 SCT021 12/09 Q1021 NOSIG",
      "taf": "TAF LEAL 280500Z 2806/0106 VRB04KT 9999 FEW020 TX20/2812Z TN07/2806Z"
    },
    {
      "icao": "LEBB",
      "alert": "OK",
      "vis_m": 9999,
      "fzfg": false,
      "metar_trigger": false,
      "taf_trigger": false,
      "metar": "METAR LEBB 280630Z 25003KT 210V290 9999 FEW024 BKN038 10/08 Q1027 TEMPO 3000 RA",
      "taf": "TAF LEBB 280500Z 2806/0106 31009KT 9999 SCT015 BKN030 TX13/2814Z TN04/0106Z"
    },
    {
      "icao": "LEBL",
      "alert": "OK",
      "vis_m": 9999,
      "fzfg": false,
      "metar_trigger": false,
      "taf_trigger": false,
      "metar": "METAR LEBL 280630Z 07010KT 030V100 9999 BKN033 13/09 Q1024 NOSIG",
      "taf": "TAF LEBL 280500Z 2806/0106 06008KT 9999 BKN020 TX16/2813Z TN08/2806Z"
    },
    {
      "icao": "LECH",
      "alert": "OK",
      "vis_m": 4800,
      "fzfg": false,
      "metar_trigger": false,
      "taf_trigger": false,
      "metar": "METAR LECH 280630Z AUTO 02005KT 4800 BR FEW025 08/07 Q1023",
      "taf": ""
    },
    {
      "icao": "LEMD",
      "alert": "OK",
      "vis_m": 9999,
      "fzfg": false,
      "metar_trigger": false,
      "taf_trigger": false,
      "metar": "METAR LEMD 280630Z 34003KT CAVOK 05/04 Q1022 NOSIG",
      "taf": "TAF LEMD 280500Z 2806/0112 02006KT CAVOK TX18/2815Z TN03/0107Z"
    },
    {
      "icao": "LEMG",
      "alert": "OK",
      "vis_m": 9999,
      "fzfg": false,
      "metar_trigger": false,
      "taf_trigger": false,
      "metar": "METAR LEMG 280630Z 27002KT 9999 FEW017 09/09 Q1021 NOSIG",
      "taf": "TAF LEMG 280500Z 2806/0106 29005KT 9999 SCT025 TX19/2814Z TN07/2807Z"
    },
    {
      "icao": "LEVC",
      "alert": "OK",
      "vis_m": 7000,
      "fzfg": false,
      "metar_trigger": false,
      "taf_trigger": false,
      "metar": "METAR LEVC 280630Z 04003KT 7000 SCT027 12/08 Q1023 NOSIG",
      "taf": "TAF LEVC 280500Z 2806/0106 VRB04KT 9999 FEW020 TX18/2812Z TN09/2806Z"
    },
    {
      "icao": "LEXJ",
      "alert": "OK",
      "vis_m": 9999,
      "fzfg": false,
      "metar_trigger": false,
      "taf_trigger": false,
      "metar": "METAR LEXJ 280630Z 24004KT 200V280 9999 FEW027 SCT040 08/04 Q1027",
      "taf": "TAF LEXJ 280200Z 2803/0103 24009KT 9999 SCT020 BKN030 TX13/2815Z TN08/2807Z"
    },
    {
      "icao": "LEZG",
      "alert": "OK",
      "vis_m": 9999,
      "fzfg": false,
      "metar_trigger": false,
      "taf_trigger": false,
      "metar": "METAR LEZG 280630Z 28008KT CAVOK 09/05 Q1024 NOSIG",
      "taf": "TAF LEZG 280500Z 2806/0106 31014KT CAVOK TX17/2815Z TN06/2806Z"
    },
    {
      "icao": "LEZL",
      "alert": "OK",
      "vis_m": 9999,
      "fzfg": false,
      "metar_trigger": false,
      "taf_trigger": false,
      "metar": "METAR LEZL 280630Z 10003KT CAVOK 09/09 Q1021 NOSIG",
      "taf": "TAF LEZL 280200Z 2803/0103 02005KT CAVOK TX22/2815Z TN10/2807Z"
    },
    {
      "icao": "LFBD",
      "alert": "OK",
      "vis_m": 9999,
      "fzfg": false,
      "metar_trigger": false,
      "taf_trigger": false,
      "metar": "METAR LFBD 280630Z AUTO 22005KT 9999 FEW026 BKN098 OVC250 08/07 Q1025 TEMPO 4000 -SHRA BKN030TCU",
      "taf": "TAF LFBD 280500Z 2806/0112 24005KT 9999 SCT035 TX15/2814Z TN02/0106Z"
    },
    {
      "icao": "LFLL",
      "alert": "OK",
      "vis_m": 9999,
      "fzfg": false,
      "metar_trigger": false,
      "taf_trigger": false,
      "metar": "METAR LFLL 280630Z VRB02KT 9999 BKN046 10/07 Q1023 NOSIG",
      "taf": "TAF LFLL 280500Z 2806/0112 VRB05KT 9999 BKN045"
    },
    {
      "icao": "LFLS",
      "alert": "OK",
      "vis_m": 9999,
      "fzfg": false,
      "metar_trigger": false,
      "taf_trigger": false,
      "metar": "METAR LFLS 280630Z AUTO VRB03KT 9999 SCT021 OVC039 09/06 Q1024 TEMPO BKN012",
      "taf": "TAF LFLS 280200Z 2803/0103 22005KT 9999 BKN032 BKN200"
    },
    {
      "icao": "LFMN",
      "alert": "OK",
      "vis_m": 9999,
      "fzfg": false,
      "metar_trigger": false,
      "taf_trigger": false,
      "metar": "METAR LFMN 280630Z 32007KT 9999 SCT016 BKN033 11/08 Q1024 NOSIG",
      "taf": "TAF LFMN 280200Z 2803/0109 34010KT 9999 BKN035"
    },
    {
      "icao": "LFOB",
      "alert": "OK",
      "vis_m": 9999,
      "fzfg": false,
      "metar_trigger": false,
      "taf_trigger": false,
      "metar": "METAR LFOB 280630Z AUTO 21014KT 9999 BKN026 OVC040 09/05 Q1016 TEMPO 25017G30KT 3000 SHRA BKN013TCU",
      "taf": "TAF LFOB 280500Z 2806/0106 20013KT 9999 SCT017 BKN030 OVC040"
    },
    {
      "icao": "LFPO",
      "alert": "OK",
      "vis_m": 9999,
      "fzfg": false,
      "metar_trigger": false,
      "taf_trigger": false,
      "metar": "METAR LFPO 280630Z 23012KT 9999 BKN026 BKN032 09/06 Q1019 NOSIG",
      "taf": "TAF LFPO 280500Z 2806/0112 22010KT 9999 BKN025"
    },
    {
      "icao": "LFSB",
      "alert": "OK",
      "vis_m": 9999,
      "fzfg": false,
      "metar_trigger": false,
      "taf_trigger": false,
      "metar": "METAR LFSB 280630Z AUTO VRB02KT CAVOK 07/05 Q1022 NOSIG",
      "taf": "TAF LFSB 280500Z 2806/0106 VRB03KT CAVOK"
    },
    {
      "icao": "LGAV",
      "alert": "OK",
      "vis_m": 9999,
      "fzfg": false,
      "metar_trigger": false,
      "taf_trigger": false,
      "metar": "METAR LGAV 280650Z 02008KT 9999 SCT040 09/03 Q1027 NOSIG",
      "taf": "TAF LGAV 280500Z 2806/0106 01013KT 9999 SCT020"
    },
    {
      "icao": "LGTS",
      "alert": "OK",
      "vis_m": 9999,
      "fzfg": false,
      "metar_trigger": false,
      "taf_trigger": false,
      "metar": "METAR LGTS 280650Z 09003KT 9999 BKN030 10/06 Q1028 NOSIG",
      "taf": "TAF LGTS 280500Z 2806/0106 VRB03KT 9999 BKN030"
    },
    {
      "icao": "LHBP",
      "alert": "OK",
      "vis_m": 9999,
      "fzfg": false,
      "metar_trigger": false,
      "taf_trigger": false,
      "metar": "METAR LHBP 280630Z 01003KT CAVOK M01/M02 Q1027 NOSIG",
      "taf": "TAF LHBP 280515Z 2806/0106 08006KT CAVOK"
    },
    {
      "icao": "LHDC",
      "alert": "OK",
      "vis_m": 6000,
      "fzfg": false,
      "metar_trigger": false,
      "taf_trigger": false,
      "metar": "METAR LHDC 280615Z AUTO 00000KT 6000 NCD M02/M03 Q1027 NOSIG",
      "taf": "TAF LHDC 280515Z 2806/2815 VRB03KT CAVOK"
    },
    {
      "icao": "LIBD",
      "alert": "OK",
      "vis_m": 4000,
      "fzfg": false,
      "metar_trigger": false,
      "taf_trigger": false,
      "metar": "METAR LIBD 280650Z 25003KT 4000 BR BKN015 10/10 Q1024",
      "taf": "TAF LIBD 280500Z 2806/0106 VRB05KT 4000 BR NSC"
    },
    {
      "icao": "LIBG",
      "alert": "OK",
      "vis_m": null,
      "fzfg": false,
      "metar_trigger": false,
      "taf_trigger": false,
      "metar": "",
      "taf": ""
    },
    {
      "icao": "LIBP",
      "alert": "OK",
      "vis_m": 400,
      "fzfg": false,
      "metar_trigger": false,
      "taf_trigger": false,
      "metar": "METAR LIBP 280650Z 25004KT 0400 R22/0900N FG NSC 08/08 Q1025",
      "taf": "TAF LIBP 280500Z 2806/0106 VRB05KT 0600 FG OVC010"
    },
    {
      "icao": "LIBR",
      "alert": "OK",
      "vis_m": 5000,
      "fzfg": false,
      "metar_trigger": false,
      "taf_trigger": false,
      "metar": "METAR LIBR 280650Z VRB02KT 5000 BR FEW010 BKN035 10/10 Q1024",
      "taf": "TAF LIBR 280500Z 2806/0106 VRB05KT CAVOK"
    },
    {
      "icao": "LICA",
      "alert": "OK",
      "vis_m": 9999,
      "fzfg": false,
      "metar_trigger": false,
      "taf_trigger": false,
      "metar": "METAR LICA 280650Z 10003KT 9999 FEW020 11/10 Q1025",
      "taf": "TAF LICA 280500Z 2806/0106 VRB05KT 9999 SCT020"
    },
    {
      "icao": "LICC",
      "alert": "OK",
      "vis_m": 6000,
      "fzfg": false,
      "metar_trigger": false,
      "taf_trigger": false,
      "metar": "METAR LICC 280650Z 28006KT 6000 BKN010 13/11 Q1024",
      "taf": "TAF LICC 280500Z 2806/0106 VRB05KT 6000 SCT030"
    },
    {
      "icao": "LICJ",
      "alert": "OK",
      "vis_m": 9999,
      "fzfg": false,
      "metar_trigger": false,
      "taf_trigger": false,
      "metar": "METAR LICJ 280650Z VRB02KT CAVOK 12/09 Q1024",
      "taf": "TAF LICJ 280500Z 2806/0106 VRB05KT 9999 SCT015"
    },
    {
      "icao": "LIMC",
      "alert": "OK",
      "vis_m": 6000,
      "fzfg": false,
      "metar_trigger": false,
      "taf_trigger": false,
      "metar": "METAR LIMC 280650Z 03004KT 6000 BKN040 09/08 Q1024 NOSIG",
      "taf": "TAF LIMC 280500Z 2806/0112 VRB04KT 3000 BR BKN030"
    },
    {
      "icao": "LIME",
      "alert": "OK",
      "vis_m": 6000,
      "fzfg": false,
      "metar_trigger": false,
      "taf_trigger": false,
      "metar": "METAR LIME 280650Z 03002KT 6000 BKN050 09/07 Q1024 NOSIG",
      "taf": "TAF LIME 280500Z 2806/0106 VRB05KT 9000 SCT030"
    },
    {
      "icao": "LIMF",
      "alert": "OK",
      "vis_m": 7000,
      "fzfg": false,
      "metar_trigger": false,
      "taf_trigger": false,
      "metar": "METAR LIMF 280650Z 19001KT 7000 BKN030 09/05 Q1024",
      "taf": "TAF LIMF 280500Z 2806/0106 VRB04KT CAVOK"
    },
    {
      "icao": "LIMJ",
      "alert": "OK",
      "vis_m": 9999,
      "fzfg": false,
      "metar_trigger": false,
      "taf_trigger": false,
      "metar": "METAR LIMJ 280650Z 06005KT 9999 FEW020 BKN040 13/08 Q1024",
      "taf": "TAF LIMJ 280500Z 2806/0106 VRB05KT 9999 FEW010 BKN030"
    },
    {
      "icao": "LIPE",
      "alert": "OK",
      "vis_m": 9999,
      "fzfg": false,
      "metar_trigger": false,
      "taf_trigger": false,
      "metar": "METAR LIPE 280650Z 20005KT 9999 BKN039 11/07 Q1024",
      "taf": "TAF LIPE 280500Z 2806/0106 VRB04KT 7000 FEW020"
    },
    {
      "icao": "LIPH",
      "alert": "OK",
      "vis_m": 50,
      "fzfg": false,
      "metar_trigger": false,
      "taf_trigger": false,
      "metar": "METAR LIPH 280650Z 14002KT 0050 R07/0275N FG VV001 06/06 Q1025",
      "taf": ""
    },
    {
      "icao": "LIPQ",
      "alert": "OK",
      "vis_m": 900,
      "fzfg": false,
      "metar_trigger": false,
      "taf_trigger": false,
      "metar": "METAR LIPQ 280620Z 06002KT 0900 R09/0450N SCT003 02/02 Q1024",
      "taf": "TAF LIPQ 280500Z 2806/0106 VRB04KT 0200 FG OVC002"
    },
    {
      "icao": "LIPR",
      "alert": "OK",
      "vis_m": 2000,
      "fzfg": false,
      "metar_trigger": false,
      "taf_trigger": false,
      "metar": "METAR LIPR 280650Z VRB01KT 2000 BR FEW030 BKN050 08/08 Q1025",
      "taf": "TAF LIPR 280500Z 2806/0106 VRB04KT 2000 BR SCT010"
    },
    {
      "icao": "LIPX",
      "alert": "OK",
      "vis_m": 900,
      "fzfg": false,
      "metar_trigger": false,
      "taf_trigger": false,
      "metar": "METAR LIPX 280650Z 34004KT 0900 R04/1800N FG BKN035 07/06 Q1024",
      "taf": "TAF LIPX 280500Z 2806/0106 VRB05KT 2000 BR NSC"
    },
    {
      "icao": "LIPY",
      "alert": "OK",
      "vis_m": 4000,
      "fzfg": false,
      "metar_trigger": false,
      "taf_trigger": false,
      "metar": "METAR LIPY 280650Z 22003KT 4000 R22/1100U BR SCT040 08/08 Q1024",
      "taf": "TAF LIPY 280500Z 2806/0106 VRB04KT 2500 BCFG OVC003"
    },
    {
      "icao": "LIPZ",
      "alert": "OK",
      "vis_m": 50,
      "fzfg": false,
      "metar_trigger": false,
      "taf_trigger": false,
      "metar": "METAR LIPZ 280650Z VRB01KT 0050 R04R/0375N FG VV001 06/06 Q1025 NOSIG",
      "taf": "TAF LIPZ 280500Z 2806/0112 VRB04KT 0100 FG OVC001"
    },
    {
      "icao": "LIRF",
      "alert": "OK",
      "vis_m": 9999,
      "fzfg": false,
      "metar_trigger": false,
      "taf_trigger": false,
      "metar": "METAR LIRF 280650Z VRB02KT 9999 BKN045 10/08 Q1025 NOSIG",
      "taf": "TAF LIRF 280500Z 2806/0112 VRB05KT 8000 SCT030"
    },
    {
      "icao": "LIRN",
      "alert": "OK",
      "vis_m": 5000,
      "fzfg": false,
      "metar_trigger": false,
      "taf_trigger": false,
      "metar": "METAR LIRN 280650Z 03005KT 5000 BR FEW020 BKN060 13/08 Q1025 NOSIG",
      "taf": "TAF LIRN 280500Z 2806/0106 VRB05KT 7000 BKN025"
    },
    {
      "icao": "LIRP",
      "alert": "OK",
      "vis_m": 9999,
      "fzfg": false,
      "metar_trigger": false,
      "taf_trigger": false,
      "metar": "METAR LIRP 280645Z 15001KT 9999 BKN035 10/10 Q1025 NOSIG",
      "taf": "TAF LIRP 280500Z 2806/0106 10004KT 9999 SCT040"
    },
    {
      "icao": "LIRZ",
      "alert": "OK",
      "vis_m": 9999,
      "fzfg": false,
      "metar_trigger": false,
      "taf_trigger": false,
      "metar": "METAR LIRZ 280650Z VRB02KT 9999 BKN050 10/09 Q1024",
      "taf": ""
    },
    {
      "icao": "LJLJ",
      "alert": "OK",
      "vis_m": 9999,
      "fzfg": false,
      "metar_trigger": false,
      "taf_trigger": false,
      "metar": "METAR LJLJ 280630Z VRB02KT 9999 MIFG NSC M01/M01 Q1024 NOSIG",
      "taf": "TAF LJLJ 280500Z 2806/0106 VRB02KT CAVOK"
    },
    {
      "icao": "LKMT",
      "alert": "OK",
      "vis_m": 9999,
      "fzfg": false,
      "metar_trigger": false,
      "taf_trigger": false,
      "metar": "METAR LKMT 280630Z 24011KT CAVOK 03/00 Q1023 NOSIG",
      "taf": "TAF LKMT 280500Z 2806/0106 24013KT CAVOK"
    },
    {
      "icao": "LKPR",
      "alert": "OK",
      "vis_m": 300,
      "fzfg": true,
      "metar_trigger": false,
      "taf_trigger": false,
      "metar": "METAR LKPR 280630Z 26003KT 0300 R24/0350N R30/0450N FZFG VV001 M00/M00 Q1021 NOSIG",
      "taf": "TAF LKPR 280500Z 2806/0112 33003KT 0300 FG VV001"
    },
    {
      "icao": "LLBG",
      "alert": "OK",
      "vis_m": 9999,
      "fzfg": false,
      "metar_trigger": false,
      "taf_trigger": false,
      "metar": "METAR LLBG 280650Z VRB03KT CAVOK 11/04 Q1018 NOSIG RMK SCT060 SCT090",
      "taf": "TAF LLBG 280504Z 2806/0106 VRB04KT 9999 FEW050 TX16/2811Z TN07/0104Z"
    },
    {
      "icao": "LMML",
      "alert": "OK",
      "vis_m": 9999,
      "fzfg": false,
      "metar_trigger": false,
      "taf_trigger": false,
      "metar": "METAR LMML 280645Z VRB02KT 9999 FEW017 BKN022 14/12 Q1025 NOSIG",
      "taf": "TAF LMML 280500Z 2806/0106 24006KT 9999 FEW018"
    },
    {
      "icao": "LOWW",
      "alert": "OK",
      "vis_m": 9999,
      "fzfg": false,
      "metar_trigger": false,
      "taf_trigger": false,
      "metar": "METAR LOWW 280650Z 13007KT CAVOK 04/M00 Q1024 NOSIG",
      "taf": "TAF LOWW 280515Z 2806/0112 13012KT CAVOK TX13/2814Z TN02/0105Z"
    },
    {
      "icao": "LPFR",
      "alert": "OK",
      "vis_m": 9999,
      "fzfg": false,
      "metar_trigger": false,
      "taf_trigger": false,
      "metar": "METAR LPFR 280630Z 34003KT 300V020 CAVOK 10/06 Q1022",
      "taf": "TAF LPFR 280500Z 2806/0106 35007KT CAVOK"
    },
    {
      "icao": "LPMA",
      "alert": "OK",
      "vis_m": 9999,
      "fzfg": false,
      "metar_trigger": false,
      "taf_trigger": false,
      "metar": "METAR LPMA 280630Z 01016KT 9999 BKN014 15/07 Q1027",
      "taf": "TAF LPMA 280500Z 2806/0106 01015KT 9999 SCT015"
    },
    {
      "icao": "LPPR",
      "alert": "OK",
      "vis_m": 9999,
      "fzfg": false,
      "metar_trigger": false,
      "taf_trigger": false,
      "metar": "METAR LPPR 280630Z VRB02KT CAVOK 05/03 Q1026",
      "taf": "TAF LPPR 280500Z 2806/0106 02005KT CAVOK"
    },
    {
      "icao": "LPPS",
      "alert": "OK",
      "vis_m": 9999,
      "fzfg": false,
      "metar_trigger": false,
      "taf_trigger": false,
      "metar": "METAR LPPS 280630Z 03012G22KT 350V060 9999 BKN014 14/08 Q1027",
      "taf": "TAF LPPS 280500Z 2806/0112 02015KT 9999 SCT012 BKN030"
    },
    {
      "icao": "LPPT",
      "alert": "OK",
      "vis_m": 9999,
      "fzfg": false,
      "metar_trigger": false,
      "taf_trigger": false,
      "metar": "METAR LPPT 280630Z 36012KT 9999 FEW024 10/06 Q1025",
      "taf": "TAF LPPT 280500Z 2806/0112 35015KT CAVOK"
    },
    {
      "icao": "LQBK",
      "alert": "OK",
      "vis_m": 9999,
      "fzfg": false,
      "metar_trigger": false,
      "taf_trigger": false,
      "metar": "METAR LQBK 280630Z 14006KT CAVOK 01/00 Q1025 NOSIG",
      "taf": ""
    },
    {
      "icao": "LQSA",
      "alert": "OK",
      "vis_m": 9999,
      "fzfg": false,
      "metar_trigger": false,
      "taf_trigger": false,
      "metar": "METAR LQSA 280630Z 00000KT CAVOK M00/M00 Q1025 NOSIG",
      "taf": ""
    },
    {
      "icao": "LQTZ",
      "alert": "OK",
      "vis_m": 5000,
      "fzfg": false,
      "metar_trigger": false,
      "taf_trigger": false,
      "metar": "METAR LQTZ 280630Z 00000KT 5000 BR NSC M01/M01 Q1025",
      "taf": ""
    },
    {
      "icao": "LRBC",
      "alert": "OK",
      "vis_m": 5000,
      "fzfg": false,
      "metar_trigger": false,
      "taf_trigger": false,
      "metar": "METAR LRBC 280630Z 19004KT 5000 BR OVC002 M02/M03 Q1030",
      "taf": "TAF LRBC 280500Z 2806/2815 16008KT 3000 BR OVC002"
    },
    {
      "icao": "LRBS",
      "alert": "OK",
      "vis_m": 1200,
      "fzfg": true,
      "metar_trigger": false,
      "taf_trigger": false,
      "metar": "METAR LRBS 280630Z VRB01KT 1200 R07/1900D BR OVC001 M02/M03 Q1031 TEMPO 0800 FZFG",
      "taf": "TAF LRBS 280500Z 2806/0106 VRB04KT 1500 BR OVC002"
    },
    {
      "icao": "LRBV",
      "alert": "OK",
      "vis_m": 9999,
      "fzfg": false,
      "metar_trigger": false,
      "taf_trigger": false,
      "metar": "METAR LRBV 280630Z 14003KT CAVOK M02/M04 Q1027",
      "taf": "TAF LRBV 280500Z 2806/2815 VRB04KT 5000 BR NSC"
    },
    {
      "icao": "LRCL",
      "alert": "OK",
      "vis_m": 9999,
      "fzfg": false,
      "metar_trigger": false,
      "taf_trigger": false,
      "metar": "METAR LRCL 280630Z 00000KT CAVOK M03/M05 Q1028",
      "taf": "TAF LRCL 280500Z 2806/2815 VRB04KT CAVOK"
    },
    {
      "icao": "LRCV",
      "alert": "OK",
      "vis_m": 200,
      "fzfg": true,
      "metar_trigger": false,
      "taf_trigger": false,
      "metar": "METAR LRCV 280630Z 07008KT 0200 R26/0225N FZFG VV001 M02/M02 Q1030",
      "taf": "TAF LRCV 280500Z 2806/2815 08010KT 0350 FZFG OVC001"
    },
    {
      "icao": "LRIA",
      "alert": "OK",
      "vis_m": 9999,
      "fzfg": false,
      "metar_trigger": false,
      "taf_trigger": false,
      "metar": "METAR LRIA 280630Z 14004KT 120V180 9999 OVC004 M03/M04 Q1030",
      "taf": "TAF LRIA 280500Z 2806/2815 12006KT 9999 OVC005"
    },
    {
      "icao": "LROP",
      "alert": "OK",
      "vis_m": 400,
      "fzfg": true,
      "metar_trigger": false,
      "taf_trigger": false,
      "metar": "METAR LROP 280630Z VRB02KT 0400 R08R/1100D R08L/1100D FZFG SCT001 OVC002 M02/M02 Q1031 NOSIG",
      "taf": "TAF LROP 280500Z 2806/0106 VRB04KT 0600 FZFG OVC001"
    },
    {
      "icao": "LRSB",
      "alert": "OK",
      "vis_m": 9999,
      "fzfg": false,
      "metar_trigger": false,
      "taf_trigger": false,
      "metar": "METAR LRSB 280630Z 11002KT CAVOK M01/M03 Q1027 NOSIG",
      "taf": "TAF LRSB 280500Z 2806/0106 VRB04KT CAVOK"
    },
    {
      "icao": "LRSM",
      "alert": "OK",
      "vis_m": 9999,
      "fzfg": false,
      "metar_trigger": false,
      "taf_trigger": false,
      "metar": "METAR LRSM 280630Z AUTO 11002KT 9999 NCD 00/M02 Q1027",
      "taf": ""
    },
    {
      "icao": "LRSV",
      "alert": "CRITICAL",
      "vis_m": 100,
      "fzfg": true,
      "metar_trigger": true,
      "taf_trigger": true,
      "metar": "METAR LRSV 280630Z 12004KT 090V190 0100 R34/0200N FZFG VV001 M03/M03 Q1027",
      "taf": "TAF LRSV 280500Z 2806/2815 16008KT 0100 FZFG VV001"
    },
    {
      "icao": "LRTM",
      "alert": "OK",
      "vis_m": 9000,
      "fzfg": false,
      "metar_trigger": false,
      "taf_trigger": false,
      "metar": "METAR LRTM 280630Z 08004KT 9000 NSC M02/M04 Q1028",
      "taf": "TAF LRTM 280500Z 2806/2815 VRB04KT CAVOK"
    },
    {
      "icao": "LRTR",
      "alert": "OK",
      "vis_m": 9999,
      "fzfg": false,
      "metar_trigger": false,
      "taf_trigger": false,
      "metar": "METAR LRTR 280630Z 09007KT CAVOK 02/01 Q1027",
      "taf": "TAF LRTR 280500Z 2806/0106 10007KT CAVOK"
    },
    {
      "icao": "LTAC",
      "alert": "OK",
      "vis_m": 9999,
      "fzfg": false,
      "metar_trigger": false,
      "taf_trigger": false,
      "metar": "METAR LTAC 280650Z VRB02KT 9999 SCT040 SCT100 03/M04 Q1021 NOSIG RMK RWY21C 23003KT RWY03L VRB02KT RWY21R 21003KT 180V240 RWY03R VRB02KT RWY21L VRB02KT",
      "taf": "TAF LTAC 280440Z 2806/0106 VRB02KT 9999 SCT040 SCT100"
    },
    {
      "icao": "LTFM",
      "alert": "OK",
      "vis_m": 9999,
      "fzfg": false,
      "metar_trigger": false,
      "taf_trigger": false,
      "metar": "METAR LTFM 280650Z 35014KT 9999 BKN012 BKN026 05/03 Q1029 NOSIG RMK RWY17L 35013KT RWY34L 35015KT RWY16R 35012KT RWY36 36014KT RWY18 36013KT",
      "taf": "TAF LTFM 280440Z 2806/0112 01013KT 9999 SCT016 BKN025"
    },
    {
      "icao": "LUKK",
      "alert": "OK",
      "vis_m": 550,
      "fzfg": true,
      "metar_trigger": false,
      "taf_trigger": false,
      "metar": "METAR LUKK 280630Z 22003KT 180V280 0550 R08/0700U FZFG VV002 M03/M03 Q1030 NOSIG",
      "taf": "TAF LUKK 280516Z 2806/0106 VRB04KT 0600 FZFG VV002"
    },
    {
      "icao": "LWOH",
      "alert": "OK",
      "vis_m": 9999,
      "fzfg": false,
      "metar_trigger": false,
      "taf_trigger": false,
      "metar": "METAR LWOH 280650Z VRB02KT CAVOK 03/01 Q1025",
      "taf": "TAF LWOH 280525Z 2806/0106 VRB02KT CAVOK"
    },
    {
      "icao": "LWSK",
      "alert": "OK",
      "vis_m": 9999,
      "fzfg": false,
      "metar_trigger": false,
      "taf_trigger": false,
      "metar": "METAR LWSK 280650Z VRB01KT 9999 BKN015 04/01 Q1028 NOSIG",
      "taf": "TAF LWSK 280525Z 2806/0106 VRB02KT 9999 BKN015"
    },
    {
      "icao": "LYBE",
      "alert": "OK",
      "vis_m": 9999,
      "fzfg": false,
      "metar_trigger": false,
      "taf_trigger": false,
      "metar": "METAR LYBE 280630Z 12004KT CAVOK 03/M02 Q1026 BECMG FM0730 12014KT",
      "taf": "TAF LYBE 280500Z 2806/0106 06004KT CAVOK TX15/2813Z TN01/0106Z"
    },
    {
      "icao": "LYNI",
      "alert": "OK",
      "vis_m": 9999,
      "fzfg": false,
      "metar_trigger": false,
      "taf_trigger": false,
      "metar": "METAR LYNI 280630Z VRB01KT CAVOK M01/M01 Q1027 NOSIG",
      "taf": "TAF LYNI 280500Z 2806/0106 06008KT CAVOK TX15/2813Z TNM02/2806Z"
    },
    {
      "icao": "LYPG",
      "alert": "OK",
      "vis_m": 9999,
      "fzfg": false,
      "metar_trigger": false,
      "taf_trigger": false,
      "metar": "METAR LYPG 280630Z 36003KT CAVOK 05/02 Q1025 NOSIG",
      "taf": "TAF LYPG 280500Z 2806/0106 18005KT CAVOK TX19/2812Z TN04/0105Z"
    },
    {
      "icao": "LZIB",
      "alert": "OK",
      "vis_m": 9999,
      "fzfg": false,
      "metar_trigger": false,
      "taf_trigger": false,
      "metar": "METAR LZIB 280630Z 04008KT CAVOK 03/M01 Q1025 NOSIG",
      "taf": "TAF LZIB 280515Z 2806/0106 05009KT CAVOK"
    },
    {
      "icao": "LZKZ",
      "alert": "OK",
      "vis_m": 9999,
      "fzfg": false,
      "metar_trigger": false,
      "taf_trigger": false,
      "metar": "METAR LZKZ 280630Z 00000KT CAVOK M01/M02 Q1027 NOSIG",
      "taf": "TAF LZKZ 280515Z 2806/0106 VRB02KT CAVOK"
    },
    {
      "icao": "LZTT",
      "alert": "OK",
      "vis_m": 9999,
      "fzfg": false,
      "metar_trigger": false,
      "taf_trigger": false,
      "metar": "METAR LZTT 280630Z 27003KT CAVOK M03/M03 Q1024 NOSIG",
      "taf": "TAF LZTT 280515Z 2806/0106 28005KT CAVOK"
    },
    {
      "icao": "OEJN",
      "alert": "OK",
      "vis_m": 9999,
      "fzfg": false,
      "metar_trigger": false,
      "taf_trigger": false,
      "metar": "METAR OEJN 280600Z 06006KT CAVOK 24/12 Q1011 NOSIG",
      "taf": "TAF OEJN 280500Z 2806/0112 30012KT 9999 FEW040"
    },
    {
      "icao": "OEMA",
      "alert": "OK",
      "vis_m": 9999,
      "fzfg": false,
      "metar_trigger": false,
      "taf_trigger": false,
      "metar": "METAR OEMA 280600Z 04010KT CAVOK 19/M02 Q1014 NOSIG",
      "taf": "TAF OEMA 280500Z 2806/0112 28012KT CAVOK"
    },
    {
      "icao": "OJAI",
      "alert": "OK",
      "vis_m": 4000,
      "fzfg": false,
      "metar_trigger": false,
      "taf_trigger": false,
      "metar": "METAR OJAI 280600Z 00000KT 4000 HZ NSC 03/M02 Q1018 NOSIG",
      "taf": "TAF OJAI 280439Z 2806/0112 VRB02KT 4000 BR FEW040"
    },
    {
      "icao": "OMAA",
      "alert": "OK",
      "vis_m": 9999,
      "fzfg": false,
      "metar_trigger": false,
      "taf_trigger": false,
      "metar": "METAR OMAA 280630Z 10005KT 070V130 CAVOK 23/16 Q1011 NOSIG",
      "taf": "TAF OMAA 280500Z 2806/0112 VRB02KT 8000 NSC"
    },
    {
      "icao": "OMDB",
      "alert": "OK",
      "vis_m": 9999,
      "fzfg": false,
      "metar_trigger": false,
      "taf_trigger": false,
      "metar": "METAR OMDB 280630Z 09003KT 060V150 CAVOK 24/15 Q1012 NOSIG",
      "taf": "TAF OMDB 280500Z 2806/0112 18005KT 8000 NSC"
    },
    {
      "icao": "UAAA",
      "alert": "OK",
      "vis_m": 2200,
      "fzfg": false,
      "metar_trigger": false,
      "taf_trigger": false,
      "metar": "SPECI UAAA 280657Z 29003MPS 2200 -SN BR OVC025 M09/M11 Q1024 NOSIG",
      "taf": "TAF UAAA 280505Z 2806/0106 32003MPS 5000 -SN BR BKN020 OVC050 TXM06/2808Z TNM14/0102Z"
    },
    {
      "icao": "UBBB",
      "alert": "OK",
      "vis_m": 9999,
      "fzfg": false,
      "metar_trigger": false,
      "taf_trigger": false,
      "metar": "METAR UBBB 280630Z 01014KT 9999 -RA BKN012 OVC022 04/02 Q1018 NOSIG",
      "taf": "TAF UBBB 280458Z 2806/0106 35018G28KT 9999 BKN012 OVC020 TX06/2810Z TN03/0102Z"
    },
    {
      "icao": "UDSG",
      "alert": "OK",
      "vis_m": 9999,
      "fzfg": false,
      "metar_trigger": false,
      "taf_trigger": false,
      "metar": "METAR UDSG 280630Z 08003KT 9999 BKN036 M03/M05 Q1013 NOSIG",
      "taf": "TAF UDSG 280458Z 2806/0106 18006KT 3000 BR BKN030"
    },
    {
      "icao": "UDYZ",
      "alert": "OK",
      "vis_m": 9999,
      "fzfg": false,
      "metar_trigger": false,
      "taf_trigger": false,
      "metar": "METAR UDYZ 280630Z 25002KT 9999 SCT007 BKN046 03/01 Q1014 NOSIG",
      "taf": "TAF UDYZ 280500Z 2806/0106 22006KT 6000 SCT040"
    },
    {
      "icao": "UGKO",
      "alert": "OK",
      "vis_m": 5000,
      "fzfg": false,
      "metar_trigger": false,
      "taf_trigger": false,
      "metar": "METAR UGKO 280630Z 08010KT 5000 -RA BR SCT023 OVC053 03/03 Q1018 NOSIG",
      "taf": "TAF UGKO 280500Z 2806/0106 09006KT 8000 SCT020 OVC030 TX06/2811Z TN03/2806Z"
    }
  ]
}