{
  "ts_utc": "2026-01-20T11:33:15Z",
  "threshold_m": 150,
  "source": "stations_override.txt (ICAO list) + aviationweather.gov (METAR/TAF raw)",
  "station_count": 159,
  "stations": [
    {
      "icao": "BIKF",
      "alert": "OK",
      "vis_m": 9999,
      "fzfg": false,
      "metar_trigger": false,
      "taf_trigger": false,
      "metar": "METAR BIKF 201100Z 10009KT 9999 SCT026 BKN038 03/01 Q1002",
      "taf": "TAF BIKF 201022Z 2012/2112 14015KT 9999 -SHRA FEW015 BKN035 TX05/2012Z TN01/2022Z"
    },
    {
      "icao": "BKPR",
      "alert": "OK",
      "vis_m": 9999,
      "fzfg": false,
      "metar_trigger": false,
      "taf_trigger": false,
      "metar": "METAR BKPR 201130Z 11013KT CAVOK 02/M04 Q1028 NOSIG",
      "taf": "TAF BKPR 201130Z 2012/2112 13010KT CAVOK"
    },
    {
      "icao": "EBCI",
      "alert": "OK",
      "vis_m": 9999,
      "fzfg": false,
      "metar_trigger": false,
      "taf_trigger": false,
      "metar": "METAR EBCI 201120Z 18006KT 140V220 CAVOK 04/01 Q1016 NOSIG",
      "taf": "TAF EBCI 201110Z 2012/2118 15006KT CAVOK"
    },
    {
      "icao": "EDDB",
      "alert": "OK",
      "vis_m": 9999,
      "fzfg": false,
      "metar_trigger": false,
      "taf_trigger": false,
      "metar": "METAR EDDB 201120Z AUTO 17008KT CAVOK 01/M06 Q1022 NOSIG",
      "taf": "TAF EDDB 201100Z 2012/2112 14007KT CAVOK"
    },
    {
      "icao": "EDDH",
      "alert": "OK",
      "vis_m": 9999,
      "fzfg": false,
      "metar_trigger": false,
      "taf_trigger": false,
      "metar": "METAR EDDH 201120Z AUTO 14004KT 110V170 CAVOK 03/M03 Q1020 NOSIG",
      "taf": "TAF EDDH 201100Z 2012/2118 12006KT CAVOK"
    },
    {
      "icao": "EDDK",
      "alert": "OK",
      "vis_m": 9999,
      "fzfg": false,
      "metar_trigger": false,
      "taf_trigger": false,
      "metar": "METAR EDDK 201120Z AUTO 14012KT CAVOK 04/M02 Q1017 NOSIG",
      "taf": "TAF EDDK 201100Z 2012/2118 13008KT CAVOK"
    },
    {
      "icao": "EDDN",
      "alert": "OK",
      "vis_m": 9999,
      "fzfg": false,
      "metar_trigger": false,
      "taf_trigger": false,
      "metar": "METAR EDDN 201120Z AUTO 11008KT CAVOK 02/M08 Q1020 NOSIG",
      "taf": "TAF EDDN 201100Z 2012/2112 11007KT CAVOK"
    },
    {
      "icao": "EDDS",
      "alert": "OK",
      "vis_m": 9999,
      "fzfg": false,
      "metar_trigger": false,
      "taf_trigger": false,
      "metar": "METAR EDDS 201120Z AUTO VRB02KT CAVOK 03/M01 Q1017 NOSIG",
      "taf": "TAF EDDS 201100Z 2012/2112 VRB03KT CAVOK"
    },
    {
      "icao": "EDFH",
      "alert": "OK",
      "vis_m": 250,
      "fzfg": true,
      "metar_trigger": false,
      "taf_trigger": false,
      "metar": "METAR EDFH 201120Z 14013G24KT 0250 R21/0275N FZFG VV/// M01/M02 Q1016",
      "taf": "TAF EDFH 201100Z 2012/2112 15010KT 0200 FZFG VV001"
    },
    {
      "icao": "EDJA",
      "alert": "OK",
      "vis_m": 9999,
      "fzfg": false,
      "metar_trigger": false,
      "taf_trigger": false,
      "metar": "METAR EDJA 201120Z 00000KT CAVOK 06/01 Q1018",
      "taf": "TAF EDJA 201100Z 2012/2021 04003KT CAVOK"
    },
    {
      "icao": "EDLW",
      "alert": "OK",
      "vis_m": 9999,
      "fzfg": false,
      "metar_trigger": false,
      "taf_trigger": false,
      "metar": "METAR EDLW 201120Z 06005KT CAVOK 06/M01 Q1016",
      "taf": "TAF EDLW 201100Z 2012/2112 14005KT CAVOK"
    },
    {
      "icao": "EDNY",
      "alert": "OK",
      "vis_m": 8000,
      "fzfg": false,
      "metar_trigger": false,
      "taf_trigger": false,
      "metar": "METAR EDNY 201120Z COR 25003KT 8000 2800E BR BKN006 M01/M01 Q1019",
      "taf": "TAF EDNY 201100Z 2012/2021 VRB03KT 2500 BR FEW002 BKN005"
    },
    {
      "icao": "EDSB",
      "alert": "OK",
      "vis_m": 6000,
      "fzfg": false,
      "metar_trigger": false,
      "taf_trigger": false,
      "metar": "METAR EDSB 201120Z 06003KT 360V080 6000 OVC003 M00/M01 Q1020",
      "taf": "TAF EDSB 201100Z 2012/2112 VRB03KT 8000 OVC002"
    },
    {
      "icao": "EETN",
      "alert": "OK",
      "vis_m": 8000,
      "fzfg": false,
      "metar_trigger": false,
      "taf_trigger": false,
      "metar": "METAR EETN 201120Z VRB02KT 8000 OVC006 M07/M08 Q1026 NOSIG",
      "taf": "TAF EETN 201130Z 2012/2112 VRB02KT 9999 OVC005"
    },
    {
      "icao": "EFTU",
      "alert": "OK",
      "vis_m": 7000,
      "fzfg": false,
      "metar_trigger": false,
      "taf_trigger": false,
      "metar": "METAR EFTU 201120Z AUTO 12004KT 100V210 7000 OVC003 M03/M04 Q1026",
      "taf": "TAF EFTU 200834Z 2009/2109 12006KT 8000 OVC002"
    },
    {
      "icao": "EGBB",
      "alert": "OK",
      "vis_m": 9999,
      "fzfg": false,
      "metar_trigger": false,
      "taf_trigger": false,
      "metar": "METAR EGBB 201120Z 15016KT 9999 BKN020 08/05 Q1006",
      "taf": "TAF EGBB 201056Z 2012/2112 15018G28KT 9999 SCT020"
    },
    {
      "icao": "EGGP",
      "alert": "OK",
      "vis_m": 9999,
      "fzfg": false,
      "metar_trigger": false,
      "taf_trigger": false,
      "metar": "METAR EGGP 201120Z 13019KT 9999 SCT028 08/04 Q1004",
      "taf": "TAF EGGP 201102Z 2012/2112 14018G28KT 9999 BKN025"
    },
    {
      "icao": "EGGW",
      "alert": "OK",
      "vis_m": 9999,
      "fzfg": false,
      "metar_trigger": false,
      "taf_trigger": false,
      "metar": "METAR EGGW 201120Z AUTO 16013KT 140V200 9999 BKN019 BKN024 BKN028 08/05 Q1009",
      "taf": "TAF EGGW 201106Z 2012/2112 15016G26KT 9999 SCT012 BKN022"
    },
    {
      "icao": "EGKK",
      "alert": "OK",
      "vis_m": 9999,
      "fzfg": false,
      "metar_trigger": false,
      "taf_trigger": false,
      "metar": "METAR EGKK 201120Z 16012KT 130V200 9999 SCT020 09/06 Q1010",
      "taf": "TAF EGKK 201101Z 2012/2118 16009KT 9999 SCT020"
    },
    {
      "icao": "EGNM",
      "alert": "OK",
      "vis_m": 9999,
      "fzfg": false,
      "metar_trigger": false,
      "taf_trigger": false,
      "metar": "METAR EGNM 201120Z 13012KT 9999 SCT005 BKN006 07/06 Q1006",
      "taf": "TAF EGNM 201102Z 2012/2112 13013KT 9999 BKN008"
    },
    {
      "icao": "EGPD",
      "alert": "OK",
      "vis_m": 2900,
      "fzfg": false,
      "metar_trigger": false,
      "taf_trigger": false,
      "metar": "METAR EGPD 201120Z AUTO 14013KT 2900 -DZ OVC003/// //////TCU 08/07 Q1008 RERA NOSIG",
      "taf": "TAF EGPD 201056Z 2012/2112 14012KT 3000 BR BKN004"
    },
    {
      "icao": "EGPF",
      "alert": "OK",
      "vis_m": 9999,
      "fzfg": false,
      "metar_trigger": false,
      "taf_trigger": false,
      "metar": "METAR EGPF 201120Z AUTO 09009KT 9999 OVC039 08/05 Q1004",
      "taf": "TAF EGPF 201053Z 2012/2112 09010KT 9999 SCT025"
    },
    {
      "icao": "EHBK",
      "alert": "OK",
      "vis_m": 9999,
      "fzfg": false,
      "metar_trigger": false,
      "taf_trigger": false,
      "metar": "METAR EHBK 201125Z AUTO 20007KT 150V220 9999 NSC 04/00 Q1016 NOSIG",
      "taf": "TAF EHBK 201106Z 2012/2118 18005KT CAVOK"
    },
    {
      "icao": "EHEH",
      "alert": "OK",
      "vis_m": 450,
      "fzfg": true,
      "metar_trigger": false,
      "taf_trigger": false,
      "metar": "METAR EHEH 201125Z AUTO 11004KT 100V180 0450 R21/1200U FZFG OVC000 M00/M00 Q1016 REFZDZ RED NOSIG",
      "taf": ""
    },
    {
      "icao": "EKBI",
      "alert": "OK",
      "vis_m": 9999,
      "fzfg": false,
      "metar_trigger": false,
      "taf_trigger": false,
      "metar": "METAR EKBI 201120Z AUTO 09005KT 070V130 9999 NCD 01/M01 Q1021",
      "taf": "TAF EKBI 201127Z 2012/2112 10004KT 6000 NSC"
    },
    {
      "icao": "EKCH",
      "alert": "OK",
      "vis_m": 9999,
      "fzfg": false,
      "metar_trigger": false,
      "taf_trigger": false,
      "metar": "METAR EKCH 201120Z AUTO 15005KT 9999 NCD 02/M01 Q1022 NOSIG",
      "taf": "TAF EKCH 201127Z 2012/2112 14008KT CAVOK"
    },
    {
      "icao": "ENAL",
      "alert": "OK",
      "vis_m": 9999,
      "fzfg": false,
      "metar_trigger": false,
      "taf_trigger": false,
      "metar": "METAR ENAL 201120Z 17006KT 9999 SCT008 BKN010 05/04 Q1020",
      "taf": ""
    },
    {
      "icao": "ENBR",
      "alert": "OK",
      "vis_m": 9999,
      "fzfg": false,
      "metar_trigger": false,
      "taf_trigger": false,
      "metar": "METAR ENBR 201120Z VRB02KT 9999 FEW015 BKN029 02/02 Q1020 NOSIG RMK WIND 1200FT 15007KT",
      "taf": "TAF ENBR 200500Z 2006/2106 12005KT 9999 FEW010 BKN015"
    },
    {
      "icao": "ENGM",
      "alert": "OK",
      "vis_m": 9999,
      "fzfg": false,
      "metar_trigger": false,
      "taf_trigger": false,
      "metar": "METAR ENGM 201120Z VRB03KT 9999 FEW010 OVC012 M03/M06 Q1024 NOSIG",
      "taf": "TAF ENGM 200500Z 2006/2106 03005KT 9999 BKN010"
    },
    {
      "icao": "ENHD",
      "alert": "OK",
      "vis_m": 9999,
      "fzfg": false,
      "metar_trigger": false,
      "taf_trigger": false,
      "metar": "METAR ENHD 201120Z 11003KT CAVOK 01/M01 Q1021",
      "taf": "TAF ENHD 200800Z 2009/2018 12005KT CAVOK"
    },
    {
      "icao": "ENTC",
      "alert": "OK",
      "vis_m": 5000,
      "fzfg": true,
      "metar_trigger": false,
      "taf_trigger": false,
      "metar": "METAR ENTC 201120Z 05003KT 340V120 5000 FZFG NSC M06/M07 Q1027 TEMPO 3500 BCFG RMK WIND 2600FT 15004KT",
      "taf": ""
    },
    {
      "icao": "ENTO",
      "alert": "OK",
      "vis_m": 9999,
      "fzfg": false,
      "metar_trigger": false,
      "taf_trigger": false,
      "metar": "METAR ENTO 201120Z 04006KT 9999 OVC015 M02/M05 Q1024 NOSIG",
      "taf": "TAF ENTO 200500Z 2006/2106 03005KT 9999 BKN018"
    },
    {
      "icao": "ENVA",
      "alert": "OK",
      "vis_m": 9999,
      "fzfg": false,
      "metar_trigger": false,
      "taf_trigger": false,
      "metar": "METAR ENVA 201050Z 13007KT CAVOK M02/M05 Q1023 NOSIG RMK WIND 670FT 10009KT",
      "taf": "TAF ENVA 200500Z 2006/2106 12008KT CAVOK"
    },
    {
      "icao": "ENZV",
      "alert": "OK",
      "vis_m": 9999,
      "fzfg": false,
      "metar_trigger": false,
      "taf_trigger": false,
      "metar": "METAR ENZV 201120Z 00000KT CAVOK M01/M04 Q1021 NOSIG",
      "taf": "TAF ENZV 200500Z 2006/2106 17005KT CAVOK"
    },
    {
      "icao": "EPGD",
      "alert": "OK",
      "vis_m": 9999,
      "fzfg": false,
      "metar_trigger": false,
      "taf_trigger": false,
      "metar": "METAR EPGD 201100Z VRB01KT CAVOK M03/M09 Q1025",
      "taf": "TAF EPGD 201130Z 2012/2112 VRB02KT 8000 NSC"
    },
    {
      "icao": "EPKK",
      "alert": "OK",
      "vis_m": 4000,
      "fzfg": false,
      "metar_trigger": false,
      "taf_trigger": false,
      "metar": "METAR EPKK 201100Z 07003KT 4000 HZ NSC M04/M10 Q1029",
      "taf": "TAF EPKK 201130Z 2012/2112 06004KT 4000 HZ NSC"
    },
    {
      "icao": "EPKT",
      "alert": "OK",
      "vis_m": 9999,
      "fzfg": false,
      "metar_trigger": false,
      "taf_trigger": false,
      "metar": "METAR EPKT 201100Z 18006KT CAVOK 01/M08 Q1027",
      "taf": "TAF EPKT 201130Z 2012/2112 18007KT CAVOK"
    },
    {
      "icao": "EPLB",
      "alert": "OK",
      "vis_m": 9999,
      "fzfg": false,
      "metar_trigger": false,
      "taf_trigger": false,
      "metar": "METAR EPLB 201100Z 21008KT CAVOK M03/M08 Q1030",
      "taf": "TAF EPLB 201130Z 2012/2112 21008KT 8000 NSC"
    },
    {
      "icao": "EPMO",
      "alert": "OK",
      "vis_m": 5000,
      "fzfg": false,
      "metar_trigger": false,
      "taf_trigger": false,
      "metar": "METAR EPMO 201100Z 12005KT 090V150 5000 BR NSC M03/M07 Q1028",
      "taf": "TAF EPMO 201130Z 2012/2112 13008KT 7000 NSC"
    },
    {
      "icao": "EPPO",
      "alert": "OK",
      "vis_m": 9999,
      "fzfg": false,
      "metar_trigger": false,
      "taf_trigger": false,
      "metar": "METAR EPPO 201100Z 16010KT CAVOK 02/M08 Q1024",
      "taf": "TAF EPPO 201130Z 2012/2112 16010KT CAVOK"
    },
    {
      "icao": "EPRA",
      "alert": "OK",
      "vis_m": 7000,
      "fzfg": false,
      "metar_trigger": false,
      "taf_trigger": false,
      "metar": "METAR EPRA 201100Z 17005KT 7000 NSC M05/M11 Q1029",
      "taf": "TAF EPRA 201130Z 2012/2021 16006KT 8000 NSC"
    },
    {
      "icao": "EPRZ",
      "alert": "OK",
      "vis_m": 4500,
      "fzfg": false,
      "metar_trigger": false,
      "taf_trigger": false,
      "metar": "METAR EPRZ 201100Z 10004KT 4500 BR NSC M06/M10 Q1030",
      "taf": "TAF EPRZ 201130Z 2012/2112 09004KT 4500 BR NSC"
    },
    {
      "icao": "EPSC",
      "alert": "OK",
      "vis_m": 9999,
      "fzfg": false,
      "metar_trigger": false,
      "taf_trigger": false,
      "metar": "METAR EPSC 201100Z 16008KT CAVOK 00/M07 Q1023",
      "taf": "TAF EPSC 201130Z 2012/2112 15007KT CAVOK"
    },
    {
      "icao": "EPSY",
      "alert": "OK",
      "vis_m": 3000,
      "fzfg": false,
      "metar_trigger": false,
      "taf_trigger": false,
      "metar": "METAR EPSY 201100Z VRB02KT 3000 BR NSC M09/M11 Q1028",
      "taf": "TAF EPSY 201130Z 2012/2021 18005KT 8000 NSC"
    },
    {
      "icao": "EPWA",
      "alert": "OK",
      "vis_m": 6000,
      "fzfg": false,
      "metar_trigger": false,
      "taf_trigger": false,
      "metar": "METAR EPWA 201100Z 15005KT 6000 NSC M06/M09 Q1029 NOSIG",
      "taf": "TAF EPWA 201130Z 2012/2112 13008KT 7000 NSC"
    },
    {
      "icao": "EPWR",
      "alert": "OK",
      "vis_m": 9999,
      "fzfg": false,
      "metar_trigger": false,
      "taf_trigger": false,
      "metar": "METAR EPWR 201100Z 12016KT CAVOK 01/M05 Q1025",
      "taf": "TAF EPWR 201130Z 2012/2112 12014KT CAVOK"
    },
    {
      "icao": "ESGG",
      "alert": "OK",
      "vis_m": 8000,
      "fzfg": false,
      "metar_trigger": false,
      "taf_trigger": false,
      "metar": "METAR ESGG 201120Z 08005KT 8000 OVC005 M02/M03 Q1022",
      "taf": "TAF ESGG 200830Z 2009/2109 11007KT 6000 OVC004"
    },
    {
      "icao": "ESKN",
      "alert": "OK",
      "vis_m": 9999,
      "fzfg": false,
      "metar_trigger": false,
      "taf_trigger": false,
      "metar": "METAR ESKN 201120Z 08006KT 9999 BKN009 01/M00 Q1024",
      "taf": "TAF ESKN 201130Z 2012/2112 12006KT 8000 OVC010"
    },
    {
      "icao": "ESMS",
      "alert": "OK",
      "vis_m": 9999,
      "fzfg": false,
      "metar_trigger": false,
      "taf_trigger": false,
      "metar": "METAR ESMS 201120Z 16005KT CAVOK 02/M02 Q1021",
      "taf": "TAF ESMS 201127Z 2012/2112 14005KT CAVOK"
    },
    {
      "icao": "ESSA",
      "alert": "OK",
      "vis_m": 9999,
      "fzfg": false,
      "metar_trigger": false,
      "taf_trigger": false,
      "metar": "METAR ESSA 201120Z 12004KT 080V140 9999 OVC010 M02/M04 Q1025 NOSIG",
      "taf": "TAF ESSA 201130Z 2012/2112 10005KT 9999 OVC010"
    },
    {
      "icao": "EYKA",
      "alert": "OK",
      "vis_m": 5000,
      "fzfg": false,
      "metar_trigger": false,
      "taf_trigger": false,
      "metar": "METAR EYKA 201120Z VRB02KT 5000 BR NSC M08/M11 Q1028",
      "taf": "TAF EYKA 201100Z 2012/2112 VRB04KT 5000 BR NSC"
    },
    {
      "icao": "EYPA",
      "alert": "OK",
      "vis_m": 6000,
      "fzfg": false,
      "metar_trigger": false,
      "taf_trigger": false,
      "metar": "METAR EYPA 201120Z 15005KT 6000 OVC005 M09/M13 Q1027",
      "taf": "TAF EYPA 201103Z 2012/2112 VRB05KT 5000 BR BKN005"
    },
    {
      "icao": "EYVI",
      "alert": "OK",
      "vis_m": 5000,
      "fzfg": false,
      "metar_trigger": false,
      "taf_trigger": false,
      "metar": "METAR EYVI 201120Z 20008KT 5000 BR NSC M11/M13 Q1028 NOSIG",
      "taf": "TAF EYVI 201100Z 2012/2112 VRB04KT 5000 BR NSC"
    },
    {
      "icao": "GCFV",
      "alert": "OK",
      "vis_m": 9999,
      "fzfg": false,
      "metar_trigger": false,
      "taf_trigger": false,
      "metar": "METAR GCFV 201100Z 02016KT 9999 FEW035 19/08 Q1026",
      "taf": "TAF GCFV 200800Z 2009/2109 03015KT 9999 FEW030 TX21/2014Z TN14/2106Z"
    },
    {
      "icao": "GCLP",
      "alert": "OK",
      "vis_m": 9999,
      "fzfg": false,
      "metar_trigger": false,
      "taf_trigger": false,
      "metar": "METAR GCLP 201100Z 01017KT 9999 BKN045 19/09 Q1026 NOSIG",
      "taf": "TAF GCLP 200800Z 2009/2109 02015KT 9999 SCT035 TX20/2014Z TN16/2106Z"
    },
    {
      "icao": "GCTS",
      "alert": "OK",
      "vis_m": 9999,
      "fzfg": false,
      "metar_trigger": false,
      "taf_trigger": false,
      "metar": "METAR GCTS 201100Z 07020KT 9999 FEW040 19/07 Q1026 NOSIG",
      "taf": "TAF GCTS 200800Z 2009/2109 08015KT 9999 FEW040 TX22/2014Z TN14/2106Z"
    },
    {
      "icao": "GMAD",
      "alert": "OK",
      "vis_m": 9999,
      "fzfg": false,
      "metar_trigger": false,
      "taf_trigger": false,
      "metar": "METAR GMAD 201100Z 02004KT 340V040 CAVOK 13/10 Q1022 NOSIG",
      "taf": "TAF GMAD 201100Z 2012/2118 28010KT CAVOK"
    },
    {
      "icao": "GMMN",
      "alert": "OK",
      "vis_m": 6000,
      "fzfg": false,
      "metar_trigger": false,
      "taf_trigger": false,
      "metar": "SPECI GMMN 201111Z 24007KT 190V270 6000 -RA SCT010 BKN020 10/08 Q1024 NOSIG",
      "taf": "TAF GMMN 200500Z 2006/2112 20006KT 9999 SCT030"
    },
    {
      "icao": "GMMX",
      "alert": "OK",
      "vis_m": 8000,
      "fzfg": false,
      "metar_trigger": false,
      "taf_trigger": false,
      "metar": "METAR GMMX 201100Z 07005KT 020V150 8000 NSC 11/04 Q1024 NOSIG",
      "taf": "TAF GMMX 200500Z 2006/2112 24006KT 8000 NSC"
    },
    {
      "icao": "HEGN",
      "alert": "OK",
      "vis_m": null,
      "fzfg": false,
      "metar_trigger": false,
      "taf_trigger": false,
      "metar": "",
      "taf": "TAF HEGN 201100Z 2012/2118 35014KT CAVOK"
    },
    {
      "icao": "HEMA",
      "alert": "OK",
      "vis_m": null,
      "fzfg": false,
      "metar_trigger": false,
      "taf_trigger": false,
      "metar": "",
      "taf": "TAF HEMA 201100Z 2012/2118 36015KT CAVOK"
    },
    {
      "icao": "HESH",
      "alert": "OK",
      "vis_m": null,
      "fzfg": false,
      "metar_trigger": false,
      "taf_trigger": false,
      "metar": "",
      "taf": "TAF HESH 201100Z 2012/2118 01012KT CAVOK"
    },
    {
      "icao": "HESX",
      "alert": "OK",
      "vis_m": null,
      "fzfg": false,
      "metar_trigger": false,
      "taf_trigger": false,
      "metar": "",
      "taf": "TAF HESX 201100Z 2012/2118 06014KT 8000 NSC"
    },
    {
      "icao": "LATI",
      "alert": "OK",
      "vis_m": 9999,
      "fzfg": false,
      "metar_trigger": false,
      "taf_trigger": false,
      "metar": "METAR LATI 201120Z VRB02KT CAVOK 11/M09 Q1022 NOSIG",
      "taf": "TAF LATI 201100Z 2012/2112 VRB05KT CAVOK TX13/2012Z TN01/2105Z"
    },
    {
      "icao": "LBPD",
      "alert": "OK",
      "vis_m": 9999,
      "fzfg": false,
      "metar_trigger": false,
      "taf_trigger": false,
      "metar": "METAR LBPD 201130Z AUTO 10004KT 350V160 9999 NCD 02/M05 Q1034 NOSIG",
      "taf": "TAF LBPD 201100Z 2012/2112 10008KT CAVOK"
    },
    {
      "icao": "LBSF",
      "alert": "OK",
      "vis_m": 9999,
      "fzfg": false,
      "metar_trigger": false,
      "taf_trigger": false,
      "metar": "METAR LBSF 201130Z 12007KT 090V150 CAVOK 02/M07 Q1031 NOSIG",
      "taf": "TAF LBSF 201100Z 2012/2112 11012KT CAVOK"
    },
    {
      "icao": "LBWN",
      "alert": "OK",
      "vis_m": 9999,
      "fzfg": false,
      "metar_trigger": false,
      "taf_trigger": false,
      "metar": "METAR LBWN 201130Z 22003KT 120V280 CAVOK 01/M06 Q1035 NOSIG",
      "taf": "TAF LBWN 201100Z 2012/2112 VRB04KT CAVOK"
    },
    {
      "icao": "LCLK",
      "alert": "OK",
      "vis_m": 9999,
      "fzfg": false,
      "metar_trigger": false,
      "taf_trigger": false,
      "metar": "METAR LCLK 201130Z 36010KT 9999 FEW030 13/M01 Q1023 NOSIG",
      "taf": "TAF LCLK 201130Z 2012/2112 03014KT 9999 FEW025"
    },
    {
      "icao": "LCPH",
      "alert": "OK",
      "vis_m": 9999,
      "fzfg": false,
      "metar_trigger": false,
      "taf_trigger": false,
      "metar": "METAR LCPH 201130Z 25004KT 170V310 9999 FEW040 13/M01 Q1023 NOSIG",
      "taf": "TAF LCPH 201130Z 2012/2112 15010KT 9999 FEW020"
    },
    {
      "icao": "LEAL",
      "alert": "OK",
      "vis_m": 9999,
      "fzfg": false,
      "metar_trigger": false,
      "taf_trigger": false,
      "metar": "METAR LEAL 201100Z 31009KT 270V340 CAVOK 16/06 Q1013 NOSIG",
      "taf": "TAF LEAL 201100Z 2012/2112 30009KT 9999 FEW040 TX15/2013Z TN10/2106Z"
    },
    {
      "icao": "LEBB",
      "alert": "OK",
      "vis_m": 9999,
      "fzfg": false,
      "metar_trigger": false,
      "taf_trigger": false,
      "metar": "METAR LEBB 201100Z 11003KT 030V170 CAVOK 11/04 Q1016 NOSIG",
      "taf": "TAF LEBB 201100Z 2012/2112 20008KT 9999 SCT040 TX13/2013Z TN09/2021Z"
    },
    {
      "icao": "LEBL",
      "alert": "OK",
      "vis_m": 9999,
      "fzfg": false,
      "metar_trigger": false,
      "taf_trigger": false,
      "metar": "METAR LEBL 201100Z 33012KT 9999 RA FEW030 BKN046 09/08 Q1012 NOSIG",
      "taf": "TAF LEBL 201100Z 2012/2112 01013KT 9999 SCT020 BKN030 TX13/2013Z TN08/2106Z"
    },
    {
      "icao": "LECH",
      "alert": "OK",
      "vis_m": 9999,
      "fzfg": false,
      "metar_trigger": false,
      "taf_trigger": false,
      "metar": "METAR LECH 201100Z AUTO 35015KT 310V030 9999 SCT043 BKN060 11/03 Q1013",
      "taf": ""
    },
    {
      "icao": "LEMD",
      "alert": "OK",
      "vis_m": 9999,
      "fzfg": false,
      "metar_trigger": false,
      "taf_trigger": false,
      "metar": "METAR LEMD 201100Z 19003KT 130V280 CAVOK 07/01 Q1017 NOSIG",
      "taf": "TAF LEMD 201100Z 2012/2118 VRB03KT CAVOK TX12/2014Z TNM02/2106Z"
    },
    {
      "icao": "LEMG",
      "alert": "OK",
      "vis_m": 9999,
      "fzfg": false,
      "metar_trigger": false,
      "taf_trigger": false,
      "metar": "METAR LEMG 201100Z 30010KT 270V330 9999 FEW042 13/05 Q1018 NOSIG",
      "taf": "TAF LEMG 201100Z 2012/2112 29012KT CAVOK TX14/2014Z TN07/2106Z"
    },
    {
      "icao": "LEVC",
      "alert": "OK",
      "vis_m": 9999,
      "fzfg": false,
      "metar_trigger": false,
      "taf_trigger": false,
      "metar": "METAR LEVC 201100Z 31005KT 270V340 9999 SCT060 15/05 Q1013 NOSIG",
      "taf": "TAF LEVC 201100Z 2012/2112 30008KT 9999 SCT050 TX15/2013Z TN09/2106Z"
    },
    {
      "icao": "LEXJ",
      "alert": "OK",
      "vis_m": 9999,
      "fzfg": false,
      "metar_trigger": false,
      "taf_trigger": false,
      "metar": "METAR LEXJ 201100Z 14001KT CAVOK 12/01 Q1014",
      "taf": "TAF LEXJ 200800Z 2009/2109 22009KT 9999 SCT040 TX13/2014Z TN06/2009Z"
    },
    {
      "icao": "LEZG",
      "alert": "OK",
      "vis_m": 9999,
      "fzfg": false,
      "metar_trigger": false,
      "taf_trigger": false,
      "metar": "METAR LEZG 201100Z 29015KT CAVOK 09/04 Q1016 NOSIG",
      "taf": "TAF LEZG 201100Z 2012/2112 30010KT 9999 FEW040 TX10/2015Z TN05/2106Z"
    },
    {
      "icao": "LEZL",
      "alert": "OK",
      "vis_m": 9999,
      "fzfg": false,
      "metar_trigger": false,
      "taf_trigger": false,
      "metar": "METAR LEZL 201100Z 26001KT CAVOK 11/07 Q1020 NOSIG",
      "taf": "TAF LEZL 200800Z 2009/2109 VRB04KT CAVOK TX15/2015Z TN04/2107Z"
    },
    {
      "icao": "LFBD",
      "alert": "OK",
      "vis_m": 9999,
      "fzfg": false,
      "metar_trigger": false,
      "taf_trigger": false,
      "metar": "METAR LFBD 201100Z AUTO 15006KT 9999 OVC003 07/07 Q1016 BECMG SCT010",
      "taf": "TAF LFBD 201100Z 2012/2118 15008KT 8000 BKN005 TX14/2114Z TN07/2105Z"
    },
    {
      "icao": "LFLL",
      "alert": "OK",
      "vis_m": 400,
      "fzfg": false,
      "metar_trigger": false,
      "taf_trigger": false,
      "metar": "METAR LFLL 201100Z VRB03KT 0400 R35L/0550N R17R/0800U R35R/0600N R17L/0600N FG VV/// 02/02 Q1018 NOSIG",
      "taf": "TAF LFLL 201100Z 2012/2118 VRB02KT 0800 FG OVC001"
    },
    {
      "icao": "LFLS",
      "alert": "OK",
      "vis_m": 9999,
      "fzfg": false,
      "metar_trigger": false,
      "taf_trigger": false,
      "metar": "METAR LFLS 201100Z AUTO VRB02KT 0300 0250 R09/0325U R27/0900U FG VV/// 01/01 Q1017 BECMG CAVOK",
      "taf": ""
    },
    {
      "icao": "LFMN",
      "alert": "OK",
      "vis_m": 9999,
      "fzfg": false,
      "metar_trigger": false,
      "taf_trigger": false,
      "metar": "METAR LFMN 201100Z 09022KT 9999 FEW070 SCT230 15/07 Q1017 NOSIG",
      "taf": "TAF LFMN 200800Z 2009/2115 08015G25KT 9999 SCT100"
    },
    {
      "icao": "LFOB",
      "alert": "OK",
      "vis_m": 9000,
      "fzfg": false,
      "metar_trigger": false,
      "taf_trigger": false,
      "metar": "METAR LFOB 201100Z AUTO 13011KT 9000 OVC009 07/05 Q1015 TEMPO OVC016",
      "taf": ""
    },
    {
      "icao": "LFPO",
      "alert": "OK",
      "vis_m": 9999,
      "fzfg": false,
      "metar_trigger": false,
      "taf_trigger": false,
      "metar": "METAR LFPO 201100Z 13006KT 110V170 9999 BKN015 06/04 Q1016 NOSIG",
      "taf": "TAF LFPO 201100Z 2012/2118 14010KT 9999 BKN015"
    },
    {
      "icao": "LFSB",
      "alert": "OK",
      "vis_m": 9999,
      "fzfg": false,
      "metar_trigger": false,
      "taf_trigger": false,
      "metar": "METAR LFSB 201100Z AUTO VRB03KT CAVOK 04/M00 Q1018 NOSIG",
      "taf": "TAF LFSB 201100Z 2012/2112 34003KT CAVOK"
    },
    {
      "icao": "LGAV",
      "alert": "OK",
      "vis_m": 9999,
      "fzfg": false,
      "metar_trigger": false,
      "taf_trigger": false,
      "metar": "METAR LGAV 201120Z 05020KT 9999 FEW025 BKN040 09/M01 Q1028 NOSIG",
      "taf": "TAF LGAV 201100Z 2012/2112 05018KT 9999 FEW018 BKN025"
    },
    {
      "icao": "LGTS",
      "alert": "OK",
      "vis_m": 9999,
      "fzfg": false,
      "metar_trigger": false,
      "taf_trigger": false,
      "metar": "METAR LGTS 201120Z 29005KT 9999 FEW025 07/M03 Q1032 NOSIG",
      "taf": "TAF LGTS 201100Z 2012/2112 11010KT 9999 SCT030"
    },
    {
      "icao": "LHBP",
      "alert": "OK",
      "vis_m": 8000,
      "fzfg": false,
      "metar_trigger": false,
      "taf_trigger": false,
      "metar": "METAR LHBP 201130Z 12005KT 8000 NSC M05/M07 Q1033 NOSIG",
      "taf": "TAF LHBP 201115Z 2012/2112 08006KT 5000 BR SCT006"
    },
    {
      "icao": "LHDC",
      "alert": "OK",
      "vis_m": 2900,
      "fzfg": false,
      "metar_trigger": false,
      "taf_trigger": false,
      "metar": "METAR LHDC 201045Z AUTO 03004KT 340V070 2900 BR SCT005 M06/M07 Q1034 BECMG 3500",
      "taf": "TAF LHDC 201115Z 2012/2021 04004KT 3500 BR SCT004"
    },
    {
      "icao": "LIBD",
      "alert": "OK",
      "vis_m": 9999,
      "fzfg": false,
      "metar_trigger": false,
      "taf_trigger": false,
      "metar": "METAR LIBD 201120Z 08010KT 9999 FEW035 10/04 Q1021",
      "taf": "TAF LIBD 201100Z 2012/2112 11010KT 9999 SCT040"
    },
    {
      "icao": "LIBG",
      "alert": "OK",
      "vis_m": 9999,
      "fzfg": false,
      "metar_trigger": false,
      "taf_trigger": false,
      "metar": "METAR LIBG 201050Z 11006KT 080V140 9999 FEW040 11/03 Q1021",
      "taf": "TAF LIBG 201100Z 2012/2021 09008KT 9999 SCT040"
    },
    {
      "icao": "LIBP",
      "alert": "OK",
      "vis_m": 9999,
      "fzfg": false,
      "metar_trigger": false,
      "taf_trigger": false,
      "metar": "METAR LIBP 201120Z AUTO 04006KT 9999 BKN052/// 11/07 Q1022",
      "taf": "TAF LIBP 201100Z 2012/2112 VRB05KT 9999 BKN050"
    },
    {
      "icao": "LIBR",
      "alert": "OK",
      "vis_m": 9999,
      "fzfg": false,
      "metar_trigger": false,
      "taf_trigger": false,
      "metar": "METAR LIBR 201120Z 09006KT 9999 SCT040 11/04 Q1021",
      "taf": "TAF LIBR 201100Z 2012/2112 10008KT 9999 SCT040"
    },
    {
      "icao": "LICA",
      "alert": "OK",
      "vis_m": 9999,
      "fzfg": false,
      "metar_trigger": false,
      "taf_trigger": false,
      "metar": "METAR LICA 201120Z AUTO 07023G33KT 9999 BKN046/// 10/06 Q1016",
      "taf": "TAF LICA 201100Z 2012/2112 08025G48KT 8000 RA BKN030"
    },
    {
      "icao": "LICC",
      "alert": "OK",
      "vis_m": 3000,
      "fzfg": false,
      "metar_trigger": false,
      "taf_trigger": false,
      "metar": "METAR LICC 201120Z 08031G41KT 3000 RA BKN015 BKN040 12/10 Q1012",
      "taf": "TAF LICC 201100Z 2012/2112 08030G50KT 4000 RA BKN015"
    },
    {
      "icao": "LICJ",
      "alert": "OK",
      "vis_m": 9999,
      "fzfg": false,
      "metar_trigger": false,
      "taf_trigger": false,
      "metar": "METAR LICJ 201120Z 08027G37KT 9999 -RA SCT040 BKN070 14/06 Q1007",
      "taf": "TAF LICJ 201100Z 2012/2112 08030G58KT 9999 BKN040"
    },
    {
      "icao": "LIMC",
      "alert": "OK",
      "vis_m": 9999,
      "fzfg": false,
      "metar_trigger": false,
      "taf_trigger": false,
      "metar": "METAR LIMC 201120Z 23004KT 180V290 9999 BKN080 06/M01 Q1025 NOSIG",
      "taf": "TAF LIMC 201100Z 2012/2118 VRB04KT 9999 SCT050"
    },
    {
      "icao": "LIME",
      "alert": "OK",
      "vis_m": 9999,
      "fzfg": false,
      "metar_trigger": false,
      "taf_trigger": false,
      "metar": "METAR LIME 201120Z 16003KT 100V210 9999 SCT080 05/M02 Q1025 NOSIG",
      "taf": "TAF LIME 201100Z 2012/2112 VRB04KT 9999 SCT060"
    },
    {
      "icao": "LIMF",
      "alert": "OK",
      "vis_m": 6000,
      "fzfg": false,
      "metar_trigger": false,
      "taf_trigger": false,
      "metar": "METAR LIMF 201120Z VRB02KT 6000 OVC070 04/M01 Q1025",
      "taf": "TAF LIMF 201100Z 2012/2112 VRB04KT 9999 BKN060"
    },
    {
      "icao": "LIMJ",
      "alert": "OK",
      "vis_m": 9999,
      "fzfg": false,
      "metar_trigger": false,
      "taf_trigger": false,
      "metar": "METAR LIMJ 201120Z 02016KT 9999 BKN075 09/00 Q1021",
      "taf": "TAF LIMJ 201100Z 2012/2112 02015KT 9999 FEW080"
    },
    {
      "icao": "LIPE",
      "alert": "OK",
      "vis_m": 8000,
      "fzfg": false,
      "metar_trigger": false,
      "taf_trigger": false,
      "metar": "METAR LIPE 201050Z 31003KT 280V350 8000 BKN028 03/M02 Q1026",
      "taf": "TAF LIPE 201100Z 2012/2112 28006KT 8000 BKN030"
    },
    {
      "icao": "LIPH",
      "alert": "OK",
      "vis_m": 9999,
      "fzfg": false,
      "metar_trigger": false,
      "taf_trigger": false,
      "metar": "METAR LIPH 201120Z 05007KT CAVOK 06/M06 Q1026",
      "taf": "TAF LIPH 201100Z 2012/2112 04007KT CAVOK"
    },
    {
      "icao": "LIPQ",
      "alert": "OK",
      "vis_m": 9999,
      "fzfg": false,
      "metar_trigger": false,
      "taf_trigger": false,
      "metar": "METAR LIPQ 201120Z AUTO 07007KT 9999 NCD 07/M07 Q1026",
      "taf": "TAF LIPQ 201100Z 2012/2112 VRB05KT CAVOK"
    },
    {
      "icao": "LIPR",
      "alert": "OK",
      "vis_m": 4000,
      "fzfg": false,
      "metar_trigger": false,
      "taf_trigger": false,
      "metar": "METAR LIPR 201120Z 30011KT 4000 -RA BR BKN020 SCT040 04/03 Q1024",
      "taf": "TAF LIPR 201100Z 2012/2112 30010KT 9999 BKN030"
    },
    {
      "icao": "LIPX",
      "alert": "OK",
      "vis_m": 9999,
      "fzfg": false,
      "metar_trigger": false,
      "taf_trigger": false,
      "metar": "METAR LIPX 201120Z VRB02KT 9999 BKN075 05/M05 Q1026",
      "taf": "TAF LIPX 201100Z 2012/2112 VRB04KT 9999 SCT070"
    },
    {
      "icao": "LIPY",
      "alert": "OK",
      "vis_m": 9999,
      "fzfg": false,
      "metar_trigger": false,
      "taf_trigger": false,
      "metar": "METAR LIPY 201120Z AUTO VRB02KT 9999 FEW036/// BKN047/// 10/09 Q1023",
      "taf": "TAF LIPY 201100Z 2012/2112 09010KT 9999 BKN030"
    },
    {
      "icao": "LIPZ",
      "alert": "OK",
      "vis_m": 9999,
      "fzfg": false,
      "metar_trigger": false,
      "taf_trigger": false,
      "metar": "METAR LIPZ 201120Z 06008KT CAVOK 05/M05 Q1026",
      "taf": "TAF LIPZ 201100Z 2012/2118 02008KT CAVOK"
    },
    {
      "icao": "LIRF",
      "alert": "OK",
      "vis_m": 9999,
      "fzfg": false,
      "metar_trigger": false,
      "taf_trigger": false,
      "metar": "METAR LIRF 201120Z 05007KT CAVOK 14/04 Q1016 NOSIG",
      "taf": "TAF LIRF 201100Z 2012/2118 VRB05KT 9999 SCT050"
    },
    {
      "icao": "LIRN",
      "alert": "OK",
      "vis_m": 9999,
      "fzfg": false,
      "metar_trigger": false,
      "taf_trigger": false,
      "metar": "METAR LIRN 201120Z 05013KT CAVOK 11/01 Q1017 NOSIG",
      "taf": "TAF LIRN 201100Z 2012/2112 05015G26KT 9999 BKN070"
    },
    {
      "icao": "LIRP",
      "alert": "OK",
      "vis_m": 9999,
      "fzfg": false,
      "metar_trigger": false,
      "taf_trigger": false,
      "metar": "METAR LIRP 201115Z 06014KT 9999 SCT080 12/03 Q1019 NOSIG",
      "taf": "TAF LIRP 201100Z 2012/2112 08017KT 9999 BKN080"
    },
    {
      "icao": "LIRZ",
      "alert": "OK",
      "vis_m": 9999,
      "fzfg": false,
      "metar_trigger": false,
      "taf_trigger": false,
      "metar": "METAR LIRZ 201120Z AUTO 04017KT 9999 NCD 12/02 Q1018",
      "taf": "TAF LIRZ 201100Z 2012/2112 05018G32KT 9999 SCT070"
    },
    {
      "icao": "LJLJ",
      "alert": "OK",
      "vis_m": 9999,
      "fzfg": false,
      "metar_trigger": false,
      "taf_trigger": false,
      "metar": "METAR LJLJ 201100Z 10003KT 050V150 9999 OVC018 M04/M08 Q1029 NOSIG",
      "taf": "TAF LJLJ 201100Z 2012/2112 12003KT 9999 OVC018"
    },
    {
      "icao": "LKMT",
      "alert": "OK",
      "vis_m": 9999,
      "fzfg": false,
      "metar_trigger": false,
      "taf_trigger": false,
      "metar": "METAR LKMT 201130Z 23017KT CAVOK 02/M06 Q1027 NOSIG",
      "taf": "TAF LKMT 201100Z 2012/2112 23014KT CAVOK"
    },
    {
      "icao": "LKPR",
      "alert": "OK",
      "vis_m": 9999,
      "fzfg": false,
      "metar_trigger": false,
      "taf_trigger": false,
      "metar": "METAR LKPR 201130Z 15005KT 9999 FEW018 M03/M07 Q1023 NOSIG",
      "taf": "TAF LKPR 201100Z 2012/2118 13006KT CAVOK"
    },
    {
      "icao": "LLBG",
      "alert": "OK",
      "vis_m": 9999,
      "fzfg": false,
      "metar_trigger": false,
      "taf_trigger": false,
      "metar": "METAR LLBG 201120Z 03007KT 9999 FEW050 15/02 Q1021 NOSIG",
      "taf": "TAF LLBG 201106Z 2012/2112 36010KT CAVOK"
    },
    {
      "icao": "LMML",
      "alert": "OK",
      "vis_m": 5000,
      "fzfg": false,
      "metar_trigger": false,
      "taf_trigger": false,
      "metar": "METAR LMML 201115Z 09027G38KT 5000 -RA DU SCT011 BKN020 13/12 Q1005 NOSIG",
      "taf": "TAF LMML 201100Z 2012/2112 12027G37KT 5000 DU SCT015"
    },
    {
      "icao": "LOWW",
      "alert": "OK",
      "vis_m": 9999,
      "fzfg": false,
      "metar_trigger": false,
      "taf_trigger": false,
      "metar": "METAR LOWW 201120Z 14019KT 9999 FEW008 SCT010 M04/M07 Q1029 TEMPO BKN010",
      "taf": "TAF LOWW 201115Z 2012/2118 13018KT 9999 FEW005 SCT008 TXM05/2114Z TNM07/2107Z"
    },
    {
      "icao": "LPFR",
      "alert": "OK",
      "vis_m": 9999,
      "fzfg": false,
      "metar_trigger": false,
      "taf_trigger": false,
      "metar": "METAR LPFR 201100Z 25006KT 9999 FEW040 12/08 Q1022",
      "taf": "TAF LPFR 201100Z 2012/2112 25010KT 9999 FEW045"
    },
    {
      "icao": "LPMA",
      "alert": "OK",
      "vis_m": 9999,
      "fzfg": false,
      "metar_trigger": false,
      "taf_trigger": false,
      "metar": "METAR LPMA 201100Z 34008KT 290V020 9999 FEW015 17/06 Q1027",
      "taf": "TAF LPMA 201100Z 2012/2112 34010KT 9999 SCT016"
    },
    {
      "icao": "LPPR",
      "alert": "OK",
      "vis_m": 9999,
      "fzfg": false,
      "metar_trigger": false,
      "taf_trigger": false,
      "metar": "METAR LPPR 201100Z 18013KT 9999 FEW024 BKN043 11/07 Q1018",
      "taf": "TAF LPPR 201100Z 2012/2112 19015KT 8000 -RA SCT008 BKN025"
    },
    {
      "icao": "LPPS",
      "alert": "OK",
      "vis_m": 9999,
      "fzfg": false,
      "metar_trigger": false,
      "taf_trigger": false,
      "metar": "METAR LPPS 201100Z 30005KT 260V330 9999 FEW015 16/07 Q1027",
      "taf": "TAF LPPS 201100Z 2012/2118 34010KT 9999 SCT015 SCT030"
    },
    {
      "icao": "LPPT",
      "alert": "OK",
      "vis_m": 9999,
      "fzfg": false,
      "metar_trigger": false,
      "taf_trigger": false,
      "metar": "METAR LPPT 201100Z 22004KT 190V260 9999 FEW026 12/09 Q1021",
      "taf": "TAF LPPT 201100Z 2012/2118 25010KT 9999 SCT035"
    },
    {
      "icao": "LQBK",
      "alert": "OK",
      "vis_m": 9999,
      "fzfg": false,
      "metar_trigger": false,
      "taf_trigger": false,
      "metar": "METAR LQBK 201100Z VRB03KT 9999 OVC023 M03/M05 Q1031 NOSIG",
      "taf": "TAF LQBK 201100Z 2012/2112 VRB03KT 9999 BKN020 TXM01/2014Z TNM06/2106Z"
    },
    {
      "icao": "LQSA",
      "alert": "OK",
      "vis_m": 7000,
      "fzfg": false,
      "metar_trigger": false,
      "taf_trigger": false,
      "metar": "METAR LQSA 201100Z VRB01KT 7000 OVC012 M04/M07 Q1028 BECMG BKN015",
      "taf": "TAF LQSA 201100Z 2012/2112 VRB02KT 7000 OVC012 TXM00/2112Z TNM09/2106Z"
    },
    {
      "icao": "LQTZ",
      "alert": "OK",
      "vis_m": 7000,
      "fzfg": false,
      "metar_trigger": false,
      "taf_trigger": false,
      "metar": "METAR LQTZ 201100Z VRB02KT 7000 OVC011 M04/M06 Q1031",
      "taf": "TAF LQTZ 201100Z 2012/2112 28005KT 7000 BKN015 TXM02/2014Z TNM09/2105Z"
    },
    {
      "icao": "LRBC",
      "alert": "OK",
      "vis_m": 9999,
      "fzfg": false,
      "metar_trigger": false,
      "taf_trigger": false,
      "metar": "METAR LRBC 201100Z 13003KT CAVOK M02/M08 Q1033",
      "taf": "TAF LRBC 201100Z 2012/2021 15008KT CAVOK"
    },
    {
      "icao": "LRBS",
      "alert": "OK",
      "vis_m": 9000,
      "fzfg": false,
      "metar_trigger": false,
      "taf_trigger": false,
      "metar": "METAR LRBS 201100Z 25008KT 9000 NSC 01/M05 Q1035 NOSIG",
      "taf": "TAF LRBS 201100Z 2012/2112 25008KT CAVOK"
    },
    {
      "icao": "LRBV",
      "alert": "OK",
      "vis_m": 9000,
      "fzfg": false,
      "metar_trigger": false,
      "taf_trigger": false,
      "metar": "METAR LRBV 201100Z VRB02KT 9000 NSC M04/M08 Q1032",
      "taf": "TAF LRBV 201100Z 2012/2021 VRB04KT CAVOK"
    },
    {
      "icao": "LRCL",
      "alert": "OK",
      "vis_m": 8000,
      "fzfg": false,
      "metar_trigger": false,
      "taf_trigger": false,
      "metar": "METAR LRCL 201100Z 08003KT 8000 NSC M09/M11 Q1034",
      "taf": "TAF LRCL 201100Z 2012/2021 VRB04KT CAVOK"
    },
    {
      "icao": "LRCV",
      "alert": "OK",
      "vis_m": 8000,
      "fzfg": false,
      "metar_trigger": false,
      "taf_trigger": false,
      "metar": "METAR LRCV 201100Z VRB02KT 8000 NSC M00/M05 Q1035",
      "taf": "TAF LRCV 201100Z 2012/2021 VRB04KT CAVOK"
    },
    {
      "icao": "LRIA",
      "alert": "OK",
      "vis_m": 6000,
      "fzfg": false,
      "metar_trigger": false,
      "taf_trigger": false,
      "metar": "METAR LRIA 201100Z 07004KT 6000 NSC M07/M11 Q1034",
      "taf": "TAF LRIA 201100Z 2012/2021 VRB04KT 5000 BR NSC"
    },
    {
      "icao": "LROP",
      "alert": "OK",
      "vis_m": 7000,
      "fzfg": false,
      "metar_trigger": false,
      "taf_trigger": false,
      "metar": "METAR LROP 201100Z 25008KT 7000 NSC 01/M07 Q1035 NOSIG",
      "taf": "TAF LROP 201100Z 2012/2112 25008KT CAVOK"
    },
    {
      "icao": "LRSB",
      "alert": "OK",
      "vis_m": 8000,
      "fzfg": false,
      "metar_trigger": false,
      "taf_trigger": false,
      "metar": "METAR LRSB 201100Z 23003KT 8000 NSC M05/M08 Q1032",
      "taf": "TAF LRSB 201100Z 2012/2112 VRB04KT CAVOK"
    },
    {
      "icao": "LRSM",
      "alert": "OK",
      "vis_m": 4000,
      "fzfg": false,
      "metar_trigger": false,
      "taf_trigger": false,
      "metar": "METAR LRSM 201100Z VRB02KT 4000 BR NSC M09/M11 Q1034",
      "taf": "TAF LRSM 201100Z 2012/2021 VRB04KT 3000 BR NSC"
    },
    {
      "icao": "LRSV",
      "alert": "OK",
      "vis_m": 6000,
      "fzfg": false,
      "metar_trigger": false,
      "taf_trigger": false,
      "metar": "METAR LRSV 201100Z VRB02KT 6000 NSC M02/M07 Q1030",
      "taf": "TAF LRSV 201100Z 2012/2021 VRB04KT CAVOK"
    },
    {
      "icao": "LRTM",
      "alert": "OK",
      "vis_m": 2800,
      "fzfg": false,
      "metar_trigger": false,
      "taf_trigger": false,
      "metar": "METAR LRTM 201100Z 00000KT 2800 BR FEW011 M09/M12 Q1034",
      "taf": "TAF LRTM 201100Z 2012/2021 VRB04KT 3000 BR NSC"
    },
    {
      "icao": "LRTR",
      "alert": "OK",
      "vis_m": 9999,
      "fzfg": false,
      "metar_trigger": false,
      "taf_trigger": false,
      "metar": "METAR LRTR 201100Z 11005KT CAVOK M00/M06 Q1033",
      "taf": "TAF LRTR 201100Z 2012/2112 10006KT CAVOK"
    },
    {
      "icao": "LTAC",
      "alert": "OK",
      "vis_m": 9999,
      "fzfg": false,
      "metar_trigger": false,
      "taf_trigger": false,
      "metar": "METAR LTAC 201120Z 06005KT 340V090 9999 FEW040 02/M11 Q1026 NOSIG RMK RWY21C VRB02KT RWY03L 03005KT 330V080 RWY21R VRB02KT RWY03R VRB02KT RWY21L VRB02KT",
      "taf": "TAF LTAC 201040Z 2012/2112 VRB02KT 9999 FEW040"
    },
    {
      "icao": "LTFM",
      "alert": "OK",
      "vis_m": 9999,
      "fzfg": false,
      "metar_trigger": false,
      "taf_trigger": false,
      "metar": "METAR LTFM 201120Z 02015KT 9999 SCT016 BKN028 03/01 Q1033 NOSIG RMK RWY17L 01016KT RWY34L 36015KT RWY16R 01013KT RWY36 01016KT RWY18 02014KT",
      "taf": "TAF LTFM 201040Z 2012/2118 04014KT 9999 SCT016 BKN032"
    },
    {
      "icao": "LUKK",
      "alert": "OK",
      "vis_m": 8000,
      "fzfg": false,
      "metar_trigger": false,
      "taf_trigger": false,
      "metar": "METAR LUKK 201100Z 11003KT 8000 NSC M07/M12 Q1034 NOSIG",
      "taf": "TAF LUKK 201102Z 2012/2112 VRB05KT CAVOK"
    },
    {
      "icao": "LWOH",
      "alert": "OK",
      "vis_m": 9999,
      "fzfg": false,
      "metar_trigger": false,
      "taf_trigger": false,
      "metar": "METAR LWOH 201120Z 04007KT 340V110 9999 FEW033 03/M06 Q1026",
      "taf": "TAF LWOH 201125Z 2012/2112 04012KT 9999 SCT035"
    },
    {
      "icao": "LWSK",
      "alert": "OK",
      "vis_m": 9999,
      "fzfg": false,
      "metar_trigger": false,
      "taf_trigger": false,
      "metar": "METAR LWSK 201120Z VRB01KT CAVOK 04/M04 Q1032 NOSIG",
      "taf": "TAF LWSK 201125Z 2012/2112 VRB02KT CAVOK"
    },
    {
      "icao": "LYBE",
      "alert": "OK",
      "vis_m": 9999,
      "fzfg": false,
      "metar_trigger": false,
      "taf_trigger": false,
      "metar": "METAR LYBE 201100Z 13012KT CAVOK 02/M07 Q1032 NOSIG",
      "taf": "TAF LYBE 201100Z 2012/2112 12012KT CAVOK TX05/2112Z TNM05/2106Z"
    },
    {
      "icao": "LYNI",
      "alert": "OK",
      "vis_m": 9999,
      "fzfg": false,
      "metar_trigger": false,
      "taf_trigger": false,
      "metar": "METAR LYNI 201100Z 21003KT 140V260 CAVOK 01/M05 Q1032 NOSIG",
      "taf": "TAF LYNI 201100Z 2012/2112 08006KT CAVOK TX05/2112Z TNM08/2106Z"
    },
    {
      "icao": "LYPG",
      "alert": "OK",
      "vis_m": 9999,
      "fzfg": false,
      "metar_trigger": false,
      "taf_trigger": false,
      "metar": "METAR LYPG 201100Z VRB01KT CAVOK 07/M06 Q1025 NOSIG",
      "taf": "TAF LYPG 201100Z 2012/2112 16005KT CAVOK TX10/2013Z TN00/2023Z"
    },
    {
      "icao": "LZIB",
      "alert": "OK",
      "vis_m": 8000,
      "fzfg": false,
      "metar_trigger": false,
      "taf_trigger": false,
      "metar": "METAR LZIB 201130Z 11010KT 8000 SCT011 M03/M06 Q1031 NOSIG",
      "taf": "TAF LZIB 201115Z 2012/2112 11009KT 8000 SCT010"
    },
    {
      "icao": "LZKZ",
      "alert": "OK",
      "vis_m": 3200,
      "fzfg": false,
      "metar_trigger": false,
      "taf_trigger": false,
      "metar": "METAR LZKZ 201130Z 10002KT 3200 BR NSC M09/M11 Q1033 NOSIG",
      "taf": "TAF LZKZ 201115Z 2012/2112 22004KT 6000 NSC"
    },
    {
      "icao": "LZTT",
      "alert": "OK",
      "vis_m": 9999,
      "fzfg": false,
      "metar_trigger": false,
      "taf_trigger": false,
      "metar": "METAR LZTT 201130Z VRB02KT CAVOK M02/M08 Q1027 NOSIG",
      "taf": "TAF LZTT 201115Z 2012/2112 VRB02KT CAVOK"
    },
    {
      "icao": "OEJN",
      "alert": "OK",
      "vis_m": 9999,
      "fzfg": false,
      "metar_trigger": false,
      "taf_trigger": false,
      "metar": "METAR OEJN 201100Z 34007KT CAVOK 30/06 Q1013 NOSIG",
      "taf": "TAF OEJN 201100Z 2012/2118 34014KT 7000 FEW040"
    },
    {
      "icao": "OEMA",
      "alert": "OK",
      "vis_m": 9999,
      "fzfg": false,
      "metar_trigger": false,
      "taf_trigger": false,
      "metar": "METAR OEMA 201100Z 23005KT CAVOK 24/M06 Q1017 NOSIG",
      "taf": "TAF OEMA 201100Z 2012/2118 30010KT CAVOK"
    },
    {
      "icao": "OJAI",
      "alert": "OK",
      "vis_m": 5000,
      "fzfg": false,
      "metar_trigger": false,
      "taf_trigger": false,
      "metar": "METAR OJAI 201100Z 29008KT 5000 HZ SCT030 10/M01 Q1021 NOSIG",
      "taf": "TAF OJAI 201100Z 2012/2118 07010KT 5000 HZ SCT030"
    },
    {
      "icao": "OMAA",
      "alert": "OK",
      "vis_m": 9999,
      "fzfg": false,
      "metar_trigger": false,
      "taf_trigger": false,
      "metar": "METAR OMAA 201100Z 29010KT CAVOK 25/09 Q1013 NOSIG",
      "taf": "TAF OMAA 201100Z 2012/2118 30010KT 8000 NSC"
    },
    {
      "icao": "OMDB",
      "alert": "OK",
      "vis_m": 9999,
      "fzfg": false,
      "metar_trigger": false,
      "taf_trigger": false,
      "metar": "METAR OMDB 201130Z 27010KT 180V310 CAVOK 26/09 Q1013 NOSIG",
      "taf": "TAF OMDB 201100Z 2012/2118 29012KT 8000 NSC"
    },
    {
      "icao": "UAAA",
      "alert": "OK",
      "vis_m": 5000,
      "fzfg": false,
      "metar_trigger": false,
      "taf_trigger": false,
      "metar": "METAR UAAA 201100Z 02003MPS 5000 BR FEW100 SCT200 M05/M08 Q1024 NOSIG",
      "taf": "TAF UAAA 201101Z 2012/2112 16003MPS 1000 BR FU SCT020 BKN100 TXM05/2108Z TNM15/2102Z"
    },
    {
      "icao": "UBBB",
      "alert": "OK",
      "vis_m": 9999,
      "fzfg": false,
      "metar_trigger": false,
      "taf_trigger": false,
      "metar": "METAR UBBB 201130Z 35024KT 9999 OVC029 04/00 Q1020 NOSIG",
      "taf": "TAF UBBB 201055Z 2012/2112 35020G30KT 8000 SCT010 OVC025 TX03/2012Z TN01/2101Z"
    },
    {
      "icao": "UDSG",
      "alert": "OK",
      "vis_m": 9999,
      "fzfg": false,
      "metar_trigger": false,
      "taf_trigger": false,
      "metar": "METAR UDSG 201100Z 01009KT 9999 SCT040 M03/M10 Q1014 NOSIG",
      "taf": "TAF UDSG 201058Z 2012/2112 36006KT 9999 BKN040"
    },
    {
      "icao": "UDYZ",
      "alert": "OK",
      "vis_m": 9999,
      "fzfg": false,
      "metar_trigger": false,
      "taf_trigger": false,
      "metar": "METAR UDYZ 201100Z VRB01KT 9999 BKN046 01/M05 Q1015 NOSIG",
      "taf": "TAF UDYZ 201100Z 2012/2112 VRB06KT 6000 SCT040"
    },
    {
      "icao": "UGKO",
      "alert": "OK",
      "vis_m": 9999,
      "fzfg": false,
      "metar_trigger": false,
      "taf_trigger": false,
      "metar": "METAR UGKO 201100Z VRB02KT 9999 SCT030 BKN046 06/00 Q1021 NOSIG",
      "taf": "TAF UGKO 201100Z 2012/2112 26007KT 9999 SCT020 BKN045 TX06/2012Z TN01/2106Z"
    }
  ]
}