{
  "ts_utc": "2026-02-21T14:48:06Z",
  "threshold_m": 150,
  "source": "stations_override.txt (ICAO list) + aviationweather.gov (METAR/TAF raw)",
  "station_count": 159,
  "stations": [
    {
      "icao": "BIKF",
      "alert": "OK",
      "vis_m": 9999,
      "fzfg": false,
      "metar_trigger": false,
      "taf_trigger": false,
      "metar": "METAR BIKF 211430Z 07022KT CAVOK 01/M05 Q1001",
      "taf": "TAF BIKF 211357Z 2115/2215 07015KT CAVOK TX02/2208Z TNM01/2123Z"
    },
    {
      "icao": "BKPR",
      "alert": "OK",
      "vis_m": 9999,
      "fzfg": false,
      "metar_trigger": false,
      "taf_trigger": false,
      "metar": "METAR BKPR 211430Z 02010KT 9999 SCT020 BKN040 02/M01 Q1020 NOSIG",
      "taf": "TAF BKPR 211130Z 2112/2212 03012KT 9999 SCT020 BKN040"
    },
    {
      "icao": "EBCI",
      "alert": "OK",
      "vis_m": 9999,
      "fzfg": false,
      "metar_trigger": false,
      "taf_trigger": false,
      "metar": "METAR EBCI 211420Z 25016KT 9999 FEW015 BKN018 10/08 Q1022 TEMPO 25016G27KT",
      "taf": "TAF EBCI 211120Z 2112/2218 24010KT 9999 SCT012 BKN020"
    },
    {
      "icao": "EDDB",
      "alert": "OK",
      "vis_m": 9999,
      "fzfg": false,
      "metar_trigger": false,
      "taf_trigger": false,
      "metar": "METAR EDDB 211420Z AUTO 25012KT 9999 FEW027 SCT044 09/06 Q1015 NOSIG",
      "taf": "TAF EDDB 211100Z 2112/2212 25012G22KT 9999 BKN020"
    },
    {
      "icao": "EDDH",
      "alert": "OK",
      "vis_m": 6000,
      "fzfg": false,
      "metar_trigger": false,
      "taf_trigger": false,
      "metar": "METAR EDDH 211420Z AUTO 26010KT 220V300 6000 -SHRA OVC010 FEW///TCU 07/06 Q1014 RESHRA NOSIG",
      "taf": "TAF EDDH 211100Z 2112/2218 25012KT 9999 OVC012"
    },
    {
      "icao": "EDDK",
      "alert": "OK",
      "vis_m": 3800,
      "fzfg": false,
      "metar_trigger": false,
      "taf_trigger": false,
      "metar": "METAR EDDK 211420Z AUTO 21005KT 3800 -RADZ BR BKN004 OVC008 09/09 Q1020 TEMPO 2500",
      "taf": ""
    },
    {
      "icao": "EDDN",
      "alert": "OK",
      "vis_m": 9999,
      "fzfg": false,
      "metar_trigger": false,
      "taf_trigger": false,
      "metar": "METAR EDDN 211420Z AUTO 26014KT 9999 FEW020 SCT042 08/04 Q1021 NOSIG",
      "taf": "TAF EDDN 211100Z 2112/2212 26010KT 9999 BKN015 BKN025"
    },
    {
      "icao": "EDDS",
      "alert": "OK",
      "vis_m": 8000,
      "fzfg": false,
      "metar_trigger": false,
      "taf_trigger": false,
      "metar": "METAR EDDS 211420Z AUTO 23005KT 170V270 8000 -SHRA SCT019 BKN036 BKN043 FEW///TCU 08/07 Q1022 TEMPO SHRA",
      "taf": "TAF EDDS 211100Z 2112/2212 22006KT 9999 BKN025"
    },
    {
      "icao": "EDFH",
      "alert": "OK",
      "vis_m": 4000,
      "fzfg": false,
      "metar_trigger": false,
      "taf_trigger": false,
      "metar": "METAR EDFH 211420Z 27013KT 4000 -RA BR FEW001 OVC002 07/07 Q1021",
      "taf": "TAF EDFH 211100Z 2112/2212 26012KT 8000 BKN012"
    },
    {
      "icao": "EDJA",
      "alert": "OK",
      "vis_m": 9999,
      "fzfg": false,
      "metar_trigger": false,
      "taf_trigger": false,
      "metar": "METAR EDJA 211420Z 24017G29KT 9999 -RA BKN008 BKN013 OVC017 06/04 Q1023",
      "taf": "TAF EDJA 211400Z 2115/2124 24015KT 9999 OVC011"
    },
    {
      "icao": "EDLW",
      "alert": "OK",
      "vis_m": 8000,
      "fzfg": false,
      "metar_trigger": false,
      "taf_trigger": false,
      "metar": "METAR EDLW 211420Z COR 23011KT 8000 -DZ SCT014 BKN015 OVC022 09/07 Q1018",
      "taf": "TAF EDLW 211100Z 2112/2212 25012KT 9999 BKN020"
    },
    {
      "icao": "EDNY",
      "alert": "OK",
      "vis_m": 9999,
      "fzfg": false,
      "metar_trigger": false,
      "taf_trigger": false,
      "metar": "METAR EDNY 211420Z 24010KT 9999 OVC017 08/06 Q1025",
      "taf": "TAF EDNY 211400Z 2115/2124 24012KT 8000 OVC015"
    },
    {
      "icao": "EDSB",
      "alert": "OK",
      "vis_m": 9999,
      "fzfg": false,
      "metar_trigger": false,
      "taf_trigger": false,
      "metar": "METAR EDSB 211420Z 20012KT 9999 -RA BKN028 OVC034 09/08 Q1024",
      "taf": "TAF EDSB 211100Z 2112/2212 21012KT 9999 BKN025"
    },
    {
      "icao": "EETN",
      "alert": "OK",
      "vis_m": 9999,
      "fzfg": false,
      "metar_trigger": false,
      "taf_trigger": false,
      "metar": "METAR EETN 211420Z 20013KT 9999 SCT025 M03/M06 Q1007 NOSIG",
      "taf": ""
    },
    {
      "icao": "EFTU",
      "alert": "OK",
      "vis_m": 2500,
      "fzfg": false,
      "metar_trigger": false,
      "taf_trigger": false,
      "metar": "METAR EFTU 211420Z AUTO 21012G24KT 2500 -SN OVC003 M00/M00 Q1001 REFZRA",
      "taf": "TAF EFTU 211427Z 2115/2215 21012G24KT 3000 -SN OVC003"
    },
    {
      "icao": "EGBB",
      "alert": "OK",
      "vis_m": 9999,
      "fzfg": false,
      "metar_trigger": false,
      "taf_trigger": false,
      "metar": "METAR EGBB 211420Z 19007KT 150V260 9999 BKN011 12/10 Q1016",
      "taf": "TAF EGBB 211102Z 2112/2212 23012KT 9999 FEW012 SCT022"
    },
    {
      "icao": "EGGP",
      "alert": "OK",
      "vis_m": 9999,
      "fzfg": false,
      "metar_trigger": false,
      "taf_trigger": false,
      "metar": "METAR EGGP 211420Z 24010KT 9999 BKN026 12/08 Q1014",
      "taf": "TAF EGGP 211105Z 2112/2212 23009KT 9999 SCT030"
    },
    {
      "icao": "EGGW",
      "alert": "OK",
      "vis_m": 9999,
      "fzfg": false,
      "metar_trigger": false,
      "taf_trigger": false,
      "metar": "METAR EGGW 211420Z AUTO 23015KT 9999 BKN013 12/10 Q1017",
      "taf": "TAF EGGW 211054Z 2112/2212 25016KT 9999 SCT012 BKN015"
    },
    {
      "icao": "EGKK",
      "alert": "OK",
      "vis_m": 9999,
      "fzfg": false,
      "metar_trigger": false,
      "taf_trigger": false,
      "metar": "METAR EGKK 211420Z 21008KT 9999 BKN006 12/11 Q1019",
      "taf": ""
    },
    {
      "icao": "EGNM",
      "alert": "OK",
      "vis_m": 9999,
      "fzfg": false,
      "metar_trigger": false,
      "taf_trigger": false,
      "metar": "METAR EGNM 211420Z 23014KT 9999 SCT023 12/06 Q1013",
      "taf": ""
    },
    {
      "icao": "EGPD",
      "alert": "OK",
      "vis_m": 1000,
      "fzfg": false,
      "metar_trigger": false,
      "taf_trigger": false,
      "metar": "METAR EGPD 211420Z AUTO 11005KT 1000 R16/P1500D BR OVC002 05/05 Q1009 TEMPO 2000",
      "taf": ""
    },
    {
      "icao": "EGPF",
      "alert": "OK",
      "vis_m": 6000,
      "fzfg": false,
      "metar_trigger": false,
      "taf_trigger": false,
      "metar": "METAR EGPF 211420Z AUTO 22012KT 6000 -RA BKN010 OVC043 09/08 Q1009",
      "taf": "TAF EGPF 211057Z 2112/2212 22012KT 9999 BKN030"
    },
    {
      "icao": "EHBK",
      "alert": "OK",
      "vis_m": 7000,
      "fzfg": false,
      "metar_trigger": false,
      "taf_trigger": false,
      "metar": "METAR EHBK 211425Z AUTO 24010KT 200V290 7000 FEW003 SCT007 BKN009 10/10 Q1020 BECMG 9999 BKN017",
      "taf": "TAF EHBK 211118Z 2112/2218 23009KT 7000 -RADZ BKN006"
    },
    {
      "icao": "EHEH",
      "alert": "OK",
      "vis_m": 2200,
      "fzfg": false,
      "metar_trigger": false,
      "taf_trigger": false,
      "metar": "METAR EHEH 211425Z AUTO 24008KT 200V270 2200 R21/2000D DZ FEW003 BKN005 BKN006 10/10 Q1019 YLO BECMG 6000 NSW SCT010 BKN015 RMK TREND REMOTE BY EHWX",
      "taf": "TAF EHEH 211125Z 2112/2218 24010KT 6000 BKN006 OVC008"
    },
    {
      "icao": "EKBI",
      "alert": "OK",
      "vis_m": 9999,
      "fzfg": false,
      "metar_trigger": false,
      "taf_trigger": false,
      "metar": "METAR EKBI 211420Z AUTO 27014KT 9999 -DZ OVC005/// 04/03 Q1009",
      "taf": "TAF EKBI 211427Z 2115/2215 25010KT 6000 SCT006 BKN015"
    },
    {
      "icao": "EKCH",
      "alert": "OK",
      "vis_m": 4000,
      "fzfg": false,
      "metar_trigger": false,
      "taf_trigger": false,
      "metar": "METAR EKCH 211420Z 24011KT 4000 BR OVC005 03/03 Q1007 TEMPO 2000 BKN004",
      "taf": "TAF EKCH 211427Z 2115/2215 24010KT 2000 -RADZ BR BKN003"
    },
    {
      "icao": "ENAL",
      "alert": "OK",
      "vis_m": 9999,
      "fzfg": false,
      "metar_trigger": false,
      "taf_trigger": false,
      "metar": "METAR ENAL 211420Z 04005KT 010V130 9999 -SNRA FEW005TCU SCT017 BKN037 02/M01 Q1007",
      "taf": "TAF ENAL 211400Z 2115/2124 28008KT 9999 FEW015 SCT045"
    },
    {
      "icao": "ENBR",
      "alert": "OK",
      "vis_m": 9999,
      "fzfg": false,
      "metar_trigger": false,
      "taf_trigger": false,
      "metar": "METAR ENBR 211420Z 32010KT 9999 SCT021 05/00 Q1007 NOSIG RMK WIND 1200FT 33015KT",
      "taf": "TAF ENBR 211100Z 2112/2212 34012KT 9999 FEW020"
    },
    {
      "icao": "ENGM",
      "alert": "OK",
      "vis_m": 9999,
      "fzfg": false,
      "metar_trigger": false,
      "taf_trigger": false,
      "metar": "METAR ENGM 211420Z 36005KT 330V040 CAVOK 01/M04 Q1001 NOSIG",
      "taf": ""
    },
    {
      "icao": "ENHD",
      "alert": "OK",
      "vis_m": 9999,
      "fzfg": false,
      "metar_trigger": false,
      "taf_trigger": false,
      "metar": "METAR ENHD 211420Z 31011KT 9999 FEW043 04/M00 Q1007",
      "taf": "TAF ENHD 211400Z 2115/2123 34012KT 9999 FEW040"
    },
    {
      "icao": "ENTC",
      "alert": "OK",
      "vis_m": 9999,
      "fzfg": false,
      "metar_trigger": false,
      "taf_trigger": false,
      "metar": "METAR ENTC 211420Z 20009KT 9999 -SHSN BKN010 M07/M09 Q0998 TEMPO SCT010 BKN030 RMK WIND 2600FT 30014KT",
      "taf": "TAF ENTC 211100Z 2112/2212 18012KT 9999 SCT020 BKN030"
    },
    {
      "icao": "ENTO",
      "alert": "OK",
      "vis_m": 9999,
      "fzfg": false,
      "metar_trigger": false,
      "taf_trigger": false,
      "metar": "METAR ENTO 211420Z 36007KT 9999 FEW004 SCT032 BKN041 02/02 Q1001 NOSIG",
      "taf": ""
    },
    {
      "icao": "ENVA",
      "alert": "OK",
      "vis_m": 9999,
      "fzfg": false,
      "metar_trigger": false,
      "taf_trigger": false,
      "metar": "METAR ENVA 211420Z 09003KT 9999 VCSH FEW016 SCT045 BKN057 01/M01 Q1003 TEMPO 33012KT 0900 SHSN VV009 RMK WIND 670FT 25007KT",
      "taf": "TAF ENVA 211100Z 2112/2212 27008KT 9999 FEW020 SCT040"
    },
    {
      "icao": "ENZV",
      "alert": "OK",
      "vis_m": 9999,
      "fzfg": false,
      "metar_trigger": false,
      "taf_trigger": false,
      "metar": "METAR ENZV 211420Z 33011KT 9999 FEW020 06/01 Q1008 NOSIG",
      "taf": "TAF ENZV 211100Z 2112/2212 33012KT 9999 FEW008 SCT040"
    },
    {
      "icao": "EPGD",
      "alert": "OK",
      "vis_m": 8000,
      "fzfg": false,
      "metar_trigger": false,
      "taf_trigger": false,
      "metar": "METAR EPGD 211430Z 22008KT 180V240 8000 OVC007 M00/M02 Q1010 REFZDZ",
      "taf": "TAF EPGD 211130Z 2112/2212 20012KT 6000 OVC012"
    },
    {
      "icao": "EPKK",
      "alert": "OK",
      "vis_m": 9999,
      "fzfg": false,
      "metar_trigger": false,
      "taf_trigger": false,
      "metar": "METAR EPKK 211430Z 25009KT 9999 OVC019 03/M00 Q1018",
      "taf": "TAF EPKK 211430Z 2115/2215 27010KT 9999 OVC020"
    },
    {
      "icao": "EPKT",
      "alert": "OK",
      "vis_m": 9999,
      "fzfg": false,
      "metar_trigger": false,
      "taf_trigger": false,
      "metar": "METAR EPKT 211430Z 21010KT 9999 FEW011 BKN014 01/M01 Q1018",
      "taf": ""
    },
    {
      "icao": "EPLB",
      "alert": "OK",
      "vis_m": 9999,
      "fzfg": false,
      "metar_trigger": false,
      "taf_trigger": false,
      "metar": "METAR EPLB 211430Z 16006KT CAVOK 01/M06 Q1018",
      "taf": "TAF EPLB 211130Z 2112/2212 17008KT CAVOK"
    },
    {
      "icao": "EPMO",
      "alert": "OK",
      "vis_m": 1300,
      "fzfg": false,
      "metar_trigger": false,
      "taf_trigger": false,
      "metar": "METAR EPMO 211430Z 16009KT 1300 R08/1500N -SN BR OVC012 M01/M02 Q1016",
      "taf": ""
    },
    {
      "icao": "EPPO",
      "alert": "OK",
      "vis_m": 9999,
      "fzfg": false,
      "metar_trigger": false,
      "taf_trigger": false,
      "metar": "METAR EPPO 211430Z 25008KT 9999 -RA OVC005 05/04 Q1014",
      "taf": "TAF EPPO 211130Z 2112/2212 20009KT 5000 -DZRA BR OVC005"
    },
    {
      "icao": "EPRA",
      "alert": "OK",
      "vis_m": 9999,
      "fzfg": false,
      "metar_trigger": false,
      "taf_trigger": false,
      "metar": "METAR EPRA 211430Z 17004KT 140V210 9999 SCT040 03/M07 Q1017",
      "taf": "TAF EPRA 211430Z 2115/2124 19010KT 7000 -SN BKN030"
    },
    {
      "icao": "EPRZ",
      "alert": "OK",
      "vis_m": 9999,
      "fzfg": false,
      "metar_trigger": false,
      "taf_trigger": false,
      "metar": "METAR EPRZ 211430Z 09005KT CAVOK 01/M05 Q1019",
      "taf": "TAF EPRZ 211130Z 2112/2212 09010KT 9999 BKN033"
    },
    {
      "icao": "EPSC",
      "alert": "OK",
      "vis_m": 9999,
      "fzfg": false,
      "metar_trigger": false,
      "taf_trigger": false,
      "metar": "METAR EPSC 211430Z 23008KT 200V260 9999 -RA BKN006 05/05 Q1012",
      "taf": "TAF EPSC 211130Z 2112/2212 21006KT 6000 BKN005 OVC010"
    },
    {
      "icao": "EPSY",
      "alert": "OK",
      "vis_m": 3800,
      "fzfg": false,
      "metar_trigger": false,
      "taf_trigger": false,
      "metar": "METAR EPSY 211430Z 18008KT 3800 -SN BKN015 OVC018 M04/M06 Q1014",
      "taf": "TAF EPSY 211430Z 2115/2124 19010KT 6000 -SN OVC013"
    },
    {
      "icao": "EPWA",
      "alert": "OK",
      "vis_m": 5000,
      "fzfg": false,
      "metar_trigger": false,
      "taf_trigger": false,
      "metar": "METAR EPWA 211430Z 17008KT 5000 -SN BR OVC018 00/M03 Q1016 TEMPO 4000 -SN BR BKN012",
      "taf": "TAF EPWA 211430Z 2115/2215 19008KT 9999 -SN BKN020"
    },
    {
      "icao": "EPWR",
      "alert": "OK",
      "vis_m": 9999,
      "fzfg": false,
      "metar_trigger": false,
      "taf_trigger": false,
      "metar": "METAR EPWR 211430Z 23004KT 9999 FEW027 SCT048 05/02 Q1017",
      "taf": "TAF EPWR 211430Z 2115/2215 27012KT 9999 BKN020"
    },
    {
      "icao": "ESGG",
      "alert": "OK",
      "vis_m": 300,
      "fzfg": false,
      "metar_trigger": false,
      "taf_trigger": false,
      "metar": "METAR ESGG 211420Z 20009KT 0300 R03/0650D R21/0800N FG VV002 01/01 Q1002",
      "taf": "TAF ESGG 211430Z 2115/2215 20010KT 6000 -RA OVC002"
    },
    {
      "icao": "ESKN",
      "alert": "OK",
      "vis_m": 9000,
      "fzfg": false,
      "metar_trigger": false,
      "taf_trigger": false,
      "metar": "METAR ESKN 211420Z 19007KT 9000 -DZ OVC013 02/M00 Q1001",
      "taf": "TAF ESKN 211430Z 2115/2215 20007KT 9999 SCT010 BKN025"
    },
    {
      "icao": "ESMS",
      "alert": "OK",
      "vis_m": 500,
      "fzfg": false,
      "metar_trigger": false,
      "taf_trigger": false,
      "metar": "METAR ESMS 211420Z 25013KT 0500 R17/0900U R35/0800N FG OVC002 03/03 Q1006",
      "taf": "TAF ESMS 211427Z 2115/2215 25010KT 1200 -RADZ BR BKN002"
    },
    {
      "icao": "ESSA",
      "alert": "OK",
      "vis_m": 9999,
      "fzfg": false,
      "metar_trigger": false,
      "taf_trigger": false,
      "metar": "METAR ESSA 211420Z 18014KT 9999 OVC011 00/M02 Q1000 TEMPO BKN008",
      "taf": "TAF ESSA 211430Z 2115/2215 18011KT 9999 OVC013"
    },
    {
      "icao": "EYKA",
      "alert": "OK",
      "vis_m": 9999,
      "fzfg": false,
      "metar_trigger": false,
      "taf_trigger": false,
      "metar": "METAR EYKA 211420Z 20010KT 150V240 CAVOK M01/M10 Q1013",
      "taf": "TAF EYKA 211109Z 2112/2212 17010KT 9000 NSC"
    },
    {
      "icao": "EYPA",
      "alert": "OK",
      "vis_m": 9999,
      "fzfg": false,
      "metar_trigger": false,
      "taf_trigger": false,
      "metar": "METAR EYPA 211420Z 18015KT 9999 OVC020 M03/M08 Q1010",
      "taf": "TAF EYPA 211106Z 2112/2212 17013G23KT 9000 OVC015"
    },
    {
      "icao": "EYVI",
      "alert": "OK",
      "vis_m": 9999,
      "fzfg": false,
      "metar_trigger": false,
      "taf_trigger": false,
      "metar": "METAR EYVI 211420Z 18015KT CAVOK M01/M10 Q1014 NOSIG",
      "taf": "TAF EYVI 211100Z 2112/2212 18012KT 9000 NSC"
    },
    {
      "icao": "GCFV",
      "alert": "OK",
      "vis_m": 9999,
      "fzfg": false,
      "metar_trigger": false,
      "taf_trigger": false,
      "metar": "METAR GCFV 211430Z 03009KT 9999 FEW010 20/15 Q1022",
      "taf": "TAF GCFV 211400Z 2115/2215 04010KT 9999 FEW014 TX25/2214Z TN18/2206Z"
    },
    {
      "icao": "GCLP",
      "alert": "OK",
      "vis_m": 9999,
      "fzfg": false,
      "metar_trigger": false,
      "taf_trigger": false,
      "metar": "METAR GCLP 211430Z 03017KT 9999 FEW020 21/15 Q1022 NOSIG",
      "taf": "TAF GCLP 211400Z 2115/2215 03018KT 9999 FEW020 TX26/2214Z TN18/2206Z"
    },
    {
      "icao": "GCTS",
      "alert": "OK",
      "vis_m": 9999,
      "fzfg": false,
      "metar_trigger": false,
      "taf_trigger": false,
      "metar": "METAR GCTS 211430Z 10017KT CAVOK 22/14 Q1021 NOSIG",
      "taf": "TAF GCTS 211400Z 2115/2215 09015KT CAVOK TX28/2214Z TN18/2206Z"
    },
    {
      "icao": "GMAD",
      "alert": "OK",
      "vis_m": 9999,
      "fzfg": false,
      "metar_trigger": false,
      "taf_trigger": false,
      "metar": "METAR GMAD 211430Z 26004KT 210V300 CAVOK 34/02 Q1021 NOSIG",
      "taf": "TAF GMAD 211100Z 2112/2218 08006KT CAVOK"
    },
    {
      "icao": "GMMN",
      "alert": "OK",
      "vis_m": 9999,
      "fzfg": false,
      "metar_trigger": false,
      "taf_trigger": false,
      "metar": "METAR GMMN 211430Z 29004KT 230V340 CAVOK 25/18 Q1023 NOSIG",
      "taf": "TAF GMMN 211100Z 2112/2218 VRB02KT CAVOK"
    },
    {
      "icao": "GMMX",
      "alert": "OK",
      "vis_m": 9999,
      "fzfg": false,
      "metar_trigger": false,
      "taf_trigger": false,
      "metar": "METAR GMMX 211430Z 03006KT 320V080 CAVOK 30/03 Q1023 NOSIG",
      "taf": "TAF GMMX 211100Z 2112/2218 06006KT 8000 NSC"
    },
    {
      "icao": "HEGN",
      "alert": "OK",
      "vis_m": 9999,
      "fzfg": false,
      "metar_trigger": false,
      "taf_trigger": false,
      "metar": "METAR HEGN 211400Z 36012KT CAVOK 24/12 Q1013 NOSIG",
      "taf": "TAF HEGN 211100Z 2112/2218 34015KT CAVOK"
    },
    {
      "icao": "HEMA",
      "alert": "OK",
      "vis_m": 9999,
      "fzfg": false,
      "metar_trigger": false,
      "taf_trigger": false,
      "metar": "METAR HEMA 211400Z 35013KT CAVOK 24/13 Q1012 NOSIG",
      "taf": "TAF HEMA 211100Z 2112/2218 35016KT CAVOK"
    },
    {
      "icao": "HESH",
      "alert": "OK",
      "vis_m": null,
      "fzfg": false,
      "metar_trigger": false,
      "taf_trigger": false,
      "metar": "",
      "taf": "TAF HESH 211100Z 2112/2218 01014KT CAVOK"
    },
    {
      "icao": "HESX",
      "alert": "OK",
      "vis_m": 9999,
      "fzfg": false,
      "metar_trigger": false,
      "taf_trigger": false,
      "metar": "METAR HESX 211400Z 32010KT CAVOK 20/05 Q1016 NOSIG",
      "taf": "TAF HESX 211100Z 2112/2218 30006KT 6000 NSC"
    },
    {
      "icao": "LATI",
      "alert": "OK",
      "vis_m": 9999,
      "fzfg": false,
      "metar_trigger": false,
      "taf_trigger": false,
      "metar": "METAR LATI 211420Z 32014KT 290V350 9999 FEW030 15/05 Q1015 NOSIG",
      "taf": "TAF LATI 211100Z 2112/2212 33010KT 9999 FEW050 TX15/2112Z TN03/2205Z"
    },
    {
      "icao": "LBPD",
      "alert": "OK",
      "vis_m": 9999,
      "fzfg": false,
      "metar_trigger": false,
      "taf_trigger": false,
      "metar": "METAR LBPD 211430Z AUTO 31011KT 9999 -RA OVC022/// 04/04 Q1018 NOSIG",
      "taf": "TAF LBPD 211100Z 2112/2212 29014KT 5000 RA BKN008 OVC020"
    },
    {
      "icao": "LBSF",
      "alert": "OK",
      "vis_m": 8000,
      "fzfg": false,
      "metar_trigger": false,
      "taf_trigger": false,
      "metar": "METAR LBSF 211430Z 32006KT 8000 -SN FEW016 BKN038 OVC050 M02/M04 Q1019 NOSIG",
      "taf": "TAF LBSF 211100Z 2112/2212 02010KT 5000 -SN SCT012 BKN030"
    },
    {
      "icao": "LBWN",
      "alert": "OK",
      "vis_m": 7000,
      "fzfg": false,
      "metar_trigger": false,
      "taf_trigger": false,
      "metar": "METAR LBWN 211430Z 34009KT 300V040 7000 OVC007 01/01 Q1020 NOSIG",
      "taf": "TAF LBWN 211100Z 2112/2212 36014G26KT 9999 OVC008"
    },
    {
      "icao": "LCLK",
      "alert": "OK",
      "vis_m": 9999,
      "fzfg": false,
      "metar_trigger": false,
      "taf_trigger": false,
      "metar": "METAR LCLK 211430Z 17005KT 9999 FEW030 20/15 Q1013 NOSIG",
      "taf": "TAF LCLK 211130Z 2112/2212 11008KT 9999 FEW025"
    },
    {
      "icao": "LCPH",
      "alert": "OK",
      "vis_m": 9999,
      "fzfg": false,
      "metar_trigger": false,
      "taf_trigger": false,
      "metar": "METAR LCPH 211430Z 32014KT 9999 FEW030 BKN040 18/11 Q1014 NOSIG",
      "taf": "TAF LCPH 211130Z 2112/2212 28014KT 9999 FEW020"
    },
    {
      "icao": "LEAL",
      "alert": "OK",
      "vis_m": 9999,
      "fzfg": false,
      "metar_trigger": false,
      "taf_trigger": false,
      "metar": "METAR LEAL 211430Z 18004KT 110V240 CAVOK 20/06 Q1030 NOSIG",
      "taf": "TAF LEAL 211100Z 2112/2212 16007KT CAVOK TX19/2113Z TN05/2206Z"
    },
    {
      "icao": "LEBB",
      "alert": "OK",
      "vis_m": 9999,
      "fzfg": false,
      "metar_trigger": false,
      "taf_trigger": false,
      "metar": "METAR LEBB 211430Z 33003KT 280V020 CAVOK 18/07 Q1029 NOSIG",
      "taf": "TAF LEBB 211100Z 2112/2212 12005KT CAVOK TX18/2115Z TN05/2207Z"
    },
    {
      "icao": "LEBL",
      "alert": "OK",
      "vis_m": 9999,
      "fzfg": false,
      "metar_trigger": false,
      "taf_trigger": false,
      "metar": "METAR LEBL 211430Z 22010KT 190V250 CAVOK 15/07 Q1029 NOSIG",
      "taf": "TAF LEBL 211100Z 2112/2212 22010KT 9999 FEW020 TX16/2113Z TN06/2207Z"
    },
    {
      "icao": "LECH",
      "alert": "OK",
      "vis_m": 9999,
      "fzfg": false,
      "metar_trigger": false,
      "taf_trigger": false,
      "metar": "METAR LECH 211430Z AUTO 12009KT CAVOK 15/10 Q1029",
      "taf": ""
    },
    {
      "icao": "LEMD",
      "alert": "OK",
      "vis_m": 9999,
      "fzfg": false,
      "metar_trigger": false,
      "taf_trigger": false,
      "metar": "METAR LEMD 211430Z 11001KT CAVOK 18/M02 Q1029 NOSIG",
      "taf": "TAF LEMD 211100Z 2112/2218 VRB04KT CAVOK TX17/2115Z TN01/2207Z"
    },
    {
      "icao": "LEMG",
      "alert": "OK",
      "vis_m": 9999,
      "fzfg": false,
      "metar_trigger": false,
      "taf_trigger": false,
      "metar": "METAR LEMG 211430Z 14006KT 100V170 CAVOK 16/08 Q1029 NOSIG",
      "taf": "TAF LEMG 211100Z 2112/2212 29005KT CAVOK TX20/2114Z TN10/2207Z"
    },
    {
      "icao": "LEVC",
      "alert": "OK",
      "vis_m": 9999,
      "fzfg": false,
      "metar_trigger": false,
      "taf_trigger": false,
      "metar": "METAR LEVC 211430Z 12008KT 080V150 CAVOK 18/03 Q1029 NOSIG",
      "taf": "TAF LEVC 211100Z 2112/2212 11010KT CAVOK TX18/2114Z TN06/2206Z"
    },
    {
      "icao": "LEXJ",
      "alert": "OK",
      "vis_m": 9999,
      "fzfg": false,
      "metar_trigger": false,
      "taf_trigger": false,
      "metar": "METAR LEXJ 211430Z 05007KT 350V120 CAVOK 14/09 Q1029",
      "taf": "TAF LEXJ 211400Z 2115/2215 VRB03KT CAVOK TX14/2214Z TN07/2207Z"
    },
    {
      "icao": "LEZG",
      "alert": "OK",
      "vis_m": 9999,
      "fzfg": false,
      "metar_trigger": false,
      "taf_trigger": false,
      "metar": "METAR LEZG 211430Z 32005KT 260V020 CAVOK 16/04 Q1029 NOSIG",
      "taf": "TAF LEZG 211100Z 2112/2212 32006KT CAVOK TX16/2114Z TN03/2206Z"
    },
    {
      "icao": "LEZL",
      "alert": "OK",
      "vis_m": 9999,
      "fzfg": false,
      "metar_trigger": false,
      "taf_trigger": false,
      "metar": "METAR LEZL 211430Z 03006KT 360V060 CAVOK 22/06 Q1027 NOSIG",
      "taf": "TAF LEZL 211400Z 2115/2215 05007KT CAVOK TX22/2115Z TN08/2207Z"
    },
    {
      "icao": "LFBD",
      "alert": "OK",
      "vis_m": 9999,
      "fzfg": false,
      "metar_trigger": false,
      "taf_trigger": false,
      "metar": "METAR LFBD 211430Z AUTO 29003KT 250V310 9999 OVC028 15/08 Q1031 NOSIG",
      "taf": "TAF LFBD 211100Z 2112/2218 VRB03KT 9999 BKN035 TX16/2214Z TN04/2206Z"
    },
    {
      "icao": "LFLL",
      "alert": "OK",
      "vis_m": 9999,
      "fzfg": false,
      "metar_trigger": false,
      "taf_trigger": false,
      "metar": "METAR LFLL 211430Z 05004KT 350V100 9999 BKN035 13/07 Q1030 NOSIG",
      "taf": "TAF LFLL 211100Z 2112/2218 06005KT 9999 BKN030"
    },
    {
      "icao": "LFLS",
      "alert": "OK",
      "vis_m": 9999,
      "fzfg": false,
      "metar_trigger": false,
      "taf_trigger": false,
      "metar": "METAR LFLS 211430Z AUTO 01009KT 9999 FEW029 12/06 Q1029 NOSIG",
      "taf": "TAF LFLS 211400Z 2115/2215 01008KT 9999 BKN030"
    },
    {
      "icao": "LFMN",
      "alert": "OK",
      "vis_m": 9999,
      "fzfg": false,
      "metar_trigger": false,
      "taf_trigger": false,
      "metar": "METAR LFMN 211430Z 13007KT CAVOK 16/11 Q1023 NOSIG",
      "taf": "TAF LFMN 211400Z 2115/2221 10005KT CAVOK"
    },
    {
      "icao": "LFOB",
      "alert": "OK",
      "vis_m": 9999,
      "fzfg": false,
      "metar_trigger": false,
      "taf_trigger": false,
      "metar": "METAR LFOB 211430Z AUTO 23011KT 200V260 9999 SCT031 BKN037 OVC044 15/09 Q1024 TEMPO 25015G25KT 4000 -RADZ BKN012 OVC020",
      "taf": "TAF LFOB 211100Z 2112/2212 26012KT 9999 OVC020"
    },
    {
      "icao": "LFPO",
      "alert": "OK",
      "vis_m": 9999,
      "fzfg": false,
      "metar_trigger": false,
      "taf_trigger": false,
      "metar": "METAR LFPO 211430Z 24013KT 9999 SCT030 BKN050 15/08 Q1025 NOSIG",
      "taf": "TAF LFPO 211100Z 2112/2218 25010KT 9999 BKN020"
    },
    {
      "icao": "LFSB",
      "alert": "OK",
      "vis_m": 9999,
      "fzfg": false,
      "metar_trigger": false,
      "taf_trigger": false,
      "metar": "METAR LFSB 211430Z AUTO 26014KT 9999 FEW021 OVC100 10/07 Q1026 TEMPO 26015G25KT",
      "taf": "TAF LFSB 211100Z 2112/2212 25012KT 9999 SCT023 OVC070"
    },
    {
      "icao": "LGAV",
      "alert": "OK",
      "vis_m": 9999,
      "fzfg": false,
      "metar_trigger": false,
      "taf_trigger": false,
      "metar": "METAR LGAV 211420Z VRB03KT 9999 FEW020TCU SCT035 BKN070 14/08 Q1013 NOSIG",
      "taf": "TAF LGAV 211100Z 2112/2212 01010KT 9999 SCT025 SCT070"
    },
    {
      "icao": "LGTS",
      "alert": "OK",
      "vis_m": 9999,
      "fzfg": false,
      "metar_trigger": false,
      "taf_trigger": false,
      "metar": "METAR LGTS 211420Z 32014KT 9999 FEW020 14/07 Q1014 NOSIG",
      "taf": "TAF LGTS 211100Z 2112/2212 34013KT 9999 FEW030"
    },
    {
      "icao": "LHBP",
      "alert": "OK",
      "vis_m": 9999,
      "fzfg": false,
      "metar_trigger": false,
      "taf_trigger": false,
      "metar": "METAR LHBP 211430Z 30010KT 9999 BKN030 06/M01 Q1022 NOSIG",
      "taf": "TAF LHBP 211115Z 2112/2212 20004KT CAVOK"
    },
    {
      "icao": "LHDC",
      "alert": "OK",
      "vis_m": 6000,
      "fzfg": false,
      "metar_trigger": false,
      "taf_trigger": false,
      "metar": "METAR LHDC 211415Z AUTO 27003KT 6000 -RA BKN011 02/01 Q1023 NOSIG",
      "taf": "TAF LHDC 211415Z 2115/2124 24006KT 8000 SCT004 BKN030"
    },
    {
      "icao": "LIBD",
      "alert": "OK",
      "vis_m": 9999,
      "fzfg": false,
      "metar_trigger": false,
      "taf_trigger": false,
      "metar": "METAR LIBD 211420Z 29012KT 9999 -RA SCT025 BKN040 11/06 Q1020",
      "taf": "TAF LIBD 211100Z 2112/2212 34016KT 9999 SCT030"
    },
    {
      "icao": "LIBG",
      "alert": "OK",
      "vis_m": 9999,
      "fzfg": false,
      "metar_trigger": false,
      "taf_trigger": false,
      "metar": "METAR LIBG 211350Z 34013KT 9999 FEW040 13/05 Q1018",
      "taf": "TAF LIBG 211400Z 2115/2124 34013KT CAVOK"
    },
    {
      "icao": "LIBP",
      "alert": "OK",
      "vis_m": 9999,
      "fzfg": false,
      "metar_trigger": false,
      "taf_trigger": false,
      "metar": "METAR LIBP 211420Z AUTO 01009KT 330V030 9999 FEW200/// 12/05 Q1023",
      "taf": "TAF LIBP 211100Z 2112/2212 34012KT 9999 SCT030"
    },
    {
      "icao": "LIBR",
      "alert": "OK",
      "vis_m": 9999,
      "fzfg": false,
      "metar_trigger": false,
      "taf_trigger": false,
      "metar": "METAR LIBR 211420Z 32021KT 9999 -RA BKN040 11/08 Q1018 RERA",
      "taf": "TAF LIBR 211100Z 2112/2212 32022G32KT 9999 SCT020"
    },
    {
      "icao": "LICA",
      "alert": "OK",
      "vis_m": 9999,
      "fzfg": false,
      "metar_trigger": false,
      "taf_trigger": false,
      "metar": "METAR LICA 211420Z AUTO 26010KT 9999 NCD 14/10 Q1019",
      "taf": "TAF LICA 211100Z 2112/2212 28012KT 9999 FEW020"
    },
    {
      "icao": "LICC",
      "alert": "OK",
      "vis_m": 9999,
      "fzfg": false,
      "metar_trigger": false,
      "taf_trigger": false,
      "metar": "METAR LICC 211420Z 06009KT 9999 FEW025 BKN045 15/11 Q1019",
      "taf": "TAF LICC 211100Z 2112/2212 28012KT 9999 FEW040"
    },
    {
      "icao": "LICJ",
      "alert": "OK",
      "vis_m": 9999,
      "fzfg": false,
      "metar_trigger": false,
      "taf_trigger": false,
      "metar": "METAR LICJ 211420Z 32013KT 9999 FEW030 14/09 Q1022",
      "taf": "TAF LICJ 211100Z 2112/2212 33020G30KT 9999 FEW030"
    },
    {
      "icao": "LIMC",
      "alert": "OK",
      "vis_m": 9999,
      "fzfg": false,
      "metar_trigger": false,
      "taf_trigger": false,
      "metar": "METAR LIMC 211420Z 25007KT CAVOK 14/04 Q1022 NOSIG",
      "taf": "TAF LIMC 211100Z 2112/2218 22006KT CAVOK"
    },
    {
      "icao": "LIME",
      "alert": "OK",
      "vis_m": 9999,
      "fzfg": false,
      "metar_trigger": false,
      "taf_trigger": false,
      "metar": "METAR LIME 211420Z 20004KT 110V270 CAVOK 12/04 Q1022 NOSIG",
      "taf": "TAF LIME 211100Z 2112/2212 23006KT CAVOK"
    },
    {
      "icao": "LIMF",
      "alert": "OK",
      "vis_m": 9999,
      "fzfg": false,
      "metar_trigger": false,
      "taf_trigger": false,
      "metar": "METAR LIMF 211420Z 11003KT 060V180 CAVOK 14/03 Q1022",
      "taf": "TAF LIMF 211100Z 2112/2212 VRB05KT CAVOK"
    },
    {
      "icao": "LIMJ",
      "alert": "OK",
      "vis_m": 9999,
      "fzfg": false,
      "metar_trigger": false,
      "taf_trigger": false,
      "metar": "METAR LIMJ 211420Z 17003KT CAVOK 14/08 Q1022",
      "taf": "TAF LIMJ 211100Z 2112/2212 VRB05KT CAVOK"
    },
    {
      "icao": "LIPE",
      "alert": "OK",
      "vis_m": 9999,
      "fzfg": false,
      "metar_trigger": false,
      "taf_trigger": false,
      "metar": "METAR LIPE 211420Z VRB04KT CAVOK 15/05 Q1022",
      "taf": "TAF LIPE 211100Z 2112/2212 VRB05KT CAVOK"
    },
    {
      "icao": "LIPH",
      "alert": "OK",
      "vis_m": 9999,
      "fzfg": false,
      "metar_trigger": false,
      "taf_trigger": false,
      "metar": "METAR LIPH 211420Z 25004KT 220V320 9999 FEW030 12/05 Q1023",
      "taf": "TAF LIPH 211100Z 2112/2212 22006KT 9999 FEW040"
    },
    {
      "icao": "LIPQ",
      "alert": "OK",
      "vis_m": 9999,
      "fzfg": false,
      "metar_trigger": false,
      "taf_trigger": false,
      "metar": "METAR LIPQ 211420Z AUTO 29003KT 240V340 9999 NCD 13/04 Q1023",
      "taf": "TAF LIPQ 211100Z 2112/2212 VRB06KT 9999 FEW030"
    },
    {
      "icao": "LIPR",
      "alert": "OK",
      "vis_m": 9999,
      "fzfg": false,
      "metar_trigger": false,
      "taf_trigger": false,
      "metar": "METAR LIPR 211420Z 07006KT CAVOK 11/05 Q1023",
      "taf": "TAF LIPR 211100Z 2112/2212 VRB06KT 9999 SCT030"
    },
    {
      "icao": "LIPX",
      "alert": "OK",
      "vis_m": 9999,
      "fzfg": false,
      "metar_trigger": false,
      "taf_trigger": false,
      "metar": "METAR LIPX 211420Z VRB03KT CAVOK 13/05 Q1022",
      "taf": "TAF LIPX 211100Z 2112/2212 VRB05KT CAVOK"
    },
    {
      "icao": "LIPY",
      "alert": "OK",
      "vis_m": 9999,
      "fzfg": false,
      "metar_trigger": false,
      "taf_trigger": false,
      "metar": "METAR LIPY 211420Z AUTO 33008KT 9999 FEW210/// 12/06 Q1023",
      "taf": "TAF LIPY 211100Z 2112/2212 35015KT 9999 SCT030"
    },
    {
      "icao": "LIPZ",
      "alert": "OK",
      "vis_m": 9999,
      "fzfg": false,
      "metar_trigger": false,
      "taf_trigger": false,
      "metar": "METAR LIPZ 211420Z 17003KT 9999 FEW030 11/05 Q1023 NOSIG",
      "taf": "TAF LIPZ 211100Z 2112/2218 VRB05KT CAVOK"
    },
    {
      "icao": "LIRF",
      "alert": "OK",
      "vis_m": 9999,
      "fzfg": false,
      "metar_trigger": false,
      "taf_trigger": false,
      "metar": "METAR LIRF 211420Z 30007KT 270V330 CAVOK 15/05 Q1021 NOSIG",
      "taf": "TAF LIRF 211100Z 2112/2218 33012KT CAVOK"
    },
    {
      "icao": "LIRN",
      "alert": "OK",
      "vis_m": 9999,
      "fzfg": false,
      "metar_trigger": false,
      "taf_trigger": false,
      "metar": "METAR LIRN 211420Z 34005KT 290V030 9999 FEW050 15/03 Q1020 NOSIG",
      "taf": "TAF LIRN 211100Z 2112/2212 34010KT 9999 FEW030"
    },
    {
      "icao": "LIRP",
      "alert": "OK",
      "vis_m": 9999,
      "fzfg": false,
      "metar_trigger": false,
      "taf_trigger": false,
      "metar": "METAR LIRP 211415Z 27008KT CAVOK 15/04 Q1023 NOSIG",
      "taf": "TAF LIRP 211100Z 2112/2212 29005KT CAVOK"
    },
    {
      "icao": "LIRZ",
      "alert": "OK",
      "vis_m": 9999,
      "fzfg": false,
      "metar_trigger": false,
      "taf_trigger": false,
      "metar": "METAR LIRZ 211420Z AUTO VRB05KT 9999 NCD 14/02 Q1022",
      "taf": "TAF LIRZ 211100Z 2112/2212 01010KT 9999 FEW030"
    },
    {
      "icao": "LJLJ",
      "alert": "OK",
      "vis_m": 9999,
      "fzfg": false,
      "metar_trigger": false,
      "taf_trigger": false,
      "metar": "METAR LJLJ 211430Z 17001KT 9999 FEW020 SCT130 08/00 Q1023 NOSIG",
      "taf": "TAF LJLJ 211100Z 2112/2212 VRB02KT 9999 FEW025"
    },
    {
      "icao": "LKMT",
      "alert": "OK",
      "vis_m": 8000,
      "fzfg": false,
      "metar_trigger": false,
      "taf_trigger": false,
      "metar": "METAR LKMT 211430Z 24012KT 8000 SCT021 01/M01 Q1020 NOSIG",
      "taf": "TAF LKMT 211100Z 2112/2212 23008KT 9999 SCT011 BKN040"
    },
    {
      "icao": "LKPR",
      "alert": "OK",
      "vis_m": 9999,
      "fzfg": false,
      "metar_trigger": false,
      "taf_trigger": false,
      "metar": "METAR LKPR 211430Z 23011KT 9999 FEW022 SCT042 07/04 Q1019 NOSIG",
      "taf": "TAF LKPR 211400Z 2115/2221 23011KT 9999 SCT025"
    },
    {
      "icao": "LLBG",
      "alert": "OK",
      "vis_m": 9999,
      "fzfg": false,
      "metar_trigger": false,
      "taf_trigger": false,
      "metar": "METAR LLBG 211420Z 26012KT 9999 BKN025 19/13 Q1016 NOSIG",
      "taf": "TAF LLBG 211105Z 2112/2212 27010KT 9999 SCT025"
    },
    {
      "icao": "LMML",
      "alert": "OK",
      "vis_m": 9999,
      "fzfg": false,
      "metar_trigger": false,
      "taf_trigger": false,
      "metar": "METAR LMML 211445Z 29021KT 260V320 9999 SCT018 15/11 Q1021 NOSIG",
      "taf": "TAF LMML 211100Z 2112/2212 30015KT 9999 FEW018"
    },
    {
      "icao": "LOWW",
      "alert": "OK",
      "vis_m": 9999,
      "fzfg": false,
      "metar_trigger": false,
      "taf_trigger": false,
      "metar": "METAR LOWW 211420Z 17007KT 9999 FEW036 BKN038 02/M01 Q1022 TEMPO 28010KT",
      "taf": "TAF LOWW 211415Z 2115/2221 22006KT 9999 BKN040 TX08/2221Z TN03/2115Z"
    },
    {
      "icao": "LPFR",
      "alert": "OK",
      "vis_m": 9999,
      "fzfg": false,
      "metar_trigger": false,
      "taf_trigger": false,
      "metar": "METAR LPFR 211430Z 09010KT CAVOK 19/06 Q1027",
      "taf": "TAF LPFR 211100Z 2112/2212 07008KT CAVOK"
    },
    {
      "icao": "LPMA",
      "alert": "OK",
      "vis_m": 9999,
      "fzfg": false,
      "metar_trigger": false,
      "taf_trigger": false,
      "metar": "METAR LPMA 211430Z 04019KT 9999 FEW016 18/11 Q1025",
      "taf": "TAF LPMA 211100Z 2112/2212 03015KT 9999 SCT015"
    },
    {
      "icao": "LPPR",
      "alert": "OK",
      "vis_m": 9999,
      "fzfg": false,
      "metar_trigger": false,
      "taf_trigger": false,
      "metar": "METAR LPPR 211430Z 30005KT CAVOK 16/09 Q1029",
      "taf": "TAF LPPR 211100Z 2112/2212 VRB02KT CAVOK"
    },
    {
      "icao": "LPPS",
      "alert": "OK",
      "vis_m": 9999,
      "fzfg": false,
      "metar_trigger": false,
      "taf_trigger": false,
      "metar": "METAR LPPS 211430Z 07010KT 040V130 9999 SCT015 17/12 Q049 18/13 Q1025",
      "taf": "TAF LPPS 211100Z 2112/2218 06010KT 9999 SCT015 SCT030"
    },
    {
      "icao": "LPPT",
      "alert": "OK",
      "vis_m": 9999,
      "fzfg": false,
      "metar_trigger": false,
      "taf_trigger": false,
      "metar": "METAR LPPT 211430Z 05007G17KT 010V080 CAVOK 19/07 Q1028",
      "taf": "TAF LPPT 211100Z 2112/2218 06007KT CAVOK"
    },
    {
      "icao": "LQBK",
      "alert": "OK",
      "vis_m": 9999,
      "fzfg": false,
      "metar_trigger": false,
      "taf_trigger": false,
      "metar": "METAR LQBK 211430Z 33005KT CAVOK 04/01 Q1025 NOSIG",
      "taf": "TAF LQBK 211100Z 2112/2212 30007KT 9999 SCT040 TX11/2212Z TNM01/2206Z"
    },
    {
      "icao": "LQSA",
      "alert": "OK",
      "vis_m": 9999,
      "fzfg": false,
      "metar_trigger": false,
      "taf_trigger": false,
      "metar": "METAR LQSA 211430Z 32004KT 280V350 9999 BKN022 BKN040 03/M01 Q1022 NOSIG",
      "taf": "TAF LQSA 211100Z 2112/2212 29006KT 9999 BKN030 TX08/2212Z TNM01/2204Z"
    },
    {
      "icao": "LQTZ",
      "alert": "OK",
      "vis_m": 9999,
      "fzfg": false,
      "metar_trigger": false,
      "taf_trigger": false,
      "metar": "METAR LQTZ 211430Z VRB03KT 9999 OVC030 02/M00 Q1024",
      "taf": "TAF LQTZ 211100Z 2112/2212 30007KT 9999 SCT015 OVC030 TX10/2212Z TN00/2206Z"
    },
    {
      "icao": "LRBC",
      "alert": "OK",
      "vis_m": 6000,
      "fzfg": false,
      "metar_trigger": false,
      "taf_trigger": false,
      "metar": "METAR LRBC 211430Z 15003KT 6000 -SN SCT016 OVC055 M02/M04 Q1025",
      "taf": "TAF LRBC 211400Z 2115/2124 VRB04KT 7000 BKN035"
    },
    {
      "icao": "LRBS",
      "alert": "OK",
      "vis_m": 2000,
      "fzfg": false,
      "metar_trigger": false,
      "taf_trigger": false,
      "metar": "METAR LRBS 211430Z 05010KT 020V080 2000 -SN BR BKN006 OVC034 M02/M03 Q1024 NOSIG",
      "taf": "TAF LRBS 211100Z 2112/2212 06012KT 3000 SN BR BKN010 OVC030"
    },
    {
      "icao": "LRBV",
      "alert": "OK",
      "vis_m": 3000,
      "fzfg": false,
      "metar_trigger": false,
      "taf_trigger": false,
      "metar": "METAR LRBV 211430Z 11002KT 3000 SG BR BKN006 OVC027 M03/M04 Q1021",
      "taf": "TAF LRBV 211400Z 2115/2124 VRB04KT 5000 -SN BR BKN015 OVC035"
    },
    {
      "icao": "LRCL",
      "alert": "OK",
      "vis_m": 7000,
      "fzfg": false,
      "metar_trigger": false,
      "taf_trigger": false,
      "metar": "METAR LRCL 211430Z 10006KT 7000 -SN OVC037 01/M01 Q1022",
      "taf": "TAF LRCL 211400Z 2115/2124 11007KT 5000 -SN BR SCT020 OVC040"
    },
    {
      "icao": "LRCV",
      "alert": "OK",
      "vis_m": 9999,
      "fzfg": false,
      "metar_trigger": false,
      "taf_trigger": false,
      "metar": "METAR LRCV 211430Z VRB02KT 9999 -SN NSC M02/M03 Q1024",
      "taf": "TAF LRCV 211400Z 2115/2124 VRB04KT 5000 -SN BR BKN020 OVC035"
    },
    {
      "icao": "LRIA",
      "alert": "OK",
      "vis_m": 9999,
      "fzfg": false,
      "metar_trigger": false,
      "taf_trigger": false,
      "metar": "METAR LRIA 211430Z 10004KT CAVOK 00/M05 Q1025",
      "taf": "TAF LRIA 211400Z 2115/2124 VRB04KT CAVOK"
    },
    {
      "icao": "LROP",
      "alert": "OK",
      "vis_m": 1700,
      "fzfg": false,
      "metar_trigger": false,
      "taf_trigger": false,
      "metar": "METAR LROP 211430Z 06007KT 010V090 1700 -SN BR BKN008 OVC028 M02/M02 Q1024 NOSIG",
      "taf": "TAF LROP 211100Z 2112/2212 06010KT 3000 SN BR BKN010 OVC030"
    },
    {
      "icao": "LRSB",
      "alert": "OK",
      "vis_m": 8000,
      "fzfg": false,
      "metar_trigger": false,
      "taf_trigger": false,
      "metar": "METAR LRSB 211430Z 10003KT 8000 -SN FEW007 BKN010 OVC013 M00/M01 Q1021",
      "taf": "TAF LRSB 211100Z 2112/2212 VRB04KT 3000 -SN BR SCT020 OVC035"
    },
    {
      "icao": "LRSM",
      "alert": "OK",
      "vis_m": 9999,
      "fzfg": false,
      "metar_trigger": false,
      "taf_trigger": false,
      "metar": "METAR LRSM 211430Z AUTO 19007KT 9999 SCT016/// OVC020/// 04/00 Q1023",
      "taf": ""
    },
    {
      "icao": "LRSV",
      "alert": "OK",
      "vis_m": 9999,
      "fzfg": false,
      "metar_trigger": false,
      "taf_trigger": false,
      "metar": "METAR LRSV 211430Z 12011KT CAVOK M03/M07 Q1021",
      "taf": "TAF LRSV 211400Z 2115/2124 11010KT CAVOK"
    },
    {
      "icao": "LRTM",
      "alert": "OK",
      "vis_m": 7000,
      "fzfg": false,
      "metar_trigger": false,
      "taf_trigger": false,
      "metar": "METAR LRTM 211430Z 25003KT 7000 SN FEW008 SCT014 BKN028 01/M00 Q1022",
      "taf": "TAF LRTM 211400Z 2115/2124 VRB04KT 9999 SCT020 BKN030"
    },
    {
      "icao": "LRTR",
      "alert": "OK",
      "vis_m": 9999,
      "fzfg": false,
      "metar_trigger": false,
      "taf_trigger": false,
      "metar": "METAR LRTR 211430Z 23005KT 190V260 9999 FEW017 SCT021 BKN045 04/02 Q1023",
      "taf": "TAF LRTR 211100Z 2112/2212 21010KT 9999 BKN025"
    },
    {
      "icao": "LTAC",
      "alert": "OK",
      "vis_m": 9999,
      "fzfg": false,
      "metar_trigger": false,
      "taf_trigger": false,
      "metar": "METAR LTAC 211420Z 27010KT 9999 SCT040 BKN100 11/01 Q1013 NOSIG RMK RWY21C 27009KT RWY03L 26009KT RWY21R 25009KT RWY03R 24010KT RWY21L 26010KT",
      "taf": "TAF LTAC 211040Z 2112/2212 VRB02KT 9999 SCT040 SCT100"
    },
    {
      "icao": "LTFM",
      "alert": "OK",
      "vis_m": 9999,
      "fzfg": false,
      "metar_trigger": false,
      "taf_trigger": false,
      "metar": "METAR LTFM 211420Z 35015KT 9999 BKN013 BKN022 09/06 Q1014 NOSIG RMK RWY17L 35013KT RWY34L 34014KT RWY16R 35012KT RWY36 35013KT RWY18 36013KT",
      "taf": "TAF LTFM 211040Z 2112/2218 32017KT 9999 SCT008 SCT035 BKN100"
    },
    {
      "icao": "LUKK",
      "alert": "OK",
      "vis_m": 9999,
      "fzfg": false,
      "metar_trigger": false,
      "taf_trigger": false,
      "metar": "METAR LUKK 211430Z 08007KT CAVOK M01/M07 Q1025 NOSIG",
      "taf": "TAF LUKK 211123Z 2112/2212 03010KT 9999 BKN035"
    },
    {
      "icao": "LWOH",
      "alert": "OK",
      "vis_m": null,
      "fzfg": false,
      "metar_trigger": false,
      "taf_trigger": false,
      "metar": "",
      "taf": "TAF LWOH 211120Z 2112/2212 34006KT 9999 FEW020 BKN040"
    },
    {
      "icao": "LWSK",
      "alert": "OK",
      "vis_m": null,
      "fzfg": false,
      "metar_trigger": false,
      "taf_trigger": false,
      "metar": "",
      "taf": "TAF LWSK 211120Z 2112/2212 01015KT 9999 FEW025 BKN045"
    },
    {
      "icao": "LYBE",
      "alert": "OK",
      "vis_m": 9999,
      "fzfg": false,
      "metar_trigger": false,
      "taf_trigger": false,
      "metar": "METAR LYBE 211430Z 26005KT 220V300 9999 BKN013 02/M00 Q1024 NOSIG",
      "taf": "TAF LYBE 211100Z 2112/2212 27008KT 9999 BKN012 BKN027 TX08/2212Z TN00/2204Z"
    },
    {
      "icao": "LYNI",
      "alert": "OK",
      "vis_m": 9999,
      "fzfg": false,
      "metar_trigger": false,
      "taf_trigger": false,
      "metar": "METAR LYNI 211430Z 33009KT 9999 BKN030 BKN060 01/M03 Q1022 NOSIG",
      "taf": "TAF LYNI 211100Z 2112/2212 01008KT 9999 SCT020 BKN047 TX05/2212Z TN00/2205Z"
    },
    {
      "icao": "LYPG",
      "alert": "OK",
      "vis_m": 9999,
      "fzfg": false,
      "metar_trigger": false,
      "taf_trigger": false,
      "metar": "METAR LYPG 211430Z 18004KT 150V240 9999 FEW050 15/03 Q1016 NOSIG",
      "taf": "TAF LYPG 211100Z 2112/2212 16005KT 9999 FEW050 TX15/2113Z TN07/2205Z"
    },
    {
      "icao": "LZIB",
      "alert": "OK",
      "vis_m": 9000,
      "fzfg": false,
      "metar_trigger": false,
      "taf_trigger": false,
      "metar": "METAR LZIB 211430Z 09001KT 9000 -RA FEW009 SCT037 BKN045 01/M00 Q1022 NOSIG",
      "taf": "TAF LZIB 211115Z 2112/2212 VRB02KT 9999 SCT020 BKN030"
    },
    {
      "icao": "LZKZ",
      "alert": "OK",
      "vis_m": 9999,
      "fzfg": false,
      "metar_trigger": false,
      "taf_trigger": false,
      "metar": "METAR LZKZ 211430Z 17007KT CAVOK 02/M01 Q1021 NOSIG",
      "taf": ""
    },
    {
      "icao": "LZTT",
      "alert": "OK",
      "vis_m": 9999,
      "fzfg": false,
      "metar_trigger": false,
      "taf_trigger": false,
      "metar": "METAR LZTT 211430Z 25010KT 9999 FEW030 SCT056 03/M02 Q1017 NOSIG",
      "taf": "TAF LZTT 211115Z 2112/2212 VRB02KT 9999 FEW050"
    },
    {
      "icao": "OEJN",
      "alert": "OK",
      "vis_m": 9999,
      "fzfg": false,
      "metar_trigger": false,
      "taf_trigger": false,
      "metar": "METAR OEJN 211400Z 24008KT CAVOK 29/18 Q1011 NOSIG",
      "taf": "TAF OEJN 211100Z 2112/2218 25010KT CAVOK"
    },
    {
      "icao": "OEMA",
      "alert": "OK",
      "vis_m": 9999,
      "fzfg": false,
      "metar_trigger": false,
      "taf_trigger": false,
      "metar": "METAR OEMA 211400Z 13010KT CAVOK 32/M10 Q1015 NOSIG",
      "taf": "TAF OEMA 211100Z 2112/2218 09010KT 7000 NSC"
    },
    {
      "icao": "OJAI",
      "alert": "OK",
      "vis_m": 5000,
      "fzfg": false,
      "metar_trigger": false,
      "taf_trigger": false,
      "metar": "METAR OJAI 211400Z 24012KT 5000 HZ NSC 22/04 Q1015 NOSIG",
      "taf": "TAF OJAI 211100Z 2112/2218 24012KT 5000 HZ NSC"
    },
    {
      "icao": "OMAA",
      "alert": "OK",
      "vis_m": 9999,
      "fzfg": false,
      "metar_trigger": false,
      "taf_trigger": false,
      "metar": "METAR OMAA 211430Z 32011KT CAVOK 25/17 Q1014 NOSIG",
      "taf": "TAF OMAA 211100Z 2112/2218 34012KT 8000 NSC"
    },
    {
      "icao": "OMDB",
      "alert": "OK",
      "vis_m": 9999,
      "fzfg": false,
      "metar_trigger": false,
      "taf_trigger": false,
      "metar": "METAR OMDB 211430Z 32011KT CAVOK 27/14 Q1014 NOSIG",
      "taf": "TAF OMDB 211100Z 2112/2218 33012KT 8000 NSC"
    },
    {
      "icao": "UAAA",
      "alert": "OK",
      "vis_m": 9999,
      "fzfg": false,
      "metar_trigger": false,
      "taf_trigger": false,
      "metar": "METAR UAAA 211430Z 17003MPS 9999 FEW050CB SCT100 05/01 Q1028 NOSIG",
      "taf": "TAF UAAA 211102Z 2112/2212 20003G08MPS 3100 BR FU SCT011 BKN100 TX08/2209Z TNM03/2201Z"
    },
    {
      "icao": "UBBB",
      "alert": "OK",
      "vis_m": 9999,
      "fzfg": false,
      "metar_trigger": false,
      "taf_trigger": false,
      "metar": "METAR UBBB 211430Z 32012KT CAVOK 08/05 Q1022 NOSIG",
      "taf": "TAF UBBB 211058Z 2112/2212 32014KT 9999 SCT012 SCT025 TX10/2112Z TN05/2201Z"
    },
    {
      "icao": "UDSG",
      "alert": "OK",
      "vis_m": 9999,
      "fzfg": false,
      "metar_trigger": false,
      "taf_trigger": false,
      "metar": "METAR UDSG 211430Z 27003KT 9999 FEW049 03/M02 Q1022 NOSIG",
      "taf": "TAF UDSG 211058Z 2112/2212 VRB06KT 9999 FEW040"
    },
    {
      "icao": "UDYZ",
      "alert": "OK",
      "vis_m": 9999,
      "fzfg": false,
      "metar_trigger": false,
      "taf_trigger": false,
      "metar": "METAR UDYZ 211430Z 20004KT 180V270 9999 NSC 12/M02 Q1021 NOSIG",
      "taf": "TAF UDYZ 211100Z 2112/2212 VRB04KT 9999 FEW050"
    },
    {
      "icao": "UGKO",
      "alert": "OK",
      "vis_m": 9999,
      "fzfg": false,
      "metar_trigger": false,
      "taf_trigger": false,
      "metar": "METAR UGKO 211430Z 08006KT CAVOK 18/M00 Q1012 NOSIG",
      "taf": "TAF UGKO 211100Z 2112/2212 08017KT CAVOK TX21/2112Z TN10/2119Z"
    }
  ]
}