{
  "ts_utc": "2026-03-19T10:25:44Z",
  "threshold_m": 150,
  "source": "stations_override.txt (ICAO list) + aviationweather.gov (METAR/TAF raw)",
  "station_count": 159,
  "stations": [
    {
      "icao": "BIKF",
      "alert": "OK",
      "vis_m": 5000,
      "fzfg": false,
      "metar_trigger": false,
      "taf_trigger": false,
      "metar": "METAR BIKF 191000Z 19035G47KT 5000 RA BR OVC008 07/06 Q0992",
      "taf": "TAF BIKF 190752Z 1909/2009 18032G42KT 7000 RA BKN010 OVC020 TX07/1912Z TNM01/2003Z"
    },
    {
      "icao": "BKPR",
      "alert": "OK",
      "vis_m": 9999,
      "fzfg": false,
      "metar_trigger": false,
      "taf_trigger": false,
      "metar": "METAR BKPR 191000Z 05014KT 9999 FEW040 10/M03 Q1015 NOSIG",
      "taf": "TAF BKPR 190530Z 1906/2006 03008KT 9999 BKN040"
    },
    {
      "icao": "EBCI",
      "alert": "OK",
      "vis_m": 9999,
      "fzfg": false,
      "metar_trigger": false,
      "taf_trigger": false,
      "metar": "METAR EBCI 190950Z 05008KT CAVOK 11/03 Q1026 NOSIG",
      "taf": "TAF EBCI 190515Z 1906/2012 06006KT CAVOK"
    },
    {
      "icao": "EDDB",
      "alert": "OK",
      "vis_m": 9999,
      "fzfg": false,
      "metar_trigger": false,
      "taf_trigger": false,
      "metar": "METAR EDDB 190950Z AUTO 35004KT 280V050 CAVOK 13/02 Q1027 NOSIG",
      "taf": "TAF EDDB 190500Z 1906/2006 05004KT CAVOK"
    },
    {
      "icao": "EDDH",
      "alert": "OK",
      "vis_m": 9999,
      "fzfg": false,
      "metar_trigger": false,
      "taf_trigger": false,
      "metar": "METAR EDDH 190950Z AUTO VRB03KT CAVOK 14/04 Q1027 NOSIG",
      "taf": "TAF EDDH 190500Z 1906/2012 VRB02KT CAVOK"
    },
    {
      "icao": "EDDK",
      "alert": "OK",
      "vis_m": 9999,
      "fzfg": false,
      "metar_trigger": false,
      "taf_trigger": false,
      "metar": "METAR EDDK 190950Z AUTO 15004KT 110V280 CAVOK 14/02 Q1026 NOSIG",
      "taf": "TAF EDDK 190500Z 1906/2012 VRB03KT CAVOK"
    },
    {
      "icao": "EDDN",
      "alert": "OK",
      "vis_m": 9999,
      "fzfg": false,
      "metar_trigger": false,
      "taf_trigger": false,
      "metar": "METAR EDDN 190950Z AUTO 09011KT 030V130 CAVOK 12/M02 Q1024 NOSIG",
      "taf": "TAF EDDN 190500Z 1906/2006 VRB03KT CAVOK"
    },
    {
      "icao": "EDDS",
      "alert": "OK",
      "vis_m": 9999,
      "fzfg": false,
      "metar_trigger": false,
      "taf_trigger": false,
      "metar": "METAR EDDS 190950Z AUTO 09007KT 050V140 CAVOK 11/01 Q1022 NOSIG",
      "taf": "TAF EDDS 190500Z 1906/2006 05007KT CAVOK"
    },
    {
      "icao": "EDFH",
      "alert": "OK",
      "vis_m": 9999,
      "fzfg": false,
      "metar_trigger": false,
      "taf_trigger": false,
      "metar": "METAR EDFH 190950Z VRB04KT CAVOK 09/01 Q1025",
      "taf": "TAF EDFH 190500Z 1906/2006 08007KT CAVOK"
    },
    {
      "icao": "EDJA",
      "alert": "OK",
      "vis_m": 9999,
      "fzfg": false,
      "metar_trigger": false,
      "taf_trigger": false,
      "metar": "METAR EDJA 190950Z 05008KT CAVOK 05/01 Q1022",
      "taf": "TAF EDJA 190800Z 1909/1918 05005KT 4000 BR BKN006"
    },
    {
      "icao": "EDLW",
      "alert": "OK",
      "vis_m": 9999,
      "fzfg": false,
      "metar_trigger": false,
      "taf_trigger": false,
      "metar": "METAR EDLW 190950Z 03004KT 360V070 CAVOK 11/04 Q1027",
      "taf": "TAF EDLW 190500Z 1906/2006 VRB03KT CAVOK"
    },
    {
      "icao": "EDNY",
      "alert": "OK",
      "vis_m": 9999,
      "fzfg": false,
      "metar_trigger": false,
      "taf_trigger": false,
      "metar": "METAR EDNY 190950Z VRB03KT CAVOK 09/03 Q1022",
      "taf": "TAF EDNY 190800Z 1909/1918 03009KT CAVOK"
    },
    {
      "icao": "EDSB",
      "alert": "OK",
      "vis_m": 9999,
      "fzfg": false,
      "metar_trigger": false,
      "taf_trigger": false,
      "metar": "METAR EDSB 190950Z 02013KT CAVOK 11/03 Q1023",
      "taf": "TAF EDSB 190500Z 1906/2006 03011KT CAVOK"
    },
    {
      "icao": "EETN",
      "alert": "OK",
      "vis_m": 9999,
      "fzfg": false,
      "metar_trigger": false,
      "taf_trigger": false,
      "metar": "METAR EETN 191020Z 23009KT 9999 OVC007 02/01 Q1019 NOSIG",
      "taf": "TAF EETN 190530Z 1906/2006 21010KT 9999 SCT006 BKN030"
    },
    {
      "icao": "EFTU",
      "alert": "OK",
      "vis_m": 9999,
      "fzfg": false,
      "metar_trigger": false,
      "taf_trigger": false,
      "metar": "METAR EFTU 190950Z AUTO 28005KT 240V320 CAVOK 07/03 Q1018",
      "taf": "TAF EFTU 190821Z 1909/2009 25007KT 9999 BKN009"
    },
    {
      "icao": "EGBB",
      "alert": "OK",
      "vis_m": 9999,
      "fzfg": false,
      "metar_trigger": false,
      "taf_trigger": false,
      "metar": "METAR EGBB 190950Z 05005KT 350V090 CAVOK 11/04 Q1028",
      "taf": "TAF EGBB 190459Z 1906/2006 06004KT CAVOK"
    },
    {
      "icao": "EGGP",
      "alert": "OK",
      "vis_m": 9000,
      "fzfg": false,
      "metar_trigger": false,
      "taf_trigger": false,
      "metar": "METAR EGGP 190950Z 13003KT 090V170 9000 NSC 11/05 Q1028",
      "taf": ""
    },
    {
      "icao": "EGGW",
      "alert": "OK",
      "vis_m": 9999,
      "fzfg": false,
      "metar_trigger": false,
      "taf_trigger": false,
      "metar": "METAR EGGW 190950Z AUTO 05005KT 020V090 9999 NCD 11/05 Q1027",
      "taf": "TAF EGGW 190501Z 1906/2006 06005KT CAVOK"
    },
    {
      "icao": "EGKK",
      "alert": "OK",
      "vis_m": 9999,
      "fzfg": false,
      "metar_trigger": false,
      "taf_trigger": false,
      "metar": "METAR EGKK 190950Z 06009KT CAVOK 12/05 Q1027",
      "taf": "TAF EGKK 190500Z 1906/2012 08006KT CAVOK"
    },
    {
      "icao": "EGNM",
      "alert": "OK",
      "vis_m": 9999,
      "fzfg": false,
      "metar_trigger": false,
      "taf_trigger": false,
      "metar": "METAR EGNM 190950Z 03009KT CAVOK 11/08 Q1029",
      "taf": "TAF EGNM 190502Z 1906/2006 07005KT 9999 FEW030"
    },
    {
      "icao": "EGPD",
      "alert": "OK",
      "vis_m": 9999,
      "fzfg": false,
      "metar_trigger": false,
      "taf_trigger": false,
      "metar": "METAR EGPD 190950Z COR AUTO 33006KT 290V010 9999 NCD 10/04 Q1030 NOSIG",
      "taf": "TAF EGPD 190453Z 1906/2006 29004KT 9999 FEW040"
    },
    {
      "icao": "EGPF",
      "alert": "OK",
      "vis_m": 9999,
      "fzfg": false,
      "metar_trigger": false,
      "taf_trigger": false,
      "metar": "METAR EGPF 190950Z AUTO VRB02KT 9999 NCD 11/06 Q1030",
      "taf": ""
    },
    {
      "icao": "EHBK",
      "alert": "OK",
      "vis_m": 9999,
      "fzfg": false,
      "metar_trigger": false,
      "taf_trigger": false,
      "metar": "METAR EHBK 190955Z AUTO 03006KT 360V080 9999 NSC 12/05 Q1026 NOSIG",
      "taf": "TAF EHBK 190508Z 1906/2012 06006KT CAVOK"
    },
    {
      "icao": "EHEH",
      "alert": "OK",
      "vis_m": 9999,
      "fzfg": false,
      "metar_trigger": false,
      "taf_trigger": false,
      "metar": "METAR EHEH 190955Z AUTO 06003KT 350V070 9999 SCT240 BKN330 13/03 Q1027 BLU NOSIG RMK TREND REMOTE BY EHWX",
      "taf": "TAF EHEH 190550Z 1906/2012 04003KT 7000 NSC"
    },
    {
      "icao": "EKBI",
      "alert": "OK",
      "vis_m": 9999,
      "fzfg": false,
      "metar_trigger": false,
      "taf_trigger": false,
      "metar": "METAR EKBI 190950Z AUTO 28008KT 260V330 9999 BKN046/// 11/03 Q1027",
      "taf": "TAF EKBI 190827Z 1909/2009 24005KT 9999 BKN045"
    },
    {
      "icao": "EKCH",
      "alert": "OK",
      "vis_m": 9999,
      "fzfg": false,
      "metar_trigger": false,
      "taf_trigger": false,
      "metar": "METAR EKCH 190950Z AUTO 25003KT 9999 BKN057/// 11/02 Q1026 NOSIG",
      "taf": "TAF EKCH 190827Z 1909/2009 23004KT 9999 FEW040"
    },
    {
      "icao": "ENAL",
      "alert": "OK",
      "vis_m": 9999,
      "fzfg": false,
      "metar_trigger": false,
      "taf_trigger": false,
      "metar": "METAR ENAL 190950Z 23008KT 9999 FEW010 SCT028 BKN034 07/05 Q1024",
      "taf": "TAF ENAL 190800Z 1909/1918 24008KT 9999 FEW020 BKN040"
    },
    {
      "icao": "ENBR",
      "alert": "OK",
      "vis_m": 9999,
      "fzfg": false,
      "metar_trigger": false,
      "taf_trigger": false,
      "metar": "METAR ENBR 190950Z 20005KT 180V240 9999 FEW006 SCT008 BKN010 07/05 Q1027 NOSIG RMK WIND 1200FT 25003KT",
      "taf": ""
    },
    {
      "icao": "ENGM",
      "alert": "OK",
      "vis_m": 9999,
      "fzfg": false,
      "metar_trigger": false,
      "taf_trigger": false,
      "metar": "METAR ENGM 190950Z 17003KT 120V200 CAVOK 06/03 Q1022 NOSIG",
      "taf": ""
    },
    {
      "icao": "ENHD",
      "alert": "OK",
      "vis_m": 9999,
      "fzfg": false,
      "metar_trigger": false,
      "taf_trigger": false,
      "metar": "METAR ENHD 190950Z VRB02KT 9999 FEW004 BKN006 07/07 Q1028",
      "taf": ""
    },
    {
      "icao": "ENTC",
      "alert": "OK",
      "vis_m": 6000,
      "fzfg": false,
      "metar_trigger": false,
      "taf_trigger": false,
      "metar": "METAR ENTC 190950Z 29022KT 6000 -SHRASN BKN020CB 04/01 Q0996 TEMPO 27030G40KT 4500 SHRASNGS BKN014 RMK WIND 2600FT 29048G65KT",
      "taf": ""
    },
    {
      "icao": "ENTO",
      "alert": "OK",
      "vis_m": 9999,
      "fzfg": false,
      "metar_trigger": false,
      "taf_trigger": false,
      "metar": "METAR ENTO 190950Z 34005KT 300V360 CAVOK 10/03 Q1024 NOSIG",
      "taf": ""
    },
    {
      "icao": "ENVA",
      "alert": "OK",
      "vis_m": 9999,
      "fzfg": false,
      "metar_trigger": false,
      "taf_trigger": false,
      "metar": "METAR ENVA 190920Z 26017KT 9999 FEW018 BKN023 06/03 Q1022 NOSIG RMK WIND 670FT 27013G26KT",
      "taf": "TAF ENVA 190500Z 1906/2006 28018KT 9999 -SHRA BKN025"
    },
    {
      "icao": "ENZV",
      "alert": "OK",
      "vis_m": 8000,
      "fzfg": false,
      "metar_trigger": false,
      "taf_trigger": false,
      "metar": "METAR ENZV 190950Z 30001KT 8000 SCT003 BKN005 08/07 Q1028 BECMG SCT008",
      "taf": ""
    },
    {
      "icao": "EPGD",
      "alert": "OK",
      "vis_m": 9999,
      "fzfg": false,
      "metar_trigger": false,
      "taf_trigger": false,
      "metar": "METAR EPGD 191000Z 30006KT 250V010 9999 FEW048 10/M01 Q1026",
      "taf": "TAF EPGD 190530Z 1906/2006 28007KT CAVOK"
    },
    {
      "icao": "EPKK",
      "alert": "OK",
      "vis_m": 9999,
      "fzfg": false,
      "metar_trigger": false,
      "taf_trigger": false,
      "metar": "METAR EPKK 191000Z 12004KT 080V170 9999 FEW035 11/M01 Q1025",
      "taf": "TAF EPKK 190830Z 1909/2009 VRB02KT 9999 SCT050"
    },
    {
      "icao": "EPKT",
      "alert": "OK",
      "vis_m": 9999,
      "fzfg": false,
      "metar_trigger": false,
      "taf_trigger": false,
      "metar": "METAR EPKT 191000Z 10004KT 020V170 9999 FEW036TCU SCT043 11/00 Q1025",
      "taf": ""
    },
    {
      "icao": "EPLB",
      "alert": "OK",
      "vis_m": 9999,
      "fzfg": false,
      "metar_trigger": false,
      "taf_trigger": false,
      "metar": "METAR EPLB 191000Z 10007KT 9999 FEW040 10/01 Q1025",
      "taf": "TAF EPLB 190530Z 1906/2006 03003KT CAVOK"
    },
    {
      "icao": "EPMO",
      "alert": "OK",
      "vis_m": 9999,
      "fzfg": false,
      "metar_trigger": false,
      "taf_trigger": false,
      "metar": "METAR EPMO 191000Z VRB05KT 9999 FEW030 11/04 Q1025",
      "taf": "TAF EPMO 190530Z 1906/2006 02003KT CAVOK"
    },
    {
      "icao": "EPPO",
      "alert": "OK",
      "vis_m": 9999,
      "fzfg": false,
      "metar_trigger": false,
      "taf_trigger": false,
      "metar": "METAR EPPO 191000Z 04006KT 350V070 CAVOK 12/M00 Q1027",
      "taf": "TAF EPPO 190530Z 1906/2006 32004KT 3000 BR NSC"
    },
    {
      "icao": "EPRA",
      "alert": "OK",
      "vis_m": 9999,
      "fzfg": false,
      "metar_trigger": false,
      "taf_trigger": false,
      "metar": "METAR EPRA 191000Z VRB03KT CAVOK 10/01 Q1025",
      "taf": "TAF EPRA 190830Z 1909/1918 34006KT CAVOK"
    },
    {
      "icao": "EPRZ",
      "alert": "OK",
      "vis_m": 9999,
      "fzfg": false,
      "metar_trigger": false,
      "taf_trigger": false,
      "metar": "METAR EPRZ 191000Z 35008KT 9999 SCT043 11/M01 Q1024",
      "taf": "TAF EPRZ 190530Z 1906/2006 VRB02KT CAVOK"
    },
    {
      "icao": "EPSC",
      "alert": "OK",
      "vis_m": 9999,
      "fzfg": false,
      "metar_trigger": false,
      "taf_trigger": false,
      "metar": "METAR EPSC 191000Z VRB03KT CAVOK 12/01 Q1027",
      "taf": "TAF EPSC 190530Z 1906/2006 VRB02KT CAVOK"
    },
    {
      "icao": "EPSY",
      "alert": "OK",
      "vis_m": 9999,
      "fzfg": false,
      "metar_trigger": false,
      "taf_trigger": false,
      "metar": "METAR EPSY 191000Z VRB03KT CAVOK 09/M02 Q1026",
      "taf": "TAF EPSY 190830Z 1909/1918 34006KT CAVOK"
    },
    {
      "icao": "EPWA",
      "alert": "OK",
      "vis_m": 9999,
      "fzfg": false,
      "metar_trigger": false,
      "taf_trigger": false,
      "metar": "METAR EPWA 191000Z 02004KT 330V080 9999 FEW033 11/02 Q1025 NOSIG",
      "taf": "TAF EPWA 190830Z 1909/2009 VRB03KT CAVOK"
    },
    {
      "icao": "EPWR",
      "alert": "OK",
      "vis_m": 9999,
      "fzfg": false,
      "metar_trigger": false,
      "taf_trigger": false,
      "metar": "METAR EPWR 191000Z VRB03KT 9999 FEW036 11/04 Q1026",
      "taf": "TAF EPWR 190830Z 1909/2009 02005KT CAVOK"
    },
    {
      "icao": "ESGG",
      "alert": "OK",
      "vis_m": 6000,
      "fzfg": false,
      "metar_trigger": false,
      "taf_trigger": false,
      "metar": "METAR ESGG 190950Z 26004KT 230V290 6000 OVC004 06/05 Q1023",
      "taf": "TAF ESGG 190830Z 1909/2009 24010KT 5000 BR OVC004"
    },
    {
      "icao": "ESKN",
      "alert": "OK",
      "vis_m": 9999,
      "fzfg": false,
      "metar_trigger": false,
      "taf_trigger": false,
      "metar": "METAR ESKN 190950Z 29010KT 250V320 9999 BKN014 08/04 Q1021",
      "taf": ""
    },
    {
      "icao": "ESMS",
      "alert": "OK",
      "vis_m": 9999,
      "fzfg": false,
      "metar_trigger": false,
      "taf_trigger": false,
      "metar": "METAR ESMS 190950Z 30010KT CAVOK 11/00 Q1026",
      "taf": "TAF ESMS 190827Z 1909/2009 25005KT CAVOK"
    },
    {
      "icao": "ESSA",
      "alert": "OK",
      "vis_m": 9999,
      "fzfg": false,
      "metar_trigger": false,
      "taf_trigger": false,
      "metar": "METAR ESSA 190950Z 30007KT 270V350 CAVOK 09/04 Q1020 NOSIG",
      "taf": "TAF ESSA 190830Z 1909/2009 30009KT 9999 FEW012"
    },
    {
      "icao": "EYKA",
      "alert": "OK",
      "vis_m": 9999,
      "fzfg": false,
      "metar_trigger": false,
      "taf_trigger": false,
      "metar": "METAR EYKA 191020Z 26006KT 220V010 CAVOK 07/M01 Q1025",
      "taf": "TAF EYKA 190505Z 1906/2006 VRB04KT 5000 BR NSC"
    },
    {
      "icao": "EYPA",
      "alert": "OK",
      "vis_m": 9999,
      "fzfg": false,
      "metar_trigger": false,
      "taf_trigger": false,
      "metar": "METAR EYPA 191020Z 21008KT 9999 OVC044 05/01 Q1024",
      "taf": "TAF EYPA 190519Z 1906/2006 VRB05KT 5000 BR SCT002 BKN030"
    },
    {
      "icao": "EYVI",
      "alert": "OK",
      "vis_m": 9999,
      "fzfg": false,
      "metar_trigger": false,
      "taf_trigger": false,
      "metar": "METAR EYVI 190950Z 32006KT 280V020 CAVOK 08/02 Q1025 NOSIG",
      "taf": "TAF EYVI 190508Z 1906/2006 VRB03KT 9000 SCT040"
    },
    {
      "icao": "GCFV",
      "alert": "OK",
      "vis_m": 9999,
      "fzfg": false,
      "metar_trigger": false,
      "taf_trigger": false,
      "metar": "METAR GCFV 191000Z 20018KT 9999 SCT028 18/11 Q1003",
      "taf": "TAF GCFV 190800Z 1909/2009 21020KT 9999 SCT030 TX22/1914Z TN16/2006Z"
    },
    {
      "icao": "GCLP",
      "alert": "OK",
      "vis_m": 9999,
      "fzfg": false,
      "metar_trigger": false,
      "taf_trigger": false,
      "metar": "METAR GCLP 191000Z 22019G31KT 190V250 9999 FEW035 20/11 Q1002 NOSIG",
      "taf": "TAF GCLP 190800Z 1909/2009 22015KT 9999 SCT035 TX22/1914Z TN16/2006Z"
    },
    {
      "icao": "GCTS",
      "alert": "OK",
      "vis_m": 9999,
      "fzfg": false,
      "metar_trigger": false,
      "taf_trigger": false,
      "metar": "SPECI GCTS 191017Z 29017KT 9999 4800NW -RA FEW030TCU BKN040 15/12 Q1003 RESHRA NOSIG",
      "taf": "TAF GCTS 190800Z 1909/2009 28018KT 9999 SCT030 BKN100 TX23/1914Z TN16/2006Z"
    },
    {
      "icao": "GMAD",
      "alert": "OK",
      "vis_m": 6000,
      "fzfg": false,
      "metar_trigger": false,
      "taf_trigger": false,
      "metar": "METAR GMAD 191000Z 09003KT 020V180 6000 SCT020 SCT083 22/15 Q1005 NOSIG",
      "taf": "TAF GMAD 190500Z 1906/2012 12004KT 8000 SCT020 SCT080"
    },
    {
      "icao": "GMMN",
      "alert": "OK",
      "vis_m": 9999,
      "fzfg": false,
      "metar_trigger": false,
      "taf_trigger": false,
      "metar": "METAR GMMN 191000Z 04005KT 010V100 9999 BKN023 16/14 Q1006 NOSIG",
      "taf": "TAF GMMN 190500Z 1906/2012 20005KT 8000 BKN023"
    },
    {
      "icao": "GMMX",
      "alert": "OK",
      "vis_m": 8000,
      "fzfg": false,
      "metar_trigger": false,
      "taf_trigger": false,
      "metar": "METAR GMMX 191000Z 06008KT 020V110 8000 SCT023 16/11 Q1004 NOSIG",
      "taf": "TAF GMMX 190500Z 1906/2012 04006KT 8000 SCT080"
    },
    {
      "icao": "HEGN",
      "alert": "OK",
      "vis_m": 1000,
      "fzfg": false,
      "metar_trigger": false,
      "taf_trigger": false,
      "metar": "METAR HEGN 190900Z 29023KT 1000 R34/1000 R16/1000 SA NSC 24/01 Q1006 NOSIG",
      "taf": ""
    },
    {
      "icao": "HEMA",
      "alert": "OK",
      "vis_m": 1500,
      "fzfg": false,
      "metar_trigger": false,
      "taf_trigger": false,
      "metar": "METAR HEMA 190900Z 25016KT 1500 SA NSC 27/M02 Q1006 NOSIG",
      "taf": ""
    },
    {
      "icao": "HESH",
      "alert": "OK",
      "vis_m": 6000,
      "fzfg": false,
      "metar_trigger": false,
      "taf_trigger": false,
      "metar": "METAR HESH 190900Z 25012KT 6000 NSC 25/04 Q1005 NOSIG",
      "taf": ""
    },
    {
      "icao": "HESX",
      "alert": "OK",
      "vis_m": 9999,
      "fzfg": false,
      "metar_trigger": false,
      "taf_trigger": false,
      "metar": "METAR HESX 190900Z 26014KT 9999 FEW020 SCT025 17/09 Q1005 NOSIG",
      "taf": "TAF HESX 190500Z 1906/2012 21011KT 9999 SCT025 BKN070"
    },
    {
      "icao": "LATI",
      "alert": "OK",
      "vis_m": 9999,
      "fzfg": false,
      "metar_trigger": false,
      "taf_trigger": false,
      "metar": "METAR LATI 191020Z VRB02KT 9999 SCT110 17/01 Q1009 BECMG 12010KT",
      "taf": "TAF LATI 190500Z 1906/2006 VRB05KT CAVOK TX17/1912Z TN05/2004Z"
    },
    {
      "icao": "LBPD",
      "alert": "OK",
      "vis_m": 9999,
      "fzfg": false,
      "metar_trigger": false,
      "taf_trigger": false,
      "metar": "METAR LBPD 191000Z AUTO VRB02KT 9999 SCT056/// OVC064/// 09/M01 Q1017 NOSIG",
      "taf": ""
    },
    {
      "icao": "LBSF",
      "alert": "OK",
      "vis_m": 9999,
      "fzfg": false,
      "metar_trigger": false,
      "taf_trigger": false,
      "metar": "METAR LBSF 191000Z 10010KT 9999 BKN040 OVC050 06/M02 Q1017 NOSIG",
      "taf": "TAF LBSF 190500Z 1906/2006 12010KT 9999 SCT030 OVC050"
    },
    {
      "icao": "LBWN",
      "alert": "OK",
      "vis_m": 9999,
      "fzfg": false,
      "metar_trigger": false,
      "taf_trigger": false,
      "metar": "METAR LBWN 191000Z 01012KT 340V050 9999 SCT034 09/00 Q1017 NOSIG",
      "taf": "TAF LBWN 190500Z 1906/2006 02014KT CAVOK"
    },
    {
      "icao": "LCLK",
      "alert": "OK",
      "vis_m": 9999,
      "fzfg": false,
      "metar_trigger": false,
      "taf_trigger": false,
      "metar": "METAR LCLK 191000Z 08005KT 9999 FEW009 SCT018 FEW030CB 16/15 Q0999 TEMPO 3000 SCT025CB",
      "taf": "TAF LCLK 190530Z 1906/2006 36009KT 9999 FEW030 SCT050"
    },
    {
      "icao": "LCPH",
      "alert": "OK",
      "vis_m": 9999,
      "fzfg": false,
      "metar_trigger": false,
      "taf_trigger": false,
      "metar": "METAR LCPH 191000Z 25007KT 9999 FEW025CB SCT040 20/15 Q1000 NOSIG",
      "taf": "TAF LCPH 190530Z 1906/2006 07009KT 9999 FEW030 SCT050"
    },
    {
      "icao": "LEAL",
      "alert": "OK",
      "vis_m": 9999,
      "fzfg": false,
      "metar_trigger": false,
      "taf_trigger": false,
      "metar": "METAR LEAL 191000Z 07016KT 050V110 CAVOK 17/11 Q1014 NOSIG",
      "taf": "TAF LEAL 190500Z 1906/2006 01005KT 9999 FEW020 TX19/1912Z TN11/1907Z"
    },
    {
      "icao": "LEBB",
      "alert": "OK",
      "vis_m": 9999,
      "fzfg": false,
      "metar_trigger": false,
      "taf_trigger": false,
      "metar": "METAR LEBB 191000Z VRB06KT CAVOK 18/08 Q1012 NOSIG",
      "taf": "TAF LEBB 190500Z 1906/2006 14009KT CAVOK TX20/1914Z TN08/1906Z"
    },
    {
      "icao": "LEBL",
      "alert": "OK",
      "vis_m": 9000,
      "fzfg": false,
      "metar_trigger": false,
      "taf_trigger": false,
      "metar": "METAR LEBL 191000Z COR 06009KT 030V090 9000 -RA SCT026 BKN035 BKN045 14/09 Q1018 NOSIG",
      "taf": "TAF LEBL 190500Z 1906/2006 07012KT 9999 FEW020 TX16/1912Z TN06/2006Z"
    },
    {
      "icao": "LECH",
      "alert": "OK",
      "vis_m": 9000,
      "fzfg": false,
      "metar_trigger": false,
      "taf_trigger": false,
      "metar": "METAR LECH 191000Z AUTO 07014KT 030V100 9000 SCT041 BKN050 12/07 Q1017",
      "taf": "TAF LECH 190500Z 1906/2006 04009KT 9999 SCT020 TX16/1912Z TN07/1907Z"
    },
    {
      "icao": "LEMD",
      "alert": "OK",
      "vis_m": 9999,
      "fzfg": false,
      "metar_trigger": false,
      "taf_trigger": false,
      "metar": "METAR LEMD 191000Z 21002KT CAVOK 13/03 Q1014 NOSIG",
      "taf": "TAF LEMD 190500Z 1906/2012 VRB04KT CAVOK TX21/1915Z TN06/1907Z"
    },
    {
      "icao": "LEMG",
      "alert": "OK",
      "vis_m": 9999,
      "fzfg": false,
      "metar_trigger": false,
      "taf_trigger": false,
      "metar": "METAR LEMG 191000Z 33003KT 290V040 9999 FEW020 16/12 Q1010 BECMG 13012KT",
      "taf": "TAF LEMG 190500Z 1906/2006 29006KT CAVOK TX20/1913Z TN09/1906Z"
    },
    {
      "icao": "LEVC",
      "alert": "OK",
      "vis_m": 9999,
      "fzfg": false,
      "metar_trigger": false,
      "taf_trigger": false,
      "metar": "METAR LEVC 191000Z 06014KT 040V100 9999 SCT027 SCT042 15/08 Q1016 NOSIG",
      "taf": "TAF LEVC 190500Z 1906/2006 02006KT 9999 SCT020 TX17/1912Z TN10/1907Z"
    },
    {
      "icao": "LEXJ",
      "alert": "OK",
      "vis_m": 9999,
      "fzfg": false,
      "metar_trigger": false,
      "taf_trigger": false,
      "metar": "METAR LEXJ 191000Z VRB02KT CAVOK 15/08 Q1010",
      "taf": "TAF LEXJ 190800Z 1909/2009 VRB03KT CAVOK TX21/1913Z TN07/2007Z"
    },
    {
      "icao": "LEZG",
      "alert": "OK",
      "vis_m": 9999,
      "fzfg": false,
      "metar_trigger": false,
      "taf_trigger": false,
      "metar": "METAR LEZG 191000Z 11013KT 9999 SCT025 14/07 Q1016 NOSIG",
      "taf": "TAF LEZG 190500Z 1906/2006 10012KT 9999 BKN020 TX16/1914Z TN08/1907Z"
    },
    {
      "icao": "LEZL",
      "alert": "OK",
      "vis_m": 9999,
      "fzfg": false,
      "metar_trigger": false,
      "taf_trigger": false,
      "metar": "METAR LEZL 191000Z 24003KT CAVOK 19/10 Q1008 NOSIG",
      "taf": "TAF LEZL 190800Z 1909/2009 08007KT 9999 FEW035 TX24/1915Z TN13/2007Z"
    },
    {
      "icao": "LFBD",
      "alert": "OK",
      "vis_m": 9999,
      "fzfg": false,
      "metar_trigger": false,
      "taf_trigger": false,
      "metar": "METAR LFBD 191000Z AUTO 12015KT CAVOK 15/04 Q1016 NOSIG",
      "taf": "TAF LFBD 190500Z 1906/2012 11012KT CAVOK TX18/1915Z TN04/2006Z"
    },
    {
      "icao": "LFLL",
      "alert": "OK",
      "vis_m": 9999,
      "fzfg": false,
      "metar_trigger": false,
      "taf_trigger": false,
      "metar": "METAR LFLL 191000Z VRB02KT CAVOK 11/05 Q1020 NOSIG",
      "taf": "TAF LFLL 190500Z 1906/2012 VRB03KT CAVOK"
    },
    {
      "icao": "LFLS",
      "alert": "OK",
      "vis_m": 9999,
      "fzfg": false,
      "metar_trigger": false,
      "taf_trigger": false,
      "metar": "METAR LFLS 191000Z AUTO 12003KT 070V210 CAVOK 12/03 Q1020 NOSIG",
      "taf": "TAF LFLS 190800Z 1909/2009 09007KT CAVOK"
    },
    {
      "icao": "LFMN",
      "alert": "OK",
      "vis_m": 9999,
      "fzfg": false,
      "metar_trigger": false,
      "taf_trigger": false,
      "metar": "METAR LFMN 191000Z 10010KT CAVOK 17/06 Q1017 NOSIG",
      "taf": "TAF LFMN 190800Z 1909/2015 34010KT CAVOK"
    },
    {
      "icao": "LFOB",
      "alert": "OK",
      "vis_m": 9999,
      "fzfg": false,
      "metar_trigger": false,
      "taf_trigger": false,
      "metar": "METAR LFOB 191000Z AUTO 09013KT CAVOK 13/05 Q1024 NOSIG",
      "taf": "TAF LFOB 190500Z 1906/2006 VRB03KT CAVOK"
    },
    {
      "icao": "LFPO",
      "alert": "OK",
      "vis_m": 9999,
      "fzfg": false,
      "metar_trigger": false,
      "taf_trigger": false,
      "metar": "METAR LFPO 191000Z 09009KT 060V120 CAVOK 13/03 Q1023 NOSIG",
      "taf": "TAF LFPO 190500Z 1906/2012 03005KT CAVOK"
    },
    {
      "icao": "LFSB",
      "alert": "OK",
      "vis_m": 9999,
      "fzfg": false,
      "metar_trigger": false,
      "taf_trigger": false,
      "metar": "METAR LFSB 191000Z AUTO 02005KT 340V080 CAVOK 11/03 Q1022 NOSIG",
      "taf": "TAF LFSB 190500Z 1906/2006 VRB03KT CAVOK"
    },
    {
      "icao": "LGAV",
      "alert": "OK",
      "vis_m": 9999,
      "fzfg": false,
      "metar_trigger": false,
      "taf_trigger": false,
      "metar": "METAR LGAV 190950Z 01014KT 9999 FEW018 BKN025 10/04 Q1011 NOSIG",
      "taf": "TAF LGAV 190500Z 1906/2006 36016KT 9999 FEW018 SCT025 BKN070"
    },
    {
      "icao": "LGTS",
      "alert": "OK",
      "vis_m": 9999,
      "fzfg": false,
      "metar_trigger": false,
      "taf_trigger": false,
      "metar": "METAR LGTS 190950Z VRB02KT 9999 SCT030 13/02 Q1014 NOSIG",
      "taf": "TAF LGTS 190500Z 1906/2006 VRB03KT 9999 SCT030"
    },
    {
      "icao": "LHBP",
      "alert": "OK",
      "vis_m": 9999,
      "fzfg": false,
      "metar_trigger": false,
      "taf_trigger": false,
      "metar": "METAR LHBP 191000Z 08012KT 030V110 CAVOK 12/M02 Q1022 NOSIG",
      "taf": "TAF LHBP 190515Z 1906/2006 01006KT CAVOK"
    },
    {
      "icao": "LHDC",
      "alert": "OK",
      "vis_m": 9999,
      "fzfg": false,
      "metar_trigger": false,
      "taf_trigger": false,
      "metar": "METAR LHDC 190945Z AUTO 05007KT 360V130 CAVOK 12/M01 Q1022 NOSIG",
      "taf": "TAF LHDC 190815Z 1909/1918 04009KT CAVOK"
    },
    {
      "icao": "LIBD",
      "alert": "OK",
      "vis_m": 9999,
      "fzfg": false,
      "metar_trigger": false,
      "taf_trigger": false,
      "metar": "METAR LIBD 190950Z 06009KT 030V100 9999 -RA BKN025 12/08 Q1011",
      "taf": "TAF LIBD 190500Z 1906/2006 VRB06KT 9999 SCT030"
    },
    {
      "icao": "LIBG",
      "alert": "OK",
      "vis_m": 9999,
      "fzfg": false,
      "metar_trigger": false,
      "taf_trigger": false,
      "metar": "METAR LIBG 190950Z 05007KT 9999 -RA BKN030 11/09 Q1009",
      "taf": "TAF LIBG 190800Z 1909/1918 04012KT 9999 SCT025"
    },
    {
      "icao": "LIBP",
      "alert": "OK",
      "vis_m": 9999,
      "fzfg": false,
      "metar_trigger": false,
      "taf_trigger": false,
      "metar": "METAR LIBP 190950Z AUTO 32008KT 280V350 9999 FEW050/// OVC063/// 12/05 Q1015",
      "taf": "TAF LIBP 190500Z 1906/2006 VRB05KT 9999 BKN020"
    },
    {
      "icao": "LIBR",
      "alert": "OK",
      "vis_m": 9999,
      "fzfg": false,
      "metar_trigger": false,
      "taf_trigger": false,
      "metar": "METAR LIBR 190950Z 07012KT 9999 -RA OVC020 11/08 Q1009",
      "taf": "TAF LIBR 190500Z 1906/2006 VRB05KT 9999 BKN020"
    },
    {
      "icao": "LICA",
      "alert": "OK",
      "vis_m": 9999,
      "fzfg": false,
      "metar_trigger": false,
      "taf_trigger": false,
      "metar": "METAR LICA 190950Z AUTO 24012KT 9999 NCD 13/07 Q1009",
      "taf": "TAF LICA 190500Z 1906/2006 08006KT 8000 SCT050"
    },
    {
      "icao": "LICC",
      "alert": "OK",
      "vis_m": 9999,
      "fzfg": false,
      "metar_trigger": false,
      "taf_trigger": false,
      "metar": "METAR LICC 190950Z 27004KT 190V330 9999 FEW040 SCT100 14/12 Q1010",
      "taf": "TAF LICC 190500Z 1906/2006 25006KT 9999 SCT035"
    },
    {
      "icao": "LICJ",
      "alert": "OK",
      "vis_m": 9999,
      "fzfg": false,
      "metar_trigger": false,
      "taf_trigger": false,
      "metar": "METAR LICJ 190950Z 04008KT 9999 SCT030 13/07 Q1012",
      "taf": "TAF LICJ 190500Z 1906/2006 VRB05KT 9999 SCT030"
    },
    {
      "icao": "LIMC",
      "alert": "OK",
      "vis_m": 9999,
      "fzfg": false,
      "metar_trigger": false,
      "taf_trigger": false,
      "metar": "METAR LIMC 190950Z VRB03KT CAVOK 15/M00 Q1020 NOSIG",
      "taf": "TAF LIMC 190500Z 1906/2012 35010KT 9999 FEW050"
    },
    {
      "icao": "LIME",
      "alert": "OK",
      "vis_m": 9999,
      "fzfg": false,
      "metar_trigger": false,
      "taf_trigger": false,
      "metar": "METAR LIME 190950Z 18003KT 150V210 CAVOK 14/03 Q1020 NOSIG",
      "taf": "TAF LIME 190500Z 1906/2006 01006KT 9999 FEW050"
    },
    {
      "icao": "LIMF",
      "alert": "OK",
      "vis_m": 9999,
      "fzfg": false,
      "metar_trigger": false,
      "taf_trigger": false,
      "metar": "METAR LIMF 190950Z 13003KT 090V190 CAVOK 13/02 Q1020",
      "taf": "TAF LIMF 190500Z 1906/2006 32010KT 9999 BKN060"
    },
    {
      "icao": "LIMJ",
      "alert": "OK",
      "vis_m": 9999,
      "fzfg": false,
      "metar_trigger": false,
      "taf_trigger": false,
      "metar": "METAR LIMJ 190950Z 03012KT 360V060 CAVOK 17/M02 Q1018",
      "taf": "TAF LIMJ 190500Z 1906/2006 02016KT 9999 SCT060"
    },
    {
      "icao": "LIPE",
      "alert": "OK",
      "vis_m": 9999,
      "fzfg": false,
      "metar_trigger": false,
      "taf_trigger": false,
      "metar": "METAR LIPE 190950Z 03005KT 350V070 CAVOK 15/05 Q1019",
      "taf": "TAF LIPE 190500Z 1906/2006 VRB05KT 9999 SCT050"
    },
    {
      "icao": "LIPH",
      "alert": "OK",
      "vis_m": 9999,
      "fzfg": false,
      "metar_trigger": false,
      "taf_trigger": false,
      "metar": "METAR LIPH 190950Z 10006KT 070V140 CAVOK 16/02 Q1019",
      "taf": "TAF LIPH 190500Z 1906/2006 08010KT 9999 SCT060"
    },
    {
      "icao": "LIPQ",
      "alert": "OK",
      "vis_m": 9999,
      "fzfg": false,
      "metar_trigger": false,
      "taf_trigger": false,
      "metar": "METAR LIPQ 190950Z AUTO VRB04KT 9999 NCD 16/M02 Q1019",
      "taf": "TAF LIPQ 190500Z 1906/2006 07012KT 9999 FEW060 SCT090"
    },
    {
      "icao": "LIPR",
      "alert": "OK",
      "vis_m": 9999,
      "fzfg": false,
      "metar_trigger": false,
      "taf_trigger": false,
      "metar": "METAR LIPR 190950Z 04010KT CAVOK 14/05 Q1018",
      "taf": "TAF LIPR 190500Z 1906/2006 04013KT 9999 BKN050"
    },
    {
      "icao": "LIPX",
      "alert": "OK",
      "vis_m": 9999,
      "fzfg": false,
      "metar_trigger": false,
      "taf_trigger": false,
      "metar": "METAR LIPX 190950Z VRB03KT CAVOK 16/M03 Q1020",
      "taf": "TAF LIPX 190500Z 1906/2006 VRB05KT CAVOK"
    },
    {
      "icao": "LIPY",
      "alert": "OK",
      "vis_m": 9999,
      "fzfg": false,
      "metar_trigger": false,
      "taf_trigger": false,
      "metar": "METAR LIPY 190950Z AUTO 36011KT 9999 NCD 14/06 Q1017",
      "taf": "TAF LIPY 190500Z 1906/2006 03013KT 9999 BKN040"
    },
    {
      "icao": "LIPZ",
      "alert": "OK",
      "vis_m": 9999,
      "fzfg": false,
      "metar_trigger": false,
      "taf_trigger": false,
      "metar": "METAR LIPZ 190950Z 10011KT CAVOK 14/02 Q1019 NOSIG",
      "taf": "TAF LIPZ 190500Z 1906/2012 02007KT 9999 SCT060"
    },
    {
      "icao": "LIRF",
      "alert": "OK",
      "vis_m": 9999,
      "fzfg": false,
      "metar_trigger": false,
      "taf_trigger": false,
      "metar": "METAR LIRF 190950Z 02011KT 350V060 CAVOK 15/03 Q1012 NOSIG",
      "taf": "TAF LIRF 190500Z 1906/2012 02010KT 9999 FEW050"
    },
    {
      "icao": "LIRN",
      "alert": "OK",
      "vis_m": 9999,
      "fzfg": false,
      "metar_trigger": false,
      "taf_trigger": false,
      "metar": "METAR LIRN 190950Z 36008KT 290V020 9999 BKN040 11/06 Q1012 NOSIG",
      "taf": "TAF LIRN 190500Z 1906/2006 03008KT 9999 SCT035"
    },
    {
      "icao": "LIRP",
      "alert": "OK",
      "vis_m": 9999,
      "fzfg": false,
      "metar_trigger": false,
      "taf_trigger": false,
      "metar": "METAR LIRP 190945Z 06014G25KT CAVOK 16/M00 Q1016 NOSIG",
      "taf": "TAF LIRP 190500Z 1906/2006 05006KT CAVOK"
    },
    {
      "icao": "LIRZ",
      "alert": "OK",
      "vis_m": 9999,
      "fzfg": false,
      "metar_trigger": false,
      "taf_trigger": false,
      "metar": "METAR LIRZ 190950Z AUTO 05018KT 9999 FEW056/// 14/00 Q1015",
      "taf": "TAF LIRZ 190500Z 1906/2006 02012KT 9999 SCT030"
    },
    {
      "icao": "LJLJ",
      "alert": "OK",
      "vis_m": 9999,
      "fzfg": false,
      "metar_trigger": false,
      "taf_trigger": false,
      "metar": "METAR LJLJ 191000Z VRB04KT 9999 FEW060 12/M03 Q1020 NOSIG",
      "taf": "TAF LJLJ 190500Z 1906/2006 09008KT 9999 FEW075"
    },
    {
      "icao": "LKMT",
      "alert": "OK",
      "vis_m": 9999,
      "fzfg": false,
      "metar_trigger": false,
      "taf_trigger": false,
      "metar": "METAR LKMT 191000Z 03008KT CAVOK 10/00 Q1025 NOSIG",
      "taf": "TAF LKMT 190500Z 1906/2006 03006KT CAVOK"
    },
    {
      "icao": "LKPR",
      "alert": "OK",
      "vis_m": 9999,
      "fzfg": false,
      "metar_trigger": false,
      "taf_trigger": false,
      "metar": "METAR LKPR 191000Z 10006KT 050V140 9999 FEW040 11/M00 Q1025 NOSIG",
      "taf": "TAF LKPR 190800Z 1909/2015 04004KT CAVOK"
    },
    {
      "icao": "LLBG",
      "alert": "OK",
      "vis_m": 9999,
      "fzfg": false,
      "metar_trigger": false,
      "taf_trigger": false,
      "metar": "METAR LLBG 191020Z 25018KT 9999 FEW027 21/12 Q1002 NOSIG",
      "taf": "TAF LLBG 190501Z 1906/2006 20005KT CAVOK TX21/1910Z TN13/2004Z"
    },
    {
      "icao": "LMML",
      "alert": "OK",
      "vis_m": 9999,
      "fzfg": false,
      "metar_trigger": false,
      "taf_trigger": false,
      "metar": "METAR LMML 191015Z 33014KT 9999 FEW036 16/07 Q1010 NOSIG",
      "taf": "TAF LMML 190500Z 1906/2006 33015KT 9999 FEW020"
    },
    {
      "icao": "LOWW",
      "alert": "OK",
      "vis_m": 9999,
      "fzfg": false,
      "metar_trigger": false,
      "taf_trigger": false,
      "metar": "METAR LOWW 190950Z VRB03KT CAVOK 12/M00 Q1024 NOSIG",
      "taf": "TAF LOWW 190815Z 1909/2015 34006KT CAVOK TX14/1914Z TN02/2004Z"
    },
    {
      "icao": "LPFR",
      "alert": "OK",
      "vis_m": 9999,
      "fzfg": false,
      "metar_trigger": false,
      "taf_trigger": false,
      "metar": "METAR LPFR 191000Z 10009KT 9999 SCT008 16/15 Q1006",
      "taf": "TAF LPFR 190500Z 1906/2006 13012KT 9999 SCT020"
    },
    {
      "icao": "LPMA",
      "alert": "OK",
      "vis_m": 9999,
      "fzfg": false,
      "metar_trigger": false,
      "taf_trigger": false,
      "metar": "METAR LPMA 191000Z 24015KT 9999 BKN013 FEW018CB 12/08 Q0995",
      "taf": "TAF LPMA 190500Z 1906/2006 22013KT 9999 SCT015"
    },
    {
      "icao": "LPPR",
      "alert": "OK",
      "vis_m": 9999,
      "fzfg": false,
      "metar_trigger": false,
      "taf_trigger": false,
      "metar": "METAR LPPR 191000Z 14008KT CAVOK 19/08 Q1008",
      "taf": "TAF LPPR 190500Z 1906/2006 10010KT 9999 SCT030"
    },
    {
      "icao": "LPPS",
      "alert": "OK",
      "vis_m": 9999,
      "fzfg": false,
      "metar_trigger": false,
      "taf_trigger": false,
      "metar": "METAR LPPS 191000Z 21016KT 9999 FEW015 FEW018CB 13/07 Q0996",
      "taf": "TAF LPPS 190500Z 1906/2012 20015KT 9999 SCT015 SCT030"
    },
    {
      "icao": "LPPT",
      "alert": "OK",
      "vis_m": 9999,
      "fzfg": false,
      "metar_trigger": false,
      "taf_trigger": false,
      "metar": "METAR LPPT 191000Z 12009G20KT 090V160 9999 FEW004 BKN007 14/13 Q1005",
      "taf": ""
    },
    {
      "icao": "LQBK",
      "alert": "OK",
      "vis_m": 9999,
      "fzfg": false,
      "metar_trigger": false,
      "taf_trigger": false,
      "metar": "METAR LQBK 191000Z 34006KT 310V030 CAVOK 11/01 Q1020 NOSIG",
      "taf": "TAF LQBK 190500Z 1906/2006 34005KT CAVOK TX13/1913Z TN00/2005Z"
    },
    {
      "icao": "LQSA",
      "alert": "OK",
      "vis_m": 9999,
      "fzfg": false,
      "metar_trigger": false,
      "taf_trigger": false,
      "metar": "METAR LQSA 191000Z VRB04KT 9999 BKN055 09/M02 Q1016 NOSIG",
      "taf": "TAF LQSA 190500Z 1906/2006 VRB02KT 9999 SCT045 TX08/1914Z TN01/2005Z"
    },
    {
      "icao": "LQTZ",
      "alert": "OK",
      "vis_m": 9999,
      "fzfg": false,
      "metar_trigger": false,
      "taf_trigger": false,
      "metar": "METAR LQTZ 191000Z 12004KT 090V160 9999 FEW050 BKN065 10/01 Q1019",
      "taf": "TAF LQTZ 190500Z 1906/2006 11005KT CAVOK TX12/1913Z TNM01/2005Z"
    },
    {
      "icao": "LRBC",
      "alert": "OK",
      "vis_m": 9999,
      "fzfg": false,
      "metar_trigger": false,
      "taf_trigger": false,
      "metar": "METAR LRBC 191000Z 35009KT 9999 BKN015 BKN026 06/02 Q1021",
      "taf": "TAF LRBC 190800Z 1909/1918 34010KT 9999 BKN010 OVC025"
    },
    {
      "icao": "LRBS",
      "alert": "OK",
      "vis_m": 9999,
      "fzfg": false,
      "metar_trigger": false,
      "taf_trigger": false,
      "metar": "METAR LRBS 191000Z 06015KT 030V090 9999 FEW025 07/01 Q1020 NOSIG",
      "taf": "TAF LRBS 190500Z 1906/2006 06010KT 9999 BKN035"
    },
    {
      "icao": "LRBV",
      "alert": "OK",
      "vis_m": 9999,
      "fzfg": false,
      "metar_trigger": false,
      "taf_trigger": false,
      "metar": "METAR LRBV 191000Z VRB02KT 9999 FEW035 BKN048 04/M04 Q1020",
      "taf": "TAF LRBV 190800Z 1909/1918 08008KT 9999 BKN040"
    },
    {
      "icao": "LRCL",
      "alert": "OK",
      "vis_m": 9999,
      "fzfg": false,
      "metar_trigger": false,
      "taf_trigger": false,
      "metar": "METAR LRCL 191000Z 03004KT 350V070 9999 BKN068 08/M03 Q1020",
      "taf": "TAF LRCL 190800Z 1909/1918 VRB04KT 9999 BKN060"
    },
    {
      "icao": "LRCV",
      "alert": "OK",
      "vis_m": 9999,
      "fzfg": false,
      "metar_trigger": false,
      "taf_trigger": false,
      "metar": "METAR LRCV 191000Z 09011KT 9999 FEW025 SCT045 08/02 Q1020",
      "taf": "TAF LRCV 190800Z 1909/1918 08010KT CAVOK"
    },
    {
      "icao": "LRIA",
      "alert": "OK",
      "vis_m": 9999,
      "fzfg": false,
      "metar_trigger": false,
      "taf_trigger": false,
      "metar": "METAR LRIA 191000Z 32007KT 290V010 9999 BKN016 BKN035 06/02 Q1022",
      "taf": "TAF LRIA 190800Z 1909/1918 VRB04KT 9999 BKN010 OVC025"
    },
    {
      "icao": "LROP",
      "alert": "OK",
      "vis_m": 9999,
      "fzfg": false,
      "metar_trigger": false,
      "taf_trigger": false,
      "metar": "METAR LROP 191000Z 08017KT 9999 SCT024 08/M01 Q1020 NOSIG",
      "taf": "TAF LROP 190500Z 1906/2006 07012KT 9999 BKN035"
    },
    {
      "icao": "LRSB",
      "alert": "OK",
      "vis_m": 9999,
      "fzfg": false,
      "metar_trigger": false,
      "taf_trigger": false,
      "metar": "METAR LRSB 191000Z 09006KT 070V140 9999 SCT050 BKN070 08/M04 Q1019",
      "taf": "TAF LRSB 190500Z 1906/2006 VRB04KT 9999 BKN045"
    },
    {
      "icao": "LRSM",
      "alert": "OK",
      "vis_m": 9999,
      "fzfg": false,
      "metar_trigger": false,
      "taf_trigger": false,
      "metar": "METAR LRSM 191000Z 03011KT 360V060 CAVOK 12/M01 Q1021",
      "taf": "TAF LRSM 190800Z 1909/1918 VRB04KT CAVOK"
    },
    {
      "icao": "LRSV",
      "alert": "OK",
      "vis_m": 9999,
      "fzfg": false,
      "metar_trigger": false,
      "taf_trigger": false,
      "metar": "METAR LRSV 191000Z 33010KT 9999 BKN007 04/03 Q1021",
      "taf": "TAF LRSV 190800Z 1909/1918 35010KT 5000 -RA BR BKN010 OVC025"
    },
    {
      "icao": "LRTM",
      "alert": "OK",
      "vis_m": 9999,
      "fzfg": false,
      "metar_trigger": false,
      "taf_trigger": false,
      "metar": "METAR LRTM 191000Z 06006KT 020V080 9999 FEW036 09/M03 Q1020",
      "taf": "TAF LRTM 190800Z 1909/1918 VRB04KT CAVOK"
    },
    {
      "icao": "LRTR",
      "alert": "OK",
      "vis_m": 9999,
      "fzfg": false,
      "metar_trigger": false,
      "taf_trigger": false,
      "metar": "METAR LRTR 191000Z 07008KT 9999 FEW048 11/M03 Q1020 NOSIG",
      "taf": "TAF LRTR 190500Z 1906/2006 VRB04KT CAVOK"
    },
    {
      "icao": "LTAC",
      "alert": "OK",
      "vis_m": 9999,
      "fzfg": false,
      "metar_trigger": false,
      "taf_trigger": false,
      "metar": "METAR LTAC 190950Z 08012KT 050V110 9999 -SHRA SCT019 SCT030 BKN080 09/04 Q1005 NOSIG RMK RWY21C 07012KT RWY03L 08012KT RWY21R 06013KT RWY03R 06012KT RWY21L 07012KT",
      "taf": "TAF LTAC 190440Z 1906/2006 03008KT 9999 -SHRA BKN030 BKN080"
    },
    {
      "icao": "LTFM",
      "alert": "OK",
      "vis_m": 9999,
      "fzfg": false,
      "metar_trigger": false,
      "taf_trigger": false,
      "metar": "METAR LTFM 190950Z 04026KT 9999 SCT032 BKN090 10/03 Q1013 NOSIG RMK RWY17L 04021KT RWY34L 03022KT RWY16R 03020KT RWY36 04025KT RWY18 04021KT",
      "taf": "TAF LTFM 190440Z 1906/2012 04018G28KT 9999 SCT014 BKN032"
    },
    {
      "icao": "LUKK",
      "alert": "OK",
      "vis_m": 9999,
      "fzfg": false,
      "metar_trigger": false,
      "taf_trigger": false,
      "metar": "METAR LUKK 191000Z 01010KT 320V050 9999 SCT023 BKN029 OVC048 07/01 Q1020 TEMPO BKN012",
      "taf": "TAF LUKK 190520Z 1906/2006 01010KT 9999 BKN025"
    },
    {
      "icao": "LWOH",
      "alert": "OK",
      "vis_m": 9999,
      "fzfg": false,
      "metar_trigger": false,
      "taf_trigger": false,
      "metar": "METAR LWOH 191020Z 36012KT 320V040 9999 SCT015 BKN033 08/00 Q1012",
      "taf": "TAF LWOH 190825Z 1909/2009 36008KT 9999 SCT020 BKN040"
    },
    {
      "icao": "LWSK",
      "alert": "OK",
      "vis_m": 9999,
      "fzfg": false,
      "metar_trigger": false,
      "taf_trigger": false,
      "metar": "METAR LWSK 191020Z 01008KT 340V080 9999 BKN050 12/01 Q1014 NOSIG",
      "taf": "TAF LWSK 190825Z 1909/2009 02008KT 9999 SCT050 BKN090"
    },
    {
      "icao": "LYBE",
      "alert": "OK",
      "vis_m": 9999,
      "fzfg": false,
      "metar_trigger": false,
      "taf_trigger": false,
      "metar": "METAR LYBE 191000Z 09009KT CAVOK 11/01 Q1020 NOSIG",
      "taf": "TAF LYBE 190500Z 1906/2006 06012KT CAVOK TX13/1913Z TN03/2005Z"
    },
    {
      "icao": "LYNI",
      "alert": "OK",
      "vis_m": 9999,
      "fzfg": false,
      "metar_trigger": false,
      "taf_trigger": false,
      "metar": "METAR LYNI 191000Z 04005KT 330V110 9999 FEW050 12/M03 Q1016 TEMPO 05015KT",
      "taf": "TAF LYNI 190500Z 1906/2006 05012KT CAVOK TX14/1913Z TN01/2005Z"
    },
    {
      "icao": "LYPG",
      "alert": "OK",
      "vis_m": 9999,
      "fzfg": false,
      "metar_trigger": false,
      "taf_trigger": false,
      "metar": "METAR LYPG 191000Z 36014G24KT 9999 SCT090 16/M01 Q1011 NOSIG",
      "taf": "TAF LYPG 190500Z 1906/2006 36010KT 9999 BKN090 TX16/1913Z TN08/2005Z"
    },
    {
      "icao": "LZIB",
      "alert": "OK",
      "vis_m": 9999,
      "fzfg": false,
      "metar_trigger": false,
      "taf_trigger": false,
      "metar": "METAR LZIB 191000Z 05008KT 9999 FEW044 12/M03 Q1023 NOSIG",
      "taf": "TAF LZIB 190515Z 1906/2006 VRB02KT CAVOK"
    },
    {
      "icao": "LZKZ",
      "alert": "OK",
      "vis_m": 9999,
      "fzfg": false,
      "metar_trigger": false,
      "taf_trigger": false,
      "metar": "METAR LZKZ 191000Z 03012KT CAVOK 11/M03 Q1023 NOSIG",
      "taf": "TAF LZKZ 190515Z 1906/2006 01013KT CAVOK"
    },
    {
      "icao": "LZTT",
      "alert": "OK",
      "vis_m": 9999,
      "fzfg": false,
      "metar_trigger": false,
      "taf_trigger": false,
      "metar": "METAR LZTT 191000Z 06011KT 9999 SCT060 08/M04 Q1023 NOSIG",
      "taf": "TAF LZTT 190515Z 1906/2006 08006KT 9999 SCT045"
    },
    {
      "icao": "OEJN",
      "alert": "OK",
      "vis_m": 5000,
      "fzfg": false,
      "metar_trigger": false,
      "taf_trigger": false,
      "metar": "SPECI OEJN 191012Z 17012KT 5000 BLDU SCT040 33/15 Q1005 TEMPO 3000",
      "taf": "TAF OEJN 190500Z 1906/2012 22015KT 7000 SCT040"
    },
    {
      "icao": "OEMA",
      "alert": "OK",
      "vis_m": 8000,
      "fzfg": false,
      "metar_trigger": false,
      "taf_trigger": false,
      "metar": "METAR OEMA 191000Z 24015KT 8000 SCT040 28/13 Q1006 NOSIG",
      "taf": "TAF OEMA 190500Z 1906/2012 24015KT 7000 SCT040"
    },
    {
      "icao": "OJAI",
      "alert": "OK",
      "vis_m": 4000,
      "fzfg": false,
      "metar_trigger": false,
      "taf_trigger": false,
      "metar": "METAR OJAI 190900Z 24014KT 4000 HZ BKN030 17/07 Q1004 NOSIG",
      "taf": "TAF OJAI 190500Z 1906/2012 26018KT 4000 RA BR SCT025TCU SCT030"
    },
    {
      "icao": "OMAA",
      "alert": "OK",
      "vis_m": null,
      "fzfg": false,
      "metar_trigger": false,
      "taf_trigger": false,
      "metar": "",
      "taf": ""
    },
    {
      "icao": "OMDB",
      "alert": "OK",
      "vis_m": null,
      "fzfg": false,
      "metar_trigger": false,
      "taf_trigger": false,
      "metar": "",
      "taf": ""
    },
    {
      "icao": "UAAA",
      "alert": "OK",
      "vis_m": 9999,
      "fzfg": false,
      "metar_trigger": false,
      "taf_trigger": false,
      "metar": "METAR UAAA 191000Z 36002MPS 9999 FEW200 15/M05 Q1017 NOSIG",
      "taf": "TAF UAAA 190501Z 1906/2006 35003G09MPS 9999 FEW100 TX15/1910Z TN00/2000Z"
    },
    {
      "icao": "UBBB",
      "alert": "OK",
      "vis_m": 9999,
      "fzfg": false,
      "metar_trigger": false,
      "taf_trigger": false,
      "metar": "METAR UBBB 191000Z 16016KT 140V200 9999 BKN022 13/08 Q1018 NOSIG",
      "taf": "TAF UBBB 190500Z 1906/2006 18010KT 9999 SCT035 TX14/1910Z TN07/2000Z"
    },
    {
      "icao": "UDSG",
      "alert": "OK",
      "vis_m": 9999,
      "fzfg": false,
      "metar_trigger": false,
      "taf_trigger": false,
      "metar": "METAR UDSG 191000Z 26006KT 230V310 9999 NSC 10/00 Q1014 NOSIG",
      "taf": "TAF UDSG 190458Z 1906/2006 VRB06KT 9999 FEW050"
    },
    {
      "icao": "UDYZ",
      "alert": "OK",
      "vis_m": 9999,
      "fzfg": false,
      "metar_trigger": false,
      "taf_trigger": false,
      "metar": "METAR UDYZ 191000Z 16003KT 110V240 9999 NSC 15/M00 Q1013 NOSIG",
      "taf": "TAF UDYZ 190500Z 1906/2006 20006KT 9999 FEW040"
    },
    {
      "icao": "UGKO",
      "alert": "OK",
      "vis_m": 9999,
      "fzfg": false,
      "metar_trigger": false,
      "taf_trigger": false,
      "metar": "METAR UGKO 191000Z 08034G47KT CAVOK 20/03 Q1005 NOSIG",
      "taf": "TAF UGKO 190500Z 1906/2006 08027G39KT CAVOK TX21/1911Z TN13/2003Z"
    }
  ]
}