{
  "ts_utc": "2026-03-13T23:19:19Z",
  "threshold_m": 150,
  "source": "stations_override.txt (ICAO list) + aviationweather.gov (METAR/TAF raw)",
  "station_count": 159,
  "stations": [
    {
      "icao": "BIKF",
      "alert": "OK",
      "vis_m": 9999,
      "fzfg": false,
      "metar_trigger": false,
      "taf_trigger": false,
      "metar": "METAR BIKF 132300Z 00000KT 9999 SCT033 BKN100 01/M05 Q0986",
      "taf": "TAF BIKF 132238Z 1400/1500 30005KT 9999 FEW025 SCT035 TX04/1415Z TNM03/1407Z"
    },
    {
      "icao": "BKPR",
      "alert": "OK",
      "vis_m": 9999,
      "fzfg": false,
      "metar_trigger": false,
      "taf_trigger": false,
      "metar": "METAR BKPR 132300Z VRB02KT CAVOK 02/M02 Q1015 NOSIG",
      "taf": ""
    },
    {
      "icao": "EBCI",
      "alert": "OK",
      "vis_m": 9999,
      "fzfg": false,
      "metar_trigger": false,
      "taf_trigger": false,
      "metar": "METAR EBCI 132250Z 16004KT 9999 -RA FEW006 BKN045 03/03 Q1000 TEMPO BKN008",
      "taf": "TAF EBCI 131720Z 1318/1424 VRB03KT -RA 9999 SCT010 BKN020"
    },
    {
      "icao": "EDDB",
      "alert": "OK",
      "vis_m": 9999,
      "fzfg": false,
      "metar_trigger": false,
      "taf_trigger": false,
      "metar": "METAR EDDB 132250Z AUTO 17007KT CAVOK 11/03 Q1002 NOSIG",
      "taf": "TAF EDDB 131700Z 1318/1418 18008KT CAVOK"
    },
    {
      "icao": "EDDH",
      "alert": "OK",
      "vis_m": 9999,
      "fzfg": false,
      "metar_trigger": false,
      "taf_trigger": false,
      "metar": "METAR EDDH 132250Z AUTO VRB02KT 9999 -RA BKN032 05/03 Q1001 TEMPO RA BKN014",
      "taf": "TAF EDDH 131700Z 1318/1424 23005KT 9999 BKN020"
    },
    {
      "icao": "EDDK",
      "alert": "OK",
      "vis_m": 9999,
      "fzfg": false,
      "metar_trigger": false,
      "taf_trigger": false,
      "metar": "METAR EDDK 132250Z AUTO 34003KT 9999 -RA SCT015 BKN022 BKN029 04/03 Q1001 TEMPO BKN012",
      "taf": "TAF EDDK 131700Z 1318/1424 33005KT 9999 BKN020"
    },
    {
      "icao": "EDDN",
      "alert": "OK",
      "vis_m": 9999,
      "fzfg": false,
      "metar_trigger": false,
      "taf_trigger": false,
      "metar": "METAR EDDN 132250Z AUTO 13005KT CAVOK 07/02 Q1003",
      "taf": "TAF EDDN 131700Z 1318/1418 19007KT CAVOK"
    },
    {
      "icao": "EDDS",
      "alert": "OK",
      "vis_m": 9999,
      "fzfg": false,
      "metar_trigger": false,
      "taf_trigger": false,
      "metar": "METAR EDDS 132250Z AUTO VRB01KT CAVOK 10/02 Q1002",
      "taf": "TAF EDDS 131700Z 1318/1418 20004KT 9999 BKN030"
    },
    {
      "icao": "EDFH",
      "alert": "OK",
      "vis_m": 9999,
      "fzfg": false,
      "metar_trigger": false,
      "taf_trigger": false,
      "metar": "METAR EDFH 132250Z 30005KT 270V330 9999 -RA SCT001 BKN003 05/05 Q0999",
      "taf": "TAF EDFH 131700Z 1318/1418 20010KT 9999 BKN010"
    },
    {
      "icao": "EDJA",
      "alert": "OK",
      "vis_m": 9999,
      "fzfg": false,
      "metar_trigger": false,
      "taf_trigger": false,
      "metar": "METAR EDJA 132250Z AUTO 15005KT 9999 // SCT150/// BKN190/// 05/00 Q1004",
      "taf": "TAF EDJA 131700Z 1318/1403 20004KT CAVOK"
    },
    {
      "icao": "EDLW",
      "alert": "OK",
      "vis_m": 9999,
      "fzfg": false,
      "metar_trigger": false,
      "taf_trigger": false,
      "metar": "METAR EDLW 132250Z AUTO 14003KT 100V190 9999 // SCT037/// OVC052/// 04/03 Q1000",
      "taf": "TAF EDLW 131700Z 1318/1418 VRB03KT 9999 BKN015"
    },
    {
      "icao": "EDNY",
      "alert": "OK",
      "vis_m": 9999,
      "fzfg": false,
      "metar_trigger": false,
      "taf_trigger": false,
      "metar": "METAR EDNY 132250Z AUTO VRB01KT 9999 // FEW160/// 03/02 Q1004",
      "taf": "TAF EDNY 131700Z 1318/1403 VRB03KT CAVOK"
    },
    {
      "icao": "EDSB",
      "alert": "OK",
      "vis_m": 9999,
      "fzfg": false,
      "metar_trigger": false,
      "taf_trigger": false,
      "metar": "METAR EDSB 132250Z AUTO 21010KT 9999 // OVC066/// 14/04 Q1001",
      "taf": "TAF EDSB 131700Z 1318/1418 20010KT 9999 BKN030"
    },
    {
      "icao": "EETN",
      "alert": "OK",
      "vis_m": 9999,
      "fzfg": false,
      "metar_trigger": false,
      "taf_trigger": false,
      "metar": "METAR EETN 132250Z 19009KT CAVOK 08/05 Q1007",
      "taf": "TAF EETN 131730Z 1318/1418 18010KT"
    },
    {
      "icao": "EFTU",
      "alert": "OK",
      "vis_m": 9999,
      "fzfg": false,
      "metar_trigger": false,
      "taf_trigger": false,
      "metar": "METAR EFTU 132250Z AUTO 21008KT 9999 -RA OVC019 05/02 Q1003",
      "taf": "TAF EFTU 132027Z 1321/1421 21016KT 9999 BKN030"
    },
    {
      "icao": "EGBB",
      "alert": "OK",
      "vis_m": 9999,
      "fzfg": false,
      "metar_trigger": false,
      "taf_trigger": false,
      "metar": "METAR EGBB 132250Z COR 26006KT 9999 FEW015 03/01 Q0999",
      "taf": "TAF EGBB 132303Z 1400/1424 26010KT 9999 FEW045"
    },
    {
      "icao": "EGGP",
      "alert": "OK",
      "vis_m": 9999,
      "fzfg": false,
      "metar_trigger": false,
      "taf_trigger": false,
      "metar": "METAR EGGP 132250Z 32005KT 280V020 9999 -RA FEW020 SCT033 BKN048 04/02 Q0998",
      "taf": "TAF EGGP 132256Z 1400/1424 27005KT 9999 FEW045"
    },
    {
      "icao": "EGGW",
      "alert": "OK",
      "vis_m": 9999,
      "fzfg": false,
      "metar_trigger": false,
      "taf_trigger": false,
      "metar": "METAR EGGW 132250Z AUTO 26007KT 9999 NCD 01/M00 Q0999",
      "taf": "TAF EGGW 132258Z 1400/1424 26007KT 9999 FEW045"
    },
    {
      "icao": "EGKK",
      "alert": "OK",
      "vis_m": 9999,
      "fzfg": false,
      "metar_trigger": false,
      "taf_trigger": false,
      "metar": "METAR EGKK 132250Z 23004KT CAVOK 02/01 Q1000",
      "taf": "TAF EGKK 132254Z 1400/1506 23004KT CAVOK"
    },
    {
      "icao": "EGNM",
      "alert": "OK",
      "vis_m": 9999,
      "fzfg": false,
      "metar_trigger": false,
      "taf_trigger": false,
      "metar": "METAR EGNM 132250Z 26007KT 9999 -SHRA FEW011 SCT030 03/01 Q0997",
      "taf": "TAF EGNM 132254Z 1400/1424 27007KT 9999 FEW040"
    },
    {
      "icao": "EGPD",
      "alert": "OK",
      "vis_m": 9999,
      "fzfg": false,
      "metar_trigger": false,
      "taf_trigger": false,
      "metar": "METAR EGPD 132250Z COR AUTO 26006KT 210V300 9999 NCD 04/M01 Q0991 NOSIG",
      "taf": "TAF EGPD 132257Z 1400/1424 25009KT 9999 FEW040"
    },
    {
      "icao": "EGPF",
      "alert": "OK",
      "vis_m": 9999,
      "fzfg": false,
      "metar_trigger": false,
      "taf_trigger": false,
      "metar": "METAR EGPF 132250Z AUTO 27012KT 9999 -RA FEW019/// SCT029/// BKN038/// //////TCU 03/01 Q0996",
      "taf": "TAF EGPF 132259Z 1400/1424 26009KT 9999 SCT030"
    },
    {
      "icao": "EHBK",
      "alert": "OK",
      "vis_m": 9999,
      "fzfg": false,
      "metar_trigger": false,
      "taf_trigger": false,
      "metar": "METAR EHBK 132255Z AUTO 19007KT 9999 -DZ FEW044 BKN049 04/02 Q1001",
      "taf": "TAF EHBK 131720Z 1318/1424 18006KT 9999 -RA BKN025"
    },
    {
      "icao": "EHEH",
      "alert": "OK",
      "vis_m": 9999,
      "fzfg": false,
      "metar_trigger": false,
      "taf_trigger": false,
      "metar": "METAR EHEH 132255Z AUTO 24004KT 190V280 9999 OVC054 05/03 Q1000 BLU",
      "taf": "TAF EHEH 131728Z 1318/1424 22007KT 9999 SCT035 BKN050"
    },
    {
      "icao": "EKBI",
      "alert": "OK",
      "vis_m": 9999,
      "fzfg": false,
      "metar_trigger": false,
      "taf_trigger": false,
      "metar": "METAR EKBI 132250Z AUTO 18005KT 9999 NCD 03/03 Q0999",
      "taf": "TAF EKBI 132027Z 1321/1421 22008KT 9999 BKN025"
    },
    {
      "icao": "EKCH",
      "alert": "OK",
      "vis_m": 9999,
      "fzfg": false,
      "metar_trigger": false,
      "taf_trigger": false,
      "metar": "METAR EKCH 132250Z AUTO 18006KT 9999 OVC055/// 04/03 Q1002 NOSIG",
      "taf": "TAF EKCH 132027Z 1321/1421 21008KT 9999 -RA BKN020"
    },
    {
      "icao": "ENAL",
      "alert": "OK",
      "vis_m": 9999,
      "fzfg": false,
      "metar_trigger": false,
      "taf_trigger": false,
      "metar": "METAR ENAL 132250Z AUTO 21011KT 9999 NCD 05/01 Q0984",
      "taf": "TAF ENAL 132000Z 1321/1406 18012KT 9999 FEW020TCU SCT050"
    },
    {
      "icao": "ENBR",
      "alert": "OK",
      "vis_m": 9999,
      "fzfg": false,
      "metar_trigger": false,
      "taf_trigger": false,
      "metar": "METAR ENBR 132250Z 15021KT 9999 FEW010 SCT013 BKN051 04/02 Q0989 RMK WIND 1200FT 16025KT",
      "taf": "TAF ENBR 131700Z 1318/1418 16012KT 9999 -SHRA FEW007 BKN020"
    },
    {
      "icao": "ENGM",
      "alert": "OK",
      "vis_m": 9999,
      "fzfg": false,
      "metar_trigger": false,
      "taf_trigger": false,
      "metar": "METAR ENGM 132250Z 20011KT 9999 SCT014 OVC017 02/00 Q0994",
      "taf": "TAF ENGM 131700Z 1318/1418 20015KT 9999 FEW010"
    },
    {
      "icao": "ENHD",
      "alert": "OK",
      "vis_m": 9999,
      "fzfg": false,
      "metar_trigger": false,
      "taf_trigger": false,
      "metar": "METAR ENHD 132250Z AUTO 16013KT 9999 VV012 05/03 Q0990",
      "taf": "TAF ENHD 131400Z 1315/1323 19018KT 9999 -SHRA FEW012 BKN020"
    },
    {
      "icao": "ENTC",
      "alert": "OK",
      "vis_m": 9999,
      "fzfg": false,
      "metar_trigger": false,
      "taf_trigger": false,
      "metar": "METAR ENTC 132250Z 03007KT CAVOK 03/M00 Q0977 RMK WIND 2600FT 10006KT",
      "taf": ""
    },
    {
      "icao": "ENTO",
      "alert": "OK",
      "vis_m": 7000,
      "fzfg": false,
      "metar_trigger": false,
      "taf_trigger": false,
      "metar": "METAR ENTO 132250Z AUTO 20009KT 7000 RA BKN005/// OVC006/// 03/03 Q0996",
      "taf": "TAF ENTO 131700Z 1318/1418 20015KT 9999 SCT020"
    },
    {
      "icao": "ENVA",
      "alert": "OK",
      "vis_m": 9999,
      "fzfg": false,
      "metar_trigger": false,
      "taf_trigger": false,
      "metar": "METAR ENVA 132250Z VRB02KT CAVOK 03/M01 Q0986 RMK WIND 670FT 18018KT",
      "taf": "TAF ENVA 131700Z 1318/1418 13006KT 9999 BKN030"
    },
    {
      "icao": "ENZV",
      "alert": "OK",
      "vis_m": 9999,
      "fzfg": false,
      "metar_trigger": false,
      "taf_trigger": false,
      "metar": "METAR ENZV 132250Z 18012KT 9999 -RA FEW016 SCT019 BKN038 05/03 Q0992",
      "taf": "TAF ENZV 131700Z 1318/1418 19015KT 9999 -SHRA SCT015 BKN030"
    },
    {
      "icao": "EPGD",
      "alert": "OK",
      "vis_m": 9999,
      "fzfg": false,
      "metar_trigger": false,
      "taf_trigger": false,
      "metar": "METAR EPGD 132300Z 19009KT CAVOK 10/04 Q1005",
      "taf": "TAF EPGD 131730Z 1318/1418 18010KT CAVOK"
    },
    {
      "icao": "EPKK",
      "alert": "OK",
      "vis_m": 9999,
      "fzfg": false,
      "metar_trigger": false,
      "taf_trigger": false,
      "metar": "METAR EPKK 132300Z VRB02KT CAVOK 05/01 Q1011",
      "taf": "TAF EPKK 132030Z 1321/1421 06002KT CAVOK"
    },
    {
      "icao": "EPKT",
      "alert": "OK",
      "vis_m": 9999,
      "fzfg": false,
      "metar_trigger": false,
      "taf_trigger": false,
      "metar": "METAR EPKT 132300Z 13006KT CAVOK 06/01 Q1010",
      "taf": "TAF EPKT 131730Z 1318/1418 18010KT CAVOK"
    },
    {
      "icao": "EPLB",
      "alert": "OK",
      "vis_m": 9999,
      "fzfg": false,
      "metar_trigger": false,
      "taf_trigger": false,
      "metar": "METAR EPLB 132300Z 14005KT CAVOK 07/01 Q1013",
      "taf": "TAF EPLB 131730Z 1318/1418 16006KT CAVOK"
    },
    {
      "icao": "EPMO",
      "alert": "OK",
      "vis_m": 9999,
      "fzfg": false,
      "metar_trigger": false,
      "taf_trigger": false,
      "metar": "METAR EPMO 132300Z 15006KT CAVOK 10/03 Q1010",
      "taf": "TAF EPMO 131730Z 1318/1418 17010KT CAVOK"
    },
    {
      "icao": "EPPO",
      "alert": "OK",
      "vis_m": 9999,
      "fzfg": false,
      "metar_trigger": false,
      "taf_trigger": false,
      "metar": "METAR EPPO 132300Z 17008KT CAVOK 09/04 Q1005",
      "taf": "TAF EPPO 131730Z 1318/1418 18010KT CAVOK"
    },
    {
      "icao": "EPRA",
      "alert": "OK",
      "vis_m": 9999,
      "fzfg": false,
      "metar_trigger": false,
      "taf_trigger": false,
      "metar": "METAR EPRA 132300Z 17007KT CAVOK 08/02 Q1011",
      "taf": "TAF EPRA 132030Z 1321/1406 15006KT CAVOK"
    },
    {
      "icao": "EPRZ",
      "alert": "OK",
      "vis_m": 9999,
      "fzfg": false,
      "metar_trigger": false,
      "taf_trigger": false,
      "metar": "METAR EPRZ 132300Z 09007KT CAVOK 07/01 Q1013",
      "taf": "TAF EPRZ 131730Z 1318/1418 17006KT CAVOK"
    },
    {
      "icao": "EPSC",
      "alert": "OK",
      "vis_m": 9999,
      "fzfg": false,
      "metar_trigger": false,
      "taf_trigger": false,
      "metar": "METAR EPSC 132300Z 15008KT 9999 BKN049 11/02 Q1002",
      "taf": "TAF EPSC 131730Z 1318/1418 17010KT CAVOK"
    },
    {
      "icao": "EPSY",
      "alert": "OK",
      "vis_m": 9999,
      "fzfg": false,
      "metar_trigger": false,
      "taf_trigger": false,
      "metar": "METAR EPSY 132300Z 16005KT CAVOK 08/04 Q1009",
      "taf": "TAF EPSY 132030Z 1321/1406 17008KT CAVOK"
    },
    {
      "icao": "EPWA",
      "alert": "OK",
      "vis_m": 9999,
      "fzfg": false,
      "metar_trigger": false,
      "taf_trigger": false,
      "metar": "METAR EPWA 132300Z 16007KT CAVOK 07/03 Q1010 NOSIG",
      "taf": "TAF EPWA 132030Z 1321/1421 16008KT CAVOK"
    },
    {
      "icao": "EPWR",
      "alert": "OK",
      "vis_m": 9999,
      "fzfg": false,
      "metar_trigger": false,
      "taf_trigger": false,
      "metar": "METAR EPWR 132300Z 13011KT CAVOK 07/04 Q1007",
      "taf": "TAF EPWR 132030Z 1321/1421 14010KT CAVOK"
    },
    {
      "icao": "ESGG",
      "alert": "OK",
      "vis_m": 9999,
      "fzfg": false,
      "metar_trigger": false,
      "taf_trigger": false,
      "metar": "METAR ESGG 132250Z 17007KT 9999 FEW042 OVC096 02/02 Q0999",
      "taf": "TAF ESGG 132030Z 1321/1421 18008KT 9999 SCT004"
    },
    {
      "icao": "ESKN",
      "alert": "OK",
      "vis_m": 9999,
      "fzfg": false,
      "metar_trigger": false,
      "taf_trigger": false,
      "metar": "METAR ESKN 132250Z 21008KT 9999 -DZ SCT028 BKN044 05/03 Q1001",
      "taf": "TAF ESKN 132030Z 1321/1421 20005KT 9999 BKN020"
    },
    {
      "icao": "ESMS",
      "alert": "OK",
      "vis_m": 9999,
      "fzfg": false,
      "metar_trigger": false,
      "taf_trigger": false,
      "metar": "METAR ESMS 132250Z 30001KT 9999 FEW020 BKN025 BKN030 04/04 Q1002",
      "taf": "TAF ESMS 132027Z 1321/1421 23008KT 9999 -RA FEW008 BKN020"
    },
    {
      "icao": "ESSA",
      "alert": "OK",
      "vis_m": 9999,
      "fzfg": false,
      "metar_trigger": false,
      "taf_trigger": false,
      "metar": "METAR ESSA 132250Z 18008KT CAVOK 04/03 Q1001 NOSIG",
      "taf": ""
    },
    {
      "icao": "EYKA",
      "alert": "OK",
      "vis_m": 9999,
      "fzfg": false,
      "metar_trigger": false,
      "taf_trigger": false,
      "metar": "METAR EYKA 132250Z 15009KT CAVOK 10/00 Q1012",
      "taf": "TAF EYKA 132300Z 1400/1424 15008KT 9000 NSC"
    },
    {
      "icao": "EYPA",
      "alert": "OK",
      "vis_m": 9999,
      "fzfg": false,
      "metar_trigger": false,
      "taf_trigger": false,
      "metar": "METAR EYPA 132250Z 16012KT CAVOK 09/04 Q1007",
      "taf": "TAF EYPA 132300Z 1400/1424 15011KT 9000 SCT045"
    },
    {
      "icao": "EYVI",
      "alert": "OK",
      "vis_m": 9999,
      "fzfg": false,
      "metar_trigger": false,
      "taf_trigger": false,
      "metar": "METAR EYVI 132250Z 16009KT CAVOK 07/M01 Q1014 NOSIG",
      "taf": "TAF EYVI 132300Z 1400/1424 15011KT 9000 NSC"
    },
    {
      "icao": "GCFV",
      "alert": "OK",
      "vis_m": 9999,
      "fzfg": false,
      "metar_trigger": false,
      "taf_trigger": false,
      "metar": "METAR GCFV 132300Z 01019KT 9999 FEW015 17/14 Q1020",
      "taf": "TAF GCFV 132000Z 1321/1421 03015KT 9999 FEW015 TX20/1414Z TN16/1406Z"
    },
    {
      "icao": "GCLP",
      "alert": "OK",
      "vis_m": 9999,
      "fzfg": false,
      "metar_trigger": false,
      "taf_trigger": false,
      "metar": "METAR GCLP 132300Z 01021KT 9999 SCT020 18/14 Q1020 NOSIG",
      "taf": "TAF GCLP 132000Z 1321/1421 01020KT 9999 FEW020 TX21/1414Z TN16/1406Z"
    },
    {
      "icao": "GCTS",
      "alert": "OK",
      "vis_m": 9999,
      "fzfg": false,
      "metar_trigger": false,
      "taf_trigger": false,
      "metar": "METAR GCTS 132300Z 07020KT CAVOK 18/13 Q1019 WS R07 NOSIG",
      "taf": "TAF GCTS 132000Z 1321/1421 08020KT 9999 FEW025 TX24/1414Z TN17/1406Z"
    },
    {
      "icao": "GMAD",
      "alert": "OK",
      "vis_m": 9999,
      "fzfg": false,
      "metar_trigger": false,
      "taf_trigger": false,
      "metar": "METAR GMAD 132300Z 31004KT CAVOK 13/11 Q1018 NOSIG",
      "taf": "TAF GMAD 132300Z 1400/1506 12004KT CAVOK"
    },
    {
      "icao": "GMMN",
      "alert": "OK",
      "vis_m": 8000,
      "fzfg": false,
      "metar_trigger": false,
      "taf_trigger": false,
      "metar": "METAR GMMN 132300Z 01005KT 8000 SCT010 11/10 Q1021 NOSIG",
      "taf": "TAF GMMN 131700Z 1318/1424 36008KT CAVOK"
    },
    {
      "icao": "GMMX",
      "alert": "OK",
      "vis_m": 9999,
      "fzfg": false,
      "metar_trigger": false,
      "taf_trigger": false,
      "metar": "METAR GMMX 132300Z 03003KT CAVOK 15/10 Q1020 NOSIG",
      "taf": "TAF GMMX 132300Z 1400/1506 04006KT 8000 NSC"
    },
    {
      "icao": "HEGN",
      "alert": "OK",
      "vis_m": 9999,
      "fzfg": false,
      "metar_trigger": false,
      "taf_trigger": false,
      "metar": "METAR HEGN 132200Z 15004KT 9999 SCT020 BKN025 22/17 Q1008 NOSIG",
      "taf": ""
    },
    {
      "icao": "HEMA",
      "alert": "OK",
      "vis_m": 9999,
      "fzfg": false,
      "metar_trigger": false,
      "taf_trigger": false,
      "metar": "METAR HEMA 132200Z 20006KT CAVOK 24/04 Q1009 NOSIG",
      "taf": "TAF HEMA 132300Z 1400/1506 19015KT 6000 SCT025"
    },
    {
      "icao": "HESH",
      "alert": "OK",
      "vis_m": 9999,
      "fzfg": false,
      "metar_trigger": false,
      "taf_trigger": false,
      "metar": "METAR HESH 132200Z 34006KT CAVOK 22/14 Q1010 NOSIG",
      "taf": ""
    },
    {
      "icao": "HESX",
      "alert": "OK",
      "vis_m": 9999,
      "fzfg": false,
      "metar_trigger": false,
      "taf_trigger": false,
      "metar": "METAR HESX 132200Z 15016KT 9999 FEW020 CB BKN100 24/05 Q1001 NOSIG",
      "taf": "TAF HESX 132300Z 1400/1506 21014G28KT 6000 SCT025"
    },
    {
      "icao": "LATI",
      "alert": "OK",
      "vis_m": null,
      "fzfg": false,
      "metar_trigger": false,
      "taf_trigger": false,
      "metar": "",
      "taf": "TAF LATI 132300Z 1400/1424 VRB03KT 9999 BKN100 TX19/1413Z TN03/1404Z"
    },
    {
      "icao": "LBPD",
      "alert": "OK",
      "vis_m": 9999,
      "fzfg": false,
      "metar_trigger": false,
      "taf_trigger": false,
      "metar": "METAR LBPD 132300Z AUTO 23003KT 9999 NCD 06/M02 Q1018",
      "taf": "TAF LBPD 132300Z 1400/1424 VRB04KT CAVOK"
    },
    {
      "icao": "LBSF",
      "alert": "OK",
      "vis_m": 9999,
      "fzfg": false,
      "metar_trigger": false,
      "taf_trigger": false,
      "metar": "METAR LBSF 132300Z AUTO 11004KT 9999 NCD 01/M03 Q1017 NOSIG",
      "taf": "TAF LBSF 132300Z 1400/1424 11010KT CAVOK"
    },
    {
      "icao": "LBWN",
      "alert": "OK",
      "vis_m": 9000,
      "fzfg": false,
      "metar_trigger": false,
      "taf_trigger": false,
      "metar": "METAR LBWN 132300Z AUTO VRB02KT 9000 OVC008/// 04/04 Q1018 TEMPO BKN005",
      "taf": "TAF LBWN 132300Z 1400/1424 VRB03KT 3000 BR BKN005"
    },
    {
      "icao": "LCLK",
      "alert": "OK",
      "vis_m": 9999,
      "fzfg": false,
      "metar_trigger": false,
      "taf_trigger": false,
      "metar": "METAR LCLK 132300Z 03011KT CAVOK 16/13 Q1011 NOSIG",
      "taf": "TAF LCLK 131730Z 1318/1418 07011KT 9999 FEW030"
    },
    {
      "icao": "LCPH",
      "alert": "OK",
      "vis_m": 9999,
      "fzfg": false,
      "metar_trigger": false,
      "taf_trigger": false,
      "metar": "METAR LCPH 132300Z 09011KT CAVOK 17/02 Q1009 NOSIG",
      "taf": "TAF LCPH 131730Z 1318/1418 08008KT 9999 FEW020"
    },
    {
      "icao": "LEAL",
      "alert": "OK",
      "vis_m": 9999,
      "fzfg": false,
      "metar_trigger": false,
      "taf_trigger": false,
      "metar": "METAR LEAL 132300Z 26005KT 240V300 CAVOK 13/10 Q1014 NOSIG",
      "taf": "TAF LEAL 131700Z 1318/1418 VRB04KT CAVOK TX21/1412Z TN12/1406Z"
    },
    {
      "icao": "LEBB",
      "alert": "OK",
      "vis_m": 9999,
      "fzfg": false,
      "metar_trigger": false,
      "taf_trigger": false,
      "metar": "METAR LEBB 132300Z AUTO 27005KT 240V300 9999 -RA SCT026 BKN040 OVC060 11/10 Q1013",
      "taf": "TAF LEBB 131700Z 1318/1418 32009KT 9999 SCT030 BKN040 TX12/1318Z TN07/1407Z"
    },
    {
      "icao": "LEBL",
      "alert": "OK",
      "vis_m": 9999,
      "fzfg": false,
      "metar_trigger": false,
      "taf_trigger": false,
      "metar": "METAR LEBL 132300Z 23012KT 9999 FEW012 14/12 Q1011 NOSIG",
      "taf": "TAF LEBL 131700Z 1318/1418 22009KT 9999 SCT015 TX14/1413Z TN08/1406Z"
    },
    {
      "icao": "LECH",
      "alert": "OK",
      "vis_m": 7000,
      "fzfg": false,
      "metar_trigger": false,
      "taf_trigger": false,
      "metar": "METAR LECH 132300Z AUTO 20008KT 7000 NSC 11/08 Q1011",
      "taf": ""
    },
    {
      "icao": "LEMD",
      "alert": "OK",
      "vis_m": 9999,
      "fzfg": false,
      "metar_trigger": false,
      "taf_trigger": false,
      "metar": "METAR LEMD 132300Z 28008KT 250V310 CAVOK 13/05 Q1014 NOSIG",
      "taf": "TAF LEMD 131700Z 1318/1424 24010KT CAVOK TX13/1415Z TN08/1407Z"
    },
    {
      "icao": "LEMG",
      "alert": "OK",
      "vis_m": 9999,
      "fzfg": false,
      "metar_trigger": false,
      "taf_trigger": false,
      "metar": "METAR LEMG 132300Z 30007KT CAVOK 12/10 Q1018 NOSIG",
      "taf": "TAF LEMG 131700Z 1318/1418 VRB03KT 9999 FEW040 TX19/1415Z TN10/1407Z"
    },
    {
      "icao": "LEVC",
      "alert": "OK",
      "vis_m": 9999,
      "fzfg": false,
      "metar_trigger": false,
      "taf_trigger": false,
      "metar": "METAR LEVC 132300Z 27002KT CAVOK 14/09 Q1012 NOSIG",
      "taf": "TAF LEVC 131700Z 1318/1418 11010KT CAVOK TX18/1414Z TN11/1406Z"
    },
    {
      "icao": "LEXJ",
      "alert": "OK",
      "vis_m": 4000,
      "fzfg": false,
      "metar_trigger": false,
      "taf_trigger": false,
      "metar": "METAR LEXJ 132300Z AUTO 31014KT 280V350 4000 -RA BR FEW009 OVC016 09/07 Q1013",
      "taf": "TAF LEXJ 132000Z 1321/1421 29009KT 9999 SCT015 BKN025 TX10/1413Z TN08/1408Z"
    },
    {
      "icao": "LEZG",
      "alert": "OK",
      "vis_m": 9999,
      "fzfg": false,
      "metar_trigger": false,
      "taf_trigger": false,
      "metar": "METAR LEZG 132300Z 24009KT CAVOK 16/06 Q1010 NOSIG",
      "taf": "TAF LEZG 131700Z 1318/1418 27009KT 9999 FEW050 TX13/1414Z TN07/1406Z"
    },
    {
      "icao": "LEZL",
      "alert": "OK",
      "vis_m": 9999,
      "fzfg": false,
      "metar_trigger": false,
      "taf_trigger": false,
      "metar": "METAR LEZL 132300Z 27006KT CAVOK 14/09 Q1018 NOSIG",
      "taf": "TAF LEZL 132000Z 1321/1421 VRB03KT 9999 FEW030 TX21/1415Z TN10/1407Z"
    },
    {
      "icao": "LFBD",
      "alert": "OK",
      "vis_m": 9999,
      "fzfg": false,
      "metar_trigger": false,
      "taf_trigger": false,
      "metar": "METAR LFBD 132300Z AUTO 28007KT 9999 -RA SCT008 BKN015 BKN028 09/08 Q1009 TEMPO 24015G25KT 3000 RA BKN010 BKN030TCU",
      "taf": "TAF LFBD 131700Z 1318/1424 23010G20KT 9999 BKN030 TX12/1318Z TN03/1424Z"
    },
    {
      "icao": "LFLL",
      "alert": "OK",
      "vis_m": 9999,
      "fzfg": false,
      "metar_trigger": false,
      "taf_trigger": false,
      "metar": "METAR LFLL 132300Z 19017KT CAVOK 12/01 Q1006 TEMPO 20030G40KT",
      "taf": ""
    },
    {
      "icao": "LFLS",
      "alert": "OK",
      "vis_m": 9999,
      "fzfg": false,
      "metar_trigger": false,
      "taf_trigger": false,
      "metar": "METAR LFLS 132300Z AUTO 20014KT CAVOK 11/04 Q1007",
      "taf": "TAF LFLS 131400Z 1315/1415 22010KT CAVOK"
    },
    {
      "icao": "LFMN",
      "alert": "OK",
      "vis_m": 9999,
      "fzfg": false,
      "metar_trigger": false,
      "taf_trigger": false,
      "metar": "METAR LFMN 132300Z 32007KT 9999 FEW020 BKN260 11/08 Q1013 NOSIG",
      "taf": "TAF LFMN 132000Z 1321/1503 33006KT 9999 FEW020"
    },
    {
      "icao": "LFOB",
      "alert": "OK",
      "vis_m": 6000,
      "fzfg": false,
      "metar_trigger": false,
      "taf_trigger": false,
      "metar": "METAR LFOB 132300Z AUTO 29006KT 210V340 6000 RA SCT009/// BKN015/// OVC024/// ///TCU 05/04 Q1001 TEMPO 2500 SHRAGS BKN007 BKN012",
      "taf": "TAF LFOB 131700Z 1318/1418 VRB06KT 9999 BKN025 OVC040"
    },
    {
      "icao": "LFPO",
      "alert": "OK",
      "vis_m": 9999,
      "fzfg": false,
      "metar_trigger": false,
      "taf_trigger": false,
      "metar": "METAR LFPO 132300Z AUTO 20008KT 9999 -RA BKN014/// BKN019/// BKN024/// ///TCU 06/05 Q1001 TEMPO 4000 -SHRA",
      "taf": "TAF LFPO 131700Z 1318/1424 25005KT 9999 BKN030"
    },
    {
      "icao": "LFSB",
      "alert": "OK",
      "vis_m": 9999,
      "fzfg": false,
      "metar_trigger": false,
      "taf_trigger": false,
      "metar": "METAR LFSB 132300Z AUTO 26010KT 230V290 9999 ///TCU 14/05 Q1003 BECMG 16005KT NSC",
      "taf": ""
    },
    {
      "icao": "LGAV",
      "alert": "OK",
      "vis_m": 9999,
      "fzfg": false,
      "metar_trigger": false,
      "taf_trigger": false,
      "metar": "METAR LGAV 132250Z 35006KT 9999 FEW025 09/02 Q1015 NOSIG",
      "taf": "TAF LGAV 132300Z 1400/1424 34010KT 9999 FEW025"
    },
    {
      "icao": "LGTS",
      "alert": "OK",
      "vis_m": 9999,
      "fzfg": false,
      "metar_trigger": false,
      "taf_trigger": false,
      "metar": "METAR LGTS 132250Z 10006KT 9999 FEW020 05/05 Q1018 NOSIG",
      "taf": "TAF LGTS 132300Z 1400/1424 VRB03KT 9999 FEW030"
    },
    {
      "icao": "LHBP",
      "alert": "OK",
      "vis_m": 9999,
      "fzfg": false,
      "metar_trigger": false,
      "taf_trigger": false,
      "metar": "METAR LHBP 132300Z 13005KT CAVOK 06/00 Q1013 NOSIG",
      "taf": "TAF LHBP 131715Z 1318/1418 12007KT CAVOK"
    },
    {
      "icao": "LHDC",
      "alert": "OK",
      "vis_m": 7000,
      "fzfg": false,
      "metar_trigger": false,
      "taf_trigger": false,
      "metar": "METAR LHDC 132245Z AUTO 14002KT 7000 NCD 04/01 Q1015",
      "taf": "TAF LHDC 131415Z 1315/1324 19006KT CAVOK"
    },
    {
      "icao": "LIBD",
      "alert": "OK",
      "vis_m": 9999,
      "fzfg": false,
      "metar_trigger": false,
      "taf_trigger": false,
      "metar": "METAR LIBD 132250Z 20003KT CAVOK 07/07 Q1015",
      "taf": "TAF LIBD 131700Z 1318/1418 22005KT 9999 SCT010"
    },
    {
      "icao": "LIBG",
      "alert": "OK",
      "vis_m": null,
      "fzfg": false,
      "metar_trigger": false,
      "taf_trigger": false,
      "metar": "",
      "taf": "TAF LIBG 131700Z 1318/1403 VRB05KT 9999 SCT020"
    },
    {
      "icao": "LIBP",
      "alert": "OK",
      "vis_m": 6000,
      "fzfg": false,
      "metar_trigger": false,
      "taf_trigger": false,
      "metar": "METAR LIBP 132250Z AUTO 24003KT 6000 FEW150/// 09/09 Q1014",
      "taf": "TAF LIBP 131700Z 1318/1418 VRB05KT 9999 SCT010"
    },
    {
      "icao": "LIBR",
      "alert": "OK",
      "vis_m": 7000,
      "fzfg": false,
      "metar_trigger": false,
      "taf_trigger": false,
      "metar": "METAR LIBR 132250Z 23003KT 7000 NSC 09/09 Q1015",
      "taf": "TAF LIBR 131700Z 1318/1418 VRB05KT 9999 SCT020"
    },
    {
      "icao": "LICA",
      "alert": "OK",
      "vis_m": 9999,
      "fzfg": false,
      "metar_trigger": false,
      "taf_trigger": false,
      "metar": "METAR LICA 132250Z AUTO 08009KT 9999 NCD 09/07 Q1014",
      "taf": ""
    },
    {
      "icao": "LICC",
      "alert": "OK",
      "vis_m": 9999,
      "fzfg": false,
      "metar_trigger": false,
      "taf_trigger": false,
      "metar": "METAR LICC 132250Z 25007KT CAVOK 09/06 Q1014",
      "taf": "TAF LICC 131700Z 1318/1418 26007KT 9999 SCT030"
    },
    {
      "icao": "LICJ",
      "alert": "OK",
      "vis_m": 9999,
      "fzfg": false,
      "metar_trigger": false,
      "taf_trigger": false,
      "metar": "METAR LICJ 132250Z 16005KT CAVOK 11/07 Q1014",
      "taf": "TAF LICJ 131700Z 1318/1418 20008KT 9999 SCT040"
    },
    {
      "icao": "LIMC",
      "alert": "OK",
      "vis_m": 9999,
      "fzfg": false,
      "metar_trigger": false,
      "taf_trigger": false,
      "metar": "METAR LIMC 132250Z VRB01KT 9999 BKN095 10/07 Q1011 NOSIG",
      "taf": "TAF LIMC 131700Z 1318/1424 VRB04KT 9999 FEW040"
    },
    {
      "icao": "LIME",
      "alert": "OK",
      "vis_m": 8000,
      "fzfg": false,
      "metar_trigger": false,
      "taf_trigger": false,
      "metar": "METAR LIME 132250Z AUTO 01005KT 8000 FEW093/// 10/08 Q1011",
      "taf": "TAF LIME 131700Z 1318/1418 VRB04KT 9999 FEW030"
    },
    {
      "icao": "LIMF",
      "alert": "OK",
      "vis_m": 9999,
      "fzfg": false,
      "metar_trigger": false,
      "taf_trigger": false,
      "metar": "METAR LIMF 132250Z 04005KT 9999 BKN070 11/06 Q1010",
      "taf": "TAF LIMF 131700Z 1318/1418 VRB04KT CAVOK"
    },
    {
      "icao": "LIMJ",
      "alert": "OK",
      "vis_m": 9999,
      "fzfg": false,
      "metar_trigger": false,
      "taf_trigger": false,
      "metar": "METAR LIMJ 132250Z 08005KT 9999 FEW015 11/09 Q1012",
      "taf": "TAF LIMJ 131700Z 1318/1418 VRB05KT CAVOK"
    },
    {
      "icao": "LIPE",
      "alert": "OK",
      "vis_m": 9999,
      "fzfg": false,
      "metar_trigger": false,
      "taf_trigger": false,
      "metar": "METAR LIPE 132250Z 19003KT 150V210 CAVOK 11/08 Q1012",
      "taf": "TAF LIPE 131700Z 1318/1418 VRB05KT 9999 FEW050"
    },
    {
      "icao": "LIPH",
      "alert": "OK",
      "vis_m": 4900,
      "fzfg": false,
      "metar_trigger": false,
      "taf_trigger": false,
      "metar": "METAR LIPH 132250Z AUTO VRB01KT 4900 BR NCD 10/10 Q1012",
      "taf": "TAF LIPH 131700Z 1318/1418 VRB05KT 9000 SCT040"
    },
    {
      "icao": "LIPQ",
      "alert": "OK",
      "vis_m": 9999,
      "fzfg": false,
      "metar_trigger": false,
      "taf_trigger": false,
      "metar": "METAR LIPQ 132250Z AUTO 03002KT 9999 NCD 06/06 Q1013",
      "taf": "TAF LIPQ 131700Z 1318/1418 VRB05KT 7000 SCT040"
    },
    {
      "icao": "LIPR",
      "alert": "OK",
      "vis_m": 9000,
      "fzfg": false,
      "metar_trigger": false,
      "taf_trigger": false,
      "metar": "METAR LIPR 132250Z AUTO VRB01KT 9000 FEW100/// 09/08 Q1012",
      "taf": "TAF LIPR 131700Z 1318/1418 VRB05KT 7000 SCT050"
    },
    {
      "icao": "LIPX",
      "alert": "OK",
      "vis_m": 9000,
      "fzfg": false,
      "metar_trigger": false,
      "taf_trigger": false,
      "metar": "METAR LIPX 132250Z 04003KT 9000 BKN090 08/06 Q1012",
      "taf": "TAF LIPX 131700Z 1318/1418 VRB04KT 9999 FEW020"
    },
    {
      "icao": "LIPY",
      "alert": "OK",
      "vis_m": 9999,
      "fzfg": false,
      "metar_trigger": false,
      "taf_trigger": false,
      "metar": "METAR LIPY 132250Z AUTO 19002KT 9999 NCD 08/08 Q1013",
      "taf": "TAF LIPY 131700Z 1318/1418 VRB05KT 4000 BR SCT020"
    },
    {
      "icao": "LIPZ",
      "alert": "OK",
      "vis_m": 9999,
      "fzfg": false,
      "metar_trigger": false,
      "taf_trigger": false,
      "metar": "METAR LIPZ 132250Z 22006KT CAVOK 12/11 Q1012 NOSIG",
      "taf": "TAF LIPZ 131700Z 1318/1424 VRB05KT 9999 SCT045"
    },
    {
      "icao": "LIRF",
      "alert": "OK",
      "vis_m": 9999,
      "fzfg": false,
      "metar_trigger": false,
      "taf_trigger": false,
      "metar": "METAR LIRF 132250Z 03004KT CAVOK 08/07 Q1014 NOSIG",
      "taf": "TAF LIRF 131700Z 1318/1424 VRB05KT 9999 SCT030"
    },
    {
      "icao": "LIRN",
      "alert": "OK",
      "vis_m": 9999,
      "fzfg": false,
      "metar_trigger": false,
      "taf_trigger": false,
      "metar": "METAR LIRN 132250Z 05003KT CAVOK 11/08 Q1014 NOSIG",
      "taf": "TAF LIRN 131700Z 1318/1418 VRB05KT 9999 SCT020"
    },
    {
      "icao": "LIRP",
      "alert": "OK",
      "vis_m": 8000,
      "fzfg": false,
      "metar_trigger": false,
      "taf_trigger": false,
      "metar": "METAR LIRP 132245Z 10002KT 8000 FEW003 09/09 Q1013 NOSIG",
      "taf": "TAF LIRP 131700Z 1318/1418 28005KT 9999 FEW040"
    },
    {
      "icao": "LIRZ",
      "alert": "OK",
      "vis_m": 9999,
      "fzfg": false,
      "metar_trigger": false,
      "taf_trigger": false,
      "metar": "METAR LIRZ 132250Z AUTO 02005KT 9999 NCD 06/05 Q1014",
      "taf": "TAF LIRZ 131700Z 1318/1418 VRB05KT 9999 FEW040"
    },
    {
      "icao": "LJLJ",
      "alert": "OK",
      "vis_m": 9999,
      "fzfg": false,
      "metar_trigger": false,
      "taf_trigger": false,
      "metar": "METAR LJLJ 132300Z VRB01KT 9999 FEW045 03/02 Q1012 NOSIG",
      "taf": "TAF LJLJ 132300Z 1400/1500 VRB02KT 9999 FEW045"
    },
    {
      "icao": "LKMT",
      "alert": "OK",
      "vis_m": 9999,
      "fzfg": false,
      "metar_trigger": false,
      "taf_trigger": false,
      "metar": "METAR LKMT 132300Z 20008KT CAVOK 12/03 Q1010 NOSIG",
      "taf": "TAF LKMT 131700Z 1318/1418 20018KT CAVOK"
    },
    {
      "icao": "LKPR",
      "alert": "OK",
      "vis_m": 9999,
      "fzfg": false,
      "metar_trigger": false,
      "taf_trigger": false,
      "metar": "METAR LKPR 132300Z 14007KT CAVOK 07/M00 Q1005 NOSIG",
      "taf": "TAF LKPR 132000Z 1321/1503 19007KT CAVOK"
    },
    {
      "icao": "LLBG",
      "alert": "OK",
      "vis_m": 9999,
      "fzfg": false,
      "metar_trigger": false,
      "taf_trigger": false,
      "metar": "METAR LLBG 132250Z 05006KT CAVOK 19/06 Q1008 NOSIG RMK BKN110",
      "taf": "TAF LLBG 132305Z 1400/1424 12006KT CAVOK TX28/1412Z TN15/1400Z"
    },
    {
      "icao": "LMML",
      "alert": "OK",
      "vis_m": 9999,
      "fzfg": false,
      "metar_trigger": false,
      "taf_trigger": false,
      "metar": "METAR LMML 132315Z 23003KT 9999 FEW020 11/09 Q1015 NOSIG",
      "taf": "TAF LMML 132300Z 1400/1424 25009KT 9999 SCT017"
    },
    {
      "icao": "LOWW",
      "alert": "OK",
      "vis_m": 9999,
      "fzfg": false,
      "metar_trigger": false,
      "taf_trigger": false,
      "metar": "METAR LOWW 132250Z 15010KT CAVOK 10/05 Q1009 NOSIG",
      "taf": "TAF LOWW 132315Z 1400/1506 15010KT CAVOK TX18/1414Z TN06/1505Z"
    },
    {
      "icao": "LPFR",
      "alert": "OK",
      "vis_m": 9999,
      "fzfg": false,
      "metar_trigger": false,
      "taf_trigger": false,
      "metar": "METAR LPFR 132300Z 29008KT CAVOK 13/11 Q1020",
      "taf": "TAF LPFR 132300Z 1400/1424 32008KT 9999 SCT012"
    },
    {
      "icao": "LPMA",
      "alert": "OK",
      "vis_m": 9999,
      "fzfg": false,
      "metar_trigger": false,
      "taf_trigger": false,
      "metar": "METAR LPMA 132300Z 01012KT 330V050 9999 BKN015 16/08 Q1026",
      "taf": "TAF LPMA 132300Z 1400/1424 02012KT 9999 BKN015"
    },
    {
      "icao": "LPPR",
      "alert": "OK",
      "vis_m": 9000,
      "fzfg": false,
      "metar_trigger": false,
      "taf_trigger": false,
      "metar": "METAR LPPR 132300Z 32011KT 9000 -RA FEW006 SCT011 BKN035 11/10 Q1019 RERA",
      "taf": "TAF LPPR 132300Z 1400/1424 31007KT 9999 BKN020"
    },
    {
      "icao": "LPPS",
      "alert": "OK",
      "vis_m": 9999,
      "fzfg": false,
      "metar_trigger": false,
      "taf_trigger": false,
      "metar": "METAR LPPS 132300Z 04011KT 010V070 9999 SCT014 15/11 Q1026",
      "taf": "TAF LPPS 132300Z 1400/1506 03012KT 9999 SCT015 BKN030"
    },
    {
      "icao": "LPPT",
      "alert": "OK",
      "vis_m": 9999,
      "fzfg": false,
      "metar_trigger": false,
      "taf_trigger": false,
      "metar": "METAR LPPT 132300Z 28005KT 9999 FEW004 BKN010 13/13 Q1021",
      "taf": "TAF LPPT 132300Z 1400/1506 29007KT 9999 BKN018"
    },
    {
      "icao": "LQBK",
      "alert": "OK",
      "vis_m": 9999,
      "fzfg": false,
      "metar_trigger": false,
      "taf_trigger": false,
      "metar": "METAR LQBK 132300Z 16005KT CAVOK 09/05 Q1012 NOSIG",
      "taf": "TAF LQBK 132300Z 1400/1424 16006KT CAVOK TX20/1413Z TN05/1405Z"
    },
    {
      "icao": "LQSA",
      "alert": "OK",
      "vis_m": 9999,
      "fzfg": false,
      "metar_trigger": false,
      "taf_trigger": false,
      "metar": "METAR LQSA 132300Z VRB02KT CAVOK 04/02 Q1014",
      "taf": "TAF LQSA 132300Z 1400/1424 VRB02KT CAVOK TX17/1414Z TN01/1405Z"
    },
    {
      "icao": "LQTZ",
      "alert": "OK",
      "vis_m": 9999,
      "fzfg": false,
      "metar_trigger": false,
      "taf_trigger": false,
      "metar": "METAR LQTZ 132300Z 00000KT CAVOK 04/03 Q1013",
      "taf": "TAF LQTZ 132300Z 1400/1424 VRB02KT CAVOK TX20/1413Z TN02/1405Z"
    },
    {
      "icao": "LRBC",
      "alert": "OK",
      "vis_m": 9999,
      "fzfg": false,
      "metar_trigger": false,
      "taf_trigger": false,
      "metar": "METAR LRBC 132300Z VRB02KT CAVOK 03/M00 Q1020",
      "taf": "TAF LRBC 132000Z 1321/1406 17008KT CAVOK"
    },
    {
      "icao": "LRBS",
      "alert": "OK",
      "vis_m": 9999,
      "fzfg": false,
      "metar_trigger": false,
      "taf_trigger": false,
      "metar": "METAR LRBS 132300Z 03005KT CAVOK 04/02 Q1019 NOSIG",
      "taf": "TAF LRBS 131700Z 1318/1418 06008KT CAVOK"
    },
    {
      "icao": "LRBV",
      "alert": "OK",
      "vis_m": 9999,
      "fzfg": false,
      "metar_trigger": false,
      "taf_trigger": false,
      "metar": "METAR LRBV 132300Z AUTO 00000KT 9999 NCD 01/M04 Q1018",
      "taf": "TAF LRBV 132000Z 1321/1406 VRB04KT CAVOK"
    },
    {
      "icao": "LRCL",
      "alert": "OK",
      "vis_m": 9999,
      "fzfg": false,
      "metar_trigger": false,
      "taf_trigger": false,
      "metar": "METAR LRCL 132300Z 00000KT CAVOK M00/M04 Q1016",
      "taf": "TAF LRCL 132000Z 1321/1406 VRB04KT CAVOK"
    },
    {
      "icao": "LRCV",
      "alert": "OK",
      "vis_m": 9999,
      "fzfg": false,
      "metar_trigger": false,
      "taf_trigger": false,
      "metar": "METAR LRCV 132300Z 04007KT CAVOK 03/M00 Q1018",
      "taf": "TAF LRCV 132000Z 1321/1406 VRB04KT CAVOK"
    },
    {
      "icao": "LRIA",
      "alert": "OK",
      "vis_m": 9999,
      "fzfg": false,
      "metar_trigger": false,
      "taf_trigger": false,
      "metar": "METAR LRIA 132300Z 06002KT CAVOK 06/M02 Q1020",
      "taf": "TAF LRIA 132000Z 1321/1406 10008KT CAVOK"
    },
    {
      "icao": "LROP",
      "alert": "OK",
      "vis_m": 9999,
      "fzfg": false,
      "metar_trigger": false,
      "taf_trigger": false,
      "metar": "METAR LROP 132300Z 04009KT CAVOK 04/01 Q1019 NOSIG",
      "taf": "TAF LROP 131700Z 1318/1418 06008KT CAVOK"
    },
    {
      "icao": "LRSB",
      "alert": "OK",
      "vis_m": 9999,
      "fzfg": false,
      "metar_trigger": false,
      "taf_trigger": false,
      "metar": "METAR LRSB 132300Z 16010KT CAVOK 10/M06 Q1016",
      "taf": "TAF LRSB 131700Z 1318/1418 15008KT CAVOK"
    },
    {
      "icao": "LRSM",
      "alert": "OK",
      "vis_m": 9999,
      "fzfg": false,
      "metar_trigger": false,
      "taf_trigger": false,
      "metar": "METAR LRSM 132300Z AUTO 11004KT 9999 NCD 03/M01 Q1015",
      "taf": "TAF LRSM 131400Z 1315/1324 VRB04KT CAVOK"
    },
    {
      "icao": "LRSV",
      "alert": "OK",
      "vis_m": 9999,
      "fzfg": false,
      "metar_trigger": false,
      "taf_trigger": false,
      "metar": "METAR LRSV 132300Z 14009KT CAVOK 03/M02 Q1018",
      "taf": "TAF LRSV 132000Z 1321/1406 15008KT CAVOK"
    },
    {
      "icao": "LRTM",
      "alert": "OK",
      "vis_m": 9999,
      "fzfg": false,
      "metar_trigger": false,
      "taf_trigger": false,
      "metar": "METAR LRTM 132300Z AUTO 08005KT 9999 NCD 03/M04 Q1017",
      "taf": "TAF LRTM 131400Z 1315/1324 VRB04KT CAVOK"
    },
    {
      "icao": "LRTR",
      "alert": "OK",
      "vis_m": 9999,
      "fzfg": false,
      "metar_trigger": false,
      "taf_trigger": false,
      "metar": "METAR LRTR 132300Z 07005KT CAVOK 02/01 Q1015",
      "taf": "TAF LRTR 131700Z 1318/1418 VRB04KT CAVOK"
    },
    {
      "icao": "LTAC",
      "alert": "OK",
      "vis_m": 9999,
      "fzfg": false,
      "metar_trigger": false,
      "taf_trigger": false,
      "metar": "METAR LTAC 132250Z VRB02KT CAVOK 00/M07 Q1014 NOSIG RMK RWY21C VRB02KT RWY03L VRB01KT RWY21R VRB01KT RWY03R 00000KT RWY21L 15003KT",
      "taf": "TAF LTAC 132240Z 1400/1424 VRB02KT CAVOK"
    },
    {
      "icao": "LTFM",
      "alert": "OK",
      "vis_m": 9999,
      "fzfg": false,
      "metar_trigger": false,
      "taf_trigger": false,
      "metar": "METAR LTFM 132250Z 07012KT 9999 BKN018 07/03 Q1017 NOSIG RMK RWY17L 07009KT RWY34L 07011KT RWY16R 07009KT RWY36 06011KT 020V080 RWY18 08011KT",
      "taf": "TAF LTFM 132240Z 1400/1506 04012KT 9999 BKN016"
    },
    {
      "icao": "LUKK",
      "alert": "OK",
      "vis_m": 9999,
      "fzfg": false,
      "metar_trigger": false,
      "taf_trigger": false,
      "metar": "METAR LUKK 132300Z 06003KT CAVOK 02/M03 Q1020 NOSIG",
      "taf": "TAF LUKK 132307Z 1400/1424 VRB04KT CAVOK"
    },
    {
      "icao": "LWOH",
      "alert": "OK",
      "vis_m": null,
      "fzfg": false,
      "metar_trigger": false,
      "taf_trigger": false,
      "metar": "",
      "taf": "TAF LWOH 132035Z 1321/1421 11006KT 9999 SCT040"
    },
    {
      "icao": "LWSK",
      "alert": "OK",
      "vis_m": null,
      "fzfg": false,
      "metar_trigger": false,
      "taf_trigger": false,
      "metar": "",
      "taf": "TAF LWSK 132035Z 1321/1421 VRB02KT CAVOK"
    },
    {
      "icao": "LYBE",
      "alert": "OK",
      "vis_m": 9999,
      "fzfg": false,
      "metar_trigger": false,
      "taf_trigger": false,
      "metar": "METAR LYBE 132300Z 13010KT CAVOK 08/M02 Q1014 NOSIG",
      "taf": "TAF LYBE 131700Z 1318/1418 12010KT CAVOK TX19/1413Z TN03/1405Z"
    },
    {
      "icao": "LYNI",
      "alert": "OK",
      "vis_m": 9999,
      "fzfg": false,
      "metar_trigger": false,
      "taf_trigger": false,
      "metar": "METAR LYNI 132300Z 09009KT CAVOK 10/M01 Q1016 NOSIG",
      "taf": "TAF LYNI 131700Z 1318/1418 05007KT CAVOK TX19/1414Z TN03/1405Z"
    },
    {
      "icao": "LYPG",
      "alert": "OK",
      "vis_m": 9999,
      "fzfg": false,
      "metar_trigger": false,
      "taf_trigger": false,
      "metar": "METAR LYPG 132300Z 35002KT CAVOK 09/05 Q1014 NOSIG",
      "taf": "TAF LYPG 131700Z 1318/1418 35005KT CAVOK TX19/1413Z TN06/1405Z"
    },
    {
      "icao": "LZIB",
      "alert": "OK",
      "vis_m": 9999,
      "fzfg": false,
      "metar_trigger": false,
      "taf_trigger": false,
      "metar": "METAR LZIB 132300Z 01003KT CAVOK 07/03 Q1011 NOSIG",
      "taf": "TAF LZIB 132315Z 1400/1500 14005KT CAVOK"
    },
    {
      "icao": "LZKZ",
      "alert": "OK",
      "vis_m": 9999,
      "fzfg": false,
      "metar_trigger": false,
      "taf_trigger": false,
      "metar": "METAR LZKZ 132300Z 00000KT CAVOK 05/01 Q1014 NOSIG",
      "taf": "TAF LZKZ 132315Z 1400/1500 VRB02KT CAVOK"
    },
    {
      "icao": "LZTT",
      "alert": "OK",
      "vis_m": 9999,
      "fzfg": false,
      "metar_trigger": false,
      "taf_trigger": false,
      "metar": "METAR LZTT 132300Z 23005KT CAVOK 04/01 Q1013",
      "taf": "TAF LZTT 132315Z 1400/1500 23005KT 9999 FEW050"
    },
    {
      "icao": "OEJN",
      "alert": "OK",
      "vis_m": 9999,
      "fzfg": false,
      "metar_trigger": false,
      "taf_trigger": false,
      "metar": "METAR OEJN 132300Z 34002KT CAVOK 26/16 Q1009 NOSIG",
      "taf": "TAF OEJN 132300Z 1400/1506 VRB03KT CAVOK"
    },
    {
      "icao": "OEMA",
      "alert": "OK",
      "vis_m": 9999,
      "fzfg": false,
      "metar_trigger": false,
      "taf_trigger": false,
      "metar": "METAR OEMA 132300Z 36003KT CAVOK 22/M06 Q1014 NOSIG",
      "taf": "TAF OEMA 132300Z 1400/1506 08006KT CAVOK"
    },
    {
      "icao": "OJAI",
      "alert": "OK",
      "vis_m": 3500,
      "fzfg": false,
      "metar_trigger": false,
      "taf_trigger": false,
      "metar": "METAR OJAI 132300Z 07010KT 3500 -DZ NSC 15/04 Q1013 NOSIG",
      "taf": "TAF OJAI 132304Z 1400/1506 25015KT 2000 RA BLDU FEW035TCU BKN045 OVC080"
    },
    {
      "icao": "OMAA",
      "alert": "OK",
      "vis_m": null,
      "fzfg": false,
      "metar_trigger": false,
      "taf_trigger": false,
      "metar": "",
      "taf": ""
    },
    {
      "icao": "OMDB",
      "alert": "OK",
      "vis_m": null,
      "fzfg": false,
      "metar_trigger": false,
      "taf_trigger": false,
      "metar": "",
      "taf": ""
    },
    {
      "icao": "UAAA",
      "alert": "OK",
      "vis_m": 5000,
      "fzfg": false,
      "metar_trigger": false,
      "taf_trigger": false,
      "metar": "METAR UAAA 132300Z 16001MPS 5000 BR FU FEW100 M04/M07 Q1029 NOSIG",
      "taf": "TAF UAAA 131701Z 1318/1418 19002MPS 3100 BR FU SCT100 TX07/1409Z TNM07/1401Z"
    },
    {
      "icao": "UBBB",
      "alert": "OK",
      "vis_m": 9999,
      "fzfg": false,
      "metar_trigger": false,
      "taf_trigger": false,
      "metar": "METAR UBBB 132300Z 31004KT CAVOK 03/00 Q1024 NOSIG",
      "taf": "TAF UBBB 132304Z 1400/1424 VRB04KT 9999 FEW025 TX13/1410Z TN02/1402Z"
    },
    {
      "icao": "UDSG",
      "alert": "OK",
      "vis_m": 9999,
      "fzfg": false,
      "metar_trigger": false,
      "taf_trigger": false,
      "metar": "METAR UDSG 132300Z 24002KT 9999 BKN049 M02/M03 Q1020 NOSIG",
      "taf": "TAF UDSG 131658Z 1318/1418 VRB06KT 9999 SCT040"
    },
    {
      "icao": "UDYZ",
      "alert": "OK",
      "vis_m": 9999,
      "fzfg": false,
      "metar_trigger": false,
      "taf_trigger": false,
      "metar": "METAR UDYZ 132300Z 00000KT 9999 BKN046 04/M02 Q1020 NOSIG",
      "taf": "TAF UDYZ 131700Z 1318/1418 04006KT 9999 FEW040"
    },
    {
      "icao": "UGKO",
      "alert": "OK",
      "vis_m": 9999,
      "fzfg": false,
      "metar_trigger": false,
      "taf_trigger": false,
      "metar": "METAR UGKO 132300Z AUTO 08019KT CAVOK 09/M01 Q1018 NOSIG",
      "taf": "TAF UGKO 132300Z 1400/1424 08020KT CAVOK TX17/1412Z TN08/1403Z"
    }
  ]
}