{
  "ts_utc": "2026-01-10T15:44:47Z",
  "threshold_m": 150,
  "source": "stations_override.txt (ICAO list) + aviationweather.gov (METAR/TAF raw)",
  "station_count": 159,
  "stations": [
    {
      "icao": "BIKF",
      "alert": "OK",
      "vis_m": 9999,
      "fzfg": false,
      "metar_trigger": false,
      "taf_trigger": false,
      "metar": "METAR BIKF 101530Z 01007KT 9999 FEW030 M04/M07 Q1008",
      "taf": "TAF BIKF 101332Z 1015/1115 04005KT 9999 FEW030 TXM01/1112Z TNM05/1018Z"
    },
    {
      "icao": "BKPR",
      "alert": "OK",
      "vis_m": 4000,
      "fzfg": false,
      "metar_trigger": false,
      "taf_trigger": false,
      "metar": "METAR BKPR 101530Z 02007KT 4000 -RA BR FEW002 SCT013 BKN035 03/02 Q0995 TEMPO 2500 RASN",
      "taf": "TAF BKPR 101130Z 1012/1112 17008KT 8000 SCT015 BKN030"
    },
    {
      "icao": "EBCI",
      "alert": "OK",
      "vis_m": 1500,
      "fzfg": false,
      "metar_trigger": false,
      "taf_trigger": false,
      "metar": "METAR EBCI 101520Z 35006KT 1500 -SN BKN006 BKN009 M02/M03 Q1014 TEMPO 1200 -SN",
      "taf": "TAF EBCI 101100Z 1012/1118 35008KT 8000 BKN006"
    },
    {
      "icao": "EDDB",
      "alert": "OK",
      "vis_m": 9999,
      "fzfg": false,
      "metar_trigger": false,
      "taf_trigger": false,
      "metar": "METAR EDDB 101520Z AUTO 27007KT 9999 FEW024 M06/M09 Q1013 TEMPO SN",
      "taf": "TAF EDDB 101100Z 1012/1112 34005KT CAVOK"
    },
    {
      "icao": "EDDH",
      "alert": "OK",
      "vis_m": 9999,
      "fzfg": false,
      "metar_trigger": false,
      "taf_trigger": false,
      "metar": "METAR EDDH 101520Z AUTO 03005KT 350V060 9999 FEW006 OVC036 00/M02 Q1017 RESN NOSIG",
      "taf": "TAF EDDH 101100Z 1012/1118 03006KT 9999 SCT040"
    },
    {
      "icao": "EDDK",
      "alert": "OK",
      "vis_m": 9999,
      "fzfg": false,
      "metar_trigger": false,
      "taf_trigger": false,
      "metar": "METAR EDDK 101520Z AUTO 34005KT 9999 FEW007 BKN014 OVC020 M02/M03 Q1013 BECMG SCT012",
      "taf": "TAF EDDK 101100Z 1012/1118 34007KT 8000 OVC012"
    },
    {
      "icao": "EDDN",
      "alert": "OK",
      "vis_m": 4800,
      "fzfg": false,
      "metar_trigger": false,
      "taf_trigger": false,
      "metar": "METAR EDDN 101520Z AUTO 35011KT 4800 -SN BR BKN005 BKN014 M01/M03 Q1007 TEMPO 5000 -SN",
      "taf": ""
    },
    {
      "icao": "EDDS",
      "alert": "OK",
      "vis_m": 9999,
      "fzfg": false,
      "metar_trigger": false,
      "taf_trigger": false,
      "metar": "METAR EDDS 101520Z AUTO 28004KT 9999 -SHSN FEW008 BKN028 BKN047 FEW///TCU 01/M00 Q1007 TEMPO 2500 SN BKN008",
      "taf": "TAF EDDS 101100Z 1012/1112 26007KT 9999 SCT014 BKN030"
    },
    {
      "icao": "EDFH",
      "alert": "OK",
      "vis_m": 7000,
      "fzfg": false,
      "metar_trigger": false,
      "taf_trigger": false,
      "metar": "METAR EDFH 101520Z 35007KT 320V030 7000 -SN OVC004 M03/M04 Q1009",
      "taf": "TAF EDFH 101100Z 1012/1112 33008KT 8000 BKN005"
    },
    {
      "icao": "EDJA",
      "alert": "OK",
      "vis_m": 6000,
      "fzfg": false,
      "metar_trigger": false,
      "taf_trigger": false,
      "metar": "METAR EDJA 101520Z 23013KT 6000 -SN BKN007 BKN038 OVC050 M01/M02 Q1007",
      "taf": "TAF EDJA 101400Z 1015/1024 24015G25KT 6000 OVC010"
    },
    {
      "icao": "EDLW",
      "alert": "OK",
      "vis_m": 9999,
      "fzfg": false,
      "metar_trigger": false,
      "taf_trigger": false,
      "metar": "METAR EDLW 101520Z 02009KT 350V050 CAVOK M03/M08 Q1013",
      "taf": "TAF EDLW 101100Z 1012/1112 05010KT 6000 SCT004 BKN007"
    },
    {
      "icao": "EDNY",
      "alert": "OK",
      "vis_m": 9999,
      "fzfg": false,
      "metar_trigger": false,
      "taf_trigger": false,
      "metar": "METAR EDNY 101520Z 25013KT 220V290 9999 -SN BKN018 BKN024 OVC041 01/M02 Q1009",
      "taf": "TAF EDNY 101400Z 1015/1024 25012KT 7000 BKN015"
    },
    {
      "icao": "EDSB",
      "alert": "OK",
      "vis_m": 3300,
      "fzfg": false,
      "metar_trigger": false,
      "taf_trigger": false,
      "metar": "METAR EDSB 101520Z 23004KT 3300 SN BKN004 OVC026 00/M00 Q1010",
      "taf": ""
    },
    {
      "icao": "EETN",
      "alert": "OK",
      "vis_m": 1500,
      "fzfg": false,
      "metar_trigger": false,
      "taf_trigger": false,
      "metar": "METAR EETN 101520Z 04014KT 1500 SN BLSN BKN012 OVC020 M06/M08 Q1006 TEMPO 0600 +SN",
      "taf": "TAF EETN 101130Z 1012/1112 04015G25KT 2500 SN BLSN BKN012 OVC020"
    },
    {
      "icao": "EFTU",
      "alert": "OK",
      "vis_m": 9999,
      "fzfg": false,
      "metar_trigger": false,
      "taf_trigger": false,
      "metar": "METAR EFTU 101520Z AUTO 02010KT 340V050 CAVOK M09/M12 Q1013",
      "taf": "TAF EFTU 101433Z 1015/1115 02010KT CAVOK"
    },
    {
      "icao": "EGBB",
      "alert": "OK",
      "vis_m": 9999,
      "fzfg": false,
      "metar_trigger": false,
      "taf_trigger": false,
      "metar": "METAR EGBB 101520Z 16002KT CAVOK 03/M02 Q1019",
      "taf": "TAF EGBB 101055Z 1012/1112 32006KT 9999 FEW025"
    },
    {
      "icao": "EGGP",
      "alert": "OK",
      "vis_m": 9999,
      "fzfg": false,
      "metar_trigger": false,
      "taf_trigger": false,
      "metar": "METAR EGGP 101520Z 16004KT 9999 SCT025 03/M00 Q1018",
      "taf": "TAF EGGP 101057Z 1012/1112 15005KT 9999 SCT040"
    },
    {
      "icao": "EGGW",
      "alert": "OK",
      "vis_m": 9999,
      "fzfg": false,
      "metar_trigger": false,
      "taf_trigger": false,
      "metar": "METAR EGGW 101520Z AUTO 33006KT 9999 BKN018 02/M00 Q1018",
      "taf": "TAF EGGW 101101Z 1012/1112 33009KT 9999 BKN007"
    },
    {
      "icao": "EGKK",
      "alert": "OK",
      "vis_m": 9999,
      "fzfg": false,
      "metar_trigger": false,
      "taf_trigger": false,
      "metar": "METAR EGKK 101520Z 33006KT 9999 FEW018 SCT021 03/M00 Q1019",
      "taf": ""
    },
    {
      "icao": "EGNM",
      "alert": "OK",
      "vis_m": 9999,
      "fzfg": false,
      "metar_trigger": false,
      "taf_trigger": false,
      "metar": "METAR EGNM 101520Z 19003KT CAVOK 02/M02 Q1017",
      "taf": "TAF EGNM 101057Z 1012/1112 27005KT 9999 FEW040"
    },
    {
      "icao": "EGPD",
      "alert": "OK",
      "vis_m": 9999,
      "fzfg": false,
      "metar_trigger": false,
      "taf_trigger": false,
      "metar": "METAR EGPD 101520Z COR AUTO 19014KT 9999 NCD 03/M00 Q1014 NOSIG",
      "taf": "TAF EGPD 101055Z 1012/1112 17008KT 9999 FEW015 SCT025"
    },
    {
      "icao": "EGPF",
      "alert": "OK",
      "vis_m": 9999,
      "fzfg": false,
      "metar_trigger": false,
      "taf_trigger": false,
      "metar": "METAR EGPF 101520Z AUTO 14003KT 090V220 9999 SCT026 BKN030 04/02 Q1015",
      "taf": "TAF EGPF 101104Z 1012/1112 VRB04KT 9999 FEW015 SCT030"
    },
    {
      "icao": "EHBK",
      "alert": "OK",
      "vis_m": 9999,
      "fzfg": false,
      "metar_trigger": false,
      "taf_trigger": false,
      "metar": "METAR EHBK 101525Z AUTO 01005KT 9999 SCT008 OVC009 M03/M05 Q1014 BECMG BKN012",
      "taf": "TAF EHBK 101119Z 1012/1118 35007KT 9999 BKN012"
    },
    {
      "icao": "EHEH",
      "alert": "OK",
      "vis_m": 9999,
      "fzfg": false,
      "metar_trigger": false,
      "taf_trigger": false,
      "metar": "METAR EHEH 101525Z AUTO 06007KT 350V100 9999 OVC019 M02/M06 Q1015 WHT BECMG SCT014 BKN018 RMK TREND REMOTE BY EHWX",
      "taf": ""
    },
    {
      "icao": "EKBI",
      "alert": "OK",
      "vis_m": 9999,
      "fzfg": false,
      "metar_trigger": false,
      "taf_trigger": false,
      "metar": "METAR EKBI 101520Z AUTO 02005KT 9999 NCD M04/M10 Q1021",
      "taf": "TAF EKBI 101427Z 1015/1115 02006KT CAVOK"
    },
    {
      "icao": "EKCH",
      "alert": "OK",
      "vis_m": 9999,
      "fzfg": false,
      "metar_trigger": false,
      "taf_trigger": false,
      "metar": "METAR EKCH 101520Z AUTO 01015KT 9999 NCD M03/M10 Q1019 NOSIG",
      "taf": "TAF EKCH 101427Z 1015/1115 01015KT CAVOK"
    },
    {
      "icao": "ENAL",
      "alert": "OK",
      "vis_m": 9999,
      "fzfg": false,
      "metar_trigger": false,
      "taf_trigger": false,
      "metar": "METAR ENAL 101520Z 18007KT 160V230 CAVOK M01/M10 Q1021",
      "taf": "TAF ENAL 101400Z 1015/1024 17008KT CAVOK"
    },
    {
      "icao": "ENBR",
      "alert": "OK",
      "vis_m": 9999,
      "fzfg": false,
      "metar_trigger": false,
      "taf_trigger": false,
      "metar": "METAR ENBR 101520Z 11007KT CAVOK M03/M09 Q1023 NOSIG RMK WIND 1200FT 12018KT",
      "taf": ""
    },
    {
      "icao": "ENGM",
      "alert": "OK",
      "vis_m": 9999,
      "fzfg": false,
      "metar_trigger": false,
      "taf_trigger": false,
      "metar": "METAR ENGM 101520Z 32005KT 9999 4600E NSC M15/M16 Q1022 NOSIG",
      "taf": "TAF ENGM 101100Z 1012/1112 35005KT CAVOK"
    },
    {
      "icao": "ENHD",
      "alert": "OK",
      "vis_m": 9999,
      "fzfg": false,
      "metar_trigger": false,
      "taf_trigger": false,
      "metar": "METAR ENHD 101520Z 11016KT 9999 BKN046 M02/M09 Q1023",
      "taf": "TAF ENHD 101400Z 1015/1023 12012KT 9999 SCT040"
    },
    {
      "icao": "ENTC",
      "alert": "OK",
      "vis_m": 9999,
      "fzfg": false,
      "metar_trigger": false,
      "taf_trigger": false,
      "metar": "METAR ENTC 101520Z VRB02KT CAVOK M13/M14 Q1019 NOSIG RMK WIND 2600FT 16017KT",
      "taf": "TAF ENTC 101100Z 1012/1112 20005KT CAVOK"
    },
    {
      "icao": "ENTO",
      "alert": "OK",
      "vis_m": 9999,
      "fzfg": false,
      "metar_trigger": false,
      "taf_trigger": false,
      "metar": "METAR ENTO 101520Z 35005KT CAVOK M09/M12 Q1023 NOSIG",
      "taf": "TAF ENTO 101100Z 1012/1112 36005KT CAVOK"
    },
    {
      "icao": "ENVA",
      "alert": "OK",
      "vis_m": 9999,
      "fzfg": false,
      "metar_trigger": false,
      "taf_trigger": false,
      "metar": "METAR ENVA 101520Z 11004KT 9999 SCT037 M07/M11 Q1022 RMK WIND 670FT 15008KT",
      "taf": "TAF ENVA 101100Z 1012/1112 10006KT CAVOK"
    },
    {
      "icao": "ENZV",
      "alert": "OK",
      "vis_m": 9999,
      "fzfg": false,
      "metar_trigger": false,
      "taf_trigger": false,
      "metar": "METAR ENZV 101520Z 10011KT 9999 BKN046 M02/M10 Q1023 NOSIG",
      "taf": "TAF ENZV 101100Z 1012/1112 10012KT 9999 SCT040"
    },
    {
      "icao": "EPGD",
      "alert": "OK",
      "vis_m": 9999,
      "fzfg": false,
      "metar_trigger": false,
      "taf_trigger": false,
      "metar": "METAR EPGD 101530Z 36017KT 9999 -SHSN DRSN SCT026TCU BKN042 M01/M06 Q1005",
      "taf": "TAF EPGD 101130Z 1012/1112 36012KT 9999 -SHSN SCT020TCU"
    },
    {
      "icao": "EPKK",
      "alert": "OK",
      "vis_m": 9999,
      "fzfg": false,
      "metar_trigger": false,
      "taf_trigger": false,
      "metar": "METAR EPKK 101530Z 24007KT CAVOK M10/M14 Q1006",
      "taf": "TAF EPKK 101430Z 1015/1115 23005KT 9999 SCT025"
    },
    {
      "icao": "EPKT",
      "alert": "OK",
      "vis_m": 9999,
      "fzfg": false,
      "metar_trigger": false,
      "taf_trigger": false,
      "metar": "METAR EPKT 101530Z 29006KT 9999 BKN027 M11/M13 Q1006",
      "taf": "TAF EPKT 101130Z 1012/1112 34005KT 9999 SCT030"
    },
    {
      "icao": "EPLB",
      "alert": "OK",
      "vis_m": 2500,
      "fzfg": false,
      "metar_trigger": false,
      "taf_trigger": false,
      "metar": "METAR EPLB 101530Z 28009KT 2500 -SN BR OVC023 M10/M11 Q1002",
      "taf": "TAF EPLB 101130Z 1012/1112 27010KT 9999 SCT010 BKN015"
    },
    {
      "icao": "EPMO",
      "alert": "OK",
      "vis_m": 5000,
      "fzfg": false,
      "metar_trigger": false,
      "taf_trigger": false,
      "metar": "METAR EPMO 101530Z 26010KT 5000 -SN BR SCT009 BKN026 M06/M07 Q1003",
      "taf": "TAF EPMO 101130Z 1012/1112 29008KT 5000 -SN BR BKN030"
    },
    {
      "icao": "EPPO",
      "alert": "OK",
      "vis_m": 9999,
      "fzfg": false,
      "metar_trigger": false,
      "taf_trigger": false,
      "metar": "METAR EPPO 101530Z 28008KT CAVOK M07/M11 Q1008",
      "taf": "TAF EPPO 101130Z 1012/1112 33010KT 9999 BKN035"
    },
    {
      "icao": "EPRA",
      "alert": "OK",
      "vis_m": 9999,
      "fzfg": false,
      "metar_trigger": false,
      "taf_trigger": false,
      "metar": "METAR EPRA 101530Z 29007KT 9999 BKN016 M09/M11 Q1004",
      "taf": "TAF EPRA 101430Z 1015/1024 30008KT 9999 BKN020"
    },
    {
      "icao": "EPRZ",
      "alert": "OK",
      "vis_m": 9999,
      "fzfg": false,
      "metar_trigger": false,
      "taf_trigger": false,
      "metar": "METAR EPRZ 101530Z 24011KT 9999 OVC021 M11/M13 Q1005",
      "taf": "TAF EPRZ 101130Z 1012/1112 27008KT 9999 BKN013"
    },
    {
      "icao": "EPSC",
      "alert": "OK",
      "vis_m": 9999,
      "fzfg": false,
      "metar_trigger": false,
      "taf_trigger": false,
      "metar": "METAR EPSC 101530Z 34008KT 9999 FEW002 SCT022 M01/M03 Q1012",
      "taf": "TAF EPSC 101130Z 1012/1112 32008KT 9999 BKN040"
    },
    {
      "icao": "EPSY",
      "alert": "OK",
      "vis_m": 9999,
      "fzfg": false,
      "metar_trigger": false,
      "taf_trigger": false,
      "metar": "METAR EPSY 101530Z 29004KT 260V320 9999 -SN BKN022 M07/M08 Q1002",
      "taf": "TAF EPSY 101430Z 1015/1024 33008KT 9999 BKN025"
    },
    {
      "icao": "EPWA",
      "alert": "OK",
      "vis_m": 4000,
      "fzfg": false,
      "metar_trigger": false,
      "taf_trigger": false,
      "metar": "METAR EPWA 101530Z 27010KT 4000 -SN BKN018 M08/M09 Q1003 TEMPO 2000 SN BKN013",
      "taf": "TAF EPWA 101430Z 1015/1115 28008KT 5000 -SN BKN020"
    },
    {
      "icao": "EPWR",
      "alert": "OK",
      "vis_m": 9999,
      "fzfg": false,
      "metar_trigger": false,
      "taf_trigger": false,
      "metar": "METAR EPWR 101530Z 29009KT 9999 BKN023 M06/M10 Q1009",
      "taf": "TAF EPWR 101430Z 1015/1115 31009KT 9999 BKN027"
    },
    {
      "icao": "ESGG",
      "alert": "OK",
      "vis_m": 9999,
      "fzfg": false,
      "metar_trigger": false,
      "taf_trigger": false,
      "metar": "METAR ESGG 101520Z 02007KT CAVOK M08/M09 Q1020",
      "taf": "TAF ESGG 101430Z 1015/1115 02009KT CAVOK"
    },
    {
      "icao": "ESKN",
      "alert": "OK",
      "vis_m": 9999,
      "fzfg": false,
      "metar_trigger": false,
      "taf_trigger": false,
      "metar": "METAR ESKN 101520Z 34012KT 9999 FEW022 M06/M08 Q1017",
      "taf": "TAF ESKN 101430Z 1015/1115 35014G25KT CAVOK"
    },
    {
      "icao": "ESMS",
      "alert": "OK",
      "vis_m": 9999,
      "fzfg": false,
      "metar_trigger": false,
      "taf_trigger": false,
      "metar": "METAR ESMS 101520Z 34012KT CAVOK M07/M12 Q1016",
      "taf": "TAF ESMS 101427Z 1015/1115 34010KT CAVOK"
    },
    {
      "icao": "ESSA",
      "alert": "OK",
      "vis_m": 9999,
      "fzfg": false,
      "metar_trigger": false,
      "taf_trigger": false,
      "metar": "METAR ESSA 101520Z 34013KT CAVOK M05/M07 Q1016 NOSIG",
      "taf": "TAF ESSA 101430Z 1015/1115 35012G22KT CAVOK"
    },
    {
      "icao": "EYKA",
      "alert": "OK",
      "vis_m": 6000,
      "fzfg": false,
      "metar_trigger": false,
      "taf_trigger": false,
      "metar": "METAR EYKA 101520Z VRB01KT 6000 FEW017 SCT032 M12/M13 Q1000",
      "taf": "TAF EYKA 101100Z 1012/1112 VRB04KT 5000 SN SCT010 BKN015"
    },
    {
      "icao": "EYPA",
      "alert": "OK",
      "vis_m": 9999,
      "fzfg": false,
      "metar_trigger": false,
      "taf_trigger": false,
      "metar": "METAR EYPA 101520Z 01012KT CAVOK M05/M08 Q1004",
      "taf": "TAF EYPA 101100Z 1012/1112 36008KT 8000 SCT025"
    },
    {
      "icao": "EYVI",
      "alert": "OK",
      "vis_m": 9999,
      "fzfg": false,
      "metar_trigger": false,
      "taf_trigger": false,
      "metar": "METAR EYVI 101520Z 32004KT 9999 -SN NSC M11/M13 Q0998 NOSIG",
      "taf": "TAF EYVI 101107Z 1012/1112 35007KT 5000 SN BKN025"
    },
    {
      "icao": "GCFV",
      "alert": "OK",
      "vis_m": 9999,
      "fzfg": false,
      "metar_trigger": false,
      "taf_trigger": false,
      "metar": "METAR GCFV 101530Z 02012KT 9999 FEW030 20/11 Q1026",
      "taf": "TAF GCFV 101400Z 1015/1115 04015KT 9999 SCT025 TX20/1114Z TN14/1106Z"
    },
    {
      "icao": "GCLP",
      "alert": "OK",
      "vis_m": 9999,
      "fzfg": false,
      "metar_trigger": false,
      "taf_trigger": false,
      "metar": "METAR GCLP 101530Z 02017KT 350V050 9999 FEW035 BKN050 19/11 Q1026 NOSIG",
      "taf": "TAF GCLP 101400Z 1015/1115 03016KT 9999 SCT025 BKN045 TX21/1114Z TN15/1106Z"
    },
    {
      "icao": "GCTS",
      "alert": "OK",
      "vis_m": 9999,
      "fzfg": false,
      "metar_trigger": false,
      "taf_trigger": false,
      "metar": "METAR GCTS 101530Z COR 08017KT 9999 SCT045 21/10 Q1026 NOSIG",
      "taf": "TAF GCTS 101400Z 1015/1115 09018KT 9999 SCT045 TX23/1114Z TN16/1106Z"
    },
    {
      "icao": "GMAD",
      "alert": "OK",
      "vis_m": 9999,
      "fzfg": false,
      "metar_trigger": false,
      "taf_trigger": false,
      "metar": "METAR GMAD 101530Z 27009KT CAVOK 18/11 Q1024 NOSIG",
      "taf": "TAF GMAD 101100Z 1012/1118 28008KT CAVOK"
    },
    {
      "icao": "GMMN",
      "alert": "OK",
      "vis_m": 9999,
      "fzfg": false,
      "metar_trigger": false,
      "taf_trigger": false,
      "metar": "METAR GMMN 101530Z 04006KT 9999 BKN016 15/11 Q1027 NOSIG",
      "taf": "TAF GMMN 101100Z 1012/1118 02010KT 9999 BKN016"
    },
    {
      "icao": "GMMX",
      "alert": "OK",
      "vis_m": 9999,
      "fzfg": false,
      "metar_trigger": false,
      "taf_trigger": false,
      "metar": "METAR GMMX 101530Z 05004KT 320V110 CAVOK 18/08 Q1025 NOSIG",
      "taf": "TAF GMMX 101100Z 1012/1118 06008KT 8000 NSC"
    },
    {
      "icao": "HEGN",
      "alert": "OK",
      "vis_m": 9999,
      "fzfg": false,
      "metar_trigger": false,
      "taf_trigger": false,
      "metar": "METAR HEGN 101500Z 33015KT CAVOK 19/09 Q1019 NOSIG",
      "taf": "TAF HEGN 101100Z 1012/1118 36010G20KT CAVOK"
    },
    {
      "icao": "HEMA",
      "alert": "OK",
      "vis_m": 9999,
      "fzfg": false,
      "metar_trigger": false,
      "taf_trigger": false,
      "metar": "METAR HEMA 101500Z 35013KT 9999 FEW025 20/12 Q1018 NOSIG",
      "taf": "TAF HEMA 101100Z 1012/1118 35012G26KT 6000 SCT020"
    },
    {
      "icao": "HESH",
      "alert": "OK",
      "vis_m": 9999,
      "fzfg": false,
      "metar_trigger": false,
      "taf_trigger": false,
      "metar": "METAR HESH 101500Z 36009KT CAVOK 21/07 Q1018 NOSIG",
      "taf": "TAF HESH 101100Z 1012/1118 01016KT CAVOK"
    },
    {
      "icao": "HESX",
      "alert": "OK",
      "vis_m": 9999,
      "fzfg": false,
      "metar_trigger": false,
      "taf_trigger": false,
      "metar": "METAR HESX 101500Z 29004KT CAVOK 18/08 Q1019 NOSIG",
      "taf": ""
    },
    {
      "icao": "LATI",
      "alert": "OK",
      "vis_m": 9999,
      "fzfg": false,
      "metar_trigger": false,
      "taf_trigger": false,
      "metar": "METAR LATI 101520Z 23008KT 190V280 9999 FEW030CB BKN060 12/03 Q0997 TEMPO 4000 TSRA",
      "taf": ""
    },
    {
      "icao": "LBPD",
      "alert": "OK",
      "vis_m": 9999,
      "fzfg": false,
      "metar_trigger": false,
      "taf_trigger": false,
      "metar": "METAR LBPD 101530Z AUTO VRB01KT 9999 SCT021/// OVC100/// 04/03 Q0995 NOSIG",
      "taf": "TAF LBPD 101100Z 1012/1112 VRB03KT 9999 SCT050"
    },
    {
      "icao": "LBSF",
      "alert": "OK",
      "vis_m": 800,
      "fzfg": false,
      "metar_trigger": false,
      "taf_trigger": false,
      "metar": "METAR LBSF 101530Z VRB02KT 0800 R27/1700D BCFG SCT001 OVC038 03/02 Q0995 TEMPO 0500 BCFG",
      "taf": ""
    },
    {
      "icao": "LBWN",
      "alert": "OK",
      "vis_m": 9999,
      "fzfg": false,
      "metar_trigger": false,
      "taf_trigger": false,
      "metar": "METAR LBWN 101530Z 07006KT 9999 -RA OVC045 08/04 Q0998 TEMPO 5000 RA",
      "taf": "TAF LBWN 101100Z 1012/1112 06008KT 9999 BKN040"
    },
    {
      "icao": "LCLK",
      "alert": "OK",
      "vis_m": 9999,
      "fzfg": false,
      "metar_trigger": false,
      "taf_trigger": false,
      "metar": "METAR LCLK 101530Z 21013KT 9999 FEW015 BKN017 FEW030TCU 17/14 Q1016 NOSIG",
      "taf": "TAF LCLK 101130Z 1012/1112 22018KT 9999 FEW030"
    },
    {
      "icao": "LCPH",
      "alert": "OK",
      "vis_m": 9999,
      "fzfg": false,
      "metar_trigger": false,
      "taf_trigger": false,
      "metar": "METAR LCPH 101530Z VRB02KT 9999 FEW035 17/12 Q1016 NOSIG",
      "taf": "TAF LCPH 101130Z 1012/1112 24016KT 9999 SCT030 SCT050"
    },
    {
      "icao": "LEAL",
      "alert": "OK",
      "vis_m": 9999,
      "fzfg": false,
      "metar_trigger": false,
      "taf_trigger": false,
      "metar": "METAR LEAL 101530Z 30015KT 270V330 CAVOK 16/M00 Q1023 NOSIG",
      "taf": "TAF LEAL 101100Z 1012/1112 29017KT CAVOK TX16/1014Z TN07/1106Z"
    },
    {
      "icao": "LEBB",
      "alert": "OK",
      "vis_m": 9999,
      "fzfg": false,
      "metar_trigger": false,
      "taf_trigger": false,
      "metar": "METAR LEBB 101530Z 26004KT 210V300 9999 -RA FEW015 FEW023TCU BKN035 09/08 Q1026 RESHRA TEMPO SHRA",
      "taf": "TAF LEBB 101100Z 1012/1112 27010KT 9999 FEW020 BKN040 TX13/1112Z TN04/1105Z"
    },
    {
      "icao": "LEBL",
      "alert": "OK",
      "vis_m": 9999,
      "fzfg": false,
      "metar_trigger": false,
      "taf_trigger": false,
      "metar": "METAR LEBL 101530Z 28010KT 9999 FEW030 13/03 Q1018 NOSIG",
      "taf": "TAF LEBL 101100Z 1012/1112 30010KT 9999 FEW020 TX15/1013Z TN05/1106Z"
    },
    {
      "icao": "LECH",
      "alert": "OK",
      "vis_m": 9000,
      "fzfg": false,
      "metar_trigger": false,
      "taf_trigger": false,
      "metar": "METAR LECH 101530Z AUTO 29008KT 250V350 9000 NSC 13/M03 Q1021",
      "taf": ""
    },
    {
      "icao": "LEMD",
      "alert": "OK",
      "vis_m": 9999,
      "fzfg": false,
      "metar_trigger": false,
      "taf_trigger": false,
      "metar": "METAR LEMD 101530Z VRB02KT CAVOK 10/M01 Q1025 NOSIG",
      "taf": "TAF LEMD 101100Z 1012/1118 VRB03KT CAVOK TX10/1014Z TNM03/1106Z"
    },
    {
      "icao": "LEMG",
      "alert": "OK",
      "vis_m": 9999,
      "fzfg": false,
      "metar_trigger": false,
      "taf_trigger": false,
      "metar": "METAR LEMG 101530Z 30014KT CAVOK 15/03 Q1025 NOSIG",
      "taf": ""
    },
    {
      "icao": "LEVC",
      "alert": "OK",
      "vis_m": 9999,
      "fzfg": false,
      "metar_trigger": false,
      "taf_trigger": false,
      "metar": "METAR LEVC 101530Z 27008KT 240V310 CAVOK 16/M02 Q1022 NOSIG",
      "taf": "TAF LEVC 101100Z 1012/1112 29008KT CAVOK TX16/1014Z TN04/1106Z"
    },
    {
      "icao": "LEXJ",
      "alert": "OK",
      "vis_m": 9999,
      "fzfg": false,
      "metar_trigger": false,
      "taf_trigger": false,
      "metar": "METAR LEXJ 101530Z 29012G22KT 260V330 9999 SCT034 BKN070 11/05 Q1026",
      "taf": "TAF LEXJ 101400Z 1015/1115 27012KT 9999 BKN035 TX15/1113Z TN08/1101Z"
    },
    {
      "icao": "LEZG",
      "alert": "OK",
      "vis_m": 9999,
      "fzfg": false,
      "metar_trigger": false,
      "taf_trigger": false,
      "metar": "METAR LEZG 101530Z 31017KT 9999 FEW070 12/00 Q1023 NOSIG",
      "taf": "TAF LEZG 101100Z 1012/1112 28012KT 9999 FEW040 TX12/1015Z TN03/1106Z"
    },
    {
      "icao": "LEZL",
      "alert": "OK",
      "vis_m": 9999,
      "fzfg": false,
      "metar_trigger": false,
      "taf_trigger": false,
      "metar": "METAR LEZL 101530Z 25004KT 220V300 CAVOK 15/06 Q1027 NOSIG",
      "taf": "TAF LEZL 101400Z 1015/1115 22004KT CAVOK TX15/1115Z TN04/1107Z"
    },
    {
      "icao": "LFBD",
      "alert": "OK",
      "vis_m": 9999,
      "fzfg": false,
      "metar_trigger": false,
      "taf_trigger": false,
      "metar": "METAR LFBD 101530Z AUTO 33009KT 300V010 9999 FEW013 BKN045 BKN072 09/05 Q1022 TEMPO VRB15G30KT 2000 SHRA BKN025CB",
      "taf": "TAF LFBD 101100Z 1012/1118 30005KT 9999 SCT030 TX09/1013Z TN02/1022Z"
    },
    {
      "icao": "LFLL",
      "alert": "OK",
      "vis_m": 9999,
      "fzfg": false,
      "metar_trigger": false,
      "taf_trigger": false,
      "metar": "METAR LFLL 101530Z 25004KT 9999 -SHRA BKN025 FEW031TCU BKN033 05/01 Q1015 NOSIG",
      "taf": ""
    },
    {
      "icao": "LFLS",
      "alert": "OK",
      "vis_m": 2900,
      "fzfg": false,
      "metar_trigger": false,
      "taf_trigger": false,
      "metar": "METAR LFLS 101530Z AUTO VRB02KT 2900 -SN BR FEW008/// BKN013/// BKN023/// ///TCU 01/M00 Q1015 TEMPO 1200 -SHSN BKN008 BKN015TCU",
      "taf": ""
    },
    {
      "icao": "LFMN",
      "alert": "OK",
      "vis_m": 9999,
      "fzfg": false,
      "metar_trigger": false,
      "taf_trigger": false,
      "metar": "METAR LFMN 101530Z 33014KT CAVOK 13/M10 Q1004 TEMPO 30015G25KT",
      "taf": "TAF LFMN 101400Z 1015/1121 33013KT CAVOK"
    },
    {
      "icao": "LFOB",
      "alert": "OK",
      "vis_m": 9999,
      "fzfg": false,
      "metar_trigger": false,
      "taf_trigger": false,
      "metar": "METAR LFOB 101530Z AUTO 32014KT 9999 BKN025 BKN034 BKN045 03/00 Q1016",
      "taf": ""
    },
    {
      "icao": "LFPO",
      "alert": "OK",
      "vis_m": 9999,
      "fzfg": false,
      "metar_trigger": false,
      "taf_trigger": false,
      "metar": "METAR LFPO 101530Z 32012KT 9999 BKN031 BKN040 04/M01 Q1016 NOSIG",
      "taf": "TAF LFPO 101100Z 1012/1118 31010G25KT 9999 SCT025"
    },
    {
      "icao": "LFSB",
      "alert": "OK",
      "vis_m": 9999,
      "fzfg": false,
      "metar_trigger": false,
      "taf_trigger": false,
      "metar": "METAR LFSB 101530Z AUTO 24013KT 9999 SCT016 SCT043 BKN072 02/M01 Q1011 NOSIG",
      "taf": "TAF LFSB 101100Z 1012/1112 25015KT 9999 SCT025 BKN040"
    },
    {
      "icao": "LGAV",
      "alert": "OK",
      "vis_m": 9999,
      "fzfg": false,
      "metar_trigger": false,
      "taf_trigger": false,
      "metar": "METAR LGAV 101520Z 25020G30KT 210V280 9999 FEW020 SCT030 BKN060 17/06 Q1002 NOSIG",
      "taf": "TAF LGAV 101100Z 1012/1112 24020KT 9999 SCT025 SCT080"
    },
    {
      "icao": "LGTS",
      "alert": "OK",
      "vis_m": 9999,
      "fzfg": false,
      "metar_trigger": false,
      "taf_trigger": false,
      "metar": "METAR LGTS 101520Z 11006KT 9999 SCT015 BKN025 08/08 Q0997 NOSIG",
      "taf": "TAF LGTS 101100Z 1012/1112 22010KT 9999 SCT030"
    },
    {
      "icao": "LHBP",
      "alert": "OK",
      "vis_m": 3500,
      "fzfg": false,
      "metar_trigger": false,
      "taf_trigger": false,
      "metar": "METAR LHBP 101530Z 00000KT 3500 BR BKN012 M04/M05 Q1003 TEMPO 2500",
      "taf": "TAF LHBP 101115Z 1012/1112 VRB02KT 6000 SCT008 BKN025"
    },
    {
      "icao": "LHDC",
      "alert": "OK",
      "vis_m": 6000,
      "fzfg": false,
      "metar_trigger": false,
      "taf_trigger": false,
      "metar": "METAR LHDC 101515Z AUTO 03007KT 6000 OVC025 M03/M06 Q1002 NOSIG",
      "taf": "TAF LHDC 101415Z 1015/1024 VRB03KT 7000 BKN025 BKN060"
    },
    {
      "icao": "LIBD",
      "alert": "OK",
      "vis_m": 9999,
      "fzfg": false,
      "metar_trigger": false,
      "taf_trigger": false,
      "metar": "METAR LIBD 101520Z 27012KT 9999 FEW015 09/04 Q0997",
      "taf": "TAF LIBD 101100Z 1012/1112 28018G30KT 9999 SCT040"
    },
    {
      "icao": "LIBG",
      "alert": "OK",
      "vis_m": 9999,
      "fzfg": false,
      "metar_trigger": false,
      "taf_trigger": false,
      "metar": "METAR LIBG 101450Z 26007KT 230V300 CAVOK 10/06 Q0997",
      "taf": "TAF LIBG 101400Z 1015/1024 23013KT 9999 SCT040"
    },
    {
      "icao": "LIBP",
      "alert": "OK",
      "vis_m": 9999,
      "fzfg": false,
      "metar_trigger": false,
      "taf_trigger": false,
      "metar": "METAR LIBP 101520Z AUTO 31004KT 260V360 9999 BKN057/// 08/02 Q1002",
      "taf": "TAF LIBP 101100Z 1012/1112 33012KT 9999 SCT040"
    },
    {
      "icao": "LIBR",
      "alert": "OK",
      "vis_m": 9999,
      "fzfg": false,
      "metar_trigger": false,
      "taf_trigger": false,
      "metar": "METAR LIBR 101520Z 25014KT CAVOK 10/04 Q0997",
      "taf": "TAF LIBR 101100Z 1012/1112 26015KT 9999 SCT040"
    },
    {
      "icao": "LICA",
      "alert": "OK",
      "vis_m": 6000,
      "fzfg": false,
      "metar_trigger": false,
      "taf_trigger": false,
      "metar": "METAR LICA 101520Z 28025KT 6000 SCT020 BKN060 12/06 Q1002",
      "taf": "TAF LICA 101100Z 1012/1112 25025G37KT 9999 SCT020"
    },
    {
      "icao": "LICC",
      "alert": "OK",
      "vis_m": 9999,
      "fzfg": false,
      "metar_trigger": false,
      "taf_trigger": false,
      "metar": "METAR LICC 101520Z 26020KT 9999 FEW070 14/09 Q1007",
      "taf": "TAF LICC 101100Z 1012/1112 26018G30KT 9999 FEW050"
    },
    {
      "icao": "LICJ",
      "alert": "OK",
      "vis_m": 9999,
      "fzfg": false,
      "metar_trigger": false,
      "taf_trigger": false,
      "metar": "METAR LICJ 101520Z 29031G41KT 9999 SCT050 13/05 Q1008",
      "taf": "TAF LICJ 101100Z 1012/1112 29030G40KT 9999 SCT030"
    },
    {
      "icao": "LIMC",
      "alert": "OK",
      "vis_m": 9999,
      "fzfg": false,
      "metar_trigger": false,
      "taf_trigger": false,
      "metar": "METAR LIMC 101520Z 26003KT 230V330 CAVOK 04/01 Q1004 NOSIG",
      "taf": "TAF LIMC 101100Z 1012/1118 VRB04KT 7000 NSC"
    },
    {
      "icao": "LIME",
      "alert": "OK",
      "vis_m": 9999,
      "fzfg": false,
      "metar_trigger": false,
      "taf_trigger": false,
      "metar": "METAR LIME 101520Z 27013KT 9999 SCT100 06/M03 Q1003 NOSIG",
      "taf": "TAF LIME 101100Z 1012/1112 VRB04KT 8000 NSC"
    },
    {
      "icao": "LIMF",
      "alert": "OK",
      "vis_m": 9999,
      "fzfg": false,
      "metar_trigger": false,
      "taf_trigger": false,
      "metar": "METAR LIMF 101520Z 01004KT 330V050 CAVOK 08/M09 Q1004",
      "taf": "TAF LIMF 101100Z 1012/1112 30010KT 8000 NSC"
    },
    {
      "icao": "LIMJ",
      "alert": "OK",
      "vis_m": 9999,
      "fzfg": false,
      "metar_trigger": false,
      "taf_trigger": false,
      "metar": "METAR LIMJ 101520Z 03005KT 330V060 CAVOK 11/M08 Q1004",
      "taf": "TAF LIMJ 101100Z 1012/1112 04013KT CAVOK"
    },
    {
      "icao": "LIPE",
      "alert": "OK",
      "vis_m": 8000,
      "fzfg": false,
      "metar_trigger": false,
      "taf_trigger": false,
      "metar": "METAR LIPE 101520Z 27004KT 8000 NSC 07/M00 Q1004",
      "taf": "TAF LIPE 101100Z 1012/1112 28006KT 7000 NSC"
    },
    {
      "icao": "LIPH",
      "alert": "OK",
      "vis_m": 9999,
      "fzfg": false,
      "metar_trigger": false,
      "taf_trigger": false,
      "metar": "METAR LIPH 101520Z 17003KT 9999 FEW060 09/01 Q1002",
      "taf": "TAF LIPH 101100Z 1012/1112 VRB05KT 9999 SCT040"
    },
    {
      "icao": "LIPQ",
      "alert": "OK",
      "vis_m": 9999,
      "fzfg": false,
      "metar_trigger": false,
      "taf_trigger": false,
      "metar": "METAR LIPQ 101520Z AUTO 33001KT 9999 FEW200/// 09/01 Q1002",
      "taf": "TAF LIPQ 101100Z 1012/1112 VRB05KT 9999 BKN030"
    },
    {
      "icao": "LIPR",
      "alert": "OK",
      "vis_m": 9999,
      "fzfg": false,
      "metar_trigger": false,
      "taf_trigger": false,
      "metar": "METAR LIPR 101520Z 29009KT CAVOK 06/00 Q1004",
      "taf": "TAF LIPR 101100Z 1012/1112 30010KT 6000 SCT040"
    },
    {
      "icao": "LIPX",
      "alert": "OK",
      "vis_m": 9999,
      "fzfg": false,
      "metar_trigger": false,
      "taf_trigger": false,
      "metar": "METAR LIPX 101520Z 26009KT CAVOK 05/00 Q1002",
      "taf": "TAF LIPX 101100Z 1012/1112 VRB05KT 8000 NSC"
    },
    {
      "icao": "LIPY",
      "alert": "OK",
      "vis_m": 9999,
      "fzfg": false,
      "metar_trigger": false,
      "taf_trigger": false,
      "metar": "METAR LIPY 101520Z AUTO 29005KT 9999 NCD 07/02 Q1003",
      "taf": "TAF LIPY 101100Z 1012/1112 30012KT 9999 SCT050"
    },
    {
      "icao": "LIPZ",
      "alert": "OK",
      "vis_m": 9999,
      "fzfg": false,
      "metar_trigger": false,
      "taf_trigger": false,
      "metar": "METAR LIPZ 101520Z 20006KT CAVOK 06/02 Q1002 NOSIG",
      "taf": "TAF LIPZ 101100Z 1012/1118 VRB05KT CAVOK"
    },
    {
      "icao": "LIRF",
      "alert": "OK",
      "vis_m": 9999,
      "fzfg": false,
      "metar_trigger": false,
      "taf_trigger": false,
      "metar": "METAR LIRF 101520Z 07005KT 9999 FEW015CB SCT035 07/05 Q1002 NOSIG",
      "taf": ""
    },
    {
      "icao": "LIRN",
      "alert": "OK",
      "vis_m": 9999,
      "fzfg": false,
      "metar_trigger": false,
      "taf_trigger": false,
      "metar": "METAR LIRN 101520Z 34004KT 290V060 9999 SCT040 10/04 Q1000 NOSIG",
      "taf": "TAF LIRN 101100Z 1012/1112 34016KT 9999 SCT030"
    },
    {
      "icao": "LIRP",
      "alert": "OK",
      "vis_m": 9999,
      "fzfg": false,
      "metar_trigger": false,
      "taf_trigger": false,
      "metar": "METAR LIRP 101515Z 28009KT CAVOK 11/M03 Q1002 NOSIG",
      "taf": "TAF LIRP 101100Z 1012/1112 34005KT CAVOK"
    },
    {
      "icao": "LIRZ",
      "alert": "OK",
      "vis_m": 9999,
      "fzfg": false,
      "metar_trigger": false,
      "taf_trigger": false,
      "metar": "METAR LIRZ 101520Z AUTO 31006KT 9999 FEW033/// 09/02 Q1002",
      "taf": "TAF LIRZ 101100Z 1012/1112 35011KT 9999 BKN040"
    },
    {
      "icao": "LJLJ",
      "alert": "OK",
      "vis_m": 150,
      "fzfg": true,
      "metar_trigger": false,
      "taf_trigger": false,
      "metar": "METAR LJLJ 101530Z VRB02KT 0150 R30/0250N FZFG VV001 M01/M01 Q1003 NOSIG",
      "taf": "TAF LJLJ 101100Z 1012/1112 VRB02KT 0200 FG VV001"
    },
    {
      "icao": "LKMT",
      "alert": "OK",
      "vis_m": 8000,
      "fzfg": false,
      "metar_trigger": false,
      "taf_trigger": false,
      "metar": "METAR LKMT 101530Z 08005KT 8000 BKN020 M09/M12 Q1007 NOSIG",
      "taf": "TAF LKMT 101100Z 1012/1112 36012KT 6000 -SN OVC013"
    },
    {
      "icao": "LKPR",
      "alert": "OK",
      "vis_m": 9999,
      "fzfg": false,
      "metar_trigger": false,
      "taf_trigger": false,
      "metar": "METAR LKPR 101530Z 01003KT 340V050 9999 FEW014 OVC017 M06/M08 Q1008 NOSIG",
      "taf": "TAF LKPR 101400Z 1015/1121 02005KT 5000 -SN BR BKN008 OVC015"
    },
    {
      "icao": "LLBG",
      "alert": "OK",
      "vis_m": 9999,
      "fzfg": false,
      "metar_trigger": false,
      "taf_trigger": false,
      "metar": "METAR LLBG 101520Z 18006KT CAVOK 17/11 Q1020 NOSIG RMK FEW060 SCT072 BKN090",
      "taf": "TAF LLBG 101102Z 1012/1112 21012KT 9999 SCT030"
    },
    {
      "icao": "LMML",
      "alert": "OK",
      "vis_m": 9999,
      "fzfg": false,
      "metar_trigger": false,
      "taf_trigger": false,
      "metar": "METAR LMML 101515Z 28024G38KT 250V310 9999 -SHRA SCT020TCU 13/07 Q1011 RESHRA NOSIG",
      "taf": "TAF LMML 101100Z 1012/1112 29026G36KT 9999 FEW020 SCT045"
    },
    {
      "icao": "LOWW",
      "alert": "OK",
      "vis_m": 7000,
      "fzfg": false,
      "metar_trigger": false,
      "taf_trigger": false,
      "metar": "METAR LOWW 101520Z 36013KT 7000 FEW015 SCT030 BKN034 M04/M07 Q1005 TEMPO 4000 -SN BR",
      "taf": "TAF LOWW 101415Z 1015/1121 35012KT 6000 SCT004 BKN050 TXM03/1111Z TNM07/1100Z"
    },
    {
      "icao": "LPFR",
      "alert": "OK",
      "vis_m": 9999,
      "fzfg": false,
      "metar_trigger": false,
      "taf_trigger": false,
      "metar": "METAR LPFR 101530Z 36006KT 320V040 9999 FEW025 SCT038 16/07 Q1028",
      "taf": "TAF LPFR 101100Z 1012/1112 34005KT 9999 FEW025"
    },
    {
      "icao": "LPMA",
      "alert": "OK",
      "vis_m": 9999,
      "fzfg": false,
      "metar_trigger": false,
      "taf_trigger": false,
      "metar": "METAR LPMA 101530Z 04009KT 010V070 9999 FEW016 18/11 Q1029",
      "taf": "TAF LPMA 101100Z 1012/1112 01007KT 9999 SCT015"
    },
    {
      "icao": "LPPR",
      "alert": "OK",
      "vis_m": 9999,
      "fzfg": false,
      "metar_trigger": false,
      "taf_trigger": false,
      "metar": "METAR LPPR 101530Z 18007KT 9999 FEW014 SCT036 13/09 Q1028",
      "taf": "TAF LPPR 101100Z 1012/1112 19010KT 9999 FEW020 BKN035"
    },
    {
      "icao": "LPPS",
      "alert": "OK",
      "vis_m": 9999,
      "fzfg": false,
      "metar_trigger": false,
      "taf_trigger": false,
      "metar": "METAR LPPS 101530Z 22010KT 160V300 9999 FEW015 18/13 Q1029",
      "taf": "TAF LPPS 101100Z 1012/1118 02008KT 9999 SCT015 SCT030"
    },
    {
      "icao": "LPPT",
      "alert": "OK",
      "vis_m": 9999,
      "fzfg": false,
      "metar_trigger": false,
      "taf_trigger": false,
      "metar": "METAR LPPT 101530Z 20009KT 9999 FEW020 14/10 Q1028",
      "taf": "TAF LPPT 101100Z 1012/1118 29005KT 9999 FEW020 BKN035"
    },
    {
      "icao": "LQBK",
      "alert": "OK",
      "vis_m": 450,
      "fzfg": false,
      "metar_trigger": false,
      "taf_trigger": false,
      "metar": "METAR LQBK 101530Z VRB02KT 0450 R16/0650D -RA FG SCT001 BKN012 OVC020 01/01 Q1003 NOSIG",
      "taf": "TAF LQBK 101100Z 1012/1112 30005KT 7000 SCT010 BKN030 TX01/1012Z TNM07/1105Z"
    },
    {
      "icao": "LQSA",
      "alert": "OK",
      "vis_m": 7000,
      "fzfg": false,
      "metar_trigger": false,
      "taf_trigger": false,
      "metar": "METAR LQSA 101530Z 30009KT 7000 -DZ BKN010 OVC020 01/01 Q0998 NOSIG",
      "taf": ""
    },
    {
      "icao": "LQTZ",
      "alert": "OK",
      "vis_m": 1800,
      "fzfg": false,
      "metar_trigger": false,
      "taf_trigger": false,
      "metar": "METAR LQTZ 101530Z 28007KT 1800 -SN BR OVC003 00/00 Q1001",
      "taf": "TAF LQTZ 101100Z 1012/1112 27006KT 3000 BR BKN005 OVC012 TX02/1013Z TNM06/1106Z"
    },
    {
      "icao": "LRBC",
      "alert": "OK",
      "vis_m": 9999,
      "fzfg": false,
      "metar_trigger": false,
      "taf_trigger": false,
      "metar": "METAR LRBC 101530Z 30004KT CAVOK M05/M08 Q1001",
      "taf": "TAF LRBC 101400Z 1015/1024 VRB04KT 9999 SCT050"
    },
    {
      "icao": "LRBS",
      "alert": "OK",
      "vis_m": 9000,
      "fzfg": false,
      "metar_trigger": false,
      "taf_trigger": false,
      "metar": "METAR LRBS 101530Z 04009KT 9000 SCT013 01/M01 Q0998 TEMPO BKN010",
      "taf": "TAF LRBS 101100Z 1012/1112 VRB04KT 9999 BKN020"
    },
    {
      "icao": "LRBV",
      "alert": "OK",
      "vis_m": 6000,
      "fzfg": false,
      "metar_trigger": false,
      "taf_trigger": false,
      "metar": "METAR LRBV 101530Z COR 05002KT 6000 FEW013 OVC019 M02/M04 Q0999",
      "taf": "TAF LRBV 101400Z 1015/1024 VRB04KT 5000 BR OVC025"
    },
    {
      "icao": "LRCL",
      "alert": "OK",
      "vis_m": 9999,
      "fzfg": false,
      "metar_trigger": false,
      "taf_trigger": false,
      "metar": "METAR LRCL 101530Z 08003KT 9999 OVC021 M03/M05 Q1001",
      "taf": "TAF LRCL 101400Z 1015/1024 VRB04KT 9999 OVC025"
    },
    {
      "icao": "LRCV",
      "alert": "OK",
      "vis_m": 2500,
      "fzfg": false,
      "metar_trigger": false,
      "taf_trigger": false,
      "metar": "METAR LRCV 101530Z 32002KT 2500 -RA BR FEW009 SCT011 OVC033 00/00 Q0997",
      "taf": ""
    },
    {
      "icao": "LRIA",
      "alert": "OK",
      "vis_m": 9999,
      "fzfg": false,
      "metar_trigger": false,
      "taf_trigger": false,
      "metar": "METAR LRIA 101530Z 32006KT CAVOK M04/M07 Q1002",
      "taf": "TAF LRIA 101400Z 1015/1024 VRB04KT CAVOK"
    },
    {
      "icao": "LROP",
      "alert": "OK",
      "vis_m": 6000,
      "fzfg": false,
      "metar_trigger": false,
      "taf_trigger": false,
      "metar": "METAR LROP 101530Z 07011KT 6000 BKN012 01/M01 Q0998 NOSIG",
      "taf": "TAF LROP 101100Z 1012/1112 VRB04KT 9999 BKN020"
    },
    {
      "icao": "LRSB",
      "alert": "OK",
      "vis_m": 8000,
      "fzfg": false,
      "metar_trigger": false,
      "taf_trigger": false,
      "metar": "METAR LRSB 101530Z 35002KT 8000 SCT016 OVC020 M01/M03 Q0999",
      "taf": "TAF LRSB 101100Z 1012/1112 VRB04KT 9999 BKN020"
    },
    {
      "icao": "LRSM",
      "alert": "OK",
      "vis_m": 9000,
      "fzfg": false,
      "metar_trigger": false,
      "taf_trigger": false,
      "metar": "METAR LRSM 101530Z AUTO 08004KT 9000 FEW018/// BKN023/// OVC035/// M03/M05 Q1003",
      "taf": ""
    },
    {
      "icao": "LRSV",
      "alert": "OK",
      "vis_m": 9999,
      "fzfg": false,
      "metar_trigger": false,
      "taf_trigger": false,
      "metar": "METAR LRSV 101530Z 02010KT CAVOK M09/M11 Q1000",
      "taf": "TAF LRSV 101400Z 1015/1024 03008KT CAVOK"
    },
    {
      "icao": "LRTM",
      "alert": "OK",
      "vis_m": 8000,
      "fzfg": false,
      "metar_trigger": false,
      "taf_trigger": false,
      "metar": "METAR LRTM 101530Z VRB02KT 8000 OVC027 M02/M05 Q1001",
      "taf": "TAF LRTM 101400Z 1015/1024 VRB04KT 9999 SCT020 BKN030"
    },
    {
      "icao": "LRTR",
      "alert": "OK",
      "vis_m": 3000,
      "fzfg": false,
      "metar_trigger": false,
      "taf_trigger": false,
      "metar": "METAR LRTR 101530Z 02006KT 350V050 3000 BR BKN004 OVC017 M01/M01 Q1001",
      "taf": ""
    },
    {
      "icao": "LTAC",
      "alert": "OK",
      "vis_m": 6000,
      "fzfg": false,
      "metar_trigger": false,
      "taf_trigger": false,
      "metar": "METAR LTAC 101520Z VRB02KT 6000 -RASN FEW010 BKN026 BKN080 01/M00 Q1008 BECMG 20012KT RMK RWY21C VRB02KT RWY03L VRB01KT RWY21R VRB01KT RWY03R VRB01KT RWY21L VRB01KT",
      "taf": ""
    },
    {
      "icao": "LTFM",
      "alert": "OK",
      "vis_m": 9999,
      "fzfg": false,
      "metar_trigger": false,
      "taf_trigger": false,
      "metar": "METAR LTFM 101520Z 21019KT 9999 SCT035 BKN090 15/09 Q0997 NOSIG RMK RWY17L 22013KT RWY34L 21016KT RWY16R 22013KT RWY36 21022KT RWY18 22019KT",
      "taf": ""
    },
    {
      "icao": "LUKK",
      "alert": "OK",
      "vis_m": 9999,
      "fzfg": false,
      "metar_trigger": false,
      "taf_trigger": false,
      "metar": "METAR LUKK 101530Z 08003KT CAVOK M06/M07 Q1001 NOSIG",
      "taf": "TAF LUKK 101105Z 1012/1112 VRB05KT CAVOK"
    },
    {
      "icao": "LWOH",
      "alert": "OK",
      "vis_m": 9999,
      "fzfg": false,
      "metar_trigger": false,
      "taf_trigger": false,
      "metar": "METAR LWOH 101520Z 14016KT 9999 -RA FEW020 BKN040 05/02 Q0996",
      "taf": "TAF LWOH 101425Z 1015/1115 15012KT 9999 -RA FEW020 BKN040"
    },
    {
      "icao": "LWSK",
      "alert": "OK",
      "vis_m": 4000,
      "fzfg": false,
      "metar_trigger": false,
      "taf_trigger": false,
      "metar": "METAR LWSK 101520Z 33004KT 4000 BR FEW050 01/M00 Q0997 NOSIG",
      "taf": "TAF LWSK 101425Z 1015/1115 VRB02KT 9999 FEW030 SCT060"
    },
    {
      "icao": "LYBE",
      "alert": "OK",
      "vis_m": 7000,
      "fzfg": false,
      "metar_trigger": false,
      "taf_trigger": false,
      "metar": "METAR LYBE 101530Z 36011KT 7000 OVC003 M01/M02 Q1001 TEMPO 4000 -SN",
      "taf": "TAF LYBE 101100Z 1012/1112 36007KT 0300 FG VV001 TX01/1013Z TNM04/1106Z"
    },
    {
      "icao": "LYNI",
      "alert": "OK",
      "vis_m": 2000,
      "fzfg": false,
      "metar_trigger": false,
      "taf_trigger": false,
      "metar": "METAR LYNI 101530Z 34007KT 2000 +SN SCT012 OVC023 00/00 Q0997 NOSIG",
      "taf": "TAF LYNI 101100Z 1012/1112 07004KT 4000 BR SCT015 BKN030 TX02/1012Z TNM03/1106Z"
    },
    {
      "icao": "LYPG",
      "alert": "OK",
      "vis_m": 9999,
      "fzfg": false,
      "metar_trigger": false,
      "taf_trigger": false,
      "metar": "METAR LYPG 101530Z 09006KT 9999 -RA FEW006 SCT030 BKN040 07/06 Q0995 TEMPO 2000 SHRA FEW006 SCT030TCU BKN040",
      "taf": "TAF LYPG 101100Z 1012/1112 16005KT 7000 RA FEW010 SCT030 OVC070 TX08/1012Z TN04/1105Z"
    },
    {
      "icao": "LZIB",
      "alert": "OK",
      "vis_m": 9999,
      "fzfg": false,
      "metar_trigger": false,
      "taf_trigger": false,
      "metar": "METAR LZIB 101530Z 33009KT 9999 BKN034 M02/M06 Q1004 TEMPO -SN BKN010",
      "taf": "TAF LZIB 101115Z 1012/1112 06004KT 9999 SCT010 BKN035"
    },
    {
      "icao": "LZKZ",
      "alert": "OK",
      "vis_m": 8000,
      "fzfg": false,
      "metar_trigger": false,
      "taf_trigger": false,
      "metar": "METAR LZKZ 101530Z 36017KT 8000 BKN036 OVC046 M07/M12 Q1004 NOSIG",
      "taf": "TAF LZKZ 101115Z 1012/1112 03006KT 9999 SCT010 BKN030"
    },
    {
      "icao": "LZTT",
      "alert": "OK",
      "vis_m": 9999,
      "fzfg": false,
      "metar_trigger": false,
      "taf_trigger": false,
      "metar": "METAR LZTT 101530Z 07010KT 9999 BKN020 M09/M12 Q1000 NOSIG",
      "taf": ""
    },
    {
      "icao": "OEJN",
      "alert": "OK",
      "vis_m": 9999,
      "fzfg": false,
      "metar_trigger": false,
      "taf_trigger": false,
      "metar": "METAR OEJN 101500Z 31011KT CAVOK 27/15 Q1013 NOSIG",
      "taf": "TAF OEJN 101100Z 1012/1118 32010KT 9999 SCT040"
    },
    {
      "icao": "OEMA",
      "alert": "OK",
      "vis_m": 9999,
      "fzfg": false,
      "metar_trigger": false,
      "taf_trigger": false,
      "metar": "METAR OEMA 101500Z VRB03KT CAVOK 23/01 Q1019 NOSIG",
      "taf": "TAF OEMA 101100Z 1012/1118 07010KT 7000 NSC"
    },
    {
      "icao": "OJAI",
      "alert": "OK",
      "vis_m": 4000,
      "fzfg": false,
      "metar_trigger": false,
      "taf_trigger": false,
      "metar": "METAR OJAI 101500Z 24010KT 4000 HZ NSC 11/05 Q1021 NOSIG",
      "taf": "TAF OJAI 101100Z 1012/1118 26012KT 5000 HZ SCT030"
    },
    {
      "icao": "OMAA",
      "alert": "OK",
      "vis_m": 9999,
      "fzfg": false,
      "metar_trigger": false,
      "taf_trigger": false,
      "metar": "METAR OMAA 101500Z 35008KT CAVOK 22/12 Q1018 NOSIG",
      "taf": "TAF OMAA 101100Z 1012/1118 VRB02KT 8000 FEW045"
    },
    {
      "icao": "OMDB",
      "alert": "OK",
      "vis_m": 9999,
      "fzfg": false,
      "metar_trigger": false,
      "taf_trigger": false,
      "metar": "METAR OMDB 101530Z 32008KT CAVOK 23/11 Q1019 NOSIG",
      "taf": "TAF OMDB 101100Z 1012/1118 31010KT 8000 NSC"
    },
    {
      "icao": "UAAA",
      "alert": "OK",
      "vis_m": 700,
      "fzfg": true,
      "metar_trigger": false,
      "taf_trigger": false,
      "metar": "METAR UAAA 101530Z 17002MPS 130V200 0700 R05R/1900N FZFG FU FEW100 M03/M05 Q1018 NOSIG",
      "taf": "TAF UAAA 101104Z 1012/1112 24003MPS 1600 BR FU SCT011 BKN100 TX05/1109Z TNM05/1101Z"
    },
    {
      "icao": "UBBB",
      "alert": "OK",
      "vis_m": 9999,
      "fzfg": false,
      "metar_trigger": false,
      "taf_trigger": false,
      "metar": "METAR UBBB 101530Z 31012KT 9999 -RA BKN008 OVC020 07/05 Q1015 NOSIG",
      "taf": "TAF UBBB 101055Z 1012/1112 33018KT 9999 SCT017 BKN030 TX09/1012Z TN04/1102Z"
    },
    {
      "icao": "UDSG",
      "alert": "OK",
      "vis_m": 9999,
      "fzfg": false,
      "metar_trigger": false,
      "taf_trigger": false,
      "metar": "METAR UDSG 101530Z 05002KT 9999 FEW049 M10/M13 Q1015 NOSIG",
      "taf": "TAF UDSG 101058Z 1012/1112 VRB06KT 5000 BR SCT030"
    },
    {
      "icao": "UDYZ",
      "alert": "OK",
      "vis_m": 900,
      "fzfg": true,
      "metar_trigger": false,
      "taf_trigger": false,
      "metar": "METAR UDYZ 101530Z VRB01KT 0900 0800W R08/1900U FZFG SCT046 M01/M02 Q1015 NOSIG",
      "taf": "TAF UDYZ 101100Z 1012/1112 VRB04KT 1500 BR SCT030"
    },
    {
      "icao": "UGKO",
      "alert": "OK",
      "vis_m": 9999,
      "fzfg": false,
      "metar_trigger": false,
      "taf_trigger": false,
      "metar": "METAR UGKO 101530Z 07008KT CAVOK 03/01 Q1014 NOSIG",
      "taf": "TAF UGKO 101100Z 1012/1112 08010KT CAVOK TX15/1111Z TN03/1022Z"
    }
  ]
}