{
  "ts_utc": "2026-02-18T18:31:00Z",
  "threshold_m": 150,
  "source": "stations_override.txt (ICAO list) + aviationweather.gov (METAR/TAF raw)",
  "station_count": 159,
  "stations": [
    {
      "icao": "BIKF",
      "alert": "OK",
      "vis_m": 9999,
      "fzfg": false,
      "metar_trigger": false,
      "taf_trigger": false,
      "metar": "METAR BIKF 181800Z 04024KT CAVOK M02/M11 Q1010",
      "taf": "TAF BIKF 181636Z 1818/1918 04022G32KT 9999 FEW025 SCT045 TX00/1915Z TNM04/1900Z"
    },
    {
      "icao": "BKPR",
      "alert": "OK",
      "vis_m": 9999,
      "fzfg": false,
      "metar_trigger": false,
      "taf_trigger": false,
      "metar": "METAR BKPR 181830Z VRB02KT CAVOK 01/M03 Q1015 NOSIG",
      "taf": "TAF BKPR 181730Z 1818/1918 20005KT CAVOK"
    },
    {
      "icao": "EBCI",
      "alert": "OK",
      "vis_m": 9999,
      "fzfg": false,
      "metar_trigger": false,
      "taf_trigger": false,
      "metar": "METAR EBCI 181820Z 11009KT 080V140 CAVOK 05/M02 Q1000 NOSIG",
      "taf": "TAF EBCI 181702Z 1818/1924 11010KT 9999 FEW020 SCT030"
    },
    {
      "icao": "EDDB",
      "alert": "OK",
      "vis_m": 9999,
      "fzfg": false,
      "metar_trigger": false,
      "taf_trigger": false,
      "metar": "METAR EDDB 181820Z AUTO 03004KT 9999 SCT026 M03/M07 Q1014 NOSIG",
      "taf": "TAF EDDB 181700Z 1818/1918 34005KT 9999 SCT020"
    },
    {
      "icao": "EDDH",
      "alert": "OK",
      "vis_m": 9999,
      "fzfg": false,
      "metar_trigger": false,
      "taf_trigger": false,
      "metar": "METAR EDDH 181820Z AUTO 14005KT CAVOK M03/M07 Q1014 NOSIG",
      "taf": "TAF EDDH 181700Z 1818/1924 10004KT CAVOK"
    },
    {
      "icao": "EDDK",
      "alert": "OK",
      "vis_m": 9999,
      "fzfg": false,
      "metar_trigger": false,
      "taf_trigger": false,
      "metar": "METAR EDDK 181820Z AUTO 11009KT 080V140 CAVOK 04/M03 Q1006 NOSIG",
      "taf": "TAF EDDK 181700Z 1818/1924 12012KT 9999 SCT015 BKN025"
    },
    {
      "icao": "EDDN",
      "alert": "OK",
      "vis_m": 9999,
      "fzfg": false,
      "metar_trigger": false,
      "taf_trigger": false,
      "metar": "METAR EDDN 181820Z AUTO 09005KT CAVOK 00/M03 Q1010 NOSIG",
      "taf": "TAF EDDN 181700Z 1818/1918 09007KT CAVOK"
    },
    {
      "icao": "EDDS",
      "alert": "OK",
      "vis_m": 9999,
      "fzfg": false,
      "metar_trigger": false,
      "taf_trigger": false,
      "metar": "METAR EDDS 181820Z AUTO VRB02KT CAVOK 02/01 Q1006 NOSIG",
      "taf": "TAF EDDS 181700Z 1818/1918 15005KT 9999 FEW010 BKN020"
    },
    {
      "icao": "EDFH",
      "alert": "OK",
      "vis_m": 9999,
      "fzfg": false,
      "metar_trigger": false,
      "taf_trigger": false,
      "metar": "METAR EDFH 181820Z 12016KT CAVOK 01/M03 Q1004",
      "taf": "TAF EDFH 181700Z 1818/1918 12012KT 9999 SCT010 BKN030"
    },
    {
      "icao": "EDJA",
      "alert": "OK",
      "vis_m": 5000,
      "fzfg": false,
      "metar_trigger": false,
      "taf_trigger": false,
      "metar": "METAR EDJA 181820Z 07004KT 040V100 5000 -SN FEW003 SCT005 OVC031 00/M00 Q1007",
      "taf": "TAF EDJA 181700Z 1818/1903 08006KT 4000 -SN BR SCT002 BKN006 OVC013"
    },
    {
      "icao": "EDLW",
      "alert": "OK",
      "vis_m": 9999,
      "fzfg": false,
      "metar_trigger": false,
      "taf_trigger": false,
      "metar": "METAR EDLW 181820Z 04012KT CAVOK 00/M02 Q1008",
      "taf": "TAF EDLW 181700Z 1818/1918 08012KT 9999 SCT015 BKN025"
    },
    {
      "icao": "EDNY",
      "alert": "OK",
      "vis_m": 9000,
      "fzfg": false,
      "metar_trigger": false,
      "taf_trigger": false,
      "metar": "METAR EDNY 181820Z 02004KT 330V050 9000 BKN032 OVC039 01/01 Q1007",
      "taf": "TAF EDNY 181700Z 1818/1903 04006KT 9999 FEW013 OVC045"
    },
    {
      "icao": "EDSB",
      "alert": "OK",
      "vis_m": 9999,
      "fzfg": false,
      "metar_trigger": false,
      "taf_trigger": false,
      "metar": "METAR EDSB 181820Z 02006KT 9999 -RA FEW050 04/02 Q1006",
      "taf": "TAF EDSB 181700Z 1818/1918 03006KT 9999 SCT020 BKN035"
    },
    {
      "icao": "EETN",
      "alert": "OK",
      "vis_m": 9999,
      "fzfg": false,
      "metar_trigger": false,
      "taf_trigger": false,
      "metar": "METAR EETN 181820Z 11008KT CAVOK M09/M16 Q1012 NOSIG",
      "taf": "TAF EETN 181730Z 1818/1918 12010KT CAVOK"
    },
    {
      "icao": "EFTU",
      "alert": "OK",
      "vis_m": 9999,
      "fzfg": false,
      "metar_trigger": false,
      "taf_trigger": false,
      "metar": "METAR EFTU 181820Z AUTO 09006KT CAVOK M09/M13 Q1011",
      "taf": "TAF EFTU 181729Z 1818/1918 10007KT CAVOK"
    },
    {
      "icao": "EGBB",
      "alert": "OK",
      "vis_m": 9999,
      "fzfg": false,
      "metar_trigger": false,
      "taf_trigger": false,
      "metar": "METAR EGBB 181820Z 10013KT 9999 OVC019 04/M00 Q0995",
      "taf": "TAF EGBB 181658Z 1818/1918 10013KT 9999 SCT025"
    },
    {
      "icao": "EGGP",
      "alert": "OK",
      "vis_m": 9999,
      "fzfg": false,
      "metar_trigger": false,
      "taf_trigger": false,
      "metar": "METAR EGGP 181820Z 11020KT 9999 BKN033 04/M02 Q0996",
      "taf": "TAF EGGP 181705Z 1818/1918 11012KT 9999 FEW015 SCT025"
    },
    {
      "icao": "EGGW",
      "alert": "OK",
      "vis_m": 9999,
      "fzfg": false,
      "metar_trigger": false,
      "taf_trigger": false,
      "metar": "METAR EGGW 181820Z AUTO 11020KT 9999 -RA OVC019/// //////TCU 04/01 Q0995",
      "taf": "TAF EGGW 181657Z 1818/1918 11017G27KT 9999 BKN020"
    },
    {
      "icao": "EGKK",
      "alert": "OK",
      "vis_m": 9999,
      "fzfg": false,
      "metar_trigger": false,
      "taf_trigger": false,
      "metar": "METAR EGKK 181820Z 09013KT 9999 -RA BKN008 05/04 Q0994",
      "taf": "TAF EGKK 181702Z 1818/1924 10012KT 9999 BKN010"
    },
    {
      "icao": "EGNM",
      "alert": "OK",
      "vis_m": 9999,
      "fzfg": false,
      "metar_trigger": false,
      "taf_trigger": false,
      "metar": "METAR EGNM 181820Z 09014KT 9999 SCT021 01/M01 Q0999",
      "taf": "TAF EGNM 181705Z 1818/1918 12012KT 9999 SCT012 BKN025"
    },
    {
      "icao": "EGPD",
      "alert": "OK",
      "vis_m": 9999,
      "fzfg": false,
      "metar_trigger": false,
      "taf_trigger": false,
      "metar": "METAR EGPD 181820Z COR AUTO 15015KT 9999 -RA SCT026 OVC035 03/M00 Q1004 NOSIG",
      "taf": "TAF EGPD 181656Z 1818/1918 14012KT 9999 SCT040"
    },
    {
      "icao": "EGPF",
      "alert": "OK",
      "vis_m": 9999,
      "fzfg": false,
      "metar_trigger": false,
      "taf_trigger": false,
      "metar": "METAR EGPF 181820Z AUTO 09015KT 9999 BKN046 05/M02 Q0999",
      "taf": "TAF EGPF 181700Z 1818/1918 09009KT 9999 SCT040"
    },
    {
      "icao": "EHBK",
      "alert": "OK",
      "vis_m": 9999,
      "fzfg": false,
      "metar_trigger": false,
      "taf_trigger": false,
      "metar": "METAR EHBK 181825Z AUTO 10016KT 070V130 9999 NSC 04/M01 Q1004 NOSIG",
      "taf": "TAF EHBK 181720Z 1818/1924 09012KT CAVOK"
    },
    {
      "icao": "EHEH",
      "alert": "OK",
      "vis_m": 9999,
      "fzfg": false,
      "metar_trigger": false,
      "taf_trigger": false,
      "metar": "METAR EHEH 181825Z AUTO 08010KT 040V110 9999 OVC110 03/M01 Q1005 BLU NOSIG",
      "taf": ""
    },
    {
      "icao": "EKBI",
      "alert": "OK",
      "vis_m": 9999,
      "fzfg": false,
      "metar_trigger": false,
      "taf_trigger": false,
      "metar": "METAR EKBI 181820Z AUTO 20003KT 9999 NCD M05/M07 Q1014",
      "taf": "TAF EKBI 181727Z 1818/1918 23005KT 9999 SCT020"
    },
    {
      "icao": "EKCH",
      "alert": "OK",
      "vis_m": 9999,
      "fzfg": false,
      "metar_trigger": false,
      "taf_trigger": false,
      "metar": "METAR EKCH 181820Z AUTO 26005KT 9999 BKN023/// M03/M06 Q1013 NOSIG",
      "taf": "TAF EKCH 181727Z 1818/1918 26007KT 9999 BKN020"
    },
    {
      "icao": "ENAL",
      "alert": "OK",
      "vis_m": 9000,
      "fzfg": false,
      "metar_trigger": false,
      "taf_trigger": false,
      "metar": "METAR ENAL 181820Z 21013KT 9000 -SN FEW009 SCT030 BKN050 00/M01 Q1009",
      "taf": "TAF ENAL 181700Z 1818/1903 21012KT 9999 -SHSN FEW015CB BKN030"
    },
    {
      "icao": "ENBR",
      "alert": "OK",
      "vis_m": 9999,
      "fzfg": false,
      "metar_trigger": false,
      "taf_trigger": false,
      "metar": "METAR ENBR 181820Z 11003KT 9999 BKN038 00/M02 Q1011 NOSIG RMK WIND 1200FT 14011KT",
      "taf": "TAF ENBR 181700Z 1818/1918 11005KT 9999 FEW020 SCT040"
    },
    {
      "icao": "ENGM",
      "alert": "OK",
      "vis_m": 9999,
      "fzfg": false,
      "metar_trigger": false,
      "taf_trigger": false,
      "metar": "METAR ENGM 181820Z 36003KT CAVOK M13/M14 Q1010 NOSIG",
      "taf": "TAF ENGM 181700Z 1818/1918 VRB03KT 9999 FEW030"
    },
    {
      "icao": "ENHD",
      "alert": "OK",
      "vis_m": 9999,
      "fzfg": false,
      "metar_trigger": false,
      "taf_trigger": false,
      "metar": "METAR ENHD 181820Z 11008KT 9999 FEW025 M01/M01 Q1011",
      "taf": "TAF ENHD 181400Z 1815/1823 10005KT 9999 FEW012 SCT025"
    },
    {
      "icao": "ENTC",
      "alert": "OK",
      "vis_m": 9999,
      "fzfg": false,
      "metar_trigger": false,
      "taf_trigger": false,
      "metar": "METAR ENTC 181820Z 23007KT 9999 BKN014 M05/M07 Q1006 TEMPO BKN012 RMK WIND 2600FT 11010KT",
      "taf": "TAF ENTC 181700Z 1818/1918 25008KT 9999 SCT012 BKN018"
    },
    {
      "icao": "ENTO",
      "alert": "OK",
      "vis_m": 9999,
      "fzfg": false,
      "metar_trigger": false,
      "taf_trigger": false,
      "metar": "METAR ENTO 181820Z 36003KT CAVOK M09/M09 Q1011 NOSIG",
      "taf": "TAF ENTO 181700Z 1818/1918 VRB03KT CAVOK"
    },
    {
      "icao": "ENVA",
      "alert": "OK",
      "vis_m": 9999,
      "fzfg": false,
      "metar_trigger": false,
      "taf_trigger": false,
      "metar": "METAR ENVA 181820Z 07003KT 9999 VCSH BKN035 M02/M05 Q1009 TEMPO 22010KT 1400 SHSN VV009 RMK WIND 670FT 20015KT",
      "taf": ""
    },
    {
      "icao": "ENZV",
      "alert": "OK",
      "vis_m": 9999,
      "fzfg": false,
      "metar_trigger": false,
      "taf_trigger": false,
      "metar": "METAR ENZV 181820Z 13006KT CAVOK M00/M01 Q1011 NOSIG",
      "taf": ""
    },
    {
      "icao": "EPGD",
      "alert": "OK",
      "vis_m": 9999,
      "fzfg": false,
      "metar_trigger": false,
      "taf_trigger": false,
      "metar": "METAR EPGD 181800Z 27005KT 9999 -SN BKN025 M05/M07 Q1011",
      "taf": "TAF EPGD 181730Z 1818/1918 27010KT 9999 SCT037"
    },
    {
      "icao": "EPKK",
      "alert": "OK",
      "vis_m": 5000,
      "fzfg": false,
      "metar_trigger": false,
      "taf_trigger": false,
      "metar": "METAR EPKK 181800Z 23006KT 5000 BR SCT010 BKN017 01/M00 Q1011",
      "taf": "TAF EPKK 181730Z 1818/1918 29007KT 9999 BKN025"
    },
    {
      "icao": "EPKT",
      "alert": "OK",
      "vis_m": 8000,
      "fzfg": false,
      "metar_trigger": false,
      "taf_trigger": false,
      "metar": "METAR EPKT 181800Z 31006KT 280V350 8000 -SN BKN011 OVC015 M01/M03 Q1011",
      "taf": "TAF EPKT 181730Z 1818/1918 33007KT 9999 BKN035"
    },
    {
      "icao": "EPLB",
      "alert": "OK",
      "vis_m": 3000,
      "fzfg": false,
      "metar_trigger": false,
      "taf_trigger": false,
      "metar": "METAR EPLB 181800Z 09002KT 3000 BR OVC004 M02/M02 Q1010",
      "taf": ""
    },
    {
      "icao": "EPMO",
      "alert": "OK",
      "vis_m": 6000,
      "fzfg": false,
      "metar_trigger": false,
      "taf_trigger": false,
      "metar": "METAR EPMO 181800Z 26005KT 6000 NSC M06/M08 Q1012",
      "taf": "TAF EPMO 181730Z 1818/1918 27005KT 6000 BKN030"
    },
    {
      "icao": "EPPO",
      "alert": "OK",
      "vis_m": 9999,
      "fzfg": false,
      "metar_trigger": false,
      "taf_trigger": false,
      "metar": "METAR EPPO 181800Z 28007KT 9999 FEW024 BKN039 M02/M06 Q1013",
      "taf": "TAF EPPO 181730Z 1818/1918 30006KT 9999 BKN040"
    },
    {
      "icao": "EPRA",
      "alert": "OK",
      "vis_m": 8000,
      "fzfg": false,
      "metar_trigger": false,
      "taf_trigger": false,
      "metar": "METAR EPRA 181800Z 31007KT 8000 BKN012 M04/M06 Q1011",
      "taf": "TAF EPRA 181730Z 1818/1903 30006KT 8000 BKN014"
    },
    {
      "icao": "EPRZ",
      "alert": "OK",
      "vis_m": 8000,
      "fzfg": false,
      "metar_trigger": false,
      "taf_trigger": false,
      "metar": "METAR EPRZ 181800Z 27007KT 8000 BKN030 00/M01 Q1010",
      "taf": "TAF EPRZ 181730Z 1818/1918 29005KT 9999 BKN030"
    },
    {
      "icao": "EPSC",
      "alert": "OK",
      "vis_m": 9999,
      "fzfg": false,
      "metar_trigger": false,
      "taf_trigger": false,
      "metar": "METAR EPSC 181800Z 00000KT CAVOK M05/M10 Q1014",
      "taf": "TAF EPSC 181730Z 1818/1918 VRB04KT 7000 SCT017 BKN030"
    },
    {
      "icao": "EPSY",
      "alert": "OK",
      "vis_m": 7000,
      "fzfg": false,
      "metar_trigger": false,
      "taf_trigger": false,
      "metar": "METAR EPSY 181800Z 25005KT 7000 -SN FEW010 BKN022 M06/M09 Q1011",
      "taf": "TAF EPSY 181730Z 1818/1903 26006KT 8000 BKN026"
    },
    {
      "icao": "EPWA",
      "alert": "OK",
      "vis_m": 9999,
      "fzfg": false,
      "metar_trigger": false,
      "taf_trigger": false,
      "metar": "METAR EPWA 181800Z 31005KT CAVOK M05/M07 Q1012 NOSIG",
      "taf": "TAF EPWA 181730Z 1818/1918 30006KT 9999 BKN020"
    },
    {
      "icao": "EPWR",
      "alert": "OK",
      "vis_m": 6000,
      "fzfg": false,
      "metar_trigger": false,
      "taf_trigger": false,
      "metar": "METAR EPWR 181800Z 34002KT 6000 BKN040 M03/M04 Q1013",
      "taf": "TAF EPWR 181730Z 1818/1918 29005KT 5000 BR SCT030"
    },
    {
      "icao": "ESGG",
      "alert": "OK",
      "vis_m": 2200,
      "fzfg": false,
      "metar_trigger": false,
      "taf_trigger": false,
      "metar": "METAR ESGG 181820Z VRB02KT 2200 -SN VV019 M05/M07 Q1010",
      "taf": "TAF ESGG 181730Z 1818/1918 VRB03KT 9999 -SN BKN045"
    },
    {
      "icao": "ESKN",
      "alert": "OK",
      "vis_m": 9999,
      "fzfg": false,
      "metar_trigger": false,
      "taf_trigger": false,
      "metar": "METAR ESKN 181820Z 33005KT 9999 BKN033 M05/M10 Q1010",
      "taf": "TAF ESKN 181730Z 1818/1918 32006KT 9999 BKN030"
    },
    {
      "icao": "ESMS",
      "alert": "OK",
      "vis_m": 9999,
      "fzfg": false,
      "metar_trigger": false,
      "taf_trigger": false,
      "metar": "METAR ESMS 181820Z 26007KT 9999 BKN022 M02/M05 Q1012",
      "taf": "TAF ESMS 181727Z 1818/1918 26006KT 9999 BKN020"
    },
    {
      "icao": "ESSA",
      "alert": "OK",
      "vis_m": 9999,
      "fzfg": false,
      "metar_trigger": false,
      "taf_trigger": false,
      "metar": "METAR ESSA 181820Z 03004KT 9999 BKN038 M06/M11 Q1010 NOSIG",
      "taf": "TAF ESSA 181730Z 1818/1918 34006KT 9999 BKN035"
    },
    {
      "icao": "EYKA",
      "alert": "OK",
      "vis_m": 9999,
      "fzfg": false,
      "metar_trigger": false,
      "taf_trigger": false,
      "metar": "METAR EYKA 181820Z 16003KT 140V200 9999 -SN OVC014 M07/M10 Q1010",
      "taf": "TAF EYKA 181707Z 1818/1918 VRB04KT 8000 OVC015"
    },
    {
      "icao": "EYPA",
      "alert": "OK",
      "vis_m": 4200,
      "fzfg": false,
      "metar_trigger": false,
      "taf_trigger": false,
      "metar": "METAR EYPA 181820Z 16007KT 4200 -SN BKN015 OVC025 M06/M08 Q1008",
      "taf": "TAF EYPA 181707Z 1818/1918 VRB05KT 8000 SCT015 BKN025"
    },
    {
      "icao": "EYVI",
      "alert": "OK",
      "vis_m": 9999,
      "fzfg": false,
      "metar_trigger": false,
      "taf_trigger": false,
      "metar": "METAR EYVI 181820Z 18006KT 9999 OVC013 M08/M12 Q1010 NOSIG",
      "taf": "TAF EYVI 181707Z 1818/1918 17010KT 8000 OVC015"
    },
    {
      "icao": "GCFV",
      "alert": "OK",
      "vis_m": 9999,
      "fzfg": false,
      "metar_trigger": false,
      "taf_trigger": false,
      "metar": "METAR GCFV 181800Z 03012KT 9999 FEW017 18/14 Q1022",
      "taf": "TAF GCFV 181400Z 1815/1915 03015KT 9999 FEW020 TX19/1914Z TN16/1906Z"
    },
    {
      "icao": "GCLP",
      "alert": "OK",
      "vis_m": 9999,
      "fzfg": false,
      "metar_trigger": false,
      "taf_trigger": false,
      "metar": "METAR GCLP 181800Z 02020KT 9999 FEW025 18/13 Q1022 NOSIG",
      "taf": "TAF GCLP 181400Z 1815/1915 03020KT 9999 FEW020 TX20/1914Z TN14/1906Z"
    },
    {
      "icao": "GCTS",
      "alert": "OK",
      "vis_m": 9999,
      "fzfg": false,
      "metar_trigger": false,
      "taf_trigger": false,
      "metar": "METAR GCTS 181800Z 08020KT CAVOK 19/13 Q1021 WS R07 NOSIG",
      "taf": "TAF GCTS 181400Z 1815/1915 08020KT CAVOK TX24/1914Z TN16/1906Z"
    },
    {
      "icao": "GMAD",
      "alert": "OK",
      "vis_m": 9999,
      "fzfg": false,
      "metar_trigger": false,
      "taf_trigger": false,
      "metar": "METAR GMAD 181800Z 21009KT CAVOK 18/13 Q1020 NOSIG",
      "taf": "TAF GMAD 181700Z 1818/1924 21005KT CAVOK"
    },
    {
      "icao": "GMMN",
      "alert": "OK",
      "vis_m": 9999,
      "fzfg": false,
      "metar_trigger": false,
      "taf_trigger": false,
      "metar": "METAR GMMN 181800Z 01007KT 9999 FEW016 13/10 Q1023 NOSIG",
      "taf": "TAF GMMN 181700Z 1818/1924 02007KT 9999 FEW016"
    },
    {
      "icao": "GMMX",
      "alert": "OK",
      "vis_m": 9999,
      "fzfg": false,
      "metar_trigger": false,
      "taf_trigger": false,
      "metar": "METAR GMMX 181800Z 31007KT 280V360 CAVOK 20/13 Q1022 NOSIG",
      "taf": "TAF GMMX 181700Z 1818/1924 30006KT 8000 NSC"
    },
    {
      "icao": "HEGN",
      "alert": "OK",
      "vis_m": 9999,
      "fzfg": false,
      "metar_trigger": false,
      "taf_trigger": false,
      "metar": "METAR HEGN 181800Z 33012KT CAVOK 23/03 Q1015 NOSIG",
      "taf": "TAF HEGN 181700Z 1818/1924 30015KT CAVOK"
    },
    {
      "icao": "HEMA",
      "alert": "OK",
      "vis_m": 9999,
      "fzfg": false,
      "metar_trigger": false,
      "taf_trigger": false,
      "metar": "METAR HEMA 181800Z 31010KT CAVOK 21/08 Q1015 NOSIG",
      "taf": "TAF HEMA 181700Z 1818/1924 31014KT CAVOK"
    },
    {
      "icao": "HESH",
      "alert": "OK",
      "vis_m": 9999,
      "fzfg": false,
      "metar_trigger": false,
      "taf_trigger": false,
      "metar": "METAR HESH 181800Z 32003KT CAVOK 22/11 Q1014 NOSIG",
      "taf": "TAF HESH 181700Z 1818/1924 01012KT CAVOK"
    },
    {
      "icao": "HESX",
      "alert": "OK",
      "vis_m": 9999,
      "fzfg": false,
      "metar_trigger": false,
      "taf_trigger": false,
      "metar": "METAR HESX 181800Z 33009KT CAVOK 14/05 Q1018 NOSIG",
      "taf": "TAF HESX 181700Z 1818/1924 31010KT CAVOK"
    },
    {
      "icao": "LATI",
      "alert": "OK",
      "vis_m": 9999,
      "fzfg": false,
      "metar_trigger": false,
      "taf_trigger": false,
      "metar": "METAR LATI 181820Z 17006KT CAVOK 06/01 Q1017 NOSIG",
      "taf": "TAF LATI 181700Z 1818/1918 VRB04KT CAVOK TX16/1912Z TN03/1903Z"
    },
    {
      "icao": "LBPD",
      "alert": "OK",
      "vis_m": 9999,
      "fzfg": false,
      "metar_trigger": false,
      "taf_trigger": false,
      "metar": "METAR LBPD 181830Z AUTO 28014KT 9999 NCD 05/M03 Q1013 NOSIG",
      "taf": "TAF LBPD 181700Z 1818/1918 29016KT CAVOK"
    },
    {
      "icao": "LBSF",
      "alert": "OK",
      "vis_m": 9999,
      "fzfg": false,
      "metar_trigger": false,
      "taf_trigger": false,
      "metar": "METAR LBSF 181830Z AUTO 32006KT 290V350 9999 SCT034/// 02/M03 Q1014 NOSIG",
      "taf": "TAF LBSF 181700Z 1818/1918 28012KT 9999 SCT025 BKN040"
    },
    {
      "icao": "LBWN",
      "alert": "OK",
      "vis_m": 8000,
      "fzfg": false,
      "metar_trigger": false,
      "taf_trigger": false,
      "metar": "METAR LBWN 181830Z AUTO 00000KT 8000 OVC015/// 00/00 Q1010 TEMPO 3000 SN",
      "taf": "TAF LBWN 181700Z 1818/1918 VRB03KT 8000 SCT015 OVC030"
    },
    {
      "icao": "LCLK",
      "alert": "OK",
      "vis_m": 9999,
      "fzfg": false,
      "metar_trigger": false,
      "taf_trigger": false,
      "metar": "METAR LCLK 181800Z 23011KT CAVOK 13/09 Q1011 NOSIG",
      "taf": "TAF LCLK 181730Z 1818/1918 24014KT 9999 FEW025"
    },
    {
      "icao": "LCPH",
      "alert": "OK",
      "vis_m": 9999,
      "fzfg": false,
      "metar_trigger": false,
      "taf_trigger": false,
      "metar": "METAR LCPH 181800Z 30022KT 250V320 9999 SCT025 15/09 Q1012 NOSIG",
      "taf": "TAF LCPH 181730Z 1818/1918 26026KT 8000 SCT020 FEW025TCU BKN035"
    },
    {
      "icao": "LEAL",
      "alert": "OK",
      "vis_m": 9999,
      "fzfg": false,
      "metar_trigger": false,
      "taf_trigger": false,
      "metar": "METAR LEAL 181800Z 18003KT 140V260 CAVOK 15/13 Q1012 NOSIG",
      "taf": "TAF LEAL 181700Z 1818/1918 23007KT 9999 FEW030 TX19/1913Z TN12/1906Z"
    },
    {
      "icao": "LEBB",
      "alert": "OK",
      "vis_m": 8000,
      "fzfg": false,
      "metar_trigger": false,
      "taf_trigger": false,
      "metar": "METAR LEBB 181800Z 28015G30KT 250V310 8000 -RA FEW020 SCT042 BKN060 12/08 Q1007 TEMPO 3000 RA",
      "taf": "TAF LEBB 181700Z 1818/1918 28009KT 9999 FEW010 BKN045 TX12/1818Z TN06/1906Z"
    },
    {
      "icao": "LEBL",
      "alert": "OK",
      "vis_m": 9999,
      "fzfg": false,
      "metar_trigger": false,
      "taf_trigger": false,
      "metar": "METAR LEBL 181800Z 23012KT 9999 FEW015 SCT055 13/10 Q1008 NOSIG",
      "taf": "TAF LEBL 181700Z 1818/1918 23012KT 9999 FEW015 TX18/1913Z TN11/1906Z"
    },
    {
      "icao": "LECH",
      "alert": "OK",
      "vis_m": 9999,
      "fzfg": false,
      "metar_trigger": false,
      "taf_trigger": false,
      "metar": "METAR LECH 181800Z AUTO 06004KT CAVOK 12/09 Q1009",
      "taf": ""
    },
    {
      "icao": "LEMD",
      "alert": "OK",
      "vis_m": 9999,
      "fzfg": false,
      "metar_trigger": false,
      "taf_trigger": false,
      "metar": "METAR LEMD 181800Z 22022KT 9999 FEW025 SCT070 10/07 Q1013 NOSIG",
      "taf": "TAF LEMD 181700Z 1818/1924 22012KT 9999 FEW012 BKN025 TX13/1915Z TN03/1906Z"
    },
    {
      "icao": "LEMG",
      "alert": "OK",
      "vis_m": 9999,
      "fzfg": false,
      "metar_trigger": false,
      "taf_trigger": false,
      "metar": "METAR LEMG 181800Z 29014KT 260V320 CAVOK 14/07 Q1019 NOSIG",
      "taf": "TAF LEMG 181700Z 1818/1918 31015KT CAVOK TX18/1914Z TN11/1907Z"
    },
    {
      "icao": "LEVC",
      "alert": "OK",
      "vis_m": 9999,
      "fzfg": false,
      "metar_trigger": false,
      "taf_trigger": false,
      "metar": "METAR LEVC 181800Z 27015KT CAVOK 17/05 Q1012 NOSIG",
      "taf": "TAF LEVC 181700Z 1818/1918 27013KT 9999 FEW030 TX20/1914Z TN12/1906Z"
    },
    {
      "icao": "LEXJ",
      "alert": "OK",
      "vis_m": 9999,
      "fzfg": false,
      "metar_trigger": false,
      "taf_trigger": false,
      "metar": "METAR LEXJ 181800Z 30034G51KT 9999 FEW068 SCT085 12/06 Q1007",
      "taf": "TAF LEXJ 181400Z 1815/1915 28009KT 9999 FEW030 BKN060 TX17/1815Z TN08/1903Z"
    },
    {
      "icao": "LEZG",
      "alert": "OK",
      "vis_m": 9999,
      "fzfg": false,
      "metar_trigger": false,
      "taf_trigger": false,
      "metar": "METAR LEZG 181800Z 18005KT 9999 SCT070 15/06 Q1009 NOSIG",
      "taf": "TAF LEZG 181700Z 1818/1918 25009KT 9999 FEW040 TX14/1914Z TN07/1906Z"
    },
    {
      "icao": "LEZL",
      "alert": "OK",
      "vis_m": 9999,
      "fzfg": false,
      "metar_trigger": false,
      "taf_trigger": false,
      "metar": "METAR LEZL 181800Z 24014KT 9999 FEW026 BKN048 15/10 Q1021 NOSIG",
      "taf": "TAF LEZL 181400Z 1815/1915 25010KT 9999 SCT030 TX21/1815Z TN08/1907Z"
    },
    {
      "icao": "LFBD",
      "alert": "OK",
      "vis_m": 9999,
      "fzfg": false,
      "metar_trigger": false,
      "taf_trigger": false,
      "metar": "METAR LFBD 181800Z AUTO 23014KT 9999 -RADZ SCT033/// BKN040/// BKN050/// ///CB 11/08 Q1002 TEMPO 29020G45KT 1500 TSRA BKN014 BKN020CB",
      "taf": "TAF LFBD 181700Z 1818/1924 26015G30KT 9999 BKN030 TX12/1912Z TN08/1903Z"
    },
    {
      "icao": "LFLL",
      "alert": "OK",
      "vis_m": 9999,
      "fzfg": false,
      "metar_trigger": false,
      "taf_trigger": false,
      "metar": "METAR LFLL 181800Z 19015KT CAVOK 12/06 Q1003 NOSIG",
      "taf": "TAF LFLL 181700Z 1818/1924 19012KT CAVOK"
    },
    {
      "icao": "LFLS",
      "alert": "OK",
      "vis_m": 9999,
      "fzfg": false,
      "metar_trigger": false,
      "taf_trigger": false,
      "metar": "METAR LFLS 181800Z AUTO 22006KT CAVOK 10/05 Q1004 NOSIG",
      "taf": "TAF LFLS 181400Z 1815/1915 22008KT CAVOK"
    },
    {
      "icao": "LFMN",
      "alert": "OK",
      "vis_m": 9999,
      "fzfg": false,
      "metar_trigger": false,
      "taf_trigger": false,
      "metar": "METAR LFMN 181800Z 09009KT CAVOK 13/08 Q1010 NOSIG",
      "taf": "TAF LFMN 181400Z 1815/1921 11010KT CAVOK"
    },
    {
      "icao": "LFOB",
      "alert": "OK",
      "vis_m": 9999,
      "fzfg": false,
      "metar_trigger": false,
      "taf_trigger": false,
      "metar": "METAR LFOB 181800Z AUTO 10009KT 9999 OVC004/// ///TCU 05/05 Q0997 TEMPO 2000 RADZ OVC003",
      "taf": "TAF LFOB 181700Z 1818/1918 12012KT 9999 OVC007"
    },
    {
      "icao": "LFPO",
      "alert": "OK",
      "vis_m": 4000,
      "fzfg": false,
      "metar_trigger": false,
      "taf_trigger": false,
      "metar": "METAR LFPO 181800Z VRB03KT 4000 -RA BR SCT002 BKN015 08/08 Q0997 TEMPO BKN012",
      "taf": "TAF LFPO 181700Z 1818/1924 17010KT 9999 BKN020"
    },
    {
      "icao": "LFSB",
      "alert": "OK",
      "vis_m": 5000,
      "fzfg": false,
      "metar_trigger": false,
      "taf_trigger": false,
      "metar": "METAR LFSB 181800Z AUTO VRB03KT 5000 RA BR FEW002/// BKN013/// BKN026/// ///TCU 02/02 Q1005 TEMPO 2000 BR OVC005",
      "taf": "TAF LFSB 181700Z 1818/1918 13007KT 9999 SCT025 BKN050"
    },
    {
      "icao": "LGAV",
      "alert": "OK",
      "vis_m": 9999,
      "fzfg": false,
      "metar_trigger": false,
      "taf_trigger": false,
      "metar": "METAR LGAV 181820Z 25004KT 9999 FEW025 08/M01 Q1016 NOSIG",
      "taf": "TAF LGAV 181700Z 1818/1918 VRB05KT 9999 FEW025"
    },
    {
      "icao": "LGTS",
      "alert": "OK",
      "vis_m": 9999,
      "fzfg": false,
      "metar_trigger": false,
      "taf_trigger": false,
      "metar": "METAR LGTS 181820Z 33010KT 300V010 9999 FEW020 10/M03 Q1015 NOSIG",
      "taf": "TAF LGTS 181700Z 1818/1918 34015G25KT 9999 FEW030"
    },
    {
      "icao": "LHBP",
      "alert": "OK",
      "vis_m": 9999,
      "fzfg": false,
      "metar_trigger": false,
      "taf_trigger": false,
      "metar": "METAR LHBP 181800Z 32007KT CAVOK 01/M04 Q1012 NOSIG",
      "taf": "TAF LHBP 181715Z 1818/1918 28007KT CAVOK"
    },
    {
      "icao": "LHDC",
      "alert": "OK",
      "vis_m": 9999,
      "fzfg": false,
      "metar_trigger": false,
      "taf_trigger": false,
      "metar": "METAR LHDC 181715Z AUTO 26009KT CAVOK 04/M01 Q1011 NOSIG",
      "taf": "TAF LHDC 181415Z 1815/1824 24006KT CAVOK"
    },
    {
      "icao": "LIBD",
      "alert": "OK",
      "vis_m": 9999,
      "fzfg": false,
      "metar_trigger": false,
      "taf_trigger": false,
      "metar": "METAR LIBD 181820Z 20008KT CAVOK 08/04 Q1015",
      "taf": "TAF LIBD 181700Z 1818/1918 17008KT CAVOK"
    },
    {
      "icao": "LIBG",
      "alert": "OK",
      "vis_m": 9999,
      "fzfg": false,
      "metar_trigger": false,
      "taf_trigger": false,
      "metar": "METAR LIBG 181750Z 11005KT CAVOK 09/05 Q1016",
      "taf": "TAF LIBG 181700Z 1818/1903 VRB05KT CAVOK"
    },
    {
      "icao": "LIBP",
      "alert": "OK",
      "vis_m": 9999,
      "fzfg": false,
      "metar_trigger": false,
      "taf_trigger": false,
      "metar": "METAR LIBP 181820Z AUTO VRB02KT 9999 NCD 10/02 Q1013",
      "taf": "TAF LIBP 181700Z 1818/1918 21005KT CAVOK"
    },
    {
      "icao": "LIBR",
      "alert": "OK",
      "vis_m": 9999,
      "fzfg": false,
      "metar_trigger": false,
      "taf_trigger": false,
      "metar": "METAR LIBR 181820Z 17005KT CAVOK 10/04 Q1016",
      "taf": "TAF LIBR 181700Z 1818/1918 16008KT CAVOK"
    },
    {
      "icao": "LICA",
      "alert": "OK",
      "vis_m": 9999,
      "fzfg": false,
      "metar_trigger": false,
      "taf_trigger": false,
      "metar": "METAR LICA 181820Z AUTO 25005KT 9999 FEW032/// 12/08 Q1019",
      "taf": "TAF LICA 181700Z 1818/1918 VRB06KT 9999 FEW025"
    },
    {
      "icao": "LICC",
      "alert": "OK",
      "vis_m": 9999,
      "fzfg": false,
      "metar_trigger": false,
      "taf_trigger": false,
      "metar": "METAR LICC 181820Z 31006KT 9999 SCT060 14/09 Q1018",
      "taf": "TAF LICC 181700Z 1818/1918 26010KT CAVOK"
    },
    {
      "icao": "LICJ",
      "alert": "OK",
      "vis_m": 9999,
      "fzfg": false,
      "metar_trigger": false,
      "taf_trigger": false,
      "metar": "METAR LICJ 181820Z 20009KT 9999 FEW040 14/09 Q1018",
      "taf": "TAF LICJ 181700Z 1818/1918 26010KT 9999 SCT035"
    },
    {
      "icao": "LIMC",
      "alert": "OK",
      "vis_m": 9999,
      "fzfg": false,
      "metar_trigger": false,
      "taf_trigger": false,
      "metar": "METAR LIMC 181820Z VRB01KT CAVOK 07/M02 Q1010 NOSIG",
      "taf": "TAF LIMC 181700Z 1818/1924 VRB05KT CAVOK"
    },
    {
      "icao": "LIME",
      "alert": "OK",
      "vis_m": 9999,
      "fzfg": false,
      "metar_trigger": false,
      "taf_trigger": false,
      "metar": "METAR LIME 181820Z 03004KT CAVOK 08/M02 Q1010 NOSIG",
      "taf": "TAF LIME 181700Z 1818/1918 VRB05KT CAVOK"
    },
    {
      "icao": "LIMF",
      "alert": "OK",
      "vis_m": 9999,
      "fzfg": false,
      "metar_trigger": false,
      "taf_trigger": false,
      "metar": "METAR LIMF 181820Z 01004KT CAVOK 08/M01 Q1010",
      "taf": "TAF LIMF 181700Z 1818/1918 VRB05KT CAVOK"
    },
    {
      "icao": "LIMJ",
      "alert": "OK",
      "vis_m": 9999,
      "fzfg": false,
      "metar_trigger": false,
      "taf_trigger": false,
      "metar": "METAR LIMJ 181820Z 12015KT 9999 SCT030 13/08 Q1010",
      "taf": "TAF LIMJ 181700Z 1818/1918 12017KT 9999 FEW020"
    },
    {
      "icao": "LIPE",
      "alert": "OK",
      "vis_m": 9999,
      "fzfg": false,
      "metar_trigger": false,
      "taf_trigger": false,
      "metar": "METAR LIPE 181820Z VRB02KT CAVOK 10/04 Q1010",
      "taf": "TAF LIPE 181700Z 1818/1918 VRB05KT 9999 FEW060"
    },
    {
      "icao": "LIPH",
      "alert": "OK",
      "vis_m": 9999,
      "fzfg": false,
      "metar_trigger": false,
      "taf_trigger": false,
      "metar": "METAR LIPH 181820Z 12001KT CAVOK 08/04 Q1011",
      "taf": "TAF LIPH 181700Z 1818/1918 VRB05KT 9999 FEW050"
    },
    {
      "icao": "LIPQ",
      "alert": "OK",
      "vis_m": 9999,
      "fzfg": false,
      "metar_trigger": false,
      "taf_trigger": false,
      "metar": "METAR LIPQ 181820Z AUTO 09003KT 9999 NCD 08/04 Q1011",
      "taf": "TAF LIPQ 181700Z 1818/1918 VRB05KT CAVOK"
    },
    {
      "icao": "LIPR",
      "alert": "OK",
      "vis_m": 9999,
      "fzfg": false,
      "metar_trigger": false,
      "taf_trigger": false,
      "metar": "METAR LIPR 181820Z 17003KT CAVOK 09/04 Q1011",
      "taf": "TAF LIPR 181700Z 1818/1918 16005KT 9999 FEW050"
    },
    {
      "icao": "LIPX",
      "alert": "OK",
      "vis_m": 9999,
      "fzfg": false,
      "metar_trigger": false,
      "taf_trigger": false,
      "metar": "METAR LIPX 181820Z 07002KT 9999 SCT060 08/01 Q1011",
      "taf": "TAF LIPX 181700Z 1818/1918 07008KT CAVOK"
    },
    {
      "icao": "LIPY",
      "alert": "OK",
      "vis_m": 9999,
      "fzfg": false,
      "metar_trigger": false,
      "taf_trigger": false,
      "metar": "METAR LIPY 181820Z AUTO 16007KT 9999 NCD 12/05 Q1012",
      "taf": "TAF LIPY 181700Z 1818/1918 16006KT CAVOK"
    },
    {
      "icao": "LIPZ",
      "alert": "OK",
      "vis_m": 9999,
      "fzfg": false,
      "metar_trigger": false,
      "taf_trigger": false,
      "metar": "METAR LIPZ 181820Z 13003KT CAVOK 08/07 Q1011 NOSIG",
      "taf": "TAF LIPZ 181700Z 1818/1924 04005KT CAVOK"
    },
    {
      "icao": "LIRF",
      "alert": "OK",
      "vis_m": 9999,
      "fzfg": false,
      "metar_trigger": false,
      "taf_trigger": false,
      "metar": "METAR LIRF 181820Z 22010KT 9999 FEW020 SCT040 14/10 Q1014 NOSIG",
      "taf": "TAF LIRF 181700Z 1818/1924 VRB06KT 9999 FEW025"
    },
    {
      "icao": "LIRN",
      "alert": "OK",
      "vis_m": 9999,
      "fzfg": false,
      "metar_trigger": false,
      "taf_trigger": false,
      "metar": "METAR LIRN 181820Z 23004KT 9999 FEW040 12/07 Q1016 NOSIG",
      "taf": "TAF LIRN 181700Z 1818/1918 VRB05KT 9999 FEW030"
    },
    {
      "icao": "LIRP",
      "alert": "OK",
      "vis_m": 8000,
      "fzfg": false,
      "metar_trigger": false,
      "taf_trigger": false,
      "metar": "METAR LIRP 181815Z 24007KT 8000 RA FEW015 SCT030 BKN040 12/12 Q1012 NOSIG",
      "taf": "TAF LIRP 181700Z 1818/1918 22012KT 9999 SCT020 SCT060"
    },
    {
      "icao": "LIRZ",
      "alert": "OK",
      "vis_m": 9999,
      "fzfg": false,
      "metar_trigger": false,
      "taf_trigger": false,
      "metar": "METAR LIRZ 181820Z AUTO 20009KT 9999 NCD 11/06 Q1013",
      "taf": "TAF LIRZ 181700Z 1818/1918 VRB05KT 9999 SCT035"
    },
    {
      "icao": "LJLJ",
      "alert": "OK",
      "vis_m": 9999,
      "fzfg": false,
      "metar_trigger": false,
      "taf_trigger": false,
      "metar": "METAR LJLJ 181800Z 30003KT 9999 BKN053 02/M00 Q1010 NOSIG",
      "taf": "TAF LJLJ 181700Z 1818/1918 VRB02KT 9999 FEW060"
    },
    {
      "icao": "LKMT",
      "alert": "OK",
      "vis_m": 9999,
      "fzfg": false,
      "metar_trigger": false,
      "taf_trigger": false,
      "metar": "METAR LKMT 181800Z 27002KT 9999 SCT008 BKN028 M00/M01 Q1012 TEMPO 1200 SHSN",
      "taf": "TAF LKMT 181700Z 1818/1918 04005KT 9999 SCT030"
    },
    {
      "icao": "LKPR",
      "alert": "OK",
      "vis_m": 9999,
      "fzfg": false,
      "metar_trigger": false,
      "taf_trigger": false,
      "metar": "METAR LKPR 181800Z 05004KT 9999 -SN FEW005 SCT019 BKN038 M00/M01 Q1011 NOSIG",
      "taf": "TAF LKPR 181700Z 1818/1924 26010KT 9999 SCT020 BKN025"
    },
    {
      "icao": "LLBG",
      "alert": "OK",
      "vis_m": 9999,
      "fzfg": false,
      "metar_trigger": false,
      "taf_trigger": false,
      "metar": "METAR LLBG 181820Z 26013KT 9999 SCT040 17/09 Q1017 NOSIG",
      "taf": "TAF LLBG 181703Z 1818/1918 18005KT 9999 SCT030"
    },
    {
      "icao": "LMML",
      "alert": "OK",
      "vis_m": 9999,
      "fzfg": false,
      "metar_trigger": false,
      "taf_trigger": false,
      "metar": "METAR LMML 181815Z 25007KT 9999 FEW030 13/10 Q1020 NOSIG",
      "taf": "TAF LMML 181700Z 1818/1918 27009KT 9999 FEW025"
    },
    {
      "icao": "LOWW",
      "alert": "OK",
      "vis_m": 9999,
      "fzfg": false,
      "metar_trigger": false,
      "taf_trigger": false,
      "metar": "METAR LOWW 181820Z 36008KT CAVOK 02/M05 Q1012 NOSIG",
      "taf": "TAF LOWW 181715Z 1818/1924 32007KT 9999 FEW050 TX02/1818Z TNM03/1901Z"
    },
    {
      "icao": "LPFR",
      "alert": "OK",
      "vis_m": 9999,
      "fzfg": false,
      "metar_trigger": false,
      "taf_trigger": false,
      "metar": "METAR LPFR 181800Z 25012KT 9999 -RA BKN014 15/13 Q1022",
      "taf": "TAF LPFR 181700Z 1818/1918 26012KT 9999 SCT020 BKN035"
    },
    {
      "icao": "LPMA",
      "alert": "OK",
      "vis_m": 9999,
      "fzfg": false,
      "metar_trigger": false,
      "taf_trigger": false,
      "metar": "METAR LPMA 181800Z 21004KT 110V250 9999 FEW014 18/12 Q1025",
      "taf": "TAF LPMA 181700Z 1818/1918 VRB05KT 9999 SCT014"
    },
    {
      "icao": "LPPR",
      "alert": "OK",
      "vis_m": 9999,
      "fzfg": false,
      "metar_trigger": false,
      "taf_trigger": false,
      "metar": "METAR LPPR 181800Z 29007KT 250V320 9999 VCSH FEW018CB BKN027 13/09 Q1017",
      "taf": "TAF LPPR 181700Z 1818/1918 30010KT 9999 SCT025"
    },
    {
      "icao": "LPPS",
      "alert": "OK",
      "vis_m": 9999,
      "fzfg": false,
      "metar_trigger": false,
      "taf_trigger": false,
      "metar": "METAR LPPS 181800Z 33006KT 300V360 9999 FEW014 17/14 Q1025",
      "taf": "TAF LPPS 181700Z 1818/1924 33005KT 9999 SCT015"
    },
    {
      "icao": "LPPT",
      "alert": "OK",
      "vis_m": 9999,
      "fzfg": false,
      "metar_trigger": false,
      "taf_trigger": false,
      "metar": "METAR LPPT 181800Z 29009KT 260V320 9999 SCT020 14/11 Q1020",
      "taf": "TAF LPPT 181700Z 1818/1924 30010KT 9999 SCT020"
    },
    {
      "icao": "LQBK",
      "alert": "OK",
      "vis_m": 9999,
      "fzfg": false,
      "metar_trigger": false,
      "taf_trigger": false,
      "metar": "METAR LQBK 181800Z 00000KT CAVOK 02/00 Q1013 NOSIG",
      "taf": "TAF LQBK 181700Z 1818/1918 VRB03KT CAVOK TX15/1913Z TN01/1824Z"
    },
    {
      "icao": "LQSA",
      "alert": "OK",
      "vis_m": 9999,
      "fzfg": false,
      "metar_trigger": false,
      "taf_trigger": false,
      "metar": "METAR LQSA 181800Z VRB02KT CAVOK 02/M01 Q1014 NOSIG",
      "taf": "TAF LQSA 181700Z 1818/1918 VRB02KT 9999 FEW045 TX10/1913Z TNM02/1902Z"
    },
    {
      "icao": "LQTZ",
      "alert": "OK",
      "vis_m": 9999,
      "fzfg": false,
      "metar_trigger": false,
      "taf_trigger": false,
      "metar": "METAR LQTZ 181800Z 12004KT CAVOK 03/M01 Q1014",
      "taf": "TAF LQTZ 181700Z 1818/1918 10005KT CAVOK TX14/1914Z TNM03/1902Z"
    },
    {
      "icao": "LRBC",
      "alert": "OK",
      "vis_m": 9999,
      "fzfg": false,
      "metar_trigger": false,
      "taf_trigger": false,
      "metar": "METAR LRBC 181800Z 33010KT 9999 FEW040 M01/M05 Q1008",
      "taf": "TAF LRBC 181700Z 1818/1903 34012KT 9999 SCT045"
    },
    {
      "icao": "LRBS",
      "alert": "OK",
      "vis_m": 150,
      "fzfg": true,
      "metar_trigger": false,
      "taf_trigger": false,
      "metar": "METAR LRBS 181800Z 07004KT 0150 R07/0300N FZFG VV001 M02/M02 Q1009 NOSIG",
      "taf": ""
    },
    {
      "icao": "LRBV",
      "alert": "OK",
      "vis_m": 9999,
      "fzfg": false,
      "metar_trigger": false,
      "taf_trigger": false,
      "metar": "METAR LRBV 181800Z 32010KT 290V350 9999 -SG BKN014 BKN020 00/M02 Q1009",
      "taf": "TAF LRBV 181700Z 1818/1903 31010KT 9999 BKN020"
    },
    {
      "icao": "LRCL",
      "alert": "OK",
      "vis_m": 9999,
      "fzfg": false,
      "metar_trigger": false,
      "taf_trigger": false,
      "metar": "METAR LRCL 181800Z 28006KT CAVOK 02/M04 Q1010",
      "taf": "TAF LRCL 181700Z 1818/1903 28006KT CAVOK"
    },
    {
      "icao": "LRCV",
      "alert": "OK",
      "vis_m": 9999,
      "fzfg": false,
      "metar_trigger": false,
      "taf_trigger": false,
      "metar": "METAR LRCV 181800Z 30015KT CAVOK 04/M01 Q1011",
      "taf": "TAF LRCV 181700Z 1818/1903 30012KT CAVOK"
    },
    {
      "icao": "LRIA",
      "alert": "OK",
      "vis_m": 9999,
      "fzfg": false,
      "metar_trigger": false,
      "taf_trigger": false,
      "metar": "METAR LRIA 181800Z 30012KT 9999 FEW048 M03/M05 Q1008",
      "taf": "TAF LRIA 181700Z 1818/1903 31014KT 5000 -SN DRSN BKN045"
    },
    {
      "icao": "LROP",
      "alert": "CRITICAL",
      "vis_m": 100,
      "fzfg": true,
      "metar_trigger": true,
      "taf_trigger": false,
      "metar": "METAR LROP 181800Z 08005KT 0100 R08R/0275N FZFG VV001 M01/M01 Q1009 NOSIG",
      "taf": ""
    },
    {
      "icao": "LRSB",
      "alert": "OK",
      "vis_m": 9999,
      "fzfg": false,
      "metar_trigger": false,
      "taf_trigger": false,
      "metar": "METAR LRSB 181800Z 30012KT 9999 FEW044 SCT050 BKN065 02/M03 Q1010",
      "taf": "TAF LRSB 181700Z 1818/1918 29015KT 9999 BKN050"
    },
    {
      "icao": "LRSM",
      "alert": "OK",
      "vis_m": 9999,
      "fzfg": false,
      "metar_trigger": false,
      "taf_trigger": false,
      "metar": "METAR LRSM 181800Z AUTO 24007KT 9999 BKN085/// 03/00 Q1011",
      "taf": "TAF LRSM 181400Z 1815/1824 25010KT 9999 SCT030"
    },
    {
      "icao": "LRSV",
      "alert": "OK",
      "vis_m": 9999,
      "fzfg": false,
      "metar_trigger": false,
      "taf_trigger": false,
      "metar": "METAR LRSV 181800Z 31011KT CAVOK M03/M06 Q1007",
      "taf": "TAF LRSV 181700Z 1818/1903 32010KT CAVOK"
    },
    {
      "icao": "LRTM",
      "alert": "OK",
      "vis_m": 9999,
      "fzfg": false,
      "metar_trigger": false,
      "taf_trigger": false,
      "metar": "METAR LRTM 181800Z AUTO 26006KT 9999 NCD 02/M02 Q1010",
      "taf": "TAF LRTM 181400Z 1815/1824 32010KT 9999 SCT025"
    },
    {
      "icao": "LRTR",
      "alert": "OK",
      "vis_m": 9999,
      "fzfg": false,
      "metar_trigger": false,
      "taf_trigger": false,
      "metar": "METAR LRTR 181800Z 27004KT CAVOK 01/M00 Q1014",
      "taf": "TAF LRTR 181700Z 1818/1918 VRB04KT CAVOK"
    },
    {
      "icao": "LTAC",
      "alert": "OK",
      "vis_m": 9999,
      "fzfg": false,
      "metar_trigger": false,
      "taf_trigger": false,
      "metar": "METAR LTAC 181820Z 26015KT 9999 SCT040 BKN080 02/M02 Q1005 NOSIG RMK RWY21C 25018KT RWY03L 26013KT RWY21R 24014KT RWY03R 24014KT RWY21L 25016KT",
      "taf": "TAF LTAC 181640Z 1818/1918 24012KT 9999 SCT040 BKN100"
    },
    {
      "icao": "LTFM",
      "alert": "OK",
      "vis_m": 9999,
      "fzfg": false,
      "metar_trigger": false,
      "taf_trigger": false,
      "metar": "METAR LTFM 181820Z 22011KT 9999 -SHRASN SCT012 BKN028 02/01 Q1012 NOSIG RMK RWY17L 22013KT RWY34L 22008KT RWY16R 21010KT RWY36 22010KT RWY18 23014KT",
      "taf": "TAF LTFM 181640Z 1818/1924 24012KT 9999 SCT009 BKN028"
    },
    {
      "icao": "LUKK",
      "alert": "OK",
      "vis_m": 3800,
      "fzfg": false,
      "metar_trigger": false,
      "taf_trigger": false,
      "metar": "METAR LUKK 181800Z 34016KT 310V010 3800 SN BLSN BKN012 OVC020 M04/M06 Q1005 NOSIG",
      "taf": "TAF LUKK 181711Z 1818/1918 34014KT 5000 -SN BKN020"
    },
    {
      "icao": "LWOH",
      "alert": "OK",
      "vis_m": 9999,
      "fzfg": false,
      "metar_trigger": false,
      "taf_trigger": false,
      "metar": "METAR LWOH 181820Z VRB01KT CAVOK 02/M03 Q1015",
      "taf": "TAF LWOH 181730Z 1818/1918 23008KT 9999 FEW050"
    },
    {
      "icao": "LWSK",
      "alert": "OK",
      "vis_m": 9999,
      "fzfg": false,
      "metar_trigger": false,
      "taf_trigger": false,
      "metar": "METAR LWSK 181820Z 10005KT 030V200 CAVOK 04/M02 Q1016 NOSIG",
      "taf": "TAF LWSK 181730Z 1818/1918 VRB02KT CAVOK"
    },
    {
      "icao": "LYBE",
      "alert": "OK",
      "vis_m": 9999,
      "fzfg": false,
      "metar_trigger": false,
      "taf_trigger": false,
      "metar": "METAR LYBE 181800Z 24002KT CAVOK 06/M02 Q1015 NOSIG",
      "taf": "TAF LYBE 181700Z 1818/1918 15004KT CAVOK TX13/1913Z TN01/1906Z"
    },
    {
      "icao": "LYNI",
      "alert": "OK",
      "vis_m": 9999,
      "fzfg": false,
      "metar_trigger": false,
      "taf_trigger": false,
      "metar": "METAR LYNI 181800Z VRB02KT 9999 BKN068 03/02 Q1016 NOSIG",
      "taf": "TAF LYNI 181700Z 1818/1918 09004KT 9999 SCT040 TX12/1912Z TNM03/1906Z"
    },
    {
      "icao": "LYPG",
      "alert": "OK",
      "vis_m": 9999,
      "fzfg": false,
      "metar_trigger": false,
      "taf_trigger": false,
      "metar": "METAR LYPG 181800Z 18005KT 100V210 CAVOK 09/M01 Q1016 NOSIG",
      "taf": "TAF LYPG 181700Z 1818/1918 36005KT 9999 FEW040 TX13/1918Z TN02/1902Z"
    },
    {
      "icao": "LZIB",
      "alert": "OK",
      "vis_m": 9999,
      "fzfg": false,
      "metar_trigger": false,
      "taf_trigger": false,
      "metar": "METAR LZIB 181800Z 34007KT CAVOK 02/M04 Q1012 NOSIG",
      "taf": ""
    },
    {
      "icao": "LZKZ",
      "alert": "OK",
      "vis_m": 9999,
      "fzfg": false,
      "metar_trigger": false,
      "taf_trigger": false,
      "metar": "METAR LZKZ 181800Z 00000KT 9999 FEW015 01/M00 Q1010 NOSIG",
      "taf": ""
    },
    {
      "icao": "LZTT",
      "alert": "OK",
      "vis_m": 9999,
      "fzfg": false,
      "metar_trigger": false,
      "taf_trigger": false,
      "metar": "METAR LZTT 181800Z 28009KT 9999 FEW016 SCT053 M02/M05 Q1008 NOSIG",
      "taf": "TAF LZTT 181715Z 1818/1918 27013KT 9999 FEW020"
    },
    {
      "icao": "OEJN",
      "alert": "OK",
      "vis_m": 9999,
      "fzfg": false,
      "metar_trigger": false,
      "taf_trigger": false,
      "metar": "METAR OEJN 181800Z 34009KT CAVOK 26/20 Q1012 NOSIG",
      "taf": "TAF OEJN 181700Z 1818/1924 36006KT CAVOK"
    },
    {
      "icao": "OEMA",
      "alert": "OK",
      "vis_m": 9999,
      "fzfg": false,
      "metar_trigger": false,
      "taf_trigger": false,
      "metar": "METAR OEMA 181800Z 27011KT CAVOK 30/06 Q1015 NOSIG",
      "taf": "TAF OEMA 181700Z 1818/1924 27006KT CAVOK"
    },
    {
      "icao": "OJAI",
      "alert": "OK",
      "vis_m": 4000,
      "fzfg": false,
      "metar_trigger": false,
      "taf_trigger": false,
      "metar": "METAR OJAI 181800Z 28017KT 4000 BLDU NSC 11/06 Q1016 NOSIG",
      "taf": "TAF OJAI 181700Z 1818/1924 27010KT 4000 HZ FEW030"
    },
    {
      "icao": "OMAA",
      "alert": "OK",
      "vis_m": 9999,
      "fzfg": false,
      "metar_trigger": false,
      "taf_trigger": false,
      "metar": "METAR OMAA 181830Z 35006KT CAVOK 23/18 Q1016 NOSIG",
      "taf": "TAF OMAA 181700Z 1818/2000 04007KT 8000 NSC"
    },
    {
      "icao": "OMDB",
      "alert": "OK",
      "vis_m": 9999,
      "fzfg": false,
      "metar_trigger": false,
      "taf_trigger": false,
      "metar": "METAR OMDB 181830Z 05006KT 330V100 CAVOK 24/13 Q1016 NOSIG",
      "taf": "TAF OMDB 181700Z 1818/2000 08005KT 8000 NSC"
    },
    {
      "icao": "UAAA",
      "alert": "OK",
      "vis_m": 1400,
      "fzfg": false,
      "metar_trigger": false,
      "taf_trigger": false,
      "metar": "METAR UAAA 181800Z 14002MPS 1400 R05R/P2000U BR FU SCT200 03/01 Q1015 NOSIG",
      "taf": "TAF UAAA 181700Z 1818/1918 22002MPS 1200 BR FU SCT030 BKN100 TX20/1909Z TN02/1903Z"
    },
    {
      "icao": "UBBB",
      "alert": "OK",
      "vis_m": 8000,
      "fzfg": false,
      "metar_trigger": false,
      "taf_trigger": false,
      "metar": "METAR UBBB 181800Z 14008KT 8000 BKN004 07/06 Q1010 NOSIG",
      "taf": "TAF UBBB 181713Z 1818/1918 08005KT 3000 BR BKN005 TX20/1910Z TN05/1900Z"
    },
    {
      "icao": "UDSG",
      "alert": "OK",
      "vis_m": 9999,
      "fzfg": false,
      "metar_trigger": false,
      "taf_trigger": false,
      "metar": "METAR UDSG 181800Z 05003KT 9999 OVC040 02/02 Q1010 NOSIG",
      "taf": "TAF UDSG 181700Z 1818/1918 VRB06KT 9999 BKN040"
    },
    {
      "icao": "UDYZ",
      "alert": "OK",
      "vis_m": 9999,
      "fzfg": false,
      "metar_trigger": false,
      "taf_trigger": false,
      "metar": "METAR UDYZ 181800Z COR 14003KT 9999 FEW043CB 15/03 Q1007 NOSIG",
      "taf": "TAF UDYZ 181700Z 1818/1918 06006KT 9999 SCT040"
    },
    {
      "icao": "UGKO",
      "alert": "OK",
      "vis_m": 9999,
      "fzfg": false,
      "metar_trigger": false,
      "taf_trigger": false,
      "metar": "METAR UGKO 181800Z 01009KT CAVOK 18/03 Q0998 NOSIG",
      "taf": "TAF UGKO 181700Z 1818/1918 07010KT 9999 BKN050 TX19/1818Z TN05/1916Z"
    }
  ]
}