{
  "ts_utc": "2026-01-09T19:00:00Z",
  "threshold_m": 150,
  "source": "stations_override.txt (ICAO list) + aviationweather.gov (METAR/TAF raw)",
  "station_count": 159,
  "stations": [
    {
      "icao": "BIKF",
      "alert": "OK",
      "vis_m": 9999,
      "fzfg": false,
      "metar_trigger": false,
      "taf_trigger": false,
      "metar": "METAR BIKF 091830Z 03012KT CAVOK M01/M06 Q1011",
      "taf": "TAF BIKF 091616Z 0918/1018 03015KT 9999 FEW040 TXM01/0921Z TNM07/1010Z"
    },
    {
      "icao": "BKPR",
      "alert": "OK",
      "vis_m": null,
      "fzfg": false,
      "metar_trigger": false,
      "taf_trigger": false,
      "metar": "",
      "taf": "TAF BKPR 091730Z 0918/1018 18008KT 9999 FEW012 SCT030 BKN080"
    },
    {
      "icao": "EBCI",
      "alert": "OK",
      "vis_m": 7000,
      "fzfg": false,
      "metar_trigger": false,
      "taf_trigger": false,
      "metar": "METAR EBCI 091850Z 25015KT 7000 -SNRA SCT004 OVC005 01/01 Q0991 TEMPO 2500 -SN BKN004",
      "taf": "TAF EBCI 091700Z 0918/1024 30010KT 6000 -RASN SCT006 BKN010"
    },
    {
      "icao": "EDDB",
      "alert": "OK",
      "vis_m": 6000,
      "fzfg": false,
      "metar_trigger": false,
      "taf_trigger": false,
      "metar": "METAR EDDB 091850Z AUTO 08013KT 6000 -SN FEW021 SCT035 BKN045 M06/M10 Q1000 TEMPO 4000 -SN",
      "taf": "TAF EDDB 091700Z 0918/1018 08015KT 9999 SCT020"
    },
    {
      "icao": "EDDH",
      "alert": "OK",
      "vis_m": 9999,
      "fzfg": false,
      "metar_trigger": false,
      "taf_trigger": false,
      "metar": "METAR EDDH 091850Z AUTO 08018KT 9999 OVC049 M03/M10 Q0999 TEMPO 09020G30KT",
      "taf": "TAF EDDH 091700Z 0918/1024 08020G30KT 9999 SCT030"
    },
    {
      "icao": "EDDK",
      "alert": "OK",
      "vis_m": 9999,
      "fzfg": false,
      "metar_trigger": false,
      "taf_trigger": false,
      "metar": "METAR EDDK 091850Z AUTO 21010KT 9999 -RA FEW010 OVC018 03/00 Q0989 TEMPO RA BKN009",
      "taf": "TAF EDDK 091700Z 0918/1024 23008KT 9999 FEW014 OVC025"
    },
    {
      "icao": "EDDN",
      "alert": "OK",
      "vis_m": 9999,
      "fzfg": false,
      "metar_trigger": false,
      "taf_trigger": false,
      "metar": "METAR EDDN 091850Z AUTO 21010KT 170V230 9999 -RA FEW034 05/00 Q0994 NOSIG",
      "taf": "TAF EDDN 091700Z 0918/1018 20008KT 9999 BKN035"
    },
    {
      "icao": "EDDS",
      "alert": "OK",
      "vis_m": 9999,
      "fzfg": false,
      "metar_trigger": false,
      "taf_trigger": false,
      "metar": "METAR EDDS 091850Z AUTO 20010G20KT 160V260 9999 -RA BKN023 BKN044 04/00 Q0994",
      "taf": "TAF EDDS 091700Z 0918/1018 20013KT 9999 BKN025"
    },
    {
      "icao": "EDFH",
      "alert": "OK",
      "vis_m": 6000,
      "fzfg": false,
      "metar_trigger": false,
      "taf_trigger": false,
      "metar": "METAR EDFH 091850Z 25019KT 210V270 6000 -SN FEW003 OVC008 01/M00 Q0989",
      "taf": "TAF EDFH 091700Z 0918/1018 24015G25KT 6000 SCT002 BKN008"
    },
    {
      "icao": "EDJA",
      "alert": "OK",
      "vis_m": 9999,
      "fzfg": false,
      "metar_trigger": false,
      "taf_trigger": false,
      "metar": "METAR EDJA 091850Z 24021G33KT CAVOK 03/M02 Q0996",
      "taf": "TAF EDJA 091700Z 0918/1003 24015G25KT 9999 SCT035"
    },
    {
      "icao": "EDLW",
      "alert": "OK",
      "vis_m": 9999,
      "fzfg": false,
      "metar_trigger": false,
      "taf_trigger": false,
      "metar": "METAR EDLW 091850Z 14004KT 110V170 9999 -RA FEW016 BKN034 OVC043 03/01 Q0988",
      "taf": "TAF EDLW 091700Z 0918/1018 17007KT 9999 BKN015"
    },
    {
      "icao": "EDNY",
      "alert": "OK",
      "vis_m": 9999,
      "fzfg": false,
      "metar_trigger": false,
      "taf_trigger": false,
      "metar": "METAR EDNY 091850Z 24015KT 9999 FEW049 SCT059 05/M01 Q0999",
      "taf": "TAF EDNY 091700Z 0918/1003 23015G25KT 9999 SCT025 BKN040"
    },
    {
      "icao": "EDSB",
      "alert": "OK",
      "vis_m": 9999,
      "fzfg": false,
      "metar_trigger": false,
      "taf_trigger": false,
      "metar": "METAR EDSB 091850Z 21015KT 9999 -RA FEW020 SCT024 OVC037 05/03 Q0996",
      "taf": "TAF EDSB 091700Z 0918/1018 20015G25KT 9999 BKN030"
    },
    {
      "icao": "EETN",
      "alert": "OK",
      "vis_m": 9999,
      "fzfg": false,
      "metar_trigger": false,
      "taf_trigger": false,
      "metar": "METAR EETN 091850Z 04012KT 9999 FEW023 M05/M09 Q1015 NOSIG",
      "taf": "TAF EETN 091730Z 0918/1018 05018G30KT 9999 DRSN SCT020"
    },
    {
      "icao": "EFTU",
      "alert": "OK",
      "vis_m": 9999,
      "fzfg": false,
      "metar_trigger": false,
      "taf_trigger": false,
      "metar": "METAR EFTU 091850Z AUTO 04009KT 9999 NCD M15/M20 Q1021",
      "taf": "TAF EFTU 091730Z 0918/1018 04006KT CAVOK"
    },
    {
      "icao": "EGBB",
      "alert": "OK",
      "vis_m": 9999,
      "fzfg": false,
      "metar_trigger": false,
      "taf_trigger": false,
      "metar": "METAR EGBB 091850Z 31010KT 9999 BKN028 03/01 Q1003",
      "taf": "TAF EGBB 091701Z 0918/1018 32008KT 9999 FEW010"
    },
    {
      "icao": "EGGP",
      "alert": "OK",
      "vis_m": 9999,
      "fzfg": false,
      "metar_trigger": false,
      "taf_trigger": false,
      "metar": "METAR EGGP 091850Z 35008KT CAVOK 04/01 Q1005",
      "taf": "TAF EGGP 091658Z 0918/1018 34010KT 9999 SCT020"
    },
    {
      "icao": "EGGW",
      "alert": "OK",
      "vis_m": 9999,
      "fzfg": false,
      "metar_trigger": false,
      "taf_trigger": false,
      "metar": "METAR EGGW 091850Z AUTO 32017KT 9999 -RA BKN011 BKN016 OVC021 03/01 Q1000",
      "taf": "TAF EGGW 091704Z 0918/1018 32013KT 9999 SCT010 BKN016"
    },
    {
      "icao": "EGKK",
      "alert": "OK",
      "vis_m": 9999,
      "fzfg": false,
      "metar_trigger": false,
      "taf_trigger": false,
      "metar": "METAR EGKK 091850Z 31017KT 9999 BKN018 04/01 Q1000",
      "taf": "TAF EGKK 091657Z 0918/1024 31012KT 9999 SCT020"
    },
    {
      "icao": "EGNM",
      "alert": "OK",
      "vis_m": 9999,
      "fzfg": false,
      "metar_trigger": false,
      "taf_trigger": false,
      "metar": "METAR EGNM 091850Z 35008KT 9999 SCT008 SCT014 01/00 Q1003",
      "taf": "TAF EGNM 091827Z 0918/1018 01010KT 9999 SCT025"
    },
    {
      "icao": "EGPD",
      "alert": "OK",
      "vis_m": 9999,
      "fzfg": false,
      "metar_trigger": false,
      "taf_trigger": false,
      "metar": "METAR EGPD 091850Z AUTO 21004KT 160V270 9999 -RA BKN011/// OVC017/// //////CB 02/01 Q1007 TEMPO 4000 SHRASN BKN008",
      "taf": "TAF EGPD 091659Z 0918/1018 12007KT 9999 FEW015 SCT040"
    },
    {
      "icao": "EGPF",
      "alert": "OK",
      "vis_m": 8000,
      "fzfg": false,
      "metar_trigger": false,
      "taf_trigger": false,
      "metar": "METAR EGPF 091850Z AUTO VRB02KT 8000 BKN015 01/00 Q1007",
      "taf": "TAF EGPF 091659Z 0918/1018 VRB03KT 9999 SCT020"
    },
    {
      "icao": "EHBK",
      "alert": "OK",
      "vis_m": 5000,
      "fzfg": false,
      "metar_trigger": false,
      "taf_trigger": false,
      "metar": "METAR EHBK 091855Z AUTO 23014KT 5000 -RA SCT004 OVC005 02/01 Q0988 BECMG 6000 RASN",
      "taf": "TAF EHBK 091712Z 0918/1024 24013KT 9999 -RADZ BKN008"
    },
    {
      "icao": "EHEH",
      "alert": "OK",
      "vis_m": 2500,
      "fzfg": false,
      "metar_trigger": false,
      "taf_trigger": false,
      "metar": "METAR EHEH 091825Z AUTO 28008KT 240V330 2500 R21/P3000N -SN FEW003 BKN004 OVC005 01/M00 Q0987 YLO TEMPO 1500 SN BKN003 OVC004 RMK TREND REMOTE BY EHWX",
      "taf": ""
    },
    {
      "icao": "EKBI",
      "alert": "OK",
      "vis_m": 9999,
      "fzfg": false,
      "metar_trigger": false,
      "taf_trigger": false,
      "metar": "METAR EKBI 091850Z AUTO 06022G32KT 9999 -SN SCT200/// M02/M06 Q1006",
      "taf": "TAF EKBI 091727Z 0918/1018 07020KT 9000 BKN025"
    },
    {
      "icao": "EKCH",
      "alert": "OK",
      "vis_m": 9999,
      "fzfg": false,
      "metar_trigger": false,
      "taf_trigger": false,
      "metar": "METAR EKCH 091850Z AUTO 05016KT 9999 OVC032/// M01/M05 Q1009 TEMPO 06015G25KT",
      "taf": "TAF EKCH 091727Z 0918/1018 05018KT 9999 BKN018"
    },
    {
      "icao": "ENAL",
      "alert": "OK",
      "vis_m": 9999,
      "fzfg": false,
      "metar_trigger": false,
      "taf_trigger": false,
      "metar": "METAR ENAL 091850Z 15007KT 120V190 CAVOK 01/M07 Q1014",
      "taf": "TAF ENAL 091700Z 0918/1003 14008KT 9999 SCT060"
    },
    {
      "icao": "ENBR",
      "alert": "OK",
      "vis_m": 9999,
      "fzfg": false,
      "metar_trigger": false,
      "taf_trigger": false,
      "metar": "METAR ENBR 091850Z VRB02KT CAVOK M04/M11 Q1015 NOSIG RMK WIND 1200FT 11006KT",
      "taf": "TAF ENBR 091700Z 0918/1018 08005KT CAVOK"
    },
    {
      "icao": "ENGM",
      "alert": "OK",
      "vis_m": 9999,
      "fzfg": false,
      "metar_trigger": false,
      "taf_trigger": false,
      "metar": "METAR ENGM 091850Z 02005KT 9999 -SN SCT025 BKN030 M06/M07 Q1020 NOSIG",
      "taf": "TAF ENGM 091700Z 0918/1018 02005KT 9999 -SN FEW010 BKN030"
    },
    {
      "icao": "ENHD",
      "alert": "OK",
      "vis_m": 9999,
      "fzfg": false,
      "metar_trigger": false,
      "taf_trigger": false,
      "metar": "METAR ENHD 091850Z 09011KT CAVOK M01/M10 Q1015",
      "taf": "TAF ENHD 091400Z 0915/0923 10008KT CAVOK"
    },
    {
      "icao": "ENTC",
      "alert": "OK",
      "vis_m": 9999,
      "fzfg": false,
      "metar_trigger": false,
      "taf_trigger": false,
      "metar": "METAR ENTC 091850Z VRB02KT CAVOK M11/M16 Q1023 NOSIG RMK WIND 2600FT 15015KT",
      "taf": "TAF ENTC 091700Z 0918/1018 20005KT CAVOK"
    },
    {
      "icao": "ENTO",
      "alert": "OK",
      "vis_m": 9999,
      "fzfg": false,
      "metar_trigger": false,
      "taf_trigger": false,
      "metar": "METAR ENTO 091850Z 05010KT 9999 -SN OVC032 M03/M06 Q1019 NOSIG",
      "taf": "TAF ENTO 091700Z 0918/1018 03010KT 9999 -SN BKN030"
    },
    {
      "icao": "ENVA",
      "alert": "OK",
      "vis_m": 9999,
      "fzfg": false,
      "metar_trigger": false,
      "taf_trigger": false,
      "metar": "METAR ENVA 091850Z VRB02KT CAVOK M02/M10 Q1017 TEMPO 16015KT RMK WIND 670FT 16016KT",
      "taf": "TAF ENVA 091700Z 0918/1018 10008KT CAVOK"
    },
    {
      "icao": "ENZV",
      "alert": "OK",
      "vis_m": 9999,
      "fzfg": false,
      "metar_trigger": false,
      "taf_trigger": false,
      "metar": "METAR ENZV 091850Z 10013KT 070V130 CAVOK M01/M09 Q1015 NOSIG",
      "taf": "TAF ENZV 091700Z 0918/1018 08008KT CAVOK"
    },
    {
      "icao": "EPGD",
      "alert": "OK",
      "vis_m": 9999,
      "fzfg": false,
      "metar_trigger": false,
      "taf_trigger": false,
      "metar": "METAR EPGD 091830Z 07008KT 030V110 9999 BKN019 M04/M08 Q1005",
      "taf": "TAF EPGD 091730Z 0918/1018 05012KT 9999 BKN016"
    },
    {
      "icao": "EPKK",
      "alert": "OK",
      "vis_m": 5000,
      "fzfg": false,
      "metar_trigger": false,
      "taf_trigger": false,
      "metar": "METAR EPKK 091830Z 30004KT 5000 BR NSC M08/M11 Q1000",
      "taf": "TAF EPKK 091730Z 0918/1018 07003KT 6000 NSC"
    },
    {
      "icao": "EPKT",
      "alert": "OK",
      "vis_m": 5000,
      "fzfg": false,
      "metar_trigger": false,
      "taf_trigger": false,
      "metar": "METAR EPKT 091830Z 21004KT 5000 BR NSC M09/M10 Q1000",
      "taf": "TAF EPKT 091730Z 0918/1018 06002KT 6000 NSC"
    },
    {
      "icao": "EPLB",
      "alert": "OK",
      "vis_m": 9999,
      "fzfg": false,
      "metar_trigger": false,
      "taf_trigger": false,
      "metar": "METAR EPLB 091830Z 31008KT 9999 -SN OVC023 M09/M12 Q0999",
      "taf": "TAF EPLB 091730Z 0918/1018 29008KT 7000 -SN BKN020"
    },
    {
      "icao": "EPMO",
      "alert": "OK",
      "vis_m": 9999,
      "fzfg": false,
      "metar_trigger": false,
      "taf_trigger": false,
      "metar": "METAR EPMO 091830Z 32005KT CAVOK M12/M13 Q1002",
      "taf": "TAF EPMO 091730Z 0918/1018 33007KT 8000 BKN020"
    },
    {
      "icao": "EPPO",
      "alert": "OK",
      "vis_m": 9999,
      "fzfg": false,
      "metar_trigger": false,
      "taf_trigger": false,
      "metar": "METAR EPPO 091830Z 09007KT CAVOK M09/M11 Q1004",
      "taf": "TAF EPPO 091730Z 0918/1018 08005KT 7000 NSC"
    },
    {
      "icao": "EPRA",
      "alert": "OK",
      "vis_m": 8000,
      "fzfg": false,
      "metar_trigger": false,
      "taf_trigger": false,
      "metar": "METAR EPRA 091830Z 29007KT 8000 -SN SCT009 BKN016 M11/M13 Q1001",
      "taf": "TAF EPRA 091730Z 0918/1003 31008KT 8000 SCT030"
    },
    {
      "icao": "EPRZ",
      "alert": "OK",
      "vis_m": 5000,
      "fzfg": false,
      "metar_trigger": false,
      "taf_trigger": false,
      "metar": "METAR EPRZ 091830Z 25007KT 5000 BR FEW046 M11/M13 Q1000",
      "taf": "TAF EPRZ 091730Z 0918/1018 VRB02KT 9999 FEW046"
    },
    {
      "icao": "EPSC",
      "alert": "OK",
      "vis_m": 9999,
      "fzfg": false,
      "metar_trigger": false,
      "taf_trigger": false,
      "metar": "METAR EPSC 091830Z 07008KT 040V100 CAVOK M05/M07 Q1004",
      "taf": "TAF EPSC 091730Z 0918/1018 07010KT CAVOK"
    },
    {
      "icao": "EPSY",
      "alert": "OK",
      "vis_m": 9999,
      "fzfg": false,
      "metar_trigger": false,
      "taf_trigger": false,
      "metar": "METAR EPSY 091830Z 34005KT 9999 -SN BKN007 BKN013 M12/M14 Q1002",
      "taf": "TAF EPSY 091730Z 0918/1003 36007KT 9999 BKN012"
    },
    {
      "icao": "EPWA",
      "alert": "OK",
      "vis_m": 9999,
      "fzfg": false,
      "metar_trigger": false,
      "taf_trigger": false,
      "metar": "METAR EPWA 091830Z 36010KT 330V030 9999 BKN020 M09/M13 Q1002 NOSIG",
      "taf": "TAF EPWA 091730Z 0918/1018 33008KT 8000 BKN020"
    },
    {
      "icao": "EPWR",
      "alert": "OK",
      "vis_m": 7000,
      "fzfg": false,
      "metar_trigger": false,
      "taf_trigger": false,
      "metar": "METAR EPWR 091830Z 07005KT 7000 NSC M06/M08 Q1001",
      "taf": "TAF EPWR 091730Z 0918/1018 07008KT 9000 NSC"
    },
    {
      "icao": "ESGG",
      "alert": "OK",
      "vis_m": 9999,
      "fzfg": false,
      "metar_trigger": false,
      "taf_trigger": false,
      "metar": "METAR ESGG 091850Z 07011KT 9999 OVC029 M04/M08 Q1014",
      "taf": "TAF ESGG 091730Z 0918/1018 04008KT 9999 BKN030"
    },
    {
      "icao": "ESKN",
      "alert": "OK",
      "vis_m": 9999,
      "fzfg": false,
      "metar_trigger": false,
      "taf_trigger": false,
      "metar": "METAR ESKN 091850Z 03012KT 9999 BKN038 M05/M09 Q1019",
      "taf": "TAF ESKN 091730Z 0918/1018 02010KT 9999 BKN035"
    },
    {
      "icao": "ESMS",
      "alert": "OK",
      "vis_m": 9999,
      "fzfg": false,
      "metar_trigger": false,
      "taf_trigger": false,
      "metar": "METAR ESMS 091850Z 08020KT 9999 OVC038 M00/M07 Q1008",
      "taf": "TAF ESMS 091727Z 0918/1018 08020KT 9999 BKN040"
    },
    {
      "icao": "ESSA",
      "alert": "OK",
      "vis_m": 9999,
      "fzfg": false,
      "metar_trigger": false,
      "taf_trigger": false,
      "metar": "METAR ESSA 091850Z 02009KT CAVOK M09/M11 Q1021 NOSIG",
      "taf": "TAF ESSA 091730Z 0918/1018 02012KT CAVOK"
    },
    {
      "icao": "EYKA",
      "alert": "OK",
      "vis_m": 2700,
      "fzfg": false,
      "metar_trigger": false,
      "taf_trigger": false,
      "metar": "METAR EYKA 091850Z 36011KT 330V030 2700 SN BLSN BKN015 OVC022 M09/M11 Q1000",
      "taf": "TAF EYKA 091723Z 0918/1018 02012KT 3000 SN BLSN SCT005 OVC010"
    },
    {
      "icao": "EYPA",
      "alert": "OK",
      "vis_m": 9999,
      "fzfg": false,
      "metar_trigger": false,
      "taf_trigger": false,
      "metar": "METAR EYPA 091850Z 03014KT CAVOK M06/M11 Q1007",
      "taf": "TAF EYPA 091722Z 0918/1018 04014KT 9000 NSC"
    },
    {
      "icao": "EYVI",
      "alert": "OK",
      "vis_m": 1000,
      "fzfg": false,
      "metar_trigger": false,
      "taf_trigger": false,
      "metar": "METAR EYVI 091850Z 01012KT 1000 R01/P2000N SN BLSN OVC012 M10/M12 Q0997 TEMPO 0800 +SN",
      "taf": "TAF EYVI 091725Z 0918/1018 01013KT 1500 SN OVC015"
    },
    {
      "icao": "GCFV",
      "alert": "OK",
      "vis_m": 9999,
      "fzfg": false,
      "metar_trigger": false,
      "taf_trigger": false,
      "metar": "METAR GCFV 091830Z 03014KT 9999 FEW030 SCT040 18/11 Q1028",
      "taf": "TAF GCFV 091400Z 0915/1015 05013KT 9999 SCT025 TX20/1014Z TN15/1006Z"
    },
    {
      "icao": "GCLP",
      "alert": "OK",
      "vis_m": 9999,
      "fzfg": false,
      "metar_trigger": false,
      "taf_trigger": false,
      "metar": "METAR GCLP 091830Z 02012KT 9999 FEW025 18/11 Q1028 NOSIG",
      "taf": "TAF GCLP 091400Z 0915/1015 03013KT 9999 FEW030 TX19/1014Z TN15/1006Z"
    },
    {
      "icao": "GCTS",
      "alert": "OK",
      "vis_m": 9999,
      "fzfg": false,
      "metar_trigger": false,
      "taf_trigger": false,
      "metar": "METAR GCTS 091830Z 08016KT 9999 FEW035 18/10 Q1028 NOSIG",
      "taf": "TAF GCTS 091400Z 0915/1015 10015KT 9999 FEW030 TX23/1014Z TN15/1006Z"
    },
    {
      "icao": "GMAD",
      "alert": "OK",
      "vis_m": 9999,
      "fzfg": false,
      "metar_trigger": false,
      "taf_trigger": false,
      "metar": "METAR GMAD 091830Z 24005KT CAVOK 13/09 Q1026 NOSIG",
      "taf": "TAF GMAD 091700Z 0918/1024 06008KT CAVOK"
    },
    {
      "icao": "GMMN",
      "alert": "OK",
      "vis_m": 9999,
      "fzfg": false,
      "metar_trigger": false,
      "taf_trigger": false,
      "metar": "METAR GMMN 091830Z 02005KT 9999 SCT023 11/08 Q1030 NOSIG",
      "taf": "TAF GMMN 091700Z 0918/1024 02006KT 9999 FEW023"
    },
    {
      "icao": "GMMX",
      "alert": "OK",
      "vis_m": 9999,
      "fzfg": false,
      "metar_trigger": false,
      "taf_trigger": false,
      "metar": "METAR GMMX 091830Z 02006KT 340V050 CAVOK 14/08 Q1028 NOSIG",
      "taf": "TAF GMMX 091700Z 0918/1024 06006KT 8000 NSC"
    },
    {
      "icao": "HEGN",
      "alert": "OK",
      "vis_m": 9999,
      "fzfg": false,
      "metar_trigger": false,
      "taf_trigger": false,
      "metar": "METAR HEGN 091800Z 32014KT CAVOK 19/06 Q1019 NOSIG",
      "taf": "TAF HEGN 091700Z 0918/1024 31010G22KT CAVOK"
    },
    {
      "icao": "HEMA",
      "alert": "OK",
      "vis_m": 9999,
      "fzfg": false,
      "metar_trigger": false,
      "taf_trigger": false,
      "metar": "METAR HEMA 091800Z 32014KT CAVOK 20/11 Q1017 NOSIG",
      "taf": "TAF HEMA 091700Z 0918/1024 34008G20KT 8000 NSC"
    },
    {
      "icao": "HESH",
      "alert": "OK",
      "vis_m": 9999,
      "fzfg": false,
      "metar_trigger": false,
      "taf_trigger": false,
      "metar": "METAR HESH 091800Z 35010KT CAVOK 21/04 Q1016 NOSIG",
      "taf": "TAF HESH 091700Z 0918/1024 36012KT CAVOK"
    },
    {
      "icao": "HESX",
      "alert": "OK",
      "vis_m": 9999,
      "fzfg": false,
      "metar_trigger": false,
      "taf_trigger": false,
      "metar": "METAR HESX 091800Z 31006KT CAVOK 14/07 Q1020 NOSIG",
      "taf": "TAF HESX 091700Z 0918/1024 32015KT 9999 SCT025"
    },
    {
      "icao": "LATI",
      "alert": "OK",
      "vis_m": 9999,
      "fzfg": false,
      "metar_trigger": false,
      "taf_trigger": false,
      "metar": "METAR LATI 091850Z 11007KT 080V150 9999 -RA BKN026 BKN060 12/07 Q1006 NOSIG",
      "taf": "TAF LATI 091700Z 0918/1018 14013KT 9999 -RA SCT030 BKN060 TX14/1001Z TN07/1018Z"
    },
    {
      "icao": "LBPD",
      "alert": "OK",
      "vis_m": 9999,
      "fzfg": false,
      "metar_trigger": false,
      "taf_trigger": false,
      "metar": "METAR LBPD 091830Z AUTO VRB04KT 9999 FEW067/// BKN088/// BKN100/// 04/M04 Q1006 NOSIG",
      "taf": "TAF LBPD 091700Z 0918/1018 VRB03KT 9999 SCT050"
    },
    {
      "icao": "LBSF",
      "alert": "OK",
      "vis_m": 9999,
      "fzfg": false,
      "metar_trigger": false,
      "taf_trigger": false,
      "metar": "METAR LBSF 091830Z AUTO 08005KT 9999 FEW013/// OVC052/// 01/M03 Q1005 NOSIG",
      "taf": "TAF LBSF 091700Z 0918/1018 VRB03KT 9999 SCT030 BKN050"
    },
    {
      "icao": "LBWN",
      "alert": "OK",
      "vis_m": 9999,
      "fzfg": false,
      "metar_trigger": false,
      "taf_trigger": false,
      "metar": "METAR LBWN 091830Z AUTO 06004KT 030V090 9999 NSC 01/M04 Q1006 NOSIG",
      "taf": "TAF LBWN 091700Z 0918/1018 VRB04KT CAVOK"
    },
    {
      "icao": "LCLK",
      "alert": "OK",
      "vis_m": 9999,
      "fzfg": false,
      "metar_trigger": false,
      "taf_trigger": false,
      "metar": "METAR LCLK 091830Z 30009KT 9999 FEW020 13/07 Q1012 NOSIG",
      "taf": "TAF LCLK 091730Z 0918/1018 30018KT 9999 FEW020 SCT040"
    },
    {
      "icao": "LCPH",
      "alert": "OK",
      "vis_m": 9999,
      "fzfg": false,
      "metar_trigger": false,
      "taf_trigger": false,
      "metar": "METAR LCPH 091830Z 32024KT 9999 FEW030 BKN045 15/06 Q1014 NOSIG",
      "taf": "TAF LCPH 091730Z 0918/1018 30025G35KT 9999 FEW025 SCT040"
    },
    {
      "icao": "LEAL",
      "alert": "OK",
      "vis_m": 9999,
      "fzfg": false,
      "metar_trigger": false,
      "taf_trigger": false,
      "metar": "METAR LEAL 091830Z 24008KT 200V270 CAVOK 16/05 Q1020 WS R28 NOSIG",
      "taf": "TAF LEAL 091700Z 0918/1018 27009KT CAVOK TX16/1014Z TN08/1006Z"
    },
    {
      "icao": "LEBB",
      "alert": "OK",
      "vis_m": 8000,
      "fzfg": false,
      "metar_trigger": false,
      "taf_trigger": false,
      "metar": "SPECI LEBB 091839Z 28019G29KT 8000 RA SCT030 BKN042 09/05 Q1021 TEMPO 3000 SHRA SCT025TCU",
      "taf": "TAF LEBB 091700Z 0918/1018 29009KT 9999 FEW020 SCT040 TX10/0923Z TN07/0923Z"
    },
    {
      "icao": "LEBL",
      "alert": "OK",
      "vis_m": 9999,
      "fzfg": false,
      "metar_trigger": false,
      "taf_trigger": false,
      "metar": "METAR LEBL 091830Z 29016KT 9999 FEW050 12/M01 Q1013 NOSIG",
      "taf": "TAF LEBL 091700Z 0918/1018 30010KT 9999 FEW020 TX16/1013Z TN07/1006Z"
    },
    {
      "icao": "LECH",
      "alert": "OK",
      "vis_m": 9000,
      "fzfg": false,
      "metar_trigger": false,
      "taf_trigger": false,
      "metar": "METAR LECH 091830Z AUTO 01012KT 330V050 9000 NSC 10/01 Q1017",
      "taf": ""
    },
    {
      "icao": "LEMD",
      "alert": "OK",
      "vis_m": 9999,
      "fzfg": false,
      "metar_trigger": false,
      "taf_trigger": false,
      "metar": "METAR LEMD 091830Z 25013G25KT 220V280 CAVOK 09/M01 Q1021 NOSIG",
      "taf": "TAF LEMD 091700Z 0918/1024 27012KT 9999 SCT030 TX10/1014Z TN01/1006Z"
    },
    {
      "icao": "LEMG",
      "alert": "OK",
      "vis_m": 9999,
      "fzfg": false,
      "metar_trigger": false,
      "taf_trigger": false,
      "metar": "METAR LEMG 091830Z 33015KT 9999 FEW050 15/09 Q1025 NOSIG",
      "taf": "TAF LEMG 091700Z 0918/1018 29010KT 9999 FEW030 TX18/1014Z TN10/1006Z"
    },
    {
      "icao": "LEVC",
      "alert": "OK",
      "vis_m": 9999,
      "fzfg": false,
      "metar_trigger": false,
      "taf_trigger": false,
      "metar": "METAR LEVC 091830Z 26009KT 9999 FEW030 14/03 Q1018 NOSIG",
      "taf": "TAF LEVC 091700Z 0918/1018 27015KT 9999 FEW040 TX16/1014Z TN07/1006Z"
    },
    {
      "icao": "LEXJ",
      "alert": "OK",
      "vis_m": 8000,
      "fzfg": false,
      "metar_trigger": false,
      "taf_trigger": false,
      "metar": "METAR LEXJ 091830Z 29020KT 250V330 8000 RA SCT030 BKN040 BKN050 08/04 Q1022",
      "taf": "TAF LEXJ 091400Z 0915/1015 29015KT 9999 SCT025 TX11/0915Z TN07/0921Z"
    },
    {
      "icao": "LEZG",
      "alert": "OK",
      "vis_m": 9999,
      "fzfg": false,
      "metar_trigger": false,
      "taf_trigger": false,
      "metar": "METAR LEZG 091830Z 30015KT 270V330 CAVOK 08/03 Q1018 NOSIG",
      "taf": "TAF LEZG 091700Z 0918/1018 29012KT 9999 FEW040 TX11/1015Z TN05/1006Z"
    },
    {
      "icao": "LEZL",
      "alert": "OK",
      "vis_m": 9999,
      "fzfg": false,
      "metar_trigger": false,
      "taf_trigger": false,
      "metar": "METAR LEZL 091830Z 28008KT CAVOK 14/10 Q1027 NOSIG",
      "taf": "TAF LEZL 091400Z 0915/1015 27010KT 9999 SCT030 TX16/0915Z TN06/1007Z"
    },
    {
      "icao": "LFBD",
      "alert": "OK",
      "vis_m": 9999,
      "fzfg": false,
      "metar_trigger": false,
      "taf_trigger": false,
      "metar": "METAR LFBD 091830Z AUTO 33007KT 290V030 9999 3900 RA FEW024/// BKN036/// BKN042/// ///CB 05/04 Q1014",
      "taf": ""
    },
    {
      "icao": "LFLL",
      "alert": "OK",
      "vis_m": 9999,
      "fzfg": false,
      "metar_trigger": false,
      "taf_trigger": false,
      "metar": "METAR LFLL 091830Z 24009KT 9999 FEW040 BKN120 05/02 Q1005 NOSIG",
      "taf": "TAF LFLL 091700Z 0918/1024 25010KT 9999 SCT060"
    },
    {
      "icao": "LFLS",
      "alert": "OK",
      "vis_m": 8000,
      "fzfg": false,
      "metar_trigger": false,
      "taf_trigger": false,
      "metar": "METAR LFLS 091830Z AUTO VRB02KT 8000 RA BKN015/// BKN022/// BKN029/// ///TCU 02/02 Q1006 BECMG NSW BKN055",
      "taf": ""
    },
    {
      "icao": "LFMN",
      "alert": "OK",
      "vis_m": 9999,
      "fzfg": false,
      "metar_trigger": false,
      "taf_trigger": false,
      "metar": "METAR LFMN 091840Z COR 23014KT 9999 FEW100 SCT200 10/03 Q1002 WS R04R WS R04L BECMG 33015KT",
      "taf": ""
    },
    {
      "icao": "LFOB",
      "alert": "OK",
      "vis_m": 9999,
      "fzfg": false,
      "metar_trigger": false,
      "taf_trigger": false,
      "metar": "METAR LFOB 091830Z AUTO 27013KT 9999 BKN027 BKN060 BKN220 04/02 Q0998 TEMPO 4000 -SHRA BKN011TCU BECMG 28015G25KT",
      "taf": "TAF LFOB 091700Z 0918/1018 28015G25KT 9999 BKN025"
    },
    {
      "icao": "LFPO",
      "alert": "OK",
      "vis_m": 9999,
      "fzfg": false,
      "metar_trigger": false,
      "taf_trigger": false,
      "metar": "METAR LFPO 091830Z 28016KT 9999 BKN023 BKN033 05/02 Q1000 NOSIG",
      "taf": "TAF LFPO 091700Z 0918/1024 27015KT 9999 SCT020 BKN140"
    },
    {
      "icao": "LFSB",
      "alert": "OK",
      "vis_m": 9999,
      "fzfg": false,
      "metar_trigger": false,
      "taf_trigger": false,
      "metar": "METAR LFSB 091830Z AUTO 24020KT CAVOK 06/00 Q0999 TEMPO SCT030TCU BECMG 25015G30KT",
      "taf": "TAF LFSB 091700Z 0918/1018 25015G30KT 9999 FEW030 SCT050"
    },
    {
      "icao": "LGAV",
      "alert": "OK",
      "vis_m": 9999,
      "fzfg": false,
      "metar_trigger": false,
      "taf_trigger": false,
      "metar": "METAR LGAV 091850Z 08005KT 060V120 9999 FEW030 08/02 Q1012 NOSIG",
      "taf": "TAF LGAV 091700Z 0918/1018 24012KT 9999 FEW025"
    },
    {
      "icao": "LGTS",
      "alert": "OK",
      "vis_m": 9999,
      "fzfg": false,
      "metar_trigger": false,
      "taf_trigger": false,
      "metar": "METAR LGTS 091850Z 24005KT 9999 FEW025 06/01 Q1009 NOSIG",
      "taf": "TAF LGTS 091700Z 0918/1018 VRB03KT 9999 FEW030"
    },
    {
      "icao": "LHBP",
      "alert": "OK",
      "vis_m": 6000,
      "fzfg": false,
      "metar_trigger": false,
      "taf_trigger": false,
      "metar": "METAR LHBP 091830Z 05003KT 6000 -SG OVC009 M07/M09 Q1002 NOSIG",
      "taf": "TAF LHBP 091715Z 0918/1018 09006KT 7000 BKN015 BKN025"
    },
    {
      "icao": "LHDC",
      "alert": "OK",
      "vis_m": 7000,
      "fzfg": false,
      "metar_trigger": false,
      "taf_trigger": false,
      "metar": "METAR LHDC 091815Z AUTO 07007KT 7000 OVC016 M05/M07 Q1003 NOSIG",
      "taf": "TAF LHDC 091415Z 0915/0924 VRB02KT 7000 NSC"
    },
    {
      "icao": "LIBD",
      "alert": "OK",
      "vis_m": 9999,
      "fzfg": false,
      "metar_trigger": false,
      "taf_trigger": false,
      "metar": "METAR LIBD 091850Z 13003KT 090V180 CAVOK 11/07 Q1004",
      "taf": "TAF LIBD 091700Z 0918/1018 25016KT 9999 SCT040"
    },
    {
      "icao": "LIBG",
      "alert": "OK",
      "vis_m": 9999,
      "fzfg": false,
      "metar_trigger": false,
      "taf_trigger": false,
      "metar": "METAR LIBG 091750Z 23005KT 190V280 9999 FEW030 15/12 Q1006",
      "taf": "TAF LIBG 091700Z 0918/1003 21010KT 9999 SCT040"
    },
    {
      "icao": "LIBP",
      "alert": "OK",
      "vis_m": 9999,
      "fzfg": false,
      "metar_trigger": false,
      "taf_trigger": false,
      "metar": "METAR LIBP 091850Z AUTO 22013KT 9999 NCD 11/06 Q1002",
      "taf": "TAF LIBP 091700Z 0918/1018 24012KT 9999 SCT050"
    },
    {
      "icao": "LIBR",
      "alert": "OK",
      "vis_m": 9999,
      "fzfg": false,
      "metar_trigger": false,
      "taf_trigger": false,
      "metar": "METAR LIBR 091850Z 22010KT CAVOK 14/09 Q1005",
      "taf": "TAF LIBR 091700Z 0918/1018 21013KT 9999 FEW040"
    },
    {
      "icao": "LICA",
      "alert": "OK",
      "vis_m": 9999,
      "fzfg": false,
      "metar_trigger": false,
      "taf_trigger": false,
      "metar": "METAR LICA 091850Z AUTO 24020KT 9999 BKN033/// 16/11 Q1011",
      "taf": "TAF LICA 091700Z 0918/1018 27026G38KT 9999 BKN016"
    },
    {
      "icao": "LICC",
      "alert": "OK",
      "vis_m": 9999,
      "fzfg": false,
      "metar_trigger": false,
      "taf_trigger": false,
      "metar": "METAR LICC 091850Z 27011KT 9999 FEW060 14/09 Q1014",
      "taf": "TAF LICC 091700Z 0918/1018 26013KT 9999 FEW050"
    },
    {
      "icao": "LICJ",
      "alert": "OK",
      "vis_m": 9999,
      "fzfg": false,
      "metar_trigger": false,
      "taf_trigger": false,
      "metar": "METAR LICJ 091850Z 23019KT 9999 SCT045 16/12 Q1013",
      "taf": "TAF LICJ 091700Z 0918/1018 23020G30KT 9999 SCT020"
    },
    {
      "icao": "LIMC",
      "alert": "OK",
      "vis_m": 3000,
      "fzfg": false,
      "metar_trigger": false,
      "taf_trigger": false,
      "metar": "METAR LIMC 091850Z VRB02KT 3000 MIFG NSC M01/M02 Q1000 NOSIG",
      "taf": "TAF LIMC 091700Z 0918/1024 VRB04KT 9000 SCT030"
    },
    {
      "icao": "LIME",
      "alert": "OK",
      "vis_m": 7000,
      "fzfg": false,
      "metar_trigger": false,
      "taf_trigger": false,
      "metar": "METAR LIME 091850Z VRB02KT 7000 SCT030 M01/M03 Q1000 NOSIG",
      "taf": "TAF LIME 091700Z 0918/1018 VRB04KT 9999 SCT050"
    },
    {
      "icao": "LIMF",
      "alert": "OK",
      "vis_m": 6000,
      "fzfg": false,
      "metar_trigger": false,
      "taf_trigger": false,
      "metar": "METAR LIMF 091850Z 01004KT 330V030 6000 NSC M00/M03 Q1000",
      "taf": "TAF LIMF 091700Z 0918/1018 VRB05KT 9999 FEW030"
    },
    {
      "icao": "LIMJ",
      "alert": "OK",
      "vis_m": 9999,
      "fzfg": false,
      "metar_trigger": false,
      "taf_trigger": false,
      "metar": "METAR LIMJ 091850Z AUTO 04004KT 350V100 9999 BKN200/// 08/02 Q0999",
      "taf": "TAF LIMJ 091700Z 0918/1018 36013KT 9999 FEW030"
    },
    {
      "icao": "LIPE",
      "alert": "OK",
      "vis_m": 6000,
      "fzfg": false,
      "metar_trigger": false,
      "taf_trigger": false,
      "metar": "METAR LIPE 091850Z 23005KT 6000 NSC M00/M02 Q1001",
      "taf": "TAF LIPE 091700Z 0918/1018 VRB05KT 6000 BKN015"
    },
    {
      "icao": "LIPH",
      "alert": "OK",
      "vis_m": 9999,
      "fzfg": false,
      "metar_trigger": false,
      "taf_trigger": false,
      "metar": "METAR LIPH 091850Z 23006KT CAVOK 01/M01 Q1001",
      "taf": "TAF LIPH 091700Z 0918/1018 VRB05KT 9999 SCT040"
    },
    {
      "icao": "LIPQ",
      "alert": "OK",
      "vis_m": 9000,
      "fzfg": false,
      "metar_trigger": false,
      "taf_trigger": false,
      "metar": "METAR LIPQ 091850Z AUTO 29002KT 9000 BKN004/// OVC032/// 03/02 Q1000",
      "taf": "TAF LIPQ 091700Z 0918/1018 VRB05KT 9999 BKN030"
    },
    {
      "icao": "LIPR",
      "alert": "OK",
      "vis_m": 8000,
      "fzfg": false,
      "metar_trigger": false,
      "taf_trigger": false,
      "metar": "METAR LIPR 091850Z 31007KT 8000 NSC 01/M00 Q1001",
      "taf": "TAF LIPR 091700Z 0918/1018 29010KT 9999 SCT040"
    },
    {
      "icao": "LIPX",
      "alert": "OK",
      "vis_m": 9999,
      "fzfg": false,
      "metar_trigger": false,
      "taf_trigger": false,
      "metar": "METAR LIPX 091850Z VRB01KT CAVOK M01/M04 Q1001",
      "taf": "TAF LIPX 091700Z 0918/1018 VRB05KT 9999 FEW020"
    },
    {
      "icao": "LIPY",
      "alert": "OK",
      "vis_m": 5000,
      "fzfg": false,
      "metar_trigger": false,
      "taf_trigger": false,
      "metar": "METAR LIPY 091850Z AUTO VRB01KT 5000 BR FEW140/// 04/03 Q1001",
      "taf": "TAF LIPY 091700Z 0918/1018 24012KT 9999 SCT050"
    },
    {
      "icao": "LIPZ",
      "alert": "OK",
      "vis_m": 9999,
      "fzfg": false,
      "metar_trigger": false,
      "taf_trigger": false,
      "metar": "METAR LIPZ 091850Z 24005KT 220V280 CAVOK 02/M01 Q1001 NOSIG",
      "taf": "TAF LIPZ 091700Z 0918/1024 VRB05KT 9999 SCT030"
    },
    {
      "icao": "LIRF",
      "alert": "OK",
      "vis_m": 9999,
      "fzfg": false,
      "metar_trigger": false,
      "taf_trigger": false,
      "metar": "METAR LIRF 091850Z 26018KT 9999 FEW025 14/08 Q1005 NOSIG",
      "taf": "TAF LIRF 091700Z 0918/1024 25023G35KT 9999 SCT020"
    },
    {
      "icao": "LIRN",
      "alert": "OK",
      "vis_m": 9999,
      "fzfg": false,
      "metar_trigger": false,
      "taf_trigger": false,
      "metar": "METAR LIRN 091850Z 26014KT 9999 SCT035 14/08 Q1007 NOSIG",
      "taf": "TAF LIRN 091700Z 0918/1018 25018KT 9999 BKN025"
    },
    {
      "icao": "LIRP",
      "alert": "OK",
      "vis_m": 9999,
      "fzfg": false,
      "metar_trigger": false,
      "taf_trigger": false,
      "metar": "METAR LIRP 091845Z 26019KT 9999 SCT035 12/05 Q1002 NOSIG",
      "taf": "TAF LIRP 091700Z 0918/1018 27015KT 9999 FEW020 SCT040"
    },
    {
      "icao": "LIRZ",
      "alert": "OK",
      "vis_m": 9999,
      "fzfg": false,
      "metar_trigger": false,
      "taf_trigger": false,
      "metar": "METAR LIRZ 091850Z AUTO 25015KT 9999 NCD 11/03 Q1002",
      "taf": "TAF LIRZ 091700Z 0918/1018 24012KT 9999 BKN040"
    },
    {
      "icao": "LJLJ",
      "alert": "OK",
      "vis_m": 5000,
      "fzfg": false,
      "metar_trigger": false,
      "taf_trigger": false,
      "metar": "METAR LJLJ 091830Z VRB01KT 5000 BR OVC010 M00/M01 Q1000 NOSIG",
      "taf": "TAF LJLJ 091700Z 0918/1018 29006KT 6000 FEW003 BKN016 BKN030"
    },
    {
      "icao": "LKMT",
      "alert": "OK",
      "vis_m": 9999,
      "fzfg": false,
      "metar_trigger": false,
      "taf_trigger": false,
      "metar": "METAR LKMT 091830Z 00000KT 9999 BKN033 OVC039 M05/M07 Q1000 NOSIG",
      "taf": "TAF LKMT 091700Z 0918/1018 VRB02KT 9999 BKN035"
    },
    {
      "icao": "LKPR",
      "alert": "OK",
      "vis_m": 5000,
      "fzfg": false,
      "metar_trigger": false,
      "taf_trigger": false,
      "metar": "METAR LKPR 091830Z 11005KT 5000 -SN BR FEW005 BKN010 OVC023 M04/M05 Q0997 NOSIG",
      "taf": "TAF LKPR 091700Z 0918/1024 09007KT 7000 SCT008 OVC015"
    },
    {
      "icao": "LLBG",
      "alert": "OK",
      "vis_m": 9999,
      "fzfg": false,
      "metar_trigger": false,
      "taf_trigger": false,
      "metar": "METAR LLBG 091850Z 29017KT 9999 BKN050 16/07 Q1017 TEMPO 7000 SHRA FEW025TCU",
      "taf": "TAF LLBG 091703Z 0918/1018 29012KT 9999 SCT035"
    },
    {
      "icao": "LMML",
      "alert": "OK",
      "vis_m": 9999,
      "fzfg": false,
      "metar_trigger": false,
      "taf_trigger": false,
      "metar": "METAR LMML 091845Z 25007KT 9999 FEW020 13/11 Q1017 NOSIG",
      "taf": "TAF LMML 091700Z 0918/1018 24018KT 9999 FEW015"
    },
    {
      "icao": "LOWW",
      "alert": "OK",
      "vis_m": 6000,
      "fzfg": false,
      "metar_trigger": false,
      "taf_trigger": false,
      "metar": "METAR LOWW 091850Z 14004KT 6000 FEW005 BKN007 M06/M07 Q1001 NOSIG",
      "taf": "TAF LOWW 091715Z 0918/1024 12003KT 6000 BKN008 TXM02/1013Z TNM06/1024Z"
    },
    {
      "icao": "LPFR",
      "alert": "OK",
      "vis_m": 9999,
      "fzfg": false,
      "metar_trigger": false,
      "taf_trigger": false,
      "metar": "METAR LPFR 091830Z 32010KT 9999 FEW012 14/09 Q1028",
      "taf": "TAF LPFR 091700Z 0918/1018 26012KT 9999 SCT012 BKN018"
    },
    {
      "icao": "LPMA",
      "alert": "OK",
      "vis_m": 7000,
      "fzfg": false,
      "metar_trigger": false,
      "taf_trigger": false,
      "metar": "METAR LPMA 091830Z 03008KT 7000 -SHRA BKN010 15/14 Q1032",
      "taf": "TAF LPMA 091700Z 0918/1018 05010KT 9999 SCT015"
    },
    {
      "icao": "LPPR",
      "alert": "OK",
      "vis_m": 9999,
      "fzfg": false,
      "metar_trigger": false,
      "taf_trigger": false,
      "metar": "METAR LPPR 091830Z 34006KT 9999 FEW024 SCT040 11/08 Q1027",
      "taf": "TAF LPPR 091700Z 0918/1018 30007KT 9999 FEW015 SCT030"
    },
    {
      "icao": "LPPS",
      "alert": "OK",
      "vis_m": 9999,
      "fzfg": false,
      "metar_trigger": false,
      "taf_trigger": false,
      "metar": "METAR LPPS 091830Z 04003KT 360V080 9999 FEW013 15/12 Q1032",
      "taf": "TAF LPPS 091700Z 0918/1024 07008KT 9999 SCT015 SCT030"
    },
    {
      "icao": "LPPT",
      "alert": "OK",
      "vis_m": 9999,
      "fzfg": false,
      "metar_trigger": false,
      "taf_trigger": false,
      "metar": "METAR LPPT 091830Z 00000KT 9999 FEW020 12/08 Q1028",
      "taf": "TAF LPPT 091700Z 0918/1024 32010KT 9999 SCT020"
    },
    {
      "icao": "LQBK",
      "alert": "OK",
      "vis_m": 4500,
      "fzfg": false,
      "metar_trigger": false,
      "taf_trigger": false,
      "metar": "METAR LQBK 091830Z 14009KT 4500 RASN BR FEW013 BKN040 01/01 Q1001 NOSIG",
      "taf": "TAF LQBK 091700Z 0918/1018 VRB03KT 7000 SCT040 TX00/1013Z TNM02/1006Z"
    },
    {
      "icao": "LQSA",
      "alert": "OK",
      "vis_m": 2500,
      "fzfg": false,
      "metar_trigger": false,
      "taf_trigger": false,
      "metar": "METAR LQSA 091830Z VRB02KT 2500 -FZRA FEW035 SCT050 M02/M02 Q1000 NOSIG",
      "taf": ""
    },
    {
      "icao": "LQTZ",
      "alert": "OK",
      "vis_m": 7000,
      "fzfg": false,
      "metar_trigger": false,
      "taf_trigger": false,
      "metar": "METAR LQTZ 091830Z 30012KT 7000 FEW020 BKN035 02/02 Q1002",
      "taf": "TAF LQTZ 091700Z 0918/1018 16005KT 3000 BR SCT005 BKN025 TX01/1013Z TNM03/1006Z"
    },
    {
      "icao": "LRBC",
      "alert": "OK",
      "vis_m": 9999,
      "fzfg": false,
      "metar_trigger": false,
      "taf_trigger": false,
      "metar": "METAR LRBC 091830Z 15007KT CAVOK M05/M12 Q1002",
      "taf": "TAF LRBC 091700Z 0918/1003 20005KT CAVOK"
    },
    {
      "icao": "LRBS",
      "alert": "OK",
      "vis_m": 9999,
      "fzfg": false,
      "metar_trigger": false,
      "taf_trigger": false,
      "metar": "METAR LRBS 091830Z 26005KT CAVOK 01/M03 Q1005 NOSIG",
      "taf": "TAF LRBS 091700Z 0918/1018 VRB04KT CAVOK"
    },
    {
      "icao": "LRBV",
      "alert": "OK",
      "vis_m": 9999,
      "fzfg": false,
      "metar_trigger": false,
      "taf_trigger": false,
      "metar": "METAR LRBV 091830Z 06002KT 9999 SCT037 OVC047 M05/M08 Q1002",
      "taf": "TAF LRBV 091700Z 0918/1003 VRB04KT 9999 BKN050"
    },
    {
      "icao": "LRCL",
      "alert": "OK",
      "vis_m": 9999,
      "fzfg": false,
      "metar_trigger": false,
      "taf_trigger": false,
      "metar": "METAR LRCL 091830Z 07007KT 9999 OVC050 M06/M09 Q1002",
      "taf": "TAF LRCL 091700Z 0918/1003 VRB04KT 9999 OVC040"
    },
    {
      "icao": "LRCV",
      "alert": "OK",
      "vis_m": 9999,
      "fzfg": false,
      "metar_trigger": false,
      "taf_trigger": false,
      "metar": "METAR LRCV 091830Z 09003KT 9999 -SN SCT020 OVC029 M00/M01 Q1004",
      "taf": "TAF LRCV 091700Z 0918/1003 VRB04KT 9999 BKN040"
    },
    {
      "icao": "LRIA",
      "alert": "OK",
      "vis_m": 9999,
      "fzfg": false,
      "metar_trigger": false,
      "taf_trigger": false,
      "metar": "METAR LRIA 091830Z 20004KT CAVOK M04/M09 Q1002",
      "taf": "TAF LRIA 091700Z 0918/1003 22006KT CAVOK"
    },
    {
      "icao": "LROP",
      "alert": "OK",
      "vis_m": 9999,
      "fzfg": false,
      "metar_trigger": false,
      "taf_trigger": false,
      "metar": "METAR LROP 091830Z 23003KT CAVOK M00/M03 Q1004 NOSIG",
      "taf": "TAF LROP 091700Z 0918/1018 VRB04KT CAVOK"
    },
    {
      "icao": "LRSB",
      "alert": "OK",
      "vis_m": 9999,
      "fzfg": false,
      "metar_trigger": false,
      "taf_trigger": false,
      "metar": "METAR LRSB 091830Z COR VRB01KT 9999 SCT036 BKN045 M04/M08 Q1001",
      "taf": "TAF LRSB 091700Z 0918/1018 VRB04KT 9999 OVC045"
    },
    {
      "icao": "LRSM",
      "alert": "OK",
      "vis_m": 8000,
      "fzfg": false,
      "metar_trigger": false,
      "taf_trigger": false,
      "metar": "METAR LRSM 091830Z AUTO 11004KT 8000 BKN027/// M08/M10 Q1003",
      "taf": "TAF LRSM 091400Z 0915/0924 VRB04KT CAVOK"
    },
    {
      "icao": "LRSV",
      "alert": "OK",
      "vis_m": 9999,
      "fzfg": false,
      "metar_trigger": false,
      "taf_trigger": false,
      "metar": "METAR LRSV 091830Z 24007KT CAVOK M06/M12 Q0998",
      "taf": "TAF LRSV 091700Z 0918/1003 22008KT CAVOK"
    },
    {
      "icao": "LRTM",
      "alert": "OK",
      "vis_m": 9999,
      "fzfg": false,
      "metar_trigger": false,
      "taf_trigger": false,
      "metar": "METAR LRTM 091830Z AUTO 08006KT 9999 BKN050/// M06/M08 Q1002",
      "taf": "TAF LRTM 091400Z 0915/0924 VRB04KT CAVOK"
    },
    {
      "icao": "LRTR",
      "alert": "OK",
      "vis_m": 6000,
      "fzfg": false,
      "metar_trigger": false,
      "taf_trigger": false,
      "metar": "METAR LRTR 091830Z 10009KT 6000 BKN006 OVC025 M02/M02 Q1001",
      "taf": "TAF LRTR 091700Z 0918/1018 11010KT 3000 -SN BR BKN010 OVC025"
    },
    {
      "icao": "LTAC",
      "alert": "OK",
      "vis_m": 9999,
      "fzfg": false,
      "metar_trigger": false,
      "taf_trigger": false,
      "metar": "METAR LTAC 091850Z 22008KT CAVOK M03/M10 Q1011 NOSIG RMK RWY21C 23009KT RWY03L 22006KT RWY21R 22008KT RWY03R 21007KT RWY21L 23009KT",
      "taf": "TAF LTAC 091640Z 0918/1018 26012KT CAVOK"
    },
    {
      "icao": "LTFM",
      "alert": "OK",
      "vis_m": 9999,
      "fzfg": false,
      "metar_trigger": false,
      "taf_trigger": false,
      "metar": "METAR LTFM 091850Z 22014KT CAVOK 07/M01 Q1009 NOSIG RMK RWY17L 22012KT RWY34L 20012KT RWY16R 22012KT RWY36 22011KT RWY18 23016KT",
      "taf": "TAF LTFM 091640Z 0918/1024 20018KT CAVOK"
    },
    {
      "icao": "LUKK",
      "alert": "OK",
      "vis_m": 9999,
      "fzfg": false,
      "metar_trigger": false,
      "taf_trigger": false,
      "metar": "METAR LUKK 091830Z 22006KT CAVOK M05/M09 Q1002 NOSIG",
      "taf": "TAF LUKK 091702Z 0918/1018 VRB05KT 9999 SCT030"
    },
    {
      "icao": "LWOH",
      "alert": "OK",
      "vis_m": 9999,
      "fzfg": false,
      "metar_trigger": false,
      "taf_trigger": false,
      "metar": "METAR LWOH 091850Z 14015KT 9999 -RA SCT006 OVC020 07/06 Q1006",
      "taf": "TAF LWOH 091740Z 0918/1018 VRB03KT 3000 RA SCT005 OVC020"
    },
    {
      "icao": "LWSK",
      "alert": "OK",
      "vis_m": 9999,
      "fzfg": false,
      "metar_trigger": false,
      "taf_trigger": false,
      "metar": "METAR LWSK 091850Z VRB01KT 9999 FEW060 SCT090 M02/M04 Q1007 NOSIG",
      "taf": "TAF LWSK 091740Z 0918/1018 VRB02KT 9999 FEW050"
    },
    {
      "icao": "LYBE",
      "alert": "OK",
      "vis_m": 8000,
      "fzfg": false,
      "metar_trigger": false,
      "taf_trigger": false,
      "metar": "METAR LYBE 091830Z COR 05004KT 020V080 8000 -RA SCT045 01/00 Q1000 NOSIG",
      "taf": "TAF LYBE 091700Z 0918/1018 10006KT 6000 BKN040 TX01/0918Z TN00/1006Z"
    },
    {
      "icao": "LYNI",
      "alert": "OK",
      "vis_m": 9999,
      "fzfg": false,
      "metar_trigger": false,
      "taf_trigger": false,
      "metar": "METAR LYNI 091830Z VRB02KT 9999 -RA FEW037 OVC090 01/01 Q1005 NOSIG",
      "taf": "TAF LYNI 091700Z 0918/1018 17004KT 8000 SCT015 BKN030 TX01/0918Z TN00/1006Z"
    },
    {
      "icao": "LYPG",
      "alert": "OK",
      "vis_m": 2000,
      "fzfg": false,
      "metar_trigger": false,
      "taf_trigger": false,
      "metar": "METAR LYPG 091830Z VRB02KT 2000 TSRASN FEW007 FEW026CB BKN040 02/01 Q1006 TEMPO 3000 TSRA",
      "taf": "TAF LYPG 091700Z 0918/1018 35005KT 7000 RA FEW010 SCT023 OVC070 TX08/1012Z TN02/0918Z"
    },
    {
      "icao": "LZIB",
      "alert": "OK",
      "vis_m": 9999,
      "fzfg": false,
      "metar_trigger": false,
      "taf_trigger": false,
      "metar": "METAR LZIB 091830Z 04005KT 9999 OVC009 M05/M06 Q1001 NOSIG",
      "taf": "TAF LZIB 091715Z 0918/1018 06005KT 9999 OVC008"
    },
    {
      "icao": "LZKZ",
      "alert": "OK",
      "vis_m": 9999,
      "fzfg": false,
      "metar_trigger": false,
      "taf_trigger": false,
      "metar": "METAR LZKZ 091830Z VRB03KT CAVOK M10/M12 Q1002 NOSIG",
      "taf": "TAF LZKZ 091715Z 0918/1018 VRB02KT 9999 SCT045"
    },
    {
      "icao": "LZTT",
      "alert": "OK",
      "vis_m": 9999,
      "fzfg": false,
      "metar_trigger": false,
      "taf_trigger": false,
      "metar": "METAR LZTT 091830Z 28003KT 9999 FEW063 M12/M13 Q0998",
      "taf": "TAF LZTT 091715Z 0918/1018 VRB02KT 9999 BKN045"
    },
    {
      "icao": "OEJN",
      "alert": "OK",
      "vis_m": 9999,
      "fzfg": false,
      "metar_trigger": false,
      "taf_trigger": false,
      "metar": "METAR OEJN 091800Z 22004KT 9999 SCT040 26/17 Q1014 NOSIG",
      "taf": "TAF OEJN 091700Z 0918/1024 04006KT 6000 SCT040"
    },
    {
      "icao": "OEMA",
      "alert": "OK",
      "vis_m": 9999,
      "fzfg": false,
      "metar_trigger": false,
      "taf_trigger": false,
      "metar": "METAR OEMA 091800Z 22009KT CAVOK 23/09 Q1018 NOSIG",
      "taf": "TAF OEMA 091700Z 0918/1024 30010KT 7000 SCT040"
    },
    {
      "icao": "OJAI",
      "alert": "OK",
      "vis_m": null,
      "fzfg": false,
      "metar_trigger": false,
      "taf_trigger": false,
      "metar": "",
      "taf": "TAF OJAI 091700Z 0918/1024 26016KT 2500 RA BR SCT030 BKN035"
    },
    {
      "icao": "OMAA",
      "alert": "OK",
      "vis_m": 9999,
      "fzfg": false,
      "metar_trigger": false,
      "taf_trigger": false,
      "metar": "METAR OMAA 091800Z 03005KT CAVOK 19/13 Q1018 NOSIG",
      "taf": "TAF OMAA 091700Z 0918/1100 VRB02KT 8000 NSC"
    },
    {
      "icao": "OMDB",
      "alert": "OK",
      "vis_m": 9999,
      "fzfg": false,
      "metar_trigger": false,
      "taf_trigger": false,
      "metar": "METAR OMDB 091830Z 06003KT 020V130 CAVOK 22/12 Q1019 NOSIG",
      "taf": "TAF OMDB 091700Z 0918/1100 12005KT 8000 NSC"
    },
    {
      "icao": "UAAA",
      "alert": "OK",
      "vis_m": 1900,
      "fzfg": false,
      "metar_trigger": false,
      "taf_trigger": false,
      "metar": "METAR UAAA 091830Z VRB01MPS 1900 R23L/P2000D BR OVC006 M05/M06 Q1021 NOSIG RMK QBB180",
      "taf": "TAF UAAA 091701Z 0918/1018 17003MPS 1200 BR FU BKN011 OVC020 TX03/1009Z TNM07/1001Z"
    },
    {
      "icao": "UBBB",
      "alert": "OK",
      "vis_m": 3000,
      "fzfg": false,
      "metar_trigger": false,
      "taf_trigger": false,
      "metar": "METAR UBBB 091830Z 31014KT 3000 BR BKN004 09/07 Q1002 NOSIG",
      "taf": ""
    },
    {
      "icao": "UDSG",
      "alert": "OK",
      "vis_m": 1500,
      "fzfg": false,
      "metar_trigger": false,
      "taf_trigger": false,
      "metar": "METAR UDSG 091830Z 03004KT 1500 R02/P2000D BR OVC023 M03/M03 Q1005 NOSIG",
      "taf": "TAF UDSG 091700Z 0918/1018 VRB06KT 1500 BR OVC020"
    },
    {
      "icao": "UDYZ",
      "alert": "OK",
      "vis_m": 1900,
      "fzfg": false,
      "metar_trigger": false,
      "taf_trigger": false,
      "metar": "METAR UDYZ 091830Z 34003KT 1900 R08/P2000D BR BKN033CB M00/M02 Q1006 NOSIG",
      "taf": "TAF UDYZ 091700Z 0918/1018 24006KT 1000 BR BKN030CB"
    },
    {
      "icao": "UGKO",
      "alert": "OK",
      "vis_m": 9999,
      "fzfg": false,
      "metar_trigger": false,
      "taf_trigger": false,
      "metar": "METAR UGKO 091830Z 06007KT 9999 OVC052 06/05 Q1006 NOSIG",
      "taf": "TAF UGKO 091700Z 0918/1018 25010KT 9999 OVC050 TX09/1012Z TN04/1003Z"
    }
  ]
}