{
  "ts_utc": "2026-06-13T21:38:21Z",
  "threshold_m": 150,
  "source": "stations_override.txt (ICAO list) + aviationweather.gov (METAR/TAF raw)",
  "station_count": 159,
  "stations": [
    {
      "icao": "BIKF",
      "alert": "OK",
      "vis_m": 9999,
      "fzfg": false,
      "metar_trigger": false,
      "taf_trigger": false,
      "metar": "METAR BIKF 132130Z 17012KT 9999 BKN011 11/09 Q1025",
      "taf": "TAF BIKF 131959Z 1321/1421 16015KT 9999 BKN020 TX14/1415Z TN06/1404Z"
    },
    {
      "icao": "BKPR",
      "alert": "OK",
      "vis_m": 9999,
      "fzfg": false,
      "metar_trigger": false,
      "taf_trigger": false,
      "metar": "METAR BKPR 132130Z VRB01KT CAVOK 14/10 Q1020 NOSIG",
      "taf": "TAF BKPR 131730Z 1318/1418 02007KT CAVOK"
    },
    {
      "icao": "EBCI",
      "alert": "OK",
      "vis_m": 9999,
      "fzfg": false,
      "metar_trigger": false,
      "taf_trigger": false,
      "metar": "METAR EBCI 132120Z 24003KT 9999 BKN045 14/10 Q1020 NOSIG",
      "taf": "TAF EBCI 131720Z 1318/1424 28010KT 9999 FEW038"
    },
    {
      "icao": "EDDB",
      "alert": "OK",
      "vis_m": 9999,
      "fzfg": false,
      "metar_trigger": false,
      "taf_trigger": false,
      "metar": "METAR EDDB 132120Z AUTO 27012KT 250V310 CAVOK 13/08 Q1013 NOSIG",
      "taf": "TAF EDDB 131700Z 1318/1418 30015G25KT 9999 FEW025"
    },
    {
      "icao": "EDDH",
      "alert": "OK",
      "vis_m": 9999,
      "fzfg": false,
      "metar_trigger": false,
      "taf_trigger": false,
      "metar": "METAR EDDH 132120Z AUTO 25009KT 9999 SHRA FEW027 FEW///TCU 12/09 Q1012 TEMPO 28014KT NSW",
      "taf": "TAF EDDH 131700Z 1318/1424 27013G23KT 9999 SCT025"
    },
    {
      "icao": "EDDK",
      "alert": "OK",
      "vis_m": 9999,
      "fzfg": false,
      "metar_trigger": false,
      "taf_trigger": false,
      "metar": "METAR EDDK 132120Z AUTO 30008KT CAVOK 14/08 Q1019 NOSIG",
      "taf": "TAF EDDK 131700Z 1318/1424 30015KT 9999 SCT045"
    },
    {
      "icao": "EDDN",
      "alert": "OK",
      "vis_m": 9999,
      "fzfg": false,
      "metar_trigger": false,
      "taf_trigger": false,
      "metar": "METAR EDDN 132120Z AUTO 31005KT CAVOK 17/09 Q1017 NOSIG",
      "taf": "TAF EDDN 131700Z 1318/1418 29013KT CAVOK"
    },
    {
      "icao": "EDDS",
      "alert": "OK",
      "vis_m": 9999,
      "fzfg": false,
      "metar_trigger": false,
      "taf_trigger": false,
      "metar": "METAR EDDS 132120Z AUTO 27005KT 240V300 CAVOK 19/11 Q1017",
      "taf": "TAF EDDS 131700Z 1318/1418 28015G25KT CAVOK"
    },
    {
      "icao": "EDFH",
      "alert": "OK",
      "vis_m": 9999,
      "fzfg": false,
      "metar_trigger": false,
      "taf_trigger": false,
      "metar": "METAR EDFH 132120Z 32008KT 280V350 CAVOK 14/08 Q1019",
      "taf": "TAF EDFH 131700Z 1318/1418 28011KT CAVOK"
    },
    {
      "icao": "EDJA",
      "alert": "OK",
      "vis_m": 9999,
      "fzfg": false,
      "metar_trigger": false,
      "taf_trigger": false,
      "metar": "METAR EDJA 132120Z AUTO 22008KT 9999 // FEW150/// 16/12 Q1019",
      "taf": "TAF EDJA 131700Z 1318/1403 25020G30KT CAVOK"
    },
    {
      "icao": "EDLW",
      "alert": "OK",
      "vis_m": 9999,
      "fzfg": false,
      "metar_trigger": false,
      "taf_trigger": false,
      "metar": "METAR EDLW 132120Z AUTO 26005KT 210V310 9999 // FEW035/// OVC067/// 13/08 Q1018",
      "taf": "TAF EDLW 131700Z 1318/1418 26007KT 9999 SCT045"
    },
    {
      "icao": "EDNY",
      "alert": "OK",
      "vis_m": 9999,
      "fzfg": false,
      "metar_trigger": false,
      "taf_trigger": false,
      "metar": "METAR EDNY 132120Z AUTO 00000KT 9999 // NCD 18/13 Q1019",
      "taf": "TAF EDNY 131700Z 1318/1403 26009KT CAVOK"
    },
    {
      "icao": "EDSB",
      "alert": "OK",
      "vis_m": 9999,
      "fzfg": false,
      "metar_trigger": false,
      "taf_trigger": false,
      "metar": "METAR EDSB 132120Z 27003KT 240V300 CAVOK 21/12 Q1018",
      "taf": "TAF EDSB 131700Z 1318/1418 27006KT CAVOK"
    },
    {
      "icao": "EETN",
      "alert": "OK",
      "vis_m": 8000,
      "fzfg": false,
      "metar_trigger": false,
      "taf_trigger": false,
      "metar": "METAR EETN 132120Z 27011KT 8000 -SHRA BKN005 BKN013 FEW016CB 11/10 Q1001 TEMPO 4000 SHRA BKN004",
      "taf": "TAF EETN 131730Z 1318/1418 33010KT 9999 SCT012 BKN030"
    },
    {
      "icao": "EFTU",
      "alert": "OK",
      "vis_m": 9999,
      "fzfg": false,
      "metar_trigger": false,
      "taf_trigger": false,
      "metar": "METAR EFTU 132120Z AUTO 30005KT 9999 SHRA OVC041 //////CB 10/10 Q1004",
      "taf": "TAF EFTU 132025Z 1321/1421 30007KT 9999 -RA BKN045"
    },
    {
      "icao": "EGBB",
      "alert": "OK",
      "vis_m": 9999,
      "fzfg": false,
      "metar_trigger": false,
      "taf_trigger": false,
      "metar": "METAR EGBB 132120Z 32007KT 9999 SCT045 14/07 Q1022",
      "taf": "TAF EGBB 131659Z 1318/1418 31012KT 9999 SCT045"
    },
    {
      "icao": "EGGP",
      "alert": "OK",
      "vis_m": 9999,
      "fzfg": false,
      "metar_trigger": false,
      "taf_trigger": false,
      "metar": "METAR EGGP 132120Z 30013KT 9999 BKN024 13/08 Q1022",
      "taf": "TAF EGGP 131657Z 1318/1418 28020G30KT 9999 SCT025"
    },
    {
      "icao": "EGGW",
      "alert": "OK",
      "vis_m": 9999,
      "fzfg": false,
      "metar_trigger": false,
      "taf_trigger": false,
      "metar": "METAR EGGW 132120Z AUTO 33010KT 9999 FEW043 14/06 Q1021",
      "taf": "TAF EGGW 131657Z 1318/1418 30008KT 9999 FEW032"
    },
    {
      "icao": "EGKK",
      "alert": "OK",
      "vis_m": 9999,
      "fzfg": false,
      "metar_trigger": false,
      "taf_trigger": false,
      "metar": "METAR EGKK 132120Z 31007KT 9999 FEW044 18/08 Q1021",
      "taf": "TAF EGKK 131658Z 1318/1424 28010KT 9999 FEW035"
    },
    {
      "icao": "EGNM",
      "alert": "OK",
      "vis_m": 9999,
      "fzfg": false,
      "metar_trigger": false,
      "taf_trigger": false,
      "metar": "METAR EGNM 132120Z 28014G24KT 9999 FEW032 11/07 Q1019",
      "taf": "TAF EGNM 131702Z 1318/1418 26020G30KT 9999 SCT025"
    },
    {
      "icao": "EGPD",
      "alert": "OK",
      "vis_m": 9999,
      "fzfg": false,
      "metar_trigger": false,
      "taf_trigger": false,
      "metar": "METAR EGPD 132120Z COR AUTO 31010KT 9999 SCT023 12/09 Q1017 NOSIG",
      "taf": ""
    },
    {
      "icao": "EGPF",
      "alert": "OK",
      "vis_m": 9999,
      "fzfg": false,
      "metar_trigger": false,
      "taf_trigger": false,
      "metar": "METAR EGPF 132120Z AUTO 26008KT 9999 OVC032 12/09 Q1020",
      "taf": "TAF EGPF 131655Z 1318/1418 27010KT 9999 BKN030"
    },
    {
      "icao": "EHBK",
      "alert": "OK",
      "vis_m": 9999,
      "fzfg": false,
      "metar_trigger": false,
      "taf_trigger": false,
      "metar": "METAR EHBK 132125Z AUTO 26003KT 210V310 9999 NSC 14/09 Q1019",
      "taf": "TAF EHBK 131712Z 1318/1424 30010KT 9999 BKN040"
    },
    {
      "icao": "EHEH",
      "alert": "OK",
      "vis_m": 9999,
      "fzfg": false,
      "metar_trigger": false,
      "taf_trigger": false,
      "metar": "METAR EHEH 132125Z AUTO VRB02KT 9999 OVC059 14/09 Q1019 BLU",
      "taf": "TAF EHEH 131701Z 1318/1424 29008KT CAVOK"
    },
    {
      "icao": "EKBI",
      "alert": "OK",
      "vis_m": 9999,
      "fzfg": false,
      "metar_trigger": false,
      "taf_trigger": false,
      "metar": "METAR EKBI 132120Z 26010KT 9999 -SHRA FEW016 SCT020CB BKN045 11/09 Q1008",
      "taf": "TAF EKBI 132027Z 1321/1421 27015KT 9999 SCT020"
    },
    {
      "icao": "EKCH",
      "alert": "OK",
      "vis_m": 9999,
      "fzfg": false,
      "metar_trigger": false,
      "taf_trigger": false,
      "metar": "METAR EKCH 132121Z 25008KT 9999 FEW025CB 12/10 Q1006 NOSIG",
      "taf": "TAF EKCH 132027Z 1321/1421 26012KT 9999 BKN020"
    },
    {
      "icao": "ENAL",
      "alert": "OK",
      "vis_m": 9999,
      "fzfg": false,
      "metar_trigger": false,
      "taf_trigger": false,
      "metar": "METAR ENAL 132120Z 05007KT 9999 SCT013 SCT055 11/09 Q1010",
      "taf": ""
    },
    {
      "icao": "ENBR",
      "alert": "OK",
      "vis_m": 9999,
      "fzfg": false,
      "metar_trigger": false,
      "taf_trigger": false,
      "metar": "METAR ENBR 132120Z 32008KT CAVOK 11/10 Q1007 RMK WIND 1200FT 34018KT",
      "taf": "TAF ENBR 131700Z 1318/1418 31012KT 9999 FEW015 SCT020"
    },
    {
      "icao": "ENGM",
      "alert": "OK",
      "vis_m": 9999,
      "fzfg": false,
      "metar_trigger": false,
      "taf_trigger": false,
      "metar": "METAR ENGM 132120Z 03004KT 9999 -RA FEW034 BKN041 12/10 Q1005",
      "taf": "TAF ENGM 131700Z 1318/1418 03008KT 9999 FEW012 BKN030"
    },
    {
      "icao": "ENHD",
      "alert": "OK",
      "vis_m": 9999,
      "fzfg": false,
      "metar_trigger": false,
      "taf_trigger": false,
      "metar": "METAR ENHD 132120Z AUTO 33016KT 9999 OVC011/// 12/10 Q1007",
      "taf": "TAF ENHD 131400Z 1315/1322 34012KT 9999 SCT015"
    },
    {
      "icao": "ENTC",
      "alert": "OK",
      "vis_m": 9999,
      "fzfg": false,
      "metar_trigger": false,
      "taf_trigger": false,
      "metar": "METAR ENTC 132120Z AUTO 29008KT 270V340 9999 +DZRA BKN021/// OVC026/// 10/06 Q1014 RMK WIND 2600FT 32014KT",
      "taf": "TAF ENTC 131700Z 1318/1418 27008KT 9999 FEW030 BKN045"
    },
    {
      "icao": "ENTO",
      "alert": "OK",
      "vis_m": 9999,
      "fzfg": false,
      "metar_trigger": false,
      "taf_trigger": false,
      "metar": "METAR ENTO 132120Z AUTO 36004KT 9999 NCD 10/10 Q1005",
      "taf": "TAF ENTO 131700Z 1318/1418 18007KT 9999 FEW015 BKN030"
    },
    {
      "icao": "ENVA",
      "alert": "OK",
      "vis_m": 9999,
      "fzfg": false,
      "metar_trigger": false,
      "taf_trigger": false,
      "metar": "METAR ENVA 132120Z VRB02KT CAVOK 15/11 Q1009 RMK WIND 670FT 36004KT",
      "taf": "TAF ENVA 131700Z 1318/1418 24005KT 9999 FEW045"
    },
    {
      "icao": "ENZV",
      "alert": "OK",
      "vis_m": 9999,
      "fzfg": false,
      "metar_trigger": false,
      "taf_trigger": false,
      "metar": "METAR ENZV 132120Z 33013KT 9999 BKN013 12/10 Q1007",
      "taf": "TAF ENZV 131700Z 1318/1418 34018KT 9999 FEW030"
    },
    {
      "icao": "EPGD",
      "alert": "OK",
      "vis_m": 9999,
      "fzfg": false,
      "metar_trigger": false,
      "taf_trigger": false,
      "metar": "METAR EPGD 132130Z 24008KT 9999 FEW019 SCT035 11/09 Q1006",
      "taf": "TAF EPGD 131730Z 1318/1418 26010KT 9999 BKN035"
    },
    {
      "icao": "EPKK",
      "alert": "OK",
      "vis_m": 9999,
      "fzfg": false,
      "metar_trigger": false,
      "taf_trigger": false,
      "metar": "METAR EPKK 132130Z 20007KT 9999 -SHRA FEW046CB BKN057 14/13 Q1013 RESHRA",
      "taf": "TAF EPKK 132030Z 1321/1421 24008KT 9999 SCT040"
    },
    {
      "icao": "EPKT",
      "alert": "OK",
      "vis_m": 5000,
      "fzfg": false,
      "metar_trigger": false,
      "taf_trigger": false,
      "metar": "METAR EPKT 132130Z 29008KT 5000 SHRA BKN052CB 12/11 Q1014",
      "taf": "TAF EPKT 131730Z 1318/1418 30010KT 9999 BKN040"
    },
    {
      "icao": "EPLB",
      "alert": "OK",
      "vis_m": 9999,
      "fzfg": false,
      "metar_trigger": false,
      "taf_trigger": false,
      "metar": "METAR EPLB 132130Z 24008KT CAVOK 14/13 Q1010",
      "taf": "TAF EPLB 131730Z 1318/1418 26008KT 9999 SCT040"
    },
    {
      "icao": "EPMO",
      "alert": "OK",
      "vis_m": 9999,
      "fzfg": false,
      "metar_trigger": false,
      "taf_trigger": false,
      "metar": "METAR EPMO 132130Z 25013KT 9999 -SHRA SCT051CB 13/13 Q1009 RESHRA",
      "taf": "TAF EPMO 131730Z 1318/1418 25008KT CAVOK"
    },
    {
      "icao": "EPPO",
      "alert": "OK",
      "vis_m": 9999,
      "fzfg": false,
      "metar_trigger": false,
      "taf_trigger": false,
      "metar": "METAR EPPO 132130Z 25008KT CAVOK 12/11 Q1011",
      "taf": "TAF EPPO 131730Z 1318/1418 24010KT 9999 BKN040"
    },
    {
      "icao": "EPRA",
      "alert": "OK",
      "vis_m": 9999,
      "fzfg": false,
      "metar_trigger": false,
      "taf_trigger": false,
      "metar": "METAR EPRA 132130Z 23008KT CAVOK 14/12 Q1010",
      "taf": "TAF EPRA 132030Z 1321/1406 26008KT CAVOK"
    },
    {
      "icao": "EPRZ",
      "alert": "OK",
      "vis_m": 9999,
      "fzfg": false,
      "metar_trigger": false,
      "taf_trigger": false,
      "metar": "METAR EPRZ 132130Z 26009KT CAVOK 14/13 Q1012",
      "taf": "TAF EPRZ 131730Z 1318/1418 29010KT CAVOK"
    },
    {
      "icao": "EPSC",
      "alert": "OK",
      "vis_m": 9999,
      "fzfg": false,
      "metar_trigger": false,
      "taf_trigger": false,
      "metar": "METAR EPSC 132130Z 24007KT 9999 FEW033 12/09 Q1009",
      "taf": "TAF EPSC 131730Z 1318/1418 26010KT 9999 BKN035"
    },
    {
      "icao": "EPSY",
      "alert": "OK",
      "vis_m": 9999,
      "fzfg": false,
      "metar_trigger": false,
      "taf_trigger": false,
      "metar": "METAR EPSY 132130Z 25005KT CAVOK 11/11 Q1007",
      "taf": "TAF EPSY 132030Z 1321/1406 26005KT 9999 SCT045"
    },
    {
      "icao": "EPWA",
      "alert": "OK",
      "vis_m": 9999,
      "fzfg": false,
      "metar_trigger": false,
      "taf_trigger": false,
      "metar": "METAR EPWA 132130Z 25008KT 9999 FEW038CB 14/12 Q1009 NOSIG",
      "taf": "TAF EPWA 132030Z 1321/1421 25006KT 9999 SCT030"
    },
    {
      "icao": "EPWR",
      "alert": "OK",
      "vis_m": 9999,
      "fzfg": false,
      "metar_trigger": false,
      "taf_trigger": false,
      "metar": "METAR EPWR 132130Z 27008KT 9999 FEW031 13/11 Q1013",
      "taf": "TAF EPWR 132030Z 1321/1421 28010KT 9999 SCT035"
    },
    {
      "icao": "ESGG",
      "alert": "OK",
      "vis_m": 9999,
      "fzfg": false,
      "metar_trigger": false,
      "taf_trigger": false,
      "metar": "METAR ESGG 132120Z 00000KT CAVOK 11/10 Q1003",
      "taf": "TAF ESGG 132030Z 1321/1421 VRB03KT 9999 SCT045"
    },
    {
      "icao": "ESKN",
      "alert": "OK",
      "vis_m": 9999,
      "fzfg": false,
      "metar_trigger": false,
      "taf_trigger": false,
      "metar": "METAR ESKN 132120Z 05004KT 010V100 9999 -RA SCT004 BKN009 BKN012 12/12 Q1003",
      "taf": "TAF ESKN 132030Z 1321/1421 04005KT 9999 -RA BKN020"
    },
    {
      "icao": "ESMS",
      "alert": "OK",
      "vis_m": 9999,
      "fzfg": false,
      "metar_trigger": false,
      "taf_trigger": false,
      "metar": "METAR ESMS 132120Z 26007KT 9999 FEW010 BKN040 11/10 Q1005",
      "taf": "TAF ESMS 132027Z 1321/1421 29012KT 9999 BKN020"
    },
    {
      "icao": "ESSA",
      "alert": "OK",
      "vis_m": 9999,
      "fzfg": false,
      "metar_trigger": false,
      "taf_trigger": false,
      "metar": "METAR ESSA 132120Z 08005KT CAVOK 11/06 Q1004 NOSIG",
      "taf": "TAF ESSA 132030Z 1321/1421 06005KT CAVOK"
    },
    {
      "icao": "EYKA",
      "alert": "OK",
      "vis_m": 9999,
      "fzfg": false,
      "metar_trigger": false,
      "taf_trigger": false,
      "metar": "METAR EYKA 132120Z AUTO 24007KT 9999 FEW012/// 12/12 Q1005",
      "taf": "TAF EYKA 131700Z 1318/1418 VRB05KT 9000 SCT015 BKN025"
    },
    {
      "icao": "EYPA",
      "alert": "OK",
      "vis_m": 9999,
      "fzfg": false,
      "metar_trigger": false,
      "taf_trigger": false,
      "metar": "METAR EYPA 132120Z 24003KT 200V300 9999 FEW016 13/11 Q1003",
      "taf": "TAF EYPA 131700Z 1318/1418 VRB05KT 9000 SCT005 BKN015"
    },
    {
      "icao": "EYVI",
      "alert": "OK",
      "vis_m": 9000,
      "fzfg": false,
      "metar_trigger": false,
      "taf_trigger": false,
      "metar": "METAR EYVI 132120Z 21008KT 9000 BKN005 13/12 Q1005 TEMPO 1500 BR BKN002",
      "taf": "TAF EYVI 131700Z 1318/1418 VRB05KT 9000 SCT010 BKN025"
    },
    {
      "icao": "GCFV",
      "alert": "OK",
      "vis_m": 9999,
      "fzfg": false,
      "metar_trigger": false,
      "taf_trigger": false,
      "metar": "METAR GCFV 132130Z 35013KT CAVOK 21/16 Q1020",
      "taf": "TAF GCFV 132000Z 1321/1421 36012KT 9999 SCT018 TX25/1414Z TN19/1406Z"
    },
    {
      "icao": "GCLP",
      "alert": "OK",
      "vis_m": 9999,
      "fzfg": false,
      "metar_trigger": false,
      "taf_trigger": false,
      "metar": "METAR GCLP 132130Z 01024KT 9999 FEW030 20/15 Q1020 NOSIG",
      "taf": "TAF GCLP 132000Z 1321/1421 36021KT 9999 FEW030 TX24/1414Z TN19/1406Z"
    },
    {
      "icao": "GCTS",
      "alert": "OK",
      "vis_m": 9999,
      "fzfg": false,
      "metar_trigger": false,
      "taf_trigger": false,
      "metar": "METAR GCTS 132130Z 09006KT 9999 FEW025 21/17 Q1020 NOSIG",
      "taf": "TAF GCTS 132000Z 1321/1421 03006KT 9999 FEW020 TX26/1414Z TN18/1406Z"
    },
    {
      "icao": "GMAD",
      "alert": "OK",
      "vis_m": 8000,
      "fzfg": false,
      "metar_trigger": false,
      "taf_trigger": false,
      "metar": "METAR GMAD 132130Z 19004KT 8000 FEW015 SCT100 19/17 Q1019 NOSIG",
      "taf": "TAF GMAD 131700Z 1318/1424 20008KT 8000 SCT020 SCT100"
    },
    {
      "icao": "GMMN",
      "alert": "OK",
      "vis_m": 9999,
      "fzfg": false,
      "metar_trigger": false,
      "taf_trigger": false,
      "metar": "METAR GMMN 132131Z COR 29007KT 280V340 CAVOK 19/16 Q1019 NOSIG",
      "taf": "TAF GMMN 131700Z 1318/1424 32008KT CAVOK"
    },
    {
      "icao": "GMMX",
      "alert": "OK",
      "vis_m": 9999,
      "fzfg": false,
      "metar_trigger": false,
      "taf_trigger": false,
      "metar": "METAR GMMX 132130Z 25007KT 230V290 9999 FEW033 SCT100 26/15 Q1019 NOSIG",
      "taf": "TAF GMMX 131700Z 1318/1424 28006KT 8000 SCT033 FEW040CB BKN100"
    },
    {
      "icao": "HEGN",
      "alert": "OK",
      "vis_m": 9999,
      "fzfg": false,
      "metar_trigger": false,
      "taf_trigger": false,
      "metar": "METAR HEGN 132100Z 30013KT CAVOK 32/06 Q1010 NOSIG",
      "taf": "TAF HEGN 131700Z 1318/1424 31015KT CAVOK"
    },
    {
      "icao": "HEMA",
      "alert": "OK",
      "vis_m": 9999,
      "fzfg": false,
      "metar_trigger": false,
      "taf_trigger": false,
      "metar": "METAR HEMA 132100Z 31012KT CAVOK 31/07 Q1009 NOSIG",
      "taf": "TAF HEMA 131700Z 1318/1424 32015KT CAVOK"
    },
    {
      "icao": "HESH",
      "alert": "OK",
      "vis_m": 9999,
      "fzfg": false,
      "metar_trigger": false,
      "taf_trigger": false,
      "metar": "METAR HESH 132100Z 35014KT CAVOK 30/14 Q1009 NOSIG",
      "taf": "TAF HESH 131700Z 1318/1424 35014KT CAVOK"
    },
    {
      "icao": "HESX",
      "alert": "OK",
      "vis_m": 9999,
      "fzfg": false,
      "metar_trigger": false,
      "taf_trigger": false,
      "metar": "METAR HESX 132100Z 36005KT CAVOK 26/18 Q1011 NOSIG",
      "taf": "TAF HESX 131700Z 1318/1424 36009KT CAVOK"
    },
    {
      "icao": "LATI",
      "alert": "OK",
      "vis_m": 9999,
      "fzfg": false,
      "metar_trigger": false,
      "taf_trigger": false,
      "metar": "METAR LATI 132120Z VRB03KT CAVOK 18/15 Q1017 NOSIG",
      "taf": "TAF LATI 131700Z 1318/1418 34014KT CAVOK TX31/1412Z TN16/1404Z"
    },
    {
      "icao": "LBPD",
      "alert": "OK",
      "vis_m": 9999,
      "fzfg": false,
      "metar_trigger": false,
      "taf_trigger": false,
      "metar": "METAR LBPD 132130Z AUTO 00000KT 9999 NCD 15/12 Q1017",
      "taf": "TAF LBPD 131700Z 1318/1418 VRB03KT 9999 SCT060"
    },
    {
      "icao": "LBSF",
      "alert": "OK",
      "vis_m": 9999,
      "fzfg": false,
      "metar_trigger": false,
      "taf_trigger": false,
      "metar": "METAR LBSF 132130Z AUTO VRB01KT 9999 NCD 14/10 Q1019 NOSIG",
      "taf": "TAF LBSF 131700Z 1318/1418 35010KT 9999 SCT060"
    },
    {
      "icao": "LBWN",
      "alert": "OK",
      "vis_m": 9999,
      "fzfg": false,
      "metar_trigger": false,
      "taf_trigger": false,
      "metar": "METAR LBWN 132130Z AUTO 32003KT 9999 NCD 14/11 Q1016 NOSIG",
      "taf": "TAF LBWN 131700Z 1318/1418 35010KT 9999 BKN045"
    },
    {
      "icao": "LCLK",
      "alert": "OK",
      "vis_m": 9999,
      "fzfg": false,
      "metar_trigger": false,
      "taf_trigger": false,
      "metar": "METAR LCLK 132130Z 32002KT CAVOK 23/20 Q1008 NOSIG",
      "taf": "TAF LCLK 131730Z 1318/1418 26008KT CAVOK"
    },
    {
      "icao": "LCPH",
      "alert": "OK",
      "vis_m": 9999,
      "fzfg": false,
      "metar_trigger": false,
      "taf_trigger": false,
      "metar": "METAR LCPH 132130Z 36003KT 9999 SCT014 23/21 Q1009 NOSIG",
      "taf": "TAF LCPH 131730Z 1318/1418 34008KT 9999 SCT015"
    },
    {
      "icao": "LEAL",
      "alert": "OK",
      "vis_m": 9999,
      "fzfg": false,
      "metar_trigger": false,
      "taf_trigger": false,
      "metar": "METAR LEAL 132130Z 02003KT 340V070 CAVOK 25/13 Q1019 NOSIG",
      "taf": "TAF LEAL 131700Z 1318/1418 08010KT CAVOK TX29/1412Z TN19/1406Z"
    },
    {
      "icao": "LEBB",
      "alert": "OK",
      "vis_m": 9999,
      "fzfg": false,
      "metar_trigger": false,
      "taf_trigger": false,
      "metar": "METAR LEBB 132130Z 11002KT CAVOK 25/17 Q1016 NOSIG",
      "taf": "TAF LEBB 131700Z 1318/1418 10005KT CAVOK TX34/1413Z TN18/1405Z"
    },
    {
      "icao": "LEBL",
      "alert": "OK",
      "vis_m": 9999,
      "fzfg": false,
      "metar_trigger": false,
      "taf_trigger": false,
      "metar": "METAR LEBL 132130Z 25006KT 9999 FEW040 24/15 Q1019 NOSIG",
      "taf": "TAF LEBL 131700Z 1318/1418 21012KT 9999 FEW020 TX30/1412Z TN21/1406Z"
    },
    {
      "icao": "LECH",
      "alert": "OK",
      "vis_m": 9999,
      "fzfg": false,
      "metar_trigger": false,
      "taf_trigger": false,
      "metar": "METAR LECH 132130Z AUTO 23003KT CAVOK 23/08 Q1021",
      "taf": "TAF LECH 131700Z 1318/1418 13010KT CAVOK TX32/1413Z TN16/1406Z"
    },
    {
      "icao": "LEMD",
      "alert": "OK",
      "vis_m": 9999,
      "fzfg": false,
      "metar_trigger": false,
      "taf_trigger": false,
      "metar": "METAR LEMD 132130Z 14005KT CAVOK 27/06 Q1019 NOSIG",
      "taf": "TAF LEMD 131700Z 1318/1424 VRB04KT CAVOK TX33/1416Z TN18/1405Z"
    },
    {
      "icao": "LEMG",
      "alert": "OK",
      "vis_m": 9999,
      "fzfg": false,
      "metar_trigger": false,
      "taf_trigger": false,
      "metar": "METAR LEMG 132130Z 15004KT CAVOK 22/16 Q1019 NOSIG",
      "taf": "TAF LEMG 131700Z 1318/1418 14010KT CAVOK TX29/1414Z TN19/1406Z"
    },
    {
      "icao": "LEVC",
      "alert": "OK",
      "vis_m": 9999,
      "fzfg": false,
      "metar_trigger": false,
      "taf_trigger": false,
      "metar": "METAR LEVC 132130Z 24004KT CAVOK 23/09 Q1020 NOSIG",
      "taf": "TAF LEVC 131700Z 1318/1418 12010KT CAVOK TX32/1412Z TN19/1406Z"
    },
    {
      "icao": "LEXJ",
      "alert": "OK",
      "vis_m": 9999,
      "fzfg": false,
      "metar_trigger": false,
      "taf_trigger": false,
      "metar": "METAR LEXJ 132130Z AUTO 26003KT 230V300 CAVOK 23/17 Q1016",
      "taf": ""
    },
    {
      "icao": "LEZG",
      "alert": "OK",
      "vis_m": 9999,
      "fzfg": false,
      "metar_trigger": false,
      "taf_trigger": false,
      "metar": "METAR LEZG 132130Z 11006KT CAVOK 28/08 Q1018 NOSIG",
      "taf": "TAF LEZG 131700Z 1318/1418 10009KT CAVOK TX37/1415Z TN20/1406Z"
    },
    {
      "icao": "LEZL",
      "alert": "OK",
      "vis_m": 9999,
      "fzfg": false,
      "metar_trigger": false,
      "taf_trigger": false,
      "metar": "METAR LEZL 132130Z 29009KT CAVOK 28/15 Q1016 NOSIG",
      "taf": "TAF LEZL 132000Z 1321/1421 28010KT CAVOK TX31/1415Z TN18/1406Z"
    },
    {
      "icao": "LFBD",
      "alert": "OK",
      "vis_m": 9999,
      "fzfg": false,
      "metar_trigger": false,
      "taf_trigger": false,
      "metar": "METAR LFBD 132130Z AUTO 05006KT CAVOK 27/08 Q1019 NOSIG",
      "taf": "TAF LFBD 131700Z 1318/1424 09010KT CAVOK TX34/1415Z TN19/1404Z"
    },
    {
      "icao": "LFLL",
      "alert": "OK",
      "vis_m": 9999,
      "fzfg": false,
      "metar_trigger": false,
      "taf_trigger": false,
      "metar": "METAR LFLL 132130Z VRB01KT CAVOK 22/14 Q1021 NOSIG",
      "taf": "TAF LFLL 131700Z 1318/1424 36008KT CAVOK"
    },
    {
      "icao": "LFLS",
      "alert": "OK",
      "vis_m": 9999,
      "fzfg": false,
      "metar_trigger": false,
      "taf_trigger": false,
      "metar": "METAR LFLS 132130Z AUTO 12005KT CAVOK 16/12 Q1021",
      "taf": "TAF LFLS 131400Z 1315/1415 35009KT CAVOK"
    },
    {
      "icao": "LFMN",
      "alert": "OK",
      "vis_m": 9999,
      "fzfg": false,
      "metar_trigger": false,
      "taf_trigger": false,
      "metar": "METAR LFMN 132130Z 24005KT CAVOK 21/17 Q1019 NOSIG",
      "taf": "TAF LFMN 132000Z 1321/1503 22008KT CAVOK"
    },
    {
      "icao": "LFOB",
      "alert": "OK",
      "vis_m": 9999,
      "fzfg": false,
      "metar_trigger": false,
      "taf_trigger": false,
      "metar": "METAR LFOB 132130Z AUTO 31004KT CAVOK 12/09 Q1021 NOSIG",
      "taf": "TAF LFOB 131700Z 1318/1418 28010KT CAVOK"
    },
    {
      "icao": "LFPO",
      "alert": "OK",
      "vis_m": 9999,
      "fzfg": false,
      "metar_trigger": false,
      "taf_trigger": false,
      "metar": "METAR LFPO 132130Z AUTO 30005KT CAVOK 21/12 Q1021 NOSIG",
      "taf": "TAF LFPO 131700Z 1318/1424 30008KT CAVOK"
    },
    {
      "icao": "LFSB",
      "alert": "OK",
      "vis_m": 9999,
      "fzfg": false,
      "metar_trigger": false,
      "taf_trigger": false,
      "metar": "METAR LFSB 132130Z AUTO 28007KT CAVOK 21/14 Q1019 NOSIG",
      "taf": "TAF LFSB 131700Z 1318/1418 27008KT CAVOK"
    },
    {
      "icao": "LGAV",
      "alert": "OK",
      "vis_m": 9999,
      "fzfg": false,
      "metar_trigger": false,
      "taf_trigger": false,
      "metar": "METAR LGAV 132120Z 36005KT 9999 FEW025 19/10 Q1017 NOSIG",
      "taf": "TAF LGAV 131700Z 1318/1418 03014KT 9999 FEW025"
    },
    {
      "icao": "LGTS",
      "alert": "OK",
      "vis_m": 9999,
      "fzfg": false,
      "metar_trigger": false,
      "taf_trigger": false,
      "metar": "METAR LGTS 132120Z 12004KT 9999 FEW025 21/16 Q1017 NOSIG",
      "taf": "TAF LGTS 131700Z 1318/1418 VRB03KT 9999 FEW025"
    },
    {
      "icao": "LHBP",
      "alert": "OK",
      "vis_m": 9999,
      "fzfg": false,
      "metar_trigger": false,
      "taf_trigger": false,
      "metar": "METAR LHBP 132130Z 12004KT CAVOK 19/14 Q1014 NOSIG",
      "taf": "TAF LHBP 131715Z 1318/1418 29007KT CAVOK"
    },
    {
      "icao": "LHDC",
      "alert": "OK",
      "vis_m": 9999,
      "fzfg": false,
      "metar_trigger": false,
      "taf_trigger": false,
      "metar": "METAR LHDC 132115Z AUTO 20007KT 170V240 CAVOK 16/14 Q1014",
      "taf": "TAF LHDC 131715Z 1318/1403 22008KT CAVOK"
    },
    {
      "icao": "LIBD",
      "alert": "OK",
      "vis_m": 9999,
      "fzfg": false,
      "metar_trigger": false,
      "taf_trigger": false,
      "metar": "METAR LIBD 132120Z 21005KT CAVOK 18/12 Q1018",
      "taf": "TAF LIBD 131700Z 1318/1418 22005KT CAVOK"
    },
    {
      "icao": "LIBG",
      "alert": "OK",
      "vis_m": 9999,
      "fzfg": false,
      "metar_trigger": false,
      "taf_trigger": false,
      "metar": "METAR LIBG 132120Z AUTO VRB01KT 9999 NCD 20/09 Q1018",
      "taf": "TAF LIBG 131700Z 1318/1418 36014KT CAVOK"
    },
    {
      "icao": "LIBP",
      "alert": "OK",
      "vis_m": 9999,
      "fzfg": false,
      "metar_trigger": false,
      "taf_trigger": false,
      "metar": "METAR LIBP 132120Z AUTO 22003KT 9999 NCD 18/12 Q1018",
      "taf": "TAF LIBP 131700Z 1318/1418 VRB05KT CAVOK"
    },
    {
      "icao": "LIBR",
      "alert": "OK",
      "vis_m": 9999,
      "fzfg": false,
      "metar_trigger": false,
      "taf_trigger": false,
      "metar": "METAR LIBR 132120Z 33008KT CAVOK 22/17 Q1018",
      "taf": "TAF LIBR 131700Z 1318/1418 35013KT CAVOK"
    },
    {
      "icao": "LICA",
      "alert": "OK",
      "vis_m": 9999,
      "fzfg": false,
      "metar_trigger": false,
      "taf_trigger": false,
      "metar": "METAR LICA 132120Z AUTO 03002KT 9999 NCD 19/14 Q1019",
      "taf": "TAF LICA 131700Z 1318/1418 VRB05KT CAVOK"
    },
    {
      "icao": "LICC",
      "alert": "OK",
      "vis_m": 9999,
      "fzfg": false,
      "metar_trigger": false,
      "taf_trigger": false,
      "metar": "METAR LICC 132120Z 25004KT 210V270 CAVOK 21/14 Q1019",
      "taf": "TAF LICC 131700Z 1318/1418 VRB05KT CAVOK"
    },
    {
      "icao": "LICJ",
      "alert": "OK",
      "vis_m": 9999,
      "fzfg": false,
      "metar_trigger": false,
      "taf_trigger": false,
      "metar": "METAR LICJ 132120Z AUTO VRB02KT 9999 FEW016/// 23/19 Q1020",
      "taf": "TAF LICJ 131700Z 1318/1418 VRB05KT CAVOK"
    },
    {
      "icao": "LIMC",
      "alert": "OK",
      "vis_m": 9999,
      "fzfg": false,
      "metar_trigger": false,
      "taf_trigger": false,
      "metar": "METAR LIMC 132120Z 19005KT CAVOK 22/14 Q1017 NOSIG",
      "taf": "TAF LIMC 131700Z 1318/1424 VRB05KT CAVOK"
    },
    {
      "icao": "LIME",
      "alert": "OK",
      "vis_m": 9999,
      "fzfg": false,
      "metar_trigger": false,
      "taf_trigger": false,
      "metar": "METAR LIME 132120Z VRB03KT CAVOK 23/14 Q1017 NOSIG",
      "taf": "TAF LIME 131700Z 1318/1418 VRB05KT CAVOK"
    },
    {
      "icao": "LIMF",
      "alert": "OK",
      "vis_m": 9999,
      "fzfg": false,
      "metar_trigger": false,
      "taf_trigger": false,
      "metar": "METAR LIMF 132120Z 33005KT CAVOK 25/14 Q1016",
      "taf": "TAF LIMF 131700Z 1318/1418 VRB05KT CAVOK"
    },
    {
      "icao": "LIMJ",
      "alert": "OK",
      "vis_m": 9999,
      "fzfg": false,
      "metar_trigger": false,
      "taf_trigger": false,
      "metar": "METAR LIMJ 132120Z 12006KT CAVOK 22/19 Q1019",
      "taf": "TAF LIMJ 131700Z 1318/1418 VRB05KT CAVOK"
    },
    {
      "icao": "LIPE",
      "alert": "OK",
      "vis_m": 9999,
      "fzfg": false,
      "metar_trigger": false,
      "taf_trigger": false,
      "metar": "METAR LIPE 132120Z AUTO 19006KT 9999 NCD 25/14 Q1015",
      "taf": "TAF LIPE 131700Z 1318/1418 VRB05KT CAVOK"
    },
    {
      "icao": "LIPH",
      "alert": "OK",
      "vis_m": 9999,
      "fzfg": false,
      "metar_trigger": false,
      "taf_trigger": false,
      "metar": "METAR LIPH 132120Z AUTO 04002KT 9999 NCD 19/17 Q1017",
      "taf": "TAF LIPH 131700Z 1318/1418 VRB05KT 9999 FEW050"
    },
    {
      "icao": "LIPQ",
      "alert": "OK",
      "vis_m": 9999,
      "fzfg": false,
      "metar_trigger": false,
      "taf_trigger": false,
      "metar": "METAR LIPQ 132120Z 10004KT CAVOK 19/14 Q1017",
      "taf": "TAF LIPQ 131700Z 1318/1418 VRB05KT 9999 FEW060"
    },
    {
      "icao": "LIPR",
      "alert": "OK",
      "vis_m": 9999,
      "fzfg": false,
      "metar_trigger": false,
      "taf_trigger": false,
      "metar": "METAR LIPR 132120Z AUTO VRB02KT 9999 NCD 21/13 Q1016",
      "taf": "TAF LIPR 131700Z 1318/1418 VRB05KT CAVOK"
    },
    {
      "icao": "LIPX",
      "alert": "OK",
      "vis_m": 9999,
      "fzfg": false,
      "metar_trigger": false,
      "taf_trigger": false,
      "metar": "METAR LIPX 132120Z 11005KT CAVOK 22/18 Q1016",
      "taf": "TAF LIPX 131700Z 1318/1418 VRB05KT CAVOK"
    },
    {
      "icao": "LIPY",
      "alert": "OK",
      "vis_m": 9999,
      "fzfg": false,
      "metar_trigger": false,
      "taf_trigger": false,
      "metar": "METAR LIPY 132120Z AUTO 23006KT 9999 NCD 21/13 Q1016",
      "taf": "TAF LIPY 131700Z 1318/1418 19005KT CAVOK"
    },
    {
      "icao": "LIPZ",
      "alert": "OK",
      "vis_m": 9999,
      "fzfg": false,
      "metar_trigger": false,
      "taf_trigger": false,
      "metar": "METAR LIPZ 132120Z 11006KT CAVOK 21/18 Q1016 NOSIG",
      "taf": "TAF LIPZ 131700Z 1318/1424 05006KT CAVOK"
    },
    {
      "icao": "LIRF",
      "alert": "OK",
      "vis_m": 9999,
      "fzfg": false,
      "metar_trigger": false,
      "taf_trigger": false,
      "metar": "METAR LIRF 132120Z VRB02KT CAVOK 22/16 Q1018 NOSIG",
      "taf": "TAF LIRF 131700Z 1318/1424 30011KT CAVOK"
    },
    {
      "icao": "LIRN",
      "alert": "OK",
      "vis_m": 9999,
      "fzfg": false,
      "metar_trigger": false,
      "taf_trigger": false,
      "metar": "METAR LIRN 132120Z VRB02KT CAVOK 24/13 Q1019 NOSIG",
      "taf": "TAF LIRN 131700Z 1318/1418 VRB05KT CAVOK"
    },
    {
      "icao": "LIRP",
      "alert": "OK",
      "vis_m": 9999,
      "fzfg": false,
      "metar_trigger": false,
      "taf_trigger": false,
      "metar": "METAR LIRP 132115Z VRB02KT CAVOK 17/12 Q1019 NOSIG",
      "taf": "TAF LIRP 131700Z 1318/1418 27010KT CAVOK"
    },
    {
      "icao": "LIRZ",
      "alert": "OK",
      "vis_m": 9999,
      "fzfg": false,
      "metar_trigger": false,
      "taf_trigger": false,
      "metar": "METAR LIRZ 132120Z AUTO 19003KT 160V220 9999 NCD 23/11 Q1019",
      "taf": "TAF LIRZ 131700Z 1318/1418 VRB05KT CAVOK"
    },
    {
      "icao": "LJLJ",
      "alert": "OK",
      "vis_m": 9999,
      "fzfg": false,
      "metar_trigger": false,
      "taf_trigger": false,
      "metar": "METAR LJLJ 132130Z 04006KT CAVOK 15/14 Q1017 NOSIG",
      "taf": "TAF LJLJ 131700Z 1318/1418 29007KT 9999 FEW045"
    },
    {
      "icao": "LKMT",
      "alert": "OK",
      "vis_m": 9999,
      "fzfg": false,
      "metar_trigger": false,
      "taf_trigger": false,
      "metar": "METAR LKMT 132130Z VRB02KT CAVOK 13/12 Q1014 NOSIG",
      "taf": "TAF LKMT 131700Z 1318/1418 22008KT CAVOK"
    },
    {
      "icao": "LKPR",
      "alert": "OK",
      "vis_m": 9999,
      "fzfg": false,
      "metar_trigger": false,
      "taf_trigger": false,
      "metar": "METAR LKPR 132130Z 04004KT CAVOK 13/10 Q1015 NOSIG",
      "taf": "TAF LKPR 132000Z 1321/1503 28010KT CAVOK"
    },
    {
      "icao": "LLBG",
      "alert": "OK",
      "vis_m": 9999,
      "fzfg": false,
      "metar_trigger": false,
      "taf_trigger": false,
      "metar": "METAR LLBG 132120Z 16004KT CAVOK 23/17 Q1011 NOSIG",
      "taf": "TAF LLBG 131701Z 1318/1418 VRB04KT 9999 FEW025 TX29/1412Z TN19/1403Z"
    },
    {
      "icao": "LMML",
      "alert": "OK",
      "vis_m": 9999,
      "fzfg": false,
      "metar_trigger": false,
      "taf_trigger": false,
      "metar": "METAR LMML 132115Z VRB02KT 9999 FEW006 22/20 Q1020 NOSIG",
      "taf": "TAF LMML 131700Z 1318/1418 23005KT 9999 FEW015"
    },
    {
      "icao": "LOWW",
      "alert": "OK",
      "vis_m": 9999,
      "fzfg": false,
      "metar_trigger": false,
      "taf_trigger": false,
      "metar": "METAR LOWW 132120Z 33010KT 280V010 CAVOK 21/12 Q1014 NOSIG",
      "taf": "TAF LOWW 132015Z 1321/1503 28012KT 9999 FEW050 TX21/1321Z TN14/1503Z"
    },
    {
      "icao": "LPFR",
      "alert": "OK",
      "vis_m": 9999,
      "fzfg": false,
      "metar_trigger": false,
      "taf_trigger": false,
      "metar": "METAR LPFR 132130Z VRB01KT 9999 FEW015 21/18 Q1017",
      "taf": "TAF LPFR 131700Z 1318/1418 14010KT CAVOK"
    },
    {
      "icao": "LPMA",
      "alert": "OK",
      "vis_m": 9999,
      "fzfg": false,
      "metar_trigger": false,
      "taf_trigger": false,
      "metar": "METAR LPMA 132130Z 16005KT 100V220 9999 FEW015 20/14 Q1021",
      "taf": "TAF LPMA 131700Z 1318/1418 19007KT 9999 FEW015 BKN030"
    },
    {
      "icao": "LPPR",
      "alert": "OK",
      "vis_m": 9999,
      "fzfg": false,
      "metar_trigger": false,
      "taf_trigger": false,
      "metar": "METAR LPPR 132130Z 36007KT CAVOK 21/14 Q1017",
      "taf": "TAF LPPR 131700Z 1318/1418 31008KT 9999 SCT045"
    },
    {
      "icao": "LPPS",
      "alert": "OK",
      "vis_m": 9999,
      "fzfg": false,
      "metar_trigger": false,
      "taf_trigger": false,
      "metar": "METAR LPPS 132130Z 35013KT 9999 FEW015 BKN030 20/14 Q1022",
      "taf": "TAF LPPS 131700Z 1318/1424 34013KT 9999 SCT015 BKN030"
    },
    {
      "icao": "LPPT",
      "alert": "OK",
      "vis_m": 9999,
      "fzfg": false,
      "metar_trigger": false,
      "taf_trigger": false,
      "metar": "METAR LPPT 132130Z 30009KT CAVOK 22/15 Q1017",
      "taf": "TAF LPPT 131700Z 1318/1424 32010KT CAVOK"
    },
    {
      "icao": "LQBK",
      "alert": "OK",
      "vis_m": 9999,
      "fzfg": false,
      "metar_trigger": false,
      "taf_trigger": false,
      "metar": "METAR LQBK 132130Z 15005KT CAVOK 17/13 Q1017 NOSIG",
      "taf": "TAF LQBK 131700Z 1318/1418 15006KT CAVOK TX30/1414Z TN13/1403Z"
    },
    {
      "icao": "LQSA",
      "alert": "OK",
      "vis_m": 9999,
      "fzfg": false,
      "metar_trigger": false,
      "taf_trigger": false,
      "metar": "METAR LQSA 132130Z 13003KT CAVOK 15/11 Q1020",
      "taf": "TAF LQSA 131700Z 1318/1418 VRB02KT CAVOK TX29/1414Z TN11/1404Z"
    },
    {
      "icao": "LQTZ",
      "alert": "OK",
      "vis_m": 9999,
      "fzfg": false,
      "metar_trigger": false,
      "taf_trigger": false,
      "metar": "METAR LQTZ 132130Z VRB01KT CAVOK 13/13 Q1018",
      "taf": "TAF LQTZ 131700Z 1318/1418 06005KT CAVOK TX31/1413Z TN12/1403Z"
    },
    {
      "icao": "LRBC",
      "alert": "OK",
      "vis_m": 9999,
      "fzfg": false,
      "metar_trigger": false,
      "taf_trigger": false,
      "metar": "METAR LRBC 132130Z 35002KT CAVOK 15/13 Q1014",
      "taf": "TAF LRBC 132000Z 1321/1406 VRB04KT CAVOK"
    },
    {
      "icao": "LRBS",
      "alert": "OK",
      "vis_m": 9999,
      "fzfg": false,
      "metar_trigger": false,
      "taf_trigger": false,
      "metar": "METAR LRBS 132130Z VRB01KT CAVOK 19/13 Q1015 NOSIG",
      "taf": "TAF LRBS 131700Z 1318/1418 27006KT CAVOK"
    },
    {
      "icao": "LRBV",
      "alert": "OK",
      "vis_m": 9999,
      "fzfg": false,
      "metar_trigger": false,
      "taf_trigger": false,
      "metar": "METAR LRBV 132130Z AUTO 29005KT 9999 BKN029/// OVC037/// 15/11 Q1017",
      "taf": "TAF LRBV 131700Z 1318/1403 28006KT 9999 BKN060"
    },
    {
      "icao": "LRCL",
      "alert": "OK",
      "vis_m": 9999,
      "fzfg": false,
      "metar_trigger": false,
      "taf_trigger": false,
      "metar": "METAR LRCL 132130Z 00000KT 9999 FEW049 BKN056 16/13 Q1015",
      "taf": "TAF LRCL 132000Z 1321/1406 VRB04KT 9999 SCT045"
    },
    {
      "icao": "LRCV",
      "alert": "OK",
      "vis_m": 9999,
      "fzfg": false,
      "metar_trigger": false,
      "taf_trigger": false,
      "metar": "METAR LRCV 132130Z 30005KT CAVOK 16/13 Q1016",
      "taf": "TAF LRCV 132000Z 1321/1406 28006KT CAVOK"
    },
    {
      "icao": "LRIA",
      "alert": "OK",
      "vis_m": 9999,
      "fzfg": false,
      "metar_trigger": false,
      "taf_trigger": false,
      "metar": "METAR LRIA 132130Z 17001KT CAVOK 17/09 Q1014",
      "taf": "TAF LRIA 132000Z 1321/1406 VRB04KT CAVOK"
    },
    {
      "icao": "LROP",
      "alert": "OK",
      "vis_m": 9999,
      "fzfg": false,
      "metar_trigger": false,
      "taf_trigger": false,
      "metar": "METAR LROP 132130Z 27007KT CAVOK 17/14 Q1015 NOSIG",
      "taf": "TAF LROP 131700Z 1318/1418 27006KT CAVOK"
    },
    {
      "icao": "LRSB",
      "alert": "OK",
      "vis_m": 9999,
      "fzfg": false,
      "metar_trigger": false,
      "taf_trigger": false,
      "metar": "METAR LRSB 132130Z 17004KT 140V200 9999 FEW065 15/12 Q1017",
      "taf": "TAF LRSB 131700Z 1318/1418 30012KT 9999 BKN060"
    },
    {
      "icao": "LRSM",
      "alert": "OK",
      "vis_m": 9999,
      "fzfg": false,
      "metar_trigger": false,
      "taf_trigger": false,
      "metar": "METAR LRSM 132130Z AUTO 20005KT 9999 NCD 16/14 Q1014",
      "taf": "TAF LRSM 132000Z 1321/1406 18006KT 9999 SCT025"
    },
    {
      "icao": "LRSV",
      "alert": "OK",
      "vis_m": 9999,
      "fzfg": false,
      "metar_trigger": false,
      "taf_trigger": false,
      "metar": "METAR LRSV 132130Z 23006KT CAVOK 14/10 Q1014",
      "taf": "TAF LRSV 132000Z 1321/1406 VRB04KT CAVOK"
    },
    {
      "icao": "LRTM",
      "alert": "OK",
      "vis_m": 9999,
      "fzfg": false,
      "metar_trigger": false,
      "taf_trigger": false,
      "metar": "METAR LRTM 132130Z VRB02KT CAVOK 15/14 Q1016",
      "taf": "TAF LRTM 132000Z 1321/1406 VRB04KT 9999 SCT045"
    },
    {
      "icao": "LRTR",
      "alert": "OK",
      "vis_m": 9999,
      "fzfg": false,
      "metar_trigger": false,
      "taf_trigger": false,
      "metar": "METAR LRTR 132130Z 11004KT CAVOK 13/13 Q1016",
      "taf": "TAF LRTR 131700Z 1318/1418 VRB04KT 9999 SCT045"
    },
    {
      "icao": "LTAC",
      "alert": "OK",
      "vis_m": 9999,
      "fzfg": false,
      "metar_trigger": false,
      "taf_trigger": false,
      "metar": "METAR LTAC 132120Z 35006KT 9999 FEW040 SCT100 13/11 Q1014 NOSIG RMK RWY21C 33005KT RWY03L 33004KT RWY21R 32003KT RWY03R 33007KT RWY21L 33004KT",
      "taf": "TAF LTAC 131640Z 1318/1418 VRB02KT 9999 SCT040 SCT100"
    },
    {
      "icao": "LTFM",
      "alert": "OK",
      "vis_m": 9999,
      "fzfg": false,
      "metar_trigger": false,
      "taf_trigger": false,
      "metar": "METAR LTFM 132120Z 33005KT 290V350 CAVOK 18/12 Q1016 NOSIG RMK RWY17L VRB04KT RWY34L VRB01KT RWY16R 26004KT RWY36 34004KT 310V010 RWY18 30003KT 280V350",
      "taf": "TAF LTFM 131640Z 1318/1424 03011KT CAVOK"
    },
    {
      "icao": "LUKK",
      "alert": "OK",
      "vis_m": 9999,
      "fzfg": false,
      "metar_trigger": false,
      "taf_trigger": false,
      "metar": "METAR LUKK 132130Z 25004KT CAVOK 13/12 Q1014 NOSIG",
      "taf": "TAF LUKK 131714Z 1318/1418 VRB04KT CAVOK"
    },
    {
      "icao": "LWOH",
      "alert": "OK",
      "vis_m": 9999,
      "fzfg": false,
      "metar_trigger": false,
      "taf_trigger": false,
      "metar": "METAR LWOH 132020Z 32005KT 9999 FEW050 14/09 Q1020",
      "taf": "TAF LWOH 132020Z 1321/1421 34006KT 9999 FEW050"
    },
    {
      "icao": "LWSK",
      "alert": "OK",
      "vis_m": 9999,
      "fzfg": false,
      "metar_trigger": false,
      "taf_trigger": false,
      "metar": "METAR LWSK 132120Z VRB02KT CAVOK 15/09 Q1019 NOSIG",
      "taf": "TAF LWSK 132020Z 1321/1421 02008KT CAVOK"
    },
    {
      "icao": "LYBE",
      "alert": "OK",
      "vis_m": 9999,
      "fzfg": false,
      "metar_trigger": false,
      "taf_trigger": false,
      "metar": "METAR LYBE 132130Z 20007KT CAVOK 20/13 Q1017 NOSIG",
      "taf": "TAF LYBE 131700Z 1318/1418 24005KT CAVOK TX31/1413Z TN14/1403Z"
    },
    {
      "icao": "LYNI",
      "alert": "OK",
      "vis_m": 9999,
      "fzfg": false,
      "metar_trigger": false,
      "taf_trigger": false,
      "metar": "METAR LYNI 132130Z 15002KT CAVOK 16/12 Q1019 NOSIG",
      "taf": "TAF LYNI 131700Z 1318/1418 07004KT CAVOK TX30/1413Z TN10/1404Z"
    },
    {
      "icao": "LYPG",
      "alert": "OK",
      "vis_m": 9999,
      "fzfg": false,
      "metar_trigger": false,
      "taf_trigger": false,
      "metar": "METAR LYPG 132130Z 33005KT CAVOK 21/13 Q1017 NOSIG",
      "taf": "TAF LYPG 131700Z 1318/1418 18005KT CAVOK TX31/1414Z TN17/1403Z"
    },
    {
      "icao": "LZIB",
      "alert": "OK",
      "vis_m": 9999,
      "fzfg": false,
      "metar_trigger": false,
      "taf_trigger": false,
      "metar": "METAR LZIB 132130Z VRB01KT CAVOK 19/14 Q1013 NOSIG",
      "taf": "TAF LZIB 131715Z 1318/1418 30007KT CAVOK"
    },
    {
      "icao": "LZKZ",
      "alert": "OK",
      "vis_m": 9999,
      "fzfg": false,
      "metar_trigger": false,
      "taf_trigger": false,
      "metar": "METAR LZKZ 132130Z VRB03KT CAVOK 15/14 Q1013 NOSIG",
      "taf": "TAF LZKZ 131715Z 1318/1418 23004KT CAVOK"
    },
    {
      "icao": "LZTT",
      "alert": "OK",
      "vis_m": 9999,
      "fzfg": false,
      "metar_trigger": false,
      "taf_trigger": false,
      "metar": "METAR LZTT 132130Z 26010KT 9999 FEW080 13/10 Q1014",
      "taf": "TAF LZTT 131715Z 1318/1418 27015KT 9999 FEW045"
    },
    {
      "icao": "OEJN",
      "alert": "OK",
      "vis_m": 9999,
      "fzfg": false,
      "metar_trigger": false,
      "taf_trigger": false,
      "metar": "METAR OEJN 132100Z 34007KT CAVOK 32/19 Q1005 NOSIG",
      "taf": "TAF OEJN 131700Z 1318/1424 35005KT CAVOK"
    },
    {
      "icao": "OEMA",
      "alert": "OK",
      "vis_m": 9999,
      "fzfg": false,
      "metar_trigger": false,
      "taf_trigger": false,
      "metar": "METAR OEMA 132100Z 30004KT CAVOK 37/02 Q1011 NOSIG",
      "taf": "TAF OEMA 131700Z 1318/1424 33008KT CAVOK"
    },
    {
      "icao": "OJAI",
      "alert": "OK",
      "vis_m": 5000,
      "fzfg": false,
      "metar_trigger": false,
      "taf_trigger": false,
      "metar": "METAR OJAI 132100Z 26006KT 5000 HZ NSC 19/08 Q1016 NOSIG",
      "taf": "TAF OJAI 131700Z 1318/1424 29012KT 5000 HZ NSC"
    },
    {
      "icao": "OMAA",
      "alert": "OK",
      "vis_m": 8000,
      "fzfg": false,
      "metar_trigger": false,
      "taf_trigger": false,
      "metar": "METAR OMAA 132130Z 29004KT 8000 NSC 31/28 Q1000 NOSIG",
      "taf": "TAF OMAA 131700Z 1318/1500 VRB02KT 8000 NSC"
    },
    {
      "icao": "OMDB",
      "alert": "OK",
      "vis_m": 9999,
      "fzfg": false,
      "metar_trigger": false,
      "taf_trigger": false,
      "metar": "METAR OMDB 132130Z 33005KT 280V360 CAVOK 33/28 Q1000 NOSIG",
      "taf": "TAF OMDB 131700Z 1318/1500 02005KT 8000 NSC"
    },
    {
      "icao": "UAAA",
      "alert": "OK",
      "vis_m": 9999,
      "fzfg": false,
      "metar_trigger": false,
      "taf_trigger": false,
      "metar": "METAR UAAA 132130Z 22003MPS 9999 SCT100 BKN200 21/11 Q1009 NOSIG",
      "taf": "TAF UAAA 131701Z 1318/1418 19002MPS 9999 FEW050CB SCT100 TX33/1410Z TN18/1401Z"
    },
    {
      "icao": "UBBB",
      "alert": "OK",
      "vis_m": 9999,
      "fzfg": false,
      "metar_trigger": false,
      "taf_trigger": false,
      "metar": "METAR UBBB 132130Z 28004KT CAVOK 21/17 Q1008 NOSIG",
      "taf": "TAF UBBB 131701Z 1318/1418 28005KT 9999 SCT040 TX30/1410Z TN19/1400Z"
    },
    {
      "icao": "UDSG",
      "alert": "OK",
      "vis_m": 9999,
      "fzfg": false,
      "metar_trigger": false,
      "taf_trigger": false,
      "metar": "METAR UDSG 132130Z 29008KT 9999 VCTS BKN043CB 14/11 Q1014 NOSIG",
      "taf": ""
    },
    {
      "icao": "UDYZ",
      "alert": "OK",
      "vis_m": 9999,
      "fzfg": false,
      "metar_trigger": false,
      "taf_trigger": false,
      "metar": "METAR UDYZ 132130Z 12004KT 080V170 9999 TS BKN043CB 21/13 Q1007 NOSIG",
      "taf": "TAF UDYZ 131700Z 1318/1418 06006KT 9999 FEW040"
    },
    {
      "icao": "UGKO",
      "alert": "OK",
      "vis_m": 9999,
      "fzfg": false,
      "metar_trigger": false,
      "taf_trigger": false,
      "metar": "METAR UGKO 132130Z VRB02KT CAVOK 17/16 Q1010 NOSIG",
      "taf": "TAF UGKO 131700Z 1318/1418 26007KT 9999 SCT050 TX23/1412Z TN16/1401Z"
    }
  ]
}