{
  "ts_utc": "2026-03-02T19:47:57Z",
  "threshold_m": 150,
  "source": "stations_override.txt (ICAO list) + aviationweather.gov (METAR/TAF raw)",
  "station_count": 159,
  "stations": [
    {
      "icao": "BIKF",
      "alert": "OK",
      "vis_m": 9999,
      "fzfg": false,
      "metar_trigger": false,
      "taf_trigger": false,
      "metar": "METAR BIKF 021930Z 33011KT 9999 FEW032 M03/M09 Q1008",
      "taf": "TAF BIKF 021623Z 0218/0318 35015KT 9999 BKN030 TX07/0317Z TNM08/0300Z"
    },
    {
      "icao": "BKPR",
      "alert": "OK",
      "vis_m": 9999,
      "fzfg": false,
      "metar_trigger": false,
      "taf_trigger": false,
      "metar": "METAR BKPR 021930Z 01004KT CAVOK 10/04 Q1025 NOSIG",
      "taf": "TAF BKPR 021730Z 0218/0318 34007KT 9999 SCT040"
    },
    {
      "icao": "EBCI",
      "alert": "OK",
      "vis_m": 9999,
      "fzfg": false,
      "metar_trigger": false,
      "taf_trigger": false,
      "metar": "METAR EBCI 021920Z 15004KT 100V190 CAVOK 11/04 Q1020 NOSIG",
      "taf": "TAF EBCI 021700Z 0218/0324 17005KT CAVOK"
    },
    {
      "icao": "EDDB",
      "alert": "OK",
      "vis_m": 9999,
      "fzfg": false,
      "metar_trigger": false,
      "taf_trigger": false,
      "metar": "METAR EDDB 021920Z AUTO VRB02KT CAVOK 07/00 Q1025 NOSIG",
      "taf": "TAF EDDB 021700Z 0218/0318 17005KT CAVOK"
    },
    {
      "icao": "EDDH",
      "alert": "OK",
      "vis_m": 9999,
      "fzfg": false,
      "metar_trigger": false,
      "taf_trigger": false,
      "metar": "METAR EDDH 021920Z AUTO 15006KT CAVOK 10/03 Q1023 NOSIG",
      "taf": "TAF EDDH 021700Z 0218/0324 16004KT CAVOK"
    },
    {
      "icao": "EDDK",
      "alert": "OK",
      "vis_m": 9999,
      "fzfg": false,
      "metar_trigger": false,
      "taf_trigger": false,
      "metar": "METAR EDDK 021920Z AUTO 13009KT CAVOK 12/02 Q1022 NOSIG",
      "taf": "TAF EDDK 021700Z 0218/0324 13005KT CAVOK"
    },
    {
      "icao": "EDDN",
      "alert": "OK",
      "vis_m": 9999,
      "fzfg": false,
      "metar_trigger": false,
      "taf_trigger": false,
      "metar": "METAR EDDN 021920Z AUTO 10005KT CAVOK 08/03 Q1024 NOSIG",
      "taf": "TAF EDDN 021700Z 0218/0318 VRB03KT CAVOK"
    },
    {
      "icao": "EDDS",
      "alert": "OK",
      "vis_m": 9999,
      "fzfg": false,
      "metar_trigger": false,
      "taf_trigger": false,
      "metar": "METAR EDDS 021920Z AUTO 09004KT CAVOK 06/03 Q1023 NOSIG",
      "taf": "TAF EDDS 021700Z 0218/0318 VRB03KT CAVOK"
    },
    {
      "icao": "EDFH",
      "alert": "OK",
      "vis_m": 9999,
      "fzfg": false,
      "metar_trigger": false,
      "taf_trigger": false,
      "metar": "METAR EDFH 021920Z 14008KT CAVOK 08/03 Q1022",
      "taf": "TAF EDFH 021700Z 0218/0318 14008KT CAVOK"
    },
    {
      "icao": "EDJA",
      "alert": "OK",
      "vis_m": 9999,
      "fzfg": false,
      "metar_trigger": false,
      "taf_trigger": false,
      "metar": "METAR EDJA 021920Z 05004KT CAVOK 04/03 Q1022",
      "taf": "TAF EDJA 021700Z 0218/0303 05006KT CAVOK"
    },
    {
      "icao": "EDLW",
      "alert": "OK",
      "vis_m": 9999,
      "fzfg": false,
      "metar_trigger": false,
      "taf_trigger": false,
      "metar": "METAR EDLW 021920Z 15005KT CAVOK 11/01 Q1021",
      "taf": "TAF EDLW 021700Z 0218/0318 16006KT CAVOK"
    },
    {
      "icao": "EDNY",
      "alert": "OK",
      "vis_m": 7000,
      "fzfg": false,
      "metar_trigger": false,
      "taf_trigger": false,
      "metar": "METAR EDNY 021920Z 06001KT 7000 NSC 02/02 Q1023",
      "taf": "TAF EDNY 021700Z 0218/0303 VRB02KT CAVOK"
    },
    {
      "icao": "EDSB",
      "alert": "OK",
      "vis_m": 9999,
      "fzfg": false,
      "metar_trigger": false,
      "taf_trigger": false,
      "metar": "METAR EDSB 021920Z 02005KT CAVOK 09/03 Q1022",
      "taf": "TAF EDSB 021700Z 0218/0318 02004KT CAVOK"
    },
    {
      "icao": "EETN",
      "alert": "OK",
      "vis_m": 9999,
      "fzfg": false,
      "metar_trigger": false,
      "taf_trigger": false,
      "metar": "METAR EETN 021920Z 33005KT 9999 SCT013 OVC016 01/M00 Q1020 TEMPO BKN013",
      "taf": "TAF EETN 021730Z 0218/0318 33012KT 9999 OVC010"
    },
    {
      "icao": "EFTU",
      "alert": "OK",
      "vis_m": 9999,
      "fzfg": false,
      "metar_trigger": false,
      "taf_trigger": false,
      "metar": "METAR EFTU 021920Z AUTO VRB02KT 9999 OVC007 M00/M01 Q1021",
      "taf": "TAF EFTU 021732Z 0218/0318 30003KT 9999 BKN007"
    },
    {
      "icao": "EGBB",
      "alert": "OK",
      "vis_m": 9999,
      "fzfg": false,
      "metar_trigger": false,
      "taf_trigger": false,
      "metar": "METAR EGBB 021920Z 23003KT 160V300 9999 SCT030 10/07 Q1016",
      "taf": "TAF EGBB 021700Z 0218/0318 18010KT 9999 FEW035"
    },
    {
      "icao": "EGGP",
      "alert": "OK",
      "vis_m": 9999,
      "fzfg": false,
      "metar_trigger": false,
      "taf_trigger": false,
      "metar": "METAR EGGP 021920Z 26005KT CAVOK 08/07 Q1016",
      "taf": "TAF EGGP 021655Z 0218/0318 VRB04KT 9999 SCT030"
    },
    {
      "icao": "EGGW",
      "alert": "OK",
      "vis_m": 9999,
      "fzfg": false,
      "metar_trigger": false,
      "taf_trigger": false,
      "metar": "METAR EGGW 021920Z AUTO 20005KT 160V220 9999 NCD 10/06 Q1017",
      "taf": "TAF EGGW 021657Z 0218/0318 18010KT 9999 SCT025"
    },
    {
      "icao": "EGKK",
      "alert": "OK",
      "vis_m": 9999,
      "fzfg": false,
      "metar_trigger": false,
      "taf_trigger": false,
      "metar": "METAR EGKK 021920Z 15002KT CAVOK 10/06 Q1018",
      "taf": "TAF EGKK 021654Z 0218/0324 19010KT 9999 FEW030"
    },
    {
      "icao": "EGNM",
      "alert": "OK",
      "vis_m": 9999,
      "fzfg": false,
      "metar_trigger": false,
      "taf_trigger": false,
      "metar": "METAR EGNM 021920Z 25005KT 9999 FEW021 07/06 Q1015",
      "taf": "TAF EGNM 021655Z 0218/0318 26005KT 9999 SCT040"
    },
    {
      "icao": "EGPD",
      "alert": "OK",
      "vis_m": 9999,
      "fzfg": false,
      "metar_trigger": false,
      "taf_trigger": false,
      "metar": "METAR EGPD 021920Z COR AUTO 19010KT 160V230 9999 OVC037 09/02 Q1006 NOSIG",
      "taf": "TAF EGPD 021654Z 0218/0318 20015KT 9999 FEW040"
    },
    {
      "icao": "EGPF",
      "alert": "OK",
      "vis_m": 9999,
      "fzfg": false,
      "metar_trigger": false,
      "taf_trigger": false,
      "metar": "METAR EGPF 021920Z AUTO 26017KT 9999 SCT025 BKN030 07/04 Q1012",
      "taf": "TAF EGPF 021652Z 0218/0318 21015G25KT 9999 FEW016 SCT030"
    },
    {
      "icao": "EHBK",
      "alert": "OK",
      "vis_m": 9999,
      "fzfg": false,
      "metar_trigger": false,
      "taf_trigger": false,
      "metar": "METAR EHBK 021925Z AUTO 14005KT 9999 NCD 12/05 Q1021 NOSIG",
      "taf": "TAF EHBK 021714Z 0218/0324 15005KT CAVOK"
    },
    {
      "icao": "EHEH",
      "alert": "OK",
      "vis_m": 9999,
      "fzfg": false,
      "metar_trigger": false,
      "taf_trigger": false,
      "metar": "METAR EHEH 021925Z AUTO VRB02KT 9999 NCD 08/04 Q1020 BLU NOSIG RMK TREND REMOTE BY EHWX",
      "taf": "TAF EHEH 021719Z 0218/0324 15007KT CAVOK"
    },
    {
      "icao": "EKBI",
      "alert": "OK",
      "vis_m": 9999,
      "fzfg": false,
      "metar_trigger": false,
      "taf_trigger": false,
      "metar": "METAR EKBI 021920Z AUTO 14005KT 9999 NCD 08/04 Q1021",
      "taf": "TAF EKBI 021727Z 0218/0318 19010KT CAVOK"
    },
    {
      "icao": "EKCH",
      "alert": "OK",
      "vis_m": 9999,
      "fzfg": false,
      "metar_trigger": false,
      "taf_trigger": false,
      "metar": "METAR EKCH 021920Z AUTO 16002KT 9999 BKN220/// 04/02 Q1024 NOSIG",
      "taf": "TAF EKCH 021727Z 0218/0318 17005KT CAVOK"
    },
    {
      "icao": "ENAL",
      "alert": "OK",
      "vis_m": 9999,
      "fzfg": false,
      "metar_trigger": false,
      "taf_trigger": false,
      "metar": "METAR ENAL 021920Z 21011KT 9999 -RA SCT043 BKN056 09/05 Q1002",
      "taf": "TAF ENAL 021700Z 0218/0303 20015KT 9999 BKN050"
    },
    {
      "icao": "ENBR",
      "alert": "OK",
      "vis_m": 4000,
      "fzfg": false,
      "metar_trigger": false,
      "taf_trigger": false,
      "metar": "METAR ENBR 021920Z 16023KT 4000 DZRA OVC005 06/05 Q1009 TEMPO 16023G33KT 2500 RADZ BR BKN003 RMK WIND 1200FT 16033G44KT",
      "taf": "TAF ENBR 021700Z 0218/0318 16020G30KT 8000 -RA SCT005 BKN010"
    },
    {
      "icao": "ENGM",
      "alert": "OK",
      "vis_m": 1200,
      "fzfg": false,
      "metar_trigger": false,
      "taf_trigger": false,
      "metar": "METAR ENGM 021920Z 17006KT 1200 0800SE R19R/P2000N R01R/0900N R19L/1400D R01L/1100N -RA BR VV002 01/01 Q1016 TEMPO 0700 -DZ FG",
      "taf": "TAF ENGM 021700Z 0218/0318 VRB03KT 3000 BR SCT003 BKN005"
    },
    {
      "icao": "ENHD",
      "alert": "OK",
      "vis_m": 9000,
      "fzfg": false,
      "metar_trigger": false,
      "taf_trigger": false,
      "metar": "METAR ENHD 021920Z 16018KT 9000 OVC006 07/05 Q1011",
      "taf": "TAF ENHD 021400Z 0215/0223 16020KT 9000 SCT005 BKN010"
    },
    {
      "icao": "ENTC",
      "alert": "OK",
      "vis_m": 9999,
      "fzfg": false,
      "metar_trigger": false,
      "taf_trigger": false,
      "metar": "METAR ENTC 021920Z 03002KT CAVOK M02/M03 Q1012 NOSIG RMK WIND 2600FT 16017KT",
      "taf": "TAF ENTC 021700Z 0218/0318 19007KT 9999 FEW035"
    },
    {
      "icao": "ENTO",
      "alert": "OK",
      "vis_m": 4000,
      "fzfg": false,
      "metar_trigger": false,
      "taf_trigger": false,
      "metar": "METAR ENTO 021920Z 21009KT 4000 BR SCT001 BKN002 OVC009 03/03 Q1017 TEMPO 2000 BR",
      "taf": ""
    },
    {
      "icao": "ENVA",
      "alert": "OK",
      "vis_m": 9999,
      "fzfg": false,
      "metar_trigger": false,
      "taf_trigger": false,
      "metar": "METAR ENVA 021920Z 08006KT 010V110 9999 -RA BKN050 06/02 Q1007 NOSIG RMK WIND 670FT 13011KT",
      "taf": "TAF ENVA 021700Z 0218/0318 14008KT 9999 SCT045"
    },
    {
      "icao": "ENZV",
      "alert": "OK",
      "vis_m": 9999,
      "fzfg": false,
      "metar_trigger": false,
      "taf_trigger": false,
      "metar": "METAR ENZV 021920Z 16019KT 9999 OVC009 07/05 Q1012 TEMPO 16020G30KT",
      "taf": "TAF ENZV 021700Z 0218/0318 16020G30KT 9000 BKN010"
    },
    {
      "icao": "EPGD",
      "alert": "OK",
      "vis_m": 9999,
      "fzfg": false,
      "metar_trigger": false,
      "taf_trigger": false,
      "metar": "METAR EPGD 021930Z 27003KT 9999 BKN021 06/02 Q1025",
      "taf": "TAF EPGD 021730Z 0218/0318 28005KT CAVOK"
    },
    {
      "icao": "EPKK",
      "alert": "OK",
      "vis_m": 9999,
      "fzfg": false,
      "metar_trigger": false,
      "taf_trigger": false,
      "metar": "METAR EPKK 021930Z 02003KT 310V050 CAVOK 04/M00 Q1027",
      "taf": "TAF EPKK 021730Z 0218/0318 03003KT CAVOK"
    },
    {
      "icao": "EPKT",
      "alert": "OK",
      "vis_m": 9999,
      "fzfg": false,
      "metar_trigger": false,
      "taf_trigger": false,
      "metar": "METAR EPKT 021930Z 07002KT CAVOK 00/M01 Q1026",
      "taf": "TAF EPKT 021730Z 0218/0318 VRB02KT CAVOK"
    },
    {
      "icao": "EPLB",
      "alert": "OK",
      "vis_m": 9999,
      "fzfg": false,
      "metar_trigger": false,
      "taf_trigger": false,
      "metar": "METAR EPLB 021930Z 27007KT CAVOK 04/M00 Q1026",
      "taf": "TAF EPLB 021730Z 0218/0318 26006KT CAVOK"
    },
    {
      "icao": "EPMO",
      "alert": "OK",
      "vis_m": 9999,
      "fzfg": false,
      "metar_trigger": false,
      "taf_trigger": false,
      "metar": "METAR EPMO 021930Z 23006KT CAVOK 07/01 Q1025",
      "taf": "TAF EPMO 021730Z 0218/0318 26004KT CAVOK"
    },
    {
      "icao": "EPPO",
      "alert": "OK",
      "vis_m": 9999,
      "fzfg": false,
      "metar_trigger": false,
      "taf_trigger": false,
      "metar": "METAR EPPO 021930Z 15002KT CAVOK 05/M00 Q1026",
      "taf": "TAF EPPO 021730Z 0218/0318 VRB02KT CAVOK"
    },
    {
      "icao": "EPRA",
      "alert": "OK",
      "vis_m": 8000,
      "fzfg": false,
      "metar_trigger": false,
      "taf_trigger": false,
      "metar": "METAR EPRA 021930Z 28004KT 8000 NSC 05/00 Q1026",
      "taf": "TAF EPRA 021730Z 0218/0303 VRB03KT CAVOK"
    },
    {
      "icao": "EPRZ",
      "alert": "OK",
      "vis_m": 9999,
      "fzfg": false,
      "metar_trigger": false,
      "taf_trigger": false,
      "metar": "METAR EPRZ 021930Z VRB01KT CAVOK 02/M00 Q1027",
      "taf": "TAF EPRZ 021730Z 0218/0318 27003KT CAVOK"
    },
    {
      "icao": "EPSC",
      "alert": "OK",
      "vis_m": 9999,
      "fzfg": false,
      "metar_trigger": false,
      "taf_trigger": false,
      "metar": "METAR EPSC 021930Z 12005KT CAVOK 05/03 Q1025",
      "taf": "TAF EPSC 021730Z 0218/0318 14004KT CAVOK"
    },
    {
      "icao": "EPSY",
      "alert": "OK",
      "vis_m": 9999,
      "fzfg": false,
      "metar_trigger": false,
      "taf_trigger": false,
      "metar": "METAR EPSY 021930Z VRB02KT 9999 BKN048 04/02 Q1024",
      "taf": "TAF EPSY 021730Z 0218/0303 24005KT CAVOK"
    },
    {
      "icao": "EPWA",
      "alert": "OK",
      "vis_m": 9999,
      "fzfg": false,
      "metar_trigger": false,
      "taf_trigger": false,
      "metar": "METAR EPWA 021930Z 24005KT CAVOK 07/00 Q1026 NOSIG",
      "taf": "TAF EPWA 021730Z 0218/0318 26003KT CAVOK"
    },
    {
      "icao": "EPWR",
      "alert": "OK",
      "vis_m": 9999,
      "fzfg": false,
      "metar_trigger": false,
      "taf_trigger": false,
      "metar": "METAR EPWR 021930Z VRB02KT CAVOK 04/00 Q1026",
      "taf": "TAF EPWR 021730Z 0218/0318 VRB02KT CAVOK"
    },
    {
      "icao": "ESGG",
      "alert": "OK",
      "vis_m": 4000,
      "fzfg": false,
      "metar_trigger": false,
      "taf_trigger": false,
      "metar": "METAR ESGG 021920Z 17009KT 4000 BKN003 OVC005 05/05 Q1021",
      "taf": ""
    },
    {
      "icao": "ESKN",
      "alert": "OK",
      "vis_m": 9999,
      "fzfg": false,
      "metar_trigger": false,
      "taf_trigger": false,
      "metar": "METAR ESKN 021920Z 16005KT 9999 BKN044 03/M02 Q1022",
      "taf": "TAF ESKN 021730Z 0218/0318 11003KT CAVOK"
    },
    {
      "icao": "ESMS",
      "alert": "OK",
      "vis_m": 9999,
      "fzfg": false,
      "metar_trigger": false,
      "taf_trigger": false,
      "metar": "METAR ESMS 021920Z 17004KT CAVOK 04/04 Q1023",
      "taf": "TAF ESMS 021727Z 0218/0318 14005KT CAVOK"
    },
    {
      "icao": "ESSA",
      "alert": "OK",
      "vis_m": 9999,
      "fzfg": false,
      "metar_trigger": false,
      "taf_trigger": false,
      "metar": "METAR ESSA 021920Z 17003KT CAVOK 00/M02 Q1022 NOSIG",
      "taf": "TAF ESSA 021730Z 0218/0318 27005KT CAVOK"
    },
    {
      "icao": "EYKA",
      "alert": "OK",
      "vis_m": 9999,
      "fzfg": false,
      "metar_trigger": false,
      "taf_trigger": false,
      "metar": "METAR EYKA 021920Z 27005KT CAVOK 00/M02 Q1023",
      "taf": "TAF EYKA 021700Z 0218/0318 VRB04KT 5000 BR SCT005"
    },
    {
      "icao": "EYPA",
      "alert": "OK",
      "vis_m": 700,
      "fzfg": true,
      "metar_trigger": false,
      "taf_trigger": false,
      "metar": "METAR EYPA 021920Z VRB01KT 0700 R19/0800U FZFG VV001 M02/M02 Q1024",
      "taf": ""
    },
    {
      "icao": "EYVI",
      "alert": "OK",
      "vis_m": 9999,
      "fzfg": false,
      "metar_trigger": false,
      "taf_trigger": false,
      "metar": "METAR EYVI 021920Z 30005KT CAVOK 01/M02 Q1021 NOSIG",
      "taf": "TAF EYVI 021711Z 0218/0318 VRB04KT 5000 BR SCT030"
    },
    {
      "icao": "GCFV",
      "alert": "OK",
      "vis_m": 9999,
      "fzfg": false,
      "metar_trigger": false,
      "taf_trigger": false,
      "metar": "METAR GCFV 021930Z 27007KT 230V300 9999 FEW025 SCT040 18/11 Q1015",
      "taf": "TAF GCFV 021400Z 0215/0315 30010KT 9999 BKN038 TX19/0314Z TN13/0306Z"
    },
    {
      "icao": "GCLP",
      "alert": "OK",
      "vis_m": 9999,
      "fzfg": false,
      "metar_trigger": false,
      "taf_trigger": false,
      "metar": "METAR GCLP 021930Z 18003KT 120V230 9999 FEW050 18/11 Q1016 NOSIG",
      "taf": "TAF GCLP 021400Z 0215/0315 18005KT 9999 SCT040 TX20/0314Z TN14/0306Z"
    },
    {
      "icao": "GCTS",
      "alert": "OK",
      "vis_m": 9999,
      "fzfg": false,
      "metar_trigger": false,
      "taf_trigger": false,
      "metar": "METAR GCTS 021930Z 07013KT 9999 FEW050 18/11 Q1016 WS R07 NOSIG",
      "taf": ""
    },
    {
      "icao": "GMAD",
      "alert": "OK",
      "vis_m": 6000,
      "fzfg": false,
      "metar_trigger": false,
      "taf_trigger": false,
      "metar": "METAR GMAD 021930Z 27014KT 6000 SCT013 BKN100 15/12 Q1012 NOSIG",
      "taf": "TAF GMAD 021700Z 0218/0324 24010KT 8000 SCT016 BKN080"
    },
    {
      "icao": "GMMN",
      "alert": "OK",
      "vis_m": 9999,
      "fzfg": false,
      "metar_trigger": false,
      "taf_trigger": false,
      "metar": "METAR GMMN 021930Z VRB02KT 9999 BKN016 13/10 Q1010 NOSIG",
      "taf": "TAF GMMN 021700Z 0218/0324 28008KT 9999 BKN016"
    },
    {
      "icao": "GMMX",
      "alert": "OK",
      "vis_m": 8000,
      "fzfg": false,
      "metar_trigger": false,
      "taf_trigger": false,
      "metar": "METAR GMMX 021930Z 29007KT 270V330 8000 SCT030 SCT200 14/10 Q1010 NOSIG",
      "taf": "TAF GMMX 021700Z 0218/0324 06006KT 8000 SCT030 SCT200"
    },
    {
      "icao": "HEGN",
      "alert": "OK",
      "vis_m": 9999,
      "fzfg": false,
      "metar_trigger": false,
      "taf_trigger": false,
      "metar": "METAR HEGN 021900Z 32010KT CAVOK 17/02 Q1017 NOSIG",
      "taf": "TAF HEGN 021700Z 0218/0324 32008G18KT CAVOK"
    },
    {
      "icao": "HEMA",
      "alert": "OK",
      "vis_m": 9999,
      "fzfg": false,
      "metar_trigger": false,
      "taf_trigger": false,
      "metar": "METAR HEMA 021900Z 31008KT CAVOK 17/06 Q1016 NOSIG",
      "taf": "TAF HEMA 021700Z 0218/0324 33008G18KT CAVOK"
    },
    {
      "icao": "HESH",
      "alert": "OK",
      "vis_m": 9999,
      "fzfg": false,
      "metar_trigger": false,
      "taf_trigger": false,
      "metar": "METAR HESH 021900Z 34012KT CAVOK 20/07 Q1015 NOSIG",
      "taf": "TAF HESH 021700Z 0218/0324 36012KT CAVOK"
    },
    {
      "icao": "HESX",
      "alert": "OK",
      "vis_m": 9999,
      "fzfg": false,
      "metar_trigger": false,
      "taf_trigger": false,
      "metar": "METAR HESX 021900Z 03008KT CAVOK 12/06 Q1022 NOSIG",
      "taf": "TAF HESX 021700Z 0218/0324 02010KT 9999 SCT025"
    },
    {
      "icao": "LATI",
      "alert": "OK",
      "vis_m": null,
      "fzfg": false,
      "metar_trigger": false,
      "taf_trigger": false,
      "metar": "",
      "taf": "TAF LATI 021700Z 0218/0318 VRB03KT CAVOK TX19/0312Z TN06/0304Z"
    },
    {
      "icao": "LBPD",
      "alert": "OK",
      "vis_m": 9999,
      "fzfg": false,
      "metar_trigger": false,
      "taf_trigger": false,
      "metar": "METAR LBPD 021930Z AUTO 26004KT 9999 SCT250/// 05/02 Q1024 NOSIG",
      "taf": "TAF LBPD 021700Z 0218/0318 VRB03KT CAVOK"
    },
    {
      "icao": "LBSF",
      "alert": "OK",
      "vis_m": 9999,
      "fzfg": false,
      "metar_trigger": false,
      "taf_trigger": false,
      "metar": "METAR LBSF 021930Z AUTO 07003KT 9999 NSC 05/01 Q1024 NOSIG",
      "taf": "TAF LBSF 021700Z 0218/0318 VRB04KT CAVOK"
    },
    {
      "icao": "LBWN",
      "alert": "OK",
      "vis_m": 9999,
      "fzfg": false,
      "metar_trigger": false,
      "taf_trigger": false,
      "metar": "METAR LBWN 021930Z AUTO 04003KT 010V080 9999 NSC 04/03 Q1024 NOSIG",
      "taf": "TAF LBWN 021700Z 0218/0318 VRB04KT 9999 SCT045"
    },
    {
      "icao": "LCLK",
      "alert": "OK",
      "vis_m": 9999,
      "fzfg": false,
      "metar_trigger": false,
      "taf_trigger": false,
      "metar": "METAR LCLK 021930Z 31006KT 9999 FEW060 08/03 Q1023 NOSIG",
      "taf": "TAF LCLK 021730Z 0218/0318 32006KT 9999 FEW040"
    },
    {
      "icao": "LCPH",
      "alert": "OK",
      "vis_m": 9999,
      "fzfg": false,
      "metar_trigger": false,
      "taf_trigger": false,
      "metar": "METAR LCPH 021930Z 36007KT CAVOK 12/03 Q1023 NOSIG",
      "taf": "TAF LCPH 021730Z 0218/0318 02008KT 9999 FEW040"
    },
    {
      "icao": "LEAL",
      "alert": "OK",
      "vis_m": 9999,
      "fzfg": false,
      "metar_trigger": false,
      "taf_trigger": false,
      "metar": "METAR LEAL 021930Z 08018KT 9999 FEW025 OVC065 16/12 Q1016 NOSIG",
      "taf": "TAF LEAL 021700Z 0218/0318 05014KT 9999 SCT020 TX21/0312Z TN13/0307Z"
    },
    {
      "icao": "LEBB",
      "alert": "OK",
      "vis_m": 9999,
      "fzfg": false,
      "metar_trigger": false,
      "taf_trigger": false,
      "metar": "METAR LEBB 021930Z 13007KT 100V190 CAVOK 17/07 Q1013 NOSIG",
      "taf": "TAF LEBB 021700Z 0218/0318 14009KT CAVOK TX20/0315Z TN08/0306Z"
    },
    {
      "icao": "LEBL",
      "alert": "OK",
      "vis_m": 9999,
      "fzfg": false,
      "metar_trigger": false,
      "taf_trigger": false,
      "metar": "METAR LEBL 021930Z 10004KT 9999 FEW014 BKN032 14/11 Q1020 NOSIG",
      "taf": "TAF LEBL 021700Z 0218/0318 11008KT 9999 FEW040 TX17/0312Z TN12/0306Z"
    },
    {
      "icao": "LECH",
      "alert": "OK",
      "vis_m": 4100,
      "fzfg": false,
      "metar_trigger": false,
      "taf_trigger": false,
      "metar": "METAR LECH 021930Z AUTO 01006KT 340V050 4100 BR BKN001 OVC017 10/10 Q1019",
      "taf": ""
    },
    {
      "icao": "LEMD",
      "alert": "OK",
      "vis_m": 9999,
      "fzfg": false,
      "metar_trigger": false,
      "taf_trigger": false,
      "metar": "METAR LEMD 021930Z 13008KT 080V160 9999 FEW050 12/06 Q1015 NOSIG",
      "taf": "TAF LEMD 021700Z 0218/0324 15010KT CAVOK TX18/0315Z TN07/0307Z"
    },
    {
      "icao": "LEMG",
      "alert": "OK",
      "vis_m": 9000,
      "fzfg": false,
      "metar_trigger": false,
      "taf_trigger": false,
      "metar": "METAR LEMG 021930Z 19005KT 150V230 9000 FEW018 14/11 Q1012 NOSIG",
      "taf": "TAF LEMG 021700Z 0218/0318 18007KT 9999 SCT020 TX19/0314Z TN13/0307Z"
    },
    {
      "icao": "LEVC",
      "alert": "OK",
      "vis_m": 9999,
      "fzfg": false,
      "metar_trigger": false,
      "taf_trigger": false,
      "metar": "SPECI LEVC 021945Z 05007KT 020V100 9999 SCT013 BKN020 13/11 Q1018 NOSIG",
      "taf": ""
    },
    {
      "icao": "LEXJ",
      "alert": "OK",
      "vis_m": 9999,
      "fzfg": false,
      "metar_trigger": false,
      "taf_trigger": false,
      "metar": "METAR LEXJ 021930Z 12005KT CAVOK 12/06 Q1012",
      "taf": "TAF LEXJ 021400Z 0215/0315 20009KT CAVOK TX21/0215Z TN09/0304Z"
    },
    {
      "icao": "LEZG",
      "alert": "OK",
      "vis_m": 9999,
      "fzfg": false,
      "metar_trigger": false,
      "taf_trigger": false,
      "metar": "METAR LEZG 021930Z 11013KT 070V140 9999 BKN018 12/09 Q1018 NOSIG",
      "taf": "TAF LEZG 021700Z 0218/0318 10014KT 9999 SCT015 TX18/0315Z TN08/0306Z"
    },
    {
      "icao": "LEZL",
      "alert": "OK",
      "vis_m": 9999,
      "fzfg": false,
      "metar_trigger": false,
      "taf_trigger": false,
      "metar": "METAR LEZL 021930Z 16005KT 110V200 CAVOK 17/10 Q1010 NOSIG",
      "taf": "TAF LEZL 021400Z 0215/0315 VRB03KT CAVOK TX22/0215Z TN10/0307Z"
    },
    {
      "icao": "LFBD",
      "alert": "OK",
      "vis_m": 9999,
      "fzfg": false,
      "metar_trigger": false,
      "taf_trigger": false,
      "metar": "METAR LFBD 021930Z AUTO 12009KT CAVOK 14/08 Q1016 NOSIG",
      "taf": "TAF LFBD 021700Z 0218/0324 12010KT CAVOK TX18/0314Z TN06/0305Z"
    },
    {
      "icao": "LFLL",
      "alert": "OK",
      "vis_m": 9999,
      "fzfg": false,
      "metar_trigger": false,
      "taf_trigger": false,
      "metar": "METAR LFLL 021930Z 14007KT CAVOK 11/04 Q1021 NOSIG",
      "taf": "TAF LFLL 021700Z 0218/0324 18009KT CAVOK"
    },
    {
      "icao": "LFLS",
      "alert": "OK",
      "vis_m": 9999,
      "fzfg": false,
      "metar_trigger": false,
      "taf_trigger": false,
      "metar": "METAR LFLS 021930Z AUTO 09005KT CAVOK 06/03 Q1022 TEMPO BKN012",
      "taf": "TAF LFLS 021400Z 0215/0315 23008KT CAVOK"
    },
    {
      "icao": "LFMN",
      "alert": "OK",
      "vis_m": 9999,
      "fzfg": false,
      "metar_trigger": false,
      "taf_trigger": false,
      "metar": "METAR LFMN 021930Z 06013KT 9999 FEW021 14/10 Q1024 BECMG 33010KT",
      "taf": "TAF LFMN 021400Z 0215/0321 08012KT 9999 FEW026"
    },
    {
      "icao": "LFOB",
      "alert": "OK",
      "vis_m": 9999,
      "fzfg": false,
      "metar_trigger": false,
      "taf_trigger": false,
      "metar": "METAR LFOB 021930Z AUTO 13003KT CAVOK 09/05 Q1019 NOSIG",
      "taf": "TAF LFOB 021700Z 0218/0318 15010KT CAVOK"
    },
    {
      "icao": "LFPO",
      "alert": "OK",
      "vis_m": 9999,
      "fzfg": false,
      "metar_trigger": false,
      "taf_trigger": false,
      "metar": "METAR LFPO 021930Z 11003KT CAVOK 11/04 Q1019 NOSIG",
      "taf": "TAF LFPO 021700Z 0218/0324 14003KT CAVOK"
    },
    {
      "icao": "LFSB",
      "alert": "OK",
      "vis_m": 9999,
      "fzfg": false,
      "metar_trigger": false,
      "taf_trigger": false,
      "metar": "METAR LFSB 021930Z AUTO 23002KT CAVOK 09/05 Q1022 NOSIG",
      "taf": "TAF LFSB 021700Z 0218/0318 19003KT CAVOK"
    },
    {
      "icao": "LGAV",
      "alert": "OK",
      "vis_m": 9999,
      "fzfg": false,
      "metar_trigger": false,
      "taf_trigger": false,
      "metar": "METAR LGAV 021920Z 26003KT CAVOK 10/06 Q1025 NOSIG",
      "taf": "TAF LGAV 021700Z 0218/0318 VRB05KT 9999 FEW025"
    },
    {
      "icao": "LGTS",
      "alert": "OK",
      "vis_m": 9999,
      "fzfg": false,
      "metar_trigger": false,
      "taf_trigger": false,
      "metar": "METAR LGTS 021920Z 08004KT 9999 FEW030 08/07 Q1025 NOSIG",
      "taf": "TAF LGTS 021700Z 0218/0318 VRB03KT 9999 FEW025"
    },
    {
      "icao": "LHBP",
      "alert": "OK",
      "vis_m": 9999,
      "fzfg": false,
      "metar_trigger": false,
      "taf_trigger": false,
      "metar": "METAR LHBP 021930Z 00000KT CAVOK 07/01 Q1026 NOSIG",
      "taf": "TAF LHBP 021715Z 0218/0318 VRB03KT CAVOK"
    },
    {
      "icao": "LHDC",
      "alert": "OK",
      "vis_m": 8000,
      "fzfg": false,
      "metar_trigger": false,
      "taf_trigger": false,
      "metar": "METAR LHDC 021915Z AUTO 00000KT 8000 NCD 04/01 Q1026",
      "taf": "TAF LHDC 021415Z 0215/0224 VRB01KT CAVOK"
    },
    {
      "icao": "LIBD",
      "alert": "OK",
      "vis_m": 9000,
      "fzfg": false,
      "metar_trigger": false,
      "taf_trigger": false,
      "metar": "METAR LIBD 021920Z 21004KT 130V220 9000 NSC 09/08 Q1026",
      "taf": "TAF LIBD 021700Z 0218/0318 VRB05KT 7000 SCT035"
    },
    {
      "icao": "LIBG",
      "alert": "OK",
      "vis_m": 7000,
      "fzfg": false,
      "metar_trigger": false,
      "taf_trigger": false,
      "metar": "METAR LIBG 021850Z VRB02KT 7000 SCT020 11/10 Q1026",
      "taf": "TAF LIBG 021700Z 0218/0303 VRB06KT 9999 FEW015"
    },
    {
      "icao": "LIBP",
      "alert": "OK",
      "vis_m": 6000,
      "fzfg": false,
      "metar_trigger": false,
      "taf_trigger": false,
      "metar": "METAR LIBP 021920Z 34002KT 6000 NSC 12/11 Q1026",
      "taf": "TAF LIBP 021700Z 0218/0318 VRB05KT 6000 FEW040"
    },
    {
      "icao": "LIBR",
      "alert": "OK",
      "vis_m": 9999,
      "fzfg": false,
      "metar_trigger": false,
      "taf_trigger": false,
      "metar": "METAR LIBR 021920Z 21004KT CAVOK 13/11 Q1026",
      "taf": "TAF LIBR 021700Z 0218/0318 14006KT 8000 SCT040"
    },
    {
      "icao": "LICA",
      "alert": "OK",
      "vis_m": 9999,
      "fzfg": false,
      "metar_trigger": false,
      "taf_trigger": false,
      "metar": "METAR LICA 021920Z 03003KT CAVOK 10/09 Q1026",
      "taf": "TAF LICA 021700Z 0218/0318 VRB05KT 8000 SCT040"
    },
    {
      "icao": "LICC",
      "alert": "OK",
      "vis_m": 9999,
      "fzfg": false,
      "metar_trigger": false,
      "taf_trigger": false,
      "metar": "METAR LICC 021920Z 02004KT CAVOK 15/13 Q1025",
      "taf": "TAF LICC 021700Z 0218/0318 VRB05KT 9999 SCT040"
    },
    {
      "icao": "LICJ",
      "alert": "OK",
      "vis_m": 9999,
      "fzfg": false,
      "metar_trigger": false,
      "taf_trigger": false,
      "metar": "METAR LICJ 021920Z VRB02KT CAVOK 14/10 Q1025",
      "taf": "TAF LICJ 021700Z 0218/0318 07010KT 9999 FEW020"
    },
    {
      "icao": "LIMC",
      "alert": "OK",
      "vis_m": 9999,
      "fzfg": false,
      "metar_trigger": false,
      "taf_trigger": false,
      "metar": "METAR LIMC 021920Z 01006KT 9999 BKN030 09/09 Q1025 NOSIG",
      "taf": "TAF LIMC 021700Z 0218/0324 VRB05KT 7000 SCT010 BKN030"
    },
    {
      "icao": "LIME",
      "alert": "OK",
      "vis_m": 7000,
      "fzfg": false,
      "metar_trigger": false,
      "taf_trigger": false,
      "metar": "METAR LIME 021920Z 11003KT 7000 SCT025 SCT080 10/08 Q1026 NOSIG",
      "taf": "TAF LIME 021700Z 0218/0318 VRB05KT 8000 BKN030"
    },
    {
      "icao": "LIMF",
      "alert": "OK",
      "vis_m": 6000,
      "fzfg": false,
      "metar_trigger": false,
      "taf_trigger": false,
      "metar": "METAR LIMF 021920Z 03004KT 6000 BKN035 11/08 Q1025",
      "taf": "TAF LIMF 021700Z 0218/0318 VRB04KT 6000 BKN030"
    },
    {
      "icao": "LIMJ",
      "alert": "OK",
      "vis_m": 9999,
      "fzfg": false,
      "metar_trigger": false,
      "taf_trigger": false,
      "metar": "METAR LIMJ 021920Z 02004KT 9999 FEW060 12/09 Q1025",
      "taf": "TAF LIMJ 021700Z 0218/0318 VRB04KT 9999 SCT040"
    },
    {
      "icao": "LIPE",
      "alert": "OK",
      "vis_m": 5000,
      "fzfg": false,
      "metar_trigger": false,
      "taf_trigger": false,
      "metar": "METAR LIPE 021920Z 10005KT 5000 BR FEW015 SCT070 11/10 Q1026",
      "taf": "TAF LIPE 021700Z 0218/0318 VRB04KT 7000 BKN040"
    },
    {
      "icao": "LIPH",
      "alert": "OK",
      "vis_m": 7000,
      "fzfg": false,
      "metar_trigger": false,
      "taf_trigger": false,
      "metar": "METAR LIPH 021920Z VRB01KT 7000 SCT060 10/09 Q1026",
      "taf": "TAF LIPH 021700Z 0218/0318 VRB04KT 6000 BKN040"
    },
    {
      "icao": "LIPQ",
      "alert": "OK",
      "vis_m": 9999,
      "fzfg": false,
      "metar_trigger": false,
      "taf_trigger": false,
      "metar": "METAR LIPQ 021920Z 07003KT 9999 FEW040 09/09 Q1027",
      "taf": "TAF LIPQ 021700Z 0218/0318 VRB05KT 7000 BKN040"
    },
    {
      "icao": "LIPR",
      "alert": "OK",
      "vis_m": 2000,
      "fzfg": false,
      "metar_trigger": false,
      "taf_trigger": false,
      "metar": "METAR LIPR 021920Z 11003KT 060V130 2000 BR BKN003 10/10 Q1026",
      "taf": "TAF LIPR 021700Z 0218/0318 VRB05KT 0400 FG OVC001"
    },
    {
      "icao": "LIPX",
      "alert": "OK",
      "vis_m": 9000,
      "fzfg": false,
      "metar_trigger": false,
      "taf_trigger": false,
      "metar": "METAR LIPX 021920Z 34003KT 9000 BKN025 11/09 Q1026",
      "taf": "TAF LIPX 021700Z 0218/0318 VRB05KT 6000 BKN030"
    },
    {
      "icao": "LIPY",
      "alert": "OK",
      "vis_m": 5000,
      "fzfg": false,
      "metar_trigger": false,
      "taf_trigger": false,
      "metar": "METAR LIPY 021920Z 18003KT 5000 RA NSC 12/11 Q1026",
      "taf": "TAF LIPY 021700Z 0218/0318 VRB05KT 5000 BR NSC"
    },
    {
      "icao": "LIPZ",
      "alert": "OK",
      "vis_m": 9999,
      "fzfg": false,
      "metar_trigger": false,
      "taf_trigger": false,
      "metar": "METAR LIPZ 021920Z 11004KT CAVOK 10/09 Q1026 NOSIG",
      "taf": "TAF LIPZ 021700Z 0218/0324 VRB05KT 7000 SCT025"
    },
    {
      "icao": "LIRF",
      "alert": "OK",
      "vis_m": 9999,
      "fzfg": false,
      "metar_trigger": false,
      "taf_trigger": false,
      "metar": "METAR LIRF 021920Z 13007KT 120V190 CAVOK 14/11 Q1025 NOSIG",
      "taf": "TAF LIRF 021700Z 0218/0324 14010KT 9999 SCT030"
    },
    {
      "icao": "LIRN",
      "alert": "OK",
      "vis_m": 9999,
      "fzfg": false,
      "metar_trigger": false,
      "taf_trigger": false,
      "metar": "METAR LIRN 021920Z VRB02KT CAVOK 13/09 Q1026 NOSIG",
      "taf": "TAF LIRN 021700Z 0218/0318 VRB04KT 8000 SCT030"
    },
    {
      "icao": "LIRP",
      "alert": "OK",
      "vis_m": 9999,
      "fzfg": false,
      "metar_trigger": false,
      "taf_trigger": false,
      "metar": "METAR LIRP 021915Z 10007KT 9999 FEW040 BKN070 12/10 Q1025 NOSIG",
      "taf": "TAF LIRP 021700Z 0218/0318 08005KT 9999 FEW025 BKN070"
    },
    {
      "icao": "LIRZ",
      "alert": "OK",
      "vis_m": 9999,
      "fzfg": false,
      "metar_trigger": false,
      "taf_trigger": false,
      "metar": "METAR LIRZ 021920Z 01004KT 9999 -RA BKN045 10/09 Q1026",
      "taf": "TAF LIRZ 021700Z 0218/0318 VRB05KT 7000 BKN040"
    },
    {
      "icao": "LJLJ",
      "alert": "OK",
      "vis_m": 9999,
      "fzfg": false,
      "metar_trigger": false,
      "taf_trigger": false,
      "metar": "METAR LJLJ 021930Z 13003KT 9999 FEW023 SCT063 BKN087 08/06 Q1025 NOSIG",
      "taf": "TAF LJLJ 021700Z 0218/0318 VRB02KT 9999 FEW033 BKN050"
    },
    {
      "icao": "LKMT",
      "alert": "OK",
      "vis_m": 9999,
      "fzfg": false,
      "metar_trigger": false,
      "taf_trigger": false,
      "metar": "METAR LKMT 021930Z 08002KT CAVOK 05/02 Q1026 NOSIG",
      "taf": "TAF LKMT 021700Z 0218/0318 04006KT CAVOK"
    },
    {
      "icao": "LKPR",
      "alert": "OK",
      "vis_m": 400,
      "fzfg": true,
      "metar_trigger": false,
      "taf_trigger": false,
      "metar": "METAR LKPR 021930Z 00000KT 0400 R24/1500N R30/0350N FZFG VV001 M01/M01 Q1026 NOSIG",
      "taf": "TAF LKPR 021700Z 0218/0324 06005KT 0200 FG VV002"
    },
    {
      "icao": "LLBG",
      "alert": "OK",
      "vis_m": 9999,
      "fzfg": false,
      "metar_trigger": false,
      "taf_trigger": false,
      "metar": "METAR LLBG 021920Z VRB03KT CAVOK 13/06 Q1021 NOSIG",
      "taf": "TAF LLBG 021705Z 0218/0318 02005KT CAVOK TX21/0311Z TN07/0304Z"
    },
    {
      "icao": "LMML",
      "alert": "OK",
      "vis_m": 9999,
      "fzfg": false,
      "metar_trigger": false,
      "taf_trigger": false,
      "metar": "METAR LMML 021945Z 13009KT 9999 FEW014 14/12 Q1025 NOSIG",
      "taf": "TAF LMML 021700Z 0218/0318 15010KT 9999 FEW017"
    },
    {
      "icao": "LOWW",
      "alert": "OK",
      "vis_m": 9999,
      "fzfg": false,
      "metar_trigger": false,
      "taf_trigger": false,
      "metar": "METAR LOWW 021920Z 17004KT 120V190 CAVOK 07/03 Q1025 NOSIG",
      "taf": "TAF LOWW 021715Z 0218/0324 VRB04KT 9999 FEW030 BKN040 TX14/0314Z TN03/0306Z"
    },
    {
      "icao": "LPFR",
      "alert": "OK",
      "vis_m": 9999,
      "fzfg": false,
      "metar_trigger": false,
      "taf_trigger": false,
      "metar": "METAR LPFR 021930Z 12012KT 9999 FEW009 BKN016 16/14 Q1008",
      "taf": "TAF LPFR 021700Z 0218/0318 13013KT 9999 SCT015"
    },
    {
      "icao": "LPMA",
      "alert": "OK",
      "vis_m": 9999,
      "fzfg": false,
      "metar_trigger": false,
      "taf_trigger": false,
      "metar": "METAR LPMA 021930Z 34015KT 280V020 9999 SCT015 14/03 Q1018",
      "taf": "TAF LPMA 021700Z 0218/0318 VRB10G23KT 9999 SCT015"
    },
    {
      "icao": "LPPR",
      "alert": "OK",
      "vis_m": 9999,
      "fzfg": false,
      "metar_trigger": false,
      "taf_trigger": false,
      "metar": "METAR LPPR 021930Z 34007KT 9999 FEW012 SCT048 12/10 Q1010",
      "taf": "TAF LPPR 021700Z 0218/0318 VRB05KT 9999 SCT020"
    },
    {
      "icao": "LPPS",
      "alert": "OK",
      "vis_m": 9999,
      "fzfg": false,
      "metar_trigger": false,
      "taf_trigger": false,
      "metar": "METAR LPPS 021930Z 34021KT 9999 FEW015 FEW018TCU 13/05 Q1018",
      "taf": "TAF LPPS 021700Z 0218/0324 34020KT 9999 SCT015 SCT030"
    },
    {
      "icao": "LPPT",
      "alert": "OK",
      "vis_m": 9999,
      "fzfg": false,
      "metar_trigger": false,
      "taf_trigger": false,
      "metar": "METAR LPPT 021930Z 33009KT 9999 FEW020CB FEW030 SCT045 12/11 Q1008",
      "taf": "TAF LPPT 021700Z 0218/0324 30008KT 9999 BKN025"
    },
    {
      "icao": "LQBK",
      "alert": "OK",
      "vis_m": 9999,
      "fzfg": false,
      "metar_trigger": false,
      "taf_trigger": false,
      "metar": "METAR LQBK 021930Z VRB02KT CAVOK 10/05 Q1025 NOSIG",
      "taf": "TAF LQBK 021700Z 0218/0318 15005KT CAVOK TX16/0314Z TN04/0305Z"
    },
    {
      "icao": "LQSA",
      "alert": "OK",
      "vis_m": 9999,
      "fzfg": false,
      "metar_trigger": false,
      "taf_trigger": false,
      "metar": "METAR LQSA 021930Z VRB02KT 9999 BKN055 08/05 Q1025 NOSIG",
      "taf": "TAF LQSA 021700Z 0218/0318 VRB02KT 9999 SCT055 TX15/0314Z TN03/0305Z"
    },
    {
      "icao": "LQTZ",
      "alert": "OK",
      "vis_m": 8000,
      "fzfg": false,
      "metar_trigger": false,
      "taf_trigger": false,
      "metar": "METAR LQTZ 021930Z VRB03KT 8000 SCT055 BKN070 09/05 Q1026",
      "taf": ""
    },
    {
      "icao": "LRBC",
      "alert": "OK",
      "vis_m": 8000,
      "fzfg": false,
      "metar_trigger": false,
      "taf_trigger": false,
      "metar": "METAR LRBC 021930Z 34005KT 8000 OVC034 07/05 Q1027",
      "taf": "TAF LRBC 021700Z 0218/0303 34008KT CAVOK"
    },
    {
      "icao": "LRBS",
      "alert": "OK",
      "vis_m": 3000,
      "fzfg": false,
      "metar_trigger": false,
      "taf_trigger": false,
      "metar": "METAR LRBS 021930Z 25002KT 3000 0700W R07/P2000N BCFG BR SCT001 00/M01 Q1026 BECMG 1500 BR",
      "taf": "TAF LRBS 021700Z 0218/0318 VRB04KT 5000 BR NSC"
    },
    {
      "icao": "LRBV",
      "alert": "OK",
      "vis_m": 9999,
      "fzfg": false,
      "metar_trigger": false,
      "taf_trigger": false,
      "metar": "METAR LRBV 021930Z 21009KT CAVOK 04/M00 Q1024",
      "taf": "TAF LRBV 021700Z 0218/0303 VRB04KT CAVOK"
    },
    {
      "icao": "LRCL",
      "alert": "OK",
      "vis_m": 9999,
      "fzfg": false,
      "metar_trigger": false,
      "taf_trigger": false,
      "metar": "METAR LRCL 021930Z 27003KT CAVOK 03/M00 Q1025",
      "taf": "TAF LRCL 021700Z 0218/0303 VRB04KT CAVOK"
    },
    {
      "icao": "LRCV",
      "alert": "OK",
      "vis_m": 4900,
      "fzfg": false,
      "metar_trigger": false,
      "taf_trigger": false,
      "metar": "METAR LRCV 021930Z VRB01KT 4900 BR NSC 02/01 Q1025",
      "taf": "TAF LRCV 021700Z 0218/0303 VRB04KT 5000 BR SCT010"
    },
    {
      "icao": "LRIA",
      "alert": "OK",
      "vis_m": 9999,
      "fzfg": false,
      "metar_trigger": false,
      "taf_trigger": false,
      "metar": "METAR LRIA 021930Z 28008KT 270V330 9999 BKN039 04/02 Q1027",
      "taf": "TAF LRIA 021700Z 0218/0303 29006KT 9999 SCT035"
    },
    {
      "icao": "LROP",
      "alert": "OK",
      "vis_m": 4000,
      "fzfg": false,
      "metar_trigger": false,
      "taf_trigger": false,
      "metar": "METAR LROP 021930Z VRB02KT 4000 BR NSC M00/M00 Q1026 BECMG 1500 BR",
      "taf": "TAF LROP 021700Z 0218/0318 VRB04KT 5000 BR NSC"
    },
    {
      "icao": "LRSB",
      "alert": "OK",
      "vis_m": 9999,
      "fzfg": false,
      "metar_trigger": false,
      "taf_trigger": false,
      "metar": "METAR LRSB 021930Z VRB02KT CAVOK 05/00 Q1025",
      "taf": "TAF LRSB 021700Z 0218/0318 VRB04KT CAVOK"
    },
    {
      "icao": "LRSM",
      "alert": "OK",
      "vis_m": 7000,
      "fzfg": false,
      "metar_trigger": false,
      "taf_trigger": false,
      "metar": "METAR LRSM 021930Z AUTO 21005KT 7000 NCD 04/02 Q1026",
      "taf": "TAF LRSM 021400Z 0215/0224 VRB04KT CAVOK"
    },
    {
      "icao": "LRSV",
      "alert": "OK",
      "vis_m": 9999,
      "fzfg": false,
      "metar_trigger": false,
      "taf_trigger": false,
      "metar": "METAR LRSV 021930Z 27004KT 9999 BKN024 03/02 Q1026",
      "taf": "TAF LRSV 021700Z 0218/0303 30007KT 9999 BKN020"
    },
    {
      "icao": "LRTM",
      "alert": "OK",
      "vis_m": 9999,
      "fzfg": false,
      "metar_trigger": false,
      "taf_trigger": false,
      "metar": "METAR LRTM 021930Z AUTO 22003KT 9999 NCD 04/01 Q1025",
      "taf": "TAF LRTM 021400Z 0215/0224 VRB04KT CAVOK"
    },
    {
      "icao": "LRTR",
      "alert": "OK",
      "vis_m": 9999,
      "fzfg": false,
      "metar_trigger": false,
      "taf_trigger": false,
      "metar": "METAR LRTR 021930Z 36004KT CAVOK 06/04 Q1025",
      "taf": "TAF LRTR 021700Z 0218/0318 VRB04KT CAVOK"
    },
    {
      "icao": "LTAC",
      "alert": "OK",
      "vis_m": 9999,
      "fzfg": false,
      "metar_trigger": false,
      "taf_trigger": false,
      "metar": "METAR LTAC 021920Z VRB01KT CAVOK 03/M03 Q1025 NOSIG RMK RWY21C 07003KT RWY03L 25003KT 210V300 RWY21R 07004KT RWY03R VRB01KT RWY21L 08004KT",
      "taf": "TAF LTAC 021640Z 0218/0318 VRB02KT CAVOK"
    },
    {
      "icao": "LTFM",
      "alert": "OK",
      "vis_m": 9999,
      "fzfg": false,
      "metar_trigger": false,
      "taf_trigger": false,
      "metar": "METAR LTFM 021920Z 01003KT CAVOK 06/03 Q1025 NOSIG RMK RWY17L VRB01KT RWY34L VRB01KT RWY16R 00000KT RWY36 VRB02KT RWY18 VRB01KT",
      "taf": "TAF LTFM 021640Z 0218/0324 VRB02KT CAVOK"
    },
    {
      "icao": "LUKK",
      "alert": "OK",
      "vis_m": 9999,
      "fzfg": false,
      "metar_trigger": false,
      "taf_trigger": false,
      "metar": "METAR LUKK 021930Z 34006KT CAVOK 04/02 Q1025 NOSIG",
      "taf": "TAF LUKK 021705Z 0218/0318 34008KT 9999 SCT030"
    },
    {
      "icao": "LWOH",
      "alert": "OK",
      "vis_m": 9999,
      "fzfg": false,
      "metar_trigger": false,
      "taf_trigger": false,
      "metar": "METAR LWOH 021920Z 04004KT 350V070 9999 FEW040 06/02 Q1025",
      "taf": "TAF LWOH 021730Z 0218/0318 VRB02KT 9999 FEW040"
    },
    {
      "icao": "LWSK",
      "alert": "OK",
      "vis_m": null,
      "fzfg": false,
      "metar_trigger": false,
      "taf_trigger": false,
      "metar": "",
      "taf": "TAF LWSK 021730Z 0218/0318 VRB02KT CAVOK"
    },
    {
      "icao": "LYBE",
      "alert": "OK",
      "vis_m": 8000,
      "fzfg": false,
      "metar_trigger": false,
      "taf_trigger": false,
      "metar": "METAR LYBE 021930Z VRB01KT 8000 NSC 06/03 Q1026 NOSIG",
      "taf": "TAF LYBE 021700Z 0218/0318 22004KT 7000 NSC TX16/0313Z TN03/0305Z"
    },
    {
      "icao": "LYNI",
      "alert": "OK",
      "vis_m": 9999,
      "fzfg": false,
      "metar_trigger": false,
      "taf_trigger": false,
      "metar": "METAR LYNI 021930Z 32010KT CAVOK 11/03 Q1025 NOSIG",
      "taf": "TAF LYNI 021700Z 0218/0318 36003KT CAVOK TX16/0313Z TN04/0305Z"
    },
    {
      "icao": "LYPG",
      "alert": "OK",
      "vis_m": 9999,
      "fzfg": false,
      "metar_trigger": false,
      "taf_trigger": false,
      "metar": "METAR LYPG 021930Z VRB01KT CAVOK 09/07 Q1026 NOSIG",
      "taf": "TAF LYPG 021700Z 0218/0318 35005KT 9999 FEW034 TX19/0314Z TN06/0305Z"
    },
    {
      "icao": "LZIB",
      "alert": "OK",
      "vis_m": 9999,
      "fzfg": false,
      "metar_trigger": false,
      "taf_trigger": false,
      "metar": "METAR LZIB 021930Z 36003KT CAVOK 06/04 Q1025 NOSIG",
      "taf": "TAF LZIB 021715Z 0218/0318 VRB02KT CAVOK"
    },
    {
      "icao": "LZKZ",
      "alert": "OK",
      "vis_m": 9999,
      "fzfg": false,
      "metar_trigger": false,
      "taf_trigger": false,
      "metar": "METAR LZKZ 021930Z 02005KT 9999 SCT045 08/02 Q1026 NOSIG",
      "taf": "TAF LZKZ 021715Z 0218/0318 01006KT CAVOK"
    },
    {
      "icao": "LZTT",
      "alert": "OK",
      "vis_m": 9999,
      "fzfg": false,
      "metar_trigger": false,
      "taf_trigger": false,
      "metar": "METAR LZTT 021930Z 00000KT 9999 BKN028 03/00 Q1026",
      "taf": "TAF LZTT 021715Z 0218/0318 VRB02KT 9999 SCT020"
    },
    {
      "icao": "OEJN",
      "alert": "OK",
      "vis_m": 9999,
      "fzfg": false,
      "metar_trigger": false,
      "taf_trigger": false,
      "metar": "METAR OEJN 021900Z 35008KT CAVOK 22/10 Q1013 NOSIG",
      "taf": "TAF OEJN 021700Z 0218/0324 35005KT CAVOK"
    },
    {
      "icao": "OEMA",
      "alert": "OK",
      "vis_m": 9999,
      "fzfg": false,
      "metar_trigger": false,
      "taf_trigger": false,
      "metar": "METAR OEMA 021900Z 22008KT CAVOK 20/00 Q1014 NOSIG",
      "taf": "TAF OEMA 021700Z 0218/0324 30008KT CAVOK"
    },
    {
      "icao": "OJAI",
      "alert": "OK",
      "vis_m": 5000,
      "fzfg": false,
      "metar_trigger": false,
      "taf_trigger": false,
      "metar": "METAR OJAI 021900Z 03009KT 5000 HZ NSC 09/M03 Q1020 NOSIG",
      "taf": "TAF OJAI 021650Z 0218/0324 VRB02KT 5000 HZ NSC"
    },
    {
      "icao": "OMAA",
      "alert": "OK",
      "vis_m": 9999,
      "fzfg": false,
      "metar_trigger": false,
      "taf_trigger": false,
      "metar": "METAR OMAA 021930Z 04004KT CAVOK 27/10 Q1011 NOSIG",
      "taf": "TAF OMAA 021700Z 0218/0400 04006KT 8000 NSC"
    },
    {
      "icao": "OMDB",
      "alert": "OK",
      "vis_m": 9999,
      "fzfg": false,
      "metar_trigger": false,
      "taf_trigger": false,
      "metar": "METAR OMDB 021930Z 04005KT 340V080 CAVOK 29/07 Q1011 NOSIG",
      "taf": "TAF OMDB 021700Z 0218/0400 07005KT 8000 NSC"
    },
    {
      "icao": "UAAA",
      "alert": "OK",
      "vis_m": 2600,
      "fzfg": false,
      "metar_trigger": false,
      "taf_trigger": false,
      "metar": "METAR UAAA 021930Z 35003MPS 2600 -SHRA BR BKN033CB OVC100 00/M01 Q1020 NOSIG",
      "taf": "TAF UAAA 021701Z 0218/0318 24003MPS 2000 -SHRASN BR BKN011CB OVC050 TX03/0310Z TNM01/0302Z"
    },
    {
      "icao": "UBBB",
      "alert": "OK",
      "vis_m": 9999,
      "fzfg": false,
      "metar_trigger": false,
      "taf_trigger": false,
      "metar": "METAR UBBB 021930Z 19010KT CAVOK 06/04 Q1024 NOSIG",
      "taf": "TAF UBBB 021702Z 0218/0318 18006KT 9999 SCT015 TX10/0310Z TN01/0301Z"
    },
    {
      "icao": "UDSG",
      "alert": "OK",
      "vis_m": 9999,
      "fzfg": false,
      "metar_trigger": false,
      "taf_trigger": false,
      "metar": "METAR UDSG 021930Z 21001KT 9999 NSC M08/M10 Q1022 NOSIG",
      "taf": "TAF UDSG 021700Z 0218/0318 VRB06KT 9999 FEW050"
    },
    {
      "icao": "UDYZ",
      "alert": "OK",
      "vis_m": 9999,
      "fzfg": false,
      "metar_trigger": false,
      "taf_trigger": false,
      "metar": "METAR UDYZ 021930Z 35005KT 9999 NSC 00/M06 Q1023 NOSIG",
      "taf": "TAF UDYZ 021700Z 0218/0318 04006KT 9999 FEW040"
    },
    {
      "icao": "UGKO",
      "alert": "OK",
      "vis_m": 9999,
      "fzfg": false,
      "metar_trigger": false,
      "taf_trigger": false,
      "metar": "METAR UGKO 021930Z 25004KT 9999 SCT025 BKN029 06/04 Q1027 NOSIG",
      "taf": "TAF UGKO 021700Z 0218/0318 25007KT 9999 BKN050 TX12/0311Z TN02/0304Z"
    }
  ]
}