{
  "ts_utc": "2026-06-06T00:01:42Z",
  "threshold_m": 150,
  "source": "stations_override.txt (ICAO list) + aviationweather.gov (METAR/TAF raw)",
  "station_count": 159,
  "stations": [
    {
      "icao": "BIKF",
      "alert": "OK",
      "vis_m": 9999,
      "fzfg": false,
      "metar_trigger": false,
      "taf_trigger": false,
      "metar": "METAR BIKF 052330Z 17003KT 9999 -RA FEW026 BKN042 08/05 Q0991",
      "taf": "TAF BIKF 052249Z 0600/0700 16008KT 9999 SCT020 BKN045 TX12/0615Z TN05/0603Z"
    },
    {
      "icao": "BKPR",
      "alert": "OK",
      "vis_m": 9999,
      "fzfg": false,
      "metar_trigger": false,
      "taf_trigger": false,
      "metar": "METAR BKPR 060000Z 10003KT 9999 FEW065 17/13 Q1017 NOSIG",
      "taf": "TAF BKPR 052330Z 0600/0624 35006KT 9999 SCT080"
    },
    {
      "icao": "EBCI",
      "alert": "OK",
      "vis_m": 9999,
      "fzfg": false,
      "metar_trigger": false,
      "taf_trigger": false,
      "metar": "METAR EBCI 052350Z 14004KT CAVOK 11/10 Q1015 NOSIG",
      "taf": "TAF EBCI 052315Z 0600/0706 16008KT 9999 FEW030 SCT045"
    },
    {
      "icao": "EDDB",
      "alert": "OK",
      "vis_m": 9999,
      "fzfg": false,
      "metar_trigger": false,
      "taf_trigger": false,
      "metar": "METAR EDDB 052350Z AUTO 24004KT CAVOK 12/10 Q1016 NOSIG",
      "taf": "TAF EDDB 051700Z 0518/0618 27007KT CAVOK"
    },
    {
      "icao": "EDDH",
      "alert": "OK",
      "vis_m": 9999,
      "fzfg": false,
      "metar_trigger": false,
      "taf_trigger": false,
      "metar": "METAR EDDH 052350Z AUTO VRB01KT CAVOK 12/11 Q1015 NOSIG",
      "taf": "TAF EDDH 052300Z 0600/0706 VRB02KT 9999 SCT030"
    },
    {
      "icao": "EDDK",
      "alert": "OK",
      "vis_m": 9999,
      "fzfg": false,
      "metar_trigger": false,
      "taf_trigger": false,
      "metar": "METAR EDDK 052350Z AUTO 12003KT CAVOK 12/11 Q1016 NOSIG",
      "taf": "TAF EDDK 052300Z 0600/0706 VRB03KT CAVOK"
    },
    {
      "icao": "EDDN",
      "alert": "OK",
      "vis_m": 9999,
      "fzfg": false,
      "metar_trigger": false,
      "taf_trigger": false,
      "metar": "METAR EDDN 052350Z AUTO 11005KT CAVOK 10/08 Q1017",
      "taf": "TAF EDDN 052300Z 0600/0624 10003KT CAVOK"
    },
    {
      "icao": "EDDS",
      "alert": "OK",
      "vis_m": 9999,
      "fzfg": false,
      "metar_trigger": false,
      "taf_trigger": false,
      "metar": "METAR EDDS 052350Z AUTO 01002KT CAVOK 10/07 Q1016",
      "taf": "TAF EDDS 052300Z 0600/0624 VRB03KT CAVOK"
    },
    {
      "icao": "EDFH",
      "alert": "OK",
      "vis_m": 9999,
      "fzfg": false,
      "metar_trigger": false,
      "taf_trigger": false,
      "metar": "METAR EDFH 052350Z 00000KT CAVOK 09/08 Q1016",
      "taf": "TAF EDFH 052300Z 0600/0624 VRB03KT CAVOK"
    },
    {
      "icao": "EDJA",
      "alert": "OK",
      "vis_m": 9999,
      "fzfg": false,
      "metar_trigger": false,
      "taf_trigger": false,
      "metar": "METAR EDJA 052350Z AUTO 10006KT 9999 // FEW140/// 11/08 Q1015",
      "taf": "TAF EDJA 051700Z 0518/0603 31006KT 9999 FEW045"
    },
    {
      "icao": "EDLW",
      "alert": "OK",
      "vis_m": 9999,
      "fzfg": false,
      "metar_trigger": false,
      "taf_trigger": false,
      "metar": "METAR EDLW 052350Z AUTO 18007KT 9999 // BKN089/// 12/11 Q1016",
      "taf": "TAF EDLW 051700Z 0518/0618 23005KT CAVOK"
    },
    {
      "icao": "EDNY",
      "alert": "OK",
      "vis_m": 9999,
      "fzfg": false,
      "metar_trigger": false,
      "taf_trigger": false,
      "metar": "METAR EDNY 052350Z AUTO 04004KT 360V080 9999 // NCD 12/09 Q1016",
      "taf": "TAF EDNY 051700Z 0518/0603 24005KT 9999 SCT050"
    },
    {
      "icao": "EDSB",
      "alert": "OK",
      "vis_m": 9999,
      "fzfg": false,
      "metar_trigger": false,
      "taf_trigger": false,
      "metar": "METAR EDSB 052350Z AUTO VRB02KT 9999 // NCD 11/08 Q1016",
      "taf": "TAF EDSB 052300Z 0600/0624 VRB03KT CAVOK"
    },
    {
      "icao": "EETN",
      "alert": "OK",
      "vis_m": 9999,
      "fzfg": false,
      "metar_trigger": false,
      "taf_trigger": false,
      "metar": "METAR EETN 052350Z 13006KT 9999 FEW035CB 17/15 Q1012",
      "taf": "TAF EETN 052330Z 0600/0624 14007KT 9999 FEW025CB BKN030"
    },
    {
      "icao": "EFTU",
      "alert": "OK",
      "vis_m": 9999,
      "fzfg": false,
      "metar_trigger": false,
      "taf_trigger": false,
      "metar": "METAR EFTU 052350Z AUTO 33003KT 280V030 9999 BKN018 OVC038 //////CB 14/13 Q1012",
      "taf": "TAF EFTU 052333Z 0600/0624 VRB02KT 9999 FEW010 BKN025"
    },
    {
      "icao": "EGBB",
      "alert": "OK",
      "vis_m": 9999,
      "fzfg": false,
      "metar_trigger": false,
      "taf_trigger": false,
      "metar": "METAR EGBB 052350Z 15007KT 9999 -RA NSC 11/08 Q1009",
      "taf": "TAF EGBB 052301Z 0600/0624 16009KT 9999 FEW015 SCT030"
    },
    {
      "icao": "EGGP",
      "alert": "OK",
      "vis_m": 9999,
      "fzfg": false,
      "metar_trigger": false,
      "taf_trigger": false,
      "metar": "METAR EGGP 052350Z 15010KT CAVOK 12/08 Q1007",
      "taf": "TAF EGGP 052256Z 0600/0624 16011KT 9999 SCT040"
    },
    {
      "icao": "EGGW",
      "alert": "OK",
      "vis_m": 9999,
      "fzfg": false,
      "metar_trigger": false,
      "taf_trigger": false,
      "metar": "METAR EGGW 052350Z AUTO 15005KT 9999 NCD 11/07 Q1010",
      "taf": "TAF EGGW 052300Z 0600/0624 16008KT 9999 BKN040"
    },
    {
      "icao": "EGKK",
      "alert": "OK",
      "vis_m": 9999,
      "fzfg": false,
      "metar_trigger": false,
      "taf_trigger": false,
      "metar": "METAR EGKK 052350Z 13006KT 100V160 CAVOK 13/09 Q1011 REDZ",
      "taf": ""
    },
    {
      "icao": "EGNM",
      "alert": "OK",
      "vis_m": 9999,
      "fzfg": false,
      "metar_trigger": false,
      "taf_trigger": false,
      "metar": "METAR EGNM 052350Z 18006KT 9999 FEW046 11/07 Q1008",
      "taf": "TAF EGNM 052256Z 0600/0624 15008KT 9999 SCT040"
    },
    {
      "icao": "EGPD",
      "alert": "OK",
      "vis_m": 9999,
      "fzfg": false,
      "metar_trigger": false,
      "taf_trigger": false,
      "metar": "METAR EGPD 052350Z COR AUTO 17006KT 9999 NCD 11/07 Q1007 NOSIG",
      "taf": "TAF EGPD 052254Z 0600/0624 16008KT 9999 FEW045"
    },
    {
      "icao": "EGPF",
      "alert": "OK",
      "vis_m": 9999,
      "fzfg": false,
      "metar_trigger": false,
      "taf_trigger": false,
      "metar": "METAR EGPF 052350Z AUTO 11005KT 9999 NCD 11/07 Q1006",
      "taf": "TAF EGPF 052305Z 0600/0624 18012KT 9999 SCT035"
    },
    {
      "icao": "EHBK",
      "alert": "OK",
      "vis_m": 9999,
      "fzfg": false,
      "metar_trigger": false,
      "taf_trigger": false,
      "metar": "METAR EHBK 052355Z AUTO 17005KT 9999 NCD 12/10 Q1016",
      "taf": "TAF EHBK 052317Z 0600/0706 VRB02KT CAVOK"
    },
    {
      "icao": "EHEH",
      "alert": "OK",
      "vis_m": 9999,
      "fzfg": false,
      "metar_trigger": false,
      "taf_trigger": false,
      "metar": "METAR EHEH 052325Z AUTO 18003KT 160V230 9999 OVC085 13/12 Q1015 BLU",
      "taf": "TAF EHEH 051732Z 0518/0624 17005KT 9999 FEW035 SCT050"
    },
    {
      "icao": "EKBI",
      "alert": "OK",
      "vis_m": 9999,
      "fzfg": false,
      "metar_trigger": false,
      "taf_trigger": false,
      "metar": "METAR EKBI 052350Z AUTO 17002KT 9999 FEW021/// 06/06 Q1015",
      "taf": "TAF EKBI 052327Z 0600/0624 23005KT 9999 FEW020"
    },
    {
      "icao": "EKCH",
      "alert": "OK",
      "vis_m": 9999,
      "fzfg": false,
      "metar_trigger": false,
      "taf_trigger": false,
      "metar": "METAR EKCH 052350Z AUTO 26005KT 9999 SCT180/// 12/10 Q1014 NOSIG",
      "taf": "TAF EKCH 052327Z 0600/0624 27008KT 9999 FEW030"
    },
    {
      "icao": "ENAL",
      "alert": "OK",
      "vis_m": 9999,
      "fzfg": false,
      "metar_trigger": false,
      "taf_trigger": false,
      "metar": "METAR ENAL 052350Z AUTO 25013KT 9999 BKN040/// OVC048/// 12/09 Q1009",
      "taf": "TAF ENAL 052300Z 0600/0609 22009KT 9999 FEW020 SCT040"
    },
    {
      "icao": "ENBR",
      "alert": "OK",
      "vis_m": 9999,
      "fzfg": false,
      "metar_trigger": false,
      "taf_trigger": false,
      "metar": "METAR ENBR 052350Z AUTO 13006KT 9999 OVC026/// 10/09 Q1011 RMK WIND 1200FT 19009KT",
      "taf": "TAF ENBR 052300Z 0600/0624 18008KT 9999 BKN020"
    },
    {
      "icao": "ENGM",
      "alert": "OK",
      "vis_m": 9999,
      "fzfg": false,
      "metar_trigger": false,
      "taf_trigger": false,
      "metar": "METAR ENGM 052350Z 18007KT 9999 SCT010 OVC012 12/10 Q1009",
      "taf": "TAF ENGM 052300Z 0600/0624 17008KT 9999 SCT010 BKN015"
    },
    {
      "icao": "ENHD",
      "alert": "OK",
      "vis_m": 9999,
      "fzfg": false,
      "metar_trigger": false,
      "taf_trigger": false,
      "metar": "METAR ENHD 052350Z AUTO 22004KT 9999 BKN048/// 11/09 Q1011",
      "taf": "TAF ENHD 051400Z 0515/0522 24008KT 9999 -SHRA FEW010 BKN020"
    },
    {
      "icao": "ENTC",
      "alert": "OK",
      "vis_m": 9999,
      "fzfg": false,
      "metar_trigger": false,
      "taf_trigger": false,
      "metar": "METAR ENTC 052350Z AUTO 23009KT 9999 NCD 15/09 Q1004 RMK WIND 2600FT 17041KT",
      "taf": "TAF ENTC 052300Z 0600/0624 19008KT 9999 SCT070"
    },
    {
      "icao": "ENTO",
      "alert": "OK",
      "vis_m": 9999,
      "fzfg": false,
      "metar_trigger": false,
      "taf_trigger": false,
      "metar": "METAR ENTO 052350Z AUTO 21005KT 9999 NCD 12/09 Q1009",
      "taf": "TAF ENTO 052300Z 0600/0624 25007KT CAVOK"
    },
    {
      "icao": "ENVA",
      "alert": "OK",
      "vis_m": 9999,
      "fzfg": false,
      "metar_trigger": false,
      "taf_trigger": false,
      "metar": "METAR ENVA 052350Z 27006KT 9999 FEW016 BKN021 13/11 Q1009 RMK WIND 670FT 29014KT",
      "taf": "TAF ENVA 052300Z 0600/0624 26008KT 9999 FEW030 BKN045"
    },
    {
      "icao": "ENZV",
      "alert": "OK",
      "vis_m": 9999,
      "fzfg": false,
      "metar_trigger": false,
      "taf_trigger": false,
      "metar": "METAR ENZV 052350Z AUTO 31004KT 9999 FEW008/// OVC021/// 11/09 Q1011",
      "taf": "TAF ENZV 052300Z 0600/0624 27008KT 9999 -SHRA FEW010 SCT030"
    },
    {
      "icao": "EPGD",
      "alert": "OK",
      "vis_m": 9999,
      "fzfg": false,
      "metar_trigger": false,
      "taf_trigger": false,
      "metar": "METAR EPGD 052330Z 23006KT 200V260 9999 FEW004 12/12 Q1014",
      "taf": "TAF EPGD 052330Z 0600/0624 26005KT CAVOK"
    },
    {
      "icao": "EPKK",
      "alert": "OK",
      "vis_m": 7000,
      "fzfg": false,
      "metar_trigger": false,
      "taf_trigger": false,
      "metar": "METAR EPKK 052330Z 22002KT 7000 MIFG NSC 11/10 Q1018",
      "taf": "TAF EPKK 052330Z 0600/0624 VRB02KT 3000 BR NSC"
    },
    {
      "icao": "EPKT",
      "alert": "OK",
      "vis_m": 1000,
      "fzfg": false,
      "metar_trigger": false,
      "taf_trigger": false,
      "metar": "METAR EPKT 052330Z VRB01KT 1000 0400NE R26/1200N BCFG BR SCT000 08/08 Q1018",
      "taf": "TAF EPKT 052330Z 0600/0624 VRB02KT 1200 BR NSC"
    },
    {
      "icao": "EPLB",
      "alert": "OK",
      "vis_m": 9999,
      "fzfg": false,
      "metar_trigger": false,
      "taf_trigger": false,
      "metar": "METAR EPLB 052330Z 30009KT 9999 -RA OVC009 15/13 Q1015",
      "taf": "TAF EPLB 052330Z 0600/0624 28012KT 9999 BKN012 BKN015"
    },
    {
      "icao": "EPMO",
      "alert": "OK",
      "vis_m": 9999,
      "fzfg": false,
      "metar_trigger": false,
      "taf_trigger": false,
      "metar": "METAR EPMO 052330Z 27008KT 9999 SCT015 13/12 Q1016",
      "taf": "TAF EPMO 052330Z 0600/0624 28010KT CAVOK"
    },
    {
      "icao": "EPPO",
      "alert": "OK",
      "vis_m": 9000,
      "fzfg": false,
      "metar_trigger": false,
      "taf_trigger": false,
      "metar": "METAR EPPO 052330Z 20004KT 9000 0600NW BCFG NSC 12/11 Q1015",
      "taf": "TAF EPPO 052330Z 0600/0624 VRB02KT 2000 BR NSC"
    },
    {
      "icao": "EPRA",
      "alert": "OK",
      "vis_m": 9999,
      "fzfg": false,
      "metar_trigger": false,
      "taf_trigger": false,
      "metar": "METAR EPRA 052330Z 29007KT 270V330 9999 BKN013 13/11 Q1016",
      "taf": "TAF EPRA 052330Z 0600/0609 30006KT 9999 BKN020"
    },
    {
      "icao": "EPRZ",
      "alert": "OK",
      "vis_m": 9999,
      "fzfg": false,
      "metar_trigger": false,
      "taf_trigger": false,
      "metar": "METAR EPRZ 052330Z 27009KT 9999 SCT009 BKN030 14/13 Q1017",
      "taf": "TAF EPRZ 052330Z 0600/0624 26010KT 9999 BKN020"
    },
    {
      "icao": "EPSC",
      "alert": "OK",
      "vis_m": 3000,
      "fzfg": false,
      "metar_trigger": false,
      "taf_trigger": false,
      "metar": "METAR EPSC 052330Z 10002KT 3000 BR NSC 11/11 Q1015",
      "taf": "TAF EPSC 052330Z 0600/0624 VRB04KT 1500 BR NSC"
    },
    {
      "icao": "EPSY",
      "alert": "OK",
      "vis_m": 9999,
      "fzfg": false,
      "metar_trigger": false,
      "taf_trigger": false,
      "metar": "METAR EPSY 052330Z 30005KT 250V350 9999 BKN020 13/12 Q1015",
      "taf": "TAF EPSY 052330Z 0600/0609 30006KT 9999 BKN020"
    },
    {
      "icao": "EPWA",
      "alert": "OK",
      "vis_m": 9999,
      "fzfg": false,
      "metar_trigger": false,
      "taf_trigger": false,
      "metar": "METAR EPWA 052330Z 28010KT 9999 BKN010 13/12 Q1016 TEMPO BKN008",
      "taf": "TAF EPWA 052330Z 0600/0624 28010KT CAVOK"
    },
    {
      "icao": "EPWR",
      "alert": "OK",
      "vis_m": 9999,
      "fzfg": false,
      "metar_trigger": false,
      "taf_trigger": false,
      "metar": "METAR EPWR 052330Z 13003KT CAVOK 11/10 Q1016",
      "taf": "TAF EPWR 052330Z 0600/0624 VRB02KT CAVOK"
    },
    {
      "icao": "ESGG",
      "alert": "OK",
      "vis_m": 4600,
      "fzfg": false,
      "metar_trigger": false,
      "taf_trigger": false,
      "metar": "METAR ESGG 052350Z 20003KT 4600 MIFG SCT024 OVC041 11/10 Q1012",
      "taf": "TAF ESGG 052330Z 0600/0624 24006KT 9999 SCT045"
    },
    {
      "icao": "ESKN",
      "alert": "OK",
      "vis_m": 9999,
      "fzfg": false,
      "metar_trigger": false,
      "taf_trigger": false,
      "metar": "METAR ESKN 052350Z 25002KT 9999 R08/1900N R26/1400U FG OVC096 12/12 Q1011",
      "taf": "TAF ESKN 052330Z 0600/0624 27005KT CAVOK"
    },
    {
      "icao": "ESMS",
      "alert": "OK",
      "vis_m": 9999,
      "fzfg": false,
      "metar_trigger": false,
      "taf_trigger": false,
      "metar": "METAR ESMS 052350Z 27003KT CAVOK 12/11 Q1013",
      "taf": "TAF ESMS 052327Z 0600/0624 25008KT 9999 SCT020"
    },
    {
      "icao": "ESSA",
      "alert": "OK",
      "vis_m": 9999,
      "fzfg": false,
      "metar_trigger": false,
      "taf_trigger": false,
      "metar": "METAR ESSA 052350Z 18004KT CAVOK 14/12 Q1010 NOSIG",
      "taf": "TAF ESSA 052330Z 0600/0624 18008KT CAVOK"
    },
    {
      "icao": "EYKA",
      "alert": "OK",
      "vis_m": 9999,
      "fzfg": false,
      "metar_trigger": false,
      "taf_trigger": false,
      "metar": "METAR EYKA 052350Z AUTO 16004KT 120V180 9999 SCT017/// BKN053/// 17/16 Q1011",
      "taf": "TAF EYKA 052314Z 0600/0624 VRB03KT 8000 SCT010 BKN015"
    },
    {
      "icao": "EYPA",
      "alert": "OK",
      "vis_m": 9999,
      "fzfg": false,
      "metar_trigger": false,
      "taf_trigger": false,
      "metar": "METAR EYPA 052350Z VRB03KT 9999 -SHRA BKN024CB OVC030 13/12 Q1012",
      "taf": "TAF EYPA 052314Z 0600/0624 VRB03KT 5000 RA BR BKN005 BKN015"
    },
    {
      "icao": "EYVI",
      "alert": "OK",
      "vis_m": 9999,
      "fzfg": false,
      "metar_trigger": false,
      "taf_trigger": false,
      "metar": "METAR EYVI 052350Z 16007KT 9999 FEW061CB 17/15 Q1012 NOSIG",
      "taf": "TAF EYVI 052314Z 0600/0624 VRB03KT 8000 SCT010 BKN015"
    },
    {
      "icao": "GCFV",
      "alert": "OK",
      "vis_m": 9999,
      "fzfg": false,
      "metar_trigger": false,
      "taf_trigger": false,
      "metar": "METAR GCFV 052330Z AUTO 36016KT 9999 OVC025 20/14 Q1019",
      "taf": "TAF GCFV 052000Z 0521/0621 36016KT 9999 SCT025 TX26/0614Z TN19/0606Z"
    },
    {
      "icao": "GCLP",
      "alert": "OK",
      "vis_m": 9999,
      "fzfg": false,
      "metar_trigger": false,
      "taf_trigger": false,
      "metar": "METAR GCLP 052330Z 01025KT 9999 FEW020 20/14 Q1019 NOSIG",
      "taf": "TAF GCLP 052000Z 0521/0621 36024KT 9999 SCT020 TX26/0614Z TN19/0606Z"
    },
    {
      "icao": "GCTS",
      "alert": "OK",
      "vis_m": 9999,
      "fzfg": false,
      "metar_trigger": false,
      "taf_trigger": false,
      "metar": "METAR GCTS 052330Z 08006KT 040V120 9999 FEW025 20/12 Q1020 NOSIG",
      "taf": "TAF GCTS 052000Z 0521/0621 06010KT 9999 FEW030 TX28/0614Z TN20/0606Z"
    },
    {
      "icao": "GMAD",
      "alert": "OK",
      "vis_m": 8000,
      "fzfg": false,
      "metar_trigger": false,
      "taf_trigger": false,
      "metar": "METAR GMAD 052330Z 24005KT 8000 NSC 18/15 Q1014 NOSIG",
      "taf": "TAF GMAD 052300Z 0600/0706 24003KT 8000 NSC"
    },
    {
      "icao": "GMMN",
      "alert": "OK",
      "vis_m": 9999,
      "fzfg": false,
      "metar_trigger": false,
      "taf_trigger": false,
      "metar": "METAR GMMN 052330Z 36006KT CAVOK 16/13 Q1018 NOSIG",
      "taf": "TAF GMMN 052300Z 0600/0706 36005KT 9999 CAVOK"
    },
    {
      "icao": "GMMX",
      "alert": "OK",
      "vis_m": 9999,
      "fzfg": false,
      "metar_trigger": false,
      "taf_trigger": false,
      "metar": "METAR GMMX 052330Z 01007KT 340V040 CAVOK 21/13 Q1017 NOSIG",
      "taf": "TAF GMMX 052300Z 0600/0706 24006KT 8000 NSC"
    },
    {
      "icao": "HEGN",
      "alert": "OK",
      "vis_m": 9999,
      "fzfg": false,
      "metar_trigger": false,
      "taf_trigger": false,
      "metar": "METAR HEGN 052300Z 30017KT CAVOK 30/06 Q1011 NOSIG",
      "taf": "TAF HEGN 052300Z 0600/0706 30010KT CAVOK"
    },
    {
      "icao": "HEMA",
      "alert": "OK",
      "vis_m": 9999,
      "fzfg": false,
      "metar_trigger": false,
      "taf_trigger": false,
      "metar": "METAR HEMA 052300Z 29003KT CAVOK 30/05 Q1011 NOSIG",
      "taf": "TAF HEMA 052300Z 0600/0706 31010KT CAVOK"
    },
    {
      "icao": "HESH",
      "alert": "OK",
      "vis_m": 9999,
      "fzfg": false,
      "metar_trigger": false,
      "taf_trigger": false,
      "metar": "METAR HESH 052300Z 34018KT CAVOK 28/14 Q1010 NOSIG",
      "taf": "TAF HESH 052300Z 0600/0706 34010KT CAVOK"
    },
    {
      "icao": "HESX",
      "alert": "OK",
      "vis_m": 9999,
      "fzfg": false,
      "metar_trigger": false,
      "taf_trigger": false,
      "metar": "METAR HESX 052300Z 07008KT CAVOK 24/10 Q1013 NOSIG",
      "taf": "TAF HESX 052300Z 0600/0706 08010KT CAVOK"
    },
    {
      "icao": "LATI",
      "alert": "OK",
      "vis_m": 9999,
      "fzfg": false,
      "metar_trigger": false,
      "taf_trigger": false,
      "metar": "METAR LATI 052350Z 14003KT CAVOK 18/14 Q1015 NOSIG",
      "taf": "TAF LATI 052300Z 0600/0624 VRB03KT CAVOK TX31/0612Z TN15/0604Z"
    },
    {
      "icao": "LBPD",
      "alert": "OK",
      "vis_m": 9999,
      "fzfg": false,
      "metar_trigger": false,
      "taf_trigger": false,
      "metar": "METAR LBPD 060000Z AUTO 12005KT 9999 BKN120/// 19/18 Q1015",
      "taf": "TAF LBPD 052300Z 0600/0624 VRB04KT 9999 FEW025 SCT040"
    },
    {
      "icao": "LBSF",
      "alert": "OK",
      "vis_m": 9999,
      "fzfg": false,
      "metar_trigger": false,
      "taf_trigger": false,
      "metar": "METAR LBSF 060000Z AUTO 13004KT 9999 NCD 18/15 Q1017 NOSIG",
      "taf": "TAF LBSF 052300Z 0600/0624 VRB04KT 9999 SCT050"
    },
    {
      "icao": "LBWN",
      "alert": "OK",
      "vis_m": 9999,
      "fzfg": false,
      "metar_trigger": false,
      "taf_trigger": false,
      "metar": "METAR LBWN 060000Z AUTO 01003KT 9999 NSC 15/15 Q1015 TEMPO 3000 BR",
      "taf": "TAF LBWN 052300Z 0600/0624 VRB04KT 8000 SCT010"
    },
    {
      "icao": "LCLK",
      "alert": "OK",
      "vis_m": 9999,
      "fzfg": false,
      "metar_trigger": false,
      "taf_trigger": false,
      "metar": "METAR LCLK 052330Z 01006KT CAVOK 21/15 Q1012 NOSIG",
      "taf": "TAF LCLK 052330Z 0600/0700 33006KT CAVOK"
    },
    {
      "icao": "LCPH",
      "alert": "OK",
      "vis_m": 9999,
      "fzfg": false,
      "metar_trigger": false,
      "taf_trigger": false,
      "metar": "METAR LCPH 052330Z AUTO 03005KT 010V080 9999 NCD 19/09 Q1012 NOSIG",
      "taf": "TAF LCPH 052330Z 0600/0700 02006KT CAVOK"
    },
    {
      "icao": "LEAL",
      "alert": "OK",
      "vis_m": 9999,
      "fzfg": false,
      "metar_trigger": false,
      "taf_trigger": false,
      "metar": "METAR LEAL 052330Z 06004KT 030V090 9999 -DZ BKN013 BKN017 23/20 Q1017 NOSIG",
      "taf": "TAF LEAL 052300Z 0600/0624 VRB04KT 9999 BKN016 TX28/0612Z TN21/0606Z"
    },
    {
      "icao": "LEBB",
      "alert": "OK",
      "vis_m": 9999,
      "fzfg": false,
      "metar_trigger": false,
      "taf_trigger": false,
      "metar": "METAR LEBB 052330Z AUTO VRB02KT CAVOK 14/13 Q1014",
      "taf": "TAF LEBB 052300Z 0600/0624 11006KT 9999 SCT025 TX18/0607Z TN12/0604Z"
    },
    {
      "icao": "LEBL",
      "alert": "OK",
      "vis_m": 9999,
      "fzfg": false,
      "metar_trigger": false,
      "taf_trigger": false,
      "metar": "METAR LEBL 052330Z 34003KT 290V350 9999 FEW023 SCT030 19/16 Q1017 NOSIG",
      "taf": "TAF LEBL 052300Z 0600/0624 34004KT 9999 BKN020 TX24/0612Z TN17/0606Z"
    },
    {
      "icao": "LECH",
      "alert": "OK",
      "vis_m": 9000,
      "fzfg": false,
      "metar_trigger": false,
      "taf_trigger": false,
      "metar": "METAR LECH 052330Z AUTO VRB02KT 9000 OVC033 17/14 Q1018",
      "taf": "TAF LECH 052300Z 0600/0624 VRB04KT 9999 SCT020 TX28/0613Z TN14/0606Z"
    },
    {
      "icao": "LEMD",
      "alert": "OK",
      "vis_m": 9999,
      "fzfg": false,
      "metar_trigger": false,
      "taf_trigger": false,
      "metar": "METAR LEMD 052330Z VRB02KT CAVOK 18/06 Q1016 NOSIG",
      "taf": "TAF LEMD 052300Z 0600/0706 VRB05KT CAVOK TX31/0616Z TN16/0605Z"
    },
    {
      "icao": "LEMG",
      "alert": "OK",
      "vis_m": 9999,
      "fzfg": false,
      "metar_trigger": false,
      "taf_trigger": false,
      "metar": "METAR LEMG 052330Z 14003KT CAVOK 20/18 Q1016 NOSIG",
      "taf": "TAF LEMG 052300Z 0600/0624 VRB02KT CAVOK TX28/0614Z TN19/0606Z"
    },
    {
      "icao": "LEVC",
      "alert": "OK",
      "vis_m": 9999,
      "fzfg": false,
      "metar_trigger": false,
      "taf_trigger": false,
      "metar": "METAR LEVC 052330Z 26003KT 9999 FEW019 BKN023 20/17 Q1017 NOSIG",
      "taf": "TAF LEVC 052300Z 0600/0624 VRB04KT 9999 SCT025 TX28/0612Z TN18/0606Z"
    },
    {
      "icao": "LEXJ",
      "alert": "OK",
      "vis_m": 9999,
      "fzfg": false,
      "metar_trigger": false,
      "taf_trigger": false,
      "metar": "METAR LEXJ 052330Z AUTO VRB01KT CAVOK 14/12 Q1014",
      "taf": "TAF LEXJ 052000Z 0521/0621 20006KT 9999 SCT040 TX18/0616Z TN14/0601Z"
    },
    {
      "icao": "LEZG",
      "alert": "OK",
      "vis_m": 9999,
      "fzfg": false,
      "metar_trigger": false,
      "taf_trigger": false,
      "metar": "METAR LEZG 052330Z 09008KT CAVOK 20/13 Q1015 NOSIG",
      "taf": "TAF LEZG 052300Z 0600/0624 10008KT CAVOK TX31/0615Z TN16/0606Z"
    },
    {
      "icao": "LEZL",
      "alert": "OK",
      "vis_m": 9999,
      "fzfg": false,
      "metar_trigger": false,
      "taf_trigger": false,
      "metar": "METAR LEZL 052330Z 15004KT CAVOK 20/12 Q1016 NOSIG",
      "taf": "TAF LEZL 052000Z 0521/0621 20010KT CAVOK TX34/0615Z TN19/0606Z"
    },
    {
      "icao": "LFBD",
      "alert": "OK",
      "vis_m": 9999,
      "fzfg": false,
      "metar_trigger": false,
      "taf_trigger": false,
      "metar": "METAR LFBD 052330Z AUTO VRB02KT CAVOK 14/10 Q1014 NOSIG",
      "taf": "TAF LFBD 052300Z 0600/0706 VRB03KT CAVOK TX22/0614Z TN10/0704Z"
    },
    {
      "icao": "LFLL",
      "alert": "OK",
      "vis_m": 9999,
      "fzfg": false,
      "metar_trigger": false,
      "taf_trigger": false,
      "metar": "METAR LFLL 052330Z VRB03KT CAVOK 14/09 Q1016 NOSIG",
      "taf": "TAF LFLL 052300Z 0600/0706 VRB02KT CAVOK"
    },
    {
      "icao": "LFLS",
      "alert": "OK",
      "vis_m": 9999,
      "fzfg": false,
      "metar_trigger": false,
      "taf_trigger": false,
      "metar": "METAR LFLS 052330Z AUTO 14003KT CAVOK 12/09 Q1016",
      "taf": "TAF LFLS 051400Z 0515/0615 35007KT 9999 SCT050"
    },
    {
      "icao": "LFMN",
      "alert": "OK",
      "vis_m": 9999,
      "fzfg": false,
      "metar_trigger": false,
      "taf_trigger": false,
      "metar": "METAR LFMN 052330Z 31005KT 9999 BKN024 BKN260 20/15 Q1014 NOSIG",
      "taf": "TAF LFMN 052000Z 0521/0703 06005KT CAVOK"
    },
    {
      "icao": "LFOB",
      "alert": "OK",
      "vis_m": 9999,
      "fzfg": false,
      "metar_trigger": false,
      "taf_trigger": false,
      "metar": "METAR LFOB 052330Z AUTO 09002KT CAVOK 09/08 Q1014 NOSIG",
      "taf": "TAF LFOB 052300Z 0600/0624 VRB04KT CAVOK"
    },
    {
      "icao": "LFPO",
      "alert": "OK",
      "vis_m": 9999,
      "fzfg": false,
      "metar_trigger": false,
      "taf_trigger": false,
      "metar": "METAR LFPO 052330Z AUTO 18003KT CAVOK 13/08 Q1014 NOSIG",
      "taf": "TAF LFPO 052300Z 0600/0706 18003KT CAVOK"
    },
    {
      "icao": "LFSB",
      "alert": "OK",
      "vis_m": 9999,
      "fzfg": false,
      "metar_trigger": false,
      "taf_trigger": false,
      "metar": "METAR LFSB 052330Z AUTO 23003KT CAVOK 10/09 Q1016 NOSIG",
      "taf": "TAF LFSB 052300Z 0600/0624 VRB03KT CAVOK"
    },
    {
      "icao": "LGAV",
      "alert": "OK",
      "vis_m": 9999,
      "fzfg": false,
      "metar_trigger": false,
      "taf_trigger": false,
      "metar": "METAR LGAV 052350Z VRB01KT 9999 FEW030 16/13 Q1015 NOSIG",
      "taf": "TAF LGAV 052300Z 0600/0624 VRB05KT 9999 FEW030"
    },
    {
      "icao": "LGTS",
      "alert": "OK",
      "vis_m": 9999,
      "fzfg": false,
      "metar_trigger": false,
      "taf_trigger": false,
      "metar": "METAR LGTS 052350Z VRB03KT CAVOK 18/17 Q1015 NOSIG",
      "taf": "TAF LGTS 052300Z 0600/0624 VRB03KT 9999 FEW030"
    },
    {
      "icao": "LHBP",
      "alert": "OK",
      "vis_m": 9999,
      "fzfg": false,
      "metar_trigger": false,
      "taf_trigger": false,
      "metar": "METAR LHBP 052330Z 28006KT CAVOK 14/10 Q1016 NOSIG",
      "taf": "TAF LHBP 052315Z 0600/0624 31008KT CAVOK"
    },
    {
      "icao": "LHDC",
      "alert": "OK",
      "vis_m": 9999,
      "fzfg": false,
      "metar_trigger": false,
      "taf_trigger": false,
      "metar": "METAR LHDC 052315Z AUTO 28006KT CAVOK 18/13 Q1015",
      "taf": "TAF LHDC 051415Z 0515/0524 25008KT CAVOK"
    },
    {
      "icao": "LIBD",
      "alert": "OK",
      "vis_m": 9999,
      "fzfg": false,
      "metar_trigger": false,
      "taf_trigger": false,
      "metar": "METAR LIBD 052350Z 25002KT CAVOK 20/17 Q1014",
      "taf": "TAF LIBD 052300Z 0600/0624 VRB06KT CAVOK"
    },
    {
      "icao": "LIBG",
      "alert": "OK",
      "vis_m": 9999,
      "fzfg": false,
      "metar_trigger": false,
      "taf_trigger": false,
      "metar": "METAR LIBG 052350Z AUTO VRB01KT 9999 NCD 18/17 Q1014",
      "taf": "TAF LIBG 052300Z 0600/0624 VRB05KT CAVOK"
    },
    {
      "icao": "LIBP",
      "alert": "OK",
      "vis_m": 9999,
      "fzfg": false,
      "metar_trigger": false,
      "taf_trigger": false,
      "metar": "METAR LIBP 052350Z AUTO 19003KT 9999 FEW120/// 17/15 Q1014",
      "taf": "TAF LIBP 052300Z 0600/0624 VRB05KT 9999 SCT080"
    },
    {
      "icao": "LIBR",
      "alert": "OK",
      "vis_m": 9999,
      "fzfg": false,
      "metar_trigger": false,
      "taf_trigger": false,
      "metar": "METAR LIBR 052350Z 23008KT CAVOK 21/18 Q1014",
      "taf": "TAF LIBR 052300Z 0600/0624 VRB05KT CAVOK"
    },
    {
      "icao": "LICA",
      "alert": "OK",
      "vis_m": 9999,
      "fzfg": false,
      "metar_trigger": false,
      "taf_trigger": false,
      "metar": "METAR LICA 052350Z AUTO 08004KT 9999 NCD 16/14 Q1015",
      "taf": "TAF LICA 052300Z 0600/0624 VRB04KT 9999 FEW020"
    },
    {
      "icao": "LICC",
      "alert": "OK",
      "vis_m": 9999,
      "fzfg": false,
      "metar_trigger": false,
      "taf_trigger": false,
      "metar": "METAR LICC 052350Z 24004KT CAVOK 20/14 Q1014",
      "taf": "TAF LICC 052300Z 0600/0624 26005KT CAVOK"
    },
    {
      "icao": "LICJ",
      "alert": "OK",
      "vis_m": 9999,
      "fzfg": false,
      "metar_trigger": false,
      "taf_trigger": false,
      "metar": "METAR LICJ 052350Z 23003KT CAVOK 20/18 Q1014",
      "taf": "TAF LICJ 052300Z 0600/0624 VRB05KT CAVOK"
    },
    {
      "icao": "LIMC",
      "alert": "OK",
      "vis_m": 9999,
      "fzfg": false,
      "metar_trigger": false,
      "taf_trigger": false,
      "metar": "METAR LIMC 052350Z 08009KT 9999 SCT040 18/16 Q1015 NOSIG",
      "taf": "TAF LIMC 052300Z 0600/0706 VRB05KT 9999 SCT030"
    },
    {
      "icao": "LIME",
      "alert": "OK",
      "vis_m": 9999,
      "fzfg": false,
      "metar_trigger": false,
      "taf_trigger": false,
      "metar": "METAR LIME 052350Z 31005KT 280V340 9999 SCT100 19/15 Q1014 RETS NOSIG",
      "taf": "TAF LIME 052300Z 0600/0624 VRB05KT 9999 SCT030"
    },
    {
      "icao": "LIMF",
      "alert": "OK",
      "vis_m": 9999,
      "fzfg": false,
      "metar_trigger": false,
      "taf_trigger": false,
      "metar": "METAR LIMF 052350Z VRB03KT 9999 SCT080 18/13 Q1014",
      "taf": "TAF LIMF 052300Z 0600/0624 VRB05KT 9999 SCT040"
    },
    {
      "icao": "LIMJ",
      "alert": "OK",
      "vis_m": 9999,
      "fzfg": false,
      "metar_trigger": false,
      "taf_trigger": false,
      "metar": "METAR LIMJ 052350Z 06006KT CAVOK 18/14 Q1014",
      "taf": "TAF LIMJ 052300Z 0600/0624 05007KT 9999 SCT020"
    },
    {
      "icao": "LIPE",
      "alert": "OK",
      "vis_m": 9999,
      "fzfg": false,
      "metar_trigger": false,
      "taf_trigger": false,
      "metar": "METAR LIPE 052350Z 27003KT 210V290 CAVOK 15/05 Q1013",
      "taf": "TAF LIPE 052300Z 0600/0624 26006KT CAVOK"
    },
    {
      "icao": "LIPH",
      "alert": "OK",
      "vis_m": 9999,
      "fzfg": false,
      "metar_trigger": false,
      "taf_trigger": false,
      "metar": "METAR LIPH 052350Z AUTO 05007KT 020V080 9999 BKN039/// 17/15 Q1015",
      "taf": "TAF LIPH 052300Z 0600/0624 05013KT 9999 BKN020"
    },
    {
      "icao": "LIPQ",
      "alert": "OK",
      "vis_m": 9999,
      "fzfg": false,
      "metar_trigger": false,
      "taf_trigger": false,
      "metar": "METAR LIPQ 052350Z AUTO 36003KT 9999 OVC045/// 16/15 Q1015",
      "taf": "TAF LIPQ 052300Z 0600/0624 VRB06KT 9999 OVC030"
    },
    {
      "icao": "LIPR",
      "alert": "OK",
      "vis_m": 9999,
      "fzfg": false,
      "metar_trigger": false,
      "taf_trigger": false,
      "metar": "METAR LIPR 052350Z AUTO 21004KT 9999 FEW088/// 20/16 Q1013",
      "taf": "TAF LIPR 052300Z 0600/0624 VRB05KT CAVOK"
    },
    {
      "icao": "LIPX",
      "alert": "OK",
      "vis_m": 9999,
      "fzfg": false,
      "metar_trigger": false,
      "taf_trigger": false,
      "metar": "METAR LIPX 052350Z 07010KT 9999 FEW070 20/15 Q1014",
      "taf": "TAF LIPX 052300Z 0600/0624 09010KT 9999 FEW040"
    },
    {
      "icao": "LIPY",
      "alert": "OK",
      "vis_m": 9999,
      "fzfg": false,
      "metar_trigger": false,
      "taf_trigger": false,
      "metar": "METAR LIPY 052350Z AUTO 20004KT 9999 NCD 18/15 Q1014",
      "taf": "TAF LIPY 052300Z 0600/0624 19006KT 9999 BKN070"
    },
    {
      "icao": "LIPZ",
      "alert": "OK",
      "vis_m": 9999,
      "fzfg": false,
      "metar_trigger": false,
      "taf_trigger": false,
      "metar": "METAR LIPZ 052350Z 05011KT 9999 -RA SCT050 17/15 Q1015 NOSIG",
      "taf": "TAF LIPZ 052300Z 0600/0706 04015KT 9999 FEW020"
    },
    {
      "icao": "LIRF",
      "alert": "OK",
      "vis_m": 9999,
      "fzfg": false,
      "metar_trigger": false,
      "taf_trigger": false,
      "metar": "METAR LIRF 052350Z VRB02KT CAVOK 18/17 Q1015 NOSIG",
      "taf": "TAF LIRF 052300Z 0600/0706 VRB04KT 9999 FEW020"
    },
    {
      "icao": "LIRN",
      "alert": "OK",
      "vis_m": 9999,
      "fzfg": false,
      "metar_trigger": false,
      "taf_trigger": false,
      "metar": "METAR LIRN 052350Z 10002KT CAVOK 21/17 Q1015 NOSIG",
      "taf": "TAF LIRN 052300Z 0600/0624 VRB04KT 9999 FEW020"
    },
    {
      "icao": "LIRP",
      "alert": "OK",
      "vis_m": 9999,
      "fzfg": false,
      "metar_trigger": false,
      "taf_trigger": false,
      "metar": "METAR LIRP 052345Z 15004KT 9999 FEW060 15/13 Q1015 NOSIG",
      "taf": "TAF LIRP 052300Z 0600/0624 VRB02KT 9999 FEW070"
    },
    {
      "icao": "LIRZ",
      "alert": "OK",
      "vis_m": 9999,
      "fzfg": false,
      "metar_trigger": false,
      "taf_trigger": false,
      "metar": "METAR LIRZ 052350Z AUTO VRB02KT 9999 NCD 15/14 Q1015",
      "taf": "TAF LIRZ 052300Z 0600/0624 VRB03KT 9999 FEW030"
    },
    {
      "icao": "LJLJ",
      "alert": "OK",
      "vis_m": 9999,
      "fzfg": false,
      "metar_trigger": false,
      "taf_trigger": false,
      "metar": "METAR LJLJ 052330Z VRB01KT 9999 -SHRA FEW003 BKN010TCU OVC080 13/13 Q1019 NOSIG",
      "taf": "TAF LJLJ 052300Z 0600/0700 VRB02KT 9999 FEW003 BKN015 OVC040"
    },
    {
      "icao": "LKMT",
      "alert": "OK",
      "vis_m": 3000,
      "fzfg": false,
      "metar_trigger": false,
      "taf_trigger": false,
      "metar": "METAR LKMT 052330Z 24003KT 3000 R22/P2000N R04/1300D BR BCFG FEW003 08/08 Q1018 TEMPO 0800 FG BKN002",
      "taf": "TAF LKMT 052300Z 0600/0624 VRB02KT 4000 BR BCFG SCT002"
    },
    {
      "icao": "LKPR",
      "alert": "OK",
      "vis_m": 9999,
      "fzfg": false,
      "metar_trigger": false,
      "taf_trigger": false,
      "metar": "METAR LKPR 052330Z VRB04KT CAVOK 10/09 Q1017 NOSIG",
      "taf": "TAF LKPR 052300Z 0600/0706 20005KT CAVOK"
    },
    {
      "icao": "LLBG",
      "alert": "OK",
      "vis_m": 9999,
      "fzfg": false,
      "metar_trigger": false,
      "taf_trigger": false,
      "metar": "METAR LLBG 052350Z 14004KT CAVOK 20/14 Q1013 NOSIG",
      "taf": "TAF LLBG 052306Z 0600/0624 VRB04KT CAVOK TX33/0611Z TN18/0603Z"
    },
    {
      "icao": "LMML",
      "alert": "OK",
      "vis_m": 9000,
      "fzfg": false,
      "metar_trigger": false,
      "taf_trigger": false,
      "metar": "METAR LMML 052345Z 02006KT 9000 BKN004 22/21 Q1014 TEMPO SCT004",
      "taf": "TAF LMML 052300Z 0600/0624 VRB07KT 9999 FEW005"
    },
    {
      "icao": "LOWW",
      "alert": "OK",
      "vis_m": 9999,
      "fzfg": false,
      "metar_trigger": false,
      "taf_trigger": false,
      "metar": "METAR LOWW 052350Z 19003KT CAVOK 11/09 Q1018 NOSIG",
      "taf": "TAF LOWW 052315Z 0600/0706 23004KT CAVOK TX24/0615Z TN09/0603Z"
    },
    {
      "icao": "LPFR",
      "alert": "OK",
      "vis_m": 9999,
      "fzfg": false,
      "metar_trigger": false,
      "taf_trigger": false,
      "metar": "METAR LPFR 052330Z 33009KT 300V360 CAVOK 21/07 Q1017",
      "taf": "TAF LPFR 052300Z 0600/0624 32008KT CAVOK"
    },
    {
      "icao": "LPMA",
      "alert": "OK",
      "vis_m": 9999,
      "fzfg": false,
      "metar_trigger": false,
      "taf_trigger": false,
      "metar": "METAR LPMA 052330Z 02007KT 330V050 9999 FEW014 20/16 Q1023",
      "taf": "TAF LPMA 052300Z 0600/0624 01012KT 9999 SCT014"
    },
    {
      "icao": "LPPR",
      "alert": "OK",
      "vis_m": 9999,
      "fzfg": false,
      "metar_trigger": false,
      "taf_trigger": false,
      "metar": "METAR LPPR 052330Z 18009KT 9999 SCT018 BKN022 16/11 Q1019",
      "taf": "TAF LPPR 052300Z 0600/0624 16008KT 9999 BKN020"
    },
    {
      "icao": "LPPS",
      "alert": "OK",
      "vis_m": 9999,
      "fzfg": false,
      "metar_trigger": false,
      "taf_trigger": false,
      "metar": "METAR LPPS 052330Z 33013KT 9999 SCT010 SCT025 19/17 Q1024",
      "taf": "TAF LPPS 052300Z 0600/0706 35012KT 9999 SCT012"
    },
    {
      "icao": "LPPT",
      "alert": "OK",
      "vis_m": 9999,
      "fzfg": false,
      "metar_trigger": false,
      "taf_trigger": false,
      "metar": "METAR LPPT 052330Z 31003KT 250V050 CAVOK 16/12 Q1020",
      "taf": "TAF LPPT 052300Z 0600/0706 30007KT CAVOK"
    },
    {
      "icao": "LQBK",
      "alert": "OK",
      "vis_m": 9999,
      "fzfg": false,
      "metar_trigger": false,
      "taf_trigger": false,
      "metar": "METAR LQBK 052330Z 31005KT 9999 FEW017 BKN035 15/12 Q1018 NOSIG",
      "taf": "TAF LQBK 052300Z 0600/0624 35005KT 9999 SCT040 TX23/0613Z TN14/0603Z"
    },
    {
      "icao": "LQSA",
      "alert": "OK",
      "vis_m": 9999,
      "fzfg": false,
      "metar_trigger": false,
      "taf_trigger": false,
      "metar": "METAR LQSA 052330Z 32004KT 290V350 9999 SCT060 19/14 Q1017",
      "taf": "TAF LQSA 052300Z 0600/0624 27006KT 9999 SCT060 TX26/0613Z TN12/0603Z"
    },
    {
      "icao": "LQTZ",
      "alert": "OK",
      "vis_m": 9999,
      "fzfg": false,
      "metar_trigger": false,
      "taf_trigger": false,
      "metar": "METAR LQTZ 052330Z 27005KT 9999 SCT040 17/15 Q1017",
      "taf": "TAF LQTZ 052300Z 0600/0624 27005KT 9999 SCT050 TX25/0613Z TN14/0603Z"
    },
    {
      "icao": "LRBC",
      "alert": "OK",
      "vis_m": 9999,
      "fzfg": false,
      "metar_trigger": false,
      "taf_trigger": false,
      "metar": "METAR LRBC 052330Z 16006KT 9999 SCT055 18/18 Q1014",
      "taf": "TAF LRBC 052300Z 0600/0609 17008KT 9999 SCT030"
    },
    {
      "icao": "LRBS",
      "alert": "OK",
      "vis_m": 9999,
      "fzfg": false,
      "metar_trigger": false,
      "taf_trigger": false,
      "metar": "METAR LRBS 052330Z VRB02KT CAVOK 19/18 Q1015 NOSIG",
      "taf": "TAF LRBS 052300Z 0600/0624 VRB04KT CAVOK"
    },
    {
      "icao": "LRBV",
      "alert": "OK",
      "vis_m": 9999,
      "fzfg": false,
      "metar_trigger": false,
      "taf_trigger": false,
      "metar": "METAR LRBV 052330Z AUTO 22009KT 9999 BKN048/// OVC100/// 18/15 Q1016",
      "taf": "TAF LRBV 051700Z 0518/0603 20008KT CAVOK"
    },
    {
      "icao": "LRCL",
      "alert": "OK",
      "vis_m": 9999,
      "fzfg": false,
      "metar_trigger": false,
      "taf_trigger": false,
      "metar": "METAR LRCL 052330Z 27004KT 240V300 9999 BKN069 18/17 Q1015",
      "taf": "TAF LRCL 052300Z 0600/0609 VRB04KT 9999 SCT045"
    },
    {
      "icao": "LRCV",
      "alert": "OK",
      "vis_m": 9999,
      "fzfg": false,
      "metar_trigger": false,
      "taf_trigger": false,
      "metar": "METAR LRCV 052330Z 03005KT CAVOK 18/17 Q1015",
      "taf": "TAF LRCV 052300Z 0600/0609 VRB04KT CAVOK"
    },
    {
      "icao": "LRIA",
      "alert": "OK",
      "vis_m": 9999,
      "fzfg": false,
      "metar_trigger": false,
      "taf_trigger": false,
      "metar": "METAR LRIA 052330Z 09007KT 9999 BKN042 19/16 Q1015",
      "taf": "TAF LRIA 052300Z 0600/0609 10006KT 9999 SCT030"
    },
    {
      "icao": "LROP",
      "alert": "OK",
      "vis_m": 9999,
      "fzfg": false,
      "metar_trigger": false,
      "taf_trigger": false,
      "metar": "METAR LROP 052330Z 01004KT 340V060 9999 SCT030 21/19 Q1015 NOSIG",
      "taf": "TAF LROP 052300Z 0600/0624 VRB04KT CAVOK"
    },
    {
      "icao": "LRSB",
      "alert": "OK",
      "vis_m": 9999,
      "fzfg": false,
      "metar_trigger": false,
      "taf_trigger": false,
      "metar": "METAR LRSB 052330Z 17002KT 9999 BKN047 19/17 Q1016",
      "taf": "TAF LRSB 052300Z 0600/0624 VRB04KT 9999 BKN045"
    },
    {
      "icao": "LRSM",
      "alert": "OK",
      "vis_m": 9999,
      "fzfg": false,
      "metar_trigger": false,
      "taf_trigger": false,
      "metar": "METAR LRSM 052330Z AUTO 19005KT 9999 SCT210/// 18/16 Q1014",
      "taf": "TAF LRSM 051400Z 0515/0524 VRB04KT 9999 FEW040"
    },
    {
      "icao": "LRSV",
      "alert": "OK",
      "vis_m": 9999,
      "fzfg": false,
      "metar_trigger": false,
      "taf_trigger": false,
      "metar": "METAR LRSV 052330Z 19003KT CAVOK 18/17 Q1015",
      "taf": "TAF LRSV 052300Z 0600/0609 VRB04KT 9999 SCT030"
    },
    {
      "icao": "LRTM",
      "alert": "OK",
      "vis_m": 9999,
      "fzfg": false,
      "metar_trigger": false,
      "taf_trigger": false,
      "metar": "METAR LRTM 052330Z 24003KT 9999 SCT043 19/18 Q1015",
      "taf": "TAF LRTM 052300Z 0600/0609 VRB04KT 9999 SCT045"
    },
    {
      "icao": "LRTR",
      "alert": "OK",
      "vis_m": 9999,
      "fzfg": false,
      "metar_trigger": false,
      "taf_trigger": false,
      "metar": "METAR LRTR 052330Z 35007KT CAVOK 18/15 Q1015",
      "taf": "TAF LRTR 052300Z 0600/0624 35008KT CAVOK"
    },
    {
      "icao": "LTAC",
      "alert": "OK",
      "vis_m": 9999,
      "fzfg": false,
      "metar_trigger": false,
      "taf_trigger": false,
      "metar": "METAR LTAC 052350Z 16004KT 9999 SCT040 BKN100 14/11 Q1017 NOSIG RMK RWY21C 16005KT RWY03L 15003KT 110V180 RWY21R 15004KT RWY03R VRB02KT RWY21L 19004KT",
      "taf": "TAF LTAC 052240Z 0600/0624 VRB02KT 9999 SCT040 SCT100"
    },
    {
      "icao": "LTFM",
      "alert": "OK",
      "vis_m": 9999,
      "fzfg": false,
      "metar_trigger": false,
      "taf_trigger": false,
      "metar": "METAR LTFM 052350Z 02009KT 9999 BKN008 18/16 Q1014 NOSIG RMK RWY17L 36007KT RWY34L 35010KT RWY16R 36008KT RWY36 01010KT RWY18 02007KT",
      "taf": "TAF LTFM 052240Z 0600/0706 02012KT 9999 BKN009"
    },
    {
      "icao": "LUKK",
      "alert": "OK",
      "vis_m": 9999,
      "fzfg": false,
      "metar_trigger": false,
      "taf_trigger": false,
      "metar": "METAR LUKK 052330Z 16004KT CAVOK 17/15 Q1016 NOSIG",
      "taf": "TAF LUKK 052304Z 0600/0624 VRB05KT CAVOK"
    },
    {
      "icao": "LWOH",
      "alert": "OK",
      "vis_m": null,
      "fzfg": false,
      "metar_trigger": false,
      "taf_trigger": false,
      "metar": "",
      "taf": "TAF LWOH 052305Z 0600/0624 33005KT CAVOK"
    },
    {
      "icao": "LWSK",
      "alert": "OK",
      "vis_m": 9999,
      "fzfg": false,
      "metar_trigger": false,
      "taf_trigger": false,
      "metar": "METAR LWSK 052350Z 05004KT 030V130 CAVOK 19/14 Q1016 NOSIG",
      "taf": "TAF LWSK 052305Z 0600/0624 VRB02KT 9999 FEW080"
    },
    {
      "icao": "LYBE",
      "alert": "OK",
      "vis_m": 9999,
      "fzfg": false,
      "metar_trigger": false,
      "taf_trigger": false,
      "metar": "METAR LYBE 052330Z 01007KT CAVOK 18/13 Q1016 NOSIG",
      "taf": "TAF LYBE 052300Z 0600/0624 32008KT 9999 SCT040 TX24/0613Z TN15/0603Z"
    },
    {
      "icao": "LYNI",
      "alert": "OK",
      "vis_m": 9999,
      "fzfg": false,
      "metar_trigger": false,
      "taf_trigger": false,
      "metar": "METAR LYNI 052330Z 33001KT CAVOK 17/16 Q1015 NOSIG",
      "taf": "TAF LYNI 052300Z 0600/0624 07005KT 9999 SCT080 TX27/0614Z TN14/0603Z"
    },
    {
      "icao": "LYPG",
      "alert": "OK",
      "vis_m": 9999,
      "fzfg": false,
      "metar_trigger": false,
      "taf_trigger": false,
      "metar": "METAR LYPG 052330Z 31003KT 280V340 CAVOK 19/15 Q1015 NOSIG",
      "taf": "TAF LYPG 052300Z 0600/0624 36005KT CAVOK TX29/0614Z TN19/0603Z"
    },
    {
      "icao": "LZIB",
      "alert": "OK",
      "vis_m": 9999,
      "fzfg": false,
      "metar_trigger": false,
      "taf_trigger": false,
      "metar": "METAR LZIB 052330Z VRB03KT CAVOK 13/10 Q1017 NOSIG",
      "taf": "TAF LZIB 052315Z 0600/0700 VRB02KT 9999 FEW030"
    },
    {
      "icao": "LZKZ",
      "alert": "OK",
      "vis_m": 9999,
      "fzfg": false,
      "metar_trigger": false,
      "taf_trigger": false,
      "metar": "METAR LZKZ 052330Z 01016KT CAVOK 16/13 Q1015 NOSIG",
      "taf": "TAF LZKZ 052315Z 0600/0700 02012KT 9999 SCT025 BKN040"
    },
    {
      "icao": "LZTT",
      "alert": "OK",
      "vis_m": 9999,
      "fzfg": false,
      "metar_trigger": false,
      "taf_trigger": false,
      "metar": "METAR LZTT 052330Z VRB01KT 9999 OVC009 12/11 Q1017",
      "taf": "TAF LZTT 052315Z 0600/0700 VRB02KT 9999 FEW006 OVC012"
    },
    {
      "icao": "OEJN",
      "alert": "OK",
      "vis_m": 9999,
      "fzfg": false,
      "metar_trigger": false,
      "taf_trigger": false,
      "metar": "METAR OEJN 060000Z 27003KT CAVOK 30/17 Q1007 NOSIG",
      "taf": "TAF OEJN 052300Z 0600/0706 36005KT CAVOK"
    },
    {
      "icao": "OEMA",
      "alert": "OK",
      "vis_m": 9999,
      "fzfg": false,
      "metar_trigger": false,
      "taf_trigger": false,
      "metar": "METAR OEMA 060000Z 30008KT CAVOK 34/M05 Q1012 NOSIG",
      "taf": "TAF OEMA 052300Z 0600/0706 27006KT CAVOK"
    },
    {
      "icao": "OJAI",
      "alert": "OK",
      "vis_m": 5000,
      "fzfg": false,
      "metar_trigger": false,
      "taf_trigger": false,
      "metar": "METAR OJAI 052300Z 25005KT 5000 HZ NSC 16/03 Q1016 NOSIG",
      "taf": "TAF OJAI 052247Z 0600/0706 30012KT 5000 HZ NSC"
    },
    {
      "icao": "OMAA",
      "alert": "OK",
      "vis_m": 9999,
      "fzfg": false,
      "metar_trigger": false,
      "taf_trigger": false,
      "metar": "METAR OMAA 060000Z 24005KT CAVOK 29/20 Q1000 NOSIG",
      "taf": "TAF OMAA 052300Z 0600/0706 21005KT 8000 NSC"
    },
    {
      "icao": "OMDB",
      "alert": "OK",
      "vis_m": 9999,
      "fzfg": false,
      "metar_trigger": false,
      "taf_trigger": false,
      "metar": "METAR OMDB 060000Z 18007KT CAVOK 29/22 Q0999 NOSIG",
      "taf": "TAF OMDB 052300Z 0600/0706 19007KT 8000 NSC"
    },
    {
      "icao": "UAAA",
      "alert": "OK",
      "vis_m": 9999,
      "fzfg": false,
      "metar_trigger": false,
      "taf_trigger": false,
      "metar": "METAR UAAA 052330Z 18002MPS 9999 BKN050CB OVC100 18/12 Q1015 NOSIG",
      "taf": "TAF UAAA 052302Z 0600/0624 17003G08MPS 9999 BKN050CB OVC100 TX23/0609Z TN16/0601Z"
    },
    {
      "icao": "UBBB",
      "alert": "OK",
      "vis_m": 9999,
      "fzfg": false,
      "metar_trigger": false,
      "taf_trigger": false,
      "metar": "METAR UBBB 052330Z 13002KT CAVOK 19/15 Q1014 NOSIG",
      "taf": "TAF UBBB 052300Z 0600/0624 VRB04KT CAVOK TX27/0610Z TN16/0601Z"
    },
    {
      "icao": "UDSG",
      "alert": "OK",
      "vis_m": 9999,
      "fzfg": false,
      "metar_trigger": false,
      "taf_trigger": false,
      "metar": "METAR UDSG 052330Z 05002KT 9999 NSC 11/09 Q1020 NOSIG",
      "taf": "TAF UDSG 052300Z 0600/0624 24006KT 9999 SCT050"
    },
    {
      "icao": "UDYZ",
      "alert": "OK",
      "vis_m": 9999,
      "fzfg": false,
      "metar_trigger": false,
      "taf_trigger": false,
      "metar": "METAR UDYZ 052330Z 35005KT 9999 FEW046 18/09 Q1015 NOSIG",
      "taf": "TAF UDYZ 052300Z 0600/0624 04006KT 9999 FEW040"
    },
    {
      "icao": "UGKO",
      "alert": "OK",
      "vis_m": 9999,
      "fzfg": false,
      "metar_trigger": false,
      "taf_trigger": false,
      "metar": "METAR UGKO 052330Z 10002KT CAVOK 15/14 Q1013 NOSIG",
      "taf": "TAF UGKO 052300Z 0600/0624 08006KT CAVOK TX29/0611Z TN15/0602Z"
    }
  ]
}