{
  "ts_utc": "2026-01-26T23:30:08Z",
  "threshold_m": 150,
  "source": "stations_override.txt (ICAO list) + aviationweather.gov (METAR/TAF raw)",
  "station_count": 159,
  "stations": [
    {
      "icao": "BIKF",
      "alert": "OK",
      "vis_m": 9999,
      "fzfg": false,
      "metar_trigger": false,
      "taf_trigger": false,
      "metar": "METAR BIKF 262300Z 06022KT CAVOK 04/M05 Q0998",
      "taf": "TAF BIKF 262253Z 2700/2800 08023KT 9999 SCT045 TX06/2715Z TN03/2709Z"
    },
    {
      "icao": "BKPR",
      "alert": "OK",
      "vis_m": null,
      "fzfg": false,
      "metar_trigger": false,
      "taf_trigger": false,
      "metar": "",
      "taf": "TAF BKPR 262330Z 2700/2724 35008KT 9999 FEW015 BKN030"
    },
    {
      "icao": "EBCI",
      "alert": "OK",
      "vis_m": 3500,
      "fzfg": false,
      "metar_trigger": false,
      "taf_trigger": false,
      "metar": "METAR EBCI 262320Z 13003KT 3500 BR FEW006 BKN032 02/01 Q1002 TEMPO 2500 BKN006",
      "taf": "TAF EBCI 262319Z 2700/2806 14010KT 6000 SCT010 BKN030"
    },
    {
      "icao": "EDDB",
      "alert": "OK",
      "vis_m": 6000,
      "fzfg": false,
      "metar_trigger": false,
      "taf_trigger": false,
      "metar": "METAR EDDB 262320Z AUTO 14003KT 6000 OVC005 M01/M02 Q1001 TEMPO 3500 BR BKN003",
      "taf": "TAF EDDB 262300Z 2700/2724 VRB03KT 5000 BR OVC006"
    },
    {
      "icao": "EDDH",
      "alert": "OK",
      "vis_m": 9999,
      "fzfg": false,
      "metar_trigger": false,
      "taf_trigger": false,
      "metar": "METAR EDDH 262320Z AUTO 05004KT 9999 BKN006 OVC012 01/00 Q1002 NOSIG",
      "taf": "TAF EDDH 262300Z 2700/2806 VRB03KT 9999 OVC005"
    },
    {
      "icao": "EDDK",
      "alert": "OK",
      "vis_m": 6000,
      "fzfg": false,
      "metar_trigger": false,
      "taf_trigger": false,
      "metar": "METAR EDDK 262320Z AUTO 09002KT 6000 FEW009 OVC028 M00/M01 Q1004 NOSIG",
      "taf": "TAF EDDK 262300Z 2700/2806 VRB03KT 8000 OVC025"
    },
    {
      "icao": "EDDN",
      "alert": "OK",
      "vis_m": 8000,
      "fzfg": false,
      "metar_trigger": false,
      "taf_trigger": false,
      "metar": "METAR EDDN 262320Z AUTO 27002KT 8000 FEW001 BKN022 M00/M01 Q1004",
      "taf": "TAF EDDN 262300Z 2700/2724 VRB02KT 9999 BKN020"
    },
    {
      "icao": "EDDS",
      "alert": "OK",
      "vis_m": 9999,
      "fzfg": false,
      "metar_trigger": false,
      "taf_trigger": false,
      "metar": "METAR EDDS 262320Z AUTO 00000KT 9999 OVC040 02/00 Q1004",
      "taf": "TAF EDDS 261700Z 2618/2718 25005KT 9999 BKN020"
    },
    {
      "icao": "EDFH",
      "alert": "OK",
      "vis_m": 9999,
      "fzfg": false,
      "metar_trigger": false,
      "taf_trigger": false,
      "metar": "METAR EDFH 262320Z 22003KT 180V260 9999 SCT021 OVC025 01/00 Q1002",
      "taf": "TAF EDFH 261700Z 2618/2718 27010KT 9999 BKN015"
    },
    {
      "icao": "EDJA",
      "alert": "OK",
      "vis_m": 9999,
      "fzfg": false,
      "metar_trigger": false,
      "taf_trigger": false,
      "metar": "METAR EDJA 262320Z AUTO 22007KT 9999 // OVC042/// 01/M01 Q1004",
      "taf": "TAF EDJA 261700Z 2618/2703 23012KT 9999 FEW030"
    },
    {
      "icao": "EDLW",
      "alert": "OK",
      "vis_m": 2600,
      "fzfg": false,
      "metar_trigger": false,
      "taf_trigger": false,
      "metar": "METAR EDLW 262320Z AUTO 23004KT 2600 // OVC002/// 00/M00 Q1003",
      "taf": "TAF EDLW 261700Z 2618/2718 24005KT 4000 BR BKN005"
    },
    {
      "icao": "EDNY",
      "alert": "OK",
      "vis_m": 9999,
      "fzfg": false,
      "metar_trigger": false,
      "taf_trigger": false,
      "metar": "METAR EDNY 262320Z AUTO 24003KT 9999 // OVC044/// 03/00 Q1006",
      "taf": "TAF EDNY 261700Z 2618/2703 23007KT 9999 SCT035"
    },
    {
      "icao": "EDSB",
      "alert": "OK",
      "vis_m": 9999,
      "fzfg": false,
      "metar_trigger": false,
      "taf_trigger": false,
      "metar": "METAR EDSB 262320Z AUTO 20003KT 9999 OVC044/// 05/03 Q1005",
      "taf": "TAF EDSB 261700Z 2618/2718 21007KT 6000 BKN020"
    },
    {
      "icao": "EETN",
      "alert": "OK",
      "vis_m": 9999,
      "fzfg": false,
      "metar_trigger": false,
      "taf_trigger": false,
      "metar": "METAR EETN 262320Z 05006KT 010V090 9999 OVC009 M06/M08 Q1013",
      "taf": "TAF EETN 261730Z 2618/2718 VRB02KT 9999 SCT015"
    },
    {
      "icao": "EFTU",
      "alert": "OK",
      "vis_m": 9999,
      "fzfg": false,
      "metar_trigger": false,
      "taf_trigger": false,
      "metar": "METAR EFTU 262320Z AUTO 03004KT 350V110 9999 OVC012 M07/M09 Q1014",
      "taf": "TAF EFTU 262037Z 2621/2721 03006KT 9999 OVC011"
    },
    {
      "icao": "EGBB",
      "alert": "OK",
      "vis_m": 6000,
      "fzfg": false,
      "metar_trigger": false,
      "taf_trigger": false,
      "metar": "METAR EGBB 262320Z 12015KT 6000 OVC011 05/02 Q0993",
      "taf": "TAF EGBB 262254Z 2700/2724 12015G25KT 6000 BKN010"
    },
    {
      "icao": "EGGP",
      "alert": "OK",
      "vis_m": 8000,
      "fzfg": false,
      "metar_trigger": false,
      "taf_trigger": false,
      "metar": "METAR EGGP 262320Z 11017KT 8000 BKN017 OVC034 04/02 Q0992",
      "taf": "TAF EGGP 262257Z 2700/2724 13016G28KT 9999 SCT015 BKN020"
    },
    {
      "icao": "EGGW",
      "alert": "OK",
      "vis_m": 2400,
      "fzfg": false,
      "metar_trigger": false,
      "taf_trigger": false,
      "metar": "METAR EGGW 262320Z AUTO 12014KT 2400 BR OVC004 04/03 Q0995",
      "taf": "TAF EGGW 262255Z 2700/2724 12012KT 9999 -RA BKN016"
    },
    {
      "icao": "EGKK",
      "alert": "OK",
      "vis_m": 9000,
      "fzfg": false,
      "metar_trigger": false,
      "taf_trigger": false,
      "metar": "METAR EGKK 262320Z 13011KT 9000 BKN012 08/06 Q0995",
      "taf": "TAF EGKK 262257Z 2700/2806 11010KT 9999 SCT015"
    },
    {
      "icao": "EGNM",
      "alert": "OK",
      "vis_m": null,
      "fzfg": false,
      "metar_trigger": false,
      "taf_trigger": false,
      "metar": "",
      "taf": "TAF EGNM 261657Z 2618/2718 11008KT 6000 SCT007 BKN010"
    },
    {
      "icao": "EGPD",
      "alert": "OK",
      "vis_m": 9999,
      "fzfg": false,
      "metar_trigger": false,
      "taf_trigger": false,
      "metar": "METAR EGPD 262320Z AUTO 13017KT 9999 SCT022 BKN030 OVC038 04/00 Q1001 TEMPO RA BKN014",
      "taf": "TAF EGPD 262253Z 2700/2724 12015KT 9999 FEW020 BKN030"
    },
    {
      "icao": "EGPF",
      "alert": "OK",
      "vis_m": 9999,
      "fzfg": false,
      "metar_trigger": false,
      "taf_trigger": false,
      "metar": "METAR EGPF 262320Z AUTO 08016KT 9999 SCT019 BKN045 04/01 Q0995",
      "taf": "TAF EGPF 262259Z 2700/2724 08011KT 9999 FEW018 SCT030"
    },
    {
      "icao": "EHBK",
      "alert": "OK",
      "vis_m": 2700,
      "fzfg": false,
      "metar_trigger": false,
      "taf_trigger": false,
      "metar": "METAR EHBK 262325Z AUTO 08005KT 050V110 2700 BR OVC028/// M00/M01 Q1003",
      "taf": "TAF EHBK 262317Z 2700/2806 11004KT 2500 BR BKN003"
    },
    {
      "icao": "EHEH",
      "alert": "OK",
      "vis_m": null,
      "fzfg": false,
      "metar_trigger": false,
      "taf_trigger": false,
      "metar": "",
      "taf": "TAF EHEH 261754Z 2618/2724 24005KT 4000 BR BKN007"
    },
    {
      "icao": "EKBI",
      "alert": "OK",
      "vis_m": 9999,
      "fzfg": false,
      "metar_trigger": false,
      "taf_trigger": false,
      "metar": "METAR EKBI 262320Z AUTO 05012KT 9999 BKN013/// OVC033/// M01/M03 Q1007",
      "taf": "TAF EKBI 262327Z 2700/2724 05015KT 9999 BKN012"
    },
    {
      "icao": "EKCH",
      "alert": "OK",
      "vis_m": 6000,
      "fzfg": false,
      "metar_trigger": false,
      "taf_trigger": false,
      "metar": "METAR EKCH 262320Z 03016KT 6000 -SN BKN007 M00/M01 Q1006 TEMPO 2500 BKN012",
      "taf": "TAF EKCH 262327Z 2700/2724 05017KT 1200 SN BKN005"
    },
    {
      "icao": "ENAL",
      "alert": "OK",
      "vis_m": 9999,
      "fzfg": false,
      "metar_trigger": false,
      "taf_trigger": false,
      "metar": "METAR ENAL 262320Z AUTO 15007KT 9999 NCD M06/M08 Q1011",
      "taf": "TAF ENAL 262000Z 2621/2706 15005KT CAVOK"
    },
    {
      "icao": "ENBR",
      "alert": "OK",
      "vis_m": 9999,
      "fzfg": false,
      "metar_trigger": false,
      "taf_trigger": false,
      "metar": "METAR ENBR 262320Z 05003KT CAVOK M06/M11 Q1010 RMK WIND 1200FT 14008KT",
      "taf": "TAF ENBR 261700Z 2618/2718 07004KT CAVOK"
    },
    {
      "icao": "ENGM",
      "alert": "OK",
      "vis_m": 9999,
      "fzfg": false,
      "metar_trigger": false,
      "taf_trigger": false,
      "metar": "METAR ENGM 262320Z 06003KT 020V100 9999 BKN008 M10/M11 Q1015",
      "taf": ""
    },
    {
      "icao": "ENHD",
      "alert": "OK",
      "vis_m": 9999,
      "fzfg": false,
      "metar_trigger": false,
      "taf_trigger": false,
      "metar": "METAR ENHD 262320Z AUTO 24006KT 9999 NCD M08/M12 Q1010",
      "taf": "TAF ENHD 261400Z 2615/2623 12005KT CAVOK"
    },
    {
      "icao": "ENTC",
      "alert": "OK",
      "vis_m": 9999,
      "fzfg": false,
      "metar_trigger": false,
      "taf_trigger": false,
      "metar": "METAR ENTC 262320Z 15003KT 9999 -SN SCT037 BKN047 OVC060 M04/M06 Q1010 RMK WIND 2600FT 34026KT",
      "taf": "TAF ENTC 261700Z 2618/2718 18003KT 9999 FEW020 BKN045"
    },
    {
      "icao": "ENTO",
      "alert": "OK",
      "vis_m": 9999,
      "fzfg": false,
      "metar_trigger": false,
      "taf_trigger": false,
      "metar": "METAR ENTO 262320Z AUTO 03009KT 9999 R18/P2000N R36///// OVC036/// M07/M09 Q1015",
      "taf": "TAF ENTO 261700Z 2618/2718 01008KT CAVOK"
    },
    {
      "icao": "ENVA",
      "alert": "OK",
      "vis_m": 9999,
      "fzfg": false,
      "metar_trigger": false,
      "taf_trigger": false,
      "metar": "METAR ENVA 262320Z 09007KT CAVOK M12/M13 Q1013 RMK WIND 670FT 13007KT",
      "taf": "TAF ENVA 261700Z 2618/2718 11008KT CAVOK"
    },
    {
      "icao": "ENZV",
      "alert": "OK",
      "vis_m": 9999,
      "fzfg": false,
      "metar_trigger": false,
      "taf_trigger": false,
      "metar": "METAR ENZV 262320Z 15003KT CAVOK M07/M12 Q1011",
      "taf": "TAF ENZV 261700Z 2618/2718 13006KT CAVOK"
    },
    {
      "icao": "EPGD",
      "alert": "OK",
      "vis_m": 2000,
      "fzfg": false,
      "metar_trigger": false,
      "taf_trigger": false,
      "metar": "METAR EPGD 262300Z VRB01KT 2000 BR OVC001 M03/M03 Q1003",
      "taf": "TAF EPGD 261730Z 2618/2718 11004KT 2500 BR OVC003"
    },
    {
      "icao": "EPKK",
      "alert": "CRITICAL",
      "vis_m": 100,
      "fzfg": true,
      "metar_trigger": true,
      "taf_trigger": false,
      "metar": "METAR EPKK 262300Z 21001KT 0100 R25/0400N FZFG SCT000 M04/M05 Q1002",
      "taf": ""
    },
    {
      "icao": "EPKT",
      "alert": "OK",
      "vis_m": 2900,
      "fzfg": false,
      "metar_trigger": false,
      "taf_trigger": false,
      "metar": "METAR EPKT 262300Z 17003KT 2900 BR NSC M02/M02 Q1002",
      "taf": ""
    },
    {
      "icao": "EPLB",
      "alert": "OK",
      "vis_m": 1200,
      "fzfg": false,
      "metar_trigger": false,
      "taf_trigger": false,
      "metar": "METAR EPLB 262300Z 07002KT 1200 R25/P2000N -FZRA BR SCT006 BKN009 OVC019 01/01 Q1002",
      "taf": "TAF EPLB 261730Z 2618/2718 VRB03KT 9999 BKN035"
    },
    {
      "icao": "EPMO",
      "alert": "OK",
      "vis_m": 2000,
      "fzfg": false,
      "metar_trigger": false,
      "taf_trigger": false,
      "metar": "METAR EPMO 262300Z 08004KT 2000 BR NSC M01/M01 Q1002",
      "taf": ""
    },
    {
      "icao": "EPPO",
      "alert": "OK",
      "vis_m": 150,
      "fzfg": false,
      "metar_trigger": false,
      "taf_trigger": false,
      "metar": "METAR EPPO 262300Z 21002KT 0150 R28/0650N -SN FG VV001 00/M00 Q1001",
      "taf": ""
    },
    {
      "icao": "EPRA",
      "alert": "OK",
      "vis_m": 6000,
      "fzfg": false,
      "metar_trigger": false,
      "taf_trigger": false,
      "metar": "METAR EPRA 262300Z 15002KT 6000 SCT022 01/00 Q1002",
      "taf": "TAF EPRA 262030Z 2621/2706 24005KT 6000 BKN020"
    },
    {
      "icao": "EPRZ",
      "alert": "OK",
      "vis_m": 1100,
      "fzfg": false,
      "metar_trigger": false,
      "taf_trigger": false,
      "metar": "METAR EPRZ 262300Z VRB02KT 1100 R27/P2000N -RA BR BKN003 OVC028 01/01 Q1002",
      "taf": ""
    },
    {
      "icao": "EPSC",
      "alert": "OK",
      "vis_m": 2200,
      "fzfg": false,
      "metar_trigger": false,
      "taf_trigger": false,
      "metar": "METAR EPSC 262300Z VRB02KT 2200 BR OVC002 M01/M01 Q1002",
      "taf": "TAF EPSC 261730Z 2618/2718 12004KT 2000 BR OVC003"
    },
    {
      "icao": "EPSY",
      "alert": "OK",
      "vis_m": 500,
      "fzfg": true,
      "metar_trigger": false,
      "taf_trigger": false,
      "metar": "METAR EPSY 262300Z 07003KT 040V110 0500 R01/0650N FZFG OVC001 M01/M01 Q1003",
      "taf": "TAF EPSY 262030Z 2621/2706 VRB02KT 3000 BR OVC002"
    },
    {
      "icao": "EPWA",
      "alert": "OK",
      "vis_m": 6000,
      "fzfg": false,
      "metar_trigger": false,
      "taf_trigger": false,
      "metar": "METAR EPWA 262300Z 15002KT 6000 FEW019 01/00 Q1002 BECMG 4000 BR",
      "taf": "TAF EPWA 262030Z 2621/2721 13004KT 7000 BKN017"
    },
    {
      "icao": "EPWR",
      "alert": "OK",
      "vis_m": 9999,
      "fzfg": false,
      "metar_trigger": false,
      "taf_trigger": false,
      "metar": "METAR EPWR 262300Z 30006KT 9999 FEW007 SCT015 BKN024 01/00 Q1002",
      "taf": "TAF EPWR 262030Z 2621/2721 14006KT 9999 BKN040"
    },
    {
      "icao": "ESGG",
      "alert": "OK",
      "vis_m": 9999,
      "fzfg": false,
      "metar_trigger": false,
      "taf_trigger": false,
      "metar": "METAR ESGG 262320Z 02010KT 9999 BKN018 M04/M07 Q1010",
      "taf": "TAF ESGG 262030Z 2621/2721 05010KT 9999 OVC025"
    },
    {
      "icao": "ESKN",
      "alert": "OK",
      "vis_m": 9999,
      "fzfg": false,
      "metar_trigger": false,
      "taf_trigger": false,
      "metar": "METAR ESKN 262320Z 36004KT 330V030 9999 BKN019 M05/M07 Q1013",
      "taf": "TAF ESKN 262030Z 2621/2721 36006KT 9999 BKN025"
    },
    {
      "icao": "ESMS",
      "alert": "OK",
      "vis_m": 5000,
      "fzfg": false,
      "metar_trigger": false,
      "taf_trigger": false,
      "metar": "METAR ESMS 262320Z 06017KT 5000 -SN SCT008 BKN010 BKN014 M00/M01 Q1004",
      "taf": "TAF ESMS 262027Z 2621/2721 06012KT 1200 SN BKN008"
    },
    {
      "icao": "ESSA",
      "alert": "OK",
      "vis_m": 9999,
      "fzfg": false,
      "metar_trigger": false,
      "taf_trigger": false,
      "metar": "METAR ESSA 262320Z 35004KT 9999 BKN024 M06/M08 Q1014 NOSIG",
      "taf": "TAF ESSA 262030Z 2621/2721 35004KT 9999 BKN017"
    },
    {
      "icao": "EYKA",
      "alert": "OK",
      "vis_m": 4100,
      "fzfg": false,
      "metar_trigger": false,
      "taf_trigger": false,
      "metar": "METAR EYKA 262320Z 08005KT 4100 -FZDZ BR OVC004 M03/M04 Q1006",
      "taf": "TAF EYKA 262307Z 2700/2724 VRB04KT 3000 SN OVC005"
    },
    {
      "icao": "EYPA",
      "alert": "OK",
      "vis_m": 8000,
      "fzfg": false,
      "metar_trigger": false,
      "taf_trigger": false,
      "metar": "METAR EYPA 262320Z 07009KT 8000 -SN OVC033 M06/M09 Q1007",
      "taf": "TAF EYPA 262308Z 2700/2724 06010KT 6000 SCT010 OVC015"
    },
    {
      "icao": "EYVI",
      "alert": "OK",
      "vis_m": 4000,
      "fzfg": false,
      "metar_trigger": false,
      "taf_trigger": false,
      "metar": "METAR EYVI 262320Z 10003KT 4000 -FZDZ BR OVC003 M04/M05 Q1005 NOSIG",
      "taf": "TAF EYVI 262306Z 2700/2724 VRB04KT 3000 BR OVC005"
    },
    {
      "icao": "GCFV",
      "alert": "OK",
      "vis_m": 9999,
      "fzfg": false,
      "metar_trigger": false,
      "taf_trigger": false,
      "metar": "METAR GCFV 262300Z VRB02KT 9999 FEW037 15/09 Q1024",
      "taf": "TAF GCFV 262000Z 2621/2721 28005KT 9999 FEW035 TX22/2714Z TN12/2706Z"
    },
    {
      "icao": "GCLP",
      "alert": "OK",
      "vis_m": 9999,
      "fzfg": false,
      "metar_trigger": false,
      "taf_trigger": false,
      "metar": "METAR GCLP 262300Z 09003KT 9999 BKN030 18/11 Q1024 NOSIG",
      "taf": "TAF GCLP 262000Z 2621/2721 31005KT 9999 BKN030 TX22/2714Z TN12/2706Z"
    },
    {
      "icao": "GCTS",
      "alert": "OK",
      "vis_m": 9999,
      "fzfg": false,
      "metar_trigger": false,
      "taf_trigger": false,
      "metar": "METAR GCTS 262300Z 01005KT 9999 SCT028 16/09 Q1024 NOSIG",
      "taf": "TAF GCTS 262000Z 2621/2721 34007KT 9999 FEW030 TX22/2714Z TN14/2706Z"
    },
    {
      "icao": "GMAD",
      "alert": "OK",
      "vis_m": 8000,
      "fzfg": false,
      "metar_trigger": false,
      "taf_trigger": false,
      "metar": "METAR GMAD 262300Z 18005KT 8000 NSC 12/12 Q1023 NOSIG",
      "taf": "TAF GMAD 262300Z 2700/2806 12004KT 8000 NSC"
    },
    {
      "icao": "GMMN",
      "alert": "OK",
      "vis_m": 9999,
      "fzfg": false,
      "metar_trigger": false,
      "taf_trigger": false,
      "metar": "METAR GMMN 262300Z 23008KT 190V260 9999 BKN026 13/11 Q1020 NOSIG",
      "taf": "TAF GMMN 262300Z 2700/2806 20006KT 9999 BKN026"
    },
    {
      "icao": "GMMX",
      "alert": "OK",
      "vis_m": 6000,
      "fzfg": false,
      "metar_trigger": false,
      "taf_trigger": false,
      "metar": "SPECI GMMX 262326Z 27007KT 250V310 6000 BKN006 11/09 Q1021 TEMPO 2000 BR BKN005",
      "taf": "TAF GMMX 261700Z 2618/2724 24006KT 8000 NSC"
    },
    {
      "icao": "HEGN",
      "alert": "OK",
      "vis_m": 9999,
      "fzfg": false,
      "metar_trigger": false,
      "taf_trigger": false,
      "metar": "METAR HEGN 262300Z 28001KT CAVOK 16/08 Q1015 NOSIG",
      "taf": "TAF HEGN 262300Z 2700/2806 24008KT CAVOK"
    },
    {
      "icao": "HEMA",
      "alert": "OK",
      "vis_m": 9999,
      "fzfg": false,
      "metar_trigger": false,
      "taf_trigger": false,
      "metar": "METAR HEMA 262300Z 26006KT CAVOK 18/11 Q1015 NOSIG",
      "taf": "TAF HEMA 262300Z 2700/2806 22008KT CAVOK"
    },
    {
      "icao": "HESH",
      "alert": "OK",
      "vis_m": 9999,
      "fzfg": false,
      "metar_trigger": false,
      "taf_trigger": false,
      "metar": "METAR HESH 262300Z 26006KT CAVOK 16/09 Q1015 NOSIG",
      "taf": "TAF HESH 262300Z 2700/2806 30008KT CAVOK"
    },
    {
      "icao": "HESX",
      "alert": "OK",
      "vis_m": 9999,
      "fzfg": false,
      "metar_trigger": false,
      "taf_trigger": false,
      "metar": "METAR HESX 262300Z 24002KT CAVOK 11/03 Q1016 NOSIG",
      "taf": "TAF HESX 262300Z 2700/2806 22009KT CAVOK"
    },
    {
      "icao": "LATI",
      "alert": "OK",
      "vis_m": 9999,
      "fzfg": false,
      "metar_trigger": false,
      "taf_trigger": false,
      "metar": "METAR LATI 262320Z 19004KT 160V220 9999 SCT032 BKN060 08/06 Q1001 NOSIG",
      "taf": "TAF LATI 262300Z 2700/2724 VRB03KT 7000 SCT030 BKN050 TX14/2713Z TN06/2705Z"
    },
    {
      "icao": "LBPD",
      "alert": "OK",
      "vis_m": 6000,
      "fzfg": false,
      "metar_trigger": false,
      "taf_trigger": false,
      "metar": "METAR LBPD 262300Z AUTO VRB02KT 6000 SCT005/// OVC007/// 07/07 Q0997",
      "taf": "TAF LBPD 262300Z 2700/2724 VRB03KT 8000 SCT005 BKN040"
    },
    {
      "icao": "LBSF",
      "alert": "OK",
      "vis_m": 3800,
      "fzfg": false,
      "metar_trigger": false,
      "taf_trigger": false,
      "metar": "METAR LBSF 262300Z AUTO 35005KT 330V050 3800 1800E -DZ BR SCT022/// OVC026/// 06/05 Q0996 NOSIG",
      "taf": "TAF LBSF 262300Z 2700/2724 VRB03KT 5000 RA SCT015 OVC030"
    },
    {
      "icao": "LBWN",
      "alert": "OK",
      "vis_m": 9999,
      "fzfg": false,
      "metar_trigger": false,
      "taf_trigger": false,
      "metar": "METAR LBWN 262300Z AUTO 06008KT 9999 BKN008/// 09/09 Q1000 TEMPO 5000 RA",
      "taf": "TAF LBWN 262300Z 2700/2724 08008KT 7000 BKN012 OVC025"
    },
    {
      "icao": "LCLK",
      "alert": "OK",
      "vis_m": 9000,
      "fzfg": false,
      "metar_trigger": false,
      "taf_trigger": false,
      "metar": "METAR LCLK 262300Z 27002KT 9000 FEW040 14/13 Q1012 NOSIG",
      "taf": "TAF LCLK 261730Z 2618/2718 10013KT 9999 FEW020"
    },
    {
      "icao": "LCPH",
      "alert": "OK",
      "vis_m": 9000,
      "fzfg": false,
      "metar_trigger": false,
      "taf_trigger": false,
      "metar": "METAR LCPH 262300Z 26005KT 9000 FEW030 17/12 Q1012 NOSIG",
      "taf": "TAF LCPH 261730Z 2618/2718 11015KT 9999 FEW030"
    },
    {
      "icao": "LEAL",
      "alert": "OK",
      "vis_m": 9999,
      "fzfg": false,
      "metar_trigger": false,
      "taf_trigger": false,
      "metar": "METAR LEAL 262300Z 28006KT 9999 FEW066 13/10 Q1010 NOSIG",
      "taf": "TAF LEAL 262300Z 2700/2724 27007KT 9999 FEW040 TX20/2712Z TN11/2706Z"
    },
    {
      "icao": "LEBB",
      "alert": "OK",
      "vis_m": 9999,
      "fzfg": false,
      "metar_trigger": false,
      "taf_trigger": false,
      "metar": "METAR LEBB 262300Z AUTO 21020G42KT 170V260 9999 -RA FEW049 18/09 Q0995",
      "taf": "TAF LEBB 262300Z 2700/2724 19009KT 9999 FEW040 TX16/2700Z TN08/2724Z"
    },
    {
      "icao": "LEBL",
      "alert": "OK",
      "vis_m": 9999,
      "fzfg": false,
      "metar_trigger": false,
      "taf_trigger": false,
      "metar": "METAR LEBL 262300Z 33002KT 9999 SCT050 11/07 Q1005 NOSIG",
      "taf": "TAF LEBL 262300Z 2700/2724 VRB04KT 9999 FEW055 TX16/2712Z TN09/2706Z"
    },
    {
      "icao": "LECH",
      "alert": "OK",
      "vis_m": 9000,
      "fzfg": false,
      "metar_trigger": false,
      "taf_trigger": false,
      "metar": "METAR LECH 262300Z AUTO 19005KT 160V220 9000 FEW060 08/06 Q1006",
      "taf": ""
    },
    {
      "icao": "LEMD",
      "alert": "OK",
      "vis_m": 9999,
      "fzfg": false,
      "metar_trigger": false,
      "taf_trigger": false,
      "metar": "METAR LEMD 262300Z 15008KT 9999 FEW009 BKN014 BKN030 10/10 Q1006 TEMPO BKN010",
      "taf": "TAF LEMD 262300Z 2700/2806 20010KT 9999 SCT020 TX10/2700Z TN02/2800Z"
    },
    {
      "icao": "LEMG",
      "alert": "OK",
      "vis_m": 9999,
      "fzfg": false,
      "metar_trigger": false,
      "taf_trigger": false,
      "metar": "METAR LEMG 262300Z 22005KT 170V280 9999 SCT035 BKN070 15/12 Q1014 NOSIG",
      "taf": "TAF LEMG 262300Z 2700/2724 30005KT 9999 FEW010 SCT030 TX19/2714Z TN10/2707Z"
    },
    {
      "icao": "LEVC",
      "alert": "OK",
      "vis_m": 9999,
      "fzfg": false,
      "metar_trigger": false,
      "taf_trigger": false,
      "metar": "METAR LEVC 262300Z 24015KT CAVOK 16/11 Q1007 NOSIG",
      "taf": "TAF LEVC 262300Z 2700/2724 24012KT 9999 FEW040 TX20/2712Z TN11/2706Z"
    },
    {
      "icao": "LEXJ",
      "alert": "OK",
      "vis_m": 9999,
      "fzfg": false,
      "metar_trigger": false,
      "taf_trigger": false,
      "metar": "METAR LEXJ 262300Z AUTO 22021G42KT 130V270 9999 2900E NSC 19/07 Q0991",
      "taf": "TAF LEXJ 262000Z 2621/2721 23009KT 9999 SCT060 TX17/2721Z TN08/2721Z"
    },
    {
      "icao": "LEZG",
      "alert": "OK",
      "vis_m": 9999,
      "fzfg": false,
      "metar_trigger": false,
      "taf_trigger": false,
      "metar": "METAR LEZG 262300Z 10010KT 080V140 9999 BKN004 BKN075 08/08 Q1005 NOSIG",
      "taf": "TAF LEZG 262300Z 2700/2724 11008KT 9999 FEW040 TX15/2714Z TN08/2706Z"
    },
    {
      "icao": "LEZL",
      "alert": "OK",
      "vis_m": 9999,
      "fzfg": false,
      "metar_trigger": false,
      "taf_trigger": false,
      "metar": "METAR LEZL 262300Z 24011KT 210V270 9999 BKN010 15/14 Q1013 REDZ NOSIG",
      "taf": ""
    },
    {
      "icao": "LFBD",
      "alert": "OK",
      "vis_m": 9999,
      "fzfg": false,
      "metar_trigger": false,
      "taf_trigger": false,
      "metar": "METAR LFBD 262300Z AUTO 15012KT 9999 -RA FEW032/// BKN074/// BKN200/// ///TCU 10/07 Q0997 TEMPO 3000 -RA BKN010 BKN015",
      "taf": ""
    },
    {
      "icao": "LFLL",
      "alert": "OK",
      "vis_m": 9999,
      "fzfg": false,
      "metar_trigger": false,
      "taf_trigger": false,
      "metar": "METAR LFLL 262300Z 16006KT CAVOK 03/00 Q1004 NOSIG",
      "taf": "TAF LFLL 262300Z 2700/2806 16006KT CAVOK"
    },
    {
      "icao": "LFLS",
      "alert": "OK",
      "vis_m": 9999,
      "fzfg": false,
      "metar_trigger": false,
      "taf_trigger": false,
      "metar": "METAR LFLS 262300Z AUTO VRB01KT CAVOK M01/M02 Q1005",
      "taf": "TAF LFLS 261400Z 2615/2715 36006KT 9999 SCT035"
    },
    {
      "icao": "LFMN",
      "alert": "OK",
      "vis_m": 9999,
      "fzfg": false,
      "metar_trigger": false,
      "taf_trigger": false,
      "metar": "METAR LFMN 262300Z 32013KT CAVOK 08/01 Q1006 NOSIG",
      "taf": "TAF LFMN 262000Z 2621/2803 34010KT CAVOK"
    },
    {
      "icao": "LFOB",
      "alert": "OK",
      "vis_m": 9999,
      "fzfg": false,
      "metar_trigger": false,
      "taf_trigger": false,
      "metar": "METAR LFOB 262300Z AUTO 14008KT 9999 BKN027 BKN160 OVC180 05/04 Q1000 TEMPO BKN007 OVC012",
      "taf": "TAF LFOB 261700Z 2618/2718 14008KT 9999 BKN025 OVC035"
    },
    {
      "icao": "LFPO",
      "alert": "OK",
      "vis_m": 9999,
      "fzfg": false,
      "metar_trigger": false,
      "taf_trigger": false,
      "metar": "METAR LFPO 262300Z 15007KT CAVOK 05/03 Q1000 NOSIG",
      "taf": "TAF LFPO 262300Z 2700/2806 14009KT CAVOK"
    },
    {
      "icao": "LFSB",
      "alert": "OK",
      "vis_m": 9999,
      "fzfg": false,
      "metar_trigger": false,
      "taf_trigger": false,
      "metar": "METAR LFSB 262300Z AUTO 17003KT CAVOK M02/M03 Q1005 NOSIG",
      "taf": "TAF LFSB 261700Z 2618/2718 VRB03KT 9999 BKN050"
    },
    {
      "icao": "LGAV",
      "alert": "OK",
      "vis_m": 9999,
      "fzfg": false,
      "metar_trigger": false,
      "taf_trigger": false,
      "metar": "METAR LGAV 262320Z VRB03KT 9999 SCT020 SCT070 12/05 Q1000 NOSIG",
      "taf": "TAF LGAV 262300Z 2700/2724 26012KT 9999 SCT020 BKN070"
    },
    {
      "icao": "LGTS",
      "alert": "OK",
      "vis_m": 9999,
      "fzfg": false,
      "metar_trigger": false,
      "taf_trigger": false,
      "metar": "METAR LGTS 262320Z 31006KT 9999 DZ SCT010 BKN025 10/10 Q0997 NOSIG",
      "taf": "TAF LGTS 262300Z 2700/2724 34010KT 9999 SCT010 BKN025"
    },
    {
      "icao": "LHBP",
      "alert": "OK",
      "vis_m": 800,
      "fzfg": true,
      "metar_trigger": false,
      "taf_trigger": false,
      "metar": "METAR LHBP 262300Z VRB01KT 0800 R31L/0700N R31R/0500N PRFG BR FEW002 M01/M01 Q1004 TEMPO 0300 FZFG VV001",
      "taf": "TAF LHBP 262315Z 2700/2724 31005KT 5000 BCFG BR NSC"
    },
    {
      "icao": "LHDC",
      "alert": "OK",
      "vis_m": 1100,
      "fzfg": false,
      "metar_trigger": false,
      "taf_trigger": false,
      "metar": "METAR LHDC 262245Z AUTO 32004KT 1100 R04/1300U -RA BR VV003 04/04 Q1002",
      "taf": "TAF LHDC 261715Z 2618/2703 VRB03KT 6000 -RA SCT010 OVC030"
    },
    {
      "icao": "LIBD",
      "alert": "OK",
      "vis_m": 9999,
      "fzfg": false,
      "metar_trigger": false,
      "taf_trigger": false,
      "metar": "METAR LIBD 262220Z 27006KT CAVOK 07/05 Q1003",
      "taf": "TAF LIBD 262300Z 2700/2724 28008KT 9999 SCT025"
    },
    {
      "icao": "LIBG",
      "alert": "OK",
      "vis_m": null,
      "fzfg": false,
      "metar_trigger": false,
      "taf_trigger": false,
      "metar": "",
      "taf": "TAF LIBG 261700Z 2618/2703 32006KT 9999 FEW030"
    },
    {
      "icao": "LIBP",
      "alert": "OK",
      "vis_m": 9999,
      "fzfg": false,
      "metar_trigger": false,
      "taf_trigger": false,
      "metar": "METAR LIBP 262250Z AUTO 21006KT 9999 NCD 04/03 Q1006",
      "taf": "TAF LIBP 262300Z 2700/2724 VRB05KT CAVOK"
    },
    {
      "icao": "LIBR",
      "alert": "OK",
      "vis_m": 9999,
      "fzfg": false,
      "metar_trigger": false,
      "taf_trigger": false,
      "metar": "METAR LIBR 262250Z 32013KT 9999 FEW020 11/09 Q1001",
      "taf": "TAF LIBR 262300Z 2700/2724 31016KT 9999 FEW020"
    },
    {
      "icao": "LICA",
      "alert": "OK",
      "vis_m": 9999,
      "fzfg": false,
      "metar_trigger": false,
      "taf_trigger": false,
      "metar": "METAR LICA 262250Z AUTO 14003KT 110V190 9999 -RA BKN015/// OVC032/// 11/09 Q1003",
      "taf": "TAF LICA 262300Z 2700/2724 VRB05KT 9999 SCT040"
    },
    {
      "icao": "LICC",
      "alert": "OK",
      "vis_m": 9999,
      "fzfg": false,
      "metar_trigger": false,
      "taf_trigger": false,
      "metar": "METAR LICC 262220Z 27008KT 9999 FEW050 BKN120 10/07 Q1002",
      "taf": "TAF LICC 262300Z 2700/2724 26012KT 9999 FEW050"
    },
    {
      "icao": "LICJ",
      "alert": "OK",
      "vis_m": 9999,
      "fzfg": false,
      "metar_trigger": false,
      "taf_trigger": false,
      "metar": "METAR LICJ 262250Z 32015KT 9999 BKN035 14/08 Q1005 RERA",
      "taf": "TAF LICJ 262300Z 2700/2724 33016KT 9999 SCT030"
    },
    {
      "icao": "LIMC",
      "alert": "OK",
      "vis_m": 9999,
      "fzfg": false,
      "metar_trigger": false,
      "taf_trigger": false,
      "metar": "METAR LIMC 262220Z 04003KT 9999 BCFG NSC 01/01 Q1006 NOSIG",
      "taf": "TAF LIMC 262300Z 2700/2806 VRB04KT 6000 SCT025"
    },
    {
      "icao": "LIME",
      "alert": "OK",
      "vis_m": 9999,
      "fzfg": false,
      "metar_trigger": false,
      "taf_trigger": false,
      "metar": "METAR LIME 262220Z 36003KT 9999 FEW020 02/01 Q1006 NOSIG",
      "taf": "TAF LIME 262300Z 2700/2724 VRB05KT 7000 FEW020"
    },
    {
      "icao": "LIMF",
      "alert": "OK",
      "vis_m": 9999,
      "fzfg": false,
      "metar_trigger": false,
      "taf_trigger": false,
      "metar": "METAR LIMF 262250Z 21003KT CAVOK 01/M02 Q1005",
      "taf": "TAF LIMF 262300Z 2700/2724 VRB04KT 6000 SCT020"
    },
    {
      "icao": "LIMJ",
      "alert": "OK",
      "vis_m": 9999,
      "fzfg": false,
      "metar_trigger": false,
      "taf_trigger": false,
      "metar": "METAR LIMJ 262250Z 05005KT CAVOK 08/02 Q1006",
      "taf": "TAF LIMJ 262300Z 2700/2724 03006KT 9999 SCT040"
    },
    {
      "icao": "LIPE",
      "alert": "OK",
      "vis_m": 9999,
      "fzfg": false,
      "metar_trigger": false,
      "taf_trigger": false,
      "metar": "METAR LIPE 262320Z 22004KT 170V240 CAVOK 03/01 Q1007",
      "taf": "TAF LIPE 262300Z 2700/2724 VRB05KT 6000 SCT020"
    },
    {
      "icao": "LIPH",
      "alert": "OK",
      "vis_m": 200,
      "fzfg": false,
      "metar_trigger": false,
      "taf_trigger": false,
      "metar": "METAR LIPH 262220Z AUTO 36002KT 0200 0150W R07/0650N FG NCD 02/02 Q1005",
      "taf": "TAF LIPH 262300Z 2700/2724 VRB05KT 0600 FG BKN004"
    },
    {
      "icao": "LIPQ",
      "alert": "OK",
      "vis_m": 250,
      "fzfg": false,
      "metar_trigger": false,
      "taf_trigger": false,
      "metar": "METAR LIPQ 262250Z AUTO VRB01KT 0250 R09/0700U FG NCD 01/01 Q1006",
      "taf": "TAF LIPQ 262300Z 2700/2724 VRB04KT 9999 SCT020"
    },
    {
      "icao": "LIPR",
      "alert": "OK",
      "vis_m": 9999,
      "fzfg": false,
      "metar_trigger": false,
      "taf_trigger": false,
      "metar": "METAR LIPR 262220Z AUTO 23004KT 9999 NCD 02/01 Q1006",
      "taf": "TAF LIPR 262300Z 2700/2724 23005KT 9999 SCT015"
    },
    {
      "icao": "LIPX",
      "alert": "OK",
      "vis_m": 7000,
      "fzfg": false,
      "metar_trigger": false,
      "taf_trigger": false,
      "metar": "METAR LIPX 262220Z 03004KT 360V060 7000 MIFG NSC 00/M01 Q1006",
      "taf": "TAF LIPX 262300Z 2700/2724 VRB04KT 4000 BR SCT020"
    },
    {
      "icao": "LIPY",
      "alert": "OK",
      "vis_m": 9999,
      "fzfg": false,
      "metar_trigger": false,
      "taf_trigger": false,
      "metar": "METAR LIPY 262250Z AUTO 21002KT 9999 BKN026/// 04/02 Q1006",
      "taf": "TAF LIPY 262300Z 2700/2724 VRB05KT 9999 SCT015"
    },
    {
      "icao": "LIPZ",
      "alert": "OK",
      "vis_m": 8000,
      "fzfg": false,
      "metar_trigger": false,
      "taf_trigger": false,
      "metar": "METAR LIPZ 262250Z 28004KT 150V300 8000 NSC 04/04 Q1006 NOSIG",
      "taf": "TAF LIPZ 262300Z 2700/2806 25005KT 4000 BR FEW020"
    },
    {
      "icao": "LIRF",
      "alert": "OK",
      "vis_m": 9999,
      "fzfg": false,
      "metar_trigger": false,
      "taf_trigger": false,
      "metar": "METAR LIRF 262220Z 34003KT CAVOK 04/04 Q1005 NOSIG",
      "taf": "TAF LIRF 262300Z 2700/2806 05005KT CAVOK"
    },
    {
      "icao": "LIRN",
      "alert": "OK",
      "vis_m": 9999,
      "fzfg": false,
      "metar_trigger": false,
      "taf_trigger": false,
      "metar": "METAR LIRN 262220Z 01005KT 290V030 9999 SCT060 09/05 Q1004 NOSIG",
      "taf": "TAF LIRN 262300Z 2700/2724 04005KT 9999 FEW040"
    },
    {
      "icao": "LIRP",
      "alert": "OK",
      "vis_m": 8000,
      "fzfg": false,
      "metar_trigger": false,
      "taf_trigger": false,
      "metar": "METAR LIRP 262315Z 15002KT 8000 MIFG NSC 04/03 Q1007 NOSIG",
      "taf": "TAF LIRP 261700Z 2618/2718 13004KT 9999 FEW020 SCT040"
    },
    {
      "icao": "LIRZ",
      "alert": "OK",
      "vis_m": 9999,
      "fzfg": false,
      "metar_trigger": false,
      "taf_trigger": false,
      "metar": "METAR LIRZ 262250Z AUTO 01007KT 9999 NCD 02/01 Q1006",
      "taf": "TAF LIRZ 262300Z 2700/2724 VRB04KT 7000 SCT020"
    },
    {
      "icao": "LJLJ",
      "alert": "OK",
      "vis_m": 300,
      "fzfg": true,
      "metar_trigger": false,
      "taf_trigger": false,
      "metar": "METAR LJLJ 262300Z 30003KT 0300 R30/0900U FZFG VV001 M01/M01 Q1005 NOSIG",
      "taf": "TAF LJLJ 262300Z 2700/2800 30003KT 0300 FZFG VV001"
    },
    {
      "icao": "LKMT",
      "alert": "OK",
      "vis_m": 9999,
      "fzfg": false,
      "metar_trigger": false,
      "taf_trigger": false,
      "metar": "METAR LKMT 262300Z VRB02KT 9999 BCFG NSC M01/M01 Q1003 TEMPO 4000 BR",
      "taf": "TAF LKMT 262300Z 2700/2724 23008KT CAVOK"
    },
    {
      "icao": "LKPR",
      "alert": "OK",
      "vis_m": 9999,
      "fzfg": false,
      "metar_trigger": false,
      "taf_trigger": false,
      "metar": "METAR LKPR 262300Z 22008KT 9999 FEW014 OVC018 M01/M02 Q1002 NOSIG",
      "taf": "TAF LKPR 262300Z 2700/2806 23008KT 9999 BKN017"
    },
    {
      "icao": "LLBG",
      "alert": "OK",
      "vis_m": 9999,
      "fzfg": false,
      "metar_trigger": false,
      "taf_trigger": false,
      "metar": "METAR LLBG 262320Z VRB02KT CAVOK 13/03 Q1013 NOSIG",
      "taf": "TAF LLBG 262319Z 2700/2724 VRB04KT 9999 FEW020"
    },
    {
      "icao": "LMML",
      "alert": "OK",
      "vis_m": 9999,
      "fzfg": false,
      "metar_trigger": false,
      "taf_trigger": false,
      "metar": "METAR LMML 262315Z 29014KT 9999 FEW020 SCT045 10/08 Q1004 RERA NOSIG",
      "taf": "TAF LMML 262300Z 2700/2724 30016KT 9999 FEW020"
    },
    {
      "icao": "LOWW",
      "alert": "OK",
      "vis_m": 5000,
      "fzfg": false,
      "metar_trigger": false,
      "taf_trigger": false,
      "metar": "METAR LOWW 262320Z VRB02KT 5000 0900S R29/P1500U BCFG NSC M02/M02 Q1004 TEMPO 4000 BR",
      "taf": "TAF LOWW 262315Z 2700/2806 20004KT CAVOK TX03/2714Z TNM02/2706Z"
    },
    {
      "icao": "LPFR",
      "alert": "OK",
      "vis_m": 9999,
      "fzfg": false,
      "metar_trigger": false,
      "taf_trigger": false,
      "metar": "METAR LPFR 262300Z 22019KT 9999 FEW020 16/13 Q1012",
      "taf": "TAF LPFR 262300Z 2700/2724 22020KT 9999 SCT015 BKN035"
    },
    {
      "icao": "LPMA",
      "alert": "OK",
      "vis_m": 9999,
      "fzfg": false,
      "metar_trigger": false,
      "taf_trigger": false,
      "metar": "METAR LPMA 262300Z VRB10G24KT 9999 -RA SCT015 SCT060 18/13 Q1016",
      "taf": "TAF LPMA 262300Z 2700/2724 22015KT 9999 SCT015"
    },
    {
      "icao": "LPPR",
      "alert": "OK",
      "vis_m": 2000,
      "fzfg": false,
      "metar_trigger": false,
      "taf_trigger": false,
      "metar": "METAR LPPR 262300Z 19029G42KT 2000 -RADZ BR BKN005 14/13 Q0995 WS R17",
      "taf": "TAF LPPR 262300Z 2700/2724 20030G48KT 2000 RADZ BR SCT002 BKN004"
    },
    {
      "icao": "LPPS",
      "alert": "OK",
      "vis_m": 9999,
      "fzfg": false,
      "metar_trigger": false,
      "taf_trigger": false,
      "metar": "METAR LPPS 262300Z 22011KT 9999 FEW014 18/13 Q1016",
      "taf": "TAF LPPS 262300Z 2700/2806 23015KT 9999 SCT015 SCT030"
    },
    {
      "icao": "LPPT",
      "alert": "OK",
      "vis_m": 5000,
      "fzfg": false,
      "metar_trigger": false,
      "taf_trigger": false,
      "metar": "METAR LPPT 262300Z 20025KT 5000 RA BR BKN010 14/13 Q1005 WS R20",
      "taf": "TAF LPPT 262300Z 2700/2806 21020G30KT 4000 RADZ BR SCT003 BKN008"
    },
    {
      "icao": "LQBK",
      "alert": "OK",
      "vis_m": 9999,
      "fzfg": false,
      "metar_trigger": false,
      "taf_trigger": false,
      "metar": "METAR LQBK 262300Z VRB02KT 9999 FEW010 BKN040 04/04 Q1005 NOSIG",
      "taf": "TAF LQBK 262300Z 2700/2724 30005KT 8000 SCT040 TX07/2713Z TN01/2706Z"
    },
    {
      "icao": "LQSA",
      "alert": "OK",
      "vis_m": 8000,
      "fzfg": false,
      "metar_trigger": false,
      "taf_trigger": false,
      "metar": "METAR LQSA 262300Z 16002KT 8000 FEW020 BKN040 03/03 Q1003",
      "taf": "TAF LQSA 262300Z 2700/2724 VRB02KT 9999 SCT045 TX08/2713Z TN01/2705Z"
    },
    {
      "icao": "LQTZ",
      "alert": "OK",
      "vis_m": 9999,
      "fzfg": false,
      "metar_trigger": false,
      "taf_trigger": false,
      "metar": "METAR LQTZ 262300Z 34003KT 9999 FEW019 BKN069 04/04 Q1004",
      "taf": ""
    },
    {
      "icao": "LRBC",
      "alert": "OK",
      "vis_m": 600,
      "fzfg": false,
      "metar_trigger": false,
      "taf_trigger": false,
      "metar": "METAR LRBC 262300Z 18004KT 0600 R16/0700N -RA FG VV002 04/04 Q1005",
      "taf": "TAF LRBC 262000Z 2621/2706 17008KT 0800 -RA FG VV002"
    },
    {
      "icao": "LRBS",
      "alert": "OK",
      "vis_m": 900,
      "fzfg": false,
      "metar_trigger": false,
      "taf_trigger": false,
      "metar": "METAR LRBS 262300Z 07011KT 0900 R07/1700N -RA FG VV001 06/05 Q1002 NOSIG",
      "taf": "TAF LRBS 261700Z 2618/2718 07012KT 3000 BR BKN003"
    },
    {
      "icao": "LRBV",
      "alert": "OK",
      "vis_m": 9999,
      "fzfg": false,
      "metar_trigger": false,
      "taf_trigger": false,
      "metar": "METAR LRBV 262300Z AUTO 01006KT 340V030 9999 SCT039/// BKN095/// 05/03 Q1000",
      "taf": "TAF LRBV 262000Z 2621/2706 09010KT 9999 BKN045"
    },
    {
      "icao": "LRCL",
      "alert": "OK",
      "vis_m": 1800,
      "fzfg": false,
      "metar_trigger": false,
      "taf_trigger": false,
      "metar": "METAR LRCL 262300Z 14001KT 1800 -RA BR FEW004 OVC052 02/01 Q1001",
      "taf": "TAF LRCL 262000Z 2621/2706 VRB04KT 3000 -RA BR SCT015 BKN040"
    },
    {
      "icao": "LRCV",
      "alert": "OK",
      "vis_m": 2500,
      "fzfg": false,
      "metar_trigger": false,
      "taf_trigger": false,
      "metar": "METAR LRCV 262300Z 10008KT 2500 BR BKN004 OVC007 06/06 Q1000",
      "taf": "TAF LRCV 262000Z 2621/2706 09007KT 0800 -RADZ FG BKN002 OVC010"
    },
    {
      "icao": "LRIA",
      "alert": "OK",
      "vis_m": 9999,
      "fzfg": false,
      "metar_trigger": false,
      "taf_trigger": false,
      "metar": "METAR LRIA 262300Z 11011KT 9999 -RA FEW002 SCT003 OVC005 02/02 Q1006",
      "taf": "TAF LRIA 262000Z 2621/2706 11012KT 7000 -RA BKN005 OVC020"
    },
    {
      "icao": "LROP",
      "alert": "OK",
      "vis_m": 1800,
      "fzfg": false,
      "metar_trigger": false,
      "taf_trigger": false,
      "metar": "METAR LROP 262300Z 07016KT 1800 -RA BR OVC001 06/06 Q1002 NOSIG",
      "taf": "TAF LROP 261700Z 2618/2718 07012KT 3000 BR BKN003"
    },
    {
      "icao": "LRSB",
      "alert": "OK",
      "vis_m": 9000,
      "fzfg": false,
      "metar_trigger": false,
      "taf_trigger": false,
      "metar": "METAR LRSB 262300Z 25006KT 9000 SCT035 BKN045 05/04 Q1000",
      "taf": "TAF LRSB 261700Z 2618/2718 14012KT 9999 SCT040"
    },
    {
      "icao": "LRSM",
      "alert": "OK",
      "vis_m": 500,
      "fzfg": false,
      "metar_trigger": false,
      "taf_trigger": false,
      "metar": "METAR LRSM 262300Z AUTO 24002KT 0500 R19/0600N FG VV002 02/01 Q1001",
      "taf": ""
    },
    {
      "icao": "LRSV",
      "alert": "OK",
      "vis_m": 100,
      "fzfg": false,
      "metar_trigger": false,
      "taf_trigger": false,
      "metar": "METAR LRSV 262300Z 15013KT 0100 R34/0400N -DZ FG VV001 02/02 Q1003",
      "taf": "TAF LRSV 262000Z 2621/2706 14012KT 0300 -RA FG VV001"
    },
    {
      "icao": "LRTM",
      "alert": "OK",
      "vis_m": 2800,
      "fzfg": false,
      "metar_trigger": false,
      "taf_trigger": false,
      "metar": "METAR LRTM 262300Z AUTO 00000KT 2800 BR NCD 01/01 Q1000",
      "taf": "TAF LRTM 261400Z 2615/2624 VRB04KT 5000 -RA BR SCT015"
    },
    {
      "icao": "LRTR",
      "alert": "OK",
      "vis_m": 4500,
      "fzfg": false,
      "metar_trigger": false,
      "taf_trigger": false,
      "metar": "METAR LRTR 262300Z 33007KT 4500 -RA BR SCT003 BKN010 06/06 Q1002",
      "taf": "TAF LRTR 261700Z 2618/2718 31006KT 5000 -RA BR BKN005 OVC030"
    },
    {
      "icao": "LTAC",
      "alert": "OK",
      "vis_m": 9999,
      "fzfg": false,
      "metar_trigger": false,
      "taf_trigger": false,
      "metar": "METAR LTAC 262320Z 21016KT 9999 -RA BKN035 BKN100 07/01 Q1009 NOSIG",
      "taf": ""
    },
    {
      "icao": "LTFM",
      "alert": "OK",
      "vis_m": 9999,
      "fzfg": false,
      "metar_trigger": false,
      "taf_trigger": false,
      "metar": "METAR LTFM 262320Z 18008KT 9999 -SHRA SCT040 BKN070 10/07 Q1000 NOSIG",
      "taf": "TAF LTFM 262240Z 2700/2806 19015G25KT 9999 FEW040 BKN100"
    },
    {
      "icao": "LUKK",
      "alert": "OK",
      "vis_m": 6000,
      "fzfg": false,
      "metar_trigger": false,
      "taf_trigger": false,
      "metar": "METAR LUKK 262300Z 09008KT 6000 -FZRA OVC003 M01/M01 Q1008 NOSIG",
      "taf": "TAF LUKK 262325Z 2700/2724 08010KT 4000 -FZRA BR OVC002"
    },
    {
      "icao": "LWOH",
      "alert": "OK",
      "vis_m": null,
      "fzfg": false,
      "metar_trigger": false,
      "taf_trigger": false,
      "metar": "",
      "taf": "TAF LWOH 262330Z 2700/2724 35006KT 9999 FEW020 BKN040"
    },
    {
      "icao": "LWSK",
      "alert": "OK",
      "vis_m": 9999,
      "fzfg": false,
      "metar_trigger": false,
      "taf_trigger": false,
      "metar": "METAR LWSK 262320Z VRB01KT 9999 -RA FEW010 OVC035 07/05 Q0999 NOSIG",
      "taf": "TAF LWSK 262330Z 2700/2724 33008KT 9999 -RA FEW010 OVC035"
    },
    {
      "icao": "LYBE",
      "alert": "OK",
      "vis_m": 8000,
      "fzfg": false,
      "metar_trigger": false,
      "taf_trigger": false,
      "metar": "METAR LYBE 262300Z 31010KT 8000 OVC007 06/04 Q1003 BECMG 5000 BR OVC004",
      "taf": "TAF LYBE 262300Z 2700/2724 30010KT 5000 BR BKN006 TX10/2712Z TN03/2706Z"
    },
    {
      "icao": "LYNI",
      "alert": "OK",
      "vis_m": 9999,
      "fzfg": false,
      "metar_trigger": false,
      "taf_trigger": false,
      "metar": "METAR LYNI 262300Z 33013KT 9999 RA SCT008 OVC027 05/05 Q1000 TEMPO BKN008",
      "taf": "TAF LYNI 262300Z 2700/2724 35013KT 9999 RA SCT007 BKN023 TX07/2713Z TN03/2706Z"
    },
    {
      "icao": "LYPG",
      "alert": "OK",
      "vis_m": 6000,
      "fzfg": false,
      "metar_trigger": false,
      "taf_trigger": false,
      "metar": "METAR LYPG 262300Z 33002KT 6000 FEW016 05/05 Q1001 NOSIG",
      "taf": "TAF LYPG 262300Z 2700/2724 36005KT 8000 FEW020 TX14/2713Z TN04/2704Z"
    },
    {
      "icao": "LZIB",
      "alert": "OK",
      "vis_m": 8000,
      "fzfg": false,
      "metar_trigger": false,
      "taf_trigger": false,
      "metar": "METAR LZIB 262300Z 18003KT 8000 FEW001 M02/M02 Q1004 NOSIG",
      "taf": "TAF LZIB 262315Z 2700/2800 26006KT 9999 FEW012"
    },
    {
      "icao": "LZKZ",
      "alert": "OK",
      "vis_m": 500,
      "fzfg": false,
      "metar_trigger": false,
      "taf_trigger": false,
      "metar": "METAR LZKZ 262300Z VRB02KT 0500 R01/1100D -DZ FG OVC003 02/02 Q1002 NOSIG",
      "taf": "TAF LZKZ 262315Z 2700/2800 VRB02KT 5000 BR FEW010 BKN020"
    },
    {
      "icao": "LZTT",
      "alert": "OK",
      "vis_m": 9999,
      "fzfg": false,
      "metar_trigger": false,
      "taf_trigger": false,
      "metar": "METAR LZTT 262300Z 28012KT 9999 FEW003 SCT026 02/01 Q1001",
      "taf": "TAF LZTT 262315Z 2700/2800 28012KT 9999 FEW005 SCT025"
    },
    {
      "icao": "OEJN",
      "alert": "OK",
      "vis_m": 9999,
      "fzfg": false,
      "metar_trigger": false,
      "taf_trigger": false,
      "metar": "METAR OEJN 262300Z 00000KT CAVOK 25/11 Q1013 NOSIG",
      "taf": "TAF OEJN 262300Z 2700/2806 VRB03KT 7000 NSC"
    },
    {
      "icao": "OEMA",
      "alert": "OK",
      "vis_m": 9999,
      "fzfg": false,
      "metar_trigger": false,
      "taf_trigger": false,
      "metar": "METAR OEMA 262300Z VRB01KT CAVOK 16/M04 Q1019 NOSIG",
      "taf": "TAF OEMA 262300Z 2700/2806 07005KT CAVOK"
    },
    {
      "icao": "OJAI",
      "alert": "OK",
      "vis_m": 5000,
      "fzfg": false,
      "metar_trigger": false,
      "taf_trigger": false,
      "metar": "METAR OJAI 262200Z 03004KT 5000 HZ NSC 09/M01 Q1017 NOSIG",
      "taf": "TAF OJAI 262257Z 2700/2806 22006KT 5000 HZ NSC"
    },
    {
      "icao": "OMAA",
      "alert": "OK",
      "vis_m": 9999,
      "fzfg": false,
      "metar_trigger": false,
      "taf_trigger": false,
      "metar": "METAR OMAA 262300Z 31007KT 290V350 CAVOK 17/13 Q1019 NOSIG",
      "taf": "TAF OMAA 262300Z 2700/2806 VRB02KT 8000 NSC"
    },
    {
      "icao": "OMDB",
      "alert": "OK",
      "vis_m": 9999,
      "fzfg": false,
      "metar_trigger": false,
      "taf_trigger": false,
      "metar": "METAR OMDB 262300Z 11003KT 9999 FEW030 18/12 Q1020 NOSIG",
      "taf": "TAF OMDB 262300Z 2700/2806 14004KT 8000 FEW030"
    },
    {
      "icao": "UAAA",
      "alert": "OK",
      "vis_m": 3000,
      "fzfg": false,
      "metar_trigger": false,
      "taf_trigger": false,
      "metar": "METAR UAAA 262300Z 18002MPS 3000 BR BKN100 OVC200 M06/M08 Q1020 NOSIG",
      "taf": "TAF UAAA 262301Z 2700/2724 22003MPS 3100 BR FU SCT050 BKN100 TX03/2708Z TNM07/2702Z"
    },
    {
      "icao": "UBBB",
      "alert": "OK",
      "vis_m": 9999,
      "fzfg": false,
      "metar_trigger": false,
      "taf_trigger": false,
      "metar": "METAR UBBB 262300Z 35020KT 9999 BKN014 OVC024 04/01 Q1025 NOSIG",
      "taf": "TAF UBBB 262300Z 2700/2724 35014G24KT 9999 BKN012 BKN025 TX05/2710Z TN02/2701Z"
    },
    {
      "icao": "UDSG",
      "alert": "OK",
      "vis_m": 2900,
      "fzfg": false,
      "metar_trigger": false,
      "taf_trigger": false,
      "metar": "METAR UDSG 262300Z 11001KT 2900 BR SCT036 M15/M16 Q1021 NOSIG",
      "taf": "TAF UDSG 262258Z 2700/2724 VRB06KT 3000 BR BKN030"
    },
    {
      "icao": "UDYZ",
      "alert": "OK",
      "vis_m": 2400,
      "fzfg": false,
      "metar_trigger": false,
      "taf_trigger": false,
      "metar": "METAR UDYZ 262300Z VRB01KT 2400 BR BKN007 M05/M06 Q1025 NOSIG",
      "taf": "TAF UDYZ 262300Z 2700/2724 VRB04KT 2000 BR BKN006"
    },
    {
      "icao": "UGKO",
      "alert": "OK",
      "vis_m": 9999,
      "fzfg": false,
      "metar_trigger": false,
      "taf_trigger": false,
      "metar": "METAR UGKO 262300Z 08032G46KT CAVOK 11/01 Q1011 NOSIG",
      "taf": "TAF UGKO 262300Z 2700/2724 08027G41KT CAVOK TX13/2711Z TN07/2724Z"
    }
  ]
}