{
  "ts_utc": "2026-01-02T04:13:56Z",
  "threshold_m": 150,
  "source": "stations_override.txt (ICAO list) + aviationweather.gov (METAR/TAF raw)",
  "station_count": 159,
  "stations": [
    {
      "icao": "BIKF",
      "alert": "OK",
      "vis_m": 9999,
      "fzfg": false,
      "metar_trigger": false,
      "taf_trigger": false,
      "metar": "METAR BIKF 020400Z 15001KT CAVOK M01/M03 Q1024",
      "taf": "TAF BIKF 020155Z 0203/0303 07006KT 9999 FEW040 TXM01/0203Z TNM06/0303Z"
    },
    {
      "icao": "BKPR",
      "alert": "OK",
      "vis_m": 9999,
      "fzfg": false,
      "metar_trigger": false,
      "taf_trigger": false,
      "metar": "METAR BKPR 020400Z VRB02KT CAVOK M09/M11 Q1016 NOSIG",
      "taf": "TAF BKPR 012330Z 0200/0224 18008KT CAVOK"
    },
    {
      "icao": "EBCI",
      "alert": "OK",
      "vis_m": 9999,
      "fzfg": false,
      "metar_trigger": false,
      "taf_trigger": false,
      "metar": "METAR EBCI 020350Z 25013KT 9999 BKN017 BKN033 02/M01 Q1002 NOSIG",
      "taf": "TAF EBCI 012308Z 0200/0306 27012KT 9999 SCT015TCU SCT040"
    },
    {
      "icao": "EDDB",
      "alert": "OK",
      "vis_m": 9999,
      "fzfg": false,
      "metar_trigger": false,
      "taf_trigger": false,
      "metar": "METAR EDDB 020350Z AUTO 24018KT 9999 BKN025 OVC032 02/M01 Q0988 TEMPO 25020G30KT",
      "taf": "TAF EDDB 012300Z 0200/0224 24020G30KT 9999 SCT015 OVC030"
    },
    {
      "icao": "EDDH",
      "alert": "OK",
      "vis_m": 9999,
      "fzfg": false,
      "metar_trigger": false,
      "taf_trigger": false,
      "metar": "METAR EDDH 020350Z AUTO 24018G30KT 210V270 9999 SHSNRA SCT007 BKN012 OVC018 FEW///CB 02/01 Q0983 TEMPO 3500 -SHSNRA BKN009CB",
      "taf": "TAF EDDH 012300Z 0200/0306 26015G30KT 9999 SCT015 SCT025"
    },
    {
      "icao": "EDDK",
      "alert": "OK",
      "vis_m": 9000,
      "fzfg": false,
      "metar_trigger": false,
      "taf_trigger": false,
      "metar": "METAR EDDK 020350Z AUTO 28026G40KT 9000 3100 -SHSN VCTS FEW007 BKN022 BKN035 FEW///CB 01/M01 Q0999 RESHSN BECMG 25015G25KT",
      "taf": "TAF EDDK 012300Z 0200/0306 26015G25KT 9999 BKN025"
    },
    {
      "icao": "EDDN",
      "alert": "OK",
      "vis_m": 9999,
      "fzfg": false,
      "metar_trigger": false,
      "taf_trigger": false,
      "metar": "METAR EDDN 020350Z AUTO 24016KT 9999 BKN019 01/M03 Q0999",
      "taf": "TAF EDDN 012300Z 0200/0224 24015G25KT 9999 BKN020"
    },
    {
      "icao": "EDDS",
      "alert": "OK",
      "vis_m": 9999,
      "fzfg": false,
      "metar_trigger": false,
      "taf_trigger": false,
      "metar": "METAR EDDS 020350Z AUTO 22008G18KT 180V260 9999 -SHSN BKN025 FEW///TCU 01/M03 Q1002",
      "taf": "TAF EDDS 012300Z 0200/0224 22008KT 9999 BKN030"
    },
    {
      "icao": "EDFH",
      "alert": "OK",
      "vis_m": 7000,
      "fzfg": false,
      "metar_trigger": false,
      "taf_trigger": false,
      "metar": "METAR EDFH 020350Z 26018G30KT 7000 -SN FEW002 OVC005 00/M01 Q0998",
      "taf": "TAF EDFH 012300Z 0200/0224 26015G25KT 9999 BKN010"
    },
    {
      "icao": "EDJA",
      "alert": "OK",
      "vis_m": 9999,
      "fzfg": false,
      "metar_trigger": false,
      "taf_trigger": false,
      "metar": "METAR EDJA 020350Z AUTO 24024KT 9999 // OVC140/// M00/M06 Q1003",
      "taf": "TAF EDJA 020200Z 0203/0212 24015G25KT 9999 BKN045"
    },
    {
      "icao": "EDLW",
      "alert": "OK",
      "vis_m": 3200,
      "fzfg": false,
      "metar_trigger": false,
      "taf_trigger": false,
      "metar": "METAR EDLW 020350Z AUTO 25011KT 220V280 3200 // OVC008/// 01/M00 Q0995",
      "taf": "TAF EDLW 011700Z 0118/0218 24015G25KT 9999 SCT012 BKN015"
    },
    {
      "icao": "EDNY",
      "alert": "OK",
      "vis_m": 9999,
      "fzfg": false,
      "metar_trigger": false,
      "taf_trigger": false,
      "metar": "METAR EDNY 020350Z AUTO 22013KT 9999 // FEW040/// OVC057/// 02/M05 Q1006",
      "taf": ""
    },
    {
      "icao": "EDSB",
      "alert": "OK",
      "vis_m": 7000,
      "fzfg": false,
      "metar_trigger": false,
      "taf_trigger": false,
      "metar": "METAR EDSB 020350Z AUTO 20015KT 7000 BKN009/// OVC017/// M00/M01 Q1004",
      "taf": "TAF EDSB 012300Z 0200/0224 22013KT 9999 OVC030"
    },
    {
      "icao": "EETN",
      "alert": "OK",
      "vis_m": 5000,
      "fzfg": false,
      "metar_trigger": false,
      "taf_trigger": false,
      "metar": "METAR EETN 020350Z 11013KT 5000 SN DRSN FEW020 OVC026 M08/M09 Q0982 TEMPO 3000",
      "taf": "TAF EETN 012330Z 0200/0224 12016KT 5000 SN BKN015 OVC030"
    },
    {
      "icao": "EFTU",
      "alert": "OK",
      "vis_m": 6000,
      "fzfg": false,
      "metar_trigger": false,
      "taf_trigger": false,
      "metar": "METAR EFTU 020350Z AUTO 08014KT 6000 -SN FEW010 M06/M08 Q0982",
      "taf": "TAF EFTU 020235Z 0203/0303 08014KT 3000 -SN BKN010"
    },
    {
      "icao": "EGBB",
      "alert": "OK",
      "vis_m": 9999,
      "fzfg": false,
      "metar_trigger": false,
      "taf_trigger": false,
      "metar": "METAR EGBB 020350Z 27009KT 9999 FEW038 01/00 Q1005",
      "taf": "TAF EGBB 012258Z 0200/0224 28010KT 9999 SCT030"
    },
    {
      "icao": "EGGP",
      "alert": "OK",
      "vis_m": 9999,
      "fzfg": false,
      "metar_trigger": false,
      "taf_trigger": false,
      "metar": "METAR EGGP 020350Z AUTO 32016KT 9999 -RASN FEW043/// 04/M02 Q1005",
      "taf": "TAF EGGP 012256Z 0200/0224 32012KT 9999 FEW035"
    },
    {
      "icao": "EGGW",
      "alert": "OK",
      "vis_m": 7000,
      "fzfg": false,
      "metar_trigger": false,
      "taf_trigger": false,
      "metar": "METAR EGGW 020350Z AUTO 30014KT 7000 -RASN FEW017/// SCT023/// BKN031/// //////TCU 01/M01 Q1004",
      "taf": "TAF EGGW 012304Z 0200/0224 29015KT 9999 SCT020"
    },
    {
      "icao": "EGKK",
      "alert": "OK",
      "vis_m": 9999,
      "fzfg": false,
      "metar_trigger": false,
      "taf_trigger": false,
      "metar": "METAR EGKK 020350Z 25008KT CAVOK 02/M01 Q1005",
      "taf": "TAF EGKK 012304Z 0200/0306 29011KT 9999 FEW030"
    },
    {
      "icao": "EGNM",
      "alert": "OK",
      "vis_m": null,
      "fzfg": false,
      "metar_trigger": false,
      "taf_trigger": false,
      "metar": "",
      "taf": "TAF EGNM 012255Z 0200/0224 29015KT 9999 FEW030"
    },
    {
      "icao": "EGPD",
      "alert": "OK",
      "vis_m": 9999,
      "fzfg": false,
      "metar_trigger": false,
      "taf_trigger": false,
      "metar": "METAR EGPD 020350Z AUTO 30019KT 9999 FEW015 00/M03 Q1000 RESN TEMPO 1800 SHSN",
      "taf": "TAF EGPD 012252Z 0200/0224 31015KT 9999 SCT012"
    },
    {
      "icao": "EGPF",
      "alert": "OK",
      "vis_m": 9999,
      "fzfg": false,
      "metar_trigger": false,
      "taf_trigger": false,
      "metar": "METAR EGPF 020350Z AUTO 27005KT 220V300 9999 NCD 00/M03 Q1006",
      "taf": ""
    },
    {
      "icao": "EHBK",
      "alert": "OK",
      "vis_m": 9999,
      "fzfg": false,
      "metar_trigger": false,
      "taf_trigger": false,
      "metar": "METAR EHBK 020355Z AUTO 26012G24KT 210V320 9999 FEW024 SCT028 BKN031 03/M01 Q0999",
      "taf": "TAF EHBK 012316Z 0200/0306 25013KT 9999 SCT022"
    },
    {
      "icao": "EHEH",
      "alert": "OK",
      "vis_m": 9999,
      "fzfg": false,
      "metar_trigger": false,
      "taf_trigger": false,
      "metar": "METAR EHEH 020355Z AUTO 26009KT 230V300 9999 FEW015CB SCT035 01/M00 Q0999 RESN BLU",
      "taf": ""
    },
    {
      "icao": "EKBI",
      "alert": "OK",
      "vis_m": 9999,
      "fzfg": false,
      "metar_trigger": false,
      "taf_trigger": false,
      "metar": "METAR EKBI 020350Z AUTO 26006KT 9999 FEW049/// M02/M03 Q0980",
      "taf": "TAF EKBI 020238Z 0203/0303 29008KT 9999 FEW015"
    },
    {
      "icao": "EKCH",
      "alert": "OK",
      "vis_m": 9999,
      "fzfg": false,
      "metar_trigger": false,
      "taf_trigger": false,
      "metar": "METAR EKCH 020350Z 29012KT 9999 -RA OVC008 02/01 Q0974 TEMPO 29015G25KT BECMG BKN015",
      "taf": ""
    },
    {
      "icao": "ENAL",
      "alert": "OK",
      "vis_m": 9999,
      "fzfg": false,
      "metar_trigger": false,
      "taf_trigger": false,
      "metar": "METAR ENAL 020350Z AUTO 08019KT 9999 FEW038/// SCT055/// M01/M07 Q0993",
      "taf": "TAF ENAL 020200Z 0203/0212 06015KT 9999 FEW010 SCT025"
    },
    {
      "icao": "ENBR",
      "alert": "OK",
      "vis_m": 9999,
      "fzfg": false,
      "metar_trigger": false,
      "taf_trigger": false,
      "metar": "METAR ENBR 020350Z 35017G28KT CAVOK M01/M09 Q0987 RMK WIND 1200FT 36026G41KT",
      "taf": "TAF ENBR 012300Z 0200/0224 36012KT CAVOK"
    },
    {
      "icao": "ENGM",
      "alert": "OK",
      "vis_m": 1700,
      "fzfg": false,
      "metar_trigger": false,
      "taf_trigger": false,
      "metar": "METAR ENGM 020350Z 01021G32KT 1700 -SN SCT011 BKN019 M05/M07 Q0980",
      "taf": ""
    },
    {
      "icao": "ENHD",
      "alert": "OK",
      "vis_m": 9999,
      "fzfg": false,
      "metar_trigger": false,
      "taf_trigger": false,
      "metar": "METAR ENHD 020350Z AUTO 36025G36KT 9999 NCD 01/M06 Q0984",
      "taf": "TAF ENHD 020200Z 0203/0212 36022KT CAVOK"
    },
    {
      "icao": "ENTC",
      "alert": "OK",
      "vis_m": 500,
      "fzfg": false,
      "metar_trigger": false,
      "taf_trigger": false,
      "metar": "METAR ENTC 020350Z 20018KT 0500 R36/1400U R18/1500N SN VV006 M09/M11 Q0999 RMK WIND 2600FT 23010KT",
      "taf": ""
    },
    {
      "icao": "ENTO",
      "alert": "OK",
      "vis_m": 900,
      "fzfg": false,
      "metar_trigger": false,
      "taf_trigger": false,
      "metar": "METAR ENTO 020350Z AUTO 01017G28KT 0900 R18/P2000N R36/P2000N SN VV011 M04/M05 Q0978",
      "taf": ""
    },
    {
      "icao": "ENVA",
      "alert": "OK",
      "vis_m": 9999,
      "fzfg": false,
      "metar_trigger": false,
      "taf_trigger": false,
      "metar": "METAR ENVA 020350Z AUTO 07004KT 9999 -SN OVC046/// M06/M09 Q0992 RMK WIND 670FT 07006KT",
      "taf": "TAF ENVA 012300Z 0200/0224 08008KT 8000 -SN FEW010 BKN025"
    },
    {
      "icao": "ENZV",
      "alert": "OK",
      "vis_m": 9999,
      "fzfg": false,
      "metar_trigger": false,
      "taf_trigger": false,
      "metar": "METAR ENZV 020320Z AUTO 34016KT 9999 NCD 02/M04 Q0983",
      "taf": "TAF ENZV 012300Z 0200/0224 36015KT CAVOK"
    },
    {
      "icao": "EPGD",
      "alert": "OK",
      "vis_m": 9999,
      "fzfg": false,
      "metar_trigger": false,
      "taf_trigger": false,
      "metar": "METAR EPGD 020400Z 23012KT 9999 -SN FEW005 BKN010 01/M00 Q0982",
      "taf": "TAF EPGD 012330Z 0200/0224 22015KT 9999 BKN016"
    },
    {
      "icao": "EPKK",
      "alert": "OK",
      "vis_m": 6000,
      "fzfg": false,
      "metar_trigger": false,
      "taf_trigger": false,
      "metar": "METAR EPKK 020400Z 23013KT 6000 -SN SCT014 BKN020 01/M04 Q0996",
      "taf": "TAF EPKK 020230Z 0203/0303 23012KT 9999 BKN040"
    },
    {
      "icao": "EPKT",
      "alert": "OK",
      "vis_m": 9999,
      "fzfg": false,
      "metar_trigger": false,
      "taf_trigger": false,
      "metar": "METAR EPKT 020400Z 22018KT 9999 -SN FEW016 SCT024 00/M05 Q0994",
      "taf": "TAF EPKT 012330Z 0200/0224 23012KT 9999 BKN030"
    },
    {
      "icao": "EPLB",
      "alert": "OK",
      "vis_m": 9999,
      "fzfg": false,
      "metar_trigger": false,
      "taf_trigger": false,
      "metar": "METAR EPLB 020400Z 21012KT 9999 -SN SCT016 BKN019 OVC030 M00/M02 Q0994",
      "taf": "TAF EPLB 012330Z 0200/0224 22014KT 9999 BKN030"
    },
    {
      "icao": "EPMO",
      "alert": "OK",
      "vis_m": 9999,
      "fzfg": false,
      "metar_trigger": false,
      "taf_trigger": false,
      "metar": "METAR EPMO 020400Z 21013KT 9999 BKN024 02/M01 Q0989",
      "taf": "TAF EPMO 012330Z 0200/0224 23014KT 9999 BKN020"
    },
    {
      "icao": "EPPO",
      "alert": "OK",
      "vis_m": 9999,
      "fzfg": false,
      "metar_trigger": false,
      "taf_trigger": false,
      "metar": "METAR EPPO 020400Z 24013KT 9999 FEW022 BKN044 02/M02 Q0988",
      "taf": "TAF EPPO 012330Z 0200/0224 24013KT 9999 BKN025"
    },
    {
      "icao": "EPRA",
      "alert": "OK",
      "vis_m": 8000,
      "fzfg": false,
      "metar_trigger": false,
      "taf_trigger": false,
      "metar": "METAR EPRA 020400Z 23013KT 8000 -SN SCT014 BKN020 00/M02 Q0993",
      "taf": "TAF EPRA 020230Z 0203/0212 24015KT 9999 BKN025"
    },
    {
      "icao": "EPRZ",
      "alert": "OK",
      "vis_m": 9999,
      "fzfg": false,
      "metar_trigger": false,
      "taf_trigger": false,
      "metar": "METAR EPRZ 020400Z 20015KT 9999 OVC045 00/M04 Q0996",
      "taf": "TAF EPRZ 012330Z 0200/0224 20012KT 9999 BKN040"
    },
    {
      "icao": "EPSC",
      "alert": "OK",
      "vis_m": 9999,
      "fzfg": false,
      "metar_trigger": false,
      "taf_trigger": false,
      "metar": "METAR EPSC 020400Z 20013KT 170V230 9999 FEW025 BKN029 OVC033 02/M02 Q0983",
      "taf": "TAF EPSC 012330Z 0200/0224 22012KT 9999 BKN016"
    },
    {
      "icao": "EPSY",
      "alert": "OK",
      "vis_m": 7000,
      "fzfg": false,
      "metar_trigger": false,
      "taf_trigger": false,
      "metar": "METAR EPSY 020400Z 21014KT 7000 -RASN BR SCT001 BKN008 BKN026 00/M00 Q0986",
      "taf": "TAF EPSY 020230Z 0203/0212 23012KT 8000 OVC009"
    },
    {
      "icao": "EPWA",
      "alert": "OK",
      "vis_m": 6000,
      "fzfg": false,
      "metar_trigger": false,
      "taf_trigger": false,
      "metar": "METAR EPWA 020400Z 22013KT 6000 -SN BKN011 01/M00 Q0991 TEMPO 4000 SN BKN009",
      "taf": "TAF EPWA 020230Z 0203/0303 22014KT 9999 BKN030"
    },
    {
      "icao": "EPWR",
      "alert": "OK",
      "vis_m": 9999,
      "fzfg": false,
      "metar_trigger": false,
      "taf_trigger": false,
      "metar": "METAR EPWR 020400Z 23013KT 9999 FEW020 BKN044 02/M02 Q0993",
      "taf": "TAF EPWR 020230Z 0203/0303 23014KT 9999 SCT020 BKN045"
    },
    {
      "icao": "ESGG",
      "alert": "OK",
      "vis_m": 9999,
      "fzfg": false,
      "metar_trigger": false,
      "taf_trigger": false,
      "metar": "METAR ESGG 020350Z 33008KT 9999 OVC003 M03/M03 Q0973",
      "taf": "TAF ESGG 020230Z 0203/0303 35010KT 9999 BKN003"
    },
    {
      "icao": "ESKN",
      "alert": "OK",
      "vis_m": 300,
      "fzfg": true,
      "metar_trigger": false,
      "taf_trigger": false,
      "metar": "METAR ESKN 020350Z 34003KT 0300 R08/1000N R26/1200N FZFG OVC002 M00/M00 Q0974",
      "taf": ""
    },
    {
      "icao": "ESMS",
      "alert": "OK",
      "vis_m": 6000,
      "fzfg": false,
      "metar_trigger": false,
      "taf_trigger": false,
      "metar": "METAR ESMS 020350Z 23016KT 6000 -RA BKN005 02/02 Q0973",
      "taf": "TAF ESMS 020227Z 0203/0303 21018KT 9999 BKN015"
    },
    {
      "icao": "ESSA",
      "alert": "OK",
      "vis_m": 9999,
      "fzfg": false,
      "metar_trigger": false,
      "taf_trigger": false,
      "metar": "METAR ESSA 020350Z 04006KT 9999 OVC003 M01/M01 Q0975 BECMG 04015G25KT",
      "taf": "TAF ESSA 020230Z 0203/0303 03012KT 9999 BKN004"
    },
    {
      "icao": "EYKA",
      "alert": "OK",
      "vis_m": 9999,
      "fzfg": false,
      "metar_trigger": false,
      "taf_trigger": false,
      "metar": "METAR EYKA 020350Z 21007KT 180V240 9999 OVC015 01/M01 Q0984",
      "taf": "TAF EYKA 012313Z 0200/0224 21012KT 5000 SNRA BR OVC010"
    },
    {
      "icao": "EYPA",
      "alert": "OK",
      "vis_m": 9000,
      "fzfg": false,
      "metar_trigger": false,
      "taf_trigger": false,
      "metar": "METAR EYPA 020350Z 22008KT 180V300 9000 -SHRASN BKN011CB BKN017 OVC026 03/02 Q0978",
      "taf": "TAF EYPA 012310Z 0200/0224 23009G19KT 5000 SHRASN SCT010 SCT012CB BKN015"
    },
    {
      "icao": "EYVI",
      "alert": "OK",
      "vis_m": 9000,
      "fzfg": false,
      "metar_trigger": false,
      "taf_trigger": false,
      "metar": "METAR EYVI 020350Z 21014KT 9000 -SN OVC006 M00/M01 Q0985 TEMPO 1500 SN OVC002",
      "taf": "TAF EYVI 012326Z 0200/0224 19013KT 1500 SN OVC005"
    },
    {
      "icao": "GCFV",
      "alert": "OK",
      "vis_m": 9999,
      "fzfg": false,
      "metar_trigger": false,
      "taf_trigger": false,
      "metar": "METAR GCFV 020400Z AUTO 23009KT 9999 FEW022 BKN041 19/16 Q1007",
      "taf": "TAF GCFV 020200Z 0203/0303 21012KT 9999 SCT025 TX23/0214Z TN17/0206Z"
    },
    {
      "icao": "GCLP",
      "alert": "OK",
      "vis_m": 9999,
      "fzfg": false,
      "metar_trigger": false,
      "taf_trigger": false,
      "metar": "METAR GCLP 020400Z 20015KT 9999 FEW030 19/16 Q1007 NOSIG",
      "taf": "TAF GCLP 020200Z 0203/0303 23013KT 9999 SCT030 BKN040 TX23/0214Z TN17/0206Z"
    },
    {
      "icao": "GCTS",
      "alert": "OK",
      "vis_m": 9999,
      "fzfg": false,
      "metar_trigger": false,
      "taf_trigger": false,
      "metar": "METAR GCTS 020400Z 28010KT 9999 FEW020 18/16 Q1008 NOSIG",
      "taf": "TAF GCTS 020200Z 0203/0303 27012KT 9999 FEW030 TX25/0214Z TN18/0206Z"
    },
    {
      "icao": "GMAD",
      "alert": "OK",
      "vis_m": 9999,
      "fzfg": false,
      "metar_trigger": false,
      "taf_trigger": false,
      "metar": "METAR GMAD 020400Z 06007KT CAVOK 16/07 Q1010 NOSIG",
      "taf": "TAF GMAD 012300Z 0200/0306 07006KT CAVOK"
    },
    {
      "icao": "GMMN",
      "alert": "OK",
      "vis_m": 9999,
      "fzfg": false,
      "metar_trigger": false,
      "taf_trigger": false,
      "metar": "METAR GMMN 020400Z 17004KT 140V220 CAVOK 11/09 Q1008 NOSIG",
      "taf": "TAF GMMN 012300Z 0200/0306 14006KT CAVOK"
    },
    {
      "icao": "GMMX",
      "alert": "OK",
      "vis_m": 9999,
      "fzfg": false,
      "metar_trigger": false,
      "taf_trigger": false,
      "metar": "METAR GMMX 020400Z 21013KT 170V240 CAVOK 20/04 Q1007 NOSIG",
      "taf": "TAF GMMX 012300Z 0200/0306 08010KT 8000 NSC TEMP 0200/0223 34018G40KT"
    },
    {
      "icao": "HEGN",
      "alert": "OK",
      "vis_m": 9999,
      "fzfg": false,
      "metar_trigger": false,
      "taf_trigger": false,
      "metar": "METAR HEGN 020300Z 29010KT CAVOK 16/07 Q1018 NOSIG",
      "taf": "TAF HEGN 012300Z 0200/0306 29008KT CAVOK"
    },
    {
      "icao": "HEMA",
      "alert": "OK",
      "vis_m": 9999,
      "fzfg": false,
      "metar_trigger": false,
      "taf_trigger": false,
      "metar": "METAR HEMA 020300Z 31011KT CAVOK 17/10 Q1017 NOSIG",
      "taf": "TAF HEMA 012300Z 0200/0306 26008KT CAVOK"
    },
    {
      "icao": "HESH",
      "alert": "OK",
      "vis_m": 9999,
      "fzfg": false,
      "metar_trigger": false,
      "taf_trigger": false,
      "metar": "METAR HESH 020300Z 34006KT CAVOK 18/08 Q1017 NOSIG",
      "taf": "TAF HESH 012300Z 0200/0306 31008KT CAVOK"
    },
    {
      "icao": "HESX",
      "alert": "OK",
      "vis_m": 9999,
      "fzfg": false,
      "metar_trigger": false,
      "taf_trigger": false,
      "metar": "METAR HESX 020300Z 36008KT CAVOK 09/07 Q1020 NOSIG",
      "taf": "TAF HESX 012300Z 0200/0306 27008KT 6000 FEW025"
    },
    {
      "icao": "LATI",
      "alert": "OK",
      "vis_m": 9999,
      "fzfg": false,
      "metar_trigger": false,
      "taf_trigger": false,
      "metar": "METAR LATI 020350Z 18008KT 9999 BKN046 02/M06 Q1019 NOSIG",
      "taf": "TAF LATI 012300Z 0200/0224 VRB05KT CAVOK TX11/0212Z TNM00/0203Z"
    },
    {
      "icao": "LBPD",
      "alert": "OK",
      "vis_m": 9999,
      "fzfg": false,
      "metar_trigger": false,
      "taf_trigger": false,
      "metar": "METAR LBPD 020400Z AUTO 30003KT 250V320 9999 NCD M06/M09 Q1018 NOSIG",
      "taf": "TAF LBPD 012300Z 0200/0224 VRB03KT 9999 SCT070"
    },
    {
      "icao": "LBSF",
      "alert": "OK",
      "vis_m": 9999,
      "fzfg": false,
      "metar_trigger": false,
      "taf_trigger": false,
      "metar": "METAR LBSF 020400Z AUTO 20004KT 160V220 9999 NCD M11/M13 Q1016 NOSIG",
      "taf": "TAF LBSF 012300Z 0200/0224 VRB03KT 9999 SCT040"
    },
    {
      "icao": "LBWN",
      "alert": "OK",
      "vis_m": 9999,
      "fzfg": false,
      "metar_trigger": false,
      "taf_trigger": false,
      "metar": "METAR LBWN 020400Z AUTO 36004KT 9999 NCD M05/M10 Q1016 NOSIG",
      "taf": "TAF LBWN 012300Z 0200/0224 VRB03KT CAVOK"
    },
    {
      "icao": "LCLK",
      "alert": "OK",
      "vis_m": 9999,
      "fzfg": false,
      "metar_trigger": false,
      "taf_trigger": false,
      "metar": "METAR LCLK 020400Z 31006G16KT 300V060 9999 FEW060 06/02 Q1020 NOSIG",
      "taf": "TAF LCLK 012330Z 0200/0300 35009KT 9999 FEW030 SCT040"
    },
    {
      "icao": "LCPH",
      "alert": "OK",
      "vis_m": 9999,
      "fzfg": false,
      "metar_trigger": false,
      "taf_trigger": false,
      "metar": "METAR LCPH 020400Z 06006KT 010V080 9999 SCT060 07/01 Q1019 NOSIG",
      "taf": "TAF LCPH 012330Z 0200/0300 06008KT 9999 FEW030 SCT050"
    },
    {
      "icao": "LEAL",
      "alert": "OK",
      "vis_m": 9999,
      "fzfg": false,
      "metar_trigger": false,
      "taf_trigger": false,
      "metar": "METAR LEAL 020400Z 24004KT CAVOK 08/08 Q1013 NOSIG",
      "taf": "TAF LEAL 012300Z 0200/0224 26004KT 9999 FEW030 TX16/0214Z TN08/0206Z"
    },
    {
      "icao": "LEBB",
      "alert": "OK",
      "vis_m": 9999,
      "fzfg": false,
      "metar_trigger": false,
      "taf_trigger": false,
      "metar": "METAR LEBB 020400Z 11005KT 070V130 CAVOK 07/03 Q1011 NOSIG",
      "taf": "TAF LEBB 012300Z 0200/0224 12006KT 9999 FEW070 TX12/0214Z TN05/0200Z"
    },
    {
      "icao": "LEBL",
      "alert": "OK",
      "vis_m": 9999,
      "fzfg": false,
      "metar_trigger": false,
      "taf_trigger": false,
      "metar": "METAR LEBL 020400Z 32013KT 9999 FEW015 05/02 Q1011 NOSIG",
      "taf": "TAF LEBL 012300Z 0200/0224 34006KT 9999 FEW015 TX15/0212Z TN05/0206Z"
    },
    {
      "icao": "LECH",
      "alert": "OK",
      "vis_m": 9000,
      "fzfg": false,
      "metar_trigger": false,
      "taf_trigger": false,
      "metar": "METAR LECH 020400Z AUTO 10003KT 060V120 9000 NSC 05/04 Q1012",
      "taf": ""
    },
    {
      "icao": "LEMD",
      "alert": "OK",
      "vis_m": 9000,
      "fzfg": false,
      "metar_trigger": false,
      "taf_trigger": false,
      "metar": "METAR LEMD 020400Z VRB01KT 9000 FEW008 BKN010 OVC020 04/04 Q1013 NOSIG",
      "taf": "TAF LEMD 012300Z 0200/0306 VRB03KT 9999 SCT025 TX11/0215Z TN04/0208Z"
    },
    {
      "icao": "LEMG",
      "alert": "OK",
      "vis_m": 5000,
      "fzfg": false,
      "metar_trigger": false,
      "taf_trigger": false,
      "metar": "METAR LEMG 020400Z 28005KT 5000 BR NSC 11/10 Q1013 NOSIG",
      "taf": ""
    },
    {
      "icao": "LEVC",
      "alert": "OK",
      "vis_m": 9999,
      "fzfg": false,
      "metar_trigger": false,
      "taf_trigger": false,
      "metar": "METAR LEVC 020400Z VRB02KT CAVOK 10/06 Q1012 NOSIG",
      "taf": "TAF LEVC 012300Z 0200/0224 26006KT 9999 FEW035 TX17/0214Z TN07/0206Z"
    },
    {
      "icao": "LEXJ",
      "alert": "OK",
      "vis_m": 6000,
      "fzfg": false,
      "metar_trigger": false,
      "taf_trigger": false,
      "metar": "METAR LEXJ 020400Z AUTO 00000KT 6000 NSC 05/03 Q1011",
      "taf": "TAF LEXJ 020200Z 0203/0303 10007KT 9999 FEW015 SCT070 TX12/0213Z TN05/0204Z"
    },
    {
      "icao": "LEZG",
      "alert": "OK",
      "vis_m": 8000,
      "fzfg": false,
      "metar_trigger": false,
      "taf_trigger": false,
      "metar": "METAR LEZG 020400Z 28003KT 240V320 8000 OVC005 03/03 Q1013 NOSIG",
      "taf": "TAF LEZG 012300Z 0200/0224 05004KT 4000 BR OVC005 TX07/0215Z TN01/0203Z"
    },
    {
      "icao": "LEZL",
      "alert": "OK",
      "vis_m": 9000,
      "fzfg": false,
      "metar_trigger": false,
      "taf_trigger": false,
      "metar": "METAR LEZL 020400Z AUTO 06006KT 9000 NCD 11/10 Q1009",
      "taf": "TAF LEZL 020200Z 0203/0303 05007KT 9999 FEW040 TX18/0215Z TN09/0207Z"
    },
    {
      "icao": "LFBD",
      "alert": "OK",
      "vis_m": 650,
      "fzfg": true,
      "metar_trigger": false,
      "taf_trigger": false,
      "metar": "METAR LFBD 020400Z AUTO 05007KT 0650 R23/0750N R05/0800N R29/0650D FZFG VV/// M01/M01 Q1014 TEMPO 0300 FZFG",
      "taf": "TAF LFBD 012300Z 0200/0306 VRB03KT 1500 BR OVC002 TX05/0215Z TNM03/0208Z"
    },
    {
      "icao": "LFLL",
      "alert": "OK",
      "vis_m": 6000,
      "fzfg": false,
      "metar_trigger": false,
      "taf_trigger": false,
      "metar": "METAR LFLL 020400Z 20002KT 6000 NSC M05/M06 Q1011 NOSIG",
      "taf": "TAF LFLL 012300Z 0200/0306 VRB03KT 6000 NSC"
    },
    {
      "icao": "LFLS",
      "alert": "OK",
      "vis_m": 9999,
      "fzfg": false,
      "metar_trigger": false,
      "taf_trigger": false,
      "metar": "METAR LFLS 020400Z AUTO 09007KT CAVOK M06/M07 Q1010 TEMPO 4000 BR",
      "taf": "TAF LFLS 020200Z 0203/0303 09005KT 7000 FEW020"
    },
    {
      "icao": "LFMN",
      "alert": "OK",
      "vis_m": 9999,
      "fzfg": false,
      "metar_trigger": false,
      "taf_trigger": false,
      "metar": "METAR LFMN 020400Z 33014KT CAVOK 05/M02 Q1008 NOSIG",
      "taf": "TAF LFMN 020200Z 0203/0309 32015KT CAVOK"
    },
    {
      "icao": "LFOB",
      "alert": "OK",
      "vis_m": 9999,
      "fzfg": false,
      "metar_trigger": false,
      "taf_trigger": false,
      "metar": "METAR LFOB 020400Z AUTO 24005KT 9999 FEW027 02/01 Q1006 NOSIG",
      "taf": "TAF LFOB 012300Z 0200/0224 24009KT 9999 BKN025"
    },
    {
      "icao": "LFPO",
      "alert": "OK",
      "vis_m": 9999,
      "fzfg": false,
      "metar_trigger": false,
      "taf_trigger": false,
      "metar": "METAR LFPO 020400Z AUTO 25007KT 9999 BKN009 BKN030 02/01 Q1008 NOSIG",
      "taf": "TAF LFPO 012300Z 0200/0306 25010KT 9999 BKN030"
    },
    {
      "icao": "LFSB",
      "alert": "OK",
      "vis_m": 9999,
      "fzfg": false,
      "metar_trigger": false,
      "taf_trigger": false,
      "metar": "METAR LFSB 020400Z AUTO 24006KT CAVOK M03/M06 Q1007 NOSIG",
      "taf": "TAF LFSB 012300Z 0200/0224 27005KT 9999 FEW035"
    },
    {
      "icao": "LGAV",
      "alert": "OK",
      "vis_m": 9999,
      "fzfg": false,
      "metar_trigger": false,
      "taf_trigger": false,
      "metar": "METAR LGAV 020350Z VRB02KT CAVOK M03/M05 Q1023 NOSIG",
      "taf": "TAF LGAV 012300Z 0200/0224 VRB05KT 9999 FEW025"
    },
    {
      "icao": "LGTS",
      "alert": "OK",
      "vis_m": 9999,
      "fzfg": false,
      "metar_trigger": false,
      "taf_trigger": false,
      "metar": "METAR LGTS 020350Z VRB02KT CAVOK M03/M05 Q1020 NOSIG",
      "taf": "TAF LGTS 012300Z 0200/0224 VRB03KT 9999 FEW030"
    },
    {
      "icao": "LHBP",
      "alert": "OK",
      "vis_m": 9999,
      "fzfg": false,
      "metar_trigger": false,
      "taf_trigger": false,
      "metar": "METAR LHBP 020400Z 11004KT CAVOK M02/M03 Q1003 NOSIG",
      "taf": "TAF LHBP 012315Z 0200/0224 16005KT CAVOK"
    },
    {
      "icao": "LHDC",
      "alert": "OK",
      "vis_m": 9999,
      "fzfg": false,
      "metar_trigger": false,
      "taf_trigger": false,
      "metar": "METAR LHDC 020345Z AUTO 20012KT CAVOK 01/M04 Q1004",
      "taf": ""
    },
    {
      "icao": "LIBD",
      "alert": "OK",
      "vis_m": 9999,
      "fzfg": false,
      "metar_trigger": false,
      "taf_trigger": false,
      "metar": "METAR LIBD 020350Z 18006KT CAVOK 09/02 Q1014",
      "taf": "TAF LIBD 012300Z 0200/0224 20015KT CAVOK"
    },
    {
      "icao": "LIBG",
      "alert": "OK",
      "vis_m": null,
      "fzfg": false,
      "metar_trigger": false,
      "taf_trigger": false,
      "metar": "",
      "taf": "TAF LIBG 011700Z 0118/0203 VRB05KT CAVOK"
    },
    {
      "icao": "LIBP",
      "alert": "OK",
      "vis_m": 9999,
      "fzfg": false,
      "metar_trigger": false,
      "taf_trigger": false,
      "metar": "METAR LIBP 020350Z AUTO 01007KT 310V050 9999 BKN080/// 08/03 Q1009",
      "taf": "TAF LIBP 012300Z 0200/0224 22020KT CAVOK"
    },
    {
      "icao": "LIBR",
      "alert": "OK",
      "vis_m": 9999,
      "fzfg": false,
      "metar_trigger": false,
      "taf_trigger": false,
      "metar": "METAR LIBR 020350Z 17006KT CAVOK 07/05 Q1016",
      "taf": "TAF LIBR 012300Z 0200/0224 20012KT CAVOK"
    },
    {
      "icao": "LICA",
      "alert": "OK",
      "vis_m": 9999,
      "fzfg": false,
      "metar_trigger": false,
      "taf_trigger": false,
      "metar": "METAR LICA 020350Z AUTO 09006KT 9999 OVC065/// 07/05 Q1018",
      "taf": "TAF LICA 012300Z 0200/0224 07012KT 9999 SCT050"
    },
    {
      "icao": "LICC",
      "alert": "OK",
      "vis_m": 9999,
      "fzfg": false,
      "metar_trigger": false,
      "taf_trigger": false,
      "metar": "METAR LICC 020350Z 24005KT 9999 BKN025 08/06 Q1019",
      "taf": "TAF LICC 012300Z 0200/0224 25010KT 9999 SCT030"
    },
    {
      "icao": "LICJ",
      "alert": "OK",
      "vis_m": 9999,
      "fzfg": false,
      "metar_trigger": false,
      "taf_trigger": false,
      "metar": "METAR LICJ 020350Z 20013KT 9999 SCT070 13/09 Q1017",
      "taf": "TAF LICJ 012300Z 0200/0224 19018G30KT 9999 SCT030"
    },
    {
      "icao": "LIMC",
      "alert": "OK",
      "vis_m": 9999,
      "fzfg": false,
      "metar_trigger": false,
      "taf_trigger": false,
      "metar": "METAR LIMC 020350Z 22002KT 9999 OVC050 01/00 Q1007 NOSIG",
      "taf": "TAF LIMC 012300Z 0200/0306 VRB04KT 7000 BKN040"
    },
    {
      "icao": "LIME",
      "alert": "OK",
      "vis_m": 2500,
      "fzfg": false,
      "metar_trigger": false,
      "taf_trigger": false,
      "metar": "METAR LIME 020350Z 26004KT 2500 BR BKN050 02/02 Q1007 NOSIG",
      "taf": "TAF LIME 012300Z 0200/0224 VRB04KT 3000 BR BKN040"
    },
    {
      "icao": "LIMF",
      "alert": "OK",
      "vis_m": 6000,
      "fzfg": false,
      "metar_trigger": false,
      "taf_trigger": false,
      "metar": "METAR LIMF 020350Z VRB02KT 6000 NSC M01/M03 Q1007",
      "taf": "TAF LIMF 012300Z 0200/0224 VRB04KT 3000 BR BKN040"
    },
    {
      "icao": "LIMJ",
      "alert": "OK",
      "vis_m": 9999,
      "fzfg": false,
      "metar_trigger": false,
      "taf_trigger": false,
      "metar": "METAR LIMJ 020350Z 06006KT CAVOK 07/03 Q1007",
      "taf": "TAF LIMJ 012300Z 0200/0224 VRB05KT 9999 SCT025"
    },
    {
      "icao": "LIPE",
      "alert": "OK",
      "vis_m": 2000,
      "fzfg": false,
      "metar_trigger": false,
      "taf_trigger": false,
      "metar": "METAR LIPE 020350Z 27004KT 2000 BR SCT010 01/00 Q1009",
      "taf": "TAF LIPE 012300Z 0200/0224 VRB05KT 9999 SCT010 BKN050"
    },
    {
      "icao": "LIPH",
      "alert": "OK",
      "vis_m": 9999,
      "fzfg": false,
      "metar_trigger": false,
      "taf_trigger": false,
      "metar": "METAR LIPH 020350Z AUTO VRB02KT 9999 SCT030/// OVC066/// 02/M01 Q1008",
      "taf": "TAF LIPH 012300Z 0200/0224 VRB04KT 9999 OVC030"
    },
    {
      "icao": "LIPQ",
      "alert": "OK",
      "vis_m": 9999,
      "fzfg": false,
      "metar_trigger": false,
      "taf_trigger": false,
      "metar": "METAR LIPQ 020350Z AUTO VRB02KT 9999 OVC025/// 03/01 Q1007",
      "taf": "TAF LIPQ 012300Z 0200/0224 VRB05KT 9999 FEW030"
    },
    {
      "icao": "LIPR",
      "alert": "OK",
      "vis_m": 9000,
      "fzfg": false,
      "metar_trigger": false,
      "taf_trigger": false,
      "metar": "METAR LIPR 020350Z AUTO VRB02KT 9000 BKN042/// 03/01 Q1008",
      "taf": "TAF LIPR 012300Z 0200/0224 18010KT CAVOK"
    },
    {
      "icao": "LIPX",
      "alert": "OK",
      "vis_m": 4000,
      "fzfg": false,
      "metar_trigger": false,
      "taf_trigger": false,
      "metar": "METAR LIPX 020350Z 23003KT 4000 BR BKN050 01/00 Q1008",
      "taf": "TAF LIPX 012300Z 0200/0224 VRB04KT 6000 BKN040"
    },
    {
      "icao": "LIPY",
      "alert": "OK",
      "vis_m": 9999,
      "fzfg": false,
      "metar_trigger": false,
      "taf_trigger": false,
      "metar": "METAR LIPY 020350Z AUTO 16003KT 130V210 9999 BKN066/// 06/02 Q1009",
      "taf": "TAF LIPY 012300Z 0200/0224 VRB05KT 9999 OVC030"
    },
    {
      "icao": "LIPZ",
      "alert": "OK",
      "vis_m": 9999,
      "fzfg": false,
      "metar_trigger": false,
      "taf_trigger": false,
      "metar": "METAR LIPZ 020350Z 27004KT 9999 BKN065 02/M01 Q1008 NOSIG",
      "taf": "TAF LIPZ 012300Z 0200/0306 VRB05KT 9999 BKN030"
    },
    {
      "icao": "LIRF",
      "alert": "OK",
      "vis_m": 9999,
      "fzfg": false,
      "metar_trigger": false,
      "taf_trigger": false,
      "metar": "METAR LIRF 020350Z 11003KT 9999 SCT030 07/07 Q1012 NOSIG",
      "taf": "TAF LIRF 012300Z 0200/0306 14010KT 9999 BKN030"
    },
    {
      "icao": "LIRN",
      "alert": "OK",
      "vis_m": 9999,
      "fzfg": false,
      "metar_trigger": false,
      "taf_trigger": false,
      "metar": "METAR LIRN 020350Z 24011KT 210V270 9999 SCT050 12/08 Q1013 NOSIG",
      "taf": "TAF LIRN 012300Z 0200/0224 VRB05KT 9999 SCT040"
    },
    {
      "icao": "LIRP",
      "alert": "OK",
      "vis_m": 9999,
      "fzfg": false,
      "metar_trigger": false,
      "taf_trigger": false,
      "metar": "METAR LIRP 020345Z 24010KT 9999 SCT030 SCT060 11/06 Q1009 NOSIG",
      "taf": "TAF LIRP 012300Z 0200/0224 10006KT 9999 FEW040 BKN060"
    },
    {
      "icao": "LIRZ",
      "alert": "OK",
      "vis_m": 9999,
      "fzfg": false,
      "metar_trigger": false,
      "taf_trigger": false,
      "metar": "METAR LIRZ 020350Z AUTO VRB02KT 9999 BKN018/// BKN074/// 05/04 Q1010",
      "taf": "TAF LIRZ 012300Z 0200/0224 19012KT 9999 BKN040"
    },
    {
      "icao": "LJLJ",
      "alert": "OK",
      "vis_m": 9999,
      "fzfg": false,
      "metar_trigger": false,
      "taf_trigger": false,
      "metar": "METAR LJLJ 020400Z 23007KT 9999 BKN025 OVC045 03/M01 Q1004 NOSIG",
      "taf": "TAF LJLJ 012300Z 0200/0300 30004KT 9999 OVC030"
    },
    {
      "icao": "LKMT",
      "alert": "OK",
      "vis_m": 9999,
      "fzfg": false,
      "metar_trigger": false,
      "taf_trigger": false,
      "metar": "METAR LKMT 020400Z 22021KT 9999 SCT045 01/M05 Q0998 NOSIG",
      "taf": "TAF LKMT 012300Z 0200/0224 21018KT 9999 SCT040"
    },
    {
      "icao": "LKPR",
      "alert": "OK",
      "vis_m": 9999,
      "fzfg": false,
      "metar_trigger": false,
      "taf_trigger": false,
      "metar": "METAR LKPR 020400Z 21022KT 9999 BKN034 01/M03 Q0995 NOSIG",
      "taf": "TAF LKPR 020200Z 0203/0309 22018KT 9999 BKN020"
    },
    {
      "icao": "LLBG",
      "alert": "OK",
      "vis_m": 9999,
      "fzfg": false,
      "metar_trigger": false,
      "taf_trigger": false,
      "metar": "METAR LLBG 020350Z 17006KT 9999 BKN037 13/12 Q1019 NOSIG RMK RERA",
      "taf": "TAF LLBG 012313Z 0200/0224 17006KT 9999 BKN030"
    },
    {
      "icao": "LMML",
      "alert": "OK",
      "vis_m": 9999,
      "fzfg": false,
      "metar_trigger": false,
      "taf_trigger": false,
      "metar": "METAR LMML 020345Z 21006KT 9999 -RA FEW021 SCT040 13/11 Q1020 NOSIG",
      "taf": "TAF LMML 012300Z 0200/0224 14010KT 9999 SCT025"
    },
    {
      "icao": "LOWW",
      "alert": "OK",
      "vis_m": 9999,
      "fzfg": false,
      "metar_trigger": false,
      "taf_trigger": false,
      "metar": "METAR LOWW 020350Z 29015KT CAVOK 04/M07 Q1002 NOSIG",
      "taf": "TAF LOWW 020215Z 0203/0309 28012KT CAVOK TX06/0212Z TN01/0205Z"
    },
    {
      "icao": "LPFR",
      "alert": "OK",
      "vis_m": 9999,
      "fzfg": false,
      "metar_trigger": false,
      "taf_trigger": false,
      "metar": "METAR LPFR 020400Z 13015KT 9999 FEW010 17/14 Q1006",
      "taf": "TAF LPFR 012300Z 0200/0224 13017KT 9999 FEW010 SCT020"
    },
    {
      "icao": "LPMA",
      "alert": "OK",
      "vis_m": 9999,
      "fzfg": false,
      "metar_trigger": false,
      "taf_trigger": false,
      "metar": "METAR LPMA 020400Z 22022KT 9999 SCT015 FEW018TCU 18/14 Q0998",
      "taf": "TAF LPMA 012300Z 0200/0224 22015KT 9999 SCT013 SCT030"
    },
    {
      "icao": "LPPR",
      "alert": "OK",
      "vis_m": 9999,
      "fzfg": false,
      "metar_trigger": false,
      "taf_trigger": false,
      "metar": "METAR LPPR 020400Z 11014KT 9999 -RA SCT048 13/08 Q1003",
      "taf": "TAF LPPR 012300Z 0200/0224 11013KT 9999 SCT040"
    },
    {
      "icao": "LPPS",
      "alert": "OK",
      "vis_m": 9999,
      "fzfg": false,
      "metar_trigger": false,
      "taf_trigger": false,
      "metar": "METAR LPPS 020400Z 22020KT 9999 FEW014 18/13 Q0998",
      "taf": "TAF LPPS 012300Z 0200/0306 27015KT 9999 SCT013 SCT030"
    },
    {
      "icao": "LPPT",
      "alert": "OK",
      "vis_m": 6000,
      "fzfg": false,
      "metar_trigger": false,
      "taf_trigger": false,
      "metar": "METAR LPPT 020400Z 14011KT 100V160 6000 -RA FEW005 BKN010 FEW020TCU 13/13 Q1003 RERA",
      "taf": "TAF LPPT 012300Z 0200/0306 14013KT 9999 SCT012 BKN025"
    },
    {
      "icao": "LQBK",
      "alert": "OK",
      "vis_m": 9999,
      "fzfg": false,
      "metar_trigger": false,
      "taf_trigger": false,
      "metar": "METAR LQBK 020400Z 17004KT 150V200 CAVOK 05/M01 Q1007 NOSIG",
      "taf": "TAF LQBK 012300Z 0200/0224 15005KT CAVOK TX12/0213Z TNM01/0200Z"
    },
    {
      "icao": "LQSA",
      "alert": "OK",
      "vis_m": 9999,
      "fzfg": false,
      "metar_trigger": false,
      "taf_trigger": false,
      "metar": "METAR LQSA 020400Z 14017KT 9999 BKN055 05/M01 Q1009",
      "taf": "TAF LQSA 012300Z 0200/0224 VRB02KT CAVOK TX08/0213Z TNM01/0200Z"
    },
    {
      "icao": "LQTZ",
      "alert": "OK",
      "vis_m": 9999,
      "fzfg": false,
      "metar_trigger": false,
      "taf_trigger": false,
      "metar": "METAR LQTZ 020400Z 17004KT 080V210 9999 FEW060 03/M02 Q1008",
      "taf": "TAF LQTZ 012300Z 0200/0224 14005KT CAVOK TX13/0213Z TN01/0200Z"
    },
    {
      "icao": "LRBC",
      "alert": "OK",
      "vis_m": 9999,
      "fzfg": false,
      "metar_trigger": false,
      "taf_trigger": false,
      "metar": "METAR LRBC 020400Z 22007KT CAVOK M04/M08 Q1007",
      "taf": "TAF LRBC 020200Z 0203/0212 17012KT CAVOK"
    },
    {
      "icao": "LRBS",
      "alert": "OK",
      "vis_m": 9999,
      "fzfg": false,
      "metar_trigger": false,
      "taf_trigger": false,
      "metar": "METAR LRBS 020400Z 27002KT CAVOK M06/M09 Q1013 NOSIG",
      "taf": "TAF LRBS 012300Z 0200/0224 25006KT CAVOK"
    },
    {
      "icao": "LRBV",
      "alert": "OK",
      "vis_m": 9999,
      "fzfg": false,
      "metar_trigger": false,
      "taf_trigger": false,
      "metar": "METAR LRBV 020400Z AUTO 29005KT 220V340 9999 OVC049/// M00/M07 Q1007",
      "taf": "TAF LRBV 020200Z 0203/0212 22009KT 9999 SCT035 BKN050"
    },
    {
      "icao": "LRCL",
      "alert": "OK",
      "vis_m": 9999,
      "fzfg": false,
      "metar_trigger": false,
      "taf_trigger": false,
      "metar": "METAR LRCL 020400Z 10005KT 9999 OVC053 03/M05 Q1006",
      "taf": "TAF LRCL 020200Z 0203/0212 VRB04KT 9999 BKN055"
    },
    {
      "icao": "LRCV",
      "alert": "OK",
      "vis_m": 9999,
      "fzfg": false,
      "metar_trigger": false,
      "taf_trigger": false,
      "metar": "METAR LRCV 020400Z 04005KT CAVOK M04/M06 Q1013",
      "taf": "TAF LRCV 020200Z 0203/0212 VRB04KT CAVOK"
    },
    {
      "icao": "LRIA",
      "alert": "OK",
      "vis_m": 9999,
      "fzfg": false,
      "metar_trigger": false,
      "taf_trigger": false,
      "metar": "METAR LRIA 020400Z 20005KT 150V260 CAVOK M01/M06 Q1006",
      "taf": "TAF LRIA 020200Z 0203/0212 10008KT CAVOK"
    },
    {
      "icao": "LROP",
      "alert": "OK",
      "vis_m": 9999,
      "fzfg": false,
      "metar_trigger": false,
      "taf_trigger": false,
      "metar": "METAR LROP 020400Z 24004KT CAVOK M06/M10 Q1013 NOSIG",
      "taf": "TAF LROP 012300Z 0200/0224 25006KT CAVOK"
    },
    {
      "icao": "LRSB",
      "alert": "OK",
      "vis_m": 9999,
      "fzfg": false,
      "metar_trigger": false,
      "taf_trigger": false,
      "metar": "METAR LRSB 020400Z 34003KT 320V020 9999 -SN SCT050 OVC073 M02/M05 Q1007",
      "taf": "TAF LRSB 012300Z 0200/0224 VRB04KT 9999 BKN045"
    },
    {
      "icao": "LRSM",
      "alert": "OK",
      "vis_m": 9999,
      "fzfg": false,
      "metar_trigger": false,
      "taf_trigger": false,
      "metar": "METAR LRSM 020400Z AUTO VRB02KT 9999 BKN040/// BKN050/// 01/M03 Q1005",
      "taf": "TAF LRSM 020200Z 0203/0212 21012KT 9999 BKN040"
    },
    {
      "icao": "LRSV",
      "alert": "OK",
      "vis_m": 9999,
      "fzfg": false,
      "metar_trigger": false,
      "taf_trigger": false,
      "metar": "METAR LRSV 020400Z 19007KT CAVOK M00/M06 Q1002",
      "taf": "TAF LRSV 020200Z 0203/0212 22010KT CAVOK"
    },
    {
      "icao": "LRTM",
      "alert": "OK",
      "vis_m": 9999,
      "fzfg": false,
      "metar_trigger": false,
      "taf_trigger": false,
      "metar": "METAR LRTM 020400Z AUTO VRB02KT 9999 OVC065/// M01/M06 Q1007",
      "taf": "TAF LRTM 020200Z 0203/0212 07007KT 9999 BKN045"
    },
    {
      "icao": "LRTR",
      "alert": "OK",
      "vis_m": 9999,
      "fzfg": false,
      "metar_trigger": false,
      "taf_trigger": false,
      "metar": "METAR LRTR 020400Z 18012KT 9999 -SN NSC 03/M07 Q1008 NOSIG",
      "taf": "TAF LRTR 012300Z 0200/0224 18014KT 9999 BKN045"
    },
    {
      "icao": "LTAC",
      "alert": "OK",
      "vis_m": 9999,
      "fzfg": false,
      "metar_trigger": false,
      "taf_trigger": false,
      "metar": "METAR LTAC 020350Z 16004KT CAVOK M14/M16 Q1021 NOSIG RMK RWY21C 13006KT RWY03L 13004KT RWY21R 12006KT RWY03R VRB01KT RWY21L 11006KT",
      "taf": "TAF LTAC 012240Z 0200/0224 VRB02KT CAVOK"
    },
    {
      "icao": "LTFM",
      "alert": "OK",
      "vis_m": 9999,
      "fzfg": false,
      "metar_trigger": false,
      "taf_trigger": false,
      "metar": "METAR LTFM 020350Z 19013KT CAVOK 00/M06 Q1021 NOSIG RMK RWY17L 20013KT RWY34L 19014KT RWY16R 19014KT RWY36 19015KT RWY18 20017KT",
      "taf": "TAF LTFM 012240Z 0200/0306 20008KT CAVOK"
    },
    {
      "icao": "LUKK",
      "alert": "OK",
      "vis_m": 9999,
      "fzfg": false,
      "metar_trigger": false,
      "taf_trigger": false,
      "metar": "METAR LUKK 020400Z 22011KT CAVOK M03/M08 Q1008 NOSIG",
      "taf": "TAF LUKK 012315Z 0200/0224 21010KT CAVOK"
    },
    {
      "icao": "LWOH",
      "alert": "OK",
      "vis_m": null,
      "fzfg": false,
      "metar_trigger": false,
      "taf_trigger": false,
      "metar": "",
      "taf": "TAF LWOH 020215Z 0203/0303 VRB03KT CAVOK"
    },
    {
      "icao": "LWSK",
      "alert": "OK",
      "vis_m": 9999,
      "fzfg": false,
      "metar_trigger": false,
      "taf_trigger": false,
      "metar": "METAR LWSK 020350Z VRB01KT CAVOK M11/M13 Q1020 NOSIG",
      "taf": "TAF LWSK 020215Z 0203/0303 VRB02KT CAVOK"
    },
    {
      "icao": "LYBE",
      "alert": "OK",
      "vis_m": 9999,
      "fzfg": false,
      "metar_trigger": false,
      "taf_trigger": false,
      "metar": "METAR LYBE 020400Z 18012KT CAVOK 06/M06 Q1009 NOSIG",
      "taf": "TAF LYBE 012300Z 0200/0224 17010KT CAVOK TX11/0212Z TN03/0200Z"
    },
    {
      "icao": "LYNI",
      "alert": "OK",
      "vis_m": 9999,
      "fzfg": false,
      "metar_trigger": false,
      "taf_trigger": false,
      "metar": "METAR LYNI 020400Z 10003KT 9999 BKN090 M01/M09 Q1015 NOSIG",
      "taf": "TAF LYNI 012300Z 0200/0224 18007KT CAVOK TX09/0212Z TNM05/0200Z"
    },
    {
      "icao": "LYPG",
      "alert": "OK",
      "vis_m": 9999,
      "fzfg": false,
      "metar_trigger": false,
      "taf_trigger": false,
      "metar": "METAR LYPG 020400Z VRB01KT 9999 FEW034 BKN040 BKN080 00/M06 Q1019 NOSIG",
      "taf": "TAF LYPG 012300Z 0200/0224 36006KT 9999 FEW030 BKN040 TX06/0218Z TNM02/0200Z"
    },
    {
      "icao": "LZIB",
      "alert": "OK",
      "vis_m": 9999,
      "fzfg": false,
      "metar_trigger": false,
      "taf_trigger": false,
      "metar": "METAR LZIB 020400Z 27012G23KT CAVOK 05/M06 Q1002 NOSIG",
      "taf": "TAF LZIB 012315Z 0200/0300 27015KT CAVOK"
    },
    {
      "icao": "LZKZ",
      "alert": "OK",
      "vis_m": 9999,
      "fzfg": false,
      "metar_trigger": false,
      "taf_trigger": false,
      "metar": "METAR LZKZ 020400Z 21009KT 9999 BKN023 M02/M04 Q1000 NOSIG",
      "taf": "TAF LZKZ 012315Z 0200/0300 22009KT 9999 FEW013 SCT030"
    },
    {
      "icao": "LZTT",
      "alert": "OK",
      "vis_m": 9999,
      "fzfg": false,
      "metar_trigger": false,
      "taf_trigger": false,
      "metar": "METAR LZTT 020400Z 26014KT 9999 BKN036 M01/M07 Q0996",
      "taf": "TAF LZTT 012315Z 0200/0300 26015KT 9999 SCT050"
    },
    {
      "icao": "OEJN",
      "alert": "OK",
      "vis_m": 9999,
      "fzfg": false,
      "metar_trigger": false,
      "taf_trigger": false,
      "metar": "METAR OEJN 020400Z 00000KT CAVOK 21/11 Q1015 NOSIG",
      "taf": "TAF OEJN 012300Z 0200/0306 02006KT CAVOK"
    },
    {
      "icao": "OEMA",
      "alert": "OK",
      "vis_m": 9999,
      "fzfg": false,
      "metar_trigger": false,
      "taf_trigger": false,
      "metar": "METAR OEMA 020400Z 02004KT CAVOK 12/M03 Q1021 NOSIG",
      "taf": "TAF OEMA 012300Z 0200/0306 VRB03KT CAVOK"
    },
    {
      "icao": "OJAI",
      "alert": "OK",
      "vis_m": 3000,
      "fzfg": false,
      "metar_trigger": false,
      "taf_trigger": false,
      "metar": "METAR OJAI 020400Z 29004KT 3000 BR FEW030 BKN040 08/07 Q1019 NOSIG",
      "taf": ""
    },
    {
      "icao": "OMAA",
      "alert": "OK",
      "vis_m": 9999,
      "fzfg": false,
      "metar_trigger": false,
      "taf_trigger": false,
      "metar": "METAR OMAA 020400Z 19006KT 9999 SCT030 15/12 Q1019 NOSIG",
      "taf": "TAF OMAA 012300Z 0200/0306 VRB02KT 8000 FEW035"
    },
    {
      "icao": "OMDB",
      "alert": "OK",
      "vis_m": 9999,
      "fzfg": false,
      "metar_trigger": false,
      "taf_trigger": false,
      "metar": "METAR OMDB 020400Z 16004KT CAVOK 16/10 Q1019 NOSIG",
      "taf": "TAF OMDB 012300Z 0200/0306 16005KT 8000 NSC"
    },
    {
      "icao": "UAAA",
      "alert": "OK",
      "vis_m": 5000,
      "fzfg": false,
      "metar_trigger": false,
      "taf_trigger": false,
      "metar": "METAR UAAA 020400Z 02002MPS 5000 BR OVC006 M00/M01 Q1019 NOSIG RMK QBB200",
      "taf": "TAF UAAA 012300Z 0200/0224 32003MPS 1200 BR BKN004 OVC011 TX02/0209Z TNM03/0202Z"
    },
    {
      "icao": "UBBB",
      "alert": "OK",
      "vis_m": 9999,
      "fzfg": false,
      "metar_trigger": false,
      "taf_trigger": false,
      "metar": "METAR UBBB 020400Z 33026G40KT 9999 BKN013 OVC026 04/01 Q1017 NOSIG",
      "taf": "TAF UBBB 012314Z 0200/0224 32022G32KT 9999 BKN025 TX04/0210Z TN02/0203Z"
    },
    {
      "icao": "UDSG",
      "alert": "OK",
      "vis_m": 9000,
      "fzfg": false,
      "metar_trigger": false,
      "taf_trigger": false,
      "metar": "METAR UDSG 020400Z 35013G23KT 9000 BKN036 M07/M14 Q1015 NOSIG",
      "taf": "TAF UDSG 012300Z 0200/0224 36006KT 1500 BR OVC020"
    },
    {
      "icao": "UDYZ",
      "alert": "OK",
      "vis_m": 9999,
      "fzfg": false,
      "metar_trigger": false,
      "taf_trigger": false,
      "metar": "METAR UDYZ 020400Z 05008KT 9999 BKN043CB M01/M06 Q1013 NOSIG",
      "taf": "TAF UDYZ 012300Z 0200/0224 32006KT 2000 BR BKN030"
    },
    {
      "icao": "UGKO",
      "alert": "OK",
      "vis_m": 9999,
      "fzfg": false,
      "metar_trigger": false,
      "taf_trigger": false,
      "metar": "METAR UGKO 020400Z 24013KT CAVOK 03/M04 Q1023 NOSIG",
      "taf": "TAF UGKO 012300Z 0200/0224 24010KT 9999 BKN050 TX03/0200Z TNM03/0204Z"
    }
  ]
}