{
  "ts_utc": "2026-04-04T08:54:43Z",
  "threshold_m": 150,
  "source": "stations_override.txt (ICAO list) + aviationweather.gov (METAR/TAF raw)",
  "station_count": 159,
  "stations": [
    {
      "icao": "BIKF",
      "alert": "OK",
      "vis_m": 9999,
      "fzfg": false,
      "metar_trigger": false,
      "taf_trigger": false,
      "metar": "METAR BIKF 040830Z 12015KT 9999 FEW015 SCT065 BKN110 M02/M03 Q0993",
      "taf": "TAF BIKF 040747Z 0409/0509 12008KT 9999 FEW015CB BKN030 TX02/0415Z TNM05/0506Z"
    },
    {
      "icao": "BKPR",
      "alert": "OK",
      "vis_m": 9999,
      "fzfg": false,
      "metar_trigger": false,
      "taf_trigger": false,
      "metar": "METAR BKPR 040830Z 36008KT 9999 FEW035 BKN045 09/04 Q1017 NOSIG",
      "taf": "TAF BKPR 040530Z 0406/0506 35008KT 9999 SCT012 BKN030"
    },
    {
      "icao": "EBCI",
      "alert": "OK",
      "vis_m": 9999,
      "fzfg": false,
      "metar_trigger": false,
      "taf_trigger": false,
      "metar": "METAR EBCI 040820Z 26009KT 230V290 9999 FEW011 BKN024 11/09 Q1021 TEMPO BKN010",
      "taf": "TAF EBCI 040512Z 0406/0512 24008KT 8000 -RADZ -DZ SCT008 BKN012 TEMP 0406/0408 4000 DZ DZRA BKN008"
    },
    {
      "icao": "EDDB",
      "alert": "OK",
      "vis_m": 9999,
      "fzfg": false,
      "metar_trigger": false,
      "taf_trigger": false,
      "metar": "METAR EDDB 040850Z AUTO 28012KT 240V300 9999 FEW017 SCT024 14/09 Q1014 TEMPO 30015G25KT",
      "taf": "TAF EDDB 040500Z 0406/0506 23010KT 9999 OVC025"
    },
    {
      "icao": "EDDH",
      "alert": "OK",
      "vis_m": 9999,
      "fzfg": false,
      "metar_trigger": false,
      "taf_trigger": false,
      "metar": "METAR EDDH 040850Z AUTO 29018KT 9999 SCT029 BKN035 09/02 Q1015 TEMPO 28015G25KT",
      "taf": "TAF EDDH 040500Z 0406/0512 27012KT 9999 FEW025"
    },
    {
      "icao": "EDDK",
      "alert": "OK",
      "vis_m": 9999,
      "fzfg": false,
      "metar_trigger": false,
      "taf_trigger": false,
      "metar": "METAR EDDK 040850Z AUTO 25014KT 9999 -RADZ SCT018 SCT027 BKN033 12/09 Q1020 BECMG 27009KT",
      "taf": "TAF EDDK 040500Z 0406/0512 27009KT 9999 SCT015 BKN030"
    },
    {
      "icao": "EDDN",
      "alert": "OK",
      "vis_m": 9999,
      "fzfg": false,
      "metar_trigger": false,
      "taf_trigger": false,
      "metar": "METAR EDDN 040850Z AUTO 26014KT 9999 BKN018 BKN025 OVC042 12/07 Q1021 NOSIG",
      "taf": "TAF EDDN 040500Z 0406/0506 25010KT 9999 BKN025"
    },
    {
      "icao": "EDDS",
      "alert": "OK",
      "vis_m": 9999,
      "fzfg": false,
      "metar_trigger": false,
      "taf_trigger": false,
      "metar": "METAR EDDS 040850Z AUTO 22006KT 160V270 9999 BKN022 BKN046 12/07 Q1022 NOSIG",
      "taf": "TAF EDDS 040500Z 0406/0506 22005KT 9999 BKN020"
    },
    {
      "icao": "EDFH",
      "alert": "OK",
      "vis_m": 9999,
      "fzfg": false,
      "metar_trigger": false,
      "taf_trigger": false,
      "metar": "METAR EDFH 040820Z 26012KT 9999 -SHRA BKN009 OVC017 10/08 Q1020",
      "taf": "TAF EDFH 040500Z 0406/0506 26012KT 9999 BKN005"
    },
    {
      "icao": "EDJA",
      "alert": "OK",
      "vis_m": 9999,
      "fzfg": false,
      "metar_trigger": false,
      "taf_trigger": false,
      "metar": "METAR EDJA 040820Z 22014KT 9999 FEW019 BKN026 OVC031 07/05 Q1023",
      "taf": "TAF EDJA 040800Z 0409/0418 23015G25KT 9999 BKN020"
    },
    {
      "icao": "EDLW",
      "alert": "OK",
      "vis_m": 9999,
      "fzfg": false,
      "metar_trigger": false,
      "taf_trigger": false,
      "metar": "METAR EDLW 040820Z 25006KT 220V300 9999 FEW010 11/08 Q1018",
      "taf": "TAF EDLW 040500Z 0406/0506 26009KT 9999 SCT010 BKN020"
    },
    {
      "icao": "EDNY",
      "alert": "OK",
      "vis_m": 9999,
      "fzfg": false,
      "metar_trigger": false,
      "taf_trigger": false,
      "metar": "METAR EDNY 040820Z 15007KT 9999 OVC032 09/05 Q1025",
      "taf": "TAF EDNY 040800Z 0409/0418 22005KT 9999 OVC030"
    },
    {
      "icao": "EDSB",
      "alert": "OK",
      "vis_m": 9999,
      "fzfg": false,
      "metar_trigger": false,
      "taf_trigger": false,
      "metar": "METAR EDSB 040820Z 20011KT 9999 OVC018 11/09 Q1023",
      "taf": "TAF EDSB 040500Z 0406/0506 21010KT 9999 OVC020"
    },
    {
      "icao": "EETN",
      "alert": "OK",
      "vis_m": 9999,
      "fzfg": false,
      "metar_trigger": false,
      "taf_trigger": false,
      "metar": "METAR EETN 040850Z 20008KT 9999 BKN007 OVC015 04/02 Q1003 NOSIG",
      "taf": "TAF EETN 040530Z 0406/0506 20010KT 4000 BR OVC003"
    },
    {
      "icao": "EFTU",
      "alert": "OK",
      "vis_m": 4800,
      "fzfg": false,
      "metar_trigger": false,
      "taf_trigger": false,
      "metar": "METAR EFTU 040850Z AUTO 17009KT 4800 BR OVC002 02/02 Q1000",
      "taf": "TAF EFTU 040836Z 0409/0509 16008KT 2000 BR BKN002"
    },
    {
      "icao": "EGBB",
      "alert": "OK",
      "vis_m": 9999,
      "fzfg": false,
      "metar_trigger": false,
      "taf_trigger": false,
      "metar": "METAR EGBB 040820Z 17007KT 140V210 9999 BKN039 OVC049 09/07 Q1015",
      "taf": "TAF EGBB 040453Z 0406/0506 16004KT 9999 FEW045"
    },
    {
      "icao": "EGGP",
      "alert": "OK",
      "vis_m": 9999,
      "fzfg": false,
      "metar_trigger": false,
      "taf_trigger": false,
      "metar": "METAR EGGP 040820Z 16007KT 9999 BKN028 07/05 Q1013",
      "taf": "TAF EGGP 040500Z 0406/0506 17005KT 9999 FEW040"
    },
    {
      "icao": "EGGW",
      "alert": "OK",
      "vis_m": 9999,
      "fzfg": false,
      "metar_trigger": false,
      "taf_trigger": false,
      "metar": "METAR EGGW 040820Z AUTO 19006KT 150V220 9999 OVC031 08/07 Q1017",
      "taf": "TAF EGGW 040456Z 0406/0506 26009KT 9999 SCT025"
    },
    {
      "icao": "EGKK",
      "alert": "OK",
      "vis_m": 5000,
      "fzfg": false,
      "metar_trigger": false,
      "taf_trigger": false,
      "metar": "METAR EGKK 040820Z 21007KT 170V240 5000 -RA BKN015 11/09 Q1018",
      "taf": "TAF EGKK 040455Z 0406/0512 21008KT 9999 FEW030"
    },
    {
      "icao": "EGNM",
      "alert": "OK",
      "vis_m": 9999,
      "fzfg": false,
      "metar_trigger": false,
      "taf_trigger": false,
      "metar": "METAR EGNM 040820Z 15007KT 9999 -RA FEW025 SCT040 05/03 Q1013",
      "taf": "TAF EGNM 040502Z 0406/0506 VRB04KT 9999 FEW018 SCT025"
    },
    {
      "icao": "EGPD",
      "alert": "OK",
      "vis_m": 9999,
      "fzfg": false,
      "metar_trigger": false,
      "taf_trigger": false,
      "metar": "METAR EGPD 040820Z COR AUTO 23004KT 180V320 9999 NCD 05/M01 Q1009 NOSIG",
      "taf": "TAF EGPD 040455Z 0406/0506 27009KT 9999 SCT020"
    },
    {
      "icao": "EGPF",
      "alert": "OK",
      "vis_m": 9999,
      "fzfg": false,
      "metar_trigger": false,
      "taf_trigger": false,
      "metar": "METAR EGPF 040820Z AUTO 21006KT 9999 NCD 06/03 Q1010",
      "taf": "TAF EGPF 040457Z 0406/0506 24005KT 9999 FEW025"
    },
    {
      "icao": "EHBK",
      "alert": "OK",
      "vis_m": 9999,
      "fzfg": false,
      "metar_trigger": false,
      "taf_trigger": false,
      "metar": "METAR EHBK 040825Z AUTO 25009KT 210V300 9999 SCT015 BKN019 BKN023 12/08 Q1020 NOSIG",
      "taf": "TAF EHBK 040512Z 0406/0512 25010KT 9999 BKN012"
    },
    {
      "icao": "EHEH",
      "alert": "OK",
      "vis_m": 9999,
      "fzfg": false,
      "metar_trigger": false,
      "taf_trigger": false,
      "metar": "METAR EHEH 040825Z AUTO 25006KT 220V310 9999 SCT030 BKN034 BKN041 12/08 Q1019 BLU NOSIG RMK TREND REMOTE BY EHWX",
      "taf": "TAF EHEH 040505Z 0406/0512 27005KT 9999 BKN040"
    },
    {
      "icao": "EKBI",
      "alert": "OK",
      "vis_m": 9999,
      "fzfg": false,
      "metar_trigger": false,
      "taf_trigger": false,
      "metar": "METAR EKBI 040850Z AUTO 27023KT 9999 BKN025/// 07/02 Q1011",
      "taf": "TAF EKBI 040827Z 0409/0509 27016KT 9999 BKN020"
    },
    {
      "icao": "EKCH",
      "alert": "OK",
      "vis_m": 9999,
      "fzfg": false,
      "metar_trigger": false,
      "taf_trigger": false,
      "metar": "METAR EKCH 040850Z AUTO 28023G35KT 9999 BKN025/// 08/02 Q1008 TEMPO 27018G30KT",
      "taf": ""
    },
    {
      "icao": "ENAL",
      "alert": "OK",
      "vis_m": 9999,
      "fzfg": false,
      "metar_trigger": false,
      "taf_trigger": false,
      "metar": "METAR ENAL 040820Z 21016KT 9999 -RA FEW015 SCT020 BKN028 05/02 Q0992",
      "taf": "TAF ENAL 040800Z 0409/0418 21022KT 9999 -SHRA FEW012 BKN025"
    },
    {
      "icao": "ENBR",
      "alert": "OK",
      "vis_m": 9999,
      "fzfg": false,
      "metar_trigger": false,
      "taf_trigger": false,
      "metar": "METAR ENBR 040820Z 25014KT 9999 FEW032CB SCT041 05/M00 Q1000 TEMPO 26015G25KT SHRA SCT020CB RMK WIND 1200FT 27024G35KT",
      "taf": "TAF ENBR 040500Z 0406/0506 25008KT 9999 FEW015TCU SCT030"
    },
    {
      "icao": "ENGM",
      "alert": "OK",
      "vis_m": 9999,
      "fzfg": false,
      "metar_trigger": false,
      "taf_trigger": false,
      "metar": "METAR ENGM 040820Z 32004KT 270V010 CAVOK 02/M02 Q0994 NOSIG",
      "taf": "TAF ENGM 040500Z 0406/0506 01005KT 9999 SCT030"
    },
    {
      "icao": "ENHD",
      "alert": "OK",
      "vis_m": 9999,
      "fzfg": false,
      "metar_trigger": false,
      "taf_trigger": false,
      "metar": "METAR ENHD 040820Z 26024KT 9999 SCT026 SCT035 06/02 Q1003",
      "taf": "TAF ENHD 040800Z 0409/0418 27020KT 9999 -SHRA FEW015TCU BKN025"
    },
    {
      "icao": "ENTC",
      "alert": "OK",
      "vis_m": 9999,
      "fzfg": false,
      "metar_trigger": false,
      "taf_trigger": false,
      "metar": "METAR ENTC 040820Z 01004KT 350V050 CAVOK 00/M06 Q1001 NOSIG RMK WIND 2600FT 14009KT",
      "taf": "TAF ENTC 040500Z 0406/0506 02008KT 9999 FEW050"
    },
    {
      "icao": "ENTO",
      "alert": "OK",
      "vis_m": 9999,
      "fzfg": false,
      "metar_trigger": false,
      "taf_trigger": false,
      "metar": "METAR ENTO 040820Z 24006KT 200V280 CAVOK 04/01 Q0998 NOSIG",
      "taf": "TAF ENTO 040500Z 0406/0506 27008KT CAVOK"
    },
    {
      "icao": "ENVA",
      "alert": "OK",
      "vis_m": 9999,
      "fzfg": false,
      "metar_trigger": false,
      "taf_trigger": false,
      "metar": "METAR ENVA 040820Z 18006KT 150V210 9999 -RASN SCT027 SCT035 BKN049 05/00 Q0993 TEMPO SHRA BKN018CB RMK WIND 670FT 18007KT",
      "taf": ""
    },
    {
      "icao": "ENZV",
      "alert": "OK",
      "vis_m": 9999,
      "fzfg": false,
      "metar_trigger": false,
      "taf_trigger": false,
      "metar": "METAR ENZV 040820Z 28019KT 9999 VCSH FEW023CB BKN030 04/M00 Q1004 TEMPO 29020G30KT 4000 SHRA SCT008 BKN018CB",
      "taf": "TAF ENZV 040500Z 0406/0506 28018KT 9999 FEW015TCU BKN035"
    },
    {
      "icao": "EPGD",
      "alert": "OK",
      "vis_m": 9999,
      "fzfg": false,
      "metar_trigger": false,
      "taf_trigger": false,
      "metar": "METAR EPGD 040830Z 24014KT 9999 BKN008 06/05 Q1007",
      "taf": "TAF EPGD 040530Z 0406/0506 19009KT 9999 BKN035"
    },
    {
      "icao": "EPKK",
      "alert": "OK",
      "vis_m": 9999,
      "fzfg": false,
      "metar_trigger": false,
      "taf_trigger": false,
      "metar": "METAR EPKK 040830Z 24015KT CAVOK 13/03 Q1015",
      "taf": "TAF EPKK 040830Z 0409/0509 24013KT CAVOK"
    },
    {
      "icao": "EPKT",
      "alert": "OK",
      "vis_m": 9999,
      "fzfg": false,
      "metar_trigger": false,
      "taf_trigger": false,
      "metar": "METAR EPKT 040830Z 26015KT CAVOK 12/02 Q1015",
      "taf": "TAF EPKT 040530Z 0406/0506 24008KT CAVOK"
    },
    {
      "icao": "EPLB",
      "alert": "OK",
      "vis_m": 9999,
      "fzfg": false,
      "metar_trigger": false,
      "taf_trigger": false,
      "metar": "METAR EPLB 040830Z 26012KT 230V290 CAVOK 11/02 Q1014",
      "taf": "TAF EPLB 040530Z 0406/0506 28010KT CAVOK"
    },
    {
      "icao": "EPMO",
      "alert": "OK",
      "vis_m": 9999,
      "fzfg": false,
      "metar_trigger": false,
      "taf_trigger": false,
      "metar": "METAR EPMO 040830Z 21012KT 180V250 CAVOK 12/04 Q1011",
      "taf": "TAF EPMO 040530Z 0406/0506 19005KT CAVOK"
    },
    {
      "icao": "EPPO",
      "alert": "OK",
      "vis_m": 9999,
      "fzfg": false,
      "metar_trigger": false,
      "taf_trigger": false,
      "metar": "METAR EPPO 040830Z 24013KT 9999 SCT018 10/06 Q1012",
      "taf": "TAF EPPO 040530Z 0406/0506 19004KT CAVOK"
    },
    {
      "icao": "EPRA",
      "alert": "OK",
      "vis_m": 9999,
      "fzfg": false,
      "metar_trigger": false,
      "taf_trigger": false,
      "metar": "METAR EPRA 040830Z 25014KT CAVOK 12/01 Q1014",
      "taf": "TAF EPRA 040830Z 0409/0418 26012KT CAVOK"
    },
    {
      "icao": "EPRZ",
      "alert": "OK",
      "vis_m": 9999,
      "fzfg": false,
      "metar_trigger": false,
      "taf_trigger": false,
      "metar": "METAR EPRZ 040830Z 25010KT 9999 FEW040 12/03 Q1016",
      "taf": "TAF EPRZ 040530Z 0406/0506 24005KT CAVOK"
    },
    {
      "icao": "EPSC",
      "alert": "OK",
      "vis_m": 9999,
      "fzfg": false,
      "metar_trigger": false,
      "taf_trigger": false,
      "metar": "METAR EPSC 040830Z 27021KT 9999 FEW040 12/01 Q1011",
      "taf": "TAF EPSC 040530Z 0406/0506 21008KT 9999 BKN017"
    },
    {
      "icao": "EPSY",
      "alert": "OK",
      "vis_m": 9999,
      "fzfg": false,
      "metar_trigger": false,
      "taf_trigger": false,
      "metar": "METAR EPSY 040830Z 21012KT 9999 BKN046 08/01 Q1010",
      "taf": "TAF EPSY 040830Z 0409/0418 22010KT 9999 BKN040"
    },
    {
      "icao": "EPWA",
      "alert": "OK",
      "vis_m": 9999,
      "fzfg": false,
      "metar_trigger": false,
      "taf_trigger": false,
      "metar": "METAR EPWA 040830Z 22011KT CAVOK 12/03 Q1012 NOSIG",
      "taf": "TAF EPWA 040830Z 0409/0509 26014KT CAVOK"
    },
    {
      "icao": "EPWR",
      "alert": "OK",
      "vis_m": 9999,
      "fzfg": false,
      "metar_trigger": false,
      "taf_trigger": false,
      "metar": "METAR EPWR 040830Z 24006KT 210V270 9999 FEW040 BKN047 12/07 Q1015",
      "taf": "TAF EPWR 040830Z 0409/0509 23010KT 9999 BKN030"
    },
    {
      "icao": "ESGG",
      "alert": "OK",
      "vis_m": 9999,
      "fzfg": false,
      "metar_trigger": false,
      "taf_trigger": false,
      "metar": "METAR ESGG 040820Z 27018KT 240V300 9999 BKN012 05/02 Q1000",
      "taf": "TAF ESGG 040830Z 0409/0509 27018G28KT 9999 BKN012"
    },
    {
      "icao": "ESKN",
      "alert": "OK",
      "vis_m": 9999,
      "fzfg": false,
      "metar_trigger": false,
      "taf_trigger": false,
      "metar": "METAR ESKN 040820Z 21009KT 9999 FEW011 SCT018 BKN032 03/03 Q0993",
      "taf": "TAF ESKN 040830Z 0409/0509 16014KT 9999 -RA FEW004 BKN035"
    },
    {
      "icao": "ESMS",
      "alert": "OK",
      "vis_m": 9999,
      "fzfg": false,
      "metar_trigger": false,
      "taf_trigger": false,
      "metar": "METAR ESMS 040820Z 28017KT 9999 FEW015 SCT022 BKN040 07/05 Q1007 RERA",
      "taf": "TAF ESMS 040827Z 0409/0509 27018KT 9999 BKN025"
    },
    {
      "icao": "ESSA",
      "alert": "OK",
      "vis_m": 5000,
      "fzfg": false,
      "metar_trigger": false,
      "taf_trigger": false,
      "metar": "METAR ESSA 040820Z 13012KT 5000 -SN BKN005 00/M00 Q0993 TEMPO 5000 RASN BKN003",
      "taf": "TAF ESSA 040830Z 0409/0509 13012KT 2500 SNRA OVC003"
    },
    {
      "icao": "EYKA",
      "alert": "OK",
      "vis_m": 9999,
      "fzfg": false,
      "metar_trigger": false,
      "taf_trigger": false,
      "metar": "METAR EYKA 040850Z 23011KT 190V270 9999 FEW036 07/M02 Q1009",
      "taf": "TAF EYKA 040500Z 0406/0506 23011KT 9000 BKN035"
    },
    {
      "icao": "EYPA",
      "alert": "OK",
      "vis_m": 9999,
      "fzfg": false,
      "metar_trigger": false,
      "taf_trigger": false,
      "metar": "METAR EYPA 040850Z 19015KT 9999 -RA FEW027 BKN034 OVC044 05/01 Q1004",
      "taf": "TAF EYPA 040500Z 0406/0506 20011KT 9000 BKN030"
    },
    {
      "icao": "EYVI",
      "alert": "OK",
      "vis_m": 9999,
      "fzfg": false,
      "metar_trigger": false,
      "taf_trigger": false,
      "metar": "METAR EYVI 040850Z 23012KT 9999 BKN031 06/M03 Q1009 NOSIG",
      "taf": "TAF EYVI 040506Z 0406/0506 21010G20KT 9000 OVC030"
    },
    {
      "icao": "GCFV",
      "alert": "OK",
      "vis_m": 9999,
      "fzfg": false,
      "metar_trigger": false,
      "taf_trigger": false,
      "metar": "METAR GCFV 040830Z 28008KT 260V330 CAVOK 19/14 Q1017",
      "taf": "TAF GCFV 040800Z 0409/0509 15006KT 9999 FEW020 TX24/0414Z TN16/0506Z"
    },
    {
      "icao": "GCLP",
      "alert": "OK",
      "vis_m": 9999,
      "fzfg": false,
      "metar_trigger": false,
      "taf_trigger": false,
      "metar": "METAR GCLP 040830Z 36013KT 9999 FEW014 BKN050 18/15 Q1018 NOSIG",
      "taf": "TAF GCLP 040800Z 0409/0509 04010KT 9999 FEW020 SCT060 TX23/0414Z TN16/0506Z"
    },
    {
      "icao": "GCTS",
      "alert": "OK",
      "vis_m": 9999,
      "fzfg": false,
      "metar_trigger": false,
      "taf_trigger": false,
      "metar": "METAR GCTS 040830Z 08012KT 9999 FEW070 BKN100 18/15 Q1018 NOSIG",
      "taf": "TAF GCTS 040800Z 0409/0509 13008KT 9999 FEW020 SCT060 TX24/0414Z TN18/0506Z"
    },
    {
      "icao": "GMAD",
      "alert": "OK",
      "vis_m": 8000,
      "fzfg": false,
      "metar_trigger": false,
      "taf_trigger": false,
      "metar": "METAR GMAD 040830Z 05010KT 020V080 8000 NSC 22/08 Q1015 NOSIG",
      "taf": "TAF GMAD 040500Z 0406/0512 07005KT 8000 NSC"
    },
    {
      "icao": "GMMN",
      "alert": "OK",
      "vis_m": 9999,
      "fzfg": false,
      "metar_trigger": false,
      "taf_trigger": false,
      "metar": "METAR GMMN 040830Z VRB02KT CAVOK 16/11 Q1018 NOSIG",
      "taf": "TAF GMMN 040500Z 0406/0512 09005KT CAVOK"
    },
    {
      "icao": "GMMX",
      "alert": "OK",
      "vis_m": 9999,
      "fzfg": false,
      "metar_trigger": false,
      "taf_trigger": false,
      "metar": "METAR GMMX 040830Z VRB02KT CAVOK 19/09 Q1017 NOSIG",
      "taf": "TAF GMMX 040500Z 0406/0512 08006KT CAVOK"
    },
    {
      "icao": "HEGN",
      "alert": "OK",
      "vis_m": 9999,
      "fzfg": false,
      "metar_trigger": false,
      "taf_trigger": false,
      "metar": "METAR HEGN 040800Z 31015KT 9999 SCT025 27/M01 Q1015 NOSIG",
      "taf": "TAF HEGN 040500Z 0406/0512 33010G22KT 9999 SCT020"
    },
    {
      "icao": "HEMA",
      "alert": "OK",
      "vis_m": 9999,
      "fzfg": false,
      "metar_trigger": false,
      "taf_trigger": false,
      "metar": "METAR HEMA 040800Z 34014KT CAVOK 25/04 Q1015 NOSIG",
      "taf": "TAF HEMA 040500Z 0406/0512 34010G22KT 9999 SCT020"
    },
    {
      "icao": "HESH",
      "alert": "OK",
      "vis_m": 8000,
      "fzfg": false,
      "metar_trigger": false,
      "taf_trigger": false,
      "metar": "METAR HESH 040800Z 02007KT 8000 NSC 27/07 Q1015 NOSIG",
      "taf": "TAF HESH 040500Z 0406/0512 35008G20KT 9999 SCT020"
    },
    {
      "icao": "HESX",
      "alert": "OK",
      "vis_m": 9999,
      "fzfg": false,
      "metar_trigger": false,
      "taf_trigger": false,
      "metar": "METAR HESX 040800Z 23005KT CAVOK 21/04 Q1016 NOSIG",
      "taf": "TAF HESX 040500Z 0406/0512 27009KT CAVOK"
    },
    {
      "icao": "LATI",
      "alert": "OK",
      "vis_m": 9999,
      "fzfg": false,
      "metar_trigger": false,
      "taf_trigger": false,
      "metar": "METAR LATI 040850Z VRB04KT 9999 SCT074 19/05 Q1014 NOSIG",
      "taf": "TAF LATI 040500Z 0406/0506 VRB05KT CAVOK TX23/0412Z TN07/0504Z"
    },
    {
      "icao": "LBPD",
      "alert": "OK",
      "vis_m": 9999,
      "fzfg": false,
      "metar_trigger": false,
      "taf_trigger": false,
      "metar": "METAR LBPD 040830Z AUTO 29013KT 9999 OVC056/// 14/08 Q1013 NOSIG",
      "taf": "TAF LBPD 040500Z 0406/0506 29014KT 9999 BKN040"
    },
    {
      "icao": "LBSF",
      "alert": "OK",
      "vis_m": 9999,
      "fzfg": false,
      "metar_trigger": false,
      "taf_trigger": false,
      "metar": "METAR LBSF 040830Z 29007KT 9999 -RA FEW009 BKN026 OVC031 10/08 Q1015 TEMPO 4000 RA",
      "taf": "TAF LBSF 040500Z 0406/0506 29012KT 9999 SCT015 BKN035"
    },
    {
      "icao": "LBWN",
      "alert": "OK",
      "vis_m": 9999,
      "fzfg": false,
      "metar_trigger": false,
      "taf_trigger": false,
      "metar": "METAR LBWN 040830Z 34010KT 9999 SCT019 SCT041 14/11 Q1013 NOSIG",
      "taf": "TAF LBWN 040500Z 0406/0506 34010KT 9999 SCT010 BKN030"
    },
    {
      "icao": "LCLK",
      "alert": "OK",
      "vis_m": 6000,
      "fzfg": false,
      "metar_trigger": false,
      "taf_trigger": false,
      "metar": "METAR LCLK 040830Z 22016KT 6000 FEW030 20/13 Q1014 NOSIG",
      "taf": "TAF LCLK 040530Z 0406/0506 27008KT 4000 DU FEW025"
    },
    {
      "icao": "LCPH",
      "alert": "OK",
      "vis_m": 9999,
      "fzfg": false,
      "metar_trigger": false,
      "taf_trigger": false,
      "metar": "METAR LCPH 040830Z 25007KT 9999 FEW025 SCT040 20/13 Q1015 NOSIG",
      "taf": "TAF LCPH 040530Z 0406/0506 30006KT 7000 FEW030 SCT050"
    },
    {
      "icao": "LEAL",
      "alert": "OK",
      "vis_m": 9999,
      "fzfg": false,
      "metar_trigger": false,
      "taf_trigger": false,
      "metar": "METAR LEAL 040830Z 23007KT CAVOK 17/09 Q1025 NOSIG",
      "taf": "TAF LEAL 040500Z 0406/0506 VRB03KT CAVOK TX21/0412Z TN08/0406Z"
    },
    {
      "icao": "LEBB",
      "alert": "OK",
      "vis_m": 9999,
      "fzfg": false,
      "metar_trigger": false,
      "taf_trigger": false,
      "metar": "METAR LEBB 040830Z VRB01KT CAVOK 15/06 Q1024 NOSIG",
      "taf": "TAF LEBB 040500Z 0406/0506 13006KT CAVOK TX27/0414Z TN06/0406Z"
    },
    {
      "icao": "LEBL",
      "alert": "OK",
      "vis_m": 9999,
      "fzfg": false,
      "metar_trigger": false,
      "taf_trigger": false,
      "metar": "METAR LEBL 040830Z 30004KT 240V350 9999 FEW020 16/09 Q1024 NOSIG",
      "taf": "TAF LEBL 040500Z 0406/0506 34005KT 9999 FEW020 TX19/0412Z TN09/0406Z"
    },
    {
      "icao": "LECH",
      "alert": "OK",
      "vis_m": 9999,
      "fzfg": false,
      "metar_trigger": false,
      "taf_trigger": false,
      "metar": "METAR LECH 040830Z AUTO VRB02KT CAVOK 16/04 Q1025",
      "taf": "TAF LECH 040500Z 0406/0506 VRB04KT CAVOK TX23/0413Z TN08/0406Z"
    },
    {
      "icao": "LEMD",
      "alert": "OK",
      "vis_m": 9999,
      "fzfg": false,
      "metar_trigger": false,
      "taf_trigger": false,
      "metar": "METAR LEMD 040830Z 33003KT 300V020 CAVOK 13/05 Q1025 NOSIG",
      "taf": "TAF LEMD 040500Z 0406/0512 VRB04KT CAVOK TX23/0416Z TN07/0506Z"
    },
    {
      "icao": "LEMG",
      "alert": "OK",
      "vis_m": 9999,
      "fzfg": false,
      "metar_trigger": false,
      "taf_trigger": false,
      "metar": "METAR LEMG 040830Z 30006KT CAVOK 14/06 Q1025 NOSIG",
      "taf": "TAF LEMG 040500Z 0406/0506 29006KT CAVOK TX21/0414Z TN11/0407Z"
    },
    {
      "icao": "LEVC",
      "alert": "OK",
      "vis_m": 9999,
      "fzfg": false,
      "metar_trigger": false,
      "taf_trigger": false,
      "metar": "METAR LEVC 040830Z 22003KT 180V270 CAVOK 17/06 Q1024 NOSIG",
      "taf": "TAF LEVC 040500Z 0406/0506 VRB03KT CAVOK TX25/0414Z TN08/0406Z"
    },
    {
      "icao": "LEXJ",
      "alert": "OK",
      "vis_m": 9999,
      "fzfg": false,
      "metar_trigger": false,
      "taf_trigger": false,
      "metar": "METAR LEXJ 040830Z 00000KT CAVOK 14/09 Q1022",
      "taf": "TAF LEXJ 040800Z 0409/0509 04005KT CAVOK TX26/0414Z TN12/0506Z"
    },
    {
      "icao": "LEZG",
      "alert": "OK",
      "vis_m": 9999,
      "fzfg": false,
      "metar_trigger": false,
      "taf_trigger": false,
      "metar": "METAR LEZG 040830Z 31003KT 260V020 CAVOK 14/04 Q1025 NOSIG",
      "taf": "TAF LEZG 040500Z 0406/0506 28005KT 9999 FEW050 TX27/0414Z TN09/0406Z"
    },
    {
      "icao": "LEZL",
      "alert": "OK",
      "vis_m": 9999,
      "fzfg": false,
      "metar_trigger": false,
      "taf_trigger": false,
      "metar": "METAR LEZL 040830Z 06006KT CAVOK 18/06 Q1023 NOSIG",
      "taf": "TAF LEZL 040800Z 0409/0509 07008KT CAVOK TX28/0415Z TN10/0507Z"
    },
    {
      "icao": "LFBD",
      "alert": "OK",
      "vis_m": 9999,
      "fzfg": false,
      "metar_trigger": false,
      "taf_trigger": false,
      "metar": "METAR LFBD 040830Z AUTO 13009KT 9999 BKN007 11/10 Q1026 BECMG SCT015",
      "taf": ""
    },
    {
      "icao": "LFLL",
      "alert": "OK",
      "vis_m": 9999,
      "fzfg": false,
      "metar_trigger": false,
      "taf_trigger": false,
      "metar": "METAR LFLL 040830Z 32004KT 280V360 9999 FEW010 BKN016 12/09 Q1026 NOSIG",
      "taf": "TAF LFLL 040500Z 0406/0512 35005KT 9999 BKN030"
    },
    {
      "icao": "LFLS",
      "alert": "OK",
      "vis_m": 9999,
      "fzfg": false,
      "metar_trigger": false,
      "taf_trigger": false,
      "metar": "METAR LFLS 040830Z AUTO 34007KT 9999 BKN020 12/08 Q1025 TEMPO BKN014",
      "taf": "TAF LFLS 040800Z 0409/0509 35008KT 9999 BKN024"
    },
    {
      "icao": "LFMN",
      "alert": "OK",
      "vis_m": 9999,
      "fzfg": false,
      "metar_trigger": false,
      "taf_trigger": false,
      "metar": "METAR LFMN 040830Z 06003KT 040V100 CAVOK 17/04 Q1021 NOSIG",
      "taf": "TAF LFMN 040800Z 0409/0515 16005KT CAVOK"
    },
    {
      "icao": "LFOB",
      "alert": "OK",
      "vis_m": 9999,
      "fzfg": false,
      "metar_trigger": false,
      "taf_trigger": false,
      "metar": "METAR LFOB 040830Z AUTO 23007KT 190V260 9999 BKN011 OVC021 13/11 Q1022 TEMPO 3000 DZRA OVC008",
      "taf": "TAF LFOB 040500Z 0406/0506 25012KT 9999 OVC012"
    },
    {
      "icao": "LFPO",
      "alert": "OK",
      "vis_m": 9999,
      "fzfg": false,
      "metar_trigger": false,
      "taf_trigger": false,
      "metar": "METAR LFPO 040830Z 22009KT 9999 BKN011 BKN025 14/11 Q1023 BECMG SCT012 BKN025",
      "taf": ""
    },
    {
      "icao": "LFSB",
      "alert": "OK",
      "vis_m": 9999,
      "fzfg": false,
      "metar_trigger": false,
      "taf_trigger": false,
      "metar": "METAR LFSB 040830Z AUTO 13007KT 9999 FEW006 BKN017 BKN046 11/09 Q1025 TEMPO BKN014 FEW025TCU",
      "taf": "TAF LFSB 040500Z 0406/0506 27006KT 9999 BKN030"
    },
    {
      "icao": "LGAV",
      "alert": "OK",
      "vis_m": 9999,
      "fzfg": false,
      "metar_trigger": false,
      "taf_trigger": false,
      "metar": "METAR LGAV 040820Z 02004KT 310V080 9999 SCT025 BKN040 17/08 Q1011 NOSIG",
      "taf": "TAF LGAV 040500Z 0406/0506 35010KT 9999 SCT025 SCT070"
    },
    {
      "icao": "LGTS",
      "alert": "OK",
      "vis_m": 9999,
      "fzfg": false,
      "metar_trigger": false,
      "taf_trigger": false,
      "metar": "METAR LGTS 040820Z 30010KT 9999 SCT025 15/08 Q1013 NOSIG",
      "taf": "TAF LGTS 040500Z 0406/0506 33005KT 9999 SCT030"
    },
    {
      "icao": "LHBP",
      "alert": "OK",
      "vis_m": 9999,
      "fzfg": false,
      "metar_trigger": false,
      "taf_trigger": false,
      "metar": "METAR LHBP 040830Z 31005KT 250V360 CAVOK 16/02 Q1019 NOSIG",
      "taf": "TAF LHBP 040515Z 0406/0506 34005KT CAVOK"
    },
    {
      "icao": "LHDC",
      "alert": "OK",
      "vis_m": 9999,
      "fzfg": false,
      "metar_trigger": false,
      "taf_trigger": false,
      "metar": "METAR LHDC 040815Z AUTO 31006KT 280V360 CAVOK 14/02 Q1018 NOSIG",
      "taf": "TAF LHDC 040815Z 0409/0418 30009KT CAVOK"
    },
    {
      "icao": "LIBD",
      "alert": "OK",
      "vis_m": 9999,
      "fzfg": false,
      "metar_trigger": false,
      "taf_trigger": false,
      "metar": "METAR LIBD 040820Z 31011KT CAVOK 16/07 Q1017",
      "taf": "TAF LIBD 040500Z 0406/0506 28012KT CAVOK"
    },
    {
      "icao": "LIBG",
      "alert": "OK",
      "vis_m": null,
      "fzfg": false,
      "metar_trigger": false,
      "taf_trigger": false,
      "metar": "",
      "taf": "TAF LIBG 040800Z 0409/0418 33016KT 9999 SCT030"
    },
    {
      "icao": "LIBP",
      "alert": "OK",
      "vis_m": 9999,
      "fzfg": false,
      "metar_trigger": false,
      "taf_trigger": false,
      "metar": "METAR LIBP 040820Z AUTO 20004KT 180V250 9999 NCD 15/07 Q1021",
      "taf": "TAF LIBP 040500Z 0406/0506 26006KT CAVOK"
    },
    {
      "icao": "LIBR",
      "alert": "OK",
      "vis_m": 9999,
      "fzfg": false,
      "metar_trigger": false,
      "taf_trigger": false,
      "metar": "METAR LIBR 040820Z 35013KT CAVOK 16/10 Q1015",
      "taf": "TAF LIBR 040500Z 0406/0506 33016KT CAVOK"
    },
    {
      "icao": "LICA",
      "alert": "OK",
      "vis_m": 9999,
      "fzfg": false,
      "metar_trigger": false,
      "taf_trigger": false,
      "metar": "METAR LICA 040820Z AUTO 22005KT 180V260 9999 NCD 16/12 Q1017",
      "taf": "TAF LICA 040500Z 0406/0506 VRB05KT 9999 FEW030"
    },
    {
      "icao": "LICC",
      "alert": "OK",
      "vis_m": 9999,
      "fzfg": false,
      "metar_trigger": false,
      "taf_trigger": false,
      "metar": "METAR LICC 040820Z 24003KT 180V310 9999 BKN080 15/12 Q1017",
      "taf": "TAF LICC 040500Z 0406/0506 VRB05KT 9999 SCT040"
    },
    {
      "icao": "LICJ",
      "alert": "OK",
      "vis_m": 9999,
      "fzfg": false,
      "metar_trigger": false,
      "taf_trigger": false,
      "metar": "METAR LICJ 040820Z 05005KT 360V090 CAVOK 16/11 Q1018",
      "taf": "TAF LICJ 040500Z 0406/0506 02014KT 9999 SCT040"
    },
    {
      "icao": "LIMC",
      "alert": "OK",
      "vis_m": 9999,
      "fzfg": false,
      "metar_trigger": false,
      "taf_trigger": false,
      "metar": "METAR LIMC 040820Z 11005KT 070V140 CAVOK 17/M02 Q1021 NOSIG",
      "taf": "TAF LIMC 040500Z 0406/0512 VRB05KT CAVOK"
    },
    {
      "icao": "LIME",
      "alert": "OK",
      "vis_m": 9999,
      "fzfg": false,
      "metar_trigger": false,
      "taf_trigger": false,
      "metar": "METAR LIME 040820Z 21005KT 170V230 CAVOK 15/01 Q1021 NOSIG",
      "taf": "TAF LIME 040500Z 0406/0506 VRB05KT CAVOK"
    },
    {
      "icao": "LIMF",
      "alert": "OK",
      "vis_m": 9999,
      "fzfg": false,
      "metar_trigger": false,
      "taf_trigger": false,
      "metar": "METAR LIMF 040820Z VRB01KT CAVOK 17/03 Q1021",
      "taf": "TAF LIMF 040500Z 0406/0506 VRB05KT CAVOK"
    },
    {
      "icao": "LIMJ",
      "alert": "OK",
      "vis_m": 9999,
      "fzfg": false,
      "metar_trigger": false,
      "taf_trigger": false,
      "metar": "METAR LIMJ 040820Z 14003KT CAVOK 16/07 Q1021",
      "taf": "TAF LIMJ 040500Z 0406/0506 04006KT CAVOK"
    },
    {
      "icao": "LIPE",
      "alert": "OK",
      "vis_m": 9999,
      "fzfg": false,
      "metar_trigger": false,
      "taf_trigger": false,
      "metar": "METAR LIPE 040820Z VRB01KT CAVOK 15/01 Q1021",
      "taf": "TAF LIPE 040500Z 0406/0506 VRB05KT CAVOK"
    },
    {
      "icao": "LIPH",
      "alert": "OK",
      "vis_m": 9999,
      "fzfg": false,
      "metar_trigger": false,
      "taf_trigger": false,
      "metar": "METAR LIPH 040820Z 21003KT 130V280 CAVOK 16/06 Q1022",
      "taf": "TAF LIPH 040500Z 0406/0506 VRB05KT CAVOK"
    },
    {
      "icao": "LIPQ",
      "alert": "OK",
      "vis_m": 9999,
      "fzfg": false,
      "metar_trigger": false,
      "taf_trigger": false,
      "metar": "METAR LIPQ 040820Z AUTO 05003KT 360V120 9999 SCT130/// 16/01 Q1021",
      "taf": "TAF LIPQ 040500Z 0406/0506 VRB05KT CAVOK"
    },
    {
      "icao": "LIPR",
      "alert": "OK",
      "vis_m": 9999,
      "fzfg": false,
      "metar_trigger": false,
      "taf_trigger": false,
      "metar": "METAR LIPR 040820Z 05004KT CAVOK 14/04 Q1021",
      "taf": "TAF LIPR 040500Z 0406/0506 VRB05KT CAVOK"
    },
    {
      "icao": "LIPX",
      "alert": "OK",
      "vis_m": 9999,
      "fzfg": false,
      "metar_trigger": false,
      "taf_trigger": false,
      "metar": "METAR LIPX 040820Z 10007KT 070V130 CAVOK 17/03 Q1021",
      "taf": "TAF LIPX 040500Z 0406/0506 VRB05KT CAVOK"
    },
    {
      "icao": "LIPY",
      "alert": "OK",
      "vis_m": 9999,
      "fzfg": false,
      "metar_trigger": false,
      "taf_trigger": false,
      "metar": "METAR LIPY 040820Z AUTO 33003KT 270V030 9999 NCD 15/08 Q1021",
      "taf": "TAF LIPY 040500Z 0406/0506 VRB05KT CAVOK"
    },
    {
      "icao": "LIPZ",
      "alert": "OK",
      "vis_m": 9999,
      "fzfg": false,
      "metar_trigger": false,
      "taf_trigger": false,
      "metar": "METAR LIPZ 040820Z VRB02KT CAVOK 16/07 Q1022 NOSIG",
      "taf": "TAF LIPZ 040500Z 0406/0512 VRB05KT CAVOK"
    },
    {
      "icao": "LIRF",
      "alert": "OK",
      "vis_m": 9999,
      "fzfg": false,
      "metar_trigger": false,
      "taf_trigger": false,
      "metar": "METAR LIRF 040820Z 03008KT CAVOK 17/05 Q1019 NOSIG",
      "taf": "TAF LIRF 040500Z 0406/0512 03012KT CAVOK"
    },
    {
      "icao": "LIRN",
      "alert": "OK",
      "vis_m": 9999,
      "fzfg": false,
      "metar_trigger": false,
      "taf_trigger": false,
      "metar": "METAR LIRN 040820Z 03006KT 290V070 CAVOK 17/02 Q1018 NOSIG",
      "taf": "TAF LIRN 040500Z 0406/0506 03012KT 9999 FEW080"
    },
    {
      "icao": "LIRP",
      "alert": "OK",
      "vis_m": 9999,
      "fzfg": false,
      "metar_trigger": false,
      "taf_trigger": false,
      "metar": "METAR LIRP 040815Z 09002KT CAVOK 14/06 Q1021 NOSIG",
      "taf": "TAF LIRP 040500Z 0406/0506 VRB03KT CAVOK"
    },
    {
      "icao": "LIRZ",
      "alert": "OK",
      "vis_m": 9999,
      "fzfg": false,
      "metar_trigger": false,
      "taf_trigger": false,
      "metar": "METAR LIRZ 040820Z AUTO 34007KT 9999 NCD 15/02 Q1020",
      "taf": "TAF LIRZ 040500Z 0406/0506 02013KT CAVOK"
    },
    {
      "icao": "LJLJ",
      "alert": "OK",
      "vis_m": 9999,
      "fzfg": false,
      "metar_trigger": false,
      "taf_trigger": false,
      "metar": "METAR LJLJ 040830Z 00000KT CAVOK 12/00 Q1022 NOSIG",
      "taf": "TAF LJLJ 040500Z 0406/0506 34003KT CAVOK"
    },
    {
      "icao": "LKMT",
      "alert": "OK",
      "vis_m": 9999,
      "fzfg": false,
      "metar_trigger": false,
      "taf_trigger": false,
      "metar": "METAR LKMT 040830Z 22015KT CAVOK 12/04 Q1017 NOSIG",
      "taf": "TAF LKMT 040500Z 0406/0506 22012KT CAVOK"
    },
    {
      "icao": "LKPR",
      "alert": "OK",
      "vis_m": 9999,
      "fzfg": false,
      "metar_trigger": false,
      "taf_trigger": false,
      "metar": "METAR LKPR 040830Z 24015KT 9999 FEW022 BKN035 10/06 Q1018 NOSIG",
      "taf": "TAF LKPR 040800Z 0409/0515 25018KT 9999 SCT025 BKN040"
    },
    {
      "icao": "LLBG",
      "alert": "OK",
      "vis_m": 6000,
      "fzfg": false,
      "metar_trigger": false,
      "taf_trigger": false,
      "metar": "METAR LLBG 040850Z 25004KT 200V320 6000 NSC 23/01 Q1016 NOSIG",
      "taf": "TAF LLBG 040503Z 0406/0506 28010KT 7000 NSC TX23/0410Z TN12/0504Z"
    },
    {
      "icao": "LMML",
      "alert": "OK",
      "vis_m": 9999,
      "fzfg": false,
      "metar_trigger": false,
      "taf_trigger": false,
      "metar": "METAR LMML 040845Z 01010KT 9999 FEW023 17/11 Q1017 NOSIG",
      "taf": "TAF LMML 040500Z 0406/0506 31007KT 9999 SCT025"
    },
    {
      "icao": "LOWW",
      "alert": "OK",
      "vis_m": 9999,
      "fzfg": false,
      "metar_trigger": false,
      "taf_trigger": false,
      "metar": "METAR LOWW 040820Z 29020KT 9999 FEW045 13/05 Q1020 NOSIG",
      "taf": "TAF LOWW 040815Z 0409/0515 28012KT 9999 FEW050 TX23/0515Z TN07/0504Z"
    },
    {
      "icao": "LPFR",
      "alert": "OK",
      "vis_m": 9999,
      "fzfg": false,
      "metar_trigger": false,
      "taf_trigger": false,
      "metar": "METAR LPFR 040830Z 07007KT CAVOK 18/08 Q1022",
      "taf": "TAF LPFR 040500Z 0406/0506 04010KT CAVOK"
    },
    {
      "icao": "LPMA",
      "alert": "OK",
      "vis_m": 9999,
      "fzfg": false,
      "metar_trigger": false,
      "taf_trigger": false,
      "metar": "METAR LPMA 040830Z VRB02KT 9999 FEW015 17/04 Q1020",
      "taf": "TAF LPMA 040500Z 0406/0506 36012KT 9999 SCT015"
    },
    {
      "icao": "LPPR",
      "alert": "OK",
      "vis_m": 9999,
      "fzfg": false,
      "metar_trigger": false,
      "taf_trigger": false,
      "metar": "METAR LPPR 040830Z 25004KT CAVOK 16/09 Q1023",
      "taf": "TAF LPPR 040500Z 0406/0506 VRB02KT CAVOK"
    },
    {
      "icao": "LPPS",
      "alert": "OK",
      "vis_m": 9999,
      "fzfg": false,
      "metar_trigger": false,
      "taf_trigger": false,
      "metar": "METAR LPPS 040830Z 36011KT 9999 FEW012 15/13 Q1020",
      "taf": "TAF LPPS 040500Z 0406/0512 VRB05KT 9999 SCT012"
    },
    {
      "icao": "LPPT",
      "alert": "OK",
      "vis_m": 9999,
      "fzfg": false,
      "metar_trigger": false,
      "taf_trigger": false,
      "metar": "METAR LPPT 040830Z 06005KT CAVOK 16/09 Q1023",
      "taf": "TAF LPPT 040500Z 0406/0512 VRB05KT CAVOK"
    },
    {
      "icao": "LQBK",
      "alert": "OK",
      "vis_m": 9999,
      "fzfg": false,
      "metar_trigger": false,
      "taf_trigger": false,
      "metar": "METAR LQBK 040830Z 03003KT 330V100 CAVOK 14/03 Q1022 NOSIG",
      "taf": "TAF LQBK 040500Z 0406/0506 16005KT CAVOK TX16/0413Z TN03/0406Z"
    },
    {
      "icao": "LQSA",
      "alert": "OK",
      "vis_m": 9999,
      "fzfg": false,
      "metar_trigger": false,
      "taf_trigger": false,
      "metar": "METAR LQSA 040830Z VRB02KT CAVOK 10/03 Q1021 NOSIG",
      "taf": "TAF LQSA 040500Z 0406/0506 VRB02KT 9999 SCT055 TX15/0414Z TN03/0504Z"
    },
    {
      "icao": "LQTZ",
      "alert": "OK",
      "vis_m": 9999,
      "fzfg": false,
      "metar_trigger": false,
      "taf_trigger": false,
      "metar": "METAR LQTZ 040830Z 29006KT CAVOK 12/05 Q1021",
      "taf": "TAF LQTZ 040500Z 0406/0506 27005KT 9999 FEW040 SCT060 TX16/0413Z TN04/0406Z"
    },
    {
      "icao": "LRBC",
      "alert": "OK",
      "vis_m": 9999,
      "fzfg": false,
      "metar_trigger": false,
      "taf_trigger": false,
      "metar": "METAR LRBC 040830Z 33015KT 9999 SCT068 14/01 Q1016",
      "taf": "TAF LRBC 040800Z 0409/0418 35012KT CAVOK"
    },
    {
      "icao": "LRBS",
      "alert": "OK",
      "vis_m": 9999,
      "fzfg": false,
      "metar_trigger": false,
      "taf_trigger": false,
      "metar": "METAR LRBS 040830Z VRB02KT 9999 FEW048 14/10 Q1015 NOSIG",
      "taf": "TAF LRBS 040500Z 0406/0506 VRB04KT 9999 BKN045"
    },
    {
      "icao": "LRBV",
      "alert": "OK",
      "vis_m": 9999,
      "fzfg": false,
      "metar_trigger": false,
      "taf_trigger": false,
      "metar": "METAR LRBV 040830Z 30005KT 250V350 9999 FEW019 SCT056 12/06 Q1016",
      "taf": "TAF LRBV 040800Z 0409/0418 29008KT 9999 SCT045"
    },
    {
      "icao": "LRCL",
      "alert": "OK",
      "vis_m": 9999,
      "fzfg": false,
      "metar_trigger": false,
      "taf_trigger": false,
      "metar": "METAR LRCL 040830Z VRB02KT 9999 FEW050 14/07 Q1016",
      "taf": "TAF LRCL 040800Z 0409/0418 VRB04KT CAVOK"
    },
    {
      "icao": "LRCV",
      "alert": "OK",
      "vis_m": 9999,
      "fzfg": false,
      "metar_trigger": false,
      "taf_trigger": false,
      "metar": "METAR LRCV 040830Z VRB02KT 9999 FEW020 15/11 Q1016",
      "taf": "TAF LRCV 040800Z 0409/0418 VRB04KT CAVOK"
    },
    {
      "icao": "LRIA",
      "alert": "OK",
      "vis_m": 9999,
      "fzfg": false,
      "metar_trigger": false,
      "taf_trigger": false,
      "metar": "METAR LRIA 040830Z 32013KT CAVOK 14/03 Q1015",
      "taf": "TAF LRIA 040800Z 0409/0418 32010KT CAVOK"
    },
    {
      "icao": "LROP",
      "alert": "OK",
      "vis_m": 9999,
      "fzfg": false,
      "metar_trigger": false,
      "taf_trigger": false,
      "metar": "METAR LROP 040830Z 25003KT CAVOK 14/12 Q1015 NOSIG",
      "taf": "TAF LROP 040500Z 0406/0506 VRB04KT 9999 BKN045"
    },
    {
      "icao": "LRSB",
      "alert": "OK",
      "vis_m": 9999,
      "fzfg": false,
      "metar_trigger": false,
      "taf_trigger": false,
      "metar": "METAR LRSB 040830Z COR VRB01KT 9999 FEW033 BKN050 11/07 Q1017 NOSIG",
      "taf": "TAF LRSB 040500Z 0406/0506 VRB04KT 9999 BKN040"
    },
    {
      "icao": "LRSM",
      "alert": "OK",
      "vis_m": 9999,
      "fzfg": false,
      "metar_trigger": false,
      "taf_trigger": false,
      "metar": "METAR LRSM 040830Z 24003KT CAVOK 14/03 Q1017",
      "taf": "TAF LRSM 040800Z 0409/0418 VRB04KT CAVOK"
    },
    {
      "icao": "LRSV",
      "alert": "OK",
      "vis_m": 9999,
      "fzfg": false,
      "metar_trigger": false,
      "taf_trigger": false,
      "metar": "METAR LRSV 040830Z 31010KT CAVOK 12/M00 Q1016",
      "taf": "TAF LRSV 040800Z 0409/0418 32010KT CAVOK"
    },
    {
      "icao": "LRTM",
      "alert": "OK",
      "vis_m": 9999,
      "fzfg": false,
      "metar_trigger": false,
      "taf_trigger": false,
      "metar": "METAR LRTM 040830Z 20006KT 170V240 9999 FEW019 SCT020 14/10 Q1016",
      "taf": "TAF LRTM 040800Z 0409/0418 VRB04KT CAVOK"
    },
    {
      "icao": "LRTR",
      "alert": "OK",
      "vis_m": 9999,
      "fzfg": false,
      "metar_trigger": false,
      "taf_trigger": false,
      "metar": "METAR LRTR 040830Z 35008KT CAVOK 13/05 Q1018 NOSIG",
      "taf": "TAF LRTR 040500Z 0406/0506 35010KT CAVOK"
    },
    {
      "icao": "LTAC",
      "alert": "OK",
      "vis_m": 9999,
      "fzfg": false,
      "metar_trigger": false,
      "taf_trigger": false,
      "metar": "METAR LTAC 040820Z 25011KT 9999 BKN033 12/04 Q1012 NOSIG RMK RWY21C 25010KT 210V280 RWY03L 24010KT 200V270 RWY21R 24011KT 210V290 RWY03R 23009KT 200V260 RWY21L 23011KT",
      "taf": "TAF LTAC 040440Z 0406/0506 VRB02KT 9999 SCT040 SCT100"
    },
    {
      "icao": "LTFM",
      "alert": "OK",
      "vis_m": 1100,
      "fzfg": false,
      "metar_trigger": false,
      "taf_trigger": false,
      "metar": "METAR LTFM 040820Z 36010KT 1100 0450E R35R/P1500U R17L/1500D R34L/1100D R36/0550D -SHRA BCFG BKN002 09/09 Q1012 NOSIG RMK RWY17L 36009KT 330V030 RWY34L 34011KT RWY16R 34009KT RWY36 35011KT RWY18 36008KT",
      "taf": ""
    },
    {
      "icao": "LUKK",
      "alert": "OK",
      "vis_m": 9999,
      "fzfg": false,
      "metar_trigger": false,
      "taf_trigger": false,
      "metar": "METAR LUKK 040830Z 35011KT 290V020 CAVOK 16/05 Q1013 NOSIG",
      "taf": "TAF LUKK 040501Z 0406/0506 32012KT CAVOK"
    },
    {
      "icao": "LWOH",
      "alert": "OK",
      "vis_m": 9999,
      "fzfg": false,
      "metar_trigger": false,
      "taf_trigger": false,
      "metar": "METAR LWOH 040850Z 33014KT 300V360 9999 SCT040 SCT080 12/05 Q1015",
      "taf": "TAF LWOH 040820Z 0409/0509 34010KT 9999 SCT040 SCT080"
    },
    {
      "icao": "LWSK",
      "alert": "OK",
      "vis_m": 9999,
      "fzfg": false,
      "metar_trigger": false,
      "taf_trigger": false,
      "metar": "METAR LWSK 040850Z VRB06KT 9999 SCT030 BKN057 12/07 Q1017 NOSIG",
      "taf": "TAF LWSK 040820Z 0409/0509 28006KT 9999 SCT030 BKN060"
    },
    {
      "icao": "LYBE",
      "alert": "OK",
      "vis_m": 9999,
      "fzfg": false,
      "metar_trigger": false,
      "taf_trigger": false,
      "metar": "METAR LYBE 040830Z 32011KT CAVOK 13/03 Q1020 NOSIG",
      "taf": "TAF LYBE 040500Z 0406/0506 30010KT CAVOK TX18/0413Z TN06/0406Z"
    },
    {
      "icao": "LYNI",
      "alert": "OK",
      "vis_m": 9999,
      "fzfg": false,
      "metar_trigger": false,
      "taf_trigger": false,
      "metar": "METAR LYNI 040830Z 32004KT 270V040 9999 SCT030 BKN043 09/05 Q1018 NOSIG",
      "taf": "TAF LYNI 040500Z 0406/0506 33016KT 9999 BKN025 TX14/0413Z TN04/0505Z"
    },
    {
      "icao": "LYPG",
      "alert": "OK",
      "vis_m": 9999,
      "fzfg": false,
      "metar_trigger": false,
      "taf_trigger": false,
      "metar": "METAR LYPG 040830Z 35020KT 9999 FEW050 19/01 Q1015 TEMPO 02030KT",
      "taf": "TAF LYPG 040500Z 0406/0506 36018KT 9999 FEW060 TX21/0413Z TN10/0504Z"
    },
    {
      "icao": "LZIB",
      "alert": "OK",
      "vis_m": 9999,
      "fzfg": false,
      "metar_trigger": false,
      "taf_trigger": false,
      "metar": "METAR LZIB 040830Z 28013KT 9999 SCT044 14/02 Q1019 NOSIG",
      "taf": "TAF LZIB 040515Z 0406/0506 30006KT CAVOK"
    },
    {
      "icao": "LZKZ",
      "alert": "OK",
      "vis_m": 9999,
      "fzfg": false,
      "metar_trigger": false,
      "taf_trigger": false,
      "metar": "METAR LZKZ 040830Z 18005KT 160V250 CAVOK 13/01 Q1017 NOSIG",
      "taf": "TAF LZKZ 040515Z 0406/0506 36005KT CAVOK"
    },
    {
      "icao": "LZTT",
      "alert": "OK",
      "vis_m": 9999,
      "fzfg": false,
      "metar_trigger": false,
      "taf_trigger": false,
      "metar": "METAR LZTT 040830Z 27015KT 9999 FEW053 10/01 Q1016 NOSIG",
      "taf": "TAF LZTT 040515Z 0406/0506 24005KT CAVOK"
    },
    {
      "icao": "OEJN",
      "alert": "OK",
      "vis_m": 3000,
      "fzfg": false,
      "metar_trigger": false,
      "taf_trigger": false,
      "metar": "METAR OEJN 040800Z 33012KT 3000 BLDU SCT040 33/18 Q1011 NOSIG",
      "taf": "TAF OEJN 040500Z 0406/0512 34020KT 7000 SCT040"
    },
    {
      "icao": "OEMA",
      "alert": "OK",
      "vis_m": 9999,
      "fzfg": false,
      "metar_trigger": false,
      "taf_trigger": false,
      "metar": "METAR OEMA 040800Z 29008KT 9999 FEW045 BKN100 31/11 Q1014 NOSIG",
      "taf": "TAF OEMA 040500Z 0406/0512 29010KT 7000 SCT040"
    },
    {
      "icao": "OJAI",
      "alert": "OK",
      "vis_m": 3500,
      "fzfg": false,
      "metar_trigger": false,
      "taf_trigger": false,
      "metar": "METAR OJAI 040800Z 22005KT 3500 HZ NSC 16/04 Q1018 NOSIG",
      "taf": "TAF OJAI 040440Z 0406/0512 29004KT 3000 DU NSC"
    },
    {
      "icao": "OMAA",
      "alert": "OK",
      "vis_m": null,
      "fzfg": false,
      "metar_trigger": false,
      "taf_trigger": false,
      "metar": "",
      "taf": ""
    },
    {
      "icao": "OMDB",
      "alert": "OK",
      "vis_m": null,
      "fzfg": false,
      "metar_trigger": false,
      "taf_trigger": false,
      "metar": "",
      "taf": ""
    },
    {
      "icao": "UAAA",
      "alert": "OK",
      "vis_m": 9999,
      "fzfg": false,
      "metar_trigger": false,
      "taf_trigger": false,
      "metar": "METAR UAAA 040830Z 27006MPS 240V300 9999 SCT050 BKN200 26/07 Q1006 NOSIG",
      "taf": "TAF UAAA 040503Z 0406/0506 30003MPS 9999 SCT050 BKN100 TX26/0410Z TN10/0501Z"
    },
    {
      "icao": "UBBB",
      "alert": "OK",
      "vis_m": 9999,
      "fzfg": false,
      "metar_trigger": false,
      "taf_trigger": false,
      "metar": "METAR UBBB 040830Z 32016G26KT 9999 BKN008 OVC042 12/10 Q1002 NOSIG",
      "taf": "TAF UBBB 040503Z 0406/0506 32014KT 9999 SCT010 FEW040CB BKN040 TX15/0409Z TN10/0501Z"
    },
    {
      "icao": "UDSG",
      "alert": "OK",
      "vis_m": 9999,
      "fzfg": false,
      "metar_trigger": false,
      "taf_trigger": false,
      "metar": "METAR UDSG 040830Z 30007KT 9999 -SHRA SCT023CB OVC033 06/02 Q1008 NOSIG",
      "taf": "TAF UDSG 040458Z 0406/0506 22006KT 9999 BKN040"
    },
    {
      "icao": "UDYZ",
      "alert": "OK",
      "vis_m": 9999,
      "fzfg": false,
      "metar_trigger": false,
      "taf_trigger": false,
      "metar": "METAR UDYZ 040830Z 26010KT 9999 BKN036CB 11/06 Q1007 NOSIG",
      "taf": "TAF UDYZ 040500Z 0406/0506 20006KT 9999 BKN040"
    },
    {
      "icao": "UGKO",
      "alert": "OK",
      "vis_m": 9999,
      "fzfg": false,
      "metar_trigger": false,
      "taf_trigger": false,
      "metar": "METAR UGKO 040830Z 25016KT 9999 BKN009 OVC015 13/09 Q1010 NOSIG",
      "taf": "TAF UGKO 040500Z 0406/0506 26007KT 9999 BKN050 TX15/0411Z TN07/0422Z"
    }
  ]
}