{
  "ts_utc": "2026-03-08T11:43:49Z",
  "threshold_m": 150,
  "source": "stations_override.txt (ICAO list) + aviationweather.gov (METAR/TAF raw)",
  "station_count": 159,
  "stations": [
    {
      "icao": "BIKF",
      "alert": "OK",
      "vis_m": 9999,
      "fzfg": false,
      "metar_trigger": false,
      "taf_trigger": false,
      "metar": "METAR BIKF 081130Z 13005KT 100V190 9999 SCT042 BKN078 01/M01 Q0999",
      "taf": "TAF BIKF 081057Z 0812/0912 20010KT 9999 SCT015 BKN035 TX03/0816Z TNM01/0823Z"
    },
    {
      "icao": "BKPR",
      "alert": "OK",
      "vis_m": 9999,
      "fzfg": false,
      "metar_trigger": false,
      "taf_trigger": false,
      "metar": "METAR BKPR 081130Z VRB02KT 9999 FEW040 15/05 Q1025 NOSIG",
      "taf": "TAF BKPR 081130Z 0812/0912 06007KT 9999 SCT040 BKN080"
    },
    {
      "icao": "EBCI",
      "alert": "OK",
      "vis_m": 9999,
      "fzfg": false,
      "metar_trigger": false,
      "taf_trigger": false,
      "metar": "METAR EBCI 081120Z 01003KT 340V060 CAVOK 14/07 Q1023 NOSIG",
      "taf": "TAF EBCI 081115Z 0812/0918 VRB03KT CAVOK"
    },
    {
      "icao": "EDDB",
      "alert": "OK",
      "vis_m": 9999,
      "fzfg": false,
      "metar_trigger": false,
      "taf_trigger": false,
      "metar": "METAR EDDB 081120Z AUTO 09005KT 060V140 CAVOK 14/04 Q1028 NOSIG",
      "taf": "TAF EDDB 081100Z 0812/0912 10006KT CAVOK"
    },
    {
      "icao": "EDDH",
      "alert": "OK",
      "vis_m": 9999,
      "fzfg": false,
      "metar_trigger": false,
      "taf_trigger": false,
      "metar": "METAR EDDH 081120Z AUTO 11008KT CAVOK 15/06 Q1027 NOSIG",
      "taf": "TAF EDDH 081100Z 0812/0918 11007KT CAVOK"
    },
    {
      "icao": "EDDK",
      "alert": "OK",
      "vis_m": 9999,
      "fzfg": false,
      "metar_trigger": false,
      "taf_trigger": false,
      "metar": "METAR EDDK 081120Z AUTO 15005KT 110V190 CAVOK 17/04 Q1024 NOSIG",
      "taf": "TAF EDDK 081100Z 0812/0918 13004KT CAVOK"
    },
    {
      "icao": "EDDN",
      "alert": "OK",
      "vis_m": 9999,
      "fzfg": false,
      "metar_trigger": false,
      "taf_trigger": false,
      "metar": "METAR EDDN 081120Z AUTO 22004KT 160V270 CAVOK 14/05 Q1025 NOSIG",
      "taf": "TAF EDDN 081100Z 0812/0912 11004KT CAVOK"
    },
    {
      "icao": "EDDS",
      "alert": "OK",
      "vis_m": 9999,
      "fzfg": false,
      "metar_trigger": false,
      "taf_trigger": false,
      "metar": "METAR EDDS 081120Z AUTO VRB02KT CAVOK 14/04 Q1023 NOSIG",
      "taf": "TAF EDDS 081100Z 0812/0912 VRB03KT CAVOK"
    },
    {
      "icao": "EDFH",
      "alert": "OK",
      "vis_m": 9999,
      "fzfg": false,
      "metar_trigger": false,
      "taf_trigger": false,
      "metar": "METAR EDFH 081120Z 13009KT 100V160 CAVOK 14/05 Q1024",
      "taf": "TAF EDFH 081100Z 0812/0912 14007KT CAVOK"
    },
    {
      "icao": "EDJA",
      "alert": "OK",
      "vis_m": 9999,
      "fzfg": false,
      "metar_trigger": false,
      "taf_trigger": false,
      "metar": "METAR EDJA 081120Z 25003KT 200V290 CAVOK 12/05 Q1024",
      "taf": "TAF EDJA 081100Z 0812/0821 VRB03KT CAVOK"
    },
    {
      "icao": "EDLW",
      "alert": "OK",
      "vis_m": 9999,
      "fzfg": false,
      "metar_trigger": false,
      "taf_trigger": false,
      "metar": "METAR EDLW 081120Z 31003KT 270V340 CAVOK 15/05 Q1024",
      "taf": "TAF EDLW 081100Z 0812/0912 05004KT CAVOK"
    },
    {
      "icao": "EDNY",
      "alert": "OK",
      "vis_m": 9999,
      "fzfg": false,
      "metar_trigger": false,
      "taf_trigger": false,
      "metar": "METAR EDNY 081120Z 22004KT 170V270 CAVOK 13/06 Q1025",
      "taf": "TAF EDNY 081100Z 0812/0821 VRB03KT CAVOK"
    },
    {
      "icao": "EDSB",
      "alert": "OK",
      "vis_m": 9999,
      "fzfg": false,
      "metar_trigger": false,
      "taf_trigger": false,
      "metar": "METAR EDSB 081120Z VRB02KT CAVOK 13/06 Q1024",
      "taf": "TAF EDSB 081100Z 0812/0912 VRB03KT CAVOK"
    },
    {
      "icao": "EETN",
      "alert": "OK",
      "vis_m": 9999,
      "fzfg": false,
      "metar_trigger": false,
      "taf_trigger": false,
      "metar": "METAR EETN 081120Z 25009KT CAVOK 08/M01 Q1031 NOSIG",
      "taf": "TAF EETN 081130Z 0812/0912 24008KT CAVOK"
    },
    {
      "icao": "EFTU",
      "alert": "OK",
      "vis_m": 9999,
      "fzfg": false,
      "metar_trigger": false,
      "taf_trigger": false,
      "metar": "METAR EFTU 081120Z AUTO 26012KT CAVOK 08/02 Q1029",
      "taf": "TAF EFTU 081123Z 0812/0912 26012KT CAVOK"
    },
    {
      "icao": "EGBB",
      "alert": "OK",
      "vis_m": 2500,
      "fzfg": false,
      "metar_trigger": false,
      "taf_trigger": false,
      "metar": "METAR EGBB 081120Z 12007KT 2500 BR OVC003 08/08 Q1023",
      "taf": "TAF EGBB 081102Z 0812/0912 13006KT 3000 BR BKN003"
    },
    {
      "icao": "EGGP",
      "alert": "OK",
      "vis_m": 6000,
      "fzfg": false,
      "metar_trigger": false,
      "taf_trigger": false,
      "metar": "METAR EGGP 081120Z 15006KT 6000 BKN007 OVC010 09/07 Q1023",
      "taf": "TAF EGGP 081104Z 0812/0912 16006KT 7000 SCT012 BKN025"
    },
    {
      "icao": "EGGW",
      "alert": "OK",
      "vis_m": 500,
      "fzfg": false,
      "metar_trigger": false,
      "taf_trigger": false,
      "metar": "METAR EGGW 081120Z AUTO 13007KT 0500 R07/0650D FG OVC002 07/07 Q1023",
      "taf": "TAF EGGW 081055Z 0812/0912 12005KT 0300 FG OVC001"
    },
    {
      "icao": "EGKK",
      "alert": "OK",
      "vis_m": 2000,
      "fzfg": false,
      "metar_trigger": false,
      "taf_trigger": false,
      "metar": "METAR EGKK 081120Z 05006KT 2000 BR OVC002 08/08 Q1023",
      "taf": "TAF EGKK 081101Z 0812/0918 12005KT 3000 BR BKN003"
    },
    {
      "icao": "EGNM",
      "alert": "OK",
      "vis_m": 2500,
      "fzfg": false,
      "metar_trigger": false,
      "taf_trigger": false,
      "metar": "METAR EGNM 081120Z 13005KT 110V170 2500 BR OVC002 08/07 Q1023",
      "taf": "TAF EGNM 081104Z 0812/0912 14004KT 7000 SCT007 BKN012"
    },
    {
      "icao": "EGPD",
      "alert": "OK",
      "vis_m": 9999,
      "fzfg": false,
      "metar_trigger": false,
      "taf_trigger": false,
      "metar": "METAR EGPD 081120Z COR AUTO 19013KT 9999 NCD 08/02 Q1020 NOSIG",
      "taf": "TAF EGPD 081052Z 0812/0912 19009KT 9999 FEW030"
    },
    {
      "icao": "EGPF",
      "alert": "OK",
      "vis_m": 9999,
      "fzfg": false,
      "metar_trigger": false,
      "taf_trigger": false,
      "metar": "METAR EGPF 081120Z AUTO 13003KT 050V210 9999 FEW024 BKN034 09/04 Q1021",
      "taf": "TAF EGPF 081059Z 0812/0912 23010KT 9999 BKN040"
    },
    {
      "icao": "EHBK",
      "alert": "OK",
      "vis_m": 9999,
      "fzfg": false,
      "metar_trigger": false,
      "taf_trigger": false,
      "metar": "METAR EHBK 081125Z AUTO 33004KT 280V010 3700 BR NCD 10/09 Q1024 BECMG CAVOK",
      "taf": "TAF EHBK 081058Z 0812/0918 VRB02KT CAVOK"
    },
    {
      "icao": "EHEH",
      "alert": "OK",
      "vis_m": 3900,
      "fzfg": false,
      "metar_trigger": false,
      "taf_trigger": false,
      "metar": "METAR EHEH 081125Z AUTO 19003KT 130V220 3900 BR NCD 10/08 Q1024 GRN BECMG 5000 NSW FEW007 RMK TREND REMOTE BY EHWX",
      "taf": "TAF EHEH 080533Z 0806/0912 05004KT 0400 FG OVC001"
    },
    {
      "icao": "EKBI",
      "alert": "OK",
      "vis_m": 2500,
      "fzfg": false,
      "metar_trigger": false,
      "taf_trigger": false,
      "metar": "METAR EKBI 081120Z VRB01KT 2500 BR OVC002 06/06 Q1028",
      "taf": "TAF EKBI 081127Z 0812/0912 13003KT 2000 BR BKN002"
    },
    {
      "icao": "EKCH",
      "alert": "OK",
      "vis_m": 9999,
      "fzfg": false,
      "metar_trigger": false,
      "taf_trigger": false,
      "metar": "METAR EKCH 081120Z AUTO 13008KT 9999 FEW091/// 08/03 Q1029 NOSIG",
      "taf": "TAF EKCH 081127Z 0812/0912 11005KT CAVOK"
    },
    {
      "icao": "ENAL",
      "alert": "OK",
      "vis_m": 9999,
      "fzfg": false,
      "metar_trigger": false,
      "taf_trigger": false,
      "metar": "METAR ENAL 081120Z VRB02KT 9999 SCT049 07/02 Q1023",
      "taf": "TAF ENAL 081100Z 0812/0821 16008KT 9999 FEW030 BKN060"
    },
    {
      "icao": "ENBR",
      "alert": "OK",
      "vis_m": 7000,
      "fzfg": false,
      "metar_trigger": false,
      "taf_trigger": false,
      "metar": "METAR ENBR 081120Z 36003KT 330V030 7000 SCT008 BKN020 05/05 Q1024 TEMPO 4000 BR BKN009 RMK WIND 1200FT 00000KT",
      "taf": "TAF ENBR 081100Z 0812/0912 VRB05KT 6000 SCT008 BKN015"
    },
    {
      "icao": "ENGM",
      "alert": "OK",
      "vis_m": 9000,
      "fzfg": false,
      "metar_trigger": false,
      "taf_trigger": false,
      "metar": "METAR ENGM 081120Z 05003KT 010V140 9000 BKN005 03/02 Q1027 NOSIG",
      "taf": "TAF ENGM 081100Z 0812/0912 03005KT 7000 BKN004"
    },
    {
      "icao": "ENHD",
      "alert": "OK",
      "vis_m": 1100,
      "fzfg": false,
      "metar_trigger": false,
      "taf_trigger": false,
      "metar": "METAR ENHD 081120Z 00000KT 1100 BR VV003 06/05 Q1024",
      "taf": "TAF ENHD 081100Z 0812/0821 VRB05KT 3000 BR OVC010"
    },
    {
      "icao": "ENTC",
      "alert": "OK",
      "vis_m": 9999,
      "fzfg": false,
      "metar_trigger": false,
      "taf_trigger": false,
      "metar": "METAR ENTC 081120Z 19009KT 9999 FEW030 SCT046 04/01 Q1016 NOSIG RMK WIND 2600FT 23009KT",
      "taf": "TAF ENTC 081100Z 0812/0912 21009KT 9999 FEW015 BKN040"
    },
    {
      "icao": "ENTO",
      "alert": "OK",
      "vis_m": 9999,
      "fzfg": false,
      "metar_trigger": false,
      "taf_trigger": false,
      "metar": "METAR ENTO 081120Z 02003KT 9999 SCT035 04/03 Q1027 TEMPO BKN009",
      "taf": "TAF ENTO 081100Z 0812/0912 01005KT 9999 BKN030"
    },
    {
      "icao": "ENVA",
      "alert": "OK",
      "vis_m": 9999,
      "fzfg": false,
      "metar_trigger": false,
      "taf_trigger": false,
      "metar": "METAR ENVA 081120Z 25003KT CAVOK 04/M00 Q1025 NOSIG RMK WIND 670FT VRB02KT",
      "taf": "TAF ENVA 081100Z 0812/0912 12008KT CAVOK"
    },
    {
      "icao": "ENZV",
      "alert": "OK",
      "vis_m": 2000,
      "fzfg": false,
      "metar_trigger": false,
      "taf_trigger": false,
      "metar": "METAR ENZV 081120Z 22006KT 2000 DZ BKN003 BKN005 05/04 Q1025 NOSIG",
      "taf": "TAF ENZV 081100Z 0812/0912 VRB03KT 5000 SCT004 BKN015"
    },
    {
      "icao": "EPGD",
      "alert": "OK",
      "vis_m": 9999,
      "fzfg": false,
      "metar_trigger": false,
      "taf_trigger": false,
      "metar": "METAR EPGD 081130Z 21008KT CAVOK 15/M05 Q1031",
      "taf": "TAF EPGD 081130Z 0812/0912 19006KT CAVOK"
    },
    {
      "icao": "EPKK",
      "alert": "OK",
      "vis_m": 9999,
      "fzfg": false,
      "metar_trigger": false,
      "taf_trigger": false,
      "metar": "METAR EPKK 081130Z 07008KT CAVOK 11/M01 Q1030",
      "taf": "TAF EPKK 081130Z 0812/0912 06008KT CAVOK"
    },
    {
      "icao": "EPKT",
      "alert": "OK",
      "vis_m": 9999,
      "fzfg": false,
      "metar_trigger": false,
      "taf_trigger": false,
      "metar": "METAR EPKT 081130Z 11014KT CAVOK 14/M04 Q1029",
      "taf": "TAF EPKT 081130Z 0812/0912 10012KT CAVOK"
    },
    {
      "icao": "EPLB",
      "alert": "OK",
      "vis_m": 9999,
      "fzfg": false,
      "metar_trigger": false,
      "taf_trigger": false,
      "metar": "METAR EPLB 081130Z 15006KT 120V180 CAVOK 12/M00 Q1032",
      "taf": "TAF EPLB 081130Z 0812/0912 13007KT CAVOK"
    },
    {
      "icao": "EPMO",
      "alert": "OK",
      "vis_m": 9999,
      "fzfg": false,
      "metar_trigger": false,
      "taf_trigger": false,
      "metar": "METAR EPMO 081130Z 12006KT 100V180 CAVOK 13/M02 Q1032",
      "taf": "TAF EPMO 081130Z 0812/0912 13006KT CAVOK"
    },
    {
      "icao": "EPPO",
      "alert": "OK",
      "vis_m": 9999,
      "fzfg": false,
      "metar_trigger": false,
      "taf_trigger": false,
      "metar": "METAR EPPO 081130Z 13007KT CAVOK 15/M03 Q1030",
      "taf": "TAF EPPO 081130Z 0812/0912 13008KT CAVOK"
    },
    {
      "icao": "EPRA",
      "alert": "OK",
      "vis_m": 9999,
      "fzfg": false,
      "metar_trigger": false,
      "taf_trigger": false,
      "metar": "METAR EPRA 081130Z 12008KT CAVOK 11/M02 Q1032",
      "taf": "TAF EPRA 081130Z 0812/0821 12008KT CAVOK"
    },
    {
      "icao": "EPRZ",
      "alert": "OK",
      "vis_m": 9999,
      "fzfg": false,
      "metar_trigger": false,
      "taf_trigger": false,
      "metar": "METAR EPRZ 081130Z 08009KT CAVOK 09/01 Q1031",
      "taf": "TAF EPRZ 081130Z 0812/0912 07008KT CAVOK"
    },
    {
      "icao": "EPSC",
      "alert": "OK",
      "vis_m": 9999,
      "fzfg": false,
      "metar_trigger": false,
      "taf_trigger": false,
      "metar": "METAR EPSC 081130Z 13008KT CAVOK 13/M01 Q1029",
      "taf": "TAF EPSC 081130Z 0812/0912 12010KT CAVOK"
    },
    {
      "icao": "EPSY",
      "alert": "OK",
      "vis_m": 9999,
      "fzfg": false,
      "metar_trigger": false,
      "taf_trigger": false,
      "metar": "METAR EPSY 081130Z 19006KT 160V240 CAVOK 13/M04 Q1032",
      "taf": "TAF EPSY 081130Z 0812/0821 VRB02KT CAVOK"
    },
    {
      "icao": "EPWA",
      "alert": "OK",
      "vis_m": 9999,
      "fzfg": false,
      "metar_trigger": false,
      "taf_trigger": false,
      "metar": "METAR EPWA 081130Z 16006KT 120V190 CAVOK 13/M02 Q1032 NOSIG",
      "taf": "TAF EPWA 081130Z 0812/0912 15008KT CAVOK"
    },
    {
      "icao": "EPWR",
      "alert": "OK",
      "vis_m": 9999,
      "fzfg": false,
      "metar_trigger": false,
      "taf_trigger": false,
      "metar": "METAR EPWR 081130Z 13011KT CAVOK 13/M01 Q1030",
      "taf": "TAF EPWR 081130Z 0812/0912 13009KT CAVOK"
    },
    {
      "icao": "ESGG",
      "alert": "OK",
      "vis_m": 9999,
      "fzfg": false,
      "metar_trigger": false,
      "taf_trigger": false,
      "metar": "METAR ESGG 081120Z 16006KT CAVOK 09/02 Q1027",
      "taf": "TAF ESGG 081130Z 0812/0912 16007KT CAVOK"
    },
    {
      "icao": "ESKN",
      "alert": "OK",
      "vis_m": 9999,
      "fzfg": false,
      "metar_trigger": false,
      "taf_trigger": false,
      "metar": "METAR ESKN 081120Z 15006KT 110V170 CAVOK 09/03 Q1030",
      "taf": "TAF ESKN 081130Z 0812/0912 13004KT CAVOK"
    },
    {
      "icao": "ESMS",
      "alert": "OK",
      "vis_m": 9999,
      "fzfg": false,
      "metar_trigger": false,
      "taf_trigger": false,
      "metar": "METAR ESMS 081120Z 15007KT CAVOK 11/03 Q1029",
      "taf": "TAF ESMS 081127Z 0812/0912 13008KT CAVOK"
    },
    {
      "icao": "ESSA",
      "alert": "OK",
      "vis_m": 9999,
      "fzfg": false,
      "metar_trigger": false,
      "taf_trigger": false,
      "metar": "METAR ESSA 081120Z 22005KT CAVOK 07/03 Q1030 NOSIG",
      "taf": "TAF ESSA 081130Z 0812/0912 23005KT CAVOK"
    },
    {
      "icao": "EYKA",
      "alert": "OK",
      "vis_m": 9999,
      "fzfg": false,
      "metar_trigger": false,
      "taf_trigger": false,
      "metar": "METAR EYKA 081120Z 20005KT 160V240 CAVOK 11/M02 Q1033",
      "taf": "TAF EYKA 081100Z 0812/0912 VRB04KT 8000 NSC"
    },
    {
      "icao": "EYPA",
      "alert": "OK",
      "vis_m": 9999,
      "fzfg": false,
      "metar_trigger": false,
      "taf_trigger": false,
      "metar": "METAR EYPA 081120Z 19005KT CAVOK 11/00 Q1032",
      "taf": "TAF EYPA 081100Z 0812/0912 VRB05KT 8000 NSC"
    },
    {
      "icao": "EYVI",
      "alert": "OK",
      "vis_m": 9999,
      "fzfg": false,
      "metar_trigger": false,
      "taf_trigger": false,
      "metar": "METAR EYVI 081120Z 15003KT 110V200 CAVOK 10/M00 Q1033 NOSIG",
      "taf": "TAF EYVI 081100Z 0812/0912 VRB05KT 9000 NSC"
    },
    {
      "icao": "GCFV",
      "alert": "OK",
      "vis_m": 9999,
      "fzfg": false,
      "metar_trigger": false,
      "taf_trigger": false,
      "metar": "METAR GCFV 081130Z 02015KT 350V050 9999 SCT035 BKN040 18/06 Q1022",
      "taf": "TAF GCFV 080800Z 0809/0909 02018KT 9999 BKN040 TX20/0814Z TN15/0906Z"
    },
    {
      "icao": "GCLP",
      "alert": "OK",
      "vis_m": 9999,
      "fzfg": false,
      "metar_trigger": false,
      "taf_trigger": false,
      "metar": "METAR GCLP 081130Z 01019KT 9999 BKN045 18/07 Q1023 NOSIG",
      "taf": "TAF GCLP 080800Z 0809/0909 02024KT 9999 BKN040 TX20/0814Z TN15/0906Z"
    },
    {
      "icao": "GCTS",
      "alert": "OK",
      "vis_m": 9999,
      "fzfg": false,
      "metar_trigger": false,
      "taf_trigger": false,
      "metar": "METAR GCTS 081130Z 08024KT 9999 SCT045 19/07 Q1023 NOSIG",
      "taf": "TAF GCTS 080800Z 0809/0909 08022KT 9999 SCT040 TX22/0814Z TN14/0906Z"
    },
    {
      "icao": "GMAD",
      "alert": "OK",
      "vis_m": 9999,
      "fzfg": false,
      "metar_trigger": false,
      "taf_trigger": false,
      "metar": "METAR GMAD 081130Z 15004KT CAVOK 19/12 Q1018 NOSIG",
      "taf": "TAF GMAD 081100Z 0812/0918 26012KT CAVOK"
    },
    {
      "icao": "GMMN",
      "alert": "OK",
      "vis_m": 9999,
      "fzfg": false,
      "metar_trigger": false,
      "taf_trigger": false,
      "metar": "METAR GMMN 081130Z 33004KT 280V010 9999 BKN022 15/11 Q1021 NOSIG",
      "taf": "TAF GMMN 080500Z 0806/0912 16004KT 3000 BR BKN020"
    },
    {
      "icao": "GMMX",
      "alert": "OK",
      "vis_m": 8000,
      "fzfg": false,
      "metar_trigger": false,
      "taf_trigger": false,
      "metar": "METAR GMMX 081130Z VRB02KT 8000 FEW020 BKN040 15/06 Q1020 NOSIG",
      "taf": "TAF GMMX 080500Z 0806/0912 06006KT 8000 SCT020 BKN040"
    },
    {
      "icao": "HEGN",
      "alert": "OK",
      "vis_m": 9999,
      "fzfg": false,
      "metar_trigger": false,
      "taf_trigger": false,
      "metar": "METAR HEGN 081100Z 35018KT CAVOK 22/M01 Q1016 NOSIG",
      "taf": "TAF HEGN 081100Z 0812/0918 35010G24KT CAVOK"
    },
    {
      "icao": "HEMA",
      "alert": "OK",
      "vis_m": 9999,
      "fzfg": false,
      "metar_trigger": false,
      "taf_trigger": false,
      "metar": "METAR HEMA 081100Z 34018KT CAVOK 23/10 Q1016 NOSIG",
      "taf": "TAF HEMA 081100Z 0812/0918 36010G24KT CAVOK"
    },
    {
      "icao": "HESH",
      "alert": "OK",
      "vis_m": 9999,
      "fzfg": false,
      "metar_trigger": false,
      "taf_trigger": false,
      "metar": "METAR HESH 081100Z 02015KT CAVOK 22/08 Q1017 NOSIG",
      "taf": "TAF HESH 081100Z 0812/0918 01010G22KT CAVOK"
    },
    {
      "icao": "HESX",
      "alert": "OK",
      "vis_m": 9999,
      "fzfg": false,
      "metar_trigger": false,
      "taf_trigger": false,
      "metar": "METAR HESX 081100Z 04012KT 9999 FEW020 20/06 Q1019 NOSIG",
      "taf": "TAF HESX 081100Z 0812/0918 35009KT CAVOK"
    },
    {
      "icao": "LATI",
      "alert": "OK",
      "vis_m": 9999,
      "fzfg": false,
      "metar_trigger": false,
      "taf_trigger": false,
      "metar": "METAR LATI 081120Z 33007KT 290V010 9999 SCT120 18/03 Q1025 NOSIG",
      "taf": "TAF LATI 081100Z 0812/0912 33008KT 9999 SCT120 TX21/0813Z TN08/0904Z"
    },
    {
      "icao": "LBPD",
      "alert": "OK",
      "vis_m": 9999,
      "fzfg": false,
      "metar_trigger": false,
      "taf_trigger": false,
      "metar": "METAR LBPD 081130Z AUTO 09004KT 040V190 9999 NCD 11/03 Q1028 NOSIG",
      "taf": "TAF LBPD 081100Z 0812/0912 11010KT CAVOK"
    },
    {
      "icao": "LBSF",
      "alert": "OK",
      "vis_m": 9999,
      "fzfg": false,
      "metar_trigger": false,
      "taf_trigger": false,
      "metar": "METAR LBSF 081130Z VRB02KT 9999 FEW068 14/01 Q1026 NOSIG",
      "taf": "TAF LBSF 081100Z 0812/0912 05010KT CAVOK"
    },
    {
      "icao": "LBWN",
      "alert": "OK",
      "vis_m": 9999,
      "fzfg": false,
      "metar_trigger": false,
      "taf_trigger": false,
      "metar": "METAR LBWN 081130Z 14009KT 9999 FEW030 09/01 Q1031 NOSIG",
      "taf": "TAF LBWN 081100Z 0812/0912 12010KT 9999 SCT030"
    },
    {
      "icao": "LCLK",
      "alert": "OK",
      "vis_m": 9999,
      "fzfg": false,
      "metar_trigger": false,
      "taf_trigger": false,
      "metar": "METAR LCLK 081130Z 35010KT 330V040 9999 FEW030 18/01 Q1019 NOSIG",
      "taf": ""
    },
    {
      "icao": "LCPH",
      "alert": "OK",
      "vis_m": 9999,
      "fzfg": false,
      "metar_trigger": false,
      "taf_trigger": false,
      "metar": "METAR LCPH 081130Z 30012KT 250V320 9999 FEW040 18/06 Q1019 NOSIG",
      "taf": "TAF LCPH 081130Z 0812/0912 29014KT 9999 FEW020"
    },
    {
      "icao": "LEAL",
      "alert": "OK",
      "vis_m": 9999,
      "fzfg": false,
      "metar_trigger": false,
      "taf_trigger": false,
      "metar": "METAR LEAL 081130Z VRB02KT 9999 FEW020 BKN035 16/09 Q1022 NOSIG",
      "taf": "TAF LEAL 081100Z 0812/0912 13007KT 9999 SCT030 TX17/0813Z TN07/0906Z"
    },
    {
      "icao": "LEBB",
      "alert": "OK",
      "vis_m": 9999,
      "fzfg": false,
      "metar_trigger": false,
      "taf_trigger": false,
      "metar": "METAR LEBB 081130Z 00000KT 9999 FEW023 SCT048 15/10 Q1022 NOSIG",
      "taf": "TAF LEBB 081100Z 0812/0912 12007KT 9999 FEW020 SCT060 TX17/0815Z TN07/0907Z"
    },
    {
      "icao": "LEBL",
      "alert": "OK",
      "vis_m": 9999,
      "fzfg": false,
      "metar_trigger": false,
      "taf_trigger": false,
      "metar": "METAR LEBL 081130Z 08008KT 9999 FEW020 SCT035 14/11 Q1022 TEMPO 4000 SHRA FEW025TCU",
      "taf": "TAF LEBL 081100Z 0812/0912 33005KT 9999 FEW015 BKN040 TX16/0812Z TN09/0906Z"
    },
    {
      "icao": "LECH",
      "alert": "OK",
      "vis_m": 9000,
      "fzfg": false,
      "metar_trigger": false,
      "taf_trigger": false,
      "metar": "METAR LECH 081130Z AUTO 10005KT 040V150 9000 FEW019 12/08 Q1022",
      "taf": ""
    },
    {
      "icao": "LEMD",
      "alert": "OK",
      "vis_m": 9999,
      "fzfg": false,
      "metar_trigger": false,
      "taf_trigger": false,
      "metar": "METAR LEMD 081130Z 01002KT 9999 FEW020 BKN030 10/06 Q1021 NOSIG",
      "taf": "TAF LEMD 081100Z 0812/0918 VRB04KT 9999 FEW015 SCT030 TX13/0815Z TN02/0904Z"
    },
    {
      "icao": "LEMG",
      "alert": "OK",
      "vis_m": 9999,
      "fzfg": false,
      "metar_trigger": false,
      "taf_trigger": false,
      "metar": "METAR LEMG 081130Z 12007KT 080V160 9999 FEW020 FEW023TCU 16/12 Q1021 NOSIG",
      "taf": "TAF LEMG 081100Z 0812/0912 13010KT 9999 SCT030 TX16/0814Z TN08/0907Z"
    },
    {
      "icao": "LEVC",
      "alert": "OK",
      "vis_m": 9999,
      "fzfg": false,
      "metar_trigger": false,
      "taf_trigger": false,
      "metar": "METAR LEVC 081130Z VRB03KT 9999 FEW023 SCT046 14/07 Q1022 NOSIG",
      "taf": "TAF LEVC 081100Z 0812/0912 VRB04KT 9999 SCT025 TX16/0813Z TN07/0906Z"
    },
    {
      "icao": "LEXJ",
      "alert": "OK",
      "vis_m": 9999,
      "fzfg": false,
      "metar_trigger": false,
      "taf_trigger": false,
      "metar": "METAR LEXJ 081130Z VRB02KT 9999 FEW040 13/07 Q1022",
      "taf": "TAF LEXJ 080800Z 0809/0909 22005KT 9999 FEW030 TX14/0812Z TN08/0906Z"
    },
    {
      "icao": "LEZG",
      "alert": "OK",
      "vis_m": 9999,
      "fzfg": false,
      "metar_trigger": false,
      "taf_trigger": false,
      "metar": "METAR LEZG 081130Z 09003KT 050V120 9999 BKN030 13/08 Q1022 NOSIG",
      "taf": "TAF LEZG 081100Z 0812/0912 VRB04KT 9999 SCT025 TX14/0814Z TN04/0906Z"
    },
    {
      "icao": "LEZL",
      "alert": "OK",
      "vis_m": 9999,
      "fzfg": false,
      "metar_trigger": false,
      "taf_trigger": false,
      "metar": "METAR LEZL 081130Z 23002KT 9999 SCT015 16/12 Q1021 NOSIG",
      "taf": "TAF LEZL 080800Z 0809/0909 VRB03KT 9999 FEW020 TX19/0815Z TN12/0907Z"
    },
    {
      "icao": "LFBD",
      "alert": "OK",
      "vis_m": 9999,
      "fzfg": false,
      "metar_trigger": false,
      "taf_trigger": false,
      "metar": "METAR LFBD 081130Z AUTO 15005KT 110V190 9999 BKN029 BKN034 BKN092 16/09 Q1021 TEMPO 4000 -SHRA BKN020TCU",
      "taf": "TAF LFBD 081100Z 0812/0918 12005KT 9999 BKN040 TX16/0814Z TN05/0905Z"
    },
    {
      "icao": "LFLL",
      "alert": "OK",
      "vis_m": 9999,
      "fzfg": false,
      "metar_trigger": false,
      "taf_trigger": false,
      "metar": "METAR LFLL 081130Z 12003KT 050V150 9999 FEW035 17/07 Q1024 NOSIG",
      "taf": "TAF LFLL 081100Z 0812/0918 19005KT CAVOK"
    },
    {
      "icao": "LFLS",
      "alert": "OK",
      "vis_m": 9999,
      "fzfg": false,
      "metar_trigger": false,
      "taf_trigger": false,
      "metar": "METAR LFLS 081130Z AUTO VRB02KT CAVOK 16/06 Q1024 NOSIG",
      "taf": "TAF LFLS 080800Z 0809/0909 09007KT CAVOK"
    },
    {
      "icao": "LFMN",
      "alert": "OK",
      "vis_m": 9999,
      "fzfg": false,
      "metar_trigger": false,
      "taf_trigger": false,
      "metar": "METAR LFMN 081130Z 09007KT 9999 BKN092 16/08 Q1026 NOSIG",
      "taf": "TAF LFMN 080800Z 0809/0915 34005KT 9999 FEW060 SCT100"
    },
    {
      "icao": "LFOB",
      "alert": "OK",
      "vis_m": 700,
      "fzfg": false,
      "metar_trigger": false,
      "taf_trigger": false,
      "metar": "METAR LFOB 081130Z AUTO 15003KT 120V190 0700 0650 R30/0900U R12/1000N FG VV/// 08/08 Q1023 BECMG 8000 NSW NSC",
      "taf": "TAF LFOB 081100Z 0812/0912 VRB03KT 0900 FG VV///"
    },
    {
      "icao": "LFPO",
      "alert": "OK",
      "vis_m": 9999,
      "fzfg": false,
      "metar_trigger": false,
      "taf_trigger": false,
      "metar": "METAR LFPO 081130Z VRB01KT 4500 BR NSC 11/10 Q1023 BECMG CAVOK",
      "taf": "TAF LFPO 081100Z 0812/0918 VRB02KT CAVOK"
    },
    {
      "icao": "LFSB",
      "alert": "OK",
      "vis_m": 9999,
      "fzfg": false,
      "metar_trigger": false,
      "taf_trigger": false,
      "metar": "METAR LFSB 081130Z AUTO VRB02KT CAVOK 17/08 Q1024 NOSIG",
      "taf": "TAF LFSB 081100Z 0812/0912 16004KT CAVOK"
    },
    {
      "icao": "LGAV",
      "alert": "OK",
      "vis_m": 9999,
      "fzfg": false,
      "metar_trigger": false,
      "taf_trigger": false,
      "metar": "METAR LGAV 081120Z 04016KT 9999 FEW025 SCT035 14/05 Q1026 NOSIG",
      "taf": "TAF LGAV 081100Z 0812/0912 02015KT 9999 FEW025"
    },
    {
      "icao": "LGTS",
      "alert": "OK",
      "vis_m": 9999,
      "fzfg": false,
      "metar_trigger": false,
      "taf_trigger": false,
      "metar": "METAR LGTS 081120Z 29004KT 9999 SCT025 12/08 Q1028 NOSIG",
      "taf": "TAF LGTS 081100Z 0812/0912 14013KT 9999 SCT020"
    },
    {
      "icao": "LHBP",
      "alert": "OK",
      "vis_m": 9999,
      "fzfg": false,
      "metar_trigger": false,
      "taf_trigger": false,
      "metar": "METAR LHBP 081130Z 15006KT 120V180 CAVOK 16/M01 Q1028 NOSIG",
      "taf": "TAF LHBP 081115Z 0812/0912 10006KT CAVOK"
    },
    {
      "icao": "LHDC",
      "alert": "OK",
      "vis_m": 9999,
      "fzfg": false,
      "metar_trigger": false,
      "taf_trigger": false,
      "metar": "METAR LHDC 081115Z AUTO VRB05KT CAVOK 16/00 Q1028 NOSIG",
      "taf": "TAF LHDC 081115Z 0812/0821 07006KT CAVOK"
    },
    {
      "icao": "LIBD",
      "alert": "OK",
      "vis_m": 9999,
      "fzfg": false,
      "metar_trigger": false,
      "taf_trigger": false,
      "metar": "METAR LIBD 081120Z AUTO 04005KT 350V080 9999 BKN076/// 15/10 Q1025",
      "taf": "TAF LIBD 081100Z 0812/0912 VRB05KT 9999 BKN040"
    },
    {
      "icao": "LIBG",
      "alert": "OK",
      "vis_m": 9999,
      "fzfg": false,
      "metar_trigger": false,
      "taf_trigger": false,
      "metar": "METAR LIBG 081050Z 10003KT 030V140 9999 SCT020 17/12 Q1025",
      "taf": "TAF LIBG 081100Z 0812/0821 VRB05KT 9999 SCT030"
    },
    {
      "icao": "LIBP",
      "alert": "OK",
      "vis_m": 9999,
      "fzfg": false,
      "metar_trigger": false,
      "taf_trigger": false,
      "metar": "METAR LIBP 081120Z AUTO 04006KT 360V080 9999 FEW028/// 15/11 Q1026",
      "taf": "TAF LIBP 081100Z 0812/0912 VRB04KT 9999 BKN025"
    },
    {
      "icao": "LIBR",
      "alert": "OK",
      "vis_m": 9999,
      "fzfg": false,
      "metar_trigger": false,
      "taf_trigger": false,
      "metar": "METAR LIBR 081120Z 10008KT 9999 SCT015 BKN030 14/11 Q1025",
      "taf": "TAF LIBR 081100Z 0812/0912 VRB04KT 8000 BKN020"
    },
    {
      "icao": "LICA",
      "alert": "OK",
      "vis_m": 9999,
      "fzfg": false,
      "metar_trigger": false,
      "taf_trigger": false,
      "metar": "METAR LICA 081120Z AUTO 26006KT 9999 NCD 20/11 Q1024",
      "taf": "TAF LICA 081100Z 0812/0912 25010KT 9999 SCT040"
    },
    {
      "icao": "LICC",
      "alert": "OK",
      "vis_m": 9999,
      "fzfg": false,
      "metar_trigger": false,
      "taf_trigger": false,
      "metar": "METAR LICC 081120Z 07009KT 9999 FEW025 18/16 Q1025",
      "taf": "TAF LICC 081100Z 0812/0912 09012KT 9999 SCT015"
    },
    {
      "icao": "LICJ",
      "alert": "OK",
      "vis_m": 9999,
      "fzfg": false,
      "metar_trigger": false,
      "taf_trigger": false,
      "metar": "METAR LICJ 081120Z 05008KT CAVOK 17/13 Q1024",
      "taf": "TAF LICJ 081100Z 0812/0912 05013KT 9999 FEW030"
    },
    {
      "icao": "LIMC",
      "alert": "OK",
      "vis_m": 9000,
      "fzfg": false,
      "metar_trigger": false,
      "taf_trigger": false,
      "metar": "METAR LIMC 081120Z VRB02KT 9000 NSC 16/04 Q1027 NOSIG",
      "taf": "TAF LIMC 081100Z 0812/0918 VRB05KT CAVOK"
    },
    {
      "icao": "LIME",
      "alert": "OK",
      "vis_m": 9000,
      "fzfg": false,
      "metar_trigger": false,
      "taf_trigger": false,
      "metar": "METAR LIME 081120Z 21005KT 150V250 9000 FEW040 14/06 Q1027 NOSIG",
      "taf": "TAF LIME 081100Z 0812/0912 VRB05KT 9999 FEW030"
    },
    {
      "icao": "LIMF",
      "alert": "OK",
      "vis_m": 9999,
      "fzfg": false,
      "metar_trigger": false,
      "taf_trigger": false,
      "metar": "METAR LIMF 081120Z 14003KT 050V220 CAVOK 15/04 Q1027",
      "taf": "TAF LIMF 081100Z 0812/0912 VRB04KT CAVOK"
    },
    {
      "icao": "LIMJ",
      "alert": "OK",
      "vis_m": 9999,
      "fzfg": false,
      "metar_trigger": false,
      "taf_trigger": false,
      "metar": "METAR LIMJ 081120Z 18007KT 9999 FEW028 15/09 Q1026",
      "taf": "TAF LIMJ 081100Z 0812/0912 VRB05KT 9999 SCT030"
    },
    {
      "icao": "LIPE",
      "alert": "OK",
      "vis_m": 6000,
      "fzfg": false,
      "metar_trigger": false,
      "taf_trigger": false,
      "metar": "METAR LIPE 081120Z VRB02KT 6000 FEW017 13/08 Q1027",
      "taf": "TAF LIPE 081100Z 0812/0912 VRB04KT 8000 SCT050"
    },
    {
      "icao": "LIPH",
      "alert": "OK",
      "vis_m": 8000,
      "fzfg": false,
      "metar_trigger": false,
      "taf_trigger": false,
      "metar": "METAR LIPH 081120Z 16003KT 090V260 8000 NSC 16/08 Q1027",
      "taf": "TAF LIPH 081100Z 0812/0912 VRB03KT CAVOK"
    },
    {
      "icao": "LIPQ",
      "alert": "OK",
      "vis_m": 9999,
      "fzfg": false,
      "metar_trigger": false,
      "taf_trigger": false,
      "metar": "METAR LIPQ 081120Z AUTO 29004KT 250V010 9999 NCD 17/06 Q1026",
      "taf": "TAF LIPQ 081100Z 0812/0912 VRB04KT CAVOK"
    },
    {
      "icao": "LIPR",
      "alert": "OK",
      "vis_m": 6000,
      "fzfg": false,
      "metar_trigger": false,
      "taf_trigger": false,
      "metar": "METAR LIPR 081120Z 03006KT 010V070 6000 NSC 12/09 Q1027",
      "taf": "TAF LIPR 081100Z 0812/0912 VRB06KT 8000 NSC"
    },
    {
      "icao": "LIPX",
      "alert": "OK",
      "vis_m": 9999,
      "fzfg": false,
      "metar_trigger": false,
      "taf_trigger": false,
      "metar": "METAR LIPX 081120Z 15004KT 100V200 CAVOK 14/09 Q1027",
      "taf": "TAF LIPX 081100Z 0812/0912 VRB05KT CAVOK"
    },
    {
      "icao": "LIPY",
      "alert": "OK",
      "vis_m": 9999,
      "fzfg": false,
      "metar_trigger": false,
      "taf_trigger": false,
      "metar": "METAR LIPY 081120Z AUTO 03005KT 340V090 9999 BKN019/// 13/11 Q1027",
      "taf": ""
    },
    {
      "icao": "LIPZ",
      "alert": "OK",
      "vis_m": 4000,
      "fzfg": false,
      "metar_trigger": false,
      "taf_trigger": false,
      "metar": "METAR LIPZ 081120Z 19004KT 4000 BR NSC 11/08 Q1027 NOSIG",
      "taf": "TAF LIPZ 081100Z 0812/0918 VRB04KT 6000 NSC"
    },
    {
      "icao": "LIRF",
      "alert": "OK",
      "vis_m": 9999,
      "fzfg": false,
      "metar_trigger": false,
      "taf_trigger": false,
      "metar": "METAR LIRF 081120Z 02004KT 320V080 CAVOK 18/09 Q1025 NOSIG",
      "taf": "TAF LIRF 081100Z 0812/0918 27010KT 9999 SCT040"
    },
    {
      "icao": "LIRN",
      "alert": "OK",
      "vis_m": 9999,
      "fzfg": false,
      "metar_trigger": false,
      "taf_trigger": false,
      "metar": "METAR LIRN 081120Z VRB03KT 9999 FEW040 18/08 Q1025 NOSIG",
      "taf": "TAF LIRN 081100Z 0812/0912 VRB05KT 9999 SCT040"
    },
    {
      "icao": "LIRP",
      "alert": "OK",
      "vis_m": 9999,
      "fzfg": false,
      "metar_trigger": false,
      "taf_trigger": false,
      "metar": "METAR LIRP 081115Z 12008KT 9999 FEW030 SCT050 16/11 Q1026 NOSIG",
      "taf": "TAF LIRP 081100Z 0812/0912 17007KT 9999 SCT040 SCT060"
    },
    {
      "icao": "LIRZ",
      "alert": "OK",
      "vis_m": 9999,
      "fzfg": false,
      "metar_trigger": false,
      "taf_trigger": false,
      "metar": "METAR LIRZ 081120Z AUTO 23004KT 160V270 9999 NCD 16/09 Q1025",
      "taf": "TAF LIRZ 081100Z 0812/0912 VRB05KT 9999 SCT030"
    },
    {
      "icao": "LJLJ",
      "alert": "OK",
      "vis_m": 9999,
      "fzfg": false,
      "metar_trigger": false,
      "taf_trigger": false,
      "metar": "METAR LJLJ 081130Z 10003KT 060V200 9999 FEW070 15/04 Q1026 NOSIG",
      "taf": "TAF LJLJ 081100Z 0812/0912 10004KT 9999 FEW070"
    },
    {
      "icao": "LKMT",
      "alert": "OK",
      "vis_m": 9999,
      "fzfg": false,
      "metar_trigger": false,
      "taf_trigger": false,
      "metar": "METAR LKMT 081130Z 03006KT CAVOK 12/M00 Q1028 NOSIG",
      "taf": "TAF LKMT 081100Z 0812/0912 04002KT CAVOK"
    },
    {
      "icao": "LKPR",
      "alert": "OK",
      "vis_m": 9999,
      "fzfg": false,
      "metar_trigger": false,
      "taf_trigger": false,
      "metar": "METAR LKPR 081130Z 07007KT 040V100 CAVOK 12/00 Q1027 NOSIG",
      "taf": "TAF LKPR 081100Z 0812/0918 11006KT CAVOK"
    },
    {
      "icao": "LLBG",
      "alert": "OK",
      "vis_m": 9999,
      "fzfg": false,
      "metar_trigger": false,
      "taf_trigger": false,
      "metar": "METAR LLBG 081120Z 34014KT 9999 FEW050 18/01 Q1019 NOSIG",
      "taf": "TAF LLBG 081103Z 0812/0912 33015KT 9999 FEW045 TX19/0812Z TN08/0904Z"
    },
    {
      "icao": "LMML",
      "alert": "OK",
      "vis_m": 9999,
      "fzfg": false,
      "metar_trigger": false,
      "taf_trigger": false,
      "metar": "METAR LMML 081115Z 06016KT 9999 BKN011 17/14 Q1023 NOSIG",
      "taf": "TAF LMML 081100Z 0812/0912 09015KT 9999 SCT013"
    },
    {
      "icao": "LOWW",
      "alert": "OK",
      "vis_m": 9999,
      "fzfg": false,
      "metar_trigger": false,
      "taf_trigger": false,
      "metar": "METAR LOWW 081120Z 13008KT 090V170 CAVOK 15/00 Q1028 NOSIG",
      "taf": "TAF LOWW 081115Z 0812/0918 13007KT CAVOK TX16/0814Z TN05/0905Z"
    },
    {
      "icao": "LPFR",
      "alert": "OK",
      "vis_m": 9999,
      "fzfg": false,
      "metar_trigger": false,
      "taf_trigger": false,
      "metar": "METAR LPFR 081130Z 22006KT 190V250 9999 FEW020 16/10 Q1021",
      "taf": "TAF LPFR 081100Z 0812/0912 20007KT 9999 SCT035"
    },
    {
      "icao": "LPMA",
      "alert": "OK",
      "vis_m": 9999,
      "fzfg": false,
      "metar_trigger": false,
      "taf_trigger": false,
      "metar": "METAR LPMA 081130Z 01013KT 330V060 9999 SCT013 FEW018TCU BKN030 15/07 Q1026",
      "taf": "TAF LPMA 081100Z 0812/0912 01012KT 9999 SCT015 SCT030"
    },
    {
      "icao": "LPPR",
      "alert": "OK",
      "vis_m": 9999,
      "fzfg": false,
      "metar_trigger": false,
      "taf_trigger": false,
      "metar": "METAR LPPR 081130Z VRB04KT 9999 SCT011 13/10 Q1022",
      "taf": "TAF LPPR 081100Z 0812/0912 26005KT 9999 SCT018"
    },
    {
      "icao": "LPPS",
      "alert": "OK",
      "vis_m": 9999,
      "fzfg": false,
      "metar_trigger": false,
      "taf_trigger": false,
      "metar": "METAR LPPS 081130Z 02013KT 9999 SCT014 15/07 Q1027",
      "taf": "TAF LPPS 081100Z 0812/0918 05010KT 9999 FEW013 BKN030"
    },
    {
      "icao": "LPPT",
      "alert": "OK",
      "vis_m": 9999,
      "fzfg": false,
      "metar_trigger": false,
      "taf_trigger": false,
      "metar": "METAR LPPT 081130Z 33006KT 260V030 9999 FEW028 16/09 Q1022",
      "taf": "TAF LPPT 081100Z 0812/0918 33012KT 9999 FEW028"
    },
    {
      "icao": "LQBK",
      "alert": "OK",
      "vis_m": 9999,
      "fzfg": false,
      "metar_trigger": false,
      "taf_trigger": false,
      "metar": "METAR LQBK 081130Z 36004KT 280V050 CAVOK 17/M00 Q1026 NOSIG",
      "taf": ""
    },
    {
      "icao": "LQSA",
      "alert": "OK",
      "vis_m": 9999,
      "fzfg": false,
      "metar_trigger": false,
      "taf_trigger": false,
      "metar": "METAR LQSA 081130Z VRB02KT 9999 SCT060 15/01 Q1025 NOSIG",
      "taf": "TAF LQSA 081100Z 0812/0912 VRB02KT 9999 SCT055 TX17/0814Z TN01/0905Z"
    },
    {
      "icao": "LQTZ",
      "alert": "OK",
      "vis_m": 9999,
      "fzfg": false,
      "metar_trigger": false,
      "taf_trigger": false,
      "metar": "METAR LQTZ 081130Z VRB02KT 9999 FEW060 17/01 Q1026",
      "taf": "TAF LQTZ 081100Z 0812/0912 VRB02KT CAVOK TX18/0813Z TNM02/0905Z"
    },
    {
      "icao": "LRBC",
      "alert": "OK",
      "vis_m": 9999,
      "fzfg": false,
      "metar_trigger": false,
      "taf_trigger": false,
      "metar": "METAR LRBC 081130Z 36009KT CAVOK 12/M01 Q1031",
      "taf": "TAF LRBC 081100Z 0812/0821 VRB04KT CAVOK"
    },
    {
      "icao": "LRBS",
      "alert": "OK",
      "vis_m": 9999,
      "fzfg": false,
      "metar_trigger": false,
      "taf_trigger": false,
      "metar": "METAR LRBS 081130Z 08008KT 040V110 CAVOK 12/01 Q1030 NOSIG",
      "taf": "TAF LRBS 081100Z 0812/0912 08010KT CAVOK"
    },
    {
      "icao": "LRBV",
      "alert": "OK",
      "vis_m": 9999,
      "fzfg": false,
      "metar_trigger": false,
      "taf_trigger": false,
      "metar": "METAR LRBV 081130Z 07007KT 040V130 9999 FEW055 13/M04 Q1028",
      "taf": "TAF LRBV 081100Z 0812/0821 08008KT CAVOK"
    },
    {
      "icao": "LRCL",
      "alert": "OK",
      "vis_m": 9999,
      "fzfg": false,
      "metar_trigger": false,
      "taf_trigger": false,
      "metar": "METAR LRCL 081130Z 10005KT 070V130 CAVOK 14/M02 Q1028",
      "taf": "TAF LRCL 081100Z 0812/0821 VRB04KT CAVOK"
    },
    {
      "icao": "LRCV",
      "alert": "OK",
      "vis_m": 9999,
      "fzfg": false,
      "metar_trigger": false,
      "taf_trigger": false,
      "metar": "METAR LRCV 081130Z 09009KT CAVOK 12/02 Q1029",
      "taf": "TAF LRCV 081100Z 0812/0821 08010KT CAVOK"
    },
    {
      "icao": "LRIA",
      "alert": "OK",
      "vis_m": 9999,
      "fzfg": false,
      "metar_trigger": false,
      "taf_trigger": false,
      "metar": "METAR LRIA 081130Z 30005KT 240V040 CAVOK 12/M02 Q1031",
      "taf": "TAF LRIA 081100Z 0812/0821 VRB04KT CAVOK"
    },
    {
      "icao": "LROP",
      "alert": "OK",
      "vis_m": 9999,
      "fzfg": false,
      "metar_trigger": false,
      "taf_trigger": false,
      "metar": "METAR LROP 081130Z 08009KT 050V110 CAVOK 12/M02 Q1030 NOSIG",
      "taf": "TAF LROP 081100Z 0812/0912 08010KT CAVOK"
    },
    {
      "icao": "LRSB",
      "alert": "OK",
      "vis_m": 9999,
      "fzfg": false,
      "metar_trigger": false,
      "taf_trigger": false,
      "metar": "METAR LRSB 081130Z 09008KT CAVOK 13/M00 Q1027",
      "taf": "TAF LRSB 081100Z 0812/0912 10008KT CAVOK"
    },
    {
      "icao": "LRSM",
      "alert": "OK",
      "vis_m": 9999,
      "fzfg": false,
      "metar_trigger": false,
      "taf_trigger": false,
      "metar": "METAR LRSM 081130Z 07004KT 030V100 CAVOK 16/M01 Q1028",
      "taf": "TAF LRSM 081100Z 0812/0821 VRB04KT CAVOK"
    },
    {
      "icao": "LRSV",
      "alert": "OK",
      "vis_m": 9999,
      "fzfg": false,
      "metar_trigger": false,
      "taf_trigger": false,
      "metar": "METAR LRSV 081130Z 04005KT 360V110 CAVOK 10/M02 Q1031",
      "taf": "TAF LRSV 081100Z 0812/0821 VRB04KT CAVOK"
    },
    {
      "icao": "LRTM",
      "alert": "OK",
      "vis_m": 9999,
      "fzfg": false,
      "metar_trigger": false,
      "taf_trigger": false,
      "metar": "METAR LRTM 081130Z VRB02KT CAVOK 15/M00 Q1028",
      "taf": "TAF LRTM 081100Z 0812/0821 08008KT CAVOK"
    },
    {
      "icao": "LRTR",
      "alert": "OK",
      "vis_m": 9999,
      "fzfg": false,
      "metar_trigger": false,
      "taf_trigger": false,
      "metar": "METAR LRTR 081130Z 36006KT 320V040 CAVOK 16/02 Q1027",
      "taf": "TAF LRTR 081100Z 0812/0912 31008KT CAVOK"
    },
    {
      "icao": "LTAC",
      "alert": "OK",
      "vis_m": 9999,
      "fzfg": false,
      "metar_trigger": false,
      "taf_trigger": false,
      "metar": "METAR LTAC 081120Z 06005KT 340V130 9999 FEW040 07/M06 Q1023 NOSIG RMK RWY21C VRB04KT RWY03L 06005KT 360V120 RWY21R 34005KT 280V050 RWY03R VRB03KT RWY21L 31005KT 210V010",
      "taf": "TAF LTAC 081040Z 0812/0912 03008KT 9999 SCT040"
    },
    {
      "icao": "LTFM",
      "alert": "OK",
      "vis_m": 9999,
      "fzfg": false,
      "metar_trigger": false,
      "taf_trigger": false,
      "metar": "METAR LTFM 081120Z 06018KT 9999 BKN028 08/M00 Q1029 NOSIG RMK RWY17L 07016KT RWY34L 05015KT RWY16R 06016KT RWY36 06017KT RWY18 07015KT",
      "taf": "TAF LTFM 081040Z 0812/0918 05015KT 9999 BKN028"
    },
    {
      "icao": "LUKK",
      "alert": "OK",
      "vis_m": 9999,
      "fzfg": false,
      "metar_trigger": false,
      "taf_trigger": false,
      "metar": "METAR LUKK 081130Z 03004KT 340V110 CAVOK 11/M00 Q1031 NOSIG",
      "taf": "TAF LUKK 081116Z 0812/0912 VRB05KT CAVOK"
    },
    {
      "icao": "LWOH",
      "alert": "OK",
      "vis_m": 9999,
      "fzfg": false,
      "metar_trigger": false,
      "taf_trigger": false,
      "metar": "METAR LWOH 081120Z 16004KT 130V190 9999 FEW040 12/06 Q1025",
      "taf": "TAF LWOH 081115Z 0812/0912 16006KT 9999 FEW040"
    },
    {
      "icao": "LWSK",
      "alert": "OK",
      "vis_m": 9999,
      "fzfg": false,
      "metar_trigger": false,
      "taf_trigger": false,
      "metar": "METAR LWSK 081120Z 29004KT 230V350 CAVOK 15/07 Q1026 NOSIG",
      "taf": "TAF LWSK 081115Z 0812/0912 VRB02KT CAVOK"
    },
    {
      "icao": "LYBE",
      "alert": "OK",
      "vis_m": 9999,
      "fzfg": false,
      "metar_trigger": false,
      "taf_trigger": false,
      "metar": "METAR LYBE 081130Z 01004KT 300V100 CAVOK 17/04 Q1027 NOSIG",
      "taf": "TAF LYBE 081100Z 0812/0912 10008KT CAVOK TX19/0813Z TN06/0905Z"
    },
    {
      "icao": "LYNI",
      "alert": "OK",
      "vis_m": 9999,
      "fzfg": false,
      "metar_trigger": false,
      "taf_trigger": false,
      "metar": "METAR LYNI 081130Z 30003KT 250V030 CAVOK 16/03 Q1026 NOSIG",
      "taf": "TAF LYNI 081100Z 0812/0912 05008KT CAVOK TX18/0813Z TN04/0905Z"
    },
    {
      "icao": "LYPG",
      "alert": "OK",
      "vis_m": 9999,
      "fzfg": false,
      "metar_trigger": false,
      "taf_trigger": false,
      "metar": "METAR LYPG 081130Z 15004KT 110V210 9999 FEW046 18/05 Q1025 NOSIG",
      "taf": "TAF LYPG 081100Z 0812/0912 17007KT 9999 SCT050 TX18/0813Z TN07/0905Z"
    },
    {
      "icao": "LZIB",
      "alert": "OK",
      "vis_m": 9999,
      "fzfg": false,
      "metar_trigger": false,
      "taf_trigger": false,
      "metar": "METAR LZIB 081130Z 10005KT 030V150 CAVOK 15/00 Q1028 NOSIG",
      "taf": "TAF LZIB 081115Z 0812/0912 07008KT CAVOK"
    },
    {
      "icao": "LZKZ",
      "alert": "OK",
      "vis_m": 9999,
      "fzfg": false,
      "metar_trigger": false,
      "taf_trigger": false,
      "metar": "METAR LZKZ 081130Z 01007KT 340V040 CAVOK 14/M05 Q1029 NOSIG",
      "taf": "TAF LZKZ 081115Z 0812/0912 01010KT CAVOK"
    },
    {
      "icao": "LZTT",
      "alert": "OK",
      "vis_m": 9999,
      "fzfg": false,
      "metar_trigger": false,
      "taf_trigger": false,
      "metar": "METAR LZTT 081130Z 12005KT 070V170 CAVOK 11/M06 Q1029 NOSIG",
      "taf": "TAF LZTT 081115Z 0812/0912 10008KT CAVOK"
    },
    {
      "icao": "OEJN",
      "alert": "OK",
      "vis_m": 9999,
      "fzfg": false,
      "metar_trigger": false,
      "taf_trigger": false,
      "metar": "METAR OEJN 081100Z 32017KT CAVOK 29/14 Q1012 NOSIG",
      "taf": "TAF OEJN 081100Z 0812/0918 30012KT CAVOK"
    },
    {
      "icao": "OEMA",
      "alert": "OK",
      "vis_m": 9999,
      "fzfg": false,
      "metar_trigger": false,
      "taf_trigger": false,
      "metar": "METAR OEMA 081100Z 28011KT CAVOK 27/M09 Q1014 NOSIG",
      "taf": "TAF OEMA 081100Z 0812/0918 27008KT CAVOK"
    },
    {
      "icao": "OJAI",
      "alert": "OK",
      "vis_m": 5000,
      "fzfg": false,
      "metar_trigger": false,
      "taf_trigger": false,
      "metar": "METAR OJAI 081100Z 26012KT 5000 HZ NSC 12/M02 Q1018 NOSIG",
      "taf": "TAF OJAI 081035Z 0812/0918 30010KT 5000 HZ FEW030"
    },
    {
      "icao": "OMAA",
      "alert": "OK",
      "vis_m": null,
      "fzfg": false,
      "metar_trigger": false,
      "taf_trigger": false,
      "metar": "",
      "taf": ""
    },
    {
      "icao": "OMDB",
      "alert": "OK",
      "vis_m": null,
      "fzfg": false,
      "metar_trigger": false,
      "taf_trigger": false,
      "metar": "",
      "taf": ""
    },
    {
      "icao": "UAAA",
      "alert": "OK",
      "vis_m": 9999,
      "fzfg": false,
      "metar_trigger": false,
      "taf_trigger": false,
      "metar": "METAR UAAA 081130Z 33002MPS 300V050 9999 SCT100 BKN200 13/03 Q1021 NOSIG",
      "taf": "TAF UAAA 081101Z 0812/0912 17003MPS 3100 BR FU SCT050 BKN100 TX15/0909Z TN02/0902Z"
    },
    {
      "icao": "UBBB",
      "alert": "OK",
      "vis_m": 9999,
      "fzfg": false,
      "metar_trigger": false,
      "taf_trigger": false,
      "metar": "METAR UBBB 081130Z 05008KT 9999 BKN019 07/03 Q1024 NOSIG",
      "taf": "TAF UBBB 081055Z 0812/0912 04010KT 9999 BKN020 TX07/0812Z TN04/0901Z"
    },
    {
      "icao": "UDSG",
      "alert": "OK",
      "vis_m": 9999,
      "fzfg": false,
      "metar_trigger": false,
      "taf_trigger": false,
      "metar": "METAR UDSG 081130Z 08012KT 9999 SCT049 M00/M07 Q1019 NOSIG",
      "taf": "TAF UDSG 081058Z 0812/0912 VRB06KT 9999 BKN040"
    },
    {
      "icao": "UDYZ",
      "alert": "OK",
      "vis_m": 9999,
      "fzfg": false,
      "metar_trigger": false,
      "taf_trigger": false,
      "metar": "METAR UDYZ 081130Z 26005KT 9999 OVC028 05/M01 Q1019 NOSIG",
      "taf": "TAF UDYZ 081100Z 0812/0912 22006KT 9999 BKN030"
    },
    {
      "icao": "UGKO",
      "alert": "OK",
      "vis_m": 9999,
      "fzfg": false,
      "metar_trigger": false,
      "taf_trigger": false,
      "metar": "METAR UGKO 081130Z 25010KT 9999 -RA SCT024 BKN031 08/03 Q1027 NOSIG",
      "taf": "TAF UGKO 081100Z 0812/0912 25010KT 9999 SCT024 BKN050 TX08/0812Z TN02/0903Z"
    }
  ]
}