{
  "ts_utc": "2025-12-22T04:53:59Z",
  "threshold_m": 150,
  "source": "stations_override.txt (ICAO list) + aviationweather.gov (METAR/TAF raw)",
  "station_count": 114,
  "stations": [
    {
      "icao": "BIKF",
      "alert": "OK",
      "vis_m": 9999,
      "fzfg": false,
      "metar_trigger": false,
      "taf_trigger": false,
      "metar": "METAR BIKF 220430Z 11021G33KT 9999 FEW016 BKN051 08/05 Q1000",
      "taf": "TAF BIKF 220135Z 2203/2303 13022G32KT 9999 BKN022 TX08/2203Z TN03/2221Z"
    },
    {
      "icao": "BKPR",
      "alert": "OK",
      "vis_m": null,
      "fzfg": false,
      "metar_trigger": false,
      "taf_trigger": false,
      "metar": "",
      "taf": ""
    },
    {
      "icao": "EBBR",
      "alert": "OK",
      "vis_m": 9999,
      "fzfg": false,
      "metar_trigger": false,
      "taf_trigger": false,
      "metar": "METAR EBBR 220420Z 12007KT CAVOK 04/01 Q1007 NOSIG",
      "taf": "TAF EBBR 212302Z 2200/2306 09005KT CAVOK"
    },
    {
      "icao": "EBCI",
      "alert": "OK",
      "vis_m": 9999,
      "fzfg": false,
      "metar_trigger": false,
      "taf_trigger": false,
      "metar": "METAR EBCI 220420Z 07004KT CAVOK 05/01 Q1007 NOSIG",
      "taf": "TAF EBCI 212302Z 2200/2306 05004KT CAVOK"
    },
    {
      "icao": "EDDB",
      "alert": "OK",
      "vis_m": 3500,
      "fzfg": false,
      "metar_trigger": false,
      "taf_trigger": false,
      "metar": "METAR EDDB 220420Z AUTO 08007KT 3500 BR OVC003 03/03 Q1018 NOSIG",
      "taf": "TAF EDDB 212300Z 2200/2224 08010KT 6000 OVC004"
    },
    {
      "icao": "EDDH",
      "alert": "OK",
      "vis_m": 3900,
      "fzfg": false,
      "metar_trigger": false,
      "taf_trigger": false,
      "metar": "METAR EDDH 220420Z AUTO 09009KT 060V120 3900 BR OVC002 05/05 Q1017 NOSIG",
      "taf": "TAF EDDH 212300Z 2200/2306 10011KT 6000 OVC002"
    },
    {
      "icao": "EDDK",
      "alert": "OK",
      "vis_m": 9999,
      "fzfg": false,
      "metar_trigger": false,
      "taf_trigger": false,
      "metar": "METAR EDDK 220420Z AUTO VRB02KT CAVOK 03/01 Q1010 NOSIG",
      "taf": "TAF EDDK 212300Z 2200/2306 11006KT CAVOK"
    },
    {
      "icao": "EDDN",
      "alert": "OK",
      "vis_m": 9999,
      "fzfg": false,
      "metar_trigger": false,
      "taf_trigger": false,
      "metar": "METAR EDDN 220420Z AUTO 13005KT 100V160 9999 OVC010 01/M00 Q1011",
      "taf": ""
    },
    {
      "icao": "EDFH",
      "alert": "OK",
      "vis_m": 9999,
      "fzfg": false,
      "metar_trigger": false,
      "taf_trigger": false,
      "metar": "METAR EDFH 220420Z 14010KT CAVOK 01/M01 Q1008",
      "taf": "TAF EDFH 212300Z 2200/2224 13012KT CAVOK"
    },
    {
      "icao": "EDJA",
      "alert": "OK",
      "vis_m": 1600,
      "fzfg": false,
      "metar_trigger": false,
      "taf_trigger": false,
      "metar": "METAR EDJA 220420Z AUTO 07006KT 1600 // VV/// M03/M03 Q1008",
      "taf": "TAF EDJA 220200Z 2203/2212 06004KT 1500 BR VV001"
    },
    {
      "icao": "EDLW",
      "alert": "OK",
      "vis_m": 9999,
      "fzfg": false,
      "metar_trigger": false,
      "taf_trigger": false,
      "metar": "METAR EDLW 220420Z 04008KT CAVOK 04/03 Q1010",
      "taf": "TAF EDLW 220423Z 2205/2224 08007KT CAVOK"
    },
    {
      "icao": "EDSB",
      "alert": "OK",
      "vis_m": 1700,
      "fzfg": false,
      "metar_trigger": false,
      "taf_trigger": false,
      "metar": "METAR EDSB 220420Z 01004KT 1700 BR OVC002 02/01 Q1009",
      "taf": ""
    },
    {
      "icao": "EETN",
      "alert": "OK",
      "vis_m": 9999,
      "fzfg": false,
      "metar_trigger": false,
      "taf_trigger": false,
      "metar": "METAR EETN 220450Z 35006KT 320V020 9999 OVC010 02/00 Q1019 NOSIG",
      "taf": "TAF EETN 212330Z 2200/2224 34008KT 9999 SCT015 BKN020"
    },
    {
      "icao": "EFHK",
      "alert": "OK",
      "vis_m": 9999,
      "fzfg": false,
      "metar_trigger": false,
      "taf_trigger": false,
      "metar": "METAR EFHK 220450Z 31004KT 9999 -SN FEW014 BKN025 00/M01 Q1019 TEMPO 7000 BKN014",
      "taf": ""
    },
    {
      "icao": "EFTU",
      "alert": "OK",
      "vis_m": 9999,
      "fzfg": false,
      "metar_trigger": false,
      "taf_trigger": false,
      "metar": "METAR EFTU 220450Z AUTO VRB02KT 9999 FEW008 01/01 Q1020",
      "taf": "TAF EFTU 220228Z 2203/2303 32009KT 9999 OVC008"
    },
    {
      "icao": "EGGW",
      "alert": "OK",
      "vis_m": 4300,
      "fzfg": false,
      "metar_trigger": false,
      "taf_trigger": false,
      "metar": "METAR EGGW 220420Z AUTO 10005KT 4300 BR SCT005 BKN036 08/08 Q1005",
      "taf": ""
    },
    {
      "icao": "EGKK",
      "alert": "OK",
      "vis_m": 9999,
      "fzfg": false,
      "metar_trigger": false,
      "taf_trigger": false,
      "metar": "METAR EGKK 220420Z 07006KT 9999 BKN024 09/09 Q1004",
      "taf": "TAF EGKK 212253Z 2200/2306 10008KT 9999 SCT025"
    },
    {
      "icao": "EHEH",
      "alert": "OK",
      "vis_m": 9999,
      "fzfg": false,
      "metar_trigger": false,
      "taf_trigger": false,
      "metar": "METAR EHEH 220425Z AUTO 08004KT 9999 OVC250 05/02 Q1009 BLU NOSIG RMK TREND REMOTE BY EHWX",
      "taf": "TAF EHEH 212310Z 2200/2306 09007KT CAVOK"
    },
    {
      "icao": "EKBI",
      "alert": "OK",
      "vis_m": 9999,
      "fzfg": false,
      "metar_trigger": false,
      "taf_trigger": false,
      "metar": "METAR EKBI 220420Z AUTO 10012KT 9999 BKN011/// OVC065/// 05/03 Q1019",
      "taf": "TAF EKBI 220227Z 2203/2303 09014KT 9999 BKN010"
    },
    {
      "icao": "EKCH",
      "alert": "OK",
      "vis_m": 9999,
      "fzfg": false,
      "metar_trigger": false,
      "taf_trigger": false,
      "metar": "METAR EKCH 220420Z AUTO 09012KT 9999 OVC015/// 05/03 Q1022 NOSIG",
      "taf": "TAF EKCH 220227Z 2203/2303 08010KT 9999 BKN016"
    },
    {
      "icao": "ENTO",
      "alert": "OK",
      "vis_m": 9999,
      "fzfg": false,
      "metar_trigger": false,
      "taf_trigger": false,
      "metar": "METAR ENTO 220420Z AUTO 36007KT 9999 NCD M03/M04 Q1025",
      "taf": "TAF ENTO 212300Z 2200/2224 01007KT CAVOK"
    },
    {
      "icao": "EPGD",
      "alert": "OK",
      "vis_m": 9999,
      "fzfg": false,
      "metar_trigger": false,
      "taf_trigger": false,
      "metar": "METAR EPGD 220430Z VRB01KT 9999 BKN016 03/02 Q1022",
      "taf": "TAF EPGD 212330Z 2200/2224 VRB03KT 9999 BKN016"
    },
    {
      "icao": "EPKK",
      "alert": "OK",
      "vis_m": 3200,
      "fzfg": false,
      "metar_trigger": false,
      "taf_trigger": false,
      "metar": "METAR EPKK 220430Z 06010KT 3200 BR OVC002 02/02 Q1019",
      "taf": "TAF EPKK 220230Z 2203/2303 06008KT 2400 BR OVC002"
    },
    {
      "icao": "EPKT",
      "alert": "OK",
      "vis_m": 9999,
      "fzfg": false,
      "metar_trigger": false,
      "taf_trigger": false,
      "metar": "METAR EPKT 220430Z 09008KT 9999 BKN003 OVC005 03/02 Q1019",
      "taf": "TAF EPKT 212330Z 2200/2224 07005KT 9999 OVC003"
    },
    {
      "icao": "EPWA",
      "alert": "OK",
      "vis_m": 9999,
      "fzfg": false,
      "metar_trigger": false,
      "taf_trigger": false,
      "metar": "METAR EPWA 220430Z VRB01KT 9999 BKN024 02/M00 Q1022 NOSIG",
      "taf": "TAF EPWA 220230Z 2203/2303 VRB03KT 9999 BKN020"
    },
    {
      "icao": "EPWR",
      "alert": "OK",
      "vis_m": 1200,
      "fzfg": false,
      "metar_trigger": false,
      "taf_trigger": false,
      "metar": "METAR EPWR 220430Z 09007KT 1200 BR OVC002 05/05 Q1019",
      "taf": ""
    },
    {
      "icao": "ESGG",
      "alert": "OK",
      "vis_m": 9999,
      "fzfg": false,
      "metar_trigger": false,
      "taf_trigger": false,
      "metar": "METAR ESGG 220420Z 09007KT CAVOK M01/M02 Q1023",
      "taf": "TAF ESGG 220230Z 2203/2303 08005KT CAVOK"
    },
    {
      "icao": "ESKN",
      "alert": "OK",
      "vis_m": 9999,
      "fzfg": false,
      "metar_trigger": false,
      "taf_trigger": false,
      "metar": "METAR ESKN 220420Z 26006KT 9999 BCFG NSC M05/M05 Q1023",
      "taf": "TAF ESKN 220230Z 2203/2303 31005KT CAVOK"
    },
    {
      "icao": "ESMX",
      "alert": "OK",
      "vis_m": 9999,
      "fzfg": false,
      "metar_trigger": false,
      "taf_trigger": false,
      "metar": "METAR ESMX 220420Z AUTO 00000KT 9999 NCD M03/M03 Q1023",
      "taf": "TAF ESMX 220430Z 2205/2212 01002KT CAVOK"
    },
    {
      "icao": "EVRA",
      "alert": "OK",
      "vis_m": 9999,
      "fzfg": false,
      "metar_trigger": false,
      "taf_trigger": false,
      "metar": "METAR EVRA 220450Z 33009KT 290V360 9999 OVC018 05/02 Q1020 NOSIG",
      "taf": "TAF EVRA 220201Z 2203/2303 35010KT 9999 BKN015"
    },
    {
      "icao": "EYKA",
      "alert": "OK",
      "vis_m": 9999,
      "fzfg": false,
      "metar_trigger": false,
      "taf_trigger": false,
      "metar": "METAR EYKA 220450Z 29004KT 250V340 9999 OVC014 03/02 Q1021",
      "taf": "TAF EYKA 212300Z 2200/2224 VRB04KT 8000 BKN020"
    },
    {
      "icao": "EYVI",
      "alert": "OK",
      "vis_m": 9999,
      "fzfg": false,
      "metar_trigger": false,
      "taf_trigger": false,
      "metar": "METAR EYVI 220450Z 31007KT 280V020 9999 OVC017 03/01 Q1020 NOSIG",
      "taf": "TAF EYVI 212300Z 2200/2224 VRB04KT 8000 SCT010 BKN015"
    },
    {
      "icao": "GCLP",
      "alert": "OK",
      "vis_m": 9999,
      "fzfg": false,
      "metar_trigger": false,
      "taf_trigger": false,
      "metar": "METAR GCLP 220430Z 36010G20KT 330V030 9999 FEW025 BKN045 17/12 Q1019 NOSIG",
      "taf": "TAF GCLP 220200Z 2203/2303 01014KT 9999 SCT030 BKN035 TX20/2214Z TN15/2206Z"
    },
    {
      "icao": "GCTS",
      "alert": "OK",
      "vis_m": 9999,
      "fzfg": false,
      "metar_trigger": false,
      "taf_trigger": false,
      "metar": "METAR GCTS 220430Z 35008KT 9999 FEW030 16/09 Q1019 NOSIG",
      "taf": "TAF GCTS 220200Z 2203/2303 VRB05KT 9999 SCT035 TX24/2214Z TN16/2206Z"
    },
    {
      "icao": "HECA",
      "alert": "OK",
      "vis_m": 6000,
      "fzfg": false,
      "metar_trigger": false,
      "taf_trigger": false,
      "metar": "METAR HECA 220430Z 15009KT 6000 NSC 13/01 Q1013 NOSIG",
      "taf": ""
    },
    {
      "icao": "HEGN",
      "alert": "OK",
      "vis_m": 9999,
      "fzfg": false,
      "metar_trigger": false,
      "taf_trigger": false,
      "metar": "METAR HEGN 220400Z 29004KT CAVOK 14/08 Q1014 NOSIG",
      "taf": ""
    },
    {
      "icao": "HESH",
      "alert": "OK",
      "vis_m": 9999,
      "fzfg": false,
      "metar_trigger": false,
      "taf_trigger": false,
      "metar": "METAR HESH 220400Z 28006KT CAVOK 18/12 Q1014 NOSIG",
      "taf": ""
    },
    {
      "icao": "HESX",
      "alert": "OK",
      "vis_m": 9999,
      "fzfg": false,
      "metar_trigger": false,
      "taf_trigger": false,
      "metar": "METAR HESX 220400Z 20006KT CAVOK 11/02 Q1012 NOSIG",
      "taf": ""
    },
    {
      "icao": "LATI",
      "alert": "OK",
      "vis_m": 9999,
      "fzfg": false,
      "metar_trigger": false,
      "taf_trigger": false,
      "metar": "METAR LATI 220450Z 15002KT CAVOK 01/M01 Q1014 NOSIG",
      "taf": "TAF LATI 212300Z 2200/2224 VRB05KT 7000 NSC TX17/2212Z TNM00/2205Z"
    },
    {
      "icao": "LBSF",
      "alert": "OK",
      "vis_m": 5000,
      "fzfg": false,
      "metar_trigger": false,
      "taf_trigger": false,
      "metar": "METAR LBSF 220430Z 00000KT 5000 BR FEW007 BKN026 M01/M02 Q1019 TEMPO 1500 BR",
      "taf": "TAF LBSF 212300Z 2200/2224 VRB04KT 3000 BR BKN015"
    },
    {
      "icao": "LBWN",
      "alert": "OK",
      "vis_m": 9999,
      "fzfg": false,
      "metar_trigger": false,
      "taf_trigger": false,
      "metar": "METAR LBWN 220430Z AUTO 36008KT 9999 OVC016/// 05/05 Q1020 NOSIG",
      "taf": "TAF LBWN 212300Z 2200/2224 35008KT 9999 BKN020 OVC030"
    },
    {
      "icao": "LCLK",
      "alert": "OK",
      "vis_m": 9999,
      "fzfg": false,
      "metar_trigger": false,
      "taf_trigger": false,
      "metar": "METAR LCLK 220430Z 06018KT 9999 FEW018 SCT050 17/14 Q1014 NOSIG",
      "taf": "TAF LCLK 212330Z 2200/2300 34007KT 9999 FEW020"
    },
    {
      "icao": "LDDU",
      "alert": "OK",
      "vis_m": 9999,
      "fzfg": false,
      "metar_trigger": false,
      "taf_trigger": false,
      "metar": "METAR LDDU 220430Z 07008KT CAVOK 09/02 Q1014 NOSIG",
      "taf": "TAF LDDU 212325Z 2200/2224 VRB02KT CAVOK TX15/2211Z TN08/2200Z"
    },
    {
      "icao": "LDSP",
      "alert": "OK",
      "vis_m": 9999,
      "fzfg": false,
      "metar_trigger": false,
      "taf_trigger": false,
      "metar": "METAR LDSP 220430Z AUTO VRB02KT CAVOK 05/03 Q1014 NOSIG",
      "taf": "TAF LDSP 212325Z 2200/2224 34004KT CAVOK TX16/2212Z TN07/2205Z"
    },
    {
      "icao": "LDZA",
      "alert": "OK",
      "vis_m": 4000,
      "fzfg": false,
      "metar_trigger": false,
      "taf_trigger": false,
      "metar": "METAR LDZA 220430Z VRB02KT 4000 BR SCT003 OVC020 04/03 Q1019 NOSIG",
      "taf": "TAF LDZA 212325Z 2200/2224 VRB02KT 7000 OVC015 TX06/2213Z TN03/2204Z"
    },
    {
      "icao": "LEAL",
      "alert": "OK",
      "vis_m": 9999,
      "fzfg": false,
      "metar_trigger": false,
      "taf_trigger": false,
      "metar": "METAR LEAL 220430Z VRB05KT CAVOK 10/02 Q1005 NOSIG",
      "taf": "TAF LEAL 212300Z 2200/2224 28008KT 9999 FEW020 TX13/2213Z TN07/2207Z"
    },
    {
      "icao": "LEBL",
      "alert": "OK",
      "vis_m": 9999,
      "fzfg": false,
      "metar_trigger": false,
      "taf_trigger": false,
      "metar": "METAR LEBL 220430Z 31013KT 9999 RA FEW034 BKN035 08/05 Q1003 NOSIG",
      "taf": "TAF LEBL 212300Z 2200/2224 32012KT 9999 SCT040 TX12/2213Z TN07/2224Z"
    },
    {
      "icao": "LECH",
      "alert": "OK",
      "vis_m": 9999,
      "fzfg": false,
      "metar_trigger": false,
      "taf_trigger": false,
      "metar": "METAR LECH 220430Z AUTO 23002KT CAVOK 06/03 Q1004",
      "taf": ""
    },
    {
      "icao": "LEMD",
      "alert": "OK",
      "vis_m": 9999,
      "fzfg": false,
      "metar_trigger": false,
      "taf_trigger": false,
      "metar": "METAR LEMD 220430Z 09003KT 050V130 9999 FEW050 M01/M01 Q1006 NOSIG",
      "taf": "TAF LEMD 212300Z 2200/2306 VRB04KT 9999 SCT020 TX07/2215Z TNM01/2207Z"
    },
    {
      "icao": "LEMG",
      "alert": "OK",
      "vis_m": 9999,
      "fzfg": false,
      "metar_trigger": false,
      "taf_trigger": false,
      "metar": "METAR LEMG 220430Z 31008KT 9999 FEW030 06/03 Q1010 NOSIG",
      "taf": "TAF LEMG 212300Z 2200/2224 30008KT 9999 FEW012 SCT060 TX14/2214Z TN07/2206Z"
    },
    {
      "icao": "LERS",
      "alert": "OK",
      "vis_m": 9999,
      "fzfg": false,
      "metar_trigger": false,
      "taf_trigger": false,
      "metar": "METAR LERS 220430Z AUTO 04006KT 010V070 9999 SCT050 07/05 Q1003",
      "taf": "TAF LERS 220200Z 2203/2303 VRB04KT 9999 FEW020 TX12/2213Z TN06/2206Z"
    },
    {
      "icao": "LEVC",
      "alert": "OK",
      "vis_m": 9999,
      "fzfg": false,
      "metar_trigger": false,
      "taf_trigger": false,
      "metar": "METAR LEVC 220430Z 29005KT CAVOK 06/00 Q1005 NOSIG",
      "taf": "TAF LEVC 212300Z 2200/2224 27008KT 9999 FEW025 TX12/2213Z TN05/2207Z"
    },
    {
      "icao": "LFLL",
      "alert": "OK",
      "vis_m": 5000,
      "fzfg": false,
      "metar_trigger": false,
      "taf_trigger": false,
      "metar": "METAR LFLL 220430Z 12006KT 5000 -RA BR NSC 07/07 Q1005 NOSIG",
      "taf": "TAF LFLL 212300Z 2200/2306 14005KT CAVOK"
    },
    {
      "icao": "LFMN",
      "alert": "OK",
      "vis_m": 9999,
      "fzfg": false,
      "metar_trigger": false,
      "taf_trigger": false,
      "metar": "METAR LFMN 220430Z 03009KT 360V070 9999 -RA BKN043 12/07 Q1008 NOSIG",
      "taf": "TAF LFMN 220200Z 2203/2309 08015KT 9999 BKN040"
    },
    {
      "icao": "LFOB",
      "alert": "OK",
      "vis_m": 9999,
      "fzfg": false,
      "metar_trigger": false,
      "taf_trigger": false,
      "metar": "METAR LFOB 220430Z AUTO 09004KT CAVOK 07/07 Q1005 TEMPO 4000 BR",
      "taf": "TAF LFOB 212300Z 2200/2224 11012KT CAVOK"
    },
    {
      "icao": "LFPO",
      "alert": "OK",
      "vis_m": 9999,
      "fzfg": false,
      "metar_trigger": false,
      "taf_trigger": false,
      "metar": "METAR LFPO 220430Z AUTO VRB03KT CAVOK 08/07 Q1005 NOSIG",
      "taf": "TAF LFPO 212300Z 2200/2306 10007KT CAVOK"
    },
    {
      "icao": "LFSB",
      "alert": "OK",
      "vis_m": 9999,
      "fzfg": false,
      "metar_trigger": false,
      "taf_trigger": false,
      "metar": "METAR LFSB 220430Z AUTO VRB01KT CAVOK 02/M00 Q1008 BECMG 4000 BR BKN003",
      "taf": "TAF LFSB 212300Z 2200/2224 09005KT CAVOK"
    },
    {
      "icao": "LGAV",
      "alert": "OK",
      "vis_m": 9999,
      "fzfg": false,
      "metar_trigger": false,
      "taf_trigger": false,
      "metar": "METAR LGAV 220420Z 36011KT 9999 SCT035 13/08 Q1015 NOSIG",
      "taf": "TAF LGAV 212300Z 2200/2224 34010KT 9999 SCT035"
    },
    {
      "icao": "LGIR",
      "alert": "OK",
      "vis_m": 9999,
      "fzfg": false,
      "metar_trigger": false,
      "taf_trigger": false,
      "metar": "METAR LGIR 220420Z 18006KT 9999 FEW020 10/09 Q1013 NOSIG",
      "taf": "TAF LGIR 212300Z 2200/2224 18010KT 9999 SCT020 SCT080"
    },
    {
      "icao": "LGKR",
      "alert": "OK",
      "vis_m": 9999,
      "fzfg": false,
      "metar_trigger": false,
      "taf_trigger": false,
      "metar": "METAR LGKR 220420Z 00000KT 9999 -RA FEW016 SCT080 09/08 Q1013 NOSIG",
      "taf": "TAF LGKR 212300Z 2200/2224 10010KT 9999 FEW010 SCT020"
    },
    {
      "icao": "LGRP",
      "alert": "OK",
      "vis_m": 7000,
      "fzfg": false,
      "metar_trigger": false,
      "taf_trigger": false,
      "metar": "METAR LGRP 220420Z 22004KT 170V250 7000 RA FEW012 FEW018TCU BKN020 16/13 Q1012 NOSIG",
      "taf": "TAF LGRP 212300Z 2200/2224 12012KT 9999 FEW012 BKN020"
    },
    {
      "icao": "LGTS",
      "alert": "OK",
      "vis_m": 8000,
      "fzfg": false,
      "metar_trigger": false,
      "taf_trigger": false,
      "metar": "METAR LGTS 220420Z 11003KT 8000 FEW008 07/07 Q1018 NOSIG",
      "taf": "TAF LGTS 212300Z 2200/2224 VRB03KT 9999 FEW025"
    },
    {
      "icao": "LGZA",
      "alert": "OK",
      "vis_m": null,
      "fzfg": false,
      "metar_trigger": false,
      "taf_trigger": false,
      "metar": "",
      "taf": "TAF LGZA 220200Z 2203/2212 08010KT 9999 FEW020 BKN080"
    },
    {
      "icao": "LHBP",
      "alert": "OK",
      "vis_m": 7000,
      "fzfg": false,
      "metar_trigger": false,
      "taf_trigger": false,
      "metar": "METAR LHBP 220430Z 07001KT 7000 -DZ OVC002 04/03 Q1020 NOSIG",
      "taf": "TAF LHBP 212315Z 2200/2224 11005KT 7000 OVC010"
    },
    {
      "icao": "LHDC",
      "alert": "OK",
      "vis_m": 5000,
      "fzfg": false,
      "metar_trigger": false,
      "taf_trigger": false,
      "metar": "METAR LHDC 220415Z AUTO VRB02KT 5000 BR OVC019 05/04 Q1020 NOSIG",
      "taf": "TAF LHDC 220215Z 2203/2212 VRB03KT 5000 BR BKN017"
    },
    {
      "icao": "LIBD",
      "alert": "OK",
      "vis_m": 9999,
      "fzfg": false,
      "metar_trigger": false,
      "taf_trigger": false,
      "metar": "METAR LIBD 220420Z 20005KT CAVOK 08/07 Q1013",
      "taf": "TAF LIBD 212300Z 2200/2224 VRB05KT 9999 FEW030"
    },
    {
      "icao": "LICC",
      "alert": "OK",
      "vis_m": 8000,
      "fzfg": false,
      "metar_trigger": false,
      "taf_trigger": false,
      "metar": "METAR LICC 220420Z 27008KT 8000 -RA SCT020 BKN050 12/11 Q1010",
      "taf": "TAF LICC 212300Z 2200/2224 VRB06KT 8000 RA BKN012"
    },
    {
      "icao": "LICJ",
      "alert": "OK",
      "vis_m": 9999,
      "fzfg": false,
      "metar_trigger": false,
      "taf_trigger": false,
      "metar": "METAR LICJ 220420Z VRB02KT CAVOK 15/11 Q1009",
      "taf": "TAF LICJ 212300Z 2200/2224 VRB05KT 9999 FEW040"
    },
    {
      "icao": "LIEO",
      "alert": "OK",
      "vis_m": 9999,
      "fzfg": false,
      "metar_trigger": false,
      "taf_trigger": false,
      "metar": "METAR LIEO 220420Z 25003KT 9999 SCT050 11/11 Q1008",
      "taf": "TAF LIEO 212300Z 2200/2224 VRB05KT 7000 BKN016"
    },
    {
      "icao": "LIMC",
      "alert": "OK",
      "vis_m": 9999,
      "fzfg": false,
      "metar_trigger": false,
      "taf_trigger": false,
      "metar": "METAR LIMC 220420Z 08002KT 9999 BKN040 08/06 Q1014 NOSIG",
      "taf": "TAF LIMC 212300Z 2200/2306 VRB03KT 9999 BKN035"
    },
    {
      "icao": "LIME",
      "alert": "OK",
      "vis_m": 9999,
      "fzfg": false,
      "metar_trigger": false,
      "taf_trigger": false,
      "metar": "METAR LIME 220420Z 01001KT 9999 BKN050 05/03 Q1014 NOSIG",
      "taf": "TAF LIME 212300Z 2200/2224 VRB03KT 8000 BKN035"
    },
    {
      "icao": "LIPH",
      "alert": "OK",
      "vis_m": 9999,
      "fzfg": false,
      "metar_trigger": false,
      "taf_trigger": false,
      "metar": "METAR LIPH 220420Z AUTO 01005KT 9999 NCD 05/02 Q1015",
      "taf": "TAF LIPH 212300Z 2200/2224 VRB04KT 9999 FEW030"
    },
    {
      "icao": "LIPQ",
      "alert": "OK",
      "vis_m": 9999,
      "fzfg": false,
      "metar_trigger": false,
      "taf_trigger": false,
      "metar": "METAR LIPQ 220420Z AUTO 00000KT 9999 NCD 02/01 Q1015",
      "taf": "TAF LIPQ 212300Z 2200/2224 07007KT CAVOK"
    },
    {
      "icao": "LIPX",
      "alert": "OK",
      "vis_m": 9999,
      "fzfg": false,
      "metar_trigger": false,
      "taf_trigger": false,
      "metar": "METAR LIPX 220420Z 33003KT 9999 FEW050 03/02 Q1015",
      "taf": "TAF LIPX 212300Z 2200/2224 VRB03KT 9999 BKN040"
    },
    {
      "icao": "LIPY",
      "alert": "OK",
      "vis_m": 3500,
      "fzfg": false,
      "metar_trigger": false,
      "taf_trigger": false,
      "metar": "METAR LIPY 220420Z AUTO 19003KT 3500 BR OVC006/// 09/09 Q1013",
      "taf": "TAF LIPY 212300Z 2200/2224 VRB05KT 3000 BR BKN010"
    },
    {
      "icao": "LIPZ",
      "alert": "OK",
      "vis_m": 9999,
      "fzfg": false,
      "metar_trigger": false,
      "taf_trigger": false,
      "metar": "METAR LIPZ 220420Z 03007KT CAVOK 04/02 Q1015 NOSIG",
      "taf": "TAF LIPZ 212300Z 2200/2306 03005KT 9999 FEW030"
    },
    {
      "icao": "LIRA",
      "alert": "OK",
      "vis_m": 9999,
      "fzfg": false,
      "metar_trigger": false,
      "taf_trigger": false,
      "metar": "METAR LIRA 220420Z 03005KT CAVOK 11/06 Q1010",
      "taf": "TAF LIRA 212300Z 2200/2224 05005KT 9999 FEW045"
    },
    {
      "icao": "LIRN",
      "alert": "OK",
      "vis_m": 9999,
      "fzfg": false,
      "metar_trigger": false,
      "taf_trigger": false,
      "metar": "METAR LIRN 220420Z 01004KT 9999 FEW070 12/08 Q1011 NOSIG",
      "taf": "TAF LIRN 212300Z 2200/2224 05005KT 9999 SCT060"
    },
    {
      "icao": "LLBG",
      "alert": "OK",
      "vis_m": 9999,
      "fzfg": false,
      "metar_trigger": false,
      "taf_trigger": false,
      "metar": "METAR LLBG 220450Z VRB01KT CAVOK 10/05 Q1014 NOSIG",
      "taf": "TAF LLBG 212304Z 2200/2224 VRB03KT CAVOK"
    },
    {
      "icao": "LMML",
      "alert": "OK",
      "vis_m": 9999,
      "fzfg": false,
      "metar_trigger": false,
      "taf_trigger": false,
      "metar": "METAR LMML 220445Z 32003KT 9999 FEW016 11/10 Q1009 NOSIG",
      "taf": "TAF LMML 212300Z 2200/2224 VRB05KT 9999 SCT020"
    },
    {
      "icao": "LOWW",
      "alert": "OK",
      "vis_m": 9999,
      "fzfg": false,
      "metar_trigger": false,
      "taf_trigger": false,
      "metar": "METAR LOWW 220420Z 14014KT 9999 FEW005 BKN006 03/01 Q1017 NOSIG",
      "taf": "TAF LOWW 220215Z 2203/2309 14013KT 6000 OVC003 TX04/2220Z TN02/2203Z"
    },
    {
      "icao": "LPFR",
      "alert": "OK",
      "vis_m": 9999,
      "fzfg": false,
      "metar_trigger": false,
      "taf_trigger": false,
      "metar": "METAR LPFR 220430Z 03006KT 9999 FEW030 06/04 Q1013",
      "taf": "TAF LPFR 212300Z 2200/2224 31005KT 9999 FEW015"
    },
    {
      "icao": "LPPR",
      "alert": "OK",
      "vis_m": 4000,
      "fzfg": false,
      "metar_trigger": false,
      "taf_trigger": false,
      "metar": "METAR LPPR 220430Z 06005KT 010V110 4000 SHRA SCT016 BKN023 BKN029 06/06 Q1009",
      "taf": "TAF LPPR 212300Z 2200/2224 17005KT 9999 FEW015 SCT030"
    },
    {
      "icao": "LPPT",
      "alert": "OK",
      "vis_m": 9999,
      "fzfg": false,
      "metar_trigger": false,
      "taf_trigger": false,
      "metar": "METAR LPPT 220430Z 24006KT 9999 -SHRA FEW016 SCT030 BKN045 08/06 Q1011",
      "taf": "TAF LPPT 212300Z 2200/2306 29007KT 9999 SCT030"
    },
    {
      "icao": "LQSA",
      "alert": "OK",
      "vis_m": 9999,
      "fzfg": false,
      "metar_trigger": false,
      "taf_trigger": false,
      "metar": "METAR LQSA 220430Z 12004KT 9999 OVC013 01/M01 Q1018 NOSIG",
      "taf": "TAF LQSA 212300Z 2200/2224 VRB02KT 8000 BKN012 OVC020 TX03/2213Z TNM02/2205Z"
    },
    {
      "icao": "LQTZ",
      "alert": "OK",
      "vis_m": 7000,
      "fzfg": false,
      "metar_trigger": false,
      "taf_trigger": false,
      "metar": "METAR LQTZ 220430Z 10002KT 7000 BKN018 04/04 Q1018",
      "taf": "TAF LQTZ 212300Z 2200/2224 VRB02KT 6000 OVC015 TX05/2213Z TN02/2205Z"
    },
    {
      "icao": "LRCL",
      "alert": "OK",
      "vis_m": 7000,
      "fzfg": false,
      "metar_trigger": false,
      "taf_trigger": false,
      "metar": "METAR LRCL 220430Z 10005KT 050V140 7000 BKN006 03/02 Q1020",
      "taf": "TAF LRCL 220200Z 2203/2212 VRB04KT 5000 BR OVC010"
    },
    {
      "icao": "LRCV",
      "alert": "OK",
      "vis_m": 3000,
      "fzfg": false,
      "metar_trigger": false,
      "taf_trigger": false,
      "metar": "METAR LRCV 220430Z VRB01KT 3000 BR OVC005 04/03 Q1021",
      "taf": "TAF LRCV 220200Z 2203/2212 VRB04KT 3000 BR OVC005"
    },
    {
      "icao": "LRIA",
      "alert": "OK",
      "vis_m": 5000,
      "fzfg": false,
      "metar_trigger": false,
      "taf_trigger": false,
      "metar": "METAR LRIA 220430Z 28002KT 5000 BR OVC004 02/02 Q1022",
      "taf": ""
    },
    {
      "icao": "LROP",
      "alert": "OK",
      "vis_m": 4000,
      "fzfg": false,
      "metar_trigger": false,
      "taf_trigger": false,
      "metar": "METAR LROP 220430Z 07006KT 4000 -DZ BR OVC002 02/02 Q1022 TEMPO 1500 BR OVC001",
      "taf": ""
    },
    {
      "icao": "LRSB",
      "alert": "OK",
      "vis_m": 350,
      "fzfg": true,
      "metar_trigger": false,
      "taf_trigger": false,
      "metar": "METAR LRSB 220430Z 00000KT 0350 R27/1200D FZFG OVC002 M02/M02 Q1020 NOSIG",
      "taf": "TAF LRSB 212300Z 2200/2224 VRB04KT 0300 FZFG VV001"
    },
    {
      "icao": "LRTR",
      "alert": "OK",
      "vis_m": 3000,
      "fzfg": false,
      "metar_trigger": false,
      "taf_trigger": false,
      "metar": "METAR LRTR 220430Z 01002KT 3000 -DZ BR OVC002 03/03 Q1020 TEMPO 1500 DZ BR OVC001",
      "taf": "TAF LRTR 212300Z 2200/2224 VRB04KT 5000 BR OVC003"
    },
    {
      "icao": "LTAF",
      "alert": "OK",
      "vis_m": 9999,
      "fzfg": false,
      "metar_trigger": false,
      "taf_trigger": false,
      "metar": "METAR LTAF 220420Z 04007KT CAVOK 10/00 Q1017 NOSIG RMK RWY23 04006KT 4AC100",
      "taf": "TAF LTAF 212240Z 2200/2224 03009KT CAVOK"
    },
    {
      "icao": "LTAI",
      "alert": "OK",
      "vis_m": 9999,
      "fzfg": false,
      "metar_trigger": false,
      "taf_trigger": false,
      "metar": "METAR LTAI 220420Z 33005KT 9999 BKN030 BKN080 12/09 Q1015 NOSIG RMK RWY18C 32004KT RWY36R 33005KT RWY18L 33003KT",
      "taf": "TAF LTAI 212240Z 2200/2224 34009KT 9999 SCT030 BKN100"
    },
    {
      "icao": "LTFM",
      "alert": "OK",
      "vis_m": 9999,
      "fzfg": false,
      "metar_trigger": false,
      "taf_trigger": false,
      "metar": "METAR LTFM 220420Z 03011KT 9999 BKN012 BKN022 12/09 Q1017 NOSIG RMK RWY17L 04010KT RWY34L 02011KT RWY16R 03011KT RWY36 03013KT RWY18 04011KT",
      "taf": "TAF LTFM 212240Z 2200/2306 05008KT 9999 -SHRA BKN012 BKN022"
    },
    {
      "icao": "LUBL",
      "alert": "OK",
      "vis_m": null,
      "fzfg": false,
      "metar_trigger": false,
      "taf_trigger": false,
      "metar": "",
      "taf": ""
    },
    {
      "icao": "LUKK",
      "alert": "OK",
      "vis_m": 9999,
      "fzfg": false,
      "metar_trigger": false,
      "taf_trigger": false,
      "metar": "METAR LUKK 220430Z 32005KT 9999 -DZ OVC006 02/01 Q1021 NOSIG",
      "taf": "TAF LUKK 212326Z 2200/2224 34004KT 4000 BR OVC003"
    },
    {
      "icao": "LWSK",
      "alert": "OK",
      "vis_m": 5000,
      "fzfg": false,
      "metar_trigger": false,
      "taf_trigger": false,
      "metar": "METAR LWSK 220420Z VRB02KT 5000 BR VV003 02/01 Q1020 NOSIG",
      "taf": "TAF LWSK 220225Z 2203/2303 VRB02KT 1500 BR OVC003"
    },
    {
      "icao": "LYBE",
      "alert": "OK",
      "vis_m": 9999,
      "fzfg": false,
      "metar_trigger": false,
      "taf_trigger": false,
      "metar": "METAR LYBE 220430Z 09007KT 9999 BKN010 OVC020 04/03 Q1020 NOSIG",
      "taf": "TAF LYBE 212300Z 2200/2224 08004KT 5000 BR OVC010 TX08/2213Z TN03/2206Z"
    },
    {
      "icao": "LZIB",
      "alert": "OK",
      "vis_m": 8000,
      "fzfg": false,
      "metar_trigger": false,
      "taf_trigger": false,
      "metar": "METAR LZIB 220430Z 11010KT 8000 -DZ BKN004 OVC009 03/02 Q1019 TEMPO BKN006 OVC0011",
      "taf": ""
    },
    {
      "icao": "LZKZ",
      "alert": "OK",
      "vis_m": 6000,
      "fzfg": false,
      "metar_trigger": false,
      "taf_trigger": false,
      "metar": "METAR LZKZ 220430Z 25001KT 6000 BKN012 04/04 Q1020 NOSIG",
      "taf": "TAF LZKZ 212315Z 2200/2300 VRB02KT 7000 SCT011"
    },
    {
      "icao": "LZTT",
      "alert": "OK",
      "vis_m": 1100,
      "fzfg": false,
      "metar_trigger": false,
      "taf_trigger": false,
      "metar": "METAR LZTT 220430Z VRB02KT 1100 R27/P2000N BR OVC002 01/00 Q1018",
      "taf": "TAF LZTT 212315Z 2200/2300 VRB02KT 9999 FEW003 BKN010"
    },
    {
      "icao": "OEJN",
      "alert": "OK",
      "vis_m": 9999,
      "fzfg": false,
      "metar_trigger": false,
      "taf_trigger": false,
      "metar": "METAR OEJN 220400Z 04002KT 9999 FEW040 22/18 Q1012 NOSIG",
      "taf": "TAF OEJN 212300Z 2200/2306 VRB03KT CAVOK"
    },
    {
      "icao": "OEMA",
      "alert": "OK",
      "vis_m": 9999,
      "fzfg": false,
      "metar_trigger": false,
      "taf_trigger": false,
      "metar": "METAR OEMA 220400Z 35004KT CAVOK 11/M02 Q1019 NOSIG",
      "taf": "TAF OEMA 212300Z 2200/2306 VRB03KT CAVOK"
    },
    {
      "icao": "OERK",
      "alert": "OK",
      "vis_m": 9999,
      "fzfg": false,
      "metar_trigger": false,
      "taf_trigger": false,
      "metar": "METAR OERK 220400Z 12003KT CAVOK 06/04 Q1023 NOSIG",
      "taf": "TAF OERK 212300Z 2200/2306 VRB03KT 8000 NSC"
    },
    {
      "icao": "OJAI",
      "alert": "OK",
      "vis_m": 5000,
      "fzfg": false,
      "metar_trigger": false,
      "taf_trigger": false,
      "metar": "METAR OJAI 220400Z 04005KT 5000 HZ NSC 05/M00 Q1017 NOSIG",
      "taf": "TAF OJAI 212300Z 2200/2306 12010KT 5000 HZ NSC"
    },
    {
      "icao": "OKBK",
      "alert": "OK",
      "vis_m": null,
      "fzfg": false,
      "metar_trigger": false,
      "taf_trigger": false,
      "metar": "",
      "taf": ""
    },
    {
      "icao": "OMAA",
      "alert": "OK",
      "vis_m": 9999,
      "fzfg": false,
      "metar_trigger": false,
      "taf_trigger": false,
      "metar": "METAR OMAA 220400Z 06007KT CAVOK 16/10 Q1020 NOSIG",
      "taf": "TAF OMAA 212300Z 2200/2306 06007KT 8000 NSC"
    },
    {
      "icao": "UAAA",
      "alert": "OK",
      "vis_m": 400,
      "fzfg": true,
      "metar_trigger": false,
      "taf_trigger": false,
      "metar": "METAR UAAA 220430Z VRB01MPS 0400 R23L/0500 FZFG SCT004 BKN200 M06/M07 Q1031 NOSIG RMK QBB130",
      "taf": "TAF UAAA 212302Z 2200/2224 02002MPS 0600 FZFG VV003 TXM00/2207Z TNM05/2201Z"
    },
    {
      "icao": "UCFM",
      "alert": "OK",
      "vis_m": 250,
      "fzfg": true,
      "metar_trigger": false,
      "taf_trigger": false,
      "metar": "METAR UCFM 220430Z 11002MPS 0250 0150E R07/0700D FZFG VV002 M04/M04 Q1029 NOSIG",
      "taf": "TAF UCFM 212240Z 2200/2224 10003MPS 0300 FZFG VV001"
    },
    {
      "icao": "UDYZ",
      "alert": "OK",
      "vis_m": 2800,
      "fzfg": false,
      "metar_trigger": false,
      "taf_trigger": false,
      "metar": "METAR UDYZ 220430Z 00000KT 2800 BR FEW046 M03/M05 Q1023 NOSIG",
      "taf": "TAF UDYZ 212300Z 2200/2224 VRB04KT 3000 BR FEW040"
    },
    {
      "icao": "UGTB",
      "alert": "OK",
      "vis_m": 9999,
      "fzfg": false,
      "metar_trigger": false,
      "taf_trigger": false,
      "metar": "METAR UGTB 220430Z 30013KT CAVOK 02/M02 Q1019 NOSIG",
      "taf": "TAF UGTB 212300Z 2200/2224 VRB02KT 7000 OVC022 TX09/2212Z TNM00/2203Z"
    },
    {
      "icao": "UKKK",
      "alert": "OK",
      "vis_m": null,
      "fzfg": false,
      "metar_trigger": false,
      "taf_trigger": false,
      "metar": "",
      "taf": ""
    },
    {
      "icao": "UTTT",
      "alert": "OK",
      "vis_m": null,
      "fzfg": false,
      "metar_trigger": false,
      "taf_trigger": false,
      "metar": "",
      "taf": ""
    }
  ]
}