{
  "ts_utc": "2026-03-17T07:32:31Z",
  "threshold_m": 150,
  "source": "stations_override.txt (ICAO list) + aviationweather.gov (METAR/TAF raw)",
  "station_count": 159,
  "stations": [
    {
      "icao": "BIKF",
      "alert": "OK",
      "vis_m": 9999,
      "fzfg": false,
      "metar_trigger": false,
      "taf_trigger": false,
      "metar": "METAR BIKF 170700Z 03020KT 9999 FEW020 BKN230 02/M02 Q0977",
      "taf": "TAF BIKF 170434Z 1706/1806 02023G36KT 9999 FEW035 TX02/1714Z TN00/1803Z"
    },
    {
      "icao": "BKPR",
      "alert": "OK",
      "vis_m": 9999,
      "fzfg": false,
      "metar_trigger": false,
      "taf_trigger": false,
      "metar": "METAR BKPR 170730Z 36002KT 9999 BKN025 06/02 Q1016 NOSIG",
      "taf": "TAF BKPR 170530Z 1706/1806 05008KT 9999 FEW040 BKN070"
    },
    {
      "icao": "EBCI",
      "alert": "OK",
      "vis_m": 9999,
      "fzfg": false,
      "metar_trigger": false,
      "taf_trigger": false,
      "metar": "METAR EBCI 170720Z 18006KT 9999 BKN028 09/06 Q1020 NOSIG",
      "taf": "TAF EBCI 170510Z 1706/1812 19007KT 9999 FEW020 SCT040"
    },
    {
      "icao": "EDDB",
      "alert": "OK",
      "vis_m": 9999,
      "fzfg": false,
      "metar_trigger": false,
      "taf_trigger": false,
      "metar": "METAR EDDB 170720Z AUTO 17003KT 140V230 9999 BKN037 02/01 Q1023",
      "taf": "TAF EDDB 170500Z 1706/1806 19004KT 9999 FEW045"
    },
    {
      "icao": "EDDH",
      "alert": "OK",
      "vis_m": 9999,
      "fzfg": false,
      "metar_trigger": false,
      "taf_trigger": false,
      "metar": "METAR EDDH 170720Z AUTO 15004KT CAVOK 03/01 Q1021 NOSIG",
      "taf": "TAF EDDH 170500Z 1706/1812 15004KT CAVOK"
    },
    {
      "icao": "EDDK",
      "alert": "OK",
      "vis_m": 9999,
      "fzfg": false,
      "metar_trigger": false,
      "taf_trigger": false,
      "metar": "METAR EDDK 170720Z AUTO 13006KT 9999 SCT018 OVC025 07/06 Q1021 NOSIG",
      "taf": "TAF EDDK 170500Z 1706/1812 12005KT 9999 BKN020"
    },
    {
      "icao": "EDDN",
      "alert": "OK",
      "vis_m": 9999,
      "fzfg": false,
      "metar_trigger": false,
      "taf_trigger": false,
      "metar": "METAR EDDN 170720Z AUTO 10007KT 9999 SCT014 02/01 Q1023 TEMPO BKN014",
      "taf": "TAF EDDN 170500Z 1706/1806 10006KT 9000 SCT040"
    },
    {
      "icao": "EDDS",
      "alert": "OK",
      "vis_m": 9999,
      "fzfg": false,
      "metar_trigger": false,
      "taf_trigger": false,
      "metar": "METAR EDDS 170720Z AUTO VRB02KT 9999 BKN017 OVC026 06/04 Q1021 NOSIG",
      "taf": "TAF EDDS 170500Z 1706/1806 15004KT 9999 BKN030"
    },
    {
      "icao": "EDFH",
      "alert": "OK",
      "vis_m": 6000,
      "fzfg": false,
      "metar_trigger": false,
      "taf_trigger": false,
      "metar": "METAR EDFH 170720Z 16003KT 6000 -DZ OVC005 05/05 Q1021",
      "taf": "TAF EDFH 170500Z 1706/1806 19005KT 9999 SCT007 BKN015"
    },
    {
      "icao": "EDJA",
      "alert": "OK",
      "vis_m": 9999,
      "fzfg": false,
      "metar_trigger": false,
      "taf_trigger": false,
      "metar": "METAR EDJA 170720Z 20004KT 9999 BKN045 OVC051 04/02 Q1021",
      "taf": "TAF EDJA 170500Z 1706/1715 20005KT 9999 BKN030"
    },
    {
      "icao": "EDLW",
      "alert": "OK",
      "vis_m": 9999,
      "fzfg": false,
      "metar_trigger": false,
      "taf_trigger": false,
      "metar": "METAR EDLW 170720Z 17007KT 9999 R24///// -RA FEW033 BKN047 07/05 Q1020",
      "taf": "TAF EDLW 170500Z 1706/1806 18008KT 9999 BKN025"
    },
    {
      "icao": "EDNY",
      "alert": "OK",
      "vis_m": 9999,
      "fzfg": false,
      "metar_trigger": false,
      "taf_trigger": false,
      "metar": "METAR EDNY 170720Z VRB02KT CAVOK 05/03 Q1022",
      "taf": "TAF EDNY 170500Z 1706/1715 VRB02KT 9999 BKN035"
    },
    {
      "icao": "EDSB",
      "alert": "OK",
      "vis_m": 9999,
      "fzfg": false,
      "metar_trigger": false,
      "taf_trigger": false,
      "metar": "METAR EDSB 170720Z VRB01KT 9999 FEW027 SCT048 07/06 Q1022",
      "taf": "TAF EDSB 170500Z 1706/1806 19004KT 9999 BKN030"
    },
    {
      "icao": "EETN",
      "alert": "OK",
      "vis_m": 2300,
      "fzfg": false,
      "metar_trigger": false,
      "taf_trigger": false,
      "metar": "METAR EETN 170720Z 18004KT 2300 BR BKN001 BKN004 01/01 Q1020 TEMPO 0800 FG",
      "taf": "TAF EETN 170530Z 1706/1806 VRB02KT 0600 FG VV002"
    },
    {
      "icao": "EFTU",
      "alert": "OK",
      "vis_m": 2200,
      "fzfg": false,
      "metar_trigger": false,
      "taf_trigger": false,
      "metar": "METAR EFTU 170720Z AUTO 22005KT 190V250 2200 BR OVC001 02/02 Q1019",
      "taf": "TAF EFTU 170536Z 1706/1806 20009KT 4000 BR OVC002"
    },
    {
      "icao": "EGBB",
      "alert": "OK",
      "vis_m": 9999,
      "fzfg": false,
      "metar_trigger": false,
      "taf_trigger": false,
      "metar": "METAR EGBB 170720Z 20009KT 160V230 9999 BKN016 10/06 Q1012",
      "taf": "TAF EGBB 170457Z 1706/1806 20010KT 9999 OVC010"
    },
    {
      "icao": "EGGP",
      "alert": "OK",
      "vis_m": 9999,
      "fzfg": false,
      "metar_trigger": false,
      "taf_trigger": false,
      "metar": "METAR EGGP 170720Z 18010KT 9999 FEW025 10/06 Q1010",
      "taf": "TAF EGGP 170502Z 1706/1806 18013KT 9999 BKN020"
    },
    {
      "icao": "EGGW",
      "alert": "OK",
      "vis_m": 9999,
      "fzfg": false,
      "metar_trigger": false,
      "taf_trigger": false,
      "metar": "METAR EGGW 170720Z AUTO 21011KT 9999 OVC008 08/07 Q1015",
      "taf": ""
    },
    {
      "icao": "EGKK",
      "alert": "OK",
      "vis_m": 9000,
      "fzfg": false,
      "metar_trigger": false,
      "taf_trigger": false,
      "metar": "METAR EGKK 170720Z 20007KT 160V230 9000 BKN007 09/08 Q1016",
      "taf": ""
    },
    {
      "icao": "EGNM",
      "alert": "OK",
      "vis_m": 9999,
      "fzfg": false,
      "metar_trigger": false,
      "taf_trigger": false,
      "metar": "METAR EGNM 170720Z 20013KT 9999 SCT016 SCT022 09/06 Q1009",
      "taf": "TAF EGNM 170534Z 1706/1806 21010KT 9999 SCT025"
    },
    {
      "icao": "EGPD",
      "alert": "OK",
      "vis_m": 9999,
      "fzfg": false,
      "metar_trigger": false,
      "taf_trigger": false,
      "metar": "METAR EGPD 170720Z COR AUTO 20017KT 9999 OVC024 11/07 Q0999 NOSIG",
      "taf": "TAF EGPD 170456Z 1706/1806 18012KT 9999 SCT025"
    },
    {
      "icao": "EGPF",
      "alert": "OK",
      "vis_m": 9999,
      "fzfg": false,
      "metar_trigger": false,
      "taf_trigger": false,
      "metar": "METAR EGPF 170720Z AUTO 19018KT 9999 BKN033 11/08 Q1002",
      "taf": "TAF EGPF 170457Z 1706/1806 19015G25KT 9999 FEW020 BKN025"
    },
    {
      "icao": "EHBK",
      "alert": "OK",
      "vis_m": 4300,
      "fzfg": false,
      "metar_trigger": false,
      "taf_trigger": false,
      "metar": "METAR EHBK 170725Z AUTO 20009KT 160V230 4300 BR FEW004/// SCT007/// BKN008/// 08/07 Q1021 TEMPO 2500 -DZRA BECMG 9999 NSW BKN018",
      "taf": "TAF EHBK 170510Z 1706/1812 19006KT 9999 OVC017"
    },
    {
      "icao": "EHEH",
      "alert": "OK",
      "vis_m": 9000,
      "fzfg": false,
      "metar_trigger": false,
      "taf_trigger": false,
      "metar": "METAR EHEH 170725Z AUTO 19009KT 150V210 9000 BR OVC016 09/08 Q1019 WHT BECMG BKN025 RMK TREND REMOTE BY EHWX",
      "taf": "TAF EHEH 170528Z 1706/1812 18006KT 9999 BKN017 OVC020"
    },
    {
      "icao": "EKBI",
      "alert": "OK",
      "vis_m": 9999,
      "fzfg": false,
      "metar_trigger": false,
      "taf_trigger": false,
      "metar": "METAR EKBI 170720Z AUTO 16005KT 120V190 9999 OVC081/// 05/04 Q1018",
      "taf": ""
    },
    {
      "icao": "EKCH",
      "alert": "OK",
      "vis_m": 9999,
      "fzfg": false,
      "metar_trigger": false,
      "taf_trigger": false,
      "metar": "METAR EKCH 170720Z AUTO 18002KT 9999 NCD 03/03 Q1021 NOSIG",
      "taf": ""
    },
    {
      "icao": "ENAL",
      "alert": "OK",
      "vis_m": 9999,
      "fzfg": false,
      "metar_trigger": false,
      "taf_trigger": false,
      "metar": "METAR ENAL 170720Z 19010KT 9999 BKN047 09/01 Q1000",
      "taf": "TAF ENAL 170500Z 1706/1715 19015KT 9999 BKN050"
    },
    {
      "icao": "ENBR",
      "alert": "OK",
      "vis_m": 9999,
      "fzfg": false,
      "metar_trigger": false,
      "taf_trigger": false,
      "metar": "METAR ENBR 170720Z 14019KT 9999 VCSH FEW010 BKN018 05/03 Q1006 TEMPO 4000 -DZRA BR BKN012 RMK WIND 1200FT 14028KT",
      "taf": ""
    },
    {
      "icao": "ENGM",
      "alert": "OK",
      "vis_m": 9999,
      "fzfg": false,
      "metar_trigger": false,
      "taf_trigger": false,
      "metar": "METAR ENGM 170720Z 18008KT 9999 BKN005 00/M01 Q1014 NOSIG",
      "taf": "TAF ENGM 170500Z 1706/1806 18008KT 8000 SCT004 BKN007"
    },
    {
      "icao": "ENHD",
      "alert": "OK",
      "vis_m": 2500,
      "fzfg": false,
      "metar_trigger": false,
      "taf_trigger": false,
      "metar": "METAR ENHD 170720Z 15019G29KT 2500 DZRA FEW002 OVC005 06/05 Q1008",
      "taf": "TAF ENHD 170500Z 1706/1715 15018KT 7000 -RADZ OVC006"
    },
    {
      "icao": "ENTC",
      "alert": "OK",
      "vis_m": 9999,
      "fzfg": false,
      "metar_trigger": false,
      "taf_trigger": false,
      "metar": "METAR ENTC 170720Z 23008KT 9999 -RA FEW009 BKN017 01/M00 Q1004 NOSIG RMK WIND 2600FT 16008KT",
      "taf": "TAF ENTC 170500Z 1706/1806 20008KT 9999 SCT045"
    },
    {
      "icao": "ENTO",
      "alert": "OK",
      "vis_m": 8000,
      "fzfg": false,
      "metar_trigger": false,
      "taf_trigger": false,
      "metar": "METAR ENTO 170720Z 19011KT 8000 BKN003 03/03 Q1016 TEMPO 2000 -DZ BR",
      "taf": "TAF ENTO 170500Z 1706/1806 20008KT 9999 FEW005"
    },
    {
      "icao": "ENVA",
      "alert": "OK",
      "vis_m": 9999,
      "fzfg": false,
      "metar_trigger": false,
      "taf_trigger": false,
      "metar": "METAR ENVA 170720Z 09009KT CAVOK 05/M05 Q1005 NOSIG RMK WIND 670FT 15020KT",
      "taf": "TAF ENVA 170500Z 1706/1806 10009KT CAVOK"
    },
    {
      "icao": "ENZV",
      "alert": "OK",
      "vis_m": 9999,
      "fzfg": false,
      "metar_trigger": false,
      "taf_trigger": false,
      "metar": "METAR ENZV 170720Z 16015KT 9999 -RA OVC013 07/05 Q1009 TEMPO 16018G28KT 4000 -DZRA BR SCT012 BKN020",
      "taf": "TAF ENZV 170500Z 1706/1806 16012KT 9999 -RA SCT012 BKN030"
    },
    {
      "icao": "EPGD",
      "alert": "OK",
      "vis_m": 9999,
      "fzfg": false,
      "metar_trigger": false,
      "taf_trigger": false,
      "metar": "METAR EPGD 170700Z 31005KT 9999 BKN010 04/02 Q1020",
      "taf": "TAF EPGD 170530Z 1706/1806 23005KT 9999 BKN016"
    },
    {
      "icao": "EPKK",
      "alert": "OK",
      "vis_m": 9999,
      "fzfg": false,
      "metar_trigger": false,
      "taf_trigger": false,
      "metar": "METAR EPKK 170700Z VRB02KT 9999 FEW012 05/01 Q1021",
      "taf": "TAF EPKK 170530Z 1706/1806 VRB02KT 9999 SCT040"
    },
    {
      "icao": "EPKT",
      "alert": "OK",
      "vis_m": 9999,
      "fzfg": false,
      "metar_trigger": false,
      "taf_trigger": false,
      "metar": "METAR EPKT 170700Z 32006KT 9999 BKN012 04/03 Q1021",
      "taf": "TAF EPKT 170530Z 1706/1806 VRB02KT 3000 BR BKN040"
    },
    {
      "icao": "EPLB",
      "alert": "OK",
      "vis_m": 9000,
      "fzfg": false,
      "metar_trigger": false,
      "taf_trigger": false,
      "metar": "METAR EPLB 170700Z 31006KT 9000 NSC 06/05 Q1020",
      "taf": "TAF EPLB 170530Z 1706/1806 VRB02KT 9999 SCT040"
    },
    {
      "icao": "EPMO",
      "alert": "OK",
      "vis_m": 8000,
      "fzfg": false,
      "metar_trigger": false,
      "taf_trigger": false,
      "metar": "METAR EPMO 170700Z 35004KT 310V010 8000 SCT044 04/04 Q1021",
      "taf": "TAF EPMO 170530Z 1706/1806 33007KT 9999 BKN035"
    },
    {
      "icao": "EPPO",
      "alert": "OK",
      "vis_m": 9999,
      "fzfg": false,
      "metar_trigger": false,
      "taf_trigger": false,
      "metar": "METAR EPPO 170700Z 28005KT CAVOK 03/02 Q1022",
      "taf": ""
    },
    {
      "icao": "EPRA",
      "alert": "OK",
      "vis_m": 9999,
      "fzfg": false,
      "metar_trigger": false,
      "taf_trigger": false,
      "metar": "METAR EPRA 170700Z 33006KT CAVOK 05/02 Q1021",
      "taf": "TAF EPRA 170530Z 1706/1715 32006KT 9999 SCT040"
    },
    {
      "icao": "EPRZ",
      "alert": "OK",
      "vis_m": 9999,
      "fzfg": false,
      "metar_trigger": false,
      "taf_trigger": false,
      "metar": "METAR EPRZ 170700Z 30005KT 280V340 9999 BKN040 06/03 Q1020",
      "taf": "TAF EPRZ 170530Z 1706/1806 27004KT CAVOK"
    },
    {
      "icao": "EPSC",
      "alert": "OK",
      "vis_m": 9999,
      "fzfg": false,
      "metar_trigger": false,
      "taf_trigger": false,
      "metar": "METAR EPSC 170700Z VRB02KT CAVOK 03/01 Q1022",
      "taf": "TAF EPSC 170530Z 1706/1806 VRB02KT CAVOK"
    },
    {
      "icao": "EPSY",
      "alert": "OK",
      "vis_m": 2500,
      "fzfg": false,
      "metar_trigger": false,
      "taf_trigger": false,
      "metar": "METAR EPSY 170700Z VRB02KT 2500 MIFG BR FEW005 02/02 Q1021",
      "taf": "TAF EPSY 170530Z 1706/1715 VRB02KT 5000 BR NSC"
    },
    {
      "icao": "EPWA",
      "alert": "OK",
      "vis_m": 9999,
      "fzfg": false,
      "metar_trigger": false,
      "taf_trigger": false,
      "metar": "METAR EPWA 170700Z 34005KT 310V030 CAVOK 06/04 Q1021 NOSIG",
      "taf": "TAF EPWA 170530Z 1706/1806 VRB02KT 9999 BKN035"
    },
    {
      "icao": "EPWR",
      "alert": "OK",
      "vis_m": 9999,
      "fzfg": false,
      "metar_trigger": false,
      "taf_trigger": false,
      "metar": "METAR EPWR 170700Z 30008KT 9999 BKN006 04/04 Q1023",
      "taf": "TAF EPWR 170530Z 1706/1806 32006KT 9999 BKN009"
    },
    {
      "icao": "ESGG",
      "alert": "OK",
      "vis_m": 300,
      "fzfg": false,
      "metar_trigger": false,
      "taf_trigger": false,
      "metar": "METAR ESGG 170720Z 17007KT 0300 R03/0650N R21/0900N FG VV002 02/01 Q1018",
      "taf": "TAF ESGG 170530Z 1706/1806 18007KT 3000 BR OVC002"
    },
    {
      "icao": "ESKN",
      "alert": "OK",
      "vis_m": 9999,
      "fzfg": false,
      "metar_trigger": false,
      "taf_trigger": false,
      "metar": "METAR ESKN 170720Z 23006KT 200V260 9999 BKN010 02/02 Q1019",
      "taf": ""
    },
    {
      "icao": "ESMS",
      "alert": "OK",
      "vis_m": 150,
      "fzfg": false,
      "metar_trigger": false,
      "taf_trigger": false,
      "metar": "METAR ESMS 170720Z 00000KT 0150 R17/0450N R35/0275N FG VV001 00/00 Q1021",
      "taf": ""
    },
    {
      "icao": "ESSA",
      "alert": "OK",
      "vis_m": 9999,
      "fzfg": false,
      "metar_trigger": false,
      "taf_trigger": false,
      "metar": "METAR ESSA 170720Z 21007KT 9999 FEW013 BKN017 03/01 Q1018 NOSIG",
      "taf": ""
    },
    {
      "icao": "EYKA",
      "alert": "OK",
      "vis_m": 9000,
      "fzfg": false,
      "metar_trigger": false,
      "taf_trigger": false,
      "metar": "METAR EYKA 170720Z VRB01KT 9000 NSC 06/03 Q1021",
      "taf": "TAF EYKA 170500Z 1706/1806 VRB04KT 5000 BR SCT015"
    },
    {
      "icao": "EYPA",
      "alert": "OK",
      "vis_m": 900,
      "fzfg": false,
      "metar_trigger": false,
      "taf_trigger": false,
      "metar": "METAR EYPA 170720Z VRB02KT 0900 R19/1300N FG OVC002 04/04 Q1021",
      "taf": "TAF EYPA 170503Z 1706/1806 VRB04KT 0600 FG VV002"
    },
    {
      "icao": "EYVI",
      "alert": "OK",
      "vis_m": 9999,
      "fzfg": false,
      "metar_trigger": false,
      "taf_trigger": false,
      "metar": "METAR EYVI 170720Z 17004KT 110V240 CAVOK 06/M00 Q1021 NOSIG",
      "taf": "TAF EYVI 170500Z 1706/1806 VRB04KT 8000 SCT045"
    },
    {
      "icao": "GCFV",
      "alert": "OK",
      "vis_m": 9999,
      "fzfg": false,
      "metar_trigger": false,
      "taf_trigger": false,
      "metar": "METAR GCFV 170700Z 28004KT 9999 FEW020 BKN032 17/11 Q1011",
      "taf": "TAF GCFV 170200Z 1703/1803 32006KT 9999 SCT020 TX22/1714Z TN16/1706Z"
    },
    {
      "icao": "GCLP",
      "alert": "OK",
      "vis_m": 9999,
      "fzfg": false,
      "metar_trigger": false,
      "taf_trigger": false,
      "metar": "METAR GCLP 170700Z VRB02KT 9999 SCT037 16/12 Q1011 NOSIG",
      "taf": "TAF GCLP 170200Z 1703/1803 32006KT 9999 SCT020 TX23/1714Z TN16/1706Z"
    },
    {
      "icao": "GCTS",
      "alert": "OK",
      "vis_m": 9999,
      "fzfg": false,
      "metar_trigger": false,
      "taf_trigger": false,
      "metar": "METAR GCTS 170700Z 29005KT 9999 SCT020 16/12 Q1011 NOSIG",
      "taf": "TAF GCTS 170200Z 1703/1803 09005KT 9999 SCT025 TX23/1714Z TN16/1706Z"
    },
    {
      "icao": "GMAD",
      "alert": "OK",
      "vis_m": 8000,
      "fzfg": false,
      "metar_trigger": false,
      "taf_trigger": false,
      "metar": "METAR GMAD 170700Z 04010KT 8000 NSC 18/13 Q1009 NOSIG",
      "taf": "TAF GMAD 170500Z 1706/1812 06008KT 8000 SCT020"
    },
    {
      "icao": "GMMN",
      "alert": "OK",
      "vis_m": 3000,
      "fzfg": false,
      "metar_trigger": false,
      "taf_trigger": false,
      "metar": "METAR GMMN 170700Z VRB02KT 3000 BR NSC 10/09 Q1011 NOSIG",
      "taf": "TAF GMMN 170500Z 1706/1812 12006KT 6000 NSC"
    },
    {
      "icao": "GMMX",
      "alert": "OK",
      "vis_m": 9999,
      "fzfg": false,
      "metar_trigger": false,
      "taf_trigger": false,
      "metar": "METAR GMMX 170700Z 06005KT 9999 BKN080 14/11 Q1011 NOSIG",
      "taf": "TAF GMMX 170500Z 1706/1812 16006KT CAVOK"
    },
    {
      "icao": "HEGN",
      "alert": "OK",
      "vis_m": 9999,
      "fzfg": false,
      "metar_trigger": false,
      "taf_trigger": false,
      "metar": "METAR HEGN 170700Z 34010KT CAVOK 20/01 Q1011 NOSIG",
      "taf": "TAF HEGN 170500Z 1706/1812 02014KT CAVOK"
    },
    {
      "icao": "HEMA",
      "alert": "OK",
      "vis_m": 9999,
      "fzfg": false,
      "metar_trigger": false,
      "taf_trigger": false,
      "metar": "METAR HEMA 170700Z 31012KT CAVOK 23/02 Q1012 NOSIG",
      "taf": "TAF HEMA 170500Z 1706/1812 06014KT CAVOK"
    },
    {
      "icao": "HESH",
      "alert": "OK",
      "vis_m": 9999,
      "fzfg": false,
      "metar_trigger": false,
      "taf_trigger": false,
      "metar": "METAR HESH 170700Z 34008KT CAVOK 22/08 Q1011 NOSIG",
      "taf": "TAF HESH 170500Z 1706/1812 01012KT CAVOK"
    },
    {
      "icao": "HESX",
      "alert": "OK",
      "vis_m": 9999,
      "fzfg": false,
      "metar_trigger": false,
      "taf_trigger": false,
      "metar": "METAR HESX 170700Z 09007KT CAVOK 18/05 Q1013 NOSIG",
      "taf": "TAF HESX 170501Z 1706/1812 08010KT CAVOK"
    },
    {
      "icao": "LATI",
      "alert": "OK",
      "vis_m": 9999,
      "fzfg": false,
      "metar_trigger": false,
      "taf_trigger": false,
      "metar": "METAR LATI 170720Z VRB01KT 9999 OVC096 13/05 Q1012 NOSIG",
      "taf": "TAF LATI 170500Z 1706/1806 VRB05KT 9999 BKN080 TX16/1712Z TN07/1804Z"
    },
    {
      "icao": "LBPD",
      "alert": "OK",
      "vis_m": 9999,
      "fzfg": false,
      "metar_trigger": false,
      "taf_trigger": false,
      "metar": "METAR LBPD 170730Z AUTO 00000KT 9999 NCD 07/02 Q1019 NOSIG",
      "taf": "TAF LBPD 170500Z 1706/1806 VRB03KT 9999 BKN050"
    },
    {
      "icao": "LBSF",
      "alert": "OK",
      "vis_m": 9999,
      "fzfg": false,
      "metar_trigger": false,
      "taf_trigger": false,
      "metar": "METAR LBSF 170730Z 09010KT 9999 BKN054 06/01 Q1017 NOSIG",
      "taf": "TAF LBSF 170500Z 1706/1806 11010KT 9999 SCT050"
    },
    {
      "icao": "LBWN",
      "alert": "OK",
      "vis_m": 9999,
      "fzfg": false,
      "metar_trigger": false,
      "taf_trigger": false,
      "metar": "METAR LBWN 170730Z 14004KT 050V200 CAVOK 11/03 Q1019 NOSIG",
      "taf": "TAF LBWN 170500Z 1706/1806 VRB03KT 9999 SCT040"
    },
    {
      "icao": "LCLK",
      "alert": "OK",
      "vis_m": 9999,
      "fzfg": false,
      "metar_trigger": false,
      "taf_trigger": false,
      "metar": "METAR LCLK 170730Z 06004KT 030V100 9999 FEW025 18/11 Q1015 NOSIG",
      "taf": "TAF LCLK 170530Z 1706/1806 04003KT 9999 SCT025"
    },
    {
      "icao": "LCPH",
      "alert": "OK",
      "vis_m": 9999,
      "fzfg": false,
      "metar_trigger": false,
      "taf_trigger": false,
      "metar": "METAR LCPH 170730Z 16005KT 150V210 9999 FEW030 17/09 Q1015 NOSIG",
      "taf": "TAF LCPH 170530Z 1706/1806 05008KT 9999 FEW030"
    },
    {
      "icao": "LEAL",
      "alert": "OK",
      "vis_m": 9999,
      "fzfg": false,
      "metar_trigger": false,
      "taf_trigger": false,
      "metar": "METAR LEAL 170700Z 25007KT CAVOK 09/06 Q1018 NOSIG",
      "taf": "TAF LEAL 170500Z 1706/1806 VRB04KT CAVOK TX19/1712Z TN07/1706Z"
    },
    {
      "icao": "LEBB",
      "alert": "OK",
      "vis_m": 9999,
      "fzfg": false,
      "metar_trigger": false,
      "taf_trigger": false,
      "metar": "METAR LEBB 170700Z 09003KT 050V190 CAVOK 08/06 Q1015 NOSIG",
      "taf": "TAF LEBB 170500Z 1706/1806 11005KT 9999 FEW030 TX26/1714Z TN06/1706Z"
    },
    {
      "icao": "LEBL",
      "alert": "OK",
      "vis_m": 9999,
      "fzfg": false,
      "metar_trigger": false,
      "taf_trigger": false,
      "metar": "METAR LEBL 170700Z 33007KT 300V010 CAVOK 09/06 Q1017 NOSIG",
      "taf": "TAF LEBL 170500Z 1706/1806 35005KT CAVOK TX17/1713Z TN08/1706Z"
    },
    {
      "icao": "LECH",
      "alert": "OK",
      "vis_m": 7000,
      "fzfg": false,
      "metar_trigger": false,
      "taf_trigger": false,
      "metar": "METAR LECH 170700Z AUTO VRB01KT 7000 NCD 06/02 Q1018",
      "taf": ""
    },
    {
      "icao": "LEMD",
      "alert": "OK",
      "vis_m": 9999,
      "fzfg": false,
      "metar_trigger": false,
      "taf_trigger": false,
      "metar": "METAR LEMD 170700Z VRB01KT CAVOK 03/03 Q1018 NOSIG",
      "taf": "TAF LEMD 170500Z 1706/1812 VRB04KT CAVOK TX22/1715Z TN03/1806Z"
    },
    {
      "icao": "LEMG",
      "alert": "OK",
      "vis_m": 9999,
      "fzfg": false,
      "metar_trigger": false,
      "taf_trigger": false,
      "metar": "METAR LEMG 170700Z 29008KT CAVOK 06/04 Q1018 NOSIG",
      "taf": "TAF LEMG 170500Z 1706/1806 29004KT CAVOK TX19/1714Z TN10/1707Z"
    },
    {
      "icao": "LEVC",
      "alert": "OK",
      "vis_m": 9999,
      "fzfg": false,
      "metar_trigger": false,
      "taf_trigger": false,
      "metar": "METAR LEVC 170700Z 29003KT 250V330 CAVOK 07/05 Q1017 NOSIG",
      "taf": "TAF LEVC 170500Z 1706/1806 VRB04KT CAVOK TX22/1712Z TN07/1805Z"
    },
    {
      "icao": "LEXJ",
      "alert": "OK",
      "vis_m": 9999,
      "fzfg": false,
      "metar_trigger": false,
      "taf_trigger": false,
      "metar": "METAR LEXJ 170700Z VRB01KT CAVOK 04/02 Q1012",
      "taf": ""
    },
    {
      "icao": "LEZG",
      "alert": "OK",
      "vis_m": 9999,
      "fzfg": false,
      "metar_trigger": false,
      "taf_trigger": false,
      "metar": "METAR LEZG 170700Z 00000KT CAVOK 06/06 Q1018 NOSIG",
      "taf": "TAF LEZG 170500Z 1706/1806 25006KT CAVOK TX21/1714Z TN05/1706Z"
    },
    {
      "icao": "LEZL",
      "alert": "OK",
      "vis_m": 9999,
      "fzfg": false,
      "metar_trigger": false,
      "taf_trigger": false,
      "metar": "METAR LEZL 170700Z 05009KT CAVOK 11/05 Q1013 NOSIG",
      "taf": "TAF LEZL 170200Z 1703/1803 06010KT CAVOK TX25/1715Z TN10/1707Z"
    },
    {
      "icao": "LFBD",
      "alert": "OK",
      "vis_m": 9999,
      "fzfg": false,
      "metar_trigger": false,
      "taf_trigger": false,
      "metar": "METAR LFBD 170700Z AUTO 11006KT CAVOK 07/05 Q1017 TEMPO 1500 MIFG",
      "taf": "TAF LFBD 170500Z 1706/1812 12005KT CAVOK TX20/1715Z TN04/1706Z"
    },
    {
      "icao": "LFLL",
      "alert": "OK",
      "vis_m": 6000,
      "fzfg": false,
      "metar_trigger": false,
      "taf_trigger": false,
      "metar": "METAR LFLL 170700Z 35002KT 6000 0450N R35L/P2000 R17R/1300U R35R/P2000 R17L/P2000 BCFG BKN004 04/04 Q1021 BECMG NSW",
      "taf": "TAF LFLL 170500Z 1706/1812 VRB02KT CAVOK"
    },
    {
      "icao": "LFLS",
      "alert": "OK",
      "vis_m": 9999,
      "fzfg": false,
      "metar_trigger": false,
      "taf_trigger": false,
      "metar": "METAR LFLS 170700Z AUTO 11004KT CAVOK 01/01 Q1020 TEMPO BKN009",
      "taf": "TAF LFLS 170200Z 1703/1803 VRB02KT CAVOK"
    },
    {
      "icao": "LFMN",
      "alert": "OK",
      "vis_m": 9999,
      "fzfg": false,
      "metar_trigger": false,
      "taf_trigger": false,
      "metar": "METAR LFMN 170700Z 33013KT CAVOK 12/03 Q1015 NOSIG",
      "taf": "TAF LFMN 170200Z 1703/1809 33010KT CAVOK"
    },
    {
      "icao": "LFOB",
      "alert": "OK",
      "vis_m": 9999,
      "fzfg": false,
      "metar_trigger": false,
      "taf_trigger": false,
      "metar": "METAR LFOB 170700Z AUTO 14003KT CAVOK 05/05 Q1020 TEMPO 4000 BR",
      "taf": "TAF LFOB 170500Z 1706/1806 VRB04KT CAVOK"
    },
    {
      "icao": "LFPO",
      "alert": "OK",
      "vis_m": 9999,
      "fzfg": false,
      "metar_trigger": false,
      "taf_trigger": false,
      "metar": "METAR LFPO 170700Z 12003KT CAVOK 06/04 Q1021 NOSIG",
      "taf": "TAF LFPO 170500Z 1706/1812 18005KT CAVOK"
    },
    {
      "icao": "LFSB",
      "alert": "OK",
      "vis_m": 9999,
      "fzfg": false,
      "metar_trigger": false,
      "taf_trigger": false,
      "metar": "METAR LFSB 170700Z AUTO 16004KT CAVOK 04/02 Q1022 NOSIG",
      "taf": "TAF LFSB 170500Z 1706/1806 17005KT CAVOK"
    },
    {
      "icao": "LGAV",
      "alert": "OK",
      "vis_m": 9999,
      "fzfg": false,
      "metar_trigger": false,
      "taf_trigger": false,
      "metar": "METAR LGAV 170720Z 03010KT 9999 FEW025 12/05 Q1015 NOSIG",
      "taf": "TAF LGAV 170500Z 1706/1806 03012KT 9999 SCT020 BKN070"
    },
    {
      "icao": "LGTS",
      "alert": "OK",
      "vis_m": 9999,
      "fzfg": false,
      "metar_trigger": false,
      "taf_trigger": false,
      "metar": "METAR LGTS 170720Z VRB03KT 9999 FEW025 12/07 Q1017 NOSIG",
      "taf": "TAF LGTS 170500Z 1706/1806 VRB03KT 9999 SCT025"
    },
    {
      "icao": "LHBP",
      "alert": "OK",
      "vis_m": 9999,
      "fzfg": false,
      "metar_trigger": false,
      "taf_trigger": false,
      "metar": "METAR LHBP 170730Z 32013KT CAVOK 07/01 Q1019 NOSIG",
      "taf": "TAF LHBP 170515Z 1706/1806 31010KT CAVOK"
    },
    {
      "icao": "LHDC",
      "alert": "OK",
      "vis_m": 9999,
      "fzfg": false,
      "metar_trigger": false,
      "taf_trigger": false,
      "metar": "METAR LHDC 170645Z AUTO 00000KT CAVOK 06/02 Q1018 NOSIG",
      "taf": "TAF LHDC 170515Z 1706/1715 VRB03KT CAVOK"
    },
    {
      "icao": "LIBD",
      "alert": "OK",
      "vis_m": 6000,
      "fzfg": false,
      "metar_trigger": false,
      "taf_trigger": false,
      "metar": "METAR LIBD 170720Z 05005KT 010V070 6000 -RA SCT008 BKN020 11/11 Q1013 RERA",
      "taf": "TAF LIBD 170500Z 1706/1806 VRB05KT 8000 RA SCT015 BKN050"
    },
    {
      "icao": "LIBG",
      "alert": "OK",
      "vis_m": null,
      "fzfg": false,
      "metar_trigger": false,
      "taf_trigger": false,
      "metar": "",
      "taf": "TAF LIBG 170712Z 1708/1715 05010KT 8000 BKN040"
    },
    {
      "icao": "LIBP",
      "alert": "OK",
      "vis_m": 9999,
      "fzfg": false,
      "metar_trigger": false,
      "taf_trigger": false,
      "metar": "METAR LIBP 170720Z AUTO 22004KT 190V250 9999 OVC018/// 12/11 Q1015",
      "taf": "TAF LIBP 170500Z 1706/1806 VRB05KT 9999 SCT015 BKN040"
    },
    {
      "icao": "LIBR",
      "alert": "OK",
      "vis_m": 9999,
      "fzfg": false,
      "metar_trigger": false,
      "taf_trigger": false,
      "metar": "METAR LIBR 170720Z 02009KT 9999 -DZ BKN045 13/10 Q1012",
      "taf": "TAF LIBR 170500Z 1706/1806 02012KT 8000 RA SCT030"
    },
    {
      "icao": "LICA",
      "alert": "OK",
      "vis_m": 9999,
      "fzfg": false,
      "metar_trigger": false,
      "taf_trigger": false,
      "metar": "METAR LICA 170720Z AUTO 08012KT 9999 FEW047/// SCT150/// 16/09 Q1009",
      "taf": "TAF LICA 170500Z 1706/1806 08022G32KT 9999 BKN030"
    },
    {
      "icao": "LICC",
      "alert": "OK",
      "vis_m": 9999,
      "fzfg": false,
      "metar_trigger": false,
      "taf_trigger": false,
      "metar": "METAR LICC 170720Z 04024KT 9999 SCT015 BKN070 14/13 Q1006",
      "taf": "TAF LICC 170500Z 1706/1806 06015KT 9999 BKN030"
    },
    {
      "icao": "LICJ",
      "alert": "OK",
      "vis_m": 9999,
      "fzfg": false,
      "metar_trigger": false,
      "taf_trigger": false,
      "metar": "METAR LICJ 170720Z 06020KT 9999 FEW018 SCT030 BKN050 15/12 Q1007",
      "taf": "TAF LICJ 170500Z 1706/1806 04018G28KT 9999 SCT020"
    },
    {
      "icao": "LIMC",
      "alert": "OK",
      "vis_m": 9999,
      "fzfg": false,
      "metar_trigger": false,
      "taf_trigger": false,
      "metar": "METAR LIMC 170720Z 34003KT 320V050 CAVOK 10/06 Q1019 NOSIG",
      "taf": "TAF LIMC 170500Z 1706/1812 VRB05KT CAVOK"
    },
    {
      "icao": "LIME",
      "alert": "OK",
      "vis_m": 9999,
      "fzfg": false,
      "metar_trigger": false,
      "taf_trigger": false,
      "metar": "METAR LIME 170720Z VRB02KT CAVOK 09/M00 Q1019 NOSIG",
      "taf": "TAF LIME 170500Z 1706/1806 VRB05KT CAVOK"
    },
    {
      "icao": "LIMF",
      "alert": "OK",
      "vis_m": 9999,
      "fzfg": false,
      "metar_trigger": false,
      "taf_trigger": false,
      "metar": "METAR LIMF 170720Z 02005KT CAVOK 09/02 Q1018",
      "taf": "TAF LIMF 170500Z 1706/1806 VRB05KT CAVOK"
    },
    {
      "icao": "LIMJ",
      "alert": "OK",
      "vis_m": 9999,
      "fzfg": false,
      "metar_trigger": false,
      "taf_trigger": false,
      "metar": "METAR LIMJ 170720Z VRB04KT CAVOK 14/02 Q1016",
      "taf": "TAF LIMJ 170500Z 1706/1806 04012KT CAVOK"
    },
    {
      "icao": "LIPE",
      "alert": "OK",
      "vis_m": 9999,
      "fzfg": false,
      "metar_trigger": false,
      "taf_trigger": false,
      "metar": "METAR LIPE 170720Z 29003KT 260V020 CAVOK 10/07 Q1018",
      "taf": "TAF LIPE 170500Z 1706/1806 VRB05KT 9999 SCT050"
    },
    {
      "icao": "LIPH",
      "alert": "OK",
      "vis_m": 9999,
      "fzfg": false,
      "metar_trigger": false,
      "taf_trigger": false,
      "metar": "METAR LIPH 170720Z 06005KT 010V100 CAVOK 11/06 Q1019",
      "taf": "TAF LIPH 170500Z 1706/1806 05006KT CAVOK"
    },
    {
      "icao": "LIPQ",
      "alert": "OK",
      "vis_m": 9999,
      "fzfg": false,
      "metar_trigger": false,
      "taf_trigger": false,
      "metar": "METAR LIPQ 170720Z AUTO 09010KT 9999 NCD 11/02 Q1019",
      "taf": "TAF LIPQ 170500Z 1706/1806 08010KT CAVOK"
    },
    {
      "icao": "LIPR",
      "alert": "OK",
      "vis_m": 9999,
      "fzfg": false,
      "metar_trigger": false,
      "taf_trigger": false,
      "metar": "METAR LIPR 170720Z 25004KT 9999 FEW025 SCT050 11/09 Q1017",
      "taf": "TAF LIPR 170500Z 1706/1806 VRB05KT 9999 SCT050"
    },
    {
      "icao": "LIPX",
      "alert": "OK",
      "vis_m": 9999,
      "fzfg": false,
      "metar_trigger": false,
      "taf_trigger": false,
      "metar": "METAR LIPX 170720Z 11003KT 050V140 CAVOK 12/04 Q1019",
      "taf": "TAF LIPX 170500Z 1706/1806 VRB05KT CAVOK"
    },
    {
      "icao": "LIPY",
      "alert": "OK",
      "vis_m": 9999,
      "fzfg": false,
      "metar_trigger": false,
      "taf_trigger": false,
      "metar": "METAR LIPY 170720Z AUTO 26004KT 220V280 9999 -RA BKN062/// 12/10 Q1016",
      "taf": "TAF LIPY 170500Z 1706/1806 02010KT 9999 SCT050"
    },
    {
      "icao": "LIPZ",
      "alert": "OK",
      "vis_m": 9999,
      "fzfg": false,
      "metar_trigger": false,
      "taf_trigger": false,
      "metar": "METAR LIPZ 170720Z 08013KT CAVOK 11/05 Q1019 NOSIG",
      "taf": "TAF LIPZ 170500Z 1706/1812 04007KT CAVOK"
    },
    {
      "icao": "LIRF",
      "alert": "OK",
      "vis_m": 9999,
      "fzfg": false,
      "metar_trigger": false,
      "taf_trigger": false,
      "metar": "METAR LIRF 170720Z 02007KT CAVOK 13/07 Q1012 NOSIG",
      "taf": "TAF LIRF 170500Z 1706/1812 05006KT CAVOK"
    },
    {
      "icao": "LIRN",
      "alert": "OK",
      "vis_m": 9999,
      "fzfg": false,
      "metar_trigger": false,
      "taf_trigger": false,
      "metar": "METAR LIRN 170720Z 02007KT 9999 -RA FEW020 BKN070 12/10 Q1012 NOSIG",
      "taf": "TAF LIRN 170500Z 1706/1806 03012KT 9999 SCT040"
    },
    {
      "icao": "LIRP",
      "alert": "OK",
      "vis_m": 9999,
      "fzfg": false,
      "metar_trigger": false,
      "taf_trigger": false,
      "metar": "METAR LIRP 170715Z 09001KT CAVOK 09/08 Q1014 NOSIG",
      "taf": "TAF LIRP 170500Z 1706/1806 VRB03KT CAVOK"
    },
    {
      "icao": "LIRZ",
      "alert": "OK",
      "vis_m": 9999,
      "fzfg": false,
      "metar_trigger": false,
      "taf_trigger": false,
      "metar": "METAR LIRZ 170720Z AUTO 03011KT 9999 NCD 12/06 Q1015",
      "taf": "TAF LIRZ 170500Z 1706/1806 02013KT CAVOK"
    },
    {
      "icao": "LJLJ",
      "alert": "OK",
      "vis_m": 9999,
      "fzfg": false,
      "metar_trigger": false,
      "taf_trigger": false,
      "metar": "METAR LJLJ 170700Z VRB02KT 9999 SCT010 06/04 Q1020 NOSIG",
      "taf": "TAF LJLJ 170500Z 1706/1806 VRB02KT 9999 BKN008"
    },
    {
      "icao": "LKMT",
      "alert": "OK",
      "vis_m": 9999,
      "fzfg": false,
      "metar_trigger": false,
      "taf_trigger": false,
      "metar": "METAR LKMT 170700Z 01005KT 9999 -RA BKN011 OVC017 04/03 Q1021 NOSIG",
      "taf": "TAF LKMT 170500Z 1706/1806 01009KT 9999 FEW009 OVC015"
    },
    {
      "icao": "LKPR",
      "alert": "OK",
      "vis_m": 9999,
      "fzfg": false,
      "metar_trigger": false,
      "taf_trigger": false,
      "metar": "METAR LKPR 170700Z 23005KT CAVOK 02/00 Q1022 NOSIG",
      "taf": "TAF LKPR 170500Z 1706/1812 22008KT 9999 SCT027"
    },
    {
      "icao": "LLBG",
      "alert": "OK",
      "vis_m": 9999,
      "fzfg": false,
      "metar_trigger": false,
      "taf_trigger": false,
      "metar": "METAR LLBG 170720Z VRB02KT CAVOK 19/07 Q1014 NOSIG",
      "taf": "TAF LLBG 170501Z 1706/1806 VRB04KT CAVOK TX23/1712Z TN12/1803Z"
    },
    {
      "icao": "LMML",
      "alert": "OK",
      "vis_m": 9999,
      "fzfg": false,
      "metar_trigger": false,
      "taf_trigger": false,
      "metar": "METAR LMML 170715Z 05010KT 020V090 9999 FEW020 15/10 Q1003 NOSIG",
      "taf": "TAF LMML 170500Z 1706/1806 04012KT 9999 SCT018"
    },
    {
      "icao": "LOWW",
      "alert": "OK",
      "vis_m": 9999,
      "fzfg": false,
      "metar_trigger": false,
      "taf_trigger": false,
      "metar": "METAR LOWW 170720Z 31011KT 9999 FEW024 BKN042 05/M00 Q1022 NOSIG",
      "taf": "TAF LOWW 170515Z 1706/1812 34012KT 9999 FEW025 BKN035 TX14/1812Z TN04/1804Z"
    },
    {
      "icao": "LPFR",
      "alert": "OK",
      "vis_m": 9999,
      "fzfg": false,
      "metar_trigger": false,
      "taf_trigger": false,
      "metar": "METAR LPFR 170700Z 07011KT CAVOK 13/06 Q1012",
      "taf": "TAF LPFR 170500Z 1706/1806 08015KT CAVOK"
    },
    {
      "icao": "LPMA",
      "alert": "OK",
      "vis_m": 9999,
      "fzfg": false,
      "metar_trigger": false,
      "taf_trigger": false,
      "metar": "METAR LPMA 170700Z 33004KT 9999 FEW015 14/10 Q1009",
      "taf": "TAF LPMA 170500Z 1706/1806 VRB05KT 9999 SCT015 BKN030"
    },
    {
      "icao": "LPPR",
      "alert": "OK",
      "vis_m": 9999,
      "fzfg": false,
      "metar_trigger": false,
      "taf_trigger": false,
      "metar": "METAR LPPR 170700Z 11010KT CAVOK 13/06 Q1012",
      "taf": "TAF LPPR 170500Z 1706/1806 10008KT CAVOK"
    },
    {
      "icao": "LPPS",
      "alert": "OK",
      "vis_m": 9999,
      "fzfg": false,
      "metar_trigger": false,
      "taf_trigger": false,
      "metar": "METAR LPPS 170700Z 22006KT 9999 SCT015 14/12 Q1009",
      "taf": "TAF LPPS 170500Z 1706/1812 24007KT 9999 SCT015 BKN030"
    },
    {
      "icao": "LPPT",
      "alert": "OK",
      "vis_m": 9999,
      "fzfg": false,
      "metar_trigger": false,
      "taf_trigger": false,
      "metar": "METAR LPPT 170700Z 07007KT CAVOK 09/07 Q1012",
      "taf": "TAF LPPT 170500Z 1706/1812 07008KT CAVOK"
    },
    {
      "icao": "LQBK",
      "alert": "OK",
      "vis_m": 9000,
      "fzfg": false,
      "metar_trigger": false,
      "taf_trigger": false,
      "metar": "METAR LQBK 170700Z 30007KT 9000 RA FEW010 BKN025 OVC030 06/04 Q1020 NOSIG",
      "taf": "TAF LQBK 170500Z 1706/1806 30007KT 9999 RA SCT010 BKN025 TX07/1706Z TN03/1806Z"
    },
    {
      "icao": "LQSA",
      "alert": "OK",
      "vis_m": 9999,
      "fzfg": false,
      "metar_trigger": false,
      "taf_trigger": false,
      "metar": "METAR LQSA 170700Z 30007KT 9999 SCT065 07/M01 Q1017 NOSIG",
      "taf": "TAF LQSA 170500Z 1706/1806 30006KT 9999 BKN070 TX08/1711Z TNM00/1803Z"
    },
    {
      "icao": "LQTZ",
      "alert": "OK",
      "vis_m": 9999,
      "fzfg": false,
      "metar_trigger": false,
      "taf_trigger": false,
      "metar": "METAR LQTZ 170700Z VRB01KT 9999 BKN040 05/01 Q1019",
      "taf": "TAF LQTZ 170500Z 1706/1806 27005KT 9999 BKN030 TX08/1710Z TN02/1706Z"
    },
    {
      "icao": "LRBC",
      "alert": "OK",
      "vis_m": 9999,
      "fzfg": false,
      "metar_trigger": false,
      "taf_trigger": false,
      "metar": "METAR LRBC 170700Z VRB02KT CAVOK 05/M00 Q1020",
      "taf": "TAF LRBC 170500Z 1706/1715 VRB04KT CAVOK"
    },
    {
      "icao": "LRBS",
      "alert": "OK",
      "vis_m": 9999,
      "fzfg": false,
      "metar_trigger": false,
      "taf_trigger": false,
      "metar": "METAR LRBS 170700Z VRB01KT CAVOK 08/01 Q1019 NOSIG",
      "taf": "TAF LRBS 170500Z 1706/1806 VRB04KT 5000 BR NSC"
    },
    {
      "icao": "LRBV",
      "alert": "OK",
      "vis_m": 9999,
      "fzfg": false,
      "metar_trigger": false,
      "taf_trigger": false,
      "metar": "METAR LRBV 170700Z 12002KT CAVOK 02/M02 Q1019",
      "taf": "TAF LRBV 170500Z 1706/1715 VRB04KT 5000 BR NSC"
    },
    {
      "icao": "LRCL",
      "alert": "OK",
      "vis_m": 9999,
      "fzfg": false,
      "metar_trigger": false,
      "taf_trigger": false,
      "metar": "METAR LRCL 170700Z 00000KT CAVOK 02/M03 Q1018",
      "taf": "TAF LRCL 170500Z 1706/1715 VRB04KT CAVOK"
    },
    {
      "icao": "LRCV",
      "alert": "OK",
      "vis_m": 9999,
      "fzfg": false,
      "metar_trigger": false,
      "taf_trigger": false,
      "metar": "METAR LRCV 170700Z 05005KT CAVOK 06/03 Q1019",
      "taf": "TAF LRCV 170500Z 1706/1715 VRB04KT CAVOK"
    },
    {
      "icao": "LRIA",
      "alert": "OK",
      "vis_m": 9999,
      "fzfg": false,
      "metar_trigger": false,
      "taf_trigger": false,
      "metar": "METAR LRIA 170700Z 09007KT CAVOK 06/M01 Q1019",
      "taf": "TAF LRIA 170500Z 1706/1715 VRB04KT CAVOK"
    },
    {
      "icao": "LROP",
      "alert": "OK",
      "vis_m": 8000,
      "fzfg": false,
      "metar_trigger": false,
      "taf_trigger": false,
      "metar": "METAR LROP 170700Z 01003KT 350V050 8000 NSC 06/M02 Q1019 NOSIG",
      "taf": "TAF LROP 170500Z 1706/1806 VRB04KT 5000 BR NSC"
    },
    {
      "icao": "LRSB",
      "alert": "OK",
      "vis_m": 9999,
      "fzfg": false,
      "metar_trigger": false,
      "taf_trigger": false,
      "metar": "METAR LRSB 170700Z 10004KT CAVOK 04/M01 Q1018",
      "taf": "TAF LRSB 170500Z 1706/1806 VRB04KT CAVOK"
    },
    {
      "icao": "LRSM",
      "alert": "OK",
      "vis_m": 9999,
      "fzfg": false,
      "metar_trigger": false,
      "taf_trigger": false,
      "metar": "METAR LRSM 170700Z 20003KT CAVOK 06/00 Q1018",
      "taf": "TAF LRSM 170500Z 1706/1715 VRB04KT CAVOK"
    },
    {
      "icao": "LRSV",
      "alert": "OK",
      "vis_m": 9999,
      "fzfg": false,
      "metar_trigger": false,
      "taf_trigger": false,
      "metar": "METAR LRSV 170700Z VRB02KT CAVOK 04/M01 Q1018",
      "taf": "TAF LRSV 170500Z 1706/1715 VRB04KT CAVOK"
    },
    {
      "icao": "LRTM",
      "alert": "OK",
      "vis_m": 9000,
      "fzfg": false,
      "metar_trigger": false,
      "taf_trigger": false,
      "metar": "METAR LRTM 170700Z 09005KT 9000 FEW013 02/M02 Q1019",
      "taf": "TAF LRTM 170500Z 1706/1715 VRB04KT CAVOK"
    },
    {
      "icao": "LRTR",
      "alert": "OK",
      "vis_m": 9999,
      "fzfg": false,
      "metar_trigger": false,
      "taf_trigger": false,
      "metar": "METAR LRTR 170700Z 01005KT CAVOK 05/04 Q1018 NOSIG",
      "taf": "TAF LRTR 170500Z 1706/1806 VRB04KT CAVOK"
    },
    {
      "icao": "LTAC",
      "alert": "OK",
      "vis_m": 9999,
      "fzfg": false,
      "metar_trigger": false,
      "taf_trigger": false,
      "metar": "METAR LTAC 170720Z VRB02KT CAVOK 07/01 Q1015 NOSIG RMK RWY21C VRB01KT RWY03L VRB03KT RWY21R VRB01KT RWY03R VRB01KT RWY21L VRB01KT",
      "taf": "TAF LTAC 170440Z 1706/1806 VRB02KT CAVOK"
    },
    {
      "icao": "LTFM",
      "alert": "OK",
      "vis_m": 9999,
      "fzfg": false,
      "metar_trigger": false,
      "taf_trigger": false,
      "metar": "METAR LTFM 170720Z 03008KT 340V060 9999 FEW008 BKN017 08/05 Q1019 NOSIG RMK RWY17L 36007KT 340V060 RWY34L 01007KT RWY16R 02006KT RWY36 02007KT 350V050 RWY18 36006KT",
      "taf": "TAF LTFM 170440Z 1706/1812 35005KT 9999 SCT004 BKN018"
    },
    {
      "icao": "LUKK",
      "alert": "OK",
      "vis_m": 9999,
      "fzfg": false,
      "metar_trigger": false,
      "taf_trigger": false,
      "metar": "METAR LUKK 170700Z VRB02KT CAVOK 05/00 Q1020 NOSIG",
      "taf": "TAF LUKK 170516Z 1706/1806 VRB05KT CAVOK"
    },
    {
      "icao": "LWOH",
      "alert": "OK",
      "vis_m": 9999,
      "fzfg": false,
      "metar_trigger": false,
      "taf_trigger": false,
      "metar": "METAR LWOH 170720Z VRB02KT 9999 SCT040 BKN090 10/04 Q1014",
      "taf": "TAF LWOH 170530Z 1706/1806 VRB02KT 9999 SCT040 BKN090"
    },
    {
      "icao": "LWSK",
      "alert": "OK",
      "vis_m": 9999,
      "fzfg": false,
      "metar_trigger": false,
      "taf_trigger": false,
      "metar": "METAR LWSK 170720Z VRB01KT 9999 BKN026 08/04 Q1016 NOSIG",
      "taf": ""
    },
    {
      "icao": "LYBE",
      "alert": "OK",
      "vis_m": 9999,
      "fzfg": false,
      "metar_trigger": false,
      "taf_trigger": false,
      "metar": "METAR LYBE 170700Z 03004KT 360V060 CAVOK 08/01 Q1018 NOSIG",
      "taf": "TAF LYBE 170500Z 1706/1806 05008KT CAVOK TX13/1713Z TN06/1706Z"
    },
    {
      "icao": "LYNI",
      "alert": "OK",
      "vis_m": 9999,
      "fzfg": false,
      "metar_trigger": false,
      "taf_trigger": false,
      "metar": "METAR LYNI 170700Z 31003KT 270V350 9999 BKN083 08/01 Q1017 NOSIG",
      "taf": "TAF LYNI 170500Z 1706/1806 03002KT 9999 BKN080 TX13/1714Z TN06/1805Z"
    },
    {
      "icao": "LYPG",
      "alert": "OK",
      "vis_m": 9999,
      "fzfg": false,
      "metar_trigger": false,
      "taf_trigger": false,
      "metar": "METAR LYPG 170700Z VRB01KT 9999 FEW050 OVC090 12/07 Q1013 NOSIG",
      "taf": "TAF LYPG 170500Z 1706/1806 16005KT 9999 SCT040 OVC080 TX15/1713Z TN09/1805Z"
    },
    {
      "icao": "LZIB",
      "alert": "OK",
      "vis_m": 9999,
      "fzfg": false,
      "metar_trigger": false,
      "taf_trigger": false,
      "metar": "METAR LZIB 170730Z 30009KT 260V340 9999 SCT024 06/01 Q1021 NOSIG",
      "taf": "TAF LZIB 170515Z 1706/1806 31013KT 9999 SCT035"
    },
    {
      "icao": "LZKZ",
      "alert": "OK",
      "vis_m": 9999,
      "fzfg": false,
      "metar_trigger": false,
      "taf_trigger": false,
      "metar": "METAR LZKZ 170730Z 36013KT 9999 -RA OVC049 06/03 Q1019 NOSIG",
      "taf": "TAF LZKZ 170515Z 1706/1806 36016KT CAVOK"
    },
    {
      "icao": "LZTT",
      "alert": "OK",
      "vis_m": 9999,
      "fzfg": false,
      "metar_trigger": false,
      "taf_trigger": false,
      "metar": "METAR LZTT 170730Z 08005KT 050V120 9999 SCT010 BKN028 03/01 Q1018 NOSIG",
      "taf": "TAF LZTT 170515Z 1706/1806 VRB02KT 9999 FEW010 OVC020"
    },
    {
      "icao": "OEJN",
      "alert": "OK",
      "vis_m": 9999,
      "fzfg": false,
      "metar_trigger": false,
      "taf_trigger": false,
      "metar": "METAR OEJN 170700Z 13005KT 9999 SCT040 29/16 Q1009 NOSIG",
      "taf": "TAF OEJN 170500Z 1706/1812 30012KT 7000 FEW040"
    },
    {
      "icao": "OEMA",
      "alert": "OK",
      "vis_m": 9999,
      "fzfg": false,
      "metar_trigger": false,
      "taf_trigger": false,
      "metar": "METAR OEMA 170700Z 03019KT 9999 FEW045 25/02 Q1013 NOSIG",
      "taf": "TAF OEMA 170500Z 1706/1812 07010KT 9999 SCT040"
    },
    {
      "icao": "OJAI",
      "alert": "OK",
      "vis_m": 4000,
      "fzfg": false,
      "metar_trigger": false,
      "taf_trigger": false,
      "metar": "METAR OJAI 170700Z 12004KT 4000 HZ NSC 13/08 Q1016 NOSIG",
      "taf": "TAF OJAI 170500Z 1706/1812 VRB02KT 3000 BR NSC"
    },
    {
      "icao": "OMAA",
      "alert": "OK",
      "vis_m": null,
      "fzfg": false,
      "metar_trigger": false,
      "taf_trigger": false,
      "metar": "",
      "taf": ""
    },
    {
      "icao": "OMDB",
      "alert": "OK",
      "vis_m": null,
      "fzfg": false,
      "metar_trigger": false,
      "taf_trigger": false,
      "metar": "",
      "taf": ""
    },
    {
      "icao": "UAAA",
      "alert": "OK",
      "vis_m": 9999,
      "fzfg": false,
      "metar_trigger": false,
      "taf_trigger": false,
      "metar": "METAR UAAA 170700Z 29002MPS 220V350 9999 SCT200 06/M02 Q1016 NOSIG",
      "taf": "TAF UAAA 170503Z 1706/1806 35002G07MPS 9999 SCT050 BKN100 TX09/1709Z TNM01/1801Z"
    },
    {
      "icao": "UBBB",
      "alert": "OK",
      "vis_m": 9999,
      "fzfg": false,
      "metar_trigger": false,
      "taf_trigger": false,
      "metar": "METAR UBBB 170730Z 32016KT 9999 SCT057CB 10/05 Q1014 NOSIG",
      "taf": "TAF UBBB 170501Z 1706/1806 32016G26KT 9999 BKN040 TX11/1710Z TN05/1801Z"
    },
    {
      "icao": "UDSG",
      "alert": "OK",
      "vis_m": 9999,
      "fzfg": false,
      "metar_trigger": false,
      "taf_trigger": false,
      "metar": "METAR UDSG 170700Z 23002KT 9999 FEW046 05/M01 Q1015 NOSIG",
      "taf": "TAF UDSG 170458Z 1706/1806 VRB06KT 9999 SCT050"
    },
    {
      "icao": "UDYZ",
      "alert": "OK",
      "vis_m": 9999,
      "fzfg": false,
      "metar_trigger": false,
      "taf_trigger": false,
      "metar": "METAR UDYZ 170700Z VRB01KT 9999 NSC 10/03 Q1014 NOSIG",
      "taf": "TAF UDYZ 170500Z 1706/1806 VRB06KT 9999 FEW040"
    },
    {
      "icao": "UGKO",
      "alert": "OK",
      "vis_m": 9999,
      "fzfg": false,
      "metar_trigger": false,
      "taf_trigger": false,
      "metar": "METAR UGKO 170700Z 28004KT 9999 SCT028 OVC044 09/07 Q1018 NOSIG",
      "taf": "TAF UGKO 170500Z 1706/1806 25007KT 9999 SCT023 BKN050 TX12/1711Z TN03/1803Z"
    }
  ]
}