{
  "ts_utc": "2026-01-08T16:32:32Z",
  "threshold_m": 150,
  "source": "stations_override.txt (ICAO list) + aviationweather.gov (METAR/TAF raw)",
  "station_count": 159,
  "stations": [
    {
      "icao": "BIKF",
      "alert": "OK",
      "vis_m": 9999,
      "fzfg": false,
      "metar_trigger": false,
      "taf_trigger": false,
      "metar": "METAR BIKF 081600Z 04015KT CAVOK 01/M06 Q1000",
      "taf": "TAF BIKF 081330Z 0815/0915 05017KT 9999 FEW045 SCT055 TX02/0815Z TNM04/0910Z"
    },
    {
      "icao": "BKPR",
      "alert": "OK",
      "vis_m": 9999,
      "fzfg": false,
      "metar_trigger": false,
      "taf_trigger": false,
      "metar": "METAR BKPR 081630Z 31006KT 9999 SCT070 M04/M07 Q1010 NOSIG",
      "taf": "TAF BKPR 081130Z 0812/0912 35009KT 9999 FEW015 BKN040"
    },
    {
      "icao": "EBCI",
      "alert": "OK",
      "vis_m": 700,
      "fzfg": false,
      "metar_trigger": false,
      "taf_trigger": false,
      "metar": "METAR EBCI 081620Z 19007KT 0700 R24/1200U -RA FG SCT001 BKN002 03/02 Q1001 BECMG 2000 BR",
      "taf": ""
    },
    {
      "icao": "EDDB",
      "alert": "OK",
      "vis_m": 9000,
      "fzfg": false,
      "metar_trigger": false,
      "taf_trigger": false,
      "metar": "METAR EDDB 081620Z AUTO 12008KT 9000 -SN FEW019 SCT026 BKN033 M05/M07 Q1009 NOSIG",
      "taf": "TAF EDDB 081100Z 0812/0912 12008KT 9999 BKN025"
    },
    {
      "icao": "EDDH",
      "alert": "OK",
      "vis_m": 6000,
      "fzfg": false,
      "metar_trigger": false,
      "taf_trigger": false,
      "metar": "METAR EDDH 081620Z AUTO 13007KT 100V160 6000 VCSH BKN004 OVC009 FEW///TCU 00/M01 Q1005 REFZDZ BECMG BKN008",
      "taf": ""
    },
    {
      "icao": "EDDK",
      "alert": "OK",
      "vis_m": 9999,
      "fzfg": false,
      "metar_trigger": false,
      "taf_trigger": false,
      "metar": "METAR EDDK 081620Z AUTO 13008KT 9999 OVC023 02/00 Q1004 NOSIG",
      "taf": "TAF EDDK 081100Z 0812/0918 13006KT 9999 OVC040"
    },
    {
      "icao": "EDDN",
      "alert": "OK",
      "vis_m": 9999,
      "fzfg": false,
      "metar_trigger": false,
      "taf_trigger": false,
      "metar": "METAR EDDN 081620Z AUTO 13006KT 9999 OVC020 OVC045 00/M02 Q1008 NOSIG",
      "taf": "TAF EDDN 081100Z 0812/0912 14006KT 9999 BKN015"
    },
    {
      "icao": "EDDS",
      "alert": "OK",
      "vis_m": 7000,
      "fzfg": false,
      "metar_trigger": false,
      "taf_trigger": false,
      "metar": "METAR EDDS 081620Z AUTO 11002KT 7000 BKN016 OVC025 00/M00 Q1006 TEMPO 4500 BR",
      "taf": "TAF EDDS 081100Z 0812/0912 15004KT 9999 BKN020"
    },
    {
      "icao": "EDFH",
      "alert": "OK",
      "vis_m": 3000,
      "fzfg": false,
      "metar_trigger": false,
      "taf_trigger": false,
      "metar": "METAR EDFH 081620Z 15007KT 3000 -DZ BR SCT002 OVC005 00/M00 Q1003",
      "taf": "TAF EDFH 081100Z 0812/0912 22010KT 6000 OVC004"
    },
    {
      "icao": "EDJA",
      "alert": "OK",
      "vis_m": 9999,
      "fzfg": false,
      "metar_trigger": false,
      "taf_trigger": false,
      "metar": "METAR EDJA 081620Z 23014KT 9999 -SN SCT007 BKN009 OVC020 M00/M01 Q1007",
      "taf": "TAF EDJA 081400Z 0815/0824 23010KT 8000 SCT008 BKN025"
    },
    {
      "icao": "EDLW",
      "alert": "OK",
      "vis_m": 9999,
      "fzfg": false,
      "metar_trigger": false,
      "taf_trigger": false,
      "metar": "METAR EDLW 081620Z 14006KT 9999 FEW029 02/M00 Q1004",
      "taf": "TAF EDLW 081100Z 0812/0912 19011KT 9999 OVC040"
    },
    {
      "icao": "EDNY",
      "alert": "OK",
      "vis_m": 9999,
      "fzfg": false,
      "metar_trigger": false,
      "taf_trigger": false,
      "metar": "METAR EDNY 081620Z 08003KT 9999 OVC018 00/M00 Q1009",
      "taf": ""
    },
    {
      "icao": "EDSB",
      "alert": "OK",
      "vis_m": 9999,
      "fzfg": false,
      "metar_trigger": false,
      "taf_trigger": false,
      "metar": "METAR EDSB 081620Z 20009KT 9999 OVC022 03/03 Q1007",
      "taf": "TAF EDSB 081100Z 0812/0912 20010KT 9999 BKN025"
    },
    {
      "icao": "EETN",
      "alert": "OK",
      "vis_m": 9999,
      "fzfg": false,
      "metar_trigger": false,
      "taf_trigger": false,
      "metar": "METAR EETN 081620Z 09011KT 9999 OVC015 M07/M09 Q1020 TEMPO OVC012",
      "taf": "TAF EETN 081130Z 0812/0912 10006KT 9999 OVC020"
    },
    {
      "icao": "EFTU",
      "alert": "OK",
      "vis_m": 9999,
      "fzfg": false,
      "metar_trigger": false,
      "taf_trigger": false,
      "metar": "METAR EFTU 081620Z AUTO 10009KT 9999 BKN025 M11/M14 Q1021",
      "taf": "TAF EFTU 081429Z 0815/0915 09007KT 9999 BKN023"
    },
    {
      "icao": "EGBB",
      "alert": "OK",
      "vis_m": 3000,
      "fzfg": false,
      "metar_trigger": false,
      "taf_trigger": false,
      "metar": "METAR EGBB 081620Z 10010KT 3000 RA OVC003 03/02 Q0993",
      "taf": ""
    },
    {
      "icao": "EGGP",
      "alert": "OK",
      "vis_m": 9999,
      "fzfg": false,
      "metar_trigger": false,
      "taf_trigger": false,
      "metar": "METAR EGGP 081620Z 07010KT 9999 BKN010 BKN014 03/02 Q0993",
      "taf": "TAF EGGP 081104Z 0812/0912 12007KT 9999 FEW010"
    },
    {
      "icao": "EGGW",
      "alert": "OK",
      "vis_m": 800,
      "fzfg": false,
      "metar_trigger": false,
      "taf_trigger": false,
      "metar": "METAR EGGW 081620Z AUTO 11009KT 0800 R07/1500N -RA FG OVC001/// //////TCU 03/02 Q0994",
      "taf": ""
    },
    {
      "icao": "EGKK",
      "alert": "OK",
      "vis_m": 6000,
      "fzfg": false,
      "metar_trigger": false,
      "taf_trigger": false,
      "metar": "METAR EGKK 081620Z 08007KT 6000 -RA FEW007 SCT019 BKN026 05/05 Q0994",
      "taf": "TAF EGKK 081058Z 0812/0918 17004KT 9999 SCT007 BKN040"
    },
    {
      "icao": "EGNM",
      "alert": "OK",
      "vis_m": 9000,
      "fzfg": false,
      "metar_trigger": false,
      "taf_trigger": false,
      "metar": "METAR EGNM 081620Z 03003KT 9000 SCT011 SCT025 M01/M02 Q0995",
      "taf": ""
    },
    {
      "icao": "EGPD",
      "alert": "OK",
      "vis_m": 9999,
      "fzfg": false,
      "metar_trigger": false,
      "taf_trigger": false,
      "metar": "METAR EGPD 081620Z COR AUTO VRB02KT 9999 NCD M02/M04 Q0998 NOSIG",
      "taf": "TAF EGPD 081057Z 0812/0912 19005KT 9999 FEW006"
    },
    {
      "icao": "EGPF",
      "alert": "OK",
      "vis_m": 6000,
      "fzfg": false,
      "metar_trigger": false,
      "taf_trigger": false,
      "metar": "METAR EGPF 081620Z 03004KT 350V050 6000 -RADZ OVC007 01/00 Q0997",
      "taf": ""
    },
    {
      "icao": "EHBK",
      "alert": "OK",
      "vis_m": 9999,
      "fzfg": false,
      "metar_trigger": false,
      "taf_trigger": false,
      "metar": "METAR EHBK 081625Z AUTO 14006KT 9999 OVC015/// 02/02 Q1002 NOSIG",
      "taf": "TAF EHBK 081120Z 0812/0918 18007KT CAVOK"
    },
    {
      "icao": "EHEH",
      "alert": "OK",
      "vis_m": 6000,
      "fzfg": false,
      "metar_trigger": false,
      "taf_trigger": false,
      "metar": "METAR EHEH 081625Z AUTO 13005KT 110V210 6000 BR SCT003 SCT004 OVC006 02/02 Q1002 YLO TEMPO 3000 BR SCT003 BKN005",
      "taf": "TAF EHEH 081158Z 0812/0918 20007KT 6000 BKN006"
    },
    {
      "icao": "EKBI",
      "alert": "OK",
      "vis_m": 7000,
      "fzfg": false,
      "metar_trigger": false,
      "taf_trigger": false,
      "metar": "METAR EKBI 081620Z AUTO 09008KT 7000 FEW006/// OVC016/// M01/M02 Q1006",
      "taf": "TAF EKBI 081427Z 0815/0915 11008KT 6000 BKN003"
    },
    {
      "icao": "EKCH",
      "alert": "OK",
      "vis_m": 9999,
      "fzfg": false,
      "metar_trigger": false,
      "taf_trigger": false,
      "metar": "METAR EKCH 081620Z AUTO 11014KT 9999 OVC020/// M01/M05 Q1010 NOSIG",
      "taf": "TAF EKCH 081427Z 0815/0915 16015KT 9999 BKN020"
    },
    {
      "icao": "ENAL",
      "alert": "OK",
      "vis_m": 9999,
      "fzfg": false,
      "metar_trigger": false,
      "taf_trigger": false,
      "metar": "METAR ENAL 081620Z 20007KT 9999 -SN SCT015 BKN025 M02/M04 Q1004",
      "taf": "TAF ENAL 081400Z 0815/0824 19010KT 8000 -SN SCT010 BKN020"
    },
    {
      "icao": "ENBR",
      "alert": "OK",
      "vis_m": 9999,
      "fzfg": false,
      "metar_trigger": false,
      "taf_trigger": false,
      "metar": "METAR ENBR 081620Z 08004KT CAVOK M08/M16 Q1006 NOSIG RMK WIND 1200FT 12014KT",
      "taf": "TAF ENBR 081100Z 0812/0912 10005KT CAVOK"
    },
    {
      "icao": "ENGM",
      "alert": "OK",
      "vis_m": 9999,
      "fzfg": false,
      "metar_trigger": false,
      "taf_trigger": false,
      "metar": "METAR ENGM 081620Z 36003KT 9999 FEW001 M15/M16 Q1009 NOSIG",
      "taf": "TAF ENGM 081100Z 0812/0912 20005KT 9999 FEW003"
    },
    {
      "icao": "ENHD",
      "alert": "OK",
      "vis_m": 9999,
      "fzfg": false,
      "metar_trigger": false,
      "taf_trigger": false,
      "metar": "METAR ENHD 081620Z 09010KT CAVOK M05/M11 Q1005",
      "taf": "TAF ENHD 081400Z 0815/0823 09007KT CAVOK"
    },
    {
      "icao": "ENTC",
      "alert": "OK",
      "vis_m": 9999,
      "fzfg": false,
      "metar_trigger": false,
      "taf_trigger": false,
      "metar": "METAR ENTC 081620Z 05003KT 330V090 CAVOK M12/M15 Q1023 NOSIG RMK WIND 2600FT 17024KT",
      "taf": ""
    },
    {
      "icao": "ENTO",
      "alert": "OK",
      "vis_m": 9999,
      "fzfg": false,
      "metar_trigger": false,
      "taf_trigger": false,
      "metar": "METAR ENTO 081620Z 34004KT CAVOK M10/M15 Q1009 NOSIG",
      "taf": "TAF ENTO 081100Z 0812/0912 35005KT CAVOK"
    },
    {
      "icao": "ENVA",
      "alert": "OK",
      "vis_m": 9999,
      "fzfg": false,
      "metar_trigger": false,
      "taf_trigger": false,
      "metar": "METAR ENVA 081620Z 23004KT 9999 FEW033 SCT042 M05/M08 Q1004 BECMG 14010KT RMK WIND 670FT 24008KT",
      "taf": "TAF ENVA 081100Z 0812/0912 07012KT 9999 SCT050"
    },
    {
      "icao": "ENZV",
      "alert": "OK",
      "vis_m": 9999,
      "fzfg": false,
      "metar_trigger": false,
      "taf_trigger": false,
      "metar": "METAR ENZV 081620Z VRB01KT CAVOK M06/M11 Q1005 NOSIG",
      "taf": "TAF ENZV 081100Z 0812/0912 10008KT CAVOK"
    },
    {
      "icao": "EPGD",
      "alert": "OK",
      "vis_m": 9999,
      "fzfg": false,
      "metar_trigger": false,
      "taf_trigger": false,
      "metar": "METAR EPGD 081600Z 06002KT CAVOK M07/M08 Q1012",
      "taf": ""
    },
    {
      "icao": "EPKK",
      "alert": "OK",
      "vis_m": 8000,
      "fzfg": false,
      "metar_trigger": false,
      "taf_trigger": false,
      "metar": "METAR EPKK 081600Z 26005KT 230V290 8000 SCT015 BKN018 M05/M07 Q1009",
      "taf": "TAF EPKK 081430Z 0815/0915 27010KT 7000 -SN BKN020"
    },
    {
      "icao": "EPKT",
      "alert": "OK",
      "vis_m": 5000,
      "fzfg": false,
      "metar_trigger": false,
      "taf_trigger": false,
      "metar": "METAR EPKT 081600Z 30006KT 5000 -SN BR OVC006 M06/M07 Q1009",
      "taf": ""
    },
    {
      "icao": "EPLB",
      "alert": "OK",
      "vis_m": 3400,
      "fzfg": false,
      "metar_trigger": false,
      "taf_trigger": false,
      "metar": "METAR EPLB 081600Z 33010KT 3400 -SN DRSN BR OVC048 M06/M08 Q1005",
      "taf": "TAF EPLB 081130Z 0812/0912 01010KT 2500 -SN BR FEW009 OVC018"
    },
    {
      "icao": "EPMO",
      "alert": "OK",
      "vis_m": 5000,
      "fzfg": false,
      "metar_trigger": false,
      "taf_trigger": false,
      "metar": "METAR EPMO 081600Z 33006KT 5000 BR OVC008 M09/M09 Q1010",
      "taf": "TAF EPMO 081130Z 0812/0912 36005KT 2500 BR NSC"
    },
    {
      "icao": "EPPO",
      "alert": "OK",
      "vis_m": 3000,
      "fzfg": false,
      "metar_trigger": false,
      "taf_trigger": false,
      "metar": "METAR EPPO 081600Z 08003KT 050V110 3000 BR OVC005 M08/M10 Q1012",
      "taf": "TAF EPPO 081130Z 0812/0912 07003KT 4000 BR OVC006"
    },
    {
      "icao": "EPRA",
      "alert": "OK",
      "vis_m": 4000,
      "fzfg": false,
      "metar_trigger": false,
      "taf_trigger": false,
      "metar": "METAR EPRA 081600Z 33009KT 4000 BR BKN008 M08/M09 Q1008",
      "taf": "TAF EPRA 081430Z 0815/0824 33010KT 3000 BR BKN007 OVC040"
    },
    {
      "icao": "EPRZ",
      "alert": "OK",
      "vis_m": 1300,
      "fzfg": false,
      "metar_trigger": false,
      "taf_trigger": false,
      "metar": "METAR EPRZ 081600Z 30008KT 1300 R27/P2000N SN BR OVC013 M05/M07 Q1005",
      "taf": ""
    },
    {
      "icao": "EPSC",
      "alert": "OK",
      "vis_m": 8000,
      "fzfg": false,
      "metar_trigger": false,
      "taf_trigger": false,
      "metar": "METAR EPSC 081600Z 11008KT 8000 NSC M08/M09 Q1011",
      "taf": "TAF EPSC 081130Z 0812/0912 13010KT 8000 SCT005"
    },
    {
      "icao": "EPSY",
      "alert": "OK",
      "vis_m": 7000,
      "fzfg": false,
      "metar_trigger": false,
      "taf_trigger": false,
      "metar": "METAR EPSY 081600Z 02007KT 7000 OVC006 M08/M09 Q1010",
      "taf": "TAF EPSY 081430Z 0815/0824 02008KT 8000 OVC006"
    },
    {
      "icao": "EPWA",
      "alert": "OK",
      "vis_m": 6000,
      "fzfg": false,
      "metar_trigger": false,
      "taf_trigger": false,
      "metar": "METAR EPWA 081600Z 34010KT 6000 BKN008 M07/M09 Q1009 BECMG 4000 BR",
      "taf": ""
    },
    {
      "icao": "EPWR",
      "alert": "OK",
      "vis_m": 6000,
      "fzfg": false,
      "metar_trigger": false,
      "taf_trigger": false,
      "metar": "METAR EPWR 081600Z 07003KT 6000 NSC M07/M09 Q1011",
      "taf": "TAF EPWR 081430Z 0815/0915 VRB02KT 8000 SCT020"
    },
    {
      "icao": "ESGG",
      "alert": "OK",
      "vis_m": 9999,
      "fzfg": false,
      "metar_trigger": false,
      "taf_trigger": false,
      "metar": "METAR ESGG 081620Z 14008KT 9999 BKN019 M03/M06 Q1010",
      "taf": ""
    },
    {
      "icao": "ESKN",
      "alert": "OK",
      "vis_m": 9999,
      "fzfg": false,
      "metar_trigger": false,
      "taf_trigger": false,
      "metar": "METAR ESKN 081620Z 00000KT 9999 0500W R08/1400D R26/P2000N BCFG BKN046 M03/M04 Q1014",
      "taf": "TAF ESKN 081430Z 0815/0915 18005KT 9999 SCT030"
    },
    {
      "icao": "ESMS",
      "alert": "OK",
      "vis_m": 9999,
      "fzfg": false,
      "metar_trigger": false,
      "taf_trigger": false,
      "metar": "METAR ESMS 081620Z 12009KT 9999 BKN020 M02/M06 Q1010",
      "taf": "TAF ESMS 081427Z 0815/0915 16010KT 9999 SCT018"
    },
    {
      "icao": "ESSA",
      "alert": "OK",
      "vis_m": 9999,
      "fzfg": false,
      "metar_trigger": false,
      "taf_trigger": false,
      "metar": "METAR ESSA 081620Z 16011KT CAVOK M01/M07 Q1015 NOSIG",
      "taf": "TAF ESSA 081430Z 0815/0915 16010KT 9999 BKN040"
    },
    {
      "icao": "EYKA",
      "alert": "OK",
      "vis_m": 9999,
      "fzfg": false,
      "metar_trigger": false,
      "taf_trigger": false,
      "metar": "METAR EYKA 081620Z 36012KT 320V040 9999 OVC011 M09/M10 Q1012",
      "taf": "TAF EYKA 081100Z 0812/0912 VRB05KT 7000 OVC005"
    },
    {
      "icao": "EYPA",
      "alert": "OK",
      "vis_m": 9999,
      "fzfg": false,
      "metar_trigger": false,
      "taf_trigger": false,
      "metar": "METAR EYPA 081620Z 07006KT CAVOK M13/M14 Q1015",
      "taf": "TAF EYPA 081100Z 0812/0912 VRB04KT 6000 NSC"
    },
    {
      "icao": "EYVI",
      "alert": "OK",
      "vis_m": 9999,
      "fzfg": false,
      "metar_trigger": false,
      "taf_trigger": false,
      "metar": "METAR EYVI 081620Z 02015KT 9999 BKN008 M09/M10 Q1008 NOSIG",
      "taf": "TAF EYVI 081100Z 0812/0912 03013KT 6000 BKN010"
    },
    {
      "icao": "GCFV",
      "alert": "OK",
      "vis_m": 9999,
      "fzfg": false,
      "metar_trigger": false,
      "taf_trigger": false,
      "metar": "METAR GCFV 081600Z 05005KT 010V080 9999 FEW035 19/11 Q1029",
      "taf": "TAF GCFV 081400Z 0815/0915 05011KT 9999 FEW030 TX20/0914Z TN14/0906Z"
    },
    {
      "icao": "GCLP",
      "alert": "OK",
      "vis_m": 9999,
      "fzfg": false,
      "metar_trigger": false,
      "taf_trigger": false,
      "metar": "METAR GCLP 081600Z 06009KT 9999 SCT035 20/11 Q1029 NOSIG",
      "taf": "TAF GCLP 081400Z 0815/0915 07010KT 9999 BKN035 TX20/0914Z TN14/0906Z"
    },
    {
      "icao": "GCTS",
      "alert": "OK",
      "vis_m": 9999,
      "fzfg": false,
      "metar_trigger": false,
      "taf_trigger": false,
      "metar": "METAR GCTS 081600Z 09021KT 050V120 9999 FEW030 20/11 Q1029 NOSIG",
      "taf": "TAF GCTS 081400Z 0815/0915 08020KT 9999 SCT035 TX22/0914Z TN15/0906Z"
    },
    {
      "icao": "GMAD",
      "alert": "OK",
      "vis_m": 9999,
      "fzfg": false,
      "metar_trigger": false,
      "taf_trigger": false,
      "metar": "METAR GMAD 081600Z 25009KT CAVOK 18/05 Q1029 NOSIG",
      "taf": "TAF GMAD 081100Z 0812/0918 26008KT CAVOK"
    },
    {
      "icao": "GMMN",
      "alert": "OK",
      "vis_m": 9999,
      "fzfg": false,
      "metar_trigger": false,
      "taf_trigger": false,
      "metar": "METAR GMMN 081600Z 01009KT CAVOK 15/09 Q1031 NOSIG",
      "taf": "TAF GMMN 081100Z 0812/0918 12004KT CAVOK"
    },
    {
      "icao": "GMMX",
      "alert": "OK",
      "vis_m": 9999,
      "fzfg": false,
      "metar_trigger": false,
      "taf_trigger": false,
      "metar": "METAR GMMX 081600Z 02005KT 340V050 CAVOK 17/04 Q1029 NOSIG",
      "taf": "TAF GMMX 081100Z 0812/0918 06006KT 8000 NSC"
    },
    {
      "icao": "HEGN",
      "alert": "OK",
      "vis_m": 9999,
      "fzfg": false,
      "metar_trigger": false,
      "taf_trigger": false,
      "metar": "METAR HEGN 081600Z 15002KT CAVOK 23/17 Q1016 NOSIG",
      "taf": "TAF HEGN 081100Z 0812/0918 05008KT CAVOK"
    },
    {
      "icao": "HEMA",
      "alert": "OK",
      "vis_m": 6000,
      "fzfg": false,
      "metar_trigger": false,
      "taf_trigger": false,
      "metar": "METAR HEMA 081600Z 01007KT 6000 NSC 23/19 Q1016 NOSIG",
      "taf": "TAF HEMA 081100Z 0812/0918 01012KT 6000 NSC"
    },
    {
      "icao": "HESH",
      "alert": "OK",
      "vis_m": 9999,
      "fzfg": false,
      "metar_trigger": false,
      "taf_trigger": false,
      "metar": "METAR HESH 081600Z 00000KT CAVOK 26/13 Q1016 NOSIG",
      "taf": "TAF HESH 081100Z 0812/0918 08010KT CAVOK"
    },
    {
      "icao": "HESX",
      "alert": "OK",
      "vis_m": 9999,
      "fzfg": false,
      "metar_trigger": false,
      "taf_trigger": false,
      "metar": "METAR HESX 081600Z 24010KT CAVOK 23/03 Q1016 NOSIG",
      "taf": "TAF HESX 081100Z 0812/0918 21010KT 9999 SCT025"
    },
    {
      "icao": "LATI",
      "alert": "OK",
      "vis_m": 9999,
      "fzfg": false,
      "metar_trigger": false,
      "taf_trigger": false,
      "metar": "METAR LATI 081620Z VRB03KT 9999 -RA SCT040 BKN064 06/01 Q1011 NOSIG",
      "taf": "TAF LATI 081100Z 0812/0912 29013KT 9999 -RA FEW030TCU BKN070 TX09/0912Z TN01/0905Z"
    },
    {
      "icao": "LBPD",
      "alert": "OK",
      "vis_m": 9999,
      "fzfg": false,
      "metar_trigger": false,
      "taf_trigger": false,
      "metar": "METAR LBPD 081630Z AUTO 28026KT 9999 BKN071/// 01/M06 Q1004 NOSIG",
      "taf": "TAF LBPD 081100Z 0812/0912 29024G36KT 9999 BKN040"
    },
    {
      "icao": "LBSF",
      "alert": "OK",
      "vis_m": 9999,
      "fzfg": false,
      "metar_trigger": false,
      "taf_trigger": false,
      "metar": "METAR LBSF 081630Z AUTO 29018G29KT 9999 -SN BKN024/// OVC030/// M04/M07 Q1007 NOSIG",
      "taf": "TAF LBSF 081100Z 0812/0912 29024G36KT 5000 -SN SCT020 BKN040 OVC060"
    },
    {
      "icao": "LBWN",
      "alert": "OK",
      "vis_m": 9999,
      "fzfg": false,
      "metar_trigger": false,
      "taf_trigger": false,
      "metar": "METAR LBWN 081630Z 28026KT 9999 BLSN BKN021 M00/M04 Q1000 NOSIG",
      "taf": ""
    },
    {
      "icao": "LCLK",
      "alert": "OK",
      "vis_m": 9999,
      "fzfg": false,
      "metar_trigger": false,
      "taf_trigger": false,
      "metar": "METAR LCLK 081600Z 18008KT CAVOK 20/17 Q1012 NOSIG",
      "taf": "TAF LCLK 081130Z 0812/0912 12010KT 9999 FEW025"
    },
    {
      "icao": "LCPH",
      "alert": "OK",
      "vis_m": 9999,
      "fzfg": false,
      "metar_trigger": false,
      "taf_trigger": false,
      "metar": "METAR LCPH 081600Z 15005KT CAVOK 19/16 Q1012 NOSIG",
      "taf": "TAF LCPH 081130Z 0812/0912 14016KT 9999 FEW025"
    },
    {
      "icao": "LEAL",
      "alert": "OK",
      "vis_m": 9999,
      "fzfg": false,
      "metar_trigger": false,
      "taf_trigger": false,
      "metar": "METAR LEAL 081600Z 23009KT 200V270 CAVOK 18/04 Q1025 NOSIG",
      "taf": "TAF LEAL 081100Z 0812/0912 26015KT CAVOK TX16/0814Z TN10/0906Z"
    },
    {
      "icao": "LEBB",
      "alert": "OK",
      "vis_m": 9999,
      "fzfg": false,
      "metar_trigger": false,
      "taf_trigger": false,
      "metar": "METAR LEBB 081600Z 20018G32KT 160V270 CAVOK 14/05 Q1017 NOSIG",
      "taf": "TAF LEBB 081100Z 0812/0912 22009KT 9999 FEW040 TX13/0814Z TN06/0905Z"
    },
    {
      "icao": "LEBL",
      "alert": "OK",
      "vis_m": 9999,
      "fzfg": false,
      "metar_trigger": false,
      "taf_trigger": false,
      "metar": "METAR LEBL 081600Z 29013KT 240V330 9999 FEW035 SCT060 15/06 Q1019 NOSIG",
      "taf": "TAF LEBL 081100Z 0812/0912 33009KT 9999 FEW020 TX15/0813Z TN09/0906Z"
    },
    {
      "icao": "LECH",
      "alert": "OK",
      "vis_m": 9999,
      "fzfg": false,
      "metar_trigger": false,
      "taf_trigger": false,
      "metar": "METAR LECH 081600Z AUTO 18004KT CAVOK 16/05 Q1021",
      "taf": ""
    },
    {
      "icao": "LEMD",
      "alert": "OK",
      "vis_m": 9999,
      "fzfg": false,
      "metar_trigger": false,
      "taf_trigger": false,
      "metar": "METAR LEMD 081600Z 21007KT 190V250 9999 OVC010 04/03 Q1028 NOSIG",
      "taf": "TAF LEMD 081100Z 0812/0918 VRB03KT 6000 BKN005 TX11/0915Z TN03/0812Z"
    },
    {
      "icao": "LEMG",
      "alert": "OK",
      "vis_m": 9999,
      "fzfg": false,
      "metar_trigger": false,
      "taf_trigger": false,
      "metar": "METAR LEMG 081600Z 28007KT 250V310 CAVOK 16/06 Q1029 NOSIG",
      "taf": "TAF LEMG 081100Z 0812/0912 29012KT CAVOK TX16/0814Z TN08/0906Z"
    },
    {
      "icao": "LEVC",
      "alert": "OK",
      "vis_m": 9999,
      "fzfg": false,
      "metar_trigger": false,
      "taf_trigger": false,
      "metar": "METAR LEVC 081600Z 23021KT CAVOK 12/03 Q1023 NOSIG",
      "taf": "TAF LEVC 081100Z 0812/0912 26018KT CAVOK TX14/0814Z TN09/0906Z"
    },
    {
      "icao": "LEXJ",
      "alert": "OK",
      "vis_m": 9999,
      "fzfg": false,
      "metar_trigger": false,
      "taf_trigger": false,
      "metar": "METAR LEXJ 081600Z 23010KT 180V290 CAVOK 14/04 Q1016",
      "taf": ""
    },
    {
      "icao": "LEZG",
      "alert": "OK",
      "vis_m": 9999,
      "fzfg": false,
      "metar_trigger": false,
      "taf_trigger": false,
      "metar": "METAR LEZG 081600Z 24015G25KT 220V280 CAVOK 12/04 Q1021 NOSIG",
      "taf": ""
    },
    {
      "icao": "LEZL",
      "alert": "OK",
      "vis_m": 9999,
      "fzfg": false,
      "metar_trigger": false,
      "taf_trigger": false,
      "metar": "METAR LEZL 081600Z VRB02KT 9999 FEW022 12/07 Q1031 NOSIG",
      "taf": "TAF LEZL 081400Z 0815/0915 VRB03KT 9999 SCT020 TX14/0815Z TN09/0907Z"
    },
    {
      "icao": "LFBD",
      "alert": "OK",
      "vis_m": 9999,
      "fzfg": false,
      "metar_trigger": false,
      "taf_trigger": false,
      "metar": "METAR LFBD 081600Z AUTO 26012KT 9999 SCT029 BKN036 BKN046 13/10 Q1014 TEMPO 27015G25KT 4000 -RA BKN008 OVC025",
      "taf": "TAF LFBD 081100Z 0812/0918 26010KT 9999 BKN025 TX13/0814Z TN08/0906Z"
    },
    {
      "icao": "LFLL",
      "alert": "OK",
      "vis_m": 9999,
      "fzfg": false,
      "metar_trigger": false,
      "taf_trigger": false,
      "metar": "METAR LFLL 081600Z 17009KT 9999 BKN043 05/03 Q1012 NOSIG",
      "taf": "TAF LFLL 081100Z 0812/0918 17008KT 9999 BKN030"
    },
    {
      "icao": "LFLS",
      "alert": "OK",
      "vis_m": 9999,
      "fzfg": false,
      "metar_trigger": false,
      "taf_trigger": false,
      "metar": "METAR LFLS 081600Z AUTO 08010KT 9999 FEW004 BKN035 OVC046 02/02 Q1014",
      "taf": ""
    },
    {
      "icao": "LFMN",
      "alert": "OK",
      "vis_m": 9999,
      "fzfg": false,
      "metar_trigger": false,
      "taf_trigger": false,
      "metar": "METAR LFMN 081600Z 08008KT 9999 FEW050 BKN260 11/05 Q1011 NOSIG",
      "taf": "TAF LFMN 081400Z 0815/0921 08010KT 9999 FEW050"
    },
    {
      "icao": "LFOB",
      "alert": "OK",
      "vis_m": 5000,
      "fzfg": false,
      "metar_trigger": false,
      "taf_trigger": false,
      "metar": "METAR LFOB 081600Z AUTO 15006KT 5000 -RA BR BKN004 OVC010 05/05 Q1000 TEMPO RA BKN007 OVC011 BECMG 22012KT",
      "taf": ""
    },
    {
      "icao": "LFPO",
      "alert": "OK",
      "vis_m": 4000,
      "fzfg": false,
      "metar_trigger": false,
      "taf_trigger": false,
      "metar": "METAR LFPO 081600Z 20008KT 4000 -RA BKN003 SCT010 07/07 Q1002 NOSIG",
      "taf": ""
    },
    {
      "icao": "LFSB",
      "alert": "OK",
      "vis_m": 6000,
      "fzfg": false,
      "metar_trigger": false,
      "taf_trigger": false,
      "metar": "METAR LFSB 081600Z AUTO 19003KT 150V220 6000 -RA BKN014/// BKN021/// OVC027/// ///CB 02/01 Q1008 TEMPO 4000 RA BECMG SCT015 OVC025",
      "taf": ""
    },
    {
      "icao": "LGAV",
      "alert": "OK",
      "vis_m": 9999,
      "fzfg": false,
      "metar_trigger": false,
      "taf_trigger": false,
      "metar": "METAR LGAV 081620Z 28017KT 260V320 9999 FEW025 12/M02 Q1009 NOSIG",
      "taf": "TAF LGAV 081100Z 0812/0912 26012KT 9999 FEW020 SCT030"
    },
    {
      "icao": "LGTS",
      "alert": "OK",
      "vis_m": 9999,
      "fzfg": false,
      "metar_trigger": false,
      "taf_trigger": false,
      "metar": "METAR LGTS 081620Z 32015KT 9999 FEW025 06/M02 Q1007 NOSIG",
      "taf": ""
    },
    {
      "icao": "LHBP",
      "alert": "OK",
      "vis_m": 9999,
      "fzfg": false,
      "metar_trigger": false,
      "taf_trigger": false,
      "metar": "METAR LHBP 081630Z 29008KT CAVOK M04/M09 Q1009 NOSIG",
      "taf": "TAF LHBP 081115Z 0812/0912 30012KT CAVOK"
    },
    {
      "icao": "LHDC",
      "alert": "OK",
      "vis_m": 8000,
      "fzfg": false,
      "metar_trigger": false,
      "taf_trigger": false,
      "metar": "METAR LHDC 081545Z AUTO 20005KT 8000 FEW035 BKN071 M06/M08 Q1007 NOSIG",
      "taf": "TAF LHDC 081415Z 0815/0824 25005KT 7000 NSC"
    },
    {
      "icao": "LIBD",
      "alert": "OK",
      "vis_m": 9999,
      "fzfg": false,
      "metar_trigger": false,
      "taf_trigger": false,
      "metar": "METAR LIBD 081620Z 27007KT 9999 FEW020 06/M00 Q1015",
      "taf": "TAF LIBD 081100Z 0812/0912 28020G30KT 9999 SCT010 SCT030"
    },
    {
      "icao": "LIBG",
      "alert": "OK",
      "vis_m": 9999,
      "fzfg": false,
      "metar_trigger": false,
      "taf_trigger": false,
      "metar": "METAR LIBG 081550Z 30008KT 250V320 CAVOK 07/M00 Q1015",
      "taf": "TAF LIBG 081400Z 0815/0824 32015KT 9999 FEW040"
    },
    {
      "icao": "LIBP",
      "alert": "OK",
      "vis_m": 9999,
      "fzfg": false,
      "metar_trigger": false,
      "taf_trigger": false,
      "metar": "METAR LIBP 081620Z AUTO 11005KT 060V150 9999 FEW230/// 06/M04 Q1015",
      "taf": "TAF LIBP 081100Z 0812/0912 23006KT 9999 SCT030"
    },
    {
      "icao": "LIBR",
      "alert": "OK",
      "vis_m": 9999,
      "fzfg": false,
      "metar_trigger": false,
      "taf_trigger": false,
      "metar": "METAR LIBR 081620Z 28016KT 9999 FEW040 08/M00 Q1014",
      "taf": "TAF LIBR 081100Z 0812/0912 31022G33KT 9999 SCT030"
    },
    {
      "icao": "LICA",
      "alert": "OK",
      "vis_m": 9999,
      "fzfg": false,
      "metar_trigger": false,
      "taf_trigger": false,
      "metar": "METAR LICA 081620Z AUTO 30010KT 9999 SCT048/// 10/04 Q1017",
      "taf": "TAF LICA 081100Z 0812/0912 29015KT 9999 SCT030"
    },
    {
      "icao": "LICC",
      "alert": "OK",
      "vis_m": 9999,
      "fzfg": false,
      "metar_trigger": false,
      "taf_trigger": false,
      "metar": "METAR LICC 081620Z 24011KT 9999 FEW050 13/08 Q1017",
      "taf": "TAF LICC 081100Z 0812/0912 27016KT 9999 SCT050"
    },
    {
      "icao": "LICJ",
      "alert": "OK",
      "vis_m": 9999,
      "fzfg": false,
      "metar_trigger": false,
      "taf_trigger": false,
      "metar": "METAR LICJ 081550Z 27018KT 9999 SCT040 SCT070 15/09 Q1019",
      "taf": "TAF LICJ 081100Z 0812/0912 29025G35KT 9999 SCT040"
    },
    {
      "icao": "LIMC",
      "alert": "OK",
      "vis_m": 9999,
      "fzfg": false,
      "metar_trigger": false,
      "taf_trigger": false,
      "metar": "METAR LIMC 081620Z VRB01KT CAVOK 05/M06 Q1011 NOSIG",
      "taf": "TAF LIMC 081100Z 0812/0918 VRB04KT 9999 BKN050"
    },
    {
      "icao": "LIME",
      "alert": "OK",
      "vis_m": 9999,
      "fzfg": false,
      "metar_trigger": false,
      "taf_trigger": false,
      "metar": "METAR LIME 081620Z 19003KT CAVOK 03/M05 Q1011 NOSIG",
      "taf": "TAF LIME 081100Z 0812/0912 VRB04KT 9999 SCT050"
    },
    {
      "icao": "LIMF",
      "alert": "OK",
      "vis_m": 8000,
      "fzfg": false,
      "metar_trigger": false,
      "taf_trigger": false,
      "metar": "METAR LIMF 081620Z 07003KT 8000 NSC 03/M07 Q1011",
      "taf": ""
    },
    {
      "icao": "LIMJ",
      "alert": "OK",
      "vis_m": 9999,
      "fzfg": false,
      "metar_trigger": false,
      "taf_trigger": false,
      "metar": "METAR LIMJ 081620Z 16009KT 9999 BKN030 BKN040 11/04 Q1012",
      "taf": "TAF LIMJ 081100Z 0812/0912 14010KT 9999 BKN020"
    },
    {
      "icao": "LIPE",
      "alert": "OK",
      "vis_m": 9999,
      "fzfg": false,
      "metar_trigger": false,
      "taf_trigger": false,
      "metar": "METAR LIPE 081620Z VRB01KT CAVOK 00/M04 Q1012",
      "taf": "TAF LIPE 081100Z 0812/0912 VRB05KT 9999 FEW030"
    },
    {
      "icao": "LIPH",
      "alert": "OK",
      "vis_m": 9999,
      "fzfg": false,
      "metar_trigger": false,
      "taf_trigger": false,
      "metar": "METAR LIPH 081620Z VRB01KT CAVOK 01/M06 Q1013",
      "taf": "TAF LIPH 081100Z 0812/0912 VRB05KT CAVOK"
    },
    {
      "icao": "LIPQ",
      "alert": "OK",
      "vis_m": 9999,
      "fzfg": false,
      "metar_trigger": false,
      "taf_trigger": false,
      "metar": "METAR LIPQ 081620Z AUTO 36002KT 9999 NCD 01/M04 Q1013",
      "taf": "TAF LIPQ 081100Z 0812/0912 VRB05KT 9999 SCT070"
    },
    {
      "icao": "LIPR",
      "alert": "OK",
      "vis_m": 9999,
      "fzfg": false,
      "metar_trigger": false,
      "taf_trigger": false,
      "metar": "METAR LIPR 081620Z 12003KT CAVOK 02/M02 Q1013",
      "taf": "TAF LIPR 081100Z 0812/0912 VRB06KT 9999 SCT030"
    },
    {
      "icao": "LIPX",
      "alert": "OK",
      "vis_m": 8000,
      "fzfg": false,
      "metar_trigger": false,
      "taf_trigger": false,
      "metar": "METAR LIPX 081620Z 10003KT 8000 NSC 00/M02 Q1012",
      "taf": "TAF LIPX 081100Z 0812/0912 VRB05KT 9999 SCT040"
    },
    {
      "icao": "LIPY",
      "alert": "OK",
      "vis_m": 9999,
      "fzfg": false,
      "metar_trigger": false,
      "taf_trigger": false,
      "metar": "METAR LIPY 081620Z AUTO 14003KT 9999 FEW053/// 04/M01 Q1014",
      "taf": "TAF LIPY 081100Z 0812/0912 23006KT 9999 SCT030"
    },
    {
      "icao": "LIPZ",
      "alert": "OK",
      "vis_m": 9999,
      "fzfg": false,
      "metar_trigger": false,
      "taf_trigger": false,
      "metar": "METAR LIPZ 081620Z VRB01KT CAVOK 00/M05 Q1013 NOSIG",
      "taf": "TAF LIPZ 081100Z 0812/0918 VRB05KT CAVOK"
    },
    {
      "icao": "LIRF",
      "alert": "OK",
      "vis_m": 9999,
      "fzfg": false,
      "metar_trigger": false,
      "taf_trigger": false,
      "metar": "METAR LIRF 081620Z 09005KT 9999 FEW055 08/01 Q1015 NOSIG",
      "taf": "TAF LIRF 081100Z 0812/0918 08006KT 9999 SCT045"
    },
    {
      "icao": "LIRN",
      "alert": "OK",
      "vis_m": 9999,
      "fzfg": false,
      "metar_trigger": false,
      "taf_trigger": false,
      "metar": "METAR LIRN 081620Z VRB01KT CAVOK 08/M00 Q1016 NOSIG",
      "taf": "TAF LIRN 081100Z 0812/0912 VRB05KT 9999 SCT040"
    },
    {
      "icao": "LIRP",
      "alert": "OK",
      "vis_m": 9999,
      "fzfg": false,
      "metar_trigger": false,
      "taf_trigger": false,
      "metar": "METAR LIRP 081615Z 10008KT 9999 SCT030 BKN040 06/01 Q1013 NOSIG",
      "taf": "TAF LIRP 081100Z 0812/0912 11010KT 9999 FEW030"
    },
    {
      "icao": "LIRZ",
      "alert": "OK",
      "vis_m": 9999,
      "fzfg": false,
      "metar_trigger": false,
      "taf_trigger": false,
      "metar": "METAR LIRZ 081620Z AUTO 36003KT 9999 OVC026/// 02/M02 Q1015",
      "taf": "TAF LIRZ 081100Z 0812/0912 VRB05KT 9999 BKN040"
    },
    {
      "icao": "LJLJ",
      "alert": "OK",
      "vis_m": 9999,
      "fzfg": false,
      "metar_trigger": false,
      "taf_trigger": false,
      "metar": "METAR LJLJ 081600Z VRB01KT 9999 MIFG NSC M08/M09 Q1011 NOSIG",
      "taf": "TAF LJLJ 081100Z 0812/0912 VRB02KT 9999 FEW020"
    },
    {
      "icao": "LKMT",
      "alert": "OK",
      "vis_m": 9999,
      "fzfg": false,
      "metar_trigger": false,
      "taf_trigger": false,
      "metar": "METAR LKMT 081600Z VRB02KT 9999 OVC031 M05/M07 Q1010 NOSIG",
      "taf": "TAF LKMT 081100Z 0812/0912 01005KT 9999 OVC014"
    },
    {
      "icao": "LKPR",
      "alert": "OK",
      "vis_m": 9999,
      "fzfg": false,
      "metar_trigger": false,
      "taf_trigger": false,
      "metar": "METAR LKPR 081600Z 17003KT 050V210 9999 SCT016 OVC028 M03/M05 Q1008 NOSIG",
      "taf": "TAF LKPR 081400Z 0815/0921 20006KT 9999 OVC015"
    },
    {
      "icao": "LLBG",
      "alert": "OK",
      "vis_m": 9999,
      "fzfg": false,
      "metar_trigger": false,
      "taf_trigger": false,
      "metar": "METAR LLBG 081620Z VRB01KT CAVOK 21/11 Q1016 NOSIG",
      "taf": "TAF LLBG 081120Z 0812/0912 23010KT CAVOK"
    },
    {
      "icao": "LMML",
      "alert": "OK",
      "vis_m": 9999,
      "fzfg": false,
      "metar_trigger": false,
      "taf_trigger": false,
      "metar": "METAR LMML 081615Z 30022G37KT 9999 -SHRA FEW017TCU 12/11 Q1021 TEMPO 8000 SHRA",
      "taf": "TAF LMML 081100Z 0812/0912 28028G38KT 9999 SCT025"
    },
    {
      "icao": "LOWW",
      "alert": "OK",
      "vis_m": 9999,
      "fzfg": false,
      "metar_trigger": false,
      "taf_trigger": false,
      "metar": "METAR LOWW 081620Z 07003KT 040V100 9999 FEW024 OVC032 M02/M07 Q1011 NOSIG",
      "taf": "TAF LOWW 081415Z 0815/0921 VRB03KT 9999 FEW030 TXM02/0815Z TNM06/0909Z"
    },
    {
      "icao": "LPFR",
      "alert": "OK",
      "vis_m": 9999,
      "fzfg": false,
      "metar_trigger": false,
      "taf_trigger": false,
      "metar": "METAR LPFR 081600Z 21004KT 170V250 9999 FEW020 13/08 Q1032",
      "taf": "TAF LPFR 081100Z 0812/0912 VRB02KT 9999 FEW020"
    },
    {
      "icao": "LPMA",
      "alert": "OK",
      "vis_m": 9999,
      "fzfg": false,
      "metar_trigger": false,
      "taf_trigger": false,
      "metar": "METAR LPMA 081600Z 03009KT 350V050 9999 VCSH BKN015 17/13 Q1033",
      "taf": "TAF LPMA 081100Z 0812/0912 02013KT 9999 SCT015"
    },
    {
      "icao": "LPPR",
      "alert": "OK",
      "vis_m": 6000,
      "fzfg": false,
      "metar_trigger": false,
      "taf_trigger": false,
      "metar": "METAR LPPR 081600Z 21011KT 6000 -DZRA BKN005 BKN010 13/12 Q1027",
      "taf": "TAF LPPR 081100Z 0812/0912 18015KT 9999 SCT004 BKN018"
    },
    {
      "icao": "LPPS",
      "alert": "OK",
      "vis_m": 9999,
      "fzfg": false,
      "metar_trigger": false,
      "taf_trigger": false,
      "metar": "METAR LPPS 081600Z 08007KT 030V130 9999 SCT014 17/12 Q1033",
      "taf": "TAF LPPS 081100Z 0812/0918 03010KT 9999 SCT015"
    },
    {
      "icao": "LPPT",
      "alert": "OK",
      "vis_m": 9999,
      "fzfg": false,
      "metar_trigger": false,
      "taf_trigger": false,
      "metar": "METAR LPPT 081600Z 24010KT 9999 FEW010 BKN015 14/11 Q1031",
      "taf": "TAF LPPT 081100Z 0812/0918 25005KT 9999 SCT015 BKN025"
    },
    {
      "icao": "LQBK",
      "alert": "OK",
      "vis_m": 9999,
      "fzfg": false,
      "metar_trigger": false,
      "taf_trigger": false,
      "metar": "METAR LQBK 081600Z VRB02KT CAVOK M07/M08 Q1013 NOSIG",
      "taf": "TAF LQBK 081100Z 0812/0912 16005KT CAVOK TXM01/0813Z TNM09/0903Z"
    },
    {
      "icao": "LQSA",
      "alert": "OK",
      "vis_m": 9999,
      "fzfg": false,
      "metar_trigger": false,
      "taf_trigger": false,
      "metar": "METAR LQSA 081600Z 15004KT CAVOK M07/M09 Q1012 NOSIG",
      "taf": "TAF LQSA 081100Z 0812/0912 VRB02KT 9999 SCT050 TX01/0912Z TNM10/0901Z"
    },
    {
      "icao": "LQTZ",
      "alert": "OK",
      "vis_m": 9999,
      "fzfg": false,
      "metar_trigger": false,
      "taf_trigger": false,
      "metar": "METAR LQTZ 081600Z 07002KT CAVOK M05/M05 Q1012",
      "taf": "TAF LQTZ 081100Z 0812/0912 23005KT CAVOK TX00/0912Z TNM10/0905Z"
    },
    {
      "icao": "LRBC",
      "alert": "OK",
      "vis_m": 3100,
      "fzfg": false,
      "metar_trigger": false,
      "taf_trigger": false,
      "metar": "METAR LRBC 081600Z 34006KT 3100 -SN BR FEW018 OVC021 M03/M04 Q0998",
      "taf": "TAF LRBC 081400Z 0815/0824 34012KT 9999 OVC015"
    },
    {
      "icao": "LRBS",
      "alert": "OK",
      "vis_m": 1500,
      "fzfg": false,
      "metar_trigger": false,
      "taf_trigger": false,
      "metar": "METAR LRBS 081600Z 27009KT 240V300 1500 -SN BR BKN007 OVC025 M01/M02 Q1000 BECMG 3000",
      "taf": "TAF LRBS 081100Z 0812/0912 26014KT 5000 -SN BR BKN010 OVC020"
    },
    {
      "icao": "LRBV",
      "alert": "OK",
      "vis_m": 5000,
      "fzfg": false,
      "metar_trigger": false,
      "taf_trigger": false,
      "metar": "METAR LRBV 081600Z 30012KT 270V330 5000 -SN BR FEW006 BKN009 OVC012 M05/M07 Q1001",
      "taf": "TAF LRBV 081400Z 0815/0824 30012KT 5000 -SN BR BKN010 BKN020"
    },
    {
      "icao": "LRCL",
      "alert": "OK",
      "vis_m": 9999,
      "fzfg": false,
      "metar_trigger": false,
      "taf_trigger": false,
      "metar": "METAR LRCL 081600Z 29016KT 9999 DRSN OVC047 M04/M07 Q1004",
      "taf": "TAF LRCL 081400Z 0815/0824 30012KT 9999 BKN040"
    },
    {
      "icao": "LRCV",
      "alert": "OK",
      "vis_m": 9999,
      "fzfg": false,
      "metar_trigger": false,
      "taf_trigger": false,
      "metar": "METAR LRCV 081600Z 29021G32KT CAVOK M04/M07 Q1003",
      "taf": "TAF LRCV 081400Z 0815/0824 27020KT CAVOK"
    },
    {
      "icao": "LRIA",
      "alert": "OK",
      "vis_m": 9999,
      "fzfg": false,
      "metar_trigger": false,
      "taf_trigger": false,
      "metar": "METAR LRIA 081600Z 29014G24KT CAVOK M03/M05 Q0997",
      "taf": "TAF LRIA 081400Z 0815/0824 30015KT 9999 OVC040"
    },
    {
      "icao": "LROP",
      "alert": "OK",
      "vis_m": 2500,
      "fzfg": false,
      "metar_trigger": false,
      "taf_trigger": false,
      "metar": "METAR LROP 081600Z 25012KT 2500 -SN BR OVC021 M00/M00 Q1000 BECMG 5000",
      "taf": "TAF LROP 081100Z 0812/0912 26014KT 5000 -SN BR BKN010 OVC020"
    },
    {
      "icao": "LRSB",
      "alert": "OK",
      "vis_m": 9000,
      "fzfg": false,
      "metar_trigger": false,
      "taf_trigger": false,
      "metar": "METAR LRSB 081600Z 33019KT 9000 -SN SCT036 M06/M08 Q1003",
      "taf": "TAF LRSB 081100Z 0812/0912 33014KT 9999 SCT035"
    },
    {
      "icao": "LRSM",
      "alert": "OK",
      "vis_m": 3000,
      "fzfg": false,
      "metar_trigger": false,
      "taf_trigger": false,
      "metar": "METAR LRSM 081600Z 26013KT 3000 -SN OVC032 M06/M07 Q1006",
      "taf": "TAF LRSM 081400Z 0815/0824 26012KT 1500 -SN BR BKN010 OVC025"
    },
    {
      "icao": "LRSV",
      "alert": "OK",
      "vis_m": 9999,
      "fzfg": false,
      "metar_trigger": false,
      "taf_trigger": false,
      "metar": "METAR LRSV 081600Z 33024KT 9999 DRSN BKN040 M05/M08 Q0996",
      "taf": "TAF LRSV 081400Z 0815/0824 32018KT 9999 DRSN BKN045"
    },
    {
      "icao": "LRTM",
      "alert": "OK",
      "vis_m": 8000,
      "fzfg": false,
      "metar_trigger": false,
      "taf_trigger": false,
      "metar": "METAR LRTM 081600Z 28006KT 8000 -SN SCT015 OVC023 M04/M07 Q1003",
      "taf": "TAF LRTM 081400Z 0815/0824 30008KT 9999 BKN015 BKN030"
    },
    {
      "icao": "LRTR",
      "alert": "OK",
      "vis_m": 9999,
      "fzfg": false,
      "metar_trigger": false,
      "taf_trigger": false,
      "metar": "METAR LRTR 081600Z 26007KT 9999 OVC030 M06/M09 Q1010",
      "taf": "TAF LRTR 081100Z 0812/0912 28010KT 7000 NSC"
    },
    {
      "icao": "LTAC",
      "alert": "OK",
      "vis_m": 6000,
      "fzfg": false,
      "metar_trigger": false,
      "taf_trigger": false,
      "metar": "METAR LTAC 081620Z 24021KT 6000 -SHRA FEW015 BKN030 BKN080 07/05 Q1004 NOSIG RMK RWY21C 24018KT RWY03L 24017KT RWY21R 23019KT RWY03R 22018KT RWY21L 23021KT",
      "taf": "TAF LTAC 081040Z 0812/0912 25012KT 6000 BKN030 BKN080"
    },
    {
      "icao": "LTFM",
      "alert": "OK",
      "vis_m": 9999,
      "fzfg": false,
      "metar_trigger": false,
      "taf_trigger": false,
      "metar": "METAR LTFM 081620Z 05009KT 9999 -SHRA SCT010 FEW018CB BKN025 07/06 Q1001 NOSIG RMK RWY17L 04007KT RWY34L 04008KT RWY16R 04006KT RWY36 04008KT RWY18 05006KT",
      "taf": "TAF LTFM 081040Z 0812/0918 22022G32KT 9999 -SHRA BKN030 BKN080"
    },
    {
      "icao": "LUKK",
      "alert": "OK",
      "vis_m": 3200,
      "fzfg": false,
      "metar_trigger": false,
      "taf_trigger": false,
      "metar": "METAR LUKK 081600Z 33016KT 3200 SHSN BLSN SCT010 BKN014 OVC018CB M03/M04 Q0994 TEMPO 31018G28KT 3000 SHSN BLSN BKN006 SCT010CB",
      "taf": ""
    },
    {
      "icao": "LWOH",
      "alert": "OK",
      "vis_m": 9999,
      "fzfg": false,
      "metar_trigger": false,
      "taf_trigger": false,
      "metar": "METAR LWOH 081620Z 08004KT 010V160 9999 FEW010 BKN025 01/M01 Q1007",
      "taf": "TAF LWOH 081420Z 0815/0915 21012KT 9999 SCT015 BKN035"
    },
    {
      "icao": "LWSK",
      "alert": "OK",
      "vis_m": 9999,
      "fzfg": false,
      "metar_trigger": false,
      "taf_trigger": false,
      "metar": "METAR LWSK 081620Z 03009KT 360V080 9999 FEW033 BKN060 M00/M04 Q1010 NOSIG",
      "taf": "TAF LWSK 081420Z 0815/0915 02012KT 9999 SCT030 BKN060"
    },
    {
      "icao": "LYBE",
      "alert": "OK",
      "vis_m": 9999,
      "fzfg": false,
      "metar_trigger": false,
      "taf_trigger": false,
      "metar": "METAR LYBE 081600Z 27009KT CAVOK M06/M08 Q1012 NOSIG",
      "taf": "TAF LYBE 081100Z 0812/0912 28014KT CAVOK TXM02/0912Z TNM12/0904Z"
    },
    {
      "icao": "LYNI",
      "alert": "OK",
      "vis_m": 9999,
      "fzfg": false,
      "metar_trigger": false,
      "taf_trigger": false,
      "metar": "METAR LYNI 081600Z 28001KT 9999 FEW020 BKN037 M04/M07 Q1012 NOSIG",
      "taf": "TAF LYNI 081100Z 0812/0912 30010KT 9999 BKN030 TXM02/0912Z TNM10/0905Z"
    },
    {
      "icao": "LYPG",
      "alert": "OK",
      "vis_m": 9999,
      "fzfg": false,
      "metar_trigger": false,
      "taf_trigger": false,
      "metar": "METAR LYPG 081600Z 34011KT 9999 FEW050 05/M08 Q1012 NOSIG",
      "taf": ""
    },
    {
      "icao": "LZIB",
      "alert": "OK",
      "vis_m": 9999,
      "fzfg": false,
      "metar_trigger": false,
      "taf_trigger": false,
      "metar": "METAR LZIB 081600Z 31006KT 9999 FEW030 M03/M10 Q1011 NOSIG",
      "taf": "TAF LZIB 081115Z 0812/0912 32012KT CAVOK"
    },
    {
      "icao": "LZKZ",
      "alert": "OK",
      "vis_m": 9999,
      "fzfg": false,
      "metar_trigger": false,
      "taf_trigger": false,
      "metar": "METAR LZKZ 081600Z 01003KT 9999 BKN040 M03/M10 Q1006 NOSIG",
      "taf": "TAF LZKZ 081115Z 0812/0912 36017KT 9999 FEW035"
    },
    {
      "icao": "LZTT",
      "alert": "OK",
      "vis_m": 9999,
      "fzfg": false,
      "metar_trigger": false,
      "taf_trigger": false,
      "metar": "METAR LZTT 081600Z 28010KT 9999 FEW023 M08/M12 Q1003 NOSIG",
      "taf": "TAF LZTT 081115Z 0812/0912 27010KT 9999 FEW035"
    },
    {
      "icao": "OEJN",
      "alert": "OK",
      "vis_m": 9999,
      "fzfg": false,
      "metar_trigger": false,
      "taf_trigger": false,
      "metar": "METAR OEJN 081600Z 27004KT CAVOK 26/19 Q1016 NOSIG",
      "taf": "TAF OEJN 081100Z 0812/0918 24010KT 7000 FEW040"
    },
    {
      "icao": "OEMA",
      "alert": "OK",
      "vis_m": 9999,
      "fzfg": false,
      "metar_trigger": false,
      "taf_trigger": false,
      "metar": "METAR OEMA 081600Z 07011KT CAVOK 25/M02 Q1021 NOSIG",
      "taf": "TAF OEMA 081100Z 0812/0918 09010KT CAVOK"
    },
    {
      "icao": "OJAI",
      "alert": "OK",
      "vis_m": 3500,
      "fzfg": false,
      "metar_trigger": false,
      "taf_trigger": false,
      "metar": "METAR OJAI 081600Z 26005KT 3500 HZ NSC 18/06 Q1019 NOSIG",
      "taf": "TAF OJAI 081100Z 0812/0918 13008KT 5000 HZ NSC"
    },
    {
      "icao": "OMAA",
      "alert": "OK",
      "vis_m": 9999,
      "fzfg": false,
      "metar_trigger": false,
      "taf_trigger": false,
      "metar": "METAR OMAA 081600Z 31005KT CAVOK 21/11 Q1021 NOSIG",
      "taf": "TAF OMAA 081100Z 0812/0918 34011KT 8000 NSC"
    },
    {
      "icao": "OMDB",
      "alert": "OK",
      "vis_m": 9999,
      "fzfg": false,
      "metar_trigger": false,
      "taf_trigger": false,
      "metar": "METAR OMDB 081630Z 01005KT 340V060 CAVOK 22/12 Q1021 NOSIG",
      "taf": "TAF OMDB 081100Z 0812/0918 33010KT CAVOK"
    },
    {
      "icao": "UAAA",
      "alert": "OK",
      "vis_m": 3100,
      "fzfg": false,
      "metar_trigger": false,
      "taf_trigger": false,
      "metar": "METAR UAAA 081600Z 32002MPS 280V360 3100 BR OVC010 M04/M06 Q1029 NOSIG",
      "taf": "TAF UAAA 081102Z 0812/0912 33003MPS 1500 BR FU BKN011 OVC100 TXM01/0909Z TNM08/0901Z"
    },
    {
      "icao": "UBBB",
      "alert": "OK",
      "vis_m": 50,
      "fzfg": false,
      "metar_trigger": false,
      "taf_trigger": false,
      "metar": "METAR UBBB 081600Z 00000KT 0050 R16/0250 R17/0400 FG VV001 05/05 Q1015 NOSIG",
      "taf": ""
    },
    {
      "icao": "UDSG",
      "alert": "OK",
      "vis_m": 5000,
      "fzfg": false,
      "metar_trigger": false,
      "taf_trigger": false,
      "metar": "METAR UDSG 081600Z 08004KT 5000 BR SCT049 M09/M11 Q1021 NOSIG",
      "taf": "TAF UDSG 081100Z 0812/0912 VRB06KT 5000 BR SCT040"
    },
    {
      "icao": "UDYZ",
      "alert": "OK",
      "vis_m": 2100,
      "fzfg": false,
      "metar_trigger": false,
      "taf_trigger": false,
      "metar": "METAR UDYZ 081600Z VRB02KT 2100 R08/P2000N BR FEW046 M04/M07 Q1023 NOSIG",
      "taf": "TAF UDYZ 081100Z 0812/0912 28006KT 2300 BR FEW040"
    },
    {
      "icao": "UGKO",
      "alert": "OK",
      "vis_m": 9999,
      "fzfg": false,
      "metar_trigger": false,
      "taf_trigger": false,
      "metar": "METAR UGKO 081600Z 10008KT CAVOK 14/02 Q1010 NOSIG",
      "taf": "TAF UGKO 081100Z 0812/0912 09015KT 9999 SCT022 BKN050 TX18/0812Z TN09/0903Z"
    }
  ]
}