{
  "ts_utc": "2025-12-30T06:38:47Z",
  "threshold_m": 150,
  "source": "stations_override.txt (ICAO list) + aviationweather.gov (METAR/TAF raw)",
  "station_count": 159,
  "stations": [
    {
      "icao": "BIKF",
      "alert": "OK",
      "vis_m": 9999,
      "fzfg": false,
      "metar_trigger": false,
      "taf_trigger": false,
      "metar": "METAR BIKF 300630Z 29007KT 270V330 9999 OVC024 05/02 Q1038",
      "taf": "TAF BIKF 300419Z 3006/3106 27005KT 9999 BKN019 OVC032 TX06/3021Z TN04/3006Z"
    },
    {
      "icao": "BKPR",
      "alert": "OK",
      "vis_m": 6000,
      "fzfg": false,
      "metar_trigger": false,
      "taf_trigger": false,
      "metar": "METAR BKPR 300630Z VRB01KT 6000 NSC M08/M09 Q1011 NOSIG",
      "taf": "TAF BKPR 300530Z 3006/3106 35008KT CAVOK"
    },
    {
      "icao": "EBCI",
      "alert": "OK",
      "vis_m": 9000,
      "fzfg": false,
      "metar_trigger": false,
      "taf_trigger": false,
      "metar": "METAR EBCI 300620Z 02006KT 9000 FEW045 M00/M01 Q1028 NOSIG",
      "taf": "TAF EBCI 300502Z 3006/3112 36006KT 8000 FEW012 SCT030"
    },
    {
      "icao": "EDDB",
      "alert": "OK",
      "vis_m": 9999,
      "fzfg": false,
      "metar_trigger": false,
      "taf_trigger": false,
      "metar": "METAR EDDB 300620Z AUTO 30009KT CAVOK M01/M03 Q1020 NOSIG",
      "taf": "TAF EDDB 300500Z 3006/3106 31010KT CAVOK"
    },
    {
      "icao": "EDDH",
      "alert": "OK",
      "vis_m": 9999,
      "fzfg": false,
      "metar_trigger": false,
      "taf_trigger": false,
      "metar": "METAR EDDH 300620Z AUTO 31005KT CAVOK M02/M05 Q1025 NOSIG",
      "taf": "TAF EDDH 300500Z 3006/3112 31008KT CAVOK"
    },
    {
      "icao": "EDDK",
      "alert": "OK",
      "vis_m": 800,
      "fzfg": false,
      "metar_trigger": false,
      "taf_trigger": false,
      "metar": "METAR EDDK 300620Z AUTO 36005KT 330V030 0800 0300 R31R/1300N R06/0400N FG OVC002 00/M00 Q1027 TEMPO 0500 FG BKN001",
      "taf": "TAF EDDK 300500Z 3006/3112 33004KT 2500 BR BKN004"
    },
    {
      "icao": "EDDN",
      "alert": "OK",
      "vis_m": 9999,
      "fzfg": false,
      "metar_trigger": false,
      "taf_trigger": false,
      "metar": "METAR EDDN 300620Z AUTO VRB01KT 9999 SCT017 BKN040 BKN047 M01/M02 Q1022 TEMPO BKN012",
      "taf": "TAF EDDN 300500Z 3006/3106 30006KT 9999 FEW025"
    },
    {
      "icao": "EDDS",
      "alert": "OK",
      "vis_m": 9999,
      "fzfg": false,
      "metar_trigger": false,
      "taf_trigger": false,
      "metar": "METAR EDDS 300620Z AUTO VRB01KT 9999 FEW006 OVC042 M01/M03 Q1023 NOSIG",
      "taf": "TAF EDDS 300500Z 3006/3106 VRB02KT 9999 OVC015"
    },
    {
      "icao": "EDFH",
      "alert": "OK",
      "vis_m": 9999,
      "fzfg": false,
      "metar_trigger": false,
      "taf_trigger": false,
      "metar": "METAR EDFH 300620Z 03008KT 9999 BKN006 M01/M02 Q1024",
      "taf": "TAF EDFH 300500Z 3006/3106 35006KT 9999 BKN030"
    },
    {
      "icao": "EDJA",
      "alert": "OK",
      "vis_m": 7000,
      "fzfg": false,
      "metar_trigger": false,
      "taf_trigger": false,
      "metar": "METAR EDJA 300620Z 20005KT 7000 FEW012 OVC029 M04/M04 Q1021",
      "taf": "TAF EDJA 300500Z 3006/3015 25006KT 7000 FEW009 BKN020"
    },
    {
      "icao": "EDLW",
      "alert": "OK",
      "vis_m": 9999,
      "fzfg": false,
      "metar_trigger": false,
      "taf_trigger": false,
      "metar": "METAR EDLW 300620Z 29003KT 9999 FEW049 M01/M02 Q1026",
      "taf": "TAF EDLW 300500Z 3006/3106 29004KT 9999 SCT030"
    },
    {
      "icao": "EDNY",
      "alert": "OK",
      "vis_m": 9999,
      "fzfg": false,
      "metar_trigger": false,
      "taf_trigger": false,
      "metar": "METAR EDNY 300620Z 04004KT 9999 SCT027 SCT031 OVC039 M02/M04 Q1023",
      "taf": "TAF EDNY 300500Z 3006/3015 VRB02KT 9999 OVC030"
    },
    {
      "icao": "EDSB",
      "alert": "OK",
      "vis_m": 6000,
      "fzfg": false,
      "metar_trigger": false,
      "taf_trigger": false,
      "metar": "METAR EDSB 300620Z 20003KT 6000 FEW017 OVC022 M02/M02 Q1025",
      "taf": "TAF EDSB 300500Z 3006/3106 20004KT 9999 BKN030"
    },
    {
      "icao": "EETN",
      "alert": "OK",
      "vis_m": 4500,
      "fzfg": false,
      "metar_trigger": false,
      "taf_trigger": false,
      "metar": "METAR EETN 300620Z 02013G23KT 350V050 4500 SHSN DRSN SCT018CB OVC028 M04/M06 Q0997 TEMPO 1500",
      "taf": "TAF EETN 300530Z 3006/3106 01016G30KT 9999 FEW018CB BKN025"
    },
    {
      "icao": "EFTU",
      "alert": "OK",
      "vis_m": 9999,
      "fzfg": false,
      "metar_trigger": false,
      "taf_trigger": false,
      "metar": "METAR EFTU 300620Z AUTO 02013KT 340V080 9999 BKN034 M02/M09 Q1003",
      "taf": "TAF EFTU 300521Z 3006/3106 36015KT 9999 -SHSN BKN025"
    },
    {
      "icao": "EGBB",
      "alert": "OK",
      "vis_m": 9999,
      "fzfg": false,
      "metar_trigger": false,
      "taf_trigger": false,
      "metar": "METAR EGBB 300620Z 35004KT 9999 FEW023 BKN031 03/02 Q1034",
      "taf": "TAF EGBB 300455Z 3006/3106 02006KT 9999 BKN030"
    },
    {
      "icao": "EGGP",
      "alert": "OK",
      "vis_m": 9999,
      "fzfg": false,
      "metar_trigger": false,
      "taf_trigger": false,
      "metar": "METAR EGGP 300620Z 01005KT 9999 BKN041 03/00 Q1035",
      "taf": "TAF EGGP 300453Z 3006/3106 01005KT 9999 BKN035"
    },
    {
      "icao": "EGGW",
      "alert": "OK",
      "vis_m": 9999,
      "fzfg": false,
      "metar_trigger": false,
      "taf_trigger": false,
      "metar": "METAR EGGW 300620Z AUTO 02007G17KT 360V150 9999 OVC037 02/02 Q1032",
      "taf": "TAF EGGW 300455Z 3006/3106 03008KT 9999 FEW036"
    },
    {
      "icao": "EGKK",
      "alert": "OK",
      "vis_m": 9999,
      "fzfg": false,
      "metar_trigger": false,
      "taf_trigger": false,
      "metar": "METAR EGKK 300620Z 02005KT 9999 FEW038 03/01 Q1031",
      "taf": "TAF EGKK 300453Z 3006/3112 03006KT 9999 SCT035"
    },
    {
      "icao": "EGNM",
      "alert": "OK",
      "vis_m": 9999,
      "fzfg": false,
      "metar_trigger": false,
      "taf_trigger": false,
      "metar": "METAR EGNM 300620Z 02007KT 340V050 9999 FEW028 BKN036 03/00 Q1034",
      "taf": "TAF EGNM 300523Z 3006/3106 01005KT 9999 SCT035"
    },
    {
      "icao": "EGPD",
      "alert": "OK",
      "vis_m": 9999,
      "fzfg": false,
      "metar_trigger": false,
      "taf_trigger": false,
      "metar": "METAR EGPD 300620Z COR AUTO 31008KT 9999 BKN038 02/M01 Q1037 NOSIG",
      "taf": "TAF EGPD 300452Z 3006/3106 30006KT 9999 FEW020 SCT035"
    },
    {
      "icao": "EGPF",
      "alert": "OK",
      "vis_m": 5000,
      "fzfg": false,
      "metar_trigger": false,
      "taf_trigger": false,
      "metar": "METAR EGPF 300620Z VRB01KT 5000 BCFG NSC M04/M04 Q1039",
      "taf": ""
    },
    {
      "icao": "EHBK",
      "alert": "OK",
      "vis_m": 9999,
      "fzfg": false,
      "metar_trigger": false,
      "taf_trigger": false,
      "metar": "METAR EHBK 300625Z AUTO 34005KT 9999 SCT045/// 00/M00 Q1028 NOSIG",
      "taf": "TAF EHBK 300508Z 3006/3112 34005KT 9999 FEW040"
    },
    {
      "icao": "EHEH",
      "alert": "OK",
      "vis_m": 9999,
      "fzfg": false,
      "metar_trigger": false,
      "taf_trigger": false,
      "metar": "METAR EHEH 300625Z AUTO 33004KT 260V360 9999 NCD M01/M02 Q1029 BLU NOSIG RMK TREND REMOTE BY EHWX",
      "taf": "TAF EHEH 300540Z 3006/3112 33005KT 9999 SCT040"
    },
    {
      "icao": "EKBI",
      "alert": "OK",
      "vis_m": 9999,
      "fzfg": false,
      "metar_trigger": false,
      "taf_trigger": false,
      "metar": "METAR EKBI 300620Z AUTO 30004KT 9999 NCD M04/M07 Q1025",
      "taf": "TAF EKBI 300527Z 3006/3106 32008KT 9999 SCT040"
    },
    {
      "icao": "EKCH",
      "alert": "OK",
      "vis_m": 9999,
      "fzfg": false,
      "metar_trigger": false,
      "taf_trigger": false,
      "metar": "METAR EKCH 300620Z AUTO 34015G27KT 300V360 9999 NCD 01/M07 Q1020 TEMPO 35018G28KT",
      "taf": "TAF EKCH 300527Z 3006/3106 32012KT CAVOK"
    },
    {
      "icao": "ENAL",
      "alert": "OK",
      "vis_m": 9999,
      "fzfg": false,
      "metar_trigger": false,
      "taf_trigger": false,
      "metar": "METAR ENAL 300620Z 33006KT 300V010 9999 -SN FEW006 SCT028 BKN049 01/M02 Q1028",
      "taf": "TAF ENAL 300500Z 3006/3015 34012KT 9999 FEW008 SCT020CB"
    },
    {
      "icao": "ENBR",
      "alert": "OK",
      "vis_m": 9999,
      "fzfg": false,
      "metar_trigger": false,
      "taf_trigger": false,
      "metar": "METAR ENBR 300620Z 10002KT 9999 SCT047 M02/M04 Q1029 NOSIG RMK WIND 1200FT 34018KT",
      "taf": "TAF ENBR 300500Z 3006/3106 36008KT 9999 FEW030 SCT050"
    },
    {
      "icao": "ENGM",
      "alert": "OK",
      "vis_m": 9999,
      "fzfg": false,
      "metar_trigger": false,
      "taf_trigger": false,
      "metar": "METAR ENGM 300620Z 34006KT 310V010 CAVOK M03/M11 Q1022 NOSIG",
      "taf": "TAF ENGM 300500Z 3006/3106 33010KT CAVOK"
    },
    {
      "icao": "ENHD",
      "alert": "OK",
      "vis_m": 9999,
      "fzfg": false,
      "metar_trigger": false,
      "taf_trigger": false,
      "metar": "METAR ENHD 300620Z 03010KT 9999 BKN043 02/M04 Q1030",
      "taf": "TAF ENHD 300500Z 3006/3015 02008KT 9999 FEW030 SCT040"
    },
    {
      "icao": "ENTC",
      "alert": "OK",
      "vis_m": 1200,
      "fzfg": false,
      "metar_trigger": false,
      "taf_trigger": false,
      "metar": "METAR ENTC 300620Z 04005KT 1200 R36/P2000D R18/P2000N -SHSN VV013 M05/M07 Q1013 TEMPO 6000 SCT012 BKN025 RMK WIND 2600FT 35023KT",
      "taf": "TAF ENTC 300500Z 3006/3106 01008KT 8000 -SHSN FEW008 SCT020CB BKN030"
    },
    {
      "icao": "ENTO",
      "alert": "OK",
      "vis_m": 9999,
      "fzfg": false,
      "metar_trigger": false,
      "taf_trigger": false,
      "metar": "METAR ENTO 300620Z 30005KT 270V330 CAVOK M02/M11 Q1024 NOSIG",
      "taf": "TAF ENTO 300500Z 3006/3106 32010KT CAVOK"
    },
    {
      "icao": "ENVA",
      "alert": "OK",
      "vis_m": 9000,
      "fzfg": false,
      "metar_trigger": false,
      "taf_trigger": false,
      "metar": "METAR ENVA 300620Z 29007KT 9000 VCSH FEW014 BKN030 M02/M03 Q1023 TEMPO 0500 SHSN VV005 RMK WIND 670FT 30011KT",
      "taf": "TAF ENVA 300500Z 3006/3106 30009KT 9999 -SHSN SCT015CB BKN025"
    },
    {
      "icao": "ENZV",
      "alert": "OK",
      "vis_m": 9999,
      "fzfg": false,
      "metar_trigger": false,
      "taf_trigger": false,
      "metar": "METAR ENZV 300620Z 35007KT CAVOK 01/M04 Q1030 NOSIG",
      "taf": "TAF ENZV 300500Z 3006/3106 35005KT CAVOK"
    },
    {
      "icao": "EPGD",
      "alert": "OK",
      "vis_m": 9999,
      "fzfg": false,
      "metar_trigger": false,
      "taf_trigger": false,
      "metar": "METAR EPGD 300630Z 31019KT 9999 SCT038 M01/M07 Q1008",
      "taf": "TAF EPGD 300530Z 3006/3106 32018KT 9999 SCT040"
    },
    {
      "icao": "EPKK",
      "alert": "OK",
      "vis_m": 9999,
      "fzfg": false,
      "metar_trigger": false,
      "taf_trigger": false,
      "metar": "METAR EPKK 300630Z 29012KT 9999 SCT023 M02/M06 Q1011",
      "taf": "TAF EPKK 300530Z 3006/3106 28013KT 9999 SCT035"
    },
    {
      "icao": "EPKT",
      "alert": "OK",
      "vis_m": 9999,
      "fzfg": false,
      "metar_trigger": false,
      "taf_trigger": false,
      "metar": "METAR EPKT 300630Z 28009KT 9999 FEW016 M04/M06 Q1012",
      "taf": "TAF EPKT 300530Z 3006/3106 30012KT 9999 SCT040"
    },
    {
      "icao": "EPLB",
      "alert": "OK",
      "vis_m": 9999,
      "fzfg": false,
      "metar_trigger": false,
      "taf_trigger": false,
      "metar": "METAR EPLB 300630Z 29014KT 9999 BKN030 M04/M06 Q1005",
      "taf": "TAF EPLB 300530Z 3006/3106 28014KT 9999 SCT040"
    },
    {
      "icao": "EPMO",
      "alert": "OK",
      "vis_m": 9999,
      "fzfg": false,
      "metar_trigger": false,
      "taf_trigger": false,
      "metar": "METAR EPMO 300630Z 30016KT 270V330 9999 -SHSN SCT014CB SCT032 M03/M04 Q1007 RESHSN",
      "taf": "TAF EPMO 300530Z 3006/3106 28012KT 9999 BKN030"
    },
    {
      "icao": "EPPO",
      "alert": "OK",
      "vis_m": 9999,
      "fzfg": false,
      "metar_trigger": false,
      "taf_trigger": false,
      "metar": "METAR EPPO 300630Z 30010KT CAVOK M03/M07 Q1015",
      "taf": "TAF EPPO 300530Z 3006/3106 32010KT CAVOK"
    },
    {
      "icao": "EPRA",
      "alert": "OK",
      "vis_m": 9999,
      "fzfg": false,
      "metar_trigger": false,
      "taf_trigger": false,
      "metar": "METAR EPRA 300630Z 31014KT 9999 BKN030 M03/M07 Q1007",
      "taf": "TAF EPRA 300530Z 3006/3015 30014KT 9999 BKN040"
    },
    {
      "icao": "EPRZ",
      "alert": "OK",
      "vis_m": 9999,
      "fzfg": false,
      "metar_trigger": false,
      "taf_trigger": false,
      "metar": "METAR EPRZ 300630Z 28013KT 9999 FEW030 M04/M07 Q1008",
      "taf": "TAF EPRZ 300530Z 3006/3106 27013KT 9999 SCT030"
    },
    {
      "icao": "EPSC",
      "alert": "OK",
      "vis_m": 9999,
      "fzfg": false,
      "metar_trigger": false,
      "taf_trigger": false,
      "metar": "METAR EPSC 300630Z 29010KT CAVOK M02/M06 Q1017",
      "taf": "TAF EPSC 300530Z 3006/3106 30010KT CAVOK"
    },
    {
      "icao": "EPSY",
      "alert": "OK",
      "vis_m": 9999,
      "fzfg": false,
      "metar_trigger": false,
      "taf_trigger": false,
      "metar": "METAR EPSY 300630Z 28004KT 250V320 9999 SCT011 M04/M04 Q1005",
      "taf": "TAF EPSY 300530Z 3006/3015 33014KT 9999 SCT030"
    },
    {
      "icao": "EPWA",
      "alert": "OK",
      "vis_m": 9999,
      "fzfg": false,
      "metar_trigger": false,
      "taf_trigger": false,
      "metar": "METAR EPWA 300630Z 30018KT 9999 BKN017 M02/M05 Q1007 TEMPO 3000 SHSN BKN014",
      "taf": "TAF EPWA 300530Z 3006/3106 28012KT 9999 BKN025"
    },
    {
      "icao": "EPWR",
      "alert": "OK",
      "vis_m": 9999,
      "fzfg": false,
      "metar_trigger": false,
      "taf_trigger": false,
      "metar": "METAR EPWR 300630Z 29013KT CAVOK M03/M06 Q1016",
      "taf": "TAF EPWR 300530Z 3006/3106 32014KT CAVOK"
    },
    {
      "icao": "ESGG",
      "alert": "OK",
      "vis_m": 9999,
      "fzfg": false,
      "metar_trigger": false,
      "taf_trigger": false,
      "metar": "METAR ESGG 300620Z 35010KT CAVOK M02/M10 Q1020",
      "taf": "TAF ESGG 300530Z 3006/3106 34010KT CAVOK"
    },
    {
      "icao": "ESKN",
      "alert": "OK",
      "vis_m": 9999,
      "fzfg": false,
      "metar_trigger": false,
      "taf_trigger": false,
      "metar": "METAR ESKN 300620Z 33018KT 300V360 CAVOK M02/M09 Q1012",
      "taf": "TAF ESKN 300530Z 3006/3106 32015G25KT CAVOK"
    },
    {
      "icao": "ESMS",
      "alert": "OK",
      "vis_m": 9999,
      "fzfg": false,
      "metar_trigger": false,
      "taf_trigger": false,
      "metar": "METAR ESMS 300620Z 33010KT CAVOK M03/M08 Q1018",
      "taf": "TAF ESMS 300527Z 3006/3106 33010KT CAVOK"
    },
    {
      "icao": "ESSA",
      "alert": "OK",
      "vis_m": 9999,
      "fzfg": false,
      "metar_trigger": false,
      "taf_trigger": false,
      "metar": "METAR ESSA 300620Z 33018KT 9999 FEW010 SCT030 M03/M09 Q1011 TEMPO 3000 SHSN SCT040TCU",
      "taf": "TAF ESSA 300530Z 3006/3106 32018G30KT CAVOK"
    },
    {
      "icao": "EYKA",
      "alert": "OK",
      "vis_m": 9999,
      "fzfg": false,
      "metar_trigger": false,
      "taf_trigger": false,
      "metar": "METAR EYKA 300620Z 28012KT 250V320 9999 SCT013 M04/M06 Q0997",
      "taf": ""
    },
    {
      "icao": "EYPA",
      "alert": "OK",
      "vis_m": 1900,
      "fzfg": false,
      "metar_trigger": false,
      "taf_trigger": false,
      "metar": "METAR EYPA 300620Z 36013G25KT 310V040 1900 +SHSN SCT008 BKN015CB BKN021 M01/M02 Q1001",
      "taf": "TAF EYPA 300510Z 3006/3106 36014KT 9000 BKN025"
    },
    {
      "icao": "EYVI",
      "alert": "OK",
      "vis_m": 9999,
      "fzfg": false,
      "metar_trigger": false,
      "taf_trigger": false,
      "metar": "METAR EYVI 300620Z 29013KT 260V320 9999 -SHSN BKN015CB BKN032 M04/M07 Q0995 NOSIG",
      "taf": "TAF EYVI 300510Z 3006/3106 30013KT 8000 SCT015 BKN035"
    },
    {
      "icao": "GCFV",
      "alert": "OK",
      "vis_m": 9999,
      "fzfg": false,
      "metar_trigger": false,
      "taf_trigger": false,
      "metar": "METAR GCFV 300630Z 28007KT CAVOK 14/11 Q1021",
      "taf": "TAF GCFV 300200Z 3003/3103 29004KT 9999 FEW030 TX21/3014Z TN14/3006Z"
    },
    {
      "icao": "GCLP",
      "alert": "OK",
      "vis_m": 9999,
      "fzfg": false,
      "metar_trigger": false,
      "taf_trigger": false,
      "metar": "METAR GCLP 300630Z 27007KT 250V320 9999 FEW020 15/11 Q1021 NOSIG",
      "taf": "TAF GCLP 300200Z 3003/3103 28004KT 9999 FEW030 TX22/3014Z TN15/3006Z"
    },
    {
      "icao": "GCTS",
      "alert": "OK",
      "vis_m": 9999,
      "fzfg": false,
      "metar_trigger": false,
      "taf_trigger": false,
      "metar": "METAR GCTS 300630Z 35004KT 9999 SCT020 16/10 Q1021 NOSIG",
      "taf": "TAF GCTS 300200Z 3003/3103 35005KT 9999 SCT030 TX24/3014Z TN16/3006Z"
    },
    {
      "icao": "GMAD",
      "alert": "OK",
      "vis_m": 9999,
      "fzfg": false,
      "metar_trigger": false,
      "taf_trigger": false,
      "metar": "METAR GMAD 300630Z 09006KT 9999 FEW026 09/09 Q1020 NOSIG",
      "taf": "TAF GMAD 300500Z 3006/3112 06005KT 8000 SCT020"
    },
    {
      "icao": "GMMN",
      "alert": "OK",
      "vis_m": 7000,
      "fzfg": false,
      "metar_trigger": false,
      "taf_trigger": false,
      "metar": "METAR GMMN 300630Z 19007KT 7000 FEW005 SCT016 06/05 Q1021 NOSIG",
      "taf": "TAF GMMN 300500Z 3006/3112 18003KT 3000 BR FEW005 SCT016"
    },
    {
      "icao": "GMMX",
      "alert": "OK",
      "vis_m": 8000,
      "fzfg": false,
      "metar_trigger": false,
      "taf_trigger": false,
      "metar": "METAR GMMX 300630Z VRB01KT 8000 FEW020 SCT090 08/07 Q1021 NOSIG",
      "taf": "TAF GMMX 300500Z 3006/3112 10006KT 8000 SCT020 SCT090"
    },
    {
      "icao": "HEGN",
      "alert": "OK",
      "vis_m": 9999,
      "fzfg": false,
      "metar_trigger": false,
      "taf_trigger": false,
      "metar": "METAR HEGN 300600Z 30010KT CAVOK 15/04 Q1022 NOSIG",
      "taf": "TAF HEGN 300500Z 3006/3112 34012KT CAVOK"
    },
    {
      "icao": "HEMA",
      "alert": "OK",
      "vis_m": 9999,
      "fzfg": false,
      "metar_trigger": false,
      "taf_trigger": false,
      "metar": "METAR HEMA 300600Z 30010KT CAVOK 19/08 Q1021 NOSIG",
      "taf": "TAF HEMA 300500Z 3006/3112 35012KT CAVOK"
    },
    {
      "icao": "HESH",
      "alert": "OK",
      "vis_m": 9999,
      "fzfg": false,
      "metar_trigger": false,
      "taf_trigger": false,
      "metar": "METAR HESH 300600Z 29004KT CAVOK 18/06 Q1021 NOSIG",
      "taf": "TAF HESH 300500Z 3006/3112 35012KT CAVOK"
    },
    {
      "icao": "HESX",
      "alert": "OK",
      "vis_m": 9999,
      "fzfg": false,
      "metar_trigger": false,
      "taf_trigger": false,
      "metar": "METAR HESX 300600Z 16003KT 9999 FEW030 14/09 Q1021 NOSIG",
      "taf": "TAF HESX 300500Z 3006/3112 23009KT 9999 SCT030 SCT100"
    },
    {
      "icao": "LATI",
      "alert": "OK",
      "vis_m": 9999,
      "fzfg": false,
      "metar_trigger": false,
      "taf_trigger": false,
      "metar": "METAR LATI 300620Z 16004KT 9999 SCT035 01/M03 Q1013 NOSIG",
      "taf": "TAF LATI 300500Z 3006/3106 VRB05KT CAVOK TX15/3012Z TNM02/3105Z"
    },
    {
      "icao": "LBPD",
      "alert": "OK",
      "vis_m": 9999,
      "fzfg": false,
      "metar_trigger": false,
      "taf_trigger": false,
      "metar": "METAR LBPD 300630Z AUTO VRB01KT 9999 NCD M02/M06 Q1008 NOSIG",
      "taf": "TAF LBPD 300500Z 3006/3106 VRB04KT CAVOK"
    },
    {
      "icao": "LBSF",
      "alert": "OK",
      "vis_m": 9999,
      "fzfg": false,
      "metar_trigger": false,
      "taf_trigger": false,
      "metar": "METAR LBSF 300630Z 15004KT 130V200 CAVOK M07/M09 Q1009 NOSIG",
      "taf": "TAF LBSF 300500Z 3006/3106 VRB04KT CAVOK"
    },
    {
      "icao": "LBWN",
      "alert": "OK",
      "vis_m": 9999,
      "fzfg": false,
      "metar_trigger": false,
      "taf_trigger": false,
      "metar": "METAR LBWN 300630Z 30005KT CAVOK M01/M06 Q1006 NOSIG",
      "taf": "TAF LBWN 300500Z 3006/3106 29008KT CAVOK"
    },
    {
      "icao": "LCLK",
      "alert": "OK",
      "vis_m": 9999,
      "fzfg": false,
      "metar_trigger": false,
      "taf_trigger": false,
      "metar": "METAR LCLK 300630Z 30004KT 9999 FEW030 10/05 Q1020 NOSIG",
      "taf": "TAF LCLK 300530Z 3006/3106 33010KT 9999 FEW025"
    },
    {
      "icao": "LCPH",
      "alert": "OK",
      "vis_m": 9999,
      "fzfg": false,
      "metar_trigger": false,
      "taf_trigger": false,
      "metar": "METAR LCPH 300630Z 06007KT 010V080 9999 FEW025 10/03 Q1019 NOSIG",
      "taf": "TAF LCPH 300530Z 3006/3106 07008KT 9999 FEW020"
    },
    {
      "icao": "LEAL",
      "alert": "OK",
      "vis_m": 9999,
      "fzfg": false,
      "metar_trigger": false,
      "taf_trigger": false,
      "metar": "METAR LEAL 300630Z 25004KT 170V280 CAVOK 09/07 Q1019 NOSIG",
      "taf": "TAF LEAL 300500Z 3006/3106 29008KT CAVOK TX18/3014Z TN07/3006Z"
    },
    {
      "icao": "LEBB",
      "alert": "OK",
      "vis_m": 7000,
      "fzfg": false,
      "metar_trigger": false,
      "taf_trigger": false,
      "metar": "METAR LEBB 300630Z VRB02KT 7000 -RA FEW015 BKN022 08/07 Q1022 NOSIG",
      "taf": "TAF LEBB 300500Z 3006/3106 VRB03KT 9999 SCT020 BKN030 TX12/3014Z TN05/3006Z"
    },
    {
      "icao": "LEBL",
      "alert": "OK",
      "vis_m": 9999,
      "fzfg": false,
      "metar_trigger": false,
      "taf_trigger": false,
      "metar": "METAR LEBL 300630Z 32013G23KT CAVOK 08/07 Q1017 NOSIG",
      "taf": "TAF LEBL 300500Z 3006/3106 32008KT 9999 FEW020 TX15/3012Z TN07/3007Z"
    },
    {
      "icao": "LECH",
      "alert": "OK",
      "vis_m": 9000,
      "fzfg": false,
      "metar_trigger": false,
      "taf_trigger": false,
      "metar": "METAR LECH 300630Z AUTO 19003KT 160V230 9000 NCD 05/03 Q1018",
      "taf": ""
    },
    {
      "icao": "LEMD",
      "alert": "OK",
      "vis_m": 9999,
      "fzfg": false,
      "metar_trigger": false,
      "taf_trigger": false,
      "metar": "METAR LEMD 300630Z VRB02KT 9999 FEW005 M01/M01 Q1020 NOSIG",
      "taf": "TAF LEMD 300500Z 3006/3112 VRB04KT CAVOK TX11/3015Z TNM02/3107Z"
    },
    {
      "icao": "LEMG",
      "alert": "OK",
      "vis_m": 9999,
      "fzfg": false,
      "metar_trigger": false,
      "taf_trigger": false,
      "metar": "METAR LEMG 300630Z 30010KT CAVOK 06/05 Q1021 NOSIG",
      "taf": "TAF LEMG 300500Z 3006/3106 30009KT CAVOK TX18/3014Z TN06/3006Z"
    },
    {
      "icao": "LEVC",
      "alert": "OK",
      "vis_m": 9999,
      "fzfg": false,
      "metar_trigger": false,
      "taf_trigger": false,
      "metar": "METAR LEVC 300630Z 27005KT CAVOK 06/05 Q1019 NOSIG",
      "taf": "TAF LEVC 300500Z 3006/3106 29006KT CAVOK TX17/3014Z TN04/3106Z"
    },
    {
      "icao": "LEXJ",
      "alert": "OK",
      "vis_m": 8000,
      "fzfg": false,
      "metar_trigger": false,
      "taf_trigger": false,
      "metar": "METAR LEXJ 300630Z 20003KT 170V240 8000 BKN016 BKN025 08/06 Q1022",
      "taf": "TAF LEXJ 300200Z 3003/3103 22007KT 9999 SCT015 BKN025 TX12/3015Z TN07/3003Z"
    },
    {
      "icao": "LEZG",
      "alert": "OK",
      "vis_m": 9999,
      "fzfg": false,
      "metar_trigger": false,
      "taf_trigger": false,
      "metar": "METAR LEZG 300630Z 00000KT CAVOK 03/03 Q1020 NOSIG",
      "taf": "TAF LEZG 300500Z 3006/3106 29008KT 9999 FEW010 TX12/3014Z TN04/3006Z"
    },
    {
      "icao": "LEZL",
      "alert": "OK",
      "vis_m": 400,
      "fzfg": false,
      "metar_trigger": false,
      "taf_trigger": false,
      "metar": "METAR LEZL 300630Z VRB02KT 0400 R27/1600N R09/0500N FG VV002 05/05 Q1021 NOSIG",
      "taf": "TAF LEZL 300200Z 3003/3103 05006KT CAVOK TX16/3015Z TN06/3006Z"
    },
    {
      "icao": "LFBD",
      "alert": "OK",
      "vis_m": 3600,
      "fzfg": false,
      "metar_trigger": false,
      "taf_trigger": false,
      "metar": "METAR LFBD 300630Z AUTO 01006KT 3600 BR BKN003 OVC011 00/00 Q1022 BECMG 9999 NSW BKN008",
      "taf": "TAF LFBD 300500Z 3006/3112 36005KT 3000 BR OVC002 TX05/3014Z TNM02/3106Z"
    },
    {
      "icao": "LFLL",
      "alert": "OK",
      "vis_m": 6000,
      "fzfg": false,
      "metar_trigger": false,
      "taf_trigger": false,
      "metar": "METAR LFLL 300630Z 35010KT 6000 OVC008 M01/M03 Q1021 NOSIG",
      "taf": "TAF LFLL 300500Z 3006/3112 36005KT 9999 OVC009"
    },
    {
      "icao": "LFLS",
      "alert": "OK",
      "vis_m": 5000,
      "fzfg": false,
      "metar_trigger": false,
      "taf_trigger": false,
      "metar": "METAR LFLS 300630Z AUTO 33012KT 5000 BR OVC004 M02/M02 Q1020 NOSIG",
      "taf": "TAF LFLS 300200Z 3003/3103 35005KT 7000 OVC006"
    },
    {
      "icao": "LFMN",
      "alert": "OK",
      "vis_m": 9999,
      "fzfg": false,
      "metar_trigger": false,
      "taf_trigger": false,
      "metar": "METAR LFMN 300630Z 33015KT CAVOK 05/M03 Q1012 NOSIG",
      "taf": "TAF LFMN 300200Z 3003/3109 33010KT CAVOK"
    },
    {
      "icao": "LFOB",
      "alert": "OK",
      "vis_m": 5000,
      "fzfg": false,
      "metar_trigger": false,
      "taf_trigger": false,
      "metar": "METAR LFOB 300630Z AUTO 03007KT 5000 BR OVC003 01/00 Q1029 BECMG BKN005",
      "taf": ""
    },
    {
      "icao": "LFPO",
      "alert": "OK",
      "vis_m": 7000,
      "fzfg": false,
      "metar_trigger": false,
      "taf_trigger": false,
      "metar": "METAR LFPO 300630Z AUTO 04011KT 7000 OVC008 03/01 Q1027 TEMPO BKN004",
      "taf": "TAF LFPO 300500Z 3006/3112 02007KT 9999 BKN035"
    },
    {
      "icao": "LFSB",
      "alert": "OK",
      "vis_m": 8000,
      "fzfg": true,
      "metar_trigger": false,
      "taf_trigger": false,
      "metar": "METAR LFSB 300630Z AUTO 33005KT 8000 BKN038 M04/M05 Q1024 TEMPO 0500 FZFG VV///",
      "taf": ""
    },
    {
      "icao": "LGAV",
      "alert": "OK",
      "vis_m": 9999,
      "fzfg": false,
      "metar_trigger": false,
      "taf_trigger": false,
      "metar": "METAR LGAV 300620Z 00000KT 9999 FEW015 08/06 Q1013 NOSIG",
      "taf": "TAF LGAV 300500Z 3006/3106 25010KT 9999 FEW025"
    },
    {
      "icao": "LGTS",
      "alert": "OK",
      "vis_m": 9999,
      "fzfg": false,
      "metar_trigger": false,
      "taf_trigger": false,
      "metar": "METAR LGTS 300620Z VRB03KT CAVOK M01/M04 Q1011 NOSIG",
      "taf": "TAF LGTS 300500Z 3006/3106 VRB03KT CAVOK"
    },
    {
      "icao": "LHBP",
      "alert": "OK",
      "vis_m": 9999,
      "fzfg": false,
      "metar_trigger": false,
      "taf_trigger": false,
      "metar": "METAR LHBP 300630Z 31014KT 9999 -SHSN SCT016 BKN058 00/M02 Q1012 NOSIG",
      "taf": "TAF LHBP 300515Z 3006/3106 31015G27KT 9999 SCT040"
    },
    {
      "icao": "LHDC",
      "alert": "OK",
      "vis_m": 6000,
      "fzfg": false,
      "metar_trigger": false,
      "taf_trigger": false,
      "metar": "METAR LHDC 300615Z AUTO VRB03KT 6000 FEW040 BKN045 M04/M05 Q1011 NOSIG",
      "taf": "TAF LHDC 300515Z 3006/3015 VRB03KT CAVOK"
    },
    {
      "icao": "LIBD",
      "alert": "OK",
      "vis_m": 9999,
      "fzfg": false,
      "metar_trigger": false,
      "taf_trigger": false,
      "metar": "METAR LIBD 300620Z 22005KT CAVOK 02/01 Q1011",
      "taf": "TAF LIBD 300500Z 3006/3106 20006KT 9999 SCT030"
    },
    {
      "icao": "LIBG",
      "alert": "OK",
      "vis_m": null,
      "fzfg": false,
      "metar_trigger": false,
      "taf_trigger": false,
      "metar": "",
      "taf": ""
    },
    {
      "icao": "LIBP",
      "alert": "OK",
      "vis_m": 9999,
      "fzfg": false,
      "metar_trigger": false,
      "taf_trigger": false,
      "metar": "METAR LIBP 300620Z AUTO 24004KT 220V280 9999 FEW017/// 00/M01 Q1013",
      "taf": "TAF LIBP 300500Z 3006/3106 VRB05KT 1200 BCFG FEW030"
    },
    {
      "icao": "LIBR",
      "alert": "OK",
      "vis_m": 9999,
      "fzfg": false,
      "metar_trigger": false,
      "taf_trigger": false,
      "metar": "METAR LIBR 300620Z 18004KT CAVOK 07/04 Q1012",
      "taf": "TAF LIBR 300500Z 3006/3106 23006KT 9999 FEW025"
    },
    {
      "icao": "LICA",
      "alert": "OK",
      "vis_m": 9999,
      "fzfg": false,
      "metar_trigger": false,
      "taf_trigger": false,
      "metar": "METAR LICA 300620Z AUTO 16004KT 9999 OVC030/// 10/09 Q1013",
      "taf": "TAF LICA 300500Z 3006/3106 07006KT 9999 SCT030"
    },
    {
      "icao": "LICC",
      "alert": "OK",
      "vis_m": 9999,
      "fzfg": false,
      "metar_trigger": false,
      "taf_trigger": false,
      "metar": "METAR LICC 300620Z 26007KT 9999 SCT110 08/05 Q1013",
      "taf": "TAF LICC 300500Z 3006/3106 26010KT 9999 SCT030"
    },
    {
      "icao": "LICJ",
      "alert": "OK",
      "vis_m": 9999,
      "fzfg": false,
      "metar_trigger": false,
      "taf_trigger": false,
      "metar": "METAR LICJ 300620Z 18007KT 9999 SCT075 12/08 Q1014",
      "taf": "TAF LICJ 300500Z 3006/3106 17006KT 9999 SCT020"
    },
    {
      "icao": "LIMC",
      "alert": "OK",
      "vis_m": 9999,
      "fzfg": false,
      "metar_trigger": false,
      "taf_trigger": false,
      "metar": "METAR LIMC 300620Z 36006KT CAVOK M02/M03 Q1011 NOSIG",
      "taf": "TAF LIMC 300500Z 3006/3112 VRB04KT CAVOK"
    },
    {
      "icao": "LIME",
      "alert": "OK",
      "vis_m": 9999,
      "fzfg": false,
      "metar_trigger": false,
      "taf_trigger": false,
      "metar": "METAR LIME 300620Z VRB02KT CAVOK 00/M03 Q1011 NOSIG",
      "taf": "TAF LIME 300500Z 3006/3106 VRB04KT CAVOK"
    },
    {
      "icao": "LIMF",
      "alert": "OK",
      "vis_m": 9999,
      "fzfg": false,
      "metar_trigger": false,
      "taf_trigger": false,
      "metar": "METAR LIMF 300620Z VRB02KT CAVOK 01/M06 Q1011",
      "taf": "TAF LIMF 300500Z 3006/3106 VRB05KT CAVOK"
    },
    {
      "icao": "LIMJ",
      "alert": "OK",
      "vis_m": 9999,
      "fzfg": false,
      "metar_trigger": false,
      "taf_trigger": false,
      "metar": "METAR LIMJ 300620Z 07004KT 360V090 9999 FEW040 10/07 Q1012",
      "taf": "TAF LIMJ 300500Z 3006/3106 VRB05KT 9999 FEW020"
    },
    {
      "icao": "LIPE",
      "alert": "OK",
      "vis_m": 9999,
      "fzfg": false,
      "metar_trigger": false,
      "taf_trigger": false,
      "metar": "METAR LIPE 300620Z VRB02KT CAVOK M02/M03 Q1012",
      "taf": "TAF LIPE 300500Z 3006/3106 VRB05KT 6000 SCT015"
    },
    {
      "icao": "LIPH",
      "alert": "OK",
      "vis_m": 8000,
      "fzfg": false,
      "metar_trigger": false,
      "taf_trigger": false,
      "metar": "METAR LIPH 300620Z 34003KT 320V020 8000 BKN020 03/03 Q1012",
      "taf": "TAF LIPH 300500Z 3006/3106 VRB05KT 7000 BKN013"
    },
    {
      "icao": "LIPQ",
      "alert": "OK",
      "vis_m": 9999,
      "fzfg": false,
      "metar_trigger": false,
      "taf_trigger": false,
      "metar": "METAR LIPQ 300620Z AUTO 09003KT 050V120 9999 SCT027/// M00/M00 Q1013",
      "taf": "TAF LIPQ 300500Z 3006/3106 VRB05KT 9999 FEW020"
    },
    {
      "icao": "LIPR",
      "alert": "OK",
      "vis_m": 9999,
      "fzfg": false,
      "metar_trigger": false,
      "taf_trigger": false,
      "metar": "METAR LIPR 300620Z 29006KT CAVOK M01/M01 Q1012",
      "taf": "TAF LIPR 300500Z 3006/3106 VRB05KT 7000 FEW020"
    },
    {
      "icao": "LIPX",
      "alert": "OK",
      "vis_m": 1500,
      "fzfg": false,
      "metar_trigger": false,
      "taf_trigger": false,
      "metar": "METAR LIPX 300620Z 15003KT 1500 BCFG BKN002 M04/M04 Q1012",
      "taf": "TAF LIPX 300500Z 3006/3106 VRB05KT 1000 BCFG NSC"
    },
    {
      "icao": "LIPY",
      "alert": "OK",
      "vis_m": 9999,
      "fzfg": false,
      "metar_trigger": false,
      "taf_trigger": false,
      "metar": "METAR LIPY 300620Z AUTO 20003KT 150V220 9999 NCD 01/01 Q1012",
      "taf": "TAF LIPY 300500Z 3006/3106 VRB05KT 7000 SCT015"
    },
    {
      "icao": "LIPZ",
      "alert": "OK",
      "vis_m": 3000,
      "fzfg": false,
      "metar_trigger": false,
      "taf_trigger": false,
      "metar": "METAR LIPZ 300620Z 36004KT 3000 BR BKN004 01/01 Q1013 NOSIG",
      "taf": "TAF LIPZ 300500Z 3006/3112 VRB05KT 2000 BR SCT012"
    },
    {
      "icao": "LIRF",
      "alert": "OK",
      "vis_m": 9999,
      "fzfg": false,
      "metar_trigger": false,
      "taf_trigger": false,
      "metar": "METAR LIRF 300620Z 04003KT CAVOK 05/04 Q1013 NOSIG",
      "taf": "TAF LIRF 300500Z 3006/3112 07007KT 9999 SCT025"
    },
    {
      "icao": "LIRN",
      "alert": "OK",
      "vis_m": 9999,
      "fzfg": false,
      "metar_trigger": false,
      "taf_trigger": false,
      "metar": "METAR LIRN 300620Z VRB02KT CAVOK 05/02 Q1013 NOSIG",
      "taf": "TAF LIRN 300500Z 3006/3106 VRB05KT 9999 FEW025"
    },
    {
      "icao": "LIRP",
      "alert": "OK",
      "vis_m": 9999,
      "fzfg": false,
      "metar_trigger": false,
      "taf_trigger": false,
      "metar": "METAR LIRP 300615Z 14005KT 9999 SCT030 03/03 Q1012 NOSIG",
      "taf": "TAF LIRP 300500Z 3006/3106 14005KT 9999 SCT020 SCT040"
    },
    {
      "icao": "LIRZ",
      "alert": "OK",
      "vis_m": 9999,
      "fzfg": false,
      "metar_trigger": false,
      "taf_trigger": false,
      "metar": "METAR LIRZ 300620Z AUTO VRB01KT 9999 OVC041/// 02/01 Q1013",
      "taf": "TAF LIRZ 300500Z 3006/3106 VRB03KT 9999 FEW030"
    },
    {
      "icao": "LJLJ",
      "alert": "OK",
      "vis_m": 9999,
      "fzfg": false,
      "metar_trigger": false,
      "taf_trigger": false,
      "metar": "METAR LJLJ 300630Z 30004KT 9999 FEW001 M08/M09 Q1016 NOSIG",
      "taf": "TAF LJLJ 300500Z 3006/3106 30002KT 9999 FEW002"
    },
    {
      "icao": "LKMT",
      "alert": "OK",
      "vis_m": 9999,
      "fzfg": false,
      "metar_trigger": false,
      "taf_trigger": false,
      "metar": "METAR LKMT 300630Z 31006KT 9999 FEW033 M03/M08 Q1015 NOSIG",
      "taf": "TAF LKMT 300500Z 3006/3106 34010KT CAVOK"
    },
    {
      "icao": "LKPR",
      "alert": "OK",
      "vis_m": 9999,
      "fzfg": false,
      "metar_trigger": false,
      "taf_trigger": false,
      "metar": "METAR LKPR 300630Z 27007KT CAVOK M04/M07 Q1019 NOSIG",
      "taf": "TAF LKPR 300500Z 3006/3112 32014KT 9999 SCT025"
    },
    {
      "icao": "LLBG",
      "alert": "OK",
      "vis_m": 9999,
      "fzfg": false,
      "metar_trigger": false,
      "taf_trigger": false,
      "metar": "METAR LLBG 300620Z 17009KT 9999 FEW045 14/10 Q1020 NOSIG RMK BKN065",
      "taf": "TAF LLBG 300504Z 3006/3106 17006KT 9999 SCT040"
    },
    {
      "icao": "LMML",
      "alert": "OK",
      "vis_m": 9999,
      "fzfg": false,
      "metar_trigger": false,
      "taf_trigger": false,
      "metar": "METAR LMML 300615Z 28009KT 9999 FEW020CB 12/09 Q1014 NOSIG",
      "taf": "TAF LMML 300500Z 3006/3106 27005KT 9999 SCT023"
    },
    {
      "icao": "LOWW",
      "alert": "OK",
      "vis_m": 9999,
      "fzfg": false,
      "metar_trigger": false,
      "taf_trigger": false,
      "metar": "METAR LOWW 300620Z 31012KT 9999 FEW017 00/M02 Q1017 NOSIG",
      "taf": "TAF LOWW 300515Z 3006/3112 31015KT CAVOK TX02/3011Z TNM02/3106Z"
    },
    {
      "icao": "LPFR",
      "alert": "OK",
      "vis_m": 9999,
      "fzfg": false,
      "metar_trigger": false,
      "taf_trigger": false,
      "metar": "METAR LPFR 300630Z 03007KT 020V080 CAVOK 09/07 Q1020",
      "taf": "TAF LPFR 300500Z 3006/3106 03005KT CAVOK"
    },
    {
      "icao": "LPMA",
      "alert": "OK",
      "vis_m": 9999,
      "fzfg": false,
      "metar_trigger": false,
      "taf_trigger": false,
      "metar": "METAR LPMA 300630Z 28004KT 9999 BKN015 16/13 Q1017",
      "taf": "TAF LPMA 300500Z 3006/3106 22012KT 9999 SCT015"
    },
    {
      "icao": "LPPR",
      "alert": "OK",
      "vis_m": 9000,
      "fzfg": false,
      "metar_trigger": false,
      "taf_trigger": false,
      "metar": "METAR LPPR 300630Z VRB02KT 9000 NSC 06/05 Q1021",
      "taf": "TAF LPPR 300500Z 3006/3106 09007KT 6000 FEW004"
    },
    {
      "icao": "LPPS",
      "alert": "OK",
      "vis_m": 9999,
      "fzfg": false,
      "metar_trigger": false,
      "taf_trigger": false,
      "metar": "METAR LPPS 300630Z 29008KT 9999 FEW006 SCT010 17/16 Q1017",
      "taf": "TAF LPPS 300500Z 3006/3112 29010KT 9999 SCT015"
    },
    {
      "icao": "LPPT",
      "alert": "OK",
      "vis_m": 400,
      "fzfg": false,
      "metar_trigger": false,
      "taf_trigger": false,
      "metar": "METAR LPPT 300630Z 00000KT 0400 R02/0700 FG VV001 05/05 Q1021",
      "taf": "TAF LPPT 300500Z 3006/3112 VRB02KT 0100 FG VV001"
    },
    {
      "icao": "LQBK",
      "alert": "OK",
      "vis_m": 9999,
      "fzfg": false,
      "metar_trigger": false,
      "taf_trigger": false,
      "metar": "METAR LQBK 300630Z VRB03KT 9999 FEW001 M05/M06 Q1017 NOSIG",
      "taf": "TAF LQBK 300500Z 3006/3106 30005KT 9999 SCT030 TX03/3013Z TNM07/3105Z"
    },
    {
      "icao": "LQSA",
      "alert": "OK",
      "vis_m": 7000,
      "fzfg": false,
      "metar_trigger": false,
      "taf_trigger": false,
      "metar": "METAR LQSA 300630Z VRB02KT 7000 3000NW SCT002 M08/M08 Q1015 TEMPO 3000 BR BKN003",
      "taf": "TAF LQSA 300500Z 3006/3106 VRB02KT CAVOK TX03/3013Z TNM09/3106Z"
    },
    {
      "icao": "LQTZ",
      "alert": "OK",
      "vis_m": 4000,
      "fzfg": false,
      "metar_trigger": false,
      "taf_trigger": false,
      "metar": "METAR LQTZ 300630Z 08002KT 4000 BR NSC M07/M07 Q1016",
      "taf": "TAF LQTZ 300500Z 3006/3106 29005KT 9999 BKN030 TX02/3013Z TNM08/3105Z"
    },
    {
      "icao": "LRBC",
      "alert": "OK",
      "vis_m": 9999,
      "fzfg": false,
      "metar_trigger": false,
      "taf_trigger": false,
      "metar": "METAR LRBC 300630Z VRB02KT 9999 BKN052 M04/M05 Q1005",
      "taf": "TAF LRBC 300500Z 3006/3015 VRB04KT CAVOK"
    },
    {
      "icao": "LRBS",
      "alert": "OK",
      "vis_m": 9999,
      "fzfg": false,
      "metar_trigger": false,
      "taf_trigger": false,
      "metar": "METAR LRBS 300630Z 00000KT CAVOK M05/M06 Q1006 NOSIG",
      "taf": "TAF LRBS 300500Z 3006/3106 VRB04KT CAVOK"
    },
    {
      "icao": "LRBV",
      "alert": "OK",
      "vis_m": 9999,
      "fzfg": false,
      "metar_trigger": false,
      "taf_trigger": false,
      "metar": "METAR LRBV 300630Z 23005KT 190V280 9999 OVC022 M04/M07 Q1007",
      "taf": "TAF LRBV 300500Z 3006/3015 25006KT 9999 BKN030"
    },
    {
      "icao": "LRCL",
      "alert": "OK",
      "vis_m": 9999,
      "fzfg": false,
      "metar_trigger": false,
      "taf_trigger": false,
      "metar": "METAR LRCL 300630Z 27007KT 9999 -SN OVC037 M03/M07 Q1009",
      "taf": "TAF LRCL 300500Z 3006/3015 27005KT 9999 BKN035"
    },
    {
      "icao": "LRCV",
      "alert": "OK",
      "vis_m": 9999,
      "fzfg": false,
      "metar_trigger": false,
      "taf_trigger": false,
      "metar": "METAR LRCV 300630Z 27020KT CAVOK 01/M05 Q1006",
      "taf": "TAF LRCV 300500Z 3006/3015 28018KT CAVOK"
    },
    {
      "icao": "LRIA",
      "alert": "OK",
      "vis_m": 8000,
      "fzfg": false,
      "metar_trigger": false,
      "taf_trigger": false,
      "metar": "METAR LRIA 300630Z 26008KT 230V300 8000 -SN SCT014 BKN022 M00/M05 Q1005",
      "taf": "TAF LRIA 300500Z 3006/3015 23006KT 9999 BKN040"
    },
    {
      "icao": "LROP",
      "alert": "OK",
      "vis_m": 7000,
      "fzfg": false,
      "metar_trigger": false,
      "taf_trigger": false,
      "metar": "METAR LROP 300630Z 00000KT 7000 NSC M06/M07 Q1006 NOSIG",
      "taf": "TAF LROP 300500Z 3006/3106 VRB04KT CAVOK"
    },
    {
      "icao": "LRSB",
      "alert": "OK",
      "vis_m": 9999,
      "fzfg": false,
      "metar_trigger": false,
      "taf_trigger": false,
      "metar": "METAR LRSB 300630Z 28016KT 9999 SCT017 BKN024 M03/M06 Q1009",
      "taf": "TAF LRSB 300500Z 3006/3106 30012KT 9999 SCT020 BKN050"
    },
    {
      "icao": "LRSM",
      "alert": "OK",
      "vis_m": 9999,
      "fzfg": false,
      "metar_trigger": false,
      "taf_trigger": false,
      "metar": "METAR LRSM 300630Z 24005KT 220V280 9999 BKN046 M04/M05 Q1010",
      "taf": "TAF LRSM 300500Z 3006/3015 26008KT 9999 SCT010 BKN040"
    },
    {
      "icao": "LRSV",
      "alert": "OK",
      "vis_m": 9999,
      "fzfg": false,
      "metar_trigger": false,
      "taf_trigger": false,
      "metar": "METAR LRSV 300630Z 32014KT 9999 -SHSN SCT013 SCT025CB M03/M07 Q1004",
      "taf": "TAF LRSV 300500Z 3006/3015 32012KT 9999 BKN035"
    },
    {
      "icao": "LRTM",
      "alert": "OK",
      "vis_m": 9000,
      "fzfg": false,
      "metar_trigger": false,
      "taf_trigger": false,
      "metar": "METAR LRTM 300630Z 22006KT 9000 -SN FEW005 SCT042 BKN049 M05/M07 Q1009",
      "taf": "TAF LRTM 300500Z 3006/3015 VRB04KT 9999 BKN035"
    },
    {
      "icao": "LRTR",
      "alert": "OK",
      "vis_m": 9999,
      "fzfg": false,
      "metar_trigger": false,
      "taf_trigger": false,
      "metar": "METAR LRTR 300630Z 26005KT 210V280 9999 FEW025 BKN045 M05/M05 Q1013",
      "taf": "TAF LRTR 300500Z 3006/3106 26008KT 9999 BKN025"
    },
    {
      "icao": "LTAC",
      "alert": "OK",
      "vis_m": 8000,
      "fzfg": false,
      "metar_trigger": false,
      "taf_trigger": false,
      "metar": "METAR LTAC 300620Z VRB02KT 8000 FEW040 M05/M08 Q1014 NOSIG RMK RWY21C VRB01KT RWY03L 27002KT RWY21R 00000KT RWY03R 22001KT RWY21L 19003KT",
      "taf": "TAF LTAC 300440Z 3006/3106 19007KT 9999 SCT040"
    },
    {
      "icao": "LTFM",
      "alert": "OK",
      "vis_m": 9999,
      "fzfg": false,
      "metar_trigger": false,
      "taf_trigger": false,
      "metar": "METAR LTFM 300620Z 22024KT 9999 SCT025 08/02 Q1009 NOSIG RMK RWY17L 21023KT RWY34L 21022KT RWY16R 21023KT RWY36 22021KT RWY18 22021KT",
      "taf": "TAF LTFM 300440Z 3006/3112 21023G33KT 9999 SCT025"
    },
    {
      "icao": "LUKK",
      "alert": "OK",
      "vis_m": 9999,
      "fzfg": false,
      "metar_trigger": false,
      "taf_trigger": false,
      "metar": "METAR LUKK 300630Z 29010KT CAVOK M00/M05 Q1004 NOSIG",
      "taf": "TAF LUKK 300510Z 3006/3106 29012KT 9999 BKN040"
    },
    {
      "icao": "LWOH",
      "alert": "OK",
      "vis_m": 9999,
      "fzfg": false,
      "metar_trigger": false,
      "taf_trigger": false,
      "metar": "METAR LWOH 300620Z 32005KT CAVOK M06/M08 Q1012",
      "taf": "TAF LWOH 300520Z 3006/3106 34006KT CAVOK"
    },
    {
      "icao": "LWSK",
      "alert": "OK",
      "vis_m": 9999,
      "fzfg": false,
      "metar_trigger": false,
      "taf_trigger": false,
      "metar": "METAR LWSK 300620Z VRB02KT CAVOK M08/M10 Q1013 NOSIG",
      "taf": "TAF LWSK 300520Z 3006/3106 VRB02KT CAVOK"
    },
    {
      "icao": "LYBE",
      "alert": "OK",
      "vis_m": 9999,
      "fzfg": false,
      "metar_trigger": false,
      "taf_trigger": false,
      "metar": "METAR LYBE 300630Z 27009KT CAVOK M03/M04 Q1015 NOSIG",
      "taf": "TAF LYBE 300500Z 3006/3106 27010KT 9999 SCT027 TX04/3013Z TNM05/3106Z"
    },
    {
      "icao": "LYNI",
      "alert": "OK",
      "vis_m": 9999,
      "fzfg": false,
      "metar_trigger": false,
      "taf_trigger": false,
      "metar": "METAR LYNI 300630Z 32013KT CAVOK M01/M05 Q1013 NOSIG",
      "taf": "TAF LYNI 300500Z 3006/3106 30006KT 9999 SCT030 TX03/3012Z TNM05/3006Z"
    },
    {
      "icao": "LYPG",
      "alert": "OK",
      "vis_m": 9999,
      "fzfg": false,
      "metar_trigger": false,
      "taf_trigger": false,
      "metar": "METAR LYPG 300630Z 34003KT 240V360 9999 BKN040 M01/M05 Q1014 NOSIG",
      "taf": "TAF LYPG 300500Z 3006/3106 36006KT 9999 SCT050 TX10/3013Z TNM02/3006Z"
    },
    {
      "icao": "LZIB",
      "alert": "OK",
      "vis_m": 9999,
      "fzfg": false,
      "metar_trigger": false,
      "taf_trigger": false,
      "metar": "METAR LZIB 300630Z 30011KT 9999 FEW015 01/M02 Q1016 NOSIG",
      "taf": "TAF LZIB 300515Z 3006/3106 30010KT CAVOK"
    },
    {
      "icao": "LZKZ",
      "alert": "OK",
      "vis_m": 9999,
      "fzfg": false,
      "metar_trigger": false,
      "taf_trigger": false,
      "metar": "METAR LZKZ 300630Z 14004KT 120V200 9999 FEW041 M07/M08 Q1010 NOSIG",
      "taf": "TAF LZKZ 300515Z 3006/3106 35008KT CAVOK"
    },
    {
      "icao": "LZTT",
      "alert": "OK",
      "vis_m": 9999,
      "fzfg": false,
      "metar_trigger": false,
      "taf_trigger": false,
      "metar": "METAR LZTT 300630Z 28009KT 250V320 9999 FEW033 M05/M14 Q1007 NOSIG",
      "taf": "TAF LZTT 300515Z 3006/3106 27007KT 9999 -SN SCT012 BKN018"
    },
    {
      "icao": "OEJN",
      "alert": "OK",
      "vis_m": 9999,
      "fzfg": false,
      "metar_trigger": false,
      "taf_trigger": false,
      "metar": "METAR OEJN 300600Z 05005KT CAVOK 23/13 Q1019 NOSIG",
      "taf": "TAF OEJN 300500Z 3006/3112 33014KT 7000 NSC"
    },
    {
      "icao": "OEMA",
      "alert": "OK",
      "vis_m": 9999,
      "fzfg": false,
      "metar_trigger": false,
      "taf_trigger": false,
      "metar": "METAR OEMA 300600Z 17003KT CAVOK 15/03 Q1023 NOSIG",
      "taf": "TAF OEMA 300500Z 3006/3112 09008KT CAVOK"
    },
    {
      "icao": "OJAI",
      "alert": "OK",
      "vis_m": 4000,
      "fzfg": false,
      "metar_trigger": false,
      "taf_trigger": false,
      "metar": "METAR OJAI 300600Z 26005KT 4000 BR SCT025 SCT030 08/07 Q1021 NOSIG",
      "taf": "TAF OJAI 300446Z 3006/3112 25012KT 3000 BR SCT030"
    },
    {
      "icao": "OMAA",
      "alert": "OK",
      "vis_m": 9999,
      "fzfg": false,
      "metar_trigger": false,
      "taf_trigger": false,
      "metar": "METAR OMAA 300600Z 31012KT 9999 FEW040 23/08 Q1017 NOSIG",
      "taf": "TAF OMAA 300500Z 3006/3112 31013KT 8000 FEW040"
    },
    {
      "icao": "OMDB",
      "alert": "OK",
      "vis_m": 9999,
      "fzfg": false,
      "metar_trigger": false,
      "taf_trigger": false,
      "metar": "METAR OMDB 300630Z 31019KT 9999 FEW045 24/06 Q1017 NOSIG",
      "taf": "TAF OMDB 300500Z 3006/3112 29014KT 8000 FEW040"
    },
    {
      "icao": "UAAA",
      "alert": "OK",
      "vis_m": 5000,
      "fzfg": false,
      "metar_trigger": false,
      "taf_trigger": false,
      "metar": "METAR UAAA 300630Z 21002MPS 170V240 5000 FU FEW100 BKN200 08/M02 Q1007 NOSIG",
      "taf": "TAF UAAA 300504Z 3006/3106 03003MPS 6000 FEW050CB BKN100 TX07/3009Z TNM03/3101Z"
    },
    {
      "icao": "UBBB",
      "alert": "OK",
      "vis_m": 9999,
      "fzfg": false,
      "metar_trigger": false,
      "taf_trigger": false,
      "metar": "METAR UBBB 300630Z 31018G28KT 9999 SCT013 BKN024 08/04 Q1007 NOSIG",
      "taf": "TAF UBBB 300505Z 3006/3106 32016G26KT 9999 SCT030 TX08/3006Z TN02/3102Z"
    },
    {
      "icao": "UDSG",
      "alert": "OK",
      "vis_m": 9999,
      "fzfg": false,
      "metar_trigger": false,
      "taf_trigger": false,
      "metar": "METAR UDSG 300630Z 13001KT 9999 FEW049 M10/M16 Q1011 NOSIG",
      "taf": "TAF UDSG 300458Z 3006/3106 VRB06KT 9999 FEW050"
    },
    {
      "icao": "UDYZ",
      "alert": "OK",
      "vis_m": 9000,
      "fzfg": false,
      "metar_trigger": false,
      "taf_trigger": false,
      "metar": "METAR UDYZ 300630Z 34001KT 9000 FEW046 M06/M07 Q1014 NOSIG",
      "taf": "TAF UDYZ 300500Z 3006/3106 VRB04KT 3500 BR FEW040"
    },
    {
      "icao": "UGKO",
      "alert": "OK",
      "vis_m": 9999,
      "fzfg": false,
      "metar_trigger": false,
      "taf_trigger": false,
      "metar": "METAR UGKO 300630Z 23010KT 9999 SCT003 BKN014 OVC046 00/M00 Q1014 NOSIG",
      "taf": "TAF UGKO 300500Z 3006/3106 25010KT 7000 -SNRA SCT015 OVC035 TX02/3009Z TNM01/3015Z"
    }
  ]
}