{
  "ts_utc": "2025-12-24T22:54:43Z",
  "threshold_m": 150,
  "source": "stations_override.txt (ICAO list) + aviationweather.gov (METAR/TAF raw)",
  "station_count": 159,
  "stations": [
    {
      "icao": "BIKF",
      "alert": "OK",
      "vis_m": 5000,
      "fzfg": false,
      "metar_trigger": false,
      "taf_trigger": false,
      "metar": "METAR BIKF 242230Z 18030G40KT 5000 -DZ BR OVC008 09/08 Q1014",
      "taf": "TAF BIKF 241959Z 2421/2521 18032G43KT 6000 -RADZ SCT007 BKN012 TX09/2421Z TN07/2512Z"
    },
    {
      "icao": "BKPR",
      "alert": "OK",
      "vis_m": null,
      "fzfg": false,
      "metar_trigger": false,
      "taf_trigger": false,
      "metar": "",
      "taf": "TAF BKPR 241730Z 2418/2518 03008KT 9999 SCT012 BKN025"
    },
    {
      "icao": "EBCI",
      "alert": "OK",
      "vis_m": 9999,
      "fzfg": false,
      "metar_trigger": false,
      "taf_trigger": false,
      "metar": "METAR EBCI 242220Z 05020KT 9999 FEW025 M03/M08 Q1025 NOSIG",
      "taf": "TAF EBCI 241720Z 2418/2524 05013KT 9999 FEW030"
    },
    {
      "icao": "EDDB",
      "alert": "OK",
      "vis_m": 9999,
      "fzfg": false,
      "metar_trigger": false,
      "taf_trigger": false,
      "metar": "METAR EDDB 242250Z AUTO 07008KT 9999 SCT014 M08/M10 Q1038 NOSIG",
      "taf": "TAF EDDB 241700Z 2418/2518 07008KT CAVOK"
    },
    {
      "icao": "EDDH",
      "alert": "OK",
      "vis_m": 9999,
      "fzfg": false,
      "metar_trigger": false,
      "taf_trigger": false,
      "metar": "METAR EDDH 242250Z AUTO 08008KT CAVOK M02/M05 Q1039 NOSIG",
      "taf": "TAF EDDH 241700Z 2418/2524 07010KT CAVOK"
    },
    {
      "icao": "EDDK",
      "alert": "OK",
      "vis_m": 9999,
      "fzfg": false,
      "metar_trigger": false,
      "taf_trigger": false,
      "metar": "METAR EDDK 242250Z AUTO 01002KT CAVOK M04/M09 Q1028 NOSIG",
      "taf": "TAF EDDK 241700Z 2418/2524 07009KT CAVOK"
    },
    {
      "icao": "EDDN",
      "alert": "OK",
      "vis_m": 9999,
      "fzfg": false,
      "metar_trigger": false,
      "taf_trigger": false,
      "metar": "METAR EDDN 242250Z AUTO 07011G21KT 020V130 CAVOK M02/M07 Q1024",
      "taf": "TAF EDDN 241700Z 2418/2518 07015G25KT 9999 SCT030"
    },
    {
      "icao": "EDDS",
      "alert": "OK",
      "vis_m": 9999,
      "fzfg": false,
      "metar_trigger": false,
      "taf_trigger": false,
      "metar": "METAR EDDS 242250Z AUTO 06012KT 9999 OVC021 M00/M05 Q1019",
      "taf": "TAF EDDS 241700Z 2418/2518 04015G25KT 9999 BKN020 OVC030"
    },
    {
      "icao": "EDFH",
      "alert": "OK",
      "vis_m": 9999,
      "fzfg": false,
      "metar_trigger": false,
      "taf_trigger": false,
      "metar": "METAR EDFH 242220Z 07016KT 9999 SCT020 M05/M08 Q1022",
      "taf": "TAF EDFH 241700Z 2418/2518 05015G30KT 9999 SCT020 BKN030"
    },
    {
      "icao": "EDJA",
      "alert": "OK",
      "vis_m": 9999,
      "fzfg": false,
      "metar_trigger": false,
      "taf_trigger": false,
      "metar": "METAR EDJA 242220Z AUTO 06016KT 9999 // OVC008/// M02/M03 Q1016",
      "taf": "TAF EDJA 241700Z 2418/2503 06015KT 6000 BKN011"
    },
    {
      "icao": "EDLW",
      "alert": "OK",
      "vis_m": 9999,
      "fzfg": false,
      "metar_trigger": false,
      "taf_trigger": false,
      "metar": "METAR EDLW 242220Z AUTO 03010KT 010V070 9999 // NCD M04/M08 Q1030",
      "taf": "TAF EDLW 241700Z 2418/2518 05011KT CAVOK"
    },
    {
      "icao": "EDNY",
      "alert": "OK",
      "vis_m": 9999,
      "fzfg": false,
      "metar_trigger": false,
      "taf_trigger": false,
      "metar": "METAR EDNY 242220Z AUTO 05015KT 9999 // BKN020/// BKN180/// BKN210/// 01/M03 Q1016",
      "taf": "TAF EDNY 241400Z 2415/2418 04015KT 9999 BKN020"
    },
    {
      "icao": "EDSB",
      "alert": "OK",
      "vis_m": 9999,
      "fzfg": false,
      "metar_trigger": false,
      "taf_trigger": false,
      "metar": "METAR EDSB 242220Z AUTO 03020KT 9999 // OVC032/// 01/M05 Q1019",
      "taf": ""
    },
    {
      "icao": "EETN",
      "alert": "OK",
      "vis_m": 9999,
      "fzfg": false,
      "metar_trigger": false,
      "taf_trigger": false,
      "metar": "METAR EETN 242250Z 28010KT 9999 OVC010 03/02 Q1031",
      "taf": "TAF EETN 241730Z 2418/2518 29014KT 9999 OVC010"
    },
    {
      "icao": "EFTU",
      "alert": "OK",
      "vis_m": 9999,
      "fzfg": false,
      "metar_trigger": false,
      "taf_trigger": false,
      "metar": "METAR EFTU 242250Z AUTO 28007KT CAVOK 01/01 Q1031",
      "taf": "TAF EFTU 242037Z 2421/2521 28007KT 9999 BKN005"
    },
    {
      "icao": "EGBB",
      "alert": "OK",
      "vis_m": 9999,
      "fzfg": false,
      "metar_trigger": false,
      "taf_trigger": false,
      "metar": "METAR EGBB 242220Z 04011KT 9999 SCT031 04/00 Q1035",
      "taf": "TAF EGBB 241657Z 2418/2518 06009KT 9999 SCT030"
    },
    {
      "icao": "EGGP",
      "alert": "OK",
      "vis_m": 9999,
      "fzfg": false,
      "metar_trigger": false,
      "taf_trigger": false,
      "metar": "METAR EGGP 242220Z 08008KT 9999 BKN031 04/M01 Q1038",
      "taf": "TAF EGGP 241658Z 2418/2518 07007KT 9999 SCT025"
    },
    {
      "icao": "EGGW",
      "alert": "OK",
      "vis_m": 9999,
      "fzfg": false,
      "metar_trigger": false,
      "taf_trigger": false,
      "metar": "METAR EGGW 242220Z AUTO 03015G25KT 9999 NCD 02/M01 Q1032",
      "taf": "TAF EGGW 241658Z 2418/2518 05013KT 9999 SCT025"
    },
    {
      "icao": "EGKK",
      "alert": "OK",
      "vis_m": 9999,
      "fzfg": false,
      "metar_trigger": false,
      "taf_trigger": false,
      "metar": "METAR EGKK 242220Z 03014KT 9999 SCT030 03/00 Q1030",
      "taf": "TAF EGKK 241655Z 2418/2524 04013KT 9999 FEW030"
    },
    {
      "icao": "EGNM",
      "alert": "OK",
      "vis_m": null,
      "fzfg": false,
      "metar_trigger": false,
      "taf_trigger": false,
      "metar": "",
      "taf": "TAF EGNM 241658Z 2418/2518 06008KT 9999 SCT025"
    },
    {
      "icao": "EGPD",
      "alert": "OK",
      "vis_m": 9999,
      "fzfg": false,
      "metar_trigger": false,
      "taf_trigger": false,
      "metar": "METAR EGPD 242220Z AUTO 00000KT 9999 NCD M00/M01 Q1041 TEMPO 4000 BR",
      "taf": ""
    },
    {
      "icao": "EGPF",
      "alert": "OK",
      "vis_m": 5000,
      "fzfg": false,
      "metar_trigger": false,
      "taf_trigger": false,
      "metar": "METAR EGPF 242220Z COR 24002KT 5000 BR NSC M02/M02 Q1041",
      "taf": ""
    },
    {
      "icao": "EHBK",
      "alert": "OK",
      "vis_m": 9999,
      "fzfg": false,
      "metar_trigger": false,
      "taf_trigger": false,
      "metar": "METAR EHBK 242225Z AUTO 05019KT 020V080 9999 NCD M03/M08 Q1027",
      "taf": "TAF EHBK 241711Z 2418/2524 05015KT CAVOK"
    },
    {
      "icao": "EHEH",
      "alert": "OK",
      "vis_m": 9999,
      "fzfg": false,
      "metar_trigger": false,
      "taf_trigger": false,
      "metar": "METAR EHEH 242225Z AUTO 05018KT 020V080 9999 NCD M02/M07 Q1030 BLU",
      "taf": "TAF EHEH 241723Z 2418/2524 06013KT 9999 FEW025"
    },
    {
      "icao": "EKBI",
      "alert": "OK",
      "vis_m": 9999,
      "fzfg": false,
      "metar_trigger": false,
      "taf_trigger": false,
      "metar": "METAR EKBI 242250Z AUTO 05001KT 9999 OVC020/// 01/M02 Q1041",
      "taf": "TAF EKBI 242027Z 2421/2521 VRB02KT 9999 BKN025"
    },
    {
      "icao": "EKCH",
      "alert": "OK",
      "vis_m": 9999,
      "fzfg": false,
      "metar_trigger": false,
      "taf_trigger": false,
      "metar": "METAR EKCH 242250Z AUTO 05006KT 9999 NCD M03/M04 Q1042 NOSIG",
      "taf": "TAF EKCH 242027Z 2421/2521 VRB02KT 9999 SCT030"
    },
    {
      "icao": "ENAL",
      "alert": "OK",
      "vis_m": 9999,
      "fzfg": false,
      "metar_trigger": false,
      "taf_trigger": false,
      "metar": "METAR ENAL 242220Z AUTO 21014KT 9999 FEW020/// BKN026/// OVC033/// 08/04 Q1038",
      "taf": "TAF ENAL 242000Z 2421/2506 20012KT 9999 BKN030"
    },
    {
      "icao": "ENBR",
      "alert": "OK",
      "vis_m": 9999,
      "fzfg": false,
      "metar_trigger": false,
      "taf_trigger": false,
      "metar": "METAR ENBR 242220Z VRB02KT 9999 BKN027 03/02 Q1041 RMK WIND 1200FT VRB02KT",
      "taf": "TAF ENBR 241700Z 2418/2518 09005KT 9999 BKN030"
    },
    {
      "icao": "ENGM",
      "alert": "OK",
      "vis_m": 9999,
      "fzfg": false,
      "metar_trigger": false,
      "taf_trigger": false,
      "metar": "METAR ENGM 242220Z VRB02KT CAVOK M09/M10 Q1039",
      "taf": "TAF ENGM 241700Z 2418/2518 VRB03KT CAVOK"
    },
    {
      "icao": "ENHD",
      "alert": "OK",
      "vis_m": 9999,
      "fzfg": false,
      "metar_trigger": false,
      "taf_trigger": false,
      "metar": "METAR ENHD 242220Z AUTO 13003KT 110V200 9999 FEW031/// M01/M01 Q1042",
      "taf": "TAF ENHD 241400Z 2415/2423 02005KT 9999 FEW030"
    },
    {
      "icao": "ENTC",
      "alert": "OK",
      "vis_m": 5000,
      "fzfg": false,
      "metar_trigger": false,
      "taf_trigger": false,
      "metar": "METAR ENTC 242220Z AUTO 21023KT 5000 RA OVC030/// 04/02 Q1005 REDZRA RMK WIND 2600FT 25048G68KT",
      "taf": "TAF ENTC 241700Z 2418/2518 22025KT 9999 -RA FEW009 BKN018"
    },
    {
      "icao": "ENTO",
      "alert": "OK",
      "vis_m": 9999,
      "fzfg": false,
      "metar_trigger": false,
      "taf_trigger": false,
      "metar": "METAR ENTO 242220Z AUTO VRB02KT 9999 NCD M06/M07 Q1040",
      "taf": "TAF ENTO 241700Z 2418/2518 35005KT CAVOK"
    },
    {
      "icao": "ENVA",
      "alert": "OK",
      "vis_m": 9999,
      "fzfg": false,
      "metar_trigger": false,
      "taf_trigger": false,
      "metar": "METAR ENVA 242220Z 24016KT 9999 BKN022 08/04 Q1034 RMK WIND 670FT 24017G29KT",
      "taf": ""
    },
    {
      "icao": "ENZV",
      "alert": "OK",
      "vis_m": 9999,
      "fzfg": false,
      "metar_trigger": false,
      "taf_trigger": false,
      "metar": "METAR ENZV 242220Z 00000KT CAVOK M02/M03 Q1041",
      "taf": "TAF ENZV 241700Z 2418/2518 VRB03KT CAVOK"
    },
    {
      "icao": "EPGD",
      "alert": "OK",
      "vis_m": 9999,
      "fzfg": false,
      "metar_trigger": false,
      "taf_trigger": false,
      "metar": "METAR EPGD 242230Z 15004KT CAVOK M08/M10 Q1040",
      "taf": "TAF EPGD 241730Z 2418/2518 11010KT CAVOK"
    },
    {
      "icao": "EPKK",
      "alert": "OK",
      "vis_m": 9999,
      "fzfg": false,
      "metar_trigger": false,
      "taf_trigger": false,
      "metar": "METAR EPKK 242230Z 05008KT 040V100 9999 OVC011 M05/M08 Q1034",
      "taf": "TAF EPKK 242030Z 2421/2521 06013KT 9999 OVC010"
    },
    {
      "icao": "EPKT",
      "alert": "OK",
      "vis_m": 9999,
      "fzfg": false,
      "metar_trigger": false,
      "taf_trigger": false,
      "metar": "METAR EPKT 242230Z 07010KT 9999 OVC008 M07/M09 Q1034",
      "taf": "TAF EPKT 241730Z 2418/2518 07014KT 9999 OVC012"
    },
    {
      "icao": "EPLB",
      "alert": "OK",
      "vis_m": 9999,
      "fzfg": false,
      "metar_trigger": false,
      "taf_trigger": false,
      "metar": "METAR EPLB 242230Z 08007KT CAVOK M12/M13 Q1038",
      "taf": "TAF EPLB 241730Z 2418/2518 06008KT CAVOK"
    },
    {
      "icao": "EPMO",
      "alert": "OK",
      "vis_m": 9999,
      "fzfg": false,
      "metar_trigger": false,
      "taf_trigger": false,
      "metar": "METAR EPMO 242230Z 06004KT CAVOK M11/M12 Q1040",
      "taf": "TAF EPMO 241730Z 2418/2518 07007KT CAVOK"
    },
    {
      "icao": "EPPO",
      "alert": "OK",
      "vis_m": 9999,
      "fzfg": false,
      "metar_trigger": false,
      "taf_trigger": false,
      "metar": "METAR EPPO 242230Z 08006KT CAVOK M09/M11 Q1039",
      "taf": "TAF EPPO 241730Z 2418/2518 08010KT CAVOK"
    },
    {
      "icao": "EPRA",
      "alert": "OK",
      "vis_m": 9999,
      "fzfg": false,
      "metar_trigger": false,
      "taf_trigger": false,
      "metar": "METAR EPRA 242230Z 07004KT CAVOK M11/M13 Q1038",
      "taf": "TAF EPRA 242030Z 2421/2506 06005KT CAVOK"
    },
    {
      "icao": "EPRZ",
      "alert": "OK",
      "vis_m": 9999,
      "fzfg": false,
      "metar_trigger": false,
      "taf_trigger": false,
      "metar": "METAR EPRZ 242230Z 05010KT 9999 OVC011 M05/M08 Q1035",
      "taf": "TAF EPRZ 241730Z 2418/2518 05012KT 9999 OVC012"
    },
    {
      "icao": "EPSC",
      "alert": "OK",
      "vis_m": 9999,
      "fzfg": false,
      "metar_trigger": false,
      "taf_trigger": false,
      "metar": "METAR EPSC 242230Z 02001KT CAVOK M09/M12 Q1040",
      "taf": "TAF EPSC 241730Z 2418/2518 07005KT CAVOK"
    },
    {
      "icao": "EPSY",
      "alert": "OK",
      "vis_m": 9999,
      "fzfg": false,
      "metar_trigger": false,
      "taf_trigger": false,
      "metar": "METAR EPSY 242230Z 00000KT CAVOK M13/M15 Q1040",
      "taf": "TAF EPSY 242030Z 2421/2506 VRB02KT CAVOK"
    },
    {
      "icao": "EPWA",
      "alert": "OK",
      "vis_m": 9999,
      "fzfg": false,
      "metar_trigger": false,
      "taf_trigger": false,
      "metar": "METAR EPWA 242230Z 07006KT CAVOK M09/M12 Q1040 NOSIG",
      "taf": "TAF EPWA 242030Z 2421/2521 07007KT CAVOK"
    },
    {
      "icao": "EPWR",
      "alert": "OK",
      "vis_m": 9999,
      "fzfg": false,
      "metar_trigger": false,
      "taf_trigger": false,
      "metar": "METAR EPWR 242230Z 07005KT 9999 BKN017 M07/M10 Q1037",
      "taf": "TAF EPWR 242030Z 2421/2521 07010KT 9999 BKN016"
    },
    {
      "icao": "ESGG",
      "alert": "OK",
      "vis_m": 9999,
      "fzfg": false,
      "metar_trigger": false,
      "taf_trigger": false,
      "metar": "METAR ESGG 242220Z VRB01KT 9999 BKN009 M01/M02 Q1040",
      "taf": "TAF ESGG 242030Z 2421/2521 VRB02KT 9999 SCT010 BKN015"
    },
    {
      "icao": "ESKN",
      "alert": "OK",
      "vis_m": 1200,
      "fzfg": false,
      "metar_trigger": false,
      "taf_trigger": false,
      "metar": "METAR ESKN 242220Z 28008KT 1200 R08/P2000N R26/P2000N BCFG OVC002 M03/M04 Q1038",
      "taf": ""
    },
    {
      "icao": "ESMS",
      "alert": "OK",
      "vis_m": 9999,
      "fzfg": false,
      "metar_trigger": false,
      "taf_trigger": false,
      "metar": "METAR ESMS 242220Z 35004KT 9999 BKN028 M04/M05 Q1041",
      "taf": "TAF ESMS 242027Z 2421/2521 VRB02KT 9999 BKN030"
    },
    {
      "icao": "ESSA",
      "alert": "OK",
      "vis_m": 9999,
      "fzfg": false,
      "metar_trigger": false,
      "taf_trigger": false,
      "metar": "METAR ESSA 242220Z 25008KT CAVOK M05/M05 Q1036 NOSIG",
      "taf": "TAF ESSA 242030Z 2421/2521 26006KT CAVOK"
    },
    {
      "icao": "EYKA",
      "alert": "OK",
      "vis_m": 9999,
      "fzfg": false,
      "metar_trigger": false,
      "taf_trigger": false,
      "metar": "METAR EYKA 242250Z 26007KT 9999 OVC032 M03/M08 Q1039",
      "taf": "TAF EYKA 241700Z 2418/2518 VRB05KT 9000 OVC030"
    },
    {
      "icao": "EYPA",
      "alert": "OK",
      "vis_m": 9999,
      "fzfg": false,
      "metar_trigger": false,
      "taf_trigger": false,
      "metar": "METAR EYPA 242250Z AUTO 27007KT 240V320 9999 BKN026/// OVC032/// 03/M02 Q1039",
      "taf": "TAF EYPA 241700Z 2418/2518 VRB04KT 9000 OVC025"
    },
    {
      "icao": "EYVI",
      "alert": "OK",
      "vis_m": 9999,
      "fzfg": false,
      "metar_trigger": false,
      "taf_trigger": false,
      "metar": "METAR EYVI 242250Z 25005KT 9999 OVC031 M04/M08 Q1038 NOSIG",
      "taf": "TAF EYVI 241700Z 2418/2518 VRB05KT 9000 OVC025"
    },
    {
      "icao": "GCFV",
      "alert": "OK",
      "vis_m": 9999,
      "fzfg": false,
      "metar_trigger": false,
      "taf_trigger": false,
      "metar": "METAR GCFV 242230Z 31006KT 9999 FEW025 17/14 Q1014",
      "taf": "TAF GCFV 242000Z 2421/2521 28007KT 9999 SCT035 TX21/2514Z TN15/2506Z"
    },
    {
      "icao": "GCLP",
      "alert": "OK",
      "vis_m": 9999,
      "fzfg": false,
      "metar_trigger": false,
      "taf_trigger": false,
      "metar": "METAR GCLP 242230Z VRB02KT 9999 BKN040 19/12 Q1015 NOSIG",
      "taf": "TAF GCLP 242000Z 2421/2521 30005KT 9999 BKN040 TX21/2514Z TN16/2506Z"
    },
    {
      "icao": "GCTS",
      "alert": "OK",
      "vis_m": 9999,
      "fzfg": false,
      "metar_trigger": false,
      "taf_trigger": false,
      "metar": "METAR GCTS 242230Z 01006KT 9999 FEW040 17/09 Q1015 NOSIG",
      "taf": "TAF GCTS 242000Z 2421/2521 36006KT 9999 FEW035 TX23/2514Z TN15/2506Z"
    },
    {
      "icao": "GMAD",
      "alert": "OK",
      "vis_m": 6000,
      "fzfg": false,
      "metar_trigger": false,
      "taf_trigger": false,
      "metar": "METAR GMAD 242230Z 21005KT 6000 FEW020 BKN033 14/14 Q1010 NOSIG",
      "taf": "TAF GMAD 241700Z 2418/2524 16006KT 8000 SCT010 BKN020"
    },
    {
      "icao": "GMMN",
      "alert": "OK",
      "vis_m": 8000,
      "fzfg": false,
      "metar_trigger": false,
      "taf_trigger": false,
      "metar": "METAR GMMN 242230Z 24005KT 8000 -DZ BKN005 SCT020 12/11 Q1009 NOSIG",
      "taf": "TAF GMMN 241700Z 2418/2524 30008KT 9999 BKN014"
    },
    {
      "icao": "GMMX",
      "alert": "OK",
      "vis_m": null,
      "fzfg": false,
      "metar_trigger": false,
      "taf_trigger": false,
      "metar": "METAR GMMX 242230Z 27006KT 11/11 Q1010",
      "taf": "TAF GMMX 241700Z 2418/2524 24008KT 6000 SCT016 BKN020"
    },
    {
      "icao": "HEGN",
      "alert": "OK",
      "vis_m": 9999,
      "fzfg": false,
      "metar_trigger": false,
      "taf_trigger": false,
      "metar": "METAR HEGN 242200Z 29008KT CAVOK 17/05 Q1016 NOSIG",
      "taf": ""
    },
    {
      "icao": "HEMA",
      "alert": "OK",
      "vis_m": null,
      "fzfg": false,
      "metar_trigger": false,
      "taf_trigger": false,
      "metar": "",
      "taf": ""
    },
    {
      "icao": "HESH",
      "alert": "OK",
      "vis_m": 9999,
      "fzfg": false,
      "metar_trigger": false,
      "taf_trigger": false,
      "metar": "METAR HESH 242200Z 33007KT CAVOK 19/09 Q1016 NOSIG",
      "taf": ""
    },
    {
      "icao": "HESX",
      "alert": "OK",
      "vis_m": 6000,
      "fzfg": false,
      "metar_trigger": false,
      "taf_trigger": false,
      "metar": "METAR HESX 242200Z 05006KT 6000 NSC 12/08 Q1017 NOSIG",
      "taf": ""
    },
    {
      "icao": "LATI",
      "alert": "OK",
      "vis_m": 7000,
      "fzfg": false,
      "metar_trigger": false,
      "taf_trigger": false,
      "metar": "METAR LATI 242250Z 16004KT 7000 NSC 07/04 Q1015 NOSIG",
      "taf": "TAF LATI 241700Z 2418/2518 VRB03KT CAVOK TX16/2512Z TN04/2505Z"
    },
    {
      "icao": "LBPD",
      "alert": "OK",
      "vis_m": 6000,
      "fzfg": false,
      "metar_trigger": false,
      "taf_trigger": false,
      "metar": "METAR LBPD 242230Z AUTO 25004KT 6000 RA BKN003/// OVC010/// 05/05 Q1021",
      "taf": "TAF LBPD 241700Z 2418/2518 VRB03KT 3000 RA BR BKN005 OVC010"
    },
    {
      "icao": "LBSF",
      "alert": "OK",
      "vis_m": 6000,
      "fzfg": false,
      "metar_trigger": false,
      "taf_trigger": false,
      "metar": "METAR LBSF 242230Z AUTO 13002KT 6000 -RA SCT015/// OVC018/// 03/03 Q1020 RERA TEMPO 5000 RA",
      "taf": "TAF LBSF 241700Z 2418/2518 11010KT 7000 RA BKN010 OVC020"
    },
    {
      "icao": "LBWN",
      "alert": "OK",
      "vis_m": 9000,
      "fzfg": false,
      "metar_trigger": false,
      "taf_trigger": false,
      "metar": "METAR LBWN 242230Z AUTO 06021G33KT 9000 DZ SCT012/// BKN014/// OVC037/// 07/07 Q1025 REDZ NOSIG",
      "taf": "TAF LBWN 241700Z 2418/2518 05014KT 9999 SCT025 OVC040"
    },
    {
      "icao": "LCLK",
      "alert": "OK",
      "vis_m": 8000,
      "fzfg": false,
      "metar_trigger": false,
      "taf_trigger": false,
      "metar": "METAR LCLK 242230Z 35004KT 8000 FEW025 SCT060 15/13 Q1020 NOSIG",
      "taf": "TAF LCLK 241730Z 2418/2518 35008KT 9999 FEW025 SCT035"
    },
    {
      "icao": "LCPH",
      "alert": "OK",
      "vis_m": 9999,
      "fzfg": false,
      "metar_trigger": false,
      "taf_trigger": false,
      "metar": "METAR LCPH 242230Z 04006KT 010V080 9999 FEW025 14/11 Q1019 NOSIG",
      "taf": "TAF LCPH 241730Z 2418/2518 06007KT 9999 FEW025"
    },
    {
      "icao": "LEAL",
      "alert": "OK",
      "vis_m": 9999,
      "fzfg": false,
      "metar_trigger": false,
      "taf_trigger": false,
      "metar": "METAR LEAL 242230Z 29004KT CAVOK 08/06 Q1008 NOSIG",
      "taf": "TAF LEAL 241700Z 2418/2518 32009KT 9999 FEW030 TX14/2512Z TN05/2506Z"
    },
    {
      "icao": "LEBB",
      "alert": "OK",
      "vis_m": 9999,
      "fzfg": false,
      "metar_trigger": false,
      "taf_trigger": false,
      "metar": "METAR LEBB 242230Z 03004KT 350V070 9999 BKN040 08/02 Q1015 NOSIG",
      "taf": "TAF LEBB 241700Z 2418/2518 VRB03KT 9999 BKN020 TX07/2514Z TN02/2507Z"
    },
    {
      "icao": "LEBL",
      "alert": "OK",
      "vis_m": 8000,
      "fzfg": false,
      "metar_trigger": false,
      "taf_trigger": false,
      "metar": "SPECI LEBL 242251Z VRB04KT 8000 DZ BKN019 BKN038 BKN055 09/06 Q1008 NOSIG",
      "taf": "TAF LEBL 241700Z 2418/2518 34008KT 9999 BKN025 TX13/2513Z TN09/2506Z"
    },
    {
      "icao": "LECH",
      "alert": "OK",
      "vis_m": 9999,
      "fzfg": false,
      "metar_trigger": false,
      "taf_trigger": false,
      "metar": "METAR LECH 242230Z AUTO VRB02KT 9999 BKN069 06/03 Q1007",
      "taf": ""
    },
    {
      "icao": "LEMD",
      "alert": "OK",
      "vis_m": 9999,
      "fzfg": false,
      "metar_trigger": false,
      "taf_trigger": false,
      "metar": "METAR LEMD 242230Z 31006KT 9999 SCT045 04/02 Q1007 NOSIG",
      "taf": "TAF LEMD 241700Z 2418/2524 VRB03KT CAVOK TX06/2514Z TNM00/2506Z"
    },
    {
      "icao": "LEMG",
      "alert": "OK",
      "vis_m": 9999,
      "fzfg": false,
      "metar_trigger": false,
      "taf_trigger": false,
      "metar": "METAR LEMG 242230Z 29007KT 9999 VCSH FEW008 FEW030TCU SCT048 10/09 Q1007 NOSIG",
      "taf": "TAF LEMG 241700Z 2418/2518 29008KT 9999 FEW030 TX14/2514Z TN07/2506Z"
    },
    {
      "icao": "LEVC",
      "alert": "OK",
      "vis_m": 9999,
      "fzfg": false,
      "metar_trigger": false,
      "taf_trigger": false,
      "metar": "METAR LEVC 242230Z 32003KT 290V350 9999 BKN067 07/04 Q1007 NOSIG",
      "taf": "TAF LEVC 241700Z 2418/2518 27007KT 9999 FEW020 TX12/2512Z TN04/2506Z"
    },
    {
      "icao": "LEXJ",
      "alert": "OK",
      "vis_m": 8000,
      "fzfg": false,
      "metar_trigger": false,
      "taf_trigger": false,
      "metar": "METAR LEXJ 242230Z AUTO 07008KT 010V120 8000 FEW041 OVC050 09/02 Q1016",
      "taf": "TAF LEXJ 242000Z 2421/2521 VRB03KT 9999 SCT015 BKN025 TX08/2515Z TN04/2507Z"
    },
    {
      "icao": "LEZG",
      "alert": "OK",
      "vis_m": 9999,
      "fzfg": false,
      "metar_trigger": false,
      "taf_trigger": false,
      "metar": "METAR LEZG 242230Z 28017KT 9999 SCT030 06/02 Q1008 NOSIG",
      "taf": "TAF LEZG 241700Z 2418/2518 29020KT 9999 FEW080 TX06/2514Z TN03/2506Z"
    },
    {
      "icao": "LEZL",
      "alert": "OK",
      "vis_m": 9999,
      "fzfg": false,
      "metar_trigger": false,
      "taf_trigger": false,
      "metar": "METAR LEZL 242230Z 15001KT CAVOK 08/08 Q1008 NOSIG",
      "taf": "TAF LEZL 242000Z 2421/2521 VRB03KT 9999 FEW040 TX15/2515Z TN06/2507Z"
    },
    {
      "icao": "LFBD",
      "alert": "OK",
      "vis_m": 9999,
      "fzfg": false,
      "metar_trigger": false,
      "taf_trigger": false,
      "metar": "METAR LFBD 242230Z AUTO 03012KT 9999 OVC035 04/M02 Q1015 NOSIG",
      "taf": "TAF LFBD 241700Z 2418/2524 02010KT 9999 BKN035 TX05/2418Z TNM02/2508Z"
    },
    {
      "icao": "LFLL",
      "alert": "OK",
      "vis_m": 4200,
      "fzfg": false,
      "metar_trigger": false,
      "taf_trigger": false,
      "metar": "METAR LFLL 242230Z 33005KT 4200 -SN BKN006 01/00 Q1011 TEMPO 1500 SN OVC004",
      "taf": "TAF LFLL 241930Z 2419/2524 35010KT 6000 -SN FEW012 BKN030"
    },
    {
      "icao": "LFLS",
      "alert": "OK",
      "vis_m": 5000,
      "fzfg": false,
      "metar_trigger": false,
      "taf_trigger": false,
      "metar": "METAR LFLS 242230Z AUTO 26003KT 5000 -SN BR OVC011/// //////TCU 00/M00 Q1010",
      "taf": "TAF LFLS 241940Z 2419/2515 34005KT 9999 OVC020"
    },
    {
      "icao": "LFMN",
      "alert": "OK",
      "vis_m": 9999,
      "fzfg": false,
      "metar_trigger": false,
      "taf_trigger": false,
      "metar": "METAR LFMN 242230Z 03013KT 9999 BKN060 BKN093 13/M00 Q1007 NOSIG",
      "taf": "TAF LFMN 242000Z 2421/2603 03012KT 9999 BKN060"
    },
    {
      "icao": "LFOB",
      "alert": "OK",
      "vis_m": 9999,
      "fzfg": false,
      "metar_trigger": false,
      "taf_trigger": false,
      "metar": "METAR LFOB 242230Z AUTO 04016KT 9999 OVC027 M01/M05 Q1023 TEMPO 03020G30KT",
      "taf": ""
    },
    {
      "icao": "LFPO",
      "alert": "OK",
      "vis_m": 9999,
      "fzfg": false,
      "metar_trigger": false,
      "taf_trigger": false,
      "metar": "METAR LFPO 242230Z 03018KT 9999 -SN FEW026 BKN055 00/M05 Q1020 NOSIG",
      "taf": "TAF LFPO 241700Z 2418/2524 04015KT 9999 BKN030"
    },
    {
      "icao": "LFSB",
      "alert": "OK",
      "vis_m": 9999,
      "fzfg": false,
      "metar_trigger": false,
      "taf_trigger": false,
      "metar": "METAR LFSB 242230Z AUTO 01006KT 9999 OVC030 02/M03 Q1016 NOSIG",
      "taf": ""
    },
    {
      "icao": "LGAV",
      "alert": "OK",
      "vis_m": 9999,
      "fzfg": false,
      "metar_trigger": false,
      "taf_trigger": false,
      "metar": "METAR LGAV 242220Z VRB02KT 9999 FEW015 BKN025 11/10 Q1017 NOSIG",
      "taf": "TAF LGAV 241700Z 2418/2518 18010KT 9999 FEW015 BKN025 BKN070"
    },
    {
      "icao": "LGTS",
      "alert": "OK",
      "vis_m": 7000,
      "fzfg": false,
      "metar_trigger": false,
      "taf_trigger": false,
      "metar": "METAR LGTS 242220Z 20003KT 7000 RA SCT006 BKN020 11/11 Q1017 NOSIG",
      "taf": "TAF LGTS 241700Z 2418/2518 VRB05KT 8000 FEW012 BKN025"
    },
    {
      "icao": "LHBP",
      "alert": "OK",
      "vis_m": 9999,
      "fzfg": false,
      "metar_trigger": false,
      "taf_trigger": false,
      "metar": "METAR LHBP 242230Z 08008KT 040V110 9999 OVC033 04/M03 Q1026 TEMPO -SN -SNRA",
      "taf": "TAF LHBP 241715Z 2418/2518 06009KT 9999 SCT040 BKN070"
    },
    {
      "icao": "LHDC",
      "alert": "OK",
      "vis_m": 9999,
      "fzfg": false,
      "metar_trigger": false,
      "taf_trigger": false,
      "metar": "METAR LHDC 242215Z AUTO 05012KT CAVOK 04/M02 Q1026",
      "taf": "TAF LHDC 241115Z 2412/2421 04018G28KT CAVOK"
    },
    {
      "icao": "LIBD",
      "alert": "OK",
      "vis_m": 9999,
      "fzfg": false,
      "metar_trigger": false,
      "taf_trigger": false,
      "metar": "METAR LIBD 242220Z 20006KT CAVOK 05/05 Q1013",
      "taf": "TAF LIBD 241700Z 2418/2518 VRB05KT CAVOK"
    },
    {
      "icao": "LIBG",
      "alert": "OK",
      "vis_m": null,
      "fzfg": false,
      "metar_trigger": false,
      "taf_trigger": false,
      "metar": "",
      "taf": "TAF LIBG 241700Z 2418/2503 VRB05KT 9999 FEW030"
    },
    {
      "icao": "LIBP",
      "alert": "OK",
      "vis_m": 9999,
      "fzfg": false,
      "metar_trigger": false,
      "taf_trigger": false,
      "metar": "METAR LIBP 242220Z AUTO VRB02KT 9999 SCT100/// BKN190/// BKN220/// 08/04 Q1012",
      "taf": "TAF LIBP 241700Z 2418/2518 15010KT 9999 BKN060"
    },
    {
      "icao": "LIBR",
      "alert": "OK",
      "vis_m": 9999,
      "fzfg": false,
      "metar_trigger": false,
      "taf_trigger": false,
      "metar": "METAR LIBR 242220Z 20004KT CAVOK 11/09 Q1013",
      "taf": "TAF LIBR 241700Z 2418/2518 16008KT 9999 FEW040"
    },
    {
      "icao": "LICA",
      "alert": "OK",
      "vis_m": 9999,
      "fzfg": false,
      "metar_trigger": false,
      "taf_trigger": false,
      "metar": "METAR LICA 242220Z AUTO 06008KT 9999 NCD 07/06 Q1013",
      "taf": "TAF LICA 241700Z 2418/2518 07005KT CAVOK"
    },
    {
      "icao": "LICC",
      "alert": "OK",
      "vis_m": 9999,
      "fzfg": false,
      "metar_trigger": false,
      "taf_trigger": false,
      "metar": "METAR LICC 242220Z 26004KT 9999 BKN050 08/07 Q1013",
      "taf": "TAF LICC 241700Z 2418/2518 25010KT 9999 SCT030"
    },
    {
      "icao": "LICJ",
      "alert": "OK",
      "vis_m": 9999,
      "fzfg": false,
      "metar_trigger": false,
      "taf_trigger": false,
      "metar": "METAR LICJ 242220Z 18015KT CAVOK 14/06 Q1010",
      "taf": "TAF LICJ 241700Z 2418/2518 21018KT 9999 SCT040"
    },
    {
      "icao": "LIMC",
      "alert": "OK",
      "vis_m": 7000,
      "fzfg": false,
      "metar_trigger": false,
      "taf_trigger": false,
      "metar": "METAR LIMC 242220Z 36004KT 7000 -DZ SCT030 SCT040 05/04 Q1016 NOSIG",
      "taf": "TAF LIMC 241700Z 2418/2524 VRB05KT 4000 RA BKN010"
    },
    {
      "icao": "LIME",
      "alert": "OK",
      "vis_m": 6000,
      "fzfg": false,
      "metar_trigger": false,
      "taf_trigger": false,
      "metar": "METAR LIME 242220Z 27007KT 6000 -RA SCT005 BKN010 05/05 Q1016 NOSIG",
      "taf": "TAF LIME 241700Z 2418/2518 VRB05KT 6000 RA SCT010 BKN030"
    },
    {
      "icao": "LIMF",
      "alert": "OK",
      "vis_m": 8000,
      "fzfg": false,
      "metar_trigger": false,
      "taf_trigger": false,
      "metar": "METAR LIMF 242220Z 36006KT 8000 -RA OVC030 05/03 Q1016",
      "taf": "TAF LIMF 241700Z 2418/2518 35007KT 4000 RA BKN010"
    },
    {
      "icao": "LIMJ",
      "alert": "OK",
      "vis_m": 9999,
      "fzfg": false,
      "metar_trigger": false,
      "taf_trigger": false,
      "metar": "METAR LIMJ 242220Z 01010KT 340V040 9999 BKN055 11/01 Q1011",
      "taf": "TAF LIMJ 241700Z 2418/2518 02014KT 9999 BKN070"
    },
    {
      "icao": "LIPE",
      "alert": "OK",
      "vis_m": 8000,
      "fzfg": false,
      "metar_trigger": false,
      "taf_trigger": false,
      "metar": "METAR LIPE 242220Z VRB02KT 8000 RA BKN010 BKN020 06/04 Q1015",
      "taf": "TAF LIPE 241700Z 2418/2518 05012KT 8000 RA BKN020"
    },
    {
      "icao": "LIPH",
      "alert": "OK",
      "vis_m": 9999,
      "fzfg": false,
      "metar_trigger": false,
      "taf_trigger": false,
      "metar": "METAR LIPH 242220Z AUTO 05014KT 9999 -RA OVC050/// 08/02 Q1018",
      "taf": ""
    },
    {
      "icao": "LIPQ",
      "alert": "OK",
      "vis_m": 9999,
      "fzfg": false,
      "metar_trigger": false,
      "taf_trigger": false,
      "metar": "METAR LIPQ 242220Z AUTO 09022G34KT 9999 BKN071/// BKN170/// 07/M02 Q1018",
      "taf": "TAF LIPQ 241700Z 2418/2518 06020G33KT 9999 BKN050"
    },
    {
      "icao": "LIPR",
      "alert": "OK",
      "vis_m": 9999,
      "fzfg": false,
      "metar_trigger": false,
      "taf_trigger": false,
      "metar": "METAR LIPR 242220Z AUTO 07014KT 9999 BKN017/// BKN051/// 10/09 Q1012",
      "taf": ""
    },
    {
      "icao": "LIPX",
      "alert": "OK",
      "vis_m": 9999,
      "fzfg": false,
      "metar_trigger": false,
      "taf_trigger": false,
      "metar": "METAR LIPX 242220Z 06017G28KT 9999 BKN040 08/03 Q1015",
      "taf": "TAF LIPX 241700Z 2418/2518 08014KT 6000 RA BKN040"
    },
    {
      "icao": "LIPY",
      "alert": "OK",
      "vis_m": 9999,
      "fzfg": false,
      "metar_trigger": false,
      "taf_trigger": false,
      "metar": "METAR LIPY 242220Z AUTO 13003KT 080V180 9999 -RA OVC067/// 12/08 Q1012 REDZ",
      "taf": "TAF LIPY 241700Z 2418/2518 VRB05KT 9999 SCT050"
    },
    {
      "icao": "LIPZ",
      "alert": "OK",
      "vis_m": 9999,
      "fzfg": false,
      "metar_trigger": false,
      "taf_trigger": false,
      "metar": "METAR LIPZ 242220Z 05018KT 9999 -RA BKN045 06/02 Q1017 NOSIG",
      "taf": "TAF LIPZ 241700Z 2418/2524 07020KT 9999 BKN040"
    },
    {
      "icao": "LIRF",
      "alert": "OK",
      "vis_m": 7000,
      "fzfg": false,
      "metar_trigger": false,
      "taf_trigger": false,
      "metar": "METAR LIRF 242220Z 09009KT 7000 RA SCT025 BKN040 09/09 Q1009 NOSIG",
      "taf": "TAF LIRF 241700Z 2418/2524 11015KT 7000 RA SCT010 BKN030"
    },
    {
      "icao": "LIRN",
      "alert": "OK",
      "vis_m": 8000,
      "fzfg": false,
      "metar_trigger": false,
      "taf_trigger": false,
      "metar": "METAR LIRN 242220Z 03005KT 8000 SCT040 09/08 Q1012 TEMPO 4000 SHRA",
      "taf": "TAF LIRN 241700Z 2418/2518 21010KT 4000 RA SCT020 BKN040"
    },
    {
      "icao": "LIRP",
      "alert": "OK",
      "vis_m": 9999,
      "fzfg": false,
      "metar_trigger": false,
      "taf_trigger": false,
      "metar": "METAR LIRP 242215Z 09011KT 9999 SCT050 09/04 Q1008 NOSIG",
      "taf": "TAF LIRP 241700Z 2418/2518 07012KT 9999 SCT030 SCT070"
    },
    {
      "icao": "LIRZ",
      "alert": "OK",
      "vis_m": 9999,
      "fzfg": false,
      "metar_trigger": false,
      "taf_trigger": false,
      "metar": "METAR LIRZ 242220Z AUTO 02006KT 9999 -RA OVC054/// 08/07 Q1011",
      "taf": "TAF LIRZ 241700Z 2418/2518 VRB06KT 9999 BKN050"
    },
    {
      "icao": "LJLJ",
      "alert": "OK",
      "vis_m": 8000,
      "fzfg": false,
      "metar_trigger": false,
      "taf_trigger": false,
      "metar": "METAR LJLJ 242230Z 00000KT 8000 FEW004 SCT018 BKN047 01/00 Q1023 NOSIG",
      "taf": "TAF LJLJ 241700Z 2418/2518 VRB02KT 9999 FEW004 OVC040"
    },
    {
      "icao": "LKMT",
      "alert": "OK",
      "vis_m": 9999,
      "fzfg": false,
      "metar_trigger": false,
      "taf_trigger": false,
      "metar": "METAR LKMT 242230Z 04014KT 9999 OVC011 M04/M06 Q1032 TEMPO OVC009",
      "taf": ""
    },
    {
      "icao": "LKPR",
      "alert": "OK",
      "vis_m": 9999,
      "fzfg": false,
      "metar_trigger": false,
      "taf_trigger": false,
      "metar": "METAR LKPR 242230Z 07012KT 9999 BKN015 OVC029 M04/M07 Q1030 NOSIG",
      "taf": ""
    },
    {
      "icao": "LLBG",
      "alert": "OK",
      "vis_m": 9999,
      "fzfg": false,
      "metar_trigger": false,
      "taf_trigger": false,
      "metar": "METAR LLBG 242250Z 01004KT CAVOK 15/08 Q1018 NOSIG",
      "taf": "TAF LLBG 241703Z 2418/2518 VRB04KT CAVOK"
    },
    {
      "icao": "LMML",
      "alert": "OK",
      "vis_m": 9999,
      "fzfg": false,
      "metar_trigger": false,
      "taf_trigger": false,
      "metar": "METAR LMML 242245Z 22013KT 9999 FEW032TCU 15/09 Q1013 NOSIG",
      "taf": "TAF LMML 241700Z 2418/2518 24012KT 9999 FEW030"
    },
    {
      "icao": "LOWW",
      "alert": "OK",
      "vis_m": 9999,
      "fzfg": false,
      "metar_trigger": false,
      "taf_trigger": false,
      "metar": "METAR LOWW 242220Z 36007KT 9999 BKN040 M01/M04 Q1028 NOSIG",
      "taf": "TAF LOWW 242015Z 2421/2603 01008KT 9999 BKN040 TXM00/2421Z TNM04/2603Z"
    },
    {
      "icao": "LPFR",
      "alert": "OK",
      "vis_m": 9999,
      "fzfg": false,
      "metar_trigger": false,
      "taf_trigger": false,
      "metar": "METAR LPFR 242230Z 01004KT CAVOK 09/06 Q1008",
      "taf": "TAF LPFR 241700Z 2418/2518 26007KT 9999 FEW018"
    },
    {
      "icao": "LPMA",
      "alert": "OK",
      "vis_m": 9999,
      "fzfg": false,
      "metar_trigger": false,
      "taf_trigger": false,
      "metar": "METAR LPMA 242230Z 25004KT 210V310 9999 BKN015 15/09 Q1015",
      "taf": ""
    },
    {
      "icao": "LPPR",
      "alert": "OK",
      "vis_m": 9999,
      "fzfg": false,
      "metar_trigger": false,
      "taf_trigger": false,
      "metar": "METAR LPPR 242230Z VRB01KT CAVOK 07/06 Q1010",
      "taf": "TAF LPPR 241700Z 2418/2518 34005KT 9999 FEW030"
    },
    {
      "icao": "LPPS",
      "alert": "OK",
      "vis_m": 9999,
      "fzfg": false,
      "metar_trigger": false,
      "taf_trigger": false,
      "metar": "METAR LPPS 242230Z 34014KT 9999 SCT015 16/08 Q1015",
      "taf": "TAF LPPS 241700Z 2418/2524 34015KT 9999 SCT015"
    },
    {
      "icao": "LPPT",
      "alert": "OK",
      "vis_m": 9999,
      "fzfg": false,
      "metar_trigger": false,
      "taf_trigger": false,
      "metar": "METAR LPPT 242230Z 31006KT CAVOK 10/06 Q1010",
      "taf": "TAF LPPT 241700Z 2418/2524 03007KT 9999 FEW018"
    },
    {
      "icao": "LQBK",
      "alert": "OK",
      "vis_m": 9999,
      "fzfg": false,
      "metar_trigger": false,
      "taf_trigger": false,
      "metar": "METAR LQBK 242230Z 32007KT 9999 DZ OVC007 03/03 Q1023 NOSIG",
      "taf": ""
    },
    {
      "icao": "LQSA",
      "alert": "OK",
      "vis_m": 4000,
      "fzfg": false,
      "metar_trigger": false,
      "taf_trigger": false,
      "metar": "METAR LQSA 242230Z 31004KT 4000 BR BKN007 03/03 Q1019",
      "taf": "TAF LQSA 241700Z 2418/2518 29005KT 6000 BKN008 TX04/2513Z TN01/2505Z"
    },
    {
      "icao": "LQTZ",
      "alert": "OK",
      "vis_m": 3000,
      "fzfg": false,
      "metar_trigger": false,
      "taf_trigger": false,
      "metar": "METAR LQTZ 242230Z 32002KT 3000 -DZ BR OVC006 04/04 Q1021",
      "taf": "TAF LQTZ 241700Z 2418/2518 04005KT 6000 BKN007 OVC015 TX04/2418Z TN00/2518Z"
    },
    {
      "icao": "LRBC",
      "alert": "OK",
      "vis_m": 9999,
      "fzfg": false,
      "metar_trigger": false,
      "taf_trigger": false,
      "metar": "METAR LRBC 242230Z 07003KT 040V100 9999 OVC020 M01/M04 Q1035",
      "taf": "TAF LRBC 242000Z 2421/2506 05006KT 5000 BR BKN010 OVC035"
    },
    {
      "icao": "LRBS",
      "alert": "OK",
      "vis_m": 9999,
      "fzfg": false,
      "metar_trigger": false,
      "taf_trigger": false,
      "metar": "METAR LRBS 242230Z 05018G29KT 020V080 9999 -SN BKN010 OVC028 00/M01 Q1030 NOSIG",
      "taf": ""
    },
    {
      "icao": "LRBV",
      "alert": "OK",
      "vis_m": 9999,
      "fzfg": false,
      "metar_trigger": false,
      "taf_trigger": false,
      "metar": "METAR LRBV 242230Z AUTO 06017KT 9999 OVC046/// M01/M05 Q1027",
      "taf": "TAF LRBV 242000Z 2421/2506 06020KT 9999 BKN040"
    },
    {
      "icao": "LRCL",
      "alert": "OK",
      "vis_m": 9999,
      "fzfg": false,
      "metar_trigger": false,
      "taf_trigger": false,
      "metar": "METAR LRCL 242230Z 09002KT 9999 OVC046 01/M02 Q1028",
      "taf": "TAF LRCL 242000Z 2421/2506 08008KT 9999 BKN030"
    },
    {
      "icao": "LRCV",
      "alert": "OK",
      "vis_m": 2900,
      "fzfg": false,
      "metar_trigger": false,
      "taf_trigger": false,
      "metar": "METAR LRCV 242230Z 06025KT 2900 -SN FEW005 BKN009 OVC012 00/00 Q1026",
      "taf": "TAF LRCV 242000Z 2421/2506 07020KT 5000 SNRA OVC010"
    },
    {
      "icao": "LRIA",
      "alert": "OK",
      "vis_m": 9999,
      "fzfg": false,
      "metar_trigger": false,
      "taf_trigger": false,
      "metar": "METAR LRIA 242230Z 04006KT 9999 OVC024 M03/M06 Q1036",
      "taf": "TAF LRIA 242000Z 2421/2506 06008KT 9999 BKN025"
    },
    {
      "icao": "LROP",
      "alert": "OK",
      "vis_m": 9999,
      "fzfg": false,
      "metar_trigger": false,
      "taf_trigger": false,
      "metar": "METAR LROP 242230Z 05025G35KT 9999 SCT012 OVC030 00/M01 Q1030 RESN TEMPO BKN010",
      "taf": ""
    },
    {
      "icao": "LRSB",
      "alert": "OK",
      "vis_m": 9999,
      "fzfg": false,
      "metar_trigger": false,
      "taf_trigger": false,
      "metar": "METAR LRSB 242230Z 11010KT 9999 FEW040 SCT060 BKN080 02/M03 Q1025",
      "taf": "TAF LRSB 241700Z 2418/2518 10010KT 9999 SCT010 OVC040"
    },
    {
      "icao": "LRSM",
      "alert": "OK",
      "vis_m": 9999,
      "fzfg": false,
      "metar_trigger": false,
      "taf_trigger": false,
      "metar": "METAR LRSM 242230Z AUTO 07004KT 9999 BKN080/// OVC100/// 04/M02 Q1028",
      "taf": "TAF LRSM 241400Z 2415/2424 06005KT 9999 BKN045"
    },
    {
      "icao": "LRSV",
      "alert": "OK",
      "vis_m": 9999,
      "fzfg": false,
      "metar_trigger": false,
      "taf_trigger": false,
      "metar": "METAR LRSV 242230Z 09008KT 9999 OVC009 M05/M05 Q1034",
      "taf": "TAF LRSV 242000Z 2421/2506 08008KT 5000 BR BKN005 OVC010"
    },
    {
      "icao": "LRTM",
      "alert": "OK",
      "vis_m": 9999,
      "fzfg": false,
      "metar_trigger": false,
      "taf_trigger": false,
      "metar": "METAR LRTM 242230Z AUTO 12001KT 9999 BKN065/// BKN095/// 01/M01 Q1027",
      "taf": "TAF LRTM 241400Z 2415/2424 08006KT 7000 SCT010 OVC030"
    },
    {
      "icao": "LRTR",
      "alert": "OK",
      "vis_m": 9999,
      "fzfg": false,
      "metar_trigger": false,
      "taf_trigger": false,
      "metar": "METAR LRTR 242230Z 06002KT 9999 -RA NSC 05/03 Q1023",
      "taf": "TAF LRTR 241700Z 2418/2518 07010KT 5000 -RA BR SCT020 OVC045"
    },
    {
      "icao": "LTAC",
      "alert": "OK",
      "vis_m": 3300,
      "fzfg": false,
      "metar_trigger": false,
      "taf_trigger": false,
      "metar": "METAR LTAC 242220Z 00000KT 3300 0600NE R03C/P1500N R21C/P1500N R03L/P1500N R03R/P1500N BCFG FEW007 BKN200 00/M00 Q1023 NOSIG RMK RWY21C 13003KT RWY03L 00000KT RWY21R 13002KT RWY03R 00000KT RWY21L 12003KT",
      "taf": ""
    },
    {
      "icao": "LTFM",
      "alert": "OK",
      "vis_m": 9999,
      "fzfg": false,
      "metar_trigger": false,
      "taf_trigger": false,
      "metar": "METAR LTFM 242220Z 08010KT 9999 SCT013 SCT040 BKN120 12/10 Q1021 NOSIG RMK RWY17L 09012KT RWY34L 08007KT RWY16R 08012KT RWY36 08009KT 030V100 RWY18 09009KT",
      "taf": "TAF LTFM 241640Z 2418/2524 08012KT 9999 FEW013 SCT035 BKN120"
    },
    {
      "icao": "LUKK",
      "alert": "OK",
      "vis_m": 9999,
      "fzfg": false,
      "metar_trigger": false,
      "taf_trigger": false,
      "metar": "METAR LUKK 242230Z 06011KT 9999 OVC027 M05/M09 Q1036 NOSIG",
      "taf": "TAF LUKK 241705Z 2418/2518 04009KT CAVOK"
    },
    {
      "icao": "LWOH",
      "alert": "OK",
      "vis_m": null,
      "fzfg": false,
      "metar_trigger": false,
      "taf_trigger": false,
      "metar": "",
      "taf": "TAF LWOH 242040Z 2421/2521 01006KT 9999 FEW020 BKN040"
    },
    {
      "icao": "LWSK",
      "alert": "OK",
      "vis_m": 6000,
      "fzfg": false,
      "metar_trigger": false,
      "taf_trigger": false,
      "metar": "METAR LWSK 242220Z 01002KT 6000 SCT010 OVC030 07/06 Q1018 NOSIG",
      "taf": "TAF LWSK 242040Z 2421/2521 VRB02KT 6000 BKN020 OVC040"
    },
    {
      "icao": "LYBE",
      "alert": "OK",
      "vis_m": 9999,
      "fzfg": false,
      "metar_trigger": false,
      "taf_trigger": false,
      "metar": "METAR LYBE 242230Z 11013KT 9999 BKN040 05/00 Q1022 NOSIG",
      "taf": "TAF LYBE 241700Z 2418/2518 10016KT 9999 BKN030 TX04/2418Z TN00/2518Z"
    },
    {
      "icao": "LYNI",
      "alert": "OK",
      "vis_m": 9999,
      "fzfg": false,
      "metar_trigger": false,
      "taf_trigger": false,
      "metar": "METAR LYNI 242230Z 05010KT 010V080 9999 -RA BKN027 OVC070 04/01 Q1021 NOSIG",
      "taf": "TAF LYNI 241700Z 2418/2518 05012KT 9999 BKN045 TX05/2418Z TN00/2518Z"
    },
    {
      "icao": "LYPG",
      "alert": "OK",
      "vis_m": 300,
      "fzfg": false,
      "metar_trigger": false,
      "taf_trigger": false,
      "metar": "METAR LYPG 242230Z VRB02KT 0300 R18/0550N R36/0450N FG SCT004 05/05 Q1016 NOSIG",
      "taf": ""
    },
    {
      "icao": "LZIB",
      "alert": "OK",
      "vis_m": 9999,
      "fzfg": false,
      "metar_trigger": false,
      "taf_trigger": false,
      "metar": "METAR LZIB 242230Z 03008KT 9999 BKN042 01/M03 Q1028 NOSIG",
      "taf": "TAF LZIB 241715Z 2418/2518 03009KT 9999 FEW025 BKN040"
    },
    {
      "icao": "LZKZ",
      "alert": "OK",
      "vis_m": 9999,
      "fzfg": false,
      "metar_trigger": false,
      "taf_trigger": false,
      "metar": "METAR LZKZ 242230Z 36021KT 9999 OVC045 M01/M05 Q1029 NOSIG",
      "taf": "TAF LZKZ 241715Z 2418/2518 01018KT 9999 FEW035"
    },
    {
      "icao": "LZTT",
      "alert": "OK",
      "vis_m": 9999,
      "fzfg": false,
      "metar_trigger": false,
      "taf_trigger": false,
      "metar": "METAR LZTT 242230Z 05012KT 9999 OVC009 M06/M07 Q1029",
      "taf": "TAF LZTT 241715Z 2418/2518 06012KT 9999 BKN016"
    },
    {
      "icao": "OEJN",
      "alert": "OK",
      "vis_m": 9999,
      "fzfg": false,
      "metar_trigger": false,
      "taf_trigger": false,
      "metar": "METAR OEJN 242200Z 34005KT CAVOK 25/24 Q1013 NOSIG",
      "taf": "TAF OEJN 241700Z 2418/2524 35006KT 7000 FEW040"
    },
    {
      "icao": "OEMA",
      "alert": "OK",
      "vis_m": 9999,
      "fzfg": false,
      "metar_trigger": false,
      "taf_trigger": false,
      "metar": "METAR OEMA 242200Z 01007KT 9999 SCT045 21/11 Q1018 NOSIG",
      "taf": "TAF OEMA 241700Z 2418/2524 34006KT CAVOK"
    },
    {
      "icao": "OJAI",
      "alert": "OK",
      "vis_m": 5000,
      "fzfg": false,
      "metar_trigger": false,
      "taf_trigger": false,
      "metar": "METAR OJAI 242200Z 07012KT 5000 HZ NSC 08/04 Q1022 NOSIG",
      "taf": "TAF OJAI 241700Z 2418/2524 12006KT 5000 HZ NSC"
    },
    {
      "icao": "OMAA",
      "alert": "OK",
      "vis_m": 9999,
      "fzfg": false,
      "metar_trigger": false,
      "taf_trigger": false,
      "metar": "METAR OMAA 242200Z 30002KT CAVOK 19/14 Q1016 NOSIG",
      "taf": "TAF OMAA 241700Z 2418/2600 VRB02KT 8000 FEW035"
    },
    {
      "icao": "OMDB",
      "alert": "OK",
      "vis_m": 9999,
      "fzfg": false,
      "metar_trigger": false,
      "taf_trigger": false,
      "metar": "METAR OMDB 242230Z 20003KT 9999 FEW040 20/13 Q1016 NOSIG",
      "taf": ""
    },
    {
      "icao": "UAAA",
      "alert": "CRITICAL",
      "vis_m": 50,
      "fzfg": true,
      "metar_trigger": true,
      "taf_trigger": false,
      "metar": "METAR UAAA 242230Z 20001MPS 0050 R23L/0250N FZFG VV003 M08/M09 Q1021 NOSIG RMK QBB100",
      "taf": ""
    },
    {
      "icao": "UBBB",
      "alert": "OK",
      "vis_m": 9999,
      "fzfg": false,
      "metar_trigger": false,
      "taf_trigger": false,
      "metar": "METAR UBBB 242230Z 34018KT 9999 -SHRA SCT005 SCT034CB OVC034 09/08 Q1020 NOSIG",
      "taf": "TAF UBBB 241711Z 2418/2518 30014KT 9999 SCT012 BKN030 TX08/2510Z TN04/2501Z"
    },
    {
      "icao": "UDSG",
      "alert": "OK",
      "vis_m": 7000,
      "fzfg": false,
      "metar_trigger": false,
      "taf_trigger": false,
      "metar": "METAR UDSG 242230Z 07002KT 7000 FEW049 M04/M06 Q1022 NOSIG",
      "taf": "TAF UDSG 241700Z 2418/2518 VRB06KT 9999 SCT050"
    },
    {
      "icao": "UDYZ",
      "alert": "OK",
      "vis_m": 2700,
      "fzfg": false,
      "metar_trigger": false,
      "taf_trigger": false,
      "metar": "METAR UDYZ 242230Z 00000KT 2700 BR NSC M03/M06 Q1023 NOSIG",
      "taf": "TAF UDYZ 241700Z 2418/2518 04006KT 3500 BR NSC"
    },
    {
      "icao": "UGKO",
      "alert": "OK",
      "vis_m": 300,
      "fzfg": false,
      "metar_trigger": false,
      "taf_trigger": false,
      "metar": "METAR UGKO 242230Z 19003KT 160V230 0300 R07/0700D FG VV002 07/06 Q1023 NOSIG",
      "taf": "TAF UGKO 241700Z 2418/2518 26007KT 9999 SCT023 BKN050 TX08/2511Z TN04/2503Z"
    }
  ]
}