{
  "ts_utc": "2026-03-19T19:31:36Z",
  "threshold_m": 150,
  "source": "stations_override.txt (ICAO list) + aviationweather.gov (METAR/TAF raw)",
  "station_count": 159,
  "stations": [
    {
      "icao": "BIKF",
      "alert": "OK",
      "vis_m": 9999,
      "fzfg": false,
      "metar_trigger": false,
      "taf_trigger": false,
      "metar": "METAR BIKF 191900Z 23032G42KT 9999 VCSH FEW019TCU SCT033 03/M02 Q0992",
      "taf": "TAF BIKF 191658Z 1918/2018 23033G43KT 9999 -SHRA SCT010 BKN020 TX03/1918Z TNM02/2018Z"
    },
    {
      "icao": "BKPR",
      "alert": "OK",
      "vis_m": 9999,
      "fzfg": false,
      "metar_trigger": false,
      "taf_trigger": false,
      "metar": "METAR BKPR 191930Z 36014KT 9999 BKN050 05/M03 Q1015 NOSIG",
      "taf": "TAF BKPR 191730Z 1918/2018 36010KT 9999 SCT050 BKN090"
    },
    {
      "icao": "EBCI",
      "alert": "OK",
      "vis_m": 9999,
      "fzfg": false,
      "metar_trigger": false,
      "taf_trigger": false,
      "metar": "METAR EBCI 191920Z 05004KT CAVOK 10/01 Q1023 NOSIG",
      "taf": "TAF EBCI 191704Z 1918/2024 04006KT CAVOK"
    },
    {
      "icao": "EDDB",
      "alert": "OK",
      "vis_m": 9999,
      "fzfg": false,
      "metar_trigger": false,
      "taf_trigger": false,
      "metar": "METAR EDDB 191920Z AUTO 30003KT CAVOK 08/01 Q1022 NOSIG",
      "taf": "TAF EDDB 191700Z 1918/2018 32005KT CAVOK"
    },
    {
      "icao": "EDDH",
      "alert": "OK",
      "vis_m": 9999,
      "fzfg": false,
      "metar_trigger": false,
      "taf_trigger": false,
      "metar": "METAR EDDH 191920Z AUTO 31006KT CAVOK 11/03 Q1023 NOSIG",
      "taf": "TAF EDDH 191700Z 1918/2024 30007KT CAVOK"
    },
    {
      "icao": "EDDK",
      "alert": "OK",
      "vis_m": 9999,
      "fzfg": false,
      "metar_trigger": false,
      "taf_trigger": false,
      "metar": "METAR EDDK 191920Z AUTO 06007KT CAVOK 12/01 Q1022 NOSIG",
      "taf": "TAF EDDK 191700Z 1918/2024 36007KT CAVOK"
    },
    {
      "icao": "EDDN",
      "alert": "OK",
      "vis_m": 9999,
      "fzfg": false,
      "metar_trigger": false,
      "taf_trigger": false,
      "metar": "METAR EDDN 191920Z AUTO 07003KT 040V130 CAVOK 05/M01 Q1021 NOSIG",
      "taf": "TAF EDDN 191700Z 1918/2018 VRB03KT CAVOK"
    },
    {
      "icao": "EDDS",
      "alert": "OK",
      "vis_m": 9999,
      "fzfg": false,
      "metar_trigger": false,
      "taf_trigger": false,
      "metar": "METAR EDDS 191920Z AUTO 05006KT CAVOK 08/M03 Q1020 NOSIG",
      "taf": "TAF EDDS 191700Z 1918/2018 04007KT CAVOK"
    },
    {
      "icao": "EDFH",
      "alert": "OK",
      "vis_m": 9999,
      "fzfg": false,
      "metar_trigger": false,
      "taf_trigger": false,
      "metar": "METAR EDFH 191920Z 09004KT 040V130 CAVOK 08/M02 Q1022",
      "taf": "TAF EDFH 191700Z 1918/2018 06005KT CAVOK"
    },
    {
      "icao": "EDJA",
      "alert": "OK",
      "vis_m": 9999,
      "fzfg": false,
      "metar_trigger": false,
      "taf_trigger": false,
      "metar": "METAR EDJA 191920Z 06006KT CAVOK 03/M02 Q1020",
      "taf": "TAF EDJA 191700Z 1918/2003 06007KT CAVOK"
    },
    {
      "icao": "EDLW",
      "alert": "OK",
      "vis_m": 9999,
      "fzfg": false,
      "metar_trigger": false,
      "taf_trigger": false,
      "metar": "METAR EDLW 191920Z 06002KT CAVOK 11/01 Q1023",
      "taf": "TAF EDLW 191700Z 1918/2018 VRB03KT CAVOK"
    },
    {
      "icao": "EDNY",
      "alert": "OK",
      "vis_m": 9999,
      "fzfg": false,
      "metar_trigger": false,
      "taf_trigger": false,
      "metar": "METAR EDNY 191920Z 02006KT CAVOK 09/00 Q1020",
      "taf": "TAF EDNY 191700Z 1918/2003 04011KT CAVOK"
    },
    {
      "icao": "EDSB",
      "alert": "OK",
      "vis_m": 9999,
      "fzfg": false,
      "metar_trigger": false,
      "taf_trigger": false,
      "metar": "METAR EDSB 191920Z 06006KT CAVOK 11/M01 Q1021",
      "taf": "TAF EDSB 191700Z 1918/2018 03008KT CAVOK"
    },
    {
      "icao": "EETN",
      "alert": "OK",
      "vis_m": 4400,
      "fzfg": false,
      "metar_trigger": false,
      "taf_trigger": false,
      "metar": "METAR EETN 191920Z 26005KT 4400 1600E BR BKN003 02/01 Q1016 TEMPO 0900 FG OVC002",
      "taf": "TAF EETN 191730Z 1918/2018 24007KT 6000 OVC005"
    },
    {
      "icao": "EFTU",
      "alert": "OK",
      "vis_m": 9999,
      "fzfg": false,
      "metar_trigger": false,
      "taf_trigger": false,
      "metar": "METAR EFTU 191920Z AUTO 30005KT CAVOK 02/M02 Q1018",
      "taf": "TAF EFTU 191726Z 1918/2018 31005KT CAVOK"
    },
    {
      "icao": "EGBB",
      "alert": "OK",
      "vis_m": 9999,
      "fzfg": false,
      "metar_trigger": false,
      "taf_trigger": false,
      "metar": "METAR EGBB 191920Z 05005KT CAVOK 11/05 Q1026",
      "taf": "TAF EGBB 191653Z 1918/2018 07006KT CAVOK"
    },
    {
      "icao": "EGGP",
      "alert": "OK",
      "vis_m": 9999,
      "fzfg": false,
      "metar_trigger": false,
      "taf_trigger": false,
      "metar": "METAR EGGP 191920Z 12006KT CAVOK 11/03 Q1026",
      "taf": "TAF EGGP 191658Z 1918/2018 13004KT CAVOK"
    },
    {
      "icao": "EGGW",
      "alert": "OK",
      "vis_m": 9999,
      "fzfg": false,
      "metar_trigger": false,
      "taf_trigger": false,
      "metar": "METAR EGGW 191920Z AUTO 02007KT 9999 NCD 10/05 Q1025",
      "taf": ""
    },
    {
      "icao": "EGKK",
      "alert": "OK",
      "vis_m": 9999,
      "fzfg": false,
      "metar_trigger": false,
      "taf_trigger": false,
      "metar": "METAR EGKK 191920Z 07005KT CAVOK 09/01 Q1025",
      "taf": "TAF EGKK 191659Z 1918/2024 06010KT CAVOK"
    },
    {
      "icao": "EGNM",
      "alert": "OK",
      "vis_m": 9999,
      "fzfg": false,
      "metar_trigger": false,
      "taf_trigger": false,
      "metar": "METAR EGNM 191920Z 06003KT 9999 SCT030 09/06 Q1027",
      "taf": "TAF EGNM 191657Z 1918/2018 07005KT 9999 FEW030"
    },
    {
      "icao": "EGPD",
      "alert": "OK",
      "vis_m": 9999,
      "fzfg": false,
      "metar_trigger": false,
      "taf_trigger": false,
      "metar": "METAR EGPD 191920Z COR AUTO 17009KT 9999 NCD 06/03 Q1027 NOSIG",
      "taf": "TAF EGPD 191700Z 1918/2018 17009KT CAVOK"
    },
    {
      "icao": "EGPF",
      "alert": "OK",
      "vis_m": 9999,
      "fzfg": false,
      "metar_trigger": false,
      "taf_trigger": false,
      "metar": "METAR EGPF 191920Z AUTO 08008KT 9999 NCD 10/05 Q1027",
      "taf": "TAF EGPF 191655Z 1918/2018 05006KT 9999 FEW040"
    },
    {
      "icao": "EHBK",
      "alert": "OK",
      "vis_m": 9999,
      "fzfg": false,
      "metar_trigger": false,
      "taf_trigger": false,
      "metar": "METAR EHBK 191925Z AUTO 03006KT 9999 NSC 09/02 Q1023 NOSIG",
      "taf": "TAF EHBK 191707Z 1918/2024 04006KT CAVOK"
    },
    {
      "icao": "EHEH",
      "alert": "OK",
      "vis_m": 9999,
      "fzfg": false,
      "metar_trigger": false,
      "taf_trigger": false,
      "metar": "METAR EHEH 191925Z AUTO 02002KT 9999 OVC200 09/03 Q1023 BLU NOSIG",
      "taf": "TAF EHEH 191732Z 1918/2024 04005KT CAVOK"
    },
    {
      "icao": "EKBI",
      "alert": "OK",
      "vis_m": 9999,
      "fzfg": false,
      "metar_trigger": false,
      "taf_trigger": false,
      "metar": "METAR EKBI 191920Z AUTO 30004KT 9999 NCD 06/00 Q1024",
      "taf": "TAF EKBI 191732Z 1918/2018 32006KT 9999 FEW040"
    },
    {
      "icao": "EKCH",
      "alert": "OK",
      "vis_m": 5000,
      "fzfg": false,
      "metar_trigger": false,
      "taf_trigger": false,
      "metar": "METAR EKCH 191920Z 31005KT 5000 NSC 06/05 Q1023 BECMG 4000 BR BKN006",
      "taf": "TAF EKCH 191727Z 1918/2018 33007KT 9000 FEW040"
    },
    {
      "icao": "ENAL",
      "alert": "OK",
      "vis_m": 9999,
      "fzfg": false,
      "metar_trigger": false,
      "taf_trigger": false,
      "metar": "METAR ENAL 191920Z 24016KT 9999 FEW012 SCT021 BKN027 06/04 Q1022",
      "taf": "TAF ENAL 191700Z 1918/2003 24014KT 9999 FEW010 BKN025"
    },
    {
      "icao": "ENBR",
      "alert": "OK",
      "vis_m": 6000,
      "fzfg": false,
      "metar_trigger": false,
      "taf_trigger": false,
      "metar": "METAR ENBR 191920Z 00000KT 6000 -DZRA FEW003 SCT008 BKN017 06/05 Q1026 TEMPO 26010KT 4000 SHRA BKN012 SCT018TCU RMK WIND 1200FT 30005KT",
      "taf": "TAF ENBR 191700Z 1918/2018 22005KT 9999 FEW008 BKN018"
    },
    {
      "icao": "ENGM",
      "alert": "OK",
      "vis_m": 9999,
      "fzfg": false,
      "metar_trigger": false,
      "taf_trigger": false,
      "metar": "METAR ENGM 191920Z 34005KT CAVOK 04/M01 Q1022 NOSIG",
      "taf": "TAF ENGM 191700Z 1918/2018 VRB03KT CAVOK"
    },
    {
      "icao": "ENHD",
      "alert": "OK",
      "vis_m": 9999,
      "fzfg": false,
      "metar_trigger": false,
      "taf_trigger": false,
      "metar": "METAR ENHD 191920Z 31004KT 280V340 9999 SCT010 BKN017 05/04 Q1026",
      "taf": "TAF ENHD 191400Z 1915/1923 28008KT 9999 BKN016"
    },
    {
      "icao": "ENTC",
      "alert": "OK",
      "vis_m": 9999,
      "fzfg": false,
      "metar_trigger": false,
      "taf_trigger": false,
      "metar": "METAR ENTC 191920Z 29010KT 9999 -SHRA FEW011 SCT017 BKN035 03/M00 Q1007 TEMPO BKN012 SCT018TCU RMK WIND 2600FT 29025G36KT",
      "taf": "TAF ENTC 191700Z 1918/2018 27018KT 9999 BKN020"
    },
    {
      "icao": "ENTO",
      "alert": "OK",
      "vis_m": 9999,
      "fzfg": false,
      "metar_trigger": false,
      "taf_trigger": false,
      "metar": "METAR ENTO 191920Z VRB02KT CAVOK 07/02 Q1023 NOSIG",
      "taf": "TAF ENTO 191700Z 1918/2018 VRB03KT CAVOK"
    },
    {
      "icao": "ENVA",
      "alert": "OK",
      "vis_m": 9999,
      "fzfg": false,
      "metar_trigger": false,
      "taf_trigger": false,
      "metar": "METAR ENVA 191920Z 10005KT 9999 BKN035 04/02 Q1021 TEMPO 27010KT BKN014CB RMK WIND 670FT 20011KT",
      "taf": "TAF ENVA 191700Z 1918/2018 23005KT 9999 BKN035"
    },
    {
      "icao": "ENZV",
      "alert": "OK",
      "vis_m": 9999,
      "fzfg": false,
      "metar_trigger": false,
      "taf_trigger": false,
      "metar": "METAR ENZV 191920Z 29002KT CAVOK 05/04 Q1026 NOSIG",
      "taf": "TAF ENZV 191700Z 1918/2018 VRB05KT 9999 FEW030"
    },
    {
      "icao": "EPGD",
      "alert": "OK",
      "vis_m": 9999,
      "fzfg": false,
      "metar_trigger": false,
      "taf_trigger": false,
      "metar": "METAR EPGD 191900Z 27006KT 9999 OVC042 07/02 Q1021",
      "taf": "TAF EPGD 191730Z 1918/2018 29005KT 9999 BKN035"
    },
    {
      "icao": "EPKK",
      "alert": "OK",
      "vis_m": 9999,
      "fzfg": false,
      "metar_trigger": false,
      "taf_trigger": false,
      "metar": "METAR EPKK 191900Z 01004KT CAVOK 09/M01 Q1020",
      "taf": "TAF EPKK 191730Z 1918/2018 VRB02KT CAVOK"
    },
    {
      "icao": "EPKT",
      "alert": "OK",
      "vis_m": 9999,
      "fzfg": false,
      "metar_trigger": false,
      "taf_trigger": false,
      "metar": "METAR EPKT 191900Z 04001KT CAVOK 03/M01 Q1021",
      "taf": "TAF EPKT 191730Z 1918/2018 VRB02KT CAVOK"
    },
    {
      "icao": "EPLB",
      "alert": "OK",
      "vis_m": 9999,
      "fzfg": false,
      "metar_trigger": false,
      "taf_trigger": false,
      "metar": "METAR EPLB 191900Z 29002KT CAVOK 04/00 Q1020",
      "taf": "TAF EPLB 191730Z 1918/2018 VRB02KT CAVOK"
    },
    {
      "icao": "EPMO",
      "alert": "OK",
      "vis_m": 9999,
      "fzfg": false,
      "metar_trigger": false,
      "taf_trigger": false,
      "metar": "METAR EPMO 191900Z 26003KT CAVOK 06/M02 Q1021",
      "taf": "TAF EPMO 191730Z 1918/2018 31004KT CAVOK"
    },
    {
      "icao": "EPPO",
      "alert": "OK",
      "vis_m": 9999,
      "fzfg": false,
      "metar_trigger": false,
      "taf_trigger": false,
      "metar": "METAR EPPO 191900Z VRB01KT CAVOK 04/M01 Q1022",
      "taf": "TAF EPPO 191730Z 1918/2018 30004KT CAVOK"
    },
    {
      "icao": "EPRA",
      "alert": "OK",
      "vis_m": 9999,
      "fzfg": false,
      "metar_trigger": false,
      "taf_trigger": false,
      "metar": "METAR EPRA 191900Z VRB02KT CAVOK 09/01 Q1020",
      "taf": "TAF EPRA 191730Z 1918/2003 VRB03KT CAVOK"
    },
    {
      "icao": "EPRZ",
      "alert": "OK",
      "vis_m": 9999,
      "fzfg": false,
      "metar_trigger": false,
      "taf_trigger": false,
      "metar": "METAR EPRZ 191900Z 32001KT CAVOK 07/00 Q1020",
      "taf": "TAF EPRZ 191730Z 1918/2018 VRB02KT CAVOK"
    },
    {
      "icao": "EPSC",
      "alert": "OK",
      "vis_m": 9999,
      "fzfg": false,
      "metar_trigger": false,
      "taf_trigger": false,
      "metar": "METAR EPSC 191900Z 10001KT CAVOK 08/00 Q1022",
      "taf": "TAF EPSC 191730Z 1918/2018 VRB03KT CAVOK"
    },
    {
      "icao": "EPSY",
      "alert": "OK",
      "vis_m": 9999,
      "fzfg": false,
      "metar_trigger": false,
      "taf_trigger": false,
      "metar": "METAR EPSY 191900Z 23002KT CAVOK 02/M05 Q1021",
      "taf": "TAF EPSY 191730Z 1918/2003 VRB02KT CAVOK"
    },
    {
      "icao": "EPWA",
      "alert": "OK",
      "vis_m": 9999,
      "fzfg": false,
      "metar_trigger": false,
      "taf_trigger": false,
      "metar": "METAR EPWA 191900Z 32004KT 280V350 CAVOK 08/M02 Q1021 NOSIG",
      "taf": "TAF EPWA 191730Z 1918/2018 32005KT CAVOK"
    },
    {
      "icao": "EPWR",
      "alert": "OK",
      "vis_m": 9999,
      "fzfg": false,
      "metar_trigger": false,
      "taf_trigger": false,
      "metar": "METAR EPWR 191900Z 34002KT CAVOK 06/M02 Q1022",
      "taf": "TAF EPWR 191730Z 1918/2018 35004KT CAVOK"
    },
    {
      "icao": "ESGG",
      "alert": "OK",
      "vis_m": 9999,
      "fzfg": false,
      "metar_trigger": false,
      "taf_trigger": false,
      "metar": "METAR ESGG 191920Z 29004KT CAVOK 04/03 Q1022",
      "taf": "TAF ESGG 191730Z 1918/2018 28005KT CAVOK"
    },
    {
      "icao": "ESKN",
      "alert": "OK",
      "vis_m": 9999,
      "fzfg": false,
      "metar_trigger": false,
      "taf_trigger": false,
      "metar": "METAR ESKN 191920Z 26003KT CAVOK 02/02 Q1020",
      "taf": "TAF ESKN 191730Z 1918/2018 28004KT CAVOK"
    },
    {
      "icao": "ESMS",
      "alert": "OK",
      "vis_m": 2000,
      "fzfg": false,
      "metar_trigger": false,
      "taf_trigger": false,
      "metar": "METAR ESMS 191920Z 31009KT 2000 BR OVC003 05/05 Q1022",
      "taf": "TAF ESMS 191727Z 1918/2018 32007KT 8000 SCT025"
    },
    {
      "icao": "ESSA",
      "alert": "OK",
      "vis_m": 9999,
      "fzfg": false,
      "metar_trigger": false,
      "taf_trigger": false,
      "metar": "METAR ESSA 191920Z 06003KT 020V080 CAVOK 01/M02 Q1020 NOSIG",
      "taf": "TAF ESSA 191730Z 1918/2018 36004KT CAVOK"
    },
    {
      "icao": "EYKA",
      "alert": "OK",
      "vis_m": 9999,
      "fzfg": false,
      "metar_trigger": false,
      "taf_trigger": false,
      "metar": "METAR EYKA 191920Z VRB02KT 9999 FEW041 06/M01 Q1019",
      "taf": "TAF EYKA 191722Z 1918/2018 VRB04KT 9000 BKN040"
    },
    {
      "icao": "EYPA",
      "alert": "OK",
      "vis_m": 4600,
      "fzfg": false,
      "metar_trigger": false,
      "taf_trigger": false,
      "metar": "METAR EYPA 191920Z VRB02KT 4600 -RA BR BKN005 BKN033 OVC044 03/02 Q1019",
      "taf": "TAF EYPA 191725Z 1918/2018 VRB04KT 5000 BR BKN005 OVC015"
    },
    {
      "icao": "EYVI",
      "alert": "OK",
      "vis_m": 9999,
      "fzfg": false,
      "metar_trigger": false,
      "taf_trigger": false,
      "metar": "METAR EYVI 191920Z 30003KT 260V330 CAVOK 05/M01 Q1019 NOSIG",
      "taf": "TAF EYVI 191721Z 1918/2018 VRB04KT 9000 NSC"
    },
    {
      "icao": "GCFV",
      "alert": "OK",
      "vis_m": 9999,
      "fzfg": false,
      "metar_trigger": false,
      "taf_trigger": false,
      "metar": "METAR GCFV 191900Z 20016KT 170V230 9999 FEW030 SCT045 18/12 Q1002",
      "taf": "TAF GCFV 191400Z 1915/2015 21020KT 9999 SCT035 TX22/2014Z TN17/2006Z"
    },
    {
      "icao": "GCLP",
      "alert": "OK",
      "vis_m": 9999,
      "fzfg": false,
      "metar_trigger": false,
      "taf_trigger": false,
      "metar": "METAR GCLP 191900Z 20015KT 9999 -RA FEW035 BKN060 17/14 Q1001 NOSIG",
      "taf": "TAF GCLP 191400Z 1915/2015 22026KT 9999 SCT035 TX23/2014Z TN16/2006Z"
    },
    {
      "icao": "GCTS",
      "alert": "OK",
      "vis_m": 9999,
      "fzfg": false,
      "metar_trigger": false,
      "taf_trigger": false,
      "metar": "METAR GCTS 191900Z 25013KT 220V280 9999 -RA SCT020 FEW030TCU BKN050 17/14 Q1000 NOSIG",
      "taf": "TAF GCTS 191400Z 1915/2015 26017KT 9999 SCT030 TX21/2014Z TN15/2006Z"
    },
    {
      "icao": "GMAD",
      "alert": "OK",
      "vis_m": 6000,
      "fzfg": false,
      "metar_trigger": false,
      "taf_trigger": false,
      "metar": "METAR GMAD 191900Z 07004KT 6000 BKN023 SCT083 17/15 Q1005 NOSIG",
      "taf": "TAF GMAD 191700Z 1918/2024 27003KT 6000 BKN023"
    },
    {
      "icao": "GMMN",
      "alert": "OK",
      "vis_m": 5000,
      "fzfg": false,
      "metar_trigger": false,
      "taf_trigger": false,
      "metar": "METAR GMMN 191900Z COR 31004KT 270V350 5000 -RA SCT012 BKN027 15/13 Q1007 NOSIG",
      "taf": "TAF GMMN 191700Z 1918/2024 36012KT 9999 BKN023"
    },
    {
      "icao": "GMMX",
      "alert": "OK",
      "vis_m": 8000,
      "fzfg": false,
      "metar_trigger": false,
      "taf_trigger": false,
      "metar": "METAR GMMX 191900Z 36007KT 320V070 8000 BKN020 17/12 Q1005 NOSIG",
      "taf": ""
    },
    {
      "icao": "HEGN",
      "alert": "OK",
      "vis_m": 4000,
      "fzfg": false,
      "metar_trigger": false,
      "taf_trigger": false,
      "metar": "METAR HEGN 191900Z 26007KT 4000 DU NSC 21/04 Q1008 NOSIG",
      "taf": "TAF HEGN 191700Z 1918/2024 28015G25KT 6000 NSC"
    },
    {
      "icao": "HEMA",
      "alert": "OK",
      "vis_m": 9999,
      "fzfg": false,
      "metar_trigger": false,
      "taf_trigger": false,
      "metar": "METAR HEMA 191900Z 28010KT CAVOK 22/07 Q1010 NOSIG",
      "taf": "TAF HEMA 191700Z 1918/2024 29015G25KT 6000 NSC"
    },
    {
      "icao": "HESH",
      "alert": "OK",
      "vis_m": 9999,
      "fzfg": false,
      "metar_trigger": false,
      "taf_trigger": false,
      "metar": "METAR HESH 191900Z 24005KT CAVOK 22/04 Q1008 NOSIG",
      "taf": "TAF HESH 191700Z 1918/2024 27014KT 6000 NSC"
    },
    {
      "icao": "HESX",
      "alert": "OK",
      "vis_m": 9999,
      "fzfg": false,
      "metar_trigger": false,
      "taf_trigger": false,
      "metar": "METAR HESX 191900Z 36005KT CAVOK 16/07 Q1008 NOSIG",
      "taf": "TAF HESX 191700Z 1918/2024 31012KT 6000 NSC"
    },
    {
      "icao": "LATI",
      "alert": "OK",
      "vis_m": 9999,
      "fzfg": false,
      "metar_trigger": false,
      "taf_trigger": false,
      "metar": "METAR LATI 191920Z VRB04KT 9999 SCT094 13/M01 Q1010 NOSIG",
      "taf": "TAF LATI 191700Z 1918/2018 VRB04KT CAVOK TX19/2012Z TN04/2005Z"
    },
    {
      "icao": "LBPD",
      "alert": "OK",
      "vis_m": 9999,
      "fzfg": false,
      "metar_trigger": false,
      "taf_trigger": false,
      "metar": "METAR LBPD 191930Z AUTO 12004KT 090V150 9999 OVC043/// 06/01 Q1015 NOSIG",
      "taf": "TAF LBPD 191700Z 1918/2018 09008KT 9999 BKN050"
    },
    {
      "icao": "LBSF",
      "alert": "OK",
      "vis_m": 9999,
      "fzfg": false,
      "metar_trigger": false,
      "taf_trigger": false,
      "metar": "METAR LBSF 191930Z AUTO 05008KT 010V070 9999 OVC054/// 04/M03 Q1015 NOSIG",
      "taf": "TAF LBSF 191700Z 1918/2018 05012KT 9999 SCT040 OVC060"
    },
    {
      "icao": "LBWN",
      "alert": "OK",
      "vis_m": 9999,
      "fzfg": false,
      "metar_trigger": false,
      "taf_trigger": false,
      "metar": "METAR LBWN 191930Z AUTO 34005KT 300V010 9999 NSC 06/M00 Q1015 NOSIG",
      "taf": "TAF LBWN 191700Z 1918/2018 02010KT 9999 BKN025"
    },
    {
      "icao": "LCLK",
      "alert": "OK",
      "vis_m": 9999,
      "fzfg": false,
      "metar_trigger": false,
      "taf_trigger": false,
      "metar": "METAR LCLK 191900Z 26006KT 230V290 9999 VCTS SCT023 FEW025CB BKN042 16/13 Q1001 NOSIG",
      "taf": "TAF LCLK 191730Z 1918/2018 24010KT 9999 FEW030 SCT050"
    },
    {
      "icao": "LCPH",
      "alert": "OK",
      "vis_m": 9999,
      "fzfg": false,
      "metar_trigger": false,
      "taf_trigger": false,
      "metar": "METAR LCPH 191900Z 31011KT 9999 FEW030 BKN080 16/13 Q1002 NOSIG",
      "taf": "TAF LCPH 191730Z 1918/2018 28010KT 9999 FEW030 SCT050"
    },
    {
      "icao": "LEAL",
      "alert": "OK",
      "vis_m": 9999,
      "fzfg": false,
      "metar_trigger": false,
      "taf_trigger": false,
      "metar": "METAR LEAL 191900Z 07016KT 9999 SCT020 15/10 Q1014 NOSIG",
      "taf": "TAF LEAL 191700Z 1918/2018 07015KT 9999 FEW020 TX17/2012Z TN11/2007Z"
    },
    {
      "icao": "LEBB",
      "alert": "OK",
      "vis_m": 9999,
      "fzfg": false,
      "metar_trigger": false,
      "taf_trigger": false,
      "metar": "METAR LEBB 191900Z 15009KT 110V200 CAVOK 17/07 Q1012 NOSIG",
      "taf": "TAF LEBB 191700Z 1918/2018 14009KT CAVOK TX21/2014Z TN08/2006Z"
    },
    {
      "icao": "LEBL",
      "alert": "OK",
      "vis_m": 9999,
      "fzfg": false,
      "metar_trigger": false,
      "taf_trigger": false,
      "metar": "METAR LEBL 191900Z 06006KT 9999 FEW020 SCT045 13/09 Q1017 NOSIG",
      "taf": "TAF LEBL 191700Z 1918/2018 07012KT 9999 FEW020 TX17/2012Z TN08/2006Z"
    },
    {
      "icao": "LECH",
      "alert": "OK",
      "vis_m": 9000,
      "fzfg": false,
      "metar_trigger": false,
      "taf_trigger": false,
      "metar": "METAR LECH 191900Z AUTO 04005KT 9000 NCD 09/05 Q1017",
      "taf": "TAF LECH 191700Z 1918/2018 01006KT 9999 FEW020 BKN030 TX16/2012Z TN06/2007Z"
    },
    {
      "icao": "LEMD",
      "alert": "OK",
      "vis_m": 9999,
      "fzfg": false,
      "metar_trigger": false,
      "taf_trigger": false,
      "metar": "METAR LEMD 191900Z 15010KT CAVOK 12/06 Q1012 NOSIG",
      "taf": "TAF LEMD 191700Z 1918/2024 VRB05KT CAVOK TX15/2016Z TN05/2007Z"
    },
    {
      "icao": "LEMG",
      "alert": "OK",
      "vis_m": 9999,
      "fzfg": false,
      "metar_trigger": false,
      "taf_trigger": false,
      "metar": "METAR LEMG 191900Z 17007KT 130V250 9999 FEW020 BKN030 16/11 Q1009 NOSIG",
      "taf": "TAF LEMG 191700Z 1918/2018 13014KT 9999 BKN020 TX16/2013Z TN11/2006Z"
    },
    {
      "icao": "LEVC",
      "alert": "OK",
      "vis_m": 9999,
      "fzfg": false,
      "metar_trigger": false,
      "taf_trigger": false,
      "metar": "METAR LEVC 191900Z 06006KT 9999 FEW022 13/09 Q1016 NOSIG",
      "taf": "TAF LEVC 191700Z 1918/2018 07010KT 9999 SCT030 TX16/2012Z TN10/2007Z"
    },
    {
      "icao": "LEXJ",
      "alert": "OK",
      "vis_m": 9000,
      "fzfg": false,
      "metar_trigger": false,
      "taf_trigger": false,
      "metar": "METAR LEXJ 191900Z 10004KT 060V140 9000 NSC 14/08 Q1010",
      "taf": "TAF LEXJ 191400Z 1915/2015 06009KT CAVOK TX23/2014Z TN07/2007Z"
    },
    {
      "icao": "LEZG",
      "alert": "OK",
      "vis_m": 9999,
      "fzfg": false,
      "metar_trigger": false,
      "taf_trigger": false,
      "metar": "METAR LEZG 191900Z 13009KT CAVOK 14/04 Q1015 NOSIG",
      "taf": "TAF LEZG 191700Z 1918/2018 10012KT 9999 FEW040 TX18/2014Z TN06/2007Z"
    },
    {
      "icao": "LEZL",
      "alert": "OK",
      "vis_m": 9999,
      "fzfg": false,
      "metar_trigger": false,
      "taf_trigger": false,
      "metar": "METAR LEZL 191900Z 25007KT CAVOK 19/12 Q1006 NOSIG",
      "taf": "TAF LEZL 191400Z 1915/2015 VRB03KT 9999 FEW035 TX24/1915Z TN13/2007Z"
    },
    {
      "icao": "LFBD",
      "alert": "OK",
      "vis_m": 9999,
      "fzfg": false,
      "metar_trigger": false,
      "taf_trigger": false,
      "metar": "METAR LFBD 191900Z AUTO 10004KT CAVOK 15/04 Q1015 NOSIG",
      "taf": "TAF LFBD 191700Z 1918/2024 10010KT CAVOK TX19/2014Z TN05/2006Z"
    },
    {
      "icao": "LFLL",
      "alert": "OK",
      "vis_m": 9999,
      "fzfg": false,
      "metar_trigger": false,
      "taf_trigger": false,
      "metar": "METAR LFLL 191900Z 35007KT CAVOK 12/03 Q1017 NOSIG",
      "taf": "TAF LFLL 191700Z 1918/2024 34005KT CAVOK"
    },
    {
      "icao": "LFLS",
      "alert": "OK",
      "vis_m": 9999,
      "fzfg": false,
      "metar_trigger": false,
      "taf_trigger": false,
      "metar": "METAR LFLS 191900Z AUTO 35008KT CAVOK 11/03 Q1017 NOSIG",
      "taf": "TAF LFLS 191400Z 1915/2015 36008KT CAVOK"
    },
    {
      "icao": "LFMN",
      "alert": "OK",
      "vis_m": 9999,
      "fzfg": false,
      "metar_trigger": false,
      "taf_trigger": false,
      "metar": "METAR LFMN 191900Z 33005KT CAVOK 13/01 Q1016 NOSIG",
      "taf": "TAF LFMN 191400Z 1915/2021 12012KT CAVOK"
    },
    {
      "icao": "LFOB",
      "alert": "OK",
      "vis_m": 9999,
      "fzfg": false,
      "metar_trigger": false,
      "taf_trigger": false,
      "metar": "METAR LFOB 191900Z AUTO 02009KT CAVOK 09/03 Q1022 NOSIG",
      "taf": "TAF LFOB 191700Z 1918/2018 05010KT CAVOK"
    },
    {
      "icao": "LFPO",
      "alert": "OK",
      "vis_m": 9999,
      "fzfg": false,
      "metar_trigger": false,
      "taf_trigger": false,
      "metar": "METAR LFPO 191900Z 04008KT CAVOK 13/01 Q1021 NOSIG",
      "taf": "TAF LFPO 191700Z 1918/2024 04010KT CAVOK"
    },
    {
      "icao": "LFSB",
      "alert": "OK",
      "vis_m": 9999,
      "fzfg": false,
      "metar_trigger": false,
      "taf_trigger": false,
      "metar": "METAR LFSB 191900Z AUTO VRB02KT CAVOK 12/M03 Q1019 NOSIG",
      "taf": "TAF LFSB 191700Z 1918/2018 VRB03KT CAVOK"
    },
    {
      "icao": "LGAV",
      "alert": "OK",
      "vis_m": 9999,
      "fzfg": false,
      "metar_trigger": false,
      "taf_trigger": false,
      "metar": "METAR LGAV 191920Z 03015G26KT 9999 FEW015 BKN025 08/05 Q1009 NOSIG",
      "taf": "TAF LGAV 191700Z 1918/2018 01016KT 9999 FEW018 BKN025 BKN070"
    },
    {
      "icao": "LGTS",
      "alert": "OK",
      "vis_m": 9999,
      "fzfg": false,
      "metar_trigger": false,
      "taf_trigger": false,
      "metar": "METAR LGTS 191920Z VRB02KT 9999 SCT025 10/04 Q1012 NOSIG",
      "taf": "TAF LGTS 191700Z 1918/2018 VRB03KT 9999 SCT025"
    },
    {
      "icao": "LHBP",
      "alert": "OK",
      "vis_m": 9999,
      "fzfg": false,
      "metar_trigger": false,
      "taf_trigger": false,
      "metar": "METAR LHBP 191900Z 33002KT CAVOK 06/M02 Q1020 NOSIG",
      "taf": "TAF LHBP 191715Z 1918/2018 07007KT CAVOK"
    },
    {
      "icao": "LHDC",
      "alert": "OK",
      "vis_m": 9999,
      "fzfg": false,
      "metar_trigger": false,
      "taf_trigger": false,
      "metar": "METAR LHDC 191845Z AUTO 02009KT 350V050 CAVOK 09/M01 Q1019 NOSIG",
      "taf": "TAF LHDC 191415Z 1915/1924 03009KT CAVOK"
    },
    {
      "icao": "LIBD",
      "alert": "OK",
      "vis_m": 9999,
      "fzfg": false,
      "metar_trigger": false,
      "taf_trigger": false,
      "metar": "METAR LIBD 191920Z 29007KT CAVOK 11/07 Q1011",
      "taf": "TAF LIBD 191700Z 1918/2018 28010KT 9999 FEW040"
    },
    {
      "icao": "LIBG",
      "alert": "OK",
      "vis_m": 9999,
      "fzfg": false,
      "metar_trigger": false,
      "taf_trigger": false,
      "metar": "METAR LIBG 191850Z 32005KT CAVOK 11/07 Q1010",
      "taf": "TAF LIBG 191700Z 1918/2003 34011KT 9999 FEW040"
    },
    {
      "icao": "LIBP",
      "alert": "OK",
      "vis_m": 9999,
      "fzfg": false,
      "metar_trigger": false,
      "taf_trigger": false,
      "metar": "METAR LIBP 191920Z AUTO 22005KT 9999 OVC083/// 09/04 Q1015",
      "taf": "TAF LIBP 191700Z 1918/2018 34010KT 9999 FEW040"
    },
    {
      "icao": "LIBR",
      "alert": "OK",
      "vis_m": 9999,
      "fzfg": false,
      "metar_trigger": false,
      "taf_trigger": false,
      "metar": "METAR LIBR 191920Z 36013KT CAVOK 14/07 Q1010",
      "taf": "TAF LIBR 191700Z 1918/2018 01015KT 9999 FEW030"
    },
    {
      "icao": "LICA",
      "alert": "OK",
      "vis_m": 9999,
      "fzfg": false,
      "metar_trigger": false,
      "taf_trigger": false,
      "metar": "METAR LICA 191920Z AUTO 11003KT 070V140 9999 FEW059/// 10/06 Q1011",
      "taf": "TAF LICA 191700Z 1918/2018 27012KT 8000 FEW030"
    },
    {
      "icao": "LICC",
      "alert": "OK",
      "vis_m": 9999,
      "fzfg": false,
      "metar_trigger": false,
      "taf_trigger": false,
      "metar": "METAR LICC 191920Z 09003KT CAVOK 10/08 Q1010",
      "taf": "TAF LICC 191700Z 1918/2018 VRB05KT 9999 SCT035"
    },
    {
      "icao": "LICJ",
      "alert": "OK",
      "vis_m": 9999,
      "fzfg": false,
      "metar_trigger": false,
      "taf_trigger": false,
      "metar": "METAR LICJ 191920Z 04015KT 9999 FEW040 14/08 Q1012",
      "taf": "TAF LICJ 191700Z 1918/2018 02013KT 9999 SCT025"
    },
    {
      "icao": "LIMC",
      "alert": "OK",
      "vis_m": 9999,
      "fzfg": false,
      "metar_trigger": false,
      "taf_trigger": false,
      "metar": "METAR LIMC 191920Z 08002KT CAVOK 08/01 Q1016 NOSIG",
      "taf": "TAF LIMC 191700Z 1918/2024 VRB05KT CAVOK"
    },
    {
      "icao": "LIME",
      "alert": "OK",
      "vis_m": 9999,
      "fzfg": false,
      "metar_trigger": false,
      "taf_trigger": false,
      "metar": "METAR LIME 191920Z 02004KT CAVOK 11/02 Q1017 NOSIG",
      "taf": "TAF LIME 191700Z 1918/2018 VRB05KT 9999 FEW030"
    },
    {
      "icao": "LIMF",
      "alert": "OK",
      "vis_m": 9999,
      "fzfg": false,
      "metar_trigger": false,
      "taf_trigger": false,
      "metar": "METAR LIMF 191920Z 24005KT CAVOK 13/M03 Q1016",
      "taf": "TAF LIMF 191700Z 1918/2018 VRB05KT CAVOK"
    },
    {
      "icao": "LIMJ",
      "alert": "OK",
      "vis_m": 9999,
      "fzfg": false,
      "metar_trigger": false,
      "taf_trigger": false,
      "metar": "METAR LIMJ 191920Z 04008KT CAVOK 15/M01 Q1016",
      "taf": "TAF LIMJ 191700Z 1918/2018 04008KT CAVOK"
    },
    {
      "icao": "LIPE",
      "alert": "OK",
      "vis_m": 9999,
      "fzfg": false,
      "metar_trigger": false,
      "taf_trigger": false,
      "metar": "METAR LIPE 191920Z 10004KT CAVOK 07/M01 Q1017",
      "taf": "TAF LIPE 191700Z 1918/2018 VRB05KT CAVOK"
    },
    {
      "icao": "LIPH",
      "alert": "OK",
      "vis_m": 9999,
      "fzfg": false,
      "metar_trigger": false,
      "taf_trigger": false,
      "metar": "METAR LIPH 191920Z 33003KT CAVOK 11/01 Q1018",
      "taf": "TAF LIPH 191700Z 1918/2018 VRB05KT CAVOK"
    },
    {
      "icao": "LIPQ",
      "alert": "OK",
      "vis_m": 9999,
      "fzfg": false,
      "metar_trigger": false,
      "taf_trigger": false,
      "metar": "METAR LIPQ 191920Z AUTO 11007KT 9999 NCD 11/M02 Q1018",
      "taf": "TAF LIPQ 191700Z 1918/2018 10014KT CAVOK"
    },
    {
      "icao": "LIPR",
      "alert": "OK",
      "vis_m": 9999,
      "fzfg": false,
      "metar_trigger": false,
      "taf_trigger": false,
      "metar": "METAR LIPR 191920Z 07009KT CAVOK 12/06 Q1016",
      "taf": "TAF LIPR 191700Z 1918/2018 06010KT CAVOK"
    },
    {
      "icao": "LIPX",
      "alert": "OK",
      "vis_m": 9999,
      "fzfg": false,
      "metar_trigger": false,
      "taf_trigger": false,
      "metar": "METAR LIPX 191920Z 07004KT CAVOK 11/M01 Q1018",
      "taf": "TAF LIPX 191700Z 1918/2018 VRB05KT 9999 FEW030"
    },
    {
      "icao": "LIPY",
      "alert": "OK",
      "vis_m": 9999,
      "fzfg": false,
      "metar_trigger": false,
      "taf_trigger": false,
      "metar": "METAR LIPY 191920Z AUTO 10004KT 060V130 9999 NCD 12/07 Q1015",
      "taf": "TAF LIPY 191700Z 1918/2018 04008KT CAVOK"
    },
    {
      "icao": "LIPZ",
      "alert": "OK",
      "vis_m": 9999,
      "fzfg": false,
      "metar_trigger": false,
      "taf_trigger": false,
      "metar": "METAR LIPZ 191920Z AUTO 11005KT 9999 NCD 11/05 Q1018",
      "taf": "TAF LIPZ 191700Z 1918/2024 10010KT CAVOK"
    },
    {
      "icao": "LIRF",
      "alert": "OK",
      "vis_m": 9999,
      "fzfg": false,
      "metar_trigger": false,
      "taf_trigger": false,
      "metar": "METAR LIRF 191920Z 03005KT 350V050 CAVOK 11/07 Q1012 NOSIG",
      "taf": "TAF LIRF 191700Z 1918/2024 VRB05KT CAVOK"
    },
    {
      "icao": "LIRN",
      "alert": "OK",
      "vis_m": 9999,
      "fzfg": false,
      "metar_trigger": false,
      "taf_trigger": false,
      "metar": "METAR LIRN 191920Z 01005KT CAVOK 11/02 Q1012 NOSIG",
      "taf": "TAF LIRN 191700Z 1918/2018 04008KT CAVOK"
    },
    {
      "icao": "LIRP",
      "alert": "OK",
      "vis_m": 9999,
      "fzfg": false,
      "metar_trigger": false,
      "taf_trigger": false,
      "metar": "METAR LIRP 191915Z 09008KT CAVOK 11/M04 Q1015 NOSIG",
      "taf": "TAF LIRP 191700Z 1918/2018 10006KT CAVOK"
    },
    {
      "icao": "LIRZ",
      "alert": "OK",
      "vis_m": 9999,
      "fzfg": false,
      "metar_trigger": false,
      "taf_trigger": false,
      "metar": "METAR LIRZ 191920Z AUTO 02006KT 9999 NCD 05/01 Q1015",
      "taf": "TAF LIRZ 191700Z 1918/2018 03012KT 9999 FEW050"
    },
    {
      "icao": "LJLJ",
      "alert": "OK",
      "vis_m": 9999,
      "fzfg": false,
      "metar_trigger": false,
      "taf_trigger": false,
      "metar": "METAR LJLJ 191900Z 11015KT 9999 FEW060 08/M02 Q1018 NOSIG",
      "taf": "TAF LJLJ 191700Z 1918/2018 09008KT 9999 FEW075"
    },
    {
      "icao": "LKMT",
      "alert": "OK",
      "vis_m": 9999,
      "fzfg": false,
      "metar_trigger": false,
      "taf_trigger": false,
      "metar": "METAR LKMT 191900Z VRB02KT CAVOK 08/01 Q1021 NOSIG",
      "taf": "TAF LKMT 191700Z 1918/2018 01006KT CAVOK"
    },
    {
      "icao": "LKPR",
      "alert": "OK",
      "vis_m": 9999,
      "fzfg": false,
      "metar_trigger": false,
      "taf_trigger": false,
      "metar": "METAR LKPR 191900Z 35005KT CAVOK 08/01 Q1021 NOSIG",
      "taf": "TAF LKPR 191700Z 1918/2024 35005KT CAVOK"
    },
    {
      "icao": "LLBG",
      "alert": "OK",
      "vis_m": 9999,
      "fzfg": false,
      "metar_trigger": false,
      "taf_trigger": false,
      "metar": "METAR LLBG 191920Z 26007KT 9999 FEW050 17/13 Q1006 TEMPO 7000 RA FEW025TCU BKN035 RMK REP AT 1825Z 1000FT-WIND 300/30KT",
      "taf": "TAF LLBG 191712Z 1918/2018 25010KT 9999 BKN035 TX20/2012Z TN13/2004Z"
    },
    {
      "icao": "LMML",
      "alert": "OK",
      "vis_m": 9999,
      "fzfg": false,
      "metar_trigger": false,
      "taf_trigger": false,
      "metar": "METAR LMML 191915Z 30010KT 9999 FEW034 12/07 Q1011 NOSIG",
      "taf": "TAF LMML 191700Z 1918/2018 31015KT 9999 FEW025"
    },
    {
      "icao": "LOWW",
      "alert": "OK",
      "vis_m": 9999,
      "fzfg": false,
      "metar_trigger": false,
      "taf_trigger": false,
      "metar": "METAR LOWW 191920Z 36005KT CAVOK 08/M03 Q1020 NOSIG",
      "taf": "TAF LOWW 191715Z 1918/2024 34006KT CAVOK TX14/2015Z TN02/2005Z"
    },
    {
      "icao": "LPFR",
      "alert": "OK",
      "vis_m": 8000,
      "fzfg": false,
      "metar_trigger": false,
      "taf_trigger": false,
      "metar": "METAR LPFR 191900Z 13012KT 8000 RA FEW015 SCT035 15/13 Q1007",
      "taf": "TAF LPFR 191700Z 1918/2018 13013KT 9999 SCT015"
    },
    {
      "icao": "LPMA",
      "alert": "OK",
      "vis_m": 9999,
      "fzfg": false,
      "metar_trigger": false,
      "taf_trigger": false,
      "metar": "METAR LPMA 191900Z 21034G46KT 9999 VCSH SCT014 FEW016TCU 16/09 Q0992",
      "taf": "TAF LPMA 191700Z 1918/2018 21020G32KT 9999 SCT015"
    },
    {
      "icao": "LPPR",
      "alert": "OK",
      "vis_m": 9999,
      "fzfg": false,
      "metar_trigger": false,
      "taf_trigger": false,
      "metar": "METAR LPPR 191900Z VRB02KT CAVOK 16/10 Q1007",
      "taf": "TAF LPPR 191700Z 1918/2018 30007KT 9999 SCT030"
    },
    {
      "icao": "LPPS",
      "alert": "OK",
      "vis_m": 9999,
      "fzfg": false,
      "metar_trigger": false,
      "taf_trigger": false,
      "metar": "METAR LPPS 191900Z 19022G32KT 9999 SCT014 FEW018TCU 15/08 Q0994",
      "taf": "TAF LPPS 191700Z 1918/2024 20018KT 9999 SCT015 SCT030"
    },
    {
      "icao": "LPPT",
      "alert": "OK",
      "vis_m": 9000,
      "fzfg": false,
      "metar_trigger": false,
      "taf_trigger": false,
      "metar": "METAR LPPT 191900Z 07009KT 9000 -RA SCT008 13/13 Q1006",
      "taf": "TAF LPPT 191700Z 1918/2024 11007KT 9999 SCT012"
    },
    {
      "icao": "LQBK",
      "alert": "OK",
      "vis_m": 9999,
      "fzfg": false,
      "metar_trigger": false,
      "taf_trigger": false,
      "metar": "METAR LQBK 191900Z 31002KT CAVOK 08/02 Q1018 NOSIG",
      "taf": "TAF LQBK 191700Z 1918/2018 34005KT CAVOK TX13/2013Z TN01/2005Z"
    },
    {
      "icao": "LQSA",
      "alert": "OK",
      "vis_m": 9999,
      "fzfg": false,
      "metar_trigger": false,
      "taf_trigger": false,
      "metar": "METAR LQSA 191900Z VRB02KT 9999 -RA FEW025 BKN045 06/00 Q1016 NOSIG",
      "taf": "TAF LQSA 191700Z 1918/2018 30005KT 9999 SCT060 TX09/2013Z TN00/2005Z"
    },
    {
      "icao": "LQTZ",
      "alert": "OK",
      "vis_m": 9999,
      "fzfg": false,
      "metar_trigger": false,
      "taf_trigger": false,
      "metar": "METAR LQTZ 191900Z 10002KT 9999 FEW070 07/02 Q1017",
      "taf": "TAF LQTZ 191700Z 1918/2018 10005KT 9999 SCT040 TX12/2013Z TNM00/2005Z"
    },
    {
      "icao": "LRBC",
      "alert": "OK",
      "vis_m": 9999,
      "fzfg": false,
      "metar_trigger": false,
      "taf_trigger": false,
      "metar": "METAR LRBC 191900Z 33008KT 9999 BKN020 OVC061 05/02 Q1019",
      "taf": "TAF LRBC 191700Z 1918/2003 33010KT 9999 BKN020 BKN045"
    },
    {
      "icao": "LRBS",
      "alert": "OK",
      "vis_m": 9999,
      "fzfg": false,
      "metar_trigger": false,
      "taf_trigger": false,
      "metar": "METAR LRBS 191900Z VRB01KT CAVOK 05/M01 Q1017 NOSIG",
      "taf": "TAF LRBS 191700Z 1918/2018 VRB04KT CAVOK"
    },
    {
      "icao": "LRBV",
      "alert": "OK",
      "vis_m": 9999,
      "fzfg": false,
      "metar_trigger": false,
      "taf_trigger": false,
      "metar": "METAR LRBV 191900Z VRB03KT 9999 -RA SCT031 BKN043 03/M01 Q1017",
      "taf": "TAF LRBV 191700Z 1918/2003 VRB04KT 9999 BKN040"
    },
    {
      "icao": "LRCL",
      "alert": "OK",
      "vis_m": 9999,
      "fzfg": false,
      "metar_trigger": false,
      "taf_trigger": false,
      "metar": "METAR LRCL 191900Z 12002KT 9999 BKN060 07/M02 Q1018",
      "taf": "TAF LRCL 191700Z 1918/2003 VRB04KT 9999 BKN060"
    },
    {
      "icao": "LRCV",
      "alert": "OK",
      "vis_m": 9999,
      "fzfg": false,
      "metar_trigger": false,
      "taf_trigger": false,
      "metar": "METAR LRCV 191900Z 10004KT CAVOK 06/02 Q1018",
      "taf": "TAF LRCV 191700Z 1918/2003 VRB04KT CAVOK"
    },
    {
      "icao": "LRIA",
      "alert": "OK",
      "vis_m": 9999,
      "fzfg": false,
      "metar_trigger": false,
      "taf_trigger": false,
      "metar": "METAR LRIA 191900Z 31007KT 9999 FEW025 SCT048 05/02 Q1019",
      "taf": "TAF LRIA 191700Z 1918/2003 01010KT 9999 BKN035"
    },
    {
      "icao": "LROP",
      "alert": "OK",
      "vis_m": 9999,
      "fzfg": false,
      "metar_trigger": false,
      "taf_trigger": false,
      "metar": "METAR LROP 191900Z 02003KT 350V050 CAVOK 05/M03 Q1018 NOSIG",
      "taf": "TAF LROP 191700Z 1918/2018 VRB04KT CAVOK"
    },
    {
      "icao": "LRSB",
      "alert": "OK",
      "vis_m": 9999,
      "fzfg": false,
      "metar_trigger": false,
      "taf_trigger": false,
      "metar": "METAR LRSB 191900Z 17002KT 9999 SCT046 BKN060 06/M03 Q1017",
      "taf": "TAF LRSB 191700Z 1918/2018 VRB04KT 9999 BKN050"
    },
    {
      "icao": "LRSM",
      "alert": "OK",
      "vis_m": 9999,
      "fzfg": false,
      "metar_trigger": false,
      "taf_trigger": false,
      "metar": "METAR LRSM 191900Z AUTO 03006KT 9999 SCT070/// OVC090/// 08/00 Q1019",
      "taf": "TAF LRSM 191400Z 1915/1924 03007KT CAVOK"
    },
    {
      "icao": "LRSV",
      "alert": "OK",
      "vis_m": 9999,
      "fzfg": false,
      "metar_trigger": false,
      "taf_trigger": false,
      "metar": "METAR LRSV 191900Z 32006KT CAVOK 03/01 Q1018",
      "taf": "TAF LRSV 191700Z 1918/2003 35009KT 9999 SCT035 BKN045"
    },
    {
      "icao": "LRTM",
      "alert": "OK",
      "vis_m": 9999,
      "fzfg": false,
      "metar_trigger": false,
      "taf_trigger": false,
      "metar": "METAR LRTM 191900Z AUTO VRB02KT 9999 NCD 07/M01 Q1018",
      "taf": "TAF LRTM 191400Z 1915/1924 06006KT 9999 BKN040"
    },
    {
      "icao": "LRTR",
      "alert": "OK",
      "vis_m": 9999,
      "fzfg": false,
      "metar_trigger": false,
      "taf_trigger": false,
      "metar": "METAR LRTR 191900Z 06004KT CAVOK 07/M01 Q1017 NOSIG",
      "taf": "TAF LRTR 191700Z 1918/2018 VRB04KT CAVOK"
    },
    {
      "icao": "LTAC",
      "alert": "OK",
      "vis_m": 9999,
      "fzfg": false,
      "metar_trigger": false,
      "taf_trigger": false,
      "metar": "METAR LTAC 191920Z 06011KT 9999 -SHRA BKN035 BKN080 07/05 Q1002 NOSIG RMK RWY21C 05012KT RWY03L 05010KT RWY21R 04011KT RWY03R 03011KT RWY21L 04010KT",
      "taf": "TAF LTAC 191640Z 1918/2018 05012KT 9999 -SHRA SCT010 BKN030 BKN080"
    },
    {
      "icao": "LTFM",
      "alert": "OK",
      "vis_m": 8000,
      "fzfg": false,
      "metar_trigger": false,
      "taf_trigger": false,
      "metar": "METAR LTFM 191920Z 03020KT 8000 -RA SCT016 BKN025 07/04 Q1011 NOSIG RMK RWY17L 03019KT RWY34L 02019KT RWY16R 03018KT RWY36 03019KT RWY18 04017KT",
      "taf": "TAF LTFM 191640Z 1918/2024 03024G35KT 9999 SCT016 BKN025"
    },
    {
      "icao": "LUKK",
      "alert": "OK",
      "vis_m": 9999,
      "fzfg": false,
      "metar_trigger": false,
      "taf_trigger": false,
      "metar": "METAR LUKK 191900Z 01007KT 350V060 9999 SCT024 OVC046 05/01 Q1017 NOSIG",
      "taf": "TAF LUKK 191701Z 1918/2018 02009KT 9999 BKN025"
    },
    {
      "icao": "LWOH",
      "alert": "OK",
      "vis_m": 9999,
      "fzfg": false,
      "metar_trigger": false,
      "taf_trigger": false,
      "metar": "METAR LWOH 191850Z 01008KT 320V050 9999 FEW020 OVC040 07/M01 Q1011",
      "taf": "TAF LWOH 191730Z 1918/2018 36010KT 9999 SCT020 BKN040"
    },
    {
      "icao": "LWSK",
      "alert": "OK",
      "vis_m": 9999,
      "fzfg": false,
      "metar_trigger": false,
      "taf_trigger": false,
      "metar": "METAR LWSK 191920Z VRB02KT 9999 FEW060 07/M03 Q1014 NOSIG",
      "taf": "TAF LWSK 191730Z 1918/2018 04010KT 9999 SCT050 BKN080"
    },
    {
      "icao": "LYBE",
      "alert": "OK",
      "vis_m": 9999,
      "fzfg": false,
      "metar_trigger": false,
      "taf_trigger": false,
      "metar": "METAR LYBE 191900Z 35004KT CAVOK 09/M00 Q1017 NOSIG",
      "taf": "TAF LYBE 191700Z 1918/2018 07006KT CAVOK TX13/2013Z TN02/2005Z"
    },
    {
      "icao": "LYNI",
      "alert": "OK",
      "vis_m": 9999,
      "fzfg": false,
      "metar_trigger": false,
      "taf_trigger": false,
      "metar": "METAR LYNI 191900Z 05010KT CAVOK 07/M03 Q1016 NOSIG",
      "taf": "TAF LYNI 191700Z 1918/2018 03007KT 9999 SCT070 TX12/2013Z TN01/2005Z"
    },
    {
      "icao": "LYPG",
      "alert": "OK",
      "vis_m": 9999,
      "fzfg": false,
      "metar_trigger": false,
      "taf_trigger": false,
      "metar": "METAR LYPG 191900Z 01013KT CAVOK 12/M03 Q1012 NOSIG",
      "taf": "TAF LYPG 191700Z 1918/2018 36012KT 9999 SCT090 TX17/2012Z TN09/2005Z"
    },
    {
      "icao": "LZIB",
      "alert": "OK",
      "vis_m": 9999,
      "fzfg": false,
      "metar_trigger": false,
      "taf_trigger": false,
      "metar": "METAR LZIB 191900Z 36007KT CAVOK 09/M02 Q1019 NOSIG",
      "taf": "TAF LZIB 191715Z 1918/2018 VRB02KT CAVOK"
    },
    {
      "icao": "LZKZ",
      "alert": "OK",
      "vis_m": 9999,
      "fzfg": false,
      "metar_trigger": false,
      "taf_trigger": false,
      "metar": "METAR LZKZ 191900Z 03005KT CAVOK 08/M01 Q1020 NOSIG",
      "taf": "TAF LZKZ 191715Z 1918/2018 03013KT CAVOK"
    },
    {
      "icao": "LZTT",
      "alert": "OK",
      "vis_m": 9999,
      "fzfg": false,
      "metar_trigger": false,
      "taf_trigger": false,
      "metar": "METAR LZTT 191900Z 11002KT 9999 SCT063 04/M05 Q1019",
      "taf": "TAF LZTT 191715Z 1918/2018 07006KT 9999 SCT050"
    },
    {
      "icao": "OEJN",
      "alert": "OK",
      "vis_m": 9999,
      "fzfg": false,
      "metar_trigger": false,
      "taf_trigger": false,
      "metar": "METAR OEJN 191900Z 02006KT CAVOK 26/10 Q1009 NOSIG",
      "taf": "TAF OEJN 191700Z 1918/2024 03010KT 7000 NSC"
    },
    {
      "icao": "OEMA",
      "alert": "OK",
      "vis_m": 9999,
      "fzfg": false,
      "metar_trigger": false,
      "taf_trigger": false,
      "metar": "METAR OEMA 191900Z 22010KT CAVOK 23/M08 Q1011 NOSIG",
      "taf": "TAF OEMA 191700Z 1918/2024 30008KT 7000 NSC"
    },
    {
      "icao": "OJAI",
      "alert": "OK",
      "vis_m": 2500,
      "fzfg": false,
      "metar_trigger": false,
      "taf_trigger": false,
      "metar": "METAR OJAI 191900Z 25011KT 2500 BR BKN050 10/09 Q1006 NOSIG",
      "taf": "TAF OJAI 191700Z 1918/2024 24016KT 5000 BLDU FEW025TCU SCT030 BKN035"
    },
    {
      "icao": "OMAA",
      "alert": "OK",
      "vis_m": null,
      "fzfg": false,
      "metar_trigger": false,
      "taf_trigger": false,
      "metar": "",
      "taf": ""
    },
    {
      "icao": "OMDB",
      "alert": "OK",
      "vis_m": null,
      "fzfg": false,
      "metar_trigger": false,
      "taf_trigger": false,
      "metar": "",
      "taf": ""
    },
    {
      "icao": "UAAA",
      "alert": "OK",
      "vis_m": 3600,
      "fzfg": false,
      "metar_trigger": false,
      "taf_trigger": false,
      "metar": "METAR UAAA 191900Z 20002MPS 170V230 3600 BR FU SCT200 03/M02 Q1019 NOSIG",
      "taf": "TAF UAAA 191701Z 1918/2018 16002G07MPS 9999 FEW100 TX16/2010Z TN00/2000Z"
    },
    {
      "icao": "UBBB",
      "alert": "OK",
      "vis_m": 9999,
      "fzfg": false,
      "metar_trigger": false,
      "taf_trigger": false,
      "metar": "METAR UBBB 191930Z 16009KT CAVOK 10/08 Q1014 NOSIG",
      "taf": "TAF UBBB 191703Z 1918/2018 16010KT 6000 SCT008 TX14/2010Z TN07/2000Z"
    },
    {
      "icao": "UDSG",
      "alert": "OK",
      "vis_m": 9999,
      "fzfg": false,
      "metar_trigger": false,
      "taf_trigger": false,
      "metar": "METAR UDSG 191900Z 05008KT 9999 BKN049 05/M01 Q1009 NOSIG",
      "taf": "TAF UDSG 191658Z 1918/2018 VRB06KT 9999 BKN040"
    },
    {
      "icao": "UDYZ",
      "alert": "OK",
      "vis_m": 9999,
      "fzfg": false,
      "metar_trigger": false,
      "taf_trigger": false,
      "metar": "METAR UDYZ 191900Z 03014KT 9999 SCT043CB 13/01 Q1006 NOSIG",
      "taf": ""
    },
    {
      "icao": "UGKO",
      "alert": "OK",
      "vis_m": 9999,
      "fzfg": false,
      "metar_trigger": false,
      "taf_trigger": false,
      "metar": "METAR UGKO 191900Z 08027G37KT CAVOK 15/02 Q1004 NOSIG",
      "taf": "TAF UGKO 191700Z 1918/2018 08028G39KT CAVOK TX16/1918Z TN09/2018Z"
    }
  ]
}