{
  "ts_utc": "2026-04-20T08:38:29Z",
  "threshold_m": 150,
  "source": "stations_override.txt (ICAO list) + aviationweather.gov (METAR/TAF raw)",
  "station_count": 159,
  "stations": [
    {
      "icao": "BIKF",
      "alert": "OK",
      "vis_m": 9999,
      "fzfg": false,
      "metar_trigger": false,
      "taf_trigger": false,
      "metar": "METAR BIKF 200830Z 13015KT 9999 FEW012 BKN300 08/05 Q1033",
      "taf": "TAF BIKF 200752Z 2009/2109 13010KT 9999 FEW025 TX12/2015Z TN02/2106Z"
    },
    {
      "icao": "BKPR",
      "alert": "OK",
      "vis_m": 9999,
      "fzfg": false,
      "metar_trigger": false,
      "taf_trigger": false,
      "metar": "METAR BKPR 200830Z 28009KT CAVOK 17/04 Q1015 NOSIG",
      "taf": "TAF BKPR 200530Z 2006/2106 25008KT 9999 FEW050 SCT090"
    },
    {
      "icao": "EBCI",
      "alert": "OK",
      "vis_m": 9999,
      "fzfg": false,
      "metar_trigger": false,
      "taf_trigger": false,
      "metar": "METAR EBCI 200820Z 05010KT 9999 FEW015 09/04 Q1022 NOSIG",
      "taf": "TAF EBCI 200501Z 2006/2112 02005KT 9999 FEW025"
    },
    {
      "icao": "EDDB",
      "alert": "OK",
      "vis_m": 9999,
      "fzfg": false,
      "metar_trigger": false,
      "taf_trigger": false,
      "metar": "METAR EDDB 200820Z AUTO 01008KT 340V040 9999 -RA SCT006 BKN014 OVC034 08/07 Q1013 TEMPO RA BKN006",
      "taf": "TAF EDDB 200500Z 2006/2106 32010KT 6000 BKN008"
    },
    {
      "icao": "EDDH",
      "alert": "OK",
      "vis_m": 9999,
      "fzfg": false,
      "metar_trigger": false,
      "taf_trigger": false,
      "metar": "METAR EDDH 200820Z AUTO 35009KT 320V020 9999 OVC019 06/03 Q1019 NOSIG",
      "taf": "TAF EDDH 200500Z 2006/2112 36010KT 8000 SCT012 BKN035"
    },
    {
      "icao": "EDDK",
      "alert": "OK",
      "vis_m": 9999,
      "fzfg": false,
      "metar_trigger": false,
      "taf_trigger": false,
      "metar": "METAR EDDK 200820Z AUTO 36006KT 310V030 9999 FEW018 SCT023 09/04 Q1021 NOSIG",
      "taf": "TAF EDDK 200500Z 2006/2112 VRB03KT 9999 SCT035"
    },
    {
      "icao": "EDDN",
      "alert": "OK",
      "vis_m": 9999,
      "fzfg": false,
      "metar_trigger": false,
      "taf_trigger": false,
      "metar": "METAR EDDN 200820Z AUTO 30008KT 9999 FEW022 SCT034 BKN042 09/03 Q1018 NOSIG",
      "taf": "TAF EDDN 200500Z 2006/2106 VRB03KT CAVOK"
    },
    {
      "icao": "EDDS",
      "alert": "OK",
      "vis_m": 9999,
      "fzfg": false,
      "metar_trigger": false,
      "taf_trigger": false,
      "metar": "METAR EDDS 200820Z AUTO 01007KT 320V050 9999 FEW023 BKN027 BKN042 10/04 Q1018 NOSIG",
      "taf": "TAF EDDS 200500Z 2006/2106 VRB02KT CAVOK"
    },
    {
      "icao": "EDFH",
      "alert": "OK",
      "vis_m": 9999,
      "fzfg": false,
      "metar_trigger": false,
      "taf_trigger": false,
      "metar": "METAR EDFH 200820Z 02010KT 350V060 9999 FEW011 SCT024 06/02 Q1020",
      "taf": "TAF EDFH 200500Z 2006/2106 34005KT CAVOK"
    },
    {
      "icao": "EDJA",
      "alert": "OK",
      "vis_m": 9999,
      "fzfg": false,
      "metar_trigger": false,
      "taf_trigger": false,
      "metar": "METAR EDJA 200820Z VRB02KT CAVOK 09/03 Q1017",
      "taf": "TAF EDJA 200800Z 2009/2018 34006KT 9999 FEW030"
    },
    {
      "icao": "EDLW",
      "alert": "OK",
      "vis_m": 9999,
      "fzfg": false,
      "metar_trigger": false,
      "taf_trigger": false,
      "metar": "METAR EDLW 200820Z COR 32006KT 250V020 9999 SCT017 BKN022 08/04 Q1021",
      "taf": "TAF EDLW 200500Z 2006/2106 33006KT 9999 SCT015 BKN020"
    },
    {
      "icao": "EDNY",
      "alert": "OK",
      "vis_m": 9999,
      "fzfg": false,
      "metar_trigger": false,
      "taf_trigger": false,
      "metar": "METAR EDNY 200820Z 03004KT CAVOK 09/03 Q1018",
      "taf": "TAF EDNY 200800Z 2009/2018 04004KT CAVOK"
    },
    {
      "icao": "EDSB",
      "alert": "OK",
      "vis_m": 9999,
      "fzfg": false,
      "metar_trigger": false,
      "taf_trigger": false,
      "metar": "METAR EDSB 200820Z 04012KT CAVOK 11/06 Q1019",
      "taf": "TAF EDSB 200500Z 2006/2106 VRB03KT CAVOK"
    },
    {
      "icao": "EETN",
      "alert": "OK",
      "vis_m": 9999,
      "fzfg": false,
      "metar_trigger": false,
      "taf_trigger": false,
      "metar": "METAR EETN 200820Z 04010KT CAVOK 07/M06 Q1026 NOSIG",
      "taf": "TAF EETN 200530Z 2006/2106 05013KT CAVOK"
    },
    {
      "icao": "EFTU",
      "alert": "OK",
      "vis_m": 9999,
      "fzfg": false,
      "metar_trigger": false,
      "taf_trigger": false,
      "metar": "METAR EFTU 200820Z AUTO 06009KT 010V110 CAVOK 09/M09 Q1028",
      "taf": "TAF EFTU 200531Z 2006/2106 04007KT CAVOK"
    },
    {
      "icao": "EGBB",
      "alert": "OK",
      "vis_m": 9999,
      "fzfg": false,
      "metar_trigger": false,
      "taf_trigger": false,
      "metar": "METAR EGBB 200820Z 08003KT 360V140 CAVOK 10/04 Q1025",
      "taf": "TAF EGBB 200454Z 2006/2106 07004KT 9999 FEW045"
    },
    {
      "icao": "EGGP",
      "alert": "OK",
      "vis_m": 7000,
      "fzfg": false,
      "metar_trigger": false,
      "taf_trigger": false,
      "metar": "METAR EGGP 200820Z VRB02KT 7000 MIFG FEW010 06/05 Q1025",
      "taf": ""
    },
    {
      "icao": "EGGW",
      "alert": "OK",
      "vis_m": 9999,
      "fzfg": false,
      "metar_trigger": false,
      "taf_trigger": false,
      "metar": "METAR EGGW 200820Z AUTO 04008KT 020V090 9999 SCT049 08/02 Q1024",
      "taf": "TAF EGGW 200458Z 2006/2106 06007KT 9999 FEW045"
    },
    {
      "icao": "EGKK",
      "alert": "OK",
      "vis_m": 9999,
      "fzfg": false,
      "metar_trigger": false,
      "taf_trigger": false,
      "metar": "METAR EGKK 200820Z 06009KT 9999 FEW022 10/04 Q1024",
      "taf": "TAF EGKK 200457Z 2006/2112 VRB02KT 9999 FEW045"
    },
    {
      "icao": "EGNM",
      "alert": "OK",
      "vis_m": 9999,
      "fzfg": false,
      "metar_trigger": false,
      "taf_trigger": false,
      "metar": "METAR EGNM 200820Z 22004KT 190V270 CAVOK 08/04 Q1025",
      "taf": "TAF EGNM 200502Z 2006/2106 17005KT 9999 FEW035"
    },
    {
      "icao": "EGPD",
      "alert": "OK",
      "vis_m": 6000,
      "fzfg": false,
      "metar_trigger": false,
      "taf_trigger": false,
      "metar": "METAR EGPD 200820Z AUTO 29008KT 6000 -RA BKN044 07/05 Q1025 TEMPO RA",
      "taf": "TAF EGPD 200453Z 2006/2106 27007KT 9999 SCT030"
    },
    {
      "icao": "EGPF",
      "alert": "OK",
      "vis_m": 9999,
      "fzfg": false,
      "metar_trigger": false,
      "taf_trigger": false,
      "metar": "METAR EGPF 200820Z AUTO 09003KT 060V140 9999 NCD 09/04 Q1026",
      "taf": "TAF EGPF 200456Z 2006/2106 VRB03KT 9999 FEW045"
    },
    {
      "icao": "EHBK",
      "alert": "OK",
      "vis_m": 9999,
      "fzfg": false,
      "metar_trigger": false,
      "taf_trigger": false,
      "metar": "METAR EHBK 200825Z AUTO 34003KT 270V060 9999 SCT012/// BKN014/// BKN017/// 08/04 Q1022 NOSIG",
      "taf": "TAF EHBK 200459Z 2006/2112 35004KT CAVOK"
    },
    {
      "icao": "EHEH",
      "alert": "OK",
      "vis_m": 9999,
      "fzfg": false,
      "metar_trigger": false,
      "taf_trigger": false,
      "metar": "METAR EHEH 200825Z AUTO 34003KT 290V070 9999 BKN025 BKN030 BKN038 09/03 Q1022 BLU NOSIG RMK TREND REMOTE BY EHWX",
      "taf": "TAF EHEH 200515Z 2006/2112 VRB02KT 9999 BKN030"
    },
    {
      "icao": "EKBI",
      "alert": "OK",
      "vis_m": 9999,
      "fzfg": false,
      "metar_trigger": false,
      "taf_trigger": false,
      "metar": "METAR EKBI 200820Z AUTO 05011KT 360V080 9999 BKN015/// 06/03 Q1024",
      "taf": "TAF EKBI 200827Z 2009/2109 05014KT 9999 SCT040"
    },
    {
      "icao": "EKCH",
      "alert": "OK",
      "vis_m": 9999,
      "fzfg": false,
      "metar_trigger": false,
      "taf_trigger": false,
      "metar": "METAR EKCH 200820Z AUTO 05013KT 9999 NCD 08/01 Q1023 NOSIG",
      "taf": "TAF EKCH 200827Z 2009/2109 06015KT CAVOK"
    },
    {
      "icao": "ENAL",
      "alert": "OK",
      "vis_m": 9999,
      "fzfg": false,
      "metar_trigger": false,
      "taf_trigger": false,
      "metar": "METAR ENAL 200820Z 15004KT 120V230 9999 SCT062 11/03 Q1030",
      "taf": "TAF ENAL 200800Z 2009/2018 VRB05KT 9999 SCT050"
    },
    {
      "icao": "ENBR",
      "alert": "OK",
      "vis_m": 9999,
      "fzfg": false,
      "metar_trigger": false,
      "taf_trigger": false,
      "metar": "METAR ENBR 200820Z 30003KT CAVOK 09/03 Q1029 NOSIG RMK WIND 1200FT 02004KT",
      "taf": "TAF ENBR 200500Z 2006/2106 VRB03KT CAVOK"
    },
    {
      "icao": "ENGM",
      "alert": "OK",
      "vis_m": 9999,
      "fzfg": false,
      "metar_trigger": false,
      "taf_trigger": false,
      "metar": "METAR ENGM 200820Z 04004KT 010V080 CAVOK 07/M02 Q1032 NOSIG",
      "taf": "TAF ENGM 200500Z 2006/2106 02007KT 9999 FEW002"
    },
    {
      "icao": "ENHD",
      "alert": "OK",
      "vis_m": 9999,
      "fzfg": false,
      "metar_trigger": false,
      "taf_trigger": false,
      "metar": "METAR ENHD 200820Z 06004KT 020V110 CAVOK 09/03 Q1028",
      "taf": "TAF ENHD 200800Z 2009/2018 05005KT 9999 FEW050"
    },
    {
      "icao": "ENTC",
      "alert": "OK",
      "vis_m": 9999,
      "fzfg": false,
      "metar_trigger": false,
      "taf_trigger": false,
      "metar": "METAR ENTC 200820Z 19011KT CAVOK 09/M01 Q1029 NOSIG RMK WIND 2600FT 23015KT",
      "taf": "TAF ENTC 200500Z 2006/2106 22009KT CAVOK"
    },
    {
      "icao": "ENTO",
      "alert": "OK",
      "vis_m": 9999,
      "fzfg": false,
      "metar_trigger": false,
      "taf_trigger": false,
      "metar": "METAR ENTO 200820Z 03008KT CAVOK 07/00 Q1031 NOSIG",
      "taf": "TAF ENTO 200500Z 2006/2106 04010KT CAVOK"
    },
    {
      "icao": "ENVA",
      "alert": "OK",
      "vis_m": 9999,
      "fzfg": false,
      "metar_trigger": false,
      "taf_trigger": false,
      "metar": "METAR ENVA 200820Z VRB04KT CAVOK 13/M00 Q1030 NOSIG RMK WIND 670FT VRB04KT",
      "taf": "TAF ENVA 200500Z 2006/2106 12010KT CAVOK"
    },
    {
      "icao": "ENZV",
      "alert": "OK",
      "vis_m": 9999,
      "fzfg": false,
      "metar_trigger": false,
      "taf_trigger": false,
      "metar": "METAR ENZV 200820Z 07005KT CAVOK 09/M01 Q1028 NOSIG",
      "taf": "TAF ENZV 200500Z 2006/2106 VRB05KT 9999 SCT040"
    },
    {
      "icao": "EPGD",
      "alert": "OK",
      "vis_m": 9999,
      "fzfg": false,
      "metar_trigger": false,
      "taf_trigger": false,
      "metar": "METAR EPGD 200830Z 06017KT CAVOK 07/M01 Q1019",
      "taf": "TAF EPGD 200530Z 2006/2106 06017KT CAVOK"
    },
    {
      "icao": "EPKK",
      "alert": "OK",
      "vis_m": 9999,
      "fzfg": false,
      "metar_trigger": false,
      "taf_trigger": false,
      "metar": "METAR EPKK 200830Z 27011KT 9999 BKN030 08/02 Q1013",
      "taf": "TAF EPKK 200830Z 2009/2109 28010KT 9999 BKN025"
    },
    {
      "icao": "EPKT",
      "alert": "OK",
      "vis_m": 9999,
      "fzfg": false,
      "metar_trigger": false,
      "taf_trigger": false,
      "metar": "METAR EPKT 200830Z 28013KT 9999 BKN020 07/03 Q1013",
      "taf": "TAF EPKT 200530Z 2006/2106 28010KT 9999 BKN020"
    },
    {
      "icao": "EPLB",
      "alert": "OK",
      "vis_m": 9999,
      "fzfg": false,
      "metar_trigger": false,
      "taf_trigger": false,
      "metar": "METAR EPLB 200830Z 09013KT 9999 FEW032 09/02 Q1013",
      "taf": "TAF EPLB 200530Z 2006/2106 06010KT CAVOK"
    },
    {
      "icao": "EPMO",
      "alert": "OK",
      "vis_m": 9999,
      "fzfg": false,
      "metar_trigger": false,
      "taf_trigger": false,
      "metar": "METAR EPMO 200830Z 06015KT 9999 SCT031 11/04 Q1014",
      "taf": "TAF EPMO 200530Z 2006/2106 07012KT CAVOK"
    },
    {
      "icao": "EPPO",
      "alert": "OK",
      "vis_m": 9999,
      "fzfg": false,
      "metar_trigger": false,
      "taf_trigger": false,
      "metar": "METAR EPPO 200830Z 07011KT 9999 -RA OVC007 07/05 Q1013",
      "taf": ""
    },
    {
      "icao": "EPRA",
      "alert": "OK",
      "vis_m": 9999,
      "fzfg": false,
      "metar_trigger": false,
      "taf_trigger": false,
      "metar": "METAR EPRA 200830Z 07011KT 9999 SCT045 09/02 Q1013",
      "taf": "TAF EPRA 200830Z 2009/2018 08010KT 9999 BKN040"
    },
    {
      "icao": "EPRZ",
      "alert": "OK",
      "vis_m": 9000,
      "fzfg": false,
      "metar_trigger": false,
      "taf_trigger": false,
      "metar": "METAR EPRZ 200830Z 27014KT 9000 -RA BKN006 BKN011 07/06 Q1011",
      "taf": "TAF EPRZ 200530Z 2006/2106 27007KT 6000 -RA FEW002 BKN020"
    },
    {
      "icao": "EPSC",
      "alert": "OK",
      "vis_m": 9999,
      "fzfg": false,
      "metar_trigger": false,
      "taf_trigger": false,
      "metar": "METAR EPSC 200830Z 04008KT 350V090 CAVOK 11/01 Q1015",
      "taf": "TAF EPSC 200530Z 2006/2106 04015KT CAVOK"
    },
    {
      "icao": "EPSY",
      "alert": "OK",
      "vis_m": 9999,
      "fzfg": false,
      "metar_trigger": false,
      "taf_trigger": false,
      "metar": "METAR EPSY 200830Z 06013KT 020V100 CAVOK 09/M02 Q1017",
      "taf": "TAF EPSY 200830Z 2009/2018 07012KT CAVOK"
    },
    {
      "icao": "EPWA",
      "alert": "OK",
      "vis_m": 9999,
      "fzfg": false,
      "metar_trigger": false,
      "taf_trigger": false,
      "metar": "METAR EPWA 200830Z 08014KT 9999 BKN028 10/03 Q1014 NOSIG",
      "taf": "TAF EPWA 200830Z 2009/2109 06014KT 9999 SCT029"
    },
    {
      "icao": "EPWR",
      "alert": "OK",
      "vis_m": 9999,
      "fzfg": false,
      "metar_trigger": false,
      "taf_trigger": false,
      "metar": "METAR EPWR 200830Z 29011KT 9999 BKN015 08/05 Q1013",
      "taf": "TAF EPWR 200830Z 2009/2109 27014KT 9999 SCT015 BKN020"
    },
    {
      "icao": "ESGG",
      "alert": "OK",
      "vis_m": 9999,
      "fzfg": false,
      "metar_trigger": false,
      "taf_trigger": false,
      "metar": "METAR ESGG 200820Z 08010KT CAVOK 06/M01 Q1027",
      "taf": "TAF ESGG 200830Z 2009/2109 06010KT CAVOK"
    },
    {
      "icao": "ESKN",
      "alert": "OK",
      "vis_m": 9999,
      "fzfg": false,
      "metar_trigger": false,
      "taf_trigger": false,
      "metar": "METAR ESKN 200820Z 35008KT 320V020 CAVOK 09/M01 Q1028",
      "taf": "TAF ESKN 200830Z 2009/2109 34004KT CAVOK"
    },
    {
      "icao": "ESMS",
      "alert": "OK",
      "vis_m": 9999,
      "fzfg": false,
      "metar_trigger": false,
      "taf_trigger": false,
      "metar": "METAR ESMS 200820Z 07022KT CAVOK 08/M00 Q1022",
      "taf": "TAF ESMS 200827Z 2009/2109 07017KT CAVOK"
    },
    {
      "icao": "ESSA",
      "alert": "OK",
      "vis_m": 9999,
      "fzfg": false,
      "metar_trigger": false,
      "taf_trigger": false,
      "metar": "METAR ESSA 200820Z 03015KT CAVOK 09/M02 Q1029 NOSIG",
      "taf": "TAF ESSA 200830Z 2009/2109 02012KT CAVOK"
    },
    {
      "icao": "EYKA",
      "alert": "OK",
      "vis_m": 9999,
      "fzfg": false,
      "metar_trigger": false,
      "taf_trigger": false,
      "metar": "METAR EYKA 200820Z 01011KT CAVOK 09/M04 Q1020",
      "taf": "TAF EYKA 200500Z 2006/2106 VRB04KT 9000 NSC"
    },
    {
      "icao": "EYPA",
      "alert": "OK",
      "vis_m": 9999,
      "fzfg": false,
      "metar_trigger": false,
      "taf_trigger": false,
      "metar": "METAR EYPA 200820Z 06013KT 030V100 CAVOK 10/M06 Q1022",
      "taf": "TAF EYPA 200500Z 2006/2106 05010G20KT 9000 NSC"
    },
    {
      "icao": "EYVI",
      "alert": "OK",
      "vis_m": 9999,
      "fzfg": false,
      "metar_trigger": false,
      "taf_trigger": false,
      "metar": "METAR EYVI 200820Z 04012KT 010V070 CAVOK 09/M05 Q1018 NOSIG",
      "taf": "TAF EYVI 200500Z 2006/2106 03010KT 9000 SCT045"
    },
    {
      "icao": "GCFV",
      "alert": "OK",
      "vis_m": 8000,
      "fzfg": false,
      "metar_trigger": false,
      "taf_trigger": false,
      "metar": "METAR GCFV 200830Z 27008KT 8000 NSC 23/14 Q1008",
      "taf": "TAF GCFV 200800Z 2009/2109 09005KT 9999 FEW020 TX26/2014Z TN17/2106Z"
    },
    {
      "icao": "GCLP",
      "alert": "OK",
      "vis_m": 8000,
      "fzfg": false,
      "metar_trigger": false,
      "taf_trigger": false,
      "metar": "METAR GCLP 200830Z 03005KT 330V070 8000 SCT014 BKN020 20/16 Q1008 NOSIG",
      "taf": "TAF GCLP 200800Z 2009/2109 06008KT 9999 FEW015 TX24/2014Z TN17/2106Z"
    },
    {
      "icao": "GCTS",
      "alert": "OK",
      "vis_m": 9999,
      "fzfg": false,
      "metar_trigger": false,
      "taf_trigger": false,
      "metar": "METAR GCTS 200830Z 08006KT 060V120 9999 FEW020 20/14 Q1009 NOSIG",
      "taf": "TAF GCTS 200800Z 2009/2109 18004KT 9999 FEW020 TX26/2014Z TN16/2106Z"
    },
    {
      "icao": "GMAD",
      "alert": "OK",
      "vis_m": 8000,
      "fzfg": false,
      "metar_trigger": false,
      "taf_trigger": false,
      "metar": "METAR GMAD 200830Z 05006KT 8000 NSC 26/06 Q1009 NOSIG",
      "taf": "TAF GMAD 200500Z 2006/2112 08008KT 8000 NSC"
    },
    {
      "icao": "GMMN",
      "alert": "OK",
      "vis_m": 9999,
      "fzfg": false,
      "metar_trigger": false,
      "taf_trigger": false,
      "metar": "METAR GMMN 200830Z VRB02KT CAVOK 22/17 Q1011 NOSIG",
      "taf": "TAF GMMN 200500Z 2006/2112 10004KT CAVOK"
    },
    {
      "icao": "GMMX",
      "alert": "OK",
      "vis_m": 9999,
      "fzfg": false,
      "metar_trigger": false,
      "taf_trigger": false,
      "metar": "METAR GMMX 200830Z 07005KT CAVOK 24/13 Q1011 NOSIG",
      "taf": "TAF GMMX 200500Z 2006/2112 12006KT 8000 SCT090 SCT200"
    },
    {
      "icao": "HEGN",
      "alert": "OK",
      "vis_m": 9999,
      "fzfg": false,
      "metar_trigger": false,
      "taf_trigger": false,
      "metar": "METAR HEGN 200800Z 35010KT CAVOK 26/13 Q1012 NOSIG",
      "taf": "TAF HEGN 200500Z 2006/2112 35012G25KT CAVOK"
    },
    {
      "icao": "HEMA",
      "alert": "OK",
      "vis_m": 9999,
      "fzfg": false,
      "metar_trigger": false,
      "taf_trigger": false,
      "metar": "METAR HEMA 200800Z 35018KT CAVOK 28/11 Q1011 NOSIG",
      "taf": "TAF HEMA 200500Z 2006/2112 36012G22KT CAVOK"
    },
    {
      "icao": "HESH",
      "alert": "OK",
      "vis_m": 9999,
      "fzfg": false,
      "metar_trigger": false,
      "taf_trigger": false,
      "metar": "METAR HESH 200800Z 35011KT CAVOK 27/15 Q1010 NOSIG",
      "taf": "TAF HESH 200500Z 2006/2112 02014KT CAVOK"
    },
    {
      "icao": "HESX",
      "alert": "OK",
      "vis_m": 9999,
      "fzfg": false,
      "metar_trigger": false,
      "taf_trigger": false,
      "metar": "METAR HESX 200800Z 33012KT CAVOK 21/11 Q1015 NOSIG",
      "taf": "TAF HESX 200500Z 2006/2112 30004KT 6000 NSC"
    },
    {
      "icao": "LATI",
      "alert": "OK",
      "vis_m": 9999,
      "fzfg": false,
      "metar_trigger": false,
      "taf_trigger": false,
      "metar": "METAR LATI 200820Z VRB02KT 9999 BKN098 18/10 Q1015 NOSIG",
      "taf": "TAF LATI 200500Z 2006/2106 VRB03KT 9999 SCT040 TX22/2012Z TN10/2103Z"
    },
    {
      "icao": "LBPD",
      "alert": "OK",
      "vis_m": 9999,
      "fzfg": false,
      "metar_trigger": false,
      "taf_trigger": false,
      "metar": "METAR LBPD 200830Z AUTO VRB03KT 9999 NCD 15/08 Q1013 NOSIG",
      "taf": "TAF LBPD 200500Z 2006/2106 VRB03KT 9999 SCT060"
    },
    {
      "icao": "LBSF",
      "alert": "OK",
      "vis_m": 9999,
      "fzfg": false,
      "metar_trigger": false,
      "taf_trigger": false,
      "metar": "METAR LBSF 200830Z 04003KT 320V120 CAVOK 15/05 Q1013 NOSIG",
      "taf": "TAF LBSF 200500Z 2006/2106 VRB03KT 9999 SCT050"
    },
    {
      "icao": "LBWN",
      "alert": "OK",
      "vis_m": 9999,
      "fzfg": false,
      "metar_trigger": false,
      "taf_trigger": false,
      "metar": "METAR LBWN 200830Z 12009KT 080V150 CAVOK 18/08 Q1012 NOSIG",
      "taf": "TAF LBWN 200500Z 2006/2106 VRB03KT 9999 SCT040"
    },
    {
      "icao": "LCLK",
      "alert": "OK",
      "vis_m": 9999,
      "fzfg": false,
      "metar_trigger": false,
      "taf_trigger": false,
      "metar": "METAR LCLK 200830Z 19013KT 9999 FEW030 SCT045 22/15 Q1010 NOSIG",
      "taf": "TAF LCLK 200530Z 2006/2106 36006KT 9999 FEW030"
    },
    {
      "icao": "LCPH",
      "alert": "OK",
      "vis_m": 9999,
      "fzfg": false,
      "metar_trigger": false,
      "taf_trigger": false,
      "metar": "METAR LCPH 200830Z 30013KT 250V320 9999 FEW025 20/13 Q1011 NOSIG",
      "taf": "TAF LCPH 200530Z 2006/2106 02005KT 9999 FEW025"
    },
    {
      "icao": "LEAL",
      "alert": "OK",
      "vis_m": 9999,
      "fzfg": false,
      "metar_trigger": false,
      "taf_trigger": false,
      "metar": "METAR LEAL 200830Z 19003KT 110V240 CAVOK 23/09 Q1014 NOSIG",
      "taf": "TAF LEAL 200500Z 2006/2106 VRB04KT CAVOK TX25/2012Z TN11/2006Z"
    },
    {
      "icao": "LEBB",
      "alert": "OK",
      "vis_m": 9999,
      "fzfg": false,
      "metar_trigger": false,
      "taf_trigger": false,
      "metar": "METAR LEBB 200830Z VRB02KT 9999 FEW007 17/15 Q1013 NOSIG",
      "taf": ""
    },
    {
      "icao": "LEBL",
      "alert": "OK",
      "vis_m": 9999,
      "fzfg": false,
      "metar_trigger": false,
      "taf_trigger": false,
      "metar": "METAR LEBL 200830Z 22012KT 9999 FEW045 19/15 Q1014 NOSIG",
      "taf": "TAF LEBL 200500Z 2006/2106 24005KT 9999 FEW015 TX21/2012Z TN14/2006Z"
    },
    {
      "icao": "LECH",
      "alert": "OK",
      "vis_m": 9999,
      "fzfg": false,
      "metar_trigger": false,
      "taf_trigger": false,
      "metar": "METAR LECH 200830Z AUTO 00000KT CAVOK 20/10 Q1014",
      "taf": "TAF LECH 200500Z 2006/2106 VRB04KT CAVOK TX28/2013Z TN11/2006Z"
    },
    {
      "icao": "LEMD",
      "alert": "OK",
      "vis_m": 9999,
      "fzfg": false,
      "metar_trigger": false,
      "taf_trigger": false,
      "metar": "METAR LEMD 200830Z 35002KT CAVOK 17/08 Q1015 NOSIG",
      "taf": "TAF LEMD 200500Z 2006/2112 VRB04KT CAVOK TX29/2016Z TN11/2006Z"
    },
    {
      "icao": "LEMG",
      "alert": "OK",
      "vis_m": 9999,
      "fzfg": false,
      "metar_trigger": false,
      "taf_trigger": false,
      "metar": "METAR LEMG 200830Z 30006KT 260V330 CAVOK 18/09 Q1015 NOSIG",
      "taf": "TAF LEMG 200500Z 2006/2106 29008KT CAVOK TX25/2014Z TN11/2006Z"
    },
    {
      "icao": "LEVC",
      "alert": "OK",
      "vis_m": 9999,
      "fzfg": false,
      "metar_trigger": false,
      "taf_trigger": false,
      "metar": "METAR LEVC 200830Z 13003KT 060V170 CAVOK 20/10 Q1014 NOSIG",
      "taf": "TAF LEVC 200500Z 2006/2106 VRB04KT CAVOK TX28/2012Z TN12/2006Z"
    },
    {
      "icao": "LEXJ",
      "alert": "OK",
      "vis_m": 500,
      "fzfg": false,
      "metar_trigger": false,
      "taf_trigger": false,
      "metar": "METAR LEXJ 200830Z 12002KT 0500 R29/1000D R11/1900N FG OVC001 15/14 Q1013",
      "taf": "TAF LEXJ 200800Z 2009/2109 06009KT 9999 SCT005 TX19/2013Z TN13/2105Z"
    },
    {
      "icao": "LEZG",
      "alert": "OK",
      "vis_m": 9999,
      "fzfg": false,
      "metar_trigger": false,
      "taf_trigger": false,
      "metar": "METAR LEZG 200830Z 06005KT 030V100 CAVOK 19/12 Q1014 NOSIG",
      "taf": "TAF LEZG 200500Z 2006/2106 10006KT CAVOK TX31/2015Z TN14/2006Z"
    },
    {
      "icao": "LEZL",
      "alert": "OK",
      "vis_m": 9999,
      "fzfg": false,
      "metar_trigger": false,
      "taf_trigger": false,
      "metar": "METAR LEZL 200830Z 05006KT CAVOK 21/09 Q1013 NOSIG",
      "taf": "TAF LEZL 200800Z 2009/2109 06005KT CAVOK TX31/2015Z TN14/2106Z"
    },
    {
      "icao": "LFBD",
      "alert": "OK",
      "vis_m": 9999,
      "fzfg": false,
      "metar_trigger": false,
      "taf_trigger": false,
      "metar": "METAR LFBD 200830Z AUTO 03006KT 360V070 CAVOK 16/07 Q1014 NOSIG",
      "taf": "TAF LFBD 200500Z 2006/2112 04010KT CAVOK TX26/2015Z TN11/2006Z"
    },
    {
      "icao": "LFLL",
      "alert": "OK",
      "vis_m": 9999,
      "fzfg": false,
      "metar_trigger": false,
      "taf_trigger": false,
      "metar": "METAR LFLL 200830Z 34004KT 290V010 CAVOK 12/06 Q1017 NOSIG",
      "taf": "TAF LFLL 200500Z 2006/2112 35008KT CAVOK"
    },
    {
      "icao": "LFLS",
      "alert": "OK",
      "vis_m": 9999,
      "fzfg": false,
      "metar_trigger": false,
      "taf_trigger": false,
      "metar": "METAR LFLS 200830Z AUTO 24003KT 180V300 CAVOK 12/07 Q1016 NOSIG",
      "taf": "TAF LFLS 200800Z 2009/2109 VRB03KT CAVOK"
    },
    {
      "icao": "LFMN",
      "alert": "OK",
      "vis_m": 9999,
      "fzfg": false,
      "metar_trigger": false,
      "taf_trigger": false,
      "metar": "METAR LFMN 200830Z 19004KT 9999 BKN030 18/13 Q1013 NOSIG",
      "taf": "TAF LFMN 200800Z 2009/2115 17005KT 9999 BKN030"
    },
    {
      "icao": "LFOB",
      "alert": "OK",
      "vis_m": 9999,
      "fzfg": false,
      "metar_trigger": false,
      "taf_trigger": false,
      "metar": "METAR LFOB 200830Z AUTO 04011KT 360V060 9999 BKN015 BKN020 10/06 Q1021 NOSIG",
      "taf": "TAF LFOB 200500Z 2006/2106 04010KT 9999 SCT035"
    },
    {
      "icao": "LFPO",
      "alert": "OK",
      "vis_m": 9999,
      "fzfg": false,
      "metar_trigger": false,
      "taf_trigger": false,
      "metar": "METAR LFPO 200830Z 05013KT 010V070 CAVOK 11/05 Q1020 NOSIG",
      "taf": "TAF LFPO 200500Z 2006/2112 03010KT CAVOK"
    },
    {
      "icao": "LFSB",
      "alert": "OK",
      "vis_m": 9999,
      "fzfg": false,
      "metar_trigger": false,
      "taf_trigger": false,
      "metar": "METAR LFSB 200830Z AUTO 33003KT 290V070 CAVOK 12/05 Q1018 NOSIG",
      "taf": "TAF LFSB 200500Z 2006/2106 30003KT CAVOK"
    },
    {
      "icao": "LGAV",
      "alert": "OK",
      "vis_m": 9999,
      "fzfg": false,
      "metar_trigger": false,
      "taf_trigger": false,
      "metar": "METAR LGAV 200820Z 16006KT 130V210 CAVOK 21/11 Q1015 NOSIG",
      "taf": "TAF LGAV 200500Z 2006/2106 VRB05KT 9999 FEW025"
    },
    {
      "icao": "LGTS",
      "alert": "OK",
      "vis_m": 9999,
      "fzfg": false,
      "metar_trigger": false,
      "taf_trigger": false,
      "metar": "METAR LGTS 200820Z 29004KT 9999 FEW025 17/13 Q1015 NOSIG",
      "taf": "TAF LGTS 200500Z 2006/2106 VRB03KT 9999 SCT025"
    },
    {
      "icao": "LHBP",
      "alert": "OK",
      "vis_m": 9999,
      "fzfg": false,
      "metar_trigger": false,
      "taf_trigger": false,
      "metar": "METAR LHBP 200830Z 31019KT 9999 FEW044 13/02 Q1013 NOSIG",
      "taf": ""
    },
    {
      "icao": "LHDC",
      "alert": "OK",
      "vis_m": 9999,
      "fzfg": false,
      "metar_trigger": false,
      "taf_trigger": false,
      "metar": "METAR LHDC 200815Z AUTO 25009KT 220V290 CAVOK 13/08 Q1011 NOSIG",
      "taf": "TAF LHDC 200815Z 2009/2018 25012KT CAVOK"
    },
    {
      "icao": "LIBD",
      "alert": "OK",
      "vis_m": 9999,
      "fzfg": false,
      "metar_trigger": false,
      "taf_trigger": false,
      "metar": "METAR LIBD 200820Z 34007KT 290V030 CAVOK 18/11 Q1014",
      "taf": "TAF LIBD 200500Z 2006/2106 VRB06KT CAVOK"
    },
    {
      "icao": "LIBG",
      "alert": "OK",
      "vis_m": 9999,
      "fzfg": false,
      "metar_trigger": false,
      "taf_trigger": false,
      "metar": "METAR LIBG 200750Z VRB02KT CAVOK 17/17 Q1015",
      "taf": "TAF LIBG 200800Z 2009/2018 VRB05KT 8000 FEW050"
    },
    {
      "icao": "LIBP",
      "alert": "OK",
      "vis_m": 9999,
      "fzfg": false,
      "metar_trigger": false,
      "taf_trigger": false,
      "metar": "METAR LIBP 200820Z AUTO 06008KT 9999 BKN160/// 18/12 Q1014",
      "taf": "TAF LIBP 200500Z 2006/2106 VRB06KT 9999 FEW040"
    },
    {
      "icao": "LIBR",
      "alert": "OK",
      "vis_m": 9999,
      "fzfg": false,
      "metar_trigger": false,
      "taf_trigger": false,
      "metar": "METAR LIBR 200820Z 24004KT 140V290 CAVOK 19/12 Q1014",
      "taf": ""
    },
    {
      "icao": "LICA",
      "alert": "OK",
      "vis_m": 9999,
      "fzfg": false,
      "metar_trigger": false,
      "taf_trigger": false,
      "metar": "METAR LICA 200820Z AUTO 24008KT 190V270 9999 NCD 19/15 Q1017",
      "taf": "TAF LICA 200500Z 2006/2106 VRB05KT 9999 FEW012"
    },
    {
      "icao": "LICC",
      "alert": "OK",
      "vis_m": 9999,
      "fzfg": false,
      "metar_trigger": false,
      "taf_trigger": false,
      "metar": "METAR LICC 200820Z 24003KT 190V270 CAVOK 22/18 Q1016",
      "taf": "TAF LICC 200500Z 2006/2106 26006KT CAVOK"
    },
    {
      "icao": "LICJ",
      "alert": "OK",
      "vis_m": 9999,
      "fzfg": false,
      "metar_trigger": false,
      "taf_trigger": false,
      "metar": "METAR LICJ 200820Z 28003KT CAVOK 18/12 Q1017",
      "taf": "TAF LICJ 200500Z 2006/2106 22005KT CAVOK"
    },
    {
      "icao": "LIMC",
      "alert": "OK",
      "vis_m": 9999,
      "fzfg": false,
      "metar_trigger": false,
      "taf_trigger": false,
      "metar": "METAR LIMC 200820Z 12007KT 090V160 9999 SCT020 18/13 Q1013 NOSIG",
      "taf": "TAF LIMC 200500Z 2006/2112 VRB05KT 9999 FEW040"
    },
    {
      "icao": "LIME",
      "alert": "OK",
      "vis_m": 9999,
      "fzfg": false,
      "metar_trigger": false,
      "taf_trigger": false,
      "metar": "METAR LIME 200820Z 20004KT 090V250 9999 SCT035 16/11 Q1014 NOSIG",
      "taf": "TAF LIME 200500Z 2006/2106 VRB05KT 9999 FEW040"
    },
    {
      "icao": "LIMF",
      "alert": "OK",
      "vis_m": 9999,
      "fzfg": false,
      "metar_trigger": false,
      "taf_trigger": false,
      "metar": "METAR LIMF 200820Z 08005KT 050V130 CAVOK 17/11 Q1013",
      "taf": "TAF LIMF 200500Z 2006/2106 VRB05KT 9999 SCT035"
    },
    {
      "icao": "LIMJ",
      "alert": "OK",
      "vis_m": 9999,
      "fzfg": false,
      "metar_trigger": false,
      "taf_trigger": false,
      "metar": "METAR LIMJ 200820Z 12005KT 9999 VCSH SCT018 BKN030 16/15 Q1013",
      "taf": "TAF LIMJ 200500Z 2006/2106 VRB05KT 9999 SCT015"
    },
    {
      "icao": "LIPE",
      "alert": "OK",
      "vis_m": 9999,
      "fzfg": false,
      "metar_trigger": false,
      "taf_trigger": false,
      "metar": "METAR LIPE 200820Z 30003KT 250V360 CAVOK 15/11 Q1013",
      "taf": "TAF LIPE 200500Z 2006/2106 VRB05KT 9999 FEW030"
    },
    {
      "icao": "LIPH",
      "alert": "OK",
      "vis_m": 9999,
      "fzfg": false,
      "metar_trigger": false,
      "taf_trigger": false,
      "metar": "METAR LIPH 200820Z 02004KT 350V060 9999 BKN015 BKN060 16/12 Q1014",
      "taf": "TAF LIPH 200500Z 2006/2106 VRB06KT 9999 SCT035"
    },
    {
      "icao": "LIPQ",
      "alert": "OK",
      "vis_m": 9999,
      "fzfg": false,
      "metar_trigger": false,
      "taf_trigger": false,
      "metar": "METAR LIPQ 200820Z AUTO VRB02KT 9999 BKN065/// 16/12 Q1014",
      "taf": "TAF LIPQ 200500Z 2006/2106 VRB05KT 9999 SCT030"
    },
    {
      "icao": "LIPR",
      "alert": "OK",
      "vis_m": 9999,
      "fzfg": false,
      "metar_trigger": false,
      "taf_trigger": false,
      "metar": "METAR LIPR 200820Z 09005KT 9999 FEW040 18/12 Q1013",
      "taf": "TAF LIPR 200500Z 2006/2106 VRB06KT 9999 FEW040"
    },
    {
      "icao": "LIPX",
      "alert": "OK",
      "vis_m": 9999,
      "fzfg": false,
      "metar_trigger": false,
      "taf_trigger": false,
      "metar": "METAR LIPX 200820Z 10004KT 070V140 9999 FEW060 17/12 Q1014",
      "taf": "TAF LIPX 200500Z 2006/2106 VRB05KT 9999 FEW040"
    },
    {
      "icao": "LIPY",
      "alert": "OK",
      "vis_m": 9999,
      "fzfg": false,
      "metar_trigger": false,
      "taf_trigger": false,
      "metar": "METAR LIPY 200820Z AUTO VRB02KT 9999 NCD 21/11 Q1013",
      "taf": "TAF LIPY 200500Z 2006/2106 VRB06KT 8000 FEW050"
    },
    {
      "icao": "LIPZ",
      "alert": "OK",
      "vis_m": 9999,
      "fzfg": false,
      "metar_trigger": false,
      "taf_trigger": false,
      "metar": "METAR LIPZ 200820Z 08005KT 030V120 9999 SCT070 17/14 Q1014 NOSIG",
      "taf": "TAF LIPZ 200500Z 2006/2112 VRB04KT 9999 FEW050"
    },
    {
      "icao": "LIRF",
      "alert": "OK",
      "vis_m": 9999,
      "fzfg": false,
      "metar_trigger": false,
      "taf_trigger": false,
      "metar": "METAR LIRF 200820Z 14009KT 9999 FEW015 19/15 Q1015 NOSIG",
      "taf": "TAF LIRF 200500Z 2006/2112 14010KT 9999 FEW005"
    },
    {
      "icao": "LIRN",
      "alert": "OK",
      "vis_m": 9999,
      "fzfg": false,
      "metar_trigger": false,
      "taf_trigger": false,
      "metar": "METAR LIRN 200820Z 20007KT 150V230 CAVOK 19/12 Q1016 NOSIG",
      "taf": "TAF LIRN 200500Z 2006/2106 VRB05KT 9999 FEW015"
    },
    {
      "icao": "LIRP",
      "alert": "OK",
      "vis_m": 9999,
      "fzfg": false,
      "metar_trigger": false,
      "taf_trigger": false,
      "metar": "METAR LIRP 200815Z 12005KT 9999 BKN050 17/12 Q1014 NOSIG",
      "taf": "TAF LIRP 200500Z 2006/2106 12005KT 9999 FEW030 BKN070"
    },
    {
      "icao": "LIRZ",
      "alert": "OK",
      "vis_m": 9999,
      "fzfg": false,
      "metar_trigger": false,
      "taf_trigger": false,
      "metar": "METAR LIRZ 200820Z AUTO VRB02KT 9999 -RA BKN061/// 16/10 Q1015",
      "taf": "TAF LIRZ 200500Z 2006/2106 VRB05KT 9999 SCT060"
    },
    {
      "icao": "LJLJ",
      "alert": "OK",
      "vis_m": 9999,
      "fzfg": false,
      "metar_trigger": false,
      "taf_trigger": false,
      "metar": "METAR LJLJ 200830Z 07004KT 050V110 9999 FEW010 BKN037 13/10 Q1015 NOSIG",
      "taf": "TAF LJLJ 200500Z 2006/2106 30003KT 9999 SCT070"
    },
    {
      "icao": "LKMT",
      "alert": "OK",
      "vis_m": 9999,
      "fzfg": false,
      "metar_trigger": false,
      "taf_trigger": false,
      "metar": "METAR LKMT 200830Z 25011KT 210V270 9999 FEW032 BKN047 10/03 Q1014 NOSIG",
      "taf": "TAF LKMT 200500Z 2006/2106 23008KT 9999 BKN035"
    },
    {
      "icao": "LKPR",
      "alert": "OK",
      "vis_m": 9999,
      "fzfg": false,
      "metar_trigger": false,
      "taf_trigger": false,
      "metar": "METAR LKPR 200830Z 26014KT 9999 SCT025 BKN037 08/03 Q1015 NOSIG",
      "taf": "TAF LKPR 200800Z 2009/2115 26012KT 9999 SCT020 BKN040"
    },
    {
      "icao": "LLBG",
      "alert": "OK",
      "vis_m": 9999,
      "fzfg": false,
      "metar_trigger": false,
      "taf_trigger": false,
      "metar": "METAR LLBG 200820Z 26013KT 9999 SCT035 21/11 Q1013 NOSIG",
      "taf": "TAF LLBG 200503Z 2006/2106 20008KT 9999 SCT030 TX21/2011Z TN14/2103Z"
    },
    {
      "icao": "LMML",
      "alert": "OK",
      "vis_m": 9999,
      "fzfg": false,
      "metar_trigger": false,
      "taf_trigger": false,
      "metar": "METAR LMML 200815Z 22004KT 190V300 9999 BKN012 18/14 Q1018 TEMPO SCT012",
      "taf": "TAF LMML 200600Z 2006/2106 25004KT 9000 BKN009"
    },
    {
      "icao": "LOWW",
      "alert": "OK",
      "vis_m": 9999,
      "fzfg": false,
      "metar_trigger": false,
      "taf_trigger": false,
      "metar": "METAR LOWW 200820Z 33008KT 300V360 9999 FEW034 11/04 Q1016 NOSIG",
      "taf": "TAF LOWW 200815Z 2009/2115 32012KT 9999 SCT050 TX16/2015Z TN07/2103Z"
    },
    {
      "icao": "LPFR",
      "alert": "OK",
      "vis_m": 9999,
      "fzfg": false,
      "metar_trigger": false,
      "taf_trigger": false,
      "metar": "METAR LPFR 200830Z 08007KT CAVOK 22/09 Q1012",
      "taf": "TAF LPFR 200500Z 2006/2106 VRB02KT CAVOK"
    },
    {
      "icao": "LPMA",
      "alert": "OK",
      "vis_m": 9999,
      "fzfg": false,
      "metar_trigger": false,
      "taf_trigger": false,
      "metar": "METAR LPMA 200830Z 21009KT 180V260 9999 FEW011 18/15 Q1004",
      "taf": "TAF LPMA 200500Z 2006/2106 20010KT 9999 SCT015"
    },
    {
      "icao": "LPPR",
      "alert": "OK",
      "vis_m": 9999,
      "fzfg": false,
      "metar_trigger": false,
      "taf_trigger": false,
      "metar": "METAR LPPR 200830Z VRB01KT 9999 FEW003 16/11 Q1012",
      "taf": "TAF LPPR 200500Z 2006/2106 VRB02KT 8000 BKN006"
    },
    {
      "icao": "LPPS",
      "alert": "OK",
      "vis_m": 9999,
      "fzfg": false,
      "metar_trigger": false,
      "taf_trigger": false,
      "metar": "METAR LPPS 200830Z 15007KT 9999 FEW008 18/16 Q1004",
      "taf": ""
    },
    {
      "icao": "LPPT",
      "alert": "OK",
      "vis_m": 9999,
      "fzfg": false,
      "metar_trigger": false,
      "taf_trigger": false,
      "metar": "METAR LPPT 200830Z VRB02KT CAVOK 17/10 Q1013",
      "taf": "TAF LPPT 200500Z 2006/2112 VRB02KT CAVOK"
    },
    {
      "icao": "LQBK",
      "alert": "OK",
      "vis_m": 9999,
      "fzfg": false,
      "metar_trigger": false,
      "taf_trigger": false,
      "metar": "METAR LQBK 200830Z 35007KT 9999 RA FEW006 SCT015 BKN035 13/10 Q1016 BECMG NSW",
      "taf": "TAF LQBK 200500Z 2006/2106 30005KT 9999 FEW020 SCT040 TX15/2014Z TN08/2104Z"
    },
    {
      "icao": "LQSA",
      "alert": "OK",
      "vis_m": 9999,
      "fzfg": false,
      "metar_trigger": false,
      "taf_trigger": false,
      "metar": "METAR LQSA 200830Z VRB02KT 9999 SCT065 14/06 Q1015 NOSIG",
      "taf": ""
    },
    {
      "icao": "LQTZ",
      "alert": "OK",
      "vis_m": 9999,
      "fzfg": false,
      "metar_trigger": false,
      "taf_trigger": false,
      "metar": "METAR LQTZ 200830Z VRB02KT 9999 FEW025 SCT036 BKN054 12/09 Q1016",
      "taf": "TAF LQTZ 200500Z 2006/2106 36007KT 9999 BKN045 TX14/2012Z TN06/2104Z"
    },
    {
      "icao": "LRBC",
      "alert": "OK",
      "vis_m": 9999,
      "fzfg": false,
      "metar_trigger": false,
      "taf_trigger": false,
      "metar": "METAR LRBC 200830Z 16008KT CAVOK 16/09 Q1009",
      "taf": "TAF LRBC 200800Z 2009/2018 16008KT CAVOK"
    },
    {
      "icao": "LRBS",
      "alert": "OK",
      "vis_m": 9999,
      "fzfg": false,
      "metar_trigger": false,
      "taf_trigger": false,
      "metar": "METAR LRBS 200830Z 20006KT 160V250 CAVOK 19/08 Q1010 NOSIG",
      "taf": "TAF LRBS 200500Z 2006/2106 VRB04KT CAVOK"
    },
    {
      "icao": "LRBV",
      "alert": "OK",
      "vis_m": 9999,
      "fzfg": false,
      "metar_trigger": false,
      "taf_trigger": false,
      "metar": "METAR LRBV 200830Z VRB07KT 9999 SCT076 16/04 Q1010",
      "taf": "TAF LRBV 200800Z 2009/2018 VRB04KT CAVOK"
    },
    {
      "icao": "LRCL",
      "alert": "OK",
      "vis_m": 9999,
      "fzfg": false,
      "metar_trigger": false,
      "taf_trigger": false,
      "metar": "METAR LRCL 200830Z VRB02KT 9999 -RA OVC052 10/06 Q1011",
      "taf": "TAF LRCL 200800Z 2009/2018 VRB03KT CAVOK"
    },
    {
      "icao": "LRCV",
      "alert": "OK",
      "vis_m": 9999,
      "fzfg": false,
      "metar_trigger": false,
      "taf_trigger": false,
      "metar": "METAR LRCV 200830Z 28011KT CAVOK 17/09 Q1011",
      "taf": "TAF LRCV 200800Z 2009/2018 28013KT CAVOK"
    },
    {
      "icao": "LRIA",
      "alert": "OK",
      "vis_m": 9999,
      "fzfg": false,
      "metar_trigger": false,
      "taf_trigger": false,
      "metar": "METAR LRIA 200830Z 09004KT 050V200 CAVOK 14/07 Q1010",
      "taf": "TAF LRIA 200800Z 2009/2018 10005KT CAVOK"
    },
    {
      "icao": "LROP",
      "alert": "OK",
      "vis_m": 9999,
      "fzfg": false,
      "metar_trigger": false,
      "taf_trigger": false,
      "metar": "METAR LROP 200830Z VRB04KT CAVOK 20/04 Q1010 NOSIG",
      "taf": "TAF LROP 200500Z 2006/2106 VRB04KT CAVOK"
    },
    {
      "icao": "LRSB",
      "alert": "OK",
      "vis_m": 9999,
      "fzfg": false,
      "metar_trigger": false,
      "taf_trigger": false,
      "metar": "METAR LRSB 200830Z 31015KT 9999 SCT070 18/05 Q1010 NOSIG",
      "taf": "TAF LRSB 200500Z 2006/2106 VRB03KT CAVOK"
    },
    {
      "icao": "LRSM",
      "alert": "OK",
      "vis_m": 9999,
      "fzfg": false,
      "metar_trigger": false,
      "taf_trigger": false,
      "metar": "METAR LRSM 200830Z 25011KT 9999 BKN007 13/12 Q1010",
      "taf": "TAF LRSM 200800Z 2009/2018 25009KT 9999 SCT030 BKN040"
    },
    {
      "icao": "LRSV",
      "alert": "OK",
      "vis_m": 9999,
      "fzfg": false,
      "metar_trigger": false,
      "taf_trigger": false,
      "metar": "METAR LRSV 200830Z VRB02KT 9999 -RA BKN045 10/08 Q1009",
      "taf": "TAF LRSV 200800Z 2009/2018 VRB04KT CAVOK"
    },
    {
      "icao": "LRTM",
      "alert": "OK",
      "vis_m": 9999,
      "fzfg": false,
      "metar_trigger": false,
      "taf_trigger": false,
      "metar": "METAR LRTM 200830Z 32005KT 300V360 9999 FEW045 14/06 Q1010",
      "taf": "TAF LRTM 200800Z 2009/2018 33006KT CAVOK"
    },
    {
      "icao": "LRTR",
      "alert": "OK",
      "vis_m": 9999,
      "fzfg": false,
      "metar_trigger": false,
      "taf_trigger": false,
      "metar": "METAR LRTR 200830Z 28006KT 9999 FEW010 SCT020 12/10 Q1013",
      "taf": "TAF LRTR 200500Z 2006/2106 VRB04KT 9999 SCT040"
    },
    {
      "icao": "LTAC",
      "alert": "OK",
      "vis_m": 9999,
      "fzfg": false,
      "metar_trigger": false,
      "taf_trigger": false,
      "metar": "METAR LTAC 200820Z 12005KT 070V150 9999 SCT040 10/M00 Q1014 NOSIG RMK RWY21C VRB04KT RWY03L 02005KT 340V060 RWY21R 23003KT 180V270 RWY03R VRB02KT RWY21L VRB03KT",
      "taf": "TAF LTAC 200440Z 2006/2106 VRB02KT CAVOK"
    },
    {
      "icao": "LTFM",
      "alert": "OK",
      "vis_m": 9999,
      "fzfg": false,
      "metar_trigger": false,
      "taf_trigger": false,
      "metar": "METAR LTFM 200820Z VRB04KT CAVOK 16/02 Q1016 NOSIG RMK RWY17L VRB06KT RWY34L VRB03KT RWY16R 15006KT 090V190 RWY36 VRB04G15KT RWY18 VRB04KT",
      "taf": "TAF LTFM 200440Z 2006/2112 20010KT CAVOK"
    },
    {
      "icao": "LUKK",
      "alert": "OK",
      "vis_m": 9999,
      "fzfg": false,
      "metar_trigger": false,
      "taf_trigger": false,
      "metar": "METAR LUKK 200830Z 14012KT 110V170 CAVOK 16/06 Q1010 NOSIG",
      "taf": ""
    },
    {
      "icao": "LWOH",
      "alert": "OK",
      "vis_m": 9999,
      "fzfg": false,
      "metar_trigger": false,
      "taf_trigger": false,
      "metar": "METAR LWOH 200820Z 15005KT 120V190 9999 FEW050 15/08 Q1016",
      "taf": "TAF LWOH 200830Z 2009/2109 16005KT 9999 SCT040"
    },
    {
      "icao": "LWSK",
      "alert": "OK",
      "vis_m": 9999,
      "fzfg": false,
      "metar_trigger": false,
      "taf_trigger": false,
      "metar": "METAR LWSK 200820Z VRB02KT CAVOK 18/07 Q1014 NOSIG",
      "taf": "TAF LWSK 200830Z 2009/2109 11005KT 9999 FEW080"
    },
    {
      "icao": "LYBE",
      "alert": "OK",
      "vis_m": 9999,
      "fzfg": false,
      "metar_trigger": false,
      "taf_trigger": false,
      "metar": "METAR LYBE 200830Z 28008KT 9999 BKN010 BKN030 13/11 Q1015 BECMG SCT012 SCT035",
      "taf": "TAF LYBE 200500Z 2006/2106 32012KT 9999 SCT040 TX16/2012Z TN09/2104Z"
    },
    {
      "icao": "LYNI",
      "alert": "OK",
      "vis_m": 9999,
      "fzfg": false,
      "metar_trigger": false,
      "taf_trigger": false,
      "metar": "METAR LYNI 200830Z 32011KT 290V350 9999 FEW073 16/07 Q1014 NOSIG",
      "taf": "TAF LYNI 200500Z 2006/2106 09004KT CAVOK TX19/2011Z TN08/2104Z"
    },
    {
      "icao": "LYPG",
      "alert": "OK",
      "vis_m": 9999,
      "fzfg": false,
      "metar_trigger": false,
      "taf_trigger": false,
      "metar": "METAR LYPG 200830Z 02004KT 350V050 9999 FEW023 SCT040 BKN080 17/09 Q1015 NOSIG",
      "taf": "TAF LYPG 200500Z 2006/2106 15008KT 9999 SCT025 BKN070 TX21/2013Z TN12/2104Z"
    },
    {
      "icao": "LZIB",
      "alert": "OK",
      "vis_m": 9999,
      "fzfg": false,
      "metar_trigger": false,
      "taf_trigger": false,
      "metar": "METAR LZIB 200830Z 30013KT 9999 FEW032 12/04 Q1015 NOSIG",
      "taf": "TAF LZIB 200515Z 2006/2106 31009KT 9999 FEW020 SCT040"
    },
    {
      "icao": "LZKZ",
      "alert": "OK",
      "vis_m": 9999,
      "fzfg": false,
      "metar_trigger": false,
      "taf_trigger": false,
      "metar": "METAR LZKZ 200830Z 01018KT 9999 FEW040 13/05 Q1010 NOSIG",
      "taf": "TAF LZKZ 200515Z 2006/2106 01005KT CAVOK"
    },
    {
      "icao": "LZTT",
      "alert": "OK",
      "vis_m": 9999,
      "fzfg": false,
      "metar_trigger": false,
      "taf_trigger": false,
      "metar": "METAR LZTT 200830Z 14007KT 090V170 9999 BKN023 08/04 Q1011 NOSIG",
      "taf": ""
    },
    {
      "icao": "OEJN",
      "alert": "OK",
      "vis_m": 9999,
      "fzfg": false,
      "metar_trigger": false,
      "taf_trigger": false,
      "metar": "METAR OEJN 200800Z 29009KT 9999 SCT040 33/22 Q1007 NOSIG",
      "taf": "TAF OEJN 200500Z 2006/2112 29013KT 9999 FEW040"
    },
    {
      "icao": "OEMA",
      "alert": "OK",
      "vis_m": 9999,
      "fzfg": false,
      "metar_trigger": false,
      "taf_trigger": false,
      "metar": "METAR OEMA 200800Z 20011KT 9999 BKN040 32/09 Q1012 NOSIG",
      "taf": "TAF OEMA 200500Z 2006/2112 24016KT 7000 SCT040"
    },
    {
      "icao": "OJAI",
      "alert": "OK",
      "vis_m": 5000,
      "fzfg": false,
      "metar_trigger": false,
      "taf_trigger": false,
      "metar": "METAR OJAI 200800Z 26010KT 5000 HZ SCT030 16/08 Q1014 NOSIG",
      "taf": "TAF OJAI 200500Z 2006/2112 25012KT 5000 HZ SCT030"
    },
    {
      "icao": "OMAA",
      "alert": "OK",
      "vis_m": null,
      "fzfg": false,
      "metar_trigger": false,
      "taf_trigger": false,
      "metar": "",
      "taf": ""
    },
    {
      "icao": "OMDB",
      "alert": "OK",
      "vis_m": null,
      "fzfg": false,
      "metar_trigger": false,
      "taf_trigger": false,
      "metar": "",
      "taf": ""
    },
    {
      "icao": "UAAA",
      "alert": "OK",
      "vis_m": 9999,
      "fzfg": false,
      "metar_trigger": false,
      "taf_trigger": false,
      "metar": "METAR UAAA 200830Z 03006MPS 360V060 9999 FEW050CB 19/03 Q1016 NOSIG",
      "taf": "TAF UAAA 200501Z 2006/2106 04003MPS 9999 FEW050 SCT100 TX19/2009Z TN03/2101Z"
    },
    {
      "icao": "UBBB",
      "alert": "OK",
      "vis_m": 9999,
      "fzfg": false,
      "metar_trigger": false,
      "taf_trigger": false,
      "metar": "METAR UBBB 200830Z 33018KT 9999 FEW060CB 14/10 Q1010 NOSIG",
      "taf": "TAF UBBB 200503Z 2006/2106 33018G28KT 9999 FEW040CB BKN040 TX15/2007Z TN10/2100Z"
    },
    {
      "icao": "UDSG",
      "alert": "OK",
      "vis_m": 9999,
      "fzfg": false,
      "metar_trigger": false,
      "taf_trigger": false,
      "metar": "METAR UDSG 200830Z 09003KT 050V120 9999 BKN020CB OVC036 07/04 Q1012 NOSIG",
      "taf": "TAF UDSG 200458Z 2006/2106 VRB06KT 9999 BKN040"
    },
    {
      "icao": "UDYZ",
      "alert": "OK",
      "vis_m": 9999,
      "fzfg": false,
      "metar_trigger": false,
      "taf_trigger": false,
      "metar": "METAR UDYZ 200830Z 25007KT 9999 SCT033CB 17/09 Q1008 NOSIG",
      "taf": "TAF UDYZ 200500Z 2006/2106 22006KT 9999 BKN040"
    },
    {
      "icao": "UGKO",
      "alert": "OK",
      "vis_m": 9999,
      "fzfg": false,
      "metar_trigger": false,
      "taf_trigger": false,
      "metar": "METAR UGKO 200830Z 25010KT 9999 SCT039 BKN044 11/07 Q1015 NOSIG",
      "taf": "TAF UGKO 200500Z 2006/2106 26007KT 9999 SCT020 BKN050 TX12/2010Z TN08/2103Z"
    }
  ]
}