{
  "ts_utc": "2026-03-07T16:15:03Z",
  "threshold_m": 150,
  "source": "stations_override.txt (ICAO list) + aviationweather.gov (METAR/TAF raw)",
  "station_count": 159,
  "stations": [
    {
      "icao": "BIKF",
      "alert": "OK",
      "vis_m": 9999,
      "fzfg": false,
      "metar_trigger": false,
      "taf_trigger": false,
      "metar": "METAR BIKF 071600Z 20031G42KT 9999 SCT038CB BKN058 BKN170 03/M04 Q0989",
      "taf": "TAF BIKF 071344Z 0715/0815 22025G35KT 9999 SCT015 BKN035 TX03/0715Z TNM00/0804Z"
    },
    {
      "icao": "BKPR",
      "alert": "OK",
      "vis_m": 9999,
      "fzfg": false,
      "metar_trigger": false,
      "taf_trigger": false,
      "metar": "METAR BKPR 071600Z 13004KT CAVOK 15/03 Q1024 NOSIG",
      "taf": "TAF BKPR 071130Z 0712/0812 VRB05KT 9999 FEW050"
    },
    {
      "icao": "EBCI",
      "alert": "OK",
      "vis_m": 9999,
      "fzfg": false,
      "metar_trigger": false,
      "taf_trigger": false,
      "metar": "METAR EBCI 071550Z 04009KT CAVOK 15/08 Q1023 NOSIG",
      "taf": "TAF EBCI 071101Z 0712/0818 04008KT CAVOK"
    },
    {
      "icao": "EDDB",
      "alert": "OK",
      "vis_m": 9999,
      "fzfg": false,
      "metar_trigger": false,
      "taf_trigger": false,
      "metar": "METAR EDDB 071550Z AUTO 16003KT 130V190 CAVOK 17/04 Q1025 NOSIG",
      "taf": "TAF EDDB 071100Z 0712/0812 16005KT CAVOK"
    },
    {
      "icao": "EDDH",
      "alert": "OK",
      "vis_m": 9999,
      "fzfg": false,
      "metar_trigger": false,
      "taf_trigger": false,
      "metar": "METAR EDDH 071550Z AUTO 30004KT CAVOK 16/05 Q1025 NOSIG",
      "taf": "TAF EDDH 071100Z 0712/0818 VRB03KT CAVOK"
    },
    {
      "icao": "EDDK",
      "alert": "OK",
      "vis_m": 9999,
      "fzfg": false,
      "metar_trigger": false,
      "taf_trigger": false,
      "metar": "METAR EDDK 071550Z AUTO 30006KT CAVOK 18/05 Q1023 NOSIG",
      "taf": "TAF EDDK 071100Z 0712/0818 VRB03KT CAVOK"
    },
    {
      "icao": "EDDN",
      "alert": "OK",
      "vis_m": 9999,
      "fzfg": false,
      "metar_trigger": false,
      "taf_trigger": false,
      "metar": "METAR EDDN 071550Z AUTO VRB02KT CAVOK 17/03 Q1023 NOSIG",
      "taf": "TAF EDDN 071100Z 0712/0812 VRB03KT CAVOK"
    },
    {
      "icao": "EDDS",
      "alert": "OK",
      "vis_m": 9999,
      "fzfg": false,
      "metar_trigger": false,
      "taf_trigger": false,
      "metar": "METAR EDDS 071550Z AUTO 03007KT CAVOK 18/04 Q1022 NOSIG",
      "taf": "TAF EDDS 071100Z 0712/0812 03005KT CAVOK"
    },
    {
      "icao": "EDFH",
      "alert": "OK",
      "vis_m": 9999,
      "fzfg": false,
      "metar_trigger": false,
      "taf_trigger": false,
      "metar": "METAR EDFH 071550Z 07004KT 030V130 CAVOK 15/00 Q1023",
      "taf": "TAF EDFH 071100Z 0712/0812 11006KT CAVOK"
    },
    {
      "icao": "EDJA",
      "alert": "OK",
      "vis_m": 9999,
      "fzfg": false,
      "metar_trigger": false,
      "taf_trigger": false,
      "metar": "METAR EDJA 071550Z COR 06005KT 030V090 CAVOK 14/05 Q1022",
      "taf": "TAF EDJA 071400Z 0715/0724 05008KT CAVOK"
    },
    {
      "icao": "EDLW",
      "alert": "OK",
      "vis_m": 9999,
      "fzfg": false,
      "metar_trigger": false,
      "taf_trigger": false,
      "metar": "METAR EDLW 071550Z 36005KT CAVOK 16/05 Q1024",
      "taf": "TAF EDLW 071100Z 0712/0812 VRB03KT CAVOK"
    },
    {
      "icao": "EDNY",
      "alert": "OK",
      "vis_m": 9999,
      "fzfg": false,
      "metar_trigger": false,
      "taf_trigger": false,
      "metar": "METAR EDNY 071550Z COR 21005KT CAVOK 13/06 Q1022",
      "taf": "TAF EDNY 071400Z 0715/0724 23006KT CAVOK"
    },
    {
      "icao": "EDSB",
      "alert": "OK",
      "vis_m": 9999,
      "fzfg": false,
      "metar_trigger": false,
      "taf_trigger": false,
      "metar": "METAR EDSB 071550Z 36006KT 330V030 CAVOK 17/05 Q1022",
      "taf": "TAF EDSB 071100Z 0712/0812 01006KT CAVOK"
    },
    {
      "icao": "EETN",
      "alert": "OK",
      "vis_m": 9999,
      "fzfg": false,
      "metar_trigger": false,
      "taf_trigger": false,
      "metar": "METAR EETN 071550Z 30004KT CAVOK 04/M03 Q1029 NOSIG",
      "taf": "TAF EETN 071130Z 0712/0812 26007KT CAVOK"
    },
    {
      "icao": "EFTU",
      "alert": "OK",
      "vis_m": 9999,
      "fzfg": false,
      "metar_trigger": false,
      "taf_trigger": false,
      "metar": "METAR EFTU 071550Z AUTO 27006KT CAVOK 04/M02 Q1029",
      "taf": "TAF EFTU 071424Z 0715/0815 29006KT CAVOK"
    },
    {
      "icao": "EGBB",
      "alert": "OK",
      "vis_m": 9999,
      "fzfg": false,
      "metar_trigger": false,
      "taf_trigger": false,
      "metar": "METAR EGBB 071550Z 12006KT 9999 BKN010 08/05 Q1025",
      "taf": ""
    },
    {
      "icao": "EGGP",
      "alert": "OK",
      "vis_m": 9999,
      "fzfg": false,
      "metar_trigger": false,
      "taf_trigger": false,
      "metar": "METAR EGGP 071550Z 15007KT 9999 SCT020 BKN023 08/04 Q1025",
      "taf": "TAF EGGP 071054Z 0712/0812 16008KT 9999 SCT020"
    },
    {
      "icao": "EGGW",
      "alert": "OK",
      "vis_m": 4900,
      "fzfg": false,
      "metar_trigger": false,
      "taf_trigger": false,
      "metar": "METAR EGGW 071550Z AUTO 12005KT 4900 BR OVC003 07/07 Q1025",
      "taf": ""
    },
    {
      "icao": "EGKK",
      "alert": "OK",
      "vis_m": 8000,
      "fzfg": false,
      "metar_trigger": false,
      "taf_trigger": false,
      "metar": "METAR EGKK 071550Z 06007KT 8000 BKN008 09/08 Q1025",
      "taf": ""
    },
    {
      "icao": "EGNM",
      "alert": "OK",
      "vis_m": 9999,
      "fzfg": false,
      "metar_trigger": false,
      "taf_trigger": false,
      "metar": "METAR EGNM 071550Z 15006KT 9999 FEW012 BKN020 06/04 Q1025",
      "taf": "TAF EGNM 071054Z 0712/0812 14006KT 9999 SCT020"
    },
    {
      "icao": "EGPD",
      "alert": "OK",
      "vis_m": 9999,
      "fzfg": false,
      "metar_trigger": false,
      "taf_trigger": false,
      "metar": "METAR EGPD 071550Z COR AUTO 20013KT 9999 NCD 10/03 Q1022 NOSIG",
      "taf": "TAF EGPD 071058Z 0712/0812 20009KT CAVOK"
    },
    {
      "icao": "EGPF",
      "alert": "OK",
      "vis_m": 9999,
      "fzfg": false,
      "metar_trigger": false,
      "taf_trigger": false,
      "metar": "METAR EGPF 071550Z AUTO 18010KT 9999 BKN031 10/03 Q1023",
      "taf": ""
    },
    {
      "icao": "EHBK",
      "alert": "OK",
      "vis_m": 9999,
      "fzfg": false,
      "metar_trigger": false,
      "taf_trigger": false,
      "metar": "METAR EHBK 071555Z AUTO 06006KT 020V080 9999 NSC 16/08 Q1023 BECMG NSW",
      "taf": "TAF EHBK 071114Z 0712/0818 VRB02KT CAVOK"
    },
    {
      "icao": "EHEH",
      "alert": "OK",
      "vis_m": 6000,
      "fzfg": false,
      "metar_trigger": false,
      "taf_trigger": false,
      "metar": "METAR EHEH 071555Z AUTO 01005KT 6000 HZ BKN300 14/10 Q1024 WHT NOSIG RMK TREND REMOTE BY EHWX",
      "taf": "TAF EHEH 071103Z 0712/0818 02005KT 7000 NSC"
    },
    {
      "icao": "EKBI",
      "alert": "OK",
      "vis_m": 2300,
      "fzfg": false,
      "metar_trigger": false,
      "taf_trigger": false,
      "metar": "METAR EKBI 071550Z AUTO 30002KT 2300 -RA BR FEW030/// SCT070/// SCT088/// 11/09 Q1025",
      "taf": ""
    },
    {
      "icao": "EKCH",
      "alert": "OK",
      "vis_m": 9999,
      "fzfg": false,
      "metar_trigger": false,
      "taf_trigger": false,
      "metar": "METAR EKCH 071550Z AUTO 24004KT 200V260 9999 FEW090/// SCT100/// 08/01 Q1026 NOSIG",
      "taf": "TAF EKCH 071427Z 0715/0815 15007KT CAVOK"
    },
    {
      "icao": "ENAL",
      "alert": "OK",
      "vis_m": 9999,
      "fzfg": false,
      "metar_trigger": false,
      "taf_trigger": false,
      "metar": "METAR ENAL 071550Z 33003KT 270V010 CAVOK 07/04 Q1023",
      "taf": "TAF ENAL 071400Z 0715/0724 24008KT CAVOK"
    },
    {
      "icao": "ENBR",
      "alert": "OK",
      "vis_m": 7000,
      "fzfg": false,
      "metar_trigger": false,
      "taf_trigger": false,
      "metar": "METAR ENBR 071550Z 16007KT 7000 BKN011 06/05 Q1025 TEMPO BKN007 RMK WIND 1200FT 15010KT",
      "taf": ""
    },
    {
      "icao": "ENGM",
      "alert": "OK",
      "vis_m": 9999,
      "fzfg": false,
      "metar_trigger": false,
      "taf_trigger": false,
      "metar": "METAR ENGM 071550Z 03003KT 9999 BKN007 03/02 Q1027 NOSIG",
      "taf": ""
    },
    {
      "icao": "ENHD",
      "alert": "OK",
      "vis_m": 6000,
      "fzfg": false,
      "metar_trigger": false,
      "taf_trigger": false,
      "metar": "METAR ENHD 071550Z VRB02KT 6000 OVC015 06/05 Q1026",
      "taf": "TAF ENHD 071400Z 0715/0723 VRB03KT 8000 SCT007 BKN015"
    },
    {
      "icao": "ENTC",
      "alert": "OK",
      "vis_m": 9999,
      "fzfg": false,
      "metar_trigger": false,
      "taf_trigger": false,
      "metar": "METAR ENTC 071550Z 21018KT 9999 FEW040 04/01 Q1017 NOSIG RMK WIND 2600FT 21018KT",
      "taf": "TAF ENTC 071100Z 0712/0812 20012KT 9999 FEW015 SCT025"
    },
    {
      "icao": "ENTO",
      "alert": "OK",
      "vis_m": 9999,
      "fzfg": false,
      "metar_trigger": false,
      "taf_trigger": false,
      "metar": "METAR ENTO 071550Z 01005KT 9999 BKN030 05/04 Q1027 NOSIG",
      "taf": "TAF ENTO 071100Z 0712/0812 01005KT 7000 BKN015"
    },
    {
      "icao": "ENVA",
      "alert": "OK",
      "vis_m": 9999,
      "fzfg": false,
      "metar_trigger": false,
      "taf_trigger": false,
      "metar": "METAR ENVA 071550Z 12004KT CAVOK 08/01 Q1024 RMK WIND 670FT 15010KT",
      "taf": "TAF ENVA 071100Z 0712/0812 VRB05KT CAVOK"
    },
    {
      "icao": "ENZV",
      "alert": "OK",
      "vis_m": 3000,
      "fzfg": false,
      "metar_trigger": false,
      "taf_trigger": false,
      "metar": "METAR ENZV 071550Z 27003KT 250V330 3000 VCFG SCT005 OVC021 06/05 Q1026 TEMPO 0500 FG VV002",
      "taf": ""
    },
    {
      "icao": "EPGD",
      "alert": "OK",
      "vis_m": 9999,
      "fzfg": false,
      "metar_trigger": false,
      "taf_trigger": false,
      "metar": "METAR EPGD 071600Z 21003KT CAVOK 12/M02 Q1027",
      "taf": "TAF EPGD 071130Z 0712/0812 24004KT CAVOK"
    },
    {
      "icao": "EPKK",
      "alert": "OK",
      "vis_m": 9999,
      "fzfg": false,
      "metar_trigger": false,
      "taf_trigger": false,
      "metar": "METAR EPKK 071600Z 06008KT CAVOK 12/M06 Q1026",
      "taf": "TAF EPKK 071430Z 0715/0815 07007KT CAVOK"
    },
    {
      "icao": "EPKT",
      "alert": "OK",
      "vis_m": 9999,
      "fzfg": false,
      "metar_trigger": false,
      "taf_trigger": false,
      "metar": "METAR EPKT 071600Z 07007KT CAVOK 13/M06 Q1026",
      "taf": "TAF EPKT 071130Z 0712/0812 16004KT CAVOK"
    },
    {
      "icao": "EPLB",
      "alert": "OK",
      "vis_m": 9999,
      "fzfg": false,
      "metar_trigger": false,
      "taf_trigger": false,
      "metar": "METAR EPLB 071600Z 09003KT CAVOK 10/M01 Q1028",
      "taf": "TAF EPLB 071130Z 0712/0812 VRB02KT CAVOK"
    },
    {
      "icao": "EPMO",
      "alert": "OK",
      "vis_m": 9999,
      "fzfg": false,
      "metar_trigger": false,
      "taf_trigger": false,
      "metar": "METAR EPMO 071600Z 05003KT CAVOK 12/M04 Q1028",
      "taf": "TAF EPMO 071130Z 0712/0812 VRB03KT CAVOK"
    },
    {
      "icao": "EPPO",
      "alert": "OK",
      "vis_m": 9999,
      "fzfg": false,
      "metar_trigger": false,
      "taf_trigger": false,
      "metar": "METAR EPPO 071600Z 13006KT CAVOK 14/00 Q1026",
      "taf": "TAF EPPO 071130Z 0712/0812 16002KT CAVOK"
    },
    {
      "icao": "EPRA",
      "alert": "OK",
      "vis_m": 9999,
      "fzfg": false,
      "metar_trigger": false,
      "taf_trigger": false,
      "metar": "METAR EPRA 071600Z 16002KT CAVOK 12/M08 Q1027",
      "taf": "TAF EPRA 071430Z 0715/0724 VRB03KT CAVOK"
    },
    {
      "icao": "EPRZ",
      "alert": "OK",
      "vis_m": 9999,
      "fzfg": false,
      "metar_trigger": false,
      "taf_trigger": false,
      "metar": "METAR EPRZ 071600Z 10006KT CAVOK 12/M04 Q1027",
      "taf": "TAF EPRZ 071130Z 0712/0812 10004KT CAVOK"
    },
    {
      "icao": "EPSC",
      "alert": "OK",
      "vis_m": 9999,
      "fzfg": false,
      "metar_trigger": false,
      "taf_trigger": false,
      "metar": "METAR EPSC 071600Z 13006KT CAVOK 14/03 Q1026",
      "taf": "TAF EPSC 071130Z 0712/0812 12006KT CAVOK"
    },
    {
      "icao": "EPSY",
      "alert": "OK",
      "vis_m": 9999,
      "fzfg": false,
      "metar_trigger": false,
      "taf_trigger": false,
      "metar": "METAR EPSY 071600Z 19002KT CAVOK 09/M03 Q1028",
      "taf": "TAF EPSY 071430Z 0715/0724 VRB02KT CAVOK"
    },
    {
      "icao": "EPWA",
      "alert": "OK",
      "vis_m": 9999,
      "fzfg": false,
      "metar_trigger": false,
      "taf_trigger": false,
      "metar": "METAR EPWA 071600Z 10004KT 070V130 CAVOK 12/M05 Q1028 NOSIG",
      "taf": "TAF EPWA 071430Z 0715/0815 VRB03KT CAVOK"
    },
    {
      "icao": "EPWR",
      "alert": "OK",
      "vis_m": 9999,
      "fzfg": false,
      "metar_trigger": false,
      "taf_trigger": false,
      "metar": "METAR EPWR 071600Z 12007KT CAVOK 14/01 Q1026",
      "taf": "TAF EPWR 071430Z 0715/0815 12008KT CAVOK"
    },
    {
      "icao": "ESGG",
      "alert": "OK",
      "vis_m": 9000,
      "fzfg": false,
      "metar_trigger": false,
      "taf_trigger": false,
      "metar": "METAR ESGG 071550Z 06005KT 9000 OVC055 05/04 Q1026",
      "taf": "TAF ESGG 071430Z 0715/0815 13005KT 9999 -RA SCT040 BKN060"
    },
    {
      "icao": "ESKN",
      "alert": "OK",
      "vis_m": 9999,
      "fzfg": false,
      "metar_trigger": false,
      "taf_trigger": false,
      "metar": "METAR ESKN 071550Z 10004KT 9999 BKN045 04/03 Q1028",
      "taf": "TAF ESKN 071430Z 0715/0815 VRB03KT 9999 BKN045"
    },
    {
      "icao": "ESMS",
      "alert": "OK",
      "vis_m": 9999,
      "fzfg": false,
      "metar_trigger": false,
      "taf_trigger": false,
      "metar": "METAR ESMS 071550Z 16004KT CAVOK 10/01 Q1025",
      "taf": "TAF ESMS 071427Z 0715/0815 12005KT CAVOK"
    },
    {
      "icao": "ESSA",
      "alert": "OK",
      "vis_m": 9999,
      "fzfg": false,
      "metar_trigger": false,
      "taf_trigger": false,
      "metar": "METAR ESSA 071550Z 08003KT 020V100 9999 BKN036 03/03 Q1029 NOSIG",
      "taf": "TAF ESSA 071430Z 0715/0815 08005KT 9000 FEW005 BKN045"
    },
    {
      "icao": "EYKA",
      "alert": "OK",
      "vis_m": 9999,
      "fzfg": false,
      "metar_trigger": false,
      "taf_trigger": false,
      "metar": "METAR EYKA 071550Z VRB01KT CAVOK 08/M06 Q1028",
      "taf": "TAF EYKA 071100Z 0712/0812 VRB04KT 9000 NSC"
    },
    {
      "icao": "EYPA",
      "alert": "OK",
      "vis_m": 9999,
      "fzfg": false,
      "metar_trigger": false,
      "taf_trigger": false,
      "metar": "METAR EYPA 071550Z VRB01KT CAVOK 04/01 Q1028",
      "taf": "TAF EYPA 071100Z 0712/0812 VRB04KT 9000 NSC"
    },
    {
      "icao": "EYVI",
      "alert": "OK",
      "vis_m": 9999,
      "fzfg": false,
      "metar_trigger": false,
      "taf_trigger": false,
      "metar": "METAR EYVI 071550Z 26002KT CAVOK 08/M07 Q1028 NOSIG",
      "taf": "TAF EYVI 071100Z 0712/0812 VRB04KT 9000 NSC"
    },
    {
      "icao": "GCFV",
      "alert": "OK",
      "vis_m": 9999,
      "fzfg": false,
      "metar_trigger": false,
      "taf_trigger": false,
      "metar": "METAR GCFV 071600Z 03019KT 9999 FEW030 BKN040 18/08 Q1019",
      "taf": "TAF GCFV 071400Z 0715/0815 02018KT 9999 FEW030 BKN040 TX20/0814Z TN15/0806Z"
    },
    {
      "icao": "GCLP",
      "alert": "OK",
      "vis_m": 9999,
      "fzfg": false,
      "metar_trigger": false,
      "taf_trigger": false,
      "metar": "METAR GCLP 071600Z 01022KT 9999 BKN035 18/08 Q1020 NOSIG",
      "taf": "TAF GCLP 071400Z 0715/0815 02021KT 9999 BKN035 TX20/0814Z TN15/0806Z"
    },
    {
      "icao": "GCTS",
      "alert": "OK",
      "vis_m": 9999,
      "fzfg": false,
      "metar_trigger": false,
      "taf_trigger": false,
      "metar": "METAR GCTS 071600Z 08024KT 050V110 9999 FEW030 BKN045 19/07 Q1020 WS R07 NOSIG",
      "taf": "TAF GCTS 071400Z 0715/0815 08024KT 9999 SCT045 TX22/0814Z TN14/0806Z"
    },
    {
      "icao": "GMAD",
      "alert": "OK",
      "vis_m": 8000,
      "fzfg": false,
      "metar_trigger": false,
      "taf_trigger": false,
      "metar": "METAR GMAD 071600Z 24010KT 8000 FEW026 19/11 Q1014 NOSIG",
      "taf": "TAF GMAD 071100Z 0712/0818 27012KT CAVOK"
    },
    {
      "icao": "GMMN",
      "alert": "OK",
      "vis_m": 9999,
      "fzfg": false,
      "metar_trigger": false,
      "taf_trigger": false,
      "metar": "METAR GMMN 071600Z 28008KT 9999 BKN026 15/10 Q1018 NOSIG",
      "taf": "TAF GMMN 071100Z 0712/0818 22008KT 9999 BKN026"
    },
    {
      "icao": "GMMX",
      "alert": "OK",
      "vis_m": 9999,
      "fzfg": false,
      "metar_trigger": false,
      "taf_trigger": false,
      "metar": "METAR GMMX 071600Z VRB03KT 9999 SCT020 SCT040 15/05 Q1016 NOSIG",
      "taf": "TAF GMMX 071100Z 0712/0818 04006KT 8000 SCT020 SCT040"
    },
    {
      "icao": "HEGN",
      "alert": "OK",
      "vis_m": 6000,
      "fzfg": false,
      "metar_trigger": false,
      "taf_trigger": false,
      "metar": "METAR HEGN 071600Z 33022KT 6000 NSC 21/02 Q1015 NOSIG",
      "taf": "TAF HEGN 071113Z 0712/0818 35010G24KT CAVOK"
    },
    {
      "icao": "HEMA",
      "alert": "OK",
      "vis_m": 9999,
      "fzfg": false,
      "metar_trigger": false,
      "taf_trigger": false,
      "metar": "METAR HEMA 071600Z 34016KT CAVOK 22/10 Q1014 NOSIG",
      "taf": "TAF HEMA 071113Z 0712/0818 36010G24KT 6000 NSC"
    },
    {
      "icao": "HESH",
      "alert": "OK",
      "vis_m": 9999,
      "fzfg": false,
      "metar_trigger": false,
      "taf_trigger": false,
      "metar": "METAR HESH 071600Z 35017KT CAVOK 22/08 Q1014 NOSIG",
      "taf": "TAF HESH 071113Z 0712/0818 01006G18KT CAVOK"
    },
    {
      "icao": "HESX",
      "alert": "OK",
      "vis_m": 9999,
      "fzfg": false,
      "metar_trigger": false,
      "taf_trigger": false,
      "metar": "METAR HESX 071600Z 36013KT CAVOK 19/10 Q1019 NOSIG",
      "taf": "TAF HESX 071113Z 0712/0818 34010KT 6000 SCT025"
    },
    {
      "icao": "LATI",
      "alert": "OK",
      "vis_m": 9999,
      "fzfg": false,
      "metar_trigger": false,
      "taf_trigger": false,
      "metar": "METAR LATI 071550Z 27004KT 230V310 CAVOK 16/08 Q1025 NOSIG",
      "taf": "TAF LATI 071100Z 0712/0812 28010KT CAVOK TX21/0712Z TN08/0805Z"
    },
    {
      "icao": "LBPD",
      "alert": "OK",
      "vis_m": 9999,
      "fzfg": false,
      "metar_trigger": false,
      "taf_trigger": false,
      "metar": "METAR LBPD 071600Z AUTO 09009KT 9999 NCD 13/02 Q1026 NOSIG",
      "taf": "TAF LBPD 071100Z 0712/0812 09010KT CAVOK"
    },
    {
      "icao": "LBSF",
      "alert": "OK",
      "vis_m": 9999,
      "fzfg": false,
      "metar_trigger": false,
      "taf_trigger": false,
      "metar": "METAR LBSF 071600Z AUTO 07004KT 010V100 9999 SCT076/// 14/00 Q1025 NOSIG",
      "taf": "TAF LBSF 071100Z 0712/0812 10010KT CAVOK"
    },
    {
      "icao": "LBWN",
      "alert": "OK",
      "vis_m": 9999,
      "fzfg": false,
      "metar_trigger": false,
      "taf_trigger": false,
      "metar": "METAR LBWN 071600Z 12008KT CAVOK 06/03 Q1029 NOSIG",
      "taf": "TAF LBWN 071100Z 0712/0812 12010KT 9999 SCT040"
    },
    {
      "icao": "LCLK",
      "alert": "OK",
      "vis_m": 9999,
      "fzfg": false,
      "metar_trigger": false,
      "taf_trigger": false,
      "metar": "METAR LCLK 071600Z 36007KT 9999 FEW025 15/01 Q1019 NOSIG",
      "taf": "TAF LCLK 071130Z 0712/0812 02015KT 9999 FEW025"
    },
    {
      "icao": "LCPH",
      "alert": "OK",
      "vis_m": 9999,
      "fzfg": false,
      "metar_trigger": false,
      "taf_trigger": false,
      "metar": "METAR LCPH 071600Z 17005KT 160V240 9999 FEW025 16/07 Q1019 NOSIG",
      "taf": "TAF LCPH 071130Z 0712/0812 16012KT 9999 FEW020"
    },
    {
      "icao": "LEAL",
      "alert": "OK",
      "vis_m": 9999,
      "fzfg": false,
      "metar_trigger": false,
      "taf_trigger": false,
      "metar": "METAR LEAL 071600Z 10004KT 070V140 9999 FEW025 SCT065 14/08 Q1017 NOSIG",
      "taf": "TAF LEAL 071100Z 0712/0812 VRB04KT 9999 FEW020 TX15/0713Z TN07/0806Z"
    },
    {
      "icao": "LEBB",
      "alert": "OK",
      "vis_m": 9999,
      "fzfg": false,
      "metar_trigger": false,
      "taf_trigger": false,
      "metar": "METAR LEBB 071600Z 29006KT 250V340 9999 BKN021 14/10 Q1020 NOSIG",
      "taf": "TAF LEBB 071100Z 0712/0812 31009KT 7000 BKN016 TX14/0714Z TN07/0806Z"
    },
    {
      "icao": "LEBL",
      "alert": "OK",
      "vis_m": 9999,
      "fzfg": false,
      "metar_trigger": false,
      "taf_trigger": false,
      "metar": "METAR LEBL 071600Z 25010KT 9999 -SHRA FEW010 FEW026TCU BKN041 11/10 Q1021 TEMPO 4000 SHRA",
      "taf": ""
    },
    {
      "icao": "LECH",
      "alert": "OK",
      "vis_m": 9999,
      "fzfg": false,
      "metar_trigger": false,
      "taf_trigger": false,
      "metar": "METAR LECH 071600Z AUTO 08010KT 9999 BKN005 OVC011 09/08 Q1019",
      "taf": ""
    },
    {
      "icao": "LEMD",
      "alert": "OK",
      "vis_m": 9999,
      "fzfg": false,
      "metar_trigger": false,
      "taf_trigger": false,
      "metar": "METAR LEMD 071600Z 33003KT 280V050 9999 FEW055TCU SCT080 11/05 Q1016 NOSIG",
      "taf": "TAF LEMD 071100Z 0712/0818 02007KT 9999 SCT030 TX14/0714Z TN05/0806Z"
    },
    {
      "icao": "LEMG",
      "alert": "OK",
      "vis_m": 9999,
      "fzfg": false,
      "metar_trigger": false,
      "taf_trigger": false,
      "metar": "METAR LEMG 071600Z 29005KT 260V320 9999 SCT040 BKN070 16/08 Q1016 NOSIG",
      "taf": "TAF LEMG 071100Z 0712/0812 20006KT 9999 SCT035 TX18/0714Z TN08/0807Z"
    },
    {
      "icao": "LEVC",
      "alert": "OK",
      "vis_m": 9999,
      "fzfg": false,
      "metar_trigger": false,
      "taf_trigger": false,
      "metar": "METAR LEVC 071600Z 03008KT 9999 -RA FEW016 BKN060 12/08 Q1018 NOSIG",
      "taf": "TAF LEVC 071100Z 0712/0812 09010KT 9999 SCT015 TX14/0713Z TN09/0806Z"
    },
    {
      "icao": "LEXJ",
      "alert": "OK",
      "vis_m": 9999,
      "fzfg": false,
      "metar_trigger": false,
      "taf_trigger": false,
      "metar": "METAR LEXJ 071600Z 25006KT 210V290 9999 OVC010 09/08 Q1020",
      "taf": "TAF LEXJ 071400Z 0715/0815 26009KT 9000 SCT008 BKN016 TX15/0813Z TN07/0806Z"
    },
    {
      "icao": "LEZG",
      "alert": "OK",
      "vis_m": 8000,
      "fzfg": false,
      "metar_trigger": false,
      "taf_trigger": false,
      "metar": "METAR LEZG 071600Z 12013KT 8000 -RA FEW020 BKN055 11/10 Q1019 TEMPO 4000 SHRA FEW025TCU",
      "taf": "TAF LEZG 071100Z 0712/0812 11010KT 9999 SCT020 TX15/0714Z TN06/0806Z"
    },
    {
      "icao": "LEZL",
      "alert": "OK",
      "vis_m": 9999,
      "fzfg": false,
      "metar_trigger": false,
      "taf_trigger": false,
      "metar": "METAR LEZL 071600Z 15005KT 110V170 9999 FEW038 17/11 Q1016 NOSIG",
      "taf": "TAF LEZL 071400Z 0715/0815 VRB03KT 9999 FEW030 TX17/0715Z TN10/0807Z"
    },
    {
      "icao": "LFBD",
      "alert": "OK",
      "vis_m": 9999,
      "fzfg": false,
      "metar_trigger": false,
      "taf_trigger": false,
      "metar": "METAR LFBD 071600Z AUTO 16005KT 120V190 9999 BKN046 OVC054 17/09 Q1019 TEMPO SHRA BKN030TCU",
      "taf": "TAF LFBD 071100Z 0712/0818 08008KT 9999 BKN035 TX17/0715Z TN10/0805Z"
    },
    {
      "icao": "LFLL",
      "alert": "OK",
      "vis_m": 9999,
      "fzfg": false,
      "metar_trigger": false,
      "taf_trigger": false,
      "metar": "METAR LFLL 071600Z 19007KT 9999 FEW050 SCT250 19/06 Q1022 NOSIG",
      "taf": "TAF LFLL 071100Z 0712/0818 19005KT CAVOK"
    },
    {
      "icao": "LFLS",
      "alert": "OK",
      "vis_m": 9999,
      "fzfg": false,
      "metar_trigger": false,
      "taf_trigger": false,
      "metar": "METAR LFLS 071600Z AUTO 23010KT CAVOK 15/07 Q1022 NOSIG",
      "taf": "TAF LFLS 071400Z 0715/0815 26006KT CAVOK"
    },
    {
      "icao": "LFMN",
      "alert": "OK",
      "vis_m": 9000,
      "fzfg": false,
      "metar_trigger": false,
      "taf_trigger": false,
      "metar": "METAR LFMN 071600Z 07005KT 030V090 9000 BKN100 OVC260 15/09 Q1024 NOSIG",
      "taf": "TAF LFMN 071400Z 0715/0821 09012KT 9999 SCT050"
    },
    {
      "icao": "LFOB",
      "alert": "OK",
      "vis_m": 6000,
      "fzfg": false,
      "metar_trigger": false,
      "taf_trigger": false,
      "metar": "METAR LFOB 071600Z AUTO 02006KT 6000 NSC 14/10 Q1023 NOSIG",
      "taf": ""
    },
    {
      "icao": "LFPO",
      "alert": "OK",
      "vis_m": 9999,
      "fzfg": false,
      "metar_trigger": false,
      "taf_trigger": false,
      "metar": "METAR LFPO 071600Z AUTO 01006KT 320V050 CAVOK 17/10 Q1022 NOSIG",
      "taf": "TAF LFPO 071100Z 0712/0818 07006KT CAVOK"
    },
    {
      "icao": "LFSB",
      "alert": "OK",
      "vis_m": 9999,
      "fzfg": false,
      "metar_trigger": false,
      "taf_trigger": false,
      "metar": "METAR LFSB 071600Z AUTO 36004KT 9999 FEW013 17/06 Q1021 NOSIG",
      "taf": "TAF LFSB 071100Z 0712/0812 34004KT CAVOK"
    },
    {
      "icao": "LGAV",
      "alert": "OK",
      "vis_m": 9999,
      "fzfg": false,
      "metar_trigger": false,
      "taf_trigger": false,
      "metar": "METAR LGAV 071550Z 05013KT 9999 FEW030 13/04 Q1026 NOSIG",
      "taf": "TAF LGAV 071100Z 0712/0812 03014KT 9999 FEW025"
    },
    {
      "icao": "LGTS",
      "alert": "OK",
      "vis_m": 9999,
      "fzfg": false,
      "metar_trigger": false,
      "taf_trigger": false,
      "metar": "METAR LGTS 071550Z 18006KT 9999 FEW020 14/06 Q1027 NOSIG",
      "taf": "TAF LGTS 071100Z 0712/0812 16013KT 9999 SCT030"
    },
    {
      "icao": "LHBP",
      "alert": "OK",
      "vis_m": 9999,
      "fzfg": false,
      "metar_trigger": false,
      "taf_trigger": false,
      "metar": "METAR LHBP 071600Z 14004KT 120V180 CAVOK 15/M01 Q1026 NOSIG",
      "taf": "TAF LHBP 071115Z 0712/0812 VRB04KT CAVOK"
    },
    {
      "icao": "LHDC",
      "alert": "OK",
      "vis_m": 9999,
      "fzfg": false,
      "metar_trigger": false,
      "taf_trigger": false,
      "metar": "METAR LHDC 071545Z AUTO 23003KT CAVOK 16/M00 Q1026 NOSIG",
      "taf": "TAF LHDC 071415Z 0715/0724 VRB03KT CAVOK"
    },
    {
      "icao": "LIBD",
      "alert": "OK",
      "vis_m": 9999,
      "fzfg": false,
      "metar_trigger": false,
      "taf_trigger": false,
      "metar": "METAR LIBD 071550Z AUTO 09007KT 9999 BKN032/// BKN100/// 14/11 Q1025",
      "taf": "TAF LIBD 071100Z 0712/0812 VRB05KT 6000 SCT020"
    },
    {
      "icao": "LIBG",
      "alert": "OK",
      "vis_m": 8000,
      "fzfg": false,
      "metar_trigger": false,
      "taf_trigger": false,
      "metar": "METAR LIBG 071550Z 06005KT 8000 -RA SCT020 12/12 Q1025",
      "taf": "TAF LIBG 071400Z 0715/0724 VRB05KT CAVOK"
    },
    {
      "icao": "LIBP",
      "alert": "OK",
      "vis_m": 9999,
      "fzfg": false,
      "metar_trigger": false,
      "taf_trigger": false,
      "metar": "METAR LIBP 071550Z AUTO 10005KT 050V130 9999 BKN100/// 14/10 Q1025",
      "taf": "TAF LIBP 071100Z 0712/0812 VRB04KT CAVOK"
    },
    {
      "icao": "LIBR",
      "alert": "OK",
      "vis_m": 9999,
      "fzfg": false,
      "metar_trigger": false,
      "taf_trigger": false,
      "metar": "METAR LIBR 071550Z 09003KT CAVOK 14/12 Q1025",
      "taf": "TAF LIBR 071100Z 0712/0812 VRB04KT 6000 BKN030"
    },
    {
      "icao": "LICA",
      "alert": "OK",
      "vis_m": 9999,
      "fzfg": false,
      "metar_trigger": false,
      "taf_trigger": false,
      "metar": "METAR LICA 071550Z AUTO 07011KT 9999 BKN071/// 16/12 Q1024",
      "taf": "TAF LICA 071100Z 0712/0812 08013KT 9999 SCT040"
    },
    {
      "icao": "LICC",
      "alert": "OK",
      "vis_m": 9999,
      "fzfg": false,
      "metar_trigger": false,
      "taf_trigger": false,
      "metar": "METAR LICC 071550Z 07010KT 9999 FEW010 SCT040 17/15 Q1024",
      "taf": "TAF LICC 071100Z 0712/0812 07012KT 9999 SCT015"
    },
    {
      "icao": "LICJ",
      "alert": "OK",
      "vis_m": 9999,
      "fzfg": false,
      "metar_trigger": false,
      "taf_trigger": false,
      "metar": "METAR LICJ 071550Z 05010KT CAVOK 17/11 Q1022",
      "taf": "TAF LICJ 071100Z 0712/0812 03010KT 9999 FEW040"
    },
    {
      "icao": "LIMC",
      "alert": "OK",
      "vis_m": 9999,
      "fzfg": false,
      "metar_trigger": false,
      "taf_trigger": false,
      "metar": "METAR LIMC 071550Z 16006KT CAVOK 16/03 Q1024 NOSIG",
      "taf": "TAF LIMC 071100Z 0712/0818 VRB05KT CAVOK"
    },
    {
      "icao": "LIME",
      "alert": "OK",
      "vis_m": 9999,
      "fzfg": false,
      "metar_trigger": false,
      "taf_trigger": false,
      "metar": "METAR LIME 071550Z 18004KT 150V230 CAVOK 15/04 Q1024 NOSIG",
      "taf": "TAF LIME 071100Z 0712/0812 VRB05KT CAVOK"
    },
    {
      "icao": "LIMF",
      "alert": "OK",
      "vis_m": 8000,
      "fzfg": false,
      "metar_trigger": false,
      "taf_trigger": false,
      "metar": "METAR LIMF 071550Z VRB02KT 8000 NSC 16/03 Q1024",
      "taf": "TAF LIMF 071100Z 0712/0812 VRB04KT 6000 NSC"
    },
    {
      "icao": "LIMJ",
      "alert": "OK",
      "vis_m": 9999,
      "fzfg": false,
      "metar_trigger": false,
      "taf_trigger": false,
      "metar": "METAR LIMJ 071550Z 26001KT CAVOK 16/10 Q1023",
      "taf": "TAF LIMJ 071100Z 0712/0812 VRB06KT 9999 SCT040"
    },
    {
      "icao": "LIPE",
      "alert": "OK",
      "vis_m": 8000,
      "fzfg": false,
      "metar_trigger": false,
      "taf_trigger": false,
      "metar": "METAR LIPE 071550Z 10004KT 060V140 8000 NSC 15/07 Q1024",
      "taf": "TAF LIPE 071100Z 0712/0812 VRB04KT 5000 BR FEW016"
    },
    {
      "icao": "LIPH",
      "alert": "OK",
      "vis_m": 9999,
      "fzfg": false,
      "metar_trigger": false,
      "taf_trigger": false,
      "metar": "METAR LIPH 071550Z 17005KT 140V230 CAVOK 17/04 Q1024",
      "taf": "TAF LIPH 071100Z 0712/0812 VRB03KT CAVOK"
    },
    {
      "icao": "LIPQ",
      "alert": "OK",
      "vis_m": 9999,
      "fzfg": false,
      "metar_trigger": false,
      "taf_trigger": false,
      "metar": "METAR LIPQ 071550Z AUTO 18005KT 9999 NCD 14/06 Q1025",
      "taf": "TAF LIPQ 071100Z 0712/0812 VRB04KT 7000 NSC"
    },
    {
      "icao": "LIPR",
      "alert": "OK",
      "vis_m": 8000,
      "fzfg": false,
      "metar_trigger": false,
      "taf_trigger": false,
      "metar": "METAR LIPR 071550Z 09005KT 050V110 8000 NSC 12/09 Q1025",
      "taf": "TAF LIPR 071100Z 0712/0812 VRB06KT CAVOK"
    },
    {
      "icao": "LIPX",
      "alert": "OK",
      "vis_m": 9999,
      "fzfg": false,
      "metar_trigger": false,
      "taf_trigger": false,
      "metar": "METAR LIPX 071550Z 14005KT 100V170 CAVOK 17/04 Q1024",
      "taf": "TAF LIPX 071100Z 0712/0812 VRB05KT CAVOK"
    },
    {
      "icao": "LIPY",
      "alert": "OK",
      "vis_m": 9999,
      "fzfg": false,
      "metar_trigger": false,
      "taf_trigger": false,
      "metar": "METAR LIPY 071550Z AUTO 07007KT 9999 NCD 14/10 Q1025",
      "taf": ""
    },
    {
      "icao": "LIPZ",
      "alert": "OK",
      "vis_m": 9999,
      "fzfg": false,
      "metar_trigger": false,
      "taf_trigger": false,
      "metar": "METAR LIPZ 071550Z 17004KT 140V200 CAVOK 15/08 Q1025 NOSIG",
      "taf": "TAF LIPZ 071100Z 0712/0818 VRB04KT 8000 NSC"
    },
    {
      "icao": "LIRF",
      "alert": "OK",
      "vis_m": 9999,
      "fzfg": false,
      "metar_trigger": false,
      "taf_trigger": false,
      "metar": "METAR LIRF 071550Z 19003KT 150V230 CAVOK 17/09 Q1024 NOSIG",
      "taf": "TAF LIRF 071100Z 0712/0818 17010KT CAVOK"
    },
    {
      "icao": "LIRN",
      "alert": "OK",
      "vis_m": 9999,
      "fzfg": false,
      "metar_trigger": false,
      "taf_trigger": false,
      "metar": "METAR LIRN 071550Z 19005KT CAVOK 16/06 Q1024 NOSIG",
      "taf": "TAF LIRN 071100Z 0712/0812 VRB05KT 9999 SCT050"
    },
    {
      "icao": "LIRP",
      "alert": "OK",
      "vis_m": 9999,
      "fzfg": false,
      "metar_trigger": false,
      "taf_trigger": false,
      "metar": "METAR LIRP 071545Z 27007KT 9999 SCT040 17/10 Q1024 NOSIG",
      "taf": "TAF LIRP 071100Z 0712/0812 10007KT 9999 BKN050"
    },
    {
      "icao": "LIRZ",
      "alert": "OK",
      "vis_m": 9999,
      "fzfg": false,
      "metar_trigger": false,
      "taf_trigger": false,
      "metar": "METAR LIRZ 071550Z AUTO 22004KT 9999 BKN068/// 15/09 Q1024",
      "taf": "TAF LIRZ 071100Z 0712/0812 01006KT CAVOK"
    },
    {
      "icao": "LJLJ",
      "alert": "OK",
      "vis_m": 9999,
      "fzfg": false,
      "metar_trigger": false,
      "taf_trigger": false,
      "metar": "METAR LJLJ 071600Z VRB02KT CAVOK 16/06 Q1023 NOSIG",
      "taf": "TAF LJLJ 071100Z 0712/0812 12006KT CAVOK"
    },
    {
      "icao": "LKMT",
      "alert": "OK",
      "vis_m": 9999,
      "fzfg": false,
      "metar_trigger": false,
      "taf_trigger": false,
      "metar": "METAR LKMT 071600Z 34003KT CAVOK 14/02 Q1025 NOSIG",
      "taf": "TAF LKMT 071100Z 0712/0812 VRB02KT CAVOK"
    },
    {
      "icao": "LKPR",
      "alert": "OK",
      "vis_m": 9999,
      "fzfg": false,
      "metar_trigger": false,
      "taf_trigger": false,
      "metar": "METAR LKPR 071600Z 07009KT CAVOK 13/03 Q1024 NOSIG",
      "taf": "TAF LKPR 071400Z 0715/0821 11006KT CAVOK"
    },
    {
      "icao": "LLBG",
      "alert": "OK",
      "vis_m": 9999,
      "fzfg": false,
      "metar_trigger": false,
      "taf_trigger": false,
      "metar": "METAR LLBG 071550Z 35011KT 9999 FEW035 17/08 Q1018 NOSIG RMK BKN100",
      "taf": "TAF LLBG 071100Z 0712/0812 30012KT 9999 SCT035 TX18/0712Z TN08/0804Z"
    },
    {
      "icao": "LMML",
      "alert": "OK",
      "vis_m": 9999,
      "fzfg": false,
      "metar_trigger": false,
      "taf_trigger": false,
      "metar": "METAR LMML 071545Z 07013KT 9999 BKN010 16/14 Q1021 NOSIG",
      "taf": "TAF LMML 071100Z 0712/0812 10015KT 9999 SCT015"
    },
    {
      "icao": "LOWW",
      "alert": "OK",
      "vis_m": 9999,
      "fzfg": false,
      "metar_trigger": false,
      "taf_trigger": false,
      "metar": "METAR LOWW 071550Z 14010KT CAVOK 15/01 Q1025 NOSIG",
      "taf": "TAF LOWW 071415Z 0715/0821 14007KT CAVOK TX16/0814Z TN03/0805Z"
    },
    {
      "icao": "LPFR",
      "alert": "OK",
      "vis_m": 9999,
      "fzfg": false,
      "metar_trigger": false,
      "taf_trigger": false,
      "metar": "METAR LPFR 071600Z 20005KT 170V240 9999 FEW045 15/10 Q1016",
      "taf": "TAF LPFR 071100Z 0712/0812 33005KT 9999 SCT045"
    },
    {
      "icao": "LPMA",
      "alert": "OK",
      "vis_m": 9999,
      "fzfg": false,
      "metar_trigger": false,
      "taf_trigger": false,
      "metar": "METAR LPMA 071600Z 01014KT 340V040 9999 SCT015 SCT030 15/07 Q1024",
      "taf": "TAF LPMA 071100Z 0712/0812 02013KT 9999 SCT015 SCT030"
    },
    {
      "icao": "LPPR",
      "alert": "OK",
      "vis_m": 9999,
      "fzfg": false,
      "metar_trigger": false,
      "taf_trigger": false,
      "metar": "METAR LPPR 071600Z 31010KT 270V330 9999 FEW025 14/07 Q1018",
      "taf": "TAF LPPR 071100Z 0712/0812 03005KT CAVOK"
    },
    {
      "icao": "LPPS",
      "alert": "OK",
      "vis_m": 9999,
      "fzfg": false,
      "metar_trigger": false,
      "taf_trigger": false,
      "metar": "METAR LPPS 071600Z 02015KT 9999 FEW015 BKN030 15/08 Q1024",
      "taf": "TAF LPPS 071100Z 0712/0818 03013KT 9999 FEW015 BKN030"
    },
    {
      "icao": "LPPT",
      "alert": "OK",
      "vis_m": 9999,
      "fzfg": false,
      "metar_trigger": false,
      "taf_trigger": false,
      "metar": "METAR LPPT 071600Z 33010KT 290V350 9999 FEW030 16/09 Q1017",
      "taf": "TAF LPPT 071100Z 0712/0818 33012KT 9999 FEW030"
    },
    {
      "icao": "LQBK",
      "alert": "OK",
      "vis_m": 9999,
      "fzfg": false,
      "metar_trigger": false,
      "taf_trigger": false,
      "metar": "METAR LQBK 071600Z 32004KT CAVOK 16/03 Q1024 NOSIG",
      "taf": "TAF LQBK 071100Z 0712/0812 03005KT CAVOK TX18/0714Z TN00/0805Z"
    },
    {
      "icao": "LQSA",
      "alert": "OK",
      "vis_m": 9999,
      "fzfg": false,
      "metar_trigger": false,
      "taf_trigger": false,
      "metar": "METAR LQSA 071600Z 29004KT 9999 FEW060 16/M03 Q1023 NOSIG",
      "taf": "TAF LQSA 071100Z 0712/0812 VRB02KT CAVOK TX19/0714Z TNM00/0805Z"
    },
    {
      "icao": "LQTZ",
      "alert": "OK",
      "vis_m": 9999,
      "fzfg": false,
      "metar_trigger": false,
      "taf_trigger": false,
      "metar": "METAR LQTZ 071600Z 08006KT 030V120 CAVOK 16/02 Q1024",
      "taf": "TAF LQTZ 071100Z 0712/0812 VRB02KT CAVOK TX17/0714Z TNM00/0805Z"
    },
    {
      "icao": "LRBC",
      "alert": "OK",
      "vis_m": 9999,
      "fzfg": false,
      "metar_trigger": false,
      "taf_trigger": false,
      "metar": "METAR LRBC 071600Z 17007KT CAVOK 09/M02 Q1027",
      "taf": "TAF LRBC 071400Z 0715/0724 VRB04KT CAVOK"
    },
    {
      "icao": "LRBS",
      "alert": "OK",
      "vis_m": 9999,
      "fzfg": false,
      "metar_trigger": false,
      "taf_trigger": false,
      "metar": "METAR LRBS 071600Z 12006KT CAVOK 11/01 Q1028 NOSIG",
      "taf": "TAF LRBS 071100Z 0712/0812 VRB04KT CAVOK"
    },
    {
      "icao": "LRBV",
      "alert": "OK",
      "vis_m": 9999,
      "fzfg": false,
      "metar_trigger": false,
      "taf_trigger": false,
      "metar": "METAR LRBV 071600Z 06002KT CAVOK 12/M06 Q1025",
      "taf": "TAF LRBV 071400Z 0715/0724 VRB04KT CAVOK"
    },
    {
      "icao": "LRCL",
      "alert": "OK",
      "vis_m": 9999,
      "fzfg": false,
      "metar_trigger": false,
      "taf_trigger": false,
      "metar": "METAR LRCL 071600Z 03002KT CAVOK 14/M05 Q1025",
      "taf": "TAF LRCL 071400Z 0715/0724 VRB04KT CAVOK"
    },
    {
      "icao": "LRCV",
      "alert": "OK",
      "vis_m": 9999,
      "fzfg": false,
      "metar_trigger": false,
      "taf_trigger": false,
      "metar": "METAR LRCV 071600Z 12004KT CAVOK 12/02 Q1027",
      "taf": "TAF LRCV 071400Z 0715/0724 10005KT CAVOK"
    },
    {
      "icao": "LRIA",
      "alert": "OK",
      "vis_m": 9999,
      "fzfg": false,
      "metar_trigger": false,
      "taf_trigger": false,
      "metar": "METAR LRIA 071600Z 02005KT CAVOK 10/M02 Q1028",
      "taf": "TAF LRIA 071400Z 0715/0724 VRB04KT CAVOK"
    },
    {
      "icao": "LROP",
      "alert": "OK",
      "vis_m": 9999,
      "fzfg": false,
      "metar_trigger": false,
      "taf_trigger": false,
      "metar": "METAR LROP 071600Z 15006KT CAVOK 11/M03 Q1028 NOSIG",
      "taf": "TAF LROP 071100Z 0712/0812 VRB04KT CAVOK"
    },
    {
      "icao": "LRSB",
      "alert": "OK",
      "vis_m": 9999,
      "fzfg": false,
      "metar_trigger": false,
      "taf_trigger": false,
      "metar": "METAR LRSB 071600Z 02004KT CAVOK 13/M04 Q1025 NOSIG",
      "taf": "TAF LRSB 071100Z 0712/0812 VRB04KT CAVOK"
    },
    {
      "icao": "LRSM",
      "alert": "OK",
      "vis_m": 9999,
      "fzfg": false,
      "metar_trigger": false,
      "taf_trigger": false,
      "metar": "METAR LRSM 071600Z AUTO 32004KT 9999 NCD 14/M01 Q1026",
      "taf": "TAF LRSM 070500Z 0706/0715 VRB04KT CAVOK"
    },
    {
      "icao": "LRSV",
      "alert": "OK",
      "vis_m": 9999,
      "fzfg": false,
      "metar_trigger": false,
      "taf_trigger": false,
      "metar": "METAR LRSV 071600Z 04005KT CAVOK 08/M01 Q1027",
      "taf": "TAF LRSV 071400Z 0715/0724 VRB04KT CAVOK"
    },
    {
      "icao": "LRTM",
      "alert": "OK",
      "vis_m": 9999,
      "fzfg": false,
      "metar_trigger": false,
      "taf_trigger": false,
      "metar": "METAR LRTM 071600Z VRB02KT CAVOK 14/M05 Q1025",
      "taf": "TAF LRTM 071400Z 0715/0724 VRB04KT CAVOK"
    },
    {
      "icao": "LRTR",
      "alert": "OK",
      "vis_m": 9999,
      "fzfg": false,
      "metar_trigger": false,
      "taf_trigger": false,
      "metar": "METAR LRTR 071600Z 04003KT CAVOK 15/03 Q1025 NOSIG",
      "taf": "TAF LRTR 071100Z 0712/0812 VRB04KT CAVOK"
    },
    {
      "icao": "LTAC",
      "alert": "OK",
      "vis_m": 9999,
      "fzfg": false,
      "metar_trigger": false,
      "taf_trigger": false,
      "metar": "METAR LTAC 071550Z 05011KT 9999 FEW040 03/M08 Q1024 NOSIG RMK RWY21C 04009KT RWY03L 05009KT RWY21R 03009KT RWY03R 03011KT RWY21L 04007KT",
      "taf": "TAF LTAC 071040Z 0712/0812 VRB02KT 9999 SCT040"
    },
    {
      "icao": "LTFM",
      "alert": "OK",
      "vis_m": 9999,
      "fzfg": false,
      "metar_trigger": false,
      "taf_trigger": false,
      "metar": "METAR LTFM 071550Z 07010KT 9999 FEW022 07/01 Q1029 NOSIG RMK RWY17L 07008KT RWY34L 06009KT RWY16R 07010KT RWY36 06010KT RWY18 07009KT",
      "taf": "TAF LTFM 071040Z 0712/0818 07009KT 9999 SCT022"
    },
    {
      "icao": "LUKK",
      "alert": "OK",
      "vis_m": 9999,
      "fzfg": false,
      "metar_trigger": false,
      "taf_trigger": false,
      "metar": "METAR LUKK 071600Z 14002KT CAVOK 10/M02 Q1028 NOSIG",
      "taf": "TAF LUKK 071103Z 0712/0812 VRB06KT 9999 SCT040"
    },
    {
      "icao": "LWOH",
      "alert": "OK",
      "vis_m": 9999,
      "fzfg": false,
      "metar_trigger": false,
      "taf_trigger": false,
      "metar": "METAR LWOH 071550Z 12001KT 9999 FEW040 13/01 Q1024",
      "taf": "TAF LWOH 071430Z 0715/0815 18008KT CAVOK"
    },
    {
      "icao": "LWSK",
      "alert": "OK",
      "vis_m": 9999,
      "fzfg": false,
      "metar_trigger": false,
      "taf_trigger": false,
      "metar": "METAR LWSK 071550Z 15008KT CAVOK 16/05 Q1025 NOSIG",
      "taf": "TAF LWSK 071430Z 0715/0815 VRB02KT CAVOK"
    },
    {
      "icao": "LYBE",
      "alert": "OK",
      "vis_m": 9999,
      "fzfg": false,
      "metar_trigger": false,
      "taf_trigger": false,
      "metar": "METAR LYBE 071600Z 07005KT CAVOK 17/02 Q1024 NOSIG",
      "taf": "TAF LYBE 071100Z 0712/0812 11008KT CAVOK TX18/0713Z TN01/0805Z"
    },
    {
      "icao": "LYNI",
      "alert": "OK",
      "vis_m": 9999,
      "fzfg": false,
      "metar_trigger": false,
      "taf_trigger": false,
      "metar": "METAR LYNI 071600Z 06008KT CAVOK 17/02 Q1024 NOSIG",
      "taf": "TAF LYNI 071100Z 0712/0812 06006KT CAVOK TX18/0714Z TN02/0805Z"
    },
    {
      "icao": "LYPG",
      "alert": "OK",
      "vis_m": 9999,
      "fzfg": false,
      "metar_trigger": false,
      "taf_trigger": false,
      "metar": "METAR LYPG 071600Z 18004KT CAVOK 17/03 Q1024 NOSIG",
      "taf": "TAF LYPG 071100Z 0712/0812 16005KT CAVOK TX20/0713Z TN05/0805Z"
    },
    {
      "icao": "LZIB",
      "alert": "OK",
      "vis_m": 9999,
      "fzfg": false,
      "metar_trigger": false,
      "taf_trigger": false,
      "metar": "METAR LZIB 071600Z 10007KT CAVOK 15/M00 Q1025 NOSIG",
      "taf": "TAF LZIB 071115Z 0712/0812 15010KT CAVOK"
    },
    {
      "icao": "LZKZ",
      "alert": "OK",
      "vis_m": 9999,
      "fzfg": false,
      "metar_trigger": false,
      "taf_trigger": false,
      "metar": "METAR LZKZ 071600Z 13003KT CAVOK 13/01 Q1026 NOSIG",
      "taf": "TAF LZKZ 071115Z 0712/0812 VRB02KT CAVOK"
    },
    {
      "icao": "LZTT",
      "alert": "OK",
      "vis_m": 9999,
      "fzfg": false,
      "metar_trigger": false,
      "taf_trigger": false,
      "metar": "METAR LZTT 071600Z 06006KT CAVOK 12/M06 Q1025 NOSIG",
      "taf": "TAF LZTT 071115Z 0712/0812 VRB02KT CAVOK"
    },
    {
      "icao": "OEJN",
      "alert": "OK",
      "vis_m": 9999,
      "fzfg": false,
      "metar_trigger": false,
      "taf_trigger": false,
      "metar": "METAR OEJN 071600Z 33013KT 9999 FEW040 26/14 Q1011 NOSIG",
      "taf": "TAF OEJN 071100Z 0712/0818 30012KT 7000 SCT040"
    },
    {
      "icao": "OEMA",
      "alert": "OK",
      "vis_m": 9999,
      "fzfg": false,
      "metar_trigger": false,
      "taf_trigger": false,
      "metar": "METAR OEMA 071600Z 22012KT 9999 FEW040 27/01 Q1013 NOSIG",
      "taf": "TAF OEMA 071100Z 0712/0818 25013KT 7000 SCT040"
    },
    {
      "icao": "OJAI",
      "alert": "OK",
      "vis_m": 4000,
      "fzfg": false,
      "metar_trigger": false,
      "taf_trigger": false,
      "metar": "METAR OJAI 071600Z 30012KT 4000 HZ BKN030 11/05 Q1018 NOSIG",
      "taf": "TAF OJAI 071100Z 0712/0818 30010KT 4000 HZ SCT035"
    },
    {
      "icao": "OMAA",
      "alert": "OK",
      "vis_m": null,
      "fzfg": false,
      "metar_trigger": false,
      "taf_trigger": false,
      "metar": "",
      "taf": ""
    },
    {
      "icao": "OMDB",
      "alert": "OK",
      "vis_m": null,
      "fzfg": false,
      "metar_trigger": false,
      "taf_trigger": false,
      "metar": "",
      "taf": ""
    },
    {
      "icao": "UAAA",
      "alert": "OK",
      "vis_m": 3400,
      "fzfg": false,
      "metar_trigger": false,
      "taf_trigger": false,
      "metar": "METAR UAAA 071600Z 22001MPS 3400 BR FU FEW200 05/02 Q1021 NOSIG",
      "taf": "TAF UAAA 071105Z 0712/0812 19003MPS 9999 SCT050 BKN100 TX14/0809Z TN00/0801Z"
    },
    {
      "icao": "UBBB",
      "alert": "OK",
      "vis_m": 9999,
      "fzfg": false,
      "metar_trigger": false,
      "taf_trigger": false,
      "metar": "METAR UBBB 071600Z 35012KT CAVOK 06/02 Q1025 NOSIG",
      "taf": "TAF UBBB 071057Z 0712/0812 33010KT 9999 BKN012 BKN030 TX08/0712Z TN05/0801Z"
    },
    {
      "icao": "UDSG",
      "alert": "OK",
      "vis_m": 9999,
      "fzfg": false,
      "metar_trigger": false,
      "taf_trigger": false,
      "metar": "METAR UDSG 071600Z 34005KT 9999 BKN040 M01/M06 Q1019 NOSIG",
      "taf": "TAF UDSG 071058Z 0712/0812 VRB06KT 9999 BKN040"
    },
    {
      "icao": "UDYZ",
      "alert": "OK",
      "vis_m": 9999,
      "fzfg": false,
      "metar_trigger": false,
      "taf_trigger": false,
      "metar": "METAR UDYZ 071600Z 26010KT 9999 BKN043 03/01 Q1019 NOSIG",
      "taf": "TAF UDYZ 071100Z 0712/0812 23006KT 9999 BKN020"
    },
    {
      "icao": "UGKO",
      "alert": "OK",
      "vis_m": 9999,
      "fzfg": false,
      "metar_trigger": false,
      "taf_trigger": false,
      "metar": "METAR UGKO 071600Z 25005KT 9999 SCT022 BKN033 05/04 Q1027 NOSIG",
      "taf": "TAF UGKO 071100Z 0712/0812 VRB02KT 9000 SCT021 BKN033 TX08/0811Z TN03/0803Z"
    }
  ]
}