{
  "ts_utc": "2026-02-05T13:35:21Z",
  "threshold_m": 150,
  "source": "stations_override.txt (ICAO list) + aviationweather.gov (METAR/TAF raw)",
  "station_count": 159,
  "stations": [
    {
      "icao": "BIKF",
      "alert": "OK",
      "vis_m": 9999,
      "fzfg": false,
      "metar_trigger": false,
      "taf_trigger": false,
      "metar": "METAR BIKF 051330Z 05005KT CAVOK M00/M05 Q1006",
      "taf": "TAF BIKF 051035Z 0512/0612 05008KT CAVOK TX02/0515Z TNM01/0603Z"
    },
    {
      "icao": "BKPR",
      "alert": "OK",
      "vis_m": 9999,
      "fzfg": false,
      "metar_trigger": false,
      "taf_trigger": false,
      "metar": "METAR BKPR 051330Z 30003KT 250V330 9999 FEW035 BKN060 12/05 Q0996 NOSIG",
      "taf": "TAF BKPR 051130Z 0512/0612 19007KT 9999 SCT050"
    },
    {
      "icao": "EBCI",
      "alert": "OK",
      "vis_m": 9999,
      "fzfg": false,
      "metar_trigger": false,
      "taf_trigger": false,
      "metar": "METAR EBCI 051320Z 16008KT 9999 SCT012 BKN014 07/04 Q0987 TEMPO BKN015",
      "taf": "TAF EBCI 051101Z 0512/0618 14007KT 9999 -RA BKN018"
    },
    {
      "icao": "EDDB",
      "alert": "OK",
      "vis_m": 3700,
      "fzfg": false,
      "metar_trigger": false,
      "taf_trigger": false,
      "metar": "METAR EDDB 051320Z AUTO 09008KT 3700 BR OVC004 M02/M03 Q0997 TEMPO 5000 -FZDZ OVC005",
      "taf": "TAF EDDB 051100Z 0512/0612 08007KT 5000 BR OVC004"
    },
    {
      "icao": "EDDH",
      "alert": "OK",
      "vis_m": 9999,
      "fzfg": false,
      "metar_trigger": false,
      "taf_trigger": false,
      "metar": "METAR EDDH 051320Z AUTO 09011KT 9999 OVC010 M03/M05 Q0997 TEMPO BKN008",
      "taf": "TAF EDDH 051100Z 0512/0618 08009KT 8000 OVC007"
    },
    {
      "icao": "EDDK",
      "alert": "OK",
      "vis_m": 9999,
      "fzfg": false,
      "metar_trigger": false,
      "taf_trigger": false,
      "metar": "METAR EDDK 051320Z AUTO 13012KT 090V150 9999 SCT017 07/02 Q0990 NOSIG",
      "taf": "TAF EDDK 051100Z 0512/0618 11009KT 9999 SCT030"
    },
    {
      "icao": "EDDN",
      "alert": "OK",
      "vis_m": 9999,
      "fzfg": false,
      "metar_trigger": false,
      "taf_trigger": false,
      "metar": "METAR EDDN 051320Z AUTO 14003KT 120V180 9999 OVC012 03/M00 Q0993 NOSIG",
      "taf": "TAF EDDN 051100Z 0512/0612 VRB03KT 9999 BKN007"
    },
    {
      "icao": "EDDS",
      "alert": "OK",
      "vis_m": 9999,
      "fzfg": false,
      "metar_trigger": false,
      "taf_trigger": false,
      "metar": "METAR EDDS 051320Z AUTO 07005KT CAVOK 05/M00 Q0991 NOSIG",
      "taf": "TAF EDDS 051100Z 0512/0612 10004KT 3000 BR BKN002"
    },
    {
      "icao": "EDFH",
      "alert": "OK",
      "vis_m": 300,
      "fzfg": true,
      "metar_trigger": false,
      "taf_trigger": false,
      "metar": "METAR EDFH 051320Z 14015KT 0300 R21/0375N FG VV/// 01/01 Q0990",
      "taf": "TAF EDFH 051100Z 0512/0612 14012KT 0200 FZFG VV001"
    },
    {
      "icao": "EDJA",
      "alert": "OK",
      "vis_m": 9999,
      "fzfg": false,
      "metar_trigger": false,
      "taf_trigger": false,
      "metar": "METAR EDJA 051320Z VRB03KT CAVOK 07/00 Q0991",
      "taf": "TAF EDJA 051100Z 0512/0521 20005KT CAVOK"
    },
    {
      "icao": "EDLW",
      "alert": "OK",
      "vis_m": 9999,
      "fzfg": false,
      "metar_trigger": false,
      "taf_trigger": false,
      "metar": "METAR EDLW 051320Z 02009KT CAVOK 04/01 Q0990",
      "taf": "TAF EDLW 051100Z 0512/0612 07007KT 9999 SCT025"
    },
    {
      "icao": "EDNY",
      "alert": "OK",
      "vis_m": 9999,
      "fzfg": false,
      "metar_trigger": false,
      "taf_trigger": false,
      "metar": "METAR EDNY 051320Z 22006KT 190V250 9999 R24///// NSC 05/01 Q0992",
      "taf": "TAF EDNY 051100Z 0512/0521 VRB03KT 8000 BKN012"
    },
    {
      "icao": "EDSB",
      "alert": "OK",
      "vis_m": 9999,
      "fzfg": false,
      "metar_trigger": false,
      "taf_trigger": false,
      "metar": "METAR EDSB 051320Z 01009KT CAVOK 05/02 Q0991",
      "taf": "TAF EDSB 051100Z 0512/0612 02004KT 8000 OVC007"
    },
    {
      "icao": "EETN",
      "alert": "OK",
      "vis_m": 9999,
      "fzfg": false,
      "metar_trigger": false,
      "taf_trigger": false,
      "metar": "METAR EETN 051320Z 08007KT CAVOK M11/M14 Q1018 NOSIG",
      "taf": "TAF EETN 051130Z 0512/0612 10010KT 9999 SCT030"
    },
    {
      "icao": "EFTU",
      "alert": "OK",
      "vis_m": 8000,
      "fzfg": false,
      "metar_trigger": false,
      "taf_trigger": false,
      "metar": "METAR EFTU 051320Z AUTO 08006KT 8000 -SHSN OVC010 M11/M12 Q1019",
      "taf": ""
    },
    {
      "icao": "EGBB",
      "alert": "OK",
      "vis_m": 6000,
      "fzfg": false,
      "metar_trigger": false,
      "taf_trigger": false,
      "metar": "METAR EGBB 051320Z 09012KT 6000 -RA BKN007 05/04 Q0983",
      "taf": "TAF EGBB 051054Z 0512/0612 09012KT 9999 -RA BKN012"
    },
    {
      "icao": "EGGP",
      "alert": "OK",
      "vis_m": 9999,
      "fzfg": false,
      "metar_trigger": false,
      "taf_trigger": false,
      "metar": "METAR EGGP 051320Z 09022G35KT 9999 -RA SCT019 BKN030 04/01 Q0984",
      "taf": "TAF EGGP 051058Z 0512/0612 09020G30KT 9999 SCT017"
    },
    {
      "icao": "EGGW",
      "alert": "OK",
      "vis_m": 3700,
      "fzfg": false,
      "metar_trigger": false,
      "taf_trigger": false,
      "metar": "METAR EGGW 051320Z AUTO 10013KT 3700 RA OVC003 05/05 Q0983",
      "taf": "TAF EGGW 051100Z 0512/0612 10013KT 7000 -RA SCT005 BKN010"
    },
    {
      "icao": "EGKK",
      "alert": "OK",
      "vis_m": 7000,
      "fzfg": false,
      "metar_trigger": false,
      "taf_trigger": false,
      "metar": "METAR EGKK 051320Z 11007KT 7000 -RA BKN005 09/09 Q0982",
      "taf": "TAF EGKK 051105Z 0512/0618 09010KT 9999 SCT007 BKN020"
    },
    {
      "icao": "EGNM",
      "alert": "OK",
      "vis_m": 700,
      "fzfg": false,
      "metar_trigger": false,
      "taf_trigger": false,
      "metar": "METAR EGNM 051320Z 08018G32KT 0700 R14/P1500N -RA FG OVC002 02/02 Q0987",
      "taf": ""
    },
    {
      "icao": "EGPD",
      "alert": "OK",
      "vis_m": 7000,
      "fzfg": false,
      "metar_trigger": false,
      "taf_trigger": false,
      "metar": "METAR EGPD 051320Z COR AUTO 11015G26KT 7000 -RA OVC010 03/01 Q0998 NOSIG",
      "taf": "TAF EGPD 051054Z 0512/0612 09015KT 9999 BKN016"
    },
    {
      "icao": "EGPF",
      "alert": "OK",
      "vis_m": 9999,
      "fzfg": false,
      "metar_trigger": false,
      "taf_trigger": false,
      "metar": "METAR EGPF 051320Z AUTO 08019G32KT 9999 BKN021 OVC046 06/02 Q0991",
      "taf": "TAF EGPF 051107Z 0512/0612 08018G30KT 9999 SCT020"
    },
    {
      "icao": "EHBK",
      "alert": "OK",
      "vis_m": 9999,
      "fzfg": false,
      "metar_trigger": false,
      "taf_trigger": false,
      "metar": "METAR EHBK 051325Z AUTO 08006KT 050V120 9999 FEW025 SCT045 08/04 Q0988 NOSIG",
      "taf": "TAF EHBK 051111Z 0512/0618 10008KT 9999 BKN045"
    },
    {
      "icao": "EHEH",
      "alert": "OK",
      "vis_m": null,
      "fzfg": false,
      "metar_trigger": false,
      "taf_trigger": false,
      "metar": "",
      "taf": "TAF EHEH 051134Z 0512/0618 10008KT CAVOK"
    },
    {
      "icao": "EKBI",
      "alert": "OK",
      "vis_m": 8000,
      "fzfg": false,
      "metar_trigger": false,
      "taf_trigger": false,
      "metar": "METAR EKBI 051319Z 07018G28KT 8000 OVC006 M02/M03 Q1001",
      "taf": ""
    },
    {
      "icao": "EKCH",
      "alert": "OK",
      "vis_m": 1500,
      "fzfg": false,
      "metar_trigger": false,
      "taf_trigger": false,
      "metar": "METAR EKCH 051320Z 07017KT 1500 -SN BKN005 M01/M02 Q1003 TEMPO 1200 SN",
      "taf": "TAF EKCH 051127Z 0512/0612 08016G28KT 9999 BKN010"
    },
    {
      "icao": "ENAL",
      "alert": "OK",
      "vis_m": 9999,
      "fzfg": false,
      "metar_trigger": false,
      "taf_trigger": false,
      "metar": "METAR ENAL 051320Z 06009KT CAVOK M01/M10 Q1010",
      "taf": "TAF ENAL 051100Z 0512/0521 06008KT CAVOK"
    },
    {
      "icao": "ENBR",
      "alert": "OK",
      "vis_m": 9999,
      "fzfg": false,
      "metar_trigger": false,
      "taf_trigger": false,
      "metar": "METAR ENBR 051320Z 00000KT CAVOK 00/M12 Q1008 NOSIG RMK WIND 1200FT VRB02KT",
      "taf": "TAF ENBR 051100Z 0512/0612 04005KT CAVOK"
    },
    {
      "icao": "ENGM",
      "alert": "OK",
      "vis_m": 9999,
      "fzfg": false,
      "metar_trigger": false,
      "taf_trigger": false,
      "metar": "METAR ENGM 051320Z 04009KT 9999 VCSH SCT019 BKN022 M09/M15 Q1015",
      "taf": "TAF ENGM 051100Z 0512/0612 02008KT 9999 SCT025"
    },
    {
      "icao": "ENHD",
      "alert": "OK",
      "vis_m": 9999,
      "fzfg": false,
      "metar_trigger": false,
      "taf_trigger": false,
      "metar": "METAR ENHD 051320Z 07005KT 040V110 CAVOK 02/M13 Q1008",
      "taf": "TAF ENHD 051100Z 0512/0521 06008KT CAVOK"
    },
    {
      "icao": "ENTC",
      "alert": "OK",
      "vis_m": 1600,
      "fzfg": false,
      "metar_trigger": false,
      "taf_trigger": false,
      "metar": "METAR ENTC 051320Z VRB02KT 1600 -SHSN VV008 M00/M01 Q1015 TEMPO 9999 -SN BKN016 RMK WIND 2600FT 30013KT",
      "taf": ""
    },
    {
      "icao": "ENTO",
      "alert": "OK",
      "vis_m": 9000,
      "fzfg": false,
      "metar_trigger": false,
      "taf_trigger": false,
      "metar": "METAR ENTO 051320Z 02015KT 9000 -SN OVC022 M07/M11 Q1014 NOSIG",
      "taf": "TAF ENTO 051100Z 0512/0612 03012KT 8000 -SN BKN025"
    },
    {
      "icao": "ENVA",
      "alert": "OK",
      "vis_m": 9999,
      "fzfg": false,
      "metar_trigger": false,
      "taf_trigger": false,
      "metar": "METAR ENVA 051320Z 10008KT CAVOK M07/M17 Q1014 NOSIG RMK WIND 670FT 15014KT",
      "taf": "TAF ENVA 051100Z 0512/0612 10008KT CAVOK"
    },
    {
      "icao": "ENZV",
      "alert": "OK",
      "vis_m": 9999,
      "fzfg": false,
      "metar_trigger": false,
      "taf_trigger": false,
      "metar": "METAR ENZV 051320Z 08009KT CAVOK 01/M12 Q1008 NOSIG",
      "taf": "TAF ENZV 051100Z 0512/0612 08008KT CAVOK"
    },
    {
      "icao": "EPGD",
      "alert": "OK",
      "vis_m": 3500,
      "fzfg": false,
      "metar_trigger": false,
      "taf_trigger": false,
      "metar": "METAR EPGD 051330Z 09007KT 3500 -FZDZ BR OVC003 M05/M06 Q1003",
      "taf": ""
    },
    {
      "icao": "EPKK",
      "alert": "OK",
      "vis_m": 7000,
      "fzfg": false,
      "metar_trigger": false,
      "taf_trigger": false,
      "metar": "METAR EPKK 051330Z 07010KT 7000 FEW011 03/00 Q0998",
      "taf": "TAF EPKK 051130Z 0512/0612 06008KT 4500 BR OVC007"
    },
    {
      "icao": "EPKT",
      "alert": "OK",
      "vis_m": 9999,
      "fzfg": false,
      "metar_trigger": false,
      "taf_trigger": false,
      "metar": "METAR EPKT 051330Z 06007KT CAVOK 03/00 Q0997",
      "taf": "TAF EPKT 051130Z 0512/0612 09006KT 7000 BKN030"
    },
    {
      "icao": "EPLB",
      "alert": "OK",
      "vis_m": 4500,
      "fzfg": false,
      "metar_trigger": false,
      "taf_trigger": false,
      "metar": "METAR EPLB 051330Z 10011KT 4500 BR OVC003 M00/M00 Q1002",
      "taf": "TAF EPLB 051130Z 0512/0612 10012KT 3000 BR OVC002"
    },
    {
      "icao": "EPMO",
      "alert": "OK",
      "vis_m": 7000,
      "fzfg": false,
      "metar_trigger": false,
      "taf_trigger": false,
      "metar": "METAR EPMO 051330Z 07013KT 7000 OVC007 M02/M03 Q1002",
      "taf": "TAF EPMO 051130Z 0512/0612 09011KT 9000 OVC008"
    },
    {
      "icao": "EPPO",
      "alert": "OK",
      "vis_m": 4800,
      "fzfg": false,
      "metar_trigger": false,
      "taf_trigger": false,
      "metar": "METAR EPPO 051330Z 09010KT 4800 BR OVC006 M02/M03 Q0999",
      "taf": "TAF EPPO 051130Z 0512/0612 10008KT 6000 OVC006"
    },
    {
      "icao": "EPRA",
      "alert": "OK",
      "vis_m": 3200,
      "fzfg": false,
      "metar_trigger": false,
      "taf_trigger": false,
      "metar": "METAR EPRA 051330Z 09011KT 3200 BR OVC003 M00/M01 Q1001",
      "taf": ""
    },
    {
      "icao": "EPRZ",
      "alert": "OK",
      "vis_m": 9999,
      "fzfg": false,
      "metar_trigger": false,
      "taf_trigger": false,
      "metar": "METAR EPRZ 051330Z 09013KT 9999 OVC005 02/01 Q1000",
      "taf": "TAF EPRZ 051130Z 0512/0612 09012KT 8000 OVC004"
    },
    {
      "icao": "EPSC",
      "alert": "OK",
      "vis_m": 6000,
      "fzfg": false,
      "metar_trigger": false,
      "taf_trigger": false,
      "metar": "METAR EPSC 051330Z 07005KT 6000 -FZRA OVC008 M03/M04 Q1000",
      "taf": "TAF EPSC 051130Z 0512/0612 08008KT 8000 OVC010"
    },
    {
      "icao": "EPSY",
      "alert": "OK",
      "vis_m": 9000,
      "fzfg": false,
      "metar_trigger": false,
      "taf_trigger": false,
      "metar": "METAR EPSY 051330Z 09006KT 040V140 9000 OVC009 M04/M06 Q1004",
      "taf": "TAF EPSY 051130Z 0512/0521 10010KT 7000 OVC008"
    },
    {
      "icao": "EPWA",
      "alert": "OK",
      "vis_m": 9000,
      "fzfg": false,
      "metar_trigger": false,
      "taf_trigger": false,
      "metar": "METAR EPWA 051330Z 10012KT 9000 OVC007 M01/M02 Q1002 NOSIG",
      "taf": "TAF EPWA 051130Z 0512/0612 09011KT 9999 OVC007"
    },
    {
      "icao": "EPWR",
      "alert": "OK",
      "vis_m": 2500,
      "fzfg": false,
      "metar_trigger": false,
      "taf_trigger": false,
      "metar": "METAR EPWR 051330Z 10008KT 2500 BR OVC003 M00/M00 Q0998",
      "taf": ""
    },
    {
      "icao": "ESGG",
      "alert": "OK",
      "vis_m": 9999,
      "fzfg": false,
      "metar_trigger": false,
      "taf_trigger": false,
      "metar": "METAR ESGG 051320Z 06015KT CAVOK M02/M08 Q1007",
      "taf": "TAF ESGG 051130Z 0512/0612 07014G24KT 9999 SCT040"
    },
    {
      "icao": "ESKN",
      "alert": "OK",
      "vis_m": 9999,
      "fzfg": false,
      "metar_trigger": false,
      "taf_trigger": false,
      "metar": "METAR ESKN 051320Z AUTO 04008KT 020V080 9999 OVC019/// M04/M06 Q1014",
      "taf": "TAF ESKN 051130Z 0512/0612 06008KT 9999 OVC015"
    },
    {
      "icao": "ESMS",
      "alert": "OK",
      "vis_m": 5000,
      "fzfg": false,
      "metar_trigger": false,
      "taf_trigger": false,
      "metar": "METAR ESMS 051320Z 08019G30KT 5000 -SN OVC005 M01/M02 Q1002",
      "taf": "TAF ESMS 051127Z 0512/0612 08018G33KT 7000 BKN006"
    },
    {
      "icao": "ESSA",
      "alert": "OK",
      "vis_m": 9999,
      "fzfg": false,
      "metar_trigger": false,
      "taf_trigger": false,
      "metar": "METAR ESSA 051320Z 07009KT 9999 BKN015 M05/M08 Q1016 TEMPO BKN014",
      "taf": "TAF ESSA 051130Z 0512/0612 06008KT 9999 BKN015"
    },
    {
      "icao": "EYKA",
      "alert": "OK",
      "vis_m": 9999,
      "fzfg": false,
      "metar_trigger": false,
      "taf_trigger": false,
      "metar": "METAR EYKA 051320Z 10009KT 9999 OVC015 M07/M10 Q1010",
      "taf": "TAF EYKA 051100Z 0512/0612 10009KT 6000 OVC015"
    },
    {
      "icao": "EYPA",
      "alert": "OK",
      "vis_m": 9999,
      "fzfg": false,
      "metar_trigger": false,
      "taf_trigger": false,
      "metar": "METAR EYPA 051320Z 09009KT 060V120 9999 OVC023 M08/M12 Q1009",
      "taf": "TAF EYPA 051100Z 0512/0612 09010KT 6000 BKN020"
    },
    {
      "icao": "EYVI",
      "alert": "OK",
      "vis_m": 9999,
      "fzfg": false,
      "metar_trigger": false,
      "taf_trigger": false,
      "metar": "METAR EYVI 051320Z 12009KT 9999 OVC013 M07/M09 Q1010 NOSIG",
      "taf": "TAF EYVI 051100Z 0512/0612 11008KT 9000 OVC015"
    },
    {
      "icao": "GCFV",
      "alert": "OK",
      "vis_m": 9999,
      "fzfg": false,
      "metar_trigger": false,
      "taf_trigger": false,
      "metar": "METAR GCFV 051300Z 13009KT 9999 FEW025 21/15 Q1015",
      "taf": "TAF GCFV 050800Z 0509/0609 25005KT 9999 FEW025 TX22/0514Z TN16/0606Z"
    },
    {
      "icao": "GCLP",
      "alert": "OK",
      "vis_m": 9999,
      "fzfg": false,
      "metar_trigger": false,
      "taf_trigger": false,
      "metar": "METAR GCLP 051300Z 09007KT 9999 FEW025 21/16 Q1015 NOSIG",
      "taf": "TAF GCLP 050800Z 0509/0609 16010KT 9999 FEW025 TX22/0514Z TN16/0606Z"
    },
    {
      "icao": "GCTS",
      "alert": "OK",
      "vis_m": 9999,
      "fzfg": false,
      "metar_trigger": false,
      "taf_trigger": false,
      "metar": "METAR GCTS 051300Z 12007KT 070V170 9999 SCT030 21/15 Q1016 NOSIG",
      "taf": "TAF GCTS 050800Z 0509/0609 26010KT 9999 FEW025 TX25/0514Z TN16/0606Z"
    },
    {
      "icao": "GMAD",
      "alert": "OK",
      "vis_m": 8000,
      "fzfg": false,
      "metar_trigger": false,
      "taf_trigger": false,
      "metar": "METAR GMAD 051330Z 00000KT 8000 BKN023 19/16 Q1015 NOSIG",
      "taf": "TAF GMAD 051100Z 0512/0618 28004KT 6000 BKN016"
    },
    {
      "icao": "GMMN",
      "alert": "OK",
      "vis_m": 9999,
      "fzfg": false,
      "metar_trigger": false,
      "taf_trigger": false,
      "metar": "METAR GMMN 051330Z 23022KT 190V250 9999 BKN015 18/14 Q1011 TEMPO 23025G35KT",
      "taf": "TAF GMMN 051100Z 0512/0618 24025KT 9999 BKN012"
    },
    {
      "icao": "GMMX",
      "alert": "OK",
      "vis_m": 9999,
      "fzfg": false,
      "metar_trigger": false,
      "taf_trigger": false,
      "metar": "METAR GMMX 051330Z 31007KT 270V350 9999 FEW026 19/14 Q1013 NOSIG",
      "taf": "TAF GMMX 051100Z 0512/0618 28006KT 8000 SCT026 SCT080"
    },
    {
      "icao": "HEGN",
      "alert": "OK",
      "vis_m": 9999,
      "fzfg": false,
      "metar_trigger": false,
      "taf_trigger": false,
      "metar": "METAR HEGN 051300Z 10004KT CAVOK 24/03 Q1012 NOSIG",
      "taf": "TAF HEGN 051100Z 0512/0618 08008KT CAVOK"
    },
    {
      "icao": "HEMA",
      "alert": "OK",
      "vis_m": 9999,
      "fzfg": false,
      "metar_trigger": false,
      "taf_trigger": false,
      "metar": "METAR HEMA 051300Z 01009KT CAVOK 22/11 Q1012 NOSIG",
      "taf": "TAF HEMA 051100Z 0512/0618 36010KT CAVOK"
    },
    {
      "icao": "HESH",
      "alert": "OK",
      "vis_m": 9999,
      "fzfg": false,
      "metar_trigger": false,
      "taf_trigger": false,
      "metar": "METAR HESH 051300Z 09009KT CAVOK 25/09 Q1012 NOSIG",
      "taf": "TAF HESH 051100Z 0512/0618 16008KT CAVOK"
    },
    {
      "icao": "HESX",
      "alert": "OK",
      "vis_m": 9999,
      "fzfg": false,
      "metar_trigger": false,
      "taf_trigger": false,
      "metar": "METAR HESX 051300Z 21005KT CAVOK 23/00 Q1012 NOSIG",
      "taf": "TAF HESX 051100Z 0512/0618 20010KT 9999 SCT020"
    },
    {
      "icao": "LATI",
      "alert": "OK",
      "vis_m": 9999,
      "fzfg": false,
      "metar_trigger": false,
      "taf_trigger": false,
      "metar": "METAR LATI 051320Z 14007KT 9999 -RA SCT048 BKN070 13/06 Q0998 NOSIG",
      "taf": "TAF LATI 051100Z 0512/0612 16006KT 9999 SCT040 BKN070 TX15/0512Z TN07/0604Z"
    },
    {
      "icao": "LBPD",
      "alert": "OK",
      "vis_m": 9999,
      "fzfg": false,
      "metar_trigger": false,
      "taf_trigger": false,
      "metar": "METAR LBPD 051330Z AUTO 29007KT 9999 SCT010/// BKN012/// BKN026/// 05/05 Q1000 NOSIG",
      "taf": "TAF LBPD 051100Z 0512/0612 30010KT 9999 SCT003 BKN010 OVC017"
    },
    {
      "icao": "LBSF",
      "alert": "OK",
      "vis_m": 9999,
      "fzfg": false,
      "metar_trigger": false,
      "taf_trigger": false,
      "metar": "METAR LBSF 051330Z 11010KT 9999 SCT018 BKN035 BKN057 07/04 Q0999 NOSIG",
      "taf": "TAF LBSF 051100Z 0512/0612 10012KT 9999 SCT012 BKN025 OVC040"
    },
    {
      "icao": "LBWN",
      "alert": "OK",
      "vis_m": 8000,
      "fzfg": false,
      "metar_trigger": false,
      "taf_trigger": false,
      "metar": "METAR LBWN 051330Z 11015KT 8000 -RA SCT033 OVC042 08/08 Q1003 TEMPO 5000 RA",
      "taf": "TAF LBWN 051100Z 0512/0612 09010KT 6000 RA BKN012 OVC040"
    },
    {
      "icao": "LCLK",
      "alert": "OK",
      "vis_m": 9999,
      "fzfg": false,
      "metar_trigger": false,
      "taf_trigger": false,
      "metar": "METAR LCLK 051330Z 08009KT 9999 FEW030 18/11 Q1014 NOSIG",
      "taf": "TAF LCLK 051130Z 0512/0612 09010KT 9999 FEW025"
    },
    {
      "icao": "LCPH",
      "alert": "OK",
      "vis_m": 9999,
      "fzfg": false,
      "metar_trigger": false,
      "taf_trigger": false,
      "metar": "METAR LCPH 051330Z 15011KT 9999 FEW030 17/10 Q1013 NOSIG",
      "taf": "TAF LCPH 051130Z 0512/0612 12017KT 9999 FEW020"
    },
    {
      "icao": "LEAL",
      "alert": "OK",
      "vis_m": 9999,
      "fzfg": false,
      "metar_trigger": false,
      "taf_trigger": false,
      "metar": "METAR LEAL 051300Z 19007KT 150V240 9999 FEW025 23/14 Q0992 NOSIG",
      "taf": "TAF LEAL 051100Z 0512/0612 25007KT 9999 FEW010 TX23/0514Z TN08/0606Z"
    },
    {
      "icao": "LEBB",
      "alert": "OK",
      "vis_m": 9999,
      "fzfg": false,
      "metar_trigger": false,
      "taf_trigger": false,
      "metar": "METAR LEBB 051300Z 30012KT 9999 -SHRA FEW021TCU BKN044 13/11 Q0984 RESHRA TEMPO 3000 SHRA",
      "taf": ""
    },
    {
      "icao": "LEBL",
      "alert": "OK",
      "vis_m": 6000,
      "fzfg": false,
      "metar_trigger": false,
      "taf_trigger": false,
      "metar": "METAR LEBL 051300Z 34003KT 310V010 6000 -RA SCT010 BKN018 BKN025 11/09 Q0988 NOSIG",
      "taf": "TAF LEBL 051100Z 0512/0612 VRB04KT 9999 SCT010 SCT040 TX17/0514Z TN08/0606Z"
    },
    {
      "icao": "LECH",
      "alert": "OK",
      "vis_m": 9999,
      "fzfg": false,
      "metar_trigger": false,
      "taf_trigger": false,
      "metar": "METAR LECH 051300Z AUTO 24023G34KT CAVOK 18/11 Q0988",
      "taf": ""
    },
    {
      "icao": "LEMD",
      "alert": "OK",
      "vis_m": 9999,
      "fzfg": false,
      "metar_trigger": false,
      "taf_trigger": false,
      "metar": "METAR LEMD 051300Z 24025G44KT 200V280 9999 BKN040 14/06 Q0991 NOSIG",
      "taf": ""
    },
    {
      "icao": "LEMG",
      "alert": "OK",
      "vis_m": 9999,
      "fzfg": false,
      "metar_trigger": false,
      "taf_trigger": false,
      "metar": "METAR LEMG 051300Z 22016G31KT 160V280 9999 SCT040 BKN070 20/14 Q1000 TEMPO 4000 RA",
      "taf": "TAF LEMG 051100Z 0512/0612 23012KT 9999 SCT040 TX18/0514Z TN13/0607Z"
    },
    {
      "icao": "LEVC",
      "alert": "OK",
      "vis_m": 8000,
      "fzfg": false,
      "metar_trigger": false,
      "taf_trigger": false,
      "metar": "METAR LEVC 051300Z 29033G43KT 8000 -RA BKN049 18/12 Q0990 NOSIG",
      "taf": ""
    },
    {
      "icao": "LEXJ",
      "alert": "OK",
      "vis_m": 9999,
      "fzfg": false,
      "metar_trigger": false,
      "taf_trigger": false,
      "metar": "METAR LEXJ 051300Z 29008KT 9999 SCT025 14/09 Q0982",
      "taf": ""
    },
    {
      "icao": "LEZG",
      "alert": "OK",
      "vis_m": 9999,
      "fzfg": false,
      "metar_trigger": false,
      "taf_trigger": false,
      "metar": "METAR LEZG 051300Z 09005KT 9999 SCT006 11/11 Q0989 NOSIG",
      "taf": "TAF LEZG 051100Z 0512/0612 10009KT 9999 FEW010 TX16/0514Z TN08/0606Z"
    },
    {
      "icao": "LEZL",
      "alert": "OK",
      "vis_m": 9999,
      "fzfg": false,
      "metar_trigger": false,
      "taf_trigger": false,
      "metar": "METAR LEZL 051300Z 25024G35KT 210V290 9999 SCT030 19/13 Q1000 NOSIG",
      "taf": ""
    },
    {
      "icao": "LFBD",
      "alert": "OK",
      "vis_m": 9999,
      "fzfg": false,
      "metar_trigger": false,
      "taf_trigger": false,
      "metar": "METAR LFBD 051330Z AUTO 15010KT 9999 RA BKN038/// BKN052/// OVC062/// ///CB 08/08 Q0983 TEMPO 3000 RA BKN010 BKN040TCU",
      "taf": "TAF LFBD 051100Z 0512/0618 17010KT 9999 BKN040 TX12/0515Z TN10/0606Z"
    },
    {
      "icao": "LFLL",
      "alert": "OK",
      "vis_m": 9999,
      "fzfg": false,
      "metar_trigger": false,
      "taf_trigger": false,
      "metar": "METAR LFLL 051330Z 17009KT 9999 FEW022 OVC220 12/05 Q0988 NOSIG",
      "taf": "TAF LFLL 051100Z 0512/0618 17010KT CAVOK"
    },
    {
      "icao": "LFLS",
      "alert": "OK",
      "vis_m": 9999,
      "fzfg": false,
      "metar_trigger": false,
      "taf_trigger": false,
      "metar": "METAR LFLS 051330Z AUTO 28006KT CAVOK 10/07 Q0988 NOSIG",
      "taf": "TAF LFLS 050800Z 0509/0609 09007KT 9999 FEW020 SCT080"
    },
    {
      "icao": "LFMN",
      "alert": "OK",
      "vis_m": 9999,
      "fzfg": false,
      "metar_trigger": false,
      "taf_trigger": false,
      "metar": "METAR LFMN 051330Z VRB03KT 9999 FEW030 BKN200 13/07 Q0994 NOSIG",
      "taf": ""
    },
    {
      "icao": "LFOB",
      "alert": "OK",
      "vis_m": 9999,
      "fzfg": false,
      "metar_trigger": false,
      "taf_trigger": false,
      "metar": "METAR LFOB 051330Z AUTO 14007KT 110V180 9999 OVC017 10/09 Q0984 BECMG BKN014 BKN020",
      "taf": ""
    },
    {
      "icao": "LFPO",
      "alert": "OK",
      "vis_m": 9999,
      "fzfg": false,
      "metar_trigger": false,
      "taf_trigger": false,
      "metar": "METAR LFPO 051330Z 17009KT 140V200 9999 SCT018 BKN083 12/08 Q0985 NOSIG",
      "taf": ""
    },
    {
      "icao": "LFSB",
      "alert": "OK",
      "vis_m": 9999,
      "fzfg": false,
      "metar_trigger": false,
      "taf_trigger": false,
      "metar": "METAR LFSB 051330Z AUTO 10007KT 070V130 CAVOK 10/03 Q0990 NOSIG",
      "taf": "TAF LFSB 051100Z 0512/0612 11007KT CAVOK"
    },
    {
      "icao": "LGAV",
      "alert": "OK",
      "vis_m": 9999,
      "fzfg": false,
      "metar_trigger": false,
      "taf_trigger": false,
      "metar": "METAR LGAV 051320Z 22010KT 9999 SCT025 BKN070 13/10 Q0999 NOSIG",
      "taf": "TAF LGAV 051100Z 0512/0612 19020KT 9999 FEW020 SCT035"
    },
    {
      "icao": "LGTS",
      "alert": "OK",
      "vis_m": 9999,
      "fzfg": false,
      "metar_trigger": false,
      "taf_trigger": false,
      "metar": "METAR LGTS 051320Z 13008KT 9999 -DZ FEW015 SCT025 15/08 Q0997 NOSIG",
      "taf": "TAF LGTS 051100Z 0512/0612 VRB03KT 9999 SCT025"
    },
    {
      "icao": "LHBP",
      "alert": "OK",
      "vis_m": 9999,
      "fzfg": false,
      "metar_trigger": false,
      "taf_trigger": false,
      "metar": "METAR LHBP 051330Z 11010KT 9999 FEW017 BKN034 09/05 Q0996 NOSIG",
      "taf": "TAF LHBP 051115Z 0512/0612 09011KT 9999 SCT030"
    },
    {
      "icao": "LHDC",
      "alert": "OK",
      "vis_m": 9999,
      "fzfg": false,
      "metar_trigger": false,
      "taf_trigger": false,
      "metar": "METAR LHDC 051315Z AUTO 08003KT 030V130 CAVOK 14/06 Q0996 NOSIG",
      "taf": "TAF LHDC 051115Z 0512/0521 07007KT CAVOK"
    },
    {
      "icao": "LIBD",
      "alert": "OK",
      "vis_m": 9999,
      "fzfg": false,
      "metar_trigger": false,
      "taf_trigger": false,
      "metar": "METAR LIBD 051320Z 36004KT 330V040 9999 -RA SCT040 12/10 Q0996",
      "taf": "TAF LIBD 051100Z 0512/0612 23010KT CAVOK"
    },
    {
      "icao": "LIBG",
      "alert": "OK",
      "vis_m": 9999,
      "fzfg": false,
      "metar_trigger": false,
      "taf_trigger": false,
      "metar": "METAR LIBG 051250Z 23008KT 9999 FEW040 15/09 Q0996",
      "taf": "TAF LIBG 051100Z 0512/0521 23012KT 9999 SCT030"
    },
    {
      "icao": "LIBP",
      "alert": "OK",
      "vis_m": 9999,
      "fzfg": false,
      "metar_trigger": false,
      "taf_trigger": false,
      "metar": "METAR LIBP 051320Z AUTO 03008KT 360V060 9999 BKN013/// 13/10 Q0996",
      "taf": "TAF LIBP 051100Z 0512/0612 VRB05KT 9999 BKN030"
    },
    {
      "icao": "LIBR",
      "alert": "OK",
      "vis_m": 9999,
      "fzfg": false,
      "metar_trigger": false,
      "taf_trigger": false,
      "metar": "METAR LIBR 051320Z 24009KT 9999 FEW040 16/07 Q0996",
      "taf": "TAF LIBR 051100Z 0512/0612 20014KT CAVOK"
    },
    {
      "icao": "LICA",
      "alert": "OK",
      "vis_m": 9999,
      "fzfg": false,
      "metar_trigger": false,
      "taf_trigger": false,
      "metar": "METAR LICA 051320Z AUTO 26018KT 9999 FEW018/// 16/13 Q0998",
      "taf": "TAF LICA 051100Z 0512/0612 26016KT 9999 BKN030"
    },
    {
      "icao": "LICC",
      "alert": "OK",
      "vis_m": 9999,
      "fzfg": false,
      "metar_trigger": false,
      "taf_trigger": false,
      "metar": "METAR LICC 051320Z 26019KT 9999 FEW030 20/17 Q0998",
      "taf": "TAF LICC 051100Z 0512/0612 23016KT 9999 SCT040"
    },
    {
      "icao": "LICJ",
      "alert": "OK",
      "vis_m": 9999,
      "fzfg": false,
      "metar_trigger": false,
      "taf_trigger": false,
      "metar": "METAR LICJ 051250Z 26017KT 9999 FEW030 16/12 Q1000",
      "taf": "TAF LICJ 051100Z 0512/0612 24016KT 9999 SCT030"
    },
    {
      "icao": "LIMC",
      "alert": "OK",
      "vis_m": 9999,
      "fzfg": false,
      "metar_trigger": false,
      "taf_trigger": false,
      "metar": "METAR LIMC 051320Z 23003KT 180V300 CAVOK 11/04 Q0993 NOSIG",
      "taf": "TAF LIMC 051100Z 0512/0618 VRB05KT 9999 FEW010"
    },
    {
      "icao": "LIME",
      "alert": "OK",
      "vis_m": 9999,
      "fzfg": false,
      "metar_trigger": false,
      "taf_trigger": false,
      "metar": "METAR LIME 051320Z VRB02KT 9999 SCT019 10/06 Q0993 NOSIG",
      "taf": ""
    },
    {
      "icao": "LIMF",
      "alert": "OK",
      "vis_m": 9999,
      "fzfg": false,
      "metar_trigger": false,
      "taf_trigger": false,
      "metar": "METAR LIMF 051320Z 08003KT 040V120 CAVOK 11/02 Q0993",
      "taf": "TAF LIMF 051100Z 0512/0612 VRB05KT CAVOK"
    },
    {
      "icao": "LIMJ",
      "alert": "OK",
      "vis_m": 9999,
      "fzfg": false,
      "metar_trigger": false,
      "taf_trigger": false,
      "metar": "METAR LIMJ 051320Z 13015KT 9999 -RA FEW018 BKN025 12/08 Q0994",
      "taf": "TAF LIMJ 051100Z 0512/0612 14014KT 9999 SCT020"
    },
    {
      "icao": "LIPE",
      "alert": "OK",
      "vis_m": 9999,
      "fzfg": false,
      "metar_trigger": false,
      "taf_trigger": false,
      "metar": "METAR LIPE 051320Z 36005KT 320V030 CAVOK 13/06 Q0994",
      "taf": "TAF LIPE 051100Z 0512/0612 27008KT CAVOK"
    },
    {
      "icao": "LIPH",
      "alert": "OK",
      "vis_m": 9999,
      "fzfg": false,
      "metar_trigger": false,
      "taf_trigger": false,
      "metar": "METAR LIPH 051320Z 09007KT 9999 FEW010 BKN025 10/07 Q0994",
      "taf": "TAF LIPH 051100Z 0512/0612 VRB05KT 8000 BKN040"
    },
    {
      "icao": "LIPQ",
      "alert": "OK",
      "vis_m": 9999,
      "fzfg": false,
      "metar_trigger": false,
      "taf_trigger": false,
      "metar": "METAR LIPQ 051320Z AUTO 07006KT 9999 -RA OVC013/// 08/07 Q0994",
      "taf": "TAF LIPQ 051100Z 0512/0612 VRB05KT 8000 BKN040"
    },
    {
      "icao": "LIPR",
      "alert": "OK",
      "vis_m": 9999,
      "fzfg": false,
      "metar_trigger": false,
      "taf_trigger": false,
      "metar": "METAR LIPR 051320Z 10006KT 9999 FEW050 11/07 Q0995",
      "taf": "TAF LIPR 051100Z 0512/0612 29007KT 9999 BKN040"
    },
    {
      "icao": "LIPX",
      "alert": "OK",
      "vis_m": 9999,
      "fzfg": false,
      "metar_trigger": false,
      "taf_trigger": false,
      "metar": "METAR LIPX 051320Z 27008KT CAVOK 10/06 Q0994",
      "taf": "TAF LIPX 051100Z 0512/0612 VRB05KT 6000 FEW010"
    },
    {
      "icao": "LIPY",
      "alert": "OK",
      "vis_m": 9999,
      "fzfg": false,
      "metar_trigger": false,
      "taf_trigger": false,
      "metar": "METAR LIPY 051320Z AUTO 04008KT 9999 FEW048/// 10/08 Q0995",
      "taf": "TAF LIPY 051100Z 0512/0612 VRB05KT 9999 BKN020"
    },
    {
      "icao": "LIPZ",
      "alert": "OK",
      "vis_m": 9999,
      "fzfg": false,
      "metar_trigger": false,
      "taf_trigger": false,
      "metar": "METAR LIPZ 051320Z 12003KT 9999 FEW010 BKN040 09/09 Q0994 NOSIG",
      "taf": "TAF LIPZ 051100Z 0512/0618 VRB05KT 7000 BKN050"
    },
    {
      "icao": "LIRF",
      "alert": "OK",
      "vis_m": 9999,
      "fzfg": false,
      "metar_trigger": false,
      "taf_trigger": false,
      "metar": "METAR LIRF 051320Z 27005KT 220V310 9999 FEW035 15/06 Q0997 NOSIG",
      "taf": "TAF LIRF 051100Z 0512/0618 27007KT 9999 FEW040"
    },
    {
      "icao": "LIRN",
      "alert": "OK",
      "vis_m": 9999,
      "fzfg": false,
      "metar_trigger": false,
      "taf_trigger": false,
      "metar": "METAR LIRN 051320Z 25011KT 9999 FEW040 15/07 Q0998 NOSIG",
      "taf": "TAF LIRN 051100Z 0512/0612 24010KT 9999 BKN030"
    },
    {
      "icao": "LIRP",
      "alert": "OK",
      "vis_m": 7000,
      "fzfg": false,
      "metar_trigger": false,
      "taf_trigger": false,
      "metar": "METAR LIRP 051315Z 00001KT 7000 -RA SCT025 BKN050 11/09 Q0996 TEMPO 3000",
      "taf": "TAF LIRP 051100Z 0512/0612 VRB03KT 9999 SCT020 BKN030"
    },
    {
      "icao": "LIRZ",
      "alert": "OK",
      "vis_m": 9999,
      "fzfg": false,
      "metar_trigger": false,
      "taf_trigger": false,
      "metar": "METAR LIRZ 051320Z AUTO 22008KT 9999 SCT026/// BKN046/// 12/07 Q0996",
      "taf": "TAF LIRZ 051100Z 0512/0612 20008KT 9999 SCT025"
    },
    {
      "icao": "LJLJ",
      "alert": "OK",
      "vis_m": 9999,
      "fzfg": false,
      "metar_trigger": false,
      "taf_trigger": false,
      "metar": "METAR LJLJ 051300Z VRB01KT 9999 -RA FEW002 BKN011 OVC020 04/02 Q0995 NOSIG",
      "taf": "TAF LJLJ 051100Z 0512/0612 VRB02KT 9999 BKN010 OVC020"
    },
    {
      "icao": "LKMT",
      "alert": "OK",
      "vis_m": 1800,
      "fzfg": false,
      "metar_trigger": false,
      "taf_trigger": false,
      "metar": "METAR LKMT 051330Z 01004KT 1800 BR OVC005 01/01 Q0996 NOSIG",
      "taf": "TAF LKMT 051100Z 0512/0612 03004KT 4000 BR BKN008 OVC012"
    },
    {
      "icao": "LKPR",
      "alert": "OK",
      "vis_m": 3000,
      "fzfg": false,
      "metar_trigger": false,
      "taf_trigger": false,
      "metar": "METAR LKPR 051330Z 09004KT 020V110 3000 -RA BR SCT003 OVC017 04/03 Q0994 BECMG 2500 BR BKN003",
      "taf": "TAF LKPR 051100Z 0512/0618 10008KT 8000 BKN017"
    },
    {
      "icao": "LLBG",
      "alert": "OK",
      "vis_m": 9999,
      "fzfg": false,
      "metar_trigger": false,
      "taf_trigger": false,
      "metar": "METAR LLBG 051320Z 29010KT CAVOK 20/11 Q1012 NOSIG",
      "taf": "TAF LLBG 051109Z 0512/0612 VRB04KT CAVOK"
    },
    {
      "icao": "LMML",
      "alert": "OK",
      "vis_m": 9999,
      "fzfg": false,
      "metar_trigger": false,
      "taf_trigger": false,
      "metar": "METAR LMML 051315Z 28023KT CAVOK 18/12 Q1003 NOSIG",
      "taf": "TAF LMML 051100Z 0512/0612 27012KT CAVOK"
    },
    {
      "icao": "LOWW",
      "alert": "OK",
      "vis_m": 9000,
      "fzfg": false,
      "metar_trigger": false,
      "taf_trigger": false,
      "metar": "METAR LOWW 051320Z 18004KT 9000 -DZ FEW005 BKN012 06/04 Q0995 TEMPO SCT012 BKN050",
      "taf": "TAF LOWW 051115Z 0512/0618 13005KT 9000 FEW010 BKN020 TX05/0512Z TN02/0605Z"
    },
    {
      "icao": "LPFR",
      "alert": "OK",
      "vis_m": 8000,
      "fzfg": false,
      "metar_trigger": false,
      "taf_trigger": false,
      "metar": "METAR LPFR 051300Z 25020KT 8000 FEW015 SCT025 17/14 Q1002",
      "taf": "TAF LPFR 051100Z 0512/0612 23017KT 9999 SCT025"
    },
    {
      "icao": "LPMA",
      "alert": "OK",
      "vis_m": 9999,
      "fzfg": false,
      "metar_trigger": false,
      "taf_trigger": false,
      "metar": "METAR LPMA 051300Z 12011KT 9999 FEW016 21/11 Q1010",
      "taf": "TAF LPMA 051100Z 0512/0612 04013KT 9999 SCT015"
    },
    {
      "icao": "LPPR",
      "alert": "OK",
      "vis_m": 8000,
      "fzfg": false,
      "metar_trigger": false,
      "taf_trigger": false,
      "metar": "METAR LPPR 051300Z 23020G31KT 8000 FEW020CB BKN025 BKN030 15/12 Q0989",
      "taf": "TAF LPPR 051100Z 0512/0612 22017KT 9999 SCT025"
    },
    {
      "icao": "LPPS",
      "alert": "OK",
      "vis_m": 9999,
      "fzfg": false,
      "metar_trigger": false,
      "taf_trigger": false,
      "metar": "METAR LPPS 051300Z 28015KT 9999 FEW014 19/13 Q1011",
      "taf": "TAF LPPS 051100Z 0512/0618 27017KT 9999 SCT015"
    },
    {
      "icao": "LPPT",
      "alert": "OK",
      "vis_m": 9000,
      "fzfg": false,
      "metar_trigger": false,
      "taf_trigger": false,
      "metar": "METAR LPPT 051300Z 24022KT 9000 SCT020 BKN024 16/13 Q0997 WS R20",
      "taf": "TAF LPPT 051100Z 0512/0618 25017KT 9999 SCT025"
    },
    {
      "icao": "LQBK",
      "alert": "OK",
      "vis_m": 9999,
      "fzfg": false,
      "metar_trigger": false,
      "taf_trigger": false,
      "metar": "METAR LQBK 051330Z 33004KT 290V010 9999 SCT013 BKN043 08/06 Q0995 NOSIG",
      "taf": "TAF LQBK 051100Z 0512/0612 33005KT 9999 SCT045 TX08/0513Z TN03/0605Z"
    },
    {
      "icao": "LQSA",
      "alert": "OK",
      "vis_m": 9999,
      "fzfg": false,
      "metar_trigger": false,
      "taf_trigger": false,
      "metar": "METAR LQSA 051330Z 14009KT 9999 BKN050 11/05 Q0994 NOSIG",
      "taf": "TAF LQSA 051100Z 0512/0612 11006KT 9999 BKN055 TX12/0513Z TN02/0605Z"
    },
    {
      "icao": "LQTZ",
      "alert": "OK",
      "vis_m": 9999,
      "fzfg": false,
      "metar_trigger": false,
      "taf_trigger": false,
      "metar": "METAR LQTZ 051330Z 10009KT 9999 BKN064 14/05 Q0993",
      "taf": "TAF LQTZ 051100Z 0512/0612 10005KT 9999 SCT050 TX15/0514Z TN03/0605Z"
    },
    {
      "icao": "LRBC",
      "alert": "OK",
      "vis_m": 6000,
      "fzfg": false,
      "metar_trigger": false,
      "taf_trigger": false,
      "metar": "METAR LRBC 051300Z 17009KT 6000 OVC005 05/05 Q1005",
      "taf": "TAF LRBC 051100Z 0512/0521 17008KT 5000 -RA BR OVC005"
    },
    {
      "icao": "LRBS",
      "alert": "OK",
      "vis_m": 4000,
      "fzfg": false,
      "metar_trigger": false,
      "taf_trigger": false,
      "metar": "METAR LRBS 051300Z 07011KT 4000 RA BR BKN005 OVC037 07/07 Q1001 NOSIG",
      "taf": "TAF LRBS 051100Z 0512/0612 08012KT 5000 -RA BR BKN005 BKN035"
    },
    {
      "icao": "LRBV",
      "alert": "OK",
      "vis_m": 9999,
      "fzfg": false,
      "metar_trigger": false,
      "taf_trigger": false,
      "metar": "METAR LRBV 051300Z 10018KT 9999 SCT042 SCT057 08/02 Q0999",
      "taf": "TAF LRBV 051100Z 0512/0521 12014KT 9999 BKN050"
    },
    {
      "icao": "LRCL",
      "alert": "OK",
      "vis_m": 9999,
      "fzfg": false,
      "metar_trigger": false,
      "taf_trigger": false,
      "metar": "METAR LRCL 051300Z 11010KT CAVOK 12/05 Q0998",
      "taf": "TAF LRCL 051100Z 0512/0521 13008KT CAVOK"
    },
    {
      "icao": "LRCV",
      "alert": "OK",
      "vis_m": 1700,
      "fzfg": false,
      "metar_trigger": false,
      "taf_trigger": false,
      "metar": "METAR LRCV 051300Z 06008KT 1700 RA BR OVC004 04/04 Q1000",
      "taf": ""
    },
    {
      "icao": "LRIA",
      "alert": "OK",
      "vis_m": 2500,
      "fzfg": false,
      "metar_trigger": false,
      "taf_trigger": false,
      "metar": "METAR LRIA 051300Z 11021KT 2500 -DZ BR OVC002 02/02 Q1006",
      "taf": "TAF LRIA 051100Z 0512/0521 12018KT 3000 -RADZ BR OVC002"
    },
    {
      "icao": "LROP",
      "alert": "OK",
      "vis_m": 4000,
      "fzfg": false,
      "metar_trigger": false,
      "taf_trigger": false,
      "metar": "METAR LROP 051300Z 09013KT 4000 -RA BR OVC004 07/07 Q1001 NOSIG",
      "taf": "TAF LROP 051100Z 0512/0612 08012KT 5000 -RA BR BKN005 BKN035"
    },
    {
      "icao": "LRSB",
      "alert": "OK",
      "vis_m": 9999,
      "fzfg": false,
      "metar_trigger": false,
      "taf_trigger": false,
      "metar": "METAR LRSB 051300Z 14007KT 110V180 CAVOK 12/04 Q0997",
      "taf": "TAF LRSB 051100Z 0512/0612 14012KT CAVOK"
    },
    {
      "icao": "LRSM",
      "alert": "OK",
      "vis_m": 9999,
      "fzfg": false,
      "metar_trigger": false,
      "taf_trigger": false,
      "metar": "METAR LRSM 051300Z 13006KT CAVOK 14/05 Q0997",
      "taf": "TAF LRSM 051100Z 0512/0521 12012KT 9999 SCT045"
    },
    {
      "icao": "LRSV",
      "alert": "OK",
      "vis_m": 100,
      "fzfg": false,
      "metar_trigger": false,
      "taf_trigger": false,
      "metar": "METAR LRSV 051300Z 14014KT 0100 R34/0350N -RA FG VV001 02/02 Q1003",
      "taf": "TAF LRSV 051100Z 0512/0521 15016KT 0150 -DZ FG VV001"
    },
    {
      "icao": "LRTM",
      "alert": "OK",
      "vis_m": 9999,
      "fzfg": false,
      "metar_trigger": false,
      "taf_trigger": false,
      "metar": "METAR LRTM 051300Z 09009KT CAVOK 12/04 Q0998",
      "taf": "TAF LRTM 051100Z 0512/0521 10012KT CAVOK"
    },
    {
      "icao": "LRTR",
      "alert": "OK",
      "vis_m": 9999,
      "fzfg": false,
      "metar_trigger": false,
      "taf_trigger": false,
      "metar": "METAR LRTR 051300Z 15010KT 9999 FEW035 15/05 Q0996 NOSIG",
      "taf": "TAF LRTR 051100Z 0512/0612 10010KT CAVOK"
    },
    {
      "icao": "LTAC",
      "alert": "OK",
      "vis_m": 9999,
      "fzfg": false,
      "metar_trigger": false,
      "taf_trigger": false,
      "metar": "METAR LTAC 051320Z 05009KT 9999 FEW040 BKN180 07/02 Q1011 NOSIG",
      "taf": "TAF LTAC 051040Z 0512/0612 VRB02KT 9999 SCT040 BKN100"
    },
    {
      "icao": "LTFM",
      "alert": "OK",
      "vis_m": 9999,
      "fzfg": false,
      "metar_trigger": false,
      "taf_trigger": false,
      "metar": "METAR LTFM 051320Z 14013KT 9999 -RA SCT035 BKN080 12/07 Q1004 NOSIG",
      "taf": "TAF LTFM 051040Z 0512/0618 15010KT 9999 -RA SCT035 BKN080"
    },
    {
      "icao": "LUKK",
      "alert": "OK",
      "vis_m": 7000,
      "fzfg": false,
      "metar_trigger": false,
      "taf_trigger": false,
      "metar": "METAR LUKK 051330Z 11012KT 7000 OVC006 M01/M01 Q1010 REFZRA NOSIG",
      "taf": "TAF LUKK 051117Z 0512/0612 12014KT 4000 BR OVC004"
    },
    {
      "icao": "LWOH",
      "alert": "OK",
      "vis_m": 9999,
      "fzfg": false,
      "metar_trigger": false,
      "taf_trigger": false,
      "metar": "METAR LWOH 051320Z VRB02KT 9999 FEW020 BKN040 09/04 Q0997",
      "taf": "TAF LWOH 051145Z 0512/0612 18006KT 9999 SCT020 BKN040"
    },
    {
      "icao": "LWSK",
      "alert": "OK",
      "vis_m": 9999,
      "fzfg": false,
      "metar_trigger": false,
      "taf_trigger": false,
      "metar": "METAR LWSK 051320Z 30003KT 230V360 9999 FEW040 16/08 Q0996 NOSIG",
      "taf": "TAF LWSK 051145Z 0512/0612 VRB02KT 9999 FEW040 SCT080"
    },
    {
      "icao": "LYBE",
      "alert": "OK",
      "vis_m": 9999,
      "fzfg": false,
      "metar_trigger": false,
      "taf_trigger": false,
      "metar": "METAR LYBE 051330Z 14017KT CAVOK 12/03 Q0995 NOSIG",
      "taf": "TAF LYBE 051100Z 0512/0612 14015KT CAVOK TX13/0513Z TN04/0606Z"
    },
    {
      "icao": "LYNI",
      "alert": "OK",
      "vis_m": 9999,
      "fzfg": false,
      "metar_trigger": false,
      "taf_trigger": false,
      "metar": "METAR LYNI 051330Z 09015KT 9999 FEW050 11/04 Q0997 NOSIG",
      "taf": "TAF LYNI 051100Z 0512/0612 07015KT 9999 BKN050 TX12/0513Z TN01/0606Z"
    },
    {
      "icao": "LYPG",
      "alert": "OK",
      "vis_m": 9999,
      "fzfg": false,
      "metar_trigger": false,
      "taf_trigger": false,
      "metar": "METAR LYPG 051330Z VRB02KT 9999 -RA FEW024 SCT034 OVC070 11/09 Q0997 NOSIG",
      "taf": "TAF LYPG 051100Z 0512/0612 16007KT 9999 FEW015 BKN040 BKN070 TX13/0512Z TN08/0605Z"
    },
    {
      "icao": "LZIB",
      "alert": "OK",
      "vis_m": 9999,
      "fzfg": false,
      "metar_trigger": false,
      "taf_trigger": false,
      "metar": "METAR LZIB 051330Z 00000KT 9999 FEW013 BKN021 BKN027 07/05 Q0995 NOSIG",
      "taf": "TAF LZIB 051115Z 0512/0612 12007KT 9999 BKN012 BKN020"
    },
    {
      "icao": "LZKZ",
      "alert": "OK",
      "vis_m": 9999,
      "fzfg": false,
      "metar_trigger": false,
      "taf_trigger": false,
      "metar": "METAR LZKZ 051330Z 01006KT CAVOK 07/04 Q0997 NOSIG",
      "taf": "TAF LZKZ 051115Z 0512/0612 01009KT 9999 BKN030"
    },
    {
      "icao": "LZTT",
      "alert": "OK",
      "vis_m": 8000,
      "fzfg": false,
      "metar_trigger": false,
      "taf_trigger": false,
      "metar": "METAR LZTT 051330Z 00000KT 8000 -RA SCT005 BKN027 03/02 Q0997 NOSIG",
      "taf": "TAF LZTT 051115Z 0512/0612 VRB02KT 9999 FEW005 BKN025"
    },
    {
      "icao": "OEJN",
      "alert": "OK",
      "vis_m": 9999,
      "fzfg": false,
      "metar_trigger": false,
      "taf_trigger": false,
      "metar": "METAR OEJN 051300Z 27006KT 9999 FEW040 SCT100 28/16 Q1011 NOSIG",
      "taf": "TAF OEJN 051100Z 0512/0618 30012KT 7000 FEW040"
    },
    {
      "icao": "OEMA",
      "alert": "OK",
      "vis_m": 9999,
      "fzfg": false,
      "metar_trigger": false,
      "taf_trigger": false,
      "metar": "METAR OEMA 051300Z 09008KT 9999 FEW045 SCT100 26/00 Q1015 NOSIG",
      "taf": "TAF OEMA 051100Z 0512/0618 12010KT 7000 FEW045"
    },
    {
      "icao": "OJAI",
      "alert": "OK",
      "vis_m": 5000,
      "fzfg": false,
      "metar_trigger": false,
      "taf_trigger": false,
      "metar": "METAR OJAI 051300Z 16009KT 5000 HZ NSC 20/M02 Q1014 NOSIG",
      "taf": "TAF OJAI 051030Z 0512/0618 07010KT 5000 HZ FEW035"
    },
    {
      "icao": "OMAA",
      "alert": "OK",
      "vis_m": 9999,
      "fzfg": false,
      "metar_trigger": false,
      "taf_trigger": false,
      "metar": "METAR OMAA 051330Z 32013KT CAVOK 23/15 Q1017 NOSIG",
      "taf": "TAF OMAA 051100Z 0512/0618 31010KT 8000 NSC"
    },
    {
      "icao": "OMDB",
      "alert": "OK",
      "vis_m": 7000,
      "fzfg": false,
      "metar_trigger": false,
      "taf_trigger": false,
      "metar": "METAR OMDB 051330Z 31010KT 7000 NSC 24/17 Q1017 NOSIG",
      "taf": "TAF OMDB 051100Z 0512/0618 28010KT 8000 NSC"
    },
    {
      "icao": "UAAA",
      "alert": "OK",
      "vis_m": 4000,
      "fzfg": false,
      "metar_trigger": false,
      "taf_trigger": false,
      "metar": "METAR UAAA 051300Z 00000MPS 4000 FU FEW100 SCT200 02/M02 Q1012 NOSIG",
      "taf": "TAF UAAA 051101Z 0512/0612 21003MPS 1200 BR FU SCT050CB BKN100 TX04/0608Z TNM02/0524Z"
    },
    {
      "icao": "UBBB",
      "alert": "OK",
      "vis_m": 9999,
      "fzfg": false,
      "metar_trigger": false,
      "taf_trigger": false,
      "metar": "METAR UBBB 051330Z VRB02KT 9999 OVC022 01/M02 Q1027 NOSIG",
      "taf": "TAF UBBB 051054Z 0512/0612 33010KT 9999 SCT012 BKN023 TX02/0514Z TN00/0600Z"
    },
    {
      "icao": "UDSG",
      "alert": "OK",
      "vis_m": 9999,
      "fzfg": false,
      "metar_trigger": false,
      "taf_trigger": false,
      "metar": "METAR UDSG 051300Z 25002KT 9999 SCT043 M04/M09 Q1021 NOSIG",
      "taf": "TAF UDSG 051058Z 0512/0612 VRB06KT 9999 SCT040"
    },
    {
      "icao": "UDYZ",
      "alert": "OK",
      "vis_m": 9999,
      "fzfg": false,
      "metar_trigger": false,
      "taf_trigger": false,
      "metar": "METAR UDYZ 051300Z 22005KT 9999 NSC 05/M06 Q1022 NOSIG",
      "taf": "TAF UDYZ 051100Z 0512/0612 VRB06KT 9999 NSC"
    },
    {
      "icao": "UGKO",
      "alert": "OK",
      "vis_m": 9999,
      "fzfg": false,
      "metar_trigger": false,
      "taf_trigger": false,
      "metar": "METAR UGKO 051300Z 09025KT CAVOK 11/M01 Q1014 NOSIG",
      "taf": "TAF UGKO 051100Z 0512/0612 08027G39KT CAVOK TX15/0611Z TN05/0604Z"
    }
  ]
}