{
  "ts_utc": "2025-12-21T17:26:40Z",
  "threshold_m": 150,
  "source": "stations_override.txt (ICAO list) + aviationweather.gov (METAR/TAF raw)",
  "station_count": 114,
  "stations": [
    {
      "icao": "BIKF",
      "alert": "OK",
      "vis_m": 7000,
      "fzfg": false,
      "metar_trigger": false,
      "taf_trigger": false,
      "metar": "METAR BIKF 211700Z 13023KT 7000 -DZRA BKN007 BKN036 08/07 Q1007",
      "taf": "TAF BIKF 211632Z 2118/2218 13022G32KT 9999 SCT010 BKN020 TX08/2118Z TN06/2218Z"
    },
    {
      "icao": "BKPR",
      "alert": "OK",
      "vis_m": null,
      "fzfg": false,
      "metar_trigger": false,
      "taf_trigger": false,
      "metar": "",
      "taf": ""
    },
    {
      "icao": "EBBR",
      "alert": "OK",
      "vis_m": 9999,
      "fzfg": false,
      "metar_trigger": false,
      "taf_trigger": false,
      "metar": "METAR EBBR 211720Z 06006KT CAVOK 07/06 Q1007 NOSIG",
      "taf": "TAF EBBR 211700Z 2118/2224 10007KT CAVOK"
    },
    {
      "icao": "EBCI",
      "alert": "OK",
      "vis_m": 9999,
      "fzfg": false,
      "metar_trigger": false,
      "taf_trigger": false,
      "metar": "METAR EBCI 211720Z 06007KT CAVOK 09/08 Q1007 NOSIG",
      "taf": "TAF EBCI 211700Z 2118/2224 11007KT CAVOK"
    },
    {
      "icao": "EDDB",
      "alert": "OK",
      "vis_m": 6000,
      "fzfg": false,
      "metar_trigger": false,
      "taf_trigger": false,
      "metar": "METAR EDDB 211720Z AUTO 11010KT 6000 OVC004 06/06 Q1018 NOSIG",
      "taf": "TAF EDDB 211700Z 2118/2218 08010KT 6000 OVC004"
    },
    {
      "icao": "EDDH",
      "alert": "OK",
      "vis_m": 9000,
      "fzfg": false,
      "metar_trigger": false,
      "taf_trigger": false,
      "metar": "METAR EDDH 211720Z AUTO 10012KT 9000 OVC004 06/05 Q1017 TEMPO 4500 BR OVC005",
      "taf": "TAF EDDH 211700Z 2118/2224 09011KT 8000 OVC004"
    },
    {
      "icao": "EDDK",
      "alert": "OK",
      "vis_m": 9999,
      "fzfg": false,
      "metar_trigger": false,
      "taf_trigger": false,
      "metar": "METAR EDDK 211720Z AUTO 09006KT 070V130 CAVOK 09/03 Q1009 NOSIG",
      "taf": "TAF EDDK 211700Z 2118/2224 11006KT CAVOK"
    },
    {
      "icao": "EDDN",
      "alert": "OK",
      "vis_m": 9999,
      "fzfg": false,
      "metar_trigger": false,
      "taf_trigger": false,
      "metar": "METAR EDDN 211720Z AUTO 12006KT CAVOK 01/M01 Q1012 NOSIG",
      "taf": "TAF EDDN 211700Z 2118/2218 12007KT CAVOK"
    },
    {
      "icao": "EDFH",
      "alert": "OK",
      "vis_m": 9999,
      "fzfg": false,
      "metar_trigger": false,
      "taf_trigger": false,
      "metar": "METAR EDFH 211720Z 11009KT CAVOK 05/01 Q1008",
      "taf": "TAF EDFH 211700Z 2118/2218 12010KT CAVOK"
    },
    {
      "icao": "EDJA",
      "alert": "OK",
      "vis_m": 3900,
      "fzfg": false,
      "metar_trigger": false,
      "taf_trigger": false,
      "metar": "METAR EDJA 211720Z 06008KT 3900 BR OVC002 M01/M02 Q1009",
      "taf": "TAF EDJA 211700Z 2118/2203 06004KT 4000 BR OVC002"
    },
    {
      "icao": "EDLW",
      "alert": "OK",
      "vis_m": 9999,
      "fzfg": false,
      "metar_trigger": false,
      "taf_trigger": false,
      "metar": "METAR EDLW 211720Z 04007KT CAVOK 08/05 Q1010",
      "taf": "TAF EDLW 211700Z 2118/2218 07007KT CAVOK"
    },
    {
      "icao": "EDSB",
      "alert": "OK",
      "vis_m": 9999,
      "fzfg": false,
      "metar_trigger": false,
      "taf_trigger": false,
      "metar": "METAR EDSB 211720Z 02005KT CAVOK 04/01 Q1008",
      "taf": "TAF EDSB 211700Z 2118/2218 02009KT CAVOK"
    },
    {
      "icao": "EETN",
      "alert": "OK",
      "vis_m": 9999,
      "fzfg": false,
      "metar_trigger": false,
      "taf_trigger": false,
      "metar": "METAR EETN 211720Z 34011KT 9999 OVC015 04/01 Q1014 NOSIG",
      "taf": "TAF EETN 211130Z 2112/2212 33014KT 9999 OVC015"
    },
    {
      "icao": "EFHK",
      "alert": "OK",
      "vis_m": 9999,
      "fzfg": false,
      "metar_trigger": false,
      "taf_trigger": false,
      "metar": "METAR EFHK 211720Z 32008KT 9999 FEW014 01/M01 Q1013 TEMPO BKN014",
      "taf": "TAF EFHK 211437Z 2115/2215 32011KT 9999 BKN020"
    },
    {
      "icao": "EFTU",
      "alert": "OK",
      "vis_m": 9999,
      "fzfg": false,
      "metar_trigger": false,
      "taf_trigger": false,
      "metar": "METAR EFTU 211720Z AUTO 32005KT 280V350 9999 FEW007 02/01 Q1016",
      "taf": ""
    },
    {
      "icao": "EGGW",
      "alert": "OK",
      "vis_m": 4600,
      "fzfg": false,
      "metar_trigger": false,
      "taf_trigger": false,
      "metar": "METAR EGGW 211720Z AUTO 07007KT 4600 RA OVC004 08/08 Q1006",
      "taf": "TAF EGGW 211659Z 2118/2218 10008KT 9999 BKN005"
    },
    {
      "icao": "EGKK",
      "alert": "OK",
      "vis_m": 9000,
      "fzfg": false,
      "metar_trigger": false,
      "taf_trigger": false,
      "metar": "METAR EGKK 211720Z 07009KT 9000 -RA SCT007 BKN009 10/10 Q1005",
      "taf": "TAF EGKK 211654Z 2118/2224 10008KT 9999 BKN008"
    },
    {
      "icao": "EHEH",
      "alert": "OK",
      "vis_m": 9999,
      "fzfg": false,
      "metar_trigger": false,
      "taf_trigger": false,
      "metar": "METAR EHEH 211655Z AUTO 05006KT 350V070 9999 OVC310 09/06 Q1009 BLU NOSIG RMK TREND REMOTE BY EHWX",
      "taf": "TAF EHEH 211107Z 2112/2218 09006KT CAVOK"
    },
    {
      "icao": "EKBI",
      "alert": "OK",
      "vis_m": 9999,
      "fzfg": false,
      "metar_trigger": false,
      "taf_trigger": false,
      "metar": "METAR EKBI 211720Z AUTO 09012KT 9999 OVC010/// 05/04 Q1019",
      "taf": "TAF EKBI 211427Z 2115/2215 09012KT 9999 BKN008"
    },
    {
      "icao": "EKCH",
      "alert": "OK",
      "vis_m": 9999,
      "fzfg": false,
      "metar_trigger": false,
      "taf_trigger": false,
      "metar": "METAR EKCH 211720Z AUTO 11007KT 9999 OVC018/// 06/02 Q1022 NOSIG",
      "taf": "TAF EKCH 211427Z 2115/2215 10005KT 9999 BKN016"
    },
    {
      "icao": "ENTO",
      "alert": "OK",
      "vis_m": 9999,
      "fzfg": false,
      "metar_trigger": false,
      "taf_trigger": false,
      "metar": "METAR ENTO 211720Z 36006KT CAVOK M01/M03 Q1023 NOSIG",
      "taf": "TAF ENTO 211100Z 2112/2212 02008KT CAVOK"
    },
    {
      "icao": "EPGD",
      "alert": "OK",
      "vis_m": 9999,
      "fzfg": false,
      "metar_trigger": false,
      "taf_trigger": false,
      "metar": "METAR EPGD 211700Z 29005KT 9999 BKN020 03/01 Q1021",
      "taf": "TAF EPGD 211130Z 2112/2212 27005KT 9999 BKN020"
    },
    {
      "icao": "EPKK",
      "alert": "OK",
      "vis_m": 6000,
      "fzfg": false,
      "metar_trigger": false,
      "taf_trigger": false,
      "metar": "METAR EPKK 211700Z 06008KT 6000 OVC003 04/04 Q1019",
      "taf": "TAF EPKK 211430Z 2115/2215 07008KT 5000 BR OVC004"
    },
    {
      "icao": "EPKT",
      "alert": "OK",
      "vis_m": 6000,
      "fzfg": false,
      "metar_trigger": false,
      "taf_trigger": false,
      "metar": "METAR EPKT 211700Z 09007KT 6000 OVC003 05/04 Q1019",
      "taf": ""
    },
    {
      "icao": "EPWA",
      "alert": "OK",
      "vis_m": 9999,
      "fzfg": false,
      "metar_trigger": false,
      "taf_trigger": false,
      "metar": "METAR EPWA 211700Z VRB02KT 9999 BKN017 03/M00 Q1022 NOSIG",
      "taf": "TAF EPWA 211430Z 2115/2215 08005KT 9999 BKN018"
    },
    {
      "icao": "EPWR",
      "alert": "OK",
      "vis_m": 6000,
      "fzfg": false,
      "metar_trigger": false,
      "taf_trigger": false,
      "metar": "METAR EPWR 211700Z 09006KT 6000 OVC004 06/05 Q1019",
      "taf": "TAF EPWR 211430Z 2115/2215 08007KT 5000 BR OVC006"
    },
    {
      "icao": "ESGG",
      "alert": "OK",
      "vis_m": 800,
      "fzfg": false,
      "metar_trigger": false,
      "taf_trigger": false,
      "metar": "METAR ESGG 211720Z 05006KT 0800 R03/P2000N R21/P2000N FG VV003 02/02 Q1022",
      "taf": ""
    },
    {
      "icao": "ESKN",
      "alert": "OK",
      "vis_m": 9999,
      "fzfg": false,
      "metar_trigger": false,
      "taf_trigger": false,
      "metar": "METAR ESKN 211720Z 30007KT CAVOK 00/M01 Q1021",
      "taf": "TAF ESKN 211430Z 2115/2215 28006KT CAVOK"
    },
    {
      "icao": "ESMX",
      "alert": "OK",
      "vis_m": 500,
      "fzfg": false,
      "metar_trigger": false,
      "taf_trigger": false,
      "metar": "METAR ESMX 211720Z 35002KT 0500 R01/0650N R19/0600D FG VV002 01/01 Q1022",
      "taf": "TAF ESMX 211430Z 2115/2120 34004KT 0300 FG OVC001"
    },
    {
      "icao": "EVRA",
      "alert": "OK",
      "vis_m": 9999,
      "fzfg": false,
      "metar_trigger": false,
      "taf_trigger": false,
      "metar": "METAR EVRA 211720Z 32009KT 260V350 9999 FEW016 BKN019 OVC027 06/03 Q1016 NOSIG",
      "taf": "TAF EVRA 211701Z 2118/2218 30010KT 9999 BKN030"
    },
    {
      "icao": "EYKA",
      "alert": "OK",
      "vis_m": 9999,
      "fzfg": false,
      "metar_trigger": false,
      "taf_trigger": false,
      "metar": "METAR EYKA 211720Z 28008KT 9999 OVC033 05/03 Q1018",
      "taf": "TAF EYKA 211700Z 2118/2218 28008KT 8000 OVC025"
    },
    {
      "icao": "EYVI",
      "alert": "OK",
      "vis_m": 9999,
      "fzfg": false,
      "metar_trigger": false,
      "taf_trigger": false,
      "metar": "METAR EYVI 211720Z 28009KT 9999 FEW010 BKN033 05/03 Q1016 TEMPO BKN010",
      "taf": "TAF EYVI 211700Z 2118/2218 29008KT 8000 SCT010 OVC025"
    },
    {
      "icao": "GCLP",
      "alert": "OK",
      "vis_m": 9999,
      "fzfg": false,
      "metar_trigger": false,
      "taf_trigger": false,
      "metar": "METAR GCLP 211700Z 01015KT 9999 SCT050 20/12 Q1018 NOSIG",
      "taf": "TAF GCLP 211400Z 2115/2215 36012KT 9999 FEW050 TX20/2214Z TN15/2206Z"
    },
    {
      "icao": "GCTS",
      "alert": "OK",
      "vis_m": 9999,
      "fzfg": false,
      "metar_trigger": false,
      "taf_trigger": false,
      "metar": "METAR GCTS 211700Z 16004KT 110V190 9999 BKN040 19/10 Q1019 NOSIG",
      "taf": "TAF GCTS 211400Z 2115/2215 19007KT 9999 SCT040 TX24/2214Z TN16/2206Z"
    },
    {
      "icao": "HECA",
      "alert": "OK",
      "vis_m": 9999,
      "fzfg": false,
      "metar_trigger": false,
      "taf_trigger": false,
      "metar": "METAR HECA 211700Z 16004KT CAVOK 19/01 Q1012 NOSIG",
      "taf": "TAF HECA 211700Z 2118/2224 19008KT CAVOK"
    },
    {
      "icao": "HEGN",
      "alert": "OK",
      "vis_m": 9999,
      "fzfg": false,
      "metar_trigger": false,
      "taf_trigger": false,
      "metar": "METAR HEGN 211600Z 13002KT CAVOK 22/11 Q1013 NOSIG",
      "taf": "TAF HEGN 211700Z 2118/2224 24008KT CAVOK"
    },
    {
      "icao": "HESH",
      "alert": "OK",
      "vis_m": 9999,
      "fzfg": false,
      "metar_trigger": false,
      "taf_trigger": false,
      "metar": "METAR HESH 211600Z 16005KT CAVOK 22/12 Q1013 NOSIG",
      "taf": "TAF HESH 211700Z 2118/2224 29008KT CAVOK"
    },
    {
      "icao": "HESX",
      "alert": "OK",
      "vis_m": 9999,
      "fzfg": false,
      "metar_trigger": false,
      "taf_trigger": false,
      "metar": "METAR HESX 211600Z 19007KT CAVOK 19/02 Q1011 NOSIG",
      "taf": "TAF HESX 211700Z 2118/2224 20008KT CAVOK"
    },
    {
      "icao": "LATI",
      "alert": "OK",
      "vis_m": 9999,
      "fzfg": false,
      "metar_trigger": false,
      "taf_trigger": false,
      "metar": "METAR LATI 211720Z 15004KT CAVOK 07/03 Q1014 NOSIG",
      "taf": "TAF LATI 211700Z 2118/2218 VRB05KT CAVOK TX17/2212Z TN01/2205Z"
    },
    {
      "icao": "LBSF",
      "alert": "OK",
      "vis_m": 9999,
      "fzfg": false,
      "metar_trigger": false,
      "taf_trigger": false,
      "metar": "METAR LBSF 211700Z AUTO VRB04KT 9999 NCD 01/M01 Q1017 NOSIG",
      "taf": "TAF LBSF 211700Z 2118/2218 VRB04KT 8000 SCT030"
    },
    {
      "icao": "LBWN",
      "alert": "OK",
      "vis_m": 9999,
      "fzfg": false,
      "metar_trigger": false,
      "taf_trigger": false,
      "metar": "METAR LBWN 211700Z AUTO 34007KT 9999 SCT019/// 07/07 Q1019 NOSIG",
      "taf": "TAF LBWN 211700Z 2118/2218 35008KT 7000 BKN010 OVC030"
    },
    {
      "icao": "LCLK",
      "alert": "OK",
      "vis_m": 9999,
      "fzfg": false,
      "metar_trigger": false,
      "taf_trigger": false,
      "metar": "METAR LCLK 211700Z 11008KT 9999 FEW030 FEW040CB SCT060 19/13 Q1013 NOSIG",
      "taf": "TAF LCLK 211130Z 2112/2212 12012KT 9999 FEW020 SCT030"
    },
    {
      "icao": "LDDU",
      "alert": "OK",
      "vis_m": 9999,
      "fzfg": false,
      "metar_trigger": false,
      "taf_trigger": false,
      "metar": "METAR LDDU 211700Z 02002KT CAVOK 10/06 Q1014 NOSIG",
      "taf": "TAF LDDU 211725Z 2118/2218 VRB02KT CAVOK TX15/2211Z TN08/2203Z"
    },
    {
      "icao": "LDSP",
      "alert": "OK",
      "vis_m": 9999,
      "fzfg": false,
      "metar_trigger": false,
      "taf_trigger": false,
      "metar": "METAR LDSP 211700Z VRB01KT 9999 FEW065 11/06 Q1014 NOSIG",
      "taf": "TAF LDSP 211725Z 2118/2218 VRB02KT CAVOK TX16/2212Z TN07/2205Z"
    },
    {
      "icao": "LDZA",
      "alert": "OK",
      "vis_m": 8000,
      "fzfg": false,
      "metar_trigger": false,
      "taf_trigger": false,
      "metar": "METAR LDZA 211700Z 06003KT 350V120 8000 -DZ FEW005 OVC012 04/03 Q1019 TEMPO OVC008",
      "taf": "TAF LDZA 211725Z 2118/2218 VRB02KT 6000 OVC015 TX06/2213Z TN03/2118Z"
    },
    {
      "icao": "LEAL",
      "alert": "OK",
      "vis_m": 9999,
      "fzfg": false,
      "metar_trigger": false,
      "taf_trigger": false,
      "metar": "METAR LEAL 211700Z 31011KT 270V330 9999 FEW020 BKN053 13/04 Q1005 NOSIG",
      "taf": "TAF LEAL 211700Z 2118/2218 25008KT 9999 FEW020 BKN040 TX13/2213Z TN07/2207Z"
    },
    {
      "icao": "LEBL",
      "alert": "OK",
      "vis_m": 9999,
      "fzfg": false,
      "metar_trigger": false,
      "taf_trigger": false,
      "metar": "METAR LEBL 211700Z 23008KT 9999 FEW030 SCT050 14/10 Q1004 NOSIG",
      "taf": "TAF LEBL 211700Z 2118/2218 VRB04KT 9999 SCT040 TX14/2118Z TN09/2206Z"
    },
    {
      "icao": "LECH",
      "alert": "OK",
      "vis_m": 9999,
      "fzfg": false,
      "metar_trigger": false,
      "taf_trigger": false,
      "metar": "METAR LECH 211700Z AUTO 21005KT 170V230 CAVOK 10/02 Q1003",
      "taf": ""
    },
    {
      "icao": "LEMD",
      "alert": "OK",
      "vis_m": 9999,
      "fzfg": false,
      "metar_trigger": false,
      "taf_trigger": false,
      "metar": "METAR LEMD 211700Z 00000KT 9999 FEW052 02/01 Q1004 NOSIG",
      "taf": "TAF LEMD 211700Z 2118/2224 VRB04KT 9999 SCT030 TX07/2215Z TNM01/2207Z"
    },
    {
      "icao": "LEMG",
      "alert": "OK",
      "vis_m": 9999,
      "fzfg": false,
      "metar_trigger": false,
      "taf_trigger": false,
      "metar": "METAR LEMG 211700Z 29007KT 9999 FEW030 09/06 Q1007 NOSIG",
      "taf": "TAF LEMG 211700Z 2118/2218 30008KT 9999 FEW012 SCT060 TX14/2214Z TN07/2206Z"
    },
    {
      "icao": "LERS",
      "alert": "OK",
      "vis_m": 9999,
      "fzfg": false,
      "metar_trigger": false,
      "taf_trigger": false,
      "metar": "METAR LERS 211600Z 36003KT 9999 FEW025 13/09 Q1004",
      "taf": "TAF LERS 211400Z 2115/2215 22008KT 9999 SCT025 TX12/2213Z TN06/2206Z"
    },
    {
      "icao": "LEVC",
      "alert": "OK",
      "vis_m": 9999,
      "fzfg": false,
      "metar_trigger": false,
      "taf_trigger": false,
      "metar": "METAR LEVC 211700Z 25005KT CAVOK 11/04 Q1005 NOSIG",
      "taf": "TAF LEVC 211700Z 2118/2218 27008KT 9999 FEW040 TX12/2213Z TN05/2207Z"
    },
    {
      "icao": "LFLL",
      "alert": "OK",
      "vis_m": 9999,
      "fzfg": false,
      "metar_trigger": false,
      "taf_trigger": false,
      "metar": "METAR LFLL 211700Z 14009KT CAVOK 10/07 Q1005 NOSIG",
      "taf": "TAF LFLL 211700Z 2118/2224 12006KT CAVOK"
    },
    {
      "icao": "LFMN",
      "alert": "OK",
      "vis_m": 9999,
      "fzfg": false,
      "metar_trigger": false,
      "taf_trigger": false,
      "metar": "METAR LFMN 211700Z 08020KT 9999 -RA BKN066 15/10 Q1010 NOSIG",
      "taf": "TAF LFMN 211400Z 2115/2221 08020KT 9999 BKN040"
    },
    {
      "icao": "LFOB",
      "alert": "OK",
      "vis_m": 9999,
      "fzfg": false,
      "metar_trigger": false,
      "taf_trigger": false,
      "metar": "METAR LFOB 211700Z AUTO 09011KT 9999 -RA FEW047 BKN056 OVC066 10/10 Q1005 NOSIG",
      "taf": "TAF LFOB 211100Z 2112/2212 08009KT 9999 OVC002"
    },
    {
      "icao": "LFPO",
      "alert": "OK",
      "vis_m": 9999,
      "fzfg": false,
      "metar_trigger": false,
      "taf_trigger": false,
      "metar": "METAR LFPO 211700Z AUTO 10010KT 9999 -RA FEW041/// BKN058/// OVC068/// ///TCU 10/09 Q1004 TEMPO 4500 -RA BECMG BKN040",
      "taf": ""
    },
    {
      "icao": "LFSB",
      "alert": "OK",
      "vis_m": 9999,
      "fzfg": false,
      "metar_trigger": false,
      "taf_trigger": false,
      "metar": "METAR LFSB 211700Z AUTO VRB02KT CAVOK 03/02 Q1008 TEMPO 0500 FG VV///",
      "taf": "TAF LFSB 211710Z 2118/2218 VRB03KT 8000 SCT006"
    },
    {
      "icao": "LGAV",
      "alert": "OK",
      "vis_m": 9999,
      "fzfg": false,
      "metar_trigger": false,
      "taf_trigger": false,
      "metar": "METAR LGAV 211720Z 03006KT 9999 SCT035 14/07 Q1016 NOSIG",
      "taf": "TAF LGAV 211700Z 2118/2218 36010KT 9999 SCT025 SCT070"
    },
    {
      "icao": "LGIR",
      "alert": "OK",
      "vis_m": 9999,
      "fzfg": false,
      "metar_trigger": false,
      "taf_trigger": false,
      "metar": "METAR LGIR 211720Z 16003KT 9999 SCT020 15/11 Q1013 NOSIG",
      "taf": "TAF LGIR 211700Z 2118/2218 VRB05KT 9999 SCT020 SCT080"
    },
    {
      "icao": "LGKR",
      "alert": "OK",
      "vis_m": 9999,
      "fzfg": false,
      "metar_trigger": false,
      "taf_trigger": false,
      "metar": "METAR LGKR 211720Z 00000KT 9999 FEW010 11/09 Q1013 NOSIG",
      "taf": "TAF LGKR 211700Z 2118/2218 VRB03KT 9999 FEW010 SCT020"
    },
    {
      "icao": "LGRP",
      "alert": "OK",
      "vis_m": 9999,
      "fzfg": false,
      "metar_trigger": false,
      "taf_trigger": false,
      "metar": "METAR LGRP 211720Z VRB03KT 9999 FEW012 SCT020 15/12 Q1012 NOSIG",
      "taf": "TAF LGRP 211700Z 2118/2218 14010KT 9999 FEW012 BKN020"
    },
    {
      "icao": "LGTS",
      "alert": "OK",
      "vis_m": 9999,
      "fzfg": false,
      "metar_trigger": false,
      "taf_trigger": false,
      "metar": "METAR LGTS 211720Z 10005KT 9999 FEW012 10/08 Q1017 NOSIG",
      "taf": "TAF LGTS 211700Z 2118/2218 VRB03KT 9999 FEW025"
    },
    {
      "icao": "LGZA",
      "alert": "OK",
      "vis_m": 8000,
      "fzfg": false,
      "metar_trigger": false,
      "taf_trigger": false,
      "metar": "METAR LGZA 211720Z 00000KT 8000 FEW020 BKN080 14/12 Q1013",
      "taf": "TAF LGZA 211700Z 2118/2203 08010KT 9000 FEW020 BKN080"
    },
    {
      "icao": "LHBP",
      "alert": "OK",
      "vis_m": 4000,
      "fzfg": false,
      "metar_trigger": false,
      "taf_trigger": false,
      "metar": "METAR LHBP 211700Z 08004KT 4000 -DZ BR OVC004 04/04 Q1020 BECMG 5000 -DZ BR OVC005",
      "taf": "TAF LHBP 211715Z 2118/2218 10005KT 6000 OVC006"
    },
    {
      "icao": "LHDC",
      "alert": "OK",
      "vis_m": 7000,
      "fzfg": false,
      "metar_trigger": false,
      "taf_trigger": false,
      "metar": "METAR LHDC 211645Z AUTO 00000KT 7000 OVC015 05/04 Q1020 TEMPO OVC012",
      "taf": "TAF LHDC 211715Z 2118/2203 VRB03KT 7000 FEW005 OVC020"
    },
    {
      "icao": "LIBD",
      "alert": "OK",
      "vis_m": 9999,
      "fzfg": false,
      "metar_trigger": false,
      "taf_trigger": false,
      "metar": "METAR LIBD 211720Z 23004KT 9999 FEW025 08/08 Q1014",
      "taf": "TAF LIBD 211700Z 2118/2218 VRB05KT 9999 FEW030"
    },
    {
      "icao": "LICC",
      "alert": "OK",
      "vis_m": 9999,
      "fzfg": false,
      "metar_trigger": false,
      "taf_trigger": false,
      "metar": "METAR LICC 211720Z 04009KT 9999 -RA FEW020 BKN070 15/14 Q1011 RERA",
      "taf": "TAF LICC 211700Z 2118/2218 07012KT 8000 RA BKN040"
    },
    {
      "icao": "LICJ",
      "alert": "OK",
      "vis_m": 9999,
      "fzfg": false,
      "metar_trigger": false,
      "taf_trigger": false,
      "metar": "METAR LICJ 211720Z 26004KT 210V280 9999 FEW045 16/13 Q1009",
      "taf": "TAF LICJ 211700Z 2118/2218 20010KT 9999 SCT040"
    },
    {
      "icao": "LIEO",
      "alert": "OK",
      "vis_m": 9999,
      "fzfg": false,
      "metar_trigger": false,
      "taf_trigger": false,
      "metar": "METAR LIEO 211720Z 09004KT 9999 FEW015 BKN050 13/13 Q1009",
      "taf": "TAF LIEO 211700Z 2118/2218 VRB05KT 8000 BKN020"
    },
    {
      "icao": "LIMC",
      "alert": "OK",
      "vis_m": 9999,
      "fzfg": false,
      "metar_trigger": false,
      "taf_trigger": false,
      "metar": "METAR LIMC 211720Z 12008KT 9999 BKN030 09/06 Q1015 NOSIG",
      "taf": "TAF LIMC 211700Z 2118/2224 VRB03KT 8000 BKN040"
    },
    {
      "icao": "LIME",
      "alert": "OK",
      "vis_m": 9999,
      "fzfg": false,
      "metar_trigger": false,
      "taf_trigger": false,
      "metar": "METAR LIME 211720Z 01002KT 9999 BKN030 08/06 Q1015 NOSIG",
      "taf": "TAF LIME 211700Z 2118/2218 VRB03KT 8000 SCT030"
    },
    {
      "icao": "LIPH",
      "alert": "OK",
      "vis_m": 9999,
      "fzfg": false,
      "metar_trigger": false,
      "taf_trigger": false,
      "metar": "METAR LIPH 211720Z 33002KT CAVOK 06/04 Q1015",
      "taf": "TAF LIPH 211700Z 2118/2218 VRB04KT 9999 FEW030"
    },
    {
      "icao": "LIPQ",
      "alert": "OK",
      "vis_m": 9999,
      "fzfg": false,
      "metar_trigger": false,
      "taf_trigger": false,
      "metar": "METAR LIPQ 211720Z AUTO 08004KT 9999 NCD 08/03 Q1016",
      "taf": "TAF LIPQ 211700Z 2118/2218 12007KT CAVOK"
    },
    {
      "icao": "LIPX",
      "alert": "OK",
      "vis_m": 9999,
      "fzfg": false,
      "metar_trigger": false,
      "taf_trigger": false,
      "metar": "METAR LIPX 211720Z 36004KT CAVOK 05/04 Q1015",
      "taf": "TAF LIPX 211700Z 2118/2218 VRB03KT 8000 NSC"
    },
    {
      "icao": "LIPY",
      "alert": "OK",
      "vis_m": 3200,
      "fzfg": false,
      "metar_trigger": false,
      "taf_trigger": false,
      "metar": "METAR LIPY 211720Z AUTO 12002KT 3200 BR BKN067/// 11/10 Q1015",
      "taf": "TAF LIPY 211700Z 2118/2218 VRB05KT 3000 BR BKN010"
    },
    {
      "icao": "LIPZ",
      "alert": "OK",
      "vis_m": 9999,
      "fzfg": false,
      "metar_trigger": false,
      "taf_trigger": false,
      "metar": "METAR LIPZ 211720Z 32003KT 290V010 CAVOK 09/05 Q1015 NOSIG",
      "taf": "TAF LIPZ 211700Z 2118/2224 03005KT 9999 FEW030"
    },
    {
      "icao": "LIRA",
      "alert": "OK",
      "vis_m": 9999,
      "fzfg": false,
      "metar_trigger": false,
      "taf_trigger": false,
      "metar": "METAR LIRA 211720Z 10005KT 080V140 CAVOK 12/06 Q1012",
      "taf": "TAF LIRA 211700Z 2118/2218 04005KT 9999 FEW060"
    },
    {
      "icao": "LIRN",
      "alert": "OK",
      "vis_m": 9999,
      "fzfg": false,
      "metar_trigger": false,
      "taf_trigger": false,
      "metar": "METAR LIRN 211720Z 01004KT 9999 FEW080 13/07 Q1012 NOSIG",
      "taf": "TAF LIRN 211700Z 2118/2218 05006KT 9999 SCT060"
    },
    {
      "icao": "LLBG",
      "alert": "OK",
      "vis_m": 9999,
      "fzfg": false,
      "metar_trigger": false,
      "taf_trigger": false,
      "metar": "METAR LLBG 211720Z 10005KT CAVOK 16/09 Q1014 NOSIG",
      "taf": "TAF LLBG 211716Z 2118/2218 VRB03KT CAVOK"
    },
    {
      "icao": "LMML",
      "alert": "OK",
      "vis_m": 9999,
      "fzfg": false,
      "metar_trigger": false,
      "taf_trigger": false,
      "metar": "METAR LMML 211715Z VRB02KT 9999 FEW017 SCT045 14/13 Q1010 NOSIG",
      "taf": "TAF LMML 211700Z 2118/2218 VRB05KT 9999 SCT020"
    },
    {
      "icao": "LOWW",
      "alert": "OK",
      "vis_m": 4300,
      "fzfg": false,
      "metar_trigger": false,
      "taf_trigger": false,
      "metar": "METAR LOWW 211720Z 14010KT 4300 BR FEW001 BKN002 02/02 Q1018 TEMPO 2500 BR",
      "taf": "TAF LOWW 211715Z 2118/2224 13013KT 6000 OVC002 TX04/2217Z TN03/2118Z"
    },
    {
      "icao": "LPFR",
      "alert": "OK",
      "vis_m": 9999,
      "fzfg": false,
      "metar_trigger": false,
      "taf_trigger": false,
      "metar": "METAR LPFR 211700Z 30006KT 9999 FEW015 11/07 Q1009",
      "taf": "TAF LPFR 211700Z 2118/2218 31010KT 9999 FEW015 SCT030"
    },
    {
      "icao": "LPPR",
      "alert": "OK",
      "vis_m": 9999,
      "fzfg": false,
      "metar_trigger": false,
      "taf_trigger": false,
      "metar": "METAR LPPR 211700Z 15006KT 9999 FEW040 07/05 Q1007",
      "taf": "TAF LPPR 211700Z 2118/2218 15007KT 9999 FEW012 SCT035"
    },
    {
      "icao": "LPPT",
      "alert": "OK",
      "vis_m": 9999,
      "fzfg": false,
      "metar_trigger": false,
      "taf_trigger": false,
      "metar": "METAR LPPT 211700Z VRB01KT 9999 FEW016 FEW025TCU 08/05 Q1009",
      "taf": "TAF LPPT 211700Z 2118/2224 29007KT 9999 SCT035"
    },
    {
      "icao": "LQSA",
      "alert": "OK",
      "vis_m": 7000,
      "fzfg": false,
      "metar_trigger": false,
      "taf_trigger": false,
      "metar": "METAR LQSA 211700Z 13004KT 110V180 7000 BKN010 OVC020 03/02 Q1018 NOSIG",
      "taf": ""
    },
    {
      "icao": "LQTZ",
      "alert": "OK",
      "vis_m": 8000,
      "fzfg": false,
      "metar_trigger": false,
      "taf_trigger": false,
      "metar": "METAR LQTZ 211700Z 15002KT 8000 OVC015 05/05 Q1018",
      "taf": "TAF LQTZ 211700Z 2118/2218 VRB02KT 7000 OVC015 TX05/2213Z TN02/2205Z"
    },
    {
      "icao": "LRCL",
      "alert": "OK",
      "vis_m": 6000,
      "fzfg": false,
      "metar_trigger": false,
      "taf_trigger": false,
      "metar": "METAR LRCL 211700Z 26004KT 6000 BKN012 OVC036 05/04 Q1019",
      "taf": "TAF LRCL 211400Z 2115/2124 VRB04KT 5000 BR BKN010"
    },
    {
      "icao": "LRCV",
      "alert": "OK",
      "vis_m": 6000,
      "fzfg": false,
      "metar_trigger": false,
      "taf_trigger": false,
      "metar": "METAR LRCV 211700Z 36003KT 320V030 6000 OVC010 05/04 Q1020",
      "taf": "TAF LRCV 211400Z 2115/2124 VRB04KT 5000 BR BKN015"
    },
    {
      "icao": "LRIA",
      "alert": "OK",
      "vis_m": 9999,
      "fzfg": false,
      "metar_trigger": false,
      "taf_trigger": false,
      "metar": "METAR LRIA 211700Z 31004KT 250V330 9999 OVC004 02/02 Q1021",
      "taf": ""
    },
    {
      "icao": "LROP",
      "alert": "OK",
      "vis_m": 5000,
      "fzfg": false,
      "metar_trigger": false,
      "taf_trigger": false,
      "metar": "METAR LROP 211700Z 23004KT 5000 BR FEW007 OVC015 06/05 Q1020 BECMG 3000 BR BKN005",
      "taf": "TAF LROP 211100Z 2112/2212 23006KT 5000 BR BKN010"
    },
    {
      "icao": "LRSB",
      "alert": "OK",
      "vis_m": 3500,
      "fzfg": false,
      "metar_trigger": false,
      "taf_trigger": false,
      "metar": "METAR LRSB 211700Z VRB02KT 3500 1000N BCFG BR NSC M02/M02 Q1019",
      "taf": "TAF LRSB 211100Z 2112/2212 VRB04KT 3000 BR NSC"
    },
    {
      "icao": "LRTR",
      "alert": "OK",
      "vis_m": 5000,
      "fzfg": false,
      "metar_trigger": false,
      "taf_trigger": false,
      "metar": "METAR LRTR 211700Z 02006KT 5000 BR BKN003 OVC006 05/05 Q1020",
      "taf": "TAF LRTR 211100Z 2112/2212 VRB04KT 3000 BR OVC002"
    },
    {
      "icao": "LTAF",
      "alert": "OK",
      "vis_m": 9999,
      "fzfg": false,
      "metar_trigger": false,
      "taf_trigger": false,
      "metar": "METAR LTAF 211650Z 05009KT CAVOK 14/M02 Q1016 NOSIG RMK RWY23 06009KT 4CI200",
      "taf": "TAF LTAF 211640Z 2118/2218 03009KT CAVOK"
    },
    {
      "icao": "LTAI",
      "alert": "OK",
      "vis_m": 9999,
      "fzfg": false,
      "metar_trigger": false,
      "taf_trigger": false,
      "metar": "METAR LTAI 211650Z 34006KT 9999 SCT030 BKN100 13/10 Q1014 NOSIG RMK RWY18C 34004KT RWY36R 36004KT RWY18L 01003KT",
      "taf": "TAF LTAI 211640Z 2118/2218 34009KT 9999 SCT030 BKN100"
    },
    {
      "icao": "LTFM",
      "alert": "OK",
      "vis_m": 9999,
      "fzfg": false,
      "metar_trigger": false,
      "taf_trigger": false,
      "metar": "METAR LTFM 211650Z 07008KT 9999 SCT015 BKN028 13/09 Q1017 NOSIG RMK RWY17L 05007KT RWY34L 04005KT 010V070 RWY16R 05007KT RWY36 05007KT RWY18 07005KT",
      "taf": "TAF LTFM 211640Z 2118/2224 05008KT 9999 SCT015 BKN028"
    },
    {
      "icao": "LUBL",
      "alert": "OK",
      "vis_m": null,
      "fzfg": false,
      "metar_trigger": false,
      "taf_trigger": false,
      "metar": "",
      "taf": ""
    },
    {
      "icao": "LUKK",
      "alert": "OK",
      "vis_m": 7000,
      "fzfg": false,
      "metar_trigger": false,
      "taf_trigger": false,
      "metar": "METAR LUKK 211700Z 29005KT 7000 OVC003 01/01 Q1020 NOSIG",
      "taf": "TAF LUKK 211722Z 2118/2218 VRB04KT 3000 BR OVC003"
    },
    {
      "icao": "LWSK",
      "alert": "OK",
      "vis_m": 600,
      "fzfg": false,
      "metar_trigger": false,
      "taf_trigger": false,
      "metar": "METAR LWSK 211720Z VRB02KT 0600 R34/1100N FG VV001 02/01 Q1019 NOSIG",
      "taf": "TAF LWSK 211410Z 2115/2215 VRB02KT 0600 FG OVC002"
    },
    {
      "icao": "LYBE",
      "alert": "OK",
      "vis_m": 4500,
      "fzfg": false,
      "metar_trigger": false,
      "taf_trigger": false,
      "metar": "METAR LYBE 211700Z VRB02KT 4500 BR OVC006 04/03 Q1020 NOSIG",
      "taf": "TAF LYBE 211700Z 2118/2218 07006KT 5000 BR OVC005 TX08/2213Z TN02/2206Z"
    },
    {
      "icao": "LZIB",
      "alert": "OK",
      "vis_m": 2400,
      "fzfg": false,
      "metar_trigger": false,
      "taf_trigger": false,
      "metar": "METAR LZIB 211700Z 12005KT 2400 -DZ BR SCT001 OVC002 03/03 Q1019 NOSIG",
      "taf": "TAF LZIB 211715Z 2118/2218 12004KT 6000 OVC005"
    },
    {
      "icao": "LZKZ",
      "alert": "OK",
      "vis_m": 7000,
      "fzfg": false,
      "metar_trigger": false,
      "taf_trigger": false,
      "metar": "METAR LZKZ 211700Z 25002KT 7000 BCFG SCT008 04/04 Q1020 BECMG 2800 BR BKN009",
      "taf": "TAF LZKZ 211715Z 2118/2218 VRB02KT 7000 SCT008"
    },
    {
      "icao": "LZTT",
      "alert": "OK",
      "vis_m": 9999,
      "fzfg": false,
      "metar_trigger": false,
      "taf_trigger": false,
      "metar": "METAR LZTT 211700Z 27003KT 9999 FEW003 BKN011 01/00 Q1018 NOSIG",
      "taf": "TAF LZTT 211715Z 2118/2218 VRB02KT 9999 FEW003 BKN011"
    },
    {
      "icao": "OEJN",
      "alert": "OK",
      "vis_m": 9999,
      "fzfg": false,
      "metar_trigger": false,
      "taf_trigger": false,
      "metar": "METAR OEJN 211700Z 25003KT CAVOK 26/19 Q1012 NOSIG",
      "taf": "TAF OEJN 211700Z 2118/2224 VRB03KT 9999 FEW040"
    },
    {
      "icao": "OEMA",
      "alert": "OK",
      "vis_m": 9999,
      "fzfg": false,
      "metar_trigger": false,
      "taf_trigger": false,
      "metar": "METAR OEMA 211700Z 33004KT CAVOK 17/M03 Q1018 NOSIG",
      "taf": "TAF OEMA 211700Z 2118/2224 07006KT CAVOK"
    },
    {
      "icao": "OERK",
      "alert": "OK",
      "vis_m": 9999,
      "fzfg": false,
      "metar_trigger": false,
      "taf_trigger": false,
      "metar": "METAR OERK 211700Z 10002KT CAVOK 12/02 Q1022 NOSIG",
      "taf": "TAF OERK 211700Z 2118/2224 10005KT 7000 NSC"
    },
    {
      "icao": "OJAI",
      "alert": "OK",
      "vis_m": 5000,
      "fzfg": false,
      "metar_trigger": false,
      "taf_trigger": false,
      "metar": "METAR OJAI 211700Z 08004KT 5000 HZ NSC 10/04 Q1017 NOSIG",
      "taf": "TAF OJAI 211700Z 2118/2224 12010KT 5000 HZ NSC"
    },
    {
      "icao": "OKBK",
      "alert": "OK",
      "vis_m": null,
      "fzfg": false,
      "metar_trigger": false,
      "taf_trigger": false,
      "metar": "",
      "taf": ""
    },
    {
      "icao": "OMAA",
      "alert": "OK",
      "vis_m": 9999,
      "fzfg": false,
      "metar_trigger": false,
      "taf_trigger": false,
      "metar": "METAR OMAA 211700Z 36005KT 220V010 CAVOK 20/12 Q1019 NOSIG",
      "taf": "TAF OMAA 211700Z 2118/2300 05005KT 8000 NSC"
    },
    {
      "icao": "UAAA",
      "alert": "OK",
      "vis_m": 1100,
      "fzfg": false,
      "metar_trigger": false,
      "taf_trigger": false,
      "metar": "SPECI UAAA 211723Z 08002MPS 040V100 1100 R23L/P2000 -SN BR BKN008 OVC026 M01/M01 Q1029 NOSIG",
      "taf": "TAF UAAA 211702Z 2118/2218 16003MPS 1100 BR FU BKN004 OVC011 TXM00/2207Z TNM06/2201Z"
    },
    {
      "icao": "UCFM",
      "alert": "CRITICAL",
      "vis_m": 50,
      "fzfg": true,
      "metar_trigger": true,
      "taf_trigger": false,
      "metar": "METAR UCFM 211700Z 14002MPS 110V170 0050 R25/0150N FZFG VV001 M01/M01 Q1029 NOSIG",
      "taf": "TAF UCFM 211655Z 2118/2218 12003MPS 0300 FZFG VV001"
    },
    {
      "icao": "UDYZ",
      "alert": "OK",
      "vis_m": 2900,
      "fzfg": false,
      "metar_trigger": false,
      "taf_trigger": false,
      "metar": "METAR UDYZ 211700Z 33001KT 2900 BR NSC M02/M06 Q1023 NOSIG",
      "taf": "TAF UDYZ 211700Z 2118/2218 VRB04KT 3000 BR FEW040"
    },
    {
      "icao": "UGTB",
      "alert": "OK",
      "vis_m": 6000,
      "fzfg": false,
      "metar_trigger": false,
      "taf_trigger": false,
      "metar": "METAR UGTB 211700Z VRB02KT 6000 OVC025 02/00 Q1024 NOSIG",
      "taf": "TAF UGTB 211700Z 2118/2218 VRB02KT 5000 OVC024 TX09/2212Z TNM02/2203Z"
    },
    {
      "icao": "UKKK",
      "alert": "OK",
      "vis_m": null,
      "fzfg": false,
      "metar_trigger": false,
      "taf_trigger": false,
      "metar": "",
      "taf": ""
    },
    {
      "icao": "UTTT",
      "alert": "OK",
      "vis_m": null,
      "fzfg": false,
      "metar_trigger": false,
      "taf_trigger": false,
      "metar": "",
      "taf": ""
    }
  ]
}