{
  "ts_utc": "2026-02-16T18:59:49Z",
  "threshold_m": 150,
  "source": "stations_override.txt (ICAO list) + aviationweather.gov (METAR/TAF raw)",
  "station_count": 159,
  "stations": [
    {
      "icao": "BIKF",
      "alert": "OK",
      "vis_m": 9999,
      "fzfg": false,
      "metar_trigger": false,
      "taf_trigger": false,
      "metar": "METAR BIKF 161830Z 03002KT CAVOK M03/M09 Q1013",
      "taf": "TAF BIKF 161702Z 1618/1718 02010KT 9999 FEW025 TXM01/1715Z TNM06/1701Z"
    },
    {
      "icao": "BKPR",
      "alert": "OK",
      "vis_m": null,
      "fzfg": false,
      "metar_trigger": false,
      "taf_trigger": false,
      "metar": "",
      "taf": "TAF BKPR 161730Z 1618/1718 23010KT 9999 SCT030 BKN080"
    },
    {
      "icao": "EBCI",
      "alert": "OK",
      "vis_m": 9999,
      "fzfg": false,
      "metar_trigger": false,
      "taf_trigger": false,
      "metar": "METAR EBCI 161850Z COR 28010KT 250V310 9999 FEW009 BKN024 04/03 Q0998 RETS NOSIG",
      "taf": "TAF EBCI 161710Z 1618/1724 26013KT 9999 FEW015TCU SCT030"
    },
    {
      "icao": "EDDB",
      "alert": "OK",
      "vis_m": 9999,
      "fzfg": false,
      "metar_trigger": false,
      "taf_trigger": false,
      "metar": "METAR EDDB 161850Z AUTO 09007KT 9999 BKN013 BKN039 M04/M06 Q0997 NOSIG",
      "taf": "TAF EDDB 161700Z 1618/1718 09006KT 8000 BKN012"
    },
    {
      "icao": "EDDH",
      "alert": "OK",
      "vis_m": 9999,
      "fzfg": false,
      "metar_trigger": false,
      "taf_trigger": false,
      "metar": "METAR EDDH 161850Z AUTO 13011KT 100V160 9999 FEW012 OVC022 M02/M05 Q0996 TEMPO 1400 SN BKN008",
      "taf": "TAF EDDH 161700Z 1618/1724 11010KT 8000 OVC013"
    },
    {
      "icao": "EDDK",
      "alert": "OK",
      "vis_m": 9999,
      "fzfg": false,
      "metar_trigger": false,
      "taf_trigger": false,
      "metar": "METAR EDDK 161850Z AUTO 17004KT 140V240 9999 BKN029 BKN036 03/02 Q0997 TEMPO SHRA BKN015TCU",
      "taf": "TAF EDDK 161700Z 1618/1724 27009KT 9999 BKN020"
    },
    {
      "icao": "EDDN",
      "alert": "OK",
      "vis_m": 9999,
      "fzfg": false,
      "metar_trigger": false,
      "taf_trigger": false,
      "metar": "METAR EDDN 161850Z AUTO 25011KT 9999 -SHRA BKN007 FEW///CB 02/01 Q0997 BECMG SCT008",
      "taf": ""
    },
    {
      "icao": "EDDS",
      "alert": "OK",
      "vis_m": 9999,
      "fzfg": false,
      "metar_trigger": false,
      "taf_trigger": false,
      "metar": "METAR EDDS 161850Z AUTO 27011KT 9999 BKN019 OVC028 04/01 Q1000 NOSIG",
      "taf": "TAF EDDS 161700Z 1618/1718 24010KT 9999 BKN020"
    },
    {
      "icao": "EDFH",
      "alert": "OK",
      "vis_m": 9999,
      "fzfg": false,
      "metar_trigger": false,
      "taf_trigger": false,
      "metar": "METAR EDFH 161850Z 26010KT 9999 -RA FEW004 BKN009 OVC026 02/02 Q0997",
      "taf": "TAF EDFH 161700Z 1618/1718 27012KT 9999 BKN006"
    },
    {
      "icao": "EDJA",
      "alert": "OK",
      "vis_m": 9999,
      "fzfg": false,
      "metar_trigger": false,
      "taf_trigger": false,
      "metar": "METAR EDJA 161850Z 24015G27KT 9999 FEW009 SCT011 02/00 Q1000",
      "taf": "TAF EDJA 161700Z 1618/1703 24010KT 9999 SCT007 BKN015"
    },
    {
      "icao": "EDLW",
      "alert": "OK",
      "vis_m": 9000,
      "fzfg": false,
      "metar_trigger": false,
      "taf_trigger": false,
      "metar": "METAR EDLW 161850Z 22012KT 9000 -RA SCT016 BKN020 OVC029 04/03 Q0996",
      "taf": "TAF EDLW 161700Z 1618/1718 23009KT 9999 SCT012 BKN020"
    },
    {
      "icao": "EDNY",
      "alert": "OK",
      "vis_m": 9999,
      "fzfg": false,
      "metar_trigger": false,
      "taf_trigger": false,
      "metar": "METAR EDNY 161850Z 25004KT 220V310 9999 FEW010 BKN014 03/02 Q1003",
      "taf": "TAF EDNY 161700Z 1618/1703 24012KT 9999 SCT012 BKN015"
    },
    {
      "icao": "EDSB",
      "alert": "OK",
      "vis_m": 9999,
      "fzfg": false,
      "metar_trigger": false,
      "taf_trigger": false,
      "metar": "METAR EDSB 161850Z 20009KT 9999 FEW025 04/02 Q1001",
      "taf": "TAF EDSB 161700Z 1618/1718 23009KT 9999 BKN020"
    },
    {
      "icao": "EETN",
      "alert": "OK",
      "vis_m": 9999,
      "fzfg": false,
      "metar_trigger": false,
      "taf_trigger": false,
      "metar": "METAR EETN 161850Z 11003KT 9999 OVC021 M07/M10 Q1013 NOSIG",
      "taf": "TAF EETN 161730Z 1618/1718 VRB02KT 9999 OVC020"
    },
    {
      "icao": "EFTU",
      "alert": "OK",
      "vis_m": 6000,
      "fzfg": false,
      "metar_trigger": false,
      "taf_trigger": false,
      "metar": "METAR EFTU 161850Z AUTO 12006KT 6000 OVC002 M10/M11 Q1013",
      "taf": ""
    },
    {
      "icao": "EGBB",
      "alert": "OK",
      "vis_m": 9999,
      "fzfg": false,
      "metar_trigger": false,
      "taf_trigger": false,
      "metar": "METAR EGBB 161850Z 30009KT 9999 FEW046 06/03 Q1000",
      "taf": "TAF EGBB 161656Z 1618/1718 27011KT 9999 SCT025"
    },
    {
      "icao": "EGGP",
      "alert": "OK",
      "vis_m": 9999,
      "fzfg": false,
      "metar_trigger": false,
      "taf_trigger": false,
      "metar": "METAR EGGP 161850Z 31018G29KT 270V330 9999 -RA SCT029 BKN035 06/02 Q1001",
      "taf": "TAF EGGP 161702Z 1618/1718 31016KT 9999 SCT020"
    },
    {
      "icao": "EGGW",
      "alert": "OK",
      "vis_m": 9999,
      "fzfg": false,
      "metar_trigger": false,
      "taf_trigger": false,
      "metar": "METAR EGGW 161850Z AUTO 28012KT 9999 BKN027 BKN032 06/03 Q1000",
      "taf": "TAF EGGW 161651Z 1618/1718 29012KT 9999 SCT030"
    },
    {
      "icao": "EGKK",
      "alert": "OK",
      "vis_m": 9999,
      "fzfg": false,
      "metar_trigger": false,
      "taf_trigger": false,
      "metar": "METAR EGKK 161850Z 27010KT 9999 SCT040 07/04 Q1001",
      "taf": "TAF EGKK 161659Z 1618/1724 28012KT 9999 FEW040"
    },
    {
      "icao": "EGNM",
      "alert": "OK",
      "vis_m": 9999,
      "fzfg": false,
      "metar_trigger": false,
      "taf_trigger": false,
      "metar": "METAR EGNM 161850Z 28010KT 9999 SCT017 BKN025 05/03 Q0997",
      "taf": "TAF EGNM 161701Z 1618/1718 29015KT 9999 FEW015 SCT025"
    },
    {
      "icao": "EGPD",
      "alert": "OK",
      "vis_m": 9999,
      "fzfg": false,
      "metar_trigger": false,
      "taf_trigger": false,
      "metar": "METAR EGPD 161850Z COR AUTO 31016KT 9999 FEW022 01/M01 Q0997 NOSIG",
      "taf": ""
    },
    {
      "icao": "EGPF",
      "alert": "OK",
      "vis_m": 9999,
      "fzfg": false,
      "metar_trigger": false,
      "taf_trigger": false,
      "metar": "METAR EGPF 161850Z AUTO 30010KT 9999 NCD 03/M01 Q1001",
      "taf": ""
    },
    {
      "icao": "EHBK",
      "alert": "OK",
      "vis_m": 9999,
      "fzfg": false,
      "metar_trigger": false,
      "taf_trigger": false,
      "metar": "METAR EHBK 161855Z AUTO 28008KT 240V330 9999 -SHRA FEW015/// SCT020/// OVC024/// 04/03 Q0997 TEMPO 6000 SHRA",
      "taf": "TAF EHBK 161720Z 1618/1724 24007KT 9999 BKN025"
    },
    {
      "icao": "EHEH",
      "alert": "OK",
      "vis_m": 9999,
      "fzfg": false,
      "metar_trigger": false,
      "taf_trigger": false,
      "metar": "METAR EHEH 161825Z AUTO 24005KT 9999 -DZRA FEW002 FEW015CB SCT025 BKN037 04/03 Q0996 BLU TEMPO 4500 SHRAGS SCT008 SCT012CB BKN018 RMK TREND REMOTE BY EHWX",
      "taf": "TAF EHEH 161815Z 1618/1800 26008KT 9999 SCT016 BKN025"
    },
    {
      "icao": "EKBI",
      "alert": "OK",
      "vis_m": 9999,
      "fzfg": false,
      "metar_trigger": false,
      "taf_trigger": false,
      "metar": "METAR EKBI 161847Z 10012KT 9999 -SN DRSN OVC017 M04/M07 Q0997",
      "taf": "TAF EKBI 161727Z 1618/1718 11012KT 9999 -SN SCT015"
    },
    {
      "icao": "EKCH",
      "alert": "OK",
      "vis_m": 9999,
      "fzfg": false,
      "metar_trigger": false,
      "taf_trigger": false,
      "metar": "METAR EKCH 161850Z AUTO 11018KT 9999 SCT100/// M03/M09 Q1001 TEMPO 12020G30KT",
      "taf": "TAF EKCH 161727Z 1618/1718 11020KT CAVOK"
    },
    {
      "icao": "ENAL",
      "alert": "OK",
      "vis_m": 9999,
      "fzfg": false,
      "metar_trigger": false,
      "taf_trigger": false,
      "metar": "METAR ENAL 161850Z 20007KT CAVOK 02/M08 Q0996",
      "taf": "TAF ENAL 161700Z 1618/1703 19009KT 9999 BKN050"
    },
    {
      "icao": "ENBR",
      "alert": "OK",
      "vis_m": 9999,
      "fzfg": false,
      "metar_trigger": false,
      "taf_trigger": false,
      "metar": "METAR ENBR 161850Z 10008KT 070V130 9999 BKN047 00/M07 Q0997 TEMPO 4500 -SN VV014 RMK WIND 1200FT 11016KT",
      "taf": ""
    },
    {
      "icao": "ENGM",
      "alert": "OK",
      "vis_m": 9999,
      "fzfg": false,
      "metar_trigger": false,
      "taf_trigger": false,
      "metar": "METAR ENGM 161850Z 09003KT 060V150 CAVOK M07/M11 Q1004 NOSIG",
      "taf": "TAF ENGM 161700Z 1618/1718 04005KT 9999 FEW020"
    },
    {
      "icao": "ENHD",
      "alert": "OK",
      "vis_m": 9000,
      "fzfg": false,
      "metar_trigger": false,
      "taf_trigger": false,
      "metar": "METAR ENHD 161850Z 11019KT 9000 -SN OVC029 M01/M06 Q0996",
      "taf": "TAF ENHD 161400Z 1615/1623 11015KT 9999 BKN040"
    },
    {
      "icao": "ENTC",
      "alert": "OK",
      "vis_m": 9999,
      "fzfg": false,
      "metar_trigger": false,
      "taf_trigger": false,
      "metar": "METAR ENTC 161850Z 16001KT CAVOK M06/M08 Q0995 NOSIG RMK WIND 2600FT 17010KT",
      "taf": "TAF ENTC 161700Z 1618/1718 20006KT 9999 SCT050"
    },
    {
      "icao": "ENTO",
      "alert": "OK",
      "vis_m": 9999,
      "fzfg": false,
      "metar_trigger": false,
      "taf_trigger": false,
      "metar": "METAR ENTO 161850Z 01004KT CAVOK M06/M10 Q1003 NOSIG",
      "taf": "TAF ENTO 161700Z 1618/1718 08005KT 9999 FEW020"
    },
    {
      "icao": "ENVA",
      "alert": "OK",
      "vis_m": 9999,
      "fzfg": false,
      "metar_trigger": false,
      "taf_trigger": false,
      "metar": "METAR ENVA 161850Z 11006KT 050V150 CAVOK M03/M12 Q0999 TEMPO 16015G25KT RMK WIND 670FT 15019KT",
      "taf": ""
    },
    {
      "icao": "ENZV",
      "alert": "OK",
      "vis_m": 9999,
      "fzfg": false,
      "metar_trigger": false,
      "taf_trigger": false,
      "metar": "METAR ENZV 161850Z 11007KT CAVOK M00/M08 Q0996 TEMPO 13018G28KT",
      "taf": "TAF ENZV 161700Z 1618/1718 12018KT 9999 SCT050"
    },
    {
      "icao": "EPGD",
      "alert": "OK",
      "vis_m": 9999,
      "fzfg": false,
      "metar_trigger": false,
      "taf_trigger": false,
      "metar": "METAR EPGD 161830Z 08010KT CAVOK M10/M15 Q1004",
      "taf": "TAF EPGD 161730Z 1618/1718 09010KT CAVOK"
    },
    {
      "icao": "EPKK",
      "alert": "OK",
      "vis_m": 3300,
      "fzfg": false,
      "metar_trigger": false,
      "taf_trigger": false,
      "metar": "METAR EPKK 161830Z 05007KT 3300 SN BR FEW024 BKN044 M05/M07 Q0999",
      "taf": "TAF EPKK 161730Z 1618/1718 06010KT 5000 -SN BR SCT012 BKN020"
    },
    {
      "icao": "EPKT",
      "alert": "OK",
      "vis_m": 2800,
      "fzfg": false,
      "metar_trigger": false,
      "taf_trigger": false,
      "metar": "METAR EPKT 161830Z 12005KT 2800 -SN BR SCT012 BKN020 M06/M07 Q0998 RESN",
      "taf": "TAF EPKT 161730Z 1618/1718 10010KT 3000 SN BR SCT014 BKN020"
    },
    {
      "icao": "EPLB",
      "alert": "OK",
      "vis_m": 9999,
      "fzfg": false,
      "metar_trigger": false,
      "taf_trigger": false,
      "metar": "METAR EPLB 161830Z 09007KT CAVOK M10/M13 Q1004",
      "taf": "TAF EPLB 161730Z 1618/1718 10012KT CAVOK"
    },
    {
      "icao": "EPMO",
      "alert": "OK",
      "vis_m": 9999,
      "fzfg": false,
      "metar_trigger": false,
      "taf_trigger": false,
      "metar": "METAR EPMO 161830Z 08013KT CAVOK M07/M11 Q1003",
      "taf": "TAF EPMO 161730Z 1618/1718 10012KT CAVOK"
    },
    {
      "icao": "EPPO",
      "alert": "OK",
      "vis_m": 7000,
      "fzfg": false,
      "metar_trigger": false,
      "taf_trigger": false,
      "metar": "METAR EPPO 161830Z 10011KT 7000 -SN NSC M05/M08 Q0999",
      "taf": "TAF EPPO 161730Z 1618/1718 09008KT 9999 BKN020"
    },
    {
      "icao": "EPRA",
      "alert": "OK",
      "vis_m": 9999,
      "fzfg": false,
      "metar_trigger": false,
      "taf_trigger": false,
      "metar": "METAR EPRA 161830Z 10011KT CAVOK M08/M12 Q1002",
      "taf": "TAF EPRA 161730Z 1618/1703 10010KT CAVOK"
    },
    {
      "icao": "EPRZ",
      "alert": "OK",
      "vis_m": 9999,
      "fzfg": false,
      "metar_trigger": false,
      "taf_trigger": false,
      "metar": "METAR EPRZ 161830Z 09010KT 9999 BKN024 M06/M08 Q1002",
      "taf": "TAF EPRZ 161730Z 1618/1718 09010KT 9999 BKN020"
    },
    {
      "icao": "EPSC",
      "alert": "OK",
      "vis_m": 9999,
      "fzfg": false,
      "metar_trigger": false,
      "taf_trigger": false,
      "metar": "METAR EPSC 161830Z 10010KT CAVOK M05/M13 Q0999",
      "taf": "TAF EPSC 161730Z 1618/1718 11010KT CAVOK"
    },
    {
      "icao": "EPSY",
      "alert": "OK",
      "vis_m": 9999,
      "fzfg": false,
      "metar_trigger": false,
      "taf_trigger": false,
      "metar": "METAR EPSY 161830Z 08006KT 030V120 CAVOK M09/M20 Q1005",
      "taf": "TAF EPSY 161730Z 1618/1703 09008KT CAVOK"
    },
    {
      "icao": "EPWA",
      "alert": "OK",
      "vis_m": 9999,
      "fzfg": false,
      "metar_trigger": false,
      "taf_trigger": false,
      "metar": "METAR EPWA 161830Z 10012KT CAVOK M07/M12 Q1003 NOSIG",
      "taf": "TAF EPWA 161730Z 1618/1718 10010KT CAVOK"
    },
    {
      "icao": "EPWR",
      "alert": "OK",
      "vis_m": 5000,
      "fzfg": false,
      "metar_trigger": false,
      "taf_trigger": false,
      "metar": "METAR EPWR 161830Z 11007KT 5000 -SN BR BKN038 M04/M05 Q0997",
      "taf": "TAF EPWR 161730Z 1618/1718 13008KT 4000 -SN BR FEW008 OVC022"
    },
    {
      "icao": "ESGG",
      "alert": "OK",
      "vis_m": 9999,
      "fzfg": false,
      "metar_trigger": false,
      "taf_trigger": false,
      "metar": "METAR ESGG 161850Z 12012KT CAVOK M05/M10 Q1002",
      "taf": "TAF ESGG 161730Z 1618/1718 11010KT CAVOK"
    },
    {
      "icao": "ESKN",
      "alert": "OK",
      "vis_m": 9999,
      "fzfg": false,
      "metar_trigger": false,
      "taf_trigger": false,
      "metar": "METAR ESKN 161850Z 15010KT 9999 BKN023 M03/M08 Q1009",
      "taf": "TAF ESKN 161730Z 1618/1718 15010KT 9999 BKN025"
    },
    {
      "icao": "ESMS",
      "alert": "OK",
      "vis_m": 9999,
      "fzfg": false,
      "metar_trigger": false,
      "taf_trigger": false,
      "metar": "METAR ESMS 161850Z 11014KT CAVOK M04/M10 Q1000",
      "taf": "TAF ESMS 161727Z 1618/1718 12018KT CAVOK"
    },
    {
      "icao": "ESSA",
      "alert": "OK",
      "vis_m": 9999,
      "fzfg": false,
      "metar_trigger": false,
      "taf_trigger": false,
      "metar": "METAR ESSA 161850Z 11003KT 090V180 CAVOK M09/M12 Q1010 NOSIG",
      "taf": "TAF ESSA 161730Z 1618/1718 15007KT CAVOK"
    },
    {
      "icao": "EYKA",
      "alert": "OK",
      "vis_m": 9999,
      "fzfg": false,
      "metar_trigger": false,
      "taf_trigger": false,
      "metar": "METAR EYKA 161850Z 06005KT CAVOK M13/M17 Q1010",
      "taf": "TAF EYKA 161707Z 1618/1718 08006KT 9000 NSC"
    },
    {
      "icao": "EYPA",
      "alert": "OK",
      "vis_m": 9999,
      "fzfg": false,
      "metar_trigger": false,
      "taf_trigger": false,
      "metar": "METAR EYPA 161850Z 08007KT CAVOK M10/M14 Q1010",
      "taf": "TAF EYPA 161706Z 1618/1718 11007KT 9000 NSC"
    },
    {
      "icao": "EYVI",
      "alert": "OK",
      "vis_m": 9999,
      "fzfg": false,
      "metar_trigger": false,
      "taf_trigger": false,
      "metar": "METAR EYVI 161850Z 07006KT CAVOK M13/M20 Q1009 NOSIG",
      "taf": "TAF EYVI 161707Z 1618/1718 08008KT 9000 NSC"
    },
    {
      "icao": "GCFV",
      "alert": "OK",
      "vis_m": 9000,
      "fzfg": false,
      "metar_trigger": false,
      "taf_trigger": false,
      "metar": "METAR GCFV 161830Z 02008KT 9000 FEW010 19/16 Q1027",
      "taf": "TAF GCFV 161400Z 1615/1715 05005KT 9000 NSC TX22/1714Z TN14/1706Z"
    },
    {
      "icao": "GCLP",
      "alert": "OK",
      "vis_m": 5000,
      "fzfg": false,
      "metar_trigger": false,
      "taf_trigger": false,
      "metar": "METAR GCLP 161830Z 08004KT 030V110 5000 HZ NSC 20/15 Q1026 NOSIG",
      "taf": "TAF GCLP 161400Z 1615/1715 13006KT 4500 HZ NSC TX23/1714Z TN17/1706Z"
    },
    {
      "icao": "GCTS",
      "alert": "OK",
      "vis_m": 3000,
      "fzfg": false,
      "metar_trigger": false,
      "taf_trigger": false,
      "metar": "METAR GCTS 161830Z 11006KT 3000 HZ NSC 21/06 Q1026 NOSIG",
      "taf": ""
    },
    {
      "icao": "GMAD",
      "alert": "OK",
      "vis_m": 9999,
      "fzfg": false,
      "metar_trigger": false,
      "taf_trigger": false,
      "metar": "METAR GMAD 161830Z 21005KT CAVOK 18/07 Q1026 NOSIG",
      "taf": "TAF GMAD 161700Z 1618/1724 20010KT CAVOK"
    },
    {
      "icao": "GMMN",
      "alert": "OK",
      "vis_m": 9999,
      "fzfg": false,
      "metar_trigger": false,
      "taf_trigger": false,
      "metar": "METAR GMMN 161830Z 03011KT CAVOK 13/10 Q1029 NOSIG",
      "taf": "TAF GMMN 161700Z 1618/1724 03010KT CAVOK"
    },
    {
      "icao": "GMMX",
      "alert": "OK",
      "vis_m": 9999,
      "fzfg": false,
      "metar_trigger": false,
      "taf_trigger": false,
      "metar": "METAR GMMX 161830Z 04005KT 350V080 CAVOK 19/04 Q1027 NOSIG",
      "taf": "TAF GMMX 161700Z 1618/1724 06006KT CAVOK"
    },
    {
      "icao": "HEGN",
      "alert": "OK",
      "vis_m": 4000,
      "fzfg": false,
      "metar_trigger": false,
      "taf_trigger": false,
      "metar": "METAR HEGN 161800Z 15002KT 4000 DU NSC 23/19 Q1011 NOSIG",
      "taf": ""
    },
    {
      "icao": "HEMA",
      "alert": "OK",
      "vis_m": 9999,
      "fzfg": false,
      "metar_trigger": false,
      "taf_trigger": false,
      "metar": "METAR HEMA 161800Z 18003KT CAVOK 23/20 Q1010 NOSIG",
      "taf": "TAF HEMA 161700Z 1618/1724 29010KT CAVOK"
    },
    {
      "icao": "HESH",
      "alert": "OK",
      "vis_m": 9999,
      "fzfg": false,
      "metar_trigger": false,
      "taf_trigger": false,
      "metar": "METAR HESH 161800Z 27003KT CAVOK 25/05 Q1011 NOSIG",
      "taf": "TAF HESH 161700Z 1618/1724 35010KT CAVOK"
    },
    {
      "icao": "HESX",
      "alert": "OK",
      "vis_m": 9999,
      "fzfg": false,
      "metar_trigger": false,
      "taf_trigger": false,
      "metar": "METAR HESX 161800Z 30008KT CAVOK 18/13 Q1013 NOSIG",
      "taf": "TAF HESX 161700Z 1618/1724 18010KT CAVOK"
    },
    {
      "icao": "LATI",
      "alert": "OK",
      "vis_m": 9999,
      "fzfg": false,
      "metar_trigger": false,
      "taf_trigger": false,
      "metar": "METAR LATI 161850Z 12005KT 9999 FEW024 SCT037 BKN055 12/06 Q1004 REDZ NOSIG",
      "taf": "TAF LATI 161700Z 1618/1718 VRB03KT 9999 SCT040 BKN070 TX14/1712Z TN07/1718Z"
    },
    {
      "icao": "LBPD",
      "alert": "OK",
      "vis_m": 9999,
      "fzfg": false,
      "metar_trigger": false,
      "taf_trigger": false,
      "metar": "METAR LBPD 161830Z AUTO 12007KT 9999 -SHRA FEW016/// SCT062/// OVC072/// 07/07 Q1003 NOSIG",
      "taf": "TAF LBPD 161700Z 1618/1718 VRB04KT 9999 SCT020 BKN040"
    },
    {
      "icao": "LBSF",
      "alert": "OK",
      "vis_m": 5000,
      "fzfg": false,
      "metar_trigger": false,
      "taf_trigger": false,
      "metar": "METAR LBSF 161830Z AUTO 12003KT 5000 BR FEW039/// 02/01 Q1003 TEMPO 3000 BR",
      "taf": ""
    },
    {
      "icao": "LBWN",
      "alert": "OK",
      "vis_m": 9000,
      "fzfg": false,
      "metar_trigger": false,
      "taf_trigger": false,
      "metar": "METAR LBWN 161830Z AUTO 29004KT 9000 -RA BKN013/// OVC022/// 04/04 Q1005 TEMPO 5000 RA",
      "taf": "TAF LBWN 161700Z 1618/1718 12008KT 9999 SCT010 OVC025"
    },
    {
      "icao": "LCLK",
      "alert": "OK",
      "vis_m": 6000,
      "fzfg": false,
      "metar_trigger": false,
      "taf_trigger": false,
      "metar": "METAR LCLK 161830Z 36004KT 6000 FEW060 17/15 Q1010 NOSIG",
      "taf": "TAF LCLK 161730Z 1618/1718 33005KT 8000 FEW035"
    },
    {
      "icao": "LCPH",
      "alert": "OK",
      "vis_m": 8000,
      "fzfg": false,
      "metar_trigger": false,
      "taf_trigger": false,
      "metar": "METAR LCPH 161830Z 09005KT 070V160 8000 NSC 19/09 Q1009 NOSIG",
      "taf": "TAF LCPH 161730Z 1618/1718 10010KT 7000 FEW020"
    },
    {
      "icao": "LEAL",
      "alert": "OK",
      "vis_m": 9999,
      "fzfg": false,
      "metar_trigger": false,
      "taf_trigger": false,
      "metar": "METAR LEAL 161830Z 31007KT 280V340 CAVOK 20/09 Q1020 NOSIG",
      "taf": "TAF LEAL 161700Z 1618/1718 29012KT 9999 FEW040 TX24/1713Z TN15/1706Z"
    },
    {
      "icao": "LEBB",
      "alert": "OK",
      "vis_m": 9000,
      "fzfg": false,
      "metar_trigger": false,
      "taf_trigger": false,
      "metar": "METAR LEBB 161830Z COR 28009KT 240V300 9000 -RA FEW010 SCT021 BKN029 12/11 Q1021 NOSIG",
      "taf": "TAF LEBB 161700Z 1618/1718 29009KT 9999 SCT010 BKN020 TX14/1715Z TN10/1706Z"
    },
    {
      "icao": "LEBL",
      "alert": "OK",
      "vis_m": 9999,
      "fzfg": false,
      "metar_trigger": false,
      "taf_trigger": false,
      "metar": "METAR LEBL 161830Z 31007KT 270V340 9999 FEW035 19/09 Q1011 NOSIG",
      "taf": "TAF LEBL 161700Z 1618/1718 29008KT 9999 FEW030 TX19/1713Z TN10/1706Z"
    },
    {
      "icao": "LECH",
      "alert": "OK",
      "vis_m": 9999,
      "fzfg": false,
      "metar_trigger": false,
      "taf_trigger": false,
      "metar": "METAR LECH 161830Z AUTO 29011G21KT 230V350 9999 FEW067 20/07 Q1016",
      "taf": ""
    },
    {
      "icao": "LEMD",
      "alert": "OK",
      "vis_m": 9999,
      "fzfg": false,
      "metar_trigger": false,
      "taf_trigger": false,
      "metar": "METAR LEMD 161830Z 27014KT 9999 FEW070 14/09 Q1023 WS R18L WS R18R NOSIG",
      "taf": ""
    },
    {
      "icao": "LEMG",
      "alert": "OK",
      "vis_m": 9999,
      "fzfg": false,
      "metar_trigger": false,
      "taf_trigger": false,
      "metar": "METAR LEMG 161830Z 29010KT 250V320 9999 FEW040 15/09 Q1027 NOSIG",
      "taf": "TAF LEMG 161700Z 1618/1718 29015KT 9999 FEW040 TX24/1714Z TN11/1707Z"
    },
    {
      "icao": "LEVC",
      "alert": "OK",
      "vis_m": 9999,
      "fzfg": false,
      "metar_trigger": false,
      "taf_trigger": false,
      "metar": "METAR LEVC 161830Z 25016KT 220V280 CAVOK 18/09 Q1018 NOSIG",
      "taf": "TAF LEVC 161700Z 1618/1718 27012KT 9999 FEW040 TX24/1714Z TN16/1706Z"
    },
    {
      "icao": "LEXJ",
      "alert": "OK",
      "vis_m": 2900,
      "fzfg": false,
      "metar_trigger": false,
      "taf_trigger": false,
      "metar": "SPECI LEXJ 161835Z 27009KT 240V310 2900 DZ BR BKN011 OVC016 12/10 Q1022",
      "taf": "TAF LEXJ 161400Z 1615/1715 29009KT 9999 SCT005 BKN016 TX15/1715Z TN11/1706Z"
    },
    {
      "icao": "LEZG",
      "alert": "OK",
      "vis_m": 5000,
      "fzfg": false,
      "metar_trigger": false,
      "taf_trigger": false,
      "metar": "METAR LEZG 161830Z 30011KT 280V340 5000 RA SCT010 BKN030 14/14 Q1018 NOSIG",
      "taf": "TAF LEZG 161700Z 1618/1718 29014KT 9999 SCT040 TX18/1714Z TN10/1706Z"
    },
    {
      "icao": "LEZL",
      "alert": "OK",
      "vis_m": 9999,
      "fzfg": false,
      "metar_trigger": false,
      "taf_trigger": false,
      "metar": "METAR LEZL 161830Z 22006KT 190V250 CAVOK 17/11 Q1029 NOSIG",
      "taf": "TAF LEZL 161400Z 1615/1715 24005KT 9999 BKN040 TX19/1615Z TN08/1707Z"
    },
    {
      "icao": "LFBD",
      "alert": "OK",
      "vis_m": 9999,
      "fzfg": false,
      "metar_trigger": false,
      "taf_trigger": false,
      "metar": "METAR LFBD 161830Z AUTO 31012KT 9999 -RA FEW024/// SCT033/// BKN060/// //////TCU 10/08 Q1016 TEMPO 29020G30KT 4000 SHRA BKN008 BKN020TCU",
      "taf": "TAF LFBD 161700Z 1618/1724 28015KT 9999 BKN020 TX13/1713Z TN07/1706Z"
    },
    {
      "icao": "LFLL",
      "alert": "OK",
      "vis_m": 9999,
      "fzfg": false,
      "metar_trigger": false,
      "taf_trigger": false,
      "metar": "METAR LFLL 161830Z 34010KT 9999 FEW040 BKN050 09/03 Q1008 TEMPO 30015G25KT 4000 SHRA SCT040CB",
      "taf": "TAF LFLL 161700Z 1618/1724 27008KT 9999 SCT046 BKN240"
    },
    {
      "icao": "LFLS",
      "alert": "OK",
      "vis_m": 9999,
      "fzfg": false,
      "metar_trigger": false,
      "taf_trigger": false,
      "metar": "METAR LFLS 161830Z AUTO 23005KT CAVOK 06/02 Q1008 TEMPO VRB15G35KT 2000 SHRA SCT014CB BKN020TCU",
      "taf": "TAF LFLS 161400Z 1615/1715 VRB05KT 9999 FEW030TCU BKN050"
    },
    {
      "icao": "LFMN",
      "alert": "OK",
      "vis_m": 9999,
      "fzfg": false,
      "metar_trigger": false,
      "taf_trigger": false,
      "metar": "METAR LFMN 161830Z 27018KT CAVOK 14/01 Q1002 NOSIG",
      "taf": "TAF LFMN 161400Z 1615/1721 26020KT CAVOK"
    },
    {
      "icao": "LFOB",
      "alert": "OK",
      "vis_m": 9999,
      "fzfg": false,
      "metar_trigger": false,
      "taf_trigger": false,
      "metar": "METAR LFOB 161830Z AUTO 26016KT 9999 FEW030 SCT040 BKN056 08/04 Q1002 TEMPO 30015G25KT 3500 SHRA SCT014 SCT020CB SCT030TCU",
      "taf": "TAF LFOB 161700Z 1618/1718 30012KT 9999 BKN030"
    },
    {
      "icao": "LFPO",
      "alert": "OK",
      "vis_m": 9999,
      "fzfg": false,
      "metar_trigger": false,
      "taf_trigger": false,
      "metar": "METAR LFPO 161830Z 26014KT 9999 SCT033 07/03 Q1004 NOSIG",
      "taf": "TAF LFPO 161700Z 1618/1724 28010KT 9999 SCT050"
    },
    {
      "icao": "LFSB",
      "alert": "OK",
      "vis_m": 9999,
      "fzfg": false,
      "metar_trigger": false,
      "taf_trigger": false,
      "metar": "METAR LFSB 161830Z AUTO 17005KT 9999 BKN033 BKN050 BKN076 05/03 Q1003 TEMPO 26015G25KT 4000 SHRA SCT025CB",
      "taf": "TAF LFSB 161700Z 1618/1718 25012KT 9999 SCT030 BKN050"
    },
    {
      "icao": "LGAV",
      "alert": "OK",
      "vis_m": 9999,
      "fzfg": false,
      "metar_trigger": false,
      "taf_trigger": false,
      "metar": "METAR LGAV 161850Z 25012KT 9999 FEW025 14/05 Q1006 NOSIG",
      "taf": "TAF LGAV 161700Z 1618/1718 26014KT 9999 SCT020"
    },
    {
      "icao": "LGTS",
      "alert": "OK",
      "vis_m": 9999,
      "fzfg": false,
      "metar_trigger": false,
      "taf_trigger": false,
      "metar": "METAR LGTS 161820Z VRB02KT 9999 FEW025 12/09 Q1002 NOSIG",
      "taf": "TAF LGTS 161700Z 1618/1718 VRB03KT 9999 FEW025"
    },
    {
      "icao": "LHBP",
      "alert": "OK",
      "vis_m": 8000,
      "fzfg": false,
      "metar_trigger": false,
      "taf_trigger": false,
      "metar": "METAR LHBP 161830Z 09005KT 8000 -SN SCT004 OVC035 M01/M02 Q1002 TEMPO BKN004 BKN056",
      "taf": "TAF LHBP 161715Z 1618/1718 10005KT 8000 BKN030 OVC050"
    },
    {
      "icao": "LHDC",
      "alert": "OK",
      "vis_m": 9999,
      "fzfg": false,
      "metar_trigger": false,
      "taf_trigger": false,
      "metar": "METAR LHDC 161815Z AUTO 10004KT 9999 BKN023 M00/M03 Q1004 NOSIG",
      "taf": "TAF LHDC 161715Z 1618/1703 VRB03KT 9999 BKN025 OVC050"
    },
    {
      "icao": "LIBD",
      "alert": "OK",
      "vis_m": 9999,
      "fzfg": false,
      "metar_trigger": false,
      "taf_trigger": false,
      "metar": "METAR LIBD 161850Z 17003KT CAVOK 12/09 Q1000",
      "taf": "TAF LIBD 161700Z 1618/1718 19013KT 9999 FEW030"
    },
    {
      "icao": "LIBG",
      "alert": "OK",
      "vis_m": 9999,
      "fzfg": false,
      "metar_trigger": false,
      "taf_trigger": false,
      "metar": "METAR LIBG 161750Z 17006KT CAVOK 13/10 Q1002",
      "taf": "TAF LIBG 161700Z 1618/1703 16014KT 9999 FEW020 SCT040"
    },
    {
      "icao": "LIBP",
      "alert": "OK",
      "vis_m": 9999,
      "fzfg": false,
      "metar_trigger": false,
      "taf_trigger": false,
      "metar": "METAR LIBP 161850Z AUTO 36007KT 9999 -RA OVC045/// 11/09 Q0998",
      "taf": "TAF LIBP 161700Z 1618/1718 33003KT 9999 FEW040 SCT060"
    },
    {
      "icao": "LIBR",
      "alert": "OK",
      "vis_m": 9999,
      "fzfg": false,
      "metar_trigger": false,
      "taf_trigger": false,
      "metar": "METAR LIBR 161850Z 19010KT CAVOK 12/09 Q1002",
      "taf": "TAF LIBR 161700Z 1618/1718 21015KT 9999 FEW030"
    },
    {
      "icao": "LICA",
      "alert": "OK",
      "vis_m": 9999,
      "fzfg": false,
      "metar_trigger": false,
      "taf_trigger": false,
      "metar": "METAR LICA 161850Z AUTO 25017KT 9999 SCT017/// BKN050/// BKN064/// 14/12 Q1007",
      "taf": "TAF LICA 161700Z 1618/1718 26022G33KT 9999 SCT015"
    },
    {
      "icao": "LICC",
      "alert": "OK",
      "vis_m": 9999,
      "fzfg": false,
      "metar_trigger": false,
      "taf_trigger": false,
      "metar": "METAR LICC 161850Z 25012KT 9999 FEW070 13/10 Q1009",
      "taf": "TAF LICC 161700Z 1618/1718 26015KT 9999 SCT030"
    },
    {
      "icao": "LICJ",
      "alert": "OK",
      "vis_m": 9999,
      "fzfg": false,
      "metar_trigger": false,
      "taf_trigger": false,
      "metar": "METAR LICJ 161850Z 22015KT 9999 SCT025 16/11 Q1010",
      "taf": "TAF LICJ 161700Z 1618/1718 25025KT 9999 SCT020"
    },
    {
      "icao": "LIMC",
      "alert": "OK",
      "vis_m": 9999,
      "fzfg": false,
      "metar_trigger": false,
      "taf_trigger": false,
      "metar": "METAR LIMC 161850Z 24007KT 9999 FEW090 08/03 Q1000 NOSIG",
      "taf": "TAF LIMC 161700Z 1618/1724 31007KT 9999 FEW090"
    },
    {
      "icao": "LIME",
      "alert": "OK",
      "vis_m": 9999,
      "fzfg": false,
      "metar_trigger": false,
      "taf_trigger": false,
      "metar": "METAR LIME 161850Z VRB02KT 9999 FEW120 06/03 Q0999 NOSIG",
      "taf": "TAF LIME 161700Z 1618/1718 VRB05KT CAVOK"
    },
    {
      "icao": "LIMF",
      "alert": "OK",
      "vis_m": 9999,
      "fzfg": false,
      "metar_trigger": false,
      "taf_trigger": false,
      "metar": "METAR LIMF 161850Z 06003KT 9999 FEW140 06/02 Q1001",
      "taf": "TAF LIMF 161700Z 1618/1718 VRB05KT 9999 FEW100"
    },
    {
      "icao": "LIMJ",
      "alert": "OK",
      "vis_m": 9999,
      "fzfg": false,
      "metar_trigger": false,
      "taf_trigger": false,
      "metar": "METAR LIMJ 161850Z 03006KT 010V070 CAVOK 12/05 Q0999",
      "taf": "TAF LIMJ 161700Z 1618/1718 VRB05KT CAVOK"
    },
    {
      "icao": "LIPE",
      "alert": "OK",
      "vis_m": 9999,
      "fzfg": false,
      "metar_trigger": false,
      "taf_trigger": false,
      "metar": "METAR LIPE 161850Z 27003KT CAVOK 08/06 Q0999",
      "taf": "TAF LIPE 161700Z 1618/1718 30005KT 9999 FEW040"
    },
    {
      "icao": "LIPH",
      "alert": "OK",
      "vis_m": 9999,
      "fzfg": false,
      "metar_trigger": false,
      "taf_trigger": false,
      "metar": "METAR LIPH 161850Z 28002KT CAVOK 05/03 Q0998",
      "taf": "TAF LIPH 161700Z 1618/1718 06006KT 9999 FEW030"
    },
    {
      "icao": "LIPQ",
      "alert": "OK",
      "vis_m": 9999,
      "fzfg": false,
      "metar_trigger": false,
      "taf_trigger": false,
      "metar": "METAR LIPQ 161850Z AUTO 07004KT 9999 SCT035/// SCT200/// 08/04 Q0998",
      "taf": "TAF LIPQ 161700Z 1618/1718 VRB05KT 9999 FEW040"
    },
    {
      "icao": "LIPR",
      "alert": "OK",
      "vis_m": 7000,
      "fzfg": false,
      "metar_trigger": false,
      "taf_trigger": false,
      "metar": "METAR LIPR 161850Z 35010KT 7000 BKN035 10/08 Q0998",
      "taf": "TAF LIPR 161700Z 1618/1718 VRB05KT 9999 SCT040"
    },
    {
      "icao": "LIPX",
      "alert": "OK",
      "vis_m": 9999,
      "fzfg": false,
      "metar_trigger": false,
      "taf_trigger": false,
      "metar": "METAR LIPX 161850Z 32004KT CAVOK 05/04 Q0999",
      "taf": "TAF LIPX 161700Z 1618/1718 VRB05KT CAVOK"
    },
    {
      "icao": "LIPY",
      "alert": "OK",
      "vis_m": 9999,
      "fzfg": false,
      "metar_trigger": false,
      "taf_trigger": false,
      "metar": "METAR LIPY 161850Z AUTO 21005KT 170V230 9999 -RA OVC059/// 10/09 Q0998",
      "taf": "TAF LIPY 161700Z 1618/1718 VRB05KT 9999 SCT050"
    },
    {
      "icao": "LIPZ",
      "alert": "OK",
      "vis_m": 9999,
      "fzfg": false,
      "metar_trigger": false,
      "taf_trigger": false,
      "metar": "METAR LIPZ 161850Z 28004KT CAVOK 06/04 Q0998 NOSIG",
      "taf": "TAF LIPZ 161700Z 1618/1724 VRB05KT 9999 FEW050"
    },
    {
      "icao": "LIRF",
      "alert": "OK",
      "vis_m": 9000,
      "fzfg": false,
      "metar_trigger": false,
      "taf_trigger": false,
      "metar": "METAR LIRF 161850Z 27018KT 9000 NSC 15/11 Q1000 NOSIG",
      "taf": "TAF LIRF 161700Z 1618/1724 31020G33KT 9999 SCT020"
    },
    {
      "icao": "LIRN",
      "alert": "OK",
      "vis_m": 8000,
      "fzfg": false,
      "metar_trigger": false,
      "taf_trigger": false,
      "metar": "METAR LIRN 161850Z 26012KT 8000 -RA BKN020 14/11 Q1002 RERA WS R24 NOSIG",
      "taf": "TAF LIRN 161700Z 1618/1718 26013KT 9999 BKN020"
    },
    {
      "icao": "LIRP",
      "alert": "OK",
      "vis_m": 9999,
      "fzfg": false,
      "metar_trigger": false,
      "taf_trigger": false,
      "metar": "METAR LIRP 161845Z 27003KT CAVOK 11/10 Q0999 NOSIG",
      "taf": "TAF LIRP 161700Z 1618/1718 28007KT CAVOK"
    },
    {
      "icao": "LIRZ",
      "alert": "OK",
      "vis_m": 9999,
      "fzfg": false,
      "metar_trigger": false,
      "taf_trigger": false,
      "metar": "METAR LIRZ 161850Z AUTO 24008KT 9999 -RA BKN030/// BKN055/// 11/08 Q0999",
      "taf": "TAF LIRZ 161700Z 1618/1718 VRB05KT 9999 SCT025"
    },
    {
      "icao": "LJLJ",
      "alert": "OK",
      "vis_m": 9999,
      "fzfg": false,
      "metar_trigger": false,
      "taf_trigger": false,
      "metar": "METAR LJLJ 161830Z 28002KT 9999 FEW045 00/M00 Q0998 NOSIG",
      "taf": "TAF LJLJ 161700Z 1618/1718 VRB02KT 9999 FEW030 SCT045 BKN055"
    },
    {
      "icao": "LKMT",
      "alert": "OK",
      "vis_m": 9999,
      "fzfg": false,
      "metar_trigger": false,
      "taf_trigger": false,
      "metar": "METAR LKMT 161830Z 23011KT 9999 OVC033 M01/M03 Q0998 NOSIG",
      "taf": "TAF LKMT 161700Z 1618/1718 22008KT 9999 BKN035"
    },
    {
      "icao": "LKPR",
      "alert": "OK",
      "vis_m": 6000,
      "fzfg": false,
      "metar_trigger": false,
      "taf_trigger": false,
      "metar": "METAR LKPR 161830Z 36005KT 6000 FEW024 M05/M05 Q0996 NOSIG",
      "taf": "TAF LKPR 161700Z 1618/1724 24005KT 9999 OVC014"
    },
    {
      "icao": "LLBG",
      "alert": "OK",
      "vis_m": 9000,
      "fzfg": false,
      "metar_trigger": false,
      "taf_trigger": false,
      "metar": "METAR LLBG 161850Z VRB03KT 9000 NSC 19/08 Q1011 NOSIG",
      "taf": "TAF LLBG 161703Z 1618/1718 VRB03KT 9000 NSC"
    },
    {
      "icao": "LMML",
      "alert": "OK",
      "vis_m": 9999,
      "fzfg": false,
      "metar_trigger": false,
      "taf_trigger": false,
      "metar": "METAR LMML 161845Z 26017KT 9999 BKN023 BKN049 15/11 Q1013 NOSIG",
      "taf": "TAF LMML 161700Z 1618/1718 28019G29KT 9999 SCT017"
    },
    {
      "icao": "LOWW",
      "alert": "OK",
      "vis_m": 9999,
      "fzfg": false,
      "metar_trigger": false,
      "taf_trigger": false,
      "metar": "METAR LOWW 161850Z 13008KT 9999 FEW050 M00/M02 Q1000 TEMPO FM2000 -FZRA",
      "taf": "TAF LOWW 161715Z 1618/1724 15008KT 9999 FEW010 BKN030 TX05/1714Z TNM01/1622Z"
    },
    {
      "icao": "LPFR",
      "alert": "OK",
      "vis_m": 9999,
      "fzfg": false,
      "metar_trigger": false,
      "taf_trigger": false,
      "metar": "METAR LPFR 161830Z 30009KT 9999 FEW035 15/11 Q1030",
      "taf": "TAF LPFR 161700Z 1618/1718 24010KT 9999 SCT015"
    },
    {
      "icao": "LPMA",
      "alert": "OK",
      "vis_m": 9999,
      "fzfg": false,
      "metar_trigger": false,
      "taf_trigger": false,
      "metar": "METAR LPMA 161830Z VRB07KT 9999 SCT014 17/13 Q1029",
      "taf": "TAF LPMA 161700Z 1618/1718 09008KT 9999 SCT014"
    },
    {
      "icao": "LPPR",
      "alert": "OK",
      "vis_m": 7000,
      "fzfg": false,
      "metar_trigger": false,
      "taf_trigger": false,
      "metar": "METAR LPPR 161830Z 24006KT 210V290 7000 FEW004 BKN006 14/13 Q1028",
      "taf": "TAF LPPR 161700Z 1618/1718 26008KT 8000 SCT004 BKN008"
    },
    {
      "icao": "LPPS",
      "alert": "OK",
      "vis_m": 9999,
      "fzfg": false,
      "metar_trigger": false,
      "taf_trigger": false,
      "metar": "METAR LPPS 161830Z 12015KT 9999 FEW015 16/13 Q1029",
      "taf": "TAF LPPS 161700Z 1618/1724 11013KT 9999 SCT015"
    },
    {
      "icao": "LPPT",
      "alert": "OK",
      "vis_m": 9999,
      "fzfg": false,
      "metar_trigger": false,
      "taf_trigger": false,
      "metar": "METAR LPPT 161830Z 27007KT 250V310 9999 BKN018 14/11 Q1031",
      "taf": "TAF LPPT 161700Z 1618/1724 29008KT 9999 BKN025"
    },
    {
      "icao": "LQBK",
      "alert": "OK",
      "vis_m": 6000,
      "fzfg": false,
      "metar_trigger": false,
      "taf_trigger": false,
      "metar": "METAR LQBK 161830Z 31006KT 6000 RA FEW010 OVC030 03/03 Q1001 TEMPO 4000 BR BKN010 OVC025",
      "taf": "TAF LQBK 161700Z 1618/1718 14004KT 9999 SCT040 TX05/1713Z TN01/1706Z"
    },
    {
      "icao": "LQSA",
      "alert": "OK",
      "vis_m": 8000,
      "fzfg": false,
      "metar_trigger": false,
      "taf_trigger": false,
      "metar": "METAR LQSA 161830Z VRB02KT 8000 RA SCT020 BKN050 04/04 Q1001 NOSIG",
      "taf": ""
    },
    {
      "icao": "LQTZ",
      "alert": "OK",
      "vis_m": 5000,
      "fzfg": false,
      "metar_trigger": false,
      "taf_trigger": false,
      "metar": "METAR LQTZ 161830Z 03004KT 5000 -DZ BR OVC050 05/03 Q1001",
      "taf": "TAF LQTZ 161700Z 1618/1718 09005KT 7000 SCT055 TX04/1618Z TN00/1706Z"
    },
    {
      "icao": "LRBC",
      "alert": "OK",
      "vis_m": 9999,
      "fzfg": false,
      "metar_trigger": false,
      "taf_trigger": false,
      "metar": "METAR LRBC 161830Z 15005KT 9999 OVC008 M01/M02 Q1006",
      "taf": "TAF LRBC 161700Z 1618/1703 17008KT 9999 BKN015"
    },
    {
      "icao": "LRBS",
      "alert": "OK",
      "vis_m": 5000,
      "fzfg": false,
      "metar_trigger": false,
      "taf_trigger": false,
      "metar": "METAR LRBS 161830Z 06006KT 5000 BR BKN003 BKN021 BKN027 01/01 Q1005 NOSIG",
      "taf": "TAF LRBS 161700Z 1618/1718 04006KT 5000 BR BKN003"
    },
    {
      "icao": "LRBV",
      "alert": "OK",
      "vis_m": 9999,
      "fzfg": false,
      "metar_trigger": false,
      "taf_trigger": false,
      "metar": "METAR LRBV 161830Z 13004KT CAVOK 00/M03 Q1003",
      "taf": "TAF LRBV 161700Z 1618/1703 VRB04KT 9999 BKN025"
    },
    {
      "icao": "LRCL",
      "alert": "OK",
      "vis_m": 9999,
      "fzfg": false,
      "metar_trigger": false,
      "taf_trigger": false,
      "metar": "METAR LRCL 161830Z 08005KT 070V150 9999 BKN069 M01/M04 Q1003",
      "taf": "TAF LRCL 161700Z 1618/1703 VRB04KT 9999 OVC065"
    },
    {
      "icao": "LRCV",
      "alert": "OK",
      "vis_m": 3400,
      "fzfg": false,
      "metar_trigger": false,
      "taf_trigger": false,
      "metar": "METAR LRCV 161830Z 11009KT 3400 BR OVC003 02/02 Q1004",
      "taf": ""
    },
    {
      "icao": "LRIA",
      "alert": "OK",
      "vis_m": 9999,
      "fzfg": false,
      "metar_trigger": false,
      "taf_trigger": false,
      "metar": "METAR LRIA 161830Z 36002KT 9999 BKN022 M04/M07 Q1007",
      "taf": "TAF LRIA 161700Z 1618/1703 VRB04KT CAVOK"
    },
    {
      "icao": "LROP",
      "alert": "OK",
      "vis_m": 4000,
      "fzfg": false,
      "metar_trigger": false,
      "taf_trigger": false,
      "metar": "METAR LROP 161830Z 07008KT 4000 BR OVC003 01/01 Q1005 NOSIG",
      "taf": "TAF LROP 161700Z 1618/1718 04006KT 5000 BR BKN003"
    },
    {
      "icao": "LRSB",
      "alert": "OK",
      "vis_m": 9999,
      "fzfg": false,
      "metar_trigger": false,
      "taf_trigger": false,
      "metar": "METAR LRSB 161830Z 18002KT CAVOK M01/M03 Q1002",
      "taf": "TAF LRSB 161700Z 1618/1718 VRB04KT CAVOK"
    },
    {
      "icao": "LRSM",
      "alert": "OK",
      "vis_m": 9999,
      "fzfg": false,
      "metar_trigger": false,
      "taf_trigger": false,
      "metar": "METAR LRSM 161830Z AUTO 05004KT 9999 FEW050/// OVC065/// 00/M03 Q1003",
      "taf": "TAF LRSM 161400Z 1615/1624 21008KT 9999 BKN045"
    },
    {
      "icao": "LRSV",
      "alert": "OK",
      "vis_m": 8000,
      "fzfg": false,
      "metar_trigger": false,
      "taf_trigger": false,
      "metar": "METAR LRSV 161830Z 07006KT 8000 OVC012 M06/M07 Q1004",
      "taf": "TAF LRSV 161700Z 1618/1703 09006KT 9999 BKN015"
    },
    {
      "icao": "LRTM",
      "alert": "OK",
      "vis_m": 9999,
      "fzfg": false,
      "metar_trigger": false,
      "taf_trigger": false,
      "metar": "METAR LRTM 161830Z AUTO 08004KT 9999 NCD 00/M02 Q1003",
      "taf": "TAF LRTM 161700Z 1618/1703 VRB04KT CAVOK"
    },
    {
      "icao": "LRTR",
      "alert": "OK",
      "vis_m": 9999,
      "fzfg": false,
      "metar_trigger": false,
      "taf_trigger": false,
      "metar": "METAR LRTR 161830Z 11005KT CAVOK 02/01 Q1003",
      "taf": "TAF LRTR 161700Z 1618/1718 11006KT 9999 BKN045"
    },
    {
      "icao": "LTAC",
      "alert": "OK",
      "vis_m": 9999,
      "fzfg": false,
      "metar_trigger": false,
      "taf_trigger": false,
      "metar": "METAR LTAC 161850Z 22012KT 9999 FEW040 BKN100 13/01 Q1007 NOSIG RMK RWY21C 22012KT RWY03L 22012KT RWY21R 21013KT RWY03R 21014KT RWY21L 21015KT",
      "taf": "TAF LTAC 161640Z 1618/1718 21009KT 9999 SCT035 BKN100"
    },
    {
      "icao": "LTFM",
      "alert": "OK",
      "vis_m": 6000,
      "fzfg": false,
      "metar_trigger": false,
      "taf_trigger": false,
      "metar": "METAR LTFM 161850Z 21006KT 180V250 6000 SCT032 BKN080 11/09 Q1004 RESHRA NOSIG RMK RWY17L 24004KT 170V270 RWY34L 21005KT 180V250 RWY16R VRB02KT RWY36 VRB05KT RWY18 VRB06KT",
      "taf": "TAF LTFM 161640Z 1618/1724 18008KT 9999 SCT032 BKN080"
    },
    {
      "icao": "LUKK",
      "alert": "OK",
      "vis_m": 9999,
      "fzfg": false,
      "metar_trigger": false,
      "taf_trigger": false,
      "metar": "METAR LUKK 161830Z 05005KT 9999 BKN047 M05/M07 Q1007 NOSIG",
      "taf": "TAF LUKK 161713Z 1618/1718 VRB05KT 9999 BKN020"
    },
    {
      "icao": "LWOH",
      "alert": "OK",
      "vis_m": 9999,
      "fzfg": false,
      "metar_trigger": false,
      "taf_trigger": false,
      "metar": "METAR LWOH 161850Z 16014KT 9999 BKN035 07/05 Q1004",
      "taf": "TAF LWOH 161745Z 1618/1718 19010KT 9999 SCT040"
    },
    {
      "icao": "LWSK",
      "alert": "OK",
      "vis_m": 9999,
      "fzfg": false,
      "metar_trigger": false,
      "taf_trigger": false,
      "metar": "METAR LWSK 161850Z VRB01KT CAVOK 04/03 Q1003 NOSIG",
      "taf": "TAF LWSK 161745Z 1618/1718 VRB02KT 9999 FEW035"
    },
    {
      "icao": "LYBE",
      "alert": "OK",
      "vis_m": 9999,
      "fzfg": false,
      "metar_trigger": false,
      "taf_trigger": false,
      "metar": "METAR LYBE 161830Z 11008KT CAVOK 06/02 Q1002 NOSIG",
      "taf": "TAF LYBE 161700Z 1618/1718 05007KT 9999 SCT040 TX05/1714Z TN01/1709Z"
    },
    {
      "icao": "LYNI",
      "alert": "OK",
      "vis_m": 9999,
      "fzfg": false,
      "metar_trigger": false,
      "taf_trigger": false,
      "metar": "METAR LYNI 161830Z 11004KT 080V140 CAVOK 07/03 Q1002 NOSIG",
      "taf": "TAF LYNI 161700Z 1618/1718 33004KT 9999 SCT060 TX06/1618Z TN01/1718Z"
    },
    {
      "icao": "LYPG",
      "alert": "OK",
      "vis_m": 9999,
      "fzfg": false,
      "metar_trigger": false,
      "taf_trigger": false,
      "metar": "METAR LYPG 161830Z 10004KT 9999 FEW050 BKN070 10/07 Q1003 NOSIG",
      "taf": "TAF LYPG 161700Z 1618/1718 14005KT 8000 SCT030 BKN060 TX11/1712Z TN08/1706Z"
    },
    {
      "icao": "LZIB",
      "alert": "OK",
      "vis_m": 6000,
      "fzfg": false,
      "metar_trigger": false,
      "taf_trigger": false,
      "metar": "METAR LZIB 161830Z 07005KT 6000 SCT004 BKN005 OVC007 M01/M02 Q1001 NOSIG",
      "taf": "TAF LZIB 161715Z 1618/1718 13008KT 9999 SCT018 BKN030"
    },
    {
      "icao": "LZKZ",
      "alert": "OK",
      "vis_m": 4000,
      "fzfg": false,
      "metar_trigger": false,
      "taf_trigger": false,
      "metar": "METAR LZKZ 161830Z 20004KT 4000 SN OVC019 M03/M04 Q1003 TEMPO -SN",
      "taf": "TAF LZKZ 161715Z 1618/1718 21006KT 9999 FEW010 BKN035"
    },
    {
      "icao": "LZTT",
      "alert": "OK",
      "vis_m": 9999,
      "fzfg": false,
      "metar_trigger": false,
      "taf_trigger": false,
      "metar": "METAR LZTT 161830Z 13004KT 110V170 9999 FEW016 SCT050 M05/M07 Q0998",
      "taf": "TAF LZTT 161715Z 1618/1718 24005KT 9999 FEW012 SCT030"
    },
    {
      "icao": "OEJN",
      "alert": "OK",
      "vis_m": 9999,
      "fzfg": false,
      "metar_trigger": false,
      "taf_trigger": false,
      "metar": "METAR OEJN 161800Z 23002KT CAVOK 27/19 Q1011 NOSIG",
      "taf": "TAF OEJN 161700Z 1618/1724 VRB03KT CAVOK"
    },
    {
      "icao": "OEMA",
      "alert": "OK",
      "vis_m": 9999,
      "fzfg": false,
      "metar_trigger": false,
      "taf_trigger": false,
      "metar": "METAR OEMA 161800Z 08008KT CAVOK 28/M02 Q1017 NOSIG",
      "taf": "TAF OEMA 161700Z 1618/1724 09006KT CAVOK"
    },
    {
      "icao": "OJAI",
      "alert": "OK",
      "vis_m": 3500,
      "fzfg": false,
      "metar_trigger": false,
      "taf_trigger": false,
      "metar": "METAR OJAI 161800Z 11007KT 3500 DU NSC 18/00 Q1015 NOSIG",
      "taf": "TAF OJAI 161643Z 1618/1724 09010KT 3000 DU NSC"
    },
    {
      "icao": "OMAA",
      "alert": "OK",
      "vis_m": 9999,
      "fzfg": false,
      "metar_trigger": false,
      "taf_trigger": false,
      "metar": "METAR OMAA 161830Z 30006KT CAVOK 22/19 Q1013 NOSIG",
      "taf": "TAF OMAA 161700Z 1618/1800 31007KT 8000 NSC"
    },
    {
      "icao": "OMDB",
      "alert": "OK",
      "vis_m": 9999,
      "fzfg": false,
      "metar_trigger": false,
      "taf_trigger": false,
      "metar": "METAR OMDB 161830Z 33008KT 290V020 CAVOK 24/17 Q1013 NOSIG",
      "taf": "TAF OMDB 161700Z 1618/1800 30010KT 8000 NSC"
    },
    {
      "icao": "UAAA",
      "alert": "OK",
      "vis_m": 2600,
      "fzfg": false,
      "metar_trigger": false,
      "taf_trigger": false,
      "metar": "METAR UAAA 161830Z VRB01MPS 2600 BR SCT050CB OVC100 04/01 Q1019 NOSIG",
      "taf": "TAF UAAA 161703Z 1618/1718 22003MPS 3100 -SHRA BR BKN011CB OVC050 TX07/1709Z TNM00/1702Z"
    },
    {
      "icao": "UBBB",
      "alert": "OK",
      "vis_m": 9999,
      "fzfg": false,
      "metar_trigger": false,
      "taf_trigger": false,
      "metar": "METAR UBBB 161830Z 18020G30KT CAVOK 10/08 Q1010 NOSIG",
      "taf": "TAF UBBB 161706Z 1618/1718 18020G30KT CAVOK TX16/1710Z TN07/1701Z"
    },
    {
      "icao": "UDSG",
      "alert": "OK",
      "vis_m": 5000,
      "fzfg": false,
      "metar_trigger": false,
      "taf_trigger": false,
      "metar": "METAR UDSG 161830Z 08003KT 5000 BR NSC M03/M03 Q1022 NOSIG",
      "taf": "TAF UDSG 161658Z 1618/1718 VRB06KT 5000 BR SCT040"
    },
    {
      "icao": "UDYZ",
      "alert": "OK",
      "vis_m": 9999,
      "fzfg": false,
      "metar_trigger": false,
      "taf_trigger": false,
      "metar": "METAR UDYZ 161830Z 04005KT 9999 NSC 07/01 Q1020 NOSIG",
      "taf": "TAF UDYZ 161700Z 1618/1718 03006KT 9999 NSC"
    },
    {
      "icao": "UGKO",
      "alert": "OK",
      "vis_m": 9999,
      "fzfg": false,
      "metar_trigger": false,
      "taf_trigger": false,
      "metar": "METAR UGKO 161830Z 07019KT CAVOK 20/02 Q1008 NOSIG",
      "taf": "TAF UGKO 161700Z 1618/1718 08017KT CAVOK TX21/1711Z TN13/1703Z"
    }
  ]
}