{
  "ts_utc": "2026-02-14T06:33:43Z",
  "threshold_m": 150,
  "source": "stations_override.txt (ICAO list) + aviationweather.gov (METAR/TAF raw)",
  "station_count": 159,
  "stations": [
    {
      "icao": "BIKF",
      "alert": "OK",
      "vis_m": 9999,
      "fzfg": false,
      "metar_trigger": false,
      "taf_trigger": false,
      "metar": "METAR BIKF 140630Z 08011KT CAVOK M04/M10 Q1005",
      "taf": "TAF BIKF 140454Z 1406/1506 09012KT 9999 FEW025 SCT040 TX00/1415Z TNM06/1506Z"
    },
    {
      "icao": "BKPR",
      "alert": "OK",
      "vis_m": 9999,
      "fzfg": false,
      "metar_trigger": false,
      "taf_trigger": false,
      "metar": "METAR BKPR 140630Z VRB02KT CAVOK 01/00 Q1003 TEMPO 4000 BR",
      "taf": "TAF BKPR 140530Z 1406/1506 16007KT 9999 SCT040"
    },
    {
      "icao": "EBCI",
      "alert": "OK",
      "vis_m": 9999,
      "fzfg": false,
      "metar_trigger": false,
      "taf_trigger": false,
      "metar": "METAR EBCI 140620Z COR 03013KT 9999 OVC011 M01/M03 Q1005 TEMPO BKN009",
      "taf": "TAF EBCI 140503Z 1406/1512 03012KT 8000 BKN009"
    },
    {
      "icao": "EDDB",
      "alert": "OK",
      "vis_m": 9999,
      "fzfg": false,
      "metar_trigger": false,
      "taf_trigger": false,
      "metar": "METAR EDDB 140620Z AUTO 03010KT 9999 -SN BKN012 OVC017 M00/M02 Q1004",
      "taf": "TAF EDDB 140500Z 1406/1506 02007KT 9999 SCT010 BKN015"
    },
    {
      "icao": "EDDH",
      "alert": "OK",
      "vis_m": 9999,
      "fzfg": false,
      "metar_trigger": false,
      "taf_trigger": false,
      "metar": "METAR EDDH 140620Z AUTO 02005KT 350V050 9999 OVC020 M02/M03 Q1007 NOSIG",
      "taf": "TAF EDDH 140500Z 1406/1512 02006KT 9999 SCT008 BKN025"
    },
    {
      "icao": "EDDK",
      "alert": "OK",
      "vis_m": 9999,
      "fzfg": false,
      "metar_trigger": false,
      "taf_trigger": false,
      "metar": "METAR EDDK 140620Z AUTO 01010KT 350V050 9999 BKN009 01/M01 Q1004 BECMG OVC012",
      "taf": "TAF EDDK 140500Z 1406/1512 35008KT 9999 OVC015"
    },
    {
      "icao": "EDDN",
      "alert": "OK",
      "vis_m": 9999,
      "fzfg": false,
      "metar_trigger": false,
      "taf_trigger": false,
      "metar": "METAR EDDN 140620Z AUTO 33003KT 9999 BKN045 03/02 Q0998 NOSIG",
      "taf": "TAF EDDN 140500Z 1406/1506 25006KT 9999 BKN045"
    },
    {
      "icao": "EDDS",
      "alert": "OK",
      "vis_m": 9999,
      "fzfg": false,
      "metar_trigger": false,
      "taf_trigger": false,
      "metar": "METAR EDDS 140620Z AUTO 36007KT 9999 SCT013 OVC027 05/04 Q0996 TEMPO BKN013",
      "taf": "TAF EDDS 140500Z 1406/1506 36009KT 9999 FEW010 BKN025"
    },
    {
      "icao": "EDFH",
      "alert": "OK",
      "vis_m": 2000,
      "fzfg": false,
      "metar_trigger": false,
      "taf_trigger": false,
      "metar": "METAR EDFH 140620Z 36010KT 2000 -DZ BR OVC001 M00/M00 Q0999",
      "taf": "TAF EDFH 140500Z 1406/1506 02010KT 1200 BR VV003"
    },
    {
      "icao": "EDJA",
      "alert": "OK",
      "vis_m": 9999,
      "fzfg": false,
      "metar_trigger": false,
      "taf_trigger": false,
      "metar": "METAR EDJA 140620Z 04008KT 9999 SCT010 03/01 Q0994",
      "taf": "TAF EDJA 140500Z 1406/1415 04007KT 9999 SCT008 BKN060"
    },
    {
      "icao": "EDLW",
      "alert": "OK",
      "vis_m": 9999,
      "fzfg": false,
      "metar_trigger": false,
      "taf_trigger": false,
      "metar": "METAR EDLW 140620Z 35009KT 9999 SCT006 OVC008 M01/M02 Q1004",
      "taf": "TAF EDLW 140500Z 1406/1506 01006KT 9999 SCT004 BKN007"
    },
    {
      "icao": "EDNY",
      "alert": "OK",
      "vis_m": 9999,
      "fzfg": false,
      "metar_trigger": false,
      "taf_trigger": false,
      "metar": "METAR EDNY 140620Z 04005KT CAVOK 05/02 Q0994",
      "taf": "TAF EDNY 140500Z 1406/1415 03006KT 9999 SCT015 BKN060"
    },
    {
      "icao": "EDSB",
      "alert": "OK",
      "vis_m": 9000,
      "fzfg": false,
      "metar_trigger": false,
      "taf_trigger": false,
      "metar": "METAR EDSB 140620Z 02011KT 9000 -RA OVC005 06/05 Q0997",
      "taf": "TAF EDSB 140500Z 1406/1506 03012KT 9999 BKN005"
    },
    {
      "icao": "EETN",
      "alert": "OK",
      "vis_m": 9999,
      "fzfg": false,
      "metar_trigger": false,
      "taf_trigger": false,
      "metar": "METAR EETN 140620Z 03008KT 350V050 9999 -SN BKN009 M12/M13 Q1008 NOSIG",
      "taf": "TAF EETN 140530Z 1406/1506 04012KT 9999 BKN010"
    },
    {
      "icao": "EFTU",
      "alert": "OK",
      "vis_m": 9999,
      "fzfg": false,
      "metar_trigger": false,
      "taf_trigger": false,
      "metar": "METAR EFTU 140620Z AUTO 08002KT CAVOK M22/M24 Q1010",
      "taf": "TAF EFTU 140528Z 1406/1506 07004KT CAVOK"
    },
    {
      "icao": "EGBB",
      "alert": "OK",
      "vis_m": 9999,
      "fzfg": false,
      "metar_trigger": false,
      "taf_trigger": false,
      "metar": "METAR EGBB 140620Z 32004KT CAVOK M01/M03 Q1014",
      "taf": "TAF EGBB 140456Z 1406/1506 30005KT 9999 FEW040"
    },
    {
      "icao": "EGGP",
      "alert": "OK",
      "vis_m": 9999,
      "fzfg": false,
      "metar_trigger": false,
      "taf_trigger": false,
      "metar": "METAR EGGP 140620Z 31003KT 230V330 CAVOK M01/M04 Q1015",
      "taf": "TAF EGGP 140457Z 1406/1506 34006KT CAVOK"
    },
    {
      "icao": "EGGW",
      "alert": "OK",
      "vis_m": 9999,
      "fzfg": false,
      "metar_trigger": false,
      "taf_trigger": false,
      "metar": "METAR EGGW 140620Z AUTO 36007G18KT 300V110 9999 NCD M01/M03 Q1012",
      "taf": "TAF EGGW 140457Z 1406/1506 34008KT 9999 FEW030"
    },
    {
      "icao": "EGKK",
      "alert": "OK",
      "vis_m": 9999,
      "fzfg": false,
      "metar_trigger": false,
      "taf_trigger": false,
      "metar": "METAR EGKK 140620Z 02011KT 9999 FEW031 01/M04 Q1012",
      "taf": "TAF EGKK 140453Z 1406/1512 01010KT 9999 SCT035"
    },
    {
      "icao": "EGNM",
      "alert": "OK",
      "vis_m": 9999,
      "fzfg": false,
      "metar_trigger": false,
      "taf_trigger": false,
      "metar": "METAR EGNM 140620Z 29006KT CAVOK M02/M05 Q1013",
      "taf": "TAF EGNM 140456Z 1406/1506 29006KT CAVOK"
    },
    {
      "icao": "EGPD",
      "alert": "OK",
      "vis_m": 9999,
      "fzfg": false,
      "metar_trigger": false,
      "taf_trigger": false,
      "metar": "METAR EGPD 140620Z COR AUTO 29009KT 9999 NCD M00/M03 Q1012 NOSIG",
      "taf": "TAF EGPD 140453Z 1406/1506 28010KT 9999 FEW020"
    },
    {
      "icao": "EGPF",
      "alert": "OK",
      "vis_m": 9999,
      "fzfg": false,
      "metar_trigger": false,
      "taf_trigger": false,
      "metar": "METAR EGPF 140620Z AUTO 24006KT 9999 NCD M05/M06 Q1014",
      "taf": "TAF EGPF 140454Z 1406/1506 27004KT 9999 FEW035"
    },
    {
      "icao": "EHBK",
      "alert": "OK",
      "vis_m": 9999,
      "fzfg": false,
      "metar_trigger": false,
      "taf_trigger": false,
      "metar": "METAR EHBK 140625Z AUTO 03013KT 360V060 9999 OVC010 00/M02 Q1005 NOSIG",
      "taf": "TAF EHBK 140516Z 1406/1512 01012KT 9999 BKN008"
    },
    {
      "icao": "EHEH",
      "alert": "OK",
      "vis_m": 9999,
      "fzfg": false,
      "metar_trigger": false,
      "taf_trigger": false,
      "metar": "METAR EHEH 140625Z AUTO 01012KT 300V050 9999 SCT015 OVC019 00/M03 Q1007 WHT NOSIG RMK TREND REMOTE BY EHWX",
      "taf": "TAF EHEH 140526Z 1406/1512 02011KT 9999 BKN018"
    },
    {
      "icao": "EKBI",
      "alert": "OK",
      "vis_m": 9999,
      "fzfg": false,
      "metar_trigger": false,
      "taf_trigger": false,
      "metar": "METAR EKBI 140620Z AUTO 00000KT 9999 NCD M09/M11 Q1010",
      "taf": "TAF EKBI 140527Z 1406/1506 02006KT CAVOK"
    },
    {
      "icao": "EKCH",
      "alert": "OK",
      "vis_m": 9999,
      "fzfg": false,
      "metar_trigger": false,
      "taf_trigger": false,
      "metar": "METAR EKCH 140620Z AUTO 05012KT 9999 FEW034/// BKN050/// M04/M07 Q1008 NOSIG",
      "taf": "TAF EKCH 140527Z 1406/1506 04010KT 9999 BKN030"
    },
    {
      "icao": "ENAL",
      "alert": "OK",
      "vis_m": 9999,
      "fzfg": false,
      "metar_trigger": false,
      "taf_trigger": false,
      "metar": "METAR ENAL 140620Z 15008KT CAVOK M05/M06 Q1008",
      "taf": "TAF ENAL 140500Z 1406/1415 16009KT 9999 FEW030"
    },
    {
      "icao": "ENBR",
      "alert": "OK",
      "vis_m": 9999,
      "fzfg": false,
      "metar_trigger": false,
      "taf_trigger": false,
      "metar": "METAR ENBR 140620Z VRB02KT 9999 SCT025 BKN038 M04/M04 Q1007 NOSIG RMK WIND 1200FT VRB02KT",
      "taf": "TAF ENBR 140500Z 1406/1506 VRB05KT 9999 FEW010 BKN050"
    },
    {
      "icao": "ENGM",
      "alert": "OK",
      "vis_m": 9999,
      "fzfg": false,
      "metar_trigger": false,
      "taf_trigger": false,
      "metar": "METAR ENGM 140620Z 34005KT 320V030 CAVOK M18/M20 Q1010 NOSIG",
      "taf": "TAF ENGM 140500Z 1406/1506 35003KT CAVOK"
    },
    {
      "icao": "ENHD",
      "alert": "OK",
      "vis_m": 550,
      "fzfg": false,
      "metar_trigger": false,
      "taf_trigger": false,
      "metar": "METAR ENHD 140620Z AUTO 06007KT 030V090 0550 R13/1800N R31/1600D SN VV008 M01/M02 Q1007",
      "taf": "TAF ENHD 140500Z 1406/1415 11008KT 9999 FEW008 SCT020 BKN030"
    },
    {
      "icao": "ENTC",
      "alert": "OK",
      "vis_m": 9000,
      "fzfg": false,
      "metar_trigger": false,
      "taf_trigger": false,
      "metar": "METAR ENTC 140620Z 19015KT 9000 -SN VV014 M04/M06 Q0996 TEMPO 1200 -SHSN VV009 RMK WIND 2600FT 16017KT",
      "taf": "TAF ENTC 140500Z 1406/1506 20012KT 9999 FEW015 SCT030"
    },
    {
      "icao": "ENTO",
      "alert": "OK",
      "vis_m": 9999,
      "fzfg": false,
      "metar_trigger": false,
      "taf_trigger": false,
      "metar": "METAR ENTO 140620Z 36004KT 9999 FEW025 M13/M16 Q1011 NOSIG",
      "taf": "TAF ENTO 140500Z 1406/1506 35003KT CAVOK"
    },
    {
      "icao": "ENVA",
      "alert": "OK",
      "vis_m": 9999,
      "fzfg": false,
      "metar_trigger": false,
      "taf_trigger": false,
      "metar": "METAR ENVA 140620Z 10010KT 9999 BKN039 OVC049 M13/M17 Q1008 NOSIG RMK WIND 670FT 15007KT",
      "taf": "TAF ENVA 140500Z 1406/1506 11009KT 9999 SCT012 BKN030"
    },
    {
      "icao": "ENZV",
      "alert": "OK",
      "vis_m": 9999,
      "fzfg": false,
      "metar_trigger": false,
      "taf_trigger": false,
      "metar": "METAR ENZV 140620Z 14020KT 9999 -SN BKN016 M02/M06 Q1005 TEMPO 1000 SHSN VV008",
      "taf": "TAF ENZV 140500Z 1406/1506 15020KT 9999 SCT015 BKN030"
    },
    {
      "icao": "EPGD",
      "alert": "OK",
      "vis_m": 9999,
      "fzfg": false,
      "metar_trigger": false,
      "taf_trigger": false,
      "metar": "METAR EPGD 140630Z 35009KT 9999 -SN OVC005 M04/M05 Q1002",
      "taf": "TAF EPGD 140530Z 1406/1506 36010KT 9999 OVC006"
    },
    {
      "icao": "EPKK",
      "alert": "OK",
      "vis_m": 6000,
      "fzfg": false,
      "metar_trigger": false,
      "taf_trigger": false,
      "metar": "METAR EPKK 140630Z 25003KT 6000 FEW010 SCT023 BKN046 02/01 Q1000",
      "taf": "TAF EPKK 140530Z 1406/1506 VRB02KT 9999 BKN013"
    },
    {
      "icao": "EPKT",
      "alert": "OK",
      "vis_m": 8000,
      "fzfg": false,
      "metar_trigger": false,
      "taf_trigger": false,
      "metar": "METAR EPKT 140630Z 35005KT 8000 OVC004 00/M00 Q1000",
      "taf": ""
    },
    {
      "icao": "EPLB",
      "alert": "OK",
      "vis_m": 9999,
      "fzfg": false,
      "metar_trigger": false,
      "taf_trigger": false,
      "metar": "METAR EPLB 140630Z 29008KT 9999 BKN006 OVC011 01/M00 Q0998",
      "taf": "TAF EPLB 140530Z 1406/1506 29010KT 9999 BKN008"
    },
    {
      "icao": "EPMO",
      "alert": "OK",
      "vis_m": 7000,
      "fzfg": false,
      "metar_trigger": false,
      "taf_trigger": false,
      "metar": "METAR EPMO 140630Z 30006KT 7000 BKN006 M02/M03 Q1000",
      "taf": "TAF EPMO 140530Z 1406/1506 32008KT 9999 BKN007"
    },
    {
      "icao": "EPPO",
      "alert": "OK",
      "vis_m": 9999,
      "fzfg": false,
      "metar_trigger": false,
      "taf_trigger": false,
      "metar": "METAR EPPO 140630Z 01005KT 9999 BKN006 OVC009 M01/M02 Q1002",
      "taf": "TAF EPPO 140530Z 1406/1506 02010KT 8000 BKN007"
    },
    {
      "icao": "EPRA",
      "alert": "OK",
      "vis_m": 9999,
      "fzfg": false,
      "metar_trigger": false,
      "taf_trigger": false,
      "metar": "METAR EPRA 140630Z 33008KT 9999 OVC007 00/M01 Q0999",
      "taf": "TAF EPRA 140530Z 1406/1415 30008KT 9999 OVC007"
    },
    {
      "icao": "EPRZ",
      "alert": "OK",
      "vis_m": 9999,
      "fzfg": false,
      "metar_trigger": false,
      "taf_trigger": false,
      "metar": "METAR EPRZ 140630Z 28006KT 9999 SCT009 BKN014 02/01 Q0999",
      "taf": "TAF EPRZ 140530Z 1406/1506 27006KT 9999 BKN011"
    },
    {
      "icao": "EPSC",
      "alert": "OK",
      "vis_m": 9999,
      "fzfg": false,
      "metar_trigger": false,
      "taf_trigger": false,
      "metar": "METAR EPSC 140630Z 32005KT 9999 BKN024 M00/M04 Q1004",
      "taf": "TAF EPSC 140530Z 1406/1506 35010KT 9999 OVC022"
    },
    {
      "icao": "EPSY",
      "alert": "OK",
      "vis_m": 9999,
      "fzfg": false,
      "metar_trigger": false,
      "taf_trigger": false,
      "metar": "METAR EPSY 140630Z 35009KT 9999 OVC006 M06/M07 Q1000",
      "taf": "TAF EPSY 140530Z 1406/1415 35008KT 9999 OVC007"
    },
    {
      "icao": "EPWA",
      "alert": "OK",
      "vis_m": 9999,
      "fzfg": false,
      "metar_trigger": false,
      "taf_trigger": false,
      "metar": "METAR EPWA 140630Z 30009KT 9999 BKN008 M01/M03 Q0999 NOSIG",
      "taf": "TAF EPWA 140530Z 1406/1506 32010KT 9999 BKN008"
    },
    {
      "icao": "EPWR",
      "alert": "OK",
      "vis_m": 4000,
      "fzfg": false,
      "metar_trigger": false,
      "taf_trigger": false,
      "metar": "METAR EPWR 140630Z 31005KT 4000 -SN BR SCT003 BKN006 01/00 Q1001",
      "taf": ""
    },
    {
      "icao": "ESGG",
      "alert": "OK",
      "vis_m": 9999,
      "fzfg": false,
      "metar_trigger": false,
      "taf_trigger": false,
      "metar": "METAR ESGG 140620Z 04005KT CAVOK M12/M13 Q1009",
      "taf": "TAF ESGG 140530Z 1406/1506 04005KT CAVOK"
    },
    {
      "icao": "ESKN",
      "alert": "OK",
      "vis_m": 9999,
      "fzfg": false,
      "metar_trigger": false,
      "taf_trigger": false,
      "metar": "METAR ESKN 140620Z 29003KT CAVOK M17/M19 Q1010",
      "taf": "TAF ESKN 140530Z 1406/1506 35002KT CAVOK"
    },
    {
      "icao": "ESMS",
      "alert": "OK",
      "vis_m": 9999,
      "fzfg": false,
      "metar_trigger": false,
      "taf_trigger": false,
      "metar": "METAR ESMS 140620Z 03008KT CAVOK M06/M09 Q1007",
      "taf": "TAF ESMS 140527Z 1406/1506 02008KT CAVOK"
    },
    {
      "icao": "ESSA",
      "alert": "OK",
      "vis_m": 9999,
      "fzfg": false,
      "metar_trigger": false,
      "taf_trigger": false,
      "metar": "METAR ESSA 140620Z VRB01KT CAVOK M21/M24 Q1010 NOSIG",
      "taf": "TAF ESSA 140530Z 1406/1506 34002KT CAVOK"
    },
    {
      "icao": "EYKA",
      "alert": "OK",
      "vis_m": 9999,
      "fzfg": false,
      "metar_trigger": false,
      "taf_trigger": false,
      "metar": "METAR EYKA 140620Z 34004KT 250V060 9999 OVC011 M11/M13 Q1000",
      "taf": "TAF EYKA 140513Z 1406/1506 VRB04KT 7000 BKN010"
    },
    {
      "icao": "EYPA",
      "alert": "OK",
      "vis_m": 9999,
      "fzfg": false,
      "metar_trigger": false,
      "taf_trigger": false,
      "metar": "METAR EYPA 140620Z 03006KT 9999 FEW013 M12/M15 Q1003",
      "taf": "TAF EYPA 140500Z 1406/1506 04010KT 8000 BKN015"
    },
    {
      "icao": "EYVI",
      "alert": "OK",
      "vis_m": 9999,
      "fzfg": false,
      "metar_trigger": false,
      "taf_trigger": false,
      "metar": "METAR EYVI 140620Z 34008KT 9999 OVC010 M08/M10 Q0996 NOSIG",
      "taf": "TAF EYVI 140518Z 1406/1506 35011KT 5000 -SN BKN010"
    },
    {
      "icao": "GCFV",
      "alert": "OK",
      "vis_m": 9999,
      "fzfg": false,
      "metar_trigger": false,
      "taf_trigger": false,
      "metar": "METAR GCFV 140600Z 01024KT 9999 SCT035 17/10 Q1024",
      "taf": "TAF GCFV 140200Z 1403/1503 01020KT 9999 SCT035 TX22/1414Z TN17/1406Z"
    },
    {
      "icao": "GCLP",
      "alert": "OK",
      "vis_m": 9999,
      "fzfg": false,
      "metar_trigger": false,
      "taf_trigger": false,
      "metar": "METAR GCLP 140600Z 02026KT 9999 BKN030 17/09 Q1024 NOSIG",
      "taf": "TAF GCLP 140200Z 1403/1503 01022KT 9999 BKN025 TX22/1414Z TN16/1406Z"
    },
    {
      "icao": "GCTS",
      "alert": "OK",
      "vis_m": 9999,
      "fzfg": false,
      "metar_trigger": false,
      "taf_trigger": false,
      "metar": "METAR GCTS 140600Z 06017KT 9999 FEW035 17/07 Q1025 NOSIG",
      "taf": "TAF GCTS 140200Z 1403/1503 04015KT 9999 SCT030 TX24/1414Z TN14/1406Z"
    },
    {
      "icao": "GMAD",
      "alert": "OK",
      "vis_m": 9999,
      "fzfg": false,
      "metar_trigger": false,
      "taf_trigger": false,
      "metar": "METAR GMAD 140630Z 25008KT CAVOK 08/07 Q1021 NOSIG",
      "taf": "TAF GMAD 140500Z 1406/1512 22006KT 8000 FEW020"
    },
    {
      "icao": "GMMN",
      "alert": "OK",
      "vis_m": 9999,
      "fzfg": false,
      "metar_trigger": false,
      "taf_trigger": false,
      "metar": "METAR GMMN 140630Z 26007KT 9999 SCT030 10/08 Q1024 NOSIG",
      "taf": "TAF GMMN 140500Z 1406/1512 30006KT 9999 BKN030"
    },
    {
      "icao": "GMMX",
      "alert": "OK",
      "vis_m": 8000,
      "fzfg": false,
      "metar_trigger": false,
      "taf_trigger": false,
      "metar": "METAR GMMX 140630Z 24007KT 8000 SCT023 10/08 Q1025 NOSIG",
      "taf": "TAF GMMX 140500Z 1406/1512 06006KT 8000 SCT023"
    },
    {
      "icao": "HEGN",
      "alert": "OK",
      "vis_m": null,
      "fzfg": false,
      "metar_trigger": false,
      "taf_trigger": false,
      "metar": "",
      "taf": "TAF HEGN 132300Z 1400/1506 29010G20KT 6000 NSC"
    },
    {
      "icao": "HEMA",
      "alert": "OK",
      "vis_m": null,
      "fzfg": false,
      "metar_trigger": false,
      "taf_trigger": false,
      "metar": "",
      "taf": "TAF HEMA 132300Z 1400/1506 27010G20KT 6000 NSC"
    },
    {
      "icao": "HESH",
      "alert": "OK",
      "vis_m": null,
      "fzfg": false,
      "metar_trigger": false,
      "taf_trigger": false,
      "metar": "",
      "taf": "TAF HESH 132300Z 1400/1506 28010G20KT 6000 NSC"
    },
    {
      "icao": "HESX",
      "alert": "OK",
      "vis_m": null,
      "fzfg": false,
      "metar_trigger": false,
      "taf_trigger": false,
      "metar": "",
      "taf": "TAF HESX 132300Z 1400/1506 22015KT 6000 NSC"
    },
    {
      "icao": "LATI",
      "alert": "OK",
      "vis_m": 9999,
      "fzfg": false,
      "metar_trigger": false,
      "taf_trigger": false,
      "metar": "METAR LATI 140620Z 18003KT 140V210 9999 FEW026 SCT040 BKN060 11/07 Q1002 NOSIG",
      "taf": "TAF LATI 140500Z 1406/1506 VRB04KT 9999 SCT030 BKN070 TX16/1412Z TN08/1505Z"
    },
    {
      "icao": "LBPD",
      "alert": "OK",
      "vis_m": 9999,
      "fzfg": false,
      "metar_trigger": false,
      "taf_trigger": false,
      "metar": "METAR LBPD 140630Z AUTO 15007KT 120V180 9999 NCD 08/04 Q1003 NOSIG",
      "taf": "TAF LBPD 140500Z 1406/1506 28010KT CAVOK"
    },
    {
      "icao": "LBSF",
      "alert": "OK",
      "vis_m": 8000,
      "fzfg": false,
      "metar_trigger": false,
      "taf_trigger": false,
      "metar": "METAR LBSF 140630Z 25002KT 8000 NSC 04/02 Q1003 TEMPO 5000 BR",
      "taf": "TAF LBSF 140500Z 1406/1506 VRB04KT CAVOK"
    },
    {
      "icao": "LBWN",
      "alert": "OK",
      "vis_m": 9999,
      "fzfg": false,
      "metar_trigger": false,
      "taf_trigger": false,
      "metar": "METAR LBWN 140630Z 25007KT CAVOK 08/06 Q1001 NOSIG",
      "taf": "TAF LBWN 140500Z 1406/1506 29010KT 9999 SCT040"
    },
    {
      "icao": "LCLK",
      "alert": "OK",
      "vis_m": 9999,
      "fzfg": false,
      "metar_trigger": false,
      "taf_trigger": false,
      "metar": "METAR LCLK 140630Z 21009KT 9999 FEW020 FEW025CB 17/14 Q1008 NOSIG RMK CB TO N",
      "taf": "TAF LCLK 140530Z 1406/1506 23010KT 9999 FEW025"
    },
    {
      "icao": "LCPH",
      "alert": "OK",
      "vis_m": 7000,
      "fzfg": false,
      "metar_trigger": false,
      "taf_trigger": false,
      "metar": "METAR LCPH 140630Z 27017KT 250V320 7000 FEW025TCU SCT030 BKN035 18/13 Q1009 NOSIG",
      "taf": "TAF LCPH 140530Z 1406/1506 29020KT 8000 FEW025 SCT045"
    },
    {
      "icao": "LEAL",
      "alert": "OK",
      "vis_m": 9999,
      "fzfg": false,
      "metar_trigger": false,
      "taf_trigger": false,
      "metar": "METAR LEAL 140600Z 31016G26KT 270V360 CAVOK 13/00 Q1001 NOSIG",
      "taf": "TAF LEAL 140500Z 1406/1506 29015KT CAVOK TX21/1413Z TN10/1406Z"
    },
    {
      "icao": "LEBB",
      "alert": "OK",
      "vis_m": 9999,
      "fzfg": false,
      "metar_trigger": false,
      "taf_trigger": false,
      "metar": "METAR LEBB 140600Z 30022G34KT 9999 -SHRA FEW012 BKN017 FEW022TCU BKN025 10/07 Q1008 TEMPO 3000 SHRA SCT030TCU",
      "taf": "TAF LEBB 140500Z 1406/1506 30009KT 9999 SCT010 BKN020 TX11/1412Z TN08/1424Z"
    },
    {
      "icao": "LEBL",
      "alert": "OK",
      "vis_m": 9999,
      "fzfg": false,
      "metar_trigger": false,
      "taf_trigger": false,
      "metar": "METAR LEBL 140600Z VRB06KT 9999 FEW012 SCT040 11/04 Q0992 NOSIG",
      "taf": "TAF LEBL 140500Z 1406/1506 32013KT 9999 FEW035 TX18/1413Z TN09/1406Z"
    },
    {
      "icao": "LECH",
      "alert": "OK",
      "vis_m": 9000,
      "fzfg": false,
      "metar_trigger": false,
      "taf_trigger": false,
      "metar": "METAR LECH 140600Z AUTO 32026G47KT 290V010 9000 NSC 11/M02 Q0994",
      "taf": ""
    },
    {
      "icao": "LEMD",
      "alert": "OK",
      "vis_m": 9999,
      "fzfg": false,
      "metar_trigger": false,
      "taf_trigger": false,
      "metar": "METAR LEMD 140600Z 31038KT 9999 FEW070 05/M03 Q1007 NOSIG",
      "taf": ""
    },
    {
      "icao": "LEMG",
      "alert": "OK",
      "vis_m": 9999,
      "fzfg": false,
      "metar_trigger": false,
      "taf_trigger": false,
      "metar": "METAR LEMG 140600Z 30020KT 260V340 9999 FEW045 BKN056 10/03 Q1012 NOSIG",
      "taf": "TAF LEMG 140500Z 1406/1506 31018KT 9999 SCT040 TX17/1414Z TN09/1407Z"
    },
    {
      "icao": "LEVC",
      "alert": "OK",
      "vis_m": 9999,
      "fzfg": false,
      "metar_trigger": false,
      "taf_trigger": false,
      "metar": "METAR LEVC 140600Z 29018KT CAVOK 13/M01 Q0999 NOSIG",
      "taf": "TAF LEVC 140500Z 1406/1506 29012KT CAVOK TX20/1414Z TN11/1406Z"
    },
    {
      "icao": "LEXJ",
      "alert": "OK",
      "vis_m": 9000,
      "fzfg": false,
      "metar_trigger": false,
      "taf_trigger": false,
      "metar": "METAR LEXJ 140600Z 33027G46KT 290V010 9000 -SHRA FEW014 OVC025 FEW028TCU 09/06 Q1011",
      "taf": ""
    },
    {
      "icao": "LEZG",
      "alert": "OK",
      "vis_m": 9999,
      "fzfg": false,
      "metar_trigger": false,
      "taf_trigger": false,
      "metar": "METAR LEZG 140600Z 29026G37KT 9999 SCT040 SCT065 07/03 Q1002 NOSIG",
      "taf": "TAF LEZG 140500Z 1406/1506 29012KT 9999 SCT020 TX12/1412Z TN06/1406Z"
    },
    {
      "icao": "LEZL",
      "alert": "OK",
      "vis_m": 9999,
      "fzfg": false,
      "metar_trigger": false,
      "taf_trigger": false,
      "metar": "METAR LEZL 140600Z 34017G27KT 290V010 CAVOK 11/02 Q1015 NOSIG",
      "taf": ""
    },
    {
      "icao": "LFBD",
      "alert": "OK",
      "vis_m": 9999,
      "fzfg": false,
      "metar_trigger": false,
      "taf_trigger": false,
      "metar": "METAR LFBD 140630Z AUTO 34016KT 9999 OVC020 08/05 Q1002 TEMPO 3000 SHRA BKN020TCU BECMG 34015G25KT",
      "taf": "TAF LFBD 140500Z 1406/1512 31010KT 9999 BKN020 TX11/1512Z TN02/1504Z"
    },
    {
      "icao": "LFLL",
      "alert": "OK",
      "vis_m": 9999,
      "fzfg": false,
      "metar_trigger": false,
      "taf_trigger": false,
      "metar": "METAR LFLL 140630Z 34010KT 9999 -RA BKN010 BKN066 07/06 Q0993 TEMPO BKN008",
      "taf": "TAF LFLL 140500Z 1406/1512 34006KT 9999 BKN040"
    },
    {
      "icao": "LFLS",
      "alert": "OK",
      "vis_m": 9999,
      "fzfg": false,
      "metar_trigger": false,
      "taf_trigger": false,
      "metar": "METAR LFLS 140630Z AUTO 32003KT 9999 OVC010 06/05 Q0993 TEMPO 4000 BKN004",
      "taf": "TAF LFLS 140200Z 1403/1503 VRB03KT 6000 SCT010 OVC050"
    },
    {
      "icao": "LFMN",
      "alert": "OK",
      "vis_m": 9999,
      "fzfg": false,
      "metar_trigger": false,
      "taf_trigger": false,
      "metar": "METAR LFMN 140630Z 32010KT 9999 -RA OVC053 09/07 Q0987 BECMG NSW",
      "taf": "TAF LFMN 140200Z 1403/1509 02015KT 9999 -RA BKN040"
    },
    {
      "icao": "LFOB",
      "alert": "OK",
      "vis_m": 9999,
      "fzfg": false,
      "metar_trigger": false,
      "taf_trigger": false,
      "metar": "METAR LFOB 140630Z AUTO 01016KT 9999 FEW015 OVC023 01/M02 Q1006 BECMG 02015G25KT",
      "taf": "TAF LFOB 140500Z 1406/1506 02015G25KT 9999 OVC012"
    },
    {
      "icao": "LFPO",
      "alert": "OK",
      "vis_m": 8000,
      "fzfg": false,
      "metar_trigger": false,
      "taf_trigger": false,
      "metar": "METAR LFPO 140630Z 02021G31KT 350V050 8000 OVC012 02/00 Q1004 NOSIG",
      "taf": "TAF LFPO 140500Z 1406/1512 02015G25KT 8000 OVC012"
    },
    {
      "icao": "LFSB",
      "alert": "OK",
      "vis_m": 9999,
      "fzfg": false,
      "metar_trigger": false,
      "taf_trigger": false,
      "metar": "METAR LFSB 140630Z AUTO 34009KT 9999 BKN007 OVC012 06/05 Q0995 TEMPO 4000 BR BKN003",
      "taf": "TAF LFSB 140500Z 1406/1506 35006KT 9999 BKN007"
    },
    {
      "icao": "LGAV",
      "alert": "OK",
      "vis_m": 9999,
      "fzfg": false,
      "metar_trigger": false,
      "taf_trigger": false,
      "metar": "METAR LGAV 140620Z 25004KT 190V300 9999 FEW020 14/08 Q1006 NOSIG",
      "taf": "TAF LGAV 140500Z 1406/1506 28012KT 9999 SCT025"
    },
    {
      "icao": "LGTS",
      "alert": "OK",
      "vis_m": 9999,
      "fzfg": false,
      "metar_trigger": false,
      "taf_trigger": false,
      "metar": "METAR LGTS 140620Z VRB03KT 9999 FEW025 07/06 Q1004 NOSIG",
      "taf": ""
    },
    {
      "icao": "LHBP",
      "alert": "OK",
      "vis_m": 9999,
      "fzfg": false,
      "metar_trigger": false,
      "taf_trigger": false,
      "metar": "METAR LHBP 140630Z 11005KT CAVOK 04/03 Q0999 NOSIG",
      "taf": "TAF LHBP 140515Z 1406/1506 12006KT CAVOK"
    },
    {
      "icao": "LHDC",
      "alert": "OK",
      "vis_m": 6000,
      "fzfg": false,
      "metar_trigger": false,
      "taf_trigger": false,
      "metar": "METAR LHDC 140615Z AUTO 18004KT 160V230 6000 FEW042 01/01 Q1001 NOSIG",
      "taf": "TAF LHDC 140515Z 1406/1415 16005KT CAVOK"
    },
    {
      "icao": "LIBD",
      "alert": "OK",
      "vis_m": 9999,
      "fzfg": false,
      "metar_trigger": false,
      "taf_trigger": false,
      "metar": "METAR LIBD 140620Z 16005KT 130V210 CAVOK 10/07 Q0998",
      "taf": "TAF LIBD 140500Z 1406/1506 16013KT 9999 SCT030"
    },
    {
      "icao": "LIBG",
      "alert": "OK",
      "vis_m": null,
      "fzfg": false,
      "metar_trigger": false,
      "taf_trigger": false,
      "metar": "",
      "taf": ""
    },
    {
      "icao": "LIBP",
      "alert": "OK",
      "vis_m": 9999,
      "fzfg": false,
      "metar_trigger": false,
      "taf_trigger": false,
      "metar": "METAR LIBP 140620Z AUTO VRB02KT 9999 FEW110/// BKN230/// 08/06 Q0993",
      "taf": "TAF LIBP 140500Z 1406/1506 VRB05KT 9999 OVC020"
    },
    {
      "icao": "LIBR",
      "alert": "OK",
      "vis_m": 9999,
      "fzfg": false,
      "metar_trigger": false,
      "taf_trigger": false,
      "metar": "METAR LIBR 140620Z 15012KT CAVOK 12/09 Q0998",
      "taf": "TAF LIBR 140500Z 1406/1506 15015KT 9999 SCT030"
    },
    {
      "icao": "LICA",
      "alert": "OK",
      "vis_m": 9999,
      "fzfg": false,
      "metar_trigger": false,
      "taf_trigger": false,
      "metar": "METAR LICA 140620Z AUTO 06010KT 9999 -RA OVC071/// 12/09 Q0999",
      "taf": "TAF LICA 140500Z 1406/1506 08016KT 9999 SCT020 SCT060"
    },
    {
      "icao": "LICC",
      "alert": "OK",
      "vis_m": 9999,
      "fzfg": false,
      "metar_trigger": false,
      "taf_trigger": false,
      "metar": "METAR LICC 140620Z 07003KT 040V120 9999 BKN070 12/08 Q1000",
      "taf": "TAF LICC 140500Z 1406/1506 VRB05KT 9999 SCT030"
    },
    {
      "icao": "LICJ",
      "alert": "OK",
      "vis_m": 9999,
      "fzfg": false,
      "metar_trigger": false,
      "taf_trigger": false,
      "metar": "METAR LICJ 140620Z AUTO 18008KT 9999 // OVC063/// 15/09 Q0997",
      "taf": "TAF LICJ 140500Z 1406/1506 20012KT 9999 SCT030"
    },
    {
      "icao": "LIMC",
      "alert": "OK",
      "vis_m": 9999,
      "fzfg": false,
      "metar_trigger": false,
      "taf_trigger": false,
      "metar": "METAR LIMC 140620Z 36010KT 9999 -RA BKN050 07/06 Q0993 NOSIG",
      "taf": "TAF LIMC 140500Z 1406/1512 01010KT 7000 RA OVC040"
    },
    {
      "icao": "LIME",
      "alert": "OK",
      "vis_m": 9999,
      "fzfg": false,
      "metar_trigger": false,
      "taf_trigger": false,
      "metar": "METAR LIME 140620Z 13007KT 100V160 9999 -RA BKN045 08/05 Q0992 NOSIG",
      "taf": "TAF LIME 140500Z 1406/1506 VRB06KT 7000 RA OVC045"
    },
    {
      "icao": "LIMF",
      "alert": "OK",
      "vis_m": 9999,
      "fzfg": false,
      "metar_trigger": false,
      "taf_trigger": false,
      "metar": "METAR LIMF 140620Z 31009KT 9999 -RA OVC035 07/04 Q0993 RERA",
      "taf": "TAF LIMF 140500Z 1406/1506 34010KT 6000 RA OVC035"
    },
    {
      "icao": "LIMJ",
      "alert": "OK",
      "vis_m": 9999,
      "fzfg": false,
      "metar_trigger": false,
      "taf_trigger": false,
      "metar": "METAR LIMJ 140620Z 03013KT 9999 -RA SCT040 BKN050 10/07 Q0990",
      "taf": "TAF LIMJ 140500Z 1406/1506 01016G28KT 6000 RA OVC040"
    },
    {
      "icao": "LIPE",
      "alert": "OK",
      "vis_m": 2500,
      "fzfg": false,
      "metar_trigger": false,
      "taf_trigger": false,
      "metar": "METAR LIPE 140620Z 13003KT 2500 -RA BR FEW003 SCT045 07/07 Q0992",
      "taf": "TAF LIPE 140500Z 1406/1506 02007KT 1200 RA OVC010"
    },
    {
      "icao": "LIPH",
      "alert": "OK",
      "vis_m": 8000,
      "fzfg": false,
      "metar_trigger": false,
      "taf_trigger": false,
      "metar": "METAR LIPH 140620Z 06005KT 8000 -DZ BKN020 BKN075 09/08 Q0995",
      "taf": "TAF LIPH 140500Z 1406/1506 05007KT 6000 BKN014"
    },
    {
      "icao": "LIPQ",
      "alert": "OK",
      "vis_m": 9999,
      "fzfg": false,
      "metar_trigger": false,
      "taf_trigger": false,
      "metar": "METAR LIPQ 140620Z AUTO 03003KT 9999 FEW071/// BKN088/// BKN130/// 07/06 Q0995",
      "taf": "TAF LIPQ 140500Z 1406/1506 02007KT 6000 BKN020"
    },
    {
      "icao": "LIPR",
      "alert": "OK",
      "vis_m": 9999,
      "fzfg": false,
      "metar_trigger": false,
      "taf_trigger": false,
      "metar": "METAR LIPR 140620Z 16005KT 9999 -RA BKN060 10/07 Q0993",
      "taf": "TAF LIPR 140500Z 1406/1506 14008KT 4000 RA BKN020"
    },
    {
      "icao": "LIPX",
      "alert": "OK",
      "vis_m": 9999,
      "fzfg": false,
      "metar_trigger": false,
      "taf_trigger": false,
      "metar": "METAR LIPX 140620Z 11008KT 9999 -RA BKN045 09/06 Q0994",
      "taf": "TAF LIPX 140500Z 1406/1506 08010KT 7000 RA BKN050"
    },
    {
      "icao": "LIPY",
      "alert": "OK",
      "vis_m": 9999,
      "fzfg": false,
      "metar_trigger": false,
      "taf_trigger": false,
      "metar": "METAR LIPY 140620Z AUTO 11003KT 040V180 9999 BKN072/// 10/07 Q0992",
      "taf": "TAF LIPY 140500Z 1406/1506 16008KT 4000 RA OVC010"
    },
    {
      "icao": "LIPZ",
      "alert": "OK",
      "vis_m": 8000,
      "fzfg": false,
      "metar_trigger": false,
      "taf_trigger": false,
      "metar": "METAR LIPZ 140620Z 04010KT 8000 -RA FEW025 BKN060 08/07 Q0994 BECMG 4000 RA",
      "taf": "TAF LIPZ 140500Z 1406/1512 04011KT 7000 SCT015"
    },
    {
      "icao": "LIRF",
      "alert": "OK",
      "vis_m": 9999,
      "fzfg": false,
      "metar_trigger": false,
      "taf_trigger": false,
      "metar": "METAR LIRF 140620Z 17012KT 9999 4000NE SHRA VCTS FEW015CB BKN025 15/11 Q0990 NOSIG",
      "taf": "TAF LIRF 140500Z 1406/1512 18018KT 9999 BKN020"
    },
    {
      "icao": "LIRN",
      "alert": "OK",
      "vis_m": 9999,
      "fzfg": false,
      "metar_trigger": false,
      "taf_trigger": false,
      "metar": "METAR LIRN 140620Z 16005KT 090V220 9999 SCT015 BKN040 13/10 Q0996 NOSIG",
      "taf": "TAF LIRN 140500Z 1406/1506 17010KT 9999 BKN030"
    },
    {
      "icao": "LIRP",
      "alert": "OK",
      "vis_m": 9999,
      "fzfg": false,
      "metar_trigger": false,
      "taf_trigger": false,
      "metar": "METAR LIRP 140615Z 08013KT 9999 -RA SCT025 SCT030 11/10 Q0987 NOSIG",
      "taf": "TAF LIRP 140500Z 1406/1506 09018KT 9999 RA SCT020 BKN040"
    },
    {
      "icao": "LIRZ",
      "alert": "OK",
      "vis_m": 9999,
      "fzfg": false,
      "metar_trigger": false,
      "taf_trigger": false,
      "metar": "METAR LIRZ 140620Z AUTO 04007KT 9999 -RA BKN032/// 08/07 Q0992",
      "taf": "TAF LIRZ 140500Z 1406/1506 13010KT 9999 BKN030"
    },
    {
      "icao": "LJLJ",
      "alert": "OK",
      "vis_m": 9999,
      "fzfg": false,
      "metar_trigger": false,
      "taf_trigger": false,
      "metar": "METAR LJLJ 140600Z VRB02KT 9999 FEW001 SCT060 BKN120 02/02 Q0996 NOSIG",
      "taf": "TAF LJLJ 140500Z 1406/1506 VRB02KT 9999 SCT050"
    },
    {
      "icao": "LKMT",
      "alert": "OK",
      "vis_m": 3500,
      "fzfg": false,
      "metar_trigger": false,
      "taf_trigger": false,
      "metar": "METAR LKMT 140630Z 04004KT 3500 BR OVC008 03/03 Q0999 NOSIG",
      "taf": "TAF LKMT 140500Z 1406/1506 VRB02KT 2000 BR BKN005"
    },
    {
      "icao": "LKPR",
      "alert": "OK",
      "vis_m": 4500,
      "fzfg": false,
      "metar_trigger": false,
      "taf_trigger": false,
      "metar": "METAR LKPR 140630Z 36008KT 4500 BR BKN002 OVC003 01/01 Q0999 NOSIG",
      "taf": "TAF LKPR 140500Z 1406/1512 01006KT 2000 BR BKN003"
    },
    {
      "icao": "LLBG",
      "alert": "OK",
      "vis_m": 1500,
      "fzfg": false,
      "metar_trigger": false,
      "taf_trigger": false,
      "metar": "METAR LLBG 140620Z 19008KT 1500 R08/2000 R12/1500/ R21/1400/ R26/1700/ ///// Q////",
      "taf": "TAF LLBG 140510Z 1406/1506 19010KT 1800 DU NSC"
    },
    {
      "icao": "LMML",
      "alert": "OK",
      "vis_m": 9999,
      "fzfg": false,
      "metar_trigger": false,
      "taf_trigger": false,
      "metar": "METAR LMML 140615Z 15013KT CAVOK 15/13 Q0998 NOSIG",
      "taf": "TAF LMML 140500Z 1406/1506 16012KT 9999 FEW020"
    },
    {
      "icao": "LOWW",
      "alert": "OK",
      "vis_m": 9999,
      "fzfg": false,
      "metar_trigger": false,
      "taf_trigger": false,
      "metar": "METAR LOWW 140620Z VRB01KT 9999 FEW020 03/01 Q0997 NOSIG",
      "taf": "TAF LOWW 140515Z 1406/1512 VRB03KT 9999 BKN050 TX07/1415Z TN01/1507Z"
    },
    {
      "icao": "LPFR",
      "alert": "OK",
      "vis_m": 9999,
      "fzfg": false,
      "metar_trigger": false,
      "taf_trigger": false,
      "metar": "METAR LPFR 140600Z 31015KT CAVOK 11/04 Q1020",
      "taf": "TAF LPFR 140500Z 1406/1506 31015KT CAVOK"
    },
    {
      "icao": "LPMA",
      "alert": "OK",
      "vis_m": 9999,
      "fzfg": false,
      "metar_trigger": false,
      "taf_trigger": false,
      "metar": "METAR LPMA 140600Z 36010KT 330V040 9999 FEW016 16/07 Q1029",
      "taf": "TAF LPMA 140500Z 1406/1506 02012KT 9999 SCT015"
    },
    {
      "icao": "LPPR",
      "alert": "OK",
      "vis_m": 9999,
      "fzfg": false,
      "metar_trigger": false,
      "taf_trigger": false,
      "metar": "METAR LPPR 140600Z 35010KT 9999 BKN035 09/05 Q1021",
      "taf": "TAF LPPR 140500Z 1406/1506 35013KT 9999 FEW020 SCT035"
    },
    {
      "icao": "LPPS",
      "alert": "OK",
      "vis_m": 9999,
      "fzfg": false,
      "metar_trigger": false,
      "taf_trigger": false,
      "metar": "METAR LPPS 140600Z 01011KT 9999 SCT015 15/07 Q1029",
      "taf": "TAF LPPS 140500Z 1406/1512 36015KT 9999 SCT015 SCT030"
    },
    {
      "icao": "LPPT",
      "alert": "OK",
      "vis_m": 9999,
      "fzfg": false,
      "metar_trigger": false,
      "taf_trigger": false,
      "metar": "METAR LPPT 140600Z 33011KT 9999 FEW035 10/05 Q1022",
      "taf": "TAF LPPT 140500Z 1406/1512 33013KT 9999 FEW035"
    },
    {
      "icao": "LQBK",
      "alert": "OK",
      "vis_m": 9999,
      "fzfg": false,
      "metar_trigger": false,
      "taf_trigger": false,
      "metar": "METAR LQBK 140600Z 11003KT 070V170 CAVOK 01/00 Q0998 NOSIG",
      "taf": "TAF LQBK 140500Z 1406/1506 15005KT CAVOK TX13/1412Z TN01/1406Z"
    },
    {
      "icao": "LQSA",
      "alert": "OK",
      "vis_m": 800,
      "fzfg": false,
      "metar_trigger": false,
      "taf_trigger": false,
      "metar": "METAR LQSA 140600Z VRB01KT 0800 R11/0750N FG OVC003 01/01 Q1000 NOSIG",
      "taf": "TAF LQSA 140500Z 1406/1506 14008KT 0800 FG BKN003 TX13/1413Z TN01/1406Z"
    },
    {
      "icao": "LQTZ",
      "alert": "OK",
      "vis_m": 5000,
      "fzfg": false,
      "metar_trigger": false,
      "taf_trigger": false,
      "metar": "METAR LQTZ 140600Z VRB02KT 5000 BR NSC M02/M02 Q0999",
      "taf": "TAF LQTZ 140500Z 1406/1506 16005KT 7000 NSC TX14/1413Z TNM02/1406Z"
    },
    {
      "icao": "LRBC",
      "alert": "OK",
      "vis_m": 100,
      "fzfg": false,
      "metar_trigger": false,
      "taf_trigger": false,
      "metar": "METAR LRBC 140600Z VRB01KT 0100 R16/0225N FG VV001 01/01 Q1000",
      "taf": "TAF LRBC 140500Z 1406/1415 VRB04KT 0100 FG VV001"
    },
    {
      "icao": "LRBS",
      "alert": "OK",
      "vis_m": 200,
      "fzfg": false,
      "metar_trigger": false,
      "taf_trigger": false,
      "metar": "METAR LRBS 140600Z 23006KT 200V260 0200 R07/0550N FG VV001 03/03 Q1001",
      "taf": "TAF LRBS 140500Z 1406/1506 25008KT 0300 FG OVC001"
    },
    {
      "icao": "LRBV",
      "alert": "OK",
      "vis_m": 9999,
      "fzfg": false,
      "metar_trigger": false,
      "taf_trigger": false,
      "metar": "METAR LRBV 140600Z 28007KT 9999 FEW020 SCT031 05/03 Q1000",
      "taf": "TAF LRBV 140500Z 1406/1415 29008KT 9999 SCT015 BKN030"
    },
    {
      "icao": "LRCL",
      "alert": "OK",
      "vis_m": 7000,
      "fzfg": false,
      "metar_trigger": false,
      "taf_trigger": false,
      "metar": "METAR LRCL 140600Z 24002KT 7000 FEW003 M02/M03 Q1000",
      "taf": "TAF LRCL 140500Z 1406/1415 VRB04KT 5000 BR NSC"
    },
    {
      "icao": "LRCV",
      "alert": "OK",
      "vis_m": 5000,
      "fzfg": false,
      "metar_trigger": false,
      "taf_trigger": false,
      "metar": "METAR LRCV 140600Z VRB02KT 5000 BR NSC 00/00 Q1000",
      "taf": "TAF LRCV 140500Z 1406/1415 VRB04KT 3000 BR NSC"
    },
    {
      "icao": "LRIA",
      "alert": "OK",
      "vis_m": 1500,
      "fzfg": false,
      "metar_trigger": false,
      "taf_trigger": false,
      "metar": "METAR LRIA 140600Z 26004KT 220V290 1500 0300NW R14/0550D PRFG BR OVC001 02/01 Q0999",
      "taf": "TAF LRIA 140500Z 1406/1415 VRB04KT 0800 FG OVC002"
    },
    {
      "icao": "LROP",
      "alert": "OK",
      "vis_m": 300,
      "fzfg": false,
      "metar_trigger": false,
      "taf_trigger": false,
      "metar": "METAR LROP 140600Z 25006KT 0300 R08R/0550N R08L/0550D FG VV002 03/03 Q1001 NOSIG",
      "taf": "TAF LROP 140500Z 1406/1506 25008KT 0300 FG OVC001"
    },
    {
      "icao": "LRSB",
      "alert": "OK",
      "vis_m": 9999,
      "fzfg": false,
      "metar_trigger": false,
      "taf_trigger": false,
      "metar": "METAR LRSB 140600Z VRB01KT CAVOK M01/M02 Q1000",
      "taf": "TAF LRSB 140500Z 1406/1506 VRB04KT CAVOK"
    },
    {
      "icao": "LRSM",
      "alert": "OK",
      "vis_m": 9999,
      "fzfg": false,
      "metar_trigger": false,
      "taf_trigger": false,
      "metar": "METAR LRSM 140600Z AUTO 14002KT 9999 NCD 01/00 Q1000",
      "taf": ""
    },
    {
      "icao": "LRSV",
      "alert": "OK",
      "vis_m": 9999,
      "fzfg": false,
      "metar_trigger": false,
      "taf_trigger": false,
      "metar": "METAR LRSV 140600Z 26003KT 210V280 CAVOK 04/02 Q0998",
      "taf": "TAF LRSV 140500Z 1406/1415 27005KT CAVOK"
    },
    {
      "icao": "LRTM",
      "alert": "OK",
      "vis_m": 150,
      "fzfg": true,
      "metar_trigger": false,
      "taf_trigger": false,
      "metar": "METAR LRTM 140600Z 10003KT 070V130 0150 R07/0250N FZFG FEW001 SCT003 M01/M01 Q1001",
      "taf": "TAF LRTM 140500Z 1406/1415 VRB04KT 0300 FG BKN001"
    },
    {
      "icao": "LRTR",
      "alert": "OK",
      "vis_m": 900,
      "fzfg": true,
      "metar_trigger": false,
      "taf_trigger": false,
      "metar": "METAR LRTR 140600Z 10005KT 0900 R11/P2000N FZFG FEW003 M01/M01 Q1001",
      "taf": "TAF LRTR 140500Z 1406/1506 11006KT 0600 FZFG BKN004"
    },
    {
      "icao": "LTAC",
      "alert": "OK",
      "vis_m": 9999,
      "fzfg": false,
      "metar_trigger": false,
      "taf_trigger": false,
      "metar": "METAR LTAC 140620Z 25012KT 9999 -SHRA FEW015 BKN025 BKN100 07/04 Q1003 NOSIG RMK RWY21C 21008KT 170V230 RWY03L 24009KT RWY21R 21010KT RWY03R 24011KT RWY21L 22007KT 170V250",
      "taf": "TAF LTAC 140440Z 1406/1506 20007KT 9999 SCT040 BKN100"
    },
    {
      "icao": "LTFM",
      "alert": "OK",
      "vis_m": 9999,
      "fzfg": false,
      "metar_trigger": false,
      "taf_trigger": false,
      "metar": "METAR LTFM 140620Z 22008KT 9999 FEW006 BKN011 BKN022 08/07 Q1004 NOSIG RMK RWY17L 22010KT RWY34L 21009KT RWY16R 21008KT RWY36 21008KT RWY18 22012KT",
      "taf": "TAF LTFM 140440Z 1406/1512 VRB02KT 9999 BKN016 BKN027"
    },
    {
      "icao": "LUKK",
      "alert": "OK",
      "vis_m": 5000,
      "fzfg": false,
      "metar_trigger": false,
      "taf_trigger": false,
      "metar": "METAR LUKK 140600Z 32006KT 5000 2500SW BR OVC003 02/02 Q0998 NOSIG",
      "taf": "TAF LUKK 140518Z 1406/1506 29006KT 9999 BKN007"
    },
    {
      "icao": "LWOH",
      "alert": "OK",
      "vis_m": 9999,
      "fzfg": false,
      "metar_trigger": false,
      "taf_trigger": false,
      "metar": "METAR LWOH 140620Z VRB01KT 9999 SCT013 BKN035 04/04 Q1003",
      "taf": "TAF LWOH 140500Z 1406/1506 VRB10KT 9999 SCT020 BKN040"
    },
    {
      "icao": "LWSK",
      "alert": "OK",
      "vis_m": 9999,
      "fzfg": false,
      "metar_trigger": false,
      "taf_trigger": false,
      "metar": "METAR LWSK 140620Z 10002KT CAVOK 02/01 Q1004 NOSIG",
      "taf": "TAF LWSK 140500Z 1406/1506 VRB02KT 9999 FEW040"
    },
    {
      "icao": "LYBE",
      "alert": "OK",
      "vis_m": 9999,
      "fzfg": false,
      "metar_trigger": false,
      "taf_trigger": false,
      "metar": "METAR LYBE 140600Z 12009KT CAVOK 03/01 Q1000 NOSIG",
      "taf": "TAF LYBE 140500Z 1406/1506 14010KT CAVOK TX15/1413Z TN05/1406Z"
    },
    {
      "icao": "LYNI",
      "alert": "OK",
      "vis_m": 9999,
      "fzfg": false,
      "metar_trigger": false,
      "taf_trigger": false,
      "metar": "METAR LYNI 140600Z 08002KT CAVOK 03/03 Q1002 TEMPO 5000 BR",
      "taf": "TAF LYNI 140500Z 1406/1506 13006KT 4000 BR NSC TX15/1413Z TN02/1406Z"
    },
    {
      "icao": "LYPG",
      "alert": "OK",
      "vis_m": 9999,
      "fzfg": false,
      "metar_trigger": false,
      "taf_trigger": false,
      "metar": "METAR LYPG 140600Z 36003KT 300V020 9999 -RA FEW020 SCT040 OVC070 08/06 Q1002 NOSIG",
      "taf": "TAF LYPG 140500Z 1406/1506 14005KT 8000 SCT030 BKN070 TX15/1414Z TN08/1406Z"
    },
    {
      "icao": "LZIB",
      "alert": "OK",
      "vis_m": 9999,
      "fzfg": false,
      "metar_trigger": false,
      "taf_trigger": false,
      "metar": "METAR LZIB 140630Z 04007KT CAVOK 05/02 Q0997 NOSIG",
      "taf": "TAF LZIB 140515Z 1406/1506 04006KT 9999 SCT030"
    },
    {
      "icao": "LZKZ",
      "alert": "OK",
      "vis_m": 4500,
      "fzfg": false,
      "metar_trigger": false,
      "taf_trigger": false,
      "metar": "METAR LZKZ 140630Z 01003KT 4500 2000S R01/0900N BR BCFG BKN002 BKN006 02/02 Q1000 BECMG SCT006 BKN025",
      "taf": "TAF LZKZ 140515Z 1406/1506 VRB02KT 9999 FEW018"
    },
    {
      "icao": "LZTT",
      "alert": "OK",
      "vis_m": 9999,
      "fzfg": false,
      "metar_trigger": false,
      "taf_trigger": false,
      "metar": "METAR LZTT 140630Z VRB02KT 9999 FEW026 BKN051 M01/M02 Q0998 NOSIG",
      "taf": "TAF LZTT 140515Z 1406/1506 VRB02KT 9999 SCT045"
    },
    {
      "icao": "OEJN",
      "alert": "OK",
      "vis_m": 9999,
      "fzfg": false,
      "metar_trigger": false,
      "taf_trigger": false,
      "metar": "METAR OEJN 140600Z 03002KT CAVOK 27/15 Q1013 NOSIG",
      "taf": "TAF OEJN 140500Z 1406/1512 32010KT CAVOK"
    },
    {
      "icao": "OEMA",
      "alert": "OK",
      "vis_m": 9999,
      "fzfg": false,
      "metar_trigger": false,
      "taf_trigger": false,
      "metar": "METAR OEMA 140600Z VRB03KT CAVOK 23/09 Q1018 NOSIG",
      "taf": "TAF OEMA 140500Z 1406/1512 29010KT CAVOK"
    },
    {
      "icao": "OJAI",
      "alert": "OK",
      "vis_m": 900,
      "fzfg": false,
      "metar_trigger": false,
      "taf_trigger": false,
      "metar": "METAR OJAI 140600Z 25014KT 0900 DS NSC 13/03 Q1015 NOSIG",
      "taf": "TAF OJAI 140430Z 1406/1512 26022KT 1000 BLDU NSC"
    },
    {
      "icao": "OMAA",
      "alert": "OK",
      "vis_m": 9999,
      "fzfg": false,
      "metar_trigger": false,
      "taf_trigger": false,
      "metar": "METAR OMAA 140630Z 11005KT 080V140 CAVOK 27/05 Q1017 NOSIG",
      "taf": "TAF OMAA 140500Z 1406/1512 VRB02KT 8000 NSC"
    },
    {
      "icao": "OMDB",
      "alert": "OK",
      "vis_m": 9999,
      "fzfg": false,
      "metar_trigger": false,
      "taf_trigger": false,
      "metar": "METAR OMDB 140630Z 15003KT 100V190 CAVOK 28/04 Q1017 NOSIG",
      "taf": "TAF OMDB 140500Z 1406/1512 16005KT CAVOK"
    },
    {
      "icao": "UAAA",
      "alert": "OK",
      "vis_m": 4800,
      "fzfg": false,
      "metar_trigger": false,
      "taf_trigger": false,
      "metar": "METAR UAAA 140600Z 00000MPS 4800 BR SCT050CB OVC100 M01/M04 Q1022 NOSIG",
      "taf": "TAF UAAA 140504Z 1406/1506 24003MPS 3100 -SHRASN BR FU BKN011CB OVC030 TX00/1409Z TNM09/1503Z"
    },
    {
      "icao": "UBBB",
      "alert": "OK",
      "vis_m": 9999,
      "fzfg": false,
      "metar_trigger": false,
      "taf_trigger": false,
      "metar": "METAR UBBB 140630Z 19014KT CAVOK 15/05 Q1003 NOSIG",
      "taf": "TAF UBBB 140458Z 1406/1506 20014KT CAVOK TX17/1410Z TN07/1501Z"
    },
    {
      "icao": "UDSG",
      "alert": "OK",
      "vis_m": 9999,
      "fzfg": false,
      "metar_trigger": false,
      "taf_trigger": false,
      "metar": "METAR UDSG 140600Z 28010KT 9999 OVC043 03/00 Q1010 NOSIG",
      "taf": ""
    },
    {
      "icao": "UDYZ",
      "alert": "OK",
      "vis_m": 9999,
      "fzfg": false,
      "metar_trigger": false,
      "taf_trigger": false,
      "metar": "METAR UDYZ 140600Z 23004KT 9999 SCT046 09/04 Q1008 TEMPO 20016G26KT",
      "taf": "TAF UDYZ 140500Z 1406/1506 24006KT 9999 SCT040"
    },
    {
      "icao": "UGKO",
      "alert": "OK",
      "vis_m": 9999,
      "fzfg": false,
      "metar_trigger": false,
      "taf_trigger": false,
      "metar": "METAR UGKO 140600Z 07020KT 9999 BKN098 17/05 Q1000 NOSIG",
      "taf": "TAF UGKO 140500Z 1406/1506 08010KT 9999 BKN080 TX19/1411Z TN10/1504Z"
    }
  ]
}