{
  "ts_utc": "2026-02-21T15:59:27Z",
  "threshold_m": 150,
  "source": "stations_override.txt (ICAO list) + aviationweather.gov (METAR/TAF raw)",
  "station_count": 159,
  "stations": [
    {
      "icao": "BIKF",
      "alert": "OK",
      "vis_m": 9999,
      "fzfg": false,
      "metar_trigger": false,
      "taf_trigger": false,
      "metar": "METAR BIKF 211530Z 07024KT CAVOK 01/M06 Q1001",
      "taf": "TAF BIKF 211357Z 2115/2215 07015KT CAVOK TX02/2208Z TNM01/2123Z"
    },
    {
      "icao": "BKPR",
      "alert": "OK",
      "vis_m": null,
      "fzfg": false,
      "metar_trigger": false,
      "taf_trigger": false,
      "metar": "",
      "taf": "TAF BKPR 211130Z 2112/2212 03012KT 9999 SCT020 BKN040"
    },
    {
      "icao": "EBCI",
      "alert": "OK",
      "vis_m": 9999,
      "fzfg": false,
      "metar_trigger": false,
      "taf_trigger": false,
      "metar": "METAR EBCI 211550Z 25013KT 9999 SCT013 BKN016 10/08 Q1022 BECMG BKN012",
      "taf": "TAF EBCI 211120Z 2112/2218 24010KT 9999 SCT012 BKN020"
    },
    {
      "icao": "EDDB",
      "alert": "OK",
      "vis_m": 9999,
      "fzfg": false,
      "metar_trigger": false,
      "taf_trigger": false,
      "metar": "METAR EDDB 211550Z AUTO 26010KT 9999 VCSH FEW025 SCT047 FEW///TCU 08/05 Q1016 NOSIG",
      "taf": "TAF EDDB 211100Z 2112/2212 25012G22KT 9999 BKN020"
    },
    {
      "icao": "EDDH",
      "alert": "OK",
      "vis_m": 9000,
      "fzfg": false,
      "metar_trigger": false,
      "taf_trigger": false,
      "metar": "METAR EDDH 211550Z AUTO 26009KT 240V300 9000 -DZ OVC009 07/06 Q1014 TEMPO 3000 BKN010",
      "taf": ""
    },
    {
      "icao": "EDDK",
      "alert": "OK",
      "vis_m": 9999,
      "fzfg": false,
      "metar_trigger": false,
      "taf_trigger": false,
      "metar": "METAR EDDK 211550Z AUTO 26010KT 9999 FEW005 OVC012 10/09 Q1020 BECMG BKN015",
      "taf": ""
    },
    {
      "icao": "EDDN",
      "alert": "OK",
      "vis_m": 9999,
      "fzfg": false,
      "metar_trigger": false,
      "taf_trigger": false,
      "metar": "METAR EDDN 211550Z AUTO 25007KT 9999 BKN024 BKN029 BKN040 08/04 Q1022 NOSIG",
      "taf": "TAF EDDN 211100Z 2112/2212 26010KT 9999 BKN015 BKN025"
    },
    {
      "icao": "EDDS",
      "alert": "OK",
      "vis_m": 9999,
      "fzfg": false,
      "metar_trigger": false,
      "taf_trigger": false,
      "metar": "METAR EDDS 211550Z AUTO VRB02KT 9999 -SHRA BKN021 BKN025 FEW///TCU 08/08 Q1023 TEMPO RA",
      "taf": "TAF EDDS 211100Z 2112/2212 22006KT 9999 BKN025"
    },
    {
      "icao": "EDFH",
      "alert": "OK",
      "vis_m": 9999,
      "fzfg": false,
      "metar_trigger": false,
      "taf_trigger": false,
      "metar": "METAR EDFH 211550Z 27013KT 9999 -RA OVC004 08/07 Q1021 RERA REDZ",
      "taf": "TAF EDFH 211100Z 2112/2212 26012KT 8000 BKN012"
    },
    {
      "icao": "EDJA",
      "alert": "OK",
      "vis_m": 9999,
      "fzfg": false,
      "metar_trigger": false,
      "taf_trigger": false,
      "metar": "METAR EDJA 211550Z 24014KT 9999 -RA SCT009 BKN025 OVC031 06/05 Q1024",
      "taf": ""
    },
    {
      "icao": "EDLW",
      "alert": "OK",
      "vis_m": 9000,
      "fzfg": false,
      "metar_trigger": false,
      "taf_trigger": false,
      "metar": "METAR EDLW 211550Z 23012KT 9000 SCT008 OVC010 09/08 Q1019",
      "taf": "TAF EDLW 211100Z 2112/2212 25012KT 9999 BKN020"
    },
    {
      "icao": "EDNY",
      "alert": "OK",
      "vis_m": 9999,
      "fzfg": false,
      "metar_trigger": false,
      "taf_trigger": false,
      "metar": "METAR EDNY 211550Z 24013KT 9999 -RA OVC018 08/06 Q1026",
      "taf": "TAF EDNY 211400Z 2115/2124 24012KT 8000 OVC015"
    },
    {
      "icao": "EDSB",
      "alert": "OK",
      "vis_m": 9999,
      "fzfg": false,
      "metar_trigger": false,
      "taf_trigger": false,
      "metar": "METAR EDSB 211550Z 20010KT 9999 -RA BKN029 OVC041 10/08 Q1024",
      "taf": "TAF EDSB 211100Z 2112/2212 21012KT 9999 BKN025"
    },
    {
      "icao": "EETN",
      "alert": "OK",
      "vis_m": 9999,
      "fzfg": false,
      "metar_trigger": false,
      "taf_trigger": false,
      "metar": "METAR EETN 211550Z 20015KT 9999 FEW020 M03/M07 Q1006 NOSIG",
      "taf": ""
    },
    {
      "icao": "EFTU",
      "alert": "OK",
      "vis_m": 4300,
      "fzfg": false,
      "metar_trigger": false,
      "taf_trigger": false,
      "metar": "METAR EFTU 211550Z AUTO 21012KT 4300 -SN OVC004 00/M00 Q1001",
      "taf": "TAF EFTU 211427Z 2115/2215 21012G24KT 3000 -SN OVC003"
    },
    {
      "icao": "EGBB",
      "alert": "OK",
      "vis_m": 5000,
      "fzfg": false,
      "metar_trigger": false,
      "taf_trigger": false,
      "metar": "METAR EGBB 211550Z 22005KT 190V260 5000 RA SCT021 BKN026 12/10 Q1016",
      "taf": ""
    },
    {
      "icao": "EGGP",
      "alert": "OK",
      "vis_m": 6000,
      "fzfg": false,
      "metar_trigger": false,
      "taf_trigger": false,
      "metar": "METAR EGGP 211520Z 23004KT 6000 RA BKN019 BKN023 OVC031 10/09 Q1014",
      "taf": "TAF EGGP 211105Z 2112/2212 23009KT 9999 SCT030"
    },
    {
      "icao": "EGGW",
      "alert": "OK",
      "vis_m": 9999,
      "fzfg": false,
      "metar_trigger": false,
      "taf_trigger": false,
      "metar": "METAR EGGW 211550Z AUTO 24015KT 9999 OVC019 13/10 Q1017",
      "taf": "TAF EGGW 211054Z 2112/2212 25016KT 9999 SCT012 BKN015"
    },
    {
      "icao": "EGKK",
      "alert": "OK",
      "vis_m": 9999,
      "fzfg": false,
      "metar_trigger": false,
      "taf_trigger": false,
      "metar": "METAR EGKK 211550Z 24009KT 9999 BKN007 12/11 Q1019",
      "taf": ""
    },
    {
      "icao": "EGNM",
      "alert": "OK",
      "vis_m": 9999,
      "fzfg": false,
      "metar_trigger": false,
      "taf_trigger": false,
      "metar": "METAR EGNM 211550Z 24011KT 9999 -SHRA FEW010 SCT018 11/08 Q1013",
      "taf": ""
    },
    {
      "icao": "EGPD",
      "alert": "OK",
      "vis_m": 2500,
      "fzfg": false,
      "metar_trigger": false,
      "taf_trigger": false,
      "metar": "METAR EGPD 211550Z 11006KT 2500 -RADZ BR OVC003 06/05 Q1008 TEMPO RADZ",
      "taf": ""
    },
    {
      "icao": "EGPF",
      "alert": "OK",
      "vis_m": 7000,
      "fzfg": false,
      "metar_trigger": false,
      "taf_trigger": false,
      "metar": "METAR EGPF 211550Z AUTO 23006KT 200V280 7000 -RA OVC009/// //////TCU 10/08 Q1008",
      "taf": ""
    },
    {
      "icao": "EHBK",
      "alert": "OK",
      "vis_m": 9999,
      "fzfg": false,
      "metar_trigger": false,
      "taf_trigger": false,
      "metar": "METAR EHBK 211525Z AUTO 23010KT 9999 FEW016 OVC028 11/09 Q1020 NOSIG",
      "taf": "TAF EHBK 211118Z 2112/2218 23009KT 7000 -RADZ BKN006"
    },
    {
      "icao": "EHEH",
      "alert": "OK",
      "vis_m": 7000,
      "fzfg": false,
      "metar_trigger": false,
      "taf_trigger": false,
      "metar": "METAR EHEH 211525Z AUTO 24008KT 7000 BR FEW008 SCT014 BKN017 11/10 Q1020 WHT NOSIG RMK TREND REMOTE BY EHWX",
      "taf": "TAF EHEH 211125Z 2112/2218 24010KT 6000 BKN006 OVC008"
    },
    {
      "icao": "EKBI",
      "alert": "OK",
      "vis_m": 9999,
      "fzfg": false,
      "metar_trigger": false,
      "taf_trigger": false,
      "metar": "METAR EKBI 211550Z AUTO 27012KT 9999 FEW012/// 04/02 Q1010",
      "taf": "TAF EKBI 211427Z 2115/2215 25010KT 6000 SCT006 BKN015"
    },
    {
      "icao": "EKCH",
      "alert": "OK",
      "vis_m": 2700,
      "fzfg": false,
      "metar_trigger": false,
      "taf_trigger": false,
      "metar": "METAR EKCH 211550Z 25013KT 2700 -DZ BR BKN005 03/03 Q1008 TEMPO 7000 NSW BKN004",
      "taf": "TAF EKCH 211427Z 2115/2215 24010KT 2000 -RADZ BR BKN003"
    },
    {
      "icao": "ENAL",
      "alert": "OK",
      "vis_m": 9000,
      "fzfg": false,
      "metar_trigger": false,
      "taf_trigger": false,
      "metar": "METAR ENAL 211550Z 23003KT 150V240 9000 -SNRA SCT007TCU BKN035 02/M00 Q1007",
      "taf": "TAF ENAL 211400Z 2115/2124 28008KT 9999 FEW015 SCT045"
    },
    {
      "icao": "ENBR",
      "alert": "OK",
      "vis_m": 9999,
      "fzfg": false,
      "metar_trigger": false,
      "taf_trigger": false,
      "metar": "METAR ENBR 211550Z 33008KT 9999 FEW025 04/M00 Q1008 NOSIG RMK WIND 1200FT 33016KT",
      "taf": "TAF ENBR 211100Z 2112/2212 34012KT 9999 FEW020"
    },
    {
      "icao": "ENGM",
      "alert": "OK",
      "vis_m": 9999,
      "fzfg": false,
      "metar_trigger": false,
      "taf_trigger": false,
      "metar": "METAR ENGM 211550Z 35003KT CAVOK 01/M04 Q1003 NOSIG",
      "taf": ""
    },
    {
      "icao": "ENHD",
      "alert": "OK",
      "vis_m": 9999,
      "fzfg": false,
      "metar_trigger": false,
      "taf_trigger": false,
      "metar": "METAR ENHD 211550Z 34009KT CAVOK 05/01 Q1008",
      "taf": "TAF ENHD 211400Z 2115/2123 34012KT 9999 FEW040"
    },
    {
      "icao": "ENTC",
      "alert": "OK",
      "vis_m": 9999,
      "fzfg": false,
      "metar_trigger": false,
      "taf_trigger": false,
      "metar": "METAR ENTC 211550Z 21010KT 9999 -SHSN SCT012 BKN032 M06/M09 Q0998 TEMPO BKN010 RMK WIND 2600FT 30014KT",
      "taf": "TAF ENTC 211100Z 2112/2212 18012KT 9999 SCT020 BKN030"
    },
    {
      "icao": "ENTO",
      "alert": "OK",
      "vis_m": 9999,
      "fzfg": false,
      "metar_trigger": false,
      "taf_trigger": false,
      "metar": "METAR ENTO 211550Z 36007KT 9999 FEW015 02/M01 Q1003 NOSIG",
      "taf": ""
    },
    {
      "icao": "ENVA",
      "alert": "OK",
      "vis_m": 9999,
      "fzfg": false,
      "metar_trigger": false,
      "taf_trigger": false,
      "metar": "METAR ENVA 211550Z 25014KT 9999 SCT006 BKN012 01/00 Q1003 RESN RMK WIND 670FT 26016KT",
      "taf": "TAF ENVA 211100Z 2112/2212 27008KT 9999 FEW020 SCT040"
    },
    {
      "icao": "ENZV",
      "alert": "OK",
      "vis_m": 9999,
      "fzfg": false,
      "metar_trigger": false,
      "taf_trigger": false,
      "metar": "METAR ENZV 211550Z 33008KT CAVOK 05/00 Q1009 NOSIG",
      "taf": "TAF ENZV 211100Z 2112/2212 33012KT 9999 FEW008 SCT040"
    },
    {
      "icao": "EPGD",
      "alert": "OK",
      "vis_m": 7000,
      "fzfg": false,
      "metar_trigger": false,
      "taf_trigger": false,
      "metar": "METAR EPGD 211530Z 22010KT 7000 -SN BKN006 00/M01 Q1009",
      "taf": "TAF EPGD 211130Z 2112/2212 20012KT 6000 OVC012"
    },
    {
      "icao": "EPKK",
      "alert": "OK",
      "vis_m": 9999,
      "fzfg": false,
      "metar_trigger": false,
      "taf_trigger": false,
      "metar": "METAR EPKK 211530Z 24005KT 9999 FEW013 OVC024 03/00 Q1019",
      "taf": "TAF EPKK 211430Z 2115/2215 27010KT 9999 OVC020"
    },
    {
      "icao": "EPKT",
      "alert": "OK",
      "vis_m": 9999,
      "fzfg": false,
      "metar_trigger": false,
      "taf_trigger": false,
      "metar": "METAR EPKT 211530Z 22009KT 9999 OVC013 01/M01 Q1018",
      "taf": ""
    },
    {
      "icao": "EPLB",
      "alert": "OK",
      "vis_m": 9999,
      "fzfg": false,
      "metar_trigger": false,
      "taf_trigger": false,
      "metar": "METAR EPLB 211530Z 16003KT CAVOK M00/M07 Q1018",
      "taf": "TAF EPLB 211130Z 2112/2212 17008KT CAVOK"
    },
    {
      "icao": "EPMO",
      "alert": "OK",
      "vis_m": 2100,
      "fzfg": false,
      "metar_trigger": false,
      "taf_trigger": false,
      "metar": "METAR EPMO 211530Z 17008KT 2100 -SN BR BKN008 OVC011 M01/M01 Q1015",
      "taf": ""
    },
    {
      "icao": "EPPO",
      "alert": "OK",
      "vis_m": 9999,
      "fzfg": false,
      "metar_trigger": false,
      "taf_trigger": false,
      "metar": "METAR EPPO 211530Z 25007KT 9999 BKN008 OVC014 05/04 Q1014",
      "taf": ""
    },
    {
      "icao": "EPRA",
      "alert": "OK",
      "vis_m": 8000,
      "fzfg": false,
      "metar_trigger": false,
      "taf_trigger": false,
      "metar": "METAR EPRA 211530Z 23009KT 8000 -SN BKN023 OVC035 01/M01 Q1017",
      "taf": "TAF EPRA 211430Z 2115/2124 19010KT 7000 -SN BKN030"
    },
    {
      "icao": "EPRZ",
      "alert": "OK",
      "vis_m": 9999,
      "fzfg": false,
      "metar_trigger": false,
      "taf_trigger": false,
      "metar": "METAR EPRZ 211530Z 10004KT 9999 SCT035 00/M05 Q1019",
      "taf": "TAF EPRZ 211130Z 2112/2212 09010KT 9999 BKN033"
    },
    {
      "icao": "EPSC",
      "alert": "OK",
      "vis_m": 9999,
      "fzfg": false,
      "metar_trigger": false,
      "taf_trigger": false,
      "metar": "METAR EPSC 211530Z 23005KT 180V250 9999 OVC006 05/05 Q1012",
      "taf": "TAF EPSC 211130Z 2112/2212 21006KT 6000 BKN005 OVC010"
    },
    {
      "icao": "EPSY",
      "alert": "OK",
      "vis_m": 3300,
      "fzfg": false,
      "metar_trigger": false,
      "taf_trigger": false,
      "metar": "METAR EPSY 211530Z 18008KT 3300 -SN BR OVC010 M03/M05 Q1014",
      "taf": "TAF EPSY 211430Z 2115/2124 19010KT 6000 -SN OVC013"
    },
    {
      "icao": "EPWA",
      "alert": "OK",
      "vis_m": 3400,
      "fzfg": false,
      "metar_trigger": false,
      "taf_trigger": false,
      "metar": "METAR EPWA 211530Z 16006KT 3400 -SN BR FEW007 OVC014 00/M01 Q1016 TEMPO BKN007",
      "taf": "TAF EPWA 211430Z 2115/2215 19008KT 9999 -SN BKN020"
    },
    {
      "icao": "EPWR",
      "alert": "OK",
      "vis_m": 9999,
      "fzfg": false,
      "metar_trigger": false,
      "taf_trigger": false,
      "metar": "METAR EPWR 211530Z 26008KT 9999 SCT025 06/03 Q1017",
      "taf": "TAF EPWR 211430Z 2115/2215 27012KT 9999 BKN020"
    },
    {
      "icao": "ESGG",
      "alert": "OK",
      "vis_m": 100,
      "fzfg": false,
      "metar_trigger": false,
      "taf_trigger": false,
      "metar": "METAR ESGG 211550Z 22009KT 0100 R03/0350N R21/0350N FG VV003 01/01 Q1002",
      "taf": ""
    },
    {
      "icao": "ESKN",
      "alert": "OK",
      "vis_m": 9999,
      "fzfg": false,
      "metar_trigger": false,
      "taf_trigger": false,
      "metar": "METAR ESKN 211550Z 19007KT 9999 BKN012 OVC019 02/M00 Q1001",
      "taf": "TAF ESKN 211430Z 2115/2215 20007KT 9999 SCT010 BKN025"
    },
    {
      "icao": "ESMS",
      "alert": "OK",
      "vis_m": 2400,
      "fzfg": false,
      "metar_trigger": false,
      "taf_trigger": false,
      "metar": "METAR ESMS 211550Z 26013KT 2400 BR OVC003 03/03 Q1007",
      "taf": ""
    },
    {
      "icao": "ESSA",
      "alert": "OK",
      "vis_m": 9000,
      "fzfg": false,
      "metar_trigger": false,
      "taf_trigger": false,
      "metar": "METAR ESSA 211550Z 19010KT 9000 OVC009 00/M01 Q0999 TEMPO 2000 SN OVC010",
      "taf": "TAF ESSA 211430Z 2115/2215 18011KT 9999 OVC013"
    },
    {
      "icao": "EYKA",
      "alert": "OK",
      "vis_m": 9999,
      "fzfg": false,
      "metar_trigger": false,
      "taf_trigger": false,
      "metar": "METAR EYKA 211550Z 21008KT 170V240 9999 SCT044 M01/M10 Q1013",
      "taf": "TAF EYKA 211109Z 2112/2212 17010KT 9000 NSC"
    },
    {
      "icao": "EYPA",
      "alert": "OK",
      "vis_m": 9999,
      "fzfg": false,
      "metar_trigger": false,
      "taf_trigger": false,
      "metar": "METAR EYPA 211550Z 18014KT 9999 OVC020 M03/M07 Q1010",
      "taf": "TAF EYPA 211106Z 2112/2212 17013G23KT 9000 OVC015"
    },
    {
      "icao": "EYVI",
      "alert": "OK",
      "vis_m": 9999,
      "fzfg": false,
      "metar_trigger": false,
      "taf_trigger": false,
      "metar": "METAR EYVI 211550Z 19018KT CAVOK M01/M09 Q1014 NOSIG",
      "taf": "TAF EYVI 211100Z 2112/2212 18012KT 9000 NSC"
    },
    {
      "icao": "GCFV",
      "alert": "OK",
      "vis_m": 9999,
      "fzfg": false,
      "metar_trigger": false,
      "taf_trigger": false,
      "metar": "METAR GCFV 211530Z 03011KT 9999 FEW010 20/16 Q1022",
      "taf": "TAF GCFV 211400Z 2115/2215 04010KT 9999 FEW014 TX25/2214Z TN18/2206Z"
    },
    {
      "icao": "GCLP",
      "alert": "OK",
      "vis_m": 9999,
      "fzfg": false,
      "metar_trigger": false,
      "taf_trigger": false,
      "metar": "METAR GCLP 211530Z 04018KT CAVOK 21/15 Q1021 NOSIG",
      "taf": "TAF GCLP 211400Z 2115/2215 03018KT 9999 FEW020 TX26/2214Z TN18/2206Z"
    },
    {
      "icao": "GCTS",
      "alert": "OK",
      "vis_m": 9999,
      "fzfg": false,
      "metar_trigger": false,
      "taf_trigger": false,
      "metar": "METAR GCTS 211530Z 10014KT CAVOK 23/14 Q1021 NOSIG",
      "taf": "TAF GCTS 211400Z 2115/2215 09015KT CAVOK TX28/2214Z TN18/2206Z"
    },
    {
      "icao": "GMAD",
      "alert": "OK",
      "vis_m": 9999,
      "fzfg": false,
      "metar_trigger": false,
      "taf_trigger": false,
      "metar": "METAR GMAD 211530Z 28007KT CAVOK 31/11 Q1021 NOSIG",
      "taf": "TAF GMAD 211100Z 2112/2218 08006KT CAVOK"
    },
    {
      "icao": "GMMN",
      "alert": "OK",
      "vis_m": 9999,
      "fzfg": false,
      "metar_trigger": false,
      "taf_trigger": false,
      "metar": "METAR GMMN 211530Z COR 32003KT CAVOK 25/19 Q1023 NOSIG",
      "taf": "TAF GMMN 211100Z 2112/2218 VRB02KT CAVOK"
    },
    {
      "icao": "GMMX",
      "alert": "OK",
      "vis_m": 9999,
      "fzfg": false,
      "metar_trigger": false,
      "taf_trigger": false,
      "metar": "METAR GMMX 211530Z 07005KT 360V110 CAVOK 30/04 Q1023 NOSIG",
      "taf": "TAF GMMX 211100Z 2112/2218 06006KT 8000 NSC"
    },
    {
      "icao": "HEGN",
      "alert": "OK",
      "vis_m": 9999,
      "fzfg": false,
      "metar_trigger": false,
      "taf_trigger": false,
      "metar": "METAR HEGN 211500Z 35011KT CAVOK 24/11 Q1013 NOSIG",
      "taf": "TAF HEGN 211100Z 2112/2218 34015KT CAVOK"
    },
    {
      "icao": "HEMA",
      "alert": "OK",
      "vis_m": 9999,
      "fzfg": false,
      "metar_trigger": false,
      "taf_trigger": false,
      "metar": "METAR HEMA 211500Z 36001KT CAVOK 23/16 Q1012 NOSIG",
      "taf": "TAF HEMA 211100Z 2112/2218 35016KT CAVOK"
    },
    {
      "icao": "HESH",
      "alert": "OK",
      "vis_m": 9999,
      "fzfg": false,
      "metar_trigger": false,
      "taf_trigger": false,
      "metar": "METAR HESH 211500Z 06005KT CAVOK 27/08 Q1012 NOSIG",
      "taf": "TAF HESH 211100Z 2112/2218 01014KT CAVOK"
    },
    {
      "icao": "HESX",
      "alert": "OK",
      "vis_m": 9999,
      "fzfg": false,
      "metar_trigger": false,
      "taf_trigger": false,
      "metar": "METAR HESX 211500Z 31012KT CAVOK 21/04 Q1016 NOSIG",
      "taf": "TAF HESX 211100Z 2112/2218 30006KT 6000 NSC"
    },
    {
      "icao": "LATI",
      "alert": "OK",
      "vis_m": 9999,
      "fzfg": false,
      "metar_trigger": false,
      "taf_trigger": false,
      "metar": "METAR LATI 211550Z 31011KT 9999 FEW030 13/04 Q1016 NOSIG",
      "taf": "TAF LATI 211100Z 2112/2212 33010KT 9999 FEW050 TX15/2112Z TN03/2205Z"
    },
    {
      "icao": "LBPD",
      "alert": "OK",
      "vis_m": 9999,
      "fzfg": false,
      "metar_trigger": false,
      "taf_trigger": false,
      "metar": "METAR LBPD 211530Z AUTO 31010KT 9999 -RA OVC026/// 04/03 Q1018 NOSIG",
      "taf": "TAF LBPD 211100Z 2112/2212 29014KT 5000 RA BKN008 OVC020"
    },
    {
      "icao": "LBSF",
      "alert": "OK",
      "vis_m": 9999,
      "fzfg": false,
      "metar_trigger": false,
      "taf_trigger": false,
      "metar": "METAR LBSF 211530Z 33008KT 310V010 9999 SCT050 OVC065 M02/M05 Q1019 NOSIG",
      "taf": "TAF LBSF 211100Z 2112/2212 02010KT 5000 -SN SCT012 BKN030"
    },
    {
      "icao": "LBWN",
      "alert": "OK",
      "vis_m": 9999,
      "fzfg": false,
      "metar_trigger": false,
      "taf_trigger": false,
      "metar": "METAR LBWN 211530Z 29007KT 210V360 9999 -RA OVC007 01/01 Q1020 TEMPO RA",
      "taf": "TAF LBWN 211100Z 2112/2212 36014G26KT 9999 OVC008"
    },
    {
      "icao": "LCLK",
      "alert": "OK",
      "vis_m": 9999,
      "fzfg": false,
      "metar_trigger": false,
      "taf_trigger": false,
      "metar": "METAR LCLK 211530Z 25007KT 9999 FEW030 18/15 Q1013 NOSIG",
      "taf": "TAF LCLK 211130Z 2112/2212 11008KT 9999 FEW025"
    },
    {
      "icao": "LCPH",
      "alert": "OK",
      "vis_m": 9999,
      "fzfg": false,
      "metar_trigger": false,
      "taf_trigger": false,
      "metar": "METAR LCPH 211530Z 32012KT 9999 FEW030 SCT040 17/11 Q1015 NOSIG",
      "taf": "TAF LCPH 211130Z 2112/2212 28014KT 9999 FEW020"
    },
    {
      "icao": "LEAL",
      "alert": "OK",
      "vis_m": 9999,
      "fzfg": false,
      "metar_trigger": false,
      "taf_trigger": false,
      "metar": "METAR LEAL 211530Z 19005KT 150V240 CAVOK 19/06 Q1030 NOSIG",
      "taf": "TAF LEAL 211100Z 2112/2212 16007KT CAVOK TX19/2113Z TN05/2206Z"
    },
    {
      "icao": "LEBB",
      "alert": "OK",
      "vis_m": 9999,
      "fzfg": false,
      "metar_trigger": false,
      "taf_trigger": false,
      "metar": "METAR LEBB 211530Z 27007KT 250V320 CAVOK 17/09 Q1029 NOSIG",
      "taf": ""
    },
    {
      "icao": "LEBL",
      "alert": "OK",
      "vis_m": 9999,
      "fzfg": false,
      "metar_trigger": false,
      "taf_trigger": false,
      "metar": "METAR LEBL 211530Z 22010KT CAVOK 15/08 Q1029 NOSIG",
      "taf": "TAF LEBL 211100Z 2112/2212 22010KT 9999 FEW020 TX16/2113Z TN06/2207Z"
    },
    {
      "icao": "LECH",
      "alert": "OK",
      "vis_m": 9999,
      "fzfg": false,
      "metar_trigger": false,
      "taf_trigger": false,
      "metar": "METAR LECH 211530Z AUTO 11009KT 060V140 CAVOK 13/10 Q1030",
      "taf": ""
    },
    {
      "icao": "LEMD",
      "alert": "OK",
      "vis_m": 9999,
      "fzfg": false,
      "metar_trigger": false,
      "taf_trigger": false,
      "metar": "METAR LEMD 211530Z 24003KT CAVOK 19/M02 Q1029 NOSIG",
      "taf": "TAF LEMD 211100Z 2112/2218 VRB04KT CAVOK TX17/2115Z TN01/2207Z"
    },
    {
      "icao": "LEMG",
      "alert": "OK",
      "vis_m": 9999,
      "fzfg": false,
      "metar_trigger": false,
      "taf_trigger": false,
      "metar": "METAR LEMG 211530Z 13006KT 090V170 CAVOK 16/10 Q1029 NOSIG",
      "taf": "TAF LEMG 211100Z 2112/2212 29005KT CAVOK TX20/2114Z TN10/2207Z"
    },
    {
      "icao": "LEVC",
      "alert": "OK",
      "vis_m": 9999,
      "fzfg": false,
      "metar_trigger": false,
      "taf_trigger": false,
      "metar": "METAR LEVC 211530Z 11008KT CAVOK 17/03 Q1029 NOSIG",
      "taf": "TAF LEVC 211100Z 2112/2212 11010KT CAVOK TX18/2114Z TN06/2206Z"
    },
    {
      "icao": "LEXJ",
      "alert": "OK",
      "vis_m": 9999,
      "fzfg": false,
      "metar_trigger": false,
      "taf_trigger": false,
      "metar": "METAR LEXJ 211530Z 05005KT 010V090 CAVOK 14/09 Q1029",
      "taf": "TAF LEXJ 211400Z 2115/2215 VRB03KT CAVOK TX14/2214Z TN07/2207Z"
    },
    {
      "icao": "LEZG",
      "alert": "OK",
      "vis_m": 9999,
      "fzfg": false,
      "metar_trigger": false,
      "taf_trigger": false,
      "metar": "METAR LEZG 211530Z 31006KT 290V350 CAVOK 17/03 Q1029 NOSIG",
      "taf": "TAF LEZG 211100Z 2112/2212 32006KT CAVOK TX16/2114Z TN03/2206Z"
    },
    {
      "icao": "LEZL",
      "alert": "OK",
      "vis_m": 9999,
      "fzfg": false,
      "metar_trigger": false,
      "taf_trigger": false,
      "metar": "METAR LEZL 211530Z 04007KT CAVOK 22/06 Q1027 NOSIG",
      "taf": "TAF LEZL 211400Z 2115/2215 05007KT CAVOK TX22/2115Z TN08/2207Z"
    },
    {
      "icao": "LFBD",
      "alert": "OK",
      "vis_m": 9999,
      "fzfg": false,
      "metar_trigger": false,
      "taf_trigger": false,
      "metar": "METAR LFBD 211530Z AUTO 28005KT 250V310 9999 OVC026 14/09 Q1031 NOSIG",
      "taf": "TAF LFBD 211100Z 2112/2218 VRB03KT 9999 BKN035 TX16/2214Z TN04/2206Z"
    },
    {
      "icao": "LFLL",
      "alert": "OK",
      "vis_m": 9999,
      "fzfg": false,
      "metar_trigger": false,
      "taf_trigger": false,
      "metar": "METAR LFLL 211530Z 06005KT 020V110 9999 BKN040 13/07 Q1030 NOSIG",
      "taf": "TAF LFLL 211100Z 2112/2218 06005KT 9999 BKN030"
    },
    {
      "icao": "LFLS",
      "alert": "OK",
      "vis_m": 9999,
      "fzfg": false,
      "metar_trigger": false,
      "taf_trigger": false,
      "metar": "METAR LFLS 211530Z AUTO 35010KT 9999 FEW031 12/06 Q1029 NOSIG",
      "taf": "TAF LFLS 211400Z 2115/2215 01008KT 9999 BKN030"
    },
    {
      "icao": "LFMN",
      "alert": "OK",
      "vis_m": 9999,
      "fzfg": false,
      "metar_trigger": false,
      "taf_trigger": false,
      "metar": "METAR LFMN 211530Z 09005KT CAVOK 15/10 Q1023 NOSIG",
      "taf": "TAF LFMN 211400Z 2115/2221 10005KT CAVOK"
    },
    {
      "icao": "LFOB",
      "alert": "OK",
      "vis_m": 9999,
      "fzfg": false,
      "metar_trigger": false,
      "taf_trigger": false,
      "metar": "METAR LFOB 211530Z AUTO 23012KT 200V260 9999 BKN028 OVC034 15/09 Q1024 TEMPO 25015G25KT 4000 -RADZ BKN012 OVC020",
      "taf": "TAF LFOB 211100Z 2112/2212 26012KT 9999 OVC020"
    },
    {
      "icao": "LFPO",
      "alert": "OK",
      "vis_m": 9999,
      "fzfg": false,
      "metar_trigger": false,
      "taf_trigger": false,
      "metar": "METAR LFPO 211530Z 24012KT 9999 FEW013 BKN050 15/09 Q1025 NOSIG",
      "taf": "TAF LFPO 211100Z 2112/2218 25010KT 9999 BKN020"
    },
    {
      "icao": "LFSB",
      "alert": "OK",
      "vis_m": 9999,
      "fzfg": false,
      "metar_trigger": false,
      "taf_trigger": false,
      "metar": "METAR LFSB 211530Z AUTO 24008KT 9999 SCT022 BKN066 OVC100 11/07 Q1027 NOSIG",
      "taf": "TAF LFSB 211100Z 2112/2212 25012KT 9999 SCT023 OVC070"
    },
    {
      "icao": "LGAV",
      "alert": "OK",
      "vis_m": 9999,
      "fzfg": false,
      "metar_trigger": false,
      "taf_trigger": false,
      "metar": "METAR LGAV 211550Z VRB03KT 9999 -TSRA FEW018CB FEW020TCU SCT035 BKN070 12/08 Q1014 NOSIG",
      "taf": "TAF LGAV 211100Z 2112/2212 01010KT 9999 SCT025 SCT070"
    },
    {
      "icao": "LGTS",
      "alert": "OK",
      "vis_m": 9999,
      "fzfg": false,
      "metar_trigger": false,
      "taf_trigger": false,
      "metar": "METAR LGTS 211550Z 33014KT 9999 FEW025 12/04 Q1014 NOSIG",
      "taf": "TAF LGTS 211100Z 2112/2212 34013KT 9999 FEW030"
    },
    {
      "icao": "LHBP",
      "alert": "OK",
      "vis_m": 9999,
      "fzfg": false,
      "metar_trigger": false,
      "taf_trigger": false,
      "metar": "METAR LHBP 211530Z 31009KT 9999 -RA OVC022 05/00 Q1022 NOSIG",
      "taf": "TAF LHBP 211115Z 2112/2212 20004KT CAVOK"
    },
    {
      "icao": "LHDC",
      "alert": "OK",
      "vis_m": 6000,
      "fzfg": false,
      "metar_trigger": false,
      "taf_trigger": false,
      "metar": "METAR LHDC 211515Z AUTO 15002KT 6000 OVC014 02/01 Q1022 NOSIG",
      "taf": "TAF LHDC 211415Z 2115/2124 24006KT 8000 SCT004 BKN030"
    },
    {
      "icao": "LIBD",
      "alert": "OK",
      "vis_m": 9999,
      "fzfg": false,
      "metar_trigger": false,
      "taf_trigger": false,
      "metar": "METAR LIBD 211550Z 29009KT 9999 FEW020 BKN040 11/06 Q1020",
      "taf": "TAF LIBD 211100Z 2112/2212 34016KT 9999 SCT030"
    },
    {
      "icao": "LIBG",
      "alert": "OK",
      "vis_m": 9999,
      "fzfg": false,
      "metar_trigger": false,
      "taf_trigger": false,
      "metar": "METAR LIBG 211450Z 33010KT 290V360 9999 FEW035 13/05 Q1018",
      "taf": "TAF LIBG 211400Z 2115/2124 34013KT CAVOK"
    },
    {
      "icao": "LIBP",
      "alert": "OK",
      "vis_m": 9999,
      "fzfg": false,
      "metar_trigger": false,
      "taf_trigger": false,
      "metar": "METAR LIBP 211550Z AUTO 34006KT 300V020 9999 FEW150/// 11/04 Q1023",
      "taf": "TAF LIBP 211100Z 2112/2212 34012KT 9999 SCT030"
    },
    {
      "icao": "LIBR",
      "alert": "OK",
      "vis_m": 9999,
      "fzfg": false,
      "metar_trigger": false,
      "taf_trigger": false,
      "metar": "METAR LIBR 211550Z 34016KT 9999 FEW030 12/05 Q1018",
      "taf": "TAF LIBR 211100Z 2112/2212 32022G32KT 9999 SCT020"
    },
    {
      "icao": "LICA",
      "alert": "OK",
      "vis_m": 9999,
      "fzfg": false,
      "metar_trigger": false,
      "taf_trigger": false,
      "metar": "METAR LICA 211550Z AUTO 26008KT 9999 FEW026/// 13/09 Q1019",
      "taf": "TAF LICA 211100Z 2112/2212 28012KT 9999 FEW020"
    },
    {
      "icao": "LICC",
      "alert": "OK",
      "vis_m": 9999,
      "fzfg": false,
      "metar_trigger": false,
      "taf_trigger": false,
      "metar": "METAR LICC 211550Z 07008KT 9999 BKN045 15/11 Q1019",
      "taf": "TAF LICC 211100Z 2112/2212 28012KT 9999 FEW040"
    },
    {
      "icao": "LICJ",
      "alert": "OK",
      "vis_m": 9999,
      "fzfg": false,
      "metar_trigger": false,
      "taf_trigger": false,
      "metar": "METAR LICJ 211550Z 32012KT CAVOK 14/09 Q1022",
      "taf": "TAF LICJ 211100Z 2112/2212 33020G30KT 9999 FEW030"
    },
    {
      "icao": "LIMC",
      "alert": "OK",
      "vis_m": 9999,
      "fzfg": false,
      "metar_trigger": false,
      "taf_trigger": false,
      "metar": "METAR LIMC 211550Z 23005KT 200V280 CAVOK 14/04 Q1022 NOSIG",
      "taf": "TAF LIMC 211100Z 2112/2218 22006KT CAVOK"
    },
    {
      "icao": "LIME",
      "alert": "OK",
      "vis_m": 9999,
      "fzfg": false,
      "metar_trigger": false,
      "taf_trigger": false,
      "metar": "METAR LIME 211550Z 21004KT 160V270 CAVOK 12/04 Q1022 NOSIG",
      "taf": "TAF LIME 211100Z 2112/2212 23006KT CAVOK"
    },
    {
      "icao": "LIMF",
      "alert": "OK",
      "vis_m": 9999,
      "fzfg": false,
      "metar_trigger": false,
      "taf_trigger": false,
      "metar": "METAR LIMF 211550Z 10003KT 060V160 CAVOK 15/04 Q1022",
      "taf": "TAF LIMF 211100Z 2112/2212 VRB05KT CAVOK"
    },
    {
      "icao": "LIMJ",
      "alert": "OK",
      "vis_m": 9999,
      "fzfg": false,
      "metar_trigger": false,
      "taf_trigger": false,
      "metar": "METAR LIMJ 211550Z VRB02KT CAVOK 14/08 Q1023",
      "taf": "TAF LIMJ 211100Z 2112/2212 VRB05KT CAVOK"
    },
    {
      "icao": "LIPE",
      "alert": "OK",
      "vis_m": 9999,
      "fzfg": false,
      "metar_trigger": false,
      "taf_trigger": false,
      "metar": "METAR LIPE 211550Z 07005KT CAVOK 14/04 Q1022",
      "taf": "TAF LIPE 211100Z 2112/2212 VRB05KT CAVOK"
    },
    {
      "icao": "LIPH",
      "alert": "OK",
      "vis_m": 9999,
      "fzfg": false,
      "metar_trigger": false,
      "taf_trigger": false,
      "metar": "METAR LIPH 211550Z 13003KT 100V210 CAVOK 12/05 Q1023",
      "taf": "TAF LIPH 211100Z 2112/2212 22006KT 9999 FEW040"
    },
    {
      "icao": "LIPQ",
      "alert": "OK",
      "vis_m": 9999,
      "fzfg": false,
      "metar_trigger": false,
      "taf_trigger": false,
      "metar": "METAR LIPQ 211550Z AUTO 26004KT 9999 FEW140/// SCT230/// 10/05 Q1023",
      "taf": "TAF LIPQ 211100Z 2112/2212 VRB06KT 9999 FEW030"
    },
    {
      "icao": "LIPR",
      "alert": "OK",
      "vis_m": 9999,
      "fzfg": false,
      "metar_trigger": false,
      "taf_trigger": false,
      "metar": "METAR LIPR 211550Z 10005KT CAVOK 11/04 Q1023",
      "taf": "TAF LIPR 211100Z 2112/2212 VRB06KT 9999 SCT030"
    },
    {
      "icao": "LIPX",
      "alert": "OK",
      "vis_m": 9999,
      "fzfg": false,
      "metar_trigger": false,
      "taf_trigger": false,
      "metar": "METAR LIPX 211550Z 21004KT CAVOK 13/05 Q1022",
      "taf": "TAF LIPX 211100Z 2112/2212 VRB05KT CAVOK"
    },
    {
      "icao": "LIPY",
      "alert": "OK",
      "vis_m": 9999,
      "fzfg": false,
      "metar_trigger": false,
      "taf_trigger": false,
      "metar": "METAR LIPY 211550Z AUTO 35005KT 9999 BKN160/// 10/06 Q1024",
      "taf": "TAF LIPY 211100Z 2112/2212 35015KT 9999 SCT030"
    },
    {
      "icao": "LIPZ",
      "alert": "OK",
      "vis_m": 9999,
      "fzfg": false,
      "metar_trigger": false,
      "taf_trigger": false,
      "metar": "METAR LIPZ 211550Z 13003KT CAVOK 11/06 Q1023 NOSIG",
      "taf": "TAF LIPZ 211100Z 2112/2218 VRB05KT CAVOK"
    },
    {
      "icao": "LIRF",
      "alert": "OK",
      "vis_m": 9999,
      "fzfg": false,
      "metar_trigger": false,
      "taf_trigger": false,
      "metar": "METAR LIRF 211550Z 34008KT CAVOK 15/05 Q1021 NOSIG",
      "taf": "TAF LIRF 211100Z 2112/2218 33012KT CAVOK"
    },
    {
      "icao": "LIRN",
      "alert": "OK",
      "vis_m": 9999,
      "fzfg": false,
      "metar_trigger": false,
      "taf_trigger": false,
      "metar": "METAR LIRN 211550Z 30009KT 260V330 9999 FEW050 14/06 Q1020 NOSIG",
      "taf": "TAF LIRN 211100Z 2112/2212 34010KT 9999 FEW030"
    },
    {
      "icao": "LIRP",
      "alert": "OK",
      "vis_m": 9999,
      "fzfg": false,
      "metar_trigger": false,
      "taf_trigger": false,
      "metar": "METAR LIRP 211545Z 28006KT CAVOK 14/07 Q1023 NOSIG",
      "taf": "TAF LIRP 211100Z 2112/2212 29005KT CAVOK"
    },
    {
      "icao": "LIRZ",
      "alert": "OK",
      "vis_m": 9999,
      "fzfg": false,
      "metar_trigger": false,
      "taf_trigger": false,
      "metar": "METAR LIRZ 211550Z AUTO 04003KT 010V080 9999 NCD 14/02 Q1022",
      "taf": "TAF LIRZ 211100Z 2112/2212 01010KT 9999 FEW030"
    },
    {
      "icao": "LJLJ",
      "alert": "OK",
      "vis_m": 9999,
      "fzfg": false,
      "metar_trigger": false,
      "taf_trigger": false,
      "metar": "METAR LJLJ 211530Z 12003KT 9999 FEW033 SCT130 07/00 Q1023 NOSIG",
      "taf": "TAF LJLJ 211100Z 2112/2212 VRB02KT 9999 FEW025"
    },
    {
      "icao": "LKMT",
      "alert": "OK",
      "vis_m": 8000,
      "fzfg": false,
      "metar_trigger": false,
      "taf_trigger": false,
      "metar": "METAR LKMT 211530Z 23012KT 8000 OVC040 00/M00 Q1020 NOSIG",
      "taf": "TAF LKMT 211100Z 2112/2212 23008KT 9999 SCT011 BKN040"
    },
    {
      "icao": "LKPR",
      "alert": "OK",
      "vis_m": 9999,
      "fzfg": false,
      "metar_trigger": false,
      "taf_trigger": false,
      "metar": "METAR LKPR 211530Z 22011KT 9999 SCT030 BKN042 07/03 Q1019 NOSIG",
      "taf": "TAF LKPR 211400Z 2115/2221 23011KT 9999 SCT025"
    },
    {
      "icao": "LLBG",
      "alert": "OK",
      "vis_m": 9999,
      "fzfg": false,
      "metar_trigger": false,
      "taf_trigger": false,
      "metar": "METAR LLBG 211550Z 25007KT 9999 BKN035 18/12 Q1016 NOSIG",
      "taf": "TAF LLBG 211105Z 2112/2212 27010KT 9999 SCT025"
    },
    {
      "icao": "LMML",
      "alert": "OK",
      "vis_m": 9999,
      "fzfg": false,
      "metar_trigger": false,
      "taf_trigger": false,
      "metar": "METAR LMML 211545Z 29021KT 9999 FEW017 15/11 Q1021 NOSIG",
      "taf": "TAF LMML 211100Z 2112/2212 30015KT 9999 FEW018"
    },
    {
      "icao": "LOWW",
      "alert": "OK",
      "vis_m": 9999,
      "fzfg": false,
      "metar_trigger": false,
      "taf_trigger": false,
      "metar": "METAR LOWW 211550Z 28008KT 9999 FEW050 06/02 Q1022 NOSIG",
      "taf": "TAF LOWW 211415Z 2115/2221 22006KT 9999 BKN040 TX08/2221Z TN03/2115Z"
    },
    {
      "icao": "LPFR",
      "alert": "OK",
      "vis_m": 9999,
      "fzfg": false,
      "metar_trigger": false,
      "taf_trigger": false,
      "metar": "METAR LPFR 211530Z 11007KT CAVOK 20/06 Q1027",
      "taf": "TAF LPFR 211100Z 2112/2212 07008KT CAVOK"
    },
    {
      "icao": "LPMA",
      "alert": "OK",
      "vis_m": 9999,
      "fzfg": false,
      "metar_trigger": false,
      "taf_trigger": false,
      "metar": "METAR LPMA 211530Z 04017KT 9999 FEW016 18/11 Q1025",
      "taf": "TAF LPMA 211100Z 2112/2212 03015KT 9999 SCT015"
    },
    {
      "icao": "LPPR",
      "alert": "OK",
      "vis_m": 9999,
      "fzfg": false,
      "metar_trigger": false,
      "taf_trigger": false,
      "metar": "METAR LPPR 211530Z 29004KT 260V330 CAVOK 15/09 Q1029",
      "taf": "TAF LPPR 211100Z 2112/2212 VRB02KT CAVOK"
    },
    {
      "icao": "LPPS",
      "alert": "OK",
      "vis_m": 9999,
      "fzfg": false,
      "metar_trigger": false,
      "taf_trigger": false,
      "metar": "METAR LPPS 211530Z 07011KT 010V110 9999 SCT015 17/12 Q1025",
      "taf": "TAF LPPS 211100Z 2112/2218 06010KT 9999 SCT015 SCT030"
    },
    {
      "icao": "LPPT",
      "alert": "OK",
      "vis_m": 9999,
      "fzfg": false,
      "metar_trigger": false,
      "taf_trigger": false,
      "metar": "METAR LPPT 211530Z 04008KT CAVOK 19/10 Q1028",
      "taf": "TAF LPPT 211100Z 2112/2218 06007KT CAVOK"
    },
    {
      "icao": "LQBK",
      "alert": "OK",
      "vis_m": 9999,
      "fzfg": false,
      "metar_trigger": false,
      "taf_trigger": false,
      "metar": "METAR LQBK 211530Z 35003KT 9999 SCT047 04/00 Q1025 NOSIG",
      "taf": "TAF LQBK 211100Z 2112/2212 30007KT 9999 SCT040 TX11/2212Z TNM01/2206Z"
    },
    {
      "icao": "LQSA",
      "alert": "OK",
      "vis_m": 9999,
      "fzfg": false,
      "metar_trigger": false,
      "taf_trigger": false,
      "metar": "METAR LQSA 211530Z 33004KT 310V060 9999 SCT020 BKN030 03/M00 Q1022 NOSIG",
      "taf": "TAF LQSA 211100Z 2112/2212 29006KT 9999 BKN030 TX08/2212Z TNM01/2204Z"
    },
    {
      "icao": "LQTZ",
      "alert": "OK",
      "vis_m": 7000,
      "fzfg": false,
      "metar_trigger": false,
      "taf_trigger": false,
      "metar": "METAR LQTZ 211530Z VRB01KT 7000 OVC030 02/00 Q1024",
      "taf": "TAF LQTZ 211100Z 2112/2212 30007KT 9999 SCT015 OVC030 TX10/2212Z TN00/2206Z"
    },
    {
      "icao": "LRBC",
      "alert": "OK",
      "vis_m": 8000,
      "fzfg": false,
      "metar_trigger": false,
      "taf_trigger": false,
      "metar": "METAR LRBC 211530Z 17003KT 8000 -SN FEW012 BKN059 M02/M03 Q1024",
      "taf": "TAF LRBC 211400Z 2115/2124 VRB04KT 7000 BKN035"
    },
    {
      "icao": "LRBS",
      "alert": "OK",
      "vis_m": 5000,
      "fzfg": false,
      "metar_trigger": false,
      "taf_trigger": false,
      "metar": "METAR LRBS 211530Z 05009KT 010V080 5000 -SN BKN008 OVC035 M02/M03 Q1024 NOSIG",
      "taf": "TAF LRBS 211100Z 2112/2212 06012KT 3000 SN BR BKN010 OVC030"
    },
    {
      "icao": "LRBV",
      "alert": "OK",
      "vis_m": 5000,
      "fzfg": false,
      "metar_trigger": false,
      "taf_trigger": false,
      "metar": "METAR LRBV 211530Z 25002KT 5000 -SG BKN003 BKN020 OVC038 M03/M04 Q1021",
      "taf": "TAF LRBV 211400Z 2115/2124 VRB04KT 5000 -SN BR BKN015 OVC035"
    },
    {
      "icao": "LRCL",
      "alert": "OK",
      "vis_m": 9999,
      "fzfg": false,
      "metar_trigger": false,
      "taf_trigger": false,
      "metar": "METAR LRCL 211530Z 00000KT 9999 -RA OVC031 01/M02 Q1022",
      "taf": "TAF LRCL 211400Z 2115/2124 11007KT 5000 -SN BR SCT020 OVC040"
    },
    {
      "icao": "LRCV",
      "alert": "OK",
      "vis_m": 9999,
      "fzfg": false,
      "metar_trigger": false,
      "taf_trigger": false,
      "metar": "METAR LRCV 211530Z 19002KT 9999 -SN OVC030 M02/M03 Q1024",
      "taf": "TAF LRCV 211400Z 2115/2124 VRB04KT 5000 -SN BR BKN020 OVC035"
    },
    {
      "icao": "LRIA",
      "alert": "OK",
      "vis_m": 9999,
      "fzfg": false,
      "metar_trigger": false,
      "taf_trigger": false,
      "metar": "METAR LRIA 211530Z 08005KT CAVOK M00/M06 Q1025",
      "taf": "TAF LRIA 211400Z 2115/2124 VRB04KT CAVOK"
    },
    {
      "icao": "LROP",
      "alert": "OK",
      "vis_m": 4000,
      "fzfg": false,
      "metar_trigger": false,
      "taf_trigger": false,
      "metar": "METAR LROP 211530Z 07010KT 4000 -SN BR FEW006 OVC036 M02/M02 Q1024 BECMG 5000",
      "taf": "TAF LROP 211100Z 2112/2212 06010KT 3000 SN BR BKN010 OVC030"
    },
    {
      "icao": "LRSB",
      "alert": "OK",
      "vis_m": 4000,
      "fzfg": false,
      "metar_trigger": false,
      "taf_trigger": false,
      "metar": "METAR LRSB 211530Z VRB01KT 4000 -SN BR FEW005 BKN018 BKN028 M00/M01 Q1021",
      "taf": "TAF LRSB 211100Z 2112/2212 VRB04KT 3000 -SN BR SCT020 OVC035"
    },
    {
      "icao": "LRSM",
      "alert": "OK",
      "vis_m": 9999,
      "fzfg": false,
      "metar_trigger": false,
      "taf_trigger": false,
      "metar": "METAR LRSM 211530Z AUTO 20008KT 9999 FEW022/// OVC040/// 03/00 Q1023",
      "taf": ""
    },
    {
      "icao": "LRSV",
      "alert": "OK",
      "vis_m": 9999,
      "fzfg": false,
      "metar_trigger": false,
      "taf_trigger": false,
      "metar": "METAR LRSV 211530Z 11011KT 9999 BKN040 M03/M07 Q1021",
      "taf": "TAF LRSV 211400Z 2115/2124 11010KT CAVOK"
    },
    {
      "icao": "LRTM",
      "alert": "OK",
      "vis_m": 3500,
      "fzfg": false,
      "metar_trigger": false,
      "taf_trigger": false,
      "metar": "METAR LRTM 211530Z 23004KT 3500 SN BR FEW003 SCT006 BKN012 01/M00 Q1022",
      "taf": "TAF LRTM 211400Z 2115/2124 VRB04KT 9999 SCT020 BKN030"
    },
    {
      "icao": "LRTR",
      "alert": "OK",
      "vis_m": 9999,
      "fzfg": false,
      "metar_trigger": false,
      "taf_trigger": false,
      "metar": "METAR LRTR 211530Z 24007KT 9999 -RA FEW016 BKN047 03/02 Q1023",
      "taf": "TAF LRTR 211100Z 2112/2212 21010KT 9999 BKN025"
    },
    {
      "icao": "LTAC",
      "alert": "OK",
      "vis_m": 9999,
      "fzfg": false,
      "metar_trigger": false,
      "taf_trigger": false,
      "metar": "METAR LTAC 211550Z 31003KT 9999 SCT040 BKN100 10/02 Q1013 NOSIG",
      "taf": "TAF LTAC 211040Z 2112/2212 VRB02KT 9999 SCT040 SCT100"
    },
    {
      "icao": "LTFM",
      "alert": "OK",
      "vis_m": 9999,
      "fzfg": false,
      "metar_trigger": false,
      "taf_trigger": false,
      "metar": "METAR LTFM 211550Z 01016KT 9999 BKN011 BKN022 08/06 Q1014 NOSIG",
      "taf": "TAF LTFM 211040Z 2112/2218 32017KT 9999 SCT008 SCT035 BKN100"
    },
    {
      "icao": "LUKK",
      "alert": "OK",
      "vis_m": 9999,
      "fzfg": false,
      "metar_trigger": false,
      "taf_trigger": false,
      "metar": "METAR LUKK 211530Z 08008KT CAVOK M02/M06 Q1025 NOSIG",
      "taf": "TAF LUKK 211123Z 2112/2212 03010KT 9999 BKN035"
    },
    {
      "icao": "LWOH",
      "alert": "OK",
      "vis_m": 9999,
      "fzfg": false,
      "metar_trigger": false,
      "taf_trigger": false,
      "metar": "METAR LWOH 211550Z 32008KT 290V360 9999 SCT045 08/02 Q1015",
      "taf": "TAF LWOH 211450Z 2115/2215 34010KT 9999 SCT040"
    },
    {
      "icao": "LWSK",
      "alert": "OK",
      "vis_m": 9999,
      "fzfg": false,
      "metar_trigger": false,
      "taf_trigger": false,
      "metar": "METAR LWSK 211550Z 02015KT 9999 FEW035 SCT070 04/M01 Q1019 NOSIG",
      "taf": "TAF LWSK 211550Z 2115/2215 01016KT 9999 SCT045"
    },
    {
      "icao": "LYBE",
      "alert": "OK",
      "vis_m": 9999,
      "fzfg": false,
      "metar_trigger": false,
      "taf_trigger": false,
      "metar": "METAR LYBE 211530Z 27007KT 9999 BKN014 02/M00 Q1024 NOSIG",
      "taf": "TAF LYBE 211100Z 2112/2212 27008KT 9999 BKN012 BKN027 TX08/2212Z TN00/2204Z"
    },
    {
      "icao": "LYNI",
      "alert": "OK",
      "vis_m": 9999,
      "fzfg": false,
      "metar_trigger": false,
      "taf_trigger": false,
      "metar": "METAR LYNI 211530Z 33010KT 9999 FEW020 SCT033 BKN060 01/M03 Q1022 NOSIG",
      "taf": "TAF LYNI 211100Z 2112/2212 01008KT 9999 SCT020 BKN047 TX05/2212Z TN00/2205Z"
    },
    {
      "icao": "LYPG",
      "alert": "OK",
      "vis_m": 9999,
      "fzfg": false,
      "metar_trigger": false,
      "taf_trigger": false,
      "metar": "METAR LYPG 211530Z 01009KT 330V030 9999 FEW050 13/00 Q1017 NOSIG",
      "taf": "TAF LYPG 211100Z 2112/2212 16005KT 9999 FEW050 TX15/2113Z TN07/2205Z"
    },
    {
      "icao": "LZIB",
      "alert": "OK",
      "vis_m": 8000,
      "fzfg": false,
      "metar_trigger": false,
      "taf_trigger": false,
      "metar": "METAR LZIB 211530Z 10003KT 8000 FEW010 OVC047 01/00 Q1022 NOSIG",
      "taf": "TAF LZIB 211115Z 2112/2212 VRB02KT 9999 SCT020 BKN030"
    },
    {
      "icao": "LZKZ",
      "alert": "OK",
      "vis_m": 9999,
      "fzfg": false,
      "metar_trigger": false,
      "taf_trigger": false,
      "metar": "METAR LZKZ 211530Z 19008KT CAVOK 01/M01 Q1021 NOSIG",
      "taf": ""
    },
    {
      "icao": "LZTT",
      "alert": "OK",
      "vis_m": 9999,
      "fzfg": false,
      "metar_trigger": false,
      "taf_trigger": false,
      "metar": "METAR LZTT 211530Z 24012KT 9999 FEW023 BKN053 02/M01 Q1017 NOSIG",
      "taf": "TAF LZTT 211115Z 2112/2212 VRB02KT 9999 FEW050"
    },
    {
      "icao": "OEJN",
      "alert": "OK",
      "vis_m": 9999,
      "fzfg": false,
      "metar_trigger": false,
      "taf_trigger": false,
      "metar": "METAR OEJN 211500Z 24010KT CAVOK 28/18 Q1011 NOSIG",
      "taf": "TAF OEJN 211100Z 2112/2218 25010KT CAVOK"
    },
    {
      "icao": "OEMA",
      "alert": "OK",
      "vis_m": 9999,
      "fzfg": false,
      "metar_trigger": false,
      "taf_trigger": false,
      "metar": "METAR OEMA 211500Z 11009KT CAVOK 32/M11 Q1015 NOSIG",
      "taf": "TAF OEMA 211100Z 2112/2218 09010KT 7000 NSC"
    },
    {
      "icao": "OJAI",
      "alert": "OK",
      "vis_m": 5000,
      "fzfg": false,
      "metar_trigger": false,
      "taf_trigger": false,
      "metar": "METAR OJAI 211500Z 24012KT 5000 HZ NSC 20/04 Q1015 NOSIG",
      "taf": "TAF OJAI 211100Z 2112/2218 24012KT 5000 HZ NSC"
    },
    {
      "icao": "OMAA",
      "alert": "OK",
      "vis_m": 9999,
      "fzfg": false,
      "metar_trigger": false,
      "taf_trigger": false,
      "metar": "METAR OMAA 211530Z 32010KT CAVOK 24/18 Q1014 NOSIG",
      "taf": "TAF OMAA 211100Z 2112/2218 34012KT 8000 NSC"
    },
    {
      "icao": "OMDB",
      "alert": "OK",
      "vis_m": 9999,
      "fzfg": false,
      "metar_trigger": false,
      "taf_trigger": false,
      "metar": "METAR OMDB 211530Z 32009KT CAVOK 26/16 Q1014 NOSIG",
      "taf": "TAF OMDB 211100Z 2112/2218 33012KT 8000 NSC"
    },
    {
      "icao": "UAAA",
      "alert": "OK",
      "vis_m": 5000,
      "fzfg": false,
      "metar_trigger": false,
      "taf_trigger": false,
      "metar": "METAR UAAA 211530Z 15003MPS 5000 BR FU FEW050 SCT100 04/01 Q1028 NOSIG",
      "taf": "TAF UAAA 211102Z 2112/2212 20003G08MPS 3100 BR FU SCT011 BKN100 TX08/2209Z TNM03/2201Z"
    },
    {
      "icao": "UBBB",
      "alert": "OK",
      "vis_m": 9999,
      "fzfg": false,
      "metar_trigger": false,
      "taf_trigger": false,
      "metar": "METAR UBBB 211530Z 32010KT 9999 FEW011 08/06 Q1022 NOSIG",
      "taf": "TAF UBBB 211058Z 2112/2212 32014KT 9999 SCT012 SCT025 TX10/2112Z TN05/2201Z"
    },
    {
      "icao": "UDSG",
      "alert": "OK",
      "vis_m": 9999,
      "fzfg": false,
      "metar_trigger": false,
      "taf_trigger": false,
      "metar": "METAR UDSG 211530Z 13001KT 9999 FEW049 01/M03 Q1022 NOSIG",
      "taf": "TAF UDSG 211058Z 2112/2212 VRB06KT 9999 FEW040"
    },
    {
      "icao": "UDYZ",
      "alert": "OK",
      "vis_m": 8000,
      "fzfg": false,
      "metar_trigger": false,
      "taf_trigger": false,
      "metar": "METAR UDYZ 211530Z 22002KT 8000 NSC 10/M02 Q1020 NOSIG",
      "taf": "TAF UDYZ 211100Z 2112/2212 VRB04KT 9999 FEW050"
    },
    {
      "icao": "UGKO",
      "alert": "OK",
      "vis_m": 9999,
      "fzfg": false,
      "metar_trigger": false,
      "taf_trigger": false,
      "metar": "METAR UGKO 211530Z AUTO 09006KT CAVOK 16/01 Q1012 NOSIG",
      "taf": "TAF UGKO 211100Z 2112/2212 08017KT CAVOK TX21/2112Z TN10/2119Z"
    }
  ]
}