{
  "ts_utc": "2025-12-27T12:40:43Z",
  "threshold_m": 150,
  "source": "stations_override.txt (ICAO list) + aviationweather.gov (METAR/TAF raw)",
  "station_count": 159,
  "stations": [
    {
      "icao": "BIKF",
      "alert": "OK",
      "vis_m": 9999,
      "fzfg": false,
      "metar_trigger": false,
      "taf_trigger": false,
      "metar": "METAR BIKF 271230Z 20018KT 9999 OVC027 06/02 Q1043",
      "taf": "TAF BIKF 271038Z 2712/2812 18017KT 9999 SCT015 OVC025 TX07/2721Z TN03/2712Z"
    },
    {
      "icao": "BKPR",
      "alert": "OK",
      "vis_m": 9999,
      "fzfg": false,
      "metar_trigger": false,
      "taf_trigger": false,
      "metar": "METAR BKPR 271230Z 01005KT 320V030 CAVOK 06/M00 Q1023 NOSIG",
      "taf": "TAF BKPR 271130Z 2712/2812 35008KT 9999 FEW030"
    },
    {
      "icao": "EBCI",
      "alert": "OK",
      "vis_m": 9999,
      "fzfg": false,
      "metar_trigger": false,
      "taf_trigger": false,
      "metar": "METAR EBCI 271220Z 04009KT CAVOK 02/M03 Q1030 NOSIG",
      "taf": "TAF EBCI 271100Z 2712/2818 05008KT CAVOK"
    },
    {
      "icao": "EDDB",
      "alert": "OK",
      "vis_m": 7000,
      "fzfg": false,
      "metar_trigger": false,
      "taf_trigger": false,
      "metar": "METAR EDDB 271220Z AUTO 27011KT 7000 OVC003 M00/M01 Q1027 TEMPO 2500 BR",
      "taf": "TAF EDDB 271100Z 2712/2812 26010KT 5000 BR BKN005"
    },
    {
      "icao": "EDDH",
      "alert": "OK",
      "vis_m": 9999,
      "fzfg": false,
      "metar_trigger": false,
      "taf_trigger": false,
      "metar": "METAR EDDH 271220Z AUTO 31013KT 9999 OVC008 06/05 Q1029 BECMG BKN012",
      "taf": "TAF EDDH 271100Z 2712/2818 27004KT 8000 OVC008"
    },
    {
      "icao": "EDDK",
      "alert": "OK",
      "vis_m": 9999,
      "fzfg": false,
      "metar_trigger": false,
      "taf_trigger": false,
      "metar": "METAR EDDK 271220Z AUTO VRB01KT CAVOK 02/M02 Q1032 NOSIG",
      "taf": "TAF EDDK 271100Z 2712/2818 VRB03KT CAVOK"
    },
    {
      "icao": "EDDN",
      "alert": "OK",
      "vis_m": 9999,
      "fzfg": false,
      "metar_trigger": false,
      "taf_trigger": false,
      "metar": "METAR EDDN 271220Z AUTO 31003KT 270V350 CAVOK 04/M04 Q1029 NOSIG",
      "taf": "TAF EDDN 271100Z 2712/2812 VRB02KT CAVOK"
    },
    {
      "icao": "EDDS",
      "alert": "OK",
      "vis_m": 9999,
      "fzfg": false,
      "metar_trigger": false,
      "taf_trigger": false,
      "metar": "METAR EDDS 271220Z AUTO 15004KT 120V180 CAVOK 04/M01 Q1028 NOSIG",
      "taf": "TAF EDDS 271100Z 2712/2812 04003KT CAVOK"
    },
    {
      "icao": "EDFH",
      "alert": "OK",
      "vis_m": 9999,
      "fzfg": false,
      "metar_trigger": false,
      "taf_trigger": false,
      "metar": "METAR EDFH 271220Z 09007KT CAVOK 06/M09 Q1029",
      "taf": "TAF EDFH 271100Z 2712/2812 07007KT CAVOK"
    },
    {
      "icao": "EDJA",
      "alert": "OK",
      "vis_m": 4700,
      "fzfg": false,
      "metar_trigger": false,
      "taf_trigger": false,
      "metar": "METAR EDJA 271220Z 20003KT 150V240 4700 BR BKN002 OVC014 M03/M04 Q1027",
      "taf": "TAF EDJA 271100Z 2712/2721 VRB03KT 1000 BR BKN001"
    },
    {
      "icao": "EDLW",
      "alert": "OK",
      "vis_m": 9999,
      "fzfg": false,
      "metar_trigger": false,
      "taf_trigger": false,
      "metar": "METAR EDLW 271220Z 34005KT CAVOK 00/M08 Q1032",
      "taf": "TAF EDLW 271100Z 2712/2812 VRB03KT CAVOK"
    },
    {
      "icao": "EDNY",
      "alert": "OK",
      "vis_m": 9999,
      "fzfg": false,
      "metar_trigger": false,
      "taf_trigger": false,
      "metar": "METAR EDNY 271220Z 05004KT 9999 OVC009 M01/M03 Q1029",
      "taf": "TAF EDNY 271100Z 2712/2721 VRB03KT 9999 OVC009"
    },
    {
      "icao": "EDSB",
      "alert": "OK",
      "vis_m": 9999,
      "fzfg": false,
      "metar_trigger": false,
      "taf_trigger": false,
      "metar": "METAR EDSB 271220Z VRB02KT CAVOK 02/M01 Q1030",
      "taf": "TAF EDSB 271100Z 2712/2812 VRB03KT 9000 FEW010"
    },
    {
      "icao": "EETN",
      "alert": "OK",
      "vis_m": 9999,
      "fzfg": false,
      "metar_trigger": false,
      "taf_trigger": false,
      "metar": "METAR EETN 271220Z 32020G32KT 9999 BKN036 04/M03 Q0998 NOSIG",
      "taf": "TAF EETN 271130Z 2712/2812 30016G28KT 9999 SCT025"
    },
    {
      "icao": "EFTU",
      "alert": "OK",
      "vis_m": 9999,
      "fzfg": false,
      "metar_trigger": false,
      "taf_trigger": false,
      "metar": "METAR EFTU 271220Z AUTO 31014G28KT 280V350 9999 -SHSN OVC035 03/M03 Q1001",
      "taf": "TAF EFTU 271124Z 2712/2812 31015G28KT 9999 SCT040"
    },
    {
      "icao": "EGBB",
      "alert": "OK",
      "vis_m": 9999,
      "fzfg": false,
      "metar_trigger": false,
      "taf_trigger": false,
      "metar": "METAR EGBB 271220Z 05013KT 9999 BKN013 06/03 Q1037",
      "taf": "TAF EGBB 271055Z 2712/2812 05012KT 9999 SCT016"
    },
    {
      "icao": "EGGP",
      "alert": "OK",
      "vis_m": 9999,
      "fzfg": false,
      "metar_trigger": false,
      "taf_trigger": false,
      "metar": "METAR EGGP 271220Z 06007KT 9999 SCT021 06/03 Q1039",
      "taf": "TAF EGGP 271100Z 2712/2812 04008KT 9999 SCT018"
    },
    {
      "icao": "EGGW",
      "alert": "OK",
      "vis_m": 9999,
      "fzfg": false,
      "metar_trigger": false,
      "taf_trigger": false,
      "metar": "METAR EGGW 271220Z AUTO 04014KT 9999 OVC011 05/03 Q1035",
      "taf": "TAF EGGW 271059Z 2712/2812 03008KT 9999 BKN004"
    },
    {
      "icao": "EGKK",
      "alert": "OK",
      "vis_m": 9999,
      "fzfg": false,
      "metar_trigger": false,
      "taf_trigger": false,
      "metar": "METAR EGKK 271220Z 05016KT 9999 SCT015 08/05 Q1033",
      "taf": "TAF EGKK 271055Z 2712/2818 05012KT 9999 SCT018"
    },
    {
      "icao": "EGNM",
      "alert": "OK",
      "vis_m": 9999,
      "fzfg": false,
      "metar_trigger": false,
      "taf_trigger": false,
      "metar": "METAR EGNM 271220Z 03009KT 360V070 9999 BKN018 05/03 Q1039",
      "taf": "TAF EGNM 271100Z 2712/2812 04008KT 9999 BKN018"
    },
    {
      "icao": "EGPD",
      "alert": "OK",
      "vis_m": 9999,
      "fzfg": false,
      "metar_trigger": false,
      "taf_trigger": false,
      "metar": "METAR EGPD 271220Z AUTO 31009KT 9999 FEW008 OVC029 06/05 Q1043 TEMPO BKN012",
      "taf": "TAF EGPD 271056Z 2712/2812 33006KT 9999 SCT015"
    },
    {
      "icao": "EGPF",
      "alert": "OK",
      "vis_m": 9999,
      "fzfg": false,
      "metar_trigger": false,
      "taf_trigger": false,
      "metar": "METAR EGPF 271220Z AUTO 05006KT 9999 OVC019 06/03 Q1043",
      "taf": "TAF EGPF 271055Z 2712/2812 06006KT 9999 SCT025"
    },
    {
      "icao": "EHBK",
      "alert": "OK",
      "vis_m": 9999,
      "fzfg": false,
      "metar_trigger": false,
      "taf_trigger": false,
      "metar": "METAR EHBK 271225Z AUTO 04008KT 360V080 9999 NSC 02/M04 Q1031 NOSIG",
      "taf": "TAF EHBK 271122Z 2712/2818 04008KT CAVOK"
    },
    {
      "icao": "EHEH",
      "alert": "OK",
      "vis_m": 9999,
      "fzfg": false,
      "metar_trigger": false,
      "taf_trigger": false,
      "metar": "METAR EHEH 271225Z AUTO 05010KT 9999 OVC330 03/M00 Q1033 BLU BECMG 2000 BR SCT002 BKN003 RMK TREND REMOTE BY EHWX",
      "taf": "TAF EHEH 271129Z 2712/2818 05007KT CAVOK"
    },
    {
      "icao": "EKBI",
      "alert": "OK",
      "vis_m": 9999,
      "fzfg": false,
      "metar_trigger": false,
      "taf_trigger": false,
      "metar": "METAR EKBI 271220Z AUTO 32020KT 9999 NCD 08/03 Q1028",
      "taf": "TAF EKBI 271127Z 2712/2812 31015KT 9999 FEW015"
    },
    {
      "icao": "EKCH",
      "alert": "OK",
      "vis_m": 9999,
      "fzfg": false,
      "metar_trigger": false,
      "taf_trigger": false,
      "metar": "METAR EKCH 271220Z AUTO 33011KT 9999 NCD 09/03 Q1024 NOSIG",
      "taf": "TAF EKCH 271127Z 2712/2812 30015KT CAVOK"
    },
    {
      "icao": "ENAL",
      "alert": "OK",
      "vis_m": 9999,
      "fzfg": false,
      "metar_trigger": false,
      "taf_trigger": false,
      "metar": "METAR ENAL 271220Z 33013KT 300V360 9999 VCSH FEW035 SCT048 BKN061 04/M02 Q1038",
      "taf": "TAF ENAL 271100Z 2712/2721 30018KT 9999 FEW030 BKN040"
    },
    {
      "icao": "ENBR",
      "alert": "OK",
      "vis_m": 9999,
      "fzfg": false,
      "metar_trigger": false,
      "taf_trigger": false,
      "metar": "METAR ENBR 271220Z 34015KT 9999 SCT035 SCT042 05/M01 Q1035 TEMPO 34022G32KT RMK WIND 1200FT 34037G50KT",
      "taf": "TAF ENBR 271100Z 2712/2812 34018KT 9999 FEW040"
    },
    {
      "icao": "ENGM",
      "alert": "OK",
      "vis_m": 9999,
      "fzfg": false,
      "metar_trigger": false,
      "taf_trigger": false,
      "metar": "METAR ENGM 271150Z 34009G19KT 270V030 CAVOK 04/M08 Q1023 TEMPO 34018G30KT",
      "taf": "TAF ENGM 271100Z 2712/2812 34015G28KT CAVOK"
    },
    {
      "icao": "ENHD",
      "alert": "OK",
      "vis_m": 9999,
      "fzfg": false,
      "metar_trigger": false,
      "taf_trigger": false,
      "metar": "METAR ENHD 271220Z 35033KT 9999 SCT035 07/M01 Q1034",
      "taf": "TAF ENHD 271100Z 2712/2721 35030KT 9999 FEW030"
    },
    {
      "icao": "ENTC",
      "alert": "OK",
      "vis_m": 6000,
      "fzfg": false,
      "metar_trigger": false,
      "taf_trigger": false,
      "metar": "METAR ENTC 271220Z 36024KT 6000 -SHSN VV015 M01/M03 Q1009 TEMPO 35025G35KT 0500 +SHSN VV004 RMK WIND 2600FT 35072G84KT",
      "taf": "TAF ENTC 271100Z 2712/2812 36018KT 9999 SCT018CB BKN025"
    },
    {
      "icao": "ENTO",
      "alert": "OK",
      "vis_m": 9999,
      "fzfg": false,
      "metar_trigger": false,
      "taf_trigger": false,
      "metar": "METAR ENTO 271220Z 27006KT CAVOK 06/M04 Q1026 NOSIG",
      "taf": "TAF ENTO 271100Z 2712/2812 32008KT CAVOK"
    },
    {
      "icao": "ENVA",
      "alert": "OK",
      "vis_m": 9999,
      "fzfg": false,
      "metar_trigger": false,
      "taf_trigger": false,
      "metar": "METAR ENVA 271220Z 31021G32KT 9999 -SHSNRA FEW015CB BKN022 03/M03 Q1028 TEMPO 29020KT 2000 SHRASN BKN012CB RMK WIND 670FT 32037G52KT",
      "taf": ""
    },
    {
      "icao": "ENZV",
      "alert": "OK",
      "vis_m": 9999,
      "fzfg": false,
      "metar_trigger": false,
      "taf_trigger": false,
      "metar": "METAR ENZV 271220Z 35022G33KT CAVOK 06/M01 Q1034 TEMPO 35022KT",
      "taf": "TAF ENZV 271100Z 2712/2812 34025KT 9999 FEW008"
    },
    {
      "icao": "EPGD",
      "alert": "OK",
      "vis_m": 9999,
      "fzfg": false,
      "metar_trigger": false,
      "taf_trigger": false,
      "metar": "METAR EPGD 271230Z 29023KT 9999 -DZ OVC005 04/03 Q1017",
      "taf": ""
    },
    {
      "icao": "EPKK",
      "alert": "OK",
      "vis_m": 3000,
      "fzfg": false,
      "metar_trigger": false,
      "taf_trigger": false,
      "metar": "METAR EPKK 271230Z 25013KT 3000 BR OVC003 M02/M03 Q1023",
      "taf": "TAF EPKK 271130Z 2712/2812 25015KT 5000 BR OVC003"
    },
    {
      "icao": "EPKT",
      "alert": "OK",
      "vis_m": 750,
      "fzfg": true,
      "metar_trigger": false,
      "taf_trigger": false,
      "metar": "METAR EPKT 271230Z 23011KT 0750 R26/0900N FZFG OVC002 M02/M02 Q1022",
      "taf": "TAF EPKT 271130Z 2712/2812 27015KT 3000 BR OVC003"
    },
    {
      "icao": "EPLB",
      "alert": "OK",
      "vis_m": 1500,
      "fzfg": false,
      "metar_trigger": false,
      "taf_trigger": false,
      "metar": "METAR EPLB 271230Z 26018KT 1500 -FZDZ BR OVC002 M01/M01 Q1015",
      "taf": "TAF EPLB 271130Z 2712/2812 28013KT 3000 -DZ BR OVC003"
    },
    {
      "icao": "EPMO",
      "alert": "OK",
      "vis_m": 650,
      "fzfg": true,
      "metar_trigger": false,
      "taf_trigger": false,
      "metar": "METAR EPMO 271230Z 25019KT 0650 R08/0900N -FZDZ FZFG OVC001 M00/M00 Q1017",
      "taf": "TAF EPMO 271130Z 2712/2812 27015KT 2000 -DZ BR OVC002"
    },
    {
      "icao": "EPPO",
      "alert": "OK",
      "vis_m": 6000,
      "fzfg": false,
      "metar_trigger": false,
      "taf_trigger": false,
      "metar": "METAR EPPO 271230Z 28014KT 6000 OVC002 M01/M01 Q1023",
      "taf": "TAF EPPO 271130Z 2712/2812 28010KT 1400 BR OVC001"
    },
    {
      "icao": "EPRA",
      "alert": "OK",
      "vis_m": 3500,
      "fzfg": false,
      "metar_trigger": false,
      "taf_trigger": false,
      "metar": "METAR EPRA 271230Z 26016KT 3500 OVC003 M01/M01 Q1017",
      "taf": "TAF EPRA 271130Z 2712/2721 27012KT 3000 BR OVC003"
    },
    {
      "icao": "EPRZ",
      "alert": "OK",
      "vis_m": 1300,
      "fzfg": false,
      "metar_trigger": false,
      "taf_trigger": false,
      "metar": "METAR EPRZ 271230Z 26015KT 1300 R27/P2000U BR OVC002 M01/M02 Q1020",
      "taf": "TAF EPRZ 271130Z 2712/2812 27015KT 5000 BR OVC003"
    },
    {
      "icao": "EPSC",
      "alert": "OK",
      "vis_m": 2300,
      "fzfg": false,
      "metar_trigger": false,
      "taf_trigger": false,
      "metar": "METAR EPSC 271230Z 26011KT 2300 -DZ BR OVC002 02/02 Q1024",
      "taf": ""
    },
    {
      "icao": "EPSY",
      "alert": "OK",
      "vis_m": 6000,
      "fzfg": false,
      "metar_trigger": false,
      "taf_trigger": false,
      "metar": "METAR EPSY 271230Z 26011KT 220V290 6000 OVC002 01/01 Q1014",
      "taf": "TAF EPSY 271130Z 2712/2721 26010KT 4000 BR OVC001"
    },
    {
      "icao": "EPWA",
      "alert": "OK",
      "vis_m": 1000,
      "fzfg": false,
      "metar_trigger": false,
      "taf_trigger": false,
      "metar": "METAR EPWA 271230Z 26018KT 1000 R33/1300N -FZDZ BR OVC001 M00/M00 Q1017 NOSIG",
      "taf": "TAF EPWA 271130Z 2712/2812 27014KT 2000 -DZ BR OVC002"
    },
    {
      "icao": "EPWR",
      "alert": "OK",
      "vis_m": 9999,
      "fzfg": false,
      "metar_trigger": false,
      "taf_trigger": false,
      "metar": "METAR EPWR 271230Z 28010KT 9999 FEW005 M01/M03 Q1024",
      "taf": "TAF EPWR 271130Z 2712/2812 28015KT 7000 BKN004"
    },
    {
      "icao": "ESGG",
      "alert": "OK",
      "vis_m": 9999,
      "fzfg": false,
      "metar_trigger": false,
      "taf_trigger": false,
      "metar": "METAR ESGG 271220Z 34007KT CAVOK 04/M01 Q1025",
      "taf": "TAF ESGG 271130Z 2712/2812 36012G22KT CAVOK"
    },
    {
      "icao": "ESKN",
      "alert": "OK",
      "vis_m": 9999,
      "fzfg": false,
      "metar_trigger": false,
      "taf_trigger": false,
      "metar": "METAR ESKN 271220Z 29017KT CAVOK 04/M04 Q1016",
      "taf": "TAF ESKN 271130Z 2712/2812 33018G32KT CAVOK"
    },
    {
      "icao": "ESMS",
      "alert": "OK",
      "vis_m": 9999,
      "fzfg": false,
      "metar_trigger": false,
      "taf_trigger": false,
      "metar": "METAR ESMS 271220Z 33012KT CAVOK 07/05 Q1022",
      "taf": "TAF ESMS 271127Z 2712/2812 32012KT CAVOK"
    },
    {
      "icao": "ESSA",
      "alert": "OK",
      "vis_m": 9999,
      "fzfg": false,
      "metar_trigger": false,
      "taf_trigger": false,
      "metar": "METAR ESSA 271220Z 29014KT CAVOK 03/M06 Q1012 NOSIG",
      "taf": "TAF ESSA 271130Z 2712/2812 30012G22KT CAVOK"
    },
    {
      "icao": "EYKA",
      "alert": "OK",
      "vis_m": 9999,
      "fzfg": false,
      "metar_trigger": false,
      "taf_trigger": false,
      "metar": "METAR EYKA 271220Z 27021KT 9999 OVC011 05/03 Q1005",
      "taf": "TAF EYKA 271114Z 2712/2812 30015KT 9000 BKN030"
    },
    {
      "icao": "EYPA",
      "alert": "OK",
      "vis_m": 9999,
      "fzfg": false,
      "metar_trigger": false,
      "taf_trigger": false,
      "metar": "METAR EYPA 271220Z 35011G24KT 280V030 9999 SCT029 07/02 Q1009",
      "taf": "TAF EYPA 271106Z 2712/2812 33012G23KT 9000 SCT030"
    },
    {
      "icao": "EYVI",
      "alert": "OK",
      "vis_m": 4400,
      "fzfg": false,
      "metar_trigger": false,
      "taf_trigger": false,
      "metar": "METAR EYVI 271220Z 28014G24KT 230V310 4400 -DZ BR OVC002 04/03 Q1004 BECMG 26016G26KT",
      "taf": "TAF EYVI 271110Z 2712/2812 26016G26KT 9000 OVC002"
    },
    {
      "icao": "GCFV",
      "alert": "OK",
      "vis_m": 9999,
      "fzfg": false,
      "metar_trigger": false,
      "taf_trigger": false,
      "metar": "METAR GCFV 271230Z 27012G28KT 240V300 9999 BKN040 20/12 Q1018",
      "taf": "TAF GCFV 270800Z 2709/2809 28005KT 9999 SCT035 TX22/2714Z TN15/2806Z"
    },
    {
      "icao": "GCLP",
      "alert": "OK",
      "vis_m": 9999,
      "fzfg": false,
      "metar_trigger": false,
      "taf_trigger": false,
      "metar": "METAR GCLP 271230Z 15008KT 100V180 9999 FEW040 21/14 Q1019 NOSIG",
      "taf": ""
    },
    {
      "icao": "GCTS",
      "alert": "OK",
      "vis_m": 9999,
      "fzfg": false,
      "metar_trigger": false,
      "taf_trigger": false,
      "metar": "METAR GCTS 271230Z 13003KT 050V210 9999 FEW040 21/10 Q1019 WS R07 NOSIG",
      "taf": "TAF GCTS 270800Z 2709/2809 VRB07KT 9999 SCT040 TX23/2714Z TN15/2806Z"
    },
    {
      "icao": "GMAD",
      "alert": "OK",
      "vis_m": 6000,
      "fzfg": false,
      "metar_trigger": false,
      "taf_trigger": false,
      "metar": "METAR GMAD 271230Z 21015KT 6000 BKN020TCU BKN080 17/15 Q1015 NOSIG",
      "taf": "TAF GMAD 271100Z 2712/2818 05004KT 6000 BKN020TCU BKN080"
    },
    {
      "icao": "GMMN",
      "alert": "OK",
      "vis_m": 9999,
      "fzfg": false,
      "metar_trigger": false,
      "taf_trigger": false,
      "metar": "METAR GMMN 271230Z 22016KT 190V250 9999 SCT013TCU BKN020 15/13 Q1010 NOSIG",
      "taf": "TAF GMMN 271100Z 2712/2818 20018KT 9999 SCT008 SCT013TCU BKN020"
    },
    {
      "icao": "GMMX",
      "alert": "OK",
      "vis_m": 5000,
      "fzfg": false,
      "metar_trigger": false,
      "taf_trigger": false,
      "metar": "METAR GMMX 271230Z 21011KT 5000 -RA SCT010 BKN016 11/10 Q1014 TEMPO 2000 RA",
      "taf": ""
    },
    {
      "icao": "HEGN",
      "alert": "OK",
      "vis_m": 9999,
      "fzfg": false,
      "metar_trigger": false,
      "taf_trigger": false,
      "metar": "METAR HEGN 271200Z 34017KT CAVOK 23/06 Q1011 NOSIG",
      "taf": "TAF HEGN 271100Z 2712/2818 34016KT CAVOK"
    },
    {
      "icao": "HEMA",
      "alert": "OK",
      "vis_m": null,
      "fzfg": false,
      "metar_trigger": false,
      "taf_trigger": false,
      "metar": "",
      "taf": "TAF HEMA 271100Z 2712/2818 35016KT CAVOK"
    },
    {
      "icao": "HESH",
      "alert": "OK",
      "vis_m": 9999,
      "fzfg": false,
      "metar_trigger": false,
      "taf_trigger": false,
      "metar": "METAR HESH 271200Z 03006KT CAVOK 24/09 Q1010 NOSIG",
      "taf": "TAF HESH 271100Z 2712/2818 36014KT CAVOK"
    },
    {
      "icao": "HESX",
      "alert": "OK",
      "vis_m": 9999,
      "fzfg": false,
      "metar_trigger": false,
      "taf_trigger": false,
      "metar": "METAR HESX 271200Z 31012KT 9999 SCT020 20/07 Q1013 NOSIG",
      "taf": "TAF HESX 271103Z 2712/2818 28012KT 9999 FEW025"
    },
    {
      "icao": "LATI",
      "alert": "OK",
      "vis_m": 9999,
      "fzfg": false,
      "metar_trigger": false,
      "taf_trigger": false,
      "metar": "METAR LATI 271220Z VRB01KT CAVOK 15/M01 Q1019 NOSIG",
      "taf": "TAF LATI 271100Z 2712/2812 VRB05KT CAVOK TX16/2712Z TNM01/2805Z"
    },
    {
      "icao": "LBPD",
      "alert": "OK",
      "vis_m": 9999,
      "fzfg": false,
      "metar_trigger": false,
      "taf_trigger": false,
      "metar": "METAR LBPD 271230Z AUTO 29018KT 9999 NCD 08/M01 Q1020 NOSIG",
      "taf": "TAF LBPD 271100Z 2712/2812 29018KT 9999 SCT020"
    },
    {
      "icao": "LBSF",
      "alert": "OK",
      "vis_m": 9999,
      "fzfg": false,
      "metar_trigger": false,
      "taf_trigger": false,
      "metar": "METAR LBSF 271230Z 29014KT 260V320 9999 SCT019 BKN022 01/M03 Q1022 NOSIG",
      "taf": "TAF LBSF 271100Z 2712/2812 29018KT 9999 BKN015"
    },
    {
      "icao": "LBWN",
      "alert": "OK",
      "vis_m": 9999,
      "fzfg": false,
      "metar_trigger": false,
      "taf_trigger": false,
      "metar": "METAR LBWN 271230Z 30011KT 9999 BKN046 03/M02 Q1020 NOSIG",
      "taf": "TAF LBWN 271100Z 2712/2812 32012KT 9999 SCT030"
    },
    {
      "icao": "LCLK",
      "alert": "OK",
      "vis_m": 9999,
      "fzfg": false,
      "metar_trigger": false,
      "taf_trigger": false,
      "metar": "METAR LCLK 271230Z 31012KT 280V340 9999 FEW020 FEW025CB FEW030TCU BKN050 19/09 Q1004 NOSIG",
      "taf": "TAF LCLK 271130Z 2712/2812 31009KT 9999 FEW025"
    },
    {
      "icao": "LCPH",
      "alert": "OK",
      "vis_m": 9999,
      "fzfg": false,
      "metar_trigger": false,
      "taf_trigger": false,
      "metar": "METAR LCPH 271230Z 33013KT 9999 FEW030 19/07 Q1006 NOSIG",
      "taf": "TAF LCPH 271130Z 2712/2812 30014KT 9999 FEW020 SCT035"
    },
    {
      "icao": "LEAL",
      "alert": "OK",
      "vis_m": 9999,
      "fzfg": false,
      "metar_trigger": false,
      "taf_trigger": false,
      "metar": "METAR LEAL 271230Z 10004KT 020V170 9999 FEW020 16/09 Q1015 NOSIG",
      "taf": "TAF LEAL 271100Z 2712/2812 31005KT 9999 SCT030 TX15/2713Z TN11/2806Z"
    },
    {
      "icao": "LEBB",
      "alert": "OK",
      "vis_m": 9999,
      "fzfg": false,
      "metar_trigger": false,
      "taf_trigger": false,
      "metar": "METAR LEBB 271230Z VRB01KT CAVOK 10/10 Q1018 NOSIG",
      "taf": "TAF LEBB 271100Z 2712/2812 11005KT 9999 FEW040 TX14/2715Z TN04/2806Z"
    },
    {
      "icao": "LEBL",
      "alert": "OK",
      "vis_m": 5000,
      "fzfg": false,
      "metar_trigger": false,
      "taf_trigger": false,
      "metar": "METAR LEBL 271230Z 04015KT 5000 SHRA FEW018TCU BKN050 12/11 Q1017 NOSIG",
      "taf": "TAF LEBL 271100Z 2712/2812 07012KT 9999 SCT014 TX14/2712Z TN11/2807Z"
    },
    {
      "icao": "LECH",
      "alert": "OK",
      "vis_m": 9999,
      "fzfg": false,
      "metar_trigger": false,
      "taf_trigger": false,
      "metar": "METAR LECH 271230Z AUTO 02011KT 350V060 9999 SCT038 SCT050 BKN070 10/09 Q1016",
      "taf": ""
    },
    {
      "icao": "LEMD",
      "alert": "OK",
      "vis_m": 9999,
      "fzfg": false,
      "metar_trigger": false,
      "taf_trigger": false,
      "metar": "METAR LEMD 271230Z 07005KT 010V130 9999 FEW035 BKN050 10/04 Q1014 NOSIG",
      "taf": "TAF LEMD 271100Z 2712/2818 VRB03KT CAVOK TX12/2715Z TN00/2806Z"
    },
    {
      "icao": "LEMG",
      "alert": "OK",
      "vis_m": 9999,
      "fzfg": false,
      "metar_trigger": false,
      "taf_trigger": false,
      "metar": "METAR LEMG 271230Z 10019KT 070V130 9999 BKN020 BKN068 14/10 Q1011 BECMG RA",
      "taf": "TAF LEMG 271100Z 2712/2812 11020KT 9999 FEW045 TX15/2714Z TN12/2806Z"
    },
    {
      "icao": "LEVC",
      "alert": "OK",
      "vis_m": 9999,
      "fzfg": false,
      "metar_trigger": false,
      "taf_trigger": false,
      "metar": "METAR LEVC 271230Z 04006KT 010V070 9999 FEW015 BKN020 14/10 Q1016 NOSIG",
      "taf": "TAF LEVC 271100Z 2712/2812 30005KT 9999 FEW015 BKN030 TX14/2713Z TN09/2806Z"
    },
    {
      "icao": "LEXJ",
      "alert": "OK",
      "vis_m": 9999,
      "fzfg": false,
      "metar_trigger": false,
      "taf_trigger": false,
      "metar": "METAR LEXJ 271230Z 17003KT 120V210 CAVOK 12/08 Q1017",
      "taf": "TAF LEXJ 270800Z 2709/2809 10009KT 9999 FEW060 TX13/2714Z TN06/2709Z"
    },
    {
      "icao": "LEZG",
      "alert": "OK",
      "vis_m": 6000,
      "fzfg": false,
      "metar_trigger": false,
      "taf_trigger": false,
      "metar": "METAR LEZG 271230Z VRB02KT 6000 2000SW BKN004 08/08 Q1018 RERA NOSIG",
      "taf": "TAF LEZG 271100Z 2712/2812 VRB05KT 9999 FEW010 BKN015 TX11/2714Z TN05/2806Z"
    },
    {
      "icao": "LEZL",
      "alert": "OK",
      "vis_m": 9999,
      "fzfg": false,
      "metar_trigger": false,
      "taf_trigger": false,
      "metar": "METAR LEZL 271230Z 06005KT 9999 -RA NSC 11/07 Q1010 BECMG RA BKN025",
      "taf": "TAF LEZL 270800Z 2709/2809 07007KT 9999 FEW030 TX16/2715Z TN08/2806Z"
    },
    {
      "icao": "LFBD",
      "alert": "OK",
      "vis_m": 9999,
      "fzfg": false,
      "metar_trigger": false,
      "taf_trigger": false,
      "metar": "METAR LFBD 271230Z AUTO 07008KT CAVOK 12/03 Q1021 NOSIG",
      "taf": "TAF LFBD 271100Z 2712/2818 06010KT CAVOK TX13/2714Z TN03/2805Z"
    },
    {
      "icao": "LFLL",
      "alert": "OK",
      "vis_m": 8000,
      "fzfg": false,
      "metar_trigger": false,
      "taf_trigger": false,
      "metar": "METAR LFLL 271230Z 03006KT 350V070 8000 BKN008 03/01 Q1027 NOSIG",
      "taf": "TAF LFLL 271100Z 2712/2818 36004KT 7000 BKN007"
    },
    {
      "icao": "LFLS",
      "alert": "OK",
      "vis_m": 9999,
      "fzfg": false,
      "metar_trigger": false,
      "taf_trigger": false,
      "metar": "METAR LFLS 271230Z AUTO 10010KT CAVOK 06/01 Q1026 TEMPO 27005KT",
      "taf": ""
    },
    {
      "icao": "LFMN",
      "alert": "OK",
      "vis_m": 9999,
      "fzfg": false,
      "metar_trigger": false,
      "taf_trigger": false,
      "metar": "METAR LFMN 271230Z 32005KT CAVOK 16/03 Q1023 NOSIG",
      "taf": "TAF LFMN 270800Z 2709/2815 34014KT CAVOK"
    },
    {
      "icao": "LFOB",
      "alert": "OK",
      "vis_m": 9999,
      "fzfg": false,
      "metar_trigger": false,
      "taf_trigger": false,
      "metar": "METAR LFOB 271230Z AUTO 06011KT CAVOK 04/M00 Q1029 NOSIG",
      "taf": "TAF LFOB 271100Z 2712/2812 01006KT 8000 NSC"
    },
    {
      "icao": "LFPO",
      "alert": "OK",
      "vis_m": 9999,
      "fzfg": false,
      "metar_trigger": false,
      "taf_trigger": false,
      "metar": "METAR LFPO 271230Z AUTO 10009KT 9999 OVC013 01/M02 Q1029",
      "taf": "TAF LFPO 270500Z 2706/2812 03008KT CAVOK"
    },
    {
      "icao": "LFSB",
      "alert": "OK",
      "vis_m": 9999,
      "fzfg": false,
      "metar_trigger": false,
      "taf_trigger": false,
      "metar": "METAR LFSB 271230Z AUTO 11008KT 9999 FEW017 03/M02 Q1028 NOSIG",
      "taf": "TAF LFSB 271100Z 2712/2812 11008KT 9999 FEW016"
    },
    {
      "icao": "LGAV",
      "alert": "OK",
      "vis_m": 9999,
      "fzfg": false,
      "metar_trigger": false,
      "taf_trigger": false,
      "metar": "METAR LGAV 271220Z 04011KT 9999 -RA FEW020 BKN035 10/07 Q1019 NOSIG",
      "taf": "TAF LGAV 271100Z 2712/2812 02013KT 9999 FEW020 BKN030"
    },
    {
      "icao": "LGTS",
      "alert": "OK",
      "vis_m": 9999,
      "fzfg": false,
      "metar_trigger": false,
      "taf_trigger": false,
      "metar": "METAR LGTS 271220Z 34013KT CAVOK 10/00 Q1021 NOSIG",
      "taf": "TAF LGTS 271100Z 2712/2812 33015KT 9999 FEW025"
    },
    {
      "icao": "LHBP",
      "alert": "OK",
      "vis_m": 9999,
      "fzfg": false,
      "metar_trigger": false,
      "taf_trigger": false,
      "metar": "METAR LHBP 271230Z 24007KT 210V270 CAVOK 04/M04 Q1024 NOSIG",
      "taf": "TAF LHBP 271115Z 2712/2812 24007KT CAVOK"
    },
    {
      "icao": "LHDC",
      "alert": "OK",
      "vis_m": 9999,
      "fzfg": false,
      "metar_trigger": false,
      "taf_trigger": false,
      "metar": "METAR LHDC 271215Z AUTO 23009KT 200V260 CAVOK 04/M00 Q1024",
      "taf": "TAF LHDC 270815Z 2709/2718 22005KT CAVOK"
    },
    {
      "icao": "LIBD",
      "alert": "OK",
      "vis_m": 9999,
      "fzfg": false,
      "metar_trigger": false,
      "taf_trigger": false,
      "metar": "METAR LIBD 271220Z 31008KT 280V350 9999 SCT020 SCT035 13/08 Q1022",
      "taf": "TAF LIBD 271100Z 2712/2812 32013KT 9999 SCT020"
    },
    {
      "icao": "LIBG",
      "alert": "OK",
      "vis_m": 9999,
      "fzfg": false,
      "metar_trigger": false,
      "taf_trigger": false,
      "metar": "METAR LIBG 271150Z 35016KT 310V010 9999 FEW030 14/09 Q1021",
      "taf": "TAF LIBG 271100Z 2712/2721 35010KT 9999 FEW025"
    },
    {
      "icao": "LIBP",
      "alert": "OK",
      "vis_m": 9999,
      "fzfg": false,
      "metar_trigger": false,
      "taf_trigger": false,
      "metar": "METAR LIBP 271220Z AUTO 36007KT 9999 OVC027/// 10/06 Q1025",
      "taf": "TAF LIBP 271100Z 2712/2812 VRB05KT 9999 BKN030"
    },
    {
      "icao": "LIBR",
      "alert": "OK",
      "vis_m": 9999,
      "fzfg": false,
      "metar_trigger": false,
      "taf_trigger": false,
      "metar": "METAR LIBR 271220Z 35015KT 9999 FEW030 14/06 Q1020",
      "taf": "TAF LIBR 271100Z 2712/2812 35015KT 9999 SCT030"
    },
    {
      "icao": "LICA",
      "alert": "OK",
      "vis_m": 9999,
      "fzfg": false,
      "metar_trigger": false,
      "taf_trigger": false,
      "metar": "METAR LICA 271220Z AUTO 27008KT 9999 NCD 17/07 Q1019",
      "taf": "TAF LICA 271100Z 2712/2812 04010KT CAVOK"
    },
    {
      "icao": "LICC",
      "alert": "OK",
      "vis_m": 9999,
      "fzfg": false,
      "metar_trigger": false,
      "taf_trigger": false,
      "metar": "METAR LICC 271220Z 06015KT 9999 FEW020 BKN040 15/13 Q1019",
      "taf": "TAF LICC 271100Z 2712/2812 07016KT 9999 SCT040"
    },
    {
      "icao": "LICJ",
      "alert": "OK",
      "vis_m": 9999,
      "fzfg": false,
      "metar_trigger": false,
      "taf_trigger": false,
      "metar": "METAR LICJ 271220Z 06014KT CAVOK 17/11 Q1018",
      "taf": "TAF LICJ 271100Z 2712/2812 05012KT 9999 FEW040"
    },
    {
      "icao": "LIMC",
      "alert": "OK",
      "vis_m": 9999,
      "fzfg": false,
      "metar_trigger": false,
      "taf_trigger": false,
      "metar": "METAR LIMC 271220Z VRB02KT CAVOK 10/03 Q1027 NOSIG",
      "taf": "TAF LIMC 271100Z 2712/2818 VRB05KT CAVOK"
    },
    {
      "icao": "LIME",
      "alert": "OK",
      "vis_m": 9999,
      "fzfg": false,
      "metar_trigger": false,
      "taf_trigger": false,
      "metar": "METAR LIME 271220Z 25004KT CAVOK 09/02 Q1026 NOSIG",
      "taf": "TAF LIME 271100Z 2712/2812 VRB05KT CAVOK"
    },
    {
      "icao": "LIMF",
      "alert": "OK",
      "vis_m": 9999,
      "fzfg": false,
      "metar_trigger": false,
      "taf_trigger": false,
      "metar": "METAR LIMF 271220Z 16003KT 120V190 CAVOK 11/03 Q1026",
      "taf": "TAF LIMF 271100Z 2712/2812 VRB06KT CAVOK"
    },
    {
      "icao": "LIMJ",
      "alert": "OK",
      "vis_m": 9999,
      "fzfg": false,
      "metar_trigger": false,
      "taf_trigger": false,
      "metar": "METAR LIMJ 271220Z 04017KT CAVOK 12/02 Q1024",
      "taf": "TAF LIMJ 271100Z 2712/2812 03015KT CAVOK"
    },
    {
      "icao": "LIPE",
      "alert": "OK",
      "vis_m": 9999,
      "fzfg": false,
      "metar_trigger": false,
      "taf_trigger": false,
      "metar": "METAR LIPE 271220Z 29008KT 270V330 CAVOK 10/03 Q1027",
      "taf": "TAF LIPE 271100Z 2712/2812 27010KT CAVOK"
    },
    {
      "icao": "LIPH",
      "alert": "OK",
      "vis_m": 9999,
      "fzfg": false,
      "metar_trigger": false,
      "taf_trigger": false,
      "metar": "METAR LIPH 271220Z 27004KT 230V320 CAVOK 11/03 Q1025",
      "taf": "TAF LIPH 271100Z 2712/2812 VRB03KT CAVOK"
    },
    {
      "icao": "LIPQ",
      "alert": "OK",
      "vis_m": 9999,
      "fzfg": false,
      "metar_trigger": false,
      "taf_trigger": false,
      "metar": "METAR LIPQ 271220Z AUTO 32004KT 290V010 9999 NCD 12/01 Q1024",
      "taf": "TAF LIPQ 271100Z 2712/2812 VRB04KT CAVOK"
    },
    {
      "icao": "LIPR",
      "alert": "OK",
      "vis_m": 9999,
      "fzfg": false,
      "metar_trigger": false,
      "taf_trigger": false,
      "metar": "METAR LIPR 271220Z 30014KT CAVOK 10/02 Q1026",
      "taf": "TAF LIPR 271100Z 2712/2812 31012KT CAVOK"
    },
    {
      "icao": "LIPX",
      "alert": "OK",
      "vis_m": 9999,
      "fzfg": false,
      "metar_trigger": false,
      "taf_trigger": false,
      "metar": "METAR LIPX 271220Z 27008KT 240V300 CAVOK 11/01 Q1026",
      "taf": "TAF LIPX 271100Z 2712/2812 VRB06KT CAVOK"
    },
    {
      "icao": "LIPY",
      "alert": "OK",
      "vis_m": 9999,
      "fzfg": false,
      "metar_trigger": false,
      "taf_trigger": false,
      "metar": "METAR LIPY 271220Z AUTO 33012KT 9999 NCD 09/03 Q1026",
      "taf": "TAF LIPY 271100Z 2712/2812 31010KT 9999 SCT030"
    },
    {
      "icao": "LIPZ",
      "alert": "OK",
      "vis_m": 9999,
      "fzfg": false,
      "metar_trigger": false,
      "taf_trigger": false,
      "metar": "METAR LIPZ 271220Z 26006KT 230V290 CAVOK 10/02 Q1025 NOSIG",
      "taf": "TAF LIPZ 271100Z 2712/2818 VRB05KT CAVOK"
    },
    {
      "icao": "LIRF",
      "alert": "OK",
      "vis_m": 9999,
      "fzfg": false,
      "metar_trigger": false,
      "taf_trigger": false,
      "metar": "METAR LIRF 271220Z 05005KT 020V080 CAVOK 14/04 Q1022 NOSIG",
      "taf": "TAF LIRF 271100Z 2712/2818 05010KT CAVOK"
    },
    {
      "icao": "LIRN",
      "alert": "OK",
      "vis_m": 9999,
      "fzfg": false,
      "metar_trigger": false,
      "taf_trigger": false,
      "metar": "METAR LIRN 271220Z AUTO 06006KT 340V100 9999 NCD 15/03 Q1021",
      "taf": "TAF LIRN 271100Z 2712/2812 03011KT CAVOK"
    },
    {
      "icao": "LIRP",
      "alert": "OK",
      "vis_m": 9999,
      "fzfg": false,
      "metar_trigger": false,
      "taf_trigger": false,
      "metar": "METAR LIRP 271215Z 15004KT CAVOK 13/02 Q1024 NOSIG",
      "taf": "TAF LIRP 271100Z 2712/2812 09008KT CAVOK"
    },
    {
      "icao": "LIRZ",
      "alert": "OK",
      "vis_m": 9999,
      "fzfg": false,
      "metar_trigger": false,
      "taf_trigger": false,
      "metar": "METAR LIRZ 271220Z AUTO 02013KT 9999 NCD 11/03 Q1023",
      "taf": "TAF LIRZ 271100Z 2712/2812 01010KT 9999 FEW030"
    },
    {
      "icao": "LJLJ",
      "alert": "OK",
      "vis_m": 400,
      "fzfg": true,
      "metar_trigger": false,
      "taf_trigger": false,
      "metar": "METAR LJLJ 271230Z VRB01KT 0400 R30/0700N FZFG VV002 M01/M01 Q1026 NOSIG",
      "taf": "TAF LJLJ 271100Z 2712/2812 30002KT 0400 FZFG VV002"
    },
    {
      "icao": "LKMT",
      "alert": "OK",
      "vis_m": 4500,
      "fzfg": false,
      "metar_trigger": false,
      "taf_trigger": false,
      "metar": "METAR LKMT 271230Z 20004KT 170V230 4500 BR OVC004 M02/M02 Q1024 NOSIG",
      "taf": "TAF LKMT 271100Z 2712/2812 23008KT 6000 OVC007"
    },
    {
      "icao": "LKPR",
      "alert": "OK",
      "vis_m": 9999,
      "fzfg": false,
      "metar_trigger": false,
      "taf_trigger": false,
      "metar": "METAR LKPR 271230Z 21007KT CAVOK 03/M03 Q1026 NOSIG",
      "taf": "TAF LKPR 271100Z 2712/2818 23005KT CAVOK"
    },
    {
      "icao": "LLBG",
      "alert": "OK",
      "vis_m": 9999,
      "fzfg": false,
      "metar_trigger": false,
      "taf_trigger": false,
      "metar": "METAR LLBG 271220Z 25007KT 210V280 9999 FEW025TCU BKN028 17/12 Q1008 RESHRA TEMPO 24020G30KT 5000 TSRA FEW025CB",
      "taf": "TAF LLBG 271111Z 2712/2812 22012KT 9999 SCT030 BKN040"
    },
    {
      "icao": "LMML",
      "alert": "OK",
      "vis_m": 9999,
      "fzfg": false,
      "metar_trigger": false,
      "taf_trigger": false,
      "metar": "METAR LMML 271215Z 07015KT 040V100 9999 FEW019TCU SCT022 18/13 Q1017 NOSIG",
      "taf": "TAF LMML 271100Z 2712/2812 07017KT 9999 SCT020"
    },
    {
      "icao": "LOWW",
      "alert": "OK",
      "vis_m": 9999,
      "fzfg": false,
      "metar_trigger": false,
      "taf_trigger": false,
      "metar": "METAR LOWW 271220Z 01008KT CAVOK 03/M02 Q1026 NOSIG",
      "taf": "TAF LOWW 271115Z 2712/2818 35007KT CAVOK TX04/2814Z TN01/2807Z"
    },
    {
      "icao": "LPFR",
      "alert": "OK",
      "vis_m": 7000,
      "fzfg": false,
      "metar_trigger": false,
      "taf_trigger": false,
      "metar": "METAR LPFR 271230Z 06017KT 7000 R10/1100N -RA VCTS FEW006 SCT012 FEW018CB BKN020 10/09 Q1006 RERA",
      "taf": "TAF LPFR 271100Z 2712/2812 09017KT 9999 SCT015 BKN030"
    },
    {
      "icao": "LPMA",
      "alert": "OK",
      "vis_m": 9999,
      "fzfg": false,
      "metar_trigger": false,
      "taf_trigger": false,
      "metar": "METAR LPMA 271230Z 35014KT 310V020 9999 SCT015 19/07 Q1016",
      "taf": "TAF LPMA 271100Z 2712/2812 32010KT 9999 SCT015"
    },
    {
      "icao": "LPPR",
      "alert": "OK",
      "vis_m": 9999,
      "fzfg": false,
      "metar_trigger": false,
      "taf_trigger": false,
      "metar": "METAR LPPR 271230Z 10009G20KT 060V140 CAVOK 12/03 Q1012",
      "taf": "TAF LPPR 271100Z 2712/2812 08010KT CAVOK"
    },
    {
      "icao": "LPPS",
      "alert": "OK",
      "vis_m": 9999,
      "fzfg": false,
      "metar_trigger": false,
      "taf_trigger": false,
      "metar": "METAR LPPS 271230Z 33016KT 9999 SCT015 16/11 Q1016",
      "taf": "TAF LPPS 271100Z 2712/2818 30017KT 9999 SCT015"
    },
    {
      "icao": "LPPT",
      "alert": "OK",
      "vis_m": 9999,
      "fzfg": false,
      "metar_trigger": false,
      "taf_trigger": false,
      "metar": "METAR LPPT 271230Z 06013KT 9999 FEW030 08/05 Q1008",
      "taf": "TAF LPPT 271100Z 2712/2818 05013KT 9999 FEW030"
    },
    {
      "icao": "LQBK",
      "alert": "OK",
      "vis_m": 9999,
      "fzfg": false,
      "metar_trigger": false,
      "taf_trigger": false,
      "metar": "METAR LQBK 271230Z VRB02KT CAVOK 07/02 Q1027 NOSIG",
      "taf": "TAF LQBK 271100Z 2712/2812 VRB03KT CAVOK TX08/2713Z TNM03/2805Z"
    },
    {
      "icao": "LQSA",
      "alert": "OK",
      "vis_m": 9999,
      "fzfg": false,
      "metar_trigger": false,
      "taf_trigger": false,
      "metar": "METAR LQSA 271230Z 33003KT 9999 FEW020 BKN035 01/M01 Q1026 NOSIG",
      "taf": "TAF LQSA 271100Z 2712/2812 VRB02KT 9999 FEW025 BKN030 TX04/2713Z TNM04/2805Z"
    },
    {
      "icao": "LQTZ",
      "alert": "OK",
      "vis_m": 9999,
      "fzfg": false,
      "metar_trigger": false,
      "taf_trigger": false,
      "metar": "METAR LQTZ 271230Z 32006KT CAVOK 06/00 Q1026",
      "taf": "TAF LQTZ 271100Z 2712/2812 30005KT CAVOK TX06/2713Z TNM04/2805Z"
    },
    {
      "icao": "LRBC",
      "alert": "OK",
      "vis_m": 9999,
      "fzfg": false,
      "metar_trigger": false,
      "taf_trigger": false,
      "metar": "METAR LRBC 271230Z 34010KT 9999 BKN024 04/M01 Q1018",
      "taf": "TAF LRBC 271100Z 2712/2721 32012KT 9999 BKN025"
    },
    {
      "icao": "LRBS",
      "alert": "OK",
      "vis_m": 1100,
      "fzfg": true,
      "metar_trigger": false,
      "taf_trigger": false,
      "metar": "METAR LRBS 271230Z 23005KT 1100 R07/P2000 BR OVC002 M01/M01 Q1021 TEMPO 3000",
      "taf": "TAF LRBS 271100Z 2712/2812 25008KT 0800 FZFG OVC002"
    },
    {
      "icao": "LRBV",
      "alert": "OK",
      "vis_m": 9999,
      "fzfg": false,
      "metar_trigger": false,
      "taf_trigger": false,
      "metar": "METAR LRBV 271230Z 32012KT 280V350 9999 BKN024 BKN030 02/M04 Q1020",
      "taf": "TAF LRBV 271100Z 2712/2721 31010KT 9999 BKN025"
    },
    {
      "icao": "LRCL",
      "alert": "OK",
      "vis_m": 9999,
      "fzfg": false,
      "metar_trigger": false,
      "taf_trigger": false,
      "metar": "METAR LRCL 271230Z 31009KT 9999 FEW031 04/M03 Q1022",
      "taf": "TAF LRCL 271100Z 2712/2721 30009KT CAVOK"
    },
    {
      "icao": "LRCV",
      "alert": "OK",
      "vis_m": 9999,
      "fzfg": false,
      "metar_trigger": false,
      "taf_trigger": false,
      "metar": "METAR LRCV 271230Z 27008KT CAVOK 04/00 Q1020",
      "taf": "TAF LRCV 271100Z 2712/2721 27010KT CAVOK"
    },
    {
      "icao": "LRIA",
      "alert": "OK",
      "vis_m": 9999,
      "fzfg": false,
      "metar_trigger": false,
      "taf_trigger": false,
      "metar": "METAR LRIA 271230Z 30010KT 9999 BKN014 OVC020 02/M01 Q1017",
      "taf": "TAF LRIA 271100Z 2712/2721 30014KT 9999 BKN015 OVC025"
    },
    {
      "icao": "LROP",
      "alert": "OK",
      "vis_m": 500,
      "fzfg": true,
      "metar_trigger": false,
      "taf_trigger": false,
      "metar": "METAR LROP 271230Z 24006KT 0500 R08R/0800N R08L/0650N FZFG OVC001 M01/M01 Q1020 TEMPO 0800 OVC002",
      "taf": "TAF LROP 271100Z 2712/2812 25008KT 0600 FZFG OVC002"
    },
    {
      "icao": "LRSB",
      "alert": "OK",
      "vis_m": 9999,
      "fzfg": false,
      "metar_trigger": false,
      "taf_trigger": false,
      "metar": "METAR LRSB 271230Z 34006KT 9999 SCT020 03/M01 Q1021",
      "taf": "TAF LRSB 271100Z 2712/2812 VRB04KT 9999 SCT020"
    },
    {
      "icao": "LRSM",
      "alert": "OK",
      "vis_m": 9999,
      "fzfg": false,
      "metar_trigger": false,
      "taf_trigger": false,
      "metar": "METAR LRSM 271230Z AUTO 24009KT 9999 BKN023/// BKN027/// 04/M00 Q1023",
      "taf": ""
    },
    {
      "icao": "LRSV",
      "alert": "OK",
      "vis_m": 9999,
      "fzfg": false,
      "metar_trigger": false,
      "taf_trigger": false,
      "metar": "METAR LRSV 271230Z 34009KT CAVOK 00/M01 Q1015",
      "taf": "TAF LRSV 271100Z 2712/2721 33016KT 9999 SCT025"
    },
    {
      "icao": "LRTM",
      "alert": "OK",
      "vis_m": 9999,
      "fzfg": false,
      "metar_trigger": false,
      "taf_trigger": false,
      "metar": "METAR LRTM 271230Z 35004KT 330V030 9999 SCT019 BKN026 01/M03 Q1023",
      "taf": "TAF LRTM 271100Z 2712/2721 31006KT 9999 SCT015 BKN025"
    },
    {
      "icao": "LRTR",
      "alert": "OK",
      "vis_m": 9999,
      "fzfg": false,
      "metar_trigger": false,
      "taf_trigger": false,
      "metar": "METAR LRTR 271230Z 31006KT 9999 SCT007 03/01 Q1026",
      "taf": "TAF LRTR 271100Z 2712/2812 30006KT 9999 BKN010"
    },
    {
      "icao": "LTAC",
      "alert": "OK",
      "vis_m": 9999,
      "fzfg": false,
      "metar_trigger": false,
      "taf_trigger": false,
      "metar": "METAR LTAC 271220Z 32014KT 9999 SCT040 BKN100 02/M08 Q1010 NOSIG RMK RWY21C 31014KT RWY03L 32011KT RWY21R 30013KT RWY03R 31013KT RWY21L 31017KT",
      "taf": "TAF LTAC 271040Z 2712/2812 32012KT 9999 SCT040 BKN100"
    },
    {
      "icao": "LTFM",
      "alert": "OK",
      "vis_m": 9999,
      "fzfg": false,
      "metar_trigger": false,
      "taf_trigger": false,
      "metar": "METAR LTFM 271220Z 34023KT 9999 BKN025 05/M02 Q1019 NOSIG RMK RWY17L 34022KT RWY34L 33021KT RWY16R 34019KT RWY36 34022KT RWY18 35022KT",
      "taf": "TAF LTFM 271040Z 2712/2818 35020G30KT 9999 BKN025"
    },
    {
      "icao": "LUKK",
      "alert": "OK",
      "vis_m": 9999,
      "fzfg": false,
      "metar_trigger": false,
      "taf_trigger": false,
      "metar": "METAR LUKK 271230Z 32012KT 9999 FEW023 OVC037 02/M01 Q1015 NOSIG",
      "taf": "TAF LUKK 271109Z 2712/2812 33014KT 9999 SCT015 OVC020"
    },
    {
      "icao": "LWOH",
      "alert": "OK",
      "vis_m": 9999,
      "fzfg": false,
      "metar_trigger": false,
      "taf_trigger": false,
      "metar": "METAR LWOH 271220Z 27005KT 230V310 CAVOK 08/M01 Q1020",
      "taf": "TAF LWOH 271110Z 2712/2812 33010KT CAVOK"
    },
    {
      "icao": "LWSK",
      "alert": "OK",
      "vis_m": 9999,
      "fzfg": false,
      "metar_trigger": false,
      "taf_trigger": false,
      "metar": "METAR LWSK 271220Z 02013KT CAVOK 07/M00 Q1023 NOSIG",
      "taf": "TAF LWSK 271110Z 2712/2812 02015KT CAVOK"
    },
    {
      "icao": "LYBE",
      "alert": "OK",
      "vis_m": 9999,
      "fzfg": false,
      "metar_trigger": false,
      "taf_trigger": false,
      "metar": "METAR LYBE 271230Z 29008KT 260V320 9999 FEW009 SCT018 04/M00 Q1027 NOSIG",
      "taf": "TAF LYBE 271100Z 2712/2812 30008KT 9999 BKN015 TX04/2812Z TNM01/2803Z"
    },
    {
      "icao": "LYNI",
      "alert": "OK",
      "vis_m": 9999,
      "fzfg": false,
      "metar_trigger": false,
      "taf_trigger": false,
      "metar": "METAR LYNI 271230Z 33010KT 300V010 9999 BKN013 BKN017 02/M01 Q1026 NOSIG",
      "taf": "TAF LYNI 271100Z 2712/2812 31008KT 9999 BKN012 TX02/2712Z TNM01/2802Z"
    },
    {
      "icao": "LYPG",
      "alert": "OK",
      "vis_m": 9999,
      "fzfg": false,
      "metar_trigger": false,
      "taf_trigger": false,
      "metar": "METAR LYPG 271230Z 13004KT 100V160 CAVOK 12/00 Q1021 NOSIG",
      "taf": "TAF LYPG 271100Z 2712/2812 16007KT CAVOK TX15/2713Z TN02/2801Z"
    },
    {
      "icao": "LZIB",
      "alert": "OK",
      "vis_m": 9999,
      "fzfg": false,
      "metar_trigger": false,
      "taf_trigger": false,
      "metar": "METAR LZIB 271230Z 30008KT CAVOK 06/M02 Q1025 NOSIG",
      "taf": "TAF LZIB 271115Z 2712/2812 30011KT CAVOK"
    },
    {
      "icao": "LZKZ",
      "alert": "OK",
      "vis_m": 9999,
      "fzfg": false,
      "metar_trigger": false,
      "taf_trigger": false,
      "metar": "METAR LZKZ 271230Z 16004KT CAVOK 03/M02 Q1022 NOSIG",
      "taf": "TAF LZKZ 271115Z 2712/2812 VRB02KT CAVOK"
    },
    {
      "icao": "LZTT",
      "alert": "OK",
      "vis_m": 9999,
      "fzfg": false,
      "metar_trigger": false,
      "taf_trigger": false,
      "metar": "METAR LZTT 271230Z 29007KT CAVOK 04/M05 Q1019 NOSIG",
      "taf": "TAF LZTT 271115Z 2712/2812 26010KT CAVOK"
    },
    {
      "icao": "OEJN",
      "alert": "OK",
      "vis_m": 9999,
      "fzfg": false,
      "metar_trigger": false,
      "taf_trigger": false,
      "metar": "METAR OEJN 271200Z 29007KT 9999 FEW040 28/17 Q1009 NOSIG",
      "taf": "TAF OEJN 271100Z 2712/2818 30010KT 9999 SCT040"
    },
    {
      "icao": "OEMA",
      "alert": "OK",
      "vis_m": 9999,
      "fzfg": false,
      "metar_trigger": false,
      "taf_trigger": false,
      "metar": "METAR OEMA 271200Z 23009KT 9999 FEW045 26/06 Q1011 NOSIG",
      "taf": "TAF OEMA 271100Z 2712/2818 27014KT 7000 SCT045"
    },
    {
      "icao": "OJAI",
      "alert": "OK",
      "vis_m": 4000,
      "fzfg": false,
      "metar_trigger": false,
      "taf_trigger": false,
      "metar": "METAR OJAI 271200Z 23019KT 4000 BLDU SCT020 SCT025 FEW030TCU 13/08 Q1010 NOSIG",
      "taf": "TAF OJAI 271100Z 2712/2818 25018KT 3000 RA BR SCT025TCU BKN030"
    },
    {
      "icao": "OMAA",
      "alert": "OK",
      "vis_m": 9999,
      "fzfg": false,
      "metar_trigger": false,
      "taf_trigger": false,
      "metar": "METAR OMAA 271200Z 30007KT 9999 FEW045 25/14 Q1012 NOSIG",
      "taf": "TAF OMAA 271100Z 2712/2818 34008KT 8000 FEW040"
    },
    {
      "icao": "OMDB",
      "alert": "OK",
      "vis_m": 9999,
      "fzfg": false,
      "metar_trigger": false,
      "taf_trigger": false,
      "metar": "METAR OMDB 271230Z 32008KT 290V360 CAVOK 25/15 Q1013 NOSIG",
      "taf": "TAF OMDB 271100Z 2712/2818 32010KT 8000 FEW040"
    },
    {
      "icao": "UAAA",
      "alert": "OK",
      "vis_m": 3400,
      "fzfg": false,
      "metar_trigger": false,
      "taf_trigger": false,
      "metar": "METAR UAAA 271230Z VRB01MPS 3400 BR BKN007 OVC100 M01/M02 Q1019 NOSIG",
      "taf": "TAF UAAA 271102Z 2712/2812 20003MPS 1500 BR FU BKN011 OVC030 TX00/2809Z TNM05/2801Z"
    },
    {
      "icao": "UBBB",
      "alert": "OK",
      "vis_m": 9999,
      "fzfg": false,
      "metar_trigger": false,
      "taf_trigger": false,
      "metar": "METAR UBBB 271230Z 20018KT 9999 SCT012 09/06 Q1002 NOSIG",
      "taf": "TAF UBBB 271036Z 2712/2812 20020G30KT 9999 SCT025 TX09/2711Z TN04/2802Z"
    },
    {
      "icao": "UDSG",
      "alert": "OK",
      "vis_m": 1300,
      "fzfg": false,
      "metar_trigger": false,
      "taf_trigger": false,
      "metar": "METAR UDSG 271230Z 29013KT 1300 R02/1400D SN BR OVC006 M01/M01 Q1001 NOSIG",
      "taf": "TAF UDSG 271100Z 2712/2812 VRB06KT 3000 BR BKN020"
    },
    {
      "icao": "UDYZ",
      "alert": "OK",
      "vis_m": 8000,
      "fzfg": false,
      "metar_trigger": false,
      "taf_trigger": false,
      "metar": "METAR UDYZ 271230Z 01002KT 8000 SCT046 07/M01 Q1001 NOSIG",
      "taf": "TAF UDYZ 271100Z 2712/2812 VRB06KT 3500 BR SCT040"
    },
    {
      "icao": "UGKO",
      "alert": "OK",
      "vis_m": 9999,
      "fzfg": false,
      "metar_trigger": false,
      "taf_trigger": false,
      "metar": "METAR UGKO 271230Z 24007KT 9999 -RA SCT024 OVC050 03/02 Q1009 NOSIG",
      "taf": "TAF UGKO 271100Z 2712/2812 24007KT 9999 SCT015 OVC050 TX04/2811Z TNM01/2804Z"
    }
  ]
}