{
  "ts_utc": "2026-03-04T06:05:30Z",
  "threshold_m": 150,
  "source": "stations_override.txt (ICAO list) + aviationweather.gov (METAR/TAF raw)",
  "station_count": 159,
  "stations": [
    {
      "icao": "BIKF",
      "alert": "OK",
      "vis_m": 9999,
      "fzfg": false,
      "metar_trigger": false,
      "taf_trigger": false,
      "metar": "METAR BIKF 040601Z 23009KT 9999 FEW035 BKN096 01/M02 Q0991",
      "taf": "TAF BIKF 040451Z 0406/0506 22022KT 9999 -SHSN BKN020 TX03/0415Z TNM02/0500Z"
    },
    {
      "icao": "BKPR",
      "alert": "OK",
      "vis_m": 4500,
      "fzfg": false,
      "metar_trigger": false,
      "taf_trigger": false,
      "metar": "METAR BKPR 040600Z 00000KT 4500 BR FEW010 00/M00 Q1029 TEMPO 2000 BR",
      "taf": "TAF BKPR 040530Z 0406/0506 17006KT 3000 BR FEW030"
    },
    {
      "icao": "EBCI",
      "alert": "OK",
      "vis_m": 9000,
      "fzfg": false,
      "metar_trigger": false,
      "taf_trigger": false,
      "metar": "METAR EBCI 040550Z VRB02KT 9000 NSC 06/04 Q1026 NOSIG",
      "taf": "TAF EBCI 040513Z 0406/0512 10002KT CAVOK"
    },
    {
      "icao": "EDDB",
      "alert": "OK",
      "vis_m": 5000,
      "fzfg": false,
      "metar_trigger": false,
      "taf_trigger": false,
      "metar": "METAR EDDB 040550Z AUTO 34003KT 5000 2300 BR NCD 02/01 Q1028 NOSIG",
      "taf": "TAF EDDB 040500Z 0406/0506 02003KT CAVOK"
    },
    {
      "icao": "EDDH",
      "alert": "OK",
      "vis_m": 9999,
      "fzfg": false,
      "metar_trigger": false,
      "taf_trigger": false,
      "metar": "METAR EDDH 040550Z AUTO VRB02KT CAVOK M01/M02 Q1029 TEMPO 2000 BCFG",
      "taf": "TAF EDDH 040500Z 0406/0512 04004KT CAVOK"
    },
    {
      "icao": "EDDK",
      "alert": "OK",
      "vis_m": 9999,
      "fzfg": false,
      "metar_trigger": false,
      "taf_trigger": false,
      "metar": "METAR EDDK 040550Z AUTO VRB01KT CAVOK 01/01 Q1027 TEMPO 3000 BCFG",
      "taf": "TAF EDDK 040500Z 0406/0512 VRB03KT CAVOK"
    },
    {
      "icao": "EDDN",
      "alert": "OK",
      "vis_m": 4500,
      "fzfg": false,
      "metar_trigger": false,
      "taf_trigger": false,
      "metar": "METAR EDDN 040550Z AUTO 11003KT 4500 1100 R10/P2000N BR FEW003 M00/M01 Q1027 BECMG 6000",
      "taf": "TAF EDDN 040500Z 0406/0506 10003KT CAVOK"
    },
    {
      "icao": "EDDS",
      "alert": "OK",
      "vis_m": 9000,
      "fzfg": false,
      "metar_trigger": false,
      "taf_trigger": false,
      "metar": "METAR EDDS 040550Z AUTO VRB01KT 9000 NSC 01/01 Q1026 NOSIG",
      "taf": "TAF EDDS 040500Z 0406/0506 VRB03KT CAVOK"
    },
    {
      "icao": "EDFH",
      "alert": "OK",
      "vis_m": 9999,
      "fzfg": false,
      "metar_trigger": false,
      "taf_trigger": false,
      "metar": "METAR EDFH 040550Z 15005KT CAVOK 07/04 Q1026",
      "taf": "TAF EDFH 040500Z 0406/0506 14004KT CAVOK"
    },
    {
      "icao": "EDJA",
      "alert": "OK",
      "vis_m": 350,
      "fzfg": true,
      "metar_trigger": false,
      "taf_trigger": false,
      "metar": "METAR EDJA 040550Z VRB01KT 0350 R24/0350N FZFG VV/// M01/M02 Q1026",
      "taf": "TAF EDJA 040500Z 0406/0415 VRB03KT 0600 FG BKN002"
    },
    {
      "icao": "EDLW",
      "alert": "OK",
      "vis_m": 9999,
      "fzfg": false,
      "metar_trigger": false,
      "taf_trigger": false,
      "metar": "METAR EDLW 040550Z 12005KT CAVOK 04/02 Q1026",
      "taf": "TAF EDLW 040500Z 0406/0506 07004KT CAVOK"
    },
    {
      "icao": "EDNY",
      "alert": "OK",
      "vis_m": 900,
      "fzfg": false,
      "metar_trigger": false,
      "taf_trigger": false,
      "metar": "METAR EDNY 040550Z 04004KT 350V080 0900 R24/1600U FG OVC002 01/01 Q1027",
      "taf": "TAF EDNY 040500Z 0406/0415 04003KT 0600 FG SCT001 BKN002"
    },
    {
      "icao": "EDSB",
      "alert": "OK",
      "vis_m": 9000,
      "fzfg": false,
      "metar_trigger": false,
      "taf_trigger": false,
      "metar": "METAR EDSB 040550Z VRB02KT 9000 BCFG NSC 01/01 Q1026",
      "taf": "TAF EDSB 040500Z 0406/0506 VRB03KT CAVOK"
    },
    {
      "icao": "EETN",
      "alert": "OK",
      "vis_m": 9999,
      "fzfg": false,
      "metar_trigger": false,
      "taf_trigger": false,
      "metar": "METAR EETN 040550Z 26010KT CAVOK 01/M01 Q1009 NOSIG",
      "taf": ""
    },
    {
      "icao": "EFTU",
      "alert": "OK",
      "vis_m": 9999,
      "fzfg": false,
      "metar_trigger": false,
      "taf_trigger": false,
      "metar": "METAR EFTU 040550Z AUTO 28008KT CAVOK M01/M03 Q1009",
      "taf": "TAF EFTU 040527Z 0406/0506 27007KT CAVOK"
    },
    {
      "icao": "EGBB",
      "alert": "OK",
      "vis_m": 7000,
      "fzfg": false,
      "metar_trigger": false,
      "taf_trigger": false,
      "metar": "METAR EGBB 040550Z 12003KT 7000 NSC 02/02 Q1026",
      "taf": ""
    },
    {
      "icao": "EGGP",
      "alert": "OK",
      "vis_m": 9999,
      "fzfg": false,
      "metar_trigger": false,
      "taf_trigger": false,
      "metar": "METAR EGGP 040550Z 11005KT CAVOK 06/03 Q1025",
      "taf": "TAF EGGP 040457Z 0406/0506 14008KT 9999 SCT030"
    },
    {
      "icao": "EGGW",
      "alert": "OK",
      "vis_m": 100,
      "fzfg": false,
      "metar_trigger": false,
      "taf_trigger": false,
      "metar": "METAR EGGW 040550Z AUTO 12006KT 0100 R07/0400N FG OVC001 04/04 Q1026",
      "taf": "TAF EGGW 040454Z 0406/0506 07006KT 0300 FG BKN002"
    },
    {
      "icao": "EGKK",
      "alert": "OK",
      "vis_m": 1700,
      "fzfg": false,
      "metar_trigger": false,
      "taf_trigger": false,
      "metar": "METAR EGKK 040550Z 06007KT 1700 BR OVC001 06/06 Q1026",
      "taf": "TAF EGKK 040457Z 0406/0512 07006KT 9999 SCT003"
    },
    {
      "icao": "EGNM",
      "alert": "OK",
      "vis_m": 9999,
      "fzfg": false,
      "metar_trigger": false,
      "taf_trigger": false,
      "metar": "METAR EGNM 040550Z 11005KT 9999 BKN028 05/03 Q1026",
      "taf": "TAF EGNM 040454Z 0406/0506 13007KT 9999 SCT030"
    },
    {
      "icao": "EGPD",
      "alert": "OK",
      "vis_m": 9999,
      "fzfg": false,
      "metar_trigger": false,
      "taf_trigger": false,
      "metar": "METAR EGPD 040550Z COR AUTO 18008KT 9999 NCD 02/01 Q1023 NOSIG",
      "taf": "TAF EGPD 040454Z 0406/0506 17007KT 9999 FEW025"
    },
    {
      "icao": "EGPF",
      "alert": "OK",
      "vis_m": 9999,
      "fzfg": false,
      "metar_trigger": false,
      "taf_trigger": false,
      "metar": "METAR EGPF 040550Z AUTO 25004KT 230V290 9999 OVC022 01/01 Q1023",
      "taf": "TAF EGPF 040501Z 0406/0506 16006KT 9999 SCT030"
    },
    {
      "icao": "EHBK",
      "alert": "OK",
      "vis_m": 7000,
      "fzfg": false,
      "metar_trigger": false,
      "taf_trigger": false,
      "metar": "METAR EHBK 040555Z AUTO 21001KT 7000 NCD 04/04 Q1026 TEMPO 4000 BR",
      "taf": "TAF EHBK 040513Z 0406/0512 06003KT 4000 BR NSC"
    },
    {
      "icao": "EHEH",
      "alert": "OK",
      "vis_m": 300,
      "fzfg": false,
      "metar_trigger": false,
      "taf_trigger": false,
      "metar": "METAR EHEH 040555Z AUTO 04003KT 0300 R21/1100D FG NCD 03/02 Q1026 RED TEMPO 0400 FG BKN001 RMK LVP BRAVO TREND REMOTE BY EHWX",
      "taf": "TAF EHEH 040518Z 0406/0512 06003KT 1200 BR MIFG NSC"
    },
    {
      "icao": "EKBI",
      "alert": "OK",
      "vis_m": 150,
      "fzfg": true,
      "metar_trigger": false,
      "taf_trigger": false,
      "metar": "METAR EKBI 040550Z 28004KT 0150 R09/0600N R27/0500N FZFG VV002 00/00 Q1029",
      "taf": "TAF EKBI 040527Z 0406/0506 26005KT 9999 FEW012"
    },
    {
      "icao": "EKCH",
      "alert": "OK",
      "vis_m": 9999,
      "fzfg": false,
      "metar_trigger": false,
      "taf_trigger": false,
      "metar": "METAR EKCH 040550Z AUTO 27009KT 9999 FEW008/// 02/01 Q1027 NOSIG",
      "taf": ""
    },
    {
      "icao": "ENAL",
      "alert": "OK",
      "vis_m": 9999,
      "fzfg": false,
      "metar_trigger": false,
      "taf_trigger": false,
      "metar": "METAR ENAL 040550Z 23013KT 9999 -DZ BKN031 06/04 Q1018",
      "taf": "TAF ENAL 040500Z 0406/0415 23018KT 9999 FEW012 BKN030"
    },
    {
      "icao": "ENBR",
      "alert": "OK",
      "vis_m": 9999,
      "fzfg": false,
      "metar_trigger": false,
      "taf_trigger": false,
      "metar": "METAR ENBR 040550Z 24007KT 190V260 9999 VCSH FEW028 SCT044 06/04 Q1024 NOSIG RMK WIND 1200FT 27017KT",
      "taf": "TAF ENBR 040500Z 0406/0506 24008KT 9999 FEW008 BKN020"
    },
    {
      "icao": "ENGM",
      "alert": "OK",
      "vis_m": 9999,
      "fzfg": false,
      "metar_trigger": false,
      "taf_trigger": false,
      "metar": "METAR ENGM 040550Z VRB02KT CAVOK M02/M06 Q1019 NOSIG",
      "taf": "TAF ENGM 040500Z 0406/0506 19006KT CAVOK"
    },
    {
      "icao": "ENHD",
      "alert": "OK",
      "vis_m": 8000,
      "fzfg": false,
      "metar_trigger": false,
      "taf_trigger": false,
      "metar": "METAR ENHD 040550Z 23011KT 8000 BKN040 06/05 Q1026",
      "taf": "TAF ENHD 040500Z 0406/0415 24008KT 9999 BKN030"
    },
    {
      "icao": "ENTC",
      "alert": "OK",
      "vis_m": 9999,
      "fzfg": false,
      "metar_trigger": false,
      "taf_trigger": false,
      "metar": "METAR ENTC 040550Z VRB02KT 9999 BKN047 M04/M05 Q0994 RMK WIND 2600FT 33006KT",
      "taf": "TAF ENTC 040500Z 0406/0506 18005KT 9999 FEW015 SCT030"
    },
    {
      "icao": "ENTO",
      "alert": "OK",
      "vis_m": 9999,
      "fzfg": false,
      "metar_trigger": false,
      "taf_trigger": false,
      "metar": "METAR ENTO 040550Z 26003KT 180V330 CAVOK 04/M03 Q1021 NOSIG",
      "taf": "TAF ENTO 040500Z 0406/0506 24006KT CAVOK"
    },
    {
      "icao": "ENVA",
      "alert": "OK",
      "vis_m": 9999,
      "fzfg": false,
      "metar_trigger": false,
      "taf_trigger": false,
      "metar": "METAR ENVA 040550Z 28030KT 9999 FEW041 SCT050 06/M00 Q1013 TEMPO 27032G45 RMK WIND 670FT 29036G46KT",
      "taf": "TAF ENVA 040500Z 0406/0506 27032G45KT 9999 FEW020 BKN040"
    },
    {
      "icao": "ENZV",
      "alert": "OK",
      "vis_m": 9999,
      "fzfg": false,
      "metar_trigger": false,
      "taf_trigger": false,
      "metar": "METAR ENZV 040550Z 26009KT 9999 SCT036 05/04 Q1027 NOSIG",
      "taf": "TAF ENZV 040500Z 0406/0506 24006KT 9999 SCT030"
    },
    {
      "icao": "EPGD",
      "alert": "OK",
      "vis_m": 9999,
      "fzfg": false,
      "metar_trigger": false,
      "taf_trigger": false,
      "metar": "METAR EPGD 040600Z 28011KT 9999 SCT009 01/M00 Q1023",
      "taf": "TAF EPGD 040530Z 0406/0506 29012KT CAVOK"
    },
    {
      "icao": "EPKK",
      "alert": "OK",
      "vis_m": 8000,
      "fzfg": false,
      "metar_trigger": false,
      "taf_trigger": false,
      "metar": "METAR EPKK 040600Z VRB01KT 8000 NSC M01/M02 Q1026",
      "taf": "TAF EPKK 040530Z 0406/0506 VRB02KT CAVOK"
    },
    {
      "icao": "EPKT",
      "alert": "OK",
      "vis_m": 5000,
      "fzfg": false,
      "metar_trigger": false,
      "taf_trigger": false,
      "metar": "METAR EPKT 040600Z 35002KT 5000 BR NSC M04/M04 Q1026",
      "taf": "TAF EPKT 040530Z 0406/0506 VRB02KT CAVOK"
    },
    {
      "icao": "EPLB",
      "alert": "OK",
      "vis_m": 9999,
      "fzfg": false,
      "metar_trigger": false,
      "taf_trigger": false,
      "metar": "METAR EPLB 040600Z 27008KT CAVOK 03/00 Q1023",
      "taf": "TAF EPLB 040530Z 0406/0506 29010KT CAVOK"
    },
    {
      "icao": "EPMO",
      "alert": "OK",
      "vis_m": 7000,
      "fzfg": false,
      "metar_trigger": false,
      "taf_trigger": false,
      "metar": "METAR EPMO 040600Z 25005KT 7000 NSC 01/M00 Q1023",
      "taf": "TAF EPMO 040530Z 0406/0506 29008KT CAVOK"
    },
    {
      "icao": "EPPO",
      "alert": "OK",
      "vis_m": 9999,
      "fzfg": false,
      "metar_trigger": false,
      "taf_trigger": false,
      "metar": "METAR EPPO 040600Z 33003KT CAVOK 00/M01 Q1026",
      "taf": "TAF EPPO 040530Z 0406/0506 33005KT CAVOK"
    },
    {
      "icao": "EPRA",
      "alert": "OK",
      "vis_m": 9999,
      "fzfg": false,
      "metar_trigger": false,
      "taf_trigger": false,
      "metar": "METAR EPRA 040600Z 25006KT CAVOK 04/M02 Q1024",
      "taf": "TAF EPRA 040530Z 0406/0415 23006KT CAVOK"
    },
    {
      "icao": "EPRZ",
      "alert": "OK",
      "vis_m": 9999,
      "fzfg": false,
      "metar_trigger": false,
      "taf_trigger": false,
      "metar": "METAR EPRZ 040600Z 22002KT CAVOK 01/M02 Q1025",
      "taf": "TAF EPRZ 040530Z 0406/0506 24002KT CAVOK"
    },
    {
      "icao": "EPSC",
      "alert": "OK",
      "vis_m": 200,
      "fzfg": true,
      "metar_trigger": false,
      "taf_trigger": false,
      "metar": "METAR EPSC 040600Z 13002KT 0200 R31/0325N FZFG NSC M03/M03 Q1027",
      "taf": "TAF EPSC 040530Z 0406/0506 VRB02KT 0200 FZFG BKN001"
    },
    {
      "icao": "EPSY",
      "alert": "OK",
      "vis_m": 9999,
      "fzfg": false,
      "metar_trigger": false,
      "taf_trigger": false,
      "metar": "METAR EPSY 040600Z 26004KT CAVOK M00/M01 Q1022",
      "taf": "TAF EPSY 040530Z 0406/0415 31008KT CAVOK"
    },
    {
      "icao": "EPWA",
      "alert": "OK",
      "vis_m": 9999,
      "fzfg": false,
      "metar_trigger": false,
      "taf_trigger": false,
      "metar": "METAR EPWA 040600Z 26005KT CAVOK 03/M01 Q1023 NOSIG",
      "taf": "TAF EPWA 040530Z 0406/0506 29007KT CAVOK"
    },
    {
      "icao": "EPWR",
      "alert": "OK",
      "vis_m": 9999,
      "fzfg": false,
      "metar_trigger": false,
      "taf_trigger": false,
      "metar": "METAR EPWR 040600Z VRB02KT 9999 MIFG NSC M02/M02 Q1026",
      "taf": "TAF EPWR 040530Z 0406/0506 33006KT CAVOK"
    },
    {
      "icao": "ESGG",
      "alert": "OK",
      "vis_m": 9999,
      "fzfg": false,
      "metar_trigger": false,
      "taf_trigger": false,
      "metar": "METAR ESGG 040550Z 28005KT CAVOK 01/M00 Q1023",
      "taf": "TAF ESGG 040530Z 0406/0506 27008KT CAVOK"
    },
    {
      "icao": "ESKN",
      "alert": "OK",
      "vis_m": 9999,
      "fzfg": false,
      "metar_trigger": false,
      "taf_trigger": false,
      "metar": "METAR ESKN 040550Z 27011KT CAVOK 01/M03 Q1017",
      "taf": "TAF ESKN 040530Z 0406/0506 27012KT CAVOK"
    },
    {
      "icao": "ESMS",
      "alert": "OK",
      "vis_m": 9999,
      "fzfg": false,
      "metar_trigger": false,
      "taf_trigger": false,
      "metar": "METAR ESMS 040550Z 28004KT 9999 FEW009 02/02 Q1025",
      "taf": "TAF ESMS 040527Z 0406/0506 30010KT CAVOK"
    },
    {
      "icao": "ESSA",
      "alert": "OK",
      "vis_m": 9999,
      "fzfg": false,
      "metar_trigger": false,
      "taf_trigger": false,
      "metar": "METAR ESSA 040550Z 25009KT CAVOK 00/M04 Q1014 NOSIG",
      "taf": "TAF ESSA 040530Z 0406/0506 26005KT CAVOK"
    },
    {
      "icao": "EYKA",
      "alert": "OK",
      "vis_m": 5000,
      "fzfg": false,
      "metar_trigger": false,
      "taf_trigger": false,
      "metar": "METAR EYKA 040550Z 26009KT 5000 BR OVC004 01/00 Q1019",
      "taf": "TAF EYKA 040500Z 0406/0506 27012KT 5000 BR BKN005"
    },
    {
      "icao": "EYPA",
      "alert": "OK",
      "vis_m": 9999,
      "fzfg": false,
      "metar_trigger": false,
      "taf_trigger": false,
      "metar": "METAR EYPA 040550Z 29004KT 230V340 CAVOK 01/00 Q1019",
      "taf": "TAF EYPA 040500Z 0406/0506 VRB05KT 9000 NSC"
    },
    {
      "icao": "EYVI",
      "alert": "OK",
      "vis_m": 8000,
      "fzfg": false,
      "metar_trigger": false,
      "taf_trigger": false,
      "metar": "METAR EYVI 040550Z 28008KT 8000 OVC005 02/01 Q1017 TEMPO 3000 BR OVC002",
      "taf": "TAF EYVI 040507Z 0406/0506 28012KT 9000 OVC005"
    },
    {
      "icao": "GCFV",
      "alert": "OK",
      "vis_m": 9999,
      "fzfg": false,
      "metar_trigger": false,
      "taf_trigger": false,
      "metar": "METAR GCFV 040600Z 32017KT 9999 SCT030 BKN035 BKN040 16/11 Q1012 RERA",
      "taf": "TAF GCFV 040200Z 0403/0503 31015KT 9999 SCT035 TX20/0414Z TN14/0406Z"
    },
    {
      "icao": "GCLP",
      "alert": "OK",
      "vis_m": 9999,
      "fzfg": false,
      "metar_trigger": false,
      "taf_trigger": false,
      "metar": "METAR GCLP 040600Z 34019G29KT 310V010 9999 SCT045 17/10 Q1014 NOSIG",
      "taf": "TAF GCLP 040200Z 0403/0503 34016KT 9999 SCT030 TX21/0414Z TN14/0406Z"
    },
    {
      "icao": "GCTS",
      "alert": "OK",
      "vis_m": 9999,
      "fzfg": false,
      "metar_trigger": false,
      "taf_trigger": false,
      "metar": "METAR GCTS 040600Z 02007KT 9999 FEW035 14/07 Q1016 NOSIG",
      "taf": "TAF GCTS 040200Z 0403/0503 35007KT 9999 SCT035 TX22/0414Z TN13/0406Z"
    },
    {
      "icao": "GMAD",
      "alert": "OK",
      "vis_m": 8000,
      "fzfg": false,
      "metar_trigger": false,
      "taf_trigger": false,
      "metar": "METAR GMAD 040600Z 06005KT 8000 FEW023 SCT080 06/05 Q1011 NOSIG",
      "taf": "TAF GMAD 040500Z 0406/0512 22004KT 8000 SCT010 SCT080"
    },
    {
      "icao": "GMMN",
      "alert": "OK",
      "vis_m": 9999,
      "fzfg": false,
      "metar_trigger": false,
      "taf_trigger": false,
      "metar": "METAR GMMN 040600Z 19007KT 9999 -RA BKN020 08/06 Q1011 NOSIG",
      "taf": "TAF GMMN 040500Z 0406/0512 19008KT 9999 -RA BKN026"
    },
    {
      "icao": "GMMX",
      "alert": "OK",
      "vis_m": 8000,
      "fzfg": false,
      "metar_trigger": false,
      "taf_trigger": false,
      "metar": "METAR GMMX 040600Z 08003KT 8000 SCT030 07/05 Q1011 NOSIG",
      "taf": "TAF GMMX 040500Z 0406/0512 06006KT 8000 SCT030 SCT100"
    },
    {
      "icao": "HEGN",
      "alert": "OK",
      "vis_m": 9999,
      "fzfg": false,
      "metar_trigger": false,
      "taf_trigger": false,
      "metar": "METAR HEGN 040500Z 30011KT CAVOK 14/03 Q1022 NOSIG",
      "taf": "TAF HEGN 040500Z 0406/0512 31008G20KT CAVOK"
    },
    {
      "icao": "HEMA",
      "alert": "OK",
      "vis_m": 9999,
      "fzfg": false,
      "metar_trigger": false,
      "taf_trigger": false,
      "metar": "METAR HEMA 040500Z 32010KT CAVOK 18/01 Q1019 NOSIG",
      "taf": "TAF HEMA 040500Z 0406/0512 32008G20KT CAVOK"
    },
    {
      "icao": "HESH",
      "alert": "OK",
      "vis_m": 9999,
      "fzfg": false,
      "metar_trigger": false,
      "taf_trigger": false,
      "metar": "METAR HESH 040500Z 33010KT CAVOK 18/04 Q1020 NOSIG",
      "taf": "TAF HESH 040500Z 0406/0512 33008G18KT CAVOK"
    },
    {
      "icao": "HESX",
      "alert": "OK",
      "vis_m": 3000,
      "fzfg": false,
      "metar_trigger": false,
      "taf_trigger": false,
      "metar": "METAR HESX 040500Z 26003KT 3000 BR NSC 07/06 Q1023 NOSIG",
      "taf": "TAF HESX 040500Z 0406/0512 02008KT 9999 SCT020"
    },
    {
      "icao": "LATI",
      "alert": "OK",
      "vis_m": 5000,
      "fzfg": false,
      "metar_trigger": false,
      "taf_trigger": false,
      "metar": "METAR LATI 040550Z 15004KT 5000 MIFG NSC 05/04 Q1027 NOSIG",
      "taf": "TAF LATI 040500Z 0406/0506 VRB05KT CAVOK TX19/0412Z TN05/0504Z"
    },
    {
      "icao": "LBPD",
      "alert": "OK",
      "vis_m": 9999,
      "fzfg": false,
      "metar_trigger": false,
      "taf_trigger": false,
      "metar": "METAR LBPD 040600Z AUTO 00000KT 9999 NCD 02/02 Q1030 TEMPO 3000 BR",
      "taf": "TAF LBPD 040500Z 0406/0506 VRB03KT CAVOK"
    },
    {
      "icao": "LBSF",
      "alert": "OK",
      "vis_m": 8000,
      "fzfg": false,
      "metar_trigger": false,
      "taf_trigger": false,
      "metar": "METAR LBSF 040600Z 10002KT 8000 NSC 00/M01 Q1029 TEMPO 5000 BR",
      "taf": "TAF LBSF 040500Z 0406/0506 VRB03KT CAVOK"
    },
    {
      "icao": "LBWN",
      "alert": "OK",
      "vis_m": 1700,
      "fzfg": false,
      "metar_trigger": false,
      "taf_trigger": false,
      "metar": "METAR LBWN 040600Z VRB02KT 1700 R09/1300N BR NSC 02/02 Q1030 TEMPO 0700 BCFG",
      "taf": "TAF LBWN 040500Z 0406/0506 VRB04KT 2000 BR NSC"
    },
    {
      "icao": "LCLK",
      "alert": "OK",
      "vis_m": 9999,
      "fzfg": false,
      "metar_trigger": false,
      "taf_trigger": false,
      "metar": "METAR LCLK 040600Z VRB03KT 9999 FEW030 13/07 Q1021 NOSIG",
      "taf": "TAF LCLK 040530Z 0406/0506 31007KT 9999 FEW030"
    },
    {
      "icao": "LCPH",
      "alert": "OK",
      "vis_m": 9999,
      "fzfg": false,
      "metar_trigger": false,
      "taf_trigger": false,
      "metar": "METAR LCPH 040600Z 36005KT 320V020 9999 FEW026 SCT030 15/09 Q1021 NOSIG",
      "taf": "TAF LCPH 040530Z 0406/0506 35007KT 9999 SCT025"
    },
    {
      "icao": "LEAL",
      "alert": "OK",
      "vis_m": 9999,
      "fzfg": false,
      "metar_trigger": false,
      "taf_trigger": false,
      "metar": "METAR LEAL 040600Z 36003KT 330V100 9999 BKN053 15/10 Q1013 NOSIG",
      "taf": "TAF LEAL 040500Z 0406/0506 05009KT 9999 FEW020 TX21/0412Z TN12/0407Z"
    },
    {
      "icao": "LEBB",
      "alert": "OK",
      "vis_m": 9999,
      "fzfg": false,
      "metar_trigger": false,
      "taf_trigger": false,
      "metar": "METAR LEBB 040600Z 08003KT CAVOK 10/07 Q1018 NOSIG",
      "taf": "TAF LEBB 040500Z 0406/0506 13009KT CAVOK TX21/0415Z TN09/0407Z"
    },
    {
      "icao": "LEBL",
      "alert": "OK",
      "vis_m": 9999,
      "fzfg": false,
      "metar_trigger": false,
      "taf_trigger": false,
      "metar": "METAR LEBL 040600Z 06019KT 9999 BKN025 15/11 Q1020 NOSIG",
      "taf": "TAF LEBL 040500Z 0406/0506 05015KT 9999 SCT020 TX17/0412Z TN13/0406Z"
    },
    {
      "icao": "LECH",
      "alert": "OK",
      "vis_m": null,
      "fzfg": false,
      "metar_trigger": false,
      "taf_trigger": false,
      "metar": "METAR LECH 040600Z AUTO /////KT //// R06///// ////// ///// Q////",
      "taf": ""
    },
    {
      "icao": "LEMD",
      "alert": "OK",
      "vis_m": 9999,
      "fzfg": false,
      "metar_trigger": false,
      "taf_trigger": false,
      "metar": "METAR LEMD 040600Z 36003KT 310V070 CAVOK 07/04 Q1017 NOSIG",
      "taf": "TAF LEMD 040500Z 0406/0512 36005KT CAVOK TX18/0414Z TN07/0407Z"
    },
    {
      "icao": "LEMG",
      "alert": "OK",
      "vis_m": 9999,
      "fzfg": false,
      "metar_trigger": false,
      "taf_trigger": false,
      "metar": "METAR LEMG 040600Z 34004KT 290V010 9999 FEW030 14/10 Q1010 NOSIG",
      "taf": "TAF LEMG 040500Z 0406/0506 VRB03KT 9999 FEW040 TX17/0414Z TN12/0407Z"
    },
    {
      "icao": "LEVC",
      "alert": "OK",
      "vis_m": 9999,
      "fzfg": false,
      "metar_trigger": false,
      "taf_trigger": false,
      "metar": "METAR LEVC 040600Z 04010KT 360V070 9999 BKN014 OVC017 14/10 Q1018 NOSIG",
      "taf": "TAF LEVC 040500Z 0406/0506 05013KT 9999 BKN020 TX17/0412Z TN13/0407Z"
    },
    {
      "icao": "LEXJ",
      "alert": "OK",
      "vis_m": 9999,
      "fzfg": false,
      "metar_trigger": false,
      "taf_trigger": false,
      "metar": "METAR LEXJ 040600Z 17002KT CAVOK 08/05 Q1017",
      "taf": "TAF LEXJ 040200Z 0403/0503 13007KT CAVOK TX21/0412Z TN09/0407Z"
    },
    {
      "icao": "LEZG",
      "alert": "OK",
      "vis_m": 1500,
      "fzfg": false,
      "metar_trigger": false,
      "taf_trigger": false,
      "metar": "METAR LEZG 040600Z 24002KT 1500 0200W R30R/P2000 R12R/0300N R30L/1800D R12L/0800U BCFG BKN001 07/07 Q1020 NOSIG",
      "taf": "TAF LEZG 040500Z 0406/0506 VRB03KT 9999 FEW030 TX17/0415Z TN07/0406Z"
    },
    {
      "icao": "LEZL",
      "alert": "OK",
      "vis_m": 9000,
      "fzfg": false,
      "metar_trigger": false,
      "taf_trigger": false,
      "metar": "METAR LEZL 040600Z 16005KT 9000 NSC 13/12 Q1011 NOSIG",
      "taf": "TAF LEZL 040200Z 0403/0503 30005KT CAVOK TX18/0415Z TN11/0407Z"
    },
    {
      "icao": "LFBD",
      "alert": "OK",
      "vis_m": 9999,
      "fzfg": false,
      "metar_trigger": false,
      "taf_trigger": false,
      "metar": "METAR LFBD 040600Z AUTO 09008KT CAVOK 10/08 Q1020 TEMPO 4000 BR BKN008",
      "taf": "TAF LFBD 040500Z 0406/0512 07010KT CAVOK TX19/0414Z TN07/0406Z"
    },
    {
      "icao": "LFLL",
      "alert": "OK",
      "vis_m": 9999,
      "fzfg": false,
      "metar_trigger": false,
      "taf_trigger": false,
      "metar": "METAR LFLL 040600Z 20002KT CAVOK 06/04 Q1024 NOSIG",
      "taf": "TAF LFLL 040500Z 0406/0512 VRB02KT CAVOK"
    },
    {
      "icao": "LFLS",
      "alert": "OK",
      "vis_m": 9999,
      "fzfg": false,
      "metar_trigger": false,
      "taf_trigger": false,
      "metar": "METAR LFLS 040600Z AUTO 07009KT CAVOK 07/04 Q1024 NOSIG",
      "taf": "TAF LFLS 040200Z 0403/0503 09008KT CAVOK"
    },
    {
      "icao": "LFMN",
      "alert": "OK",
      "vis_m": 9999,
      "fzfg": false,
      "metar_trigger": false,
      "taf_trigger": false,
      "metar": "METAR LFMN 040600Z 33010KT CAVOK 11/04 Q1024 NOSIG",
      "taf": "TAF LFMN 040200Z 0403/0509 33010KT CAVOK"
    },
    {
      "icao": "LFOB",
      "alert": "OK",
      "vis_m": 4600,
      "fzfg": false,
      "metar_trigger": false,
      "taf_trigger": false,
      "metar": "METAR LFOB 040600Z AUTO 32003KT 4600 BR NSC 02/02 Q1025 TEMPO 0900 FG VV///",
      "taf": "TAF LFOB 040500Z 0406/0506 VRB03KT CAVOK"
    },
    {
      "icao": "LFPO",
      "alert": "OK",
      "vis_m": 9999,
      "fzfg": false,
      "metar_trigger": false,
      "taf_trigger": false,
      "metar": "METAR LFPO 040600Z 03004KT CAVOK 07/05 Q1024 NOSIG",
      "taf": "TAF LFPO 040500Z 0406/0512 06003KT CAVOK"
    },
    {
      "icao": "LFSB",
      "alert": "OK",
      "vis_m": 9999,
      "fzfg": false,
      "metar_trigger": false,
      "taf_trigger": false,
      "metar": "METAR LFSB 040600Z AUTO VRB02KT CAVOK 02/01 Q1026 TEMPO 4500 BR",
      "taf": ""
    },
    {
      "icao": "LGAV",
      "alert": "OK",
      "vis_m": 9999,
      "fzfg": false,
      "metar_trigger": false,
      "taf_trigger": false,
      "metar": "METAR LGAV 040550Z VRB02KT 9999 FEW025 SCT070 10/05 Q1028 NOSIG",
      "taf": "TAF LGAV 040500Z 0406/0506 02018KT 9999 FEW020"
    },
    {
      "icao": "LGTS",
      "alert": "OK",
      "vis_m": 9999,
      "fzfg": false,
      "metar_trigger": false,
      "taf_trigger": false,
      "metar": "METAR LGTS 040550Z 09004KT 9999 SCT018 07/05 Q1030 NOSIG",
      "taf": "TAF LGTS 040500Z 0406/0506 VRB03KT 9999 FEW008 SCT025"
    },
    {
      "icao": "LHBP",
      "alert": "OK",
      "vis_m": 8000,
      "fzfg": false,
      "metar_trigger": false,
      "taf_trigger": false,
      "metar": "METAR LHBP 040600Z 00000KT 8000 MIFG NSC M01/M02 Q1027 NOSIG",
      "taf": "TAF LHBP 040515Z 0406/0506 VRB03KT CAVOK"
    },
    {
      "icao": "LHDC",
      "alert": "OK",
      "vis_m": 6000,
      "fzfg": false,
      "metar_trigger": false,
      "taf_trigger": false,
      "metar": "METAR LHDC 040545Z AUTO 18001KT 6000 NCD 01/M01 Q1028",
      "taf": "TAF LHDC 040515Z 0406/0415 VRB03KT CAVOK"
    },
    {
      "icao": "LIBD",
      "alert": "OK",
      "vis_m": 4500,
      "fzfg": false,
      "metar_trigger": false,
      "taf_trigger": false,
      "metar": "METAR LIBD 040550Z 23005KT 4500 BR NSC 06/05 Q1027",
      "taf": "TAF LIBD 040500Z 0406/0506 VRB05KT 6000 SCT015"
    },
    {
      "icao": "LIBG",
      "alert": "OK",
      "vis_m": null,
      "fzfg": false,
      "metar_trigger": false,
      "taf_trigger": false,
      "metar": "",
      "taf": ""
    },
    {
      "icao": "LIBP",
      "alert": "OK",
      "vis_m": 4900,
      "fzfg": false,
      "metar_trigger": false,
      "taf_trigger": false,
      "metar": "METAR LIBP 040550Z AUTO VRB02KT 4900 BR FEW024/// BKN120/// 10/10 Q1027",
      "taf": "TAF LIBP 040500Z 0406/0506 VRB05KT 6000 BKN025"
    },
    {
      "icao": "LIBR",
      "alert": "OK",
      "vis_m": 7000,
      "fzfg": false,
      "metar_trigger": false,
      "taf_trigger": false,
      "metar": "METAR LIBR 040550Z 30006KT 7000 3000SW BCFG SCT015 09/08 Q1027",
      "taf": "TAF LIBR 040500Z 0406/0506 VRB05KT 8000 SCT020"
    },
    {
      "icao": "LICA",
      "alert": "OK",
      "vis_m": 9999,
      "fzfg": false,
      "metar_trigger": false,
      "taf_trigger": false,
      "metar": "METAR LICA 040550Z AUTO 05014KT 9999 NCD 13/11 Q1026",
      "taf": "TAF LICA 040500Z 0406/0506 07018KT CAVOK"
    },
    {
      "icao": "LICC",
      "alert": "OK",
      "vis_m": 9999,
      "fzfg": false,
      "metar_trigger": false,
      "taf_trigger": false,
      "metar": "METAR LICC 040550Z VRB01KT 9999 FEW020 SCT040 BKN110 13/11 Q1027",
      "taf": "TAF LICC 040500Z 0406/0506 VRB05KT 9999 SCT040"
    },
    {
      "icao": "LICJ",
      "alert": "OK",
      "vis_m": 9999,
      "fzfg": false,
      "metar_trigger": false,
      "taf_trigger": false,
      "metar": "METAR LICJ 040550Z 08003KT 050V110 CAVOK 13/09 Q1024",
      "taf": "TAF LICJ 040500Z 0406/0506 VRB05KT 9999 SCT025"
    },
    {
      "icao": "LIMC",
      "alert": "OK",
      "vis_m": 8000,
      "fzfg": false,
      "metar_trigger": false,
      "taf_trigger": false,
      "metar": "METAR LIMC 040550Z 36004KT 8000 MIFG NSC 05/04 Q1027 NOSIG",
      "taf": "TAF LIMC 040500Z 0406/0512 VRB05KT 8000 SCT030"
    },
    {
      "icao": "LIME",
      "alert": "OK",
      "vis_m": 8000,
      "fzfg": false,
      "metar_trigger": false,
      "taf_trigger": false,
      "metar": "METAR LIME 040550Z 02003KT 8000 SCT045 08/06 Q1027 NOSIG",
      "taf": "TAF LIME 040500Z 0406/0506 VRB05KT 8000 BKN025"
    },
    {
      "icao": "LIMF",
      "alert": "OK",
      "vis_m": 6000,
      "fzfg": false,
      "metar_trigger": false,
      "taf_trigger": false,
      "metar": "METAR LIMF 040550Z 35003KT 6000 SCT048 09/05 Q1027",
      "taf": "TAF LIMF 040500Z 0406/0506 VRB04KT 7000 BKN035"
    },
    {
      "icao": "LIMJ",
      "alert": "OK",
      "vis_m": 9999,
      "fzfg": false,
      "metar_trigger": false,
      "taf_trigger": false,
      "metar": "METAR LIMJ 040550Z AUTO 03014KT 9999 SCT170/// 12/07 Q1025",
      "taf": "TAF LIMJ 040500Z 0406/0506 03012KT 9999 SCT050"
    },
    {
      "icao": "LIPE",
      "alert": "OK",
      "vis_m": 5000,
      "fzfg": false,
      "metar_trigger": false,
      "taf_trigger": false,
      "metar": "METAR LIPE 040550Z 19005KT 5000 BR BKN015 07/05 Q1027",
      "taf": "TAF LIPE 040500Z 0406/0506 VRB04KT 6000 SCT015"
    },
    {
      "icao": "LIPH",
      "alert": "OK",
      "vis_m": 50,
      "fzfg": false,
      "metar_trigger": false,
      "taf_trigger": false,
      "metar": "METAR LIPH 040550Z AUTO 00000KT 0050 R07/0350N // VV002 06/06 Q1028",
      "taf": "TAF LIPH 040500Z 0406/0506 VRB04KT 2000 BR SCT030"
    },
    {
      "icao": "LIPQ",
      "alert": "OK",
      "vis_m": 500,
      "fzfg": false,
      "metar_trigger": false,
      "taf_trigger": false,
      "metar": "METAR LIPQ 040550Z AUTO VRB02KT 0500 R09/1200U FG SCT003/// 02/02 Q1027",
      "taf": ""
    },
    {
      "icao": "LIPR",
      "alert": "OK",
      "vis_m": 5000,
      "fzfg": false,
      "metar_trigger": false,
      "taf_trigger": false,
      "metar": "METAR LIPR 040550Z AUTO 09003KT 5000 BR OVC006/// 10/09 Q1028",
      "taf": "TAF LIPR 040500Z 0406/0506 VRB05KT 6000 BKN015"
    },
    {
      "icao": "LIPX",
      "alert": "OK",
      "vis_m": 200,
      "fzfg": false,
      "metar_trigger": false,
      "taf_trigger": false,
      "metar": "METAR LIPX 040550Z 13002KT 0200 R04/0450U FG VV001 04/04 Q1027",
      "taf": ""
    },
    {
      "icao": "LIPY",
      "alert": "OK",
      "vis_m": 4700,
      "fzfg": false,
      "metar_trigger": false,
      "taf_trigger": false,
      "metar": "METAR LIPY 040550Z AUTO VRB01KT 4700 BR OVC009/// 10/09 Q1028",
      "taf": "TAF LIPY 040500Z 0406/0506 VRB05KT 6000 FEW015"
    },
    {
      "icao": "LIPZ",
      "alert": "OK",
      "vis_m": 1200,
      "fzfg": false,
      "metar_trigger": false,
      "taf_trigger": false,
      "metar": "METAR LIPZ 040550Z 28003KT 250V330 1200 R04R/P2000N BR BKN008 06/06 Q1028 NOSIG",
      "taf": "TAF LIPZ 040500Z 0406/0512 VRB04KT 1200 BCFG SCT030"
    },
    {
      "icao": "LIRF",
      "alert": "OK",
      "vis_m": 7000,
      "fzfg": false,
      "metar_trigger": false,
      "taf_trigger": false,
      "metar": "METAR LIRF 040550Z VRB02KT 7000 NSC 11/10 Q1026 NOSIG",
      "taf": "TAF LIRF 040500Z 0406/0512 06006KT 7000 FEW050"
    },
    {
      "icao": "LIRN",
      "alert": "OK",
      "vis_m": 8000,
      "fzfg": false,
      "metar_trigger": false,
      "taf_trigger": false,
      "metar": "METAR LIRN 040550Z 34003KT 290V040 8000 NSC 11/08 Q1026 NOSIG",
      "taf": "TAF LIRN 040500Z 0406/0506 VRB05KT 7000 NSC"
    },
    {
      "icao": "LIRP",
      "alert": "OK",
      "vis_m": 9999,
      "fzfg": false,
      "metar_trigger": false,
      "taf_trigger": false,
      "metar": "METAR LIRP 040545Z 19004KT 9999 SCT060 08/08 Q1025 NOSIG",
      "taf": "TAF LIRP 040500Z 0406/0506 09005KT 9999 SCT060"
    },
    {
      "icao": "LIRZ",
      "alert": "OK",
      "vis_m": 9999,
      "fzfg": false,
      "metar_trigger": false,
      "taf_trigger": false,
      "metar": "METAR LIRZ 040550Z AUTO 36005KT 9999 SCT052/// BKN086/// 08/07 Q1026",
      "taf": "TAF LIRZ 040500Z 0406/0506 VRB05KT 9999 SCT040"
    },
    {
      "icao": "LJLJ",
      "alert": "OK",
      "vis_m": 9999,
      "fzfg": false,
      "metar_trigger": false,
      "taf_trigger": false,
      "metar": "METAR LJLJ 040600Z 00000KT CAVOK M02/M02 Q1027 NOSIG",
      "taf": "TAF LJLJ 040500Z 0406/0506 VRB02KT CAVOK"
    },
    {
      "icao": "LKMT",
      "alert": "OK",
      "vis_m": 6000,
      "fzfg": false,
      "metar_trigger": false,
      "taf_trigger": false,
      "metar": "METAR LKMT 040600Z 23006KT 6000 NSC 01/01 Q1027 TEMPO 4500 BR",
      "taf": "TAF LKMT 040500Z 0406/0506 23007KT CAVOK"
    },
    {
      "icao": "LKPR",
      "alert": "OK",
      "vis_m": 3000,
      "fzfg": true,
      "metar_trigger": false,
      "taf_trigger": false,
      "metar": "METAR LKPR 040600Z VRB02KT 3000 BR MIFG NSC M01/M01 Q1027 TEMPO 2000 BR",
      "taf": "TAF LKPR 040500Z 0406/0512 VRB02KT 0700 FZFG SCT001"
    },
    {
      "icao": "LLBG",
      "alert": "OK",
      "vis_m": 9999,
      "fzfg": false,
      "metar_trigger": false,
      "taf_trigger": false,
      "metar": "METAR LLBG 040550Z 15005KT 9999 BKN037 12/07 Q1023 NOSIG",
      "taf": "TAF LLBG 040503Z 0406/0506 VRB04KT 9999 FEW035 TX19/0411Z TN09/0503Z"
    },
    {
      "icao": "LMML",
      "alert": "OK",
      "vis_m": 9999,
      "fzfg": false,
      "metar_trigger": false,
      "taf_trigger": false,
      "metar": "METAR LMML 040545Z 10009KT 9999 FEW013 14/13 Q1025 NOSIG",
      "taf": "TAF LMML 040500Z 0406/0506 14014KT 9999 FEW015"
    },
    {
      "icao": "LOWW",
      "alert": "OK",
      "vis_m": 1800,
      "fzfg": false,
      "metar_trigger": false,
      "taf_trigger": false,
      "metar": "METAR LOWW 040550Z 12002KT 1800 0250E R16/P1500D R29/P1500N BCFG FEW000 01/01 Q1027 TEMPO 0500 FG",
      "taf": "TAF LOWW 040515Z 0406/0512 VRB04KT 1200 BCFG FEW001 TX13/0414Z TN01/0406Z"
    },
    {
      "icao": "LPFR",
      "alert": "OK",
      "vis_m": 9999,
      "fzfg": false,
      "metar_trigger": false,
      "taf_trigger": false,
      "metar": "METAR LPFR 040600Z 01003KT 350V070 9999 FEW020 13/10 Q1010",
      "taf": "TAF LPFR 040500Z 0406/0506 VRB02KT 9999 SCT020"
    },
    {
      "icao": "LPMA",
      "alert": "OK",
      "vis_m": 9999,
      "fzfg": false,
      "metar_trigger": false,
      "taf_trigger": false,
      "metar": "METAR LPMA 040600Z 36018G30KT 310V020 9999 BKN015 FEW018CB 16/11 Q1018",
      "taf": "TAF LPMA 040500Z 0406/0506 36015KT 9999 SCT015"
    },
    {
      "icao": "LPPR",
      "alert": "OK",
      "vis_m": 9999,
      "fzfg": false,
      "metar_trigger": false,
      "taf_trigger": false,
      "metar": "METAR LPPR 040600Z 00000KT CAVOK 10/07 Q1015",
      "taf": "TAF LPPR 040500Z 0406/0506 VRB02KT CAVOK"
    },
    {
      "icao": "LPPS",
      "alert": "OK",
      "vis_m": 9999,
      "fzfg": false,
      "metar_trigger": false,
      "taf_trigger": false,
      "metar": "METAR LPPS 040600Z 36019KT 9999 SCT012 FEW015TCU SCT030 15/12 Q1018",
      "taf": "TAF LPPS 040500Z 0406/0512 36020KT 9999 SCT015"
    },
    {
      "icao": "LPPT",
      "alert": "OK",
      "vis_m": 9999,
      "fzfg": false,
      "metar_trigger": false,
      "taf_trigger": false,
      "metar": "METAR LPPT 040600Z 02009KT CAVOK 13/08 Q1013",
      "taf": "TAF LPPT 040500Z 0406/0512 04008KT CAVOK"
    },
    {
      "icao": "LQBK",
      "alert": "OK",
      "vis_m": 9000,
      "fzfg": false,
      "metar_trigger": false,
      "taf_trigger": false,
      "metar": "METAR LQBK 040600Z 15004KT 9000 NSC 02/00 Q1027 NOSIG",
      "taf": "TAF LQBK 040500Z 0406/0506 34005KT CAVOK TX17/0414Z TN01/0406Z"
    },
    {
      "icao": "LQSA",
      "alert": "OK",
      "vis_m": 9999,
      "fzfg": false,
      "metar_trigger": false,
      "taf_trigger": false,
      "metar": "METAR LQSA 040600Z 28001KT CAVOK M00/M00 Q1028 NOSIG",
      "taf": "TAF LQSA 040500Z 0406/0506 VRB02KT CAVOK TX18/0414Z TNM01/0406Z"
    },
    {
      "icao": "LQTZ",
      "alert": "OK",
      "vis_m": 200,
      "fzfg": true,
      "metar_trigger": false,
      "taf_trigger": false,
      "metar": "METAR LQTZ 040600Z VRB01KT 0200 R09/0200N FZFG BKN001 M01/M01 Q1027",
      "taf": ""
    },
    {
      "icao": "LRBC",
      "alert": "OK",
      "vis_m": 9999,
      "fzfg": false,
      "metar_trigger": false,
      "taf_trigger": false,
      "metar": "METAR LRBC 040600Z 00000KT CAVOK 00/M00 Q1028",
      "taf": "TAF LRBC 040500Z 0406/0415 VRB04KT CAVOK"
    },
    {
      "icao": "LRBS",
      "alert": "OK",
      "vis_m": 2500,
      "fzfg": false,
      "metar_trigger": false,
      "taf_trigger": false,
      "metar": "METAR LRBS 040600Z COR VRB01KT 2500 BR NSC 00/00 Q1030 BECMG 5000",
      "taf": "TAF LRBS 040500Z 0406/0506 VRB04KT 3000 BR NSC"
    },
    {
      "icao": "LRBV",
      "alert": "OK",
      "vis_m": 5000,
      "fzfg": false,
      "metar_trigger": false,
      "taf_trigger": false,
      "metar": "METAR LRBV 040600Z VRB02KT 5000 BR NSC M01/M02 Q1028",
      "taf": "TAF LRBV 040500Z 0406/0415 VRB04KT 5000 BR NSC"
    },
    {
      "icao": "LRCL",
      "alert": "OK",
      "vis_m": 9999,
      "fzfg": false,
      "metar_trigger": false,
      "taf_trigger": false,
      "metar": "METAR LRCL 040600Z 10003KT CAVOK M01/M03 Q1028",
      "taf": "TAF LRCL 040500Z 0406/0415 VRB04KT CAVOK"
    },
    {
      "icao": "LRCV",
      "alert": "OK",
      "vis_m": 1500,
      "fzfg": false,
      "metar_trigger": false,
      "taf_trigger": false,
      "metar": "METAR LRCV 040600Z 04005KT 1500 R26/1600N BR NSC 01/01 Q1029",
      "taf": "TAF LRCV 040500Z 0406/0415 04006KT 1500 BR SCT005"
    },
    {
      "icao": "LRIA",
      "alert": "OK",
      "vis_m": 7000,
      "fzfg": false,
      "metar_trigger": false,
      "taf_trigger": false,
      "metar": "METAR LRIA 040600Z VRB01KT 7000 NSC 02/01 Q1028",
      "taf": "TAF LRIA 040500Z 0406/0415 VRB04KT 3000 BR NSC"
    },
    {
      "icao": "LROP",
      "alert": "OK",
      "vis_m": 3000,
      "fzfg": false,
      "metar_trigger": false,
      "taf_trigger": false,
      "metar": "METAR LROP 040600Z 34003KT 260V050 3000 BR NSC 02/02 Q1030 BECMG 5000",
      "taf": "TAF LROP 040500Z 0406/0506 VRB04KT 3000 BR NSC"
    },
    {
      "icao": "LRSB",
      "alert": "OK",
      "vis_m": 9000,
      "fzfg": false,
      "metar_trigger": false,
      "taf_trigger": false,
      "metar": "METAR LRSB 040600Z VRB01KT 9000 NSC 00/M01 Q1028",
      "taf": "TAF LRSB 040500Z 0406/0506 VRB04KT 5000 BR NSC"
    },
    {
      "icao": "LRSM",
      "alert": "OK",
      "vis_m": 9999,
      "fzfg": false,
      "metar_trigger": false,
      "taf_trigger": false,
      "metar": "METAR LRSM 040600Z 06002KT CAVOK M01/M02 Q1028",
      "taf": "TAF LRSM 040500Z 0406/0415 VRB04KT CAVOK"
    },
    {
      "icao": "LRSV",
      "alert": "OK",
      "vis_m": 9999,
      "fzfg": false,
      "metar_trigger": false,
      "taf_trigger": false,
      "metar": "METAR LRSV 040600Z 23008KT CAVOK 03/M00 Q1026",
      "taf": "TAF LRSV 040500Z 0406/0415 24008KT CAVOK"
    },
    {
      "icao": "LRTM",
      "alert": "OK",
      "vis_m": 6000,
      "fzfg": false,
      "metar_trigger": false,
      "taf_trigger": false,
      "metar": "METAR LRTM 040600Z 07005KT 6000 FEW011 M02/M03 Q1029",
      "taf": "TAF LRTM 040500Z 0406/0415 09006KT CAVOK"
    },
    {
      "icao": "LRTR",
      "alert": "OK",
      "vis_m": 7000,
      "fzfg": false,
      "metar_trigger": false,
      "taf_trigger": false,
      "metar": "METAR LRTR 040600Z 08004KT 7000 NSC M01/M01 Q1028 NOSIG",
      "taf": "TAF LRTR 040500Z 0406/0506 VRB04KT 5000 BR NSC"
    },
    {
      "icao": "LTAC",
      "alert": "OK",
      "vis_m": 9999,
      "fzfg": false,
      "metar_trigger": false,
      "taf_trigger": false,
      "metar": "METAR LTAC 040550Z 27004KT 210V320 9999 SCT040 SCT180 03/M05 Q1025 NOSIG RMK RWY21C 31003KT 220V320 RWY03L VRB03KT RWY21R VRB01KT RWY03R VRB03KT RWY21L 10003KT 020V160",
      "taf": "TAF LTAC 040440Z 0406/0506 VRB02KT 9999 SCT040 SCT180"
    },
    {
      "icao": "LTFM",
      "alert": "OK",
      "vis_m": 1100,
      "fzfg": false,
      "metar_trigger": false,
      "taf_trigger": false,
      "metar": "METAR LTFM 040550Z 20003KT 130V260 1100 0400N R35R/0450N R17L/1100U R34L/0900U R36/P1500N BCFG BKN002 02/02 Q1030 NOSIG RMK RWY17L 20004KT RWY34L VRB04KT RWY16R 18005KT RWY36 VRB02KT RWY18 18005KT",
      "taf": "TAF LTFM 040440Z 0406/0512 VRB02KT 0300 FG VV001"
    },
    {
      "icao": "LUKK",
      "alert": "OK",
      "vis_m": 6000,
      "fzfg": false,
      "metar_trigger": false,
      "taf_trigger": false,
      "metar": "METAR LUKK 040600Z 27003KT 6000 NSC 01/M00 Q1027 NOSIG",
      "taf": "TAF LUKK 040506Z 0406/0506 24010KT CAVOK"
    },
    {
      "icao": "LWOH",
      "alert": "OK",
      "vis_m": 9999,
      "fzfg": false,
      "metar_trigger": false,
      "taf_trigger": false,
      "metar": "METAR LWOH 040550Z VRB02KT CAVOK 02/00 Q1028",
      "taf": "TAF LWOH 040530Z 0406/0506 VRB02KT 9999 FEW040"
    },
    {
      "icao": "LWSK",
      "alert": "OK",
      "vis_m": 9999,
      "fzfg": false,
      "metar_trigger": false,
      "taf_trigger": false,
      "metar": "METAR LWSK 040550Z 15001KT CAVOK 00/M01 Q1029 NOSIG",
      "taf": "TAF LWSK 040530Z 0406/0506 VRB02KT CAVOK"
    },
    {
      "icao": "LYBE",
      "alert": "OK",
      "vis_m": 3000,
      "fzfg": false,
      "metar_trigger": false,
      "taf_trigger": false,
      "metar": "METAR LYBE 040600Z VRB02KT 3000 MIFG BR NSC 02/02 Q1028 TEMPO 1500",
      "taf": "TAF LYBE 040500Z 0406/0506 10005KT 5000 BR NSC TX17/0413Z TN03/0406Z"
    },
    {
      "icao": "LYNI",
      "alert": "OK",
      "vis_m": 8000,
      "fzfg": false,
      "metar_trigger": false,
      "taf_trigger": false,
      "metar": "METAR LYNI 040600Z 17003KT 140V200 8000 SCT080 03/02 Q1029 NOSIG",
      "taf": "TAF LYNI 040500Z 0406/0506 17004KT CAVOK TX18/0414Z TN03/0406Z"
    },
    {
      "icao": "LYPG",
      "alert": "OK",
      "vis_m": 9999,
      "fzfg": false,
      "metar_trigger": false,
      "taf_trigger": false,
      "metar": "METAR LYPG 040600Z 33002KT CAVOK 06/05 Q1028 NOSIG",
      "taf": "TAF LYPG 040500Z 0406/0506 18006KT 9999 FEW040 TX18/0413Z TN06/0506Z"
    },
    {
      "icao": "LZIB",
      "alert": "OK",
      "vis_m": 4600,
      "fzfg": false,
      "metar_trigger": false,
      "taf_trigger": false,
      "metar": "METAR LZIB 040600Z 06003KT 4600 BR MIFG NSC 01/01 Q1027 NOSIG",
      "taf": "TAF LZIB 040515Z 0406/0506 VRB04KT 9999 FEW045"
    },
    {
      "icao": "LZKZ",
      "alert": "OK",
      "vis_m": 9999,
      "fzfg": false,
      "metar_trigger": false,
      "taf_trigger": false,
      "metar": "METAR LZKZ 040600Z 00000KT CAVOK 00/M02 Q1027 NOSIG",
      "taf": "TAF LZKZ 040515Z 0406/0506 VRB02KT CAVOK"
    },
    {
      "icao": "LZTT",
      "alert": "OK",
      "vis_m": 9999,
      "fzfg": false,
      "metar_trigger": false,
      "taf_trigger": false,
      "metar": "METAR LZTT 040600Z VRB02KT 9999 FEW050 M03/M04 Q1026 NOSIG",
      "taf": "TAF LZTT 040515Z 0406/0506 VRB02KT CAVOK"
    },
    {
      "icao": "OEJN",
      "alert": "OK",
      "vis_m": 5000,
      "fzfg": false,
      "metar_trigger": false,
      "taf_trigger": false,
      "metar": "METAR OEJN 040600Z 05012KT 5000 DU FEW040 23/M03 Q1016 TEMPO 4000",
      "taf": "TAF OEJN 040500Z 0406/0512 08016KT 7000 NSC"
    },
    {
      "icao": "OEMA",
      "alert": "OK",
      "vis_m": 9999,
      "fzfg": false,
      "metar_trigger": false,
      "taf_trigger": false,
      "metar": "METAR OEMA 040600Z 04010KT CAVOK 15/M08 Q1024 NOSIG",
      "taf": "TAF OEMA 040500Z 0406/0512 08012KT CAVOK"
    },
    {
      "icao": "OJAI",
      "alert": "OK",
      "vis_m": 5000,
      "fzfg": false,
      "metar_trigger": false,
      "taf_trigger": false,
      "metar": "METAR OJAI 040500Z 00000KT 5000 HZ NSC 03/M04 Q1023 NOSIG",
      "taf": "TAF OJAI 040433Z 0406/0512 29010KT 5000 HZ NSC"
    },
    {
      "icao": "OMAA",
      "alert": "OK",
      "vis_m": 9999,
      "fzfg": false,
      "metar_trigger": false,
      "taf_trigger": false,
      "metar": "METAR OMAA 040600Z 17007KT 130V200 CAVOK 26/15 Q1014 NOSIG",
      "taf": "TAF OMAA 040500Z 0406/0512 VRB02KT 8000 NSC"
    },
    {
      "icao": "OMDB",
      "alert": "OK",
      "vis_m": 9999,
      "fzfg": false,
      "metar_trigger": false,
      "taf_trigger": false,
      "metar": "METAR OMDB 040600Z 19009KT 150V240 CAVOK 28/12 Q1014 NOSIG",
      "taf": "TAF OMDB 040500Z 0406/0512 19012KT 8000 NSC"
    },
    {
      "icao": "UAAA",
      "alert": "OK",
      "vis_m": 5000,
      "fzfg": false,
      "metar_trigger": false,
      "taf_trigger": false,
      "metar": "METAR UAAA 040600Z 21003MPS 180V240 5000 BR OVC014 03/00 Q1017 NOSIG",
      "taf": "TAF UAAA 040509Z 0406/0506 34003G08MPS 6000 BKN011 OVC050 TX05/0409Z TNM02/0501Z"
    },
    {
      "icao": "UBBB",
      "alert": "OK",
      "vis_m": 9999,
      "fzfg": false,
      "metar_trigger": false,
      "taf_trigger": false,
      "metar": "METAR UBBB 040530Z 28008KT 9999 SCT013 BKN023 10/07 Q1019 NOSIG",
      "taf": "TAF UBBB 040500Z 0406/0506 32014KT 9999 SCT012 BKN020 TX12/0410Z TN04/0501Z"
    },
    {
      "icao": "UDSG",
      "alert": "OK",
      "vis_m": 1000,
      "fzfg": false,
      "metar_trigger": false,
      "taf_trigger": false,
      "metar": "METAR UDSG 040530Z 26001KT 1000 R02/1000N SN BR OVC013 M04/M05 Q1017 NOSIG",
      "taf": "TAF UDSG 040458Z 0406/0506 VRB04KT 5000 BR BKN040"
    },
    {
      "icao": "UDYZ",
      "alert": "OK",
      "vis_m": 9999,
      "fzfg": false,
      "metar_trigger": false,
      "taf_trigger": false,
      "metar": "METAR UDYZ 040530Z VRB01KT 9999 FEW046 01/M04 Q1018 NOSIG",
      "taf": "TAF UDYZ 040500Z 0406/0506 VRB06KT 9999 SCT030"
    },
    {
      "icao": "UGKO",
      "alert": "OK",
      "vis_m": 9999,
      "fzfg": false,
      "metar_trigger": false,
      "taf_trigger": false,
      "metar": "METAR UGKO 040600Z VRB02KT 9999 -RA SCT015 OVC026 05/04 Q1022 NOSIG",
      "taf": "TAF UGKO 040500Z 0406/0506 25006KT 9999 SCT030 OVC050 TX08/0410Z TN01/0503Z"
    }
  ]
}