{
  "ts_utc": "2026-07-18T16:12:15Z",
  "threshold_m": 150,
  "source": "stations_override.txt (ICAO list) + aviationweather.gov (METAR/TAF raw)",
  "station_count": 159,
  "stations": [
    {
      "icao": "BIKF",
      "alert": "OK",
      "vis_m": 4000,
      "fzfg": false,
      "metar_trigger": false,
      "taf_trigger": false,
      "metar": "METAR BIKF 181600Z 24008KT 4000 -DZ BR OVC005 12/12 Q1024",
      "taf": "TAF BIKF 181359Z 1815/1915 22010KT 3000 -DZ BR OVC004 TX11/1815Z TN10/1906Z"
    },
    {
      "icao": "BKPR",
      "alert": "OK",
      "vis_m": 9999,
      "fzfg": false,
      "metar_trigger": false,
      "taf_trigger": false,
      "metar": "METAR BKPR 181600Z 31005KT 9999 -TSRA FEW040CB BKN080 34/15 Q1011 TEMPO 4000 TSRA",
      "taf": ""
    },
    {
      "icao": "EBCI",
      "alert": "OK",
      "vis_m": 9999,
      "fzfg": false,
      "metar_trigger": false,
      "taf_trigger": false,
      "metar": "METAR EBCI 181550Z 34009KT 300V030 9999 SCT031 21/13 Q1018 NOSIG",
      "taf": "TAF EBCI 181112Z 1812/1918 32009KT 9999 SCT030 SCT045"
    },
    {
      "icao": "EDDB",
      "alert": "OK",
      "vis_m": 9999,
      "fzfg": false,
      "metar_trigger": false,
      "taf_trigger": false,
      "metar": "METAR EDDB 181550Z AUTO 32013KT 290V350 CAVOK 24/13 Q1011 NOSIG",
      "taf": "TAF EDDB 181100Z 1812/1912 29013KT 9999 SCT030"
    },
    {
      "icao": "EDDH",
      "alert": "OK",
      "vis_m": 9999,
      "fzfg": false,
      "metar_trigger": false,
      "taf_trigger": false,
      "metar": "METAR EDDH 181550Z AUTO 27009KT 220V310 9999 FEW024 BKN038 OVC047 17/11 Q1012 NOSIG",
      "taf": "TAF EDDH 181100Z 1812/1918 27015G25KT 9999 BKN030"
    },
    {
      "icao": "EDDK",
      "alert": "OK",
      "vis_m": 9999,
      "fzfg": false,
      "metar_trigger": false,
      "taf_trigger": false,
      "metar": "METAR EDDK 181550Z AUTO 29013KT 9999 FEW046 24/12 Q1015 NOSIG",
      "taf": "TAF EDDK 181100Z 1812/1918 32011KT 9999 SCT040"
    },
    {
      "icao": "EDDN",
      "alert": "OK",
      "vis_m": 9999,
      "fzfg": false,
      "metar_trigger": false,
      "taf_trigger": false,
      "metar": "METAR EDDN 181550Z AUTO 30011KT CAVOK 26/11 Q1013 NOSIG",
      "taf": "TAF EDDN 181100Z 1812/1912 28010KT 9999 SCT040"
    },
    {
      "icao": "EDDS",
      "alert": "OK",
      "vis_m": 9999,
      "fzfg": false,
      "metar_trigger": false,
      "taf_trigger": false,
      "metar": "METAR EDDS 181550Z AUTO VRB03KT CAVOK 24/14 Q1015 NOSIG",
      "taf": "TAF EDDS 181100Z 1812/1912 27004KT 9999 SCT035"
    },
    {
      "icao": "EDFH",
      "alert": "OK",
      "vis_m": 9999,
      "fzfg": false,
      "metar_trigger": false,
      "taf_trigger": false,
      "metar": "METAR EDFH 181550Z 03005KT 360V060 9999 -SHRA BKN055CB 18/15 Q1015",
      "taf": "TAF EDFH 181100Z 1812/1912 31007KT 9999 FEW045"
    },
    {
      "icao": "EDJA",
      "alert": "OK",
      "vis_m": 9999,
      "fzfg": false,
      "metar_trigger": false,
      "taf_trigger": false,
      "metar": "METAR EDJA 181550Z 25006KT 9999 FEW034 BKN044 20/13 Q1017",
      "taf": "TAF EDJA 181400Z 1815/1824 24007KT 9999 SCT050"
    },
    {
      "icao": "EDLW",
      "alert": "OK",
      "vis_m": 9999,
      "fzfg": false,
      "metar_trigger": false,
      "taf_trigger": false,
      "metar": "METAR EDLW 181550Z 29005KT 220V330 9999 FEW034 20/12 Q1015",
      "taf": "TAF EDLW 181100Z 1812/1912 26009KT 9999 BKN030"
    },
    {
      "icao": "EDNY",
      "alert": "OK",
      "vis_m": 9999,
      "fzfg": false,
      "metar_trigger": false,
      "taf_trigger": false,
      "metar": "METAR EDNY 181550Z 06004KT 020V120 9999 FEW021 19/16 Q1016",
      "taf": "TAF EDNY 181400Z 1815/1824 21007KT 9999 FEW040"
    },
    {
      "icao": "EDSB",
      "alert": "OK",
      "vis_m": 9999,
      "fzfg": false,
      "metar_trigger": false,
      "taf_trigger": false,
      "metar": "METAR EDSB 181550Z 19007KT 150V220 CAVOK 27/15 Q1014",
      "taf": "TAF EDSB 181100Z 1812/1912 27005KT 9999 FEW030"
    },
    {
      "icao": "EETN",
      "alert": "OK",
      "vis_m": 9999,
      "fzfg": false,
      "metar_trigger": false,
      "taf_trigger": false,
      "metar": "METAR EETN 181550Z 14010KT CAVOK 25/13 Q1002 NOSIG",
      "taf": "TAF EETN 181130Z 1812/1912 16014KT CAVOK"
    },
    {
      "icao": "EFTU",
      "alert": "OK",
      "vis_m": 3700,
      "fzfg": false,
      "metar_trigger": false,
      "taf_trigger": false,
      "metar": "METAR EFTU 181550Z AUTO 14006KT 110V180 3700 SHRA OVC008 //////CB 18/18 Q1001",
      "taf": ""
    },
    {
      "icao": "EGBB",
      "alert": "OK",
      "vis_m": 9999,
      "fzfg": false,
      "metar_trigger": false,
      "taf_trigger": false,
      "metar": "METAR EGBB 181550Z 05008KT 9999 BKN043 22/11 Q1021",
      "taf": "TAF EGBB 181056Z 1812/1912 03008KT 9999 SCT040"
    },
    {
      "icao": "EGGP",
      "alert": "OK",
      "vis_m": 9999,
      "fzfg": false,
      "metar_trigger": false,
      "taf_trigger": false,
      "metar": "METAR EGGP 181550Z 28014KT 9999 FEW024 SCT029TCU 21/14 Q1021",
      "taf": ""
    },
    {
      "icao": "EGGW",
      "alert": "OK",
      "vis_m": 9999,
      "fzfg": false,
      "metar_trigger": false,
      "taf_trigger": false,
      "metar": "METAR EGGW 181550Z 01013KT 9999 SCT040 21/10 Q1021",
      "taf": "TAF EGGW 181056Z 1812/1912 03006KT 9999 SCT030"
    },
    {
      "icao": "EGKK",
      "alert": "OK",
      "vis_m": 9999,
      "fzfg": false,
      "metar_trigger": false,
      "taf_trigger": false,
      "metar": "METAR EGKK 181550Z 04010KT 010V090 9999 FEW048 23/10 Q1020",
      "taf": "TAF EGKK 181103Z 1812/1918 01008KT 9999 FEW040"
    },
    {
      "icao": "EGNM",
      "alert": "OK",
      "vis_m": 9999,
      "fzfg": false,
      "metar_trigger": false,
      "taf_trigger": false,
      "metar": "METAR EGNM 181550Z 04009KT 010V070 9999 SCT030 16/10 Q1022",
      "taf": "TAF EGNM 181057Z 1812/1912 03006KT 9999 SCT030"
    },
    {
      "icao": "EGPD",
      "alert": "OK",
      "vis_m": 9999,
      "fzfg": false,
      "metar_trigger": false,
      "taf_trigger": false,
      "metar": "METAR EGPD 181550Z AUTO 34016KT 310V020 9999 SCT025 BKN030 15/09 Q1023",
      "taf": "TAF EGPD 181056Z 1812/1912 33014KT 9999 FEW010 SCT025"
    },
    {
      "icao": "EGPF",
      "alert": "OK",
      "vis_m": 9999,
      "fzfg": false,
      "metar_trigger": false,
      "taf_trigger": false,
      "metar": "METAR EGPF 181550Z AUTO 02007KT 340V060 9999 NCD 21/11 Q1022",
      "taf": "TAF EGPF 181059Z 1812/1912 32006KT 9999 SCT035"
    },
    {
      "icao": "EHBK",
      "alert": "OK",
      "vis_m": 9999,
      "fzfg": false,
      "metar_trigger": false,
      "taf_trigger": false,
      "metar": "METAR EHBK 181555Z AUTO 32007KT 280V360 9999 SCT035 BKN041 BKN046 21/13 Q1016 NOSIG",
      "taf": "TAF EHBK 181115Z 1812/1918 28010KT 9999 BKN025"
    },
    {
      "icao": "EHEH",
      "alert": "OK",
      "vis_m": 9999,
      "fzfg": false,
      "metar_trigger": false,
      "taf_trigger": false,
      "metar": "METAR EHEH 181555Z AUTO 30007KT 240V020 9999 BKN036 BKN045 OVC052 20/11 Q1016 BLU NOSIG RMK TREND REMOTE BY EHWX",
      "taf": "TAF EHEH 181119Z 1812/1918 31007KT 9999 SCT028 BKN035"
    },
    {
      "icao": "EKBI",
      "alert": "OK",
      "vis_m": 9999,
      "fzfg": false,
      "metar_trigger": false,
      "taf_trigger": false,
      "metar": "METAR EKBI 181550Z AUTO 26016KT 9999 DZ OVC024/// 16/11 Q1009",
      "taf": "TAF EKBI 181427Z 1815/1915 28011KT 9999 BKN025"
    },
    {
      "icao": "EKCH",
      "alert": "OK",
      "vis_m": 9999,
      "fzfg": false,
      "metar_trigger": false,
      "taf_trigger": false,
      "metar": "METAR EKCH 181550Z AUTO 27013KT 230V320 9999 SCT046/// 22/10 Q1007 NOSIG",
      "taf": "TAF EKCH 181427Z 1815/1915 26014KT CAVOK"
    },
    {
      "icao": "ENAL",
      "alert": "OK",
      "vis_m": 9999,
      "fzfg": false,
      "metar_trigger": false,
      "taf_trigger": false,
      "metar": "METAR ENAL 181550Z 04015KT 9999 SCT030 BKN056 14/07 Q1018",
      "taf": "TAF ENAL 181400Z 1815/1824 04015KT 9999 SCT030"
    },
    {
      "icao": "ENBR",
      "alert": "OK",
      "vis_m": 9999,
      "fzfg": false,
      "metar_trigger": false,
      "taf_trigger": false,
      "metar": "METAR ENBR 181550Z 31015KT 9999 FEW020TCU 15/07 Q1010 TEMPO 33015G25KT RMK WIND 1200FT 33032KT",
      "taf": ""
    },
    {
      "icao": "ENGM",
      "alert": "OK",
      "vis_m": 9999,
      "fzfg": false,
      "metar_trigger": false,
      "taf_trigger": false,
      "metar": "METAR ENGM 181550Z 02014KT 9999 BKN048 12/08 Q1009 NOSIG",
      "taf": "TAF ENGM 181100Z 1812/1912 01012KT 9999 -RA FEW020 BKN030"
    },
    {
      "icao": "ENHD",
      "alert": "OK",
      "vis_m": 9999,
      "fzfg": false,
      "metar_trigger": false,
      "taf_trigger": false,
      "metar": "METAR ENHD 181550Z 35027KT 9999 FEW030TCU 14/07 Q1010",
      "taf": "TAF ENHD 181400Z 1815/1822 34022KT CAVOK"
    },
    {
      "icao": "ENTC",
      "alert": "OK",
      "vis_m": 9999,
      "fzfg": false,
      "metar_trigger": false,
      "taf_trigger": false,
      "metar": "METAR ENTC 181550Z 24011KT 9999 -SHRA SCT027 BKN041 09/02 Q1011 TEMPO 4500 SHRA SCT020CB BKN030 RMK WIND 2600FT 24018G32KT",
      "taf": "TAF ENTC 181100Z 1812/1912 28012KT 9999 -SHRA SCT015TCU BKN020"
    },
    {
      "icao": "ENTO",
      "alert": "OK",
      "vis_m": 9999,
      "fzfg": false,
      "metar_trigger": false,
      "taf_trigger": false,
      "metar": "METAR ENTO 181550Z 36015KT 9999 -DZ FEW015 BKN025 12/10 Q1009 TEMPO 36015G25KT",
      "taf": "TAF ENTO 181100Z 1812/1912 01015KT 9999 SCT020 BKN030"
    },
    {
      "icao": "ENVA",
      "alert": "OK",
      "vis_m": 9999,
      "fzfg": false,
      "metar_trigger": false,
      "taf_trigger": false,
      "metar": "METAR ENVA 181550Z 33006KT 9999 FEW042 BKN059 14/06 Q1016 RMK WIND 670FT 34010KT",
      "taf": "TAF ENVA 181100Z 1812/1912 32008KT 9999 BKN050"
    },
    {
      "icao": "ENZV",
      "alert": "OK",
      "vis_m": 9999,
      "fzfg": false,
      "metar_trigger": false,
      "taf_trigger": false,
      "metar": "METAR ENZV 181550Z 32017KT 9999 FEW030CB 18/09 Q1009 NOSIG",
      "taf": "TAF ENZV 181100Z 1812/1912 34010KT 9999 FEW018"
    },
    {
      "icao": "EPGD",
      "alert": "OK",
      "vis_m": 9999,
      "fzfg": false,
      "metar_trigger": false,
      "taf_trigger": false,
      "metar": "METAR EPGD 181600Z 27018KT 9999 FEW025 20/15 Q1008",
      "taf": "TAF EPGD 181130Z 1812/1912 27012KT 9999 BKN015"
    },
    {
      "icao": "EPKK",
      "alert": "OK",
      "vis_m": 9999,
      "fzfg": false,
      "metar_trigger": false,
      "taf_trigger": false,
      "metar": "METAR EPKK 181600Z 24005KT 230V290 CAVOK 22/17 Q1012",
      "taf": "TAF EPKK 181430Z 1815/1915 25008KT CAVOK"
    },
    {
      "icao": "EPKT",
      "alert": "OK",
      "vis_m": 9999,
      "fzfg": false,
      "metar_trigger": false,
      "taf_trigger": false,
      "metar": "METAR EPKT 181600Z 20008KT 9999 FEW039 24/16 Q1011",
      "taf": "TAF EPKT 181130Z 1812/1912 28009KT CAVOK"
    },
    {
      "icao": "EPLB",
      "alert": "OK",
      "vis_m": 9999,
      "fzfg": false,
      "metar_trigger": false,
      "taf_trigger": false,
      "metar": "METAR EPLB 181600Z 27015KT 9999 FEW040 27/17 Q1009",
      "taf": "TAF EPLB 181130Z 1812/1912 24010KT 9999 SCT040"
    },
    {
      "icao": "EPMO",
      "alert": "OK",
      "vis_m": 9999,
      "fzfg": false,
      "metar_trigger": false,
      "taf_trigger": false,
      "metar": "METAR EPMO 181600Z 29010KT 9999 FEW033 24/18 Q1009",
      "taf": "TAF EPMO 181130Z 1812/1912 26012KT 9999 SCT035"
    },
    {
      "icao": "EPPO",
      "alert": "OK",
      "vis_m": 9999,
      "fzfg": false,
      "metar_trigger": false,
      "taf_trigger": false,
      "metar": "METAR EPPO 181600Z 29013KT 250V320 CAVOK 25/12 Q1010",
      "taf": "TAF EPPO 181130Z 1812/1912 27012KT 9999 BKN025"
    },
    {
      "icao": "EPRA",
      "alert": "OK",
      "vis_m": 9999,
      "fzfg": false,
      "metar_trigger": false,
      "taf_trigger": false,
      "metar": "METAR EPRA 181600Z 29010KT 260V320 CAVOK 27/13 Q1010",
      "taf": "TAF EPRA 181430Z 1815/1824 27008KT CAVOK"
    },
    {
      "icao": "EPRZ",
      "alert": "OK",
      "vis_m": 9999,
      "fzfg": false,
      "metar_trigger": false,
      "taf_trigger": false,
      "metar": "METAR EPRZ 181600Z 32004KT 9999 TS BKN042CB 25/18 Q1010",
      "taf": "TAF EPRZ 181130Z 1812/1912 25010KT CAVOK"
    },
    {
      "icao": "EPSC",
      "alert": "OK",
      "vis_m": 9999,
      "fzfg": false,
      "metar_trigger": false,
      "taf_trigger": false,
      "metar": "METAR EPSC 181600Z 26008KT 220V300 CAVOK 23/12 Q1009",
      "taf": "TAF EPSC 181130Z 1812/1912 26012KT 9999 BKN040"
    },
    {
      "icao": "EPSY",
      "alert": "OK",
      "vis_m": 9999,
      "fzfg": false,
      "metar_trigger": false,
      "taf_trigger": false,
      "metar": "METAR EPSY 181600Z 28007KT 240V320 9999 SCT017 21/17 Q1009",
      "taf": "TAF EPSY 181430Z 1815/1824 26010KT 9999 SCT040"
    },
    {
      "icao": "EPWA",
      "alert": "OK",
      "vis_m": 9999,
      "fzfg": false,
      "metar_trigger": false,
      "taf_trigger": false,
      "metar": "METAR EPWA 181600Z 28014KT 9999 FEW046TCU 25/16 Q1009 NOSIG",
      "taf": "TAF EPWA 181430Z 1815/1915 26012KT 9999 SCT035"
    },
    {
      "icao": "EPWR",
      "alert": "OK",
      "vis_m": 9999,
      "fzfg": false,
      "metar_trigger": false,
      "taf_trigger": false,
      "metar": "METAR EPWR 181600Z 28013KT CAVOK 26/12 Q1010",
      "taf": "TAF EPWR 181430Z 1815/1915 27012KT 9999 SCT035"
    },
    {
      "icao": "ESGG",
      "alert": "OK",
      "vis_m": 9999,
      "fzfg": false,
      "metar_trigger": false,
      "taf_trigger": false,
      "metar": "METAR ESGG 181550Z 25011KT 9999 FEW017CB 20/15 Q1004",
      "taf": "TAF ESGG 181430Z 1815/1915 28004KT 9999 BKN020"
    },
    {
      "icao": "ESKN",
      "alert": "OK",
      "vis_m": 9999,
      "fzfg": false,
      "metar_trigger": false,
      "taf_trigger": false,
      "metar": "METAR ESKN 181550Z 35006KT 310V030 9999 BKN006 16/16 Q1004",
      "taf": "TAF ESKN 181430Z 1815/1915 02008KT 9999 -RA BKN020"
    },
    {
      "icao": "ESMS",
      "alert": "OK",
      "vis_m": 9999,
      "fzfg": false,
      "metar_trigger": false,
      "taf_trigger": false,
      "metar": "METAR ESMS 181550Z 26015KT 9999 SCT045 22/10 Q1006",
      "taf": "TAF ESMS 181427Z 1815/1915 27011KT 9999 SCT035"
    },
    {
      "icao": "ESSA",
      "alert": "OK",
      "vis_m": 7000,
      "fzfg": false,
      "metar_trigger": false,
      "taf_trigger": false,
      "metar": "METAR ESSA 181550Z 35011KT 7000 DZ BKN008 13/13 Q1004 TEMPO BKN025CB",
      "taf": "TAF ESSA 181430Z 1815/1915 01013KT 9999 -RADZ BKN007"
    },
    {
      "icao": "EYKA",
      "alert": "OK",
      "vis_m": 9999,
      "fzfg": false,
      "metar_trigger": false,
      "taf_trigger": false,
      "metar": "METAR EYKA 181550Z 23008KT 9999 FEW066CB 25/18 Q1005",
      "taf": "TAF EYKA 181101Z 1812/1912 18013KT 9000 SCT010 BKN020"
    },
    {
      "icao": "EYPA",
      "alert": "OK",
      "vis_m": 9000,
      "fzfg": false,
      "metar_trigger": false,
      "taf_trigger": false,
      "metar": "METAR EYPA 181550Z 23004KT 190V290 9000 BKN004 OVC008 19/18 Q1005",
      "taf": "TAF EYPA 181101Z 1812/1912 23010KT 5000 BR BKN005 OVC015"
    },
    {
      "icao": "EYVI",
      "alert": "OK",
      "vis_m": 9999,
      "fzfg": false,
      "metar_trigger": false,
      "taf_trigger": false,
      "metar": "METAR EYVI 181550Z 17013KT CAVOK 26/17 Q1006 TEMPO TS SCT045CB",
      "taf": "TAF EYVI 181100Z 1812/1912 17012KT 9000 SCT045"
    },
    {
      "icao": "GCFV",
      "alert": "OK",
      "vis_m": 9999,
      "fzfg": false,
      "metar_trigger": false,
      "taf_trigger": false,
      "metar": "METAR GCFV 181600Z 04017KT CAVOK 27/21 Q1014",
      "taf": "TAF GCFV 181400Z 1815/1915 04016KT CAVOK TX27/1914Z TN22/1906Z"
    },
    {
      "icao": "GCLP",
      "alert": "OK",
      "vis_m": 9999,
      "fzfg": false,
      "metar_trigger": false,
      "taf_trigger": false,
      "metar": "METAR GCLP 181600Z 02026KT 9999 FEW020 27/20 Q1015 NOSIG",
      "taf": "TAF GCLP 181400Z 1815/1915 01024KT 9999 FEW020 TX28/1914Z TN23/1906Z"
    },
    {
      "icao": "GCTS",
      "alert": "OK",
      "vis_m": 9999,
      "fzfg": false,
      "metar_trigger": false,
      "taf_trigger": false,
      "metar": "METAR GCTS 181600Z 09021KT 9999 FEW020 28/20 Q1015 WS R07 NOSIG",
      "taf": "TAF GCTS 181400Z 1815/1915 08022KT CAVOK TX30/1914Z TN22/1906Z"
    },
    {
      "icao": "GMAD",
      "alert": "OK",
      "vis_m": 6000,
      "fzfg": false,
      "metar_trigger": false,
      "taf_trigger": false,
      "metar": "METAR GMAD 181600Z 26013KT 6000 NSC 30/19 Q1010 NOSIG",
      "taf": "TAF GMAD 181100Z 1812/1918 25007KT 8000 NSC"
    },
    {
      "icao": "GMMN",
      "alert": "OK",
      "vis_m": 9999,
      "fzfg": false,
      "metar_trigger": false,
      "taf_trigger": false,
      "metar": "METAR GMMN 181600Z 35013KT 320V030 CAVOK 29/21 Q1014 NOSIG",
      "taf": "TAF GMMN 181100Z 1812/1918 01013KT CAVOK"
    },
    {
      "icao": "GMMX",
      "alert": "OK",
      "vis_m": 8000,
      "fzfg": false,
      "metar_trigger": false,
      "taf_trigger": false,
      "metar": "METAR GMMX 181600Z VRB03KT 8000 SCT034 FEW040TCU BKN200 37/19 Q1013 NOSIG",
      "taf": "TAF GMMX 181100Z 1812/1918 04006KT 8000 NSC"
    },
    {
      "icao": "HEGN",
      "alert": "OK",
      "vis_m": 9999,
      "fzfg": false,
      "metar_trigger": false,
      "taf_trigger": false,
      "metar": "METAR HEGN 181500Z 12005KT CAVOK 34/17 Q1006 NOSIG",
      "taf": "TAF HEGN 181100Z 1812/1918 05012KT CAVOK"
    },
    {
      "icao": "HEMA",
      "alert": "OK",
      "vis_m": 9999,
      "fzfg": false,
      "metar_trigger": false,
      "taf_trigger": false,
      "metar": "METAR HEMA 181500Z 08006KT CAVOK 34/15 Q1006 NOSIG",
      "taf": "TAF HEMA 181100Z 1812/1918 06012KT CAVOK"
    },
    {
      "icao": "HESH",
      "alert": "OK",
      "vis_m": 9999,
      "fzfg": false,
      "metar_trigger": false,
      "taf_trigger": false,
      "metar": "METAR HESH 181500Z 14004KT CAVOK 34/18 Q1005 NOSIG",
      "taf": "TAF HESH 181100Z 1812/1918 03012KT CAVOK"
    },
    {
      "icao": "HESX",
      "alert": "OK",
      "vis_m": 9999,
      "fzfg": false,
      "metar_trigger": false,
      "taf_trigger": false,
      "metar": "METAR HESX 181500Z 02010KT CAVOK 35/13 Q1007 NOSIG",
      "taf": "TAF HESX 181100Z 1812/1918 30010KT CAVOK"
    },
    {
      "icao": "LATI",
      "alert": "OK",
      "vis_m": 9999,
      "fzfg": false,
      "metar_trigger": false,
      "taf_trigger": false,
      "metar": "METAR LATI 181550Z 26006KT 230V300 CAVOK 34/14 Q1009 NOSIG",
      "taf": "TAF LATI 181100Z 1812/1912 26011KT CAVOK TX39/1912Z TN21/1904Z"
    },
    {
      "icao": "LBPD",
      "alert": "OK",
      "vis_m": 9999,
      "fzfg": false,
      "metar_trigger": false,
      "taf_trigger": false,
      "metar": "METAR LBPD 181600Z AUTO 09008KT 060V120 9999 NCD 35/15 Q1010 NOSIG",
      "taf": "TAF LBPD 181100Z 1812/1912 07010KT 9999 SCT070"
    },
    {
      "icao": "LBSF",
      "alert": "OK",
      "vis_m": 9999,
      "fzfg": false,
      "metar_trigger": false,
      "taf_trigger": false,
      "metar": "METAR LBSF 181600Z AUTO 09007KT 060V120 9999 NCD 33/15 Q1012 RETS NOSIG",
      "taf": "TAF LBSF 181100Z 1812/1912 09010KT 9999 SCT060"
    },
    {
      "icao": "LBWN",
      "alert": "OK",
      "vis_m": 9999,
      "fzfg": false,
      "metar_trigger": false,
      "taf_trigger": false,
      "metar": "METAR LBWN 181600Z AUTO 12010KT 9999 NSC 27/18 Q1012 NOSIG",
      "taf": "TAF LBWN 181100Z 1812/1912 12012KT CAVOK"
    },
    {
      "icao": "LCLK",
      "alert": "OK",
      "vis_m": 9999,
      "fzfg": false,
      "metar_trigger": false,
      "taf_trigger": false,
      "metar": "METAR LCLK 181600Z 21017KT 9999 FEW025 30/26 Q1004 NOSIG",
      "taf": "TAF LCLK 181130Z 1812/1912 21018KT 9999 FEW025"
    },
    {
      "icao": "LCPH",
      "alert": "OK",
      "vis_m": 9999,
      "fzfg": false,
      "metar_trigger": false,
      "taf_trigger": false,
      "metar": "METAR LCPH 181600Z 27006KT 250V320 9999 FEW025 30/23 Q1005 NOSIG",
      "taf": "TAF LCPH 181130Z 1812/1912 29012KT 9999 FEW020"
    },
    {
      "icao": "LEAL",
      "alert": "OK",
      "vis_m": 9999,
      "fzfg": false,
      "metar_trigger": false,
      "taf_trigger": false,
      "metar": "METAR LEAL 181600Z 08007KT 040V140 9999 FEW013 32/26 Q1012 NOSIG",
      "taf": "TAF LEAL 181100Z 1812/1912 08010KT 9999 FEW020 TX34/1816Z TN26/1905Z"
    },
    {
      "icao": "LEBB",
      "alert": "OK",
      "vis_m": 9999,
      "fzfg": false,
      "metar_trigger": false,
      "taf_trigger": false,
      "metar": "METAR LEBB 181600Z 01008KT 340V040 9999 FEW048 OVC056 27/20 Q1017 NOSIG",
      "taf": "TAF LEBB 181100Z 1812/1912 03009KT 9999 FEW025 SCT035 TX29/1912Z TN19/1901Z"
    },
    {
      "icao": "LEBL",
      "alert": "OK",
      "vis_m": 9999,
      "fzfg": false,
      "metar_trigger": false,
      "taf_trigger": false,
      "metar": "METAR LEBL 181600Z 14007KT 110V200 CAVOK 30/22 Q1013 NOSIG",
      "taf": "TAF LEBL 181100Z 1812/1912 14009KT CAVOK TX31/1812Z TN25/1906Z"
    },
    {
      "icao": "LECH",
      "alert": "OK",
      "vis_m": 9000,
      "fzfg": false,
      "metar_trigger": false,
      "taf_trigger": false,
      "metar": "METAR LECH 181600Z AUTO 12009KT 090V160 9000 NCD 28/22 Q1014",
      "taf": "TAF LECH 181100Z 1812/1912 10010KT 9999 FEW035 TX34/1813Z TN22/1905Z"
    },
    {
      "icao": "LEMD",
      "alert": "OK",
      "vis_m": 9999,
      "fzfg": false,
      "metar_trigger": false,
      "taf_trigger": false,
      "metar": "METAR LEMD 181600Z 23009G19KT 180V270 CAVOK 36/01 Q1014 NOSIG",
      "taf": "TAF LEMD 181100Z 1812/1918 22010KT CAVOK TX37/1816Z TN19/1905Z"
    },
    {
      "icao": "LEMG",
      "alert": "OK",
      "vis_m": 9999,
      "fzfg": false,
      "metar_trigger": false,
      "taf_trigger": false,
      "metar": "METAR LEMG 181600Z 10008KT 070V130 CAVOK 29/17 Q1010 NOSIG",
      "taf": "TAF LEMG 181100Z 1812/1912 15010KT CAVOK TX37/1815Z TN22/1905Z"
    },
    {
      "icao": "LEVC",
      "alert": "OK",
      "vis_m": 9999,
      "fzfg": false,
      "metar_trigger": false,
      "taf_trigger": false,
      "metar": "METAR LEVC 181600Z 10009KT 040V130 9999 FEW021 SCT069 31/24 Q1012 NOSIG",
      "taf": "TAF LEVC 181100Z 1812/1912 09010KT 9999 FEW025 TX33/1813Z TN25/1905Z"
    },
    {
      "icao": "LEXJ",
      "alert": "OK",
      "vis_m": 9999,
      "fzfg": false,
      "metar_trigger": false,
      "taf_trigger": false,
      "metar": "METAR LEXJ 181600Z 06004KT 340V130 9999 SCT032 BKN058 24/20 Q1017",
      "taf": "TAF LEXJ 181400Z 1815/1915 04009KT 9999 SCT025 TX29/1913Z TN19/1905Z"
    },
    {
      "icao": "LEZG",
      "alert": "OK",
      "vis_m": 9999,
      "fzfg": false,
      "metar_trigger": false,
      "taf_trigger": false,
      "metar": "METAR LEZG 181600Z 09006KT 040V130 CAVOK 36/11 Q1011 NOSIG",
      "taf": "TAF LEZG 181100Z 1812/1912 VRB03KT CAVOK TX37/1814Z TN21/1905Z"
    },
    {
      "icao": "LEZL",
      "alert": "OK",
      "vis_m": 9999,
      "fzfg": false,
      "metar_trigger": false,
      "taf_trigger": false,
      "metar": "METAR LEZL 181600Z 21008KT 160V250 CAVOK 36/11 Q1011 NOSIG",
      "taf": "TAF LEZL 181400Z 1815/1915 22012KT CAVOK TX38/1815Z TN20/1905Z"
    },
    {
      "icao": "LFBD",
      "alert": "OK",
      "vis_m": 9999,
      "fzfg": false,
      "metar_trigger": false,
      "taf_trigger": false,
      "metar": "METAR LFBD 181600Z AUTO 33008KT 290V010 CAVOK 33/13 Q1015 NOSIG",
      "taf": ""
    },
    {
      "icao": "LFLL",
      "alert": "OK",
      "vis_m": 9999,
      "fzfg": false,
      "metar_trigger": false,
      "taf_trigger": false,
      "metar": "METAR LFLL 181600Z 01007KT 330V100 9999 FEW073TCU 30/13 Q1014 NOSIG",
      "taf": "TAF LFLL 181100Z 1812/1918 36008KT CAVOK"
    },
    {
      "icao": "LFLS",
      "alert": "OK",
      "vis_m": 9999,
      "fzfg": false,
      "metar_trigger": false,
      "taf_trigger": false,
      "metar": "METAR LFLS 181600Z AUTO 36005KT 270V060 9999 FEW015 31/14 Q1015 NOSIG",
      "taf": "TAF LFLS 181400Z 1815/1915 35006KT CAVOK"
    },
    {
      "icao": "LFMN",
      "alert": "OK",
      "vis_m": 9999,
      "fzfg": false,
      "metar_trigger": false,
      "taf_trigger": false,
      "metar": "METAR LFMN 181600Z 10009KT CAVOK 30/24 Q1009 NOSIG",
      "taf": "TAF LFMN 181400Z 1815/1921 10007KT CAVOK"
    },
    {
      "icao": "LFOB",
      "alert": "OK",
      "vis_m": 9999,
      "fzfg": false,
      "metar_trigger": false,
      "taf_trigger": false,
      "metar": "METAR LFOB 181600Z AUTO 35013KT 320V020 CAVOK 27/13 Q1016 TEMPO VRB15G25KT 4000 SHRA BKN050TCU",
      "taf": "TAF LFOB 181100Z 1812/1912 27006KT 9999 SCT050"
    },
    {
      "icao": "LFPO",
      "alert": "OK",
      "vis_m": 9999,
      "fzfg": false,
      "metar_trigger": false,
      "taf_trigger": false,
      "metar": "METAR LFPO 181600Z 30005KT 230V020 CAVOK 29/11 Q1015 NOSIG",
      "taf": ""
    },
    {
      "icao": "LFSB",
      "alert": "OK",
      "vis_m": 9999,
      "fzfg": false,
      "metar_trigger": false,
      "taf_trigger": false,
      "metar": "METAR LFSB 181600Z AUTO 36011KT CAVOK 26/15 Q1014 TEMPO VRB15G25KT 4000 TSRA SCT050CB",
      "taf": "TAF LFSB 181100Z 1812/1912 26007KT CAVOK"
    },
    {
      "icao": "LGAV",
      "alert": "OK",
      "vis_m": 9999,
      "fzfg": false,
      "metar_trigger": false,
      "taf_trigger": false,
      "metar": "METAR LGAV 181550Z 06013KT 9999 FEW025 31/12 Q1011 NOSIG",
      "taf": "TAF LGAV 181100Z 1812/1912 02010KT 9999 FEW025"
    },
    {
      "icao": "LGTS",
      "alert": "OK",
      "vis_m": 9999,
      "fzfg": false,
      "metar_trigger": false,
      "taf_trigger": false,
      "metar": "METAR LGTS 181550Z 18016KT 9999 FEW025 32/21 Q1010 NOSIG",
      "taf": "TAF LGTS 181100Z 1812/1912 VRB03KT 9999 FEW030"
    },
    {
      "icao": "LHBP",
      "alert": "OK",
      "vis_m": 9999,
      "fzfg": false,
      "metar_trigger": false,
      "taf_trigger": false,
      "metar": "METAR LHBP 181600Z 31009KT 270V340 CAVOK 32/11 Q1010 NOSIG",
      "taf": "TAF LHBP 181115Z 1812/1912 31012KT CAVOK"
    },
    {
      "icao": "LHDC",
      "alert": "OK",
      "vis_m": 9999,
      "fzfg": false,
      "metar_trigger": false,
      "taf_trigger": false,
      "metar": "METAR LHDC 181545Z AUTO 26014KT 210V300 CAVOK 33/11 Q1008 NOSIG",
      "taf": "TAF LHDC 181415Z 1815/1824 26008KT CAVOK"
    },
    {
      "icao": "LIBD",
      "alert": "OK",
      "vis_m": 9999,
      "fzfg": false,
      "metar_trigger": false,
      "taf_trigger": false,
      "metar": "METAR LIBD 181550Z 34003KT 280V070 CAVOK 31/23 Q1010",
      "taf": "TAF LIBD 181100Z 1812/1912 01010KT CAVOK"
    },
    {
      "icao": "LIBG",
      "alert": "OK",
      "vis_m": 9999,
      "fzfg": false,
      "metar_trigger": false,
      "taf_trigger": false,
      "metar": "METAR LIBG 181550Z 24005KT CAVOK 37/20 Q1009",
      "taf": "TAF LIBG 181100Z 1812/1912 VRB05KT CAVOK"
    },
    {
      "icao": "LIBP",
      "alert": "OK",
      "vis_m": 9999,
      "fzfg": false,
      "metar_trigger": false,
      "taf_trigger": false,
      "metar": "METAR LIBP 181550Z AUTO 08006KT 020V110 9999 NCD 31/23 Q1011",
      "taf": "TAF LIBP 181100Z 1812/1912 07010KT CAVOK"
    },
    {
      "icao": "LIBR",
      "alert": "OK",
      "vis_m": 9999,
      "fzfg": false,
      "metar_trigger": false,
      "taf_trigger": false,
      "metar": "METAR LIBR 181550Z 33006KT CAVOK 31/25 Q1009",
      "taf": "TAF LIBR 181100Z 1812/1912 01010KT CAVOK"
    },
    {
      "icao": "LICA",
      "alert": "OK",
      "vis_m": 9999,
      "fzfg": false,
      "metar_trigger": false,
      "taf_trigger": false,
      "metar": "METAR LICA 181550Z AUTO 23009KT 9999 NCD 31/24 Q1011",
      "taf": "TAF LICA 181100Z 1812/1912 27014KT CAVOK"
    },
    {
      "icao": "LICC",
      "alert": "OK",
      "vis_m": 9999,
      "fzfg": false,
      "metar_trigger": false,
      "taf_trigger": false,
      "metar": "METAR LICC 181550Z 06011KT CAVOK 38/18 Q1010",
      "taf": "TAF LICC 181100Z 1812/1912 08012KT CAVOK"
    },
    {
      "icao": "LICJ",
      "alert": "OK",
      "vis_m": 9999,
      "fzfg": false,
      "metar_trigger": false,
      "taf_trigger": false,
      "metar": "METAR LICJ 181550Z 02006KT CAVOK 30/28 Q1013",
      "taf": "TAF LICJ 181100Z 1812/1912 34011KT CAVOK"
    },
    {
      "icao": "LIMC",
      "alert": "OK",
      "vis_m": 9999,
      "fzfg": false,
      "metar_trigger": false,
      "taf_trigger": false,
      "metar": "METAR LIMC 181550Z VRB04KT CAVOK 34/10 Q1009 NOSIG",
      "taf": "TAF LIMC 181100Z 1812/1918 22010KT 9999 FEW040"
    },
    {
      "icao": "LIME",
      "alert": "OK",
      "vis_m": 8000,
      "fzfg": false,
      "metar_trigger": false,
      "taf_trigger": false,
      "metar": "METAR LIME 181550Z 25011G21KT 8000 TSRA FEW035CB SCT065 30/13 Q1010 BECMG NSW",
      "taf": "TAF LIME 181100Z 1812/1912 23010KT 9999 SCT050"
    },
    {
      "icao": "LIMF",
      "alert": "OK",
      "vis_m": 9999,
      "fzfg": false,
      "metar_trigger": false,
      "taf_trigger": false,
      "metar": "METAR LIMF 181550Z 06004KT 020V110 9999 FEW050 34/19 Q1009",
      "taf": "TAF LIMF 181100Z 1812/1912 13007KT 9999 FEW040"
    },
    {
      "icao": "LIMJ",
      "alert": "OK",
      "vis_m": 9999,
      "fzfg": false,
      "metar_trigger": false,
      "taf_trigger": false,
      "metar": "METAR LIMJ 181550Z 14012KT 9999 SCT020 29/27 Q1010",
      "taf": "TAF LIMJ 181100Z 1812/1912 18010KT 9999 SCT030"
    },
    {
      "icao": "LIPE",
      "alert": "OK",
      "vis_m": 9999,
      "fzfg": false,
      "metar_trigger": false,
      "taf_trigger": false,
      "metar": "METAR LIPE 181550Z VRB02KT CAVOK 33/20 Q1009",
      "taf": "TAF LIPE 181100Z 1812/1912 VRB05KT 9999 SCT040"
    },
    {
      "icao": "LIPH",
      "alert": "OK",
      "vis_m": 9999,
      "fzfg": false,
      "metar_trigger": false,
      "taf_trigger": false,
      "metar": "METAR LIPH 181550Z VRB02KT 9999 FEW050 29/22 Q1009",
      "taf": "TAF LIPH 181100Z 1812/1912 VRB05KT 9999 FEW040"
    },
    {
      "icao": "LIPQ",
      "alert": "OK",
      "vis_m": 9999,
      "fzfg": false,
      "metar_trigger": false,
      "taf_trigger": false,
      "metar": "METAR LIPQ 181550Z AUTO 22004KT 180V250 9999 NCD 30/22 Q1009",
      "taf": "TAF LIPQ 181100Z 1812/1912 22010KT 9999 FEW040"
    },
    {
      "icao": "LIPR",
      "alert": "OK",
      "vis_m": 9999,
      "fzfg": false,
      "metar_trigger": false,
      "taf_trigger": false,
      "metar": "METAR LIPR 181550Z 06010KT 9999 FEW020 30/25 Q1009",
      "taf": "TAF LIPR 181100Z 1812/1912 07010KT 9999 FEW040"
    },
    {
      "icao": "LIPX",
      "alert": "OK",
      "vis_m": 9999,
      "fzfg": false,
      "metar_trigger": false,
      "taf_trigger": false,
      "metar": "METAR LIPX 181550Z 22009KT 180V240 CAVOK 34/19 Q1009",
      "taf": "TAF LIPX 181100Z 1812/1912 24010KT 9999 FEW050"
    },
    {
      "icao": "LIPY",
      "alert": "OK",
      "vis_m": 9999,
      "fzfg": false,
      "metar_trigger": false,
      "taf_trigger": false,
      "metar": "METAR LIPY 181550Z AUTO 08006KT 040V120 9999 NCD 33/21 Q1009",
      "taf": "TAF LIPY 181100Z 1812/1912 03012KT 9999 FEW040"
    },
    {
      "icao": "LIPZ",
      "alert": "OK",
      "vis_m": 9999,
      "fzfg": false,
      "metar_trigger": false,
      "taf_trigger": false,
      "metar": "METAR LIPZ 181550Z 20008KT 9999 FEW050 28/23 Q1009 NOSIG",
      "taf": "TAF LIPZ 181100Z 1812/1918 18010KT 9999 SCT040"
    },
    {
      "icao": "LIRF",
      "alert": "OK",
      "vis_m": 9999,
      "fzfg": false,
      "metar_trigger": false,
      "taf_trigger": false,
      "metar": "METAR LIRF 181550Z 27010KT CAVOK 32/23 Q1011 NOSIG",
      "taf": "TAF LIRF 181100Z 1812/1918 27012KT CAVOK"
    },
    {
      "icao": "LIRN",
      "alert": "OK",
      "vis_m": 9999,
      "fzfg": false,
      "metar_trigger": false,
      "taf_trigger": false,
      "metar": "METAR LIRN 181550Z 18007KT 140V290 CAVOK 32/24 Q1012 NOSIG",
      "taf": "TAF LIRN 181100Z 1812/1912 23010KT CAVOK"
    },
    {
      "icao": "LIRP",
      "alert": "OK",
      "vis_m": 9999,
      "fzfg": false,
      "metar_trigger": false,
      "taf_trigger": false,
      "metar": "METAR LIRP 181545Z 24012KT 9999 FEW025 31/21 Q1011 NOSIG",
      "taf": "TAF LIRP 181100Z 1812/1912 27010KT 9999 FEW020"
    },
    {
      "icao": "LIRZ",
      "alert": "OK",
      "vis_m": 9999,
      "fzfg": false,
      "metar_trigger": false,
      "taf_trigger": false,
      "metar": "METAR LIRZ 181550Z AUTO 28010KT 9999 FEW061/// 36/16 Q1011",
      "taf": "TAF LIRZ 181100Z 1812/1912 28011KT CAVOK"
    },
    {
      "icao": "LJLJ",
      "alert": "OK",
      "vis_m": 9999,
      "fzfg": false,
      "metar_trigger": false,
      "taf_trigger": false,
      "metar": "METAR LJLJ 181600Z 36012G23KT 330V040 9999 -SHRA VCTS FEW035CB BKN065 BKN090 20/17 Q1014 RETSRA NOSIG",
      "taf": "TAF LJLJ 181100Z 1812/1912 12003KT 9999 FEW070"
    },
    {
      "icao": "LKMT",
      "alert": "OK",
      "vis_m": 9999,
      "fzfg": false,
      "metar_trigger": false,
      "taf_trigger": false,
      "metar": "METAR LKMT 181600Z 17004KT 110V220 CAVOK 22/18 Q1012 NOSIG",
      "taf": "TAF LKMT 181100Z 1812/1912 22012KT CAVOK"
    },
    {
      "icao": "LKPR",
      "alert": "OK",
      "vis_m": 9999,
      "fzfg": false,
      "metar_trigger": false,
      "taf_trigger": false,
      "metar": "METAR LKPR 181600Z 27005KT 240V300 CAVOK 22/17 Q1013 NOSIG",
      "taf": "TAF LKPR 181400Z 1815/1921 24009KT CAVOK"
    },
    {
      "icao": "LLBG",
      "alert": "OK",
      "vis_m": 9999,
      "fzfg": false,
      "metar_trigger": false,
      "taf_trigger": false,
      "metar": "METAR LLBG 181550Z 31006KT 270V330 CAVOK 31/19 Q1007 NOSIG",
      "taf": "TAF LLBG 180605Z 1812/1912 29010KT CAVOK TX35/1812Z TN24/1903Z"
    },
    {
      "icao": "LMML",
      "alert": "OK",
      "vis_m": 9999,
      "fzfg": false,
      "metar_trigger": false,
      "taf_trigger": false,
      "metar": "METAR LMML 181545Z 25009KT 220V280 CAVOK 36/18 Q1012 NOSIG",
      "taf": "TAF LMML 181100Z 1812/1912 28010KT CAVOK"
    },
    {
      "icao": "LOWW",
      "alert": "OK",
      "vis_m": 9999,
      "fzfg": false,
      "metar_trigger": false,
      "taf_trigger": false,
      "metar": "METAR LOWW 181550Z 35010KT CAVOK 28/13 Q1011 NOSIG",
      "taf": "TAF LOWW 181415Z 1815/1921 32010KT CAVOK TX29/1815Z TN19/1921Z"
    },
    {
      "icao": "LPFR",
      "alert": "OK",
      "vis_m": 9999,
      "fzfg": false,
      "metar_trigger": false,
      "taf_trigger": false,
      "metar": "METAR LPFR 181600Z 25011KT CAVOK 26/17 Q1013",
      "taf": "TAF LPFR 181100Z 1812/1912 24015KT CAVOK"
    },
    {
      "icao": "LPMA",
      "alert": "OK",
      "vis_m": 9999,
      "fzfg": false,
      "metar_trigger": false,
      "taf_trigger": false,
      "metar": "METAR LPMA 181600Z 02013KT 340V050 9999 FEW016 26/17 Q1019",
      "taf": "TAF LPMA 181100Z 1812/1912 02010KT 9999 SCT015"
    },
    {
      "icao": "LPPR",
      "alert": "OK",
      "vis_m": 9999,
      "fzfg": false,
      "metar_trigger": false,
      "taf_trigger": false,
      "metar": "METAR LPPR 181600Z 30007KT 270V340 9999 FEW020 23/17 Q1015",
      "taf": "TAF LPPR 181100Z 1812/1912 25010KT 9999 SCT015"
    },
    {
      "icao": "LPPS",
      "alert": "OK",
      "vis_m": 9999,
      "fzfg": false,
      "metar_trigger": false,
      "taf_trigger": false,
      "metar": "METAR LPPS 181600Z 36013KT 9999 FEW015 25/17 Q1019",
      "taf": "TAF LPPS 181100Z 1812/1918 02010KT 9999 SCT015"
    },
    {
      "icao": "LPPT",
      "alert": "OK",
      "vis_m": 9999,
      "fzfg": false,
      "metar_trigger": false,
      "taf_trigger": false,
      "metar": "METAR LPPT 181600Z 32011KT 280V350 9999 FEW028 24/16 Q1016 NOSIG",
      "taf": "TAF LPPT 181100Z 1812/1918 32010KT 9999 SCT030"
    },
    {
      "icao": "LQBK",
      "alert": "OK",
      "vis_m": 9999,
      "fzfg": false,
      "metar_trigger": false,
      "taf_trigger": false,
      "metar": "METAR LQBK 181600Z 14011KT 110V170 CAVOK 29/17 Q1011 TEMPO 33012KT TSRA FEW040CB",
      "taf": "TAF LQBK 181100Z 1812/1912 30006KT CAVOK TX34/1814Z TN19/1903Z"
    },
    {
      "icao": "LQSA",
      "alert": "OK",
      "vis_m": 9999,
      "fzfg": false,
      "metar_trigger": false,
      "taf_trigger": false,
      "metar": "METAR LQSA 181600Z 29008KT CAVOK 27/17 Q1013 NOSIG",
      "taf": "TAF LQSA 181100Z 1812/1912 VRB02KT CAVOK TX34/1813Z TN19/1903Z"
    },
    {
      "icao": "LQTZ",
      "alert": "OK",
      "vis_m": 9999,
      "fzfg": false,
      "metar_trigger": false,
      "taf_trigger": false,
      "metar": "METAR LQTZ 181600Z 29011KT 9999 -TSRA FEW045CB SCT070 23/23 Q1013",
      "taf": "TAF LQTZ 181100Z 1812/1912 27005KT 9999 FEW045 TX33/1813Z TN17/1903Z"
    },
    {
      "icao": "LRBC",
      "alert": "OK",
      "vis_m": 9999,
      "fzfg": false,
      "metar_trigger": false,
      "taf_trigger": false,
      "metar": "METAR LRBC 181600Z 24003KT 200V280 CAVOK 28/20 Q1011",
      "taf": "TAF LRBC 181400Z 1815/1824 17008KT 9999 SCT050"
    },
    {
      "icao": "LRBS",
      "alert": "OK",
      "vis_m": 9999,
      "fzfg": false,
      "metar_trigger": false,
      "taf_trigger": false,
      "metar": "METAR LRBS 181600Z 01005KT 340V040 CAVOK 30/19 Q1010 NOSIG",
      "taf": "TAF LRBS 181100Z 1812/1912 VRB04KT CAVOK"
    },
    {
      "icao": "LRBV",
      "alert": "OK",
      "vis_m": 9999,
      "fzfg": false,
      "metar_trigger": false,
      "taf_trigger": false,
      "metar": "METAR LRBV 181600Z 20008KT 9999 FEW075 28/16 Q1013",
      "taf": "TAF LRBV 181400Z 1815/1824 22008KT CAVOK"
    },
    {
      "icao": "LRCL",
      "alert": "OK",
      "vis_m": 9999,
      "fzfg": false,
      "metar_trigger": false,
      "taf_trigger": false,
      "metar": "METAR LRCL 181600Z 17005KT 140V210 9999 FEW048CB 29/17 Q1010",
      "taf": "TAF LRCL 181400Z 1815/1824 VRB04KT CAVOK"
    },
    {
      "icao": "LRCV",
      "alert": "OK",
      "vis_m": 9999,
      "fzfg": false,
      "metar_trigger": false,
      "taf_trigger": false,
      "metar": "METAR LRCV 181600Z 07017KT 9999 FEW060CB 30/19 Q1010",
      "taf": "TAF LRCV 181400Z 1815/1824 VRB04KT CAVOK"
    },
    {
      "icao": "LRIA",
      "alert": "OK",
      "vis_m": 9999,
      "fzfg": false,
      "metar_trigger": false,
      "taf_trigger": false,
      "metar": "METAR LRIA 181600Z 11008KT CAVOK 31/15 Q1010",
      "taf": "TAF LRIA 181400Z 1815/1824 14006KT CAVOK"
    },
    {
      "icao": "LROP",
      "alert": "OK",
      "vis_m": 9999,
      "fzfg": false,
      "metar_trigger": false,
      "taf_trigger": false,
      "metar": "METAR LROP 181600Z 29010KT CAVOK 30/19 Q1011 NOSIG",
      "taf": "TAF LROP 181100Z 1812/1912 VRB04KT CAVOK"
    },
    {
      "icao": "LRSB",
      "alert": "OK",
      "vis_m": 9999,
      "fzfg": false,
      "metar_trigger": false,
      "taf_trigger": false,
      "metar": "METAR LRSB 181600Z 19006KT 160V220 9999 FEW048CB 28/17 Q1011 NOSIG",
      "taf": "TAF LRSB 181100Z 1812/1912 34007KT CAVOK"
    },
    {
      "icao": "LRSM",
      "alert": "OK",
      "vis_m": 9999,
      "fzfg": false,
      "metar_trigger": false,
      "taf_trigger": false,
      "metar": "METAR LRSM 181600Z 13009KT 9999 FEW035CB 25/20 Q1008",
      "taf": "TAF LRSM 181400Z 1815/1824 VRB04KT CAVOK"
    },
    {
      "icao": "LRSV",
      "alert": "OK",
      "vis_m": 9999,
      "fzfg": false,
      "metar_trigger": false,
      "taf_trigger": false,
      "metar": "METAR LRSV 181600Z 24004KT 200V280 CAVOK 27/17 Q1012",
      "taf": "TAF LRSV 181400Z 1815/1824 22006KT CAVOK"
    },
    {
      "icao": "LRTM",
      "alert": "OK",
      "vis_m": 9999,
      "fzfg": false,
      "metar_trigger": false,
      "taf_trigger": false,
      "metar": "METAR LRTM 181600Z 09004KT 070V140 CAVOK 32/20 Q1010",
      "taf": "TAF LRTM 181400Z 1815/1824 VRB04KT CAVOK"
    },
    {
      "icao": "LRTR",
      "alert": "OK",
      "vis_m": 9999,
      "fzfg": false,
      "metar_trigger": false,
      "taf_trigger": false,
      "metar": "METAR LRTR 181600Z 32009KT 280V360 CAVOK 34/12 Q1009",
      "taf": "TAF LRTR 181100Z 1812/1912 30009KT CAVOK"
    },
    {
      "icao": "LTAC",
      "alert": "OK",
      "vis_m": 9999,
      "fzfg": false,
      "metar_trigger": false,
      "taf_trigger": false,
      "metar": "METAR LTAC 181550Z 04005KT 360V060 9999 SCT040 28/08 Q1013 NOSIG RMK RWY21C 04004KT 340V070 RWY03L 03006KT RWY21R VRB03KT RWY03R 02003KT 310V080 RWY21L 02004KT",
      "taf": "TAF LTAC 181040Z 1812/1912 06012KT 9999 SCT040"
    },
    {
      "icao": "LTFM",
      "alert": "OK",
      "vis_m": 9999,
      "fzfg": false,
      "metar_trigger": false,
      "taf_trigger": false,
      "metar": "METAR LTFM 181550Z 05015KT CAVOK 26/19 Q1012 NOSIG RMK RWY17L 05013KT RWY34L 04014KT RWY16R 05013KT RWY36 05015KT RWY18 06013KT",
      "taf": "TAF LTFM 181040Z 1812/1918 05015KT 9999 FEW028"
    },
    {
      "icao": "LUKK",
      "alert": "OK",
      "vis_m": 9999,
      "fzfg": false,
      "metar_trigger": false,
      "taf_trigger": false,
      "metar": "METAR LUKK 181600Z 14010G22KT CAVOK 29/17 Q1011 NOSIG",
      "taf": "TAF LUKK 181102Z 1812/1912 14008KT CAVOK"
    },
    {
      "icao": "LWOH",
      "alert": "OK",
      "vis_m": 9999,
      "fzfg": false,
      "metar_trigger": false,
      "taf_trigger": false,
      "metar": "METAR LWOH 181550Z 14007KT 9999 FEW045 31/20 Q1013",
      "taf": "TAF LWOH 181425Z 1815/1915 16008KT 9999 FEW050"
    },
    {
      "icao": "LWSK",
      "alert": "OK",
      "vis_m": 9999,
      "fzfg": false,
      "metar_trigger": false,
      "taf_trigger": false,
      "metar": "METAR LWSK 181550Z 21003KT 120V280 9999 FEW055 38/17 Q1008 NOSIG",
      "taf": "TAF LWSK 181425Z 1815/1915 VRB02KT 9999 FEW050"
    },
    {
      "icao": "LYBE",
      "alert": "OK",
      "vis_m": 9999,
      "fzfg": false,
      "metar_trigger": false,
      "taf_trigger": false,
      "metar": "METAR LYBE 181600Z 04005KT CAVOK 34/16 Q1009 NOSIG",
      "taf": "TAF LYBE 181100Z 1812/1912 33008KT CAVOK TX36/1814Z TN22/1903Z"
    },
    {
      "icao": "LYNI",
      "alert": "OK",
      "vis_m": 9999,
      "fzfg": false,
      "metar_trigger": false,
      "taf_trigger": false,
      "metar": "METAR LYNI 181600Z 35004KT 310V020 9999 FEW043 36/13 Q1008 NOSIG",
      "taf": "TAF LYNI 181100Z 1812/1912 32005KT CAVOK TX36/1814Z TN21/1903Z"
    },
    {
      "icao": "LYPG",
      "alert": "OK",
      "vis_m": 9999,
      "fzfg": false,
      "metar_trigger": false,
      "taf_trigger": false,
      "metar": "METAR LYPG 181600Z 14010KT CAVOK 36/17 Q1008 NOSIG",
      "taf": "TAF LYPG 181100Z 1812/1912 18009KT 9999 FEW050 TX39/1814Z TN26/1903Z"
    },
    {
      "icao": "LZIB",
      "alert": "OK",
      "vis_m": 9999,
      "fzfg": false,
      "metar_trigger": false,
      "taf_trigger": false,
      "metar": "METAR LZIB 181600Z 30006KT 260V340 9999 FEW060TCU 30/12 Q1011 TEMPO 01010KT FEW060CB",
      "taf": ""
    },
    {
      "icao": "LZKZ",
      "alert": "OK",
      "vis_m": 9999,
      "fzfg": false,
      "metar_trigger": false,
      "taf_trigger": false,
      "metar": "METAR LZKZ 181600Z 02010KT CAVOK 30/17 Q1009 TEMPO FEW060TCU",
      "taf": ""
    },
    {
      "icao": "LZTT",
      "alert": "OK",
      "vis_m": 9999,
      "fzfg": false,
      "metar_trigger": false,
      "taf_trigger": false,
      "metar": "METAR LZTT 181600Z 26016KT 9999 FEW046CB 24/13 Q1012 NOSIG",
      "taf": "TAF LZTT 181115Z 1812/1912 27013KT 9999 SCT043"
    },
    {
      "icao": "OEJN",
      "alert": "OK",
      "vis_m": 9999,
      "fzfg": false,
      "metar_trigger": false,
      "taf_trigger": false,
      "metar": "METAR OEJN 181600Z 34012KT CAVOK 36/15 Q1005 NOSIG",
      "taf": "TAF OEJN 181100Z 1812/1918 30012KT CAVOK"
    },
    {
      "icao": "OEMA",
      "alert": "OK",
      "vis_m": 9999,
      "fzfg": false,
      "metar_trigger": false,
      "taf_trigger": false,
      "metar": "METAR OEMA 181600Z 27008KT CAVOK 41/05 Q1009 NOSIG",
      "taf": "TAF OEMA 181100Z 1812/1918 29010KT 9999 FEW040"
    },
    {
      "icao": "OJAI",
      "alert": "OK",
      "vis_m": 5000,
      "fzfg": false,
      "metar_trigger": false,
      "taf_trigger": false,
      "metar": "METAR OJAI 181600Z 29010KT 5000 DU NSC 31/11 Q1012 NOSIG",
      "taf": "TAF OJAI 181038Z 1812/1918 29010KT 5000 HZ NSC"
    },
    {
      "icao": "OMAA",
      "alert": "OK",
      "vis_m": 9999,
      "fzfg": false,
      "metar_trigger": false,
      "taf_trigger": false,
      "metar": "METAR OMAA 181600Z 35006KT CAVOK 37/23 Q0998 NOSIG",
      "taf": "TAF OMAA 181100Z 1812/1918 33013KT 7000 NSC"
    },
    {
      "icao": "OMDB",
      "alert": "OK",
      "vis_m": 9999,
      "fzfg": false,
      "metar_trigger": false,
      "taf_trigger": false,
      "metar": "METAR OMDB 181600Z 01004KT 340V040 CAVOK 38/22 Q0999 NOSIG",
      "taf": "TAF OMDB 181100Z 1812/1918 33013KT 7000 NSC"
    },
    {
      "icao": "UAAA",
      "alert": "OK",
      "vis_m": 9999,
      "fzfg": false,
      "metar_trigger": false,
      "taf_trigger": false,
      "metar": "METAR UAAA 181600Z 30004MPS 260V360 9999 SCT200 29/13 Q1007 NOSIG",
      "taf": "TAF UAAA 181104Z 1812/1912 17002MPS 9999 FEW050 SCT100 TX42/1910Z TN23/1900Z"
    },
    {
      "icao": "UBBB",
      "alert": "OK",
      "vis_m": 9999,
      "fzfg": false,
      "metar_trigger": false,
      "taf_trigger": false,
      "metar": "METAR UBBB 181600Z 34012KT CAVOK 27/21 Q1009 NOSIG",
      "taf": "TAF UBBB 181052Z 1812/1912 34016KT CAVOK TX30/1812Z TN25/1901Z"
    },
    {
      "icao": "UDSG",
      "alert": "OK",
      "vis_m": 9999,
      "fzfg": false,
      "metar_trigger": false,
      "taf_trigger": false,
      "metar": "METAR UDSG 181600Z 02020KT 9999 SCT049CB 20/15 Q1016 NOSIG",
      "taf": "TAF UDSG 181058Z 1812/1912 06006KT 9999 SCT050"
    },
    {
      "icao": "UDYZ",
      "alert": "OK",
      "vis_m": 9999,
      "fzfg": false,
      "metar_trigger": false,
      "taf_trigger": false,
      "metar": "METAR UDYZ 181600Z 03013KT 9999 FEW043CB 30/16 Q1007 NOSIG",
      "taf": "TAF UDYZ 181100Z 1812/1912 04006KT 9999 FEW040"
    },
    {
      "icao": "UGKO",
      "alert": "OK",
      "vis_m": 9999,
      "fzfg": false,
      "metar_trigger": false,
      "taf_trigger": false,
      "metar": "METAR UGKO 181600Z 23009KT 9999 OVC040 23/20 Q1011 NOSIG",
      "taf": "TAF UGKO 181100Z 1812/1912 26007KT 9999 SCT023 BKN050 TX28/1812Z TN20/1902Z"
    }
  ]
}