{
  "ts_utc": "2026-01-19T08:36:03Z",
  "threshold_m": 150,
  "source": "stations_override.txt (ICAO list) + aviationweather.gov (METAR/TAF raw)",
  "station_count": 159,
  "stations": [
    {
      "icao": "BIKF",
      "alert": "OK",
      "vis_m": 9999,
      "fzfg": false,
      "metar_trigger": false,
      "taf_trigger": false,
      "metar": "METAR BIKF 190830Z 12007KT CAVOK 01/M00 Q0994",
      "taf": "TAF BIKF 190751Z 1909/2009 15008KT 9999 -SHRA SCT030 TX05/1919Z TN00/1909Z"
    },
    {
      "icao": "BKPR",
      "alert": "OK",
      "vis_m": 9999,
      "fzfg": false,
      "metar_trigger": false,
      "taf_trigger": false,
      "metar": "METAR BKPR 190830Z 02007KT CAVOK M05/M09 Q1032 NOSIG",
      "taf": "TAF BKPR 190530Z 1906/2006 02012KT 9999 SCT030"
    },
    {
      "icao": "EBCI",
      "alert": "OK",
      "vis_m": 5000,
      "fzfg": false,
      "metar_trigger": false,
      "taf_trigger": false,
      "metar": "METAR EBCI 190820Z 19005KT 5000 BR NSC 02/00 Q1018 TEMPO 4000 BR",
      "taf": "TAF EBCI 190507Z 1906/2012 17004KT CAVOK"
    },
    {
      "icao": "EDDB",
      "alert": "OK",
      "vis_m": 9999,
      "fzfg": false,
      "metar_trigger": false,
      "taf_trigger": false,
      "metar": "METAR EDDB 190820Z AUTO 10012KT CAVOK M02/M06 Q1025 NOSIG",
      "taf": "TAF EDDB 190500Z 1906/2006 12010KT CAVOK"
    },
    {
      "icao": "EDDH",
      "alert": "OK",
      "vis_m": 9999,
      "fzfg": false,
      "metar_trigger": false,
      "taf_trigger": false,
      "metar": "METAR EDDH 190820Z AUTO 14008KT 110V170 CAVOK M01/M05 Q1022 NOSIG",
      "taf": "TAF EDDH 190500Z 1906/2012 12009KT CAVOK"
    },
    {
      "icao": "EDDK",
      "alert": "OK",
      "vis_m": 9999,
      "fzfg": false,
      "metar_trigger": false,
      "taf_trigger": false,
      "metar": "METAR EDDK 190820Z AUTO 13009KT 9999 OVC010 01/M01 Q1019 NOSIG",
      "taf": "TAF EDDK 190500Z 1906/2012 12007KT 9999 BKN015"
    },
    {
      "icao": "EDDN",
      "alert": "OK",
      "vis_m": 9999,
      "fzfg": false,
      "metar_trigger": false,
      "taf_trigger": false,
      "metar": "METAR EDDN 190820Z AUTO 11008KT CAVOK M01/M05 Q1021 NOSIG",
      "taf": "TAF EDDN 190500Z 1906/2006 10008KT CAVOK"
    },
    {
      "icao": "EDDS",
      "alert": "OK",
      "vis_m": 1600,
      "fzfg": true,
      "metar_trigger": false,
      "taf_trigger": false,
      "metar": "METAR EDDS 190820Z AUTO VRB01KT 1600 1300 R25/1900N BR OVC001 M02/M03 Q1018 TEMPO 0900 FZFG",
      "taf": "TAF EDDS 190500Z 1906/2006 VRB02KT 3000 BR OVC002"
    },
    {
      "icao": "EDFH",
      "alert": "OK",
      "vis_m": 250,
      "fzfg": true,
      "metar_trigger": false,
      "taf_trigger": false,
      "metar": "METAR EDFH 190820Z 13005KT 0250 R21/0325N FZFG VV/// M01/M01 Q1018",
      "taf": "TAF EDFH 190500Z 1906/2006 14010KT 0800 FZFG OVC002"
    },
    {
      "icao": "EDJA",
      "alert": "OK",
      "vis_m": 7000,
      "fzfg": false,
      "metar_trigger": false,
      "taf_trigger": false,
      "metar": "METAR EDJA 190820Z 08001KT 7000 3100E NSC M04/M05 Q1019",
      "taf": "TAF EDJA 190800Z 1909/1918 05004KT CAVOK"
    },
    {
      "icao": "EDLW",
      "alert": "OK",
      "vis_m": 9999,
      "fzfg": false,
      "metar_trigger": false,
      "taf_trigger": false,
      "metar": "METAR EDLW 190820Z 17005KT 120V210 CAVOK M00/M02 Q1018",
      "taf": "TAF EDLW 190500Z 1906/2006 14004KT CAVOK"
    },
    {
      "icao": "EDNY",
      "alert": "OK",
      "vis_m": 5000,
      "fzfg": false,
      "metar_trigger": false,
      "taf_trigger": false,
      "metar": "METAR EDNY 190820Z 06005KT 5000 1000E R06/P2000N BR BKN002 OVC006 M03/M03 Q1020",
      "taf": "TAF EDNY 190800Z 1909/1918 04003KT 5000 BR OVC002"
    },
    {
      "icao": "EDSB",
      "alert": "OK",
      "vis_m": 6000,
      "fzfg": false,
      "metar_trigger": false,
      "taf_trigger": false,
      "metar": "METAR EDSB 190820Z VRB01KT 6000 OVC006 01/M00 Q1020",
      "taf": "TAF EDSB 190500Z 1906/2006 VRB02KT 8000 OVC008"
    },
    {
      "icao": "EETN",
      "alert": "OK",
      "vis_m": 4500,
      "fzfg": false,
      "metar_trigger": false,
      "taf_trigger": false,
      "metar": "METAR EETN 190820Z 21005KT 4500 BR OVC003 M07/M08 Q1034 TEMPO 2000",
      "taf": "TAF EETN 190530Z 1906/2006 19006KT 8000 BKN005 OVC010"
    },
    {
      "icao": "EFTU",
      "alert": "OK",
      "vis_m": 4000,
      "fzfg": false,
      "metar_trigger": false,
      "taf_trigger": false,
      "metar": "METAR EFTU 190820Z AUTO 21005KT 160V230 4000 1500 -FZDZ OVC001 M01/M01 Q1032",
      "taf": ""
    },
    {
      "icao": "EGBB",
      "alert": "OK",
      "vis_m": 1500,
      "fzfg": false,
      "metar_trigger": false,
      "taf_trigger": false,
      "metar": "METAR EGBB 190820Z 15006KT 1500 BR BKN003 07/07 Q1012",
      "taf": ""
    },
    {
      "icao": "EGGP",
      "alert": "OK",
      "vis_m": 5000,
      "fzfg": false,
      "metar_trigger": false,
      "taf_trigger": false,
      "metar": "METAR EGGP 190820Z 13002KT 5000 BR BKN003 BKN005 05/04 Q1012",
      "taf": "TAF EGGP 190458Z 1906/2006 VRB03KT 9999 FEW008 BKN025"
    },
    {
      "icao": "EGGW",
      "alert": "OK",
      "vis_m": 5000,
      "fzfg": false,
      "metar_trigger": false,
      "taf_trigger": false,
      "metar": "METAR EGGW 190820Z AUTO 16008KT 5000 BR OVC005 06/06 Q1013",
      "taf": "TAF EGGW 190456Z 1906/2006 15007KT 6000 FEW005 SCT015"
    },
    {
      "icao": "EGKK",
      "alert": "OK",
      "vis_m": 8000,
      "fzfg": false,
      "metar_trigger": false,
      "taf_trigger": false,
      "metar": "METAR EGKK 190820Z 16006KT 8000 BKN005 09/09 Q1014",
      "taf": "TAF EGKK 190454Z 1906/2012 09004KT 9999 FEW008 SCT045"
    },
    {
      "icao": "EGNM",
      "alert": "OK",
      "vis_m": 200,
      "fzfg": false,
      "metar_trigger": false,
      "taf_trigger": false,
      "metar": "METAR EGNM 190820Z 07002KT 0200 R32/0350N FG VV/// 05/05 Q1012",
      "taf": "TAF EGNM 190458Z 1906/2006 15004KT 0300 FG VV///"
    },
    {
      "icao": "EGPD",
      "alert": "OK",
      "vis_m": 8000,
      "fzfg": false,
      "metar_trigger": false,
      "taf_trigger": false,
      "metar": "METAR EGPD 190820Z AUTO 14003KT 100V200 8000 NCD 02/02 Q1013 TEMPO 4000 BR",
      "taf": "TAF EGPD 190456Z 1906/2006 14008KT 9999 SCT008"
    },
    {
      "icao": "EGPF",
      "alert": "OK",
      "vis_m": 9999,
      "fzfg": false,
      "metar_trigger": false,
      "taf_trigger": false,
      "metar": "METAR EGPF 190820Z AUTO 04005KT 9999 OVC042 04/03 Q1012",
      "taf": ""
    },
    {
      "icao": "EHBK",
      "alert": "OK",
      "vis_m": 9999,
      "fzfg": false,
      "metar_trigger": false,
      "taf_trigger": false,
      "metar": "METAR EHBK 190825Z AUTO 18005KT 9999 NSC 00/M01 Q1018 NOSIG",
      "taf": "TAF EHBK 190511Z 1906/2012 12006KT CAVOK"
    },
    {
      "icao": "EHEH",
      "alert": "OK",
      "vis_m": 5000,
      "fzfg": false,
      "metar_trigger": false,
      "taf_trigger": false,
      "metar": "METAR EHEH 190825Z AUTO 16003KT 110V250 5000 BR OVC130 M00/M01 Q1018 WHT BECMG 6000 NSW RMK TREND REMOTE BY EHWX",
      "taf": "TAF EHEH 190556Z 1906/2012 13004KT 3500 BR NSC"
    },
    {
      "icao": "EKBI",
      "alert": "OK",
      "vis_m": 9999,
      "fzfg": false,
      "metar_trigger": false,
      "taf_trigger": false,
      "metar": "METAR EKBI 190820Z AUTO 11007KT 9999 NCD M01/M02 Q1022",
      "taf": "TAF EKBI 190827Z 1909/2009 12008KT CAVOK"
    },
    {
      "icao": "EKCH",
      "alert": "OK",
      "vis_m": 9999,
      "fzfg": false,
      "metar_trigger": false,
      "taf_trigger": false,
      "metar": "METAR EKCH 190820Z AUTO 13014KT 9999 NCD 01/M01 Q1026 NOSIG",
      "taf": "TAF EKCH 190827Z 1909/2009 13012KT CAVOK"
    },
    {
      "icao": "ENAL",
      "alert": "OK",
      "vis_m": 9999,
      "fzfg": false,
      "metar_trigger": false,
      "taf_trigger": false,
      "metar": "METAR ENAL 190820Z 150005KT 9999 FEW006 SCT010 BKN012 04/03 Q1020",
      "taf": "TAF ENAL 190800Z 1909/1918 VRB05KT 9999 -RA FEW010 BKN050"
    },
    {
      "icao": "ENBR",
      "alert": "OK",
      "vis_m": 9999,
      "fzfg": false,
      "metar_trigger": false,
      "taf_trigger": false,
      "metar": "METAR ENBR 190820Z 14003KT CAVOK 03/02 Q1020 NOSIG RMK WIND 1200FT 16011KT",
      "taf": "TAF ENBR 190500Z 1906/2006 12005KT 9999 FEW030"
    },
    {
      "icao": "ENGM",
      "alert": "OK",
      "vis_m": 9999,
      "fzfg": false,
      "metar_trigger": false,
      "taf_trigger": false,
      "metar": "METAR ENGM 190820Z 12004KT 9999 VCSH FEW010 BKN025 M01/M02 Q1027 NOSIG",
      "taf": ""
    },
    {
      "icao": "ENHD",
      "alert": "OK",
      "vis_m": 9999,
      "fzfg": false,
      "metar_trigger": false,
      "taf_trigger": false,
      "metar": "METAR ENHD 190820Z 16008KT 140V200 CAVOK 04/01 Q1021",
      "taf": "TAF ENHD 190800Z 1909/1918 15008KT 9999 FEW050"
    },
    {
      "icao": "ENTC",
      "alert": "OK",
      "vis_m": 9999,
      "fzfg": false,
      "metar_trigger": false,
      "taf_trigger": false,
      "metar": "METAR ENTC 190820Z 21004KT CAVOK 02/00 Q1028 NOSIG RMK WIND 2600FT 18005KT",
      "taf": ""
    },
    {
      "icao": "ENTO",
      "alert": "OK",
      "vis_m": 4500,
      "fzfg": false,
      "metar_trigger": false,
      "taf_trigger": false,
      "metar": "METAR ENTO 190820Z 11003KT 4500 BR FEW005 BKN008 BKN012 00/00 Q1027 TEMPO 6000 SCT008 BKN015",
      "taf": "TAF ENTO 190500Z 1906/2006 11003KT 6000 BKN007"
    },
    {
      "icao": "ENVA",
      "alert": "OK",
      "vis_m": 9999,
      "fzfg": false,
      "metar_trigger": false,
      "taf_trigger": false,
      "metar": "METAR ENVA 190820Z 11006KT CAVOK 06/M01 Q1022 NOSIG RMK WIND 670FT 15010KT",
      "taf": "TAF ENVA 190500Z 1906/2006 10005KT CAVOK"
    },
    {
      "icao": "ENZV",
      "alert": "OK",
      "vis_m": 9999,
      "fzfg": false,
      "metar_trigger": false,
      "taf_trigger": false,
      "metar": "METAR ENZV 190820Z 17005KT CAVOK 02/M01 Q1021 NOSIG",
      "taf": "TAF ENZV 190500Z 1906/2006 16008KT 9999 FEW030"
    },
    {
      "icao": "EPGD",
      "alert": "OK",
      "vis_m": 7000,
      "fzfg": false,
      "metar_trigger": false,
      "taf_trigger": false,
      "metar": "METAR EPGD 190830Z 18003KT 7000 NSC M08/M10 Q1032",
      "taf": "TAF EPGD 190530Z 1906/2006 18007KT 8000 NSC"
    },
    {
      "icao": "EPKK",
      "alert": "OK",
      "vis_m": 5000,
      "fzfg": false,
      "metar_trigger": false,
      "taf_trigger": false,
      "metar": "METAR EPKK 190830Z 05004KT 5000 BR NSC M11/M14 Q1034",
      "taf": "TAF EPKK 190830Z 1909/2009 06004KT 8000 NSC"
    },
    {
      "icao": "EPKT",
      "alert": "OK",
      "vis_m": 4600,
      "fzfg": false,
      "metar_trigger": false,
      "taf_trigger": false,
      "metar": "METAR EPKT 190830Z VRB01KT 4600 BR NSC M06/M09 Q1033",
      "taf": "TAF EPKT 190530Z 1906/2006 14006KT 5000 BR NSC"
    },
    {
      "icao": "EPLB",
      "alert": "OK",
      "vis_m": 6000,
      "fzfg": false,
      "metar_trigger": false,
      "taf_trigger": false,
      "metar": "METAR EPLB 190830Z 07005KT 6000 NSC M17/M18 Q1036",
      "taf": "TAF EPLB 190530Z 1906/2006 10007KT CAVOK"
    },
    {
      "icao": "EPMO",
      "alert": "OK",
      "vis_m": 5000,
      "fzfg": false,
      "metar_trigger": false,
      "taf_trigger": false,
      "metar": "METAR EPMO 190830Z 08004KT 5000 BR NSC M15/M16 Q1035",
      "taf": ""
    },
    {
      "icao": "EPPO",
      "alert": "OK",
      "vis_m": 9000,
      "fzfg": false,
      "metar_trigger": false,
      "taf_trigger": false,
      "metar": "METAR EPPO 190830Z 11008KT 9000 NSC M04/M08 Q1030",
      "taf": "TAF EPPO 190530Z 1906/2006 10010KT CAVOK"
    },
    {
      "icao": "EPRA",
      "alert": "OK",
      "vis_m": 9999,
      "fzfg": false,
      "metar_trigger": false,
      "taf_trigger": false,
      "metar": "METAR EPRA 190830Z 15004KT 120V180 CAVOK M13/M15 Q1035",
      "taf": "TAF EPRA 190830Z 1909/1918 15008KT CAVOK"
    },
    {
      "icao": "EPRZ",
      "alert": "OK",
      "vis_m": 7000,
      "fzfg": false,
      "metar_trigger": false,
      "taf_trigger": false,
      "metar": "METAR EPRZ 190830Z 10006KT 7000 NSC M13/M16 Q1035",
      "taf": "TAF EPRZ 190530Z 1906/2006 08008KT CAVOK"
    },
    {
      "icao": "EPSC",
      "alert": "OK",
      "vis_m": 9999,
      "fzfg": false,
      "metar_trigger": false,
      "taf_trigger": false,
      "metar": "METAR EPSC 190830Z 13012KT CAVOK M03/M08 Q1028",
      "taf": "TAF EPSC 190530Z 1906/2006 14010KT CAVOK"
    },
    {
      "icao": "EPSY",
      "alert": "OK",
      "vis_m": 9999,
      "fzfg": false,
      "metar_trigger": false,
      "taf_trigger": false,
      "metar": "METAR EPSY 190830Z 14005KT 100V180 CAVOK M14/M16 Q1036",
      "taf": "TAF EPSY 190830Z 1909/1918 15006KT CAVOK"
    },
    {
      "icao": "EPWA",
      "alert": "OK",
      "vis_m": 9000,
      "fzfg": false,
      "metar_trigger": false,
      "taf_trigger": false,
      "metar": "METAR EPWA 190830Z 13008KT 9000 NSC M12/M14 Q1036 NOSIG",
      "taf": "TAF EPWA 190830Z 1909/2009 13007KT CAVOK"
    },
    {
      "icao": "EPWR",
      "alert": "OK",
      "vis_m": 9999,
      "fzfg": false,
      "metar_trigger": false,
      "taf_trigger": false,
      "metar": "METAR EPWR 190830Z 11009KT CAVOK M03/M06 Q1030",
      "taf": "TAF EPWR 190830Z 1909/2009 12010KT CAVOK"
    },
    {
      "icao": "ESGG",
      "alert": "OK",
      "vis_m": 9999,
      "fzfg": false,
      "metar_trigger": false,
      "taf_trigger": false,
      "metar": "METAR ESGG 190820Z COR 12008KT 9999 BKN005 M02/M03 Q1026",
      "taf": "TAF ESGG 190830Z 1909/2009 12009KT 9999 BKN004"
    },
    {
      "icao": "ESKN",
      "alert": "OK",
      "vis_m": 9999,
      "fzfg": false,
      "metar_trigger": false,
      "taf_trigger": false,
      "metar": "METAR ESKN 190820Z 16007KT 9999 OVC005 01/00 Q1030",
      "taf": "TAF ESKN 190830Z 1909/2009 16007KT 8000 OVC004"
    },
    {
      "icao": "ESMS",
      "alert": "OK",
      "vis_m": 9999,
      "fzfg": false,
      "metar_trigger": false,
      "taf_trigger": false,
      "metar": "METAR ESMS 190820Z 12008KT CAVOK 01/M02 Q1027",
      "taf": "TAF ESMS 190827Z 1909/2009 12010KT CAVOK"
    },
    {
      "icao": "ESSA",
      "alert": "OK",
      "vis_m": 9999,
      "fzfg": false,
      "metar_trigger": false,
      "taf_trigger": false,
      "metar": "METAR ESSA 190820Z 16007KT 9999 OVC008 M00/M01 Q1030 TEMPO BKN010",
      "taf": "TAF ESSA 190830Z 1909/2009 16007KT 9999 OVC007"
    },
    {
      "icao": "EYKA",
      "alert": "OK",
      "vis_m": 9000,
      "fzfg": false,
      "metar_trigger": false,
      "taf_trigger": false,
      "metar": "METAR EYKA 190820Z 18004KT 130V220 9000 NSC M14/M17 Q1038",
      "taf": "TAF EYKA 190500Z 1906/2006 VRB04KT 9000 NSC"
    },
    {
      "icao": "EYPA",
      "alert": "OK",
      "vis_m": 9999,
      "fzfg": false,
      "metar_trigger": false,
      "taf_trigger": false,
      "metar": "METAR EYPA 190820Z 16011KT CAVOK M10/M13 Q1035",
      "taf": "TAF EYPA 190500Z 1906/2006 16010KT 9000 NSC"
    },
    {
      "icao": "EYVI",
      "alert": "OK",
      "vis_m": 8000,
      "fzfg": false,
      "metar_trigger": false,
      "taf_trigger": false,
      "metar": "METAR EYVI 190820Z 18007KT 8000 NSC M17/M19 Q1038 NOSIG",
      "taf": "TAF EYVI 190500Z 1906/2006 18009KT 9000 NSC"
    },
    {
      "icao": "GCFV",
      "alert": "OK",
      "vis_m": 9999,
      "fzfg": false,
      "metar_trigger": false,
      "taf_trigger": false,
      "metar": "METAR GCFV 190830Z 34012KT 9999 FEW035 15/09 Q1020",
      "taf": "TAF GCFV 190800Z 1909/2009 02018KT 9999 SCT035 TX20/1914Z TN14/2006Z"
    },
    {
      "icao": "GCLP",
      "alert": "OK",
      "vis_m": 9999,
      "fzfg": false,
      "metar_trigger": false,
      "taf_trigger": false,
      "metar": "METAR GCLP 190830Z 01020KT 9999 BKN035 16/09 Q1021 NOSIG",
      "taf": "TAF GCLP 190800Z 1909/2009 02023KT 9999 BKN035 TX20/1914Z TN15/2006Z"
    },
    {
      "icao": "GCTS",
      "alert": "OK",
      "vis_m": 9999,
      "fzfg": false,
      "metar_trigger": false,
      "taf_trigger": false,
      "metar": "METAR GCTS 190830Z 06012KT 030V090 9999 BKN035 17/08 Q1021 NOSIG",
      "taf": "TAF GCTS 190800Z 1909/2009 05009KT 9999 BKN035 TX23/1914Z TN13/2006Z"
    },
    {
      "icao": "GMAD",
      "alert": "OK",
      "vis_m": 9999,
      "fzfg": false,
      "metar_trigger": false,
      "taf_trigger": false,
      "metar": "METAR GMAD 190830Z 34005KT 290V020 CAVOK 10/05 Q1014 NOSIG",
      "taf": "TAF GMAD 190500Z 1906/2012 22006KT 8000 SCT020"
    },
    {
      "icao": "GMMN",
      "alert": "OK",
      "vis_m": 5000,
      "fzfg": false,
      "metar_trigger": false,
      "taf_trigger": false,
      "metar": "METAR GMMN 190830Z 20006KT 5000 BKN020 07/06 Q1019 NOSIG",
      "taf": "TAF GMMN 190500Z 1906/2012 20006KT 5000 BKN020"
    },
    {
      "icao": "GMMX",
      "alert": "OK",
      "vis_m": 8000,
      "fzfg": false,
      "metar_trigger": false,
      "taf_trigger": false,
      "metar": "METAR GMMX 190830Z VRB02KT 8000 SCT010 BKN020 07/06 Q1018 NOSIG",
      "taf": "TAF GMMX 190500Z 1906/2012 24006KT 8000 BKN023 SCT080"
    },
    {
      "icao": "HEGN",
      "alert": "OK",
      "vis_m": 9999,
      "fzfg": false,
      "metar_trigger": false,
      "taf_trigger": false,
      "metar": "METAR HEGN 190800Z 30015KT CAVOK 19/09 Q1020 NOSIG",
      "taf": "TAF HEGN 190500Z 1906/2012 31015KT CAVOK"
    },
    {
      "icao": "HEMA",
      "alert": "OK",
      "vis_m": 9999,
      "fzfg": false,
      "metar_trigger": false,
      "taf_trigger": false,
      "metar": "METAR HEMA 190800Z 32013KT 9999 FEW020 21/08 Q1018 NOSIG",
      "taf": "TAF HEMA 190500Z 1906/2012 32015KT CAVOK"
    },
    {
      "icao": "HESH",
      "alert": "OK",
      "vis_m": 9999,
      "fzfg": false,
      "metar_trigger": false,
      "taf_trigger": false,
      "metar": "METAR HESH 190800Z 35008KT CAVOK 20/06 Q1020 NOSIG",
      "taf": "TAF HESH 190500Z 1906/2012 36010KT CAVOK"
    },
    {
      "icao": "HESX",
      "alert": "OK",
      "vis_m": 9999,
      "fzfg": false,
      "metar_trigger": false,
      "taf_trigger": false,
      "metar": "METAR HESX 190800Z 20005KT CAVOK 14/07 Q1021 NOSIG",
      "taf": "TAF HESX 190500Z 1906/2012 24005KT 6000 NSC"
    },
    {
      "icao": "LATI",
      "alert": "OK",
      "vis_m": 9999,
      "fzfg": false,
      "metar_trigger": false,
      "taf_trigger": false,
      "metar": "METAR LATI 190820Z 30003KT CAVOK 04/M04 Q1027 NOSIG",
      "taf": "TAF LATI 190500Z 1906/2006 VRB05KT CAVOK TX14/1913Z TNM05/2005Z"
    },
    {
      "icao": "LBPD",
      "alert": "OK",
      "vis_m": 9999,
      "fzfg": false,
      "metar_trigger": false,
      "taf_trigger": false,
      "metar": "METAR LBPD 190830Z AUTO VRB03KT 9999 NCD M02/M08 Q1037 NOSIG",
      "taf": "TAF LBPD 190500Z 1906/2006 VRB03KT 9999 SCT030 OVC045"
    },
    {
      "icao": "LBSF",
      "alert": "OK",
      "vis_m": 9999,
      "fzfg": false,
      "metar_trigger": false,
      "taf_trigger": false,
      "metar": "METAR LBSF 190830Z VRB02KT CAVOK M04/M10 Q1034 NOSIG",
      "taf": "TAF LBSF 190500Z 1906/2006 VRB03KT 9999 BKN025"
    },
    {
      "icao": "LBWN",
      "alert": "OK",
      "vis_m": 9999,
      "fzfg": false,
      "metar_trigger": false,
      "taf_trigger": false,
      "metar": "METAR LBWN 190830Z 26009KT 210V310 9999 -SN SCT017 OVC049 M05/M08 Q1037 NOSIG",
      "taf": "TAF LBWN 190500Z 1906/2006 28012KT 9999 BKN010 OVC040"
    },
    {
      "icao": "LCLK",
      "alert": "OK",
      "vis_m": 9999,
      "fzfg": false,
      "metar_trigger": false,
      "taf_trigger": false,
      "metar": "METAR LCLK 190830Z 02016KT 9999 FEW020 11/M01 Q1023 NOSIG",
      "taf": "TAF LCLK 190530Z 1906/2006 03013KT 9999 FEW025"
    },
    {
      "icao": "LCPH",
      "alert": "OK",
      "vis_m": 9999,
      "fzfg": false,
      "metar_trigger": false,
      "taf_trigger": false,
      "metar": "METAR LCPH 190830Z 08006KT 9999 FEW040 13/M02 Q1021 NOSIG",
      "taf": "TAF LCPH 190530Z 1906/2006 04009KT 9999 SCT025"
    },
    {
      "icao": "LEAL",
      "alert": "OK",
      "vis_m": 9999,
      "fzfg": false,
      "metar_trigger": false,
      "taf_trigger": false,
      "metar": "METAR LEAL 190830Z 29006KT 9999 SCT030 BKN040 09/06 Q1012 NOSIG",
      "taf": "TAF LEAL 190500Z 1906/2006 30005KT 9999 FEW030 TX16/1913Z TN08/1906Z"
    },
    {
      "icao": "LEBB",
      "alert": "OK",
      "vis_m": 9999,
      "fzfg": false,
      "metar_trigger": false,
      "taf_trigger": false,
      "metar": "METAR LEBB 190830Z 03003KT 9999 SCT035 BKN046 09/07 Q1018 NOSIG",
      "taf": "TAF LEBB 190500Z 1906/2006 10005KT 9999 FEW025 SCT040 TX13/1913Z TN02/2006Z"
    },
    {
      "icao": "LEBL",
      "alert": "OK",
      "vis_m": 9999,
      "fzfg": false,
      "metar_trigger": false,
      "taf_trigger": false,
      "metar": "METAR LEBL 190830Z 34005KT 9999 FEW015 SCT040 10/09 Q1014 NOSIG",
      "taf": "TAF LEBL 190500Z 1906/2006 03009KT 9999 FEW010 TX14/1912Z TN09/1906Z"
    },
    {
      "icao": "LECH",
      "alert": "OK",
      "vis_m": 9000,
      "fzfg": false,
      "metar_trigger": false,
      "taf_trigger": false,
      "metar": "METAR LECH 190830Z AUTO 03008KT 350V060 9000 FEW027 10/05 Q1013",
      "taf": ""
    },
    {
      "icao": "LEMD",
      "alert": "OK",
      "vis_m": 9999,
      "fzfg": false,
      "metar_trigger": false,
      "taf_trigger": false,
      "metar": "METAR LEMD 190830Z VRB02KT CAVOK M01/M02 Q1017 NOSIG",
      "taf": "TAF LEMD 190500Z 1906/2012 VRB02KT CAVOK TX10/1914Z TNM02/2006Z"
    },
    {
      "icao": "LEMG",
      "alert": "OK",
      "vis_m": 9999,
      "fzfg": false,
      "metar_trigger": false,
      "taf_trigger": false,
      "metar": "METAR LEMG 190830Z 29011KT CAVOK 06/02 Q1015 NOSIG",
      "taf": "TAF LEMG 190500Z 1906/2006 29012KT CAVOK TX13/1914Z TN04/1906Z"
    },
    {
      "icao": "LEVC",
      "alert": "OK",
      "vis_m": 9999,
      "fzfg": false,
      "metar_trigger": false,
      "taf_trigger": false,
      "metar": "METAR LEVC 190830Z 27005KT 250V310 9999 BKN034 09/05 Q1014 NOSIG",
      "taf": "TAF LEVC 190500Z 1906/2006 30007KT 9999 FEW020 TX16/1913Z TN05/1906Z"
    },
    {
      "icao": "LEXJ",
      "alert": "OK",
      "vis_m": 9999,
      "fzfg": false,
      "metar_trigger": false,
      "taf_trigger": false,
      "metar": "METAR LEXJ 190830Z 22008KT 9999 FEW055 08/04 Q1017",
      "taf": "TAF LEXJ 190800Z 1909/2009 22009KT 9999 SCT040 TX13/1913Z TN05/2006Z"
    },
    {
      "icao": "LEZG",
      "alert": "OK",
      "vis_m": 9999,
      "fzfg": false,
      "metar_trigger": false,
      "taf_trigger": false,
      "metar": "METAR LEZG 190830Z 27010KT 9999 BKN060 08/07 Q1016 NOSIG",
      "taf": "TAF LEZG 190500Z 1906/2006 30010KT 9999 BKN030 TX12/1915Z TN06/1906Z"
    },
    {
      "icao": "LEZL",
      "alert": "OK",
      "vis_m": 9999,
      "fzfg": false,
      "metar_trigger": false,
      "taf_trigger": false,
      "metar": "METAR LEZL 190830Z VRB01KT CAVOK 05/03 Q1018 NOSIG",
      "taf": "TAF LEZL 190800Z 1909/2009 03003KT CAVOK TX15/1915Z TN04/2007Z"
    },
    {
      "icao": "LFBD",
      "alert": "OK",
      "vis_m": 500,
      "fzfg": false,
      "metar_trigger": false,
      "taf_trigger": false,
      "metar": "METAR LFBD 190830Z AUTO 16006KT 0500 0450 R23/0600U R05/0900U R29/0800U FG VV/// 08/08 Q1015 BECMG 9999 NSW SCT030 BKN045",
      "taf": "TAF LFBD 190500Z 1906/2012 15005KT 6000 BKN020 TX12/1913Z TN04/2006Z"
    },
    {
      "icao": "LFLL",
      "alert": "OK",
      "vis_m": 500,
      "fzfg": false,
      "metar_trigger": false,
      "taf_trigger": false,
      "metar": "METAR LFLL 190830Z VRB01KT 0500 R35L/0650N R17R/0900U R35R/0700U R17L/0600D FG VV/// 03/03 Q1019 NOSIG",
      "taf": "TAF LFLL 190500Z 1906/2012 VRB02KT 0600 FG VV///"
    },
    {
      "icao": "LFLS",
      "alert": "OK",
      "vis_m": 9999,
      "fzfg": false,
      "metar_trigger": false,
      "taf_trigger": false,
      "metar": "METAR LFLS 190830Z AUTO 00000KT CAVOK 03/02 Q1018 TEMPO 4000 BR",
      "taf": "TAF LFLS 190200Z 1903/2003 09005KT 7000 NSC"
    },
    {
      "icao": "LFMN",
      "alert": "OK",
      "vis_m": 9999,
      "fzfg": false,
      "metar_trigger": false,
      "taf_trigger": false,
      "metar": "METAR LFMN 190830Z 07017KT 9999 BKN100 15/04 Q1018 NOSIG",
      "taf": "TAF LFMN 190800Z 1909/2015 07025KT CAVOK"
    },
    {
      "icao": "LFOB",
      "alert": "OK",
      "vis_m": 4100,
      "fzfg": false,
      "metar_trigger": false,
      "taf_trigger": false,
      "metar": "METAR LFOB 190830Z AUTO 10005KT 4100 BR NSC 02/02 Q1017 BECMG 9999 NSW",
      "taf": ""
    },
    {
      "icao": "LFPO",
      "alert": "OK",
      "vis_m": 6000,
      "fzfg": false,
      "metar_trigger": false,
      "taf_trigger": false,
      "metar": "METAR LFPO 190830Z 10002KT 6000 NSC 02/02 Q1018 TEMPO 5000 BR",
      "taf": "TAF LFPO 190500Z 1906/2012 13004KT 6000 NSC"
    },
    {
      "icao": "LFSB",
      "alert": "OK",
      "vis_m": 9999,
      "fzfg": false,
      "metar_trigger": false,
      "taf_trigger": false,
      "metar": "METAR LFSB 190830Z AUTO 20004KT CAVOK 00/M01 Q1019 TEMPO 2500 BR VV///",
      "taf": ""
    },
    {
      "icao": "LGAV",
      "alert": "OK",
      "vis_m": 9999,
      "fzfg": false,
      "metar_trigger": false,
      "taf_trigger": false,
      "metar": "METAR LGAV 190820Z 03017KT 9999 SCT020 BKN040 04/01 Q1030 NOSIG",
      "taf": "TAF LGAV 190500Z 1906/2006 02016KT 9999 FEW020 BKN030"
    },
    {
      "icao": "LGTS",
      "alert": "OK",
      "vis_m": 9999,
      "fzfg": false,
      "metar_trigger": false,
      "taf_trigger": false,
      "metar": "METAR LGTS 190820Z 13007KT 9999 FEW020 05/M02 Q1034 NOSIG",
      "taf": "TAF LGTS 190500Z 1906/2006 11008KT 9999 FEW015 BKN030"
    },
    {
      "icao": "LHBP",
      "alert": "OK",
      "vis_m": 4300,
      "fzfg": false,
      "metar_trigger": false,
      "taf_trigger": false,
      "metar": "METAR LHBP 190830Z 13005KT 090V170 4300 -SG BR OVC005 M05/M06 Q1038 TEMPO 2500 SG OVC004",
      "taf": "TAF LHBP 190515Z 1906/2006 10005KT 6000 OVC015"
    },
    {
      "icao": "LHDC",
      "alert": "OK",
      "vis_m": 2800,
      "fzfg": false,
      "metar_trigger": false,
      "taf_trigger": false,
      "metar": "METAR LHDC 190815Z AUTO 29003KT 260V330 2800 BR OVC003 M05/M06 Q1038 BECMG 6000 NSW NSC",
      "taf": "TAF LHDC 190815Z 1909/1918 VRB02KT 3000 BR OVC002"
    },
    {
      "icao": "LIBD",
      "alert": "OK",
      "vis_m": 9999,
      "fzfg": false,
      "metar_trigger": false,
      "taf_trigger": false,
      "metar": "METAR LIBD 190820Z AUTO 13005KT 9999 -RA BKN035/// 09/08 Q1024",
      "taf": "TAF LIBD 190500Z 1906/2006 VRB05KT 9999 SCT040"
    },
    {
      "icao": "LIBG",
      "alert": "OK",
      "vis_m": 8000,
      "fzfg": false,
      "metar_trigger": false,
      "taf_trigger": false,
      "metar": "METAR LIBG 190750Z 08005KT 8000 -RA SCT020 SCT045 09/09 Q1024",
      "taf": "TAF LIBG 190800Z 1909/1918 VRB06KT 9999 SCT010 BKN040"
    },
    {
      "icao": "LIBP",
      "alert": "OK",
      "vis_m": 6000,
      "fzfg": false,
      "metar_trigger": false,
      "taf_trigger": false,
      "metar": "METAR LIBP 190820Z AUTO VRB01KT 6000 OVC005/// 09/09 Q1024",
      "taf": "TAF LIBP 190500Z 1906/2006 VRB05KT 9999 BKN030"
    },
    {
      "icao": "LIBR",
      "alert": "OK",
      "vis_m": 9999,
      "fzfg": false,
      "metar_trigger": false,
      "taf_trigger": false,
      "metar": "METAR LIBR 190820Z 20004KT 9999 -RA OVC040 09/05 Q1025",
      "taf": "TAF LIBR 190500Z 1906/2006 VRB05KT 9999 BKN040"
    },
    {
      "icao": "LICA",
      "alert": "OK",
      "vis_m": 9999,
      "fzfg": false,
      "metar_trigger": false,
      "taf_trigger": false,
      "metar": "METAR LICA 190820Z AUTO 07018G28KT 9999 FEW021/// SCT047/// 13/11 Q1019",
      "taf": "TAF LICA 190500Z 1906/2006 08015KT 9999 SCT020 BKN070"
    },
    {
      "icao": "LICC",
      "alert": "OK",
      "vis_m": 7000,
      "fzfg": false,
      "metar_trigger": false,
      "taf_trigger": false,
      "metar": "METAR LICC 190820Z 12017KT 7000 BKN020 16/13 Q1017",
      "taf": "TAF LICC 190500Z 1906/2006 08015KT 9999 SCT015 BKN050"
    },
    {
      "icao": "LICJ",
      "alert": "OK",
      "vis_m": 9999,
      "fzfg": false,
      "metar_trigger": false,
      "taf_trigger": false,
      "metar": "METAR LICJ 190820Z 10010G22KT 360V150 9999 FEW060 17/07 Q1011 WS R07",
      "taf": "TAF LICJ 190500Z 1906/2006 06015KT 9999 SCT040"
    },
    {
      "icao": "LIMC",
      "alert": "OK",
      "vis_m": 9999,
      "fzfg": false,
      "metar_trigger": false,
      "taf_trigger": false,
      "metar": "METAR LIMC 190820Z VRB01KT 9999 -DZ BKN034 06/03 Q1026 NOSIG",
      "taf": "TAF LIMC 190500Z 1906/2012 VRB03KT 9999 BKN040"
    },
    {
      "icao": "LIME",
      "alert": "OK",
      "vis_m": 9999,
      "fzfg": false,
      "metar_trigger": false,
      "taf_trigger": false,
      "metar": "METAR LIME 190820Z 24002KT 9999 BKN050 05/01 Q1026 NOSIG",
      "taf": "TAF LIME 190500Z 1906/2006 VRB03KT 9999 BKN045"
    },
    {
      "icao": "LIMF",
      "alert": "OK",
      "vis_m": 7000,
      "fzfg": false,
      "metar_trigger": false,
      "taf_trigger": false,
      "metar": "METAR LIMF 190820Z 28003KT 7000 -DZ BKN030 05/03 Q1026",
      "taf": "TAF LIMF 190500Z 1906/2006 VRB06KT 8000 DZ BKN050"
    },
    {
      "icao": "LIMJ",
      "alert": "OK",
      "vis_m": 9999,
      "fzfg": false,
      "metar_trigger": false,
      "taf_trigger": false,
      "metar": "METAR LIMJ 190820Z 03013KT 9999 SCT070 09/03 Q1022",
      "taf": "TAF LIMJ 190500Z 1906/2006 02013KT CAVOK"
    },
    {
      "icao": "LIPE",
      "alert": "OK",
      "vis_m": 9999,
      "fzfg": false,
      "metar_trigger": false,
      "taf_trigger": false,
      "metar": "METAR LIPE 190820Z VRB02KT 9999 BKN020 04/02 Q1026",
      "taf": "TAF LIPE 190500Z 1906/2006 VRB05KT 8000 BKN030"
    },
    {
      "icao": "LIPH",
      "alert": "OK",
      "vis_m": 9999,
      "fzfg": false,
      "metar_trigger": false,
      "taf_trigger": false,
      "metar": "METAR LIPH 190820Z 03006KT CAVOK 03/M05 Q1028",
      "taf": "TAF LIPH 190500Z 1906/2006 05007KT 9999 FEW070"
    },
    {
      "icao": "LIPQ",
      "alert": "OK",
      "vis_m": 9999,
      "fzfg": false,
      "metar_trigger": false,
      "taf_trigger": false,
      "metar": "METAR LIPQ 190820Z AUTO 09008KT 050V110 9999 NCD 04/M07 Q1028",
      "taf": "TAF LIPQ 190500Z 1906/2006 VRB05KT CAVOK"
    },
    {
      "icao": "LIPR",
      "alert": "OK",
      "vis_m": 9999,
      "fzfg": false,
      "metar_trigger": false,
      "taf_trigger": false,
      "metar": "METAR LIPR 190820Z 11008KT 9999 BKN025 10/07 Q1024",
      "taf": "TAF LIPR 190500Z 1906/2006 10012KT 9999 BKN030"
    },
    {
      "icao": "LIPX",
      "alert": "OK",
      "vis_m": 9999,
      "fzfg": false,
      "metar_trigger": false,
      "taf_trigger": false,
      "metar": "METAR LIPX 190820Z 10005KT 060V130 9999 FEW007 BKN065 06/M06 Q1026",
      "taf": "TAF LIPX 190500Z 1906/2006 10007KT 9999 SCT050"
    },
    {
      "icao": "LIPY",
      "alert": "OK",
      "vis_m": 9999,
      "fzfg": false,
      "metar_trigger": false,
      "taf_trigger": false,
      "metar": "METAR LIPY 190820Z AUTO 10008G18KT 060V120 9999 BKN034/// 11/07 Q1024",
      "taf": "TAF LIPY 190500Z 1906/2006 09012KT 9999 FEW030 SCT070"
    },
    {
      "icao": "LIPZ",
      "alert": "OK",
      "vis_m": 9999,
      "fzfg": false,
      "metar_trigger": false,
      "taf_trigger": false,
      "metar": "METAR LIPZ 190820Z 05011KT CAVOK 02/M05 Q1028 NOSIG",
      "taf": "TAF LIPZ 190500Z 1906/2012 04010KT 9999 FEW070"
    },
    {
      "icao": "LIRF",
      "alert": "OK",
      "vis_m": 9999,
      "fzfg": false,
      "metar_trigger": false,
      "taf_trigger": false,
      "metar": "METAR LIRF 190820Z 05008KT 9999 FEW055 12/07 Q1018 NOSIG",
      "taf": "TAF LIRF 190500Z 1906/2012 06010KT 9999 SCT045"
    },
    {
      "icao": "LIRN",
      "alert": "OK",
      "vis_m": 5000,
      "fzfg": false,
      "metar_trigger": false,
      "taf_trigger": false,
      "metar": "METAR LIRN 190820Z 05009KT 020V080 5000 -RA BR BKN040 10/07 Q1019 NOSIG",
      "taf": "TAF LIRN 190500Z 1906/2006 05010KT 9999 SCT040"
    },
    {
      "icao": "LIRP",
      "alert": "OK",
      "vis_m": 9999,
      "fzfg": false,
      "metar_trigger": false,
      "taf_trigger": false,
      "metar": "METAR LIRP 190815Z 08014KT CAVOK 11/04 Q1020 NOSIG",
      "taf": "TAF LIRP 190500Z 1906/2006 07012KT 9999 BKN080"
    },
    {
      "icao": "LIRZ",
      "alert": "OK",
      "vis_m": 9999,
      "fzfg": false,
      "metar_trigger": false,
      "taf_trigger": false,
      "metar": "METAR LIRZ 190820Z AUTO 05010KT 9999 FEW110/// 11/03 Q1020",
      "taf": "TAF LIRZ 190500Z 1906/2006 03013KT CAVOK"
    },
    {
      "icao": "LJLJ",
      "alert": "OK",
      "vis_m": 9999,
      "fzfg": false,
      "metar_trigger": false,
      "taf_trigger": false,
      "metar": "METAR LJLJ 190830Z 09006KT 9999 OVC025 M02/M07 Q1033 NOSIG",
      "taf": "TAF LJLJ 190500Z 1906/2006 12006KT 9999 OVC017"
    },
    {
      "icao": "LKMT",
      "alert": "OK",
      "vis_m": 9999,
      "fzfg": false,
      "metar_trigger": false,
      "taf_trigger": false,
      "metar": "METAR LKMT 190830Z 20006KT CAVOK M04/M06 Q1033 NOSIG",
      "taf": "TAF LKMT 190500Z 1906/2006 22014KT CAVOK"
    },
    {
      "icao": "LKPR",
      "alert": "OK",
      "vis_m": 9999,
      "fzfg": false,
      "metar_trigger": false,
      "taf_trigger": false,
      "metar": "METAR LKPR 190830Z 12008KT 090V190 CAVOK M03/M06 Q1026 NOSIG",
      "taf": "TAF LKPR 190800Z 1909/2015 12012KT CAVOK"
    },
    {
      "icao": "LLBG",
      "alert": "OK",
      "vis_m": 9999,
      "fzfg": false,
      "metar_trigger": false,
      "taf_trigger": false,
      "metar": "METAR LLBG 190820Z 03007KT 9999 FEW040 15/07 Q1020 NOSIG RMK SCT075",
      "taf": "TAF LLBG 190513Z 1906/2006 VRB04KT 9999 SCT040"
    },
    {
      "icao": "LMML",
      "alert": "OK",
      "vis_m": 9000,
      "fzfg": false,
      "metar_trigger": false,
      "taf_trigger": false,
      "metar": "METAR LMML 190815Z 10026KT 9000 BKN012 15/13 Q1013 BECMG 9999",
      "taf": "TAF LMML 190500Z 1906/2006 12015KT 9999 SCT015"
    },
    {
      "icao": "LOWW",
      "alert": "OK",
      "vis_m": 9999,
      "fzfg": false,
      "metar_trigger": false,
      "taf_trigger": false,
      "metar": "METAR LOWW 190820Z 14019KT 9999 FEW011 BKN012 M05/M08 Q1033 TEMPO SCT013",
      "taf": "TAF LOWW 190815Z 1909/2015 14013KT CAVOK TXM03/1913Z TNM07/2006Z"
    },
    {
      "icao": "LPFR",
      "alert": "OK",
      "vis_m": 9999,
      "fzfg": false,
      "metar_trigger": false,
      "taf_trigger": false,
      "metar": "METAR LPFR 190830Z 34010KT CAVOK 06/03 Q1019",
      "taf": "TAF LPFR 190500Z 1906/2006 33005KT CAVOK"
    },
    {
      "icao": "LPMA",
      "alert": "OK",
      "vis_m": 9999,
      "fzfg": false,
      "metar_trigger": false,
      "taf_trigger": false,
      "metar": "METAR LPMA 190830Z VRB06G22KT 9999 SCT015 15/09 Q1025",
      "taf": "TAF LPMA 190500Z 1906/2006 01010KT 9999 SCT015"
    },
    {
      "icao": "LPPR",
      "alert": "OK",
      "vis_m": 9999,
      "fzfg": false,
      "metar_trigger": false,
      "taf_trigger": false,
      "metar": "METAR LPPR 190830Z 12009KT CAVOK 05/04 Q1020",
      "taf": "TAF LPPR 190500Z 1906/2006 11005KT CAVOK"
    },
    {
      "icao": "LPPS",
      "alert": "OK",
      "vis_m": 9999,
      "fzfg": false,
      "metar_trigger": false,
      "taf_trigger": false,
      "metar": "METAR LPPS 190830Z 01009KT 9999 SCT015 BKN030 15/10 Q1025",
      "taf": "TAF LPPS 190500Z 1906/2012 01015KT 9999 SCT015"
    },
    {
      "icao": "LPPT",
      "alert": "OK",
      "vis_m": 9999,
      "fzfg": false,
      "metar_trigger": false,
      "taf_trigger": false,
      "metar": "METAR LPPT 190830Z VRB02KT 9999 FEW035 08/07 Q1020",
      "taf": "TAF LPPT 190500Z 1906/2012 29005KT 9999 FEW020"
    },
    {
      "icao": "LQBK",
      "alert": "OK",
      "vis_m": 9999,
      "fzfg": false,
      "metar_trigger": false,
      "taf_trigger": false,
      "metar": "METAR LQBK 190830Z 04004KT 360V070 9999 BKN010 OVC017 M04/M06 Q1035 NOSIG",
      "taf": "TAF LQBK 190500Z 1906/2006 03006KT 9999 BKN017 OVC025 TXM00/1914Z TNM03/2006Z"
    },
    {
      "icao": "LQSA",
      "alert": "OK",
      "vis_m": 9999,
      "fzfg": false,
      "metar_trigger": false,
      "taf_trigger": false,
      "metar": "METAR LQSA 190830Z 31003KT 9999 FEW017 BKN030 M03/M05 Q1030 NOSIG",
      "taf": "TAF LQSA 190500Z 1906/2006 VRB02KT 3000 BR FEW030 TX00/1913Z TNM07/2006Z"
    },
    {
      "icao": "LQTZ",
      "alert": "OK",
      "vis_m": 8000,
      "fzfg": false,
      "metar_trigger": false,
      "taf_trigger": false,
      "metar": "METAR LQTZ 190830Z VRB01KT 8000 FEW020 M04/M06 Q1033",
      "taf": "TAF LQTZ 190500Z 1906/2006 10006KT 9999 SCT017 BKN030 TX01/1913Z TNM09/2006Z"
    },
    {
      "icao": "LRBC",
      "alert": "OK",
      "vis_m": 9999,
      "fzfg": false,
      "metar_trigger": false,
      "taf_trigger": false,
      "metar": "METAR LRBC 190830Z 03004KT 360V070 9999 BKN041 OVC060 M06/M11 Q1040",
      "taf": "TAF LRBC 190800Z 1909/1918 VRB04KT 9999 BKN040"
    },
    {
      "icao": "LRBS",
      "alert": "OK",
      "vis_m": 9999,
      "fzfg": false,
      "metar_trigger": false,
      "taf_trigger": false,
      "metar": "METAR LRBS 190830Z 27006KT 230V300 9999 -SN OVC045 M05/M07 Q1040 TEMPO 5000 -SN BR",
      "taf": "TAF LRBS 190500Z 1906/2006 27007KT 9999 BKN035"
    },
    {
      "icao": "LRBV",
      "alert": "OK",
      "vis_m": 9999,
      "fzfg": false,
      "metar_trigger": false,
      "taf_trigger": false,
      "metar": "METAR LRBV 190830Z 17003KT 110V200 CAVOK M07/M11 Q1035",
      "taf": "TAF LRBV 190800Z 1909/1918 VRB04KT 9999 SCT040"
    },
    {
      "icao": "LRCL",
      "alert": "OK",
      "vis_m": 5000,
      "fzfg": false,
      "metar_trigger": false,
      "taf_trigger": false,
      "metar": "METAR LRCL 190830Z 08006KT 5000 BR FEW071 M13/M15 Q1037",
      "taf": "TAF LRCL 190800Z 1909/1918 07005KT 5000 BR NSC"
    },
    {
      "icao": "LRCV",
      "alert": "OK",
      "vis_m": 3800,
      "fzfg": false,
      "metar_trigger": false,
      "taf_trigger": false,
      "metar": "METAR LRCV 190830Z 03003KT 3800 BR OVC022 M07/M09 Q1039",
      "taf": "TAF LRCV 190800Z 1909/1918 VRB04KT 5000 BR SCT010 BKN025"
    },
    {
      "icao": "LRIA",
      "alert": "OK",
      "vis_m": 8000,
      "fzfg": false,
      "metar_trigger": false,
      "taf_trigger": false,
      "metar": "METAR LRIA 190830Z 30003KT 260V330 8000 BKN004 BKN048 M11/M13 Q1041",
      "taf": "TAF LRIA 190800Z 1909/1918 VRB04KT 7000 OVC005"
    },
    {
      "icao": "LROP",
      "alert": "OK",
      "vis_m": 7000,
      "fzfg": false,
      "metar_trigger": false,
      "taf_trigger": false,
      "metar": "METAR LROP 190830Z 26009KT 7000 -SN OVC045 M04/M08 Q1039 TEMPO 5000 -SN BR",
      "taf": "TAF LROP 190500Z 1906/2006 27007KT 9999 BKN035"
    },
    {
      "icao": "LRSB",
      "alert": "OK",
      "vis_m": 5000,
      "fzfg": false,
      "metar_trigger": false,
      "taf_trigger": false,
      "metar": "METAR LRSB 190830Z VRB02KT 5000 BR NSC M10/M11 Q1036",
      "taf": "TAF LRSB 190500Z 1906/2006 VRB04KT CAVOK"
    },
    {
      "icao": "LRSM",
      "alert": "OK",
      "vis_m": 600,
      "fzfg": true,
      "metar_trigger": false,
      "taf_trigger": false,
      "metar": "METAR LRSM 190830Z 26002KT 0600 R19/P2000 BCFG OVC001 M12/M14 Q1039",
      "taf": "TAF LRSM 190800Z 1909/1918 VRB04KT 0600 FZFG OVC001"
    },
    {
      "icao": "LRSV",
      "alert": "OK",
      "vis_m": 9999,
      "fzfg": false,
      "metar_trigger": false,
      "taf_trigger": false,
      "metar": "METAR LRSV 190830Z 21005KT CAVOK M07/M09 Q1037",
      "taf": "TAF LRSV 190800Z 1909/1918 VRB04KT CAVOK"
    },
    {
      "icao": "LRTM",
      "alert": "OK",
      "vis_m": 3500,
      "fzfg": false,
      "metar_trigger": false,
      "taf_trigger": false,
      "metar": "METAR LRTM 190830Z 24002KT 3500 BR FEW003 M15/M17 Q1038",
      "taf": "TAF LRTM 190800Z 1909/1918 VRB04KT 3000 BR NSC"
    },
    {
      "icao": "LRTR",
      "alert": "OK",
      "vis_m": 9999,
      "fzfg": false,
      "metar_trigger": false,
      "taf_trigger": false,
      "metar": "METAR LRTR 190830Z 07002KT CAVOK M06/M09 Q1038",
      "taf": "TAF LRTR 190500Z 1906/2006 06006KT CAVOK"
    },
    {
      "icao": "LTAC",
      "alert": "OK",
      "vis_m": 9999,
      "fzfg": false,
      "metar_trigger": false,
      "taf_trigger": false,
      "metar": "METAR LTAC 190820Z VRB02KT 9999 FEW040 M02/M08 Q1023 NOSIG RMK RWY21C VRB02KT RWY03L VRB02KT RWY21R VRB02KT RWY03R VRB02KT RWY21L VRB02KT",
      "taf": "TAF LTAC 190440Z 1906/2006 VRB02KT 9999 SCT040 SCT100"
    },
    {
      "icao": "LTFM",
      "alert": "OK",
      "vis_m": 3200,
      "fzfg": false,
      "metar_trigger": false,
      "taf_trigger": false,
      "metar": "METAR LTFM 190820Z 34023KT 3200 1200NW R35R/1000U R17L/P1500U R34L/1200U R36/1400U -SHSN BKN006 BKN022 00/M01 Q1032 RESHSN BECMG TL0850 6000 RMK RWY17L 34025KT RWY34L 34024KT RWY16R 34022KT RWY36 34028KT RWY18 35027KT",
      "taf": "TAF LTFM 190440Z 1906/2012 35024G35KT 7000 -SHSN BKN012 BKN022"
    },
    {
      "icao": "LUKK",
      "alert": "OK",
      "vis_m": 9999,
      "fzfg": false,
      "metar_trigger": false,
      "taf_trigger": false,
      "metar": "METAR LUKK 190830Z 36008KT 9999 BKN048 M07/M09 Q1039 NOSIG",
      "taf": "TAF LUKK 190512Z 1906/2006 36009KT 9999 OVC012"
    },
    {
      "icao": "LWOH",
      "alert": "OK",
      "vis_m": 9999,
      "fzfg": false,
      "metar_trigger": false,
      "taf_trigger": false,
      "metar": "METAR LWOH 190820Z 06008KT 030V090 9999 SCT033 03/M06 Q1028",
      "taf": "TAF LWOH 190830Z 1909/2009 04006KT 9999 SCT040"
    },
    {
      "icao": "LWSK",
      "alert": "OK",
      "vis_m": 9999,
      "fzfg": false,
      "metar_trigger": false,
      "taf_trigger": false,
      "metar": "METAR LWSK 190820Z 14003KT 100V160 CAVOK M02/M07 Q1034 NOSIG",
      "taf": "TAF LWSK 190830Z 1909/2009 VRB03KT CAVOK"
    },
    {
      "icao": "LYBE",
      "alert": "OK",
      "vis_m": 9999,
      "fzfg": false,
      "metar_trigger": false,
      "taf_trigger": false,
      "metar": "METAR LYBE 190830Z 11012KT CAVOK M03/M09 Q1036 NOSIG",
      "taf": "TAF LYBE 190500Z 1906/2006 10014KT CAVOK TX01/1913ZZ TNM07/2005Z"
    },
    {
      "icao": "LYNI",
      "alert": "OK",
      "vis_m": 9999,
      "fzfg": false,
      "metar_trigger": false,
      "taf_trigger": false,
      "metar": "METAR LYNI 190830Z VRB01KT CAVOK M04/M09 Q1035 NOSIG",
      "taf": "TAF LYNI 190500Z 1906/2006 05007KT CAVOK TX01/1913Z TNM10/2005Z"
    },
    {
      "icao": "LYPG",
      "alert": "OK",
      "vis_m": 9999,
      "fzfg": false,
      "metar_trigger": false,
      "taf_trigger": false,
      "metar": "METAR LYPG 190830Z VRB01KT CAVOK 03/M01 Q1029 NOSIG",
      "taf": "TAF LYPG 190500Z 1906/2006 35007KT CAVOK TX09/1913Z TNM02/1906Z"
    },
    {
      "icao": "LZIB",
      "alert": "OK",
      "vis_m": 6000,
      "fzfg": false,
      "metar_trigger": false,
      "taf_trigger": false,
      "metar": "METAR LZIB 190830Z 11010KT 6000 BKN009 M05/M06 Q1036 NOSIG",
      "taf": "TAF LZIB 190515Z 1906/2006 13008KT CAVOK"
    },
    {
      "icao": "LZKZ",
      "alert": "OK",
      "vis_m": 9999,
      "fzfg": false,
      "metar_trigger": false,
      "taf_trigger": false,
      "metar": "METAR LZKZ 190830Z 19002KT 9999 4000S FEW012 M11/M14 Q1037 TEMPO 2600 BR",
      "taf": ""
    },
    {
      "icao": "LZTT",
      "alert": "OK",
      "vis_m": 9999,
      "fzfg": false,
      "metar_trigger": false,
      "taf_trigger": false,
      "metar": "METAR LZTT 190830Z 27005KT CAVOK M09/M13 Q1033 NOSIG",
      "taf": "TAF LZTT 190515Z 1906/2006 27004KT CAVOK"
    },
    {
      "icao": "OEJN",
      "alert": "OK",
      "vis_m": 9999,
      "fzfg": false,
      "metar_trigger": false,
      "taf_trigger": false,
      "metar": "METAR OEJN 190800Z 01008KT CAVOK 27/10 Q1015 NOSIG",
      "taf": "TAF OEJN 190500Z 1906/2012 33013KT 9999 FEW040"
    },
    {
      "icao": "OEMA",
      "alert": "OK",
      "vis_m": 9999,
      "fzfg": false,
      "metar_trigger": false,
      "taf_trigger": false,
      "metar": "METAR OEMA 190800Z 02002KT CAVOK 19/02 Q1019 NOSIG",
      "taf": "TAF OEMA 190500Z 1906/2012 VRB03KT CAVOK"
    },
    {
      "icao": "OJAI",
      "alert": "OK",
      "vis_m": 5000,
      "fzfg": false,
      "metar_trigger": false,
      "taf_trigger": false,
      "metar": "METAR OJAI 190800Z 28012KT 5000 HZ SCT030 09/04 Q1019 NOSIG",
      "taf": "TAF OJAI 190500Z 1906/2012 27012KT 4000 BR FEW025TCU SCT030"
    },
    {
      "icao": "OMAA",
      "alert": "OK",
      "vis_m": 9999,
      "fzfg": false,
      "metar_trigger": false,
      "taf_trigger": false,
      "metar": "METAR OMAA 190800Z 14005KT 090V160 CAVOK 23/09 Q1016 NOSIG",
      "taf": "TAF OMAA 190500Z 1906/2012 18006KT 8000 NSC"
    },
    {
      "icao": "OMDB",
      "alert": "OK",
      "vis_m": 9999,
      "fzfg": false,
      "metar_trigger": false,
      "taf_trigger": false,
      "metar": "METAR OMDB 190830Z VRB02KT CAVOK 23/12 Q1016 BECMG 30010KT",
      "taf": "TAF OMDB 190500Z 1906/2012 20005KT 8000 NSC"
    },
    {
      "icao": "UAAA",
      "alert": "OK",
      "vis_m": 4800,
      "fzfg": false,
      "metar_trigger": false,
      "taf_trigger": false,
      "metar": "METAR UAAA 190800Z VRB01MPS 4800 FU BKN200 M10/M15 Q1024 NOSIG",
      "taf": "TAF UAAA 190501Z 1906/2006 31003MPS 6000 SCT050 BKN100 TXM09/1908Z TNM17/2003Z"
    },
    {
      "icao": "UBBB",
      "alert": "OK",
      "vis_m": 9999,
      "fzfg": false,
      "metar_trigger": false,
      "taf_trigger": false,
      "metar": "METAR UBBB 190830Z 02016KT 9999 OVC024 03/M02 Q1028 NOSIG",
      "taf": "TAF UBBB 190502Z 1906/2006 03014KT 9999 BKN020 TX04/1910Z TN01/2001Z"
    },
    {
      "icao": "UDSG",
      "alert": "OK",
      "vis_m": 9999,
      "fzfg": false,
      "metar_trigger": false,
      "taf_trigger": false,
      "metar": "METAR UDSG 190800Z 05014KT 9999 BKN040 M03/M09 Q1014 NOSIG",
      "taf": "TAF UDSG 190458Z 1906/2006 36006KT 5000 BR BKN030"
    },
    {
      "icao": "UDYZ",
      "alert": "OK",
      "vis_m": 8000,
      "fzfg": false,
      "metar_trigger": false,
      "taf_trigger": false,
      "metar": "METAR UDYZ 190800Z 13005KT 8000 -SN OVC017 01/M01 Q1016 NOSIG",
      "taf": "TAF UDYZ 190500Z 1906/2006 VRB04KT 2000 BR BKN020"
    },
    {
      "icao": "UGKO",
      "alert": "OK",
      "vis_m": 9999,
      "fzfg": false,
      "metar_trigger": false,
      "taf_trigger": false,
      "metar": "METAR UGKO 190830Z 25007KT 9999 BKN086 05/02 Q1019 NOSIG",
      "taf": "TAF UGKO 190500Z 1906/2006 26007KT 9999 SCT023 BKN050 TX04/1911Z TNM01/2002Z"
    }
  ]
}