{
  "ts_utc": "2026-02-19T10:59:33Z",
  "threshold_m": 150,
  "source": "stations_override.txt (ICAO list) + aviationweather.gov (METAR/TAF raw)",
  "station_count": 159,
  "stations": [
    {
      "icao": "BIKF",
      "alert": "OK",
      "vis_m": 9999,
      "fzfg": false,
      "metar_trigger": false,
      "taf_trigger": false,
      "metar": "METAR BIKF 191030Z 03017KT 9999 FEW022 M01/M06 Q1011",
      "taf": "TAF BIKF 191032Z 1912/2012 04017KT 9999 FEW025 TX01/1915Z TNM03/2006Z"
    },
    {
      "icao": "BKPR",
      "alert": "OK",
      "vis_m": null,
      "fzfg": false,
      "metar_trigger": false,
      "taf_trigger": false,
      "metar": "",
      "taf": "TAF BKPR 190530Z 1906/2006 VRB05KT 9999 SCT060"
    },
    {
      "icao": "EBCI",
      "alert": "OK",
      "vis_m": 9999,
      "fzfg": false,
      "metar_trigger": false,
      "taf_trigger": false,
      "metar": "METAR EBCI 191050Z 09009KT 9999 SCT010 BKN014 07/04 Q0996 TEMPO 4000 RADZ BR BKN008",
      "taf": "TAF EBCI 190500Z 1906/2012 11010KT 9999 SCT012 BKN025"
    },
    {
      "icao": "EDDB",
      "alert": "OK",
      "vis_m": 9999,
      "fzfg": false,
      "metar_trigger": false,
      "taf_trigger": false,
      "metar": "METAR EDDB 191050Z AUTO 09006KT CAVOK M02/M07 Q1013 NOSIG",
      "taf": "TAF EDDB 190500Z 1906/2006 07007KT CAVOK"
    },
    {
      "icao": "EDDH",
      "alert": "OK",
      "vis_m": 9999,
      "fzfg": false,
      "metar_trigger": false,
      "taf_trigger": false,
      "metar": "METAR EDDH 191050Z AUTO 09011KT CAVOK M01/M07 Q1012 NOSIG",
      "taf": "TAF EDDH 190500Z 1906/2012 09010KT CAVOK"
    },
    {
      "icao": "EDDK",
      "alert": "OK",
      "vis_m": 9999,
      "fzfg": false,
      "metar_trigger": false,
      "taf_trigger": false,
      "metar": "METAR EDDK 191050Z AUTO 11010KT 060V150 9999 BKN022 BKN033 03/00 Q1001 NOSIG",
      "taf": "TAF EDDK 190500Z 1906/2012 12012KT 9999 OVC015"
    },
    {
      "icao": "EDDN",
      "alert": "OK",
      "vis_m": 9999,
      "fzfg": false,
      "metar_trigger": false,
      "taf_trigger": false,
      "metar": "METAR EDDN 191050Z COR AUTO 09007KT 050V150 9999 FEW011 BKN029 01/M02 Q1003 TEMPO BKN010",
      "taf": ""
    },
    {
      "icao": "EDDS",
      "alert": "OK",
      "vis_m": 8000,
      "fzfg": false,
      "metar_trigger": false,
      "taf_trigger": false,
      "metar": "METAR EDDS 191050Z AUTO 09006KT 8000 -SHRA BKN045 FEW///TCU 03/02 Q1000 NOSIG",
      "taf": "TAF EDDS 190500Z 1906/2006 10004KT 8000 BKN045"
    },
    {
      "icao": "EDFH",
      "alert": "OK",
      "vis_m": 900,
      "fzfg": false,
      "metar_trigger": false,
      "taf_trigger": false,
      "metar": "METAR EDFH 191050Z 13013KT 0900 R21/P2000N -SN FG OVC001 00/M00 Q0999",
      "taf": ""
    },
    {
      "icao": "EDJA",
      "alert": "OK",
      "vis_m": 2500,
      "fzfg": false,
      "metar_trigger": false,
      "taf_trigger": false,
      "metar": "METAR EDJA 191050Z 03003KT 2500 BR SCT002 BKN014 OVC028 01/01 Q1000",
      "taf": "TAF EDJA 190800Z 1909/1918 VRB03KT 2000 -SN OVC003"
    },
    {
      "icao": "EDLW",
      "alert": "OK",
      "vis_m": 9000,
      "fzfg": false,
      "metar_trigger": false,
      "taf_trigger": false,
      "metar": "METAR EDLW 191050Z 04013KT 9000 -SN SCT023 OVC029 01/M01 Q1002",
      "taf": "TAF EDLW 190500Z 1906/2006 07012KT 6000 BKN020"
    },
    {
      "icao": "EDNY",
      "alert": "OK",
      "vis_m": 6000,
      "fzfg": false,
      "metar_trigger": false,
      "taf_trigger": false,
      "metar": "METAR EDNY 191050Z 04005KT 010V070 6000 -RA BKN048 OVC058 04/04 Q1001",
      "taf": "TAF EDNY 190800Z 1909/1918 VRB03KT 7000 FEW007 BKN015"
    },
    {
      "icao": "EDSB",
      "alert": "OK",
      "vis_m": 9999,
      "fzfg": false,
      "metar_trigger": false,
      "taf_trigger": false,
      "metar": "METAR EDSB 191050Z 02006KT 9999 BKN006 06/04 Q1000",
      "taf": "TAF EDSB 190500Z 1906/2006 03004KT 6000 BKN040"
    },
    {
      "icao": "EETN",
      "alert": "OK",
      "vis_m": 5000,
      "fzfg": false,
      "metar_trigger": false,
      "taf_trigger": false,
      "metar": "METAR EETN 191050Z 07006KT 5000 -SN BKN033 OVC043 M08/M11 Q1009 TEMPO 3000 SN BKN015",
      "taf": "TAF EETN 190530Z 1906/2006 09008KT 5000 SN SCT025 OVC030"
    },
    {
      "icao": "EFTU",
      "alert": "OK",
      "vis_m": 9999,
      "fzfg": false,
      "metar_trigger": false,
      "taf_trigger": false,
      "metar": "METAR EFTU 191050Z AUTO 04004KT 360V080 CAVOK M10/M14 Q1011",
      "taf": "TAF EFTU 190822Z 1909/2009 05005KT 9999 SCT040"
    },
    {
      "icao": "EGBB",
      "alert": "OK",
      "vis_m": 5000,
      "fzfg": false,
      "metar_trigger": false,
      "taf_trigger": false,
      "metar": "METAR EGBB 191050Z 01007KT 5000 BR OVC004 03/02 Q1001",
      "taf": ""
    },
    {
      "icao": "EGGP",
      "alert": "OK",
      "vis_m": 9999,
      "fzfg": false,
      "metar_trigger": false,
      "taf_trigger": false,
      "metar": "METAR EGGP 191050Z 04006KT 9999 FEW015 BKN044 05/02 Q1003",
      "taf": "TAF EGGP 190459Z 1906/2006 06008KT 9999 SCT020"
    },
    {
      "icao": "EGGW",
      "alert": "OK",
      "vis_m": 3800,
      "fzfg": false,
      "metar_trigger": false,
      "taf_trigger": false,
      "metar": "METAR EGGW 191050Z AUTO 01009G20KT 350V090 3800 BR OVC002 04/03 Q0999",
      "taf": ""
    },
    {
      "icao": "EGKK",
      "alert": "OK",
      "vis_m": 9999,
      "fzfg": false,
      "metar_trigger": false,
      "taf_trigger": false,
      "metar": "METAR EGKK 191050Z VRB09G20KT 9999 BKN007 06/05 Q0998",
      "taf": ""
    },
    {
      "icao": "EGNM",
      "alert": "OK",
      "vis_m": 3000,
      "fzfg": false,
      "metar_trigger": false,
      "taf_trigger": false,
      "metar": "METAR EGNM 191050Z 06007KT 3000 -DZ BR OVC004 02/02 Q1003",
      "taf": "TAF EGNM 190500Z 1906/2006 06010KT 9999 SCT010 BKN016"
    },
    {
      "icao": "EGPD",
      "alert": "OK",
      "vis_m": 9999,
      "fzfg": false,
      "metar_trigger": false,
      "taf_trigger": false,
      "metar": "METAR EGPD 191050Z COR AUTO 16013KT 9999 BKN027 05/M00 Q1006 NOSIG",
      "taf": "TAF EGPD 190500Z 1906/2006 16012KT 9999 SCT030"
    },
    {
      "icao": "EGPF",
      "alert": "OK",
      "vis_m": 9999,
      "fzfg": false,
      "metar_trigger": false,
      "taf_trigger": false,
      "metar": "METAR EGPF 191050Z AUTO 08006KT 9999 BKN042 05/00 Q1005",
      "taf": "TAF EGPF 190458Z 1906/2006 09009KT 9999 SCT040"
    },
    {
      "icao": "EHBK",
      "alert": "OK",
      "vis_m": 9999,
      "fzfg": false,
      "metar_trigger": false,
      "taf_trigger": false,
      "metar": "METAR EHBK 191055Z AUTO 10017KT 070V130 9999 BKN041 04/02 Q0998 NOSIG",
      "taf": "TAF EHBK 190522Z 1906/2012 09012KT 9999 -RA BKN030"
    },
    {
      "icao": "EHEH",
      "alert": "OK",
      "vis_m": 7000,
      "fzfg": false,
      "metar_trigger": false,
      "taf_trigger": false,
      "metar": "SPECI EHEH 191036Z AUTO 09012G22KT 060V130 7000 BR SCT006 BKN007 OVC008 02/01 Q1000 GRN BECMG 9999 NSW FEW008 SCT010 BKN030 RMK TREND REMOTE BY EHWX",
      "taf": "TAF EHEH 190550Z 1906/2012 09014KT 6000 -RA SCT008 BKN010"
    },
    {
      "icao": "EKBI",
      "alert": "OK",
      "vis_m": 9999,
      "fzfg": false,
      "metar_trigger": false,
      "taf_trigger": false,
      "metar": "METAR EKBI 191050Z 08011KT 9999 BKN013 M02/M05 Q1014",
      "taf": ""
    },
    {
      "icao": "EKCH",
      "alert": "OK",
      "vis_m": 9999,
      "fzfg": false,
      "metar_trigger": false,
      "taf_trigger": false,
      "metar": "METAR EKCH 191050Z AUTO 05005KT 9999 NCD M02/M07 Q1015 NOSIG",
      "taf": "TAF EKCH 190827Z 1909/2009 05008KT 9999 FEW010"
    },
    {
      "icao": "ENAL",
      "alert": "OK",
      "vis_m": 9999,
      "fzfg": false,
      "metar_trigger": false,
      "taf_trigger": false,
      "metar": "METAR ENAL 191050Z 20013KT 170V230 9999 FEW059 04/M02 Q1009",
      "taf": "TAF ENAL 190800Z 1909/1918 20012KT 9999 FEW040 BKN050"
    },
    {
      "icao": "ENBR",
      "alert": "OK",
      "vis_m": 9999,
      "fzfg": false,
      "metar_trigger": false,
      "taf_trigger": false,
      "metar": "METAR ENBR 191050Z 15009KT CAVOK 01/M05 Q1013 NOSIG RMK WIND 1200FT 16017KT",
      "taf": "TAF ENBR 190500Z 1906/2006 11005KT CAVOK"
    },
    {
      "icao": "ENGM",
      "alert": "OK",
      "vis_m": 9999,
      "fzfg": true,
      "metar_trigger": false,
      "taf_trigger": false,
      "metar": "METAR ENGM 191050Z 20002KT 9999 FEW002 M11/M13 Q1014 NOSIG",
      "taf": "TAF ENGM 190500Z 1906/2006 VRB03KT 0300 FZFG VV001"
    },
    {
      "icao": "ENHD",
      "alert": "OK",
      "vis_m": 9999,
      "fzfg": false,
      "metar_trigger": false,
      "taf_trigger": false,
      "metar": "METAR ENHD 191050Z 14007KT CAVOK 01/M03 Q1014",
      "taf": "TAF ENHD 190800Z 1909/1918 13010KT CAVOK"
    },
    {
      "icao": "ENTC",
      "alert": "OK",
      "vis_m": 9999,
      "fzfg": false,
      "metar_trigger": false,
      "taf_trigger": false,
      "metar": "METAR ENTC 191050Z 21011KT 9999 SCT017 BKN035 M06/M09 Q1010 NOSIG RMK WIND 2600FT 17012KT",
      "taf": "TAF ENTC 190500Z 1906/2006 22008KT 9999 SCT012 BKN018"
    },
    {
      "icao": "ENTO",
      "alert": "OK",
      "vis_m": 9999,
      "fzfg": false,
      "metar_trigger": false,
      "taf_trigger": false,
      "metar": "METAR ENTO 191050Z VRB01KT CAVOK M06/M11 Q1015 NOSIG",
      "taf": "TAF ENTO 190500Z 1906/2006 VRB03KT 9999 FEW010"
    },
    {
      "icao": "ENVA",
      "alert": "OK",
      "vis_m": 3500,
      "fzfg": false,
      "metar_trigger": false,
      "taf_trigger": false,
      "metar": "METAR ENVA 191050Z 06005KT 030V090 3500 R09/1900N R27/1100U -SN FEW007 BKN025 M03/M03 Q1009 BECMG 9999 NSW RMK WIND 670FT 19012KT",
      "taf": "TAF ENVA 190500Z 1906/2006 10005KT 9999 FEW015 BKN030"
    },
    {
      "icao": "ENZV",
      "alert": "OK",
      "vis_m": 9999,
      "fzfg": false,
      "metar_trigger": false,
      "taf_trigger": false,
      "metar": "METAR ENZV 191050Z 15006KT CAVOK 01/M06 Q1014 NOSIG",
      "taf": "TAF ENZV 190500Z 1906/2006 14008KT CAVOK"
    },
    {
      "icao": "EPGD",
      "alert": "OK",
      "vis_m": 9999,
      "fzfg": false,
      "metar_trigger": false,
      "taf_trigger": false,
      "metar": "METAR EPGD 191030Z 28006KT 9999 -SN SCT010 BKN017 M03/M06 Q1011",
      "taf": ""
    },
    {
      "icao": "EPKK",
      "alert": "OK",
      "vis_m": 5000,
      "fzfg": false,
      "metar_trigger": false,
      "taf_trigger": false,
      "metar": "METAR EPKK 191030Z 06008KT 5000 BR BKN014 M01/M05 Q1011",
      "taf": "TAF EPKK 190830Z 1909/2009 06008KT 4500 BR OVC009"
    },
    {
      "icao": "EPKT",
      "alert": "OK",
      "vis_m": 9999,
      "fzfg": false,
      "metar_trigger": false,
      "taf_trigger": false,
      "metar": "METAR EPKT 191030Z 04004KT 020V110 9999 FEW023 00/M06 Q1010",
      "taf": "TAF EPKT 190530Z 1906/2006 VRB02KT 6000 BKN035"
    },
    {
      "icao": "EPLB",
      "alert": "OK",
      "vis_m": 9999,
      "fzfg": false,
      "metar_trigger": false,
      "taf_trigger": false,
      "metar": "METAR EPLB 191030Z 26007KT 9999 FEW024 M03/M07 Q1012",
      "taf": "TAF EPLB 190530Z 1906/2006 27004KT 7000 BKN025"
    },
    {
      "icao": "EPMO",
      "alert": "OK",
      "vis_m": 9999,
      "fzfg": false,
      "metar_trigger": false,
      "taf_trigger": false,
      "metar": "METAR EPMO 191030Z 22006KT 9999 BKN036 M03/M09 Q1013",
      "taf": "TAF EPMO 190530Z 1906/2006 27004KT 7000 SCT025"
    },
    {
      "icao": "EPPO",
      "alert": "OK",
      "vis_m": 9999,
      "fzfg": false,
      "metar_trigger": false,
      "taf_trigger": false,
      "metar": "METAR EPPO 191030Z 03004KT 020V140 CAVOK M01/M09 Q1013",
      "taf": "TAF EPPO 190530Z 1906/2006 VRB02KT 7000 NSC"
    },
    {
      "icao": "EPRA",
      "alert": "OK",
      "vis_m": 9999,
      "fzfg": false,
      "metar_trigger": false,
      "taf_trigger": false,
      "metar": "METAR EPRA 191030Z 34005KT 330V060 9999 FEW020 M03/M07 Q1012",
      "taf": "TAF EPRA 190830Z 1909/1918 33006KT 8000 SCT040"
    },
    {
      "icao": "EPRZ",
      "alert": "OK",
      "vis_m": 9999,
      "fzfg": false,
      "metar_trigger": false,
      "taf_trigger": false,
      "metar": "METAR EPRZ 191030Z 06005KT 9999 BKN046 M02/M07 Q1012",
      "taf": "TAF EPRZ 190530Z 1906/2006 06002KT 9999 BKN025"
    },
    {
      "icao": "EPSC",
      "alert": "OK",
      "vis_m": 9999,
      "fzfg": false,
      "metar_trigger": false,
      "taf_trigger": false,
      "metar": "METAR EPSC 191030Z 29003KT 260V340 9999 OVC020 M02/M09 Q1014",
      "taf": "TAF EPSC 190530Z 1906/2006 VRB02KT 9999 SCT030"
    },
    {
      "icao": "EPSY",
      "alert": "OK",
      "vis_m": 9999,
      "fzfg": false,
      "metar_trigger": false,
      "taf_trigger": false,
      "metar": "METAR EPSY 191030Z 29007KT 240V330 CAVOK M03/M10 Q1011",
      "taf": "TAF EPSY 190830Z 1909/1918 26006KT CAVOK"
    },
    {
      "icao": "EPWA",
      "alert": "OK",
      "vis_m": 9999,
      "fzfg": false,
      "metar_trigger": false,
      "taf_trigger": false,
      "metar": "METAR EPWA 191030Z 30005KT 280V340 9999 BKN035 M03/M09 Q1013 NOSIG",
      "taf": "TAF EPWA 190830Z 1909/2009 26005KT 9999 SCT030"
    },
    {
      "icao": "EPWR",
      "alert": "OK",
      "vis_m": 9999,
      "fzfg": false,
      "metar_trigger": false,
      "taf_trigger": false,
      "metar": "METAR EPWR 191030Z 10006KT CAVOK M02/M07 Q1012",
      "taf": "TAF EPWR 190830Z 1909/2009 VRB02KT 9999 NSC"
    },
    {
      "icao": "ESGG",
      "alert": "OK",
      "vis_m": 9999,
      "fzfg": false,
      "metar_trigger": false,
      "taf_trigger": false,
      "metar": "METAR ESGG 191050Z 02003KT CAVOK M06/M07 Q1015",
      "taf": ""
    },
    {
      "icao": "ESKN",
      "alert": "OK",
      "vis_m": 9999,
      "fzfg": false,
      "metar_trigger": false,
      "taf_trigger": false,
      "metar": "METAR ESKN 191050Z 26006KT CAVOK M07/M10 Q1013",
      "taf": "TAF ESKN 190830Z 1909/2009 31005KT 9999 SCT030"
    },
    {
      "icao": "ESMS",
      "alert": "OK",
      "vis_m": 9999,
      "fzfg": false,
      "metar_trigger": false,
      "taf_trigger": false,
      "metar": "METAR ESMS 191050Z 36005KT CAVOK M02/M09 Q1014",
      "taf": "TAF ESMS 190827Z 1909/2009 02005KT CAVOK"
    },
    {
      "icao": "ESSA",
      "alert": "OK",
      "vis_m": 9999,
      "fzfg": false,
      "metar_trigger": false,
      "taf_trigger": false,
      "metar": "METAR ESSA 191050Z 31004KT 280V040 9999 BKN030 M07/M11 Q1013 NOSIG",
      "taf": "TAF ESSA 190830Z 1909/2009 33005KT 9999 BKN030"
    },
    {
      "icao": "EYKA",
      "alert": "OK",
      "vis_m": 9999,
      "fzfg": false,
      "metar_trigger": false,
      "taf_trigger": false,
      "metar": "METAR EYKA 191050Z 27010KT 9999 BKN020 M04/M08 Q1008",
      "taf": "TAF EYKA 190500Z 1906/2006 VRB04KT 5000 BR OVC010"
    },
    {
      "icao": "EYPA",
      "alert": "OK",
      "vis_m": 1500,
      "fzfg": false,
      "metar_trigger": false,
      "taf_trigger": false,
      "metar": "METAR EYPA 191050Z COR 31005KT 250V010 1500 +SHSN FEW010 SCT015CB BKN035 M02/M05 Q1009",
      "taf": "TAF EYPA 190500Z 1906/2006 VRB04KT 6000 SCT015 BKN020"
    },
    {
      "icao": "EYVI",
      "alert": "OK",
      "vis_m": 9999,
      "fzfg": false,
      "metar_trigger": false,
      "taf_trigger": false,
      "metar": "METAR EYVI 191050Z 27008KT 9999 -SN BKN011 M05/M07 Q1007 NOSIG",
      "taf": ""
    },
    {
      "icao": "GCFV",
      "alert": "OK",
      "vis_m": 9999,
      "fzfg": false,
      "metar_trigger": false,
      "taf_trigger": false,
      "metar": "METAR GCFV 191030Z 03018KT 9999 BKN022 18/12 Q1024",
      "taf": "TAF GCFV 190800Z 1909/2009 04018KT 9999 FEW025 TX19/1914Z TN16/2006Z"
    },
    {
      "icao": "GCLP",
      "alert": "OK",
      "vis_m": 9999,
      "fzfg": false,
      "metar_trigger": false,
      "taf_trigger": false,
      "metar": "METAR GCLP 191030Z 01020KT 9999 BKN023 18/12 Q1024 NOSIG",
      "taf": "TAF GCLP 190800Z 1909/2009 03020KT 9999 SCT025 TX20/1914Z TN15/2006Z"
    },
    {
      "icao": "GCTS",
      "alert": "OK",
      "vis_m": 9999,
      "fzfg": false,
      "metar_trigger": false,
      "taf_trigger": false,
      "metar": "METAR GCTS 191030Z 07020KT 9999 FEW020 19/11 Q1024 NOSIG",
      "taf": "TAF GCTS 190800Z 1909/2009 05010KT 9999 FEW020 TX24/1914Z TN17/2006Z"
    },
    {
      "icao": "GMAD",
      "alert": "OK",
      "vis_m": 500,
      "fzfg": false,
      "metar_trigger": false,
      "taf_trigger": false,
      "metar": "METAR GMAD 191030Z 20004KT 150V240 0500 R27/0550N FG OVC001 11/09 Q1022 BECMG 2000 BR OVC003",
      "taf": "TAF GMAD 190500Z 1906/2012 12005KT 0800 FG OVC004"
    },
    {
      "icao": "GMMN",
      "alert": "OK",
      "vis_m": 9999,
      "fzfg": false,
      "metar_trigger": false,
      "taf_trigger": false,
      "metar": "METAR GMMN 191030Z 06007KT 030V110 9999 SCT020 15/12 Q1027 NOSIG",
      "taf": "TAF GMMN 190500Z 1906/2012 08006KT 9999 SCT016"
    },
    {
      "icao": "GMMX",
      "alert": "OK",
      "vis_m": 6000,
      "fzfg": false,
      "metar_trigger": false,
      "taf_trigger": false,
      "metar": "SPECI GMMX 191054Z 10006KT 020V140 6000 BKN010 13/12 Q1024",
      "taf": "TAF GMMX 190500Z 1906/2012 10004KT 2000 BR BKN008"
    },
    {
      "icao": "HEGN",
      "alert": "OK",
      "vis_m": 9999,
      "fzfg": false,
      "metar_trigger": false,
      "taf_trigger": false,
      "metar": "METAR HEGN 191000Z 34020KT CAVOK 22/01 Q1018 NOSIG",
      "taf": "TAF HEGN 190500Z 1906/2012 34012G22KT CAVOK"
    },
    {
      "icao": "HEMA",
      "alert": "OK",
      "vis_m": 9999,
      "fzfg": false,
      "metar_trigger": false,
      "taf_trigger": false,
      "metar": "METAR HEMA 191000Z 33025KT CAVOK 23/07 Q1017 NOSIG",
      "taf": "TAF HEMA 190500Z 1906/2012 35012G22KT CAVOK"
    },
    {
      "icao": "HESH",
      "alert": "OK",
      "vis_m": 9999,
      "fzfg": false,
      "metar_trigger": false,
      "taf_trigger": false,
      "metar": "METAR HESH 191000Z 35014KT CAVOK 22/07 Q1018 NOSIG",
      "taf": "TAF HESH 190500Z 1906/2012 02014KT CAVOK"
    },
    {
      "icao": "HESX",
      "alert": "OK",
      "vis_m": 9999,
      "fzfg": false,
      "metar_trigger": false,
      "taf_trigger": false,
      "metar": "METAR HESX 191000Z 36013KT 9999 SCT020 19/06 Q1021 NOSIG",
      "taf": "TAF HESX 190500Z 1906/2012 02010KT CAVOK"
    },
    {
      "icao": "LATI",
      "alert": "OK",
      "vis_m": 9999,
      "fzfg": false,
      "metar_trigger": false,
      "taf_trigger": false,
      "metar": "METAR LATI 191050Z 14011KT 9999 SCT040 BKN070 14/01 Q1016 NOSIG",
      "taf": "TAF LATI 190500Z 1906/2006 VRB06KT 9999 FEW040 BKN070 TX17/1912Z TN08/2005Z"
    },
    {
      "icao": "LBPD",
      "alert": "OK",
      "vis_m": 9999,
      "fzfg": false,
      "metar_trigger": false,
      "taf_trigger": false,
      "metar": "METAR LBPD 191030Z AUTO 08006KT 050V130 9999 NCD 09/M02 Q1018 NOSIG",
      "taf": "TAF LBPD 190500Z 1906/2006 VRB04KT CAVOK"
    },
    {
      "icao": "LBSF",
      "alert": "OK",
      "vis_m": 9999,
      "fzfg": false,
      "metar_trigger": false,
      "taf_trigger": false,
      "metar": "METAR LBSF 191030Z VRB02KT CAVOK 06/M04 Q1016 NOSIG",
      "taf": "TAF LBSF 190500Z 1906/2006 VRB03KT CAVOK"
    },
    {
      "icao": "LBWN",
      "alert": "OK",
      "vis_m": 9999,
      "fzfg": false,
      "metar_trigger": false,
      "taf_trigger": false,
      "metar": "METAR LBWN 191030Z 25010KT CAVOK 08/M01 Q1018 NOSIG",
      "taf": "TAF LBWN 190500Z 1906/2006 28008KT CAVOK"
    },
    {
      "icao": "LCLK",
      "alert": "OK",
      "vis_m": 9999,
      "fzfg": false,
      "metar_trigger": false,
      "taf_trigger": false,
      "metar": "METAR LCLK 191030Z 34009KT 290V020 9999 FEW030 SCT060 20/11 Q1019 BECMG 20010KT",
      "taf": "TAF LCLK 190530Z 1906/2006 28008KT 9999 FEW025"
    },
    {
      "icao": "LCPH",
      "alert": "OK",
      "vis_m": 9999,
      "fzfg": false,
      "metar_trigger": false,
      "taf_trigger": false,
      "metar": "METAR LCPH 191030Z 29011KT 250V320 9999 FEW030 18/07 Q1019 NOSIG",
      "taf": "TAF LCPH 190530Z 1906/2006 29014KT 9999 FEW025"
    },
    {
      "icao": "LEAL",
      "alert": "OK",
      "vis_m": 9999,
      "fzfg": false,
      "metar_trigger": false,
      "taf_trigger": false,
      "metar": "METAR LEAL 191030Z 30016KT 260V330 9999 FEW052 17/01 Q1021 NOSIG",
      "taf": "TAF LEAL 190500Z 1906/2006 28007KT 9999 FEW030 TX19/1913Z TN12/1906Z"
    },
    {
      "icao": "LEBB",
      "alert": "OK",
      "vis_m": 9999,
      "fzfg": false,
      "metar_trigger": false,
      "taf_trigger": false,
      "metar": "METAR LEBB 191030Z 28020G33KT 240V320 9999 SCT036 BKN050 11/05 Q1019 NOSIG",
      "taf": "TAF LEBB 190500Z 1906/2006 28009KT 9999 FEW020 BKN040 TX11/1914Z TN07/2005Z"
    },
    {
      "icao": "LEBL",
      "alert": "OK",
      "vis_m": 9999,
      "fzfg": false,
      "metar_trigger": false,
      "taf_trigger": false,
      "metar": "METAR LEBL 191030Z 31019KT 9999 FEW050 12/01 Q1012 NOSIG",
      "taf": ""
    },
    {
      "icao": "LECH",
      "alert": "OK",
      "vis_m": 9999,
      "fzfg": false,
      "metar_trigger": false,
      "taf_trigger": false,
      "metar": "METAR LECH 191030Z AUTO 31017G42KT 240V030 CAVOK 13/M05 Q1015",
      "taf": ""
    },
    {
      "icao": "LEMD",
      "alert": "OK",
      "vis_m": 9999,
      "fzfg": false,
      "metar_trigger": false,
      "taf_trigger": false,
      "metar": "METAR LEMD 191030Z 28011KT 240V310 CAVOK 09/M02 Q1022 NOSIG",
      "taf": "TAF LEMD 190500Z 1906/2012 28010KT CAVOK TX13/1915Z TN00/2006Z"
    },
    {
      "icao": "LEMG",
      "alert": "OK",
      "vis_m": 9999,
      "fzfg": false,
      "metar_trigger": false,
      "taf_trigger": false,
      "metar": "METAR LEMG 191030Z 31014G24KT 280V340 9999 FEW040 14/05 Q1025 NOSIG",
      "taf": "TAF LEMG 190500Z 1906/2006 31016KT CAVOK TX17/1914Z TN11/1907Z"
    },
    {
      "icao": "LEVC",
      "alert": "OK",
      "vis_m": 9999,
      "fzfg": false,
      "metar_trigger": false,
      "taf_trigger": false,
      "metar": "METAR LEVC 191030Z 29021G37KT 260V320 CAVOK 16/M02 Q1018 NOSIG",
      "taf": "TAF LEVC 190500Z 1906/2006 28013KT 9999 FEW035 TX20/1914Z TN12/1906Z"
    },
    {
      "icao": "LEXJ",
      "alert": "OK",
      "vis_m": 8000,
      "fzfg": false,
      "metar_trigger": false,
      "taf_trigger": false,
      "metar": "METAR LEXJ 191030Z 29024G38KT 260V330 8000 SCT041 BKN047 11/04 Q1020",
      "taf": "TAF LEXJ 190800Z 1909/2009 28014KT 9999 FEW020 BKN030 TX12/1915Z TN08/2004Z"
    },
    {
      "icao": "LEZG",
      "alert": "OK",
      "vis_m": 9999,
      "fzfg": false,
      "metar_trigger": false,
      "taf_trigger": false,
      "metar": "METAR LEZG 191030Z 28016KT 250V320 9999 FEW060 12/M00 Q1018 NOSIG",
      "taf": "TAF LEZG 190500Z 1906/2006 26009KT 9999 FEW040 TX14/1914Z TN07/1906Z"
    },
    {
      "icao": "LEZL",
      "alert": "OK",
      "vis_m": 9999,
      "fzfg": false,
      "metar_trigger": false,
      "taf_trigger": false,
      "metar": "METAR LEZL 191030Z 31005KT 260V360 CAVOK 14/07 Q1027 NOSIG",
      "taf": "TAF LEZL 190800Z 1909/2009 29006KT CAVOK TX18/1915Z TN06/2007Z"
    },
    {
      "icao": "LFBD",
      "alert": "OK",
      "vis_m": 9999,
      "fzfg": false,
      "metar_trigger": false,
      "taf_trigger": false,
      "metar": "METAR LFBD 191030Z AUTO 28023G38KT 9999 2200 SCT024/// BKN029/// BKN046/// //////CB 11/07 Q1010 TEMPO 3000 SHRA BKN013 BKN025CB",
      "taf": ""
    },
    {
      "icao": "LFLL",
      "alert": "OK",
      "vis_m": 9999,
      "fzfg": false,
      "metar_trigger": false,
      "taf_trigger": false,
      "metar": "METAR LFLL 191030Z 19012KT 9999 FEW040 BKN045 BKN053 09/04 Q1003 NOSIG",
      "taf": "TAF LFLL 190500Z 1906/2012 19012KT CAVOK"
    },
    {
      "icao": "LFLS",
      "alert": "OK",
      "vis_m": 9999,
      "fzfg": false,
      "metar_trigger": false,
      "taf_trigger": false,
      "metar": "METAR LFLS 191030Z AUTO VRB04KT 9999 BKN040 OVC048 07/03 Q1004 TEMPO 3000 SHRA FEW025CB BKN025TCU",
      "taf": "TAF LFLS 190800Z 1909/2009 21010KT 9999 BKN035"
    },
    {
      "icao": "LFMN",
      "alert": "OK",
      "vis_m": 9999,
      "fzfg": false,
      "metar_trigger": false,
      "taf_trigger": false,
      "metar": "METAR LFMN 191030Z 10018KT CAVOK 13/09 Q1001 NOSIG",
      "taf": "TAF LFMN 190800Z 1909/2015 27010KT CAVOK"
    },
    {
      "icao": "LFOB",
      "alert": "OK",
      "vis_m": 9999,
      "fzfg": false,
      "metar_trigger": false,
      "taf_trigger": false,
      "metar": "METAR LFOB 191030Z AUTO 29006KT 9999 BKN006 OVC018 09/08 Q0994 TEMPO 3500 SHRA BKN007 BKN012 SCT030TCU",
      "taf": ""
    },
    {
      "icao": "LFPO",
      "alert": "OK",
      "vis_m": 8000,
      "fzfg": false,
      "metar_trigger": false,
      "taf_trigger": false,
      "metar": "METAR LFPO 191030Z 26010KT 8000 -SHRA BKN011 BKN028TCU BKN028 08/06 Q0995 TEMPO 4000 -SHRA BKN012TCU",
      "taf": "TAF LFPO 190500Z 1906/2012 22010KT 9999 BKN025"
    },
    {
      "icao": "LFSB",
      "alert": "OK",
      "vis_m": 9999,
      "fzfg": false,
      "metar_trigger": false,
      "taf_trigger": false,
      "metar": "METAR LFSB 191030Z AUTO 12007KT 9999 BKN046 OVC054 09/05 Q0999 TEMPO 4000 SHRA SCT030CB",
      "taf": "TAF LFSB 190500Z 1906/2006 12005KT CAVOK"
    },
    {
      "icao": "LGAV",
      "alert": "OK",
      "vis_m": 9999,
      "fzfg": false,
      "metar_trigger": false,
      "taf_trigger": false,
      "metar": "METAR LGAV 191050Z 22010KT 9999 FEW030 16/M00 Q1021 NOSIG",
      "taf": "TAF LGAV 190500Z 1906/2006 VRB05KT 9999 FEW025"
    },
    {
      "icao": "LGTS",
      "alert": "OK",
      "vis_m": 9999,
      "fzfg": false,
      "metar_trigger": false,
      "taf_trigger": false,
      "metar": "METAR LGTS 191050Z 29005KT CAVOK 11/01 Q1019 NOSIG",
      "taf": "TAF LGTS 190500Z 1906/2006 VRB03KT 9999 FEW030"
    },
    {
      "icao": "LHBP",
      "alert": "OK",
      "vis_m": 7000,
      "fzfg": false,
      "metar_trigger": false,
      "taf_trigger": false,
      "metar": "METAR LHBP 191030Z 07007KT 7000 -RA SCT019 OVC036 01/00 Q1009 NOSIG",
      "taf": "TAF LHBP 190515Z 1906/2006 09008KT 9999 SCT008 OVC040"
    },
    {
      "icao": "LHDC",
      "alert": "OK",
      "vis_m": 9999,
      "fzfg": false,
      "metar_trigger": false,
      "taf_trigger": false,
      "metar": "METAR LHDC 191015Z AUTO 13009KT CAVOK 05/M02 Q1011 NOSIG",
      "taf": "TAF LHDC 190815Z 1909/1918 11006KT 9999 BKN030 OVC050"
    },
    {
      "icao": "LIBD",
      "alert": "OK",
      "vis_m": 9999,
      "fzfg": false,
      "metar_trigger": false,
      "taf_trigger": false,
      "metar": "METAR LIBD 191050Z 18009KT CAVOK 16/07 Q1011",
      "taf": "TAF LIBD 190500Z 1906/2006 18008KT CAVOK"
    },
    {
      "icao": "LIBG",
      "alert": "OK",
      "vis_m": 9999,
      "fzfg": false,
      "metar_trigger": false,
      "taf_trigger": false,
      "metar": "METAR LIBG 190950Z 17011KT CAVOK 15/07 Q1014",
      "taf": "TAF LIBG 190800Z 1909/1918 17014KT 9999 SCT020"
    },
    {
      "icao": "LIBP",
      "alert": "OK",
      "vis_m": 9999,
      "fzfg": false,
      "metar_trigger": false,
      "taf_trigger": false,
      "metar": "METAR LIBP 191050Z AUTO VRB05KT 9999 -RA OVC066/// 18/08 Q1004",
      "taf": "TAF LIBP 190500Z 1906/2006 VRB05KT CAVOK"
    },
    {
      "icao": "LIBR",
      "alert": "OK",
      "vis_m": 9999,
      "fzfg": false,
      "metar_trigger": false,
      "taf_trigger": false,
      "metar": "METAR LIBR 191050Z 19018KT 9999 SCT030 15/08 Q1014",
      "taf": "TAF LIBR 190500Z 1906/2006 18010KT CAVOK"
    },
    {
      "icao": "LICA",
      "alert": "OK",
      "vis_m": 9999,
      "fzfg": false,
      "metar_trigger": false,
      "taf_trigger": false,
      "metar": "METAR LICA 191050Z AUTO 08009KT 9999 NCD 18/10 Q1013",
      "taf": "TAF LICA 190500Z 1906/2006 VRB06KT 9999 FEW025"
    },
    {
      "icao": "LICC",
      "alert": "OK",
      "vis_m": 9999,
      "fzfg": false,
      "metar_trigger": false,
      "taf_trigger": false,
      "metar": "METAR LICC 191050Z 24006KT 200V280 CAVOK 18/14 Q1016",
      "taf": "TAF LICC 190500Z 1906/2006 26011KT 9999 FEW040"
    },
    {
      "icao": "LICJ",
      "alert": "OK",
      "vis_m": 9999,
      "fzfg": false,
      "metar_trigger": false,
      "taf_trigger": false,
      "metar": "METAR LICJ 191050Z 20019KT CAVOK 19/10 Q1010",
      "taf": "TAF LICJ 190500Z 1906/2006 22022G32KT 9999 SCT035"
    },
    {
      "icao": "LIMC",
      "alert": "OK",
      "vis_m": 9999,
      "fzfg": false,
      "metar_trigger": false,
      "taf_trigger": false,
      "metar": "METAR LIMC 191050Z 26006KT 230V290 9999 SCT010 BKN035 06/04 Q1000 NOSIG",
      "taf": "TAF LIMC 190500Z 1906/2012 35010KT 4000 RA SCT015 BKN030"
    },
    {
      "icao": "LIME",
      "alert": "OK",
      "vis_m": 9999,
      "fzfg": false,
      "metar_trigger": false,
      "taf_trigger": false,
      "metar": "METAR LIME 191050Z AUTO 31003KT 9999 -RA OVC033/// 05/04 Q1000",
      "taf": "TAF LIME 190500Z 1906/2006 31012KT 4000 RA BKN030"
    },
    {
      "icao": "LIMF",
      "alert": "OK",
      "vis_m": 8000,
      "fzfg": false,
      "metar_trigger": false,
      "taf_trigger": false,
      "metar": "METAR LIMF 191050Z 20005KT 180V240 8000 SCT009 07/03 Q1000",
      "taf": ""
    },
    {
      "icao": "LIMJ",
      "alert": "OK",
      "vis_m": 9999,
      "fzfg": false,
      "metar_trigger": false,
      "taf_trigger": false,
      "metar": "METAR LIMJ 191050Z 05014KT CAVOK 08/04 Q1001",
      "taf": "TAF LIMJ 190500Z 1906/2006 34018KT 9999 BKN020"
    },
    {
      "icao": "LIPE",
      "alert": "OK",
      "vis_m": 8000,
      "fzfg": false,
      "metar_trigger": false,
      "taf_trigger": false,
      "metar": "METAR LIPE 191050Z 27018KT 8000 SCT008 10/08 Q0998",
      "taf": "TAF LIPE 190500Z 1906/2006 09010KT 9999 FEW060"
    },
    {
      "icao": "LIPH",
      "alert": "OK",
      "vis_m": 6000,
      "fzfg": false,
      "metar_trigger": false,
      "taf_trigger": false,
      "metar": "METAR LIPH 191050Z 06008KT 030V090 6000 RA BKN005 BKN015 08/08 Q1000",
      "taf": "TAF LIPH 190500Z 1906/2006 VRB05KT 7000 RA BKN020"
    },
    {
      "icao": "LIPQ",
      "alert": "OK",
      "vis_m": 9999,
      "fzfg": false,
      "metar_trigger": false,
      "taf_trigger": false,
      "metar": "METAR LIPQ 191050Z AUTO 14015KT 9999 OVC049/// 12/09 Q1001",
      "taf": "TAF LIPQ 190500Z 1906/2006 VRB05KT 7000 RA BKN020"
    },
    {
      "icao": "LIPR",
      "alert": "OK",
      "vis_m": 9999,
      "fzfg": false,
      "metar_trigger": false,
      "taf_trigger": false,
      "metar": "METAR LIPR 191050Z 19014G25KT 160V230 9999 BKN045 17/08 Q1000",
      "taf": "TAF LIPR 190500Z 1906/2006 16013KT 9999 FEW050"
    },
    {
      "icao": "LIPX",
      "alert": "OK",
      "vis_m": 5000,
      "fzfg": false,
      "metar_trigger": false,
      "taf_trigger": false,
      "metar": "METAR LIPX 191050Z 24011KT 5000 RA BKN015 BKN030 08/07 Q0999",
      "taf": "TAF LIPX 190500Z 1906/2006 05010KT 4000 RA BKN030"
    },
    {
      "icao": "LIPY",
      "alert": "OK",
      "vis_m": 9999,
      "fzfg": false,
      "metar_trigger": false,
      "taf_trigger": false,
      "metar": "METAR LIPY 191050Z AUTO 15009KT 120V180 9999 BKN067/// 16/07 Q1001",
      "taf": "TAF LIPY 190500Z 1906/2006 16010KT CAVOK"
    },
    {
      "icao": "LIPZ",
      "alert": "OK",
      "vis_m": 9999,
      "fzfg": false,
      "metar_trigger": false,
      "taf_trigger": false,
      "metar": "METAR LIPZ 191050Z 09006KT 060V130 9999 -RA SCT030 BKN060 11/09 Q0999 BECMG 17016G30KT",
      "taf": "TAF LIPZ 190500Z 1906/2012 04013KT 4000 RA BKN050"
    },
    {
      "icao": "LIRF",
      "alert": "OK",
      "vis_m": 9999,
      "fzfg": false,
      "metar_trigger": false,
      "taf_trigger": false,
      "metar": "METAR LIRF 191050Z 15016KT 9999 FEW010 16/14 Q1005 NOSIG",
      "taf": "TAF LIRF 190500Z 1906/2012 17012KT 9999 FEW025"
    },
    {
      "icao": "LIRN",
      "alert": "OK",
      "vis_m": 9999,
      "fzfg": false,
      "metar_trigger": false,
      "taf_trigger": false,
      "metar": "METAR LIRN 191050Z 18010G20KT 090V220 9999 BKN040 15/09 Q1010 WS R24 NOSIG",
      "taf": "TAF LIRN 190500Z 1906/2006 18012KT 9999 SCT030"
    },
    {
      "icao": "LIRP",
      "alert": "OK",
      "vis_m": 9999,
      "fzfg": false,
      "metar_trigger": false,
      "taf_trigger": false,
      "metar": "METAR LIRP 191045Z 30010KT 9999 FEW025 SCT035 BKN060 12/10 Q1003 NOSIG",
      "taf": "TAF LIRP 190500Z 1906/2006 20015KT 9999 RA SCT025 SCT060"
    },
    {
      "icao": "LIRZ",
      "alert": "OK",
      "vis_m": 9999,
      "fzfg": false,
      "metar_trigger": false,
      "taf_trigger": false,
      "metar": "METAR LIRZ 191050Z AUTO 17013G23KT 9999 -RA FEW024/// BKN061/// 14/10 Q1002",
      "taf": "TAF LIRZ 190500Z 1906/2006 19013KT 9999 SCT035"
    },
    {
      "icao": "LJLJ",
      "alert": "OK",
      "vis_m": 3000,
      "fzfg": false,
      "metar_trigger": false,
      "taf_trigger": false,
      "metar": "METAR LJLJ 191030Z VRB02KT 3000 RA BR SCT002 BKN020 OVC035 04/04 Q1004 RERA NOSIG",
      "taf": "TAF LJLJ 190500Z 1906/2006 VRB02KT 9999 FEW003 OVC020"
    },
    {
      "icao": "LKMT",
      "alert": "OK",
      "vis_m": 1500,
      "fzfg": false,
      "metar_trigger": false,
      "taf_trigger": false,
      "metar": "METAR LKMT 191030Z 03007KT 1500 BR OVC006 M01/M02 Q1010 NOSIG",
      "taf": ""
    },
    {
      "icao": "LKPR",
      "alert": "OK",
      "vis_m": 8000,
      "fzfg": false,
      "metar_trigger": false,
      "taf_trigger": false,
      "metar": "METAR LKPR 191030Z 07009KT 8000 BKN007 M01/M02 Q1007 NOSIG",
      "taf": "TAF LKPR 190800Z 1909/2015 08009KT 6000 BKN006"
    },
    {
      "icao": "LLBG",
      "alert": "OK",
      "vis_m": 9999,
      "fzfg": false,
      "metar_trigger": false,
      "taf_trigger": false,
      "metar": "METAR LLBG 191050Z 29007KT 9999 SCT040 19/06 Q1020 NOSIG RMK SCT060",
      "taf": "TAF LLBG 190501Z 1906/2006 27008KT 9999 SCT030"
    },
    {
      "icao": "LMML",
      "alert": "OK",
      "vis_m": 9999,
      "fzfg": false,
      "metar_trigger": false,
      "taf_trigger": false,
      "metar": "METAR LMML 191045Z 18014G28KT 9999 FEW010 18/14 Q1016 NOSIG",
      "taf": "TAF LMML 190500Z 1906/2006 19012KT CAVOK"
    },
    {
      "icao": "LOWW",
      "alert": "OK",
      "vis_m": 9999,
      "fzfg": false,
      "metar_trigger": false,
      "taf_trigger": false,
      "metar": "METAR LOWW 191050Z 09008KT 9999 FEW006 BKN007 01/M01 Q1007 TEMPO 4000 -SN",
      "taf": "TAF LOWW 190815Z 1909/2015 10009KT 9999 FEW020 BKN030 TX01/1912Z TNM02/2003Z"
    },
    {
      "icao": "LPFR",
      "alert": "OK",
      "vis_m": 9999,
      "fzfg": false,
      "metar_trigger": false,
      "taf_trigger": false,
      "metar": "METAR LPFR 191030Z 34004KT 280V040 9999 FEW020 14/08 Q1028",
      "taf": "TAF LPFR 190500Z 1906/2006 VRB02KT CAVOK"
    },
    {
      "icao": "LPMA",
      "alert": "OK",
      "vis_m": 9999,
      "fzfg": false,
      "metar_trigger": false,
      "taf_trigger": false,
      "metar": "METAR LPMA 191030Z 04012KT 360V060 9999 BKN013 16/12 Q1028",
      "taf": "TAF LPMA 190500Z 1906/2006 03010KT 9999 SCT014"
    },
    {
      "icao": "LPPR",
      "alert": "OK",
      "vis_m": 9999,
      "fzfg": false,
      "metar_trigger": false,
      "taf_trigger": false,
      "metar": "METAR LPPR 191030Z 32011KT 9999 FEW030 12/05 Q1027",
      "taf": "TAF LPPR 190500Z 1906/2006 33010KT 9999 SCT030"
    },
    {
      "icao": "LPPS",
      "alert": "OK",
      "vis_m": 9999,
      "fzfg": false,
      "metar_trigger": false,
      "taf_trigger": false,
      "metar": "METAR LPPS 191030Z 08011KT 040V120 9999 FEW015 17/10 Q1028",
      "taf": "TAF LPPS 190500Z 1906/2012 04007KT 9999 BKN010"
    },
    {
      "icao": "LPPT",
      "alert": "OK",
      "vis_m": 9999,
      "fzfg": false,
      "metar_trigger": false,
      "taf_trigger": false,
      "metar": "METAR LPPT 191030Z 36006KT 290V040 9999 SCT030 SCT045 13/08 Q1028",
      "taf": "TAF LPPT 190500Z 1906/2012 32008KT 9999 BKN040"
    },
    {
      "icao": "LQBK",
      "alert": "OK",
      "vis_m": 9999,
      "fzfg": false,
      "metar_trigger": false,
      "taf_trigger": false,
      "metar": "METAR LQBK 191030Z 17013KT CAVOK 15/04 Q1006 NOSIG",
      "taf": "TAF LQBK 190500Z 1906/2006 13007KT CAVOK TX13/1913Z TN05/2006Z"
    },
    {
      "icao": "LQSA",
      "alert": "OK",
      "vis_m": 9999,
      "fzfg": false,
      "metar_trigger": false,
      "taf_trigger": false,
      "metar": "METAR LQSA 191030Z 14016KT 9999 BKN045 09/02 Q1010 NOSIG",
      "taf": "TAF LQSA 190500Z 1906/2006 VRB02KT CAVOK TX10/1913Z TNM04/1906Z"
    },
    {
      "icao": "LQTZ",
      "alert": "OK",
      "vis_m": 9999,
      "fzfg": false,
      "metar_trigger": false,
      "taf_trigger": false,
      "metar": "METAR LQTZ 191030Z 19004KT 120V250 CAVOK 14/02 Q1009",
      "taf": "TAF LQTZ 190500Z 1906/2006 VRB02KT CAVOK TX13/1914Z TNM00/1906Z"
    },
    {
      "icao": "LRBC",
      "alert": "OK",
      "vis_m": 3100,
      "fzfg": false,
      "metar_trigger": false,
      "taf_trigger": false,
      "metar": "METAR LRBC 191030Z 21003KT 3100 BR NSC M02/M04 Q1015",
      "taf": ""
    },
    {
      "icao": "LRBS",
      "alert": "OK",
      "vis_m": 9999,
      "fzfg": false,
      "metar_trigger": false,
      "taf_trigger": false,
      "metar": "METAR LRBS 191030Z 24004KT CAVOK 05/M02 Q1017 NOSIG",
      "taf": "TAF LRBS 190500Z 1906/2006 25006KT CAVOK"
    },
    {
      "icao": "LRBV",
      "alert": "OK",
      "vis_m": 9999,
      "fzfg": false,
      "metar_trigger": false,
      "taf_trigger": false,
      "metar": "METAR LRBV 191030Z 02003KT 340V050 9999 BKN060 01/M04 Q1013",
      "taf": "TAF LRBV 190800Z 1909/1918 VRB04KT CAVOK"
    },
    {
      "icao": "LRCL",
      "alert": "OK",
      "vis_m": 9999,
      "fzfg": false,
      "metar_trigger": false,
      "taf_trigger": false,
      "metar": "METAR LRCL 191030Z 11008KT 9999 BKN062 03/M03 Q1012",
      "taf": "TAF LRCL 190800Z 1909/1918 VRB04KT CAVOK"
    },
    {
      "icao": "LRCV",
      "alert": "OK",
      "vis_m": 9999,
      "fzfg": false,
      "metar_trigger": false,
      "taf_trigger": false,
      "metar": "METAR LRCV 191030Z 14006KT CAVOK 07/01 Q1016",
      "taf": "TAF LRCV 190800Z 1909/1918 VRB04KT CAVOK"
    },
    {
      "icao": "LRIA",
      "alert": "OK",
      "vis_m": 8000,
      "fzfg": false,
      "metar_trigger": false,
      "taf_trigger": false,
      "metar": "METAR LRIA 191030Z 11004KT 8000 FEW045 M00/M03 Q1015",
      "taf": "TAF LRIA 190800Z 1909/1918 23006KT 9999 SCT030"
    },
    {
      "icao": "LROP",
      "alert": "OK",
      "vis_m": 9999,
      "fzfg": false,
      "metar_trigger": false,
      "taf_trigger": false,
      "metar": "METAR LROP 191030Z 25003KT CAVOK 06/M05 Q1017 NOSIG",
      "taf": "TAF LROP 190500Z 1906/2006 25006KT CAVOK"
    },
    {
      "icao": "LRSB",
      "alert": "OK",
      "vis_m": 9999,
      "fzfg": false,
      "metar_trigger": false,
      "taf_trigger": false,
      "metar": "METAR LRSB 191030Z 10007KT 9999 BKN062 BKN073 05/M03 Q1012",
      "taf": "TAF LRSB 190500Z 1906/2006 VRB04KT CAVOK"
    },
    {
      "icao": "LRSM",
      "alert": "OK",
      "vis_m": 9999,
      "fzfg": false,
      "metar_trigger": false,
      "taf_trigger": false,
      "metar": "METAR LRSM 191030Z 14007KT CAVOK 05/M02 Q1012",
      "taf": "TAF LRSM 190800Z 1909/1918 14006KT CAVOK"
    },
    {
      "icao": "LRSV",
      "alert": "OK",
      "vis_m": 9999,
      "fzfg": false,
      "metar_trigger": false,
      "taf_trigger": false,
      "metar": "METAR LRSV 191030Z COR 11006KT CAVOK 00/M02 Q1012",
      "taf": "TAF LRSV 190800Z 1909/1918 VRB04KT 9999 SCT045"
    },
    {
      "icao": "LRTM",
      "alert": "OK",
      "vis_m": 9999,
      "fzfg": false,
      "metar_trigger": false,
      "taf_trigger": false,
      "metar": "METAR LRTM 191030Z 10007KT CAVOK 03/M01 Q1013",
      "taf": "TAF LRTM 190800Z 1909/1918 05005KT CAVOK"
    },
    {
      "icao": "LRTR",
      "alert": "OK",
      "vis_m": 9999,
      "fzfg": false,
      "metar_trigger": false,
      "taf_trigger": false,
      "metar": "METAR LRTR 191030Z 11012KT CAVOK 05/02 Q1011 NOSIG",
      "taf": "TAF LRTR 190500Z 1906/2006 10010KT CAVOK"
    },
    {
      "icao": "LTAC",
      "alert": "OK",
      "vis_m": 9999,
      "fzfg": false,
      "metar_trigger": false,
      "taf_trigger": false,
      "metar": "METAR LTAC 191050Z 26012KT 210V290 9999 BKN040 05/M07 Q1020 NOSIG RMK RWY21C 25010KT RWY03L 25010KT 210V270 RWY21R 25009KT 210V290 RWY03R 25009KT 230V290 RWY21L 25010G21KT 210V300",
      "taf": "TAF LTAC 190440Z 1906/2006 25012KT 9999 SCT040 BKN100"
    },
    {
      "icao": "LTFM",
      "alert": "OK",
      "vis_m": 9999,
      "fzfg": false,
      "metar_trigger": false,
      "taf_trigger": false,
      "metar": "METAR LTFM 191050Z 20016KT 9999 FEW033 10/02 Q1020 NOSIG RMK RWY17L 21017KT RWY34L 21016KT RWY16R 21015KT RWY36 21015KT RWY18 22019KT",
      "taf": "TAF LTFM 190440Z 1906/2012 22012KT CAVOK"
    },
    {
      "icao": "LUKK",
      "alert": "OK",
      "vis_m": 9999,
      "fzfg": false,
      "metar_trigger": false,
      "taf_trigger": false,
      "metar": "METAR LUKK 191030Z 27008KT CAVOK 01/M03 Q1015 NOSIG",
      "taf": "TAF LUKK 190529Z 1906/2006 25008KT 9999 SCT025"
    },
    {
      "icao": "LWOH",
      "alert": "OK",
      "vis_m": null,
      "fzfg": false,
      "metar_trigger": false,
      "taf_trigger": false,
      "metar": "",
      "taf": "TAF LWOH 190855Z 1906/2006 VRB02KT CAVOK"
    },
    {
      "icao": "LWSK",
      "alert": "OK",
      "vis_m": null,
      "fzfg": false,
      "metar_trigger": false,
      "taf_trigger": false,
      "metar": "",
      "taf": "TAF LWSK 190855Z 1909/2009 VRB02KT CAVOK"
    },
    {
      "icao": "LYBE",
      "alert": "OK",
      "vis_m": 9999,
      "fzfg": false,
      "metar_trigger": false,
      "taf_trigger": false,
      "metar": "METAR LYBE 191030Z 16013KT CAVOK 12/M00 Q1010 NOSIG",
      "taf": "TAF LYBE 190500Z 1906/2006 16012KT CAVOK TX14/1913Z TN01/1906Z"
    },
    {
      "icao": "LYNI",
      "alert": "OK",
      "vis_m": 9999,
      "fzfg": false,
      "metar_trigger": false,
      "taf_trigger": false,
      "metar": "METAR LYNI 191030Z COR 17008KT 120V240 CAVOK 11/M01 Q1015 NOSIG",
      "taf": "TAF LYNI 190500Z 1906/2006 09004KT CAVOK TX13/1913Z TNM02/1906Z"
    },
    {
      "icao": "LYPG",
      "alert": "OK",
      "vis_m": 9999,
      "fzfg": false,
      "metar_trigger": false,
      "taf_trigger": false,
      "metar": "METAR LYPG 191030Z 27003KT 220V320 9999 FEW027 SCT050 BKN070 10/03 Q1016 NOSIG",
      "taf": "TAF LYPG 190500Z 1906/2006 16005KT 9999 SCT040 BKN080 TX13/1918Z TN05/1906Z"
    },
    {
      "icao": "LZIB",
      "alert": "OK",
      "vis_m": 1200,
      "fzfg": false,
      "metar_trigger": false,
      "taf_trigger": false,
      "metar": "METAR LZIB 191030Z 03011KT 1200 R31/1200N R22/1200U SN BKN003 OVC013 M00/M00 Q1008 TEMPO 0800 SN",
      "taf": ""
    },
    {
      "icao": "LZKZ",
      "alert": "OK",
      "vis_m": 9999,
      "fzfg": false,
      "metar_trigger": false,
      "taf_trigger": false,
      "metar": "METAR LZKZ 191030Z 00000KT 9999 BKN045 01/00 Q1011 NOSIG",
      "taf": ""
    },
    {
      "icao": "LZTT",
      "alert": "OK",
      "vis_m": 9999,
      "fzfg": false,
      "metar_trigger": false,
      "taf_trigger": false,
      "metar": "METAR LZTT 191030Z 16004KT 110V190 9999 FEW018 BKN046 M01/M03 Q1008 NOSIG",
      "taf": "TAF LZTT 190515Z 1906/2006 30005KT 9999 FEW020"
    },
    {
      "icao": "OEJN",
      "alert": "OK",
      "vis_m": 9999,
      "fzfg": false,
      "metar_trigger": false,
      "taf_trigger": false,
      "metar": "METAR OEJN 191000Z 29010KT CAVOK 31/16 Q1012 NOSIG",
      "taf": "TAF OEJN 190500Z 1906/2012 32014KT 7000 NSC"
    },
    {
      "icao": "OEMA",
      "alert": "OK",
      "vis_m": 9999,
      "fzfg": false,
      "metar_trigger": false,
      "taf_trigger": false,
      "metar": "METAR OEMA 191000Z 04004KT CAVOK 31/05 Q1016 NOSIG",
      "taf": "TAF OEMA 190500Z 1906/2012 30010KT CAVOK"
    },
    {
      "icao": "OJAI",
      "alert": "OK",
      "vis_m": 4000,
      "fzfg": false,
      "metar_trigger": false,
      "taf_trigger": false,
      "metar": "METAR OJAI 191000Z 28012KT 4000 HZ BKN030 12/07 Q1022 NOSIG",
      "taf": "TAF OJAI 190500Z 1906/2012 27010KT 5000 HZ FEW030"
    },
    {
      "icao": "OMAA",
      "alert": "OK",
      "vis_m": 9999,
      "fzfg": false,
      "metar_trigger": false,
      "taf_trigger": false,
      "metar": "METAR OMAA 191030Z 09009KT 040V150 CAVOK 31/04 Q1014 NOSIG",
      "taf": "TAF OMAA 190500Z 1906/2012 11007KT 8000 NSC"
    },
    {
      "icao": "OMDB",
      "alert": "OK",
      "vis_m": 9999,
      "fzfg": false,
      "metar_trigger": false,
      "taf_trigger": false,
      "metar": "METAR OMDB 191030Z 33015KT CAVOK 29/06 Q1015 NOSIG",
      "taf": ""
    },
    {
      "icao": "UAAA",
      "alert": "OK",
      "vis_m": 9999,
      "fzfg": false,
      "metar_trigger": false,
      "taf_trigger": false,
      "metar": "METAR UAAA 191030Z 35003MPS 320V020 9999 NSC 21/05 Q1013 NOSIG",
      "taf": "TAF UAAA 190505Z 1906/2006 35003MPS 9999 SCT050 BKN100 TX20/1909Z TN03/2003Z"
    },
    {
      "icao": "UBBB",
      "alert": "OK",
      "vis_m": 9999,
      "fzfg": false,
      "metar_trigger": false,
      "taf_trigger": false,
      "metar": "METAR UBBB 191030Z 26018G34KT 240V310 CAVOK 25/05 Q1004 NOSIG",
      "taf": "TAF UBBB 191057Z 1912/2012 32020G30KT 9999 SCT020 TX09/1912Z"
    },
    {
      "icao": "UDSG",
      "alert": "OK",
      "vis_m": 9999,
      "fzfg": false,
      "metar_trigger": false,
      "taf_trigger": false,
      "metar": "METAR UDSG 191030Z 26009KT 9999 SCT049CB 05/M01 Q1013 NOSIG",
      "taf": "TAF UDSG 190458Z 1906/2006 VRB06KT 9999 BKN040"
    },
    {
      "icao": "UDYZ",
      "alert": "OK",
      "vis_m": 9999,
      "fzfg": false,
      "metar_trigger": false,
      "taf_trigger": false,
      "metar": "METAR UDYZ 191030Z 28016KT 9999 SCT///CB 14/M01 Q1012 WS R08 NOSIG",
      "taf": ""
    },
    {
      "icao": "UGKO",
      "alert": "OK",
      "vis_m": 6000,
      "fzfg": false,
      "metar_trigger": false,
      "taf_trigger": false,
      "metar": "METAR UGKO 191030Z 27015KT 6000 -SHRA SCT008 BKN027CB OVC092 06/05 Q1021 NOSIG",
      "taf": "TAF UGKO 190500Z 1906/2006 25010KT 9999 BKN050 TX07/1906Z TN02/2003Z"
    }
  ]
}