{
  "ts_utc": "2026-03-03T08:02:36Z",
  "threshold_m": 150,
  "source": "stations_override.txt (ICAO list) + aviationweather.gov (METAR/TAF raw)",
  "station_count": 159,
  "stations": [
    {
      "icao": "BIKF",
      "alert": "OK",
      "vis_m": 9999,
      "fzfg": false,
      "metar_trigger": false,
      "taf_trigger": false,
      "metar": "METAR BIKF 030730Z 09015KT CAVOK M01/M08 Q1005",
      "taf": "TAF BIKF 030750Z 0309/0409 11018G30KT 9999 SCT040 TX07/0318Z TNM01/0408Z"
    },
    {
      "icao": "BKPR",
      "alert": "OK",
      "vis_m": 9999,
      "fzfg": false,
      "metar_trigger": false,
      "taf_trigger": false,
      "metar": "METAR BKPR 030800Z VRB02KT 9999 FEW065 07/04 Q1027 NOSIG",
      "taf": "TAF BKPR 030530Z 0306/0406 04006KT 9999 BKN070"
    },
    {
      "icao": "EBCI",
      "alert": "OK",
      "vis_m": 9999,
      "fzfg": false,
      "metar_trigger": false,
      "taf_trigger": false,
      "metar": "METAR EBCI 030750Z 16004KT CAVOK 09/04 Q1025 NOSIG",
      "taf": "TAF EBCI 030515Z 0306/0412 16004KT CAVOK"
    },
    {
      "icao": "EDDB",
      "alert": "OK",
      "vis_m": 9999,
      "fzfg": false,
      "metar_trigger": false,
      "taf_trigger": false,
      "metar": "METAR EDDB 030750Z AUTO 18003KT 150V210 CAVOK 05/00 Q1026 NOSIG",
      "taf": "TAF EDDB 030500Z 0306/0406 15005KT CAVOK"
    },
    {
      "icao": "EDDH",
      "alert": "OK",
      "vis_m": 9999,
      "fzfg": false,
      "metar_trigger": false,
      "taf_trigger": false,
      "metar": "METAR EDDH 030750Z AUTO 15003KT CAVOK 08/04 Q1024 NOSIG",
      "taf": "TAF EDDH 030500Z 0306/0412 VRB02KT CAVOK"
    },
    {
      "icao": "EDDK",
      "alert": "OK",
      "vis_m": 9999,
      "fzfg": false,
      "metar_trigger": false,
      "taf_trigger": false,
      "metar": "METAR EDDK 030750Z AUTO 13004KT 090V170 CAVOK 08/03 Q1026 NOSIG",
      "taf": "TAF EDDK 030500Z 0306/0412 VRB03KT CAVOK"
    },
    {
      "icao": "EDDN",
      "alert": "OK",
      "vis_m": 9999,
      "fzfg": false,
      "metar_trigger": false,
      "taf_trigger": false,
      "metar": "METAR EDDN 030750Z AUTO VRB01KT CAVOK 03/01 Q1027 NOSIG",
      "taf": "TAF EDDN 030500Z 0306/0406 VRB03KT 8000 NSC"
    },
    {
      "icao": "EDDS",
      "alert": "OK",
      "vis_m": 9999,
      "fzfg": false,
      "metar_trigger": false,
      "taf_trigger": false,
      "metar": "METAR EDDS 030750Z AUTO VRB02KT CAVOK 03/01 Q1025 NOSIG",
      "taf": "TAF EDDS 030500Z 0306/0406 VRB03KT CAVOK"
    },
    {
      "icao": "EDFH",
      "alert": "OK",
      "vis_m": 9999,
      "fzfg": false,
      "metar_trigger": false,
      "taf_trigger": false,
      "metar": "METAR EDFH 030750Z 15008KT CAVOK 07/03 Q1025",
      "taf": "TAF EDFH 030500Z 0306/0406 15006KT CAVOK"
    },
    {
      "icao": "EDJA",
      "alert": "OK",
      "vis_m": 9999,
      "fzfg": false,
      "metar_trigger": false,
      "taf_trigger": false,
      "metar": "METAR EDJA 030750Z VRB02KT 9999 4000NE NSC M01/M01 Q1026",
      "taf": ""
    },
    {
      "icao": "EDLW",
      "alert": "OK",
      "vis_m": 9999,
      "fzfg": false,
      "metar_trigger": false,
      "taf_trigger": false,
      "metar": "METAR EDLW 030750Z 16009KT CAVOK 09/04 Q1025",
      "taf": "TAF EDLW 030500Z 0306/0406 17008KT CAVOK"
    },
    {
      "icao": "EDNY",
      "alert": "OK",
      "vis_m": 500,
      "fzfg": true,
      "metar_trigger": false,
      "taf_trigger": false,
      "metar": "METAR EDNY 030750Z VRB02KT 0500 R24/0750U FG VV/// 03/03 Q1027",
      "taf": "TAF EDNY 030500Z 0306/0315 VRB03KT 0600 FZFG VV001"
    },
    {
      "icao": "EDSB",
      "alert": "OK",
      "vis_m": 9999,
      "fzfg": false,
      "metar_trigger": false,
      "taf_trigger": false,
      "metar": "METAR EDSB 030750Z 00000KT CAVOK 04/03 Q1027",
      "taf": "TAF EDSB 030500Z 0306/0406 VRB03KT CAVOK"
    },
    {
      "icao": "EETN",
      "alert": "OK",
      "vis_m": 9000,
      "fzfg": false,
      "metar_trigger": false,
      "taf_trigger": false,
      "metar": "METAR EETN 030750Z 20007KT 9000 OVC002 M00/M01 Q1022 NOSIG",
      "taf": "TAF EETN 030530Z 0306/0406 22010KT 9999 OVC002"
    },
    {
      "icao": "EFTU",
      "alert": "OK",
      "vis_m": 9999,
      "fzfg": false,
      "metar_trigger": false,
      "taf_trigger": false,
      "metar": "METAR EFTU 030750Z AUTO 18009KT 9999 OVC018 M01/M02 Q1018",
      "taf": "TAF EFTU 030536Z 0306/0406 18012G22KT 9999 FEW005 BKN020"
    },
    {
      "icao": "EGBB",
      "alert": "OK",
      "vis_m": 9999,
      "fzfg": false,
      "metar_trigger": false,
      "taf_trigger": false,
      "metar": "METAR EGBB 030750Z 35003KT 9999 BKN041 08/05 Q1026",
      "taf": ""
    },
    {
      "icao": "EGGP",
      "alert": "OK",
      "vis_m": 9999,
      "fzfg": false,
      "metar_trigger": false,
      "taf_trigger": false,
      "metar": "METAR EGGP 030750Z 36008KT CAVOK 05/02 Q1027",
      "taf": "TAF EGGP 030501Z 0306/0406 34005KT 9999 FEW030"
    },
    {
      "icao": "EGGW",
      "alert": "OK",
      "vis_m": 9999,
      "fzfg": false,
      "metar_trigger": false,
      "taf_trigger": false,
      "metar": "METAR EGGW 030750Z AUTO 03005KT 350V080 9999 BKN046 07/06 Q1025",
      "taf": "TAF EGGW 030455Z 0306/0406 VRB05KT 9999 BKN040"
    },
    {
      "icao": "EGKK",
      "alert": "OK",
      "vis_m": 9999,
      "fzfg": false,
      "metar_trigger": false,
      "taf_trigger": false,
      "metar": "METAR EGKK 030750Z VRB02KT CAVOK 07/06 Q1025",
      "taf": "TAF EGKK 030455Z 0306/0412 VRB02KT 9999 FEW030"
    },
    {
      "icao": "EGNM",
      "alert": "OK",
      "vis_m": 9999,
      "fzfg": false,
      "metar_trigger": false,
      "taf_trigger": false,
      "metar": "METAR EGNM 030750Z 35005KT CAVOK 05/M01 Q1026",
      "taf": "TAF EGNM 030524Z 0306/0406 30006KT 9999 SCT018"
    },
    {
      "icao": "EGPD",
      "alert": "OK",
      "vis_m": 9999,
      "fzfg": false,
      "metar_trigger": false,
      "taf_trigger": false,
      "metar": "METAR EGPD 030750Z COR AUTO 18005KT 150V220 9999 NCD 04/M02 Q1024 NOSIG",
      "taf": "TAF EGPD 030457Z 0306/0406 26009KT 9999 FEW040"
    },
    {
      "icao": "EGPF",
      "alert": "OK",
      "vis_m": 9999,
      "fzfg": false,
      "metar_trigger": false,
      "taf_trigger": false,
      "metar": "METAR EGPF 030750Z AUTO VRB02KT 9999 NCD 01/00 Q1027",
      "taf": "TAF EGPF 030503Z 0306/0406 24007KT 9999 FEW030"
    },
    {
      "icao": "EHBK",
      "alert": "OK",
      "vis_m": 9999,
      "fzfg": false,
      "metar_trigger": false,
      "taf_trigger": false,
      "metar": "METAR EHBK 030755Z AUTO 20004KT 9999 NCD 09/06 Q1025 NOSIG",
      "taf": "TAF EHBK 030508Z 0306/0412 20005KT CAVOK"
    },
    {
      "icao": "EHEH",
      "alert": "OK",
      "vis_m": 9999,
      "fzfg": false,
      "metar_trigger": false,
      "taf_trigger": false,
      "metar": "METAR EHEH 030755Z AUTO 16001KT 9999 NCD 07/06 Q1025 BLU NOSIG RMK TREND REMOTE BY EHWX",
      "taf": "TAF EHEH 030547Z 0306/0412 VRB02KT CAVOK"
    },
    {
      "icao": "EKBI",
      "alert": "OK",
      "vis_m": 9999,
      "fzfg": false,
      "metar_trigger": false,
      "taf_trigger": false,
      "metar": "METAR EKBI 030750Z AUTO 23006KT 190V270 9999 NCD 06/04 Q1022",
      "taf": "TAF EKBI 030527Z 0306/0406 20008KT CAVOK"
    },
    {
      "icao": "EKCH",
      "alert": "OK",
      "vis_m": 9999,
      "fzfg": false,
      "metar_trigger": false,
      "taf_trigger": false,
      "metar": "METAR EKCH 030750Z AUTO 20006KT 9999 FEW130/// 05/03 Q1023 NOSIG",
      "taf": "TAF EKCH 030527Z 0306/0406 18008KT CAVOK"
    },
    {
      "icao": "ENAL",
      "alert": "OK",
      "vis_m": 9999,
      "fzfg": false,
      "metar_trigger": false,
      "taf_trigger": false,
      "metar": "METAR ENAL 030750Z 23027G40KT 9999 -RA BKN026 04/01 Q1006",
      "taf": "TAF ENAL 030500Z 0306/0315 23022KT 9999 -SHRA FEW015TCU BKN030"
    },
    {
      "icao": "ENBR",
      "alert": "OK",
      "vis_m": 9999,
      "fzfg": false,
      "metar_trigger": false,
      "taf_trigger": false,
      "metar": "METAR ENBR 030750Z 24014KT 9999 VCSH FEW033TCU SCT047 05/M00 Q1014 TEMPO 25015G25KT SHRA BKN020CB RMK WIND 1200FT 26021KT",
      "taf": "TAF ENBR 030500Z 0306/0406 25012KT 9999 -SHRA FEW020TCU BKN030"
    },
    {
      "icao": "ENGM",
      "alert": "OK",
      "vis_m": 450,
      "fzfg": false,
      "metar_trigger": false,
      "taf_trigger": false,
      "metar": "METAR ENGM 030750Z 21014KT 0450 0300SE R19R/0650N R01R/0400N R19L/0550N R01L/0500N FG VV002 02/01 Q1010 TEMPO 0700 VV001",
      "taf": "TAF ENGM 030500Z 0306/0406 19010KT 1500 BR SCT002 BKN005"
    },
    {
      "icao": "ENHD",
      "alert": "OK",
      "vis_m": 9999,
      "fzfg": false,
      "metar_trigger": false,
      "taf_trigger": false,
      "metar": "METAR ENHD 030750Z 24017KT 9999 SCT012 BKN035 06/02 Q1017",
      "taf": ""
    },
    {
      "icao": "ENTC",
      "alert": "OK",
      "vis_m": 9999,
      "fzfg": false,
      "metar_trigger": false,
      "taf_trigger": false,
      "metar": "METAR ENTC 030750Z 19018KT 9999 -RA SCT021 BKN030 01/M01 Q0998 TEMPO 4000 -SNRA VV012 RMK WIND 2600FT 17029G40KT",
      "taf": ""
    },
    {
      "icao": "ENTO",
      "alert": "OK",
      "vis_m": 3500,
      "fzfg": false,
      "metar_trigger": false,
      "taf_trigger": false,
      "metar": "METAR ENTO 030750Z 21008KT 3500 BR OVC002 02/02 Q1013 BECMG 9999 SCT003",
      "taf": ""
    },
    {
      "icao": "ENVA",
      "alert": "OK",
      "vis_m": 9999,
      "fzfg": false,
      "metar_trigger": false,
      "taf_trigger": false,
      "metar": "METAR ENVA 030750Z 18015KT CAVOK 08/M00 Q1001 BECMG 25015KT RMK WIND 670FT 20020G33KT",
      "taf": "TAF ENVA 030500Z 0306/0406 12005KT 9999 SCT050"
    },
    {
      "icao": "ENZV",
      "alert": "OK",
      "vis_m": 9999,
      "fzfg": false,
      "metar_trigger": false,
      "taf_trigger": false,
      "metar": "METAR ENZV 030750Z 26009KT CAVOK 05/02 Q1018 NOSIG",
      "taf": "TAF ENZV 030500Z 0306/0406 27015KT 9999 FEW020 BKN040"
    },
    {
      "icao": "EPGD",
      "alert": "OK",
      "vis_m": 9999,
      "fzfg": false,
      "metar_trigger": false,
      "taf_trigger": false,
      "metar": "METAR EPGD 030730Z 28003KT 270V340 9999 BKN041 07/03 Q1025",
      "taf": "TAF EPGD 030530Z 0306/0406 23005KT 9999 BKN035"
    },
    {
      "icao": "EPKK",
      "alert": "OK",
      "vis_m": 9999,
      "fzfg": false,
      "metar_trigger": false,
      "taf_trigger": false,
      "metar": "METAR EPKK 030730Z VRB01KT CAVOK 03/00 Q1028",
      "taf": "TAF EPKK 030530Z 0306/0406 26002KT CAVOK"
    },
    {
      "icao": "EPKT",
      "alert": "OK",
      "vis_m": 9000,
      "fzfg": false,
      "metar_trigger": false,
      "taf_trigger": false,
      "metar": "METAR EPKT 030730Z VRB01KT 9000 NSC 04/M00 Q1027",
      "taf": "TAF EPKT 030530Z 0306/0406 VRB02KT CAVOK"
    },
    {
      "icao": "EPLB",
      "alert": "OK",
      "vis_m": 9999,
      "fzfg": false,
      "metar_trigger": false,
      "taf_trigger": false,
      "metar": "METAR EPLB 030730Z 31005KT 9999 -RA BKN039 05/02 Q1027",
      "taf": "TAF EPLB 030530Z 0306/0406 29005KT 9999 BKN045"
    },
    {
      "icao": "EPMO",
      "alert": "OK",
      "vis_m": 9999,
      "fzfg": false,
      "metar_trigger": false,
      "taf_trigger": false,
      "metar": "METAR EPMO 030730Z VRB02KT 9999 BKN041 04/02 Q1027",
      "taf": "TAF EPMO 030530Z 0306/0406 27004KT CAVOK"
    },
    {
      "icao": "EPPO",
      "alert": "OK",
      "vis_m": 9999,
      "fzfg": false,
      "metar_trigger": false,
      "taf_trigger": false,
      "metar": "METAR EPPO 030730Z VRB02KT CAVOK 06/M00 Q1027",
      "taf": "TAF EPPO 030530Z 0306/0406 15002KT 8000 NSC"
    },
    {
      "icao": "EPRA",
      "alert": "OK",
      "vis_m": 9999,
      "fzfg": false,
      "metar_trigger": false,
      "taf_trigger": false,
      "metar": "METAR EPRA 030730Z 31004KT 260V320 CAVOK 06/00 Q1027",
      "taf": "TAF EPRA 030530Z 0306/0315 26006KT CAVOK"
    },
    {
      "icao": "EPRZ",
      "alert": "OK",
      "vis_m": 9999,
      "fzfg": false,
      "metar_trigger": false,
      "taf_trigger": false,
      "metar": "METAR EPRZ 030730Z 24005KT CAVOK 03/01 Q1028",
      "taf": "TAF EPRZ 030530Z 0306/0406 26003KT CAVOK"
    },
    {
      "icao": "EPSC",
      "alert": "OK",
      "vis_m": 9999,
      "fzfg": false,
      "metar_trigger": false,
      "taf_trigger": false,
      "metar": "METAR EPSC 030730Z 14004KT CAVOK 04/00 Q1026",
      "taf": "TAF EPSC 030530Z 0306/0406 13004KT CAVOK"
    },
    {
      "icao": "EPSY",
      "alert": "OK",
      "vis_m": 6000,
      "fzfg": false,
      "metar_trigger": false,
      "taf_trigger": false,
      "metar": "METAR EPSY 030730Z 20003KT 6000 BKN011 05/04 Q1026",
      "taf": "TAF EPSY 030530Z 0306/0315 VRB02KT 6000 BKN040"
    },
    {
      "icao": "EPWA",
      "alert": "OK",
      "vis_m": 9999,
      "fzfg": false,
      "metar_trigger": false,
      "taf_trigger": false,
      "metar": "METAR EPWA 030730Z VRB02KT CAVOK 06/00 Q1027 NOSIG",
      "taf": "TAF EPWA 030530Z 0306/0406 27004KT CAVOK"
    },
    {
      "icao": "EPWR",
      "alert": "OK",
      "vis_m": 6000,
      "fzfg": false,
      "metar_trigger": false,
      "taf_trigger": false,
      "metar": "METAR EPWR 030730Z 13002KT 6000 NSC 02/01 Q1028",
      "taf": "TAF EPWR 030530Z 0306/0406 12003KT 6000 FEW007"
    },
    {
      "icao": "ESGG",
      "alert": "OK",
      "vis_m": 9999,
      "fzfg": false,
      "metar_trigger": false,
      "taf_trigger": false,
      "metar": "METAR ESGG 030750Z 20013KT 9999 OVC053 05/03 Q1018",
      "taf": "TAF ESGG 030530Z 0306/0406 20010KT CAVOK"
    },
    {
      "icao": "ESKN",
      "alert": "OK",
      "vis_m": 9999,
      "fzfg": false,
      "metar_trigger": false,
      "taf_trigger": false,
      "metar": "METAR ESKN 030750Z 18007KT 150V210 CAVOK 05/05 Q1017",
      "taf": "TAF ESKN 030530Z 0306/0406 15005KT CAVOK"
    },
    {
      "icao": "ESMS",
      "alert": "OK",
      "vis_m": 9999,
      "fzfg": false,
      "metar_trigger": false,
      "taf_trigger": false,
      "metar": "METAR ESMS 030750Z 20007KT CAVOK 06/03 Q1023",
      "taf": "TAF ESMS 030527Z 0306/0406 17007KT 4000 BR NSC"
    },
    {
      "icao": "ESSA",
      "alert": "OK",
      "vis_m": 9999,
      "fzfg": false,
      "metar_trigger": false,
      "taf_trigger": false,
      "metar": "METAR ESSA 030750Z 18011KT 9999 SCT008 04/03 Q1015 NOSIG",
      "taf": "TAF ESSA 030530Z 0306/0406 18010KT 9999 BKN003"
    },
    {
      "icao": "EYKA",
      "alert": "OK",
      "vis_m": 3600,
      "fzfg": false,
      "metar_trigger": false,
      "taf_trigger": false,
      "metar": "METAR EYKA 030750Z 23003KT 180V260 3600 BR OVC002 M02/M02 Q1027",
      "taf": ""
    },
    {
      "icao": "EYPA",
      "alert": "OK",
      "vis_m": 9999,
      "fzfg": false,
      "metar_trigger": false,
      "taf_trigger": false,
      "metar": "METAR EYPA 030750Z 17005KT 9999 OVC019 M01/M01 Q1025",
      "taf": "TAF EYPA 030515Z 0306/0406 VRB04KT 9000 BKN025"
    },
    {
      "icao": "EYVI",
      "alert": "OK",
      "vis_m": 9999,
      "fzfg": false,
      "metar_trigger": false,
      "taf_trigger": false,
      "metar": "METAR EYVI 030750Z 31005KT 9999 BKN004 M02/M03 Q1025 NOSIG",
      "taf": "TAF EYVI 030503Z 0306/0406 VRB04KT 9000 BKN005 OVC015"
    },
    {
      "icao": "GCFV",
      "alert": "OK",
      "vis_m": 9999,
      "fzfg": false,
      "metar_trigger": false,
      "taf_trigger": false,
      "metar": "METAR GCFV 030730Z 34007KT 9999 SCT035 14/07 Q1016",
      "taf": "TAF GCFV 030200Z 0303/0403 31013KT 9999 BKN040 TX19/0314Z TN13/0306Z"
    },
    {
      "icao": "GCLP",
      "alert": "OK",
      "vis_m": 9999,
      "fzfg": false,
      "metar_trigger": false,
      "taf_trigger": false,
      "metar": "METAR GCLP 030730Z 29005KT 270V340 9999 FEW035 13/07 Q1018 NOSIG",
      "taf": "TAF GCLP 030200Z 0303/0403 35022KT 9999 SCT040 TX20/0314Z TN14/0306Z"
    },
    {
      "icao": "GCTS",
      "alert": "OK",
      "vis_m": 9999,
      "fzfg": false,
      "metar_trigger": false,
      "taf_trigger": false,
      "metar": "METAR GCTS 030730Z 29009KT 9999 SCT030 15/07 Q1017 NOSIG",
      "taf": "TAF GCTS 030200Z 0303/0403 VRB06KT 9999 SCT030 TX20/0314Z TN12/0306Z"
    },
    {
      "icao": "GMAD",
      "alert": "OK",
      "vis_m": 8000,
      "fzfg": false,
      "metar_trigger": false,
      "taf_trigger": false,
      "metar": "METAR GMAD 030730Z 19008KT 8000 SCT013 SCT100 10/08 Q1011 NOSIG",
      "taf": ""
    },
    {
      "icao": "GMMN",
      "alert": "OK",
      "vis_m": 5000,
      "fzfg": false,
      "metar_trigger": false,
      "taf_trigger": false,
      "metar": "METAR GMMN 030730Z 22012KT 5000 RA SCT010 BKN016TCU 09/08 Q1008 BECMG 1000 SHRA",
      "taf": "TAF GMMN 030500Z 0306/0412 26008KT 8000 SCT006 BKN016TCU"
    },
    {
      "icao": "GMMX",
      "alert": "OK",
      "vis_m": 4000,
      "fzfg": false,
      "metar_trigger": false,
      "taf_trigger": false,
      "metar": "METAR GMMX 030730Z 18010KT 4000 RA SCT008 OVC020 07/06 Q1010 NOSIG",
      "taf": "TAF GMMX 030500Z 0306/0412 24008KT 8000 BKN020"
    },
    {
      "icao": "HEGN",
      "alert": "OK",
      "vis_m": null,
      "fzfg": false,
      "metar_trigger": false,
      "taf_trigger": false,
      "metar": "",
      "taf": "TAF HEGN 030500Z 0306/0412 32008G20KT CAVOK"
    },
    {
      "icao": "HEMA",
      "alert": "OK",
      "vis_m": null,
      "fzfg": false,
      "metar_trigger": false,
      "taf_trigger": false,
      "metar": "",
      "taf": "TAF HEMA 030500Z 0306/0412 33008G20KT CAVOK"
    },
    {
      "icao": "HESH",
      "alert": "OK",
      "vis_m": null,
      "fzfg": false,
      "metar_trigger": false,
      "taf_trigger": false,
      "metar": "",
      "taf": "TAF HESH 030500Z 0306/0412 35006G18KT CAVOK"
    },
    {
      "icao": "HESX",
      "alert": "OK",
      "vis_m": null,
      "fzfg": false,
      "metar_trigger": false,
      "taf_trigger": false,
      "metar": "",
      "taf": "TAF HESX 030500Z 0306/0412 02009KT 9999 FEW025"
    },
    {
      "icao": "LATI",
      "alert": "OK",
      "vis_m": 9999,
      "fzfg": false,
      "metar_trigger": false,
      "taf_trigger": false,
      "metar": "METAR LATI 030750Z VRB03KT CAVOK 11/07 Q1027 NOSIG",
      "taf": "TAF LATI 030500Z 0306/0406 VRB03KT CAVOK TX19/0312Z TN06/0405Z"
    },
    {
      "icao": "LBPD",
      "alert": "OK",
      "vis_m": 9999,
      "fzfg": false,
      "metar_trigger": false,
      "taf_trigger": false,
      "metar": "METAR LBPD 030800Z AUTO 05004KT 9999 FEW190/// 10/04 Q1025 NOSIG",
      "taf": "TAF LBPD 030500Z 0306/0406 VRB03KT CAVOK"
    },
    {
      "icao": "LBSF",
      "alert": "OK",
      "vis_m": 9999,
      "fzfg": false,
      "metar_trigger": false,
      "taf_trigger": false,
      "metar": "METAR LBSF 030800Z 00000KT CAVOK 05/01 Q1026 NOSIG",
      "taf": "TAF LBSF 030500Z 0306/0406 VRB03KT CAVOK"
    },
    {
      "icao": "LBWN",
      "alert": "OK",
      "vis_m": 9999,
      "fzfg": false,
      "metar_trigger": false,
      "taf_trigger": false,
      "metar": "METAR LBWN 030800Z 28005KT 240V310 9999 FEW009 06/04 Q1026 NOSIG",
      "taf": "TAF LBWN 030500Z 0306/0406 35010KT 9999 SCT045"
    },
    {
      "icao": "LCLK",
      "alert": "OK",
      "vis_m": 9999,
      "fzfg": false,
      "metar_trigger": false,
      "taf_trigger": false,
      "metar": "METAR LCLK 030800Z 04005KT CAVOK 18/05 Q1024 NOSIG",
      "taf": "TAF LCLK 030530Z 0306/0406 33007KT 9999 FEW030"
    },
    {
      "icao": "LCPH",
      "alert": "OK",
      "vis_m": 9999,
      "fzfg": false,
      "metar_trigger": false,
      "taf_trigger": false,
      "metar": "METAR LCPH 030800Z 24004KT 170V320 9999 FEW020 18/07 Q1024 NOSIG",
      "taf": "TAF LCPH 030530Z 0306/0406 02008KT 9999 FEW030"
    },
    {
      "icao": "LEAL",
      "alert": "OK",
      "vis_m": 9999,
      "fzfg": false,
      "metar_trigger": false,
      "taf_trigger": false,
      "metar": "METAR LEAL 030730Z 03009KT 010V070 CAVOK 16/09 Q1014 NOSIG",
      "taf": "TAF LEAL 030500Z 0306/0406 05007KT 9999 FEW020 TX21/0312Z TN13/0307Z"
    },
    {
      "icao": "LEBB",
      "alert": "OK",
      "vis_m": 9999,
      "fzfg": false,
      "metar_trigger": false,
      "taf_trigger": false,
      "metar": "METAR LEBB 030730Z 12005KT 080V150 CAVOK 14/08 Q1019 NOSIG",
      "taf": "TAF LEBB 030500Z 0306/0406 14009KT CAVOK TX21/0315Z TN09/0406Z"
    },
    {
      "icao": "LEBL",
      "alert": "OK",
      "vis_m": 9999,
      "fzfg": false,
      "metar_trigger": false,
      "taf_trigger": false,
      "metar": "METAR LEBL 030730Z 03009KT 9999 SCT017 BKN020 14/10 Q1020 NOSIG",
      "taf": ""
    },
    {
      "icao": "LECH",
      "alert": "OK",
      "vis_m": 9999,
      "fzfg": false,
      "metar_trigger": false,
      "taf_trigger": false,
      "metar": "METAR LECH 030730Z AUTO 03011KT 350V070 9999 OVC015 10/07 Q1019",
      "taf": ""
    },
    {
      "icao": "LEMD",
      "alert": "OK",
      "vis_m": 9999,
      "fzfg": false,
      "metar_trigger": false,
      "taf_trigger": false,
      "metar": "METAR LEMD 030730Z 34005KT 310V010 9999 SCT060 BKN070 10/06 Q1016 NOSIG",
      "taf": "TAF LEMD 030500Z 0306/0412 VRB03KT CAVOK TX18/0315Z TN07/0407Z"
    },
    {
      "icao": "LEMG",
      "alert": "OK",
      "vis_m": 7000,
      "fzfg": false,
      "metar_trigger": false,
      "taf_trigger": false,
      "metar": "METAR LEMG 030730Z 30007KT 7000 NSC 10/09 Q1010 NOSIG",
      "taf": "TAF LEMG 030500Z 0306/0406 29010KT 9999 FEW020 TX19/0314Z TN13/0307Z"
    },
    {
      "icao": "LEVC",
      "alert": "OK",
      "vis_m": 9999,
      "fzfg": false,
      "metar_trigger": false,
      "taf_trigger": false,
      "metar": "METAR LEVC 030730Z 04007KT 350V080 9999 OVC024 14/08 Q1018 NOSIG",
      "taf": "TAF LEVC 030500Z 0306/0406 05010KT 9999 SCT015 TX16/0312Z TN12/0307Z"
    },
    {
      "icao": "LEXJ",
      "alert": "OK",
      "vis_m": 9999,
      "fzfg": false,
      "metar_trigger": false,
      "taf_trigger": false,
      "metar": "METAR LEXJ 030730Z 13004KT 090V230 CAVOK 14/04 Q1017",
      "taf": "TAF LEXJ 030200Z 0303/0403 VRB03KT CAVOK TX21/0315Z TN09/0304Z"
    },
    {
      "icao": "LEZG",
      "alert": "OK",
      "vis_m": 7000,
      "fzfg": false,
      "metar_trigger": false,
      "taf_trigger": false,
      "metar": "METAR LEZG 030730Z 00000KT 7000 OVC020 10/10 Q1021 NOSIG",
      "taf": "TAF LEZG 030500Z 0306/0406 VRB04KT 9999 FEW030 TX18/0315Z TN08/0306Z"
    },
    {
      "icao": "LEZL",
      "alert": "OK",
      "vis_m": 9999,
      "fzfg": false,
      "metar_trigger": false,
      "taf_trigger": false,
      "metar": "METAR LEZL 030730Z 06008KT CAVOK 13/11 Q1010 NOSIG",
      "taf": "TAF LEZL 030200Z 0303/0403 VRB03KT CAVOK TX23/0315Z TN10/0307Z"
    },
    {
      "icao": "LFBD",
      "alert": "OK",
      "vis_m": 9999,
      "fzfg": false,
      "metar_trigger": false,
      "taf_trigger": false,
      "metar": "METAR LFBD 030730Z AUTO 11006KT CAVOK 08/06 Q1020 NOSIG",
      "taf": "TAF LFBD 030500Z 0306/0412 10008KT CAVOK TX18/0314Z TN07/0306Z"
    },
    {
      "icao": "LFLL",
      "alert": "OK",
      "vis_m": 9999,
      "fzfg": false,
      "metar_trigger": false,
      "taf_trigger": false,
      "metar": "METAR LFLL 030730Z 16009KT CAVOK 09/06 Q1025 NOSIG",
      "taf": "TAF LFLL 030500Z 0306/0412 16007KT CAVOK"
    },
    {
      "icao": "LFLS",
      "alert": "OK",
      "vis_m": 9999,
      "fzfg": false,
      "metar_trigger": false,
      "taf_trigger": false,
      "metar": "METAR LFLS 030730Z AUTO 10008KT CAVOK 06/05 Q1025 NOSIG",
      "taf": "TAF LFLS 030200Z 0303/0403 09005KT CAVOK"
    },
    {
      "icao": "LFMN",
      "alert": "OK",
      "vis_m": 9999,
      "fzfg": false,
      "metar_trigger": false,
      "taf_trigger": false,
      "metar": "METAR LFMN 030730Z 35008KT CAVOK 11/04 Q1025 NOSIG",
      "taf": "TAF LFMN 030200Z 0303/0409 34010KT CAVOK"
    },
    {
      "icao": "LFOB",
      "alert": "OK",
      "vis_m": 8000,
      "fzfg": false,
      "metar_trigger": false,
      "taf_trigger": false,
      "metar": "METAR LFOB 030730Z AUTO VRB02KT 8000 NSC 04/04 Q1024 TEMPO 4000 BR",
      "taf": "TAF LFOB 030500Z 0306/0406 VRB02KT CAVOK"
    },
    {
      "icao": "LFPO",
      "alert": "OK",
      "vis_m": 9999,
      "fzfg": false,
      "metar_trigger": false,
      "taf_trigger": false,
      "metar": "METAR LFPO 030730Z 10002KT CAVOK 07/05 Q1024 NOSIG",
      "taf": "TAF LFPO 030500Z 0306/0412 VRB02KT CAVOK"
    },
    {
      "icao": "LFSB",
      "alert": "OK",
      "vis_m": 9999,
      "fzfg": false,
      "metar_trigger": false,
      "taf_trigger": false,
      "metar": "METAR LFSB 030730Z AUTO VRB02KT CAVOK 05/03 Q1026 NOSIG",
      "taf": "TAF LFSB 030500Z 0306/0406 18003KT CAVOK"
    },
    {
      "icao": "LGAV",
      "alert": "OK",
      "vis_m": 9999,
      "fzfg": false,
      "metar_trigger": false,
      "taf_trigger": false,
      "metar": "METAR LGAV 030750Z VRB01KT CAVOK 14/08 Q1026 NOSIG",
      "taf": "TAF LGAV 030500Z 0306/0406 VRB05KT 9999 FEW020"
    },
    {
      "icao": "LGTS",
      "alert": "OK",
      "vis_m": 8000,
      "fzfg": false,
      "metar_trigger": false,
      "taf_trigger": false,
      "metar": "METAR LGTS 030750Z VRB03KT 8000 FEW018 10/07 Q1026 NOSIG",
      "taf": "TAF LGTS 030500Z 0306/0406 VRB03KT 9999 FEW025"
    },
    {
      "icao": "LHBP",
      "alert": "OK",
      "vis_m": 9999,
      "fzfg": false,
      "metar_trigger": false,
      "taf_trigger": false,
      "metar": "METAR LHBP 030800Z 14003KT 110V170 CAVOK 09/02 Q1028 NOSIG",
      "taf": "TAF LHBP 030515Z 0306/0406 VRB03KT CAVOK"
    },
    {
      "icao": "LHDC",
      "alert": "OK",
      "vis_m": 9999,
      "fzfg": false,
      "metar_trigger": false,
      "taf_trigger": false,
      "metar": "METAR LHDC 030715Z AUTO 00000KT CAVOK 05/02 Q1028 NOSIG",
      "taf": "TAF LHDC 030515Z 0306/0315 VRB03KT 7000 NSC"
    },
    {
      "icao": "LIBD",
      "alert": "OK",
      "vis_m": 4500,
      "fzfg": false,
      "metar_trigger": false,
      "taf_trigger": false,
      "metar": "METAR LIBD 030750Z 29003KT 250V340 4500 BR BKN004 12/10 Q1027",
      "taf": "TAF LIBD 030500Z 0306/0406 VRB05KT 7000 SCT030"
    },
    {
      "icao": "LIBG",
      "alert": "OK",
      "vis_m": 9999,
      "fzfg": false,
      "metar_trigger": false,
      "taf_trigger": false,
      "metar": "SPECI LIBG 030652Z 11002KT CAVOK 10/09 Q1027",
      "taf": "TAF LIBG 030500Z 0307/0315 VRB06KT 9999 FEW020"
    },
    {
      "icao": "LIBP",
      "alert": "OK",
      "vis_m": 5000,
      "fzfg": false,
      "metar_trigger": false,
      "taf_trigger": false,
      "metar": "METAR LIBP 030750Z 21004KT 190V250 5000 BR NSC 11/09 Q1028",
      "taf": "TAF LIBP 030500Z 0306/0406 VRB05KT 7000 FEW040"
    },
    {
      "icao": "LIBR",
      "alert": "OK",
      "vis_m": 4000,
      "fzfg": false,
      "metar_trigger": false,
      "taf_trigger": false,
      "metar": "METAR LIBR 030750Z 32004KT 4000 BR SCT010 12/12 Q1027",
      "taf": "TAF LIBR 030500Z 0306/0406 VRB05KT 7000 SCT020"
    },
    {
      "icao": "LICA",
      "alert": "OK",
      "vis_m": 9999,
      "fzfg": false,
      "metar_trigger": false,
      "taf_trigger": false,
      "metar": "METAR LICA 030750Z 09004KT CAVOK 13/11 Q1027",
      "taf": "TAF LICA 030500Z 0306/0406 VRB05KT CAVOK"
    },
    {
      "icao": "LICC",
      "alert": "OK",
      "vis_m": 9999,
      "fzfg": false,
      "metar_trigger": false,
      "taf_trigger": false,
      "metar": "METAR LICC 030750Z 25008KT CAVOK 12/11 Q1027",
      "taf": "TAF LICC 030500Z 0306/0406 VRB05KT CAVOK"
    },
    {
      "icao": "LICJ",
      "alert": "OK",
      "vis_m": 9999,
      "fzfg": false,
      "metar_trigger": false,
      "taf_trigger": false,
      "metar": "METAR LICJ 030750Z 20003KT CAVOK 14/10 Q1025",
      "taf": "TAF LICJ 030500Z 0306/0406 VRB05KT 9999 FEW020"
    },
    {
      "icao": "LIMC",
      "alert": "OK",
      "vis_m": 9999,
      "fzfg": false,
      "metar_trigger": false,
      "taf_trigger": false,
      "metar": "METAR LIMC 030750Z 01004KT 9999 SCT030 SCT070 09/08 Q1028 NOSIG",
      "taf": "TAF LIMC 030500Z 0306/0412 VRB05KT 9000 SCT010 BKN030"
    },
    {
      "icao": "LIME",
      "alert": "OK",
      "vis_m": 9999,
      "fzfg": false,
      "metar_trigger": false,
      "taf_trigger": false,
      "metar": "METAR LIME 030750Z 01004KT 9999 FEW040 09/07 Q1027 NOSIG",
      "taf": "TAF LIME 030500Z 0306/0406 VRB05KT 8000 BKN030"
    },
    {
      "icao": "LIMF",
      "alert": "OK",
      "vis_m": 2000,
      "fzfg": false,
      "metar_trigger": false,
      "taf_trigger": false,
      "metar": "METAR LIMF 030750Z VRB01KT 2000 BR SCT010 BKN020 10/08 Q1028",
      "taf": "TAF LIMF 030500Z 0306/0406 VRB04KT 3000 BR BKN030"
    },
    {
      "icao": "LIMJ",
      "alert": "OK",
      "vis_m": 9999,
      "fzfg": false,
      "metar_trigger": false,
      "taf_trigger": false,
      "metar": "METAR LIMJ 030750Z 03010KT CAVOK 12/07 Q1027",
      "taf": "TAF LIMJ 030500Z 0306/0406 03008KT 9999 SCT040"
    },
    {
      "icao": "LIPE",
      "alert": "OK",
      "vis_m": 3000,
      "fzfg": false,
      "metar_trigger": false,
      "taf_trigger": false,
      "metar": "METAR LIPE 030750Z VRB01KT 3000 BR BKN006 10/09 Q1028",
      "taf": "TAF LIPE 030500Z 0306/0406 VRB04KT 1500 BR BKN004"
    },
    {
      "icao": "LIPH",
      "alert": "OK",
      "vis_m": 2500,
      "fzfg": false,
      "metar_trigger": false,
      "taf_trigger": false,
      "metar": "METAR LIPH 030750Z VRB02KT 2500 BR FEW005 SCT025 11/10 Q1028",
      "taf": "TAF LIPH 030500Z 0306/0406 VRB04KT 3000 BR BKN010"
    },
    {
      "icao": "LIPQ",
      "alert": "OK",
      "vis_m": 9999,
      "fzfg": false,
      "metar_trigger": false,
      "taf_trigger": false,
      "metar": "METAR LIPQ 030750Z 11003KT 9999 SCT020 BKN035 09/09 Q1028",
      "taf": "TAF LIPQ 030500Z 0306/0406 VRB05KT 6000 SCT030"
    },
    {
      "icao": "LIPR",
      "alert": "OK",
      "vis_m": 3000,
      "fzfg": false,
      "metar_trigger": false,
      "taf_trigger": false,
      "metar": "METAR LIPR 030750Z 28003KT 230V310 3000 BR BKN003 08/08 Q1028",
      "taf": "TAF LIPR 030500Z 0306/0406 VRB05KT 0500 FG OVC002"
    },
    {
      "icao": "LIPX",
      "alert": "OK",
      "vis_m": 2500,
      "fzfg": false,
      "metar_trigger": false,
      "taf_trigger": false,
      "metar": "METAR LIPX 030750Z 31002KT 2500 BR FEW005 SCT040 09/08 Q1028",
      "taf": "TAF LIPX 030500Z 0306/0406 VRB05KT 4000 BR BKN030"
    },
    {
      "icao": "LIPY",
      "alert": "OK",
      "vis_m": 1000,
      "fzfg": false,
      "metar_trigger": false,
      "taf_trigger": false,
      "metar": "METAR LIPY 030750Z VRB02KT 1000 R22/1400D BR OVC001 09/09 Q1028",
      "taf": "TAF LIPY 030500Z 0306/0406 VRB05KT 0500 FG OVC002"
    },
    {
      "icao": "LIPZ",
      "alert": "OK",
      "vis_m": 3000,
      "fzfg": false,
      "metar_trigger": false,
      "taf_trigger": false,
      "metar": "METAR LIPZ 030750Z VRB02KT 3000 BR BKN004 10/09 Q1028 NOSIG",
      "taf": "TAF LIPZ 030500Z 0306/0412 VRB04KT 3000 BR BKN010"
    },
    {
      "icao": "LIRF",
      "alert": "OK",
      "vis_m": 7000,
      "fzfg": false,
      "metar_trigger": false,
      "taf_trigger": false,
      "metar": "METAR LIRF 030750Z 07004KT 7000 NSC 12/11 Q1027 NOSIG",
      "taf": "TAF LIRF 030500Z 0306/0412 VRB05KT 9999 FEW030"
    },
    {
      "icao": "LIRN",
      "alert": "OK",
      "vis_m": 8000,
      "fzfg": false,
      "metar_trigger": false,
      "taf_trigger": false,
      "metar": "METAR LIRN 030750Z 01003KT 8000 NSC 11/08 Q1027 NOSIG",
      "taf": "TAF LIRN 030500Z 0306/0406 VRB04KT 8000 NSC"
    },
    {
      "icao": "LIRP",
      "alert": "OK",
      "vis_m": 9999,
      "fzfg": false,
      "metar_trigger": false,
      "taf_trigger": false,
      "metar": "METAR LIRP 030745Z VRB02KT 9999 FEW025 SCT035 11/11 Q1027 NOSIG",
      "taf": "TAF LIRP 030500Z 0306/0406 VRB03KT 9999 BKN030"
    },
    {
      "icao": "LIRZ",
      "alert": "OK",
      "vis_m": 7000,
      "fzfg": false,
      "metar_trigger": false,
      "taf_trigger": false,
      "metar": "METAR LIRZ 030750Z VRB01KT 7000 SCT040 10/09 Q1027",
      "taf": "TAF LIRZ 030500Z 0306/0406 VRB05KT 7000 BKN040"
    },
    {
      "icao": "LJLJ",
      "alert": "OK",
      "vis_m": 9999,
      "fzfg": false,
      "metar_trigger": false,
      "taf_trigger": false,
      "metar": "METAR LJLJ 030730Z VRB01KT 9999 FEW002 03/03 Q1027 NOSIG",
      "taf": "TAF LJLJ 030500Z 0306/0406 VRB02KT 9999 FEW030"
    },
    {
      "icao": "LKMT",
      "alert": "OK",
      "vis_m": 8000,
      "fzfg": false,
      "metar_trigger": false,
      "taf_trigger": false,
      "metar": "METAR LKMT 030730Z 24002KT 8000 NSC 01/00 Q1028 NOSIG",
      "taf": "TAF LKMT 030500Z 0306/0406 23003KT CAVOK"
    },
    {
      "icao": "LKPR",
      "alert": "OK",
      "vis_m": 250,
      "fzfg": true,
      "metar_trigger": false,
      "taf_trigger": false,
      "metar": "METAR LKPR 030730Z 15003KT 090V190 0250 R24/0325N R30/0300N FZFG VV002 M01/M01 Q1027 NOSIG",
      "taf": "TAF LKPR 030500Z 0306/0412 VRB02KT 0350 FZFG VV001"
    },
    {
      "icao": "LLBG",
      "alert": "OK",
      "vis_m": 9999,
      "fzfg": false,
      "metar_trigger": false,
      "taf_trigger": false,
      "metar": "METAR LLBG 030750Z VRB01KT CAVOK 17/03 Q1023 NOSIG",
      "taf": "TAF LLBG 030513Z 0306/0406 VRB04KT CAVOK TX21/0311Z TN07/0404Z"
    },
    {
      "icao": "LMML",
      "alert": "OK",
      "vis_m": 9999,
      "fzfg": false,
      "metar_trigger": false,
      "taf_trigger": false,
      "metar": "METAR LMML 030745Z COR 13011KT 9999 FEW022 15/12 Q1026 NOSIG",
      "taf": "TAF LMML 030500Z 0306/0406 14010KT 9999 FEW020"
    },
    {
      "icao": "LOWW",
      "alert": "OK",
      "vis_m": 9999,
      "fzfg": false,
      "metar_trigger": false,
      "taf_trigger": false,
      "metar": "METAR LOWW 030750Z 04004KT 9999 FEW009 BKN011 04/02 Q1028 BECMG SCT010",
      "taf": ""
    },
    {
      "icao": "LPFR",
      "alert": "OK",
      "vis_m": 9999,
      "fzfg": false,
      "metar_trigger": false,
      "taf_trigger": false,
      "metar": "METAR LPFR 030730Z 07010KT 9999 SCT020 SCT045 15/12 Q1008",
      "taf": "TAF LPFR 030500Z 0306/0406 09013KT 9999 SCT015 BKN030"
    },
    {
      "icao": "LPMA",
      "alert": "OK",
      "vis_m": 9999,
      "fzfg": false,
      "metar_trigger": false,
      "taf_trigger": false,
      "metar": "METAR LPMA 030730Z 35018KT 290V030 9999 SCT015 FEW018CB 14/06 Q1016",
      "taf": "TAF LPMA 030500Z 0306/0406 35017G27KT 9999 SCT015"
    },
    {
      "icao": "LPPR",
      "alert": "OK",
      "vis_m": 9999,
      "fzfg": false,
      "metar_trigger": false,
      "taf_trigger": false,
      "metar": "METAR LPPR 030730Z 07008KT 340V090 CAVOK 13/09 Q1014",
      "taf": "TAF LPPR 030500Z 0306/0406 06008KT 9999 SCT020"
    },
    {
      "icao": "LPPS",
      "alert": "OK",
      "vis_m": 9999,
      "fzfg": false,
      "metar_trigger": false,
      "taf_trigger": false,
      "metar": "METAR LPPS 030730Z 33021G31KT 9999 SCT015 13/08 Q1016",
      "taf": "TAF LPPS 030500Z 0306/0412 34020KT 9999 SCT015"
    },
    {
      "icao": "LPPT",
      "alert": "OK",
      "vis_m": 9999,
      "fzfg": false,
      "metar_trigger": false,
      "taf_trigger": false,
      "metar": "METAR LPPT 030730Z 05010KT 020V080 9999 BKN028 13/11 Q1010",
      "taf": "TAF LPPT 030500Z 0306/0412 06008KT 9999 BKN015"
    },
    {
      "icao": "LQBK",
      "alert": "OK",
      "vis_m": 9999,
      "fzfg": false,
      "metar_trigger": false,
      "taf_trigger": false,
      "metar": "METAR LQBK 030730Z VRB02KT CAVOK 08/04 Q1028 NOSIG",
      "taf": "TAF LQBK 030500Z 0306/0406 03005KT CAVOK TX16/0314Z TN04/0306Z"
    },
    {
      "icao": "LQSA",
      "alert": "OK",
      "vis_m": 9999,
      "fzfg": false,
      "metar_trigger": false,
      "taf_trigger": false,
      "metar": "METAR LQSA 030730Z VRB01KT CAVOK 05/04 Q1028 NOSIG",
      "taf": "TAF LQSA 030500Z 0306/0406 VRB02KT 9999 SCT055 TX16/0314Z TN01/0405Z"
    },
    {
      "icao": "LQTZ",
      "alert": "OK",
      "vis_m": 4000,
      "fzfg": false,
      "metar_trigger": false,
      "taf_trigger": false,
      "metar": "METAR LQTZ 030730Z 00000KT 4000 BR SCT040 BKN060 06/05 Q1028",
      "taf": "TAF LQTZ 030500Z 0306/0406 VRB02KT 9999 SCT050 TX15/0314Z TN03/0306Z"
    },
    {
      "icao": "LRBC",
      "alert": "OK",
      "vis_m": 9999,
      "fzfg": false,
      "metar_trigger": false,
      "taf_trigger": false,
      "metar": "METAR LRBC 030730Z 07003KT 030V120 CAVOK 08/05 Q1027",
      "taf": "TAF LRBC 030500Z 0306/0315 VRB04KT 3000 BR SCT040"
    },
    {
      "icao": "LRBS",
      "alert": "OK",
      "vis_m": 5000,
      "fzfg": false,
      "metar_trigger": false,
      "taf_trigger": false,
      "metar": "METAR LRBS 030730Z 25004KT 5000 BR NSC 02/02 Q1028 NOSIG",
      "taf": "TAF LRBS 030500Z 0306/0406 25004KT 5000 BR NSC"
    },
    {
      "icao": "LRBV",
      "alert": "OK",
      "vis_m": 8000,
      "fzfg": false,
      "metar_trigger": false,
      "taf_trigger": false,
      "metar": "METAR LRBV 030730Z VRB02KT 8000 BKN042 01/M01 Q1026",
      "taf": "TAF LRBV 030500Z 0306/0315 VRB04KT 9999 SCT045"
    },
    {
      "icao": "LRCL",
      "alert": "OK",
      "vis_m": 9999,
      "fzfg": false,
      "metar_trigger": false,
      "taf_trigger": false,
      "metar": "METAR LRCL 030730Z VRB01KT CAVOK 03/M00 Q1027",
      "taf": "TAF LRCL 030500Z 0306/0315 VRB04KT CAVOK"
    },
    {
      "icao": "LRCV",
      "alert": "OK",
      "vis_m": 5000,
      "fzfg": false,
      "metar_trigger": false,
      "taf_trigger": false,
      "metar": "METAR LRCV 030730Z 02004KT 360V060 5000 BR NSC 04/02 Q1028",
      "taf": "TAF LRCV 030500Z 0306/0315 VRB04KT 1500 BR NSC"
    },
    {
      "icao": "LRIA",
      "alert": "OK",
      "vis_m": 8000,
      "fzfg": false,
      "metar_trigger": false,
      "taf_trigger": false,
      "metar": "METAR LRIA 030730Z 22006KT 170V240 8000 NSC 04/02 Q1026",
      "taf": "TAF LRIA 030500Z 0306/0315 VRB04KT 3000 BR NSC"
    },
    {
      "icao": "LROP",
      "alert": "OK",
      "vis_m": 5000,
      "fzfg": false,
      "metar_trigger": false,
      "taf_trigger": false,
      "metar": "METAR LROP 030730Z 27005KT 5000 BR NSC 02/02 Q1028 NOSIG",
      "taf": "TAF LROP 030500Z 0306/0406 25004KT 3000 BR NSC"
    },
    {
      "icao": "LRSB",
      "alert": "OK",
      "vis_m": 9999,
      "fzfg": false,
      "metar_trigger": false,
      "taf_trigger": false,
      "metar": "METAR LRSB 030730Z VRB02KT CAVOK 05/00 Q1026",
      "taf": "TAF LRSB 030500Z 0306/0406 VRB04KT CAVOK"
    },
    {
      "icao": "LRSM",
      "alert": "OK",
      "vis_m": 9999,
      "fzfg": false,
      "metar_trigger": false,
      "taf_trigger": false,
      "metar": "METAR LRSM 030730Z 25004KT 200V270 CAVOK 03/01 Q1028",
      "taf": "TAF LRSM 030500Z 0306/0315 VRB04KT 5000 BR NSC"
    },
    {
      "icao": "LRSV",
      "alert": "OK",
      "vis_m": 9999,
      "fzfg": false,
      "metar_trigger": false,
      "taf_trigger": false,
      "metar": "METAR LRSV 030730Z 28007KT CAVOK 06/01 Q1025",
      "taf": "TAF LRSV 030500Z 0306/0315 28008KT CAVOK"
    },
    {
      "icao": "LRTM",
      "alert": "OK",
      "vis_m": 6000,
      "fzfg": false,
      "metar_trigger": false,
      "taf_trigger": false,
      "metar": "METAR LRTM 030730Z 08003KT 050V120 6000 FEW003 03/01 Q1027",
      "taf": "TAF LRTM 030500Z 0306/0315 VRB04KT 3000 BR SCT010"
    },
    {
      "icao": "LRTR",
      "alert": "OK",
      "vis_m": 9999,
      "fzfg": false,
      "metar_trigger": false,
      "taf_trigger": false,
      "metar": "METAR LRTR 030730Z 11004KT 070V130 CAVOK 04/03 Q1028",
      "taf": "TAF LRTR 030500Z 0306/0406 VRB04KT CAVOK"
    },
    {
      "icao": "LTAC",
      "alert": "OK",
      "vis_m": 9999,
      "fzfg": false,
      "metar_trigger": false,
      "taf_trigger": false,
      "metar": "METAR LTAC 030750Z VRB02KT 9999 FEW040 BKN180 04/M02 Q1024 NOSIG RMK RWY21C VRB02KT RWY03L VRB02KT RWY21R VRB02KT RWY03R VRB02KT RWY21L VRB02KT",
      "taf": "TAF LTAC 030440Z 0306/0406 VRB02KT CAVOK"
    },
    {
      "icao": "LTFM",
      "alert": "OK",
      "vis_m": 2400,
      "fzfg": false,
      "metar_trigger": false,
      "taf_trigger": false,
      "metar": "METAR LTFM 030750Z 33012KT 290V350 2400 0900NW R35R/P1500N R17L/P1500N R34L/P1500N R36/P1500N BCFG BKN002 06/05 Q1025 NOSIG RMK RWY17L 32011KT RWY34L 32011KT RWY16R 32010KT RWY36 33010KT RWY18 33009KT",
      "taf": ""
    },
    {
      "icao": "LUKK",
      "alert": "OK",
      "vis_m": 9999,
      "fzfg": false,
      "metar_trigger": false,
      "taf_trigger": false,
      "metar": "METAR LUKK 030730Z 01004KT 300V080 CAVOK 06/01 Q1025 NOSIG",
      "taf": "TAF LUKK 030517Z 0306/0406 32008KT CAVOK"
    },
    {
      "icao": "LWOH",
      "alert": "OK",
      "vis_m": 9999,
      "fzfg": false,
      "metar_trigger": false,
      "taf_trigger": false,
      "metar": "METAR LWOH 030750Z VRB01KT 9999 FEW035 SCT090 08/05 Q1027",
      "taf": "TAF LWOH 030535Z 0306/0406 VRB02KT 9999 FEW030"
    },
    {
      "icao": "LWSK",
      "alert": "OK",
      "vis_m": 9999,
      "fzfg": false,
      "metar_trigger": false,
      "taf_trigger": false,
      "metar": "METAR LWSK 030800Z 00000KT CAVOK 10/05 Q1027 NOSIG",
      "taf": "TAF LWSK 030535Z 0306/0406 VRB02KT CAVOK"
    },
    {
      "icao": "LYBE",
      "alert": "OK",
      "vis_m": 4500,
      "fzfg": false,
      "metar_trigger": false,
      "taf_trigger": false,
      "metar": "METAR LYBE 030730Z VRB02KT 4500 BR NSC 07/04 Q1028 BECMG 8000 NSW",
      "taf": "TAF LYBE 030500Z 0306/0406 VRB02KT 7000 NSC TX16/0313Z TN02/0405Z"
    },
    {
      "icao": "LYNI",
      "alert": "OK",
      "vis_m": 7000,
      "fzfg": false,
      "metar_trigger": false,
      "taf_trigger": false,
      "metar": "METAR LYNI 030730Z VRB01KT 7000 FEW083 07/04 Q1028 NOSIG",
      "taf": "TAF LYNI 030500Z 0306/0406 09003KT CAVOK TX16/0313Z TN02/0405Z"
    },
    {
      "icao": "LYPG",
      "alert": "OK",
      "vis_m": 9999,
      "fzfg": false,
      "metar_trigger": false,
      "taf_trigger": false,
      "metar": "METAR LYPG 030730Z VRB02KT CAVOK 11/07 Q1027 NOSIG",
      "taf": "TAF LYPG 030500Z 0306/0406 17005KT CAVOK TX18/0313Z TN06/0405Z"
    },
    {
      "icao": "LZIB",
      "alert": "OK",
      "vis_m": 9999,
      "fzfg": false,
      "metar_trigger": false,
      "taf_trigger": false,
      "metar": "METAR LZIB 030800Z 04006KT CAVOK 07/04 Q1028 NOSIG",
      "taf": "TAF LZIB 030515Z 0306/0406 05006KT CAVOK"
    },
    {
      "icao": "LZKZ",
      "alert": "OK",
      "vis_m": 9999,
      "fzfg": false,
      "metar_trigger": false,
      "taf_trigger": false,
      "metar": "METAR LZKZ 030800Z VRB02KT CAVOK 05/01 Q1028 NOSIG",
      "taf": "TAF LZKZ 030515Z 0306/0406 VRB02KT CAVOK"
    },
    {
      "icao": "LZTT",
      "alert": "OK",
      "vis_m": 9999,
      "fzfg": false,
      "metar_trigger": false,
      "taf_trigger": false,
      "metar": "METAR LZTT 030800Z VRB02KT CAVOK 03/01 Q1027 NOSIG",
      "taf": ""
    },
    {
      "icao": "OEJN",
      "alert": "OK",
      "vis_m": 9999,
      "fzfg": false,
      "metar_trigger": false,
      "taf_trigger": false,
      "metar": "METAR OEJN 030800Z 36014KT 9999 FEW040 25/07 Q1015 NOSIG",
      "taf": "TAF OEJN 030500Z 0306/0412 04007KT CAVOK"
    },
    {
      "icao": "OEMA",
      "alert": "OK",
      "vis_m": 9999,
      "fzfg": false,
      "metar_trigger": false,
      "taf_trigger": false,
      "metar": "METAR OEMA 030800Z 08007KT 9999 SCT035 19/M02 Q1018 NOSIG",
      "taf": "TAF OEMA 030500Z 0306/0412 30010KT 7000 NSC"
    },
    {
      "icao": "OJAI",
      "alert": "OK",
      "vis_m": 5000,
      "fzfg": false,
      "metar_trigger": false,
      "taf_trigger": false,
      "metar": "METAR OJAI 030700Z 09007KT 5000 HZ NSC 10/M06 Q1024 NOSIG",
      "taf": "TAF OJAI 030500Z 0306/0412 09012KT 5000 HZ NSC"
    },
    {
      "icao": "OMAA",
      "alert": "OK",
      "vis_m": 9999,
      "fzfg": false,
      "metar_trigger": false,
      "taf_trigger": false,
      "metar": "METAR OMAA 030800Z 17007KT 130V210 CAVOK 31/12 Q1012 NOSIG",
      "taf": "TAF OMAA 030500Z 0306/0412 22007KT 8000 NSC"
    },
    {
      "icao": "OMDB",
      "alert": "OK",
      "vis_m": 9999,
      "fzfg": false,
      "metar_trigger": false,
      "taf_trigger": false,
      "metar": "METAR OMDB 030800Z 29006KT 250V320 CAVOK 33/08 Q1012 NOSIG",
      "taf": "TAF OMDB 030500Z 0306/0412 19008KT 8000 NSC"
    },
    {
      "icao": "UAAA",
      "alert": "OK",
      "vis_m": 3600,
      "fzfg": false,
      "metar_trigger": false,
      "taf_trigger": false,
      "metar": "METAR UAAA 030730Z 08002MPS 030V130 3600 BR BKN005 OVC028 02/01 Q1023 NOSIG RMK QBB170",
      "taf": "TAF UAAA 030505Z 0306/0406 04003G08MPS 6000 FEW006 BKN015CB OVC050 TX03/0310Z TNM03/0324Z"
    },
    {
      "icao": "UBBB",
      "alert": "OK",
      "vis_m": 9999,
      "fzfg": false,
      "metar_trigger": false,
      "taf_trigger": false,
      "metar": "METAR UBBB 030800Z VRB02KT CAVOK 10/02 Q1021 NOSIG",
      "taf": "TAF UBBB 030502Z 0306/0406 19006KT 9999 SCT013 SCT035 TX11/0310Z TN05/0401Z"
    },
    {
      "icao": "UDSG",
      "alert": "OK",
      "vis_m": 9000,
      "fzfg": false,
      "metar_trigger": false,
      "taf_trigger": false,
      "metar": "METAR UDSG 030730Z 20004KT 9000 NSC M07/M10 Q1022 NOSIG",
      "taf": "TAF UDSG 030458Z 0306/0406 VRB06KT 9999 FEW050"
    },
    {
      "icao": "UDYZ",
      "alert": "OK",
      "vis_m": 9999,
      "fzfg": false,
      "metar_trigger": false,
      "taf_trigger": false,
      "metar": "METAR UDYZ 030730Z 15003KT 110V210 9999 NSC 04/M04 Q1023 NOSIG",
      "taf": "TAF UDYZ 030500Z 0306/0406 16006KT 9999 FEW040"
    },
    {
      "icao": "UGKO",
      "alert": "OK",
      "vis_m": 9999,
      "fzfg": false,
      "metar_trigger": false,
      "taf_trigger": false,
      "metar": "METAR UGKO 030730Z 10006KT 080V140 CAVOK 09/04 Q1023 NOSIG",
      "taf": "TAF UGKO 030500Z 0306/0406 08007KT 9999 BKN050 TX12/0311Z TN04/0403Z"
    }
  ]
}