{
  "ts_utc": "2026-05-30T17:50:04Z",
  "threshold_m": 150,
  "source": "stations_override.txt (ICAO list) + aviationweather.gov (METAR/TAF raw)",
  "station_count": 159,
  "stations": [
    {
      "icao": "BIKF",
      "alert": "OK",
      "vis_m": 9999,
      "fzfg": false,
      "metar_trigger": false,
      "taf_trigger": false,
      "metar": "METAR BIKF 301730Z 03008KT 9999 -RA FEW028 OVC048 08/06 Q1006",
      "taf": "TAF BIKF 301656Z 3018/3118 04008KT 9999 -RA FEW018 BKN040 TX12/3112Z TN07/3100Z"
    },
    {
      "icao": "BKPR",
      "alert": "OK",
      "vis_m": 9999,
      "fzfg": false,
      "metar_trigger": false,
      "taf_trigger": false,
      "metar": "METAR BKPR 301730Z 31005KT CAVOK 22/07 Q1016 NOSIG",
      "taf": "TAF BKPR 301730Z 3018/3118 29008KT CAVOK"
    },
    {
      "icao": "EBCI",
      "alert": "OK",
      "vis_m": 9999,
      "fzfg": false,
      "metar_trigger": false,
      "taf_trigger": false,
      "metar": "METAR EBCI 301720Z 12010KT 090V170 9999 FEW040CB 20/16 Q1018 RETS TEMPO 15015G27KT 2500 TSRA",
      "taf": "TAF EBCI 301700Z 3018/3124 VRB04KT 9999 FEW040CB"
    },
    {
      "icao": "EDDB",
      "alert": "OK",
      "vis_m": 9999,
      "fzfg": false,
      "metar_trigger": false,
      "taf_trigger": false,
      "metar": "METAR EDDB 301720Z AUTO 30010KT 9999 FEW040 21/12 Q1016 NOSIG",
      "taf": "TAF EDDB 301700Z 3018/3118 30012KT CAVOK"
    },
    {
      "icao": "EDDH",
      "alert": "OK",
      "vis_m": 9999,
      "fzfg": false,
      "metar_trigger": false,
      "taf_trigger": false,
      "metar": "METAR EDDH 301720Z AUTO 29012KT CAVOK 19/11 Q1018 NOSIG",
      "taf": "TAF EDDH 301700Z 3018/3124 30011KT CAVOK"
    },
    {
      "icao": "EDDK",
      "alert": "OK",
      "vis_m": 9999,
      "fzfg": false,
      "metar_trigger": false,
      "taf_trigger": false,
      "metar": "METAR EDDK 301720Z AUTO 35005KT 320V040 CAVOK 26/17 Q1017 NOSIG",
      "taf": "TAF EDDK 301700Z 3018/3124 VRB03KT CAVOK"
    },
    {
      "icao": "EDDN",
      "alert": "OK",
      "vis_m": 9999,
      "fzfg": false,
      "metar_trigger": false,
      "taf_trigger": false,
      "metar": "METAR EDDN 301720Z AUTO 31009KT 260V340 CAVOK 26/13 Q1017 NOSIG",
      "taf": "TAF EDDN 301700Z 3018/3118 30010KT CAVOK"
    },
    {
      "icao": "EDDS",
      "alert": "OK",
      "vis_m": 9999,
      "fzfg": false,
      "metar_trigger": false,
      "taf_trigger": false,
      "metar": "METAR EDDS 301720Z AUTO 04006KT 010V070 CAVOK 27/13 Q1018 NOSIG",
      "taf": "TAF EDDS 301700Z 3018/3118 01006KT CAVOK"
    },
    {
      "icao": "EDFH",
      "alert": "OK",
      "vis_m": 9999,
      "fzfg": false,
      "metar_trigger": false,
      "taf_trigger": false,
      "metar": "METAR EDFH 301720Z 32003KT 290V350 CAVOK 21/16 Q1019",
      "taf": "TAF EDFH 301700Z 3018/3118 29005KT CAVOK"
    },
    {
      "icao": "EDJA",
      "alert": "OK",
      "vis_m": 9999,
      "fzfg": false,
      "metar_trigger": false,
      "taf_trigger": false,
      "metar": "METAR EDJA 301720Z 04008KT CAVOK 26/11 Q1020",
      "taf": "TAF EDJA 301700Z 3018/3103 04006KT CAVOK"
    },
    {
      "icao": "EDLW",
      "alert": "OK",
      "vis_m": 9999,
      "fzfg": false,
      "metar_trigger": false,
      "taf_trigger": false,
      "metar": "METAR EDLW 301720Z 03005KT 360V070 CAVOK 23/12 Q1018",
      "taf": "TAF EDLW 301700Z 3018/3118 VRB03KT CAVOK"
    },
    {
      "icao": "EDNY",
      "alert": "OK",
      "vis_m": 9999,
      "fzfg": false,
      "metar_trigger": false,
      "taf_trigger": false,
      "metar": "METAR EDNY 301720Z COR 27004KT 200V360 9999 FEW060 29/09 Q1018",
      "taf": "TAF EDNY 301700Z 3018/3103 05005KT CAVOK"
    },
    {
      "icao": "EDSB",
      "alert": "OK",
      "vis_m": 9999,
      "fzfg": false,
      "metar_trigger": false,
      "taf_trigger": false,
      "metar": "METAR EDSB 301720Z 05004KT 350V110 CAVOK 29/14 Q1017",
      "taf": "TAF EDSB 301700Z 3018/3118 02005KT CAVOK"
    },
    {
      "icao": "EETN",
      "alert": "OK",
      "vis_m": 9999,
      "fzfg": false,
      "metar_trigger": false,
      "taf_trigger": false,
      "metar": "METAR EETN 301720Z 30012KT CAVOK 17/04 Q1008 NOSIG",
      "taf": "TAF EETN 301730Z 3018/3118 30010KT CAVOK"
    },
    {
      "icao": "EFTU",
      "alert": "OK",
      "vis_m": 9999,
      "fzfg": false,
      "metar_trigger": false,
      "taf_trigger": false,
      "metar": "METAR EFTU 301720Z AUTO 29007KT CAVOK 19/03 Q1009",
      "taf": "TAF EFTU 301729Z 3018/3118 32006KT CAVOK"
    },
    {
      "icao": "EGBB",
      "alert": "OK",
      "vis_m": 9999,
      "fzfg": false,
      "metar_trigger": false,
      "taf_trigger": false,
      "metar": "METAR EGBB 301720Z 26006KT 230V310 CAVOK 23/06 Q1017",
      "taf": "TAF EGBB 301655Z 3018/3118 26006KT CAVOK"
    },
    {
      "icao": "EGGP",
      "alert": "OK",
      "vis_m": 9999,
      "fzfg": false,
      "metar_trigger": false,
      "taf_trigger": false,
      "metar": "METAR EGGP 301720Z VRB02KT CAVOK 20/09 Q1017",
      "taf": "TAF EGGP 301658Z 3018/3118 31010KT 9999 SCT040"
    },
    {
      "icao": "EGGW",
      "alert": "OK",
      "vis_m": 9999,
      "fzfg": false,
      "metar_trigger": false,
      "taf_trigger": false,
      "metar": "METAR EGGW 301720Z AUTO 27008KT 240V310 9999 NCD 25/09 Q1016",
      "taf": "TAF EGGW 301659Z 3018/3118 27006KT CAVOK"
    },
    {
      "icao": "EGKK",
      "alert": "OK",
      "vis_m": 9999,
      "fzfg": false,
      "metar_trigger": false,
      "taf_trigger": false,
      "metar": "METAR EGKK 301720Z 23009KT CAVOK 26/13 Q1016",
      "taf": "TAF EGKK 301701Z 3018/3124 26007KT CAVOK"
    },
    {
      "icao": "EGNM",
      "alert": "OK",
      "vis_m": 9999,
      "fzfg": false,
      "metar_trigger": false,
      "taf_trigger": false,
      "metar": "METAR EGNM 301720Z 29009KT CAVOK 19/09 Q1017",
      "taf": "TAF EGNM 301658Z 3018/3118 29010KT CAVOK"
    },
    {
      "icao": "EGPD",
      "alert": "OK",
      "vis_m": 9999,
      "fzfg": false,
      "metar_trigger": false,
      "taf_trigger": false,
      "metar": "METAR EGPD 301720Z COR AUTO 17010KT 9999 SCT047 16/11 Q1015 NOSIG",
      "taf": "TAF EGPD 301656Z 3018/3118 18009KT 9999 SCT030"
    },
    {
      "icao": "EGPF",
      "alert": "OK",
      "vis_m": 9999,
      "fzfg": false,
      "metar_trigger": false,
      "taf_trigger": false,
      "metar": "METAR EGPF 301720Z AUTO 26004KT 230V290 9999 SCT022/// BKN027/// OVC037/// //////TCU 17/13 Q1015",
      "taf": "TAF EGPF 301700Z 3018/3118 20005KT 9999 BKN025"
    },
    {
      "icao": "EHBK",
      "alert": "OK",
      "vis_m": 9999,
      "fzfg": false,
      "metar_trigger": false,
      "taf_trigger": false,
      "metar": "METAR EHBK 301725Z AUTO 14003KT 100V190 9999 NSC 26/17 Q1017 NOSIG",
      "taf": "TAF EHBK 301715Z 3018/3124 VRB02KT CAVOK"
    },
    {
      "icao": "EHEH",
      "alert": "OK",
      "vis_m": 9999,
      "fzfg": false,
      "metar_trigger": false,
      "taf_trigger": false,
      "metar": "METAR EHEH 301725Z AUTO 07005KT 9999 BKN130 OVC380 26/13 Q1016 BLU NOSIG RMK TREND REMOTE BY EHWX",
      "taf": "TAF EHEH 301114Z 3012/3118 VRB03KT CAVOK"
    },
    {
      "icao": "EKBI",
      "alert": "OK",
      "vis_m": 9999,
      "fzfg": false,
      "metar_trigger": false,
      "taf_trigger": false,
      "metar": "METAR EKBI 301720Z AUTO 28012KT 9999 OVC027/// 14/11 Q1017",
      "taf": "TAF EKBI 301727Z 3018/3118 29010KT 9999 BKN020"
    },
    {
      "icao": "EKCH",
      "alert": "OK",
      "vis_m": 9999,
      "fzfg": false,
      "metar_trigger": false,
      "taf_trigger": false,
      "metar": "METAR EKCH 301720Z AUTO 28012KT 9999 OVC034/// 17/10 Q1014 NOSIG",
      "taf": "TAF EKCH 301727Z 3018/3118 30013KT 9999 BKN040"
    },
    {
      "icao": "ENAL",
      "alert": "OK",
      "vis_m": 9999,
      "fzfg": false,
      "metar_trigger": false,
      "taf_trigger": false,
      "metar": "METAR ENAL 301720Z VRB01KT 9999 FEW004 SCT007 BKN014 11/10 Q1015",
      "taf": "TAF ENAL 301700Z 3018/3103 32005KT 9999 SCT004 BKN012"
    },
    {
      "icao": "ENBR",
      "alert": "OK",
      "vis_m": 9999,
      "fzfg": false,
      "metar_trigger": false,
      "taf_trigger": false,
      "metar": "METAR ENBR 301720Z 22003KT 180V260 9999 BKN015 12/09 Q1016 TEMPO BKN012 RMK WIND 1200FT 26005KT",
      "taf": "TAF ENBR 301700Z 3018/3118 22005KT 9999 SCT006 BKN016"
    },
    {
      "icao": "ENGM",
      "alert": "OK",
      "vis_m": 9999,
      "fzfg": false,
      "metar_trigger": false,
      "taf_trigger": false,
      "metar": "METAR ENGM 301720Z 01010KT CAVOK 19/08 Q1010 NOSIG",
      "taf": "TAF ENGM 301700Z 3018/3118 36010KT CAVOK"
    },
    {
      "icao": "ENHD",
      "alert": "OK",
      "vis_m": 9999,
      "fzfg": false,
      "metar_trigger": false,
      "taf_trigger": false,
      "metar": "METAR ENHD 301720Z 29004KT 9999 FEW004 BKN015 11/10 Q1016",
      "taf": ""
    },
    {
      "icao": "ENTC",
      "alert": "OK",
      "vis_m": 9999,
      "fzfg": false,
      "metar_trigger": false,
      "taf_trigger": false,
      "metar": "METAR ENTC 301720Z 01006KT 310V030 9999 FEW044 08/M01 Q1020 NOSIG RMK WIND 2600FT 33008KT",
      "taf": "TAF ENTC 301700Z 3018/3118 01009KT 9999 SCT040"
    },
    {
      "icao": "ENTO",
      "alert": "OK",
      "vis_m": 9999,
      "fzfg": false,
      "metar_trigger": false,
      "taf_trigger": false,
      "metar": "METAR ENTO 301720Z 18010KT CAVOK 20/09 Q1010 NOSIG",
      "taf": "TAF ENTO 301700Z 3018/3118 18010KT CAVOK"
    },
    {
      "icao": "ENVA",
      "alert": "OK",
      "vis_m": 9999,
      "fzfg": false,
      "metar_trigger": false,
      "taf_trigger": false,
      "metar": "METAR ENVA 301720Z 29007KT 9999 SCT027 BKN031 13/11 Q1015 RMK WIND 670FT 28011KT",
      "taf": "TAF ENVA 301700Z 3018/3118 27008KT 9999 SCT020 BKN025"
    },
    {
      "icao": "ENZV",
      "alert": "OK",
      "vis_m": 9999,
      "fzfg": false,
      "metar_trigger": false,
      "taf_trigger": false,
      "metar": "METAR ENZV 301720Z 30007KT 9999 SCT005 SCT006 BKN020 12/10 Q1016 TEMPO BKN006",
      "taf": "TAF ENZV 301700Z 3018/3118 30008KT 8000 SCT006 BKN018"
    },
    {
      "icao": "EPGD",
      "alert": "OK",
      "vis_m": 9999,
      "fzfg": false,
      "metar_trigger": false,
      "taf_trigger": false,
      "metar": "METAR EPGD 301730Z 29018KT 9999 SCT042 16/11 Q1012",
      "taf": "TAF EPGD 301730Z 3018/3118 31015KT 9999 SCT038"
    },
    {
      "icao": "EPKK",
      "alert": "OK",
      "vis_m": 9999,
      "fzfg": false,
      "metar_trigger": false,
      "taf_trigger": false,
      "metar": "METAR EPKK 301730Z 29005KT 9999 FEW041CB 18/14 Q1013",
      "taf": "TAF EPKK 301730Z 3018/3118 26007KT 9999 BKN040"
    },
    {
      "icao": "EPKT",
      "alert": "OK",
      "vis_m": 9999,
      "fzfg": false,
      "metar_trigger": false,
      "taf_trigger": false,
      "metar": "METAR EPKT 301730Z 25007KT CAVOK 17/14 Q1013",
      "taf": "TAF EPKT 301730Z 3018/3118 27007KT CAVOK"
    },
    {
      "icao": "EPLB",
      "alert": "OK",
      "vis_m": 9999,
      "fzfg": false,
      "metar_trigger": false,
      "taf_trigger": false,
      "metar": "METAR EPLB 301730Z 29010KT 9999 SCT030TCU 19/14 Q1009",
      "taf": "TAF EPLB 301730Z 3018/3118 30010KT CAVOK"
    },
    {
      "icao": "EPMO",
      "alert": "OK",
      "vis_m": 9999,
      "fzfg": false,
      "metar_trigger": false,
      "taf_trigger": false,
      "metar": "METAR EPMO 301730Z 33008KT 290V350 9999 FEW033 20/12 Q1010",
      "taf": "TAF EPMO 301730Z 3018/3118 29012KT 9999 SCT030"
    },
    {
      "icao": "EPPO",
      "alert": "OK",
      "vis_m": 9999,
      "fzfg": false,
      "metar_trigger": false,
      "taf_trigger": false,
      "metar": "METAR EPPO 301730Z 31010KT 9999 OVC049 19/11 Q1014",
      "taf": "TAF EPPO 301730Z 3018/3118 33010KT CAVOK"
    },
    {
      "icao": "EPRA",
      "alert": "OK",
      "vis_m": 9999,
      "fzfg": false,
      "metar_trigger": false,
      "taf_trigger": false,
      "metar": "METAR EPRA 301730Z 31008KT CAVOK 18/13 Q1011",
      "taf": "TAF EPRA 301730Z 3018/3103 30008KT 9999 SCT040"
    },
    {
      "icao": "EPRZ",
      "alert": "OK",
      "vis_m": 9999,
      "fzfg": false,
      "metar_trigger": false,
      "taf_trigger": false,
      "metar": "METAR EPRZ 301730Z 25008KT 9999 -SHRA SCT006 BKN011CB 16/15 Q1012",
      "taf": "TAF EPRZ 301730Z 3018/3118 27007KT 9999 BKN007"
    },
    {
      "icao": "EPSC",
      "alert": "OK",
      "vis_m": 9999,
      "fzfg": false,
      "metar_trigger": false,
      "taf_trigger": false,
      "metar": "METAR EPSC 301730Z 29008KT 9999 SCT032 OVC044 18/12 Q1015",
      "taf": "TAF EPSC 301730Z 3018/3118 30010KT 9999 BKN035"
    },
    {
      "icao": "EPSY",
      "alert": "OK",
      "vis_m": 9999,
      "fzfg": false,
      "metar_trigger": false,
      "taf_trigger": false,
      "metar": "METAR EPSY 301730Z 33007KT 300V020 CAVOK 17/08 Q1011",
      "taf": "TAF EPSY 301730Z 3018/3103 32010KT 9999 SCT040"
    },
    {
      "icao": "EPWA",
      "alert": "OK",
      "vis_m": 9999,
      "fzfg": false,
      "metar_trigger": false,
      "taf_trigger": false,
      "metar": "METAR EPWA 301730Z 30011KT CAVOK 20/12 Q1010 NOSIG",
      "taf": "TAF EPWA 301730Z 3018/3118 30012KT 9999 SCT030"
    },
    {
      "icao": "EPWR",
      "alert": "OK",
      "vis_m": 9999,
      "fzfg": false,
      "metar_trigger": false,
      "taf_trigger": false,
      "metar": "METAR EPWR 301730Z 33013KT CAVOK 23/09 Q1014",
      "taf": "TAF EPWR 301730Z 3018/3118 33015KT CAVOK"
    },
    {
      "icao": "ESGG",
      "alert": "OK",
      "vis_m": 9999,
      "fzfg": false,
      "metar_trigger": false,
      "taf_trigger": false,
      "metar": "METAR ESGG 301720Z 26010KT 9999 BKN015 15/11 Q1012",
      "taf": "TAF ESGG 301730Z 3018/3118 27011KT 9999 SCT015"
    },
    {
      "icao": "ESKN",
      "alert": "OK",
      "vis_m": 9999,
      "fzfg": false,
      "metar_trigger": false,
      "taf_trigger": false,
      "metar": "METAR ESKN 301720Z 14009KT CAVOK 15/09 Q1010",
      "taf": "TAF ESKN 301730Z 3018/3118 14010KT CAVOK"
    },
    {
      "icao": "ESMS",
      "alert": "OK",
      "vis_m": 9999,
      "fzfg": false,
      "metar_trigger": false,
      "taf_trigger": false,
      "metar": "METAR ESMS 301720Z 30015KT 9999 FEW031 17/11 Q1013",
      "taf": "TAF ESMS 301727Z 3018/3118 30010KT 9999 BKN040"
    },
    {
      "icao": "ESSA",
      "alert": "OK",
      "vis_m": 9999,
      "fzfg": false,
      "metar_trigger": false,
      "taf_trigger": false,
      "metar": "METAR ESSA 301720Z 21006KT CAVOK 17/05 Q1009 NOSIG",
      "taf": "TAF ESSA 301730Z 3018/3118 20010KT CAVOK"
    },
    {
      "icao": "EYKA",
      "alert": "OK",
      "vis_m": 9999,
      "fzfg": false,
      "metar_trigger": false,
      "taf_trigger": false,
      "metar": "METAR EYKA 301720Z 31003KT CAVOK 18/07 Q1009",
      "taf": "TAF EYKA 301703Z 3018/3118 VRB03KT 9000 NSC"
    },
    {
      "icao": "EYPA",
      "alert": "OK",
      "vis_m": 9999,
      "fzfg": false,
      "metar_trigger": false,
      "taf_trigger": false,
      "metar": "METAR EYPA 301720Z VRB01KT CAVOK 14/03 Q1010",
      "taf": "TAF EYPA 301703Z 3018/3118 VRB03KT 9000 NSC"
    },
    {
      "icao": "EYVI",
      "alert": "OK",
      "vis_m": 9999,
      "fzfg": false,
      "metar_trigger": false,
      "taf_trigger": false,
      "metar": "METAR EYVI 301720Z 31003KT CAVOK 16/06 Q1009 NOSIG",
      "taf": "TAF EYVI 301703Z 3018/3118 VRB03KT 9000 SCT045"
    },
    {
      "icao": "GCFV",
      "alert": "OK",
      "vis_m": 9999,
      "fzfg": false,
      "metar_trigger": false,
      "taf_trigger": false,
      "metar": "METAR GCFV 301730Z 36017KT 9999 SCT030 23/14 Q1019",
      "taf": "TAF GCFV 301400Z 3015/3115 03014KT 9999 SCT020 TX24/3114Z TN18/3106Z"
    },
    {
      "icao": "GCLP",
      "alert": "OK",
      "vis_m": 9999,
      "fzfg": false,
      "metar_trigger": false,
      "taf_trigger": false,
      "metar": "METAR GCLP 301730Z 01023KT 340V040 9999 BKN025 24/15 Q1020 NOSIG",
      "taf": "TAF GCLP 301400Z 3015/3115 36025KT 9999 BKN020 TX23/3114Z TN18/3106Z"
    },
    {
      "icao": "GCTS",
      "alert": "OK",
      "vis_m": 9999,
      "fzfg": false,
      "metar_trigger": false,
      "taf_trigger": false,
      "metar": "METAR GCTS 301730Z 08020KT 9999 FEW030 23/15 Q1020 WS R07 NOSIG",
      "taf": "TAF GCTS 301400Z 3015/3115 09022KT 9999 FEW030 TX25/3114Z TN17/3106Z"
    },
    {
      "icao": "GMAD",
      "alert": "OK",
      "vis_m": 8000,
      "fzfg": false,
      "metar_trigger": false,
      "taf_trigger": false,
      "metar": "METAR GMAD 301730Z 22012KT 8000 FEW016 24/16 Q1015 NOSIG",
      "taf": "TAF GMAD 301700Z 3018/3124 20010KT 8000 BKN016"
    },
    {
      "icao": "GMMN",
      "alert": "OK",
      "vis_m": 9999,
      "fzfg": false,
      "metar_trigger": false,
      "taf_trigger": false,
      "metar": "METAR GMMN 301730Z 33009KT 300V010 CAVOK 24/18 Q1017 NOSIG",
      "taf": "TAF GMMN 301700Z 3018/3124 34010KT CAVOK"
    },
    {
      "icao": "GMMX",
      "alert": "OK",
      "vis_m": 8000,
      "fzfg": false,
      "metar_trigger": false,
      "taf_trigger": false,
      "metar": "METAR GMMX 301730Z 26011KT 230V300 8000 SCT026 FEW030TCU 34/17 Q1016 NOSIG",
      "taf": "TAF GMMX 301700Z 3018/3124 06006KT 8000 SCT033 SCT100"
    },
    {
      "icao": "HEGN",
      "alert": "OK",
      "vis_m": 9999,
      "fzfg": false,
      "metar_trigger": false,
      "taf_trigger": false,
      "metar": "METAR HEGN 301700Z 33012KT CAVOK 31/10 Q1010 NOSIG",
      "taf": "TAF HEGN 301700Z 3018/3124 32015KT CAVOK"
    },
    {
      "icao": "HEMA",
      "alert": "OK",
      "vis_m": 9999,
      "fzfg": false,
      "metar_trigger": false,
      "taf_trigger": false,
      "metar": "METAR HEMA 301700Z 33014KT CAVOK 31/06 Q1010 NOSIG",
      "taf": "TAF HEMA 301700Z 3018/3124 33008G20KT CAVOK"
    },
    {
      "icao": "HESH",
      "alert": "OK",
      "vis_m": 9999,
      "fzfg": false,
      "metar_trigger": false,
      "taf_trigger": false,
      "metar": "METAR HESH 301700Z 35012KT CAVOK 32/11 Q1009 NOSIG",
      "taf": "TAF HESH 301700Z 3018/3124 34013KT CAVOK"
    },
    {
      "icao": "HESX",
      "alert": "OK",
      "vis_m": 9999,
      "fzfg": false,
      "metar_trigger": false,
      "taf_trigger": false,
      "metar": "METAR HESX 301700Z 36008KT CAVOK 28/11 Q1013 NOSIG",
      "taf": "TAF HESX 301700Z 3018/3124 35010KT CAVOK"
    },
    {
      "icao": "LATI",
      "alert": "OK",
      "vis_m": null,
      "fzfg": false,
      "metar_trigger": false,
      "taf_trigger": false,
      "metar": "",
      "taf": "TAF LATI 301700Z 3018/3118 33008KT CAVOK TX31/3111Z TN13/3104Z"
    },
    {
      "icao": "LBPD",
      "alert": "OK",
      "vis_m": 9999,
      "fzfg": false,
      "metar_trigger": false,
      "taf_trigger": false,
      "metar": "METAR LBPD 301730Z AUTO 28008KT 9999 NCD 23/09 Q1012 NOSIG",
      "taf": "TAF LBPD 301700Z 3018/3118 28015KT 9999 SCT080"
    },
    {
      "icao": "LBSF",
      "alert": "OK",
      "vis_m": 9999,
      "fzfg": false,
      "metar_trigger": false,
      "taf_trigger": false,
      "metar": "METAR LBSF 301730Z AUTO 29008KT 9999 NCD 21/06 Q1016 NOSIG",
      "taf": "TAF LBSF 301700Z 3018/3118 30012KT 9999 SCT070"
    },
    {
      "icao": "LBWN",
      "alert": "OK",
      "vis_m": 9999,
      "fzfg": false,
      "metar_trigger": false,
      "taf_trigger": false,
      "metar": "METAR LBWN 301730Z AUTO 12007KT 080V140 9999 NSC 16/13 Q1013 TEMPO 5000 TSRA FEW040CB",
      "taf": "TAF LBWN 301700Z 3018/3118 11010KT 9999 SCT045"
    },
    {
      "icao": "LCLK",
      "alert": "OK",
      "vis_m": 9999,
      "fzfg": false,
      "metar_trigger": false,
      "taf_trigger": false,
      "metar": "METAR LCLK 301730Z 22006KT 9999 FEW009 23/20 Q1012 NOSIG",
      "taf": "TAF LCLK 301730Z 3018/3118 20010KT 9999 FEW030"
    },
    {
      "icao": "LCPH",
      "alert": "OK",
      "vis_m": 9999,
      "fzfg": false,
      "metar_trigger": false,
      "taf_trigger": false,
      "metar": "METAR LCPH 301730Z AUTO 15003KT 090V160 9999 NCD 22/19 Q1012 NOSIG",
      "taf": "TAF LCPH 301730Z 3018/3118 05007KT 9999 FEW009"
    },
    {
      "icao": "LEAL",
      "alert": "OK",
      "vis_m": 9999,
      "fzfg": false,
      "metar_trigger": false,
      "taf_trigger": false,
      "metar": "METAR LEAL 301730Z 18004KT 100V250 CAVOK 28/10 Q1017 NOSIG",
      "taf": "TAF LEAL 301700Z 3018/3118 18010KT CAVOK TX30/3112Z TN19/3106Z"
    },
    {
      "icao": "LEBB",
      "alert": "OK",
      "vis_m": 9999,
      "fzfg": false,
      "metar_trigger": false,
      "taf_trigger": false,
      "metar": "METAR LEBB 301730Z 31010KT 290V350 9999 BKN019 BKN026 19/15 Q1024 NOSIG",
      "taf": "TAF LEBB 301700Z 3018/3118 32009KT 9000 BKN016 TX22/3113Z TN15/3105Z"
    },
    {
      "icao": "LEBL",
      "alert": "OK",
      "vis_m": 9999,
      "fzfg": false,
      "metar_trigger": false,
      "taf_trigger": false,
      "metar": "METAR LEBL 301730Z 11005KT 080V140 9999 FEW025 24/19 Q1019 NOSIG",
      "taf": "TAF LEBL 301700Z 3018/3118 12007KT 9999 FEW010 TX27/3112Z TN20/3105Z"
    },
    {
      "icao": "LECH",
      "alert": "OK",
      "vis_m": 9999,
      "fzfg": false,
      "metar_trigger": false,
      "taf_trigger": false,
      "metar": "METAR LECH 301730Z AUTO 11004KT 080V150 CAVOK 23/17 Q1020",
      "taf": "TAF LECH 301700Z 3018/3118 10010KT CAVOK TX32/3113Z TN16/3106Z"
    },
    {
      "icao": "LEMD",
      "alert": "OK",
      "vis_m": 9999,
      "fzfg": false,
      "metar_trigger": false,
      "taf_trigger": false,
      "metar": "METAR LEMD 301730Z 01006KT 310V070 9999 VCSH FEW100CB 33/07 Q1018 BECMG NSC",
      "taf": "TAF LEMD 301700Z 3018/3124 VRB04KT CAVOK TX36/3116Z TN17/3105Z"
    },
    {
      "icao": "LEMG",
      "alert": "OK",
      "vis_m": 9999,
      "fzfg": false,
      "metar_trigger": false,
      "taf_trigger": false,
      "metar": "METAR LEMG 301730Z 12009KT 9999 FEW050 25/14 Q1018 NOSIG",
      "taf": "TAF LEMG 301700Z 3018/3118 13010KT CAVOK TX29/3114Z TN17/3106Z"
    },
    {
      "icao": "LEVC",
      "alert": "OK",
      "vis_m": 9999,
      "fzfg": false,
      "metar_trigger": false,
      "taf_trigger": false,
      "metar": "METAR LEVC 301730Z 10006KT 030V130 CAVOK 24/20 Q1019 NOSIG",
      "taf": "TAF LEVC 301700Z 3018/3118 06012KT 9999 FEW015 TX31/3112Z TN19/3106Z"
    },
    {
      "icao": "LEXJ",
      "alert": "OK",
      "vis_m": 9999,
      "fzfg": false,
      "metar_trigger": false,
      "taf_trigger": false,
      "metar": "METAR LEXJ 301730Z 29010KT 260V320 9999 OVC020 18/14 Q1024",
      "taf": "TAF LEXJ 301400Z 3015/3115 29009KT 9999 BKN018 TX23/3114Z TN15/3105Z"
    },
    {
      "icao": "LEZG",
      "alert": "OK",
      "vis_m": 9999,
      "fzfg": false,
      "metar_trigger": false,
      "taf_trigger": false,
      "metar": "METAR LEZG 301730Z 28008KT 260V320 CAVOK 32/12 Q1017 NOSIG",
      "taf": "TAF LEZG 301700Z 3018/3118 32012KT CAVOK TX33/3115Z TN17/3106Z"
    },
    {
      "icao": "LEZL",
      "alert": "OK",
      "vis_m": 9999,
      "fzfg": false,
      "metar_trigger": false,
      "taf_trigger": false,
      "metar": "METAR LEZL 301730Z 22011KT 190V270 CAVOK 35/16 Q1016 NOSIG",
      "taf": "TAF LEZL 301400Z 3015/3115 23010KT CAVOK TX39/3015Z TN19/3106Z"
    },
    {
      "icao": "LFBD",
      "alert": "OK",
      "vis_m": 9999,
      "fzfg": false,
      "metar_trigger": false,
      "taf_trigger": false,
      "metar": "METAR LFBD 301730Z AUTO 25008KT 9999 OVC015 20/17 Q1021 BECMG BKN010",
      "taf": "TAF LFBD 301700Z 3018/3124 25010KT 9999 BKN012 TX27/3113Z TN16/3124Z"
    },
    {
      "icao": "LFLL",
      "alert": "OK",
      "vis_m": 9999,
      "fzfg": false,
      "metar_trigger": false,
      "taf_trigger": false,
      "metar": "METAR LFLL 301724Z 01005KT CAVOK 30/11 Q1017 NOSIG",
      "taf": "TAF LFLL 301700Z 3018/3124 VRB05KT CAVOK"
    },
    {
      "icao": "LFLS",
      "alert": "OK",
      "vis_m": 9999,
      "fzfg": false,
      "metar_trigger": false,
      "taf_trigger": false,
      "metar": "METAR LFLS 301730Z AUTO VRB02KT CAVOK 29/13 Q1018 NOSIG",
      "taf": "TAF LFLS 301400Z 3015/3115 VRB03KT CAVOK"
    },
    {
      "icao": "LFMN",
      "alert": "OK",
      "vis_m": 9999,
      "fzfg": false,
      "metar_trigger": false,
      "taf_trigger": false,
      "metar": "METAR LFMN 301730Z 20009KT CAVOK 24/21 Q1017 NOSIG",
      "taf": "TAF LFMN 301400Z 3015/3121 VRB04KT CAVOK"
    },
    {
      "icao": "LFOB",
      "alert": "OK",
      "vis_m": 9999,
      "fzfg": false,
      "metar_trigger": false,
      "taf_trigger": false,
      "metar": "METAR LFOB 301730Z AUTO 27004KT CAVOK 30/19 Q1016 TEMPO VRB15G25KT 3500 TSRAGS SCT070CB",
      "taf": "TAF LFOB 301700Z 3018/3118 28010KT CAVOK"
    },
    {
      "icao": "LFPO",
      "alert": "OK",
      "vis_m": 9999,
      "fzfg": false,
      "metar_trigger": false,
      "taf_trigger": false,
      "metar": "METAR LFPO 301730Z AUTO 24008KT CAVOK 31/15 Q1016 TEMPO 4000 -TSRAGS SCT080CB",
      "taf": "TAF LFPO 301700Z 3018/3124 VRB05KT CAVOK"
    },
    {
      "icao": "LFSB",
      "alert": "OK",
      "vis_m": 9999,
      "fzfg": false,
      "metar_trigger": false,
      "taf_trigger": false,
      "metar": "METAR LFSB 301730Z AUTO 01003KT CAVOK 30/11 Q1017 NOSIG",
      "taf": "TAF LFSB 301700Z 3018/3118 36005KT CAVOK"
    },
    {
      "icao": "LGAV",
      "alert": "OK",
      "vis_m": 9999,
      "fzfg": false,
      "metar_trigger": false,
      "taf_trigger": false,
      "metar": "METAR LGAV 301720Z 22010KT 9999 FEW025 22/10 Q1015 NOSIG",
      "taf": "TAF LGAV 301700Z 3018/3118 24008KT 9999 FEW025"
    },
    {
      "icao": "LGTS",
      "alert": "OK",
      "vis_m": 9999,
      "fzfg": false,
      "metar_trigger": false,
      "taf_trigger": false,
      "metar": "METAR LGTS 301720Z 17005KT 9999 FEW030 23/14 Q1013 NOSIG",
      "taf": "TAF LGTS 301700Z 3018/3118 VRB03KT 9999 FEW025"
    },
    {
      "icao": "LHBP",
      "alert": "OK",
      "vis_m": 9999,
      "fzfg": false,
      "metar_trigger": false,
      "taf_trigger": false,
      "metar": "METAR LHBP 301730Z 29004KT 260V330 CAVOK 25/11 Q1014 NOSIG",
      "taf": "TAF LHBP 301715Z 3018/3118 33008KT CAVOK"
    },
    {
      "icao": "LHDC",
      "alert": "OK",
      "vis_m": 9999,
      "fzfg": false,
      "metar_trigger": false,
      "taf_trigger": false,
      "metar": "METAR LHDC 301715Z AUTO 36004KT 320V030 CAVOK 21/10 Q1013 NOSIG",
      "taf": "TAF LHDC 301715Z 3018/3103 31009KT CAVOK"
    },
    {
      "icao": "LIBD",
      "alert": "OK",
      "vis_m": 9999,
      "fzfg": false,
      "metar_trigger": false,
      "taf_trigger": false,
      "metar": "METAR LIBD 301720Z 35003KT 300V050 CAVOK 22/15 Q1017",
      "taf": "TAF LIBD 301700Z 3018/3118 VRB05KT CAVOK"
    },
    {
      "icao": "LIBG",
      "alert": "OK",
      "vis_m": 9999,
      "fzfg": false,
      "metar_trigger": false,
      "taf_trigger": false,
      "metar": "METAR LIBG 301720Z AUTO 28005KT 9999 NCD 27/08 Q1016",
      "taf": "TAF LIBG 301700Z 3018/3118 VRB05KT CAVOK"
    },
    {
      "icao": "LIBP",
      "alert": "OK",
      "vis_m": 9999,
      "fzfg": false,
      "metar_trigger": false,
      "taf_trigger": false,
      "metar": "METAR LIBP 301720Z AUTO 05004KT 9999 NCD 25/14 Q1017",
      "taf": "TAF LIBP 301700Z 3018/3118 VRB05KT CAVOK"
    },
    {
      "icao": "LIBR",
      "alert": "OK",
      "vis_m": 9999,
      "fzfg": false,
      "metar_trigger": false,
      "taf_trigger": false,
      "metar": "METAR LIBR 301720Z 33009KT CAVOK 21/18 Q1016",
      "taf": "TAF LIBR 301700Z 3018/3118 VRB05KT CAVOK"
    },
    {
      "icao": "LICA",
      "alert": "OK",
      "vis_m": 9999,
      "fzfg": false,
      "metar_trigger": false,
      "taf_trigger": false,
      "metar": "METAR LICA 301720Z AUTO 23006KT 9999 NCD 24/19 Q1017",
      "taf": "TAF LICA 301700Z 3018/3118 VRB05KT 9999 FEW015"
    },
    {
      "icao": "LICC",
      "alert": "OK",
      "vis_m": 9999,
      "fzfg": false,
      "metar_trigger": false,
      "taf_trigger": false,
      "metar": "METAR LICC 301720Z 07005KT 9999 FEW070 23/14 Q1016",
      "taf": "TAF LICC 301700Z 3018/3118 VRB05KT 9999 FEW060"
    },
    {
      "icao": "LICJ",
      "alert": "OK",
      "vis_m": 9999,
      "fzfg": false,
      "metar_trigger": false,
      "taf_trigger": false,
      "metar": "METAR LICJ 301720Z 04012KT CAVOK 24/20 Q1017",
      "taf": "TAF LICJ 301700Z 3018/3118 03010KT CAVOK"
    },
    {
      "icao": "LIMC",
      "alert": "OK",
      "vis_m": 9999,
      "fzfg": false,
      "metar_trigger": false,
      "taf_trigger": false,
      "metar": "METAR LIMC 301720Z 25005KT 220V300 CAVOK 29/14 Q1016 NOSIG",
      "taf": "TAF LIMC 301700Z 3018/3124 VRB06KT CAVOK"
    },
    {
      "icao": "LIME",
      "alert": "OK",
      "vis_m": 9999,
      "fzfg": false,
      "metar_trigger": false,
      "taf_trigger": false,
      "metar": "METAR LIME 301720Z 19005KT 150V230 CAVOK 28/15 Q1016 NOSIG",
      "taf": "TAF LIME 301700Z 3018/3118 VRB05KT CAVOK"
    },
    {
      "icao": "LIMF",
      "alert": "OK",
      "vis_m": 9999,
      "fzfg": false,
      "metar_trigger": false,
      "taf_trigger": false,
      "metar": "METAR LIMF 301720Z 01004KT 360V090 CAVOK 28/17 Q1017",
      "taf": "TAF LIMF 301700Z 3018/3118 VRB06KT CAVOK"
    },
    {
      "icao": "LIMJ",
      "alert": "OK",
      "vis_m": 9999,
      "fzfg": false,
      "metar_trigger": false,
      "taf_trigger": false,
      "metar": "METAR LIMJ 301720Z VRB02KT CAVOK 25/18 Q1017",
      "taf": "TAF LIMJ 301700Z 3018/3118 VRB05KT CAVOK"
    },
    {
      "icao": "LIPE",
      "alert": "OK",
      "vis_m": 9999,
      "fzfg": false,
      "metar_trigger": false,
      "taf_trigger": false,
      "metar": "METAR LIPE 301720Z 08005KT CAVOK 29/16 Q1015",
      "taf": "TAF LIPE 301700Z 3018/3118 VRB05KT CAVOK"
    },
    {
      "icao": "LIPH",
      "alert": "OK",
      "vis_m": 9999,
      "fzfg": false,
      "metar_trigger": false,
      "taf_trigger": false,
      "metar": "METAR LIPH 301720Z 14005KT CAVOK 28/18 Q1015",
      "taf": "TAF LIPH 301700Z 3018/3118 VRB05KT CAVOK"
    },
    {
      "icao": "LIPQ",
      "alert": "OK",
      "vis_m": 9999,
      "fzfg": false,
      "metar_trigger": false,
      "taf_trigger": false,
      "metar": "METAR LIPQ 301720Z AUTO 19005KT 9999 NCD 26/17 Q1016",
      "taf": "TAF LIPQ 301700Z 3018/3118 VRB05KT CAVOK"
    },
    {
      "icao": "LIPR",
      "alert": "OK",
      "vis_m": 9999,
      "fzfg": false,
      "metar_trigger": false,
      "taf_trigger": false,
      "metar": "METAR LIPR 301720Z 11006KT CAVOK 25/17 Q1016",
      "taf": "TAF LIPR 301700Z 3018/3118 VRB05KT CAVOK"
    },
    {
      "icao": "LIPX",
      "alert": "OK",
      "vis_m": 9999,
      "fzfg": false,
      "metar_trigger": false,
      "taf_trigger": false,
      "metar": "METAR LIPX 301720Z 19003KT 140V230 CAVOK 30/17 Q1015",
      "taf": "TAF LIPX 301700Z 3018/3118 VRB04KT CAVOK"
    },
    {
      "icao": "LIPY",
      "alert": "OK",
      "vis_m": 9999,
      "fzfg": false,
      "metar_trigger": false,
      "taf_trigger": false,
      "metar": "METAR LIPY 301720Z AUTO VRB02KT 9999 NCD 25/15 Q1016",
      "taf": "TAF LIPY 301700Z 3018/3118 VRB05KT CAVOK"
    },
    {
      "icao": "LIPZ",
      "alert": "OK",
      "vis_m": 9999,
      "fzfg": false,
      "metar_trigger": false,
      "taf_trigger": false,
      "metar": "METAR LIPZ 301720Z 18005KT CAVOK 27/18 Q1015 NOSIG",
      "taf": "TAF LIPZ 301700Z 3018/3124 VRB05KT CAVOK"
    },
    {
      "icao": "LIRF",
      "alert": "OK",
      "vis_m": 9999,
      "fzfg": false,
      "metar_trigger": false,
      "taf_trigger": false,
      "metar": "METAR LIRF 301720Z 26005KT CAVOK 24/19 Q1017 NOSIG",
      "taf": "TAF LIRF 301700Z 3018/3124 27010KT CAVOK"
    },
    {
      "icao": "LIRN",
      "alert": "OK",
      "vis_m": 9999,
      "fzfg": false,
      "metar_trigger": false,
      "taf_trigger": false,
      "metar": "METAR LIRN 301720Z 27008KT CAVOK 28/08 Q1017 NOSIG",
      "taf": "TAF LIRN 301700Z 3018/3118 30010KT CAVOK"
    },
    {
      "icao": "LIRP",
      "alert": "OK",
      "vis_m": 9999,
      "fzfg": false,
      "metar_trigger": false,
      "taf_trigger": false,
      "metar": "METAR LIRP 301715Z 31007KT 9999 FEW030 25/16 Q1017 NOSIG",
      "taf": "TAF LIRP 301700Z 3018/3118 30008KT 9999 SCT030"
    },
    {
      "icao": "LIRZ",
      "alert": "OK",
      "vis_m": 9999,
      "fzfg": false,
      "metar_trigger": false,
      "taf_trigger": false,
      "metar": "METAR LIRZ 301720Z AUTO 04006KT 9999 NCD 29/12 Q1016",
      "taf": "TAF LIRZ 301700Z 3018/3118 VRB05KT CAVOK"
    },
    {
      "icao": "LJLJ",
      "alert": "OK",
      "vis_m": 9999,
      "fzfg": false,
      "metar_trigger": false,
      "taf_trigger": false,
      "metar": "METAR LJLJ 301730Z 22006KT 180V260 9999 FEW060 BKN200 25/14 Q1016 NOSIG",
      "taf": "TAF LJLJ 301700Z 3018/3118 30003KT 9999 FEW060"
    },
    {
      "icao": "LKMT",
      "alert": "OK",
      "vis_m": 9999,
      "fzfg": false,
      "metar_trigger": false,
      "taf_trigger": false,
      "metar": "METAR LKMT 301730Z 02008KT 9999 VCTS FEW043CB 19/14 Q1014 BECMG NSW",
      "taf": "TAF LKMT 301700Z 3018/3118 22006KT CAVOK"
    },
    {
      "icao": "LKPR",
      "alert": "OK",
      "vis_m": 9999,
      "fzfg": false,
      "metar_trigger": false,
      "taf_trigger": false,
      "metar": "METAR LKPR 301730Z 32015KT CAVOK 22/09 Q1016 NOSIG",
      "taf": "TAF LKPR 301700Z 3018/3124 27007KT CAVOK"
    },
    {
      "icao": "LLBG",
      "alert": "OK",
      "vis_m": 9999,
      "fzfg": false,
      "metar_trigger": false,
      "taf_trigger": false,
      "metar": "METAR LLBG 301720Z 33004KT 9999 FEW025 23/18 Q1013 NOSIG",
      "taf": "TAF LLBG 301708Z 3018/3118 VRB04KT 9999 FEW017 TX28/3111Z TN19/3103Z"
    },
    {
      "icao": "LMML",
      "alert": "OK",
      "vis_m": 9999,
      "fzfg": false,
      "metar_trigger": false,
      "taf_trigger": false,
      "metar": "METAR LMML 301745Z 16006KT CAVOK 24/11 Q1017 NOSIG",
      "taf": "TAF LMML 301700Z 3018/3118 VRB05KT CAVOK"
    },
    {
      "icao": "LOWW",
      "alert": "OK",
      "vis_m": 9999,
      "fzfg": false,
      "metar_trigger": false,
      "taf_trigger": false,
      "metar": "METAR LOWW 301720Z 28013KT CAVOK 25/13 Q1014 NOSIG",
      "taf": "TAF LOWW 301715Z 3018/3124 30010KT 9999 FEW050 TX26/3111Z TN16/3103Z"
    },
    {
      "icao": "LPFR",
      "alert": "OK",
      "vis_m": 9999,
      "fzfg": false,
      "metar_trigger": false,
      "taf_trigger": false,
      "metar": "METAR LPFR 301730Z 25008KT CAVOK 27/15 Q1018",
      "taf": "TAF LPFR 301700Z 3018/3118 25008KT CAVOK"
    },
    {
      "icao": "LPMA",
      "alert": "OK",
      "vis_m": 9999,
      "fzfg": false,
      "metar_trigger": false,
      "taf_trigger": false,
      "metar": "METAR LPMA 301730Z 01018G28KT 9999 FEW015 22/13 Q1024",
      "taf": "TAF LPMA 301700Z 3018/3118 01013KT 9999 SCT015"
    },
    {
      "icao": "LPPR",
      "alert": "OK",
      "vis_m": 9999,
      "fzfg": false,
      "metar_trigger": false,
      "taf_trigger": false,
      "metar": "METAR LPPR 301730Z 32009KT 290V350 9999 FEW018 19/15 Q1022",
      "taf": "TAF LPPR 301700Z 3018/3118 32013KT 9999 SCT015"
    },
    {
      "icao": "LPPS",
      "alert": "OK",
      "vis_m": 9999,
      "fzfg": false,
      "metar_trigger": false,
      "taf_trigger": false,
      "metar": "METAR LPPS 301730Z 01018KT 9999 SCT015 20/13 Q1025",
      "taf": "TAF LPPS 301700Z 3018/3124 01013KT 9999 SCT015"
    },
    {
      "icao": "LPPT",
      "alert": "OK",
      "vis_m": 9999,
      "fzfg": false,
      "metar_trigger": false,
      "taf_trigger": false,
      "metar": "METAR LPPT 301730Z 31015KT 9999 FEW020 22/15 Q1020",
      "taf": "TAF LPPT 301700Z 3018/3124 33013KT CAVOK"
    },
    {
      "icao": "LQBK",
      "alert": "OK",
      "vis_m": 9999,
      "fzfg": false,
      "metar_trigger": false,
      "taf_trigger": false,
      "metar": "METAR LQBK 301730Z VRB03KT CAVOK 23/13 Q1016 NOSIG",
      "taf": "TAF LQBK 301700Z 3018/3118 20005KT CAVOK TX28/3114Z TN14/3104Z"
    },
    {
      "icao": "LQSA",
      "alert": "OK",
      "vis_m": 9999,
      "fzfg": false,
      "metar_trigger": false,
      "taf_trigger": false,
      "metar": "METAR LQSA 301730Z 28004KT CAVOK 23/08 Q1017 NOSIG",
      "taf": "TAF LQSA 301700Z 3018/3118 VRB02KT CAVOK TX26/3113Z TN12/3104Z"
    },
    {
      "icao": "LQTZ",
      "alert": "OK",
      "vis_m": 9999,
      "fzfg": false,
      "metar_trigger": false,
      "taf_trigger": false,
      "metar": "METAR LQTZ 301730Z 28003KT CAVOK 22/13 Q1016",
      "taf": "TAF LQTZ 301700Z 3018/3118 27006KT CAVOK TX27/3114Z TN10/3103Z"
    },
    {
      "icao": "LRBC",
      "alert": "OK",
      "vis_m": 9999,
      "fzfg": false,
      "metar_trigger": false,
      "taf_trigger": false,
      "metar": "METAR LRBC 301730Z 17003KT CAVOK 18/09 Q1010",
      "taf": "TAF LRBC 301700Z 3018/3103 VRB04KT CAVOK"
    },
    {
      "icao": "LRBS",
      "alert": "OK",
      "vis_m": 9999,
      "fzfg": false,
      "metar_trigger": false,
      "taf_trigger": false,
      "metar": "METAR LRBS 301730Z 20006KT 160V230 CAVOK 21/10 Q1011 NOSIG",
      "taf": "TAF LRBS 301700Z 3018/3118 VRB04KT CAVOK"
    },
    {
      "icao": "LRBV",
      "alert": "OK",
      "vis_m": 9999,
      "fzfg": false,
      "metar_trigger": false,
      "taf_trigger": false,
      "metar": "METAR LRBV 301730Z 32006KT 9999 FEW075 17/06 Q1012",
      "taf": "TAF LRBV 301700Z 3018/3103 29008KT CAVOK"
    },
    {
      "icao": "LRCL",
      "alert": "OK",
      "vis_m": 9999,
      "fzfg": false,
      "metar_trigger": false,
      "taf_trigger": false,
      "metar": "METAR LRCL 301730Z 30011KT CAVOK 21/04 Q1012",
      "taf": "TAF LRCL 301700Z 3018/3103 30010KT CAVOK"
    },
    {
      "icao": "LRCV",
      "alert": "OK",
      "vis_m": 9999,
      "fzfg": false,
      "metar_trigger": false,
      "taf_trigger": false,
      "metar": "METAR LRCV 301730Z 30007KT CAVOK 22/11 Q1012",
      "taf": "TAF LRCV 301700Z 3018/3103 30008KT CAVOK"
    },
    {
      "icao": "LRIA",
      "alert": "OK",
      "vis_m": 9999,
      "fzfg": false,
      "metar_trigger": false,
      "taf_trigger": false,
      "metar": "METAR LRIA 301730Z 15004KT 120V180 CAVOK 16/08 Q1010",
      "taf": "TAF LRIA 301700Z 3018/3103 VRB04KT CAVOK"
    },
    {
      "icao": "LROP",
      "alert": "OK",
      "vis_m": 9999,
      "fzfg": false,
      "metar_trigger": false,
      "taf_trigger": false,
      "metar": "METAR LROP 301730Z 18005KT 130V220 CAVOK 20/11 Q1011 NOSIG",
      "taf": "TAF LROP 301700Z 3018/3118 VRB04KT CAVOK"
    },
    {
      "icao": "LRSB",
      "alert": "OK",
      "vis_m": 9999,
      "fzfg": false,
      "metar_trigger": false,
      "taf_trigger": false,
      "metar": "METAR LRSB 301730Z 29012KT 9999 SCT075 20/08 Q1013",
      "taf": "TAF LRSB 301700Z 3018/3118 29010KT 9999 SCT050"
    },
    {
      "icao": "LRSM",
      "alert": "OK",
      "vis_m": 9999,
      "fzfg": false,
      "metar_trigger": false,
      "taf_trigger": false,
      "metar": "METAR LRSM 301730Z AUTO 32017KT 9999 SCT070/// BKN110/// 21/11 Q1012",
      "taf": "TAF LRSM 301400Z 3015/3024 33012KT CAVOK"
    },
    {
      "icao": "LRSV",
      "alert": "OK",
      "vis_m": 9999,
      "fzfg": false,
      "metar_trigger": false,
      "taf_trigger": false,
      "metar": "METAR LRSV 301730Z 30007KT CAVOK 18/05 Q1009",
      "taf": "TAF LRSV 301700Z 3018/3103 31008KT CAVOK"
    },
    {
      "icao": "LRTM",
      "alert": "OK",
      "vis_m": 9999,
      "fzfg": false,
      "metar_trigger": false,
      "taf_trigger": false,
      "metar": "METAR LRTM 301730Z 28007KT 250V320 CAVOK 22/10 Q1011",
      "taf": "TAF LRTM 301700Z 3018/3103 29008KT CAVOK"
    },
    {
      "icao": "LRTR",
      "alert": "OK",
      "vis_m": 9999,
      "fzfg": false,
      "metar_trigger": false,
      "taf_trigger": false,
      "metar": "METAR LRTR 301730Z 34005KT CAVOK 22/09 Q1013",
      "taf": "TAF LRTR 301700Z 3018/3118 VRB04KT CAVOK"
    },
    {
      "icao": "LTAC",
      "alert": "OK",
      "vis_m": 9999,
      "fzfg": false,
      "metar_trigger": false,
      "taf_trigger": false,
      "metar": "METAR LTAC 301720Z 24009KT 9999 SCT040 13/03 Q1014 NOSIG RMK RWY21C 24009KT RWY03L 24008KT RWY21R 23008KT RWY03R 24008KT RWY21L 23009KT",
      "taf": "TAF LTAC 301640Z 3018/3118 25007KT 9999 SCT040"
    },
    {
      "icao": "LTFM",
      "alert": "OK",
      "vis_m": 9999,
      "fzfg": false,
      "metar_trigger": false,
      "taf_trigger": false,
      "metar": "METAR LTFM 301720Z 22011KT 9999 FEW040 21/11 Q1012 NOSIG RMK RWY17L 22014KT RWY34L 21010KT RWY16R 22010KT RWY36 22010KT RWY18 23014KT",
      "taf": "TAF LTFM 301640Z 3018/3124 23012KT 9999 SCT040"
    },
    {
      "icao": "LUKK",
      "alert": "OK",
      "vis_m": 9999,
      "fzfg": false,
      "metar_trigger": false,
      "taf_trigger": false,
      "metar": "METAR LUKK 301730Z 34005KT CAVOK 15/08 Q1010 NOSIG",
      "taf": "TAF LUKK 301703Z 3018/3118 VRB05KT CAVOK"
    },
    {
      "icao": "LWOH",
      "alert": "OK",
      "vis_m": null,
      "fzfg": false,
      "metar_trigger": false,
      "taf_trigger": false,
      "metar": "",
      "taf": "TAF LWOH 301725Z 3018/3118 32006KT CAVOK"
    },
    {
      "icao": "LWSK",
      "alert": "OK",
      "vis_m": null,
      "fzfg": false,
      "metar_trigger": false,
      "taf_trigger": false,
      "metar": "",
      "taf": "TAF LWSK 301725Z 3018/3118 VRB03KT CAVOK"
    },
    {
      "icao": "LYBE",
      "alert": "OK",
      "vis_m": 9999,
      "fzfg": false,
      "metar_trigger": false,
      "taf_trigger": false,
      "metar": "METAR LYBE 301730Z 28009KT CAVOK 24/10 Q1014 NOSIG",
      "taf": "TAF LYBE 301700Z 3018/3118 26006KT CAVOK TX30/3113Z TN15/3104Z"
    },
    {
      "icao": "LYNI",
      "alert": "OK",
      "vis_m": 9999,
      "fzfg": false,
      "metar_trigger": false,
      "taf_trigger": false,
      "metar": "METAR LYNI 301730Z 00000KT CAVOK 23/12 Q1014 NOSIG",
      "taf": "TAF LYNI 301700Z 3018/3118 10005KT CAVOK TX28/3113Z TN12/3104Z"
    },
    {
      "icao": "LYPG",
      "alert": "OK",
      "vis_m": 9999,
      "fzfg": false,
      "metar_trigger": false,
      "taf_trigger": false,
      "metar": "METAR LYPG 301730Z 13004KT CAVOK 25/11 Q1015 NOSIG",
      "taf": "TAF LYPG 301700Z 3018/3118 36008KT CAVOK TX30/3114Z TN18/3103Z"
    },
    {
      "icao": "LZIB",
      "alert": "OK",
      "vis_m": 9999,
      "fzfg": false,
      "metar_trigger": false,
      "taf_trigger": false,
      "metar": "METAR LZIB 301730Z 27011KT 250V310 CAVOK 25/13 Q1013 NOSIG",
      "taf": "TAF LZIB 301715Z 3018/3118 31011KT CAVOK"
    },
    {
      "icao": "LZKZ",
      "alert": "OK",
      "vis_m": 9999,
      "fzfg": false,
      "metar_trigger": false,
      "taf_trigger": false,
      "metar": "METAR LZKZ 301730Z VRB01KT CAVOK 18/15 Q1013 NOSIG",
      "taf": "TAF LZKZ 301715Z 3018/3118 35010KT CAVOK"
    },
    {
      "icao": "LZTT",
      "alert": "OK",
      "vis_m": 9999,
      "fzfg": false,
      "metar_trigger": false,
      "taf_trigger": false,
      "metar": "METAR LZTT 301730Z 30007KT 9999 FEW010 SCT050 15/12 Q1014",
      "taf": "TAF LZTT 301715Z 3018/3118 28013KT 9999 BKN040"
    },
    {
      "icao": "OEJN",
      "alert": "OK",
      "vis_m": 9999,
      "fzfg": false,
      "metar_trigger": false,
      "taf_trigger": false,
      "metar": "METAR OEJN 301700Z 35013KT CAVOK 30/17 Q1007 NOSIG",
      "taf": "TAF OEJN 301700Z 3018/3124 36010KT CAVOK"
    },
    {
      "icao": "OEMA",
      "alert": "OK",
      "vis_m": 9999,
      "fzfg": false,
      "metar_trigger": false,
      "taf_trigger": false,
      "metar": "METAR OEMA 301700Z 23008KT CAVOK 38/01 Q1010 NOSIG",
      "taf": "TAF OEMA 301700Z 3018/3124 27006KT CAVOK"
    },
    {
      "icao": "OJAI",
      "alert": "OK",
      "vis_m": 5000,
      "fzfg": false,
      "metar_trigger": false,
      "taf_trigger": false,
      "metar": "METAR OJAI 301700Z 28011KT 5000 DU NSC 23/08 Q1016 NOSIG",
      "taf": "TAF OJAI 301700Z 3018/3124 29010KT 5000 HZ NSC"
    },
    {
      "icao": "OMAA",
      "alert": "OK",
      "vis_m": 9999,
      "fzfg": false,
      "metar_trigger": false,
      "taf_trigger": false,
      "metar": "METAR OMAA 301730Z 29004KT CAVOK 32/23 Q1003 NOSIG",
      "taf": "TAF OMAA 301700Z 3018/0100 24005KT 8000 NSC"
    },
    {
      "icao": "OMDB",
      "alert": "OK",
      "vis_m": 9999,
      "fzfg": false,
      "metar_trigger": false,
      "taf_trigger": false,
      "metar": "METAR OMDB 301730Z 20005KT 120V230 CAVOK 35/17 Q1003 NOSIG",
      "taf": "TAF OMDB 301700Z 3018/0100 20007KT CAVOK"
    },
    {
      "icao": "UAAA",
      "alert": "OK",
      "vis_m": 9999,
      "fzfg": false,
      "metar_trigger": false,
      "taf_trigger": false,
      "metar": "METAR UAAA 301730Z 12003MPS 9999 SCT100 BKN200 24/11 Q1010 NOSIG",
      "taf": "TAF UAAA 301702Z 3018/3118 17003MPS 9999 SCT050CB BKN100 TX31/3110Z TN17/3101Z"
    },
    {
      "icao": "UBBB",
      "alert": "OK",
      "vis_m": 9999,
      "fzfg": false,
      "metar_trigger": false,
      "taf_trigger": false,
      "metar": "METAR UBBB 301730Z 00000KT 9999 SCT008 SCT050CB 15/14 Q1013 NOSIG",
      "taf": "TAF UBBB 301705Z 3018/3118 33005KT 9999 SCT012 FEW050CB TX22/3110Z TN13/3100Z"
    },
    {
      "icao": "UDSG",
      "alert": "OK",
      "vis_m": 9999,
      "fzfg": false,
      "metar_trigger": false,
      "taf_trigger": false,
      "metar": "METAR UDSG 301730Z 01009KT 9999 FEW049 07/M01 Q1016 NOSIG",
      "taf": "TAF UDSG 301658Z 3018/3118 VRB06KT 9999 FEW050"
    },
    {
      "icao": "UDYZ",
      "alert": "OK",
      "vis_m": 9999,
      "fzfg": false,
      "metar_trigger": false,
      "taf_trigger": false,
      "metar": "METAR UDYZ 301730Z VRB01KT 9999 FEW046 17/08 Q1011 NOSIG",
      "taf": "TAF UDYZ 301700Z 3018/3118 06006KT 9999 FEW040"
    },
    {
      "icao": "UGKO",
      "alert": "OK",
      "vis_m": 9999,
      "fzfg": false,
      "metar_trigger": false,
      "taf_trigger": false,
      "metar": "METAR UGKO 301730Z 12005KT CAVOK 12/09 Q1017 NOSIG",
      "taf": "TAF UGKO 301700Z 3018/3118 09007KT CAVOK TX17/3111Z TN10/3102Z"
    }
  ]
}