{
  "ts_utc": "2026-04-22T03:35:47Z",
  "threshold_m": 150,
  "source": "stations_override.txt (ICAO list) + aviationweather.gov (METAR/TAF raw)",
  "station_count": 159,
  "stations": [
    {
      "icao": "BIKF",
      "alert": "OK",
      "vis_m": 5000,
      "fzfg": false,
      "metar_trigger": false,
      "taf_trigger": false,
      "metar": "METAR BIKF 220330Z 30008KT 5000 -DZ BR OVC006 05/05 Q1036",
      "taf": "TAF BIKF 220140Z 2203/2303 31005KT 9999 BKN008 TX07/2215Z TN05/2303Z"
    },
    {
      "icao": "BKPR",
      "alert": "OK",
      "vis_m": 9999,
      "fzfg": false,
      "metar_trigger": false,
      "taf_trigger": false,
      "metar": "METAR BKPR 220330Z 33003KT 9999 SCT030 BKN050 07/06 Q1015 NOSIG",
      "taf": "TAF BKPR 212330Z 2200/2224 01007KT 9999 SCT025 BKN050"
    },
    {
      "icao": "EBCI",
      "alert": "OK",
      "vis_m": 9999,
      "fzfg": false,
      "metar_trigger": false,
      "taf_trigger": false,
      "metar": "METAR EBCI 220320Z 06005KT CAVOK 04/00 Q1023 NOSIG",
      "taf": "TAF EBCI 212315Z 2200/2306 06006KT CAVOK"
    },
    {
      "icao": "EDDB",
      "alert": "OK",
      "vis_m": 9999,
      "fzfg": false,
      "metar_trigger": false,
      "taf_trigger": false,
      "metar": "METAR EDDB 220320Z AUTO 34004KT CAVOK 02/M02 Q1025 NOSIG",
      "taf": "TAF EDDB 212300Z 2200/2224 01005KT CAVOK"
    },
    {
      "icao": "EDDH",
      "alert": "OK",
      "vis_m": 9999,
      "fzfg": false,
      "metar_trigger": false,
      "taf_trigger": false,
      "metar": "METAR EDDH 220320Z AUTO 32002KT CAVOK M01/M03 Q1028 NOSIG",
      "taf": "TAF EDDH 212300Z 2200/2306 VRB03KT CAVOK"
    },
    {
      "icao": "EDDK",
      "alert": "OK",
      "vis_m": 9999,
      "fzfg": false,
      "metar_trigger": false,
      "taf_trigger": false,
      "metar": "METAR EDDK 220320Z AUTO 10004KT 060V140 CAVOK 04/00 Q1025 NOSIG",
      "taf": "TAF EDDK 212300Z 2200/2306 08003KT CAVOK"
    },
    {
      "icao": "EDDN",
      "alert": "OK",
      "vis_m": 9999,
      "fzfg": false,
      "metar_trigger": false,
      "taf_trigger": false,
      "metar": "METAR EDDN 220320Z AUTO VRB01KT CAVOK M02/M03 Q1023",
      "taf": "TAF EDDN 212300Z 2200/2224 VRB02KT CAVOK"
    },
    {
      "icao": "EDDS",
      "alert": "OK",
      "vis_m": 9999,
      "fzfg": false,
      "metar_trigger": false,
      "taf_trigger": false,
      "metar": "METAR EDDS 220320Z AUTO 05003KT CAVOK 02/M01 Q1021",
      "taf": "TAF EDDS 212300Z 2200/2224 05005KT CAVOK"
    },
    {
      "icao": "EDFH",
      "alert": "OK",
      "vis_m": 9999,
      "fzfg": false,
      "metar_trigger": false,
      "taf_trigger": false,
      "metar": "METAR EDFH 220320Z 07006KT 040V120 CAVOK 03/M02 Q1022",
      "taf": "TAF EDFH 212300Z 2200/2224 09010KT CAVOK"
    },
    {
      "icao": "EDJA",
      "alert": "OK",
      "vis_m": 9999,
      "fzfg": false,
      "metar_trigger": false,
      "taf_trigger": false,
      "metar": "METAR EDJA 220320Z AUTO 06009KT 9999 // SCT140/// 01/M00 Q1020",
      "taf": "TAF EDJA 220200Z 2203/2212 06007KT CAVOK"
    },
    {
      "icao": "EDLW",
      "alert": "OK",
      "vis_m": 9999,
      "fzfg": false,
      "metar_trigger": false,
      "taf_trigger": false,
      "metar": "METAR EDLW 220320Z 10003KT CAVOK 03/00 Q1025",
      "taf": "TAF EDLW 220320Z 2204/2224 06004KT CAVOK"
    },
    {
      "icao": "EDNY",
      "alert": "OK",
      "vis_m": 9999,
      "fzfg": false,
      "metar_trigger": false,
      "taf_trigger": false,
      "metar": "METAR EDNY 220320Z AUTO 03006KT 9999 // NCD 05/01 Q1019",
      "taf": "TAF EDNY 220200Z 2203/2212 04008KT CAVOK"
    },
    {
      "icao": "EDSB",
      "alert": "OK",
      "vis_m": 9999,
      "fzfg": false,
      "metar_trigger": false,
      "taf_trigger": false,
      "metar": "METAR EDSB 220320Z 03008KT CAVOK 05/02 Q1021",
      "taf": "TAF EDSB 212300Z 2200/2224 03010KT CAVOK"
    },
    {
      "icao": "EETN",
      "alert": "OK",
      "vis_m": 9999,
      "fzfg": false,
      "metar_trigger": false,
      "taf_trigger": false,
      "metar": "METAR EETN 220320Z 28006KT CAVOK 05/01 Q1013",
      "taf": "TAF EETN 212330Z 2200/2224 28007KT CAVOK"
    },
    {
      "icao": "EFTU",
      "alert": "OK",
      "vis_m": 9999,
      "fzfg": false,
      "metar_trigger": false,
      "taf_trigger": false,
      "metar": "METAR EFTU 220320Z AUTO 31005KT CAVOK 02/00 Q1015",
      "taf": "TAF EFTU 220221Z 2203/2303 31006KT CAVOK"
    },
    {
      "icao": "EGBB",
      "alert": "OK",
      "vis_m": 9999,
      "fzfg": false,
      "metar_trigger": false,
      "taf_trigger": false,
      "metar": "METAR EGBB 220320Z 06007KT CAVOK 04/03 Q1026",
      "taf": ""
    },
    {
      "icao": "EGGP",
      "alert": "OK",
      "vis_m": 9999,
      "fzfg": false,
      "metar_trigger": false,
      "taf_trigger": false,
      "metar": "METAR EGGP 220320Z 05009KT CAVOK 04/02 Q1028",
      "taf": "TAF EGGP 212255Z 2200/2224 07012KT CAVOK"
    },
    {
      "icao": "EGGW",
      "alert": "OK",
      "vis_m": 7000,
      "fzfg": false,
      "metar_trigger": false,
      "taf_trigger": false,
      "metar": "METAR EGGW 220320Z AUTO 03005KT 7000 NCD 02/02 Q1025",
      "taf": "TAF EGGW 212256Z 2200/2224 06012KT CAVOK"
    },
    {
      "icao": "EGKK",
      "alert": "OK",
      "vis_m": 9999,
      "fzfg": false,
      "metar_trigger": false,
      "taf_trigger": false,
      "metar": "METAR EGKK 220320Z 06006KT CAVOK 06/05 Q1023",
      "taf": "TAF EGKK 212258Z 2200/2306 07012KT 9999 FEW045"
    },
    {
      "icao": "EGNM",
      "alert": "OK",
      "vis_m": 9999,
      "fzfg": false,
      "metar_trigger": false,
      "taf_trigger": false,
      "metar": "METAR EGNM 220320Z 03009KT CAVOK 03/01 Q1029",
      "taf": "TAF EGNM 212254Z 2200/2224 06010KT 9999 FEW030"
    },
    {
      "icao": "EGPD",
      "alert": "OK",
      "vis_m": 9999,
      "fzfg": false,
      "metar_trigger": false,
      "taf_trigger": false,
      "metar": "METAR EGPD 220320Z COR AUTO 03003KT 9999 OVC025 06/04 Q1034 NOSIG",
      "taf": "TAF EGPD 212253Z 2200/2224 36005KT 9999 BKN020"
    },
    {
      "icao": "EGPF",
      "alert": "OK",
      "vis_m": 9999,
      "fzfg": false,
      "metar_trigger": false,
      "taf_trigger": false,
      "metar": "METAR EGPF 220320Z AUTO 04005KT 9999 BKN031 03/01 Q1033",
      "taf": "TAF EGPF 212314Z 2200/2224 07004KT 9999 FEW020"
    },
    {
      "icao": "EHBK",
      "alert": "OK",
      "vis_m": 9999,
      "fzfg": false,
      "metar_trigger": false,
      "taf_trigger": false,
      "metar": "METAR EHBK 220325Z AUTO 06006KT 9999 NCD 04/00 Q1024 NOSIG",
      "taf": "TAF EHBK 212319Z 2200/2306 05008KT CAVOK"
    },
    {
      "icao": "EHEH",
      "alert": "OK",
      "vis_m": 9999,
      "fzfg": false,
      "metar_trigger": false,
      "taf_trigger": false,
      "metar": "METAR EHEH 220325Z AUTO 04007KT 9999 NCD 05/M00 Q1025 BLU RMK TREND REMOTE BY EHWX",
      "taf": "TAF EHEH 212323Z 2200/2306 03005KT CAVOK"
    },
    {
      "icao": "EKBI",
      "alert": "OK",
      "vis_m": 9999,
      "fzfg": false,
      "metar_trigger": false,
      "taf_trigger": false,
      "metar": "METAR EKBI 220320Z AUTO 00000KT 9999 NCD M01/M02 Q1028",
      "taf": "TAF EKBI 220227Z 2203/2303 VRB03KT CAVOK"
    },
    {
      "icao": "EKCH",
      "alert": "OK",
      "vis_m": 9999,
      "fzfg": false,
      "metar_trigger": false,
      "taf_trigger": false,
      "metar": "METAR EKCH 220320Z AUTO 30008KT 9999 NCD 06/03 Q1025 NOSIG",
      "taf": "TAF EKCH 220227Z 2203/2303 31010KT CAVOK"
    },
    {
      "icao": "ENAL",
      "alert": "OK",
      "vis_m": 9999,
      "fzfg": false,
      "metar_trigger": false,
      "taf_trigger": false,
      "metar": "METAR ENAL 220320Z AUTO 33005KT 9999 NCD 04/01 Q1032",
      "taf": "TAF ENAL 220200Z 2203/2212 VRB05KT 9999 BKN020"
    },
    {
      "icao": "ENBR",
      "alert": "OK",
      "vis_m": 9999,
      "fzfg": false,
      "metar_trigger": false,
      "taf_trigger": false,
      "metar": "METAR ENBR 220320Z 01003KT 340V040 9999 FEW003 03/03 Q1029 RMK WIND 1200FT 36011KT",
      "taf": ""
    },
    {
      "icao": "ENGM",
      "alert": "OK",
      "vis_m": 9999,
      "fzfg": false,
      "metar_trigger": false,
      "taf_trigger": false,
      "metar": "METAR ENGM 220320Z 06004KT 020V080 CAVOK 01/M02 Q1026",
      "taf": ""
    },
    {
      "icao": "ENHD",
      "alert": "OK",
      "vis_m": 9999,
      "fzfg": false,
      "metar_trigger": false,
      "taf_trigger": false,
      "metar": "METAR ENHD 220320Z AUTO 33012KT 9999 OVC004/// 06/05 Q1029",
      "taf": "TAF ENHD 220200Z 2203/2212 34015KT 9999 BKN003"
    },
    {
      "icao": "ENTC",
      "alert": "OK",
      "vis_m": 9999,
      "fzfg": false,
      "metar_trigger": false,
      "taf_trigger": false,
      "metar": "METAR ENTC 220320Z 32013KT 9999 BKN034 05/M01 Q1012 RMK WIND 2600FT 32031KT",
      "taf": "TAF ENTC 212300Z 2200/2224 28009KT 9999 -RADZ BKN030"
    },
    {
      "icao": "ENTO",
      "alert": "OK",
      "vis_m": 9999,
      "fzfg": false,
      "metar_trigger": false,
      "taf_trigger": false,
      "metar": "METAR ENTO 220250Z AUTO 36003KT 9999 NCD 06/M02 Q1026",
      "taf": "TAF ENTO 212300Z 2200/2224 34007KT CAVOK"
    },
    {
      "icao": "ENVA",
      "alert": "OK",
      "vis_m": 9999,
      "fzfg": false,
      "metar_trigger": false,
      "taf_trigger": false,
      "metar": "METAR ENVA 220320Z 26014KT 9999 BKN024 06/02 Q1028 RMK WIND 670FT 26013KT",
      "taf": "TAF ENVA 212300Z 2200/2224 27008KT 9999 FEW020 BKN030"
    },
    {
      "icao": "ENZV",
      "alert": "OK",
      "vis_m": 1100,
      "fzfg": false,
      "metar_trigger": false,
      "taf_trigger": false,
      "metar": "METAR ENZV 220320Z 32005KT 1100 R18/P2000N R36/P2000N R10/P2000N BR VV002 06/05 Q1029",
      "taf": ""
    },
    {
      "icao": "EPGD",
      "alert": "OK",
      "vis_m": 9999,
      "fzfg": false,
      "metar_trigger": false,
      "taf_trigger": false,
      "metar": "METAR EPGD 220330Z 26005KT CAVOK 01/M04 Q1021",
      "taf": "TAF EPGD 212330Z 2200/2224 29007KT CAVOK"
    },
    {
      "icao": "EPKK",
      "alert": "OK",
      "vis_m": 9999,
      "fzfg": false,
      "metar_trigger": false,
      "taf_trigger": false,
      "metar": "METAR EPKK 220330Z 27002KT CAVOK 02/M04 Q1019",
      "taf": "TAF EPKK 220230Z 2203/2303 VRB02KT CAVOK"
    },
    {
      "icao": "EPKT",
      "alert": "OK",
      "vis_m": 9999,
      "fzfg": false,
      "metar_trigger": false,
      "taf_trigger": false,
      "metar": "METAR EPKT 220330Z 25003KT CAVOK M03/M04 Q1020",
      "taf": "TAF EPKT 212330Z 2200/2224 VRB02KT CAVOK"
    },
    {
      "icao": "EPLB",
      "alert": "OK",
      "vis_m": 9999,
      "fzfg": false,
      "metar_trigger": false,
      "taf_trigger": false,
      "metar": "METAR EPLB 220330Z 31007KT CAVOK 00/M05 Q1017",
      "taf": "TAF EPLB 212330Z 2200/2224 30006KT CAVOK"
    },
    {
      "icao": "EPMO",
      "alert": "OK",
      "vis_m": 9999,
      "fzfg": false,
      "metar_trigger": false,
      "taf_trigger": false,
      "metar": "METAR EPMO 220330Z 31007KT CAVOK 01/M02 Q1019",
      "taf": "TAF EPMO 212330Z 2200/2224 31005KT CAVOK"
    },
    {
      "icao": "EPPO",
      "alert": "OK",
      "vis_m": 9999,
      "fzfg": false,
      "metar_trigger": false,
      "taf_trigger": false,
      "metar": "METAR EPPO 220330Z 33005KT CAVOK 02/M03 Q1023",
      "taf": "TAF EPPO 212330Z 2200/2224 VRB02KT CAVOK"
    },
    {
      "icao": "EPRA",
      "alert": "OK",
      "vis_m": 9999,
      "fzfg": false,
      "metar_trigger": false,
      "taf_trigger": false,
      "metar": "METAR EPRA 220330Z 31005KT CAVOK 03/M05 Q1018",
      "taf": "TAF EPRA 220230Z 2203/2212 32008KT CAVOK"
    },
    {
      "icao": "EPRZ",
      "alert": "OK",
      "vis_m": 9999,
      "fzfg": false,
      "metar_trigger": false,
      "taf_trigger": false,
      "metar": "METAR EPRZ 220330Z 26004KT CAVOK 00/M02 Q1017",
      "taf": "TAF EPRZ 212330Z 2200/2224 33005KT CAVOK"
    },
    {
      "icao": "EPSC",
      "alert": "OK",
      "vis_m": 9999,
      "fzfg": false,
      "metar_trigger": false,
      "taf_trigger": false,
      "metar": "METAR EPSC 220330Z 13004KT CAVOK M02/M03 Q1024",
      "taf": "TAF EPSC 212330Z 2200/2224 VRB02KT CAVOK"
    },
    {
      "icao": "EPSY",
      "alert": "OK",
      "vis_m": 9999,
      "fzfg": false,
      "metar_trigger": false,
      "taf_trigger": false,
      "metar": "METAR EPSY 220330Z 32008KT CAVOK 02/M00 Q1019",
      "taf": "TAF EPSY 220230Z 2203/2212 32008KT CAVOK"
    },
    {
      "icao": "EPWA",
      "alert": "OK",
      "vis_m": 9999,
      "fzfg": false,
      "metar_trigger": false,
      "taf_trigger": false,
      "metar": "METAR EPWA 220330Z 29006KT CAVOK 02/M03 Q1019 NOSIG",
      "taf": "TAF EPWA 220230Z 2203/2303 31008KT CAVOK"
    },
    {
      "icao": "EPWR",
      "alert": "OK",
      "vis_m": 9999,
      "fzfg": false,
      "metar_trigger": false,
      "taf_trigger": false,
      "metar": "METAR EPWR 220330Z 28007KT CAVOK 01/M04 Q1022",
      "taf": "TAF EPWR 220230Z 2203/2303 33007KT CAVOK"
    },
    {
      "icao": "ESGG",
      "alert": "OK",
      "vis_m": 9999,
      "fzfg": false,
      "metar_trigger": false,
      "taf_trigger": false,
      "metar": "METAR ESGG 220320Z 01003KT CAVOK 06/M03 Q1024",
      "taf": "TAF ESGG 220230Z 2203/2303 34006KT CAVOK"
    },
    {
      "icao": "ESKN",
      "alert": "OK",
      "vis_m": 9999,
      "fzfg": false,
      "metar_trigger": false,
      "taf_trigger": false,
      "metar": "METAR ESKN 220320Z 32004KT 290V350 CAVOK 05/01 Q1021",
      "taf": "TAF ESKN 220230Z 2203/2303 34008KT CAVOK"
    },
    {
      "icao": "ESMS",
      "alert": "OK",
      "vis_m": 9999,
      "fzfg": false,
      "metar_trigger": false,
      "taf_trigger": false,
      "metar": "METAR ESMS 220320Z 30005KT CAVOK 03/03 Q1024",
      "taf": "TAF ESMS 220227Z 2203/2303 31006KT CAVOK"
    },
    {
      "icao": "ESSA",
      "alert": "OK",
      "vis_m": 9999,
      "fzfg": false,
      "metar_trigger": false,
      "taf_trigger": false,
      "metar": "METAR ESSA 220320Z 33009KT CAVOK 04/00 Q1021 NOSIG",
      "taf": "TAF ESSA 220230Z 2203/2303 34010KT CAVOK"
    },
    {
      "icao": "EYKA",
      "alert": "OK",
      "vis_m": 9999,
      "fzfg": false,
      "metar_trigger": false,
      "taf_trigger": false,
      "metar": "METAR EYKA 220320Z 31003KT 280V350 CAVOK M00/M04 Q1016",
      "taf": "TAF EYKA 212301Z 2200/2224 VRB04KT CAVOK"
    },
    {
      "icao": "EYPA",
      "alert": "OK",
      "vis_m": 9999,
      "fzfg": false,
      "metar_trigger": false,
      "taf_trigger": false,
      "metar": "METAR EYPA 220320Z VRB01KT 9999 MIFG NSC M01/M02 Q1019",
      "taf": ""
    },
    {
      "icao": "EYVI",
      "alert": "OK",
      "vis_m": 9999,
      "fzfg": false,
      "metar_trigger": false,
      "taf_trigger": false,
      "metar": "METAR EYVI 220320Z 32004KT 290V350 CAVOK 02/M04 Q1015 NOSIG",
      "taf": "TAF EYVI 212301Z 2200/2224 VRB04KT CAVOK"
    },
    {
      "icao": "GCFV",
      "alert": "OK",
      "vis_m": 9999,
      "fzfg": false,
      "metar_trigger": false,
      "taf_trigger": false,
      "metar": "METAR GCFV 220330Z AUTO 28005KT CAVOK 16/11 Q1012",
      "taf": "TAF GCFV 220200Z 2203/2303 35007KT 9999 SCT035 TX23/2214Z TN17/2206Z"
    },
    {
      "icao": "GCLP",
      "alert": "OK",
      "vis_m": 9999,
      "fzfg": false,
      "metar_trigger": false,
      "taf_trigger": false,
      "metar": "METAR GCLP 220330Z 34006KT 9999 FEW020 SCT030 BKN045 17/14 Q1012 NOSIG",
      "taf": "TAF GCLP 220200Z 2203/2303 03007KT 9999 SCT035 TX22/2214Z TN17/2206Z"
    },
    {
      "icao": "GCTS",
      "alert": "OK",
      "vis_m": 9999,
      "fzfg": false,
      "metar_trigger": false,
      "taf_trigger": false,
      "metar": "METAR GCTS 220330Z 08010KT 9999 BKN050 18/13 Q1013 NOSIG",
      "taf": "TAF GCTS 220200Z 2203/2303 07012KT 9999 SCT040 TX23/2214Z TN17/2206Z"
    },
    {
      "icao": "GMAD",
      "alert": "OK",
      "vis_m": 8000,
      "fzfg": false,
      "metar_trigger": false,
      "taf_trigger": false,
      "metar": "METAR GMAD 220330Z 00000KT 8000 NSC 18/14 Q1011 NOSIG",
      "taf": "TAF GMAD 212300Z 2200/2306 26006KT 8000 BKN020"
    },
    {
      "icao": "GMMN",
      "alert": "OK",
      "vis_m": 9999,
      "fzfg": false,
      "metar_trigger": false,
      "taf_trigger": false,
      "metar": "METAR GMMN 220330Z VRB01KT 9999 SCT040 14/12 Q1012 NOSIG",
      "taf": "TAF GMMN 212300Z 2200/2306 14004KT 9999 FEW014"
    },
    {
      "icao": "GMMX",
      "alert": "OK",
      "vis_m": 9999,
      "fzfg": false,
      "metar_trigger": false,
      "taf_trigger": false,
      "metar": "METAR GMMX 220330Z 24005KT 9999 SCT023 SCT100 16/12 Q1012 NOSIG",
      "taf": "TAF GMMX 212300Z 2200/2306 34008KT 8000 SCT030 SCT100"
    },
    {
      "icao": "HEGN",
      "alert": "OK",
      "vis_m": 9999,
      "fzfg": false,
      "metar_trigger": false,
      "taf_trigger": false,
      "metar": "METAR HEGN 220300Z 30011KT CAVOK 18/07 Q1012 NOSIG",
      "taf": "TAF HEGN 212300Z 2200/2306 29012KT CAVOK"
    },
    {
      "icao": "HEMA",
      "alert": "OK",
      "vis_m": 9999,
      "fzfg": false,
      "metar_trigger": false,
      "taf_trigger": false,
      "metar": "METAR HEMA 220300Z 31014KT CAVOK 21/04 Q1010 NOSIG",
      "taf": "TAF HEMA 212300Z 2200/2306 30010KT CAVOK"
    },
    {
      "icao": "HESH",
      "alert": "OK",
      "vis_m": 9999,
      "fzfg": false,
      "metar_trigger": false,
      "taf_trigger": false,
      "metar": "METAR HESH 220300Z 34011KT CAVOK 21/12 Q1011 NOSIG",
      "taf": "TAF HESH 212300Z 2200/2306 33010KT CAVOK"
    },
    {
      "icao": "HESX",
      "alert": "OK",
      "vis_m": 3000,
      "fzfg": false,
      "metar_trigger": false,
      "taf_trigger": false,
      "metar": "METAR HESX 220300Z 04002KT 3000 BR NSC 12/11 Q1015 NOSIG",
      "taf": "TAF HESX 212300Z 2200/2306 02008KT CAVOK"
    },
    {
      "icao": "LATI",
      "alert": "OK",
      "vis_m": 9999,
      "fzfg": false,
      "metar_trigger": false,
      "taf_trigger": false,
      "metar": "METAR LATI 220320Z 34005KT 9999 FEW031 BKN120 11/11 Q1012 NOSIG",
      "taf": "TAF LATI 212300Z 2200/2224 VRB05KT 9999 RA BKN025 OVC050 TX20/2212Z TN10/2204Z"
    },
    {
      "icao": "LBPD",
      "alert": "OK",
      "vis_m": 9999,
      "fzfg": false,
      "metar_trigger": false,
      "taf_trigger": false,
      "metar": "METAR LBPD 220330Z AUTO 04001KT 9999 -RA FEW015/// BKN046/// OVC055/// 08/08 Q1014 TEMPO 5000 RA",
      "taf": "TAF LBPD 212300Z 2200/2224 VRB03KT 9999 SCT030 OVC050"
    },
    {
      "icao": "LBSF",
      "alert": "OK",
      "vis_m": 5000,
      "fzfg": false,
      "metar_trigger": false,
      "taf_trigger": false,
      "metar": "METAR LBSF 220330Z VRB02KT 5000 -RA BR FEW015 SCT025 OVC041 06/05 Q1015 TEMPO 2000 RA BR",
      "taf": "TAF LBSF 212300Z 2200/2224 VRB03KT 9999 SCT050"
    },
    {
      "icao": "LBWN",
      "alert": "OK",
      "vis_m": 9999,
      "fzfg": false,
      "metar_trigger": false,
      "taf_trigger": false,
      "metar": "METAR LBWN 220330Z AUTO 00000KT 9999 OVC044/// 07/07 Q1015 NOSIG",
      "taf": "TAF LBWN 212300Z 2200/2224 VRB03KT 9999 SCT010 BKN015 OVC040"
    },
    {
      "icao": "LCLK",
      "alert": "OK",
      "vis_m": 9999,
      "fzfg": false,
      "metar_trigger": false,
      "taf_trigger": false,
      "metar": "METAR LCLK 220330Z 32006KT 9999 FEW020 11/10 Q1014 NOSIG",
      "taf": "TAF LCLK 212330Z 2200/2300 31006KT 9999 FEW025"
    },
    {
      "icao": "LCPH",
      "alert": "OK",
      "vis_m": 9999,
      "fzfg": false,
      "metar_trigger": false,
      "taf_trigger": false,
      "metar": "METAR LCPH 220330Z 07008KT 010V080 CAVOK 11/07 Q1014 NOSIG",
      "taf": "TAF LCPH 212330Z 2200/2300 02007KT 9999 FEW025"
    },
    {
      "icao": "LEAL",
      "alert": "OK",
      "vis_m": 9999,
      "fzfg": false,
      "metar_trigger": false,
      "taf_trigger": false,
      "metar": "METAR LEAL 220330Z 26003KT CAVOK 15/10 Q1010 NOSIG",
      "taf": "TAF LEAL 212300Z 2200/2224 VRB04KT CAVOK TX27/2212Z TN14/2206Z"
    },
    {
      "icao": "LEBB",
      "alert": "OK",
      "vis_m": 9999,
      "fzfg": false,
      "metar_trigger": false,
      "taf_trigger": false,
      "metar": "METAR LEBB 220330Z 00000KT CAVOK 19/12 Q1006 NOSIG",
      "taf": "TAF LEBB 212300Z 2200/2224 10009KT 9999 FEW040 TX20/2213Z TN14/2206Z"
    },
    {
      "icao": "LEBL",
      "alert": "OK",
      "vis_m": 9999,
      "fzfg": false,
      "metar_trigger": false,
      "taf_trigger": false,
      "metar": "METAR LEBL 220330Z 30005KT 9999 SCT003 SCT010 14/08 Q1010 NOSIG",
      "taf": "TAF LEBL 212300Z 2200/2224 VRB04KT 9999 FEW030 TX21/2212Z TN13/2206Z"
    },
    {
      "icao": "LECH",
      "alert": "OK",
      "vis_m": 9999,
      "fzfg": false,
      "metar_trigger": false,
      "taf_trigger": false,
      "metar": "METAR LECH 220330Z AUTO 18003KT 160V220 CAVOK 14/09 Q1011",
      "taf": "TAF LECH 212300Z 2200/2224 VRB04KT CAVOK TX28/2213Z TN12/2206Z"
    },
    {
      "icao": "LEMD",
      "alert": "OK",
      "vis_m": 9999,
      "fzfg": false,
      "metar_trigger": false,
      "taf_trigger": false,
      "metar": "METAR LEMD 220330Z 24005KT 200V260 CAVOK 16/07 Q1011 NOSIG",
      "taf": "TAF LEMD 212300Z 2200/2306 VRB04KT CAVOK TX25/2216Z TN11/2206Z"
    },
    {
      "icao": "LEMG",
      "alert": "OK",
      "vis_m": 9999,
      "fzfg": false,
      "metar_trigger": false,
      "taf_trigger": false,
      "metar": "METAR LEMG 220330Z 30007KT CAVOK 13/10 Q1011 NOSIG",
      "taf": "TAF LEMG 212300Z 2200/2224 VRB03KT CAVOK TX25/2214Z TN12/2206Z"
    },
    {
      "icao": "LEVC",
      "alert": "OK",
      "vis_m": 9999,
      "fzfg": false,
      "metar_trigger": false,
      "taf_trigger": false,
      "metar": "METAR LEVC 220330Z 32005KT CAVOK 14/09 Q1010 NOSIG",
      "taf": "TAF LEVC 212300Z 2200/2224 VRB04KT CAVOK TX28/2212Z TN14/2206Z"
    },
    {
      "icao": "LEXJ",
      "alert": "OK",
      "vis_m": 9000,
      "fzfg": false,
      "metar_trigger": false,
      "taf_trigger": false,
      "metar": "METAR LEXJ 220330Z 31012KT 9000 NSC 16/12 Q1005",
      "taf": "TAF LEXJ 220200Z 2203/2303 28009KT 9999 SCT040 TX26/2213Z TN15/2206Z"
    },
    {
      "icao": "LEZG",
      "alert": "OK",
      "vis_m": 9999,
      "fzfg": false,
      "metar_trigger": false,
      "taf_trigger": false,
      "metar": "METAR LEZG 220330Z 07004KT CAVOK 16/10 Q1010 NOSIG",
      "taf": "TAF LEZG 212300Z 2200/2224 15008KT CAVOK TX33/2215Z TN15/2206Z"
    },
    {
      "icao": "LEZL",
      "alert": "OK",
      "vis_m": 9999,
      "fzfg": false,
      "metar_trigger": false,
      "taf_trigger": false,
      "metar": "METAR LEZL 220330Z 23004KT 200V270 9999 FEW012 SCT037 17/15 Q1012 NOSIG",
      "taf": "TAF LEZL 220200Z 2203/2303 23010KT 9999 SCT020 TX25/2215Z TN16/2206Z"
    },
    {
      "icao": "LFBD",
      "alert": "OK",
      "vis_m": 9999,
      "fzfg": false,
      "metar_trigger": false,
      "taf_trigger": false,
      "metar": "METAR LFBD 220330Z AUTO 10010KT CAVOK 16/06 Q1007 NOSIG",
      "taf": "TAF LFBD 212300Z 2200/2306 07006KT CAVOK TX27/2214Z TN14/2206Z"
    },
    {
      "icao": "LFLL",
      "alert": "OK",
      "vis_m": 9999,
      "fzfg": false,
      "metar_trigger": false,
      "taf_trigger": false,
      "metar": "METAR LFLL 220330Z 36003KT CAVOK 06/03 Q1014 NOSIG",
      "taf": "TAF LFLL 212300Z 2200/2306 34004KT CAVOK"
    },
    {
      "icao": "LFLS",
      "alert": "OK",
      "vis_m": 9999,
      "fzfg": false,
      "metar_trigger": false,
      "taf_trigger": false,
      "metar": "METAR LFLS 220330Z AUTO 14005KT CAVOK 03/02 Q1013 NOSIG",
      "taf": "TAF LFLS 220200Z 2203/2303 VRB03KT CAVOK"
    },
    {
      "icao": "LFMN",
      "alert": "OK",
      "vis_m": 9999,
      "fzfg": false,
      "metar_trigger": false,
      "taf_trigger": false,
      "metar": "METAR LFMN 220330Z COR 32004KT 9999 SCT019 15/12 Q1013 NOSIG",
      "taf": "TAF LFMN 220200Z 2203/2309 32010KT 9999 FEW012 BKN020"
    },
    {
      "icao": "LFOB",
      "alert": "OK",
      "vis_m": 9999,
      "fzfg": false,
      "metar_trigger": false,
      "taf_trigger": false,
      "metar": "METAR LFOB 220330Z AUTO 06008KT CAVOK 04/01 Q1021 NOSIG",
      "taf": "TAF LFOB 212300Z 2200/2224 06008KT CAVOK"
    },
    {
      "icao": "LFPO",
      "alert": "OK",
      "vis_m": 9999,
      "fzfg": false,
      "metar_trigger": false,
      "taf_trigger": false,
      "metar": "METAR LFPO 220300Z AUTO 06009KT CAVOK 08/02 Q1020 NOSIG",
      "taf": "TAF LFPO 212300Z 2200/2306 06010KT CAVOK"
    },
    {
      "icao": "LFSB",
      "alert": "OK",
      "vis_m": 9999,
      "fzfg": false,
      "metar_trigger": false,
      "taf_trigger": false,
      "metar": "METAR LFSB 220330Z AUTO VRB03KT CAVOK 02/01 Q1019 NOSIG",
      "taf": "TAF LFSB 212300Z 2200/2224 34005KT CAVOK"
    },
    {
      "icao": "LGAV",
      "alert": "OK",
      "vis_m": 9999,
      "fzfg": false,
      "metar_trigger": false,
      "taf_trigger": false,
      "metar": "METAR LGAV 220320Z 31002KT 9999 FEW025 11/10 Q1011 NOSIG",
      "taf": "TAF LGAV 212300Z 2200/2224 VRB03KT 9999 FEW025"
    },
    {
      "icao": "LGTS",
      "alert": "OK",
      "vis_m": 9999,
      "fzfg": false,
      "metar_trigger": false,
      "taf_trigger": false,
      "metar": "METAR LGTS 220320Z 30009KT 9999 FEW010 BKN025 13/11 Q1012 NOSIG",
      "taf": "TAF LGTS 212300Z 2200/2224 34015KT 9999 BKN030"
    },
    {
      "icao": "LHBP",
      "alert": "OK",
      "vis_m": 9999,
      "fzfg": false,
      "metar_trigger": false,
      "taf_trigger": false,
      "metar": "METAR LHBP 220330Z 33006KT CAVOK 06/00 Q1019 NOSIG",
      "taf": "TAF LHBP 212315Z 2200/2224 01005KT CAVOK"
    },
    {
      "icao": "LHDC",
      "alert": "OK",
      "vis_m": 9999,
      "fzfg": false,
      "metar_trigger": false,
      "taf_trigger": false,
      "metar": "METAR LHDC 220315Z AUTO VRB02KT CAVOK 05/M03 Q1017",
      "taf": "TAF LHDC 220215Z 2203/2212 36005KT CAVOK"
    },
    {
      "icao": "LIBD",
      "alert": "OK",
      "vis_m": 8000,
      "fzfg": false,
      "metar_trigger": false,
      "taf_trigger": false,
      "metar": "METAR LIBD 220320Z 27005KT 8000 SCT010 14/13 Q1013",
      "taf": "TAF LIBD 212300Z 2200/2224 35013KT 9999 SCT040"
    },
    {
      "icao": "LIBG",
      "alert": "OK",
      "vis_m": null,
      "fzfg": false,
      "metar_trigger": false,
      "taf_trigger": false,
      "metar": "",
      "taf": ""
    },
    {
      "icao": "LIBP",
      "alert": "OK",
      "vis_m": 9999,
      "fzfg": false,
      "metar_trigger": false,
      "taf_trigger": false,
      "metar": "METAR LIBP 220320Z AUTO 23004KT 9999 OVC060/// 11/11 Q1015",
      "taf": "TAF LIBP 212300Z 2200/2224 VRB06KT 9999 SCT030"
    },
    {
      "icao": "LIBR",
      "alert": "OK",
      "vis_m": 9999,
      "fzfg": false,
      "metar_trigger": false,
      "taf_trigger": false,
      "metar": "METAR LIBR 220320Z 01007KT CAVOK 15/12 Q1012",
      "taf": "TAF LIBR 212300Z 2200/2224 34013KT 9999 SCT040"
    },
    {
      "icao": "LICA",
      "alert": "OK",
      "vis_m": 9999,
      "fzfg": false,
      "metar_trigger": false,
      "taf_trigger": false,
      "metar": "METAR LICA 220320Z AUTO 09005KT 9999 NCD 09/09 Q1012",
      "taf": "TAF LICA 212300Z 2200/2224 VRB05KT CAVOK"
    },
    {
      "icao": "LICC",
      "alert": "OK",
      "vis_m": 9999,
      "fzfg": false,
      "metar_trigger": false,
      "taf_trigger": false,
      "metar": "METAR LICC 220320Z 23004KT CAVOK 12/08 Q1011",
      "taf": "TAF LICC 212300Z 2200/2224 VRB05KT CAVOK"
    },
    {
      "icao": "LICJ",
      "alert": "OK",
      "vis_m": 9999,
      "fzfg": false,
      "metar_trigger": false,
      "taf_trigger": false,
      "metar": "METAR LICJ 220320Z 03004KT CAVOK 15/14 Q1011",
      "taf": "TAF LICJ 212300Z 2200/2224 VRB05KT CAVOK"
    },
    {
      "icao": "LIMC",
      "alert": "OK",
      "vis_m": 9999,
      "fzfg": false,
      "metar_trigger": false,
      "taf_trigger": false,
      "metar": "METAR LIMC 220320Z VRB02KT 9999 SCT030 BKN060 10/10 Q1018 NOSIG",
      "taf": "TAF LIMC 212300Z 2200/2306 06010KT 9999 SCT060"
    },
    {
      "icao": "LIME",
      "alert": "OK",
      "vis_m": 9999,
      "fzfg": false,
      "metar_trigger": false,
      "taf_trigger": false,
      "metar": "METAR LIME 220320Z 04005KT 010V070 9999 BKN060 10/07 Q1018 NOSIG",
      "taf": "TAF LIME 212300Z 2200/2224 VRB05KT 9999 SCT040"
    },
    {
      "icao": "LIMF",
      "alert": "OK",
      "vis_m": 9999,
      "fzfg": false,
      "metar_trigger": false,
      "taf_trigger": false,
      "metar": "METAR LIMF 220320Z 02006KT 9999 OVC030 12/08 Q1017",
      "taf": "TAF LIMF 212300Z 2200/2224 03010KT 9999 SCT050"
    },
    {
      "icao": "LIMJ",
      "alert": "OK",
      "vis_m": 9999,
      "fzfg": false,
      "metar_trigger": false,
      "taf_trigger": false,
      "metar": "METAR LIMJ 220320Z 04004KT 9999 SCT015 BKN035 16/14 Q1014",
      "taf": "TAF LIMJ 212300Z 2200/2224 VRB05KT 9999 SCT060"
    },
    {
      "icao": "LIPE",
      "alert": "OK",
      "vis_m": 9999,
      "fzfg": false,
      "metar_trigger": false,
      "taf_trigger": false,
      "metar": "METAR LIPE 220320Z 06003KT 030V090 CAVOK 11/08 Q1017",
      "taf": "TAF LIPE 212300Z 2200/2224 VRB06KT 9999 SCT020"
    },
    {
      "icao": "LIPH",
      "alert": "OK",
      "vis_m": 9999,
      "fzfg": false,
      "metar_trigger": false,
      "taf_trigger": false,
      "metar": "METAR LIPH 220320Z AUTO 03005KT 360V060 9999 OVC070/// 11/07 Q1018",
      "taf": "TAF LIPH 212300Z 2200/2224 06008KT 9999 SCT050"
    },
    {
      "icao": "LIPQ",
      "alert": "OK",
      "vis_m": 9999,
      "fzfg": false,
      "metar_trigger": false,
      "taf_trigger": false,
      "metar": "METAR LIPQ 220320Z AUTO 05006KT 9999 FEW100/// 10/01 Q1018",
      "taf": "TAF LIPQ 212300Z 2200/2224 02008KT 9999 SCT050"
    },
    {
      "icao": "LIPR",
      "alert": "OK",
      "vis_m": 9999,
      "fzfg": false,
      "metar_trigger": false,
      "taf_trigger": false,
      "metar": "METAR LIPR 220320Z AUTO 06009KT 9999 SCT038/// BKN120/// 14/09 Q1016",
      "taf": "TAF LIPR 212300Z 2200/2224 08017KT 9999 SCT030"
    },
    {
      "icao": "LIPX",
      "alert": "OK",
      "vis_m": 9999,
      "fzfg": false,
      "metar_trigger": false,
      "taf_trigger": false,
      "metar": "METAR LIPX 220320Z 09006KT 9999 -RA OVC050 11/06 Q1018",
      "taf": "TAF LIPX 212300Z 2200/2224 09012KT 9999 SCT050"
    },
    {
      "icao": "LIPY",
      "alert": "OK",
      "vis_m": 7000,
      "fzfg": false,
      "metar_trigger": false,
      "taf_trigger": false,
      "metar": "METAR LIPY 220320Z AUTO VRB02KT 7000 FEW062/// BKN110/// BKN130/// 10/10 Q1015",
      "taf": "TAF LIPY 212300Z 2200/2224 VRB05KT 9999 SCT040"
    },
    {
      "icao": "LIPZ",
      "alert": "OK",
      "vis_m": 9999,
      "fzfg": false,
      "metar_trigger": false,
      "taf_trigger": false,
      "metar": "METAR LIPZ 220320Z 03010KT 9999 BKN070 11/07 Q1018 NOSIG",
      "taf": "TAF LIPZ 212300Z 2200/2306 02014KT 9999 SCT050"
    },
    {
      "icao": "LIRF",
      "alert": "OK",
      "vis_m": 9999,
      "fzfg": false,
      "metar_trigger": false,
      "taf_trigger": false,
      "metar": "METAR LIRF 220320Z 02003KT 340V050 9999 FEW020 12/12 Q1012 NOSIG",
      "taf": "TAF LIRF 212300Z 2200/2306 VRB05KT 9999 SCT015"
    },
    {
      "icao": "LIRN",
      "alert": "OK",
      "vis_m": 9999,
      "fzfg": false,
      "metar_trigger": false,
      "taf_trigger": false,
      "metar": "METAR LIRN 220320Z 35004KT 9999 FEW080 14/09 Q1012 NOSIG",
      "taf": "TAF LIRN 212300Z 2200/2224 VRB05KT 9999 FEW030"
    },
    {
      "icao": "LIRP",
      "alert": "OK",
      "vis_m": 9999,
      "fzfg": false,
      "metar_trigger": false,
      "taf_trigger": false,
      "metar": "METAR LIRP 220315Z 08009KT 9999 BKN070 15/07 Q1014 NOSIG",
      "taf": "TAF LIRP 212300Z 2200/2224 13005KT 9999 BKN080"
    },
    {
      "icao": "LIRZ",
      "alert": "OK",
      "vis_m": 9999,
      "fzfg": false,
      "metar_trigger": false,
      "taf_trigger": false,
      "metar": "METAR LIRZ 220320Z AUTO 36007KT 9999 -RA OVC067/// 11/09 Q1014",
      "taf": "TAF LIRZ 212300Z 2200/2224 34008KT 9999 SCT050"
    },
    {
      "icao": "LJLJ",
      "alert": "OK",
      "vis_m": 9999,
      "fzfg": false,
      "metar_trigger": false,
      "taf_trigger": false,
      "metar": "METAR LJLJ 220330Z VRB01KT 9999 MIFG FEW002 SCT080 02/01 Q1019 NOSIG",
      "taf": "TAF LJLJ 212300Z 2200/2300 VRB02KT 9999 FEW040 SCT050"
    },
    {
      "icao": "LKMT",
      "alert": "OK",
      "vis_m": 9999,
      "fzfg": false,
      "metar_trigger": false,
      "taf_trigger": false,
      "metar": "METAR LKMT 220330Z 15003KT CAVOK 04/M01 Q1020 NOSIG",
      "taf": "TAF LKMT 212300Z 2200/2224 VRB02KT CAVOK"
    },
    {
      "icao": "LKPR",
      "alert": "OK",
      "vis_m": 9999,
      "fzfg": false,
      "metar_trigger": false,
      "taf_trigger": false,
      "metar": "METAR LKPR 220330Z 29005KT CAVOK 02/M03 Q1023 NOSIG",
      "taf": "TAF LKPR 220200Z 2203/2309 VRB02KT CAVOK"
    },
    {
      "icao": "LLBG",
      "alert": "OK",
      "vis_m": 9999,
      "fzfg": false,
      "metar_trigger": false,
      "taf_trigger": false,
      "metar": "METAR LLBG 220320Z VRB03KT CAVOK 13/09 Q1015 NOSIG",
      "taf": "TAF LLBG 212301Z 2200/2224 VRB04KT 9999 FEW025 TX22/2210Z TN12/2203Z"
    },
    {
      "icao": "LMML",
      "alert": "OK",
      "vis_m": 9999,
      "fzfg": false,
      "metar_trigger": false,
      "taf_trigger": false,
      "metar": "METAR LMML 220315Z 27003KT 220V320 CAVOK 17/11 Q1011 NOSIG",
      "taf": "TAF LMML 212300Z 2200/2224 21006KT CAVOK"
    },
    {
      "icao": "LOWW",
      "alert": "OK",
      "vis_m": 9999,
      "fzfg": false,
      "metar_trigger": false,
      "taf_trigger": false,
      "metar": "METAR LOWW 220320Z 31005KT CAVOK 06/01 Q1021 NOSIG",
      "taf": "TAF LOWW 220215Z 2203/2309 32005KT CAVOK TX15/2214Z TN06/2302Z"
    },
    {
      "icao": "LPFR",
      "alert": "OK",
      "vis_m": 9999,
      "fzfg": false,
      "metar_trigger": false,
      "taf_trigger": false,
      "metar": "METAR LPFR 220330Z 29009KT 9999 BKN040 16/13 Q1012",
      "taf": "TAF LPFR 212300Z 2200/2224 22010KT 9999 SCT012 SCT030"
    },
    {
      "icao": "LPMA",
      "alert": "OK",
      "vis_m": 9999,
      "fzfg": false,
      "metar_trigger": false,
      "taf_trigger": false,
      "metar": "METAR LPMA 220330Z 28004KT 240V300 9999 SCT015 14/09 Q1013",
      "taf": "TAF LPMA 212300Z 2200/2224 VRB05KT 9999 SCT015"
    },
    {
      "icao": "LPPR",
      "alert": "OK",
      "vis_m": 9999,
      "fzfg": false,
      "metar_trigger": false,
      "taf_trigger": false,
      "metar": "METAR LPPR 220330Z 20005KT 9999 FEW020 SCT040 13/10 Q1011",
      "taf": "TAF LPPR 212300Z 2200/2224 VRB02KT 9999 SCT017 BKN035"
    },
    {
      "icao": "LPPS",
      "alert": "OK",
      "vis_m": 9999,
      "fzfg": false,
      "metar_trigger": false,
      "taf_trigger": false,
      "metar": "METAR LPPS 220330Z 25004KT 9999 FEW015 12/08 Q1013",
      "taf": "TAF LPPS 212300Z 2200/2306 30008KT 9999 SCT015"
    },
    {
      "icao": "LPPT",
      "alert": "OK",
      "vis_m": 9999,
      "fzfg": false,
      "metar_trigger": false,
      "taf_trigger": false,
      "metar": "METAR LPPT 220330Z 24003KT 9999 SCT020 12/10 Q1012",
      "taf": "TAF LPPT 212300Z 2200/2306 29007KT 9999 SCT018 SCT030"
    },
    {
      "icao": "LQBK",
      "alert": "OK",
      "vis_m": 9999,
      "fzfg": false,
      "metar_trigger": false,
      "taf_trigger": false,
      "metar": "METAR LQBK 220330Z VRB02KT 9999 SCT047 06/04 Q1018 NOSIG",
      "taf": "TAF LQBK 212300Z 2200/2224 33005KT 9999 SCT045 TX15/2214Z TN04/2204Z"
    },
    {
      "icao": "LQSA",
      "alert": "OK",
      "vis_m": 9999,
      "fzfg": false,
      "metar_trigger": false,
      "taf_trigger": false,
      "metar": "METAR LQSA 220330Z 33003KT 9999 FEW015 BKN050 07/06 Q1016",
      "taf": "TAF LQSA 212300Z 2200/2224 32006KT 9999 FEW025 BKN055 TX12/2214Z TN06/2205Z"
    },
    {
      "icao": "LQTZ",
      "alert": "OK",
      "vis_m": 9999,
      "fzfg": false,
      "metar_trigger": false,
      "taf_trigger": false,
      "metar": "METAR LQTZ 220330Z 31004KT 9999 SCT015 BKN050 07/07 Q1017",
      "taf": "TAF LQTZ 212300Z 2200/2224 03005KT 9999 SCT050 TX14/2213Z TN04/2202Z"
    },
    {
      "icao": "LRBC",
      "alert": "OK",
      "vis_m": 9999,
      "fzfg": false,
      "metar_trigger": false,
      "taf_trigger": false,
      "metar": "METAR LRBC 220330Z 00000KT CAVOK 04/03 Q1016",
      "taf": "TAF LRBC 220200Z 2203/2212 VRB04KT CAVOK"
    },
    {
      "icao": "LRBS",
      "alert": "OK",
      "vis_m": 9999,
      "fzfg": false,
      "metar_trigger": false,
      "taf_trigger": false,
      "metar": "METAR LRBS 220330Z VRB02KT 9999 FEW036 06/05 Q1016 NOSIG",
      "taf": "TAF LRBS 212300Z 2200/2224 04005KT 9999 BKN040"
    },
    {
      "icao": "LRBV",
      "alert": "OK",
      "vis_m": 5000,
      "fzfg": false,
      "metar_trigger": false,
      "taf_trigger": false,
      "metar": "METAR LRBV 220330Z AUTO VRB03KT 5000 RA BKN008/// OVC014/// 03/01 Q1015",
      "taf": "TAF LRBV 220200Z 2203/2212 07007KT 9999 BKN020"
    },
    {
      "icao": "LRCL",
      "alert": "OK",
      "vis_m": 9999,
      "fzfg": false,
      "metar_trigger": false,
      "taf_trigger": false,
      "metar": "METAR LRCL 220330Z 00000KT 9999 FEW071 05/02 Q1016",
      "taf": "TAF LRCL 220200Z 2203/2212 VRB04KT 9999 BKN030"
    },
    {
      "icao": "LRCV",
      "alert": "OK",
      "vis_m": 9999,
      "fzfg": false,
      "metar_trigger": false,
      "taf_trigger": false,
      "metar": "METAR LRCV 220330Z 06004KT 9999 -RA OVC043 06/05 Q1016",
      "taf": "TAF LRCV 220200Z 2203/2212 04006KT CAVOK"
    },
    {
      "icao": "LRIA",
      "alert": "OK",
      "vis_m": 9999,
      "fzfg": false,
      "metar_trigger": false,
      "taf_trigger": false,
      "metar": "METAR LRIA 220330Z 26003KT CAVOK 02/00 Q1015",
      "taf": "TAF LRIA 220200Z 2203/2212 33006KT CAVOK"
    },
    {
      "icao": "LROP",
      "alert": "OK",
      "vis_m": 9999,
      "fzfg": false,
      "metar_trigger": false,
      "taf_trigger": false,
      "metar": "METAR LROP 220330Z VRB02KT CAVOK 06/04 Q1016 NOSIG",
      "taf": "TAF LROP 212300Z 2200/2224 04005KT 9999 BKN040"
    },
    {
      "icao": "LRSB",
      "alert": "OK",
      "vis_m": 9999,
      "fzfg": false,
      "metar_trigger": false,
      "taf_trigger": false,
      "metar": "METAR LRSB 220330Z 30004KT 9999 SCT022 BKN030 06/05 Q1015",
      "taf": "TAF LRSB 212300Z 2200/2224 VRB04KT 9999 BKN040"
    },
    {
      "icao": "LRSM",
      "alert": "OK",
      "vis_m": 9999,
      "fzfg": false,
      "metar_trigger": false,
      "taf_trigger": false,
      "metar": "METAR LRSM 220330Z AUTO 26003KT 9999 FEW085/// M01/M02 Q1017",
      "taf": "TAF LRSM 220200Z 2203/2212 VRB04KT CAVOK"
    },
    {
      "icao": "LRSV",
      "alert": "OK",
      "vis_m": 9999,
      "fzfg": false,
      "metar_trigger": false,
      "taf_trigger": false,
      "metar": "METAR LRSV 220330Z 26009KT CAVOK 02/M02 Q1014",
      "taf": "TAF LRSV 220200Z 2203/2212 31008KT CAVOK"
    },
    {
      "icao": "LRTM",
      "alert": "OK",
      "vis_m": 9999,
      "fzfg": false,
      "metar_trigger": false,
      "taf_trigger": false,
      "metar": "METAR LRTM 220330Z 10002KT 9999 BKN038 05/04 Q1016",
      "taf": "TAF LRTM 220200Z 2203/2212 05005KT 9999 BKN030"
    },
    {
      "icao": "LRTR",
      "alert": "OK",
      "vis_m": 9999,
      "fzfg": false,
      "metar_trigger": false,
      "taf_trigger": false,
      "metar": "METAR LRTR 220330Z 33005KT CAVOK 02/01 Q1017",
      "taf": "TAF LRTR 212300Z 2200/2224 35006KT CAVOK"
    },
    {
      "icao": "LTAC",
      "alert": "OK",
      "vis_m": 9999,
      "fzfg": false,
      "metar_trigger": false,
      "taf_trigger": false,
      "metar": "METAR LTAC 220320Z 19006KT 150V210 9999 SCT035 BKN080 10/06 Q1012 NOSIG RMK RWY21C 21006KT RWY03L 19005KT RWY21R 20007KT RWY03R 16004KT RWY21L 20007KT",
      "taf": "TAF LTAC 212240Z 2200/2224 VRB02KT 9999 SCT040 BKN100"
    },
    {
      "icao": "LTFM",
      "alert": "OK",
      "vis_m": 9999,
      "fzfg": false,
      "metar_trigger": false,
      "taf_trigger": false,
      "metar": "METAR LTFM 220320Z 07009KT 030V090 9999 -RA BKN006 BKN022 10/09 Q1013 NOSIG RMK RWY17L 07010KT RWY34L 06009KT RWY16R 07009KT RWY36 07009KT RWY18 08009KT",
      "taf": "TAF LTFM 212240Z 2200/2306 05010KT 9999 -RA BKN006 BKN022"
    },
    {
      "icao": "LUKK",
      "alert": "OK",
      "vis_m": 9999,
      "fzfg": false,
      "metar_trigger": false,
      "taf_trigger": false,
      "metar": "METAR LUKK 220330Z 34003KT CAVOK 02/M01 Q1015 NOSIG",
      "taf": "TAF LUKK 212308Z 2200/2224 VRB05KT CAVOK"
    },
    {
      "icao": "LWOH",
      "alert": "OK",
      "vis_m": 9999,
      "fzfg": false,
      "metar_trigger": false,
      "taf_trigger": false,
      "metar": "METAR LWOH 220320Z 33008KT 300V360 9999 FEW020 BKN035 05/04 Q1013",
      "taf": "TAF LWOH 220245Z 2203/2303 34008KT 9999 FEW015 BKN035"
    },
    {
      "icao": "LWSK",
      "alert": "OK",
      "vis_m": 9999,
      "fzfg": false,
      "metar_trigger": false,
      "taf_trigger": false,
      "metar": "METAR LWSK 220320Z VRB01KT 9999 -DZ BKN036 OVC070 08/07 Q1015 NOSIG",
      "taf": "TAF LWSK 220245Z 2203/2303 VRB02KT 9999 FEW015 BKN030 OVC070"
    },
    {
      "icao": "LYBE",
      "alert": "OK",
      "vis_m": 4000,
      "fzfg": false,
      "metar_trigger": false,
      "taf_trigger": false,
      "metar": "METAR LYBE 220330Z COR 29002KT 4000 MIFG BR NSC 07/06 Q1017 NOSIG",
      "taf": "TAF LYBE 212300Z 2200/2224 32006KT 9999 SCT040 TX14/2213Z TN06/2204Z"
    },
    {
      "icao": "LYNI",
      "alert": "OK",
      "vis_m": 9999,
      "fzfg": false,
      "metar_trigger": false,
      "taf_trigger": false,
      "metar": "METAR LYNI 220330Z 33004KT 290V360 9999 FEW020 SCT050 BKN090 08/07 Q1016 NOSIG",
      "taf": "TAF LYNI 212300Z 2200/2224 24005KT 9999 BKN050 TX15/2213Z TN07/2204Z"
    },
    {
      "icao": "LYPG",
      "alert": "OK",
      "vis_m": 9999,
      "fzfg": false,
      "metar_trigger": false,
      "taf_trigger": false,
      "metar": "METAR LYPG 220330Z 32003KT 9999 SCT090 10/10 Q1013 NOSIG",
      "taf": "TAF LYPG 212300Z 2200/2224 36004KT 9999 FEW040 BKN080 TX18/2213Z TN10/2204Z"
    },
    {
      "icao": "LZIB",
      "alert": "OK",
      "vis_m": 9999,
      "fzfg": false,
      "metar_trigger": false,
      "taf_trigger": false,
      "metar": "METAR LZIB 220330Z 20004KT CAVOK 07/01 Q1020 NOSIG",
      "taf": "TAF LZIB 212315Z 2200/2300 30009KT CAVOK"
    },
    {
      "icao": "LZKZ",
      "alert": "OK",
      "vis_m": 9999,
      "fzfg": false,
      "metar_trigger": false,
      "taf_trigger": false,
      "metar": "METAR LZKZ 220330Z VRB02KT CAVOK 03/00 Q1018 NOSIG",
      "taf": "TAF LZKZ 212315Z 2200/2300 01010KT CAVOK"
    },
    {
      "icao": "LZTT",
      "alert": "OK",
      "vis_m": 9999,
      "fzfg": false,
      "metar_trigger": false,
      "taf_trigger": false,
      "metar": "METAR LZTT 220330Z 28012KT 9999 FEW056 01/M05 Q1017",
      "taf": "TAF LZTT 212315Z 2200/2300 27008KT 9999 SCT050"
    },
    {
      "icao": "OEJN",
      "alert": "OK",
      "vis_m": 9999,
      "fzfg": false,
      "metar_trigger": false,
      "taf_trigger": false,
      "metar": "METAR OEJN 220300Z 02004KT CAVOK 24/15 Q1007 NOSIG",
      "taf": "TAF OEJN 212300Z 2200/2306 36005KT CAVOK"
    },
    {
      "icao": "OEMA",
      "alert": "OK",
      "vis_m": 9999,
      "fzfg": false,
      "metar_trigger": false,
      "taf_trigger": false,
      "metar": "METAR OEMA 220300Z 03009KT CAVOK 23/04 Q1012 NOSIG",
      "taf": "TAF OEMA 212300Z 2200/2306 VRB03KT CAVOK"
    },
    {
      "icao": "OJAI",
      "alert": "OK",
      "vis_m": 2000,
      "fzfg": false,
      "metar_trigger": false,
      "taf_trigger": false,
      "metar": "METAR OJAI 220300Z 00000KT 2000 BR NSC 06/06 Q1017 NOSIG",
      "taf": "TAF OJAI 212300Z 2200/2306 VRB02KT 5000 HZ NSC"
    },
    {
      "icao": "OMAA",
      "alert": "OK",
      "vis_m": null,
      "fzfg": false,
      "metar_trigger": false,
      "taf_trigger": false,
      "metar": "",
      "taf": ""
    },
    {
      "icao": "OMDB",
      "alert": "OK",
      "vis_m": null,
      "fzfg": false,
      "metar_trigger": false,
      "taf_trigger": false,
      "metar": "",
      "taf": ""
    },
    {
      "icao": "UAAA",
      "alert": "OK",
      "vis_m": 9999,
      "fzfg": false,
      "metar_trigger": false,
      "taf_trigger": false,
      "metar": "METAR UAAA 220300Z 36002MPS 310V030 9999 SCT100 BKN200 15/07 Q1011 NOSIG",
      "taf": "TAF UAAA 212302Z 2200/2224 35003MPS 9999 SCT050CB BKN100 TX23/2209Z TN07/2201Z"
    },
    {
      "icao": "UBBB",
      "alert": "OK",
      "vis_m": 9999,
      "fzfg": false,
      "metar_trigger": false,
      "taf_trigger": false,
      "metar": "METAR UBBB 220330Z 04004KT 9999 OVC019 12/08 Q1012 NOSIG",
      "taf": "TAF UBBB 212304Z 2200/2224 14005KT 9999 SCT030 TX16/2210Z TN09/2200Z"
    },
    {
      "icao": "UDSG",
      "alert": "OK",
      "vis_m": 9999,
      "fzfg": false,
      "metar_trigger": false,
      "taf_trigger": false,
      "metar": "METAR UDSG 220300Z 04002KT 9999 NSC M01/M03 Q1015 NOSIG",
      "taf": "TAF UDSG 212258Z 2200/2224 24006KT 9999 SCT050"
    },
    {
      "icao": "UDYZ",
      "alert": "OK",
      "vis_m": 9999,
      "fzfg": false,
      "metar_trigger": false,
      "taf_trigger": false,
      "metar": "METAR UDYZ 220300Z 06003KT 9999 FEW046 06/06 Q1014 NOSIG",
      "taf": ""
    },
    {
      "icao": "UGKO",
      "alert": "OK",
      "vis_m": 9999,
      "fzfg": false,
      "metar_trigger": false,
      "taf_trigger": false,
      "metar": "METAR UGKO 220300Z 11007KT 9999 BKN079 08/06 Q1012 NOSIG",
      "taf": "TAF UGKO 212300Z 2200/2224 08007KT 9999 SCT023 BKN050 TX22/2211Z TN07/2203Z"
    }
  ]
}