{
  "ts_utc": "2026-07-12T22:25:18Z",
  "threshold_m": 150,
  "source": "stations_override.txt (ICAO list) + aviationweather.gov (METAR/TAF raw)",
  "station_count": 159,
  "stations": [
    {
      "icao": "BIKF",
      "alert": "OK",
      "vis_m": 4000,
      "fzfg": false,
      "metar_trigger": false,
      "taf_trigger": false,
      "metar": "METAR BIKF 122200Z 18020KT 4000 DZRA BR BKN006 OVC013 10/10 Q1020",
      "taf": "TAF BIKF 121934Z 1221/1321 18025G35KT 2000 RADZ OVC005 TX11/1314Z TN10/1306Z"
    },
    {
      "icao": "BKPR",
      "alert": "OK",
      "vis_m": null,
      "fzfg": false,
      "metar_trigger": false,
      "taf_trigger": false,
      "metar": "",
      "taf": "TAF BKPR 121730Z 1218/1318 VRB03KT 9999 SCT090"
    },
    {
      "icao": "EBCI",
      "alert": "OK",
      "vis_m": 9999,
      "fzfg": false,
      "metar_trigger": false,
      "taf_trigger": false,
      "metar": "METAR EBCI 122150Z 04011KT CAVOK 22/14 Q1022 NOSIG",
      "taf": "TAF EBCI 121705Z 1218/1324 04012KT CAVOK"
    },
    {
      "icao": "EDDB",
      "alert": "OK",
      "vis_m": 9999,
      "fzfg": false,
      "metar_trigger": false,
      "taf_trigger": false,
      "metar": "METAR EDDB 122220Z AUTO 03007KT CAVOK 21/14 Q1021 NOSIG",
      "taf": "TAF EDDB 121700Z 1218/1318 01012KT CAVOK"
    },
    {
      "icao": "EDDH",
      "alert": "OK",
      "vis_m": 9999,
      "fzfg": false,
      "metar_trigger": false,
      "taf_trigger": false,
      "metar": "METAR EDDH 122220Z AUTO 33003KT CAVOK 16/14 Q1023 NOSIG",
      "taf": "TAF EDDH 121700Z 1218/1324 31010KT CAVOK"
    },
    {
      "icao": "EDDK",
      "alert": "OK",
      "vis_m": 9999,
      "fzfg": false,
      "metar_trigger": false,
      "taf_trigger": false,
      "metar": "METAR EDDK 122220Z AUTO 03003KT CAVOK 22/14 Q1021 NOSIG",
      "taf": "TAF EDDK 121700Z 1218/1324 04007KT CAVOK"
    },
    {
      "icao": "EDDN",
      "alert": "OK",
      "vis_m": 9999,
      "fzfg": false,
      "metar_trigger": false,
      "taf_trigger": false,
      "metar": "METAR EDDN 122220Z AUTO VRB02KT CAVOK 19/13 Q1021",
      "taf": "TAF EDDN 121700Z 1218/1318 02007KT CAVOK"
    },
    {
      "icao": "EDDS",
      "alert": "OK",
      "vis_m": 9999,
      "fzfg": false,
      "metar_trigger": false,
      "taf_trigger": false,
      "metar": "METAR EDDS 122220Z AUTO 05003KT CAVOK 21/09 Q1020",
      "taf": "TAF EDDS 121700Z 1218/1318 05008KT CAVOK"
    },
    {
      "icao": "EDFH",
      "alert": "OK",
      "vis_m": 9999,
      "fzfg": false,
      "metar_trigger": false,
      "taf_trigger": false,
      "metar": "METAR EDFH 122150Z 07004KT 030V100 CAVOK 23/11 Q1022",
      "taf": "TAF EDFH 121700Z 1218/1318 08007KT CAVOK"
    },
    {
      "icao": "EDJA",
      "alert": "OK",
      "vis_m": 9999,
      "fzfg": false,
      "metar_trigger": false,
      "taf_trigger": false,
      "metar": "METAR EDJA 122150Z AUTO 09006KT 9999 // NCD 18/09 Q1022",
      "taf": "TAF EDJA 121700Z 1218/1303 05005KT CAVOK"
    },
    {
      "icao": "EDLW",
      "alert": "OK",
      "vis_m": 9999,
      "fzfg": false,
      "metar_trigger": false,
      "taf_trigger": false,
      "metar": "METAR EDLW 122150Z 05004KT 360V080 CAVOK 21/10 Q1022",
      "taf": "TAF EDLW 121700Z 1218/1318 03006KT CAVOK"
    },
    {
      "icao": "EDNY",
      "alert": "OK",
      "vis_m": 9999,
      "fzfg": false,
      "metar_trigger": false,
      "taf_trigger": false,
      "metar": "METAR EDNY 122150Z AUTO 02008KT 9999 // NCD 23/09 Q1020",
      "taf": "TAF EDNY 121700Z 1218/1303 03007KT CAVOK"
    },
    {
      "icao": "EDSB",
      "alert": "OK",
      "vis_m": 9999,
      "fzfg": false,
      "metar_trigger": false,
      "taf_trigger": false,
      "metar": "METAR EDSB 122150Z 04004KT CAVOK 23/10 Q1019",
      "taf": "TAF EDSB 121700Z 1218/1318 03014KT CAVOK"
    },
    {
      "icao": "EETN",
      "alert": "OK",
      "vis_m": 9999,
      "fzfg": false,
      "metar_trigger": false,
      "taf_trigger": false,
      "metar": "METAR EETN 122220Z 35008KT 320V020 CAVOK 21/17 Q1017",
      "taf": "TAF EETN 121730Z 1218/1318 34010KT CAVOK"
    },
    {
      "icao": "EFTU",
      "alert": "OK",
      "vis_m": 9999,
      "fzfg": false,
      "metar_trigger": false,
      "taf_trigger": false,
      "metar": "METAR EFTU 122220Z AUTO 01005KT 330V040 CAVOK 17/15 Q1020",
      "taf": "TAF EFTU 122025Z 1221/1321 01005KT CAVOK"
    },
    {
      "icao": "EGBB",
      "alert": "OK",
      "vis_m": 9999,
      "fzfg": false,
      "metar_trigger": false,
      "taf_trigger": false,
      "metar": "METAR EGBB 122150Z 06010KT CAVOK 18/10 Q1027",
      "taf": "TAF EGBB 121654Z 1218/1318 06012KT CAVOK"
    },
    {
      "icao": "EGGP",
      "alert": "OK",
      "vis_m": 9999,
      "fzfg": false,
      "metar_trigger": false,
      "taf_trigger": false,
      "metar": "METAR EGGP 122150Z 09011KT 9999 5000N NSC 19/11 Q1027",
      "taf": "TAF EGGP 121657Z 1218/1318 10012KT CAVOK"
    },
    {
      "icao": "EGGW",
      "alert": "OK",
      "vis_m": 9999,
      "fzfg": false,
      "metar_trigger": false,
      "taf_trigger": false,
      "metar": "METAR EGGW 122150Z AUTO 04009KT 9999 NCD 17/10 Q1026",
      "taf": "TAF EGGW 121659Z 1218/1318 05012KT 9999 FEW020"
    },
    {
      "icao": "EGKK",
      "alert": "OK",
      "vis_m": 9999,
      "fzfg": false,
      "metar_trigger": false,
      "taf_trigger": false,
      "metar": "METAR EGKK 122150Z 05014KT 020V080 CAVOK 19/10 Q1023",
      "taf": "TAF EGKK 121655Z 1218/1324 07012KT 9999 FEW045"
    },
    {
      "icao": "EGNM",
      "alert": "OK",
      "vis_m": 9999,
      "fzfg": false,
      "metar_trigger": false,
      "taf_trigger": false,
      "metar": "METAR EGNM 122150Z 03008KT 360V070 CAVOK 14/11 Q1030",
      "taf": "TAF EGNM 121657Z 1218/1318 06010KT CAVOK"
    },
    {
      "icao": "EGPD",
      "alert": "OK",
      "vis_m": 9999,
      "fzfg": false,
      "metar_trigger": false,
      "taf_trigger": false,
      "metar": "METAR EGPD 122150Z AUTO 06002KT 9999 NCD 11/10 Q1032",
      "taf": "TAF EGPD 121656Z 1218/1318 10010KT 9999 SCT020"
    },
    {
      "icao": "EGPF",
      "alert": "OK",
      "vis_m": 9999,
      "fzfg": false,
      "metar_trigger": false,
      "taf_trigger": false,
      "metar": "METAR EGPF 122150Z AUTO 06010KT 9999 NCD 14/10 Q1031",
      "taf": "TAF EGPF 121653Z 1218/1318 06009KT 9999 FEW025"
    },
    {
      "icao": "EHBK",
      "alert": "OK",
      "vis_m": 9999,
      "fzfg": false,
      "metar_trigger": false,
      "taf_trigger": false,
      "metar": "METAR EHBK 122155Z AUTO 03012KT 9999 NCD 23/10 Q1022",
      "taf": "TAF EHBK 121656Z 1218/1324 03008KT CAVOK"
    },
    {
      "icao": "EHEH",
      "alert": "OK",
      "vis_m": 9999,
      "fzfg": false,
      "metar_trigger": false,
      "taf_trigger": false,
      "metar": "METAR EHEH 122155Z AUTO 02008KT 350V060 9999 NCD 21/13 Q1023 BLU",
      "taf": ""
    },
    {
      "icao": "EKBI",
      "alert": "OK",
      "vis_m": 9999,
      "fzfg": false,
      "metar_trigger": false,
      "taf_trigger": false,
      "metar": "METAR EKBI 122220Z AUTO 02006KT 9999 NCD 18/15 Q1024",
      "taf": "TAF EKBI 122027Z 1221/1321 06005KT 9999 FEW030"
    },
    {
      "icao": "EKCH",
      "alert": "OK",
      "vis_m": 9999,
      "fzfg": false,
      "metar_trigger": false,
      "taf_trigger": false,
      "metar": "METAR EKCH 122220Z AUTO 14005KT 9999 BKN150/// 19/16 Q1023 NOSIG",
      "taf": "TAF EKCH 122027Z 1221/1321 36005KT CAVOK"
    },
    {
      "icao": "ENAL",
      "alert": "OK",
      "vis_m": 9999,
      "fzfg": false,
      "metar_trigger": false,
      "taf_trigger": false,
      "metar": "METAR ENAL 122150Z 04008KT CAVOK 11/09 Q1031",
      "taf": "TAF ENAL 122000Z 1221/1306 04009KT CAVOK"
    },
    {
      "icao": "ENBR",
      "alert": "OK",
      "vis_m": 9999,
      "fzfg": false,
      "metar_trigger": false,
      "taf_trigger": false,
      "metar": "METAR ENBR 122150Z 33008KT CAVOK 12/10 Q1027 RMK WIND 1200FT 35013KT",
      "taf": "TAF ENBR 121700Z 1218/1318 34009KT CAVOK"
    },
    {
      "icao": "ENGM",
      "alert": "OK",
      "vis_m": 9999,
      "fzfg": false,
      "metar_trigger": false,
      "taf_trigger": false,
      "metar": "METAR ENGM 122150Z 34004KT CAVOK 16/07 Q1027",
      "taf": "TAF ENGM 121700Z 1218/1318 01008KT CAVOK"
    },
    {
      "icao": "ENHD",
      "alert": "OK",
      "vis_m": 9999,
      "fzfg": false,
      "metar_trigger": false,
      "taf_trigger": false,
      "metar": "METAR ENHD 122150Z AUTO 35016KT 9999 NCD 12/10 Q1027",
      "taf": "TAF ENHD 121400Z 1215/1222 34018KT CAVOK"
    },
    {
      "icao": "ENTC",
      "alert": "OK",
      "vis_m": 9999,
      "fzfg": false,
      "metar_trigger": false,
      "taf_trigger": false,
      "metar": "METAR ENTC 122150Z 22021KT 9999 BKN042 12/07 Q1025 RMK WIND 2600FT 21023KT",
      "taf": ""
    },
    {
      "icao": "ENTO",
      "alert": "OK",
      "vis_m": 3700,
      "fzfg": false,
      "metar_trigger": false,
      "taf_trigger": false,
      "metar": "METAR ENTO 122150Z AUTO 33002KT 3700 // NCD 18/10 Q1026",
      "taf": "TAF ENTO 121700Z 1218/1318 02008KT CAVOK"
    },
    {
      "icao": "ENVA",
      "alert": "OK",
      "vis_m": 9999,
      "fzfg": false,
      "metar_trigger": false,
      "taf_trigger": false,
      "metar": "METAR ENVA 122150Z 26010KT CAVOK 14/10 Q1031 RMK WIND 670FT 27011KT",
      "taf": "TAF ENVA 121700Z 1218/1318 27005KT CAVOK"
    },
    {
      "icao": "ENZV",
      "alert": "OK",
      "vis_m": 9999,
      "fzfg": false,
      "metar_trigger": false,
      "taf_trigger": false,
      "metar": "METAR ENZV 122150Z 31004KT CAVOK 13/11 Q1027",
      "taf": "TAF ENZV 121700Z 1218/1318 30008KT CAVOK"
    },
    {
      "icao": "EPGD",
      "alert": "OK",
      "vis_m": 9999,
      "fzfg": false,
      "metar_trigger": false,
      "taf_trigger": false,
      "metar": "METAR EPGD 122200Z 33008KT 9999 BKN003 16/15 Q1020",
      "taf": ""
    },
    {
      "icao": "EPKK",
      "alert": "OK",
      "vis_m": 9999,
      "fzfg": false,
      "metar_trigger": false,
      "taf_trigger": false,
      "metar": "METAR EPKK 122200Z VRB02KT 9999 BKN054 17/14 Q1018",
      "taf": "TAF EPKK 122030Z 1221/1321 VRB02KT 9999 BKN040"
    },
    {
      "icao": "EPKT",
      "alert": "OK",
      "vis_m": 9999,
      "fzfg": false,
      "metar_trigger": false,
      "taf_trigger": false,
      "metar": "METAR EPKT 122200Z 36002KT 9999 FEW021 BKN038 14/14 Q1019",
      "taf": "TAF EPKT 121730Z 1218/1318 35005KT 9999 SCT030"
    },
    {
      "icao": "EPLB",
      "alert": "OK",
      "vis_m": 9999,
      "fzfg": false,
      "metar_trigger": false,
      "taf_trigger": false,
      "metar": "METAR EPLB 122200Z 29005KT CAVOK 14/13 Q1016",
      "taf": "TAF EPLB 121730Z 1218/1318 VRB04KT 9999 BKN035"
    },
    {
      "icao": "EPMO",
      "alert": "OK",
      "vis_m": 9999,
      "fzfg": false,
      "metar_trigger": false,
      "taf_trigger": false,
      "metar": "METAR EPMO 122200Z 30004KT CAVOK 15/15 Q1018",
      "taf": "TAF EPMO 121730Z 1218/1318 34006KT 9999 BKN030"
    },
    {
      "icao": "EPPO",
      "alert": "OK",
      "vis_m": 9999,
      "fzfg": false,
      "metar_trigger": false,
      "taf_trigger": false,
      "metar": "METAR EPPO 122200Z 36003KT 9999 SCT031 19/16 Q1020",
      "taf": "TAF EPPO 121730Z 1218/1318 36008KT CAVOK"
    },
    {
      "icao": "EPRA",
      "alert": "OK",
      "vis_m": 9999,
      "fzfg": false,
      "metar_trigger": false,
      "taf_trigger": false,
      "metar": "METAR EPRA 122200Z 31002KT CAVOK 15/14 Q1018",
      "taf": "TAF EPRA 122030Z 1221/1306 33004KT 9999 SCT040"
    },
    {
      "icao": "EPRZ",
      "alert": "OK",
      "vis_m": 9999,
      "fzfg": false,
      "metar_trigger": false,
      "taf_trigger": false,
      "metar": "METAR EPRZ 122200Z 28004KT 9999 BKN005 BKN026 16/15 Q1017",
      "taf": ""
    },
    {
      "icao": "EPSC",
      "alert": "OK",
      "vis_m": 9999,
      "fzfg": false,
      "metar_trigger": false,
      "taf_trigger": false,
      "metar": "METAR EPSC 122200Z 34006KT 310V010 CAVOK 17/16 Q1021",
      "taf": "TAF EPSC 121730Z 1218/1318 01006KT 9999 SCT035"
    },
    {
      "icao": "EPSY",
      "alert": "OK",
      "vis_m": 9999,
      "fzfg": false,
      "metar_trigger": false,
      "taf_trigger": false,
      "metar": "METAR EPSY 122200Z 31007KT 290V350 CAVOK 17/16 Q1017",
      "taf": "TAF EPSY 122030Z 1221/1306 31004KT 9999 BKN040"
    },
    {
      "icao": "EPWA",
      "alert": "OK",
      "vis_m": 9999,
      "fzfg": false,
      "metar_trigger": false,
      "taf_trigger": false,
      "metar": "METAR EPWA 122200Z 27003KT 9999 SCT042 15/14 Q1018 NOSIG",
      "taf": "TAF EPWA 122030Z 1221/1321 31005KT 9999 BKN030"
    },
    {
      "icao": "EPWR",
      "alert": "OK",
      "vis_m": 9999,
      "fzfg": false,
      "metar_trigger": false,
      "taf_trigger": false,
      "metar": "METAR EPWR 122200Z 32004KT 9999 SCT043 20/15 Q1019",
      "taf": "TAF EPWR 122030Z 1221/1321 34010KT CAVOK"
    },
    {
      "icao": "ESGG",
      "alert": "OK",
      "vis_m": 9999,
      "fzfg": false,
      "metar_trigger": false,
      "taf_trigger": false,
      "metar": "METAR ESGG 122150Z 04007KT CAVOK 17/15 Q1024",
      "taf": "TAF ESGG 122030Z 1221/1321 03009KT CAVOK"
    },
    {
      "icao": "ESKN",
      "alert": "OK",
      "vis_m": 9999,
      "fzfg": false,
      "metar_trigger": false,
      "taf_trigger": false,
      "metar": "METAR ESKN 122150Z 34007KT 320V020 CAVOK 17/08 Q1024",
      "taf": "TAF ESKN 122030Z 1221/1321 35005KT CAVOK"
    },
    {
      "icao": "ESMS",
      "alert": "OK",
      "vis_m": 9999,
      "fzfg": false,
      "metar_trigger": false,
      "taf_trigger": false,
      "metar": "METAR ESMS 122150Z 14006KT CAVOK 17/17 Q1023",
      "taf": "TAF ESMS 122027Z 1221/1321 15004KT CAVOK"
    },
    {
      "icao": "ESSA",
      "alert": "OK",
      "vis_m": 9999,
      "fzfg": false,
      "metar_trigger": false,
      "taf_trigger": false,
      "metar": "METAR ESSA 122150Z 34006KT CAVOK 13/07 Q1024 NOSIG",
      "taf": "TAF ESSA 122030Z 1221/1321 36009KT CAVOK"
    },
    {
      "icao": "EYKA",
      "alert": "OK",
      "vis_m": 9999,
      "fzfg": false,
      "metar_trigger": false,
      "taf_trigger": false,
      "metar": "METAR EYKA 122220Z AUTO VRB04KT 9999 SCT012/// SCT024/// BKN034/// 19/17 Q1016",
      "taf": "TAF EYKA 121700Z 1218/1318 VRB03KT 9000 NSC"
    },
    {
      "icao": "EYPA",
      "alert": "OK",
      "vis_m": 9999,
      "fzfg": false,
      "metar_trigger": false,
      "taf_trigger": false,
      "metar": "METAR EYPA 122220Z 35003KT 300V040 CAVOK 17/16 Q1017",
      "taf": "TAF EYPA 121700Z 1218/1318 VRB03KT 9000 NSC"
    },
    {
      "icao": "EYVI",
      "alert": "OK",
      "vis_m": 9999,
      "fzfg": false,
      "metar_trigger": false,
      "taf_trigger": false,
      "metar": "METAR EYVI 122220Z 34006KT 9999 -SHRA SCT014CB 17/17 Q1014 NOSIG",
      "taf": "TAF EYVI 121710Z 1218/1318 VRB03KT 9000 NSC"
    },
    {
      "icao": "GCFV",
      "alert": "OK",
      "vis_m": 9999,
      "fzfg": false,
      "metar_trigger": false,
      "taf_trigger": false,
      "metar": "METAR GCFV 122200Z 36008KT 9999 FEW035 23/16 Q1018",
      "taf": "TAF GCFV 122000Z 1221/1321 06010KT 9999 SCT030 TX25/1314Z TN21/1306Z"
    },
    {
      "icao": "GCLP",
      "alert": "OK",
      "vis_m": 9999,
      "fzfg": false,
      "metar_trigger": false,
      "taf_trigger": false,
      "metar": "METAR GCLP 122200Z 36009KT 9999 FEW030 23/16 Q1018 NOSIG",
      "taf": "TAF GCLP 122000Z 1221/1321 02016KT 9999 FEW030 TX26/1314Z TN20/1306Z"
    },
    {
      "icao": "GCTS",
      "alert": "OK",
      "vis_m": 9999,
      "fzfg": false,
      "metar_trigger": false,
      "taf_trigger": false,
      "metar": "METAR GCTS 122200Z 35005KT 320V050 9999 BKN030 23/16 Q1018 NOSIG",
      "taf": "TAF GCTS 122000Z 1221/1321 05009KT 9999 SCT030 TX26/1314Z TN19/1306Z"
    },
    {
      "icao": "GMAD",
      "alert": "OK",
      "vis_m": 8000,
      "fzfg": false,
      "metar_trigger": false,
      "taf_trigger": false,
      "metar": "METAR GMAD 122200Z 20007KT 8000 NSC 22/17 Q1015 NOSIG",
      "taf": ""
    },
    {
      "icao": "GMMN",
      "alert": "OK",
      "vis_m": 9999,
      "fzfg": false,
      "metar_trigger": false,
      "taf_trigger": false,
      "metar": "METAR GMMN 122200Z 04007KT 9999 FEW030 22/17 Q1017 NOSIG",
      "taf": "TAF GMMN 121700Z 1218/1324 36010KT 9999 SCT030"
    },
    {
      "icao": "GMMX",
      "alert": "OK",
      "vis_m": 9999,
      "fzfg": false,
      "metar_trigger": false,
      "taf_trigger": false,
      "metar": "METAR GMMX 122200Z 33005KT 290V060 9999 SCT030 25/17 Q1016 NOSIG",
      "taf": "TAF GMMX 121700Z 1218/1324 30006KT 8000 SCT030"
    },
    {
      "icao": "HEGN",
      "alert": "OK",
      "vis_m": 9999,
      "fzfg": false,
      "metar_trigger": false,
      "taf_trigger": false,
      "metar": "METAR HEGN 122200Z 28010KT CAVOK 31/10 Q1006 NOSIG",
      "taf": "TAF HEGN 121700Z 1218/1324 31015KT CAVOK"
    },
    {
      "icao": "HEMA",
      "alert": "OK",
      "vis_m": 9999,
      "fzfg": false,
      "metar_trigger": false,
      "taf_trigger": false,
      "metar": "METAR HEMA 122200Z 29009KT CAVOK 31/08 Q1007 NOSIG",
      "taf": "TAF HEMA 121700Z 1218/1324 30015KT CAVOK"
    },
    {
      "icao": "HESH",
      "alert": "OK",
      "vis_m": 9999,
      "fzfg": false,
      "metar_trigger": false,
      "taf_trigger": false,
      "metar": "METAR HESH 122200Z 35008KT CAVOK 33/15 Q1005 NOSIG",
      "taf": "TAF HESH 121700Z 1218/1324 35014KT CAVOK"
    },
    {
      "icao": "HESX",
      "alert": "OK",
      "vis_m": 9999,
      "fzfg": false,
      "metar_trigger": false,
      "taf_trigger": false,
      "metar": "METAR HESX 122200Z 35005KT CAVOK 23/17 Q1011 NOSIG",
      "taf": "TAF HESX 121700Z 1218/1324 35015KT CAVOK"
    },
    {
      "icao": "LATI",
      "alert": "OK",
      "vis_m": 9999,
      "fzfg": false,
      "metar_trigger": false,
      "taf_trigger": false,
      "metar": "METAR LATI 122220Z 14003KT CAVOK 22/16 Q1015 NOSIG",
      "taf": "TAF LATI 121700Z 1218/1318 34008KT CAVOK TX36/1312Z TN17/1304Z"
    },
    {
      "icao": "LBPD",
      "alert": "OK",
      "vis_m": 9999,
      "fzfg": false,
      "metar_trigger": false,
      "taf_trigger": false,
      "metar": "METAR LBPD 122200Z AUTO 33003KT 280V020 9999 OVC170/// 21/18 Q1015",
      "taf": "TAF LBPD 121700Z 1218/1318 VRB03KT 9999 SCT070"
    },
    {
      "icao": "LBSF",
      "alert": "OK",
      "vis_m": 9999,
      "fzfg": false,
      "metar_trigger": false,
      "taf_trigger": false,
      "metar": "METAR LBSF 122200Z AUTO 00000KT 9999 NSC 18/16 Q1018 NOSIG",
      "taf": "TAF LBSF 121700Z 1218/1318 29012KT 9999 SCT050"
    },
    {
      "icao": "LBWN",
      "alert": "OK",
      "vis_m": 9999,
      "fzfg": false,
      "metar_trigger": false,
      "taf_trigger": false,
      "metar": "METAR LBWN 122200Z AUTO 26006KT 9999 NSC 21/19 Q1014 NOSIG",
      "taf": "TAF LBWN 121700Z 1218/1318 VRB04KT 9999 SCT050"
    },
    {
      "icao": "LCLK",
      "alert": "OK",
      "vis_m": 9999,
      "fzfg": false,
      "metar_trigger": false,
      "taf_trigger": false,
      "metar": "METAR LCLK 122200Z 17002KT CAVOK 25/24 Q1006 NOSIG",
      "taf": "TAF LCLK 121730Z 1218/1318 22005KT CAVOK"
    },
    {
      "icao": "LCPH",
      "alert": "OK",
      "vis_m": 9999,
      "fzfg": false,
      "metar_trigger": false,
      "taf_trigger": false,
      "metar": "METAR LCPH 122200Z 35004KT CAVOK 25/21 Q1007 NOSIG",
      "taf": "TAF LCPH 121730Z 1218/1318 34008KT CAVOK"
    },
    {
      "icao": "LEAL",
      "alert": "OK",
      "vis_m": 9999,
      "fzfg": false,
      "metar_trigger": false,
      "taf_trigger": false,
      "metar": "METAR LEAL 122200Z 02003KT 340V070 9999 SCT020 BKN028 28/25 Q1013 NOSIG",
      "taf": "TAF LEAL 121700Z 1218/1318 09010KT 9999 FEW030 TX33/1312Z TN24/1306Z"
    },
    {
      "icao": "LEBB",
      "alert": "OK",
      "vis_m": 9999,
      "fzfg": false,
      "metar_trigger": false,
      "taf_trigger": false,
      "metar": "METAR LEBB 122200Z 31012KT 280V340 9999 FEW019 SCT028 23/21 Q1012 TEMPO 3000 TSRA SCT040CB",
      "taf": "TAF LEBB 121700Z 1218/1318 34009KT 9999 SCT030 TX28/1314Z TN21/1305Z"
    },
    {
      "icao": "LEBL",
      "alert": "OK",
      "vis_m": 9999,
      "fzfg": false,
      "metar_trigger": false,
      "taf_trigger": false,
      "metar": "METAR LEBL 122200Z 05006KT 9999 FEW015 28/17 Q1014 NOSIG",
      "taf": "TAF LEBL 121700Z 1218/1318 06012KT 9999 SCT015 TX32/1312Z TN25/1306Z"
    },
    {
      "icao": "LECH",
      "alert": "OK",
      "vis_m": 7000,
      "fzfg": false,
      "metar_trigger": false,
      "taf_trigger": false,
      "metar": "METAR LECH 122200Z AUTO 02003KT 350V080 7000 NSC 24/22 Q1016",
      "taf": "TAF LECH 121700Z 1218/1318 09010KT CAVOK TX33/1312Z TN19/1306Z"
    },
    {
      "icao": "LEMD",
      "alert": "OK",
      "vis_m": 9999,
      "fzfg": false,
      "metar_trigger": false,
      "taf_trigger": false,
      "metar": "METAR LEMD 122200Z 24007KT 220V280 CAVOK 27/08 Q1015 NOSIG",
      "taf": ""
    },
    {
      "icao": "LEMG",
      "alert": "OK",
      "vis_m": 9999,
      "fzfg": false,
      "metar_trigger": false,
      "taf_trigger": false,
      "metar": "METAR LEMG 122200Z 29008KT 260V320 CAVOK 27/14 Q1014 NOSIG",
      "taf": "TAF LEMG 121700Z 1218/1318 VRB03KT CAVOK TX34/1314Z TN21/1305Z"
    },
    {
      "icao": "LEVC",
      "alert": "OK",
      "vis_m": 9999,
      "fzfg": false,
      "metar_trigger": false,
      "taf_trigger": false,
      "metar": "METAR LEVC 122200Z 07004KT 010V090 9999 FEW016 SCT032 27/24 Q1014 NOSIG",
      "taf": "TAF LEVC 121700Z 1218/1318 07010KT 9999 FEW020 TX31/1314Z TN23/1306Z"
    },
    {
      "icao": "LEXJ",
      "alert": "OK",
      "vis_m": 8000,
      "fzfg": false,
      "metar_trigger": false,
      "taf_trigger": false,
      "metar": "METAR LEXJ 122200Z AUTO 28013KT 8000 OVC017 21/19 Q1013",
      "taf": "TAF LEXJ 122000Z 1221/1321 28009KT 9999 FEW020 SCT040 TX27/1314Z TN21/1304Z"
    },
    {
      "icao": "LEZG",
      "alert": "OK",
      "vis_m": 9999,
      "fzfg": false,
      "metar_trigger": false,
      "taf_trigger": false,
      "metar": "METAR LEZG 122200Z 10011KT CAVOK 27/19 Q1012 NOSIG",
      "taf": "TAF LEZG 121700Z 1218/1318 10010KT CAVOK TX37/1315Z TN23/1306Z"
    },
    {
      "icao": "LEZL",
      "alert": "OK",
      "vis_m": 9999,
      "fzfg": false,
      "metar_trigger": false,
      "taf_trigger": false,
      "metar": "METAR LEZL 122200Z 23008KT 190V280 CAVOK 23/17 Q1015 NOSIG",
      "taf": "TAF LEZL 122000Z 1221/1321 23010KT CAVOK TX33/1315Z TN18/1305Z"
    },
    {
      "icao": "LFBD",
      "alert": "OK",
      "vis_m": 9999,
      "fzfg": false,
      "metar_trigger": false,
      "taf_trigger": false,
      "metar": "METAR LFBD 122200Z AUTO 17005KT CAVOK 31/14 Q1008 TEMPO VRB25G40KT 3000 TSRA BKN080CB",
      "taf": "TAF LFBD 121700Z 1218/1324 10010KT CAVOK TX38/1218Z TN24/1305Z"
    },
    {
      "icao": "LFLL",
      "alert": "OK",
      "vis_m": 9999,
      "fzfg": false,
      "metar_trigger": false,
      "taf_trigger": false,
      "metar": "METAR LFLL 122200Z 14008KT CAVOK 30/12 Q1014 NOSIG",
      "taf": "TAF LFLL 121700Z 1218/1324 04005KT CAVOK"
    },
    {
      "icao": "LFLS",
      "alert": "OK",
      "vis_m": 9999,
      "fzfg": false,
      "metar_trigger": false,
      "taf_trigger": false,
      "metar": "METAR LFLS 122200Z AUTO 34004KT CAVOK 25/14 Q1016",
      "taf": ""
    },
    {
      "icao": "LFMN",
      "alert": "OK",
      "vis_m": 9999,
      "fzfg": false,
      "metar_trigger": false,
      "taf_trigger": false,
      "metar": "METAR LFMN 122200Z 21003KT CAVOK 27/24 Q1016 NOSIG",
      "taf": "TAF LFMN 122000Z 1221/1403 VRB04KT CAVOK"
    },
    {
      "icao": "LFOB",
      "alert": "OK",
      "vis_m": 9999,
      "fzfg": false,
      "metar_trigger": false,
      "taf_trigger": false,
      "metar": "METAR LFOB 122200Z AUTO 03014KT CAVOK 26/15 Q1018 NOSIG",
      "taf": "TAF LFOB 121700Z 1218/1318 04012G22KT CAVOK"
    },
    {
      "icao": "LFPO",
      "alert": "OK",
      "vis_m": 9999,
      "fzfg": false,
      "metar_trigger": false,
      "taf_trigger": false,
      "metar": "METAR LFPO 122200Z AUTO 05009KT CAVOK 28/10 Q1017 NOSIG",
      "taf": "TAF LFPO 121700Z 1218/1324 06012KT CAVOK"
    },
    {
      "icao": "LFSB",
      "alert": "OK",
      "vis_m": 9999,
      "fzfg": false,
      "metar_trigger": false,
      "taf_trigger": false,
      "metar": "METAR LFSB 122200Z AUTO VRB01KT CAVOK 19/10 Q1018 NOSIG",
      "taf": "TAF LFSB 121700Z 1218/1318 02008KT CAVOK"
    },
    {
      "icao": "LGAV",
      "alert": "OK",
      "vis_m": 9999,
      "fzfg": false,
      "metar_trigger": false,
      "taf_trigger": false,
      "metar": "METAR LGAV 122150Z 00000KT CAVOK 24/12 Q1013 NOSIG",
      "taf": "TAF LGAV 121700Z 1218/1318 04010KT 9999 FEW025"
    },
    {
      "icao": "LGTS",
      "alert": "OK",
      "vis_m": 9999,
      "fzfg": false,
      "metar_trigger": false,
      "taf_trigger": false,
      "metar": "METAR LGTS 122150Z VRB03KT 9999 FEW020 25/20 Q1014 NOSIG",
      "taf": "TAF LGTS 121700Z 1218/1318 16013KT 9999 FEW030"
    },
    {
      "icao": "LHBP",
      "alert": "OK",
      "vis_m": 9999,
      "fzfg": false,
      "metar_trigger": false,
      "taf_trigger": false,
      "metar": "METAR LHBP 122200Z 34004KT 320V020 CAVOK 18/14 Q1017 NOSIG",
      "taf": "TAF LHBP 121715Z 1218/1318 31012KT CAVOK"
    },
    {
      "icao": "LHDC",
      "alert": "OK",
      "vis_m": 9999,
      "fzfg": false,
      "metar_trigger": false,
      "taf_trigger": false,
      "metar": "METAR LHDC 122145Z AUTO 03006KT 010V070 CAVOK 18/13 Q1016",
      "taf": "TAF LHDC 121715Z 1218/1303 33005KT CAVOK"
    },
    {
      "icao": "LIBD",
      "alert": "OK",
      "vis_m": 9999,
      "fzfg": false,
      "metar_trigger": false,
      "taf_trigger": false,
      "metar": "METAR LIBD 122150Z 33003KT 290V020 CAVOK 25/20 Q1016",
      "taf": "TAF LIBD 121700Z 1218/1318 VRB05KT CAVOK"
    },
    {
      "icao": "LIBG",
      "alert": "OK",
      "vis_m": 9999,
      "fzfg": false,
      "metar_trigger": false,
      "taf_trigger": false,
      "metar": "METAR LIBG 122150Z AUTO VRB04KT 9999 NCD 25/20 Q1015",
      "taf": "TAF LIBG 121700Z 1218/1318 VRB05KT 9999 FEW040"
    },
    {
      "icao": "LIBP",
      "alert": "OK",
      "vis_m": 9999,
      "fzfg": false,
      "metar_trigger": false,
      "taf_trigger": false,
      "metar": "METAR LIBP 122150Z AUTO 23002KT 9999 NCD 22/20 Q1018",
      "taf": "TAF LIBP 121700Z 1218/1318 VRB05KT CAVOK"
    },
    {
      "icao": "LIBR",
      "alert": "OK",
      "vis_m": 9999,
      "fzfg": false,
      "metar_trigger": false,
      "taf_trigger": false,
      "metar": "METAR LIBR 122150Z 35011KT CAVOK 26/21 Q1015",
      "taf": "TAF LIBR 121700Z 1218/1318 34013KT CAVOK"
    },
    {
      "icao": "LICA",
      "alert": "OK",
      "vis_m": 9999,
      "fzfg": false,
      "metar_trigger": false,
      "taf_trigger": false,
      "metar": "METAR LICA 122150Z AUTO 08006KT 9999 NCD 24/21 Q1015",
      "taf": "TAF LICA 121700Z 1218/1318 VRB05KT CAVOK"
    },
    {
      "icao": "LICC",
      "alert": "OK",
      "vis_m": 9999,
      "fzfg": false,
      "metar_trigger": false,
      "taf_trigger": false,
      "metar": "METAR LICC 122150Z 28006KT 260V330 CAVOK 27/13 Q1013",
      "taf": "TAF LICC 121700Z 1218/1318 26009KT CAVOK"
    },
    {
      "icao": "LICJ",
      "alert": "OK",
      "vis_m": 9999,
      "fzfg": false,
      "metar_trigger": false,
      "taf_trigger": false,
      "metar": "METAR LICJ 122150Z 06009KT CAVOK 28/23 Q1015",
      "taf": "TAF LICJ 121700Z 1218/1318 05012KT CAVOK"
    },
    {
      "icao": "LIMC",
      "alert": "OK",
      "vis_m": 9999,
      "fzfg": false,
      "metar_trigger": false,
      "taf_trigger": false,
      "metar": "METAR LIMC 122150Z 04003KT CAVOK 24/17 Q1017 NOSIG",
      "taf": "TAF LIMC 121700Z 1218/1324 VRB05KT CAVOK"
    },
    {
      "icao": "LIME",
      "alert": "OK",
      "vis_m": 9999,
      "fzfg": false,
      "metar_trigger": false,
      "taf_trigger": false,
      "metar": "METAR LIME 122150Z 06004KT CAVOK 26/20 Q1018 NOSIG",
      "taf": "TAF LIME 121700Z 1218/1318 VRB05KT CAVOK"
    },
    {
      "icao": "LIMF",
      "alert": "OK",
      "vis_m": 9999,
      "fzfg": false,
      "metar_trigger": false,
      "taf_trigger": false,
      "metar": "METAR LIMF 122150Z 36007KT CAVOK 25/19 Q1018",
      "taf": "TAF LIMF 121700Z 1218/1318 VRB05KT CAVOK"
    },
    {
      "icao": "LIMJ",
      "alert": "OK",
      "vis_m": 9999,
      "fzfg": false,
      "metar_trigger": false,
      "taf_trigger": false,
      "metar": "METAR LIMJ 122150Z 35003KT 330V030 CAVOK 27/20 Q1016",
      "taf": "TAF LIMJ 121700Z 1218/1318 VRB05KT CAVOK"
    },
    {
      "icao": "LIPE",
      "alert": "OK",
      "vis_m": 9999,
      "fzfg": false,
      "metar_trigger": false,
      "taf_trigger": false,
      "metar": "METAR LIPE 122150Z 10008KT CAVOK 25/19 Q1017",
      "taf": "TAF LIPE 121700Z 1218/1318 12010KT CAVOK"
    },
    {
      "icao": "LIPH",
      "alert": "OK",
      "vis_m": 9999,
      "fzfg": false,
      "metar_trigger": false,
      "taf_trigger": false,
      "metar": "METAR LIPH 122150Z AUTO 04004KT 9999 FEW084/// 25/22 Q1018",
      "taf": "TAF LIPH 121700Z 1218/1318 VRB05KT CAVOK"
    },
    {
      "icao": "LIPQ",
      "alert": "OK",
      "vis_m": 9999,
      "fzfg": false,
      "metar_trigger": false,
      "taf_trigger": false,
      "metar": "METAR LIPQ 122150Z AUTO 05004KT 9999 FEW098/// SCT110/// 23/20 Q1018",
      "taf": "TAF LIPQ 121700Z 1218/1318 VRB05KT 9999 SCT040"
    },
    {
      "icao": "LIPR",
      "alert": "OK",
      "vis_m": null,
      "fzfg": false,
      "metar_trigger": false,
      "taf_trigger": false,
      "metar": "",
      "taf": "TAF LIPR 121700Z 1218/1318 VRB05KT CAVOK"
    },
    {
      "icao": "LIPX",
      "alert": "OK",
      "vis_m": 9999,
      "fzfg": false,
      "metar_trigger": false,
      "taf_trigger": false,
      "metar": "METAR LIPX 122150Z 09006KT CAVOK 26/22 Q1017",
      "taf": "TAF LIPX 121700Z 1218/1318 VRB05KT CAVOK"
    },
    {
      "icao": "LIPY",
      "alert": "OK",
      "vis_m": 9999,
      "fzfg": false,
      "metar_trigger": false,
      "taf_trigger": false,
      "metar": "METAR LIPY 122150Z AUTO 23002KT 9999 NCD 23/17 Q1018",
      "taf": "TAF LIPY 121700Z 1218/1318 VRB05KT CAVOK"
    },
    {
      "icao": "LIPZ",
      "alert": "OK",
      "vis_m": 9999,
      "fzfg": false,
      "metar_trigger": false,
      "taf_trigger": false,
      "metar": "METAR LIPZ 122150Z 13004KT 100V160 CAVOK 26/22 Q1018 NOSIG",
      "taf": "TAF LIPZ 121700Z 1218/1324 VRB05KT CAVOK"
    },
    {
      "icao": "LIRF",
      "alert": "OK",
      "vis_m": 9999,
      "fzfg": false,
      "metar_trigger": false,
      "taf_trigger": false,
      "metar": "METAR LIRF 122150Z 30003KT CAVOK 26/24 Q1015 NOSIG",
      "taf": ""
    },
    {
      "icao": "LIRN",
      "alert": "OK",
      "vis_m": 9999,
      "fzfg": false,
      "metar_trigger": false,
      "taf_trigger": false,
      "metar": "METAR LIRN 122150Z 07007KT 040V100 CAVOK 29/16 Q1016 NOSIG",
      "taf": "TAF LIRN 121700Z 1218/1318 04006KT CAVOK"
    },
    {
      "icao": "LIRP",
      "alert": "OK",
      "vis_m": 9999,
      "fzfg": false,
      "metar_trigger": false,
      "taf_trigger": false,
      "metar": "METAR LIRP 122145Z 18002KT CAVOK 23/21 Q1015 NOSIG",
      "taf": "TAF LIRP 121700Z 1218/1318 27010KT CAVOK"
    },
    {
      "icao": "LIRZ",
      "alert": "OK",
      "vis_m": 9999,
      "fzfg": false,
      "metar_trigger": false,
      "taf_trigger": false,
      "metar": "METAR LIRZ 122150Z AUTO 36011KT 9999 NCD 26/15 Q1017",
      "taf": "TAF LIRZ 121700Z 1218/1318 04013KT CAVOK"
    },
    {
      "icao": "LJLJ",
      "alert": "OK",
      "vis_m": 9999,
      "fzfg": false,
      "metar_trigger": false,
      "taf_trigger": false,
      "metar": "METAR LJLJ 122200Z 30003KT 9999 FEW070 18/15 Q1021 NOSIG",
      "taf": "TAF LJLJ 121700Z 1218/1318 14007KT 9999 FEW050"
    },
    {
      "icao": "LKMT",
      "alert": "OK",
      "vis_m": 9999,
      "fzfg": false,
      "metar_trigger": false,
      "taf_trigger": false,
      "metar": "METAR LKMT 122200Z VRB01KT 9999 SCT047 17/16 Q1019 NOSIG",
      "taf": "TAF LKMT 121700Z 1218/1318 VRB02KT 9999 BKN040"
    },
    {
      "icao": "LKPR",
      "alert": "OK",
      "vis_m": 9999,
      "fzfg": false,
      "metar_trigger": false,
      "taf_trigger": false,
      "metar": "METAR LKPR 122200Z 33005KT CAVOK 19/12 Q1021 NOSIG",
      "taf": "TAF LKPR 122000Z 1221/1403 33008KT CAVOK"
    },
    {
      "icao": "LLBG",
      "alert": "OK",
      "vis_m": 9999,
      "fzfg": false,
      "metar_trigger": false,
      "taf_trigger": false,
      "metar": "METAR LLBG 122220Z 16006KT 9999 FEW020 26/22 Q1008 NOSIG",
      "taf": "TAF LLBG 121705Z 1218/1318 VRB04KT 9999 FEW022 TX31/1311Z TN22/1302Z"
    },
    {
      "icao": "LMML",
      "alert": "OK",
      "vis_m": 9999,
      "fzfg": false,
      "metar_trigger": false,
      "taf_trigger": false,
      "metar": "METAR LMML 122215Z 31002KT 9999 FEW011 25/24 Q1015 NOSIG",
      "taf": "TAF LMML 121700Z 1218/1318 18010KT 9999 FEW015"
    },
    {
      "icao": "LOWW",
      "alert": "OK",
      "vis_m": 9999,
      "fzfg": false,
      "metar_trigger": false,
      "taf_trigger": false,
      "metar": "METAR LOWW 122150Z 32007KT CAVOK 22/13 Q1019 NOSIG",
      "taf": "TAF LOWW 122015Z 1221/1403 33005KT CAVOK TX30/1315Z TN17/1403Z"
    },
    {
      "icao": "LPFR",
      "alert": "OK",
      "vis_m": 9999,
      "fzfg": false,
      "metar_trigger": false,
      "taf_trigger": false,
      "metar": "METAR LPFR 122200Z 26008KT CAVOK 22/20 Q1015",
      "taf": "TAF LPFR 121700Z 1218/1318 25010KT 9999 FEW020"
    },
    {
      "icao": "LPMA",
      "alert": "OK",
      "vis_m": 9999,
      "fzfg": false,
      "metar_trigger": false,
      "taf_trigger": false,
      "metar": "METAR LPMA 122200Z VRB02KT 9999 BKN015 22/17 Q1018",
      "taf": "TAF LPMA 121700Z 1218/1318 VRB05KT 9999 SCT016 SCT033"
    },
    {
      "icao": "LPPR",
      "alert": "OK",
      "vis_m": 9999,
      "fzfg": false,
      "metar_trigger": false,
      "taf_trigger": false,
      "metar": "METAR LPPR 122200Z 19005KT CAVOK 19/16 Q1015",
      "taf": "TAF LPPR 121700Z 1218/1318 20010KT 9999 SCT015"
    },
    {
      "icao": "LPPS",
      "alert": "OK",
      "vis_m": 9999,
      "fzfg": false,
      "metar_trigger": false,
      "taf_trigger": false,
      "metar": "METAR LPPS 122200Z 30006KT 9999 FEW012 22/18 Q1018",
      "taf": "TAF LPPS 121700Z 1218/1324 31010KT 9999 SCT015"
    },
    {
      "icao": "LPPT",
      "alert": "OK",
      "vis_m": 9999,
      "fzfg": false,
      "metar_trigger": false,
      "taf_trigger": false,
      "metar": "METAR LPPT 122200Z 24006KT CAVOK 20/15 Q1016 NOSIG",
      "taf": "TAF LPPT 121700Z 1218/1324 23012KT 9999 SCT020"
    },
    {
      "icao": "LQBK",
      "alert": "OK",
      "vis_m": 9999,
      "fzfg": false,
      "metar_trigger": false,
      "taf_trigger": false,
      "metar": "METAR LQBK 122200Z 00000KT CAVOK 17/13 Q1019 NOSIG",
      "taf": "TAF LQBK 121700Z 1218/1318 29006KT CAVOK TX33/1314Z TN16/1304Z"
    },
    {
      "icao": "LQSA",
      "alert": "OK",
      "vis_m": 9999,
      "fzfg": false,
      "metar_trigger": false,
      "taf_trigger": false,
      "metar": "METAR LQSA 122200Z 12004KT CAVOK 16/16 Q1021",
      "taf": "TAF LQSA 121700Z 1218/1318 VRB02KT CAVOK TX27/1313Z TN15/1303Z"
    },
    {
      "icao": "LQTZ",
      "alert": "OK",
      "vis_m": 9999,
      "fzfg": false,
      "metar_trigger": false,
      "taf_trigger": false,
      "metar": "METAR LQTZ 122200Z VRB02KT CAVOK 17/16 Q1019",
      "taf": "TAF LQTZ 121700Z 1218/1318 03006KT 9999 SCT045 TX29/1314Z TN14/1303Z"
    },
    {
      "icao": "LRBC",
      "alert": "OK",
      "vis_m": 9999,
      "fzfg": false,
      "metar_trigger": false,
      "taf_trigger": false,
      "metar": "METAR LRBC 122200Z 33005KT 9999 BKN018 17/16 Q1015",
      "taf": "TAF LRBC 122000Z 1221/1306 VRB04KT 9999 SCT040"
    },
    {
      "icao": "LRBS",
      "alert": "OK",
      "vis_m": 9999,
      "fzfg": false,
      "metar_trigger": false,
      "taf_trigger": false,
      "metar": "METAR LRBS 122200Z 11006KT CAVOK 21/15 Q1015 NOSIG",
      "taf": "TAF LRBS 121700Z 1218/1318 VRB04KT 9999 SCT045"
    },
    {
      "icao": "LRBV",
      "alert": "OK",
      "vis_m": 9999,
      "fzfg": false,
      "metar_trigger": false,
      "taf_trigger": false,
      "metar": "METAR LRBV 122200Z AUTO 23008KT 9999 OVC080/// 14/13 Q1017",
      "taf": "TAF LRBV 121700Z 1218/1303 20006KT 9999 SCT015 SCT040"
    },
    {
      "icao": "LRCL",
      "alert": "OK",
      "vis_m": 9999,
      "fzfg": false,
      "metar_trigger": false,
      "taf_trigger": false,
      "metar": "METAR LRCL 122200Z 28004KT 9999 FEW063 15/13 Q1016",
      "taf": "TAF LRCL 122000Z 1221/1306 27005KT 9999 SCT045"
    },
    {
      "icao": "LRCV",
      "alert": "OK",
      "vis_m": 9999,
      "fzfg": false,
      "metar_trigger": false,
      "taf_trigger": false,
      "metar": "METAR LRCV 122200Z 27006KT CAVOK 19/17 Q1015",
      "taf": "TAF LRCV 122000Z 1221/1306 26010KT CAVOK"
    },
    {
      "icao": "LRIA",
      "alert": "OK",
      "vis_m": 9999,
      "fzfg": false,
      "metar_trigger": false,
      "taf_trigger": false,
      "metar": "METAR LRIA 122200Z 31004KT 270V340 9999 FEW023 17/15 Q1015",
      "taf": "TAF LRIA 122000Z 1221/1306 30007KT CAVOK"
    },
    {
      "icao": "LROP",
      "alert": "OK",
      "vis_m": 9999,
      "fzfg": false,
      "metar_trigger": false,
      "taf_trigger": false,
      "metar": "METAR LROP 122200Z 12005KT 090V150 CAVOK 21/15 Q1015 NOSIG",
      "taf": "TAF LROP 121700Z 1218/1318 VRB04KT 9999 SCT045"
    },
    {
      "icao": "LRSB",
      "alert": "OK",
      "vis_m": 9999,
      "fzfg": false,
      "metar_trigger": false,
      "taf_trigger": false,
      "metar": "METAR LRSB 122200Z 15003KT 9999 SCT065 BKN080 16/13 Q1017",
      "taf": "TAF LRSB 121700Z 1218/1318 30012KT 9999 SCT045"
    },
    {
      "icao": "LRSM",
      "alert": "OK",
      "vis_m": 9999,
      "fzfg": false,
      "metar_trigger": false,
      "taf_trigger": false,
      "metar": "METAR LRSM 122200Z AUTO 15002KT 9999 BKN080/// OVC100/// 15/13 Q1016",
      "taf": ""
    },
    {
      "icao": "LRSV",
      "alert": "OK",
      "vis_m": 9999,
      "fzfg": false,
      "metar_trigger": false,
      "taf_trigger": false,
      "metar": "METAR LRSV 122200Z 31008KT CAVOK 14/12 Q1016",
      "taf": "TAF LRSV 122000Z 1221/1306 VRB04KT CAVOK"
    },
    {
      "icao": "LRTM",
      "alert": "OK",
      "vis_m": 6000,
      "fzfg": false,
      "metar_trigger": false,
      "taf_trigger": false,
      "metar": "METAR LRTM 122200Z 06003KT 6000 NSC 14/14 Q1017",
      "taf": "TAF LRTM 122000Z 1221/1306 VRB04KT 9999 SCT045"
    },
    {
      "icao": "LRTR",
      "alert": "OK",
      "vis_m": 9999,
      "fzfg": false,
      "metar_trigger": false,
      "taf_trigger": false,
      "metar": "METAR LRTR 122200Z VRB02KT CAVOK 16/10 Q1016",
      "taf": "TAF LRTR 121700Z 1218/1318 34008KT CAVOK"
    },
    {
      "icao": "LTAC",
      "alert": "OK",
      "vis_m": 9999,
      "fzfg": false,
      "metar_trigger": false,
      "taf_trigger": false,
      "metar": "METAR LTAC 122150Z 04010KT CAVOK 21/11 Q1015 NOSIG RMK RWY21C 02008KT RWY03L 04009KT RWY21R 01007KT RWY03R 02009KT RWY21L 01006KT",
      "taf": "TAF LTAC 121640Z 1218/1318 VRB02KT CAVOK"
    },
    {
      "icao": "LTFM",
      "alert": "OK",
      "vis_m": 9999,
      "fzfg": false,
      "metar_trigger": false,
      "taf_trigger": false,
      "metar": "METAR LTFM 122150Z 11007KT CAVOK 23/17 Q1013 NOSIG RMK RWY17L 12004KT RWY34L 10008KT RWY16R 11006KT RWY36 12004KT RWY18 12004KT",
      "taf": "TAF LTFM 121640Z 1218/1324 07012KT CAVOK"
    },
    {
      "icao": "LUKK",
      "alert": "OK",
      "vis_m": 9999,
      "fzfg": false,
      "metar_trigger": false,
      "taf_trigger": false,
      "metar": "METAR LUKK 122200Z VRB03KT 9999 -SHRA SCT049CB 19/14 Q1014 TEMPO SCT045CB",
      "taf": "TAF LUKK 121703Z 1218/1318 VRB05KT CAVOK"
    },
    {
      "icao": "LWOH",
      "alert": "OK",
      "vis_m": 9999,
      "fzfg": false,
      "metar_trigger": false,
      "taf_trigger": false,
      "metar": "METAR LWOH 122220Z 32004KT 9999 FEW050 16/13 Q1018",
      "taf": "TAF LWOH 122010Z 1221/1321 32006KT 9999 FEW040"
    },
    {
      "icao": "LWSK",
      "alert": "OK",
      "vis_m": 9999,
      "fzfg": false,
      "metar_trigger": false,
      "taf_trigger": false,
      "metar": "METAR LWSK 122220Z 34006KT 310V010 9999 FEW040 BKN090 22/18 Q1017 NOSIG",
      "taf": "TAF LWSK 122010Z 1221/1321 VRB03KT 9999 FEW050 SCT100"
    },
    {
      "icao": "LYBE",
      "alert": "OK",
      "vis_m": 9999,
      "fzfg": false,
      "metar_trigger": false,
      "taf_trigger": false,
      "metar": "METAR LYBE 122200Z 29008KT CAVOK 22/13 Q1017 NOSIG",
      "taf": "TAF LYBE 121700Z 1218/1318 26006KT CAVOK TX29/1314Z TN16/1303Z"
    },
    {
      "icao": "LYNI",
      "alert": "OK",
      "vis_m": 9999,
      "fzfg": false,
      "metar_trigger": false,
      "taf_trigger": false,
      "metar": "METAR LYNI 122200Z VRB01KT CAVOK 19/17 Q1017 NOSIG",
      "taf": "TAF LYNI 121700Z 1218/1318 33006KT CAVOK TX28/1314Z TN15/1303Z"
    },
    {
      "icao": "LYPG",
      "alert": "OK",
      "vis_m": 9999,
      "fzfg": false,
      "metar_trigger": false,
      "taf_trigger": false,
      "metar": "METAR LYPG 122200Z 36014KT 9999 FEW050 27/15 Q1015 NOSIG",
      "taf": "TAF LYPG 121700Z 1218/1318 34010KT 9999 FEW060 TX34/1314Z TN24/1303Z"
    },
    {
      "icao": "LZIB",
      "alert": "OK",
      "vis_m": 9999,
      "fzfg": false,
      "metar_trigger": false,
      "taf_trigger": false,
      "metar": "METAR LZIB 122200Z 30006KT CAVOK 20/14 Q1018 NOSIG",
      "taf": "TAF LZIB 121715Z 1218/1318 32012KT CAVOK"
    },
    {
      "icao": "LZKZ",
      "alert": "OK",
      "vis_m": 9999,
      "fzfg": false,
      "metar_trigger": false,
      "taf_trigger": false,
      "metar": "METAR LZKZ 122200Z VRB01KT 9999 FEW035 16/15 Q1017 NOSIG",
      "taf": "TAF LZKZ 121715Z 1218/1318 VRB02KT CAVOK"
    },
    {
      "icao": "LZTT",
      "alert": "OK",
      "vis_m": 9999,
      "fzfg": false,
      "metar_trigger": false,
      "taf_trigger": false,
      "metar": "METAR LZTT 122200Z VRB03KT 9999 SCT004 BKN050 13/13 Q1018",
      "taf": ""
    },
    {
      "icao": "OEJN",
      "alert": "OK",
      "vis_m": 9999,
      "fzfg": false,
      "metar_trigger": false,
      "taf_trigger": false,
      "metar": "METAR OEJN 122200Z 15002KT CAVOK 32/16 Q1003 NOSIG",
      "taf": "TAF OEJN 121700Z 1218/1324 36005KT CAVOK"
    },
    {
      "icao": "OEMA",
      "alert": "OK",
      "vis_m": 9999,
      "fzfg": false,
      "metar_trigger": false,
      "taf_trigger": false,
      "metar": "METAR OEMA 122200Z 31005KT CAVOK 37/05 Q1009 NOSIG",
      "taf": "TAF OEMA 121700Z 1218/1324 28008KT CAVOK"
    },
    {
      "icao": "OJAI",
      "alert": "OK",
      "vis_m": 5000,
      "fzfg": false,
      "metar_trigger": false,
      "taf_trigger": false,
      "metar": "METAR OJAI 122200Z 24005KT 5000 HZ NSC 19/14 Q1012 NOSIG",
      "taf": "TAF OJAI 121700Z 1218/1324 30010KT 5000 HZ NSC"
    },
    {
      "icao": "OMAA",
      "alert": "OK",
      "vis_m": 9999,
      "fzfg": false,
      "metar_trigger": false,
      "taf_trigger": false,
      "metar": "METAR OMAA 122200Z 27003KT CAVOK 33/26 Q0996 NOSIG",
      "taf": "TAF OMAA 121700Z 1218/1400 20005KT 8000 NSC"
    },
    {
      "icao": "OMDB",
      "alert": "OK",
      "vis_m": 9999,
      "fzfg": false,
      "metar_trigger": false,
      "taf_trigger": false,
      "metar": "METAR OMDB 122200Z 23005KT CAVOK 33/27 Q0996 NOSIG",
      "taf": "TAF OMDB 121700Z 1218/1400 18005KT 8000 NSC"
    },
    {
      "icao": "UAAA",
      "alert": "OK",
      "vis_m": 9999,
      "fzfg": false,
      "metar_trigger": false,
      "taf_trigger": false,
      "metar": "METAR UAAA 122200Z VRB01MPS 9999 FEW050CB SCT200 21/11 Q1005 NOSIG",
      "taf": "TAF UAAA 121703Z 1218/1318 19002MPS 9999 SCT050CB BKN100 TX32/1310Z TN21/1301Z"
    },
    {
      "icao": "UBBB",
      "alert": "OK",
      "vis_m": 9999,
      "fzfg": false,
      "metar_trigger": false,
      "taf_trigger": false,
      "metar": "METAR UBBB 122200Z 31010KT CAVOK 25/20 Q1009 NOSIG",
      "taf": "TAF UBBB 121713Z 1218/1318 32012KT CAVOK TX31/1310Z TN22/1301Z"
    },
    {
      "icao": "UDSG",
      "alert": "OK",
      "vis_m": 9999,
      "fzfg": false,
      "metar_trigger": false,
      "taf_trigger": false,
      "metar": "METAR UDSG 122200Z 25003KT 9999 FEW049 18/15 Q1018 NOSIG",
      "taf": "TAF UDSG 121700Z 1218/1318 VRB06KT 9999 FEW050"
    },
    {
      "icao": "UDYZ",
      "alert": "OK",
      "vis_m": 9999,
      "fzfg": false,
      "metar_trigger": false,
      "taf_trigger": false,
      "metar": "METAR UDYZ 122200Z 33006KT 9999 FEW046 27/15 Q1011 NOSIG",
      "taf": "TAF UDYZ 121700Z 1218/1318 07006KT 9999 FEW040"
    },
    {
      "icao": "UGKO",
      "alert": "OK",
      "vis_m": 9999,
      "fzfg": false,
      "metar_trigger": false,
      "taf_trigger": false,
      "metar": "METAR UGKO 122200Z 05003KT 9999 BKN029 OVC033 21/19 Q1013 NOSIG",
      "taf": "TAF UGKO 121700Z 1218/1318 26007KT 9999 SCT020 BKN050 TX28/1311Z TN21/1302Z"
    }
  ]
}