{
  "ts_utc": "2026-01-24T12:26:43Z",
  "threshold_m": 150,
  "source": "stations_override.txt (ICAO list) + aviationweather.gov (METAR/TAF raw)",
  "station_count": 159,
  "stations": [
    {
      "icao": "BIKF",
      "alert": "OK",
      "vis_m": 9999,
      "fzfg": false,
      "metar_trigger": false,
      "taf_trigger": false,
      "metar": "METAR BIKF 241200Z 07019KT 9999 BKN045 04/M02 Q1003",
      "taf": "TAF BIKF 241034Z 2412/2512 07015KT 9999 FEW025 TX04/2415Z TN03/2506Z"
    },
    {
      "icao": "BKPR",
      "alert": "OK",
      "vis_m": null,
      "fzfg": false,
      "metar_trigger": false,
      "taf_trigger": false,
      "metar": "",
      "taf": "TAF BKPR 241130Z 2412/2512 18012KT 9999 SCT040"
    },
    {
      "icao": "EBCI",
      "alert": "OK",
      "vis_m": 9999,
      "fzfg": false,
      "metar_trigger": false,
      "taf_trigger": false,
      "metar": "METAR EBCI 241220Z 18011KT CAVOK 08/02 Q1000 NOSIG",
      "taf": "TAF EBCI 241110Z 2412/2518 12006KT 9999 FEW020"
    },
    {
      "icao": "EDDB",
      "alert": "OK",
      "vis_m": 4600,
      "fzfg": false,
      "metar_trigger": false,
      "taf_trigger": false,
      "metar": "METAR EDDB 241220Z AUTO 09009KT 4600 BR OVC009 M02/M04 Q1008 TEMPO 5000 BR OVC010",
      "taf": "TAF EDDB 241100Z 2412/2512 08009KT 4000 BR OVC009"
    },
    {
      "icao": "EDDH",
      "alert": "OK",
      "vis_m": 9999,
      "fzfg": false,
      "metar_trigger": false,
      "taf_trigger": false,
      "metar": "METAR EDDH 241220Z AUTO 11009KT 9999 BKN014 M02/M05 Q1007 TEMPO SCT014 BKN035",
      "taf": "TAF EDDH 241100Z 2412/2518 10011KT 9000 BKN013 OVC035"
    },
    {
      "icao": "EDDK",
      "alert": "OK",
      "vis_m": 9999,
      "fzfg": false,
      "metar_trigger": false,
      "taf_trigger": false,
      "metar": "METAR EDDK 241220Z AUTO 15007KT 9999 FEW045 05/M00 Q1002 NOSIG",
      "taf": "TAF EDDK 241100Z 2412/2518 12006KT 9999 BKN040"
    },
    {
      "icao": "EDDN",
      "alert": "OK",
      "vis_m": 9999,
      "fzfg": false,
      "metar_trigger": false,
      "taf_trigger": false,
      "metar": "METAR EDDN 241220Z AUTO 14007KT 090V170 9999 BKN016 M02/M07 Q1003 NOSIG",
      "taf": "TAF EDDN 241100Z 2412/2512 12009KT 9000 SCT015"
    },
    {
      "icao": "EDDS",
      "alert": "OK",
      "vis_m": 9000,
      "fzfg": false,
      "metar_trigger": false,
      "taf_trigger": false,
      "metar": "METAR EDDS 241220Z AUTO 08004KT 050V150 9000 NSC 03/M02 Q1000 NOSIG",
      "taf": "TAF EDDS 241100Z 2412/2512 VRB03KT 8000 FEW013"
    },
    {
      "icao": "EDFH",
      "alert": "OK",
      "vis_m": 9999,
      "fzfg": false,
      "metar_trigger": false,
      "taf_trigger": false,
      "metar": "METAR EDFH 241220Z 13006KT 100V160 9999 FEW033 00/M03 Q1000",
      "taf": "TAF EDFH 241100Z 2412/2512 14011KT 9000 SCT035"
    },
    {
      "icao": "EDJA",
      "alert": "OK",
      "vis_m": 9999,
      "fzfg": false,
      "metar_trigger": false,
      "taf_trigger": false,
      "metar": "METAR EDJA 241220Z COR 02007KT 9999 BKN008 02/00 Q1000",
      "taf": "TAF EDJA 241100Z 2412/2421 06006KT 8000 BKN007"
    },
    {
      "icao": "EDLW",
      "alert": "OK",
      "vis_m": 5000,
      "fzfg": false,
      "metar_trigger": false,
      "taf_trigger": false,
      "metar": "METAR EDLW 241220Z 02004KT 5000 BR FEW004 01/M00 Q1002",
      "taf": "TAF EDLW 241100Z 2412/2512 08005KT 9999 BKN030"
    },
    {
      "icao": "EDNY",
      "alert": "OK",
      "vis_m": 9999,
      "fzfg": false,
      "metar_trigger": false,
      "taf_trigger": false,
      "metar": "METAR EDNY 241220Z COR 03004KT 320V110 9999 BKN013 03/01 Q1001",
      "taf": "TAF EDNY 241100Z 2412/2421 03005KT 8000 BKN012"
    },
    {
      "icao": "EDSB",
      "alert": "OK",
      "vis_m": 9000,
      "fzfg": false,
      "metar_trigger": false,
      "taf_trigger": false,
      "metar": "METAR EDSB 241220Z 01008KT 9000 NSC 03/M02 Q1001",
      "taf": "TAF EDSB 241100Z 2412/2512 03006KT 6000 SCT035"
    },
    {
      "icao": "EETN",
      "alert": "OK",
      "vis_m": 9999,
      "fzfg": false,
      "metar_trigger": false,
      "taf_trigger": false,
      "metar": "METAR EETN 241220Z 17004KT 9999 -SN OVC013 M11/M14 Q1026 BECMG BKN015",
      "taf": "TAF EETN 241130Z 2412/2512 15007KT 9999 OVC013"
    },
    {
      "icao": "EFTU",
      "alert": "OK",
      "vis_m": 9999,
      "fzfg": false,
      "metar_trigger": false,
      "taf_trigger": false,
      "metar": "METAR EFTU 241220Z AUTO 09005KT CAVOK M09/M12 Q1025",
      "taf": "TAF EFTU 241129Z 2412/2512 09005KT 9999 FEW020"
    },
    {
      "icao": "EGBB",
      "alert": "OK",
      "vis_m": 9999,
      "fzfg": false,
      "metar_trigger": false,
      "taf_trigger": false,
      "metar": "METAR EGBB 241220Z 13017KT 9999 SCT021 08/03 Q0991",
      "taf": "TAF EGBB 241101Z 2412/2512 11012KT 9999 SCT020"
    },
    {
      "icao": "EGGP",
      "alert": "OK",
      "vis_m": 9999,
      "fzfg": false,
      "metar_trigger": false,
      "taf_trigger": false,
      "metar": "METAR EGGP 241220Z 11019KT 9999 SCT024 SCT040 07/03 Q0991",
      "taf": "TAF EGGP 241102Z 2412/2512 11020G32KT 9999 BKN020"
    },
    {
      "icao": "EGGW",
      "alert": "OK",
      "vis_m": 9999,
      "fzfg": false,
      "metar_trigger": false,
      "taf_trigger": false,
      "metar": "METAR EGGW 241220Z AUTO 13013KT 9999 FEW022 07/04 Q0993",
      "taf": "TAF EGGW 241055Z 2412/2512 13012KT 9999 FEW025"
    },
    {
      "icao": "EGKK",
      "alert": "OK",
      "vis_m": 9999,
      "fzfg": false,
      "metar_trigger": false,
      "taf_trigger": false,
      "metar": "METAR EGKK 241220Z 14011KT 110V170 9999 FEW024 09/05 Q0994",
      "taf": "TAF EGKK 241055Z 2412/2518 14012KT 9999 FEW020"
    },
    {
      "icao": "EGNM",
      "alert": "OK",
      "vis_m": 9999,
      "fzfg": false,
      "metar_trigger": false,
      "taf_trigger": false,
      "metar": "METAR EGNM 241220Z 10013KT 9999 SCT008 BKN011 05/04 Q0994",
      "taf": "TAF EGNM 241100Z 2412/2512 10012KT 9999 BKN006"
    },
    {
      "icao": "EGPD",
      "alert": "OK",
      "vis_m": 5000,
      "fzfg": false,
      "metar_trigger": false,
      "taf_trigger": false,
      "metar": "METAR EGPD 241220Z AUTO 12014KT 5000 -RA OVC011/// //////TCU 05/03 Q1002",
      "taf": "TAF EGPD 241057Z 2412/2512 11014KT 9999 BKN015"
    },
    {
      "icao": "EGPF",
      "alert": "OK",
      "vis_m": 9999,
      "fzfg": false,
      "metar_trigger": false,
      "taf_trigger": false,
      "metar": "METAR EGPF 241220Z AUTO 07012KT 9999 FEW015 SCT025 BKN045 07/05 Q0996",
      "taf": "TAF EGPF 241103Z 2412/2512 09012KT 9999 SCT020 BKN040"
    },
    {
      "icao": "EHBK",
      "alert": "OK",
      "vis_m": 9999,
      "fzfg": false,
      "metar_trigger": false,
      "taf_trigger": false,
      "metar": "METAR EHBK 241155Z AUTO VRB02KT 9999 NCD 09/03 Q1001 NOSIG",
      "taf": "TAF EHBK 241110Z 2412/2518 12005KT CAVOK"
    },
    {
      "icao": "EHEH",
      "alert": "OK",
      "vis_m": 9999,
      "fzfg": false,
      "metar_trigger": false,
      "taf_trigger": false,
      "metar": "METAR EHEH 241155Z AUTO 16005KT 120V210 9999 NCD 08/03 Q1001 BLU NOSIG RMK TREND REMOTE BY EHWX",
      "taf": "TAF EHEH 241126Z 2412/2518 13005KT CAVOK"
    },
    {
      "icao": "EKBI",
      "alert": "OK",
      "vis_m": 9999,
      "fzfg": false,
      "metar_trigger": false,
      "taf_trigger": false,
      "metar": "METAR EKBI 241220Z AUTO 09015KT 9999 -SN OVC012/// M00/M02 Q1009",
      "taf": "TAF EKBI 241127Z 2412/2512 11015KT 9999 OVC017"
    },
    {
      "icao": "EKCH",
      "alert": "OK",
      "vis_m": 9999,
      "fzfg": false,
      "metar_trigger": false,
      "taf_trigger": false,
      "metar": "METAR EKCH 241220Z AUTO 10011KT 9999 OVC030/// 01/M03 Q1012 NOSIG",
      "taf": "TAF EKCH 241127Z 2412/2512 09012KT 9999 BKN025"
    },
    {
      "icao": "ENAL",
      "alert": "OK",
      "vis_m": 9999,
      "fzfg": false,
      "metar_trigger": false,
      "taf_trigger": false,
      "metar": "METAR ENAL 241220Z 15013KT CAVOK M00/M10 Q1014",
      "taf": "TAF ENAL 241100Z 2412/2421 14009KT 9999 FEW040"
    },
    {
      "icao": "ENBR",
      "alert": "OK",
      "vis_m": 9999,
      "fzfg": false,
      "metar_trigger": false,
      "taf_trigger": false,
      "metar": "METAR ENBR 241220Z 00000KT CAVOK 01/M09 Q1014 NOSIG RMK WIND 1200FT 11004KT",
      "taf": "TAF ENBR 241100Z 2412/2512 08003KT 9999 FEW040"
    },
    {
      "icao": "ENGM",
      "alert": "OK",
      "vis_m": 8000,
      "fzfg": false,
      "metar_trigger": false,
      "taf_trigger": false,
      "metar": "METAR ENGM 241220Z 02005KT 010V070 8000 -SN FEW010 SCT029 BKN049 M06/M08 Q1019 NOSIG",
      "taf": "TAF ENGM 241100Z 2412/2512 04008KT 9999 -SN FEW015 OVC035"
    },
    {
      "icao": "ENHD",
      "alert": "OK",
      "vis_m": 9999,
      "fzfg": false,
      "metar_trigger": false,
      "taf_trigger": false,
      "metar": "METAR ENHD 241220Z /////KT CAVOK 00/M10 Q1014 RMK WIND RWY 31 10011KT",
      "taf": "TAF ENHD 241100Z 2412/2421 10008KT CAVOK"
    },
    {
      "icao": "ENTC",
      "alert": "OK",
      "vis_m": 9999,
      "fzfg": false,
      "metar_trigger": false,
      "taf_trigger": false,
      "metar": "METAR ENTC 241220Z 21010KT 9999 VCSH BKN015 M05/M07 Q1018 TEMPO BKN012 RMK WIND 2600FT 30015KT",
      "taf": "TAF ENTC 241100Z 2412/2512 20008KT 9999 SCT018"
    },
    {
      "icao": "ENTO",
      "alert": "OK",
      "vis_m": 7000,
      "fzfg": false,
      "metar_trigger": false,
      "taf_trigger": false,
      "metar": "METAR ENTO 241220Z 03005KT 7000 -SN OVC009 M04/M04 Q1018 TEMPO 4000 BKN012",
      "taf": "TAF ENTO 241100Z 2412/2512 04010KT 9999 -SN OVC020"
    },
    {
      "icao": "ENVA",
      "alert": "OK",
      "vis_m": 9999,
      "fzfg": false,
      "metar_trigger": false,
      "taf_trigger": false,
      "metar": "METAR ENVA 241150Z 07005KT CAVOK M04/M12 Q1017 NOSIG RMK WIND 670FT 15013KT",
      "taf": "TAF ENVA 241100Z 2412/2512 09008KT CAVOK"
    },
    {
      "icao": "ENZV",
      "alert": "OK",
      "vis_m": 9999,
      "fzfg": false,
      "metar_trigger": false,
      "taf_trigger": false,
      "metar": "METAR ENZV 241220Z 11011KT CAVOK 00/M11 Q1014 NOSIG",
      "taf": "TAF ENZV 241100Z 2412/2512 10012KT CAVOK"
    },
    {
      "icao": "EPGD",
      "alert": "OK",
      "vis_m": 9999,
      "fzfg": false,
      "metar_trigger": false,
      "taf_trigger": false,
      "metar": "METAR EPGD 241200Z 09008KT 9999 BKN046 M06/M09 Q1013",
      "taf": "TAF EPGD 241130Z 2412/2512 09010KT 9999 BKN035"
    },
    {
      "icao": "EPKK",
      "alert": "OK",
      "vis_m": 4500,
      "fzfg": false,
      "metar_trigger": false,
      "taf_trigger": false,
      "metar": "METAR EPKK 241200Z 07009KT 4500 BR OVC006 M01/M03 Q1007",
      "taf": "TAF EPKK 241130Z 2412/2512 06008KT 4000 BR OVC006"
    },
    {
      "icao": "EPKT",
      "alert": "OK",
      "vis_m": 5000,
      "fzfg": false,
      "metar_trigger": false,
      "taf_trigger": false,
      "metar": "METAR EPKT 241200Z 08007KT 5000 BR OVC005 M01/M03 Q1006",
      "taf": "TAF EPKT 241130Z 2412/2512 09006KT 6000 BKN006"
    },
    {
      "icao": "EPLB",
      "alert": "OK",
      "vis_m": 3200,
      "fzfg": false,
      "metar_trigger": false,
      "taf_trigger": false,
      "metar": "METAR EPLB 241200Z 08014KT 3200 -SN BR BKN020 BKN046 M05/M06 Q1010",
      "taf": "TAF EPLB 241130Z 2412/2512 07012KT 6000 -SN BKN011"
    },
    {
      "icao": "EPMO",
      "alert": "OK",
      "vis_m": 8000,
      "fzfg": false,
      "metar_trigger": false,
      "taf_trigger": false,
      "metar": "METAR EPMO 241200Z 08014KT 8000 SCT015 BKN024 M06/M08 Q1012",
      "taf": "TAF EPMO 241130Z 2412/2512 08013KT 9000 BKN016 BKN047"
    },
    {
      "icao": "EPPO",
      "alert": "OK",
      "vis_m": 9000,
      "fzfg": false,
      "metar_trigger": false,
      "taf_trigger": false,
      "metar": "METAR EPPO 241200Z 10009KT 9000 OVC013 M04/M07 Q1010",
      "taf": "TAF EPPO 241130Z 2412/2512 08009KT 9000 OVC012"
    },
    {
      "icao": "EPRA",
      "alert": "OK",
      "vis_m": 7000,
      "fzfg": false,
      "metar_trigger": false,
      "taf_trigger": false,
      "metar": "METAR EPRA 241130Z 07011KT 7000 -SN BKN009 OVC019 M05/M08 Q1010",
      "taf": ""
    },
    {
      "icao": "EPRZ",
      "alert": "OK",
      "vis_m": 3000,
      "fzfg": false,
      "metar_trigger": false,
      "taf_trigger": false,
      "metar": "METAR EPRZ 241200Z 08009KT 3000 -FZDZ BR OVC004 M02/M02 Q1008",
      "taf": "TAF EPRZ 241130Z 2412/2512 09008KT 6000 OVC006"
    },
    {
      "icao": "EPSC",
      "alert": "OK",
      "vis_m": 8000,
      "fzfg": false,
      "metar_trigger": false,
      "taf_trigger": false,
      "metar": "METAR EPSC 241200Z 08007KT 8000 OVC012 M03/M06 Q1010",
      "taf": "TAF EPSC 241130Z 2412/2512 08010KT 8000 OVC011"
    },
    {
      "icao": "EPSY",
      "alert": "OK",
      "vis_m": 9000,
      "fzfg": false,
      "metar_trigger": false,
      "taf_trigger": false,
      "metar": "METAR EPSY 241130Z 08006KT 040V130 9000 FEW013 BKN037 M08/M11 Q1014",
      "taf": "TAF EPSY 241130Z 2412/2421 09008KT 8000 BKN040"
    },
    {
      "icao": "EPWA",
      "alert": "OK",
      "vis_m": 9999,
      "fzfg": false,
      "metar_trigger": false,
      "taf_trigger": false,
      "metar": "METAR EPWA 241200Z 08010KT 9999 BKN015 M05/M08 Q1012 TEMPO BKN014",
      "taf": "TAF EPWA 241130Z 2412/2512 08010KT 9999 BKN015"
    },
    {
      "icao": "EPWR",
      "alert": "OK",
      "vis_m": 3000,
      "fzfg": false,
      "metar_trigger": false,
      "taf_trigger": false,
      "metar": "METAR EPWR 241200Z 07006KT 3000 -SG BR OVC006 M01/M03 Q1008",
      "taf": "TAF EPWR 241130Z 2412/2512 10007KT 4500 -SN BR OVC006"
    },
    {
      "icao": "ESGG",
      "alert": "OK",
      "vis_m": 6000,
      "fzfg": false,
      "metar_trigger": false,
      "taf_trigger": false,
      "metar": "METAR ESGG 241220Z 08008KT 040V100 6000 -SN BKN015 BKN027 OVC039 M03/M05 Q1015",
      "taf": "TAF ESGG 241130Z 2412/2512 08010KT 8000 -SN SCT015 OVC030"
    },
    {
      "icao": "ESKN",
      "alert": "OK",
      "vis_m": 9999,
      "fzfg": false,
      "metar_trigger": false,
      "taf_trigger": false,
      "metar": "METAR ESKN 241220Z 12007KT 9999 -SN SCT022 BKN031 M02/M06 Q1021",
      "taf": "TAF ESKN 241130Z 2412/2512 10010KT 9999 BKN025"
    },
    {
      "icao": "ESMS",
      "alert": "OK",
      "vis_m": 9999,
      "fzfg": false,
      "metar_trigger": false,
      "taf_trigger": false,
      "metar": "METAR ESMS 241220Z 09016KT 9999 BKN013 OVC043 00/M02 Q1012",
      "taf": "TAF ESMS 241127Z 2412/2512 09012KT 9999 OVC025"
    },
    {
      "icao": "ESSA",
      "alert": "OK",
      "vis_m": 7000,
      "fzfg": false,
      "metar_trigger": false,
      "taf_trigger": false,
      "metar": "METAR ESSA 241220Z 08006KT 7000 -SN FEW009 BKN026 M03/M06 Q1022 NOSIG",
      "taf": "TAF ESSA 241130Z 2412/2512 09009KT 9999 BKN030"
    },
    {
      "icao": "EYKA",
      "alert": "OK",
      "vis_m": 9999,
      "fzfg": false,
      "metar_trigger": false,
      "taf_trigger": false,
      "metar": "METAR EYKA 241220Z 07011KT 9999 FEW022 BKN038 M09/M13 Q1019",
      "taf": "TAF EYKA 241101Z 2412/2512 09013KT 9000 SCT035"
    },
    {
      "icao": "EYPA",
      "alert": "OK",
      "vis_m": 9999,
      "fzfg": false,
      "metar_trigger": false,
      "taf_trigger": false,
      "metar": "METAR EYPA 241220Z 09010KT 060V120 CAVOK M08/M13 Q1019",
      "taf": "TAF EYPA 240500Z 2406/2506 09012KT 9000 SCT030"
    },
    {
      "icao": "EYVI",
      "alert": "OK",
      "vis_m": 9999,
      "fzfg": false,
      "metar_trigger": false,
      "taf_trigger": false,
      "metar": "METAR EYVI 241220Z 09008KT 9999 -SN BKN015 M10/M14 Q1019 NOSIG",
      "taf": "TAF EYVI 241102Z 2412/2512 09009KT 9000 BKN020"
    },
    {
      "icao": "GCFV",
      "alert": "OK",
      "vis_m": 9999,
      "fzfg": false,
      "metar_trigger": false,
      "taf_trigger": false,
      "metar": "METAR GCFV 241200Z 36015KT 330V030 9999 SCT040 21/08 Q1026",
      "taf": "TAF GCFV 240800Z 2409/2509 02015KT 9999 SCT040 TX21/2414Z TN14/2506Z"
    },
    {
      "icao": "GCLP",
      "alert": "OK",
      "vis_m": 9999,
      "fzfg": false,
      "metar_trigger": false,
      "taf_trigger": false,
      "metar": "METAR GCLP 241200Z 03022KT 350V050 9999 SCT035 20/10 Q1027 NOSIG",
      "taf": "TAF GCLP 240800Z 2409/2509 02018KT 9999 SCT040 TX20/2414Z TN14/2506Z"
    },
    {
      "icao": "GCTS",
      "alert": "OK",
      "vis_m": 9999,
      "fzfg": false,
      "metar_trigger": false,
      "taf_trigger": false,
      "metar": "METAR GCTS 241200Z 11015KT 9999 SCT040 20/09 Q1027 NOSIG",
      "taf": "TAF GCTS 240800Z 2409/2509 32005KT 9999 SCT035 TX22/2414Z TN15/2506Z"
    },
    {
      "icao": "GMAD",
      "alert": "OK",
      "vis_m": 9999,
      "fzfg": false,
      "metar_trigger": false,
      "taf_trigger": false,
      "metar": "METAR GMAD 241200Z 30015KT 9999 FEW013 SCT023 17/09 Q1022 NOSIG",
      "taf": "TAF GMAD 241100Z 2412/2518 28015KT 8000 SCT016"
    },
    {
      "icao": "GMMN",
      "alert": "OK",
      "vis_m": 9999,
      "fzfg": false,
      "metar_trigger": false,
      "taf_trigger": false,
      "metar": "SPECI GMMN 241215Z 28020KT 9999 BKN020TCU 12/09 Q1019 TEMPO 4000 SHRA",
      "taf": "TAF GMMN 241100Z 2412/2518 30018KT 9999 BKN020TCU"
    },
    {
      "icao": "GMMX",
      "alert": "OK",
      "vis_m": 8000,
      "fzfg": false,
      "metar_trigger": false,
      "taf_trigger": false,
      "metar": "METAR GMMX 241200Z 29011KT 260V320 8000 SCT010 SCT020 12/08 Q1022 NOSIG",
      "taf": "TAF GMMX 241100Z 2412/2518 24010KT 8000 SCT023"
    },
    {
      "icao": "HEGN",
      "alert": "OK",
      "vis_m": 4000,
      "fzfg": false,
      "metar_trigger": false,
      "taf_trigger": false,
      "metar": "METAR HEGN 241200Z 35013KT 4000 SA NSC 24/01 Q1016 NOSIG",
      "taf": "TAF HEGN 241100Z 2412/2518 33012G25KT 6000 NSC"
    },
    {
      "icao": "HEMA",
      "alert": "OK",
      "vis_m": 9999,
      "fzfg": false,
      "metar_trigger": false,
      "taf_trigger": false,
      "metar": "METAR HEMA 241200Z 36020KT CAVOK 23/05 Q1015 NOSIG",
      "taf": "TAF HEMA 241110Z 2412/2518 35012G22KT 6000 NSC"
    },
    {
      "icao": "HESH",
      "alert": "OK",
      "vis_m": 9999,
      "fzfg": false,
      "metar_trigger": false,
      "taf_trigger": false,
      "metar": "METAR HESH 241200Z 02009KT CAVOK 23/04 Q1015 NOSIG",
      "taf": "TAF HESH 241100Z 2412/2518 01015KT 6000 NSC"
    },
    {
      "icao": "HESX",
      "alert": "OK",
      "vis_m": 9999,
      "fzfg": false,
      "metar_trigger": false,
      "taf_trigger": false,
      "metar": "METAR HESX 241200Z 29014KT CAVOK 21/M01 Q1016 NOSIG",
      "taf": "TAF HESX 241110Z 2412/2518 25015KT CAVOK"
    },
    {
      "icao": "LATI",
      "alert": "OK",
      "vis_m": 9999,
      "fzfg": false,
      "metar_trigger": false,
      "taf_trigger": false,
      "metar": "METAR LATI 241220Z 13003KT 9999 RA BKN049 OVC062 12/07 Q1010 NOSIG",
      "taf": "TAF LATI 241100Z 2412/2512 16012KT 9999 SCT040 BKN080 TX15/2412Z TN07/2505Z"
    },
    {
      "icao": "LBPD",
      "alert": "OK",
      "vis_m": 2800,
      "fzfg": false,
      "metar_trigger": false,
      "taf_trigger": false,
      "metar": "METAR LBPD 241200Z AUTO 33004KT 300V360 2800 BR OVC003/// 02/02 Q1014 BECMG 5000 BR",
      "taf": "TAF LBPD 241100Z 2412/2512 VRB03KT 3000 BR BKN005"
    },
    {
      "icao": "LBSF",
      "alert": "OK",
      "vis_m": 6000,
      "fzfg": false,
      "metar_trigger": false,
      "taf_trigger": false,
      "metar": "METAR LBSF 241200Z VRB01KT 6000 OVC004 00/M00 Q1012 NOSIG",
      "taf": "TAF LBSF 241100Z 2412/2512 VRB03KT 5000 BR BKN005"
    },
    {
      "icao": "LBWN",
      "alert": "OK",
      "vis_m": 9999,
      "fzfg": false,
      "metar_trigger": false,
      "taf_trigger": false,
      "metar": "METAR LBWN 241200Z 13006KT 9999 SCT007 OVC010 05/04 Q1014 NOSIG",
      "taf": "TAF LBWN 241100Z 2412/2512 12008KT 7000 BKN007 OVC010"
    },
    {
      "icao": "LCLK",
      "alert": "OK",
      "vis_m": 8000,
      "fzfg": false,
      "metar_trigger": false,
      "taf_trigger": false,
      "metar": "METAR LCLK 241200Z 01012KT 8000 FEW010 SCT040 15/12 Q1016 NOSIG",
      "taf": "TAF LCLK 241130Z 2412/2512 02017KT 9999 FEW010 SCT035"
    },
    {
      "icao": "LCPH",
      "alert": "OK",
      "vis_m": 9999,
      "fzfg": false,
      "metar_trigger": false,
      "taf_trigger": false,
      "metar": "METAR LCPH 241200Z 17004KT 150V240 9999 FEW025 FEW030TCU SCT050 18/11 Q1015 NOSIG",
      "taf": "TAF LCPH 241130Z 2412/2512 29010KT 9999 FEW020 SCT050"
    },
    {
      "icao": "LEAL",
      "alert": "OK",
      "vis_m": 9999,
      "fzfg": false,
      "metar_trigger": false,
      "taf_trigger": false,
      "metar": "METAR LEAL 241200Z COR 27015KT 250V310 9999 FEW025 14/M02 Q1004 NOSIG",
      "taf": "TAF LEAL 241100Z 2412/2512 28018KT CAVOK TX14/2413Z TN09/2506Z"
    },
    {
      "icao": "LEBB",
      "alert": "OK",
      "vis_m": 9999,
      "fzfg": false,
      "metar_trigger": false,
      "taf_trigger": false,
      "metar": "METAR LEBB 241200Z 22009KT 180V280 9999 FEW070 11/00 Q1000 NOSIG",
      "taf": "TAF LEBB 241100Z 2412/2512 20009KT 9999 FEW040 TX11/2413Z TN07/2423Z"
    },
    {
      "icao": "LEBL",
      "alert": "OK",
      "vis_m": 7000,
      "fzfg": false,
      "metar_trigger": false,
      "taf_trigger": false,
      "metar": "METAR LEBL 241200Z COR 25014KT 7000 RA FEW017TCU OVC029 06/05 Q0994 NOSIG",
      "taf": "TAF LEBL 241100Z 2412/2512 30012KT 9999 BKN030 OVC040 TX11/2412Z TN07/2506Z"
    },
    {
      "icao": "LECH",
      "alert": "OK",
      "vis_m": 9000,
      "fzfg": false,
      "metar_trigger": false,
      "taf_trigger": false,
      "metar": "METAR LECH 241200Z AUTO 29015KT 250V320 9000 NSC 10/M04 Q0998",
      "taf": ""
    },
    {
      "icao": "LEMD",
      "alert": "OK",
      "vis_m": 9999,
      "fzfg": false,
      "metar_trigger": false,
      "taf_trigger": false,
      "metar": "METAR LEMD 241200Z 22008G22KT 180V270 9999 FEW025 05/M00 Q1004 NOSIG",
      "taf": "TAF LEMD 241100Z 2412/2518 23010KT 9999 FEW030 TX07/2414Z TN02/2504Z"
    },
    {
      "icao": "LEMG",
      "alert": "OK",
      "vis_m": 9999,
      "fzfg": false,
      "metar_trigger": false,
      "taf_trigger": false,
      "metar": "METAR LEMG 241200Z 30011KT 270V330 9999 SCT050 11/03 Q1010 NOSIG",
      "taf": "TAF LEMG 241100Z 2412/2512 31012KT 9999 SCT050 TX14/2414Z TN10/2507Z"
    },
    {
      "icao": "LEVC",
      "alert": "OK",
      "vis_m": 9999,
      "fzfg": false,
      "metar_trigger": false,
      "taf_trigger": false,
      "metar": "METAR LEVC 241200Z 29028G38KT 9999 FEW050 11/M01 Q1002 NOSIG",
      "taf": "TAF LEVC 241100Z 2412/2512 27018KT CAVOK TX13/2413Z TN08/2506Z"
    },
    {
      "icao": "LEXJ",
      "alert": "OK",
      "vis_m": 9999,
      "fzfg": false,
      "metar_trigger": false,
      "taf_trigger": false,
      "metar": "METAR LEXJ 241200Z 25008KT 230V290 9999 FEW050 BKN060 12/M00 Q1000",
      "taf": "TAF LEXJ 240800Z 2409/2509 24009KT 9999 SCT040 TX12/2414Z TN07/2409Z"
    },
    {
      "icao": "LEZG",
      "alert": "OK",
      "vis_m": 9999,
      "fzfg": false,
      "metar_trigger": false,
      "taf_trigger": false,
      "metar": "METAR LEZG 241200Z 30012KT CAVOK 07/02 Q1000 NOSIG",
      "taf": "TAF LEZG 241100Z 2412/2512 28010KT 9999 FEW055 TX10/2415Z TN06/2506Z"
    },
    {
      "icao": "LEZL",
      "alert": "OK",
      "vis_m": 9999,
      "fzfg": false,
      "metar_trigger": false,
      "taf_trigger": false,
      "metar": "METAR LEZL 241200Z 29005KT 250V350 CAVOK 10/05 Q1011 NOSIG",
      "taf": "TAF LEZL 240800Z 2409/2509 VRB03KT 9999 FEW040 TX15/2415Z TN09/2507Z"
    },
    {
      "icao": "LFBD",
      "alert": "OK",
      "vis_m": 9999,
      "fzfg": false,
      "metar_trigger": false,
      "taf_trigger": false,
      "metar": "METAR LFBD 241200Z AUTO 24013KT 9999 FEW026 12/06 Q0998 TEMPO 24015G25KT 4000 SHRA BKN020TCU SCT025CB",
      "taf": "TAF LFBD 241100Z 2412/2518 23008KT CAVOK TX10/2412Z TN05/2505Z"
    },
    {
      "icao": "LFLL",
      "alert": "OK",
      "vis_m": 350,
      "fzfg": false,
      "metar_trigger": false,
      "taf_trigger": false,
      "metar": "METAR LFLL 241200Z VRB03KT 0350 R35L/0650N R17R/0450U R35R/0900U R17L/0375N FG VV/// 01/01 Q0999 NOSIG",
      "taf": "TAF LFLL 241100Z 2412/2518 35005KT 0400 FG VV///"
    },
    {
      "icao": "LFLS",
      "alert": "OK",
      "vis_m": 9999,
      "fzfg": false,
      "metar_trigger": false,
      "taf_trigger": false,
      "metar": "METAR LFLS 241200Z AUTO 08008KT CAVOK 05/02 Q0998 NOSIG",
      "taf": "TAF LFLS 240800Z 2409/2509 10005KT CAVOK"
    },
    {
      "icao": "LFMN",
      "alert": "OK",
      "vis_m": 9999,
      "fzfg": false,
      "metar_trigger": false,
      "taf_trigger": false,
      "metar": "METAR LFMN 241200Z 34005KT 320V020 9999 OVC040 11/07 Q1000 BECMG 09012KT",
      "taf": "TAF LFMN 240800Z 2409/2515 33010KT 9999 BKN033"
    },
    {
      "icao": "LFOB",
      "alert": "OK",
      "vis_m": 9999,
      "fzfg": false,
      "metar_trigger": false,
      "taf_trigger": false,
      "metar": "METAR LFOB 241200Z AUTO 13011KT CAVOK 07/04 Q0998 NOSIG",
      "taf": "TAF LFOB 241100Z 2412/2512 12010KT CAVOK"
    },
    {
      "icao": "LFPO",
      "alert": "OK",
      "vis_m": 9999,
      "fzfg": false,
      "metar_trigger": false,
      "taf_trigger": false,
      "metar": "METAR LFPO 241200Z 13007KT CAVOK 08/04 Q0998 NOSIG",
      "taf": "TAF LFPO 241100Z 2412/2518 16006KT CAVOK"
    },
    {
      "icao": "LFSB",
      "alert": "OK",
      "vis_m": 9999,
      "fzfg": false,
      "metar_trigger": false,
      "taf_trigger": false,
      "metar": "METAR LFSB 241200Z AUTO 04005KT 010V090 9999 BKN010 OVC014 03/02 Q1001 NOSIG",
      "taf": "TAF LFSB 241100Z 2412/2512 31003KT 4000 BR OVC002"
    },
    {
      "icao": "LGAV",
      "alert": "OK",
      "vis_m": 9999,
      "fzfg": false,
      "metar_trigger": false,
      "taf_trigger": false,
      "metar": "METAR LGAV 241220Z 19005KT 150V230 9999 FEW018 SCT030 17/10 Q1013 NOSIG",
      "taf": "TAF LGAV 241100Z 2412/2512 VRB05KT 9999 SCT020 BKN060"
    },
    {
      "icao": "LGTS",
      "alert": "OK",
      "vis_m": 8000,
      "fzfg": false,
      "metar_trigger": false,
      "taf_trigger": false,
      "metar": "METAR LGTS 241220Z VRB02KT 8000 FEW008 BKN025 11/06 Q1014 NOSIG",
      "taf": "TAF LGTS 241100Z 2412/2512 VRB03KT 9999 BKN030"
    },
    {
      "icao": "LHBP",
      "alert": "OK",
      "vis_m": 5000,
      "fzfg": false,
      "metar_trigger": false,
      "taf_trigger": false,
      "metar": "METAR LHBP 241200Z 07004KT 5000 BR FEW008 BKN056 03/01 Q1007 NOSIG",
      "taf": "TAF LHBP 241115Z 2412/2512 07006KT 6000 SCT008 BKN050"
    },
    {
      "icao": "LHDC",
      "alert": "OK",
      "vis_m": 8000,
      "fzfg": false,
      "metar_trigger": false,
      "taf_trigger": false,
      "metar": "METAR LHDC 241145Z AUTO VRB03KT 8000 NSC 07/04 Q1008 NOSIG",
      "taf": "TAF LHDC 241115Z 2412/2421 08006KT 6000 NSC"
    },
    {
      "icao": "LIBD",
      "alert": "OK",
      "vis_m": 9999,
      "fzfg": false,
      "metar_trigger": false,
      "taf_trigger": false,
      "metar": "METAR LIBD 241220Z 18009KT 9999 FEW030 17/07 Q1005",
      "taf": "TAF LIBD 241100Z 2412/2512 16010KT 9999 SCT030"
    },
    {
      "icao": "LIBG",
      "alert": "OK",
      "vis_m": 9999,
      "fzfg": false,
      "metar_trigger": false,
      "taf_trigger": false,
      "metar": "METAR LIBG 241150Z 18007KT 150V210 CAVOK 16/10 Q1007",
      "taf": "TAF LIBG 241100Z 2412/2421 17008KT 9999 FEW030"
    },
    {
      "icao": "LIBP",
      "alert": "OK",
      "vis_m": 9999,
      "fzfg": false,
      "metar_trigger": false,
      "taf_trigger": false,
      "metar": "METAR LIBP 241220Z AUTO 07006KT 9999 BKN073/// 13/09 Q1002",
      "taf": "TAF LIBP 241100Z 2412/2512 VRB05KT 9999 SCT040"
    },
    {
      "icao": "LIBR",
      "alert": "OK",
      "vis_m": 9999,
      "fzfg": false,
      "metar_trigger": false,
      "taf_trigger": false,
      "metar": "METAR LIBR 241220Z 20015KT 9999 SCT020 16/11 Q1007",
      "taf": "TAF LIBR 241100Z 2412/2512 17013KT 9999 SCT020"
    },
    {
      "icao": "LICA",
      "alert": "OK",
      "vis_m": 9999,
      "fzfg": false,
      "metar_trigger": false,
      "taf_trigger": false,
      "metar": "METAR LICA 241220Z AUTO VRB02KT 9999 NCD 19/06 Q1007",
      "taf": "TAF LICA 241100Z 2412/2512 07010KT 9999 SCT020"
    },
    {
      "icao": "LICC",
      "alert": "OK",
      "vis_m": 9999,
      "fzfg": false,
      "metar_trigger": false,
      "taf_trigger": false,
      "metar": "METAR LICC 241220Z 24008KT 9999 SCT040 18/16 Q1008",
      "taf": "TAF LICC 241100Z 2412/2512 VRB06KT 9999 SCT030"
    },
    {
      "icao": "LICJ",
      "alert": "OK",
      "vis_m": 9999,
      "fzfg": false,
      "metar_trigger": false,
      "taf_trigger": false,
      "metar": "METAR LICJ 241220Z 20011KT 9999 FEW040 18/10 Q1005",
      "taf": "TAF LICJ 241100Z 2412/2512 22012KT 9999 SCT030"
    },
    {
      "icao": "LIMC",
      "alert": "OK",
      "vis_m": 8000,
      "fzfg": false,
      "metar_trigger": false,
      "taf_trigger": false,
      "metar": "METAR LIMC 241220Z VRB02KT 8000 BKN040 07/05 Q1002 NOSIG",
      "taf": "TAF LIMC 241100Z 2412/2518 VRB04KT 6000 SCT040"
    },
    {
      "icao": "LIME",
      "alert": "OK",
      "vis_m": 8000,
      "fzfg": false,
      "metar_trigger": false,
      "taf_trigger": false,
      "metar": "METAR LIME 241220Z 09004KT 050V140 8000 FEW007 07/06 Q1001 NOSIG",
      "taf": ""
    },
    {
      "icao": "LIMF",
      "alert": "OK",
      "vis_m": 7000,
      "fzfg": false,
      "metar_trigger": false,
      "taf_trigger": false,
      "metar": "METAR LIMF 241220Z 24004KT 210V270 7000 FEW035 BKN065 06/01 Q1003",
      "taf": ""
    },
    {
      "icao": "LIMJ",
      "alert": "OK",
      "vis_m": 9999,
      "fzfg": false,
      "metar_trigger": false,
      "taf_trigger": false,
      "metar": "METAR LIMJ 241220Z 04015KT 9999 SCT065 07/02 Q1001",
      "taf": ""
    },
    {
      "icao": "LIPE",
      "alert": "OK",
      "vis_m": 4000,
      "fzfg": false,
      "metar_trigger": false,
      "taf_trigger": false,
      "metar": "METAR LIPE 241220Z 27009KT 4000 BR BKN004 SCT007 05/04 Q1003",
      "taf": "TAF LIPE 241100Z 2412/2512 VRB05KT 3000 -RA BR BKN006"
    },
    {
      "icao": "LIPH",
      "alert": "OK",
      "vis_m": 9999,
      "fzfg": false,
      "metar_trigger": false,
      "taf_trigger": false,
      "metar": "METAR LIPH 241220Z 02004KT 350V050 9999 BKN030 09/08 Q1002",
      "taf": "TAF LIPH 241100Z 2412/2512 VRB05KT 7000 BKN040"
    },
    {
      "icao": "LIPQ",
      "alert": "OK",
      "vis_m": 4900,
      "fzfg": false,
      "metar_trigger": false,
      "taf_trigger": false,
      "metar": "METAR LIPQ 241220Z AUTO 34005KT 310V010 4900 RA BKN005/// OVC045/// 09/09 Q1003",
      "taf": "TAF LIPQ 241100Z 2412/2512 10006KT 9999 BKN015"
    },
    {
      "icao": "LIPR",
      "alert": "OK",
      "vis_m": 9999,
      "fzfg": false,
      "metar_trigger": false,
      "taf_trigger": false,
      "metar": "METAR LIPR 241220Z 31010KT 9999 BKN010 BKN030 07/06 Q1002",
      "taf": "TAF LIPR 241100Z 2412/2512 30010KT 6000 BKN010"
    },
    {
      "icao": "LIPX",
      "alert": "OK",
      "vis_m": 5000,
      "fzfg": false,
      "metar_trigger": false,
      "taf_trigger": false,
      "metar": "METAR LIPX 241220Z 33010KT 5000 BR SCT005 SCT045 07/06 Q1002",
      "taf": ""
    },
    {
      "icao": "LIPY",
      "alert": "OK",
      "vis_m": 5000,
      "fzfg": false,
      "metar_trigger": false,
      "taf_trigger": false,
      "metar": "METAR LIPY 241220Z AUTO 34009KT 5000 BR BKN002/// 09/08 Q1002",
      "taf": "TAF LIPY 241100Z 2412/2512 VRB05KT 6000 BKN010"
    },
    {
      "icao": "LIPZ",
      "alert": "OK",
      "vis_m": 7000,
      "fzfg": false,
      "metar_trigger": false,
      "taf_trigger": false,
      "metar": "METAR LIPZ 241220Z 03008KT 7000 BKN004 08/07 Q1002 NOSIG",
      "taf": "TAF LIPZ 241100Z 2412/2518 04010KT 6000 BKN020"
    },
    {
      "icao": "LIRF",
      "alert": "OK",
      "vis_m": 9999,
      "fzfg": false,
      "metar_trigger": false,
      "taf_trigger": false,
      "metar": "METAR LIRF 241220Z 20010KT 9999 FEW020CB SCT045 16/12 Q1002 NOSIG",
      "taf": "TAF LIRF 241100Z 2412/2518 18012KT 9999 SCT030"
    },
    {
      "icao": "LIRN",
      "alert": "OK",
      "vis_m": 7000,
      "fzfg": false,
      "metar_trigger": false,
      "taf_trigger": false,
      "metar": "METAR LIRN 241220Z 20011KT 7000 -RA FEW010 BKN030 14/12 Q1005 RERA NOSIG",
      "taf": "TAF LIRN 241100Z 2412/2512 19013KT 9999 SCT030"
    },
    {
      "icao": "LIRP",
      "alert": "OK",
      "vis_m": 9999,
      "fzfg": false,
      "metar_trigger": false,
      "taf_trigger": false,
      "metar": "METAR LIRP 241215Z 10009KT 9999 SCT010 SCT040 12/11 Q1000 NOSIG",
      "taf": "TAF LIRP 241100Z 2412/2512 11008KT 9999 FEW020 SCT050"
    },
    {
      "icao": "LIRZ",
      "alert": "OK",
      "vis_m": 9999,
      "fzfg": false,
      "metar_trigger": false,
      "taf_trigger": false,
      "metar": "METAR LIRZ 241220Z AUTO 20006KT 140V280 9999 BKN019/// BKN072/// 13/09 Q1002",
      "taf": "TAF LIRZ 241100Z 2412/2512 VRB05KT 9999 BKN030"
    },
    {
      "icao": "LJLJ",
      "alert": "OK",
      "vis_m": 2500,
      "fzfg": false,
      "metar_trigger": false,
      "taf_trigger": false,
      "metar": "METAR LJLJ 241200Z 19003KT 160V220 2500 -RA BR FEW003 OVC037 03/03 Q1003 NOSIG",
      "taf": "TAF LJLJ 241100Z 2412/2512 VRB02KT 3000 RA BR SCT003 OVC033"
    },
    {
      "icao": "LKMT",
      "alert": "OK",
      "vis_m": 1200,
      "fzfg": false,
      "metar_trigger": false,
      "taf_trigger": false,
      "metar": "METAR LKMT 241200Z 04004KT 1200 R22/1500N R04/1400N -FZDZ BR OVC004 M01/M02 Q1006 NOSIG",
      "taf": ""
    },
    {
      "icao": "LKPR",
      "alert": "OK",
      "vis_m": 3600,
      "fzfg": false,
      "metar_trigger": false,
      "taf_trigger": false,
      "metar": "METAR LKPR 241200Z 02003KT 3600 BR SCT005 BKN008 OVC012 M03/M04 Q1004 NOSIG",
      "taf": "TAF LKPR 241100Z 2412/2518 VRB02KT 6000 SCT006 OVC012"
    },
    {
      "icao": "LLBG",
      "alert": "OK",
      "vis_m": 8000,
      "fzfg": false,
      "metar_trigger": false,
      "taf_trigger": false,
      "metar": "METAR LLBG 241220Z 29007KT 250V310 8000 BKN025 19/07 Q1017 NOSIG RMK RERA",
      "taf": "TAF LLBG 241108Z 2412/2512 26012KT 8000 FEW045"
    },
    {
      "icao": "LMML",
      "alert": "OK",
      "vis_m": 9999,
      "fzfg": false,
      "metar_trigger": false,
      "taf_trigger": false,
      "metar": "METAR LMML 241215Z 18011KT CAVOK 18/13 Q1008 NOSIG",
      "taf": "TAF LMML 241100Z 2412/2512 19012KT 9999 FEW018"
    },
    {
      "icao": "LOWW",
      "alert": "OK",
      "vis_m": 5000,
      "fzfg": false,
      "metar_trigger": false,
      "taf_trigger": false,
      "metar": "METAR LOWW 241220Z VRB02KT 5000 BR SCT006 BKN008 M01/M02 Q1006 TEMPO 2500 BR BKN004",
      "taf": "TAF LOWW 241115Z 2412/2518 VRB04KT 3000 BR FEW003 OVC005 TX02/2514Z TNM01/2412Z"
    },
    {
      "icao": "LPFR",
      "alert": "OK",
      "vis_m": 9999,
      "fzfg": false,
      "metar_trigger": false,
      "taf_trigger": false,
      "metar": "METAR LPFR 241200Z 01008KT 9999 FEW020 12/06 Q1011",
      "taf": "TAF LPFR 241100Z 2412/2512 01008KT 9999 SCT020"
    },
    {
      "icao": "LPMA",
      "alert": "OK",
      "vis_m": 9999,
      "fzfg": false,
      "metar_trigger": false,
      "taf_trigger": false,
      "metar": "METAR LPMA 241200Z VRB08KT 9999 FEW015 18/07 Q1027",
      "taf": "TAF LPMA 241100Z 2412/2512 36010KT 9999 SCT015"
    },
    {
      "icao": "LPPR",
      "alert": "OK",
      "vis_m": 8000,
      "fzfg": false,
      "metar_trigger": false,
      "taf_trigger": false,
      "metar": "METAR LPPR 241200Z 32004KT 220V010 8000 -SHRA FEW010 SCT015 FEW018CB BKN022 09/08 Q1009 RESHGS",
      "taf": "TAF LPPR 241100Z 2412/2512 17010KT 9999 SCT025 SCT045"
    },
    {
      "icao": "LPPS",
      "alert": "OK",
      "vis_m": 9999,
      "fzfg": false,
      "metar_trigger": false,
      "taf_trigger": false,
      "metar": "METAR LPPS 241200Z 33014KT 9999 FEW015 18/09 Q1027",
      "taf": "TAF LPPS 241100Z 2412/2518 33013KT 9999 SCT015"
    },
    {
      "icao": "LPPT",
      "alert": "OK",
      "vis_m": 9999,
      "fzfg": false,
      "metar_trigger": false,
      "taf_trigger": false,
      "metar": "METAR LPPT 241200Z 32009KT 290V350 9999 FEW018 BKN025 12/08 Q1012",
      "taf": "TAF LPPT 241100Z 2412/2518 30012KT 9999 SCT020"
    },
    {
      "icao": "LQBK",
      "alert": "OK",
      "vis_m": 5000,
      "fzfg": false,
      "metar_trigger": false,
      "taf_trigger": false,
      "metar": "METAR LQBK 241200Z VRB03KT 5000 BR NSC 06/02 Q1004 TEMPO 6000 NSW",
      "taf": "TAF LQBK 241100Z 2412/2512 VRB02KT 6000 SCT040 TX07/2413Z TN02/2506Z"
    },
    {
      "icao": "LQSA",
      "alert": "OK",
      "vis_m": 9999,
      "fzfg": false,
      "metar_trigger": false,
      "taf_trigger": false,
      "metar": "METAR LQSA 241200Z 17004KT 100V210 9999 BKN055 08/03 Q1005 NOSIG",
      "taf": ""
    },
    {
      "icao": "LQTZ",
      "alert": "OK",
      "vis_m": 9999,
      "fzfg": false,
      "metar_trigger": false,
      "taf_trigger": false,
      "metar": "METAR LQTZ 241200Z 12009KT 9999 3000W NSC 06/03 Q1005",
      "taf": "TAF LQTZ 241100Z 2412/2512 15006KT 6000 NSC TX13/2512Z TN03/2502Z"
    },
    {
      "icao": "LRBC",
      "alert": "OK",
      "vis_m": 3000,
      "fzfg": false,
      "metar_trigger": false,
      "taf_trigger": false,
      "metar": "METAR LRBC 241200Z 16011KT 3000 BR OVC003 M02/M03 Q1012",
      "taf": "TAF LRBC 241100Z 2412/2421 15010KT 3000 BR OVC002"
    },
    {
      "icao": "LRBS",
      "alert": "OK",
      "vis_m": 3000,
      "fzfg": false,
      "metar_trigger": false,
      "taf_trigger": false,
      "metar": "METAR LRBS 241200Z VRB02KT 3000 BR OVC003 01/01 Q1014 NOSIG",
      "taf": "TAF LRBS 241100Z 2412/2512 VRB04KT 1500 BR OVC003"
    },
    {
      "icao": "LRBV",
      "alert": "OK",
      "vis_m": 9999,
      "fzfg": false,
      "metar_trigger": false,
      "taf_trigger": false,
      "metar": "METAR LRBV 241200Z 10004KT 080V140 CAVOK 05/01 Q1009",
      "taf": "TAF LRBV 241100Z 2412/2421 VRB04KT CAVOK"
    },
    {
      "icao": "LRCL",
      "alert": "OK",
      "vis_m": 7000,
      "fzfg": false,
      "metar_trigger": false,
      "taf_trigger": false,
      "metar": "METAR LRCL 241200Z 08007KT 7000 SCT064 03/01 Q1009",
      "taf": "TAF LRCL 241100Z 2412/2421 07006KT 5000 BR BKN050"
    },
    {
      "icao": "LRCV",
      "alert": "OK",
      "vis_m": 300,
      "fzfg": false,
      "metar_trigger": false,
      "taf_trigger": false,
      "metar": "METAR LRCV 241200Z 09004KT 0300 R26/0450N FG VV002 00/00 Q1013",
      "taf": "TAF LRCV 241100Z 2412/2421 VRB04KT 0300 FG VV001"
    },
    {
      "icao": "LRIA",
      "alert": "OK",
      "vis_m": 8000,
      "fzfg": false,
      "metar_trigger": false,
      "taf_trigger": false,
      "metar": "METAR LRIA 241200Z 11012KT 8000 BKN016 M02/M04 Q1013",
      "taf": "TAF LRIA 241100Z 2412/2421 11012KT 9999 BKN015 OVC025"
    },
    {
      "icao": "LROP",
      "alert": "OK",
      "vis_m": 2500,
      "fzfg": false,
      "metar_trigger": false,
      "taf_trigger": false,
      "metar": "METAR LROP 241200Z 07003KT 030V110 2500 BR OVC003 00/00 Q1014 NOSIG",
      "taf": "TAF LROP 241100Z 2412/2512 VRB04KT 1500 BR OVC002"
    },
    {
      "icao": "LRSB",
      "alert": "OK",
      "vis_m": 9999,
      "fzfg": false,
      "metar_trigger": false,
      "taf_trigger": false,
      "metar": "METAR LRSB 241200Z 27002KT CAVOK 06/00 Q1008 NOSIG",
      "taf": "TAF LRSB 241100Z 2412/2512 VRB04KT CAVOK"
    },
    {
      "icao": "LRSM",
      "alert": "OK",
      "vis_m": 9999,
      "fzfg": false,
      "metar_trigger": false,
      "taf_trigger": false,
      "metar": "METAR LRSM 241200Z AUTO 10005KT 9999 FEW050/// SCT085/// BKN130/// 04/02 Q1008 REDZ",
      "taf": ""
    },
    {
      "icao": "LRSV",
      "alert": "OK",
      "vis_m": 500,
      "fzfg": true,
      "metar_trigger": false,
      "taf_trigger": false,
      "metar": "METAR LRSV 241200Z 14009KT 0500 R34/0800D FZFG OVC001 M02/M02 Q1010",
      "taf": "TAF LRSV 241100Z 2412/2421 14010KT 3000 BR OVC005"
    },
    {
      "icao": "LRTM",
      "alert": "OK",
      "vis_m": 8000,
      "fzfg": false,
      "metar_trigger": false,
      "taf_trigger": false,
      "metar": "METAR LRTM 241200Z 05003KT 8000 NSC 06/01 Q1009",
      "taf": "TAF LRTM 241100Z 2412/2421 VRB04KT 5000 BR NSC"
    },
    {
      "icao": "LRTR",
      "alert": "OK",
      "vis_m": 9999,
      "fzfg": false,
      "metar_trigger": false,
      "taf_trigger": false,
      "metar": "METAR LRTR 241200Z 12008KT CAVOK 09/03 Q1007",
      "taf": "TAF LRTR 241100Z 2412/2512 12008KT CAVOK"
    },
    {
      "icao": "LTAC",
      "alert": "OK",
      "vis_m": 6000,
      "fzfg": false,
      "metar_trigger": false,
      "taf_trigger": false,
      "metar": "METAR LTAC 241220Z 04004KT 010V080 6000 SCT030 BKN080 07/04 Q1014 NOSIG",
      "taf": "TAF LTAC 241040Z 2412/2512 VRB02KT 9999 SCT040 BKN100"
    },
    {
      "icao": "LTFM",
      "alert": "OK",
      "vis_m": 9999,
      "fzfg": false,
      "metar_trigger": false,
      "taf_trigger": false,
      "metar": "METAR LTFM 241220Z 06007KT 030V090 9999 BKN006 BKN020 08/07 Q1014 NOSIG",
      "taf": "TAF LTFM 241040Z 2412/2518 06008KT 9999 BKN006 BKN020"
    },
    {
      "icao": "LUKK",
      "alert": "OK",
      "vis_m": 7000,
      "fzfg": false,
      "metar_trigger": false,
      "taf_trigger": false,
      "metar": "METAR LUKK 241200Z 10005KT 7000 -SN BKN035 M05/M06 Q1015 RESHSN NOSIG",
      "taf": "TAF LUKK 241128Z 2412/2512 10008KT 7000 SCT008 BKN018"
    },
    {
      "icao": "LWOH",
      "alert": "OK",
      "vis_m": 9999,
      "fzfg": false,
      "metar_trigger": false,
      "taf_trigger": false,
      "metar": "METAR LWOH 241220Z VRB02KT 9999 FEW020 BKN040 07/04 Q1011",
      "taf": "TAF LWOH 241120Z 2412/2512 18006KT 9999 FEW020 BKN040"
    },
    {
      "icao": "LWSK",
      "alert": "OK",
      "vis_m": 3000,
      "fzfg": false,
      "metar_trigger": false,
      "taf_trigger": false,
      "metar": "METAR LWSK 241220Z VRB02KT 3000 BR FEW004 OVC020 05/03 Q1012 NOSIG",
      "taf": "TAF LWSK 241120Z 2412/2512 VRB02KT 3000 BR SCT004 OVC015"
    },
    {
      "icao": "LYBE",
      "alert": "OK",
      "vis_m": 9999,
      "fzfg": false,
      "metar_trigger": false,
      "taf_trigger": false,
      "metar": "METAR LYBE 241200Z 14011KT CAVOK 10/02 Q1007 NOSIG",
      "taf": "TAF LYBE 241100Z 2412/2512 12008KT CAVOK TX12/2512Z TN04/2506Z"
    },
    {
      "icao": "LYNI",
      "alert": "OK",
      "vis_m": 9999,
      "fzfg": false,
      "metar_trigger": false,
      "taf_trigger": false,
      "metar": "METAR LYNI 241200Z 16004KT 110V200 9999 FEW027 SCT060 09/03 Q1010 NOSIG",
      "taf": "TAF LYNI 241100Z 2412/2512 15006KT 9999 SCT045 TX12/2512Z TN03/2505Z"
    },
    {
      "icao": "LYPG",
      "alert": "OK",
      "vis_m": 2000,
      "fzfg": false,
      "metar_trigger": false,
      "taf_trigger": false,
      "metar": "METAR LYPG 241200Z VRB02KT 2000 1300S R18/P2000N R36/P2000N -RA BR SCT006 BKN046 OVC080 10/09 Q1009 TEMPO 3000 RA",
      "taf": "TAF LYPG 241100Z 2412/2512 17005KT 8000 FEW010 BKN040 OVC070 TX11/2412Z TN07/2505Z"
    },
    {
      "icao": "LZIB",
      "alert": "OK",
      "vis_m": 2600,
      "fzfg": false,
      "metar_trigger": false,
      "taf_trigger": false,
      "metar": "METAR LZIB 241200Z VRB02KT 2600 BR OVC006 01/00 Q1005 TEMPO 3200 BR",
      "taf": "TAF LZIB 241115Z 2412/2512 08005KT 3500 BR BKN006 BKN014"
    },
    {
      "icao": "LZKZ",
      "alert": "OK",
      "vis_m": 1500,
      "fzfg": false,
      "metar_trigger": false,
      "taf_trigger": false,
      "metar": "METAR LZKZ 241200Z VRB02KT 1500 -RA BR BCFG BKN007 OVC011 02/02 Q1007 TEMPO 0600 -DZ FG BKN003",
      "taf": "TAF LZKZ 241115Z 2412/2512 VRB02KT 2000 BR BCFG OVC010"
    },
    {
      "icao": "LZTT",
      "alert": "OK",
      "vis_m": 8000,
      "fzfg": false,
      "metar_trigger": false,
      "taf_trigger": false,
      "metar": "METAR LZTT 241200Z VRB02KT 8000 -DZ BKN006 BKN036 01/00 Q1004 NOSIG",
      "taf": "TAF LZTT 241115Z 2412/2512 VRB02KT 6000 BKN006 BKN025"
    },
    {
      "icao": "OEJN",
      "alert": "OK",
      "vis_m": 8000,
      "fzfg": false,
      "metar_trigger": false,
      "taf_trigger": false,
      "metar": "METAR OEJN 241200Z 24012KT 8000 SCT040 29/19 Q1012 NOSIG",
      "taf": "TAF OEJN 241100Z 2412/2518 25012KT 7000 FEW040"
    },
    {
      "icao": "OEMA",
      "alert": "OK",
      "vis_m": 5000,
      "fzfg": false,
      "metar_trigger": false,
      "taf_trigger": false,
      "metar": "METAR OEMA 241200Z 28014KT 5000 TSRA FEW035CB BKN040 23/16 Q1015 TEMPO 2000",
      "taf": "TAF OEMA 241100Z 2412/2518 24015KT 7000 SCT045"
    },
    {
      "icao": "OJAI",
      "alert": "OK",
      "vis_m": 4000,
      "fzfg": false,
      "metar_trigger": false,
      "taf_trigger": false,
      "metar": "METAR OJAI 241200Z 28018KT 4000 BLDU SCT030 14/00 Q1018 NOSIG",
      "taf": ""
    },
    {
      "icao": "OMAA",
      "alert": "OK",
      "vis_m": 9999,
      "fzfg": false,
      "metar_trigger": false,
      "taf_trigger": false,
      "metar": "METAR OMAA 241200Z 31009KT CAVOK 22/09 Q1017 NOSIG",
      "taf": "TAF OMAA 241100Z 2412/2518 26005KT 8000 NSC"
    },
    {
      "icao": "OMDB",
      "alert": "OK",
      "vis_m": 9999,
      "fzfg": false,
      "metar_trigger": false,
      "taf_trigger": false,
      "metar": "METAR OMDB 241200Z 33008KT 290V360 CAVOK 22/08 Q1017 NOSIG",
      "taf": "TAF OMDB 241100Z 2412/2518 30010KT 8000 NSC"
    },
    {
      "icao": "UAAA",
      "alert": "OK",
      "vis_m": 9999,
      "fzfg": false,
      "metar_trigger": false,
      "taf_trigger": false,
      "metar": "METAR UAAA 241200Z 00000MPS 9999 SCT100 M04/M09 Q1017 NOSIG",
      "taf": "TAF UAAA 241102Z 2412/2512 06003MPS 3100 BR FU SCT050 BKN100 TXM01/2508Z TNM12/2502Z"
    },
    {
      "icao": "UBBB",
      "alert": "OK",
      "vis_m": 9999,
      "fzfg": false,
      "metar_trigger": false,
      "taf_trigger": false,
      "metar": "METAR UBBB 241200Z 04006KT 9999 FEW023 07/02 Q1016 NOSIG",
      "taf": "TAF UBBB 241055Z 2412/2512 36005KT 9999 SCT012 BKN025 TX07/2412Z TN02/2502Z"
    },
    {
      "icao": "UDSG",
      "alert": "OK",
      "vis_m": 4500,
      "fzfg": false,
      "metar_trigger": false,
      "taf_trigger": false,
      "metar": "METAR UDSG 241200Z 20002KT 4500 BR SCT013 OVC043 M06/M08 Q1017 NOSIG",
      "taf": "TAF UDSG 241100Z 2412/2512 VRB06KT 2000 BR BKN020"
    },
    {
      "icao": "UDYZ",
      "alert": "OK",
      "vis_m": 2400,
      "fzfg": false,
      "metar_trigger": false,
      "taf_trigger": false,
      "metar": "METAR UDYZ 241200Z 07002KT 2400 BR BKN013 M02/M05 Q1020 NOSIG",
      "taf": "TAF UDYZ 241100Z 2412/2512 VRB06KT 2300 BR BKN020"
    },
    {
      "icao": "UGKO",
      "alert": "OK",
      "vis_m": 9999,
      "fzfg": false,
      "metar_trigger": false,
      "taf_trigger": false,
      "metar": "METAR UGKO 241200Z VRB02KT 9999 BKN078 11/04 Q1014 NOSIG",
      "taf": "TAF UGKO 241100Z 2412/2512 09007KT 9999 BKN080 TX11/2412Z TN05/2504Z"
    }
  ]
}