{
  "ts_utc": "2025-12-22T08:41:16Z",
  "threshold_m": 150,
  "source": "stations_override.txt (ICAO list) + aviationweather.gov (METAR/TAF raw)",
  "station_count": 114,
  "stations": [
    {
      "icao": "BIKF",
      "alert": "OK",
      "vis_m": 9999,
      "fzfg": false,
      "metar_trigger": false,
      "taf_trigger": false,
      "metar": "METAR BIKF 220830Z 12023G34KT 9999 FEW021 SCT032 08/05 Q0999",
      "taf": "TAF BIKF 220752Z 2209/2309 13026G38KT 9999 -SHRA SCT015 BKN025 TX08/2216Z TN02/2308Z"
    },
    {
      "icao": "BKPR",
      "alert": "OK",
      "vis_m": 3500,
      "fzfg": false,
      "metar_trigger": false,
      "taf_trigger": false,
      "metar": "METAR BKPR 220830Z 32004KT 3500 BR SCT008 BKN020 02/02 Q1019 NOSIG",
      "taf": "TAF BKPR 220530Z 2206/2306 VRB03KT 3000 BR BKN006"
    },
    {
      "icao": "EBBR",
      "alert": "OK",
      "vis_m": 9999,
      "fzfg": false,
      "metar_trigger": false,
      "taf_trigger": false,
      "metar": "METAR EBBR 220820Z 13004KT CAVOK 04/01 Q1008 NOSIG",
      "taf": "TAF EBBR 220502Z 2206/2312 05005KT CAVOK"
    },
    {
      "icao": "EBCI",
      "alert": "OK",
      "vis_m": 9999,
      "fzfg": false,
      "metar_trigger": false,
      "taf_trigger": false,
      "metar": "METAR EBCI 220820Z 15005KT 130V190 CAVOK 05/01 Q1008 NOSIG",
      "taf": "TAF EBCI 220502Z 2206/2312 05005KT CAVOK"
    },
    {
      "icao": "EDDB",
      "alert": "OK",
      "vis_m": 6000,
      "fzfg": false,
      "metar_trigger": false,
      "taf_trigger": false,
      "metar": "METAR EDDB 220820Z AUTO 10011KT 6000 OVC004 03/03 Q1018 BECMG 6000",
      "taf": "TAF EDDB 220500Z 2206/2306 07010KT 2500 BR BKN003"
    },
    {
      "icao": "EDDH",
      "alert": "OK",
      "vis_m": 5000,
      "fzfg": false,
      "metar_trigger": false,
      "taf_trigger": false,
      "metar": "METAR EDDH 220820Z AUTO 09011KT 5000 BR OVC003 04/04 Q1017 NOSIG",
      "taf": "TAF EDDH 220500Z 2206/2312 09011KT 6000 OVC003"
    },
    {
      "icao": "EDDK",
      "alert": "OK",
      "vis_m": 9999,
      "fzfg": false,
      "metar_trigger": false,
      "taf_trigger": false,
      "metar": "METAR EDDK 220820Z AUTO 11006KT CAVOK 04/01 Q1011 NOSIG",
      "taf": "TAF EDDK 220500Z 2206/2312 11006KT CAVOK"
    },
    {
      "icao": "EDDN",
      "alert": "OK",
      "vis_m": 9999,
      "fzfg": false,
      "metar_trigger": false,
      "taf_trigger": false,
      "metar": "METAR EDDN 220820Z AUTO 14005KT 9999 OVC012 03/00 Q1012 NOSIG",
      "taf": "TAF EDDN 220500Z 2206/2306 09006KT 9999 OVC010"
    },
    {
      "icao": "EDFH",
      "alert": "OK",
      "vis_m": 3000,
      "fzfg": false,
      "metar_trigger": false,
      "taf_trigger": false,
      "metar": "METAR EDFH 220820Z 13014KT 3000 BR OVC002 M00/M01 Q1009",
      "taf": "TAF EDFH 220500Z 2206/2306 13011KT CAVOK"
    },
    {
      "icao": "EDJA",
      "alert": "OK",
      "vis_m": 2900,
      "fzfg": false,
      "metar_trigger": false,
      "taf_trigger": false,
      "metar": "METAR EDJA 220820Z 05006KT 2900 BR BKN002 OVC014 M02/M03 Q1009",
      "taf": "TAF EDJA 220800Z 2209/2218 07005KT 3500 BR OVC002"
    },
    {
      "icao": "EDLW",
      "alert": "OK",
      "vis_m": 9999,
      "fzfg": false,
      "metar_trigger": false,
      "taf_trigger": false,
      "metar": "METAR EDLW 220820Z COR 04007KT CAVOK 03/02 Q1011",
      "taf": "TAF EDLW 220500Z 2206/2306 08007KT CAVOK"
    },
    {
      "icao": "EDSB",
      "alert": "OK",
      "vis_m": 8000,
      "fzfg": false,
      "metar_trigger": false,
      "taf_trigger": false,
      "metar": "METAR EDSB 220820Z 02003KT 8000 BKN007 01/M01 Q1011",
      "taf": "TAF EDSB 220500Z 2206/2306 03004KT 2000 BR BKN002"
    },
    {
      "icao": "EETN",
      "alert": "OK",
      "vis_m": 9999,
      "fzfg": false,
      "metar_trigger": false,
      "taf_trigger": false,
      "metar": "METAR EETN 220820Z 34003KT 9999 SCT013 FEW016CB BKN022 02/00 Q1020 NOSIG",
      "taf": "TAF EETN 220530Z 2206/2306 35008KT 9999 SCT013 BKN020"
    },
    {
      "icao": "EFHK",
      "alert": "OK",
      "vis_m": 9999,
      "fzfg": false,
      "metar_trigger": false,
      "taf_trigger": false,
      "metar": "METAR EFHK 220820Z 32005KT 9999 FEW030 BKN037 01/M00 Q1021 TEMPO FM0920 4000 -SN BKN007",
      "taf": "TAF EFHK 220827Z 2209/2309 33006KT 9999 FEW012 BKN030"
    },
    {
      "icao": "EFTU",
      "alert": "OK",
      "vis_m": 9999,
      "fzfg": false,
      "metar_trigger": false,
      "taf_trigger": false,
      "metar": "METAR EFTU 220820Z AUTO 08006KT 9999 -FZRA OVC002 M01/M01 Q1022 REFZDZ",
      "taf": "TAF EFTU 220827Z 2209/2309 36004KT 9999 BKN004"
    },
    {
      "icao": "EGGW",
      "alert": "OK",
      "vis_m": 1300,
      "fzfg": false,
      "metar_trigger": false,
      "taf_trigger": false,
      "metar": "METAR EGGW 220820Z AUTO 11009KT 080V140 1300 R07/P1500N BR OVC002 08/07 Q1006",
      "taf": ""
    },
    {
      "icao": "EGKK",
      "alert": "OK",
      "vis_m": 9999,
      "fzfg": false,
      "metar_trigger": false,
      "taf_trigger": false,
      "metar": "METAR EGKK 220820Z 08005KT 9999 BKN029 09/09 Q1006",
      "taf": "TAF EGKK 220456Z 2206/2312 10008KT 9999 SCT025"
    },
    {
      "icao": "EHEH",
      "alert": "OK",
      "vis_m": 9999,
      "fzfg": false,
      "metar_trigger": false,
      "taf_trigger": false,
      "metar": "METAR EHEH 220825Z AUTO 08006KT 050V140 9999 OVC170 05/02 Q1010 BLU NOSIG RMK TREND REMOTE BY EHWX",
      "taf": "TAF EHEH 220526Z 2206/2312 09006KT CAVOK"
    },
    {
      "icao": "EKBI",
      "alert": "OK",
      "vis_m": 9999,
      "fzfg": false,
      "metar_trigger": false,
      "taf_trigger": false,
      "metar": "METAR EKBI 220820Z AUTO 10012KT 9999 OVC013/// 04/02 Q1020",
      "taf": "TAF EKBI 220827Z 2209/2309 10012KT 9999 BKN012"
    },
    {
      "icao": "EKCH",
      "alert": "OK",
      "vis_m": 9999,
      "fzfg": false,
      "metar_trigger": false,
      "taf_trigger": false,
      "metar": "METAR EKCH 220820Z 11010KT 070V130 9999 FEW013 BKN015 05/02 Q1023 TEMPO BKN013",
      "taf": "TAF EKCH 220827Z 2209/2309 10012KT 9999 BKN015"
    },
    {
      "icao": "ENTO",
      "alert": "OK",
      "vis_m": 9999,
      "fzfg": false,
      "metar_trigger": false,
      "taf_trigger": false,
      "metar": "METAR ENTO 220820Z 01008KT CAVOK M03/M04 Q1025 NOSIG",
      "taf": "TAF ENTO 220500Z 2206/2306 01008KT CAVOK"
    },
    {
      "icao": "EPGD",
      "alert": "OK",
      "vis_m": 9999,
      "fzfg": false,
      "metar_trigger": false,
      "taf_trigger": false,
      "metar": "METAR EPGD 220830Z 14001KT 9999 OVC021 04/02 Q1023",
      "taf": "TAF EPGD 220530Z 2206/2306 VRB03KT 9999 BKN018"
    },
    {
      "icao": "EPKK",
      "alert": "OK",
      "vis_m": 2500,
      "fzfg": false,
      "metar_trigger": false,
      "taf_trigger": false,
      "metar": "METAR EPKK 220830Z 06011KT 2500 BR OVC003 02/02 Q1020",
      "taf": "TAF EPKK 220830Z 2209/2309 06010KT 3500 BR OVC003"
    },
    {
      "icao": "EPKT",
      "alert": "OK",
      "vis_m": 7000,
      "fzfg": false,
      "metar_trigger": false,
      "taf_trigger": false,
      "metar": "METAR EPKT 220830Z 10009KT 7000 OVC003 03/02 Q1019",
      "taf": "TAF EPKT 220530Z 2206/2306 07005KT 9999 OVC003"
    },
    {
      "icao": "EPWA",
      "alert": "OK",
      "vis_m": 9999,
      "fzfg": false,
      "metar_trigger": false,
      "taf_trigger": false,
      "metar": "METAR EPWA 220830Z VRB02KT 9999 BKN024 02/M01 Q1023 NOSIG",
      "taf": "TAF EPWA 220830Z 2209/2309 12004KT 9999 BKN025"
    },
    {
      "icao": "EPWR",
      "alert": "OK",
      "vis_m": 3500,
      "fzfg": false,
      "metar_trigger": false,
      "taf_trigger": false,
      "metar": "METAR EPWR 220830Z 10009KT 3500 BR OVC004 04/04 Q1019",
      "taf": "TAF EPWR 220830Z 2209/2309 09009KT 3000 BR OVC003"
    },
    {
      "icao": "ESGG",
      "alert": "OK",
      "vis_m": 9999,
      "fzfg": false,
      "metar_trigger": false,
      "taf_trigger": false,
      "metar": "METAR ESGG 220820Z 10005KT CAVOK M00/M01 Q1023",
      "taf": "TAF ESGG 220830Z 2209/2309 09006KT CAVOK"
    },
    {
      "icao": "ESKN",
      "alert": "OK",
      "vis_m": 9999,
      "fzfg": false,
      "metar_trigger": false,
      "taf_trigger": false,
      "metar": "METAR ESKN 220820Z 31003KT CAVOK M04/M04 Q1024",
      "taf": "TAF ESKN 220830Z 2209/2309 31005KT CAVOK"
    },
    {
      "icao": "ESMX",
      "alert": "OK",
      "vis_m": 2800,
      "fzfg": false,
      "metar_trigger": false,
      "taf_trigger": false,
      "metar": "METAR ESMX 220820Z AUTO VRB02KT 2800 BR FEW190/// M02/M02 Q1024",
      "taf": "TAF ESMX 220830Z 2209/2218 01003KT CAVOK"
    },
    {
      "icao": "EVRA",
      "alert": "OK",
      "vis_m": 9999,
      "fzfg": false,
      "metar_trigger": false,
      "taf_trigger": false,
      "metar": "METAR EVRA 220820Z 33005KT 290V020 9999 FEW019 OVC030 06/02 Q1021 NOSIG",
      "taf": "TAF EVRA 220801Z 2209/2309 31007KT 9999 OVC025"
    },
    {
      "icao": "EYKA",
      "alert": "OK",
      "vis_m": 9999,
      "fzfg": false,
      "metar_trigger": false,
      "taf_trigger": false,
      "metar": "METAR EYKA 220820Z 31004KT 250V020 9999 BKN019 03/01 Q1022",
      "taf": "TAF EYKA 220500Z 2206/2306 VRB04KT 9000 OVC015"
    },
    {
      "icao": "EYVI",
      "alert": "OK",
      "vis_m": 9999,
      "fzfg": false,
      "metar_trigger": false,
      "taf_trigger": false,
      "metar": "METAR EYVI 220820Z 34010KT 310V040 9999 OVC010 02/00 Q1021 NOSIG",
      "taf": "TAF EYVI 220514Z 2206/2306 31007KT 9000 OVC010"
    },
    {
      "icao": "GCLP",
      "alert": "OK",
      "vis_m": 9999,
      "fzfg": false,
      "metar_trigger": false,
      "taf_trigger": false,
      "metar": "METAR GCLP 220830Z 35010KT 9999 FEW025 SCT050 16/14 Q1020 NOSIG",
      "taf": "TAF GCLP 220800Z 2209/2309 02017KT 9999 SCT020 BKN035 TX20/2214Z TN16/2306Z"
    },
    {
      "icao": "GCTS",
      "alert": "OK",
      "vis_m": 9999,
      "fzfg": false,
      "metar_trigger": false,
      "taf_trigger": false,
      "metar": "METAR GCTS 220830Z 01007KT 9999 FEW030 15/07 Q1021 NOSIG",
      "taf": "TAF GCTS 220800Z 2209/2309 06015KT 9999 SCT040 TX24/2214Z TN15/2306Z"
    },
    {
      "icao": "HECA",
      "alert": "OK",
      "vis_m": 6000,
      "fzfg": false,
      "metar_trigger": false,
      "taf_trigger": false,
      "metar": "METAR HECA 220830Z 19011KT 6000 NSC 19/00 Q1014 NOSIG",
      "taf": "TAF HECA 220500Z 2206/2312 15009KT 6000 NSC"
    },
    {
      "icao": "HEGN",
      "alert": "OK",
      "vis_m": 9999,
      "fzfg": false,
      "metar_trigger": false,
      "taf_trigger": false,
      "metar": "METAR HEGN 220800Z 33004KT CAVOK 23/11 Q1015 NOSIG",
      "taf": "TAF HEGN 220500Z 2206/2312 27008KT CAVOK"
    },
    {
      "icao": "HESH",
      "alert": "OK",
      "vis_m": 9999,
      "fzfg": false,
      "metar_trigger": false,
      "taf_trigger": false,
      "metar": "METAR HESH 220800Z 36005KT CAVOK 23/13 Q1015 NOSIG",
      "taf": "TAF HESH 220500Z 2206/2312 30008KT CAVOK"
    },
    {
      "icao": "HESX",
      "alert": "OK",
      "vis_m": 9999,
      "fzfg": false,
      "metar_trigger": false,
      "taf_trigger": false,
      "metar": "METAR HESX 220800Z 20010KT CAVOK 16/02 Q1014 NOSIG",
      "taf": "TAF HESX 220500Z 2206/2312 20008KT CAVOK"
    },
    {
      "icao": "LATI",
      "alert": "OK",
      "vis_m": 9999,
      "fzfg": false,
      "metar_trigger": false,
      "taf_trigger": false,
      "metar": "METAR LATI 220820Z VRB03KT CAVOK 08/03 Q1016 NOSIG",
      "taf": "TAF LATI 220500Z 2206/2306 VRB05KT CAVOK TX17/2212Z TN01/2305Z"
    },
    {
      "icao": "LBSF",
      "alert": "OK",
      "vis_m": 5000,
      "fzfg": false,
      "metar_trigger": false,
      "taf_trigger": false,
      "metar": "METAR LBSF 220830Z VRB02KT 5000 BR FEW007 BKN030 01/M00 Q1020 NOSIG",
      "taf": "TAF LBSF 220500Z 2206/2306 VRB04KT 5000 BR SCT007 BKN020"
    },
    {
      "icao": "LBWN",
      "alert": "OK",
      "vis_m": 9999,
      "fzfg": false,
      "metar_trigger": false,
      "taf_trigger": false,
      "metar": "METAR LBWN 220830Z 35008KT 9999 OVC016 06/05 Q1021 NOSIG",
      "taf": "TAF LBWN 220500Z 2206/2306 35010KT 9999 BKN012 OVC020"
    },
    {
      "icao": "LCLK",
      "alert": "OK",
      "vis_m": 9999,
      "fzfg": false,
      "metar_trigger": false,
      "taf_trigger": false,
      "metar": "METAR LCLK 220830Z 07017KT 9999 FEW025TCU SCT055 20/14 Q1015 NOSIG",
      "taf": "TAF LCLK 220530Z 2206/2306 03012KT 9999 FEW020 SCT030"
    },
    {
      "icao": "LDDU",
      "alert": "OK",
      "vis_m": 9999,
      "fzfg": false,
      "metar_trigger": false,
      "taf_trigger": false,
      "metar": "METAR LDDU 220830Z 06005KT CAVOK 13/03 Q1015 NOSIG",
      "taf": "TAF LDDU 220525Z 2206/2306 08007KT CAVOK TX15/2212Z TN08/2206Z"
    },
    {
      "icao": "LDSP",
      "alert": "OK",
      "vis_m": 9999,
      "fzfg": false,
      "metar_trigger": false,
      "taf_trigger": false,
      "metar": "METAR LDSP 220830Z VRB02KT CAVOK 07/04 Q1015 NOSIG",
      "taf": "TAF LDSP 220525Z 2206/2306 31004KT CAVOK TX15/2212Z TN07/2206Z"
    },
    {
      "icao": "LDZA",
      "alert": "OK",
      "vis_m": 3000,
      "fzfg": false,
      "metar_trigger": false,
      "taf_trigger": false,
      "metar": "METAR LDZA 220830Z 00000KT 3000 BR FEW004 OVC014 04/03 Q1020 TEMPO BKN004",
      "taf": "TAF LDZA 220525Z 2206/2306 VRB02KT 7000 OVC015 TX06/2213Z TN01/2305Z"
    },
    {
      "icao": "LEAL",
      "alert": "OK",
      "vis_m": 9999,
      "fzfg": false,
      "metar_trigger": false,
      "taf_trigger": false,
      "metar": "METAR LEAL 220830Z 29011KT 250V320 9999 FEW025 09/02 Q1008 NOSIG",
      "taf": "TAF LEAL 220500Z 2206/2306 28008KT 9999 FEW040 TX13/2213Z TN08/2207Z"
    },
    {
      "icao": "LEBL",
      "alert": "OK",
      "vis_m": 9999,
      "fzfg": false,
      "metar_trigger": false,
      "taf_trigger": false,
      "metar": "METAR LEBL 220830Z 30007KT 250V350 9999 FEW040 08/05 Q1003 NOSIG",
      "taf": "TAF LEBL 220500Z 2206/2306 32012KT 9999 SCT040 TX12/2213Z TN06/2306Z"
    },
    {
      "icao": "LECH",
      "alert": "OK",
      "vis_m": 9999,
      "fzfg": false,
      "metar_trigger": false,
      "taf_trigger": false,
      "metar": "METAR LECH 220830Z AUTO VRB02KT CAVOK 05/M01 Q1005",
      "taf": ""
    },
    {
      "icao": "LEMD",
      "alert": "OK",
      "vis_m": 8000,
      "fzfg": false,
      "metar_trigger": false,
      "taf_trigger": false,
      "metar": "METAR LEMD 220830Z 17004KT 130V210 8000 FEW004 BKN008 01/01 Q1008 NOSIG",
      "taf": ""
    },
    {
      "icao": "LEMG",
      "alert": "OK",
      "vis_m": 9999,
      "fzfg": false,
      "metar_trigger": false,
      "taf_trigger": false,
      "metar": "METAR LEMG 220830Z 31008KT 9999 FEW020 06/03 Q1013 NOSIG",
      "taf": "TAF LEMG 220500Z 2206/2306 30005KT 9999 FEW040 TX14/2214Z TN07/2206Z"
    },
    {
      "icao": "LERS",
      "alert": "OK",
      "vis_m": 9999,
      "fzfg": false,
      "metar_trigger": false,
      "taf_trigger": false,
      "metar": "METAR LERS 220830Z 28008KT 240V320 9999 FEW020 08/01 Q1004",
      "taf": "TAF LERS 220800Z 2209/2309 30009KT 9999 FEW040 TX13/2213Z TN05/2306Z"
    },
    {
      "icao": "LEVC",
      "alert": "OK",
      "vis_m": 9999,
      "fzfg": false,
      "metar_trigger": false,
      "taf_trigger": false,
      "metar": "METAR LEVC 220830Z 25014KT 9999 FEW018 06/00 Q1007 NOSIG",
      "taf": "TAF LEVC 220500Z 2206/2306 27010KT 9999 FEW040 TX12/2213Z TN05/2207Z"
    },
    {
      "icao": "LFLL",
      "alert": "OK",
      "vis_m": 8000,
      "fzfg": false,
      "metar_trigger": false,
      "taf_trigger": false,
      "metar": "METAR LFLL 220830Z 05003KT 010V090 8000 -RA FEW012 BKN060 08/07 Q1006 TEMPO 4500 -RA BKN012",
      "taf": "TAF LFLL 220500Z 2206/2312 15005KT CAVOK"
    },
    {
      "icao": "LFMN",
      "alert": "OK",
      "vis_m": 9999,
      "fzfg": false,
      "metar_trigger": false,
      "taf_trigger": false,
      "metar": "METAR LFMN 220830Z 05016KT 9999 -RA BKN045 BKN056 15/08 Q1009 NOSIG",
      "taf": "TAF LFMN 220800Z 2209/2315 07016KT 9999 BKN045"
    },
    {
      "icao": "LFOB",
      "alert": "OK",
      "vis_m": 9999,
      "fzfg": false,
      "metar_trigger": false,
      "taf_trigger": false,
      "metar": "METAR LFOB 220830Z AUTO 13003KT 9999 BKN012 OVC160 07/07 Q1007 BECMG FEW020 BKN120",
      "taf": ""
    },
    {
      "icao": "LFPO",
      "alert": "OK",
      "vis_m": 9999,
      "fzfg": false,
      "metar_trigger": false,
      "taf_trigger": false,
      "metar": "METAR LFPO 220830Z VRB02KT 9999 FEW013 BKN120 BKN160 07/07 Q1007 NOSIG",
      "taf": "TAF LFPO 220500Z 2206/2312 10003KT CAVOK"
    },
    {
      "icao": "LFSB",
      "alert": "OK",
      "vis_m": 9999,
      "fzfg": false,
      "metar_trigger": false,
      "taf_trigger": false,
      "metar": "METAR LFSB 220830Z AUTO 09004KT CAVOK 02/00 Q1009 BECMG BKN003",
      "taf": "TAF LFSB 220500Z 2206/2306 07004KT CAVOK"
    },
    {
      "icao": "LGAV",
      "alert": "OK",
      "vis_m": 9999,
      "fzfg": false,
      "metar_trigger": false,
      "taf_trigger": false,
      "metar": "METAR LGAV 220820Z 03012KT 9999 FEW025 SCT040 BKN070 15/09 Q1016 NOSIG",
      "taf": "TAF LGAV 220500Z 2206/2306 03015KT 9999 SCT035"
    },
    {
      "icao": "LGIR",
      "alert": "OK",
      "vis_m": 9999,
      "fzfg": false,
      "metar_trigger": false,
      "taf_trigger": false,
      "metar": "METAR LGIR 220820Z 17006KT 9999 FEW020 16/12 Q1014 NOSIG",
      "taf": "TAF LGIR 220500Z 2206/2306 18010KT 9999 SCT020 SCT080"
    },
    {
      "icao": "LGKR",
      "alert": "OK",
      "vis_m": 9999,
      "fzfg": false,
      "metar_trigger": false,
      "taf_trigger": false,
      "metar": "METAR LGKR 220820Z 00000KT 9999 FEW020 SCT040 11/09 Q1013 NOSIG",
      "taf": "TAF LGKR 220500Z 2206/2306 VRB03KT 9999 FEW010 SCT020"
    },
    {
      "icao": "LGRP",
      "alert": "OK",
      "vis_m": 7000,
      "fzfg": false,
      "metar_trigger": false,
      "taf_trigger": false,
      "metar": "METAR LGRP 220820Z 12007KT 090V210 7000 3000E -TSRA FEW016CB FEW018TCU BKN020 14/14 Q1013 NOSIG",
      "taf": ""
    },
    {
      "icao": "LGTS",
      "alert": "OK",
      "vis_m": 9999,
      "fzfg": false,
      "metar_trigger": false,
      "taf_trigger": false,
      "metar": "METAR LGTS 220820Z VRB03KT 9999 FEW008 11/08 Q1019 NOSIG",
      "taf": "TAF LGTS 220500Z 2206/2306 VRB03KT 9999 FEW025"
    },
    {
      "icao": "LGZA",
      "alert": "OK",
      "vis_m": 9999,
      "fzfg": false,
      "metar_trigger": false,
      "taf_trigger": false,
      "metar": "METAR LGZA 220750Z 00000KT 9999 SCT020 BKN080 13/11 Q1014",
      "taf": "TAF LGZA 220800Z 2209/2218 12010KT 9999 FEW020 BKN080"
    },
    {
      "icao": "LHBP",
      "alert": "OK",
      "vis_m": 9999,
      "fzfg": false,
      "metar_trigger": false,
      "taf_trigger": false,
      "metar": "SPECI LHBP 220835Z 09006KT 9999 -DZ SCT004 OVC008 03/03 Q1021 TEMPO OVC010",
      "taf": "TAF LHBP 220515Z 2206/2306 12005KT 6000 OVC010"
    },
    {
      "icao": "LHDC",
      "alert": "OK",
      "vis_m": 2300,
      "fzfg": false,
      "metar_trigger": false,
      "taf_trigger": false,
      "metar": "METAR LHDC 220815Z AUTO 00000KT 2300 BR OVC018 05/05 Q1021 TEMPO 3500 BR",
      "taf": "TAF LHDC 220815Z 2209/2218 VRB03KT 6000 OVC017"
    },
    {
      "icao": "LIBD",
      "alert": "OK",
      "vis_m": 7000,
      "fzfg": false,
      "metar_trigger": false,
      "taf_trigger": false,
      "metar": "METAR LIBD 220820Z VRB02KT 7000 SCT040 10/09 Q1014",
      "taf": "TAF LIBD 220500Z 2206/2306 VRB05KT 9999 FEW030"
    },
    {
      "icao": "LICC",
      "alert": "OK",
      "vis_m": 9999,
      "fzfg": false,
      "metar_trigger": false,
      "taf_trigger": false,
      "metar": "METAR LICC 220820Z 27003KT 230V330 9999 FEW020 SCT070 14/13 Q1012",
      "taf": "TAF LICC 220500Z 2206/2306 VRB06KT 8000 RA BKN012"
    },
    {
      "icao": "LICJ",
      "alert": "OK",
      "vis_m": 9999,
      "fzfg": false,
      "metar_trigger": false,
      "taf_trigger": false,
      "metar": "METAR LICJ 220820Z VRB02KT 9999 FEW050 15/11 Q1010",
      "taf": "TAF LICJ 220500Z 2206/2306 VRB05KT 9999 FEW040"
    },
    {
      "icao": "LIEO",
      "alert": "OK",
      "vis_m": 9999,
      "fzfg": false,
      "metar_trigger": false,
      "taf_trigger": false,
      "metar": "METAR LIEO 220820Z 24003KT 210V330 9999 SCT010 SCT030 11/11 Q1008",
      "taf": "TAF LIEO 220500Z 2206/2306 VRB05KT 9999 SCT020"
    },
    {
      "icao": "LIMC",
      "alert": "OK",
      "vis_m": 9999,
      "fzfg": false,
      "metar_trigger": false,
      "taf_trigger": false,
      "metar": "METAR LIMC 220820Z 02003KT 9999 BKN050 08/06 Q1015 NOSIG",
      "taf": "TAF LIMC 220500Z 2206/2312 VRB03KT 9999 BKN035"
    },
    {
      "icao": "LIME",
      "alert": "OK",
      "vis_m": 9999,
      "fzfg": false,
      "metar_trigger": false,
      "taf_trigger": false,
      "metar": "METAR LIME 220820Z 01003KT 9999 FEW050 SCT090 07/04 Q1015 NOSIG",
      "taf": "TAF LIME 220500Z 2206/2306 VRB03KT 8000 BKN035"
    },
    {
      "icao": "LIPH",
      "alert": "OK",
      "vis_m": 9999,
      "fzfg": false,
      "metar_trigger": false,
      "taf_trigger": false,
      "metar": "METAR LIPH 220820Z 36002KT CAVOK 05/02 Q1016",
      "taf": "TAF LIPH 220500Z 2206/2306 VRB04KT 9999 FEW030"
    },
    {
      "icao": "LIPQ",
      "alert": "OK",
      "vis_m": 9999,
      "fzfg": false,
      "metar_trigger": false,
      "taf_trigger": false,
      "metar": "METAR LIPQ 220820Z AUTO 06003KT 9999 NCD 06/03 Q1016",
      "taf": "TAF LIPQ 220500Z 2206/2306 07007KT CAVOK"
    },
    {
      "icao": "LIPX",
      "alert": "OK",
      "vis_m": 9999,
      "fzfg": false,
      "metar_trigger": false,
      "taf_trigger": false,
      "metar": "METAR LIPX 220820Z 36004KT 9999 FEW060 03/02 Q1016",
      "taf": "TAF LIPX 220500Z 2206/2306 VRB03KT 9999 BKN040"
    },
    {
      "icao": "LIPY",
      "alert": "OK",
      "vis_m": 7000,
      "fzfg": false,
      "metar_trigger": false,
      "taf_trigger": false,
      "metar": "METAR LIPY 220820Z AUTO 19004KT 160V220 7000 BKN009/// 11/10 Q1014",
      "taf": "TAF LIPY 220500Z 2206/2306 VRB05KT 3000 BR BKN010"
    },
    {
      "icao": "LIPZ",
      "alert": "OK",
      "vis_m": 9999,
      "fzfg": false,
      "metar_trigger": false,
      "taf_trigger": false,
      "metar": "METAR LIPZ 220820Z 01005KT 9999 FEW050 SCT070 05/02 Q1016 NOSIG",
      "taf": "TAF LIPZ 220500Z 2206/2312 03005KT 9999 FEW030"
    },
    {
      "icao": "LIRA",
      "alert": "OK",
      "vis_m": 9999,
      "fzfg": false,
      "metar_trigger": false,
      "taf_trigger": false,
      "metar": "METAR LIRA 220820Z 05003KT 010V090 9999 SCT060 12/07 Q1011",
      "taf": "TAF LIRA 220500Z 2206/2306 05005KT 9999 SCT060"
    },
    {
      "icao": "LIRN",
      "alert": "OK",
      "vis_m": 9999,
      "fzfg": false,
      "metar_trigger": false,
      "taf_trigger": false,
      "metar": "METAR LIRN 220820Z 35004KT 250V010 CAVOK 13/08 Q1012 NOSIG",
      "taf": "TAF LIRN 220500Z 2206/2306 05005KT 9999 SCT050"
    },
    {
      "icao": "LLBG",
      "alert": "OK",
      "vis_m": 9999,
      "fzfg": false,
      "metar_trigger": false,
      "taf_trigger": false,
      "metar": "METAR LLBG 220820Z VRB03KT CAVOK 21/08 Q1015 NOSIG",
      "taf": "TAF LLBG 220501Z 2206/2306 VRB04KT CAVOK"
    },
    {
      "icao": "LMML",
      "alert": "OK",
      "vis_m": 9999,
      "fzfg": false,
      "metar_trigger": false,
      "taf_trigger": false,
      "metar": "METAR LMML 220815Z 25004KT 230V300 9999 FEW020 16/13 Q1011 NOSIG",
      "taf": "TAF LMML 220500Z 2206/2306 VRB05KT 9999 SCT022"
    },
    {
      "icao": "LOWW",
      "alert": "OK",
      "vis_m": 8000,
      "fzfg": false,
      "metar_trigger": false,
      "taf_trigger": false,
      "metar": "METAR LOWW 220820Z 14013KT 8000 FEW002 SCT003 BKN005 03/02 Q1018 NOSIG",
      "taf": "TAF LOWW 220815Z 2209/2315 14015KT 8000 BKN006 TX04/2223Z TN03/2209Z"
    },
    {
      "icao": "LPFR",
      "alert": "OK",
      "vis_m": 9999,
      "fzfg": false,
      "metar_trigger": false,
      "taf_trigger": false,
      "metar": "METAR LPFR 220830Z 33003KT 290V030 9999 FEW015 FEW020TCU 08/06 Q1014",
      "taf": "TAF LPFR 220500Z 2206/2306 VRB02KT 9999 FEW015"
    },
    {
      "icao": "LPPR",
      "alert": "OK",
      "vis_m": 9999,
      "fzfg": false,
      "metar_trigger": false,
      "taf_trigger": false,
      "metar": "METAR LPPR 220830Z 15007KT 9999 -SHRA FEW015 SCT020 FEW025CB BKN035 07/06 Q1010",
      "taf": "TAF LPPR 220500Z 2206/2306 VRB02KT 9999 FEW015 SCT030"
    },
    {
      "icao": "LPPT",
      "alert": "OK",
      "vis_m": 9999,
      "fzfg": false,
      "metar_trigger": false,
      "taf_trigger": false,
      "metar": "METAR LPPT 220830Z 27003KT 220V300 9999 FEW010 08/06 Q1013",
      "taf": "TAF LPPT 220500Z 2206/2312 VRB05KT 9999 SCT030"
    },
    {
      "icao": "LQSA",
      "alert": "OK",
      "vis_m": 9999,
      "fzfg": false,
      "metar_trigger": false,
      "taf_trigger": false,
      "metar": "METAR LQSA 220830Z 15004KT 9999 OVC012 01/M01 Q1018 NOSIG",
      "taf": "TAF LQSA 220500Z 2206/2306 VRB02KT 9999 BKN012 TX06/2213Z TNM04/2305Z"
    },
    {
      "icao": "LQTZ",
      "alert": "OK",
      "vis_m": 9999,
      "fzfg": false,
      "metar_trigger": false,
      "taf_trigger": false,
      "metar": "METAR LQTZ 220830Z 32002KT 9999 SCT017 BKN033 04/03 Q1019",
      "taf": "TAF LQTZ 220500Z 2206/2306 VRB02KT 6000 BKN015 TX05/2213Z TNM01/2305Z"
    },
    {
      "icao": "LRCL",
      "alert": "OK",
      "vis_m": 8000,
      "fzfg": false,
      "metar_trigger": false,
      "taf_trigger": false,
      "metar": "METAR LRCL 220830Z 15005KT 120V190 8000 OVC005 02/01 Q1021",
      "taf": "TAF LRCL 220800Z 2209/2218 11006KT 9999 OVC005"
    },
    {
      "icao": "LRCV",
      "alert": "OK",
      "vis_m": 1500,
      "fzfg": false,
      "metar_trigger": false,
      "taf_trigger": false,
      "metar": "METAR LRCV 220830Z 12005KT 1500 BR OVC003 04/04 Q1022",
      "taf": "TAF LRCV 220800Z 2209/2218 09006KT 1500 BR OVC005"
    },
    {
      "icao": "LRIA",
      "alert": "OK",
      "vis_m": 2000,
      "fzfg": false,
      "metar_trigger": false,
      "taf_trigger": false,
      "metar": "METAR LRIA 220830Z 33005KT 2000 BR BKN002 OVC005 03/03 Q1023",
      "taf": "TAF LRIA 220800Z 2209/2218 VRB04KT 3000 BR OVC002"
    },
    {
      "icao": "LROP",
      "alert": "OK",
      "vis_m": 1800,
      "fzfg": false,
      "metar_trigger": false,
      "taf_trigger": false,
      "metar": "METAR LROP 220830Z 07006KT 1800 BR BKN002 OVC003 03/03 Q1023 NOSIG",
      "taf": "TAF LROP 220500Z 2206/2306 07008KT 3000 -DZ BR BKN002 OVC010"
    },
    {
      "icao": "LRSB",
      "alert": "OK",
      "vis_m": 500,
      "fzfg": true,
      "metar_trigger": false,
      "taf_trigger": false,
      "metar": "METAR LRSB 220830Z 07003KT 020V110 0500 R27/1100U FZFG SCT001 OVC002 M02/M02 Q1020",
      "taf": "TAF LRSB 220500Z 2206/2306 VRB04KT 0800 FZFG OVC002"
    },
    {
      "icao": "LRTR",
      "alert": "OK",
      "vis_m": 3000,
      "fzfg": false,
      "metar_trigger": false,
      "taf_trigger": false,
      "metar": "METAR LRTR 220830Z 10007KT 3000 BR BKN002 OVC008 04/04 Q1021",
      "taf": "TAF LRTR 220500Z 2206/2306 VRB04KT 3000 BR OVC002"
    },
    {
      "icao": "LTAF",
      "alert": "OK",
      "vis_m": 9999,
      "fzfg": false,
      "metar_trigger": false,
      "taf_trigger": false,
      "metar": "METAR LTAF 220820Z 03007KT CAVOK 15/01 Q1019 NOSIG RMK RWY23 05007KT 6AC100",
      "taf": "TAF LTAF 220440Z 2206/2306 05009KT CAVOK"
    },
    {
      "icao": "LTAI",
      "alert": "OK",
      "vis_m": 9999,
      "fzfg": false,
      "metar_trigger": false,
      "taf_trigger": false,
      "metar": "METAR LTAI 220820Z 34004KT 9999 BKN030 BKN080 14/09 Q1015 NOSIG RMK RWY18C 34004KT RWY36R 36003KT RWY18L 33006KT",
      "taf": "TAF LTAI 220440Z 2206/2306 34009KT 9999 SCT030 BKN100"
    },
    {
      "icao": "LTFM",
      "alert": "OK",
      "vis_m": 9999,
      "fzfg": false,
      "metar_trigger": false,
      "taf_trigger": false,
      "metar": "METAR LTFM 220820Z 04018KT 9999 BKN013 BKN022 12/10 Q1018 NOSIG RMK RWY17L 04015KT RWY34L 04016KT RWY16R 04016KT RWY36 04016KT RWY18 05014KT",
      "taf": "TAF LTFM 220440Z 2206/2312 03017G27KT 9999 -SHRA BKN012 BKN022"
    },
    {
      "icao": "LUBL",
      "alert": "OK",
      "vis_m": null,
      "fzfg": false,
      "metar_trigger": false,
      "taf_trigger": false,
      "metar": "",
      "taf": ""
    },
    {
      "icao": "LUKK",
      "alert": "OK",
      "vis_m": 9999,
      "fzfg": false,
      "metar_trigger": false,
      "taf_trigger": false,
      "metar": "METAR LUKK 220830Z 01005KT 9999 OVC007 03/02 Q1023 NOSIG",
      "taf": "TAF LUKK 220518Z 2206/2306 35005KT 5000 BR OVC005"
    },
    {
      "icao": "LWSK",
      "alert": "OK",
      "vis_m": 3000,
      "fzfg": false,
      "metar_trigger": false,
      "taf_trigger": false,
      "metar": "METAR LWSK 220820Z VRB02KT 3000 BR BKN004 OVC007 02/01 Q1021 NOSIG",
      "taf": "TAF LWSK 220825Z 2209/2309 VRB02KT 3000 BR OVC004"
    },
    {
      "icao": "LYBE",
      "alert": "OK",
      "vis_m": 8000,
      "fzfg": false,
      "metar_trigger": false,
      "taf_trigger": false,
      "metar": "METAR LYBE 220830Z 10006KT 8000 SCT008 OVC015 04/03 Q1021 NOSIG",
      "taf": "TAF LYBE 220500Z 2206/2306 11008KT 9999 BKN010 OVC020 TX08/2213Z TN01/2306Z"
    },
    {
      "icao": "LZIB",
      "alert": "OK",
      "vis_m": 9999,
      "fzfg": false,
      "metar_trigger": false,
      "taf_trigger": false,
      "metar": "METAR LZIB 220830Z 11011KT 9999 -DZ BKN006 OVC016 03/03 Q1019 TEMPO OVC0014",
      "taf": "TAF LZIB 220515Z 2206/2306 12009KT 6000 SCT003 OVC011"
    },
    {
      "icao": "LZKZ",
      "alert": "OK",
      "vis_m": 9000,
      "fzfg": false,
      "metar_trigger": false,
      "taf_trigger": false,
      "metar": "METAR LZKZ 220830Z 03002KT 9000 BKN009 BKN016 05/04 Q1020 TEMPO SCT009 BKN016",
      "taf": ""
    },
    {
      "icao": "LZTT",
      "alert": "OK",
      "vis_m": 300,
      "fzfg": false,
      "metar_trigger": false,
      "taf_trigger": false,
      "metar": "METAR LZTT 220830Z VRB02KT 0300 R27/0650N FG OVC002 00/M00 Q1019 TEMPO 2000 BR BKN005",
      "taf": ""
    },
    {
      "icao": "OEJN",
      "alert": "OK",
      "vis_m": 9999,
      "fzfg": false,
      "metar_trigger": false,
      "taf_trigger": false,
      "metar": "METAR OEJN 220800Z VRB03KT 9999 FEW040 30/15 Q1013 NOSIG",
      "taf": "TAF OEJN 220500Z 2206/2312 VRB03KT 9999 FEW040"
    },
    {
      "icao": "OEMA",
      "alert": "OK",
      "vis_m": 9999,
      "fzfg": false,
      "metar_trigger": false,
      "taf_trigger": false,
      "metar": "METAR OEMA 220800Z 13009KT CAVOK 20/M02 Q1020 NOSIG",
      "taf": "TAF OEMA 220500Z 2206/2312 12010KT CAVOK"
    },
    {
      "icao": "OERK",
      "alert": "OK",
      "vis_m": 9999,
      "fzfg": false,
      "metar_trigger": false,
      "taf_trigger": false,
      "metar": "METAR OERK 220800Z 16007KT CAVOK 15/06 Q1024 NOSIG",
      "taf": "TAF OERK 220500Z 2206/2312 16010KT CAVOK"
    },
    {
      "icao": "OJAI",
      "alert": "OK",
      "vis_m": 5000,
      "fzfg": false,
      "metar_trigger": false,
      "taf_trigger": false,
      "metar": "METAR OJAI 220800Z 08004KT 5000 HZ NSC 11/03 Q1018 NOSIG",
      "taf": "TAF OJAI 220500Z 2206/2312 12010KT 5000 HZ NSC"
    },
    {
      "icao": "OKBK",
      "alert": "OK",
      "vis_m": null,
      "fzfg": false,
      "metar_trigger": false,
      "taf_trigger": false,
      "metar": "",
      "taf": ""
    },
    {
      "icao": "OMAA",
      "alert": "OK",
      "vis_m": 9999,
      "fzfg": false,
      "metar_trigger": false,
      "taf_trigger": false,
      "metar": "METAR OMAA 220800Z 04008KT 360V080 CAVOK 23/06 Q1020 NOSIG",
      "taf": "TAF OMAA 220500Z 2206/2312 07007KT 8000 NSC"
    },
    {
      "icao": "UAAA",
      "alert": "OK",
      "vis_m": 5000,
      "fzfg": false,
      "metar_trigger": false,
      "taf_trigger": false,
      "metar": "METAR UAAA 220830Z 02003MPS 5000 BR SCT008 BKN200 M02/M03 Q1028 NOSIG",
      "taf": ""
    },
    {
      "icao": "UCFM",
      "alert": "OK",
      "vis_m": 150,
      "fzfg": true,
      "metar_trigger": false,
      "taf_trigger": false,
      "metar": "METAR UCFM 220830Z 31003MPS 0150 0100E R07/0400U FZFG VV001 M03/M03 Q1027 NOSIG",
      "taf": ""
    },
    {
      "icao": "UDYZ",
      "alert": "OK",
      "vis_m": 4300,
      "fzfg": false,
      "metar_trigger": false,
      "taf_trigger": false,
      "metar": "METAR UDYZ 220830Z VRB01KT 4300 BR NSC 03/M03 Q1023 NOSIG",
      "taf": "TAF UDYZ 220500Z 2206/2306 VRB04KT 6000 SCT040"
    },
    {
      "icao": "UGTB",
      "alert": "OK",
      "vis_m": 9999,
      "fzfg": false,
      "metar_trigger": false,
      "taf_trigger": false,
      "metar": "METAR UGTB 220830Z 29015KT CAVOK 07/M02 Q1018 NOSIG",
      "taf": "TAF UGTB 220500Z 2206/2306 31015KT CAVOK TX10/2212Z TN02/2303Z"
    },
    {
      "icao": "UKKK",
      "alert": "OK",
      "vis_m": null,
      "fzfg": false,
      "metar_trigger": false,
      "taf_trigger": false,
      "metar": "",
      "taf": ""
    },
    {
      "icao": "UTTT",
      "alert": "OK",
      "vis_m": null,
      "fzfg": false,
      "metar_trigger": false,
      "taf_trigger": false,
      "metar": "",
      "taf": ""
    }
  ]
}