{
  "ts_utc": "2026-01-09T03:43:42Z",
  "threshold_m": 150,
  "source": "stations_override.txt (ICAO list) + aviationweather.gov (METAR/TAF raw)",
  "station_count": 159,
  "stations": [
    {
      "icao": "BIKF",
      "alert": "OK",
      "vis_m": 9999,
      "fzfg": false,
      "metar_trigger": false,
      "taf_trigger": false,
      "metar": "METAR BIKF 090330Z 02010KT CAVOK M02/M07 Q1005",
      "taf": "TAF BIKF 090105Z 0903/1003 05015KT CAVOK TXM02/0903Z TNM07/1001Z"
    },
    {
      "icao": "BKPR",
      "alert": "OK",
      "vis_m": 9999,
      "fzfg": false,
      "metar_trigger": false,
      "taf_trigger": false,
      "metar": "METAR BKPR 090330Z 01004KT 320V050 CAVOK M08/M10 Q1011 NOSIG",
      "taf": "TAF BKPR 082330Z 0900/0924 VRB05KT 9999 SCT060"
    },
    {
      "icao": "EBCI",
      "alert": "OK",
      "vis_m": 4000,
      "fzfg": false,
      "metar_trigger": false,
      "taf_trigger": false,
      "metar": "METAR EBCI 090320Z 19019KT 4000 RADZ SCT015 BKN025 06/03 Q0983 TEMPO20018G35KT 4000 MODRADZ BKN015",
      "taf": "TAF EBCI 082300Z 0900/1006 20020G35KT 9999 BKN030"
    },
    {
      "icao": "EDDB",
      "alert": "OK",
      "vis_m": 9999,
      "fzfg": false,
      "metar_trigger": false,
      "taf_trigger": false,
      "metar": "METAR EDDB 090320Z AUTO 09008KT 9999 BKN027 M06/M09 Q1004 NOSIG",
      "taf": "TAF EDDB 082300Z 0900/0924 11008KT 9999 BKN020"
    },
    {
      "icao": "EDDH",
      "alert": "OK",
      "vis_m": 9999,
      "fzfg": false,
      "metar_trigger": false,
      "taf_trigger": false,
      "metar": "METAR EDDH 090320Z AUTO 10014KT 9999 BKN012 M03/M05 Q0999",
      "taf": "TAF EDDH 082300Z 0900/1006 11013KT 9000 FEW007 BKN020"
    },
    {
      "icao": "EDDK",
      "alert": "OK",
      "vis_m": 9999,
      "fzfg": false,
      "metar_trigger": false,
      "taf_trigger": false,
      "metar": "METAR EDDK 090320Z AUTO 13010KT CAVOK 05/03 Q0988 TEMPO 17015G25KT SHRA BKN025CB",
      "taf": "TAF EDDK 082300Z 0900/1006 13011KT 9999 OVC030"
    },
    {
      "icao": "EDDN",
      "alert": "OK",
      "vis_m": 6000,
      "fzfg": false,
      "metar_trigger": false,
      "taf_trigger": false,
      "metar": "METAR EDDN 090320Z AUTO 12012KT 6000 -RA SCT009 BKN028 OVC037 01/M00 Q0996 RERA",
      "taf": ""
    },
    {
      "icao": "EDDS",
      "alert": "OK",
      "vis_m": 9999,
      "fzfg": false,
      "metar_trigger": false,
      "taf_trigger": false,
      "metar": "METAR EDDS 090320Z AUTO 21008KT 160V250 9999 SCT028 06/03 Q0994",
      "taf": "TAF EDDS 082300Z 0900/0924 17003KT 9999 BKN020"
    },
    {
      "icao": "EDFH",
      "alert": "OK",
      "vis_m": 9999,
      "fzfg": false,
      "metar_trigger": false,
      "taf_trigger": false,
      "metar": "METAR EDFH 090320Z 23017G34KT 200V260 9999 -RA FEW014 BKN047 05/03 Q0989",
      "taf": "TAF EDFH 082300Z 0900/0924 17015G25KT 9999 SCT001 BKN012"
    },
    {
      "icao": "EDJA",
      "alert": "OK",
      "vis_m": 9999,
      "fzfg": false,
      "metar_trigger": false,
      "taf_trigger": false,
      "metar": "METAR EDJA 090320Z AUTO 22011KT 9999 SCT043/// BKN180/// OVC210/// 03/01 Q0997",
      "taf": "TAF EDJA 090200Z 0903/0912 22012KT 9999 SCT025"
    },
    {
      "icao": "EDLW",
      "alert": "OK",
      "vis_m": 9999,
      "fzfg": false,
      "metar_trigger": false,
      "taf_trigger": false,
      "metar": "METAR EDLW 090320Z AUTO 16010KT 9999 // FEW028/// SCT037/// OVC043/// 04/02 Q0987",
      "taf": "TAF EDLW 081700Z 0818/0918 14007KT 9999 BKN025"
    },
    {
      "icao": "EDNY",
      "alert": "OK",
      "vis_m": 9999,
      "fzfg": false,
      "metar_trigger": false,
      "taf_trigger": false,
      "metar": "METAR EDNY 090320Z AUTO VRB02KT 9999 // FEW024/// BKN045/// OVC055/// 01/01 Q0999",
      "taf": "TAF EDNY 090200Z 0903/0912 VRB03KT 9999 SCT030"
    },
    {
      "icao": "EDSB",
      "alert": "OK",
      "vis_m": 9999,
      "fzfg": false,
      "metar_trigger": false,
      "taf_trigger": false,
      "metar": "METAR EDSB 090320Z AUTO 20020G32KT 9999 // BKN034/// OVC082/// 09/06 Q0995",
      "taf": "TAF EDSB 082300Z 0900/0924 20020KT 9999 BKN030"
    },
    {
      "icao": "EETN",
      "alert": "OK",
      "vis_m": 9999,
      "fzfg": false,
      "metar_trigger": false,
      "taf_trigger": false,
      "metar": "METAR EETN 090320Z 08009KT CAVOK M09/M12 Q1020",
      "taf": "TAF EETN 082330Z 0900/0924 09013KT 9999 BKN018"
    },
    {
      "icao": "EFTU",
      "alert": "OK",
      "vis_m": 9999,
      "fzfg": false,
      "metar_trigger": false,
      "taf_trigger": false,
      "metar": "METAR EFTU 090320Z AUTO 07006KT 030V090 9999 -SN OVC014 M15/M17 Q1023",
      "taf": "TAF EFTU 090230Z 0903/1003 07006KT CAVOK"
    },
    {
      "icao": "EGBB",
      "alert": "OK",
      "vis_m": 3300,
      "fzfg": false,
      "metar_trigger": false,
      "taf_trigger": false,
      "metar": "METAR EGBB 090320Z 33018KT 3300 -SN OVC006 01/00 Q0987 RESN",
      "taf": "TAF EGBB 082257Z 0900/0924 03018G30KT 5000 BR BKN005"
    },
    {
      "icao": "EGGP",
      "alert": "OK",
      "vis_m": 9999,
      "fzfg": false,
      "metar_trigger": false,
      "taf_trigger": false,
      "metar": "METAR EGGP 090320Z AUTO 33011KT 9999 BKN025/// 04/01 Q0993",
      "taf": "TAF EGGP 082300Z 0900/0924 35012KT 9999 SCT016"
    },
    {
      "icao": "EGGW",
      "alert": "OK",
      "vis_m": 1900,
      "fzfg": false,
      "metar_trigger": false,
      "taf_trigger": false,
      "metar": "METAR EGGW 090320Z AUTO 34017KT 1900 -RADZ OVC002/// //////TCU 02/02 Q0981",
      "taf": ""
    },
    {
      "icao": "EGKK",
      "alert": "OK",
      "vis_m": 8000,
      "fzfg": false,
      "metar_trigger": false,
      "taf_trigger": false,
      "metar": "METAR EGKK 090320Z 30016KT 8000 BKN006 06/05 Q0980",
      "taf": "TAF EGKK 082255Z 0900/1006 19012KT 9999 SCT010 BKN020"
    },
    {
      "icao": "EGNM",
      "alert": "OK",
      "vis_m": null,
      "fzfg": false,
      "metar_trigger": false,
      "taf_trigger": false,
      "metar": "",
      "taf": "TAF EGNM 081659Z 0818/0918 VRB04KT 9999 FEW010"
    },
    {
      "icao": "EGPD",
      "alert": "OK",
      "vis_m": 9999,
      "fzfg": false,
      "metar_trigger": false,
      "taf_trigger": false,
      "metar": "METAR EGPD 090320Z COR AUTO VRB02KT 9999 NCD M06/M07 Q0998 NOSIG",
      "taf": ""
    },
    {
      "icao": "EGPF",
      "alert": "OK",
      "vis_m": 8000,
      "fzfg": false,
      "metar_trigger": false,
      "taf_trigger": false,
      "metar": "METAR EGPF 090320Z AUTO 25003KT 8000 NCD M02/M02 Q0998",
      "taf": "TAF EGPF 082258Z 0900/0924 VRB03KT 9999 BKN030"
    },
    {
      "icao": "EHBK",
      "alert": "OK",
      "vis_m": 9999,
      "fzfg": false,
      "metar_trigger": false,
      "taf_trigger": false,
      "metar": "METAR EHBK 090325Z AUTO 19015KT 170V230 9999 NSC 06/04 Q0985",
      "taf": "TAF EHBK 082301Z 0900/1006 16010KT 9999 -RA BKN035"
    },
    {
      "icao": "EHEH",
      "alert": "OK",
      "vis_m": 9999,
      "fzfg": false,
      "metar_trigger": false,
      "taf_trigger": false,
      "metar": "METAR EHEH 090325Z AUTO 15007KT 9999 FEW032 SCT039 04/03 Q0984 BLU RMK TREND REMOTE BY EHWX",
      "taf": "TAF EHEH 082340Z 0900/1006 10010KT 6000 SCT008 BKN010"
    },
    {
      "icao": "EKBI",
      "alert": "OK",
      "vis_m": 7000,
      "fzfg": false,
      "metar_trigger": false,
      "taf_trigger": false,
      "metar": "METAR EKBI 090320Z 09015KT 7000 -SN BKN006 M01/M02 Q1003",
      "taf": "TAF EKBI 090227Z 0903/1003 10012KT 6000 BKN006"
    },
    {
      "icao": "EKCH",
      "alert": "OK",
      "vis_m": 9999,
      "fzfg": false,
      "metar_trigger": false,
      "taf_trigger": false,
      "metar": "METAR EKCH 090320Z AUTO 11015KT 9999 BKN027/// M00/M05 Q1009 TEMPO 12015G28KT",
      "taf": "TAF EKCH 090227Z 0903/1003 12018KT 9999 BKN020"
    },
    {
      "icao": "ENAL",
      "alert": "OK",
      "vis_m": 9999,
      "fzfg": false,
      "metar_trigger": false,
      "taf_trigger": false,
      "metar": "METAR ENAL 090320Z AUTO 14016KT 9999 NCD M02/M07 Q1007",
      "taf": "TAF ENAL 090200Z 0903/0912 16012KT CAVOK"
    },
    {
      "icao": "ENBR",
      "alert": "OK",
      "vis_m": 9999,
      "fzfg": false,
      "metar_trigger": false,
      "taf_trigger": false,
      "metar": "METAR ENBR 090320Z 08005KT CAVOK M06/M12 Q1006 RMK WIND 1200FT 13011KT",
      "taf": "TAF ENBR 082300Z 0900/0924 08005KT CAVOK"
    },
    {
      "icao": "ENGM",
      "alert": "OK",
      "vis_m": 9999,
      "fzfg": false,
      "metar_trigger": false,
      "taf_trigger": false,
      "metar": "METAR ENGM 090320Z 01004KT 9999 -SN OVC009 M10/M12 Q1014",
      "taf": "TAF ENGM 082300Z 0900/0924 36003KT 7000 -SN BKN012"
    },
    {
      "icao": "ENHD",
      "alert": "OK",
      "vis_m": 9999,
      "fzfg": false,
      "metar_trigger": false,
      "taf_trigger": false,
      "metar": "METAR ENHD 090320Z AUTO 11008KT 9999 SCT039/// 01/M06 Q1006",
      "taf": "TAF ENHD 090200Z 0903/0912 12008KT 9999 FEW040"
    },
    {
      "icao": "ENTC",
      "alert": "OK",
      "vis_m": 9999,
      "fzfg": false,
      "metar_trigger": false,
      "taf_trigger": false,
      "metar": "METAR ENTC 090320Z AUTO 17004KT 120V260 9999 NCD M09/M17 Q1024 RMK WIND 2600FT 18025KT",
      "taf": ""
    },
    {
      "icao": "ENTO",
      "alert": "OK",
      "vis_m": 9999,
      "fzfg": false,
      "metar_trigger": false,
      "taf_trigger": false,
      "metar": "METAR ENTO 090320Z AUTO 01007KT 9999 -SN SCT017/// OVC021/// M08/M09 Q1013",
      "taf": ""
    },
    {
      "icao": "ENVA",
      "alert": "OK",
      "vis_m": 9999,
      "fzfg": false,
      "metar_trigger": false,
      "taf_trigger": false,
      "metar": "METAR ENVA 090320Z AUTO 08007KT 030V120 9999 NCD M06/M14 Q1011 RMK WIND 670FT 15019KT",
      "taf": ""
    },
    {
      "icao": "ENZV",
      "alert": "OK",
      "vis_m": 9999,
      "fzfg": false,
      "metar_trigger": false,
      "taf_trigger": false,
      "metar": "METAR ENZV 090320Z AUTO 12008KT 9999 BKN035/// 01/M06 Q1006",
      "taf": "TAF ENZV 082300Z 0900/0924 10008KT CAVOK"
    },
    {
      "icao": "EPGD",
      "alert": "OK",
      "vis_m": 9999,
      "fzfg": false,
      "metar_trigger": false,
      "taf_trigger": false,
      "metar": "METAR EPGD 090330Z 06004KT 9999 FEW014 M05/M06 Q1009",
      "taf": "TAF EPGD 082330Z 0900/0924 05006KT 9999 BKN007"
    },
    {
      "icao": "EPKK",
      "alert": "OK",
      "vis_m": 8000,
      "fzfg": false,
      "metar_trigger": false,
      "taf_trigger": false,
      "metar": "METAR EPKK 090330Z 27011KT 8000 BKN014 M07/M10 Q1007",
      "taf": "TAF EPKK 090230Z 0903/1003 26012KT 9999 BKN020"
    },
    {
      "icao": "EPKT",
      "alert": "OK",
      "vis_m": 9999,
      "fzfg": false,
      "metar_trigger": false,
      "taf_trigger": false,
      "metar": "METAR EPKT 090330Z 24003KT 9999 -SN BKN007 M08/M09 Q1007",
      "taf": "TAF EPKT 082330Z 0900/0924 32004KT 7000 OVC007"
    },
    {
      "icao": "EPLB",
      "alert": "OK",
      "vis_m": 6000,
      "fzfg": false,
      "metar_trigger": false,
      "taf_trigger": false,
      "metar": "METAR EPLB 090330Z 30014KT 6000 -SN DRSN FEW009 BKN024 OVC048 M08/M09 Q1002",
      "taf": "TAF EPLB 082330Z 0900/0924 30011KT 5000 -SN BR BKN011 OVC020"
    },
    {
      "icao": "EPMO",
      "alert": "OK",
      "vis_m": 7000,
      "fzfg": false,
      "metar_trigger": false,
      "taf_trigger": false,
      "metar": "METAR EPMO 090330Z 30008KT 7000 SCT010 M10/M11 Q1007",
      "taf": "TAF EPMO 082330Z 0900/0924 34008KT 6000 OVC007"
    },
    {
      "icao": "EPPO",
      "alert": "OK",
      "vis_m": 5000,
      "fzfg": false,
      "metar_trigger": false,
      "taf_trigger": false,
      "metar": "METAR EPPO 090330Z 05004KT 5000 BR BKN003 M13/M15 Q1008",
      "taf": ""
    },
    {
      "icao": "EPRA",
      "alert": "OK",
      "vis_m": 6000,
      "fzfg": false,
      "metar_trigger": false,
      "taf_trigger": false,
      "metar": "METAR EPRA 090330Z 31013KT 270V330 6000 OVC006 M10/M11 Q1005",
      "taf": "TAF EPRA 090230Z 0903/0912 32010KT 8000 OVC006"
    },
    {
      "icao": "EPRZ",
      "alert": "OK",
      "vis_m": 8000,
      "fzfg": false,
      "metar_trigger": false,
      "taf_trigger": false,
      "metar": "METAR EPRZ 090330Z 27018KT 8000 -SN BKN008 M07/M09 Q1004",
      "taf": "TAF EPRZ 082330Z 0900/0924 31012KT 9999 -SN OVC013"
    },
    {
      "icao": "EPSC",
      "alert": "OK",
      "vis_m": 9999,
      "fzfg": false,
      "metar_trigger": false,
      "taf_trigger": false,
      "metar": "METAR EPSC 090330Z 10006KT CAVOK M10/M12 Q1008",
      "taf": ""
    },
    {
      "icao": "EPSY",
      "alert": "OK",
      "vis_m": 9999,
      "fzfg": false,
      "metar_trigger": false,
      "taf_trigger": false,
      "metar": "METAR EPSY 090330Z 36011KT 9999 BKN010 M10/M11 Q1007",
      "taf": "TAF EPSY 090230Z 0903/0912 01010KT 8000 OVC011"
    },
    {
      "icao": "EPWA",
      "alert": "OK",
      "vis_m": 9999,
      "fzfg": false,
      "metar_trigger": false,
      "taf_trigger": false,
      "metar": "METAR EPWA 090330Z 31011KT 9999 BKN008 M09/M10 Q1006 NOSIG",
      "taf": "TAF EPWA 090230Z 0903/1003 31011KT 9000 OVC007"
    },
    {
      "icao": "EPWR",
      "alert": "OK",
      "vis_m": 3500,
      "fzfg": false,
      "metar_trigger": false,
      "taf_trigger": false,
      "metar": "METAR EPWR 090330Z VRB01KT 3500 BR NSC M12/M13 Q1007",
      "taf": "TAF EPWR 090230Z 0903/1003 12003KT 2200 BR NSC"
    },
    {
      "icao": "ESGG",
      "alert": "OK",
      "vis_m": 9999,
      "fzfg": false,
      "metar_trigger": false,
      "taf_trigger": false,
      "metar": "METAR ESGG 090320Z 11008KT 9999 SCT036 M05/M08 Q1011",
      "taf": "TAF ESGG 090230Z 0903/1003 11008KT CAVOK"
    },
    {
      "icao": "ESKN",
      "alert": "OK",
      "vis_m": 9999,
      "fzfg": false,
      "metar_trigger": false,
      "taf_trigger": false,
      "metar": "METAR ESKN 090320Z 09008KT 9999 FEW031 BKN041 M01/M04 Q1016",
      "taf": "TAF ESKN 090230Z 0903/1003 VRB03KT 9999 BKN030"
    },
    {
      "icao": "ESMS",
      "alert": "OK",
      "vis_m": 9999,
      "fzfg": false,
      "metar_trigger": false,
      "taf_trigger": false,
      "metar": "METAR ESMS 090320Z 12011KT 9999 FEW031 M02/M07 Q1009",
      "taf": "TAF ESMS 090227Z 0903/1003 10014KT 9999 BKN025"
    },
    {
      "icao": "ESSA",
      "alert": "OK",
      "vis_m": 9999,
      "fzfg": false,
      "metar_trigger": false,
      "taf_trigger": false,
      "metar": "METAR ESSA 090320Z 10007KT 9999 FEW015 BKN024 M03/M05 Q1018 NOSIG",
      "taf": "TAF ESSA 090230Z 0903/1003 10007KT 9999 BKN017"
    },
    {
      "icao": "EYKA",
      "alert": "OK",
      "vis_m": 9999,
      "fzfg": false,
      "metar_trigger": false,
      "taf_trigger": false,
      "metar": "METAR EYKA 090320Z 36013G26KT 310V050 CAVOK M09/M13 Q1006",
      "taf": ""
    },
    {
      "icao": "EYPA",
      "alert": "OK",
      "vis_m": 9999,
      "fzfg": false,
      "metar_trigger": false,
      "taf_trigger": false,
      "metar": "METAR EYPA 090320Z 36004KT 320V030 CAVOK M11/M13 Q1013",
      "taf": "TAF EYPA 082300Z 0900/0924 02010KT 9000 NSC"
    },
    {
      "icao": "EYVI",
      "alert": "OK",
      "vis_m": 1100,
      "fzfg": false,
      "metar_trigger": false,
      "taf_trigger": false,
      "metar": "METAR EYVI 090320Z 36020KT 1100 SN BLSN OVC041 M10/M13 Q1001 NOSIG",
      "taf": "TAF EYVI 082300Z 0900/0924 02015G25KT 1500 SN BLSN OVC020"
    },
    {
      "icao": "GCFV",
      "alert": "OK",
      "vis_m": 9999,
      "fzfg": false,
      "metar_trigger": false,
      "taf_trigger": false,
      "metar": "METAR GCFV 090330Z AUTO 32007KT CAVOK 14/08 Q1030",
      "taf": "TAF GCFV 090200Z 0903/1003 06010KT 9999 FEW025 TX20/0914Z TN14/0906Z"
    },
    {
      "icao": "GCLP",
      "alert": "OK",
      "vis_m": 9999,
      "fzfg": false,
      "metar_trigger": false,
      "taf_trigger": false,
      "metar": "METAR GCLP 090330Z 32008KT 9999 FEW030 15/10 Q1029 NOSIG",
      "taf": "TAF GCLP 090200Z 0903/1003 33008KT 9999 FEW030 TX20/0914Z TN14/0906Z"
    },
    {
      "icao": "GCTS",
      "alert": "OK",
      "vis_m": 9999,
      "fzfg": false,
      "metar_trigger": false,
      "taf_trigger": false,
      "metar": "METAR GCTS 090330Z 05010KT CAVOK 16/11 Q1030 NOSIG",
      "taf": "TAF GCTS 090200Z 0903/1003 03010KT 9999 FEW035 TX22/0914Z TN15/0906Z"
    },
    {
      "icao": "GMAD",
      "alert": "OK",
      "vis_m": 9999,
      "fzfg": false,
      "metar_trigger": false,
      "taf_trigger": false,
      "metar": "METAR GMAD 090330Z 03005KT CAVOK 05/05 Q1030 NOSIG",
      "taf": "TAF GMAD 082300Z 0900/1006 05005KT CAVOK"
    },
    {
      "icao": "GMMN",
      "alert": "OK",
      "vis_m": 8000,
      "fzfg": false,
      "metar_trigger": false,
      "taf_trigger": false,
      "metar": "METAR GMMN 090330Z 12003KT 8000 SCT018 05/04 Q1031 NOSIG",
      "taf": "TAF GMMN 082300Z 0900/1006 15004KT 3000 BR SCT005"
    },
    {
      "icao": "GMMX",
      "alert": "OK",
      "vis_m": 9999,
      "fzfg": false,
      "metar_trigger": false,
      "taf_trigger": false,
      "metar": "METAR GMMX 090330Z VRB02KT CAVOK 07/05 Q1030 NOSIG",
      "taf": "TAF GMMX 082300Z 0900/1006 06006KT 8000 NSC"
    },
    {
      "icao": "HEGN",
      "alert": "OK",
      "vis_m": 9999,
      "fzfg": false,
      "metar_trigger": false,
      "taf_trigger": false,
      "metar": "METAR HEGN 090300Z 27004KT CAVOK 16/06 Q1013 NOSIG",
      "taf": "TAF HEGN 082300Z 0900/1006 28008KT CAVOK"
    },
    {
      "icao": "HEMA",
      "alert": "OK",
      "vis_m": 9999,
      "fzfg": false,
      "metar_trigger": false,
      "taf_trigger": false,
      "metar": "METAR HEMA 090300Z 24003KT CAVOK 16/13 Q1013 NOSIG",
      "taf": "TAF HEMA 082300Z 0900/1006 27009KT 6000 NSC"
    },
    {
      "icao": "HESH",
      "alert": "OK",
      "vis_m": 9999,
      "fzfg": false,
      "metar_trigger": false,
      "taf_trigger": false,
      "metar": "METAR HESH 090300Z 00000KT CAVOK 19/17 Q1013 NOSIG",
      "taf": "TAF HESH 082300Z 0900/1006 28007KT CAVOK"
    },
    {
      "icao": "HESX",
      "alert": "OK",
      "vis_m": 9999,
      "fzfg": false,
      "metar_trigger": false,
      "taf_trigger": false,
      "metar": "METAR HESX 090300Z 29011KT CAVOK 15/10 Q1017 NOSIG",
      "taf": "TAF HESX 082300Z 0900/1006 27008KT 6000 SCT025"
    },
    {
      "icao": "LATI",
      "alert": "OK",
      "vis_m": 9999,
      "fzfg": false,
      "metar_trigger": false,
      "taf_trigger": false,
      "metar": "METAR LATI 090320Z 19004KT CAVOK 01/M02 Q1016 NOSIG",
      "taf": "TAF LATI 082300Z 0900/0924 VRB05KT CAVOK TX14/0924Z TNM02/0903Z"
    },
    {
      "icao": "LBPD",
      "alert": "OK",
      "vis_m": 9999,
      "fzfg": false,
      "metar_trigger": false,
      "taf_trigger": false,
      "metar": "METAR LBPD 090330Z AUTO 28016KT 9999 NCD 01/M10 Q1009",
      "taf": "TAF LBPD 082300Z 0900/0924 29020G30KT 9999 SCT050"
    },
    {
      "icao": "LBSF",
      "alert": "OK",
      "vis_m": 9999,
      "fzfg": false,
      "metar_trigger": false,
      "taf_trigger": false,
      "metar": "METAR LBSF 090330Z AUTO 33007KT 300V020 9999 NCD M05/M09 Q1009 TEMPO 29022G34KT",
      "taf": "TAF LBSF 082300Z 0900/0924 29016KT 9999 SCT030 BKN050"
    },
    {
      "icao": "LBWN",
      "alert": "OK",
      "vis_m": 9999,
      "fzfg": false,
      "metar_trigger": false,
      "taf_trigger": false,
      "metar": "METAR LBWN 090330Z AUTO 27024KT 9999 NSC M03/M07 Q1006 NOSIG",
      "taf": "TAF LBWN 082300Z 0900/0924 28025G35KT 9999 SCT020 BKN045"
    },
    {
      "icao": "LCLK",
      "alert": "OK",
      "vis_m": 9999,
      "fzfg": false,
      "metar_trigger": false,
      "taf_trigger": false,
      "metar": "METAR LCLK 090330Z 24007KT 9999 FEW050 13/08 Q1008 NOSIG",
      "taf": "TAF LCLK 082330Z 0900/1000 25008KT 9999 FEW020 SCT040"
    },
    {
      "icao": "LCPH",
      "alert": "OK",
      "vis_m": 9999,
      "fzfg": false,
      "metar_trigger": false,
      "taf_trigger": false,
      "metar": "METAR LCPH 090330Z 31025KT 9999 SCT035 SCT070 17/07 Q1009 NOSIG",
      "taf": "TAF LCPH 082330Z 0900/1000 31024KT 9999 FEW025 SCT040"
    },
    {
      "icao": "LEAL",
      "alert": "OK",
      "vis_m": 9999,
      "fzfg": false,
      "metar_trigger": false,
      "taf_trigger": false,
      "metar": "METAR LEAL 090330Z 30019KT CAVOK 12/04 Q1022 NOSIG",
      "taf": "TAF LEAL 082300Z 0900/0924 25008KT CAVOK TX18/0914Z TN10/0906Z"
    },
    {
      "icao": "LEBB",
      "alert": "OK",
      "vis_m": 9999,
      "fzfg": false,
      "metar_trigger": false,
      "taf_trigger": false,
      "metar": "METAR LEBB 090330Z AUTO 26005KT 210V290 9999 SCT038 12/07 Q1017",
      "taf": ""
    },
    {
      "icao": "LEBL",
      "alert": "OK",
      "vis_m": 9999,
      "fzfg": false,
      "metar_trigger": false,
      "taf_trigger": false,
      "metar": "METAR LEBL 090330Z 24008KT 210V280 9999 FEW025 13/04 Q1015 NOSIG",
      "taf": ""
    },
    {
      "icao": "LECH",
      "alert": "OK",
      "vis_m": 9999,
      "fzfg": false,
      "metar_trigger": false,
      "taf_trigger": false,
      "metar": "METAR LECH 090330Z AUTO 22006KT CAVOK 11/00 Q1018",
      "taf": ""
    },
    {
      "icao": "LEMD",
      "alert": "OK",
      "vis_m": 9999,
      "fzfg": false,
      "metar_trigger": false,
      "taf_trigger": false,
      "metar": "METAR LEMD 090330Z 22012KT 190V250 9999 OVC010 07/06 Q1022 NOSIG",
      "taf": "TAF LEMD 082300Z 0900/1006 23010KT 9999 SCT030 TX11/0915Z TN05/0906Z"
    },
    {
      "icao": "LEMG",
      "alert": "OK",
      "vis_m": 9999,
      "fzfg": false,
      "metar_trigger": false,
      "taf_trigger": false,
      "metar": "METAR LEMG 090330Z 29023KT 9999 FEW025 09/05 Q1028 NOSIG",
      "taf": "TAF LEMG 082300Z 0900/0924 29015KT CAVOK TX18/0914Z TN08/0906Z"
    },
    {
      "icao": "LEVC",
      "alert": "OK",
      "vis_m": 9999,
      "fzfg": false,
      "metar_trigger": false,
      "taf_trigger": false,
      "metar": "METAR LEVC 090330Z 25014G24KT 210V280 CAVOK 11/04 Q1021 NOSIG",
      "taf": "TAF LEVC 082300Z 0900/0924 27015KT CAVOK TX18/0914Z TN09/0906Z"
    },
    {
      "icao": "LEXJ",
      "alert": "OK",
      "vis_m": 6000,
      "fzfg": false,
      "metar_trigger": false,
      "taf_trigger": false,
      "metar": "METAR LEXJ 090330Z AUTO 27008G18KT 240V340 6000 NCD 11/06 Q1017",
      "taf": "TAF LEXJ 090200Z 0903/1003 24009KT 9999 SCT025 TX12/0913Z TN07/0921Z"
    },
    {
      "icao": "LEZG",
      "alert": "OK",
      "vis_m": 9999,
      "fzfg": false,
      "metar_trigger": false,
      "taf_trigger": false,
      "metar": "METAR LEZG 090330Z 23017KT 9999 FEW050 11/04 Q1016 NOSIG",
      "taf": "TAF LEZG 082300Z 0900/0924 24020KT CAVOK TX14/0915Z TN05/0906Z"
    },
    {
      "icao": "LEZL",
      "alert": "OK",
      "vis_m": 9000,
      "fzfg": false,
      "metar_trigger": false,
      "taf_trigger": false,
      "metar": "METAR LEZL 090330Z AUTO 20006KT 9000 OVC023 10/08 Q1030",
      "taf": "TAF LEZL 090200Z 0903/1003 VRB03KT 9999 BKN020 TX16/0915Z TN09/0907Z"
    },
    {
      "icao": "LFBD",
      "alert": "OK",
      "vis_m": 9999,
      "fzfg": false,
      "metar_trigger": false,
      "taf_trigger": false,
      "metar": "METAR LFBD 090330Z AUTO 27020G31KT 9999 ///CB 12/05 Q1010 TEMPO 28030G55KT 4000 SHRA BKN010 BKN015CB",
      "taf": "TAF LFBD 082300Z 0900/1006 26015G25KT 9999 BKN030 TX11/0914Z TN09/0906Z"
    },
    {
      "icao": "LFLL",
      "alert": "OK",
      "vis_m": 9999,
      "fzfg": false,
      "metar_trigger": false,
      "taf_trigger": false,
      "metar": "METAR LFLL 090330Z 19012KT 9999 BKN043 09/05 Q1007 NOSIG",
      "taf": "TAF LFLL 090110Z 0901/1006 18015G25KT 9999 BKN045"
    },
    {
      "icao": "LFLS",
      "alert": "OK",
      "vis_m": 9999,
      "fzfg": false,
      "metar_trigger": false,
      "taf_trigger": false,
      "metar": "METAR LFLS 090330Z AUTO 20015KT 9999 FEW045 OVC054 09/04 Q1008",
      "taf": ""
    },
    {
      "icao": "LFMN",
      "alert": "OK",
      "vis_m": 9999,
      "fzfg": false,
      "metar_trigger": false,
      "taf_trigger": false,
      "metar": "METAR LFMN 090330Z 24006KT CAVOK 12/06 Q1007 NOSIG",
      "taf": "TAF LFMN 090200Z 0903/1009 33010KT CAVOK"
    },
    {
      "icao": "LFOB",
      "alert": "OK",
      "vis_m": 9999,
      "fzfg": false,
      "metar_trigger": false,
      "taf_trigger": false,
      "metar": "METAR LFOB 090330Z AUTO 25025G39KT 220V280 9999 -RA BKN018/// OVC025/// ///TCU 06/03 Q0984 TEMPO 22030G50KT 4000 SHRA BKN005",
      "taf": "TAF LFOB 082300Z 0900/0924 21025G35KT 9999 OVC020"
    },
    {
      "icao": "LFPO",
      "alert": "OK",
      "vis_m": 9999,
      "fzfg": false,
      "metar_trigger": false,
      "taf_trigger": false,
      "metar": "METAR LFPO 090330Z AUTO 24029G45KT 9999 BKN034 OVC040 08/03 Q0990 TEMPO 4000 SHRA BKN030TCU",
      "taf": ""
    },
    {
      "icao": "LFSB",
      "alert": "OK",
      "vis_m": 9999,
      "fzfg": false,
      "metar_trigger": false,
      "taf_trigger": false,
      "metar": "METAR LFSB 090330Z AUTO 23016G29KT 200V260 9999 RA SCT033/// BKN045/// BKN062/// ///TCU 08/05 Q1000 TEMPO 22025G40KT 4000 SHRA SCT025CB",
      "taf": "TAF LFSB 082300Z 0900/0924 12010KT 9999 SCT025 BKN035"
    },
    {
      "icao": "LGAV",
      "alert": "OK",
      "vis_m": 9999,
      "fzfg": false,
      "metar_trigger": false,
      "taf_trigger": false,
      "metar": "METAR LGAV 090320Z VRB02KT 9999 FEW025 07/M05 Q1014 NOSIG",
      "taf": "TAF LGAV 082300Z 0900/0924 28015KT 9999 FEW025"
    },
    {
      "icao": "LGTS",
      "alert": "OK",
      "vis_m": 9999,
      "fzfg": false,
      "metar_trigger": false,
      "taf_trigger": false,
      "metar": "METAR LGTS 090320Z 33017G27KT 9999 FEW025 04/M07 Q1013 NOSIG",
      "taf": "TAF LGTS 082300Z 0900/0924 31015KT 9999 FEW025"
    },
    {
      "icao": "LHBP",
      "alert": "OK",
      "vis_m": 9999,
      "fzfg": false,
      "metar_trigger": false,
      "taf_trigger": false,
      "metar": "METAR LHBP 090330Z VRB02KT CAVOK M16/M18 Q1008 NOSIG",
      "taf": "TAF LHBP 082315Z 0900/0924 30007KT CAVOK"
    },
    {
      "icao": "LHDC",
      "alert": "OK",
      "vis_m": 7000,
      "fzfg": false,
      "metar_trigger": false,
      "taf_trigger": false,
      "metar": "METAR LHDC 090215Z AUTO 18005KT 7000 NCD M13/M14 Q1009",
      "taf": ""
    },
    {
      "icao": "LIBD",
      "alert": "OK",
      "vis_m": 9999,
      "fzfg": false,
      "metar_trigger": false,
      "taf_trigger": false,
      "metar": "METAR LIBD 090320Z 19006KT 9999 FEW035 04/00 Q1013",
      "taf": "TAF LIBD 082300Z 0900/0924 17008KT 9999 FEW020"
    },
    {
      "icao": "LIBG",
      "alert": "OK",
      "vis_m": null,
      "fzfg": false,
      "metar_trigger": false,
      "taf_trigger": false,
      "metar": "",
      "taf": "TAF LIBG 081700Z 0818/0903 32008KT 9999 FEW040"
    },
    {
      "icao": "LIBP",
      "alert": "OK",
      "vis_m": 9999,
      "fzfg": false,
      "metar_trigger": false,
      "taf_trigger": false,
      "metar": "METAR LIBP 090320Z AUTO 03005KT 9999 OVC110/// 06/02 Q1008",
      "taf": "TAF LIBP 082300Z 0900/0924 VRB05KT 9999 FEW030"
    },
    {
      "icao": "LIBR",
      "alert": "OK",
      "vis_m": 9999,
      "fzfg": false,
      "metar_trigger": false,
      "taf_trigger": false,
      "metar": "METAR LIBR 090320Z 18006KT CAVOK 03/M02 Q1014",
      "taf": "TAF LIBR 082300Z 0900/0924 25010KT 9999 FEW040"
    },
    {
      "icao": "LICA",
      "alert": "OK",
      "vis_m": 9999,
      "fzfg": false,
      "metar_trigger": false,
      "taf_trigger": false,
      "metar": "METAR LICA 090320Z AUTO 25022KT 9999 OVC022/// 15/12 Q1015",
      "taf": "TAF LICA 082300Z 0900/0924 28012KT 9999 BKN016"
    },
    {
      "icao": "LICC",
      "alert": "OK",
      "vis_m": 9999,
      "fzfg": false,
      "metar_trigger": false,
      "taf_trigger": false,
      "metar": "METAR LICC 090320Z 25014KT CAVOK 12/08 Q1018",
      "taf": "TAF LICC 082300Z 0900/0924 26013KT 9999 FEW050"
    },
    {
      "icao": "LICJ",
      "alert": "OK",
      "vis_m": 9999,
      "fzfg": false,
      "metar_trigger": false,
      "taf_trigger": false,
      "metar": "METAR LICJ 090320Z 25022KT 9999 SCT040 16/11 Q1019",
      "taf": "TAF LICJ 082300Z 0900/0924 29025G35KT 9999 SCT020"
    },
    {
      "icao": "LIMC",
      "alert": "OK",
      "vis_m": 9999,
      "fzfg": false,
      "metar_trigger": false,
      "taf_trigger": false,
      "metar": "METAR LIMC 090320Z 13004KT 9999 BKN035 00/M02 Q1008 NOSIG",
      "taf": "TAF LIMC 082300Z 0900/1006 VRB04KT 9999 BKN025"
    },
    {
      "icao": "LIME",
      "alert": "OK",
      "vis_m": 9999,
      "fzfg": false,
      "metar_trigger": false,
      "taf_trigger": false,
      "metar": "METAR LIME 090320Z VRB02KT 9999 BKN035 M00/M03 Q1009 NOSIG",
      "taf": "TAF LIME 082300Z 0900/0924 VRB04KT 9999 SCT050"
    },
    {
      "icao": "LIMF",
      "alert": "OK",
      "vis_m": 9999,
      "fzfg": false,
      "metar_trigger": false,
      "taf_trigger": false,
      "metar": "METAR LIMF 090320Z AUTO VRB01KT 9999 OVC031/// 01/M06 Q1007",
      "taf": "TAF LIMF 082300Z 0900/0924 VRB03KT 9000 BKN030"
    },
    {
      "icao": "LIMJ",
      "alert": "OK",
      "vis_m": 9999,
      "fzfg": false,
      "metar_trigger": false,
      "taf_trigger": false,
      "metar": "METAR LIMJ 090320Z 10008KT 9999 FEW018 BKN028 11/07 Q1006",
      "taf": "TAF LIMJ 082300Z 0900/0924 03008KT 9999 BKN030"
    },
    {
      "icao": "LIPE",
      "alert": "OK",
      "vis_m": 9999,
      "fzfg": false,
      "metar_trigger": false,
      "taf_trigger": false,
      "metar": "METAR LIPE 090250Z VRB01KT 9999 BKN030 M01/M03 Q1009",
      "taf": "TAF LIPE 082300Z 0900/0924 VRB05KT CAVOK"
    },
    {
      "icao": "LIPH",
      "alert": "OK",
      "vis_m": 9999,
      "fzfg": false,
      "metar_trigger": false,
      "taf_trigger": false,
      "metar": "METAR LIPH 090320Z AUTO 02004KT 9999 BKN031/// M00/M05 Q1009",
      "taf": "TAF LIPH 082300Z 0900/0924 VRB05KT CAVOK"
    },
    {
      "icao": "LIPQ",
      "alert": "OK",
      "vis_m": 9999,
      "fzfg": false,
      "metar_trigger": false,
      "taf_trigger": false,
      "metar": "METAR LIPQ 090320Z AUTO 04004KT 9999 OVC032/// 01/M03 Q1009",
      "taf": "TAF LIPQ 082300Z 0900/0924 VRB05KT 9999 SCT030"
    },
    {
      "icao": "LIPR",
      "alert": "OK",
      "vis_m": 9999,
      "fzfg": false,
      "metar_trigger": false,
      "taf_trigger": false,
      "metar": "METAR LIPR 090320Z AUTO VRB02KT 9999 BKN050/// 01/M01 Q1008",
      "taf": "TAF LIPR 082300Z 0900/0924 VRB05KT CAVOK"
    },
    {
      "icao": "LIPX",
      "alert": "OK",
      "vis_m": 7000,
      "fzfg": false,
      "metar_trigger": false,
      "taf_trigger": false,
      "metar": "METAR LIPX 090320Z VRB01KT 7000 NSC M03/M04 Q1009",
      "taf": "TAF LIPX 082300Z 0900/0924 VRB05KT 8000 FEW020"
    },
    {
      "icao": "LIPY",
      "alert": "OK",
      "vis_m": 9999,
      "fzfg": false,
      "metar_trigger": false,
      "taf_trigger": false,
      "metar": "METAR LIPY 090320Z AUTO 22003KT 170V260 9999 FEW043/// BKN059/// 04/00 Q1008",
      "taf": "TAF LIPY 082300Z 0900/0924 VRB05KT 9999 SCT030"
    },
    {
      "icao": "LIPZ",
      "alert": "OK",
      "vis_m": 9999,
      "fzfg": false,
      "metar_trigger": false,
      "taf_trigger": false,
      "metar": "METAR LIPZ 090320Z 02006KT 9999 SCT025 M01/M05 Q1009 NOSIG",
      "taf": "TAF LIPZ 082300Z 0900/1006 VRB05KT CAVOK"
    },
    {
      "icao": "LIRF",
      "alert": "OK",
      "vis_m": 9999,
      "fzfg": false,
      "metar_trigger": false,
      "taf_trigger": false,
      "metar": "METAR LIRF 090320Z 27015KT 9999 SCT020 14/11 Q1011 NOSIG",
      "taf": "TAF LIRF 082300Z 0900/1006 15012KT 9999 SCT020"
    },
    {
      "icao": "LIRN",
      "alert": "OK",
      "vis_m": 9999,
      "fzfg": false,
      "metar_trigger": false,
      "taf_trigger": false,
      "metar": "METAR LIRN 090320Z 21003KT 180V240 9999 BKN050 08/08 Q1013 NOSIG",
      "taf": "TAF LIRN 082300Z 0900/0924 VRB05KT 9999 BKN025"
    },
    {
      "icao": "LIRP",
      "alert": "OK",
      "vis_m": 9999,
      "fzfg": false,
      "metar_trigger": false,
      "taf_trigger": false,
      "metar": "METAR LIRP 090245Z 11005KT 9999 SCT025 BKN030 05/05 Q1009 NOSIG",
      "taf": "TAF LIRP 082300Z 0900/0924 12010KT 9999 SCT025 SCT030"
    },
    {
      "icao": "LIRZ",
      "alert": "OK",
      "vis_m": 9999,
      "fzfg": false,
      "metar_trigger": false,
      "taf_trigger": false,
      "metar": "METAR LIRZ 090320Z AUTO 33004KT 290V350 9999 OVC017/// 05/04 Q1010",
      "taf": "TAF LIRZ 082300Z 0900/0924 VRB05KT 9999 BKN040"
    },
    {
      "icao": "LJLJ",
      "alert": "OK",
      "vis_m": 9999,
      "fzfg": false,
      "metar_trigger": false,
      "taf_trigger": false,
      "metar": "METAR LJLJ 090330Z 28005KT CAVOK M10/M12 Q1007 NOSIG",
      "taf": "TAF LJLJ 082300Z 0900/1000 VRB02KT 9999 FEW002"
    },
    {
      "icao": "LKMT",
      "alert": "OK",
      "vis_m": 4500,
      "fzfg": false,
      "metar_trigger": false,
      "taf_trigger": false,
      "metar": "METAR LKMT 090330Z 22003KT 4500 BR NSC M13/M14 Q1007 NOSIG",
      "taf": "TAF LKMT 082300Z 0900/0924 VRB02KT 3500 BR BKN030"
    },
    {
      "icao": "LKPR",
      "alert": "OK",
      "vis_m": 9999,
      "fzfg": false,
      "metar_trigger": false,
      "taf_trigger": false,
      "metar": "METAR LKPR 090330Z 07007KT 9999 -SN FEW012 M04/M05 Q1002 NOSIG",
      "taf": "TAF LKPR 090200Z 0903/1009 09007KT 9000 SCT018"
    },
    {
      "icao": "LLBG",
      "alert": "OK",
      "vis_m": 9999,
      "fzfg": false,
      "metar_trigger": false,
      "taf_trigger": false,
      "metar": "METAR LLBG 090320Z 32015KT 9999 -RA SCT013 SCT028 17/15 Q1013 RERA BECMG 27018G28KT 5000 TSRA FEW025CB",
      "taf": "TAF LLBG 082306Z 0900/0924 20012KT 9999 SCT030"
    },
    {
      "icao": "LMML",
      "alert": "OK",
      "vis_m": 9999,
      "fzfg": false,
      "metar_trigger": false,
      "taf_trigger": false,
      "metar": "METAR LMML 090315Z 27020KT 9999 FEW015 SCT040 14/10 Q1023 NOSIG",
      "taf": "TAF LMML 082300Z 0900/0924 27018KT 9999 FEW025"
    },
    {
      "icao": "LOWW",
      "alert": "OK",
      "vis_m": 9999,
      "fzfg": false,
      "metar_trigger": false,
      "taf_trigger": false,
      "metar": "METAR LOWW 090320Z 11004KT CAVOK M07/M10 Q1007 NOSIG",
      "taf": "TAF LOWW 090215Z 0903/1009 12008KT 9999 SCT030 TXM04/1009Z TNM06/0903Z"
    },
    {
      "icao": "LPFR",
      "alert": "OK",
      "vis_m": 5000,
      "fzfg": false,
      "metar_trigger": false,
      "taf_trigger": false,
      "metar": "METAR LPFR 090330Z 00000KT 5000 -RADZ BR SCT008 SCT018 10/09 Q1030",
      "taf": "TAF LPFR 082300Z 0900/0924 VRB05KT 9999 FEW015 BKN030"
    },
    {
      "icao": "LPMA",
      "alert": "OK",
      "vis_m": 9999,
      "fzfg": false,
      "metar_trigger": false,
      "taf_trigger": false,
      "metar": "METAR LPMA 090330Z 01008KT 9999 BKN015 16/11 Q1033",
      "taf": "TAF LPMA 082300Z 0900/0924 01010KT 9999 SCT015"
    },
    {
      "icao": "LPPR",
      "alert": "OK",
      "vis_m": 9999,
      "fzfg": false,
      "metar_trigger": false,
      "taf_trigger": false,
      "metar": "METAR LPPR 090330Z 30006KT 260V330 9999 FEW015 12/09 Q1026",
      "taf": "TAF LPPR 082300Z 0900/0924 26010KT 5000 -RADZ BR SCT004 BKN008"
    },
    {
      "icao": "LPPS",
      "alert": "OK",
      "vis_m": 9999,
      "fzfg": false,
      "metar_trigger": false,
      "taf_trigger": false,
      "metar": "METAR LPPS 090330Z 06004KT 9999 SCT014 SCT030 15/11 Q1033",
      "taf": "TAF LPPS 082300Z 0900/1006 05008KT 9999 FEW015 SCT030"
    },
    {
      "icao": "LPPT",
      "alert": "OK",
      "vis_m": 5000,
      "fzfg": false,
      "metar_trigger": false,
      "taf_trigger": false,
      "metar": "METAR LPPT 090330Z 24009KT 5000 DZ FEW002 SCT006 BKN010 13/13 Q1028",
      "taf": "TAF LPPT 082300Z 0900/1006 25008KT 9999 SCT008 BKN015"
    },
    {
      "icao": "LQBK",
      "alert": "OK",
      "vis_m": 9999,
      "fzfg": false,
      "metar_trigger": false,
      "taf_trigger": false,
      "metar": "METAR LQBK 090330Z VRB01KT CAVOK M12/M13 Q1009 NOSIG",
      "taf": "TAF LQBK 082300Z 0900/0924 15005KT CAVOK TX01/0913Z TNM11/0902Z"
    },
    {
      "icao": "LQSA",
      "alert": "OK",
      "vis_m": 5000,
      "fzfg": false,
      "metar_trigger": false,
      "taf_trigger": false,
      "metar": "METAR LQSA 090330Z 26001KT 5000 BR NSC M13/M14 Q1011",
      "taf": ""
    },
    {
      "icao": "LQTZ",
      "alert": "OK",
      "vis_m": 2400,
      "fzfg": false,
      "metar_trigger": false,
      "taf_trigger": false,
      "metar": "METAR LQTZ 090330Z VRB02KT 2400 BR FEW002 M14/M15 Q1010",
      "taf": "TAF LQTZ 082300Z 0900/0924 10005KT 7000 SCT060 TX03/0913Z TNM14/0900Z"
    },
    {
      "icao": "LRBC",
      "alert": "OK",
      "vis_m": 9999,
      "fzfg": false,
      "metar_trigger": false,
      "taf_trigger": false,
      "metar": "METAR LRBC 090330Z 25010KT CAVOK M04/M11 Q1001",
      "taf": "TAF LRBC 090200Z 0903/0912 26012KT CAVOK"
    },
    {
      "icao": "LRBS",
      "alert": "OK",
      "vis_m": 9999,
      "fzfg": false,
      "metar_trigger": false,
      "taf_trigger": false,
      "metar": "METAR LRBS 090330Z 26011KT CAVOK M03/M06 Q1005 NOSIG",
      "taf": "TAF LRBS 082300Z 0900/0924 24015KT 9999 BKN040"
    },
    {
      "icao": "LRBV",
      "alert": "OK",
      "vis_m": 6000,
      "fzfg": false,
      "metar_trigger": false,
      "taf_trigger": false,
      "metar": "METAR LRBV 090330Z AUTO 30009KT 270V340 6000 SG FEW015/// OVC026/// M06/M10 Q1004",
      "taf": "TAF LRBV 090200Z 0903/0912 30010KT 5000 -SN BR BKN010 BKN025"
    },
    {
      "icao": "LRCL",
      "alert": "OK",
      "vis_m": 9999,
      "fzfg": false,
      "metar_trigger": false,
      "taf_trigger": false,
      "metar": "METAR LRCL 090330Z 28009KT 9999 OVC064 M04/M09 Q1006",
      "taf": "TAF LRCL 090200Z 0903/0912 27008KT 9999 BKN040"
    },
    {
      "icao": "LRCV",
      "alert": "OK",
      "vis_m": 9999,
      "fzfg": false,
      "metar_trigger": false,
      "taf_trigger": false,
      "metar": "METAR LRCV 090330Z 29010KT CAVOK M06/M09 Q1008",
      "taf": "TAF LRCV 090200Z 0903/0912 28012KT CAVOK"
    },
    {
      "icao": "LRIA",
      "alert": "OK",
      "vis_m": 9999,
      "fzfg": false,
      "metar_trigger": false,
      "taf_trigger": false,
      "metar": "METAR LRIA 090330Z 26007KT 220V300 9999 OVC046 M03/M07 Q1000",
      "taf": "TAF LRIA 090200Z 0903/0912 26006KT 9999 OVC040"
    },
    {
      "icao": "LROP",
      "alert": "OK",
      "vis_m": 9999,
      "fzfg": false,
      "metar_trigger": false,
      "taf_trigger": false,
      "metar": "METAR LROP 090330Z 25008KT CAVOK M05/M06 Q1005 NOSIG",
      "taf": "TAF LROP 082300Z 0900/0924 24015KT 9999 BKN040"
    },
    {
      "icao": "LRSB",
      "alert": "OK",
      "vis_m": 9999,
      "fzfg": false,
      "metar_trigger": false,
      "taf_trigger": false,
      "metar": "METAR LRSB 090330Z COR 28013KT 9999 OVC050 M05/M10 Q1005",
      "taf": "TAF LRSB 082300Z 0900/0924 33017KT 9999 BKN040"
    },
    {
      "icao": "LRSM",
      "alert": "OK",
      "vis_m": 9999,
      "fzfg": false,
      "metar_trigger": false,
      "taf_trigger": false,
      "metar": "METAR LRSM 090330Z AUTO 27014KT 9999 FEW045/// M09/M11 Q1007",
      "taf": "TAF LRSM 090200Z 0903/0912 26016KT 5000 BR BKN035"
    },
    {
      "icao": "LRSV",
      "alert": "OK",
      "vis_m": 9999,
      "fzfg": false,
      "metar_trigger": false,
      "taf_trigger": false,
      "metar": "METAR LRSV 090330Z 28013KT 9999 BKN044 M04/M10 Q0997",
      "taf": "TAF LRSV 090200Z 0903/0912 29012KT 9999 BKN045"
    },
    {
      "icao": "LRTM",
      "alert": "OK",
      "vis_m": 9999,
      "fzfg": false,
      "metar_trigger": false,
      "taf_trigger": false,
      "metar": "METAR LRTM 090330Z AUTO 24010KT 9999 FEW031/// BKN065/// M07/M09 Q1006",
      "taf": "TAF LRTM 090200Z 0903/0912 24010KT 9999 BKN040"
    },
    {
      "icao": "LRTR",
      "alert": "OK",
      "vis_m": 800,
      "fzfg": true,
      "metar_trigger": false,
      "taf_trigger": false,
      "metar": "METAR LRTR 090330Z 09007KT 0800 R11/2000U FZFG SCT001 M16/M18 Q1010",
      "taf": "TAF LRTR 082300Z 0900/0924 VRB04KT 1500 BR BKN005"
    },
    {
      "icao": "LTAC",
      "alert": "OK",
      "vis_m": 8000,
      "fzfg": false,
      "metar_trigger": false,
      "taf_trigger": false,
      "metar": "METAR LTAC 090320Z 23008KT 8000 FEW017 SCT033 BKN080 01/M02 Q1004 NOSIG RMK RWY21C 23010KT RWY03L 23008KT RWY21R 22010KT RWY03R 22006KT RWY21L 24008KT",
      "taf": "TAF LTAC 082240Z 0900/0924 24012KT 8000 SCT040 BKN100"
    },
    {
      "icao": "LTFM",
      "alert": "OK",
      "vis_m": 9999,
      "fzfg": false,
      "metar_trigger": false,
      "taf_trigger": false,
      "metar": "METAR LTFM 090320Z VRB08KT 9999 FEW035 BKN080 01/M03 Q1008 NOSIG RMK RWY17L 26007KT RWY34L 26005KT RWY16R 25006KT RWY36 28009KT RWY18 27009KT",
      "taf": "TAF LTFM 082240Z 0900/1006 26008KT 9999 FEW035 BKN080"
    },
    {
      "icao": "LUKK",
      "alert": "OK",
      "vis_m": 9999,
      "fzfg": false,
      "metar_trigger": false,
      "taf_trigger": false,
      "metar": "METAR LUKK 090330Z 29009KT 9999 -SN OVC021 M04/M07 Q0999 NOSIG",
      "taf": "TAF LUKK 082315Z 0900/0924 30015G25KT 9999 BKN030"
    },
    {
      "icao": "LWOH",
      "alert": "OK",
      "vis_m": null,
      "fzfg": false,
      "metar_trigger": false,
      "taf_trigger": false,
      "metar": "",
      "taf": "TAF LWOH 082020Z 0821/0921 VRB02KT 9999 FEW015 BKN035"
    },
    {
      "icao": "LWSK",
      "alert": "OK",
      "vis_m": 9999,
      "fzfg": false,
      "metar_trigger": false,
      "taf_trigger": false,
      "metar": "METAR LWSK 090320Z VRB01KT CAVOK M07/M09 Q1013 NOSIG",
      "taf": "TAF LWSK 090210Z 0903/1003 VRB02KT CAVOK"
    },
    {
      "icao": "LYBE",
      "alert": "OK",
      "vis_m": 3000,
      "fzfg": false,
      "metar_trigger": false,
      "taf_trigger": false,
      "metar": "METAR LYBE 090330Z 15004KT 3000 BR NSC M10/M11 Q1011 NOSIG",
      "taf": "TAF LYBE 082300Z 0900/0924 12005KT CAVOK TX01/0919Z TNM12/0904Z"
    },
    {
      "icao": "LYNI",
      "alert": "OK",
      "vis_m": 9999,
      "fzfg": false,
      "metar_trigger": false,
      "taf_trigger": false,
      "metar": "METAR LYNI 090330Z VRB01KT CAVOK M08/M09 Q1012 NOSIG",
      "taf": "TAF LYNI 082300Z 0900/0924 19004KT 9999 SCT040 TX02/0914Z TNM10/0905Z"
    },
    {
      "icao": "LYPG",
      "alert": "OK",
      "vis_m": 9999,
      "fzfg": false,
      "metar_trigger": false,
      "taf_trigger": false,
      "metar": "METAR LYPG 090330Z 31004KT 260V350 CAVOK M02/M06 Q1016 NOSIG",
      "taf": "TAF LYPG 082300Z 0900/0924 36005KT 9999 FEW040 TX07/0923Z TNM02/0904Z"
    },
    {
      "icao": "LZIB",
      "alert": "OK",
      "vis_m": 9999,
      "fzfg": false,
      "metar_trigger": false,
      "taf_trigger": false,
      "metar": "METAR LZIB 090330Z 04004KT 9999 BKN023 M07/M09 Q1008 NOSIG",
      "taf": "TAF LZIB 082315Z 0900/1000 07005KT 9999 SCT030"
    },
    {
      "icao": "LZKZ",
      "alert": "OK",
      "vis_m": 9999,
      "fzfg": false,
      "metar_trigger": false,
      "taf_trigger": false,
      "metar": "METAR LZKZ 090330Z VRB03KT CAVOK M11/M12 Q1006 NOSIG",
      "taf": "TAF LZKZ 082315Z 0900/1000 VRB02KT CAVOK"
    },
    {
      "icao": "LZTT",
      "alert": "OK",
      "vis_m": 9999,
      "fzfg": false,
      "metar_trigger": false,
      "taf_trigger": false,
      "metar": "METAR LZTT 090330Z 29011KT CAVOK M13/M15 Q1003",
      "taf": "TAF LZTT 082315Z 0900/1000 27009KT 9999 FEW015"
    },
    {
      "icao": "OEJN",
      "alert": "OK",
      "vis_m": 9999,
      "fzfg": false,
      "metar_trigger": false,
      "taf_trigger": false,
      "metar": "METAR OEJN 090300Z 33003KT CAVOK 23/18 Q1014 NOSIG",
      "taf": "TAF OEJN 082300Z 0900/1006 VRB03KT 7000 NSC"
    },
    {
      "icao": "OEMA",
      "alert": "OK",
      "vis_m": 9999,
      "fzfg": false,
      "metar_trigger": false,
      "taf_trigger": false,
      "metar": "METAR OEMA 090300Z 04009KT CAVOK 14/M03 Q1020 NOSIG",
      "taf": "TAF OEMA 082300Z 0900/1006 09006KT CAVOK"
    },
    {
      "icao": "OJAI",
      "alert": "OK",
      "vis_m": 3000,
      "fzfg": false,
      "metar_trigger": false,
      "taf_trigger": false,
      "metar": "METAR OJAI 090300Z 20005KT 3000 HZ NSC 09/06 Q1013 NOSIG",
      "taf": "TAF OJAI 082300Z 0900/1006 24011KT 3500 HZ NSC"
    },
    {
      "icao": "OMAA",
      "alert": "OK",
      "vis_m": 9999,
      "fzfg": false,
      "metar_trigger": false,
      "taf_trigger": false,
      "metar": "METAR OMAA 090300Z 16003KT CAVOK 16/12 Q1019 NOSIG",
      "taf": "TAF OMAA 082300Z 0900/1006 VRB02KT CAVOK"
    },
    {
      "icao": "OMDB",
      "alert": "OK",
      "vis_m": 9999,
      "fzfg": false,
      "metar_trigger": false,
      "taf_trigger": false,
      "metar": "METAR OMDB 090330Z 17004KT 110V190 CAVOK 17/11 Q1019 NOSIG",
      "taf": "TAF OMDB 082300Z 0900/1006 10005KT CAVOK"
    },
    {
      "icao": "UAAA",
      "alert": "OK",
      "vis_m": 2300,
      "fzfg": false,
      "metar_trigger": false,
      "taf_trigger": false,
      "metar": "METAR UAAA 090330Z 02002MPS 2300 BR OVC007 M05/M06 Q1025 NOSIG",
      "taf": "TAF UAAA 082301Z 0900/0924 35003MPS 1500 BR BKN007 OVC015 TXM01/0909Z TNM07/0901Z"
    },
    {
      "icao": "UBBB",
      "alert": "OK",
      "vis_m": 8000,
      "fzfg": false,
      "metar_trigger": false,
      "taf_trigger": false,
      "metar": "METAR UBBB 090330Z 19022G34KT 8000 SCT005 10/08 Q1005 NOSIG",
      "taf": "TAF UBBB 082303Z 0900/0924 17014KT 3500 BR BKN010 TX12/0910Z TN08/0900Z"
    },
    {
      "icao": "UDSG",
      "alert": "OK",
      "vis_m": 2800,
      "fzfg": false,
      "metar_trigger": false,
      "taf_trigger": false,
      "metar": "METAR UDSG 090330Z 02004KT 2800 BR OVC033 M05/M05 Q1011 NOSIG",
      "taf": "TAF UDSG 082258Z 0900/0924 VRB06KT 2000 BR BKN030"
    },
    {
      "icao": "UDYZ",
      "alert": "OK",
      "vis_m": 1600,
      "fzfg": false,
      "metar_trigger": false,
      "taf_trigger": false,
      "metar": "METAR UDYZ 090330Z 34002KT 1600 1400W R08/P2000N BR SCT046 M03/M05 Q1014 NOSIG",
      "taf": "TAF UDYZ 082300Z 0900/0924 VRB06KT 1200 BR SCT040"
    },
    {
      "icao": "UGKO",
      "alert": "OK",
      "vis_m": 9999,
      "fzfg": false,
      "metar_trigger": false,
      "taf_trigger": false,
      "metar": "METAR UGKO 090330Z 08016KT 9999 BKN080 12/05 Q1002 NOSIG",
      "taf": "TAF UGKO 082300Z 0900/0924 09007KT 9999 BKN070 TX12/0911Z TN09/0903Z"
    }
  ]
}