{
  "ts_utc": "2026-04-30T16:05:45Z",
  "threshold_m": 150,
  "source": "stations_override.txt (ICAO list) + aviationweather.gov (METAR/TAF raw)",
  "station_count": 159,
  "stations": [
    {
      "icao": "BIKF",
      "alert": "OK",
      "vis_m": 9999,
      "fzfg": false,
      "metar_trigger": false,
      "taf_trigger": false,
      "metar": "METAR BIKF 301600Z 23021KT 9999 SCT032 BKN140 07/M01 Q1009",
      "taf": "TAF BIKF 301337Z 3015/0115 21020KT 9999 SCT020 BKN040 TX07/3018Z TN02/0103Z"
    },
    {
      "icao": "BKPR",
      "alert": "OK",
      "vis_m": 9999,
      "fzfg": false,
      "metar_trigger": false,
      "taf_trigger": false,
      "metar": "METAR BKPR 301600Z 36003KT 320V040 9999 SCT030 BKN055 08/04 Q1022 NOSIG",
      "taf": "TAF BKPR 301130Z 3012/0112 36008KT 9999 SCT020 BKN040"
    },
    {
      "icao": "EBCI",
      "alert": "OK",
      "vis_m": 9999,
      "fzfg": false,
      "metar_trigger": false,
      "taf_trigger": false,
      "metar": "METAR EBCI 301550Z 11009KT 080V160 CAVOK 21/M08 Q1022 NOSIG",
      "taf": "TAF EBCI 301110Z 3012/0118 10013KT CAVOK"
    },
    {
      "icao": "EDDB",
      "alert": "OK",
      "vis_m": 9999,
      "fzfg": false,
      "metar_trigger": false,
      "taf_trigger": false,
      "metar": "METAR EDDB 301550Z AUTO 10004KT 350V160 CAVOK 19/03 Q1029 NOSIG",
      "taf": "TAF EDDB 301100Z 3012/0112 35007KT CAVOK"
    },
    {
      "icao": "EDDH",
      "alert": "OK",
      "vis_m": 9999,
      "fzfg": false,
      "metar_trigger": false,
      "taf_trigger": false,
      "metar": "METAR EDDH 301550Z AUTO 06008KT 010V100 CAVOK 20/04 Q1030 NOSIG",
      "taf": "TAF EDDH 301100Z 3012/0118 VRB03KT CAVOK"
    },
    {
      "icao": "EDDK",
      "alert": "OK",
      "vis_m": 9999,
      "fzfg": false,
      "metar_trigger": false,
      "taf_trigger": false,
      "metar": "METAR EDDK 301550Z AUTO 11010KT 060V170 CAVOK 20/M04 Q1025 NOSIG",
      "taf": "TAF EDDK 301100Z 3012/0118 11014KT CAVOK"
    },
    {
      "icao": "EDDN",
      "alert": "OK",
      "vis_m": 9999,
      "fzfg": false,
      "metar_trigger": false,
      "taf_trigger": false,
      "metar": "METAR EDDN 301550Z AUTO 08011KT 030V110 CAVOK 16/M06 Q1027 NOSIG",
      "taf": "TAF EDDN 301100Z 3012/0112 09010KT CAVOK"
    },
    {
      "icao": "EDDS",
      "alert": "OK",
      "vis_m": 9999,
      "fzfg": false,
      "metar_trigger": false,
      "taf_trigger": false,
      "metar": "METAR EDDS 301550Z AUTO 10011KT 070V140 CAVOK 17/M06 Q1024 NOSIG",
      "taf": "TAF EDDS 301100Z 3012/0112 09010KT CAVOK"
    },
    {
      "icao": "EDFH",
      "alert": "OK",
      "vis_m": 9999,
      "fzfg": false,
      "metar_trigger": false,
      "taf_trigger": false,
      "metar": "METAR EDFH 301550Z 11010G24KT 030V170 CAVOK 15/M07 Q1025",
      "taf": "TAF EDFH 301100Z 3012/0112 10015G25KT CAVOK"
    },
    {
      "icao": "EDJA",
      "alert": "OK",
      "vis_m": 9999,
      "fzfg": false,
      "metar_trigger": false,
      "taf_trigger": false,
      "metar": "METAR EDJA 301550Z 06018KT CAVOK 14/M11 Q1024",
      "taf": "TAF EDJA 301400Z 3015/3024 08015G25KT CAVOK"
    },
    {
      "icao": "EDLW",
      "alert": "OK",
      "vis_m": 9999,
      "fzfg": false,
      "metar_trigger": false,
      "taf_trigger": false,
      "metar": "METAR EDLW 301550Z 08014KT CAVOK 18/M03 Q1026",
      "taf": "TAF EDLW 301100Z 3012/0112 09012KT CAVOK"
    },
    {
      "icao": "EDNY",
      "alert": "OK",
      "vis_m": 9999,
      "fzfg": false,
      "metar_trigger": false,
      "taf_trigger": false,
      "metar": "METAR EDNY 301550Z COR 05017KT CAVOK 17/M06 Q1022",
      "taf": "TAF EDNY 301400Z 3015/3024 05015G25KT CAVOK"
    },
    {
      "icao": "EDSB",
      "alert": "OK",
      "vis_m": 9999,
      "fzfg": false,
      "metar_trigger": false,
      "taf_trigger": false,
      "metar": "METAR EDSB 301550Z 05018KT CAVOK 20/M07 Q1023",
      "taf": "TAF EDSB 301100Z 3012/0112 03015G25KT CAVOK"
    },
    {
      "icao": "EETN",
      "alert": "OK",
      "vis_m": 9999,
      "fzfg": false,
      "metar_trigger": false,
      "taf_trigger": false,
      "metar": "METAR EETN 301550Z 27011KT CAVOK 11/05 Q1021 NOSIG",
      "taf": "TAF EETN 301130Z 3012/0112 27010KT 9999 BKN030"
    },
    {
      "icao": "EFTU",
      "alert": "OK",
      "vis_m": 9999,
      "fzfg": false,
      "metar_trigger": false,
      "taf_trigger": false,
      "metar": "METAR EFTU 301550Z AUTO 32011KT 280V350 CAVOK 13/04 Q1021",
      "taf": "TAF EFTU 301426Z 3015/0115 33008KT CAVOK"
    },
    {
      "icao": "EGBB",
      "alert": "OK",
      "vis_m": 9999,
      "fzfg": false,
      "metar_trigger": false,
      "taf_trigger": false,
      "metar": "METAR EGBB 301550Z 11014KT CAVOK 21/00 Q1020",
      "taf": "TAF EGBB 301056Z 3012/0112 10012KT CAVOK"
    },
    {
      "icao": "EGGP",
      "alert": "OK",
      "vis_m": 9999,
      "fzfg": false,
      "metar_trigger": false,
      "taf_trigger": false,
      "metar": "METAR EGGP 301550Z 12017KT CAVOK 20/03 Q1019",
      "taf": "TAF EGGP 301058Z 3012/0112 13015KT CAVOK"
    },
    {
      "icao": "EGGW",
      "alert": "OK",
      "vis_m": 9999,
      "fzfg": false,
      "metar_trigger": false,
      "taf_trigger": false,
      "metar": "METAR EGGW 301550Z AUTO 10017KT 070V140 9999 NCD 17/01 Q1021",
      "taf": "TAF EGGW 301104Z 3012/0112 09010KT CAVOK"
    },
    {
      "icao": "EGKK",
      "alert": "OK",
      "vis_m": 9999,
      "fzfg": false,
      "metar_trigger": false,
      "taf_trigger": false,
      "metar": "METAR EGKK 301550Z 08014KT CAVOK 21/00 Q1020",
      "taf": "TAF EGKK 301053Z 3012/0118 08010KT CAVOK"
    },
    {
      "icao": "EGNM",
      "alert": "OK",
      "vis_m": 9999,
      "fzfg": false,
      "metar_trigger": false,
      "taf_trigger": false,
      "metar": "METAR EGNM 301550Z 09011G22KT 030V110 CAVOK 17/06 Q1022",
      "taf": "TAF EGNM 301055Z 3012/0112 10012KT CAVOK"
    },
    {
      "icao": "EGPD",
      "alert": "OK",
      "vis_m": 9999,
      "fzfg": false,
      "metar_trigger": false,
      "taf_trigger": false,
      "metar": "METAR EGPD 301550Z COR AUTO 15012KT 9999 NCD 13/06 Q1025 NOSIG",
      "taf": "TAF EGPD 301104Z 3012/0112 16009KT CAVOK"
    },
    {
      "icao": "EGPF",
      "alert": "OK",
      "vis_m": 9999,
      "fzfg": false,
      "metar_trigger": false,
      "taf_trigger": false,
      "metar": "METAR EGPF 301550Z AUTO 07011KT 9999 NCD 21/08 Q1021",
      "taf": "TAF EGPF 301103Z 3012/0112 05009KT 9999 FEW040"
    },
    {
      "icao": "EHBK",
      "alert": "OK",
      "vis_m": 9999,
      "fzfg": false,
      "metar_trigger": false,
      "taf_trigger": false,
      "metar": "METAR EHBK 301555Z AUTO 09016KT 050V120 9999 NCD 19/M03 Q1024 NOSIG",
      "taf": "TAF EHBK 301103Z 3012/0118 09016KT CAVOK"
    },
    {
      "icao": "EHEH",
      "alert": "OK",
      "vis_m": 9999,
      "fzfg": false,
      "metar_trigger": false,
      "taf_trigger": false,
      "metar": "METAR EHEH 301555Z AUTO 11012G22KT 070V150 9999 NCD 21/M06 Q1024 BLU TEMPO 11015G25KT",
      "taf": "TAF EHEH 301119Z 3012/0118 11015G25KT CAVOK"
    },
    {
      "icao": "EKBI",
      "alert": "OK",
      "vis_m": 9999,
      "fzfg": false,
      "metar_trigger": false,
      "taf_trigger": false,
      "metar": "METAR EKBI 301550Z AUTO 30008KT 260V330 9999 NCD 17/M01 Q1031",
      "taf": "TAF EKBI 301427Z 3015/0115 30009KT CAVOK"
    },
    {
      "icao": "EKCH",
      "alert": "OK",
      "vis_m": 9999,
      "fzfg": false,
      "metar_trigger": false,
      "taf_trigger": false,
      "metar": "METAR EKCH 301550Z AUTO 01009KT 9999 NCD 14/05 Q1029 NOSIG",
      "taf": "TAF EKCH 301427Z 3015/0115 01010KT CAVOK"
    },
    {
      "icao": "ENAL",
      "alert": "OK",
      "vis_m": 9999,
      "fzfg": false,
      "metar_trigger": false,
      "taf_trigger": false,
      "metar": "METAR ENAL 301550Z 25013KT CAVOK 12/05 Q1025",
      "taf": "TAF ENAL 301400Z 3015/3024 24015KT CAVOK"
    },
    {
      "icao": "ENBR",
      "alert": "OK",
      "vis_m": 9999,
      "fzfg": false,
      "metar_trigger": false,
      "taf_trigger": false,
      "metar": "METAR ENBR 301550Z 16010KT 9999 FEW010 09/05 Q1030 NOSIG RMK WIND 1200FT 21008KT",
      "taf": "TAF ENBR 301100Z 3012/0112 18008KT 5000 BKN003"
    },
    {
      "icao": "ENGM",
      "alert": "OK",
      "vis_m": 9999,
      "fzfg": false,
      "metar_trigger": false,
      "taf_trigger": false,
      "metar": "METAR ENGM 301550Z 21012KT CAVOK 23/01 Q1024 NOSIG",
      "taf": "TAF ENGM 301100Z 3012/0112 18010KT CAVOK"
    },
    {
      "icao": "ENHD",
      "alert": "OK",
      "vis_m": 9999,
      "fzfg": false,
      "metar_trigger": false,
      "taf_trigger": false,
      "metar": "METAR ENHD 301550Z 21006KT 180V250 9999 BKN007 07/05 Q1030",
      "taf": "TAF ENHD 301400Z 3015/3022 23007KT 9999 BKN008"
    },
    {
      "icao": "ENTC",
      "alert": "OK",
      "vis_m": 9999,
      "fzfg": false,
      "metar_trigger": false,
      "taf_trigger": false,
      "metar": "METAR ENTC 301550Z 21018KT 9999 -DZRA FEW015 BKN034 07/05 Q1014 TEMPO RA BKN014 RMK WIND 2600FT 21019KT",
      "taf": "TAF ENTC 301100Z 3012/0112 20015KT 9999 -RADZ SCT008 BKN020"
    },
    {
      "icao": "ENTO",
      "alert": "OK",
      "vis_m": 9999,
      "fzfg": false,
      "metar_trigger": false,
      "taf_trigger": false,
      "metar": "METAR ENTO 301550Z 21016KT 9999 VCFG NSC 17/03 Q1026 NOSIG",
      "taf": "TAF ENTO 301100Z 3012/0112 18010KT CAVOK"
    },
    {
      "icao": "ENVA",
      "alert": "OK",
      "vis_m": 9999,
      "fzfg": false,
      "metar_trigger": false,
      "taf_trigger": false,
      "metar": "METAR ENVA 301550Z 23006KT CAVOK 16/04 Q1026 NOSIG RMK WIND 670FT 29009KT",
      "taf": "TAF ENVA 301100Z 3012/0112 23005KT 9999 BKN040"
    },
    {
      "icao": "ENZV",
      "alert": "OK",
      "vis_m": 9999,
      "fzfg": false,
      "metar_trigger": false,
      "taf_trigger": false,
      "metar": "METAR ENZV 301550Z 29005KT 260V330 9999 SCT008 07/05 Q1031 NOSIG",
      "taf": "TAF ENZV 301100Z 3012/0112 29005KT 9999 BKN004"
    },
    {
      "icao": "EPGD",
      "alert": "OK",
      "vis_m": 9999,
      "fzfg": false,
      "metar_trigger": false,
      "taf_trigger": false,
      "metar": "METAR EPGD 301600Z 29011KT CAVOK 15/M04 Q1026",
      "taf": "TAF EPGD 301130Z 3012/0112 27007KT CAVOK"
    },
    {
      "icao": "EPKK",
      "alert": "OK",
      "vis_m": 9999,
      "fzfg": false,
      "metar_trigger": false,
      "taf_trigger": false,
      "metar": "METAR EPKK 301600Z 01010KT 330V030 CAVOK 13/M07 Q1026",
      "taf": "TAF EPKK 301430Z 3015/0115 34010KT CAVOK"
    },
    {
      "icao": "EPKT",
      "alert": "OK",
      "vis_m": 9999,
      "fzfg": false,
      "metar_trigger": false,
      "taf_trigger": false,
      "metar": "METAR EPKT 301600Z 35010KT 330V030 CAVOK 12/M06 Q1027",
      "taf": "TAF EPKT 301130Z 3012/0112 33010KT CAVOK"
    },
    {
      "icao": "EPLB",
      "alert": "OK",
      "vis_m": 9999,
      "fzfg": false,
      "metar_trigger": false,
      "taf_trigger": false,
      "metar": "METAR EPLB 301600Z 30007KT CAVOK 12/M07 Q1026",
      "taf": "TAF EPLB 301130Z 3012/0112 33010KT CAVOK"
    },
    {
      "icao": "EPMO",
      "alert": "OK",
      "vis_m": 9999,
      "fzfg": false,
      "metar_trigger": false,
      "taf_trigger": false,
      "metar": "METAR EPMO 301600Z 35005KT 320V030 CAVOK 12/M04 Q1027",
      "taf": "TAF EPMO 301130Z 3012/0112 33010KT CAVOK"
    },
    {
      "icao": "EPPO",
      "alert": "OK",
      "vis_m": 9999,
      "fzfg": false,
      "metar_trigger": false,
      "taf_trigger": false,
      "metar": "METAR EPPO 301600Z 32005KT 290V360 CAVOK 16/02 Q1028",
      "taf": "TAF EPPO 301130Z 3012/0112 34010KT CAVOK"
    },
    {
      "icao": "EPRA",
      "alert": "OK",
      "vis_m": 9999,
      "fzfg": false,
      "metar_trigger": false,
      "taf_trigger": false,
      "metar": "METAR EPRA 301600Z 35010KT CAVOK 12/M13 Q1027",
      "taf": "TAF EPRA 301430Z 3015/3024 34008KT CAVOK"
    },
    {
      "icao": "EPRZ",
      "alert": "OK",
      "vis_m": 9999,
      "fzfg": false,
      "metar_trigger": false,
      "taf_trigger": false,
      "metar": "METAR EPRZ 301600Z 34006KT 320V020 CAVOK 13/M06 Q1026",
      "taf": "TAF EPRZ 301130Z 3012/0112 30006KT CAVOK"
    },
    {
      "icao": "EPSC",
      "alert": "OK",
      "vis_m": 9999,
      "fzfg": false,
      "metar_trigger": false,
      "taf_trigger": false,
      "metar": "METAR EPSC 301600Z 31011KT 280V350 CAVOK 18/M00 Q1029",
      "taf": "TAF EPSC 301130Z 3012/0112 33012KT CAVOK"
    },
    {
      "icao": "EPSY",
      "alert": "OK",
      "vis_m": 9999,
      "fzfg": false,
      "metar_trigger": false,
      "taf_trigger": false,
      "metar": "METAR EPSY 301600Z VRB03KT CAVOK 12/M03 Q1027",
      "taf": "TAF EPSY 301430Z 3015/3024 VRB02KT CAVOK"
    },
    {
      "icao": "EPWA",
      "alert": "OK",
      "vis_m": 9999,
      "fzfg": false,
      "metar_trigger": false,
      "taf_trigger": false,
      "metar": "METAR EPWA 301600Z 33008KT 310V010 CAVOK 12/M06 Q1027 NOSIG",
      "taf": "TAF EPWA 301430Z 3015/0115 32010KT CAVOK"
    },
    {
      "icao": "EPWR",
      "alert": "OK",
      "vis_m": 9999,
      "fzfg": false,
      "metar_trigger": false,
      "taf_trigger": false,
      "metar": "METAR EPWR 301600Z 34009KT 310V010 CAVOK 15/M01 Q1028",
      "taf": "TAF EPWR 301430Z 3015/0115 35010KT CAVOK"
    },
    {
      "icao": "ESGG",
      "alert": "OK",
      "vis_m": 9999,
      "fzfg": false,
      "metar_trigger": false,
      "taf_trigger": false,
      "metar": "METAR ESGG 301550Z 30008KT CAVOK 14/06 Q1028",
      "taf": "TAF ESGG 301430Z 3015/0115 25010KT CAVOK"
    },
    {
      "icao": "ESKN",
      "alert": "OK",
      "vis_m": 9999,
      "fzfg": false,
      "metar_trigger": false,
      "taf_trigger": false,
      "metar": "METAR ESKN 301550Z 30006KT 260V340 CAVOK 20/05 Q1024",
      "taf": "TAF ESKN 301430Z 3015/0115 30010KT CAVOK"
    },
    {
      "icao": "ESMS",
      "alert": "OK",
      "vis_m": 9999,
      "fzfg": false,
      "metar_trigger": false,
      "taf_trigger": false,
      "metar": "METAR ESMS 301550Z 32015KT CAVOK 17/M01 Q1028",
      "taf": "TAF ESMS 301427Z 3015/0115 30015KT CAVOK"
    },
    {
      "icao": "ESSA",
      "alert": "OK",
      "vis_m": 9999,
      "fzfg": false,
      "metar_trigger": false,
      "taf_trigger": false,
      "metar": "METAR ESSA 301550Z 28005KT CAVOK 18/05 Q1024 NOSIG",
      "taf": "TAF ESSA 301430Z 3015/0115 32010KT CAVOK"
    },
    {
      "icao": "EYKA",
      "alert": "OK",
      "vis_m": 9999,
      "fzfg": false,
      "metar_trigger": false,
      "taf_trigger": false,
      "metar": "METAR EYKA 301550Z 30008KT 270V330 CAVOK 09/M02 Q1026",
      "taf": "TAF EYKA 301101Z 3012/0112 VRB03KT 9000 BKN040"
    },
    {
      "icao": "EYPA",
      "alert": "OK",
      "vis_m": 9999,
      "fzfg": false,
      "metar_trigger": false,
      "taf_trigger": false,
      "metar": "METAR EYPA 301550Z VRB02KT 9999 OVC048 07/03 Q1026",
      "taf": "TAF EYPA 301102Z 3012/0112 VRB04KT 9000 BKN030"
    },
    {
      "icao": "EYVI",
      "alert": "OK",
      "vis_m": 9999,
      "fzfg": false,
      "metar_trigger": false,
      "taf_trigger": false,
      "metar": "METAR EYVI 301550Z 31007KT 280V350 CAVOK 08/M02 Q1025 NOSIG",
      "taf": "TAF EYVI 301101Z 3012/0112 27009KT 9000 BKN040"
    },
    {
      "icao": "GCFV",
      "alert": "OK",
      "vis_m": 9999,
      "fzfg": false,
      "metar_trigger": false,
      "taf_trigger": false,
      "metar": "METAR GCFV 301600Z 10006KT 060V140 9999 FEW035 21/13 Q1017",
      "taf": "TAF GCFV 301400Z 3015/0115 06005KT 9999 SCT030 TX23/0114Z TN16/0106Z"
    },
    {
      "icao": "GCLP",
      "alert": "OK",
      "vis_m": 9999,
      "fzfg": false,
      "metar_trigger": false,
      "taf_trigger": false,
      "metar": "METAR GCLP 301600Z 15009KT 110V170 9999 FEW025 BKN035 21/16 Q1017 NOSIG",
      "taf": "TAF GCLP 301400Z 3015/0115 16008KT 9999 FEW025 BKN040 TX23/0114Z TN16/0106Z"
    },
    {
      "icao": "GCTS",
      "alert": "OK",
      "vis_m": 9999,
      "fzfg": false,
      "metar_trigger": false,
      "taf_trigger": false,
      "metar": "METAR GCTS 301600Z 20007KT 160V270 9999 SCT033 22/15 Q1017 NOSIG",
      "taf": "TAF GCTS 301400Z 3015/0115 22006KT 9999 FEW020 BKN040 TX24/0114Z TN16/0106Z"
    },
    {
      "icao": "GMAD",
      "alert": "OK",
      "vis_m": 9999,
      "fzfg": false,
      "metar_trigger": false,
      "taf_trigger": false,
      "metar": "METAR GMAD 301600Z 26013KT 230V300 9999 SCT040 23/13 Q1014 NOSIG",
      "taf": "TAF GMAD 301100Z 3012/0118 28012KT 8000 SCT020"
    },
    {
      "icao": "GMMN",
      "alert": "OK",
      "vis_m": 9999,
      "fzfg": false,
      "metar_trigger": false,
      "taf_trigger": false,
      "metar": "METAR GMMN 301600Z 02012KT 330V060 CAVOK 22/14 Q1016 NOSIG",
      "taf": "TAF GMMN 301100Z 3012/0118 02012KT 9999 BKN023"
    },
    {
      "icao": "GMMX",
      "alert": "OK",
      "vis_m": 8000,
      "fzfg": false,
      "metar_trigger": false,
      "taf_trigger": false,
      "metar": "METAR GMMX 301530Z 16005KT 100V270 8000 BKN026 24/14 Q1015 NOSIG",
      "taf": "TAF GMMX 301100Z 3012/0118 24005KT 7000 SCT010 BKN015"
    },
    {
      "icao": "HEGN",
      "alert": "OK",
      "vis_m": 9999,
      "fzfg": false,
      "metar_trigger": false,
      "taf_trigger": false,
      "metar": "METAR HEGN 301500Z 35012KT CAVOK 30/M00 Q1010 NOSIG",
      "taf": "TAF HEGN 301100Z 3012/0118 36008G20KT CAVOK"
    },
    {
      "icao": "HEMA",
      "alert": "OK",
      "vis_m": 9999,
      "fzfg": false,
      "metar_trigger": false,
      "taf_trigger": false,
      "metar": "METAR HEMA 301500Z 36010KT CAVOK 28/04 Q1010 NOSIG",
      "taf": "TAF HEMA 301100Z 3012/0118 35008G20KT CAVOK"
    },
    {
      "icao": "HESH",
      "alert": "OK",
      "vis_m": 9999,
      "fzfg": false,
      "metar_trigger": false,
      "taf_trigger": false,
      "metar": "METAR HESH 301500Z 06006KT CAVOK 30/12 Q1008 NOSIG",
      "taf": "TAF HESH 301100Z 3012/0118 03015KT CAVOK"
    },
    {
      "icao": "HESX",
      "alert": "OK",
      "vis_m": 9999,
      "fzfg": false,
      "metar_trigger": false,
      "taf_trigger": false,
      "metar": "METAR HESX 301500Z 01006KT CAVOK 27/06 Q1013 NOSIG",
      "taf": "TAF HESX 301100Z 3012/0118 34010KT CAVOK"
    },
    {
      "icao": "LATI",
      "alert": "OK",
      "vis_m": 9999,
      "fzfg": false,
      "metar_trigger": false,
      "taf_trigger": false,
      "metar": "METAR LATI 301550Z 36006KT 9999 FEW062 BKN094 14/09 Q1016 NOSIG",
      "taf": "TAF LATI 301100Z 3012/0112 32012KT 9999 RA BKN025 OVC080 TX22/0112Z TN04/0104Z"
    },
    {
      "icao": "LBPD",
      "alert": "OK",
      "vis_m": 9999,
      "fzfg": false,
      "metar_trigger": false,
      "taf_trigger": false,
      "metar": "METAR LBPD 301600Z AUTO 27015KT 9999 -RA BKN032/// OVC036/// 07/07 Q1021 NOSIG",
      "taf": "TAF LBPD 301100Z 3012/0112 09010KT 7000 RA SCT010 OVC025"
    },
    {
      "icao": "LBSF",
      "alert": "OK",
      "vis_m": 9999,
      "fzfg": false,
      "metar_trigger": false,
      "taf_trigger": false,
      "metar": "METAR LBSF 301600Z AUTO VRB02KT 9999 -RA FEW015/// OVC023/// 05/02 Q1022 NOSIG",
      "taf": "TAF LBSF 301100Z 3012/0112 35012KT 9999 RA SCT010 BKN020 OVC035"
    },
    {
      "icao": "LBWN",
      "alert": "OK",
      "vis_m": 9999,
      "fzfg": false,
      "metar_trigger": false,
      "taf_trigger": false,
      "metar": "METAR LBWN 301600Z AUTO 03009KT 350V060 9999 -RA FEW026/// BKN031/// OVC047/// 09/09 Q1020 NOSIG",
      "taf": "TAF LBWN 301100Z 3012/0112 05012KT 6000 -RA OVC030"
    },
    {
      "icao": "LCLK",
      "alert": "OK",
      "vis_m": 9999,
      "fzfg": false,
      "metar_trigger": false,
      "taf_trigger": false,
      "metar": "METAR LCLK 301600Z 22010KT 9999 FEW025 22/17 Q1012 NOSIG",
      "taf": "TAF LCLK 301130Z 3012/0112 20014KT 9999 FEW025"
    },
    {
      "icao": "LCPH",
      "alert": "OK",
      "vis_m": 9999,
      "fzfg": false,
      "metar_trigger": false,
      "taf_trigger": false,
      "metar": "METAR LCPH 301600Z 30007KT 250V320 9999 FEW025 20/15 Q1013 NOSIG",
      "taf": "TAF LCPH 301130Z 3012/0112 26012KT 9999 FEW020"
    },
    {
      "icao": "LEAL",
      "alert": "OK",
      "vis_m": 9999,
      "fzfg": false,
      "metar_trigger": false,
      "taf_trigger": false,
      "metar": "METAR LEAL 301600Z VRB05KT 9999 FEW022 23/15 Q1015 NOSIG",
      "taf": "TAF LEAL 301100Z 3012/0112 14010KT 9999 FEW020 TX24/3013Z TN16/0106Z"
    },
    {
      "icao": "LEBB",
      "alert": "OK",
      "vis_m": 9999,
      "fzfg": false,
      "metar_trigger": false,
      "taf_trigger": false,
      "metar": "METAR LEBB 301600Z VRB07KT 9999 FEW042 21/12 Q1017 NOSIG",
      "taf": "TAF LEBB 301100Z 3012/0112 30010KT 9999 FEW020 SCT040 TX26/0112Z TN12/0103Z"
    },
    {
      "icao": "LEBL",
      "alert": "OK",
      "vis_m": 9999,
      "fzfg": false,
      "metar_trigger": false,
      "taf_trigger": false,
      "metar": "METAR LEBL 301600Z 08012KT 9999 FEW014 21/17 Q1017 NOSIG",
      "taf": "TAF LEBL 301100Z 3012/0112 09010KT 9999 FEW015 TX22/3012Z TN17/0106Z"
    },
    {
      "icao": "LECH",
      "alert": "OK",
      "vis_m": 9999,
      "fzfg": false,
      "metar_trigger": false,
      "taf_trigger": false,
      "metar": "METAR LECH 301600Z AUTO 10010KT 070V130 CAVOK 19/14 Q1016",
      "taf": "TAF LECH 301100Z 3012/0112 09008KT 9999 FEW020 TX26/3012Z TN13/0106Z"
    },
    {
      "icao": "LEMD",
      "alert": "OK",
      "vis_m": 9999,
      "fzfg": false,
      "metar_trigger": false,
      "taf_trigger": false,
      "metar": "METAR LEMD 301600Z 13002KT 9999 SCT065 21/06 Q1016 NOSIG",
      "taf": "TAF LEMD 301100Z 3012/0118 VRB05KT 9999 FEW060 TX22/3016Z TN09/0105Z"
    },
    {
      "icao": "LEMG",
      "alert": "OK",
      "vis_m": 9999,
      "fzfg": false,
      "metar_trigger": false,
      "taf_trigger": false,
      "metar": "METAR LEMG 301600Z 16009KT 120V210 9999 FEW075 23/13 Q1014 NOSIG",
      "taf": "TAF LEMG 301100Z 3012/0112 17010KT 9999 FEW020 TX25/3014Z TN15/0106Z"
    },
    {
      "icao": "LEVC",
      "alert": "OK",
      "vis_m": 9999,
      "fzfg": false,
      "metar_trigger": false,
      "taf_trigger": false,
      "metar": "METAR LEVC 301600Z 08012KT 9999 FEW040 22/14 Q1015 NOSIG",
      "taf": "TAF LEVC 301100Z 3012/0112 09010KT 9999 FEW020 TX25/3013Z TN15/0106Z"
    },
    {
      "icao": "LEXJ",
      "alert": "OK",
      "vis_m": 9999,
      "fzfg": false,
      "metar_trigger": false,
      "taf_trigger": false,
      "metar": "METAR LEXJ 301600Z 05004KT 340V120 9999 FEW060 18/14 Q1018",
      "taf": "TAF LEXJ 301400Z 3015/0115 06008KT 9999 FEW020 SCT045 TX20/0113Z TN12/0105Z"
    },
    {
      "icao": "LEZG",
      "alert": "OK",
      "vis_m": 9999,
      "fzfg": false,
      "metar_trigger": false,
      "taf_trigger": false,
      "metar": "METAR LEZG 301600Z 08003KT 360V170 9999 SCT080 25/11 Q1014 NOSIG",
      "taf": "TAF LEZG 301100Z 3012/0112 12005KT 9999 FEW050 TX26/3014Z TN15/0106Z"
    },
    {
      "icao": "LEZL",
      "alert": "OK",
      "vis_m": 9999,
      "fzfg": false,
      "metar_trigger": false,
      "taf_trigger": false,
      "metar": "METAR LEZL 301600Z 25004KT CAVOK 25/09 Q1015 NOSIG",
      "taf": "TAF LEZL 301400Z 3015/0115 VRB03KT 9999 FEW045 TX25/3015Z TN12/0106Z"
    },
    {
      "icao": "LFBD",
      "alert": "OK",
      "vis_m": 9999,
      "fzfg": false,
      "metar_trigger": false,
      "taf_trigger": false,
      "metar": "METAR LFBD 301600Z AUTO 15011KT 9999 VCTS FEW027/// ///CB 21/14 Q1017 TEMPO 4000 -SHRA",
      "taf": ""
    },
    {
      "icao": "LFLL",
      "alert": "OK",
      "vis_m": 9999,
      "fzfg": false,
      "metar_trigger": false,
      "taf_trigger": false,
      "metar": "METAR LFLL 301600Z 17008KT CAVOK 23/09 Q1018 NOSIG",
      "taf": "TAF LFLL 301100Z 3012/0118 19007KT CAVOK"
    },
    {
      "icao": "LFLS",
      "alert": "OK",
      "vis_m": 9999,
      "fzfg": false,
      "metar_trigger": false,
      "taf_trigger": false,
      "metar": "METAR LFLS 301600Z AUTO 24010KT CAVOK 20/11 Q1019 TEMPO 3000 TSRA SCT050CB",
      "taf": "TAF LFLS 301400Z 3015/0115 22008KT CAVOK"
    },
    {
      "icao": "LFMN",
      "alert": "OK",
      "vis_m": 9999,
      "fzfg": false,
      "metar_trigger": false,
      "taf_trigger": false,
      "metar": "METAR LFMN 301600Z VRB03KT 9999 BKN100 20/11 Q1020 NOSIG",
      "taf": ""
    },
    {
      "icao": "LFOB",
      "alert": "OK",
      "vis_m": 9999,
      "fzfg": false,
      "metar_trigger": false,
      "taf_trigger": false,
      "metar": "METAR LFOB 301600Z AUTO 10014KT CAVOK 22/03 Q1019 NOSIG",
      "taf": "TAF LFOB 301100Z 3012/0112 11013KT CAVOK"
    },
    {
      "icao": "LFPO",
      "alert": "OK",
      "vis_m": 9999,
      "fzfg": false,
      "metar_trigger": false,
      "taf_trigger": false,
      "metar": "METAR LFPO 301600Z 11013KT CAVOK 23/04 Q1018 NOSIG",
      "taf": "TAF LFPO 301100Z 3012/0118 09012KT CAVOK"
    },
    {
      "icao": "LFSB",
      "alert": "OK",
      "vis_m": 9999,
      "fzfg": false,
      "metar_trigger": false,
      "taf_trigger": false,
      "metar": "METAR LFSB 301600Z AUTO 13013KT CAVOK 21/M01 Q1020 NOSIG",
      "taf": "TAF LFSB 301100Z 3012/0112 10012KT CAVOK"
    },
    {
      "icao": "LGAV",
      "alert": "OK",
      "vis_m": 9999,
      "fzfg": false,
      "metar_trigger": false,
      "taf_trigger": false,
      "metar": "METAR LGAV 301550Z VRB02KT 9999 FEW025 20/11 Q1013 NOSIG",
      "taf": "TAF LGAV 301100Z 3012/0112 08006KT 9999 FEW030"
    },
    {
      "icao": "LGTS",
      "alert": "OK",
      "vis_m": 7000,
      "fzfg": false,
      "metar_trigger": false,
      "taf_trigger": false,
      "metar": "METAR LGTS 301550Z 34015G25KT 7000 -RA FEW018TCU BKN035 11/09 Q1017 NOSIG",
      "taf": ""
    },
    {
      "icao": "LHBP",
      "alert": "OK",
      "vis_m": 9999,
      "fzfg": false,
      "metar_trigger": false,
      "taf_trigger": false,
      "metar": "METAR LHBP 301600Z 02008KT 350V070 CAVOK 15/M09 Q1025 NOSIG",
      "taf": "TAF LHBP 301115Z 3012/0112 03009KT CAVOK"
    },
    {
      "icao": "LHDC",
      "alert": "OK",
      "vis_m": 9999,
      "fzfg": false,
      "metar_trigger": false,
      "taf_trigger": false,
      "metar": "METAR LHDC 301545Z AUTO 01012KT CAVOK 14/M07 Q1024 NOSIG",
      "taf": "TAF LHDC 301415Z 3015/3024 02012KT CAVOK"
    },
    {
      "icao": "LIBD",
      "alert": "OK",
      "vis_m": 9999,
      "fzfg": false,
      "metar_trigger": false,
      "taf_trigger": false,
      "metar": "METAR LIBD 301550Z 06007KT 030V090 9999 FEW012 BKN040 15/13 Q1019",
      "taf": "TAF LIBD 301100Z 3012/0112 35012KT 9999 SCT020"
    },
    {
      "icao": "LIBG",
      "alert": "OK",
      "vis_m": 9999,
      "fzfg": false,
      "metar_trigger": false,
      "taf_trigger": false,
      "metar": "METAR LIBG 301450Z 34006KT 9999 FEW015 SCT035 17/12 Q1017",
      "taf": "TAF LIBG 301400Z 3015/3024 33010KT 9999 SCT040"
    },
    {
      "icao": "LIBP",
      "alert": "OK",
      "vis_m": 9999,
      "fzfg": false,
      "metar_trigger": false,
      "taf_trigger": false,
      "metar": "METAR LIBP 301550Z AUTO 03007KT 350V060 9999 NCD 16/07 Q1022",
      "taf": "TAF LIBP 301100Z 3012/0112 02012KT 9999 SCT020"
    },
    {
      "icao": "LIBR",
      "alert": "OK",
      "vis_m": 8000,
      "fzfg": false,
      "metar_trigger": false,
      "taf_trigger": false,
      "metar": "METAR LIBR 301550Z 05017KT 8000 DZ VCSH BKN020 15/11 Q1017",
      "taf": "TAF LIBR 301100Z 3012/0112 03015KT 9999 SCT020"
    },
    {
      "icao": "LICA",
      "alert": "OK",
      "vis_m": 9999,
      "fzfg": false,
      "metar_trigger": false,
      "taf_trigger": false,
      "metar": "METAR LICA 301550Z AUTO 07016KT 9999 BKN089/// 20/13 Q1015",
      "taf": "TAF LICA 301100Z 3012/0112 08011KT 9999 SCT045"
    },
    {
      "icao": "LICC",
      "alert": "OK",
      "vis_m": 9999,
      "fzfg": false,
      "metar_trigger": false,
      "taf_trigger": false,
      "metar": "METAR LICC 301550Z 06016KT 9999 FEW015 20/16 Q1015",
      "taf": "TAF LICC 301100Z 3012/0112 08012KT 9999 SCT015"
    },
    {
      "icao": "LICJ",
      "alert": "OK",
      "vis_m": 9999,
      "fzfg": false,
      "metar_trigger": false,
      "taf_trigger": false,
      "metar": "METAR LICJ 301550Z 06020KT CAVOK 21/15 Q1014",
      "taf": "TAF LICJ 301100Z 3012/0112 05012KT CAVOK"
    },
    {
      "icao": "LIMC",
      "alert": "OK",
      "vis_m": 9999,
      "fzfg": false,
      "metar_trigger": false,
      "taf_trigger": false,
      "metar": "METAR LIMC 301550Z VRB03KT CAVOK 19/03 Q1022 NOSIG",
      "taf": "TAF LIMC 301100Z 3012/0118 08010KT 9999 SCT030"
    },
    {
      "icao": "LIME",
      "alert": "OK",
      "vis_m": 9999,
      "fzfg": false,
      "metar_trigger": false,
      "taf_trigger": false,
      "metar": "METAR LIME 301550Z 10004KT 050V170 CAVOK 18/05 Q1023 NOSIG",
      "taf": "TAF LIME 301100Z 3012/0112 11010KT 9999 SCT040"
    },
    {
      "icao": "LIMF",
      "alert": "OK",
      "vis_m": 9999,
      "fzfg": false,
      "metar_trigger": false,
      "taf_trigger": false,
      "metar": "METAR LIMF 301550Z VRB02KT CAVOK 18/05 Q1023",
      "taf": "TAF LIMF 301100Z 3012/0112 03010KT 9999 SCT030"
    },
    {
      "icao": "LIMJ",
      "alert": "OK",
      "vis_m": 9999,
      "fzfg": false,
      "metar_trigger": false,
      "taf_trigger": false,
      "metar": "METAR LIMJ 301550Z 01011KT 320V040 9999 FEW035 22/07 Q1019",
      "taf": "TAF LIMJ 301100Z 3012/0112 02015KT 9999 SCT040"
    },
    {
      "icao": "LIPE",
      "alert": "OK",
      "vis_m": 9999,
      "fzfg": false,
      "metar_trigger": false,
      "taf_trigger": false,
      "metar": "METAR LIPE 301550Z 08010KT 050V120 CAVOK 18/M01 Q1023",
      "taf": "TAF LIPE 301100Z 3012/0112 09012KT 9999 FEW030"
    },
    {
      "icao": "LIPH",
      "alert": "OK",
      "vis_m": 9999,
      "fzfg": false,
      "metar_trigger": false,
      "taf_trigger": false,
      "metar": "METAR LIPH 301550Z 14009KT 110V170 CAVOK 18/M00 Q1023",
      "taf": "TAF LIPH 301100Z 3012/0112 09010KT 9999 SCT050"
    },
    {
      "icao": "LIPQ",
      "alert": "OK",
      "vis_m": 9999,
      "fzfg": false,
      "metar_trigger": false,
      "taf_trigger": false,
      "metar": "METAR LIPQ 301550Z AUTO 13014KT 9999 NCD 19/M03 Q1023",
      "taf": "TAF LIPQ 301100Z 3012/0112 07013KT 9999 FEW050"
    },
    {
      "icao": "LIPR",
      "alert": "OK",
      "vis_m": 9999,
      "fzfg": false,
      "metar_trigger": false,
      "taf_trigger": false,
      "metar": "METAR LIPR 301550Z 05007KT 020V090 CAVOK 15/02 Q1023",
      "taf": "TAF LIPR 301100Z 3012/0112 06015KT CAVOK"
    },
    {
      "icao": "LIPX",
      "alert": "OK",
      "vis_m": 9999,
      "fzfg": false,
      "metar_trigger": false,
      "taf_trigger": false,
      "metar": "METAR LIPX 301550Z 17004KT 090V220 CAVOK 19/05 Q1023",
      "taf": "TAF LIPX 301100Z 3012/0112 09013KT 9999 SCT040"
    },
    {
      "icao": "LIPY",
      "alert": "OK",
      "vis_m": 9999,
      "fzfg": false,
      "metar_trigger": false,
      "taf_trigger": false,
      "metar": "METAR LIPY 301550Z AUTO 04006KT 350V080 9999 NCD 16/06 Q1022",
      "taf": "TAF LIPY 301100Z 3012/0112 06015KT 9999 SCT050"
    },
    {
      "icao": "LIPZ",
      "alert": "OK",
      "vis_m": 9999,
      "fzfg": false,
      "metar_trigger": false,
      "taf_trigger": false,
      "metar": "METAR LIPZ 301550Z 11010KT CAVOK 17/M01 Q1023 NOSIG",
      "taf": "TAF LIPZ 301100Z 3012/0118 07015KT 9999 FEW030"
    },
    {
      "icao": "LIRF",
      "alert": "OK",
      "vis_m": 9999,
      "fzfg": false,
      "metar_trigger": false,
      "taf_trigger": false,
      "metar": "METAR LIRF 301550Z 18006KT 150V210 9999 FEW050 22/14 Q1016 NOSIG",
      "taf": "TAF LIRF 301100Z 3012/0118 VRB05KT 9999 FEW030"
    },
    {
      "icao": "LIRN",
      "alert": "OK",
      "vis_m": 9999,
      "fzfg": false,
      "metar_trigger": false,
      "taf_trigger": false,
      "metar": "METAR LIRN 301550Z 04014KT 9999 FEW080 19/04 Q1017 NOSIG",
      "taf": "TAF LIRN 301100Z 3012/0112 05014KT CAVOK"
    },
    {
      "icao": "LIRP",
      "alert": "OK",
      "vis_m": 9999,
      "fzfg": false,
      "metar_trigger": false,
      "taf_trigger": false,
      "metar": "METAR LIRP 301545Z 09013KT 9999 FU FEW020 BKN040 21/02 Q1019 NOSIG",
      "taf": "TAF LIRP 301100Z 3012/0112 09013KT CAVOK"
    },
    {
      "icao": "LIRZ",
      "alert": "OK",
      "vis_m": 9999,
      "fzfg": false,
      "metar_trigger": false,
      "taf_trigger": false,
      "metar": "METAR LIRZ 301550Z AUTO 03020KT 9999 NCD 16/02 Q1020",
      "taf": "TAF LIRZ 301100Z 3012/0112 04015KT CAVOK"
    },
    {
      "icao": "LJLJ",
      "alert": "OK",
      "vis_m": 9999,
      "fzfg": false,
      "metar_trigger": false,
      "taf_trigger": false,
      "metar": "METAR LJLJ 301600Z 12013KT CAVOK 14/M03 Q1024 NOSIG",
      "taf": "TAF LJLJ 301100Z 3012/0112 12012KT 9999 FEW060"
    },
    {
      "icao": "LKMT",
      "alert": "OK",
      "vis_m": 9999,
      "fzfg": false,
      "metar_trigger": false,
      "taf_trigger": false,
      "metar": "METAR LKMT 301600Z 01009KT 320V050 CAVOK 13/M04 Q1027 NOSIG",
      "taf": "TAF LKMT 301100Z 3012/0112 02010KT CAVOK"
    },
    {
      "icao": "LKPR",
      "alert": "OK",
      "vis_m": 9999,
      "fzfg": false,
      "metar_trigger": false,
      "taf_trigger": false,
      "metar": "METAR LKPR 301600Z 36010KT 330V040 CAVOK 14/M03 Q1028 NOSIG",
      "taf": "TAF LKPR 301400Z 3015/0121 06006KT CAVOK"
    },
    {
      "icao": "LLBG",
      "alert": "OK",
      "vis_m": 9999,
      "fzfg": false,
      "metar_trigger": false,
      "taf_trigger": false,
      "metar": "METAR LLBG 301550Z 33010KT 9999 FEW020 21/14 Q1013 NOSIG",
      "taf": "TAF LLBG 301102Z 3012/0112 31010KT CAVOK TX25/3012Z TN13/0103Z"
    },
    {
      "icao": "LMML",
      "alert": "OK",
      "vis_m": 9999,
      "fzfg": false,
      "metar_trigger": false,
      "taf_trigger": false,
      "metar": "METAR LMML 301545Z 07007KT 030V100 CAVOK 24/15 Q1013 NOSIG",
      "taf": "TAF LMML 301100Z 3012/0112 10010KT 9999 FEW025"
    },
    {
      "icao": "LOWW",
      "alert": "OK",
      "vis_m": 9999,
      "fzfg": false,
      "metar_trigger": false,
      "taf_trigger": false,
      "metar": "METAR LOWW 301550Z 36011KT 320V030 CAVOK 14/M05 Q1027 NOSIG",
      "taf": "TAF LOWW 301415Z 3015/0121 36012KT CAVOK TX19/0115Z TN02/0103Z"
    },
    {
      "icao": "LPFR",
      "alert": "OK",
      "vis_m": 9999,
      "fzfg": false,
      "metar_trigger": false,
      "taf_trigger": false,
      "metar": "METAR LPFR 301600Z 24011KT 9999 FEW030 20/11 Q1016",
      "taf": "TAF LPFR 301100Z 3012/0112 22012KT 9999 FEW020"
    },
    {
      "icao": "LPMA",
      "alert": "OK",
      "vis_m": 9999,
      "fzfg": false,
      "metar_trigger": false,
      "taf_trigger": false,
      "metar": "METAR LPMA 301600Z 20019KT 9999 SCT015 20/12 Q1016",
      "taf": "TAF LPMA 301100Z 3012/0112 21013KT 9999 SCT015"
    },
    {
      "icao": "LPPR",
      "alert": "OK",
      "vis_m": 9999,
      "fzfg": false,
      "metar_trigger": false,
      "taf_trigger": false,
      "metar": "METAR LPPR 301600Z 23007KT 200V270 9999 FEW017 19/13 Q1017",
      "taf": "TAF LPPR 301100Z 3012/0112 22010KT 9999 FEW018 BKN040"
    },
    {
      "icao": "LPPS",
      "alert": "OK",
      "vis_m": 9999,
      "fzfg": false,
      "metar_trigger": false,
      "taf_trigger": false,
      "metar": "METAR LPPS 301600Z 19015KT 9999 FEW015 20/13 Q1016",
      "taf": "TAF LPPS 301100Z 3012/0118 17010KT 9999 SCT015"
    },
    {
      "icao": "LPPT",
      "alert": "OK",
      "vis_m": 9999,
      "fzfg": false,
      "metar_trigger": false,
      "taf_trigger": false,
      "metar": "METAR LPPT 301600Z 31006KT 250V010 9999 FEW045 19/08 Q1017 WS R20",
      "taf": "TAF LPPT 301100Z 3012/0118 22010KT 9999 SCT020"
    },
    {
      "icao": "LQBK",
      "alert": "OK",
      "vis_m": 9999,
      "fzfg": false,
      "metar_trigger": false,
      "taf_trigger": false,
      "metar": "METAR LQBK 301600Z 03006KT 350V060 CAVOK 14/M02 Q1025 NOSIG",
      "taf": "TAF LQBK 301100Z 3012/0112 03005KT CAVOK TX16/0112Z TN02/0105Z"
    },
    {
      "icao": "LQSA",
      "alert": "OK",
      "vis_m": 9999,
      "fzfg": false,
      "metar_trigger": false,
      "taf_trigger": false,
      "metar": "METAR LQSA 301600Z 04006KT 350V100 9999 BKN060 10/M01 Q1024 NOSIG",
      "taf": ""
    },
    {
      "icao": "LQTZ",
      "alert": "OK",
      "vis_m": 9999,
      "fzfg": false,
      "metar_trigger": false,
      "taf_trigger": false,
      "metar": "METAR LQTZ 301600Z 04006KT 360V100 9999 SCT070 13/M05 Q1025",
      "taf": "TAF LQTZ 301100Z 3012/0112 30005KT 9999 FEW040 TX13/3013Z TNM02/0104Z"
    },
    {
      "icao": "LRBC",
      "alert": "OK",
      "vis_m": 9999,
      "fzfg": false,
      "metar_trigger": false,
      "taf_trigger": false,
      "metar": "METAR LRBC 301600Z 36008KT 340V040 CAVOK 11/M04 Q1024",
      "taf": "TAF LRBC 301400Z 3015/3024 35010KT CAVOK"
    },
    {
      "icao": "LRBS",
      "alert": "OK",
      "vis_m": 9999,
      "fzfg": false,
      "metar_trigger": false,
      "taf_trigger": false,
      "metar": "METAR LRBS 301600Z 03008KT 350V060 9999 -RA SCT013 BKN022 OVC036 05/04 Q1024 NOSIG",
      "taf": "TAF LRBS 301100Z 3012/0112 05014KT 9999 BKN010 OVC020"
    },
    {
      "icao": "LRBV",
      "alert": "OK",
      "vis_m": 9999,
      "fzfg": false,
      "metar_trigger": false,
      "taf_trigger": false,
      "metar": "METAR LRBV 301600Z 11010KT 080V140 9999 FEW037 SCT077 06/M02 Q1024",
      "taf": "TAF LRBV 301400Z 3015/3024 09012KT 9999 SCT045 BKN065"
    },
    {
      "icao": "LRCL",
      "alert": "OK",
      "vis_m": 9999,
      "fzfg": false,
      "metar_trigger": false,
      "taf_trigger": false,
      "metar": "METAR LRCL 301600Z 10003KT 040V150 CAVOK 11/M05 Q1023",
      "taf": "TAF LRCL 301400Z 3015/3024 06008KT 9999 BKN055"
    },
    {
      "icao": "LRCV",
      "alert": "OK",
      "vis_m": 9999,
      "fzfg": false,
      "metar_trigger": false,
      "taf_trigger": false,
      "metar": "METAR LRCV 301600Z 11009KT 9999 -RA SCT010 BKN015 BKN030 06/05 Q1025",
      "taf": "TAF LRCV 301400Z 3015/3024 10010KT 9999 BKN010 OVC025"
    },
    {
      "icao": "LRIA",
      "alert": "OK",
      "vis_m": 9999,
      "fzfg": false,
      "metar_trigger": false,
      "taf_trigger": false,
      "metar": "METAR LRIA 301600Z 34011KT CAVOK 11/M05 Q1024",
      "taf": "TAF LRIA 301400Z 3015/3024 35010KT CAVOK"
    },
    {
      "icao": "LROP",
      "alert": "OK",
      "vis_m": 9999,
      "fzfg": false,
      "metar_trigger": false,
      "taf_trigger": false,
      "metar": "METAR LROP 301600Z 04010KT 9999 -RA OVC013 06/05 Q1025 NOSIG",
      "taf": "TAF LROP 301100Z 3012/0112 05018KT 9999 BKN010 OVC020"
    },
    {
      "icao": "LRSB",
      "alert": "OK",
      "vis_m": 9999,
      "fzfg": false,
      "metar_trigger": false,
      "taf_trigger": false,
      "metar": "METAR LRSB 301600Z 11006KT 080V140 9999 FEW050CB 09/M00 Q1023",
      "taf": "TAF LRSB 301100Z 3012/0112 12007KT 9999 SCT020 BKN045"
    },
    {
      "icao": "LRSM",
      "alert": "OK",
      "vis_m": 9999,
      "fzfg": false,
      "metar_trigger": false,
      "taf_trigger": false,
      "metar": "METAR LRSM 301600Z 32009KT CAVOK 15/M08 Q1023",
      "taf": "TAF LRSM 301400Z 3015/3024 36007KT CAVOK"
    },
    {
      "icao": "LRSV",
      "alert": "OK",
      "vis_m": 9999,
      "fzfg": false,
      "metar_trigger": false,
      "taf_trigger": false,
      "metar": "METAR LRSV 301600Z 35010KT CAVOK 08/M06 Q1024",
      "taf": "TAF LRSV 301400Z 3015/3024 35008KT CAVOK"
    },
    {
      "icao": "LRTM",
      "alert": "OK",
      "vis_m": 9999,
      "fzfg": false,
      "metar_trigger": false,
      "taf_trigger": false,
      "metar": "METAR LRTM 301600Z 10007G19KT 350V160 9999 FEW038CB 11/M00 Q1023",
      "taf": "TAF LRTM 301400Z 3015/3024 24008KT 9999 SCT015 SCT035CB"
    },
    {
      "icao": "LRTR",
      "alert": "OK",
      "vis_m": 9999,
      "fzfg": false,
      "metar_trigger": false,
      "taf_trigger": false,
      "metar": "METAR LRTR 301600Z 35013KT 330V030 CAVOK 15/M04 Q1022",
      "taf": "TAF LRTR 301100Z 3012/0112 36012KT CAVOK"
    },
    {
      "icao": "LTAC",
      "alert": "OK",
      "vis_m": 9999,
      "fzfg": false,
      "metar_trigger": false,
      "taf_trigger": false,
      "metar": "METAR LTAC 301550Z 27006KT 9999 FEW040 SCT100 19/01 Q1013 NOSIG RMK RWY21C 25008KT RWY03L 26006KT RWY21R 25007KT RWY03R 25007KT RWY21L 26007KT",
      "taf": "TAF LTAC 301040Z 3012/0112 25012KT 9999 SCT040 BKN200"
    },
    {
      "icao": "LTFM",
      "alert": "OK",
      "vis_m": 9999,
      "fzfg": false,
      "metar_trigger": false,
      "taf_trigger": false,
      "metar": "METAR LTFM 301550Z 05016KT 9999 -SHRA SCT016 SCT032 BKN100 12/09 Q1016 NOSIG RMK RWY17L 05014KT RWY34L 03013KT RWY16R 05014KT RWY36 05016KT RWY18 06016KT",
      "taf": "TAF LTFM 301040Z 3012/0118 05018KT 9999 SCT035 BKN100"
    },
    {
      "icao": "LUKK",
      "alert": "OK",
      "vis_m": 9999,
      "fzfg": false,
      "metar_trigger": false,
      "taf_trigger": false,
      "metar": "METAR LUKK 301600Z 35005KT 320V020 CAVOK 11/M06 Q1023 NOSIG",
      "taf": "TAF LUKK 301101Z 3012/0112 01010KT CAVOK"
    },
    {
      "icao": "LWOH",
      "alert": "OK",
      "vis_m": 9999,
      "fzfg": false,
      "metar_trigger": false,
      "taf_trigger": false,
      "metar": "METAR LWOH 301550Z 33013KT 290V360 9999 -DZ FEW015 OVC035 06/04 Q1018",
      "taf": "TAF LWOH 301430Z 3015/0115 33012KT 9999 SCT030 BKN080"
    },
    {
      "icao": "LWSK",
      "alert": "OK",
      "vis_m": 9999,
      "fzfg": false,
      "metar_trigger": false,
      "taf_trigger": false,
      "metar": "METAR LWSK 301550Z 26005KT 190V310 9999 -DZ SCT035 BKN070 07/05 Q1023 NOSIG",
      "taf": "TAF LWSK 301430Z 3015/0115 VRB02KT 9999 SCT030 BKN060"
    },
    {
      "icao": "LYBE",
      "alert": "OK",
      "vis_m": 9999,
      "fzfg": false,
      "metar_trigger": false,
      "taf_trigger": false,
      "metar": "METAR LYBE 301600Z 33009KT 300V360 CAVOK 14/M04 Q1023 NOSIG",
      "taf": "TAF LYBE 301100Z 3012/0112 35010KT CAVOK TX17/0112Z TN03/0104Z"
    },
    {
      "icao": "LYNI",
      "alert": "OK",
      "vis_m": 9999,
      "fzfg": false,
      "metar_trigger": false,
      "taf_trigger": false,
      "metar": "METAR LYNI 301600Z 05010KT 020V080 9999 FEW030 SCT050 11/04 Q1022 NOSIG",
      "taf": "TAF LYNI 301100Z 3012/0112 34012KT 9999 SCT023 BKN040 TX13/0112Z TN03/0104Z"
    },
    {
      "icao": "LYPG",
      "alert": "OK",
      "vis_m": 9999,
      "fzfg": false,
      "metar_trigger": false,
      "taf_trigger": false,
      "metar": "METAR LYPG 301600Z 01014KT 340V040 9999 FEW080 16/M00 Q1019 TEMPO 02025KT",
      "taf": "TAF LYPG 301100Z 3012/0112 36018KT 9999 SCT050 SCT080 TX20/0112Z TN08/0104Z"
    },
    {
      "icao": "LZIB",
      "alert": "OK",
      "vis_m": 9999,
      "fzfg": false,
      "metar_trigger": false,
      "taf_trigger": false,
      "metar": "METAR LZIB 301600Z 35013KT CAVOK 15/M06 Q1026 NOSIG",
      "taf": "TAF LZIB 301115Z 3012/0112 01009KT CAVOK"
    },
    {
      "icao": "LZKZ",
      "alert": "OK",
      "vis_m": 9999,
      "fzfg": false,
      "metar_trigger": false,
      "taf_trigger": false,
      "metar": "METAR LZKZ 301600Z 01013KT CAVOK 12/M06 Q1025 NOSIG",
      "taf": "TAF LZKZ 301115Z 3012/0112 02016KT CAVOK"
    },
    {
      "icao": "LZTT",
      "alert": "OK",
      "vis_m": 9999,
      "fzfg": false,
      "metar_trigger": false,
      "taf_trigger": false,
      "metar": "METAR LZTT 301600Z 05014KT CAVOK 09/M08 Q1024 NOSIG",
      "taf": "TAF LZTT 301115Z 3012/0112 07018KT 9999 FEW045"
    },
    {
      "icao": "OEJN",
      "alert": "OK",
      "vis_m": 9999,
      "fzfg": false,
      "metar_trigger": false,
      "taf_trigger": false,
      "metar": "METAR OEJN 301600Z 33012KT CAVOK 31/10 Q1008 NOSIG",
      "taf": "TAF OEJN 301100Z 3012/0118 33014KT CAVOK"
    },
    {
      "icao": "OEMA",
      "alert": "OK",
      "vis_m": 9999,
      "fzfg": false,
      "metar_trigger": false,
      "taf_trigger": false,
      "metar": "METAR OEMA 301600Z 26004KT CAVOK 33/M09 Q1010 NOSIG",
      "taf": "TAF OEMA 301100Z 3012/0118 24012KT CAVOK"
    },
    {
      "icao": "OJAI",
      "alert": "OK",
      "vis_m": 5000,
      "fzfg": false,
      "metar_trigger": false,
      "taf_trigger": false,
      "metar": "METAR OJAI 301500Z 30010KT 5000 HZ NSC 26/05 Q1013 NOSIG",
      "taf": "TAF OJAI 301100Z 3012/0118 30008KT 5000 HZ NSC"
    },
    {
      "icao": "OMAA",
      "alert": "OK",
      "vis_m": 9999,
      "fzfg": false,
      "metar_trigger": false,
      "taf_trigger": false,
      "metar": "METAR OMAA 301600Z 30008KT CAVOK 30/20 Q1007 NOSIG",
      "taf": "TAF OMAA 301100Z 3012/0118 33011KT 8000 NSC"
    },
    {
      "icao": "OMDB",
      "alert": "OK",
      "vis_m": 9999,
      "fzfg": false,
      "metar_trigger": false,
      "taf_trigger": false,
      "metar": "METAR OMDB 301600Z 26007KT CAVOK 32/19 Q1006 NOSIG",
      "taf": "TAF OMDB 301100Z 3012/0118 30012KT CAVOK"
    },
    {
      "icao": "UAAA",
      "alert": "OK",
      "vis_m": 9999,
      "fzfg": false,
      "metar_trigger": false,
      "taf_trigger": false,
      "metar": "METAR UAAA 301530Z 21002MPS 9999 SCT100 BKN200 19/06 Q1011 NOSIG",
      "taf": "TAF UAAA 301102Z 3012/0112 19003MPS 9999 SCT050CB SCT100 TX23/0109Z TN11/0101Z"
    },
    {
      "icao": "UBBB",
      "alert": "OK",
      "vis_m": 9999,
      "fzfg": false,
      "metar_trigger": false,
      "taf_trigger": false,
      "metar": "METAR UBBB 301600Z 05004KT 9999 FEW017 FEW060CB 12/08 Q1019 NOSIG",
      "taf": "TAF UBBB 301057Z 3012/0112 32010KT 9999 SCT020 TX15/3012Z TN09/0101Z"
    },
    {
      "icao": "UDSG",
      "alert": "OK",
      "vis_m": 9999,
      "fzfg": false,
      "metar_trigger": false,
      "taf_trigger": false,
      "metar": "METAR UDSG 301530Z 11009KT 9999 FEW049CB 13/01 Q1018 NOSIG",
      "taf": "TAF UDSG 301100Z 3012/0112 24006KT 9999 FEW050"
    },
    {
      "icao": "UDYZ",
      "alert": "OK",
      "vis_m": 9999,
      "fzfg": false,
      "metar_trigger": false,
      "taf_trigger": false,
      "metar": "METAR UDYZ 301530Z 30006KT 9999 VCTS -SHRA BKN043CB 19/06 Q1014 TEMPO -TSRA",
      "taf": ""
    },
    {
      "icao": "UGKO",
      "alert": "OK",
      "vis_m": 9999,
      "fzfg": false,
      "metar_trigger": false,
      "taf_trigger": false,
      "metar": "METAR UGKO 301600Z 27006KT 240V310 CAVOK 14/06 Q1016 NOSIG",
      "taf": "TAF UGKO 301100Z 3012/0112 26007KT CAVOK TX24/0112Z TN08/0103Z"
    }
  ]
}