{
  "ts_utc": "2026-02-23T07:34:03Z",
  "threshold_m": 150,
  "source": "stations_override.txt (ICAO list) + aviationweather.gov (METAR/TAF raw)",
  "station_count": 159,
  "stations": [
    {
      "icao": "BIKF",
      "alert": "OK",
      "vis_m": 8000,
      "fzfg": false,
      "metar_trigger": false,
      "taf_trigger": false,
      "metar": "METAR BIKF 230700Z 13026KT 8000 -RA SCT015 BKN078 03/02 Q0992",
      "taf": "TAF BIKF 230452Z 2306/2406 14022G32KT 9999 -SHRA SCT015 BKN025 TX07/2314Z TN01/2406Z"
    },
    {
      "icao": "BKPR",
      "alert": "OK",
      "vis_m": 6000,
      "fzfg": false,
      "metar_trigger": false,
      "taf_trigger": false,
      "metar": "METAR BKPR 230730Z VRB01KT 6000 BKN070 00/M00 Q1021 NOSIG",
      "taf": "TAF BKPR 230530Z 2306/2406 19006KT 2500 BR FEW030"
    },
    {
      "icao": "EBCI",
      "alert": "OK",
      "vis_m": 9999,
      "fzfg": false,
      "metar_trigger": false,
      "taf_trigger": false,
      "metar": "METAR EBCI 230720Z 24015KT 9999 FEW016 BKN040 08/06 Q1018 NOSIG",
      "taf": "TAF EBCI 230510Z 2306/2412 24013KT 9999 FEW012 SCT025"
    },
    {
      "icao": "EDDB",
      "alert": "OK",
      "vis_m": 9999,
      "fzfg": false,
      "metar_trigger": false,
      "taf_trigger": false,
      "metar": "METAR EDDB 230720Z AUTO 26012KT 9999 BKN022 08/06 Q1010 NOSIG",
      "taf": "TAF EDDB 230500Z 2306/2406 26010KT 9999 SCT015 BKN030"
    },
    {
      "icao": "EDDH",
      "alert": "OK",
      "vis_m": 9999,
      "fzfg": false,
      "metar_trigger": false,
      "taf_trigger": false,
      "metar": "METAR EDDH 230720Z AUTO 25008KT 9999 4100 SHRA BR BKN012 BKN///TCU 08/07 Q1008 TEMPO 4500 BKN008",
      "taf": "TAF EDDH 230500Z 2306/2412 24010KT 9999 FEW010 BKN020"
    },
    {
      "icao": "EDDK",
      "alert": "OK",
      "vis_m": 9999,
      "fzfg": false,
      "metar_trigger": false,
      "taf_trigger": false,
      "metar": "METAR EDDK 230720Z AUTO 24010KT 9999 BKN020 OVC026 09/06 Q1016 NOSIG",
      "taf": "TAF EDDK 230500Z 2306/2412 25008KT 9999 BKN025"
    },
    {
      "icao": "EDDN",
      "alert": "OK",
      "vis_m": 9999,
      "fzfg": false,
      "metar_trigger": false,
      "taf_trigger": false,
      "metar": "METAR EDDN 230720Z AUTO 25003KT 220V300 9999 -SHRA BKN018 BKN027 FEW///CB 09/07 Q1017 NOSIG",
      "taf": "TAF EDDN 230500Z 2306/2406 25010KT 9999 BKN015"
    },
    {
      "icao": "EDDS",
      "alert": "OK",
      "vis_m": 9999,
      "fzfg": false,
      "metar_trigger": false,
      "taf_trigger": false,
      "metar": "METAR EDDS 230720Z AUTO 22006KT 160V260 9999 FEW014 SCT037 BKN045 09/07 Q1018 NOSIG",
      "taf": "TAF EDDS 230500Z 2306/2406 22007KT 9999 BKN030"
    },
    {
      "icao": "EDFH",
      "alert": "OK",
      "vis_m": 9999,
      "fzfg": false,
      "metar_trigger": false,
      "taf_trigger": false,
      "metar": "METAR EDFH 230720Z 27012KT 240V300 9999 SCT004 SCT035 07/06 Q1017",
      "taf": ""
    },
    {
      "icao": "EDJA",
      "alert": "OK",
      "vis_m": null,
      "fzfg": false,
      "metar_trigger": false,
      "taf_trigger": false,
      "metar": "",
      "taf": "TAF EDJA 230500Z 2306/2315 23020G35KT 9999 BKN012"
    },
    {
      "icao": "EDLW",
      "alert": "OK",
      "vis_m": 9999,
      "fzfg": false,
      "metar_trigger": false,
      "taf_trigger": false,
      "metar": "METAR EDLW 230720Z 23014KT 9999 FEW037 08/06 Q1014",
      "taf": "TAF EDLW 230500Z 2306/2406 24012KT 9999 BKN012"
    },
    {
      "icao": "EDNY",
      "alert": "OK",
      "vis_m": 9999,
      "fzfg": false,
      "metar_trigger": false,
      "taf_trigger": false,
      "metar": "METAR EDNY 230720Z VRB02KT 9999 FEW027 BKN052 07/07 Q1022",
      "taf": "TAF EDNY 230500Z 2306/2315 22006KT 9999 BKN025"
    },
    {
      "icao": "EDSB",
      "alert": "OK",
      "vis_m": 9000,
      "fzfg": false,
      "metar_trigger": false,
      "taf_trigger": false,
      "metar": "METAR EDSB 230720Z 20013KT 9000 -RA FEW007 OVC019 09/08 Q1021",
      "taf": "TAF EDSB 230500Z 2306/2406 21012KT 9999 BKN020"
    },
    {
      "icao": "EETN",
      "alert": "OK",
      "vis_m": 450,
      "fzfg": true,
      "metar_trigger": false,
      "taf_trigger": false,
      "metar": "METAR EETN 230720Z 10003KT 0450 R08/P2000N FZFG VV001 M08/M09 Q1008 TEMPO 2000 BR",
      "taf": ""
    },
    {
      "icao": "EFTU",
      "alert": "OK",
      "vis_m": 9999,
      "fzfg": false,
      "metar_trigger": false,
      "taf_trigger": false,
      "metar": "METAR EFTU 230720Z AUTO 09004KT 9999 -SHSN BKN006 M10/M11 Q1007",
      "taf": "TAF EFTU 230533Z 2306/2406 10004KT 9999 FZDZ BKN001"
    },
    {
      "icao": "EGBB",
      "alert": "OK",
      "vis_m": 9999,
      "fzfg": false,
      "metar_trigger": false,
      "taf_trigger": false,
      "metar": "METAR EGBB 230720Z 24007KT 190V280 CAVOK 09/04 Q1012",
      "taf": "TAF EGBB 230457Z 2306/2406 25010KT 9999 SCT030"
    },
    {
      "icao": "EGGP",
      "alert": "OK",
      "vis_m": 9999,
      "fzfg": false,
      "metar_trigger": false,
      "taf_trigger": false,
      "metar": "METAR EGGP 230720Z 25015KT 9999 FEW030 08/05 Q1010",
      "taf": "TAF EGGP 230459Z 2306/2406 26013KT 9999 FEW030"
    },
    {
      "icao": "EGGW",
      "alert": "OK",
      "vis_m": 9999,
      "fzfg": false,
      "metar_trigger": false,
      "taf_trigger": false,
      "metar": "METAR EGGW 230720Z AUTO 24015KT 210V270 9999 NCD 08/05 Q1013",
      "taf": "TAF EGGW 230457Z 2306/2406 23014KT 9999 SCT025"
    },
    {
      "icao": "EGKK",
      "alert": "OK",
      "vis_m": 9999,
      "fzfg": false,
      "metar_trigger": false,
      "taf_trigger": false,
      "metar": "METAR EGKK 230720Z 24009KT 9999 FEW015 09/07 Q1016",
      "taf": "TAF EGKK 230456Z 2306/2412 23010KT 9999 SCT025"
    },
    {
      "icao": "EGNM",
      "alert": "OK",
      "vis_m": 9999,
      "fzfg": false,
      "metar_trigger": false,
      "taf_trigger": false,
      "metar": "METAR EGNM 230720Z 25020G30KT 9999 FEW022 07/04 Q1007",
      "taf": "TAF EGNM 230459Z 2306/2406 26014KT 9999 FEW030"
    },
    {
      "icao": "EGPD",
      "alert": "OK",
      "vis_m": 9999,
      "fzfg": false,
      "metar_trigger": false,
      "taf_trigger": false,
      "metar": "METAR EGPD 230720Z COR AUTO 16003KT 130V230 9999 NCD 03/01 Q0998 NOSIG",
      "taf": "TAF EGPD 230453Z 2306/2406 21006KT 9999 FEW035"
    },
    {
      "icao": "EGPF",
      "alert": "OK",
      "vis_m": 9999,
      "fzfg": false,
      "metar_trigger": false,
      "taf_trigger": false,
      "metar": "METAR EGPF 230720Z AUTO 24013KT 9999 -RA SCT019/// BKN046/// //////TCU 07/05 Q1002",
      "taf": "TAF EGPF 230456Z 2306/2406 24009KT 9999 FEW020 SCT035"
    },
    {
      "icao": "EHBK",
      "alert": "OK",
      "vis_m": 9999,
      "fzfg": false,
      "metar_trigger": false,
      "taf_trigger": false,
      "metar": "METAR EHBK 230725Z AUTO 22016KT 9999 SCT017 SCT021 OVC042 09/06 Q1016 NOSIG",
      "taf": "TAF EHBK 230453Z 2306/2412 24011KT 9999 BKN018"
    },
    {
      "icao": "EHEH",
      "alert": "OK",
      "vis_m": 9999,
      "fzfg": false,
      "metar_trigger": false,
      "taf_trigger": false,
      "metar": "METAR EHEH 230725Z AUTO 23012KT 200V280 9999 FEW015 BKN023 OVC026 09/07 Q1015 WHT NOSIG RMK TREND REMOTE BY EHWX",
      "taf": "TAF EHEH 230553Z 2306/2412 24012G22KT 9999 SCT017 BKN020"
    },
    {
      "icao": "EKBI",
      "alert": "OK",
      "vis_m": 5000,
      "fzfg": false,
      "metar_trigger": false,
      "taf_trigger": false,
      "metar": "METAR EKBI 230720Z 24009KT 5000 BR BKN003 05/05 Q1003",
      "taf": "TAF EKBI 230528Z 2306/2406 24008KT 7000 SCT003 BKN030"
    },
    {
      "icao": "EKCH",
      "alert": "OK",
      "vis_m": 300,
      "fzfg": false,
      "metar_trigger": false,
      "taf_trigger": false,
      "metar": "METAR EKCH 230720Z 23008KT 0300 R22L/0600N R04L/0700N R12/0600N FG VV002 02/02 Q1004 BECMG 3000 SHRA SCT005 BKN020CB",
      "taf": "TAF EKCH 230527Z 2306/2406 25008KT 0300 FG VV001"
    },
    {
      "icao": "ENAL",
      "alert": "OK",
      "vis_m": 9999,
      "fzfg": false,
      "metar_trigger": false,
      "taf_trigger": false,
      "metar": "METAR ENAL 230720Z 12003KT 080V170 9999 -SHSNRA VV017 01/00 Q0994",
      "taf": ""
    },
    {
      "icao": "ENBR",
      "alert": "OK",
      "vis_m": 7000,
      "fzfg": false,
      "metar_trigger": false,
      "taf_trigger": false,
      "metar": "METAR ENBR 230720Z 17011KT 7000 -SHRA BKN003 04/04 Q0996 TEMPO 4000 SHRA BR RMK WIND 1200FT 22014KT",
      "taf": "TAF ENBR 230500Z 2306/2406 17009KT 9999 SCT008 BKN020"
    },
    {
      "icao": "ENGM",
      "alert": "OK",
      "vis_m": 6000,
      "fzfg": false,
      "metar_trigger": false,
      "taf_trigger": false,
      "metar": "METAR ENGM 230720Z 36002KT 6000 -SN FEW015 BKN033 M05/M06 Q0999 TEMPO 4000",
      "taf": "TAF ENGM 230500Z 2306/2406 02003KT 8000 -SN SCT015 BKN020"
    },
    {
      "icao": "ENHD",
      "alert": "OK",
      "vis_m": 6000,
      "fzfg": false,
      "metar_trigger": false,
      "taf_trigger": false,
      "metar": "METAR ENHD 230720Z COR 16010KT 6000 VV004 04/03 Q0997",
      "taf": "TAF ENHD 230500Z 2306/2315 17010KT 9999 -RADZ SCT005 BKN015"
    },
    {
      "icao": "ENTC",
      "alert": "OK",
      "vis_m": 9999,
      "fzfg": false,
      "metar_trigger": false,
      "taf_trigger": false,
      "metar": "METAR ENTC 230720Z 18007KT 9999 FEW014 M04/M07 Q1004 NOSIG RMK WIND 2600FT 17005KT",
      "taf": "TAF ENTC 230500Z 2306/2406 18008KT 9999 FEW015"
    },
    {
      "icao": "ENTO",
      "alert": "OK",
      "vis_m": 9000,
      "fzfg": true,
      "metar_trigger": false,
      "taf_trigger": false,
      "metar": "METAR ENTO 230720Z 00000KT 9000 -SHSN SCT003 OVC004 M03/M03 Q1000 TEMPO 0800 FZFG",
      "taf": "TAF ENTO 230500Z 2306/2406 03005KT 8000 -SN BKN012"
    },
    {
      "icao": "ENVA",
      "alert": "OK",
      "vis_m": 9999,
      "fzfg": false,
      "metar_trigger": false,
      "taf_trigger": false,
      "metar": "METAR ENVA 230720Z 11005KT CAVOK M05/M08 Q0997 NOSIG RMK WIND 670FT 12007KT",
      "taf": "TAF ENVA 230500Z 2306/2406 09008KT CAVOK"
    },
    {
      "icao": "ENZV",
      "alert": "OK",
      "vis_m": 9999,
      "fzfg": false,
      "metar_trigger": false,
      "taf_trigger": false,
      "metar": "METAR ENZV 230720Z 18009KT 9999 -DZRA FEW006 BKN010 04/03 Q0997 TEMPO 4000 SHRA BR BKN005",
      "taf": ""
    },
    {
      "icao": "EPGD",
      "alert": "OK",
      "vis_m": 9999,
      "fzfg": false,
      "metar_trigger": false,
      "taf_trigger": false,
      "metar": "METAR EPGD 230730Z 26012KT 9999 OVC003 02/02 Q1004",
      "taf": "TAF EPGD 230530Z 2306/2406 27012KT 8000 -DZ BKN003"
    },
    {
      "icao": "EPKK",
      "alert": "OK",
      "vis_m": 9999,
      "fzfg": false,
      "metar_trigger": false,
      "taf_trigger": false,
      "metar": "METAR EPKK 230730Z 23006KT 9999 BKN012 07/06 Q1011",
      "taf": "TAF EPKK 230530Z 2306/2406 23010KT 9999 BKN016"
    },
    {
      "icao": "EPKT",
      "alert": "OK",
      "vis_m": 9999,
      "fzfg": false,
      "metar_trigger": false,
      "taf_trigger": false,
      "metar": "METAR EPKT 230730Z 26009KT 9999 SCT006 OVC008 06/06 Q1011",
      "taf": "TAF EPKT 230530Z 2306/2406 25010KT 7000 BKN003"
    },
    {
      "icao": "EPLB",
      "alert": "OK",
      "vis_m": 9999,
      "fzfg": false,
      "metar_trigger": false,
      "taf_trigger": false,
      "metar": "METAR EPLB 230730Z 27014KT 9999 FEW007 SCT009 BKN013 06/06 Q1006",
      "taf": ""
    },
    {
      "icao": "EPMO",
      "alert": "OK",
      "vis_m": 9999,
      "fzfg": false,
      "metar_trigger": false,
      "taf_trigger": false,
      "metar": "METAR EPMO 230730Z 26012KT 9999 BKN007 05/05 Q1006",
      "taf": "TAF EPMO 230530Z 2306/2406 25012KT 2500 BR BKN004"
    },
    {
      "icao": "EPPO",
      "alert": "OK",
      "vis_m": 9999,
      "fzfg": false,
      "metar_trigger": false,
      "taf_trigger": false,
      "metar": "METAR EPPO 230730Z 26009KT 9999 BKN010 06/05 Q1009",
      "taf": "TAF EPPO 230530Z 2306/2406 27012KT 9999 BKN015"
    },
    {
      "icao": "EPRA",
      "alert": "OK",
      "vis_m": 9999,
      "fzfg": false,
      "metar_trigger": false,
      "taf_trigger": false,
      "metar": "METAR EPRA 230730Z 28013KT 9999 BKN008 07/05 Q1007",
      "taf": "TAF EPRA 230530Z 2306/2315 27012KT 9999 OVC010"
    },
    {
      "icao": "EPRZ",
      "alert": "OK",
      "vis_m": 9999,
      "fzfg": false,
      "metar_trigger": false,
      "taf_trigger": false,
      "metar": "METAR EPRZ 230730Z 23009KT 9999 OVC009 06/05 Q1010",
      "taf": "TAF EPRZ 230530Z 2306/2406 24008KT 9999 -RA OVC011"
    },
    {
      "icao": "EPSC",
      "alert": "OK",
      "vis_m": 9999,
      "fzfg": false,
      "metar_trigger": false,
      "taf_trigger": false,
      "metar": "METAR EPSC 230730Z VRB02KT 9999 BKN010 BKN041 05/05 Q1008",
      "taf": "TAF EPSC 230530Z 2306/2406 25010KT 9999 OVC007"
    },
    {
      "icao": "EPSY",
      "alert": "OK",
      "vis_m": 9999,
      "fzfg": false,
      "metar_trigger": false,
      "taf_trigger": false,
      "metar": "METAR EPSY 230730Z 28008KT 230V320 9999 OVC003 04/03 Q1004",
      "taf": "TAF EPSY 230530Z 2306/2315 20004KT 1500 BR BKN002 OVC004"
    },
    {
      "icao": "EPWA",
      "alert": "OK",
      "vis_m": 8000,
      "fzfg": false,
      "metar_trigger": false,
      "taf_trigger": false,
      "metar": "METAR EPWA 230730Z 27013KT 8000 -DZ OVC005 06/05 Q1006 NOSIG",
      "taf": "TAF EPWA 230530Z 2306/2406 27012KT 4500 BR BKN005"
    },
    {
      "icao": "EPWR",
      "alert": "OK",
      "vis_m": 9999,
      "fzfg": false,
      "metar_trigger": false,
      "taf_trigger": false,
      "metar": "METAR EPWR 230730Z 24005KT 9999 FEW020 07/06 Q1011",
      "taf": "TAF EPWR 230530Z 2306/2406 27012KT 9999 BKN025"
    },
    {
      "icao": "ESGG",
      "alert": "OK",
      "vis_m": 150,
      "fzfg": false,
      "metar_trigger": false,
      "taf_trigger": false,
      "metar": "METAR ESGG 230720Z 22004KT 0150 R03/0800D R21/0450N FG VV003 01/00 Q1000",
      "taf": "TAF ESGG 230530Z 2306/2406 18006KT 0150 FG VV002"
    },
    {
      "icao": "ESKN",
      "alert": "OK",
      "vis_m": 6000,
      "fzfg": false,
      "metar_trigger": false,
      "taf_trigger": false,
      "metar": "METAR ESKN 230720Z 13008KT 080V150 6000 OVC003 00/00 Q1002",
      "taf": ""
    },
    {
      "icao": "ESMS",
      "alert": "OK",
      "vis_m": 200,
      "fzfg": false,
      "metar_trigger": false,
      "taf_trigger": false,
      "metar": "METAR ESMS 230720Z 23005KT 0200 R17/0450N R35/0550N FG VV002 02/02 Q1003",
      "taf": "TAF ESMS 230527Z 2306/2406 26008KT 0200 FG BKN001"
    },
    {
      "icao": "ESSA",
      "alert": "OK",
      "vis_m": 9999,
      "fzfg": false,
      "metar_trigger": false,
      "taf_trigger": false,
      "metar": "METAR ESSA 230720Z 11005KT CAVOK M02/M02 Q1003 TEMPO BKN004",
      "taf": "TAF ESSA 230530Z 2306/2406 13007KT 9999 SCT006"
    },
    {
      "icao": "EYKA",
      "alert": "OK",
      "vis_m": 9999,
      "fzfg": false,
      "metar_trigger": false,
      "taf_trigger": false,
      "metar": "METAR EYKA 230720Z 11009KT 9999 OVC042 00/M03 Q1005",
      "taf": "TAF EYKA 230516Z 2306/2406 VRB05KT 9000 BKN040"
    },
    {
      "icao": "EYPA",
      "alert": "OK",
      "vis_m": 1100,
      "fzfg": false,
      "metar_trigger": false,
      "taf_trigger": false,
      "metar": "METAR EYPA 230720Z 14009KT 1100 R19/1400N +SNRA SCT004 BKN014 OVC023 00/M00 Q1002",
      "taf": "TAF EYPA 230517Z 2306/2406 VRB05KT 5000 SNRA SCT005 OVC010"
    },
    {
      "icao": "EYVI",
      "alert": "OK",
      "vis_m": 9999,
      "fzfg": false,
      "metar_trigger": false,
      "taf_trigger": false,
      "metar": "METAR EYVI 230720Z 13010KT CAVOK M00/M03 Q1005 NOSIG",
      "taf": "TAF EYVI 230523Z 2306/2406 13010KT 9000 OVC030"
    },
    {
      "icao": "GCFV",
      "alert": "OK",
      "vis_m": 9999,
      "fzfg": false,
      "metar_trigger": false,
      "taf_trigger": false,
      "metar": "METAR GCFV 230700Z 29006KT CAVOK 16/05 Q1022",
      "taf": ""
    },
    {
      "icao": "GCLP",
      "alert": "OK",
      "vis_m": 9999,
      "fzfg": false,
      "metar_trigger": false,
      "taf_trigger": false,
      "metar": "METAR GCLP 230700Z 30004KT CAVOK 21/00 Q1021 NOSIG",
      "taf": ""
    },
    {
      "icao": "GCTS",
      "alert": "OK",
      "vis_m": 9999,
      "fzfg": false,
      "metar_trigger": false,
      "taf_trigger": false,
      "metar": "METAR GCTS 230700Z 06011KT CAVOK 24/M05 Q1020 NOSIG",
      "taf": ""
    },
    {
      "icao": "GMAD",
      "alert": "OK",
      "vis_m": 9999,
      "fzfg": false,
      "metar_trigger": false,
      "taf_trigger": false,
      "metar": "METAR GMAD 230730Z 05005KT CAVOK 09/05 Q1022 NOSIG",
      "taf": "TAF GMAD 230500Z 2306/2412 06007KT CAVOK"
    },
    {
      "icao": "GMMN",
      "alert": "OK",
      "vis_m": 8000,
      "fzfg": false,
      "metar_trigger": false,
      "taf_trigger": false,
      "metar": "METAR GMMN 230700Z 15005KT 8000 NSC 07/05 Q1024 NOSIG",
      "taf": "TAF GMMN 230500Z 2306/2412 14006KT CAVOK"
    },
    {
      "icao": "GMMX",
      "alert": "OK",
      "vis_m": 9999,
      "fzfg": false,
      "metar_trigger": false,
      "taf_trigger": false,
      "metar": "METAR GMMX 230730Z 09004KT CAVOK 09/04 Q1024 NOSIG",
      "taf": "TAF GMMX 230500Z 2306/2412 06006KT 8000 NSC"
    },
    {
      "icao": "HEGN",
      "alert": "OK",
      "vis_m": 9999,
      "fzfg": false,
      "metar_trigger": false,
      "taf_trigger": false,
      "metar": "METAR HEGN 230700Z 34017KT CAVOK 20/03 Q1014 NOSIG",
      "taf": "TAF HEGN 230500Z 2306/2412 33012G22KT CAVOK"
    },
    {
      "icao": "HEMA",
      "alert": "OK",
      "vis_m": 9999,
      "fzfg": false,
      "metar_trigger": false,
      "taf_trigger": false,
      "metar": "METAR HEMA 230700Z 32012KT CAVOK 21/02 Q1014 NOSIG",
      "taf": "TAF HEMA 230500Z 2306/2412 35012G22KT CAVOK"
    },
    {
      "icao": "HESH",
      "alert": "OK",
      "vis_m": 9999,
      "fzfg": false,
      "metar_trigger": false,
      "taf_trigger": false,
      "metar": "METAR HESH 230700Z 36010KT CAVOK 21/06 Q1013 NOSIG",
      "taf": "TAF HESH 230500Z 2306/2412 01014KT CAVOK"
    },
    {
      "icao": "HESX",
      "alert": "OK",
      "vis_m": 9999,
      "fzfg": false,
      "metar_trigger": false,
      "taf_trigger": false,
      "metar": "METAR HESX 230700Z 29011KT CAVOK 14/10 Q1015 NOSIG",
      "taf": "TAF HESX 230500Z 2306/2412 22006KT CAVOK"
    },
    {
      "icao": "LATI",
      "alert": "OK",
      "vis_m": 9999,
      "fzfg": false,
      "metar_trigger": false,
      "taf_trigger": false,
      "metar": "METAR LATI 230720Z VRB02KT CAVOK 07/01 Q1022 NOSIG",
      "taf": "TAF LATI 230500Z 2306/2406 VRB05KT CAVOK TX18/2312Z TN03/2405Z"
    },
    {
      "icao": "LBPD",
      "alert": "OK",
      "vis_m": 9999,
      "fzfg": false,
      "metar_trigger": false,
      "taf_trigger": false,
      "metar": "METAR LBPD 230730Z AUTO VRB02KT 9999 NCD 06/01 Q1020 NOSIG",
      "taf": "TAF LBPD 230500Z 2306/2406 VRB03KT 9999 SCT060"
    },
    {
      "icao": "LBSF",
      "alert": "OK",
      "vis_m": 9999,
      "fzfg": false,
      "metar_trigger": false,
      "taf_trigger": false,
      "metar": "METAR LBSF 230730Z 29005KT 250V320 CAVOK 02/M01 Q1020 NOSIG",
      "taf": "TAF LBSF 230500Z 2306/2406 VRB03KT 9999 SCT050"
    },
    {
      "icao": "LBWN",
      "alert": "OK",
      "vis_m": 8000,
      "fzfg": false,
      "metar_trigger": false,
      "taf_trigger": false,
      "metar": "METAR LBWN 230730Z 25005KT 8000 NSC 05/02 Q1019 TEMPO 5000 BR",
      "taf": "TAF LBWN 230500Z 2306/2406 30006KT CAVOK"
    },
    {
      "icao": "LCLK",
      "alert": "OK",
      "vis_m": 9999,
      "fzfg": false,
      "metar_trigger": false,
      "taf_trigger": false,
      "metar": "METAR LCLK 230730Z 26005KT 230V290 9999 FEW025 FEW030TCU FEW040CB 19/10 Q1012 NOSIG RMK DISTANT CB TO N. S",
      "taf": "TAF LCLK 230530Z 2306/2406 33006KT 9999 FEW025"
    },
    {
      "icao": "LCPH",
      "alert": "OK",
      "vis_m": 9999,
      "fzfg": false,
      "metar_trigger": false,
      "taf_trigger": false,
      "metar": "METAR LCPH 230730Z VRB03KT 9999 FEW020 FEW025CB 17/10 Q1013 NOSIG RMK DISTANT CB TO N",
      "taf": "TAF LCPH 230530Z 2306/2406 05006KT 9999 FEW020"
    },
    {
      "icao": "LEAL",
      "alert": "OK",
      "vis_m": 9999,
      "fzfg": false,
      "metar_trigger": false,
      "taf_trigger": false,
      "metar": "METAR LEAL 230700Z VRB02KT CAVOK 07/04 Q1025 NOSIG",
      "taf": "TAF LEAL 230500Z 2306/2406 VRB04KT CAVOK TX20/2312Z TN07/2406Z"
    },
    {
      "icao": "LEBB",
      "alert": "OK",
      "vis_m": 2500,
      "fzfg": false,
      "metar_trigger": false,
      "taf_trigger": false,
      "metar": "SPECI LEBB 230710Z 10005KT 070V140 2500 BR BKN003 08/07 Q1027 TEMPO 0800 FG",
      "taf": "TAF LEBB 230500Z 2306/2406 10005KT CAVOK TX22/2314Z TN04/2307Z"
    },
    {
      "icao": "LEBL",
      "alert": "OK",
      "vis_m": 9999,
      "fzfg": false,
      "metar_trigger": false,
      "taf_trigger": false,
      "metar": "METAR LEBL 230700Z 33011KT 290V020 9999 FEW020 09/05 Q1025 NOSIG",
      "taf": "TAF LEBL 230500Z 2306/2406 33010KT CAVOK TX18/2312Z TN08/2306Z"
    },
    {
      "icao": "LECH",
      "alert": "OK",
      "vis_m": 9000,
      "fzfg": false,
      "metar_trigger": false,
      "taf_trigger": false,
      "metar": "METAR LECH 230700Z AUTO 00000KT 9000 NCD 06/02 Q1025",
      "taf": ""
    },
    {
      "icao": "LEMD",
      "alert": "OK",
      "vis_m": 9999,
      "fzfg": false,
      "metar_trigger": false,
      "taf_trigger": false,
      "metar": "METAR LEMD 230700Z 34002KT CAVOK 01/01 Q1027 NOSIG",
      "taf": "TAF LEMD 230500Z 2306/2412 VRB04KT CAVOK TX21/2315Z TN02/2307Z"
    },
    {
      "icao": "LEMG",
      "alert": "OK",
      "vis_m": 9999,
      "fzfg": false,
      "metar_trigger": false,
      "taf_trigger": false,
      "metar": "METAR LEMG 230700Z 28008KT CAVOK 04/02 Q1026 NOSIG",
      "taf": "TAF LEMG 230500Z 2306/2406 29008KT CAVOK TX19/2314Z TN04/2307Z"
    },
    {
      "icao": "LEVC",
      "alert": "OK",
      "vis_m": 9999,
      "fzfg": false,
      "metar_trigger": false,
      "taf_trigger": false,
      "metar": "METAR LEVC 230700Z 27004KT CAVOK 05/03 Q1025 NOSIG",
      "taf": "TAF LEVC 230500Z 2306/2406 VRB04KT CAVOK TX24/2312Z TN07/2406Z"
    },
    {
      "icao": "LEXJ",
      "alert": "OK",
      "vis_m": 600,
      "fzfg": false,
      "metar_trigger": false,
      "taf_trigger": false,
      "metar": "METAR LEXJ 230700Z 19002KT 0600 R29/1100U R11/0700D BCFG OVC005 04/04 Q1026",
      "taf": "TAF LEXJ 230200Z 2303/2403 VRB03KT 9999 SCT020 TX19/2314Z TN05/2306Z"
    },
    {
      "icao": "LEZG",
      "alert": "OK",
      "vis_m": 9999,
      "fzfg": false,
      "metar_trigger": false,
      "taf_trigger": false,
      "metar": "METAR LEZG 230700Z 29005KT CAVOK 04/03 Q1026 NOSIG",
      "taf": "TAF LEZG 230500Z 2306/2406 30009KT CAVOK TX20/2314Z TN06/2406Z"
    },
    {
      "icao": "LEZL",
      "alert": "OK",
      "vis_m": 9999,
      "fzfg": false,
      "metar_trigger": false,
      "taf_trigger": false,
      "metar": "METAR LEZL 230700Z 03007KT CAVOK 08/07 Q1025 NOSIG",
      "taf": "TAF LEZL 230200Z 2303/2403 03004KT CAVOK TX23/2315Z TN08/2307Z"
    },
    {
      "icao": "LFBD",
      "alert": "OK",
      "vis_m": 7000,
      "fzfg": false,
      "metar_trigger": false,
      "taf_trigger": false,
      "metar": "METAR LFBD 230730Z AUTO 17004KT 7000 NSC 07/07 Q1027 TEMPO 1500 BR VV///",
      "taf": "TAF LFBD 230500Z 2306/2412 20005KT 7000 SCT007 TX17/2315Z TN07/2406Z"
    },
    {
      "icao": "LFLL",
      "alert": "OK",
      "vis_m": 9999,
      "fzfg": false,
      "metar_trigger": false,
      "taf_trigger": false,
      "metar": "METAR LFLL 230730Z 22004KT 190V250 9999 BKN029 08/07 Q1026 NOSIG",
      "taf": "TAF LFLL 230500Z 2306/2412 VRB02KT 9999 BKN030"
    },
    {
      "icao": "LFLS",
      "alert": "OK",
      "vis_m": 9999,
      "fzfg": false,
      "metar_trigger": false,
      "taf_trigger": false,
      "metar": "METAR LFLS 230730Z AUTO 12003KT CAVOK 06/05 Q1025 NOSIG",
      "taf": "TAF LFLS 230200Z 2303/2403 09005KT 9999 FEW015 BKN080"
    },
    {
      "icao": "LFMN",
      "alert": "OK",
      "vis_m": 9999,
      "fzfg": false,
      "metar_trigger": false,
      "taf_trigger": false,
      "metar": "METAR LFMN 230730Z 33010KT 9999 FEW023 BKN250 10/06 Q1020 NOSIG",
      "taf": "TAF LFMN 230200Z 2303/2409 33010KT 9999 BKN025"
    },
    {
      "icao": "LFOB",
      "alert": "OK",
      "vis_m": 9999,
      "fzfg": false,
      "metar_trigger": false,
      "taf_trigger": false,
      "metar": "METAR LFOB 230730Z AUTO 24009KT CAVOK 09/07 Q1020 TEMPO BKN008 BKN012",
      "taf": "TAF LFOB 230500Z 2306/2406 23012KT 9999 BKN016 OVC025"
    },
    {
      "icao": "LFPO",
      "alert": "OK",
      "vis_m": 9999,
      "fzfg": false,
      "metar_trigger": false,
      "taf_trigger": false,
      "metar": "METAR LFPO 230730Z 22007KT 190V260 9999 FEW015 10/09 Q1021 TEMPO BKN011",
      "taf": "TAF LFPO 230500Z 2306/2412 24008KT 9999 FEW012 SCT030"
    },
    {
      "icao": "LFSB",
      "alert": "OK",
      "vis_m": 9999,
      "fzfg": false,
      "metar_trigger": false,
      "taf_trigger": false,
      "metar": "METAR LFSB 230730Z AUTO 21004KT 180V250 9999 FEW025 09/06 Q1023 NOSIG",
      "taf": "TAF LFSB 230500Z 2306/2406 25010KT 9999 BKN025"
    },
    {
      "icao": "LGAV",
      "alert": "OK",
      "vis_m": 9999,
      "fzfg": false,
      "metar_trigger": false,
      "taf_trigger": false,
      "metar": "METAR LGAV 230720Z 35003KT 9999 FEW025 SCT040 10/03 Q1021 NOSIG",
      "taf": "TAF LGAV 230500Z 2306/2406 32010KT 9999 FEW018 SCT025"
    },
    {
      "icao": "LGTS",
      "alert": "OK",
      "vis_m": 9999,
      "fzfg": false,
      "metar_trigger": false,
      "taf_trigger": false,
      "metar": "METAR LGTS 230720Z 21003KT 9999 FEW008 07/03 Q1023 NOSIG",
      "taf": "TAF LGTS 230500Z 2306/2406 VRB03KT 9999 FEW030"
    },
    {
      "icao": "LHBP",
      "alert": "OK",
      "vis_m": 9999,
      "fzfg": false,
      "metar_trigger": false,
      "taf_trigger": false,
      "metar": "METAR LHBP 230730Z 24009KT 9999 BKN025 OVC043 08/05 Q1015 NOSIG",
      "taf": "TAF LHBP 230515Z 2306/2406 20006KT 9999 SCT025 OVC035"
    },
    {
      "icao": "LHDC",
      "alert": "OK",
      "vis_m": 2100,
      "fzfg": false,
      "metar_trigger": false,
      "taf_trigger": false,
      "metar": "METAR LHDC 230715Z AUTO 20011KT 2100 RA BR BKN003 05/05 Q1014 NOSIG",
      "taf": ""
    },
    {
      "icao": "LIBD",
      "alert": "OK",
      "vis_m": 9999,
      "fzfg": false,
      "metar_trigger": false,
      "taf_trigger": false,
      "metar": "METAR LIBD 230720Z 23007KT CAVOK 12/05 Q1020",
      "taf": "TAF LIBD 230500Z 2306/2406 VRB06KT CAVOK"
    },
    {
      "icao": "LIBG",
      "alert": "OK",
      "vis_m": 9999,
      "fzfg": false,
      "metar_trigger": false,
      "taf_trigger": false,
      "metar": "SPECI LIBG 230656Z VRB01KT CAVOK 07/05 Q1022",
      "taf": "TAF LIBG 230704Z 2308/2315 24006KT CAVOK"
    },
    {
      "icao": "LIBP",
      "alert": "OK",
      "vis_m": 9999,
      "fzfg": false,
      "metar_trigger": false,
      "taf_trigger": false,
      "metar": "METAR LIBP 230720Z AUTO 20005KT 9999 NCD 06/04 Q1020",
      "taf": "TAF LIBP 230500Z 2306/2406 VRB04KT CAVOK"
    },
    {
      "icao": "LIBR",
      "alert": "OK",
      "vis_m": 9999,
      "fzfg": false,
      "metar_trigger": false,
      "taf_trigger": false,
      "metar": "METAR LIBR 230720Z 24006KT CAVOK 09/04 Q1021",
      "taf": "TAF LIBR 230500Z 2306/2406 VRB05KT CAVOK"
    },
    {
      "icao": "LICA",
      "alert": "OK",
      "vis_m": 9999,
      "fzfg": false,
      "metar_trigger": false,
      "taf_trigger": false,
      "metar": "METAR LICA 230720Z AUTO 25009KT 9999 FEW032/// 15/11 Q1024",
      "taf": "TAF LICA 230500Z 2306/2406 27012KT 9999 FEW020"
    },
    {
      "icao": "LICC",
      "alert": "OK",
      "vis_m": 9999,
      "fzfg": false,
      "metar_trigger": false,
      "taf_trigger": false,
      "metar": "METAR LICC 230720Z 24007KT CAVOK 09/06 Q1024",
      "taf": "TAF LICC 230500Z 2306/2406 25008KT CAVOK"
    },
    {
      "icao": "LICJ",
      "alert": "OK",
      "vis_m": 9999,
      "fzfg": false,
      "metar_trigger": false,
      "taf_trigger": false,
      "metar": "METAR LICJ 230720Z 21014KT CAVOK 12/06 Q1024",
      "taf": "TAF LICJ 230500Z 2306/2406 21014KT 9999 FEW030"
    },
    {
      "icao": "LIMC",
      "alert": "OK",
      "vis_m": 8000,
      "fzfg": false,
      "metar_trigger": false,
      "taf_trigger": false,
      "metar": "METAR LIMC 230720Z 02004KT 8000 3500SE R35R/0900U R17L/1200U R35L/1900U BCFG NSC 02/02 Q1020 NOSIG",
      "taf": "TAF LIMC 230500Z 2306/2412 VRB05KT 4000 BCFG NSC"
    },
    {
      "icao": "LIME",
      "alert": "OK",
      "vis_m": 7000,
      "fzfg": false,
      "metar_trigger": false,
      "taf_trigger": false,
      "metar": "METAR LIME 230720Z 02004KT 7000 NSC 05/04 Q1020 NOSIG",
      "taf": "TAF LIME 230500Z 2306/2406 VRB05KT CAVOK"
    },
    {
      "icao": "LIMF",
      "alert": "OK",
      "vis_m": 6000,
      "fzfg": false,
      "metar_trigger": false,
      "taf_trigger": false,
      "metar": "METAR LIMF 230720Z VRB02KT 6000 NSC 04/02 Q1020",
      "taf": "TAF LIMF 230500Z 2306/2406 VRB05KT 9999 FEW025"
    },
    {
      "icao": "LIMJ",
      "alert": "OK",
      "vis_m": 9999,
      "fzfg": false,
      "metar_trigger": false,
      "taf_trigger": false,
      "metar": "METAR LIMJ 230720Z VRB02KT 9999 FEW020 12/09 Q1020",
      "taf": "TAF LIMJ 230500Z 2306/2406 03005KT 8000 BKN015"
    },
    {
      "icao": "LIPE",
      "alert": "OK",
      "vis_m": 9999,
      "fzfg": false,
      "metar_trigger": false,
      "taf_trigger": false,
      "metar": "METAR LIPE 230720Z 20004KT CAVOK 07/05 Q1020",
      "taf": "TAF LIPE 230500Z 2306/2406 VRB04KT CAVOK"
    },
    {
      "icao": "LIPH",
      "alert": "OK",
      "vis_m": 50,
      "fzfg": false,
      "metar_trigger": false,
      "taf_trigger": false,
      "metar": "METAR LIPH 230720Z VRB01KT 0050 R07/0225N FG VV001 05/05 Q1021",
      "taf": ""
    },
    {
      "icao": "LIPQ",
      "alert": "OK",
      "vis_m": 9999,
      "fzfg": false,
      "metar_trigger": false,
      "taf_trigger": false,
      "metar": "METAR LIPQ 230720Z AUTO VRB02KT 9999 NCD 06/04 Q1021",
      "taf": "TAF LIPQ 230500Z 2306/2406 VRB03KT 8000 FEW035"
    },
    {
      "icao": "LIPR",
      "alert": "OK",
      "vis_m": 8000,
      "fzfg": false,
      "metar_trigger": false,
      "taf_trigger": false,
      "metar": "METAR LIPR 230720Z 19002KT 8000 FEW005 05/04 Q1021",
      "taf": "TAF LIPR 230500Z 2306/2406 VRB05KT 8000 NSC"
    },
    {
      "icao": "LIPX",
      "alert": "OK",
      "vis_m": 5000,
      "fzfg": false,
      "metar_trigger": false,
      "taf_trigger": false,
      "metar": "METAR LIPX 230720Z VRB02KT 5000 BR FEW030 04/04 Q1020",
      "taf": "TAF LIPX 230500Z 2306/2406 VRB05KT 7000 SCT030"
    },
    {
      "icao": "LIPY",
      "alert": "OK",
      "vis_m": 9999,
      "fzfg": false,
      "metar_trigger": false,
      "taf_trigger": false,
      "metar": "METAR LIPY 230720Z AUTO VRB01KT 9999 NCD 10/08 Q1020",
      "taf": "TAF LIPY 230500Z 2306/2406 VRB04KT 8000 NSC"
    },
    {
      "icao": "LIPZ",
      "alert": "OK",
      "vis_m": 200,
      "fzfg": false,
      "metar_trigger": false,
      "taf_trigger": false,
      "metar": "METAR LIPZ 230720Z 32002KT 0200 R04R/0225N FG VV001 05/05 Q1021 NOSIG",
      "taf": "TAF LIPZ 230500Z 2306/2412 VRB03KT 2000 BR NSC"
    },
    {
      "icao": "LIRF",
      "alert": "OK",
      "vis_m": 9999,
      "fzfg": false,
      "metar_trigger": false,
      "taf_trigger": false,
      "metar": "METAR LIRF 230720Z 08006KT 9999 FEW015 BKN030 09/07 Q1022 NOSIG",
      "taf": "TAF LIRF 230500Z 2306/2412 10008KT 9999 SCT020"
    },
    {
      "icao": "LIRN",
      "alert": "OK",
      "vis_m": 9999,
      "fzfg": false,
      "metar_trigger": false,
      "taf_trigger": false,
      "metar": "METAR LIRN 230720Z VRB01KT 9999 FEW020 10/08 Q1023 NOSIG",
      "taf": "TAF LIRN 230500Z 2306/2406 VRB05KT CAVOK"
    },
    {
      "icao": "LIRP",
      "alert": "OK",
      "vis_m": 8000,
      "fzfg": false,
      "metar_trigger": false,
      "taf_trigger": false,
      "metar": "METAR LIRP 230715Z 12003KT 8000 SCT030 BKN040 10/10 Q1021 NOSIG",
      "taf": "TAF LIRP 230500Z 2306/2406 12005KT 9999 SCT020 SCT040"
    },
    {
      "icao": "LIRZ",
      "alert": "OK",
      "vis_m": 9999,
      "fzfg": false,
      "metar_trigger": false,
      "taf_trigger": false,
      "metar": "METAR LIRZ 230720Z AUTO VRB02KT 9999 FEW035/// 07/05 Q1022",
      "taf": "TAF LIRZ 230500Z 2306/2406 VRB05KT 9999 BKN030"
    },
    {
      "icao": "LJLJ",
      "alert": "OK",
      "vis_m": 9999,
      "fzfg": false,
      "metar_trigger": false,
      "taf_trigger": false,
      "metar": "METAR LJLJ 230700Z VRB01KT 9999 MIFG NSC 01/00 Q1019 NOSIG",
      "taf": "TAF LJLJ 230500Z 2306/2406 VRB02KT 9999 FEW005"
    },
    {
      "icao": "LKMT",
      "alert": "OK",
      "vis_m": 8000,
      "fzfg": false,
      "metar_trigger": false,
      "taf_trigger": false,
      "metar": "METAR LKMT 230730Z 22009KT 8000 -RA BKN044 07/07 Q1013 NOSIG",
      "taf": "TAF LKMT 230500Z 2306/2406 22014KT 9999 SCT022 BKN040"
    },
    {
      "icao": "LKPR",
      "alert": "OK",
      "vis_m": 9999,
      "fzfg": false,
      "metar_trigger": false,
      "taf_trigger": false,
      "metar": "METAR LKPR 230730Z 22013KT 9999 FEW030 08/06 Q1014 NOSIG",
      "taf": "TAF LKPR 230500Z 2306/2412 23018KT 9999 SCT010 BKN025"
    },
    {
      "icao": "LLBG",
      "alert": "OK",
      "vis_m": 9999,
      "fzfg": false,
      "metar_trigger": false,
      "taf_trigger": false,
      "metar": "METAR LLBG 230720Z 21011KT 9999 FEW028 18/10 Q1014 NOSIG RMK SCT082",
      "taf": "TAF LLBG 230506Z 2306/2406 VRB04KT 9999 FEW030"
    },
    {
      "icao": "LMML",
      "alert": "OK",
      "vis_m": 9999,
      "fzfg": false,
      "metar_trigger": false,
      "taf_trigger": false,
      "metar": "METAR LMML 230715Z 26006KT 9999 FEW018 14/11 Q1025 NOSIG",
      "taf": "TAF LMML 230500Z 2306/2406 30010KT 9999 FEW020"
    },
    {
      "icao": "LOWW",
      "alert": "OK",
      "vis_m": 9999,
      "fzfg": false,
      "metar_trigger": false,
      "taf_trigger": false,
      "metar": "METAR LOWW 230720Z 28019KT 9999 FEW022 11/06 Q1016 NOSIG",
      "taf": "TAF LOWW 230515Z 2306/2412 28012KT 9999 FEW040 BKN050 TX13/2312Z TN08/2405Z"
    },
    {
      "icao": "LPFR",
      "alert": "OK",
      "vis_m": 9999,
      "fzfg": false,
      "metar_trigger": false,
      "taf_trigger": false,
      "metar": "METAR LPFR 230700Z 02007KT CAVOK 11/04 Q1024",
      "taf": "TAF LPFR 230500Z 2306/2406 03005KT CAVOK"
    },
    {
      "icao": "LPMA",
      "alert": "OK",
      "vis_m": 9999,
      "fzfg": false,
      "metar_trigger": false,
      "taf_trigger": false,
      "metar": "METAR LPMA 230700Z 34007KT 9999 FEW015 14/11 Q1022",
      "taf": "TAF LPMA 230500Z 2306/2406 01007KT 9999 FEW015"
    },
    {
      "icao": "LPPR",
      "alert": "OK",
      "vis_m": 9999,
      "fzfg": false,
      "metar_trigger": false,
      "taf_trigger": false,
      "metar": "METAR LPPR 230700Z 11007KT 080V140 CAVOK 10/05 Q1024",
      "taf": "TAF LPPR 230500Z 2306/2406 09005KT CAVOK"
    },
    {
      "icao": "LPPS",
      "alert": "OK",
      "vis_m": 9999,
      "fzfg": false,
      "metar_trigger": false,
      "taf_trigger": false,
      "metar": "METAR LPPS 230700Z 04004KT 020V080 9999 SCT013 SCT030 15/12 Q1023",
      "taf": "TAF LPPS 230500Z 2306/2412 VRB05KT 9999 FEW015"
    },
    {
      "icao": "LPPT",
      "alert": "OK",
      "vis_m": 9999,
      "fzfg": false,
      "metar_trigger": false,
      "taf_trigger": false,
      "metar": "METAR LPPT 230700Z 05005KT CAVOK 09/08 Q1024",
      "taf": "TAF LPPT 230500Z 2306/2412 04005KT 9999 FEW006"
    },
    {
      "icao": "LQBK",
      "alert": "OK",
      "vis_m": 9999,
      "fzfg": false,
      "metar_trigger": false,
      "taf_trigger": false,
      "metar": "METAR LQBK 230700Z 15002KT CAVOK 05/03 Q1018 NOSIG",
      "taf": "TAF LQBK 230500Z 2306/2406 32005KT CAVOK TX15/2313Z TN02/2306Z"
    },
    {
      "icao": "LQSA",
      "alert": "OK",
      "vis_m": 8000,
      "fzfg": false,
      "metar_trigger": false,
      "taf_trigger": false,
      "metar": "METAR LQSA 230700Z 00000KT 8000 NSC 01/01 Q1020 NOSIG",
      "taf": "TAF LQSA 230500Z 2306/2406 VRB02KT CAVOK TX16/2314Z TN00/2306Z"
    },
    {
      "icao": "LQTZ",
      "alert": "OK",
      "vis_m": 8000,
      "fzfg": false,
      "metar_trigger": false,
      "taf_trigger": false,
      "metar": "METAR LQTZ 230700Z 00000KT 8000 NSC 03/03 Q1019",
      "taf": "TAF LQTZ 230500Z 2306/2406 30005KT CAVOK TX15/2313Z TN01/2306Z"
    },
    {
      "icao": "LRBC",
      "alert": "OK",
      "vis_m": 9999,
      "fzfg": false,
      "metar_trigger": false,
      "taf_trigger": false,
      "metar": "METAR LRBC 230700Z 16007KT 9999 SCT060 02/M01 Q1014",
      "taf": "TAF LRBC 230500Z 2306/2315 17008KT CAVOK"
    },
    {
      "icao": "LRBS",
      "alert": "OK",
      "vis_m": 7000,
      "fzfg": false,
      "metar_trigger": false,
      "taf_trigger": false,
      "metar": "METAR LRBS 230700Z 26009KT 7000 FEW003 M04/M05 Q1019 NOSIG",
      "taf": "TAF LRBS 230500Z 2306/2406 26008KT 3000 BR BKN002"
    },
    {
      "icao": "LRBV",
      "alert": "OK",
      "vis_m": 8000,
      "fzfg": false,
      "metar_trigger": false,
      "taf_trigger": false,
      "metar": "METAR LRBV 230700Z VRB01KT 8000 FEW012 BKN019 M02/M03 Q1016",
      "taf": "TAF LRBV 230500Z 2306/2315 VRB04KT 9999 BKN020 BKN040"
    },
    {
      "icao": "LRCL",
      "alert": "OK",
      "vis_m": 8000,
      "fzfg": false,
      "metar_trigger": false,
      "taf_trigger": false,
      "metar": "METAR LRCL 230700Z 07006KT 8000 -DZRA OVC031 03/02 Q1015",
      "taf": "TAF LRCL 230500Z 2306/2315 VRB04KT 9999 BKN040"
    },
    {
      "icao": "LRCV",
      "alert": "OK",
      "vis_m": 200,
      "fzfg": true,
      "metar_trigger": false,
      "taf_trigger": false,
      "metar": "METAR LRCV 230700Z 29003KT 260V330 0200 R26/0250N FZFG VV002 M01/M01 Q1019",
      "taf": "TAF LRCV 230500Z 2306/2315 VRB04KT 0600 FZFG OVC002"
    },
    {
      "icao": "LRIA",
      "alert": "OK",
      "vis_m": 9999,
      "fzfg": false,
      "metar_trigger": false,
      "taf_trigger": false,
      "metar": "METAR LRIA 230700Z 09007KT CAVOK M00/M02 Q1013",
      "taf": "TAF LRIA 230500Z 2306/2315 09006KT CAVOK"
    },
    {
      "icao": "LROP",
      "alert": "OK",
      "vis_m": 6000,
      "fzfg": false,
      "metar_trigger": false,
      "taf_trigger": false,
      "metar": "METAR LROP 230700Z 23006KT 6000 NSC M04/M04 Q1018 NOSIG",
      "taf": "TAF LROP 230500Z 2306/2406 26008KT 1500 BR BKN002"
    },
    {
      "icao": "LRSB",
      "alert": "OK",
      "vis_m": 8000,
      "fzfg": false,
      "metar_trigger": false,
      "taf_trigger": false,
      "metar": "METAR LRSB 230700Z 08004KT 8000 -RA FEW030 BKN041 BKN050 02/02 Q1016",
      "taf": "TAF LRSB 230500Z 2306/2406 VRB03KT 9999 BKN045"
    },
    {
      "icao": "LRSM",
      "alert": "OK",
      "vis_m": 3000,
      "fzfg": false,
      "metar_trigger": false,
      "taf_trigger": false,
      "metar": "METAR LRSM 230700Z 09005KT 3000 RA BR FEW001 BKN003 OVC005 05/04 Q1015",
      "taf": "TAF LRSM 230500Z 2306/2315 23010KT 5000 -RA BR BKN010 BKN020"
    },
    {
      "icao": "LRSV",
      "alert": "OK",
      "vis_m": 9999,
      "fzfg": false,
      "metar_trigger": false,
      "taf_trigger": false,
      "metar": "METAR LRSV 230700Z COR 20007KT CAVOK 03/M00 Q1011",
      "taf": "TAF LRSV 230500Z 2306/2315 18006KT CAVOK"
    },
    {
      "icao": "LRTM",
      "alert": "OK",
      "vis_m": 9000,
      "fzfg": false,
      "metar_trigger": false,
      "taf_trigger": false,
      "metar": "METAR LRTM 230700Z 08004KT 040V120 9000 SCT030 BKN038 03/01 Q1016",
      "taf": "TAF LRTM 230500Z 2306/2315 VRB04KT 9999 BKN040"
    },
    {
      "icao": "LRTR",
      "alert": "OK",
      "vis_m": 9999,
      "fzfg": false,
      "metar_trigger": false,
      "taf_trigger": false,
      "metar": "METAR LRTR 230700Z 16006KT 9999 -RA FEW037 BKN043 06/05 Q1018",
      "taf": "TAF LRTR 230500Z 2306/2406 12006KT 9999 BKN040"
    },
    {
      "icao": "LTAC",
      "alert": "OK",
      "vis_m": 9999,
      "fzfg": false,
      "metar_trigger": false,
      "taf_trigger": false,
      "metar": "METAR LTAC 230720Z VRB02KT 9999 FEW040 03/M02 Q1016 NOSIG RMK RWY21C VRB02KT RWY03L VRB02KT RWY21R VRB01KT RWY03R VRB01KT RWY21L VRB01KT",
      "taf": "TAF LTAC 230440Z 2306/2406 VRB02KT 9999 SCT040"
    },
    {
      "icao": "LTFM",
      "alert": "OK",
      "vis_m": 9999,
      "fzfg": false,
      "metar_trigger": false,
      "taf_trigger": false,
      "metar": "METAR LTFM 230720Z 28005KT 200V340 9999 SCT025 06/01 Q1021 NOSIG RMK RWY17L 27005KT RWY34L 27004KT RWY16R 26004KT 230V290 RWY36 29005KT 250V310 RWY18 VRB05KT",
      "taf": "TAF LTFM 230440Z 2306/2412 27005KT 9999 SCT018 BKN028"
    },
    {
      "icao": "LUKK",
      "alert": "OK",
      "vis_m": 9999,
      "fzfg": false,
      "metar_trigger": false,
      "taf_trigger": false,
      "metar": "METAR LUKK 230700Z VRB02KT CAVOK 00/M01 Q1015 NOSIG",
      "taf": "TAF LUKK 230524Z 2306/2406 20009KT 9999 BKN040"
    },
    {
      "icao": "LWOH",
      "alert": "OK",
      "vis_m": 9999,
      "fzfg": false,
      "metar_trigger": false,
      "taf_trigger": false,
      "metar": "METAR LWOH 230720Z VRB02KT 9999 FEW040 03/00 Q1022",
      "taf": "TAF LWOH 230540Z 2306/2406 VRB02KT CAVOK"
    },
    {
      "icao": "LWSK",
      "alert": "OK",
      "vis_m": 9999,
      "fzfg": false,
      "metar_trigger": false,
      "taf_trigger": false,
      "metar": "METAR LWSK 230650Z VRB01KT CAVOK M00/M02 Q1023 NOSIG",
      "taf": ""
    },
    {
      "icao": "LYBE",
      "alert": "OK",
      "vis_m": 9999,
      "fzfg": false,
      "metar_trigger": false,
      "taf_trigger": false,
      "metar": "METAR LYBE 230700Z 14002KT CAVOK 06/02 Q1018 NOSIG",
      "taf": "TAF LYBE 230500Z 2306/2406 20005KT CAVOK TX14/2313Z TN03/2306Z"
    },
    {
      "icao": "LYNI",
      "alert": "OK",
      "vis_m": 8000,
      "fzfg": false,
      "metar_trigger": false,
      "taf_trigger": false,
      "metar": "METAR LYNI 230700Z VRB02KT 8000 BKN070 02/02 Q1021 NOSIG",
      "taf": "TAF LYNI 230500Z 2306/2406 19004KT 9999 BKN060 TX13/2313Z TNM00/2405Z"
    },
    {
      "icao": "LYPG",
      "alert": "OK",
      "vis_m": 9999,
      "fzfg": false,
      "metar_trigger": false,
      "taf_trigger": false,
      "metar": "METAR LYPG 230700Z 36003KT 330V030 CAVOK 06/01 Q1022 NOSIG",
      "taf": "TAF LYPG 230500Z 2306/2406 16005KT CAVOK TX16/2313Z TN03/2306Z"
    },
    {
      "icao": "LZIB",
      "alert": "OK",
      "vis_m": 9999,
      "fzfg": false,
      "metar_trigger": false,
      "taf_trigger": false,
      "metar": "METAR LZIB 230730Z 24007KT 210V270 9999 FEW015 SCT042 10/07 Q1015 NOSIG",
      "taf": "TAF LZIB 230515Z 2306/2406 25009KT 9999 SCT040"
    },
    {
      "icao": "LZKZ",
      "alert": "OK",
      "vis_m": 3200,
      "fzfg": false,
      "metar_trigger": false,
      "taf_trigger": false,
      "metar": "METAR LZKZ 230730Z 34002KT 3200 -RA BR OVC004 04/03 Q1013 NOSIG",
      "taf": "TAF LZKZ 230515Z 2306/2406 23009KT 6000 BKN018"
    },
    {
      "icao": "LZTT",
      "alert": "OK",
      "vis_m": 9999,
      "fzfg": false,
      "metar_trigger": false,
      "taf_trigger": false,
      "metar": "METAR LZTT 230730Z 08004KT 9999 -RA FEW004 BKN027 03/03 Q1011 NOSIG",
      "taf": "TAF LZTT 230515Z 2306/2406 27008KT 9999 BKN020"
    },
    {
      "icao": "OEJN",
      "alert": "OK",
      "vis_m": 9999,
      "fzfg": false,
      "metar_trigger": false,
      "taf_trigger": false,
      "metar": "METAR OEJN 230700Z 33006KT 9999 FEW030 27/18 Q1011 NOSIG",
      "taf": "TAF OEJN 230500Z 2306/2412 30012KT CAVOK"
    },
    {
      "icao": "OEMA",
      "alert": "OK",
      "vis_m": 9999,
      "fzfg": false,
      "metar_trigger": false,
      "taf_trigger": false,
      "metar": "METAR OEMA 230700Z VRB01KT CAVOK 25/10 Q1014 NOSIG",
      "taf": "TAF OEMA 230500Z 2306/2412 27010KT CAVOK"
    },
    {
      "icao": "OJAI",
      "alert": "OK",
      "vis_m": 5000,
      "fzfg": false,
      "metar_trigger": false,
      "taf_trigger": false,
      "metar": "METAR OJAI 230700Z 18005KT 5000 HZ NSC 10/04 Q1015 NOSIG",
      "taf": ""
    },
    {
      "icao": "OMAA",
      "alert": "OK",
      "vis_m": 8000,
      "fzfg": false,
      "metar_trigger": false,
      "taf_trigger": false,
      "metar": "METAR OMAA 230730Z 28004KT 190V340 8000 NSC 27/15 Q1011 NOSIG",
      "taf": "TAF OMAA 230500Z 2306/2412 19005KT 4000 HZ SCT008"
    },
    {
      "icao": "OMDB",
      "alert": "OK",
      "vis_m": 6000,
      "fzfg": false,
      "metar_trigger": false,
      "taf_trigger": false,
      "metar": "METAR OMDB 230730Z 25004KT 210V310 6000 NSC 26/16 Q1011 NOSIG",
      "taf": "TAF OMDB 230500Z 2306/2412 23005KT 1500 BR BKN003"
    },
    {
      "icao": "UAAA",
      "alert": "OK",
      "vis_m": 9999,
      "fzfg": false,
      "metar_trigger": false,
      "taf_trigger": false,
      "metar": "METAR UAAA 230700Z 32004MPS 290V350 9999 BKN029 OVC100 08/01 Q1017 NOSIG",
      "taf": "TAF UAAA 230503Z 2306/2406 25002G07MPS 9999 BKN030CB BKN100 TX09/2309Z TNM06/2401Z"
    },
    {
      "icao": "UBBB",
      "alert": "OK",
      "vis_m": 9999,
      "fzfg": false,
      "metar_trigger": false,
      "taf_trigger": false,
      "metar": "METAR UBBB 230730Z 31016KT 9999 SCT012 OVC039 07/04 Q1015 NOSIG",
      "taf": "TAF UBBB 230459Z 2306/2406 32016KT 9999 SCT015 BKN030 TX08/2310Z TN05/2401Z"
    },
    {
      "icao": "UDSG",
      "alert": "OK",
      "vis_m": 9999,
      "fzfg": false,
      "metar_trigger": false,
      "taf_trigger": false,
      "metar": "METAR UDSG 230700Z 33003KT 9999 FEW049 05/M03 Q1013 NOSIG",
      "taf": "TAF UDSG 230458Z 2306/2406 VRB06KT 9999 SCT030"
    },
    {
      "icao": "UDYZ",
      "alert": "OK",
      "vis_m": 9999,
      "fzfg": false,
      "metar_trigger": false,
      "taf_trigger": false,
      "metar": "METAR UDYZ 230700Z 00000KT 9999 SCT043 08/01 Q1012 NOSIG",
      "taf": "TAF UDYZ 230500Z 2306/2406 20006KT 6000 SCT040"
    },
    {
      "icao": "UGKO",
      "alert": "OK",
      "vis_m": 9999,
      "fzfg": false,
      "metar_trigger": false,
      "taf_trigger": false,
      "metar": "METAR UGKO 230700Z 26006KT 9999 -RA SCT017 BKN035 08/06 Q1018 NOSIG",
      "taf": "TAF UGKO 230500Z 2306/2406 26007KT 9999 BKN050 TX10/2311Z TN04/2403Z"
    }
  ]
}