{
  "ts_utc": "2026-06-19T14:28:52Z",
  "threshold_m": 150,
  "source": "stations_override.txt (ICAO list) + aviationweather.gov (METAR/TAF raw)",
  "station_count": 159,
  "stations": [
    {
      "icao": "BIKF",
      "alert": "OK",
      "vis_m": 9999,
      "fzfg": false,
      "metar_trigger": false,
      "taf_trigger": false,
      "metar": "METAR BIKF 191400Z 02015KT CAVOK 14/05 Q0999",
      "taf": "TAF BIKF 191333Z 1915/2015 03013KT 9999 SCT040 TX15/1916Z TN08/2003Z"
    },
    {
      "icao": "BKPR",
      "alert": "OK",
      "vis_m": null,
      "fzfg": false,
      "metar_trigger": false,
      "taf_trigger": false,
      "metar": "",
      "taf": "TAF BKPR 191130Z 1912/2012 02008KT 9999 FEW050"
    },
    {
      "icao": "EBCI",
      "alert": "OK",
      "vis_m": 9999,
      "fzfg": false,
      "metar_trigger": false,
      "taf_trigger": false,
      "metar": "METAR EBCI 191420Z 19009KT 160V220 9999 FEW050CB 33/19 Q1015 TEMPO VRB20G30KT 3000 TSRA",
      "taf": "TAF EBCI 191112Z 1912/2018 19005KT CAVOK"
    },
    {
      "icao": "EDDB",
      "alert": "OK",
      "vis_m": 9999,
      "fzfg": false,
      "metar_trigger": false,
      "taf_trigger": false,
      "metar": "METAR EDDB 191420Z AUTO 28014KT CAVOK 33/17 Q1016 NOSIG",
      "taf": "TAF EDDB 191100Z 1912/2012 20007KT CAVOK"
    },
    {
      "icao": "EDDH",
      "alert": "OK",
      "vis_m": 9999,
      "fzfg": false,
      "metar_trigger": false,
      "taf_trigger": false,
      "metar": "METAR EDDH 191420Z AUTO 27002KT CAVOK 30/18 Q1015 NOSIG",
      "taf": "TAF EDDH 191100Z 1912/2018 17006KT CAVOK"
    },
    {
      "icao": "EDDK",
      "alert": "OK",
      "vis_m": 9999,
      "fzfg": false,
      "metar_trigger": false,
      "taf_trigger": false,
      "metar": "METAR EDDK 191420Z AUTO 10006KT 050V140 CAVOK 35/18 Q1015 NOSIG",
      "taf": "TAF EDDK 191100Z 1912/2018 17007KT CAVOK"
    },
    {
      "icao": "EDDN",
      "alert": "OK",
      "vis_m": 9999,
      "fzfg": false,
      "metar_trigger": false,
      "taf_trigger": false,
      "metar": "METAR EDDN 191420Z AUTO VRB02KT CAVOK 35/13 Q1017 NOSIG",
      "taf": "TAF EDDN 191100Z 1912/2012 15006KT CAVOK"
    },
    {
      "icao": "EDDS",
      "alert": "OK",
      "vis_m": 9999,
      "fzfg": false,
      "metar_trigger": false,
      "taf_trigger": false,
      "metar": "METAR EDDS 191420Z AUTO 10004KT 070V140 CAVOK 35/13 Q1017 NOSIG",
      "taf": "TAF EDDS 191100Z 1912/2012 VRB03KT CAVOK"
    },
    {
      "icao": "EDFH",
      "alert": "OK",
      "vis_m": 9999,
      "fzfg": false,
      "metar_trigger": false,
      "taf_trigger": false,
      "metar": "METAR EDFH 191420Z 19010KT 140V230 CAVOK 33/14 Q1018",
      "taf": "TAF EDFH 191100Z 1912/2012 21008KT CAVOK"
    },
    {
      "icao": "EDJA",
      "alert": "OK",
      "vis_m": 9999,
      "fzfg": false,
      "metar_trigger": false,
      "taf_trigger": false,
      "metar": "METAR EDJA 191420Z VRB03KT CAVOK 32/12 Q1019",
      "taf": "TAF EDJA 191400Z 1915/1924 35004KT CAVOK"
    },
    {
      "icao": "EDLW",
      "alert": "OK",
      "vis_m": 9999,
      "fzfg": false,
      "metar_trigger": false,
      "taf_trigger": false,
      "metar": "METAR EDLW 191420Z 21006KT 160V260 CAVOK 33/17 Q1015",
      "taf": "TAF EDLW 191100Z 1912/2012 21005KT CAVOK"
    },
    {
      "icao": "EDNY",
      "alert": "OK",
      "vis_m": 9999,
      "fzfg": false,
      "metar_trigger": false,
      "taf_trigger": false,
      "metar": "METAR EDNY 191420Z 21005KT 190V250 CAVOK 32/17 Q1017",
      "taf": "TAF EDNY 191400Z 1915/1924 21005KT CAVOK"
    },
    {
      "icao": "EDSB",
      "alert": "OK",
      "vis_m": 9999,
      "fzfg": false,
      "metar_trigger": false,
      "taf_trigger": false,
      "metar": "METAR EDSB 191420Z 30004KT 230V350 CAVOK 36/13 Q1015",
      "taf": "TAF EDSB 191100Z 1912/2012 22005KT CAVOK"
    },
    {
      "icao": "EETN",
      "alert": "OK",
      "vis_m": 9999,
      "fzfg": false,
      "metar_trigger": false,
      "taf_trigger": false,
      "metar": "METAR EETN 191420Z 30008KT 240V330 CAVOK 21/11 Q1017 NOSIG",
      "taf": "TAF EETN 191130Z 1912/2012 32010KT CAVOK"
    },
    {
      "icao": "EFTU",
      "alert": "OK",
      "vis_m": 9999,
      "fzfg": false,
      "metar_trigger": false,
      "taf_trigger": false,
      "metar": "METAR EFTU 191420Z AUTO 29008KT 250V310 CAVOK 22/07 Q1016",
      "taf": "TAF EFTU 191123Z 1912/2012 28007KT 9999 FEW048"
    },
    {
      "icao": "EGBB",
      "alert": "OK",
      "vis_m": 9999,
      "fzfg": false,
      "metar_trigger": false,
      "taf_trigger": false,
      "metar": "METAR EGBB 191420Z 21010KT 160V250 9999 SCT035 24/16 Q1011",
      "taf": "TAF EGBB 191056Z 1912/2012 20010KT 9999 FEW025"
    },
    {
      "icao": "EGGP",
      "alert": "OK",
      "vis_m": 9999,
      "fzfg": false,
      "metar_trigger": false,
      "taf_trigger": false,
      "metar": "METAR EGGP 191420Z 21007KT 180V240 9999 VCSH FEW020 SCT035 BKN040 21/15 Q1010",
      "taf": ""
    },
    {
      "icao": "EGGW",
      "alert": "OK",
      "vis_m": 9999,
      "fzfg": false,
      "metar_trigger": false,
      "taf_trigger": false,
      "metar": "METAR EGGW 191420Z AUTO 23013KT 190V260 9999 NCD 28/15 Q1012",
      "taf": ""
    },
    {
      "icao": "EGKK",
      "alert": "OK",
      "vis_m": 9999,
      "fzfg": false,
      "metar_trigger": false,
      "taf_trigger": false,
      "metar": "METAR EGKK 191420Z 24010KT 200V260 CAVOK 26/18 Q1012",
      "taf": "TAF EGKK 191056Z 1912/2018 22009KT 9999 FEW045"
    },
    {
      "icao": "EGNM",
      "alert": "OK",
      "vis_m": 9999,
      "fzfg": false,
      "metar_trigger": false,
      "taf_trigger": false,
      "metar": "METAR EGNM 191420Z 22013KT 9999 SCT032 22/16 Q1009",
      "taf": "TAF EGNM 191055Z 1912/2012 20012KT 9999 SCT025"
    },
    {
      "icao": "EGPD",
      "alert": "OK",
      "vis_m": 9999,
      "fzfg": false,
      "metar_trigger": false,
      "taf_trigger": false,
      "metar": "METAR EGPD 191420Z AUTO 19012KT 9999 NCD 19/15 Q1004",
      "taf": "TAF EGPD 191056Z 1912/2012 19010KT 9999 BKN020"
    },
    {
      "icao": "EGPF",
      "alert": "OK",
      "vis_m": 7000,
      "fzfg": false,
      "metar_trigger": false,
      "taf_trigger": false,
      "metar": "METAR EGPF 191420Z AUTO 25006KT 7000 -RA BKN005/// BKN011/// OVC035/// //////CB 16/15 Q1005 RERA",
      "taf": "TAF EGPF 191059Z 1912/2012 22009KT 9999 SCT010 BKN025"
    },
    {
      "icao": "EHBK",
      "alert": "OK",
      "vis_m": 9999,
      "fzfg": false,
      "metar_trigger": false,
      "taf_trigger": false,
      "metar": "METAR EHBK 191425Z AUTO 19006KT 9999 NCD 33/20 Q1014 NOSIG",
      "taf": "TAF EHBK 191108Z 1912/2018 22006KT 9999 FEW045"
    },
    {
      "icao": "EHEH",
      "alert": "OK",
      "vis_m": 9999,
      "fzfg": false,
      "metar_trigger": false,
      "taf_trigger": false,
      "metar": "METAR EHEH 191355Z AUTO 18007KT 140V260 9999 NCD 33/19 Q1013 BLU NOSIG RMK TREND REMOTE BY EHWX",
      "taf": "TAF EHEH 191130Z 1912/2018 18005KT CAVOK"
    },
    {
      "icao": "EKBI",
      "alert": "OK",
      "vis_m": 9999,
      "fzfg": false,
      "metar_trigger": false,
      "taf_trigger": false,
      "metar": "METAR EKBI 191420Z AUTO 18008KT 120V230 9999 SCT038/// BKN049/// 27/19 Q1015",
      "taf": "TAF EKBI 191127Z 1912/2012 19008KT 9999 FEW020"
    },
    {
      "icao": "EKCH",
      "alert": "OK",
      "vis_m": 9999,
      "fzfg": false,
      "metar_trigger": false,
      "taf_trigger": false,
      "metar": "METAR EKCH 191420Z AUTO 15009KT 9999 NCD 23/17 Q1017 NOSIG",
      "taf": "TAF EKCH 191127Z 1912/2012 15006KT 9999 FEW040"
    },
    {
      "icao": "ENAL",
      "alert": "OK",
      "vis_m": 9999,
      "fzfg": false,
      "metar_trigger": false,
      "taf_trigger": false,
      "metar": "METAR ENAL 191420Z 06007KT 9999 -RA FEW004 BKN046 14/13 Q1007",
      "taf": "TAF ENAL 191100Z 1912/1921 04008KT 9999 FEW020 BKN045"
    },
    {
      "icao": "ENBR",
      "alert": "OK",
      "vis_m": 9999,
      "fzfg": false,
      "metar_trigger": false,
      "taf_trigger": false,
      "metar": "METAR ENBR 191420Z 16016KT 9999 FEW008 SCT015 BKN025 18/16 Q1009 NOSIG RMK WIND 1200FT 17025G36KT",
      "taf": ""
    },
    {
      "icao": "ENGM",
      "alert": "OK",
      "vis_m": 9999,
      "fzfg": false,
      "metar_trigger": false,
      "taf_trigger": false,
      "metar": "METAR ENGM 191420Z 19013KT CAVOK 22/14 Q1013 NOSIG",
      "taf": "TAF ENGM 191100Z 1912/2012 20008KT 9999 SCT040"
    },
    {
      "icao": "ENHD",
      "alert": "OK",
      "vis_m": 9999,
      "fzfg": false,
      "metar_trigger": false,
      "taf_trigger": false,
      "metar": "METAR ENHD 191420Z 17019G29KT 9999 SCT029 BKN037 21/16 Q1010",
      "taf": "TAF ENHD 191100Z 1912/1921 14015KT 9999 FEW010 BKN025"
    },
    {
      "icao": "ENTC",
      "alert": "OK",
      "vis_m": 9999,
      "fzfg": false,
      "metar_trigger": false,
      "taf_trigger": false,
      "metar": "METAR ENTC 191420Z VRB03KT 9999 BKN037 10/07 Q1011 NOSIG RMK WIND 2600FT 23011KT",
      "taf": "TAF ENTC 191100Z 1912/2012 28005KT 9999 -RA BKN040"
    },
    {
      "icao": "ENTO",
      "alert": "OK",
      "vis_m": 9999,
      "fzfg": false,
      "metar_trigger": false,
      "taf_trigger": false,
      "metar": "METAR ENTO 191420Z 18013KT 9999 NSC 19/15 Q1015 NOSIG",
      "taf": "TAF ENTO 191100Z 1912/2012 19009KT 9999 BKN009"
    },
    {
      "icao": "ENVA",
      "alert": "OK",
      "vis_m": 9999,
      "fzfg": false,
      "metar_trigger": false,
      "taf_trigger": false,
      "metar": "METAR ENVA 191420Z 24008KT CAVOK 21/12 Q1008 NOSIG RMK WIND 670FT 30003KT",
      "taf": "TAF ENVA 191100Z 1912/2012 25008KT 9999 FEW010 BKN050"
    },
    {
      "icao": "ENZV",
      "alert": "OK",
      "vis_m": 9999,
      "fzfg": false,
      "metar_trigger": false,
      "taf_trigger": false,
      "metar": "METAR ENZV 191420Z 17017KT 9999 SCT021 BKN036 22/16 Q1011 TEMPO 17018G28KT",
      "taf": "TAF ENZV 191100Z 1912/2012 17015KT 9999 FEW018 SCT040"
    },
    {
      "icao": "EPGD",
      "alert": "OK",
      "vis_m": 9999,
      "fzfg": false,
      "metar_trigger": false,
      "taf_trigger": false,
      "metar": "METAR EPGD 191400Z 06009KT 030V090 CAVOK 22/15 Q1021",
      "taf": "TAF EPGD 191130Z 1912/2012 29006KT 9999 SCT040"
    },
    {
      "icao": "EPKK",
      "alert": "OK",
      "vis_m": 9999,
      "fzfg": false,
      "metar_trigger": false,
      "taf_trigger": false,
      "metar": "METAR EPKK 191400Z 24003KT 180V350 9999 SCT054 29/16 Q1020",
      "taf": "TAF EPKK 191130Z 1912/2012 22010KT 9999 SCT050"
    },
    {
      "icao": "EPKT",
      "alert": "OK",
      "vis_m": 9999,
      "fzfg": false,
      "metar_trigger": false,
      "taf_trigger": false,
      "metar": "METAR EPKT 191400Z 25004KT CAVOK 28/16 Q1020",
      "taf": "TAF EPKT 191130Z 1912/2012 VRB02KT 9999 SCT045"
    },
    {
      "icao": "EPLB",
      "alert": "OK",
      "vis_m": 9999,
      "fzfg": false,
      "metar_trigger": false,
      "taf_trigger": false,
      "metar": "METAR EPLB 191400Z 32009KT 300V360 CAVOK 27/12 Q1020",
      "taf": "TAF EPLB 191130Z 1912/2012 33007KT 9999 SCT040"
    },
    {
      "icao": "EPMO",
      "alert": "OK",
      "vis_m": 9999,
      "fzfg": false,
      "metar_trigger": false,
      "taf_trigger": false,
      "metar": "METAR EPMO 191400Z 03004KT 310V100 CAVOK 26/15 Q1020",
      "taf": "TAF EPMO 191130Z 1912/2012 33007KT CAVOK"
    },
    {
      "icao": "EPPO",
      "alert": "OK",
      "vis_m": 9999,
      "fzfg": false,
      "metar_trigger": false,
      "taf_trigger": false,
      "metar": "METAR EPPO 191400Z 14003KT 080V250 CAVOK 31/17 Q1019",
      "taf": "TAF EPPO 191130Z 1912/2012 12005KT CAVOK"
    },
    {
      "icao": "EPRA",
      "alert": "OK",
      "vis_m": 9999,
      "fzfg": false,
      "metar_trigger": false,
      "taf_trigger": false,
      "metar": "METAR EPRA 191400Z 36006KT 310V030 CAVOK 27/12 Q1020",
      "taf": "TAF EPRA 191130Z 1912/1921 33010KT CAVOK"
    },
    {
      "icao": "EPRZ",
      "alert": "OK",
      "vis_m": 9999,
      "fzfg": false,
      "metar_trigger": false,
      "taf_trigger": false,
      "metar": "METAR EPRZ 191400Z 29006KT 250V320 CAVOK 28/15 Q1020",
      "taf": "TAF EPRZ 191130Z 1912/2012 30010KT CAVOK"
    },
    {
      "icao": "EPSC",
      "alert": "OK",
      "vis_m": 9999,
      "fzfg": false,
      "metar_trigger": false,
      "taf_trigger": false,
      "metar": "METAR EPSC 191400Z 08006KT 9999 FEW012 23/21 Q1018 RETS",
      "taf": "TAF EPSC 191130Z 1912/2012 13008KT CAVOK"
    },
    {
      "icao": "EPSY",
      "alert": "OK",
      "vis_m": 9999,
      "fzfg": false,
      "metar_trigger": false,
      "taf_trigger": false,
      "metar": "METAR EPSY 191400Z 34008KT 300V030 CAVOK 24/13 Q1021",
      "taf": "TAF EPSY 191130Z 1912/1921 33008KT CAVOK"
    },
    {
      "icao": "EPWA",
      "alert": "OK",
      "vis_m": 9999,
      "fzfg": false,
      "metar_trigger": false,
      "taf_trigger": false,
      "metar": "METAR EPWA 191400Z 29007KT 250V340 CAVOK 27/14 Q1020 NOSIG",
      "taf": "TAF EPWA 191130Z 1912/2012 36007KT CAVOK"
    },
    {
      "icao": "EPWR",
      "alert": "OK",
      "vis_m": 9999,
      "fzfg": false,
      "metar_trigger": false,
      "taf_trigger": false,
      "metar": "METAR EPWR 191400Z 17005KT 100V230 9999 FEW060TCU 31/17 Q1018",
      "taf": "TAF EPWR 191130Z 1912/2012 21006KT CAVOK"
    },
    {
      "icao": "ESGG",
      "alert": "OK",
      "vis_m": 9999,
      "fzfg": false,
      "metar_trigger": false,
      "taf_trigger": false,
      "metar": "METAR ESGG 191420Z 22011KT 9999 SCT029 24/17 Q1016",
      "taf": "TAF ESGG 191130Z 1912/2012 20010KT 9999 SCT030"
    },
    {
      "icao": "ESKN",
      "alert": "OK",
      "vis_m": 9999,
      "fzfg": false,
      "metar_trigger": false,
      "taf_trigger": false,
      "metar": "METAR ESKN 191420Z 22008KT 190V260 CAVOK 24/12 Q1016",
      "taf": "TAF ESKN 191130Z 1912/2012 23012KT CAVOK"
    },
    {
      "icao": "ESMS",
      "alert": "OK",
      "vis_m": 9999,
      "fzfg": false,
      "metar_trigger": false,
      "taf_trigger": false,
      "metar": "METAR ESMS 191420Z 13009KT CAVOK 25/18 Q1017",
      "taf": "TAF ESMS 191127Z 1912/2012 16004KT 9999 FEW035"
    },
    {
      "icao": "ESSA",
      "alert": "OK",
      "vis_m": 9999,
      "fzfg": false,
      "metar_trigger": false,
      "taf_trigger": false,
      "metar": "METAR ESSA 191420Z 22011KT 9999 FEW042 22/11 Q1015 NOSIG",
      "taf": "TAF ESSA 191130Z 1912/2012 24011KT CAVOK"
    },
    {
      "icao": "EYKA",
      "alert": "OK",
      "vis_m": 9999,
      "fzfg": false,
      "metar_trigger": false,
      "taf_trigger": false,
      "metar": "METAR EYKA 191420Z 31006KT 260V350 CAVOK 22/12 Q1020",
      "taf": "TAF EYKA 191100Z 1912/2012 28010KT 9000 BKN045"
    },
    {
      "icao": "EYPA",
      "alert": "OK",
      "vis_m": 9999,
      "fzfg": false,
      "metar_trigger": false,
      "taf_trigger": false,
      "metar": "METAR EYPA 191420Z 27004KT 210V330 CAVOK 19/13 Q1020",
      "taf": "TAF EYPA 191100Z 1912/2012 VRB03KT 9000 NSC"
    },
    {
      "icao": "EYVI",
      "alert": "OK",
      "vis_m": 9999,
      "fzfg": false,
      "metar_trigger": false,
      "taf_trigger": false,
      "metar": "METAR EYVI 191420Z 31009KT CAVOK 22/11 Q1020 NOSIG",
      "taf": "TAF EYVI 191100Z 1912/2012 29010KT 9000 BKN045"
    },
    {
      "icao": "GCFV",
      "alert": "OK",
      "vis_m": 9999,
      "fzfg": false,
      "metar_trigger": false,
      "taf_trigger": false,
      "metar": "METAR GCFV 191400Z 04016KT 9999 FEW020 25/17 Q1016",
      "taf": "TAF GCFV 191400Z 1915/2015 06015KT 9999 FEW020 TX25/2014Z TN20/2006Z"
    },
    {
      "icao": "GCLP",
      "alert": "OK",
      "vis_m": 9999,
      "fzfg": false,
      "metar_trigger": false,
      "taf_trigger": false,
      "metar": "METAR GCLP 191400Z 03025KT 9999 FEW025 24/16 Q1016 NOSIG",
      "taf": "TAF GCLP 191400Z 1915/2015 02022KT 9999 FEW025 TX26/2014Z TN20/2006Z"
    },
    {
      "icao": "GCTS",
      "alert": "OK",
      "vis_m": 9999,
      "fzfg": false,
      "metar_trigger": false,
      "taf_trigger": false,
      "metar": "METAR GCTS 191400Z 13010KT 080V160 9999 FEW024 25/17 Q1017 NOSIG",
      "taf": "TAF GCTS 191400Z 1915/2015 09015KT 9999 SCT025 TX26/2014Z TN19/2006Z"
    },
    {
      "icao": "GMAD",
      "alert": "OK",
      "vis_m": 8000,
      "fzfg": false,
      "metar_trigger": false,
      "taf_trigger": false,
      "metar": "METAR GMAD 191400Z 26011KT 240V300 8000 BKN026 27/16 Q1013 NOSIG",
      "taf": "TAF GMAD 191100Z 1912/2018 26012KT 8000 SCT020"
    },
    {
      "icao": "GMMN",
      "alert": "OK",
      "vis_m": 9999,
      "fzfg": false,
      "metar_trigger": false,
      "taf_trigger": false,
      "metar": "METAR GMMN 191400Z 30011KT 240V340 9999 SCT030 27/20 Q1013 NOSIG",
      "taf": "TAF GMMN 191100Z 1912/2018 28008KT CAVOK"
    },
    {
      "icao": "GMMX",
      "alert": "OK",
      "vis_m": 8000,
      "fzfg": false,
      "metar_trigger": false,
      "taf_trigger": false,
      "metar": "METAR GMMX 191400Z VRB04KT 8000 NSC 30/18 Q1014 NOSIG",
      "taf": "TAF GMMX 191100Z 1912/2018 24004KT 8000 NSC"
    },
    {
      "icao": "HEGN",
      "alert": "OK",
      "vis_m": 9999,
      "fzfg": false,
      "metar_trigger": false,
      "taf_trigger": false,
      "metar": "METAR HEGN 191400Z 01019KT CAVOK 35/12 Q1006 NOSIG",
      "taf": "TAF HEGN 191100Z 1912/2018 01018KT CAVOK"
    },
    {
      "icao": "HEMA",
      "alert": "OK",
      "vis_m": 9999,
      "fzfg": false,
      "metar_trigger": false,
      "taf_trigger": false,
      "metar": "METAR HEMA 191400Z 36018KT CAVOK 33/13 Q1006 NOSIG",
      "taf": "TAF HEMA 191100Z 1912/2018 36020KT CAVOK"
    },
    {
      "icao": "HESH",
      "alert": "OK",
      "vis_m": 9999,
      "fzfg": false,
      "metar_trigger": false,
      "taf_trigger": false,
      "metar": "METAR HESH 191400Z 03008KT CAVOK 36/11 Q1006 NOSIG",
      "taf": "TAF HESH 191100Z 1912/2018 02015KT CAVOK"
    },
    {
      "icao": "HESX",
      "alert": "OK",
      "vis_m": 9999,
      "fzfg": false,
      "metar_trigger": false,
      "taf_trigger": false,
      "metar": "METAR HESX 191400Z 32008KT CAVOK 34/12 Q1009 NOSIG",
      "taf": "TAF HESX 191100Z 1912/2018 35010KT CAVOK"
    },
    {
      "icao": "LATI",
      "alert": "OK",
      "vis_m": 9999,
      "fzfg": false,
      "metar_trigger": false,
      "taf_trigger": false,
      "metar": "METAR LATI 191420Z 31011KT CAVOK 31/15 Q1016 NOSIG",
      "taf": "TAF LATI 191100Z 1912/2012 32010KT CAVOK TX34/1912Z TN17/2004Z"
    },
    {
      "icao": "LBPD",
      "alert": "OK",
      "vis_m": 9999,
      "fzfg": false,
      "metar_trigger": false,
      "taf_trigger": false,
      "metar": "METAR LBPD 191400Z AUTO 10008KT 9999 BKN074/// OVC100/// 28/10 Q1018 NOSIG",
      "taf": "TAF LBPD 191100Z 1912/2012 07010KT 9999 SCT060"
    },
    {
      "icao": "LBSF",
      "alert": "OK",
      "vis_m": 9999,
      "fzfg": false,
      "metar_trigger": false,
      "taf_trigger": false,
      "metar": "METAR LBSF 191400Z 05010KT 360V090 9999 SCT068 26/12 Q1020 NOSIG",
      "taf": "TAF LBSF 191100Z 1912/2012 05010KT 9999 SCT060"
    },
    {
      "icao": "LBWN",
      "alert": "OK",
      "vis_m": 9999,
      "fzfg": false,
      "metar_trigger": false,
      "taf_trigger": false,
      "metar": "METAR LBWN 191400Z 14010KT 9999 FEW046 24/13 Q1019 NOSIG",
      "taf": "TAF LBWN 191100Z 1912/2012 08012KT 9999 SCT045"
    },
    {
      "icao": "LCLK",
      "alert": "OK",
      "vis_m": 9999,
      "fzfg": false,
      "metar_trigger": false,
      "taf_trigger": false,
      "metar": "METAR LCLK 191400Z 21020KT 9999 FEW025 FEW030CB 28/22 Q1008 NOSIG RMK CB TO NW-N",
      "taf": "TAF LCLK 191130Z 1912/2012 20020KT 9999 SCT025"
    },
    {
      "icao": "LCPH",
      "alert": "OK",
      "vis_m": 9999,
      "fzfg": false,
      "metar_trigger": false,
      "taf_trigger": false,
      "metar": "METAR LCPH 191400Z 24006KT 170V260 9999 FEW019 SCT032 28/21 Q1009 NOSIG",
      "taf": "TAF LCPH 191130Z 1912/2012 20010KT 9999 SCT020"
    },
    {
      "icao": "LEAL",
      "alert": "OK",
      "vis_m": 9999,
      "fzfg": false,
      "metar_trigger": false,
      "taf_trigger": false,
      "metar": "METAR LEAL 191400Z 08011KT CAVOK 30/19 Q1015 NOSIG",
      "taf": "TAF LEAL 191100Z 1912/2012 08012KT CAVOK TX32/1912Z TN23/2005Z"
    },
    {
      "icao": "LEBB",
      "alert": "OK",
      "vis_m": 9999,
      "fzfg": false,
      "metar_trigger": false,
      "taf_trigger": false,
      "metar": "METAR LEBB 191400Z 27011KT 230V310 9999 SCT012 26/21 Q1015 NOSIG",
      "taf": "TAF LEBB 191100Z 1912/2012 30009KT 9000 FEW015 BKN025 TX31/2012Z TN18/2003Z"
    },
    {
      "icao": "LEBL",
      "alert": "OK",
      "vis_m": 9999,
      "fzfg": false,
      "metar_trigger": false,
      "taf_trigger": false,
      "metar": "METAR LEBL 191400Z 07013KT 040V100 CAVOK 29/17 Q1018 NOSIG",
      "taf": "TAF LEBL 191100Z 1912/2012 07010KT CAVOK TX30/1912Z TN23/2006Z"
    },
    {
      "icao": "LECH",
      "alert": "OK",
      "vis_m": 9999,
      "fzfg": false,
      "metar_trigger": false,
      "taf_trigger": false,
      "metar": "METAR LECH 191400Z AUTO 12010KT 070V170 CAVOK 29/17 Q1018",
      "taf": "TAF LECH 191100Z 1912/2012 09010KT CAVOK TX33/1912Z TN19/2005Z"
    },
    {
      "icao": "LEMD",
      "alert": "OK",
      "vis_m": 9999,
      "fzfg": false,
      "metar_trigger": false,
      "taf_trigger": false,
      "metar": "METAR LEMD 191400Z 23005KT 9999 FEW070 35/07 Q1015 NOSIG",
      "taf": ""
    },
    {
      "icao": "LEMG",
      "alert": "OK",
      "vis_m": 9999,
      "fzfg": false,
      "metar_trigger": false,
      "taf_trigger": false,
      "metar": "METAR LEMG 191400Z 14012KT 110V170 CAVOK 27/18 Q1013 NOSIG",
      "taf": "TAF LEMG 191100Z 1912/2012 14011KT CAVOK TX31/1914Z TN22/2006Z"
    },
    {
      "icao": "LEVC",
      "alert": "OK",
      "vis_m": 9999,
      "fzfg": false,
      "metar_trigger": false,
      "taf_trigger": false,
      "metar": "METAR LEVC 191400Z 09013KT 050V110 9999 FEW040 28/19 Q1016 NOSIG",
      "taf": "TAF LEVC 191100Z 1912/2012 09010KT 9999 FEW015 TX31/1912Z TN20/2005Z"
    },
    {
      "icao": "LEXJ",
      "alert": "OK",
      "vis_m": 9000,
      "fzfg": false,
      "metar_trigger": false,
      "taf_trigger": false,
      "metar": "METAR LEXJ 191400Z 06004KT 350V120 9000 FEW010 BKN016 21/19 Q1015",
      "taf": "TAF LEXJ 191400Z 1915/2015 03007KT 9999 BKN016 TX25/2015Z TN20/2005Z"
    },
    {
      "icao": "LEZG",
      "alert": "OK",
      "vis_m": 9999,
      "fzfg": false,
      "metar_trigger": false,
      "taf_trigger": false,
      "metar": "METAR LEZG 191400Z 08012KT 050V120 CAVOK 36/09 Q1015 NOSIG",
      "taf": "TAF LEZG 191100Z 1912/2012 12012KT CAVOK TX37/1915Z TN22/2005Z"
    },
    {
      "icao": "LEZL",
      "alert": "OK",
      "vis_m": 9999,
      "fzfg": false,
      "metar_trigger": false,
      "taf_trigger": false,
      "metar": "METAR LEZL 191400Z 24003KT CAVOK 36/15 Q1011 NOSIG",
      "taf": "TAF LEZL 191400Z 1915/2015 VRB02KT CAVOK TX39/1915Z TN22/2006Z"
    },
    {
      "icao": "LFBD",
      "alert": "OK",
      "vis_m": 9999,
      "fzfg": false,
      "metar_trigger": false,
      "taf_trigger": false,
      "metar": "METAR LFBD 191400Z AUTO 26007KT 220V300 CAVOK 32/16 Q1014 NOSIG",
      "taf": "TAF LFBD 191100Z 1912/2018 15005KT CAVOK TX36/2015Z TN20/2001Z"
    },
    {
      "icao": "LFLL",
      "alert": "OK",
      "vis_m": 9999,
      "fzfg": false,
      "metar_trigger": false,
      "taf_trigger": false,
      "metar": "METAR LFLL 191400Z 22011KT 180V250 CAVOK 34/08 Q1017 TEMPO 20015G25KT",
      "taf": "TAF LFLL 191100Z 1912/2018 18013KT CAVOK"
    },
    {
      "icao": "LFLS",
      "alert": "OK",
      "vis_m": 9999,
      "fzfg": false,
      "metar_trigger": false,
      "taf_trigger": false,
      "metar": "METAR LFLS 191400Z AUTO 21017KT 180V240 CAVOK 32/11 Q1019 TEMPO 22015G25KT",
      "taf": "TAF LFLS 191400Z 1915/2015 22010KT CAVOK"
    },
    {
      "icao": "LFMN",
      "alert": "OK",
      "vis_m": 9999,
      "fzfg": false,
      "metar_trigger": false,
      "taf_trigger": false,
      "metar": "METAR LFMN 191400Z 16004KT CAVOK 28/20 Q1019 NOSIG",
      "taf": "TAF LFMN 190800Z 1909/2015 16005KT CAVOK"
    },
    {
      "icao": "LFOB",
      "alert": "OK",
      "vis_m": 9999,
      "fzfg": false,
      "metar_trigger": false,
      "taf_trigger": false,
      "metar": "METAR LFOB 191400Z AUTO 20009KT 150V250 9999 ///CB 36/18 Q1013 TEMPO VRB25G40KT 1200 TSRAGR BKN012 BKN020CB",
      "taf": "TAF LFOB 191100Z 1912/2012 VRB05KT CAVOK"
    },
    {
      "icao": "LFPO",
      "alert": "OK",
      "vis_m": 9999,
      "fzfg": false,
      "metar_trigger": false,
      "taf_trigger": false,
      "metar": "METAR LFPO 191400Z 21010KT 9999 FEW100CB SCT260 35/13 Q1013 TEMPO VRB10G20KT",
      "taf": ""
    },
    {
      "icao": "LFSB",
      "alert": "OK",
      "vis_m": 9999,
      "fzfg": false,
      "metar_trigger": false,
      "taf_trigger": false,
      "metar": "METAR LFSB 191400Z AUTO 29006KT 250V350 CAVOK 35/12 Q1016 TEMPO 26020G35KT TSRA FEW040 SCT080CB BKN090",
      "taf": "TAF LFSB 191135Z 1912/2012 29005KT CAVOK"
    },
    {
      "icao": "LGAV",
      "alert": "OK",
      "vis_m": 9999,
      "fzfg": false,
      "metar_trigger": false,
      "taf_trigger": false,
      "metar": "METAR LGAV 191420Z 36021G31KT 9999 FEW025 28/06 Q1017 NOSIG",
      "taf": "TAF LGAV 191100Z 1912/2012 03015KT 9999 FEW025"
    },
    {
      "icao": "LGTS",
      "alert": "OK",
      "vis_m": 9999,
      "fzfg": false,
      "metar_trigger": false,
      "taf_trigger": false,
      "metar": "METAR LGTS 191420Z 16007KT 9999 FEW018TCU SCT030 30/13 Q1017 NOSIG",
      "taf": ""
    },
    {
      "icao": "LHBP",
      "alert": "OK",
      "vis_m": 9999,
      "fzfg": false,
      "metar_trigger": false,
      "taf_trigger": false,
      "metar": "METAR LHBP 191400Z 13006KT 080V210 CAVOK 31/12 Q1020 NOSIG",
      "taf": "TAF LHBP 191115Z 1912/2012 VRB04KT CAVOK"
    },
    {
      "icao": "LHDC",
      "alert": "OK",
      "vis_m": 9999,
      "fzfg": false,
      "metar_trigger": false,
      "taf_trigger": false,
      "metar": "METAR LHDC 191345Z AUTO VRB05KT CAVOK 30/14 Q1020 NOSIG",
      "taf": "TAF LHDC 191415Z 1915/1924 VRB03KT CAVOK"
    },
    {
      "icao": "LIBD",
      "alert": "OK",
      "vis_m": 9999,
      "fzfg": false,
      "metar_trigger": false,
      "taf_trigger": false,
      "metar": "METAR LIBD 191420Z 05007KT 010V090 CAVOK 29/17 Q1018",
      "taf": "TAF LIBD 191100Z 1912/2012 02010KT CAVOK"
    },
    {
      "icao": "LIBG",
      "alert": "OK",
      "vis_m": 9999,
      "fzfg": false,
      "metar_trigger": false,
      "taf_trigger": false,
      "metar": "METAR LIBG 191420Z AUTO 05009KT 010V090 9999 NCD 32/11 Q1017",
      "taf": "TAF LIBG 191100Z 1912/2012 02013KT 9999 SCT030"
    },
    {
      "icao": "LIBP",
      "alert": "OK",
      "vis_m": 9999,
      "fzfg": false,
      "metar_trigger": false,
      "taf_trigger": false,
      "metar": "METAR LIBP 191420Z AUTO 06008KT 020V090 9999 NCD 30/18 Q1019",
      "taf": "TAF LIBP 191100Z 1912/2012 06010KT CAVOK"
    },
    {
      "icao": "LIBR",
      "alert": "OK",
      "vis_m": 9999,
      "fzfg": false,
      "metar_trigger": false,
      "taf_trigger": false,
      "metar": "METAR LIBR 191420Z 36010KT CAVOK 28/17 Q1017",
      "taf": "TAF LIBR 191100Z 1912/2012 33012KT CAVOK"
    },
    {
      "icao": "LICA",
      "alert": "OK",
      "vis_m": 9999,
      "fzfg": false,
      "metar_trigger": false,
      "taf_trigger": false,
      "metar": "METAR LICA 191420Z AUTO 25012KT 9999 FEW096/// 28/23 Q1018",
      "taf": "TAF LICA 191100Z 1912/2012 26012KT CAVOK"
    },
    {
      "icao": "LICC",
      "alert": "OK",
      "vis_m": 9999,
      "fzfg": false,
      "metar_trigger": false,
      "taf_trigger": false,
      "metar": "METAR LICC 191420Z 08012KT CAVOK 30/20 Q1017",
      "taf": "TAF LICC 191100Z 1912/2012 09012KT CAVOK"
    },
    {
      "icao": "LICJ",
      "alert": "OK",
      "vis_m": 9999,
      "fzfg": false,
      "metar_trigger": false,
      "taf_trigger": false,
      "metar": "METAR LICJ 191420Z 05017KT CAVOK 28/21 Q1017",
      "taf": "TAF LICJ 191100Z 1912/2012 04014KT CAVOK"
    },
    {
      "icao": "LIMC",
      "alert": "OK",
      "vis_m": 9999,
      "fzfg": false,
      "metar_trigger": false,
      "taf_trigger": false,
      "metar": "METAR LIMC 191420Z VRB04KT 9999 FEW060 33/15 Q1019 NOSIG",
      "taf": "TAF LIMC 191100Z 1912/2018 VRB05KT 9999 FEW040"
    },
    {
      "icao": "LIME",
      "alert": "OK",
      "vis_m": 9999,
      "fzfg": false,
      "metar_trigger": false,
      "taf_trigger": false,
      "metar": "METAR LIME 191420Z 17004KT 110V240 9999 FEW035 33/18 Q1019 NOSIG",
      "taf": "TAF LIME 191100Z 1912/2012 20010KT 9999 SCT040"
    },
    {
      "icao": "LIMF",
      "alert": "OK",
      "vis_m": 9999,
      "fzfg": false,
      "metar_trigger": false,
      "taf_trigger": false,
      "metar": "METAR LIMF 191420Z VRB03KT 9999 FEW050 33/15 Q1019",
      "taf": "TAF LIMF 191100Z 1912/2012 VRB05KT 9999 SCT050"
    },
    {
      "icao": "LIMJ",
      "alert": "OK",
      "vis_m": 9999,
      "fzfg": false,
      "metar_trigger": false,
      "taf_trigger": false,
      "metar": "METAR LIMJ 191420Z 21005KT CAVOK 26/19 Q1018",
      "taf": "TAF LIMJ 191100Z 1912/2012 VRB05KT CAVOK"
    },
    {
      "icao": "LIPE",
      "alert": "OK",
      "vis_m": 9999,
      "fzfg": false,
      "metar_trigger": false,
      "taf_trigger": false,
      "metar": "METAR LIPE 191420Z 04007KT 350V090 CAVOK 35/17 Q1017",
      "taf": "TAF LIPE 191100Z 1912/2012 08010KT CAVOK"
    },
    {
      "icao": "LIPH",
      "alert": "OK",
      "vis_m": 9999,
      "fzfg": false,
      "metar_trigger": false,
      "taf_trigger": false,
      "metar": "METAR LIPH 191420Z 15006KT 120V200 CAVOK 33/18 Q1018",
      "taf": "TAF LIPH 191100Z 1912/2012 VRB05KT CAVOK"
    },
    {
      "icao": "LIPQ",
      "alert": "OK",
      "vis_m": 9999,
      "fzfg": false,
      "metar_trigger": false,
      "taf_trigger": false,
      "metar": "METAR LIPQ 191420Z AUTO 24007KT 9999 NCD 32/17 Q1018",
      "taf": "TAF LIPQ 191100Z 1912/2012 22010KT CAVOK"
    },
    {
      "icao": "LIPR",
      "alert": "OK",
      "vis_m": 9999,
      "fzfg": false,
      "metar_trigger": false,
      "taf_trigger": false,
      "metar": "METAR LIPR 191420Z AUTO 10011KT 9999 NCD 29/21 Q1018",
      "taf": "TAF LIPR 191100Z 1912/2012 08010KT CAVOK"
    },
    {
      "icao": "LIPX",
      "alert": "OK",
      "vis_m": 9999,
      "fzfg": false,
      "metar_trigger": false,
      "taf_trigger": false,
      "metar": "METAR LIPX 191420Z VRB04KT 9999 FEW040 34/19 Q1018",
      "taf": "TAF LIPX 191100Z 1912/2012 VRB05KT 9999 FEW040"
    },
    {
      "icao": "LIPY",
      "alert": "OK",
      "vis_m": 9999,
      "fzfg": false,
      "metar_trigger": false,
      "taf_trigger": false,
      "metar": "METAR LIPY 191420Z AUTO 08010KT 9999 NCD 32/14 Q1018",
      "taf": "TAF LIPY 191100Z 1912/2012 08010KT CAVOK"
    },
    {
      "icao": "LIPZ",
      "alert": "OK",
      "vis_m": 9999,
      "fzfg": false,
      "metar_trigger": false,
      "taf_trigger": false,
      "metar": "METAR LIPZ 191420Z 15007KT CAVOK 29/21 Q1018 NOSIG",
      "taf": "TAF LIPZ 191100Z 1912/2018 16010KT CAVOK"
    },
    {
      "icao": "LIRF",
      "alert": "OK",
      "vis_m": 9999,
      "fzfg": false,
      "metar_trigger": false,
      "taf_trigger": false,
      "metar": "METAR LIRF 191420Z 27010KT CAVOK 30/18 Q1018 NOSIG",
      "taf": "TAF LIRF 191100Z 1912/2018 27012KT CAVOK"
    },
    {
      "icao": "LIRN",
      "alert": "OK",
      "vis_m": 9999,
      "fzfg": false,
      "metar_trigger": false,
      "taf_trigger": false,
      "metar": "METAR LIRN 191420Z 18008KT 150V220 CAVOK 29/19 Q1018 NOSIG",
      "taf": "TAF LIRN 191100Z 1912/2012 24010KT CAVOK"
    },
    {
      "icao": "LIRP",
      "alert": "OK",
      "vis_m": 9999,
      "fzfg": false,
      "metar_trigger": false,
      "taf_trigger": false,
      "metar": "METAR LIRP 191415Z 29009KT CAVOK 33/15 Q1018 NOSIG",
      "taf": "TAF LIRP 191100Z 1912/2012 29007KT CAVOK"
    },
    {
      "icao": "LIRZ",
      "alert": "OK",
      "vis_m": 9999,
      "fzfg": false,
      "metar_trigger": false,
      "taf_trigger": false,
      "metar": "METAR LIRZ 191420Z AUTO 06009KT 010V090 9999 FEW080/// SCT100/// 35/16 Q1018",
      "taf": "TAF LIRZ 191100Z 1912/2012 VRB05KT CAVOK"
    },
    {
      "icao": "LJLJ",
      "alert": "OK",
      "vis_m": 9999,
      "fzfg": false,
      "metar_trigger": false,
      "taf_trigger": false,
      "metar": "METAR LJLJ 191400Z 08006KT 040V120 9999 FEW053 31/16 Q1020 NOSIG",
      "taf": "TAF LJLJ 191100Z 1912/2012 06008KT 9999 FEW055"
    },
    {
      "icao": "LKMT",
      "alert": "OK",
      "vis_m": 9999,
      "fzfg": false,
      "metar_trigger": false,
      "taf_trigger": false,
      "metar": "METAR LKMT 191400Z VRB02KT CAVOK 31/16 Q1020 NOSIG",
      "taf": "TAF LKMT 191100Z 1912/2012 21005KT CAVOK"
    },
    {
      "icao": "LKPR",
      "alert": "OK",
      "vis_m": 9999,
      "fzfg": false,
      "metar_trigger": false,
      "taf_trigger": false,
      "metar": "METAR LKPR 191400Z 21005KT 160V300 CAVOK 32/16 Q1019 NOSIG",
      "taf": "TAF LKPR 191400Z 1915/2021 17006KT CAVOK"
    },
    {
      "icao": "LLBG",
      "alert": "OK",
      "vis_m": 9999,
      "fzfg": false,
      "metar_trigger": false,
      "taf_trigger": false,
      "metar": "METAR LLBG 191420Z 30007KT 260V340 CAVOK 28/16 Q1010 NOSIG",
      "taf": "TAF LLBG 191102Z 1912/2012 29010KT CAVOK TX29/1912Z TN20/2004Z"
    },
    {
      "icao": "LMML",
      "alert": "OK",
      "vis_m": 9999,
      "fzfg": false,
      "metar_trigger": false,
      "taf_trigger": false,
      "metar": "METAR LMML 191415Z 21005KT 150V270 CAVOK 31/16 Q1018 NOSIG",
      "taf": "TAF LMML 191100Z 1912/2012 VRB07KT 9999 FEW015"
    },
    {
      "icao": "LOWW",
      "alert": "OK",
      "vis_m": 9999,
      "fzfg": false,
      "metar_trigger": false,
      "taf_trigger": false,
      "metar": "METAR LOWW 191420Z 15006KT 080V200 CAVOK 32/13 Q1019 NOSIG",
      "taf": "TAF LOWW 191415Z 1915/2021 12005KT CAVOK TX35/2014Z TN20/2003Z"
    },
    {
      "icao": "LPFR",
      "alert": "OK",
      "vis_m": 9999,
      "fzfg": false,
      "metar_trigger": false,
      "taf_trigger": false,
      "metar": "METAR LPFR 191400Z 17006KT 130V200 CAVOK 27/19 Q1013",
      "taf": "TAF LPFR 191100Z 1912/2012 19005KT CAVOK"
    },
    {
      "icao": "LPMA",
      "alert": "OK",
      "vis_m": 9999,
      "fzfg": false,
      "metar_trigger": false,
      "taf_trigger": false,
      "metar": "METAR LPMA 191400Z 20008KT 100V260 9999 FEW015 24/18 Q1019",
      "taf": "TAF LPMA 191100Z 1912/2012 VRB05KT 9999 SCT015"
    },
    {
      "icao": "LPPR",
      "alert": "OK",
      "vis_m": 9999,
      "fzfg": false,
      "metar_trigger": false,
      "taf_trigger": false,
      "metar": "METAR LPPR 191400Z 30008KT 270V330 9999 FEW009 21/16 Q1016",
      "taf": "TAF LPPR 191100Z 1912/2012 32012KT 9999 SCT012"
    },
    {
      "icao": "LPPS",
      "alert": "OK",
      "vis_m": 9999,
      "fzfg": false,
      "metar_trigger": false,
      "taf_trigger": false,
      "metar": "METAR LPPS 191400Z 11005KT 080V150 9999 SCT014 21/17 Q1019",
      "taf": "TAF LPPS 191100Z 1912/2018 30008KT 9999 SCT015 SCT030"
    },
    {
      "icao": "LPPT",
      "alert": "OK",
      "vis_m": 9999,
      "fzfg": false,
      "metar_trigger": false,
      "taf_trigger": false,
      "metar": "METAR LPPT 191400Z 31008KT 270V340 CAVOK 28/13 Q1014",
      "taf": "TAF LPPT 191100Z 1912/2018 35007KT CAVOK"
    },
    {
      "icao": "LQBK",
      "alert": "OK",
      "vis_m": 9999,
      "fzfg": false,
      "metar_trigger": false,
      "taf_trigger": false,
      "metar": "METAR LQBK 191400Z 04004KT 320V100 9999 FEW047 31/13 Q1019 NOSIG",
      "taf": "TAF LQBK 191100Z 1912/2012 15005KT CAVOK TX32/1914Z TN18/2003Z"
    },
    {
      "icao": "LQSA",
      "alert": "OK",
      "vis_m": 9999,
      "fzfg": false,
      "metar_trigger": false,
      "taf_trigger": false,
      "metar": "METAR LQSA 191400Z 33004KT 270V080 9999 FEW070 27/15 Q1020 NOSIG",
      "taf": "TAF LQSA 191100Z 1912/2012 VRB02KT 9999 SCT055 TX29/1914Z TN16/2003Z"
    },
    {
      "icao": "LQTZ",
      "alert": "OK",
      "vis_m": 9999,
      "fzfg": false,
      "metar_trigger": false,
      "taf_trigger": false,
      "metar": "METAR LQTZ 191400Z 08005KT 050V140 9999 SCT065 29/18 Q1020",
      "taf": "TAF LQTZ 191100Z 1912/2012 13005KT CAVOK TX29/1914Z TN16/2003Z"
    },
    {
      "icao": "LRBC",
      "alert": "OK",
      "vis_m": 9999,
      "fzfg": false,
      "metar_trigger": false,
      "taf_trigger": false,
      "metar": "METAR LRBC 191400Z 01008KT 9999 FEW060 27/15 Q1020",
      "taf": "TAF LRBC 191100Z 1912/1921 34010KT CAVOK"
    },
    {
      "icao": "LRBS",
      "alert": "OK",
      "vis_m": 9999,
      "fzfg": false,
      "metar_trigger": false,
      "taf_trigger": false,
      "metar": "METAR LRBS 191400Z 02005KT 320V070 CAVOK 27/11 Q1020 NOSIG",
      "taf": "TAF LRBS 191100Z 1912/2012 03006KT CAVOK"
    },
    {
      "icao": "LRBV",
      "alert": "OK",
      "vis_m": 9999,
      "fzfg": false,
      "metar_trigger": false,
      "taf_trigger": false,
      "metar": "METAR LRBV 191400Z 32004KT 280V030 9999 SCT057 25/11 Q1021",
      "taf": "TAF LRBV 191100Z 1912/1921 VRB04KT CAVOK"
    },
    {
      "icao": "LRCL",
      "alert": "OK",
      "vis_m": 9999,
      "fzfg": false,
      "metar_trigger": false,
      "taf_trigger": false,
      "metar": "METAR LRCL 191400Z VRB04KT 9999 FEW061 27/13 Q1020",
      "taf": "TAF LRCL 191100Z 1912/1921 VRB04KT CAVOK"
    },
    {
      "icao": "LRCV",
      "alert": "OK",
      "vis_m": 9999,
      "fzfg": false,
      "metar_trigger": false,
      "taf_trigger": false,
      "metar": "METAR LRCV 191400Z VRB04KT CAVOK 29/11 Q1020",
      "taf": "TAF LRCV 191100Z 1912/1921 VRB04KT CAVOK"
    },
    {
      "icao": "LRIA",
      "alert": "OK",
      "vis_m": 9999,
      "fzfg": false,
      "metar_trigger": false,
      "taf_trigger": false,
      "metar": "METAR LRIA 191400Z 33008KT 300V010 CAVOK 27/12 Q1019",
      "taf": "TAF LRIA 191100Z 1912/1921 33010KT CAVOK"
    },
    {
      "icao": "LROP",
      "alert": "OK",
      "vis_m": 9999,
      "fzfg": false,
      "metar_trigger": false,
      "taf_trigger": false,
      "metar": "METAR LROP 191400Z 06007KT 040V100 CAVOK 28/10 Q1020 NOSIG",
      "taf": "TAF LROP 191100Z 1912/2012 03006KT CAVOK"
    },
    {
      "icao": "LRSB",
      "alert": "OK",
      "vis_m": 9999,
      "fzfg": false,
      "metar_trigger": false,
      "taf_trigger": false,
      "metar": "METAR LRSB 191400Z VRB03KT CAVOK 26/10 Q1021",
      "taf": "TAF LRSB 191100Z 1912/2012 VRB04KT CAVOK"
    },
    {
      "icao": "LRSM",
      "alert": "OK",
      "vis_m": 9999,
      "fzfg": false,
      "metar_trigger": false,
      "taf_trigger": false,
      "metar": "METAR LRSM 191400Z 33006KT CAVOK 28/16 Q1020",
      "taf": "TAF LRSM 191100Z 1912/1921 VRB04KT CAVOK"
    },
    {
      "icao": "LRSV",
      "alert": "OK",
      "vis_m": 9999,
      "fzfg": false,
      "metar_trigger": false,
      "taf_trigger": false,
      "metar": "METAR LRSV 191400Z 33006KT CAVOK 25/14 Q1021",
      "taf": "TAF LRSV 191100Z 1912/1921 34006KT CAVOK"
    },
    {
      "icao": "LRTM",
      "alert": "OK",
      "vis_m": 9999,
      "fzfg": false,
      "metar_trigger": false,
      "taf_trigger": false,
      "metar": "METAR LRTM 191400Z 07003KT 010V100 CAVOK 27/15 Q1020",
      "taf": "TAF LRTM 191100Z 1912/1921 VRB04KT CAVOK"
    },
    {
      "icao": "LRTR",
      "alert": "OK",
      "vis_m": 9999,
      "fzfg": false,
      "metar_trigger": false,
      "taf_trigger": false,
      "metar": "METAR LRTR 191400Z 34008KT 310V050 CAVOK 31/12 Q1019 NOSIG",
      "taf": "TAF LRTR 191100Z 1912/2012 02010KT CAVOK"
    },
    {
      "icao": "LTAC",
      "alert": "OK",
      "vis_m": 9999,
      "fzfg": false,
      "metar_trigger": false,
      "taf_trigger": false,
      "metar": "METAR LTAC 191420Z 08013KT 9999 SCT040 BKN080 18/11 Q1016 NOSIG RMK RWY21C 05015KT RWY03L 06013KT RWY21R 05017KT RWY03R 05014KT 020V080 RWY21L 06014KT",
      "taf": "TAF LTAC 191040Z 1912/2012 03009KT 9999 SCT040 SCT100"
    },
    {
      "icao": "LTFM",
      "alert": "OK",
      "vis_m": 9999,
      "fzfg": false,
      "metar_trigger": false,
      "taf_trigger": false,
      "metar": "METAR LTFM 191420Z 02018KT 9999 FEW015 SCT023 BKN180 23/17 Q1018 NOSIG RMK RWY17L 02017KT RWY34L 01016KT RWY16R 02016KT RWY36 03018KT RWY18 03014KT",
      "taf": "TAF LTFM 191040Z 1912/2018 03018KT 9999 SCT023 SCT180"
    },
    {
      "icao": "LUKK",
      "alert": "OK",
      "vis_m": 9999,
      "fzfg": false,
      "metar_trigger": false,
      "taf_trigger": false,
      "metar": "METAR LUKK 191400Z 03009KT CAVOK 26/12 Q1019 NOSIG",
      "taf": "TAF LUKK 191104Z 1912/2012 34008KT CAVOK"
    },
    {
      "icao": "LWOH",
      "alert": "OK",
      "vis_m": 9999,
      "fzfg": false,
      "metar_trigger": false,
      "taf_trigger": false,
      "metar": "METAR LWOH 191350Z VRB03KT 9999 FEW040 27/15 Q1020",
      "taf": "TAF LWOH 191130Z 1912/2012 15010KT 9999 FEW040"
    },
    {
      "icao": "LWSK",
      "alert": "OK",
      "vis_m": 9999,
      "fzfg": false,
      "metar_trigger": false,
      "taf_trigger": false,
      "metar": "METAR LWSK 191420Z 01008KT 310V100 9999 FEW050 31/14 Q1018 NOSIG",
      "taf": "TAF LWSK 191130Z 1912/2012 36010KT 9999 FEW060"
    },
    {
      "icao": "LYBE",
      "alert": "OK",
      "vis_m": 9999,
      "fzfg": false,
      "metar_trigger": false,
      "taf_trigger": false,
      "metar": "METAR LYBE 191400Z 04007KT 330V100 CAVOK 30/14 Q1020 NOSIG",
      "taf": "TAF LYBE 191100Z 1912/2012 02008KT CAVOK TX32/2012Z TN18/2003Z"
    },
    {
      "icao": "LYNI",
      "alert": "OK",
      "vis_m": 9999,
      "fzfg": false,
      "metar_trigger": false,
      "taf_trigger": false,
      "metar": "METAR LYNI 191400Z 32012KT 280V010 9999 SCT043 30/14 Q1019 NOSIG",
      "taf": "TAF LYNI 191100Z 1912/2012 34008KT 9999 SCT050 TX31/2012Z TN14/2003Z"
    },
    {
      "icao": "LYPG",
      "alert": "OK",
      "vis_m": 9999,
      "fzfg": false,
      "metar_trigger": false,
      "taf_trigger": false,
      "metar": "METAR LYPG 191400Z 15007KT 110V190 9999 FEW040 32/14 Q1016 NOSIG",
      "taf": "TAF LYPG 191100Z 1912/2012 17009KT 9999 SCT050 TX33/1914Z TN23/2003Z"
    },
    {
      "icao": "LZIB",
      "alert": "OK",
      "vis_m": 9999,
      "fzfg": false,
      "metar_trigger": false,
      "taf_trigger": false,
      "metar": "METAR LZIB 191400Z 09006KT 020V170 CAVOK 33/13 Q1019 NOSIG",
      "taf": "TAF LZIB 191115Z 1912/2012 12005KT CAVOK"
    },
    {
      "icao": "LZKZ",
      "alert": "OK",
      "vis_m": 9999,
      "fzfg": false,
      "metar_trigger": false,
      "taf_trigger": false,
      "metar": "METAR LZKZ 191400Z VRB02KT CAVOK 29/17 Q1020 NOSIG",
      "taf": "TAF LZKZ 191115Z 1912/2012 VRB02KT CAVOK"
    },
    {
      "icao": "LZTT",
      "alert": "OK",
      "vis_m": 9999,
      "fzfg": false,
      "metar_trigger": false,
      "taf_trigger": false,
      "metar": "METAR LZTT 191400Z 06003KT 020V110 9999 SCT056 27/14 Q1023 NOSIG",
      "taf": "TAF LZTT 191115Z 1912/2012 06007KT 9999 SCT050"
    },
    {
      "icao": "OEJN",
      "alert": "OK",
      "vis_m": 9999,
      "fzfg": false,
      "metar_trigger": false,
      "taf_trigger": false,
      "metar": "METAR OEJN 191400Z 33018KT CAVOK 37/16 Q1003 NOSIG",
      "taf": "TAF OEJN 191100Z 1912/2018 34020KT 7000 NSC"
    },
    {
      "icao": "OEMA",
      "alert": "OK",
      "vis_m": 9999,
      "fzfg": false,
      "metar_trigger": false,
      "taf_trigger": false,
      "metar": "METAR OEMA 191400Z 29006KT CAVOK 44/M04 Q1008 NOSIG",
      "taf": "TAF OEMA 191100Z 1912/2018 30010KT CAVOK"
    },
    {
      "icao": "OJAI",
      "alert": "OK",
      "vis_m": 5000,
      "fzfg": false,
      "metar_trigger": false,
      "taf_trigger": false,
      "metar": "METAR OJAI 191400Z 29012KT 5000 HZ NSC 29/11 Q1013 NOSIG",
      "taf": "TAF OJAI 191031Z 1912/2018 29008KT 5000 HZ NSC"
    },
    {
      "icao": "OMAA",
      "alert": "OK",
      "vis_m": 9999,
      "fzfg": false,
      "metar_trigger": false,
      "taf_trigger": false,
      "metar": "METAR OMAA 191400Z 33012KT CAVOK 40/14 Q1001 NOSIG",
      "taf": "TAF OMAA 191100Z 1912/2018 34011KT 8000 NSC"
    },
    {
      "icao": "OMDB",
      "alert": "OK",
      "vis_m": 9999,
      "fzfg": false,
      "metar_trigger": false,
      "taf_trigger": false,
      "metar": "METAR OMDB 191400Z 33010KT CAVOK 43/04 Q1001 NOSIG",
      "taf": "TAF OMDB 191100Z 1912/2018 33012KT CAVOK"
    },
    {
      "icao": "UAAA",
      "alert": "OK",
      "vis_m": 9999,
      "fzfg": false,
      "metar_trigger": false,
      "taf_trigger": false,
      "metar": "METAR UAAA 191400Z 16002MPS 9999 SCT050CB BKN100 29/12 Q1010 NOSIG",
      "taf": "TAF UAAA 191102Z 1912/2012 26003G08MPS 9999 BKN050CB OVC100 TX29/2010Z TN22/2001Z"
    },
    {
      "icao": "UBBB",
      "alert": "OK",
      "vis_m": 9999,
      "fzfg": false,
      "metar_trigger": false,
      "taf_trigger": false,
      "metar": "METAR UBBB 191400Z 16008KT CAVOK 32/13 Q1009 NOSIG",
      "taf": "TAF UBBB 191055Z 1912/2012 18008KT CAVOK TX34/1912Z TN22/2000Z"
    },
    {
      "icao": "UDSG",
      "alert": "OK",
      "vis_m": 9999,
      "fzfg": false,
      "metar_trigger": false,
      "taf_trigger": false,
      "metar": "METAR UDSG 191400Z 10002KT 9999 FEW049CB 27/13 Q1017 NOSIG",
      "taf": "TAF UDSG 191058Z 1912/2012 06006KT 9999 SCT050"
    },
    {
      "icao": "UDYZ",
      "alert": "OK",
      "vis_m": 9999,
      "fzfg": false,
      "metar_trigger": false,
      "taf_trigger": false,
      "metar": "METAR UDYZ 191400Z VRB05KT 9999 VCTS -SHRA BKN043CB 31/09 Q1011 TEMPO -TSRA",
      "taf": "TAF UDYZ 191100Z 1912/2012 22006KT 9999 FEW040"
    },
    {
      "icao": "UGKO",
      "alert": "OK",
      "vis_m": 9999,
      "fzfg": false,
      "metar_trigger": false,
      "taf_trigger": false,
      "metar": "METAR UGKO 191400Z 24010KT 9999 SCT037 BKN045 24/19 Q1011 NOSIG",
      "taf": "TAF UGKO 191100Z 1912/2012 25006KT 9999 SCT030 BKN050 TX27/1912Z TN19/2002Z"
    }
  ]
}