{
  "ts_utc": "2026-04-20T11:49:48Z",
  "threshold_m": 150,
  "source": "stations_override.txt (ICAO list) + aviationweather.gov (METAR/TAF raw)",
  "station_count": 159,
  "stations": [
    {
      "icao": "BIKF",
      "alert": "OK",
      "vis_m": 9999,
      "fzfg": false,
      "metar_trigger": false,
      "taf_trigger": false,
      "metar": "METAR BIKF 201130Z 14018KT 9999 BKN019 10/05 Q1035",
      "taf": "TAF BIKF 201031Z 2012/2112 13010KT 9999 FEW025 TX12/2015Z TN02/2106Z"
    },
    {
      "icao": "BKPR",
      "alert": "OK",
      "vis_m": 9999,
      "fzfg": false,
      "metar_trigger": false,
      "taf_trigger": false,
      "metar": "METAR BKPR 201130Z 29010KT 9999 SCT045 BKN051 17/07 Q1014 NOSIG",
      "taf": "TAF BKPR 201130Z 2012/2112 29010KT 9999 SCT040 BKN080"
    },
    {
      "icao": "EBCI",
      "alert": "OK",
      "vis_m": 9999,
      "fzfg": false,
      "metar_trigger": false,
      "taf_trigger": false,
      "metar": "METAR EBCI 201120Z 02008KT 320V040 9999 SCT030 10/02 Q1021 NOSIG",
      "taf": "TAF EBCI 201100Z 2012/2118 03005KT 9999 FEW035"
    },
    {
      "icao": "EDDB",
      "alert": "OK",
      "vis_m": 9999,
      "fzfg": false,
      "metar_trigger": false,
      "taf_trigger": false,
      "metar": "METAR EDDB 201120Z AUTO 04010KT 010V070 9999 -SHRA FEW010 BKN026 OVC036 FEW///TCU 08/06 Q1015 TEMPO RA BKN010",
      "taf": "TAF EDDB 201100Z 2012/2112 05009KT 9999 BKN020"
    },
    {
      "icao": "EDDH",
      "alert": "OK",
      "vis_m": 9999,
      "fzfg": false,
      "metar_trigger": false,
      "taf_trigger": false,
      "metar": "METAR EDDH 201120Z AUTO 04011KT 350V070 9999 FEW026 11/05 Q1019 NOSIG",
      "taf": "TAF EDDH 201100Z 2012/2118 04013KT 9999 SCT020"
    },
    {
      "icao": "EDDK",
      "alert": "OK",
      "vis_m": 9999,
      "fzfg": false,
      "metar_trigger": false,
      "taf_trigger": false,
      "metar": "METAR EDDK 201120Z AUTO 34007KT 280V030 9999 FEW044 11/01 Q1021 NOSIG",
      "taf": "TAF EDDK 201100Z 2012/2118 34009KT 9999 SCT045"
    },
    {
      "icao": "EDDN",
      "alert": "OK",
      "vis_m": 9999,
      "fzfg": false,
      "metar_trigger": false,
      "taf_trigger": false,
      "metar": "METAR EDDN 201120Z AUTO 32009KT 280V020 9999 SCT040 11/02 Q1017 NOSIG",
      "taf": "TAF EDDN 201100Z 2012/2112 31010KT 9999 BKN040"
    },
    {
      "icao": "EDDS",
      "alert": "OK",
      "vis_m": 9999,
      "fzfg": false,
      "metar_trigger": false,
      "taf_trigger": false,
      "metar": "METAR EDDS 201120Z AUTO 36006KT 320V040 9999 FEW042 13/03 Q1017 NOSIG",
      "taf": "TAF EDDS 201100Z 2012/2112 36007KT 9999 SCT035"
    },
    {
      "icao": "EDFH",
      "alert": "OK",
      "vis_m": 9999,
      "fzfg": false,
      "metar_trigger": false,
      "taf_trigger": false,
      "metar": "METAR EDFH 201120Z 35009KT 310V040 9999 FEW029 10/02 Q1019",
      "taf": "TAF EDFH 201100Z 2012/2112 35007KT 9999 SCT030"
    },
    {
      "icao": "EDJA",
      "alert": "OK",
      "vis_m": 9999,
      "fzfg": false,
      "metar_trigger": false,
      "taf_trigger": false,
      "metar": "METAR EDJA 201120Z COR VRB04KT 9999 FEW044 12/01 Q1016",
      "taf": "TAF EDJA 201100Z 2012/2021 34006KT 9999 SCT045"
    },
    {
      "icao": "EDLW",
      "alert": "OK",
      "vis_m": 9999,
      "fzfg": false,
      "metar_trigger": false,
      "taf_trigger": false,
      "metar": "METAR EDLW 201120Z VRB05KT 9999 BKN039 11/03 Q1020",
      "taf": "TAF EDLW 201100Z 2012/2112 33006KT 9999 SCT040"
    },
    {
      "icao": "EDNY",
      "alert": "OK",
      "vis_m": 9999,
      "fzfg": false,
      "metar_trigger": false,
      "taf_trigger": false,
      "metar": "METAR EDNY 201120Z VRB02KT 9999 SCT060 14/01 Q1017",
      "taf": "TAF EDNY 201100Z 2012/2021 24005KT 9999 SCT045"
    },
    {
      "icao": "EDSB",
      "alert": "OK",
      "vis_m": 9999,
      "fzfg": false,
      "metar_trigger": false,
      "taf_trigger": false,
      "metar": "METAR EDSB 201120Z 01009KT 320V050 CAVOK 14/04 Q1018",
      "taf": "TAF EDSB 201100Z 2012/2112 03011KT 9999 FEW035"
    },
    {
      "icao": "EETN",
      "alert": "OK",
      "vis_m": 9999,
      "fzfg": false,
      "metar_trigger": false,
      "taf_trigger": false,
      "metar": "METAR EETN 201120Z 03011KT 360V060 CAVOK 09/M08 Q1026 NOSIG",
      "taf": "TAF EETN 201130Z 2012/2112 04013KT CAVOK"
    },
    {
      "icao": "EFTU",
      "alert": "OK",
      "vis_m": 9999,
      "fzfg": false,
      "metar_trigger": false,
      "taf_trigger": false,
      "metar": "METAR EFTU 201120Z AUTO 03005KT 330V090 CAVOK 12/M09 Q1027",
      "taf": "TAF EFTU 201129Z 2012/2112 03009KT CAVOK"
    },
    {
      "icao": "EGBB",
      "alert": "OK",
      "vis_m": 9999,
      "fzfg": false,
      "metar_trigger": false,
      "taf_trigger": false,
      "metar": "METAR EGBB 201120Z 08006KT 360V130 9999 SCT048 12/01 Q1024",
      "taf": "TAF EGBB 201053Z 2012/2112 08004KT 9999 FEW045"
    },
    {
      "icao": "EGGP",
      "alert": "OK",
      "vis_m": 9999,
      "fzfg": false,
      "metar_trigger": false,
      "taf_trigger": false,
      "metar": "METAR EGGP 201120Z 16003KT 090V230 9999 FEW026 12/04 Q1024",
      "taf": "TAF EGGP 201056Z 2012/2112 VRB03KT 9999 FEW025"
    },
    {
      "icao": "EGGW",
      "alert": "OK",
      "vis_m": 9999,
      "fzfg": false,
      "metar_trigger": false,
      "taf_trigger": false,
      "metar": "METAR EGGW 201120Z COR 05010KT 020V090 9999 SCT040 11/02 Q1024",
      "taf": "TAF EGGW 201055Z 2012/2112 05010KT 9999 SCT035"
    },
    {
      "icao": "EGKK",
      "alert": "OK",
      "vis_m": 9999,
      "fzfg": false,
      "metar_trigger": false,
      "taf_trigger": false,
      "metar": "METAR EGKK 201120Z 05011KT 020V080 9999 FEW042 13/02 Q1023",
      "taf": "TAF EGKK 201056Z 2012/2118 03010KT 9999 FEW045"
    },
    {
      "icao": "EGNM",
      "alert": "OK",
      "vis_m": 9999,
      "fzfg": false,
      "metar_trigger": false,
      "taf_trigger": false,
      "metar": "METAR EGNM 201120Z 08006KT 030V110 9999 FEW039 09/05 Q1025",
      "taf": "TAF EGNM 201056Z 2012/2112 06007KT 9999 FEW025"
    },
    {
      "icao": "EGPD",
      "alert": "OK",
      "vis_m": 9999,
      "fzfg": false,
      "metar_trigger": false,
      "taf_trigger": false,
      "metar": "METAR EGPD 201120Z COR 29003KT 230V340 9999 -RA SCT015 BKN020 09/05 Q1026 NOSIG",
      "taf": "TAF EGPD 201054Z 2012/2112 30007KT 9999 SCT030"
    },
    {
      "icao": "EGPF",
      "alert": "OK",
      "vis_m": 9999,
      "fzfg": false,
      "metar_trigger": false,
      "taf_trigger": false,
      "metar": "METAR EGPF 201120Z AUTO 34005KT 300V010 9999 SCT043 11/03 Q1025",
      "taf": "TAF EGPF 201057Z 2012/2112 06008KT 9999 FEW045"
    },
    {
      "icao": "EHBK",
      "alert": "OK",
      "vis_m": 9999,
      "fzfg": false,
      "metar_trigger": false,
      "taf_trigger": false,
      "metar": "METAR EHBK 201125Z AUTO 35007KT 320V040 9999 NSC 11/02 Q1021 NOSIG",
      "taf": "TAF EHBK 201118Z 2012/2118 36007KT CAVOK"
    },
    {
      "icao": "EHEH",
      "alert": "OK",
      "vis_m": 9999,
      "fzfg": false,
      "metar_trigger": false,
      "taf_trigger": false,
      "metar": "METAR EHEH 201125Z AUTO 32005KT 250V040 9999 FEW048 SCT059 OVC076 12/00 Q1021 BLU NOSIG RMK TREND REMOTE BY EHWX",
      "taf": "TAF EHEH 200515Z 2006/2112 VRB02KT 9999 BKN030"
    },
    {
      "icao": "EKBI",
      "alert": "OK",
      "vis_m": 9999,
      "fzfg": false,
      "metar_trigger": false,
      "taf_trigger": false,
      "metar": "METAR EKBI 201120Z AUTO 08016KT 9999 FEW035/// BKN039/// 10/01 Q1024",
      "taf": "TAF EKBI 201127Z 2012/2112 06012KT 9999 FEW030"
    },
    {
      "icao": "EKCH",
      "alert": "OK",
      "vis_m": 9999,
      "fzfg": false,
      "metar_trigger": false,
      "taf_trigger": false,
      "metar": "METAR EKCH 201120Z AUTO 07014KT 9999 NCD 10/M02 Q1024 TEMPO 08018G28KT",
      "taf": "TAF EKCH 201127Z 2012/2112 08016KT CAVOK"
    },
    {
      "icao": "ENAL",
      "alert": "OK",
      "vis_m": 9999,
      "fzfg": false,
      "metar_trigger": false,
      "taf_trigger": false,
      "metar": "METAR ENAL 201120Z 30006KT 270V330 CAVOK 13/03 Q1031",
      "taf": "TAF ENAL 201100Z 2012/2021 30009KT 9999 SCT050"
    },
    {
      "icao": "ENBR",
      "alert": "OK",
      "vis_m": 9999,
      "fzfg": false,
      "metar_trigger": false,
      "taf_trigger": false,
      "metar": "METAR ENBR 201120Z 02007KT 350V050 CAVOK 13/M01 Q1029 NOSIG RMK WIND 1200FT 04008KT",
      "taf": "TAF ENBR 201100Z 2012/2112 33010KT CAVOK"
    },
    {
      "icao": "ENGM",
      "alert": "OK",
      "vis_m": 9999,
      "fzfg": false,
      "metar_trigger": false,
      "taf_trigger": false,
      "metar": "METAR ENGM 201120Z VRB05G15KT CAVOK 10/M03 Q1031 NOSIG",
      "taf": "TAF ENGM 201100Z 2012/2112 01007KT CAVOK"
    },
    {
      "icao": "ENHD",
      "alert": "OK",
      "vis_m": 9999,
      "fzfg": false,
      "metar_trigger": false,
      "taf_trigger": false,
      "metar": "METAR ENHD 201120Z 08006KT 050V110 CAVOK 12/M02 Q1030",
      "taf": "TAF ENHD 201100Z 2012/2021 VRB05KT CAVOK"
    },
    {
      "icao": "ENTC",
      "alert": "OK",
      "vis_m": 9999,
      "fzfg": false,
      "metar_trigger": false,
      "taf_trigger": false,
      "metar": "METAR ENTC 201120Z 20011KT 9999 FEW062 12/M01 Q1028 NOSIG RMK WIND 2600FT 22014KT",
      "taf": "TAF ENTC 201100Z 2012/2112 22008KT 9999 SCT040"
    },
    {
      "icao": "ENTO",
      "alert": "OK",
      "vis_m": 9999,
      "fzfg": false,
      "metar_trigger": false,
      "taf_trigger": false,
      "metar": "METAR ENTO 201120Z 03010KT 360V070 CAVOK 09/M00 Q1031 NOSIG",
      "taf": "TAF ENTO 201100Z 2012/2112 04010KT CAVOK"
    },
    {
      "icao": "ENVA",
      "alert": "OK",
      "vis_m": 9999,
      "fzfg": false,
      "metar_trigger": false,
      "taf_trigger": false,
      "metar": "METAR ENVA 201120Z 30006KT CAVOK 16/00 Q1030 NOSIG RMK WIND 670FT 30008KT",
      "taf": "TAF ENVA 201100Z 2012/2112 26008KT CAVOK"
    },
    {
      "icao": "ENZV",
      "alert": "OK",
      "vis_m": 9999,
      "fzfg": false,
      "metar_trigger": false,
      "taf_trigger": false,
      "metar": "METAR ENZV 201120Z 07006KT 010V100 CAVOK 12/M04 Q1029 NOSIG",
      "taf": ""
    },
    {
      "icao": "EPGD",
      "alert": "OK",
      "vis_m": 9999,
      "fzfg": false,
      "metar_trigger": false,
      "taf_trigger": false,
      "metar": "METAR EPGD 201130Z 05016KT CAVOK 07/M02 Q1020",
      "taf": "TAF EPGD 201130Z 2012/2112 06016KT CAVOK"
    },
    {
      "icao": "EPKK",
      "alert": "OK",
      "vis_m": 9999,
      "fzfg": false,
      "metar_trigger": false,
      "taf_trigger": false,
      "metar": "METAR EPKK 201130Z 29009KT 9999 BKN026 10/03 Q1013",
      "taf": "TAF EPKK 201130Z 2012/2112 28010KT 9999 BKN030"
    },
    {
      "icao": "EPKT",
      "alert": "OK",
      "vis_m": 9999,
      "fzfg": false,
      "metar_trigger": false,
      "taf_trigger": false,
      "metar": "METAR EPKT 201130Z 30009KT 280V350 9999 BKN024 08/03 Q1013",
      "taf": "TAF EPKT 201130Z 2012/2112 31010KT 9999 BKN020"
    },
    {
      "icao": "EPLB",
      "alert": "OK",
      "vis_m": 9999,
      "fzfg": false,
      "metar_trigger": false,
      "taf_trigger": false,
      "metar": "METAR EPLB 201130Z 06016KT 9999 BKN037 09/03 Q1014",
      "taf": "TAF EPLB 201130Z 2012/2112 08014KT 9999 BKN040"
    },
    {
      "icao": "EPMO",
      "alert": "OK",
      "vis_m": 9999,
      "fzfg": false,
      "metar_trigger": false,
      "taf_trigger": false,
      "metar": "METAR EPMO 201130Z 07014KT 040V100 CAVOK 14/01 Q1015",
      "taf": "TAF EPMO 201130Z 2012/2112 06014KT CAVOK"
    },
    {
      "icao": "EPPO",
      "alert": "OK",
      "vis_m": 9999,
      "fzfg": false,
      "metar_trigger": false,
      "taf_trigger": false,
      "metar": "METAR EPPO 201130Z 08011KT 9999 -RA OVC029 09/05 Q1015",
      "taf": "TAF EPPO 201130Z 2012/2112 07010KT 9999 OVC030"
    },
    {
      "icao": "EPRA",
      "alert": "OK",
      "vis_m": 9999,
      "fzfg": false,
      "metar_trigger": false,
      "taf_trigger": false,
      "metar": "METAR EPRA 201130Z 11007KT 080V150 9999 BKN037 10/02 Q1013",
      "taf": "TAF EPRA 201130Z 2012/2021 10010KT 9999 BKN040"
    },
    {
      "icao": "EPRZ",
      "alert": "OK",
      "vis_m": 6000,
      "fzfg": false,
      "metar_trigger": false,
      "taf_trigger": false,
      "metar": "METAR EPRZ 201130Z 28009KT 6000 -RA BKN004 07/06 Q1013",
      "taf": "TAF EPRZ 201130Z 2012/2112 28012KT 8000 -RA BKN005"
    },
    {
      "icao": "EPSC",
      "alert": "OK",
      "vis_m": 9999,
      "fzfg": false,
      "metar_trigger": false,
      "taf_trigger": false,
      "metar": "METAR EPSC 201130Z 06010KT 340V100 CAVOK 14/M01 Q1016",
      "taf": "TAF EPSC 201130Z 2012/2112 03012KT CAVOK"
    },
    {
      "icao": "EPSY",
      "alert": "OK",
      "vis_m": 9999,
      "fzfg": false,
      "metar_trigger": false,
      "taf_trigger": false,
      "metar": "METAR EPSY 201130Z 07012KT 010V100 CAVOK 11/M06 Q1017",
      "taf": "TAF EPSY 201130Z 2012/2021 09012KT CAVOK"
    },
    {
      "icao": "EPWA",
      "alert": "OK",
      "vis_m": 9999,
      "fzfg": false,
      "metar_trigger": false,
      "taf_trigger": false,
      "metar": "METAR EPWA 201130Z 09014KT CAVOK 13/M01 Q1014 NOSIG",
      "taf": "TAF EPWA 201130Z 2012/2112 06014KT CAVOK"
    },
    {
      "icao": "EPWR",
      "alert": "OK",
      "vis_m": 9999,
      "fzfg": false,
      "metar_trigger": false,
      "taf_trigger": false,
      "metar": "METAR EPWR 201130Z 29010KT 9999 BKN020 09/05 Q1014",
      "taf": "TAF EPWR 201130Z 2012/2112 28008KT 9999 SCT013 BKN020"
    },
    {
      "icao": "ESGG",
      "alert": "OK",
      "vis_m": 9999,
      "fzfg": false,
      "metar_trigger": false,
      "taf_trigger": false,
      "metar": "METAR ESGG 201120Z 06013KT 020V090 CAVOK 12/M05 Q1027",
      "taf": "TAF ESGG 201130Z 2012/2112 06014G24KT CAVOK"
    },
    {
      "icao": "ESKN",
      "alert": "OK",
      "vis_m": 9999,
      "fzfg": false,
      "metar_trigger": false,
      "taf_trigger": false,
      "metar": "METAR ESKN 201120Z 04010KT 360V060 CAVOK 12/M03 Q1028",
      "taf": "TAF ESKN 201130Z 2012/2112 03012KT CAVOK"
    },
    {
      "icao": "ESMS",
      "alert": "OK",
      "vis_m": 9999,
      "fzfg": false,
      "metar_trigger": false,
      "taf_trigger": false,
      "metar": "METAR ESMS 201120Z 07022KT CAVOK 08/M04 Q1023",
      "taf": "TAF ESMS 201127Z 2012/2112 07020KT CAVOK"
    },
    {
      "icao": "ESSA",
      "alert": "OK",
      "vis_m": 9999,
      "fzfg": false,
      "metar_trigger": false,
      "taf_trigger": false,
      "metar": "METAR ESSA 201120Z 03014KT CAVOK 11/M04 Q1028 NOSIG",
      "taf": "TAF ESSA 201130Z 2012/2112 03012KT CAVOK"
    },
    {
      "icao": "EYKA",
      "alert": "OK",
      "vis_m": 9999,
      "fzfg": false,
      "metar_trigger": false,
      "taf_trigger": false,
      "metar": "METAR EYKA 201120Z 36009KT CAVOK 11/M05 Q1019",
      "taf": "TAF EYKA 201100Z 2012/2112 VRB04KT 9000 NSC"
    },
    {
      "icao": "EYPA",
      "alert": "OK",
      "vis_m": 9999,
      "fzfg": false,
      "metar_trigger": false,
      "taf_trigger": false,
      "metar": "METAR EYPA 201120Z 07011KT 010V100 CAVOK 11/M09 Q1022",
      "taf": "TAF EYPA 201100Z 2012/2112 04010KT 9000 NSC"
    },
    {
      "icao": "EYVI",
      "alert": "OK",
      "vis_m": 9999,
      "fzfg": false,
      "metar_trigger": false,
      "taf_trigger": false,
      "metar": "METAR EYVI 201120Z 04010KT CAVOK 11/M07 Q1017 NOSIG",
      "taf": "TAF EYVI 201100Z 2012/2112 03010KT 9000 NSC"
    },
    {
      "icao": "GCFV",
      "alert": "OK",
      "vis_m": 7000,
      "fzfg": false,
      "metar_trigger": false,
      "taf_trigger": false,
      "metar": "METAR GCFV 201130Z 09011KT 7000 NSC 22/18 Q1009",
      "taf": "TAF GCFV 200800Z 2009/2109 09005KT 9999 FEW020 TX26/2014Z TN17/2106Z"
    },
    {
      "icao": "GCLP",
      "alert": "OK",
      "vis_m": 9000,
      "fzfg": false,
      "metar_trigger": false,
      "taf_trigger": false,
      "metar": "METAR GCLP 201130Z 09006KT 9000 FEW015 BKN022 21/16 Q1009 NOSIG",
      "taf": "TAF GCLP 200800Z 2009/2109 06008KT 9999 FEW015 TX24/2014Z TN17/2106Z"
    },
    {
      "icao": "GCTS",
      "alert": "OK",
      "vis_m": 9999,
      "fzfg": false,
      "metar_trigger": false,
      "taf_trigger": false,
      "metar": "METAR GCTS 201130Z 17006KT 130V230 CAVOK 21/14 Q1009 NOSIG",
      "taf": "TAF GCTS 200800Z 2009/2109 18004KT 9999 FEW020 TX26/2014Z TN16/2106Z"
    },
    {
      "icao": "GMAD",
      "alert": "OK",
      "vis_m": 8000,
      "fzfg": false,
      "metar_trigger": false,
      "taf_trigger": false,
      "metar": "METAR GMAD 201130Z 14007KT 080V180 8000 NSC 35/02 Q1008 NOSIG",
      "taf": "TAF GMAD 201100Z 2012/2118 28010KT 8000 NSC"
    },
    {
      "icao": "GMMN",
      "alert": "OK",
      "vis_m": 9999,
      "fzfg": false,
      "metar_trigger": false,
      "taf_trigger": false,
      "metar": "METAR GMMN 201130Z VRB03KT CAVOK 33/14 Q1010 NOSIG",
      "taf": "TAF GMMN 201100Z 2012/2118 12005KT CAVOK"
    },
    {
      "icao": "GMMX",
      "alert": "OK",
      "vis_m": 9999,
      "fzfg": false,
      "metar_trigger": false,
      "taf_trigger": false,
      "metar": "METAR GMMX 201130Z 09005KT 010V150 9999 FEW033 32/09 Q1010 NOSIG",
      "taf": "TAF GMMX 201100Z 2012/2118 08006KT CAVOK"
    },
    {
      "icao": "HEGN",
      "alert": "OK",
      "vis_m": 5000,
      "fzfg": false,
      "metar_trigger": false,
      "taf_trigger": false,
      "metar": "METAR HEGN 201100Z 35021KT 5000 SA NSC 28/13 Q1010 TEMPO4000",
      "taf": "TAF HEGN 201100Z 2012/2118 35018G28KT 6000 NSC"
    },
    {
      "icao": "HEMA",
      "alert": "OK",
      "vis_m": 9999,
      "fzfg": false,
      "metar_trigger": false,
      "taf_trigger": false,
      "metar": "METAR HEMA 201100Z 33018KT CAVOK 30/13 Q1010 NOSIG",
      "taf": "TAF HEMA 201100Z 2012/2118 36018G28KT CAVOK"
    },
    {
      "icao": "HESH",
      "alert": "OK",
      "vis_m": 9999,
      "fzfg": false,
      "metar_trigger": false,
      "taf_trigger": false,
      "metar": "METAR HESH 201100Z 01010KT CAVOK 30/12 Q1010 NOSIG",
      "taf": "TAF HESH 201100Z 2012/2118 02014KT CAVOK"
    },
    {
      "icao": "HESX",
      "alert": "OK",
      "vis_m": 9999,
      "fzfg": false,
      "metar_trigger": false,
      "taf_trigger": false,
      "metar": "METAR HESX 201100Z 36011KT CAVOK 24/06 Q1014 NOSIG",
      "taf": "TAF HESX 201100Z 2012/2118 32015KT CAVOK"
    },
    {
      "icao": "LATI",
      "alert": "OK",
      "vis_m": null,
      "fzfg": false,
      "metar_trigger": false,
      "taf_trigger": false,
      "metar": "",
      "taf": "TAF LATI 201100Z 2012/2112 25014KT 9999 FEW040 BKN080 TX23/2012Z TN13/2104Z"
    },
    {
      "icao": "LBPD",
      "alert": "OK",
      "vis_m": 9999,
      "fzfg": false,
      "metar_trigger": false,
      "taf_trigger": false,
      "metar": "METAR LBPD 201130Z AUTO 12006KT 080V160 9999 SCT120/// 22/09 Q1010 NOSIG",
      "taf": "TAF LBPD 201100Z 2012/2112 23010KT 9999 SCT060"
    },
    {
      "icao": "LBSF",
      "alert": "OK",
      "vis_m": 9999,
      "fzfg": false,
      "metar_trigger": false,
      "taf_trigger": false,
      "metar": "METAR LBSF 201130Z 31009KT 270V350 9999 FEW077 19/03 Q1012 NOSIG",
      "taf": "TAF LBSF 201100Z 2012/2112 32014KT 9999 SCT050"
    },
    {
      "icao": "LBWN",
      "alert": "OK",
      "vis_m": 9999,
      "fzfg": false,
      "metar_trigger": false,
      "taf_trigger": false,
      "metar": "METAR LBWN 201130Z 15016KT 9999 FEW045 20/07 Q1010 NOSIG",
      "taf": "TAF LBWN 201100Z 2012/2112 14014KT 9999 SCT040 BKN060"
    },
    {
      "icao": "LCLK",
      "alert": "OK",
      "vis_m": 9999,
      "fzfg": false,
      "metar_trigger": false,
      "taf_trigger": false,
      "metar": "METAR LCLK 201130Z 18013KT 9999 FEW030 SCT045 23/16 Q1010 NOSIG",
      "taf": "TAF LCLK 201130Z 2012/2112 20014KT 9999 FEW030"
    },
    {
      "icao": "LCPH",
      "alert": "OK",
      "vis_m": 9999,
      "fzfg": false,
      "metar_trigger": false,
      "taf_trigger": false,
      "metar": "METAR LCPH 201130Z 31015KT 250V320 9999 FEW025 21/13 Q1011 NOSIG",
      "taf": "TAF LCPH 201130Z 2012/2112 29015KT 9999 FEW025"
    },
    {
      "icao": "LEAL",
      "alert": "OK",
      "vis_m": 9999,
      "fzfg": false,
      "metar_trigger": false,
      "taf_trigger": false,
      "metar": "METAR LEAL 201130Z 20005KT 150V280 CAVOK 26/09 Q1013 NOSIG",
      "taf": "TAF LEAL 201100Z 2012/2112 VRB04KT CAVOK TX25/2012Z TN12/2106Z"
    },
    {
      "icao": "LEBB",
      "alert": "OK",
      "vis_m": 9999,
      "fzfg": false,
      "metar_trigger": false,
      "taf_trigger": false,
      "metar": "METAR LEBB 201130Z 28009KT 240V300 CAVOK 21/17 Q1012 NOSIG",
      "taf": "TAF LEBB 201100Z 2012/2112 31009KT 9999 FEW010 TX29/2112Z TN12/2106Z"
    },
    {
      "icao": "LEBL",
      "alert": "OK",
      "vis_m": 9999,
      "fzfg": false,
      "metar_trigger": false,
      "taf_trigger": false,
      "metar": "METAR LEBL 201130Z 20015KT 9999 FEW045 19/15 Q1013 NOSIG",
      "taf": "TAF LEBL 201100Z 2012/2112 20008KT 9999 FEW015 TX21/2012Z TN13/2106Z"
    },
    {
      "icao": "LECH",
      "alert": "OK",
      "vis_m": 9999,
      "fzfg": false,
      "metar_trigger": false,
      "taf_trigger": false,
      "metar": "METAR LECH 201130Z AUTO 09009KT 060V140 9999 VCTS //////CB 23/13 Q1013",
      "taf": ""
    },
    {
      "icao": "LEMD",
      "alert": "OK",
      "vis_m": 9999,
      "fzfg": false,
      "metar_trigger": false,
      "taf_trigger": false,
      "metar": "METAR LEMD 201130Z 18003KT 110V260 CAVOK 25/07 Q1014 NOSIG",
      "taf": "TAF LEMD 201100Z 2012/2118 VRB04KT CAVOK TX29/2016Z TN11/2106Z"
    },
    {
      "icao": "LEMG",
      "alert": "OK",
      "vis_m": 9999,
      "fzfg": false,
      "metar_trigger": false,
      "taf_trigger": false,
      "metar": "METAR LEMG 201130Z 13006KT 100V180 CAVOK 22/06 Q1014 NOSIG",
      "taf": "TAF LEMG 201100Z 2012/2112 13010KT CAVOK TX25/2014Z TN11/2106Z"
    },
    {
      "icao": "LEVC",
      "alert": "OK",
      "vis_m": 9999,
      "fzfg": false,
      "metar_trigger": false,
      "taf_trigger": false,
      "metar": "METAR LEVC 201130Z 14008KT 050V210 CAVOK 25/11 Q1012 NOSIG",
      "taf": "TAF LEVC 201100Z 2012/2112 VRB04KT CAVOK TX29/2012Z TN13/2106Z"
    },
    {
      "icao": "LEXJ",
      "alert": "OK",
      "vis_m": 8000,
      "fzfg": false,
      "metar_trigger": false,
      "taf_trigger": false,
      "metar": "METAR LEXJ 201130Z 07005KT 8000 NSC 17/15 Q1013",
      "taf": "TAF LEXJ 200800Z 2009/2109 06009KT 9999 SCT005 TX19/2013Z TN13/2105Z"
    },
    {
      "icao": "LEZG",
      "alert": "OK",
      "vis_m": 9999,
      "fzfg": false,
      "metar_trigger": false,
      "taf_trigger": false,
      "metar": "METAR LEZG 201130Z 08002KT CAVOK 24/11 Q1012 NOSIG",
      "taf": "TAF LEZG 201100Z 2012/2112 10006KT CAVOK TX31/2015Z TN14/2106Z"
    },
    {
      "icao": "LEZL",
      "alert": "OK",
      "vis_m": 9999,
      "fzfg": false,
      "metar_trigger": false,
      "taf_trigger": false,
      "metar": "METAR LEZL 201130Z 12006KT 060V170 CAVOK 28/09 Q1011 NOSIG",
      "taf": "TAF LEZL 200800Z 2009/2109 06005KT CAVOK TX31/2015Z TN14/2106Z"
    },
    {
      "icao": "LFBD",
      "alert": "OK",
      "vis_m": 9999,
      "fzfg": false,
      "metar_trigger": false,
      "taf_trigger": false,
      "metar": "METAR LFBD 201130Z AUTO 03005KT 340V100 CAVOK 22/08 Q1013 NOSIG",
      "taf": "TAF LFBD 201100Z 2012/2118 03010KT CAVOK TX28/2115Z TN12/2105Z"
    },
    {
      "icao": "LFLL",
      "alert": "OK",
      "vis_m": 9999,
      "fzfg": false,
      "metar_trigger": false,
      "taf_trigger": false,
      "metar": "METAR LFLL 201130Z 33008KT 300V360 CAVOK 17/04 Q1015 NOSIG",
      "taf": "TAF LFLL 201100Z 2012/2118 35008KT CAVOK"
    },
    {
      "icao": "LFLS",
      "alert": "OK",
      "vis_m": 9999,
      "fzfg": false,
      "metar_trigger": false,
      "taf_trigger": false,
      "metar": "METAR LFLS 201130Z AUTO /////KT 9999 // FEW037 17/07 Q1015",
      "taf": "TAF LFLS 200800Z 2009/2109 VRB03KT CAVOK"
    },
    {
      "icao": "LFMN",
      "alert": "OK",
      "vis_m": 9999,
      "fzfg": false,
      "metar_trigger": false,
      "taf_trigger": false,
      "metar": "METAR LFMN 201130Z 16006KT 9999 BKN030 20/14 Q1012 NOSIG",
      "taf": "TAF LFMN 200800Z 2009/2115 17005KT 9999 BKN030"
    },
    {
      "icao": "LFOB",
      "alert": "OK",
      "vis_m": 9999,
      "fzfg": false,
      "metar_trigger": false,
      "taf_trigger": false,
      "metar": "METAR LFOB 201130Z AUTO 04012KT 020V080 9999 BKN043 BKN049 12/03 Q1021 NOSIG",
      "taf": "TAF LFOB 201100Z 2012/2112 04012KT 9999 SCT045"
    },
    {
      "icao": "LFPO",
      "alert": "OK",
      "vis_m": 9999,
      "fzfg": false,
      "metar_trigger": false,
      "taf_trigger": false,
      "metar": "METAR LFPO 201130Z 04008KT 350V090 9999 FEW043 SCT240 14/04 Q1020 NOSIG",
      "taf": "TAF LFPO 200500Z 2006/2112 03010KT CAVOK"
    },
    {
      "icao": "LFSB",
      "alert": "OK",
      "vis_m": 9999,
      "fzfg": false,
      "metar_trigger": false,
      "taf_trigger": false,
      "metar": "METAR LFSB 201130Z AUTO 35008KT 300V040 CAVOK 16/03 Q1017 NOSIG",
      "taf": "TAF LFSB 201100Z 2012/2112 36007KT 9999 FEW050"
    },
    {
      "icao": "LGAV",
      "alert": "OK",
      "vis_m": 9999,
      "fzfg": false,
      "metar_trigger": false,
      "taf_trigger": false,
      "metar": "METAR LGAV 201120Z 21014KT 9999 FEW030 23/10 Q1014 NOSIG",
      "taf": "TAF LGAV 201100Z 2012/2112 VRB05KT 9999 FEW025"
    },
    {
      "icao": "LGTS",
      "alert": "OK",
      "vis_m": 9999,
      "fzfg": false,
      "metar_trigger": false,
      "taf_trigger": false,
      "metar": "METAR LGTS 201120Z 28006KT 9999 FEW025 20/14 Q1013 NOSIG",
      "taf": "TAF LGTS 201100Z 2012/2112 VRB03KT 9999 FEW030"
    },
    {
      "icao": "LHBP",
      "alert": "OK",
      "vis_m": 9999,
      "fzfg": false,
      "metar_trigger": false,
      "taf_trigger": false,
      "metar": "METAR LHBP 201130Z 30021KT 9999 BLDU NSC 17/01 Q1012 TEMPO CAVOK",
      "taf": "TAF LHBP 201115Z 2012/2112 31017G27KT CAVOK"
    },
    {
      "icao": "LHDC",
      "alert": "OK",
      "vis_m": 9999,
      "fzfg": false,
      "metar_trigger": false,
      "taf_trigger": false,
      "metar": "METAR LHDC 201115Z AUTO VRB04KT 9999 FEW041 SCT066 //////TCU 17/07 Q1010 NOSIG",
      "taf": "TAF LHDC 201115Z 2012/2021 VRB03KT CAVOK"
    },
    {
      "icao": "LIBD",
      "alert": "OK",
      "vis_m": 9999,
      "fzfg": false,
      "metar_trigger": false,
      "taf_trigger": false,
      "metar": "METAR LIBD 201120Z 02008KT CAVOK 20/11 Q1013",
      "taf": "TAF LIBD 201100Z 2012/2112 VRB06KT CAVOK"
    },
    {
      "icao": "LIBG",
      "alert": "OK",
      "vis_m": 9999,
      "fzfg": false,
      "metar_trigger": false,
      "taf_trigger": false,
      "metar": "METAR LIBG 201050Z 21004KT 160V300 9999 FEW040 23/12 Q1014",
      "taf": "TAF LIBG 201100Z 2012/2021 VRB05KT 8000 FEW050"
    },
    {
      "icao": "LIBP",
      "alert": "OK",
      "vis_m": 9999,
      "fzfg": false,
      "metar_trigger": false,
      "taf_trigger": false,
      "metar": "METAR LIBP 201120Z AUTO 04006KT 360V070 9999 FEW100/// BKN150/// 20/13 Q1012",
      "taf": "TAF LIBP 201100Z 2012/2112 VRB06KT 9999 FEW040"
    },
    {
      "icao": "LIBR",
      "alert": "OK",
      "vis_m": 9999,
      "fzfg": false,
      "metar_trigger": false,
      "taf_trigger": false,
      "metar": "METAR LIBR 201120Z 08008KT 9999 FEW040 20/12 Q1014",
      "taf": "TAF LIBR 201100Z 2012/2112 20014KT 9999 FEW040"
    },
    {
      "icao": "LICA",
      "alert": "OK",
      "vis_m": 9999,
      "fzfg": false,
      "metar_trigger": false,
      "taf_trigger": false,
      "metar": "METAR LICA 201120Z AUTO 26011KT 9999 NCD 20/15 Q1016",
      "taf": "TAF LICA 201100Z 2012/2112 25012KT 9999 FEW012"
    },
    {
      "icao": "LICC",
      "alert": "OK",
      "vis_m": 9999,
      "fzfg": false,
      "metar_trigger": false,
      "taf_trigger": false,
      "metar": "METAR LICC 201120Z 09009KT CAVOK 21/17 Q1015",
      "taf": "TAF LICC 201100Z 2012/2112 10010KT CAVOK"
    },
    {
      "icao": "LICJ",
      "alert": "OK",
      "vis_m": 9999,
      "fzfg": false,
      "metar_trigger": false,
      "taf_trigger": false,
      "metar": "METAR LICJ 201120Z 01006KT CAVOK 19/14 Q1016",
      "taf": "TAF LICJ 201100Z 2012/2112 02010KT CAVOK"
    },
    {
      "icao": "LIMC",
      "alert": "OK",
      "vis_m": 9999,
      "fzfg": false,
      "metar_trigger": false,
      "taf_trigger": false,
      "metar": "METAR LIMC 201120Z 15005KT 120V200 9999 BKN040 20/13 Q1012 NOSIG",
      "taf": "TAF LIMC 201100Z 2012/2118 VRB06KT 9999 SCT025 SCT070"
    },
    {
      "icao": "LIME",
      "alert": "OK",
      "vis_m": 9999,
      "fzfg": false,
      "metar_trigger": false,
      "taf_trigger": false,
      "metar": "METAR LIME 201120Z VRB03KT 9999 FEW030 19/12 Q1012 NOSIG",
      "taf": "TAF LIME 201100Z 2012/2112 VRB05KT 9999 FEW040"
    },
    {
      "icao": "LIMF",
      "alert": "OK",
      "vis_m": 9999,
      "fzfg": false,
      "metar_trigger": false,
      "taf_trigger": false,
      "metar": "METAR LIMF 201120Z 09005KT 030V150 9999 FEW030 20/11 Q1012",
      "taf": "TAF LIMF 201100Z 2012/2112 VRB05KT CAVOK"
    },
    {
      "icao": "LIMJ",
      "alert": "OK",
      "vis_m": 9999,
      "fzfg": false,
      "metar_trigger": false,
      "taf_trigger": false,
      "metar": "METAR LIMJ 201120Z 12011KT 9999 FEW009 BKN015 18/14 Q1013",
      "taf": "TAF LIMJ 201100Z 2012/2112 14010KT 9999 FEW010 BKN015"
    },
    {
      "icao": "LIPE",
      "alert": "OK",
      "vis_m": 9999,
      "fzfg": false,
      "metar_trigger": false,
      "taf_trigger": false,
      "metar": "METAR LIPE 201120Z VRB04KT CAVOK 20/14 Q1012",
      "taf": "TAF LIPE 201100Z 2012/2112 VRB05KT 9999 SCT030"
    },
    {
      "icao": "LIPH",
      "alert": "OK",
      "vis_m": 9999,
      "fzfg": false,
      "metar_trigger": false,
      "taf_trigger": false,
      "metar": "METAR LIPH 201120Z 03005KT 330V130 9999 FEW030 20/12 Q1013",
      "taf": "TAF LIPH 201100Z 2012/2112 VRB06KT 9999 SCT035"
    },
    {
      "icao": "LIPQ",
      "alert": "OK",
      "vis_m": 9999,
      "fzfg": false,
      "metar_trigger": false,
      "taf_trigger": false,
      "metar": "METAR LIPQ 201120Z AUTO 27006KT 220V290 9999 FEW031/// 19/11 Q1013",
      "taf": "TAF LIPQ 201100Z 2012/2112 VRB05KT 9999 SCT030"
    },
    {
      "icao": "LIPR",
      "alert": "OK",
      "vis_m": 9999,
      "fzfg": false,
      "metar_trigger": false,
      "taf_trigger": false,
      "metar": "METAR LIPR 201120Z 09006KT 040V110 9999 SCT060 19/12 Q1012",
      "taf": "TAF LIPR 201100Z 2012/2112 VRB06KT 9999 SCT040"
    },
    {
      "icao": "LIPX",
      "alert": "OK",
      "vis_m": 9999,
      "fzfg": false,
      "metar_trigger": false,
      "taf_trigger": false,
      "metar": "METAR LIPX 201120Z 12006KT 080V160 9999 FEW035 20/11 Q1012",
      "taf": "TAF LIPX 201100Z 2012/2112 10007KT 9999 FEW040"
    },
    {
      "icao": "LIPY",
      "alert": "OK",
      "vis_m": 9999,
      "fzfg": false,
      "metar_trigger": false,
      "taf_trigger": false,
      "metar": "METAR LIPY 201120Z AUTO 15004KT 100V210 9999 BKN078/// BKN120/// 24/11 Q1012",
      "taf": "TAF LIPY 201100Z 2012/2112 VRB06KT 8000 FEW040"
    },
    {
      "icao": "LIPZ",
      "alert": "OK",
      "vis_m": 9999,
      "fzfg": false,
      "metar_trigger": false,
      "taf_trigger": false,
      "metar": "METAR LIPZ 201120Z 13005KT 090V160 CAVOK 19/12 Q1013 NOSIG",
      "taf": "TAF LIPZ 201100Z 2012/2118 12012KT 9999 FEW050"
    },
    {
      "icao": "LIRF",
      "alert": "OK",
      "vis_m": 9999,
      "fzfg": false,
      "metar_trigger": false,
      "taf_trigger": false,
      "metar": "METAR LIRF 201120Z 17009KT 9999 FEW020 21/14 Q1014 NOSIG",
      "taf": "TAF LIRF 201100Z 2012/2118 17010KT 9999 FEW015"
    },
    {
      "icao": "LIRN",
      "alert": "OK",
      "vis_m": 9999,
      "fzfg": false,
      "metar_trigger": false,
      "taf_trigger": false,
      "metar": "METAR LIRN 201120Z 21013KT CAVOK 20/13 Q1015 NOSIG",
      "taf": "TAF LIRN 201100Z 2012/2112 20010KT 9999 FEW015"
    },
    {
      "icao": "LIRP",
      "alert": "OK",
      "vis_m": 9999,
      "fzfg": false,
      "metar_trigger": false,
      "taf_trigger": false,
      "metar": "METAR LIRP 201115Z 21004KT 9999 SCT040 21/11 Q1013 NOSIG",
      "taf": "TAF LIRP 201100Z 2012/2112 25010KT 9999 SCT030"
    },
    {
      "icao": "LIRZ",
      "alert": "OK",
      "vis_m": 9999,
      "fzfg": false,
      "metar_trigger": false,
      "taf_trigger": false,
      "metar": "METAR LIRZ 201120Z AUTO VRB02KT 9999 FEW100/// 20/11 Q1013",
      "taf": "TAF LIRZ 201100Z 2012/2112 21012KT 9999 SCT060"
    },
    {
      "icao": "LJLJ",
      "alert": "OK",
      "vis_m": 9999,
      "fzfg": false,
      "metar_trigger": false,
      "taf_trigger": false,
      "metar": "METAR LJLJ 201130Z 11007KT 9999 VCTS FEW013 FEW035CB BKN200 14/10 Q1013 NOSIG",
      "taf": "TAF LJLJ 201100Z 2012/2112 11007KT 9999 FEW020 BKN040"
    },
    {
      "icao": "LKMT",
      "alert": "OK",
      "vis_m": 9999,
      "fzfg": false,
      "metar_trigger": false,
      "taf_trigger": false,
      "metar": "METAR LKMT 201130Z 23008KT 9999 VCSH SCT038 OVC045 10/04 Q1013 NOSIG",
      "taf": "TAF LKMT 201100Z 2012/2112 02008KT 9999 BKN040"
    },
    {
      "icao": "LKPR",
      "alert": "OK",
      "vis_m": 9999,
      "fzfg": false,
      "metar_trigger": false,
      "taf_trigger": false,
      "metar": "METAR LKPR 201130Z 28013KT 9999 -RA FEW033 BKN046 08/02 Q1014 NOSIG",
      "taf": "TAF LKPR 201100Z 2012/2118 28012KT 9999 SCT020 BKN040"
    },
    {
      "icao": "LLBG",
      "alert": "OK",
      "vis_m": 9999,
      "fzfg": false,
      "metar_trigger": false,
      "taf_trigger": false,
      "metar": "METAR LLBG 201120Z 26014KT 230V290 9999 SCT040 21/09 Q1012 NOSIG",
      "taf": "TAF LLBG 201107Z 2012/2112 26013KT 9999 SCT040 TX21/2012Z TN14/2103Z"
    },
    {
      "icao": "LMML",
      "alert": "OK",
      "vis_m": 9999,
      "fzfg": false,
      "metar_trigger": false,
      "taf_trigger": false,
      "metar": "METAR LMML 201145Z 22009KT 200V260 9999 FEW025 20/14 Q1017 NOSIG",
      "taf": "TAF LMML 201100Z 2012/2112 24007KT 9999 FEW015"
    },
    {
      "icao": "LOWW",
      "alert": "OK",
      "vis_m": 9999,
      "fzfg": false,
      "metar_trigger": false,
      "taf_trigger": false,
      "metar": "METAR LOWW 201120Z 33007KT 270V350 9999 FEW048 BKN050 13/04 Q1014 TEMPO 32020G30KT",
      "taf": "TAF LOWW 201115Z 2012/2118 33011KT 9999 SCT050 TX16/2014Z TN07/2104Z"
    },
    {
      "icao": "LPFR",
      "alert": "OK",
      "vis_m": 9999,
      "fzfg": false,
      "metar_trigger": false,
      "taf_trigger": false,
      "metar": "METAR LPFR 201130Z 10012KT CAVOK 23/12 Q1012",
      "taf": "TAF LPFR 201100Z 2012/2112 11013KT CAVOK"
    },
    {
      "icao": "LPMA",
      "alert": "OK",
      "vis_m": 9999,
      "fzfg": false,
      "metar_trigger": false,
      "taf_trigger": false,
      "metar": "METAR LPMA 201130Z 05006KT 020V120 9999 FEW013 21/14 Q1004",
      "taf": "TAF LPMA 201100Z 2012/2112 02010KT 9999 SCT015"
    },
    {
      "icao": "LPPR",
      "alert": "OK",
      "vis_m": 9999,
      "fzfg": false,
      "metar_trigger": false,
      "taf_trigger": false,
      "metar": "METAR LPPR 201130Z 28005KT 240V340 CAVOK 16/11 Q1012",
      "taf": "TAF LPPR 201100Z 2012/2112 30007KT CAVOK"
    },
    {
      "icao": "LPPS",
      "alert": "OK",
      "vis_m": 9999,
      "fzfg": false,
      "metar_trigger": false,
      "taf_trigger": false,
      "metar": "METAR LPPS 201130Z 29017KT 9999 FEW010 19/15 Q1004",
      "taf": "TAF LPPS 201100Z 2012/2118 27013KT 9999 SCT015"
    },
    {
      "icao": "LPPT",
      "alert": "OK",
      "vis_m": 9999,
      "fzfg": false,
      "metar_trigger": false,
      "taf_trigger": false,
      "metar": "METAR LPPT 201130Z VRB06G22KT CAVOK 21/13 Q1011",
      "taf": "TAF LPPT 201100Z 2012/2118 10005KT CAVOK"
    },
    {
      "icao": "LQBK",
      "alert": "OK",
      "vis_m": 9999,
      "fzfg": false,
      "metar_trigger": false,
      "taf_trigger": false,
      "metar": "METAR LQBK 201130Z 07008KT 030V110 9999 FEW030 16/06 Q1015 NOSIG",
      "taf": "TAF LQBK 201100Z 2012/2112 30005KT 9999 FEW020 SCT045 TX16/2014Z TN08/2104Z"
    },
    {
      "icao": "LQSA",
      "alert": "OK",
      "vis_m": 9999,
      "fzfg": false,
      "metar_trigger": false,
      "taf_trigger": false,
      "metar": "METAR LQSA 201130Z VRB04KT 9999 SCT065 16/05 Q1014 NOSIG",
      "taf": "TAF LQSA 201100Z 2012/2112 35006KT 9999 SCT055 TX18/2014Z TN08/2105Z"
    },
    {
      "icao": "LQTZ",
      "alert": "OK",
      "vis_m": 9999,
      "fzfg": false,
      "metar_trigger": false,
      "taf_trigger": false,
      "metar": "METAR LQTZ 201130Z VRB01KT 9999 SCT050 BKN063 14/08 Q1015",
      "taf": "TAF LQTZ 201100Z 2012/2112 36007KT 9999 BKN045 TX16/2013Z TN06/2104Z"
    },
    {
      "icao": "LRBC",
      "alert": "OK",
      "vis_m": 9999,
      "fzfg": false,
      "metar_trigger": false,
      "taf_trigger": false,
      "metar": "METAR LRBC 201130Z 17007KT 110V270 9999 -RA SCT030 BKN065 17/10 Q1007",
      "taf": "TAF LRBC 201100Z 2012/2021 16008KT 9999 SCT035"
    },
    {
      "icao": "LRBS",
      "alert": "OK",
      "vis_m": 9999,
      "fzfg": false,
      "metar_trigger": false,
      "taf_trigger": false,
      "metar": "METAR LRBS 201130Z 26014KT CAVOK 22/09 Q1008 NOSIG",
      "taf": "TAF LRBS 201100Z 2012/2112 24012KT CAVOK"
    },
    {
      "icao": "LRBV",
      "alert": "OK",
      "vis_m": 9999,
      "fzfg": false,
      "metar_trigger": false,
      "taf_trigger": false,
      "metar": "METAR LRBV 201130Z 29011KT 250V320 9999 OVC066 15/04 Q1009",
      "taf": "TAF LRBV 201100Z 2012/2021 30012KT CAVOK"
    },
    {
      "icao": "LRCL",
      "alert": "OK",
      "vis_m": 9999,
      "fzfg": false,
      "metar_trigger": false,
      "taf_trigger": false,
      "metar": "METAR LRCL 201130Z 33006KT 300V360 9999 -RA OVC038 13/09 Q1010",
      "taf": "TAF LRCL 201100Z 2012/2021 VRB03KT CAVOK"
    },
    {
      "icao": "LRCV",
      "alert": "OK",
      "vis_m": 9999,
      "fzfg": false,
      "metar_trigger": false,
      "taf_trigger": false,
      "metar": "METAR LRCV 201130Z 29017KT 9999 FEW038 19/06 Q1010",
      "taf": "TAF LRCV 201100Z 2012/2021 28016KT CAVOK"
    },
    {
      "icao": "LRIA",
      "alert": "OK",
      "vis_m": 9999,
      "fzfg": false,
      "metar_trigger": false,
      "taf_trigger": false,
      "metar": "METAR LRIA 201130Z 34003KT 270V020 9999 -RA NSC 15/08 Q1009",
      "taf": "TAF LRIA 201100Z 2012/2021 VRB04KT 9999 SCT035"
    },
    {
      "icao": "LROP",
      "alert": "OK",
      "vis_m": 9999,
      "fzfg": false,
      "metar_trigger": false,
      "taf_trigger": false,
      "metar": "METAR LROP 201130Z 23014KT CAVOK 23/05 Q1008 NOSIG",
      "taf": "TAF LROP 201100Z 2012/2112 24012KT CAVOK"
    },
    {
      "icao": "LRSB",
      "alert": "OK",
      "vis_m": 9999,
      "fzfg": false,
      "metar_trigger": false,
      "taf_trigger": false,
      "metar": "METAR LRSB 201130Z 30014KT 9999 -RA SCT035 OVC050 13/08 Q1010 NOSIG",
      "taf": "TAF LRSB 201100Z 2012/2112 31013KT CAVOK"
    },
    {
      "icao": "LRSM",
      "alert": "OK",
      "vis_m": 9999,
      "fzfg": false,
      "metar_trigger": false,
      "taf_trigger": false,
      "metar": "METAR LRSM 201130Z 32009KT 290V350 9999 FEW035CB BKN042 16/09 Q1010",
      "taf": "TAF LRSM 201100Z 2012/2021 31010KT 9999 SCT020 BKN035"
    },
    {
      "icao": "LRSV",
      "alert": "OK",
      "vis_m": 7000,
      "fzfg": false,
      "metar_trigger": false,
      "taf_trigger": false,
      "metar": "METAR LRSV 201130Z 02002KT 7000 -RA BKN040 10/09 Q1009",
      "taf": "TAF LRSV 201100Z 2012/2021 VRB04KT 9999 SCT045"
    },
    {
      "icao": "LRTM",
      "alert": "OK",
      "vis_m": 9999,
      "fzfg": false,
      "metar_trigger": false,
      "taf_trigger": false,
      "metar": "METAR LRTM 201130Z 07003KT 350V120 9999 -RA SCT045 15/08 Q1010",
      "taf": "TAF LRTM 201100Z 2012/2021 VRB04KT CAVOK"
    },
    {
      "icao": "LRTR",
      "alert": "OK",
      "vis_m": 9999,
      "fzfg": false,
      "metar_trigger": false,
      "taf_trigger": false,
      "metar": "METAR LRTR 201130Z 28009KT 250V310 9999 SCT036 16/06 Q1013",
      "taf": "TAF LRTR 201100Z 2012/2112 29010KT CAVOK"
    },
    {
      "icao": "LTAC",
      "alert": "OK",
      "vis_m": 9999,
      "fzfg": false,
      "metar_trigger": false,
      "taf_trigger": false,
      "metar": "METAR LTAC 201120Z VRB03KT 9999 SCT040 12/M02 Q1014 NOSIG RMK RWY21C 27005KT 150V320 RWY03L VRB05KT RWY21R VRB05KT RWY03R VRB03KT RWY21L VRB01KT",
      "taf": "TAF LTAC 201040Z 2012/2112 VRB02KT 9999 SCT040"
    },
    {
      "icao": "LTFM",
      "alert": "OK",
      "vis_m": 9999,
      "fzfg": false,
      "metar_trigger": false,
      "taf_trigger": false,
      "metar": "METAR LTFM 201120Z VRB06KT CAVOK 19/05 Q1014 NOSIG RMK RWY17L 09011KT RWY34L VRB05KT RWY16R 09010KT 070V130 RWY36 06011KT 340V080 RWY18 08010KT",
      "taf": "TAF LTFM 201040Z 2012/2118 VRB02KT CAVOK"
    },
    {
      "icao": "LUKK",
      "alert": "OK",
      "vis_m": 9999,
      "fzfg": false,
      "metar_trigger": false,
      "taf_trigger": false,
      "metar": "METAR LUKK 201130Z 16010KT 120V250 9999 VCTS -SHRA SCT045CB OVC096 17/09 Q1008 TEMPO VRB18G34KT 1500 TSRA BKN010 BKN020CB",
      "taf": "TAF LUKK 201124Z 2012/2112 VRB06KT 9999 SCT045"
    },
    {
      "icao": "LWOH",
      "alert": "OK",
      "vis_m": null,
      "fzfg": false,
      "metar_trigger": false,
      "taf_trigger": false,
      "metar": "",
      "taf": "TAF LWOH 201135Z 2012/2112 19012KT 9999 SCT045"
    },
    {
      "icao": "LWSK",
      "alert": "OK",
      "vis_m": 9999,
      "fzfg": false,
      "metar_trigger": false,
      "taf_trigger": false,
      "metar": "METAR LWSK 201120Z 21003KT 150V320 9999 FEW050 22/05 Q1012 NOSIG",
      "taf": "TAF LWSK 201135Z 2012/2112 24005KT 9999 SCT050"
    },
    {
      "icao": "LYBE",
      "alert": "OK",
      "vis_m": 9999,
      "fzfg": false,
      "metar_trigger": false,
      "taf_trigger": false,
      "metar": "METAR LYBE 201130Z 29009KT 9999 FEW030 SCT040 17/08 Q1015 NOSIG",
      "taf": "TAF LYBE 201100Z 2012/2112 29009KT 9999 SCT035 TX18/2013Z TN08/2104Z"
    },
    {
      "icao": "LYNI",
      "alert": "OK",
      "vis_m": 9999,
      "fzfg": false,
      "metar_trigger": false,
      "taf_trigger": false,
      "metar": "METAR LYNI 201130Z 33014KT 300V010 9999 FEW030 16/09 Q1014 NOSIG",
      "taf": "TAF LYNI 201100Z 2012/2112 32012KT 9999 SCT040 TX16/2012Z TN05/2104Z"
    },
    {
      "icao": "LYPG",
      "alert": "OK",
      "vis_m": 9999,
      "fzfg": false,
      "metar_trigger": false,
      "taf_trigger": false,
      "metar": "METAR LYPG 201130Z 20004KT 170V240 9999 -SHRA FEW005 FEW033TCU BKN070 15/14 Q1016 NOSIG",
      "taf": "TAF LYPG 201100Z 2012/2112 15008KT 9999 SCT033 BKN080 TX18/2013Z TN12/2104Z"
    },
    {
      "icao": "LZIB",
      "alert": "OK",
      "vis_m": 9999,
      "fzfg": false,
      "metar_trigger": false,
      "taf_trigger": false,
      "metar": "METAR LZIB 201130Z 29011KT 260V320 9999 SCT045 15/03 Q1014 NOSIG",
      "taf": "TAF LZIB 201115Z 2012/2112 31013KT 9999 SCT030"
    },
    {
      "icao": "LZKZ",
      "alert": "OK",
      "vis_m": 9999,
      "fzfg": false,
      "metar_trigger": false,
      "taf_trigger": false,
      "metar": "METAR LZKZ 201130Z 01018KT 9999 FEW035 13/02 Q1011 NOSIG",
      "taf": "TAF LZKZ 201115Z 2012/2112 02015KT CAVOK"
    },
    {
      "icao": "LZTT",
      "alert": "OK",
      "vis_m": 9999,
      "fzfg": false,
      "metar_trigger": false,
      "taf_trigger": false,
      "metar": "METAR LZTT 201130Z 25016KT 9999 FEW040 SCT053 09/00 Q1010 NOSIG",
      "taf": "TAF LZTT 201115Z 2012/2112 27010KT 9999 SCT035"
    },
    {
      "icao": "OEJN",
      "alert": "OK",
      "vis_m": 9999,
      "fzfg": false,
      "metar_trigger": false,
      "taf_trigger": false,
      "metar": "METAR OEJN 201100Z 28010KT CAVOK 32/20 Q1005 NOSIG",
      "taf": "TAF OEJN 201100Z 2012/2118 30012KT 7000 FEW040"
    },
    {
      "icao": "OEMA",
      "alert": "OK",
      "vis_m": 9999,
      "fzfg": false,
      "metar_trigger": false,
      "taf_trigger": false,
      "metar": "METAR OEMA 201100Z 27014KT 9999 SCT045 34/10 Q1009 NOSIG",
      "taf": "TAF OEMA 201100Z 2012/2118 26015KT 7000 SCT045"
    },
    {
      "icao": "OJAI",
      "alert": "OK",
      "vis_m": 4000,
      "fzfg": false,
      "metar_trigger": false,
      "taf_trigger": false,
      "metar": "METAR OJAI 201100Z 27015KT 4000 BLDU SCT030 19/06 Q1013 NOSIG",
      "taf": "TAF OJAI 201100Z 2012/2118 29014KT 4000 HZ SCT030"
    },
    {
      "icao": "OMAA",
      "alert": "OK",
      "vis_m": null,
      "fzfg": false,
      "metar_trigger": false,
      "taf_trigger": false,
      "metar": "",
      "taf": ""
    },
    {
      "icao": "OMDB",
      "alert": "OK",
      "vis_m": null,
      "fzfg": false,
      "metar_trigger": false,
      "taf_trigger": false,
      "metar": "",
      "taf": ""
    },
    {
      "icao": "UAAA",
      "alert": "OK",
      "vis_m": 9999,
      "fzfg": false,
      "metar_trigger": false,
      "taf_trigger": false,
      "metar": "METAR UAAA 201130Z 03006MPS 9999 SCT050CB 19/03 Q1016 NOSIG",
      "taf": "TAF UAAA 201104Z 2012/2112 19003MPS 9999 FEW050 SCT100 TX20/2109Z TN03/2101Z"
    },
    {
      "icao": "UBBB",
      "alert": "OK",
      "vis_m": 9999,
      "fzfg": false,
      "metar_trigger": false,
      "taf_trigger": false,
      "metar": "METAR UBBB 201130Z 34020KT 9999 FEW050CB OVC050 13/09 Q1010 NOSIG",
      "taf": "TAF UBBB 201053Z 2012/2112 33018KT 9999 FEW040CB BKN040 TX13/2012Z TN09/2100Z"
    },
    {
      "icao": "UDSG",
      "alert": "OK",
      "vis_m": 9999,
      "fzfg": false,
      "metar_trigger": false,
      "taf_trigger": false,
      "metar": "METAR UDSG 201130Z 03006KT 9999 BKN040CB 10/02 Q1011 NOSIG",
      "taf": "TAF UDSG 201058Z 2012/2112 03006KT 9999 BKN040"
    },
    {
      "icao": "UDYZ",
      "alert": "OK",
      "vis_m": 9999,
      "fzfg": false,
      "metar_trigger": false,
      "taf_trigger": false,
      "metar": "METAR UDYZ 201130Z 21005KT 9999 VCTS BKN040CB 18/08 Q1007 TEMPO -TSRA",
      "taf": "TAF UDYZ 201100Z 2012/2112 22006KT 9999 BKN040"
    },
    {
      "icao": "UGKO",
      "alert": "OK",
      "vis_m": 9999,
      "fzfg": false,
      "metar_trigger": false,
      "taf_trigger": false,
      "metar": "METAR UGKO 201130Z 30007KT 9999 SCT031 OVC040 12/08 Q1015 NOSIG",
      "taf": "TAF UGKO 201100Z 2012/2112 26006KT 9999 SCT030 OVC050 TX19/2110Z TN07/2103Z"
    }
  ]
}