{
  "ts_utc": "2026-07-08T20:09:31Z",
  "threshold_m": 150,
  "source": "stations_override.txt (ICAO list) + aviationweather.gov (METAR/TAF raw)",
  "station_count": 159,
  "stations": [
    {
      "icao": "BIKF",
      "alert": "OK",
      "vis_m": 9999,
      "fzfg": false,
      "metar_trigger": false,
      "taf_trigger": false,
      "metar": "METAR BIKF 082000Z 12011KT 9999 -DZRA BR BKN006 OVC025 10/09 Q0999",
      "taf": "TAF BIKF 081959Z 0821/0921 13010KT 9999 SCT010 BKN020 TX11/0913Z TN08/0902Z"
    },
    {
      "icao": "BKPR",
      "alert": "OK",
      "vis_m": 9999,
      "fzfg": false,
      "metar_trigger": false,
      "taf_trigger": false,
      "metar": "METAR BKPR 082000Z 36019KT 9999 -TSRA FEW035CB BKN040 18/15 Q1016 BECMG NSW",
      "taf": "TAF BKPR 081730Z 0818/0918 36008KT 9999 SCT040 BKN080"
    },
    {
      "icao": "EBCI",
      "alert": "OK",
      "vis_m": 9999,
      "fzfg": false,
      "metar_trigger": false,
      "taf_trigger": false,
      "metar": "METAR EBCI 081950Z 02006KT 340V040 CAVOK 23/16 Q1020 NOSIG",
      "taf": "TAF EBCI 081700Z 0818/0924 34007KT 9999 FEW040"
    },
    {
      "icao": "EDDB",
      "alert": "OK",
      "vis_m": 9999,
      "fzfg": false,
      "metar_trigger": false,
      "taf_trigger": false,
      "metar": "METAR EDDB 081950Z AUTO 29011KT CAVOK 20/10 Q1013 NOSIG",
      "taf": "TAF EDDB 081700Z 0818/0918 30015G25KT CAVOK"
    },
    {
      "icao": "EDDH",
      "alert": "OK",
      "vis_m": 9999,
      "fzfg": false,
      "metar_trigger": false,
      "taf_trigger": false,
      "metar": "METAR EDDH 081950Z AUTO 29007KT 250V320 9999 FEW019 15/12 Q1016 NOSIG",
      "taf": "TAF EDDH 081700Z 0818/0924 29012KT 9999 SCT020"
    },
    {
      "icao": "EDDK",
      "alert": "OK",
      "vis_m": 9999,
      "fzfg": false,
      "metar_trigger": false,
      "taf_trigger": false,
      "metar": "METAR EDDK 081950Z AUTO 36003KT CAVOK 20/15 Q1019 NOSIG",
      "taf": "TAF EDDK 081700Z 0818/0924 32008KT 9999 BKN030"
    },
    {
      "icao": "EDDN",
      "alert": "OK",
      "vis_m": 9999,
      "fzfg": false,
      "metar_trigger": false,
      "taf_trigger": false,
      "metar": "METAR EDDN 081950Z AUTO 32009KT CAVOK 20/12 Q1018 BECMG 32005KT",
      "taf": "TAF EDDN 081700Z 0818/0918 31010KT CAVOK"
    },
    {
      "icao": "EDDS",
      "alert": "OK",
      "vis_m": 9999,
      "fzfg": false,
      "metar_trigger": false,
      "taf_trigger": false,
      "metar": "METAR EDDS 081950Z AUTO 04004KT 010V070 CAVOK 22/14 Q1018 NOSIG",
      "taf": "TAF EDDS 081700Z 0818/0918 31010KT 9999 FEW045"
    },
    {
      "icao": "EDFH",
      "alert": "OK",
      "vis_m": 9999,
      "fzfg": false,
      "metar_trigger": false,
      "taf_trigger": false,
      "metar": "METAR EDFH 081950Z 02008KT CAVOK 17/13 Q1020",
      "taf": "TAF EDFH 081700Z 0818/0918 02008KT CAVOK"
    },
    {
      "icao": "EDJA",
      "alert": "OK",
      "vis_m": 9999,
      "fzfg": false,
      "metar_trigger": false,
      "taf_trigger": false,
      "metar": "METAR EDJA 081950Z 07003KT 050V110 9999 FEW053 18/13 Q1019",
      "taf": "TAF EDJA 081700Z 0818/0903 32005KT 9999 SCT045"
    },
    {
      "icao": "EDLW",
      "alert": "OK",
      "vis_m": 9999,
      "fzfg": false,
      "metar_trigger": false,
      "taf_trigger": false,
      "metar": "METAR EDLW 081950Z 28004KT 220V340 9999 OVC049 19/15 Q1019",
      "taf": "TAF EDLW 081700Z 0818/0918 30006KT 9999 BKN030"
    },
    {
      "icao": "EDNY",
      "alert": "OK",
      "vis_m": 9999,
      "fzfg": false,
      "metar_trigger": false,
      "taf_trigger": false,
      "metar": "METAR EDNY 081950Z VRB01KT CAVOK 20/14 Q1018",
      "taf": "TAF EDNY 081700Z 0818/0903 VRB03KT 9999 FEW050"
    },
    {
      "icao": "EDSB",
      "alert": "OK",
      "vis_m": 9999,
      "fzfg": false,
      "metar_trigger": false,
      "taf_trigger": false,
      "metar": "METAR EDSB 081950Z 02008KT CAVOK 23/15 Q1017",
      "taf": "TAF EDSB 081700Z 0818/0918 02006KT CAVOK"
    },
    {
      "icao": "EETN",
      "alert": "OK",
      "vis_m": 9999,
      "fzfg": false,
      "metar_trigger": false,
      "taf_trigger": false,
      "metar": "METAR EETN 081950Z 01009KT 340V050 9999 -RA BKN040 16/12 Q0999 TEMPO 4000 SHRA SCT025CB",
      "taf": "TAF EETN 081730Z 0818/0918 02012KT 9999 BKN030"
    },
    {
      "icao": "EFTU",
      "alert": "OK",
      "vis_m": 9999,
      "fzfg": false,
      "metar_trigger": false,
      "taf_trigger": false,
      "metar": "METAR EFTU 081950Z AUTO 34004KT 290V010 CAVOK 14/11 Q1003",
      "taf": "TAF EFTU 081728Z 0818/0918 31006KT CAVOK"
    },
    {
      "icao": "EGBB",
      "alert": "OK",
      "vis_m": 9999,
      "fzfg": false,
      "metar_trigger": false,
      "taf_trigger": false,
      "metar": "METAR EGBB 081950Z 24004KT 210V280 CAVOK 28/11 Q1018",
      "taf": "TAF EGBB 081655Z 0818/0918 33006KT CAVOK"
    },
    {
      "icao": "EGGP",
      "alert": "OK",
      "vis_m": 9999,
      "fzfg": false,
      "metar_trigger": false,
      "taf_trigger": false,
      "metar": "METAR EGGP 081950Z 32006KT CAVOK 23/15 Q1019",
      "taf": "TAF EGGP 081656Z 0818/0918 30010KT CAVOK"
    },
    {
      "icao": "EGGW",
      "alert": "OK",
      "vis_m": 9999,
      "fzfg": false,
      "metar_trigger": false,
      "taf_trigger": false,
      "metar": "METAR EGGW 081950Z AUTO 25006KT 9999 NCD 27/14 Q1018",
      "taf": "TAF EGGW 081658Z 0818/0918 34006KT CAVOK"
    },
    {
      "icao": "EGKK",
      "alert": "OK",
      "vis_m": 9999,
      "fzfg": false,
      "metar_trigger": false,
      "taf_trigger": false,
      "metar": "METAR EGKK 081950Z 18005KT CAVOK 25/14 Q1019",
      "taf": "TAF EGKK 081655Z 0818/0924 21008KT CAVOK"
    },
    {
      "icao": "EGNM",
      "alert": "OK",
      "vis_m": 9999,
      "fzfg": false,
      "metar_trigger": false,
      "taf_trigger": false,
      "metar": "METAR EGNM 081950Z 29008KT CAVOK 23/14 Q1019",
      "taf": "TAF EGNM 081654Z 0818/0918 28010KT CAVOK"
    },
    {
      "icao": "EGPD",
      "alert": "OK",
      "vis_m": 9999,
      "fzfg": false,
      "metar_trigger": false,
      "taf_trigger": false,
      "metar": "METAR EGPD 081950Z AUTO 08005KT 9999 NCD 16/14 Q1016",
      "taf": "TAF EGPD 081652Z 0818/0918 12010KT 9999 SCT025"
    },
    {
      "icao": "EGPF",
      "alert": "OK",
      "vis_m": 9999,
      "fzfg": false,
      "metar_trigger": false,
      "taf_trigger": false,
      "metar": "METAR EGPF 081950Z 24004KT CAVOK 21/16 Q1018",
      "taf": "TAF EGPF 081656Z 0818/0918 25008KT 9999 FEW015"
    },
    {
      "icao": "EHBK",
      "alert": "OK",
      "vis_m": 9999,
      "fzfg": false,
      "metar_trigger": false,
      "taf_trigger": false,
      "metar": "METAR EHBK 081955Z AUTO 36005KT 320V030 9999 // NCD 20/14 Q1019 RE// NOSIG",
      "taf": "TAF EHBK 081704Z 0818/0924 35007KT 9999 FEW035"
    },
    {
      "icao": "EHEH",
      "alert": "OK",
      "vis_m": 9999,
      "fzfg": false,
      "metar_trigger": false,
      "taf_trigger": false,
      "metar": "METAR EHEH 081955Z AUTO 34003KT 310V010 9999 NCD 19/15 Q1019 BLU",
      "taf": "TAF EHEH 081717Z 0818/0924 01005KT 9999 BKN030"
    },
    {
      "icao": "EKBI",
      "alert": "OK",
      "vis_m": 9999,
      "fzfg": false,
      "metar_trigger": false,
      "taf_trigger": false,
      "metar": "METAR EKBI 081950Z AUTO 28011KT 9999 NCD 14/11 Q1015",
      "taf": "TAF EKBI 081727Z 0818/0918 30012KT CAVOK"
    },
    {
      "icao": "EKCH",
      "alert": "OK",
      "vis_m": 9999,
      "fzfg": false,
      "metar_trigger": false,
      "taf_trigger": false,
      "metar": "METAR EKCH 081950Z AUTO 32008KT 300V360 9999 OVC180/// 19/08 Q1012 NOSIG",
      "taf": "TAF EKCH 081727Z 0818/0918 32014KT 9999 FEW040"
    },
    {
      "icao": "ENAL",
      "alert": "OK",
      "vis_m": 9999,
      "fzfg": false,
      "metar_trigger": false,
      "taf_trigger": false,
      "metar": "METAR ENAL 081950Z VRB02KT 9999 -DZRA BKN046 13/11 Q1014",
      "taf": "TAF ENAL 081700Z 0818/0903 25008KT 9999 FEW020 BKN040"
    },
    {
      "icao": "ENBR",
      "alert": "OK",
      "vis_m": 9999,
      "fzfg": false,
      "metar_trigger": false,
      "taf_trigger": false,
      "metar": "METAR ENBR 081950Z 31003KT 280V340 CAVOK 13/09 Q1015 RMK WIND 1200FT 29003KT",
      "taf": "TAF ENBR 081700Z 0818/0918 33008KT 9999 FEW020 SCT040"
    },
    {
      "icao": "ENGM",
      "alert": "OK",
      "vis_m": 9999,
      "fzfg": false,
      "metar_trigger": false,
      "taf_trigger": false,
      "metar": "METAR ENGM 081950Z 04009KT CAVOK 19/06 Q1011 NOSIG",
      "taf": "TAF ENGM 081700Z 0818/0918 02010KT CAVOK"
    },
    {
      "icao": "ENHD",
      "alert": "OK",
      "vis_m": 9999,
      "fzfg": false,
      "metar_trigger": false,
      "taf_trigger": false,
      "metar": "METAR ENHD 081950Z 31005KT 280V340 CAVOK 14/10 Q1016",
      "taf": "TAF ENHD 081400Z 0815/0822 33010KT CAVOK"
    },
    {
      "icao": "ENTC",
      "alert": "OK",
      "vis_m": 9999,
      "fzfg": false,
      "metar_trigger": false,
      "taf_trigger": false,
      "metar": "METAR ENTC 081950Z 17004KT 130V190 9999 BKN050 12/08 Q1007 NOSIG RMK WIND 2600FT 32012KT",
      "taf": "TAF ENTC 081700Z 0818/0918 27009KT 9999 SCT060"
    },
    {
      "icao": "ENTO",
      "alert": "OK",
      "vis_m": 9999,
      "fzfg": false,
      "metar_trigger": false,
      "taf_trigger": false,
      "metar": "METAR ENTO 081950Z 24004KT CAVOK 18/08 Q1010 NOSIG",
      "taf": "TAF ENTO 081700Z 0818/0918 20010KT CAVOK"
    },
    {
      "icao": "ENVA",
      "alert": "OK",
      "vis_m": 9999,
      "fzfg": false,
      "metar_trigger": false,
      "taf_trigger": false,
      "metar": "METAR ENVA 081950Z 29007KT 9999 BKN030 12/07 Q1015 RMK WIND 670FT 29013KT",
      "taf": "TAF ENVA 081700Z 0818/0918 27015KT 9999 FEW018 BKN030"
    },
    {
      "icao": "ENZV",
      "alert": "OK",
      "vis_m": 9999,
      "fzfg": false,
      "metar_trigger": false,
      "taf_trigger": false,
      "metar": "METAR ENZV 081950Z 31009KT CAVOK 14/11 Q1016",
      "taf": "TAF ENZV 081700Z 0818/0918 32008KT 9999 FEW020 SCT040"
    },
    {
      "icao": "EPGD",
      "alert": "OK",
      "vis_m": 9999,
      "fzfg": false,
      "metar_trigger": false,
      "taf_trigger": false,
      "metar": "METAR EPGD 082000Z 29007KT 9999 FEW016 14/12 Q1008",
      "taf": "TAF EPGD 081730Z 0818/0918 30013KT 9999 BKN030"
    },
    {
      "icao": "EPKK",
      "alert": "OK",
      "vis_m": 9999,
      "fzfg": false,
      "metar_trigger": false,
      "taf_trigger": false,
      "metar": "METAR EPKK 082000Z 27004KT CAVOK 14/07 Q1012",
      "taf": "TAF EPKK 081730Z 0818/0918 28012KT 9999 SCT045"
    },
    {
      "icao": "EPKT",
      "alert": "OK",
      "vis_m": 9999,
      "fzfg": false,
      "metar_trigger": false,
      "taf_trigger": false,
      "metar": "METAR EPKT 082000Z 26007KT CAVOK 12/07 Q1012",
      "taf": "TAF EPKT 081730Z 0818/0918 30012KT 9999 SCT040"
    },
    {
      "icao": "EPLB",
      "alert": "OK",
      "vis_m": 9999,
      "fzfg": false,
      "metar_trigger": false,
      "taf_trigger": false,
      "metar": "METAR EPLB 082000Z 28012KT CAVOK 15/09 Q1009",
      "taf": "TAF EPLB 081730Z 0818/0918 27012KT CAVOK"
    },
    {
      "icao": "EPMO",
      "alert": "OK",
      "vis_m": 9999,
      "fzfg": false,
      "metar_trigger": false,
      "taf_trigger": false,
      "metar": "METAR EPMO 082000Z 28014KT CAVOK 14/10 Q1008",
      "taf": "TAF EPMO 081730Z 0818/0918 28012KT CAVOK"
    },
    {
      "icao": "EPPO",
      "alert": "OK",
      "vis_m": 9999,
      "fzfg": false,
      "metar_trigger": false,
      "taf_trigger": false,
      "metar": "METAR EPPO 082000Z 28009KT CAVOK 16/09 Q1011",
      "taf": "TAF EPPO 081730Z 0818/0918 29011KT CAVOK"
    },
    {
      "icao": "EPRA",
      "alert": "OK",
      "vis_m": 9999,
      "fzfg": false,
      "metar_trigger": false,
      "taf_trigger": false,
      "metar": "METAR EPRA 082000Z 29006KT CAVOK 14/10 Q1010",
      "taf": "TAF EPRA 081730Z 0818/0903 28010KT 9999 SCT040"
    },
    {
      "icao": "EPRZ",
      "alert": "OK",
      "vis_m": 9999,
      "fzfg": false,
      "metar_trigger": false,
      "taf_trigger": false,
      "metar": "METAR EPRZ 082000Z 25005KT CAVOK 15/10 Q1011",
      "taf": ""
    },
    {
      "icao": "EPSC",
      "alert": "OK",
      "vis_m": 9999,
      "fzfg": false,
      "metar_trigger": false,
      "taf_trigger": false,
      "metar": "METAR EPSC 082000Z 28009KT CAVOK 17/13 Q1011",
      "taf": "TAF EPSC 081730Z 0818/0918 29013KT 9999 BKN030"
    },
    {
      "icao": "EPSY",
      "alert": "OK",
      "vis_m": 9999,
      "fzfg": false,
      "metar_trigger": false,
      "taf_trigger": false,
      "metar": "METAR EPSY 082000Z 26007KT 210V300 CAVOK 13/11 Q1006",
      "taf": "TAF EPSY 081730Z 0818/0903 28010KT 9999 SCT040"
    },
    {
      "icao": "EPWA",
      "alert": "OK",
      "vis_m": 9999,
      "fzfg": false,
      "metar_trigger": false,
      "taf_trigger": false,
      "metar": "METAR EPWA 082000Z 27009KT CAVOK 14/10 Q1009 NOSIG",
      "taf": "TAF EPWA 081730Z 0818/0918 28010KT CAVOK"
    },
    {
      "icao": "EPWR",
      "alert": "OK",
      "vis_m": 9999,
      "fzfg": false,
      "metar_trigger": false,
      "taf_trigger": false,
      "metar": "METAR EPWR 082000Z 28007KT CAVOK 16/06 Q1012",
      "taf": "TAF EPWR 081730Z 0818/0918 29014KT CAVOK"
    },
    {
      "icao": "ESGG",
      "alert": "OK",
      "vis_m": 9999,
      "fzfg": false,
      "metar_trigger": false,
      "taf_trigger": false,
      "metar": "METAR ESGG 081950Z 34002KT CAVOK 16/09 Q1010",
      "taf": "TAF ESGG 081730Z 0818/0918 31010KT CAVOK"
    },
    {
      "icao": "ESKN",
      "alert": "OK",
      "vis_m": 9999,
      "fzfg": false,
      "metar_trigger": false,
      "taf_trigger": false,
      "metar": "METAR ESKN 081950Z 34010KT 310V010 CAVOK 14/08 Q1008",
      "taf": "TAF ESKN 081730Z 0818/0918 33010KT CAVOK"
    },
    {
      "icao": "ESMS",
      "alert": "OK",
      "vis_m": 9999,
      "fzfg": false,
      "metar_trigger": false,
      "taf_trigger": false,
      "metar": "METAR ESMS 081950Z 31009KT CAVOK 17/09 Q1011",
      "taf": "TAF ESMS 081727Z 0818/0918 32014KT CAVOK"
    },
    {
      "icao": "ESSA",
      "alert": "OK",
      "vis_m": 9999,
      "fzfg": false,
      "metar_trigger": false,
      "taf_trigger": false,
      "metar": "METAR ESSA 081950Z 34009KT CAVOK 12/07 Q1007 NOSIG",
      "taf": "TAF ESSA 081730Z 0818/0918 34012KT 9999 FEW045"
    },
    {
      "icao": "EYKA",
      "alert": "OK",
      "vis_m": 9999,
      "fzfg": false,
      "metar_trigger": false,
      "taf_trigger": false,
      "metar": "METAR EYKA 081950Z 27008KT 9999 VCSH FEW015 SCT028CB 12/12 Q0999",
      "taf": "TAF EYKA 081700Z 0818/0918 VRB03KT 8000 SCT010 BKN020"
    },
    {
      "icao": "EYPA",
      "alert": "OK",
      "vis_m": 9999,
      "fzfg": false,
      "metar_trigger": false,
      "taf_trigger": false,
      "metar": "METAR EYPA 081950Z 34009G19KT 270V030 9999 BKN019 OVC024 15/12 Q1002",
      "taf": ""
    },
    {
      "icao": "EYVI",
      "alert": "OK",
      "vis_m": 9999,
      "fzfg": false,
      "metar_trigger": false,
      "taf_trigger": false,
      "metar": "METAR EYVI 081950Z 24007KT 9999 VCSH FEW009 SCT014CB 12/11 Q0998 NOSIG",
      "taf": "TAF EYVI 081700Z 0818/0918 VRB03KT 8000 SCT010 BKN015"
    },
    {
      "icao": "GCFV",
      "alert": "OK",
      "vis_m": 9999,
      "fzfg": false,
      "metar_trigger": false,
      "taf_trigger": false,
      "metar": "METAR GCFV 082000Z 30017KT CAVOK 27/19 Q1017",
      "taf": "TAF GCFV 081400Z 0815/0915 05009KT CAVOK TX28/0815Z TN21/0906Z"
    },
    {
      "icao": "GCLP",
      "alert": "OK",
      "vis_m": 9999,
      "fzfg": false,
      "metar_trigger": false,
      "taf_trigger": false,
      "metar": "METAR GCLP 082000Z 01019KT 9999 FEW020 24/20 Q1018 NOSIG",
      "taf": "TAF GCLP 081400Z 0815/0915 02024KT CAVOK TX30/0815Z TN22/0906Z"
    },
    {
      "icao": "GCTS",
      "alert": "OK",
      "vis_m": 9999,
      "fzfg": false,
      "metar_trigger": false,
      "taf_trigger": false,
      "metar": "METAR GCTS 082000Z 14004KT 110V170 CAVOK 24/20 Q1019 NOSIG",
      "taf": "TAF GCTS 081400Z 0815/0915 10012KT CAVOK TX31/0815Z TN21/0906Z"
    },
    {
      "icao": "GMAD",
      "alert": "OK",
      "vis_m": 8000,
      "fzfg": false,
      "metar_trigger": false,
      "taf_trigger": false,
      "metar": "METAR GMAD 082000Z 23010KT 8000 SCT006 23/20 Q1015 NOSIG",
      "taf": "TAF GMAD 081700Z 0818/0924 18006KT 8000 NSC"
    },
    {
      "icao": "GMMN",
      "alert": "OK",
      "vis_m": 9999,
      "fzfg": false,
      "metar_trigger": false,
      "taf_trigger": false,
      "metar": "METAR GMMN 082000Z 35005KT CAVOK 27/15 Q1018 NOSIG",
      "taf": "TAF GMMN 081700Z 0818/0924 32012KT CAVOK"
    },
    {
      "icao": "GMMX",
      "alert": "OK",
      "vis_m": 9999,
      "fzfg": false,
      "metar_trigger": false,
      "taf_trigger": false,
      "metar": "METAR GMMX 082000Z 34006KT 290V030 CAVOK 37/11 Q1017 NOSIG",
      "taf": "TAF GMMX 081700Z 0818/0924 06006KT 8000 NSC"
    },
    {
      "icao": "HEGN",
      "alert": "OK",
      "vis_m": 9999,
      "fzfg": false,
      "metar_trigger": false,
      "taf_trigger": false,
      "metar": "METAR HEGN 081900Z 30010KT CAVOK 32/07 Q1007 NOSIG",
      "taf": "TAF HEGN 081700Z 0818/0924 31015KT CAVOK"
    },
    {
      "icao": "HEMA",
      "alert": "OK",
      "vis_m": 9999,
      "fzfg": false,
      "metar_trigger": false,
      "taf_trigger": false,
      "metar": "METAR HEMA 081900Z 31006KT CAVOK 30/08 Q1007 NOSIG",
      "taf": "TAF HEMA 081700Z 0818/0924 30015KT CAVOK"
    },
    {
      "icao": "HESH",
      "alert": "OK",
      "vis_m": 9999,
      "fzfg": false,
      "metar_trigger": false,
      "taf_trigger": false,
      "metar": "METAR HESH 081900Z 34006KT CAVOK 35/08 Q1005 NOSIG",
      "taf": "TAF HESH 081700Z 0818/0924 35012KT CAVOK"
    },
    {
      "icao": "HESX",
      "alert": "OK",
      "vis_m": 9999,
      "fzfg": false,
      "metar_trigger": false,
      "taf_trigger": false,
      "metar": "METAR HESX 081900Z 36009KT CAVOK 27/14 Q1010 NOSIG",
      "taf": "TAF HESX 081700Z 0818/0924 32012KT CAVOK"
    },
    {
      "icao": "LATI",
      "alert": "OK",
      "vis_m": 9999,
      "fzfg": false,
      "metar_trigger": false,
      "taf_trigger": false,
      "metar": "METAR LATI 081950Z VRB03KT CAVOK 22/17 Q1010 NOSIG",
      "taf": "TAF LATI 081700Z 0818/0918 VRB05KT CAVOK TX34/0912Z TN18/0904Z"
    },
    {
      "icao": "LBPD",
      "alert": "OK",
      "vis_m": 9999,
      "fzfg": false,
      "metar_trigger": false,
      "taf_trigger": false,
      "metar": "METAR LBPD 082000Z AUTO 30006KT 9999 BKN140/// OVC220/// 25/14 Q1010",
      "taf": "TAF LBPD 081700Z 0818/0918 29012KT 9999 SCT040 BKN060"
    },
    {
      "icao": "LBSF",
      "alert": "OK",
      "vis_m": 9999,
      "fzfg": false,
      "metar_trigger": false,
      "taf_trigger": false,
      "metar": "METAR LBSF 082000Z AUTO 29003KT 260V330 9999 NSC 20/14 Q1013 NOSIG",
      "taf": "TAF LBSF 081700Z 0818/0918 32012KT 9999 SCT040 BKN060"
    },
    {
      "icao": "LBWN",
      "alert": "OK",
      "vis_m": 9999,
      "fzfg": false,
      "metar_trigger": false,
      "taf_trigger": false,
      "metar": "METAR LBWN 082000Z AUTO 35002KT 9999 NSC 21/20 Q1009 NOSIG",
      "taf": "TAF LBWN 081700Z 0818/0918 01010KT 9999 SCT040"
    },
    {
      "icao": "LCLK",
      "alert": "OK",
      "vis_m": 9999,
      "fzfg": false,
      "metar_trigger": false,
      "taf_trigger": false,
      "metar": "METAR LCLK 082000Z 21010KT CAVOK 26/24 Q1006 NOSIG",
      "taf": "TAF LCLK 081730Z 0818/0918 23008KT 9999 FEW020"
    },
    {
      "icao": "LCPH",
      "alert": "OK",
      "vis_m": 9999,
      "fzfg": false,
      "metar_trigger": false,
      "taf_trigger": false,
      "metar": "METAR LCPH 082000Z 02004KT 360V080 CAVOK 25/21 Q1006 NOSIG",
      "taf": "TAF LCPH 081730Z 0818/0918 30010KT 9999 FEW015"
    },
    {
      "icao": "LEAL",
      "alert": "OK",
      "vis_m": 9999,
      "fzfg": false,
      "metar_trigger": false,
      "taf_trigger": false,
      "metar": "METAR LEAL 082000Z 07003KT CAVOK 29/22 Q1014 NOSIG",
      "taf": "TAF LEAL 081700Z 0818/0918 18010KT CAVOK TX37/0912Z TN25/0906Z"
    },
    {
      "icao": "LEBB",
      "alert": "OK",
      "vis_m": 9999,
      "fzfg": false,
      "metar_trigger": false,
      "taf_trigger": false,
      "metar": "METAR LEBB 082000Z VRB02KT 9999 SCT013 OVC017 23/21 Q1018 NOSIG",
      "taf": "TAF LEBB 081700Z 0818/0918 VRB03KT 9999 SCT020 TX29/0912Z TN18/0904Z"
    },
    {
      "icao": "LEBL",
      "alert": "OK",
      "vis_m": 9999,
      "fzfg": false,
      "metar_trigger": false,
      "taf_trigger": false,
      "metar": "METAR LEBL 082000Z 24005KT 210V280 CAVOK 27/26 Q1014 NOSIG",
      "taf": "TAF LEBL 081700Z 0818/0918 VRB04KT CAVOK TX34/0913Z TN26/0906Z"
    },
    {
      "icao": "LECH",
      "alert": "OK",
      "vis_m": 9999,
      "fzfg": false,
      "metar_trigger": false,
      "taf_trigger": false,
      "metar": "METAR LECH 082000Z AUTO VRB01KT CAVOK 31/12 Q1015",
      "taf": "TAF LECH 081700Z 0818/0918 VRB03KT CAVOK TX39/0912Z TN20/0906Z"
    },
    {
      "icao": "LEMD",
      "alert": "OK",
      "vis_m": 9999,
      "fzfg": false,
      "metar_trigger": false,
      "taf_trigger": false,
      "metar": "METAR LEMD 082000Z 27006KT CAVOK 35/03 Q1016 NOSIG",
      "taf": "TAF LEMD 081700Z 0818/0924 24010KT CAVOK TX41/0916Z TN19/0905Z"
    },
    {
      "icao": "LEMG",
      "alert": "OK",
      "vis_m": 9999,
      "fzfg": false,
      "metar_trigger": false,
      "taf_trigger": false,
      "metar": "METAR LEMG 082000Z 09006KT 070V140 CAVOK 27/13 Q1014 NOSIG",
      "taf": "TAF LEMG 081700Z 0818/0918 13010KT CAVOK TX37/0914Z TN23/0905Z"
    },
    {
      "icao": "LEVC",
      "alert": "OK",
      "vis_m": 9999,
      "fzfg": false,
      "metar_trigger": false,
      "taf_trigger": false,
      "metar": "METAR LEVC 082000Z 09004KT CAVOK 30/19 Q1013 NOSIG",
      "taf": "TAF LEVC 081700Z 0818/0918 10010KT CAVOK TX37/0914Z TN23/0906Z"
    },
    {
      "icao": "LEXJ",
      "alert": "OK",
      "vis_m": 9999,
      "fzfg": false,
      "metar_trigger": false,
      "taf_trigger": false,
      "metar": "METAR LEXJ 082000Z VRB01KT 9999 OVC020 22/19 Q1017",
      "taf": "TAF LEXJ 081400Z 0815/0915 02008KT 9999 SCT015 TX25/0913Z TN20/0903Z"
    },
    {
      "icao": "LEZG",
      "alert": "OK",
      "vis_m": 9999,
      "fzfg": false,
      "metar_trigger": false,
      "taf_trigger": false,
      "metar": "METAR LEZG 082000Z 11006KT CAVOK 34/08 Q1014 NOSIG",
      "taf": "TAF LEZG 081700Z 0818/0918 31008KT CAVOK TX42/0915Z TN24/0906Z"
    },
    {
      "icao": "LEZL",
      "alert": "OK",
      "vis_m": 9999,
      "fzfg": false,
      "metar_trigger": false,
      "taf_trigger": false,
      "metar": "METAR LEZL 082000Z 22005KT CAVOK 31/16 Q1014 NOSIG",
      "taf": "TAF LEZL 081400Z 0815/0915 22010KT CAVOK TX41/0815Z TN19/0905Z"
    },
    {
      "icao": "LFBD",
      "alert": "OK",
      "vis_m": 9999,
      "fzfg": false,
      "metar_trigger": false,
      "taf_trigger": false,
      "metar": "METAR LFBD 082000Z AUTO 32006KT CAVOK 27/20 Q1016 NOSIG",
      "taf": "TAF LFBD 081700Z 0818/0924 29010KT CAVOK TX39/0915Z TN20/0905Z"
    },
    {
      "icao": "LFLL",
      "alert": "OK",
      "vis_m": 9999,
      "fzfg": false,
      "metar_trigger": false,
      "taf_trigger": false,
      "metar": "METAR LFLL 082000Z 01009KT CAVOK 28/09 Q1015 NOSIG",
      "taf": "TAF LFLL 081700Z 0818/0924 02012KT CAVOK"
    },
    {
      "icao": "LFLS",
      "alert": "OK",
      "vis_m": 9999,
      "fzfg": false,
      "metar_trigger": false,
      "taf_trigger": false,
      "metar": "METAR LFLS 082000Z AUTO 36012KT CAVOK 29/07 Q1016",
      "taf": "TAF LFLS 081400Z 0815/0915 34012KT CAVOK"
    },
    {
      "icao": "LFMN",
      "alert": "OK",
      "vis_m": 9999,
      "fzfg": false,
      "metar_trigger": false,
      "taf_trigger": false,
      "metar": "METAR LFMN 082000Z VRB02KT CAVOK 26/21 Q1011 NOSIG",
      "taf": "TAF LFMN 081400Z 0815/0921 10007KT CAVOK"
    },
    {
      "icao": "LFOB",
      "alert": "OK",
      "vis_m": 9999,
      "fzfg": false,
      "metar_trigger": false,
      "taf_trigger": false,
      "metar": "METAR LFOB 082000Z AUTO 36007KT CAVOK 27/15 Q1018 NOSIG",
      "taf": "TAF LFOB 081700Z 0818/0918 03010KT CAVOK"
    },
    {
      "icao": "LFPO",
      "alert": "OK",
      "vis_m": 9999,
      "fzfg": false,
      "metar_trigger": false,
      "taf_trigger": false,
      "metar": "METAR LFPO 082000Z AUTO 04010KT CAVOK 30/14 Q1017 NOSIG",
      "taf": "TAF LFPO 081700Z 0818/0924 04007KT CAVOK"
    },
    {
      "icao": "LFSB",
      "alert": "OK",
      "vis_m": 9999,
      "fzfg": false,
      "metar_trigger": false,
      "taf_trigger": false,
      "metar": "METAR LFSB 082000Z AUTO 29003KT CAVOK 23/14 Q1017 NOSIG",
      "taf": "TAF LFSB 081700Z 0818/0918 01008KT CAVOK"
    },
    {
      "icao": "LGAV",
      "alert": "OK",
      "vis_m": 9999,
      "fzfg": false,
      "metar_trigger": false,
      "taf_trigger": false,
      "metar": "METAR LGAV 081950Z 25005KT 9999 FEW025 27/13 Q1009 NOSIG",
      "taf": "TAF LGAV 081700Z 0818/0918 21010KT 9999 FEW025"
    },
    {
      "icao": "LGTS",
      "alert": "OK",
      "vis_m": 9999,
      "fzfg": false,
      "metar_trigger": false,
      "taf_trigger": false,
      "metar": "METAR LGTS 081950Z VRB03KT 9999 FEW018TCU SCT030 28/17 Q1008 NOSIG",
      "taf": "TAF LGTS 081700Z 0818/0918 VRB03KT 9999 FEW030"
    },
    {
      "icao": "LHBP",
      "alert": "OK",
      "vis_m": 9999,
      "fzfg": false,
      "metar_trigger": false,
      "taf_trigger": false,
      "metar": "METAR LHBP 082000Z 33007KT CAVOK 22/03 Q1012 NOSIG",
      "taf": "TAF LHBP 081715Z 0818/0918 31016G27KT CAVOK"
    },
    {
      "icao": "LHDC",
      "alert": "OK",
      "vis_m": 9999,
      "fzfg": false,
      "metar_trigger": false,
      "taf_trigger": false,
      "metar": "METAR LHDC 081945Z AUTO 05005KT CAVOK 18/13 Q1010",
      "taf": "TAF LHDC 081415Z 0815/0824 04008KT CAVOK"
    },
    {
      "icao": "LIBD",
      "alert": "OK",
      "vis_m": 9999,
      "fzfg": false,
      "metar_trigger": false,
      "taf_trigger": false,
      "metar": "METAR LIBD 081950Z 34003KT 280V360 CAVOK 28/13 Q1009",
      "taf": "TAF LIBD 081700Z 0818/0918 VRB05KT CAVOK"
    },
    {
      "icao": "LIBG",
      "alert": "OK",
      "vis_m": 9999,
      "fzfg": false,
      "metar_trigger": false,
      "taf_trigger": false,
      "metar": "METAR LIBG 081950Z AUTO VRB02KT 9999 FEW090/// 26/19 Q1010",
      "taf": "TAF LIBG 081700Z 0818/0918 VRB05KT CAVOK"
    },
    {
      "icao": "LIBP",
      "alert": "OK",
      "vis_m": 9999,
      "fzfg": false,
      "metar_trigger": false,
      "taf_trigger": false,
      "metar": "METAR LIBP 081950Z AUTO VRB02KT 9999 FEW100/// 27/20 Q1010",
      "taf": "TAF LIBP 081700Z 0818/0918 VRB05KT CAVOK"
    },
    {
      "icao": "LIBR",
      "alert": "OK",
      "vis_m": 9999,
      "fzfg": false,
      "metar_trigger": false,
      "taf_trigger": false,
      "metar": "METAR LIBR 081950Z 16005KT CAVOK 27/18 Q1010",
      "taf": "TAF LIBR 081700Z 0818/0918 VRB05KT CAVOK"
    },
    {
      "icao": "LICA",
      "alert": "OK",
      "vis_m": 9999,
      "fzfg": false,
      "metar_trigger": false,
      "taf_trigger": false,
      "metar": "METAR LICA 081950Z AUTO 25008KT 9999 FEW023/// 26/22 Q1012",
      "taf": "TAF LICA 081700Z 0818/0918 27015KT 9999 FEW020"
    },
    {
      "icao": "LICC",
      "alert": "OK",
      "vis_m": 9999,
      "fzfg": false,
      "metar_trigger": false,
      "taf_trigger": false,
      "metar": "METAR LICC 081950Z 13002KT CAVOK 27/18 Q1012",
      "taf": "TAF LICC 081700Z 0818/0918 09012KT CAVOK"
    },
    {
      "icao": "LICJ",
      "alert": "OK",
      "vis_m": 9999,
      "fzfg": false,
      "metar_trigger": false,
      "taf_trigger": false,
      "metar": "METAR LICJ 081950Z VRB02KT CAVOK 26/24 Q1013",
      "taf": "TAF LICJ 081700Z 0818/0918 30012KT CAVOK"
    },
    {
      "icao": "LIMC",
      "alert": "OK",
      "vis_m": 9999,
      "fzfg": false,
      "metar_trigger": false,
      "taf_trigger": false,
      "metar": "METAR LIMC 081950Z 06004KT CAVOK 31/09 Q1011 NOSIG",
      "taf": "TAF LIMC 081700Z 0818/0924 01012KT CAVOK"
    },
    {
      "icao": "LIME",
      "alert": "OK",
      "vis_m": 9999,
      "fzfg": false,
      "metar_trigger": false,
      "taf_trigger": false,
      "metar": "METAR LIME 081950Z 35005KT 320V040 CAVOK 32/07 Q1010 NOSIG",
      "taf": "TAF LIME 081700Z 0818/0918 34010KT CAVOK"
    },
    {
      "icao": "LIMF",
      "alert": "OK",
      "vis_m": 9999,
      "fzfg": false,
      "metar_trigger": false,
      "taf_trigger": false,
      "metar": "METAR LIMF 081950Z 01006KT CAVOK 30/16 Q1011",
      "taf": "TAF LIMF 081700Z 0818/0918 VRB05KT CAVOK"
    },
    {
      "icao": "LIMJ",
      "alert": "OK",
      "vis_m": 9999,
      "fzfg": false,
      "metar_trigger": false,
      "taf_trigger": false,
      "metar": "METAR LIMJ 081950Z 20003KT CAVOK 26/22 Q1011",
      "taf": "TAF LIMJ 081700Z 0818/0918 19010KT 9999 SCT020"
    },
    {
      "icao": "LIPE",
      "alert": "OK",
      "vis_m": 9999,
      "fzfg": false,
      "metar_trigger": false,
      "taf_trigger": false,
      "metar": "METAR LIPE 081950Z 08009KT CAVOK 29/23 Q1009",
      "taf": "TAF LIPE 081700Z 0818/0918 VRB05KT CAVOK"
    },
    {
      "icao": "LIPH",
      "alert": "OK",
      "vis_m": 9999,
      "fzfg": false,
      "metar_trigger": false,
      "taf_trigger": false,
      "metar": "METAR LIPH 081950Z 03003KT CAVOK 27/20 Q1010",
      "taf": "TAF LIPH 081700Z 0818/0918 VRB05KT CAVOK"
    },
    {
      "icao": "LIPQ",
      "alert": "OK",
      "vis_m": 9999,
      "fzfg": false,
      "metar_trigger": false,
      "taf_trigger": false,
      "metar": "METAR LIPQ 081950Z AUTO 13004KT 9999 SCT120/// 26/15 Q1010",
      "taf": "TAF LIPQ 081700Z 0818/0918 VRB05KT 9999 FEW080"
    },
    {
      "icao": "LIPR",
      "alert": "OK",
      "vis_m": 9999,
      "fzfg": false,
      "metar_trigger": false,
      "taf_trigger": false,
      "metar": "METAR LIPR 081950Z 10007KT CAVOK 28/23 Q1009",
      "taf": "TAF LIPR 081700Z 0818/0918 VRB05KT CAVOK"
    },
    {
      "icao": "LIPX",
      "alert": "OK",
      "vis_m": 9999,
      "fzfg": false,
      "metar_trigger": false,
      "taf_trigger": false,
      "metar": "METAR LIPX 081950Z 10007KT 070V130 9999 FEW090 28/21 Q1009",
      "taf": "TAF LIPX 081700Z 0818/0918 04012KT CAVOK"
    },
    {
      "icao": "LIPY",
      "alert": "OK",
      "vis_m": 9999,
      "fzfg": false,
      "metar_trigger": false,
      "taf_trigger": false,
      "metar": "METAR LIPY 081950Z AUTO VRB02KT 9999 NCD 28/17 Q1009",
      "taf": "TAF LIPY 081700Z 0818/0918 VRB05KT CAVOK"
    },
    {
      "icao": "LIPZ",
      "alert": "OK",
      "vis_m": 9999,
      "fzfg": false,
      "metar_trigger": false,
      "taf_trigger": false,
      "metar": "METAR LIPZ 081950Z 05006KT CAVOK 26/20 Q1010 NOSIG",
      "taf": "TAF LIPZ 081700Z 0818/0924 VRB05KT CAVOK"
    },
    {
      "icao": "LIRF",
      "alert": "OK",
      "vis_m": 9999,
      "fzfg": false,
      "metar_trigger": false,
      "taf_trigger": false,
      "metar": "METAR LIRF 081950Z 29003KT CAVOK 25/23 Q1011 NOSIG",
      "taf": "TAF LIRF 081700Z 0818/0924 25012KT CAVOK"
    },
    {
      "icao": "LIRN",
      "alert": "OK",
      "vis_m": 9999,
      "fzfg": false,
      "metar_trigger": false,
      "taf_trigger": false,
      "metar": "METAR LIRN 081950Z 20003KT 160V300 CAVOK 26/19 Q1012 NOSIG",
      "taf": "TAF LIRN 081700Z 0818/0918 22012KT 9999 FEW020"
    },
    {
      "icao": "LIRP",
      "alert": "OK",
      "vis_m": 9999,
      "fzfg": false,
      "metar_trigger": false,
      "taf_trigger": false,
      "metar": "METAR LIRP 081945Z 20002KT CAVOK 24/20 Q1011 NOSIG",
      "taf": "TAF LIRP 081700Z 0818/0918 28010KT CAVOK"
    },
    {
      "icao": "LIRZ",
      "alert": "OK",
      "vis_m": 9999,
      "fzfg": false,
      "metar_trigger": false,
      "taf_trigger": false,
      "metar": "METAR LIRZ 081950Z AUTO 21005KT 9999 NCD 28/19 Q1011",
      "taf": "TAF LIRZ 081700Z 0818/0918 26012KT CAVOK"
    },
    {
      "icao": "LJLJ",
      "alert": "OK",
      "vis_m": 9999,
      "fzfg": false,
      "metar_trigger": false,
      "taf_trigger": false,
      "metar": "METAR LJLJ 082000Z 14006KT 9999 FEW065 BKN110 22/16 Q1014 NOSIG",
      "taf": "TAF LJLJ 081700Z 0818/0918 VRB02KT 9999 FEW060"
    },
    {
      "icao": "LKMT",
      "alert": "OK",
      "vis_m": 9999,
      "fzfg": false,
      "metar_trigger": false,
      "taf_trigger": false,
      "metar": "METAR LKMT 082000Z 00000KT CAVOK 17/05 Q1013 NOSIG",
      "taf": "TAF LKMT 081700Z 0818/0918 35009KT CAVOK"
    },
    {
      "icao": "LKPR",
      "alert": "OK",
      "vis_m": 9999,
      "fzfg": false,
      "metar_trigger": false,
      "taf_trigger": false,
      "metar": "METAR LKPR 082000Z 26007KT CAVOK 16/09 Q1015 NOSIG",
      "taf": "TAF LKPR 082000Z 0821/1003 27010KT CAVOK"
    },
    {
      "icao": "LLBG",
      "alert": "OK",
      "vis_m": 9999,
      "fzfg": false,
      "metar_trigger": false,
      "taf_trigger": false,
      "metar": "METAR LLBG 081950Z 21004KT CAVOK 25/19 Q1009 NOSIG",
      "taf": "TAF LLBG 081701Z 0818/0918 VRB04KT 9999 SCT025 TX31/0911Z TN24/0903Z"
    },
    {
      "icao": "LMML",
      "alert": "OK",
      "vis_m": 9999,
      "fzfg": false,
      "metar_trigger": false,
      "taf_trigger": false,
      "metar": "METAR LMML 081945Z 27005KT 9999 FEW012 24/21 Q1013 NOSIG",
      "taf": "TAF LMML 081700Z 0818/0918 28010KT 9999 FEW020"
    },
    {
      "icao": "LOWW",
      "alert": "OK",
      "vis_m": 9999,
      "fzfg": false,
      "metar_trigger": false,
      "taf_trigger": false,
      "metar": "METAR LOWW 081950Z 33009KT CAVOK 22/09 Q1014 NOSIG",
      "taf": "TAF LOWW 081715Z 0818/0924 30013KT 9999 SCT040 TX26/0914Z TN15/0903Z"
    },
    {
      "icao": "LPFR",
      "alert": "OK",
      "vis_m": 9999,
      "fzfg": false,
      "metar_trigger": false,
      "taf_trigger": false,
      "metar": "METAR LPFR 082000Z 24005KT CAVOK 25/21 Q1014",
      "taf": "TAF LPFR 081700Z 0818/0918 23010KT CAVOK"
    },
    {
      "icao": "LPMA",
      "alert": "OK",
      "vis_m": 9999,
      "fzfg": false,
      "metar_trigger": false,
      "taf_trigger": false,
      "metar": "METAR LPMA 082000Z 08003KT 020V130 9999 BKN015 23/19 Q1020",
      "taf": "TAF LPMA 081700Z 0818/0918 VRB05KT 9999 SCT015"
    },
    {
      "icao": "LPPR",
      "alert": "OK",
      "vis_m": 9999,
      "fzfg": false,
      "metar_trigger": false,
      "taf_trigger": false,
      "metar": "METAR LPPR 082000Z 32007KT 290V350 9999 SCT008 18/16 Q1017",
      "taf": "TAF LPPR 081700Z 0818/0918 30010KT CAVOK"
    },
    {
      "icao": "LPPS",
      "alert": "OK",
      "vis_m": 9999,
      "fzfg": false,
      "metar_trigger": false,
      "taf_trigger": false,
      "metar": "METAR LPPS 082000Z 31010KT 9999 SCT015 23/19 Q1020",
      "taf": "TAF LPPS 081700Z 0818/0924 31008KT 9999 SCT015"
    },
    {
      "icao": "LPPT",
      "alert": "OK",
      "vis_m": 9999,
      "fzfg": false,
      "metar_trigger": false,
      "taf_trigger": false,
      "metar": "METAR LPPT 082000Z 30014KT CAVOK 22/16 Q1015 NOSIG",
      "taf": "TAF LPPT 081700Z 0818/0924 32010KT CAVOK"
    },
    {
      "icao": "LQBK",
      "alert": "OK",
      "vis_m": 9999,
      "fzfg": false,
      "metar_trigger": false,
      "taf_trigger": false,
      "metar": "METAR LQBK 082000Z 00000KT CAVOK 17/14 Q1014 NOSIG",
      "taf": "TAF LQBK 081700Z 0818/0918 16005KT CAVOK TX30/0914Z TN15/0903Z"
    },
    {
      "icao": "LQSA",
      "alert": "OK",
      "vis_m": 9999,
      "fzfg": false,
      "metar_trigger": false,
      "taf_trigger": false,
      "metar": "METAR LQSA 082000Z 31007KT CAVOK 20/14 Q1015 NOSIG",
      "taf": "TAF LQSA 081700Z 0818/0918 VRB02KT CAVOK TX27/0914Z TN14/0903Z"
    },
    {
      "icao": "LQTZ",
      "alert": "OK",
      "vis_m": 9999,
      "fzfg": false,
      "metar_trigger": false,
      "taf_trigger": false,
      "metar": "METAR LQTZ 082000Z 00000KT CAVOK 15/15 Q1015",
      "taf": "TAF LQTZ 081700Z 0818/0918 VRB02KT 9999 SCT060 TX27/0913Z TN13/0903Z"
    },
    {
      "icao": "LRBC",
      "alert": "OK",
      "vis_m": 9999,
      "fzfg": false,
      "metar_trigger": false,
      "taf_trigger": false,
      "metar": "METAR LRBC 082000Z 28001KT CAVOK 14/13 Q1010",
      "taf": "TAF LRBC 081700Z 0818/0903 33009KT 9999 SCT045"
    },
    {
      "icao": "LRBS",
      "alert": "OK",
      "vis_m": 9999,
      "fzfg": false,
      "metar_trigger": false,
      "taf_trigger": false,
      "metar": "METAR LRBS 082000Z 01004KT 330V080 9999 FEW049 22/16 Q1009 NOSIG",
      "taf": "TAF LRBS 081700Z 0818/0918 26006KT CAVOK"
    },
    {
      "icao": "LRBV",
      "alert": "OK",
      "vis_m": 9999,
      "fzfg": false,
      "metar_trigger": false,
      "taf_trigger": false,
      "metar": "METAR LRBV 082000Z 33005KT 290V360 9999 FEW059 13/12 Q1011",
      "taf": "TAF LRBV 081700Z 0818/0903 34010KT 9999 SCT065"
    },
    {
      "icao": "LRCL",
      "alert": "OK",
      "vis_m": 9999,
      "fzfg": false,
      "metar_trigger": false,
      "taf_trigger": false,
      "metar": "METAR LRCL 082000Z 24004KT 210V300 9999 -SHRA FEW015 FEW042CB BKN069 16/15 Q1011",
      "taf": "TAF LRCL 081700Z 0818/0903 30010KT 5000 TSRA BKN015 SCT035CB BKN055"
    },
    {
      "icao": "LRCV",
      "alert": "OK",
      "vis_m": 9999,
      "fzfg": false,
      "metar_trigger": false,
      "taf_trigger": false,
      "metar": "METAR LRCV 082000Z 30008KT CAVOK 21/14 Q1010",
      "taf": "TAF LRCV 081700Z 0818/0903 30010KT CAVOK"
    },
    {
      "icao": "LRIA",
      "alert": "OK",
      "vis_m": 9999,
      "fzfg": false,
      "metar_trigger": false,
      "taf_trigger": false,
      "metar": "METAR LRIA 082000Z 26005KT CAVOK 15/13 Q1009",
      "taf": "TAF LRIA 081700Z 0818/0903 29006KT 9999 SCT040"
    },
    {
      "icao": "LROP",
      "alert": "OK",
      "vis_m": 9999,
      "fzfg": false,
      "metar_trigger": false,
      "taf_trigger": false,
      "metar": "METAR LROP 082000Z 02004KT 350V080 CAVOK 22/14 Q1009 NOSIG",
      "taf": "TAF LROP 081700Z 0818/0918 25006KT CAVOK"
    },
    {
      "icao": "LRSB",
      "alert": "OK",
      "vis_m": 9999,
      "fzfg": false,
      "metar_trigger": false,
      "taf_trigger": false,
      "metar": "METAR LRSB 082000Z 04003KT 9999 -SHRA BKN040CB 15/14 Q1012",
      "taf": "TAF LRSB 081700Z 0818/0918 32012KT 9999 SCT045"
    },
    {
      "icao": "LRSM",
      "alert": "OK",
      "vis_m": 9999,
      "fzfg": false,
      "metar_trigger": false,
      "taf_trigger": false,
      "metar": "METAR LRSM 082000Z AUTO 19005KT 9999 NCD 15/13 Q1010",
      "taf": "TAF LRSM 081400Z 0815/0824 33008KT 9999 FEW040CB BKN045"
    },
    {
      "icao": "LRSV",
      "alert": "OK",
      "vis_m": 9999,
      "fzfg": false,
      "metar_trigger": false,
      "taf_trigger": false,
      "metar": "METAR LRSV 082000Z 29004KT CAVOK 16/12 Q1011",
      "taf": "TAF LRSV 081700Z 0818/0903 27008KT 9999 SCT035"
    },
    {
      "icao": "LRTM",
      "alert": "OK",
      "vis_m": 9999,
      "fzfg": false,
      "metar_trigger": false,
      "taf_trigger": false,
      "metar": "METAR LRTM 082000Z VRB01KT CAVOK 16/16 Q1011",
      "taf": "TAF LRTM 081700Z 0818/0903 24010KT 9999 SCT045"
    },
    {
      "icao": "LRTR",
      "alert": "OK",
      "vis_m": 9999,
      "fzfg": false,
      "metar_trigger": false,
      "taf_trigger": false,
      "metar": "METAR LRTR 082000Z 26010KT CAVOK 20/16 Q1011",
      "taf": "TAF LRTR 081700Z 0818/0918 27012KT CAVOK"
    },
    {
      "icao": "LTAC",
      "alert": "OK",
      "vis_m": 9999,
      "fzfg": false,
      "metar_trigger": false,
      "taf_trigger": false,
      "metar": "METAR LTAC 081950Z 03003KT 360V060 CAVOK 20/09 Q1011 NOSIG RMK RWY21C 06003KT 010V090 RWY03L 03003KT RWY21R 06004KT 020V080 RWY03R VRB02KT RWY21L 08003KT",
      "taf": "TAF LTAC 081640Z 0818/0918 VRB02KT CAVOK"
    },
    {
      "icao": "LTFM",
      "alert": "OK",
      "vis_m": 9999,
      "fzfg": false,
      "metar_trigger": false,
      "taf_trigger": false,
      "metar": "METAR LTFM 081950Z 20006KT 170V240 CAVOK 26/12 Q1008 NOSIG RMK RWY17L 20006KT 170V240 RWY34L VRB03KT RWY16R 18006KT RWY36 18006KT 100V200 RWY18 19006KT",
      "taf": "TAF LTFM 081640Z 0818/0924 12010KT CAVOK"
    },
    {
      "icao": "LUKK",
      "alert": "OK",
      "vis_m": 9999,
      "fzfg": false,
      "metar_trigger": false,
      "taf_trigger": false,
      "metar": "METAR LUKK 082000Z 33007KT 9999 FEW049CB 19/14 Q1008 TEMPO SCT045CB",
      "taf": "TAF LUKK 081725Z 0818/0918 32008KT CAVOK"
    },
    {
      "icao": "LWOH",
      "alert": "OK",
      "vis_m": 9999,
      "fzfg": false,
      "metar_trigger": false,
      "taf_trigger": false,
      "metar": "METAR LWOH 081920Z VRB02KT 9999 FEW033 20/14 Q1014",
      "taf": "TAF LWOH 081715Z 0818/0918 30006KT 9999 FEW040 SCT080"
    },
    {
      "icao": "LWSK",
      "alert": "OK",
      "vis_m": 9999,
      "fzfg": false,
      "metar_trigger": false,
      "taf_trigger": false,
      "metar": "METAR LWSK 081950Z VRB02KT 9999 FEW070 BKN100 25/14 Q1012 NOSIG",
      "taf": "TAF LWSK 081715Z 0818/0918 36010KT 9999 FEW040 BKN080"
    },
    {
      "icao": "LYBE",
      "alert": "OK",
      "vis_m": 9999,
      "fzfg": false,
      "metar_trigger": false,
      "taf_trigger": false,
      "metar": "METAR LYBE 082000Z 28006KT CAVOK 18/15 Q1013 NOSIG",
      "taf": "TAF LYBE 081700Z 0818/0918 25007KT CAVOK TX27/0913Z TN15/0903Z"
    },
    {
      "icao": "LYNI",
      "alert": "OK",
      "vis_m": 9999,
      "fzfg": false,
      "metar_trigger": false,
      "taf_trigger": false,
      "metar": "METAR LYNI 082000Z 22003KT 160V280 9999 SCT050 20/14 Q1013 NOSIG",
      "taf": "TAF LYNI 081700Z 0818/0918 32005KT CAVOK TX27/0913Z TN15/0903Z"
    },
    {
      "icao": "LYPG",
      "alert": "OK",
      "vis_m": 9999,
      "fzfg": false,
      "metar_trigger": false,
      "taf_trigger": false,
      "metar": "METAR LYPG 082000Z 34005KT 9999 FEW050 SCT090 26/16 Q1010 NOSIG",
      "taf": "TAF LYPG 081700Z 0818/0918 18005KT 9999 FEW040 SCT080 TX33/0913Z TN24/0903Z"
    },
    {
      "icao": "LZIB",
      "alert": "OK",
      "vis_m": 9999,
      "fzfg": false,
      "metar_trigger": false,
      "taf_trigger": false,
      "metar": "METAR LZIB 082000Z 34007KT CAVOK 22/05 Q1013 NOSIG",
      "taf": "TAF LZIB 081715Z 0818/0918 33006KT CAVOK"
    },
    {
      "icao": "LZKZ",
      "alert": "OK",
      "vis_m": 9999,
      "fzfg": false,
      "metar_trigger": false,
      "taf_trigger": false,
      "metar": "METAR LZKZ 082000Z 35014KT CAVOK 19/05 Q1011 NOSIG",
      "taf": "TAF LZKZ 081715Z 0818/0918 01013KT CAVOK"
    },
    {
      "icao": "LZTT",
      "alert": "OK",
      "vis_m": 9999,
      "fzfg": false,
      "metar_trigger": false,
      "taf_trigger": false,
      "metar": "METAR LZTT 082000Z VRB02KT 9999 FEW066 13/03 Q1013",
      "taf": "TAF LZTT 081715Z 0818/0918 27013KT 9999 FEW060"
    },
    {
      "icao": "OEJN",
      "alert": "OK",
      "vis_m": 9999,
      "fzfg": false,
      "metar_trigger": false,
      "taf_trigger": false,
      "metar": "METAR OEJN 082000Z 01005KT CAVOK 34/17 Q1004 NOSIG",
      "taf": "TAF OEJN 081700Z 0818/0924 36006KT 7000 NSC"
    },
    {
      "icao": "OEMA",
      "alert": "OK",
      "vis_m": 9999,
      "fzfg": false,
      "metar_trigger": false,
      "taf_trigger": false,
      "metar": "METAR OEMA 082000Z 27012KT CAVOK 38/05 Q1010 NOSIG",
      "taf": "TAF OEMA 081700Z 0818/0924 30010KT CAVOK"
    },
    {
      "icao": "OJAI",
      "alert": "OK",
      "vis_m": 5000,
      "fzfg": false,
      "metar_trigger": false,
      "taf_trigger": false,
      "metar": "METAR OJAI 082000Z 28008KT 5000 HZ NSC 20/11 Q1013 NOSIG",
      "taf": "TAF OJAI 081700Z 0818/0924 30010KT 5000 HZ NSC"
    },
    {
      "icao": "OMAA",
      "alert": "OK",
      "vis_m": 9999,
      "fzfg": false,
      "metar_trigger": false,
      "taf_trigger": false,
      "metar": "METAR OMAA 082000Z 26003KT CAVOK 33/28 Q0996 NOSIG",
      "taf": "TAF OMAA 081700Z 0818/1000 VRB02KT 8000 NSC"
    },
    {
      "icao": "OMDB",
      "alert": "OK",
      "vis_m": 9999,
      "fzfg": false,
      "metar_trigger": false,
      "taf_trigger": false,
      "metar": "METAR OMDB 082000Z 22004KT 140V260 CAVOK 35/27 Q0995 NOSIG",
      "taf": "TAF OMDB 081700Z 0818/1000 19005KT 8000 NSC"
    },
    {
      "icao": "UAAA",
      "alert": "OK",
      "vis_m": 9999,
      "fzfg": false,
      "metar_trigger": false,
      "taf_trigger": false,
      "metar": "METAR UAAA 082000Z 20002MPS 160V240 9999 FEW050CB SCT100 21/12 Q1008 NOSIG",
      "taf": "TAF UAAA 081701Z 0818/0918 18003MPS 9999 SCT050CB BKN100 TX31/0910Z TN18/0902Z"
    },
    {
      "icao": "UBBB",
      "alert": "OK",
      "vis_m": 9999,
      "fzfg": false,
      "metar_trigger": false,
      "taf_trigger": false,
      "metar": "METAR UBBB 082000Z 33018KT 9999 SCT013 23/20 Q1007 NOSIG",
      "taf": "TAF UBBB 081714Z 0818/0918 32018G28KT 9999 SCT015 FEW060CB TX27/0910Z TN20/0801Z"
    },
    {
      "icao": "UDSG",
      "alert": "OK",
      "vis_m": 9999,
      "fzfg": false,
      "metar_trigger": false,
      "taf_trigger": false,
      "metar": "METAR UDSG 082000Z 30004KT 9999 BKN040CB 13/13 Q1016 NOSIG",
      "taf": "TAF UDSG 081700Z 0818/0918 06006KT 9999 SCT040"
    },
    {
      "icao": "UDYZ",
      "alert": "OK",
      "vis_m": 9999,
      "fzfg": false,
      "metar_trigger": false,
      "taf_trigger": false,
      "metar": "METAR UDYZ 082000Z 25010KT 9999 BKN043CB 20/16 Q1011 NOSIG",
      "taf": "TAF UDYZ 081700Z 0818/0918 03006KT 9999 SCT040"
    },
    {
      "icao": "UGKO",
      "alert": "OK",
      "vis_m": 9999,
      "fzfg": false,
      "metar_trigger": false,
      "taf_trigger": false,
      "metar": "METAR UGKO 082000Z 19001KT 9999 OVC035 22/19 Q1009 NOSIG",
      "taf": "TAF UGKO 081700Z 0818/0918 26007KT 9999 BKN050 TX31/0911Z TN18/0902Z"
    }
  ]
}