{
  "ts_utc": "2026-05-15T18:52:45Z",
  "threshold_m": 150,
  "source": "stations_override.txt (ICAO list) + aviationweather.gov (METAR/TAF raw)",
  "station_count": 159,
  "stations": [
    {
      "icao": "BIKF",
      "alert": "OK",
      "vis_m": 9999,
      "fzfg": false,
      "metar_trigger": false,
      "taf_trigger": false,
      "metar": "METAR BIKF 151830Z 13027G37KT 9999 -DZ SCT009 OVC040 08/07 Q1001",
      "taf": "TAF BIKF 151652Z 1518/1618 13026G36KT 9999 -RA BKN012 OVC020 TX08/1518Z TN06/1609Z"
    },
    {
      "icao": "BKPR",
      "alert": "OK",
      "vis_m": 9999,
      "fzfg": false,
      "metar_trigger": false,
      "taf_trigger": false,
      "metar": "METAR BKPR 151830Z 23016KT 9999 SCT085 16/08 Q1007 NOSIG",
      "taf": "TAF BKPR 151730Z 1518/1618 24008KT 9999 SCT050"
    },
    {
      "icao": "EBCI",
      "alert": "OK",
      "vis_m": 9999,
      "fzfg": false,
      "metar_trigger": false,
      "taf_trigger": false,
      "metar": "METAR EBCI 151820Z 34005KT 300V020 9999 FEW030 09/04 Q1007 NOSIG",
      "taf": "TAF EBCI 151700Z 1518/1624 32007KT 9999 FEW020TCU SCT040"
    },
    {
      "icao": "EDDB",
      "alert": "OK",
      "vis_m": 9999,
      "fzfg": false,
      "metar_trigger": false,
      "taf_trigger": false,
      "metar": "METAR EDDB 151820Z AUTO 28004KT CAVOK 13/05 Q1002 NOSIG",
      "taf": "TAF EDDB 151700Z 1518/1618 27005KT CAVOK"
    },
    {
      "icao": "EDDH",
      "alert": "OK",
      "vis_m": 9999,
      "fzfg": false,
      "metar_trigger": false,
      "taf_trigger": false,
      "metar": "METAR EDDH 151820Z AUTO VRB02KT 9999 -SHRA SCT031 BKN046 FEW///TCU 08/07 Q1002 RESHRA BECMG 24005KT",
      "taf": "TAF EDDH 151700Z 1518/1624 24007KT 9999 SCT030"
    },
    {
      "icao": "EDDK",
      "alert": "OK",
      "vis_m": 9999,
      "fzfg": false,
      "metar_trigger": false,
      "taf_trigger": false,
      "metar": "METAR EDDK 151820Z AUTO 29009KT 9999 -SHRA SCT046 FEW///CB 09/05 Q1005 RESHRA NOSIG",
      "taf": "TAF EDDK 151700Z 1518/1624 30008KT 9999 SCT035"
    },
    {
      "icao": "EDDN",
      "alert": "OK",
      "vis_m": 9999,
      "fzfg": false,
      "metar_trigger": false,
      "taf_trigger": false,
      "metar": "METAR EDDN 151820Z AUTO 31005KT 9999 FEW042 10/05 Q1003 NOSIG",
      "taf": "TAF EDDN 151700Z 1518/1618 30006KT 9999 SCT040"
    },
    {
      "icao": "EDDS",
      "alert": "OK",
      "vis_m": 9999,
      "fzfg": false,
      "metar_trigger": false,
      "taf_trigger": false,
      "metar": "METAR EDDS 151820Z AUTO 31008KT CAVOK 10/04 Q1004 NOSIG",
      "taf": "TAF EDDS 151700Z 1518/1618 30005KT 9999 SCT035"
    },
    {
      "icao": "EDFH",
      "alert": "OK",
      "vis_m": 9999,
      "fzfg": false,
      "metar_trigger": false,
      "taf_trigger": false,
      "metar": "METAR EDFH 151820Z VRB02KT 9999 FEW042 07/03 Q1004",
      "taf": "TAF EDFH 151700Z 1518/1618 29005KT 9999 SCT035"
    },
    {
      "icao": "EDJA",
      "alert": "OK",
      "vis_m": 9999,
      "fzfg": false,
      "metar_trigger": false,
      "taf_trigger": false,
      "metar": "METAR EDJA 151820Z VRB02KT 9999 -RA BKN022 BKN032 OVC036 06/05 Q1004",
      "taf": "TAF EDJA 151700Z 1518/1603 26006KT 9999 SCT030"
    },
    {
      "icao": "EDLW",
      "alert": "OK",
      "vis_m": 9999,
      "fzfg": false,
      "metar_trigger": false,
      "taf_trigger": false,
      "metar": "METAR EDLW 151820Z 22006KT 9999 BKN038 BKN046 08/06 Q1004",
      "taf": "TAF EDLW 151700Z 1518/1618 23010KT 9999 SCT040"
    },
    {
      "icao": "EDNY",
      "alert": "OK",
      "vis_m": 9999,
      "fzfg": false,
      "metar_trigger": false,
      "taf_trigger": false,
      "metar": "METAR EDNY 151820Z 15005KT 080V230 9999 FEW028 BKN032 BKN042 09/05 Q1004",
      "taf": ""
    },
    {
      "icao": "EDSB",
      "alert": "OK",
      "vis_m": 9999,
      "fzfg": false,
      "metar_trigger": false,
      "taf_trigger": false,
      "metar": "METAR EDSB 151820Z 23004KT 210V270 CAVOK 10/06 Q1005",
      "taf": "TAF EDSB 151700Z 1518/1618 17004KT 9999 FEW045"
    },
    {
      "icao": "EETN",
      "alert": "OK",
      "vis_m": 9999,
      "fzfg": false,
      "metar_trigger": false,
      "taf_trigger": false,
      "metar": "METAR EETN 151850Z 07006KT CAVOK 13/03 Q1005 NOSIG",
      "taf": "TAF EETN 151730Z 1518/1618 08010KT CAVOK"
    },
    {
      "icao": "EFTU",
      "alert": "OK",
      "vis_m": 9999,
      "fzfg": false,
      "metar_trigger": false,
      "taf_trigger": false,
      "metar": "METAR EFTU 151850Z AUTO 31002KT CAVOK 14/06 Q1005",
      "taf": "TAF EFTU 151732Z 1518/1618 22005KT CAVOK"
    },
    {
      "icao": "EGBB",
      "alert": "OK",
      "vis_m": 9999,
      "fzfg": false,
      "metar_trigger": false,
      "taf_trigger": false,
      "metar": "METAR EGBB 151820Z 33013KT CAVOK 11/M01 Q1008",
      "taf": "TAF EGBB 151655Z 1518/1618 33012KT 9999 SCT040"
    },
    {
      "icao": "EGGP",
      "alert": "OK",
      "vis_m": 9999,
      "fzfg": false,
      "metar_trigger": false,
      "taf_trigger": false,
      "metar": "METAR EGGP 151820Z 29011KT 9999 VCSH SCT048 FEW055CB 10/01 Q1008",
      "taf": "TAF EGGP 151653Z 1518/1618 32010KT 9999 SCT040"
    },
    {
      "icao": "EGGW",
      "alert": "OK",
      "vis_m": 9999,
      "fzfg": false,
      "metar_trigger": false,
      "taf_trigger": false,
      "metar": "METAR EGGW 151820Z AUTO 02005KT 9999 NCD 11/M00 Q1007",
      "taf": "TAF EGGW 151655Z 1518/1618 35012KT 9999 FEW040"
    },
    {
      "icao": "EGKK",
      "alert": "OK",
      "vis_m": 9999,
      "fzfg": false,
      "metar_trigger": false,
      "taf_trigger": false,
      "metar": "METAR EGKK 151820Z 23007KT CAVOK 11/06 Q1007",
      "taf": "TAF EGKK 151701Z 1518/1624 31010KT 9999 FEW045"
    },
    {
      "icao": "EGNM",
      "alert": "OK",
      "vis_m": 9999,
      "fzfg": false,
      "metar_trigger": false,
      "taf_trigger": false,
      "metar": "METAR EGNM 151820Z 27011KT 9999 FEW032 09/01 Q1007",
      "taf": "TAF EGNM 151653Z 1518/1618 31011KT 9999 FEW035"
    },
    {
      "icao": "EGPD",
      "alert": "OK",
      "vis_m": 7000,
      "fzfg": false,
      "metar_trigger": false,
      "taf_trigger": false,
      "metar": "METAR EGPD 151820Z 33013KT 7000 -RA FEW012 BKN027 07/04 Q1005 RERA",
      "taf": "TAF EGPD 151702Z 1518/1618 33018G30KT 9999 FEW025 SCT035"
    },
    {
      "icao": "EGPF",
      "alert": "OK",
      "vis_m": 9999,
      "fzfg": false,
      "metar_trigger": false,
      "taf_trigger": false,
      "metar": "METAR EGPF 151820Z AUTO 30011KT 9999 NCD 12/01 Q1007",
      "taf": "TAF EGPF 151704Z 1518/1618 31010KT 9999 SCT030"
    },
    {
      "icao": "EHBK",
      "alert": "OK",
      "vis_m": 9999,
      "fzfg": false,
      "metar_trigger": false,
      "taf_trigger": false,
      "metar": "METAR EHBK 151825Z AUTO 32009KT 270V360 9999 SCT025 09/04 Q1006 NOSIG",
      "taf": "TAF EHBK 151720Z 1518/1624 27007KT 9999 BKN035"
    },
    {
      "icao": "EHEH",
      "alert": "OK",
      "vis_m": 9999,
      "fzfg": false,
      "metar_trigger": false,
      "taf_trigger": false,
      "metar": "METAR EHEH 151825Z AUTO 30006KT 230V350 9999 DZ SCT034 BKN042 OVC047 08/05 Q1006 BLU TEMPO FEW015 SCT020CB SCT025",
      "taf": "TAF EHEH 151755Z 1518/1624 27006KT 9999 SCT030"
    },
    {
      "icao": "EKBI",
      "alert": "OK",
      "vis_m": 9999,
      "fzfg": false,
      "metar_trigger": false,
      "taf_trigger": false,
      "metar": "METAR EKBI 151822Z 18008KT 150V210 9999 -RA BKN012 FEW020CB BKN034 08/07 Q0998",
      "taf": "TAF EKBI 151727Z 1518/1618 19011KT 9999 BKN020"
    },
    {
      "icao": "EKCH",
      "alert": "OK",
      "vis_m": 9999,
      "fzfg": false,
      "metar_trigger": false,
      "taf_trigger": false,
      "metar": "METAR EKCH 151820Z AUTO 16012KT 9999 NCD 11/04 Q1001 NOSIG",
      "taf": "TAF EKCH 151727Z 1518/1618 15013KT 9999 SCT030"
    },
    {
      "icao": "ENAL",
      "alert": "OK",
      "vis_m": 9999,
      "fzfg": false,
      "metar_trigger": false,
      "taf_trigger": false,
      "metar": "METAR ENAL 151820Z 04009KT 9999 SCT060 11/03 Q0998",
      "taf": "TAF ENAL 151700Z 1518/1603 06010KT 9999 FEW050"
    },
    {
      "icao": "ENBR",
      "alert": "OK",
      "vis_m": 9999,
      "fzfg": false,
      "metar_trigger": false,
      "taf_trigger": false,
      "metar": "METAR ENBR 151820Z 06007KT 020V090 CAVOK 13/M01 Q0996 NOSIG RMK WIND 1200FT 09006KT",
      "taf": "TAF ENBR 151700Z 1518/1618 12005KT 9999 SCT050"
    },
    {
      "icao": "ENGM",
      "alert": "OK",
      "vis_m": 9999,
      "fzfg": false,
      "metar_trigger": false,
      "taf_trigger": false,
      "metar": "METAR ENGM 151820Z 33006KT 300V360 9999 FEW011 SCT030CB 06/04 Q1001 TEMPO SHRA",
      "taf": "TAF ENGM 151700Z 1518/1618 02008KT 9999 FEW020 SCT040"
    },
    {
      "icao": "ENHD",
      "alert": "OK",
      "vis_m": 9999,
      "fzfg": false,
      "metar_trigger": false,
      "taf_trigger": false,
      "metar": "METAR ENHD 151820Z 10005KT 070V130 9999 FEW047 12/02 Q0995",
      "taf": "TAF ENHD 151400Z 1515/1522 11008KT 9999 BKN040"
    },
    {
      "icao": "ENTC",
      "alert": "OK",
      "vis_m": 9999,
      "fzfg": false,
      "metar_trigger": false,
      "taf_trigger": false,
      "metar": "METAR ENTC 151820Z 21008KT 9999 BKN068 11/03 Q1005 NOSIG RMK WIND 2600FT 17037KT",
      "taf": "TAF ENTC 151700Z 1518/1618 18015KT CAVOK"
    },
    {
      "icao": "ENTO",
      "alert": "OK",
      "vis_m": 9999,
      "fzfg": false,
      "metar_trigger": false,
      "taf_trigger": false,
      "metar": "METAR ENTO 151820Z 15009KT 120V180 9999 FEW025TCU 10/05 Q1000 NOSIG",
      "taf": "TAF ENTO 151700Z 1518/1618 15010KT 9999 SCT030"
    },
    {
      "icao": "ENVA",
      "alert": "OK",
      "vis_m": 9999,
      "fzfg": false,
      "metar_trigger": false,
      "taf_trigger": false,
      "metar": "METAR ENVA 151820Z 13012KT CAVOK 13/02 Q1001 NOSIG RMK WIND 670FT 14017KT",
      "taf": "TAF ENVA 151700Z 1518/1618 13012KT 9999 FEW050"
    },
    {
      "icao": "ENZV",
      "alert": "OK",
      "vis_m": 9999,
      "fzfg": false,
      "metar_trigger": false,
      "taf_trigger": false,
      "metar": "METAR ENZV 151820Z 27003KT 9999 SCT026 BKN037 OVC043 09/05 Q0995 RERA NOSIG",
      "taf": "TAF ENZV 151700Z 1518/1618 VRB05KT 9999 BKN040"
    },
    {
      "icao": "EPGD",
      "alert": "OK",
      "vis_m": 9999,
      "fzfg": false,
      "metar_trigger": false,
      "taf_trigger": false,
      "metar": "METAR EPGD 151830Z 34004KT 9999 -RA FEW005 SCT036 BKN049 09/08 Q1001",
      "taf": "TAF EPGD 151730Z 1518/1618 28010KT 9999 BKN030"
    },
    {
      "icao": "EPKK",
      "alert": "OK",
      "vis_m": 9999,
      "fzfg": false,
      "metar_trigger": false,
      "taf_trigger": false,
      "metar": "METAR EPKK 151830Z 26005KT CAVOK 12/08 Q1002",
      "taf": "TAF EPKK 151730Z 1518/1618 27005KT 9999 SCT050"
    },
    {
      "icao": "EPKT",
      "alert": "OK",
      "vis_m": 9999,
      "fzfg": false,
      "metar_trigger": false,
      "taf_trigger": false,
      "metar": "METAR EPKT 151830Z 25005KT CAVOK 10/07 Q1002",
      "taf": "TAF EPKT 151730Z 1518/1618 24008KT CAVOK"
    },
    {
      "icao": "EPLB",
      "alert": "OK",
      "vis_m": 9999,
      "fzfg": false,
      "metar_trigger": false,
      "taf_trigger": false,
      "metar": "METAR EPLB 151830Z 32003KT CAVOK 12/08 Q1002",
      "taf": "TAF EPLB 151730Z 1518/1618 18005KT CAVOK"
    },
    {
      "icao": "EPMO",
      "alert": "OK",
      "vis_m": 9999,
      "fzfg": false,
      "metar_trigger": false,
      "taf_trigger": false,
      "metar": "METAR EPMO 151830Z 19004KT 140V240 9999 -SHRA FEW025 SCT035CB 12/09 Q1001 RETSRA",
      "taf": "TAF EPMO 151730Z 1518/1618 VRB04KT CAVOK"
    },
    {
      "icao": "EPPO",
      "alert": "OK",
      "vis_m": 9999,
      "fzfg": false,
      "metar_trigger": false,
      "taf_trigger": false,
      "metar": "METAR EPPO 151830Z 34003KT CAVOK 10/09 Q1001",
      "taf": "TAF EPPO 151730Z 1518/1618 33010KT 9999 SCT030"
    },
    {
      "icao": "EPRA",
      "alert": "OK",
      "vis_m": 9999,
      "fzfg": false,
      "metar_trigger": false,
      "taf_trigger": false,
      "metar": "METAR EPRA 151830Z 19006KT 160V220 CAVOK 12/10 Q1002",
      "taf": "TAF EPRA 151730Z 1518/1603 15010KT CAVOK"
    },
    {
      "icao": "EPRZ",
      "alert": "OK",
      "vis_m": 9999,
      "fzfg": false,
      "metar_trigger": false,
      "taf_trigger": false,
      "metar": "METAR EPRZ 151830Z 18004KT 9999 FEW050CB 13/09 Q1002",
      "taf": "TAF EPRZ 151730Z 1518/1618 18005KT CAVOK"
    },
    {
      "icao": "EPSC",
      "alert": "OK",
      "vis_m": 9999,
      "fzfg": false,
      "metar_trigger": false,
      "taf_trigger": false,
      "metar": "METAR EPSC 151830Z 05002KT CAVOK 11/09 Q1001",
      "taf": "TAF EPSC 151730Z 1518/1618 VRB04KT CAVOK"
    },
    {
      "icao": "EPSY",
      "alert": "OK",
      "vis_m": 9999,
      "fzfg": false,
      "metar_trigger": false,
      "taf_trigger": false,
      "metar": "METAR EPSY 151830Z 20004KT 160V230 CAVOK 13/09 Q1001",
      "taf": "TAF EPSY 151730Z 1518/1603 18008KT CAVOK"
    },
    {
      "icao": "EPWA",
      "alert": "OK",
      "vis_m": 9999,
      "fzfg": false,
      "metar_trigger": false,
      "taf_trigger": false,
      "metar": "METAR EPWA 151830Z 25006KT 200V270 CAVOK 14/08 Q1001 NOSIG",
      "taf": "TAF EPWA 151730Z 1518/1618 VRB04KT CAVOK"
    },
    {
      "icao": "EPWR",
      "alert": "OK",
      "vis_m": 9999,
      "fzfg": false,
      "metar_trigger": false,
      "taf_trigger": false,
      "metar": "METAR EPWR 151830Z 22003KT CAVOK 11/10 Q1002",
      "taf": "TAF EPWR 151730Z 1518/1618 VRB02KT 9999 SCT030"
    },
    {
      "icao": "ESGG",
      "alert": "OK",
      "vis_m": 9999,
      "fzfg": false,
      "metar_trigger": false,
      "taf_trigger": false,
      "metar": "METAR ESGG 151820Z 21008KT CAVOK 11/02 Q1000",
      "taf": "TAF ESGG 151730Z 1518/1618 11005KT CAVOK"
    },
    {
      "icao": "ESKN",
      "alert": "OK",
      "vis_m": 9999,
      "fzfg": false,
      "metar_trigger": false,
      "taf_trigger": false,
      "metar": "METAR ESKN 151820Z 04003KT CAVOK 09/07 Q1003",
      "taf": "TAF ESKN 151730Z 1518/1618 13010KT 9999 FEW020"
    },
    {
      "icao": "ESMS",
      "alert": "OK",
      "vis_m": 9999,
      "fzfg": false,
      "metar_trigger": false,
      "taf_trigger": false,
      "metar": "METAR ESMS 151820Z 17005KT CAVOK 10/02 Q1001",
      "taf": "TAF ESMS 151727Z 1518/1618 17007KT 9999 SCT025"
    },
    {
      "icao": "ESSA",
      "alert": "OK",
      "vis_m": 9999,
      "fzfg": false,
      "metar_trigger": false,
      "taf_trigger": false,
      "metar": "METAR ESSA 151820Z 09007KT CAVOK 11/05 Q1004 NOSIG",
      "taf": "TAF ESSA 151730Z 1518/1618 14010KT 9999 FEW040"
    },
    {
      "icao": "EYKA",
      "alert": "OK",
      "vis_m": 9999,
      "fzfg": false,
      "metar_trigger": false,
      "taf_trigger": false,
      "metar": "METAR EYKA 151850Z 07005KT CAVOK 13/06 Q1002",
      "taf": "TAF EYKA 151701Z 1518/1618 VRB03KT 9000 NSC"
    },
    {
      "icao": "EYPA",
      "alert": "OK",
      "vis_m": 9999,
      "fzfg": false,
      "metar_trigger": false,
      "taf_trigger": false,
      "metar": "METAR EYPA 151850Z 12005KT CAVOK 17/06 Q1000",
      "taf": ""
    },
    {
      "icao": "EYVI",
      "alert": "OK",
      "vis_m": 9999,
      "fzfg": false,
      "metar_trigger": false,
      "taf_trigger": false,
      "metar": "METAR EYVI 151850Z VRB01KT CAVOK 10/06 Q1003 NOSIG",
      "taf": "TAF EYVI 151701Z 1518/1618 VRB03KT CAVOK"
    },
    {
      "icao": "GCFV",
      "alert": "OK",
      "vis_m": 9999,
      "fzfg": false,
      "metar_trigger": false,
      "taf_trigger": false,
      "metar": "METAR GCFV 151830Z 35020KT 9999 FEW035 21/10 Q1018",
      "taf": "TAF GCFV 151400Z 1515/1615 02020KT 9999 SCT035 TX24/1614Z TN17/1606Z"
    },
    {
      "icao": "GCLP",
      "alert": "OK",
      "vis_m": 9999,
      "fzfg": false,
      "metar_trigger": false,
      "taf_trigger": false,
      "metar": "METAR GCLP 151830Z 01022KT 9999 SCT035 20/11 Q1019 NOSIG",
      "taf": "TAF GCLP 151400Z 1515/1615 02022KT 9999 SCT030 TX23/1614Z TN17/1606Z"
    },
    {
      "icao": "GCTS",
      "alert": "OK",
      "vis_m": 9999,
      "fzfg": false,
      "metar_trigger": false,
      "taf_trigger": false,
      "metar": "METAR GCTS 151830Z COR 09016KT 9999 FEW050 20/12 Q1019 NOSIG",
      "taf": "TAF GCTS 151400Z 1515/1615 10020KT 9999 SCT035 TX23/1614Z TN15/1606Z"
    },
    {
      "icao": "GMAD",
      "alert": "OK",
      "vis_m": 9999,
      "fzfg": false,
      "metar_trigger": false,
      "taf_trigger": false,
      "metar": "METAR GMAD 151830Z 27015KT 9999 FEW033 23/10 Q1010 NOSIG",
      "taf": "TAF GMAD 151700Z 1518/1624 26019KT 8000 FEW033"
    },
    {
      "icao": "GMMN",
      "alert": "OK",
      "vis_m": 9999,
      "fzfg": false,
      "metar_trigger": false,
      "taf_trigger": false,
      "metar": "METAR GMMN 151830Z 34013KT 9999 BKN030 18/12 Q1015 NOSIG",
      "taf": "TAF GMMN 151700Z 1518/1624 32012KT 9999 BKN030"
    },
    {
      "icao": "GMMX",
      "alert": "OK",
      "vis_m": 6000,
      "fzfg": false,
      "metar_trigger": false,
      "taf_trigger": false,
      "metar": "METAR GMMX 151830Z VRB02KT 6000 -RA SCT010 BKN016 17/12 Q1014 TEMPO 1500 SHRA",
      "taf": "TAF GMMX 151700Z 1518/1624 24006KT 8000 SCT023 SCT080"
    },
    {
      "icao": "HEGN",
      "alert": "OK",
      "vis_m": 9999,
      "fzfg": false,
      "metar_trigger": false,
      "taf_trigger": false,
      "metar": "METAR HEGN 151800Z 32019KT CAVOK 32/02 Q1007 NOSIG",
      "taf": "TAF HEGN 151700Z 1518/1624 32015KT CAVOK"
    },
    {
      "icao": "HEMA",
      "alert": "OK",
      "vis_m": 9999,
      "fzfg": false,
      "metar_trigger": false,
      "taf_trigger": false,
      "metar": "METAR HEMA 151800Z 33008KT CAVOK 30/04 Q1007 NOSIG",
      "taf": "TAF HEMA 151700Z 1518/1624 30015KT CAVOK"
    },
    {
      "icao": "HESH",
      "alert": "OK",
      "vis_m": 9999,
      "fzfg": false,
      "metar_trigger": false,
      "taf_trigger": false,
      "metar": "METAR HESH 151800Z 00000KT CAVOK 30/09 Q1006 NOSIG",
      "taf": "TAF HESH 151700Z 1518/1624 35014KT CAVOK"
    },
    {
      "icao": "HESX",
      "alert": "OK",
      "vis_m": 9999,
      "fzfg": false,
      "metar_trigger": false,
      "taf_trigger": false,
      "metar": "METAR HESX 151800Z 34010KT CAVOK 23/09 Q1012 NOSIG",
      "taf": "TAF HESX 151700Z 1518/1624 32010KT CAVOK"
    },
    {
      "icao": "LATI",
      "alert": "OK",
      "vis_m": 9999,
      "fzfg": false,
      "metar_trigger": false,
      "taf_trigger": false,
      "metar": "METAR LATI 151850Z VRB03KT CAVOK 17/10 Q1008 NOSIG",
      "taf": "TAF LATI 151700Z 1518/1618 22010KT CAVOK TX20/1612Z TN15/1604Z"
    },
    {
      "icao": "LBPD",
      "alert": "OK",
      "vis_m": 9999,
      "fzfg": false,
      "metar_trigger": false,
      "taf_trigger": false,
      "metar": "METAR LBPD 151830Z AUTO 17004KT 140V220 9999 FEW100/// OVC120/// 18/10 Q1006 NOSIG",
      "taf": "TAF LBPD 151700Z 1518/1618 12010KT 9999 SCT070"
    },
    {
      "icao": "LBSF",
      "alert": "OK",
      "vis_m": 9999,
      "fzfg": false,
      "metar_trigger": false,
      "taf_trigger": false,
      "metar": "METAR LBSF 151830Z AUTO 09007KT 9999 FEW011/// 16/10 Q1007 NOSIG",
      "taf": "TAF LBSF 151700Z 1518/1618 12010KT 9999 SCT060"
    },
    {
      "icao": "LBWN",
      "alert": "OK",
      "vis_m": 9999,
      "fzfg": false,
      "metar_trigger": false,
      "taf_trigger": false,
      "metar": "METAR LBWN 151830Z AUTO 11007KT 9999 NCD 13/10 Q1008 NOSIG",
      "taf": "TAF LBWN 151700Z 1518/1618 10010KT 9999 SCT045"
    },
    {
      "icao": "LCLK",
      "alert": "OK",
      "vis_m": 9999,
      "fzfg": false,
      "metar_trigger": false,
      "taf_trigger": false,
      "metar": "METAR LCLK 151830Z 24005KT 220V330 CAVOK 20/15 Q1007 NOSIG",
      "taf": "TAF LCLK 151730Z 1518/1618 21010KT 9999 FEW030"
    },
    {
      "icao": "LCPH",
      "alert": "OK",
      "vis_m": 9999,
      "fzfg": false,
      "metar_trigger": false,
      "taf_trigger": false,
      "metar": "METAR LCPH 151830Z 31013KT 9999 SCT015 BKN019 BKN026 19/16 Q1009 NOSIG",
      "taf": "TAF LCPH 151730Z 1518/1618 29016KT 9999 SCT014"
    },
    {
      "icao": "LEAL",
      "alert": "OK",
      "vis_m": 9999,
      "fzfg": false,
      "metar_trigger": false,
      "taf_trigger": false,
      "metar": "METAR LEAL 151830Z 24004KT 210V270 9999 FEW012 BKN065 17/10 Q1009 NOSIG",
      "taf": "TAF LEAL 151700Z 1518/1618 30006KT 9999 FEW015 TX23/1612Z TN11/1606Z"
    },
    {
      "icao": "LEBB",
      "alert": "OK",
      "vis_m": 9999,
      "fzfg": false,
      "metar_trigger": false,
      "taf_trigger": false,
      "metar": "METAR LEBB 151830Z 31010KT 270V340 9999 FEW028TCU SCT034 14/07 Q1015 NOSIG",
      "taf": "TAF LEBB 151700Z 1518/1618 31009KT 9999 FEW020 BKN040 TX18/1615Z TN07/1603Z"
    },
    {
      "icao": "LEBL",
      "alert": "OK",
      "vis_m": 9999,
      "fzfg": false,
      "metar_trigger": false,
      "taf_trigger": false,
      "metar": "METAR LEBL 151830Z 10006KT 090V250 9999 FEW020 15/09 Q1008 NOSIG",
      "taf": ""
    },
    {
      "icao": "LECH",
      "alert": "OK",
      "vis_m": 9999,
      "fzfg": false,
      "metar_trigger": false,
      "taf_trigger": false,
      "metar": "METAR LECH 151830Z AUTO 30010KT 260V340 CAVOK 16/00 Q1009",
      "taf": "TAF LECH 151700Z 1518/1618 33010KT CAVOK TX22/1614Z TN07/1606Z"
    },
    {
      "icao": "LEMD",
      "alert": "OK",
      "vis_m": 9999,
      "fzfg": false,
      "metar_trigger": false,
      "taf_trigger": false,
      "metar": "METAR LEMD 151830Z 34008KT 310V010 CAVOK 15/M00 Q1012 NOSIG",
      "taf": "TAF LEMD 151700Z 1518/1624 34010KT 9999 SCT030 TX21/1616Z TN05/1605Z"
    },
    {
      "icao": "LEMG",
      "alert": "OK",
      "vis_m": 9999,
      "fzfg": false,
      "metar_trigger": false,
      "taf_trigger": false,
      "metar": "METAR LEMG 151830Z 31012KT 9999 BKN075 23/08 Q1009 NOSIG",
      "taf": "TAF LEMG 151700Z 1518/1618 29012KT 9999 FEW040 TX23/1614Z TN16/1607Z"
    },
    {
      "icao": "LEVC",
      "alert": "OK",
      "vis_m": 9999,
      "fzfg": false,
      "metar_trigger": false,
      "taf_trigger": false,
      "metar": "METAR LEVC 151830Z 25009KT 9999 FEW040 19/06 Q1008 NOSIG",
      "taf": "TAF LEVC 151700Z 1518/1618 27008KT 9999 SCT050 TX23/1612Z TN09/1606Z"
    },
    {
      "icao": "LEXJ",
      "alert": "OK",
      "vis_m": 9000,
      "fzfg": false,
      "metar_trigger": false,
      "taf_trigger": false,
      "metar": "METAR LEXJ 151830Z 34006KT 290V020 9000 SCT035 BKN042 14/07 Q1016",
      "taf": "TAF LEXJ 151400Z 1515/1615 32009KT 9999 FEW025 SCT040 TX17/1615Z TN10/1603Z"
    },
    {
      "icao": "LEZG",
      "alert": "OK",
      "vis_m": 9999,
      "fzfg": false,
      "metar_trigger": false,
      "taf_trigger": false,
      "metar": "METAR LEZG 151830Z 31021KT CAVOK 14/03 Q1011 NOSIG",
      "taf": "TAF LEZG 151700Z 1518/1618 32020KT 9999 FEW030 TX18/1618Z TN08/1605Z"
    },
    {
      "icao": "LEZL",
      "alert": "OK",
      "vis_m": 9999,
      "fzfg": false,
      "metar_trigger": false,
      "taf_trigger": false,
      "metar": "METAR LEZL 151830Z 01012KT 320V040 CAVOK 24/04 Q1010 NOSIG",
      "taf": "TAF LEZL 151400Z 1515/1615 22014KT CAVOK TX30/1615Z TN14/1607Z"
    },
    {
      "icao": "LFBD",
      "alert": "OK",
      "vis_m": 9999,
      "fzfg": false,
      "metar_trigger": false,
      "taf_trigger": false,
      "metar": "METAR LFBD 151830Z AUTO 31013KT CAVOK 13/05 Q1012 NOSIG",
      "taf": "TAF LFBD 151700Z 1518/1624 33010KT 9999 SCT040 TX16/1614Z TN07/1601Z"
    },
    {
      "icao": "LFLL",
      "alert": "OK",
      "vis_m": 9999,
      "fzfg": false,
      "metar_trigger": false,
      "taf_trigger": false,
      "metar": "METAR LFLL 151830Z 31006KT 280V350 9999 FEW033CB FEW036TCU BKN046 10/05 Q1007 RETSRA NOSIG",
      "taf": "TAF LFLL 151700Z 1518/1624 32004KT 9999 FEW025 SCT040"
    },
    {
      "icao": "LFLS",
      "alert": "OK",
      "vis_m": 9999,
      "fzfg": false,
      "metar_trigger": false,
      "taf_trigger": false,
      "metar": "METAR LFLS 151830Z AUTO 03004KT 9999 FEW040/// BKN056/// BKN068/// ///TCU 08/05 Q1006 TEMPO VRB15G25KT 2500 TSRA SCT025CB BKN030TCU",
      "taf": "TAF LFLS 151400Z 1515/1615 36010KT 9999 SCT025TCU BKN035"
    },
    {
      "icao": "LFMN",
      "alert": "OK",
      "vis_m": 9999,
      "fzfg": false,
      "metar_trigger": false,
      "taf_trigger": false,
      "metar": "METAR LFMN 151830Z 34008KT 260V040 9999 FEW100 18/02 Q0998 NOSIG",
      "taf": "TAF LFMN 151400Z 1515/1621 23020G30KT CAVOK"
    },
    {
      "icao": "LFOB",
      "alert": "OK",
      "vis_m": 9999,
      "fzfg": false,
      "metar_trigger": false,
      "taf_trigger": false,
      "metar": "METAR LFOB 151830Z AUTO 32006KT 9999 FEW033 SCT100 OVC200 10/05 Q1008 TEMPO 4000 -SHRA SCT020TCU",
      "taf": "TAF LFOB 151700Z 1518/1618 32008KT 9999 SCT030"
    },
    {
      "icao": "LFPO",
      "alert": "OK",
      "vis_m": 9999,
      "fzfg": false,
      "metar_trigger": false,
      "taf_trigger": false,
      "metar": "METAR LFPO 151830Z AUTO VRB03KT 9999 FEW046 OVC130 10/06 Q1008 TEMPO 4000 -SHRA BKN030TCU",
      "taf": "TAF LFPO 151700Z 1518/1624 32006KT 9999 BKN040"
    },
    {
      "icao": "LFSB",
      "alert": "OK",
      "vis_m": 9999,
      "fzfg": false,
      "metar_trigger": false,
      "taf_trigger": false,
      "metar": "METAR LFSB 151830Z AUTO 36010KT 340V040 9999 SCT037/// BKN046/// OVC054/// ///CB 09/05 Q1006 BECMG 25005KT",
      "taf": ""
    },
    {
      "icao": "LGAV",
      "alert": "OK",
      "vis_m": 9999,
      "fzfg": false,
      "metar_trigger": false,
      "taf_trigger": false,
      "metar": "METAR LGAV 151820Z 23006KT 9999 FEW030 19/13 Q1010 NOSIG",
      "taf": "TAF LGAV 151700Z 1518/1618 20010KT 9999 FEW025"
    },
    {
      "icao": "LGTS",
      "alert": "OK",
      "vis_m": 9999,
      "fzfg": false,
      "metar_trigger": false,
      "taf_trigger": false,
      "metar": "METAR LGTS 151820Z 20006KT 9999 FEW030 19/15 Q1007 NOSIG",
      "taf": "TAF LGTS 151700Z 1518/1618 VRB03KT 9999 FEW030"
    },
    {
      "icao": "LHBP",
      "alert": "OK",
      "vis_m": 9999,
      "fzfg": false,
      "metar_trigger": false,
      "taf_trigger": false,
      "metar": "METAR LHBP 151830Z 05004KT 310V090 9999 -SHRA NSC 12/11 Q1002 NOSIG",
      "taf": "TAF LHBP 151715Z 1518/1618 11005KT 9999 -RA NSC"
    },
    {
      "icao": "LHDC",
      "alert": "OK",
      "vis_m": 9999,
      "fzfg": false,
      "metar_trigger": false,
      "taf_trigger": false,
      "metar": "METAR LHDC 151815Z AUTO 24015KT 9999 BKN070 //////TCU 18/10 Q1003",
      "taf": "TAF LHDC 151415Z 1515/1524 18011KT CAVOK"
    },
    {
      "icao": "LIBD",
      "alert": "OK",
      "vis_m": 9999,
      "fzfg": false,
      "metar_trigger": false,
      "taf_trigger": false,
      "metar": "METAR LIBD 151820Z 17008KT CAVOK 19/14 Q1003",
      "taf": "TAF LIBD 151700Z 1518/1618 19013KT 9999 SCT040"
    },
    {
      "icao": "LIBG",
      "alert": "OK",
      "vis_m": 9999,
      "fzfg": false,
      "metar_trigger": false,
      "taf_trigger": false,
      "metar": "METAR LIBG 151750Z 12009KT CAVOK 19/15 Q1005",
      "taf": "TAF LIBG 151400Z 1515/1524 16014KT 9999 FEW040"
    },
    {
      "icao": "LIBP",
      "alert": "OK",
      "vis_m": 9999,
      "fzfg": false,
      "metar_trigger": false,
      "taf_trigger": false,
      "metar": "METAR LIBP 151820Z AUTO 23011KT 9999 FEW100/// SCT200/// 19/09 Q1000",
      "taf": "TAF LIBP 151700Z 1518/1618 22015KT 9999 FEW020 SCT070"
    },
    {
      "icao": "LIBR",
      "alert": "OK",
      "vis_m": 9999,
      "fzfg": false,
      "metar_trigger": false,
      "taf_trigger": false,
      "metar": "METAR LIBR 151820Z 19016KT CAVOK 20/13 Q1005",
      "taf": "TAF LIBR 151700Z 1518/1618 19015KT 9999 FEW040"
    },
    {
      "icao": "LICA",
      "alert": "OK",
      "vis_m": 9999,
      "fzfg": false,
      "metar_trigger": false,
      "taf_trigger": false,
      "metar": "METAR LICA 151820Z AUTO 09012KT 9999 NCD 19/16 Q1005",
      "taf": "TAF LICA 151700Z 1518/1618 08006KT 9999 SCT025"
    },
    {
      "icao": "LICC",
      "alert": "OK",
      "vis_m": 9999,
      "fzfg": false,
      "metar_trigger": false,
      "taf_trigger": false,
      "metar": "METAR LICC 151820Z 23007KT 190V260 CAVOK 22/16 Q1006",
      "taf": "TAF LICC 151700Z 1518/1618 10010KT 9999 SCT050"
    },
    {
      "icao": "LICJ",
      "alert": "OK",
      "vis_m": 9999,
      "fzfg": false,
      "metar_trigger": false,
      "taf_trigger": false,
      "metar": "METAR LICJ 151820Z 21006KT CAVOK 20/15 Q1005",
      "taf": "TAF LICJ 151700Z 1518/1618 20012KT 9999 SCT040"
    },
    {
      "icao": "LIMC",
      "alert": "OK",
      "vis_m": 9999,
      "fzfg": false,
      "metar_trigger": false,
      "taf_trigger": false,
      "metar": "METAR LIMC 151820Z VRB02KT 9999 SCT080 10/08 Q1001 NOSIG",
      "taf": "TAF LIMC 151700Z 1518/1624 VRB05KT 9999 SCT050"
    },
    {
      "icao": "LIME",
      "alert": "OK",
      "vis_m": 9999,
      "fzfg": false,
      "metar_trigger": false,
      "taf_trigger": false,
      "metar": "METAR LIME 151820Z 18005KT 150V230 9999 SCT025 SCT060 11/08 Q1000 NOSIG",
      "taf": "TAF LIME 151700Z 1518/1618 12007KT 9999 SCT040"
    },
    {
      "icao": "LIMF",
      "alert": "OK",
      "vis_m": 9999,
      "fzfg": false,
      "metar_trigger": false,
      "taf_trigger": false,
      "metar": "METAR LIMF 151820Z 28005KT 9999 -RA SCT025 BKN120 11/08 Q1001",
      "taf": "TAF LIMF 151700Z 1518/1618 VRB05KT 9999 SCT040"
    },
    {
      "icao": "LIMJ",
      "alert": "OK",
      "vis_m": 9999,
      "fzfg": false,
      "metar_trigger": false,
      "taf_trigger": false,
      "metar": "METAR LIMJ 151820Z 04016KT 9999 SCT027 BKN055 12/08 Q1000",
      "taf": "TAF LIMJ 151700Z 1518/1618 03012KT 9999 FEW015 BKN040"
    },
    {
      "icao": "LIPE",
      "alert": "OK",
      "vis_m": 6000,
      "fzfg": false,
      "metar_trigger": false,
      "taf_trigger": false,
      "metar": "METAR LIPE 151820Z 09004KT 050V120 6000 -RA BKN006 BKN045 12/12 Q1001 RERA",
      "taf": "TAF LIPE 151700Z 1518/1618 VRB05KT 7000 BKN040"
    },
    {
      "icao": "LIPH",
      "alert": "OK",
      "vis_m": 9999,
      "fzfg": false,
      "metar_trigger": false,
      "taf_trigger": false,
      "metar": "METAR LIPH 151820Z VRB02KT 9999 FEW010 12/11 Q1001",
      "taf": "TAF LIPH 151700Z 1518/1618 VRB06KT 7000 SCT010 BKN045"
    },
    {
      "icao": "LIPQ",
      "alert": "OK",
      "vis_m": 9999,
      "fzfg": false,
      "metar_trigger": false,
      "taf_trigger": false,
      "metar": "METAR LIPQ 151820Z AUTO 09007KT 9999 OVC088/// 12/11 Q1000",
      "taf": "TAF LIPQ 151700Z 1518/1618 04008KT 8000 SCT020 BKN060"
    },
    {
      "icao": "LIPR",
      "alert": "OK",
      "vis_m": 9999,
      "fzfg": false,
      "metar_trigger": false,
      "taf_trigger": false,
      "metar": "METAR LIPR 151820Z AUTO 15002KT 9999 -RA BKN075/// 13/13 Q1001",
      "taf": "TAF LIPR 151700Z 1518/1618 20010KT 8000 SCT040"
    },
    {
      "icao": "LIPX",
      "alert": "OK",
      "vis_m": 9999,
      "fzfg": false,
      "metar_trigger": false,
      "taf_trigger": false,
      "metar": "METAR LIPX 151820Z VRB02KT 9999 FEW025 BKN060 12/09 Q1001",
      "taf": "TAF LIPX 151700Z 1518/1618 VRB05KT 9999 BKN030"
    },
    {
      "icao": "LIPY",
      "alert": "OK",
      "vis_m": 9999,
      "fzfg": false,
      "metar_trigger": false,
      "taf_trigger": false,
      "metar": "METAR LIPY 151820Z AUTO 27005KT 9999 OVC050/// 17/11 Q1000",
      "taf": "TAF LIPY 151700Z 1518/1618 34007KT 9999 BKN060"
    },
    {
      "icao": "LIPZ",
      "alert": "OK",
      "vis_m": 9999,
      "fzfg": false,
      "metar_trigger": false,
      "taf_trigger": false,
      "metar": "METAR LIPZ 151820Z VRB02KT 9999 FEW010 12/10 Q1001 NOSIG",
      "taf": "TAF LIPZ 151700Z 1518/1624 02007KT 9999 BKN040"
    },
    {
      "icao": "LIRF",
      "alert": "OK",
      "vis_m": 9999,
      "fzfg": false,
      "metar_trigger": false,
      "taf_trigger": false,
      "metar": "METAR LIRF 151820Z 25006KT 9999 FEW020 17/14 Q1003 NOSIG",
      "taf": "TAF LIRF 151700Z 1518/1624 24012KT 9999 BKN030"
    },
    {
      "icao": "LIRN",
      "alert": "OK",
      "vis_m": 9999,
      "fzfg": false,
      "metar_trigger": false,
      "taf_trigger": false,
      "metar": "METAR LIRN 151820Z 21010KT 9999 -RA FEW020 SCT045 19/15 Q1004 NOSIG",
      "taf": "TAF LIRN 151700Z 1518/1618 21012KT 9999 BKN035"
    },
    {
      "icao": "LIRP",
      "alert": "OK",
      "vis_m": 9999,
      "fzfg": false,
      "metar_trigger": false,
      "taf_trigger": false,
      "metar": "METAR LIRP 151815Z 27008KT 9999 VCSH FEW025 15/11 Q1001 NOSIG",
      "taf": "TAF LIRP 151700Z 1518/1618 25010KT 9999 SCT020 SCT080"
    },
    {
      "icao": "LIRZ",
      "alert": "OK",
      "vis_m": 9999,
      "fzfg": false,
      "metar_trigger": false,
      "taf_trigger": false,
      "metar": "METAR LIRZ 151820Z AUTO 24003KT 180V290 9999 -RA BKN014/// BKN041/// 13/12 Q1002 RERA",
      "taf": "TAF LIRZ 151700Z 1518/1618 20012KT 9999 BKN030"
    },
    {
      "icao": "LJLJ",
      "alert": "OK",
      "vis_m": 7000,
      "fzfg": false,
      "metar_trigger": false,
      "taf_trigger": false,
      "metar": "METAR LJLJ 151830Z 30010KT 7000 RA SCT003 SCT020 OVC035 09/08 Q1001 NOSIG",
      "taf": "TAF LJLJ 151700Z 1518/1618 VRB02KT 9999 RA OVC030"
    },
    {
      "icao": "LKMT",
      "alert": "OK",
      "vis_m": 9999,
      "fzfg": false,
      "metar_trigger": false,
      "taf_trigger": false,
      "metar": "METAR LKMT 151830Z 28002KT CAVOK 11/09 Q1002 NOSIG",
      "taf": "TAF LKMT 151700Z 1518/1618 22006KT 9999 SCT035"
    },
    {
      "icao": "LKPR",
      "alert": "OK",
      "vis_m": 9999,
      "fzfg": false,
      "metar_trigger": false,
      "taf_trigger": false,
      "metar": "METAR LKPR 151830Z 32008KT 280V340 CAVOK 11/05 Q1001 TEMPO SCT050TCU",
      "taf": "TAF LKPR 151700Z 1518/1624 34004KT CAVOK"
    },
    {
      "icao": "LLBG",
      "alert": "OK",
      "vis_m": 9999,
      "fzfg": false,
      "metar_trigger": false,
      "taf_trigger": false,
      "metar": "METAR LLBG 151850Z 29007KT 9999 SCT023 20/15 Q1010 NOSIG",
      "taf": "TAF LLBG 151703Z 1518/1618 28006KT 9999 SCT025 TX24/1610Z TN18/1604Z"
    },
    {
      "icao": "LMML",
      "alert": "OK",
      "vis_m": 9999,
      "fzfg": false,
      "metar_trigger": false,
      "taf_trigger": false,
      "metar": "METAR LMML 151845Z 33006KT 9999 TS FEW019CB 20/17 Q1008 NOSIG",
      "taf": "TAF LMML 151700Z 1518/1618 VRB05KT 9999 FEW013"
    },
    {
      "icao": "LOWW",
      "alert": "OK",
      "vis_m": 9999,
      "fzfg": false,
      "metar_trigger": false,
      "taf_trigger": false,
      "metar": "METAR LOWW 151820Z 16004KT CAVOK 12/09 Q1001 NOSIG",
      "taf": "TAF LOWW 151715Z 1518/1624 14006KT 9999 FEW020 BKN040 TX12/1518Z TN09/1605Z"
    },
    {
      "icao": "LPFR",
      "alert": "OK",
      "vis_m": 9999,
      "fzfg": false,
      "metar_trigger": false,
      "taf_trigger": false,
      "metar": "METAR LPFR 151830Z 34016KT 9999 FEW025 23/07 Q1012",
      "taf": "TAF LPFR 151700Z 1518/1618 32013KT CAVOK"
    },
    {
      "icao": "LPMA",
      "alert": "OK",
      "vis_m": 9999,
      "fzfg": false,
      "metar_trigger": false,
      "taf_trigger": false,
      "metar": "METAR LPMA 151830Z VRB08G18KT 9999 SCT015 17/10 Q1022",
      "taf": "TAF LPMA 151700Z 1518/1618 01013KT 9999 SCT015"
    },
    {
      "icao": "LPPR",
      "alert": "OK",
      "vis_m": 9999,
      "fzfg": false,
      "metar_trigger": false,
      "taf_trigger": false,
      "metar": "METAR LPPR 151830Z 34018G28KT 9999 FEW018 16/09 Q1015",
      "taf": "TAF LPPR 151700Z 1518/1618 33015KT 9999 SCT030"
    },
    {
      "icao": "LPPS",
      "alert": "OK",
      "vis_m": 9999,
      "fzfg": false,
      "metar_trigger": false,
      "taf_trigger": false,
      "metar": "METAR LPPS 151830Z 35018KT 9999 FEW015 18/10 Q1022",
      "taf": "TAF LPPS 151700Z 1518/1624 01015KT 9999 SCT015"
    },
    {
      "icao": "LPPT",
      "alert": "OK",
      "vis_m": 9999,
      "fzfg": false,
      "metar_trigger": false,
      "taf_trigger": false,
      "metar": "METAR LPPT 151830Z 33014KT 9999 FEW020 16/11 Q1015",
      "taf": "TAF LPPT 151700Z 1518/1624 35015KT 9999 FEW035"
    },
    {
      "icao": "LQBK",
      "alert": "OK",
      "vis_m": 9999,
      "fzfg": false,
      "metar_trigger": false,
      "taf_trigger": false,
      "metar": "METAR LQBK 151830Z 00000KT 9999 FEW037 14/12 Q1001 NOSIG",
      "taf": "TAF LQBK 151700Z 1518/1618 02006KT 9999 SCT040 TX14/1518Z TN10/1604Z"
    },
    {
      "icao": "LQSA",
      "alert": "OK",
      "vis_m": 9999,
      "fzfg": false,
      "metar_trigger": false,
      "taf_trigger": false,
      "metar": "METAR LQSA 151830Z 13004KT 110V200 9999 BKN050 15/08 Q1004 NOSIG",
      "taf": "TAF LQSA 151700Z 1518/1618 17006KT 9999 BKN060 TX16/1613Z TN10/1605Z"
    },
    {
      "icao": "LQTZ",
      "alert": "OK",
      "vis_m": 9999,
      "fzfg": false,
      "metar_trigger": false,
      "taf_trigger": false,
      "metar": "METAR LQTZ 151830Z 20003KT 150V250 CAVOK 17/08 Q1003",
      "taf": "TAF LQTZ 151700Z 1518/1618 12006KT 9999 SCT050 TX19/1610Z TN11/1604Z"
    },
    {
      "icao": "LRBC",
      "alert": "OK",
      "vis_m": 9999,
      "fzfg": false,
      "metar_trigger": false,
      "taf_trigger": false,
      "metar": "METAR LRBC 151830Z 17005KT CAVOK 16/10 Q1005",
      "taf": "TAF LRBC 151700Z 1518/1603 15010KT CAVOK"
    },
    {
      "icao": "LRBS",
      "alert": "OK",
      "vis_m": 9999,
      "fzfg": false,
      "metar_trigger": false,
      "taf_trigger": false,
      "metar": "METAR LRBS 151830Z VRB02KT CAVOK 20/08 Q1006 NOSIG",
      "taf": "TAF LRBS 151700Z 1518/1618 VRB04KT CAVOK"
    },
    {
      "icao": "LRBV",
      "alert": "OK",
      "vis_m": 9999,
      "fzfg": false,
      "metar_trigger": false,
      "taf_trigger": false,
      "metar": "METAR LRBV 151830Z 20011KT CAVOK 14/07 Q1005",
      "taf": "TAF LRBV 151700Z 1518/1603 21008KT CAVOK"
    },
    {
      "icao": "LRCL",
      "alert": "OK",
      "vis_m": 9999,
      "fzfg": false,
      "metar_trigger": false,
      "taf_trigger": false,
      "metar": "METAR LRCL 151830Z VRB02KT CAVOK 15/10 Q1004",
      "taf": "TAF LRCL 151700Z 1518/1603 15005KT CAVOK"
    },
    {
      "icao": "LRCV",
      "alert": "OK",
      "vis_m": 9999,
      "fzfg": false,
      "metar_trigger": false,
      "taf_trigger": false,
      "metar": "METAR LRCV 151830Z 14005KT CAVOK 17/10 Q1005",
      "taf": "TAF LRCV 151700Z 1518/1603 12005KT CAVOK"
    },
    {
      "icao": "LRIA",
      "alert": "OK",
      "vis_m": 9999,
      "fzfg": false,
      "metar_trigger": false,
      "taf_trigger": false,
      "metar": "METAR LRIA 151830Z 12006KT 090V150 CAVOK 18/06 Q1006",
      "taf": "TAF LRIA 151700Z 1518/1603 15006KT CAVOK"
    },
    {
      "icao": "LROP",
      "alert": "OK",
      "vis_m": 9999,
      "fzfg": false,
      "metar_trigger": false,
      "taf_trigger": false,
      "metar": "METAR LROP 151830Z VRB01KT CAVOK 17/08 Q1006 NOSIG",
      "taf": "TAF LROP 151700Z 1518/1618 VRB04KT CAVOK"
    },
    {
      "icao": "LRSB",
      "alert": "OK",
      "vis_m": 9999,
      "fzfg": false,
      "metar_trigger": false,
      "taf_trigger": false,
      "metar": "METAR LRSB 151830Z VRB02KT CAVOK 14/09 Q1005",
      "taf": "TAF LRSB 151700Z 1518/1618 VRB04KT CAVOK"
    },
    {
      "icao": "LRSM",
      "alert": "OK",
      "vis_m": 9999,
      "fzfg": false,
      "metar_trigger": false,
      "taf_trigger": false,
      "metar": "METAR LRSM 151830Z AUTO 14004KT 9999 NCD 17/08 Q1003",
      "taf": "TAF LRSM 151400Z 1515/1524 19008KT CAVOK"
    },
    {
      "icao": "LRSV",
      "alert": "OK",
      "vis_m": 9999,
      "fzfg": false,
      "metar_trigger": false,
      "taf_trigger": false,
      "metar": "METAR LRSV 151830Z 12007KT CAVOK 14/08 Q1005",
      "taf": "TAF LRSV 151700Z 1518/1603 13008KT CAVOK"
    },
    {
      "icao": "LRTM",
      "alert": "OK",
      "vis_m": 9999,
      "fzfg": false,
      "metar_trigger": false,
      "taf_trigger": false,
      "metar": "METAR LRTM 151830Z 01002KT CAVOK 15/11 Q1004",
      "taf": "TAF LRTM 151700Z 1518/1603 VRB04KT CAVOK"
    },
    {
      "icao": "LRTR",
      "alert": "OK",
      "vis_m": 9999,
      "fzfg": false,
      "metar_trigger": false,
      "taf_trigger": false,
      "metar": "METAR LRTR 151830Z 09005KT 9999 FEW055CB 14/13 Q1003 NOSIG",
      "taf": "TAF LRTR 151700Z 1518/1618 16007KT CAVOK"
    },
    {
      "icao": "LTAC",
      "alert": "OK",
      "vis_m": 9999,
      "fzfg": false,
      "metar_trigger": false,
      "taf_trigger": false,
      "metar": "METAR LTAC 151820Z 08006KT 9999 FEW040 SCT080 11/05 Q1010 NOSIG RMK RWY21C 04006KT RWY03L 07007KT RWY21R 03008KT RWY03R 06005KT RWY21L 08003KT 030V110",
      "taf": "TAF LTAC 151640Z 1518/1618 VRB02KT 9999 SCT040 SCT100"
    },
    {
      "icao": "LTFM",
      "alert": "OK",
      "vis_m": 9999,
      "fzfg": false,
      "metar_trigger": false,
      "taf_trigger": false,
      "metar": "METAR LTFM 151820Z 19008KT CAVOK 17/05 Q1009 NOSIG RMK RWY17L 18010KT RWY34L 19006KT RWY16R 18009KT RWY36 18008KT RWY18 19009KT",
      "taf": "TAF LTFM 151640Z 1518/1624 18010KT CAVOK"
    },
    {
      "icao": "LUKK",
      "alert": "OK",
      "vis_m": 9999,
      "fzfg": false,
      "metar_trigger": false,
      "taf_trigger": false,
      "metar": "METAR LUKK 151830Z 20005KT CAVOK 15/04 Q1006 NOSIG",
      "taf": "TAF LUKK 151710Z 1518/1618 VRB05KT CAVOK"
    },
    {
      "icao": "LWOH",
      "alert": "OK",
      "vis_m": 9999,
      "fzfg": false,
      "metar_trigger": false,
      "taf_trigger": false,
      "metar": "METAR LWOH 151850Z 26007KT 230V290 9999 SCT035 15/07 Q1009",
      "taf": "TAF LWOH 151730Z 1518/1618 20008KT 9999 SCT040"
    },
    {
      "icao": "LWSK",
      "alert": "OK",
      "vis_m": 9999,
      "fzfg": false,
      "metar_trigger": false,
      "taf_trigger": false,
      "metar": "METAR LWSK 151850Z 14006KT 120V230 9999 SCT080 20/10 Q1006 NOSIG",
      "taf": "TAF LWSK 151730Z 1518/1618 14008KT 9999 FEW050 SCT080"
    },
    {
      "icao": "LYBE",
      "alert": "OK",
      "vis_m": 9999,
      "fzfg": false,
      "metar_trigger": false,
      "taf_trigger": false,
      "metar": "METAR LYBE 151830Z 16006KT CAVOK 19/11 Q1003 NOSIG",
      "taf": "TAF LYBE 151700Z 1518/1618 17010KT CAVOK TX20/1612Z TN14/1604Z"
    },
    {
      "icao": "LYNI",
      "alert": "OK",
      "vis_m": 9999,
      "fzfg": false,
      "metar_trigger": false,
      "taf_trigger": false,
      "metar": "METAR LYNI 151830Z 20003KT 140V280 9999 FEW060 17/07 Q1005 NOSIG",
      "taf": "TAF LYNI 151700Z 1518/1618 22010KT CAVOK TX21/1613Z TN10/1604Z"
    },
    {
      "icao": "LYPG",
      "alert": "OK",
      "vis_m": 9999,
      "fzfg": false,
      "metar_trigger": false,
      "taf_trigger": false,
      "metar": "METAR LYPG 151830Z 12005KT 9999 FEW030 SCT060 BKN090 19/13 Q1007 NOSIG",
      "taf": "TAF LYPG 151700Z 1518/1618 16008KT 9999 FEW027 BKN040 TX21/1613Z TN14/1604Z"
    },
    {
      "icao": "LZIB",
      "alert": "OK",
      "vis_m": 9999,
      "fzfg": false,
      "metar_trigger": false,
      "taf_trigger": false,
      "metar": "METAR LZIB 151830Z 13002KT CAVOK 13/09 Q1001 NOSIG",
      "taf": "TAF LZIB 151715Z 1518/1618 28008KT 9999 SCT040"
    },
    {
      "icao": "LZKZ",
      "alert": "OK",
      "vis_m": 9999,
      "fzfg": false,
      "metar_trigger": false,
      "taf_trigger": false,
      "metar": "METAR LZKZ 151830Z 02004KT CAVOK 12/11 Q1002 TEMPO 18015G25 TSRA SCT030CB",
      "taf": "TAF LZKZ 151715Z 1518/1618 20009KT 9999 SCT040"
    },
    {
      "icao": "LZTT",
      "alert": "OK",
      "vis_m": 9999,
      "fzfg": false,
      "metar_trigger": false,
      "taf_trigger": false,
      "metar": "METAR LZTT 151830Z 17002KT 9999 FEW013 09/08 Q1003",
      "taf": "TAF LZTT 151715Z 1518/1618 VRB02KT 9999 SCT045"
    },
    {
      "icao": "OEJN",
      "alert": "OK",
      "vis_m": 9999,
      "fzfg": false,
      "metar_trigger": false,
      "taf_trigger": false,
      "metar": "METAR OEJN 151800Z 33008KT CAVOK 32/14 Q1005 NOSIG",
      "taf": "TAF OEJN 151700Z 1518/1624 VRB03KT 7000 NSC"
    },
    {
      "icao": "OEMA",
      "alert": "OK",
      "vis_m": 9999,
      "fzfg": false,
      "metar_trigger": false,
      "taf_trigger": false,
      "metar": "METAR OEMA 151800Z 31003KT CAVOK 35/M05 Q1009 NOSIG",
      "taf": "TAF OEMA 151700Z 1518/1624 VRB03KT CAVOK"
    },
    {
      "icao": "OJAI",
      "alert": "OK",
      "vis_m": 5000,
      "fzfg": false,
      "metar_trigger": false,
      "taf_trigger": false,
      "metar": "METAR OJAI 151800Z 28013KT 5000 HZ NSC 17/06 Q1011 NOSIG",
      "taf": "TAF OJAI 151651Z 1518/1624 28012KT 4000 HZ NSC"
    },
    {
      "icao": "OMAA",
      "alert": "OK",
      "vis_m": 9999,
      "fzfg": false,
      "metar_trigger": false,
      "taf_trigger": false,
      "metar": "METAR OMAA 151830Z 26006KT CAVOK 29/18 Q1003 NOSIG",
      "taf": "TAF OMAA 151700Z 1518/1700 30010KT 8000 NSC"
    },
    {
      "icao": "OMDB",
      "alert": "OK",
      "vis_m": 9999,
      "fzfg": false,
      "metar_trigger": false,
      "taf_trigger": false,
      "metar": "METAR OMDB 151830Z 22006KT CAVOK 30/18 Q1002 NOSIG",
      "taf": "TAF OMDB 151700Z 1518/1700 20008KT CAVOK"
    },
    {
      "icao": "UAAA",
      "alert": "OK",
      "vis_m": 9999,
      "fzfg": false,
      "metar_trigger": false,
      "taf_trigger": false,
      "metar": "METAR UAAA 151830Z 20002MPS 9999 NSC 07/01 Q1016 NOSIG",
      "taf": "TAF UAAA 151701Z 1518/1618 24003MPS 9999 FEW100 TX23/1610Z TN05/1601Z"
    },
    {
      "icao": "UBBB",
      "alert": "OK",
      "vis_m": 9999,
      "fzfg": false,
      "metar_trigger": false,
      "taf_trigger": false,
      "metar": "METAR UBBB 151830Z 17008KT 150V220 9999 FEW060CB 20/18 Q1000 NOSIG",
      "taf": "TAF UBBB 151701Z 1518/1618 18010KT 9999 FEW050CB TX21/1610Z TN15/1601Z"
    },
    {
      "icao": "UDSG",
      "alert": "OK",
      "vis_m": 9999,
      "fzfg": false,
      "metar_trigger": false,
      "taf_trigger": false,
      "metar": "METAR UDSG 151830Z 04002KT 9999 BKN046CB 10/05 Q1009 NOSIG",
      "taf": "TAF UDSG 151658Z 1518/1618 24006KT 9999 BKN040"
    },
    {
      "icao": "UDYZ",
      "alert": "OK",
      "vis_m": 9999,
      "fzfg": false,
      "metar_trigger": false,
      "taf_trigger": false,
      "metar": "METAR UDYZ 151830Z 15004KT 9999 SCT043CB 14/09 Q1006 NOSIG",
      "taf": "TAF UDYZ 151700Z 1518/1618 07006KT 9999 SCT040"
    },
    {
      "icao": "UGKO",
      "alert": "OK",
      "vis_m": 9999,
      "fzfg": false,
      "metar_trigger": false,
      "taf_trigger": false,
      "metar": "METAR UGKO 151830Z 25011KT 9999 SCT012 OVC029 14/13 Q1008 NOSIG",
      "taf": "TAF UGKO 151700Z 1518/1618 26012KT 9999 BKN050 TX15/1612Z TN12/1602Z"
    }
  ]
}