{
  "ts_utc": "2025-12-30T14:43:10Z",
  "threshold_m": 150,
  "source": "stations_override.txt (ICAO list) + aviationweather.gov (METAR/TAF raw)",
  "station_count": 159,
  "stations": [
    {
      "icao": "BIKF",
      "alert": "OK",
      "vis_m": 9999,
      "fzfg": false,
      "metar_trigger": false,
      "taf_trigger": false,
      "metar": "METAR BIKF 301430Z 27007KT 250V340 9999 -RA SCT009 BKN023 04/04 Q1037",
      "taf": "TAF BIKF 301330Z 3015/3115 27007KT 9999 SCT017 BKN020 TX06/3024Z TN03/3112Z"
    },
    {
      "icao": "BKPR",
      "alert": "OK",
      "vis_m": 9999,
      "fzfg": false,
      "metar_trigger": false,
      "taf_trigger": false,
      "metar": "METAR BKPR 301430Z 03005KT 9999 BKN060 02/M04 Q1012 NOSIG",
      "taf": "TAF BKPR 301130Z 3012/3112 35008KT 9999 SCT030"
    },
    {
      "icao": "EBCI",
      "alert": "OK",
      "vis_m": 9999,
      "fzfg": false,
      "metar_trigger": false,
      "taf_trigger": false,
      "metar": "METAR EBCI 301420Z 36006KT 9999 FEW024 04/M02 Q1029 NOSIG",
      "taf": "TAF EBCI 301109Z 3012/3118 34005KT 9999 SCT030"
    },
    {
      "icao": "EDDB",
      "alert": "OK",
      "vis_m": 9999,
      "fzfg": false,
      "metar_trigger": false,
      "taf_trigger": false,
      "metar": "METAR EDDB 301420Z AUTO 32013KT 290V350 9999 SCT037 SCT047 02/M04 Q1021 TEMPO 31015G25KT",
      "taf": "TAF EDDB 301100Z 3012/3112 31012G22KT 9999 FEW030"
    },
    {
      "icao": "EDDH",
      "alert": "OK",
      "vis_m": 9999,
      "fzfg": false,
      "metar_trigger": false,
      "taf_trigger": false,
      "metar": "METAR EDDH 301420Z AUTO 30007KT CAVOK 02/M05 Q1026 NOSIG",
      "taf": "TAF EDDH 301100Z 3012/3118 31008KT 9999 BKN030"
    },
    {
      "icao": "EDDK",
      "alert": "OK",
      "vis_m": 9999,
      "fzfg": false,
      "metar_trigger": false,
      "taf_trigger": false,
      "metar": "METAR EDDK 301420Z AUTO VRB02KT CAVOK 03/00 Q1028 NOSIG",
      "taf": "TAF EDDK 301100Z 3012/3118 33004KT 9999 SCT025"
    },
    {
      "icao": "EDDN",
      "alert": "OK",
      "vis_m": 9999,
      "fzfg": false,
      "metar_trigger": false,
      "taf_trigger": false,
      "metar": "METAR EDDN 301420Z AUTO 35010KT 9999 FEW041 00/M05 Q1024 NOSIG",
      "taf": "TAF EDDN 301100Z 3012/3112 31006KT 9999 FEW013 SCT025"
    },
    {
      "icao": "EDDS",
      "alert": "OK",
      "vis_m": 9999,
      "fzfg": false,
      "metar_trigger": false,
      "taf_trigger": false,
      "metar": "METAR EDDS 301420Z AUTO 35005KT 320V040 9999 FEW027 BKN049 01/M05 Q1024 NOSIG",
      "taf": "TAF EDDS 301100Z 3012/3112 VRB03KT CAVOK"
    },
    {
      "icao": "EDFH",
      "alert": "OK",
      "vis_m": 9999,
      "fzfg": false,
      "metar_trigger": false,
      "taf_trigger": false,
      "metar": "METAR EDFH 301420Z 02009KT 330V040 9999 BKN038 00/M04 Q1026",
      "taf": "TAF EDFH 301100Z 3012/3112 36006KT 9999 SCT005 SCT030"
    },
    {
      "icao": "EDJA",
      "alert": "OK",
      "vis_m": 9999,
      "fzfg": false,
      "metar_trigger": false,
      "taf_trigger": false,
      "metar": "METAR EDJA 301420Z 32004KT 280V340 9999 SCT011 OVC045 M01/M04 Q1023",
      "taf": "TAF EDJA 301400Z 3015/3024 34004KT 9999 FEW012 OVC040"
    },
    {
      "icao": "EDLW",
      "alert": "OK",
      "vis_m": 9999,
      "fzfg": false,
      "metar_trigger": false,
      "taf_trigger": false,
      "metar": "METAR EDLW 301420Z 25003KT 210V320 CAVOK 02/M02 Q1028",
      "taf": "TAF EDLW 301100Z 3012/3112 30004KT 9999 FEW030"
    },
    {
      "icao": "EDNY",
      "alert": "OK",
      "vis_m": 9999,
      "fzfg": false,
      "metar_trigger": false,
      "taf_trigger": false,
      "metar": "METAR EDNY 301420Z 03004KT 9999 BKN048 01/M03 Q1024",
      "taf": "TAF EDNY 301400Z 3015/3024 04004KT 9999 OVC040"
    },
    {
      "icao": "EDSB",
      "alert": "OK",
      "vis_m": 9999,
      "fzfg": false,
      "metar_trigger": false,
      "taf_trigger": false,
      "metar": "METAR EDSB 301420Z 05006KT 9999 FEW036 04/M04 Q1026",
      "taf": "TAF EDSB 301100Z 3012/3112 04005KT 4000 BR SCT040"
    },
    {
      "icao": "EETN",
      "alert": "OK",
      "vis_m": 5000,
      "fzfg": false,
      "metar_trigger": false,
      "taf_trigger": false,
      "metar": "METAR EETN 301420Z 01017G28KT 5000 SHSN DRSN BKN014 SCT017CB M03/M05 Q1002 TEMPO 01018G32KT 1500",
      "taf": "TAF EETN 301130Z 3012/3112 01015G25KT 3000 SN DRSN BKN012 SCT015CB OVC020"
    },
    {
      "icao": "EFTU",
      "alert": "OK",
      "vis_m": 9999,
      "fzfg": false,
      "metar_trigger": false,
      "taf_trigger": false,
      "metar": "METAR EFTU 301420Z AUTO 01011KT 340V070 CAVOK M04/M12 Q1009",
      "taf": "TAF EFTU 301428Z 3015/3115 35013KT CAVOK"
    },
    {
      "icao": "EGBB",
      "alert": "OK",
      "vis_m": 9999,
      "fzfg": false,
      "metar_trigger": false,
      "taf_trigger": false,
      "metar": "METAR EGBB 301420Z 01007KT 9999 BKN042 05/02 Q1035",
      "taf": "TAF EGBB 301055Z 3012/3112 02006KT 9999 FEW020 SCT040"
    },
    {
      "icao": "EGGP",
      "alert": "OK",
      "vis_m": 9999,
      "fzfg": false,
      "metar_trigger": false,
      "taf_trigger": false,
      "metar": "METAR EGGP 301420Z 34004KT 320V100 9999 OVC043 05/01 Q1036",
      "taf": "TAF EGGP 301054Z 3012/3112 01005KT 9999 SCT035"
    },
    {
      "icao": "EGGW",
      "alert": "OK",
      "vis_m": 9999,
      "fzfg": false,
      "metar_trigger": false,
      "taf_trigger": false,
      "metar": "METAR EGGW 301420Z AUTO 01008KT 350V120 9999 SCT014 OVC044 04/02 Q1034",
      "taf": "TAF EGGW 301056Z 3012/3112 03010KT 9999 SCT040"
    },
    {
      "icao": "EGKK",
      "alert": "OK",
      "vis_m": 9999,
      "fzfg": false,
      "metar_trigger": false,
      "taf_trigger": false,
      "metar": "METAR EGKK 301420Z 04011KT 9999 FEW024 06/M00 Q1033",
      "taf": "TAF EGKK 301056Z 3012/3118 01006KT 9999 FEW040"
    },
    {
      "icao": "EGNM",
      "alert": "OK",
      "vis_m": 9999,
      "fzfg": false,
      "metar_trigger": false,
      "taf_trigger": false,
      "metar": "METAR EGNM 301420Z 36007KT 9999 FEW013 SCT034 04/01 Q1035",
      "taf": "TAF EGNM 301054Z 3012/3112 01005KT 9999 SCT035"
    },
    {
      "icao": "EGPD",
      "alert": "OK",
      "vis_m": 9999,
      "fzfg": false,
      "metar_trigger": false,
      "taf_trigger": false,
      "metar": "METAR EGPD 301420Z COR AUTO 30008KT 9999 OVC033 04/M01 Q1037 NOSIG",
      "taf": "TAF EGPD 301100Z 3012/3112 29007KT 9999 FEW020 SCT030"
    },
    {
      "icao": "EGPF",
      "alert": "OK",
      "vis_m": 9999,
      "fzfg": false,
      "metar_trigger": false,
      "taf_trigger": false,
      "metar": "METAR EGPF 301420Z AUTO 21002KT 9999 NCD 03/01 Q1039",
      "taf": "TAF EGPF 301100Z 3012/3112 VRB02KT 9999 FEW040"
    },
    {
      "icao": "EHBK",
      "alert": "OK",
      "vis_m": 9999,
      "fzfg": false,
      "metar_trigger": false,
      "taf_trigger": false,
      "metar": "METAR EHBK 301425Z AUTO 34005KT 310V010 9999 FEW043/// 04/M01 Q1029 NOSIG",
      "taf": "TAF EHBK 301107Z 3012/3118 34004KT 9999 BKN045"
    },
    {
      "icao": "EHEH",
      "alert": "OK",
      "vis_m": 9999,
      "fzfg": false,
      "metar_trigger": false,
      "taf_trigger": false,
      "metar": "METAR EHEH 301425Z AUTO 32005KT 280V030 9999 FEW030 05/00 Q1030 BLU NOSIG RMK TREND REMOTE BY EHWX",
      "taf": "TAF EHEH 301146Z 3012/3118 33007KT CAVOK"
    },
    {
      "icao": "EKBI",
      "alert": "OK",
      "vis_m": 9999,
      "fzfg": false,
      "metar_trigger": false,
      "taf_trigger": false,
      "metar": "METAR EKBI 301420Z AUTO 30006KT 9999 NCD 01/M06 Q1026",
      "taf": "TAF EKBI 301427Z 3015/3115 30008KT 9999 SCT040"
    },
    {
      "icao": "EKCH",
      "alert": "OK",
      "vis_m": 9999,
      "fzfg": false,
      "metar_trigger": false,
      "taf_trigger": false,
      "metar": "METAR EKCH 301420Z AUTO 34014G24KT 300V360 9999 NCD 01/M07 Q1022 NOSIG",
      "taf": "TAF EKCH 301427Z 3015/3115 34015KT CAVOK"
    },
    {
      "icao": "ENAL",
      "alert": "OK",
      "vis_m": 8000,
      "fzfg": false,
      "metar_trigger": false,
      "taf_trigger": false,
      "metar": "METAR ENAL 301420Z 22012KT 8000 -SHRASN FEW010 BKN030 02/01 Q1022",
      "taf": "TAF ENAL 301400Z 3015/3024 24012KT 9999 FEW012 BKN030"
    },
    {
      "icao": "ENBR",
      "alert": "OK",
      "vis_m": 5000,
      "fzfg": false,
      "metar_trigger": false,
      "taf_trigger": false,
      "metar": "METAR ENBR 301420Z 12004KT 5000 -SHSN SCT005 BKN010 M00/M00 Q1027 TEMPO 2000 SHRASN VV008 RMK WIND 1200FT 35009KT",
      "taf": ""
    },
    {
      "icao": "ENGM",
      "alert": "OK",
      "vis_m": 9999,
      "fzfg": false,
      "metar_trigger": false,
      "taf_trigger": false,
      "metar": "METAR ENGM 301420Z VRB02KT CAVOK M02/M11 Q1020 NOSIG",
      "taf": "TAF ENGM 301100Z 3012/3112 33005KT CAVOK"
    },
    {
      "icao": "ENHD",
      "alert": "OK",
      "vis_m": 9999,
      "fzfg": false,
      "metar_trigger": false,
      "taf_trigger": false,
      "metar": "METAR ENHD 301420Z 09004KT 9999 -SHSNRA FEW008 SCT012 BKN018 01/M00 Q1028",
      "taf": "TAF ENHD 301400Z 3015/3023 VRB05KT 9999 FEW015 BKN030"
    },
    {
      "icao": "ENTC",
      "alert": "OK",
      "vis_m": 9999,
      "fzfg": false,
      "metar_trigger": false,
      "taf_trigger": false,
      "metar": "METAR ENTC 301420Z 08003KT 040V130 9999 FEW030 SCT037 BKN045 M06/M08 Q1011 TEMPO 2000 -SHSN VV010 RMK WIND 2600FT 04007KT",
      "taf": "TAF ENTC 301100Z 3012/3112 01008KT 9999 -SHSN FEW008 SCT020CB BKN030"
    },
    {
      "icao": "ENTO",
      "alert": "OK",
      "vis_m": 9999,
      "fzfg": false,
      "metar_trigger": false,
      "taf_trigger": false,
      "metar": "METAR ENTO 301420Z 25004KT CAVOK M00/M10 Q1023 NOSIG",
      "taf": "TAF ENTO 301100Z 3012/3112 28005KT CAVOK"
    },
    {
      "icao": "ENVA",
      "alert": "OK",
      "vis_m": 3000,
      "fzfg": false,
      "metar_trigger": false,
      "taf_trigger": false,
      "metar": "METAR ENVA 301420Z 24011KT 3000 VCSH FEW016 BKN040 00/M00 Q1018 RESN TEMPO 0500 SHSN VV005 RMK WIND 670FT 28015KT",
      "taf": "TAF ENVA 301100Z 3012/3112 29008KT 9999 -SHSN FEW015CB BKN025"
    },
    {
      "icao": "ENZV",
      "alert": "OK",
      "vis_m": 9999,
      "fzfg": false,
      "metar_trigger": false,
      "taf_trigger": false,
      "metar": "METAR ENZV 301420Z 36007KT 9999 -SN FEW034 SCT043 02/M02 Q1028 NOSIG",
      "taf": "TAF ENZV 301100Z 3012/3112 35005KT 9999 FEW015 BKN030"
    },
    {
      "icao": "EPGD",
      "alert": "OK",
      "vis_m": 3500,
      "fzfg": false,
      "metar_trigger": false,
      "taf_trigger": false,
      "metar": "METAR EPGD 301430Z 32021KT 3500 1200W SHSN BLSN FEW002 SCT011CB BKN013 M01/M04 Q1010 RESHSN",
      "taf": "TAF EPGD 301130Z 3012/3112 33020KT 9999 -SHSN BKN015CB"
    },
    {
      "icao": "EPKK",
      "alert": "OK",
      "vis_m": 9999,
      "fzfg": false,
      "metar_trigger": false,
      "taf_trigger": false,
      "metar": "METAR EPKK 301430Z 27015KT 250V310 9999 FEW030 M01/M08 Q1012",
      "taf": "TAF EPKK 301430Z 3015/3115 27014KT 9999 FEW030"
    },
    {
      "icao": "EPKT",
      "alert": "OK",
      "vis_m": 9999,
      "fzfg": false,
      "metar_trigger": false,
      "taf_trigger": false,
      "metar": "METAR EPKT 301430Z 28016KT 9999 SCT026 M02/M07 Q1012",
      "taf": "TAF EPKT 301130Z 3012/3112 28013KT 9999 FEW025 BKN030"
    },
    {
      "icao": "EPLB",
      "alert": "OK",
      "vis_m": 9999,
      "fzfg": false,
      "metar_trigger": false,
      "taf_trigger": false,
      "metar": "METAR EPLB 301430Z 28016KT 9999 FEW033 M03/M06 Q1004",
      "taf": "TAF EPLB 301130Z 3012/3112 30018KT 9999 BKN020"
    },
    {
      "icao": "EPMO",
      "alert": "OK",
      "vis_m": 9999,
      "fzfg": false,
      "metar_trigger": false,
      "taf_trigger": false,
      "metar": "METAR EPMO 301430Z 29019G29KT 9999 FEW016 M02/M04 Q1006",
      "taf": "TAF EPMO 301130Z 3012/3112 30015KT 9999 BKN020"
    },
    {
      "icao": "EPPO",
      "alert": "OK",
      "vis_m": 9999,
      "fzfg": false,
      "metar_trigger": false,
      "taf_trigger": false,
      "metar": "METAR EPPO 301430Z 32015G27KT 9999 -SHSN SCT015CB SCT029 00/M06 Q1015",
      "taf": "TAF EPPO 301130Z 3012/3112 30013KT 9999 FEW025"
    },
    {
      "icao": "EPRA",
      "alert": "OK",
      "vis_m": 9999,
      "fzfg": false,
      "metar_trigger": false,
      "taf_trigger": false,
      "metar": "METAR EPRA 301430Z 30016G26KT 270V330 9999 BKN033 M01/M07 Q1007",
      "taf": "TAF EPRA 301430Z 3015/3024 30014KT 9999 BKN040"
    },
    {
      "icao": "EPRZ",
      "alert": "OK",
      "vis_m": 9999,
      "fzfg": false,
      "metar_trigger": false,
      "taf_trigger": false,
      "metar": "METAR EPRZ 301430Z 28015KT 9999 BKN040CB M01/M08 Q1008",
      "taf": "TAF EPRZ 301130Z 3012/3112 28014KT 9999 BKN025"
    },
    {
      "icao": "EPSC",
      "alert": "OK",
      "vis_m": 9999,
      "fzfg": false,
      "metar_trigger": false,
      "taf_trigger": false,
      "metar": "METAR EPSC 301430Z 31013KT 9999 FEW036 01/M07 Q1018",
      "taf": "TAF EPSC 301130Z 3012/3112 33013KT 9999 SCT040"
    },
    {
      "icao": "EPSY",
      "alert": "OK",
      "vis_m": 300,
      "fzfg": false,
      "metar_trigger": false,
      "taf_trigger": false,
      "metar": "METAR EPSY 301430Z 34016G27KT 0300 R01/0375N +SHSN BLSN BKN003 OVC010CB M02/M03 Q1004",
      "taf": "TAF EPSY 301430Z 3015/3024 31010KT 9999 BKN030"
    },
    {
      "icao": "EPWA",
      "alert": "OK",
      "vis_m": 9999,
      "fzfg": false,
      "metar_trigger": false,
      "taf_trigger": false,
      "metar": "METAR EPWA 301430Z 30020KT 9999 -SHSN SCT020CB BKN036 M01/M05 Q1007 NOSIG",
      "taf": "TAF EPWA 301430Z 3015/3115 30015KT 9999 BKN020"
    },
    {
      "icao": "EPWR",
      "alert": "OK",
      "vis_m": 9999,
      "fzfg": false,
      "metar_trigger": false,
      "taf_trigger": false,
      "metar": "METAR EPWR 301430Z 30019KT 9999 BKN033 00/M06 Q1016",
      "taf": "TAF EPWR 301430Z 3015/3115 30017KT 9999 FEW020 BKN040"
    },
    {
      "icao": "ESGG",
      "alert": "OK",
      "vis_m": 9999,
      "fzfg": false,
      "metar_trigger": false,
      "taf_trigger": false,
      "metar": "METAR ESGG 301420Z 34008KT CAVOK M01/M09 Q1021",
      "taf": "TAF ESGG 301430Z 3015/3115 34010KT CAVOK"
    },
    {
      "icao": "ESKN",
      "alert": "OK",
      "vis_m": 9999,
      "fzfg": false,
      "metar_trigger": false,
      "taf_trigger": false,
      "metar": "METAR ESKN 301420Z 32013KT CAVOK M03/M11 Q1016",
      "taf": "TAF ESKN 301430Z 3015/3115 33015KT CAVOK"
    },
    {
      "icao": "ESMS",
      "alert": "OK",
      "vis_m": 9999,
      "fzfg": false,
      "metar_trigger": false,
      "taf_trigger": false,
      "metar": "METAR ESMS 301420Z 32014KT CAVOK M01/M07 Q1020",
      "taf": "TAF ESMS 301427Z 3015/3115 32012KT CAVOK"
    },
    {
      "icao": "ESSA",
      "alert": "OK",
      "vis_m": 9999,
      "fzfg": false,
      "metar_trigger": false,
      "taf_trigger": false,
      "metar": "METAR ESSA 301420Z 31012KT CAVOK M04/M10 Q1014 NOSIG",
      "taf": "TAF ESSA 301430Z 3015/3115 33013KT CAVOK"
    },
    {
      "icao": "EYKA",
      "alert": "OK",
      "vis_m": 9999,
      "fzfg": false,
      "metar_trigger": false,
      "taf_trigger": false,
      "metar": "METAR EYKA 301420Z VRB06KT 9999 SCT021 BKN028 M04/M08 Q0999",
      "taf": "TAF EYKA 301110Z 3012/3112 34011KT 9000 BKN020"
    },
    {
      "icao": "EYPA",
      "alert": "OK",
      "vis_m": 9999,
      "fzfg": false,
      "metar_trigger": false,
      "taf_trigger": false,
      "metar": "METAR EYPA 301420Z 02010KT 9999 FEW023 M02/M06 Q1004",
      "taf": "TAF EYPA 301110Z 3012/3112 01013KT 9000 BKN025"
    },
    {
      "icao": "EYVI",
      "alert": "OK",
      "vis_m": 9999,
      "fzfg": false,
      "metar_trigger": false,
      "taf_trigger": false,
      "metar": "METAR EYVI 301420Z 34011KT 9999 -SHSN BKN016CB M05/M08 Q0996 TEMPO 1500 SHSN",
      "taf": "TAF EYVI 301126Z 3012/3112 33010KT 8000 SCT010 BKN015"
    },
    {
      "icao": "GCFV",
      "alert": "OK",
      "vis_m": 9999,
      "fzfg": false,
      "metar_trigger": false,
      "taf_trigger": false,
      "metar": "METAR GCFV 301430Z 14008KT 110V170 9999 FEW025 20/13 Q1020",
      "taf": "TAF GCFV 301400Z 3015/3115 13010KT 9999 FEW025 TX21/3114Z TN14/3106Z"
    },
    {
      "icao": "GCLP",
      "alert": "OK",
      "vis_m": 9999,
      "fzfg": false,
      "metar_trigger": false,
      "taf_trigger": false,
      "metar": "METAR GCLP 301430Z 16010KT 120V190 9999 FEW040 20/14 Q1020 NOSIG",
      "taf": "TAF GCLP 301400Z 3015/3115 16010KT 9999 FEW035 TX22/3114Z TN15/3106Z"
    },
    {
      "icao": "GCTS",
      "alert": "OK",
      "vis_m": 9999,
      "fzfg": false,
      "metar_trigger": false,
      "taf_trigger": false,
      "metar": "METAR GCTS 301430Z 21010KT 190V250 9999 FEW025 20/14 Q1020 NOSIG",
      "taf": "TAF GCTS 301400Z 3015/3115 21010KT 9999 SCT025 TX24/3114Z TN16/3106Z"
    },
    {
      "icao": "GMAD",
      "alert": "OK",
      "vis_m": 9999,
      "fzfg": false,
      "metar_trigger": false,
      "taf_trigger": false,
      "metar": "METAR GMAD 301430Z 22003KT 170V280 CAVOK 19/10 Q1020 NOSIG",
      "taf": "TAF GMAD 301100Z 3012/3118 28012KT 8000 FEW020"
    },
    {
      "icao": "GMMN",
      "alert": "OK",
      "vis_m": 9999,
      "fzfg": false,
      "metar_trigger": false,
      "taf_trigger": false,
      "metar": "METAR GMMN 301430Z 25006KT 210V270 9999 SCT030 18/11 Q1020 NOSIG",
      "taf": "TAF GMMN 301100Z 3012/3118 17007KT CAVOK"
    },
    {
      "icao": "GMMX",
      "alert": "OK",
      "vis_m": 9999,
      "fzfg": false,
      "metar_trigger": false,
      "taf_trigger": false,
      "metar": "METAR GMMX 301430Z VRB02KT 9999 SCT090 SCT200 18/08 Q1019 NOSIG",
      "taf": "TAF GMMX 301100Z 3012/3118 24010KT 8000 SCT020"
    },
    {
      "icao": "HEGN",
      "alert": "OK",
      "vis_m": 9999,
      "fzfg": false,
      "metar_trigger": false,
      "taf_trigger": false,
      "metar": "METAR HEGN 301400Z 03008KT CAVOK 22/07 Q1018 NOSIG",
      "taf": "TAF HEGN 301100Z 3012/3118 04010KT CAVOK"
    },
    {
      "icao": "HEMA",
      "alert": "OK",
      "vis_m": 9999,
      "fzfg": false,
      "metar_trigger": false,
      "taf_trigger": false,
      "metar": "METAR HEMA 301400Z 01009KT CAVOK 21/12 Q1018 NOSIG",
      "taf": "TAF HEMA 301100Z 3012/3118 05010KT CAVOK"
    },
    {
      "icao": "HESH",
      "alert": "OK",
      "vis_m": 9999,
      "fzfg": false,
      "metar_trigger": false,
      "taf_trigger": false,
      "metar": "METAR HESH 301400Z 05006KT CAVOK 22/10 Q1019 NOSIG",
      "taf": "TAF HESH 301100Z 3012/3118 36012KT CAVOK"
    },
    {
      "icao": "HESX",
      "alert": "OK",
      "vis_m": 9999,
      "fzfg": false,
      "metar_trigger": false,
      "taf_trigger": false,
      "metar": "METAR HESX 301400Z 27005KT 9999 SCT020 18/06 Q1018 NOSIG",
      "taf": "TAF HESX 301100Z 3012/3118 23009KT 9999 SCT030 SCT100"
    },
    {
      "icao": "LATI",
      "alert": "OK",
      "vis_m": 9999,
      "fzfg": false,
      "metar_trigger": false,
      "taf_trigger": false,
      "metar": "METAR LATI 301420Z 30004KT CAVOK 12/02 Q1009 NOSIG",
      "taf": "TAF LATI 301100Z 3012/3112 VRB05KT 9999 FEW040 BKN070 TX12/3013Z TNM01/3104Z"
    },
    {
      "icao": "LBPD",
      "alert": "OK",
      "vis_m": 9999,
      "fzfg": false,
      "metar_trigger": false,
      "taf_trigger": false,
      "metar": "METAR LBPD 301430Z AUTO 29022KT 9999 NCD 07/M05 Q1007 NOSIG",
      "taf": "TAF LBPD 301100Z 3012/3112 28024KT CAVOK"
    },
    {
      "icao": "LBSF",
      "alert": "OK",
      "vis_m": 9999,
      "fzfg": false,
      "metar_trigger": false,
      "taf_trigger": false,
      "metar": "METAR LBSF 301430Z 28018G31KT CAVOK 01/M06 Q1011 NOSIG",
      "taf": "TAF LBSF 301100Z 3012/3112 28020KT CAVOK"
    },
    {
      "icao": "LBWN",
      "alert": "OK",
      "vis_m": 9999,
      "fzfg": false,
      "metar_trigger": false,
      "taf_trigger": false,
      "metar": "METAR LBWN 301430Z AUTO 29018KT 9999 NSC 03/M04 Q1008 TEMPO 28020G30KT",
      "taf": "TAF LBWN 301100Z 3012/3112 28022KT CAVOK"
    },
    {
      "icao": "LCLK",
      "alert": "OK",
      "vis_m": 9999,
      "fzfg": false,
      "metar_trigger": false,
      "taf_trigger": false,
      "metar": "METAR LCLK 301430Z 21007KT 9999 FEW030 SCT040 16/10 Q1017 NOSIG",
      "taf": "TAF LCLK 301130Z 3012/3112 18009KT 9999 FEW025 SCT045"
    },
    {
      "icao": "LCPH",
      "alert": "OK",
      "vis_m": 9999,
      "fzfg": false,
      "metar_trigger": false,
      "taf_trigger": false,
      "metar": "METAR LCPH 301430Z 17004KT 160V220 9999 FEW025 SCT040 16/07 Q1016 NOSIG",
      "taf": "TAF LCPH 301130Z 3012/3112 18009KT 9999 FEW025 SCT040"
    },
    {
      "icao": "LEAL",
      "alert": "OK",
      "vis_m": 9999,
      "fzfg": false,
      "metar_trigger": false,
      "taf_trigger": false,
      "metar": "METAR LEAL 301430Z 31008KT 270V340 CAVOK 18/08 Q1017 NOSIG",
      "taf": "TAF LEAL 301100Z 3012/3112 29008KT CAVOK TX16/3014Z TN07/3106Z"
    },
    {
      "icao": "LEBB",
      "alert": "OK",
      "vis_m": 9999,
      "fzfg": false,
      "metar_trigger": false,
      "taf_trigger": false,
      "metar": "METAR LEBB 301430Z 28002KT 9999 BKN022 10/09 Q1022 NOSIG",
      "taf": "TAF LEBB 301100Z 3012/3112 VRB03KT 9999 SCT015 BKN020 TX11/3014Z TN07/3108Z"
    },
    {
      "icao": "LEBL",
      "alert": "OK",
      "vis_m": 9999,
      "fzfg": false,
      "metar_trigger": false,
      "taf_trigger": false,
      "metar": "METAR LEBL 301430Z 33013G26KT 290V360 9999 FEW020 12/06 Q1015 NOSIG",
      "taf": ""
    },
    {
      "icao": "LECH",
      "alert": "OK",
      "vis_m": 9000,
      "fzfg": false,
      "metar_trigger": false,
      "taf_trigger": false,
      "metar": "METAR LECH 301430Z AUTO 24004KT 200V280 9000 NCD 15/03 Q1016",
      "taf": ""
    },
    {
      "icao": "LEMD",
      "alert": "OK",
      "vis_m": 9999,
      "fzfg": false,
      "metar_trigger": false,
      "taf_trigger": false,
      "metar": "METAR LEMD 301430Z 15004KT 120V210 CAVOK 10/04 Q1019 NOSIG",
      "taf": "TAF LEMD 301100Z 3012/3118 VRB04KT CAVOK TX10/3014Z TNM02/3106Z"
    },
    {
      "icao": "LEMG",
      "alert": "OK",
      "vis_m": 9999,
      "fzfg": false,
      "metar_trigger": false,
      "taf_trigger": false,
      "metar": "METAR LEMG 301430Z 22004KT 140V280 9999 FEW030 17/05 Q1019 NOSIG",
      "taf": "TAF LEMG 301100Z 3012/3112 30007KT CAVOK TX18/3014Z TN08/3106Z"
    },
    {
      "icao": "LEVC",
      "alert": "OK",
      "vis_m": 9999,
      "fzfg": false,
      "metar_trigger": false,
      "taf_trigger": false,
      "metar": "METAR LEVC 301430Z 14002KT 9999 FEW035 17/05 Q1016 NOSIG",
      "taf": "TAF LEVC 301100Z 3012/3112 29006KT CAVOK TX15/3014Z TN05/3106Z"
    },
    {
      "icao": "LEXJ",
      "alert": "OK",
      "vis_m": 9999,
      "fzfg": false,
      "metar_trigger": false,
      "taf_trigger": false,
      "metar": "METAR LEXJ 301430Z 24002KT 9999 FEW010 BKN020 10/09 Q1022",
      "taf": "TAF LEXJ 301400Z 3015/3115 VRB03KT 9999 SCT010 BKN020 TX10/3115Z TN07/3108Z"
    },
    {
      "icao": "LEZG",
      "alert": "OK",
      "vis_m": 9999,
      "fzfg": false,
      "metar_trigger": false,
      "taf_trigger": false,
      "metar": "METAR LEZG 301430Z 30019KT 9999 SCT040 BKN050 13/06 Q1018 NOSIG",
      "taf": "TAF LEZG 301100Z 3012/3112 29013KT 9999 FEW020 TX11/3014Z TN05/3106Z"
    },
    {
      "icao": "LEZL",
      "alert": "OK",
      "vis_m": 9999,
      "fzfg": false,
      "metar_trigger": false,
      "taf_trigger": false,
      "metar": "METAR LEZL 301430Z VRB02KT CAVOK 14/11 Q1020 NOSIG",
      "taf": "TAF LEZL 301400Z 3015/3115 05005KT CAVOK TX16/3015Z TN04/3106Z"
    },
    {
      "icao": "LFBD",
      "alert": "OK",
      "vis_m": 9999,
      "fzfg": false,
      "metar_trigger": false,
      "taf_trigger": false,
      "metar": "METAR LFBD 301430Z AUTO 03003KT 360V060 9999 BKN013 BKN018 02/M00 Q1023 BECMG NSC",
      "taf": ""
    },
    {
      "icao": "LFLL",
      "alert": "OK",
      "vis_m": 9999,
      "fzfg": false,
      "metar_trigger": false,
      "taf_trigger": false,
      "metar": "METAR LFLL 301400Z 36010KT 9999 OVC016 M01/M04 Q1022 NOSIG",
      "taf": "TAF LFLL 301100Z 3012/3118 36012KT 9999 OVC012"
    },
    {
      "icao": "LFLS",
      "alert": "OK",
      "vis_m": 9000,
      "fzfg": false,
      "metar_trigger": false,
      "taf_trigger": false,
      "metar": "METAR LFLS 301430Z AUTO 33012KT 9000 OVC010 M02/M03 Q1021 NOSIG",
      "taf": "TAF LFLS 301400Z 3015/3115 35009KT 9000 OVC008"
    },
    {
      "icao": "LFMN",
      "alert": "OK",
      "vis_m": 9999,
      "fzfg": false,
      "metar_trigger": false,
      "taf_trigger": false,
      "metar": "METAR LFMN 301430Z 11011KT 9999 FEW023 14/07 Q1011 NOSIG",
      "taf": "TAF LFMN 300800Z 3009/3115 33010KT CAVOK"
    },
    {
      "icao": "LFOB",
      "alert": "OK",
      "vis_m": 9999,
      "fzfg": false,
      "metar_trigger": false,
      "taf_trigger": false,
      "metar": "METAR LFOB 301430Z AUTO 03010KT CAVOK 05/M01 Q1030 NOSIG",
      "taf": "TAF LFOB 301100Z 3012/3112 02008KT CAVOK"
    },
    {
      "icao": "LFPO",
      "alert": "OK",
      "vis_m": 9999,
      "fzfg": false,
      "metar_trigger": false,
      "taf_trigger": false,
      "metar": "METAR LFPO 301430Z AUTO 05014KT 9999 FEW035 05/M02 Q1029 NOSIG",
      "taf": "TAF LFPO 301100Z 3012/3118 04010KT CAVOK"
    },
    {
      "icao": "LFSB",
      "alert": "OK",
      "vis_m": 9000,
      "fzfg": false,
      "metar_trigger": false,
      "taf_trigger": false,
      "metar": "METAR LFSB 301430Z AUTO 26003KT 9000 BKN045 00/M02 Q1025 TEMPO 3000 BR BKN006",
      "taf": "TAF LFSB 301100Z 3012/3112 35005KT 8000 BKN040"
    },
    {
      "icao": "LGAV",
      "alert": "OK",
      "vis_m": 9999,
      "fzfg": false,
      "metar_trigger": false,
      "taf_trigger": false,
      "metar": "METAR LGAV 301420Z 26009KT 9999 FEW025 14/05 Q1007 NOSIG",
      "taf": "TAF LGAV 301100Z 3012/3112 25010KT 9999 FEW025"
    },
    {
      "icao": "LGTS",
      "alert": "OK",
      "vis_m": 9999,
      "fzfg": false,
      "metar_trigger": false,
      "taf_trigger": false,
      "metar": "METAR LGTS 301420Z 32008KT CAVOK 12/00 Q1007 NOSIG",
      "taf": "TAF LGTS 301100Z 3012/3112 VRB03KT CAVOK"
    },
    {
      "icao": "LHBP",
      "alert": "OK",
      "vis_m": 9999,
      "fzfg": false,
      "metar_trigger": false,
      "taf_trigger": false,
      "metar": "METAR LHBP 301430Z 31016KT CAVOK 01/M11 Q1016 NOSIG",
      "taf": "TAF LHBP 301115Z 3012/3112 31015G25KT CAVOK"
    },
    {
      "icao": "LHDC",
      "alert": "OK",
      "vis_m": 9999,
      "fzfg": false,
      "metar_trigger": false,
      "taf_trigger": false,
      "metar": "METAR LHDC 301415Z AUTO 04004KT 350V080 CAVOK M00/M04 Q1013 NOSIG",
      "taf": "TAF LHDC 301415Z 3015/3024 36010KT CAVOK"
    },
    {
      "icao": "LIBD",
      "alert": "OK",
      "vis_m": 9999,
      "fzfg": false,
      "metar_trigger": false,
      "taf_trigger": false,
      "metar": "METAR LIBD 301420Z 30007KT 9999 FEW015 11/06 Q1009",
      "taf": "TAF LIBD 301100Z 3012/3112 33012KT 9999 SCT030"
    },
    {
      "icao": "LIBG",
      "alert": "OK",
      "vis_m": 9999,
      "fzfg": false,
      "metar_trigger": false,
      "taf_trigger": false,
      "metar": "METAR LIBG 301350Z 02008KT CAVOK 14/06 Q1008",
      "taf": "TAF LIBG 301400Z 3015/3024 33012KT CAVOK"
    },
    {
      "icao": "LIBP",
      "alert": "OK",
      "vis_m": 9999,
      "fzfg": false,
      "metar_trigger": false,
      "taf_trigger": false,
      "metar": "METAR LIBP 301420Z AUTO 02005KT 340V040 9999 FEW044/// OVC068/// 11/06 Q1012",
      "taf": "TAF LIBP 301100Z 3012/3112 VRB05KT 9999 FEW020 SCT030"
    },
    {
      "icao": "LIBR",
      "alert": "OK",
      "vis_m": 9999,
      "fzfg": false,
      "metar_trigger": false,
      "taf_trigger": false,
      "metar": "METAR LIBR 301420Z 33010KT CAVOK 13/06 Q1008",
      "taf": "TAF LIBR 301100Z 3012/3112 34012KT 9999 FEW025"
    },
    {
      "icao": "LICA",
      "alert": "OK",
      "vis_m": 9999,
      "fzfg": false,
      "metar_trigger": false,
      "taf_trigger": false,
      "metar": "METAR LICA 301420Z AUTO 28015KT 9999 BKN034/// 15/09 Q1009",
      "taf": "TAF LICA 301100Z 3012/3112 27015KT 9999 SCT030"
    },
    {
      "icao": "LICC",
      "alert": "OK",
      "vis_m": 9999,
      "fzfg": false,
      "metar_trigger": false,
      "taf_trigger": false,
      "metar": "METAR LICC 301420Z 28013KT 9999 FEW050 18/14 Q1009",
      "taf": "TAF LICC 301100Z 3012/3112 26010KT 9999 SCT030"
    },
    {
      "icao": "LICJ",
      "alert": "OK",
      "vis_m": 9999,
      "fzfg": false,
      "metar_trigger": false,
      "taf_trigger": false,
      "metar": "METAR LICJ 301420Z 27011KT 9999 SCT030 15/11 Q1012",
      "taf": "TAF LICJ 301100Z 3012/3112 28012KT 9999 SCT015"
    },
    {
      "icao": "LIMC",
      "alert": "OK",
      "vis_m": 6000,
      "fzfg": false,
      "metar_trigger": false,
      "taf_trigger": false,
      "metar": "METAR LIMC 301420Z 11007KT 6000 BKN012 04/02 Q1014 NOSIG",
      "taf": "TAF LIMC 301100Z 3012/3118 10010KT 9999 SCT014"
    },
    {
      "icao": "LIME",
      "alert": "OK",
      "vis_m": 9999,
      "fzfg": false,
      "metar_trigger": false,
      "taf_trigger": false,
      "metar": "METAR LIME 301420Z 13003KT 100V160 CAVOK 05/02 Q1014 NOSIG",
      "taf": "TAF LIME 301100Z 3012/3112 VRB06KT 9999 SCT015"
    },
    {
      "icao": "LIMF",
      "alert": "OK",
      "vis_m": 9999,
      "fzfg": false,
      "metar_trigger": false,
      "taf_trigger": false,
      "metar": "METAR LIMF 301420Z 06010KT CAVOK 07/01 Q1013",
      "taf": "TAF LIMF 301100Z 3012/3112 08012KT 9999 SCT020"
    },
    {
      "icao": "LIMJ",
      "alert": "OK",
      "vis_m": 9999,
      "fzfg": false,
      "metar_trigger": false,
      "taf_trigger": false,
      "metar": "METAR LIMJ 301420Z 13003KT 100V160 9999 FEW028 14/08 Q1011",
      "taf": "TAF LIMJ 301100Z 3012/3112 VRB05KT 9999 FEW020"
    },
    {
      "icao": "LIPE",
      "alert": "OK",
      "vis_m": 3000,
      "fzfg": false,
      "metar_trigger": false,
      "taf_trigger": false,
      "metar": "METAR LIPE 301420Z 33003KT 290V350 3000 BR OVC017 03/02 Q1015",
      "taf": "TAF LIPE 301100Z 3012/3112 VRB05KT 1200 BR SCT015"
    },
    {
      "icao": "LIPH",
      "alert": "OK",
      "vis_m": 9999,
      "fzfg": false,
      "metar_trigger": false,
      "taf_trigger": false,
      "metar": "METAR LIPH 301420Z 07009KT CAVOK 09/M02 Q1015",
      "taf": "TAF LIPH 301100Z 3012/3112 04009KT 7000 BKN020"
    },
    {
      "icao": "LIPQ",
      "alert": "OK",
      "vis_m": 9999,
      "fzfg": false,
      "metar_trigger": false,
      "taf_trigger": false,
      "metar": "METAR LIPQ 301420Z AUTO 11012KT 9999 NCD 08/M05 Q1015",
      "taf": "TAF LIPQ 301100Z 3012/3112 10012KT 9999 FEW020"
    },
    {
      "icao": "LIPR",
      "alert": "OK",
      "vis_m": 3000,
      "fzfg": false,
      "metar_trigger": false,
      "taf_trigger": false,
      "metar": "METAR LIPR 301420Z 32006KT 3000 BR SCT025 BKN060 05/03 Q1014",
      "taf": ""
    },
    {
      "icao": "LIPX",
      "alert": "OK",
      "vis_m": 9999,
      "fzfg": false,
      "metar_trigger": false,
      "taf_trigger": false,
      "metar": "METAR LIPX 301420Z 11007KT 080V140 9999 FEW030 08/01 Q1014",
      "taf": "TAF LIPX 301100Z 3012/3112 VRB05KT 6000 NSC"
    },
    {
      "icao": "LIPY",
      "alert": "OK",
      "vis_m": 4300,
      "fzfg": false,
      "metar_trigger": false,
      "taf_trigger": false,
      "metar": "METAR LIPY 301420Z AUTO 33012KT 4300 BR BKN004/// BKN057/// 08/07 Q1013",
      "taf": "TAF LIPY 301100Z 3012/3112 33012KT 9999 SCT015"
    },
    {
      "icao": "LIPZ",
      "alert": "OK",
      "vis_m": 9999,
      "fzfg": false,
      "metar_trigger": false,
      "taf_trigger": false,
      "metar": "METAR LIPZ 301420Z 06009KT 9999 FEW040 08/M00 Q1015 NOSIG",
      "taf": "TAF LIPZ 301100Z 3012/3118 06012KT 8000 BKN020"
    },
    {
      "icao": "LIRF",
      "alert": "OK",
      "vis_m": 9999,
      "fzfg": false,
      "metar_trigger": false,
      "taf_trigger": false,
      "metar": "METAR LIRF 301420Z 36007KT 9999 FEW045 14/04 Q1011 NOSIG",
      "taf": "TAF LIRF 301100Z 3012/3118 34008KT 9999 FEW040"
    },
    {
      "icao": "LIRN",
      "alert": "OK",
      "vis_m": 9999,
      "fzfg": false,
      "metar_trigger": false,
      "taf_trigger": false,
      "metar": "METAR LIRN 301420Z AUTO VRB04KT 9999 FEW046/// 13/06 Q1010",
      "taf": "TAF LIRN 301100Z 3012/3112 VRB05KT 9999 FEW025"
    },
    {
      "icao": "LIRP",
      "alert": "OK",
      "vis_m": 9999,
      "fzfg": false,
      "metar_trigger": false,
      "taf_trigger": false,
      "metar": "METAR LIRP 301415Z 12005KT 9999 FEW040 12/07 Q1011 NOSIG",
      "taf": "TAF LIRP 301100Z 3012/3112 13005KT 9999 SCT040"
    },
    {
      "icao": "LIRZ",
      "alert": "OK",
      "vis_m": 9999,
      "fzfg": false,
      "metar_trigger": false,
      "taf_trigger": false,
      "metar": "METAR LIRZ 301420Z AUTO 27004KT 9999 // BKN056/// 11/04 Q1011",
      "taf": "TAF LIRZ 301100Z 3012/3112 VRB05KT 9999 SCT040"
    },
    {
      "icao": "LJLJ",
      "alert": "OK",
      "vis_m": 9999,
      "fzfg": false,
      "metar_trigger": false,
      "taf_trigger": false,
      "metar": "METAR LJLJ 301430Z 14006KT 9999 BKN033 02/M03 Q1017 NOSIG",
      "taf": "TAF LJLJ 301100Z 3012/3112 30002KT 9999 FEW020"
    },
    {
      "icao": "LKMT",
      "alert": "OK",
      "vis_m": 9999,
      "fzfg": false,
      "metar_trigger": false,
      "taf_trigger": false,
      "metar": "METAR LKMT 301430Z 29009KT 9999 FEW045 M01/M09 Q1015 TEMPO 2000 SHSN FEW015TCU BKN019",
      "taf": "TAF LKMT 301100Z 3012/3112 34010KT 9999 SCT035"
    },
    {
      "icao": "LKPR",
      "alert": "OK",
      "vis_m": 9999,
      "fzfg": false,
      "metar_trigger": false,
      "taf_trigger": false,
      "metar": "METAR LKPR 301430Z 28015KT 9999 SCT035 M01/M06 Q1020 NOSIG",
      "taf": "TAF LKPR 301400Z 3015/3121 29015KT 9999 SCT025"
    },
    {
      "icao": "LLBG",
      "alert": "OK",
      "vis_m": 9999,
      "fzfg": false,
      "metar_trigger": false,
      "taf_trigger": false,
      "metar": "METAR LLBG 301420Z 22005KT 9999 FEW040 SCT050 17/09 Q1019 NOSIG",
      "taf": "TAF LLBG 301101Z 3012/3112 22010KT 9999 SCT050"
    },
    {
      "icao": "LMML",
      "alert": "OK",
      "vis_m": 9999,
      "fzfg": false,
      "metar_trigger": false,
      "taf_trigger": false,
      "metar": "METAR LMML 301415Z 28010KT 240V310 9999 FEW027 16/10 Q1012 NOSIG",
      "taf": "TAF LMML 301100Z 3012/3112 30015KT 9999 FEW020"
    },
    {
      "icao": "LOWW",
      "alert": "OK",
      "vis_m": 9999,
      "fzfg": false,
      "metar_trigger": false,
      "taf_trigger": false,
      "metar": "METAR LOWW 301420Z 31018KT 9999 FEW050 01/M09 Q1019 NOSIG",
      "taf": ""
    },
    {
      "icao": "LPFR",
      "alert": "OK",
      "vis_m": 9999,
      "fzfg": false,
      "metar_trigger": false,
      "taf_trigger": false,
      "metar": "METAR LPFR 301430Z 11009KT 9999 FEW015 14/11 Q1020",
      "taf": "TAF LPFR 301100Z 3012/3112 10007KT 9999 SCT020"
    },
    {
      "icao": "LPMA",
      "alert": "OK",
      "vis_m": 9999,
      "fzfg": false,
      "metar_trigger": false,
      "taf_trigger": false,
      "metar": "METAR LPMA 301430Z VRB05KT 9999 SCT015 20/15 Q1017",
      "taf": "TAF LPMA 301100Z 3012/3112 VRB05KT 9999 SCT015"
    },
    {
      "icao": "LPPR",
      "alert": "OK",
      "vis_m": 9999,
      "fzfg": false,
      "metar_trigger": false,
      "taf_trigger": false,
      "metar": "METAR LPPR 301430Z 29005KT 260V320 CAVOK 14/09 Q1020",
      "taf": "TAF LPPR 301100Z 3012/3112 12005KT CAVOK"
    },
    {
      "icao": "LPPS",
      "alert": "OK",
      "vis_m": 9999,
      "fzfg": false,
      "metar_trigger": false,
      "taf_trigger": false,
      "metar": "METAR LPPS 301430Z 28012KT 9999 FEW011 19/17 Q1018",
      "taf": "TAF LPPS 301100Z 3012/3118 27007KT 9999 SCT012"
    },
    {
      "icao": "LPPT",
      "alert": "OK",
      "vis_m": 9999,
      "fzfg": false,
      "metar_trigger": false,
      "taf_trigger": false,
      "metar": "METAR LPPT 301430Z 07004KT 010V110 9999 FEW003 10/10 Q1020",
      "taf": "TAF LPPT 301100Z 3012/3118 06005KT 0300 FG VV002"
    },
    {
      "icao": "LQBK",
      "alert": "OK",
      "vis_m": 9999,
      "fzfg": false,
      "metar_trigger": false,
      "taf_trigger": false,
      "metar": "METAR LQBK 301430Z 03002KT CAVOK 01/M01 Q1019 NOSIG",
      "taf": "TAF LQBK 301100Z 3012/3112 30005KT 9999 SCT040 TX03/3013Z TNM07/3105Z"
    },
    {
      "icao": "LQSA",
      "alert": "OK",
      "vis_m": 9999,
      "fzfg": false,
      "metar_trigger": false,
      "taf_trigger": false,
      "metar": "METAR LQSA 301430Z 31005KT 9999 SCT040 BKN055 01/M03 Q1016 NOSIG",
      "taf": "TAF LQSA 301100Z 3012/3112 29005KT 9999 BKN040 TX00/3013Z TNM09/3106Z"
    },
    {
      "icao": "LQTZ",
      "alert": "OK",
      "vis_m": 9999,
      "fzfg": false,
      "metar_trigger": false,
      "taf_trigger": false,
      "metar": "METAR LQTZ 301430Z 32008KT CAVOK 03/M06 Q1017",
      "taf": "TAF LQTZ 301100Z 3012/3112 27007KT 9999 BKN040 TX01/3013Z TNM06/3105Z"
    },
    {
      "icao": "LRBC",
      "alert": "OK",
      "vis_m": 9999,
      "fzfg": false,
      "metar_trigger": false,
      "taf_trigger": false,
      "metar": "METAR LRBC 301430Z 19004KT 9999 FEW058 M02/M06 Q1007",
      "taf": "TAF LRBC 301400Z 3015/3024 VRB04KT 9999 BKN045"
    },
    {
      "icao": "LRBS",
      "alert": "OK",
      "vis_m": 9999,
      "fzfg": false,
      "metar_trigger": false,
      "taf_trigger": false,
      "metar": "METAR LRBS 301430Z 25005KT CAVOK 02/M05 Q1009 NOSIG",
      "taf": "TAF LRBS 301100Z 3012/3112 VRB04KT CAVOK"
    },
    {
      "icao": "LRBV",
      "alert": "OK",
      "vis_m": 600,
      "fzfg": false,
      "metar_trigger": false,
      "taf_trigger": false,
      "metar": "METAR LRBV 301430Z 29010KT 0600 R21/1000N +SHSN VV004 M05/M06 Q1008",
      "taf": "TAF LRBV 301400Z 3015/3024 30015KT 5000 -SN BKN015 BKN040"
    },
    {
      "icao": "LRCL",
      "alert": "OK",
      "vis_m": 1200,
      "fzfg": false,
      "metar_trigger": false,
      "taf_trigger": false,
      "metar": "METAR LRCL 301430Z 30016KT 1200 R25/1500U SHSN SCT009 OVC017 M04/M05 Q1011",
      "taf": "TAF LRCL 301400Z 3015/3024 30012KT 3000 -SN SCT025 BKN040"
    },
    {
      "icao": "LRCV",
      "alert": "OK",
      "vis_m": 9999,
      "fzfg": false,
      "metar_trigger": false,
      "taf_trigger": false,
      "metar": "METAR LRCV 301430Z 29013KT 9999 SCT018 01/M02 Q1010",
      "taf": "TAF LRCV 301400Z 3015/3024 28018KT CAVOK"
    },
    {
      "icao": "LRIA",
      "alert": "OK",
      "vis_m": 9999,
      "fzfg": false,
      "metar_trigger": false,
      "taf_trigger": false,
      "metar": "METAR LRIA 301430Z 33008KT CAVOK M01/M10 Q1006",
      "taf": "TAF LRIA 301400Z 3015/3024 30008KT 9999 SCT030"
    },
    {
      "icao": "LROP",
      "alert": "OK",
      "vis_m": 9999,
      "fzfg": false,
      "metar_trigger": false,
      "taf_trigger": false,
      "metar": "METAR LROP 301430Z 24007KT CAVOK 01/M07 Q1009 NOSIG",
      "taf": "TAF LROP 301100Z 3012/3112 VRB04KT CAVOK"
    },
    {
      "icao": "LRSB",
      "alert": "OK",
      "vis_m": 9999,
      "fzfg": false,
      "metar_trigger": false,
      "taf_trigger": false,
      "metar": "METAR LRSB 301430Z 23007KT 9999 FEW018 BKN050 M03/M05 Q1010",
      "taf": ""
    },
    {
      "icao": "LRSM",
      "alert": "OK",
      "vis_m": 9999,
      "fzfg": false,
      "metar_trigger": false,
      "taf_trigger": false,
      "metar": "METAR LRSM 301430Z 34015KT 9999 FEW047 M00/M08 Q1012",
      "taf": "TAF LRSM 301400Z 3015/3024 29008KT 9999 BKN040"
    },
    {
      "icao": "LRSV",
      "alert": "OK",
      "vis_m": 9999,
      "fzfg": false,
      "metar_trigger": false,
      "taf_trigger": false,
      "metar": "METAR LRSV 301430Z COR 30014KT CAVOK M04/M12 Q1005",
      "taf": "TAF LRSV 301400Z 3015/3024 31014KT CAVOK"
    },
    {
      "icao": "LRTM",
      "alert": "OK",
      "vis_m": 9999,
      "fzfg": false,
      "metar_trigger": false,
      "taf_trigger": false,
      "metar": "METAR LRTM 301430Z 26006KT 9999 FEW007 SCT014 BKN035 M01/M08 Q1010",
      "taf": "TAF LRTM 301400Z 3015/3024 30012KT 5000 -SN SCT025 BKN040"
    },
    {
      "icao": "LRTR",
      "alert": "OK",
      "vis_m": 9999,
      "fzfg": false,
      "metar_trigger": false,
      "taf_trigger": false,
      "metar": "METAR LRTR 301430Z 33002KT 9999 FEW035 00/M04 Q1014",
      "taf": "TAF LRTR 301100Z 3012/3112 29012KT 9999 BKN025"
    },
    {
      "icao": "LTAC",
      "alert": "OK",
      "vis_m": 9999,
      "fzfg": false,
      "metar_trigger": false,
      "taf_trigger": false,
      "metar": "METAR LTAC 301420Z 27006KT 9999 FEW040 SCT180 02/M08 Q1010 NOSIG RMK RWY21C 24005KT RWY03L 27006KT RWY21R 24005KT RWY03R 25006KT RWY21L 25006KT",
      "taf": "TAF LTAC 301040Z 3012/3112 23007KT 9999 SCT040"
    },
    {
      "icao": "LTFM",
      "alert": "OK",
      "vis_m": 9999,
      "fzfg": false,
      "metar_trigger": false,
      "taf_trigger": false,
      "metar": "METAR LTFM 301420Z 21018KT 9999 -SHRA BKN025 11/04 Q1006 NOSIG RMK RWY17L 21016KT RWY34L 20015KT RWY16R 21011KT RWY36 21017KT RWY18 21019KT",
      "taf": "TAF LTFM 301040Z 3012/3118 21022G33KT 9999 BKN025"
    },
    {
      "icao": "LUKK",
      "alert": "OK",
      "vis_m": 9999,
      "fzfg": false,
      "metar_trigger": false,
      "taf_trigger": false,
      "metar": "METAR LUKK 301430Z 30013KT CAVOK M01/M09 Q1006 NOSIG",
      "taf": "TAF LUKK 301116Z 3012/3112 31012KT 9999 SCT035"
    },
    {
      "icao": "LWOH",
      "alert": "OK",
      "vis_m": 9999,
      "fzfg": false,
      "metar_trigger": false,
      "taf_trigger": false,
      "metar": "METAR LWOH 301420Z 31005KT 280V010 9999 SCT040 09/00 Q1007",
      "taf": "TAF LWOH 301410Z 3015/3115 02012KT 9999 SCT040 SCT070"
    },
    {
      "icao": "LWSK",
      "alert": "OK",
      "vis_m": 9999,
      "fzfg": false,
      "metar_trigger": false,
      "taf_trigger": false,
      "metar": "METAR LWSK 301420Z 01021KT 9999 FEW040 04/M04 Q1011 NOSIG",
      "taf": "TAF LWSK 301410Z 3015/3115 36015KT 9999 SCT040 SCT090"
    },
    {
      "icao": "LYBE",
      "alert": "OK",
      "vis_m": 9999,
      "fzfg": false,
      "metar_trigger": false,
      "taf_trigger": false,
      "metar": "METAR LYBE 301430Z 32012KT 9999 FEW040 02/M05 Q1016 NOSIG",
      "taf": "TAF LYBE 301100Z 3012/3112 29014KT 9999 SCT027 TX03/3013Z TNM06/3106Z"
    },
    {
      "icao": "LYNI",
      "alert": "OK",
      "vis_m": 9999,
      "fzfg": false,
      "metar_trigger": false,
      "taf_trigger": false,
      "metar": "METAR LYNI 301430Z 31003KT 9999 -SN BKN025 02/M03 Q1015 TEMPO 5000 SN",
      "taf": "TAF LYNI 301100Z 3012/3112 32008KT 9999 SCT030 TX04/3012Z TNM05/3106Z"
    },
    {
      "icao": "LYPG",
      "alert": "OK",
      "vis_m": 9999,
      "fzfg": false,
      "metar_trigger": false,
      "taf_trigger": false,
      "metar": "METAR LYPG 301430Z 29004KT 240V340 9999 FEW040 BKN070 08/M01 Q1010 BECMG 35014KT",
      "taf": "TAF LYPG 301100Z 3012/3112 36006KT 9999 BKN050 TX07/3012Z TN01/3105Z"
    },
    {
      "icao": "LZIB",
      "alert": "OK",
      "vis_m": 9999,
      "fzfg": false,
      "metar_trigger": false,
      "taf_trigger": false,
      "metar": "METAR LZIB 301430Z 30009KT 9999 BKN045 01/M07 Q1018 NOSIG",
      "taf": "TAF LZIB 301115Z 3012/3112 32016KT 9999 FEW040"
    },
    {
      "icao": "LZKZ",
      "alert": "OK",
      "vis_m": 9999,
      "fzfg": false,
      "metar_trigger": false,
      "taf_trigger": false,
      "metar": "METAR LZKZ 301430Z 32013KT CAVOK M01/M13 Q1011 NOSIG",
      "taf": "TAF LZKZ 301115Z 3012/3112 34009KT 9999 FEW045"
    },
    {
      "icao": "LZTT",
      "alert": "OK",
      "vis_m": 9999,
      "fzfg": false,
      "metar_trigger": false,
      "taf_trigger": false,
      "metar": "METAR LZTT 301430Z 28016KT 9999 -SN BKN045 M05/M13 Q1010 NOSIG",
      "taf": "TAF LZTT 301115Z 3012/3112 28014KT 9999 -SN SCT012 BKN040"
    },
    {
      "icao": "OEJN",
      "alert": "OK",
      "vis_m": 9999,
      "fzfg": false,
      "metar_trigger": false,
      "taf_trigger": false,
      "metar": "METAR OEJN 301400Z 31013KT CAVOK 27/01 Q1015 NOSIG",
      "taf": "TAF OEJN 301100Z 3012/3118 33012KT CAVOK"
    },
    {
      "icao": "OEMA",
      "alert": "OK",
      "vis_m": 9999,
      "fzfg": false,
      "metar_trigger": false,
      "taf_trigger": false,
      "metar": "METAR OEMA 301400Z 14005KT CAVOK 22/01 Q1021 NOSIG",
      "taf": "TAF OEMA 301100Z 3012/3118 09012KT 7000 NSC"
    },
    {
      "icao": "OJAI",
      "alert": "OK",
      "vis_m": 5000,
      "fzfg": false,
      "metar_trigger": false,
      "taf_trigger": false,
      "metar": "METAR OJAI 301400Z 25006KT 5000 HZ SCT025 BKN030 12/06 Q1020 NOSIG",
      "taf": "TAF OJAI 301100Z 3012/3118 26012KT 5000 HZ SCT030"
    },
    {
      "icao": "OMAA",
      "alert": "OK",
      "vis_m": 9999,
      "fzfg": false,
      "metar_trigger": false,
      "taf_trigger": false,
      "metar": "METAR OMAA 301400Z 30013KT 9999 FEW045 23/08 Q1016 NOSIG",
      "taf": "TAF OMAA 301100Z 3012/3118 31013KT 8000 FEW040"
    },
    {
      "icao": "OMDB",
      "alert": "OK",
      "vis_m": 9999,
      "fzfg": false,
      "metar_trigger": false,
      "taf_trigger": false,
      "metar": "METAR OMDB 301430Z 28015KT CAVOK 23/10 Q1015 NOSIG",
      "taf": "TAF OMDB 301100Z 3012/3118 29014KT 8000 FEW040"
    },
    {
      "icao": "UAAA",
      "alert": "OK",
      "vis_m": 5000,
      "fzfg": false,
      "metar_trigger": false,
      "taf_trigger": false,
      "metar": "METAR UAAA 301430Z 13003MPS 5000 FU FEW100 BKN200 05/M02 Q1004 NOSIG",
      "taf": "TAF UAAA 301103Z 3012/3112 13003MPS 3100 BR FU BKN100 TX07/3109Z TNM03/3101Z"
    },
    {
      "icao": "UBBB",
      "alert": "OK",
      "vis_m": 9999,
      "fzfg": false,
      "metar_trigger": false,
      "taf_trigger": false,
      "metar": "METAR UBBB 301430Z 34008KT 9999 SCT031 04/00 Q1014 NOSIG",
      "taf": "TAF UBBB 301058Z 3012/3112 32014KT 9999 SCT030 TX06/3012Z TN02/3102Z"
    },
    {
      "icao": "UDSG",
      "alert": "OK",
      "vis_m": 9999,
      "fzfg": false,
      "metar_trigger": false,
      "taf_trigger": false,
      "metar": "METAR UDSG 301430Z 20014KT 9999 NSC M08/M14 Q1012 NOSIG",
      "taf": "TAF UDSG 301058Z 3012/3112 VRB06KT 9999 FEW050"
    },
    {
      "icao": "UDYZ",
      "alert": "OK",
      "vis_m": 9000,
      "fzfg": false,
      "metar_trigger": false,
      "taf_trigger": false,
      "metar": "METAR UDYZ 301430Z VRB01KT 9000 NSC M04/M07 Q1016 NOSIG",
      "taf": "TAF UDYZ 301100Z 3012/3112 VRB06KT 9999 NSC"
    },
    {
      "icao": "UGKO",
      "alert": "OK",
      "vis_m": 9999,
      "fzfg": false,
      "metar_trigger": false,
      "taf_trigger": false,
      "metar": "METAR UGKO 301430Z 08010KT CAVOK 01/M01 Q1013 NOSIG",
      "taf": "TAF UGKO 301100Z 3012/3112 08007KT 9999 SCT030 BKN060 TX04/3112Z TNM01/3020Z"
    }
  ]
}