{
  "ts_utc": "2026-04-27T12:12:36Z",
  "threshold_m": 150,
  "source": "stations_override.txt (ICAO list) + aviationweather.gov (METAR/TAF raw)",
  "station_count": 159,
  "stations": [
    {
      "icao": "BIKF",
      "alert": "OK",
      "vis_m": 8000,
      "fzfg": false,
      "metar_trigger": false,
      "taf_trigger": false,
      "metar": "METAR BIKF 271200Z 15016KT 8000 -RA BKN007 OVC021 09/08 Q1007",
      "taf": "TAF BIKF 271034Z 2712/2812 17015KT 9999 -RADZ BKN008 OVC018 TX09/2712Z TN07/2804Z"
    },
    {
      "icao": "BKPR",
      "alert": "OK",
      "vis_m": 9000,
      "fzfg": false,
      "metar_trigger": false,
      "taf_trigger": false,
      "metar": "METAR BKPR 271200Z VRB04KT 9000 NSC 19/M03 Q1020 NOSIG",
      "taf": "TAF BKPR 271130Z 2712/2812 03005KT CAVOK"
    },
    {
      "icao": "EBCI",
      "alert": "OK",
      "vis_m": 9999,
      "fzfg": false,
      "metar_trigger": false,
      "taf_trigger": false,
      "metar": "METAR EBCI 271150Z 06007KT 030V090 CAVOK 17/00 Q1022 NOSIG",
      "taf": "TAF EBCI 271100Z 2712/2818 05006KT CAVOK"
    },
    {
      "icao": "EDDB",
      "alert": "OK",
      "vis_m": 9999,
      "fzfg": false,
      "metar_trigger": false,
      "taf_trigger": false,
      "metar": "METAR EDDB 271150Z AUTO 27011KT 240V300 CAVOK 17/01 Q1023 NOSIG",
      "taf": "TAF EDDB 271100Z 2712/2812 30006KT CAVOK"
    },
    {
      "icao": "EDDH",
      "alert": "OK",
      "vis_m": 9999,
      "fzfg": false,
      "metar_trigger": false,
      "taf_trigger": false,
      "metar": "METAR EDDH 271150Z AUTO 05004KT 360V140 CAVOK 13/02 Q1024 NOSIG",
      "taf": "TAF EDDH 271100Z 2712/2818 VRB03KT CAVOK"
    },
    {
      "icao": "EDDK",
      "alert": "OK",
      "vis_m": 9999,
      "fzfg": false,
      "metar_trigger": false,
      "taf_trigger": false,
      "metar": "METAR EDDK 271150Z AUTO VRB03KT CAVOK 18/02 Q1022 NOSIG",
      "taf": "TAF EDDK 271100Z 2712/2818 VRB03KT CAVOK"
    },
    {
      "icao": "EDDN",
      "alert": "OK",
      "vis_m": 9999,
      "fzfg": false,
      "metar_trigger": false,
      "taf_trigger": false,
      "metar": "METAR EDDN 271150Z AUTO 29005KT 230V330 CAVOK 17/M02 Q1021 NOSIG",
      "taf": "TAF EDDN 271100Z 2712/2812 VRB03KT CAVOK"
    },
    {
      "icao": "EDDS",
      "alert": "OK",
      "vis_m": 9999,
      "fzfg": false,
      "metar_trigger": false,
      "taf_trigger": false,
      "metar": "METAR EDDS 271150Z AUTO VRB06KT CAVOK 20/04 Q1020 NOSIG",
      "taf": "TAF EDDS 271100Z 2712/2812 03005KT CAVOK"
    },
    {
      "icao": "EDFH",
      "alert": "OK",
      "vis_m": 9999,
      "fzfg": false,
      "metar_trigger": false,
      "taf_trigger": false,
      "metar": "METAR EDFH 271150Z 02006KT 330V090 CAVOK 16/01 Q1022",
      "taf": "TAF EDFH 271100Z 2712/2812 09006KT CAVOK"
    },
    {
      "icao": "EDJA",
      "alert": "OK",
      "vis_m": 9999,
      "fzfg": false,
      "metar_trigger": false,
      "taf_trigger": false,
      "metar": "METAR EDJA 271150Z 03008KT 330V080 CAVOK 18/02 Q1020",
      "taf": "TAF EDJA 271100Z 2712/2721 04006KT CAVOK"
    },
    {
      "icao": "EDLW",
      "alert": "OK",
      "vis_m": 9999,
      "fzfg": false,
      "metar_trigger": false,
      "taf_trigger": false,
      "metar": "METAR EDLW 271150Z VRB05KT CAVOK 16/03 Q1023",
      "taf": "TAF EDLW 271100Z 2712/2812 05006KT CAVOK"
    },
    {
      "icao": "EDNY",
      "alert": "OK",
      "vis_m": 9999,
      "fzfg": false,
      "metar_trigger": false,
      "taf_trigger": false,
      "metar": "METAR EDNY 271150Z 24005KT 200V350 CAVOK 21/05 Q1020",
      "taf": "TAF EDNY 271100Z 2712/2721 23005KT CAVOK"
    },
    {
      "icao": "EDSB",
      "alert": "OK",
      "vis_m": 9999,
      "fzfg": false,
      "metar_trigger": false,
      "taf_trigger": false,
      "metar": "METAR EDSB 271150Z 01010KT 340V040 CAVOK 19/04 Q1020",
      "taf": "TAF EDSB 271100Z 2712/2812 02010KT CAVOK"
    },
    {
      "icao": "EETN",
      "alert": "OK",
      "vis_m": 9999,
      "fzfg": false,
      "metar_trigger": false,
      "taf_trigger": false,
      "metar": "METAR EETN 271150Z 30014KT CAVOK 08/M06 Q1013 NOSIG",
      "taf": "TAF EETN 271130Z 2712/2812 30014KT 9999 SCT045"
    },
    {
      "icao": "EFTU",
      "alert": "OK",
      "vis_m": 9999,
      "fzfg": false,
      "metar_trigger": false,
      "taf_trigger": false,
      "metar": "METAR EFTU 271150Z AUTO 33014G24KT 280V020 9999 //////CB 08/M07 Q1016",
      "taf": "TAF EFTU 271125Z 2712/2812 33012KT 9999 FEW045"
    },
    {
      "icao": "EGBB",
      "alert": "OK",
      "vis_m": 9999,
      "fzfg": false,
      "metar_trigger": false,
      "taf_trigger": false,
      "metar": "METAR EGBB 271150Z 34008KT 300V010 9999 FEW040 18/08 Q1025",
      "taf": "TAF EGBB 271103Z 2712/2812 33009KT 9999 FEW045"
    },
    {
      "icao": "EGGP",
      "alert": "OK",
      "vis_m": 9999,
      "fzfg": false,
      "metar_trigger": false,
      "taf_trigger": false,
      "metar": "METAR EGGP 271150Z 31008KT 280V340 9999 FEW015 14/08 Q1026",
      "taf": "TAF EGGP 271058Z 2712/2812 31012KT 9999 FEW020"
    },
    {
      "icao": "EGGW",
      "alert": "OK",
      "vis_m": 9999,
      "fzfg": false,
      "metar_trigger": false,
      "taf_trigger": false,
      "metar": "METAR EGGW 271150Z AUTO VRB05KT 9999 NCD 19/03 Q1024",
      "taf": "TAF EGGW 271102Z 2712/2812 01009KT 9999 FEW045"
    },
    {
      "icao": "EGKK",
      "alert": "OK",
      "vis_m": 9999,
      "fzfg": false,
      "metar_trigger": false,
      "taf_trigger": false,
      "metar": "METAR EGKK 271150Z 05007KT 360V100 CAVOK 19/05 Q1024",
      "taf": "TAF EGKK 271101Z 2712/2818 07008KT 9999 FEW045"
    },
    {
      "icao": "EGNM",
      "alert": "OK",
      "vis_m": 9999,
      "fzfg": false,
      "metar_trigger": false,
      "taf_trigger": false,
      "metar": "METAR EGNM 271150Z 34008KT 280V010 9999 SCT035 17/04 Q1024",
      "taf": "TAF EGNM 271059Z 2712/2812 02006KT 9999 FEW035 SCT045"
    },
    {
      "icao": "EGPD",
      "alert": "OK",
      "vis_m": 9999,
      "fzfg": false,
      "metar_trigger": false,
      "taf_trigger": false,
      "metar": "METAR EGPD 271150Z 03009KT 360V090 9999 4600E SHRA SCT016CB BKN023 12/09 Q1026 RESHRA",
      "taf": "TAF EGPD 271054Z 2712/2812 32005KT 9999 FEW045"
    },
    {
      "icao": "EGPF",
      "alert": "OK",
      "vis_m": 9999,
      "fzfg": false,
      "metar_trigger": false,
      "taf_trigger": false,
      "metar": "METAR EGPF 271150Z AUTO 28004KT 240V330 9999 FEW041 16/08 Q1026",
      "taf": "TAF EGPF 271053Z 2712/2812 30010KT 9999 FEW030"
    },
    {
      "icao": "EHBK",
      "alert": "OK",
      "vis_m": 9999,
      "fzfg": false,
      "metar_trigger": false,
      "taf_trigger": false,
      "metar": "METAR EHBK 271155Z AUTO 04008KT 010V070 9999 NSC 16/06 Q1022 NOSIG",
      "taf": "TAF EHBK 271107Z 2712/2818 03005KT CAVOK"
    },
    {
      "icao": "EHEH",
      "alert": "OK",
      "vis_m": 9999,
      "fzfg": false,
      "metar_trigger": false,
      "taf_trigger": false,
      "metar": "METAR EHEH 271155Z AUTO 07005KT 010V130 9999 OVC150 17/01 Q1023 BLU NOSIG RMK TREND REMOTE BY EHWX",
      "taf": "TAF EHEH 271114Z 2712/2818 04007KT CAVOK"
    },
    {
      "icao": "EKBI",
      "alert": "OK",
      "vis_m": 9999,
      "fzfg": false,
      "metar_trigger": false,
      "taf_trigger": false,
      "metar": "METAR EKBI 271150Z AUTO VRB03KT 9999 OVC120/// 11/01 Q1025",
      "taf": "TAF EKBI 271127Z 2712/2812 VRB03KT 9999 SCT025"
    },
    {
      "icao": "EKCH",
      "alert": "OK",
      "vis_m": 9999,
      "fzfg": false,
      "metar_trigger": false,
      "taf_trigger": false,
      "metar": "METAR EKCH 271150Z AUTO 35008KT 320V020 9999 NCD 11/M08 Q1025 NOSIG",
      "taf": "TAF EKCH 271127Z 2712/2812 36012KT CAVOK"
    },
    {
      "icao": "ENAL",
      "alert": "OK",
      "vis_m": 9999,
      "fzfg": false,
      "metar_trigger": false,
      "taf_trigger": false,
      "metar": "METAR ENAL 271150Z 06013KT CAVOK 08/M01 Q1028",
      "taf": "TAF ENAL 271100Z 2712/2721 07015KT CAVOK"
    },
    {
      "icao": "ENBR",
      "alert": "OK",
      "vis_m": 9999,
      "fzfg": false,
      "metar_trigger": false,
      "taf_trigger": false,
      "metar": "METAR ENBR 271150Z 22007KT CAVOK 10/M03 Q1027 BECMG 32010KT RMK WIND 1200FT 26006KT",
      "taf": "TAF ENBR 271100Z 2712/2812 22006KT CAVOK"
    },
    {
      "icao": "ENGM",
      "alert": "OK",
      "vis_m": 9999,
      "fzfg": false,
      "metar_trigger": false,
      "taf_trigger": false,
      "metar": "METAR ENGM 271150Z 36007KT 310V040 CAVOK 09/M07 Q1026 NOSIG",
      "taf": "TAF ENGM 271100Z 2712/2812 01008KT CAVOK"
    },
    {
      "icao": "ENHD",
      "alert": "OK",
      "vis_m": 9999,
      "fzfg": false,
      "metar_trigger": false,
      "taf_trigger": false,
      "metar": "METAR ENHD 271150Z 22010KT CAVOK 09/M00 Q1027",
      "taf": "TAF ENHD 271100Z 2712/2721 25004KT CAVOK"
    },
    {
      "icao": "ENTC",
      "alert": "OK",
      "vis_m": 9999,
      "fzfg": false,
      "metar_trigger": false,
      "taf_trigger": false,
      "metar": "METAR ENTC 271150Z 25005KT 210V270 9999 FEW010 SCT040 02/M03 Q1023 TEMPO 0800 SHSN VV006 RMK WIND 2600FT 31014KT",
      "taf": "TAF ENTC 271100Z 2712/2812 20005KT 9999 FEW006 SCT020 BKN035"
    },
    {
      "icao": "ENTO",
      "alert": "OK",
      "vis_m": 9999,
      "fzfg": false,
      "metar_trigger": false,
      "taf_trigger": false,
      "metar": "METAR ENTO 271150Z VRB05KT CAVOK 09/M05 Q1027 NOSIG",
      "taf": "TAF ENTO 271100Z 2712/2812 01008KT CAVOK"
    },
    {
      "icao": "ENVA",
      "alert": "OK",
      "vis_m": 9999,
      "fzfg": false,
      "metar_trigger": false,
      "taf_trigger": false,
      "metar": "METAR ENVA 271150Z 26011KT 9999 SCT032 07/02 Q1029 NOSIG RMK WIND 670FT 29010KT",
      "taf": "TAF ENVA 271100Z 2712/2812 27010KT 9999 FEW015 BKN030"
    },
    {
      "icao": "ENZV",
      "alert": "OK",
      "vis_m": 9999,
      "fzfg": false,
      "metar_trigger": false,
      "taf_trigger": false,
      "metar": "METAR ENZV 271150Z 26008KT 230V300 CAVOK 09/00 Q1027 NOSIG",
      "taf": "TAF ENZV 271100Z 2712/2812 31010KT CAVOK"
    },
    {
      "icao": "EPGD",
      "alert": "OK",
      "vis_m": 9999,
      "fzfg": false,
      "metar_trigger": false,
      "taf_trigger": false,
      "metar": "METAR EPGD 271200Z 36009KT 320V060 9999 FEW047 10/M01 Q1022",
      "taf": "TAF EPGD 271130Z 2712/2812 34014KT CAVOK"
    },
    {
      "icao": "EPKK",
      "alert": "OK",
      "vis_m": 9999,
      "fzfg": false,
      "metar_trigger": false,
      "taf_trigger": false,
      "metar": "METAR EPKK 271200Z 29013KT 260V320 CAVOK 14/M08 Q1021",
      "taf": "TAF EPKK 271130Z 2712/2812 29012KT CAVOK"
    },
    {
      "icao": "EPKT",
      "alert": "OK",
      "vis_m": 9999,
      "fzfg": false,
      "metar_trigger": false,
      "taf_trigger": false,
      "metar": "METAR EPKT 271200Z 33010KT 280V350 CAVOK 13/M06 Q1022",
      "taf": "TAF EPKT 271130Z 2712/2812 31012KT CAVOK"
    },
    {
      "icao": "EPLB",
      "alert": "OK",
      "vis_m": 9999,
      "fzfg": false,
      "metar_trigger": false,
      "taf_trigger": false,
      "metar": "METAR EPLB 271200Z 32014KT CAVOK 13/M08 Q1019",
      "taf": "TAF EPLB 271130Z 2712/2812 29015KT CAVOK"
    },
    {
      "icao": "EPMO",
      "alert": "OK",
      "vis_m": 9999,
      "fzfg": false,
      "metar_trigger": false,
      "taf_trigger": false,
      "metar": "METAR EPMO 271200Z 31014KT CAVOK 13/M06 Q1021",
      "taf": "TAF EPMO 271130Z 2712/2812 30013KT CAVOK"
    },
    {
      "icao": "EPPO",
      "alert": "OK",
      "vis_m": 9999,
      "fzfg": false,
      "metar_trigger": false,
      "taf_trigger": false,
      "metar": "METAR EPPO 271200Z 29010KT 270V340 CAVOK 14/M03 Q1023",
      "taf": "TAF EPPO 271130Z 2712/2812 33010KT CAVOK"
    },
    {
      "icao": "EPRA",
      "alert": "OK",
      "vis_m": 9999,
      "fzfg": false,
      "metar_trigger": false,
      "taf_trigger": false,
      "metar": "METAR EPRA 271200Z 31013KT CAVOK 13/M09 Q1021",
      "taf": "TAF EPRA 271130Z 2712/2721 30012KT CAVOK"
    },
    {
      "icao": "EPRZ",
      "alert": "OK",
      "vis_m": 9999,
      "fzfg": false,
      "metar_trigger": false,
      "taf_trigger": false,
      "metar": "METAR EPRZ 271200Z 27016KT CAVOK 14/M07 Q1020",
      "taf": "TAF EPRZ 271130Z 2712/2812 27014KT CAVOK"
    },
    {
      "icao": "EPSC",
      "alert": "OK",
      "vis_m": 9999,
      "fzfg": false,
      "metar_trigger": false,
      "taf_trigger": false,
      "metar": "METAR EPSC 271200Z 29010KT 260V340 CAVOK 15/M02 Q1023",
      "taf": "TAF EPSC 271130Z 2712/2812 29008KT CAVOK"
    },
    {
      "icao": "EPSY",
      "alert": "OK",
      "vis_m": 9999,
      "fzfg": false,
      "metar_trigger": false,
      "taf_trigger": false,
      "metar": "METAR EPSY 271200Z 33014KT 290V010 CAVOK 10/M06 Q1020",
      "taf": "TAF EPSY 271130Z 2712/2721 32010KT CAVOK"
    },
    {
      "icao": "EPWA",
      "alert": "OK",
      "vis_m": 9999,
      "fzfg": false,
      "metar_trigger": false,
      "taf_trigger": false,
      "metar": "METAR EPWA 271200Z 30015KT 270V330 CAVOK 13/M07 Q1020 NOSIG",
      "taf": "TAF EPWA 271130Z 2712/2812 31012KT CAVOK"
    },
    {
      "icao": "EPWR",
      "alert": "OK",
      "vis_m": 9999,
      "fzfg": false,
      "metar_trigger": false,
      "taf_trigger": false,
      "metar": "METAR EPWR 271200Z VRB05KT CAVOK 15/M07 Q1023",
      "taf": "TAF EPWR 271130Z 2712/2812 33010KT CAVOK"
    },
    {
      "icao": "ESGG",
      "alert": "OK",
      "vis_m": 9999,
      "fzfg": false,
      "metar_trigger": false,
      "taf_trigger": false,
      "metar": "METAR ESGG 271150Z 34009KT 290V010 CAVOK 09/M06 Q1025",
      "taf": "TAF ESGG 271130Z 2712/2812 01009KT CAVOK"
    },
    {
      "icao": "ESKN",
      "alert": "OK",
      "vis_m": 9999,
      "fzfg": false,
      "metar_trigger": false,
      "taf_trigger": false,
      "metar": "METAR ESKN 271150Z 34010G21KT 290V030 CAVOK 09/M07 Q1023",
      "taf": "TAF ESKN 271130Z 2712/2812 34012KT CAVOK"
    },
    {
      "icao": "ESMS",
      "alert": "OK",
      "vis_m": 9999,
      "fzfg": false,
      "metar_trigger": false,
      "taf_trigger": false,
      "metar": "METAR ESMS 271150Z 34006KT 310V040 CAVOK 13/M04 Q1024",
      "taf": "TAF ESMS 271127Z 2712/2812 36008KT CAVOK"
    },
    {
      "icao": "ESSA",
      "alert": "OK",
      "vis_m": 9999,
      "fzfg": false,
      "metar_trigger": false,
      "taf_trigger": false,
      "metar": "METAR ESSA 271150Z 33014KT CAVOK 07/M07 Q1022 NOSIG",
      "taf": "TAF ESSA 271130Z 2712/2812 34014KT 9999 FEW040"
    },
    {
      "icao": "EYKA",
      "alert": "OK",
      "vis_m": 9999,
      "fzfg": false,
      "metar_trigger": false,
      "taf_trigger": false,
      "metar": "METAR EYKA 271150Z 33008KT 280V070 9999 VCSH SCT052CB 09/M06 Q1016",
      "taf": "TAF EYKA 271100Z 2712/2812 33013KT 9000 NSC"
    },
    {
      "icao": "EYPA",
      "alert": "OK",
      "vis_m": 9999,
      "fzfg": false,
      "metar_trigger": false,
      "taf_trigger": false,
      "metar": "METAR EYPA 271150Z 34008G18KT 300V070 CAVOK 07/01 Q1021",
      "taf": "TAF EYPA 271100Z 2712/2812 34010KT 9000 NSC"
    },
    {
      "icao": "EYVI",
      "alert": "OK",
      "vis_m": 9999,
      "fzfg": false,
      "metar_trigger": false,
      "taf_trigger": false,
      "metar": "METAR EYVI 271150Z 30013KT 9999 VCSH FEW033CB 08/M05 Q1014 NOSIG",
      "taf": "TAF EYVI 271100Z 2712/2812 32015G25KT 9000 NSC"
    },
    {
      "icao": "GCFV",
      "alert": "OK",
      "vis_m": 9999,
      "fzfg": false,
      "metar_trigger": false,
      "taf_trigger": false,
      "metar": "METAR GCFV 271200Z 34013KT 9999 SCT022 BKN038 21/14 Q1015",
      "taf": "TAF GCFV 270800Z 2709/2809 36012KT 9999 FEW025 BKN035 TX23/2714Z TN17/2806Z"
    },
    {
      "icao": "GCLP",
      "alert": "OK",
      "vis_m": 9999,
      "fzfg": false,
      "metar_trigger": false,
      "taf_trigger": false,
      "metar": "METAR GCLP 271200Z 36015KT 330V030 9999 SCT032 23/14 Q1015 NOSIG",
      "taf": "TAF GCLP 270800Z 2709/2809 35018KT 9999 FEW027 TX24/2714Z TN17/2806Z"
    },
    {
      "icao": "GCTS",
      "alert": "OK",
      "vis_m": 9999,
      "fzfg": false,
      "metar_trigger": false,
      "taf_trigger": false,
      "metar": "METAR GCTS 271200Z 19006KT 120V270 9999 FEW050 22/13 Q1016 NOSIG",
      "taf": "TAF GCTS 270800Z 2709/2809 18010KT 9999 FEW035 BKN040 TX23/2714Z TN16/2806Z"
    },
    {
      "icao": "GMAD",
      "alert": "OK",
      "vis_m": 8000,
      "fzfg": false,
      "metar_trigger": false,
      "taf_trigger": false,
      "metar": "METAR GMAD 271200Z 24006KT 210V300 8000 BKN026 26/15 Q1009 NOSIG",
      "taf": "TAF GMAD 271100Z 2712/2818 26012KT 8000 SCT016 BKN080"
    },
    {
      "icao": "GMMN",
      "alert": "OK",
      "vis_m": 9999,
      "fzfg": false,
      "metar_trigger": false,
      "taf_trigger": false,
      "metar": "METAR GMMN 271200Z 31008KT 270V350 CAVOK 26/19 Q1008 NOSIG",
      "taf": "TAF GMMN 271100Z 2712/2818 30010KT CAVOK"
    },
    {
      "icao": "GMMX",
      "alert": "OK",
      "vis_m": 9999,
      "fzfg": false,
      "metar_trigger": false,
      "taf_trigger": false,
      "metar": "METAR GMMX 271200Z 27008KT 200V350 CAVOK 25/17 Q1009 NOSIG",
      "taf": "TAF GMMX 271100Z 2712/2818 06006KT 8000 SCT026"
    },
    {
      "icao": "HEGN",
      "alert": "OK",
      "vis_m": 9999,
      "fzfg": false,
      "metar_trigger": false,
      "taf_trigger": false,
      "metar": "METAR HEGN 271100Z 36015KT CAVOK 27/09 Q1010 NOSIG",
      "taf": "TAF HEGN 271100Z 2712/2818 34012G24KT CAVOK"
    },
    {
      "icao": "HEMA",
      "alert": "OK",
      "vis_m": 9999,
      "fzfg": false,
      "metar_trigger": false,
      "taf_trigger": false,
      "metar": "METAR HEMA 271100Z 03012KT CAVOK 28/09 Q1010 NOSIG",
      "taf": "TAF HEMA 271100Z 2712/2818 02013G26KT CAVOK"
    },
    {
      "icao": "HESH",
      "alert": "OK",
      "vis_m": 9999,
      "fzfg": false,
      "metar_trigger": false,
      "taf_trigger": false,
      "metar": "METAR HESH 271100Z 02010KT CAVOK 27/10 Q1010 NOSIG",
      "taf": "TAF HESH 271100Z 2712/2818 04013KT CAVOK"
    },
    {
      "icao": "HESX",
      "alert": "OK",
      "vis_m": 9999,
      "fzfg": false,
      "metar_trigger": false,
      "taf_trigger": false,
      "metar": "METAR HESX 271100Z 30012KT 9999 SCT020 23/09 Q1013 NOSIG",
      "taf": "TAF HESX 271100Z 2712/2818 32012KT 9999 SCT020"
    },
    {
      "icao": "LATI",
      "alert": "OK",
      "vis_m": 9999,
      "fzfg": false,
      "metar_trigger": false,
      "taf_trigger": false,
      "metar": "METAR LATI 271150Z 34006KT 310V030 CAVOK 27/09 Q1017 NOSIG",
      "taf": "TAF LATI 271100Z 2712/2812 32010KT CAVOK TX27/2712Z TN10/2804Z"
    },
    {
      "icao": "LBPD",
      "alert": "OK",
      "vis_m": 9999,
      "fzfg": false,
      "metar_trigger": false,
      "taf_trigger": false,
      "metar": "METAR LBPD 271200Z AUTO VRB04KT 9999 NCD 17/05 Q1022 NOSIG",
      "taf": "TAF LBPD 271100Z 2712/2812 13010KT 9999 SCT060"
    },
    {
      "icao": "LBSF",
      "alert": "OK",
      "vis_m": 9999,
      "fzfg": false,
      "metar_trigger": false,
      "taf_trigger": false,
      "metar": "METAR LBSF 271200Z 10008KT 040V140 CAVOK 17/03 Q1021 NOSIG",
      "taf": "TAF LBSF 271100Z 2712/2812 11010KT CAVOK"
    },
    {
      "icao": "LBWN",
      "alert": "OK",
      "vis_m": 9999,
      "fzfg": false,
      "metar_trigger": false,
      "taf_trigger": false,
      "metar": "METAR LBWN 271200Z 12012KT 090V150 CAVOK 13/M02 Q1024 NOSIG",
      "taf": "TAF LBWN 271100Z 2712/2812 12014KT CAVOK"
    },
    {
      "icao": "LCLK",
      "alert": "OK",
      "vis_m": 9999,
      "fzfg": false,
      "metar_trigger": false,
      "taf_trigger": false,
      "metar": "METAR LCLK 271200Z 19009KT 150V220 9999 FEW025 24/16 Q1012 NOSIG",
      "taf": "TAF LCLK 271130Z 2712/2812 19014KT 9999 SCT015"
    },
    {
      "icao": "LCPH",
      "alert": "OK",
      "vis_m": 9999,
      "fzfg": false,
      "metar_trigger": false,
      "taf_trigger": false,
      "metar": "METAR LCPH 271200Z 27007KT 240V320 9999 FEW030 22/16 Q1013 NOSIG",
      "taf": "TAF LCPH 271130Z 2712/2812 22012KT 9999 FEW010 SCT015"
    },
    {
      "icao": "LEAL",
      "alert": "OK",
      "vis_m": 9999,
      "fzfg": false,
      "metar_trigger": false,
      "taf_trigger": false,
      "metar": "METAR LEAL 271200Z 09011KT 9999 FEW020 21/13 Q1018 NOSIG",
      "taf": "TAF LEAL 271100Z 2712/2812 08012KT 9999 FEW030 TX22/2712Z TN12/2806Z"
    },
    {
      "icao": "LEBB",
      "alert": "OK",
      "vis_m": 9999,
      "fzfg": false,
      "metar_trigger": false,
      "taf_trigger": false,
      "metar": "METAR LEBB 271200Z 02006KT 350V060 9999 FEW013 BKN016 17/14 Q1019 NOSIG",
      "taf": "TAF LEBB 271100Z 2712/2812 04008KT 9999 SCT010 BKN020 TX21/2715Z TN12/2803Z"
    },
    {
      "icao": "LEBL",
      "alert": "OK",
      "vis_m": 9999,
      "fzfg": false,
      "metar_trigger": false,
      "taf_trigger": false,
      "metar": "METAR LEBL 271200Z 15005KT 100V200 CAVOK 21/15 Q1018 NOSIG",
      "taf": "TAF LEBL 271100Z 2712/2812 16009KT 9999 FEW025 TX22/2712Z TN13/2805Z"
    },
    {
      "icao": "LECH",
      "alert": "OK",
      "vis_m": 9999,
      "fzfg": false,
      "metar_trigger": false,
      "taf_trigger": false,
      "metar": "METAR LECH 271200Z AUTO 13008KT 080V170 CAVOK 22/M02 Q1019",
      "taf": "TAF LECH 271100Z 2712/2812 13010KT 9999 FEW030 TX25/2713Z TN08/2806Z"
    },
    {
      "icao": "LEMD",
      "alert": "OK",
      "vis_m": 9999,
      "fzfg": false,
      "metar_trigger": false,
      "taf_trigger": false,
      "metar": "METAR LEMD 271200Z 36002KT CAVOK 24/06 Q1017 NOSIG",
      "taf": "TAF LEMD 271100Z 2712/2818 VRB04KT CAVOK TX28/2715Z TN11/2806Z"
    },
    {
      "icao": "LEMG",
      "alert": "OK",
      "vis_m": 9999,
      "fzfg": false,
      "metar_trigger": false,
      "taf_trigger": false,
      "metar": "METAR LEMG 271200Z 13010KT 100V160 9999 SCT025 19/14 Q1016 NOSIG",
      "taf": "TAF LEMG 271100Z 2712/2812 13010KT 9999 SCT018 SCT030 TX23/2715Z TN15/2806Z"
    },
    {
      "icao": "LEVC",
      "alert": "OK",
      "vis_m": 9999,
      "fzfg": false,
      "metar_trigger": false,
      "taf_trigger": false,
      "metar": "METAR LEVC 271200Z 12010KT 080V170 CAVOK 23/03 Q1018 NOSIG",
      "taf": "TAF LEVC 271100Z 2712/2812 11012KT 9999 FEW030 TX24/2712Z TN11/2806Z"
    },
    {
      "icao": "LEXJ",
      "alert": "OK",
      "vis_m": 8000,
      "fzfg": false,
      "metar_trigger": false,
      "taf_trigger": false,
      "metar": "METAR LEXJ 271200Z 06004KT 330V140 8000 BKN016 OVC023 15/13 Q1019",
      "taf": "TAF LEXJ 270800Z 2709/2809 06009KT 9999 SCT016 TX17/2713Z TN13/2807Z"
    },
    {
      "icao": "LEZG",
      "alert": "OK",
      "vis_m": 9999,
      "fzfg": false,
      "metar_trigger": false,
      "taf_trigger": false,
      "metar": "METAR LEZG 271200Z 08006KT 030V150 CAVOK 25/05 Q1017 NOSIG",
      "taf": "TAF LEZG 271100Z 2712/2812 10008KT 9999 FEW050 TX29/2714Z TN13/2806Z"
    },
    {
      "icao": "LEZL",
      "alert": "OK",
      "vis_m": 9999,
      "fzfg": false,
      "metar_trigger": false,
      "taf_trigger": false,
      "metar": "METAR LEZL 271200Z 09013KT 060V140 CAVOK 27/13 Q1012 NOSIG",
      "taf": "TAF LEZL 270800Z 2709/2809 07008KT CAVOK TX29/2715Z TN15/2806Z"
    },
    {
      "icao": "LFBD",
      "alert": "OK",
      "vis_m": 9999,
      "fzfg": false,
      "metar_trigger": false,
      "taf_trigger": false,
      "metar": "METAR LFBD 271200Z AUTO 04007KT 350V080 CAVOK 25/06 Q1018 NOSIG",
      "taf": "TAF LFBD 271100Z 2712/2818 01005KT CAVOK TX27/2715Z TN14/2804Z"
    },
    {
      "icao": "LFLL",
      "alert": "OK",
      "vis_m": 9999,
      "fzfg": false,
      "metar_trigger": false,
      "taf_trigger": false,
      "metar": "METAR LFLL 271200Z VRB03KT CAVOK 22/06 Q1018 NOSIG",
      "taf": "TAF LFLL 271100Z 2712/2818 36005KT CAVOK"
    },
    {
      "icao": "LFLS",
      "alert": "OK",
      "vis_m": 9999,
      "fzfg": false,
      "metar_trigger": false,
      "taf_trigger": false,
      "metar": "METAR LFLS 271200Z AUTO 01004KT 290V090 CAVOK 23/06 Q1018 NOSIG",
      "taf": "TAF LFLS 270800Z 2709/2809 09005KT CAVOK"
    },
    {
      "icao": "LFMN",
      "alert": "OK",
      "vis_m": 9999,
      "fzfg": false,
      "metar_trigger": false,
      "taf_trigger": false,
      "metar": "METAR LFMN 271200Z 16006KT 9999 FEW020 19/14 Q1019 NOSIG",
      "taf": "TAF LFMN 270800Z 2709/2815 15010KT CAVOK"
    },
    {
      "icao": "LFOB",
      "alert": "OK",
      "vis_m": 9999,
      "fzfg": false,
      "metar_trigger": false,
      "taf_trigger": false,
      "metar": "METAR LFOB 271200Z AUTO 02008KT 340V060 CAVOK 19/05 Q1022 NOSIG",
      "taf": "TAF LFOB 271100Z 2712/2812 04010KT CAVOK"
    },
    {
      "icao": "LFPO",
      "alert": "OK",
      "vis_m": 9999,
      "fzfg": false,
      "metar_trigger": false,
      "taf_trigger": false,
      "metar": "METAR LFPO 271200Z 03005KT 350V070 CAVOK 20/05 Q1021 NOSIG",
      "taf": "TAF LFPO 271100Z 2712/2818 02005KT CAVOK"
    },
    {
      "icao": "LFSB",
      "alert": "OK",
      "vis_m": 9999,
      "fzfg": false,
      "metar_trigger": false,
      "taf_trigger": false,
      "metar": "METAR LFSB 271200Z AUTO 02007KT 340V050 CAVOK 22/04 Q1019 NOSIG",
      "taf": "TAF LFSB 271100Z 2712/2812 36005KT CAVOK"
    },
    {
      "icao": "LGAV",
      "alert": "OK",
      "vis_m": 9999,
      "fzfg": false,
      "metar_trigger": false,
      "taf_trigger": false,
      "metar": "METAR LGAV 271150Z 03020KT 9999 FEW018 21/11 Q1018 NOSIG",
      "taf": "TAF LGAV 271100Z 2712/2812 05020KT CAVOK"
    },
    {
      "icao": "LGTS",
      "alert": "OK",
      "vis_m": 9999,
      "fzfg": false,
      "metar_trigger": false,
      "taf_trigger": false,
      "metar": "METAR LGTS 271150Z 17010KT 9999 FEW030 21/08 Q1021 NOSIG",
      "taf": "TAF LGTS 271100Z 2712/2812 17013KT 9999 FEW030"
    },
    {
      "icao": "LHBP",
      "alert": "OK",
      "vis_m": 9999,
      "fzfg": false,
      "metar_trigger": false,
      "taf_trigger": false,
      "metar": "METAR LHBP 271200Z VRB05KT CAVOK 17/M05 Q1022 NOSIG",
      "taf": "TAF LHBP 271115Z 2712/2812 VRB03KT CAVOK"
    },
    {
      "icao": "LHDC",
      "alert": "OK",
      "vis_m": 9999,
      "fzfg": false,
      "metar_trigger": false,
      "taf_trigger": false,
      "metar": "METAR LHDC 271145Z AUTO 26006KT 160V330 CAVOK 16/M06 Q1022 NOSIG",
      "taf": "TAF LHDC 271115Z 2712/2721 VRB03KT CAVOK"
    },
    {
      "icao": "LIBD",
      "alert": "OK",
      "vis_m": 9999,
      "fzfg": false,
      "metar_trigger": false,
      "taf_trigger": false,
      "metar": "METAR LIBD 271150Z 04006KT 360V090 CAVOK 22/10 Q1018",
      "taf": "TAF LIBD 271100Z 2712/2812 02012KT CAVOK"
    },
    {
      "icao": "LIBG",
      "alert": "OK",
      "vis_m": 9999,
      "fzfg": false,
      "metar_trigger": false,
      "taf_trigger": false,
      "metar": "METAR LIBG 271150Z 22008KT CAVOK 26/08 Q1017",
      "taf": "TAF LIBG 271100Z 2712/2721 VRB05KT CAVOK"
    },
    {
      "icao": "LIBP",
      "alert": "OK",
      "vis_m": 9999,
      "fzfg": false,
      "metar_trigger": false,
      "taf_trigger": false,
      "metar": "METAR LIBP 271150Z AUTO 07009KT 9999 NCD 22/13 Q1017",
      "taf": "TAF LIBP 271100Z 2712/2812 06010KT CAVOK"
    },
    {
      "icao": "LIBR",
      "alert": "OK",
      "vis_m": 9999,
      "fzfg": false,
      "metar_trigger": false,
      "taf_trigger": false,
      "metar": "METAR LIBR 271150Z 02009KT CAVOK 19/15 Q1017",
      "taf": "TAF LIBR 271100Z 2712/2812 36010KT CAVOK"
    },
    {
      "icao": "LICA",
      "alert": "OK",
      "vis_m": 9999,
      "fzfg": false,
      "metar_trigger": false,
      "taf_trigger": false,
      "metar": "METAR LICA 271150Z AUTO 25009KT 9999 NCD 21/15 Q1019",
      "taf": "TAF LICA 271100Z 2712/2812 26012KT CAVOK"
    },
    {
      "icao": "LICC",
      "alert": "OK",
      "vis_m": 9999,
      "fzfg": false,
      "metar_trigger": false,
      "taf_trigger": false,
      "metar": "METAR LICC 271150Z 08007KT 9999 FEW040 20/16 Q1018",
      "taf": "TAF LICC 271100Z 2712/2812 09012KT CAVOK"
    },
    {
      "icao": "LICJ",
      "alert": "OK",
      "vis_m": 9999,
      "fzfg": false,
      "metar_trigger": false,
      "taf_trigger": false,
      "metar": "METAR LICJ 271150Z 05014KT CAVOK 21/11 Q1018",
      "taf": "TAF LICJ 271100Z 2712/2812 05014KT CAVOK"
    },
    {
      "icao": "LIMC",
      "alert": "OK",
      "vis_m": 9999,
      "fzfg": false,
      "metar_trigger": false,
      "taf_trigger": false,
      "metar": "METAR LIMC 271150Z VRB04KT CAVOK 24/11 Q1018 NOSIG",
      "taf": "TAF LIMC 271100Z 2712/2818 VRB05KT 9999 FEW060"
    },
    {
      "icao": "LIME",
      "alert": "OK",
      "vis_m": 9999,
      "fzfg": false,
      "metar_trigger": false,
      "taf_trigger": false,
      "metar": "METAR LIME 271150Z 23004KT 160V300 CAVOK 23/11 Q1018 NOSIG",
      "taf": "TAF LIME 271100Z 2712/2812 VRB05KT CAVOK"
    },
    {
      "icao": "LIMF",
      "alert": "OK",
      "vis_m": 9999,
      "fzfg": false,
      "metar_trigger": false,
      "taf_trigger": false,
      "metar": "METAR LIMF 271150Z VRB03KT CAVOK 23/11 Q1017",
      "taf": "TAF LIMF 271100Z 2712/2812 VRB04KT CAVOK"
    },
    {
      "icao": "LIMJ",
      "alert": "OK",
      "vis_m": 9999,
      "fzfg": false,
      "metar_trigger": false,
      "taf_trigger": false,
      "metar": "METAR LIMJ 271150Z 22005KT CAVOK 18/13 Q1019",
      "taf": "TAF LIMJ 271100Z 2712/2812 20010KT 9999 FEW020"
    },
    {
      "icao": "LIPE",
      "alert": "OK",
      "vis_m": 9999,
      "fzfg": false,
      "metar_trigger": false,
      "taf_trigger": false,
      "metar": "METAR LIPE 271150Z 09005KT 020V130 CAVOK 24/13 Q1017",
      "taf": "TAF LIPE 271100Z 2712/2812 VRB05KT CAVOK"
    },
    {
      "icao": "LIPH",
      "alert": "OK",
      "vis_m": 9999,
      "fzfg": false,
      "metar_trigger": false,
      "taf_trigger": false,
      "metar": "METAR LIPH 271150Z VRB04KT CAVOK 24/06 Q1018",
      "taf": "TAF LIPH 271100Z 2712/2812 09010KT CAVOK"
    },
    {
      "icao": "LIPQ",
      "alert": "OK",
      "vis_m": 9999,
      "fzfg": false,
      "metar_trigger": false,
      "taf_trigger": false,
      "metar": "METAR LIPQ 271150Z AUTO VRB03KT 9999 NCD 25/06 Q1017",
      "taf": "TAF LIPQ 271100Z 2712/2812 21010KT CAVOK"
    },
    {
      "icao": "LIPR",
      "alert": "OK",
      "vis_m": 9999,
      "fzfg": false,
      "metar_trigger": false,
      "taf_trigger": false,
      "metar": "METAR LIPR 271150Z 07007KT 040V100 CAVOK 20/15 Q1017",
      "taf": "TAF LIPR 271100Z 2712/2812 VRB05KT CAVOK"
    },
    {
      "icao": "LIPX",
      "alert": "OK",
      "vis_m": 9999,
      "fzfg": false,
      "metar_trigger": false,
      "taf_trigger": false,
      "metar": "METAR LIPX 271150Z 13004KT 080V200 CAVOK 24/08 Q1017",
      "taf": "TAF LIPX 271100Z 2712/2812 11010KT CAVOK"
    },
    {
      "icao": "LIPY",
      "alert": "OK",
      "vis_m": 9999,
      "fzfg": false,
      "metar_trigger": false,
      "taf_trigger": false,
      "metar": "METAR LIPY 271150Z AUTO 04007KT 010V090 9999 NCD 22/09 Q1017",
      "taf": "TAF LIPY 271100Z 2712/2812 06010KT CAVOK"
    },
    {
      "icao": "LIPZ",
      "alert": "OK",
      "vis_m": 9999,
      "fzfg": false,
      "metar_trigger": false,
      "taf_trigger": false,
      "metar": "METAR LIPZ 271150Z 15006KT 130V190 CAVOK 21/12 Q1018 NOSIG",
      "taf": "TAF LIPZ 271100Z 2712/2818 15010KT 9999 FEW040"
    },
    {
      "icao": "LIRF",
      "alert": "OK",
      "vis_m": 9999,
      "fzfg": false,
      "metar_trigger": false,
      "taf_trigger": false,
      "metar": "METAR LIRF 271150Z AUTO 27009KT 240V300 9999 NCD 21/14 Q1019",
      "taf": "TAF LIRF 271100Z 2712/2818 26012KT CAVOK"
    },
    {
      "icao": "LIRN",
      "alert": "OK",
      "vis_m": 9999,
      "fzfg": false,
      "metar_trigger": false,
      "taf_trigger": false,
      "metar": "METAR LIRN 271150Z 18010KT CAVOK 21/13 Q1019 NOSIG",
      "taf": "TAF LIRN 271100Z 2712/2812 26010KT CAVOK"
    },
    {
      "icao": "LIRP",
      "alert": "OK",
      "vis_m": 9999,
      "fzfg": false,
      "metar_trigger": false,
      "taf_trigger": false,
      "metar": "METAR LIRP 271145Z 27006KT 9999 FEW030 22/11 Q1019 NOSIG",
      "taf": "TAF LIRP 271100Z 2712/2812 30007KT CAVOK"
    },
    {
      "icao": "LIRZ",
      "alert": "OK",
      "vis_m": 9999,
      "fzfg": false,
      "metar_trigger": false,
      "taf_trigger": false,
      "metar": "METAR LIRZ 271150Z AUTO 22005KT 170V310 9999 NCD 24/04 Q1018",
      "taf": "TAF LIRZ 271100Z 2712/2812 VRB05KT CAVOK"
    },
    {
      "icao": "LJLJ",
      "alert": "OK",
      "vis_m": 9999,
      "fzfg": false,
      "metar_trigger": false,
      "taf_trigger": false,
      "metar": "METAR LJLJ 271200Z 18005KT 110V210 9999 SCT095 19/02 Q1019 NOSIG",
      "taf": "TAF LJLJ 271100Z 2712/2812 08004KT CAVOK"
    },
    {
      "icao": "LKMT",
      "alert": "OK",
      "vis_m": 9999,
      "fzfg": false,
      "metar_trigger": false,
      "taf_trigger": false,
      "metar": "METAR LKMT 271200Z VRB04KT CAVOK 16/M01 Q1022 NOSIG",
      "taf": "TAF LKMT 271100Z 2712/2812 03004KT CAVOK"
    },
    {
      "icao": "LKPR",
      "alert": "OK",
      "vis_m": 9999,
      "fzfg": false,
      "metar_trigger": false,
      "taf_trigger": false,
      "metar": "METAR LKPR 271200Z VRB03KT CAVOK 14/M01 Q1022 NOSIG",
      "taf": "TAF LKPR 271100Z 2712/2818 04005KT CAVOK"
    },
    {
      "icao": "LLBG",
      "alert": "OK",
      "vis_m": 9999,
      "fzfg": false,
      "metar_trigger": false,
      "taf_trigger": false,
      "metar": "METAR LLBG 271150Z 33012KT 9999 FEW030 23/11 Q1011 NOSIG",
      "taf": "TAF LLBG 271106Z 2712/2812 29010KT 9999 SCT030 TX23/2712Z TN16/2803Z"
    },
    {
      "icao": "LMML",
      "alert": "OK",
      "vis_m": 9999,
      "fzfg": false,
      "metar_trigger": false,
      "taf_trigger": false,
      "metar": "METAR LMML 271145Z 19006KT 150V250 CAVOK 22/11 Q1019 NOSIG",
      "taf": "TAF LMML 271100Z 2712/2812 13009KT CAVOK"
    },
    {
      "icao": "LOWW",
      "alert": "OK",
      "vis_m": 9999,
      "fzfg": false,
      "metar_trigger": false,
      "taf_trigger": false,
      "metar": "METAR LOWW 271150Z 19004KT 120V250 9999 NSC 17/00 Q1022 NOSIG",
      "taf": "TAF LOWW 271115Z 2712/2818 12007KT CAVOK TX19/2813Z TN06/2804Z"
    },
    {
      "icao": "LPFR",
      "alert": "OK",
      "vis_m": 9999,
      "fzfg": false,
      "metar_trigger": false,
      "taf_trigger": false,
      "metar": "METAR LPFR 271200Z 12010KT CAVOK 21/13 Q1013",
      "taf": "TAF LPFR 271100Z 2712/2812 12013KT CAVOK"
    },
    {
      "icao": "LPMA",
      "alert": "OK",
      "vis_m": 9999,
      "fzfg": false,
      "metar_trigger": false,
      "taf_trigger": false,
      "metar": "METAR LPMA 271200Z VRB03KT 9999 FEW015 20/13 Q1018",
      "taf": "TAF LPMA 271100Z 2712/2812 VRB05KT 9999 SCT015"
    },
    {
      "icao": "LPPR",
      "alert": "OK",
      "vis_m": 9999,
      "fzfg": false,
      "metar_trigger": false,
      "taf_trigger": false,
      "metar": "METAR LPPR 271200Z 29006KT 250V320 CAVOK 22/15 Q1014",
      "taf": "TAF LPPR 271100Z 2712/2812 30008KT CAVOK"
    },
    {
      "icao": "LPPS",
      "alert": "OK",
      "vis_m": 9999,
      "fzfg": false,
      "metar_trigger": false,
      "taf_trigger": false,
      "metar": "METAR LPPS 271200Z 36012KT 9999 FEW015 BKN030 18/11 Q1018",
      "taf": "TAF LPPS 271100Z 2712/2818 36013KT 9999 FEW015 BKN030"
    },
    {
      "icao": "LPPT",
      "alert": "OK",
      "vis_m": 9999,
      "fzfg": false,
      "metar_trigger": false,
      "taf_trigger": false,
      "metar": "METAR LPPT 271200Z VRB04KT CAVOK 26/13 Q1013",
      "taf": "TAF LPPT 271100Z 2712/2818 10005KT CAVOK"
    },
    {
      "icao": "LQBK",
      "alert": "OK",
      "vis_m": 9999,
      "fzfg": false,
      "metar_trigger": false,
      "taf_trigger": false,
      "metar": "METAR LQBK 271200Z VRB04KT CAVOK 20/03 Q1020 NOSIG",
      "taf": "TAF LQBK 271100Z 2712/2812 33005KT CAVOK TX21/2812Z TN05/2804Z"
    },
    {
      "icao": "LQSA",
      "alert": "OK",
      "vis_m": 9999,
      "fzfg": false,
      "metar_trigger": false,
      "taf_trigger": false,
      "metar": "METAR LQSA 271200Z 32005KT 230V040 9999 SCT060 22/01 Q1018 NOSIG",
      "taf": "TAF LQSA 271100Z 2712/2812 VRB02KT CAVOK TX25/2712Z TN06/2804Z"
    },
    {
      "icao": "LQTZ",
      "alert": "OK",
      "vis_m": 9999,
      "fzfg": false,
      "metar_trigger": false,
      "taf_trigger": false,
      "metar": "METAR LQTZ 271200Z 13007KT 090V180 CAVOK 21/03 Q1019",
      "taf": "TAF LQTZ 271100Z 2712/2812 03005KT CAVOK TX21/2713Z TN02/2804Z"
    },
    {
      "icao": "LRBC",
      "alert": "OK",
      "vis_m": 9999,
      "fzfg": false,
      "metar_trigger": false,
      "taf_trigger": false,
      "metar": "METAR LRBC 271200Z 16012KT CAVOK 14/M02 Q1020",
      "taf": "TAF LRBC 271100Z 2712/2721 15012KT CAVOK"
    },
    {
      "icao": "LRBS",
      "alert": "OK",
      "vis_m": 9999,
      "fzfg": false,
      "metar_trigger": false,
      "taf_trigger": false,
      "metar": "METAR LRBS 271200Z VRB03KT CAVOK 16/M03 Q1023 NOSIG",
      "taf": "TAF LRBS 271100Z 2712/2812 VRB04KT CAVOK"
    },
    {
      "icao": "LRBV",
      "alert": "OK",
      "vis_m": 9999,
      "fzfg": false,
      "metar_trigger": false,
      "taf_trigger": false,
      "metar": "METAR LRBV 271200Z 32006KT 270V010 CAVOK 13/M04 Q1021",
      "taf": "TAF LRBV 271100Z 2712/2721 VRB04KT CAVOK"
    },
    {
      "icao": "LRCL",
      "alert": "OK",
      "vis_m": 9999,
      "fzfg": false,
      "metar_trigger": false,
      "taf_trigger": false,
      "metar": "METAR LRCL 271200Z VRB05KT CAVOK 15/M06 Q1021",
      "taf": "TAF LRCL 271100Z 2712/2721 VRB04KT CAVOK"
    },
    {
      "icao": "LRCV",
      "alert": "OK",
      "vis_m": 9999,
      "fzfg": false,
      "metar_trigger": false,
      "taf_trigger": false,
      "metar": "METAR LRCV 271200Z 17005KT 130V220 CAVOK 16/M01 Q1023",
      "taf": "TAF LRCV 271100Z 2712/2721 12005KT CAVOK"
    },
    {
      "icao": "LRIA",
      "alert": "OK",
      "vis_m": 9999,
      "fzfg": false,
      "metar_trigger": false,
      "taf_trigger": false,
      "metar": "METAR LRIA 271200Z VRB04KT CAVOK 14/M07 Q1021",
      "taf": "TAF LRIA 271100Z 2712/2721 VRB04KT CAVOK"
    },
    {
      "icao": "LROP",
      "alert": "OK",
      "vis_m": 9999,
      "fzfg": false,
      "metar_trigger": false,
      "taf_trigger": false,
      "metar": "METAR LROP 271200Z 15009KT 140V200 CAVOK 17/M03 Q1023 NOSIG",
      "taf": "TAF LROP 271100Z 2712/2812 VRB04KT CAVOK"
    },
    {
      "icao": "LRSB",
      "alert": "OK",
      "vis_m": 9999,
      "fzfg": false,
      "metar_trigger": false,
      "taf_trigger": false,
      "metar": "METAR LRSB 271200Z COR 33006KT 290V020 CAVOK 16/M02 Q1021",
      "taf": "TAF LRSB 271100Z 2712/2812 VRB04KT CAVOK"
    },
    {
      "icao": "LRSM",
      "alert": "OK",
      "vis_m": 9999,
      "fzfg": false,
      "metar_trigger": false,
      "taf_trigger": false,
      "metar": "METAR LRSM 271200Z 30007KT CAVOK 16/M06 Q1022",
      "taf": "TAF LRSM 271100Z 2712/2721 VRB04KT CAVOK"
    },
    {
      "icao": "LRSV",
      "alert": "OK",
      "vis_m": 9999,
      "fzfg": false,
      "metar_trigger": false,
      "taf_trigger": false,
      "metar": "METAR LRSV 271200Z 36009KT 320V040 CAVOK 12/M10 Q1019",
      "taf": "TAF LRSV 271100Z 2712/2721 VRB04KT CAVOK"
    },
    {
      "icao": "LRTM",
      "alert": "OK",
      "vis_m": 9999,
      "fzfg": false,
      "metar_trigger": false,
      "taf_trigger": false,
      "metar": "METAR LRTM 271200Z 26006KT 220V290 CAVOK 15/M05 Q1021",
      "taf": "TAF LRTM 271100Z 2712/2721 VRB04KT CAVOK"
    },
    {
      "icao": "LRTR",
      "alert": "OK",
      "vis_m": 9999,
      "fzfg": false,
      "metar_trigger": false,
      "taf_trigger": false,
      "metar": "METAR LRTR 271200Z VRB04KT CAVOK 18/00 Q1021 NOSIG",
      "taf": "TAF LRTR 271100Z 2712/2812 VRB04KT CAVOK"
    },
    {
      "icao": "LTAC",
      "alert": "OK",
      "vis_m": 9999,
      "fzfg": false,
      "metar_trigger": false,
      "taf_trigger": false,
      "metar": "METAR LTAC 271150Z 01003KT 9999 SCT040 19/02 Q1017 NOSIG RMK RWY21C 02007KT 300V070 RWY03L 04003KT 310V100 RWY21R 04008KT 360V060 RWY03R VRB03KT RWY21L 04009KT 340V070",
      "taf": "TAF LTAC 271040Z 2712/2812 VRB02KT 9999 SCT040"
    },
    {
      "icao": "LTFM",
      "alert": "OK",
      "vis_m": 9999,
      "fzfg": false,
      "metar_trigger": false,
      "taf_trigger": false,
      "metar": "METAR LTFM 271150Z 06020KT CAVOK 13/02 Q1024 NOSIG RMK RWY17L 05020KT RWY34L 06016KT 010V080 RWY16R 05020KT RWY36 06020KT RWY18 06019KT",
      "taf": "TAF LTFM 271040Z 2712/2818 06020G30KT CAVOK"
    },
    {
      "icao": "LUKK",
      "alert": "OK",
      "vis_m": 9999,
      "fzfg": false,
      "metar_trigger": false,
      "taf_trigger": false,
      "metar": "METAR LUKK 271200Z 32010KT 280V360 CAVOK 13/M09 Q1021 NOSIG",
      "taf": "TAF LUKK 271103Z 2712/2812 33012KT CAVOK"
    },
    {
      "icao": "LWOH",
      "alert": "OK",
      "vis_m": 9999,
      "fzfg": false,
      "metar_trigger": false,
      "taf_trigger": false,
      "metar": "METAR LWOH 271150Z 14007KT 9999 FEW035 SCT090 18/06 Q1019",
      "taf": "TAF LWOH 271120Z 2712/2812 16006KT 9999 SCT040"
    },
    {
      "icao": "LWSK",
      "alert": "OK",
      "vis_m": 9999,
      "fzfg": false,
      "metar_trigger": false,
      "taf_trigger": false,
      "metar": "METAR LWSK 271150Z VRB03KT CAVOK 23/04 Q1019 NOSIG",
      "taf": "TAF LWSK 271120Z 2712/2812 VRB02KT CAVOK"
    },
    {
      "icao": "LYBE",
      "alert": "OK",
      "vis_m": 9999,
      "fzfg": false,
      "metar_trigger": false,
      "taf_trigger": false,
      "metar": "METAR LYBE 271200Z 11006KT 060V170 CAVOK 19/02 Q1021 NOSIG",
      "taf": "TAF LYBE 271100Z 2712/2812 10006KT CAVOK TX20/2713Z TN06/2805Z"
    },
    {
      "icao": "LYNI",
      "alert": "OK",
      "vis_m": 9999,
      "fzfg": false,
      "metar_trigger": false,
      "taf_trigger": false,
      "metar": "METAR LYNI 271200Z VRB03KT CAVOK 20/01 Q1020 NOSIG",
      "taf": "TAF LYNI 271100Z 2712/2812 02006KT CAVOK TX24/2713Z TN04/2804Z"
    },
    {
      "icao": "LYPG",
      "alert": "OK",
      "vis_m": 9999,
      "fzfg": false,
      "metar_trigger": false,
      "taf_trigger": false,
      "metar": "METAR LYPG 271200Z 19005KT 130V220 9999 FEW050 26/01 Q1017 NOSIG",
      "taf": "TAF LYPG 271100Z 2712/2812 16008KT CAVOK TX26/2713Z TN10/2804Z"
    },
    {
      "icao": "LZIB",
      "alert": "OK",
      "vis_m": 9999,
      "fzfg": false,
      "metar_trigger": false,
      "taf_trigger": false,
      "metar": "METAR LZIB 271200Z VRB04KT CAVOK 17/M00 Q1022 NOSIG",
      "taf": "TAF LZIB 271115Z 2712/2812 05006KT CAVOK"
    },
    {
      "icao": "LZKZ",
      "alert": "OK",
      "vis_m": 9999,
      "fzfg": false,
      "metar_trigger": false,
      "taf_trigger": false,
      "metar": "METAR LZKZ 271200Z 22008KT 190V270 CAVOK 15/M03 Q1021 NOSIG",
      "taf": "TAF LZKZ 271115Z 2712/2812 21007KT CAVOK"
    },
    {
      "icao": "LZTT",
      "alert": "OK",
      "vis_m": 9999,
      "fzfg": false,
      "metar_trigger": false,
      "taf_trigger": false,
      "metar": "METAR LZTT 271200Z 25006KT 190V300 9999 FEW033 13/M06 Q1020 NOSIG",
      "taf": "TAF LZTT 271115Z 2712/2812 27008KT CAVOK"
    },
    {
      "icao": "OEJN",
      "alert": "OK",
      "vis_m": 9999,
      "fzfg": false,
      "metar_trigger": false,
      "taf_trigger": false,
      "metar": "METAR OEJN 271200Z 31014KT 9999 SCT040 35/11 Q1007 NOSIG",
      "taf": "TAF OEJN 271100Z 2712/2818 32015KT 9999 SCT040"
    },
    {
      "icao": "OEMA",
      "alert": "OK",
      "vis_m": 9999,
      "fzfg": false,
      "metar_trigger": false,
      "taf_trigger": false,
      "metar": "METAR OEMA 271200Z 25009KT CAVOK 36/M08 Q1009 NOSIG",
      "taf": "TAF OEMA 271100Z 2712/2818 27015KT 7000 NSC"
    },
    {
      "icao": "OJAI",
      "alert": "OK",
      "vis_m": 4000,
      "fzfg": false,
      "metar_trigger": false,
      "taf_trigger": false,
      "metar": "METAR OJAI 271200Z 28016KT 4000 BLDU FEW030 SCT030 20/07 Q1012 NOSIG",
      "taf": "TAF OJAI 271100Z 2712/2818 29012KT 4000 DU SCT035"
    },
    {
      "icao": "OMAA",
      "alert": "OK",
      "vis_m": 9999,
      "fzfg": false,
      "metar_trigger": false,
      "taf_trigger": false,
      "metar": "METAR OMAA 271200Z 31011KT CAVOK 37/12 Q1005 NOSIG",
      "taf": "TAF OMAA 271100Z 2712/2818 30010KT CAVOK"
    },
    {
      "icao": "OMDB",
      "alert": "OK",
      "vis_m": 9999,
      "fzfg": false,
      "metar_trigger": false,
      "taf_trigger": false,
      "metar": "METAR OMDB 271200Z 28011KT 250V310 CAVOK 36/15 Q1005 NOSIG",
      "taf": "TAF OMDB 271100Z 2712/2818 28014KT CAVOK"
    },
    {
      "icao": "UAAA",
      "alert": "OK",
      "vis_m": 9999,
      "fzfg": false,
      "metar_trigger": false,
      "taf_trigger": false,
      "metar": "METAR UAAA 271200Z 36002MPS 9999 SCT050CB OVC100 21/11 Q1016 NOSIG",
      "taf": "TAF UAAA 271101Z 2712/2812 17003MPS 9999 BKN040CB OVC100 TX25/2809Z TN14/2801Z"
    },
    {
      "icao": "UBBB",
      "alert": "OK",
      "vis_m": 9999,
      "fzfg": false,
      "metar_trigger": false,
      "taf_trigger": false,
      "metar": "METAR UBBB 271200Z 32028G38KT 9999 SCT014 14/10 Q1011 NOSIG",
      "taf": "TAF UBBB 271118Z 2712/2812 32024G34KT 9999 SCT012 TX14/2712Z TN11/2801Z"
    },
    {
      "icao": "UDSG",
      "alert": "OK",
      "vis_m": 9999,
      "fzfg": false,
      "metar_trigger": false,
      "taf_trigger": false,
      "metar": "METAR UDSG 271200Z 36011KT 9999 SCT046CB 13/04 Q1016 NOSIG",
      "taf": "TAF UDSG 271100Z 2712/2812 36006KT 9999 SCT040"
    },
    {
      "icao": "UDYZ",
      "alert": "OK",
      "vis_m": 9999,
      "fzfg": false,
      "metar_trigger": false,
      "taf_trigger": false,
      "metar": "METAR UDYZ 271200Z 24004KT 200V300 9999 SCT043CB 21/07 Q1011 NOSIG",
      "taf": "TAF UDYZ 271100Z 2712/2812 24006KT 9999 SCT040"
    },
    {
      "icao": "UGKO",
      "alert": "OK",
      "vis_m": 9999,
      "fzfg": false,
      "metar_trigger": false,
      "taf_trigger": false,
      "metar": "METAR UGKO 271200Z 27016KT 9999 BKN098 16/10 Q1018 NOSIG",
      "taf": "TAF UGKO 271100Z 2712/2812 26010KT 9999 BKN050 TX20/2811Z TN08/2802Z"
    }
  ]
}