{
  "ts_utc": "2026-07-14T15:02:13Z",
  "threshold_m": 150,
  "source": "stations_override.txt (ICAO list) + aviationweather.gov (METAR/TAF raw)",
  "station_count": 159,
  "stations": [
    {
      "icao": "BIKF",
      "alert": "OK",
      "vis_m": 2500,
      "fzfg": false,
      "metar_trigger": false,
      "taf_trigger": false,
      "metar": "METAR BIKF 141430Z 15018KT 2500 DZRA BR OVC003 12/12 Q1018",
      "taf": "TAF BIKF 141355Z 1415/1515 16018KT 4000 RADZ BKN004 OVC010 TX12/1415Z TN10/1503Z"
    },
    {
      "icao": "BKPR",
      "alert": "OK",
      "vis_m": 9999,
      "fzfg": false,
      "metar_trigger": false,
      "taf_trigger": false,
      "metar": "METAR BKPR 141500Z 30004KT 260V350 9999 FEW050 30/12 Q1018 NOSIG",
      "taf": "TAF BKPR 141130Z 1412/1512 34008KT 9999 FEW050"
    },
    {
      "icao": "EBCI",
      "alert": "OK",
      "vis_m": 9999,
      "fzfg": false,
      "metar_trigger": false,
      "taf_trigger": false,
      "metar": "METAR EBCI 141450Z 02011KT CAVOK 31/15 Q1017 NOSIG",
      "taf": "TAF EBCI 141100Z 1412/1518 04010KT CAVOK"
    },
    {
      "icao": "EDDB",
      "alert": "OK",
      "vis_m": 9999,
      "fzfg": false,
      "metar_trigger": false,
      "taf_trigger": false,
      "metar": "METAR EDDB 141450Z AUTO 13004KT 050V190 9999 SCT042 BKN048 23/14 Q1020 NOSIG",
      "taf": "TAF EDDB 141100Z 1412/1512 06010KT 9999 SCT030"
    },
    {
      "icao": "EDDH",
      "alert": "OK",
      "vis_m": 9999,
      "fzfg": false,
      "metar_trigger": false,
      "taf_trigger": false,
      "metar": "METAR EDDH 141450Z AUTO 04010KT 360V080 CAVOK 26/12 Q1021 NOSIG",
      "taf": "TAF EDDH 141100Z 1412/1518 03010KT CAVOK"
    },
    {
      "icao": "EDDK",
      "alert": "OK",
      "vis_m": 9999,
      "fzfg": false,
      "metar_trigger": false,
      "taf_trigger": false,
      "metar": "METAR EDDK 141450Z AUTO 02012KT 330V050 CAVOK 31/12 Q1016 NOSIG",
      "taf": "TAF EDDK 141100Z 1412/1518 04008KT CAVOK"
    },
    {
      "icao": "EDDN",
      "alert": "OK",
      "vis_m": 9999,
      "fzfg": false,
      "metar_trigger": false,
      "taf_trigger": false,
      "metar": "METAR EDDN 141450Z AUTO 04005KT 310V100 9999 SHRA FEW///CB 30/15 Q1015 TEMPO 35020G35KT 4000 TSRA",
      "taf": "TAF EDDN 141100Z 1412/1512 20004KT CAVOK"
    },
    {
      "icao": "EDDS",
      "alert": "OK",
      "vis_m": 9999,
      "fzfg": false,
      "metar_trigger": false,
      "taf_trigger": false,
      "metar": "METAR EDDS 141450Z AUTO VRB03KT CAVOK 32/13 Q1016 NOSIG",
      "taf": "TAF EDDS 141100Z 1412/1512 30008KT CAVOK"
    },
    {
      "icao": "EDFH",
      "alert": "OK",
      "vis_m": 9999,
      "fzfg": false,
      "metar_trigger": false,
      "taf_trigger": false,
      "metar": "METAR EDFH 141450Z 06007KT 030V100 CAVOK 22/17 Q1018",
      "taf": "TAF EDFH 141100Z 1412/1512 05010KT CAVOK"
    },
    {
      "icao": "EDJA",
      "alert": "OK",
      "vis_m": 9999,
      "fzfg": false,
      "metar_trigger": false,
      "taf_trigger": false,
      "metar": "METAR EDJA 141450Z 29006KT 250V340 CAVOK 29/13 Q1018",
      "taf": "TAF EDJA 141400Z 1415/1424 26008KT CAVOK"
    },
    {
      "icao": "EDLW",
      "alert": "OK",
      "vis_m": 9999,
      "fzfg": false,
      "metar_trigger": false,
      "taf_trigger": false,
      "metar": "METAR EDLW 141450Z 06010KT 020V110 CAVOK 29/14 Q1018",
      "taf": "TAF EDLW 141100Z 1412/1512 06009KT CAVOK"
    },
    {
      "icao": "EDNY",
      "alert": "OK",
      "vis_m": 9999,
      "fzfg": false,
      "metar_trigger": false,
      "taf_trigger": false,
      "metar": "METAR EDNY 141420Z 22006KT 170V280 CAVOK 29/17 Q1016",
      "taf": "TAF EDNY 141400Z 1415/1424 24007KT CAVOK"
    },
    {
      "icao": "EDSB",
      "alert": "OK",
      "vis_m": 9999,
      "fzfg": false,
      "metar_trigger": false,
      "taf_trigger": false,
      "metar": "METAR EDSB 141450Z VRB03KT CAVOK 33/14 Q1014",
      "taf": "TAF EDSB 141100Z 1412/1512 33005KT 9999 FEW030"
    },
    {
      "icao": "EETN",
      "alert": "OK",
      "vis_m": 9999,
      "fzfg": false,
      "metar_trigger": false,
      "taf_trigger": false,
      "metar": "METAR EETN 141450Z 34004KT CAVOK 21/14 Q1020 NOSIG",
      "taf": "TAF EETN 141130Z 1412/1512 01010KT 9999 BKN025"
    },
    {
      "icao": "EFTU",
      "alert": "OK",
      "vis_m": 9999,
      "fzfg": false,
      "metar_trigger": false,
      "taf_trigger": false,
      "metar": "METAR EFTU 141450Z AUTO 04005KT 320V080 CAVOK 24/10 Q1020",
      "taf": "TAF EFTU 141428Z 1415/1515 35005KT CAVOK"
    },
    {
      "icao": "EGBB",
      "alert": "OK",
      "vis_m": 9999,
      "fzfg": false,
      "metar_trigger": false,
      "taf_trigger": false,
      "metar": "METAR EGBB 141450Z 07012G22KT 020V110 9999 SCT044 26/14 Q1023",
      "taf": "TAF EGBB 141054Z 1412/1512 04010KT 9999 SCT020"
    },
    {
      "icao": "EGGP",
      "alert": "OK",
      "vis_m": 9999,
      "fzfg": false,
      "metar_trigger": false,
      "taf_trigger": false,
      "metar": "METAR EGGP 141450Z 07008KT 040V110 9999 FEW049 26/12 Q1023",
      "taf": ""
    },
    {
      "icao": "EGGW",
      "alert": "OK",
      "vis_m": 9999,
      "fzfg": false,
      "metar_trigger": false,
      "taf_trigger": false,
      "metar": "METAR EGGW 141450Z AUTO 02012KT 350V060 9999 NCD 25/16 Q1022",
      "taf": "TAF EGGW 141102Z 1412/1512 04012KT 6000 BKN008"
    },
    {
      "icao": "EGKK",
      "alert": "OK",
      "vis_m": 9999,
      "fzfg": false,
      "metar_trigger": false,
      "taf_trigger": false,
      "metar": "METAR EGKK 141450Z 06015KT CAVOK 29/14 Q1019",
      "taf": "TAF EGKK 141055Z 1412/1518 05012KT 9999 FEW035"
    },
    {
      "icao": "EGNM",
      "alert": "OK",
      "vis_m": 9999,
      "fzfg": false,
      "metar_trigger": false,
      "taf_trigger": false,
      "metar": "METAR EGNM 141450Z 05009KT 010V100 9999 FEW036 22/14 Q1025",
      "taf": "TAF EGNM 141057Z 1412/1512 04012KT 9999 FEW035"
    },
    {
      "icao": "EGPD",
      "alert": "OK",
      "vis_m": 9999,
      "fzfg": false,
      "metar_trigger": false,
      "taf_trigger": false,
      "metar": "METAR EGPD 141450Z 10008KT 060V130 9999 SCT015 17/12 Q1029",
      "taf": "TAF EGPD 141102Z 1412/1512 09010KT 9999 OVC009"
    },
    {
      "icao": "EGPF",
      "alert": "OK",
      "vis_m": 9999,
      "fzfg": false,
      "metar_trigger": false,
      "taf_trigger": false,
      "metar": "METAR EGPF 141450Z 08011KT 050V110 CAVOK 21/13 Q1027",
      "taf": "TAF EGPF 141111Z 1412/1512 09008KT 9999 BKN025"
    },
    {
      "icao": "EHBK",
      "alert": "OK",
      "vis_m": 9999,
      "fzfg": false,
      "metar_trigger": false,
      "taf_trigger": false,
      "metar": "METAR EHBK 141455Z AUTO 02012KT 340V070 9999 NCD 31/12 Q1017 NOSIG",
      "taf": "TAF EHBK 141030Z 1412/1518 05010KT CAVOK"
    },
    {
      "icao": "EHEH",
      "alert": "OK",
      "vis_m": 9999,
      "fzfg": false,
      "metar_trigger": false,
      "taf_trigger": false,
      "metar": "METAR EHEH 141455Z AUTO 05012KT 360V060 9999 NCD 30/11 Q1018 BLU TEMPO 05010G20KT",
      "taf": ""
    },
    {
      "icao": "EKBI",
      "alert": "OK",
      "vis_m": 9999,
      "fzfg": false,
      "metar_trigger": false,
      "taf_trigger": false,
      "metar": "METAR EKBI 141450Z AUTO 03009KT 360V090 9999 NCD 27/09 Q1023",
      "taf": "TAF EKBI 141427Z 1415/1515 02006KT CAVOK"
    },
    {
      "icao": "EKCH",
      "alert": "OK",
      "vis_m": 9999,
      "fzfg": false,
      "metar_trigger": false,
      "taf_trigger": false,
      "metar": "METAR EKCH 141450Z AUTO 36003KT 9999 NCD 26/10 Q1022 NOSIG",
      "taf": "TAF EKCH 141427Z 1415/1515 03006KT CAVOK"
    },
    {
      "icao": "ENAL",
      "alert": "OK",
      "vis_m": 9999,
      "fzfg": false,
      "metar_trigger": false,
      "taf_trigger": false,
      "metar": "METAR ENAL 141450Z 36008KT 320V030 9999 SCT011 15/12 Q1028",
      "taf": "TAF ENAL 141400Z 1415/1424 04009KT 9999 SCT011"
    },
    {
      "icao": "ENBR",
      "alert": "OK",
      "vis_m": 9999,
      "fzfg": false,
      "metar_trigger": false,
      "taf_trigger": false,
      "metar": "METAR ENBR 141450Z 32008KT CAVOK 21/13 Q1025 NOSIG RMK WIND 1200FT 29003KT",
      "taf": "TAF ENBR 141100Z 1412/1512 33008KT CAVOK"
    },
    {
      "icao": "ENGM",
      "alert": "OK",
      "vis_m": 9999,
      "fzfg": false,
      "metar_trigger": false,
      "taf_trigger": false,
      "metar": "METAR ENGM 141450Z 02007KT 340V070 CAVOK 27/05 Q1023 NOSIG",
      "taf": "TAF ENGM 141100Z 1412/1512 02005KT CAVOK"
    },
    {
      "icao": "ENHD",
      "alert": "OK",
      "vis_m": 9999,
      "fzfg": false,
      "metar_trigger": false,
      "taf_trigger": false,
      "metar": "METAR ENHD 141450Z 35011KT CAVOK 16/12 Q1025",
      "taf": "TAF ENHD 141400Z 1415/1422 34012KT CAVOK"
    },
    {
      "icao": "ENTC",
      "alert": "OK",
      "vis_m": 9999,
      "fzfg": false,
      "metar_trigger": false,
      "taf_trigger": false,
      "metar": "METAR ENTC 141450Z 28012KT 9999 FEW022 BKN068 11/06 Q1021 NOSIG RMK WIND 2600FT 26020KT",
      "taf": "TAF ENTC 141100Z 1412/1512 25010KT 9999 -DZ SCT010 BKN020"
    },
    {
      "icao": "ENTO",
      "alert": "OK",
      "vis_m": 9999,
      "fzfg": false,
      "metar_trigger": false,
      "taf_trigger": false,
      "metar": "METAR ENTO 141450Z 18008KT CAVOK 25/13 Q1023 NOSIG",
      "taf": "TAF ENTO 141100Z 1412/1512 02005KT CAVOK"
    },
    {
      "icao": "ENVA",
      "alert": "OK",
      "vis_m": 9999,
      "fzfg": false,
      "metar_trigger": false,
      "taf_trigger": false,
      "metar": "METAR ENVA 141450Z 25009KT CAVOK 18/12 Q1027 NOSIG RMK WIND 670FT 29006KT",
      "taf": "TAF ENVA 141100Z 1412/1512 27009KT 9999 FEW020"
    },
    {
      "icao": "ENZV",
      "alert": "OK",
      "vis_m": 9999,
      "fzfg": false,
      "metar_trigger": false,
      "taf_trigger": false,
      "metar": "METAR ENZV 141450Z 29008KT CAVOK 20/14 Q1025 NOSIG",
      "taf": "TAF ENZV 141100Z 1412/1512 30008KT CAVOK"
    },
    {
      "icao": "EPGD",
      "alert": "OK",
      "vis_m": 9999,
      "fzfg": false,
      "metar_trigger": false,
      "taf_trigger": false,
      "metar": "METAR EPGD 141430Z 02009KT 340V050 CAVOK 20/11 Q1022",
      "taf": "TAF EPGD 141130Z 1412/1512 02013KT CAVOK"
    },
    {
      "icao": "EPKK",
      "alert": "OK",
      "vis_m": 9999,
      "fzfg": false,
      "metar_trigger": false,
      "taf_trigger": false,
      "metar": "METAR EPKK 141430Z 06007KT CAVOK 23/15 Q1018",
      "taf": "TAF EPKK 141430Z 1415/1515 05006KT CAVOK"
    },
    {
      "icao": "EPKT",
      "alert": "OK",
      "vis_m": 9999,
      "fzfg": false,
      "metar_trigger": false,
      "taf_trigger": false,
      "metar": "METAR EPKT 141430Z 09007KT CAVOK 25/16 Q1018",
      "taf": "TAF EPKT 141130Z 1412/1512 36005KT CAVOK"
    },
    {
      "icao": "EPLB",
      "alert": "OK",
      "vis_m": 9999,
      "fzfg": false,
      "metar_trigger": false,
      "taf_trigger": false,
      "metar": "METAR EPLB 141430Z 33008KT 320V030 9999 FEW042 28/17 Q1017",
      "taf": "TAF EPLB 141130Z 1412/1512 33008KT CAVOK"
    },
    {
      "icao": "EPMO",
      "alert": "OK",
      "vis_m": 9999,
      "fzfg": false,
      "metar_trigger": false,
      "taf_trigger": false,
      "metar": "METAR EPMO 141430Z 33006KT 280V080 CAVOK 27/15 Q1018",
      "taf": "TAF EPMO 141130Z 1412/1512 VRB06KT CAVOK"
    },
    {
      "icao": "EPPO",
      "alert": "OK",
      "vis_m": 9999,
      "fzfg": false,
      "metar_trigger": false,
      "taf_trigger": false,
      "metar": "METAR EPPO 141430Z 03008KT CAVOK 25/08 Q1019",
      "taf": "TAF EPPO 141130Z 1412/1512 06007KT CAVOK"
    },
    {
      "icao": "EPRA",
      "alert": "OK",
      "vis_m": 9999,
      "fzfg": false,
      "metar_trigger": false,
      "taf_trigger": false,
      "metar": "METAR EPRA 141430Z 36006KT CAVOK 28/17 Q1018",
      "taf": "TAF EPRA 141430Z 1415/1424 36005KT CAVOK"
    },
    {
      "icao": "EPRZ",
      "alert": "OK",
      "vis_m": 9999,
      "fzfg": false,
      "metar_trigger": false,
      "taf_trigger": false,
      "metar": "METAR EPRZ 141430Z 28005KT 250V320 9999 -SHRA SCT050CB 21/16 Q1018 RETS",
      "taf": "TAF EPRZ 141130Z 1412/1512 34005KT CAVOK"
    },
    {
      "icao": "EPSC",
      "alert": "OK",
      "vis_m": 9999,
      "fzfg": false,
      "metar_trigger": false,
      "taf_trigger": false,
      "metar": "METAR EPSC 141430Z 04009KT 360V080 CAVOK 24/10 Q1021",
      "taf": "TAF EPSC 141130Z 1412/1512 05010KT CAVOK"
    },
    {
      "icao": "EPSY",
      "alert": "OK",
      "vis_m": 9999,
      "fzfg": false,
      "metar_trigger": false,
      "taf_trigger": false,
      "metar": "METAR EPSY 141430Z 33008KT 260V010 CAVOK 23/12 Q1019",
      "taf": "TAF EPSY 141430Z 1415/1424 36006KT CAVOK"
    },
    {
      "icao": "EPWA",
      "alert": "OK",
      "vis_m": 9999,
      "fzfg": false,
      "metar_trigger": false,
      "taf_trigger": false,
      "metar": "METAR EPWA 141430Z 34007KT 290V050 CAVOK 27/14 Q1018 NOSIG",
      "taf": "TAF EPWA 141430Z 1415/1515 36010KT CAVOK"
    },
    {
      "icao": "EPWR",
      "alert": "OK",
      "vis_m": 9999,
      "fzfg": false,
      "metar_trigger": false,
      "taf_trigger": false,
      "metar": "METAR EPWR 141430Z 06008KT 9999 FEW035CB 25/16 Q1018",
      "taf": "TAF EPWR 141430Z 1415/1515 04008KT 9999 SCT040"
    },
    {
      "icao": "ESGG",
      "alert": "OK",
      "vis_m": 9999,
      "fzfg": false,
      "metar_trigger": false,
      "taf_trigger": false,
      "metar": "METAR ESGG 141450Z 34010KT CAVOK 27/10 Q1022",
      "taf": "TAF ESGG 141430Z 1415/1515 36009KT CAVOK"
    },
    {
      "icao": "ESKN",
      "alert": "OK",
      "vis_m": 9999,
      "fzfg": false,
      "metar_trigger": false,
      "taf_trigger": false,
      "metar": "METAR ESKN 141450Z 13010KT 090V160 CAVOK 26/10 Q1022",
      "taf": "TAF ESKN 141430Z 1415/1515 16005KT CAVOK"
    },
    {
      "icao": "ESMS",
      "alert": "OK",
      "vis_m": 9999,
      "fzfg": false,
      "metar_trigger": false,
      "taf_trigger": false,
      "metar": "METAR ESMS 141450Z 03004KT 340V060 CAVOK 26/13 Q1021",
      "taf": "TAF ESMS 141427Z 1415/1515 30007KT CAVOK"
    },
    {
      "icao": "ESSA",
      "alert": "OK",
      "vis_m": 9999,
      "fzfg": false,
      "metar_trigger": false,
      "taf_trigger": false,
      "metar": "METAR ESSA 141450Z 08008KT 040V120 CAVOK 25/08 Q1021 NOSIG",
      "taf": "TAF ESSA 141430Z 1415/1515 03008KT CAVOK"
    },
    {
      "icao": "EYKA",
      "alert": "OK",
      "vis_m": 9999,
      "fzfg": false,
      "metar_trigger": false,
      "taf_trigger": false,
      "metar": "METAR EYKA 141450Z 03003KT 310V110 9999 SCT041 25/16 Q1018",
      "taf": "TAF EYKA 141100Z 1412/1512 VRB03KT 9000 SCT020 BKN035"
    },
    {
      "icao": "EYPA",
      "alert": "OK",
      "vis_m": 9999,
      "fzfg": false,
      "metar_trigger": false,
      "taf_trigger": false,
      "metar": "METAR EYPA 141450Z 34006KT 260V070 CAVOK 19/16 Q1020",
      "taf": "TAF EYPA 141100Z 1412/1512 VRB03KT 9000 SCT030"
    },
    {
      "icao": "EYVI",
      "alert": "OK",
      "vis_m": 9999,
      "fzfg": false,
      "metar_trigger": false,
      "taf_trigger": false,
      "metar": "METAR EYVI 141450Z 32008KT 270V020 9999 FEW026 SCT035 24/17 Q1018 NOSIG",
      "taf": ""
    },
    {
      "icao": "GCFV",
      "alert": "OK",
      "vis_m": 9999,
      "fzfg": false,
      "metar_trigger": false,
      "taf_trigger": false,
      "metar": "METAR GCFV 141430Z 04011KT 9999 FEW020 25/19 Q1017",
      "taf": "TAF GCFV 141400Z 1415/1515 04012KT 9999 FEW020 TX28/1514Z TN22/1506Z"
    },
    {
      "icao": "GCLP",
      "alert": "OK",
      "vis_m": 9999,
      "fzfg": false,
      "metar_trigger": false,
      "taf_trigger": false,
      "metar": "METAR GCLP 141430Z 03017KT 9999 FEW020 27/19 Q1017 NOSIG",
      "taf": "TAF GCLP 141400Z 1415/1515 03015KT 9999 FEW025 TX29/1514Z TN21/1506Z"
    },
    {
      "icao": "GCTS",
      "alert": "OK",
      "vis_m": 9999,
      "fzfg": false,
      "metar_trigger": false,
      "taf_trigger": false,
      "metar": "METAR GCTS 141430Z 10015KT 070V130 CAVOK 28/18 Q1017 NOSIG",
      "taf": "TAF GCTS 141400Z 1415/1515 12012KT 9999 FEW035 TX30/1514Z TN21/1506Z"
    },
    {
      "icao": "GMAD",
      "alert": "OK",
      "vis_m": 9999,
      "fzfg": false,
      "metar_trigger": false,
      "taf_trigger": false,
      "metar": "METAR GMAD 141430Z 27012KT CAVOK 31/17 Q1014 NOSIG",
      "taf": "TAF GMAD 141100Z 1412/1518 33005KT CAVOK"
    },
    {
      "icao": "GMMN",
      "alert": "OK",
      "vis_m": 9999,
      "fzfg": false,
      "metar_trigger": false,
      "taf_trigger": false,
      "metar": "METAR GMMN 141430Z 35012KT 320V030 CAVOK 30/20 Q1017 NOSIG",
      "taf": "TAF GMMN 141100Z 1412/1518 36012KT CAVOK"
    },
    {
      "icao": "GMMX",
      "alert": "OK",
      "vis_m": 9999,
      "fzfg": false,
      "metar_trigger": false,
      "taf_trigger": false,
      "metar": "METAR GMMX 141430Z VRB05KT 9999 SCT030 35/16 Q1016 NOSIG",
      "taf": "TAF GMMX 141100Z 1412/1518 30006KT CAVOK"
    },
    {
      "icao": "HEGN",
      "alert": "OK",
      "vis_m": 9999,
      "fzfg": false,
      "metar_trigger": false,
      "taf_trigger": false,
      "metar": "METAR HEGN 141400Z 36012KT CAVOK 36/08 Q1004 NOSIG",
      "taf": "TAF HEGN 141100Z 1412/1518 02018KT CAVOK"
    },
    {
      "icao": "HEMA",
      "alert": "OK",
      "vis_m": 9999,
      "fzfg": false,
      "metar_trigger": false,
      "taf_trigger": false,
      "metar": "METAR HEMA 141400Z 34018KT CAVOK 33/13 Q1004 NOSIG",
      "taf": "TAF HEMA 141100Z 1412/1518 36018KT CAVOK"
    },
    {
      "icao": "HESH",
      "alert": "OK",
      "vis_m": 9999,
      "fzfg": false,
      "metar_trigger": false,
      "taf_trigger": false,
      "metar": "METAR HESH 141400Z 36006KT CAVOK 38/12 Q1003 NOSIG",
      "taf": "TAF HESH 141100Z 1412/1518 02015KT CAVOK"
    },
    {
      "icao": "HESX",
      "alert": "OK",
      "vis_m": 9999,
      "fzfg": false,
      "metar_trigger": false,
      "taf_trigger": false,
      "metar": "METAR HESX 141400Z 01007KT CAVOK 36/16 Q1007 NOSIG",
      "taf": "TAF HESX 141100Z 1412/1518 32012KT CAVOK"
    },
    {
      "icao": "LATI",
      "alert": "OK",
      "vis_m": 9999,
      "fzfg": false,
      "metar_trigger": false,
      "taf_trigger": false,
      "metar": "METAR LATI 141450Z 34013KT CAVOK 31/15 Q1016 NOSIG",
      "taf": "TAF LATI 141100Z 1412/1512 34012KT CAVOK TX37/1512Z TN19/1504Z"
    },
    {
      "icao": "LBPD",
      "alert": "OK",
      "vis_m": 9999,
      "fzfg": false,
      "metar_trigger": false,
      "taf_trigger": false,
      "metar": "METAR LBPD 141500Z AUTO 04004KT 350V060 9999 FEW098/// 31/12 Q1015 NOSIG",
      "taf": "TAF LBPD 141100Z 1412/1512 31010KT CAVOK"
    },
    {
      "icao": "LBSF",
      "alert": "OK",
      "vis_m": 9999,
      "fzfg": false,
      "metar_trigger": false,
      "taf_trigger": false,
      "metar": "METAR LBSF 141500Z AUTO 29009KT 260V320 9999 SCT073/// 28/12 Q1017 NOSIG",
      "taf": "TAF LBSF 141100Z 1412/1512 31010KT CAVOK"
    },
    {
      "icao": "LBWN",
      "alert": "OK",
      "vis_m": 9999,
      "fzfg": false,
      "metar_trigger": false,
      "taf_trigger": false,
      "metar": "METAR LBWN 141500Z 34008KT 270V030 9999 SCT028 29/15 Q1014 NOSIG",
      "taf": "TAF LBWN 141100Z 1412/1512 35008KT 9999 SCT050"
    },
    {
      "icao": "LCLK",
      "alert": "OK",
      "vis_m": 9999,
      "fzfg": false,
      "metar_trigger": false,
      "taf_trigger": false,
      "metar": "METAR LCLK 141500Z 21019KT CAVOK 31/23 Q1004 NOSIG",
      "taf": "TAF LCLK 141130Z 1412/1512 21020KT 9999 FEW025"
    },
    {
      "icao": "LCPH",
      "alert": "OK",
      "vis_m": 9999,
      "fzfg": false,
      "metar_trigger": false,
      "taf_trigger": false,
      "metar": "METAR LCPH 141500Z 25005KT 230V290 9999 FEW025 30/23 Q1006 NOSIG",
      "taf": "TAF LCPH 141130Z 1412/1512 25010KT 9999 FEW025"
    },
    {
      "icao": "LEAL",
      "alert": "OK",
      "vis_m": 9999,
      "fzfg": false,
      "metar_trigger": false,
      "taf_trigger": false,
      "metar": "METAR LEAL 141430Z 09007KT 050V140 CAVOK 32/23 Q1015 NOSIG",
      "taf": "TAF LEAL 141100Z 1412/1512 11010KT CAVOK TX34/1414Z TN25/1505Z"
    },
    {
      "icao": "LEBB",
      "alert": "OK",
      "vis_m": 9999,
      "fzfg": false,
      "metar_trigger": false,
      "taf_trigger": false,
      "metar": "METAR LEBB 141430Z 27010KT 230V310 CAVOK 30/22 Q1014 NOSIG",
      "taf": "TAF LEBB 141100Z 1412/1512 32008KT 9999 FEW020 TX31/1414Z TN21/1505Z"
    },
    {
      "icao": "LEBL",
      "alert": "OK",
      "vis_m": 9999,
      "fzfg": false,
      "metar_trigger": false,
      "taf_trigger": false,
      "metar": "METAR LEBL 141430Z 14006KT 100V190 9999 R06R///// SCT010 28/24 Q1016 NOSIG",
      "taf": "TAF LEBL 141100Z 1412/1512 14006KT 9999 FEW020 TX31/1412Z TN25/1506Z"
    },
    {
      "icao": "LECH",
      "alert": "OK",
      "vis_m": 9999,
      "fzfg": false,
      "metar_trigger": false,
      "taf_trigger": false,
      "metar": "METAR LECH 141430Z AUTO 13008KT 090V160 CAVOK 29/21 Q1017",
      "taf": "TAF LECH 141100Z 1412/1512 13009KT 9999 FEW010 TX34/1414Z TN22/1505Z"
    },
    {
      "icao": "LEMD",
      "alert": "OK",
      "vis_m": 9999,
      "fzfg": false,
      "metar_trigger": false,
      "taf_trigger": false,
      "metar": "METAR LEMD 141430Z 19009KT CAVOK 37/04 Q1016 NOSIG",
      "taf": "TAF LEMD 141100Z 1412/1518 20010KT CAVOK TX37/1416Z TN20/1505Z"
    },
    {
      "icao": "LEMG",
      "alert": "OK",
      "vis_m": 9999,
      "fzfg": false,
      "metar_trigger": false,
      "taf_trigger": false,
      "metar": "METAR LEMG 141430Z 06015KT CAVOK 31/17 Q1014 NOSIG",
      "taf": "TAF LEMG 141100Z 1412/1512 14010KT CAVOK TX35/1414Z TN22/1505Z"
    },
    {
      "icao": "LEVC",
      "alert": "OK",
      "vis_m": 9999,
      "fzfg": false,
      "metar_trigger": false,
      "taf_trigger": false,
      "metar": "METAR LEVC 141430Z 07010KT 040V120 CAVOK 32/22 Q1015 NOSIG",
      "taf": "TAF LEVC 141100Z 1412/1512 09010KT 9999 FEW020 TX33/1414Z TN24/1505Z"
    },
    {
      "icao": "LEXJ",
      "alert": "OK",
      "vis_m": 9999,
      "fzfg": false,
      "metar_trigger": false,
      "taf_trigger": false,
      "metar": "METAR LEXJ 141430Z 04007KT 350V110 9999 FEW030 25/22 Q1015",
      "taf": "TAF LEXJ 141400Z 1415/1515 05010KT 9999 FEW030 TX28/1513Z TN20/1505Z"
    },
    {
      "icao": "LEZG",
      "alert": "OK",
      "vis_m": 9999,
      "fzfg": false,
      "metar_trigger": false,
      "taf_trigger": false,
      "metar": "METAR LEZG 141430Z 08007KT 040V110 CAVOK 39/17 Q1013 NOSIG",
      "taf": "TAF LEZG 141100Z 1412/1512 VRB04KT CAVOK TX40/1415Z TN24/1505Z"
    },
    {
      "icao": "LEZL",
      "alert": "OK",
      "vis_m": 9999,
      "fzfg": false,
      "metar_trigger": false,
      "taf_trigger": false,
      "metar": "METAR LEZL 141430Z 24010KT 200V310 CAVOK 32/15 Q1016 NOSIG",
      "taf": "TAF LEZL 141400Z 1415/1515 23012KT CAVOK TX34/1415Z TN18/1505Z"
    },
    {
      "icao": "LFBD",
      "alert": "OK",
      "vis_m": 9999,
      "fzfg": false,
      "metar_trigger": false,
      "taf_trigger": false,
      "metar": "METAR LFBD 141430Z AUTO 01007KT 300V070 CAVOK 36/18 Q1014 NOSIG",
      "taf": "TAF LFBD 141100Z 1412/1518 06005KT CAVOK TX37/1415Z TN21/1502Z"
    },
    {
      "icao": "LFLL",
      "alert": "OK",
      "vis_m": 9999,
      "fzfg": false,
      "metar_trigger": false,
      "taf_trigger": false,
      "metar": "METAR LFLL 141430Z 08004KT 350V120 CAVOK 37/10 Q1015 NOSIG",
      "taf": "TAF LFLL 141100Z 1412/1518 34005KT CAVOK"
    },
    {
      "icao": "LFLS",
      "alert": "OK",
      "vis_m": 9999,
      "fzfg": false,
      "metar_trigger": false,
      "taf_trigger": false,
      "metar": "METAR LFLS 141430Z AUTO 26006KT 210V290 CAVOK 36/12 Q1016 NOSIG",
      "taf": "TAF LFLS 141400Z 1415/1515 27005KT CAVOK"
    },
    {
      "icao": "LFMN",
      "alert": "OK",
      "vis_m": 9999,
      "fzfg": false,
      "metar_trigger": false,
      "taf_trigger": false,
      "metar": "METAR LFMN 141430Z 16005KT CAVOK 30/24 Q1015 NOSIG",
      "taf": "TAF LFMN 141400Z 1415/1521 18010KT CAVOK"
    },
    {
      "icao": "LFOB",
      "alert": "OK",
      "vis_m": 9999,
      "fzfg": false,
      "metar_trigger": false,
      "taf_trigger": false,
      "metar": "METAR LFOB 141430Z AUTO 05011KT 340V100 9999 FEW014 32/17 Q1016 NOSIG",
      "taf": "TAF LFOB 141100Z 1412/1512 02008KT CAVOK"
    },
    {
      "icao": "LFPO",
      "alert": "OK",
      "vis_m": 9999,
      "fzfg": false,
      "metar_trigger": false,
      "taf_trigger": false,
      "metar": "METAR LFPO 141430Z 02006KT 350V050 CAVOK 33/13 Q1015 NOSIG",
      "taf": "TAF LFPO 141100Z 1412/1518 02007KT CAVOK"
    },
    {
      "icao": "LFSB",
      "alert": "OK",
      "vis_m": 9999,
      "fzfg": false,
      "metar_trigger": false,
      "taf_trigger": false,
      "metar": "METAR LFSB 141430Z AUTO 31007KT 250V330 CAVOK 35/13 Q1015 TEMPO VRB15G35KT 4000 TSRA SCT080CB",
      "taf": "TAF LFSB 141100Z 1412/1512 32005KT CAVOK"
    },
    {
      "icao": "LGAV",
      "alert": "OK",
      "vis_m": 9999,
      "fzfg": false,
      "metar_trigger": false,
      "taf_trigger": false,
      "metar": "METAR LGAV 141350Z 02019KT 9999 FEW025 29/16 Q1015 NOSIG",
      "taf": "TAF LGAV 141100Z 1412/1512 04012KT 9999 FEW025"
    },
    {
      "icao": "LGTS",
      "alert": "OK",
      "vis_m": 9999,
      "fzfg": false,
      "metar_trigger": false,
      "taf_trigger": false,
      "metar": "METAR LGTS 141450Z 25012KT 9999 FEW025 32/14 Q1014 NOSIG",
      "taf": "TAF LGTS 141100Z 1412/1512 33015KT 9999 FEW030"
    },
    {
      "icao": "LHBP",
      "alert": "OK",
      "vis_m": 9999,
      "fzfg": false,
      "metar_trigger": false,
      "taf_trigger": false,
      "metar": "METAR LHBP 141430Z 21006KT 130V260 CAVOK 32/11 Q1015 NOSIG",
      "taf": "TAF LHBP 141115Z 1412/1512 20007KT CAVOK"
    },
    {
      "icao": "LHDC",
      "alert": "OK",
      "vis_m": 9999,
      "fzfg": false,
      "metar_trigger": false,
      "taf_trigger": false,
      "metar": "METAR LHDC 141415Z AUTO VRB03KT CAVOK 32/13 Q1015 NOSIG",
      "taf": "TAF LHDC 141415Z 1415/1424 VRB05KT CAVOK"
    },
    {
      "icao": "LIBD",
      "alert": "OK",
      "vis_m": 9999,
      "fzfg": false,
      "metar_trigger": false,
      "taf_trigger": false,
      "metar": "METAR LIBD 141450Z 08007KT CAVOK 33/14 Q1016",
      "taf": "TAF LIBD 141100Z 1412/1512 02007KT CAVOK"
    },
    {
      "icao": "LIBG",
      "alert": "OK",
      "vis_m": 9999,
      "fzfg": false,
      "metar_trigger": false,
      "taf_trigger": false,
      "metar": "METAR LIBG 141450Z AUTO 01006KT 340V050 9999 NCD 36/11 Q1016",
      "taf": "TAF LIBG 141100Z 1412/1512 03010KT 9999 FEW030"
    },
    {
      "icao": "LIBP",
      "alert": "OK",
      "vis_m": 9999,
      "fzfg": false,
      "metar_trigger": false,
      "taf_trigger": false,
      "metar": "METAR LIBP 141450Z AUTO 12011KT 9999 NCD 35/16 Q1013",
      "taf": "TAF LIBP 141100Z 1412/1512 10013KT 9999 FEW050"
    },
    {
      "icao": "LIBR",
      "alert": "OK",
      "vis_m": 9999,
      "fzfg": false,
      "metar_trigger": false,
      "taf_trigger": false,
      "metar": "METAR LIBR 141450Z 02007KT CAVOK 29/19 Q1016",
      "taf": "TAF LIBR 141100Z 1412/1512 34012KT CAVOK"
    },
    {
      "icao": "LICA",
      "alert": "OK",
      "vis_m": 9999,
      "fzfg": false,
      "metar_trigger": false,
      "taf_trigger": false,
      "metar": "METAR LICA 141450Z AUTO 24011KT 9999 BKN013/// 29/25 Q1018",
      "taf": "TAF LICA 141100Z 1412/1512 27013KT 9999 FEW020"
    },
    {
      "icao": "LICC",
      "alert": "OK",
      "vis_m": 9999,
      "fzfg": false,
      "metar_trigger": false,
      "taf_trigger": false,
      "metar": "METAR LICC 141450Z 11009KT 080V140 CAVOK 32/21 Q1017",
      "taf": "TAF LICC 141100Z 1412/1512 09012KT CAVOK"
    },
    {
      "icao": "LICJ",
      "alert": "OK",
      "vis_m": 9999,
      "fzfg": false,
      "metar_trigger": false,
      "taf_trigger": false,
      "metar": "METAR LICJ 141450Z 04016KT CAVOK 31/22 Q1018",
      "taf": "TAF LICJ 141100Z 1412/1512 04013KT CAVOK"
    },
    {
      "icao": "LIMC",
      "alert": "OK",
      "vis_m": 9999,
      "fzfg": false,
      "metar_trigger": false,
      "taf_trigger": false,
      "metar": "METAR LIMC 141450Z 26007KT 200V300 CAVOK 34/15 Q1014 NOSIG",
      "taf": ""
    },
    {
      "icao": "LIME",
      "alert": "OK",
      "vis_m": 9999,
      "fzfg": false,
      "metar_trigger": false,
      "taf_trigger": false,
      "metar": "METAR LIME 141450Z 21008KT 180V250 9999 FEW065 33/17 Q1014 NOSIG",
      "taf": "TAF LIME 141100Z 1412/1512 21010KT 9999 FEW060"
    },
    {
      "icao": "LIMF",
      "alert": "OK",
      "vis_m": 9999,
      "fzfg": false,
      "metar_trigger": false,
      "taf_trigger": false,
      "metar": "METAR LIMF 141450Z VRB05KT CAVOK 35/18 Q1014",
      "taf": "TAF LIMF 141100Z 1412/1512 VRB05KT 9999 SCT060"
    },
    {
      "icao": "LIMJ",
      "alert": "OK",
      "vis_m": 9999,
      "fzfg": false,
      "metar_trigger": false,
      "taf_trigger": false,
      "metar": "METAR LIMJ 141450Z 18005KT 9999 FEW020 28/25 Q1015",
      "taf": "TAF LIMJ 141100Z 1412/1512 15010KT 9999 FEW020"
    },
    {
      "icao": "LIPE",
      "alert": "OK",
      "vis_m": 9999,
      "fzfg": false,
      "metar_trigger": false,
      "taf_trigger": false,
      "metar": "METAR LIPE 141450Z 01007KT 340V060 CAVOK 35/18 Q1013",
      "taf": "TAF LIPE 141100Z 1412/1512 VRB06KT CAVOK"
    },
    {
      "icao": "LIPH",
      "alert": "OK",
      "vis_m": 9999,
      "fzfg": false,
      "metar_trigger": false,
      "taf_trigger": false,
      "metar": "METAR LIPH 141450Z 11008KT 070V150 9999 FEW030 32/18 Q1015",
      "taf": "TAF LIPH 141100Z 1412/1512 16010KT 9999 SCT030"
    },
    {
      "icao": "LIPQ",
      "alert": "OK",
      "vis_m": 9999,
      "fzfg": false,
      "metar_trigger": false,
      "taf_trigger": false,
      "metar": "METAR LIPQ 141450Z AUTO 20004KT 160V230 9999 FEW100/// BKN110/// 28/18 Q1014",
      "taf": "TAF LIPQ 141100Z 1412/1512 18010KT 9999 SCT040"
    },
    {
      "icao": "LIPR",
      "alert": "OK",
      "vis_m": 9999,
      "fzfg": false,
      "metar_trigger": false,
      "taf_trigger": false,
      "metar": "METAR LIPR 141450Z 08008KT 050V110 CAVOK 29/23 Q1013",
      "taf": "TAF LIPR 141100Z 1412/1512 10010KT CAVOK"
    },
    {
      "icao": "LIPX",
      "alert": "OK",
      "vis_m": 9999,
      "fzfg": false,
      "metar_trigger": false,
      "taf_trigger": false,
      "metar": "METAR LIPX 141450Z 21004KT 120V250 CAVOK 34/18 Q1013",
      "taf": "TAF LIPX 141100Z 1412/1512 VRB05KT 9999 FEW060"
    },
    {
      "icao": "LIPY",
      "alert": "OK",
      "vis_m": 9999,
      "fzfg": false,
      "metar_trigger": false,
      "taf_trigger": false,
      "metar": "METAR LIPY 141450Z AUTO 13008KT 090V170 9999 NCD 36/17 Q1012",
      "taf": "TAF LIPY 141100Z 1412/1512 12013KT 9999 FEW050"
    },
    {
      "icao": "LIPZ",
      "alert": "OK",
      "vis_m": 9999,
      "fzfg": false,
      "metar_trigger": false,
      "taf_trigger": false,
      "metar": "METAR LIPZ 141450Z 10006KT 070V130 CAVOK 30/24 Q1015 NOSIG",
      "taf": "TAF LIPZ 141100Z 1412/1518 14011KT CAVOK"
    },
    {
      "icao": "LIRF",
      "alert": "OK",
      "vis_m": 9999,
      "fzfg": false,
      "metar_trigger": false,
      "taf_trigger": false,
      "metar": "METAR LIRF 141450Z 19010KT CAVOK 33/20 Q1016 NOSIG",
      "taf": "TAF LIRF 141100Z 1412/1518 19012KT CAVOK"
    },
    {
      "icao": "LIRN",
      "alert": "OK",
      "vis_m": 9999,
      "fzfg": false,
      "metar_trigger": false,
      "taf_trigger": false,
      "metar": "METAR LIRN 141450Z 19010KT 170V230 CAVOK 31/21 Q1017 NOSIG",
      "taf": "TAF LIRN 141100Z 1412/1512 24010KT CAVOK"
    },
    {
      "icao": "LIRP",
      "alert": "OK",
      "vis_m": 9999,
      "fzfg": false,
      "metar_trigger": false,
      "taf_trigger": false,
      "metar": "METAR LIRP 141445Z 27008KT CAVOK 32/21 Q1015 NOSIG",
      "taf": "TAF LIRP 141100Z 1412/1512 27010KT CAVOK"
    },
    {
      "icao": "LIRZ",
      "alert": "OK",
      "vis_m": 9999,
      "fzfg": false,
      "metar_trigger": false,
      "taf_trigger": false,
      "metar": "METAR LIRZ 141450Z AUTO 21015KT 9999 NCD 37/13 Q1015",
      "taf": "TAF LIRZ 141100Z 1412/1512 22012KT CAVOK"
    },
    {
      "icao": "LJLJ",
      "alert": "OK",
      "vis_m": 9999,
      "fzfg": false,
      "metar_trigger": false,
      "taf_trigger": false,
      "metar": "METAR LJLJ 141430Z 27009KT 9999 -TSRA SCT070CB SCT100 BKN120 25/18 Q1017 RETSRA TEMPO 32015G30KT TSRA",
      "taf": "TAF LJLJ 141100Z 1412/1512 VRB02KT 9999 SCT055"
    },
    {
      "icao": "LKMT",
      "alert": "OK",
      "vis_m": 9999,
      "fzfg": false,
      "metar_trigger": false,
      "taf_trigger": false,
      "metar": "METAR LKMT 141430Z 03012KT CAVOK 28/15 Q1017 NOSIG",
      "taf": "TAF LKMT 141100Z 1412/1512 02008KT 9999 SCT040"
    },
    {
      "icao": "LKPR",
      "alert": "OK",
      "vis_m": 9999,
      "fzfg": false,
      "metar_trigger": false,
      "taf_trigger": false,
      "metar": "METAR LKPR 141430Z 34012KT 9999 FEW040CB 24/15 Q1018 TEMPO 5000 TSRA",
      "taf": "TAF LKPR 141400Z 1415/1521 01006KT CAVOK"
    },
    {
      "icao": "LLBG",
      "alert": "OK",
      "vis_m": 9999,
      "fzfg": false,
      "metar_trigger": false,
      "taf_trigger": false,
      "metar": "METAR LLBG 141450Z 31008KT CAVOK 30/20 Q1007 NOSIG",
      "taf": "TAF LLBG 141101Z 1412/1512 28010KT CAVOK TX31/1412Z TN23/1503Z"
    },
    {
      "icao": "LMML",
      "alert": "OK",
      "vis_m": 9999,
      "fzfg": false,
      "metar_trigger": false,
      "taf_trigger": false,
      "metar": "METAR LMML 141445Z 32008KT 290V360 CAVOK 35/16 Q1019 NOSIG",
      "taf": "TAF LMML 141100Z 1412/1512 29008KT 9999 FEW015"
    },
    {
      "icao": "LOWW",
      "alert": "OK",
      "vis_m": 9999,
      "fzfg": false,
      "metar_trigger": false,
      "taf_trigger": false,
      "metar": "METAR LOWW 141450Z 16006KT 110V180 CAVOK 30/13 Q1015 TEMPO FM1545 23025G35KT TSRA",
      "taf": "TAF LOWW 141415Z 1415/1521 15010KT CAVOK TX31/1415Z TN19/1504Z"
    },
    {
      "icao": "LPFR",
      "alert": "OK",
      "vis_m": 9999,
      "fzfg": false,
      "metar_trigger": false,
      "taf_trigger": false,
      "metar": "METAR LPFR 141430Z 25014KT CAVOK 24/18 Q1017",
      "taf": "TAF LPFR 141100Z 1412/1512 24013KT CAVOK"
    },
    {
      "icao": "LPMA",
      "alert": "OK",
      "vis_m": 9999,
      "fzfg": false,
      "metar_trigger": false,
      "taf_trigger": false,
      "metar": "METAR LPMA 141430Z 20008KT 150V220 9999 SCT015 BKN030 24/20 Q1018",
      "taf": "TAF LPMA 141100Z 1412/1512 19010KT 9999 SCT015"
    },
    {
      "icao": "LPPR",
      "alert": "OK",
      "vis_m": 9999,
      "fzfg": false,
      "metar_trigger": false,
      "taf_trigger": false,
      "metar": "METAR LPPR 141430Z VRB06KT 9999 FEW014 23/17 Q1017",
      "taf": "TAF LPPR 141100Z 1412/1512 29010KT 9999 SCT020"
    },
    {
      "icao": "LPPS",
      "alert": "OK",
      "vis_m": 9999,
      "fzfg": false,
      "metar_trigger": false,
      "taf_trigger": false,
      "metar": "METAR LPPS 141430Z 16007KT 9999 FEW015 23/18 Q1018",
      "taf": "TAF LPPS 141100Z 1412/1518 18010KT 9999 SCT015"
    },
    {
      "icao": "LPPT",
      "alert": "OK",
      "vis_m": 9999,
      "fzfg": false,
      "metar_trigger": false,
      "taf_trigger": false,
      "metar": "METAR LPPT 141430Z 30009KT 9999 SCT042 25/15 Q1017 WS R20 NOSIG",
      "taf": "TAF LPPT 141100Z 1412/1518 VRB05KT 9999 FEW030"
    },
    {
      "icao": "LQBK",
      "alert": "OK",
      "vis_m": 9999,
      "fzfg": false,
      "metar_trigger": false,
      "taf_trigger": false,
      "metar": "METAR LQBK 141430Z 05007KT 350V090 9999 FEW047 33/14 Q1014 NOSIG",
      "taf": "TAF LQBK 141100Z 1412/1512 14005KT CAVOK TX34/1414Z TN18/1503Z"
    },
    {
      "icao": "LQSA",
      "alert": "OK",
      "vis_m": 9999,
      "fzfg": false,
      "metar_trigger": false,
      "taf_trigger": false,
      "metar": "METAR LQSA 141430Z 31004KT 220V360 CAVOK 31/13 Q1017 NOSIG",
      "taf": "TAF LQSA 141100Z 1412/1512 VRB02KT CAVOK TX32/1512Z TN15/1504Z"
    },
    {
      "icao": "LQTZ",
      "alert": "OK",
      "vis_m": 9999,
      "fzfg": false,
      "metar_trigger": false,
      "taf_trigger": false,
      "metar": "METAR LQTZ 141430Z VRB02KT CAVOK 32/12 Q1016",
      "taf": "TAF LQTZ 141100Z 1412/1512 VRB02KT CAVOK TX32/1414Z TN16/1503Z"
    },
    {
      "icao": "LRBC",
      "alert": "OK",
      "vis_m": 9999,
      "fzfg": false,
      "metar_trigger": false,
      "taf_trigger": false,
      "metar": "METAR LRBC 141430Z 28010KT 9999 FEW065 22/19 Q1015",
      "taf": "TAF LRBC 141400Z 1415/1424 34012KT 9999 BKN035"
    },
    {
      "icao": "LRBS",
      "alert": "OK",
      "vis_m": 9999,
      "fzfg": false,
      "metar_trigger": false,
      "taf_trigger": false,
      "metar": "METAR LRBS 141430Z VRB03KT CAVOK 30/15 Q1014 NOSIG",
      "taf": "TAF LRBS 141100Z 1412/1512 VRB04KT CAVOK"
    },
    {
      "icao": "LRBV",
      "alert": "OK",
      "vis_m": 5000,
      "fzfg": false,
      "metar_trigger": false,
      "taf_trigger": false,
      "metar": "METAR LRBV 141430Z 08008KT 030V120 5000 2400NE TSRA FEW004 SCT040 BKN047CB 17/16 Q1019",
      "taf": "TAF LRBV 141400Z 1415/1424 15010KT 9999 BKN045"
    },
    {
      "icao": "LRCL",
      "alert": "OK",
      "vis_m": 9999,
      "fzfg": false,
      "metar_trigger": false,
      "taf_trigger": false,
      "metar": "METAR LRCL 141430Z 35007KT 320V050 9999 FEW045CB 29/14 Q1016",
      "taf": "TAF LRCL 141400Z 1415/1424 35007KT 9999 SCT040"
    },
    {
      "icao": "LRCV",
      "alert": "OK",
      "vis_m": 9999,
      "fzfg": false,
      "metar_trigger": false,
      "taf_trigger": false,
      "metar": "METAR LRCV 141430Z 20004KT 160V250 CAVOK 31/12 Q1015",
      "taf": "TAF LRCV 141400Z 1415/1424 VRB04KT CAVOK"
    },
    {
      "icao": "LRIA",
      "alert": "OK",
      "vis_m": 9999,
      "fzfg": false,
      "metar_trigger": false,
      "taf_trigger": false,
      "metar": "METAR LRIA 141430Z 33009KT 9999 FEW042 28/17 Q1013",
      "taf": "TAF LRIA 141400Z 1415/1424 30008KT 9999 SCT040"
    },
    {
      "icao": "LROP",
      "alert": "OK",
      "vis_m": 9999,
      "fzfg": false,
      "metar_trigger": false,
      "taf_trigger": false,
      "metar": "METAR LROP 141430Z 34007KT CAVOK 29/14 Q1014 NOSIG",
      "taf": "TAF LROP 141100Z 1412/1512 VRB04KT CAVOK"
    },
    {
      "icao": "LRSB",
      "alert": "OK",
      "vis_m": 9999,
      "fzfg": false,
      "metar_trigger": false,
      "taf_trigger": false,
      "metar": "METAR LRSB 141430Z 36006KT 9999 FEW040CB 27/15 Q1017",
      "taf": "TAF LRSB 141100Z 1412/1512 VRB04KT 9999 SCT050"
    },
    {
      "icao": "LRSM",
      "alert": "OK",
      "vis_m": 9999,
      "fzfg": false,
      "metar_trigger": false,
      "taf_trigger": false,
      "metar": "METAR LRSM 141430Z 03013KT 360V060 9999 FEW045CB 31/17 Q1016",
      "taf": "TAF LRSM 141400Z 1415/1424 33006KT 9999 SCT045"
    },
    {
      "icao": "LRSV",
      "alert": "OK",
      "vis_m": 9999,
      "fzfg": false,
      "metar_trigger": false,
      "taf_trigger": false,
      "metar": "METAR LRSV 141430Z 31016KT CAVOK 22/17 Q1016",
      "taf": "TAF LRSV 141400Z 1415/1424 32009KT 9999 SCT040"
    },
    {
      "icao": "LRTM",
      "alert": "OK",
      "vis_m": 9999,
      "fzfg": false,
      "metar_trigger": false,
      "taf_trigger": false,
      "metar": "METAR LRTM 141430Z 34007KT 310V020 9999 FEW040CB 30/19 Q1016",
      "taf": "TAF LRTM 141400Z 1415/1424 29010KT 9999 SCT045"
    },
    {
      "icao": "LRTR",
      "alert": "OK",
      "vis_m": 9999,
      "fzfg": false,
      "metar_trigger": false,
      "taf_trigger": false,
      "metar": "METAR LRTR 141430Z COR 29008KT 260V360 CAVOK 31/14 Q1015",
      "taf": "TAF LRTR 141100Z 1412/1512 31006KT 9999 SCT045"
    },
    {
      "icao": "LTAC",
      "alert": "OK",
      "vis_m": 9999,
      "fzfg": false,
      "metar_trigger": false,
      "taf_trigger": false,
      "metar": "METAR LTAC 141450Z 31012KT 270V340 9999 SCT040 SCT100 27/09 Q1013 NOSIG RMK RWY21C 32010KT 280V010 RWY03L 31010KT 270V330 RWY21R 30009KT 250V360 RWY03R 29012KT 250V330 RWY21L 29010KT 250V330",
      "taf": "TAF LTAC 141040Z 1412/1512 VRB02KT 9999 SCT040 SCT100"
    },
    {
      "icao": "LTFM",
      "alert": "OK",
      "vis_m": 9999,
      "fzfg": false,
      "metar_trigger": false,
      "taf_trigger": false,
      "metar": "METAR LTFM 141450Z 02012KT 9999 SCT025 25/15 Q1015 NOSIG RMK RWY17L 02010KT RWY34L 01012KT RWY16R 01010KT RWY36 01012KT RWY18 01009KT 340V040",
      "taf": "TAF LTFM 141040Z 1412/1518 35015KT 9999 SCT025"
    },
    {
      "icao": "LUKK",
      "alert": "OK",
      "vis_m": 9999,
      "fzfg": false,
      "metar_trigger": false,
      "taf_trigger": false,
      "metar": "METAR LUKK 141430Z 33009KT 300V020 9999 VCTS SCT035CB 28/16 Q1012 TEMPO 35018G30KT 3000 TSRA BKN015 SCT030CB",
      "taf": "TAF LUKK 141054Z 1412/1512 33009KT 9999 SCT040"
    },
    {
      "icao": "LWOH",
      "alert": "OK",
      "vis_m": 9999,
      "fzfg": false,
      "metar_trigger": false,
      "taf_trigger": false,
      "metar": "METAR LWOH 141450Z 14006KT 9999 FEW040 26/18 Q1019",
      "taf": "TAF LWOH 141425Z 1415/1515 16008KT 9999 FEW040"
    },
    {
      "icao": "LWSK",
      "alert": "OK",
      "vis_m": 9999,
      "fzfg": false,
      "metar_trigger": false,
      "taf_trigger": false,
      "metar": "METAR LWSK 141450Z 34007KT 250V030 9999 FEW060 33/14 Q1016 NOSIG",
      "taf": "TAF LWSK 141425Z 1415/1515 34008KT 9999 FEW050"
    },
    {
      "icao": "LYBE",
      "alert": "OK",
      "vis_m": 9999,
      "fzfg": false,
      "metar_trigger": false,
      "taf_trigger": false,
      "metar": "METAR LYBE 141430Z 31005KT 240V030 CAVOK 31/15 Q1016 NOSIG",
      "taf": "TAF LYBE 141100Z 1412/1512 03006KT CAVOK TX31/1414Z TN21/1503Z"
    },
    {
      "icao": "LYNI",
      "alert": "OK",
      "vis_m": 9999,
      "fzfg": false,
      "metar_trigger": false,
      "taf_trigger": false,
      "metar": "METAR LYNI 141430Z 33008KT 250V060 9999 FEW040 31/13 Q1016 NOSIG",
      "taf": "TAF LYNI 141100Z 1412/1512 33012KT CAVOK TX32/1512Z TN15/1503Z"
    },
    {
      "icao": "LYPG",
      "alert": "OK",
      "vis_m": 9999,
      "fzfg": false,
      "metar_trigger": false,
      "taf_trigger": false,
      "metar": "METAR LYPG 141430Z 18010KT 150V220 CAVOK 34/14 Q1014 NOSIG",
      "taf": "TAF LYPG 141100Z 1412/1512 18010KT 9999 FEW050 TX35/1413Z TN23/1503Z"
    },
    {
      "icao": "LZIB",
      "alert": "OK",
      "vis_m": 9999,
      "fzfg": false,
      "metar_trigger": false,
      "taf_trigger": false,
      "metar": "METAR LZIB 141430Z VRB04KT CAVOK 32/13 Q1014 NOSIG",
      "taf": ""
    },
    {
      "icao": "LZKZ",
      "alert": "OK",
      "vis_m": 9999,
      "fzfg": false,
      "metar_trigger": false,
      "taf_trigger": false,
      "metar": "METAR LZKZ 141430Z 34008KT 9999 FEW040 29/15 Q1016 NOSIG",
      "taf": "TAF LZKZ 141115Z 1412/1512 01008KT CAVOK"
    },
    {
      "icao": "LZTT",
      "alert": "OK",
      "vis_m": 9999,
      "fzfg": false,
      "metar_trigger": false,
      "taf_trigger": false,
      "metar": "METAR LZTT 141430Z 04014KT 9999 FEW036CB SCT053 24/15 Q1019 NOSIG",
      "taf": "TAF LZTT 141115Z 1412/1512 VRB02KT 9999 FEW060"
    },
    {
      "icao": "OEJN",
      "alert": "OK",
      "vis_m": 9999,
      "fzfg": false,
      "metar_trigger": false,
      "taf_trigger": false,
      "metar": "METAR OEJN 141500Z 31009KT CAVOK 34/21 Q1003 NOSIG",
      "taf": "TAF OEJN 141100Z 1412/1518 30012KT 9999 FEW040"
    },
    {
      "icao": "OEMA",
      "alert": "OK",
      "vis_m": 9999,
      "fzfg": false,
      "metar_trigger": false,
      "taf_trigger": false,
      "metar": "METAR OEMA 141500Z 36006KT CAVOK 45/M06 Q1006 NOSIG",
      "taf": "TAF OEMA 141100Z 1412/1518 30010KT CAVOK"
    },
    {
      "icao": "OJAI",
      "alert": "OK",
      "vis_m": 5000,
      "fzfg": false,
      "metar_trigger": false,
      "taf_trigger": false,
      "metar": "METAR OJAI 141400Z 27013KT 5000 HZ NSC 33/11 Q1010 NOSIG",
      "taf": "TAF OJAI 140943Z 1412/1518 30008KT 5000 HZ NSC"
    },
    {
      "icao": "OMAA",
      "alert": "OK",
      "vis_m": 9999,
      "fzfg": false,
      "metar_trigger": false,
      "taf_trigger": false,
      "metar": "METAR OMAA 141500Z 33003KT CAVOK 37/25 Q0995 NOSIG",
      "taf": "TAF OMAA 141100Z 1412/1518 30010KT 8000 NSC"
    },
    {
      "icao": "OMDB",
      "alert": "OK",
      "vis_m": 9000,
      "fzfg": false,
      "metar_trigger": false,
      "taf_trigger": false,
      "metar": "METAR OMDB 141500Z 33005KT 9000 NSC 38/25 Q0995 NOSIG",
      "taf": "TAF OMDB 141100Z 1412/1518 34010KT 8000 NSC"
    },
    {
      "icao": "UAAA",
      "alert": "OK",
      "vis_m": 9999,
      "fzfg": false,
      "metar_trigger": false,
      "taf_trigger": false,
      "metar": "METAR UAAA 141430Z 17002MPS 9999 FEW050 SCT100 BKN200 29/14 Q1009 NOSIG",
      "taf": "TAF UAAA 141102Z 1412/1512 15003MPS 9999 FEW050CB SCT100 TX35/1510Z TN20/1501Z"
    },
    {
      "icao": "UBBB",
      "alert": "OK",
      "vis_m": 9999,
      "fzfg": false,
      "metar_trigger": false,
      "taf_trigger": false,
      "metar": "METAR UBBB 141500Z 01008KT CAVOK 28/21 Q1005 NOSIG",
      "taf": "TAF UBBB 141048Z 1412/1512 02008KT CAVOK TX32/1412Z TN24/1501Z"
    },
    {
      "icao": "UDSG",
      "alert": "OK",
      "vis_m": 9999,
      "fzfg": false,
      "metar_trigger": false,
      "taf_trigger": false,
      "metar": "METAR UDSG 141430Z 06012KT 9999 FEW049 27/17 Q1013 NOSIG",
      "taf": "TAF UDSG 141058Z 1412/1512 36008KT 9999 FEW050"
    },
    {
      "icao": "UDYZ",
      "alert": "OK",
      "vis_m": 9999,
      "fzfg": false,
      "metar_trigger": false,
      "taf_trigger": false,
      "metar": "METAR UDYZ 141430Z 31003KT 9999 FEW046 38/12 Q1004 NOSIG",
      "taf": "TAF UDYZ 141100Z 1412/1512 22006KT 9999 FEW040"
    },
    {
      "icao": "UGKO",
      "alert": "OK",
      "vis_m": 9999,
      "fzfg": false,
      "metar_trigger": false,
      "taf_trigger": false,
      "metar": "METAR UGKO 141430Z 21003KT 180V260 9999 SCT022 OVC038 23/20 Q1009 NOSIG",
      "taf": "TAF UGKO 141100Z 1412/1512 25007KT 9999 SCT015 OVC030 TX26/1511Z TN20/1502Z"
    }
  ]
}