{
  "ts_utc": "2025-12-22T12:10:49Z",
  "threshold_m": 150,
  "source": "stations_override.txt (ICAO list) + aviationweather.gov (METAR/TAF raw)",
  "station_count": 159,
  "stations": [
    {
      "icao": "BIKF",
      "alert": "OK",
      "vis_m": 4000,
      "fzfg": false,
      "metar_trigger": false,
      "taf_trigger": false,
      "metar": "METAR BIKF 221200Z 12026G38KT 4000 -DZRA BKN017 08/05 Q0997",
      "taf": "TAF BIKF 221043Z 2212/2312 13028G40KT 9999 -SHRA SCT015 BKN025 TX08/2216Z TN02/2306Z"
    },
    {
      "icao": "BKPR",
      "alert": "OK",
      "vis_m": 8000,
      "fzfg": false,
      "metar_trigger": false,
      "taf_trigger": false,
      "metar": "METAR BKPR 221200Z 29006KT 8000 SCT008 BKN020 03/02 Q1018 NOSIG",
      "taf": "TAF BKPR 221130Z 2212/2312 VRB03KT 6000 SCT010 BKB020"
    },
    {
      "icao": "EBCI",
      "alert": "OK",
      "vis_m": 9999,
      "fzfg": false,
      "metar_trigger": false,
      "taf_trigger": false,
      "metar": "METAR EBCI 221150Z VRB02KT CAVOK 09/04 Q1009 NOSIG",
      "taf": "TAF EBCI 221106Z 2212/2318 VRB03KT CAVOK"
    },
    {
      "icao": "EDDB",
      "alert": "OK",
      "vis_m": 6000,
      "fzfg": false,
      "metar_trigger": false,
      "taf_trigger": false,
      "metar": "METAR EDDB 221150Z AUTO 09011KT 060V120 6000 OVC004 03/02 Q1018 BECMG BKN006",
      "taf": "TAF EDDB 221100Z 2212/2312 07011KT 8000 BKN003"
    },
    {
      "icao": "EDDH",
      "alert": "OK",
      "vis_m": 9999,
      "fzfg": false,
      "metar_trigger": false,
      "taf_trigger": false,
      "metar": "METAR EDDH 221150Z AUTO 08011KT 060V120 9999 OVC003 03/03 Q1018 TEMPO OVC005",
      "taf": "TAF EDDH 221100Z 2212/2318 09011KT 7000 OVC003"
    },
    {
      "icao": "EDDK",
      "alert": "OK",
      "vis_m": 9999,
      "fzfg": false,
      "metar_trigger": false,
      "taf_trigger": false,
      "metar": "METAR EDDK 221150Z AUTO 14011KT 9999 OVC017 05/01 Q1011 NOSIG",
      "taf": "TAF EDDK 221100Z 2212/2318 11007KT 9999 BKN020"
    },
    {
      "icao": "EDDN",
      "alert": "OK",
      "vis_m": 9999,
      "fzfg": false,
      "metar_trigger": false,
      "taf_trigger": false,
      "metar": "METAR EDDN 221150Z AUTO 10008KT 9999 OVC015 04/00 Q1011 NOSIG",
      "taf": "TAF EDDN 221100Z 2212/2312 10008KT 9999 BKN015"
    },
    {
      "icao": "EDDS",
      "alert": "OK",
      "vis_m": 9999,
      "fzfg": false,
      "metar_trigger": false,
      "taf_trigger": false,
      "metar": "METAR EDDS 221150Z AUTO VRB01KT 9999 SCT007 02/M00 Q1009 TEMPO BKN007",
      "taf": "TAF EDDS 221100Z 2212/2312 06004KT 9999 FEW005"
    },
    {
      "icao": "EDFH",
      "alert": "OK",
      "vis_m": 6000,
      "fzfg": false,
      "metar_trigger": false,
      "taf_trigger": false,
      "metar": "METAR EDFH 221150Z 13009KT 100V160 6000 OVC002 00/M00 Q1010",
      "taf": "TAF EDFH 221100Z 2212/2312 13011KT 8000 OVC002"
    },
    {
      "icao": "EDJA",
      "alert": "OK",
      "vis_m": 7000,
      "fzfg": false,
      "metar_trigger": false,
      "taf_trigger": false,
      "metar": "METAR EDJA 221150Z COR 04006KT 7000 OVC003 M02/M02 Q1009",
      "taf": "TAF EDJA 221100Z 2212/2221 07005KT 7000 OVC003"
    },
    {
      "icao": "EDLW",
      "alert": "OK",
      "vis_m": 9999,
      "fzfg": false,
      "metar_trigger": false,
      "taf_trigger": false,
      "metar": "METAR EDLW 221150Z 04013KT CAVOK 06/02 Q1011",
      "taf": "TAF EDLW 221100Z 2212/2312 07008KT 9999 SCT020"
    },
    {
      "icao": "EDNY",
      "alert": "OK",
      "vis_m": 9999,
      "fzfg": false,
      "metar_trigger": false,
      "taf_trigger": false,
      "metar": "METAR EDNY 221150Z 36006KT 9999 BKN009 01/M01 Q1009",
      "taf": "TAF EDNY 221100Z 2212/2221 03005KT 9999 OVC007"
    },
    {
      "icao": "EDSB",
      "alert": "OK",
      "vis_m": 9000,
      "fzfg": false,
      "metar_trigger": false,
      "taf_trigger": false,
      "metar": "METAR EDSB 221150Z 04009KT 9000 BKN013 03/01 Q1010",
      "taf": "TAF EDSB 221100Z 2212/2312 03004KT 8000 SCT010"
    },
    {
      "icao": "EETN",
      "alert": "OK",
      "vis_m": 8000,
      "fzfg": false,
      "metar_trigger": false,
      "taf_trigger": false,
      "metar": "METAR EETN 221150Z VRB02KT 8000 -SHRASN SCT006 SCT015CB OVC020 01/00 Q1022 RESHRA RESHSN TEMPO 1500 SHSNRA",
      "taf": "TAF EETN 221130Z 2212/2312 36005KT 9999 SCT008 FEW015CB BKN025"
    },
    {
      "icao": "EFTU",
      "alert": "OK",
      "vis_m": 9999,
      "fzfg": false,
      "metar_trigger": false,
      "taf_trigger": false,
      "metar": "METAR EFTU 221150Z AUTO 35004KT 310V030 9999 OVC003 M01/M01 Q1023",
      "taf": "TAF EFTU 221128Z 2212/2312 34004KT 9999 SCT004 BKN020"
    },
    {
      "icao": "EGBB",
      "alert": "OK",
      "vis_m": 4500,
      "fzfg": false,
      "metar_trigger": false,
      "taf_trigger": false,
      "metar": "METAR EGBB 221150Z 09005KT 060V200 4500 HZ OVC006 09/08 Q1008",
      "taf": "TAF EGBB 221104Z 2212/2312 09006KT 9999 BKN012"
    },
    {
      "icao": "EGGP",
      "alert": "OK",
      "vis_m": 9999,
      "fzfg": false,
      "metar_trigger": false,
      "taf_trigger": false,
      "metar": "METAR EGGP 221120Z 10010KT 9999 SCT044 08/06 Q1008",
      "taf": "TAF EGGP 221058Z 2212/2312 08008KT 9999 FEW010 BKN030"
    },
    {
      "icao": "EGGW",
      "alert": "OK",
      "vis_m": 4900,
      "fzfg": false,
      "metar_trigger": false,
      "taf_trigger": false,
      "metar": "METAR EGGW 221150Z AUTO VRB02KT 4900 BR FEW003 SCT020 08/08 Q1008",
      "taf": "TAF EGGW 221057Z 2212/2312 10008KT 9999 FEW003 SCT020"
    },
    {
      "icao": "EGKK",
      "alert": "OK",
      "vis_m": 9999,
      "fzfg": false,
      "metar_trigger": false,
      "taf_trigger": false,
      "metar": "METAR EGKK 221150Z 13003KT 9999 SCT009 11/10 Q1008",
      "taf": "TAF EGKK 221058Z 2212/2318 12006KT 9999 SCT025"
    },
    {
      "icao": "EGNM",
      "alert": "OK",
      "vis_m": 1600,
      "fzfg": false,
      "metar_trigger": false,
      "taf_trigger": false,
      "metar": "METAR EGNM 221150Z 07005KT 1600 BR SCT002 BKN004 07/07 Q1009",
      "taf": "TAF EGNM 221057Z 2212/2312 07006KT 6000 SCT004 BKN007"
    },
    {
      "icao": "EGPD",
      "alert": "OK",
      "vis_m": 6000,
      "fzfg": false,
      "metar_trigger": false,
      "taf_trigger": false,
      "metar": "METAR EGPD 221150Z COR AUTO 12009KT 6000 OVC008 09/08 Q1013 NOSIG",
      "taf": "TAF EGPD 221057Z 2212/2312 14010KT 9999 SCT007 BKN012"
    },
    {
      "icao": "EGPF",
      "alert": "OK",
      "vis_m": 9999,
      "fzfg": false,
      "metar_trigger": false,
      "taf_trigger": false,
      "metar": "METAR EGPF 221150Z AUTO 07009KT 9999 SCT011 BKN016 OVC021 09/08 Q1010",
      "taf": "TAF EGPF 221057Z 2212/2312 07008KT 9999 FEW012 SCT025"
    },
    {
      "icao": "EHBK",
      "alert": "OK",
      "vis_m": 9999,
      "fzfg": false,
      "metar_trigger": false,
      "taf_trigger": false,
      "metar": "METAR EHBK 221155Z AUTO 06006KT 030V090 9999 NSC 06/03 Q1009 NOSIG",
      "taf": "TAF EHBK 221111Z 2212/2318 07007KT CAVOK"
    },
    {
      "icao": "EHEH",
      "alert": "OK",
      "vis_m": 9999,
      "fzfg": false,
      "metar_trigger": false,
      "taf_trigger": false,
      "metar": "METAR EHEH 221155Z AUTO 09007KT 050V140 9999 OVC140 06/02 Q1011 BLU NOSIG RMK TREND REMOTE BY EHWX",
      "taf": "TAF EHEH 221105Z 2212/2318 08007KT CAVOK"
    },
    {
      "icao": "EKBI",
      "alert": "OK",
      "vis_m": 9999,
      "fzfg": false,
      "metar_trigger": false,
      "taf_trigger": false,
      "metar": "METAR EKBI 221150Z AUTO 09014KT 060V120 9999 BKN016/// 05/02 Q1020",
      "taf": "TAF EKBI 221127Z 2212/2312 10012KT 9999 BKN015"
    },
    {
      "icao": "EKCH",
      "alert": "OK",
      "vis_m": 9999,
      "fzfg": false,
      "metar_trigger": false,
      "taf_trigger": false,
      "metar": "METAR EKCH 221150Z AUTO 11011KT 9999 OVC020/// 06/02 Q1023 NOSIG",
      "taf": "TAF EKCH 221127Z 2212/2312 10012KT 9999 BKN020"
    },
    {
      "icao": "ENAL",
      "alert": "OK",
      "vis_m": 9999,
      "fzfg": false,
      "metar_trigger": false,
      "taf_trigger": false,
      "metar": "METAR ENAL 221150Z 14008KT CAVOK 03/M02 Q1024",
      "taf": "TAF ENAL 221100Z 2212/2221 15008KT CAVOK"
    },
    {
      "icao": "ENBR",
      "alert": "OK",
      "vis_m": 9999,
      "fzfg": false,
      "metar_trigger": false,
      "taf_trigger": false,
      "metar": "METAR ENBR 221150Z VRB01KT CAVOK 01/M01 Q1022 NOSIG RMK WIND 1200FT 11010KT",
      "taf": "TAF ENBR 221100Z 2212/2312 VRB03KT CAVOK"
    },
    {
      "icao": "ENGM",
      "alert": "OK",
      "vis_m": 9999,
      "fzfg": false,
      "metar_trigger": false,
      "taf_trigger": false,
      "metar": "METAR ENGM 221150Z 04003KT 010V090 9999 FEW005 M03/M04 Q1026 NOSIG",
      "taf": "TAF ENGM 221100Z 2212/2312 36005KT 9999 FEW002"
    },
    {
      "icao": "ENHD",
      "alert": "OK",
      "vis_m": 9999,
      "fzfg": false,
      "metar_trigger": false,
      "taf_trigger": false,
      "metar": "METAR ENHD 221150Z 10005KT CAVOK 06/00 Q1021",
      "taf": "TAF ENHD 221100Z 2212/2221 09008KT CAVOK"
    },
    {
      "icao": "ENTC",
      "alert": "OK",
      "vis_m": 9999,
      "fzfg": false,
      "metar_trigger": false,
      "taf_trigger": false,
      "metar": "METAR ENTC 221150Z 24007KT 200V270 9999 -RA SCT008 BKN010 02/01 Q1026 TEMPO BKN020 RMK WIND 2600FT 25010KT",
      "taf": "TAF ENTC 221100Z 2212/2312 22010KT 9999 -DZRA FEW006 BKN014"
    },
    {
      "icao": "ENTO",
      "alert": "OK",
      "vis_m": 9999,
      "fzfg": false,
      "metar_trigger": false,
      "taf_trigger": false,
      "metar": "METAR ENTO 221150Z 01007KT CAVOK M01/M03 Q1026 NOSIG",
      "taf": "TAF ENTO 221100Z 2212/2312 01008KT CAVOK"
    },
    {
      "icao": "ENVA",
      "alert": "OK",
      "vis_m": 9999,
      "fzfg": false,
      "metar_trigger": false,
      "taf_trigger": false,
      "metar": "METAR ENVA 221150Z 07003KT 9999 FEW002 M02/M02 Q1026 NOSIG RMK WIND 670FT 15005KT",
      "taf": "TAF ENVA 221100Z 2212/2312 10005KT 9999 FEW001"
    },
    {
      "icao": "ENZV",
      "alert": "OK",
      "vis_m": 9999,
      "fzfg": false,
      "metar_trigger": false,
      "taf_trigger": false,
      "metar": "METAR ENZV 221150Z 28002KT CAVOK 04/01 Q1021 NOSIG",
      "taf": "TAF ENZV 221100Z 2212/2312 14005KT CAVOK"
    },
    {
      "icao": "EPGD",
      "alert": "OK",
      "vis_m": 9999,
      "fzfg": false,
      "metar_trigger": false,
      "taf_trigger": false,
      "metar": "METAR EPGD 221200Z 14005KT 110V180 9999 FEW015 OVC024 05/02 Q1023",
      "taf": "TAF EPGD 221130Z 2212/2312 VRB03KT 9999 BKN020"
    },
    {
      "icao": "EPKK",
      "alert": "OK",
      "vis_m": 4000,
      "fzfg": false,
      "metar_trigger": false,
      "taf_trigger": false,
      "metar": "METAR EPKK 221200Z 06008KT 4000 BR OVC003 02/02 Q1019",
      "taf": "TAF EPKK 221130Z 2212/2312 06010KT 4000 BR OVC003"
    },
    {
      "icao": "EPKT",
      "alert": "OK",
      "vis_m": 8000,
      "fzfg": false,
      "metar_trigger": false,
      "taf_trigger": false,
      "metar": "METAR EPKT 221200Z 08007KT 8000 OVC003 03/02 Q1019",
      "taf": "TAF EPKT 221130Z 2212/2312 07009KT 7000 OVC003"
    },
    {
      "icao": "EPLB",
      "alert": "OK",
      "vis_m": 9999,
      "fzfg": false,
      "metar_trigger": false,
      "taf_trigger": false,
      "metar": "METAR EPLB 221200Z 16004KT 9999 OVC021 02/M00 Q1022",
      "taf": "TAF EPLB 221130Z 2212/2312 16005KT 9999 OVC022"
    },
    {
      "icao": "EPMO",
      "alert": "OK",
      "vis_m": 9999,
      "fzfg": false,
      "metar_trigger": false,
      "taf_trigger": false,
      "metar": "METAR EPMO 221200Z 08006KT 060V120 9999 BKN018 03/01 Q1023",
      "taf": "TAF EPMO 221130Z 2212/2312 09005KT 9999 BKN020"
    },
    {
      "icao": "EPPO",
      "alert": "OK",
      "vis_m": 7000,
      "fzfg": false,
      "metar_trigger": false,
      "taf_trigger": false,
      "metar": "METAR EPPO 221200Z 09010KT 7000 OVC008 00/M02 Q1021",
      "taf": "TAF EPPO 221130Z 2212/2312 09010KT 9999 OVC009"
    },
    {
      "icao": "EPRA",
      "alert": "OK",
      "vis_m": 9999,
      "fzfg": false,
      "metar_trigger": false,
      "taf_trigger": false,
      "metar": "METAR EPRA 221200Z 13009KT 090V160 9999 OVC016 01/M02 Q1022",
      "taf": "TAF EPRA 221130Z 2212/2221 14008KT 9999 OVC018"
    },
    {
      "icao": "EPRZ",
      "alert": "OK",
      "vis_m": 9999,
      "fzfg": false,
      "metar_trigger": false,
      "taf_trigger": false,
      "metar": "METAR EPRZ 221200Z 08010KT 9999 OVC010 03/01 Q1021",
      "taf": "TAF EPRZ 221130Z 2212/2312 08010KT 9999 OVC015"
    },
    {
      "icao": "EPSC",
      "alert": "OK",
      "vis_m": 9999,
      "fzfg": false,
      "metar_trigger": false,
      "taf_trigger": false,
      "metar": "METAR EPSC 221200Z 10010KT 9999 BKN015 02/M01 Q1021",
      "taf": "TAF EPSC 221130Z 2212/2312 10010KT 9999 OVC012"
    },
    {
      "icao": "EPSY",
      "alert": "OK",
      "vis_m": 9999,
      "fzfg": false,
      "metar_trigger": false,
      "taf_trigger": false,
      "metar": "METAR EPSY 221200Z VRB02KT 9999 BKN026 05/01 Q1023",
      "taf": "TAF EPSY 221130Z 2212/2221 VRB02KT 9999 BKN025"
    },
    {
      "icao": "EPWA",
      "alert": "OK",
      "vis_m": 9999,
      "fzfg": false,
      "metar_trigger": false,
      "taf_trigger": false,
      "metar": "METAR EPWA 221200Z 11006KT 070V140 9999 BKN021 03/M00 Q1022 NOSIG",
      "taf": "TAF EPWA 221130Z 2212/2312 11006KT 9999 BKN022"
    },
    {
      "icao": "EPWR",
      "alert": "OK",
      "vis_m": 4500,
      "fzfg": false,
      "metar_trigger": false,
      "taf_trigger": false,
      "metar": "METAR EPWR 221200Z 08006KT 4500 BR OVC004 04/04 Q1019",
      "taf": "TAF EPWR 221130Z 2212/2312 09009KT 6000 OVC005"
    },
    {
      "icao": "ESGG",
      "alert": "OK",
      "vis_m": 9999,
      "fzfg": false,
      "metar_trigger": false,
      "taf_trigger": false,
      "metar": "METAR ESGG 221150Z 09005KT CAVOK 01/M01 Q1024",
      "taf": "TAF ESGG 221130Z 2212/2312 09006KT CAVOK"
    },
    {
      "icao": "ESKN",
      "alert": "OK",
      "vis_m": 9999,
      "fzfg": false,
      "metar_trigger": false,
      "taf_trigger": false,
      "metar": "METAR ESKN 221150Z 30003KT CAVOK M02/M02 Q1025",
      "taf": "TAF ESKN 221130Z 2212/2312 VRB03KT CAVOK"
    },
    {
      "icao": "ESMS",
      "alert": "OK",
      "vis_m": 9999,
      "fzfg": false,
      "metar_trigger": false,
      "taf_trigger": false,
      "metar": "METAR ESMS 221150Z 10009KT 9999 BKN021 06/02 Q1022",
      "taf": "TAF ESMS 221127Z 2212/2312 09010KT 9999 OVC015"
    },
    {
      "icao": "ESSA",
      "alert": "OK",
      "vis_m": 9999,
      "fzfg": false,
      "metar_trigger": false,
      "taf_trigger": false,
      "metar": "METAR ESSA 221150Z 31004KT 9999 BKN010 M01/M01 Q1025 TEMPO BKN009",
      "taf": "TAF ESSA 221130Z 2212/2312 33005KT 9999 SCT010"
    },
    {
      "icao": "EYKA",
      "alert": "OK",
      "vis_m": 9999,
      "fzfg": false,
      "metar_trigger": false,
      "taf_trigger": false,
      "metar": "METAR EYKA 221150Z VRB02KT 9999 OVC017 04/01 Q1022",
      "taf": "TAF EYKA 221100Z 2212/2312 VRB04KT 9000 SCT010 OVC020"
    },
    {
      "icao": "EYPA",
      "alert": "OK",
      "vis_m": 9999,
      "fzfg": false,
      "metar_trigger": false,
      "taf_trigger": false,
      "metar": "METAR EYPA 221150Z VRB01KT 9999 OVC032 06/01 Q1023",
      "taf": "TAF EYPA 221100Z 2212/2312 VRB04KT 9000 OVC020"
    },
    {
      "icao": "EYVI",
      "alert": "OK",
      "vis_m": 9999,
      "fzfg": false,
      "metar_trigger": false,
      "taf_trigger": false,
      "metar": "METAR EYVI 221150Z 32006KT 9999 -DZ OVC009 03/01 Q1021 NOSIG",
      "taf": "TAF EYVI 221115Z 2212/2312 31005KT 9000 OVC015"
    },
    {
      "icao": "GCFV",
      "alert": "OK",
      "vis_m": 9999,
      "fzfg": false,
      "metar_trigger": false,
      "taf_trigger": false,
      "metar": "METAR GCFV 221200Z 02013KT 9999 FEW020 19/13 Q1020",
      "taf": "TAF GCFV 220800Z 2209/2309 02015KT 9999 SCT035 TX21/2214Z TN15/2306Z"
    },
    {
      "icao": "GCLP",
      "alert": "OK",
      "vis_m": 9999,
      "fzfg": false,
      "metar_trigger": false,
      "taf_trigger": false,
      "metar": "METAR GCLP 221200Z 03020KT 9999 BKN020 19/16 Q1021 NOSIG",
      "taf": "TAF GCLP 220800Z 2209/2309 02017KT 9999 SCT020 BKN035 TX20/2214Z TN16/2306Z"
    },
    {
      "icao": "GCTS",
      "alert": "OK",
      "vis_m": 9999,
      "fzfg": false,
      "metar_trigger": false,
      "taf_trigger": false,
      "metar": "METAR GCTS 221200Z 07008KT 010V140 9999 SCT030 19/13 Q1021 NOSIG",
      "taf": "TAF GCTS 220800Z 2209/2309 06015KT 9999 SCT040 TX24/2214Z TN15/2306Z"
    },
    {
      "icao": "GMAD",
      "alert": "OK",
      "vis_m": 9999,
      "fzfg": false,
      "metar_trigger": false,
      "taf_trigger": false,
      "metar": "METAR GMAD 221200Z 27009KT 240V310 9999 FEW026 22/04 Q1015 NOSIG",
      "taf": "TAF GMAD 221100Z 2212/2318 23013KT 9999 FEW026"
    },
    {
      "icao": "GMMN",
      "alert": "OK",
      "vis_m": 9999,
      "fzfg": false,
      "metar_trigger": false,
      "taf_trigger": false,
      "metar": "METAR GMMN 221200Z 26013KT 9999 BKN030 16/12 Q1017 NOSIG",
      "taf": "TAF GMMN 221100Z 2212/2318 24008KT 9999 BKN030"
    },
    {
      "icao": "GMMX",
      "alert": "OK",
      "vis_m": 8000,
      "fzfg": false,
      "metar_trigger": false,
      "taf_trigger": false,
      "metar": "METAR GMMX 221200Z 25005KT 200V280 8000 SCT016 SCT020 14/08 Q1018 NOSIG",
      "taf": "TAF GMMX 221100Z 2212/2318 24005KT 8000 SCT020"
    },
    {
      "icao": "HEGN",
      "alert": "OK",
      "vis_m": 9999,
      "fzfg": false,
      "metar_trigger": false,
      "taf_trigger": false,
      "metar": "METAR HEGN 221100Z 09006KT CAVOK 24/15 Q1013 NOSIG",
      "taf": "TAF HEGN 221100Z 2212/2318 13008KT CAVOK"
    },
    {
      "icao": "HEMA",
      "alert": "OK",
      "vis_m": 9999,
      "fzfg": false,
      "metar_trigger": false,
      "taf_trigger": false,
      "metar": "METAR HEMA 221100Z 03007KT 9999 FEW020 24/13 Q1014 NOSIG",
      "taf": "TAF HEMA 221100Z 2212/2318 06008KT CAVOK"
    },
    {
      "icao": "HESH",
      "alert": "OK",
      "vis_m": 9999,
      "fzfg": false,
      "metar_trigger": false,
      "taf_trigger": false,
      "metar": "METAR HESH 221100Z 08006KT CAVOK 25/13 Q1014 NOSIG",
      "taf": "TAF HESH 221100Z 2212/2318 20008KT CAVOK"
    },
    {
      "icao": "HESX",
      "alert": "OK",
      "vis_m": 9999,
      "fzfg": false,
      "metar_trigger": false,
      "taf_trigger": false,
      "metar": "METAR HESX 221100Z 22012KT CAVOK 21/00 Q1013 NOSIG",
      "taf": "TAF HESX 221100Z 2212/2318 23012KT CAVOK"
    },
    {
      "icao": "LATI",
      "alert": "OK",
      "vis_m": 9999,
      "fzfg": false,
      "metar_trigger": false,
      "taf_trigger": false,
      "metar": "METAR LATI 221150Z 34005KT 300V020 CAVOK 16/03 Q1014 NOSIG",
      "taf": "TAF LATI 221100Z 2212/2312 VRB05KT CAVOK TX17/2212Z TN03/2305Z"
    },
    {
      "icao": "LBPD",
      "alert": "OK",
      "vis_m": 6000,
      "fzfg": false,
      "metar_trigger": false,
      "taf_trigger": false,
      "metar": "METAR LBPD 221200Z AUTO 11004KT 6000 FEW009/// SCT023/// OVC033/// 07/07 Q1020 NOSIG",
      "taf": "TAF LBPD 221100Z 2212/2312 VRB04KT 7000 SCT010 BKN030"
    },
    {
      "icao": "LBSF",
      "alert": "OK",
      "vis_m": 5000,
      "fzfg": false,
      "metar_trigger": false,
      "taf_trigger": false,
      "metar": "METAR LBSF 221200Z 33003KT 300V020 5000 BR SCT034 05/02 Q1019 NOSIG",
      "taf": "TAF LBSF 221100Z 2212/2312 10010KT 6000 FEW010 SCT025"
    },
    {
      "icao": "LBWN",
      "alert": "OK",
      "vis_m": 9999,
      "fzfg": false,
      "metar_trigger": false,
      "taf_trigger": false,
      "metar": "METAR LBWN 221200Z 35008KT 9999 OVC009 06/05 Q1021 NOSIG",
      "taf": "TAF LBWN 221100Z 2212/2312 35010KT 9999 BKN012 OVC020"
    },
    {
      "icao": "LCLK",
      "alert": "OK",
      "vis_m": 9999,
      "fzfg": false,
      "metar_trigger": false,
      "taf_trigger": false,
      "metar": "METAR LCLK 221200Z 09015KT 9999 SCT020 FEW025TCU SCT045 19/16 Q1014 NOSIG",
      "taf": "TAF LCLK 221130Z 2212/2312 07013KT 9999 FEW025TCU SCT035"
    },
    {
      "icao": "LCPH",
      "alert": "OK",
      "vis_m": 9999,
      "fzfg": false,
      "metar_trigger": false,
      "taf_trigger": false,
      "metar": "METAR LCPH 221200Z 15016KT 090V160 9999 FEW025 SCT035 21/13 Q1013 NOSIG",
      "taf": "TAF LCPH 221130Z 2212/2312 14015KT 9999 FEW025 SCT035"
    },
    {
      "icao": "LEAL",
      "alert": "OK",
      "vis_m": 9999,
      "fzfg": false,
      "metar_trigger": false,
      "taf_trigger": false,
      "metar": "METAR LEAL 221200Z VRB04KT 9999 FEW025 12/01 Q1009 NOSIG",
      "taf": "TAF LEAL 221100Z 2212/2312 30010KT 9999 FEW040 TX14/2213Z TN08/2307Z"
    },
    {
      "icao": "LEBB",
      "alert": "OK",
      "vis_m": 9999,
      "fzfg": false,
      "metar_trigger": false,
      "taf_trigger": false,
      "metar": "METAR LEBB 221200Z 20003KT 150V260 9999 BKN048 BKN057 OVC068 10/03 Q1007 TEMPO 3000 RA",
      "taf": "TAF LEBB 221100Z 2212/2312 22008KT 9999 BKN035 TX11/2212Z TN06/2307Z"
    },
    {
      "icao": "LEBL",
      "alert": "OK",
      "vis_m": 9999,
      "fzfg": false,
      "metar_trigger": false,
      "taf_trigger": false,
      "metar": "METAR LEBL 221200Z COR 31008G20KT 250V350 CAVOK 10/03 Q1004 NOSIG",
      "taf": "TAF LEBL 221100Z 2212/2312 32004KT 9999 FEW020 TX11/2213Z TN07/2306Z"
    },
    {
      "icao": "LECH",
      "alert": "OK",
      "vis_m": 9000,
      "fzfg": false,
      "metar_trigger": false,
      "taf_trigger": false,
      "metar": "METAR LECH 221200Z AUTO 33010KT 290V020 9000 NSC 10/M02 Q1005",
      "taf": ""
    },
    {
      "icao": "LEMD",
      "alert": "OK",
      "vis_m": 9999,
      "fzfg": false,
      "metar_trigger": false,
      "taf_trigger": false,
      "metar": "METAR LEMD 221200Z 02003KT 350V050 9999 SCT010 BKN015 03/02 Q1009 NOSIG",
      "taf": "TAF LEMD 221100Z 2212/2318 VRB04KT 9999 SCT020 TX07/2215Z TNM01/2306Z"
    },
    {
      "icao": "LEMG",
      "alert": "OK",
      "vis_m": 9999,
      "fzfg": false,
      "metar_trigger": false,
      "taf_trigger": false,
      "metar": "METAR LEMG 221200Z 32011KT 9999 FEW020 10/03 Q1013 NOSIG",
      "taf": "TAF LEMG 221100Z 2212/2312 31012KT 9999 FEW040 TX12/2214Z TN07/2306Z"
    },
    {
      "icao": "LEVC",
      "alert": "OK",
      "vis_m": 9999,
      "fzfg": false,
      "metar_trigger": false,
      "taf_trigger": false,
      "metar": "METAR LEVC 221200Z 26017KT 9999 FEW030 11/01 Q1007 NOSIG",
      "taf": "TAF LEVC 221100Z 2212/2312 27010KT 9999 FEW040 TX13/2213Z TN07/2307Z"
    },
    {
      "icao": "LEXJ",
      "alert": "OK",
      "vis_m": 9999,
      "fzfg": false,
      "metar_trigger": false,
      "taf_trigger": false,
      "metar": "METAR LEXJ 221200Z 23009KT 200V260 9999 FEW070 SCT080 11/03 Q1006",
      "taf": "TAF LEXJ 220800Z 2209/2309 25009KT 9999 SCT040 TX11/2213Z TN07/2307Z"
    },
    {
      "icao": "LEZG",
      "alert": "OK",
      "vis_m": 9999,
      "fzfg": false,
      "metar_trigger": false,
      "taf_trigger": false,
      "metar": "METAR LEZG 221200Z 30009KT 260V340 9999 FEW060 09/01 Q1007 NOSIG",
      "taf": "TAF LEZG 221100Z 2212/2312 30010KT 9999 FEW040 TX09/2214Z TN03/2306Z"
    },
    {
      "icao": "LEZL",
      "alert": "OK",
      "vis_m": 9999,
      "fzfg": false,
      "metar_trigger": false,
      "taf_trigger": false,
      "metar": "METAR LEZL 221200Z 19004KT 150V260 CAVOK 10/06 Q1014 NOSIG",
      "taf": "TAF LEZL 220800Z 2209/2309 VRB02KT CAVOK TX15/2215Z TN07/2307Z"
    },
    {
      "icao": "LFBD",
      "alert": "OK",
      "vis_m": 9999,
      "fzfg": false,
      "metar_trigger": false,
      "taf_trigger": false,
      "metar": "METAR LFBD 221200Z AUTO 16010KT 9999 FEW035 BKN043 BKN150 07/05 Q1006 NOSIG",
      "taf": "TAF LFBD 221100Z 2212/2318 18010KT 9999 BKN040 TX10/2214Z TN04/2302Z"
    },
    {
      "icao": "LFLL",
      "alert": "OK",
      "vis_m": 7000,
      "fzfg": false,
      "metar_trigger": false,
      "taf_trigger": false,
      "metar": "METAR LFLL 221200Z VRB02KT 7000 -RA FEW006 BKN060 BKN090 09/08 Q1006 NOSIG",
      "taf": "TAF LFLL 221100Z 2212/2318 33004KT 7000 FEW006 BKN100"
    },
    {
      "icao": "LFLS",
      "alert": "OK",
      "vis_m": 9000,
      "fzfg": false,
      "metar_trigger": false,
      "taf_trigger": false,
      "metar": "METAR LFLS 221200Z AUTO 13003KT 9000 -RA ///TCU 07/06 Q1006 TEMPO 4000 RA BKN045",
      "taf": "TAF LFLS 220800Z 2209/2309 08006KT CAVOK"
    },
    {
      "icao": "LFMN",
      "alert": "OK",
      "vis_m": 9999,
      "fzfg": false,
      "metar_trigger": false,
      "taf_trigger": false,
      "metar": "METAR LFMN 221200Z 04015G25KT 010V080 9999 -RA BKN045 14/07 Q1008 NOSIG",
      "taf": "TAF LFMN 220800Z 2209/2315 07016KT 9999 BKN045"
    },
    {
      "icao": "LFOB",
      "alert": "OK",
      "vis_m": 9999,
      "fzfg": false,
      "metar_trigger": false,
      "taf_trigger": false,
      "metar": "METAR LFOB 221200Z AUTO 10006KT 9999 SCT010 08/07 Q1008 TEMPO BKN011",
      "taf": "TAF LFOB 221100Z 2212/2312 07006KT CAVOK"
    },
    {
      "icao": "LFPO",
      "alert": "OK",
      "vis_m": 9999,
      "fzfg": false,
      "metar_trigger": false,
      "taf_trigger": false,
      "metar": "METAR LFPO 221200Z 08005KT 9999 SCT008 SCT110 BKN180 09/08 Q1008 NOSIG",
      "taf": "TAF LFPO 221100Z 2212/2318 10004KT 9999 FEW013 SCT110 BKN180"
    },
    {
      "icao": "LFSB",
      "alert": "OK",
      "vis_m": 9999,
      "fzfg": false,
      "metar_trigger": false,
      "taf_trigger": false,
      "metar": "METAR LFSB 221200Z AUTO VRB01KT 9999 OVC007 04/02 Q1009 TEMPO 3000 BR OVC003",
      "taf": "TAF LFSB 221100Z 2212/2312 35004KT 9999 BKN007"
    },
    {
      "icao": "LGAV",
      "alert": "OK",
      "vis_m": 9999,
      "fzfg": false,
      "metar_trigger": false,
      "taf_trigger": false,
      "metar": "METAR LGAV 221150Z 04014KT 9999 FEW025 SCT040 BKN070 15/08 Q1015 NOSIG",
      "taf": "TAF LGAV 221100Z 2212/2312 04015KT 9999 SCT035 BKN070"
    },
    {
      "icao": "LGTS",
      "alert": "OK",
      "vis_m": 9999,
      "fzfg": false,
      "metar_trigger": false,
      "taf_trigger": false,
      "metar": "METAR LGTS 221150Z 26005KT 9999 FEW018 SCT050 14/07 Q1018 NOSIG",
      "taf": "TAF LGTS 221100Z 2212/2312 VRB03KT 9999 FEW010 SCT025"
    },
    {
      "icao": "LHBP",
      "alert": "OK",
      "vis_m": 5000,
      "fzfg": false,
      "metar_trigger": false,
      "taf_trigger": false,
      "metar": "METAR LHBP 221200Z 15006KT 5000 -DZ BR BKN004 OVC014 04/03 Q1020 TEMPO 6000 NSW OVC006",
      "taf": "TAF LHBP 221115Z 2212/2312 12007KT 8000 SCT006 OVC015"
    },
    {
      "icao": "LHDC",
      "alert": "OK",
      "vis_m": 3300,
      "fzfg": false,
      "metar_trigger": false,
      "taf_trigger": false,
      "metar": "METAR LHDC 221145Z AUTO 24003KT 3300 BR OVC004 06/05 Q1020 TEMPO OVC008",
      "taf": "TAF LHDC 221115Z 2212/2221 VRB03KT 2500 BR OVC003"
    },
    {
      "icao": "LIBD",
      "alert": "OK",
      "vis_m": 9999,
      "fzfg": false,
      "metar_trigger": false,
      "taf_trigger": false,
      "metar": "METAR LIBD 221150Z 03004KT 350V070 CAVOK 14/11 Q1014",
      "taf": "TAF LIBD 221100Z 2212/2312 11007KT 9999 FEW040"
    },
    {
      "icao": "LIBG",
      "alert": "OK",
      "vis_m": 9999,
      "fzfg": false,
      "metar_trigger": false,
      "taf_trigger": false,
      "metar": "METAR LIBG 221150Z 11007KT 9999 FEW020 17/13 Q1013",
      "taf": "TAF LIBG 221100Z 2212/2221 08007KT 9999 FEW040"
    },
    {
      "icao": "LIBP",
      "alert": "OK",
      "vis_m": 9999,
      "fzfg": false,
      "metar_trigger": false,
      "taf_trigger": false,
      "metar": "METAR LIBP 221150Z AUTO 07002KT 9999 BKN025/// BKN093/// 13/08 Q1014",
      "taf": "TAF LIBP 221100Z 2212/2312 VRB04KT 9999 FEW010 BKN030"
    },
    {
      "icao": "LIBR",
      "alert": "OK",
      "vis_m": 9999,
      "fzfg": false,
      "metar_trigger": false,
      "taf_trigger": false,
      "metar": "METAR LIBR 221150Z 05005KT 9999 SCT030 15/12 Q1014",
      "taf": "TAF LIBR 221100Z 2212/2312 11010KT 9999 SCT020"
    },
    {
      "icao": "LICA",
      "alert": "OK",
      "vis_m": 9999,
      "fzfg": false,
      "metar_trigger": false,
      "taf_trigger": false,
      "metar": "METAR LICA 221150Z AUTO 08015KT 9999 BKN045/// 17/12 Q1011",
      "taf": "TAF LICA 221100Z 2212/2312 08018G28KT 9999 BKN050"
    },
    {
      "icao": "LICC",
      "alert": "OK",
      "vis_m": 9999,
      "fzfg": false,
      "metar_trigger": false,
      "taf_trigger": false,
      "metar": "METAR LICC 221150Z 09003KT 050V140 9999 SCT025 17/16 Q1011",
      "taf": "TAF LICC 221100Z 2212/2312 07012KT 9999 SCT040"
    },
    {
      "icao": "LICJ",
      "alert": "OK",
      "vis_m": 9999,
      "fzfg": false,
      "metar_trigger": false,
      "taf_trigger": false,
      "metar": "METAR LICJ 221150Z 05007KT 9999 FEW065 17/13 Q1010",
      "taf": "TAF LICJ 221100Z 2212/2312 19012KT 9999 SCT040"
    },
    {
      "icao": "LIMC",
      "alert": "OK",
      "vis_m": 9999,
      "fzfg": false,
      "metar_trigger": false,
      "taf_trigger": false,
      "metar": "METAR LIMC 221150Z VRB02KT 9999 BKN060 10/05 Q1015 NOSIG",
      "taf": "TAF LIMC 221100Z 2212/2318 VRB03KT 9999 BKN040"
    },
    {
      "icao": "LIME",
      "alert": "OK",
      "vis_m": 9999,
      "fzfg": false,
      "metar_trigger": false,
      "taf_trigger": false,
      "metar": "METAR LIME 221150Z 22004KT 190V250 9999 SCT055 SCT100 09/05 Q1015 NOSIG",
      "taf": "TAF LIME 221100Z 2212/2312 VRB03KT 8000 SCT050"
    },
    {
      "icao": "LIMF",
      "alert": "OK",
      "vis_m": 4500,
      "fzfg": false,
      "metar_trigger": false,
      "taf_trigger": false,
      "metar": "METAR LIMF 221150Z 35005KT 4500 -RA BR OVC030 08/07 Q1015",
      "taf": "TAF LIMF 221100Z 2212/2312 VRB03KT 8000 SCT030 BKN050"
    },
    {
      "icao": "LIMJ",
      "alert": "OK",
      "vis_m": 9999,
      "fzfg": false,
      "metar_trigger": false,
      "taf_trigger": false,
      "metar": "METAR LIMJ 221150Z 03015KT CAVOK 13/06 Q1012",
      "taf": "TAF LIMJ 221100Z 2212/2312 03015KT 9999 BKN050"
    },
    {
      "icao": "LIPE",
      "alert": "OK",
      "vis_m": 4000,
      "fzfg": false,
      "metar_trigger": false,
      "taf_trigger": false,
      "metar": "METAR LIPE 221150Z 31003KT 4000 BR FEW005 BKN010 08/07 Q1015",
      "taf": "TAF LIPE 221100Z 2212/2312 VRB04KT 5000 BR BKN020"
    },
    {
      "icao": "LIPH",
      "alert": "OK",
      "vis_m": 9999,
      "fzfg": false,
      "metar_trigger": false,
      "taf_trigger": false,
      "metar": "METAR LIPH 221150Z 02004KT 340V050 9999 BKN065 09/04 Q1015",
      "taf": "TAF LIPH 221100Z 2212/2312 05005KT 9999 FEW050"
    },
    {
      "icao": "LIPQ",
      "alert": "OK",
      "vis_m": 9999,
      "fzfg": false,
      "metar_trigger": false,
      "taf_trigger": false,
      "metar": "METAR LIPQ 221150Z AUTO 05006KT 9999 FEW056/// OVC079/// 11/03 Q1015",
      "taf": "TAF LIPQ 221100Z 2212/2312 07006KT 9999 FEW060"
    },
    {
      "icao": "LIPR",
      "alert": "OK",
      "vis_m": 4000,
      "fzfg": false,
      "metar_trigger": false,
      "taf_trigger": false,
      "metar": "METAR LIPR 221150Z 30007KT 4000 BR SCT015 BKN020 10/09 Q1014",
      "taf": "TAF LIPR 221100Z 2212/2312 30007KT 3000 BR BKN010"
    },
    {
      "icao": "LIPX",
      "alert": "OK",
      "vis_m": 9999,
      "fzfg": false,
      "metar_trigger": false,
      "taf_trigger": false,
      "metar": "METAR LIPX 221150Z 22004KT 9999 BKN075 10/05 Q1015",
      "taf": "TAF LIPX 221100Z 2212/2312 VRB03KT 9999 BKN040"
    },
    {
      "icao": "LIPY",
      "alert": "OK",
      "vis_m": 9000,
      "fzfg": false,
      "metar_trigger": false,
      "taf_trigger": false,
      "metar": "METAR LIPY 221150Z AUTO 33004KT 310V010 9000 FEW009/// SCT017/// 12/11 Q1014",
      "taf": "TAF LIPY 221100Z 2212/2312 VRB05KT 6000 BKN040"
    },
    {
      "icao": "LIPZ",
      "alert": "OK",
      "vis_m": 9999,
      "fzfg": false,
      "metar_trigger": false,
      "taf_trigger": false,
      "metar": "METAR LIPZ 221150Z 02007KT 9999 -RA SCT060 08/05 Q1015 NOSIG",
      "taf": "TAF LIPZ 221100Z 2212/2318 03007KT 9999 SCT050"
    },
    {
      "icao": "LIRF",
      "alert": "OK",
      "vis_m": 9999,
      "fzfg": false,
      "metar_trigger": false,
      "taf_trigger": false,
      "metar": "METAR LIRF 221150Z 06009KT 9999 FEW050 15/07 Q1010 NOSIG",
      "taf": "TAF LIRF 221100Z 2212/2318 06010KT 9999 SCT040"
    },
    {
      "icao": "LIRN",
      "alert": "OK",
      "vis_m": 9999,
      "fzfg": false,
      "metar_trigger": false,
      "taf_trigger": false,
      "metar": "METAR LIRN 221150Z VRB02KT CAVOK 17/07 Q1011 NOSIG",
      "taf": "TAF LIRN 221100Z 2212/2312 05005KT 9999 FEW040"
    },
    {
      "icao": "LIRP",
      "alert": "OK",
      "vis_m": 9999,
      "fzfg": false,
      "metar_trigger": false,
      "taf_trigger": false,
      "metar": "METAR LIRP 221145Z 10012KT 9999 SCT070 15/07 Q1011 NOSIG",
      "taf": "TAF LIRP 221100Z 2212/2312 11007KT 9999 SCT060"
    },
    {
      "icao": "LIRZ",
      "alert": "OK",
      "vis_m": 9999,
      "fzfg": false,
      "metar_trigger": false,
      "taf_trigger": false,
      "metar": "METAR LIRZ 221150Z AUTO VRB02KT 9999 FEW054/// BKN076/// 07/07 Q1012",
      "taf": ""
    },
    {
      "icao": "LJLJ",
      "alert": "OK",
      "vis_m": 9999,
      "fzfg": false,
      "metar_trigger": false,
      "taf_trigger": false,
      "metar": "METAR LJLJ 221200Z 12003KT 100V160 9999 SCT005 OVC015 03/02 Q1017 NOSIG",
      "taf": "TAF LJLJ 221100Z 2212/2312 VRB02KT 3500 -DZ BR FEW003 OVC010"
    },
    {
      "icao": "LKMT",
      "alert": "OK",
      "vis_m": 4100,
      "fzfg": false,
      "metar_trigger": false,
      "taf_trigger": false,
      "metar": "METAR LKMT 221200Z 27004KT 4100 BR OVC003 02/02 Q1019 NOSIG",
      "taf": "TAF LKMT 221100Z 2212/2312 04004KT 2800 -DZ BR OVC005"
    },
    {
      "icao": "LKPR",
      "alert": "OK",
      "vis_m": 9999,
      "fzfg": false,
      "metar_trigger": false,
      "taf_trigger": false,
      "metar": "METAR LKPR 221200Z 10007KT 080V140 9999 -DZ SCT007 OVC012 03/02 Q1014 NOSIG",
      "taf": "TAF LKPR 221100Z 2212/2318 11010KT 9999 SCT004 OVC012"
    },
    {
      "icao": "LLBG",
      "alert": "OK",
      "vis_m": 9999,
      "fzfg": false,
      "metar_trigger": false,
      "taf_trigger": false,
      "metar": "METAR LLBG 221150Z 29009KT CAVOK 23/08 Q1013 NOSIG",
      "taf": "TAF LLBG 221106Z 2212/2312 31008KT CAVOK"
    },
    {
      "icao": "LMML",
      "alert": "OK",
      "vis_m": 9999,
      "fzfg": false,
      "metar_trigger": false,
      "taf_trigger": false,
      "metar": "METAR LMML 221145Z VRB04KT 9999 FEW023 17/13 Q1011 NOSIG",
      "taf": "TAF LMML 221100Z 2212/2312 VRB06KT 9999 FEW020"
    },
    {
      "icao": "LOWW",
      "alert": "OK",
      "vis_m": 9999,
      "fzfg": false,
      "metar_trigger": false,
      "taf_trigger": false,
      "metar": "METAR LOWW 221150Z 14015KT 9999 FEW008 SCT011 BKN015 04/02 Q1017 NOSIG",
      "taf": "TAF LOWW 221115Z 2212/2318 15015KT 9000 BKN006 TX04/2301Z TN03/2215Z"
    },
    {
      "icao": "LPFR",
      "alert": "OK",
      "vis_m": 9999,
      "fzfg": false,
      "metar_trigger": false,
      "taf_trigger": false,
      "metar": "METAR LPFR 221200Z 28009KT 240V300 9999 FEW020 13/07 Q1015",
      "taf": ""
    },
    {
      "icao": "LPMA",
      "alert": "OK",
      "vis_m": 9999,
      "fzfg": false,
      "metar_trigger": false,
      "taf_trigger": false,
      "metar": "METAR LPMA 221200Z VRB06KT 9999 FEW015 19/10 Q1023",
      "taf": ""
    },
    {
      "icao": "LPPR",
      "alert": "OK",
      "vis_m": 9999,
      "fzfg": false,
      "metar_trigger": false,
      "taf_trigger": false,
      "metar": "METAR LPPR 221200Z 19006KT 9999 VCSH FEW015 FEW018TCU 10/07 Q1012",
      "taf": ""
    },
    {
      "icao": "LPPS",
      "alert": "OK",
      "vis_m": 9999,
      "fzfg": false,
      "metar_trigger": false,
      "taf_trigger": false,
      "metar": "METAR LPPS 221200Z 01011KT 9999 SCT015 FEW018TCU 18/13 Q1023",
      "taf": ""
    },
    {
      "icao": "LPPT",
      "alert": "OK",
      "vis_m": 9999,
      "fzfg": false,
      "metar_trigger": false,
      "taf_trigger": false,
      "metar": "METAR LPPT 221200Z 31006KT 270V340 9999 VCSH FEW025 SCT035 13/08 Q1014",
      "taf": ""
    },
    {
      "icao": "LQBK",
      "alert": "OK",
      "vis_m": 7000,
      "fzfg": false,
      "metar_trigger": false,
      "taf_trigger": false,
      "metar": "METAR LQBK 221200Z VRB02KT 7000 BKN005 OVC015 05/03 Q1019 NOSIG",
      "taf": "TAF LQBK 221100Z 2212/2312 VRB02KT 7000 BKN005 OVC015 TX06/2213Z TN01/2305Z"
    },
    {
      "icao": "LQSA",
      "alert": "OK",
      "vis_m": 9999,
      "fzfg": false,
      "metar_trigger": false,
      "taf_trigger": false,
      "metar": "METAR LQSA 221200Z 26003KT 190V300 9999 OVC013 02/M00 Q1017 NOSIG",
      "taf": "TAF LQSA 221100Z 2212/2312 VRB02KT 9999 BKN012 TX04/2213Z TNM04/2305Z"
    },
    {
      "icao": "LQTZ",
      "alert": "OK",
      "vis_m": 9999,
      "fzfg": false,
      "metar_trigger": false,
      "taf_trigger": false,
      "metar": "METAR LQTZ 221200Z VRB02KT 9999 SCT015 BKN035 05/02 Q1018",
      "taf": "TAF LQTZ 221100Z 2212/2312 VRB02KT 9999 SCT015 BKN035 TX05/2213Z TNM01/2305Z"
    },
    {
      "icao": "LRBC",
      "alert": "OK",
      "vis_m": 4000,
      "fzfg": false,
      "metar_trigger": false,
      "taf_trigger": false,
      "metar": "METAR LRBC 221200Z 00000KT 4000 BR OVC007 04/04 Q1022",
      "taf": "TAF LRBC 221100Z 2212/2221 VRB04KT 5000 BR OVC005"
    },
    {
      "icao": "LRBS",
      "alert": "OK",
      "vis_m": 9999,
      "fzfg": false,
      "metar_trigger": false,
      "taf_trigger": false,
      "metar": "METAR LRBS 221200Z 08006KT 9999 OVC007 03/03 Q1022 NOSIG",
      "taf": "TAF LRBS 221100Z 2212/2312 06006KT 9999 BKN005 OVC010"
    },
    {
      "icao": "LRBV",
      "alert": "OK",
      "vis_m": 700,
      "fzfg": true,
      "metar_trigger": false,
      "taf_trigger": false,
      "metar": "METAR LRBV 221200Z VRB03KT 0700 R03/P2000N FG VV002 00/M00 Q1019",
      "taf": "TAF LRBV 221100Z 2212/2221 VRB04KT 0350 FZFG VV002"
    },
    {
      "icao": "LRCL",
      "alert": "OK",
      "vis_m": 8000,
      "fzfg": false,
      "metar_trigger": false,
      "taf_trigger": false,
      "metar": "METAR LRCL 221200Z 11004KT 8000 OVC006 03/01 Q1020",
      "taf": "TAF LRCL 221100Z 2212/2221 11006KT 9999 OVC005"
    },
    {
      "icao": "LRCV",
      "alert": "OK",
      "vis_m": 9999,
      "fzfg": false,
      "metar_trigger": false,
      "taf_trigger": false,
      "metar": "METAR LRCV 221200Z 10003KT 080V140 9999 OVC011 06/04 Q1021",
      "taf": "TAF LRCV 221100Z 2212/2221 09006KT 9999 OVC010"
    },
    {
      "icao": "LRIA",
      "alert": "OK",
      "vis_m": 8000,
      "fzfg": false,
      "metar_trigger": false,
      "taf_trigger": false,
      "metar": "METAR LRIA 221200Z 00000KT 8000 BKN008 OVC012 04/04 Q1022",
      "taf": "TAF LRIA 221100Z 2212/2221 VRB04KT 5000 BR OVC005"
    },
    {
      "icao": "LROP",
      "alert": "OK",
      "vis_m": 9999,
      "fzfg": false,
      "metar_trigger": false,
      "taf_trigger": false,
      "metar": "METAR LROP 221200Z 11004KT 9999 BKN007 OVC008 04/03 Q1022 NOSIG",
      "taf": "TAF LROP 221100Z 2212/2312 06006KT 9999 BKN005 OVC010"
    },
    {
      "icao": "LRSB",
      "alert": "OK",
      "vis_m": 400,
      "fzfg": true,
      "metar_trigger": false,
      "taf_trigger": false,
      "metar": "METAR LRSB 221200Z 27002KT 0400 R27/1300U FZFG VV002 M01/M01 Q1019",
      "taf": "TAF LRSB 221100Z 2212/2312 VRB04KT 0350 FZFG VV001"
    },
    {
      "icao": "LRSM",
      "alert": "OK",
      "vis_m": 7000,
      "fzfg": false,
      "metar_trigger": false,
      "taf_trigger": false,
      "metar": "METAR LRSM 221200Z 08002KT 7000 BKN010 OVC015 06/05 Q1020",
      "taf": "TAF LRSM 221100Z 2212/2221 VRB04KT 5000 BR BKN015"
    },
    {
      "icao": "LRSV",
      "alert": "OK",
      "vis_m": 3000,
      "fzfg": false,
      "metar_trigger": false,
      "taf_trigger": false,
      "metar": "METAR LRSV 221200Z 06006KT 3000 -DZ BR OVC003 01/01 Q1021",
      "taf": "TAF LRSV 221100Z 2212/2221 VRB04KT 1500 -DZ BR OVC002"
    },
    {
      "icao": "LRTM",
      "alert": "OK",
      "vis_m": 3800,
      "fzfg": false,
      "metar_trigger": false,
      "taf_trigger": false,
      "metar": "METAR LRTM 221200Z VRB01KT 3800 -DZ BR SCT002 SCT004 BKN006 02/02 Q1020",
      "taf": "TAF LRTM 221100Z 2212/2221 VRB04KT 3000 -DZ BR BKN002 OVC005"
    },
    {
      "icao": "LRTR",
      "alert": "OK",
      "vis_m": 9999,
      "fzfg": false,
      "metar_trigger": false,
      "taf_trigger": false,
      "metar": "METAR LRTR 221200Z 10004KT 9999 BKN006 OVC013 05/05 Q1020",
      "taf": "TAF LRTR 221100Z 2212/2312 VRB04KT 9999 BKN005 OVC010"
    },
    {
      "icao": "LTAC",
      "alert": "OK",
      "vis_m": 9999,
      "fzfg": false,
      "metar_trigger": false,
      "taf_trigger": false,
      "metar": "METAR LTAC 221150Z VRB02KT 9999 BKN035 BKN080 09/01 Q1015 RERA NOSIG RMK RWY21C 29004KT RWY03L 33003KT 290V350 RWY21R 27003KT 220V320 RWY03R 27003KT 190V300 RWY21L 30003KT 260V330",
      "taf": "TAF LTAC 221040Z 2212/2312 VRB02KT 9999 SCT040 BKN100"
    },
    {
      "icao": "LTFM",
      "alert": "OK",
      "vis_m": 9999,
      "fzfg": false,
      "metar_trigger": false,
      "taf_trigger": false,
      "metar": "METAR LTFM 221150Z 04017KT 9999 -SHRA BKN013 BKN022 12/09 Q1018 NOSIG RMK RWY17L 05016KT RWY34L 04016KT RWY16R 04016KT RWY36 04017KT RWY18 05016KT",
      "taf": "TAF LTFM 221040Z 2212/2318 03018G28KT 9999 -SHRA SCT014 BKN022"
    },
    {
      "icao": "LUKK",
      "alert": "OK",
      "vis_m": 9999,
      "fzfg": false,
      "metar_trigger": false,
      "taf_trigger": false,
      "metar": "METAR LUKK 221200Z VRB03KT 9999 OVC023 04/02 Q1022 NOSIG",
      "taf": "TAF LUKK 221118Z 2212/2312 VRB05KT 9999 OVC010"
    },
    {
      "icao": "LWOH",
      "alert": "OK",
      "vis_m": 9999,
      "fzfg": false,
      "metar_trigger": false,
      "taf_trigger": false,
      "metar": "METAR LWOH 221150Z 16005KT 130V190 9999 SCT040 10/04 Q1016",
      "taf": "TAF LWOH 221120Z 2212/2312 VRB02KT 9999 SCT040"
    },
    {
      "icao": "LWSK",
      "alert": "OK",
      "vis_m": 8000,
      "fzfg": false,
      "metar_trigger": false,
      "taf_trigger": false,
      "metar": "METAR LWSK 221150Z VRB01KT 8000 SCT005 OVC009 05/02 Q1019 NOSIG",
      "taf": "TAF LWSK 220825Z 2209/2309 VRB02KT 3000 BR OVC004"
    },
    {
      "icao": "LYBE",
      "alert": "OK",
      "vis_m": 9999,
      "fzfg": false,
      "metar_trigger": false,
      "taf_trigger": false,
      "metar": "METAR LYBE 221200Z 13007KT 9999 OVC016 05/02 Q1019 NOSIG",
      "taf": "TAF LYBE 221100Z 2212/2312 12008KT 9999 OVC017 TX08/2312Z TN02/2306Z"
    },
    {
      "icao": "LYNI",
      "alert": "OK",
      "vis_m": 9999,
      "fzfg": false,
      "metar_trigger": false,
      "taf_trigger": false,
      "metar": "METAR LYNI 221200Z 20004KT 100V250 9999 FEW017 07/03 Q1019 NOSIG",
      "taf": "TAF LYNI 221100Z 2212/2312 07005KT 9999 SCT023 TX09/2312Z TNM01/2306Z"
    },
    {
      "icao": "LYPG",
      "alert": "OK",
      "vis_m": 9999,
      "fzfg": false,
      "metar_trigger": false,
      "taf_trigger": false,
      "metar": "METAR LYPG 221200Z VRB02KT CAVOK 12/03 Q1016 NOSIG",
      "taf": "TAF LYPG 221100Z 2212/2312 VRB02KT CAVOK TX13/2213Z TN05/2222Z"
    },
    {
      "icao": "LZIB",
      "alert": "OK",
      "vis_m": 9999,
      "fzfg": false,
      "metar_trigger": false,
      "taf_trigger": false,
      "metar": "METAR LZIB 221200Z 11010KT 9999 -DZ SCT004 BKN005 04/03 Q1018 TEMPO BKN004 OVC016",
      "taf": "TAF LZIB 221115Z 2212/2312 12011KT 8000 SCT004 OVC013"
    },
    {
      "icao": "LZKZ",
      "alert": "OK",
      "vis_m": 7000,
      "fzfg": false,
      "metar_trigger": false,
      "taf_trigger": false,
      "metar": "METAR LZKZ 221200Z 18004KT 7000 SCT008 OVC016 07/05 Q1019 TEMPO BKN008 OVC018",
      "taf": "TAF LZKZ 221115Z 2212/2312 VRB02KT 6000 BKN008"
    },
    {
      "icao": "LZTT",
      "alert": "OK",
      "vis_m": 3000,
      "fzfg": false,
      "metar_trigger": false,
      "taf_trigger": false,
      "metar": "METAR LZTT 221200Z VRB03KT 3000 1400W BR BKN003 02/01 Q1018 NOSIG",
      "taf": "TAF LZTT 221115Z 2212/2312 VRB02KT 4000 BR FEW002 BKN006"
    },
    {
      "icao": "OEJN",
      "alert": "OK",
      "vis_m": 9999,
      "fzfg": false,
      "metar_trigger": false,
      "taf_trigger": false,
      "metar": "METAR OEJN 221200Z 24006KT 9999 FEW040 31/21 Q1011 NOSIG",
      "taf": "TAF OEJN 221100Z 2212/2318 25010KT 9999 SCT040"
    },
    {
      "icao": "OEMA",
      "alert": "OK",
      "vis_m": 9999,
      "fzfg": false,
      "metar_trigger": false,
      "taf_trigger": false,
      "metar": "METAR OEMA 221200Z VRB03KT CAVOK 25/00 Q1016 NOSIG",
      "taf": "TAF OEMA 221100Z 2212/2318 10008KT CAVOK"
    },
    {
      "icao": "OJAI",
      "alert": "OK",
      "vis_m": 5000,
      "fzfg": false,
      "metar_trigger": false,
      "taf_trigger": false,
      "metar": "METAR OJAI 221200Z 12004KT 5000 HZ NSC 18/02 Q1016 NOSIG",
      "taf": "TAF OJAI 221044Z 2212/2318 12010KT 5000 HZ NSC"
    },
    {
      "icao": "OMAA",
      "alert": "OK",
      "vis_m": 9999,
      "fzfg": false,
      "metar_trigger": false,
      "taf_trigger": false,
      "metar": "METAR OMAA 221200Z 34014KT CAVOK 23/09 Q1018 NOSIG",
      "taf": "TAF OMAA 221100Z 2212/2318 01011KT 8000 NSC"
    },
    {
      "icao": "OMDB",
      "alert": "OK",
      "vis_m": 9999,
      "fzfg": false,
      "metar_trigger": false,
      "taf_trigger": false,
      "metar": "METAR OMDB 221200Z 01013KT CAVOK 23/08 Q1018 NOSIG",
      "taf": "TAF OMDB 221100Z 2212/2318 35012KT CAVOK"
    },
    {
      "icao": "UAAA",
      "alert": "OK",
      "vis_m": 5000,
      "fzfg": false,
      "metar_trigger": false,
      "taf_trigger": false,
      "metar": "METAR UAAA 221200Z 28002MPS 250V330 5000 BR BKN010 OVC100 M01/M03 Q1029 NOSIG",
      "taf": ""
    },
    {
      "icao": "UBBB",
      "alert": "OK",
      "vis_m": 9999,
      "fzfg": false,
      "metar_trigger": false,
      "taf_trigger": false,
      "metar": "METAR UBBB 221200Z 20004KT CAVOK 11/03 Q1017 NOSIG",
      "taf": "TAF UBBB 221053Z 2212/2312 VRB04KT 9999 SCT030 TX09/2212Z TN04/2302Z"
    },
    {
      "icao": "UDSG",
      "alert": "OK",
      "vis_m": 9000,
      "fzfg": false,
      "metar_trigger": false,
      "taf_trigger": false,
      "metar": "METAR UDSG 221200Z 23005KT 9000 FEW049 04/M04 Q1019 NOSIG",
      "taf": "TAF UDSG 221058Z 2212/2312 VRB06KT 9999 SCT050"
    },
    {
      "icao": "UDYZ",
      "alert": "OK",
      "vis_m": 5000,
      "fzfg": false,
      "metar_trigger": false,
      "taf_trigger": false,
      "metar": "METAR UDYZ 221200Z VRB01KT 5000 HZ NSC 07/M04 Q1021 NOSIG",
      "taf": "TAF UDYZ 221100Z 2212/2312 VRB04KT 6000 NSC"
    },
    {
      "icao": "UGKO",
      "alert": "OK",
      "vis_m": 9999,
      "fzfg": false,
      "metar_trigger": false,
      "taf_trigger": false,
      "metar": "METAR UGKO 221200Z 12004KT 9999 BKN080 12/02 Q1017 NOSIG",
      "taf": "TAF UGKO 221100Z 2212/2312 08007KT 9999 BKN080 TX15/2312Z TN03/2303Z"
    }
  ]
}