{
  "ts_utc": "2026-06-30T23:04:45Z",
  "threshold_m": 150,
  "source": "stations_override.txt (ICAO list) + aviationweather.gov (METAR/TAF raw)",
  "station_count": 159,
  "stations": [
    {
      "icao": "BIKF",
      "alert": "OK",
      "vis_m": 5000,
      "fzfg": false,
      "metar_trigger": false,
      "taf_trigger": false,
      "metar": "METAR BIKF 302300Z 16019KT 5000 -DZRA BR SCT008 BKN019 OVC039 09/09 Q1009",
      "taf": "TAF BIKF 302253Z 0100/0200 18022G32KT 9999 -RA BKN013 OVC025 TX11/0113Z TN08/0200Z"
    },
    {
      "icao": "BKPR",
      "alert": "OK",
      "vis_m": 9999,
      "fzfg": false,
      "metar_trigger": false,
      "taf_trigger": false,
      "metar": "METAR BKPR 302300Z 31007KT 9999 FEW050 23/12 Q1017 NOSIG",
      "taf": ""
    },
    {
      "icao": "EBCI",
      "alert": "OK",
      "vis_m": 9999,
      "fzfg": false,
      "metar_trigger": false,
      "taf_trigger": false,
      "metar": "METAR EBCI 302250Z 31004KT CAVOK 17/11 Q1022 NOSIG",
      "taf": "TAF EBCI 301704Z 3018/0124 33006KT 9999 FEW045"
    },
    {
      "icao": "EDDB",
      "alert": "OK",
      "vis_m": 9999,
      "fzfg": false,
      "metar_trigger": false,
      "taf_trigger": false,
      "metar": "METAR EDDB 302250Z AUTO 05004KT CAVOK 18/16 Q1019 NOSIG",
      "taf": "TAF EDDB 301700Z 3018/0118 13010KT CAVOK"
    },
    {
      "icao": "EDDH",
      "alert": "OK",
      "vis_m": 9999,
      "fzfg": false,
      "metar_trigger": false,
      "taf_trigger": false,
      "metar": "METAR EDDH 302250Z AUTO 08003KT CAVOK 17/16 Q1020 TEMPO SHRA SCT040CB",
      "taf": ""
    },
    {
      "icao": "EDDK",
      "alert": "OK",
      "vis_m": 9999,
      "fzfg": false,
      "metar_trigger": false,
      "taf_trigger": false,
      "metar": "METAR EDDK 302250Z AUTO VRB01KT CAVOK 18/15 Q1021 NOSIG",
      "taf": "TAF EDDK 301700Z 3018/0124 34010KT CAVOK"
    },
    {
      "icao": "EDDN",
      "alert": "OK",
      "vis_m": 9999,
      "fzfg": false,
      "metar_trigger": false,
      "taf_trigger": false,
      "metar": "METAR EDDN 302250Z AUTO 21003KT CAVOK 22/19 Q1019",
      "taf": "TAF EDDN 301700Z 3018/0118 04004KT 9999 BKN035"
    },
    {
      "icao": "EDDS",
      "alert": "OK",
      "vis_m": 9999,
      "fzfg": false,
      "metar_trigger": false,
      "taf_trigger": false,
      "metar": "METAR EDDS 302250Z AUTO 22003KT 160V280 9999 VCSH FEW///TCU 21/18 Q1019",
      "taf": "TAF EDDS 301700Z 3018/0118 35006KT 9999 FEW040"
    },
    {
      "icao": "EDFH",
      "alert": "OK",
      "vis_m": 9999,
      "fzfg": false,
      "metar_trigger": false,
      "taf_trigger": false,
      "metar": "METAR EDFH 302250Z 30005KT 260V330 9999 BKN045 18/14 Q1022",
      "taf": "TAF EDFH 301700Z 3018/0118 01005KT CAVOK"
    },
    {
      "icao": "EDJA",
      "alert": "OK",
      "vis_m": 9999,
      "fzfg": false,
      "metar_trigger": false,
      "taf_trigger": false,
      "metar": "METAR EDJA 302250Z AUTO 26004KT 9999 // FEW094/// BKN140/// BKN180/// 19/16 Q1021",
      "taf": "TAF EDJA 301700Z 3018/0103 20006KT CAVOK"
    },
    {
      "icao": "EDLW",
      "alert": "OK",
      "vis_m": 9999,
      "fzfg": false,
      "metar_trigger": false,
      "taf_trigger": false,
      "metar": "METAR EDLW 302250Z AUTO 16003KT 9999 // BKN110/// BKN220/// 17/15 Q1021",
      "taf": "TAF EDLW 301700Z 3018/0118 30004KT CAVOK"
    },
    {
      "icao": "EDNY",
      "alert": "OK",
      "vis_m": 9999,
      "fzfg": false,
      "metar_trigger": false,
      "taf_trigger": false,
      "metar": "METAR EDNY 302250Z AUTO 25004KT 220V290 9999 // FEW088/// BKN120/// 20/19 Q1021",
      "taf": "TAF EDNY 301700Z 3018/0103 VRB03KT CAVOK"
    },
    {
      "icao": "EDSB",
      "alert": "OK",
      "vis_m": 9999,
      "fzfg": false,
      "metar_trigger": false,
      "taf_trigger": false,
      "metar": "METAR EDSB 302250Z AUTO 21003KT 130V300 9999 BKN056/// OVC100/// 23/21 Q1018",
      "taf": ""
    },
    {
      "icao": "EETN",
      "alert": "OK",
      "vis_m": 9999,
      "fzfg": false,
      "metar_trigger": false,
      "taf_trigger": false,
      "metar": "METAR EETN 302250Z 31004KT CAVOK 19/13 Q1019",
      "taf": "TAF EETN 301730Z 3018/0118 27012KT CAVOK"
    },
    {
      "icao": "EFTU",
      "alert": "OK",
      "vis_m": 9999,
      "fzfg": false,
      "metar_trigger": false,
      "taf_trigger": false,
      "metar": "METAR EFTU 302250Z AUTO 35003KT 300V020 CAVOK 14/11 Q1020",
      "taf": "TAF EFTU 302031Z 3021/0121 31005KT CAVOK"
    },
    {
      "icao": "EGBB",
      "alert": "OK",
      "vis_m": 9999,
      "fzfg": false,
      "metar_trigger": false,
      "taf_trigger": false,
      "metar": "METAR EGBB 302250Z 28003KT 9999 SCT034 BKN040 16/14 Q1021",
      "taf": "TAF EGBB 301659Z 3018/0118 28006KT 9999 SCT030"
    },
    {
      "icao": "EGGP",
      "alert": "OK",
      "vis_m": 9999,
      "fzfg": false,
      "metar_trigger": false,
      "taf_trigger": false,
      "metar": "METAR EGGP 302250Z 33002KT 9999 FEW018 BKN033 16/15 Q1021",
      "taf": "TAF EGGP 301703Z 3018/0118 21010KT 9999 SCT025"
    },
    {
      "icao": "EGGW",
      "alert": "OK",
      "vis_m": 9999,
      "fzfg": false,
      "metar_trigger": false,
      "taf_trigger": false,
      "metar": "METAR EGGW 302250Z AUTO 26008KT 9999 NCD 16/14 Q1021",
      "taf": "TAF EGGW 301656Z 3018/0118 24008KT 9999 SCT038"
    },
    {
      "icao": "EGKK",
      "alert": "OK",
      "vis_m": 9999,
      "fzfg": false,
      "metar_trigger": false,
      "taf_trigger": false,
      "metar": "METAR EGKK 302250Z 23005KT CAVOK 16/13 Q1022",
      "taf": "TAF EGKK 301658Z 3018/0124 24010KT 9999 SCT030"
    },
    {
      "icao": "EGNM",
      "alert": "OK",
      "vis_m": 9999,
      "fzfg": false,
      "metar_trigger": false,
      "taf_trigger": false,
      "metar": "METAR EGNM 302250Z 27007KT 9999 SCT021 14/14 Q1020",
      "taf": ""
    },
    {
      "icao": "EGPD",
      "alert": "OK",
      "vis_m": 9999,
      "fzfg": false,
      "metar_trigger": false,
      "taf_trigger": false,
      "metar": "METAR EGPD 302250Z AUTO 17005KT 9999 NCD 13/11 Q1021",
      "taf": "TAF EGPD 301658Z 3018/0118 17010KT 9999 FEW035"
    },
    {
      "icao": "EGPF",
      "alert": "OK",
      "vis_m": 9999,
      "fzfg": false,
      "metar_trigger": false,
      "taf_trigger": false,
      "metar": "METAR EGPF 302250Z AUTO VRB02KT 9999 BKN016 OVC021 15/14 Q1021",
      "taf": "TAF EGPF 301652Z 3018/0118 VRB04KT 9999 BKN024"
    },
    {
      "icao": "EHBK",
      "alert": "OK",
      "vis_m": 9999,
      "fzfg": false,
      "metar_trigger": false,
      "taf_trigger": false,
      "metar": "METAR EHBK 302255Z AUTO 34003KT 310V010 9999 NSC 19/15 Q1021 REDZ",
      "taf": "TAF EHBK 301655Z 3018/0124 35006KT CAVOK"
    },
    {
      "icao": "EHEH",
      "alert": "OK",
      "vis_m": 9999,
      "fzfg": false,
      "metar_trigger": false,
      "taf_trigger": false,
      "metar": "METAR EHEH 302255Z AUTO VRB02KT 9999 FEW015CB OVC100 17/15 Q1021 BLU",
      "taf": "TAF EHEH 301709Z 3018/0124 35004KT CAVOK"
    },
    {
      "icao": "EKBI",
      "alert": "OK",
      "vis_m": 9999,
      "fzfg": false,
      "metar_trigger": false,
      "taf_trigger": false,
      "metar": "METAR EKBI 302250Z AUTO 31004KT 9999 BKN110/// 15/13 Q1021",
      "taf": "TAF EKBI 302027Z 3021/0121 32008KT 9999 FEW040"
    },
    {
      "icao": "EKCH",
      "alert": "OK",
      "vis_m": 9999,
      "fzfg": false,
      "metar_trigger": false,
      "taf_trigger": false,
      "metar": "METAR EKCH 302250Z AUTO 03004KT 9999 FEW094/// OVC140/// 18/13 Q1021 NOSIG",
      "taf": "TAF EKCH 302027Z 3021/0121 02008KT 9999 FEW040"
    },
    {
      "icao": "ENAL",
      "alert": "OK",
      "vis_m": 9999,
      "fzfg": false,
      "metar_trigger": false,
      "taf_trigger": false,
      "metar": "METAR ENAL 302250Z AUTO 12005KT 9999 BKN057/// 12/10 Q1022",
      "taf": "TAF ENAL 302000Z 3021/0106 VRB03KT 9999 BKN050"
    },
    {
      "icao": "ENBR",
      "alert": "OK",
      "vis_m": 9999,
      "fzfg": false,
      "metar_trigger": false,
      "taf_trigger": false,
      "metar": "METAR ENBR 302250Z AUTO 34003KT 9999 NCD 14/12 Q1022 RMK WIND 1200FT 00000KT",
      "taf": "TAF ENBR 301700Z 3018/0118 30005KT 9999 FEW020 SCT045"
    },
    {
      "icao": "ENGM",
      "alert": "OK",
      "vis_m": 9999,
      "fzfg": false,
      "metar_trigger": false,
      "taf_trigger": false,
      "metar": "METAR ENGM 302250Z 19007KT CAVOK 12/08 Q1019",
      "taf": "TAF ENGM 301700Z 3018/0118 19010KT CAVOK"
    },
    {
      "icao": "ENHD",
      "alert": "OK",
      "vis_m": 9999,
      "fzfg": false,
      "metar_trigger": false,
      "taf_trigger": false,
      "metar": "METAR ENHD 302250Z AUTO 02002KT 9999 NCD 14/13 Q1021",
      "taf": "TAF ENHD 301400Z 3015/3022 21010KT 9999 FEW030"
    },
    {
      "icao": "ENTC",
      "alert": "OK",
      "vis_m": 9999,
      "fzfg": false,
      "metar_trigger": false,
      "taf_trigger": false,
      "metar": "METAR ENTC 302250Z 22019KT 9999 -RA SCT027 BKN033 11/08 Q1012 RMK WIND 2600FT 24014KT",
      "taf": "TAF ENTC 301700Z 3018/0118 21018KT 9999 -SHRA FEW015 BKN030"
    },
    {
      "icao": "ENTO",
      "alert": "OK",
      "vis_m": 2800,
      "fzfg": false,
      "metar_trigger": false,
      "taf_trigger": false,
      "metar": "METAR ENTO 302250Z AUTO 00000KT 2800 // NCD 13/13 Q1019",
      "taf": "TAF ENTO 301700Z 3018/0118 19012KT CAVOK"
    },
    {
      "icao": "ENVA",
      "alert": "OK",
      "vis_m": 9999,
      "fzfg": false,
      "metar_trigger": false,
      "taf_trigger": false,
      "metar": "METAR ENVA 302250Z 12004KT 9999 BKN041 OVC052 13/10 Q1023 RMK WIND 670FT VRB01KT",
      "taf": "TAF ENVA 301700Z 3018/0118 26005KT 9999 FEW020 BKN040"
    },
    {
      "icao": "ENZV",
      "alert": "OK",
      "vis_m": 9999,
      "fzfg": false,
      "metar_trigger": false,
      "taf_trigger": false,
      "metar": "METAR ENZV 302250Z AUTO 31003KT 9999 NCD 15/13 Q1022",
      "taf": "TAF ENZV 301700Z 3018/0118 30008KT CAVOK"
    },
    {
      "icao": "EPGD",
      "alert": "OK",
      "vis_m": 9999,
      "fzfg": false,
      "metar_trigger": false,
      "taf_trigger": false,
      "metar": "METAR EPGD 302300Z 10004KT 9999 -SHRA BKN044TCU 16/15 Q1021",
      "taf": "TAF EPGD 301730Z 3018/0118 06006KT CAVOK"
    },
    {
      "icao": "EPKK",
      "alert": "OK",
      "vis_m": 9999,
      "fzfg": false,
      "metar_trigger": false,
      "taf_trigger": false,
      "metar": "METAR EPKK 302300Z 04006KT CAVOK 25/18 Q1016",
      "taf": "TAF EPKK 302030Z 3021/0121 06004KT CAVOK"
    },
    {
      "icao": "EPKT",
      "alert": "OK",
      "vis_m": 9999,
      "fzfg": false,
      "metar_trigger": false,
      "taf_trigger": false,
      "metar": "METAR EPKT 302300Z 06005KT CAVOK 21/18 Q1016",
      "taf": "TAF EPKT 301730Z 3018/0118 10010KT CAVOK"
    },
    {
      "icao": "EPLB",
      "alert": "OK",
      "vis_m": 9999,
      "fzfg": false,
      "metar_trigger": false,
      "taf_trigger": false,
      "metar": "METAR EPLB 302300Z 04005KT CAVOK 24/16 Q1018",
      "taf": "TAF EPLB 301730Z 3018/0118 05010KT CAVOK"
    },
    {
      "icao": "EPMO",
      "alert": "OK",
      "vis_m": 9999,
      "fzfg": false,
      "metar_trigger": false,
      "taf_trigger": false,
      "metar": "METAR EPMO 302300Z 05008KT CAVOK 22/17 Q1019",
      "taf": "TAF EPMO 301730Z 3018/0118 05010KT CAVOK"
    },
    {
      "icao": "EPPO",
      "alert": "OK",
      "vis_m": 7000,
      "fzfg": false,
      "metar_trigger": false,
      "taf_trigger": false,
      "metar": "METAR EPPO 302300Z 35007KT 300V050 7000 TSRA FEW005 BKN036CB 19/18 Q1018",
      "taf": "TAF EPPO 301730Z 3018/0118 04007KT CAVOK"
    },
    {
      "icao": "EPRA",
      "alert": "OK",
      "vis_m": 9999,
      "fzfg": false,
      "metar_trigger": false,
      "taf_trigger": false,
      "metar": "METAR EPRA 302300Z 08007KT CAVOK 24/14 Q1018",
      "taf": "TAF EPRA 302030Z 3021/0106 07006KT CAVOK"
    },
    {
      "icao": "EPRZ",
      "alert": "OK",
      "vis_m": 9999,
      "fzfg": false,
      "metar_trigger": false,
      "taf_trigger": false,
      "metar": "METAR EPRZ 302300Z 00000KT CAVOK 24/18 Q1018",
      "taf": "TAF EPRZ 301730Z 3018/0118 06010KT CAVOK"
    },
    {
      "icao": "EPSC",
      "alert": "OK",
      "vis_m": 9999,
      "fzfg": false,
      "metar_trigger": false,
      "taf_trigger": false,
      "metar": "METAR EPSC 302300Z 10004KT CAVOK 18/15 Q1019",
      "taf": ""
    },
    {
      "icao": "EPSY",
      "alert": "OK",
      "vis_m": 9999,
      "fzfg": false,
      "metar_trigger": false,
      "taf_trigger": false,
      "metar": "METAR EPSY 302300Z 04003KT CAVOK 17/13 Q1020",
      "taf": "TAF EPSY 302030Z 3021/0106 02004KT CAVOK"
    },
    {
      "icao": "EPWA",
      "alert": "OK",
      "vis_m": 9999,
      "fzfg": false,
      "metar_trigger": false,
      "taf_trigger": false,
      "metar": "METAR EPWA 302300Z 06009KT CAVOK 24/17 Q1018 NOSIG",
      "taf": "TAF EPWA 302030Z 3021/0121 05010KT CAVOK"
    },
    {
      "icao": "EPWR",
      "alert": "OK",
      "vis_m": 9999,
      "fzfg": false,
      "metar_trigger": false,
      "taf_trigger": false,
      "metar": "METAR EPWR 302300Z 29012KT CAVOK 22/18 Q1017",
      "taf": "TAF EPWR 302030Z 3021/0121 34006KT 9999 SCT040"
    },
    {
      "icao": "ESGG",
      "alert": "OK",
      "vis_m": 9999,
      "fzfg": false,
      "metar_trigger": false,
      "taf_trigger": false,
      "metar": "METAR ESGG 302250Z 15003KT CAVOK 14/12 Q1021",
      "taf": "TAF ESGG 302030Z 3021/0121 23006KT CAVOK"
    },
    {
      "icao": "ESKN",
      "alert": "OK",
      "vis_m": 9999,
      "fzfg": false,
      "metar_trigger": false,
      "taf_trigger": false,
      "metar": "METAR ESKN 302250Z VRB02KT CAVOK 16/15 Q1020",
      "taf": "TAF ESKN 302030Z 3021/0121 VRB03KT CAVOK"
    },
    {
      "icao": "ESMS",
      "alert": "OK",
      "vis_m": 9999,
      "fzfg": false,
      "metar_trigger": false,
      "taf_trigger": false,
      "metar": "METAR ESMS 302250Z 00000KT CAVOK 15/14 Q1021",
      "taf": "TAF ESMS 302027Z 3021/0121 27005KT 9999 FEW040"
    },
    {
      "icao": "ESSA",
      "alert": "OK",
      "vis_m": 9999,
      "fzfg": false,
      "metar_trigger": false,
      "taf_trigger": false,
      "metar": "METAR ESSA 302250Z 13006KT CAVOK 15/11 Q1020 NOSIG",
      "taf": "TAF ESSA 302030Z 3021/0121 14008KT CAVOK"
    },
    {
      "icao": "EYKA",
      "alert": "OK",
      "vis_m": 9999,
      "fzfg": false,
      "metar_trigger": false,
      "taf_trigger": false,
      "metar": "METAR EYKA 302250Z VRB02KT CAVOK 17/16 Q1020",
      "taf": "TAF EYKA 301720Z 3018/0118 VRB03KT 9000 NSC"
    },
    {
      "icao": "EYPA",
      "alert": "OK",
      "vis_m": 9999,
      "fzfg": false,
      "metar_trigger": false,
      "taf_trigger": false,
      "metar": "METAR EYPA 302250Z AUTO 05002KT 9999 NCD 15/13 Q1021",
      "taf": "TAF EYPA 302301Z 0100/0124 VRB03KT 9000 NSC"
    },
    {
      "icao": "EYVI",
      "alert": "OK",
      "vis_m": 9999,
      "fzfg": false,
      "metar_trigger": false,
      "taf_trigger": false,
      "metar": "METAR EYVI 302250Z VRB01KT CAVOK 15/14 Q1020 NOSIG",
      "taf": "TAF EYVI 301728Z 3018/0118 36010KT 9000 NSC"
    },
    {
      "icao": "GCFV",
      "alert": "OK",
      "vis_m": 7000,
      "fzfg": false,
      "metar_trigger": false,
      "taf_trigger": false,
      "metar": "METAR GCFV 302230Z AUTO 03011KT 7000 NCD 22/19 Q1017",
      "taf": "TAF GCFV 302000Z 3021/0121 35009KT 9999 FEW015 TX28/0114Z TN21/0106Z"
    },
    {
      "icao": "GCLP",
      "alert": "OK",
      "vis_m": 9999,
      "fzfg": false,
      "metar_trigger": false,
      "taf_trigger": false,
      "metar": "METAR GCLP 302230Z 02023KT 9999 FEW020 22/19 Q1017 NOSIG",
      "taf": "TAF GCLP 302000Z 3021/0121 36025KT 9999 FEW020 TX29/0114Z TN23/0106Z"
    },
    {
      "icao": "GCTS",
      "alert": "OK",
      "vis_m": 9999,
      "fzfg": false,
      "metar_trigger": false,
      "taf_trigger": false,
      "metar": "METAR GCTS 302230Z 07010KT 030V090 9999 FEW025 23/18 Q1017 NOSIG",
      "taf": "TAF GCTS 302000Z 3021/0121 05009KT 9999 FEW025 TX29/0114Z TN21/0106Z"
    },
    {
      "icao": "GMAD",
      "alert": "OK",
      "vis_m": 8000,
      "fzfg": false,
      "metar_trigger": false,
      "taf_trigger": false,
      "metar": "METAR GMAD 302300Z 21005KT 8000 BKN006 20/19 Q1014 NOSIG",
      "taf": "TAF GMAD 301700Z 3018/0124 24014KT CAVOK"
    },
    {
      "icao": "GMMN",
      "alert": "OK",
      "vis_m": 9999,
      "fzfg": false,
      "metar_trigger": false,
      "taf_trigger": false,
      "metar": "METAR GMMN 302300Z 29003KT 9999 SCT007 22/19 Q1017 NOSIG",
      "taf": ""
    },
    {
      "icao": "GMMX",
      "alert": "OK",
      "vis_m": 9999,
      "fzfg": false,
      "metar_trigger": false,
      "taf_trigger": false,
      "metar": "METAR GMMX 302300Z VRB02KT CAVOK 28/15 Q1017 NOSIG",
      "taf": "TAF GMMX 301700Z 3018/0124 06006KT 8000 NSC"
    },
    {
      "icao": "HEGN",
      "alert": "OK",
      "vis_m": 9999,
      "fzfg": false,
      "metar_trigger": false,
      "taf_trigger": false,
      "metar": "METAR HEGN 302200Z 29014KT CAVOK 32/12 Q1005 NOSIG",
      "taf": "TAF HEGN 302300Z 0100/0206 29015KT CAVOK"
    },
    {
      "icao": "HEMA",
      "alert": "OK",
      "vis_m": 9999,
      "fzfg": false,
      "metar_trigger": false,
      "taf_trigger": false,
      "metar": "METAR HEMA 302200Z 31008KT CAVOK 30/07 Q1005 NOSIG",
      "taf": "TAF HEMA 302300Z 0100/0206 30015KT CAVOK"
    },
    {
      "icao": "HESH",
      "alert": "OK",
      "vis_m": 9999,
      "fzfg": false,
      "metar_trigger": false,
      "taf_trigger": false,
      "metar": "METAR HESH 302200Z 34012KT CAVOK 35/13 Q1004 NOSIG",
      "taf": "TAF HESH 302300Z 0100/0206 34010KT CAVOK"
    },
    {
      "icao": "HESX",
      "alert": "OK",
      "vis_m": 9999,
      "fzfg": false,
      "metar_trigger": false,
      "taf_trigger": false,
      "metar": "METAR HESX 302200Z 34006KT CAVOK 23/19 Q1011 NOSIG",
      "taf": "TAF HESX 302300Z 0100/0206 35009KT CAVOK"
    },
    {
      "icao": "LATI",
      "alert": "OK",
      "vis_m": 9999,
      "fzfg": false,
      "metar_trigger": false,
      "taf_trigger": false,
      "metar": "METAR LATI 302250Z 27007KT 9999 FEW062 SCT140 26/17 Q1013 RERA NOSIG",
      "taf": "TAF LATI 302300Z 0100/0124 VRB05KT CAVOK TX36/0111Z TN22/0104Z"
    },
    {
      "icao": "LBPD",
      "alert": "OK",
      "vis_m": 9999,
      "fzfg": false,
      "metar_trigger": false,
      "taf_trigger": false,
      "metar": "METAR LBPD 302300Z AUTO 22004KT 9999 FEW087/// 24/13 Q1014",
      "taf": "TAF LBPD 301700Z 3018/0118 11010KT 9999 SCT065"
    },
    {
      "icao": "LBSF",
      "alert": "OK",
      "vis_m": 9999,
      "fzfg": false,
      "metar_trigger": false,
      "taf_trigger": false,
      "metar": "METAR LBSF 302300Z AUTO 18006KT 150V210 9999 BKN070/// 20/17 Q1017 NOSIG",
      "taf": "TAF LBSF 301700Z 3018/0118 VRB04KT 9999 SCT060"
    },
    {
      "icao": "LBWN",
      "alert": "OK",
      "vis_m": 9999,
      "fzfg": false,
      "metar_trigger": false,
      "taf_trigger": false,
      "metar": "METAR LBWN 302300Z AUTO VRB01KT 9999 NSC 20/15 Q1013 NOSIG",
      "taf": "TAF LBWN 301700Z 3018/0118 VRB03KT CAVOK"
    },
    {
      "icao": "LCLK",
      "alert": "OK",
      "vis_m": 9999,
      "fzfg": false,
      "metar_trigger": false,
      "taf_trigger": false,
      "metar": "METAR LCLK 302300Z 00000KT CAVOK 24/24 Q1007 NOSIG",
      "taf": "TAF LCLK 301730Z 3018/0118 21012KT 9999 FEW025"
    },
    {
      "icao": "LCPH",
      "alert": "OK",
      "vis_m": 9999,
      "fzfg": false,
      "metar_trigger": false,
      "taf_trigger": false,
      "metar": "METAR LCPH 302300Z AUTO 36002KT 9999 NCD 24/18 Q1007 NOSIG",
      "taf": "TAF LCPH 301730Z 3018/0118 29013KT 9999 FEW020"
    },
    {
      "icao": "LEAL",
      "alert": "OK",
      "vis_m": 9999,
      "fzfg": false,
      "metar_trigger": false,
      "taf_trigger": false,
      "metar": "METAR LEAL 302230Z 17002KT CAVOK 26/23 Q1020 NOSIG",
      "taf": "TAF LEAL 301700Z 3018/0118 09007KT CAVOK TX32/0112Z TN23/0106Z"
    },
    {
      "icao": "LEBB",
      "alert": "OK",
      "vis_m": 9999,
      "fzfg": false,
      "metar_trigger": false,
      "taf_trigger": false,
      "metar": "METAR LEBB 302230Z AUTO 28001KT 9999 SCT034 BKN042 BKN055 20/17 Q1027",
      "taf": "TAF LEBB 301700Z 3018/0118 34009KT 9999 BKN020 TX22/3018Z TN19/0105Z"
    },
    {
      "icao": "LEBL",
      "alert": "OK",
      "vis_m": 9999,
      "fzfg": false,
      "metar_trigger": false,
      "taf_trigger": false,
      "metar": "METAR LEBL 302230Z VRB02KT CAVOK 27/24 Q1019 NOSIG",
      "taf": "TAF LEBL 301700Z 3018/0118 18010KT CAVOK TX31/0113Z TN24/0106Z"
    },
    {
      "icao": "LECH",
      "alert": "OK",
      "vis_m": 9999,
      "fzfg": false,
      "metar_trigger": false,
      "taf_trigger": false,
      "metar": "METAR LECH 302230Z AUTO 22004KT 170V240 CAVOK 24/17 Q1021",
      "taf": "TAF LECH 301700Z 3018/0118 15009KT CAVOK TX33/0112Z TN19/0106Z"
    },
    {
      "icao": "LEMD",
      "alert": "OK",
      "vis_m": 9999,
      "fzfg": false,
      "metar_trigger": false,
      "taf_trigger": false,
      "metar": "METAR LEMD 302230Z 33003KT CAVOK 29/10 Q1021 NOSIG",
      "taf": "TAF LEMD 301700Z 3018/0124 VRB04KT CAVOK TX38/0116Z TN20/0105Z"
    },
    {
      "icao": "LEMG",
      "alert": "OK",
      "vis_m": 9999,
      "fzfg": false,
      "metar_trigger": false,
      "taf_trigger": false,
      "metar": "METAR LEMG 302230Z VRB01KT CAVOK 25/17 Q1020 NOSIG",
      "taf": "TAF LEMG 301700Z 3018/0118 14007KT 9999 FEW060 TX31/0114Z TN24/0105Z"
    },
    {
      "icao": "LEVC",
      "alert": "OK",
      "vis_m": 9999,
      "fzfg": false,
      "metar_trigger": false,
      "taf_trigger": false,
      "metar": "METAR LEVC 302230Z 02004KT 340V070 CAVOK 28/18 Q1019 NOSIG",
      "taf": "TAF LEVC 301700Z 3018/0118 12010KT CAVOK TX33/0112Z TN24/0106Z"
    },
    {
      "icao": "LEXJ",
      "alert": "OK",
      "vis_m": 9999,
      "fzfg": false,
      "metar_trigger": false,
      "taf_trigger": false,
      "metar": "METAR LEXJ 302230Z AUTO 34003KT 290V020 9999 BKN043 OVC049 20/16 Q1028",
      "taf": "TAF LEXJ 302000Z 3021/0121 33009KT 9999 FEW020 BKN030 TX23/0115Z TN18/0106Z"
    },
    {
      "icao": "LEZG",
      "alert": "OK",
      "vis_m": 9999,
      "fzfg": false,
      "metar_trigger": false,
      "taf_trigger": false,
      "metar": "METAR LEZG 302230Z 28021KT CAVOK 22/14 Q1023 NOSIG",
      "taf": "TAF LEZG 301700Z 3018/0118 31010KT CAVOK TX30/0113Z TN18/0106Z"
    },
    {
      "icao": "LEZL",
      "alert": "OK",
      "vis_m": 9999,
      "fzfg": false,
      "metar_trigger": false,
      "taf_trigger": false,
      "metar": "METAR LEZL 302230Z 26004KT CAVOK 31/15 Q1017 NOSIG",
      "taf": "TAF LEZL 302000Z 3021/0121 23010KT CAVOK TX41/0115Z TN24/0105Z"
    },
    {
      "icao": "LFBD",
      "alert": "OK",
      "vis_m": 9999,
      "fzfg": false,
      "metar_trigger": false,
      "taf_trigger": false,
      "metar": "METAR LFBD 302300Z AUTO 26005KT 9999 SCT033 18/15 Q1025 NOSIG",
      "taf": "TAF LFBD 301700Z 3018/0124 30010KT CAVOK TX26/0114Z TN17/0102Z"
    },
    {
      "icao": "LFLL",
      "alert": "OK",
      "vis_m": 9999,
      "fzfg": false,
      "metar_trigger": false,
      "taf_trigger": false,
      "metar": "METAR LFLL 302300Z 00000KT CAVOK 25/13 Q1020 NOSIG",
      "taf": "TAF LFLL 301700Z 3018/0124 35010KT CAVOK"
    },
    {
      "icao": "LFLS",
      "alert": "OK",
      "vis_m": 9999,
      "fzfg": false,
      "metar_trigger": false,
      "taf_trigger": false,
      "metar": "METAR LFLS 302300Z AUTO VRB01KT CAVOK 21/16 Q1020",
      "taf": "TAF LFLS 301400Z 3015/0115 34010KT 9999 SCT060"
    },
    {
      "icao": "LFMN",
      "alert": "OK",
      "vis_m": 9999,
      "fzfg": false,
      "metar_trigger": false,
      "taf_trigger": false,
      "metar": "METAR LFMN 302300Z 33008KT CAVOK 27/17 Q1016 NOSIG",
      "taf": "TAF LFMN 302000Z 3021/0203 33010KT CAVOK"
    },
    {
      "icao": "LFOB",
      "alert": "OK",
      "vis_m": 9999,
      "fzfg": false,
      "metar_trigger": false,
      "taf_trigger": false,
      "metar": "METAR LFOB 302300Z AUTO 29006KT CAVOK 15/13 Q1023 NOSIG",
      "taf": "TAF LFOB 301700Z 3018/0118 36007KT CAVOK"
    },
    {
      "icao": "LFPO",
      "alert": "OK",
      "vis_m": 9999,
      "fzfg": false,
      "metar_trigger": false,
      "taf_trigger": false,
      "metar": "METAR LFPO 302300Z AUTO 01010KT 340V040 CAVOK 21/11 Q1022 NOSIG",
      "taf": "TAF LFPO 301700Z 3018/0124 03011KT CAVOK"
    },
    {
      "icao": "LFSB",
      "alert": "OK",
      "vis_m": 9999,
      "fzfg": false,
      "metar_trigger": false,
      "taf_trigger": false,
      "metar": "METAR LFSB 302300Z AUTO VRB02KT 9999 TS ///CB 22/19 Q1020 TEMPO 4000 SHRA",
      "taf": ""
    },
    {
      "icao": "LGAV",
      "alert": "OK",
      "vis_m": 9999,
      "fzfg": false,
      "metar_trigger": false,
      "taf_trigger": false,
      "metar": "METAR LGAV 302250Z VRB01KT CAVOK 23/15 Q1011 NOSIG",
      "taf": "TAF LGAV 301700Z 3018/0118 04015KT 9999 FEW025"
    },
    {
      "icao": "LGTS",
      "alert": "OK",
      "vis_m": 9999,
      "fzfg": false,
      "metar_trigger": false,
      "taf_trigger": false,
      "metar": "METAR LGTS 302250Z 32005KT 9999 FEW025 26/21 Q1013 NOSIG",
      "taf": "TAF LGTS 301700Z 3018/0118 34013KT 9999 FEW030"
    },
    {
      "icao": "LHBP",
      "alert": "OK",
      "vis_m": 9999,
      "fzfg": false,
      "metar_trigger": false,
      "taf_trigger": false,
      "metar": "METAR LHBP 302300Z 31004KT CAVOK 26/15 Q1016 NOSIG",
      "taf": "TAF LHBP 301715Z 3018/0118 VRB04KT CAVOK"
    },
    {
      "icao": "LHDC",
      "alert": "OK",
      "vis_m": 9999,
      "fzfg": false,
      "metar_trigger": false,
      "taf_trigger": false,
      "metar": "METAR LHDC 302245Z AUTO 01005KT 340V050 CAVOK 23/18 Q1016",
      "taf": "TAF LHDC 301715Z 3018/0103 06007KT CAVOK"
    },
    {
      "icao": "LIBD",
      "alert": "OK",
      "vis_m": 9999,
      "fzfg": false,
      "metar_trigger": false,
      "taf_trigger": false,
      "metar": "METAR LIBD 302250Z AUTO 28004KT 9999 FEW160/// 26/24 Q1014",
      "taf": ""
    },
    {
      "icao": "LIBG",
      "alert": "OK",
      "vis_m": 9999,
      "fzfg": false,
      "metar_trigger": false,
      "taf_trigger": false,
      "metar": "METAR LIBG 302250Z AUTO 31005KT 280V350 9999 BKN130/// BKN140/// BKN160/// 27/19 Q1014",
      "taf": "TAF LIBG 301700Z 3018/0118 08010KT CAVOK"
    },
    {
      "icao": "LIBP",
      "alert": "OK",
      "vis_m": 9999,
      "fzfg": false,
      "metar_trigger": false,
      "taf_trigger": false,
      "metar": "METAR LIBP 302250Z AUTO 24004KT 9999 NCD 24/15 Q1016",
      "taf": "TAF LIBP 301700Z 3018/0118 VRB05KT CAVOK"
    },
    {
      "icao": "LIBR",
      "alert": "OK",
      "vis_m": 9999,
      "fzfg": false,
      "metar_trigger": false,
      "taf_trigger": false,
      "metar": "METAR LIBR 302250Z 34010KT CAVOK 27/21 Q1013",
      "taf": ""
    },
    {
      "icao": "LICA",
      "alert": "OK",
      "vis_m": 9999,
      "fzfg": false,
      "metar_trigger": false,
      "taf_trigger": false,
      "metar": "METAR LICA 302250Z AUTO 36005KT 9999 FEW025/// 24/21 Q1015",
      "taf": "TAF LICA 301700Z 3018/0118 28015KT 9999 FEW030"
    },
    {
      "icao": "LICC",
      "alert": "OK",
      "vis_m": 9999,
      "fzfg": false,
      "metar_trigger": false,
      "taf_trigger": false,
      "metar": "METAR LICC 302250Z 27008KT CAVOK 26/18 Q1014",
      "taf": "TAF LICC 301700Z 3018/0118 09012KT 9999 FEW020"
    },
    {
      "icao": "LICJ",
      "alert": "OK",
      "vis_m": 9999,
      "fzfg": false,
      "metar_trigger": false,
      "taf_trigger": false,
      "metar": "METAR LICJ 302250Z 08003KT CAVOK 28/22 Q1015",
      "taf": "TAF LICJ 301700Z 3018/0118 36010KT 9999 FEW020"
    },
    {
      "icao": "LIMC",
      "alert": "OK",
      "vis_m": 9999,
      "fzfg": false,
      "metar_trigger": false,
      "taf_trigger": false,
      "metar": "METAR LIMC 302250Z 01008KT CAVOK 26/18 Q1016 NOSIG",
      "taf": "TAF LIMC 301700Z 3018/0124 VRB05KT 9999 SCT050"
    },
    {
      "icao": "LIME",
      "alert": "OK",
      "vis_m": 9999,
      "fzfg": false,
      "metar_trigger": false,
      "taf_trigger": false,
      "metar": "METAR LIME 302250Z 36004KT CAVOK 26/18 Q1016 NOSIG",
      "taf": "TAF LIME 301700Z 3018/0118 VRB05KT 9999 FEW050"
    },
    {
      "icao": "LIMF",
      "alert": "OK",
      "vis_m": 9999,
      "fzfg": false,
      "metar_trigger": false,
      "taf_trigger": false,
      "metar": "METAR LIMF 302250Z 25003KT 9999 SCT130 26/19 Q1017",
      "taf": "TAF LIMF 301700Z 3018/0118 VRB05KT 9999 FEW040"
    },
    {
      "icao": "LIMJ",
      "alert": "OK",
      "vis_m": 9999,
      "fzfg": false,
      "metar_trigger": false,
      "taf_trigger": false,
      "metar": "METAR LIMJ 302250Z 02003KT CAVOK 27/18 Q1016",
      "taf": "TAF LIMJ 301700Z 3018/0118 VRB05KT CAVOK"
    },
    {
      "icao": "LIPE",
      "alert": "OK",
      "vis_m": 9999,
      "fzfg": false,
      "metar_trigger": false,
      "taf_trigger": false,
      "metar": "METAR LIPE 302250Z AUTO 20005KT 9999 NCD 26/20 Q1015",
      "taf": "TAF LIPE 301700Z 3018/0118 VRB05KT 9999 SCT030"
    },
    {
      "icao": "LIPH",
      "alert": "OK",
      "vis_m": 9999,
      "fzfg": false,
      "metar_trigger": false,
      "taf_trigger": false,
      "metar": "METAR LIPH 302250Z AUTO 03003KT 9999 NCD 26/20 Q1014",
      "taf": "TAF LIPH 301700Z 3018/0118 VRB05KT 9999 FEW040"
    },
    {
      "icao": "LIPQ",
      "alert": "OK",
      "vis_m": 9999,
      "fzfg": false,
      "metar_trigger": false,
      "taf_trigger": false,
      "metar": "METAR LIPQ 302250Z AUTO 01004KT 9999 NCD 22/18 Q1014",
      "taf": "TAF LIPQ 301700Z 3018/0118 VRB05KT 9999 FEW040"
    },
    {
      "icao": "LIPR",
      "alert": "OK",
      "vis_m": 9999,
      "fzfg": false,
      "metar_trigger": false,
      "taf_trigger": false,
      "metar": "METAR LIPR 302250Z AUTO 21003KT 9999 NCD 26/20 Q1014",
      "taf": "TAF LIPR 301700Z 3018/0118 VRB05KT CAVOK"
    },
    {
      "icao": "LIPX",
      "alert": "OK",
      "vis_m": 9999,
      "fzfg": false,
      "metar_trigger": false,
      "taf_trigger": false,
      "metar": "METAR LIPX 302250Z 23003KT CAVOK 26/23 Q1015",
      "taf": "TAF LIPX 301700Z 3018/0118 VRB05KT CAVOK"
    },
    {
      "icao": "LIPY",
      "alert": "OK",
      "vis_m": 9999,
      "fzfg": false,
      "metar_trigger": false,
      "taf_trigger": false,
      "metar": "METAR LIPY 302250Z AUTO 19004KT 9999 NCD 25/16 Q1015",
      "taf": "TAF LIPY 301700Z 3018/0118 VRB05KT CAVOK"
    },
    {
      "icao": "LIPZ",
      "alert": "OK",
      "vis_m": 9999,
      "fzfg": false,
      "metar_trigger": false,
      "taf_trigger": false,
      "metar": "METAR LIPZ 302250Z 04005KT CAVOK 26/22 Q1014 NOSIG",
      "taf": "TAF LIPZ 301700Z 3018/0124 VRB05KT 9999 FEW040"
    },
    {
      "icao": "LIRF",
      "alert": "OK",
      "vis_m": 9999,
      "fzfg": false,
      "metar_trigger": false,
      "taf_trigger": false,
      "metar": "METAR LIRF 302250Z 36004KT 300V040 CAVOK 24/22 Q1015 NOSIG",
      "taf": "TAF LIRF 301700Z 3018/0124 30011KT CAVOK"
    },
    {
      "icao": "LIRN",
      "alert": "OK",
      "vis_m": 9999,
      "fzfg": false,
      "metar_trigger": false,
      "taf_trigger": false,
      "metar": "METAR LIRN 302250Z VRB02KT CAVOK 27/21 Q1015 NOSIG",
      "taf": "TAF LIRN 301700Z 3018/0118 22010KT CAVOK"
    },
    {
      "icao": "LIRP",
      "alert": "OK",
      "vis_m": 9999,
      "fzfg": false,
      "metar_trigger": false,
      "taf_trigger": false,
      "metar": "METAR LIRP 302215Z 18003KT CAVOK 23/20 Q1016 NOSIG",
      "taf": "TAF LIRP 301700Z 3018/0118 29009KT CAVOK"
    },
    {
      "icao": "LIRZ",
      "alert": "OK",
      "vis_m": 9999,
      "fzfg": false,
      "metar_trigger": false,
      "taf_trigger": false,
      "metar": "METAR LIRZ 302250Z AUTO 01006KT 9999 NCD 21/16 Q1017",
      "taf": "TAF LIRZ 301700Z 3018/0118 VRB05KT CAVOK"
    },
    {
      "icao": "LJLJ",
      "alert": "OK",
      "vis_m": 9999,
      "fzfg": false,
      "metar_trigger": false,
      "taf_trigger": false,
      "metar": "METAR LJLJ 302230Z 33005KT 320V030 CAVOK 19/16 Q1018 NOSIG",
      "taf": "TAF LJLJ 302300Z 0100/0200 32005KT 9999 FEW060"
    },
    {
      "icao": "LKMT",
      "alert": "OK",
      "vis_m": 9999,
      "fzfg": false,
      "metar_trigger": false,
      "taf_trigger": false,
      "metar": "METAR LKMT 302300Z 21002KT CAVOK 23/21 Q1016 NOSIG",
      "taf": "TAF LKMT 301700Z 3018/0118 06005KT CAVOK"
    },
    {
      "icao": "LKPR",
      "alert": "OK",
      "vis_m": 9999,
      "fzfg": false,
      "metar_trigger": false,
      "taf_trigger": false,
      "metar": "METAR LKPR 302300Z 35007KT CAVOK 20/18 Q1018 NOSIG",
      "taf": "TAF LKPR 302000Z 3021/0203 34008KT CAVOK"
    },
    {
      "icao": "LLBG",
      "alert": "OK",
      "vis_m": 9999,
      "fzfg": false,
      "metar_trigger": false,
      "taf_trigger": false,
      "metar": "METAR LLBG 302250Z 17004KT CAVOK 25/22 Q1009 NOSIG",
      "taf": "TAF LLBG 301701Z 3018/0118 VRB04KT 9999 FEW020 TX31/0111Z TN22/0102Z"
    },
    {
      "icao": "LMML",
      "alert": "OK",
      "vis_m": 9999,
      "fzfg": false,
      "metar_trigger": false,
      "taf_trigger": false,
      "metar": "METAR LMML 302245Z 29004KT CAVOK 26/22 Q1016 NOSIG",
      "taf": "TAF LMML 302300Z 0100/0124 30005KT 9999 FEW018"
    },
    {
      "icao": "LOWW",
      "alert": "OK",
      "vis_m": 9999,
      "fzfg": false,
      "metar_trigger": false,
      "taf_trigger": false,
      "metar": "METAR LOWW 302250Z 31007KT 280V340 CAVOK 28/18 Q1016 NOSIG",
      "taf": "TAF LOWW 302015Z 3021/0203 VRB04KT CAVOK TX30/0111Z TN18/0203Z"
    },
    {
      "icao": "LPFR",
      "alert": "OK",
      "vis_m": 9999,
      "fzfg": false,
      "metar_trigger": false,
      "taf_trigger": false,
      "metar": "METAR LPFR 302230Z 25007KT CAVOK 23/19 Q1017",
      "taf": "TAF LPFR 301700Z 3018/0118 26012KT CAVOK"
    },
    {
      "icao": "LPMA",
      "alert": "OK",
      "vis_m": 9999,
      "fzfg": false,
      "metar_trigger": false,
      "taf_trigger": false,
      "metar": "METAR LPMA 302230Z 02025G37KT 9999 FEW014 SCT030 21/15 Q1022",
      "taf": "TAF LPMA 301700Z 3018/0118 02018G30KT 9999 SCT015"
    },
    {
      "icao": "LPPR",
      "alert": "OK",
      "vis_m": 9999,
      "fzfg": false,
      "metar_trigger": false,
      "taf_trigger": false,
      "metar": "METAR LPPR 302230Z 35005KT CAVOK 18/16 Q1021",
      "taf": "TAF LPPR 301700Z 3018/0118 33015KT CAVOK"
    },
    {
      "icao": "LPPS",
      "alert": "OK",
      "vis_m": 9999,
      "fzfg": false,
      "metar_trigger": false,
      "taf_trigger": false,
      "metar": "METAR LPPS 302230Z 03014KT 360V080 9999 SCT014 BKN030 21/15 Q1024",
      "taf": "TAF LPPS 301700Z 3018/0124 02015KT 9999 SCT015 SCT030"
    },
    {
      "icao": "LPPT",
      "alert": "OK",
      "vis_m": 9999,
      "fzfg": false,
      "metar_trigger": false,
      "taf_trigger": false,
      "metar": "METAR LPPT 302230Z 33015KT 9999 FEW012 19/16 Q1021 NOSIG",
      "taf": "TAF LPPT 301700Z 3018/0124 33015KT CAVOK"
    },
    {
      "icao": "LQBK",
      "alert": "OK",
      "vis_m": 7000,
      "fzfg": false,
      "metar_trigger": false,
      "taf_trigger": false,
      "metar": "METAR LQBK 302300Z 20014KT 7000 TSRA FEW035CB SCT040 21/17 Q1017 BECMG 14006KT NSW NSC",
      "taf": "TAF LQBK 302300Z 0100/0124 15005KT CAVOK TX33/0112Z TN17/0123Z"
    },
    {
      "icao": "LQSA",
      "alert": "OK",
      "vis_m": 9999,
      "fzfg": false,
      "metar_trigger": false,
      "taf_trigger": false,
      "metar": "METAR LQSA 302300Z VRB02KT 9999 FEW060 18/17 Q1020 NOSIG",
      "taf": "TAF LQSA 301700Z 3018/0118 VRB02KT CAVOK TX30/0112Z TN18/0103Z"
    },
    {
      "icao": "LQTZ",
      "alert": "OK",
      "vis_m": 9999,
      "fzfg": false,
      "metar_trigger": false,
      "taf_trigger": false,
      "metar": "METAR LQTZ 302300Z VRB02KT 9999 VCTS FEW035CB BKN045 21/21 Q1018",
      "taf": "TAF LQTZ 302300Z 0100/0124 03005KT 9999 FEW050 TX31/0113Z TN19/0103Z"
    },
    {
      "icao": "LRBC",
      "alert": "OK",
      "vis_m": 9999,
      "fzfg": false,
      "metar_trigger": false,
      "taf_trigger": false,
      "metar": "METAR LRBC 302230Z 35005KT CAVOK 24/19 Q1017",
      "taf": "TAF LRBC 302000Z 3021/0106 33005KT CAVOK"
    },
    {
      "icao": "LRBS",
      "alert": "OK",
      "vis_m": 9999,
      "fzfg": false,
      "metar_trigger": false,
      "taf_trigger": false,
      "metar": "METAR LRBS 302230Z 32008KT 260V040 9999 VCTS FEW010 SCT045CB 20/20 Q1015 RETSRA NOSIG",
      "taf": ""
    },
    {
      "icao": "LRBV",
      "alert": "OK",
      "vis_m": 9999,
      "fzfg": false,
      "metar_trigger": false,
      "taf_trigger": false,
      "metar": "METAR LRBV 302230Z AUTO 21005KT 9999 SCT052/// OVC150/// 19/18 Q1021",
      "taf": "TAF LRBV 302000Z 3021/0106 VRB04KT 9999 SCT040"
    },
    {
      "icao": "LRCL",
      "alert": "OK",
      "vis_m": 9999,
      "fzfg": false,
      "metar_trigger": false,
      "taf_trigger": false,
      "metar": "METAR LRCL 302230Z VRB01KT CAVOK 21/19 Q1018",
      "taf": "TAF LRCL 302000Z 3021/0106 VRB04KT 9999 SCT040"
    },
    {
      "icao": "LRCV",
      "alert": "OK",
      "vis_m": 9999,
      "fzfg": false,
      "metar_trigger": false,
      "taf_trigger": false,
      "metar": "METAR LRCV 302230Z 06013KT 9999 SCT049CB 22/19 Q1016",
      "taf": "TAF LRCV 302000Z 3021/0106 08020KT 9999 SCT045"
    },
    {
      "icao": "LRIA",
      "alert": "OK",
      "vis_m": 9999,
      "fzfg": false,
      "metar_trigger": false,
      "taf_trigger": false,
      "metar": "METAR LRIA 302230Z VRB01KT CAVOK 23/19 Q1017",
      "taf": "TAF LRIA 302000Z 3021/0106 04006KT CAVOK"
    },
    {
      "icao": "LROP",
      "alert": "OK",
      "vis_m": 9999,
      "fzfg": false,
      "metar_trigger": false,
      "taf_trigger": false,
      "metar": "METAR LROP 302230Z 26014KT 220V280 9999 TS FEW014 BKN061CB 21/19 Q1016 NOSIG",
      "taf": ""
    },
    {
      "icao": "LRSB",
      "alert": "OK",
      "vis_m": 9999,
      "fzfg": false,
      "metar_trigger": false,
      "taf_trigger": false,
      "metar": "METAR LRSB 302230Z 14004KT 100V200 CAVOK 21/18 Q1019",
      "taf": "TAF LRSB 301700Z 3018/0118 28008KT 9999 SCT045"
    },
    {
      "icao": "LRSM",
      "alert": "OK",
      "vis_m": 9999,
      "fzfg": false,
      "metar_trigger": false,
      "taf_trigger": false,
      "metar": "METAR LRSM 302230Z AUTO 08005KT 9999 FEW180/// 23/16 Q1017",
      "taf": "TAF LRSM 302000Z 3021/0106 VRB04KT CAVOK"
    },
    {
      "icao": "LRSV",
      "alert": "OK",
      "vis_m": 9999,
      "fzfg": false,
      "metar_trigger": false,
      "taf_trigger": false,
      "metar": "METAR LRSV 302230Z 33006KT CAVOK 25/19 Q1019",
      "taf": "TAF LRSV 302000Z 3021/0106 VRB04KT CAVOK"
    },
    {
      "icao": "LRTM",
      "alert": "OK",
      "vis_m": 9999,
      "fzfg": false,
      "metar_trigger": false,
      "taf_trigger": false,
      "metar": "METAR LRTM 302230Z 06007KT CAVOK 20/19 Q1018",
      "taf": "TAF LRTM 302000Z 3021/0106 VRB04KT 9999 SCT040CB"
    },
    {
      "icao": "LRTR",
      "alert": "OK",
      "vis_m": 9999,
      "fzfg": false,
      "metar_trigger": false,
      "taf_trigger": false,
      "metar": "METAR LRTR 302230Z 02007KT CAVOK 23/18 Q1014",
      "taf": "TAF LRTR 301700Z 3018/0118 09009KT 9999 SCT045"
    },
    {
      "icao": "LTAC",
      "alert": "OK",
      "vis_m": 9999,
      "fzfg": false,
      "metar_trigger": false,
      "taf_trigger": false,
      "metar": "METAR LTAC 302250Z 05005KT CAVOK 20/11 Q1017 NOSIG RMK RWY21C 04005KT RWY03L 04005KT 360V060 RWY21R VRB02KT RWY03R 03006KT RWY21L 02005KT 340V060",
      "taf": "TAF LTAC 302240Z 0100/0124 06008KT CAVOK"
    },
    {
      "icao": "LTFM",
      "alert": "OK",
      "vis_m": 9999,
      "fzfg": false,
      "metar_trigger": false,
      "taf_trigger": false,
      "metar": "METAR LTFM 302250Z 02008KT 340V040 9999 SCT007 23/22 Q1012 NOSIG RMK RWY17L 03008KT RWY34L 02009KT RWY16R 03009KT RWY36 03010KT RWY18 04008KT",
      "taf": "TAF LTFM 302240Z 0100/0206 04010KT 9999 SCT007"
    },
    {
      "icao": "LUKK",
      "alert": "OK",
      "vis_m": 9999,
      "fzfg": false,
      "metar_trigger": false,
      "taf_trigger": false,
      "metar": "METAR LUKK 302300Z 01007KT CAVOK 25/18 Q1016 NOSIG",
      "taf": "TAF LUKK 302302Z 0100/0124 04008KT CAVOK"
    },
    {
      "icao": "LWOH",
      "alert": "OK",
      "vis_m": 9999,
      "fzfg": false,
      "metar_trigger": false,
      "taf_trigger": false,
      "metar": "METAR LWOH 302250Z 05004KT 340V100 9999 SCT045 BKN090 17/15 Q1019",
      "taf": "TAF LWOH 302040Z 3021/0121 VRB02KT 9999 FEW050 SCT090"
    },
    {
      "icao": "LWSK",
      "alert": "OK",
      "vis_m": 9999,
      "fzfg": false,
      "metar_trigger": false,
      "taf_trigger": false,
      "metar": "METAR LWSK 302250Z VRB01KT 9999 FEW090 20/18 Q1016 NOSIG",
      "taf": "TAF LWSK 302040Z 3021/0121 VRB02KT 9999 FEW050 SCT090"
    },
    {
      "icao": "LYBE",
      "alert": "OK",
      "vis_m": 9999,
      "fzfg": false,
      "metar_trigger": false,
      "taf_trigger": false,
      "metar": "METAR LYBE 302230Z 26006KT 200V290 CAVOK 27/17 Q1014 NOSIG",
      "taf": "TAF LYBE 301700Z 3018/0118 06006KT CAVOK TX33/0113Z TN21/0103Z"
    },
    {
      "icao": "LYNI",
      "alert": "OK",
      "vis_m": 9999,
      "fzfg": false,
      "metar_trigger": false,
      "taf_trigger": false,
      "metar": "METAR LYNI 302300Z 13006KT 050V200 9999 FEW050 BKN090 26/15 Q1015 NOSIG",
      "taf": "TAF LYNI 301700Z 3018/0118 35005KT CAVOK TX33/0114Z TN19/0103Z"
    },
    {
      "icao": "LYPG",
      "alert": "OK",
      "vis_m": 9999,
      "fzfg": false,
      "metar_trigger": false,
      "taf_trigger": false,
      "metar": "METAR LYPG 302300Z 33006KT 290V010 9999 SCT034 SCT040 24/18 Q1015 NOSIG",
      "taf": "TAF LYPG 301700Z 3018/0118 34008KT 9999 SCT040 BKN080 TX36/0113Z TN23/0103Z"
    },
    {
      "icao": "LZIB",
      "alert": "OK",
      "vis_m": 9999,
      "fzfg": false,
      "metar_trigger": false,
      "taf_trigger": false,
      "metar": "METAR LZIB 302300Z 03004KT 010V070 CAVOK 25/18 Q1015 NOSIG",
      "taf": "TAF LZIB 301715Z 3018/0118 30005KT CAVOK"
    },
    {
      "icao": "LZKZ",
      "alert": "OK",
      "vis_m": 9999,
      "fzfg": false,
      "metar_trigger": false,
      "taf_trigger": false,
      "metar": "METAR LZKZ 302300Z 34007KT CAVOK 25/18 Q1017 NOSIG",
      "taf": ""
    },
    {
      "icao": "LZTT",
      "alert": "OK",
      "vis_m": 9999,
      "fzfg": false,
      "metar_trigger": false,
      "taf_trigger": false,
      "metar": "METAR LZTT 302300Z 27003KT 9999 FEW050 19/19 Q1020",
      "taf": "TAF LZTT 301715Z 3018/0118 07008KT 9999 FEW050"
    },
    {
      "icao": "OEJN",
      "alert": "OK",
      "vis_m": 9999,
      "fzfg": false,
      "metar_trigger": false,
      "taf_trigger": false,
      "metar": "METAR OEJN 302300Z 01004KT CAVOK 31/14 Q1002 NOSIG",
      "taf": "TAF OEJN 302300Z 0100/0206 36006KT CAVOK"
    },
    {
      "icao": "OEMA",
      "alert": "OK",
      "vis_m": 9999,
      "fzfg": false,
      "metar_trigger": false,
      "taf_trigger": false,
      "metar": "METAR OEMA 302300Z 01004KT CAVOK 36/M01 Q1008 NOSIG",
      "taf": "TAF OEMA 302300Z 0100/0206 VRB03KT CAVOK"
    },
    {
      "icao": "OJAI",
      "alert": "OK",
      "vis_m": 5000,
      "fzfg": false,
      "metar_trigger": false,
      "taf_trigger": false,
      "metar": "METAR OJAI 302200Z 26005KT 5000 HZ NSC 19/09 Q1013 NOSIG",
      "taf": "TAF OJAI 301651Z 3018/0124 30010KT 5000 HZ NSC"
    },
    {
      "icao": "OMAA",
      "alert": "OK",
      "vis_m": 9999,
      "fzfg": false,
      "metar_trigger": false,
      "taf_trigger": false,
      "metar": "METAR OMAA 302300Z 24002KT CAVOK 32/23 Q0996 NOSIG",
      "taf": "TAF OMAA 302300Z 0100/0206 21005KT 8000 NSC"
    },
    {
      "icao": "OMDB",
      "alert": "OK",
      "vis_m": 9999,
      "fzfg": false,
      "metar_trigger": false,
      "taf_trigger": false,
      "metar": "METAR OMDB 302300Z 18006KT 110V260 CAVOK 33/26 Q0996 NOSIG",
      "taf": "TAF OMDB 302300Z 0100/0206 19005KT 8000 NSC"
    },
    {
      "icao": "UAAA",
      "alert": "OK",
      "vis_m": 9999,
      "fzfg": false,
      "metar_trigger": false,
      "taf_trigger": false,
      "metar": "METAR UAAA 302230Z 18001MPS 9999 BKN050CB OVC100 23/13 Q1010 NOSIG",
      "taf": "TAF UAAA 301704Z 3018/0118 25003G08MPS 9999 BKN040CB OVC100 TX27/0110Z TN20/0101Z"
    },
    {
      "icao": "UBBB",
      "alert": "OK",
      "vis_m": 9999,
      "fzfg": false,
      "metar_trigger": false,
      "taf_trigger": false,
      "metar": "METAR UBBB 302300Z 28006KT 9999 FEW060CB 22/17 Q1011 NOSIG",
      "taf": "TAF UBBB 301716Z 3018/0118 33006KT 9999 FEW060CB TX29/0110Z TN19/0101Z"
    },
    {
      "icao": "UDSG",
      "alert": "OK",
      "vis_m": 9999,
      "fzfg": false,
      "metar_trigger": false,
      "taf_trigger": false,
      "metar": "METAR UDSG 302230Z 04007KT 9999 NSC 14/08 Q1019 NOSIG",
      "taf": "TAF UDSG 301700Z 3018/0118 36006KT 9999 FEW050"
    },
    {
      "icao": "UDYZ",
      "alert": "OK",
      "vis_m": 9999,
      "fzfg": false,
      "metar_trigger": false,
      "taf_trigger": false,
      "metar": "METAR UDYZ 302230Z VRB01KT 9999 NSC 20/11 Q1013 NOSIG",
      "taf": "TAF UDYZ 301700Z 3018/0118 02006KT 9999 FEW040"
    },
    {
      "icao": "UGKO",
      "alert": "OK",
      "vis_m": 9999,
      "fzfg": false,
      "metar_trigger": false,
      "taf_trigger": false,
      "metar": "METAR UGKO 302230Z 05004KT 9999 BKN073 19/18 Q1013 NOSIG",
      "taf": "TAF UGKO 302300Z 0100/0124 08007KT 9999 SCT080 TX30/0111Z TN18/0102Z"
    }
  ]
}