{
  "ts_utc": "2026-06-18T05:10:47Z",
  "threshold_m": 150,
  "source": "stations_override.txt (ICAO list) + aviationweather.gov (METAR/TAF raw)",
  "station_count": 159,
  "stations": [
    {
      "icao": "BIKF",
      "alert": "OK",
      "vis_m": 9999,
      "fzfg": false,
      "metar_trigger": false,
      "taf_trigger": false,
      "metar": "METAR BIKF 180500Z 05003KT 9999 FEW042 SCT100 BKN130 09/06 Q1002",
      "taf": "TAF BIKF 180443Z 1806/1906 02006KT 9999 FEW040 TX14/1815Z TN09/1806Z"
    },
    {
      "icao": "BKPR",
      "alert": "OK",
      "vis_m": 9999,
      "fzfg": false,
      "metar_trigger": false,
      "taf_trigger": false,
      "metar": "METAR BKPR 180500Z VRB01KT CAVOK 16/12 Q1021 NOSIG",
      "taf": ""
    },
    {
      "icao": "EBCI",
      "alert": "OK",
      "vis_m": 9999,
      "fzfg": false,
      "metar_trigger": false,
      "taf_trigger": false,
      "metar": "METAR EBCI 180450Z 20003KT CAVOK 19/17 Q1020 NOSIG",
      "taf": "TAF EBCI 172320Z 1800/1906 20004KT 9999 FEW045"
    },
    {
      "icao": "EDDB",
      "alert": "OK",
      "vis_m": 9999,
      "fzfg": false,
      "metar_trigger": false,
      "taf_trigger": false,
      "metar": "METAR EDDB 180450Z AUTO 24007KT CAVOK 20/16 Q1019 NOSIG",
      "taf": "TAF EDDB 172300Z 1800/1824 23004KT CAVOK"
    },
    {
      "icao": "EDDH",
      "alert": "OK",
      "vis_m": 9999,
      "fzfg": false,
      "metar_trigger": false,
      "taf_trigger": false,
      "metar": "METAR EDDH 180450Z AUTO VRB02KT 9999 BKN017 18/17 Q1018 NOSIG",
      "taf": "TAF EDDH 172300Z 1800/1906 24004KT 9999 SCT020 BKN030"
    },
    {
      "icao": "EDDK",
      "alert": "OK",
      "vis_m": 9999,
      "fzfg": false,
      "metar_trigger": false,
      "taf_trigger": false,
      "metar": "METAR EDDK 180450Z AUTO 11003KT 070V130 CAVOK 19/16 Q1020 NOSIG",
      "taf": "TAF EDDK 172300Z 1800/1906 VRB03KT CAVOK"
    },
    {
      "icao": "EDDN",
      "alert": "OK",
      "vis_m": 9999,
      "fzfg": false,
      "metar_trigger": false,
      "taf_trigger": false,
      "metar": "METAR EDDN 180450Z AUTO 11003KT 070V140 CAVOK 18/15 Q1022 NOSIG",
      "taf": "TAF EDDN 172300Z 1800/1824 10004KT CAVOK"
    },
    {
      "icao": "EDDS",
      "alert": "OK",
      "vis_m": 9999,
      "fzfg": false,
      "metar_trigger": false,
      "taf_trigger": false,
      "metar": "METAR EDDS 180450Z AUTO VRB02KT CAVOK 17/14 Q1022 NOSIG",
      "taf": "TAF EDDS 172300Z 1800/1824 VRB03KT CAVOK"
    },
    {
      "icao": "EDFH",
      "alert": "OK",
      "vis_m": 9999,
      "fzfg": false,
      "metar_trigger": false,
      "taf_trigger": false,
      "metar": "METAR EDFH 180450Z 15006KT CAVOK 19/15 Q1021",
      "taf": "TAF EDFH 172300Z 1800/1824 19004KT CAVOK"
    },
    {
      "icao": "EDJA",
      "alert": "OK",
      "vis_m": 9999,
      "fzfg": false,
      "metar_trigger": false,
      "taf_trigger": false,
      "metar": "METAR EDJA 180450Z 17004KT CAVOK 15/14 Q1023",
      "taf": "TAF EDJA 180200Z 1803/1812 VRB03KT CAVOK"
    },
    {
      "icao": "EDLW",
      "alert": "OK",
      "vis_m": 9999,
      "fzfg": false,
      "metar_trigger": false,
      "taf_trigger": false,
      "metar": "METAR EDLW 180450Z 26003KT 210V310 CAVOK 20/17 Q1019",
      "taf": "TAF EDLW 180320Z 1804/1824 17007KT CAVOK"
    },
    {
      "icao": "EDNY",
      "alert": "OK",
      "vis_m": 9999,
      "fzfg": false,
      "metar_trigger": false,
      "taf_trigger": false,
      "metar": "METAR EDNY 180450Z 05003KT 320V090 CAVOK 18/14 Q1022",
      "taf": "TAF EDNY 180200Z 1803/1812 04003KT CAVOK"
    },
    {
      "icao": "EDSB",
      "alert": "OK",
      "vis_m": 9999,
      "fzfg": false,
      "metar_trigger": false,
      "taf_trigger": false,
      "metar": "METAR EDSB 180450Z VRB01KT CAVOK 18/16 Q1020",
      "taf": "TAF EDSB 172300Z 1800/1824 VRB03KT CAVOK"
    },
    {
      "icao": "EETN",
      "alert": "OK",
      "vis_m": 9999,
      "fzfg": false,
      "metar_trigger": false,
      "taf_trigger": false,
      "metar": "METAR EETN 180450Z 30007KT CAVOK 16/08 Q1008 NOSIG",
      "taf": "TAF EETN 172330Z 1800/1824 29010KT 9999 SCT040"
    },
    {
      "icao": "EFTU",
      "alert": "OK",
      "vis_m": 9999,
      "fzfg": false,
      "metar_trigger": false,
      "taf_trigger": false,
      "metar": "METAR EFTU 180450Z AUTO 31003KT 250V350 CAVOK 16/08 Q1008",
      "taf": "TAF EFTU 180232Z 1803/1903 27005KT CAVOK"
    },
    {
      "icao": "EGBB",
      "alert": "OK",
      "vis_m": 9999,
      "fzfg": false,
      "metar_trigger": false,
      "taf_trigger": false,
      "metar": "METAR EGBB 180450Z 17005KT 9999 FEW009 BKN020 16/15 Q1017",
      "taf": "TAF EGBB 172255Z 1800/1824 22008KT 9999 FEW025"
    },
    {
      "icao": "EGGP",
      "alert": "OK",
      "vis_m": 9999,
      "fzfg": false,
      "metar_trigger": false,
      "taf_trigger": false,
      "metar": "METAR EGGP 180450Z 16006KT 130V210 CAVOK 14/12 Q1015",
      "taf": "TAF EGGP 172253Z 1800/1824 25005KT 9999 FEW040"
    },
    {
      "icao": "EGGW",
      "alert": "OK",
      "vis_m": 9999,
      "fzfg": false,
      "metar_trigger": false,
      "taf_trigger": false,
      "metar": "METAR EGGW 180450Z AUTO 21006KT 170V230 9999 OVC005 16/15 Q1018",
      "taf": ""
    },
    {
      "icao": "EGKK",
      "alert": "OK",
      "vis_m": 2000,
      "fzfg": false,
      "metar_trigger": false,
      "taf_trigger": false,
      "metar": "METAR EGKK 180450Z 19003KT 2000 BR OVC002 16/16 Q1018",
      "taf": "TAF EGKK 172302Z 1800/1906 22005KT 9999 BKN007"
    },
    {
      "icao": "EGNM",
      "alert": "OK",
      "vis_m": 9999,
      "fzfg": false,
      "metar_trigger": false,
      "taf_trigger": false,
      "metar": "METAR EGNM 180450Z 24007KT CAVOK 13/10 Q1015",
      "taf": "TAF EGNM 172255Z 1800/1824 26004KT 9999 FEW040"
    },
    {
      "icao": "EGPD",
      "alert": "OK",
      "vis_m": 9999,
      "fzfg": false,
      "metar_trigger": false,
      "taf_trigger": false,
      "metar": "METAR EGPD 180450Z AUTO 21009KT 9999 NCD 14/11 Q1011",
      "taf": "TAF EGPD 172253Z 1800/1824 23009KT 9999 FEW018"
    },
    {
      "icao": "EGPF",
      "alert": "OK",
      "vis_m": 9999,
      "fzfg": false,
      "metar_trigger": false,
      "taf_trigger": false,
      "metar": "METAR EGPF 180450Z AUTO 21006KT 9999 NCD 14/12 Q1012",
      "taf": "TAF EGPF 172253Z 1800/1824 18008KT 9999 SCT010 BKN025"
    },
    {
      "icao": "EHBK",
      "alert": "OK",
      "vis_m": 9999,
      "fzfg": false,
      "metar_trigger": false,
      "taf_trigger": false,
      "metar": "METAR EHBK 180455Z AUTO 20004KT 9999 NSC 19/17 Q1019 NOSIG",
      "taf": "TAF EHBK 172316Z 1800/1906 15003KT CAVOK"
    },
    {
      "icao": "EHEH",
      "alert": "OK",
      "vis_m": 9999,
      "fzfg": false,
      "metar_trigger": false,
      "taf_trigger": false,
      "metar": "METAR EHEH 180455Z AUTO 21002KT 9999 NCD 17/17 Q1019 BLU NOSIG RMK TREND REMOTE BY EHWX",
      "taf": "TAF EHEH 172342Z 1800/1906 VRB02KT CAVOK"
    },
    {
      "icao": "EKBI",
      "alert": "OK",
      "vis_m": 9000,
      "fzfg": false,
      "metar_trigger": false,
      "taf_trigger": false,
      "metar": "METAR EKBI 180450Z AUTO 23007KT 9000 BKN003/// 14/14 Q1016",
      "taf": "TAF EKBI 180227Z 1803/1903 25007KT 9999 OVC002"
    },
    {
      "icao": "EKCH",
      "alert": "OK",
      "vis_m": 9999,
      "fzfg": false,
      "metar_trigger": false,
      "taf_trigger": false,
      "metar": "METAR EKCH 180450Z 27010KT 9999 BKN013 16/14 Q1016 BECMG BKN020",
      "taf": "TAF EKCH 180227Z 1803/1903 28012KT 9999 BKN008"
    },
    {
      "icao": "ENAL",
      "alert": "OK",
      "vis_m": 9999,
      "fzfg": false,
      "metar_trigger": false,
      "taf_trigger": false,
      "metar": "METAR ENAL 180450Z 24013KT 9999 BKN020 12/11 Q1009",
      "taf": "TAF ENAL 180200Z 1803/1812 20005KT 9999 -RA FEW012 BKN040"
    },
    {
      "icao": "ENBR",
      "alert": "OK",
      "vis_m": 9999,
      "fzfg": false,
      "metar_trigger": false,
      "taf_trigger": false,
      "metar": "METAR ENBR 180450Z 18006KT 9999 -SHRA OVC002 10/10 Q1012 TEMPO 1500 BR RMK WIND 1200FT 20007KT",
      "taf": "TAF ENBR 172300Z 1800/1824 18008KT 0100 FG VV001"
    },
    {
      "icao": "ENGM",
      "alert": "OK",
      "vis_m": 9999,
      "fzfg": false,
      "metar_trigger": false,
      "taf_trigger": false,
      "metar": "METAR ENGM 180450Z 19006KT 9999 FEW009 BKN013 13/10 Q1009 BECMG SCT015",
      "taf": ""
    },
    {
      "icao": "ENHD",
      "alert": "OK",
      "vis_m": 400,
      "fzfg": false,
      "metar_trigger": false,
      "taf_trigger": false,
      "metar": "METAR ENHD 180450Z 20003KT 0400 R13/1200D R31/0900D FG VV003 11/11 Q1012",
      "taf": "TAF ENHD 180200Z 1803/1812 20008KT 0800 -DZ FG VV003"
    },
    {
      "icao": "ENTC",
      "alert": "OK",
      "vis_m": 9999,
      "fzfg": false,
      "metar_trigger": false,
      "taf_trigger": false,
      "metar": "METAR ENTC 180450Z 25003KT 220V290 9999 SCT027 BKN039 07/03 Q1012 RMK WIND 2600FT 36008KT",
      "taf": "TAF ENTC 172300Z 1800/1824 35008KT 9999 FEW012 BKN025"
    },
    {
      "icao": "ENTO",
      "alert": "OK",
      "vis_m": 9999,
      "fzfg": false,
      "metar_trigger": false,
      "taf_trigger": false,
      "metar": "METAR ENTO 180450Z 24006KT CAVOK 13/12 Q1010 NOSIG",
      "taf": "TAF ENTO 172300Z 1800/1824 20008KT 6000 -DZ BKN008"
    },
    {
      "icao": "ENVA",
      "alert": "OK",
      "vis_m": 9999,
      "fzfg": false,
      "metar_trigger": false,
      "taf_trigger": false,
      "metar": "METAR ENVA 180450Z 01003KT 340V040 9999 FEW053 13/10 Q1008 NOSIG RMK WIND 670FT 29006KT",
      "taf": "TAF ENVA 172300Z 1800/1824 26008KT 9999 -SHRA FEW025 BKN050"
    },
    {
      "icao": "ENZV",
      "alert": "OK",
      "vis_m": 350,
      "fzfg": false,
      "metar_trigger": false,
      "taf_trigger": false,
      "metar": "METAR ENZV 180450Z 22004KT 0350 R18/1100N R36/1200D R10/0750N FG VV003 13/12 Q1013 TEMPO 1500 BR",
      "taf": ""
    },
    {
      "icao": "EPGD",
      "alert": "OK",
      "vis_m": 9999,
      "fzfg": false,
      "metar_trigger": false,
      "taf_trigger": false,
      "metar": "METAR EPGD 180500Z 26006KT 9999 BKN040 14/10 Q1017",
      "taf": "TAF EPGD 172330Z 1800/1824 25005KT CAVOK"
    },
    {
      "icao": "EPKK",
      "alert": "OK",
      "vis_m": 9999,
      "fzfg": false,
      "metar_trigger": false,
      "taf_trigger": false,
      "metar": "METAR EPKK 180500Z VRB02KT 9999 SCT060 14/11 Q1020",
      "taf": "TAF EPKK 180230Z 1803/1903 VRB02KT CAVOK"
    },
    {
      "icao": "EPKT",
      "alert": "OK",
      "vis_m": 9999,
      "fzfg": false,
      "metar_trigger": false,
      "taf_trigger": false,
      "metar": "METAR EPKT 180500Z VRB01KT CAVOK 14/12 Q1020",
      "taf": "TAF EPKT 172330Z 1800/1824 VRB02KT CAVOK"
    },
    {
      "icao": "EPLB",
      "alert": "OK",
      "vis_m": 9999,
      "fzfg": false,
      "metar_trigger": false,
      "taf_trigger": false,
      "metar": "METAR EPLB 180500Z 28005KT CAVOK 15/11 Q1019",
      "taf": "TAF EPLB 172330Z 1800/1824 27004KT CAVOK"
    },
    {
      "icao": "EPMO",
      "alert": "OK",
      "vis_m": 9999,
      "fzfg": false,
      "metar_trigger": false,
      "taf_trigger": false,
      "metar": "METAR EPMO 180500Z 22005KT CAVOK 14/11 Q1018",
      "taf": "TAF EPMO 172330Z 1800/1824 23004KT CAVOK"
    },
    {
      "icao": "EPPO",
      "alert": "OK",
      "vis_m": 9999,
      "fzfg": false,
      "metar_trigger": false,
      "taf_trigger": false,
      "metar": "METAR EPPO 180500Z 24004KT CAVOK 18/12 Q1018",
      "taf": "TAF EPPO 172330Z 1800/1824 VRB02KT CAVOK"
    },
    {
      "icao": "EPRA",
      "alert": "OK",
      "vis_m": 9999,
      "fzfg": false,
      "metar_trigger": false,
      "taf_trigger": false,
      "metar": "METAR EPRA 180500Z 24005KT CAVOK 16/09 Q1019",
      "taf": "TAF EPRA 180230Z 1803/1812 27010KT CAVOK"
    },
    {
      "icao": "EPRZ",
      "alert": "OK",
      "vis_m": 9999,
      "fzfg": false,
      "metar_trigger": false,
      "taf_trigger": false,
      "metar": "METAR EPRZ 180500Z VRB02KT CAVOK 14/10 Q1020",
      "taf": "TAF EPRZ 172330Z 1800/1824 VRB02KT CAVOK"
    },
    {
      "icao": "EPSC",
      "alert": "OK",
      "vis_m": 9999,
      "fzfg": false,
      "metar_trigger": false,
      "taf_trigger": false,
      "metar": "METAR EPSC 180500Z 22004KT 190V250 9999 -RA FEW005 SCT017 BKN020 16/15 Q1018",
      "taf": "TAF EPSC 172330Z 1800/1824 VRB03KT 9999 SCT040"
    },
    {
      "icao": "EPSY",
      "alert": "OK",
      "vis_m": 9999,
      "fzfg": false,
      "metar_trigger": false,
      "taf_trigger": false,
      "metar": "METAR EPSY 180500Z 23004KT CAVOK 14/12 Q1017",
      "taf": "TAF EPSY 180230Z 1803/1812 21005KT CAVOK"
    },
    {
      "icao": "EPWA",
      "alert": "OK",
      "vis_m": 9999,
      "fzfg": false,
      "metar_trigger": false,
      "taf_trigger": false,
      "metar": "METAR EPWA 180500Z 22003KT CAVOK 16/11 Q1018 NOSIG",
      "taf": "TAF EPWA 180230Z 1803/1903 24004KT CAVOK"
    },
    {
      "icao": "EPWR",
      "alert": "OK",
      "vis_m": 9999,
      "fzfg": false,
      "metar_trigger": false,
      "taf_trigger": false,
      "metar": "METAR EPWR 180500Z 26005KT CAVOK 19/15 Q1020",
      "taf": "TAF EPWR 180230Z 1803/1903 VRB02KT CAVOK"
    },
    {
      "icao": "ESGG",
      "alert": "OK",
      "vis_m": 9999,
      "fzfg": false,
      "metar_trigger": false,
      "taf_trigger": false,
      "metar": "METAR ESGG 180450Z 26010KT 9999 BKN006 13/12 Q1013",
      "taf": "TAF ESGG 180230Z 1803/1903 26008KT 6000 -RA BKN003"
    },
    {
      "icao": "ESKN",
      "alert": "OK",
      "vis_m": 9999,
      "fzfg": false,
      "metar_trigger": false,
      "taf_trigger": false,
      "metar": "METAR ESKN 180450Z 21004KT 9999 BKN032 14/11 Q1010",
      "taf": "TAF ESKN 180230Z 1803/1903 25005KT CAVOK"
    },
    {
      "icao": "ESMS",
      "alert": "OK",
      "vis_m": 9999,
      "fzfg": false,
      "metar_trigger": false,
      "taf_trigger": false,
      "metar": "METAR ESMS 180450Z 29010KT CAVOK 16/14 Q1015",
      "taf": ""
    },
    {
      "icao": "ESSA",
      "alert": "OK",
      "vis_m": 9999,
      "fzfg": false,
      "metar_trigger": false,
      "taf_trigger": false,
      "metar": "METAR ESSA 180450Z 25010KT CAVOK 12/07 Q1009 NOSIG",
      "taf": "TAF ESSA 180230Z 1803/1903 24008KT CAVOK"
    },
    {
      "icao": "EYKA",
      "alert": "OK",
      "vis_m": 9999,
      "fzfg": false,
      "metar_trigger": false,
      "taf_trigger": false,
      "metar": "METAR EYKA 180450Z 28011KT 9999 SCT012 13/10 Q1015",
      "taf": "TAF EYKA 180500Z 1806/1906 27010KT 8000 SCT010 BKN015"
    },
    {
      "icao": "EYPA",
      "alert": "OK",
      "vis_m": 9999,
      "fzfg": false,
      "metar_trigger": false,
      "taf_trigger": false,
      "metar": "METAR EYPA 180450Z COR 23005KT 180V280 9999 OVC008 15/13 Q1014",
      "taf": "TAF EYPA 180500Z 1806/1906 VRB03KT 8000 BKN005"
    },
    {
      "icao": "EYVI",
      "alert": "OK",
      "vis_m": 9999,
      "fzfg": false,
      "metar_trigger": false,
      "taf_trigger": false,
      "metar": "METAR EYVI 180450Z 28008KT 250V310 CAVOK 13/10 Q1015 NOSIG",
      "taf": "TAF EYVI 180500Z 1806/1906 27010KT 9000 SCT020"
    },
    {
      "icao": "GCFV",
      "alert": "OK",
      "vis_m": 9999,
      "fzfg": false,
      "metar_trigger": false,
      "taf_trigger": false,
      "metar": "METAR GCFV 180500Z 02009KT 9999 OVC030 21/15 Q1018",
      "taf": "TAF GCFV 180200Z 1803/1903 01012KT 9999 BKN025 TX27/1814Z TN20/1806Z"
    },
    {
      "icao": "GCLP",
      "alert": "OK",
      "vis_m": 9999,
      "fzfg": false,
      "metar_trigger": false,
      "taf_trigger": false,
      "metar": "METAR GCLP 180500Z 36014KT 9999 BKN030 21/14 Q1018 NOSIG",
      "taf": "TAF GCLP 180200Z 1803/1903 36018KT 9999 SCT030 TX26/1814Z TN20/1806Z"
    },
    {
      "icao": "GCTS",
      "alert": "OK",
      "vis_m": 9999,
      "fzfg": false,
      "metar_trigger": false,
      "taf_trigger": false,
      "metar": "METAR GCTS 180500Z VRB01KT 9999 BKN030 21/16 Q1019 NOSIG",
      "taf": "TAF GCTS 180200Z 1803/1903 VRB06KT 9999 BKN025 TX25/1814Z TN20/1806Z"
    },
    {
      "icao": "GMAD",
      "alert": "OK",
      "vis_m": 8000,
      "fzfg": false,
      "metar_trigger": false,
      "taf_trigger": false,
      "metar": "METAR GMAD 180500Z 19004KT 8000 SCT008 BKN023 20/17 Q1014 NOSIG",
      "taf": "TAF GMAD 172300Z 1800/1906 12004KT 6000 BKN008 BKN016"
    },
    {
      "icao": "GMMN",
      "alert": "OK",
      "vis_m": 9999,
      "fzfg": false,
      "metar_trigger": false,
      "taf_trigger": false,
      "metar": "METAR GMMN 180500Z 21008KT 9999 SCT015 20/16 Q1014 NOSIG",
      "taf": "TAF GMMN 172300Z 1800/1906 22006KT 9999 BKN012"
    },
    {
      "icao": "GMMX",
      "alert": "OK",
      "vis_m": 8000,
      "fzfg": false,
      "metar_trigger": false,
      "taf_trigger": false,
      "metar": "METAR GMMX 180500Z 24004KT 210V280 8000 SCT010 SCT016 18/16 Q1016 NOSIG",
      "taf": "TAF GMMX 172300Z 1800/1906 26006KT 8000 SCT026"
    },
    {
      "icao": "HEGN",
      "alert": "OK",
      "vis_m": 9999,
      "fzfg": false,
      "metar_trigger": false,
      "taf_trigger": false,
      "metar": "METAR HEGN 180500Z 30014KT CAVOK 30/12 Q1010 NOSIG",
      "taf": "TAF HEGN 172300Z 1800/1906 30012KT CAVOK"
    },
    {
      "icao": "HEMA",
      "alert": "OK",
      "vis_m": 9999,
      "fzfg": false,
      "metar_trigger": false,
      "taf_trigger": false,
      "metar": "METAR HEMA 180500Z 35010KT CAVOK 30/07 Q1009 NOSIG",
      "taf": "TAF HEMA 172300Z 1800/1906 26015KT CAVOK"
    },
    {
      "icao": "HESH",
      "alert": "OK",
      "vis_m": 9999,
      "fzfg": false,
      "metar_trigger": false,
      "taf_trigger": false,
      "metar": "METAR HESH 180500Z 34010KT CAVOK 31/13 Q1010 NOSIG",
      "taf": "TAF HESH 172300Z 1800/1906 33010KT CAVOK"
    },
    {
      "icao": "HESX",
      "alert": "OK",
      "vis_m": 2000,
      "fzfg": false,
      "metar_trigger": false,
      "taf_trigger": false,
      "metar": "METAR HESX 180500Z 35005KT 2000 BR NSC 20/17 Q1013 NOSIG",
      "taf": "TAF HESX 172300Z 1800/1906 34009KT CAVOK"
    },
    {
      "icao": "LATI",
      "alert": "OK",
      "vis_m": 9999,
      "fzfg": false,
      "metar_trigger": false,
      "taf_trigger": false,
      "metar": "METAR LATI 180450Z VRB03KT CAVOK 20/15 Q1018 NOSIG",
      "taf": "TAF LATI 180500Z 1806/1906 VRB05KT CAVOK TX32/1812Z TN18/1904Z"
    },
    {
      "icao": "LBPD",
      "alert": "OK",
      "vis_m": 9999,
      "fzfg": false,
      "metar_trigger": false,
      "taf_trigger": false,
      "metar": "METAR LBPD 180500Z AUTO VRB02KT 9999 NCD 20/13 Q1017 NOSIG",
      "taf": "TAF LBPD 172300Z 1800/1824 VRB03KT 9999 SCT070"
    },
    {
      "icao": "LBSF",
      "alert": "OK",
      "vis_m": 9999,
      "fzfg": false,
      "metar_trigger": false,
      "taf_trigger": false,
      "metar": "METAR LBSF 180500Z 09003KT 050V120 9999 FEW060 SCT074 14/12 Q1020 NOSIG",
      "taf": "TAF LBSF 172300Z 1800/1824 VRB03KT 9999 SCT070"
    },
    {
      "icao": "LBWN",
      "alert": "OK",
      "vis_m": 9999,
      "fzfg": false,
      "metar_trigger": false,
      "taf_trigger": false,
      "metar": "METAR LBWN 180500Z 25004KT 200V290 CAVOK 18/16 Q1016 NOSIG",
      "taf": "TAF LBWN 172300Z 1800/1824 VRB04KT 9999 SCT045"
    },
    {
      "icao": "LCLK",
      "alert": "OK",
      "vis_m": 9999,
      "fzfg": false,
      "metar_trigger": false,
      "taf_trigger": false,
      "metar": "METAR LCLK 180500Z 18005KT 150V210 CAVOK 27/20 Q1009 NOSIG",
      "taf": "TAF LCLK 172330Z 1800/1900 26007KT CAVOK"
    },
    {
      "icao": "LCPH",
      "alert": "OK",
      "vis_m": 9999,
      "fzfg": false,
      "metar_trigger": false,
      "taf_trigger": false,
      "metar": "METAR LCPH 180500Z 31009KT 250V320 9999 FEW013 24/21 Q1010 NOSIG",
      "taf": "TAF LCPH 172330Z 1800/1900 01006KT CAVOK"
    },
    {
      "icao": "LEAL",
      "alert": "OK",
      "vis_m": 9999,
      "fzfg": false,
      "metar_trigger": false,
      "taf_trigger": false,
      "metar": "METAR LEAL 180500Z 27004KT 9999 FEW059 22/11 Q1016 NOSIG",
      "taf": "TAF LEAL 172300Z 1800/1824 VRB04KT CAVOK TX30/1812Z TN21/1805Z"
    },
    {
      "icao": "LEBB",
      "alert": "OK",
      "vis_m": 9999,
      "fzfg": false,
      "metar_trigger": false,
      "taf_trigger": false,
      "metar": "METAR LEBB 180500Z VRB02KT CAVOK 20/18 Q1017 NOSIG",
      "taf": "TAF LEBB 172300Z 1800/1824 12007KT 9999 FEW005 TX26/1813Z TN18/1805Z"
    },
    {
      "icao": "LEBL",
      "alert": "OK",
      "vis_m": 9999,
      "fzfg": false,
      "metar_trigger": false,
      "taf_trigger": false,
      "metar": "METAR LEBL 180500Z 31005KT 9999 FEW008 21/15 Q1019 NOSIG",
      "taf": "TAF LEBL 172300Z 1800/1824 VRB04KT 9999 FEW010 TX27/1812Z TN21/1806Z"
    },
    {
      "icao": "LECH",
      "alert": "OK",
      "vis_m": 9000,
      "fzfg": false,
      "metar_trigger": false,
      "taf_trigger": false,
      "metar": "METAR LECH 180500Z AUTO 00000KT 9000 NCD 17/10 Q1020",
      "taf": "TAF LECH 172300Z 1800/1824 VRB03KT CAVOK TX32/1812Z TN17/1805Z"
    },
    {
      "icao": "LEMD",
      "alert": "OK",
      "vis_m": 9999,
      "fzfg": false,
      "metar_trigger": false,
      "taf_trigger": false,
      "metar": "METAR LEMD 180500Z 33005KT CAVOK 19/06 Q1020 NOSIG",
      "taf": "TAF LEMD 172300Z 1800/1906 VRB04KT CAVOK TX36/1816Z TN19/1805Z"
    },
    {
      "icao": "LEMG",
      "alert": "OK",
      "vis_m": 9999,
      "fzfg": false,
      "metar_trigger": false,
      "taf_trigger": false,
      "metar": "METAR LEMG 180500Z 29003KT 250V330 CAVOK 19/10 Q1015 NOSIG",
      "taf": "TAF LEMG 172300Z 1800/1824 29006KT CAVOK TX32/1814Z TN20/1806Z"
    },
    {
      "icao": "LEVC",
      "alert": "OK",
      "vis_m": 9999,
      "fzfg": false,
      "metar_trigger": false,
      "taf_trigger": false,
      "metar": "METAR LEVC 180500Z VRB02KT CAVOK 19/10 Q1018 NOSIG",
      "taf": "TAF LEVC 172300Z 1800/1824 VRB03KT CAVOK TX32/1812Z TN20/1805Z"
    },
    {
      "icao": "LEXJ",
      "alert": "OK",
      "vis_m": 800,
      "fzfg": false,
      "metar_trigger": false,
      "taf_trigger": false,
      "metar": "METAR LEXJ 180500Z 24004KT 200V010 0800 R29/P2000 R11/P2000 FG VV001 18/18 Q1016",
      "taf": "TAF LEXJ 180200Z 1803/1903 09009KT 9999 SCT005 TX24/1814Z TN17/1804Z"
    },
    {
      "icao": "LEZG",
      "alert": "OK",
      "vis_m": 9999,
      "fzfg": false,
      "metar_trigger": false,
      "taf_trigger": false,
      "metar": "METAR LEZG 180500Z 07004KT CAVOK 21/12 Q1018 NOSIG",
      "taf": "TAF LEZG 172300Z 1800/1824 12008KT CAVOK TX38/1815Z TN21/1805Z"
    },
    {
      "icao": "LEZL",
      "alert": "OK",
      "vis_m": 9999,
      "fzfg": false,
      "metar_trigger": false,
      "taf_trigger": false,
      "metar": "METAR LEZL 180500Z VRB02KT CAVOK 25/14 Q1015 NOSIG",
      "taf": "TAF LEZL 180200Z 1803/1903 VRB03KT CAVOK TX39/1815Z TN22/1806Z"
    },
    {
      "icao": "LFBD",
      "alert": "OK",
      "vis_m": 9999,
      "fzfg": false,
      "metar_trigger": false,
      "taf_trigger": false,
      "metar": "METAR LFBD 180500Z AUTO 21003KT 180V240 9999 2600 NSC 19/18 Q1017 NOSIG",
      "taf": "TAF LFBD 172300Z 1800/1906 03005KT CAVOK TX38/1815Z TN20/1805Z"
    },
    {
      "icao": "LFLL",
      "alert": "OK",
      "vis_m": 9999,
      "fzfg": false,
      "metar_trigger": false,
      "taf_trigger": false,
      "metar": "METAR LFLL 180500Z 00000KT CAVOK 20/14 Q1020 NOSIG",
      "taf": "TAF LFLL 172300Z 1800/1906 16006KT CAVOK"
    },
    {
      "icao": "LFLS",
      "alert": "OK",
      "vis_m": 9999,
      "fzfg": false,
      "metar_trigger": false,
      "taf_trigger": false,
      "metar": "METAR LFLS 180500Z AUTO 09007KT CAVOK 18/15 Q1021 NOSIG",
      "taf": "TAF LFLS 180200Z 1803/1903 08006KT CAVOK"
    },
    {
      "icao": "LFMN",
      "alert": "OK",
      "vis_m": 9999,
      "fzfg": false,
      "metar_trigger": false,
      "taf_trigger": false,
      "metar": "METAR LFMN 180500Z 36003KT 310V050 CAVOK 23/18 Q1020 NOSIG",
      "taf": "TAF LFMN 180200Z 1803/1909 09005KT CAVOK"
    },
    {
      "icao": "LFOB",
      "alert": "OK",
      "vis_m": 9999,
      "fzfg": false,
      "metar_trigger": false,
      "taf_trigger": false,
      "metar": "METAR LFOB 180500Z AUTO 29003KT CAVOK 14/14 Q1019 NOSIG",
      "taf": "TAF LFOB 172300Z 1800/1824 VRB04KT CAVOK"
    },
    {
      "icao": "LFPO",
      "alert": "OK",
      "vis_m": 9999,
      "fzfg": false,
      "metar_trigger": false,
      "taf_trigger": false,
      "metar": "METAR LFPO 180500Z AUTO 03004KT CAVOK 20/14 Q1019 NOSIG",
      "taf": "TAF LFPO 172300Z 1800/1906 34010KT CAVOK"
    },
    {
      "icao": "LFSB",
      "alert": "OK",
      "vis_m": 9999,
      "fzfg": false,
      "metar_trigger": false,
      "taf_trigger": false,
      "metar": "METAR LFSB 180500Z AUTO VRB03KT CAVOK 20/15 Q1021 NOSIG",
      "taf": "TAF LFSB 172300Z 1800/1824 VRB03KT CAVOK"
    },
    {
      "icao": "LGAV",
      "alert": "OK",
      "vis_m": 9999,
      "fzfg": false,
      "metar_trigger": false,
      "taf_trigger": false,
      "metar": "METAR LGAV 180450Z 36011KT 310V050 9999 FEW025 25/14 Q1014 NOSIG RMK SCT080",
      "taf": "TAF LGAV 180500Z 1806/1906 03012KT 9999 FEW025 SCT070"
    },
    {
      "icao": "LGTS",
      "alert": "OK",
      "vis_m": 9999,
      "fzfg": false,
      "metar_trigger": false,
      "taf_trigger": false,
      "metar": "METAR LGTS 180450Z VRB02KT 9999 FEW025 20/17 Q1017 NOSIG",
      "taf": "TAF LGTS 180500Z 1806/1906 34013KT 9999 FEW030"
    },
    {
      "icao": "LHBP",
      "alert": "OK",
      "vis_m": 9999,
      "fzfg": false,
      "metar_trigger": false,
      "taf_trigger": false,
      "metar": "METAR LHBP 180500Z 36004KT CAVOK 19/15 Q1020 NOSIG",
      "taf": "TAF LHBP 172315Z 1800/1824 VRB03KT CAVOK"
    },
    {
      "icao": "LHDC",
      "alert": "OK",
      "vis_m": 9999,
      "fzfg": false,
      "metar_trigger": false,
      "taf_trigger": false,
      "metar": "METAR LHDC 180445Z AUTO 03003KT 360V070 CAVOK 18/16 Q1020 NOSIG",
      "taf": "TAF LHDC 180215Z 1803/1812 VRB02KT 6000 NSC"
    },
    {
      "icao": "LIBD",
      "alert": "OK",
      "vis_m": 9999,
      "fzfg": false,
      "metar_trigger": false,
      "taf_trigger": false,
      "metar": "METAR LIBD 180450Z 29006KT 270V330 CAVOK 24/13 Q1018",
      "taf": "TAF LIBD 172300Z 1800/1824 33012KT CAVOK"
    },
    {
      "icao": "LIBG",
      "alert": "OK",
      "vis_m": 9999,
      "fzfg": false,
      "metar_trigger": false,
      "taf_trigger": false,
      "metar": "METAR LIBG 180450Z AUTO 30007KT 240V010 9999 NCD 25/13 Q1017",
      "taf": "TAF LIBG 172300Z 1800/1824 VRB05KT CAVOK"
    },
    {
      "icao": "LIBP",
      "alert": "OK",
      "vis_m": 9999,
      "fzfg": false,
      "metar_trigger": false,
      "taf_trigger": false,
      "metar": "METAR LIBP 180450Z AUTO 22005KT 9999 NCD 20/16 Q1020",
      "taf": "TAF LIBP 172300Z 1800/1824 VRB04KT 9999 FEW030"
    },
    {
      "icao": "LIBR",
      "alert": "OK",
      "vis_m": 9999,
      "fzfg": false,
      "metar_trigger": false,
      "taf_trigger": false,
      "metar": "METAR LIBR 180450Z 33014KT CAVOK 24/18 Q1017",
      "taf": "TAF LIBR 172300Z 1800/1824 35012KT CAVOK"
    },
    {
      "icao": "LICA",
      "alert": "OK",
      "vis_m": 9999,
      "fzfg": false,
      "metar_trigger": false,
      "taf_trigger": false,
      "metar": "METAR LICA 180450Z AUTO VRB02KT 9999 BKN014/// 23/20 Q1019",
      "taf": "TAF LICA 172300Z 1800/1824 25007KT 9999 SCT015"
    },
    {
      "icao": "LICC",
      "alert": "OK",
      "vis_m": 9999,
      "fzfg": false,
      "metar_trigger": false,
      "taf_trigger": false,
      "metar": "METAR LICC 180450Z 25005KT CAVOK 21/16 Q1018",
      "taf": "TAF LICC 172300Z 1800/1824 VRB05KT CAVOK"
    },
    {
      "icao": "LICJ",
      "alert": "OK",
      "vis_m": 9999,
      "fzfg": false,
      "metar_trigger": false,
      "taf_trigger": false,
      "metar": "METAR LICJ 180450Z AUTO VRB01KT 9999 NCD 22/19 Q1018",
      "taf": "TAF LICJ 172300Z 1800/1824 VRB04KT CAVOK"
    },
    {
      "icao": "LIMC",
      "alert": "OK",
      "vis_m": 9999,
      "fzfg": false,
      "metar_trigger": false,
      "taf_trigger": false,
      "metar": "METAR LIMC 180450Z 02006KT CAVOK 21/17 Q1020 NOSIG",
      "taf": "TAF LIMC 172300Z 1800/1906 VRB05KT CAVOK"
    },
    {
      "icao": "LIME",
      "alert": "OK",
      "vis_m": 9999,
      "fzfg": false,
      "metar_trigger": false,
      "taf_trigger": false,
      "metar": "METAR LIME 180450Z 02005KT CAVOK 22/16 Q1021 NOSIG",
      "taf": "TAF LIME 172300Z 1800/1824 VRB05KT CAVOK"
    },
    {
      "icao": "LIMF",
      "alert": "OK",
      "vis_m": 9999,
      "fzfg": false,
      "metar_trigger": false,
      "taf_trigger": false,
      "metar": "METAR LIMF 180450Z 30003KT CAVOK 23/16 Q1021",
      "taf": "TAF LIMF 172300Z 1800/1824 VRB05KT CAVOK"
    },
    {
      "icao": "LIMJ",
      "alert": "OK",
      "vis_m": 9999,
      "fzfg": false,
      "metar_trigger": false,
      "taf_trigger": false,
      "metar": "METAR LIMJ 180450Z VRB01KT CAVOK 22/14 Q1020",
      "taf": "TAF LIMJ 172300Z 1800/1824 VRB05KT CAVOK"
    },
    {
      "icao": "LIPE",
      "alert": "OK",
      "vis_m": 9999,
      "fzfg": false,
      "metar_trigger": false,
      "taf_trigger": false,
      "metar": "METAR LIPE 180450Z 22005KT CAVOK 22/16 Q1019",
      "taf": "TAF LIPE 172300Z 1800/1824 VRB04KT CAVOK"
    },
    {
      "icao": "LIPH",
      "alert": "OK",
      "vis_m": 9999,
      "fzfg": false,
      "metar_trigger": false,
      "taf_trigger": false,
      "metar": "METAR LIPH 180450Z AUTO 06002KT 9999 NCD 23/20 Q1019",
      "taf": "TAF LIPH 172300Z 1800/1824 VRB05KT CAVOK"
    },
    {
      "icao": "LIPQ",
      "alert": "OK",
      "vis_m": 9999,
      "fzfg": false,
      "metar_trigger": false,
      "taf_trigger": false,
      "metar": "METAR LIPQ 180450Z VRB01KT CAVOK 21/18 Q1020",
      "taf": "TAF LIPQ 172300Z 1800/1824 VRB05KT 9999 FEW050"
    },
    {
      "icao": "LIPR",
      "alert": "OK",
      "vis_m": 9999,
      "fzfg": false,
      "metar_trigger": false,
      "taf_trigger": false,
      "metar": "METAR LIPR 180450Z AUTO VRB01KT 9999 NCD 22/18 Q1019",
      "taf": "TAF LIPR 172300Z 1800/1824 VRB05KT CAVOK"
    },
    {
      "icao": "LIPX",
      "alert": "OK",
      "vis_m": 9999,
      "fzfg": false,
      "metar_trigger": false,
      "taf_trigger": false,
      "metar": "METAR LIPX 180450Z VRB02KT CAVOK 23/18 Q1019",
      "taf": "TAF LIPX 172300Z 1800/1824 VRB05KT CAVOK"
    },
    {
      "icao": "LIPY",
      "alert": "OK",
      "vis_m": 9999,
      "fzfg": false,
      "metar_trigger": false,
      "taf_trigger": false,
      "metar": "METAR LIPY 180450Z AUTO 19002KT 9999 NCD 21/17 Q1019",
      "taf": "TAF LIPY 172300Z 1800/1824 VRB05KT CAVOK"
    },
    {
      "icao": "LIPZ",
      "alert": "OK",
      "vis_m": 9999,
      "fzfg": false,
      "metar_trigger": false,
      "taf_trigger": false,
      "metar": "METAR LIPZ 180450Z 04003KT 010V070 CAVOK 23/19 Q1019 NOSIG",
      "taf": "TAF LIPZ 172300Z 1800/1906 VRB04KT CAVOK"
    },
    {
      "icao": "LIRF",
      "alert": "OK",
      "vis_m": 9999,
      "fzfg": false,
      "metar_trigger": false,
      "taf_trigger": false,
      "metar": "METAR LIRF 180450Z 06004KT CAVOK 21/18 Q1019 NOSIG",
      "taf": "TAF LIRF 172300Z 1800/1906 VRB04KT CAVOK"
    },
    {
      "icao": "LIRN",
      "alert": "OK",
      "vis_m": 9999,
      "fzfg": false,
      "metar_trigger": false,
      "taf_trigger": false,
      "metar": "METAR LIRN 180450Z 34004KT 290V030 CAVOK 23/16 Q1020 NOSIG",
      "taf": "TAF LIRN 172300Z 1800/1824 VRB04KT CAVOK"
    },
    {
      "icao": "LIRP",
      "alert": "OK",
      "vis_m": 9999,
      "fzfg": false,
      "metar_trigger": false,
      "taf_trigger": false,
      "metar": "METAR LIRP 180445Z 13003KT CAVOK 17/15 Q1020 NOSIG",
      "taf": "TAF LIRP 172300Z 1800/1824 VRB03KT CAVOK"
    },
    {
      "icao": "LIRZ",
      "alert": "OK",
      "vis_m": 9999,
      "fzfg": false,
      "metar_trigger": false,
      "taf_trigger": false,
      "metar": "METAR LIRZ 180450Z AUTO 36006KT 9999 NCD 19/16 Q1021",
      "taf": "TAF LIRZ 172300Z 1800/1824 VRB05KT CAVOK"
    },
    {
      "icao": "LJLJ",
      "alert": "OK",
      "vis_m": 9999,
      "fzfg": false,
      "metar_trigger": false,
      "taf_trigger": false,
      "metar": "METAR LJLJ 180500Z 34003KT 320V030 9999 FEW090 SCT120 17/15 Q1022 NOSIG",
      "taf": "TAF LJLJ 180500Z 1806/1906 03005KT 9999 FEW095"
    },
    {
      "icao": "LKMT",
      "alert": "OK",
      "vis_m": 9999,
      "fzfg": false,
      "metar_trigger": false,
      "taf_trigger": false,
      "metar": "METAR LKMT 180500Z 23003KT CAVOK 16/15 Q1021 NOSIG",
      "taf": "TAF LKMT 172300Z 1800/1824 VRB02KT CAVOK"
    },
    {
      "icao": "LKPR",
      "alert": "OK",
      "vis_m": 9999,
      "fzfg": false,
      "metar_trigger": false,
      "taf_trigger": false,
      "metar": "METAR LKPR 180500Z 25007KT 9999 FEW040 19/15 Q1022 NOSIG",
      "taf": "TAF LKPR 180200Z 1803/1909 23005KT CAVOK"
    },
    {
      "icao": "LLBG",
      "alert": "OK",
      "vis_m": 9999,
      "fzfg": false,
      "metar_trigger": false,
      "taf_trigger": false,
      "metar": "METAR LLBG 180450Z 17007KT 130V210 9999 SCT014 24/20 Q1011 NOSIG",
      "taf": "TAF LLBG 180502Z 1806/1906 18008KT 9999 SCT015 TX30/1811Z TN22/1904Z"
    },
    {
      "icao": "LMML",
      "alert": "OK",
      "vis_m": 9999,
      "fzfg": false,
      "metar_trigger": false,
      "taf_trigger": false,
      "metar": "METAR LMML 180445Z 30003KT 250V340 CAVOK 22/19 Q1018 NOSIG",
      "taf": "TAF LMML 180500Z 1806/1906 VRB07KT CAVOK"
    },
    {
      "icao": "LOWW",
      "alert": "OK",
      "vis_m": 9999,
      "fzfg": false,
      "metar_trigger": false,
      "taf_trigger": false,
      "metar": "METAR LOWW 180450Z VRB02KT CAVOK 21/15 Q1021 NOSIG",
      "taf": "TAF LOWW 180215Z 1803/1909 29005KT 9999 FEW050 TX30/1815Z TN18/1903Z"
    },
    {
      "icao": "LPFR",
      "alert": "OK",
      "vis_m": 9999,
      "fzfg": false,
      "metar_trigger": false,
      "taf_trigger": false,
      "metar": "METAR LPFR 180500Z 04006KT CAVOK 24/13 Q1015",
      "taf": "TAF LPFR 172300Z 1800/1824 VRB02KT CAVOK"
    },
    {
      "icao": "LPMA",
      "alert": "OK",
      "vis_m": 9999,
      "fzfg": false,
      "metar_trigger": false,
      "taf_trigger": false,
      "metar": "METAR LPMA 180500Z 32003KT 270V030 9999 FEW015 19/15 Q1020",
      "taf": "TAF LPMA 172300Z 1800/1824 VRB05KT 9999 SCT015"
    },
    {
      "icao": "LPPR",
      "alert": "OK",
      "vis_m": 2500,
      "fzfg": false,
      "metar_trigger": false,
      "taf_trigger": false,
      "metar": "METAR LPPR 180500Z 19004KT 2500 BR BKN001 16/15 Q1017",
      "taf": "TAF LPPR 172300Z 1800/1824 VRB02KT 9999 SCT005"
    },
    {
      "icao": "LPPS",
      "alert": "OK",
      "vis_m": 9999,
      "fzfg": false,
      "metar_trigger": false,
      "taf_trigger": false,
      "metar": "METAR LPPS 180500Z 01008KT 9999 SCT012 19/16 Q1020",
      "taf": "TAF LPPS 172300Z 1800/1906 35010KT 9999 SCT015"
    },
    {
      "icao": "LPPT",
      "alert": "OK",
      "vis_m": 9999,
      "fzfg": false,
      "metar_trigger": false,
      "taf_trigger": false,
      "metar": "METAR LPPT 180500Z 32009KT CAVOK 16/14 Q1016",
      "taf": "TAF LPPT 172300Z 1800/1906 32008KT 9999 FEW015"
    },
    {
      "icao": "LQBK",
      "alert": "OK",
      "vis_m": 9999,
      "fzfg": false,
      "metar_trigger": false,
      "taf_trigger": false,
      "metar": "METAR LQBK 180500Z 32003KT 9999 FEW002 18/16 Q1021 NOSIG",
      "taf": "TAF LQBK 180500Z 1806/1906 30005KT CAVOK TX29/1814Z TN17/1903Z"
    },
    {
      "icao": "LQSA",
      "alert": "OK",
      "vis_m": 9999,
      "fzfg": false,
      "metar_trigger": false,
      "taf_trigger": false,
      "metar": "METAR LQSA 180500Z VRB01KT CAVOK 15/11 Q1023 NOSIG",
      "taf": "TAF LQSA 180500Z 1806/1906 VRB02KT CAVOK TX28/1814Z TN14/1903Z"
    },
    {
      "icao": "LQTZ",
      "alert": "OK",
      "vis_m": 9999,
      "fzfg": false,
      "metar_trigger": false,
      "taf_trigger": false,
      "metar": "METAR LQTZ 180500Z VRB02KT CAVOK 15/15 Q1021",
      "taf": "TAF LQTZ 180500Z 1806/1906 32005KT CAVOK TX29/1813Z TN15/1903Z"
    },
    {
      "icao": "LRBC",
      "alert": "OK",
      "vis_m": 9999,
      "fzfg": false,
      "metar_trigger": false,
      "taf_trigger": false,
      "metar": "METAR LRBC 180500Z 36006KT 330V040 CAVOK 17/13 Q1019",
      "taf": "TAF LRBC 180200Z 1803/1812 35008KT CAVOK"
    },
    {
      "icao": "LRBS",
      "alert": "OK",
      "vis_m": 9999,
      "fzfg": false,
      "metar_trigger": false,
      "taf_trigger": false,
      "metar": "METAR LRBS 180500Z 06006KT 020V090 CAVOK 18/14 Q1018",
      "taf": "TAF LRBS 172300Z 1800/1824 VRB04KT CAVOK"
    },
    {
      "icao": "LRBV",
      "alert": "OK",
      "vis_m": 9999,
      "fzfg": false,
      "metar_trigger": false,
      "taf_trigger": false,
      "metar": "METAR LRBV 180500Z 05005KT 010V080 9999 FEW010 SCT055 17/14 Q1021",
      "taf": "TAF LRBV 180200Z 1803/1812 22008KT 9999 SCT045"
    },
    {
      "icao": "LRCL",
      "alert": "OK",
      "vis_m": 400,
      "fzfg": false,
      "metar_trigger": false,
      "taf_trigger": false,
      "metar": "METAR LRCL 180500Z VRB01KT 0400 R25/0900U FG OVC001 14/13 Q1021",
      "taf": ""
    },
    {
      "icao": "LRCV",
      "alert": "OK",
      "vis_m": 9999,
      "fzfg": false,
      "metar_trigger": false,
      "taf_trigger": false,
      "metar": "METAR LRCV 180500Z VRB02KT CAVOK 21/15 Q1018",
      "taf": "TAF LRCV 180200Z 1803/1812 VRB04KT CAVOK"
    },
    {
      "icao": "LRIA",
      "alert": "OK",
      "vis_m": 9999,
      "fzfg": false,
      "metar_trigger": false,
      "taf_trigger": false,
      "metar": "METAR LRIA 180500Z 31008KT CAVOK 16/13 Q1019",
      "taf": "TAF LRIA 180200Z 1803/1812 28007KT CAVOK"
    },
    {
      "icao": "LROP",
      "alert": "OK",
      "vis_m": 9999,
      "fzfg": false,
      "metar_trigger": false,
      "taf_trigger": false,
      "metar": "METAR LROP 180500Z 07006KT 030V100 CAVOK 20/15 Q1018 NOSIG",
      "taf": "TAF LROP 172300Z 1800/1824 VRB04KT CAVOK"
    },
    {
      "icao": "LRSB",
      "alert": "OK",
      "vis_m": 9999,
      "fzfg": false,
      "metar_trigger": false,
      "taf_trigger": false,
      "metar": "METAR LRSB 180500Z VRB02KT 9999 BKN032 17/15 Q1021",
      "taf": "TAF LRSB 172300Z 1800/1824 VRB04KT 9999 BKN055"
    },
    {
      "icao": "LRSM",
      "alert": "OK",
      "vis_m": 1400,
      "fzfg": false,
      "metar_trigger": false,
      "taf_trigger": false,
      "metar": "METAR LRSM 180500Z AUTO VRB02KT 1400 R19/1600D BR VV001 16/15 Q1020",
      "taf": ""
    },
    {
      "icao": "LRSV",
      "alert": "OK",
      "vis_m": 9999,
      "fzfg": false,
      "metar_trigger": false,
      "taf_trigger": false,
      "metar": "METAR LRSV 180500Z 30007KT CAVOK 16/12 Q1020",
      "taf": "TAF LRSV 180200Z 1803/1812 30008KT CAVOK"
    },
    {
      "icao": "LRTM",
      "alert": "OK",
      "vis_m": 2200,
      "fzfg": false,
      "metar_trigger": false,
      "taf_trigger": false,
      "metar": "METAR LRTM 180500Z 30003KT 250V330 2200 BR SCT001 BKN002 OVC004 14/14 Q1021",
      "taf": ""
    },
    {
      "icao": "LRTR",
      "alert": "OK",
      "vis_m": 9999,
      "fzfg": false,
      "metar_trigger": false,
      "taf_trigger": false,
      "metar": "METAR LRTR 180500Z 06004KT CAVOK 19/17 Q1019",
      "taf": "TAF LRTR 172300Z 1800/1824 VRB04KT CAVOK"
    },
    {
      "icao": "LTAC",
      "alert": "OK",
      "vis_m": 9999,
      "fzfg": false,
      "metar_trigger": false,
      "taf_trigger": false,
      "metar": "METAR LTAC 180450Z VRB02KT 9999 FEW040 SCT100 19/13 Q1016 NOSIG RMK RWY21C 00000KT RWY03L VRB02KT RWY21R 00000KT RWY03R 00000KT RWY21L 00000KT",
      "taf": "TAF LTAC 180440Z 1806/1906 VRB02KT 9999 SCT040"
    },
    {
      "icao": "LTFM",
      "alert": "OK",
      "vis_m": 9999,
      "fzfg": false,
      "metar_trigger": false,
      "taf_trigger": false,
      "metar": "METAR LTFM 180450Z 05011KT 010V080 9999 SCT012 SCT021 21/17 Q1016 NOSIG RMK RWY17L 04010KT RWY34L 04010KT RWY16R 04009KT 360V060 RWY36 05011KT RWY18 06010KT",
      "taf": "TAF LTFM 180440Z 1806/1912 03015KT 9999 SCT012 SCT021 BKN120"
    },
    {
      "icao": "LUKK",
      "alert": "OK",
      "vis_m": 9999,
      "fzfg": false,
      "metar_trigger": false,
      "taf_trigger": false,
      "metar": "METAR LUKK 180500Z 33007KT CAVOK 17/14 Q1018 NOSIG",
      "taf": "TAF LUKK 172317Z 1800/1824 34009KT 9999 SCT045"
    },
    {
      "icao": "LWOH",
      "alert": "OK",
      "vis_m": null,
      "fzfg": false,
      "metar_trigger": false,
      "taf_trigger": false,
      "metar": "",
      "taf": "TAF LWOH 180210Z 1803/1903 34006KT 9999 FEW050"
    },
    {
      "icao": "LWSK",
      "alert": "OK",
      "vis_m": 9999,
      "fzfg": false,
      "metar_trigger": false,
      "taf_trigger": false,
      "metar": "METAR LWSK 180450Z VRB01KT CAVOK 18/12 Q1020 NOSIG",
      "taf": "TAF LWSK 180210Z 1803/1903 VRB02KT CAVOK"
    },
    {
      "icao": "LYBE",
      "alert": "OK",
      "vis_m": 9999,
      "fzfg": false,
      "metar_trigger": false,
      "taf_trigger": false,
      "metar": "METAR LYBE 180500Z 25005KT 220V280 CAVOK 19/16 Q1019 NOSIG",
      "taf": "TAF LYBE 172300Z 1800/1824 25005KT CAVOK TX31/1813Z TN15/1804Z"
    },
    {
      "icao": "LYNI",
      "alert": "OK",
      "vis_m": 9999,
      "fzfg": false,
      "metar_trigger": false,
      "taf_trigger": false,
      "metar": "METAR LYNI 180500Z VRB01KT CAVOK 16/13 Q1020 NOSIG",
      "taf": "TAF LYNI 172300Z 1800/1824 06004KT CAVOK TX31/1814Z TN13/1803Z"
    },
    {
      "icao": "LYPG",
      "alert": "OK",
      "vis_m": 9999,
      "fzfg": false,
      "metar_trigger": false,
      "taf_trigger": false,
      "metar": "METAR LYPG 180500Z 33013KT CAVOK 24/12 Q1018 NOSIG",
      "taf": "TAF LYPG 172300Z 1800/1824 36007KT CAVOK TX32/1814Z TN20/1803Z"
    },
    {
      "icao": "LZIB",
      "alert": "OK",
      "vis_m": 9999,
      "fzfg": false,
      "metar_trigger": false,
      "taf_trigger": false,
      "metar": "METAR LZIB 180500Z 00000KT CAVOK 22/14 Q1020 NOSIG",
      "taf": ""
    },
    {
      "icao": "LZKZ",
      "alert": "OK",
      "vis_m": 9999,
      "fzfg": false,
      "metar_trigger": false,
      "taf_trigger": false,
      "metar": "METAR LZKZ 180500Z VRB02KT 9999 FEW002 16/14 Q1021 NOSIG",
      "taf": ""
    },
    {
      "icao": "LZTT",
      "alert": "OK",
      "vis_m": 9999,
      "fzfg": false,
      "metar_trigger": false,
      "taf_trigger": false,
      "metar": "METAR LZTT 180500Z VRB01KT CAVOK 13/11 Q1022 NOSIG",
      "taf": ""
    },
    {
      "icao": "OEJN",
      "alert": "OK",
      "vis_m": 9999,
      "fzfg": false,
      "metar_trigger": false,
      "taf_trigger": false,
      "metar": "METAR OEJN 180500Z 33009KT CAVOK 32/22 Q1006 NOSIG",
      "taf": "TAF OEJN 172300Z 1800/1906 02005KT CAVOK"
    },
    {
      "icao": "OEMA",
      "alert": "OK",
      "vis_m": 9999,
      "fzfg": false,
      "metar_trigger": false,
      "taf_trigger": false,
      "metar": "METAR OEMA 180500Z 34006KT CAVOK 36/M04 Q1012 NOSIG",
      "taf": "TAF OEMA 172300Z 1800/1906 VRB03KT CAVOK"
    },
    {
      "icao": "OJAI",
      "alert": "OK",
      "vis_m": 5000,
      "fzfg": false,
      "metar_trigger": false,
      "taf_trigger": false,
      "metar": "METAR OJAI 180500Z 28008KT 5000 HZ NSC 23/11 Q1014 NOSIG",
      "taf": "TAF OJAI 172300Z 1800/1906 28010KT 5000 HZ NSC"
    },
    {
      "icao": "OMAA",
      "alert": "OK",
      "vis_m": 9999,
      "fzfg": false,
      "metar_trigger": false,
      "taf_trigger": false,
      "metar": "METAR OMAA 180500Z 09007KT 040V120 CAVOK 34/20 Q1003 NOSIG",
      "taf": "TAF OMAA 180500Z 1806/1912 15005KT 8000 NSC"
    },
    {
      "icao": "OMDB",
      "alert": "OK",
      "vis_m": 9999,
      "fzfg": false,
      "metar_trigger": false,
      "taf_trigger": false,
      "metar": "METAR OMDB 180500Z 07004KT 020V130 CAVOK 37/21 Q1003 NOSIG",
      "taf": "TAF OMDB 180500Z 1806/1912 VRB02KT CAVOK"
    },
    {
      "icao": "UAAA",
      "alert": "OK",
      "vis_m": 9999,
      "fzfg": false,
      "metar_trigger": false,
      "taf_trigger": false,
      "metar": "METAR UAAA 180500Z 28003MPS 250V330 9999 FEW050CB SCT200 30/12 Q1012 NOSIG",
      "taf": "TAF UAAA 172303Z 1800/1824 32003G08MPS 9999 SCT050CB BKN100 TX32/1810Z TN18/1801Z"
    },
    {
      "icao": "UBBB",
      "alert": "OK",
      "vis_m": 9999,
      "fzfg": false,
      "metar_trigger": false,
      "taf_trigger": false,
      "metar": "METAR UBBB 180500Z 07004KT CAVOK 28/14 Q1016 NOSIG",
      "taf": "TAF UBBB 180500Z 1806/1906 16005KT CAVOK TX31/1810Z TN20/1901Z"
    },
    {
      "icao": "UDSG",
      "alert": "OK",
      "vis_m": 9999,
      "fzfg": false,
      "metar_trigger": false,
      "taf_trigger": false,
      "metar": "METAR UDSG 180500Z 21003KT 170V280 9999 FEW049 19/13 Q1021 NOSIG",
      "taf": "TAF UDSG 172300Z 1800/1824 06006KT 9999 FEW050"
    },
    {
      "icao": "UDYZ",
      "alert": "OK",
      "vis_m": 9999,
      "fzfg": false,
      "metar_trigger": false,
      "taf_trigger": false,
      "metar": "METAR UDYZ 180500Z 14008KT 9999 NSC 26/11 Q1015 NOSIG",
      "taf": "TAF UDYZ 172300Z 1800/1824 16004KT 9999 FEW040"
    },
    {
      "icao": "UGKO",
      "alert": "OK",
      "vis_m": 9999,
      "fzfg": false,
      "metar_trigger": false,
      "taf_trigger": false,
      "metar": "METAR UGKO 180500Z VRB02KT CAVOK 21/18 Q1013 NOSIG",
      "taf": "TAF UGKO 180500Z 1806/1906 26007KT 9999 BKN040 TX31/1810Z TN19/1902Z"
    }
  ]
}