{
  "ts_utc": "2026-01-25T14:52:53Z",
  "threshold_m": 150,
  "source": "stations_override.txt (ICAO list) + aviationweather.gov (METAR/TAF raw)",
  "station_count": 159,
  "stations": [
    {
      "icao": "BIKF",
      "alert": "OK",
      "vis_m": 9999,
      "fzfg": false,
      "metar_trigger": false,
      "taf_trigger": false,
      "metar": "METAR BIKF 251430Z 09015KT 9999 FEW033 BKN120 04/M01 Q1006",
      "taf": "TAF BIKF 251354Z 2515/2615 08015KT 9999 FEW025 TX05/2615Z TN02/2602Z"
    },
    {
      "icao": "BKPR",
      "alert": "OK",
      "vis_m": null,
      "fzfg": false,
      "metar_trigger": false,
      "taf_trigger": false,
      "metar": "",
      "taf": "TAF BKPR 251130Z 2512/2612 17010KT 9999 FEW040 SCT070"
    },
    {
      "icao": "EBCI",
      "alert": "OK",
      "vis_m": 9999,
      "fzfg": false,
      "metar_trigger": false,
      "taf_trigger": false,
      "metar": "METAR EBCI 251420Z 14005KT 110V170 9999 BKN032 07/02 Q0995 NOSIG",
      "taf": "TAF EBCI 251110Z 2512/2618 12005KT 7000 BKN006"
    },
    {
      "icao": "EDDB",
      "alert": "OK",
      "vis_m": 4600,
      "fzfg": false,
      "metar_trigger": false,
      "taf_trigger": false,
      "metar": "METAR EDDB 251420Z AUTO 08011KT 4600 BR OVC009 M02/M04 Q1003 NOSIG",
      "taf": ""
    },
    {
      "icao": "EDDH",
      "alert": "OK",
      "vis_m": 8000,
      "fzfg": false,
      "metar_trigger": false,
      "taf_trigger": false,
      "metar": "METAR EDDH 251420Z AUTO 08009KT 8000 BKN010 OVC021 M01/M03 Q1003 TEMPO OVC008",
      "taf": "TAF EDDH 251100Z 2512/2618 09009KT 7000 OVC009"
    },
    {
      "icao": "EDDK",
      "alert": "OK",
      "vis_m": 9999,
      "fzfg": false,
      "metar_trigger": false,
      "taf_trigger": false,
      "metar": "METAR EDDK 251420Z AUTO 12005KT 060V170 CAVOK 02/M03 Q0997 NOSIG",
      "taf": "TAF EDDK 251100Z 2512/2618 11006KT CAVOK"
    },
    {
      "icao": "EDDN",
      "alert": "OK",
      "vis_m": 9999,
      "fzfg": false,
      "metar_trigger": false,
      "taf_trigger": false,
      "metar": "METAR EDDN 251420Z AUTO 07003KT 010V100 9999 OVC011 00/M03 Q0997 NOSIG",
      "taf": "TAF EDDN 251100Z 2512/2612 15006KT 9999 OVC010"
    },
    {
      "icao": "EDDS",
      "alert": "OK",
      "vis_m": 8000,
      "fzfg": false,
      "metar_trigger": false,
      "taf_trigger": false,
      "metar": "METAR EDDS 251420Z AUTO VRB02KT 8000 OVC008 01/M02 Q0996 TEMPO 4000 -SN OVC004",
      "taf": "TAF EDDS 251100Z 2512/2612 VRB03KT 6000 OVC010"
    },
    {
      "icao": "EDFH",
      "alert": "OK",
      "vis_m": 4500,
      "fzfg": false,
      "metar_trigger": false,
      "taf_trigger": false,
      "metar": "METAR EDFH 251420Z 13008KT 4500 BR NSC M03/M04 Q0995",
      "taf": "TAF EDFH 251100Z 2512/2612 15014KT 3000 BR OVC003"
    },
    {
      "icao": "EDJA",
      "alert": "OK",
      "vis_m": 1600,
      "fzfg": true,
      "metar_trigger": false,
      "taf_trigger": false,
      "metar": "METAR EDJA 251420Z 23003KT 1600 -SN BR BKN002 OVC006 M00/M01 Q0995",
      "taf": "TAF EDJA 251400Z 2515/2524 26006KT 0900 -SN FZFG OVC002"
    },
    {
      "icao": "EDLW",
      "alert": "OK",
      "vis_m": 8000,
      "fzfg": false,
      "metar_trigger": false,
      "taf_trigger": false,
      "metar": "METAR EDLW 251420Z 04006KT 8000 NSC 00/M03 Q0997",
      "taf": "TAF EDLW 251100Z 2512/2612 08005KT 7000 FEW045"
    },
    {
      "icao": "EDNY",
      "alert": "OK",
      "vis_m": 9000,
      "fzfg": false,
      "metar_trigger": false,
      "taf_trigger": false,
      "metar": "METAR EDNY 251420Z 28003KT 210V360 9000 FEW014 SCT021 03/00 Q0996",
      "taf": "TAF EDNY 251400Z 2515/2524 26003KT 6000 FEW009 OVC014"
    },
    {
      "icao": "EDSB",
      "alert": "OK",
      "vis_m": 3900,
      "fzfg": false,
      "metar_trigger": false,
      "taf_trigger": false,
      "metar": "METAR EDSB 251420Z 02004KT 3900 BR OVC008 00/M01 Q0997",
      "taf": "TAF EDSB 251100Z 2512/2612 03004KT 6000 OVC010"
    },
    {
      "icao": "EETN",
      "alert": "OK",
      "vis_m": 9999,
      "fzfg": false,
      "metar_trigger": false,
      "taf_trigger": false,
      "metar": "METAR EETN 251450Z 11005KT 9999 BKN049 M12/M14 Q1019 NOSIG",
      "taf": "TAF EETN 251130Z 2512/2612 17008KT 9999 FEW030"
    },
    {
      "icao": "EFTU",
      "alert": "OK",
      "vis_m": 9999,
      "fzfg": false,
      "metar_trigger": false,
      "taf_trigger": false,
      "metar": "METAR EFTU 251450Z AUTO 09006KT 9999 -SN OVC021 M09/M11 Q1017",
      "taf": "TAF EFTU 251435Z 2515/2615 10005KT 9999 -SN BKN020"
    },
    {
      "icao": "EGBB",
      "alert": "OK",
      "vis_m": 9999,
      "fzfg": false,
      "metar_trigger": false,
      "taf_trigger": false,
      "metar": "METAR EGBB 251420Z 10008G22KT 060V180 9999 VCSH BKN009 07/05 Q0994",
      "taf": "TAF EGBB 251056Z 2512/2612 11010KT 9999 SCT009"
    },
    {
      "icao": "EGGP",
      "alert": "OK",
      "vis_m": 9999,
      "fzfg": false,
      "metar_trigger": false,
      "taf_trigger": false,
      "metar": "METAR EGGP 251420Z 10010KT 9999 OVC016 07/04 Q0995",
      "taf": "TAF EGGP 251058Z 2512/2612 09010KT 9999 SCT015"
    },
    {
      "icao": "EGGW",
      "alert": "OK",
      "vis_m": 5000,
      "fzfg": false,
      "metar_trigger": false,
      "taf_trigger": false,
      "metar": "METAR EGGW 251420Z AUTO 08008KT 060V120 5000 BR BKN004 05/05 Q0993",
      "taf": ""
    },
    {
      "icao": "EGKK",
      "alert": "OK",
      "vis_m": 9999,
      "fzfg": false,
      "metar_trigger": false,
      "taf_trigger": false,
      "metar": "METAR EGKK 251420Z 09008KT 9999 FEW014 BKN022 07/06 Q0993",
      "taf": "TAF EGKK 251056Z 2512/2618 09005KT 9999 SCT010 BKN030"
    },
    {
      "icao": "EGNM",
      "alert": "OK",
      "vis_m": 1600,
      "fzfg": false,
      "metar_trigger": false,
      "taf_trigger": false,
      "metar": "METAR EGNM 251420Z 08012KT 1600 BR OVC002 04/04 Q0996",
      "taf": ""
    },
    {
      "icao": "EGPD",
      "alert": "OK",
      "vis_m": 9000,
      "fzfg": false,
      "metar_trigger": false,
      "taf_trigger": false,
      "metar": "METAR EGPD 251420Z AUTO 11012KT 9000 -RA BKN017 BKN026 BKN033 05/02 Q1003 RERA REDZ TEMPO BKN012",
      "taf": "TAF EGPD 251056Z 2512/2612 11012KT 9999 SCT014 BKN025"
    },
    {
      "icao": "EGPF",
      "alert": "OK",
      "vis_m": 9999,
      "fzfg": false,
      "metar_trigger": false,
      "taf_trigger": false,
      "metar": "METAR EGPF 251420Z AUTO 07014G27KT 030V100 9999 OVC023 07/04 Q0998",
      "taf": ""
    },
    {
      "icao": "EHBK",
      "alert": "OK",
      "vis_m": 8000,
      "fzfg": false,
      "metar_trigger": false,
      "taf_trigger": false,
      "metar": "METAR EHBK 251425Z AUTO 06005KT 8000 NSC 02/M01 Q0996 NOSIG",
      "taf": "TAF EHBK 251115Z 2512/2618 08004KT 9000 NSC"
    },
    {
      "icao": "EHEH",
      "alert": "OK",
      "vis_m": null,
      "fzfg": false,
      "metar_trigger": false,
      "taf_trigger": false,
      "metar": "",
      "taf": "TAF EHEH 251120Z 2512/2618 11006KT 7000 NSC"
    },
    {
      "icao": "EKBI",
      "alert": "OK",
      "vis_m": 8000,
      "fzfg": false,
      "metar_trigger": false,
      "taf_trigger": false,
      "metar": "METAR EKBI 251420Z AUTO 09010KT 8000 OVC007/// 00/M01 Q1006",
      "taf": "TAF EKBI 251427Z 2515/2615 08012KT 7000 BKN010"
    },
    {
      "icao": "EKCH",
      "alert": "OK",
      "vis_m": 9999,
      "fzfg": false,
      "metar_trigger": false,
      "taf_trigger": false,
      "metar": "METAR EKCH 251420Z 11014KT 9999 OVC017 01/M02 Q1009 TEMPO OVC010",
      "taf": "TAF EKCH 251427Z 2515/2615 10011KT 9999 OVC015"
    },
    {
      "icao": "ENAL",
      "alert": "OK",
      "vis_m": 9999,
      "fzfg": false,
      "metar_trigger": false,
      "taf_trigger": false,
      "metar": "METAR ENAL 251420Z 07004KT 010V140 9999 BKN047 00/M07 Q1013",
      "taf": "TAF ENAL 251400Z 2515/2524 13007KT 9999 BKN045"
    },
    {
      "icao": "ENBR",
      "alert": "OK",
      "vis_m": 9999,
      "fzfg": false,
      "metar_trigger": false,
      "taf_trigger": false,
      "metar": "METAR ENBR 251420Z 09003KT 060V160 9999 BKN053 M01/M10 Q1012 NOSIG RMK WIND 1200FT 10003KT",
      "taf": "TAF ENBR 251100Z 2512/2612 04005KT 9999 BKN040"
    },
    {
      "icao": "ENGM",
      "alert": "OK",
      "vis_m": 9999,
      "fzfg": false,
      "metar_trigger": false,
      "taf_trigger": false,
      "metar": "METAR ENGM 251420Z 02006KT 9999 OVC043 M06/M08 Q1014 NOSIG",
      "taf": "TAF ENGM 251100Z 2512/2612 36005KT 9999 FEW015 BKN040"
    },
    {
      "icao": "ENHD",
      "alert": "OK",
      "vis_m": 9999,
      "fzfg": false,
      "metar_trigger": false,
      "taf_trigger": false,
      "metar": "METAR ENHD 251420Z /////KT CAVOK M01/M13 Q1012 RMK WIND RWY 31 09009KT",
      "taf": "TAF ENHD 251400Z 2515/2523 11009KT CAVOK"
    },
    {
      "icao": "ENTC",
      "alert": "OK",
      "vis_m": 9999,
      "fzfg": false,
      "metar_trigger": false,
      "taf_trigger": false,
      "metar": "METAR ENTC 251420Z 09003KT 050V150 9999 -SHSN FEW018 BKN031 M02/M04 Q1011 TEMPO 2000 -SHSN BKN008 RMK WIND 2600FT 35024KT",
      "taf": "TAF ENTC 251100Z 2512/2612 04005KT 9999 SCT015 BKN030"
    },
    {
      "icao": "ENTO",
      "alert": "OK",
      "vis_m": 7000,
      "fzfg": false,
      "metar_trigger": false,
      "taf_trigger": false,
      "metar": "METAR ENTO 251420Z 36007KT 7000 -SN BKN024 M04/M06 Q1014 NOSIG",
      "taf": "TAF ENTO 251100Z 2512/2612 02008KT 9999 -SN FEW012 BKN040"
    },
    {
      "icao": "ENVA",
      "alert": "OK",
      "vis_m": 9999,
      "fzfg": false,
      "metar_trigger": false,
      "taf_trigger": false,
      "metar": "METAR ENVA 251420Z 11005KT CAVOK M10/M14 Q1015 NOSIG RMK WIND 670FT VRB01KT",
      "taf": "TAF ENVA 251100Z 2512/2612 10005KT 9999 BKN050"
    },
    {
      "icao": "ENZV",
      "alert": "OK",
      "vis_m": 9999,
      "fzfg": false,
      "metar_trigger": false,
      "taf_trigger": false,
      "metar": "METAR ENZV 251420Z 08007KT CAVOK M01/M12 Q1012 NOSIG",
      "taf": "TAF ENZV 251100Z 2512/2612 08008KT 9999 FEW050"
    },
    {
      "icao": "EPGD",
      "alert": "OK",
      "vis_m": 9999,
      "fzfg": false,
      "metar_trigger": false,
      "taf_trigger": false,
      "metar": "METAR EPGD 251430Z 10010KT 9999 OVC010 M06/M08 Q1010",
      "taf": "TAF EPGD 251130Z 2512/2612 10010KT 9999 OVC040"
    },
    {
      "icao": "EPKK",
      "alert": "OK",
      "vis_m": 2100,
      "fzfg": false,
      "metar_trigger": false,
      "taf_trigger": false,
      "metar": "METAR EPKK 251430Z 06008KT 2100 BR BKN002 OVC003 01/00 Q1005",
      "taf": "TAF EPKK 251430Z 2515/2615 06010KT 1500 BR OVC002"
    },
    {
      "icao": "EPKT",
      "alert": "OK",
      "vis_m": 9999,
      "fzfg": false,
      "metar_trigger": false,
      "taf_trigger": false,
      "metar": "METAR EPKT 251430Z 09009KT CAVOK 02/01 Q1003",
      "taf": "TAF EPKT 251130Z 2512/2612 09009KT CAVOK"
    },
    {
      "icao": "EPLB",
      "alert": "OK",
      "vis_m": 8000,
      "fzfg": false,
      "metar_trigger": false,
      "taf_trigger": false,
      "metar": "METAR EPLB 251430Z 11012KT 8000 BKN010 BKN031 M04/M06 Q1010",
      "taf": ""
    },
    {
      "icao": "EPMO",
      "alert": "OK",
      "vis_m": 5000,
      "fzfg": false,
      "metar_trigger": false,
      "taf_trigger": false,
      "metar": "METAR EPMO 251430Z 08011KT 5000 BR BKN010 M05/M06 Q1009",
      "taf": "TAF EPMO 251130Z 2512/2612 10010KT 6000 BKN011"
    },
    {
      "icao": "EPPO",
      "alert": "OK",
      "vis_m": 6000,
      "fzfg": false,
      "metar_trigger": false,
      "taf_trigger": false,
      "metar": "METAR EPPO 251430Z 07012KT 6000 OVC006 M03/M05 Q1005 REFZDZ",
      "taf": "TAF EPPO 251130Z 2512/2612 08010KT 4000 BR OVC007"
    },
    {
      "icao": "EPRA",
      "alert": "OK",
      "vis_m": 8000,
      "fzfg": false,
      "metar_trigger": false,
      "taf_trigger": false,
      "metar": "METAR EPRA 251430Z 09009KT 8000 BKN007 M03/M05 Q1008",
      "taf": "TAF EPRA 251430Z 2515/2524 10010KT 8000 BKN007"
    },
    {
      "icao": "EPRZ",
      "alert": "OK",
      "vis_m": 6000,
      "fzfg": false,
      "metar_trigger": false,
      "taf_trigger": false,
      "metar": "METAR EPRZ 251430Z 09013KT 6000 BKN027 M00/M02 Q1008",
      "taf": ""
    },
    {
      "icao": "EPSC",
      "alert": "OK",
      "vis_m": 9999,
      "fzfg": false,
      "metar_trigger": false,
      "taf_trigger": false,
      "metar": "METAR EPSC 251430Z 07006KT 050V110 9999 FEW017 OVC032 M02/M05 Q1006",
      "taf": "TAF EPSC 251130Z 2512/2612 09009KT 9999 OVC014"
    },
    {
      "icao": "EPSY",
      "alert": "OK",
      "vis_m": 9999,
      "fzfg": false,
      "metar_trigger": false,
      "taf_trigger": false,
      "metar": "METAR EPSY 251430Z 10005KT 060V150 9999 SCT010 OVC014 M07/M09 Q1011",
      "taf": "TAF EPSY 251430Z 2515/2524 11008KT 9999 BKN012"
    },
    {
      "icao": "EPWA",
      "alert": "OK",
      "vis_m": 8000,
      "fzfg": false,
      "metar_trigger": false,
      "taf_trigger": false,
      "metar": "METAR EPWA 251430Z 11013KT 8000 BKN012 M04/M07 Q1009 NOSIG",
      "taf": "TAF EPWA 251430Z 2515/2615 10012KT 8000 BKN011"
    },
    {
      "icao": "EPWR",
      "alert": "OK",
      "vis_m": 7000,
      "fzfg": false,
      "metar_trigger": false,
      "taf_trigger": false,
      "metar": "METAR EPWR 251430Z 08006KT 7000 OVC009 01/M00 Q1003",
      "taf": "TAF EPWR 251430Z 2515/2615 08007KT 7000 OVC010"
    },
    {
      "icao": "ESGG",
      "alert": "OK",
      "vis_m": 9999,
      "fzfg": false,
      "metar_trigger": false,
      "taf_trigger": false,
      "metar": "METAR ESGG 251420Z 07007KT 9999 FEW031 OVC039 M03/M06 Q1011",
      "taf": "TAF ESGG 251430Z 2515/2615 07008KT 9999 OVC040"
    },
    {
      "icao": "ESKN",
      "alert": "OK",
      "vis_m": 6000,
      "fzfg": false,
      "metar_trigger": false,
      "taf_trigger": false,
      "metar": "METAR ESKN 251420Z 02005KT 350V060 6000 -SN FEW006 SCT009 BKN016 M04/M05 Q1014",
      "taf": "TAF ESKN 251430Z 2515/2615 03010KT 9999 -SN SCT010 BKN025"
    },
    {
      "icao": "ESMS",
      "alert": "OK",
      "vis_m": 9000,
      "fzfg": false,
      "metar_trigger": false,
      "taf_trigger": false,
      "metar": "METAR ESMS 251420Z 09015KT 9000 BKN016 01/M02 Q1008",
      "taf": "TAF ESMS 251427Z 2515/2615 08015KT 9000 OVC012"
    },
    {
      "icao": "ESSA",
      "alert": "OK",
      "vis_m": 9999,
      "fzfg": false,
      "metar_trigger": false,
      "taf_trigger": false,
      "metar": "METAR ESSA 251420Z 05008KT 9999 BKN031 M05/M06 Q1015 NOSIG",
      "taf": "TAF ESSA 251430Z 2515/2615 05008KT 9999 -SN BKN030"
    },
    {
      "icao": "EYKA",
      "alert": "OK",
      "vis_m": 9999,
      "fzfg": false,
      "metar_trigger": false,
      "taf_trigger": false,
      "metar": "METAR EYKA 251450Z 11008KT CAVOK M08/M12 Q1016",
      "taf": "TAF EYKA 251104Z 2512/2612 12010KT 9000 NSC"
    },
    {
      "icao": "EYPA",
      "alert": "OK",
      "vis_m": 9999,
      "fzfg": false,
      "metar_trigger": false,
      "taf_trigger": false,
      "metar": "METAR EYPA 251450Z 12006KT 090V150 9999 BKN017 M06/M09 Q1014",
      "taf": "TAF EYPA 251100Z 2512/2612 12009KT 9000 BKN030"
    },
    {
      "icao": "EYVI",
      "alert": "OK",
      "vis_m": 9999,
      "fzfg": false,
      "metar_trigger": false,
      "taf_trigger": false,
      "metar": "METAR EYVI 251450Z 13008KT CAVOK M10/M13 Q1017 NOSIG",
      "taf": "TAF EYVI 251101Z 2512/2612 13012KT 9000 NSC"
    },
    {
      "icao": "GCFV",
      "alert": "OK",
      "vis_m": 9999,
      "fzfg": false,
      "metar_trigger": false,
      "taf_trigger": false,
      "metar": "METAR GCFV 251430Z 04012KT 9999 FEW040 20/11 Q1026",
      "taf": "TAF GCFV 251400Z 2515/2615 04010KT 9999 FEW035 TX20/2614Z TN14/2606Z"
    },
    {
      "icao": "GCLP",
      "alert": "OK",
      "vis_m": 9999,
      "fzfg": false,
      "metar_trigger": false,
      "taf_trigger": false,
      "metar": "METAR GCLP 251430Z 04012KT 9999 FEW038 19/11 Q1027 NOSIG",
      "taf": "TAF GCLP 251400Z 2515/2615 05012KT 9999 FEW030 TX20/2614Z TN13/2606Z"
    },
    {
      "icao": "GCTS",
      "alert": "OK",
      "vis_m": 9999,
      "fzfg": false,
      "metar_trigger": false,
      "taf_trigger": false,
      "metar": "METAR GCTS 251430Z 16008KT 110V210 9999 SCT035 20/10 Q1027 NOSIG",
      "taf": "TAF GCTS 251400Z 2515/2615 11010KT 9999 SCT035 TX22/2614Z TN14/2606Z"
    },
    {
      "icao": "GMAD",
      "alert": "OK",
      "vis_m": 9999,
      "fzfg": false,
      "metar_trigger": false,
      "taf_trigger": false,
      "metar": "METAR GMAD 251430Z 23004KT 170V280 9999 FEW033 SCT200 17/09 Q1025 NOSIG",
      "taf": "TAF GMAD 251100Z 2512/2618 28010KT 8000 SCT016"
    },
    {
      "icao": "GMMN",
      "alert": "OK",
      "vis_m": 9999,
      "fzfg": false,
      "metar_trigger": false,
      "taf_trigger": false,
      "metar": "METAR GMMN 251430Z 24014KT 9999 BKN030 15/10 Q1024 NOSIG",
      "taf": "TAF GMMN 251100Z 2512/2618 22014KT 9999 FEW023 SCT080"
    },
    {
      "icao": "GMMX",
      "alert": "OK",
      "vis_m": 9999,
      "fzfg": false,
      "metar_trigger": false,
      "taf_trigger": false,
      "metar": "METAR GMMX 251430Z 20003KT 140V240 CAVOK 16/06 Q1025 NOSIG",
      "taf": "TAF GMMX 251100Z 2512/2618 12006KT 8000 NSC"
    },
    {
      "icao": "HEGN",
      "alert": "OK",
      "vis_m": 9999,
      "fzfg": false,
      "metar_trigger": false,
      "taf_trigger": false,
      "metar": "METAR HEGN 251400Z 05008KT CAVOK 22/04 Q1018 NOSIG",
      "taf": "TAF HEGN 251100Z 2512/2618 01012KT CAVOK"
    },
    {
      "icao": "HEMA",
      "alert": "OK",
      "vis_m": 9999,
      "fzfg": false,
      "metar_trigger": false,
      "taf_trigger": false,
      "metar": "METAR HEMA 251400Z 36004KT CAVOK 22/06 Q1017 NOSIG",
      "taf": "TAF HEMA 251100Z 2512/2618 02014KT CAVOK"
    },
    {
      "icao": "HESH",
      "alert": "OK",
      "vis_m": 9999,
      "fzfg": false,
      "metar_trigger": false,
      "taf_trigger": false,
      "metar": "METAR HESH 251400Z 06004KT CAVOK 24/02 Q1018 NOSIG",
      "taf": "TAF HESH 251100Z 2512/2618 03012KT CAVOK"
    },
    {
      "icao": "HESX",
      "alert": "OK",
      "vis_m": 9999,
      "fzfg": false,
      "metar_trigger": false,
      "taf_trigger": false,
      "metar": "METAR HESX 251400Z 04005KT CAVOK 19/04 Q1019 NOSIG",
      "taf": "TAF HESX 251100Z 2512/2618 17009KT 6000 FEW025"
    },
    {
      "icao": "LATI",
      "alert": "OK",
      "vis_m": 9999,
      "fzfg": false,
      "metar_trigger": false,
      "taf_trigger": false,
      "metar": "METAR LATI 251450Z 17006KT 9999 BKN130 18/05 Q1003 NOSIG",
      "taf": "TAF LATI 251100Z 2512/2612 VRB05KT 9999 FEW040 BKN080 TX18/2512Z TN10/2605Z"
    },
    {
      "icao": "LBPD",
      "alert": "OK",
      "vis_m": 9999,
      "fzfg": false,
      "metar_trigger": false,
      "taf_trigger": false,
      "metar": "METAR LBPD 251430Z AUTO 08003KT 9999 OVC008/// 04/04 Q1014 NOSIG",
      "taf": "TAF LBPD 251100Z 2512/2612 VRB04KT 9999 OVC010"
    },
    {
      "icao": "LBSF",
      "alert": "OK",
      "vis_m": 9999,
      "fzfg": false,
      "metar_trigger": false,
      "taf_trigger": false,
      "metar": "METAR LBSF 251430Z 29002KT 9999 SCT066 06/03 Q1011 NOSIG",
      "taf": "TAF LBSF 251100Z 2512/2612 09010KT 9999 SCT020 BKN040"
    },
    {
      "icao": "LBWN",
      "alert": "OK",
      "vis_m": 9999,
      "fzfg": false,
      "metar_trigger": false,
      "taf_trigger": false,
      "metar": "METAR LBWN 251430Z AUTO 11007KT 9999 NSC 10/07 Q1013 NOSIG",
      "taf": "TAF LBWN 251100Z 2512/2612 13008KT 9999 SCT015 BKN045"
    },
    {
      "icao": "LCLK",
      "alert": "OK",
      "vis_m": 9999,
      "fzfg": false,
      "metar_trigger": false,
      "taf_trigger": false,
      "metar": "METAR LCLK 251430Z 08005KT 9999 FEW023 17/14 Q1021 NOSIG",
      "taf": "TAF LCLK 251130Z 2512/2612 09010KT 9999 FEW030"
    },
    {
      "icao": "LCPH",
      "alert": "OK",
      "vis_m": 9999,
      "fzfg": false,
      "metar_trigger": false,
      "taf_trigger": false,
      "metar": "METAR LCPH 251430Z 15007KT 9999 FEW022 17/11 Q1021 NOSIG",
      "taf": "TAF LCPH 251130Z 2512/2612 12012KT 9999 FEW030"
    },
    {
      "icao": "LEAL",
      "alert": "OK",
      "vis_m": 9999,
      "fzfg": false,
      "metar_trigger": false,
      "taf_trigger": false,
      "metar": "METAR LEAL 251430Z 27015G25KT 9999 FEW025 SCT050 20/04 Q1007 NOSIG",
      "taf": "TAF LEAL 251100Z 2512/2612 23008KT CAVOK TX17/2513Z TN11/2606Z"
    },
    {
      "icao": "LEBB",
      "alert": "OK",
      "vis_m": 3200,
      "fzfg": false,
      "metar_trigger": false,
      "taf_trigger": false,
      "metar": "SPECI LEBB 251442Z 29028G44KT 250V320 3200 RA FEW024 BKN030 08/05 Q1002 RETSRA NOSIG",
      "taf": ""
    },
    {
      "icao": "LEBL",
      "alert": "OK",
      "vis_m": 9999,
      "fzfg": false,
      "metar_trigger": false,
      "taf_trigger": false,
      "metar": "METAR LEBL 251430Z 27014KT 240V300 9999 SCT050 15/04 Q1000 NOSIG",
      "taf": ""
    },
    {
      "icao": "LECH",
      "alert": "OK",
      "vis_m": 9000,
      "fzfg": false,
      "metar_trigger": false,
      "taf_trigger": false,
      "metar": "METAR LECH 251430Z AUTO 22010KT 200V260 9000 NSC 13/01 Q1003",
      "taf": ""
    },
    {
      "icao": "LEMD",
      "alert": "OK",
      "vis_m": 9999,
      "fzfg": false,
      "metar_trigger": false,
      "taf_trigger": false,
      "metar": "METAR LEMD 251430Z 25018KT 9999 FEW035 10/04 Q1006 NOSIG",
      "taf": "TAF LEMD 251100Z 2512/2618 23012KT 9999 SCT030 TX10/2516Z TN03/2606Z"
    },
    {
      "icao": "LEMG",
      "alert": "OK",
      "vis_m": 9999,
      "fzfg": false,
      "metar_trigger": false,
      "taf_trigger": false,
      "metar": "METAR LEMG 251430Z 13005KT 080V170 9999 FEW026 SCT041 16/10 Q1015 NOSIG",
      "taf": "TAF LEMG 251100Z 2512/2612 27005KT 9999 BKN045 TX16/2514Z TN12/2607Z"
    },
    {
      "icao": "LEVC",
      "alert": "OK",
      "vis_m": 9999,
      "fzfg": false,
      "metar_trigger": false,
      "taf_trigger": false,
      "metar": "METAR LEVC 251430Z 26017KT 9999 BKN056 17/04 Q1004 NOSIG",
      "taf": "TAF LEVC 251100Z 2512/2612 27018KT 9999 FEW050 TX17/2513Z TN11/2606Z"
    },
    {
      "icao": "LEXJ",
      "alert": "OK",
      "vis_m": 9999,
      "fzfg": false,
      "metar_trigger": false,
      "taf_trigger": false,
      "metar": "METAR LEXJ 251430Z 28027G41KT 9999 -RA FEW012 SCT025 BKN040 07/06 Q1001",
      "taf": "TAF LEXJ 251400Z 2515/2615 28014KT 9999 SCT020 BKN035 TX13/2615Z TN08/2605Z"
    },
    {
      "icao": "LEZG",
      "alert": "OK",
      "vis_m": 9999,
      "fzfg": false,
      "metar_trigger": false,
      "taf_trigger": false,
      "metar": "METAR LEZG 251430Z 26021G35KT 9999 FEW040TCU 12/04 Q1001 NOSIG",
      "taf": "TAF LEZG 251100Z 2512/2612 26018KT 9999 FEW040 TX14/2513Z TN06/2607Z"
    },
    {
      "icao": "LEZL",
      "alert": "OK",
      "vis_m": 9999,
      "fzfg": false,
      "metar_trigger": false,
      "taf_trigger": false,
      "metar": "METAR LEZL 251430Z 24016KT 9999 SCT025 17/12 Q1015 NOSIG",
      "taf": "TAF LEZL 251400Z 2515/2615 24012KT 9999 SCT030 TX19/2615Z TN13/2607Z"
    },
    {
      "icao": "LFBD",
      "alert": "OK",
      "vis_m": 9999,
      "fzfg": false,
      "metar_trigger": false,
      "taf_trigger": false,
      "metar": "METAR LFBD 251430Z AUTO 23010KT 9999 FEW027/// BKN130/// ///CB 09/06 Q0995 TEMPO 28020G30KT 1500 -TSRA",
      "taf": ""
    },
    {
      "icao": "LFLL",
      "alert": "OK",
      "vis_m": 9999,
      "fzfg": false,
      "metar_trigger": false,
      "taf_trigger": false,
      "metar": "METAR LFLL 251430Z 17010KT 9999 -RA FEW016 BKN046 BKN080 07/05 Q0996 NOSIG",
      "taf": "TAF LFLL 251100Z 2512/2618 18010KT CAVOK"
    },
    {
      "icao": "LFLS",
      "alert": "OK",
      "vis_m": 9999,
      "fzfg": false,
      "metar_trigger": false,
      "taf_trigger": false,
      "metar": "METAR LFLS 251430Z AUTO 22008KT 9999 FEW026 SCT041 BKN047 06/03 Q0996 TEMPO 3000 BKN014",
      "taf": "TAF LFLS 251400Z 2515/2615 24008KT 9999 SCT050 BKN080"
    },
    {
      "icao": "LFMN",
      "alert": "OK",
      "vis_m": 9999,
      "fzfg": false,
      "metar_trigger": false,
      "taf_trigger": false,
      "metar": "METAR LFMN 251430Z 19010KT 9999 FEW030 BKN180 12/06 Q0997 NOSIG",
      "taf": "TAF LFMN 251400Z 2515/2621 21010KT 9999 FEW036"
    },
    {
      "icao": "LFOB",
      "alert": "OK",
      "vis_m": 9999,
      "fzfg": false,
      "metar_trigger": false,
      "taf_trigger": false,
      "metar": "METAR LFOB 251430Z AUTO 10011KT 9999 OVC010/// ///TCU 06/05 Q0992 TEMPO 4000 -RA OVC006",
      "taf": "TAF LFOB 251100Z 2512/2612 13007KT 6000 OVC012"
    },
    {
      "icao": "LFPO",
      "alert": "OK",
      "vis_m": 4000,
      "fzfg": false,
      "metar_trigger": false,
      "taf_trigger": false,
      "metar": "METAR LFPO 251430Z 15007KT 110V180 4000 -RA BKN007 OVC016 07/05 Q0992 TEMPO BKN012",
      "taf": ""
    },
    {
      "icao": "LFSB",
      "alert": "OK",
      "vis_m": 9999,
      "fzfg": false,
      "metar_trigger": false,
      "taf_trigger": false,
      "metar": "METAR LFSB 251430Z AUTO VRB02KT CAVOK 07/02 Q0996 NOSIG",
      "taf": "TAF LFSB 251130Z 2512/2612 VRB03KT 9000 SCT010 BKN045"
    },
    {
      "icao": "LGAV",
      "alert": "OK",
      "vis_m": 9999,
      "fzfg": false,
      "metar_trigger": false,
      "taf_trigger": false,
      "metar": "METAR LGAV 251420Z 17008KT 9999 FEW020 SCT040 17/10 Q1014 NOSIG",
      "taf": "TAF LGAV 251100Z 2512/2612 18015G25KT 9999 FEW015 SCT035"
    },
    {
      "icao": "LGTS",
      "alert": "OK",
      "vis_m": 9999,
      "fzfg": false,
      "metar_trigger": false,
      "taf_trigger": false,
      "metar": "METAR LGTS 251420Z VRB03KT 9999 FEW015 SCT025 12/08 Q1013 NOSIG",
      "taf": "TAF LGTS 251100Z 2512/2612 14005KT 9999 FEW008 BKN025"
    },
    {
      "icao": "LHBP",
      "alert": "OK",
      "vis_m": 9999,
      "fzfg": false,
      "metar_trigger": false,
      "taf_trigger": false,
      "metar": "METAR LHBP 251430Z 07008KT 030V100 CAVOK 05/02 Q1003 NOSIG",
      "taf": "TAF LHBP 251115Z 2512/2612 07010KT 7000 -RA SCT020 BKN060"
    },
    {
      "icao": "LHDC",
      "alert": "OK",
      "vis_m": 9999,
      "fzfg": false,
      "metar_trigger": false,
      "taf_trigger": false,
      "metar": "METAR LHDC 251415Z AUTO 07009KT CAVOK 08/03 Q1005 NOSIG",
      "taf": "TAF LHDC 251415Z 2515/2524 07008KT CAVOK"
    },
    {
      "icao": "LIBD",
      "alert": "OK",
      "vis_m": 9999,
      "fzfg": false,
      "metar_trigger": false,
      "taf_trigger": false,
      "metar": "METAR LIBD 251420Z 25010KT 9999 SCT045 11/08 Q1000",
      "taf": "TAF LIBD 251100Z 2512/2612 18016G28KT 9999 DZ SCT030"
    },
    {
      "icao": "LIBG",
      "alert": "OK",
      "vis_m": 2000,
      "fzfg": false,
      "metar_trigger": false,
      "taf_trigger": false,
      "metar": "SPECI LIBG 251426Z 16017KT 2000 TSRA BKN010CB 16/14 Q1000",
      "taf": "TAF LIBG 251400Z 2515/2524 27007KT 7000 DZ BKN015"
    },
    {
      "icao": "LIBP",
      "alert": "OK",
      "vis_m": 9999,
      "fzfg": false,
      "metar_trigger": false,
      "taf_trigger": false,
      "metar": "METAR LIBP 251420Z AUTO 23011KT 200V270 9999 FEW210/// 14/00 Q0998",
      "taf": "TAF LIBP 251100Z 2512/2612 VRB05KT 8000 SCT030"
    },
    {
      "icao": "LIBR",
      "alert": "OK",
      "vis_m": 7000,
      "fzfg": false,
      "metar_trigger": false,
      "taf_trigger": false,
      "metar": "METAR LIBR 251420Z 17017KT 7000 BKN030 17/13 Q1001",
      "taf": "TAF LIBR 251100Z 2512/2612 17021G31KT 8000 SCT016"
    },
    {
      "icao": "LICA",
      "alert": "OK",
      "vis_m": 8000,
      "fzfg": false,
      "metar_trigger": false,
      "taf_trigger": false,
      "metar": "METAR LICA 251420Z AUTO 27016KT 8000 -RA OVC025/// 11/10 Q1004 RERA",
      "taf": "TAF LICA 251100Z 2512/2612 27016KT 9999 SCT020"
    },
    {
      "icao": "LICC",
      "alert": "OK",
      "vis_m": 9999,
      "fzfg": false,
      "metar_trigger": false,
      "taf_trigger": false,
      "metar": "METAR LICC 251420Z 26016KT 9999 FEW030 BKN120 14/12 Q1002",
      "taf": "TAF LICC 251100Z 2512/2612 25013KT 6000 SCT030"
    },
    {
      "icao": "LICJ",
      "alert": "OK",
      "vis_m": 9999,
      "fzfg": false,
      "metar_trigger": false,
      "taf_trigger": false,
      "metar": "METAR LICJ 251420Z 24013KT 9999 FEW035 SCT060 14/08 Q1004",
      "taf": "TAF LICJ 251100Z 2512/2612 28014KT 9999 SCT030"
    },
    {
      "icao": "LIMC",
      "alert": "OK",
      "vis_m": 900,
      "fzfg": false,
      "metar_trigger": false,
      "taf_trigger": false,
      "metar": "METAR LIMC 251420Z VRB01KT 0900 R35R/P2000N R17L/P2000N R35L/P2000N FG OVC002 05/05 Q0997 NOSIG",
      "taf": ""
    },
    {
      "icao": "LIME",
      "alert": "OK",
      "vis_m": 5000,
      "fzfg": false,
      "metar_trigger": false,
      "taf_trigger": false,
      "metar": "METAR LIME 251420Z 26006KT 230V290 5000 BR BKN010 06/05 Q0997 NOSIG",
      "taf": "TAF LIME 251100Z 2512/2612 VRB05KT 2000 BR BKN005"
    },
    {
      "icao": "LIMF",
      "alert": "OK",
      "vis_m": 9999,
      "fzfg": false,
      "metar_trigger": false,
      "taf_trigger": false,
      "metar": "METAR LIMF 251420Z 14004KT 9999 BKN015 BKN025 07/03 Q0996",
      "taf": "TAF LIMF 251100Z 2512/2612 VRB04KT 7000 FEW010 BKN030"
    },
    {
      "icao": "LIMJ",
      "alert": "OK",
      "vis_m": 9999,
      "fzfg": false,
      "metar_trigger": false,
      "taf_trigger": false,
      "metar": "METAR LIMJ 251420Z 07006KT 9999 FEW025 BKN060 10/03 Q0997",
      "taf": "TAF LIMJ 251100Z 2512/2612 04010KT 9999 SCT020"
    },
    {
      "icao": "LIPE",
      "alert": "OK",
      "vis_m": 6000,
      "fzfg": false,
      "metar_trigger": false,
      "taf_trigger": false,
      "metar": "METAR LIPE 251420Z 28007KT 6000 BKN007 06/05 Q0997",
      "taf": "TAF LIPE 251100Z 2512/2612 VRB05KT 7000 BKN008"
    },
    {
      "icao": "LIPH",
      "alert": "OK",
      "vis_m": 9999,
      "fzfg": false,
      "metar_trigger": false,
      "taf_trigger": false,
      "metar": "METAR LIPH 251420Z 24007KT 9999 BKN040 09/06 Q0996",
      "taf": "TAF LIPH 251100Z 2512/2612 VRB05KT 8000 BKN020"
    },
    {
      "icao": "LIPQ",
      "alert": "OK",
      "vis_m": 9999,
      "fzfg": false,
      "metar_trigger": false,
      "taf_trigger": false,
      "metar": "METAR LIPQ 251420Z AUTO 21004KT 190V250 9999 -RA OVC005/// 10/09 Q0996",
      "taf": "TAF LIPQ 251100Z 2512/2612 VRB06KT 4500 -RA BKN020"
    },
    {
      "icao": "LIPR",
      "alert": "OK",
      "vis_m": 9999,
      "fzfg": false,
      "metar_trigger": false,
      "taf_trigger": false,
      "metar": "METAR LIPR 251420Z 21011KT 9999 SCT020 12/05 Q0997",
      "taf": "TAF LIPR 251100Z 2512/2612 VRB06KT 9000 SCT030"
    },
    {
      "icao": "LIPX",
      "alert": "OK",
      "vis_m": 6000,
      "fzfg": false,
      "metar_trigger": false,
      "taf_trigger": false,
      "metar": "METAR LIPX 251420Z 26006KT 230V290 6000 FEW008 SCT020 08/06 Q0997",
      "taf": "TAF LIPX 251100Z 2512/2612 28010KT 6000 BKN005"
    },
    {
      "icao": "LIPY",
      "alert": "OK",
      "vis_m": 9999,
      "fzfg": false,
      "metar_trigger": false,
      "taf_trigger": false,
      "metar": "METAR LIPY 251420Z AUTO 25007KT 210V300 9999 FEW220/// 13/05 Q0998",
      "taf": "TAF LIPY 251100Z 2512/2612 VRB06KT 8000 SCT050"
    },
    {
      "icao": "LIPZ",
      "alert": "OK",
      "vis_m": 9999,
      "fzfg": false,
      "metar_trigger": false,
      "taf_trigger": false,
      "metar": "METAR LIPZ 251420Z 26008KT 9999 FEW025 09/06 Q0997 NOSIG",
      "taf": "TAF LIPZ 251100Z 2512/2618 25010KT 7000 BKN005"
    },
    {
      "icao": "LIRF",
      "alert": "OK",
      "vis_m": 9999,
      "fzfg": false,
      "metar_trigger": false,
      "taf_trigger": false,
      "metar": "METAR LIRF 251420Z 14013KT 9999 4500SE -SHRA VCTS SCT015CB SCT035 11/08 Q0998 RETSRA TEMPO 4000 SHRA",
      "taf": ""
    },
    {
      "icao": "LIRN",
      "alert": "OK",
      "vis_m": 9999,
      "fzfg": false,
      "metar_trigger": false,
      "taf_trigger": false,
      "metar": "METAR LIRN 251420Z 17003KT 120V230 9999 FEW020 SCT070 12/07 Q1002 NOSIG",
      "taf": "TAF LIRN 251100Z 2512/2612 19012KT 9999 SCT030"
    },
    {
      "icao": "LIRP",
      "alert": "OK",
      "vis_m": 5000,
      "fzfg": false,
      "metar_trigger": false,
      "taf_trigger": false,
      "metar": "METAR LIRP 251415Z VRB02KT 5000 -TSRA FEW023CB FEW025TCU SCT030 10/08 Q0997 NOSIG",
      "taf": "TAF LIRP 251100Z 2512/2612 10010KT 9999 SCT030"
    },
    {
      "icao": "LIRZ",
      "alert": "OK",
      "vis_m": 9999,
      "fzfg": false,
      "metar_trigger": false,
      "taf_trigger": false,
      "metar": "METAR LIRZ 251420Z AUTO 19011KT 9999 NCD 11/05 Q0998",
      "taf": "TAF LIRZ 251100Z 2512/2612 17012KT 9999 BKN030"
    },
    {
      "icao": "LJLJ",
      "alert": "OK",
      "vis_m": 7000,
      "fzfg": false,
      "metar_trigger": false,
      "taf_trigger": false,
      "metar": "METAR LJLJ 251430Z 28005KT 7000 -RA BKN006 OVC020 04/03 Q0996 NOSIG",
      "taf": "TAF LJLJ 251100Z 2512/2612 30003KT 2500 RA BR BKN003 OVC010"
    },
    {
      "icao": "LKMT",
      "alert": "OK",
      "vis_m": 1800,
      "fzfg": false,
      "metar_trigger": false,
      "taf_trigger": false,
      "metar": "METAR LKMT 251430Z 19002KT 1800 BR NSC 01/00 Q1002 NOSIG",
      "taf": "TAF LKMT 251100Z 2512/2612 02006KT 3500 BR SCT006 BKN022"
    },
    {
      "icao": "LKPR",
      "alert": "OK",
      "vis_m": 400,
      "fzfg": true,
      "metar_trigger": false,
      "taf_trigger": false,
      "metar": "METAR LKPR 251430Z 05004KT 0400 R24/0550N R30/0500N FG VV002 01/01 Q0998 NOSIG",
      "taf": "TAF LKPR 251400Z 2515/2621 06006KT 0500 FZFG VV002"
    },
    {
      "icao": "LLBG",
      "alert": "OK",
      "vis_m": 9999,
      "fzfg": false,
      "metar_trigger": false,
      "taf_trigger": false,
      "metar": "METAR LLBG 251450Z 34006KT CAVOK 19/07 Q1020 NOSIG",
      "taf": "TAF LLBG 251103Z 2512/2612 32010KT CAVOK"
    },
    {
      "icao": "LMML",
      "alert": "OK",
      "vis_m": 9999,
      "fzfg": false,
      "metar_trigger": false,
      "taf_trigger": false,
      "metar": "METAR LMML 251445Z 30011KT 9999 FEW023 12/10 Q1005 NOSIG",
      "taf": "TAF LMML 251100Z 2512/2612 30017KT 9999 FEW015"
    },
    {
      "icao": "LOWW",
      "alert": "OK",
      "vis_m": 3800,
      "fzfg": false,
      "metar_trigger": false,
      "taf_trigger": false,
      "metar": "METAR LOWW 251420Z 10006KT 3800 -RA BR FEW004 BKN006 03/02 Q1000 TEMPO 2500 RA BKN004",
      "taf": "TAF LOWW 251415Z 2515/2621 14012KT 2000 BR FEW002 BKN005 TX04/2614Z TN00/2607Z"
    },
    {
      "icao": "LPFR",
      "alert": "OK",
      "vis_m": 9999,
      "fzfg": false,
      "metar_trigger": false,
      "taf_trigger": false,
      "metar": "METAR LPFR 251430Z 25019KT 9999 FEW010 SCT020 16/13 Q1017",
      "taf": "TAF LPFR 251100Z 2512/2612 26015KT 9999 SCT012 BKN030"
    },
    {
      "icao": "LPMA",
      "alert": "OK",
      "vis_m": 9999,
      "fzfg": false,
      "metar_trigger": false,
      "taf_trigger": false,
      "metar": "METAR LPMA 251430Z 07005KT 360V130 9999 FEW016 20/10 Q1025",
      "taf": "TAF LPMA 251100Z 2512/2612 VRB05KT 9999 SCT015"
    },
    {
      "icao": "LPPR",
      "alert": "OK",
      "vis_m": 9999,
      "fzfg": false,
      "metar_trigger": false,
      "taf_trigger": false,
      "metar": "METAR LPPR 251430Z 28009KT 240V310 9999 SCT025 BKN044 14/09 Q1012",
      "taf": "TAF LPPR 251100Z 2512/2612 28010KT 9999 SCT020"
    },
    {
      "icao": "LPPS",
      "alert": "OK",
      "vis_m": 9999,
      "fzfg": false,
      "metar_trigger": false,
      "taf_trigger": false,
      "metar": "METAR LPPS 251430Z 27017KT 9999 FEW015 SCT030 18/12 Q1025",
      "taf": "TAF LPPS 251100Z 2512/2618 27012KT 9999 SCT015"
    },
    {
      "icao": "LPPT",
      "alert": "OK",
      "vis_m": 9999,
      "fzfg": false,
      "metar_trigger": false,
      "taf_trigger": false,
      "metar": "METAR LPPT 251430Z 24013KT 220V280 9999 BKN015 15/13 Q1015",
      "taf": "TAF LPPT 251100Z 2512/2618 26012KT 9999 SCT012 SCT030"
    },
    {
      "icao": "LQBK",
      "alert": "OK",
      "vis_m": 6000,
      "fzfg": false,
      "metar_trigger": false,
      "taf_trigger": false,
      "metar": "METAR LQBK 251430Z 29003KT 250V350 6000 BKN047 08/07 Q0997 BECMG 22010KT 4000 RA",
      "taf": ""
    },
    {
      "icao": "LQSA",
      "alert": "OK",
      "vis_m": 8000,
      "fzfg": false,
      "metar_trigger": false,
      "taf_trigger": false,
      "metar": "METAR LQSA 251430Z 15017G27KT 8000 RA FEW035 BKN045 10/05 Q0999 NOSIG",
      "taf": "TAF LQSA 251100Z 2512/2612 11006KT 9999 BKN050 TX12/2513Z TN03/2606Z"
    },
    {
      "icao": "LQTZ",
      "alert": "OK",
      "vis_m": 9999,
      "fzfg": false,
      "metar_trigger": false,
      "taf_trigger": false,
      "metar": "METAR LQTZ 251430Z 14008G20KT 110V230 9999 SCT073 17/03 Q0997",
      "taf": "TAF LQTZ 251100Z 2512/2612 16006KT 9999 SCT050 TX14/2514Z TN03/2605Z"
    },
    {
      "icao": "LRBC",
      "alert": "OK",
      "vis_m": 2000,
      "fzfg": false,
      "metar_trigger": false,
      "taf_trigger": false,
      "metar": "METAR LRBC 251430Z 19005KT 2000 BR OVC002 M00/M00 Q1014",
      "taf": "TAF LRBC 251400Z 2515/2524 18007KT 1500 BR OVC002"
    },
    {
      "icao": "LRBS",
      "alert": "OK",
      "vis_m": 2000,
      "fzfg": false,
      "metar_trigger": false,
      "taf_trigger": false,
      "metar": "METAR LRBS 251430Z VRB02KT 2000 BR OVC002 01/M00 Q1014 BECMG 1500 BR",
      "taf": "TAF LRBS 251100Z 2512/2612 VRB04KT 4000 BR OVC002"
    },
    {
      "icao": "LRBV",
      "alert": "OK",
      "vis_m": 9999,
      "fzfg": false,
      "metar_trigger": false,
      "taf_trigger": false,
      "metar": "METAR LRBV 251430Z 12006KT CAVOK 05/02 Q1009",
      "taf": "TAF LRBV 251400Z 2515/2524 12007KT CAVOK"
    },
    {
      "icao": "LRCL",
      "alert": "OK",
      "vis_m": 9999,
      "fzfg": false,
      "metar_trigger": false,
      "taf_trigger": false,
      "metar": "METAR LRCL 251430Z 08005KT 020V100 9999 FEW070 04/00 Q1008",
      "taf": "TAF LRCL 251400Z 2515/2524 08006KT CAVOK"
    },
    {
      "icao": "LRCV",
      "alert": "OK",
      "vis_m": 700,
      "fzfg": false,
      "metar_trigger": false,
      "taf_trigger": false,
      "metar": "METAR LRCV 251430Z 08009KT 0700 R26/1100D FG OVC001 00/00 Q1012",
      "taf": "TAF LRCV 251400Z 2515/2524 07008KT 1500 BR OVC001"
    },
    {
      "icao": "LRIA",
      "alert": "OK",
      "vis_m": 400,
      "fzfg": false,
      "metar_trigger": false,
      "taf_trigger": false,
      "metar": "METAR LRIA 251430Z 12011KT 0400 R14/0650N FG VV001 01/00 Q1014",
      "taf": "TAF LRIA 251400Z 2515/2524 11010KT 0600 FG OVC001"
    },
    {
      "icao": "LROP",
      "alert": "OK",
      "vis_m": 2500,
      "fzfg": false,
      "metar_trigger": false,
      "taf_trigger": false,
      "metar": "METAR LROP 251430Z 05005KT 2500 BR OVC003 00/00 Q1014 BECMG 1500 BR OVC002",
      "taf": "TAF LROP 251100Z 2512/2612 VRB04KT 4000 BR OVC002"
    },
    {
      "icao": "LRSB",
      "alert": "OK",
      "vis_m": 9999,
      "fzfg": false,
      "metar_trigger": false,
      "taf_trigger": false,
      "metar": "METAR LRSB 251430Z 20005KT 170V260 CAVOK 06/01 Q1008",
      "taf": "TAF LRSB 251100Z 2512/2612 VRB04KT 9999 SCT070"
    },
    {
      "icao": "LRSM",
      "alert": "OK",
      "vis_m": 9999,
      "fzfg": false,
      "metar_trigger": false,
      "taf_trigger": false,
      "metar": "METAR LRSM 251430Z 10004KT CAVOK 06/01 Q1007",
      "taf": "TAF LRSM 251400Z 2515/2524 12006KT 9999 BKN045"
    },
    {
      "icao": "LRSV",
      "alert": "OK",
      "vis_m": 150,
      "fzfg": true,
      "metar_trigger": false,
      "taf_trigger": false,
      "metar": "METAR LRSV 251430Z 14009KT 0150 R34/0400N FZFG VV001 M01/M01 Q1011",
      "taf": "TAF LRSV 251400Z 2515/2524 14010KT 0300 FZFG VV001"
    },
    {
      "icao": "LRTM",
      "alert": "OK",
      "vis_m": 4600,
      "fzfg": false,
      "metar_trigger": false,
      "taf_trigger": false,
      "metar": "METAR LRTM 251430Z 21006KT 4600 BR NSC 02/M00 Q1009",
      "taf": "TAF LRTM 251400Z 2515/2524 VRB04KT 5000 BR NSC"
    },
    {
      "icao": "LRTR",
      "alert": "OK",
      "vis_m": 9999,
      "fzfg": false,
      "metar_trigger": false,
      "taf_trigger": false,
      "metar": "METAR LRTR 251430Z 10014KT CAVOK 09/04 Q1003",
      "taf": "TAF LRTR 251100Z 2512/2612 11014KT 9999 BKN045"
    },
    {
      "icao": "LTAC",
      "alert": "OK",
      "vis_m": 9999,
      "fzfg": false,
      "metar_trigger": false,
      "taf_trigger": false,
      "metar": "METAR LTAC 251420Z 30004KT 270V330 9999 SCT040 10/04 Q1020 NOSIG",
      "taf": "TAF LTAC 251040Z 2512/2612 VRB02KT 9999 SCT040"
    },
    {
      "icao": "LTFM",
      "alert": "OK",
      "vis_m": 9999,
      "fzfg": false,
      "metar_trigger": false,
      "taf_trigger": false,
      "metar": "METAR LTFM 251420Z 20011KT CAVOK 14/10 Q1016 NOSIG",
      "taf": "TAF LTFM 251040Z 2512/2618 19012KT 9999 FEW040 BKN100"
    },
    {
      "icao": "LUKK",
      "alert": "OK",
      "vis_m": 2500,
      "fzfg": true,
      "metar_trigger": false,
      "taf_trigger": false,
      "metar": "METAR LUKK 251430Z 09009KT 2500 FZDZ BR OVC002 M01/M01 Q1016 TEMPO 0800 -FZDZ FZFG",
      "taf": "TAF LUKK 251102Z 2512/2612 11008KT 1500 FZDZ BR OVC002"
    },
    {
      "icao": "LWOH",
      "alert": "OK",
      "vis_m": 9999,
      "fzfg": false,
      "metar_trigger": false,
      "taf_trigger": false,
      "metar": "METAR LWOH 251450Z 10002KT 9999 FEW035 SCT090 09/06 Q1008",
      "taf": ""
    },
    {
      "icao": "LWSK",
      "alert": "OK",
      "vis_m": 9999,
      "fzfg": false,
      "metar_trigger": false,
      "taf_trigger": false,
      "metar": "METAR LWSK 251450Z VRB02KT 9999 FEW020 10/07 Q1010 NOSIG",
      "taf": "TAF LWSK 251440Z 2515/2615 VRB02KT 9999 FEW015 BKN030"
    },
    {
      "icao": "LYBE",
      "alert": "OK",
      "vis_m": 9999,
      "fzfg": false,
      "metar_trigger": false,
      "taf_trigger": false,
      "metar": "METAR LYBE 251430Z 12021KT CAVOK 12/05 Q1001 NOSIG",
      "taf": "TAF LYBE 251100Z 2512/2612 13014KT CAVOK TX13/2513Z TN05/2606Z"
    },
    {
      "icao": "LYNI",
      "alert": "OK",
      "vis_m": 9999,
      "fzfg": false,
      "metar_trigger": false,
      "taf_trigger": false,
      "metar": "METAR LYNI 251430Z 08011KT CAVOK 13/05 Q1007 NOSIG",
      "taf": "TAF LYNI 251100Z 2512/2612 10008KT 9999 SCT040 SCT090 TX12/2513Z TN06/2606Z"
    },
    {
      "icao": "LYPG",
      "alert": "OK",
      "vis_m": 8000,
      "fzfg": false,
      "metar_trigger": false,
      "taf_trigger": false,
      "metar": "METAR LYPG 251430Z 18004KT 140V220 8000 FEW030 SCT040 OVC070 11/10 Q1004 NOSIG",
      "taf": "TAF LYPG 251100Z 2512/2612 16012KT 9999 FEW015 SCT040 OVC080 TX14/2513Z TN08/2605Z"
    },
    {
      "icao": "LZIB",
      "alert": "OK",
      "vis_m": 4200,
      "fzfg": false,
      "metar_trigger": false,
      "taf_trigger": false,
      "metar": "METAR LZIB 251430Z 05010KT 4200 -RA BR BKN006 BKN016 04/03 Q1001 NOSIG",
      "taf": "TAF LZIB 251115Z 2512/2612 06010KT 6000 FEW008 OVC017"
    },
    {
      "icao": "LZKZ",
      "alert": "OK",
      "vis_m": 9999,
      "fzfg": false,
      "metar_trigger": false,
      "taf_trigger": false,
      "metar": "METAR LZKZ 251430Z 01008KT 9999 -RA FEW035 06/03 Q1006 NOSIG",
      "taf": "TAF LZKZ 251115Z 2512/2612 34005KT 9999 BKN028"
    },
    {
      "icao": "LZTT",
      "alert": "OK",
      "vis_m": 9999,
      "fzfg": false,
      "metar_trigger": false,
      "taf_trigger": false,
      "metar": "METAR LZTT 251430Z 08003KT 040V120 9999 FEW006 BKN030 03/01 Q1005 NOSIG",
      "taf": "TAF LZTT 251115Z 2512/2612 18004KT 9999 FEW005 BKN040"
    },
    {
      "icao": "OEJN",
      "alert": "OK",
      "vis_m": 9999,
      "fzfg": false,
      "metar_trigger": false,
      "taf_trigger": false,
      "metar": "METAR OEJN 251400Z 28010KT CAVOK 27/12 Q1013 NOSIG",
      "taf": "TAF OEJN 251100Z 2512/2618 30012KT 7000 FEW040"
    },
    {
      "icao": "OEMA",
      "alert": "OK",
      "vis_m": 9999,
      "fzfg": false,
      "metar_trigger": false,
      "taf_trigger": false,
      "metar": "METAR OEMA 251400Z 07008KT CAVOK 23/M07 Q1020 NOSIG",
      "taf": "TAF OEMA 251100Z 2512/2618 08012KT 7000 NSC"
    },
    {
      "icao": "OJAI",
      "alert": "OK",
      "vis_m": null,
      "fzfg": false,
      "metar_trigger": false,
      "taf_trigger": false,
      "metar": "",
      "taf": "TAF OJAI 251100Z 2512/2618 13008KT 5000 HZ NSC"
    },
    {
      "icao": "OMAA",
      "alert": "OK",
      "vis_m": 9999,
      "fzfg": false,
      "metar_trigger": false,
      "taf_trigger": false,
      "metar": "METAR OMAA 251430Z 17007KT 9999 -RA SCT045 24/11 Q1014 NOSIG",
      "taf": "TAF OMAA 251100Z 2512/2618 18012KT 8000 FEW035"
    },
    {
      "icao": "OMDB",
      "alert": "OK",
      "vis_m": 9999,
      "fzfg": false,
      "metar_trigger": false,
      "taf_trigger": false,
      "metar": "SPECI OMDB 251448Z 01008KT CAVOK 20/17 Q1015 WS ALL RWY NOSIG",
      "taf": "TAF OMDB 251100Z 2512/2618 18012KT 8000 NSC"
    },
    {
      "icao": "UAAA",
      "alert": "OK",
      "vis_m": 1600,
      "fzfg": false,
      "metar_trigger": false,
      "taf_trigger": false,
      "metar": "METAR UAAA 251430Z VRB01MPS 1600 R05R/P2000U BR FU SCT050 BKN100 M04/M07 Q1023 NOSIG",
      "taf": "TAF UAAA 251103Z 2512/2612 17003MPS 3100 BR FU BKN050 OVC100 TXM01/2608Z TNM07/2602Z"
    },
    {
      "icao": "UBBB",
      "alert": "OK",
      "vis_m": 9999,
      "fzfg": false,
      "metar_trigger": false,
      "taf_trigger": false,
      "metar": "METAR UBBB 251430Z 01006KT 9999 BKN028 07/03 Q1020 NOSIG",
      "taf": "TAF UBBB 251048Z 2512/2612 34008KT 9999 SCT012 BKN030 TX07/2512Z TN02/2601Z"
    },
    {
      "icao": "UDSG",
      "alert": "OK",
      "vis_m": 2400,
      "fzfg": false,
      "metar_trigger": false,
      "taf_trigger": false,
      "metar": "METAR UDSG 251430Z 34002KT 2400 BR SCT033 M08/M08 Q1022 NOSIG",
      "taf": "TAF UDSG 251100Z 2512/2612 VRB06KT 1000 BR OVC010"
    },
    {
      "icao": "UDYZ",
      "alert": "OK",
      "vis_m": 2300,
      "fzfg": false,
      "metar_trigger": false,
      "taf_trigger": false,
      "metar": "METAR UDYZ 251430Z VRB01KT 2300 R08/P2000N BR BKN008 M03/M05 Q1024 NOSIG",
      "taf": "TAF UDYZ 251100Z 2512/2612 VRB04KT 2000 BR BKN020"
    },
    {
      "icao": "UGKO",
      "alert": "OK",
      "vis_m": 9999,
      "fzfg": false,
      "metar_trigger": false,
      "taf_trigger": false,
      "metar": "METAR UGKO 251430Z 09004KT 9999 BKN050 08/06 Q1021 NOSIG",
      "taf": ""
    }
  ]
}