{
  "ts_utc": "2026-04-14T14:24:46Z",
  "threshold_m": 150,
  "source": "stations_override.txt (ICAO list) + aviationweather.gov (METAR/TAF raw)",
  "station_count": 159,
  "stations": [
    {
      "icao": "BIKF",
      "alert": "OK",
      "vis_m": 9999,
      "fzfg": false,
      "metar_trigger": false,
      "taf_trigger": false,
      "metar": "METAR BIKF 141400Z 10017KT 9999 FEW018 BKN022 08/03 Q1003",
      "taf": "TAF BIKF 141331Z 1415/1515 09012KT 9999 -SHRA SCT018 BKN027 TX09/1515Z TN03/1504Z"
    },
    {
      "icao": "BKPR",
      "alert": "OK",
      "vis_m": null,
      "fzfg": false,
      "metar_trigger": false,
      "taf_trigger": false,
      "metar": "",
      "taf": "TAF BKPR 141130Z 1412/1512 15010KT 9999 SCT050"
    },
    {
      "icao": "EBCI",
      "alert": "OK",
      "vis_m": 9999,
      "fzfg": false,
      "metar_trigger": false,
      "taf_trigger": false,
      "metar": "METAR EBCI 141350Z VRB04KT 9999 SCT048 15/01 Q1021 NOSIG",
      "taf": "TAF EBCI 141120Z 1412/1518 VRB03KT 9999 SCT030"
    },
    {
      "icao": "EDDB",
      "alert": "OK",
      "vis_m": 9999,
      "fzfg": false,
      "metar_trigger": false,
      "taf_trigger": false,
      "metar": "METAR EDDB 141420Z AUTO 28008KT 9999 SCT027 SCT036 BKN045 13/07 Q1019 NOSIG",
      "taf": "TAF EDDB 141100Z 1412/1512 28008KT 9999 SCT030"
    },
    {
      "icao": "EDDH",
      "alert": "OK",
      "vis_m": 9999,
      "fzfg": false,
      "metar_trigger": false,
      "taf_trigger": false,
      "metar": "METAR EDDH 141420Z AUTO 30011KT 260V330 9999 SCT038 14/05 Q1020 NOSIG",
      "taf": "TAF EDDH 141100Z 1412/1518 31011KT 9999 SCT030"
    },
    {
      "icao": "EDDK",
      "alert": "OK",
      "vis_m": 9999,
      "fzfg": false,
      "metar_trigger": false,
      "taf_trigger": false,
      "metar": "METAR EDDK 141420Z AUTO 32006KT CAVOK 15/01 Q1021 NOSIG",
      "taf": "TAF EDDK 141100Z 1412/1518 VRB03KT 9999 FEW035"
    },
    {
      "icao": "EDDN",
      "alert": "OK",
      "vis_m": 9999,
      "fzfg": false,
      "metar_trigger": false,
      "taf_trigger": false,
      "metar": "METAR EDDN 141420Z AUTO 33007KT 9999 BKN008 OVC014 09/07 Q1020 BECMG SCT009 BKN020",
      "taf": ""
    },
    {
      "icao": "EDDS",
      "alert": "OK",
      "vis_m": 9999,
      "fzfg": false,
      "metar_trigger": false,
      "taf_trigger": false,
      "metar": "METAR EDDS 141420Z AUTO 33006KT 9999 SCT018 OVC026 10/06 Q1020 NOSIG",
      "taf": "TAF EDDS 141100Z 1412/1512 34005KT 9999 BKN020"
    },
    {
      "icao": "EDFH",
      "alert": "OK",
      "vis_m": 9999,
      "fzfg": false,
      "metar_trigger": false,
      "taf_trigger": false,
      "metar": "METAR EDFH 141350Z 02006KT 340V090 9999 FEW045 12/02 Q1021",
      "taf": "TAF EDFH 141100Z 1412/1512 36005KT 9999 SCT020"
    },
    {
      "icao": "EDJA",
      "alert": "OK",
      "vis_m": 9999,
      "fzfg": false,
      "metar_trigger": false,
      "taf_trigger": false,
      "metar": "METAR EDJA 141350Z 32006KT 290V010 9999 FEW011 OVC015 08/06 Q1019",
      "taf": ""
    },
    {
      "icao": "EDLW",
      "alert": "OK",
      "vis_m": 9999,
      "fzfg": false,
      "metar_trigger": false,
      "taf_trigger": false,
      "metar": "METAR EDLW 141350Z 36003KT 280V080 9999 FEW049 14/04 Q1021",
      "taf": "TAF EDLW 141100Z 1412/1512 VRB03KT 9999 SCT035"
    },
    {
      "icao": "EDNY",
      "alert": "OK",
      "vis_m": 9999,
      "fzfg": false,
      "metar_trigger": false,
      "taf_trigger": false,
      "metar": "METAR EDNY 141350Z VRB02KT 9999 FEW020 SCT023 BKN028 11/07 Q1020",
      "taf": "TAF EDNY 141100Z 1412/1421 02004KT 9999 BKN015"
    },
    {
      "icao": "EDSB",
      "alert": "OK",
      "vis_m": 9999,
      "fzfg": false,
      "metar_trigger": false,
      "taf_trigger": false,
      "metar": "METAR EDSB 141350Z VRB03KT 9999 FEW033 OVC041 12/06 Q1021",
      "taf": "TAF EDSB 141100Z 1412/1512 03005KT 9999 BKN030"
    },
    {
      "icao": "EETN",
      "alert": "OK",
      "vis_m": 9999,
      "fzfg": false,
      "metar_trigger": false,
      "taf_trigger": false,
      "metar": "METAR EETN 141420Z 04010KT CAVOK 10/02 Q1030 NOSIG",
      "taf": "TAF EETN 141130Z 1412/1512 04012KT CAVOK"
    },
    {
      "icao": "EFTU",
      "alert": "OK",
      "vis_m": 9999,
      "fzfg": false,
      "metar_trigger": false,
      "taf_trigger": false,
      "metar": "METAR EFTU 141420Z AUTO 11004KT 070V130 CAVOK 13/M01 Q1031",
      "taf": "TAF EFTU 141128Z 1412/1512 13008KT CAVOK"
    },
    {
      "icao": "EGBB",
      "alert": "OK",
      "vis_m": 9999,
      "fzfg": false,
      "metar_trigger": false,
      "taf_trigger": false,
      "metar": "METAR EGBB 141350Z 16011KT 9999 BKN036 14/06 Q1015",
      "taf": "TAF EGBB 141056Z 1412/1512 17013KT 9999 FEW030"
    },
    {
      "icao": "EGGP",
      "alert": "OK",
      "vis_m": 9999,
      "fzfg": false,
      "metar_trigger": false,
      "taf_trigger": false,
      "metar": "METAR EGGP 141350Z 16012KT 9999 BKN029 13/07 Q1013",
      "taf": "TAF EGGP 141103Z 1412/1512 15012KT 9999 FEW015 SCT025"
    },
    {
      "icao": "EGGW",
      "alert": "OK",
      "vis_m": 9999,
      "fzfg": false,
      "metar_trigger": false,
      "taf_trigger": false,
      "metar": "METAR EGGW 141350Z AUTO 18012KT 150V210 9999 NCD 14/04 Q1017",
      "taf": "TAF EGGW 141056Z 1412/1512 17012KT 9999 FEW025"
    },
    {
      "icao": "EGKK",
      "alert": "OK",
      "vis_m": 9999,
      "fzfg": false,
      "metar_trigger": false,
      "taf_trigger": false,
      "metar": "METAR EGKK 141350Z 17010KT 140V200 CAVOK 15/05 Q1018",
      "taf": "TAF EGKK 141056Z 1412/1518 18010KT 9999 SCT030"
    },
    {
      "icao": "EGNM",
      "alert": "OK",
      "vis_m": 9999,
      "fzfg": false,
      "metar_trigger": false,
      "taf_trigger": false,
      "metar": "METAR EGNM 141350Z 15011KT 9999 -SHRA SCT036 SCT045 12/06 Q1015",
      "taf": "TAF EGNM 141057Z 1412/1512 17009KT 9999 FEW020 SCT035"
    },
    {
      "icao": "EGPD",
      "alert": "OK",
      "vis_m": 9999,
      "fzfg": false,
      "metar_trigger": false,
      "taf_trigger": false,
      "metar": "METAR EGPD 141420Z COR AUTO 14011KT 9999 NCD 11/04 Q1014 NOSIG",
      "taf": "TAF EGPD 141058Z 1412/1512 15010KT 9999 FEW025"
    },
    {
      "icao": "EGPF",
      "alert": "OK",
      "vis_m": 9999,
      "fzfg": false,
      "metar_trigger": false,
      "taf_trigger": false,
      "metar": "METAR EGPF 141350Z AUTO 12011KT 100V160 9999 -RA FEW039/// OVC047/// //////TCU 11/07 Q1012",
      "taf": "TAF EGPF 141055Z 1412/1512 11008KT 9999 FEW045"
    },
    {
      "icao": "EHBK",
      "alert": "OK",
      "vis_m": 9999,
      "fzfg": false,
      "metar_trigger": false,
      "taf_trigger": false,
      "metar": "METAR EHBK 141355Z AUTO 21005KT 140V250 9999 BKN037 15/06 Q1021 NOSIG",
      "taf": "TAF EHBK 141108Z 1412/1518 22004KT CAVOK"
    },
    {
      "icao": "EHEH",
      "alert": "OK",
      "vis_m": 9999,
      "fzfg": false,
      "metar_trigger": false,
      "taf_trigger": false,
      "metar": "METAR EHEH 141355Z AUTO 20004KT 130V280 9999 FEW048 16/03 Q1021 BLU NOSIG",
      "taf": "TAF EHEH 140525Z 1406/1512 20003KT 0300 FG BKN001"
    },
    {
      "icao": "EKBI",
      "alert": "OK",
      "vis_m": 9999,
      "fzfg": false,
      "metar_trigger": false,
      "taf_trigger": false,
      "metar": "METAR EKBI 141420Z AUTO 28012KT 9999 FEW025/// SCT027/// 10/06 Q1019",
      "taf": "TAF EKBI 141124Z 1412/1512 23010KT 9999 BKN005"
    },
    {
      "icao": "EKCH",
      "alert": "OK",
      "vis_m": 9999,
      "fzfg": false,
      "metar_trigger": false,
      "taf_trigger": false,
      "metar": "METAR EKCH 141420Z AUTO 12008KT 9999 OVC052/// 08/02 Q1020 NOSIG",
      "taf": "TAF EKCH 141127Z 1412/1512 10012KT 9999 BKN040"
    },
    {
      "icao": "ENAL",
      "alert": "OK",
      "vis_m": 9999,
      "fzfg": false,
      "metar_trigger": false,
      "taf_trigger": false,
      "metar": "METAR ENAL 141350Z 19005KT 160V230 CAVOK 09/01 Q1021",
      "taf": "TAF ENAL 141100Z 1412/1421 15007KT 9999 FEW040 BKN050"
    },
    {
      "icao": "ENBR",
      "alert": "OK",
      "vis_m": 9999,
      "fzfg": false,
      "metar_trigger": false,
      "taf_trigger": false,
      "metar": "METAR ENBR 141350Z 14005KT 110V170 9999 -RA SCT017 BKN045 06/03 Q1020 NOSIG RMK WIND 1200FT 13010KT",
      "taf": "TAF ENBR 141100Z 1412/1512 12005KT 9999 -RA BKN050"
    },
    {
      "icao": "ENGM",
      "alert": "OK",
      "vis_m": 9999,
      "fzfg": false,
      "metar_trigger": false,
      "taf_trigger": false,
      "metar": "METAR ENGM 141350Z 12014KT 9999 SCT049 10/M02 Q1023 NOSIG",
      "taf": "TAF ENGM 141100Z 1412/1512 10010KT 9999 BKN040"
    },
    {
      "icao": "ENHD",
      "alert": "OK",
      "vis_m": 9999,
      "fzfg": false,
      "metar_trigger": false,
      "taf_trigger": false,
      "metar": "METAR ENHD 141350Z 09007KT 9999 -RA FEW015 SCT045 06/03 Q1020",
      "taf": "TAF ENHD 141100Z 1412/1421 11008KT 9999 -DZ FEW025 BKN040"
    },
    {
      "icao": "ENTC",
      "alert": "OK",
      "vis_m": 9999,
      "fzfg": false,
      "metar_trigger": false,
      "taf_trigger": false,
      "metar": "METAR ENTC 141350Z 02006KT CAVOK 09/M04 Q1031 NOSIG RMK WIND 2600FT 18015KT",
      "taf": "TAF ENTC 141100Z 1412/1512 VRB04KT CAVOK"
    },
    {
      "icao": "ENTO",
      "alert": "OK",
      "vis_m": 9999,
      "fzfg": false,
      "metar_trigger": false,
      "taf_trigger": false,
      "metar": "METAR ENTO 141350Z 10004KT 020V180 9999 -SHRA SCT039 08/02 Q1021 TEMPO RA",
      "taf": "TAF ENTO 141100Z 1412/1512 08008KT 9999 -RA FEW010 BKN025"
    },
    {
      "icao": "ENVA",
      "alert": "OK",
      "vis_m": 9999,
      "fzfg": false,
      "metar_trigger": false,
      "taf_trigger": false,
      "metar": "METAR ENVA 141350Z 12010KT 080V150 CAVOK 11/M01 Q1026 TEMPO 15015G25KT RMK WIND 670FT 14017G28KT",
      "taf": "TAF ENVA 141100Z 1412/1512 10008KT CAVOK"
    },
    {
      "icao": "ENZV",
      "alert": "OK",
      "vis_m": 9999,
      "fzfg": false,
      "metar_trigger": false,
      "taf_trigger": false,
      "metar": "METAR ENZV 141350Z 07006KT 9999 VCSH BKN031 06/03 Q1019 NOSIG",
      "taf": "TAF ENZV 141100Z 1412/1512 10008KT 9999 -RA BKN030"
    },
    {
      "icao": "EPGD",
      "alert": "OK",
      "vis_m": 9999,
      "fzfg": false,
      "metar_trigger": false,
      "taf_trigger": false,
      "metar": "METAR EPGD 141400Z 13014KT CAVOK 13/M02 Q1020",
      "taf": "TAF EPGD 141130Z 1412/1512 12012KT CAVOK"
    },
    {
      "icao": "EPKK",
      "alert": "OK",
      "vis_m": 9999,
      "fzfg": false,
      "metar_trigger": false,
      "taf_trigger": false,
      "metar": "METAR EPKK 141400Z 07008KT 9999 SCT065 16/03 Q1018",
      "taf": "TAF EPKK 141130Z 1412/1512 06006KT CAVOK"
    },
    {
      "icao": "EPKT",
      "alert": "OK",
      "vis_m": 9999,
      "fzfg": false,
      "metar_trigger": false,
      "taf_trigger": false,
      "metar": "METAR EPKT 141400Z VRB02KT 9999 FEW030 16/01 Q1018",
      "taf": "TAF EPKT 141130Z 1412/1512 15006KT CAVOK"
    },
    {
      "icao": "EPLB",
      "alert": "OK",
      "vis_m": 9999,
      "fzfg": false,
      "metar_trigger": false,
      "taf_trigger": false,
      "metar": "METAR EPLB 141400Z 12011KT CAVOK 16/M02 Q1021",
      "taf": "TAF EPLB 141130Z 1412/1512 12015KT CAVOK"
    },
    {
      "icao": "EPMO",
      "alert": "OK",
      "vis_m": 9999,
      "fzfg": false,
      "metar_trigger": false,
      "taf_trigger": false,
      "metar": "METAR EPMO 141400Z 09012KT 9999 -SHRA FEW014 SCT041TCU 12/03 Q1020",
      "taf": "TAF EPMO 141130Z 1412/1512 12014KT CAVOK"
    },
    {
      "icao": "EPPO",
      "alert": "OK",
      "vis_m": 9999,
      "fzfg": false,
      "metar_trigger": false,
      "taf_trigger": false,
      "metar": "METAR EPPO 141400Z 06005KT 030V090 CAVOK 13/05 Q1018",
      "taf": "TAF EPPO 141130Z 1412/1512 11012KT CAVOK"
    },
    {
      "icao": "EPRA",
      "alert": "OK",
      "vis_m": 9999,
      "fzfg": false,
      "metar_trigger": false,
      "taf_trigger": false,
      "metar": "METAR EPRA 141400Z 12008KT 090V150 CAVOK 15/02 Q1020",
      "taf": "TAF EPRA 141130Z 1412/1421 11010KT CAVOK"
    },
    {
      "icao": "EPRZ",
      "alert": "OK",
      "vis_m": 9999,
      "fzfg": false,
      "metar_trigger": false,
      "taf_trigger": false,
      "metar": "METAR EPRZ 141400Z 11012KT CAVOK 16/01 Q1019",
      "taf": "TAF EPRZ 141130Z 1412/1512 11012KT CAVOK"
    },
    {
      "icao": "EPSC",
      "alert": "OK",
      "vis_m": 9999,
      "fzfg": false,
      "metar_trigger": false,
      "taf_trigger": false,
      "metar": "METAR EPSC 141400Z 16010KT 9999 -SHRA FEW043 BKN049 FEW050TCU 13/05 Q1018",
      "taf": "TAF EPSC 141130Z 1412/1512 13010KT CAVOK"
    },
    {
      "icao": "EPSY",
      "alert": "OK",
      "vis_m": 9999,
      "fzfg": false,
      "metar_trigger": false,
      "taf_trigger": false,
      "metar": "METAR EPSY 141400Z 14010G20KT 050V200 CAVOK 15/M02 Q1022",
      "taf": "TAF EPSY 141130Z 1412/1421 12013KT CAVOK"
    },
    {
      "icao": "EPWA",
      "alert": "OK",
      "vis_m": 9999,
      "fzfg": false,
      "metar_trigger": false,
      "taf_trigger": false,
      "metar": "METAR EPWA 141400Z 12011KT CAVOK 15/00 Q1020 NOSIG",
      "taf": "TAF EPWA 141130Z 1412/1512 12014KT CAVOK"
    },
    {
      "icao": "EPWR",
      "alert": "OK",
      "vis_m": 9999,
      "fzfg": false,
      "metar_trigger": false,
      "taf_trigger": false,
      "metar": "METAR EPWR 141400Z 15006KT 9999 -RA NSC 15/05 Q1018",
      "taf": "TAF EPWR 141130Z 1412/1512 16006KT CAVOK"
    },
    {
      "icao": "ESGG",
      "alert": "OK",
      "vis_m": 9999,
      "fzfg": false,
      "metar_trigger": false,
      "taf_trigger": false,
      "metar": "METAR ESGG 141350Z 14010KT 100V160 9999 -DZ FEW016 SCT024 BKN039 08/02 Q1020",
      "taf": "TAF ESGG 141130Z 1412/1512 11014G25KT CAVOK"
    },
    {
      "icao": "ESKN",
      "alert": "OK",
      "vis_m": 9999,
      "fzfg": false,
      "metar_trigger": false,
      "taf_trigger": false,
      "metar": "METAR ESKN 141350Z 10016KT CAVOK 10/01 Q1027",
      "taf": "TAF ESKN 141130Z 1412/1512 12016KT CAVOK"
    },
    {
      "icao": "ESMS",
      "alert": "OK",
      "vis_m": 9999,
      "fzfg": false,
      "metar_trigger": false,
      "taf_trigger": false,
      "metar": "METAR ESMS 141350Z 09011KT 9999 FEW038 08/02 Q1019",
      "taf": "TAF ESMS 141127Z 1412/1512 10015KT CAVOK"
    },
    {
      "icao": "ESSA",
      "alert": "OK",
      "vis_m": 9999,
      "fzfg": false,
      "metar_trigger": false,
      "taf_trigger": false,
      "metar": "METAR ESSA 141350Z 12012KT CAVOK 11/M01 Q1028 NOSIG",
      "taf": "TAF ESSA 141130Z 1412/1512 12013KT 9999 FEW045"
    },
    {
      "icao": "EYKA",
      "alert": "OK",
      "vis_m": 9999,
      "fzfg": false,
      "metar_trigger": false,
      "taf_trigger": false,
      "metar": "METAR EYKA 141420Z 13010KT 110V170 CAVOK 16/M02 Q1024",
      "taf": "TAF EYKA 141100Z 1412/1512 11010KT 9000 NSC"
    },
    {
      "icao": "EYPA",
      "alert": "OK",
      "vis_m": 9999,
      "fzfg": false,
      "metar_trigger": false,
      "taf_trigger": false,
      "metar": "METAR EYPA 141420Z 13010KT 100V170 CAVOK 15/M03 Q1024",
      "taf": "TAF EYPA 141100Z 1412/1512 12010G20KT 9000 BKN045"
    },
    {
      "icao": "EYVI",
      "alert": "OK",
      "vis_m": 9999,
      "fzfg": false,
      "metar_trigger": false,
      "taf_trigger": false,
      "metar": "METAR EYVI 141420Z 12010KT 090V150 CAVOK 14/M00 Q1025 NOSIG",
      "taf": "TAF EYVI 141100Z 1412/1512 11010KT 9000 NSC"
    },
    {
      "icao": "GCFV",
      "alert": "OK",
      "vis_m": 9999,
      "fzfg": false,
      "metar_trigger": false,
      "taf_trigger": false,
      "metar": "METAR GCFV 141400Z 03019KT 9999 FEW025 21/12 Q1019",
      "taf": "TAF GCFV 140800Z 1409/1509 04016KT 9999 FEW025 TX23/1414Z TN16/1506Z"
    },
    {
      "icao": "GCLP",
      "alert": "OK",
      "vis_m": 9999,
      "fzfg": false,
      "metar_trigger": false,
      "taf_trigger": false,
      "metar": "METAR GCLP 141400Z 03027KT 9999 FEW030 22/13 Q1019 NOSIG",
      "taf": "TAF GCLP 140800Z 1409/1509 02024KT 9999 SCT035 TX22/1414Z TN16/1506Z"
    },
    {
      "icao": "GCTS",
      "alert": "OK",
      "vis_m": 9999,
      "fzfg": false,
      "metar_trigger": false,
      "taf_trigger": false,
      "metar": "METAR GCTS 141400Z 09022KT 9999 FEW030 22/11 Q1020 WS R07 NOSIG",
      "taf": "TAF GCTS 140800Z 1409/1509 08020KT 9999 FEW030 TX23/1414Z TN16/1506Z"
    },
    {
      "icao": "GMAD",
      "alert": "OK",
      "vis_m": 9999,
      "fzfg": false,
      "metar_trigger": false,
      "taf_trigger": false,
      "metar": "METAR GMAD 141400Z 25011KT CAVOK 26/12 Q1014 NOSIG",
      "taf": "TAF GMAD 141100Z 1412/1518 21003KT CAVOK"
    },
    {
      "icao": "GMMN",
      "alert": "OK",
      "vis_m": 9999,
      "fzfg": false,
      "metar_trigger": false,
      "taf_trigger": false,
      "metar": "METAR GMMN 141400Z 03014KT 340V090 CAVOK 21/13 Q1020 NOSIG",
      "taf": "TAF GMMN 141100Z 1412/1518 03015KT 9999 FEW030"
    },
    {
      "icao": "GMMX",
      "alert": "OK",
      "vis_m": 9999,
      "fzfg": false,
      "metar_trigger": false,
      "taf_trigger": false,
      "metar": "METAR GMMX 141400Z 36005KT 300V070 CAVOK 23/08 Q1018 NOSIG",
      "taf": "TAF GMMX 141100Z 1412/1518 06006KT 8000 NSC"
    },
    {
      "icao": "HEGN",
      "alert": "OK",
      "vis_m": 9999,
      "fzfg": false,
      "metar_trigger": false,
      "taf_trigger": false,
      "metar": "METAR HEGN 141300Z 36007KT CAVOK 30/10 Q1012 NOSIG",
      "taf": "TAF HEGN 141100Z 1412/1518 01014KT CAVOK"
    },
    {
      "icao": "HEMA",
      "alert": "OK",
      "vis_m": 9999,
      "fzfg": false,
      "metar_trigger": false,
      "taf_trigger": false,
      "metar": "METAR HEMA 141300Z 35018KT CAVOK 27/13 Q1012 NOSIG",
      "taf": "TAF HEMA 141100Z 1412/1518 36012G22KT CAVOK"
    },
    {
      "icao": "HESH",
      "alert": "OK",
      "vis_m": 9999,
      "fzfg": false,
      "metar_trigger": false,
      "taf_trigger": false,
      "metar": "METAR HESH 141300Z 02010KT CAVOK 31/09 Q1014 NOSIG",
      "taf": "TAF HESH 141100Z 1412/1518 02015KT CAVOK"
    },
    {
      "icao": "HESX",
      "alert": "OK",
      "vis_m": 9999,
      "fzfg": false,
      "metar_trigger": false,
      "taf_trigger": false,
      "metar": "METAR HESX 141300Z 06015KT CAVOK 27/08 Q1014 NOSIG",
      "taf": "TAF HESX 141100Z 1412/1518 04014KT CAVOK"
    },
    {
      "icao": "LATI",
      "alert": "OK",
      "vis_m": 9999,
      "fzfg": false,
      "metar_trigger": false,
      "taf_trigger": false,
      "metar": "METAR LATI 141420Z 33009KT 300V360 CAVOK 23/08 Q1014 NOSIG",
      "taf": "TAF LATI 141100Z 1412/1512 34012KT 9999 SCT090 TX25/1412Z TN10/1504Z"
    },
    {
      "icao": "LBPD",
      "alert": "OK",
      "vis_m": 9999,
      "fzfg": false,
      "metar_trigger": false,
      "taf_trigger": false,
      "metar": "METAR LBPD 141400Z AUTO 05003KT 350V110 9999 NCD 14/05 Q1021 NOSIG",
      "taf": "TAF LBPD 141100Z 1412/1512 11010KT 9999 SCT070"
    },
    {
      "icao": "LBSF",
      "alert": "OK",
      "vis_m": 9999,
      "fzfg": false,
      "metar_trigger": false,
      "taf_trigger": false,
      "metar": "METAR LBSF 141400Z 12017KT CAVOK 15/05 Q1019 NOSIG",
      "taf": "TAF LBSF 141100Z 1412/1512 10014KT 9999 SCT070"
    },
    {
      "icao": "LBWN",
      "alert": "OK",
      "vis_m": 9999,
      "fzfg": false,
      "metar_trigger": false,
      "taf_trigger": false,
      "metar": "METAR LBWN 141400Z 11015KT 9999 SCT019 11/06 Q1024 NOSIG",
      "taf": "TAF LBWN 141100Z 1412/1512 12018KT 9999 SCT012 SCT020"
    },
    {
      "icao": "LCLK",
      "alert": "OK",
      "vis_m": 9999,
      "fzfg": false,
      "metar_trigger": false,
      "taf_trigger": false,
      "metar": "METAR LCLK 141400Z 11006KT CAVOK 21/11 Q1020 NOSIG",
      "taf": "TAF LCLK 141130Z 1412/1512 09012KT CAVOK"
    },
    {
      "icao": "LCPH",
      "alert": "OK",
      "vis_m": 9999,
      "fzfg": false,
      "metar_trigger": false,
      "taf_trigger": false,
      "metar": "METAR LCPH 141400Z 28003KT 230V320 CAVOK 19/13 Q1020 NOSIG",
      "taf": "TAF LCPH 141130Z 1412/1512 30010KT CAVOK"
    },
    {
      "icao": "LEAL",
      "alert": "OK",
      "vis_m": 9999,
      "fzfg": false,
      "metar_trigger": false,
      "taf_trigger": false,
      "metar": "METAR LEAL 141400Z 10010KT 9999 FEW070 20/06 Q1017 NOSIG",
      "taf": "TAF LEAL 141100Z 1412/1512 13010KT 9999 FEW030 TX21/1413Z TN10/1506Z"
    },
    {
      "icao": "LEBB",
      "alert": "OK",
      "vis_m": 4000,
      "fzfg": false,
      "metar_trigger": false,
      "taf_trigger": false,
      "metar": "SPECI LEBB 141422Z VRB02KT 4000 -RA SCT014 BKN022 15/13 Q1022 NOSIG",
      "taf": "TAF LEBB 141100Z 1412/1512 13005KT 9999 FEW020 BKN030 TX20/1512Z TN09/1504Z"
    },
    {
      "icao": "LEBL",
      "alert": "OK",
      "vis_m": 9999,
      "fzfg": false,
      "metar_trigger": false,
      "taf_trigger": false,
      "metar": "METAR LEBL 141400Z 20013KT CAVOK 17/10 Q1016 NOSIG",
      "taf": "TAF LEBL 141100Z 1412/1512 22010KT CAVOK TX19/1413Z TN08/1505Z"
    },
    {
      "icao": "LECH",
      "alert": "OK",
      "vis_m": 9000,
      "fzfg": false,
      "metar_trigger": false,
      "taf_trigger": false,
      "metar": "METAR LECH 141400Z AUTO 14009KT 110V170 9000 BKN069 17/04 Q1017",
      "taf": "TAF LECH 141100Z 1412/1512 35010KT 9999 FEW030 TX22/1413Z TN10/1506Z"
    },
    {
      "icao": "LEMD",
      "alert": "OK",
      "vis_m": 9999,
      "fzfg": false,
      "metar_trigger": false,
      "taf_trigger": false,
      "metar": "METAR LEMD 141400Z 34010KT 270V040 9999 SCT060 20/05 Q1020 NOSIG",
      "taf": "TAF LEMD 141100Z 1412/1518 VRB03KT CAVOK TX21/1416Z TN06/1506Z"
    },
    {
      "icao": "LEMG",
      "alert": "OK",
      "vis_m": 9999,
      "fzfg": false,
      "metar_trigger": false,
      "taf_trigger": false,
      "metar": "METAR LEMG 141400Z 29012KT 240V330 9999 FEW050 22/08 Q1019 NOSIG",
      "taf": "TAF LEMG 141100Z 1412/1512 31012KT CAVOK TX23/1414Z TN12/1507Z"
    },
    {
      "icao": "LEVC",
      "alert": "OK",
      "vis_m": 9999,
      "fzfg": false,
      "metar_trigger": false,
      "taf_trigger": false,
      "metar": "METAR LEVC 141400Z 13009KT 100V170 CAVOK 21/05 Q1016 NOSIG",
      "taf": "TAF LEVC 141100Z 1412/1512 11010KT 9999 FEW030 TX23/1413Z TN10/1506Z"
    },
    {
      "icao": "LEXJ",
      "alert": "OK",
      "vis_m": 9000,
      "fzfg": false,
      "metar_trigger": false,
      "taf_trigger": false,
      "metar": "METAR LEXJ 141400Z VRB02KT 9000 SCT033 OVC040 16/14 Q1022 REDZ",
      "taf": ""
    },
    {
      "icao": "LEZG",
      "alert": "OK",
      "vis_m": 9999,
      "fzfg": false,
      "metar_trigger": false,
      "taf_trigger": false,
      "metar": "METAR LEZG 141400Z 30025KT 9999 FEW045 21/09 Q1017 NOSIG",
      "taf": "TAF LEZG 141100Z 1412/1512 33020KT 9999 FEW040 TX21/1413Z TN12/1506Z"
    },
    {
      "icao": "LEZL",
      "alert": "OK",
      "vis_m": 9999,
      "fzfg": false,
      "metar_trigger": false,
      "taf_trigger": false,
      "metar": "METAR LEZL 141400Z VRB05KT 9999 SCT047 23/08 Q1020 NOSIG",
      "taf": "TAF LEZL 140800Z 1409/1509 02010KT CAVOK TX25/1415Z TN09/1507Z"
    },
    {
      "icao": "LFBD",
      "alert": "OK",
      "vis_m": 9999,
      "fzfg": false,
      "metar_trigger": false,
      "taf_trigger": false,
      "metar": "METAR LFBD 141400Z AUTO 26008KT 220V300 9999 BKN046 BKN054 OVC072 19/07 Q1021 NOSIG",
      "taf": ""
    },
    {
      "icao": "LFLL",
      "alert": "OK",
      "vis_m": 9999,
      "fzfg": false,
      "metar_trigger": false,
      "taf_trigger": false,
      "metar": "METAR LFLL 141400Z 36012KT 9999 SCT033 BKN041 13/06 Q1019 NOSIG",
      "taf": "TAF LFLL 141100Z 1412/1518 36015KT 9999 BKN035"
    },
    {
      "icao": "LFLS",
      "alert": "OK",
      "vis_m": 9999,
      "fzfg": false,
      "metar_trigger": false,
      "taf_trigger": false,
      "metar": "METAR LFLS 141400Z AUTO 36007KT 330V030 9999 SCT035 OVC041 11/06 Q1019 NOSIG",
      "taf": "TAF LFLS 141400Z 1415/1515 36010KT 9999 BKN045"
    },
    {
      "icao": "LFMN",
      "alert": "OK",
      "vis_m": 9999,
      "fzfg": false,
      "metar_trigger": false,
      "taf_trigger": false,
      "metar": "METAR LFMN 141400Z 20006KT 9999 FEW100 18/13 Q1011 NOSIG",
      "taf": "TAF LFMN 141400Z 1415/1521 21008KT CAVOK"
    },
    {
      "icao": "LFOB",
      "alert": "OK",
      "vis_m": 9999,
      "fzfg": false,
      "metar_trigger": false,
      "taf_trigger": false,
      "metar": "METAR LFOB 141400Z AUTO 20006KT 150V240 CAVOK 17/03 Q1020 NOSIG",
      "taf": "TAF LFOB 141100Z 1412/1512 VRB04KT 9999 SCT030"
    },
    {
      "icao": "LFPO",
      "alert": "OK",
      "vis_m": 9999,
      "fzfg": false,
      "metar_trigger": false,
      "taf_trigger": false,
      "metar": "METAR LFPO 141400Z 24006KT 190V290 CAVOK 17/03 Q1020 NOSIG",
      "taf": "TAF LFPO 141100Z 1412/1518 18005KT 9999 SCT045"
    },
    {
      "icao": "LFSB",
      "alert": "OK",
      "vis_m": 9999,
      "fzfg": false,
      "metar_trigger": false,
      "taf_trigger": false,
      "metar": "METAR LFSB 141400Z AUTO 36010KT 330V050 9999 SCT040 BKN047 13/04 Q1020 NOSIG",
      "taf": "TAF LFSB 141100Z 1412/1512 36008KT 9999 SCT030 BKN060"
    },
    {
      "icao": "LGAV",
      "alert": "OK",
      "vis_m": 9999,
      "fzfg": false,
      "metar_trigger": false,
      "taf_trigger": false,
      "metar": "METAR LGAV 141350Z 08005KT 050V140 9999 FEW025 SCT070 17/11 Q1019 NOSIG",
      "taf": "TAF LGAV 141100Z 1412/1512 12010KT 9999 SCT020 BKN070"
    },
    {
      "icao": "LGTS",
      "alert": "OK",
      "vis_m": 9999,
      "fzfg": false,
      "metar_trigger": false,
      "taf_trigger": false,
      "metar": "METAR LGTS 141350Z 21007KT 9999 FEW018 18/09 Q1020 NOSIG",
      "taf": "TAF LGTS 141100Z 1412/1512 16008KT 9999 FEW025"
    },
    {
      "icao": "LHBP",
      "alert": "OK",
      "vis_m": 9999,
      "fzfg": false,
      "metar_trigger": false,
      "taf_trigger": false,
      "metar": "METAR LHBP 141400Z 09006KT 060V120 CAVOK 17/06 Q1018 NOSIG",
      "taf": "TAF LHBP 141115Z 1412/1512 11011KT CAVOK"
    },
    {
      "icao": "LHDC",
      "alert": "OK",
      "vis_m": 9999,
      "fzfg": false,
      "metar_trigger": false,
      "taf_trigger": false,
      "metar": "METAR LHDC 141345Z AUTO VRB03KT CAVOK 21/03 Q1017 NOSIG",
      "taf": "TAF LHDC 141115Z 1412/1421 07003KT CAVOK"
    },
    {
      "icao": "LIBD",
      "alert": "OK",
      "vis_m": 8000,
      "fzfg": false,
      "metar_trigger": false,
      "taf_trigger": false,
      "metar": "METAR LIBD 141350Z 16008KT 120V190 8000 SCT025 22/14 Q1010",
      "taf": "TAF LIBD 141100Z 1412/1512 17012KT 9999 BKN020"
    },
    {
      "icao": "LIBG",
      "alert": "OK",
      "vis_m": 9999,
      "fzfg": false,
      "metar_trigger": false,
      "taf_trigger": false,
      "metar": "METAR LIBG 141350Z 14010KT 9999 SCT020 20/16 Q1011",
      "taf": "TAF LIBG 141400Z 1415/1424 14012KT 6000 BKN015"
    },
    {
      "icao": "LIBP",
      "alert": "OK",
      "vis_m": 9999,
      "fzfg": false,
      "metar_trigger": false,
      "taf_trigger": false,
      "metar": "METAR LIBP 141350Z AUTO 04007KT 010V070 9999 SCT140/// 19/14 Q1011",
      "taf": "TAF LIBP 141100Z 1412/1512 VRB06KT 9999 SCT040"
    },
    {
      "icao": "LIBR",
      "alert": "OK",
      "vis_m": 9999,
      "fzfg": false,
      "metar_trigger": false,
      "taf_trigger": false,
      "metar": "METAR LIBR 141350Z 12009KT 9999 BKN025 19/15 Q1011",
      "taf": "TAF LIBR 141100Z 1412/1512 16015KT 8000 BKN020"
    },
    {
      "icao": "LICA",
      "alert": "OK",
      "vis_m": 9999,
      "fzfg": false,
      "metar_trigger": false,
      "taf_trigger": false,
      "metar": "METAR LICA 141350Z AUTO 15006KT 100V180 9999 NCD 22/16 Q1008",
      "taf": "TAF LICA 141100Z 1412/1512 08012KT 7000 FEW040"
    },
    {
      "icao": "LICC",
      "alert": "OK",
      "vis_m": 6000,
      "fzfg": false,
      "metar_trigger": false,
      "taf_trigger": false,
      "metar": "METAR LICC 141350Z 07016KT 6000 FEW100 20/17 Q1008",
      "taf": "TAF LICC 141100Z 1412/1512 08012KT 6000 SCT020"
    },
    {
      "icao": "LICJ",
      "alert": "OK",
      "vis_m": 9999,
      "fzfg": false,
      "metar_trigger": false,
      "taf_trigger": false,
      "metar": "METAR LICJ 141350Z AUTO 36010KT 9999 // OVC014/// 17/14 Q1009 RETS",
      "taf": "TAF LICJ 141100Z 1412/1512 03010KT 7000 FEW040"
    },
    {
      "icao": "LIMC",
      "alert": "OK",
      "vis_m": 9999,
      "fzfg": false,
      "metar_trigger": false,
      "taf_trigger": false,
      "metar": "METAR LIMC 141350Z 20005KT 120V250 9999 SCT020 18/11 Q1013 NOSIG",
      "taf": "TAF LIMC 141100Z 1412/1518 VRB05KT 9999 BKN040"
    },
    {
      "icao": "LIME",
      "alert": "OK",
      "vis_m": 9999,
      "fzfg": false,
      "metar_trigger": false,
      "taf_trigger": false,
      "metar": "METAR LIME 141350Z 19005KT 160V250 9999 SCT015 BKN040 16/12 Q1014 NOSIG",
      "taf": "TAF LIME 141100Z 1412/1512 VRB05KT 6000 BKN015"
    },
    {
      "icao": "LIMF",
      "alert": "OK",
      "vis_m": 9999,
      "fzfg": false,
      "metar_trigger": false,
      "taf_trigger": false,
      "metar": "METAR LIMF 141350Z VRB05KT 9999 SCT035 SCT090 19/10 Q1013",
      "taf": "TAF LIMF 141100Z 1412/1512 VRB06KT 8000 BKN030"
    },
    {
      "icao": "LIMJ",
      "alert": "OK",
      "vis_m": 9999,
      "fzfg": false,
      "metar_trigger": false,
      "taf_trigger": false,
      "metar": "METAR LIMJ 141350Z 03011KT CAVOK 21/09 Q1011",
      "taf": "TAF LIMJ 141100Z 1412/1512 05015KT 9999 SCT060"
    },
    {
      "icao": "LIPE",
      "alert": "OK",
      "vis_m": 6000,
      "fzfg": false,
      "metar_trigger": false,
      "taf_trigger": false,
      "metar": "METAR LIPE 141350Z 03006KT 350V050 6000 SCT012 BKN015 15/13 Q1013",
      "taf": "TAF LIPE 141100Z 1412/1512 VRB05KT 3000 RA BR BKN005 BKN010"
    },
    {
      "icao": "LIPH",
      "alert": "OK",
      "vis_m": 9999,
      "fzfg": false,
      "metar_trigger": false,
      "taf_trigger": false,
      "metar": "METAR LIPH 141350Z 05005KT 9999 BKN030 16/12 Q1014",
      "taf": "TAF LIPH 141100Z 1412/1512 05010KT 8000 BKN040"
    },
    {
      "icao": "LIPQ",
      "alert": "OK",
      "vis_m": 9999,
      "fzfg": false,
      "metar_trigger": false,
      "taf_trigger": false,
      "metar": "METAR LIPQ 141350Z AUTO 01004KT 340V040 9999 OVC055/// 14/12 Q1014",
      "taf": "TAF LIPQ 141100Z 1412/1512 06010KT 9999 BKN050"
    },
    {
      "icao": "LIPR",
      "alert": "OK",
      "vis_m": 9999,
      "fzfg": false,
      "metar_trigger": false,
      "taf_trigger": false,
      "metar": "METAR LIPR 141350Z 35010KT 9999 FEW020 SCT070 16/14 Q1012",
      "taf": "TAF LIPR 141100Z 1412/1512 32010KT 8000 BKN015"
    },
    {
      "icao": "LIPX",
      "alert": "OK",
      "vis_m": 9999,
      "fzfg": false,
      "metar_trigger": false,
      "taf_trigger": false,
      "metar": "METAR LIPX 141350Z 10006KT 050V140 9999 -DZ SCT015 BKN050 14/12 Q1014",
      "taf": "TAF LIPX 141100Z 1412/1512 VRB05KT 9999 BKN040"
    },
    {
      "icao": "LIPY",
      "alert": "OK",
      "vis_m": 9999,
      "fzfg": false,
      "metar_trigger": false,
      "taf_trigger": false,
      "metar": "METAR LIPY 141350Z AUTO 33010KT 9999 BKN028/// 16/14 Q1011",
      "taf": "TAF LIPY 141100Z 1412/1512 34010KT 7000 BKN015"
    },
    {
      "icao": "LIPZ",
      "alert": "OK",
      "vis_m": 9999,
      "fzfg": false,
      "metar_trigger": false,
      "taf_trigger": false,
      "metar": "METAR LIPZ 141350Z 06009KT 9999 BKN030 15/12 Q1014 NOSIG",
      "taf": "TAF LIPZ 141100Z 1412/1518 05012KT 9999 BKN030"
    },
    {
      "icao": "LIRF",
      "alert": "OK",
      "vis_m": 9999,
      "fzfg": false,
      "metar_trigger": false,
      "taf_trigger": false,
      "metar": "METAR LIRF 141350Z 17009KT 9999 FEW020 19/14 Q1010 NOSIG",
      "taf": ""
    },
    {
      "icao": "LIRN",
      "alert": "OK",
      "vis_m": 9999,
      "fzfg": false,
      "metar_trigger": false,
      "taf_trigger": false,
      "metar": "METAR LIRN 141350Z 20006KT 130V280 9999 FEW050 21/12 Q1010 NOSIG",
      "taf": "TAF LIRN 141100Z 1412/1512 18010KT 9999 BKN040"
    },
    {
      "icao": "LIRP",
      "alert": "OK",
      "vis_m": 9999,
      "fzfg": false,
      "metar_trigger": false,
      "taf_trigger": false,
      "metar": "METAR LIRP 141345Z 09010KT 9999 -RA FEW025 SCT030 18/12 Q1011 NOSIG",
      "taf": "TAF LIRP 141100Z 1412/1512 09008KT 9999 SCT030 BKN080"
    },
    {
      "icao": "LIRZ",
      "alert": "OK",
      "vis_m": 9999,
      "fzfg": false,
      "metar_trigger": false,
      "taf_trigger": false,
      "metar": "METAR LIRZ 141350Z AUTO 32004KT 260V340 9999 FEW029/// SCT100/// 19/13 Q1010",
      "taf": "TAF LIRZ 141100Z 1412/1512 VRB06KT 9999 BKN030"
    },
    {
      "icao": "LJLJ",
      "alert": "OK",
      "vis_m": 9999,
      "fzfg": false,
      "metar_trigger": false,
      "taf_trigger": false,
      "metar": "METAR LJLJ 141400Z VRB02KT 9999 FEW017 SCT038 OVC053 14/07 Q1016 NOSIG",
      "taf": "TAF LJLJ 141100Z 1412/1512 12003KT 9999 FEW010 OVC045"
    },
    {
      "icao": "LKMT",
      "alert": "OK",
      "vis_m": 9999,
      "fzfg": false,
      "metar_trigger": false,
      "taf_trigger": false,
      "metar": "METAR LKMT 141400Z 28003KT CAVOK 16/03 Q1018 NOSIG",
      "taf": "TAF LKMT 141100Z 1412/1512 02008KT 9999 BKN025"
    },
    {
      "icao": "LKPR",
      "alert": "OK",
      "vis_m": 9999,
      "fzfg": false,
      "metar_trigger": false,
      "taf_trigger": false,
      "metar": "METAR LKPR 141400Z 32012KT CAVOK 15/07 Q1017 NOSIG",
      "taf": "TAF LKPR 141400Z 1415/1521 33008KT CAVOK"
    },
    {
      "icao": "LLBG",
      "alert": "OK",
      "vis_m": 9999,
      "fzfg": false,
      "metar_trigger": false,
      "taf_trigger": false,
      "metar": "METAR LLBG 141420Z 09006KT 060V120 CAVOK 30/05 Q1015 NOSIG",
      "taf": "TAF LLBG 141101Z 1412/1512 32010KT CAVOK TX28/1412Z TN12/1504Z"
    },
    {
      "icao": "LMML",
      "alert": "OK",
      "vis_m": 7000,
      "fzfg": false,
      "metar_trigger": false,
      "taf_trigger": false,
      "metar": "METAR LMML 141415Z 06016KT 7000 FEW009 20/15 Q1007 NOSIG",
      "taf": ""
    },
    {
      "icao": "LOWW",
      "alert": "OK",
      "vis_m": 9999,
      "fzfg": false,
      "metar_trigger": false,
      "taf_trigger": false,
      "metar": "METAR LOWW 141350Z 09006KT CAVOK 13/06 Q1018 NOSIG",
      "taf": "TAF LOWW 141415Z 1415/1521 VRB04KT 9999 SCT040 TX18/1514Z TN11/1500Z"
    },
    {
      "icao": "LPFR",
      "alert": "OK",
      "vis_m": 9999,
      "fzfg": false,
      "metar_trigger": false,
      "taf_trigger": false,
      "metar": "METAR LPFR 141400Z 25009KT 9999 FEW030 SCT040 17/14 Q1022",
      "taf": "TAF LPFR 141100Z 1412/1512 33008KT 9999 FEW015"
    },
    {
      "icao": "LPMA",
      "alert": "OK",
      "vis_m": 9999,
      "fzfg": false,
      "metar_trigger": false,
      "taf_trigger": false,
      "metar": "METAR LPMA 141400Z 04010KT 010V080 9999 SCT023 17/11 Q1024",
      "taf": "TAF LPMA 141100Z 1412/1512 03013KT 9999 SCT015 BKN030"
    },
    {
      "icao": "LPPR",
      "alert": "OK",
      "vis_m": 9999,
      "fzfg": false,
      "metar_trigger": false,
      "taf_trigger": false,
      "metar": "METAR LPPR 141400Z 23006KT 190V270 9999 BKN010 17/14 Q1023",
      "taf": "TAF LPPR 141100Z 1412/1512 26007KT 9999 SCT008 BKN016"
    },
    {
      "icao": "LPPS",
      "alert": "OK",
      "vis_m": 9999,
      "fzfg": false,
      "metar_trigger": false,
      "taf_trigger": false,
      "metar": "METAR LPPS 141400Z 07008KT 350V120 9999 FEW015 BKN030 17/10 Q1025",
      "taf": "TAF LPPS 141100Z 1412/1518 04013KT 9999 FEW015 BKN030"
    },
    {
      "icao": "LPPT",
      "alert": "OK",
      "vis_m": 9999,
      "fzfg": false,
      "metar_trigger": false,
      "taf_trigger": false,
      "metar": "METAR LPPT 141400Z 32005KT 270V030 9999 FEW020 BKN042 17/13 Q1023",
      "taf": "TAF LPPT 141100Z 1412/1518 VRB05KT 9999 FEW015 BKN030"
    },
    {
      "icao": "LQBK",
      "alert": "OK",
      "vis_m": 9999,
      "fzfg": false,
      "metar_trigger": false,
      "taf_trigger": false,
      "metar": "METAR LQBK 141400Z 35010KT 9999 SCT023 17/12 Q1015 NOSIG",
      "taf": "TAF LQBK 141100Z 1412/1512 32005KT 9999 SCT040 TX18/1413Z TN10/1504Z"
    },
    {
      "icao": "LQSA",
      "alert": "OK",
      "vis_m": 9999,
      "fzfg": false,
      "metar_trigger": false,
      "taf_trigger": false,
      "metar": "METAR LQSA 141400Z 20007KT 170V240 9999 BKN065 19/07 Q1014 NOSIG",
      "taf": "TAF LQSA 141100Z 1412/1512 33006KT 9999 BKN055 TX18/1413Z TN08/1504Z"
    },
    {
      "icao": "LQTZ",
      "alert": "OK",
      "vis_m": 9999,
      "fzfg": false,
      "metar_trigger": false,
      "taf_trigger": false,
      "metar": "METAR LQTZ 141400Z 15004KT 120V180 9999 -RA FEW025 BKN045 16/13 Q1014",
      "taf": "TAF LQTZ 141100Z 1412/1512 15005KT 9999 BKN050 TX17/1413Z TN09/1504Z"
    },
    {
      "icao": "LRBC",
      "alert": "OK",
      "vis_m": 9999,
      "fzfg": false,
      "metar_trigger": false,
      "taf_trigger": false,
      "metar": "METAR LRBC 141400Z 15014KT CAVOK 14/01 Q1022",
      "taf": "TAF LRBC 141100Z 1412/1421 15014KT CAVOK"
    },
    {
      "icao": "LRBS",
      "alert": "OK",
      "vis_m": 9999,
      "fzfg": false,
      "metar_trigger": false,
      "taf_trigger": false,
      "metar": "METAR LRBS 141400Z 07013KT CAVOK 17/05 Q1021 NOSIG",
      "taf": "TAF LRBS 141100Z 1412/1512 09012KT CAVOK"
    },
    {
      "icao": "LRBV",
      "alert": "OK",
      "vis_m": 9999,
      "fzfg": false,
      "metar_trigger": false,
      "taf_trigger": false,
      "metar": "METAR LRBV 141400Z 15003KT 050V190 CAVOK 16/M00 Q1019",
      "taf": "TAF LRBV 141100Z 1412/1421 20012KT CAVOK"
    },
    {
      "icao": "LRCL",
      "alert": "OK",
      "vis_m": 9999,
      "fzfg": false,
      "metar_trigger": false,
      "taf_trigger": false,
      "metar": "METAR LRCL 141400Z 16009KT 130V190 CAVOK 18/04 Q1018",
      "taf": "TAF LRCL 141100Z 1412/1421 14010KT CAVOK"
    },
    {
      "icao": "LRCV",
      "alert": "OK",
      "vis_m": 9999,
      "fzfg": false,
      "metar_trigger": false,
      "taf_trigger": false,
      "metar": "METAR LRCV 141400Z 09014KT CAVOK 15/07 Q1021",
      "taf": "TAF LRCV 141100Z 1412/1421 09015KT CAVOK"
    },
    {
      "icao": "LRIA",
      "alert": "OK",
      "vis_m": 9999,
      "fzfg": false,
      "metar_trigger": false,
      "taf_trigger": false,
      "metar": "METAR LRIA 141400Z 15008KT 110V190 CAVOK 16/M01 Q1023",
      "taf": "TAF LRIA 141100Z 1412/1421 11012KT CAVOK"
    },
    {
      "icao": "LROP",
      "alert": "OK",
      "vis_m": 9999,
      "fzfg": false,
      "metar_trigger": false,
      "taf_trigger": false,
      "metar": "METAR LROP 141400Z 09011KT CAVOK 16/00 Q1022 NOSIG",
      "taf": "TAF LROP 141100Z 1412/1512 09012KT CAVOK"
    },
    {
      "icao": "LRSB",
      "alert": "OK",
      "vis_m": 9999,
      "fzfg": false,
      "metar_trigger": false,
      "taf_trigger": false,
      "metar": "METAR LRSB 141400Z 13014KT CAVOK 18/01 Q1018",
      "taf": "TAF LRSB 141100Z 1412/1512 14014KT CAVOK"
    },
    {
      "icao": "LRSM",
      "alert": "OK",
      "vis_m": 9999,
      "fzfg": false,
      "metar_trigger": false,
      "taf_trigger": false,
      "metar": "METAR LRSM 141400Z 12004KT 080V170 CAVOK 20/02 Q1018",
      "taf": "TAF LRSM 141100Z 1412/1421 11008KT CAVOK"
    },
    {
      "icao": "LRSV",
      "alert": "OK",
      "vis_m": 9999,
      "fzfg": false,
      "metar_trigger": false,
      "taf_trigger": false,
      "metar": "METAR LRSV 141400Z 13015KT CAVOK 14/01 Q1021",
      "taf": "TAF LRSV 141100Z 1412/1421 14016KT CAVOK"
    },
    {
      "icao": "LRTM",
      "alert": "OK",
      "vis_m": 9999,
      "fzfg": false,
      "metar_trigger": false,
      "taf_trigger": false,
      "metar": "METAR LRTM 141400Z 08006KT 020V100 CAVOK 19/04 Q1018",
      "taf": "TAF LRTM 141100Z 1412/1421 11007KT CAVOK"
    },
    {
      "icao": "LRTR",
      "alert": "OK",
      "vis_m": 9999,
      "fzfg": false,
      "metar_trigger": false,
      "taf_trigger": false,
      "metar": "METAR LRTR 141400Z 21007KT CAVOK 19/05 Q1017",
      "taf": "TAF LRTR 141100Z 1412/1512 19010KT CAVOK"
    },
    {
      "icao": "LTAC",
      "alert": "OK",
      "vis_m": 9999,
      "fzfg": false,
      "metar_trigger": false,
      "taf_trigger": false,
      "metar": "METAR LTAC 141350Z 29007KT 240V310 9999 FEW040 SCT120 BKN200 17/M01 Q1020 NOSIG RMK RWY21C 26008KT 230V290 RWY03L 27007KT 220V340 RWY21R 24008KT 170V270 RWY03R VRB04KT RWY21L 27008KT 210V310",
      "taf": "TAF LTAC 141040Z 1412/1512 VRB02KT 9999 FEW040 BKN180"
    },
    {
      "icao": "LTFM",
      "alert": "OK",
      "vis_m": 9999,
      "fzfg": false,
      "metar_trigger": false,
      "taf_trigger": false,
      "metar": "METAR LTFM 141350Z 08015KT CAVOK 11/06 Q1022 NOSIG RMK RWY17L 08016KT RWY34L 07015KT RWY16R 08016KT RWY36 07015KT RWY18 09013KT",
      "taf": "TAF LTFM 141040Z 1412/1518 07018KT CAVOK"
    },
    {
      "icao": "LUKK",
      "alert": "OK",
      "vis_m": 9999,
      "fzfg": false,
      "metar_trigger": false,
      "taf_trigger": false,
      "metar": "METAR LUKK 141400Z 14004KT 070V220 CAVOK 15/01 Q1023 NOSIG",
      "taf": "TAF LUKK 141101Z 1412/1512 VRB06KT CAVOK"
    },
    {
      "icao": "LWOH",
      "alert": "OK",
      "vis_m": 9999,
      "fzfg": false,
      "metar_trigger": false,
      "taf_trigger": false,
      "metar": "METAR LWOH 141420Z 17006KT 9999 FEW035 SCT090 16/08 Q1017",
      "taf": "TAF LWOH 141420Z 1415/1515 19008KT 9999 FEW040 SCT090"
    },
    {
      "icao": "LWSK",
      "alert": "OK",
      "vis_m": 9999,
      "fzfg": false,
      "metar_trigger": false,
      "taf_trigger": false,
      "metar": "METAR LWSK 141420Z 14011KT 100V160 9999 SCT060 21/08 Q1017 NOSIG",
      "taf": "TAF LWSK 141420Z 1415/1515 16012KT 9999 SCT060"
    },
    {
      "icao": "LYBE",
      "alert": "OK",
      "vis_m": 9999,
      "fzfg": false,
      "metar_trigger": false,
      "taf_trigger": false,
      "metar": "METAR LYBE 141400Z 10009KT 9999 -RA FEW033 15/08 Q1016 NOSIG",
      "taf": "TAF LYBE 141100Z 1412/1512 13015KT CAVOK TX20/1512Z TN11/1504Z"
    },
    {
      "icao": "LYNI",
      "alert": "OK",
      "vis_m": 9999,
      "fzfg": false,
      "metar_trigger": false,
      "taf_trigger": false,
      "metar": "METAR LYNI 141400Z 05009KT 020V080 9999 FEW050 18/06 Q1016 NOSIG",
      "taf": "TAF LYNI 141100Z 1412/1512 08007KT 9999 SCT060 TX21/1414Z TN08/1504Z"
    },
    {
      "icao": "LYPG",
      "alert": "OK",
      "vis_m": 9999,
      "fzfg": false,
      "metar_trigger": false,
      "taf_trigger": false,
      "metar": "METAR LYPG 141400Z 24009KT 200V280 9999 SCT050 24/07 Q1014 NOSIG",
      "taf": "TAF LYPG 141100Z 1412/1512 34010KT 9999 SCT040 BKN090 TX23/1413Z TN11/1504Z"
    },
    {
      "icao": "LZIB",
      "alert": "OK",
      "vis_m": 9999,
      "fzfg": false,
      "metar_trigger": false,
      "taf_trigger": false,
      "metar": "METAR LZIB 141400Z 05004KT 9999 -RA FEW033 13/07 Q1018 NOSIG",
      "taf": "TAF LZIB 141115Z 1412/1512 07007KT CAVOK"
    },
    {
      "icao": "LZKZ",
      "alert": "OK",
      "vis_m": 9999,
      "fzfg": false,
      "metar_trigger": false,
      "taf_trigger": false,
      "metar": "METAR LZKZ 141400Z 10006KT 070V150 CAVOK 19/04 Q1018 NOSIG",
      "taf": "TAF LZKZ 141115Z 1412/1512 12006KT CAVOK"
    },
    {
      "icao": "LZTT",
      "alert": "OK",
      "vis_m": 9999,
      "fzfg": false,
      "metar_trigger": false,
      "taf_trigger": false,
      "metar": "METAR LZTT 141400Z VRB05KT 9999 SCT060 SCT080 16/04 Q1018 NOSIG",
      "taf": "TAF LZTT 141115Z 1412/1512 24007KT 9999 SCT040"
    },
    {
      "icao": "OEJN",
      "alert": "OK",
      "vis_m": 9999,
      "fzfg": false,
      "metar_trigger": false,
      "taf_trigger": false,
      "metar": "METAR OEJN 141300Z 27009KT 9999 FEW040 30/16 Q1008 NOSIG",
      "taf": "TAF OEJN 141100Z 1412/1518 30014KT 7000 SCT040"
    },
    {
      "icao": "OEMA",
      "alert": "OK",
      "vis_m": 9999,
      "fzfg": false,
      "metar_trigger": false,
      "taf_trigger": false,
      "metar": "METAR OEMA 141300Z 12019KT 9999 TS FEW035CB BKN040 28/15 Q1013 NOSIG",
      "taf": "TAF OEMA 141100Z 1412/1518 12015KT 7000 SCT040"
    },
    {
      "icao": "OJAI",
      "alert": "OK",
      "vis_m": null,
      "fzfg": false,
      "metar_trigger": false,
      "taf_trigger": false,
      "metar": "",
      "taf": "TAF OJAI 141100Z 1412/1518 15010KT 5000 HZ NSC"
    },
    {
      "icao": "OMAA",
      "alert": "OK",
      "vis_m": null,
      "fzfg": false,
      "metar_trigger": false,
      "taf_trigger": false,
      "metar": "",
      "taf": ""
    },
    {
      "icao": "OMDB",
      "alert": "OK",
      "vis_m": null,
      "fzfg": false,
      "metar_trigger": false,
      "taf_trigger": false,
      "metar": "",
      "taf": ""
    },
    {
      "icao": "UAAA",
      "alert": "OK",
      "vis_m": 9999,
      "fzfg": false,
      "metar_trigger": false,
      "taf_trigger": false,
      "metar": "METAR UAAA 141400Z 05003MPS 9999 FEW050 SCT200 16/01 Q1017 NOSIG",
      "taf": "TAF UAAA 141102Z 1412/1512 04005MPS 9999 FEW050 SCT100 TX23/1509Z TN06/1501Z"
    },
    {
      "icao": "UBBB",
      "alert": "OK",
      "vis_m": 9999,
      "fzfg": false,
      "metar_trigger": false,
      "taf_trigger": false,
      "metar": "METAR UBBB 141400Z 16010KT 9999 SCT028 12/08 Q1019 NOSIG",
      "taf": "TAF UBBB 141057Z 1412/1512 13006KT 9999 SCT012 BKN030 TX12/1412Z TN09/1501Z"
    },
    {
      "icao": "UDSG",
      "alert": "OK",
      "vis_m": 9999,
      "fzfg": false,
      "metar_trigger": false,
      "taf_trigger": false,
      "metar": "METAR UDSG 141400Z 32009KT 9999 BKN040CB 04/M08 Q1020 NOSIG",
      "taf": "TAF UDSG 141100Z 1412/1512 24006KT 9999 SCT040"
    },
    {
      "icao": "UDYZ",
      "alert": "OK",
      "vis_m": 9999,
      "fzfg": false,
      "metar_trigger": false,
      "taf_trigger": false,
      "metar": "METAR UDYZ 141400Z 35015G25KT 290V060 9999 BKN043CB 08/M02 Q1019 NOSIG",
      "taf": "TAF UDYZ 141100Z 1412/1512 28006KT 9999 SCT040"
    },
    {
      "icao": "UGKO",
      "alert": "OK",
      "vis_m": 9999,
      "fzfg": false,
      "metar_trigger": false,
      "taf_trigger": false,
      "metar": "METAR UGKO 141400Z 28009KT 9999 SCT024 BKN059 10/05 Q1025 NOSIG",
      "taf": "TAF UGKO 141100Z 1412/1512 26007KT 9999 SCT050 TX16/1512Z TN02/1501Z"
    }
  ]
}