{
  "ts_utc": "2026-04-18T16:36:21Z",
  "threshold_m": 150,
  "source": "stations_override.txt (ICAO list) + aviationweather.gov (METAR/TAF raw)",
  "station_count": 159,
  "stations": [
    {
      "icao": "BIKF",
      "alert": "OK",
      "vis_m": 9999,
      "fzfg": false,
      "metar_trigger": false,
      "taf_trigger": false,
      "metar": "METAR BIKF 181630Z 08005KT 020V110 9999 FEW028 BKN230 06/M02 Q1015",
      "taf": "TAF BIKF 181619Z 1818/1918 14006KT 9999 SCT035 TX08/1915Z TN00/1903Z"
    },
    {
      "icao": "BKPR",
      "alert": "OK",
      "vis_m": 9999,
      "fzfg": false,
      "metar_trigger": false,
      "taf_trigger": false,
      "metar": "METAR BKPR 181630Z 02011KT 9999 FEW045 17/02 Q1015 NOSIG",
      "taf": "TAF BKPR 181130Z 1812/1912 01008KT 9999 FEW050"
    },
    {
      "icao": "EBCI",
      "alert": "OK",
      "vis_m": 9999,
      "fzfg": false,
      "metar_trigger": false,
      "taf_trigger": false,
      "metar": "METAR EBCI 181620Z 35004KT 310V020 9999 SCT013 14/11 Q1021 NOSIG",
      "taf": "TAF EBCI 181115Z 1812/1918 31007KT 9999 SCT012 BKN035"
    },
    {
      "icao": "EDDB",
      "alert": "OK",
      "vis_m": 9999,
      "fzfg": false,
      "metar_trigger": false,
      "taf_trigger": false,
      "metar": "METAR EDDB 181620Z AUTO 27004KT CAVOK 20/07 Q1018 NOSIG",
      "taf": "TAF EDDB 181100Z 1812/1912 11004KT CAVOK"
    },
    {
      "icao": "EDDH",
      "alert": "OK",
      "vis_m": 9999,
      "fzfg": false,
      "metar_trigger": false,
      "taf_trigger": false,
      "metar": "METAR EDDH 181620Z AUTO 32006KT 280V350 CAVOK 16/10 Q1019 NOSIG",
      "taf": "TAF EDDH 181100Z 1812/1918 28006KT CAVOK"
    },
    {
      "icao": "EDDK",
      "alert": "OK",
      "vis_m": 9999,
      "fzfg": false,
      "metar_trigger": false,
      "taf_trigger": false,
      "metar": "METAR EDDK 181620Z AUTO 35004KT 9999 -SHRA BKN048 FEW///TCU 17/11 Q1020 TEMPO SHRA",
      "taf": "TAF EDDK 181100Z 1812/1918 30007KT CAVOK"
    },
    {
      "icao": "EDDN",
      "alert": "OK",
      "vis_m": 9999,
      "fzfg": false,
      "metar_trigger": false,
      "taf_trigger": false,
      "metar": "METAR EDDN 181620Z AUTO 27003KT 230V300 CAVOK 21/07 Q1018 NOSIG",
      "taf": "TAF EDDN 181100Z 1812/1912 28004KT CAVOK"
    },
    {
      "icao": "EDDS",
      "alert": "OK",
      "vis_m": 9999,
      "fzfg": false,
      "metar_trigger": false,
      "taf_trigger": false,
      "metar": "METAR EDDS 181620Z AUTO 32009KT CAVOK 20/08 Q1018 NOSIG",
      "taf": "TAF EDDS 181100Z 1812/1912 VRB03KT CAVOK"
    },
    {
      "icao": "EDFH",
      "alert": "OK",
      "vis_m": 9999,
      "fzfg": false,
      "metar_trigger": false,
      "taf_trigger": false,
      "metar": "METAR EDFH 181620Z 32008KT 290V350 CAVOK 17/07 Q1020",
      "taf": ""
    },
    {
      "icao": "EDJA",
      "alert": "OK",
      "vis_m": 9999,
      "fzfg": false,
      "metar_trigger": false,
      "taf_trigger": false,
      "metar": "METAR EDJA 181620Z 31004KT 290V360 CAVOK 20/02 Q1019",
      "taf": "TAF EDJA 181400Z 1815/1824 24006KT CAVOK"
    },
    {
      "icao": "EDLW",
      "alert": "OK",
      "vis_m": 9999,
      "fzfg": false,
      "metar_trigger": false,
      "taf_trigger": false,
      "metar": "METAR EDLW 181620Z VRB02KT CAVOK 14/12 Q1020",
      "taf": "TAF EDLW 181100Z 1812/1912 28006KT CAVOK"
    },
    {
      "icao": "EDNY",
      "alert": "OK",
      "vis_m": 9999,
      "fzfg": false,
      "metar_trigger": false,
      "taf_trigger": false,
      "metar": "METAR EDNY 181620Z 21004KT 170V250 CAVOK 20/05 Q1018",
      "taf": "TAF EDNY 181400Z 1815/1824 23005KT CAVOK"
    },
    {
      "icao": "EDSB",
      "alert": "OK",
      "vis_m": 9999,
      "fzfg": false,
      "metar_trigger": false,
      "taf_trigger": false,
      "metar": "METAR EDSB 181620Z 21005KT CAVOK 23/09 Q1018",
      "taf": "TAF EDSB 181100Z 1812/1912 VRB03KT CAVOK"
    },
    {
      "icao": "EETN",
      "alert": "OK",
      "vis_m": 9999,
      "fzfg": false,
      "metar_trigger": false,
      "taf_trigger": false,
      "metar": "METAR EETN 181620Z 08009KT CAVOK 10/M03 Q1022 NOSIG",
      "taf": "TAF EETN 181130Z 1812/1912 07012KT CAVOK"
    },
    {
      "icao": "EFTU",
      "alert": "OK",
      "vis_m": 9999,
      "fzfg": false,
      "metar_trigger": false,
      "taf_trigger": false,
      "metar": "METAR EFTU 181620Z AUTO 22011KT CAVOK 10/M03 Q1022",
      "taf": "TAF EFTU 181430Z 1815/1915 23012KT CAVOK"
    },
    {
      "icao": "EGBB",
      "alert": "OK",
      "vis_m": 9999,
      "fzfg": false,
      "metar_trigger": false,
      "taf_trigger": false,
      "metar": "METAR EGBB 181620Z 30008KT 9999 BKN045 11/06 Q1023",
      "taf": "TAF EGBB 181104Z 1812/1912 28009KT 9999 SCT035"
    },
    {
      "icao": "EGGP",
      "alert": "OK",
      "vis_m": 9999,
      "fzfg": false,
      "metar_trigger": false,
      "taf_trigger": false,
      "metar": "METAR EGGP 181620Z 29015KT 9999 SCT027 12/05 Q1023",
      "taf": "TAF EGGP 181058Z 1812/1912 27015KT 9999 SCT030"
    },
    {
      "icao": "EGGW",
      "alert": "OK",
      "vis_m": 9999,
      "fzfg": false,
      "metar_trigger": false,
      "taf_trigger": false,
      "metar": "METAR EGGW 181620Z AUTO 32012KT 9999 NCD 15/02 Q1021",
      "taf": "TAF EGGW 181052Z 1812/1912 30009KT 9999 SCT035"
    },
    {
      "icao": "EGKK",
      "alert": "OK",
      "vis_m": 9999,
      "fzfg": false,
      "metar_trigger": false,
      "taf_trigger": false,
      "metar": "METAR EGKK 181620Z 31010KT CAVOK 16/04 Q1021",
      "taf": "TAF EGKK 181055Z 1812/1918 29007KT 9999 FEW025"
    },
    {
      "icao": "EGNM",
      "alert": "OK",
      "vis_m": 9999,
      "fzfg": false,
      "metar_trigger": false,
      "taf_trigger": false,
      "metar": "METAR EGNM 181620Z 27017KT 9999 SCT031 12/04 Q1021",
      "taf": "TAF EGNM 181058Z 1812/1912 26012KT 9999 SCT025"
    },
    {
      "icao": "EGPD",
      "alert": "OK",
      "vis_m": 9999,
      "fzfg": false,
      "metar_trigger": false,
      "taf_trigger": false,
      "metar": "METAR EGPD 181620Z 30011KT 9999 -RA SCT031 BKN040 10/07 Q1017 TEMPO SHRA",
      "taf": "TAF EGPD 181058Z 1812/1912 28012KT 9999 SCT030"
    },
    {
      "icao": "EGPF",
      "alert": "OK",
      "vis_m": 9999,
      "fzfg": false,
      "metar_trigger": false,
      "taf_trigger": false,
      "metar": "METAR EGPF 181620Z AUTO 27017KT 9999 FEW041 12/03 Q1021",
      "taf": "TAF EGPF 181055Z 1812/1912 27012KT 9999 SCT030"
    },
    {
      "icao": "EHBK",
      "alert": "OK",
      "vis_m": 9999,
      "fzfg": false,
      "metar_trigger": false,
      "taf_trigger": false,
      "metar": "METAR EHBK 181625Z AUTO 31003KT 260V340 9999 NSC 14/12 Q1020 NOSIG",
      "taf": "TAF EHBK 181115Z 1812/1918 28007KT 9999 FEW020"
    },
    {
      "icao": "EHEH",
      "alert": "OK",
      "vis_m": 9999,
      "fzfg": false,
      "metar_trigger": false,
      "taf_trigger": false,
      "metar": "METAR EHEH 181625Z AUTO 28002KT 9999 FEW015CB OVC016 13/11 Q1020 WHT BECMG BKN025",
      "taf": ""
    },
    {
      "icao": "EKBI",
      "alert": "OK",
      "vis_m": 9999,
      "fzfg": false,
      "metar_trigger": false,
      "taf_trigger": false,
      "metar": "METAR EKBI 181620Z 23007KT 9999 SCT009 BKN061 12/10 Q1018",
      "taf": "TAF EKBI 181427Z 1815/1915 28007KT 9999 BKN015"
    },
    {
      "icao": "EKCH",
      "alert": "OK",
      "vis_m": 9999,
      "fzfg": false,
      "metar_trigger": false,
      "taf_trigger": false,
      "metar": "METAR EKCH 181620Z AUTO 14007KT 9999 -RA OVC062/// 10/03 Q1020 NOSIG",
      "taf": "TAF EKCH 181427Z 1815/1915 14008KT CAVOK"
    },
    {
      "icao": "ENAL",
      "alert": "OK",
      "vis_m": 9999,
      "fzfg": false,
      "metar_trigger": false,
      "taf_trigger": false,
      "metar": "METAR ENAL 181620Z 06010KT 9999 SCT059 12/06 Q1014",
      "taf": "TAF ENAL 181400Z 1815/1824 34010KT 9999 SCT050"
    },
    {
      "icao": "ENBR",
      "alert": "OK",
      "vis_m": 9999,
      "fzfg": false,
      "metar_trigger": false,
      "taf_trigger": false,
      "metar": "METAR ENBR 181620Z 18010KT 150V210 9999 BKN020 11/07 Q1015 NOSIG RMK WIND 1200FT 17016KT",
      "taf": "TAF ENBR 181100Z 1812/1912 18012KT 9999 FEW010 BKN020"
    },
    {
      "icao": "ENGM",
      "alert": "OK",
      "vis_m": 9999,
      "fzfg": false,
      "metar_trigger": false,
      "taf_trigger": false,
      "metar": "METAR ENGM 181620Z 26004KT 190V310 CAVOK 13/03 Q1018 NOSIG",
      "taf": "TAF ENGM 181100Z 1812/1912 13005KT 9999 BKN045"
    },
    {
      "icao": "ENHD",
      "alert": "OK",
      "vis_m": 9999,
      "fzfg": false,
      "metar_trigger": false,
      "taf_trigger": false,
      "metar": "METAR ENHD 181620Z 19009KT 140V210 9999 FEW040 11/07 Q1015",
      "taf": "TAF ENHD 181400Z 1815/1822 18012KT 9999 FEW010 BKN015"
    },
    {
      "icao": "ENTC",
      "alert": "OK",
      "vis_m": 9999,
      "fzfg": false,
      "metar_trigger": false,
      "taf_trigger": false,
      "metar": "METAR ENTC 181620Z 19013KT CAVOK 10/M01 Q1023 BECMG 27015KT RMK WIND 2600FT 17020KT",
      "taf": "TAF ENTC 181100Z 1812/1912 26005KT CAVOK"
    },
    {
      "icao": "ENTO",
      "alert": "OK",
      "vis_m": 3700,
      "fzfg": false,
      "metar_trigger": false,
      "taf_trigger": false,
      "metar": "METAR ENTO 181620Z 00000KT 3700 BR -RA FEW003 BKN038 BKN048 08/08 Q1019 TEMPO 6000",
      "taf": "TAF ENTO 181100Z 1812/1912 09005KT 7000 -RA FEW005 BKN035"
    },
    {
      "icao": "ENVA",
      "alert": "OK",
      "vis_m": 9999,
      "fzfg": false,
      "metar_trigger": false,
      "taf_trigger": false,
      "metar": "METAR ENVA 181620Z 16013KT CAVOK 15/02 Q1016 RMK WIND 670FT 17019G30KT",
      "taf": "TAF ENVA 181100Z 1812/1912 14008KT CAVOK"
    },
    {
      "icao": "ENZV",
      "alert": "OK",
      "vis_m": 9999,
      "fzfg": false,
      "metar_trigger": false,
      "taf_trigger": false,
      "metar": "METAR ENZV 181620Z 17012KT 9999 SCT011 BKN049 11/08 Q1016 NOSIG",
      "taf": ""
    },
    {
      "icao": "EPGD",
      "alert": "OK",
      "vis_m": 9999,
      "fzfg": false,
      "metar_trigger": false,
      "taf_trigger": false,
      "metar": "METAR EPGD 181630Z 05007KT CAVOK 11/M02 Q1020",
      "taf": "TAF EPGD 181130Z 1812/1912 06010KT CAVOK"
    },
    {
      "icao": "EPKK",
      "alert": "OK",
      "vis_m": 9999,
      "fzfg": false,
      "metar_trigger": false,
      "taf_trigger": false,
      "metar": "METAR EPKK 181630Z 07007KT 9999 FEW064 16/04 Q1018",
      "taf": "TAF EPKK 181430Z 1815/1915 VRB04KT CAVOK"
    },
    {
      "icao": "EPKT",
      "alert": "OK",
      "vis_m": 9999,
      "fzfg": false,
      "metar_trigger": false,
      "taf_trigger": false,
      "metar": "METAR EPKT 181630Z 36005KT CAVOK 16/03 Q1018",
      "taf": "TAF EPKT 181130Z 1812/1912 36010KT CAVOK"
    },
    {
      "icao": "EPLB",
      "alert": "OK",
      "vis_m": 9999,
      "fzfg": false,
      "metar_trigger": false,
      "taf_trigger": false,
      "metar": "METAR EPLB 181630Z 34005KT 320V020 CAVOK 15/01 Q1018",
      "taf": "TAF EPLB 181130Z 1812/1912 33010KT 9999 SCT045"
    },
    {
      "icao": "EPMO",
      "alert": "OK",
      "vis_m": 9999,
      "fzfg": false,
      "metar_trigger": false,
      "taf_trigger": false,
      "metar": "METAR EPMO 181630Z 01005KT CAVOK 16/00 Q1018",
      "taf": "TAF EPMO 181130Z 1812/1912 35010KT 9999 SCT045"
    },
    {
      "icao": "EPPO",
      "alert": "OK",
      "vis_m": 9999,
      "fzfg": false,
      "metar_trigger": false,
      "taf_trigger": false,
      "metar": "METAR EPPO 181630Z 36003KT 310V030 CAVOK 18/02 Q1019",
      "taf": "TAF EPPO 181130Z 1812/1912 VRB02KT CAVOK"
    },
    {
      "icao": "EPRA",
      "alert": "OK",
      "vis_m": 9999,
      "fzfg": false,
      "metar_trigger": false,
      "taf_trigger": false,
      "metar": "METAR EPRA 181630Z 35005KT 310V020 CAVOK 16/01 Q1018",
      "taf": "TAF EPRA 181430Z 1815/1824 35010KT CAVOK"
    },
    {
      "icao": "EPRZ",
      "alert": "OK",
      "vis_m": 9999,
      "fzfg": false,
      "metar_trigger": false,
      "taf_trigger": false,
      "metar": "METAR EPRZ 181630Z 35008KT CAVOK 16/03 Q1018",
      "taf": "TAF EPRZ 181130Z 1812/1912 33010KT CAVOK"
    },
    {
      "icao": "EPSC",
      "alert": "OK",
      "vis_m": 9999,
      "fzfg": false,
      "metar_trigger": false,
      "taf_trigger": false,
      "metar": "METAR EPSC 181630Z 14005KT CAVOK 18/02 Q1018",
      "taf": "TAF EPSC 181130Z 1812/1912 VRB03KT CAVOK"
    },
    {
      "icao": "EPSY",
      "alert": "OK",
      "vis_m": 9999,
      "fzfg": false,
      "metar_trigger": false,
      "taf_trigger": false,
      "metar": "METAR EPSY 181630Z 35007KT 320V030 CAVOK 16/M01 Q1019",
      "taf": "TAF EPSY 181430Z 1815/1824 01012KT CAVOK"
    },
    {
      "icao": "EPWA",
      "alert": "OK",
      "vis_m": 9999,
      "fzfg": false,
      "metar_trigger": false,
      "taf_trigger": false,
      "metar": "METAR EPWA 181630Z 36008KT CAVOK 17/M01 Q1018 NOSIG",
      "taf": "TAF EPWA 181430Z 1815/1915 33010KT 9999 SCT045"
    },
    {
      "icao": "EPWR",
      "alert": "OK",
      "vis_m": 9999,
      "fzfg": false,
      "metar_trigger": false,
      "taf_trigger": false,
      "metar": "METAR EPWR 181630Z 30004KT 260V010 CAVOK 19/01 Q1018",
      "taf": "TAF EPWR 181430Z 1815/1915 VRB02KT CAVOK"
    },
    {
      "icao": "ESGG",
      "alert": "OK",
      "vis_m": 9999,
      "fzfg": false,
      "metar_trigger": false,
      "taf_trigger": false,
      "metar": "METAR ESGG 181620Z 22008KT 9999 FEW046 10/02 Q1019",
      "taf": "TAF ESGG 181430Z 1815/1915 22007KT 9999 BKN045"
    },
    {
      "icao": "ESKN",
      "alert": "OK",
      "vis_m": 9999,
      "fzfg": false,
      "metar_trigger": false,
      "taf_trigger": false,
      "metar": "METAR ESKN 181620Z 13007KT CAVOK 13/M01 Q1020",
      "taf": "TAF ESKN 181430Z 1815/1915 15008KT CAVOK"
    },
    {
      "icao": "ESMS",
      "alert": "OK",
      "vis_m": 9999,
      "fzfg": false,
      "metar_trigger": false,
      "taf_trigger": false,
      "metar": "METAR ESMS 181620Z 16008KT CAVOK 10/04 Q1019",
      "taf": "TAF ESMS 181427Z 1815/1915 15010KT CAVOK"
    },
    {
      "icao": "ESSA",
      "alert": "OK",
      "vis_m": 9999,
      "fzfg": false,
      "metar_trigger": false,
      "taf_trigger": false,
      "metar": "METAR ESSA 181620Z 12010KT CAVOK 12/M02 Q1021 NOSIG",
      "taf": "TAF ESSA 181430Z 1815/1915 13010KT CAVOK"
    },
    {
      "icao": "EYKA",
      "alert": "OK",
      "vis_m": 9999,
      "fzfg": false,
      "metar_trigger": false,
      "taf_trigger": false,
      "metar": "METAR EYKA 181620Z 35007KT CAVOK 14/M01 Q1018",
      "taf": "TAF EYKA 181102Z 1812/1912 VRB03KT 8000 NSC"
    },
    {
      "icao": "EYPA",
      "alert": "OK",
      "vis_m": 9999,
      "fzfg": false,
      "metar_trigger": false,
      "taf_trigger": false,
      "metar": "METAR EYPA 181620Z VRB05KT CAVOK 07/03 Q1020",
      "taf": "TAF EYPA 181102Z 1812/1912 VRB03KT 6000 NSC"
    },
    {
      "icao": "EYVI",
      "alert": "OK",
      "vis_m": 9999,
      "fzfg": false,
      "metar_trigger": false,
      "taf_trigger": false,
      "metar": "METAR EYVI 181620Z 01009KT CAVOK 13/M02 Q1018 NOSIG",
      "taf": "TAF EYVI 181101Z 1812/1912 02013KT 9000 NSC"
    },
    {
      "icao": "GCFV",
      "alert": "OK",
      "vis_m": 9999,
      "fzfg": false,
      "metar_trigger": false,
      "taf_trigger": false,
      "metar": "METAR GCFV 181630Z 01009KT CAVOK 22/17 Q1012",
      "taf": "TAF GCFV 181400Z 1815/1915 01010KT 8000 NSC TX29/1914Z TN20/1906Z"
    },
    {
      "icao": "GCLP",
      "alert": "OK",
      "vis_m": 9999,
      "fzfg": false,
      "metar_trigger": false,
      "taf_trigger": false,
      "metar": "METAR GCLP 181630Z VRB01KT CAVOK 25/12 Q1011 NOSIG",
      "taf": "TAF GCLP 181400Z 1815/1915 18007KT 8000 NSC TX27/1914Z TN22/1906Z"
    },
    {
      "icao": "GCTS",
      "alert": "OK",
      "vis_m": 9999,
      "fzfg": false,
      "metar_trigger": false,
      "taf_trigger": false,
      "metar": "METAR GCTS 181630Z 08004KT 030V130 9999 FEW090 OVC140 29/05 Q1011 NOSIG",
      "taf": "TAF GCTS 181400Z 1815/1915 09016KT 8000 NSC TX25/1914Z TN22/1906Z"
    },
    {
      "icao": "GMAD",
      "alert": "OK",
      "vis_m": 8000,
      "fzfg": false,
      "metar_trigger": false,
      "taf_trigger": false,
      "metar": "METAR GMAD 181630Z 26014KT 8000 NSC 34/M01 Q1011 NOSIG",
      "taf": "TAF GMAD 181100Z 1812/1918 26010KT 8000 NSC"
    },
    {
      "icao": "GMMN",
      "alert": "OK",
      "vis_m": 9999,
      "fzfg": false,
      "metar_trigger": false,
      "taf_trigger": false,
      "metar": "METAR GMMN 181630Z 35009KT 320V020 CAVOK 27/16 Q1014 NOSIG",
      "taf": "TAF GMMN 181100Z 1812/1918 36008KT CAVOK"
    },
    {
      "icao": "GMMX",
      "alert": "OK",
      "vis_m": 9999,
      "fzfg": false,
      "metar_trigger": false,
      "taf_trigger": false,
      "metar": "METAR GMMX 181630Z 07006KT 020V150 9999 SCT100 SCT200 32/06 Q1014 NOSIG",
      "taf": "TAF GMMX 181100Z 1812/1918 06006KT CAVOK"
    },
    {
      "icao": "HEGN",
      "alert": "OK",
      "vis_m": 9999,
      "fzfg": false,
      "metar_trigger": false,
      "taf_trigger": false,
      "metar": "METAR HEGN 181600Z 12005KT CAVOK 27/13 Q1006 NOSIG",
      "taf": "TAF HEGN 181230Z 1812/1918 01015G25KT 6000 SCT025"
    },
    {
      "icao": "HEMA",
      "alert": "OK",
      "vis_m": 9999,
      "fzfg": false,
      "metar_trigger": false,
      "taf_trigger": false,
      "metar": "METAR HEMA 181600Z 01008KT CAVOK 25/16 Q1007 NOSIG",
      "taf": "TAF HEMA 181230Z 1812/1918 35012G25KT 6000 SCT025"
    },
    {
      "icao": "HESH",
      "alert": "OK",
      "vis_m": 9999,
      "fzfg": false,
      "metar_trigger": false,
      "taf_trigger": false,
      "metar": "METAR HESH 181600Z 24010KT CAVOK 32/04 Q1004 NOSIG",
      "taf": "TAF HESH 181230Z 1812/1918 29010G22KT 6000 SCT025"
    },
    {
      "icao": "HESX",
      "alert": "OK",
      "vis_m": 9999,
      "fzfg": false,
      "metar_trigger": false,
      "taf_trigger": false,
      "metar": "METAR HESX 181600Z 30008KT CAVOK 25/09 Q1008 NOSIG",
      "taf": "TAF HESX 181230Z 1812/1918 26011KT 6000 FEW020"
    },
    {
      "icao": "LATI",
      "alert": "OK",
      "vis_m": 9999,
      "fzfg": false,
      "metar_trigger": false,
      "taf_trigger": false,
      "metar": "METAR LATI 181620Z 32012KT CAVOK 22/06 Q1010 NOSIG",
      "taf": "TAF LATI 181100Z 1812/1912 36014KT CAVOK TX27/1812Z TN10/1904Z"
    },
    {
      "icao": "LBPD",
      "alert": "OK",
      "vis_m": 9999,
      "fzfg": false,
      "metar_trigger": false,
      "taf_trigger": false,
      "metar": "METAR LBPD 181630Z AUTO 12008KT 9999 SCT100/// 16/07 Q1013 NOSIG",
      "taf": "TAF LBPD 181100Z 1812/1912 12010KT 9999 SCT030 BKN050"
    },
    {
      "icao": "LBSF",
      "alert": "OK",
      "vis_m": 9999,
      "fzfg": false,
      "metar_trigger": false,
      "taf_trigger": false,
      "metar": "METAR LBSF 181630Z AUTO 21005KT 9999 NCD 14/08 Q1014 NOSIG",
      "taf": "TAF LBSF 181100Z 1812/1912 04010KT 9999 SCT030 BKN060"
    },
    {
      "icao": "LBWN",
      "alert": "OK",
      "vis_m": 9999,
      "fzfg": false,
      "metar_trigger": false,
      "taf_trigger": false,
      "metar": "METAR LBWN 181630Z AUTO 03007KT 350V060 9999 NSC 16/03 Q1013 NOSIG",
      "taf": "TAF LBWN 181100Z 1812/1912 02012KT 9999 SCT040"
    },
    {
      "icao": "LCLK",
      "alert": "OK",
      "vis_m": 9999,
      "fzfg": false,
      "metar_trigger": false,
      "taf_trigger": false,
      "metar": "METAR LCLK 181630Z 23008KT 9999 FEW020 19/17 Q1002 NOSIG",
      "taf": "TAF LCLK 181130Z 1812/1912 20016KT 4000 DU FEW030"
    },
    {
      "icao": "LCPH",
      "alert": "OK",
      "vis_m": 9999,
      "fzfg": false,
      "metar_trigger": false,
      "taf_trigger": false,
      "metar": "METAR LCPH 181630Z 32017KT 9999 BKN013 SCT030 18/15 Q1003 NOSIG",
      "taf": "TAF LCPH 181130Z 1812/1912 24010KT 8000 FEW030"
    },
    {
      "icao": "LEAL",
      "alert": "OK",
      "vis_m": 9999,
      "fzfg": false,
      "metar_trigger": false,
      "taf_trigger": false,
      "metar": "METAR LEAL 181630Z 19005KT 140V230 CAVOK 24/06 Q1018 NOSIG",
      "taf": "TAF LEAL 181100Z 1812/1912 15009KT CAVOK TX24/1812Z TN11/1905Z"
    },
    {
      "icao": "LEBB",
      "alert": "OK",
      "vis_m": 9999,
      "fzfg": false,
      "metar_trigger": false,
      "taf_trigger": false,
      "metar": "METAR LEBB 181630Z 33004KT 300V360 9999 BKN021 BKN030 16/13 Q1022 NOSIG",
      "taf": "TAF LEBB 181100Z 1812/1912 01009KT 9999 FEW015 TX25/1912Z TN10/1902Z"
    },
    {
      "icao": "LEBL",
      "alert": "OK",
      "vis_m": 9999,
      "fzfg": false,
      "metar_trigger": false,
      "taf_trigger": false,
      "metar": "METAR LEBL 181630Z 22010KT 9999 FEW040 20/11 Q1019 NOSIG",
      "taf": "TAF LEBL 181100Z 1812/1912 21010KT CAVOK TX21/1812Z TN13/1906Z"
    },
    {
      "icao": "LECH",
      "alert": "OK",
      "vis_m": 9999,
      "fzfg": false,
      "metar_trigger": false,
      "taf_trigger": false,
      "metar": "METAR LECH 181630Z AUTO 13006KT 100V160 CAVOK 20/10 Q1019",
      "taf": "TAF LECH 181100Z 1812/1912 12007KT CAVOK TX24/1813Z TN13/1905Z"
    },
    {
      "icao": "LEMD",
      "alert": "OK",
      "vis_m": 9999,
      "fzfg": false,
      "metar_trigger": false,
      "taf_trigger": false,
      "metar": "METAR LEMD 181630Z 24005KT 180V300 CAVOK 28/04 Q1017 NOSIG",
      "taf": "TAF LEMD 181100Z 1812/1918 VRB04KT CAVOK TX28/1816Z TN10/1906Z"
    },
    {
      "icao": "LEMG",
      "alert": "OK",
      "vis_m": 9999,
      "fzfg": false,
      "metar_trigger": false,
      "taf_trigger": false,
      "metar": "METAR LEMG 181630Z 13004KT 080V180 CAVOK 21/09 Q1018 NOSIG",
      "taf": "TAF LEMG 181100Z 1812/1912 13010KT CAVOK TX23/1814Z TN09/1906Z"
    },
    {
      "icao": "LEVC",
      "alert": "OK",
      "vis_m": 9999,
      "fzfg": false,
      "metar_trigger": false,
      "taf_trigger": false,
      "metar": "METAR LEVC 181630Z 08009KT 040V110 CAVOK 21/13 Q1017 NOSIG",
      "taf": "TAF LEVC 181100Z 1812/1912 09010KT CAVOK TX26/1812Z TN12/1905Z"
    },
    {
      "icao": "LEXJ",
      "alert": "OK",
      "vis_m": 9999,
      "fzfg": false,
      "metar_trigger": false,
      "taf_trigger": false,
      "metar": "METAR LEXJ 181630Z 06006KT 9999 BKN026 OVC032 15/12 Q1022",
      "taf": "TAF LEXJ 181400Z 1815/1915 04009KT 9999 SCT016 TX20/1913Z TN12/1904Z"
    },
    {
      "icao": "LEZG",
      "alert": "OK",
      "vis_m": 9999,
      "fzfg": false,
      "metar_trigger": false,
      "taf_trigger": false,
      "metar": "METAR LEZG 181630Z 09003KT 020V180 CAVOK 28/08 Q1016 NOSIG",
      "taf": "TAF LEZG 181100Z 1812/1912 09006KT CAVOK TX30/1814Z TN13/1905Z"
    },
    {
      "icao": "LEZL",
      "alert": "OK",
      "vis_m": 9999,
      "fzfg": false,
      "metar_trigger": false,
      "taf_trigger": false,
      "metar": "METAR LEZL 181630Z 23005KT 190V260 CAVOK 31/08 Q1014 NOSIG",
      "taf": "TAF LEZL 181400Z 1815/1915 VRB03KT CAVOK TX32/1815Z TN13/1906Z"
    },
    {
      "icao": "LFBD",
      "alert": "OK",
      "vis_m": 9999,
      "fzfg": false,
      "metar_trigger": false,
      "taf_trigger": false,
      "metar": "METAR LFBD 181630Z AUTO 33009KT 310V010 CAVOK 21/10 Q1020 NOSIG",
      "taf": "TAF LFBD 181100Z 1812/1918 35005KT CAVOK TX25/1815Z TN12/1906Z"
    },
    {
      "icao": "LFLL",
      "alert": "OK",
      "vis_m": 9999,
      "fzfg": false,
      "metar_trigger": false,
      "taf_trigger": false,
      "metar": "METAR LFLL 181630Z 36005KT CAVOK 23/08 Q1018 NOSIG",
      "taf": "TAF LFLL 181100Z 1812/1918 36006KT CAVOK"
    },
    {
      "icao": "LFLS",
      "alert": "OK",
      "vis_m": 9999,
      "fzfg": false,
      "metar_trigger": false,
      "taf_trigger": false,
      "metar": "METAR LFLS 181630Z AUTO 34006KT CAVOK 20/11 Q1019 NOSIG",
      "taf": "TAF LFLS 181400Z 1815/1915 35006KT CAVOK"
    },
    {
      "icao": "LFMN",
      "alert": "OK",
      "vis_m": 9999,
      "fzfg": false,
      "metar_trigger": false,
      "taf_trigger": false,
      "metar": "METAR LFMN 181630Z 13004KT CAVOK 20/16 Q1017 NOSIG",
      "taf": "TAF LFMN 181400Z 1815/1921 13004KT 9999 FEW040"
    },
    {
      "icao": "LFOB",
      "alert": "OK",
      "vis_m": 9999,
      "fzfg": false,
      "metar_trigger": false,
      "taf_trigger": false,
      "metar": "METAR LFOB 181630Z AUTO 34010KT 9999 SCT022 BKN054 BKN068 14/09 Q1021 NOSIG",
      "taf": "TAF LFOB 181100Z 1812/1912 34010KT 9999 SCT040"
    },
    {
      "icao": "LFPO",
      "alert": "OK",
      "vis_m": 9999,
      "fzfg": false,
      "metar_trigger": false,
      "taf_trigger": false,
      "metar": "METAR LFPO 181630Z 33014KT CAVOK 19/12 Q1020 NOSIG",
      "taf": "TAF LFPO 181100Z 1812/1918 24005KT CAVOK"
    },
    {
      "icao": "LFSB",
      "alert": "OK",
      "vis_m": 9999,
      "fzfg": false,
      "metar_trigger": false,
      "taf_trigger": false,
      "metar": "METAR LFSB 181630Z AUTO VRB02KT CAVOK 24/08 Q1018 NOSIG",
      "taf": "TAF LFSB 181100Z 1812/1912 33004KT CAVOK"
    },
    {
      "icao": "LGAV",
      "alert": "OK",
      "vis_m": 9999,
      "fzfg": false,
      "metar_trigger": false,
      "taf_trigger": false,
      "metar": "METAR LGAV 181620Z 01008KT 330V050 9999 FEW025 18/03 Q1012 NOSIG",
      "taf": ""
    },
    {
      "icao": "LGTS",
      "alert": "OK",
      "vis_m": 9999,
      "fzfg": false,
      "metar_trigger": false,
      "taf_trigger": false,
      "metar": "METAR LGTS 181620Z VRB03KT 9999 SCT025 16/13 Q1013 NOSIG",
      "taf": "TAF LGTS 181100Z 1812/1912 35013KT 9999 SCT025 BKN050"
    },
    {
      "icao": "LHBP",
      "alert": "OK",
      "vis_m": 9999,
      "fzfg": false,
      "metar_trigger": false,
      "taf_trigger": false,
      "metar": "METAR LHBP 181630Z 02005KT 350V050 CAVOK 20/M01 Q1017 NOSIG",
      "taf": "TAF LHBP 181115Z 1812/1912 33005KT CAVOK"
    },
    {
      "icao": "LHDC",
      "alert": "OK",
      "vis_m": 9999,
      "fzfg": false,
      "metar_trigger": false,
      "taf_trigger": false,
      "metar": "METAR LHDC 181615Z AUTO 02010KT 350V060 CAVOK 19/01 Q1017 NOSIG",
      "taf": "TAF LHDC 181415Z 1815/1824 01008KT CAVOK"
    },
    {
      "icao": "LIBD",
      "alert": "OK",
      "vis_m": 9999,
      "fzfg": false,
      "metar_trigger": false,
      "taf_trigger": false,
      "metar": "METAR LIBD 181620Z 32009KT CAVOK 19/09 Q1014",
      "taf": "TAF LIBD 181100Z 1812/1912 34013KT CAVOK"
    },
    {
      "icao": "LIBG",
      "alert": "OK",
      "vis_m": 9999,
      "fzfg": false,
      "metar_trigger": false,
      "taf_trigger": false,
      "metar": "METAR LIBG 181550Z 34013KT CAVOK 21/05 Q1013",
      "taf": "TAF LIBG 181400Z 1815/1824 35012KT CAVOK"
    },
    {
      "icao": "LIBP",
      "alert": "OK",
      "vis_m": 9999,
      "fzfg": false,
      "metar_trigger": false,
      "taf_trigger": false,
      "metar": "METAR LIBP 181620Z AUTO 04006KT 9999 NCD 20/11 Q1017",
      "taf": "TAF LIBP 181100Z 1812/1912 02010KT CAVOK"
    },
    {
      "icao": "LIBR",
      "alert": "OK",
      "vis_m": 9999,
      "fzfg": false,
      "metar_trigger": false,
      "taf_trigger": false,
      "metar": "METAR LIBR 181620Z 32013KT CAVOK 18/14 Q1013",
      "taf": "TAF LIBR 181100Z 1812/1912 33016KT CAVOK"
    },
    {
      "icao": "LICA",
      "alert": "OK",
      "vis_m": 9999,
      "fzfg": false,
      "metar_trigger": false,
      "taf_trigger": false,
      "metar": "METAR LICA 181620Z AUTO 25007KT 9999 NCD 18/15 Q1014",
      "taf": "TAF LICA 181100Z 1812/1912 25012KT 9999 SCT010"
    },
    {
      "icao": "LICC",
      "alert": "OK",
      "vis_m": 9999,
      "fzfg": false,
      "metar_trigger": false,
      "taf_trigger": false,
      "metar": "METAR LICC 181620Z 11009KT 9999 SCT080 21/18 Q1013",
      "taf": "TAF LICC 181100Z 1812/1912 07012KT 9999 SCT050"
    },
    {
      "icao": "LICJ",
      "alert": "OK",
      "vis_m": 9999,
      "fzfg": false,
      "metar_trigger": false,
      "taf_trigger": false,
      "metar": "METAR LICJ 181620Z 33005KT 9999 FEW009 18/16 Q1015",
      "taf": "TAF LICJ 181100Z 1812/1912 32010KT 9999 SCT010"
    },
    {
      "icao": "LIMC",
      "alert": "OK",
      "vis_m": 9999,
      "fzfg": false,
      "metar_trigger": false,
      "taf_trigger": false,
      "metar": "METAR LIMC 181620Z 16003KT 130V200 CAVOK 25/11 Q1016 NOSIG",
      "taf": "TAF LIMC 181100Z 1812/1918 VRB05KT 9999 SCT050"
    },
    {
      "icao": "LIME",
      "alert": "OK",
      "vis_m": 9999,
      "fzfg": false,
      "metar_trigger": false,
      "taf_trigger": false,
      "metar": "METAR LIME 181620Z 18004KT 140V220 9999 SCT055 23/10 Q1016 NOSIG",
      "taf": "TAF LIME 181100Z 1812/1912 VRB05KT 9999 SCT050"
    },
    {
      "icao": "LIMF",
      "alert": "OK",
      "vis_m": 9999,
      "fzfg": false,
      "metar_trigger": false,
      "taf_trigger": false,
      "metar": "METAR LIMF 181620Z 13003KT 110V180 CAVOK 24/13 Q1016",
      "taf": "TAF LIMF 181100Z 1812/1912 VRB05KT 9999 SCT050"
    },
    {
      "icao": "LIMJ",
      "alert": "OK",
      "vis_m": 9999,
      "fzfg": false,
      "metar_trigger": false,
      "taf_trigger": false,
      "metar": "METAR LIMJ 181620Z VRB01KT CAVOK 22/12 Q1017",
      "taf": "TAF LIMJ 181100Z 1812/1912 19010KT CAVOK"
    },
    {
      "icao": "LIPE",
      "alert": "OK",
      "vis_m": 9999,
      "fzfg": false,
      "metar_trigger": false,
      "taf_trigger": false,
      "metar": "METAR LIPE 181620Z 08006KT CAVOK 24/09 Q1016",
      "taf": "TAF LIPE 181100Z 1812/1912 08010KT CAVOK"
    },
    {
      "icao": "LIPH",
      "alert": "OK",
      "vis_m": 9999,
      "fzfg": false,
      "metar_trigger": false,
      "taf_trigger": false,
      "metar": "METAR LIPH 181620Z 17005KT 140V200 CAVOK 23/10 Q1016",
      "taf": "TAF LIPH 181100Z 1812/1912 18010KT CAVOK"
    },
    {
      "icao": "LIPQ",
      "alert": "OK",
      "vis_m": 9999,
      "fzfg": false,
      "metar_trigger": false,
      "taf_trigger": false,
      "metar": "METAR LIPQ 181620Z AUTO 27008KT 9999 NCD 22/09 Q1016",
      "taf": "TAF LIPQ 181100Z 1812/1912 VRB05KT 9999 SCT060"
    },
    {
      "icao": "LIPR",
      "alert": "OK",
      "vis_m": 9999,
      "fzfg": false,
      "metar_trigger": false,
      "taf_trigger": false,
      "metar": "METAR LIPR 181620Z AUTO 12005KT 9999 NCD 21/07 Q1017",
      "taf": "TAF LIPR 181100Z 1812/1912 VRB05KT CAVOK"
    },
    {
      "icao": "LIPX",
      "alert": "OK",
      "vis_m": 9999,
      "fzfg": false,
      "metar_trigger": false,
      "taf_trigger": false,
      "metar": "METAR LIPX 181620Z 19003KT 100V270 CAVOK 25/09 Q1016",
      "taf": "TAF LIPX 181100Z 1812/1912 VRB05KT 9999 FEW050"
    },
    {
      "icao": "LIPY",
      "alert": "OK",
      "vis_m": 9999,
      "fzfg": false,
      "metar_trigger": false,
      "taf_trigger": false,
      "metar": "METAR LIPY 181620Z AUTO 34006KT 9999 NCD 19/10 Q1017",
      "taf": "TAF LIPY 181100Z 1812/1912 34010KT CAVOK"
    },
    {
      "icao": "LIPZ",
      "alert": "OK",
      "vis_m": 9999,
      "fzfg": false,
      "metar_trigger": false,
      "taf_trigger": false,
      "metar": "METAR LIPZ 181620Z 18005KT CAVOK 22/09 Q1016 NOSIG",
      "taf": "TAF LIPZ 181100Z 1812/1918 05008KT CAVOK"
    },
    {
      "icao": "LIRF",
      "alert": "OK",
      "vis_m": 9999,
      "fzfg": false,
      "metar_trigger": false,
      "taf_trigger": false,
      "metar": "METAR LIRF 181620Z 27011KT CAVOK 21/11 Q1015 NOSIG",
      "taf": "TAF LIRF 181100Z 1812/1918 25012KT CAVOK"
    },
    {
      "icao": "LIRN",
      "alert": "OK",
      "vis_m": 9999,
      "fzfg": false,
      "metar_trigger": false,
      "taf_trigger": false,
      "metar": "METAR LIRN 181620Z 30007KT 250V020 CAVOK 23/07 Q1015 NOSIG",
      "taf": "TAF LIRN 181100Z 1812/1912 05012KT CAVOK"
    },
    {
      "icao": "LIRP",
      "alert": "OK",
      "vis_m": 9999,
      "fzfg": false,
      "metar_trigger": false,
      "taf_trigger": false,
      "metar": "METAR LIRP 181615Z 31008KT CAVOK 23/09 Q1016 NOSIG",
      "taf": "TAF LIRP 181100Z 1812/1912 33010KT CAVOK"
    },
    {
      "icao": "LIRZ",
      "alert": "OK",
      "vis_m": 9999,
      "fzfg": false,
      "metar_trigger": false,
      "taf_trigger": false,
      "metar": "METAR LIRZ 181620Z AUTO 05011KT 9999 NCD 22/06 Q1016",
      "taf": "TAF LIRZ 181100Z 1812/1912 05012KT 9999 FEW060"
    },
    {
      "icao": "LJLJ",
      "alert": "OK",
      "vis_m": 9999,
      "fzfg": false,
      "metar_trigger": false,
      "taf_trigger": false,
      "metar": "METAR LJLJ 181630Z 10004KT 9999 FEW070 BKN110 19/09 Q1017 NOSIG",
      "taf": "TAF LJLJ 181100Z 1812/1912 12005KT 9999 FEW060"
    },
    {
      "icao": "LKMT",
      "alert": "OK",
      "vis_m": 9999,
      "fzfg": false,
      "metar_trigger": false,
      "taf_trigger": false,
      "metar": "METAR LKMT 181630Z 02004KT CAVOK 16/05 Q1019 NOSIG",
      "taf": "TAF LKMT 181100Z 1812/1912 22008KT CAVOK"
    },
    {
      "icao": "LKPR",
      "alert": "OK",
      "vis_m": 9999,
      "fzfg": false,
      "metar_trigger": false,
      "taf_trigger": false,
      "metar": "METAR LKPR 181630Z 36003KT CAVOK 18/06 Q1018 NOSIG",
      "taf": "TAF LKPR 181400Z 1815/1921 07006KT CAVOK"
    },
    {
      "icao": "LLBG",
      "alert": "OK",
      "vis_m": 9999,
      "fzfg": false,
      "metar_trigger": false,
      "taf_trigger": false,
      "metar": "METAR LLBG 181620Z 28011KT 9999 FEW022 20/14 Q1008 NOSIG",
      "taf": "TAF LLBG 181105Z 1812/1912 24015KT 5000 DU NSC TX24/1812Z TN17/1904Z"
    },
    {
      "icao": "LMML",
      "alert": "OK",
      "vis_m": 9999,
      "fzfg": false,
      "metar_trigger": false,
      "taf_trigger": false,
      "metar": "METAR LMML 181615Z 28008KT 240V310 CAVOK 21/12 Q1014 NOSIG",
      "taf": "TAF LMML 181100Z 1812/1912 31006KT 9999 FEW012"
    },
    {
      "icao": "LOWW",
      "alert": "OK",
      "vis_m": 9999,
      "fzfg": false,
      "metar_trigger": false,
      "taf_trigger": false,
      "metar": "METAR LOWW 181620Z 03008KT 360V060 CAVOK 18/02 Q1018 NOSIG",
      "taf": "TAF LOWW 181415Z 1815/1921 35007KT CAVOK TX20/1815Z TN08/1903Z"
    },
    {
      "icao": "LPFR",
      "alert": "OK",
      "vis_m": 9999,
      "fzfg": false,
      "metar_trigger": false,
      "taf_trigger": false,
      "metar": "METAR LPFR 181630Z 11009KT CAVOK 20/16 Q1016",
      "taf": "TAF LPFR 181100Z 1812/1912 10015KT CAVOK"
    },
    {
      "icao": "LPMA",
      "alert": "OK",
      "vis_m": 9999,
      "fzfg": false,
      "metar_trigger": false,
      "taf_trigger": false,
      "metar": "METAR LPMA 181630Z 04020KT 9999 FEW015 18/13 Q1014",
      "taf": "TAF LPMA 181100Z 1812/1912 02015KT 9999 SCT015"
    },
    {
      "icao": "LPPR",
      "alert": "OK",
      "vis_m": 9999,
      "fzfg": false,
      "metar_trigger": false,
      "taf_trigger": false,
      "metar": "METAR LPPR 181630Z 32006KT CAVOK 21/11 Q1016",
      "taf": "TAF LPPR 181100Z 1812/1912 29007KT CAVOK"
    },
    {
      "icao": "LPPS",
      "alert": "OK",
      "vis_m": 9999,
      "fzfg": false,
      "metar_trigger": false,
      "taf_trigger": false,
      "metar": "METAR LPPS 181630Z 08012KT 050V110 9999 FEW015 18/13 Q1015",
      "taf": "TAF LPPS 181100Z 1812/1918 07012KT 9999 SCT015"
    },
    {
      "icao": "LPPT",
      "alert": "OK",
      "vis_m": 9999,
      "fzfg": false,
      "metar_trigger": false,
      "taf_trigger": false,
      "metar": "METAR LPPT 181630Z 23008KT 210V280 CAVOK 26/10 Q1015",
      "taf": "TAF LPPT 181100Z 1812/1918 07007KT CAVOK"
    },
    {
      "icao": "LQBK",
      "alert": "OK",
      "vis_m": 9999,
      "fzfg": false,
      "metar_trigger": false,
      "taf_trigger": false,
      "metar": "METAR LQBK 181630Z 02005KT CAVOK 20/03 Q1017 NOSIG",
      "taf": ""
    },
    {
      "icao": "LQSA",
      "alert": "OK",
      "vis_m": 9999,
      "fzfg": false,
      "metar_trigger": false,
      "taf_trigger": false,
      "metar": "METAR LQSA 181630Z 02006KT 320V060 CAVOK 18/00 Q1016 NOSIG",
      "taf": "TAF LQSA 181100Z 1812/1912 29005KT CAVOK TX22/1912Z TN03/1904Z"
    },
    {
      "icao": "LQTZ",
      "alert": "OK",
      "vis_m": 9999,
      "fzfg": false,
      "metar_trigger": false,
      "taf_trigger": false,
      "metar": "METAR LQTZ 181630Z 04007KT 360V060 CAVOK 18/01 Q1017",
      "taf": "TAF LQTZ 181100Z 1812/1912 33005KT CAVOK TX21/1813Z TN05/1904Z"
    },
    {
      "icao": "LRBC",
      "alert": "OK",
      "vis_m": 9999,
      "fzfg": false,
      "metar_trigger": false,
      "taf_trigger": false,
      "metar": "METAR LRBC 181630Z 34011KT 9999 -SHRA FEW040CB BKN056 14/05 Q1015",
      "taf": "TAF LRBC 181400Z 1815/1824 34012KT 9999 BKN050"
    },
    {
      "icao": "LRBS",
      "alert": "OK",
      "vis_m": 9999,
      "fzfg": false,
      "metar_trigger": false,
      "taf_trigger": false,
      "metar": "METAR LRBS 181630Z 24003KT 9999 FEW048CB 14/09 Q1014 NOSIG",
      "taf": "TAF LRBS 181100Z 1812/1912 VRB04KT CAVOK"
    },
    {
      "icao": "LRBV",
      "alert": "OK",
      "vis_m": 9999,
      "fzfg": false,
      "metar_trigger": false,
      "taf_trigger": false,
      "metar": "METAR LRBV 181630Z 36008KT 9999 SCT073 SCT086 14/04 Q1014",
      "taf": "TAF LRBV 181400Z 1815/1824 34008KT 9999 SCT035 SCT050"
    },
    {
      "icao": "LRCL",
      "alert": "OK",
      "vis_m": 9999,
      "fzfg": false,
      "metar_trigger": false,
      "taf_trigger": false,
      "metar": "METAR LRCL 181630Z 32008KT 290V350 9999 SCT071 16/01 Q1015",
      "taf": "TAF LRCL 181400Z 1815/1824 VRB04KT CAVOK"
    },
    {
      "icao": "LRCV",
      "alert": "OK",
      "vis_m": 9999,
      "fzfg": false,
      "metar_trigger": false,
      "taf_trigger": false,
      "metar": "METAR LRCV 181630Z 13010KT 100V170 9999 TS VCSH SCT030 SCT045CB 16/09 Q1014",
      "taf": "TAF LRCV 181400Z 1815/1824 18006KT 9999 SCT030"
    },
    {
      "icao": "LRIA",
      "alert": "OK",
      "vis_m": 9999,
      "fzfg": false,
      "metar_trigger": false,
      "taf_trigger": false,
      "metar": "METAR LRIA 181630Z 30009KT 9999 SCT035 11/08 Q1014",
      "taf": "TAF LRIA 181400Z 1815/1824 34012KT 9999 FEW035"
    },
    {
      "icao": "LROP",
      "alert": "OK",
      "vis_m": 9999,
      "fzfg": false,
      "metar_trigger": false,
      "taf_trigger": false,
      "metar": "METAR LROP 181630Z 20005KT 9999 FEW050CB 14/08 Q1014 NOSIG",
      "taf": "TAF LROP 181100Z 1812/1912 VRB04KT CAVOK"
    },
    {
      "icao": "LRSB",
      "alert": "OK",
      "vis_m": 9999,
      "fzfg": false,
      "metar_trigger": false,
      "taf_trigger": false,
      "metar": "METAR LRSB 181630Z 35008KT 9999 FEW075 16/01 Q1015",
      "taf": "TAF LRSB 181100Z 1812/1912 32006KT 9999 SCT040"
    },
    {
      "icao": "LRSM",
      "alert": "OK",
      "vis_m": 9999,
      "fzfg": false,
      "metar_trigger": false,
      "taf_trigger": false,
      "metar": "METAR LRSM 181630Z 02008KT CAVOK 18/01 Q1016",
      "taf": "TAF LRSM 181400Z 1815/1824 02010KT CAVOK"
    },
    {
      "icao": "LRSV",
      "alert": "OK",
      "vis_m": 9999,
      "fzfg": false,
      "metar_trigger": false,
      "taf_trigger": false,
      "metar": "METAR LRSV 181630Z 30011KT 9999 -SHRA SCT039CB 11/06 Q1015",
      "taf": "TAF LRSV 181400Z 1815/1824 31014KT 9999 FEW045CB"
    },
    {
      "icao": "LRTM",
      "alert": "OK",
      "vis_m": 9999,
      "fzfg": false,
      "metar_trigger": false,
      "taf_trigger": false,
      "metar": "METAR LRTM 181630Z 35005KT CAVOK 17/03 Q1015",
      "taf": "TAF LRTM 181400Z 1815/1824 32007KT 9999 SCT030"
    },
    {
      "icao": "LRTR",
      "alert": "OK",
      "vis_m": 9999,
      "fzfg": false,
      "metar_trigger": false,
      "taf_trigger": false,
      "metar": "METAR LRTR 181630Z 36008KT CAVOK 17/03 Q1016",
      "taf": "TAF LRTR 181100Z 1812/1912 36013KT CAVOK"
    },
    {
      "icao": "LTAC",
      "alert": "OK",
      "vis_m": 9999,
      "fzfg": false,
      "metar_trigger": false,
      "taf_trigger": false,
      "metar": "METAR LTAC 181620Z 04010KT 9999 SCT040 BKN100 09/04 Q1006 NOSIG RMK RWY21C 04012KT RWY03L 03007KT RWY21R 03010KT RWY03R 02012KT 340V040 RWY21L 03014KT",
      "taf": "TAF LTAC 181040Z 1812/1912 04008KT 9999 SCT040 BKN100"
    },
    {
      "icao": "LTFM",
      "alert": "OK",
      "vis_m": 9999,
      "fzfg": false,
      "metar_trigger": false,
      "taf_trigger": false,
      "metar": "METAR LTFM 181620Z 02010KT 9999 FEW012 SCT080 12/09 Q1013 NOSIG RMK RWY17L 01008KT RWY34L 02011KT RWY16R 01009KT RWY36 03012KT RWY18 03007KT",
      "taf": "TAF LTFM 181040Z 1812/1918 02018G28KT 9999 SCT007 BKN080"
    },
    {
      "icao": "LUKK",
      "alert": "OK",
      "vis_m": 4900,
      "fzfg": false,
      "metar_trigger": false,
      "taf_trigger": false,
      "metar": "METAR LUKK 181630Z 05008KT 010V070 4900 SHRA BKN033CB 09/07 Q1013 TEMPO SCT035CB",
      "taf": "TAF LUKK 181103Z 1812/1912 34016KT CAVOK"
    },
    {
      "icao": "LWOH",
      "alert": "OK",
      "vis_m": 9999,
      "fzfg": false,
      "metar_trigger": false,
      "taf_trigger": false,
      "metar": "METAR LWOH 181620Z 35008KT 300V030 9999 SCT040 18/02 Q1013",
      "taf": "TAF LWOH 181430Z 1815/1915 35010KT 9999 FEW040 SCT090"
    },
    {
      "icao": "LWSK",
      "alert": "OK",
      "vis_m": 9999,
      "fzfg": false,
      "metar_trigger": false,
      "taf_trigger": false,
      "metar": "METAR LWSK 181620Z 01012KT 9999 FEW058 20/03 Q1013 NOSIG",
      "taf": "TAF LWSK 181430Z 1815/1915 36010KT CAVOK"
    },
    {
      "icao": "LYBE",
      "alert": "OK",
      "vis_m": 9999,
      "fzfg": false,
      "metar_trigger": false,
      "taf_trigger": false,
      "metar": "METAR LYBE 181630Z 01009KT CAVOK 18/01 Q1017 NOSIG",
      "taf": "TAF LYBE 181100Z 1812/1912 35014KT CAVOK TX21/1813Z TN04/1904Z"
    },
    {
      "icao": "LYNI",
      "alert": "OK",
      "vis_m": 9999,
      "fzfg": false,
      "metar_trigger": false,
      "taf_trigger": false,
      "metar": "METAR LYNI 181630Z 32017KT 290V350 CAVOK 18/00 Q1014 NOSIG",
      "taf": "TAF LYNI 181100Z 1812/1912 33015KT CAVOK TX21/1812Z TN05/1904Z"
    },
    {
      "icao": "LYPG",
      "alert": "OK",
      "vis_m": 9999,
      "fzfg": false,
      "metar_trigger": false,
      "taf_trigger": false,
      "metar": "METAR LYPG 181630Z 36010KT 320V030 9999 FEW090 25/M00 Q1012 NOSIG",
      "taf": "TAF LYPG 181100Z 1812/1912 36013KT CAVOK TX26/1813Z TN15/1904Z"
    },
    {
      "icao": "LZIB",
      "alert": "OK",
      "vis_m": 9999,
      "fzfg": false,
      "metar_trigger": false,
      "taf_trigger": false,
      "metar": "METAR LZIB 181630Z 33008KT CAVOK 19/01 Q1018 NOSIG",
      "taf": "TAF LZIB 181115Z 1812/1912 35008KT CAVOK"
    },
    {
      "icao": "LZKZ",
      "alert": "OK",
      "vis_m": 9999,
      "fzfg": false,
      "metar_trigger": false,
      "taf_trigger": false,
      "metar": "METAR LZKZ 181630Z 01011KT CAVOK 17/02 Q1017 NOSIG",
      "taf": "TAF LZKZ 181115Z 1812/1912 02008KT CAVOK"
    },
    {
      "icao": "LZTT",
      "alert": "OK",
      "vis_m": 9999,
      "fzfg": false,
      "metar_trigger": false,
      "taf_trigger": false,
      "metar": "METAR LZTT 181630Z 07009KT 9999 FEW056 14/01 Q1017 NOSIG",
      "taf": "TAF LZTT 181115Z 1812/1912 07012KT CAVOK"
    },
    {
      "icao": "OEJN",
      "alert": "OK",
      "vis_m": 6000,
      "fzfg": false,
      "metar_trigger": false,
      "taf_trigger": false,
      "metar": "SPECI OEJN 181622Z 16013KT 6000 NSC 36/11 Q1004 NOSIG",
      "taf": "TAF OEJN 181100Z 1812/1918 18025KT 6000 NSC"
    },
    {
      "icao": "OEMA",
      "alert": "OK",
      "vis_m": 9999,
      "fzfg": false,
      "metar_trigger": false,
      "taf_trigger": false,
      "metar": "METAR OEMA 181600Z 22013KT CAVOK 34/11 Q1009 NOSIG",
      "taf": "TAF OEMA 181100Z 1812/1918 24016KT 7000 FEW045"
    },
    {
      "icao": "OJAI",
      "alert": "OK",
      "vis_m": null,
      "fzfg": false,
      "metar_trigger": false,
      "taf_trigger": false,
      "metar": "",
      "taf": "TAF OJAI 181100Z 1812/1918 23015KT 3000 BLDU NSC"
    },
    {
      "icao": "OMAA",
      "alert": "OK",
      "vis_m": null,
      "fzfg": false,
      "metar_trigger": false,
      "taf_trigger": false,
      "metar": "",
      "taf": ""
    },
    {
      "icao": "OMDB",
      "alert": "OK",
      "vis_m": null,
      "fzfg": false,
      "metar_trigger": false,
      "taf_trigger": false,
      "metar": "",
      "taf": ""
    },
    {
      "icao": "UAAA",
      "alert": "OK",
      "vis_m": 5000,
      "fzfg": false,
      "metar_trigger": false,
      "taf_trigger": false,
      "metar": "METAR UAAA 181630Z VRB01MPS 5000 BR FU FEW050 SCT100 06/04 Q1020 NOSIG",
      "taf": "TAF UAAA 181100Z 1812/1912 20003MPS 9999 SCT040CB BKN100 TX12/1909Z TN04/1901Z"
    },
    {
      "icao": "UBBB",
      "alert": "OK",
      "vis_m": 9999,
      "fzfg": false,
      "metar_trigger": false,
      "taf_trigger": false,
      "metar": "METAR UBBB 181630Z 18012KT CAVOK 14/12 Q1009 NOSIG",
      "taf": "TAF UBBB 181057Z 1812/1912 17022G32KT 9999 SCT025 TX17/1812Z TN10/1901Z"
    },
    {
      "icao": "UDSG",
      "alert": "OK",
      "vis_m": 9999,
      "fzfg": false,
      "metar_trigger": false,
      "taf_trigger": false,
      "metar": "METAR UDSG 181630Z 03002KT 9999 BKN040CB 07/06 Q1011 NOSIG",
      "taf": "TAF UDSG 181058Z 1812/1912 24006KT 9999 BKN040"
    },
    {
      "icao": "UDYZ",
      "alert": "OK",
      "vis_m": 9999,
      "fzfg": false,
      "metar_trigger": false,
      "taf_trigger": false,
      "metar": "METAR UDYZ 181630Z 35004KT 9999 BKN043CB 15/08 Q1008 NOSIG",
      "taf": "TAF UDYZ 181100Z 1812/1912 16006KT 9999 SCT040"
    },
    {
      "icao": "UGKO",
      "alert": "OK",
      "vis_m": 9999,
      "fzfg": false,
      "metar_trigger": false,
      "taf_trigger": false,
      "metar": "METAR UGKO 181630Z 08024G34KT CAVOK 21/05 Q1001 NOSIG",
      "taf": "TAF UGKO 181100Z 1812/1912 08012KT CAVOK TX21/1812Z TN11/1903Z"
    }
  ]
}