{
  "ts_utc": "2026-02-20T04:29:09Z",
  "threshold_m": 150,
  "source": "stations_override.txt (ICAO list) + aviationweather.gov (METAR/TAF raw)",
  "station_count": 159,
  "stations": [
    {
      "icao": "BIKF",
      "alert": "OK",
      "vis_m": 9999,
      "fzfg": false,
      "metar_trigger": false,
      "taf_trigger": false,
      "metar": "METAR BIKF 200400Z 06009KT CAVOK M02/M08 Q1006",
      "taf": "TAF BIKF 200155Z 2003/2103 06012KT CAVOK TX02/2015Z TNM06/2101Z"
    },
    {
      "icao": "BKPR",
      "alert": "OK",
      "vis_m": null,
      "fzfg": false,
      "metar_trigger": false,
      "taf_trigger": false,
      "metar": "",
      "taf": "TAF BKPR 192330Z 2000/2024 18008KT 9999 FEW015 BKN030"
    },
    {
      "icao": "EBCI",
      "alert": "OK",
      "vis_m": 4500,
      "fzfg": false,
      "metar_trigger": false,
      "taf_trigger": false,
      "metar": "METAR EBCI 200420Z 27005KT 240V300 4500 -DZ BKN004 05/04 Q1016 TEMPO 6000 NSW BKN008",
      "taf": "TAF EBCI 192300Z 2000/2106 VRB03KT 9999 SCT007 BKN014"
    },
    {
      "icao": "EDDB",
      "alert": "OK",
      "vis_m": 9999,
      "fzfg": false,
      "metar_trigger": false,
      "taf_trigger": false,
      "metar": "METAR EDDB 200420Z AUTO 14004KT CAVOK M08/M10 Q1023 NOSIG",
      "taf": "TAF EDDB 192300Z 2000/2024 06006KT CAVOK"
    },
    {
      "icao": "EDDH",
      "alert": "OK",
      "vis_m": 9999,
      "fzfg": false,
      "metar_trigger": false,
      "taf_trigger": false,
      "metar": "METAR EDDH 200420Z AUTO 12007KT CAVOK M06/M08 Q1021 NOSIG",
      "taf": "TAF EDDH 192300Z 2000/2106 10008KT CAVOK"
    },
    {
      "icao": "EDDK",
      "alert": "OK",
      "vis_m": 9999,
      "fzfg": false,
      "metar_trigger": false,
      "taf_trigger": false,
      "metar": "METAR EDDK 200420Z AUTO 09006KT 060V130 9999 SCT032 M01/M03 Q1017 NOSIG",
      "taf": "TAF EDDK 192300Z 2000/2106 11007KT CAVOK"
    },
    {
      "icao": "EDDN",
      "alert": "OK",
      "vis_m": 9000,
      "fzfg": false,
      "metar_trigger": false,
      "taf_trigger": false,
      "metar": "METAR EDDN 200420Z AUTO 36003KT 9000 NSC M02/M04 Q1017",
      "taf": "TAF EDDN 192300Z 2000/2024 03003KT CAVOK"
    },
    {
      "icao": "EDDS",
      "alert": "OK",
      "vis_m": 9000,
      "fzfg": false,
      "metar_trigger": false,
      "taf_trigger": false,
      "metar": "METAR EDDS 200420Z AUTO 03003KT 9000 BKN009 01/M00 Q1015",
      "taf": ""
    },
    {
      "icao": "EDFH",
      "alert": "OK",
      "vis_m": 9999,
      "fzfg": false,
      "metar_trigger": false,
      "taf_trigger": false,
      "metar": "METAR EDFH 200420Z 14011KT 9999 BKN009 M01/M02 Q1015",
      "taf": "TAF EDFH 192300Z 2000/2024 12009KT 9999 BKN010"
    },
    {
      "icao": "EDJA",
      "alert": "OK",
      "vis_m": 4600,
      "fzfg": false,
      "metar_trigger": false,
      "taf_trigger": false,
      "metar": "METAR EDJA 200420Z AUTO 02004KT 4600 // FEW004/// SCT007/// OVC057/// M01/M02 Q1014",
      "taf": "TAF EDJA 200200Z 2003/2012 02006KT 4000 -SN BKN002 OVC015"
    },
    {
      "icao": "EDLW",
      "alert": "OK",
      "vis_m": 9999,
      "fzfg": false,
      "metar_trigger": false,
      "taf_trigger": false,
      "metar": "METAR EDLW 200420Z 11003KT 060V170 CAVOK M03/M05 Q1017",
      "taf": "TAF EDLW 191700Z 1918/2018 08011KT 9999 SCT030"
    },
    {
      "icao": "EDNY",
      "alert": "OK",
      "vis_m": 3300,
      "fzfg": false,
      "metar_trigger": false,
      "taf_trigger": false,
      "metar": "METAR EDNY 200420Z AUTO VRB01KT 3300 // OVC017/// 00/00 Q1016",
      "taf": "TAF EDNY 200200Z 2003/2012 02003KT 9000 BKN020"
    },
    {
      "icao": "EDSB",
      "alert": "OK",
      "vis_m": 9999,
      "fzfg": false,
      "metar_trigger": false,
      "taf_trigger": false,
      "metar": "METAR EDSB 200420Z 03007KT 9999 OVC013 03/01 Q1017",
      "taf": "TAF EDSB 192300Z 2000/2024 02012KT 9999 SCT010 BKN025"
    },
    {
      "icao": "EETN",
      "alert": "OK",
      "vis_m": 9999,
      "fzfg": false,
      "metar_trigger": false,
      "taf_trigger": false,
      "metar": "METAR EETN 200420Z 29008KT CAVOK M10/M12 Q1014 NOSIG",
      "taf": "TAF EETN 192330Z 2000/2024 32010KT 9999 BKN010"
    },
    {
      "icao": "EFTU",
      "alert": "OK",
      "vis_m": 9999,
      "fzfg": false,
      "metar_trigger": false,
      "taf_trigger": false,
      "metar": "METAR EFTU 200420Z AUTO 28003KT CAVOK M19/M21 Q1015",
      "taf": "TAF EFTU 200227Z 2003/2103 30002KT CAVOK"
    },
    {
      "icao": "EGBB",
      "alert": "OK",
      "vis_m": 9999,
      "fzfg": false,
      "metar_trigger": false,
      "taf_trigger": false,
      "metar": "METAR EGBB 200420Z 22006KT CAVOK 04/03 Q1014",
      "taf": ""
    },
    {
      "icao": "EGGP",
      "alert": "OK",
      "vis_m": 9999,
      "fzfg": false,
      "metar_trigger": false,
      "taf_trigger": false,
      "metar": "METAR EGGP 200420Z AUTO 20005KT 160V230 9999 NCD 04/02 Q1013",
      "taf": "TAF EGGP 192256Z 2000/2024 VRB04KT 9999 SCT025"
    },
    {
      "icao": "EGGW",
      "alert": "OK",
      "vis_m": 9999,
      "fzfg": false,
      "metar_trigger": false,
      "taf_trigger": false,
      "metar": "METAR EGGW 200420Z AUTO 25008KT 9999 SCT035 04/03 Q1015",
      "taf": "TAF EGGW 192259Z 2000/2024 27007KT 9999 FEW012 SCT025"
    },
    {
      "icao": "EGKK",
      "alert": "OK",
      "vis_m": 9999,
      "fzfg": false,
      "metar_trigger": false,
      "taf_trigger": false,
      "metar": "METAR EGKK 200420Z 23005KT 9999 SCT024 05/03 Q1017",
      "taf": "TAF EGKK 192255Z 2000/2106 25005KT 9999 BKN025"
    },
    {
      "icao": "EGNM",
      "alert": "OK",
      "vis_m": null,
      "fzfg": false,
      "metar_trigger": false,
      "taf_trigger": false,
      "metar": "",
      "taf": "TAF EGNM 191703Z 1918/2018 VRB02KT 3000 -DZ BKN003"
    },
    {
      "icao": "EGPD",
      "alert": "OK",
      "vis_m": 9999,
      "fzfg": false,
      "metar_trigger": false,
      "taf_trigger": false,
      "metar": "METAR EGPD 200420Z COR AUTO 15005KT 130V200 9999 NCD 03/01 Q1004 NOSIG",
      "taf": "TAF EGPD 192256Z 2000/2024 17010KT 9999 SCT020"
    },
    {
      "icao": "EGPF",
      "alert": "OK",
      "vis_m": 9999,
      "fzfg": false,
      "metar_trigger": false,
      "taf_trigger": false,
      "metar": "METAR EGPF 200420Z AUTO 22010KT 9999 -RA BKN013 BKN048 06/04 Q1007",
      "taf": ""
    },
    {
      "icao": "EHBK",
      "alert": "OK",
      "vis_m": 9999,
      "fzfg": false,
      "metar_trigger": false,
      "taf_trigger": false,
      "metar": "METAR EHBK 200425Z AUTO 18005KT 9999 OVC012 03/02 Q1016",
      "taf": "TAF EHBK 192316Z 2000/2106 10005KT 9999 BKN035"
    },
    {
      "icao": "EHEH",
      "alert": "OK",
      "vis_m": 6000,
      "fzfg": false,
      "metar_trigger": false,
      "taf_trigger": false,
      "metar": "SPECI EHEH 200415Z AUTO 16005KT 130V190 6000 BR SCT012 BKN017 OVC022 03/01 Q1016 WHT",
      "taf": "TAF EHEH 192338Z 2000/2106 10005KT 9999 SCT030"
    },
    {
      "icao": "EKBI",
      "alert": "OK",
      "vis_m": 9999,
      "fzfg": false,
      "metar_trigger": false,
      "taf_trigger": false,
      "metar": "METAR EKBI 200420Z AUTO 14007KT 9999 BKN140/// M05/M05 Q1020",
      "taf": ""
    },
    {
      "icao": "EKCH",
      "alert": "OK",
      "vis_m": 9999,
      "fzfg": false,
      "metar_trigger": false,
      "taf_trigger": false,
      "metar": "METAR EKCH 200420Z AUTO 17003KT 9999 NCD M07/M09 Q1023 NOSIG",
      "taf": "TAF EKCH 200227Z 2003/2103 12008KT CAVOK"
    },
    {
      "icao": "ENAL",
      "alert": "OK",
      "vis_m": 9999,
      "fzfg": false,
      "metar_trigger": false,
      "taf_trigger": false,
      "metar": "METAR ENAL 200420Z AUTO 21020G31KT 9999 SQ NCD 04/M09 Q1003",
      "taf": "TAF ENAL 200200Z 2003/2012 21020KT 9999 BKN055"
    },
    {
      "icao": "ENBR",
      "alert": "OK",
      "vis_m": 9999,
      "fzfg": false,
      "metar_trigger": false,
      "taf_trigger": false,
      "metar": "METAR ENBR 200420Z 16027KT CAVOK 02/M08 Q1011 RMK WIND 1200FT 16033G43KT",
      "taf": ""
    },
    {
      "icao": "ENGM",
      "alert": "OK",
      "vis_m": 9999,
      "fzfg": false,
      "metar_trigger": false,
      "taf_trigger": false,
      "metar": "METAR ENGM 200420Z 02003KT 340V060 9999 FEW001 BKN005 M12/M14 Q1015",
      "taf": "TAF ENGM 192300Z 2000/2024 17005KT 9999 FEW002"
    },
    {
      "icao": "ENHD",
      "alert": "OK",
      "vis_m": 9999,
      "fzfg": false,
      "metar_trigger": false,
      "taf_trigger": false,
      "metar": "METAR ENHD 200420Z AUTO 15020G31KT 9999 NCD 01/M04 Q1012",
      "taf": "TAF ENHD 200200Z 2003/2012 15020G30KT 9999 SCT020"
    },
    {
      "icao": "ENTC",
      "alert": "OK",
      "vis_m": 9999,
      "fzfg": false,
      "metar_trigger": false,
      "taf_trigger": false,
      "metar": "METAR ENTC 200420Z 19009KT 160V220 CAVOK M07/M13 Q1006 RMK WIND 2600FT 17015KT",
      "taf": ""
    },
    {
      "icao": "ENTO",
      "alert": "OK",
      "vis_m": 9999,
      "fzfg": false,
      "metar_trigger": false,
      "taf_trigger": false,
      "metar": "METAR ENTO 200420Z AUTO 21010KT 9999 NCD M04/M05 Q1017",
      "taf": "TAF ENTO 192300Z 2000/2024 22005KT 9999 FEW010"
    },
    {
      "icao": "ENVA",
      "alert": "OK",
      "vis_m": 9999,
      "fzfg": false,
      "metar_trigger": false,
      "taf_trigger": false,
      "metar": "METAR ENVA 200350Z AUTO 17013KT 9999 NCD 04/M11 Q1004 RMK WIND 670FT 19021KT",
      "taf": "TAF ENVA 192300Z 2000/2024 17009KT 9999 FEW025 BKN040"
    },
    {
      "icao": "ENZV",
      "alert": "OK",
      "vis_m": 9999,
      "fzfg": false,
      "metar_trigger": false,
      "taf_trigger": false,
      "metar": "METAR ENZV 200420Z 15019KT CAVOK 01/M05 Q1013",
      "taf": "TAF ENZV 192300Z 2000/2024 16018KT CAVOK"
    },
    {
      "icao": "EPGD",
      "alert": "OK",
      "vis_m": 9999,
      "fzfg": false,
      "metar_trigger": false,
      "taf_trigger": false,
      "metar": "METAR EPGD 200400Z 30003KT 9999 BKN026 M06/M09 Q1022",
      "taf": "TAF EPGD 192330Z 2000/2024 28005KT 9999 BKN033"
    },
    {
      "icao": "EPKK",
      "alert": "OK",
      "vis_m": 9999,
      "fzfg": false,
      "metar_trigger": false,
      "taf_trigger": false,
      "metar": "METAR EPKK 200400Z 07006KT CAVOK M08/M11 Q1020",
      "taf": "TAF EPKK 200230Z 2003/2103 05008KT 9999 OVC024"
    },
    {
      "icao": "EPKT",
      "alert": "OK",
      "vis_m": 7000,
      "fzfg": false,
      "metar_trigger": false,
      "taf_trigger": false,
      "metar": "METAR EPKT 200400Z 02004KT 7000 NSC M10/M12 Q1019",
      "taf": "TAF EPKT 192330Z 2000/2024 05006KT CAVOK"
    },
    {
      "icao": "EPLB",
      "alert": "OK",
      "vis_m": 2800,
      "fzfg": false,
      "metar_trigger": false,
      "taf_trigger": false,
      "metar": "METAR EPLB 200400Z 28003KT 2800 BR NSC M14/M15 Q1020",
      "taf": "TAF EPLB 192330Z 2000/2024 30003KT 2500 BR NSC"
    },
    {
      "icao": "EPMO",
      "alert": "OK",
      "vis_m": 5000,
      "fzfg": false,
      "metar_trigger": false,
      "taf_trigger": false,
      "metar": "METAR EPMO 200400Z 30005KT 5000 BR NSC M11/M12 Q1022",
      "taf": ""
    },
    {
      "icao": "EPPO",
      "alert": "OK",
      "vis_m": 9999,
      "fzfg": false,
      "metar_trigger": false,
      "taf_trigger": false,
      "metar": "METAR EPPO 200400Z 04004KT CAVOK M08/M10 Q1023",
      "taf": "TAF EPPO 192330Z 2000/2024 05005KT CAVOK"
    },
    {
      "icao": "EPRA",
      "alert": "OK",
      "vis_m": 5000,
      "fzfg": false,
      "metar_trigger": false,
      "taf_trigger": false,
      "metar": "METAR EPRA 200400Z 29003KT 5000 BR NSC M10/M12 Q1021",
      "taf": "TAF EPRA 200230Z 2003/2012 VRB03KT 5000 BR SCT020"
    },
    {
      "icao": "EPRZ",
      "alert": "OK",
      "vis_m": 9999,
      "fzfg": false,
      "metar_trigger": false,
      "taf_trigger": false,
      "metar": "METAR EPRZ 200400Z VRB02KT CAVOK M09/M10 Q1020",
      "taf": "TAF EPRZ 192330Z 2000/2024 03005KT 9999 BKN033"
    },
    {
      "icao": "EPSC",
      "alert": "OK",
      "vis_m": 9999,
      "fzfg": false,
      "metar_trigger": false,
      "taf_trigger": false,
      "metar": "METAR EPSC 200400Z 13002KT CAVOK M12/M13 Q1024",
      "taf": "TAF EPSC 192330Z 2000/2024 VRB02KT CAVOK"
    },
    {
      "icao": "EPSY",
      "alert": "OK",
      "vis_m": 9999,
      "fzfg": false,
      "metar_trigger": false,
      "taf_trigger": false,
      "metar": "METAR EPSY 200400Z 30004KT 260V330 9999 BKN032 OVC039 M06/M07 Q1021",
      "taf": "TAF EPSY 200230Z 2003/2012 28004KT 9999 BKN030"
    },
    {
      "icao": "EPWA",
      "alert": "OK",
      "vis_m": 5000,
      "fzfg": false,
      "metar_trigger": false,
      "taf_trigger": false,
      "metar": "METAR EPWA 200400Z 31004KT 5000 BR NSC M11/M12 Q1022 TEMPO 2000 BR",
      "taf": "TAF EPWA 200230Z 2003/2103 29004KT 7000 NSC"
    },
    {
      "icao": "EPWR",
      "alert": "OK",
      "vis_m": 6000,
      "fzfg": false,
      "metar_trigger": false,
      "taf_trigger": false,
      "metar": "METAR EPWR 200400Z VRB02KT 6000 NSC M09/M11 Q1022",
      "taf": "TAF EPWR 200230Z 2003/2103 VRB02KT 7000 NSC"
    },
    {
      "icao": "ESGG",
      "alert": "OK",
      "vis_m": 9999,
      "fzfg": false,
      "metar_trigger": false,
      "taf_trigger": false,
      "metar": "METAR ESGG 200420Z 15005KT CAVOK M11/M12 Q1020",
      "taf": "TAF ESGG 200230Z 2003/2103 16005KT CAVOK"
    },
    {
      "icao": "ESKN",
      "alert": "OK",
      "vis_m": 9999,
      "fzfg": false,
      "metar_trigger": false,
      "taf_trigger": false,
      "metar": "METAR ESKN 200420Z 25006KT CAVOK M13/M14 Q1018",
      "taf": "TAF ESKN 200230Z 2003/2103 25004KT CAVOK"
    },
    {
      "icao": "ESMS",
      "alert": "OK",
      "vis_m": 9999,
      "fzfg": false,
      "metar_trigger": false,
      "taf_trigger": false,
      "metar": "METAR ESMS 200420Z AUTO VRB03KT 9999 NCD M13/M14 Q1023",
      "taf": "TAF ESMS 200227Z 2003/2103 04006KT CAVOK"
    },
    {
      "icao": "ESSA",
      "alert": "OK",
      "vis_m": 9999,
      "fzfg": false,
      "metar_trigger": false,
      "taf_trigger": false,
      "metar": "METAR ESSA 200420Z 21005KT CAVOK M13/M14 Q1016 NOSIG",
      "taf": "TAF ESSA 200230Z 2003/2103 24006KT CAVOK"
    },
    {
      "icao": "EYKA",
      "alert": "OK",
      "vis_m": 9000,
      "fzfg": false,
      "metar_trigger": false,
      "taf_trigger": false,
      "metar": "METAR EYKA 200420Z 27003KT 9000 NSC M11/M12 Q1020",
      "taf": "TAF EYKA 192300Z 2000/2024 VRB04KT 9000 BKN020"
    },
    {
      "icao": "EYPA",
      "alert": "OK",
      "vis_m": 9999,
      "fzfg": false,
      "metar_trigger": false,
      "taf_trigger": false,
      "metar": "METAR EYPA 200420Z 10001KT 9999 OVC035 M07/M08 Q1021",
      "taf": "TAF EYPA 192300Z 2000/2024 VRB04KT 9000 BKN025"
    },
    {
      "icao": "EYVI",
      "alert": "OK",
      "vis_m": 8000,
      "fzfg": false,
      "metar_trigger": false,
      "taf_trigger": false,
      "metar": "METAR EYVI 200420Z 32008KT 8000 -SN BKN009 M10/M11 Q1017 NOSIG",
      "taf": ""
    },
    {
      "icao": "GCFV",
      "alert": "OK",
      "vis_m": 9999,
      "fzfg": false,
      "metar_trigger": false,
      "taf_trigger": false,
      "metar": "METAR GCFV 200400Z AUTO 03017KT 9999 BKN023 17/12 Q1022",
      "taf": "TAF GCFV 200200Z 2003/2103 03015KT 9999 SCT015 TX21/2014Z TN16/2006Z"
    },
    {
      "icao": "GCLP",
      "alert": "OK",
      "vis_m": 9999,
      "fzfg": false,
      "metar_trigger": false,
      "taf_trigger": false,
      "metar": "METAR GCLP 200400Z 02016KT 9999 BKN025 17/12 Q1022 NOSIG",
      "taf": "TAF GCLP 200200Z 2003/2103 01018KT 9999 SCT020 TX20/2014Z TN16/2006Z"
    },
    {
      "icao": "GCTS",
      "alert": "OK",
      "vis_m": 9999,
      "fzfg": false,
      "metar_trigger": false,
      "taf_trigger": false,
      "metar": "METAR GCTS 200400Z 06017KT 9999 FEW020 16/11 Q1022 NOSIG",
      "taf": "TAF GCTS 200200Z 2003/2103 05010KT 9999 FEW020 TX23/2014Z TN16/2006Z"
    },
    {
      "icao": "GMAD",
      "alert": "OK",
      "vis_m": 600,
      "fzfg": false,
      "metar_trigger": false,
      "taf_trigger": false,
      "metar": "METAR GMAD 200400Z 18004KT 0600 R27/0750V0900D FG BKN001 11/11 Q1020 NOSIG",
      "taf": "TAF GMAD 192300Z 2000/2106 06008KT 8000 NSC"
    },
    {
      "icao": "GMMN",
      "alert": "OK",
      "vis_m": 9999,
      "fzfg": false,
      "metar_trigger": false,
      "taf_trigger": false,
      "metar": "METAR GMMN 200400Z 05006KT 9999 FEW020 07/05 Q1025 NOSIG",
      "taf": "TAF GMMN 192300Z 2000/2106 04008KT 9999 FEW020"
    },
    {
      "icao": "GMMX",
      "alert": "OK",
      "vis_m": 9999,
      "fzfg": false,
      "metar_trigger": false,
      "taf_trigger": false,
      "metar": "METAR GMMX 200400Z 09005KT CAVOK 08/07 Q1022 NOSIG",
      "taf": "TAF GMMX 192300Z 2000/2106 04006KT CAVOK"
    },
    {
      "icao": "HEGN",
      "alert": "OK",
      "vis_m": 9999,
      "fzfg": false,
      "metar_trigger": false,
      "taf_trigger": false,
      "metar": "METAR HEGN 200400Z 30014KT CAVOK 14/06 Q1019 NOSIG",
      "taf": ""
    },
    {
      "icao": "HEMA",
      "alert": "OK",
      "vis_m": 9999,
      "fzfg": false,
      "metar_trigger": false,
      "taf_trigger": false,
      "metar": "METAR HEMA 200400Z 29010KT CAVOK 17/07 Q1016 NOSIG",
      "taf": ""
    },
    {
      "icao": "HESH",
      "alert": "OK",
      "vis_m": 9999,
      "fzfg": false,
      "metar_trigger": false,
      "taf_trigger": false,
      "metar": "METAR HESH 200400Z 34010KT CAVOK 19/09 Q1017 NOSIG",
      "taf": ""
    },
    {
      "icao": "HESX",
      "alert": "OK",
      "vis_m": 4000,
      "fzfg": false,
      "metar_trigger": false,
      "taf_trigger": false,
      "metar": "METAR HESX 200400Z 04005KT 4000 BR NSC 08/06 Q1022 NOSIG",
      "taf": ""
    },
    {
      "icao": "LATI",
      "alert": "OK",
      "vis_m": 9999,
      "fzfg": false,
      "metar_trigger": false,
      "taf_trigger": false,
      "metar": "METAR LATI 200420Z 08006KT 9999 -RA FEW027CB SCT045 OVC060 10/07 Q1008 NOSIG",
      "taf": "TAF LATI 192300Z 2000/2024 14012KT 9999 SCT040 BKN060 TX14/2013Z TN09/2004Z"
    },
    {
      "icao": "LBPD",
      "alert": "OK",
      "vis_m": 9999,
      "fzfg": false,
      "metar_trigger": false,
      "taf_trigger": false,
      "metar": "METAR LBPD 200400Z AUTO VRB02KT 9999 BKN250/// 02/02 Q1014 NOSIG",
      "taf": "TAF LBPD 192300Z 2000/2024 VRB03KT 9999 SCT080"
    },
    {
      "icao": "LBSF",
      "alert": "OK",
      "vis_m": 9999,
      "fzfg": false,
      "metar_trigger": false,
      "taf_trigger": false,
      "metar": "METAR LBSF 200400Z AUTO 09010KT 9999 NSC 04/M01 Q1011 NOSIG",
      "taf": "TAF LBSF 192300Z 2000/2024 11012KT 9999 BKN070"
    },
    {
      "icao": "LBWN",
      "alert": "OK",
      "vis_m": 9999,
      "fzfg": false,
      "metar_trigger": false,
      "taf_trigger": false,
      "metar": "METAR LBWN 200400Z AUTO VRB01KT 9999 NCD 03/01 Q1015 NOSIG",
      "taf": ""
    },
    {
      "icao": "LCLK",
      "alert": "OK",
      "vis_m": 9999,
      "fzfg": false,
      "metar_trigger": false,
      "taf_trigger": false,
      "metar": "METAR LCLK 200400Z 34006KT 310V030 9999 FEW028 SCT050 12/08 Q1023 NOSIG",
      "taf": "TAF LCLK 192330Z 2000/2100 35007KT 9999 FEW030"
    },
    {
      "icao": "LCPH",
      "alert": "OK",
      "vis_m": 9999,
      "fzfg": false,
      "metar_trigger": false,
      "taf_trigger": false,
      "metar": "METAR LCPH 200400Z 01008KT 010V080 9999 FEW040 09/05 Q1023 NOSIG",
      "taf": "TAF LCPH 192330Z 2000/2100 04007KT 9999 FEW025"
    },
    {
      "icao": "LEAL",
      "alert": "OK",
      "vis_m": 9999,
      "fzfg": false,
      "metar_trigger": false,
      "taf_trigger": false,
      "metar": "METAR LEAL 200400Z 28008KT 250V340 CAVOK 12/M00 Q1025 NOSIG",
      "taf": ""
    },
    {
      "icao": "LEBB",
      "alert": "OK",
      "vis_m": 9999,
      "fzfg": false,
      "metar_trigger": false,
      "taf_trigger": false,
      "metar": "METAR LEBB 200400Z 11003KT 080V140 9999 FEW030 SCT060 07/07 Q1029 NOSIG",
      "taf": "TAF LEBB 192300Z 2000/2024 30009KT 9999 FEW020 BKN025 TX14/2013Z TN07/2005Z"
    },
    {
      "icao": "LEBL",
      "alert": "OK",
      "vis_m": 9999,
      "fzfg": false,
      "metar_trigger": false,
      "taf_trigger": false,
      "metar": "METAR LEBL 200400Z 33017KT 9999 FEW035 11/01 Q1018 NOSIG",
      "taf": "TAF LEBL 192300Z 2000/2024 31012KT 9999 FEW040 TX18/2013Z TN09/2006Z"
    },
    {
      "icao": "LECH",
      "alert": "OK",
      "vis_m": 9999,
      "fzfg": false,
      "metar_trigger": false,
      "taf_trigger": false,
      "metar": "METAR LECH 200400Z AUTO 30019G39KT 270V350 CAVOK 11/M03 Q1021",
      "taf": ""
    },
    {
      "icao": "LEMD",
      "alert": "OK",
      "vis_m": 9999,
      "fzfg": false,
      "metar_trigger": false,
      "taf_trigger": false,
      "metar": "METAR LEMD 200400Z 00000KT CAVOK 00/00 Q1027 NOSIG",
      "taf": "TAF LEMD 192300Z 2000/2106 VRB04KT CAVOK TX14/2015Z TNM00/2006Z"
    },
    {
      "icao": "LEMG",
      "alert": "OK",
      "vis_m": 9999,
      "fzfg": false,
      "metar_trigger": false,
      "taf_trigger": false,
      "metar": "METAR LEMG 200400Z 30008KT 270V340 CAVOK 10/02 Q1026 NOSIG",
      "taf": "TAF LEMG 192300Z 2000/2024 29012KT CAVOK TX18/2014Z TN11/2007Z"
    },
    {
      "icao": "LEVC",
      "alert": "OK",
      "vis_m": 9999,
      "fzfg": false,
      "metar_trigger": false,
      "taf_trigger": false,
      "metar": "METAR LEVC 200400Z 29013KT CAVOK 11/M01 Q1024 NOSIG",
      "taf": "TAF LEVC 192300Z 2000/2024 27009KT CAVOK TX21/2014Z TN08/2006Z"
    },
    {
      "icao": "LEXJ",
      "alert": "OK",
      "vis_m": 9999,
      "fzfg": false,
      "metar_trigger": false,
      "taf_trigger": false,
      "metar": "METAR LEXJ 200400Z AUTO 25003KT 210V280 9999 4300E FEW042 OVC058 09/05 Q1029",
      "taf": "TAF LEXJ 200200Z 2003/2103 22009KT 9999 SCT040 TX15/2013Z TN07/2103Z"
    },
    {
      "icao": "LEZG",
      "alert": "OK",
      "vis_m": 9999,
      "fzfg": false,
      "metar_trigger": false,
      "taf_trigger": false,
      "metar": "METAR LEZG 200400Z 28016KT 9999 FEW040 07/02 Q1026 NOSIG",
      "taf": ""
    },
    {
      "icao": "LEZL",
      "alert": "OK",
      "vis_m": 9999,
      "fzfg": false,
      "metar_trigger": false,
      "taf_trigger": false,
      "metar": "METAR LEZL 200400Z AUTO VRB01KT CAVOK 07/06 Q1028",
      "taf": "TAF LEZL 200200Z 2003/2103 03006KT CAVOK TX19/2015Z TN06/2007Z"
    },
    {
      "icao": "LFBD",
      "alert": "OK",
      "vis_m": 9999,
      "fzfg": false,
      "metar_trigger": false,
      "taf_trigger": false,
      "metar": "METAR LFBD 200400Z AUTO 25004KT 9999 FEW049 OVC060 08/07 Q1026 NOSIG",
      "taf": "TAF LFBD 192300Z 2000/2106 29010KT 9999 BKN030 TX13/2013Z TN07/2006Z"
    },
    {
      "icao": "LFLL",
      "alert": "OK",
      "vis_m": 9999,
      "fzfg": false,
      "metar_trigger": false,
      "taf_trigger": false,
      "metar": "METAR LFLL 200400Z 32010KT 9999 BKN026 07/05 Q1018 NOSIG",
      "taf": "TAF LFLL 192300Z 2000/2106 30010KT 9999 BKN030"
    },
    {
      "icao": "LFLS",
      "alert": "OK",
      "vis_m": 9999,
      "fzfg": false,
      "metar_trigger": false,
      "taf_trigger": false,
      "metar": "METAR LFLS 200400Z AUTO 31011KT 9999 -DZ BKN015 OVC020 06/05 Q1018 TEMPO 4000 -RA BKN012 SCT020TCU",
      "taf": "TAF LFLS 200200Z 2003/2103 33010KT 9999 SCT015 OVC030"
    },
    {
      "icao": "LFMN",
      "alert": "OK",
      "vis_m": 9999,
      "fzfg": false,
      "metar_trigger": false,
      "taf_trigger": false,
      "metar": "METAR LFMN 200400Z 04004KT 360V070 CAVOK 10/01 Q1006 TEMPO VRB03KT",
      "taf": "TAF LFMN 200200Z 2003/2109 33010KT CAVOK"
    },
    {
      "icao": "LFOB",
      "alert": "OK",
      "vis_m": 9999,
      "fzfg": false,
      "metar_trigger": false,
      "taf_trigger": false,
      "metar": "METAR LFOB 200400Z AUTO 28008KT 9999 OVC020 05/04 Q1019 NOSIG",
      "taf": "TAF LFOB 192300Z 2000/2024 32012KT 9999 BKN012 BKN020"
    },
    {
      "icao": "LFPO",
      "alert": "OK",
      "vis_m": 9999,
      "fzfg": false,
      "metar_trigger": false,
      "taf_trigger": false,
      "metar": "METAR LFPO 200400Z AUTO 30008KT 9999 OVC025 06/03 Q1019 NOSIG",
      "taf": "TAF LFPO 192300Z 2000/2106 30010G20KT 9999 SCT020"
    },
    {
      "icao": "LFSB",
      "alert": "OK",
      "vis_m": 6000,
      "fzfg": false,
      "metar_trigger": false,
      "taf_trigger": false,
      "metar": "METAR LFSB 200400Z AUTO 34006KT 6000 OVC003 04/03 Q1016 TEMPO OVC008",
      "taf": ""
    },
    {
      "icao": "LGAV",
      "alert": "OK",
      "vis_m": 9999,
      "fzfg": false,
      "metar_trigger": false,
      "taf_trigger": false,
      "metar": "METAR LGAV 200420Z COR 00000KT 9999 SCT020 11/08 Q1018 NOSIG",
      "taf": "TAF LGAV 192300Z 2000/2024 21010KT 9999 FEW018"
    },
    {
      "icao": "LGTS",
      "alert": "OK",
      "vis_m": 9999,
      "fzfg": false,
      "metar_trigger": false,
      "taf_trigger": false,
      "metar": "METAR LGTS 200420Z VRB03KT 9999 FEW008 07/07 Q1013 NOSIG",
      "taf": "TAF LGTS 192300Z 2000/2024 14013KT 9999 SCT025"
    },
    {
      "icao": "LHBP",
      "alert": "OK",
      "vis_m": 9999,
      "fzfg": false,
      "metar_trigger": false,
      "taf_trigger": false,
      "metar": "METAR LHBP 200400Z 06013G27KT 9999 FEW015 BKN084 03/00 Q1009 NOSIG",
      "taf": "TAF LHBP 192315Z 2000/2024 05012KT 9999 SCT008 BKN070"
    },
    {
      "icao": "LHDC",
      "alert": "OK",
      "vis_m": 9999,
      "fzfg": false,
      "metar_trigger": false,
      "taf_trigger": false,
      "metar": "METAR LHDC 200345Z AUTO 04017KT 010V070 CAVOK 02/01 Q1011",
      "taf": ""
    },
    {
      "icao": "LIBD",
      "alert": "OK",
      "vis_m": 9999,
      "fzfg": false,
      "metar_trigger": false,
      "taf_trigger": false,
      "metar": "METAR LIBD 200420Z 22009KT CAVOK 09/05 Q1005",
      "taf": "TAF LIBD 192300Z 2000/2024 24012KT 9999 SCT040"
    },
    {
      "icao": "LIBG",
      "alert": "OK",
      "vis_m": null,
      "fzfg": false,
      "metar_trigger": false,
      "taf_trigger": false,
      "metar": "",
      "taf": "TAF LIBG 191700Z 1918/2003 17015G30KT 9999 SCT020"
    },
    {
      "icao": "LIBP",
      "alert": "OK",
      "vis_m": 9999,
      "fzfg": false,
      "metar_trigger": false,
      "taf_trigger": false,
      "metar": "METAR LIBP 200420Z AUTO 24006KT 9999 BKN100/// 10/04 Q1003",
      "taf": "TAF LIBP 192300Z 2000/2024 23010KT 9999 SCT040"
    },
    {
      "icao": "LIBR",
      "alert": "OK",
      "vis_m": 9999,
      "fzfg": false,
      "metar_trigger": false,
      "taf_trigger": false,
      "metar": "METAR LIBR 200420Z 22011KT CAVOK 12/07 Q1006",
      "taf": "TAF LIBR 192300Z 2000/2024 23013G25KT 9999 SCT025"
    },
    {
      "icao": "LICA",
      "alert": "OK",
      "vis_m": 9999,
      "fzfg": false,
      "metar_trigger": false,
      "taf_trigger": false,
      "metar": "METAR LICA 200420Z AUTO 25018KT 9999 SCT025/// BKN056/// 14/10 Q1010",
      "taf": "TAF LICA 192300Z 2000/2024 26020G30KT 9999 SCT030 BKN050"
    },
    {
      "icao": "LICC",
      "alert": "OK",
      "vis_m": 9999,
      "fzfg": false,
      "metar_trigger": false,
      "taf_trigger": false,
      "metar": "METAR LICC 200420Z 27009KT CAVOK 09/05 Q1012",
      "taf": "TAF LICC 192300Z 2000/2024 26018G28KT 9999 FEW040"
    },
    {
      "icao": "LICJ",
      "alert": "OK",
      "vis_m": 9999,
      "fzfg": false,
      "metar_trigger": false,
      "taf_trigger": false,
      "metar": "METAR LICJ 200420Z 26022KT 9999 SCT030 15/09 Q1013",
      "taf": "TAF LICJ 192300Z 2000/2024 27020G30KT 9999 SCT035"
    },
    {
      "icao": "LIMC",
      "alert": "OK",
      "vis_m": 9999,
      "fzfg": false,
      "metar_trigger": false,
      "taf_trigger": false,
      "metar": "METAR LIMC 200420Z VRB02KT CAVOK 01/01 Q1005 NOSIG",
      "taf": "TAF LIMC 192300Z 2000/2106 33007KT 9999 BKN025"
    },
    {
      "icao": "LIME",
      "alert": "OK",
      "vis_m": 9999,
      "fzfg": false,
      "metar_trigger": false,
      "taf_trigger": false,
      "metar": "METAR LIME 200420Z 32002KT CAVOK 03/03 Q1004 NOSIG",
      "taf": "TAF LIME 192300Z 2000/2024 VRB05KT 8000 BKN020"
    },
    {
      "icao": "LIMF",
      "alert": "OK",
      "vis_m": 9999,
      "fzfg": false,
      "metar_trigger": false,
      "taf_trigger": false,
      "metar": "METAR LIMF 200420Z 29004KT 250V350 CAVOK 03/01 Q1006",
      "taf": "TAF LIMF 192300Z 2000/2024 VRB05KT 8000 FEW040"
    },
    {
      "icao": "LIMJ",
      "alert": "OK",
      "vis_m": 9999,
      "fzfg": false,
      "metar_trigger": false,
      "taf_trigger": false,
      "metar": "METAR LIMJ 200420Z 05013KT CAVOK 10/03 Q1005",
      "taf": "TAF LIMJ 192300Z 2000/2024 VRB05KT 9999 SCT030"
    },
    {
      "icao": "LIPE",
      "alert": "OK",
      "vis_m": 9999,
      "fzfg": false,
      "metar_trigger": false,
      "taf_trigger": false,
      "metar": "METAR LIPE 200420Z 24007KT CAVOK 05/03 Q1005",
      "taf": "TAF LIPE 192300Z 2000/2024 29007KT 9999 FEW060"
    },
    {
      "icao": "LIPH",
      "alert": "OK",
      "vis_m": 9999,
      "fzfg": false,
      "metar_trigger": false,
      "taf_trigger": false,
      "metar": "METAR LIPH 200420Z AUTO VRB01KT 9999 NCD 04/04 Q1004",
      "taf": "TAF LIPH 192300Z 2000/2024 VRB05KT 8000 SCT050"
    },
    {
      "icao": "LIPQ",
      "alert": "OK",
      "vis_m": 9999,
      "fzfg": false,
      "metar_trigger": false,
      "taf_trigger": false,
      "metar": "METAR LIPQ 200420Z AUTO 14006KT 9999 -RA OVC065/// 08/05 Q1004",
      "taf": "TAF LIPQ 192300Z 2000/2024 VRB05KT 7000 BKN040"
    },
    {
      "icao": "LIPR",
      "alert": "OK",
      "vis_m": 9999,
      "fzfg": false,
      "metar_trigger": false,
      "taf_trigger": false,
      "metar": "METAR LIPR 200420Z AUTO 26004KT 9999 NCD 04/03 Q1004",
      "taf": "TAF LIPR 192300Z 2000/2024 VRB05KT 9999 SCT040"
    },
    {
      "icao": "LIPX",
      "alert": "OK",
      "vis_m": 9999,
      "fzfg": false,
      "metar_trigger": false,
      "taf_trigger": false,
      "metar": "METAR LIPX 200420Z 29005KT CAVOK 05/03 Q1004",
      "taf": "TAF LIPX 192300Z 2000/2024 VRB06KT 8000 BKN030"
    },
    {
      "icao": "LIPY",
      "alert": "OK",
      "vis_m": 9999,
      "fzfg": false,
      "metar_trigger": false,
      "taf_trigger": false,
      "metar": "METAR LIPY 200420Z AUTO VRB01KT 9999 SCT038/// 07/06 Q1004",
      "taf": "TAF LIPY 192300Z 2000/2024 VRB05KT 9999 SCT040"
    },
    {
      "icao": "LIPZ",
      "alert": "OK",
      "vis_m": 9999,
      "fzfg": false,
      "metar_trigger": false,
      "taf_trigger": false,
      "metar": "METAR LIPZ 200420Z 04003KT CAVOK 05/04 Q1004 NOSIG",
      "taf": "TAF LIPZ 192300Z 2000/2106 31005KT 9000 FEW030"
    },
    {
      "icao": "LIRF",
      "alert": "OK",
      "vis_m": 9999,
      "fzfg": false,
      "metar_trigger": false,
      "taf_trigger": false,
      "metar": "METAR LIRF 200420Z 10006KT 9999 SCT035 SCT055 08/08 Q1006 NOSIG",
      "taf": "TAF LIRF 192300Z 2000/2106 VRB05KT 9999 FEW025"
    },
    {
      "icao": "LIRN",
      "alert": "OK",
      "vis_m": 9999,
      "fzfg": false,
      "metar_trigger": false,
      "taf_trigger": false,
      "metar": "METAR LIRN 200420Z VRB02KT CAVOK 07/06 Q1007 NOSIG",
      "taf": "TAF LIRN 192300Z 2000/2024 24008KT 9999 SCT030"
    },
    {
      "icao": "LIRP",
      "alert": "OK",
      "vis_m": 9999,
      "fzfg": false,
      "metar_trigger": false,
      "taf_trigger": false,
      "metar": "METAR LIRP 200415Z 12003KT 9999 SCT025 06/06 Q1005 NOSIG",
      "taf": "TAF LIRP 192300Z 2000/2024 11004KT 9999 FEW020 SCT060"
    },
    {
      "icao": "LIRZ",
      "alert": "OK",
      "vis_m": 9999,
      "fzfg": false,
      "metar_trigger": false,
      "taf_trigger": false,
      "metar": "METAR LIRZ 200420Z AUTO VRB02KT 9999 FEW026/// SCT120/// 07/06 Q1005",
      "taf": "TAF LIRZ 192300Z 2000/2024 VRB05KT 8000 SCT035"
    },
    {
      "icao": "LJLJ",
      "alert": "OK",
      "vis_m": 5000,
      "fzfg": false,
      "metar_trigger": false,
      "taf_trigger": false,
      "metar": "METAR LJLJ 200400Z 13003KT 5000 -RA BR FEW003 OVC020 02/02 Q1005 NOSIG",
      "taf": "TAF LJLJ 192300Z 2000/2100 VRB02KT 7000 -RA OVC020"
    },
    {
      "icao": "LKMT",
      "alert": "OK",
      "vis_m": 9999,
      "fzfg": false,
      "metar_trigger": false,
      "taf_trigger": false,
      "metar": "METAR LKMT 200400Z 03015KT CAVOK M05/M07 Q1017 NOSIG",
      "taf": "TAF LKMT 192300Z 2000/2024 03014KT 8000 SCT012 OVC020"
    },
    {
      "icao": "LKPR",
      "alert": "OK",
      "vis_m": 8000,
      "fzfg": false,
      "metar_trigger": false,
      "taf_trigger": false,
      "metar": "METAR LKPR 200400Z 03005KT 8000 NSC M05/M07 Q1017 NOSIG",
      "taf": "TAF LKPR 200200Z 2003/2109 04007KT CAVOK"
    },
    {
      "icao": "LLBG",
      "alert": "OK",
      "vis_m": 9999,
      "fzfg": false,
      "metar_trigger": false,
      "taf_trigger": false,
      "metar": "METAR LLBG 200420Z VRB02KT CAVOK 11/06 Q1022 NOSIG",
      "taf": "TAF LLBG 192303Z 2000/2024 VRB04KT CAVOK"
    },
    {
      "icao": "LMML",
      "alert": "OK",
      "vis_m": 9999,
      "fzfg": false,
      "metar_trigger": false,
      "taf_trigger": false,
      "metar": "METAR LMML 200415Z 28015KT 9999 FEW025 BKN049 13/08 Q1016 NOSIG",
      "taf": "TAF LMML 192300Z 2000/2024 31017KT 9999 FEW025"
    },
    {
      "icao": "LOWW",
      "alert": "OK",
      "vis_m": 1700,
      "fzfg": false,
      "metar_trigger": false,
      "taf_trigger": false,
      "metar": "METAR LOWW 200420Z 34012KT 1700 SN FEW003 BKN005 M02/M03 Q1013 TEMPO 3000 -SN BKN007",
      "taf": "TAF LOWW 200215Z 2003/2109 36012KT 1400 SN BKN003 TXM01/2015Z TNM06/2105Z"
    },
    {
      "icao": "LPFR",
      "alert": "OK",
      "vis_m": 9999,
      "fzfg": false,
      "metar_trigger": false,
      "taf_trigger": false,
      "metar": "METAR LPFR 200400Z 33003KT 200V010 CAVOK 08/05 Q1028",
      "taf": "TAF LPFR 192300Z 2000/2024 36005KT CAVOK"
    },
    {
      "icao": "LPMA",
      "alert": "OK",
      "vis_m": 9999,
      "fzfg": false,
      "metar_trigger": false,
      "taf_trigger": false,
      "metar": "METAR LPMA 200400Z 03012KT 360V070 9999 BKN016 16/09 Q1027",
      "taf": "TAF LPMA 192300Z 2000/2024 02012KT 9999 SCT015"
    },
    {
      "icao": "LPPR",
      "alert": "OK",
      "vis_m": 9999,
      "fzfg": false,
      "metar_trigger": false,
      "taf_trigger": false,
      "metar": "METAR LPPR 200400Z 00000KT 9999 FEW015 06/05 Q1030",
      "taf": "TAF LPPR 192300Z 2000/2024 VRB02KT 9999 SCT030"
    },
    {
      "icao": "LPPS",
      "alert": "OK",
      "vis_m": 9999,
      "fzfg": false,
      "metar_trigger": false,
      "taf_trigger": false,
      "metar": "METAR LPPS 200400Z 08010KT 040V120 9999 FEW015 SCT030 15/09 Q1027",
      "taf": "TAF LPPS 192300Z 2000/2106 07010KT 9999 FEW015 BKN030"
    },
    {
      "icao": "LPPT",
      "alert": "OK",
      "vis_m": 9999,
      "fzfg": false,
      "metar_trigger": false,
      "taf_trigger": false,
      "metar": "METAR LPPT 200400Z 32004KT 290V350 CAVOK 08/06 Q1029",
      "taf": "TAF LPPT 192300Z 2000/2106 32008KT CAVOK"
    },
    {
      "icao": "LQBK",
      "alert": "OK",
      "vis_m": 7000,
      "fzfg": false,
      "metar_trigger": false,
      "taf_trigger": false,
      "metar": "METAR LQBK 200400Z 26008KT 240V300 7000 BKN047 08/07 Q1002 NOSIG",
      "taf": "TAF LQBK 192300Z 2000/2024 33006KT 9999 SCT015 BKN035 TX10/2000Z TNM00/2024Z"
    },
    {
      "icao": "LQSA",
      "alert": "OK",
      "vis_m": 9999,
      "fzfg": false,
      "metar_trigger": false,
      "taf_trigger": false,
      "metar": "METAR LQSA 200400Z 14007KT 9999 BKN050 08/06 Q1002",
      "taf": ""
    },
    {
      "icao": "LQTZ",
      "alert": "OK",
      "vis_m": 9999,
      "fzfg": false,
      "metar_trigger": false,
      "taf_trigger": false,
      "metar": "METAR LQTZ 200400Z 12008KT 9999 BKN070 09/05 Q1002",
      "taf": "TAF LQTZ 192300Z 2000/2024 09006KT CAVOK TX10/2000Z TNM01/2024Z"
    },
    {
      "icao": "LRBC",
      "alert": "OK",
      "vis_m": 9999,
      "fzfg": false,
      "metar_trigger": false,
      "taf_trigger": false,
      "metar": "METAR LRBC 200400Z 02003KT 350V050 CAVOK M01/M03 Q1014",
      "taf": "TAF LRBC 200200Z 2003/2012 VRB04KT CAVOK"
    },
    {
      "icao": "LRBS",
      "alert": "OK",
      "vis_m": 3000,
      "fzfg": false,
      "metar_trigger": false,
      "taf_trigger": false,
      "metar": "METAR LRBS 200400Z 05001KT 3000 BR NSC M03/M03 Q1013 NOSIG",
      "taf": "TAF LRBS 192300Z 2000/2024 VRB03KT CAVOK"
    },
    {
      "icao": "LRBV",
      "alert": "OK",
      "vis_m": 9999,
      "fzfg": false,
      "metar_trigger": false,
      "taf_trigger": false,
      "metar": "METAR LRBV 200400Z AUTO VRB02KT 9999 FEW100/// M03/M06 Q1012",
      "taf": "TAF LRBV 200200Z 2003/2012 VRB04KT CAVOK"
    },
    {
      "icao": "LRCL",
      "alert": "OK",
      "vis_m": 9999,
      "fzfg": false,
      "metar_trigger": false,
      "taf_trigger": false,
      "metar": "METAR LRCL 200400Z 07006KT 9999 OVC055 03/M02 Q1011",
      "taf": "TAF LRCL 200200Z 2003/2012 06005KT 9999 BKN050"
    },
    {
      "icao": "LRCV",
      "alert": "OK",
      "vis_m": 9999,
      "fzfg": false,
      "metar_trigger": false,
      "taf_trigger": false,
      "metar": "METAR LRCV 200400Z 09006KT CAVOK 01/M02 Q1011",
      "taf": "TAF LRCV 200200Z 2003/2012 08010KT CAVOK"
    },
    {
      "icao": "LRIA",
      "alert": "OK",
      "vis_m": 9999,
      "fzfg": false,
      "metar_trigger": false,
      "taf_trigger": false,
      "metar": "METAR LRIA 200400Z 05003KT 010V090 CAVOK M00/M03 Q1015",
      "taf": "TAF LRIA 200200Z 2003/2012 10007KT CAVOK"
    },
    {
      "icao": "LROP",
      "alert": "OK",
      "vis_m": 5000,
      "fzfg": false,
      "metar_trigger": false,
      "taf_trigger": false,
      "metar": "METAR LROP 200400Z 03005KT 5000 BR NSC M02/M05 Q1013 TEMPO 3000 BR",
      "taf": "TAF LROP 192300Z 2000/2024 VRB03KT 5000 BR NSC"
    },
    {
      "icao": "LRSB",
      "alert": "OK",
      "vis_m": 9999,
      "fzfg": false,
      "metar_trigger": false,
      "taf_trigger": false,
      "metar": "METAR LRSB 200400Z 21004KT 160V240 9999 BKN070 01/M00 Q1010",
      "taf": "TAF LRSB 192300Z 2000/2024 VRB04KT CAVOK"
    },
    {
      "icao": "LRSM",
      "alert": "OK",
      "vis_m": 9999,
      "fzfg": false,
      "metar_trigger": false,
      "taf_trigger": false,
      "metar": "METAR LRSM 200400Z AUTO 02008KT 9999 OVC055/// 03/02 Q1012",
      "taf": "TAF LRSM 200200Z 2003/2012 03008KT 9999 BKN045"
    },
    {
      "icao": "LRSV",
      "alert": "OK",
      "vis_m": 5000,
      "fzfg": false,
      "metar_trigger": false,
      "taf_trigger": false,
      "metar": "METAR LRSV 200400Z 31011KT 5000 BR BKN004 M02/M02 Q1014",
      "taf": ""
    },
    {
      "icao": "LRTM",
      "alert": "OK",
      "vis_m": 9999,
      "fzfg": false,
      "metar_trigger": false,
      "taf_trigger": false,
      "metar": "METAR LRTM 200400Z AUTO 08005KT 9999 NCD 01/M00 Q1011",
      "taf": "TAF LRTM 200200Z 2003/2012 VRB04KT CAVOK"
    },
    {
      "icao": "LRTR",
      "alert": "OK",
      "vis_m": 9999,
      "fzfg": false,
      "metar_trigger": false,
      "taf_trigger": false,
      "metar": "METAR LRTR 200400Z 09012KT CAVOK 07/01 Q1007 NOSIG",
      "taf": "TAF LRTR 192300Z 2000/2024 08010KT CAVOK"
    },
    {
      "icao": "LTAC",
      "alert": "OK",
      "vis_m": 9999,
      "fzfg": false,
      "metar_trigger": false,
      "taf_trigger": false,
      "metar": "METAR LTAC 200420Z VRB01KT CAVOK M04/M05 Q1023 NOSIG RMK RWY21C 00000KT RWY03L 00000KT RWY21R 00000KT RWY03R 13003KT RWY21L 15001KT",
      "taf": "TAF LTAC 192240Z 2000/2024 VRB02KT CAVOK"
    },
    {
      "icao": "LTFM",
      "alert": "OK",
      "vis_m": 9999,
      "fzfg": false,
      "metar_trigger": false,
      "taf_trigger": false,
      "metar": "METAR LTFM 200420Z 16009KT CAVOK 08/02 Q1018 NOSIG",
      "taf": "TAF LTFM 192240Z 2000/2106 19013KT CAVOK"
    },
    {
      "icao": "LUKK",
      "alert": "OK",
      "vis_m": 9999,
      "fzfg": false,
      "metar_trigger": false,
      "taf_trigger": false,
      "metar": "METAR LUKK 200400Z 16005KT CAVOK M01/M02 Q1015 NOSIG",
      "taf": "TAF LUKK 192306Z 2000/2024 VRB04KT 5000 BR SCT012"
    },
    {
      "icao": "LWOH",
      "alert": "OK",
      "vis_m": null,
      "fzfg": false,
      "metar_trigger": false,
      "taf_trigger": false,
      "metar": "",
      "taf": "TAF LWOH 200250Z 2003/2103 18012KT 9999 BKN040"
    },
    {
      "icao": "LWSK",
      "alert": "OK",
      "vis_m": 9999,
      "fzfg": false,
      "metar_trigger": false,
      "taf_trigger": false,
      "metar": "METAR LWSK 200420Z VRB03KT 9999 FEW045 SCT085 08/02 Q1010 WS R34 NOSIG",
      "taf": "TAF LWSK 200250Z 2003/2103 15012KT 9999 SCT040 OVC060"
    },
    {
      "icao": "LYBE",
      "alert": "OK",
      "vis_m": 9999,
      "fzfg": false,
      "metar_trigger": false,
      "taf_trigger": false,
      "metar": "METAR LYBE 200400Z 13013KT 9999 -RA SCT035 10/03 Q1005 NOSIG",
      "taf": "TAF LYBE 192300Z 2000/2024 13017KT CAVOK TX09/2000Z TN02/2024Z"
    },
    {
      "icao": "LYNI",
      "alert": "OK",
      "vis_m": 9999,
      "fzfg": false,
      "metar_trigger": false,
      "taf_trigger": false,
      "metar": "METAR LYNI 200400Z 09006KT 9999 BKN083 09/01 Q1008 NOSIG",
      "taf": "TAF LYNI 192300Z 2000/2024 11005KT CAVOK TX08/2012Z TN03/2024Z"
    },
    {
      "icao": "LYPG",
      "alert": "OK",
      "vis_m": 9999,
      "fzfg": false,
      "metar_trigger": false,
      "taf_trigger": false,
      "metar": "METAR LYPG 200400Z 09007KT 9999 -RA FEW023 FEW027TCU BKN040 10/09 Q1005 RESHRA NOSIG",
      "taf": "TAF LYPG 192300Z 2000/2024 14015G25KT 9999 FEW025 SCT040 OVC070 TX15/2000Z TN06/2024Z"
    },
    {
      "icao": "LZIB",
      "alert": "OK",
      "vis_m": 6000,
      "fzfg": false,
      "metar_trigger": false,
      "taf_trigger": false,
      "metar": "METAR LZIB 200400Z 02012KT 6000 -SN FEW004 BKN020 BKN024 01/00 Q1011 NOSIG",
      "taf": "TAF LZIB 192315Z 2000/2100 02012KT 7000 -RASN FEW004 BKN018"
    },
    {
      "icao": "LZKZ",
      "alert": "OK",
      "vis_m": 8000,
      "fzfg": false,
      "metar_trigger": false,
      "taf_trigger": false,
      "metar": "METAR LZKZ 200400Z 36023KT 8000 NSC M00/M04 Q1014 NOSIG",
      "taf": "TAF LZKZ 192315Z 2000/2100 01012KT 7000 FEW023 BKN032 OVC040"
    },
    {
      "icao": "LZTT",
      "alert": "OK",
      "vis_m": 9999,
      "fzfg": false,
      "metar_trigger": false,
      "taf_trigger": false,
      "metar": "METAR LZTT 200400Z 08010KT 9999 FEW005 OVC013 M04/M07 Q1014",
      "taf": "TAF LZTT 192315Z 2000/2100 07012KT 9999 FEW010 OVC022"
    },
    {
      "icao": "OEJN",
      "alert": "OK",
      "vis_m": 6000,
      "fzfg": false,
      "metar_trigger": false,
      "taf_trigger": false,
      "metar": "METAR OEJN 200400Z 02004KT 6000 FEW020 24/19 Q1013 NOSIG",
      "taf": "TAF OEJN 192300Z 2000/2106 02006KT 7000 NSC"
    },
    {
      "icao": "OEMA",
      "alert": "OK",
      "vis_m": 9999,
      "fzfg": false,
      "metar_trigger": false,
      "taf_trigger": false,
      "metar": "METAR OEMA 200400Z 03006KT CAVOK 19/00 Q1022 NOSIG",
      "taf": "TAF OEMA 192300Z 2000/2106 VRB03KT 7000 NSC"
    },
    {
      "icao": "OJAI",
      "alert": "OK",
      "vis_m": 4000,
      "fzfg": false,
      "metar_trigger": false,
      "taf_trigger": false,
      "metar": "METAR OJAI 200400Z 07008KT 4000 BR NSC 06/03 Q1024 NOSIG",
      "taf": ""
    },
    {
      "icao": "OMAA",
      "alert": "OK",
      "vis_m": 9999,
      "fzfg": false,
      "metar_trigger": false,
      "taf_trigger": false,
      "metar": "METAR OMAA 200400Z 06005KT CAVOK 18/07 Q1019 NOSIG",
      "taf": "TAF OMAA 192300Z 2000/2106 06007KT 8000 NSC"
    },
    {
      "icao": "OMDB",
      "alert": "OK",
      "vis_m": 9999,
      "fzfg": false,
      "metar_trigger": false,
      "taf_trigger": false,
      "metar": "METAR OMDB 200400Z VRB02KT CAVOK 22/09 Q1019 NOSIG",
      "taf": "TAF OMDB 192300Z 2000/2106 08005KT CAVOK"
    },
    {
      "icao": "UAAA",
      "alert": "OK",
      "vis_m": 5000,
      "fzfg": false,
      "metar_trigger": false,
      "taf_trigger": false,
      "metar": "SPECI UAAA 200415Z 05003MPS 5000 BR BKN005 OVC100 07/06 Q1025 TEMPO 0800 FG RMK QBB160",
      "taf": ""
    },
    {
      "icao": "UBBB",
      "alert": "OK",
      "vis_m": 9999,
      "fzfg": false,
      "metar_trigger": false,
      "taf_trigger": false,
      "metar": "METAR UBBB 200400Z 36012KT CAVOK 08/04 Q1028 NOSIG",
      "taf": "TAF UBBB 192304Z 2000/2024 32018G28KT 9999 BKN030 TX10/2010Z TN07/2002Z"
    },
    {
      "icao": "UDSG",
      "alert": "OK",
      "vis_m": 9999,
      "fzfg": false,
      "metar_trigger": false,
      "taf_trigger": false,
      "metar": "METAR UDSG 200400Z 12001KT 9999 NSC M08/M10 Q1027 NOSIG",
      "taf": "TAF UDSG 192258Z 2000/2024 VRB06KT 9999 SCT040"
    },
    {
      "icao": "UDYZ",
      "alert": "OK",
      "vis_m": 9999,
      "fzfg": false,
      "metar_trigger": false,
      "taf_trigger": false,
      "metar": "METAR UDYZ 200400Z VRB01KT 9999 NSC M02/M05 Q1028 NOSIG",
      "taf": "TAF UDYZ 192300Z 2000/2024 16006KT 9999 FEW040"
    },
    {
      "icao": "UGKO",
      "alert": "OK",
      "vis_m": 9999,
      "fzfg": false,
      "metar_trigger": false,
      "taf_trigger": false,
      "metar": "METAR UGKO 200400Z 09008KT CAVOK 02/01 Q1028 NOSIG",
      "taf": "TAF UGKO 192300Z 2000/2024 08007KT CAVOK TX17/2011Z TN02/2003Z"
    }
  ]
}