{
  "ts_utc": "2025-12-29T04:02:27Z",
  "threshold_m": 150,
  "source": "stations_override.txt (ICAO list) + aviationweather.gov (METAR/TAF raw)",
  "station_count": 159,
  "stations": [
    {
      "icao": "BIKF",
      "alert": "OK",
      "vis_m": 9999,
      "fzfg": false,
      "metar_trigger": false,
      "taf_trigger": false,
      "metar": "METAR BIKF 290330Z 35006KT CAVOK 03/03 Q1038",
      "taf": "TAF BIKF 290102Z 2903/3003 25004KT 8000 -DZ SCT007 BKN015 TX05/2903Z TN02/2921Z"
    },
    {
      "icao": "BKPR",
      "alert": "OK",
      "vis_m": 9999,
      "fzfg": false,
      "metar_trigger": false,
      "taf_trigger": false,
      "metar": "METAR BKPR 290400Z 26004KT 230V290 CAVOK M04/M07 Q1021 NOSIG",
      "taf": "TAF BKPR 282330Z 2900/2924 35008KT CAVOK"
    },
    {
      "icao": "EBCI",
      "alert": "OK",
      "vis_m": 800,
      "fzfg": true,
      "metar_trigger": false,
      "taf_trigger": false,
      "metar": "METAR EBCI 290350Z 05006KT 0800 R24/1900N FZFG OVC001 M03/M03 Q1026 TEMPO 0300 FZFG",
      "taf": "TAF EBCI 282301Z 2900/3006 04004KT 8000 NSC"
    },
    {
      "icao": "EDDB",
      "alert": "OK",
      "vis_m": 7000,
      "fzfg": false,
      "metar_trigger": false,
      "taf_trigger": false,
      "metar": "METAR EDDB 290350Z AUTO 27010KT 7000 BKN005 OVC009 01/00 Q1019 TEMPO 2000 -FZDZ",
      "taf": ""
    },
    {
      "icao": "EDDH",
      "alert": "OK",
      "vis_m": 9999,
      "fzfg": false,
      "metar_trigger": false,
      "taf_trigger": false,
      "metar": "METAR EDDH 290350Z AUTO 29009KT 9999 OVC022 05/03 Q1021 NOSIG",
      "taf": "TAF EDDH 282300Z 2900/3006 30010KT 9999 BKN020"
    },
    {
      "icao": "EDDK",
      "alert": "OK",
      "vis_m": 9999,
      "fzfg": false,
      "metar_trigger": false,
      "taf_trigger": false,
      "metar": "METAR EDDK 290350Z AUTO VRB01KT CAVOK M07/M07 Q1026 BECMG 2000 BR OVC002",
      "taf": "TAF EDDK 282300Z 2900/3006 VRB02KT CAVOK"
    },
    {
      "icao": "EDDN",
      "alert": "OK",
      "vis_m": 9999,
      "fzfg": false,
      "metar_trigger": false,
      "taf_trigger": false,
      "metar": "METAR EDDN 290350Z AUTO 15003KT CAVOK M08/M10 Q1022",
      "taf": "TAF EDDN 282300Z 2900/2924 VRB03KT CAVOK"
    },
    {
      "icao": "EDDS",
      "alert": "OK",
      "vis_m": 9999,
      "fzfg": false,
      "metar_trigger": false,
      "taf_trigger": false,
      "metar": "METAR EDDS 290350Z AUTO VRB01KT CAVOK M08/M08 Q1022",
      "taf": "TAF EDDS 282300Z 2900/2924 VRB03KT CAVOK"
    },
    {
      "icao": "EDFH",
      "alert": "OK",
      "vis_m": 9999,
      "fzfg": false,
      "metar_trigger": false,
      "taf_trigger": false,
      "metar": "METAR EDFH 290350Z VRB02KT CAVOK M04/M09 Q1023",
      "taf": "TAF EDFH 282300Z 2900/2924 07007KT CAVOK"
    },
    {
      "icao": "EDJA",
      "alert": "OK",
      "vis_m": 700,
      "fzfg": true,
      "metar_trigger": false,
      "taf_trigger": false,
      "metar": "METAR EDJA 290350Z AUTO 26004KT 230V320 0700 0650 R06/1900U // FEW001/// OVC004/// M04/M05 Q1021",
      "taf": "TAF EDJA 290200Z 2903/2912 VRB02KT 0300 FZFG OVC001"
    },
    {
      "icao": "EDLW",
      "alert": "OK",
      "vis_m": 9999,
      "fzfg": false,
      "metar_trigger": false,
      "taf_trigger": false,
      "metar": "METAR EDLW 290350Z AUTO VRB02KT 9999 // OVC016/// M03/M04 Q1026",
      "taf": ""
    },
    {
      "icao": "EDNY",
      "alert": "OK",
      "vis_m": 9999,
      "fzfg": false,
      "metar_trigger": false,
      "taf_trigger": false,
      "metar": "METAR EDNY 290350Z AUTO 04004KT 9999 // OVC008/// M02/M03 Q1023",
      "taf": "TAF EDNY 290200Z 2903/2912 35003KT 9999 OVC008"
    },
    {
      "icao": "EDSB",
      "alert": "OK",
      "vis_m": 9000,
      "fzfg": false,
      "metar_trigger": false,
      "taf_trigger": false,
      "metar": "METAR EDSB 290350Z 07004KT 9000 NSC M05/M06 Q1024",
      "taf": "TAF EDSB 282300Z 2900/2924 VRB03KT CAVOK"
    },
    {
      "icao": "EETN",
      "alert": "OK",
      "vis_m": 9999,
      "fzfg": false,
      "metar_trigger": false,
      "taf_trigger": false,
      "metar": "METAR EETN 290350Z COR 32015KT 9999 SCT019 BKN026 03/M01 Q0996 NOSIG",
      "taf": "TAF EETN 282330Z 2900/2924 27010KT 9999 BKN020"
    },
    {
      "icao": "EFTU",
      "alert": "OK",
      "vis_m": 9999,
      "fzfg": false,
      "metar_trigger": false,
      "taf_trigger": false,
      "metar": "METAR EFTU 290350Z AUTO 32011KT 290V360 9999 FEW016 SCT023 01/M05 Q0998",
      "taf": "TAF EFTU 290225Z 2903/3003 32012KT 9999 BKN040"
    },
    {
      "icao": "EGBB",
      "alert": "OK",
      "vis_m": 9999,
      "fzfg": false,
      "metar_trigger": false,
      "taf_trigger": false,
      "metar": "METAR EGBB 290350Z 06007KT 9999 OVC017 05/01 Q1030",
      "taf": "TAF EGBB 282259Z 2900/2924 07008KT 9999 BKN018"
    },
    {
      "icao": "EGGP",
      "alert": "OK",
      "vis_m": 9999,
      "fzfg": false,
      "metar_trigger": false,
      "taf_trigger": false,
      "metar": "METAR EGGP 290350Z AUTO 07006KT 9999 OVC019/// 04/01 Q1031",
      "taf": "TAF EGGP 282253Z 2900/2924 08005KT 9999 BKN020"
    },
    {
      "icao": "EGGW",
      "alert": "OK",
      "vis_m": 9999,
      "fzfg": false,
      "metar_trigger": false,
      "taf_trigger": false,
      "metar": "METAR EGGW 290350Z AUTO 05009KT 9999 OVC017 04/01 Q1029",
      "taf": "TAF EGGW 282252Z 2900/2924 03010KT 9999 SCT016"
    },
    {
      "icao": "EGKK",
      "alert": "OK",
      "vis_m": 9999,
      "fzfg": false,
      "metar_trigger": false,
      "taf_trigger": false,
      "metar": "METAR EGKK 290350Z 36003KT 9999 BKN022 03/02 Q1028",
      "taf": "TAF EGKK 282254Z 2900/3006 04007KT 9999 SCT018"
    },
    {
      "icao": "EGNM",
      "alert": "OK",
      "vis_m": null,
      "fzfg": false,
      "metar_trigger": false,
      "taf_trigger": false,
      "metar": "",
      "taf": "TAF EGNM 282255Z 2900/2924 03005KT 9999 BKN018"
    },
    {
      "icao": "EGPD",
      "alert": "OK",
      "vis_m": 9999,
      "fzfg": false,
      "metar_trigger": false,
      "taf_trigger": false,
      "metar": "METAR EGPD 290350Z COR AUTO 30009KT 9999 OVC024 05/01 Q1032 NOSIG",
      "taf": "TAF EGPD 282253Z 2900/2924 29005KT 9999 SCT018"
    },
    {
      "icao": "EGPF",
      "alert": "OK",
      "vis_m": 9999,
      "fzfg": false,
      "metar_trigger": false,
      "taf_trigger": false,
      "metar": "METAR EGPF 290350Z AUTO 05002KT 9999 OVC019 04/01 Q1033",
      "taf": "TAF EGPF 282254Z 2900/2924 08004KT 9999 BKN020"
    },
    {
      "icao": "EHBK",
      "alert": "OK",
      "vis_m": 5000,
      "fzfg": false,
      "metar_trigger": false,
      "taf_trigger": false,
      "metar": "METAR EHBK 290355Z AUTO 03003KT 5000 BR NSC M06/M06 Q1026",
      "taf": "TAF EHBK 282315Z 2900/3006 03005KT 4000 BR MIFG NSC"
    },
    {
      "icao": "EHEH",
      "alert": "OK",
      "vis_m": 550,
      "fzfg": true,
      "metar_trigger": false,
      "taf_trigger": false,
      "metar": "METAR EHEH 290355Z AUTO 02001KT 0550 FZFG BKN000 OVC001 M02/M02 Q1027 RED",
      "taf": "TAF EHEH 282308Z 2900/3006 VRB02KT 0600 FZFG NSC"
    },
    {
      "icao": "EKBI",
      "alert": "OK",
      "vis_m": 9999,
      "fzfg": false,
      "metar_trigger": false,
      "taf_trigger": false,
      "metar": "METAR EKBI 290350Z AUTO 30010KT 9999 BKN020/// 06/04 Q1020",
      "taf": "TAF EKBI 290227Z 2903/3003 31012KT 9999 FEW025"
    },
    {
      "icao": "EKCH",
      "alert": "OK",
      "vis_m": 9999,
      "fzfg": false,
      "metar_trigger": false,
      "taf_trigger": false,
      "metar": "METAR EKCH 290350Z AUTO 30009KT 9999 NCD 03/02 Q1016 NOSIG",
      "taf": "TAF EKCH 290227Z 2903/3003 29010KT CAVOK"
    },
    {
      "icao": "ENAL",
      "alert": "OK",
      "vis_m": 9999,
      "fzfg": false,
      "metar_trigger": false,
      "taf_trigger": false,
      "metar": "METAR ENAL 290350Z AUTO 34010KT 300V030 9999 FEW010/// SCT023/// BKN047/// 02/M03 Q1024",
      "taf": "TAF ENAL 290200Z 2903/2912 34015KT 9999 FEW020 BKN035"
    },
    {
      "icao": "ENBR",
      "alert": "OK",
      "vis_m": 9999,
      "fzfg": false,
      "metar_trigger": false,
      "taf_trigger": false,
      "metar": "METAR ENBR 290350Z AUTO 34012KT 9999 SCT050/// 03/M02 Q1024 RMK WIND 1200FT 34022KT",
      "taf": "TAF ENBR 282300Z 2900/2924 34012KT 9999 -SHRA FEW004 BKN020"
    },
    {
      "icao": "ENGM",
      "alert": "OK",
      "vis_m": 9999,
      "fzfg": false,
      "metar_trigger": false,
      "taf_trigger": false,
      "metar": "METAR ENGM 290350Z 34007KT 290V020 CAVOK 01/M09 Q1014",
      "taf": "TAF ENGM 282300Z 2900/2924 VRB03KT CAVOK"
    },
    {
      "icao": "ENHD",
      "alert": "OK",
      "vis_m": 9999,
      "fzfg": false,
      "metar_trigger": false,
      "taf_trigger": false,
      "metar": "METAR ENHD 290350Z AUTO 36025KT 9999 FEW041/// 06/M01 Q1023",
      "taf": "TAF ENHD 290200Z 2903/2912 34017KT 9999 FEW015 BKN022"
    },
    {
      "icao": "ENTC",
      "alert": "OK",
      "vis_m": 9999,
      "fzfg": false,
      "metar_trigger": false,
      "taf_trigger": false,
      "metar": "METAR ENTC 290350Z 17006KT 9999 FEW004 SCT009 M04/M06 Q1001 RMK WIND 2600FT 35020KT",
      "taf": ""
    },
    {
      "icao": "ENTO",
      "alert": "OK",
      "vis_m": 9999,
      "fzfg": false,
      "metar_trigger": false,
      "taf_trigger": false,
      "metar": "METAR ENTO 290350Z AUTO 28007KT 9999 NCD 03/M04 Q1016",
      "taf": "TAF ENTO 282300Z 2900/2924 28005KT CAVOK"
    },
    {
      "icao": "ENVA",
      "alert": "OK",
      "vis_m": 9999,
      "fzfg": false,
      "metar_trigger": false,
      "taf_trigger": false,
      "metar": "METAR ENVA 290350Z 31014KT 280V340 9999 -SN FEW010 SCT016 BKN034 M01/M04 Q1017 RMK WIND 670FT 31032G42KT",
      "taf": ""
    },
    {
      "icao": "ENZV",
      "alert": "OK",
      "vis_m": 9999,
      "fzfg": false,
      "metar_trigger": false,
      "taf_trigger": false,
      "metar": "METAR ENZV 290350Z AUTO 35015KT 9999 NCD 05/01 Q1023",
      "taf": "TAF ENZV 282300Z 2900/2924 35012KT 9999 SCT025"
    },
    {
      "icao": "EPGD",
      "alert": "OK",
      "vis_m": 9999,
      "fzfg": false,
      "metar_trigger": false,
      "taf_trigger": false,
      "metar": "METAR EPGD 290330Z 28014KT CAVOK 02/M00 Q1010",
      "taf": "TAF EPGD 282330Z 2900/2924 29012KT 9999 BKN020"
    },
    {
      "icao": "EPKK",
      "alert": "OK",
      "vis_m": 9999,
      "fzfg": false,
      "metar_trigger": false,
      "taf_trigger": false,
      "metar": "METAR EPKK 290330Z 25012KT 9999 SCT021 M03/M05 Q1016",
      "taf": "TAF EPKK 290230Z 2903/3003 27014KT CAVOK"
    },
    {
      "icao": "EPKT",
      "alert": "OK",
      "vis_m": 9999,
      "fzfg": false,
      "metar_trigger": false,
      "taf_trigger": false,
      "metar": "METAR EPKT 290330Z 26009KT CAVOK M04/M06 Q1016",
      "taf": "TAF EPKT 282330Z 2900/2924 28010KT 9999 OVC012"
    },
    {
      "icao": "EPLB",
      "alert": "OK",
      "vis_m": 9999,
      "fzfg": false,
      "metar_trigger": false,
      "taf_trigger": false,
      "metar": "METAR EPLB 290330Z 27010KT 9999 FEW014 M02/M03 Q1012",
      "taf": "TAF EPLB 282330Z 2900/2924 29014KT 9999 BKN030"
    },
    {
      "icao": "EPMO",
      "alert": "OK",
      "vis_m": 9999,
      "fzfg": false,
      "metar_trigger": false,
      "taf_trigger": false,
      "metar": "METAR EPMO 290330Z 25013KT 9999 BKN009 M02/M02 Q1012",
      "taf": "TAF EPMO 282330Z 2900/2924 28011KT CAVOK"
    },
    {
      "icao": "EPPO",
      "alert": "OK",
      "vis_m": 4500,
      "fzfg": false,
      "metar_trigger": false,
      "taf_trigger": false,
      "metar": "METAR EPPO 290330Z 27010KT 4500 BR OVC004 M01/M01 Q1016",
      "taf": ""
    },
    {
      "icao": "EPRA",
      "alert": "OK",
      "vis_m": 9999,
      "fzfg": false,
      "metar_trigger": false,
      "taf_trigger": false,
      "metar": "METAR EPRA 290330Z 27011KT 9999 BKN014 M02/M04 Q1013",
      "taf": "TAF EPRA 290230Z 2903/2912 29012KT 9999 OVC010"
    },
    {
      "icao": "EPRZ",
      "alert": "OK",
      "vis_m": 9999,
      "fzfg": false,
      "metar_trigger": false,
      "taf_trigger": false,
      "metar": "METAR EPRZ 290330Z 26016KT 9999 OVC022 M01/M05 Q1015",
      "taf": "TAF EPRZ 282330Z 2900/2924 28014KT 9999 BKN020"
    },
    {
      "icao": "EPSC",
      "alert": "OK",
      "vis_m": 9999,
      "fzfg": false,
      "metar_trigger": false,
      "taf_trigger": false,
      "metar": "METAR EPSC 290330Z 29011KT 9999 FEW014 OVC016 03/01 Q1016",
      "taf": "TAF EPSC 282330Z 2900/2924 24008KT 9999 BKN012"
    },
    {
      "icao": "EPSY",
      "alert": "OK",
      "vis_m": 9999,
      "fzfg": false,
      "metar_trigger": false,
      "taf_trigger": false,
      "metar": "METAR EPSY 290330Z 26008KT 9999 OVC040 M00/M02 Q1010",
      "taf": "TAF EPSY 290230Z 2903/2912 25008KT 9999 BKN030"
    },
    {
      "icao": "EPWA",
      "alert": "OK",
      "vis_m": 9999,
      "fzfg": false,
      "metar_trigger": false,
      "taf_trigger": false,
      "metar": "METAR EPWA 290330Z 26013KT 9999 OVC008 M02/M03 Q1012 NOSIG",
      "taf": ""
    },
    {
      "icao": "EPWR",
      "alert": "OK",
      "vis_m": 9999,
      "fzfg": false,
      "metar_trigger": false,
      "taf_trigger": false,
      "metar": "METAR EPWR 290330Z 29021KT 9999 BKN010 M01/M03 Q1018",
      "taf": ""
    },
    {
      "icao": "ESGG",
      "alert": "OK",
      "vis_m": 9999,
      "fzfg": false,
      "metar_trigger": false,
      "taf_trigger": false,
      "metar": "METAR ESGG 290350Z 30005KT CAVOK 02/00 Q1014",
      "taf": "TAF ESGG 290230Z 2903/3003 26004KT CAVOK"
    },
    {
      "icao": "ESKN",
      "alert": "OK",
      "vis_m": 9999,
      "fzfg": false,
      "metar_trigger": false,
      "taf_trigger": false,
      "metar": "METAR ESKN 290350Z 30012KT CAVOK 01/M05 Q1009",
      "taf": "TAF ESKN 290230Z 2903/3003 28013KT CAVOK"
    },
    {
      "icao": "ESMS",
      "alert": "OK",
      "vis_m": 9999,
      "fzfg": false,
      "metar_trigger": false,
      "taf_trigger": false,
      "metar": "METAR ESMS 290350Z 31009KT CAVOK 02/01 Q1015",
      "taf": "TAF ESMS 290227Z 2903/3003 32010KT 9999 BKN007"
    },
    {
      "icao": "ESSA",
      "alert": "OK",
      "vis_m": 9999,
      "fzfg": false,
      "metar_trigger": false,
      "taf_trigger": false,
      "metar": "METAR ESSA 290350Z 29011KT CAVOK 01/M05 Q1007 TEMPO 4000 SHSN SCT030CB",
      "taf": "TAF ESSA 290230Z 2903/3003 29008KT 9999 SCT040"
    },
    {
      "icao": "EYKA",
      "alert": "OK",
      "vis_m": 9999,
      "fzfg": false,
      "metar_trigger": false,
      "taf_trigger": false,
      "metar": "METAR EYKA 290350Z 27009KT 9999 BKN031 OVC038 01/M02 Q1004",
      "taf": ""
    },
    {
      "icao": "EYPA",
      "alert": "OK",
      "vis_m": 9999,
      "fzfg": false,
      "metar_trigger": false,
      "taf_trigger": false,
      "metar": "METAR EYPA 290350Z 32006KT 270V010 9999 OVC021 05/01 Q1005",
      "taf": ""
    },
    {
      "icao": "EYVI",
      "alert": "OK",
      "vis_m": 9999,
      "fzfg": false,
      "metar_trigger": false,
      "taf_trigger": false,
      "metar": "METAR EYVI 290350Z 28010KT 9999 SCT013 BKN040 00/M02 Q1003 NOSIG",
      "taf": ""
    },
    {
      "icao": "GCFV",
      "alert": "OK",
      "vis_m": 9999,
      "fzfg": false,
      "metar_trigger": false,
      "taf_trigger": false,
      "metar": "METAR GCFV 290330Z AUTO 28006KT CAVOK 14/09 Q1019",
      "taf": "TAF GCFV 290200Z 2903/3003 31005KT 9999 FEW030 TX21/2914Z TN14/2906Z"
    },
    {
      "icao": "GCLP",
      "alert": "OK",
      "vis_m": 9999,
      "fzfg": false,
      "metar_trigger": false,
      "taf_trigger": false,
      "metar": "METAR GCLP 290330Z 29004KT 9999 FEW040 17/12 Q1019 NOSIG",
      "taf": "TAF GCLP 290200Z 2903/3003 31005KT 9999 SCT030 TX21/2914Z TN15/2906Z"
    },
    {
      "icao": "GCTS",
      "alert": "OK",
      "vis_m": 9999,
      "fzfg": false,
      "metar_trigger": false,
      "taf_trigger": false,
      "metar": "METAR GCTS 290330Z 01006KT 9999 FEW030 16/11 Q1019 NOSIG",
      "taf": "TAF GCTS 290200Z 2903/3003 01005KT 9999 SCT035 TX23/2914Z TN16/2906Z"
    },
    {
      "icao": "GMAD",
      "alert": "OK",
      "vis_m": 9999,
      "fzfg": false,
      "metar_trigger": false,
      "taf_trigger": false,
      "metar": "METAR GMAD 290330Z 18004KT 9999 FEW020 SCT200 10/10 Q1018 NOSIG",
      "taf": "TAF GMAD 282300Z 2900/3006 26008KT 8000 SCT020 SCT080"
    },
    {
      "icao": "GMMN",
      "alert": "OK",
      "vis_m": 8000,
      "fzfg": false,
      "metar_trigger": false,
      "taf_trigger": false,
      "metar": "METAR GMMN 290330Z 23008KT 200V260 8000 SCT008 BKN020 11/09 Q1017 TEMPO 5000 RA",
      "taf": "TAF GMMN 282300Z 2900/3006 24012KT 9999 SCT016 SCT023"
    },
    {
      "icao": "GMMX",
      "alert": "OK",
      "vis_m": 8000,
      "fzfg": false,
      "metar_trigger": false,
      "taf_trigger": false,
      "metar": "METAR GMMX 290330Z 19005KT 8000 FEW026 SCT100 09/07 Q1018 NOSIG",
      "taf": "TAF GMMX 282300Z 2900/3006 22006KT 8000 SCT023 SCT090"
    },
    {
      "icao": "HEGN",
      "alert": "OK",
      "vis_m": 9999,
      "fzfg": false,
      "metar_trigger": false,
      "taf_trigger": false,
      "metar": "METAR HEGN 290300Z 26006KT CAVOK 13/07 Q1015 NOSIG",
      "taf": "TAF HEGN 282300Z 2900/3006 28010KT CAVOK"
    },
    {
      "icao": "HEMA",
      "alert": "OK",
      "vis_m": 9999,
      "fzfg": false,
      "metar_trigger": false,
      "taf_trigger": false,
      "metar": "METAR HEMA 290300Z 27009KT CAVOK 15/05 Q1014 NOSIG",
      "taf": "TAF HEMA 282300Z 2900/3006 29010KT CAVOK"
    },
    {
      "icao": "HESH",
      "alert": "OK",
      "vis_m": 9999,
      "fzfg": false,
      "metar_trigger": false,
      "taf_trigger": false,
      "metar": "METAR HESH 290300Z 30006KT CAVOK 15/05 Q1015 NOSIG",
      "taf": "TAF HESH 282300Z 2900/3006 35008KT CAVOK"
    },
    {
      "icao": "HESX",
      "alert": "OK",
      "vis_m": 9999,
      "fzfg": false,
      "metar_trigger": false,
      "taf_trigger": false,
      "metar": "METAR HESX 290300Z 20010KT CAVOK 09/06 Q1015 NOSIG",
      "taf": "TAF HESX 282300Z 2900/3006 20006KT CAVOK"
    },
    {
      "icao": "LATI",
      "alert": "OK",
      "vis_m": 9999,
      "fzfg": false,
      "metar_trigger": false,
      "taf_trigger": false,
      "metar": "METAR LATI 290350Z VRB02KT CAVOK M02/M04 Q1018 NOSIG",
      "taf": "TAF LATI 282300Z 2900/2924 VRB05KT CAVOK TX14/2912Z TNM02/2905Z"
    },
    {
      "icao": "LBPD",
      "alert": "OK",
      "vis_m": 9999,
      "fzfg": false,
      "metar_trigger": false,
      "taf_trigger": false,
      "metar": "METAR LBPD 290400Z AUTO 29018KT 9999 NCD 02/M06 Q1014 NOSIG",
      "taf": "TAF LBPD 282300Z 2900/2924 28020G32KT 9999 SCT050"
    },
    {
      "icao": "LBSF",
      "alert": "OK",
      "vis_m": 9999,
      "fzfg": false,
      "metar_trigger": false,
      "taf_trigger": false,
      "metar": "METAR LBSF 290400Z AUTO 28019KT 9999 SCT026/// M01/M06 Q1018 NOSIG",
      "taf": "TAF LBSF 282300Z 2900/2924 29018G30KT 9999 SCT025"
    },
    {
      "icao": "LBWN",
      "alert": "OK",
      "vis_m": 9999,
      "fzfg": false,
      "metar_trigger": false,
      "taf_trigger": false,
      "metar": "METAR LBWN 290400Z AUTO 26007KT 9999 NCD M01/M03 Q1013 NOSIG",
      "taf": "TAF LBWN 282300Z 2900/2924 28018KT 9999 SCT045"
    },
    {
      "icao": "LCLK",
      "alert": "OK",
      "vis_m": 9999,
      "fzfg": false,
      "metar_trigger": false,
      "taf_trigger": false,
      "metar": "METAR LCLK 290400Z 29008KT 9999 FEW025 SCT035 13/08 Q1007 NOSIG",
      "taf": "TAF LCLK 282330Z 2900/3000 24012KT 9999 FEW030 SCT060"
    },
    {
      "icao": "LCPH",
      "alert": "OK",
      "vis_m": 9999,
      "fzfg": false,
      "metar_trigger": false,
      "taf_trigger": false,
      "metar": "METAR LCPH 290400Z 35008KT 9999 FEW030 15/07 Q1007 NOSIG",
      "taf": "TAF LCPH 282330Z 2900/3000 29025KT 9999 FEW030 SCT060"
    },
    {
      "icao": "LEAL",
      "alert": "OK",
      "vis_m": 9999,
      "fzfg": false,
      "metar_trigger": false,
      "taf_trigger": false,
      "metar": "METAR LEAL 290330Z 01004KT 9999 FEW020TCU BKN030 13/10 Q1016 NOSIG",
      "taf": "TAF LEAL 282300Z 2900/2924 02006KT 9999 FEW015 SCT025 TX16/2913Z TN08/2906Z"
    },
    {
      "icao": "LEBB",
      "alert": "OK",
      "vis_m": 9999,
      "fzfg": false,
      "metar_trigger": false,
      "taf_trigger": false,
      "metar": "METAR LEBB 290330Z AUTO 10005KT CAVOK 04/04 Q1020",
      "taf": "TAF LEBB 282300Z 2900/2924 11008KT 9999 FEW040 TX15/2914Z TN04/2908Z"
    },
    {
      "icao": "LEBL",
      "alert": "OK",
      "vis_m": 9999,
      "fzfg": false,
      "metar_trigger": false,
      "taf_trigger": false,
      "metar": "METAR LEBL 290330Z 32006KT 9999 FEW020TCU 11/10 Q1019 NOSIG",
      "taf": "TAF LEBL 282300Z 2900/2924 06007KT 9999 FEW015 TX15/2912Z TN08/2907Z"
    },
    {
      "icao": "LECH",
      "alert": "OK",
      "vis_m": 9999,
      "fzfg": false,
      "metar_trigger": false,
      "taf_trigger": false,
      "metar": "METAR LECH 290330Z AUTO 29003KT 240V350 9999 -RA FEW042 BKN050 08/07 Q1019",
      "taf": ""
    },
    {
      "icao": "LEMD",
      "alert": "OK",
      "vis_m": 9999,
      "fzfg": false,
      "metar_trigger": false,
      "taf_trigger": false,
      "metar": "METAR LEMD 290330Z VRB02KT 9999 BKN040 OVC060 06/04 Q1018 NOSIG",
      "taf": "TAF LEMD 282300Z 2900/3006 VRB04KT 9999 SCT040 TX11/2915Z TNM01/3006Z"
    },
    {
      "icao": "LEMG",
      "alert": "OK",
      "vis_m": 9999,
      "fzfg": false,
      "metar_trigger": false,
      "taf_trigger": false,
      "metar": "METAR LEMG 290330Z 30010KT 9999 FEW030 07/07 Q1015 NOSIG",
      "taf": "TAF LEMG 282300Z 2900/2924 29006KT 9999 FEW025 SCT040 TX16/2914Z TN09/2906Z"
    },
    {
      "icao": "LEVC",
      "alert": "OK",
      "vis_m": 9999,
      "fzfg": false,
      "metar_trigger": false,
      "taf_trigger": false,
      "metar": "METAR LEVC 290330Z 31004KT CAVOK 08/07 Q1018 NOSIG",
      "taf": "TAF LEVC 282300Z 2900/2924 32010KT 7000 FEW015 BKN040 TX15/2913Z TN06/2906Z"
    },
    {
      "icao": "LEXJ",
      "alert": "OK",
      "vis_m": 5000,
      "fzfg": false,
      "metar_trigger": false,
      "taf_trigger": false,
      "metar": "METAR LEXJ 290330Z AUTO VRB01KT 5000 BR NCD 05/04 Q1019",
      "taf": "TAF LEXJ 290200Z 2903/3003 22009KT CAVOK TX17/2913Z TN04/2906Z"
    },
    {
      "icao": "LEZG",
      "alert": "OK",
      "vis_m": 7000,
      "fzfg": false,
      "metar_trigger": false,
      "taf_trigger": false,
      "metar": "METAR LEZG 290330Z 26005KT 7000 BKN040 07/07 Q1020 NOSIG",
      "taf": "TAF LEZG 282300Z 2900/2924 28005KT 9999 FEW060 TX12/2914Z TN06/2906Z"
    },
    {
      "icao": "LEZL",
      "alert": "OK",
      "vis_m": 9000,
      "fzfg": false,
      "metar_trigger": false,
      "taf_trigger": false,
      "metar": "METAR LEZL 290330Z AUTO 03004KT 9000 NCD 07/07 Q1016",
      "taf": "TAF LEZL 290200Z 2903/3003 03006KT CAVOK TX16/2915Z TN05/2906Z"
    },
    {
      "icao": "LFBD",
      "alert": "OK",
      "vis_m": 6000,
      "fzfg": false,
      "metar_trigger": false,
      "taf_trigger": false,
      "metar": "METAR LFBD 290330Z AUTO 05006KT 6000 NSC M00/M01 Q1021",
      "taf": "TAF LFBD 282300Z 2900/3006 03005KT CAVOK TX10/2913Z TN00/2904Z"
    },
    {
      "icao": "LFLL",
      "alert": "OK",
      "vis_m": 7000,
      "fzfg": false,
      "metar_trigger": false,
      "taf_trigger": false,
      "metar": "METAR LFLL 290330Z VRB02KT 7000 OVC008 M00/M01 Q1023 NOSIG",
      "taf": "TAF LFLL 282300Z 2900/3006 VRB03KT 7000 OVC007"
    },
    {
      "icao": "LFLS",
      "alert": "OK",
      "vis_m": 700,
      "fzfg": true,
      "metar_trigger": false,
      "taf_trigger": false,
      "metar": "METAR LFLS 290330Z AUTO VRB02KT 0700 0650 R09/0800N R27/P2400 FZFG FEW001 BKN007 M06/M07 Q1022",
      "taf": ""
    },
    {
      "icao": "LFMN",
      "alert": "OK",
      "vis_m": 9999,
      "fzfg": false,
      "metar_trigger": false,
      "taf_trigger": false,
      "metar": "METAR LFMN 290330Z 33015KT CAVOK 06/M03 Q1021 NOSIG",
      "taf": "TAF LFMN 290200Z 2903/3009 33012KT CAVOK"
    },
    {
      "icao": "LFOB",
      "alert": "OK",
      "vis_m": 6000,
      "fzfg": false,
      "metar_trigger": false,
      "taf_trigger": false,
      "metar": "METAR LFOB 290330Z AUTO VRB02KT 6000 NSC M05/M05 Q1025",
      "taf": ""
    },
    {
      "icao": "LFPO",
      "alert": "OK",
      "vis_m": 8000,
      "fzfg": false,
      "metar_trigger": false,
      "taf_trigger": false,
      "metar": "METAR LFPO 290330Z 01006KT 8000 NSC M02/M03 Q1025 NOSIG",
      "taf": "TAF LFPO 282300Z 2900/3006 01004KT CAVOK"
    },
    {
      "icao": "LFSB",
      "alert": "OK",
      "vis_m": 4400,
      "fzfg": true,
      "metar_trigger": false,
      "taf_trigger": false,
      "metar": "METAR LFSB 290330Z AUTO VRB01KT 4400 0650 R15/P2000 R33/1300D BCFG FEW004 M05/M06 Q1024 TEMPO 0300 FZFG VV///",
      "taf": "TAF LFSB 282300Z 2900/2924 33003KT 3000 BR OVC002"
    },
    {
      "icao": "LGAV",
      "alert": "OK",
      "vis_m": 9999,
      "fzfg": false,
      "metar_trigger": false,
      "taf_trigger": false,
      "metar": "METAR LGAV 290350Z 27007KT CAVOK 06/M00 Q1017 NOSIG",
      "taf": "TAF LGAV 282300Z 2900/2924 34012KT 9999 FEW020"
    },
    {
      "icao": "LGTS",
      "alert": "OK",
      "vis_m": 9999,
      "fzfg": false,
      "metar_trigger": false,
      "taf_trigger": false,
      "metar": "METAR LGTS 290350Z 31016G28KT CAVOK 06/M03 Q1018 NOSIG",
      "taf": "TAF LGTS 282300Z 2900/2924 33015G25KT 9999 FEW030"
    },
    {
      "icao": "LHBP",
      "alert": "OK",
      "vis_m": 9999,
      "fzfg": false,
      "metar_trigger": false,
      "taf_trigger": false,
      "metar": "METAR LHBP 290400Z 31006KT CAVOK M02/M05 Q1019 NOSIG",
      "taf": "TAF LHBP 282315Z 2900/2924 31017KT CAVOK"
    },
    {
      "icao": "LHDC",
      "alert": "OK",
      "vis_m": 9999,
      "fzfg": false,
      "metar_trigger": false,
      "taf_trigger": false,
      "metar": "METAR LHDC 290315Z AUTO 15003KT CAVOK M06/M07 Q1018",
      "taf": "TAF LHDC 290215Z 2903/2912 18004KT CAVOK"
    },
    {
      "icao": "LIBD",
      "alert": "OK",
      "vis_m": 9999,
      "fzfg": false,
      "metar_trigger": false,
      "taf_trigger": false,
      "metar": "METAR LIBD 290350Z 27005KT CAVOK 06/05 Q1020",
      "taf": "TAF LIBD 282300Z 2900/2924 28012KT CAVOK"
    },
    {
      "icao": "LIBG",
      "alert": "OK",
      "vis_m": null,
      "fzfg": false,
      "metar_trigger": false,
      "taf_trigger": false,
      "metar": "",
      "taf": "TAF LIBG 281700Z 2818/2903 35012KT CAVOK"
    },
    {
      "icao": "LIBP",
      "alert": "OK",
      "vis_m": 9999,
      "fzfg": false,
      "metar_trigger": false,
      "taf_trigger": false,
      "metar": "METAR LIBP 290350Z AUTO 22004KT 9999 NCD 00/M01 Q1022",
      "taf": "TAF LIBP 282300Z 2900/2924 VRB05KT CAVOK"
    },
    {
      "icao": "LIBR",
      "alert": "OK",
      "vis_m": 9999,
      "fzfg": false,
      "metar_trigger": false,
      "taf_trigger": false,
      "metar": "METAR LIBR 290350Z 02012KT CAVOK 12/04 Q1018",
      "taf": "TAF LIBR 282300Z 2900/2924 33015KT CAVOK"
    },
    {
      "icao": "LICA",
      "alert": "OK",
      "vis_m": 9999,
      "fzfg": false,
      "metar_trigger": false,
      "taf_trigger": false,
      "metar": "METAR LICA 290350Z AUTO 08006KT 9999 SCT035/// 05/04 Q1020",
      "taf": "TAF LICA 282300Z 2900/2924 07006KT CAVOK"
    },
    {
      "icao": "LICC",
      "alert": "OK",
      "vis_m": 9999,
      "fzfg": false,
      "metar_trigger": false,
      "taf_trigger": false,
      "metar": "METAR LICC 290350Z 24003KT CAVOK 04/02 Q1020",
      "taf": "TAF LICC 282300Z 2900/2924 VRB05KT 9999 FEW040"
    },
    {
      "icao": "LICJ",
      "alert": "OK",
      "vis_m": 9999,
      "fzfg": false,
      "metar_trigger": false,
      "taf_trigger": false,
      "metar": "METAR LICJ 290350Z 18003KT 150V210 CAVOK 09/05 Q1019",
      "taf": "TAF LICJ 282300Z 2900/2924 VRB05KT CAVOK"
    },
    {
      "icao": "LIMC",
      "alert": "OK",
      "vis_m": 9999,
      "fzfg": false,
      "metar_trigger": false,
      "taf_trigger": false,
      "metar": "METAR LIMC 290350Z 36003KT 330V030 CAVOK M02/M02 Q1023 NOSIG",
      "taf": "TAF LIMC 282300Z 2900/3006 VRB04KT CAVOK"
    },
    {
      "icao": "LIME",
      "alert": "OK",
      "vis_m": 9999,
      "fzfg": false,
      "metar_trigger": false,
      "taf_trigger": false,
      "metar": "METAR LIME 290350Z AUTO 01003KT 9999 NCD 01/M03 Q1022",
      "taf": "TAF LIME 282300Z 2900/2924 VRB05KT CAVOK"
    },
    {
      "icao": "LIMF",
      "alert": "OK",
      "vis_m": 9999,
      "fzfg": false,
      "metar_trigger": false,
      "taf_trigger": false,
      "metar": "METAR LIMF 290350Z 24001KT CAVOK 01/M03 Q1022",
      "taf": "TAF LIMF 282300Z 2900/2924 VRB05KT CAVOK"
    },
    {
      "icao": "LIMJ",
      "alert": "OK",
      "vis_m": 9999,
      "fzfg": false,
      "metar_trigger": false,
      "taf_trigger": false,
      "metar": "METAR LIMJ 290350Z 04017KT CAVOK 09/M00 Q1020",
      "taf": "TAF LIMJ 282300Z 2900/2924 01015KT CAVOK"
    },
    {
      "icao": "LIPE",
      "alert": "OK",
      "vis_m": 3000,
      "fzfg": false,
      "metar_trigger": false,
      "taf_trigger": false,
      "metar": "METAR LIPE 290350Z 28003KT 3000 R12/0375N R30/0300N BCFG SCT001 M02/M02 Q1023",
      "taf": "TAF LIPE 282300Z 2900/2924 VRB06KT 6000 NSC"
    },
    {
      "icao": "LIPH",
      "alert": "OK",
      "vis_m": 9999,
      "fzfg": false,
      "metar_trigger": false,
      "taf_trigger": false,
      "metar": "METAR LIPH 290350Z AUTO VRB01KT 9999 4800W NCD M01/M01 Q1022",
      "taf": "TAF LIPH 282300Z 2900/2924 VRB05KT CAVOK"
    },
    {
      "icao": "LIPQ",
      "alert": "OK",
      "vis_m": 9999,
      "fzfg": false,
      "metar_trigger": false,
      "taf_trigger": false,
      "metar": "METAR LIPQ 290350Z AUTO 04002KT 9999 NCD M02/M03 Q1022",
      "taf": "TAF LIPQ 282300Z 2900/2924 VRB05KT CAVOK"
    },
    {
      "icao": "LIPR",
      "alert": "OK",
      "vis_m": 9999,
      "fzfg": false,
      "metar_trigger": false,
      "taf_trigger": false,
      "metar": "METAR LIPR 290350Z AUTO 24004KT 9999 NCD M00/M01 Q1022",
      "taf": "TAF LIPR 282300Z 2900/2924 VRB05KT CAVOK"
    },
    {
      "icao": "LIPX",
      "alert": "OK",
      "vis_m": 5000,
      "fzfg": false,
      "metar_trigger": false,
      "taf_trigger": false,
      "metar": "METAR LIPX 290350Z AUTO 17003KT 5000 1400SW BCFG NCD M03/M03 Q1022",
      "taf": "TAF LIPX 282300Z 2900/2924 VRB05KT CAVOK"
    },
    {
      "icao": "LIPY",
      "alert": "OK",
      "vis_m": 9999,
      "fzfg": false,
      "metar_trigger": false,
      "taf_trigger": false,
      "metar": "METAR LIPY 290350Z AUTO 21004KT 9999 NCD 02/01 Q1022",
      "taf": "TAF LIPY 282300Z 2900/2924 VRB05KT CAVOK"
    },
    {
      "icao": "LIPZ",
      "alert": "OK",
      "vis_m": 9999,
      "fzfg": false,
      "metar_trigger": false,
      "taf_trigger": false,
      "metar": "METAR LIPZ 290350Z 35002KT CAVOK 01/M00 Q1022 NOSIG",
      "taf": "TAF LIPZ 282300Z 2900/3006 VRB05KT CAVOK"
    },
    {
      "icao": "LIRF",
      "alert": "OK",
      "vis_m": 9999,
      "fzfg": false,
      "metar_trigger": false,
      "taf_trigger": false,
      "metar": "METAR LIRF 290350Z 08004KT CAVOK 01/00 Q1020 NOSIG",
      "taf": "TAF LIRF 282300Z 2900/3006 05005KT CAVOK"
    },
    {
      "icao": "LIRN",
      "alert": "OK",
      "vis_m": 9999,
      "fzfg": false,
      "metar_trigger": false,
      "taf_trigger": false,
      "metar": "METAR LIRN 290350Z VRB01KT CAVOK 03/M00 Q1020 NOSIG",
      "taf": "TAF LIRN 282300Z 2900/2924 VRB05KT CAVOK"
    },
    {
      "icao": "LIRP",
      "alert": "OK",
      "vis_m": 9999,
      "fzfg": false,
      "metar_trigger": false,
      "taf_trigger": false,
      "metar": "METAR LIRP 290345Z 09006KT CAVOK 00/00 Q1020 NOSIG",
      "taf": "TAF LIRP 282300Z 2900/2924 11005KT CAVOK"
    },
    {
      "icao": "LIRZ",
      "alert": "OK",
      "vis_m": 5000,
      "fzfg": false,
      "metar_trigger": false,
      "taf_trigger": false,
      "metar": "METAR LIRZ 290350Z AUTO 06002KT 5000 1100S BR NCD M03/M03 Q1021",
      "taf": "TAF LIRZ 282300Z 2900/2924 VRB05KT CAVOK"
    },
    {
      "icao": "LJLJ",
      "alert": "OK",
      "vis_m": 8000,
      "fzfg": false,
      "metar_trigger": false,
      "taf_trigger": false,
      "metar": "METAR LJLJ 290330Z 35003KT 300V030 8000 FEW003 OVC005 M01/M02 Q1023 NOSIG",
      "taf": "TAF LJLJ 282300Z 2900/3000 VRB02KT 7000 OVC005"
    },
    {
      "icao": "LKMT",
      "alert": "OK",
      "vis_m": 9999,
      "fzfg": false,
      "metar_trigger": false,
      "taf_trigger": false,
      "metar": "METAR LKMT 290330Z 21007KT CAVOK M05/M06 Q1019 NOSIG",
      "taf": "TAF LKMT 282300Z 2900/2924 21002KT CAVOK"
    },
    {
      "icao": "LKPR",
      "alert": "OK",
      "vis_m": 9999,
      "fzfg": false,
      "metar_trigger": false,
      "taf_trigger": false,
      "metar": "METAR LKPR 290330Z 24006KT CAVOK M05/M07 Q1021 NOSIG",
      "taf": "TAF LKPR 290200Z 2903/3009 23008KT CAVOK"
    },
    {
      "icao": "LLBG",
      "alert": "OK",
      "vis_m": 9999,
      "fzfg": false,
      "metar_trigger": false,
      "taf_trigger": false,
      "metar": "METAR LLBG 290350Z 16009KT 9999 SCT027 BKN033 13/10 Q1011 RERA TEMPO 7000 RA FEW025TCU",
      "taf": "TAF LLBG 282320Z 2900/2924 20012KT 9999 BKN045"
    },
    {
      "icao": "LMML",
      "alert": "OK",
      "vis_m": 9999,
      "fzfg": false,
      "metar_trigger": false,
      "taf_trigger": false,
      "metar": "METAR LMML 290345Z 24003KT CAVOK 10/09 Q1019 NOSIG",
      "taf": "TAF LMML 282300Z 2900/2924 VRB05KT 9999 SCT020"
    },
    {
      "icao": "LOWW",
      "alert": "OK",
      "vis_m": 9999,
      "fzfg": false,
      "metar_trigger": false,
      "taf_trigger": false,
      "metar": "METAR LOWW 290350Z VRB01KT CAVOK M03/M06 Q1021 NOSIG",
      "taf": "TAF LOWW 290215Z 2903/3009 30010KT CAVOK TX04/2913Z TNM04/2905Z"
    },
    {
      "icao": "LPFR",
      "alert": "OK",
      "vis_m": 9999,
      "fzfg": false,
      "metar_trigger": false,
      "taf_trigger": false,
      "metar": "METAR LPFR 290330Z 32005KT CAVOK 08/07 Q1017",
      "taf": "TAF LPFR 282300Z 2900/2924 01005KT 9999 FEW025"
    },
    {
      "icao": "LPMA",
      "alert": "OK",
      "vis_m": 9999,
      "fzfg": false,
      "metar_trigger": false,
      "taf_trigger": false,
      "metar": "METAR LPMA 290330Z 27005KT 9999 BKN015 15/11 Q1019",
      "taf": "TAF LPMA 282300Z 2900/2924 VRB05KT 9999 SCT016"
    },
    {
      "icao": "LPPR",
      "alert": "OK",
      "vis_m": 9999,
      "fzfg": false,
      "metar_trigger": false,
      "taf_trigger": false,
      "metar": "METAR LPPR 290330Z 08003KT CAVOK 07/05 Q1018",
      "taf": "TAF LPPR 282300Z 2900/2924 VRB02KT CAVOK"
    },
    {
      "icao": "LPPS",
      "alert": "OK",
      "vis_m": 9999,
      "fzfg": false,
      "metar_trigger": false,
      "taf_trigger": false,
      "metar": "METAR LPPS 290330Z 00000KT 9999 SCT015 15/09 Q1019",
      "taf": "TAF LPPS 282300Z 2900/3006 VRB05KT 9999 SCT015"
    },
    {
      "icao": "LPPT",
      "alert": "OK",
      "vis_m": 9999,
      "fzfg": false,
      "metar_trigger": false,
      "taf_trigger": false,
      "metar": "METAR LPPT 290330Z 32004KT CAVOK 10/07 Q1017",
      "taf": "TAF LPPT 282300Z 2900/3006 01007KT CAVOK"
    },
    {
      "icao": "LQBK",
      "alert": "OK",
      "vis_m": 300,
      "fzfg": true,
      "metar_trigger": false,
      "taf_trigger": false,
      "metar": "METAR LQBK 290330Z 31003KT 0300 R16/0600N FZFG VV002 M06/M06 Q1024 NOSIG",
      "taf": "TAF LQBK 282300Z 2900/2924 18005KT CAVOK TX04/2913Z TNM06/2905Z"
    },
    {
      "icao": "LQSA",
      "alert": "OK",
      "vis_m": 9999,
      "fzfg": false,
      "metar_trigger": false,
      "taf_trigger": false,
      "metar": "METAR LQSA 290330Z VRB01KT CAVOK M07/M07 Q1024",
      "taf": "TAF LQSA 282300Z 2900/2924 VRB02KT CAVOK TX04/2913Z TNM08/2905Z"
    },
    {
      "icao": "LQTZ",
      "alert": "OK",
      "vis_m": 6000,
      "fzfg": false,
      "metar_trigger": false,
      "taf_trigger": false,
      "metar": "METAR LQTZ 290330Z 06002KT 6000 NSC M06/M06 Q1024",
      "taf": "TAF LQTZ 282300Z 2900/2924 33005KT CAVOK TX05/2913Z TNM07/2905Z"
    },
    {
      "icao": "LRBC",
      "alert": "OK",
      "vis_m": 9999,
      "fzfg": false,
      "metar_trigger": false,
      "taf_trigger": false,
      "metar": "METAR LRBC 290330Z 32012KT 9999 -SN BKN051 02/M05 Q1010",
      "taf": "TAF LRBC 290200Z 2903/2912 33008KT 9999 OVC055"
    },
    {
      "icao": "LRBS",
      "alert": "OK",
      "vis_m": 9999,
      "fzfg": false,
      "metar_trigger": false,
      "taf_trigger": false,
      "metar": "METAR LRBS 290330Z 21006KT 180V240 CAVOK M00/M06 Q1013 NOSIG",
      "taf": "TAF LRBS 282300Z 2900/2924 27012KT CAVOK"
    },
    {
      "icao": "LRBV",
      "alert": "OK",
      "vis_m": 9999,
      "fzfg": false,
      "metar_trigger": false,
      "taf_trigger": false,
      "metar": "METAR LRBV 290330Z AUTO 29020G34KT 9999 OVC032/// M01/M07 Q1012",
      "taf": "TAF LRBV 290200Z 2903/2912 29017KT 9999 BKN035"
    },
    {
      "icao": "LRCL",
      "alert": "OK",
      "vis_m": 9999,
      "fzfg": false,
      "metar_trigger": false,
      "taf_trigger": false,
      "metar": "METAR LRCL 290330Z 28011KT 9999 OVC053 M00/M07 Q1017",
      "taf": "TAF LRCL 290200Z 2903/2912 30012KT 9999 BKN045"
    },
    {
      "icao": "LRCV",
      "alert": "OK",
      "vis_m": 9999,
      "fzfg": false,
      "metar_trigger": false,
      "taf_trigger": false,
      "metar": "METAR LRCV 290330Z 28017KT CAVOK M01/M04 Q1016",
      "taf": "TAF LRCV 290200Z 2903/2912 28016KT CAVOK"
    },
    {
      "icao": "LRIA",
      "alert": "OK",
      "vis_m": 9999,
      "fzfg": false,
      "metar_trigger": false,
      "taf_trigger": false,
      "metar": "METAR LRIA 290330Z 31023G36KT 9999 FEW012 SCT030 01/M04 Q1008",
      "taf": "TAF LRIA 290200Z 2903/2912 31020KT 9999 SCT010 OVC030"
    },
    {
      "icao": "LROP",
      "alert": "OK",
      "vis_m": 9999,
      "fzfg": false,
      "metar_trigger": false,
      "taf_trigger": false,
      "metar": "METAR LROP 290330Z 27009KT CAVOK M00/M08 Q1013 NOSIG",
      "taf": "TAF LROP 282300Z 2900/2924 27012KT CAVOK"
    },
    {
      "icao": "LRSB",
      "alert": "OK",
      "vis_m": 9999,
      "fzfg": false,
      "metar_trigger": false,
      "taf_trigger": false,
      "metar": "METAR LRSB 290330Z COR 29015KT 9999 SCT050 M00/M06 Q1016",
      "taf": "TAF LRSB 282300Z 2900/2924 29016KT 9999 BKN055"
    },
    {
      "icao": "LRSM",
      "alert": "OK",
      "vis_m": 9999,
      "fzfg": false,
      "metar_trigger": false,
      "taf_trigger": false,
      "metar": "METAR LRSM 290330Z AUTO 28006KT 9999 NCD M03/M06 Q1017",
      "taf": "TAF LRSM 290200Z 2903/2912 30012KT 9999 BKN040"
    },
    {
      "icao": "LRSV",
      "alert": "OK",
      "vis_m": 9999,
      "fzfg": false,
      "metar_trigger": false,
      "taf_trigger": false,
      "metar": "METAR LRSV 290330Z 32022G32KT 9999 SCT020 BKN040 M00/M06 Q1008",
      "taf": "TAF LRSV 290200Z 2903/2912 31020KT 9999 BKN040"
    },
    {
      "icao": "LRTM",
      "alert": "OK",
      "vis_m": 9999,
      "fzfg": false,
      "metar_trigger": false,
      "taf_trigger": false,
      "metar": "METAR LRTM 290330Z AUTO 25011KT 9999 R25////// BKN055/// M00/M06 Q1016",
      "taf": "TAF LRTM 290200Z 2903/2912 28012KT 9999 BKN035"
    },
    {
      "icao": "LRTR",
      "alert": "OK",
      "vis_m": 9999,
      "fzfg": false,
      "metar_trigger": false,
      "taf_trigger": false,
      "metar": "METAR LRTR 290330Z 25004KT CAVOK M04/M04 Q1021",
      "taf": "TAF LRTR 282300Z 2900/2924 29008KT CAVOK"
    },
    {
      "icao": "LTAC",
      "alert": "OK",
      "vis_m": 9999,
      "fzfg": false,
      "metar_trigger": false,
      "taf_trigger": false,
      "metar": "METAR LTAC 290350Z 25008KT 9999 FEW015 SCT040 BKN100 M03/M06 Q1007 NOSIG RMK RWY21C 24006KT RWY03L 25006KT RWY21R 24006KT RWY03R 23011KT RWY21L 24007KT",
      "taf": "TAF LTAC 282240Z 2900/2924 26012KT 9999 SCT040 BKN100"
    },
    {
      "icao": "LTFM",
      "alert": "OK",
      "vis_m": 9999,
      "fzfg": false,
      "metar_trigger": false,
      "taf_trigger": false,
      "metar": "METAR LTFM 290350Z 30010KT 270V340 CAVOK 01/M05 Q1015 NOSIG RMK RWY17L 27008KT RWY34L 29007KT RWY16R 26008KT RWY36 29010KT RWY18 28010KT",
      "taf": "TAF LTFM 282240Z 2900/3006 28012KT 9999 SCT035"
    },
    {
      "icao": "LUKK",
      "alert": "OK",
      "vis_m": 9999,
      "fzfg": false,
      "metar_trigger": false,
      "taf_trigger": false,
      "metar": "METAR LUKK 290330Z 33016KT 9999 -SN FEW028 SCT035 00/M04 Q1005 TEMPO 33018G28KT 5000 SN BKN010",
      "taf": "TAF LUKK 282318Z 2900/2924 32018G28KT 9999 BKN025"
    },
    {
      "icao": "LWOH",
      "alert": "OK",
      "vis_m": null,
      "fzfg": false,
      "metar_trigger": false,
      "taf_trigger": false,
      "metar": "",
      "taf": "TAF LWOH 290205Z 2903/3003 33005KT CAVOK"
    },
    {
      "icao": "LWSK",
      "alert": "OK",
      "vis_m": 9999,
      "fzfg": false,
      "metar_trigger": false,
      "taf_trigger": false,
      "metar": "METAR LWSK 290350Z 02007KT CAVOK M03/M07 Q1022 NOSIG",
      "taf": "TAF LWSK 290205Z 2903/3003 36005KT CAVOK"
    },
    {
      "icao": "LYBE",
      "alert": "OK",
      "vis_m": 9999,
      "fzfg": false,
      "metar_trigger": false,
      "taf_trigger": false,
      "metar": "METAR LYBE 290330Z 26010KT CAVOK M01/M04 Q1023 NOSIG",
      "taf": "TAF LYBE 282300Z 2900/2924 28010KT CAVOK TX06/2912Z TNM03/2906Z"
    },
    {
      "icao": "LYNI",
      "alert": "OK",
      "vis_m": 9999,
      "fzfg": false,
      "metar_trigger": false,
      "taf_trigger": false,
      "metar": "METAR LYNI 290330Z 30008KT 9999 BKN037 01/M05 Q1023 NOSIG",
      "taf": "TAF LYNI 282300Z 2900/2924 30008KT 9999 BKN040 TX06/2912Z TNM03/2906Z"
    },
    {
      "icao": "LYPG",
      "alert": "OK",
      "vis_m": 9999,
      "fzfg": false,
      "metar_trigger": false,
      "taf_trigger": false,
      "metar": "METAR LYPG 290330Z 05001KT CAVOK 02/M07 Q1020 NOSIG",
      "taf": ""
    },
    {
      "icao": "LZIB",
      "alert": "OK",
      "vis_m": 9999,
      "fzfg": false,
      "metar_trigger": false,
      "taf_trigger": false,
      "metar": "METAR LZIB 290400Z 28009KT CAVOK M02/M05 Q1021 NOSIG",
      "taf": "TAF LZIB 282315Z 2900/3000 30007KT CAVOK"
    },
    {
      "icao": "LZKZ",
      "alert": "OK",
      "vis_m": 9999,
      "fzfg": false,
      "metar_trigger": false,
      "taf_trigger": false,
      "metar": "METAR LZKZ 290400Z 30003KT CAVOK M05/M08 Q1016 NOSIG",
      "taf": "TAF LZKZ 282315Z 2900/3000 VRB02KT CAVOK"
    },
    {
      "icao": "LZTT",
      "alert": "OK",
      "vis_m": 9999,
      "fzfg": false,
      "metar_trigger": false,
      "taf_trigger": false,
      "metar": "METAR LZTT 290400Z 23010KT CAVOK M03/M12 Q1013",
      "taf": "TAF LZTT 282315Z 2900/3000 27012KT CAVOK"
    },
    {
      "icao": "OEJN",
      "alert": "OK",
      "vis_m": 9999,
      "fzfg": false,
      "metar_trigger": false,
      "taf_trigger": false,
      "metar": "METAR OEJN 290400Z 00000KT CAVOK 18/13 Q1014 NOSIG",
      "taf": "TAF OEJN 282300Z 2900/3006 05006KT CAVOK"
    },
    {
      "icao": "OEMA",
      "alert": "OK",
      "vis_m": 9999,
      "fzfg": false,
      "metar_trigger": false,
      "taf_trigger": false,
      "metar": "METAR OEMA 290400Z VRB02KT CAVOK 11/06 Q1018 NOSIG",
      "taf": "TAF OEMA 282300Z 2900/3006 VRB03KT CAVOK"
    },
    {
      "icao": "OJAI",
      "alert": "OK",
      "vis_m": 3000,
      "fzfg": false,
      "metar_trigger": false,
      "taf_trigger": false,
      "metar": "METAR OJAI 290300Z 24014KT 3000 BR SCT030 SCT035 07/07 Q1011 NOSIG",
      "taf": "TAF OJAI 282300Z 2900/3006 29018G36KT 3000 RA BR SCT025TCU BKN030"
    },
    {
      "icao": "OMAA",
      "alert": "OK",
      "vis_m": 9999,
      "fzfg": false,
      "metar_trigger": false,
      "taf_trigger": false,
      "metar": "METAR OMAA 290400Z 15011KT 9999 FEW045 21/16 Q1013 NOSIG",
      "taf": "TAF OMAA 282300Z 2900/3006 16009KT 8000 NSC"
    },
    {
      "icao": "OMDB",
      "alert": "OK",
      "vis_m": 9999,
      "fzfg": false,
      "metar_trigger": false,
      "taf_trigger": false,
      "metar": "METAR OMDB 290400Z 20008KT 180V250 CAVOK 22/17 Q1013 NOSIG",
      "taf": "TAF OMDB 282300Z 2900/3006 16008KT 8000 NSC"
    },
    {
      "icao": "UAAA",
      "alert": "OK",
      "vis_m": 1800,
      "fzfg": false,
      "metar_trigger": false,
      "taf_trigger": false,
      "metar": "METAR UAAA 290330Z 20002MPS 1800 R05R/1800N BR BKN100 OVC200 M01/M03 Q1015 NOSIG",
      "taf": "TAF UAAA 282302Z 2900/2924 24003MPS 1500 BR FU SCT050 BKN100 TX05/2909Z TNM04/2901Z"
    },
    {
      "icao": "UBBB",
      "alert": "OK",
      "vis_m": 9999,
      "fzfg": false,
      "metar_trigger": false,
      "taf_trigger": false,
      "metar": "METAR UBBB 290330Z 15004KT CAVOK M00/M02 Q0999 NOSIG",
      "taf": "TAF UBBB 282301Z 2900/2924 21010KT 9999 SCT012 BKN030 TX09/2910Z TN02/2902Z"
    },
    {
      "icao": "UDSG",
      "alert": "OK",
      "vis_m": 9999,
      "fzfg": false,
      "metar_trigger": false,
      "taf_trigger": false,
      "metar": "METAR UDSG 290330Z 09002KT 9999 SCT049 M13/M15 Q1002 NOSIG",
      "taf": "TAF UDSG 282300Z 2900/2924 VRB06KT 9999 SCT040"
    },
    {
      "icao": "UDYZ",
      "alert": "OK",
      "vis_m": 9999,
      "fzfg": false,
      "metar_trigger": false,
      "taf_trigger": false,
      "metar": "METAR UDYZ 290330Z VRB02KT 9999 SCT046 M07/M09 Q1005 NOSIG",
      "taf": "TAF UDYZ 282300Z 2900/2924 20006KT 6000 FEW040"
    },
    {
      "icao": "UGKO",
      "alert": "OK",
      "vis_m": 1700,
      "fzfg": false,
      "metar_trigger": false,
      "taf_trigger": false,
      "metar": "METAR UGKO 290330Z 11005KT 1700 SHSN SCT002 BKN016CB OVC022 00/M01 Q1004 NOSIG",
      "taf": "TAF UGKO 282300Z 2900/2924 08007KT 9999 SCT015 OVC045 TX02/2911Z TNM01/2904Z"
    }
  ]
}