{
  "ts_utc": "2026-05-26T10:30:25Z",
  "threshold_m": 150,
  "source": "stations_override.txt (ICAO list) + aviationweather.gov (METAR/TAF raw)",
  "station_count": 159,
  "stations": [
    {
      "icao": "BIKF",
      "alert": "OK",
      "vis_m": 5000,
      "fzfg": false,
      "metar_trigger": false,
      "taf_trigger": false,
      "metar": "METAR BIKF 261000Z 28008KT 5000 -RA BKN008 BKN048 08/05 Q1021",
      "taf": "TAF BIKF 260759Z 2609/2709 24010KT 9999 -SHRA SCT015 BKN033 TX10/2613Z TN06/2704Z"
    },
    {
      "icao": "BKPR",
      "alert": "OK",
      "vis_m": null,
      "fzfg": false,
      "metar_trigger": false,
      "taf_trigger": false,
      "metar": "",
      "taf": ""
    },
    {
      "icao": "EBCI",
      "alert": "OK",
      "vis_m": 9999,
      "fzfg": false,
      "metar_trigger": false,
      "taf_trigger": false,
      "metar": "METAR EBCI 261020Z 10004KT 030V170 CAVOK 28/12 Q1028 NOSIG",
      "taf": "TAF EBCI 260510Z 2606/2712 05004KT CAVOK"
    },
    {
      "icao": "EDDB",
      "alert": "OK",
      "vis_m": 9999,
      "fzfg": false,
      "metar_trigger": false,
      "taf_trigger": false,
      "metar": "METAR EDDB 261020Z AUTO 28009KT 230V330 CAVOK 26/13 Q1028 NOSIG",
      "taf": "TAF EDDB 260500Z 2606/2706 27004KT CAVOK"
    },
    {
      "icao": "EDDH",
      "alert": "OK",
      "vis_m": 9999,
      "fzfg": false,
      "metar_trigger": false,
      "taf_trigger": false,
      "metar": "METAR EDDH 261020Z AUTO 23009KT CAVOK 26/15 Q1027 NOSIG",
      "taf": "TAF EDDH 260500Z 2606/2712 25006KT CAVOK"
    },
    {
      "icao": "EDDK",
      "alert": "OK",
      "vis_m": 9999,
      "fzfg": false,
      "metar_trigger": false,
      "taf_trigger": false,
      "metar": "METAR EDDK 261020Z AUTO 07006KT 040V160 CAVOK 28/12 Q1028 NOSIG",
      "taf": "TAF EDDK 260500Z 2606/2712 VRB03KT CAVOK"
    },
    {
      "icao": "EDDN",
      "alert": "OK",
      "vis_m": 9999,
      "fzfg": false,
      "metar_trigger": false,
      "taf_trigger": false,
      "metar": "METAR EDDN 261020Z AUTO 30005KT 260V350 CAVOK 29/12 Q1029 NOSIG",
      "taf": "TAF EDDN 260500Z 2606/2706 VRB02KT CAVOK"
    },
    {
      "icao": "EDDS",
      "alert": "OK",
      "vis_m": 9999,
      "fzfg": false,
      "metar_trigger": false,
      "taf_trigger": false,
      "metar": "METAR EDDS 261020Z AUTO 08005KT 350V120 CAVOK 28/12 Q1028 NOSIG",
      "taf": "TAF EDDS 260500Z 2606/2706 VRB03KT CAVOK"
    },
    {
      "icao": "EDFH",
      "alert": "OK",
      "vis_m": 9999,
      "fzfg": false,
      "metar_trigger": false,
      "taf_trigger": false,
      "metar": "METAR EDFH 261020Z 19004KT 150V250 CAVOK 26/13 Q1030",
      "taf": "TAF EDFH 260500Z 2606/2706 10006KT CAVOK"
    },
    {
      "icao": "EDJA",
      "alert": "OK",
      "vis_m": 9999,
      "fzfg": false,
      "metar_trigger": false,
      "taf_trigger": false,
      "metar": "METAR EDJA 261020Z 04005KT 340V090 CAVOK 27/09 Q1030",
      "taf": "TAF EDJA 260800Z 2609/2618 VRB03KT CAVOK"
    },
    {
      "icao": "EDLW",
      "alert": "OK",
      "vis_m": 9999,
      "fzfg": false,
      "metar_trigger": false,
      "taf_trigger": false,
      "metar": "METAR EDLW 261020Z VRB02KT CAVOK 27/06 Q1028",
      "taf": "TAF EDLW 260500Z 2606/2706 14005KT CAVOK"
    },
    {
      "icao": "EDNY",
      "alert": "OK",
      "vis_m": 9999,
      "fzfg": false,
      "metar_trigger": false,
      "taf_trigger": false,
      "metar": "METAR EDNY 261020Z 22007KT CAVOK 25/14 Q1028",
      "taf": "TAF EDNY 260800Z 2609/2618 24004KT CAVOK"
    },
    {
      "icao": "EDSB",
      "alert": "OK",
      "vis_m": 9999,
      "fzfg": false,
      "metar_trigger": false,
      "taf_trigger": false,
      "metar": "METAR EDSB 261020Z 34005KT 300V030 CAVOK 26/17 Q1027",
      "taf": "TAF EDSB 260500Z 2606/2706 02007KT CAVOK"
    },
    {
      "icao": "EETN",
      "alert": "OK",
      "vis_m": 9999,
      "fzfg": false,
      "metar_trigger": false,
      "taf_trigger": false,
      "metar": "METAR EETN 261020Z 29019KT CAVOK 15/05 Q1011 TEMPO 28020G30KT",
      "taf": "TAF EETN 260530Z 2606/2706 29012KT CAVOK"
    },
    {
      "icao": "EFTU",
      "alert": "OK",
      "vis_m": 9999,
      "fzfg": false,
      "metar_trigger": false,
      "taf_trigger": false,
      "metar": "METAR EFTU 261020Z AUTO 30012KT 270V360 9999 FEW047 15/03 Q1011",
      "taf": "TAF EFTU 260833Z 2609/2709 30010G20KT CAVOK"
    },
    {
      "icao": "EGBB",
      "alert": "OK",
      "vis_m": 9999,
      "fzfg": false,
      "metar_trigger": false,
      "taf_trigger": false,
      "metar": "METAR EGBB 261020Z 19004KT 140V260 CAVOK 29/17 Q1027",
      "taf": "TAF EGBB 260453Z 2606/2706 16003KT CAVOK"
    },
    {
      "icao": "EGGP",
      "alert": "OK",
      "vis_m": 9999,
      "fzfg": false,
      "metar_trigger": false,
      "taf_trigger": false,
      "metar": "METAR EGGP 261020Z 13003KT 070V170 CAVOK 27/17 Q1027",
      "taf": "TAF EGGP 260456Z 2606/2706 VRB03KT CAVOK"
    },
    {
      "icao": "EGGW",
      "alert": "OK",
      "vis_m": 9999,
      "fzfg": false,
      "metar_trigger": false,
      "taf_trigger": false,
      "metar": "METAR EGGW 261020Z AUTO 17006KT 140V210 9999 NCD 30/15 Q1028",
      "taf": "TAF EGGW 260458Z 2606/2706 16007KT CAVOK"
    },
    {
      "icao": "EGKK",
      "alert": "OK",
      "vis_m": 9999,
      "fzfg": false,
      "metar_trigger": false,
      "taf_trigger": false,
      "metar": "METAR EGKK 261020Z 23006KT 170V250 CAVOK 29/13 Q1027",
      "taf": "TAF EGKK 260453Z 2606/2712 08004KT CAVOK"
    },
    {
      "icao": "EGNM",
      "alert": "OK",
      "vis_m": 9999,
      "fzfg": false,
      "metar_trigger": false,
      "taf_trigger": false,
      "metar": "METAR EGNM 261020Z VRB01KT CAVOK 26/17 Q1028",
      "taf": "TAF EGNM 260457Z 2606/2706 29005KT CAVOK"
    },
    {
      "icao": "EGPD",
      "alert": "OK",
      "vis_m": 9999,
      "fzfg": false,
      "metar_trigger": false,
      "taf_trigger": false,
      "metar": "METAR EGPD 261020Z COR AUTO 03006KT 330V080 9999 FEW043 18/10 Q1029 NOSIG",
      "taf": "TAF EGPD 260454Z 2606/2706 VRB03KT 9999 SCT030"
    },
    {
      "icao": "EGPF",
      "alert": "OK",
      "vis_m": 9999,
      "fzfg": false,
      "metar_trigger": false,
      "taf_trigger": false,
      "metar": "METAR EGPF 261020Z AUTO 30004KT 250V330 9999 NCD 21/09 Q1028",
      "taf": "TAF EGPF 260457Z 2606/2706 24006KT 9999 FEW030"
    },
    {
      "icao": "EHBK",
      "alert": "OK",
      "vis_m": 9999,
      "fzfg": false,
      "metar_trigger": false,
      "taf_trigger": false,
      "metar": "METAR EHBK 261025Z AUTO 02004KT 310V120 9999 NCD 28/14 Q1028 NOSIG",
      "taf": "TAF EHBK 260502Z 2606/2712 05006KT CAVOK"
    },
    {
      "icao": "EHEH",
      "alert": "OK",
      "vis_m": 9999,
      "fzfg": false,
      "metar_trigger": false,
      "taf_trigger": false,
      "metar": "METAR EHEH 260955Z AUTO 12003KT 9999 ////// 28/12 Q1028 BLU NOSIG",
      "taf": "TAF EHEH 260626Z 2606/2712 04002KT CAVOK"
    },
    {
      "icao": "EKBI",
      "alert": "OK",
      "vis_m": 9999,
      "fzfg": false,
      "metar_trigger": false,
      "taf_trigger": false,
      "metar": "METAR EKBI 261020Z AUTO 24013KT 9999 SCT071/// 21/13 Q1025",
      "taf": "TAF EKBI 260827Z 2609/2709 25008KT CAVOK"
    },
    {
      "icao": "EKCH",
      "alert": "OK",
      "vis_m": 9999,
      "fzfg": false,
      "metar_trigger": false,
      "taf_trigger": false,
      "metar": "METAR EKCH 261020Z AUTO 30009KT 250V340 9999 BKN057/// 21/10 Q1025 TEMPO FEW050CB",
      "taf": "TAF EKCH 260827Z 2609/2709 29010KT CAVOK"
    },
    {
      "icao": "ENAL",
      "alert": "OK",
      "vis_m": 9999,
      "fzfg": false,
      "metar_trigger": false,
      "taf_trigger": false,
      "metar": "METAR ENAL 261020Z 25021KT 9999 FEW015TCU BKN054 11/09 Q1018",
      "taf": "TAF ENAL 260800Z 2609/2618 25020KT 9999 -SHRA FEW012 BKN020"
    },
    {
      "icao": "ENBR",
      "alert": "OK",
      "vis_m": 9999,
      "fzfg": false,
      "metar_trigger": false,
      "taf_trigger": false,
      "metar": "METAR ENBR 261020Z 25007KT 200V300 9999 SCT012 BKN020 10/07 Q1025 NOSIG RMK WIND 1200FT 28017G28KT",
      "taf": "TAF ENBR 260500Z 2606/2706 19006KT 9999 BKN006"
    },
    {
      "icao": "ENGM",
      "alert": "OK",
      "vis_m": 9999,
      "fzfg": false,
      "metar_trigger": false,
      "taf_trigger": false,
      "metar": "METAR ENGM 261020Z 25008KT 220V320 CAVOK 17/01 Q1016 NOSIG",
      "taf": ""
    },
    {
      "icao": "ENHD",
      "alert": "OK",
      "vis_m": 9999,
      "fzfg": false,
      "metar_trigger": false,
      "taf_trigger": false,
      "metar": "METAR ENHD 261020Z 28010KT 9999 BKN007 BKN012 11/09 Q1026",
      "taf": "TAF ENHD 260800Z 2609/2618 29015KT 9999 FEW012 BKN030"
    },
    {
      "icao": "ENTC",
      "alert": "OK",
      "vis_m": 9999,
      "fzfg": false,
      "metar_trigger": false,
      "taf_trigger": false,
      "metar": "METAR ENTC 261020Z 36005KT 330V030 9999 FEW034TCU 10/03 Q1006 NOSIG RMK WIND 2600FT 16012KT",
      "taf": ""
    },
    {
      "icao": "ENTO",
      "alert": "OK",
      "vis_m": 9999,
      "fzfg": false,
      "metar_trigger": false,
      "taf_trigger": false,
      "metar": "METAR ENTO 261020Z 26008KT 220V290 CAVOK 16/02 Q1019 NOSIG",
      "taf": ""
    },
    {
      "icao": "ENVA",
      "alert": "OK",
      "vis_m": 9999,
      "fzfg": false,
      "metar_trigger": false,
      "taf_trigger": false,
      "metar": "METAR ENVA 261020Z 26015KT 9999 -DZRA FEW028TCU SCT039 BKN046 09/06 Q1014 RERA NOSIG RMK WIND 670FT 27015KT",
      "taf": ""
    },
    {
      "icao": "ENZV",
      "alert": "OK",
      "vis_m": 9999,
      "fzfg": false,
      "metar_trigger": false,
      "taf_trigger": false,
      "metar": "METAR ENZV 261020Z 31010KT 9999 FEW020 12/09 Q1026 NOSIG",
      "taf": "TAF ENZV 260500Z 2606/2706 VRB03KT 9999 FEW008 BKN040"
    },
    {
      "icao": "EPGD",
      "alert": "OK",
      "vis_m": 9999,
      "fzfg": false,
      "metar_trigger": false,
      "taf_trigger": false,
      "metar": "METAR EPGD 261000Z 29019KT 9999 FEW043 21/10 Q1023",
      "taf": "TAF EPGD 260530Z 2606/2706 29018KT CAVOK"
    },
    {
      "icao": "EPKK",
      "alert": "OK",
      "vis_m": 9999,
      "fzfg": false,
      "metar_trigger": false,
      "taf_trigger": false,
      "metar": "METAR EPKK 261000Z 28012KT CAVOK 24/09 Q1026",
      "taf": "TAF EPKK 260830Z 2609/2709 27010KT CAVOK"
    },
    {
      "icao": "EPKT",
      "alert": "OK",
      "vis_m": 9999,
      "fzfg": false,
      "metar_trigger": false,
      "taf_trigger": false,
      "metar": "METAR EPKT 261000Z 33015KT CAVOK 23/08 Q1027",
      "taf": "TAF EPKT 260530Z 2606/2706 32011KT CAVOK"
    },
    {
      "icao": "EPLB",
      "alert": "OK",
      "vis_m": 9999,
      "fzfg": false,
      "metar_trigger": false,
      "taf_trigger": false,
      "metar": "METAR EPLB 261000Z 28013KT CAVOK 24/11 Q1022",
      "taf": "TAF EPLB 260530Z 2606/2706 29014KT CAVOK"
    },
    {
      "icao": "EPMO",
      "alert": "OK",
      "vis_m": 9999,
      "fzfg": false,
      "metar_trigger": false,
      "taf_trigger": false,
      "metar": "METAR EPMO 261000Z 28014KT 250V320 CAVOK 24/12 Q1023",
      "taf": "TAF EPMO 260530Z 2606/2706 30014KT CAVOK"
    },
    {
      "icao": "EPPO",
      "alert": "OK",
      "vis_m": 9999,
      "fzfg": false,
      "metar_trigger": false,
      "taf_trigger": false,
      "metar": "METAR EPPO 261000Z 29011KT CAVOK 26/11 Q1026",
      "taf": "TAF EPPO 260530Z 2606/2706 30012KT CAVOK"
    },
    {
      "icao": "EPRA",
      "alert": "OK",
      "vis_m": 9999,
      "fzfg": false,
      "metar_trigger": false,
      "taf_trigger": false,
      "metar": "METAR EPRA 261000Z 30014G25KT 270V330 CAVOK 24/06 Q1023",
      "taf": "TAF EPRA 260830Z 2609/2618 30012KT CAVOK"
    },
    {
      "icao": "EPRZ",
      "alert": "OK",
      "vis_m": 9999,
      "fzfg": false,
      "metar_trigger": false,
      "taf_trigger": false,
      "metar": "METAR EPRZ 261000Z 28014KT CAVOK 24/06 Q1024",
      "taf": "TAF EPRZ 260530Z 2606/2706 30014KT CAVOK"
    },
    {
      "icao": "EPSC",
      "alert": "OK",
      "vis_m": 9999,
      "fzfg": false,
      "metar_trigger": false,
      "taf_trigger": false,
      "metar": "METAR EPSC 261000Z 28014KT CAVOK 25/10 Q1026",
      "taf": "TAF EPSC 260530Z 2606/2706 28008KT CAVOK"
    },
    {
      "icao": "EPSY",
      "alert": "OK",
      "vis_m": 9999,
      "fzfg": false,
      "metar_trigger": false,
      "taf_trigger": false,
      "metar": "METAR EPSY 261000Z 28012KT 220V340 9999 FEW039 22/11 Q1022",
      "taf": "TAF EPSY 260830Z 2609/2618 31012KT 9999 SCT035"
    },
    {
      "icao": "EPWA",
      "alert": "OK",
      "vis_m": 9999,
      "fzfg": false,
      "metar_trigger": false,
      "taf_trigger": false,
      "metar": "METAR EPWA 261000Z 30014KT 270V330 CAVOK 24/12 Q1023 NOSIG",
      "taf": "TAF EPWA 260830Z 2609/2709 29016KT CAVOK"
    },
    {
      "icao": "EPWR",
      "alert": "OK",
      "vis_m": 9999,
      "fzfg": false,
      "metar_trigger": false,
      "taf_trigger": false,
      "metar": "METAR EPWR 261000Z 28014KT CAVOK 26/11 Q1027",
      "taf": "TAF EPWR 260830Z 2609/2709 29012KT CAVOK"
    },
    {
      "icao": "ESGG",
      "alert": "OK",
      "vis_m": 9999,
      "fzfg": false,
      "metar_trigger": false,
      "taf_trigger": false,
      "metar": "METAR ESGG 261020Z 27009KT 220V300 CAVOK 15/06 Q1022",
      "taf": "TAF ESGG 260830Z 2609/2709 27012KT CAVOK"
    },
    {
      "icao": "ESKN",
      "alert": "OK",
      "vis_m": 9999,
      "fzfg": false,
      "metar_trigger": false,
      "taf_trigger": false,
      "metar": "METAR ESKN 261020Z 27018KT CAVOK 19/06 Q1015",
      "taf": "TAF ESKN 260830Z 2609/2709 26015G25KT 9999 FEW040"
    },
    {
      "icao": "ESMS",
      "alert": "OK",
      "vis_m": 9999,
      "fzfg": false,
      "metar_trigger": false,
      "taf_trigger": false,
      "metar": "METAR ESMS 261020Z 31011KT CAVOK 20/12 Q1024",
      "taf": "TAF ESMS 260827Z 2609/2709 30012KT CAVOK"
    },
    {
      "icao": "ESSA",
      "alert": "OK",
      "vis_m": 9999,
      "fzfg": false,
      "metar_trigger": false,
      "taf_trigger": false,
      "metar": "METAR ESSA 261020Z 25013KT 9999 FEW044 SCT059 17/07 Q1012 NOSIG",
      "taf": "TAF ESSA 260830Z 2609/2709 26010KT CAVOK"
    },
    {
      "icao": "EYKA",
      "alert": "OK",
      "vis_m": 9999,
      "fzfg": false,
      "metar_trigger": false,
      "taf_trigger": false,
      "metar": "METAR EYKA 261020Z 34006KT 290V050 9999 FEW037 SCT044 19/11 Q1016",
      "taf": "TAF EYKA 260501Z 2606/2706 30013KT 9000 SCT030"
    },
    {
      "icao": "EYPA",
      "alert": "OK",
      "vis_m": 9999,
      "fzfg": false,
      "metar_trigger": false,
      "taf_trigger": false,
      "metar": "METAR EYPA 261020Z 28005KT 220V330 CAVOK 14/10 Q1019",
      "taf": "TAF EYPA 260500Z 2606/2706 29007KT 9000 FEW015"
    },
    {
      "icao": "EYVI",
      "alert": "OK",
      "vis_m": 9999,
      "fzfg": false,
      "metar_trigger": false,
      "taf_trigger": false,
      "metar": "METAR EYVI 261020Z 33010KT 290V350 9999 SCT037 BKN047 17/09 Q1016 TEMPO BKN035CB",
      "taf": "TAF EYVI 260500Z 2606/2706 29010KT 8000 BKN010"
    },
    {
      "icao": "GCFV",
      "alert": "OK",
      "vis_m": 9999,
      "fzfg": false,
      "metar_trigger": false,
      "taf_trigger": false,
      "metar": "METAR GCFV 261000Z VRB02KT CAVOK 23/18 Q1018",
      "taf": "TAF GCFV 260800Z 2609/2709 07005KT CAVOK TX33/2614Z TN21/2706Z"
    },
    {
      "icao": "GCLP",
      "alert": "OK",
      "vis_m": 9999,
      "fzfg": false,
      "metar_trigger": false,
      "taf_trigger": false,
      "metar": "METAR GCLP 261000Z 03014KT CAVOK 21/18 Q1019 NOSIG",
      "taf": "TAF GCLP 260800Z 2609/2709 02015KT CAVOK TX29/2614Z TN21/2706Z"
    },
    {
      "icao": "GCTS",
      "alert": "OK",
      "vis_m": 9999,
      "fzfg": false,
      "metar_trigger": false,
      "taf_trigger": false,
      "metar": "METAR GCTS 261000Z VRB01KT 9999 FEW011 22/18 Q1020 NOSIG",
      "taf": "TAF GCTS 260800Z 2609/2709 10010KT CAVOK TX30/2614Z TN20/2706Z"
    },
    {
      "icao": "GMAD",
      "alert": "OK",
      "vis_m": 9999,
      "fzfg": false,
      "metar_trigger": false,
      "taf_trigger": false,
      "metar": "METAR GMAD 261000Z 25006KT 210V300 CAVOK 33/11 Q1017 NOSIG",
      "taf": "TAF GMAD 260500Z 2606/2712 06010KT 8000 NSC"
    },
    {
      "icao": "GMMN",
      "alert": "OK",
      "vis_m": 9999,
      "fzfg": false,
      "metar_trigger": false,
      "taf_trigger": false,
      "metar": "METAR GMMN 261000Z 05009KT 010V100 CAVOK 39/09 Q1018 NOSIG",
      "taf": "TAF GMMN 260500Z 2606/2712 12006KT CAVOK"
    },
    {
      "icao": "GMMX",
      "alert": "OK",
      "vis_m": 8000,
      "fzfg": false,
      "metar_trigger": false,
      "taf_trigger": false,
      "metar": "METAR GMMX 261000Z VRB04KT 8000 FEW030 SCT100 35/10 Q1019 NOSIG",
      "taf": "TAF GMMX 260500Z 2606/2712 12006KT 8000 SCT033 SCT100"
    },
    {
      "icao": "HEGN",
      "alert": "OK",
      "vis_m": 9999,
      "fzfg": false,
      "metar_trigger": false,
      "taf_trigger": false,
      "metar": "METAR HEGN 261000Z 36015KT CAVOK 29/12 Q1012 NOSIG",
      "taf": ""
    },
    {
      "icao": "HEMA",
      "alert": "OK",
      "vis_m": 9999,
      "fzfg": false,
      "metar_trigger": false,
      "taf_trigger": false,
      "metar": "METAR HEMA 261000Z 36018KT CAVOK 29/14 Q1011 NOSIG",
      "taf": ""
    },
    {
      "icao": "HESH",
      "alert": "OK",
      "vis_m": 9999,
      "fzfg": false,
      "metar_trigger": false,
      "taf_trigger": false,
      "metar": "METAR HESH 261000Z 01011KT CAVOK 30/17 Q1011 NOSIG",
      "taf": ""
    },
    {
      "icao": "HESX",
      "alert": "OK",
      "vis_m": 9999,
      "fzfg": false,
      "metar_trigger": false,
      "taf_trigger": false,
      "metar": "METAR HESX 261000Z 02006KT 9999 SCT025 25/14 Q1016 NOSIG",
      "taf": ""
    },
    {
      "icao": "LATI",
      "alert": "OK",
      "vis_m": 9999,
      "fzfg": false,
      "metar_trigger": false,
      "taf_trigger": false,
      "metar": "METAR LATI 261020Z 30007KT 260V340 CAVOK 31/17 Q1022 NOSIG",
      "taf": "TAF LATI 260500Z 2606/2706 VRB04KT CAVOK TX32/2612Z TN15/2704Z"
    },
    {
      "icao": "LBPD",
      "alert": "OK",
      "vis_m": 9999,
      "fzfg": false,
      "metar_trigger": false,
      "taf_trigger": false,
      "metar": "METAR LBPD 261000Z AUTO VRB04KT 9999 FEW250/// 27/15 Q1023 NOSIG",
      "taf": "TAF LBPD 260500Z 2606/2706 29014KT 9999 SCT060"
    },
    {
      "icao": "LBSF",
      "alert": "OK",
      "vis_m": 9999,
      "fzfg": false,
      "metar_trigger": false,
      "taf_trigger": false,
      "metar": "METAR LBSF 261000Z VRB04KT 9999 SCT070 27/11 Q1024 NOSIG",
      "taf": "TAF LBSF 260500Z 2606/2706 VRB03KT 9999 SCT060"
    },
    {
      "icao": "LBWN",
      "alert": "OK",
      "vis_m": 9999,
      "fzfg": false,
      "metar_trigger": false,
      "taf_trigger": false,
      "metar": "METAR LBWN 261000Z 34008KT 300V020 CAVOK 26/13 Q1021 NOSIG",
      "taf": "TAF LBWN 260500Z 2606/2706 36012KT CAVOK"
    },
    {
      "icao": "LCLK",
      "alert": "OK",
      "vis_m": 9999,
      "fzfg": false,
      "metar_trigger": false,
      "taf_trigger": false,
      "metar": "METAR LCLK 261000Z 17011KT 9999 FEW030 25/20 Q1016 NOSIG",
      "taf": "TAF LCLK 260530Z 2606/2706 12006KT 9999 FEW025"
    },
    {
      "icao": "LCPH",
      "alert": "OK",
      "vis_m": 9999,
      "fzfg": false,
      "metar_trigger": false,
      "taf_trigger": false,
      "metar": "METAR LCPH 261000Z 28009KT 250V320 9999 FEW025 24/18 Q1016 NOSIG",
      "taf": "TAF LCPH 260530Z 2606/2706 22007KT 9999 FEW020"
    },
    {
      "icao": "LEAL",
      "alert": "OK",
      "vis_m": 9999,
      "fzfg": false,
      "metar_trigger": false,
      "taf_trigger": false,
      "metar": "METAR LEAL 261000Z 09008KT 050V120 CAVOK 27/09 Q1028 NOSIG",
      "taf": ""
    },
    {
      "icao": "LEBB",
      "alert": "OK",
      "vis_m": 9999,
      "fzfg": false,
      "metar_trigger": false,
      "taf_trigger": false,
      "metar": "METAR LEBB 261000Z 13008KT 070V170 CAVOK 32/12 Q1023 NOSIG",
      "taf": "TAF LEBB 260500Z 2606/2706 13009KT CAVOK TX38/2615Z TN18/2606Z"
    },
    {
      "icao": "LEBL",
      "alert": "OK",
      "vis_m": 9999,
      "fzfg": false,
      "metar_trigger": false,
      "taf_trigger": false,
      "metar": "METAR LEBL 261000Z 20009KT CAVOK 25/15 Q1027 NOSIG",
      "taf": "TAF LEBL 260500Z 2606/2706 33006KT 9999 FEW015 TX27/2612Z TN18/2705Z"
    },
    {
      "icao": "LECH",
      "alert": "OK",
      "vis_m": 9000,
      "fzfg": false,
      "metar_trigger": false,
      "taf_trigger": false,
      "metar": "METAR LECH 261000Z AUTO 17004KT 100V270 9000 NCD 25/08 Q1029",
      "taf": "TAF LECH 260500Z 2606/2706 VRB04KT CAVOK TX30/2613Z TN13/2606Z"
    },
    {
      "icao": "LEMD",
      "alert": "OK",
      "vis_m": 9999,
      "fzfg": false,
      "metar_trigger": false,
      "taf_trigger": false,
      "metar": "METAR LEMD 261000Z 15003KT 040V210 CAVOK 26/04 Q1028 NOSIG",
      "taf": "TAF LEMD 260500Z 2606/2712 VRB04KT CAVOK TX33/2616Z TN15/2705Z"
    },
    {
      "icao": "LEMG",
      "alert": "OK",
      "vis_m": 9999,
      "fzfg": false,
      "metar_trigger": false,
      "taf_trigger": false,
      "metar": "METAR LEMG 261000Z 13008KT 090V170 CAVOK 23/13 Q1027 NOSIG",
      "taf": "TAF LEMG 260500Z 2606/2706 29005KT CAVOK TX27/2614Z TN17/2606Z"
    },
    {
      "icao": "LEVC",
      "alert": "OK",
      "vis_m": 9999,
      "fzfg": false,
      "metar_trigger": false,
      "taf_trigger": false,
      "metar": "METAR LEVC 261000Z 06003KT CAVOK 26/09 Q1028 NOSIG",
      "taf": ""
    },
    {
      "icao": "LEXJ",
      "alert": "OK",
      "vis_m": 9999,
      "fzfg": false,
      "metar_trigger": false,
      "taf_trigger": false,
      "metar": "METAR LEXJ 261000Z 06003KT 010V110 CAVOK 26/17 Q1022",
      "taf": "TAF LEXJ 260800Z 2609/2709 VRB03KT CAVOK TX36/2612Z TN17/2704Z"
    },
    {
      "icao": "LEZG",
      "alert": "OK",
      "vis_m": 9999,
      "fzfg": false,
      "metar_trigger": false,
      "taf_trigger": false,
      "metar": "METAR LEZG 261000Z 07005KT 010V140 CAVOK 26/08 Q1028 NOSIG",
      "taf": "TAF LEZG 260500Z 2606/2706 11012KT CAVOK TX34/2615Z TN17/2606Z"
    },
    {
      "icao": "LEZL",
      "alert": "OK",
      "vis_m": 9999,
      "fzfg": false,
      "metar_trigger": false,
      "taf_trigger": false,
      "metar": "METAR LEZL 261000Z 08006KT 030V120 CAVOK 31/09 Q1022 NOSIG",
      "taf": "TAF LEZL 260800Z 2609/2709 09010KT CAVOK TX37/2615Z TN20/2706Z"
    },
    {
      "icao": "LFBD",
      "alert": "OK",
      "vis_m": 9999,
      "fzfg": false,
      "metar_trigger": false,
      "taf_trigger": false,
      "metar": "METAR LFBD 261000Z AUTO 14004KT 090V200 CAVOK 30/14 Q1025 NOSIG",
      "taf": "TAF LFBD 260500Z 2606/2712 11006KT CAVOK TX37/2615Z TN20/2606Z"
    },
    {
      "icao": "LFLL",
      "alert": "OK",
      "vis_m": 9999,
      "fzfg": false,
      "metar_trigger": false,
      "taf_trigger": false,
      "metar": "METAR LFLL 261000Z 22003KT 110V270 CAVOK 29/14 Q1028 NOSIG",
      "taf": "TAF LFLL 260500Z 2606/2712 VRB04KT CAVOK"
    },
    {
      "icao": "LFLS",
      "alert": "OK",
      "vis_m": 9999,
      "fzfg": false,
      "metar_trigger": false,
      "taf_trigger": false,
      "metar": "METAR LFLS 261000Z AUTO VRB03KT CAVOK 28/16 Q1028 NOSIG",
      "taf": "TAF LFLS 260800Z 2609/2709 VRB04KT CAVOK"
    },
    {
      "icao": "LFMN",
      "alert": "OK",
      "vis_m": 9999,
      "fzfg": false,
      "metar_trigger": false,
      "taf_trigger": false,
      "metar": "METAR LFMN 261000Z 16005KT CAVOK 26/17 Q1027 NOSIG",
      "taf": "TAF LFMN 260800Z 2609/2715 16006KT CAVOK"
    },
    {
      "icao": "LFOB",
      "alert": "OK",
      "vis_m": 9999,
      "fzfg": false,
      "metar_trigger": false,
      "taf_trigger": false,
      "metar": "METAR LFOB 261000Z AUTO 04004KT 360V110 CAVOK 28/15 Q1028 NOSIG",
      "taf": "TAF LFOB 260500Z 2606/2706 VRB03KT CAVOK"
    },
    {
      "icao": "LFPO",
      "alert": "OK",
      "vis_m": 9999,
      "fzfg": false,
      "metar_trigger": false,
      "taf_trigger": false,
      "metar": "METAR LFPO 261000Z VRB03KT CAVOK 30/16 Q1027 NOSIG",
      "taf": "TAF LFPO 260500Z 2606/2712 02004KT CAVOK"
    },
    {
      "icao": "LFSB",
      "alert": "OK",
      "vis_m": 9999,
      "fzfg": false,
      "metar_trigger": false,
      "taf_trigger": false,
      "metar": "METAR LFSB 261000Z AUTO 10004KT 030V160 CAVOK 29/15 Q1028 NOSIG",
      "taf": "TAF LFSB 260500Z 2606/2706 VRB03KT CAVOK"
    },
    {
      "icao": "LGAV",
      "alert": "OK",
      "vis_m": 9999,
      "fzfg": false,
      "metar_trigger": false,
      "taf_trigger": false,
      "metar": "METAR LGAV 261020Z 05019KT 9999 SCT025 27/10 Q1021 NOSIG",
      "taf": "TAF LGAV 260500Z 2606/2706 34010KT 9999 FEW025"
    },
    {
      "icao": "LGTS",
      "alert": "OK",
      "vis_m": 9999,
      "fzfg": false,
      "metar_trigger": false,
      "taf_trigger": false,
      "metar": "METAR LGTS 261020Z 26008KT 9999 FEW025 28/15 Q1022 NOSIG",
      "taf": "TAF LGTS 260500Z 2606/2706 VRB03KT 9999 FEW025"
    },
    {
      "icao": "LHBP",
      "alert": "OK",
      "vis_m": 9999,
      "fzfg": false,
      "metar_trigger": false,
      "taf_trigger": false,
      "metar": "METAR LHBP 261000Z 28011KT 260V330 CAVOK 27/10 Q1026 NOSIG",
      "taf": "TAF LHBP 260515Z 2606/2706 VRB03KT CAVOK"
    },
    {
      "icao": "LHDC",
      "alert": "OK",
      "vis_m": 9999,
      "fzfg": false,
      "metar_trigger": false,
      "taf_trigger": false,
      "metar": "METAR LHDC 260945Z AUTO VRB08KT CAVOK 28/09 Q1025 NOSIG",
      "taf": "TAF LHDC 260815Z 2609/2618 34009KT CAVOK"
    },
    {
      "icao": "LIBD",
      "alert": "OK",
      "vis_m": 9999,
      "fzfg": false,
      "metar_trigger": false,
      "taf_trigger": false,
      "metar": "METAR LIBD 261020Z 34009KT 290V010 CAVOK 26/13 Q1025",
      "taf": "TAF LIBD 260500Z 2606/2706 29007KT CAVOK"
    },
    {
      "icao": "LIBG",
      "alert": "OK",
      "vis_m": 9999,
      "fzfg": false,
      "metar_trigger": false,
      "taf_trigger": false,
      "metar": "METAR LIBG 261020Z AUTO 03011KT 360V060 9999 NCD 31/11 Q1023",
      "taf": "TAF LIBG 260500Z 2606/2706 32007KT CAVOK"
    },
    {
      "icao": "LIBP",
      "alert": "OK",
      "vis_m": 9999,
      "fzfg": false,
      "metar_trigger": false,
      "taf_trigger": false,
      "metar": "METAR LIBP 261020Z AUTO 04010KT 9999 NCD 28/15 Q1026",
      "taf": "TAF LIBP 260500Z 2606/2706 23005KT CAVOK"
    },
    {
      "icao": "LIBR",
      "alert": "OK",
      "vis_m": 9999,
      "fzfg": false,
      "metar_trigger": false,
      "taf_trigger": false,
      "metar": "METAR LIBR 261020Z 33015KT CAVOK 22/17 Q1024",
      "taf": "TAF LIBR 260500Z 2606/2706 33013KT CAVOK"
    },
    {
      "icao": "LICA",
      "alert": "OK",
      "vis_m": 9999,
      "fzfg": false,
      "metar_trigger": false,
      "taf_trigger": false,
      "metar": "METAR LICA 261020Z AUTO 26009KT 220V280 9999 NCD 24/19 Q1025",
      "taf": "TAF LICA 260500Z 2606/2706 VRB05KT 9999 FEW050"
    },
    {
      "icao": "LICC",
      "alert": "OK",
      "vis_m": 9999,
      "fzfg": false,
      "metar_trigger": false,
      "taf_trigger": false,
      "metar": "METAR LICC 261020Z 11006KT 070V160 CAVOK 27/18 Q1024",
      "taf": "TAF LICC 260500Z 2606/2706 VRB05KT 9999 FEW060"
    },
    {
      "icao": "LICJ",
      "alert": "OK",
      "vis_m": 9999,
      "fzfg": false,
      "metar_trigger": false,
      "taf_trigger": false,
      "metar": "METAR LICJ 261020Z 01006KT CAVOK 23/20 Q1025",
      "taf": "TAF LICJ 260500Z 2606/2706 VRB05KT CAVOK"
    },
    {
      "icao": "LIMC",
      "alert": "OK",
      "vis_m": 9999,
      "fzfg": false,
      "metar_trigger": false,
      "taf_trigger": false,
      "metar": "METAR LIMC 261020Z VRB02KT CAVOK 31/12 Q1027 NOSIG",
      "taf": "TAF LIMC 260500Z 2606/2712 VRB05KT CAVOK"
    },
    {
      "icao": "LIME",
      "alert": "OK",
      "vis_m": 9999,
      "fzfg": false,
      "metar_trigger": false,
      "taf_trigger": false,
      "metar": "METAR LIME 261020Z VRB05KT CAVOK 30/14 Q1027 NOSIG",
      "taf": "TAF LIME 260500Z 2606/2706 VRB05KT 9999 FEW050"
    },
    {
      "icao": "LIMF",
      "alert": "OK",
      "vis_m": 9999,
      "fzfg": false,
      "metar_trigger": false,
      "taf_trigger": false,
      "metar": "METAR LIMF 261020Z 13004KT 100V180 CAVOK 30/16 Q1027",
      "taf": "TAF LIMF 260500Z 2606/2706 VRB04KT CAVOK"
    },
    {
      "icao": "LIMJ",
      "alert": "OK",
      "vis_m": 9999,
      "fzfg": false,
      "metar_trigger": false,
      "taf_trigger": false,
      "metar": "METAR LIMJ 261020Z 25005KT CAVOK 25/16 Q1027",
      "taf": "TAF LIMJ 260500Z 2606/2706 VRB05KT 9999 FEW030"
    },
    {
      "icao": "LIPE",
      "alert": "OK",
      "vis_m": 9999,
      "fzfg": false,
      "metar_trigger": false,
      "taf_trigger": false,
      "metar": "METAR LIPE 261020Z VRB03KT CAVOK 31/14 Q1026",
      "taf": "TAF LIPE 260500Z 2606/2706 20007KT CAVOK"
    },
    {
      "icao": "LIPH",
      "alert": "OK",
      "vis_m": 9999,
      "fzfg": false,
      "metar_trigger": false,
      "taf_trigger": false,
      "metar": "METAR LIPH 261020Z VRB04KT CAVOK 30/17 Q1026",
      "taf": "TAF LIPH 260500Z 2606/2706 VRB05KT CAVOK"
    },
    {
      "icao": "LIPQ",
      "alert": "OK",
      "vis_m": 9999,
      "fzfg": false,
      "metar_trigger": false,
      "taf_trigger": false,
      "metar": "METAR LIPQ 261020Z AUTO 20005KT 160V250 9999 NCD 31/18 Q1026",
      "taf": "TAF LIPQ 260500Z 2606/2706 VRB05KT CAVOK"
    },
    {
      "icao": "LIPR",
      "alert": "OK",
      "vis_m": 9999,
      "fzfg": false,
      "metar_trigger": false,
      "taf_trigger": false,
      "metar": "METAR LIPR 261020Z 02008KT CAVOK 28/14 Q1026",
      "taf": "TAF LIPR 260500Z 2606/2706 VRB05KT CAVOK"
    },
    {
      "icao": "LIPX",
      "alert": "OK",
      "vis_m": 9999,
      "fzfg": false,
      "metar_trigger": false,
      "taf_trigger": false,
      "metar": "METAR LIPX 261020Z VRB04KT CAVOK 31/18 Q1026",
      "taf": "TAF LIPX 260500Z 2606/2706 VRB05KT CAVOK"
    },
    {
      "icao": "LIPY",
      "alert": "OK",
      "vis_m": 9999,
      "fzfg": false,
      "metar_trigger": false,
      "taf_trigger": false,
      "metar": "METAR LIPY 261020Z AUTO 36005KT 330V030 9999 NCD 28/15 Q1026",
      "taf": "TAF LIPY 260500Z 2606/2706 VRB05KT CAVOK"
    },
    {
      "icao": "LIPZ",
      "alert": "OK",
      "vis_m": 9999,
      "fzfg": false,
      "metar_trigger": false,
      "taf_trigger": false,
      "metar": "METAR LIPZ 261020Z 15004KT 110V180 CAVOK 28/19 Q1026 NOSIG",
      "taf": "TAF LIPZ 260500Z 2606/2712 VRB05KT CAVOK"
    },
    {
      "icao": "LIRF",
      "alert": "OK",
      "vis_m": 9999,
      "fzfg": false,
      "metar_trigger": false,
      "taf_trigger": false,
      "metar": "METAR LIRF 261020Z 24009KT 210V270 CAVOK 30/12 Q1025 NOSIG",
      "taf": "TAF LIRF 260500Z 2606/2712 VRB05KT CAVOK"
    },
    {
      "icao": "LIRN",
      "alert": "OK",
      "vis_m": 9999,
      "fzfg": false,
      "metar_trigger": false,
      "taf_trigger": false,
      "metar": "METAR LIRN 261020Z VRB05KT CAVOK 35/11 Q1025 NOSIG",
      "taf": "TAF LIRN 260500Z 2606/2706 VRB05KT CAVOK"
    },
    {
      "icao": "LIRP",
      "alert": "OK",
      "vis_m": 9999,
      "fzfg": false,
      "metar_trigger": false,
      "taf_trigger": false,
      "metar": "METAR LIRP 261015Z 32005KT CAVOK 30/16 Q1026 NOSIG",
      "taf": "TAF LIRP 260500Z 2606/2706 15005KT CAVOK"
    },
    {
      "icao": "LIRZ",
      "alert": "OK",
      "vis_m": 9999,
      "fzfg": false,
      "metar_trigger": false,
      "taf_trigger": false,
      "metar": "METAR LIRZ 261020Z AUTO 03006KT 350V080 9999 NCD 29/15 Q1026",
      "taf": "TAF LIRZ 260500Z 2606/2706 VRB05KT CAVOK"
    },
    {
      "icao": "LJLJ",
      "alert": "OK",
      "vis_m": 9999,
      "fzfg": false,
      "metar_trigger": false,
      "taf_trigger": false,
      "metar": "METAR LJLJ 261000Z 12003KT 070V160 9999 FEW060 28/17 Q1028 NOSIG",
      "taf": "TAF LJLJ 260500Z 2606/2706 VRB02KT CAVOK"
    },
    {
      "icao": "LKMT",
      "alert": "OK",
      "vis_m": 9999,
      "fzfg": false,
      "metar_trigger": false,
      "taf_trigger": false,
      "metar": "METAR LKMT 261000Z 35007KT 320V030 CAVOK 24/10 Q1028 NOSIG",
      "taf": "TAF LKMT 260500Z 2606/2706 22003KT CAVOK"
    },
    {
      "icao": "LKPR",
      "alert": "OK",
      "vis_m": 9999,
      "fzfg": false,
      "metar_trigger": false,
      "taf_trigger": false,
      "metar": "METAR LKPR 261000Z 35004KT 260V050 CAVOK 25/08 Q1030 NOSIG",
      "taf": "TAF LKPR 260800Z 2609/2715 34006KT CAVOK"
    },
    {
      "icao": "LLBG",
      "alert": "OK",
      "vis_m": 9999,
      "fzfg": false,
      "metar_trigger": false,
      "taf_trigger": false,
      "metar": "METAR LLBG 261020Z 32012KT 9999 FEW040 25/15 Q1014 NOSIG",
      "taf": "TAF LLBG 260502Z 2606/2706 VRB04KT 9999 FEW025 TX27/2610Z TN19/2704Z"
    },
    {
      "icao": "LMML",
      "alert": "OK",
      "vis_m": 9999,
      "fzfg": false,
      "metar_trigger": false,
      "taf_trigger": false,
      "metar": "METAR LMML 261015Z 06009KT 330V100 9999 FEW025 25/14 Q1025 NOSIG",
      "taf": "TAF LMML 260500Z 2606/2706 33006KT CAVOK"
    },
    {
      "icao": "LOWW",
      "alert": "OK",
      "vis_m": 9999,
      "fzfg": false,
      "metar_trigger": false,
      "taf_trigger": false,
      "metar": "METAR LOWW 261020Z 34009KT 300V010 CAVOK 28/11 Q1027 NOSIG",
      "taf": "TAF LOWW 260815Z 2609/2715 35009KT CAVOK TX31/2614Z TN16/2703Z"
    },
    {
      "icao": "LPFR",
      "alert": "OK",
      "vis_m": 9999,
      "fzfg": false,
      "metar_trigger": false,
      "taf_trigger": false,
      "metar": "METAR LPFR 261000Z 09015KT CAVOK 25/11 Q1022",
      "taf": "TAF LPFR 260500Z 2606/2706 08010KT CAVOK"
    },
    {
      "icao": "LPMA",
      "alert": "OK",
      "vis_m": 9999,
      "fzfg": false,
      "metar_trigger": false,
      "taf_trigger": false,
      "metar": "METAR LPMA 261000Z 04007KT 9999 SCT015 BKN030 20/15 Q1020",
      "taf": "TAF LPMA 260500Z 2606/2706 VRB05KT 9999 SCT015 BKN030"
    },
    {
      "icao": "LPPR",
      "alert": "OK",
      "vis_m": 9000,
      "fzfg": false,
      "metar_trigger": false,
      "taf_trigger": false,
      "metar": "METAR LPPR 261000Z 29004KT 9000 NSC 23/16 Q1023",
      "taf": ""
    },
    {
      "icao": "LPPS",
      "alert": "OK",
      "vis_m": 9999,
      "fzfg": false,
      "metar_trigger": false,
      "taf_trigger": false,
      "metar": "METAR LPPS 261000Z 33007KT 290V030 9999 FEW015 SCT030 19/13 Q1021",
      "taf": "TAF LPPS 260500Z 2606/2712 35010KT 9999 SCT015 SCT030"
    },
    {
      "icao": "LPPT",
      "alert": "OK",
      "vis_m": 9999,
      "fzfg": false,
      "metar_trigger": false,
      "taf_trigger": false,
      "metar": "METAR LPPT 261000Z 08008KT 340V120 CAVOK 26/14 Q1022",
      "taf": "TAF LPPT 260500Z 2606/2712 06005KT CAVOK"
    },
    {
      "icao": "LQBK",
      "alert": "OK",
      "vis_m": 9999,
      "fzfg": false,
      "metar_trigger": false,
      "taf_trigger": false,
      "metar": "METAR LQBK 261000Z 33008KT 290V360 CAVOK 27/13 Q1027 NOSIG",
      "taf": ""
    },
    {
      "icao": "LQSA",
      "alert": "OK",
      "vis_m": 9999,
      "fzfg": false,
      "metar_trigger": false,
      "taf_trigger": false,
      "metar": "METAR LQSA 261000Z 31008KT 280V360 CAVOK 25/11 Q1027 NOSIG",
      "taf": "TAF LQSA 260500Z 2606/2706 30005KT CAVOK TX28/2614Z TN13/2704Z"
    },
    {
      "icao": "LQTZ",
      "alert": "OK",
      "vis_m": 9999,
      "fzfg": false,
      "metar_trigger": false,
      "taf_trigger": false,
      "metar": "METAR LQTZ 261000Z 31010KT 250V340 CAVOK 27/12 Q1026",
      "taf": "TAF LQTZ 260500Z 2606/2706 32005KT 9999 SCT055 TX29/2614Z TN12/2703Z"
    },
    {
      "icao": "LRBC",
      "alert": "OK",
      "vis_m": 9999,
      "fzfg": false,
      "metar_trigger": false,
      "taf_trigger": false,
      "metar": "METAR LRBC 261000Z 02004KT CAVOK 27/12 Q1021",
      "taf": "TAF LRBC 260800Z 2609/2618 34010KT CAVOK"
    },
    {
      "icao": "LRBS",
      "alert": "OK",
      "vis_m": 9999,
      "fzfg": false,
      "metar_trigger": false,
      "taf_trigger": false,
      "metar": "METAR LRBS 261000Z VRB05KT CAVOK 27/13 Q1022 NOSIG",
      "taf": "TAF LRBS 260500Z 2606/2706 VRB04KT CAVOK"
    },
    {
      "icao": "LRBV",
      "alert": "OK",
      "vis_m": 9999,
      "fzfg": false,
      "metar_trigger": false,
      "taf_trigger": false,
      "metar": "METAR LRBV 261000Z VRB10KT CAVOK 23/12 Q1024",
      "taf": "TAF LRBV 260800Z 2609/2618 27008KT CAVOK"
    },
    {
      "icao": "LRCL",
      "alert": "OK",
      "vis_m": 9999,
      "fzfg": false,
      "metar_trigger": false,
      "taf_trigger": false,
      "metar": "METAR LRCL 261000Z 34007KT 260V030 CAVOK 26/11 Q1024",
      "taf": "TAF LRCL 260800Z 2609/2618 VRB04KT CAVOK"
    },
    {
      "icao": "LRCV",
      "alert": "OK",
      "vis_m": 9999,
      "fzfg": false,
      "metar_trigger": false,
      "taf_trigger": false,
      "metar": "METAR LRCV 261000Z 15006KT 100V210 CAVOK 25/16 Q1024",
      "taf": "TAF LRCV 260800Z 2609/2618 14012KT CAVOK"
    },
    {
      "icao": "LRIA",
      "alert": "OK",
      "vis_m": 9999,
      "fzfg": false,
      "metar_trigger": false,
      "taf_trigger": false,
      "metar": "METAR LRIA 261000Z 30015KT 260V340 CAVOK 25/11 Q1020",
      "taf": "TAF LRIA 260800Z 2609/2618 31012KT CAVOK"
    },
    {
      "icao": "LROP",
      "alert": "OK",
      "vis_m": 9999,
      "fzfg": false,
      "metar_trigger": false,
      "taf_trigger": false,
      "metar": "METAR LROP 261000Z 27006KT 230V310 CAVOK 27/13 Q1022 NOSIG",
      "taf": "TAF LROP 260500Z 2606/2706 VRB04KT CAVOK"
    },
    {
      "icao": "LRSB",
      "alert": "OK",
      "vis_m": 9999,
      "fzfg": false,
      "metar_trigger": false,
      "taf_trigger": false,
      "metar": "METAR LRSB 261000Z 35005KT 300V030 CAVOK 24/10 Q1025",
      "taf": "TAF LRSB 260500Z 2606/2706 VRB04KT CAVOK"
    },
    {
      "icao": "LRSM",
      "alert": "OK",
      "vis_m": 9999,
      "fzfg": false,
      "metar_trigger": false,
      "taf_trigger": false,
      "metar": "METAR LRSM 261000Z 34008KT 310V020 CAVOK 27/11 Q1024",
      "taf": "TAF LRSM 260800Z 2609/2618 VRB04KT CAVOK"
    },
    {
      "icao": "LRSV",
      "alert": "OK",
      "vis_m": 9999,
      "fzfg": false,
      "metar_trigger": false,
      "taf_trigger": false,
      "metar": "METAR LRSV 261000Z 30016KT CAVOK 24/12 Q1021",
      "taf": "TAF LRSV 260800Z 2609/2618 30014KT CAVOK"
    },
    {
      "icao": "LRTM",
      "alert": "OK",
      "vis_m": 9999,
      "fzfg": false,
      "metar_trigger": false,
      "taf_trigger": false,
      "metar": "METAR LRTM 261000Z 25005KT 190V340 CAVOK 25/14 Q1024",
      "taf": "TAF LRTM 260800Z 2609/2618 VRB04KT CAVOK"
    },
    {
      "icao": "LRTR",
      "alert": "OK",
      "vis_m": 9999,
      "fzfg": false,
      "metar_trigger": false,
      "taf_trigger": false,
      "metar": "METAR LRTR 261000Z 34009KT 300V360 CAVOK 27/10 Q1024",
      "taf": "TAF LRTR 260500Z 2606/2706 02008KT CAVOK"
    },
    {
      "icao": "LTAC",
      "alert": "OK",
      "vis_m": 9999,
      "fzfg": false,
      "metar_trigger": false,
      "taf_trigger": false,
      "metar": "METAR LTAC 261020Z VRB03KT 9999 SCT040 20/07 Q1022 NOSIG RMK RWY21C VRB03KT RWY03L VRB03KT RWY21R VRB02KT RWY03R VRB05KT RWY21L 31006KT 260V030",
      "taf": "TAF LTAC 260440Z 2606/2706 VRB02KT CAVOK"
    },
    {
      "icao": "LTFM",
      "alert": "OK",
      "vis_m": 9999,
      "fzfg": false,
      "metar_trigger": false,
      "taf_trigger": false,
      "metar": "METAR LTFM 261020Z 35010KT 320V020 CAVOK 22/15 Q1022 NOSIG RMK RWY17L 35012KT RWY34L 36012KT RWY16R 36011KT RWY36 35011KT 310V010 RWY18 35013KT",
      "taf": "TAF LTFM 260440Z 2606/2712 VRB02KT 9999 FEW040 SCT120"
    },
    {
      "icao": "LUKK",
      "alert": "OK",
      "vis_m": 9999,
      "fzfg": false,
      "metar_trigger": false,
      "taf_trigger": false,
      "metar": "METAR LUKK 261000Z 34013KT 300V360 CAVOK 25/12 Q1019 TEMPO 34016G26KT",
      "taf": "TAF LUKK 260506Z 2606/2706 33014KT CAVOK"
    },
    {
      "icao": "LWOH",
      "alert": "OK",
      "vis_m": 9999,
      "fzfg": false,
      "metar_trigger": false,
      "taf_trigger": false,
      "metar": "METAR LWOH 261020Z 16007KT 9999 SCT040 22/15 Q1026",
      "taf": "TAF LWOH 260810Z 2609/2709 VRB02KT 9999 FEW050"
    },
    {
      "icao": "LWSK",
      "alert": "OK",
      "vis_m": null,
      "fzfg": false,
      "metar_trigger": false,
      "taf_trigger": false,
      "metar": "",
      "taf": "TAF LWSK 260810Z 2609/2709 VRB02KT CAVOK"
    },
    {
      "icao": "LYBE",
      "alert": "OK",
      "vis_m": 9999,
      "fzfg": false,
      "metar_trigger": false,
      "taf_trigger": false,
      "metar": "METAR LYBE 261000Z 33008KT 290V360 CAVOK 27/14 Q1025 NOSIG",
      "taf": "TAF LYBE 260500Z 2606/2706 28007KT CAVOK TX32/2613Z TN18/2704Z"
    },
    {
      "icao": "LYNI",
      "alert": "OK",
      "vis_m": 9999,
      "fzfg": false,
      "metar_trigger": false,
      "taf_trigger": false,
      "metar": "METAR LYNI 261000Z 32012KT 9999 FEW040 27/17 Q1024 NOSIG",
      "taf": "TAF LYNI 260500Z 2606/2706 28004KT CAVOK TX30/2613Z TN14/2704Z"
    },
    {
      "icao": "LYPG",
      "alert": "OK",
      "vis_m": 9999,
      "fzfg": false,
      "metar_trigger": false,
      "taf_trigger": false,
      "metar": "METAR LYPG 261000Z 14006KT 110V190 9999 FEW040 29/15 Q1023 NOSIG",
      "taf": "TAF LYPG 260500Z 2606/2706 33010KT 9999 FEW040 TX32/2613Z TN21/2704Z"
    },
    {
      "icao": "LZIB",
      "alert": "OK",
      "vis_m": 9999,
      "fzfg": false,
      "metar_trigger": false,
      "taf_trigger": false,
      "metar": "METAR LZIB 261000Z 30007KT 250V350 CAVOK 28/11 Q1027 NOSIG",
      "taf": "TAF LZIB 260515Z 2606/2706 26005KT CAVOK"
    },
    {
      "icao": "LZKZ",
      "alert": "OK",
      "vis_m": 9999,
      "fzfg": false,
      "metar_trigger": false,
      "taf_trigger": false,
      "metar": "METAR LZKZ 261000Z VRB03KT 9999 FEW038 27/12 Q1025 NOSIG",
      "taf": "TAF LZKZ 260515Z 2606/2706 VRB02KT CAVOK"
    },
    {
      "icao": "LZTT",
      "alert": "OK",
      "vis_m": 9999,
      "fzfg": false,
      "metar_trigger": false,
      "taf_trigger": false,
      "metar": "METAR LZTT 261000Z 26017KT 9999 FEW060 25/10 Q1026 NOSIG",
      "taf": ""
    },
    {
      "icao": "OEJN",
      "alert": "OK",
      "vis_m": 9999,
      "fzfg": false,
      "metar_trigger": false,
      "taf_trigger": false,
      "metar": "METAR OEJN 261000Z 30014KT CAVOK 35/18 Q1007 NOSIG",
      "taf": "TAF OEJN 260500Z 2606/2712 32016KT CAVOK"
    },
    {
      "icao": "OEMA",
      "alert": "OK",
      "vis_m": 9999,
      "fzfg": false,
      "metar_trigger": false,
      "taf_trigger": false,
      "metar": "METAR OEMA 261000Z 20007KT CAVOK 43/M02 Q1012 NOSIG",
      "taf": "TAF OEMA 260500Z 2606/2712 24014KT CAVOK"
    },
    {
      "icao": "OJAI",
      "alert": "OK",
      "vis_m": 5000,
      "fzfg": false,
      "metar_trigger": false,
      "taf_trigger": false,
      "metar": "METAR OJAI 261000Z 00000KT 5000 HZ NSC 26/08 Q1016 NOSIG",
      "taf": "TAF OJAI 260500Z 2606/2712 29012KT 5000 HZ FEW035"
    },
    {
      "icao": "OMAA",
      "alert": "OK",
      "vis_m": null,
      "fzfg": false,
      "metar_trigger": false,
      "taf_trigger": false,
      "metar": "",
      "taf": "TAF OMAA 260500Z 2606/2712 24007KT 8000 NSC"
    },
    {
      "icao": "OMDB",
      "alert": "OK",
      "vis_m": null,
      "fzfg": false,
      "metar_trigger": false,
      "taf_trigger": false,
      "metar": "",
      "taf": "TAF OMDB 260500Z 2606/2712 22007KT 8000 NSC"
    },
    {
      "icao": "UAAA",
      "alert": "OK",
      "vis_m": 9999,
      "fzfg": false,
      "metar_trigger": false,
      "taf_trigger": false,
      "metar": "METAR UAAA 261000Z 28002MPS 9999 SCT050CB BKN100 25/08 Q1010 NOSIG",
      "taf": "TAF UAAA 260502Z 2606/2706 35003G08MPS 9999 SCT050CB BKN100 TX25/2610Z TN12/2701Z"
    },
    {
      "icao": "UBBB",
      "alert": "OK",
      "vis_m": 9999,
      "fzfg": false,
      "metar_trigger": false,
      "taf_trigger": false,
      "metar": "METAR UBBB 261000Z 17010KT 150V230 9999 SCT039CB SCT039 25/15 Q1011 NOSIG",
      "taf": "TAF UBBB 260501Z 2606/2706 27008KT 9999 FEW040CB TX24/2607Z TN16/2601Z"
    },
    {
      "icao": "UDSG",
      "alert": "OK",
      "vis_m": 9999,
      "fzfg": false,
      "metar_trigger": false,
      "taf_trigger": false,
      "metar": "METAR UDSG 261000Z 27015KT 9999 SCT049CB 16/05 Q1019 NOSIG",
      "taf": "TAF UDSG 260458Z 2606/2706 24006KT 9999 FEW050"
    },
    {
      "icao": "UDYZ",
      "alert": "OK",
      "vis_m": 9999,
      "fzfg": false,
      "metar_trigger": false,
      "taf_trigger": false,
      "metar": "METAR UDYZ 261000Z 26009KT 220V300 9999 FEW043CB 24/06 Q1015 NOSIG",
      "taf": "TAF UDYZ 260500Z 2606/2706 22006KT 9999 FEW040"
    },
    {
      "icao": "UGKO",
      "alert": "OK",
      "vis_m": 9999,
      "fzfg": false,
      "metar_trigger": false,
      "taf_trigger": false,
      "metar": "METAR UGKO 261000Z 26021G31KT 9999 SCT019CB BKN055 19/15 Q1017 NOSIG",
      "taf": "TAF UGKO 260500Z 2606/2706 26010KT 9999 BKN050 TX19/2611Z TN14/2702Z"
    }
  ]
}