{
  "ts_utc": "2026-01-12T08:44:37Z",
  "threshold_m": 150,
  "source": "stations_override.txt (ICAO list) + aviationweather.gov (METAR/TAF raw)",
  "station_count": 159,
  "stations": [
    {
      "icao": "BIKF",
      "alert": "OK",
      "vis_m": 9999,
      "fzfg": false,
      "metar_trigger": false,
      "taf_trigger": false,
      "metar": "METAR BIKF 120830Z 36026KT 9999 BKN026 M03/M07 Q0995",
      "taf": "TAF BIKF 120750Z 1209/1309 01027G37KT 9999 BKN025 TXM01/1220Z TNM03/1309Z"
    },
    {
      "icao": "BKPR",
      "alert": "OK",
      "vis_m": 9999,
      "fzfg": false,
      "metar_trigger": false,
      "taf_trigger": false,
      "metar": "METAR BKPR 120830Z VRB02KT CAVOK M05/M10 Q1022 NOSIG",
      "taf": "TAF BKPR 120530Z 1206/1306 32006KT 9999 SCT030"
    },
    {
      "icao": "EBCI",
      "alert": "OK",
      "vis_m": 6000,
      "fzfg": false,
      "metar_trigger": false,
      "taf_trigger": false,
      "metar": "METAR EBCI 120820Z 20012KT 6000 SCT003 BKN004 04/03 Q1009 TEMPO 1400 -DZ BR BKN003",
      "taf": "TAF EBCI 120502Z 1206/1312 20013KT 9999 SCT003 BKN005"
    },
    {
      "icao": "EDDB",
      "alert": "OK",
      "vis_m": 9999,
      "fzfg": false,
      "metar_trigger": false,
      "taf_trigger": false,
      "metar": "METAR EDDB 120820Z AUTO 15004KT 120V200 CAVOK M09/M11 Q1017 NOSIG",
      "taf": "TAF EDDB 120500Z 1206/1306 13005KT CAVOK"
    },
    {
      "icao": "EDDH",
      "alert": "OK",
      "vis_m": 9999,
      "fzfg": false,
      "metar_trigger": false,
      "taf_trigger": false,
      "metar": "METAR EDDH 120820Z AUTO 14011KT 9999 BKN035 OVC045 M03/M06 Q1011 TEMPO 4000 SG BKN014",
      "taf": "TAF EDDH 120500Z 1206/1312 14010KT 9999 BKN030"
    },
    {
      "icao": "EDDK",
      "alert": "OK",
      "vis_m": 3800,
      "fzfg": false,
      "metar_trigger": false,
      "taf_trigger": false,
      "metar": "METAR EDDK 120820Z AUTO 12007KT 3800 -RA BR FEW006 OVC019 01/01 Q1012 RESHRA BECMG 8000",
      "taf": "TAF EDDK 120500Z 1206/1312 14011KT 9999 BKN020"
    },
    {
      "icao": "EDDN",
      "alert": "OK",
      "vis_m": 5000,
      "fzfg": false,
      "metar_trigger": false,
      "taf_trigger": false,
      "metar": "METAR EDDN 120820Z AUTO 12009KT 5000 -SN BR FEW018 SCT038 M03/M05 Q1018 TEMPO 6000 NSW",
      "taf": "TAF EDDN 120500Z 1206/1306 15007KT CAVOK"
    },
    {
      "icao": "EDDS",
      "alert": "OK",
      "vis_m": 6000,
      "fzfg": false,
      "metar_trigger": false,
      "taf_trigger": false,
      "metar": "METAR EDDS 120820Z AUTO VRB02KT 6000 SCT031 BKN039 BKN046 M01/M02 Q1015 TEMPO 4000 -FZDZ",
      "taf": ""
    },
    {
      "icao": "EDFH",
      "alert": "OK",
      "vis_m": 7000,
      "fzfg": false,
      "metar_trigger": false,
      "taf_trigger": false,
      "metar": "METAR EDFH 120820Z 20009KT 7000 -RA OVC003 01/01 Q1012",
      "taf": "TAF EDFH 120500Z 1206/1306 18012KT 9999 BKN020"
    },
    {
      "icao": "EDJA",
      "alert": "OK",
      "vis_m": 9999,
      "fzfg": false,
      "metar_trigger": false,
      "taf_trigger": false,
      "metar": "METAR EDJA 120820Z 20009KT 9999 FEW025 BKN032 OVC043 M02/M03 Q1017",
      "taf": "TAF EDJA 120800Z 1209/1218 22012KT 6000 SCT010 BKN020"
    },
    {
      "icao": "EDLW",
      "alert": "OK",
      "vis_m": 9999,
      "fzfg": false,
      "metar_trigger": false,
      "taf_trigger": false,
      "metar": "METAR EDLW 120820Z 18013KT 9999 BKN020 OVC028 02/01 Q1009",
      "taf": "TAF EDLW 120500Z 1206/1306 18013KT 9999 BKN025"
    },
    {
      "icao": "EDNY",
      "alert": "OK",
      "vis_m": 9999,
      "fzfg": false,
      "metar_trigger": false,
      "taf_trigger": false,
      "metar": "METAR EDNY 120820Z VRB01KT 9999 FEW030 SCT037 OVC043 M01/M03 Q1019",
      "taf": "TAF EDNY 120800Z 1209/1218 VRB03KT 9999 OVC035"
    },
    {
      "icao": "EDSB",
      "alert": "OK",
      "vis_m": 9999,
      "fzfg": false,
      "metar_trigger": false,
      "taf_trigger": false,
      "metar": "METAR EDSB 120820Z 24004KT 9999 OVC032 01/M01 Q1016",
      "taf": "TAF EDSB 120500Z 1206/1306 20005KT 9999 BKN040"
    },
    {
      "icao": "EETN",
      "alert": "OK",
      "vis_m": 9999,
      "fzfg": false,
      "metar_trigger": false,
      "taf_trigger": false,
      "metar": "METAR EETN 120820Z 09004KT 9999 FEW015 OVC022 M06/M08 Q1017 NOSIG",
      "taf": "TAF EETN 120530Z 1206/1306 08010KT 9999 SCT015 BKN030"
    },
    {
      "icao": "EFTU",
      "alert": "OK",
      "vis_m": 9999,
      "fzfg": false,
      "metar_trigger": false,
      "taf_trigger": false,
      "metar": "METAR EFTU 120820Z AUTO 09007KT 9999 FEW017 M09/M11 Q1018",
      "taf": "TAF EFTU 120827Z 1209/1309 09007KT 9999 SCT016"
    },
    {
      "icao": "EGBB",
      "alert": "OK",
      "vis_m": 9999,
      "fzfg": false,
      "metar_trigger": false,
      "taf_trigger": false,
      "metar": "METAR EGBB 120820Z 20009KT 9999 FEW010 BKN038 09/07 Q0998",
      "taf": ""
    },
    {
      "icao": "EGGP",
      "alert": "OK",
      "vis_m": 9999,
      "fzfg": false,
      "metar_trigger": false,
      "taf_trigger": false,
      "metar": "METAR EGGP 120820Z 20006KT 150V230 9999 SCT033 BKN040 08/05 Q0996",
      "taf": "TAF EGGP 120454Z 1206/1306 21012KT 9999 SCT030"
    },
    {
      "icao": "EGGW",
      "alert": "OK",
      "vis_m": 9999,
      "fzfg": false,
      "metar_trigger": false,
      "taf_trigger": false,
      "metar": "METAR EGGW 120820Z AUTO 20008KT 160V230 9999 BKN012 OVC019 09/08 Q1001",
      "taf": "TAF EGGW 120454Z 1206/1306 20010KT 9999 SCT020"
    },
    {
      "icao": "EGKK",
      "alert": "OK",
      "vis_m": 9999,
      "fzfg": false,
      "metar_trigger": false,
      "taf_trigger": false,
      "metar": "METAR EGKK 120820Z 21011KT 9999 SCT010 BKN035 10/09 Q1003",
      "taf": "TAF EGKK 120453Z 1206/1312 21010KT 9999 SCT017"
    },
    {
      "icao": "EGNM",
      "alert": "OK",
      "vis_m": 9999,
      "fzfg": false,
      "metar_trigger": false,
      "taf_trigger": false,
      "metar": "METAR EGNM 120820Z 21014KT 9999 FEW016 SCT038 08/06 Q0994",
      "taf": "TAF EGNM 120525Z 1206/1306 22016G26KT 9999 BKN040"
    },
    {
      "icao": "EGPD",
      "alert": "OK",
      "vis_m": 9999,
      "fzfg": false,
      "metar_trigger": false,
      "taf_trigger": false,
      "metar": "METAR EGPD 120820Z COR AUTO 21016G28KT 180V250 9999 SCT025 08/03 Q0983 NOSIG",
      "taf": "TAF EGPD 120454Z 1206/1306 20020G32KT 9999 SCT020"
    },
    {
      "icao": "EGPF",
      "alert": "OK",
      "vis_m": 9999,
      "fzfg": false,
      "metar_trigger": false,
      "taf_trigger": false,
      "metar": "METAR EGPF 120820Z AUTO 20017KT 9999 -RA FEW018/// BKN028/// BKN036/// //////TCU 09/06 Q0988",
      "taf": ""
    },
    {
      "icao": "EHBK",
      "alert": "OK",
      "vis_m": 9999,
      "fzfg": false,
      "metar_trigger": false,
      "taf_trigger": false,
      "metar": "METAR EHBK 120825Z AUTO 20017KT 9999 SCT008 BKN009 OVC011 03/03 Q1010 REDZ TEMPO BKN012",
      "taf": "TAF EHBK 120501Z 1206/1312 21012KT 9999 BKN018"
    },
    {
      "icao": "EHEH",
      "alert": "OK",
      "vis_m": 8000,
      "fzfg": false,
      "metar_trigger": false,
      "taf_trigger": false,
      "metar": "METAR EHEH 120825Z AUTO 18012KT 150V210 8000 BR SCT004 BKN005 OVC007 03/03 Q1008 YLO TEMPO 3000 BR -DZ SCT003 BKN005 RMK TREND REMOTE BY EHWX",
      "taf": "TAF EHEH 120539Z 1206/1312 19011KT 6000 SCT006 BKN008 OVC010"
    },
    {
      "icao": "EKBI",
      "alert": "OK",
      "vis_m": 4500,
      "fzfg": false,
      "metar_trigger": false,
      "taf_trigger": false,
      "metar": "METAR EKBI 120820Z 12014KT 4500 -SN DRSN FEW010 BKN027 M02/M04 Q1009",
      "taf": ""
    },
    {
      "icao": "EKCH",
      "alert": "OK",
      "vis_m": 9999,
      "fzfg": false,
      "metar_trigger": false,
      "taf_trigger": false,
      "metar": "METAR EKCH 120820Z AUTO 12012KT 9999 BKN120/// M02/M05 Q1016 NOSIG",
      "taf": "TAF EKCH 120827Z 1209/1309 13012KT 9999 SCT040"
    },
    {
      "icao": "ENAL",
      "alert": "OK",
      "vis_m": 9999,
      "fzfg": false,
      "metar_trigger": false,
      "taf_trigger": false,
      "metar": "METAR ENAL 120820Z 14016G26KT 110V170 9999 SCT035 BKN049 05/M04 Q0996",
      "taf": "TAF ENAL 120800Z 1209/1218 13015KT 9999 BKN040"
    },
    {
      "icao": "ENBR",
      "alert": "OK",
      "vis_m": 9999,
      "fzfg": false,
      "metar_trigger": false,
      "taf_trigger": false,
      "metar": "METAR ENBR 120820Z 14021KT 9999 BKN046 03/M05 Q0998 WS R17 TEMPO 13032G45KT RMK WIND 1200FT 13054G68KT",
      "taf": "TAF ENBR 120500Z 1206/1306 13022G35KT 9999 BKN040"
    },
    {
      "icao": "ENGM",
      "alert": "OK",
      "vis_m": 9999,
      "fzfg": false,
      "metar_trigger": false,
      "taf_trigger": false,
      "metar": "METAR ENGM 120820Z 31001KT 9999 OVC018 M12/M14 Q1016 NOSIG",
      "taf": "TAF ENGM 120500Z 1206/1306 02005KT 9999 SCT012 BKN018"
    },
    {
      "icao": "ENHD",
      "alert": "OK",
      "vis_m": 9999,
      "fzfg": false,
      "metar_trigger": false,
      "taf_trigger": false,
      "metar": "METAR ENHD 120820Z 13036G49KT 9999 FEW031 02/M03 Q0999 RESN",
      "taf": "TAF ENHD 120800Z 1209/1218 13038G52KT 9999 BKN030"
    },
    {
      "icao": "ENTC",
      "alert": "OK",
      "vis_m": 9999,
      "fzfg": false,
      "metar_trigger": false,
      "taf_trigger": false,
      "metar": "METAR ENTC 120820Z 16001KT CAVOK M07/M10 Q1016 TEMPO 19015KT RMK WIND 2600FT 17024KT",
      "taf": "TAF ENTC 120500Z 1206/1306 21009KT CAVOK"
    },
    {
      "icao": "ENTO",
      "alert": "OK",
      "vis_m": 9999,
      "fzfg": false,
      "metar_trigger": false,
      "taf_trigger": false,
      "metar": "METAR ENTO 120820Z 01007KT 9999 BKN012 M11/M13 Q1016 TEMPO BKN008",
      "taf": "TAF ENTO 120500Z 1206/1306 02008KT 9999 FEW010 BKN020"
    },
    {
      "icao": "ENVA",
      "alert": "OK",
      "vis_m": 9999,
      "fzfg": false,
      "metar_trigger": false,
      "taf_trigger": false,
      "metar": "METAR ENVA 120820Z 12018KT 090V150 CAVOK M03/M15 Q1010 NOSIG RMK WIND 670FT 15042G62KT",
      "taf": "TAF ENVA 120500Z 1206/1306 11018KT CAVOK"
    },
    {
      "icao": "ENZV",
      "alert": "OK",
      "vis_m": 6000,
      "fzfg": false,
      "metar_trigger": false,
      "taf_trigger": false,
      "metar": "METAR ENZV 120820Z 13029G42KT 6000 -SN VV012 00/M02 Q1000 BECMG BKN020",
      "taf": "TAF ENZV 120500Z 1206/1306 14030G42KT 9999 SCT045"
    },
    {
      "icao": "EPGD",
      "alert": "OK",
      "vis_m": 9999,
      "fzfg": false,
      "metar_trigger": false,
      "taf_trigger": false,
      "metar": "METAR EPGD 120730Z 27005KT 9999 BKN026 M04/M05 Q1014",
      "taf": "TAF EPGD 120530Z 1206/1306 28007KT 9999 -SHSN SCT020CB"
    },
    {
      "icao": "EPKK",
      "alert": "OK",
      "vis_m": 9999,
      "fzfg": false,
      "metar_trigger": false,
      "taf_trigger": false,
      "metar": "METAR EPKK 120730Z 25009KT 9999 BKN027 M06/M08 Q1017",
      "taf": "TAF EPKK 120830Z 1209/1309 25010KT 9999 BKN026"
    },
    {
      "icao": "EPKT",
      "alert": "OK",
      "vis_m": 9999,
      "fzfg": false,
      "metar_trigger": false,
      "taf_trigger": false,
      "metar": "METAR EPKT 120730Z 25011KT 9999 SCT004 BKN007 M08/M09 Q1017",
      "taf": "TAF EPKT 120530Z 1206/1306 28015KT 6000 -SN DRSN BKN014"
    },
    {
      "icao": "EPLB",
      "alert": "OK",
      "vis_m": 9999,
      "fzfg": false,
      "metar_trigger": false,
      "taf_trigger": false,
      "metar": "METAR EPLB 120730Z 01004KT 9999 BKN012 M09/M10 Q1014",
      "taf": "TAF EPLB 120530Z 1206/1306 30008KT 7000 -SN BKN014 BKN025"
    },
    {
      "icao": "EPMO",
      "alert": "OK",
      "vis_m": 9999,
      "fzfg": false,
      "metar_trigger": false,
      "taf_trigger": false,
      "metar": "METAR EPMO 120730Z 31002KT 9999 FEW017 M06/M07 Q1015",
      "taf": "TAF EPMO 120530Z 1206/1306 30010KT 9999 BKN030"
    },
    {
      "icao": "EPPO",
      "alert": "OK",
      "vis_m": 9999,
      "fzfg": false,
      "metar_trigger": false,
      "taf_trigger": false,
      "metar": "METAR EPPO 120730Z 22002KT 9999 FEW029 M11/M12 Q1018",
      "taf": "TAF EPPO 120530Z 1206/1306 29010KT 9999 FEW029"
    },
    {
      "icao": "EPRA",
      "alert": "OK",
      "vis_m": 9000,
      "fzfg": false,
      "metar_trigger": false,
      "taf_trigger": false,
      "metar": "METAR EPRA 120730Z 36003KT 9000 -SN BKN015 M06/M07 Q1015",
      "taf": "TAF EPRA 120530Z 1206/1215 33010KT 8000 -SN BKN014 OVC025"
    },
    {
      "icao": "EPRZ",
      "alert": "OK",
      "vis_m": 3000,
      "fzfg": false,
      "metar_trigger": false,
      "taf_trigger": false,
      "metar": "METAR EPRZ 120730Z 27016KT 3000 -SN DRSN BR FEW003 SCT011 BKN024 M05/M06 Q1014",
      "taf": "TAF EPRZ 120530Z 1206/1306 28012KT 3000 -SN DRSN BKN014"
    },
    {
      "icao": "EPSC",
      "alert": "OK",
      "vis_m": 9999,
      "fzfg": false,
      "metar_trigger": false,
      "taf_trigger": false,
      "metar": "METAR EPSC 120730Z 14003KT 110V170 CAVOK M11/M13 Q1017",
      "taf": "TAF EPSC 120530Z 1206/1306 VRB02KT CAVOK"
    },
    {
      "icao": "EPSY",
      "alert": "OK",
      "vis_m": 9999,
      "fzfg": false,
      "metar_trigger": false,
      "taf_trigger": false,
      "metar": "METAR EPSY 120830Z VRB01KT CAVOK M10/M10 Q1015",
      "taf": "TAF EPSY 120830Z 1209/1218 VRB03KT CAVOK"
    },
    {
      "icao": "EPWA",
      "alert": "OK",
      "vis_m": 9999,
      "fzfg": false,
      "metar_trigger": false,
      "taf_trigger": false,
      "metar": "METAR EPWA 120730Z 33005KT CAVOK M06/M08 Q1015 NOSIG",
      "taf": "TAF EPWA 120830Z 1209/1309 28004KT CAVOK"
    },
    {
      "icao": "EPWR",
      "alert": "OK",
      "vis_m": 9999,
      "fzfg": false,
      "metar_trigger": false,
      "taf_trigger": false,
      "metar": "METAR EPWR 120730Z VRB02KT CAVOK M11/M13 Q1019",
      "taf": "TAF EPWR 120830Z 1209/1309 VRB02KT CAVOK"
    },
    {
      "icao": "ESGG",
      "alert": "OK",
      "vis_m": 9999,
      "fzfg": false,
      "metar_trigger": false,
      "taf_trigger": false,
      "metar": "METAR ESGG 120820Z 12005KT CAVOK M10/M11 Q1015",
      "taf": "TAF ESGG 120830Z 1209/1309 12010KT CAVOK"
    },
    {
      "icao": "ESKN",
      "alert": "OK",
      "vis_m": 9999,
      "fzfg": false,
      "metar_trigger": false,
      "taf_trigger": false,
      "metar": "METAR ESKN 120820Z 35002KT CAVOK M10/M11 Q1017",
      "taf": "TAF ESKN 120830Z 1209/1309 34005KT 9999 SCT020"
    },
    {
      "icao": "ESMS",
      "alert": "OK",
      "vis_m": 9999,
      "fzfg": false,
      "metar_trigger": false,
      "taf_trigger": false,
      "metar": "METAR ESMS 120820Z 10008KT CAVOK M08/M09 Q1015",
      "taf": "TAF ESMS 120827Z 1209/1309 13005KT CAVOK"
    },
    {
      "icao": "ESSA",
      "alert": "OK",
      "vis_m": 9999,
      "fzfg": false,
      "metar_trigger": false,
      "taf_trigger": false,
      "metar": "METAR ESSA 120820Z 05008KT CAVOK M07/M09 Q1017 NOSIG",
      "taf": "TAF ESSA 120830Z 1209/1309 05009KT 9999 BKN020"
    },
    {
      "icao": "EYKA",
      "alert": "OK",
      "vis_m": 4700,
      "fzfg": false,
      "metar_trigger": false,
      "taf_trigger": false,
      "metar": "METAR EYKA 120820Z 24001KT 4700 BR NSC M14/M15 Q1014",
      "taf": "TAF EYKA 120504Z 1206/1306 VRB04KT 5000 BR SCT015"
    },
    {
      "icao": "EYPA",
      "alert": "OK",
      "vis_m": 9999,
      "fzfg": false,
      "metar_trigger": false,
      "taf_trigger": false,
      "metar": "METAR EYPA 120820Z 08003KT 9999 OVC026 M06/M07 Q1015",
      "taf": "TAF EYPA 120505Z 1206/1306 VRB04KT 5000 BR SCT005 BKN015"
    },
    {
      "icao": "EYVI",
      "alert": "OK",
      "vis_m": 9999,
      "fzfg": false,
      "metar_trigger": false,
      "taf_trigger": false,
      "metar": "METAR EYVI 120820Z 31004KT 9999 BKN007 M13/M14 Q1012 NOSIG",
      "taf": "TAF EYVI 120507Z 1206/1306 VRB04KT 9000 OVC015"
    },
    {
      "icao": "GCFV",
      "alert": "OK",
      "vis_m": 9999,
      "fzfg": false,
      "metar_trigger": false,
      "taf_trigger": false,
      "metar": "METAR GCFV 120830Z 31005KT 9999 FEW020 14/11 Q1023",
      "taf": "TAF GCFV 120800Z 1209/1309 11006KT 9999 FEW020 TX21/1214Z TN12/1306Z"
    },
    {
      "icao": "GCLP",
      "alert": "OK",
      "vis_m": 9999,
      "fzfg": false,
      "metar_trigger": false,
      "taf_trigger": false,
      "metar": "METAR GCLP 120830Z 32006KT 300V010 9999 FEW025 16/12 Q1023 NOSIG",
      "taf": "TAF GCLP 120800Z 1209/1309 05007KT 9999 FEW025 TX21/1214Z TN14/1306Z"
    },
    {
      "icao": "GCTS",
      "alert": "OK",
      "vis_m": 9999,
      "fzfg": false,
      "metar_trigger": false,
      "taf_trigger": false,
      "metar": "METAR GCTS 120830Z 04009KT 9999 FEW030 16/10 Q1023 NOSIG",
      "taf": "TAF GCTS 120800Z 1209/1309 11010KT 9999 FEW030 TX23/1214Z TN14/1306Z"
    },
    {
      "icao": "GMAD",
      "alert": "OK",
      "vis_m": 9999,
      "fzfg": false,
      "metar_trigger": false,
      "taf_trigger": false,
      "metar": "METAR GMAD 120830Z 08006KT CAVOK 08/06 Q1023 NOSIG",
      "taf": "TAF GMAD 120500Z 1206/1312 12005KT CAVOK"
    },
    {
      "icao": "GMMN",
      "alert": "OK",
      "vis_m": 5000,
      "fzfg": false,
      "metar_trigger": false,
      "taf_trigger": false,
      "metar": "METAR GMMN 120830Z 20005KT 5000 NSC 07/07 Q1023 NOSIG",
      "taf": "TAF GMMN 120500Z 1206/1312 19004KT 6000 FEW020"
    },
    {
      "icao": "GMMX",
      "alert": "OK",
      "vis_m": 8000,
      "fzfg": false,
      "metar_trigger": false,
      "taf_trigger": false,
      "metar": "METAR GMMX 120830Z VRB01KT 8000 NSC 08/06 Q1023 NOSIG",
      "taf": ""
    },
    {
      "icao": "HEGN",
      "alert": "OK",
      "vis_m": 9999,
      "fzfg": false,
      "metar_trigger": false,
      "taf_trigger": false,
      "metar": "METAR HEGN 120800Z 31009KT CAVOK 20/05 Q1017 NOSIG",
      "taf": "TAF HEGN 120500Z 1206/1312 33012G24KT 6000 SCT025"
    },
    {
      "icao": "HEMA",
      "alert": "OK",
      "vis_m": 9999,
      "fzfg": false,
      "metar_trigger": false,
      "taf_trigger": false,
      "metar": "METAR HEMA 120800Z 32013KT CAVOK 22/08 Q1017 NOSIG",
      "taf": "TAF HEMA 120500Z 1206/1312 32008G20KT CAVOK"
    },
    {
      "icao": "HESH",
      "alert": "OK",
      "vis_m": 9999,
      "fzfg": false,
      "metar_trigger": false,
      "taf_trigger": false,
      "metar": "METAR HESH 120800Z 03005KT CAVOK 23/08 Q1016 NOSIG",
      "taf": "TAF HESH 120500Z 1206/1312 35006G18KT 9999 SCT025"
    },
    {
      "icao": "HESX",
      "alert": "OK",
      "vis_m": 9999,
      "fzfg": false,
      "metar_trigger": false,
      "taf_trigger": false,
      "metar": "METAR HESX 120800Z 24010KT CAVOK 13/02 Q1017 NOSIG",
      "taf": "TAF HESX 120605Z 1206/1312 21010KT CAVOK"
    },
    {
      "icao": "LATI",
      "alert": "OK",
      "vis_m": 9999,
      "fzfg": false,
      "metar_trigger": false,
      "taf_trigger": false,
      "metar": "METAR LATI 120820Z 32012KT CAVOK 02/M09 Q1023 NOSIG",
      "taf": ""
    },
    {
      "icao": "LBPD",
      "alert": "OK",
      "vis_m": 9999,
      "fzfg": false,
      "metar_trigger": false,
      "taf_trigger": false,
      "metar": "METAR LBPD 120830Z AUTO 28018KT 9999 NCD M01/M10 Q1020 NOSIG",
      "taf": "TAF LBPD 120500Z 1206/1306 28020KT CAVOK"
    },
    {
      "icao": "LBSF",
      "alert": "OK",
      "vis_m": 9999,
      "fzfg": false,
      "metar_trigger": false,
      "taf_trigger": false,
      "metar": "METAR LBSF 120830Z 29017KT 9999 SCT027 M05/M10 Q1020 NOSIG",
      "taf": "TAF LBSF 120500Z 1206/1306 28012KT 9999 BKN030"
    },
    {
      "icao": "LBWN",
      "alert": "OK",
      "vis_m": 9999,
      "fzfg": false,
      "metar_trigger": false,
      "taf_trigger": false,
      "metar": "METAR LBWN 120830Z 28015KT CAVOK M02/M07 Q1019 NOSIG",
      "taf": "TAF LBWN 120500Z 1206/1306 31012KT 9999 SCT020 BKN040"
    },
    {
      "icao": "LCLK",
      "alert": "OK",
      "vis_m": 7000,
      "fzfg": false,
      "metar_trigger": false,
      "taf_trigger": false,
      "metar": "METAR LCLK 120830Z 21014KT 7000 FEW008 FEW025CB BKN060 15/13 Q1008 TEMPO 3000 TSRA SCT020CB RMK CB TO S",
      "taf": "TAF LCLK 120530Z 1206/1306 22010KT 9999 FEW025 BKN050"
    },
    {
      "icao": "LCPH",
      "alert": "OK",
      "vis_m": 9999,
      "fzfg": false,
      "metar_trigger": false,
      "taf_trigger": false,
      "metar": "METAR LCPH 120830Z 26016KT 250V310 9999 FEW025 BKN070 17/11 Q1008 TEMPO 3000 TSRA SCT020CB",
      "taf": "TAF LCPH 120530Z 1206/1306 24010KT 9999 FEW020 SCT050"
    },
    {
      "icao": "LEAL",
      "alert": "OK",
      "vis_m": 9999,
      "fzfg": false,
      "metar_trigger": false,
      "taf_trigger": false,
      "metar": "METAR LEAL 120830Z 27004KT CAVOK 08/05 Q1023 NOSIG",
      "taf": "TAF LEAL 120500Z 1206/1306 29007KT CAVOK TX16/1213Z TN07/1206Z"
    },
    {
      "icao": "LEBB",
      "alert": "OK",
      "vis_m": 9999,
      "fzfg": false,
      "metar_trigger": false,
      "taf_trigger": false,
      "metar": "METAR LEBB 120830Z 18009KT 120V240 9999 FEW040 17/07 Q1016 NOSIG",
      "taf": "TAF LEBB 120500Z 1206/1306 19009KT 9999 SCT060 TX15/1214Z TN11/1306Z"
    },
    {
      "icao": "LEBL",
      "alert": "OK",
      "vis_m": 9999,
      "fzfg": false,
      "metar_trigger": false,
      "taf_trigger": false,
      "metar": "METAR LEBL 120830Z 32008G19KT 270V360 9999 FEW064 06/02 Q1023 NOSIG",
      "taf": "TAF LEBL 120500Z 1206/1306 31008KT 9999 FEW020 TX15/1213Z TN05/1206Z"
    },
    {
      "icao": "LECH",
      "alert": "OK",
      "vis_m": 9000,
      "fzfg": false,
      "metar_trigger": false,
      "taf_trigger": false,
      "metar": "METAR LECH 120830Z AUTO 00000KT 9000 NCD 06/03 Q1023",
      "taf": ""
    },
    {
      "icao": "LEMD",
      "alert": "OK",
      "vis_m": 3000,
      "fzfg": false,
      "metar_trigger": false,
      "taf_trigger": false,
      "metar": "METAR LEMD 120830Z VRB02KT 3000 BR OVC005 03/03 Q1024 NOSIG",
      "taf": ""
    },
    {
      "icao": "LEMG",
      "alert": "OK",
      "vis_m": 9999,
      "fzfg": false,
      "metar_trigger": false,
      "taf_trigger": false,
      "metar": "METAR LEMG 120830Z 30008KT CAVOK 05/03 Q1024 NOSIG",
      "taf": "TAF LEMG 120500Z 1206/1306 27006KT CAVOK TX17/1214Z TN07/1207Z"
    },
    {
      "icao": "LEVC",
      "alert": "OK",
      "vis_m": 9999,
      "fzfg": false,
      "metar_trigger": false,
      "taf_trigger": false,
      "metar": "METAR LEVC 120830Z VRB02KT CAVOK 06/04 Q1023 NOSIG",
      "taf": "TAF LEVC 120500Z 1206/1306 27005KT CAVOK TX19/1214Z TN05/1206Z"
    },
    {
      "icao": "LEXJ",
      "alert": "OK",
      "vis_m": 9999,
      "fzfg": false,
      "metar_trigger": false,
      "taf_trigger": false,
      "metar": "METAR LEXJ 120830Z 21016G28KT 160V260 CAVOK 16/06 Q1014",
      "taf": "TAF LEXJ 120800Z 1209/1309 22009KT 9999 FEW060 TX15/1213Z TN12/1308Z"
    },
    {
      "icao": "LEZG",
      "alert": "OK",
      "vis_m": 9999,
      "fzfg": false,
      "metar_trigger": false,
      "taf_trigger": false,
      "metar": "METAR LEZG 120830Z 12004KT 070V200 CAVOK 05/03 Q1023 NOSIG",
      "taf": "TAF LEZG 120500Z 1206/1306 VRB04KT CAVOK TX14/1215Z TN04/1206Z"
    },
    {
      "icao": "LEZL",
      "alert": "OK",
      "vis_m": 9999,
      "fzfg": false,
      "metar_trigger": false,
      "taf_trigger": false,
      "metar": "METAR LEZL 120830Z 05003KT CAVOK 07/06 Q1023 NOSIG",
      "taf": "TAF LEZL 120800Z 1209/1309 03004KT CAVOK TX16/1215Z TN10/1307Z"
    },
    {
      "icao": "LFBD",
      "alert": "OK",
      "vis_m": 9999,
      "fzfg": false,
      "metar_trigger": false,
      "taf_trigger": false,
      "metar": "METAR LFBD 120830Z AUTO 15008KT CAVOK 06/05 Q1016",
      "taf": ""
    },
    {
      "icao": "LFLL",
      "alert": "OK",
      "vis_m": 9999,
      "fzfg": false,
      "metar_trigger": false,
      "taf_trigger": false,
      "metar": "METAR LFLL 120830Z AUTO 12006KT CAVOK 04/M01 Q1021",
      "taf": "TAF LFLL 120500Z 1206/1312 16005KT CAVOK"
    },
    {
      "icao": "LFLS",
      "alert": "OK",
      "vis_m": 9999,
      "fzfg": false,
      "metar_trigger": false,
      "taf_trigger": false,
      "metar": "METAR LFLS 120830Z AUTO 08008KT 9999 FEW043 01/M02 Q1021",
      "taf": "TAF LFLS 120200Z 1203/1303 09005KT 9999 BKN060"
    },
    {
      "icao": "LFMN",
      "alert": "OK",
      "vis_m": 9999,
      "fzfg": false,
      "metar_trigger": false,
      "taf_trigger": false,
      "metar": "METAR LFMN 120830Z 33013KT CAVOK 07/M06 Q1023 NOSIG",
      "taf": "TAF LFMN 120800Z 1209/1315 34010KT CAVOK"
    },
    {
      "icao": "LFOB",
      "alert": "OK",
      "vis_m": 9999,
      "fzfg": false,
      "metar_trigger": false,
      "taf_trigger": false,
      "metar": "METAR LFOB 120830Z AUTO 20010KT 9999 OVC007 09/09 Q1009",
      "taf": "TAF LFOB 112300Z 1200/1224 18015G25KT 9999 OVC020"
    },
    {
      "icao": "LFPO",
      "alert": "OK",
      "vis_m": 9999,
      "fzfg": false,
      "metar_trigger": false,
      "taf_trigger": false,
      "metar": "METAR LFPO 120830Z 22014KT 9999 -RA OVC009 09/08 Q1011 NOSIG",
      "taf": "TAF LFPO 120500Z 1206/1312 21012KT 9999 BKN008"
    },
    {
      "icao": "LFSB",
      "alert": "OK",
      "vis_m": 9999,
      "fzfg": false,
      "metar_trigger": false,
      "taf_trigger": false,
      "metar": "METAR LFSB 120830Z AUTO 18007KT 9999 OVC040 02/M01 Q1018 NOSIG",
      "taf": "TAF LFSB 120500Z 1206/1306 16005KT 9999 BKN050 OVC070"
    },
    {
      "icao": "LGAV",
      "alert": "OK",
      "vis_m": 9999,
      "fzfg": false,
      "metar_trigger": false,
      "taf_trigger": false,
      "metar": "METAR LGAV 120820Z 35012KT 9999 FEW030 07/M03 Q1015 NOSIG",
      "taf": "TAF LGAV 120500Z 1206/1306 35015KT 9999 FEW020 SCT040"
    },
    {
      "icao": "LGTS",
      "alert": "OK",
      "vis_m": 9999,
      "fzfg": false,
      "metar_trigger": false,
      "taf_trigger": false,
      "metar": "METAR LGTS 120820Z 33021G31KT 9999 FEW025 01/M07 Q1021 NOSIG",
      "taf": "TAF LGTS 120500Z 1206/1306 34015G30KT 9999 FEW025"
    },
    {
      "icao": "LHBP",
      "alert": "OK",
      "vis_m": 9999,
      "fzfg": false,
      "metar_trigger": false,
      "taf_trigger": false,
      "metar": "METAR LHBP 120830Z 30015KT 9999 DRSN NSC M06/M12 Q1020 NOSIG",
      "taf": "TAF LHBP 120515Z 1206/1306 29006KT CAVOK"
    },
    {
      "icao": "LHDC",
      "alert": "OK",
      "vis_m": 9999,
      "fzfg": false,
      "metar_trigger": false,
      "taf_trigger": false,
      "metar": "METAR LHDC 120815Z AUTO 18006KT 150V210 CAVOK M10/M13 Q1020 NOSIG",
      "taf": "TAF LHDC 120815Z 1209/1218 19009KT CAVOK"
    },
    {
      "icao": "LIBD",
      "alert": "OK",
      "vis_m": 9999,
      "fzfg": false,
      "metar_trigger": false,
      "taf_trigger": false,
      "metar": "METAR LIBD 120820Z 30007KT 270V330 CAVOK 06/M04 Q1025",
      "taf": "TAF LIBD 120500Z 1206/1306 34016KT 9999 FEW040"
    },
    {
      "icao": "LIBG",
      "alert": "OK",
      "vis_m": 9999,
      "fzfg": false,
      "metar_trigger": false,
      "taf_trigger": false,
      "metar": "METAR LIBG 120750Z 32005KT CAVOK 05/M04 Q1024",
      "taf": "TAF LIBG 120800Z 1209/1218 28005KT 9999 FEW040"
    },
    {
      "icao": "LIBP",
      "alert": "OK",
      "vis_m": 9999,
      "fzfg": false,
      "metar_trigger": false,
      "taf_trigger": false,
      "metar": "METAR LIBP 120820Z AUTO 24005KT 9999 NCD 02/M02 Q1026",
      "taf": "TAF LIBP 120500Z 1206/1306 22006KT CAVOK"
    },
    {
      "icao": "LIBR",
      "alert": "OK",
      "vis_m": 9999,
      "fzfg": false,
      "metar_trigger": false,
      "taf_trigger": false,
      "metar": "METAR LIBR 120820Z 01021G33KT 9999 FEW030 06/M05 Q1024",
      "taf": "TAF LIBR 120500Z 1206/1306 35020G35KT 9999 SCT040"
    },
    {
      "icao": "LICA",
      "alert": "OK",
      "vis_m": 9999,
      "fzfg": false,
      "metar_trigger": false,
      "taf_trigger": false,
      "metar": "METAR LICA 120820Z AUTO 02006KT 9999 NCD 08/M09 Q1026",
      "taf": "TAF LICA 120500Z 1206/1306 04007KT CAVOK"
    },
    {
      "icao": "LICC",
      "alert": "OK",
      "vis_m": 9999,
      "fzfg": false,
      "metar_trigger": false,
      "taf_trigger": false,
      "metar": "METAR LICC 120820Z VRB01KT 9999 SCT050 07/03 Q1026",
      "taf": "TAF LICC 120500Z 1206/1306 26008KT 9999 FEW040"
    },
    {
      "icao": "LICJ",
      "alert": "OK",
      "vis_m": 9999,
      "fzfg": false,
      "metar_trigger": false,
      "taf_trigger": false,
      "metar": "METAR LICJ 120820Z 09006KT 9999 FEW040 11/05 Q1026",
      "taf": "TAF LICJ 120500Z 1206/1306 08012KT 9999 FEW030"
    },
    {
      "icao": "LIMC",
      "alert": "OK",
      "vis_m": 9999,
      "fzfg": false,
      "metar_trigger": false,
      "taf_trigger": false,
      "metar": "METAR LIMC 120820Z VRB02KT CAVOK M01/M06 Q1023 NOSIG",
      "taf": "TAF LIMC 120500Z 1206/1312 VRB05KT CAVOK"
    },
    {
      "icao": "LIME",
      "alert": "OK",
      "vis_m": 9999,
      "fzfg": false,
      "metar_trigger": false,
      "taf_trigger": false,
      "metar": "METAR LIME 120820Z VRB01KT CAVOK M01/M09 Q1022 NOSIG",
      "taf": "TAF LIME 120500Z 1206/1306 VRB05KT CAVOK"
    },
    {
      "icao": "LIMF",
      "alert": "OK",
      "vis_m": 9999,
      "fzfg": false,
      "metar_trigger": false,
      "taf_trigger": false,
      "metar": "METAR LIMF 120820Z 30004KT CAVOK 01/M07 Q1023",
      "taf": "TAF LIMF 120500Z 1206/1306 VRB05KT CAVOK"
    },
    {
      "icao": "LIMJ",
      "alert": "OK",
      "vis_m": 9999,
      "fzfg": false,
      "metar_trigger": false,
      "taf_trigger": false,
      "metar": "METAR LIMJ 120820Z 20012KT 9999 BKN025 13/06 Q1022",
      "taf": "TAF LIMJ 120500Z 1206/1306 VRB05KT CAVOK"
    },
    {
      "icao": "LIPE",
      "alert": "OK",
      "vis_m": 9999,
      "fzfg": false,
      "metar_trigger": false,
      "taf_trigger": false,
      "metar": "METAR LIPE 120820Z VRB01KT CAVOK 01/M05 Q1023",
      "taf": "TAF LIPE 120500Z 1206/1306 VRB05KT CAVOK"
    },
    {
      "icao": "LIPH",
      "alert": "OK",
      "vis_m": 9999,
      "fzfg": false,
      "metar_trigger": false,
      "taf_trigger": false,
      "metar": "METAR LIPH 120820Z 06002KT CAVOK M01/M03 Q1023",
      "taf": "TAF LIPH 120500Z 1206/1306 VRB05KT 9999 FEW030"
    },
    {
      "icao": "LIPQ",
      "alert": "OK",
      "vis_m": 9999,
      "fzfg": false,
      "metar_trigger": false,
      "taf_trigger": false,
      "metar": "METAR LIPQ 120820Z AUTO 36003KT 9999 SCT031/// 01/M03 Q1023",
      "taf": "TAF LIPQ 120500Z 1206/1306 VRB05KT 9999 SCT040"
    },
    {
      "icao": "LIPR",
      "alert": "OK",
      "vis_m": 9999,
      "fzfg": false,
      "metar_trigger": false,
      "taf_trigger": false,
      "metar": "METAR LIPR 120820Z VRB02KT CAVOK M00/M02 Q1024",
      "taf": "TAF LIPR 120500Z 1206/1306 VRB05KT CAVOK"
    },
    {
      "icao": "LIPX",
      "alert": "OK",
      "vis_m": 9999,
      "fzfg": false,
      "metar_trigger": false,
      "taf_trigger": false,
      "metar": "METAR LIPX 120820Z VRB01KT 9999 SCT080 M01/M04 Q1023",
      "taf": "TAF LIPX 120500Z 1206/1306 VRB05KT CAVOK"
    },
    {
      "icao": "LIPY",
      "alert": "OK",
      "vis_m": 9999,
      "fzfg": false,
      "metar_trigger": false,
      "taf_trigger": false,
      "metar": "METAR LIPY 120820Z AUTO 21003KT 9999 NCD 01/M01 Q1024",
      "taf": "TAF LIPY 120500Z 1206/1306 22007KT 9999 FEW040"
    },
    {
      "icao": "LIPZ",
      "alert": "OK",
      "vis_m": 9999,
      "fzfg": false,
      "metar_trigger": false,
      "taf_trigger": false,
      "metar": "METAR LIPZ 120820Z 02006KT CAVOK 01/M03 Q1023 NOSIG",
      "taf": "TAF LIPZ 120500Z 1206/1312 VRB05KT CAVOK"
    },
    {
      "icao": "LIRF",
      "alert": "OK",
      "vis_m": 9999,
      "fzfg": false,
      "metar_trigger": false,
      "taf_trigger": false,
      "metar": "METAR LIRF 120820Z 08005KT CAVOK 02/M01 Q1026 NOSIG",
      "taf": "TAF LIRF 120500Z 1206/1312 05008KT CAVOK"
    },
    {
      "icao": "LIRN",
      "alert": "OK",
      "vis_m": 9999,
      "fzfg": false,
      "metar_trigger": false,
      "taf_trigger": false,
      "metar": "METAR LIRN 120820Z VRB02KT CAVOK 05/M06 Q1026 NOSIG",
      "taf": "TAF LIRN 120500Z 1206/1306 VRB05KT CAVOK"
    },
    {
      "icao": "LIRP",
      "alert": "OK",
      "vis_m": 9999,
      "fzfg": false,
      "metar_trigger": false,
      "taf_trigger": false,
      "metar": "METAR LIRP 120815Z 13005KT 9999 SCT040 01/M00 Q1025 NOSIG",
      "taf": "TAF LIRP 120500Z 1206/1306 14005KT 9999 SCT020 SCT050"
    },
    {
      "icao": "LIRZ",
      "alert": "OK",
      "vis_m": 9999,
      "fzfg": false,
      "metar_trigger": false,
      "taf_trigger": false,
      "metar": "METAR LIRZ 120820Z AUTO VRB02KT 9999 NCD M02/M03 Q1026",
      "taf": "TAF LIRZ 120500Z 1206/1306 VRB05KT 9999 FEW050"
    },
    {
      "icao": "LJLJ",
      "alert": "OK",
      "vis_m": 9999,
      "fzfg": false,
      "metar_trigger": false,
      "taf_trigger": false,
      "metar": "METAR LJLJ 120830Z VRB01KT 9999 FEW003 BKN140 M12/M14 Q1023 NOSIG",
      "taf": "TAF LJLJ 120500Z 1206/1306 VRB02KT 9999 SCT001"
    },
    {
      "icao": "LKMT",
      "alert": "OK",
      "vis_m": 9999,
      "fzfg": false,
      "metar_trigger": false,
      "taf_trigger": false,
      "metar": "METAR LKMT 120830Z 23008KT CAVOK M12/M14 Q1020 NOSIG",
      "taf": "TAF LKMT 120500Z 1206/1306 23010KT CAVOK"
    },
    {
      "icao": "LKPR",
      "alert": "OK",
      "vis_m": 9999,
      "fzfg": false,
      "metar_trigger": false,
      "taf_trigger": false,
      "metar": "METAR LKPR 120830Z 16004KT CAVOK M08/M10 Q1018 NOSIG",
      "taf": "TAF LKPR 120800Z 1209/1315 17006KT CAVOK"
    },
    {
      "icao": "LLBG",
      "alert": "OK",
      "vis_m": 9999,
      "fzfg": false,
      "metar_trigger": false,
      "taf_trigger": false,
      "metar": "METAR LLBG 120820Z 20013KT CAVOK 18/06 Q1015 NOSIG",
      "taf": "TAF LLBG 120503Z 1206/1306 17010KT CAVOK"
    },
    {
      "icao": "LMML",
      "alert": "OK",
      "vis_m": 9999,
      "fzfg": false,
      "metar_trigger": false,
      "taf_trigger": false,
      "metar": "METAR LMML 120815Z 35012KT 9999 FEW035 12/03 Q1026 NOSIG",
      "taf": "TAF LMML 120500Z 1206/1306 34012KT CAVOK"
    },
    {
      "icao": "LOWW",
      "alert": "OK",
      "vis_m": 9999,
      "fzfg": false,
      "metar_trigger": false,
      "taf_trigger": false,
      "metar": "METAR LOWW 120820Z 15003KT CAVOK M07/M10 Q1022 NOSIG",
      "taf": "TAF LOWW 120815Z 1209/1315 11005KT CAVOK TX01/1314Z TNM06/1209Z"
    },
    {
      "icao": "LPFR",
      "alert": "OK",
      "vis_m": 8000,
      "fzfg": false,
      "metar_trigger": false,
      "taf_trigger": false,
      "metar": "METAR LPFR 120830Z 08006KT 8000 FEW001 10/09 Q1023",
      "taf": "TAF LPFR 120500Z 1206/1306 03005KT 9999 FEW012 SCT020"
    },
    {
      "icao": "LPMA",
      "alert": "OK",
      "vis_m": 9999,
      "fzfg": false,
      "metar_trigger": false,
      "taf_trigger": false,
      "metar": "METAR LPMA 120830Z 34003KT 270V040 9999 SCT015 14/12 Q1021",
      "taf": "TAF LPMA 120500Z 1206/1306 VRB05KT 9999 SCT015"
    },
    {
      "icao": "LPPR",
      "alert": "OK",
      "vis_m": 9999,
      "fzfg": false,
      "metar_trigger": false,
      "taf_trigger": false,
      "metar": "METAR LPPR 120830Z 17021KT 9999 BKN015 13/11 Q1018",
      "taf": ""
    },
    {
      "icao": "LPPS",
      "alert": "OK",
      "vis_m": 9999,
      "fzfg": false,
      "metar_trigger": false,
      "taf_trigger": false,
      "metar": "METAR LPPS 120830Z 21005KT 180V250 9999 SCT006 BKN010 15/15 Q1021",
      "taf": ""
    },
    {
      "icao": "LPPT",
      "alert": "OK",
      "vis_m": 9999,
      "fzfg": false,
      "metar_trigger": false,
      "taf_trigger": false,
      "metar": "METAR LPPT 120830Z 15007KT 120V180 9999 FEW003 SCT007 BKN028 12/11 Q1020",
      "taf": ""
    },
    {
      "icao": "LQBK",
      "alert": "OK",
      "vis_m": 9999,
      "fzfg": false,
      "metar_trigger": false,
      "taf_trigger": false,
      "metar": "METAR LQBK 120830Z 15008KT CAVOK M04/M11 Q1024 NOSIG",
      "taf": "TAF LQBK 120500Z 1206/1306 16007KT CAVOK TX01/1212Z TNM09/1206Z"
    },
    {
      "icao": "LQSA",
      "alert": "OK",
      "vis_m": 6000,
      "fzfg": false,
      "metar_trigger": false,
      "taf_trigger": false,
      "metar": "METAR LQSA 120830Z 13002KT 6000 NSC M10/M11 Q1024 NOSIG",
      "taf": "TAF LQSA 120500Z 1206/1306 VRB02KT CAVOK TXM03/1214Z TNM12/1206Z"
    },
    {
      "icao": "LQTZ",
      "alert": "OK",
      "vis_m": 8000,
      "fzfg": false,
      "metar_trigger": false,
      "taf_trigger": false,
      "metar": "METAR LQTZ 120830Z 10002KT 8000 NSC M09/M10 Q1024",
      "taf": "TAF LQTZ 120500Z 1206/1306 28005KT CAVOK TXM01/1213Z TNM10/1206Z"
    },
    {
      "icao": "LRBC",
      "alert": "OK",
      "vis_m": 9999,
      "fzfg": false,
      "metar_trigger": false,
      "taf_trigger": false,
      "metar": "METAR LRBC 120830Z 24011KT CAVOK M01/M12 Q1015",
      "taf": "TAF LRBC 120800Z 1209/1218 27007KT CAVOK"
    },
    {
      "icao": "LRBS",
      "alert": "OK",
      "vis_m": 9999,
      "fzfg": true,
      "metar_trigger": false,
      "taf_trigger": false,
      "metar": "METAR LRBS 120830Z COR 27006KT 250V350 CAVOK M06/M08 Q1019 NOSIG",
      "taf": "TAF LRBS 120500Z 1206/1306 25008KT 0600 FZFG OVC001"
    },
    {
      "icao": "LRBV",
      "alert": "OK",
      "vis_m": 9999,
      "fzfg": false,
      "metar_trigger": false,
      "taf_trigger": false,
      "metar": "METAR LRBV 120830Z 31005KT 260V350 9999 -SN FEW013 SCT019 BKN030 M06/M10 Q1016",
      "taf": "TAF LRBV 120800Z 1209/1218 VRB04KT 7000 -SN BKN030"
    },
    {
      "icao": "LRCL",
      "alert": "OK",
      "vis_m": 6000,
      "fzfg": false,
      "metar_trigger": false,
      "taf_trigger": false,
      "metar": "METAR LRCL 120830Z 00000KT 6000 BKN055 M08/M10 Q1018",
      "taf": "TAF LRCL 120800Z 1209/1218 VRB04KT 5000 -SN BKN045"
    },
    {
      "icao": "LRCV",
      "alert": "OK",
      "vis_m": 9999,
      "fzfg": false,
      "metar_trigger": false,
      "taf_trigger": false,
      "metar": "METAR LRCV 120830Z 30010KT CAVOK M04/M08 Q1019",
      "taf": "TAF LRCV 120800Z 1209/1218 29015KT CAVOK"
    },
    {
      "icao": "LRIA",
      "alert": "OK",
      "vis_m": 9999,
      "fzfg": false,
      "metar_trigger": false,
      "taf_trigger": false,
      "metar": "METAR LRIA 120830Z 24005KT 210V270 9999 BKN046 M02/M10 Q1015",
      "taf": "TAF LRIA 120800Z 1209/1218 26006KT CAVOK"
    },
    {
      "icao": "LROP",
      "alert": "OK",
      "vis_m": 8000,
      "fzfg": true,
      "metar_trigger": false,
      "taf_trigger": false,
      "metar": "METAR LROP 120830Z 25005KT 8000 NSC M07/M09 Q1019 NOSIG",
      "taf": "TAF LROP 120500Z 1206/1306 25008KT 0600 FZFG OVC001"
    },
    {
      "icao": "LRSB",
      "alert": "OK",
      "vis_m": 9999,
      "fzfg": false,
      "metar_trigger": false,
      "taf_trigger": false,
      "metar": "METAR LRSB 120830Z VRB02KT 9999 FEW036 SCT050 M09/M12 Q1017",
      "taf": "TAF LRSB 120500Z 1206/1306 VRB04KT CAVOK"
    },
    {
      "icao": "LRSM",
      "alert": "OK",
      "vis_m": 9999,
      "fzfg": false,
      "metar_trigger": false,
      "taf_trigger": false,
      "metar": "METAR LRSM 120830Z 24013KT 9999 -SN FEW015 BKN038 M06/M09 Q1019",
      "taf": "TAF LRSM 120800Z 1209/1218 25012KT 9999 SCT015 BKN030"
    },
    {
      "icao": "LRSV",
      "alert": "OK",
      "vis_m": 9999,
      "fzfg": false,
      "metar_trigger": false,
      "taf_trigger": false,
      "metar": "METAR LRSV 120830Z 27011KT CAVOK M04/M11 Q1012",
      "taf": "TAF LRSV 120800Z 1209/1218 27012KT CAVOK"
    },
    {
      "icao": "LRTM",
      "alert": "OK",
      "vis_m": 3500,
      "fzfg": false,
      "metar_trigger": false,
      "taf_trigger": false,
      "metar": "METAR LRTM 120830Z 00000KT 3500 -SN BR SCT033 BKN043 M07/M09 Q1018",
      "taf": "TAF LRTM 120800Z 1209/1218 VRB04KT 9999 BKN045"
    },
    {
      "icao": "LRTR",
      "alert": "OK",
      "vis_m": 9999,
      "fzfg": false,
      "metar_trigger": false,
      "taf_trigger": false,
      "metar": "METAR LRTR 120830Z 11003KT 090V150 9999 FEW040 M12/M15 Q1022",
      "taf": "TAF LRTR 120500Z 1206/1306 VRB04KT CAVOK"
    },
    {
      "icao": "LTAC",
      "alert": "OK",
      "vis_m": 9999,
      "fzfg": false,
      "metar_trigger": false,
      "taf_trigger": false,
      "metar": "METAR LTAC 120820Z 28005KT 9999 FEW015 BKN023 BKN080 01/M02 Q1006 NOSIG RMK RWY21C 27004KT RWY03L 27004KT RWY21R 26004KT RWY03R 29006KT RWY21L 29003KT",
      "taf": "TAF LTAC 120440Z 1206/1306 VRB02KT 8000 SCT030 BKN090"
    },
    {
      "icao": "LTFM",
      "alert": "OK",
      "vis_m": 7000,
      "fzfg": false,
      "metar_trigger": false,
      "taf_trigger": false,
      "metar": "METAR LTFM 120820Z 36021KT 7000 -SHSN BKN006 BKN020 01/00 Q1017 NOSIG RMK RWY17L 36019KT RWY34L 35021KT RWY16R 36020KT RWY36 01018KT RWY18 03016KT",
      "taf": "TAF LTFM 120440Z 1206/1312 01020G30KT 9999 -SHSN BKN011 BKN020"
    },
    {
      "icao": "LUKK",
      "alert": "OK",
      "vis_m": 9999,
      "fzfg": false,
      "metar_trigger": false,
      "taf_trigger": false,
      "metar": "METAR LUKK 120830Z 27007KT CAVOK M05/M11 Q1015 NOSIG",
      "taf": "TAF LUKK 120518Z 1206/1306 28008KT CAVOK"
    },
    {
      "icao": "LWOH",
      "alert": "OK",
      "vis_m": 9999,
      "fzfg": false,
      "metar_trigger": false,
      "taf_trigger": false,
      "metar": "METAR LWOH 120820Z 01008KT 340V050 CAVOK M04/M13 Q1019",
      "taf": "TAF LWOH 120835Z 1206/1306 36008KT CAVOK"
    },
    {
      "icao": "LWSK",
      "alert": "OK",
      "vis_m": 9999,
      "fzfg": false,
      "metar_trigger": false,
      "taf_trigger": false,
      "metar": "METAR LWSK 120820Z VRB02KT 9999 SCT050 BKN075 M02/M10 Q1024 NOSIG",
      "taf": "TAF LWSK 120835Z 1209/1309 VRB02KT 9999 SCT060"
    },
    {
      "icao": "LYBE",
      "alert": "OK",
      "vis_m": 9999,
      "fzfg": false,
      "metar_trigger": false,
      "taf_trigger": false,
      "metar": "METAR LYBE 120830Z 25008KT CAVOK M05/M11 Q1024 NOSIG",
      "taf": "TAF LYBE 120500Z 1206/1306 27008KT CAVOK TXM01/1212Z TNM09/1206Z"
    },
    {
      "icao": "LYNI",
      "alert": "OK",
      "vis_m": 9999,
      "fzfg": false,
      "metar_trigger": false,
      "taf_trigger": false,
      "metar": "METAR LYNI 120830Z 00000KT 9999 SCT033 M03/M08 Q1024 NOSIG",
      "taf": "TAF LYNI 120500Z 1206/1306 34007KT 9999 BKN050 TXM02/1212Z TNM07/1206Z"
    },
    {
      "icao": "LYPG",
      "alert": "OK",
      "vis_m": 9999,
      "fzfg": false,
      "metar_trigger": false,
      "taf_trigger": false,
      "metar": "METAR LYPG 120830Z 36013KT CAVOK 03/M13 Q1024 NOSIG",
      "taf": "TAF LYPG 120500Z 1206/1306 36015G25KT CAVOK TX06/1213Z TNM04/1301Z"
    },
    {
      "icao": "LZIB",
      "alert": "OK",
      "vis_m": 9999,
      "fzfg": false,
      "metar_trigger": false,
      "taf_trigger": false,
      "metar": "METAR LZIB 120830Z 20007KT CAVOK M05/M11 Q1022 NOSIG",
      "taf": "TAF LZIB 120515Z 1206/1306 31010KT CAVOK"
    },
    {
      "icao": "LZKZ",
      "alert": "OK",
      "vis_m": 9999,
      "fzfg": false,
      "metar_trigger": false,
      "taf_trigger": false,
      "metar": "METAR LZKZ 120830Z 21004KT 160V240 CAVOK M07/M09 Q1018 NOSIG",
      "taf": "TAF LZKZ 120515Z 1206/1306 VRB02KT 9999 SCT025"
    },
    {
      "icao": "LZTT",
      "alert": "OK",
      "vis_m": 9999,
      "fzfg": false,
      "metar_trigger": false,
      "taf_trigger": false,
      "metar": "METAR LZTT 120830Z 28011KT 9999 FEW016 SCT053 M07/M11 Q1014 NOSIG",
      "taf": "TAF LZTT 120515Z 1206/1306 28017KT 5000 -SN DRSN SCT013 BKN030"
    },
    {
      "icao": "OEJN",
      "alert": "OK",
      "vis_m": 9000,
      "fzfg": false,
      "metar_trigger": false,
      "taf_trigger": false,
      "metar": "METAR OEJN 120800Z 20004KT 9000 NSC 29/16 Q1016 NOSIG",
      "taf": "TAF OEJN 120500Z 1206/1312 26008KT 7000 NSC"
    },
    {
      "icao": "OEMA",
      "alert": "OK",
      "vis_m": 9000,
      "fzfg": false,
      "metar_trigger": false,
      "taf_trigger": false,
      "metar": "METAR OEMA 120800Z 05004KT 9000 NSC 21/00 Q1020 NOSIG",
      "taf": "TAF OEMA 120500Z 1206/1312 26012KT 7000 NSC"
    },
    {
      "icao": "OJAI",
      "alert": "OK",
      "vis_m": 5000,
      "fzfg": false,
      "metar_trigger": false,
      "taf_trigger": false,
      "metar": "METAR OJAI 120800Z 20006KT 5000 HZ NSC 10/05 Q1016 NOSIG",
      "taf": "TAF OJAI 120500Z 1206/1312 24014KT 5000 HZ NSC"
    },
    {
      "icao": "OMAA",
      "alert": "OK",
      "vis_m": 9999,
      "fzfg": false,
      "metar_trigger": false,
      "taf_trigger": false,
      "metar": "METAR OMAA 120800Z 34003KT 260V060 CAVOK 23/12 Q1022 NOSIG",
      "taf": "TAF OMAA 120500Z 1206/1312 VRB02KT 8000 NSC"
    },
    {
      "icao": "OMDB",
      "alert": "OK",
      "vis_m": 9999,
      "fzfg": false,
      "metar_trigger": false,
      "taf_trigger": false,
      "metar": "METAR OMDB 120830Z 30006KT 230V330 CAVOK 24/13 Q1021 NOSIG",
      "taf": "TAF OMDB 120500Z 1206/1312 18005KT 8000 NSC"
    },
    {
      "icao": "UAAA",
      "alert": "OK",
      "vis_m": 5000,
      "fzfg": false,
      "metar_trigger": false,
      "taf_trigger": false,
      "metar": "METAR UAAA 120830Z 23002MPS 200V260 5000 FU BKN050 OVC100 08/M05 Q1024 NOSIG",
      "taf": "TAF UAAA 120503Z 1206/1306 34003MPS 3100 BR FU SCT050CB BKN100 TX08/1209Z TNM03/1301Z"
    },
    {
      "icao": "UBBB",
      "alert": "OK",
      "vis_m": 9999,
      "fzfg": false,
      "metar_trigger": false,
      "taf_trigger": false,
      "metar": "METAR UBBB 120830Z 20024KT CAVOK 14/01 Q1008 NOSIG",
      "taf": "TAF UBBB 120500Z 1206/1306 18018G28KT CAVOK TX14/1209Z TN07/1302Z"
    },
    {
      "icao": "UDSG",
      "alert": "OK",
      "vis_m": 9999,
      "fzfg": false,
      "metar_trigger": false,
      "taf_trigger": false,
      "metar": "METAR UDSG 120830Z 14001KT 9999 FEW049 01/M05 Q1015 NOSIG",
      "taf": "TAF UDSG 120458Z 1206/1306 VRB04KT 9999 SCT050"
    },
    {
      "icao": "UDYZ",
      "alert": "OK",
      "vis_m": 4800,
      "fzfg": false,
      "metar_trigger": false,
      "taf_trigger": false,
      "metar": "METAR UDYZ 120830Z VRB01KT 4800 BR FEW046 02/M03 Q1016 NOSIG",
      "taf": "TAF UDYZ 120500Z 1206/1306 VRB04KT 1500 BR FEW040"
    },
    {
      "icao": "UGKO",
      "alert": "OK",
      "vis_m": 9999,
      "fzfg": false,
      "metar_trigger": false,
      "taf_trigger": false,
      "metar": "METAR UGKO 120830Z 07018KT CAVOK 15/M00 Q1006 NOSIG",
      "taf": "TAF UGKO 120500Z 1206/1306 08007KT CAVOK TX15/1212Z TN05/1302Z"
    }
  ]
}