{
  "ts_utc": "2026-03-17T19:43:18Z",
  "threshold_m": 150,
  "source": "stations_override.txt (ICAO list) + aviationweather.gov (METAR/TAF raw)",
  "station_count": 159,
  "stations": [
    {
      "icao": "BIKF",
      "alert": "OK",
      "vis_m": 9999,
      "fzfg": false,
      "metar_trigger": false,
      "taf_trigger": false,
      "metar": "METAR BIKF 171930Z 01024KT 9999 FEW018 SCT110 M00/M05 Q0988",
      "taf": "TAF BIKF 171931Z 1721/1821 36022KT 9999 FEW018 SCT030 TX03/1816Z TNM01/1808Z"
    },
    {
      "icao": "BKPR",
      "alert": "OK",
      "vis_m": 9999,
      "fzfg": false,
      "metar_trigger": false,
      "taf_trigger": false,
      "metar": "METAR BKPR 171930Z 35015KT 9999 -RA FEW012 SCT025 BKN035 05/04 Q1012 NOSIG",
      "taf": "TAF BKPR 171730Z 1718/1818 03008KT 9999 SCT025 BKN040"
    },
    {
      "icao": "EBCI",
      "alert": "OK",
      "vis_m": 9999,
      "fzfg": false,
      "metar_trigger": false,
      "taf_trigger": false,
      "metar": "METAR EBCI 171920Z 15003KT CAVOK 12/06 Q1019 NOSIG",
      "taf": "TAF EBCI 171704Z 1718/1824 16005KT CAVOK"
    },
    {
      "icao": "EDDB",
      "alert": "OK",
      "vis_m": 9999,
      "fzfg": false,
      "metar_trigger": false,
      "taf_trigger": false,
      "metar": "METAR EDDB 171920Z AUTO 10006KT CAVOK 04/M01 Q1026 NOSIG",
      "taf": "TAF EDDB 171700Z 1718/1818 13004KT CAVOK"
    },
    {
      "icao": "EDDH",
      "alert": "OK",
      "vis_m": 9999,
      "fzfg": false,
      "metar_trigger": false,
      "taf_trigger": false,
      "metar": "METAR EDDH 171920Z AUTO 13010KT CAVOK 09/03 Q1023 NOSIG",
      "taf": "TAF EDDH 171700Z 1718/1824 15006KT CAVOK"
    },
    {
      "icao": "EDDK",
      "alert": "OK",
      "vis_m": 9999,
      "fzfg": false,
      "metar_trigger": false,
      "taf_trigger": false,
      "metar": "METAR EDDK 171920Z AUTO 12006KT 090V150 CAVOK 11/06 Q1021 NOSIG",
      "taf": "TAF EDDK 171700Z 1718/1824 12006KT 9999 FEW045"
    },
    {
      "icao": "EDDN",
      "alert": "OK",
      "vis_m": 9999,
      "fzfg": false,
      "metar_trigger": false,
      "taf_trigger": false,
      "metar": "METAR EDDN 171920Z AUTO 09002KT CAVOK 02/M01 Q1023 NOSIG",
      "taf": "TAF EDDN 171700Z 1718/1818 09004KT CAVOK"
    },
    {
      "icao": "EDDS",
      "alert": "OK",
      "vis_m": 9999,
      "fzfg": false,
      "metar_trigger": false,
      "taf_trigger": false,
      "metar": "METAR EDDS 171920Z AUTO 09006KT CAVOK 07/03 Q1021 NOSIG",
      "taf": "TAF EDDS 171700Z 1718/1818 07006KT CAVOK"
    },
    {
      "icao": "EDFH",
      "alert": "OK",
      "vis_m": 9999,
      "fzfg": false,
      "metar_trigger": false,
      "taf_trigger": false,
      "metar": "METAR EDFH 171920Z 12005KT 9999 BKN030 07/05 Q1021",
      "taf": "TAF EDFH 171700Z 1718/1818 13008KT 9999 SCT015"
    },
    {
      "icao": "EDJA",
      "alert": "OK",
      "vis_m": 9999,
      "fzfg": false,
      "metar_trigger": false,
      "taf_trigger": false,
      "metar": "METAR EDJA 171920Z 05006KT 9999 SCT052 04/02 Q1021",
      "taf": "TAF EDJA 171700Z 1718/1803 07007KT 9999 SCT040"
    },
    {
      "icao": "EDLW",
      "alert": "OK",
      "vis_m": 9999,
      "fzfg": false,
      "metar_trigger": false,
      "taf_trigger": false,
      "metar": "METAR EDLW 171920Z VRB04KT 9999 FEW029 10/06 Q1021",
      "taf": "TAF EDLW 171700Z 1718/1818 14005KT 9999 SCT045"
    },
    {
      "icao": "EDNY",
      "alert": "OK",
      "vis_m": 9999,
      "fzfg": false,
      "metar_trigger": false,
      "taf_trigger": false,
      "metar": "METAR EDNY 171920Z 04007KT CAVOK 08/04 Q1020",
      "taf": "TAF EDNY 171700Z 1718/1803 04008KT CAVOK"
    },
    {
      "icao": "EDSB",
      "alert": "OK",
      "vis_m": 9999,
      "fzfg": false,
      "metar_trigger": false,
      "taf_trigger": false,
      "metar": "METAR EDSB 171920Z 05006KT CAVOK 10/05 Q1021",
      "taf": "TAF EDSB 171700Z 1718/1818 04007KT CAVOK"
    },
    {
      "icao": "EETN",
      "alert": "OK",
      "vis_m": 300,
      "fzfg": true,
      "metar_trigger": false,
      "taf_trigger": false,
      "metar": "METAR EETN 171920Z 25007KT 0300 R26/1000D FZFG VV002 M00/M00 Q1027 TEMPO 0500",
      "taf": "TAF EETN 171730Z 1718/1818 28007KT 9999 BKN005 BKN012"
    },
    {
      "icao": "EFTU",
      "alert": "OK",
      "vis_m": 5000,
      "fzfg": false,
      "metar_trigger": false,
      "taf_trigger": false,
      "metar": "METAR EFTU 171920Z AUTO 22009KT 180V250 5000 OVC002 01/01 Q1025",
      "taf": "TAF EFTU 171739Z 1718/1818 21008KT 8000 OVC003"
    },
    {
      "icao": "EGBB",
      "alert": "OK",
      "vis_m": 9999,
      "fzfg": false,
      "metar_trigger": false,
      "taf_trigger": false,
      "metar": "METAR EGBB 171920Z 18008KT CAVOK 11/06 Q1013",
      "taf": "TAF EGBB 171659Z 1718/1818 18010KT CAVOK"
    },
    {
      "icao": "EGGP",
      "alert": "OK",
      "vis_m": 9999,
      "fzfg": false,
      "metar_trigger": false,
      "taf_trigger": false,
      "metar": "METAR EGGP 171920Z 16008KT 120V190 9999 FEW035 12/06 Q1011",
      "taf": "TAF EGGP 171656Z 1718/1818 18010KT 9999 FEW045"
    },
    {
      "icao": "EGGW",
      "alert": "OK",
      "vis_m": 9999,
      "fzfg": false,
      "metar_trigger": false,
      "taf_trigger": false,
      "metar": "METAR EGGW 171920Z AUTO 17007KT 9999 NCD 10/06 Q1014",
      "taf": "TAF EGGW 171656Z 1718/1818 18012KT CAVOK"
    },
    {
      "icao": "EGKK",
      "alert": "OK",
      "vis_m": 9999,
      "fzfg": false,
      "metar_trigger": false,
      "taf_trigger": false,
      "metar": "METAR EGKK 171920Z 12004KT CAVOK 10/06 Q1015",
      "taf": "TAF EGKK 171656Z 1718/1824 20012KT CAVOK"
    },
    {
      "icao": "EGNM",
      "alert": "OK",
      "vis_m": 9999,
      "fzfg": false,
      "metar_trigger": false,
      "taf_trigger": false,
      "metar": "METAR EGNM 171920Z 18009KT CAVOK 11/06 Q1011",
      "taf": "TAF EGNM 171655Z 1718/1818 21010KT 9999 FEW030"
    },
    {
      "icao": "EGPD",
      "alert": "OK",
      "vis_m": 9999,
      "fzfg": false,
      "metar_trigger": false,
      "taf_trigger": false,
      "metar": "METAR EGPD 171920Z COR 20012G23KT 170V230 9999 BKN028 11/05 Q1004 NOSIG",
      "taf": "TAF EGPD 171657Z 1718/1818 20018G32KT 9999 SCT025"
    },
    {
      "icao": "EGPF",
      "alert": "OK",
      "vis_m": 9999,
      "fzfg": false,
      "metar_trigger": false,
      "taf_trigger": false,
      "metar": "METAR EGPF 171920Z AUTO 19017KT 9999 OVC037 11/07 Q1005",
      "taf": "TAF EGPF 171659Z 1718/1818 19015G25KT 9999 FEW020 BKN025"
    },
    {
      "icao": "EHBK",
      "alert": "OK",
      "vis_m": 9999,
      "fzfg": false,
      "metar_trigger": false,
      "taf_trigger": false,
      "metar": "METAR EHBK 171925Z AUTO 14006KT 9999 NSC 10/07 Q1020 NOSIG",
      "taf": "TAF EHBK 171707Z 1718/1824 09007KT CAVOK"
    },
    {
      "icao": "EHEH",
      "alert": "OK",
      "vis_m": 9999,
      "fzfg": false,
      "metar_trigger": false,
      "taf_trigger": false,
      "metar": "METAR EHEH 171925Z AUTO 13007KT 100V160 9999 OVC310 11/08 Q1019 BLU NOSIG",
      "taf": "TAF EHEH 171705Z 1718/1824 14007KT CAVOK"
    },
    {
      "icao": "EKBI",
      "alert": "OK",
      "vis_m": 9999,
      "fzfg": false,
      "metar_trigger": false,
      "taf_trigger": false,
      "metar": "METAR EKBI 171920Z AUTO 15007KT 130V190 9999 OVC014/// 08/05 Q1022",
      "taf": "TAF EKBI 171727Z 1718/1818 17010KT 9999 BKN030"
    },
    {
      "icao": "EKCH",
      "alert": "OK",
      "vis_m": 9999,
      "fzfg": false,
      "metar_trigger": false,
      "taf_trigger": false,
      "metar": "METAR EKCH 171920Z AUTO 14012KT 9999 NCD 03/01 Q1026 NOSIG",
      "taf": "TAF EKCH 171727Z 1718/1818 15009KT 9999 FEW020"
    },
    {
      "icao": "ENAL",
      "alert": "OK",
      "vis_m": 9999,
      "fzfg": false,
      "metar_trigger": false,
      "taf_trigger": false,
      "metar": "METAR ENAL 171920Z 20017KT 9999 BKN045 13/05 Q1001",
      "taf": "TAF ENAL 171700Z 1718/1803 20018KT 9999 BKN045"
    },
    {
      "icao": "ENBR",
      "alert": "OK",
      "vis_m": 9999,
      "fzfg": false,
      "metar_trigger": false,
      "taf_trigger": false,
      "metar": "METAR ENBR 171920Z 17026KT 9999 FEW013 SCT019 BKN025 09/06 Q1009 TEMPO 17028G38KT BKN012 RMK WIND 1200FT 16034G48KT",
      "taf": "TAF ENBR 171700Z 1718/1818 16025KT 9999 SCT005 BKN015"
    },
    {
      "icao": "ENGM",
      "alert": "OK",
      "vis_m": 8000,
      "fzfg": false,
      "metar_trigger": false,
      "taf_trigger": false,
      "metar": "METAR ENGM 171920Z 19013KT 8000 -RA OVC002 04/03 Q1018 TEMPO 4000 -DZ BR",
      "taf": "TAF ENGM 171700Z 1718/1818 20012KT 7000 -DZRA OVC005"
    },
    {
      "icao": "ENHD",
      "alert": "OK",
      "vis_m": 2800,
      "fzfg": false,
      "metar_trigger": false,
      "taf_trigger": false,
      "metar": "METAR ENHD 171920Z 16020G34KT 140V200 2800 BR BKN002 OVC003 07/06 Q1012",
      "taf": "TAF ENHD 171400Z 1715/1723 15020G32KT 8000 BKN004"
    },
    {
      "icao": "ENTC",
      "alert": "OK",
      "vis_m": 9999,
      "fzfg": false,
      "metar_trigger": false,
      "taf_trigger": false,
      "metar": "METAR ENTC 171920Z 06001KT 9999 SCT052 BKN060 03/M01 Q1001 TEMPO 18010KT RMK WIND 2600FT 17035KT",
      "taf": ""
    },
    {
      "icao": "ENTO",
      "alert": "OK",
      "vis_m": 1300,
      "fzfg": false,
      "metar_trigger": false,
      "taf_trigger": false,
      "metar": "METAR ENTO 171920Z 19013KT 1300 R18/P2000N R36/P2000N DZRA OVC002 04/04 Q1019 TEMPO 2000 -DZ BR",
      "taf": "TAF ENTO 171700Z 1718/1818 18015KT 3000 -DZRA SCT002 OVC005"
    },
    {
      "icao": "ENVA",
      "alert": "OK",
      "vis_m": 9999,
      "fzfg": false,
      "metar_trigger": false,
      "taf_trigger": false,
      "metar": "METAR ENVA 171920Z 17021G33KT CAVOK 09/01 Q1005 NOSIG RMK WIND 670FT 18033G45KT",
      "taf": "TAF ENVA 171700Z 1718/1818 10009KT 9999 BKN040"
    },
    {
      "icao": "ENZV",
      "alert": "OK",
      "vis_m": 9999,
      "fzfg": false,
      "metar_trigger": false,
      "taf_trigger": false,
      "metar": "METAR ENZV 171920Z 16020KT 9999 OVC007 07/06 Q1013 TEMPO 16022G32KT SCT007 BKN012",
      "taf": ""
    },
    {
      "icao": "EPGD",
      "alert": "OK",
      "vis_m": 9999,
      "fzfg": false,
      "metar_trigger": false,
      "taf_trigger": false,
      "metar": "METAR EPGD 171930Z 08001KT CAVOK 02/01 Q1028",
      "taf": "TAF EPGD 171730Z 1718/1818 VRB04KT 9999 SCT025"
    },
    {
      "icao": "EPKK",
      "alert": "OK",
      "vis_m": 9999,
      "fzfg": false,
      "metar_trigger": false,
      "taf_trigger": false,
      "metar": "METAR EPKK 171930Z 03005KT 010V080 9999 BKN043 06/04 Q1024",
      "taf": "TAF EPKK 171730Z 1718/1818 04005KT 9999 SCT025"
    },
    {
      "icao": "EPKT",
      "alert": "OK",
      "vis_m": 9999,
      "fzfg": false,
      "metar_trigger": false,
      "taf_trigger": false,
      "metar": "METAR EPKT 171930Z 02005KT 9999 BKN039 05/02 Q1025",
      "taf": "TAF EPKT 171708Z 1718/1818 01006KT 9999 BKN020"
    },
    {
      "icao": "EPLB",
      "alert": "OK",
      "vis_m": 9999,
      "fzfg": false,
      "metar_trigger": false,
      "taf_trigger": false,
      "metar": "METAR EPLB 171930Z 36008KT CAVOK 07/03 Q1024",
      "taf": "TAF EPLB 171730Z 1718/1818 36005KT CAVOK"
    },
    {
      "icao": "EPMO",
      "alert": "OK",
      "vis_m": 9999,
      "fzfg": false,
      "metar_trigger": false,
      "taf_trigger": false,
      "metar": "METAR EPMO 171930Z 35006KT CAVOK 06/01 Q1027",
      "taf": "TAF EPMO 171730Z 1718/1818 36006KT 9999 BKN035"
    },
    {
      "icao": "EPPO",
      "alert": "OK",
      "vis_m": 9999,
      "fzfg": false,
      "metar_trigger": false,
      "taf_trigger": false,
      "metar": "METAR EPPO 171930Z 12001KT CAVOK 02/M02 Q1027",
      "taf": "TAF EPPO 171730Z 1718/1818 06005KT CAVOK"
    },
    {
      "icao": "EPRA",
      "alert": "OK",
      "vis_m": 9999,
      "fzfg": false,
      "metar_trigger": false,
      "taf_trigger": false,
      "metar": "METAR EPRA 171930Z 36004KT CAVOK 06/00 Q1025",
      "taf": "TAF EPRA 171730Z 1718/1803 01006KT 9999 SCT045"
    },
    {
      "icao": "EPRZ",
      "alert": "OK",
      "vis_m": 9999,
      "fzfg": false,
      "metar_trigger": false,
      "taf_trigger": false,
      "metar": "METAR EPRZ 171930Z 32003KT CAVOK 04/01 Q1023",
      "taf": "TAF EPRZ 171730Z 1718/1818 35007KT 9999 SCT030"
    },
    {
      "icao": "EPSC",
      "alert": "OK",
      "vis_m": 9999,
      "fzfg": false,
      "metar_trigger": false,
      "taf_trigger": false,
      "metar": "METAR EPSC 171930Z 06001KT CAVOK 01/M01 Q1027",
      "taf": "TAF EPSC 171730Z 1718/1818 14005KT CAVOK"
    },
    {
      "icao": "EPSY",
      "alert": "OK",
      "vis_m": 9999,
      "fzfg": false,
      "metar_trigger": false,
      "taf_trigger": false,
      "metar": "METAR EPSY 171930Z VRB02KT CAVOK 00/M01 Q1028",
      "taf": "TAF EPSY 171730Z 1718/1803 35005KT CAVOK"
    },
    {
      "icao": "EPWA",
      "alert": "OK",
      "vis_m": 9999,
      "fzfg": false,
      "metar_trigger": false,
      "taf_trigger": false,
      "metar": "METAR EPWA 171930Z 35005KT CAVOK 07/00 Q1026 NOSIG",
      "taf": "TAF EPWA 171730Z 1718/1818 03008KT CAVOK"
    },
    {
      "icao": "EPWR",
      "alert": "OK",
      "vis_m": 9999,
      "fzfg": false,
      "metar_trigger": false,
      "taf_trigger": false,
      "metar": "METAR EPWR 171930Z 02004KT CAVOK 05/01 Q1026",
      "taf": "TAF EPWR 171730Z 1718/1818 03005KT CAVOK"
    },
    {
      "icao": "ESGG",
      "alert": "OK",
      "vis_m": 9999,
      "fzfg": false,
      "metar_trigger": false,
      "taf_trigger": false,
      "metar": "METAR ESGG 171920Z 17010KT CAVOK 04/01 Q1023",
      "taf": "TAF ESGG 171730Z 1718/1818 17008KT CAVOK"
    },
    {
      "icao": "ESKN",
      "alert": "OK",
      "vis_m": 4400,
      "fzfg": false,
      "metar_trigger": false,
      "taf_trigger": false,
      "metar": "METAR ESKN 171920Z 14008KT 4400 BR SCT002 02/02 Q1024",
      "taf": "TAF ESKN 171730Z 1718/1818 16008KT 0500 FG VV002"
    },
    {
      "icao": "ESMS",
      "alert": "OK",
      "vis_m": 400,
      "fzfg": true,
      "metar_trigger": false,
      "taf_trigger": false,
      "metar": "METAR ESMS 171920Z 13006KT 100V160 0400 R17/1400D R35/1600N FZFG OVC002 M00/M00 Q1026",
      "taf": "TAF ESMS 171727Z 1718/1818 16007KT 8000 FEW007"
    },
    {
      "icao": "ESSA",
      "alert": "OK",
      "vis_m": 9999,
      "fzfg": false,
      "metar_trigger": false,
      "taf_trigger": false,
      "metar": "METAR ESSA 171920Z 17011KT CAVOK 01/M01 Q1023 NOSIG",
      "taf": "TAF ESSA 171730Z 1718/1818 19010KT CAVOK"
    },
    {
      "icao": "EYKA",
      "alert": "OK",
      "vis_m": 9999,
      "fzfg": false,
      "metar_trigger": false,
      "taf_trigger": false,
      "metar": "METAR EYKA 171920Z 32005KT 290V350 CAVOK 05/02 Q1027",
      "taf": "TAF EYKA 171700Z 1718/1818 VRB03KT 9000 SCT035"
    },
    {
      "icao": "EYPA",
      "alert": "OK",
      "vis_m": 600,
      "fzfg": false,
      "metar_trigger": false,
      "taf_trigger": false,
      "metar": "METAR EYPA 171920Z VRB02KT 0600 R19/0750N FG VV001 03/03 Q1029",
      "taf": "TAF EYPA 171700Z 1718/1818 VRB02KT 1500 BR OVC002"
    },
    {
      "icao": "EYVI",
      "alert": "OK",
      "vis_m": 9999,
      "fzfg": false,
      "metar_trigger": false,
      "taf_trigger": false,
      "metar": "METAR EYVI 171920Z 36004KT CAVOK 05/02 Q1027 NOSIG",
      "taf": "TAF EYVI 171700Z 1718/1818 VRB04KT 9000 SCT045"
    },
    {
      "icao": "GCFV",
      "alert": "OK",
      "vis_m": 9999,
      "fzfg": false,
      "metar_trigger": false,
      "taf_trigger": false,
      "metar": "METAR GCFV 171930Z 23012KT 9999 FEW025 20/12 Q1010",
      "taf": "TAF GCFV 171400Z 1715/1815 23013KT 9999 FEW030 TX20/1814Z TN16/1806Z"
    },
    {
      "icao": "GCLP",
      "alert": "OK",
      "vis_m": 9999,
      "fzfg": false,
      "metar_trigger": false,
      "taf_trigger": false,
      "metar": "METAR GCLP 171930Z 22006KT 190V270 9999 FEW025 SCT040 20/13 Q1010 NOSIG",
      "taf": "TAF GCLP 171400Z 1715/1815 01009KT 9999 SCT025 TX20/1814Z TN14/1806Z"
    },
    {
      "icao": "GCTS",
      "alert": "OK",
      "vis_m": 9999,
      "fzfg": false,
      "metar_trigger": false,
      "taf_trigger": false,
      "metar": "METAR GCTS 171930Z 28013KT 9999 FEW025 19/14 Q1011 NOSIG",
      "taf": "TAF GCTS 171400Z 1715/1815 25018KT 9999 BKN030 TX23/1814Z TN14/1806Z"
    },
    {
      "icao": "GMAD",
      "alert": "OK",
      "vis_m": 6000,
      "fzfg": false,
      "metar_trigger": false,
      "taf_trigger": false,
      "metar": "METAR GMAD 171930Z 22005KT 6000 SCT026 16/13 Q1011 NOSIG",
      "taf": "TAF GMAD 171700Z 1718/1824 26008KT 8000 SCT026TCU BKN080"
    },
    {
      "icao": "GMMN",
      "alert": "OK",
      "vis_m": 5000,
      "fzfg": false,
      "metar_trigger": false,
      "taf_trigger": false,
      "metar": "METAR GMMN 171930Z 27009KT 5000 -RA SCT008 SCT016 BKN100 15/14 Q1011 TEMPO 4000 SHRA",
      "taf": "TAF GMMN 171700Z 1718/1824 02012KT 6000 SCT016 BKN100"
    },
    {
      "icao": "GMMX",
      "alert": "OK",
      "vis_m": 6000,
      "fzfg": false,
      "metar_trigger": false,
      "taf_trigger": false,
      "metar": "METAR GMMX 171930Z 32007KT 270V020 6000 SHRA BKN023 FEW030TCU 16/13 Q1010 TEMPO 4000",
      "taf": "TAF GMMX 171700Z 1718/1824 06006KT 8000 SCT033 SCT100"
    },
    {
      "icao": "HEGN",
      "alert": "OK",
      "vis_m": 9999,
      "fzfg": false,
      "metar_trigger": false,
      "taf_trigger": false,
      "metar": "METAR HEGN 171900Z 00000KT 9999 FEW025 22/07 Q1009 NOSIG",
      "taf": "TAF HEGN 171700Z 1718/1824 12010KT CAVOK"
    },
    {
      "icao": "HEMA",
      "alert": "OK",
      "vis_m": 9999,
      "fzfg": false,
      "metar_trigger": false,
      "taf_trigger": false,
      "metar": "METAR HEMA 171900Z 14004KT CAVOK 20/14 Q1010 NOSIG",
      "taf": "TAF HEMA 171700Z 1718/1824 13012KT CAVOK"
    },
    {
      "icao": "HESH",
      "alert": "OK",
      "vis_m": 9999,
      "fzfg": false,
      "metar_trigger": false,
      "taf_trigger": false,
      "metar": "METAR HESH 171900Z 15004KT CAVOK 22/10 Q1009 NOSIG",
      "taf": "TAF HESH 171700Z 1718/1824 30010KT CAVOK"
    },
    {
      "icao": "HESX",
      "alert": "OK",
      "vis_m": 9999,
      "fzfg": false,
      "metar_trigger": false,
      "taf_trigger": false,
      "metar": "METAR HESX 171900Z 06013KT CAVOK 17/09 Q1009 NOSIG",
      "taf": "TAF HESX 171700Z 1718/1824 07009KT CAVOK"
    },
    {
      "icao": "LATI",
      "alert": "OK",
      "vis_m": 7000,
      "fzfg": false,
      "metar_trigger": false,
      "taf_trigger": false,
      "metar": "METAR LATI 171920Z VRB02KT 7000 DZ SCT033 SCT047 OVC072 11/08 Q1011 NOSIG",
      "taf": "TAF LATI 171700Z 1718/1818 VRB05KT 9999 FEW030 BKN050 OVC070 TX17/1812Z TN09/1805Z"
    },
    {
      "icao": "LBPD",
      "alert": "OK",
      "vis_m": 9999,
      "fzfg": false,
      "metar_trigger": false,
      "taf_trigger": false,
      "metar": "METAR LBPD 171930Z AUTO 08008KT 9999 FEW068/// BKN250/// 05/M00 Q1017 NOSIG",
      "taf": "TAF LBPD 171700Z 1718/1818 09010KT 9999 SCT070"
    },
    {
      "icao": "LBSF",
      "alert": "OK",
      "vis_m": 9999,
      "fzfg": false,
      "metar_trigger": false,
      "taf_trigger": false,
      "metar": "METAR LBSF 171930Z AUTO 11012KT 9999 NSC 07/M02 Q1015 NOSIG",
      "taf": "TAF LBSF 171700Z 1718/1818 10010KT 9999 SCT040"
    },
    {
      "icao": "LBWN",
      "alert": "OK",
      "vis_m": 9999,
      "fzfg": false,
      "metar_trigger": false,
      "taf_trigger": false,
      "metar": "METAR LBWN 171930Z AUTO 04008KT 9999 NCD 06/M01 Q1019 NOSIG",
      "taf": "TAF LBWN 171700Z 1718/1818 11010KT 9999 SCT045"
    },
    {
      "icao": "LCLK",
      "alert": "OK",
      "vis_m": 9999,
      "fzfg": false,
      "metar_trigger": false,
      "taf_trigger": false,
      "metar": "METAR LCLK 171930Z 35005KT CAVOK 12/10 Q1012 NOSIG",
      "taf": "TAF LCLK 171730Z 1718/1818 35008KT CAVOK"
    },
    {
      "icao": "LCPH",
      "alert": "OK",
      "vis_m": 9999,
      "fzfg": false,
      "metar_trigger": false,
      "taf_trigger": false,
      "metar": "METAR LCPH 171930Z 08004KT CAVOK 13/10 Q1012 NOSIG",
      "taf": "TAF LCPH 171730Z 1718/1818 07008KT 9999 FEW030"
    },
    {
      "icao": "LEAL",
      "alert": "OK",
      "vis_m": 9999,
      "fzfg": false,
      "metar_trigger": false,
      "taf_trigger": false,
      "metar": "METAR LEAL 171930Z 00000KT CAVOK 11/05 Q1014 NOSIG",
      "taf": "TAF LEAL 171700Z 1718/1818 VRB04KT CAVOK TX19/1812Z TN09/1806Z"
    },
    {
      "icao": "LEBB",
      "alert": "OK",
      "vis_m": 9999,
      "fzfg": false,
      "metar_trigger": false,
      "taf_trigger": false,
      "metar": "METAR LEBB 171930Z 08003KT 020V140 CAVOK 15/07 Q1008 NOSIG",
      "taf": "TAF LEBB 171700Z 1718/1818 12009KT CAVOK TX26/1814Z TN09/1806Z"
    },
    {
      "icao": "LEBL",
      "alert": "OK",
      "vis_m": 9999,
      "fzfg": false,
      "metar_trigger": false,
      "taf_trigger": false,
      "metar": "METAR LEBL 171930Z 10003KT 9999 FEW010 14/13 Q1014 NOSIG",
      "taf": "TAF LEBL 171700Z 1718/1818 14008KT CAVOK TX16/1813Z TN08/1806Z"
    },
    {
      "icao": "LECH",
      "alert": "OK",
      "vis_m": 9000,
      "fzfg": false,
      "metar_trigger": false,
      "taf_trigger": false,
      "metar": "METAR LECH 171930Z AUTO 08002KT 9000 NCD 11/06 Q1013",
      "taf": ""
    },
    {
      "icao": "LEMD",
      "alert": "OK",
      "vis_m": 9999,
      "fzfg": false,
      "metar_trigger": false,
      "taf_trigger": false,
      "metar": "METAR LEMD 171930Z VRB02KT CAVOK 15/01 Q1010 NOSIG",
      "taf": "TAF LEMD 171700Z 1718/1824 VRB04KT CAVOK TX20/1815Z TN04/1806Z"
    },
    {
      "icao": "LEMG",
      "alert": "OK",
      "vis_m": 9999,
      "fzfg": false,
      "metar_trigger": false,
      "taf_trigger": false,
      "metar": "METAR LEMG 171930Z 11003KT 070V160 CAVOK 13/08 Q1011 NOSIG",
      "taf": "TAF LEMG 171700Z 1718/1818 12010KT CAVOK TX19/1814Z TN08/1807Z"
    },
    {
      "icao": "LEVC",
      "alert": "OK",
      "vis_m": 9999,
      "fzfg": false,
      "metar_trigger": false,
      "taf_trigger": false,
      "metar": "METAR LEVC 171930Z VRB02KT CAVOK 14/09 Q1013 NOSIG",
      "taf": "TAF LEVC 171700Z 1718/1818 10009KT CAVOK TX18/1812Z TN06/1805Z"
    },
    {
      "icao": "LEXJ",
      "alert": "OK",
      "vis_m": 9999,
      "fzfg": false,
      "metar_trigger": false,
      "taf_trigger": false,
      "metar": "METAR LEXJ 171930Z 00000KT CAVOK 11/07 Q1007",
      "taf": ""
    },
    {
      "icao": "LEZG",
      "alert": "OK",
      "vis_m": 9999,
      "fzfg": false,
      "metar_trigger": false,
      "taf_trigger": false,
      "metar": "METAR LEZG 171930Z 11004KT 100V160 CAVOK 17/03 Q1011 NOSIG",
      "taf": "TAF LEZG 171700Z 1718/1818 10010KT CAVOK TX21/1814Z TN07/1806Z"
    },
    {
      "icao": "LEZL",
      "alert": "OK",
      "vis_m": 9999,
      "fzfg": false,
      "metar_trigger": false,
      "taf_trigger": false,
      "metar": "METAR LEZL 171930Z 23008KT CAVOK 21/04 Q1008 NOSIG",
      "taf": "TAF LEZL 171400Z 1715/1815 VRB03KT CAVOK TX25/1715Z TN10/1807Z"
    },
    {
      "icao": "LFBD",
      "alert": "OK",
      "vis_m": 9999,
      "fzfg": false,
      "metar_trigger": false,
      "taf_trigger": false,
      "metar": "METAR LFBD 171930Z AUTO 10004KT CAVOK 16/09 Q1011 NOSIG",
      "taf": "TAF LFBD 171700Z 1718/1824 10008KT CAVOK TX21/1815Z TN07/1806Z"
    },
    {
      "icao": "LFLL",
      "alert": "OK",
      "vis_m": 9999,
      "fzfg": false,
      "metar_trigger": false,
      "taf_trigger": false,
      "metar": "METAR LFLL 171930Z VRB01KT CAVOK 11/05 Q1016 NOSIG",
      "taf": "TAF LFLL 171700Z 1718/1824 34005KT CAVOK"
    },
    {
      "icao": "LFLS",
      "alert": "OK",
      "vis_m": 9999,
      "fzfg": false,
      "metar_trigger": false,
      "taf_trigger": false,
      "metar": "METAR LFLS 171930Z AUTO VRB02KT CAVOK 09/04 Q1016 NOSIG",
      "taf": "TAF LFLS 171400Z 1715/1815 02005KT CAVOK"
    },
    {
      "icao": "LFMN",
      "alert": "OK",
      "vis_m": 9999,
      "fzfg": false,
      "metar_trigger": false,
      "taf_trigger": false,
      "metar": "METAR LFMN 171930Z 34003KT 320V020 CAVOK 13/05 Q1014 NOSIG",
      "taf": "TAF LFMN 171400Z 1715/1821 18004KT CAVOK"
    },
    {
      "icao": "LFOB",
      "alert": "OK",
      "vis_m": 9999,
      "fzfg": false,
      "metar_trigger": false,
      "taf_trigger": false,
      "metar": "METAR LFOB 171930Z AUTO 09006KT CAVOK 08/06 Q1017 NOSIG",
      "taf": "TAF LFOB 171700Z 1718/1818 15006KT CAVOK"
    },
    {
      "icao": "LFPO",
      "alert": "OK",
      "vis_m": 9999,
      "fzfg": false,
      "metar_trigger": false,
      "taf_trigger": false,
      "metar": "METAR LFPO 171930Z 09005KT CAVOK 13/07 Q1017 NOSIG",
      "taf": "TAF LFPO 171700Z 1718/1824 12005KT CAVOK"
    },
    {
      "icao": "LFSB",
      "alert": "OK",
      "vis_m": 9999,
      "fzfg": false,
      "metar_trigger": false,
      "taf_trigger": false,
      "metar": "METAR LFSB 171930Z AUTO 10005KT 9999 FEW054 10/03 Q1019 NOSIG",
      "taf": "TAF LFSB 171700Z 1718/1818 VRB04KT 9999 BKN055"
    },
    {
      "icao": "LGAV",
      "alert": "OK",
      "vis_m": 9999,
      "fzfg": false,
      "metar_trigger": false,
      "taf_trigger": false,
      "metar": "METAR LGAV 171920Z 03011KT 9999 FEW020 BKN070 12/03 Q1013 NOSIG",
      "taf": "TAF LGAV 171700Z 1718/1818 02012KT 9999 SCT020 BKN070"
    },
    {
      "icao": "LGTS",
      "alert": "OK",
      "vis_m": 9999,
      "fzfg": false,
      "metar_trigger": false,
      "taf_trigger": false,
      "metar": "METAR LGTS 171920Z VRB03KT 9999 SCT025 10/04 Q1015 NOSIG",
      "taf": "TAF LGTS 171700Z 1718/1818 14013KT 9999 SCT025"
    },
    {
      "icao": "LHBP",
      "alert": "OK",
      "vis_m": 9999,
      "fzfg": false,
      "metar_trigger": false,
      "taf_trigger": false,
      "metar": "METAR LHBP 171930Z 34006KT CAVOK 07/04 Q1019 NOSIG",
      "taf": "TAF LHBP 171715Z 1718/1818 01007KT 9999 SCT040 BKN080"
    },
    {
      "icao": "LHDC",
      "alert": "OK",
      "vis_m": 9999,
      "fzfg": false,
      "metar_trigger": false,
      "taf_trigger": false,
      "metar": "METAR LHDC 171915Z AUTO 02011KT CAVOK 10/04 Q1018",
      "taf": "TAF LHDC 171415Z 1715/1724 12006KT CAVOK"
    },
    {
      "icao": "LIBD",
      "alert": "OK",
      "vis_m": 9999,
      "fzfg": false,
      "metar_trigger": false,
      "taf_trigger": false,
      "metar": "METAR LIBD 171920Z 25006KT 9999 FEW020 SCT040 10/08 Q1011",
      "taf": "TAF LIBD 171700Z 1718/1818 28008KT 9999 SCT030"
    },
    {
      "icao": "LIBG",
      "alert": "OK",
      "vis_m": 9000,
      "fzfg": false,
      "metar_trigger": false,
      "taf_trigger": false,
      "metar": "METAR LIBG 171850Z 28003KT 9000 RA FEW020 SCT035 10/09 Q1011",
      "taf": "TAF LIBG 171700Z 1718/1803 VRB06KT 9999 SCT025"
    },
    {
      "icao": "LIBP",
      "alert": "OK",
      "vis_m": 9999,
      "fzfg": false,
      "metar_trigger": false,
      "taf_trigger": false,
      "metar": "METAR LIBP 171920Z AUTO 30006KT 240V020 9999 -RA OVC037/// 09/05 Q1015",
      "taf": ""
    },
    {
      "icao": "LIBR",
      "alert": "OK",
      "vis_m": 7000,
      "fzfg": false,
      "metar_trigger": false,
      "taf_trigger": false,
      "metar": "METAR LIBR 171920Z 32011KT 7000 -RA FEW015 11/09 Q1010",
      "taf": "TAF LIBR 171700Z 1718/1818 34008KT 9999 BKN035"
    },
    {
      "icao": "LICA",
      "alert": "OK",
      "vis_m": 9999,
      "fzfg": false,
      "metar_trigger": false,
      "taf_trigger": false,
      "metar": "METAR LICA 171920Z AUTO 06008KT 9999 OVC059/// 13/10 Q1010",
      "taf": "TAF LICA 171700Z 1718/1818 08010KT 9999 BKN040"
    },
    {
      "icao": "LICC",
      "alert": "OK",
      "vis_m": 9999,
      "fzfg": false,
      "metar_trigger": false,
      "taf_trigger": false,
      "metar": "METAR LICC 171920Z 04011KT 9999 SCT060 BKN080 14/12 Q1009",
      "taf": "TAF LICC 171700Z 1718/1818 06010KT 9999 BKN030"
    },
    {
      "icao": "LICJ",
      "alert": "OK",
      "vis_m": 9999,
      "fzfg": false,
      "metar_trigger": false,
      "taf_trigger": false,
      "metar": "METAR LICJ 171920Z 05012KT 9999 SCT020 SCT075 15/11 Q1010",
      "taf": "TAF LICJ 171700Z 1718/1818 03016KT 9999 SCT020"
    },
    {
      "icao": "LIMC",
      "alert": "OK",
      "vis_m": 9999,
      "fzfg": false,
      "metar_trigger": false,
      "taf_trigger": false,
      "metar": "METAR LIMC 171920Z 08003KT CAVOK 11/05 Q1015 NOSIG",
      "taf": "TAF LIMC 171700Z 1718/1824 VRB05KT 9999 SCT050"
    },
    {
      "icao": "LIME",
      "alert": "OK",
      "vis_m": 9999,
      "fzfg": false,
      "metar_trigger": false,
      "taf_trigger": false,
      "metar": "METAR LIME 171920Z 11009KT 9999 BKN060 12/02 Q1016 NOSIG",
      "taf": "TAF LIME 171700Z 1718/1818 VRB06KT 9999 SCT050"
    },
    {
      "icao": "LIMF",
      "alert": "OK",
      "vis_m": 9999,
      "fzfg": false,
      "metar_trigger": false,
      "taf_trigger": false,
      "metar": "METAR LIMF 171920Z 03004KT CAVOK 12/04 Q1015",
      "taf": "TAF LIMF 171700Z 1718/1818 VRB05KT 9999 SCT030"
    },
    {
      "icao": "LIMJ",
      "alert": "OK",
      "vis_m": 9999,
      "fzfg": false,
      "metar_trigger": false,
      "taf_trigger": false,
      "metar": "METAR LIMJ 171920Z 03007KT 360V060 CAVOK 15/03 Q1014",
      "taf": "TAF LIMJ 171700Z 1718/1818 35012KT 9999 SCT020"
    },
    {
      "icao": "LIPE",
      "alert": "OK",
      "vis_m": 9999,
      "fzfg": false,
      "metar_trigger": false,
      "taf_trigger": false,
      "metar": "METAR LIPE 171920Z 09006KT CAVOK 11/01 Q1017",
      "taf": "TAF LIPE 171700Z 1718/1818 09010KT 9999 FEW050"
    },
    {
      "icao": "LIPH",
      "alert": "OK",
      "vis_m": 9999,
      "fzfg": false,
      "metar_trigger": false,
      "taf_trigger": false,
      "metar": "METAR LIPH 171920Z VRB01KT 9999 BKN065 10/04 Q1018",
      "taf": "TAF LIPH 171700Z 1718/1818 VRB04KT 9999 SCT035"
    },
    {
      "icao": "LIPQ",
      "alert": "OK",
      "vis_m": 9999,
      "fzfg": false,
      "metar_trigger": false,
      "taf_trigger": false,
      "metar": "METAR LIPQ 171920Z AUTO 07005KT 9999 NCD 09/M03 Q1018",
      "taf": "TAF LIPQ 171700Z 1718/1818 06006KT 9999 SCT060"
    },
    {
      "icao": "LIPR",
      "alert": "OK",
      "vis_m": 9999,
      "fzfg": false,
      "metar_trigger": false,
      "taf_trigger": false,
      "metar": "METAR LIPR 171920Z 07006KT 9999 SCT060 11/03 Q1017",
      "taf": "TAF LIPR 171700Z 1718/1818 09005KT 9999 FEW045"
    },
    {
      "icao": "LIPX",
      "alert": "OK",
      "vis_m": 9999,
      "fzfg": false,
      "metar_trigger": false,
      "taf_trigger": false,
      "metar": "METAR LIPX 171920Z 09006KT 9999 SCT090 12/01 Q1017",
      "taf": "TAF LIPX 171700Z 1718/1818 VRB05KT 9999 SCT030"
    },
    {
      "icao": "LIPY",
      "alert": "OK",
      "vis_m": 9999,
      "fzfg": false,
      "metar_trigger": false,
      "taf_trigger": false,
      "metar": "METAR LIPY 171920Z AUTO 03014KT 9999 NCD 11/02 Q1016",
      "taf": "TAF LIPY 171700Z 1718/1818 03012KT 9999 SCT040"
    },
    {
      "icao": "LIPZ",
      "alert": "OK",
      "vis_m": 9999,
      "fzfg": false,
      "metar_trigger": false,
      "taf_trigger": false,
      "metar": "METAR LIPZ 171920Z 10017KT 9999 SCT070 11/01 Q1018 NOSIG",
      "taf": "TAF LIPZ 171700Z 1718/1824 06005KT CAVOK"
    },
    {
      "icao": "LIRF",
      "alert": "OK",
      "vis_m": 9999,
      "fzfg": false,
      "metar_trigger": false,
      "taf_trigger": false,
      "metar": "METAR LIRF 171920Z 03007KT CAVOK 13/M03 Q1012 NOSIG",
      "taf": "TAF LIRF 171700Z 1718/1824 01015KT CAVOK"
    },
    {
      "icao": "LIRN",
      "alert": "OK",
      "vis_m": 9999,
      "fzfg": false,
      "metar_trigger": false,
      "taf_trigger": false,
      "metar": "METAR LIRN 171920Z 07006KT 030V110 9999 BKN060 12/04 Q1012 NOSIG",
      "taf": "TAF LIRN 171700Z 1718/1818 03008KT 9999 BKN040"
    },
    {
      "icao": "LIRP",
      "alert": "OK",
      "vis_m": 9999,
      "fzfg": false,
      "metar_trigger": false,
      "taf_trigger": false,
      "metar": "METAR LIRP 171915Z 10013KT 9999 FEW050 SCT070 14/M02 Q1014 NOSIG",
      "taf": "TAF LIRP 171700Z 1718/1818 09014KT 9999 SCT030 SCT060"
    },
    {
      "icao": "LIRZ",
      "alert": "OK",
      "vis_m": 9999,
      "fzfg": false,
      "metar_trigger": false,
      "taf_trigger": false,
      "metar": "METAR LIRZ 171920Z AUTO 01009KT 9999 NCD 08/01 Q1016",
      "taf": "TAF LIRZ 171700Z 1718/1818 03014KT CAVOK"
    },
    {
      "icao": "LJLJ",
      "alert": "OK",
      "vis_m": 9999,
      "fzfg": false,
      "metar_trigger": false,
      "taf_trigger": false,
      "metar": "METAR LJLJ 171930Z VRB02KT 9999 FEW075 02/M01 Q1019 NOSIG",
      "taf": "TAF LJLJ 171700Z 1718/1818 12006KT 9999 FEW050"
    },
    {
      "icao": "LKMT",
      "alert": "OK",
      "vis_m": 9000,
      "fzfg": false,
      "metar_trigger": false,
      "taf_trigger": false,
      "metar": "METAR LKMT 171930Z 02010KT 9000 -RA BKN022 06/04 Q1024 NOSIG",
      "taf": "TAF LKMT 171700Z 1718/1818 04008KT 9999 SCT018 BKN035"
    },
    {
      "icao": "LKPR",
      "alert": "OK",
      "vis_m": 9999,
      "fzfg": false,
      "metar_trigger": false,
      "taf_trigger": false,
      "metar": "METAR LKPR 171930Z 10005KT CAVOK 04/M03 Q1024 NOSIG",
      "taf": "TAF LKPR 171700Z 1718/1824 03005KT CAVOK"
    },
    {
      "icao": "LLBG",
      "alert": "OK",
      "vis_m": 9999,
      "fzfg": false,
      "metar_trigger": false,
      "taf_trigger": false,
      "metar": "METAR LLBG 171920Z VRB03KT CAVOK 15/10 Q1010 NOSIG",
      "taf": "TAF LLBG 171703Z 1718/1818 VRB04KT CAVOK TX29/1812Z TN09/1803Z"
    },
    {
      "icao": "LMML",
      "alert": "OK",
      "vis_m": 9999,
      "fzfg": false,
      "metar_trigger": false,
      "taf_trigger": false,
      "metar": "METAR LMML 171915Z 36015KT 330V030 9999 FEW012 FEW015TCU BKN030 14/12 Q1007 TEMPO 8000 SHRA BKN015TCU",
      "taf": "TAF LMML 171700Z 1718/1818 03015KT 9999 FEW020"
    },
    {
      "icao": "LOWW",
      "alert": "OK",
      "vis_m": 9999,
      "fzfg": false,
      "metar_trigger": false,
      "taf_trigger": false,
      "metar": "METAR LOWW 171920Z 34009KT 9999 FEW038 BKN040 05/02 Q1022 NOSIG",
      "taf": "TAF LOWW 171715Z 1718/1824 34012KT 9999 BKN040 TX16/1815Z TN04/1723Z"
    },
    {
      "icao": "LPFR",
      "alert": "OK",
      "vis_m": 9999,
      "fzfg": false,
      "metar_trigger": false,
      "taf_trigger": false,
      "metar": "METAR LPFR 171930Z 18003KT 150V230 9999 -SHRA FEW015 BKN025 16/14 Q1009",
      "taf": "TAF LPFR 171700Z 1718/1818 16010KT 9999 SCT015 BKN025"
    },
    {
      "icao": "LPMA",
      "alert": "OK",
      "vis_m": 9999,
      "fzfg": false,
      "metar_trigger": false,
      "taf_trigger": false,
      "metar": "METAR LPMA 171930Z 32003KT 270V360 9999 SCT014 FEW018TCU 16/12 Q1005",
      "taf": "TAF LPMA 171700Z 1718/1818 VRB05KT 9999 SCT015"
    },
    {
      "icao": "LPPR",
      "alert": "OK",
      "vis_m": 9999,
      "fzfg": false,
      "metar_trigger": false,
      "taf_trigger": false,
      "metar": "METAR LPPR 171930Z 04004KT 340V110 CAVOK 15/08 Q1006",
      "taf": "TAF LPPR 171700Z 1718/1818 VRB02KT 9999 SCT030"
    },
    {
      "icao": "LPPS",
      "alert": "OK",
      "vis_m": 9999,
      "fzfg": false,
      "metar_trigger": false,
      "taf_trigger": false,
      "metar": "METAR LPPS 171930Z 27008KT 9999 SCT012 16/12 Q1005",
      "taf": "TAF LPPS 171700Z 1718/1824 27010KT 9999 SCT015"
    },
    {
      "icao": "LPPT",
      "alert": "OK",
      "vis_m": 9999,
      "fzfg": false,
      "metar_trigger": false,
      "taf_trigger": false,
      "metar": "METAR LPPT 171930Z 20019KT 9999 -SHRA SCT008 BKN012 FEW020CB 14/13 Q1008",
      "taf": "TAF LPPT 171700Z 1718/1824 22018KT 9999 SCT015 BKN025"
    },
    {
      "icao": "LQBK",
      "alert": "OK",
      "vis_m": 6000,
      "fzfg": false,
      "metar_trigger": false,
      "taf_trigger": false,
      "metar": "METAR LQBK 171930Z 29003KT 6000 -RA SCT009 BKN015 OVC025 05/03 Q1018 NOSIG",
      "taf": "TAF LQBK 171700Z 1718/1818 30005KT 9999 BKN020 OVC030 TX12/1814Z TN03/1806Z"
    },
    {
      "icao": "LQSA",
      "alert": "OK",
      "vis_m": 6000,
      "fzfg": false,
      "metar_trigger": false,
      "taf_trigger": false,
      "metar": "METAR LQSA 171930Z 30006KT 6000 SNRA BKN015 OVC025 01/01 Q1015 NOSIG",
      "taf": "TAF LQSA 171700Z 1718/1818 28007KT 9999 SCT025 BKN040 TX09/1814Z TN01/1804Z"
    },
    {
      "icao": "LQTZ",
      "alert": "OK",
      "vis_m": 6000,
      "fzfg": false,
      "metar_trigger": false,
      "taf_trigger": false,
      "metar": "METAR LQTZ 171930Z 25003KT 200V270 6000 -RA BKN010 OVC016 04/04 Q1017",
      "taf": "TAF LQTZ 171700Z 1718/1818 02006KT 9999 SCT015 BKN030 TX12/1813Z TN01/1806Z"
    },
    {
      "icao": "LRBC",
      "alert": "OK",
      "vis_m": 9999,
      "fzfg": false,
      "metar_trigger": false,
      "taf_trigger": false,
      "metar": "METAR LRBC 171930Z 29004KT CAVOK 05/M01 Q1021",
      "taf": "TAF LRBC 171700Z 1718/1803 VRB04KT CAVOK"
    },
    {
      "icao": "LRBS",
      "alert": "OK",
      "vis_m": 9999,
      "fzfg": false,
      "metar_trigger": false,
      "taf_trigger": false,
      "metar": "METAR LRBS 171930Z 09006KT CAVOK 08/00 Q1020 NOSIG",
      "taf": "TAF LRBS 171700Z 1718/1818 09008KT CAVOK"
    },
    {
      "icao": "LRBV",
      "alert": "OK",
      "vis_m": 9999,
      "fzfg": false,
      "metar_trigger": false,
      "taf_trigger": false,
      "metar": "METAR LRBV 171930Z 10003KT 030V150 CAVOK 06/M02 Q1019",
      "taf": "TAF LRBV 171700Z 1718/1803 10008KT 9999 BKN050"
    },
    {
      "icao": "LRCL",
      "alert": "OK",
      "vis_m": 9999,
      "fzfg": false,
      "metar_trigger": false,
      "taf_trigger": false,
      "metar": "METAR LRCL 171930Z VRB02KT CAVOK 04/M04 Q1018",
      "taf": "TAF LRCL 171700Z 1718/1803 VRB04KT CAVOK"
    },
    {
      "icao": "LRCV",
      "alert": "OK",
      "vis_m": 9999,
      "fzfg": false,
      "metar_trigger": false,
      "taf_trigger": false,
      "metar": "METAR LRCV 171930Z 07008KT CAVOK 06/02 Q1018",
      "taf": "TAF LRCV 171700Z 1718/1803 08010KT CAVOK"
    },
    {
      "icao": "LRIA",
      "alert": "OK",
      "vis_m": 9999,
      "fzfg": false,
      "metar_trigger": false,
      "taf_trigger": false,
      "metar": "METAR LRIA 171930Z 06005KT CAVOK 08/M03 Q1022",
      "taf": "TAF LRIA 171700Z 1718/1803 VRB04KT CAVOK"
    },
    {
      "icao": "LROP",
      "alert": "OK",
      "vis_m": 9999,
      "fzfg": false,
      "metar_trigger": false,
      "taf_trigger": false,
      "metar": "METAR LROP 171930Z 08007KT CAVOK 05/M02 Q1020 NOSIG",
      "taf": "TAF LROP 171700Z 1718/1818 09008KT CAVOK"
    },
    {
      "icao": "LRSB",
      "alert": "OK",
      "vis_m": 9999,
      "fzfg": false,
      "metar_trigger": false,
      "taf_trigger": false,
      "metar": "METAR LRSB 171930Z 15006KT 9999 FEW088 10/M02 Q1017",
      "taf": "TAF LRSB 171700Z 1718/1818 14006KT 9999 BKN050"
    },
    {
      "icao": "LRSM",
      "alert": "OK",
      "vis_m": 9999,
      "fzfg": false,
      "metar_trigger": false,
      "taf_trigger": false,
      "metar": "METAR LRSM 171930Z AUTO 06006KT 9999 SCT085/// OVC100/// 09/03 Q1018",
      "taf": "TAF LRSM 171400Z 1715/1724 04008KT CAVOK"
    },
    {
      "icao": "LRSV",
      "alert": "OK",
      "vis_m": 9999,
      "fzfg": false,
      "metar_trigger": false,
      "taf_trigger": false,
      "metar": "METAR LRSV 171930Z 09006KT CAVOK 07/M02 Q1021",
      "taf": "TAF LRSV 171700Z 1718/1803 09007KT CAVOK"
    },
    {
      "icao": "LRTM",
      "alert": "OK",
      "vis_m": 9999,
      "fzfg": false,
      "metar_trigger": false,
      "taf_trigger": false,
      "metar": "METAR LRTM 171930Z AUTO 07006KT 9999 NCD 07/M02 Q1019",
      "taf": "TAF LRTM 171400Z 1715/1724 VRB04KT CAVOK"
    },
    {
      "icao": "LRTR",
      "alert": "OK",
      "vis_m": 9999,
      "fzfg": false,
      "metar_trigger": false,
      "taf_trigger": false,
      "metar": "METAR LRTR 171930Z 03008KT CAVOK 09/03 Q1016",
      "taf": "TAF LRTR 171700Z 1718/1818 02006KT CAVOK"
    },
    {
      "icao": "LTAC",
      "alert": "OK",
      "vis_m": 9999,
      "fzfg": false,
      "metar_trigger": false,
      "taf_trigger": false,
      "metar": "METAR LTAC 171920Z 02004KT 330V030 9999 FEW040 SCT100 07/01 Q1013 NOSIG RMK RWY21C 02004KT RWY03L VRB02KT RWY21R 36004KT RWY03R VRB03KT RWY21L 03004KT",
      "taf": "TAF LTAC 171640Z 1718/1818 VRB02KT 9999 SCT040 SCT100"
    },
    {
      "icao": "LTFM",
      "alert": "OK",
      "vis_m": 9999,
      "fzfg": false,
      "metar_trigger": false,
      "taf_trigger": false,
      "metar": "METAR LTFM 171920Z 05013KT 9999 FEW015 SCT022 07/05 Q1017 NOSIG RMK RWY17L 06011KT RWY34L 05009KT 010V070 RWY16R 06012KT RWY36 05012KT RWY18 06012KT",
      "taf": "TAF LTFM 171640Z 1718/1824 05015KT 9999 FEW012 SCT022 BKN180"
    },
    {
      "icao": "LUKK",
      "alert": "OK",
      "vis_m": 9999,
      "fzfg": false,
      "metar_trigger": false,
      "taf_trigger": false,
      "metar": "METAR LUKK 171930Z 08004KT CAVOK 07/M02 Q1022 NOSIG",
      "taf": "TAF LUKK 171725Z 1718/1818 VRB05KT CAVOK"
    },
    {
      "icao": "LWOH",
      "alert": "OK",
      "vis_m": 9999,
      "fzfg": false,
      "metar_trigger": false,
      "taf_trigger": false,
      "metar": "METAR LWOH 171920Z VRB02KT 9999 SCT040 OVC090 09/03 Q1011",
      "taf": "TAF LWOH 171720Z 1718/1818 15012KT 9999 SCT040 BKN090"
    },
    {
      "icao": "LWSK",
      "alert": "OK",
      "vis_m": 9999,
      "fzfg": false,
      "metar_trigger": false,
      "taf_trigger": false,
      "metar": "METAR LWSK 171920Z VRB02KT 9999 BKN085 11/05 Q1013 NOSIG",
      "taf": "TAF LWSK 171720Z 1718/1818 14010KT 9999 SCT040 BKN080"
    },
    {
      "icao": "LYBE",
      "alert": "OK",
      "vis_m": 9999,
      "fzfg": false,
      "metar_trigger": false,
      "taf_trigger": false,
      "metar": "METAR LYBE 171930Z 09012KT 070V130 9999 BKN045 11/00 Q1016 NOSIG",
      "taf": "TAF LYBE 171700Z 1718/1818 05008KT CAVOK TX14/1813Z TN07/1802Z"
    },
    {
      "icao": "LYNI",
      "alert": "OK",
      "vis_m": 9999,
      "fzfg": false,
      "metar_trigger": false,
      "taf_trigger": false,
      "metar": "METAR LYNI 171930Z VRB02KT 9999 FEW050 BKN080 12/M02 Q1014 NOSIG",
      "taf": "TAF LYNI 171700Z 1718/1818 06010KT 9999 SCT050 BKN080 TX14/1814Z TN08/1805Z"
    },
    {
      "icao": "LYPG",
      "alert": "OK",
      "vis_m": 9999,
      "fzfg": false,
      "metar_trigger": false,
      "taf_trigger": false,
      "metar": "METAR LYPG 171930Z 33012KT 9999 -RA FEW030 SCT040 OVC070 08/06 Q1011 NOSIG",
      "taf": "TAF LYPG 171700Z 1718/1818 36010KT 9999 BKN040 OVC070 TX15/1812Z TN07/1804Z"
    },
    {
      "icao": "LZIB",
      "alert": "OK",
      "vis_m": 9999,
      "fzfg": false,
      "metar_trigger": false,
      "taf_trigger": false,
      "metar": "METAR LZIB 171930Z 35008KT 9999 -RA SCT045 07/03 Q1021 NOSIG",
      "taf": "TAF LZIB 171715Z 1718/1818 01011KT 9999 SCT040"
    },
    {
      "icao": "LZKZ",
      "alert": "OK",
      "vis_m": 9999,
      "fzfg": false,
      "metar_trigger": false,
      "taf_trigger": false,
      "metar": "METAR LZKZ 171930Z 36015KT CAVOK 08/03 Q1021 NOSIG",
      "taf": "TAF LZKZ 171715Z 1718/1818 01015KT CAVOK"
    },
    {
      "icao": "LZTT",
      "alert": "OK",
      "vis_m": 9999,
      "fzfg": false,
      "metar_trigger": false,
      "taf_trigger": false,
      "metar": "METAR LZTT 171930Z 04011KT 9999 BKN014 OVC020 04/01 Q1022",
      "taf": "TAF LZTT 171715Z 1718/1818 07011KT 9999 SCT013 BKN035"
    },
    {
      "icao": "OEJN",
      "alert": "OK",
      "vis_m": 9999,
      "fzfg": false,
      "metar_trigger": false,
      "taf_trigger": false,
      "metar": "METAR OEJN 171900Z 36005KT 9999 FEW040 27/15 Q1008 NOSIG",
      "taf": "TAF OEJN 171700Z 1718/1824 36005KT 7000 SCT040"
    },
    {
      "icao": "OEMA",
      "alert": "OK",
      "vis_m": 9999,
      "fzfg": false,
      "metar_trigger": false,
      "taf_trigger": false,
      "metar": "METAR OEMA 171900Z 26008KT CAVOK 28/08 Q1012 NOSIG",
      "taf": "TAF OEMA 171700Z 1718/1824 VRB03KT 9999 SCT045"
    },
    {
      "icao": "OJAI",
      "alert": "OK",
      "vis_m": 5000,
      "fzfg": false,
      "metar_trigger": false,
      "taf_trigger": false,
      "metar": "METAR OJAI 171900Z 08005KT 5000 HZ NSC 14/02 Q1013 NOSIG",
      "taf": "TAF OJAI 171638Z 1718/1824 13010KT 5000 HZ NSC"
    },
    {
      "icao": "OMAA",
      "alert": "OK",
      "vis_m": null,
      "fzfg": false,
      "metar_trigger": false,
      "taf_trigger": false,
      "metar": "",
      "taf": ""
    },
    {
      "icao": "OMDB",
      "alert": "OK",
      "vis_m": null,
      "fzfg": false,
      "metar_trigger": false,
      "taf_trigger": false,
      "metar": "",
      "taf": ""
    },
    {
      "icao": "UAAA",
      "alert": "OK",
      "vis_m": 9999,
      "fzfg": false,
      "metar_trigger": false,
      "taf_trigger": false,
      "metar": "METAR UAAA 171930Z 21002MPS 9999 BKN100 01/M03 Q1015 NOSIG",
      "taf": "TAF UAAA 171705Z 1718/1818 23002MPS 9999 SCT050 TX11/1809Z TNM01/1801Z"
    },
    {
      "icao": "UBBB",
      "alert": "OK",
      "vis_m": 9999,
      "fzfg": false,
      "metar_trigger": false,
      "taf_trigger": false,
      "metar": "METAR UBBB 171930Z 31014KT CAVOK 09/05 Q1017 NOSIG",
      "taf": "TAF UBBB 171659Z 1718/1818 30010KT 9999 BKN030 TX14/1810Z TN05/1801Z"
    },
    {
      "icao": "UDSG",
      "alert": "OK",
      "vis_m": 9999,
      "fzfg": false,
      "metar_trigger": false,
      "taf_trigger": false,
      "metar": "METAR UDSG 171930Z 19001KT 9999 NSC 01/M00 Q1017 NOSIG",
      "taf": "TAF UDSG 171700Z 1718/1818 VRB06KT 9999 FEW050"
    },
    {
      "icao": "UDYZ",
      "alert": "OK",
      "vis_m": 9999,
      "fzfg": false,
      "metar_trigger": false,
      "taf_trigger": false,
      "metar": "METAR UDYZ 171930Z 09003KT 060V130 9999 FEW046 07/02 Q1015 NOSIG",
      "taf": "TAF UDYZ 171700Z 1718/1818 04006KT 9999 FEW040"
    },
    {
      "icao": "UGKO",
      "alert": "OK",
      "vis_m": 9999,
      "fzfg": false,
      "metar_trigger": false,
      "taf_trigger": false,
      "metar": "METAR UGKO 171930Z 08005KT CAVOK 06/05 Q1019 NOSIG",
      "taf": "TAF UGKO 171700Z 1718/1818 VRB02KT CAVOK TX19/1812Z TN03/1803Z"
    }
  ]
}