{
  "ts_utc": "2026-03-26T08:35:52Z",
  "threshold_m": 150,
  "source": "stations_override.txt (ICAO list) + aviationweather.gov (METAR/TAF raw)",
  "station_count": 159,
  "stations": [
    {
      "icao": "BIKF",
      "alert": "OK",
      "vis_m": 400,
      "fzfg": false,
      "metar_trigger": false,
      "taf_trigger": false,
      "metar": "METAR BIKF 260830Z 09036KT 0400 R10///// + BLSN OVC400 M01/M01 Q0987",
      "taf": "TAF BIKF 260756Z 2609/2709 12044G57KT 0500 SN BLSN OVC005 TX05/2614Z TN00/2609Z"
    },
    {
      "icao": "BKPR",
      "alert": "OK",
      "vis_m": 9999,
      "fzfg": false,
      "metar_trigger": false,
      "taf_trigger": false,
      "metar": "METAR BKPR 260830Z 15010KT CAVOK 12/01 Q1001 NOSIG",
      "taf": "TAF BKPR 260530Z 2606/2706 23009KT 9999 SCT080"
    },
    {
      "icao": "EBCI",
      "alert": "OK",
      "vis_m": 9999,
      "fzfg": false,
      "metar_trigger": false,
      "taf_trigger": false,
      "metar": "METAR EBCI 260820Z 28006KT 230V310 9999 SCT007 BKN049 04/02 Q1018 TEMPO 4000 SHRASN BKN014CB",
      "taf": "TAF EBCI 260512Z 2606/2712 31014KT 9999 SCT025"
    },
    {
      "icao": "EDDB",
      "alert": "OK",
      "vis_m": 9999,
      "fzfg": false,
      "metar_trigger": false,
      "taf_trigger": false,
      "metar": "METAR EDDB 260820Z AUTO 28014KT 9999 BKN019 OVC025 05/01 Q1008 NOSIG",
      "taf": ""
    },
    {
      "icao": "EDDH",
      "alert": "OK",
      "vis_m": 9999,
      "fzfg": false,
      "metar_trigger": false,
      "taf_trigger": false,
      "metar": "METAR EDDH 260820Z AUTO 27009KT 240V300 9999 SCT013 BKN033 BKN047 03/01 Q1008 RESHRA TEMPO 30015G25KT SHRA BKN012CB",
      "taf": "TAF EDDH 260500Z 2606/2712 27010KT 9999 SCT030"
    },
    {
      "icao": "EDDK",
      "alert": "OK",
      "vis_m": 9999,
      "fzfg": false,
      "metar_trigger": false,
      "taf_trigger": false,
      "metar": "METAR EDDK 260820Z AUTO 29012KT 9999 BKN020 BKN028 BKN037 05/01 Q1015 NOSIG",
      "taf": "TAF EDDK 260500Z 2606/2712 30008KT 9999 BKN025"
    },
    {
      "icao": "EDDN",
      "alert": "OK",
      "vis_m": 9999,
      "fzfg": false,
      "metar_trigger": false,
      "taf_trigger": false,
      "metar": "METAR EDDN 260820Z AUTO 32010KT 290V350 9999 BKN017 BKN027 OVC041 04/01 Q1011 NOSIG",
      "taf": "TAF EDDN 260500Z 2606/2706 31009KT 9999 BKN008"
    },
    {
      "icao": "EDDS",
      "alert": "OK",
      "vis_m": 9999,
      "fzfg": false,
      "metar_trigger": false,
      "taf_trigger": false,
      "metar": "METAR EDDS 260820Z AUTO 31011KT 9999 SCT019 BKN026 BKN034 04/M00 Q1012 NOSIG",
      "taf": "TAF EDDS 260500Z 2606/2706 30010KT 9999 BKN025"
    },
    {
      "icao": "EDFH",
      "alert": "OK",
      "vis_m": 9999,
      "fzfg": false,
      "metar_trigger": false,
      "taf_trigger": false,
      "metar": "METAR EDFH 260820Z 34009KT 300V010 9999 SCT016 BKN023 BKN038 02/M01 Q1013",
      "taf": "TAF EDFH 260500Z 2606/2706 30010KT 9999 SCT006 BKN010"
    },
    {
      "icao": "EDJA",
      "alert": "OK",
      "vis_m": 9999,
      "fzfg": false,
      "metar_trigger": false,
      "taf_trigger": false,
      "metar": "METAR EDJA 260820Z 33011KT 280V350 9999 -SHSNRA BKN011 BKN032TCU BKN037 02/M00 Q1010",
      "taf": "TAF EDJA 260800Z 2609/2618 33010KT 9999 BKN007"
    },
    {
      "icao": "EDLW",
      "alert": "OK",
      "vis_m": 9999,
      "fzfg": false,
      "metar_trigger": false,
      "taf_trigger": false,
      "metar": "METAR EDLW 260820Z 27007KT 230V320 9999 FEW015 SCT033 04/00 Q1013",
      "taf": "TAF EDLW 260500Z 2606/2706 26008KT 9999 BKN025"
    },
    {
      "icao": "EDNY",
      "alert": "OK",
      "vis_m": 9999,
      "fzfg": false,
      "metar_trigger": false,
      "taf_trigger": false,
      "metar": "METAR EDNY 260820Z 31005KT 230V360 9999 BKN018 OVC026 04/M00 Q1011",
      "taf": "TAF EDNY 260800Z 2609/2618 30007KT 9999 BKN020"
    },
    {
      "icao": "EDSB",
      "alert": "OK",
      "vis_m": 9999,
      "fzfg": false,
      "metar_trigger": false,
      "taf_trigger": false,
      "metar": "METAR EDSB 260820Z 28004KT 200V350 9999 SCT018 05/01 Q1015",
      "taf": "TAF EDSB 260500Z 2606/2706 23005KT 9999 BKN020"
    },
    {
      "icao": "EETN",
      "alert": "OK",
      "vis_m": 9999,
      "fzfg": false,
      "metar_trigger": false,
      "taf_trigger": false,
      "metar": "METAR EETN 260820Z 20014KT 9999 SCT027 08/01 Q0998 NOSIG",
      "taf": "TAF EETN 260530Z 2606/2706 19011KT 9999 SCT025"
    },
    {
      "icao": "EFTU",
      "alert": "OK",
      "vis_m": 9999,
      "fzfg": false,
      "metar_trigger": false,
      "taf_trigger": false,
      "metar": "METAR EFTU 260820Z AUTO 20014KT 160V220 9999 OVC012 04/01 Q0994",
      "taf": "TAF EFTU 260531Z 2606/2706 20011KT 9999 FEW009"
    },
    {
      "icao": "EGBB",
      "alert": "OK",
      "vis_m": 9999,
      "fzfg": false,
      "metar_trigger": false,
      "taf_trigger": false,
      "metar": "METAR EGBB 260820Z 34009KT 9999 FEW016 05/01 Q1022",
      "taf": "TAF EGBB 260458Z 2606/2706 28008KT 9999 FEW025"
    },
    {
      "icao": "EGGP",
      "alert": "OK",
      "vis_m": 9999,
      "fzfg": false,
      "metar_trigger": false,
      "taf_trigger": false,
      "metar": "METAR EGGP 260820Z 30004KT 200V340 9999 FEW035 06/01 Q1023",
      "taf": "TAF EGGP 260455Z 2606/2706 33010KT 9999 FEW030"
    },
    {
      "icao": "EGGW",
      "alert": "OK",
      "vis_m": 9999,
      "fzfg": false,
      "metar_trigger": false,
      "taf_trigger": false,
      "metar": "METAR EGGW 260820Z AUTO 35008KT 300V030 9999 FEW045 04/M00 Q1021",
      "taf": "TAF EGGW 260458Z 2606/2706 31010KT 9999 SCT040"
    },
    {
      "icao": "EGKK",
      "alert": "OK",
      "vis_m": 9999,
      "fzfg": false,
      "metar_trigger": false,
      "taf_trigger": false,
      "metar": "METAR EGKK 260820Z 34011KT CAVOK 05/01 Q1022",
      "taf": "TAF EGKK 260456Z 2606/2712 28010KT 9999 FEW045"
    },
    {
      "icao": "EGNM",
      "alert": "OK",
      "vis_m": 9999,
      "fzfg": false,
      "metar_trigger": false,
      "taf_trigger": false,
      "metar": "METAR EGNM 260820Z 28006KT 250V310 CAVOK 02/M03 Q1021",
      "taf": "TAF EGNM 260456Z 2606/2706 29009KT 9999 FEW025"
    },
    {
      "icao": "EGPD",
      "alert": "OK",
      "vis_m": 9999,
      "fzfg": false,
      "metar_trigger": false,
      "taf_trigger": false,
      "metar": "METAR EGPD 260820Z COR AUTO 27009KT 9999 NCD 03/M02 Q1018 NOSIG",
      "taf": "TAF EGPD 260454Z 2606/2706 30012KT 9999 FEW030"
    },
    {
      "icao": "EGPF",
      "alert": "OK",
      "vis_m": 9999,
      "fzfg": false,
      "metar_trigger": false,
      "taf_trigger": false,
      "metar": "METAR EGPF 260820Z AUTO 24004KT 9999 NCD 02/M01 Q1021",
      "taf": "TAF EGPF 260457Z 2606/2706 22003KT 9999 FEW015 SCT035"
    },
    {
      "icao": "EHBK",
      "alert": "OK",
      "vis_m": 9999,
      "fzfg": false,
      "metar_trigger": false,
      "taf_trigger": false,
      "metar": "METAR EHBK 260825Z AUTO 26008KT 220V320 9999 FEW032/// SCT041/// 04/01 Q1016 NOSIG",
      "taf": "TAF EHBK 260503Z 2606/2712 26006KT 9999 BKN030"
    },
    {
      "icao": "EHEH",
      "alert": "OK",
      "vis_m": 9999,
      "fzfg": false,
      "metar_trigger": false,
      "taf_trigger": false,
      "metar": "METAR EHEH 260825Z AUTO 29007KT 240V340 9999 FEW033 05/01 Q1016 BLU TEMPO 30010G20KT 4000 SHRA SHRAGS FEW015 SCT025CB",
      "taf": "TAF EHEH 260552Z 2606/2712 28005KT 9999 FEW040"
    },
    {
      "icao": "EKBI",
      "alert": "OK",
      "vis_m": 9999,
      "fzfg": false,
      "metar_trigger": false,
      "taf_trigger": false,
      "metar": "METAR EKBI 260820Z AUTO 29020G30KT 9999 OVC030/// 04/M01 Q1004",
      "taf": "TAF EKBI 260827Z 2609/2709 28015KT 9999 BKN030"
    },
    {
      "icao": "EKCH",
      "alert": "OK",
      "vis_m": 9999,
      "fzfg": false,
      "metar_trigger": false,
      "taf_trigger": false,
      "metar": "METAR EKCH 260820Z AUTO 27018KT 9999 OVC027/// 05/M00 Q1001 TEMPO 27015G28KT",
      "taf": "TAF EKCH 260827Z 2609/2709 26015KT 9999 BKN025"
    },
    {
      "icao": "ENAL",
      "alert": "OK",
      "vis_m": 9999,
      "fzfg": false,
      "metar_trigger": false,
      "taf_trigger": false,
      "metar": "METAR ENAL 260820Z 31018KT 9999 -RA FEW007 SCT014 BKN035 04/01 Q0999",
      "taf": "TAF ENAL 260800Z 2609/2618 32020KT 9999 -SHRA FEW015 BKN035"
    },
    {
      "icao": "ENBR",
      "alert": "OK",
      "vis_m": 9999,
      "fzfg": false,
      "metar_trigger": false,
      "taf_trigger": false,
      "metar": "METAR ENBR 260820Z 33015KT 9999 VCSH SCT020TCU SCT043 03/M01 Q1002 TEMPO 33020G30KT 4000 SHRASNGS BKN008 SCT020CB RMK WIND 1200FT 34031G41KT",
      "taf": "TAF ENBR 260500Z 2606/2706 31015KT 9999 -SHRASN FEW008 BKN020TCU"
    },
    {
      "icao": "ENGM",
      "alert": "OK",
      "vis_m": 9999,
      "fzfg": false,
      "metar_trigger": false,
      "taf_trigger": false,
      "metar": "METAR ENGM 260820Z 32005KT 250V010 CAVOK 06/M05 Q0992 NOSIG",
      "taf": "TAF ENGM 260500Z 2606/2706 32008KT CAVOK"
    },
    {
      "icao": "ENHD",
      "alert": "OK",
      "vis_m": 9999,
      "fzfg": false,
      "metar_trigger": false,
      "taf_trigger": false,
      "metar": "METAR ENHD 260820Z 34021KT 9999 VCSH FEW010 FEW015CB SCT024 04/01 Q1003",
      "taf": "TAF ENHD 260800Z 2609/2618 31015KT 9999 -SHRA FEW015TCU BKN025"
    },
    {
      "icao": "ENTC",
      "alert": "OK",
      "vis_m": 9999,
      "fzfg": false,
      "metar_trigger": false,
      "taf_trigger": false,
      "metar": "METAR ENTC 260820Z 02007KT CAVOK 02/M03 Q0987 NOSIG RMK WIND 2600FT 36010KT",
      "taf": "TAF ENTC 260500Z 2606/2706 04008KT 9999 FEW040"
    },
    {
      "icao": "ENTO",
      "alert": "OK",
      "vis_m": 9999,
      "fzfg": false,
      "metar_trigger": false,
      "taf_trigger": false,
      "metar": "METAR ENTO 260820Z 32011KT CAVOK 07/M05 Q0993 NOSIG",
      "taf": "TAF ENTO 260500Z 2606/2706 32010KT CAVOK"
    },
    {
      "icao": "ENVA",
      "alert": "OK",
      "vis_m": 9999,
      "fzfg": false,
      "metar_trigger": false,
      "taf_trigger": false,
      "metar": "METAR ENVA 260820Z 26021KT 9999 -RASN BKN018 OVC022 05/03 Q0989 TEMPO 28024G34KT 4000 SHRA BKN006 SCT015CB RMK WIND 670FT 27021G32KT",
      "taf": "TAF ENVA 260500Z 2606/2706 09005KT 9999 -RA BKN015"
    },
    {
      "icao": "ENZV",
      "alert": "OK",
      "vis_m": 9999,
      "fzfg": false,
      "metar_trigger": false,
      "taf_trigger": false,
      "metar": "METAR ENZV 260820Z 32018KT 9999 VCSH SCT016 BKN019CB 03/01 Q1003 TEMPO 33022G32KT 2000 SHSNRAGS BKN006 SCT013CB",
      "taf": "TAF ENZV 260500Z 2606/2706 33020KT 9999 FEW006 BKN018"
    },
    {
      "icao": "EPGD",
      "alert": "OK",
      "vis_m": 9999,
      "fzfg": false,
      "metar_trigger": false,
      "taf_trigger": false,
      "metar": "METAR EPGD 260830Z 27012KT 9999 BKN020 05/00 Q1003",
      "taf": "TAF EPGD 260530Z 2606/2706 27010KT 9999 SCT020"
    },
    {
      "icao": "EPKK",
      "alert": "OK",
      "vis_m": 8000,
      "fzfg": false,
      "metar_trigger": false,
      "taf_trigger": false,
      "metar": "METAR EPKK 260830Z 01013KT 8000 -RA FEW011 BKN030 04/02 Q1002",
      "taf": "TAF EPKK 260830Z 2609/2709 02011KT 8000 -RA SCT011 BKN020"
    },
    {
      "icao": "EPKT",
      "alert": "OK",
      "vis_m": 7000,
      "fzfg": false,
      "metar_trigger": false,
      "taf_trigger": false,
      "metar": "METAR EPKT 260830Z 36010KT 7000 -RA FEW003 BKN007 03/03 Q1003",
      "taf": "TAF EPKT 260530Z 2606/2706 35008KT 6000 BKN014"
    },
    {
      "icao": "EPLB",
      "alert": "OK",
      "vis_m": 9999,
      "fzfg": false,
      "metar_trigger": false,
      "taf_trigger": false,
      "metar": "METAR EPLB 260830Z 33009KT 9999 -RA FEW045 09/07 Q1001",
      "taf": "TAF EPLB 260530Z 2606/2706 VRB03KT 9999 -RA SCT020 BKN040"
    },
    {
      "icao": "EPMO",
      "alert": "OK",
      "vis_m": 9999,
      "fzfg": false,
      "metar_trigger": false,
      "taf_trigger": false,
      "metar": "METAR EPMO 260830Z 34009KT 300V020 CAVOK 08/03 Q1004",
      "taf": "TAF EPMO 260530Z 2606/2706 35007KT 9999 SCT030"
    },
    {
      "icao": "EPPO",
      "alert": "OK",
      "vis_m": 9999,
      "fzfg": false,
      "metar_trigger": false,
      "taf_trigger": false,
      "metar": "METAR EPPO 260830Z 31011KT 9999 SCT017 05/01 Q1006",
      "taf": "TAF EPPO 260530Z 2606/2706 32008KT CAVOK"
    },
    {
      "icao": "EPRA",
      "alert": "OK",
      "vis_m": 8000,
      "fzfg": false,
      "metar_trigger": false,
      "taf_trigger": false,
      "metar": "METAR EPRA 260830Z 36009KT 330V030 8000 -RA OVC007 05/04 Q1003",
      "taf": "TAF EPRA 260830Z 2609/2618 35010KT 8000 -RA BKN007 OVC011"
    },
    {
      "icao": "EPRZ",
      "alert": "OK",
      "vis_m": 9999,
      "fzfg": false,
      "metar_trigger": false,
      "taf_trigger": false,
      "metar": "METAR EPRZ 260830Z VRB02KT 9999 -RA BKN034 09/05 Q1001",
      "taf": "TAF EPRZ 260530Z 2606/2706 15007KT CAVOK"
    },
    {
      "icao": "EPSC",
      "alert": "OK",
      "vis_m": 9999,
      "fzfg": false,
      "metar_trigger": false,
      "taf_trigger": false,
      "metar": "METAR EPSC 260830Z 26010KT 9999 BKN020 05/00 Q1005",
      "taf": "TAF EPSC 260530Z 2606/2706 26008KT 9999 SCT025"
    },
    {
      "icao": "EPSY",
      "alert": "OK",
      "vis_m": 9999,
      "fzfg": false,
      "metar_trigger": false,
      "taf_trigger": false,
      "metar": "METAR EPSY 260830Z 32007KT 290V010 CAVOK 06/02 Q1004",
      "taf": "TAF EPSY 260830Z 2609/2618 34006KT CAVOK"
    },
    {
      "icao": "EPWA",
      "alert": "OK",
      "vis_m": 9999,
      "fzfg": false,
      "metar_trigger": false,
      "taf_trigger": false,
      "metar": "METAR EPWA 260830Z 34010KT 9999 FEW019 07/03 Q1004 NOSIG",
      "taf": "TAF EPWA 260830Z 2609/2709 33010KT 9999 SCT020"
    },
    {
      "icao": "EPWR",
      "alert": "OK",
      "vis_m": 9999,
      "fzfg": false,
      "metar_trigger": false,
      "taf_trigger": false,
      "metar": "METAR EPWR 260830Z 32012KT 9999 FEW019 06/01 Q1007",
      "taf": "TAF EPWR 260830Z 2609/2709 32012KT 9999 SCT017"
    },
    {
      "icao": "ESGG",
      "alert": "OK",
      "vis_m": 9999,
      "fzfg": false,
      "metar_trigger": false,
      "taf_trigger": false,
      "metar": "METAR ESGG 260820Z 25008KT 230V290 CAVOK 06/01 Q0994",
      "taf": "TAF ESGG 260830Z 2609/2709 26010KT CAVOK"
    },
    {
      "icao": "ESKN",
      "alert": "OK",
      "vis_m": 9999,
      "fzfg": false,
      "metar_trigger": false,
      "taf_trigger": false,
      "metar": "METAR ESKN 260820Z 24012KT 9999 BKN011 04/02 Q0991",
      "taf": "TAF ESKN 260830Z 2609/2709 24010KT 9999 SCT008 BKN015"
    },
    {
      "icao": "ESMS",
      "alert": "OK",
      "vis_m": 9999,
      "fzfg": false,
      "metar_trigger": false,
      "taf_trigger": false,
      "metar": "METAR ESMS 260820Z 27015KT 9999 SCT015 BKN035 04/02 Q1000",
      "taf": "TAF ESMS 260827Z 2609/2709 26015KT 9999 BKN030"
    },
    {
      "icao": "ESSA",
      "alert": "OK",
      "vis_m": 9999,
      "fzfg": false,
      "metar_trigger": false,
      "taf_trigger": false,
      "metar": "METAR ESSA 260820Z 23007KT 9999 BKN010 03/02 Q0990 NOSIG",
      "taf": "TAF ESSA 260830Z 2609/2709 29009KT 9999 BKN020"
    },
    {
      "icao": "EYKA",
      "alert": "OK",
      "vis_m": 9999,
      "fzfg": false,
      "metar_trigger": false,
      "taf_trigger": false,
      "metar": "METAR EYKA 260820Z 31002KT 9999 -RA BKN029 OVC033 05/04 Q1004",
      "taf": "TAF EYKA 260505Z 2606/2706 VRB05KT 8000 SCT010 OVC020"
    },
    {
      "icao": "EYPA",
      "alert": "OK",
      "vis_m": 9999,
      "fzfg": false,
      "metar_trigger": false,
      "taf_trigger": false,
      "metar": "METAR EYPA 260820Z 22007KT 170V280 9999 OVC017 05/01 Q1002",
      "taf": "TAF EYPA 260505Z 2606/2706 21010KT 9000 NSC"
    },
    {
      "icao": "EYVI",
      "alert": "OK",
      "vis_m": 9999,
      "fzfg": false,
      "metar_trigger": false,
      "taf_trigger": false,
      "metar": "METAR EYVI 260820Z VRB02KT CAVOK 08/M00 Q1002 NOSIG",
      "taf": "TAF EYVI 260515Z 2606/2706 VRB03KT 9000 NSC"
    },
    {
      "icao": "GCFV",
      "alert": "OK",
      "vis_m": 9999,
      "fzfg": false,
      "metar_trigger": false,
      "taf_trigger": false,
      "metar": "METAR GCFV 260830Z 34013KT 9999 FEW022 19/13 Q1013",
      "taf": "TAF GCFV 260800Z 2609/2709 36015KT 9999 FEW020 TX23/2614Z TN16/2706Z"
    },
    {
      "icao": "GCLP",
      "alert": "OK",
      "vis_m": 9999,
      "fzfg": false,
      "metar_trigger": false,
      "taf_trigger": false,
      "metar": "METAR GCLP 260830Z 36020KT 9999 FEW025 19/14 Q1014 NOSIG",
      "taf": "TAF GCLP 260800Z 2609/2709 35022KT 9999 FEW025 TX22/2614Z TN15/2706Z"
    },
    {
      "icao": "GCTS",
      "alert": "OK",
      "vis_m": 9999,
      "fzfg": false,
      "metar_trigger": false,
      "taf_trigger": false,
      "metar": "METAR GCTS 260830Z 33004KT 9999 FEW025 19/13 Q1014 NOSIG",
      "taf": "TAF GCTS 260800Z 2609/2709 VRB07KT 9999 FEW025 TX23/2614Z TN13/2706Z"
    },
    {
      "icao": "GMAD",
      "alert": "OK",
      "vis_m": 6000,
      "fzfg": false,
      "metar_trigger": false,
      "taf_trigger": false,
      "metar": "METAR GMAD 260830Z COR 18008KT 6000 BKN004 17/17 Q1010 NOSIG",
      "taf": "TAF GMAD 260500Z 2606/2712 06006KT 8000 SCT020"
    },
    {
      "icao": "GMMN",
      "alert": "OK",
      "vis_m": 6000,
      "fzfg": false,
      "metar_trigger": false,
      "taf_trigger": false,
      "metar": "METAR GMMN 260830Z VRB02KT 6000 SCT010 16/15 Q1011 NOSIG",
      "taf": "TAF GMMN 260500Z 2606/2712 VRB02KT 0600 FG BKN003"
    },
    {
      "icao": "GMMX",
      "alert": "OK",
      "vis_m": 9999,
      "fzfg": false,
      "metar_trigger": false,
      "taf_trigger": false,
      "metar": "METAR GMMX 260830Z 08007KT 9999 FEW023 SCT080 16/13 Q1012 NOSIG",
      "taf": "TAF GMMX 260500Z 2606/2712 14006KT 8000 SCT023 SCT080"
    },
    {
      "icao": "HEGN",
      "alert": "OK",
      "vis_m": 9999,
      "fzfg": false,
      "metar_trigger": false,
      "taf_trigger": false,
      "metar": "METAR HEGN 260800Z 29018KT 9999 SCT020 19/03 Q1007 NOSIG",
      "taf": "TAF HEGN 260511Z 2606/2712 28018G28KT 6000 SCT025"
    },
    {
      "icao": "HEMA",
      "alert": "OK",
      "vis_m": 9999,
      "fzfg": false,
      "metar_trigger": false,
      "taf_trigger": false,
      "metar": "METAR HEMA 260800Z 29014KT 9999 FEW020 20/03 Q1008 NOSIG",
      "taf": "TAF HEMA 260550Z 2606/2712 30018G28KT 6000 SCT025"
    },
    {
      "icao": "HESH",
      "alert": "OK",
      "vis_m": 9999,
      "fzfg": false,
      "metar_trigger": false,
      "taf_trigger": false,
      "metar": "METAR HESH 260800Z 25013KT 9999 SCT020 20/05 Q1005 NOSIG",
      "taf": "TAF HESH 260511Z 2606/2712 32015G25KT 6000 SCT025"
    },
    {
      "icao": "HESX",
      "alert": "OK",
      "vis_m": 9999,
      "fzfg": false,
      "metar_trigger": false,
      "taf_trigger": false,
      "metar": "METAR HESX 260800Z 25013KT 9999 FEW020 SCT025 14/09 Q1006 NOSIG",
      "taf": "TAF HESX 252358Z 2600/2706 27018KT 9999 SCT020 SCT025"
    },
    {
      "icao": "LATI",
      "alert": "OK",
      "vis_m": 9999,
      "fzfg": false,
      "metar_trigger": false,
      "taf_trigger": false,
      "metar": "METAR LATI 260820Z 14011KT 9999 BKN074 15/03 Q1003 NOSIG",
      "taf": "TAF LATI 260500Z 2606/2706 16008KT 9999 BKN090 TX19/2613Z TN07/2704Z"
    },
    {
      "icao": "LBPD",
      "alert": "OK",
      "vis_m": 9999,
      "fzfg": false,
      "metar_trigger": false,
      "taf_trigger": false,
      "metar": "METAR LBPD 260830Z AUTO VRB04KT 9999 FEW210/// 10/04 Q1005 NOSIG",
      "taf": "TAF LBPD 260500Z 2606/2706 VRB03KT 9999 SCT070"
    },
    {
      "icao": "LBSF",
      "alert": "OK",
      "vis_m": 9999,
      "fzfg": false,
      "metar_trigger": false,
      "taf_trigger": false,
      "metar": "METAR LBSF 260830Z 09014KT CAVOK 12/01 Q1003 NOSIG",
      "taf": "TAF LBSF 260500Z 2606/2706 12014KT 9999 SCT070"
    },
    {
      "icao": "LBWN",
      "alert": "OK",
      "vis_m": 9999,
      "fzfg": false,
      "metar_trigger": false,
      "taf_trigger": false,
      "metar": "METAR LBWN 260830Z 10014KT CAVOK 10/04 Q1006 NOSIG",
      "taf": "TAF LBWN 260500Z 2606/2706 VRB03KT CAVOK"
    },
    {
      "icao": "LCLK",
      "alert": "OK",
      "vis_m": 9999,
      "fzfg": false,
      "metar_trigger": false,
      "taf_trigger": false,
      "metar": "METAR LCLK 260830Z 01008KT 340V040 9999 FEW025 FEW030CB SCT035 19/11 Q1001 NOSIG RMK CB TO SE",
      "taf": "TAF LCLK 260530Z 2606/2706 33007KT 9999 FEW040"
    },
    {
      "icao": "LCPH",
      "alert": "OK",
      "vis_m": 9999,
      "fzfg": false,
      "metar_trigger": false,
      "taf_trigger": false,
      "metar": "METAR LCPH 260830Z 34009KT 310V020 9999 FEW030TCU SCT040 20/12 Q1002 NOSIG",
      "taf": "TAF LCPH 260530Z 2606/2706 03007KT 9999 FEW040"
    },
    {
      "icao": "LEAL",
      "alert": "OK",
      "vis_m": 9999,
      "fzfg": false,
      "metar_trigger": false,
      "taf_trigger": false,
      "metar": "METAR LEAL 260830Z 07013KT CAVOK 16/09 Q1016 NOSIG",
      "taf": "TAF LEAL 260500Z 2606/2706 08010KT CAVOK TX16/2612Z TN09/2606Z"
    },
    {
      "icao": "LEBB",
      "alert": "OK",
      "vis_m": 9999,
      "fzfg": false,
      "metar_trigger": false,
      "taf_trigger": false,
      "metar": "METAR LEBB 260830Z 03008KT 330V070 9999 -RA SCT029 BKN065 11/06 Q1026 TEMPO RA",
      "taf": "TAF LEBB 260500Z 2606/2706 34009KT 9999 FEW020 BKN030 TX12/2614Z TN06/2703Z"
    },
    {
      "icao": "LEBL",
      "alert": "OK",
      "vis_m": 9999,
      "fzfg": false,
      "metar_trigger": false,
      "taf_trigger": false,
      "metar": "METAR LEBL 260830Z 36002KT CAVOK 12/02 Q1016 NOSIG",
      "taf": "TAF LEBL 260500Z 2606/2706 32008KT 9999 FEW025 TX15/2612Z TN10/2606Z"
    },
    {
      "icao": "LECH",
      "alert": "OK",
      "vis_m": 9999,
      "fzfg": false,
      "metar_trigger": false,
      "taf_trigger": false,
      "metar": "METAR LECH 260830Z AUTO 18002KT CAVOK 12/M03 Q1016",
      "taf": "TAF LECH 260500Z 2606/2706 32009KT CAVOK TX18/2613Z TN05/2606Z"
    },
    {
      "icao": "LEMD",
      "alert": "OK",
      "vis_m": 9999,
      "fzfg": false,
      "metar_trigger": false,
      "taf_trigger": false,
      "metar": "METAR LEMD 260830Z 05005KT 310V100 CAVOK 08/M01 Q1020 NOSIG",
      "taf": "TAF LEMD 260500Z 2606/2712 05010KT CAVOK TX18/2616Z TN03/2706Z"
    },
    {
      "icao": "LEMG",
      "alert": "OK",
      "vis_m": 9999,
      "fzfg": false,
      "metar_trigger": false,
      "taf_trigger": false,
      "metar": "METAR LEMG 260830Z 29007KT 260V320 CAVOK 13/07 Q1013 NOSIG",
      "taf": "TAF LEMG 260500Z 2606/2706 29007KT CAVOK TX20/2613Z TN08/2606Z"
    },
    {
      "icao": "LEVC",
      "alert": "OK",
      "vis_m": 9999,
      "fzfg": false,
      "metar_trigger": false,
      "taf_trigger": false,
      "metar": "METAR LEVC 260830Z 33012KT 9999 FEW035 14/M02 Q1017 NOSIG",
      "taf": "TAF LEVC 260500Z 2606/2706 VRB04KT CAVOK TX19/2613Z TN07/2606Z"
    },
    {
      "icao": "LEXJ",
      "alert": "OK",
      "vis_m": 9999,
      "fzfg": false,
      "metar_trigger": false,
      "taf_trigger": false,
      "metar": "METAR LEXJ 260830Z 02007KT 340V070 9999 SCT038 BKN056 11/04 Q1027",
      "taf": "TAF LEXJ 260800Z 2609/2709 35009KT 9999 FEW025 BKN040 TX13/2613Z TN07/2706Z"
    },
    {
      "icao": "LEZG",
      "alert": "OK",
      "vis_m": 9999,
      "fzfg": false,
      "metar_trigger": false,
      "taf_trigger": false,
      "metar": "METAR LEZG 260830Z 29034G45KT 9999 FEW050 09/01 Q1020 NOSIG",
      "taf": ""
    },
    {
      "icao": "LEZL",
      "alert": "OK",
      "vis_m": 9999,
      "fzfg": false,
      "metar_trigger": false,
      "taf_trigger": false,
      "metar": "METAR LEZL 260830Z 05011KT CAVOK 17/08 Q1014 NOSIG",
      "taf": "TAF LEZL 260800Z 2609/2709 07014KT CAVOK TX25/2615Z TN10/2707Z"
    },
    {
      "icao": "LFBD",
      "alert": "OK",
      "vis_m": 9999,
      "fzfg": false,
      "metar_trigger": false,
      "taf_trigger": false,
      "metar": "METAR LFBD 260830Z AUTO 01010KT 330V030 CAVOK 09/03 Q1025 NOSIG",
      "taf": "TAF LFBD 260500Z 2606/2712 30010KT 9999 SCT040 TX14/2614Z TN03/2706Z"
    },
    {
      "icao": "LFLL",
      "alert": "OK",
      "vis_m": 9999,
      "fzfg": false,
      "metar_trigger": false,
      "taf_trigger": false,
      "metar": "METAR LFLL 260800Z 34015KT 9999 FEW026 BKN063 05/M00 Q1017 NOSIG",
      "taf": "TAF LFLL 260500Z 2606/2712 33010KT 9999 BKN030"
    },
    {
      "icao": "LFLS",
      "alert": "OK",
      "vis_m": 9999,
      "fzfg": false,
      "metar_trigger": false,
      "taf_trigger": false,
      "metar": "METAR LFLS 260830Z AUTO 34015KT 9999 2100 -SNRA SCT018 BKN028 BKN039 03/M00 Q1016 TEMPO 34020G30KT 1200 SHSN BKN011 SCT018CB",
      "taf": "TAF LFLS 260200Z 2603/2703 31008KT 9999 BKN030"
    },
    {
      "icao": "LFMN",
      "alert": "OK",
      "vis_m": 9999,
      "fzfg": false,
      "metar_trigger": false,
      "taf_trigger": false,
      "metar": "METAR LFMN 260830Z 32019KT CAVOK 13/M12 Q1000 BECMG 33010KT",
      "taf": "TAF LFMN 260800Z 2609/2715 33015KT CAVOK"
    },
    {
      "icao": "LFOB",
      "alert": "OK",
      "vis_m": 9999,
      "fzfg": false,
      "metar_trigger": false,
      "taf_trigger": false,
      "metar": "METAR LFOB 260830Z AUTO 34012KT 9999 FEW019 07/03 Q1021 NOSIG",
      "taf": "TAF LFOB 260500Z 2606/2706 32013KT 9999 SCT030"
    },
    {
      "icao": "LFPO",
      "alert": "OK",
      "vis_m": 9999,
      "fzfg": false,
      "metar_trigger": false,
      "taf_trigger": false,
      "metar": "METAR LFPO 260830Z 34009KT 320V030 9999 FEW023 07/02 Q1021 NOSIG",
      "taf": "TAF LFPO 260500Z 2606/2712 29007KT CAVOK"
    },
    {
      "icao": "LFSB",
      "alert": "OK",
      "vis_m": 9999,
      "fzfg": false,
      "metar_trigger": false,
      "taf_trigger": false,
      "metar": "METAR LFSB 260830Z AUTO 29004KT 9999 -RA FEW024 SCT040 BKN047 04/01 Q1015 TEMPO FEW020TCU",
      "taf": "TAF LFSB 260500Z 2606/2706 27010KT 9999 BKN025"
    },
    {
      "icao": "LGAV",
      "alert": "OK",
      "vis_m": 9999,
      "fzfg": false,
      "metar_trigger": false,
      "taf_trigger": false,
      "metar": "METAR LGAV 260820Z VRB03KT CAVOK 17/01 Q1007 NOSIG",
      "taf": "TAF LGAV 260500Z 2606/2706 VRB05KT 9999 FEW020"
    },
    {
      "icao": "LGTS",
      "alert": "OK",
      "vis_m": 9999,
      "fzfg": false,
      "metar_trigger": false,
      "taf_trigger": false,
      "metar": "METAR LGTS 260820Z 15011KT 9999 FEW025 17/05 Q1005 NOSIG",
      "taf": "TAF LGTS 260500Z 2606/2706 12013KT 9999 FEW025"
    },
    {
      "icao": "LHBP",
      "alert": "OK",
      "vis_m": 9999,
      "fzfg": false,
      "metar_trigger": false,
      "taf_trigger": false,
      "metar": "METAR LHBP 260830Z 03006KT 340V080 9999 -SHRA NSC 09/02 Q0998 NOSIG",
      "taf": "TAF LHBP 260515Z 2606/2706 30005KT CAVOK"
    },
    {
      "icao": "LHDC",
      "alert": "OK",
      "vis_m": 9999,
      "fzfg": false,
      "metar_trigger": false,
      "taf_trigger": false,
      "metar": "METAR LHDC 260815Z AUTO 15007KT 110V200 CAVOK 14/02 Q0999 NOSIG",
      "taf": "TAF LHDC 260815Z 2609/2618 16008KT CAVOK"
    },
    {
      "icao": "LIBD",
      "alert": "OK",
      "vis_m": 9999,
      "fzfg": false,
      "metar_trigger": false,
      "taf_trigger": false,
      "metar": "METAR LIBD 260820Z 17010G21KT 140V200 CAVOK 16/06 Q0998",
      "taf": "TAF LIBD 260500Z 2606/2706 18011KT CAVOK"
    },
    {
      "icao": "LIBG",
      "alert": "OK",
      "vis_m": 9999,
      "fzfg": false,
      "metar_trigger": false,
      "taf_trigger": false,
      "metar": "METAR LIBG 260750Z 18013KT 9999 FEW040 15/08 Q1000",
      "taf": "TAF LIBG 260800Z 2609/2618 20012KT 9999 FEW040"
    },
    {
      "icao": "LIBP",
      "alert": "OK",
      "vis_m": 9999,
      "fzfg": false,
      "metar_trigger": false,
      "taf_trigger": false,
      "metar": "METAR LIBP 260820Z AUTO 22022G32KT 9999 NCD 13/03 Q0991",
      "taf": "TAF LIBP 260500Z 2606/2706 24015KT 9999 FEW050"
    },
    {
      "icao": "LIBR",
      "alert": "OK",
      "vis_m": 9999,
      "fzfg": false,
      "metar_trigger": false,
      "taf_trigger": false,
      "metar": "METAR LIBR 260820Z 20017KT 160V220 CAVOK 16/05 Q1001",
      "taf": "TAF LIBR 260500Z 2606/2706 21012KT CAVOK"
    },
    {
      "icao": "LICA",
      "alert": "OK",
      "vis_m": 9999,
      "fzfg": false,
      "metar_trigger": false,
      "taf_trigger": false,
      "metar": "METAR LICA 260820Z AUTO 24018KT 9999 BKN023/// 16/11 Q1004",
      "taf": "TAF LICA 260500Z 2606/2706 26018KT 9999 BKN020"
    },
    {
      "icao": "LICC",
      "alert": "OK",
      "vis_m": 9999,
      "fzfg": false,
      "metar_trigger": false,
      "taf_trigger": false,
      "metar": "METAR LICC 260820Z 25017KT CAVOK 16/12 Q1006",
      "taf": "TAF LICC 260500Z 2606/2706 25008KT 9999 FEW050"
    },
    {
      "icao": "LICJ",
      "alert": "OK",
      "vis_m": 9999,
      "fzfg": false,
      "metar_trigger": false,
      "taf_trigger": false,
      "metar": "METAR LICJ 260820Z 24019KT 9999 SCT030 15/09 Q1006",
      "taf": "TAF LICJ 260500Z 2606/2706 27022KT 9999 SCT020"
    },
    {
      "icao": "LIMC",
      "alert": "OK",
      "vis_m": 9999,
      "fzfg": false,
      "metar_trigger": false,
      "taf_trigger": false,
      "metar": "METAR LIMC 260820Z 33020KT CAVOK 11/M08 Q0999 NOSIG",
      "taf": "TAF LIMC 260500Z 2606/2712 35015KT CAVOK"
    },
    {
      "icao": "LIME",
      "alert": "OK",
      "vis_m": 9999,
      "fzfg": false,
      "metar_trigger": false,
      "taf_trigger": false,
      "metar": "METAR LIME 260820Z VRB01KT 9999 FEW040 BKN070 08/02 Q0997 NOSIG",
      "taf": "TAF LIME 260500Z 2606/2706 01008KT CAVOK"
    },
    {
      "icao": "LIMF",
      "alert": "OK",
      "vis_m": 9999,
      "fzfg": false,
      "metar_trigger": false,
      "taf_trigger": false,
      "metar": "METAR LIMF 260820Z 31016G26KT 290V350 CAVOK 11/M13 Q1001 WS R36",
      "taf": "TAF LIMF 260500Z 2606/2706 30013KT CAVOK"
    },
    {
      "icao": "LIMJ",
      "alert": "OK",
      "vis_m": 9999,
      "fzfg": false,
      "metar_trigger": false,
      "taf_trigger": false,
      "metar": "METAR LIMJ 260820Z 35022G33KT 310V030 CAVOK 13/M12 Q0997",
      "taf": "TAF LIMJ 260500Z 2606/2706 35025G45KT 9999 FEW060"
    },
    {
      "icao": "LIPE",
      "alert": "OK",
      "vis_m": 7000,
      "fzfg": false,
      "metar_trigger": false,
      "taf_trigger": false,
      "metar": "METAR LIPE 260820Z 36008KT 7000 RA BKN010 BKN018 05/04 Q0998",
      "taf": "TAF LIPE 260500Z 2606/2706 27013KT 9999 SCT035"
    },
    {
      "icao": "LIPH",
      "alert": "OK",
      "vis_m": 9999,
      "fzfg": false,
      "metar_trigger": false,
      "taf_trigger": false,
      "metar": "METAR LIPH 260820Z 32004KT 280V010 9999 FEW030 BKN060 08/03 Q0996",
      "taf": "TAF LIPH 260500Z 2606/2706 03014KT 9999 SCT040"
    },
    {
      "icao": "LIPQ",
      "alert": "OK",
      "vis_m": 9999,
      "fzfg": false,
      "metar_trigger": false,
      "taf_trigger": false,
      "metar": "METAR LIPQ 260820Z AUTO 04008KT 360V070 9999 OVC064/// 10/M00 Q0994",
      "taf": "TAF LIPQ 260500Z 2606/2706 04013KT 9999 SCT040"
    },
    {
      "icao": "LIPR",
      "alert": "OK",
      "vis_m": 4500,
      "fzfg": false,
      "metar_trigger": false,
      "taf_trigger": false,
      "metar": "METAR LIPR 260820Z 26020G31KT 4500 -RA BR BKN020 BKN030 04/02 Q0990",
      "taf": "TAF LIPR 260500Z 2606/2706 29020G30KT 9999 SCT030"
    },
    {
      "icao": "LIPX",
      "alert": "OK",
      "vis_m": 9999,
      "fzfg": false,
      "metar_trigger": false,
      "taf_trigger": false,
      "metar": "METAR LIPX 260820Z 31010G23KT 250V010 9999 FEW065 BKN080 09/01 Q0996",
      "taf": "TAF LIPX 260500Z 2606/2706 28010KT 9999 SCT040"
    },
    {
      "icao": "LIPY",
      "alert": "OK",
      "vis_m": 9999,
      "fzfg": false,
      "metar_trigger": false,
      "taf_trigger": false,
      "metar": "METAR LIPY 260820Z AUTO 25007KT 210V290 9999 SCT035/// BKN057/// 10/04 Q0992",
      "taf": "TAF LIPY 260500Z 2606/2706 28013KT 9999 SCT035"
    },
    {
      "icao": "LIPZ",
      "alert": "OK",
      "vis_m": 9999,
      "fzfg": false,
      "metar_trigger": false,
      "taf_trigger": false,
      "metar": "METAR LIPZ 260820Z 06017KT 9999 -RA OVC035 07/04 Q0996 NOSIG",
      "taf": "TAF LIPZ 260500Z 2606/2712 03018G28KT 9999 FEW035"
    },
    {
      "icao": "LIRF",
      "alert": "OK",
      "vis_m": 6000,
      "fzfg": false,
      "metar_trigger": false,
      "taf_trigger": false,
      "metar": "METAR LIRF 260820Z 31018KT 6000 SHRA SCT030CB BKN035 10/06 Q0995 TEMPO TSRA",
      "taf": "TAF LIRF 260500Z 2606/2712 30018G35KT 9999 SCT020"
    },
    {
      "icao": "LIRN",
      "alert": "OK",
      "vis_m": 9999,
      "fzfg": false,
      "metar_trigger": false,
      "taf_trigger": false,
      "metar": "METAR LIRN 260820Z 25022G32KT 9999 BKN050 13/M01 Q0999 NOSIG",
      "taf": "TAF LIRN 260500Z 2606/2706 25018G35KT 9999 SCT020"
    },
    {
      "icao": "LIRP",
      "alert": "OK",
      "vis_m": 9999,
      "fzfg": false,
      "metar_trigger": false,
      "taf_trigger": false,
      "metar": "METAR LIRP 260815Z COR 17003KT 9999 FEW030 SCT070 08/06 Q0996 NOSIG",
      "taf": "TAF LIRP 260500Z 2606/2706 12005KT 9999 BKN080"
    },
    {
      "icao": "LIRZ",
      "alert": "OK",
      "vis_m": 9999,
      "fzfg": false,
      "metar_trigger": false,
      "taf_trigger": false,
      "metar": "METAR LIRZ 260820Z AUTO 26008KT 9999 BKN037/// BKN080/// 07/04 Q0993",
      "taf": "TAF LIRZ 260500Z 2606/2706 VRB05KT 9999 FEW070"
    },
    {
      "icao": "LJLJ",
      "alert": "OK",
      "vis_m": 9999,
      "fzfg": false,
      "metar_trigger": false,
      "taf_trigger": false,
      "metar": "METAR LJLJ 260830Z 17006KT 9999 -RA FEW006 BKN043 OVC050 05/03 Q0998 WS ALL RWY NOSIG",
      "taf": "TAF LJLJ 260500Z 2606/2706 18005KT 9999 -RA FEW005 BKN035 OVC055"
    },
    {
      "icao": "LKMT",
      "alert": "OK",
      "vis_m": 9999,
      "fzfg": false,
      "metar_trigger": false,
      "taf_trigger": false,
      "metar": "METAR LKMT 260830Z 08008KT 9999 -RA BKN008 OVC012 03/02 Q1004 NOSIG",
      "taf": "TAF LKMT 260500Z 2606/2706 03013KT 7000 -RA SCT008 OVC017"
    },
    {
      "icao": "LKPR",
      "alert": "OK",
      "vis_m": 9999,
      "fzfg": false,
      "metar_trigger": false,
      "taf_trigger": false,
      "metar": "METAR LKPR 260830Z 30008KT 9999 SCT021 BKN034 04/01 Q1008 NOSIG",
      "taf": "TAF LKPR 260800Z 2609/2715 31014KT 9999 SCT035 BKN045"
    },
    {
      "icao": "LLBG",
      "alert": "OK",
      "vis_m": 9999,
      "fzfg": false,
      "metar_trigger": false,
      "taf_trigger": false,
      "metar": "METAR LLBG 260820Z 26007KT 160V250 9999 FEW012 BKN040 15/11 Q1001 TEMPO 8000 RA BKN025",
      "taf": "TAF LLBG 260502Z 2606/2706 19010KT 9999 SCT030 TX17/2613Z TN12/2704Z"
    },
    {
      "icao": "LMML",
      "alert": "OK",
      "vis_m": 9999,
      "fzfg": false,
      "metar_trigger": false,
      "taf_trigger": false,
      "metar": "METAR LMML 260815Z 25010KT 9999 FEW016 16/12 Q1009 NOSIG",
      "taf": "TAF LMML 260500Z 2606/2706 26014KT 9999 SCT020"
    },
    {
      "icao": "LOWW",
      "alert": "OK",
      "vis_m": 9999,
      "fzfg": false,
      "metar_trigger": false,
      "taf_trigger": false,
      "metar": "METAR LOWW 260820Z 34018KT 9999 -RA FEW012 SCT014 BKN018 05/03 Q1002 TEMPO RA BKN014",
      "taf": "TAF LOWW 260815Z 2609/2715 34018KT 9999 -RA FEW014 BKN020 TX07/2713Z TN01/2706Z"
    },
    {
      "icao": "LPFR",
      "alert": "OK",
      "vis_m": 9999,
      "fzfg": false,
      "metar_trigger": false,
      "taf_trigger": false,
      "metar": "METAR LPFR 260830Z 02009KT CAVOK 20/10 Q1013",
      "taf": "TAF LPFR 260500Z 2606/2706 02008KT CAVOK"
    },
    {
      "icao": "LPMA",
      "alert": "OK",
      "vis_m": 9999,
      "fzfg": false,
      "metar_trigger": false,
      "taf_trigger": false,
      "metar": "METAR LPMA 260830Z 02013KT 9999 BKN015 16/12 Q1018",
      "taf": "TAF LPMA 260500Z 2606/2706 01015KT 9999 FEW015"
    },
    {
      "icao": "LPPR",
      "alert": "OK",
      "vis_m": 9999,
      "fzfg": false,
      "metar_trigger": false,
      "taf_trigger": false,
      "metar": "METAR LPPR 260830Z 04008KT CAVOK 13/04 Q1021",
      "taf": "TAF LPPR 260500Z 2606/2706 03008KT CAVOK"
    },
    {
      "icao": "LPPS",
      "alert": "OK",
      "vis_m": 9999,
      "fzfg": false,
      "metar_trigger": false,
      "taf_trigger": false,
      "metar": "METAR LPPS 260830Z 02012KT 9999 SCT014 BKN030 15/11 Q1019",
      "taf": "TAF LPPS 260500Z 2606/2712 03015KT 9999 SCT015"
    },
    {
      "icao": "LPPT",
      "alert": "OK",
      "vis_m": 9999,
      "fzfg": false,
      "metar_trigger": false,
      "taf_trigger": false,
      "metar": "METAR LPPT 260830Z 04015KT 020V080 CAVOK 15/06 Q1016",
      "taf": "TAF LPPT 260500Z 2606/2712 04010KT CAVOK"
    },
    {
      "icao": "LQBK",
      "alert": "OK",
      "vis_m": 9999,
      "fzfg": false,
      "metar_trigger": false,
      "taf_trigger": false,
      "metar": "METAR LQBK 260830Z 33009KT 9999 FEW033 10/04 Q0995 NOSIG",
      "taf": "TAF LQBK 260500Z 2606/2706 31007KT 9999 SCT040 TX12/2612Z TN00/2704Z"
    },
    {
      "icao": "LQSA",
      "alert": "OK",
      "vis_m": 9999,
      "fzfg": false,
      "metar_trigger": false,
      "taf_trigger": false,
      "metar": "METAR LQSA 260830Z 14012G23KT 090V190 9999 BKN055 12/M01 Q0995 NOSIG",
      "taf": "TAF LQSA 260500Z 2606/2706 13012KT 9999 SCT050 TX12/2611Z TN01/2705Z"
    },
    {
      "icao": "LQTZ",
      "alert": "OK",
      "vis_m": 9999,
      "fzfg": false,
      "metar_trigger": false,
      "taf_trigger": false,
      "metar": "METAR LQTZ 260830Z 14011KT 110V180 9999 SCT065 14/01 Q0995",
      "taf": "TAF LQTZ 260500Z 2606/2706 10005KT 9999 SCT045 TX16/2612Z TN00/2705Z"
    },
    {
      "icao": "LRBC",
      "alert": "OK",
      "vis_m": 9999,
      "fzfg": false,
      "metar_trigger": false,
      "taf_trigger": false,
      "metar": "METAR LRBC 260830Z 17012KT CAVOK 12/04 Q1004",
      "taf": "TAF LRBC 260800Z 2609/2618 17015KT CAVOK"
    },
    {
      "icao": "LRBS",
      "alert": "OK",
      "vis_m": 9999,
      "fzfg": false,
      "metar_trigger": false,
      "taf_trigger": false,
      "metar": "METAR LRBS 260830Z 11009KT 080V140 CAVOK 15/04 Q1004 NOSIG",
      "taf": "TAF LRBS 260500Z 2606/2706 07006KT CAVOK"
    },
    {
      "icao": "LRBV",
      "alert": "OK",
      "vis_m": 9999,
      "fzfg": false,
      "metar_trigger": false,
      "taf_trigger": false,
      "metar": "METAR LRBV 260830Z 18010KT 150V220 9999 FEW060 14/M00 Q1002",
      "taf": "TAF LRBV 260800Z 2609/2618 VRB04KT CAVOK"
    },
    {
      "icao": "LRCL",
      "alert": "OK",
      "vis_m": 9999,
      "fzfg": false,
      "metar_trigger": false,
      "taf_trigger": false,
      "metar": "METAR LRCL 260830Z 10008KT CAVOK 12/02 Q1001",
      "taf": "TAF LRCL 260800Z 2609/2618 13010KT CAVOK"
    },
    {
      "icao": "LRCV",
      "alert": "OK",
      "vis_m": 9999,
      "fzfg": false,
      "metar_trigger": false,
      "taf_trigger": false,
      "metar": "METAR LRCV 260830Z 08009KT CAVOK 13/06 Q1002",
      "taf": "TAF LRCV 260800Z 2609/2618 09012KT CAVOK"
    },
    {
      "icao": "LRIA",
      "alert": "OK",
      "vis_m": 9999,
      "fzfg": false,
      "metar_trigger": false,
      "taf_trigger": false,
      "metar": "METAR LRIA 260830Z 12011KT CAVOK 14/02 Q1004",
      "taf": "TAF LRIA 260800Z 2609/2618 12012KT CAVOK"
    },
    {
      "icao": "LROP",
      "alert": "OK",
      "vis_m": 9999,
      "fzfg": false,
      "metar_trigger": false,
      "taf_trigger": false,
      "metar": "METAR LROP 260830Z 07006KT 020V090 CAVOK 15/M01 Q1004 NOSIG",
      "taf": "TAF LROP 260500Z 2606/2706 07006KT CAVOK"
    },
    {
      "icao": "LRSB",
      "alert": "OK",
      "vis_m": 9999,
      "fzfg": false,
      "metar_trigger": false,
      "taf_trigger": false,
      "metar": "METAR LRSB 260830Z 15019KT CAVOK 14/00 Q1001",
      "taf": "TAF LRSB 260500Z 2606/2706 13007KT CAVOK"
    },
    {
      "icao": "LRSM",
      "alert": "OK",
      "vis_m": 9999,
      "fzfg": false,
      "metar_trigger": false,
      "taf_trigger": false,
      "metar": "METAR LRSM 260830Z 13010KT CAVOK 14/00 Q1000",
      "taf": "TAF LRSM 260800Z 2609/2618 13010KT CAVOK"
    },
    {
      "icao": "LRSV",
      "alert": "OK",
      "vis_m": 9999,
      "fzfg": false,
      "metar_trigger": false,
      "taf_trigger": false,
      "metar": "METAR LRSV 260830Z 14008KT 100V180 CAVOK 12/03 Q1002",
      "taf": "TAF LRSV 260800Z 2609/2618 16012KT CAVOK"
    },
    {
      "icao": "LRTM",
      "alert": "OK",
      "vis_m": 9999,
      "fzfg": false,
      "metar_trigger": false,
      "taf_trigger": false,
      "metar": "METAR LRTM 260830Z 10008KT 060V150 9999 FEW045 13/03 Q1002",
      "taf": "TAF LRTM 260800Z 2609/2618 09006KT CAVOK"
    },
    {
      "icao": "LRTR",
      "alert": "OK",
      "vis_m": 9999,
      "fzfg": false,
      "metar_trigger": false,
      "taf_trigger": false,
      "metar": "METAR LRTR 260830Z 17015KT CAVOK 15/M00 Q0998 NOSIG",
      "taf": "TAF LRTR 260500Z 2606/2706 18006KT CAVOK"
    },
    {
      "icao": "LTAC",
      "alert": "OK",
      "vis_m": 9999,
      "fzfg": false,
      "metar_trigger": false,
      "taf_trigger": false,
      "metar": "METAR LTAC 260820Z 06006KT 010V080 9999 SCT026 BKN100 07/01 Q1005 NOSIG RMK RWY21C 04004KT RWY03L 05005KT 010V080 RWY21R 06005KT 020V080 RWY03R 03006KT 350V050 RWY21L 02006KT",
      "taf": "TAF LTAC 260440Z 2606/2706 VRB02KT 9999 SCT035 BKN100"
    },
    {
      "icao": "LTFM",
      "alert": "OK",
      "vis_m": 9999,
      "fzfg": false,
      "metar_trigger": false,
      "taf_trigger": false,
      "metar": "METAR LTFM 260820Z 06007KT 9999 SCT015 BKN022 09/06 Q1007 NOSIG RMK RWY17L 07009KT RWY34L 07008KT RWY16R 04009KT RWY36 05008KT RWY18 07007KT",
      "taf": "TAF LTFM 260440Z 2606/2712 35005KT 9999 SCT012 BKN025"
    },
    {
      "icao": "LUKK",
      "alert": "OK",
      "vis_m": 9999,
      "fzfg": false,
      "metar_trigger": false,
      "taf_trigger": false,
      "metar": "METAR LUKK 260830Z 18009KT 140V210 CAVOK 14/01 Q1006 NOSIG",
      "taf": "TAF LUKK 260516Z 2606/2706 14009KT CAVOK"
    },
    {
      "icao": "LWOH",
      "alert": "OK",
      "vis_m": 9999,
      "fzfg": false,
      "metar_trigger": false,
      "taf_trigger": false,
      "metar": "METAR LWOH 260820Z 21003KT 120V280 9999 BKN040 09/03 Q1004",
      "taf": "TAF LWOH 260530Z 2606/2706 VRB02KT CAVOK"
    },
    {
      "icao": "LWSK",
      "alert": "OK",
      "vis_m": 9999,
      "fzfg": false,
      "metar_trigger": false,
      "taf_trigger": false,
      "metar": "METAR LWSK 260820Z 11004KT CAVOK 14/04 Q1003 NOSIG",
      "taf": "TAF LWSK 260530Z 2606/2706 VRB02KT CAVOK"
    },
    {
      "icao": "LYBE",
      "alert": "OK",
      "vis_m": 9999,
      "fzfg": false,
      "metar_trigger": false,
      "taf_trigger": false,
      "metar": "METAR LYBE 260830Z 15009KT CAVOK 15/M01 Q0998 NOSIG",
      "taf": "TAF LYBE 260500Z 2606/2706 15014KT CAVOK TX18/2613Z TN06/2706Z"
    },
    {
      "icao": "LYNI",
      "alert": "OK",
      "vis_m": 9999,
      "fzfg": false,
      "metar_trigger": false,
      "taf_trigger": false,
      "metar": "METAR LYNI 260830Z 17009KT 120V220 9999 FEW050 15/02 Q1001 NOSIG",
      "taf": "TAF LYNI 260500Z 2606/2706 VRB02KT CAVOK TX18/2613Z TN07/2705Z"
    },
    {
      "icao": "LYPG",
      "alert": "OK",
      "vis_m": 9999,
      "fzfg": false,
      "metar_trigger": false,
      "taf_trigger": false,
      "metar": "METAR LYPG 260830Z 13018KT 9999 FEW030 BKN040 15/07 Q1001 NOSIG",
      "taf": ""
    },
    {
      "icao": "LZIB",
      "alert": "OK",
      "vis_m": 9999,
      "fzfg": false,
      "metar_trigger": false,
      "taf_trigger": false,
      "metar": "METAR LZIB 260830Z 34013KT 9999 -RA FEW011 BKN027 06/02 Q1000 NOSIG",
      "taf": "TAF LZIB 260515Z 2606/2706 36015KT 9999 -RA FEW014 SCT020"
    },
    {
      "icao": "LZKZ",
      "alert": "OK",
      "vis_m": 9999,
      "fzfg": false,
      "metar_trigger": false,
      "taf_trigger": false,
      "metar": "METAR LZKZ 260830Z 02007KT CAVOK 12/01 Q1000 NOSIG",
      "taf": "TAF LZKZ 260515Z 2606/2706 02008KT CAVOK"
    },
    {
      "icao": "LZTT",
      "alert": "OK",
      "vis_m": 9999,
      "fzfg": false,
      "metar_trigger": false,
      "taf_trigger": false,
      "metar": "METAR LZTT 260830Z VRB03KT 9999 FEW016 SCT050 BKN083 07/03 Q1000 NOSIG",
      "taf": "TAF LZTT 260515Z 2606/2706 36006KT 9999 -RA SCT011 BKN030"
    },
    {
      "icao": "OEJN",
      "alert": "OK",
      "vis_m": 2000,
      "fzfg": false,
      "metar_trigger": false,
      "taf_trigger": false,
      "metar": "METAR OEJN 260800Z 33028G38KT 2000 BLDU BKN040 23/13 Q1008 RERA NOSIG",
      "taf": ""
    },
    {
      "icao": "OEMA",
      "alert": "OK",
      "vis_m": 9999,
      "fzfg": false,
      "metar_trigger": false,
      "taf_trigger": false,
      "metar": "METAR OEMA 260800Z 23010KT 9999 FEW015 BKN035 18/10 Q1008 NOSIG",
      "taf": "TAF OEMA 260500Z 2606/2712 25020KT 7000 SCT040"
    },
    {
      "icao": "OJAI",
      "alert": "OK",
      "vis_m": 4000,
      "fzfg": false,
      "metar_trigger": false,
      "taf_trigger": false,
      "metar": "METAR OJAI 260800Z 22014KT 4000 HZ SCT030 SCT100 09/05 Q1001 NOSIG",
      "taf": "TAF OJAI 260500Z 2606/2712 26014KT 4000 RA BR SCT025TCU SCT030"
    },
    {
      "icao": "OMAA",
      "alert": "OK",
      "vis_m": null,
      "fzfg": false,
      "metar_trigger": false,
      "taf_trigger": false,
      "metar": "",
      "taf": ""
    },
    {
      "icao": "OMDB",
      "alert": "OK",
      "vis_m": null,
      "fzfg": false,
      "metar_trigger": false,
      "taf_trigger": false,
      "metar": "",
      "taf": ""
    },
    {
      "icao": "UAAA",
      "alert": "OK",
      "vis_m": 9999,
      "fzfg": false,
      "metar_trigger": false,
      "taf_trigger": false,
      "metar": "METAR UAAA 260800Z 03002MPS 9999 NSC 19/M01 Q1013 NOSIG",
      "taf": "TAF UAAA 260502Z 2606/2706 34003G08MPS 9999 FEW100 TX20/2610Z TN02/2701Z"
    },
    {
      "icao": "UBBB",
      "alert": "OK",
      "vis_m": 8000,
      "fzfg": false,
      "metar_trigger": false,
      "taf_trigger": false,
      "metar": "METAR UBBB 260830Z 20010KT 8000 BKN007 14/12 Q1003 NOSIG",
      "taf": "TAF UBBB 260503Z 2606/2706 19008KT 9999 SCT010 TX17/2610Z TN08/2700Z"
    },
    {
      "icao": "UDSG",
      "alert": "OK",
      "vis_m": 9999,
      "fzfg": false,
      "metar_trigger": false,
      "taf_trigger": false,
      "metar": "METAR UDSG 260800Z 25008KT 9999 -SHRA BKN036CB 08/05 Q1006 NOSIG",
      "taf": "TAF UDSG 260500Z 2606/2706 22006KT 9999 SCT040"
    },
    {
      "icao": "UDYZ",
      "alert": "OK",
      "vis_m": 9999,
      "fzfg": false,
      "metar_trigger": false,
      "taf_trigger": false,
      "metar": "METAR UDYZ 260800Z 20003KT 160V290 9999 SCT030CB 14/08 Q1004 NOSIG",
      "taf": "TAF UDYZ 260500Z 2606/2706 24006KT 9999 SCT040"
    },
    {
      "icao": "UGKO",
      "alert": "OK",
      "vis_m": 9999,
      "fzfg": false,
      "metar_trigger": false,
      "taf_trigger": false,
      "metar": "METAR UGKO 260830Z 29003KT 250V330 9999 SCT005 BKN007 10/09 Q1006 NOSIG",
      "taf": "TAF UGKO 260500Z 2606/2706 25007KT 8000 -RA BKN015 OVC030 TX12/2612Z TN08/2703Z"
    }
  ]
}