{
  "ts_utc": "2026-01-03T17:23:37Z",
  "threshold_m": 150,
  "source": "stations_override.txt (ICAO list) + aviationweather.gov (METAR/TAF raw)",
  "station_count": 159,
  "stations": [
    {
      "icao": "BIKF",
      "alert": "OK",
      "vis_m": 9999,
      "fzfg": false,
      "metar_trigger": false,
      "taf_trigger": false,
      "metar": "METAR BIKF 031700Z 02007KT CAVOK M04/M09 Q1029",
      "taf": "TAF BIKF 031630Z 0318/0418 01008KT CAVOK TXM01/0415Z TNM07/0318Z"
    },
    {
      "icao": "BKPR",
      "alert": "OK",
      "vis_m": 9999,
      "fzfg": false,
      "metar_trigger": false,
      "taf_trigger": false,
      "metar": "METAR BKPR 031700Z 35016KT 9999 -RA FEW016 BKN040 01/M00 Q1008 NOSIG",
      "taf": ""
    },
    {
      "icao": "EBCI",
      "alert": "OK",
      "vis_m": 9999,
      "fzfg": false,
      "metar_trigger": false,
      "taf_trigger": false,
      "metar": "METAR EBCI 031650Z 24014KT 9999 BKN008 BKN018 M01/M02 Q1007 TEMPO 1200 SHSN BKN004",
      "taf": "TAF EBCI 031120Z 0312/0418 26010KT 9999 FEW015 SCT025"
    },
    {
      "icao": "EDDB",
      "alert": "OK",
      "vis_m": 3300,
      "fzfg": false,
      "metar_trigger": false,
      "taf_trigger": false,
      "metar": "METAR EDDB 031650Z AUTO 23016KT 3300 -SN BR FEW005 BKN033 BKN043 M00/M02 Q0996 RESN TEMPO 24015G25KT 1500 SN BKN005",
      "taf": ""
    },
    {
      "icao": "EDDH",
      "alert": "OK",
      "vis_m": 9999,
      "fzfg": false,
      "metar_trigger": false,
      "taf_trigger": false,
      "metar": "METAR EDDH 031650Z AUTO 23010KT 9999 -SHSN BKN007 BKN016 OVC023 FEW///CB M01/M01 Q0994 RESHSN TEMPO 1000 SN BKN004",
      "taf": "TAF EDDH 031100Z 0312/0418 24004KT 8000 SCT005"
    },
    {
      "icao": "EDDK",
      "alert": "OK",
      "vis_m": 9999,
      "fzfg": false,
      "metar_trigger": false,
      "taf_trigger": false,
      "metar": "METAR EDDK 031650Z AUTO 28014KT 9999 BKN014 BKN033 00/M02 Q1004 NOSIG",
      "taf": "TAF EDDK 031100Z 0312/0418 27012KT 9000 BKN020"
    },
    {
      "icao": "EDDN",
      "alert": "OK",
      "vis_m": 6000,
      "fzfg": false,
      "metar_trigger": false,
      "taf_trigger": false,
      "metar": "METAR EDDN 031650Z AUTO 23007KT 6000 -SN FEW011 BKN030 OVC038 M02/M04 Q1005 NOSIG",
      "taf": "TAF EDDN 031100Z 0312/0412 24010KT 9999 OVC030"
    },
    {
      "icao": "EDDS",
      "alert": "OK",
      "vis_m": 9999,
      "fzfg": false,
      "metar_trigger": false,
      "taf_trigger": false,
      "metar": "METAR EDDS 031650Z AUTO 24006KT 200V280 9999 FEW027 BKN040 OVC047 M02/M05 Q1006 NOSIG",
      "taf": "TAF EDDS 031100Z 0312/0412 22010KT 9999 FEW015 SCT025"
    },
    {
      "icao": "EDFH",
      "alert": "OK",
      "vis_m": 9999,
      "fzfg": false,
      "metar_trigger": false,
      "taf_trigger": false,
      "metar": "METAR EDFH 031650Z 27014KT 9999 FEW029 BKN033 M03/M07 Q1004",
      "taf": "TAF EDFH 031100Z 0312/0412 26012KT 9999 SCT006 BKN012"
    },
    {
      "icao": "EDJA",
      "alert": "OK",
      "vis_m": 9999,
      "fzfg": false,
      "metar_trigger": false,
      "taf_trigger": false,
      "metar": "METAR EDJA 031650Z 23016G27KT 9999 OVC051 M03/M09 Q1005",
      "taf": "TAF EDJA 031400Z 0315/0324 23012KT CAVOK"
    },
    {
      "icao": "EDLW",
      "alert": "OK",
      "vis_m": 9999,
      "fzfg": false,
      "metar_trigger": false,
      "taf_trigger": false,
      "metar": "METAR EDLW 031650Z 23010KT 9999 FEW010 SCT015 BKN021 M00/M02 Q1002",
      "taf": "TAF EDLW 031100Z 0312/0412 26015KT 8000 BKN012"
    },
    {
      "icao": "EDNY",
      "alert": "OK",
      "vis_m": 9999,
      "fzfg": false,
      "metar_trigger": false,
      "taf_trigger": false,
      "metar": "METAR EDNY 031650Z 28003KT 240V320 CAVOK M02/M06 Q1007",
      "taf": "TAF EDNY 031400Z 0315/0324 25007KT CAVOK"
    },
    {
      "icao": "EDSB",
      "alert": "OK",
      "vis_m": 9999,
      "fzfg": false,
      "metar_trigger": false,
      "taf_trigger": false,
      "metar": "METAR EDSB 031650Z 20010KT 9999 -SN SCT028 BKN038 BKN045 M01/M03 Q1008",
      "taf": "TAF EDSB 031100Z 0312/0412 20014KT 9999 SCT025 BKN035"
    },
    {
      "icao": "EETN",
      "alert": "OK",
      "vis_m": 9999,
      "fzfg": false,
      "metar_trigger": false,
      "taf_trigger": false,
      "metar": "METAR EETN 031720Z 08009KT 9999 -SN FEW017 BKN028 OVC047 M03/M04 Q0990 TEMPO 2000 SN",
      "taf": ""
    },
    {
      "icao": "EFTU",
      "alert": "OK",
      "vis_m": 9999,
      "fzfg": false,
      "metar_trigger": false,
      "taf_trigger": false,
      "metar": "METAR EFTU 031720Z AUTO 07011KT 040V100 9999 BKN015 OVC030 M09/M11 Q0993",
      "taf": "TAF EFTU 031434Z 0315/0415 06007KT 9999 OVC011"
    },
    {
      "icao": "EGBB",
      "alert": "OK",
      "vis_m": 9999,
      "fzfg": false,
      "metar_trigger": false,
      "taf_trigger": false,
      "metar": "METAR EGBB 031650Z 32009KT CAVOK 00/M05 Q1012",
      "taf": "TAF EGBB 031659Z 0318/0418 32009KT CAVOK"
    },
    {
      "icao": "EGGP",
      "alert": "OK",
      "vis_m": 9999,
      "fzfg": false,
      "metar_trigger": false,
      "taf_trigger": false,
      "metar": "METAR EGGP 031650Z 33008KT 9999 SCT038 01/M05 Q1014",
      "taf": "TAF EGGP 031658Z 0318/0418 31009KT 9999 SCT035"
    },
    {
      "icao": "EGGW",
      "alert": "OK",
      "vis_m": 9999,
      "fzfg": false,
      "metar_trigger": false,
      "taf_trigger": false,
      "metar": "METAR EGGW 031650Z AUTO 31012KT 9999 NCD M00/M05 Q1011",
      "taf": "TAF EGGW 031659Z 0318/0418 30012KT 9999 FEW025"
    },
    {
      "icao": "EGKK",
      "alert": "OK",
      "vis_m": 9999,
      "fzfg": false,
      "metar_trigger": false,
      "taf_trigger": false,
      "metar": "METAR EGKK 031650Z 33008KT 300V360 CAVOK 01/M05 Q1012",
      "taf": "TAF EGKK 031655Z 0318/0424 30010KT CAVOK"
    },
    {
      "icao": "EGNM",
      "alert": "OK",
      "vis_m": 9999,
      "fzfg": false,
      "metar_trigger": false,
      "taf_trigger": false,
      "metar": "METAR EGNM 031650Z 30015KT CAVOK M01/M06 Q1011",
      "taf": "TAF EGNM 031657Z 0318/0418 30015KT 9999 FEW045"
    },
    {
      "icao": "EGPD",
      "alert": "OK",
      "vis_m": 9000,
      "fzfg": false,
      "metar_trigger": false,
      "taf_trigger": false,
      "metar": "METAR EGPD 031650Z 31015KT 9000 VCSH SCT025 M01/M05 Q1010 TEMPO 1800 SHSN",
      "taf": "TAF EGPD 031658Z 0318/0418 31012KT 9999 FEW012"
    },
    {
      "icao": "EGPF",
      "alert": "OK",
      "vis_m": 9999,
      "fzfg": false,
      "metar_trigger": false,
      "taf_trigger": false,
      "metar": "METAR EGPF 031650Z AUTO 20004KT 9999 NCD M01/M05 Q1015",
      "taf": "TAF EGPF 031704Z 0318/0418 30007KT 9999 FEW030"
    },
    {
      "icao": "EHBK",
      "alert": "OK",
      "vis_m": 9999,
      "fzfg": false,
      "metar_trigger": false,
      "taf_trigger": false,
      "metar": "METAR EHBK 031655Z AUTO 24009KT 210V280 9999 OVC005 M00/M00 Q1005 NOSIG",
      "taf": "TAF EHBK 031122Z 0312/0418 25011KT 9999 SCT015"
    },
    {
      "icao": "EHEH",
      "alert": "OK",
      "vis_m": 9999,
      "fzfg": false,
      "metar_trigger": false,
      "taf_trigger": false,
      "metar": "METAR EHEH 031655Z AUTO 23008KT 200V260 9999 NCD M00/M01 Q1005 BLU NOSIG RMK TREND REMOTE BY EHWX",
      "taf": ""
    },
    {
      "icao": "EKBI",
      "alert": "OK",
      "vis_m": 9999,
      "fzfg": false,
      "metar_trigger": false,
      "taf_trigger": false,
      "metar": "METAR EKBI 031650Z AUTO 32006KT 9999 NCD M07/M10 Q0995",
      "taf": "TAF EKBI 031427Z 0315/0415 26005KT 9999 FEW030"
    },
    {
      "icao": "EKCH",
      "alert": "OK",
      "vis_m": 8000,
      "fzfg": false,
      "metar_trigger": false,
      "taf_trigger": false,
      "metar": "METAR EKCH 031650Z 27009KT 8000 -SHSN BKN020 M03/M06 Q0993 TEMPO 1200 SHSN BKN010",
      "taf": "TAF EKCH 031427Z 0315/0415 28010KT 9999 -SHSN BKN040"
    },
    {
      "icao": "ENAL",
      "alert": "OK",
      "vis_m": 9999,
      "fzfg": false,
      "metar_trigger": false,
      "taf_trigger": false,
      "metar": "METAR ENAL 031650Z 14011KT CAVOK M06/M09 Q1002",
      "taf": "TAF ENAL 031400Z 0315/0324 07008KT CAVOK"
    },
    {
      "icao": "ENBR",
      "alert": "OK",
      "vis_m": 9999,
      "fzfg": false,
      "metar_trigger": false,
      "taf_trigger": false,
      "metar": "METAR ENBR 031650Z 12003KT CAVOK M08/M12 Q1000 NOSIG RMK WIND 1200FT 08005KT",
      "taf": "TAF ENBR 031100Z 0312/0412 01008KT CAVOK"
    },
    {
      "icao": "ENGM",
      "alert": "OK",
      "vis_m": 8000,
      "fzfg": false,
      "metar_trigger": false,
      "taf_trigger": false,
      "metar": "METAR ENGM 031650Z 01017KT 8000 -SHSN FEW036 M09/M13 Q0996 TEMPO 4000",
      "taf": "TAF ENGM 031100Z 0312/0412 36015KT 9000 -SN BKN040"
    },
    {
      "icao": "ENHD",
      "alert": "OK",
      "vis_m": 9999,
      "fzfg": false,
      "metar_trigger": false,
      "taf_trigger": false,
      "metar": "METAR ENHD 031650Z 06006KT 030V090 CAVOK M08/M12 Q1000",
      "taf": "TAF ENHD 031400Z 0315/0323 06009KT CAVOK"
    },
    {
      "icao": "ENTC",
      "alert": "OK",
      "vis_m": 9999,
      "fzfg": false,
      "metar_trigger": false,
      "taf_trigger": false,
      "metar": "METAR ENTC 031650Z 18007KT 9999 SCT036 M05/M10 Q1003 NOSIG RMK WIND 2600FT 17014KT",
      "taf": "TAF ENTC 031100Z 0312/0412 19009KT 9999 FEW020 BKN050"
    },
    {
      "icao": "ENTO",
      "alert": "OK",
      "vis_m": 8000,
      "fzfg": false,
      "metar_trigger": false,
      "taf_trigger": false,
      "metar": "METAR ENTO 031650Z 36014KT 8000 -SN BKN024 M07/M11 Q0996 NOSIG",
      "taf": "TAF ENTO 031100Z 0312/0412 01015KT 8000 -SN BKN025"
    },
    {
      "icao": "ENVA",
      "alert": "OK",
      "vis_m": 9999,
      "fzfg": false,
      "metar_trigger": false,
      "taf_trigger": false,
      "metar": "METAR ENVA 031650Z 11009KT CAVOK M15/M17 Q1005 RMK WIND 670FT 15008KT",
      "taf": "TAF ENVA 031100Z 0312/0412 12008KT CAVOK"
    },
    {
      "icao": "ENZV",
      "alert": "OK",
      "vis_m": 9999,
      "fzfg": false,
      "metar_trigger": false,
      "taf_trigger": false,
      "metar": "METAR ENZV 031650Z 04005KT CAVOK M04/M12 Q0999 NOSIG",
      "taf": "TAF ENZV 031100Z 0312/0412 03010KT CAVOK"
    },
    {
      "icao": "EPGD",
      "alert": "OK",
      "vis_m": 9999,
      "fzfg": false,
      "metar_trigger": false,
      "taf_trigger": false,
      "metar": "METAR EPGD 031700Z 24011KT CAVOK M04/M09 Q0992",
      "taf": ""
    },
    {
      "icao": "EPKK",
      "alert": "OK",
      "vis_m": 9999,
      "fzfg": false,
      "metar_trigger": false,
      "taf_trigger": false,
      "metar": "METAR EPKK 031700Z 24006KT CAVOK M02/M08 Q1003",
      "taf": "TAF EPKK 031430Z 0315/0415 24013KT CAVOK"
    },
    {
      "icao": "EPKT",
      "alert": "OK",
      "vis_m": 9999,
      "fzfg": false,
      "metar_trigger": false,
      "taf_trigger": false,
      "metar": "METAR EPKT 031700Z 22015KT 9999 BKN042 M00/M06 Q1001",
      "taf": "TAF EPKT 031130Z 0312/0412 24013KT 9999 SCT040"
    },
    {
      "icao": "EPLB",
      "alert": "OK",
      "vis_m": 9999,
      "fzfg": false,
      "metar_trigger": false,
      "taf_trigger": false,
      "metar": "METAR EPLB 031700Z 23014KT 9999 DRSN SCT049 M01/M05 Q1000",
      "taf": "TAF EPLB 031130Z 0312/0412 24015KT 9999 BKN040"
    },
    {
      "icao": "EPMO",
      "alert": "OK",
      "vis_m": 9999,
      "fzfg": false,
      "metar_trigger": false,
      "taf_trigger": false,
      "metar": "METAR EPMO 031700Z 21011KT 9999 -SHSN DRSN BKN010 SCT020CB M01/M01 Q0997 RESHSN",
      "taf": "TAF EPMO 031130Z 0312/0412 24015KT 9999 BKN030"
    },
    {
      "icao": "EPPO",
      "alert": "OK",
      "vis_m": 3800,
      "fzfg": false,
      "metar_trigger": false,
      "taf_trigger": false,
      "metar": "METAR EPPO 031700Z 22013KT 3800 -SN BR FEW012 OVC034 M00/M02 Q0996",
      "taf": "TAF EPPO 031130Z 0312/0412 23014KT 9999 FEW017"
    },
    {
      "icao": "EPRA",
      "alert": "OK",
      "vis_m": 9999,
      "fzfg": false,
      "metar_trigger": false,
      "taf_trigger": false,
      "metar": "METAR EPRA 031700Z 23012KT 9999 SCT037 00/M06 Q1000",
      "taf": "TAF EPRA 031430Z 0315/0324 24012KT 9999 BKN030"
    },
    {
      "icao": "EPRZ",
      "alert": "OK",
      "vis_m": 9999,
      "fzfg": false,
      "metar_trigger": false,
      "taf_trigger": false,
      "metar": "METAR EPRZ 031700Z 21012KT CAVOK M01/M09 Q1003",
      "taf": ""
    },
    {
      "icao": "EPSC",
      "alert": "OK",
      "vis_m": 9999,
      "fzfg": false,
      "metar_trigger": false,
      "taf_trigger": false,
      "metar": "METAR EPSC 031700Z 19003KT CAVOK M03/M07 Q0995",
      "taf": "TAF EPSC 031130Z 0312/0412 24008KT 9999 SCT020"
    },
    {
      "icao": "EPSY",
      "alert": "OK",
      "vis_m": 9999,
      "fzfg": false,
      "metar_trigger": false,
      "taf_trigger": false,
      "metar": "METAR EPSY 031700Z 20006KT CAVOK M06/M07 Q0995",
      "taf": "TAF EPSY 031430Z 0315/0324 23010KT CAVOK"
    },
    {
      "icao": "EPWA",
      "alert": "OK",
      "vis_m": 7000,
      "fzfg": false,
      "metar_trigger": false,
      "taf_trigger": false,
      "metar": "METAR EPWA 031700Z 22009KT 180V250 7000 -SHSN BKN022CB M00/M02 Q0998 RESHSN TEMPO 3000 SHSN BKN014",
      "taf": "TAF EPWA 031430Z 0315/0415 23012KT 9999 BKN030"
    },
    {
      "icao": "EPWR",
      "alert": "OK",
      "vis_m": 9999,
      "fzfg": false,
      "metar_trigger": false,
      "taf_trigger": false,
      "metar": "METAR EPWR 031700Z 23012KT CAVOK 00/M06 Q1000",
      "taf": "TAF EPWR 031430Z 0315/0415 24015KT 9999 SCT040"
    },
    {
      "icao": "ESGG",
      "alert": "OK",
      "vis_m": 7000,
      "fzfg": false,
      "metar_trigger": false,
      "taf_trigger": false,
      "metar": "METAR ESGG 031650Z 34009KT 7000 -SN OVC012 M08/M09 Q0991",
      "taf": "TAF ESGG 031430Z 0315/0415 34009KT 5000 -SN SCT010 BKN020"
    },
    {
      "icao": "ESKN",
      "alert": "OK",
      "vis_m": 4000,
      "fzfg": false,
      "metar_trigger": false,
      "taf_trigger": false,
      "metar": "METAR ESKN 031650Z 36008KT 330V030 4000 -SHSN SCT006 BKN010 BKN023CB M02/M03 Q0987",
      "taf": "TAF ESKN 031430Z 0315/0415 01012G22KT 7000 -SN SCT008 BKN015"
    },
    {
      "icao": "ESMS",
      "alert": "OK",
      "vis_m": 9999,
      "fzfg": false,
      "metar_trigger": false,
      "taf_trigger": false,
      "metar": "METAR ESMS 031650Z 27010KT 9999 -SN FEW017 SCT027 BKN040 M02/M04 Q0991",
      "taf": "TAF ESMS 031427Z 0315/0415 30010KT 9999 -SN BKN016"
    },
    {
      "icao": "ESSA",
      "alert": "OK",
      "vis_m": 7000,
      "fzfg": false,
      "metar_trigger": false,
      "taf_trigger": false,
      "metar": "METAR ESSA 031650Z 02014KT 7000 -SN OVC005 M03/M04 Q0990 TEMPO 2000 SN VV015",
      "taf": ""
    },
    {
      "icao": "EYKA",
      "alert": "OK",
      "vis_m": 2700,
      "fzfg": false,
      "metar_trigger": false,
      "taf_trigger": false,
      "metar": "METAR EYKA 031720Z 23008KT 190V250 2700 SN BR BKN008 BKN013 OVC038 M02/M03 Q0993",
      "taf": "TAF EYKA 031700Z 0318/0418 22010KT 8000 SCT010 BKN020"
    },
    {
      "icao": "EYPA",
      "alert": "OK",
      "vis_m": 9999,
      "fzfg": false,
      "metar_trigger": false,
      "taf_trigger": false,
      "metar": "METAR EYPA 031720Z 22009KT 190V260 9999 -SHSNRA FEW020CB 00/M02 Q0987",
      "taf": "TAF EYPA 031700Z 0318/0418 23010KT 8000 BKN020"
    },
    {
      "icao": "EYVI",
      "alert": "OK",
      "vis_m": 9999,
      "fzfg": false,
      "metar_trigger": false,
      "taf_trigger": false,
      "metar": "METAR EYVI 031720Z 22011KT 9999 -SHSN SCT010CB BKN038 M02/M04 Q0993 TEMPO 1500 SHSN BKN010CB",
      "taf": "TAF EYVI 031700Z 0318/0418 21010KT 8000 SCT010 BKN020"
    },
    {
      "icao": "GCFV",
      "alert": "OK",
      "vis_m": 9999,
      "fzfg": false,
      "metar_trigger": false,
      "taf_trigger": false,
      "metar": "METAR GCFV 031700Z 27021KT 9999 SCT035 20/14 Q1006",
      "taf": "TAF GCFV 031400Z 0315/0415 27020KT 9999 SCT025 TX23/0414Z TN17/0406Z"
    },
    {
      "icao": "GCLP",
      "alert": "OK",
      "vis_m": 9999,
      "fzfg": false,
      "metar_trigger": false,
      "taf_trigger": false,
      "metar": "METAR GCLP 031700Z 12006KT 060V150 9999 FEW040 21/15 Q1007 NOSIG",
      "taf": "TAF GCLP 031400Z 0315/0415 VRB08KT 9999 SCT030 TX22/0414Z TN16/0406Z"
    },
    {
      "icao": "GCTS",
      "alert": "OK",
      "vis_m": 9999,
      "fzfg": false,
      "metar_trigger": false,
      "taf_trigger": false,
      "metar": "METAR GCTS 031700Z 29016KT 9999 SCT045 21/14 Q1007 WS R25 NOSIG",
      "taf": "TAF GCTS 031400Z 0315/0415 28024KT 9999 SCT025 TX24/0414Z TN18/0406Z"
    },
    {
      "icao": "GMAD",
      "alert": "OK",
      "vis_m": 6000,
      "fzfg": false,
      "metar_trigger": false,
      "taf_trigger": false,
      "metar": "METAR GMAD 031700Z 21014KT 6000 SCT016 SCT026TCU BKN080 18/15 Q1004 TEMPO 4000 RA",
      "taf": "TAF GMAD 031700Z 0318/0424 20016KT 6000 SCT030TCU SCT080"
    },
    {
      "icao": "GMMN",
      "alert": "OK",
      "vis_m": 9999,
      "fzfg": false,
      "metar_trigger": false,
      "taf_trigger": false,
      "metar": "METAR GMMN 031700Z 23016KT 200V260 9999 SCT005 BKN030 15/12 Q0999 NOSIG",
      "taf": "TAF GMMN 031700Z 0318/0424 22018KT 9999 SCT016 BKN030"
    },
    {
      "icao": "GMMX",
      "alert": "OK",
      "vis_m": 9999,
      "fzfg": false,
      "metar_trigger": false,
      "taf_trigger": false,
      "metar": "METAR GMMX 031700Z 08003KT 030V110 9999 SCT016 BKN080 17/11 Q1000 NOSIG",
      "taf": "TAF GMMX 031700Z 0318/0424 12006KT 8000 SCT016 BKN023"
    },
    {
      "icao": "HEGN",
      "alert": "OK",
      "vis_m": 9999,
      "fzfg": false,
      "metar_trigger": false,
      "taf_trigger": false,
      "metar": "METAR HEGN 031700Z 33006KT CAVOK 19/09 Q1022 NOSIG",
      "taf": "TAF HEGN 031700Z 0318/0424 30010KT CAVOK"
    },
    {
      "icao": "HEMA",
      "alert": "OK",
      "vis_m": 9999,
      "fzfg": false,
      "metar_trigger": false,
      "taf_trigger": false,
      "metar": "METAR HEMA 031700Z 32016KT CAVOK 18/12 Q1021 NOSIG",
      "taf": "TAF HEMA 031700Z 0318/0424 34018KT CAVOK"
    },
    {
      "icao": "HESH",
      "alert": "OK",
      "vis_m": 9999,
      "fzfg": false,
      "metar_trigger": false,
      "taf_trigger": false,
      "metar": "METAR HESH 031700Z 35008KT CAVOK 20/11 Q1021 NOSIG",
      "taf": "TAF HESH 031700Z 0318/0424 33010KT CAVOK"
    },
    {
      "icao": "HESX",
      "alert": "OK",
      "vis_m": 9999,
      "fzfg": false,
      "metar_trigger": false,
      "taf_trigger": false,
      "metar": "METAR HESX 031700Z 03010KT CAVOK 13/06 Q1025 NOSIG",
      "taf": "TAF HESX 031700Z 0318/0424 04012KT CAVOK"
    },
    {
      "icao": "LATI",
      "alert": "OK",
      "vis_m": 9999,
      "fzfg": false,
      "metar_trigger": false,
      "taf_trigger": false,
      "metar": "METAR LATI 031720Z 13008KT 9999 OVC064 15/09 Q1010 NOSIG",
      "taf": "TAF LATI 031700Z 0318/0418 15010KT 9999 SCT020 OVC070 TX16/0412Z TN09/0403Z"
    },
    {
      "icao": "LBPD",
      "alert": "OK",
      "vis_m": 9999,
      "fzfg": false,
      "metar_trigger": false,
      "taf_trigger": false,
      "metar": "METAR LBPD 031700Z AUTO VRB02KT 9999 OVC092/// 08/01 Q1008 NOSIG",
      "taf": "TAF LBPD 031700Z 0318/0418 VRB03KT 9999 SCT020 BKN080"
    },
    {
      "icao": "LBSF",
      "alert": "OK",
      "vis_m": 9999,
      "fzfg": false,
      "metar_trigger": false,
      "taf_trigger": false,
      "metar": "METAR LBSF 031700Z AUTO 30009KT 9999 SCT045/// BKN054/// OVC075/// 05/03 Q1008 NOSIG",
      "taf": "TAF LBSF 031700Z 0318/0418 30012KT 9999 SCT025 BKN050"
    },
    {
      "icao": "LBWN",
      "alert": "OK",
      "vis_m": 9999,
      "fzfg": false,
      "metar_trigger": false,
      "taf_trigger": false,
      "metar": "METAR LBWN 031700Z AUTO 32014KT 270V350 9999 BKN048/// 10/03 Q1009 TEMPO RA",
      "taf": "TAF LBWN 031700Z 0318/0418 32010KT 9999 SCT045"
    },
    {
      "icao": "LCLK",
      "alert": "OK",
      "vis_m": 9999,
      "fzfg": false,
      "metar_trigger": false,
      "taf_trigger": false,
      "metar": "METAR LCLK 031700Z 31003KT 9999 FEW035 BKN050 13/08 Q1028 NOSIG",
      "taf": "TAF LCLK 031130Z 0312/0412 14010KT 9999 FEW030 SCT050"
    },
    {
      "icao": "LCPH",
      "alert": "OK",
      "vis_m": 9999,
      "fzfg": false,
      "metar_trigger": false,
      "taf_trigger": false,
      "metar": "METAR LCPH 031700Z 07005KT 010V080 9999 BKN045 14/07 Q1027 NOSIG",
      "taf": "TAF LCPH 031130Z 0312/0412 17010KT 9999 FEW030 SCT050"
    },
    {
      "icao": "LEAL",
      "alert": "OK",
      "vis_m": 9999,
      "fzfg": false,
      "metar_trigger": false,
      "taf_trigger": false,
      "metar": "METAR LEAL 031700Z 27003KT 9999 BKN035 15/13 Q1002 NOSIG",
      "taf": "TAF LEAL 031100Z 0312/0412 08009KT 9999 SCT020 TX17/0314Z TN11/0406Z"
    },
    {
      "icao": "LEBB",
      "alert": "OK",
      "vis_m": 9999,
      "fzfg": false,
      "metar_trigger": false,
      "taf_trigger": false,
      "metar": "METAR LEBB 031700Z 10003KT 060V150 9999 -RA SCT026 BKN037 07/04 Q1011 NOSIG",
      "taf": "TAF LEBB 031100Z 0312/0412 VRB03KT 9000 SCT010 BKN020 TX07/0312Z TNM00/0406Z"
    },
    {
      "icao": "LEBL",
      "alert": "OK",
      "vis_m": 9999,
      "fzfg": false,
      "metar_trigger": false,
      "taf_trigger": false,
      "metar": "METAR LEBL 031700Z 09009KT 9999 BKN027 11/07 Q1006 NOSIG",
      "taf": "TAF LEBL 031100Z 0312/0412 07010KT 9999 BKN025 TX12/0312Z TN08/0406Z"
    },
    {
      "icao": "LECH",
      "alert": "OK",
      "vis_m": 8000,
      "fzfg": false,
      "metar_trigger": false,
      "taf_trigger": false,
      "metar": "METAR LECH 031700Z AUTO 05007KT 8000 OVC013 10/09 Q1005",
      "taf": ""
    },
    {
      "icao": "LEMD",
      "alert": "OK",
      "vis_m": 9999,
      "fzfg": false,
      "metar_trigger": false,
      "taf_trigger": false,
      "metar": "METAR LEMD 031700Z VRB01KT CAVOK 12/07 Q1003 NOSIG",
      "taf": "TAF LEMD 031100Z 0312/0418 VRB03KT 9999 FEW045 TX12/0314Z TN03/0407Z"
    },
    {
      "icao": "LEMG",
      "alert": "OK",
      "vis_m": 9999,
      "fzfg": false,
      "metar_trigger": false,
      "taf_trigger": false,
      "metar": "METAR LEMG 031700Z 11004KT 9999 FEW020 BKN080 15/13 Q1001 NOSIG",
      "taf": "TAF LEMG 031100Z 0312/0412 13010KT 9999 FEW030 TX18/0314Z TN11/0407Z"
    },
    {
      "icao": "LEVC",
      "alert": "OK",
      "vis_m": 9999,
      "fzfg": false,
      "metar_trigger": false,
      "taf_trigger": false,
      "metar": "METAR LEVC 031700Z 07008KT 9999 FEW010 BKN036 13/11 Q1004 NOSIG",
      "taf": "TAF LEVC 031100Z 0312/0412 VRB05KT 9999 SCT020 TX15/0314Z TN08/0406Z"
    },
    {
      "icao": "LEXJ",
      "alert": "OK",
      "vis_m": 9000,
      "fzfg": false,
      "metar_trigger": false,
      "taf_trigger": false,
      "metar": "METAR LEXJ 031700Z 09006KT 040V130 9000 SCT024 BKN032 OVC042 07/04 Q1011",
      "taf": "TAF LEXJ 031400Z 0315/0415 08009KT 9000 SCT010 BKN020 TX08/0315Z TN03/0408Z"
    },
    {
      "icao": "LEZG",
      "alert": "OK",
      "vis_m": 7000,
      "fzfg": false,
      "metar_trigger": false,
      "taf_trigger": false,
      "metar": "METAR LEZG 031700Z 23004KT 7000 BKN070 08/07 Q1006 NOSIG",
      "taf": "TAF LEZG 031100Z 0312/0412 VRB04KT CAVOK TX10/0315Z TN02/0406Z"
    },
    {
      "icao": "LEZL",
      "alert": "OK",
      "vis_m": 8000,
      "fzfg": false,
      "metar_trigger": false,
      "taf_trigger": false,
      "metar": "METAR LEZL 031700Z 09008KT 8000 -RA NSC 15/14 Q1000 NOSIG",
      "taf": "TAF LEZL 031400Z 0315/0415 08011KT 9999 SCT030 TX19/0315Z TN09/0407Z"
    },
    {
      "icao": "LFBD",
      "alert": "OK",
      "vis_m": 9999,
      "fzfg": false,
      "metar_trigger": false,
      "taf_trigger": false,
      "metar": "METAR LFBD 031700Z AUTO VRB03KT CAVOK 00/M02 Q1012",
      "taf": ""
    },
    {
      "icao": "LFLL",
      "alert": "OK",
      "vis_m": 9999,
      "fzfg": false,
      "metar_trigger": false,
      "taf_trigger": false,
      "metar": "METAR LFLL 031700Z 03006KT CAVOK M00/M05 Q1010 NOSIG",
      "taf": "TAF LFLL 031700Z 0318/0424 35007KT CAVOK"
    },
    {
      "icao": "LFLS",
      "alert": "OK",
      "vis_m": 9999,
      "fzfg": false,
      "metar_trigger": false,
      "taf_trigger": false,
      "metar": "METAR LFLS 031700Z AUTO VRB03KT CAVOK M02/M08 Q1009 NOSIG",
      "taf": "TAF LFLS 031400Z 0315/0415 35009KT CAVOK"
    },
    {
      "icao": "LFMN",
      "alert": "OK",
      "vis_m": 9999,
      "fzfg": false,
      "metar_trigger": false,
      "taf_trigger": false,
      "metar": "METAR LFMN 031700Z 31005KT 9999 FEW033 BKN210 09/05 Q1002 NOSIG",
      "taf": "TAF LFMN 031400Z 0315/0421 VRB02KT 9999 FEW033"
    },
    {
      "icao": "LFOB",
      "alert": "OK",
      "vis_m": 9999,
      "fzfg": false,
      "metar_trigger": false,
      "taf_trigger": false,
      "metar": "METAR LFOB 031700Z AUTO 28004KT 9999 BKN042 BKN130 M00/M03 Q1010 NOSIG",
      "taf": "TAF LFOB 031700Z 0318/0418 28004KT CAVOK"
    },
    {
      "icao": "LFPO",
      "alert": "OK",
      "vis_m": 9999,
      "fzfg": false,
      "metar_trigger": false,
      "taf_trigger": false,
      "metar": "METAR LFPO 031700Z AUTO 29004KT CAVOK 01/M05 Q1011",
      "taf": ""
    },
    {
      "icao": "LFSB",
      "alert": "OK",
      "vis_m": 9999,
      "fzfg": false,
      "metar_trigger": false,
      "taf_trigger": false,
      "metar": "METAR LFSB 031700Z AUTO 25010KT 9999 BKN027 OVC046 00/M04 Q1009 TEMPO FEW020TCU",
      "taf": "TAF LFSB 031700Z 0318/0418 27012KT 9999 SCT030 BKN090"
    },
    {
      "icao": "LGAV",
      "alert": "OK",
      "vis_m": 9999,
      "fzfg": false,
      "metar_trigger": false,
      "taf_trigger": false,
      "metar": "METAR LGAV 031650Z 22014KT 9999 FEW025 17/09 Q1016 NOSIG",
      "taf": "TAF LGAV 031700Z 0318/0418 21019KT 9999 FEW025 SCT060"
    },
    {
      "icao": "LGTS",
      "alert": "OK",
      "vis_m": 9999,
      "fzfg": false,
      "metar_trigger": false,
      "taf_trigger": false,
      "metar": "METAR LGTS 031650Z 28005KT 9999 SCT025 08/05 Q1011 NOSIG",
      "taf": "TAF LGTS 031700Z 0318/0418 VRB03KT 9999 FEW025"
    },
    {
      "icao": "LHBP",
      "alert": "OK",
      "vis_m": 9999,
      "fzfg": false,
      "metar_trigger": false,
      "taf_trigger": false,
      "metar": "METAR LHBP 031700Z 19002KT CAVOK M01/M06 Q1008 NOSIG",
      "taf": "TAF LHBP 031115Z 0312/0412 30014KT CAVOK"
    },
    {
      "icao": "LHDC",
      "alert": "OK",
      "vis_m": 9999,
      "fzfg": false,
      "metar_trigger": false,
      "taf_trigger": false,
      "metar": "METAR LHDC 031645Z AUTO 18003KT 140V210 CAVOK M02/M04 Q1009 NOSIG",
      "taf": "TAF LHDC 031415Z 0315/0324 25010KT CAVOK"
    },
    {
      "icao": "LIBD",
      "alert": "OK",
      "vis_m": 9999,
      "fzfg": false,
      "metar_trigger": false,
      "taf_trigger": false,
      "metar": "METAR LIBD 031650Z 20011KT CAVOK 16/10 Q1006",
      "taf": "TAF LIBD 031700Z 0318/0418 19010KT 9999 FEW040"
    },
    {
      "icao": "LIBG",
      "alert": "OK",
      "vis_m": 9999,
      "fzfg": false,
      "metar_trigger": false,
      "taf_trigger": false,
      "metar": "METAR LIBG 031650Z 21006KT CAVOK 17/11 Q1008",
      "taf": "TAF LIBG 031700Z 0318/0403 21006KT 9999 FEW040"
    },
    {
      "icao": "LIBP",
      "alert": "OK",
      "vis_m": 6000,
      "fzfg": false,
      "metar_trigger": false,
      "taf_trigger": false,
      "metar": "METAR LIBP 031650Z AUTO 06003KT 6000 OVC100/// 11/10 Q1004",
      "taf": "TAF LIBP 031700Z 0318/0418 VRB05KT 9999 BKN070"
    },
    {
      "icao": "LIBR",
      "alert": "OK",
      "vis_m": 9999,
      "fzfg": false,
      "metar_trigger": false,
      "taf_trigger": false,
      "metar": "METAR LIBR 031650Z 20013KT CAVOK 16/11 Q1008",
      "taf": "TAF LIBR 031700Z 0318/0418 19012KT 9999 FEW030"
    },
    {
      "icao": "LICA",
      "alert": "OK",
      "vis_m": 9999,
      "fzfg": false,
      "metar_trigger": false,
      "taf_trigger": false,
      "metar": "METAR LICA 031650Z AUTO 09004KT 9999 NCD 12/09 Q1010",
      "taf": "TAF LICA 031700Z 0318/0418 07010KT 9999 SCT040"
    },
    {
      "icao": "LICC",
      "alert": "OK",
      "vis_m": 9999,
      "fzfg": false,
      "metar_trigger": false,
      "taf_trigger": false,
      "metar": "METAR LICC 031650Z 25012KT CAVOK 15/11 Q1011",
      "taf": "TAF LICC 031100Z 0312/0412 26015KT 9999 SCT030"
    },
    {
      "icao": "LICJ",
      "alert": "OK",
      "vis_m": 9999,
      "fzfg": false,
      "metar_trigger": false,
      "taf_trigger": false,
      "metar": "METAR LICJ 031650Z AUTO 21018KT 9999 NCD 17/07 Q1008",
      "taf": "TAF LICJ 031100Z 0312/0412 19015G30KT CAVOK"
    },
    {
      "icao": "LIMC",
      "alert": "OK",
      "vis_m": 200,
      "fzfg": true,
      "metar_trigger": false,
      "taf_trigger": false,
      "metar": "METAR LIMC 031650Z VRB01KT 0200 R35R/0275N R17L/0275N R35L/0325N FZFG OVC001 M00/M01 Q1003 NOSIG",
      "taf": "TAF LIMC 031700Z 0318/0424 VRB04KT 6000 BKN014"
    },
    {
      "icao": "LIME",
      "alert": "CRITICAL",
      "vis_m": 100,
      "fzfg": true,
      "metar_trigger": true,
      "taf_trigger": false,
      "metar": "METAR LIME 031650Z VRB01KT 0100 R28/0450N FZFG VV001 M00/M00 Q1003 NOSIG",
      "taf": "TAF LIME 031700Z 0318/0418 VRB04KT 3000 BR BKN015"
    },
    {
      "icao": "LIMF",
      "alert": "OK",
      "vis_m": 9999,
      "fzfg": false,
      "metar_trigger": false,
      "taf_trigger": false,
      "metar": "METAR LIMF 031650Z 01004KT CAVOK 04/M01 Q1003",
      "taf": "TAF LIMF 031700Z 0318/0418 VRB04KT CAVOK"
    },
    {
      "icao": "LIMJ",
      "alert": "OK",
      "vis_m": 9999,
      "fzfg": false,
      "metar_trigger": false,
      "taf_trigger": false,
      "metar": "METAR LIMJ 031650Z 04010KT 9999 FEW040 09/M02 Q1002",
      "taf": "TAF LIMJ 031700Z 0318/0418 03015KT 9999 FEW030"
    },
    {
      "icao": "LIPE",
      "alert": "OK",
      "vis_m": 3000,
      "fzfg": false,
      "metar_trigger": false,
      "taf_trigger": false,
      "metar": "METAR LIPE 031650Z 25003KT 220V300 3000 BR FEW003 BKN004 02/02 Q1004",
      "taf": "TAF LIPE 031700Z 0318/0418 VRB05KT 2000 BR OVC008"
    },
    {
      "icao": "LIPH",
      "alert": "OK",
      "vis_m": 9999,
      "fzfg": false,
      "metar_trigger": false,
      "taf_trigger": false,
      "metar": "METAR LIPH 031650Z VRB02KT CAVOK 05/01 Q1003",
      "taf": "TAF LIPH 031700Z 0318/0418 VRB05KT 9000 SCT030"
    },
    {
      "icao": "LIPQ",
      "alert": "OK",
      "vis_m": 9999,
      "fzfg": false,
      "metar_trigger": false,
      "taf_trigger": false,
      "metar": "METAR LIPQ 031650Z AUTO VRB02KT 9999 OVC032/// 07/M00 Q1004",
      "taf": "TAF LIPQ 031700Z 0318/0418 VRB05KT 9999 SCT050"
    },
    {
      "icao": "LIPR",
      "alert": "OK",
      "vis_m": 300,
      "fzfg": false,
      "metar_trigger": false,
      "taf_trigger": false,
      "metar": "METAR LIPR 031650Z 31003KT 0300 R30/0800N FG OVC002 03/03 Q1004",
      "taf": "TAF LIPR 031700Z 0318/0418 VRB05KT 1500 BR OVC006"
    },
    {
      "icao": "LIPX",
      "alert": "OK",
      "vis_m": 2000,
      "fzfg": false,
      "metar_trigger": false,
      "taf_trigger": false,
      "metar": "METAR LIPX 031650Z 21004KT 2000 BR BKN004 02/01 Q1004",
      "taf": "TAF LIPX 031700Z 0318/0418 VRB04KT 2000 BR SCT008"
    },
    {
      "icao": "LIPY",
      "alert": "OK",
      "vis_m": 1900,
      "fzfg": false,
      "metar_trigger": false,
      "taf_trigger": false,
      "metar": "METAR LIPY 031650Z AUTO 19002KT 1900 BR SCT055/// 06/06 Q1004",
      "taf": "TAF LIPY 031700Z 0318/0418 VRB05KT 2000 BR FEW008 SCT040"
    },
    {
      "icao": "LIPZ",
      "alert": "OK",
      "vis_m": 5000,
      "fzfg": false,
      "metar_trigger": false,
      "taf_trigger": false,
      "metar": "METAR LIPZ 031650Z 24006KT 190V280 5000 BR FEW045 03/02 Q1004 NOSIG",
      "taf": "TAF LIPZ 031700Z 0318/0424 VRB05KT 8000 SCT030"
    },
    {
      "icao": "LIRF",
      "alert": "OK",
      "vis_m": 9999,
      "fzfg": false,
      "metar_trigger": false,
      "taf_trigger": false,
      "metar": "METAR LIRF 031650Z 22010KT 9999 -RA SCT030 BKN040 15/12 Q1005 NOSIG",
      "taf": "TAF LIRF 031700Z 0318/0424 24015KT 9999 SCT030"
    },
    {
      "icao": "LIRN",
      "alert": "OK",
      "vis_m": 9999,
      "fzfg": false,
      "metar_trigger": false,
      "taf_trigger": false,
      "metar": "METAR LIRN 031650Z 21008KT 9999 SCT030 SCT050 15/13 Q1007 NOSIG",
      "taf": "TAF LIRN 031700Z 0318/0418 22014KT 9999 SCT030"
    },
    {
      "icao": "LIRP",
      "alert": "OK",
      "vis_m": 9999,
      "fzfg": false,
      "metar_trigger": false,
      "taf_trigger": false,
      "metar": "METAR LIRP 031645Z 24011KT 9999 SCT040 11/05 Q1003 NOSIG",
      "taf": "TAF LIRP 031700Z 0318/0418 22012KT 9999 FEW020 SCT040"
    },
    {
      "icao": "LIRZ",
      "alert": "OK",
      "vis_m": 9999,
      "fzfg": false,
      "metar_trigger": false,
      "taf_trigger": false,
      "metar": "METAR LIRZ 031650Z AUTO 20006KT 170V230 9999 BKN024/// 12/08 Q1003",
      "taf": "TAF LIRZ 031700Z 0318/0418 19013KT 9999 SCT030"
    },
    {
      "icao": "LJLJ",
      "alert": "OK",
      "vis_m": 9999,
      "fzfg": false,
      "metar_trigger": false,
      "taf_trigger": false,
      "metar": "METAR LJLJ 031700Z 14004KT 110V190 9999 FEW027 BKN046 01/M01 Q1005 NOSIG",
      "taf": "TAF LJLJ 031700Z 0318/0418 VRB02KT 9999 FEW025 BKN040"
    },
    {
      "icao": "LKMT",
      "alert": "OK",
      "vis_m": 9999,
      "fzfg": false,
      "metar_trigger": false,
      "taf_trigger": false,
      "metar": "METAR LKMT 031700Z 21014KT 9999 FEW045 M00/M06 Q1003 NOSIG",
      "taf": "TAF LKMT 031700Z 0318/0418 21012KT CAVOK"
    },
    {
      "icao": "LKPR",
      "alert": "OK",
      "vis_m": 9999,
      "fzfg": false,
      "metar_trigger": false,
      "taf_trigger": false,
      "metar": "METAR LKPR 031700Z 21017KT 9999 -SHSN FEW017 M02/M06 Q1001 TEMPO 5000 SHSN BKN017",
      "taf": "TAF LKPR 031700Z 0318/0424 22016KT 9999 BKN030"
    },
    {
      "icao": "LLBG",
      "alert": "OK",
      "vis_m": 9999,
      "fzfg": false,
      "metar_trigger": false,
      "taf_trigger": false,
      "metar": "METAR LLBG 031720Z 02007KT CAVOK 13/07 Q1026 NOSIG",
      "taf": "TAF LLBG 031705Z 0318/0418 05005KT CAVOK"
    },
    {
      "icao": "LMML",
      "alert": "OK",
      "vis_m": 9999,
      "fzfg": false,
      "metar_trigger": false,
      "taf_trigger": false,
      "metar": "METAR LMML 031715Z 20011KT 160V230 CAVOK 15/11 Q1014 NOSIG",
      "taf": "TAF LMML 031700Z 0318/0418 21015KT 9999 FEW020"
    },
    {
      "icao": "LOWW",
      "alert": "OK",
      "vis_m": 9999,
      "fzfg": false,
      "metar_trigger": false,
      "taf_trigger": false,
      "metar": "METAR LOWW 031650Z 17010KT CAVOK M01/M03 Q1006 NOSIG",
      "taf": "TAF LOWW 031715Z 0318/0424 18008KT 9999 FEW050 TX02/0413Z TNM05/0424Z"
    },
    {
      "icao": "LPFR",
      "alert": "OK",
      "vis_m": 8000,
      "fzfg": false,
      "metar_trigger": false,
      "taf_trigger": false,
      "metar": "METAR LPFR 031700Z 13010KT 8000 FEW012 FEW018TCU SCT035 16/14 Q0996",
      "taf": "TAF LPFR 031700Z 0318/0418 10010KT 9999 SCT015 SCT030"
    },
    {
      "icao": "LPMA",
      "alert": "OK",
      "vis_m": 9999,
      "fzfg": false,
      "metar_trigger": false,
      "taf_trigger": false,
      "metar": "METAR LPMA 031700Z 33012KT 290V020 9999 SCT015 20/11 Q1001",
      "taf": "TAF LPMA 031700Z 0318/0418 34010KT 9999 SCT015"
    },
    {
      "icao": "LPPR",
      "alert": "OK",
      "vis_m": 9999,
      "fzfg": false,
      "metar_trigger": false,
      "taf_trigger": false,
      "metar": "METAR LPPR 031700Z 06006KT 040V100 CAVOK 16/09 Q1000",
      "taf": "TAF LPPR 031700Z 0318/0418 08007KT 9999 SCT045"
    },
    {
      "icao": "LPPS",
      "alert": "OK",
      "vis_m": 9999,
      "fzfg": false,
      "metar_trigger": false,
      "taf_trigger": false,
      "metar": "METAR LPPS 031700Z 31022KT 9999 FEW014 18/14 Q1000",
      "taf": "TAF LPPS 031700Z 0318/0424 31020KT 9999 SCT015"
    },
    {
      "icao": "LPPT",
      "alert": "OK",
      "vis_m": 9999,
      "fzfg": false,
      "metar_trigger": false,
      "taf_trigger": false,
      "metar": "METAR LPPT 031700Z 10008KT 9999 -SHRA FEW006 BKN012 FEW020CB 14/13 Q0997",
      "taf": "TAF LPPT 031700Z 0318/0424 10010KT 9999 SCT012 SCT018"
    },
    {
      "icao": "LQBK",
      "alert": "OK",
      "vis_m": 6000,
      "fzfg": false,
      "metar_trigger": false,
      "taf_trigger": false,
      "metar": "METAR LQBK 031700Z 32006KT 6000 FEW005 SCT010 00/00 Q1007 NOSIG",
      "taf": "TAF LQBK 031700Z 0318/0418 06005KT 9999 SCT015 BKN040 TX01/0411Z TNM01/0418Z"
    },
    {
      "icao": "LQSA",
      "alert": "OK",
      "vis_m": 4000,
      "fzfg": false,
      "metar_trigger": false,
      "taf_trigger": false,
      "metar": "METAR LQSA 031700Z VRB02KT 4000 -RA BR SCT006 BKN030 01/01 Q1006 NOSIG",
      "taf": ""
    },
    {
      "icao": "LQTZ",
      "alert": "OK",
      "vis_m": 9999,
      "fzfg": false,
      "metar_trigger": false,
      "taf_trigger": false,
      "metar": "METAR LQTZ 031700Z 12009KT 9999 FEW025 SCT040 BKN055 02/01 Q1007",
      "taf": "TAF LQTZ 031700Z 0318/0418 27005KT 8000 SCT015 BKN045 TX02/0318Z TNM01/0418Z"
    },
    {
      "icao": "LRBC",
      "alert": "OK",
      "vis_m": 9999,
      "fzfg": false,
      "metar_trigger": false,
      "taf_trigger": false,
      "metar": "METAR LRBC 031700Z 26008KT CAVOK 02/M05 Q1008",
      "taf": "TAF LRBC 031400Z 0315/0324 27010KT CAVOK"
    },
    {
      "icao": "LRBS",
      "alert": "OK",
      "vis_m": 9999,
      "fzfg": false,
      "metar_trigger": false,
      "taf_trigger": false,
      "metar": "METAR LRBS 031700Z 26004KT 240V300 CAVOK 03/02 Q1010 NOSIG",
      "taf": "TAF LRBS 031100Z 0312/0412 VRB04KT 9999 BKN045"
    },
    {
      "icao": "LRBV",
      "alert": "OK",
      "vis_m": 9999,
      "fzfg": false,
      "metar_trigger": false,
      "taf_trigger": false,
      "metar": "METAR LRBV 031700Z AUTO 00000KT 9999 BKN012/// M00/M02 Q1009",
      "taf": "TAF LRBV 031400Z 0315/0324 35008KT 9999 BKN010 BKN020"
    },
    {
      "icao": "LRCL",
      "alert": "OK",
      "vis_m": 1500,
      "fzfg": false,
      "metar_trigger": false,
      "taf_trigger": false,
      "metar": "METAR LRCL 031700Z 12002KT 1500 R25/1200U BR FEW003 M05/M06 Q1009",
      "taf": "TAF LRCL 031400Z 0315/0324 VRB04KT 9999 SCT015 BKN045"
    },
    {
      "icao": "LRCV",
      "alert": "OK",
      "vis_m": 8000,
      "fzfg": false,
      "metar_trigger": false,
      "taf_trigger": false,
      "metar": "METAR LRCV 031700Z 22004KT 180V260 8000 NSC 02/01 Q1010",
      "taf": "TAF LRCV 031400Z 0315/0324 29006KT 3000 BR SCT005 BKN040"
    },
    {
      "icao": "LRIA",
      "alert": "OK",
      "vis_m": 9999,
      "fzfg": false,
      "metar_trigger": false,
      "taf_trigger": false,
      "metar": "METAR LRIA 031700Z 27007KT CAVOK 04/M04 Q1007",
      "taf": "TAF LRIA 031400Z 0315/0324 VRB04KT CAVOK"
    },
    {
      "icao": "LROP",
      "alert": "OK",
      "vis_m": 9999,
      "fzfg": false,
      "metar_trigger": false,
      "taf_trigger": false,
      "metar": "METAR LROP 031700Z 25006KT CAVOK 02/02 Q1010 NOSIG",
      "taf": "TAF LROP 031100Z 0312/0412 VRB04KT 9999 BKN045"
    },
    {
      "icao": "LRSB",
      "alert": "OK",
      "vis_m": 9999,
      "fzfg": false,
      "metar_trigger": false,
      "taf_trigger": false,
      "metar": "METAR LRSB 031700Z 12004KT CAVOK M01/M02 Q1009 NOSIG",
      "taf": "TAF LRSB 031100Z 0312/0412 VRB04KT 9999 SCT020 BKN050"
    },
    {
      "icao": "LRSM",
      "alert": "OK",
      "vis_m": 9999,
      "fzfg": false,
      "metar_trigger": false,
      "taf_trigger": false,
      "metar": "METAR LRSM 031700Z AUTO 20007KT 9999 NCD M01/M04 Q1009",
      "taf": ""
    },
    {
      "icao": "LRSV",
      "alert": "OK",
      "vis_m": 9999,
      "fzfg": false,
      "metar_trigger": false,
      "taf_trigger": false,
      "metar": "METAR LRSV 031700Z 27011KT CAVOK 00/M05 Q1005",
      "taf": "TAF LRSV 031400Z 0315/0324 26010KT CAVOK"
    },
    {
      "icao": "LRTM",
      "alert": "OK",
      "vis_m": 6000,
      "fzfg": false,
      "metar_trigger": false,
      "taf_trigger": false,
      "metar": "METAR LRTM 031700Z 06002KT 6000 FEW004 SCT012 M01/M02 Q1010",
      "taf": "TAF LRTM 031400Z 0315/0324 VRB04KT 9999 SCT010 BKN025"
    },
    {
      "icao": "LRTR",
      "alert": "OK",
      "vis_m": 6000,
      "fzfg": false,
      "metar_trigger": false,
      "taf_trigger": false,
      "metar": "METAR LRTR 031700Z 14003KT 6000 NSC M00/M00 Q1010",
      "taf": "TAF LRTR 031100Z 0312/0412 30008KT 9999 SCT005 OVC015"
    },
    {
      "icao": "LTAC",
      "alert": "OK",
      "vis_m": 7000,
      "fzfg": false,
      "metar_trigger": false,
      "taf_trigger": false,
      "metar": "METAR LTAC 031650Z VRB02KT 7000 BKN035 BKN080 M01/M06 Q1022 NOSIG RMK RWY21C 00000KT RWY03L 00000KT RWY21R 00000KT RWY03R 00000KT RWY21L VRB01KT",
      "taf": "TAF LTAC 031640Z 0318/0418 VRB02KT 8000 SCT035 BKN100"
    },
    {
      "icao": "LTFM",
      "alert": "OK",
      "vis_m": 9999,
      "fzfg": false,
      "metar_trigger": false,
      "taf_trigger": false,
      "metar": "METAR LTFM 031650Z 21028KT 9999 SCT035 BKN080 13/07 Q1012 NOSIG RMK RWY17L 21027G42KT RWY34L 20025G35KT RWY16R 21025G35KT RWY36 21027G37KT RWY18 21030G40KT",
      "taf": "TAF LTFM 031640Z 0318/0424 21025G37KT 9999 -SHRA SCT035 BKN080"
    },
    {
      "icao": "LUKK",
      "alert": "OK",
      "vis_m": 9999,
      "fzfg": false,
      "metar_trigger": false,
      "taf_trigger": false,
      "metar": "METAR LUKK 031700Z 27009KT CAVOK 01/M01 Q1006 NOSIG",
      "taf": "TAF LUKK 031717Z 0318/0418 VRB06KT CAVOK"
    },
    {
      "icao": "LWOH",
      "alert": "OK",
      "vis_m": 9999,
      "fzfg": false,
      "metar_trigger": false,
      "taf_trigger": false,
      "metar": "METAR LWOH 031720Z 13011KT 090V150 9999 SCT010 SCT035TCU BKN045 11/06 Q1010",
      "taf": "TAF LWOH 031125Z 0312/0412 14012KT 9999 SCT020 OVC035"
    },
    {
      "icao": "LWSK",
      "alert": "OK",
      "vis_m": 9999,
      "fzfg": false,
      "metar_trigger": false,
      "taf_trigger": false,
      "metar": "METAR LWSK 031720Z 10004KT 060V160 9999 FEW040 BKN060 08/04 Q1008 NOSIG",
      "taf": "TAF LWSK 031450Z 0315/0415 VRB02KT 9999 FEW040 BKN060"
    },
    {
      "icao": "LYBE",
      "alert": "OK",
      "vis_m": 9999,
      "fzfg": false,
      "metar_trigger": false,
      "taf_trigger": false,
      "metar": "METAR LYBE 031700Z 12005KT 9999 FEW007 01/M00 Q1010 NOSIG",
      "taf": "TAF LYBE 031700Z 0318/0418 14008KT 9999 SCT040 TX02/0405Z TNM01/0418Z"
    },
    {
      "icao": "LYNI",
      "alert": "OK",
      "vis_m": 9999,
      "fzfg": false,
      "metar_trigger": false,
      "taf_trigger": false,
      "metar": "METAR LYNI 031700Z VRB01KT 9999 FEW013 BKN017 OVC040 02/01 Q1011 NOSIG",
      "taf": "TAF LYNI 031700Z 0318/0418 02006KT 9999 SCT017 BKN035 OVC070 TX13/0411Z TN00/0418Z"
    },
    {
      "icao": "LYPG",
      "alert": "OK",
      "vis_m": 9999,
      "fzfg": false,
      "metar_trigger": false,
      "taf_trigger": false,
      "metar": "METAR LYPG 031700Z 12006KT 090V150 9999 -RA FEW020 SCT034 OVC070 12/11 Q1008 NOSIG",
      "taf": "TAF LYPG 031700Z 0318/0418 15007KT 9999 FEW020 BKN040 OVC070 TX11/0413Z TN08/0406Z"
    },
    {
      "icao": "LZIB",
      "alert": "OK",
      "vis_m": 9999,
      "fzfg": false,
      "metar_trigger": false,
      "taf_trigger": false,
      "metar": "METAR LZIB 031700Z 18011KT CAVOK 01/M02 Q1006 NOSIG",
      "taf": "TAF LZIB 031715Z 0318/0418 19009KT 9999 FEW045"
    },
    {
      "icao": "LZKZ",
      "alert": "OK",
      "vis_m": 9999,
      "fzfg": false,
      "metar_trigger": false,
      "taf_trigger": false,
      "metar": "METAR LZKZ 031700Z 23011KT CAVOK 00/M08 Q1006 NOSIG",
      "taf": "TAF LZKZ 031715Z 0318/0418 22007KT CAVOK"
    },
    {
      "icao": "LZTT",
      "alert": "OK",
      "vis_m": 9999,
      "fzfg": false,
      "metar_trigger": false,
      "taf_trigger": false,
      "metar": "METAR LZTT 031700Z 25011KT CAVOK M04/M11 Q1003 NOSIG",
      "taf": "TAF LZTT 031715Z 0318/0418 26011KT CAVOK"
    },
    {
      "icao": "OEJN",
      "alert": "OK",
      "vis_m": 9999,
      "fzfg": false,
      "metar_trigger": false,
      "taf_trigger": false,
      "metar": "METAR OEJN 031700Z 34010KT CAVOK 26/16 Q1016 NOSIG",
      "taf": "TAF OEJN 031100Z 0312/0418 31010KT CAVOK"
    },
    {
      "icao": "OEMA",
      "alert": "OK",
      "vis_m": 9999,
      "fzfg": false,
      "metar_trigger": false,
      "taf_trigger": false,
      "metar": "METAR OEMA 031700Z 35003KT CAVOK 23/02 Q1021 NOSIG",
      "taf": "TAF OEMA 031100Z 0312/0418 07008KT CAVOK"
    },
    {
      "icao": "OJAI",
      "alert": "OK",
      "vis_m": 5000,
      "fzfg": false,
      "metar_trigger": false,
      "taf_trigger": false,
      "metar": "METAR OJAI 031700Z 06005KT 5000 HZ NSC 07/02 Q1029 NOSIG",
      "taf": "TAF OJAI 031700Z 0318/0424 12006KT 6000 NSC"
    },
    {
      "icao": "OMAA",
      "alert": "OK",
      "vis_m": 9999,
      "fzfg": false,
      "metar_trigger": false,
      "taf_trigger": false,
      "metar": "METAR OMAA 031700Z 28006KT CAVOK 21/17 Q1019 NOSIG",
      "taf": "TAF OMAA 031700Z 0318/0500 25005KT 8000 NSC"
    },
    {
      "icao": "OMDB",
      "alert": "OK",
      "vis_m": 9999,
      "fzfg": false,
      "metar_trigger": false,
      "taf_trigger": false,
      "metar": "METAR OMDB 031700Z 25005KT CAVOK 23/16 Q1019 NOSIG",
      "taf": "TAF OMDB 031700Z 0318/0500 18005KT 8000 NSC"
    },
    {
      "icao": "UAAA",
      "alert": "CRITICAL",
      "vis_m": 50,
      "fzfg": true,
      "metar_trigger": true,
      "taf_trigger": false,
      "metar": "METAR UAAA 031700Z VRB01MPS 0050 R23L/0300N FZFG VV001 M00/M01 Q1023 NOSIG RMK QBB040",
      "taf": "TAF UAAA 031702Z 0318/0418 16003MPS 0200 FZFG VV001 TX05/0409Z TNM03/0402Z"
    },
    {
      "icao": "UBBB",
      "alert": "OK",
      "vis_m": 9999,
      "fzfg": false,
      "metar_trigger": false,
      "taf_trigger": false,
      "metar": "METAR UBBB 031700Z 17016KT CAVOK 04/01 Q1024 NOSIG",
      "taf": "TAF UBBB 031705Z 0318/0418 18018G28KT CAVOK TX07/0409Z TN01/0401Z"
    },
    {
      "icao": "UDSG",
      "alert": "OK",
      "vis_m": 6000,
      "fzfg": false,
      "metar_trigger": false,
      "taf_trigger": false,
      "metar": "METAR UDSG 031700Z 04002KT 6000 NSC M22/M24 Q1027 NOSIG",
      "taf": "TAF UDSG 031658Z 0318/0418 VRB06KT 5000 BR FEW040"
    },
    {
      "icao": "UDYZ",
      "alert": "OK",
      "vis_m": 9999,
      "fzfg": false,
      "metar_trigger": false,
      "taf_trigger": false,
      "metar": "METAR UDYZ 031700Z 03004KT 9999 NSC M11/M14 Q1030 NOSIG",
      "taf": "TAF UDYZ 031700Z 0318/0418 VRB04KT 6000 NSC"
    },
    {
      "icao": "UGKO",
      "alert": "OK",
      "vis_m": 9999,
      "fzfg": false,
      "metar_trigger": false,
      "taf_trigger": false,
      "metar": "METAR UGKO 031700Z 09007KT CAVOK 00/M06 Q1023 NOSIG",
      "taf": "TAF UGKO 031700Z 0318/0418 08008KT CAVOK TX08/0412Z TNM02/0402Z"
    }
  ]
}