{
  "ts_utc": "2026-07-12T15:28:37Z",
  "threshold_m": 150,
  "source": "stations_override.txt (ICAO list) + aviationweather.gov (METAR/TAF raw)",
  "station_count": 159,
  "stations": [
    {
      "icao": "BIKF",
      "alert": "OK",
      "vis_m": 9999,
      "fzfg": false,
      "metar_trigger": false,
      "taf_trigger": false,
      "metar": "METAR BIKF 121500Z 17026KT 9999 BKN010 OVC022 12/11 Q1020",
      "taf": "TAF BIKF 121352Z 1215/1315 17025G35KT 9999 -DZ BKN007 OVC013 TX12/1215Z TN10/1306Z"
    },
    {
      "icao": "BKPR",
      "alert": "OK",
      "vis_m": null,
      "fzfg": false,
      "metar_trigger": false,
      "taf_trigger": false,
      "metar": "",
      "taf": "TAF BKPR 121130Z 1212/1312 02008KT 9999 SCT050"
    },
    {
      "icao": "EBCI",
      "alert": "OK",
      "vis_m": 9999,
      "fzfg": false,
      "metar_trigger": false,
      "taf_trigger": false,
      "metar": "METAR EBCI 121520Z 04012KT CAVOK 31/12 Q1021 NOSIG",
      "taf": "TAF EBCI 121115Z 1212/1318 06012KT CAVOK"
    },
    {
      "icao": "EDDB",
      "alert": "OK",
      "vis_m": 9999,
      "fzfg": false,
      "metar_trigger": false,
      "taf_trigger": false,
      "metar": "METAR EDDB 121520Z AUTO 35010KT CAVOK 31/14 Q1019 NOSIG",
      "taf": "TAF EDDB 121100Z 1212/1312 35013G23KT CAVOK"
    },
    {
      "icao": "EDDH",
      "alert": "OK",
      "vis_m": 9999,
      "fzfg": false,
      "metar_trigger": false,
      "taf_trigger": false,
      "metar": "METAR EDDH 121520Z AUTO 32012KT CAVOK 27/10 Q1022 NOSIG",
      "taf": "TAF EDDH 121100Z 1212/1318 32008KT CAVOK"
    },
    {
      "icao": "EDDK",
      "alert": "OK",
      "vis_m": 9999,
      "fzfg": false,
      "metar_trigger": false,
      "taf_trigger": false,
      "metar": "METAR EDDK 121520Z AUTO 03006KT 330V080 CAVOK 32/14 Q1021 NOSIG",
      "taf": "TAF EDDK 121100Z 1212/1318 04007KT CAVOK"
    },
    {
      "icao": "EDDN",
      "alert": "OK",
      "vis_m": 9999,
      "fzfg": false,
      "metar_trigger": false,
      "taf_trigger": false,
      "metar": "METAR EDDN 121520Z AUTO 03008KT 340V090 CAVOK 28/11 Q1021 NOSIG",
      "taf": "TAF EDDN 121100Z 1212/1312 02007KT CAVOK"
    },
    {
      "icao": "EDDS",
      "alert": "OK",
      "vis_m": 9999,
      "fzfg": false,
      "metar_trigger": false,
      "taf_trigger": false,
      "metar": "METAR EDDS 121520Z AUTO 08008KT 050V130 CAVOK 31/06 Q1020 NOSIG",
      "taf": "TAF EDDS 121100Z 1212/1312 05010KT CAVOK"
    },
    {
      "icao": "EDFH",
      "alert": "OK",
      "vis_m": 9999,
      "fzfg": false,
      "metar_trigger": false,
      "taf_trigger": false,
      "metar": "METAR EDFH 121520Z 10007KT 020V170 CAVOK 30/10 Q1022",
      "taf": "TAF EDFH 121100Z 1212/1312 09008KT CAVOK"
    },
    {
      "icao": "EDJA",
      "alert": "OK",
      "vis_m": 9999,
      "fzfg": false,
      "metar_trigger": false,
      "taf_trigger": false,
      "metar": "METAR EDJA 121520Z 07006KT 030V140 CAVOK 28/11 Q1022",
      "taf": "TAF EDJA 121400Z 1215/1224 06008KT CAVOK"
    },
    {
      "icao": "EDLW",
      "alert": "OK",
      "vis_m": 9999,
      "fzfg": false,
      "metar_trigger": false,
      "taf_trigger": false,
      "metar": "METAR EDLW 121520Z 02007KT 290V060 CAVOK 30/13 Q1022",
      "taf": "TAF EDLW 121100Z 1212/1312 03006KT CAVOK"
    },
    {
      "icao": "EDNY",
      "alert": "OK",
      "vis_m": 9999,
      "fzfg": false,
      "metar_trigger": false,
      "taf_trigger": false,
      "metar": "METAR EDNY 121520Z 03007KT 330V110 CAVOK 30/09 Q1019",
      "taf": "TAF EDNY 121400Z 1215/1224 03008KT CAVOK"
    },
    {
      "icao": "EDSB",
      "alert": "OK",
      "vis_m": 9999,
      "fzfg": false,
      "metar_trigger": false,
      "taf_trigger": false,
      "metar": "METAR EDSB 121520Z 01013KT 340V040 CAVOK 33/09 Q1018",
      "taf": "TAF EDSB 121100Z 1212/1312 03013KT CAVOK"
    },
    {
      "icao": "EETN",
      "alert": "OK",
      "vis_m": 9999,
      "fzfg": false,
      "metar_trigger": false,
      "taf_trigger": false,
      "metar": "METAR EETN 121520Z 34006KT 320V020 CAVOK 25/18 Q1016 NOSIG",
      "taf": "TAF EETN 121130Z 1212/1312 35010KT CAVOK"
    },
    {
      "icao": "EFTU",
      "alert": "OK",
      "vis_m": 9999,
      "fzfg": false,
      "metar_trigger": false,
      "taf_trigger": false,
      "metar": "METAR EFTU 121520Z AUTO 04007KT 010V080 CAVOK 22/19 Q1019",
      "taf": "TAF EFTU 121431Z 1215/1315 01008KT 9999 SCT030CB"
    },
    {
      "icao": "EGBB",
      "alert": "OK",
      "vis_m": 9999,
      "fzfg": false,
      "metar_trigger": false,
      "taf_trigger": false,
      "metar": "METAR EGBB 121520Z 05015KT 030V090 CAVOK 27/08 Q1026",
      "taf": "TAF EGBB 121053Z 1212/1312 07012KT CAVOK"
    },
    {
      "icao": "EGGP",
      "alert": "OK",
      "vis_m": 9999,
      "fzfg": false,
      "metar_trigger": false,
      "taf_trigger": false,
      "metar": "METAR EGGP 121520Z 11014KT CAVOK 27/09 Q1026",
      "taf": "TAF EGGP 121055Z 1212/1312 10012KT CAVOK"
    },
    {
      "icao": "EGGW",
      "alert": "OK",
      "vis_m": 9999,
      "fzfg": false,
      "metar_trigger": false,
      "taf_trigger": false,
      "metar": "METAR EGGW 121520Z AUTO 07016KT 030V110 9999 NCD 28/10 Q1025",
      "taf": "TAF EGGW 121057Z 1212/1312 05012KT CAVOK"
    },
    {
      "icao": "EGKK",
      "alert": "OK",
      "vis_m": 9999,
      "fzfg": false,
      "metar_trigger": false,
      "taf_trigger": false,
      "metar": "METAR EGKK 121520Z 07017KT CAVOK 28/14 Q1023",
      "taf": "TAF EGKK 121052Z 1212/1318 05012KT 9999 FEW045"
    },
    {
      "icao": "EGNM",
      "alert": "OK",
      "vis_m": 9999,
      "fzfg": false,
      "metar_trigger": false,
      "taf_trigger": false,
      "metar": "METAR EGNM 121520Z 07010KT 030V100 CAVOK 23/11 Q1029",
      "taf": "TAF EGNM 121056Z 1212/1312 06010KT 9999 FEW012"
    },
    {
      "icao": "EGPD",
      "alert": "OK",
      "vis_m": 9999,
      "fzfg": false,
      "metar_trigger": false,
      "taf_trigger": false,
      "metar": "METAR EGPD 121520Z 09006KT 040V130 9999 BKN034 17/10 Q1033",
      "taf": "TAF EGPD 121053Z 1212/1312 09009KT 9999 SCT030"
    },
    {
      "icao": "EGPF",
      "alert": "OK",
      "vis_m": 9999,
      "fzfg": false,
      "metar_trigger": false,
      "taf_trigger": false,
      "metar": "METAR EGPF 121520Z AUTO 05013KT 9999 NCD 22/14 Q1030",
      "taf": "TAF EGPF 121100Z 1212/1312 07010KT 9999 FEW025"
    },
    {
      "icao": "EHBK",
      "alert": "OK",
      "vis_m": 9999,
      "fzfg": false,
      "metar_trigger": false,
      "taf_trigger": false,
      "metar": "METAR EHBK 121525Z AUTO 06010KT 010V120 9999 NCD 31/14 Q1021 NOSIG",
      "taf": "TAF EHBK 121102Z 1212/1318 05009KT CAVOK"
    },
    {
      "icao": "EHEH",
      "alert": "OK",
      "vis_m": 9999,
      "fzfg": false,
      "metar_trigger": false,
      "taf_trigger": false,
      "metar": "METAR EHEH 121455Z AUTO 04009KT 020V090 9999 NCD 30/14 Q1022 BLU NOSIG RMK TREND REMOTE BY EHWX",
      "taf": "TAF EHEH 121131Z 1212/1318 03008KT CAVOK"
    },
    {
      "icao": "EKBI",
      "alert": "OK",
      "vis_m": 9999,
      "fzfg": false,
      "metar_trigger": false,
      "taf_trigger": false,
      "metar": "METAR EKBI 121520Z AUTO 32004KT 260V020 9999 NCD 27/15 Q1022",
      "taf": "TAF EKBI 121427Z 1215/1315 02005KT CAVOK"
    },
    {
      "icao": "EKCH",
      "alert": "OK",
      "vis_m": 9999,
      "fzfg": false,
      "metar_trigger": false,
      "taf_trigger": false,
      "metar": "METAR EKCH 121520Z AUTO 36009KT 9999 FEW058/// 27/14 Q1021 NOSIG",
      "taf": "TAF EKCH 121427Z 1215/1315 35008KT 9999 FEW045"
    },
    {
      "icao": "ENAL",
      "alert": "OK",
      "vis_m": 9999,
      "fzfg": false,
      "metar_trigger": false,
      "taf_trigger": false,
      "metar": "METAR ENAL 121520Z 36009KT 330V030 CAVOK 15/10 Q1031",
      "taf": "TAF ENAL 121400Z 1215/1224 03009KT CAVOK"
    },
    {
      "icao": "ENBR",
      "alert": "OK",
      "vis_m": 9999,
      "fzfg": false,
      "metar_trigger": false,
      "taf_trigger": false,
      "metar": "METAR ENBR 121520Z 32013KT CAVOK 17/11 Q1027 NOSIG RMK WIND 1200FT 33015KT",
      "taf": "TAF ENBR 121100Z 1212/1312 34012KT CAVOK"
    },
    {
      "icao": "ENGM",
      "alert": "OK",
      "vis_m": 9999,
      "fzfg": false,
      "metar_trigger": false,
      "taf_trigger": false,
      "metar": "METAR ENGM 121520Z 36008KT 320V070 CAVOK 23/05 Q1026 NOSIG",
      "taf": "TAF ENGM 121100Z 1212/1312 01010KT CAVOK"
    },
    {
      "icao": "ENHD",
      "alert": "OK",
      "vis_m": 9999,
      "fzfg": false,
      "metar_trigger": false,
      "taf_trigger": false,
      "metar": "METAR ENHD 121520Z 34020KT CAVOK 15/11 Q1027",
      "taf": "TAF ENHD 121400Z 1215/1222 34018KT CAVOK"
    },
    {
      "icao": "ENTC",
      "alert": "OK",
      "vis_m": 9999,
      "fzfg": false,
      "metar_trigger": false,
      "taf_trigger": false,
      "metar": "METAR ENTC 121520Z 25012KT 9999 BKN055 13/07 Q1026 NOSIG RMK WIND 2600FT 22012KT",
      "taf": "TAF ENTC 121100Z 1212/1312 22009KT 9999 FEW035 BKN050"
    },
    {
      "icao": "ENTO",
      "alert": "OK",
      "vis_m": 9999,
      "fzfg": false,
      "metar_trigger": false,
      "taf_trigger": false,
      "metar": "METAR ENTO 121520Z 04006KT 010V080 CAVOK 23/08 Q1025 NOSIG",
      "taf": "TAF ENTO 121100Z 1212/1312 02008KT CAVOK"
    },
    {
      "icao": "ENVA",
      "alert": "OK",
      "vis_m": 9999,
      "fzfg": false,
      "metar_trigger": false,
      "taf_trigger": false,
      "metar": "METAR ENVA 121520Z 25007KT CAVOK 19/08 Q1030 RMK WIND 670FT 29008KT",
      "taf": "TAF ENVA 121100Z 1212/1312 27010KT 9999 FEW030"
    },
    {
      "icao": "ENZV",
      "alert": "OK",
      "vis_m": 9999,
      "fzfg": false,
      "metar_trigger": false,
      "taf_trigger": false,
      "metar": "METAR ENZV 121520Z 32011KT CAVOK 19/12 Q1027 NOSIG",
      "taf": "TAF ENZV 121100Z 1212/1312 31012KT CAVOK"
    },
    {
      "icao": "EPGD",
      "alert": "OK",
      "vis_m": 9999,
      "fzfg": false,
      "metar_trigger": false,
      "taf_trigger": false,
      "metar": "METAR EPGD 121500Z 01008KT 320V040 9999 FEW025 21/17 Q1019",
      "taf": "TAF EPGD 121130Z 1212/1312 03010KT 9999 SCT022"
    },
    {
      "icao": "EPKK",
      "alert": "OK",
      "vis_m": 9999,
      "fzfg": false,
      "metar_trigger": false,
      "taf_trigger": false,
      "metar": "METAR EPKK 121500Z 27009KT 9999 SCT015 BKN020 18/14 Q1017",
      "taf": "TAF EPKK 121430Z 1215/1315 25012KT 9999 BKN030"
    },
    {
      "icao": "EPKT",
      "alert": "OK",
      "vis_m": 9999,
      "fzfg": false,
      "metar_trigger": false,
      "taf_trigger": false,
      "metar": "METAR EPKT 121500Z 31009KT 270V350 9999 FEW018 SCT026 20/15 Q1017",
      "taf": "TAF EPKT 121130Z 1212/1312 32010KT 9999 BKN030"
    },
    {
      "icao": "EPLB",
      "alert": "OK",
      "vis_m": 9999,
      "fzfg": false,
      "metar_trigger": false,
      "taf_trigger": false,
      "metar": "METAR EPLB 121500Z 35004KT 9999 FEW032TCU SCT048 19/13 Q1016",
      "taf": "TAF EPLB 121130Z 1212/1312 VRB04KT 9999 BKN035"
    },
    {
      "icao": "EPMO",
      "alert": "OK",
      "vis_m": 9999,
      "fzfg": false,
      "metar_trigger": false,
      "taf_trigger": false,
      "metar": "METAR EPMO 121500Z 36007KT 330V050 9999 SCT015 BKN031 18/16 Q1016",
      "taf": "TAF EPMO 121130Z 1212/1312 33005KT 9999 BKN010"
    },
    {
      "icao": "EPPO",
      "alert": "OK",
      "vis_m": 9999,
      "fzfg": false,
      "metar_trigger": false,
      "taf_trigger": false,
      "metar": "METAR EPPO 121500Z 35010KT CAVOK 25/15 Q1018",
      "taf": "TAF EPPO 121130Z 1212/1312 35010KT 9999 SCT035"
    },
    {
      "icao": "EPRA",
      "alert": "OK",
      "vis_m": 9999,
      "fzfg": false,
      "metar_trigger": false,
      "taf_trigger": false,
      "metar": "METAR EPRA 121500Z 01004KT 9999 FEW015 BKN021 17/14 Q1016",
      "taf": "TAF EPRA 121430Z 1215/1224 01004KT 9999 BKN020"
    },
    {
      "icao": "EPRZ",
      "alert": "OK",
      "vis_m": 9999,
      "fzfg": false,
      "metar_trigger": false,
      "taf_trigger": false,
      "metar": "METAR EPRZ 121500Z 24010KT 9999 FEW010 BKN020 17/14 Q1016",
      "taf": "TAF EPRZ 121130Z 1212/1312 28008KT 9999 BKN040"
    },
    {
      "icao": "EPSC",
      "alert": "OK",
      "vis_m": 9999,
      "fzfg": false,
      "metar_trigger": false,
      "taf_trigger": false,
      "metar": "METAR EPSC 121500Z 34013KT 300V010 CAVOK 23/16 Q1020",
      "taf": "TAF EPSC 121130Z 1212/1312 36013KT 9999 SCT040"
    },
    {
      "icao": "EPSY",
      "alert": "OK",
      "vis_m": 9999,
      "fzfg": false,
      "metar_trigger": false,
      "taf_trigger": false,
      "metar": "METAR EPSY 121500Z 07003KT 340V150 9999 SCT023 BKN042 20/15 Q1017",
      "taf": "TAF EPSY 121430Z 1215/1224 05004KT 9999 SCT040"
    },
    {
      "icao": "EPWA",
      "alert": "OK",
      "vis_m": 9999,
      "fzfg": false,
      "metar_trigger": false,
      "taf_trigger": false,
      "metar": "METAR EPWA 121500Z 03007KT 350V070 9999 BKN014 BKN024 18/15 Q1016 NOSIG",
      "taf": "TAF EPWA 121430Z 1215/1315 33005KT 9999 BKN020"
    },
    {
      "icao": "EPWR",
      "alert": "OK",
      "vis_m": 9999,
      "fzfg": false,
      "metar_trigger": false,
      "taf_trigger": false,
      "metar": "METAR EPWR 121500Z 32014KT 9999 FEW048 26/14 Q1017",
      "taf": "TAF EPWR 121430Z 1215/1315 32015KT 9999 SCT040"
    },
    {
      "icao": "ESGG",
      "alert": "OK",
      "vis_m": 9999,
      "fzfg": false,
      "metar_trigger": false,
      "taf_trigger": false,
      "metar": "METAR ESGG 121520Z 01013KT CAVOK 21/17 Q1023",
      "taf": "TAF ESGG 121430Z 1215/1315 01011KT CAVOK"
    },
    {
      "icao": "ESKN",
      "alert": "OK",
      "vis_m": 9999,
      "fzfg": false,
      "metar_trigger": false,
      "taf_trigger": false,
      "metar": "METAR ESKN 121520Z 01009KT CAVOK 21/15 Q1022",
      "taf": "TAF ESKN 121430Z 1215/1315 36011KT CAVOK"
    },
    {
      "icao": "ESMS",
      "alert": "OK",
      "vis_m": 9999,
      "fzfg": false,
      "metar_trigger": false,
      "taf_trigger": false,
      "metar": "METAR ESMS 121520Z 16008KT CAVOK 28/14 Q1021",
      "taf": "TAF ESMS 121427Z 1215/1315 01008KT CAVOK"
    },
    {
      "icao": "ESSA",
      "alert": "OK",
      "vis_m": 9999,
      "fzfg": false,
      "metar_trigger": false,
      "taf_trigger": false,
      "metar": "METAR ESSA 121520Z 02017KT CAVOK 16/10 Q1023 NOSIG",
      "taf": "TAF ESSA 121430Z 1215/1315 36015KT CAVOK"
    },
    {
      "icao": "EYKA",
      "alert": "OK",
      "vis_m": 9999,
      "fzfg": false,
      "metar_trigger": false,
      "taf_trigger": false,
      "metar": "METAR EYKA 121520Z 01005KT 290V070 9999 -SHRA FEW030 SCT047CB 19/18 Q1014 RESHRA",
      "taf": "TAF EYKA 121105Z 1212/1312 VRB03KT 9000 BKN020"
    },
    {
      "icao": "EYPA",
      "alert": "OK",
      "vis_m": 9999,
      "fzfg": false,
      "metar_trigger": false,
      "taf_trigger": false,
      "metar": "METAR EYPA 121520Z 34005KT 260V050 CAVOK 21/17 Q1016",
      "taf": ""
    },
    {
      "icao": "EYVI",
      "alert": "OK",
      "vis_m": 9999,
      "fzfg": false,
      "metar_trigger": false,
      "taf_trigger": false,
      "metar": "METAR EYVI 121520Z 29007KT 240V310 9999 -SHRA SCT023CB 21/17 Q1013 NOSIG",
      "taf": "TAF EYVI 121121Z 1212/1312 32009KT 9000 BKN025"
    },
    {
      "icao": "GCFV",
      "alert": "OK",
      "vis_m": 9999,
      "fzfg": false,
      "metar_trigger": false,
      "taf_trigger": false,
      "metar": "METAR GCFV 121500Z 06015KT 9999 FEW037 26/17 Q1016",
      "taf": "TAF GCFV 121400Z 1215/1315 06012KT 9999 FEW025 TX25/1314Z TN21/1306Z"
    },
    {
      "icao": "GCLP",
      "alert": "OK",
      "vis_m": 9999,
      "fzfg": false,
      "metar_trigger": false,
      "taf_trigger": false,
      "metar": "METAR GCLP 121500Z 04020KT 9999 FEW030 26/18 Q1017 NOSIG",
      "taf": "TAF GCLP 121400Z 1215/1315 02020KT 9999 FEW030 TX26/1314Z TN20/1306Z"
    },
    {
      "icao": "GCTS",
      "alert": "OK",
      "vis_m": 9999,
      "fzfg": false,
      "metar_trigger": false,
      "taf_trigger": false,
      "metar": "METAR GCTS 121500Z 11010KT 080V140 9999 FEW035 26/16 Q1017 NOSIG",
      "taf": "TAF GCTS 121400Z 1215/1315 11011KT 9999 FEW030 TX26/1314Z TN19/1306Z"
    },
    {
      "icao": "GMAD",
      "alert": "OK",
      "vis_m": 9999,
      "fzfg": false,
      "metar_trigger": false,
      "taf_trigger": false,
      "metar": "METAR GMAD 121500Z 24015KT 9999 FEW020 28/18 Q1013 NOSIG",
      "taf": "TAF GMAD 121100Z 1212/1318 26014KT 8000 SCT020"
    },
    {
      "icao": "GMMN",
      "alert": "OK",
      "vis_m": 9999,
      "fzfg": false,
      "metar_trigger": false,
      "taf_trigger": false,
      "metar": "METAR GMMN 121500Z 33011KT 9999 BKN040 28/19 Q1015 NOSIG",
      "taf": "TAF GMMN 121100Z 1212/1318 32006KT 9999 BKN040"
    },
    {
      "icao": "GMMX",
      "alert": "OK",
      "vis_m": 9999,
      "fzfg": false,
      "metar_trigger": false,
      "taf_trigger": false,
      "metar": "METAR GMMX 121500Z 36006KT 310V040 9999 SCT030 32/16 Q1014 NOSIG",
      "taf": "TAF GMMX 121100Z 1212/1318 06006KT 8000 SCT030"
    },
    {
      "icao": "HEGN",
      "alert": "OK",
      "vis_m": 9999,
      "fzfg": false,
      "metar_trigger": false,
      "taf_trigger": false,
      "metar": "METAR HEGN 121500Z 35018KT CAVOK 35/13 Q1004 NOSIG",
      "taf": "TAF HEGN 121100Z 1212/1318 35016KT CAVOK"
    },
    {
      "icao": "HEMA",
      "alert": "OK",
      "vis_m": 9999,
      "fzfg": false,
      "metar_trigger": false,
      "taf_trigger": false,
      "metar": "METAR HEMA 121500Z 36012KT CAVOK 33/16 Q1005 NOSIG",
      "taf": "TAF HEMA 121100Z 1212/1318 34012G25KT CAVOK"
    },
    {
      "icao": "HESH",
      "alert": "OK",
      "vis_m": 9999,
      "fzfg": false,
      "metar_trigger": false,
      "taf_trigger": false,
      "metar": "METAR HESH 121500Z 34010KT CAVOK 38/13 Q1003 NOSIG",
      "taf": "TAF HESH 121100Z 1212/1318 01015KT CAVOK"
    },
    {
      "icao": "HESX",
      "alert": "OK",
      "vis_m": 9999,
      "fzfg": false,
      "metar_trigger": false,
      "taf_trigger": false,
      "metar": "METAR HESX 121500Z 33014KT CAVOK 33/06 Q1009 NOSIG",
      "taf": "TAF HESX 121100Z 1212/1318 35010KT CAVOK"
    },
    {
      "icao": "LATI",
      "alert": "OK",
      "vis_m": 9999,
      "fzfg": false,
      "metar_trigger": false,
      "taf_trigger": false,
      "metar": "METAR LATI 121520Z 28009KT 240V350 9999 FEW090 32/12 Q1013 NOSIG",
      "taf": "TAF LATI 121100Z 1212/1312 33012KT CAVOK TX35/1311Z TN17/1304Z"
    },
    {
      "icao": "LBPD",
      "alert": "OK",
      "vis_m": 9999,
      "fzfg": false,
      "metar_trigger": false,
      "taf_trigger": false,
      "metar": "METAR LBPD 121500Z AUTO 12006KT 080V150 9999 BKN094/// 33/14 Q1011 NOSIG",
      "taf": "TAF LBPD 121100Z 1212/1312 VRB03KT 9999 SCT070"
    },
    {
      "icao": "LBSF",
      "alert": "OK",
      "vis_m": 9999,
      "fzfg": false,
      "metar_trigger": false,
      "taf_trigger": false,
      "metar": "METAR LBSF 121500Z AUTO 26004KT 210V320 9999 NCD 21/18 Q1017 NOSIG",
      "taf": "TAF LBSF 121100Z 1212/1312 30010KT 9999 SCT060"
    },
    {
      "icao": "LBWN",
      "alert": "OK",
      "vis_m": 9999,
      "fzfg": false,
      "metar_trigger": false,
      "taf_trigger": false,
      "metar": "METAR LBWN 121500Z AUTO 13012KT 9999 NSC 28/14 Q1013 NOSIG",
      "taf": "TAF LBWN 121100Z 1212/1312 12010KT CAVOK"
    },
    {
      "icao": "LCLK",
      "alert": "OK",
      "vis_m": 9999,
      "fzfg": false,
      "metar_trigger": false,
      "taf_trigger": false,
      "metar": "METAR LCLK 121500Z 21013KT 9999 FEW040 32/25 Q1006 NOSIG",
      "taf": "TAF LCLK 121130Z 1212/1312 21017KT 9999 FEW020"
    },
    {
      "icao": "LCPH",
      "alert": "OK",
      "vis_m": 9999,
      "fzfg": false,
      "metar_trigger": false,
      "taf_trigger": false,
      "metar": "METAR LCPH 121500Z 31015KT 270V330 9999 FEW020 29/24 Q1007 NOSIG",
      "taf": "TAF LCPH 121130Z 1212/1312 29014KT 9999 FEW012"
    },
    {
      "icao": "LEAL",
      "alert": "OK",
      "vis_m": 9999,
      "fzfg": false,
      "metar_trigger": false,
      "taf_trigger": false,
      "metar": "METAR LEAL 121500Z 08012KT 9999 FEW015 31/24 Q1011 NOSIG",
      "taf": "TAF LEAL 121100Z 1212/1312 09010KT 9999 FEW030 TX33/1212Z TN24/1306Z"
    },
    {
      "icao": "LEBB",
      "alert": "OK",
      "vis_m": 9999,
      "fzfg": false,
      "metar_trigger": false,
      "taf_trigger": false,
      "metar": "METAR LEBB 121500Z 29017KT CAVOK 29/23 Q1008 NOSIG",
      "taf": ""
    },
    {
      "icao": "LEBL",
      "alert": "OK",
      "vis_m": 9999,
      "fzfg": false,
      "metar_trigger": false,
      "taf_trigger": false,
      "metar": "METAR LEBL 121500Z 07013KT 9999 SCT015 28/24 Q1014 NOSIG",
      "taf": "TAF LEBL 121100Z 1212/1312 07009KT 9999 SCT015 TX30/1212Z TN25/1306Z"
    },
    {
      "icao": "LECH",
      "alert": "OK",
      "vis_m": 9000,
      "fzfg": false,
      "metar_trigger": false,
      "taf_trigger": false,
      "metar": "METAR LECH 121500Z AUTO 10011KT 060V140 9000 FEW024 28/20 Q1015",
      "taf": "TAF LECH 121100Z 1212/1312 09010KT CAVOK TX33/1212Z TN19/1306Z"
    },
    {
      "icao": "LEMD",
      "alert": "OK",
      "vis_m": 9999,
      "fzfg": false,
      "metar_trigger": false,
      "taf_trigger": false,
      "metar": "METAR LEMD 121500Z 19009KT 120V250 9999 SCT080 32/12 Q1012 NOSIG",
      "taf": "TAF LEMD 121100Z 1212/1318 23010KT CAVOK TX35/1216Z TN19/1305Z"
    },
    {
      "icao": "LEMG",
      "alert": "OK",
      "vis_m": 9999,
      "fzfg": false,
      "metar_trigger": false,
      "taf_trigger": false,
      "metar": "METAR LEMG 121500Z 15010KT 110V180 CAVOK 32/14 Q1012 NOSIG",
      "taf": "TAF LEMG 121100Z 1212/1312 15008KT CAVOK TX33/1214Z TN21/1305Z"
    },
    {
      "icao": "LEVC",
      "alert": "OK",
      "vis_m": 9999,
      "fzfg": false,
      "metar_trigger": false,
      "taf_trigger": false,
      "metar": "METAR LEVC 121500Z 08012KT 050V110 9999 SCT021 29/23 Q1013 NOSIG",
      "taf": "TAF LEVC 121100Z 1212/1312 07010KT 9999 FEW020 TX31/1214Z TN23/1306Z"
    },
    {
      "icao": "LEXJ",
      "alert": "OK",
      "vis_m": 9999,
      "fzfg": false,
      "metar_trigger": false,
      "taf_trigger": false,
      "metar": "METAR LEXJ 121500Z 30015KT 280V340 9999 FEW030TCU SCT055 26/21 Q1010",
      "taf": "TAF LEXJ 121400Z 1215/1315 30009KT 9999 SCT060 TX27/1314Z TN21/1304Z"
    },
    {
      "icao": "LEZG",
      "alert": "OK",
      "vis_m": 9999,
      "fzfg": false,
      "metar_trigger": false,
      "taf_trigger": false,
      "metar": "METAR LEZG 121500Z 10018G28KT 080V150 CAVOK 35/10 Q1011 NOSIG",
      "taf": "TAF LEZG 121100Z 1212/1312 10010KT CAVOK TX37/1215Z TN23/1306Z"
    },
    {
      "icao": "LEZL",
      "alert": "OK",
      "vis_m": 9999,
      "fzfg": false,
      "metar_trigger": false,
      "taf_trigger": false,
      "metar": "METAR LEZL 121500Z 22013KT 200V260 9999 FEW049 30/14 Q1013 NOSIG",
      "taf": "TAF LEZL 121400Z 1215/1315 23014KT 9999 FEW045 TX30/1215Z TN18/1305Z"
    },
    {
      "icao": "LFBD",
      "alert": "OK",
      "vis_m": 9999,
      "fzfg": false,
      "metar_trigger": false,
      "taf_trigger": false,
      "metar": "METAR LFBD 121500Z AUTO 10013KT 070V130 CAVOK 39/15 Q1009 NOSIG",
      "taf": "TAF LFBD 121100Z 1212/1318 10010KT CAVOK TX41/1215Z TN24/1305Z"
    },
    {
      "icao": "LFLL",
      "alert": "OK",
      "vis_m": 9999,
      "fzfg": false,
      "metar_trigger": false,
      "taf_trigger": false,
      "metar": "METAR LFLL 121500Z 09006KT 030V160 CAVOK 37/11 Q1015 NOSIG",
      "taf": "TAF LFLL 121100Z 1212/1318 04005KT CAVOK"
    },
    {
      "icao": "LFLS",
      "alert": "OK",
      "vis_m": 9999,
      "fzfg": false,
      "metar_trigger": false,
      "taf_trigger": false,
      "metar": "METAR LFLS 121500Z AUTO 25006KT 220V320 CAVOK 36/07 Q1016 NOSIG",
      "taf": "TAF LFLS 121400Z 1215/1315 09005KT CAVOK"
    },
    {
      "icao": "LFMN",
      "alert": "OK",
      "vis_m": 9999,
      "fzfg": false,
      "metar_trigger": false,
      "taf_trigger": false,
      "metar": "METAR LFMN 121500Z 10005KT 9999 FEW033 29/23 Q1015 NOSIG",
      "taf": "TAF LFMN 121400Z 1215/1321 11006KT 9999 FEW030"
    },
    {
      "icao": "LFOB",
      "alert": "OK",
      "vis_m": 9999,
      "fzfg": false,
      "metar_trigger": false,
      "taf_trigger": false,
      "metar": "METAR LFOB 121500Z AUTO 06015KT 010V080 CAVOK 34/12 Q1018 BECMG 05012G22KT",
      "taf": "TAF LFOB 121100Z 1212/1312 05012G22KT CAVOK"
    },
    {
      "icao": "LFPO",
      "alert": "OK",
      "vis_m": 9999,
      "fzfg": false,
      "metar_trigger": false,
      "taf_trigger": false,
      "metar": "METAR LFPO 121500Z 10012KT 060V130 CAVOK 35/10 Q1017 NOSIG",
      "taf": "TAF LFPO 121100Z 1212/1318 06010KT CAVOK"
    },
    {
      "icao": "LFSB",
      "alert": "OK",
      "vis_m": 9999,
      "fzfg": false,
      "metar_trigger": false,
      "taf_trigger": false,
      "metar": "METAR LFSB 121500Z AUTO 36009KT 320V040 CAVOK 34/09 Q1018 NOSIG",
      "taf": "TAF LFSB 121100Z 1212/1312 35006KT CAVOK"
    },
    {
      "icao": "LGAV",
      "alert": "OK",
      "vis_m": 9999,
      "fzfg": false,
      "metar_trigger": false,
      "taf_trigger": false,
      "metar": "METAR LGAV 121520Z 07008KT 040V110 CAVOK 31/11 Q1012 NOSIG",
      "taf": "TAF LGAV 121100Z 1212/1312 03010KT 9999 FEW025"
    },
    {
      "icao": "LGTS",
      "alert": "OK",
      "vis_m": 9999,
      "fzfg": false,
      "metar_trigger": false,
      "taf_trigger": false,
      "metar": "METAR LGTS 121520Z 17014KT 9999 FEW020 32/17 Q1011 NOSIG",
      "taf": "TAF LGTS 121100Z 1212/1312 13003KT CAVOK"
    },
    {
      "icao": "LHBP",
      "alert": "OK",
      "vis_m": 9999,
      "fzfg": false,
      "metar_trigger": false,
      "taf_trigger": false,
      "metar": "METAR LHBP 121500Z 33016KT CAVOK 27/09 Q1016 NOSIG",
      "taf": "TAF LHBP 121115Z 1212/1312 31012KT CAVOK"
    },
    {
      "icao": "LHDC",
      "alert": "OK",
      "vis_m": 9999,
      "fzfg": false,
      "metar_trigger": false,
      "taf_trigger": false,
      "metar": "METAR LHDC 121445Z AUTO 04009KT 010V070 9999 BKN089 //////TCU 23/14 Q1015 RERA NOSIG",
      "taf": "TAF LHDC 121415Z 1215/1224 35008KT CAVOK"
    },
    {
      "icao": "LIBD",
      "alert": "OK",
      "vis_m": 9999,
      "fzfg": false,
      "metar_trigger": false,
      "taf_trigger": false,
      "metar": "METAR LIBD 121520Z 35010KT 320V020 CAVOK 28/21 Q1014",
      "taf": "TAF LIBD 121100Z 1212/1312 03010KT CAVOK"
    },
    {
      "icao": "LIBG",
      "alert": "OK",
      "vis_m": 9999,
      "fzfg": false,
      "metar_trigger": false,
      "taf_trigger": false,
      "metar": "METAR LIBG 121520Z AUTO VRB02KT 9999 FEW160/// 29/19 Q1013",
      "taf": "TAF LIBG 121100Z 1212/1312 18010KT 9999 FEW040"
    },
    {
      "icao": "LIBP",
      "alert": "OK",
      "vis_m": 9999,
      "fzfg": false,
      "metar_trigger": false,
      "taf_trigger": false,
      "metar": "METAR LIBP 121520Z AUTO 06008KT 010V090 9999 NCD 28/21 Q1016",
      "taf": "TAF LIBP 121100Z 1212/1312 04010KT CAVOK"
    },
    {
      "icao": "LIBR",
      "alert": "OK",
      "vis_m": 9999,
      "fzfg": false,
      "metar_trigger": false,
      "taf_trigger": false,
      "metar": "METAR LIBR 121520Z 09007KT CAVOK 31/20 Q1013",
      "taf": "TAF LIBR 121100Z 1212/1312 12010KT CAVOK"
    },
    {
      "icao": "LICA",
      "alert": "OK",
      "vis_m": 9999,
      "fzfg": false,
      "metar_trigger": false,
      "taf_trigger": false,
      "metar": "METAR LICA 121520Z AUTO 26010KT 9999 FEW088/// 34/19 Q1012",
      "taf": "TAF LICA 121100Z 1212/1312 28010KT CAVOK"
    },
    {
      "icao": "LICC",
      "alert": "OK",
      "vis_m": 9999,
      "fzfg": false,
      "metar_trigger": false,
      "taf_trigger": false,
      "metar": "METAR LICC 121520Z 26015KT CAVOK 37/19 Q1012",
      "taf": "TAF LICC 121100Z 1212/1312 26012KT CAVOK"
    },
    {
      "icao": "LICJ",
      "alert": "OK",
      "vis_m": 9999,
      "fzfg": false,
      "metar_trigger": false,
      "taf_trigger": false,
      "metar": "METAR LICJ 121520Z 03009KT CAVOK 30/25 Q1013",
      "taf": "TAF LICJ 121100Z 1212/1312 05012KT CAVOK"
    },
    {
      "icao": "LIMC",
      "alert": "OK",
      "vis_m": 9999,
      "fzfg": false,
      "metar_trigger": false,
      "taf_trigger": false,
      "metar": "METAR LIMC 121520Z VRB04KT CAVOK 33/15 Q1016 NOSIG",
      "taf": "TAF LIMC 121100Z 1212/1318 VRB04KT CAVOK"
    },
    {
      "icao": "LIME",
      "alert": "OK",
      "vis_m": 9999,
      "fzfg": false,
      "metar_trigger": false,
      "taf_trigger": false,
      "metar": "METAR LIME 121520Z VRB04KT CAVOK 31/18 Q1016 NOSIG",
      "taf": "TAF LIME 121100Z 1212/1312 VRB04KT CAVOK"
    },
    {
      "icao": "LIMF",
      "alert": "OK",
      "vis_m": 9999,
      "fzfg": false,
      "metar_trigger": false,
      "taf_trigger": false,
      "metar": "METAR LIMF 121520Z VRB04KT CAVOK 34/17 Q1015",
      "taf": "TAF LIMF 121100Z 1212/1312 VRB05KT CAVOK"
    },
    {
      "icao": "LIMJ",
      "alert": "OK",
      "vis_m": 9999,
      "fzfg": false,
      "metar_trigger": false,
      "taf_trigger": false,
      "metar": "METAR LIMJ 121520Z 23006KT CAVOK 28/22 Q1015",
      "taf": "TAF LIMJ 121100Z 1212/1312 22007KT CAVOK"
    },
    {
      "icao": "LIPE",
      "alert": "OK",
      "vis_m": 9999,
      "fzfg": false,
      "metar_trigger": false,
      "taf_trigger": false,
      "metar": "METAR LIPE 121520Z 10007KT 040V130 CAVOK 32/20 Q1015",
      "taf": "TAF LIPE 121100Z 1212/1312 09010KT CAVOK"
    },
    {
      "icao": "LIPH",
      "alert": "OK",
      "vis_m": 9999,
      "fzfg": false,
      "metar_trigger": false,
      "taf_trigger": false,
      "metar": "METAR LIPH 121520Z 19005KT 130V240 CAVOK 32/18 Q1015",
      "taf": "TAF LIPH 121100Z 1212/1312 16010KT CAVOK"
    },
    {
      "icao": "LIPQ",
      "alert": "OK",
      "vis_m": 9999,
      "fzfg": false,
      "metar_trigger": false,
      "taf_trigger": false,
      "metar": "METAR LIPQ 121520Z AUTO 22009KT 180V250 9999 VCTS NCD 29/20 Q1016",
      "taf": "TAF LIPQ 121100Z 1212/1312 20010KT CAVOK"
    },
    {
      "icao": "LIPR",
      "alert": "OK",
      "vis_m": 9999,
      "fzfg": false,
      "metar_trigger": false,
      "taf_trigger": false,
      "metar": "METAR LIPR 121520Z 11009KT 070V140 CAVOK 28/16 Q1016",
      "taf": "TAF LIPR 121100Z 1212/1312 08012KT CAVOK"
    },
    {
      "icao": "LIPX",
      "alert": "OK",
      "vis_m": 9999,
      "fzfg": false,
      "metar_trigger": false,
      "taf_trigger": false,
      "metar": "METAR LIPX 121520Z 15005KT 100V190 CAVOK 32/21 Q1015",
      "taf": "TAF LIPX 121100Z 1212/1312 VRB04KT CAVOK"
    },
    {
      "icao": "LIPY",
      "alert": "OK",
      "vis_m": 9999,
      "fzfg": false,
      "metar_trigger": false,
      "taf_trigger": false,
      "metar": "METAR LIPY 121520Z AUTO 07006KT 040V100 9999 NCD 31/15 Q1016",
      "taf": "TAF LIPY 121100Z 1212/1312 05010KT CAVOK"
    },
    {
      "icao": "LIPZ",
      "alert": "OK",
      "vis_m": 9999,
      "fzfg": false,
      "metar_trigger": false,
      "taf_trigger": false,
      "metar": "METAR LIPZ 121520Z 16005KT 130V200 CAVOK 29/22 Q1016 NOSIG",
      "taf": "TAF LIPZ 121100Z 1212/1318 15010KT CAVOK"
    },
    {
      "icao": "LIRF",
      "alert": "OK",
      "vis_m": 9999,
      "fzfg": false,
      "metar_trigger": false,
      "taf_trigger": false,
      "metar": "METAR LIRF 121520Z 29011KT 250V320 CAVOK 31/18 Q1014 NOSIG",
      "taf": "TAF LIRF 121100Z 1212/1318 28012KT CAVOK"
    },
    {
      "icao": "LIRN",
      "alert": "OK",
      "vis_m": 9999,
      "fzfg": false,
      "metar_trigger": false,
      "taf_trigger": false,
      "metar": "METAR LIRN 121520Z VRB08KT CAVOK 35/13 Q1014 NOSIG",
      "taf": "TAF LIRN 121100Z 1212/1312 23010KT CAVOK"
    },
    {
      "icao": "LIRP",
      "alert": "OK",
      "vis_m": 9999,
      "fzfg": false,
      "metar_trigger": false,
      "taf_trigger": false,
      "metar": "METAR LIRP 121515Z 27009KT CAVOK 32/19 Q1014 NOSIG",
      "taf": "TAF LIRP 121100Z 1212/1312 28006KT CAVOK"
    },
    {
      "icao": "LIRZ",
      "alert": "OK",
      "vis_m": 9999,
      "fzfg": false,
      "metar_trigger": false,
      "taf_trigger": false,
      "metar": "METAR LIRZ 121520Z AUTO 03009KT 360V070 9999 NCD 34/15 Q1015",
      "taf": "TAF LIRZ 121100Z 1212/1312 VRB05KT CAVOK"
    },
    {
      "icao": "LJLJ",
      "alert": "OK",
      "vis_m": 9999,
      "fzfg": false,
      "metar_trigger": false,
      "taf_trigger": false,
      "metar": "METAR LJLJ 121500Z 10010KT 9999 FEW060 SCT100 28/15 Q1018 NOSIG",
      "taf": "TAF LJLJ 121100Z 1212/1312 14006KT 9999 FEW020"
    },
    {
      "icao": "LKMT",
      "alert": "OK",
      "vis_m": 9999,
      "fzfg": false,
      "metar_trigger": false,
      "taf_trigger": false,
      "metar": "METAR LKMT 121500Z 17003KT 9999 BKN041 19/17 Q1018 NOSIG",
      "taf": "TAF LKMT 121100Z 1212/1312 VRB02KT 9999 BKN040"
    },
    {
      "icao": "LKPR",
      "alert": "OK",
      "vis_m": 9999,
      "fzfg": false,
      "metar_trigger": false,
      "taf_trigger": false,
      "metar": "METAR LKPR 121500Z 33013KT CAVOK 28/12 Q1020 NOSIG",
      "taf": "TAF LKPR 121400Z 1215/1321 32010KT CAVOK"
    },
    {
      "icao": "LLBG",
      "alert": "OK",
      "vis_m": 9999,
      "fzfg": false,
      "metar_trigger": false,
      "taf_trigger": false,
      "metar": "METAR LLBG 121520Z 32009KT CAVOK 29/18 Q1008 NOSIG",
      "taf": "TAF LLBG 121111Z 1212/1312 30010KT CAVOK TX31/1212Z TN23/1303Z"
    },
    {
      "icao": "LMML",
      "alert": "OK",
      "vis_m": 9999,
      "fzfg": false,
      "metar_trigger": false,
      "taf_trigger": false,
      "metar": "METAR LMML 121515Z 16009KT 140V200 9999 FEW013 29/23 Q1015 NOSIG",
      "taf": "TAF LMML 121100Z 1212/1312 19010KT 9999 FEW015"
    },
    {
      "icao": "LOWW",
      "alert": "OK",
      "vis_m": 9999,
      "fzfg": false,
      "metar_trigger": false,
      "taf_trigger": false,
      "metar": "METAR LOWW 121520Z 31018KT 290V350 CAVOK 27/11 Q1018 NOSIG",
      "taf": "TAF LOWW 121415Z 1215/1321 34012KT CAVOK TX30/1315Z TN19/1303Z"
    },
    {
      "icao": "LPFR",
      "alert": "OK",
      "vis_m": 9999,
      "fzfg": false,
      "metar_trigger": false,
      "taf_trigger": false,
      "metar": "METAR LPFR 121500Z 18007KT 9999 FEW020 25/19 Q1014",
      "taf": "TAF LPFR 121130Z 1212/1312 25010KT 9999 FEW020"
    },
    {
      "icao": "LPMA",
      "alert": "OK",
      "vis_m": 9999,
      "fzfg": false,
      "metar_trigger": false,
      "taf_trigger": false,
      "metar": "METAR LPMA 121500Z 16006KT 080V250 9999 SCT016 24/18 Q1017",
      "taf": "TAF LPMA 121130Z 1212/1312 VRB05KT 9999 SCT015"
    },
    {
      "icao": "LPPR",
      "alert": "OK",
      "vis_m": 9999,
      "fzfg": false,
      "metar_trigger": false,
      "taf_trigger": false,
      "metar": "METAR LPPR 121500Z 23010KT 180V270 9999 FEW030 23/16 Q1013",
      "taf": "TAF LPPR 121130Z 1212/1312 20010KT 9999 SCT030"
    },
    {
      "icao": "LPPS",
      "alert": "OK",
      "vis_m": 9999,
      "fzfg": false,
      "metar_trigger": false,
      "taf_trigger": false,
      "metar": "METAR LPPS 121500Z 30010KT 270V340 9999 FEW015 24/18 Q1017",
      "taf": "TAF LPPS 121130Z 1212/1318 28012KT 9999 SCT015"
    },
    {
      "icao": "LPPT",
      "alert": "OK",
      "vis_m": 9999,
      "fzfg": false,
      "metar_trigger": false,
      "taf_trigger": false,
      "metar": "METAR LPPT 121500Z 24015KT 9999 FEW030 24/16 Q1014 NOSIG",
      "taf": "TAF LPPT 121130Z 1212/1318 23012KT 9999 SCT030"
    },
    {
      "icao": "LQBK",
      "alert": "OK",
      "vis_m": 9999,
      "fzfg": false,
      "metar_trigger": false,
      "taf_trigger": false,
      "metar": "METAR LQBK 121500Z 32013KT CAVOK 30/10 Q1017 NOSIG",
      "taf": "TAF LQBK 121100Z 1212/1312 29006KT CAVOK TX29/1214Z TN16/1304Z"
    },
    {
      "icao": "LQSA",
      "alert": "OK",
      "vis_m": 9999,
      "fzfg": false,
      "metar_trigger": false,
      "taf_trigger": false,
      "metar": "METAR LQSA 121500Z 30011KT 9999 FEW065 25/15 Q1018 NOSIG",
      "taf": "TAF LQSA 121100Z 1212/1312 VRB02KT CAVOK TX25/1213Z TN12/1303Z"
    },
    {
      "icao": "LQTZ",
      "alert": "OK",
      "vis_m": 9999,
      "fzfg": false,
      "metar_trigger": false,
      "taf_trigger": false,
      "metar": "METAR LQTZ 121500Z 04006KT 340V090 9999 FEW045 SCT060 28/14 Q1016",
      "taf": "TAF LQTZ 121100Z 1212/1312 32007KT 9999 SCT045 TX29/1213Z TN13/1303Z"
    },
    {
      "icao": "LRBC",
      "alert": "OK",
      "vis_m": 9999,
      "fzfg": false,
      "metar_trigger": false,
      "taf_trigger": false,
      "metar": "METAR LRBC 121500Z COR 06001KT 9999 TS SCT034CB BKN060 22/15 Q1014",
      "taf": "TAF LRBC 121400Z 1215/1224 VRB04KT 9999 FEW045CB BKN050"
    },
    {
      "icao": "LRBS",
      "alert": "OK",
      "vis_m": 9999,
      "fzfg": false,
      "metar_trigger": false,
      "taf_trigger": false,
      "metar": "METAR LRBS 121500Z 27005KT 230V300 CAVOK 29/16 Q1012 NOSIG",
      "taf": "TAF LRBS 121100Z 1212/1312 VRB04KT CAVOK"
    },
    {
      "icao": "LRBV",
      "alert": "OK",
      "vis_m": 9999,
      "fzfg": false,
      "metar_trigger": false,
      "taf_trigger": false,
      "metar": "METAR LRBV 121500Z VRB02KT 9999 -SHRA FEW041 SCT049CB BKN078 20/12 Q1017",
      "taf": "TAF LRBV 121400Z 1215/1224 30010KT 9999 SCT040CB"
    },
    {
      "icao": "LRCL",
      "alert": "OK",
      "vis_m": 9999,
      "fzfg": false,
      "metar_trigger": false,
      "taf_trigger": false,
      "metar": "METAR LRCL 121500Z 25009KT 220V320 9999 FEW044CB SCT055 BKN070 19/15 Q1016",
      "taf": "TAF LRCL 121400Z 1215/1224 VRB04KT 9999 SCT040CB"
    },
    {
      "icao": "LRCV",
      "alert": "OK",
      "vis_m": 9999,
      "fzfg": false,
      "metar_trigger": false,
      "taf_trigger": false,
      "metar": "METAR LRCV 121500Z 27010KT CAVOK 22/17 Q1015",
      "taf": "TAF LRCV 121400Z 1215/1224 27010KT 9999 FEW040CB"
    },
    {
      "icao": "LRIA",
      "alert": "OK",
      "vis_m": 9999,
      "fzfg": false,
      "metar_trigger": false,
      "taf_trigger": false,
      "metar": "METAR LRIA 121500Z VRB03KT CAVOK 25/11 Q1013",
      "taf": "TAF LRIA 121400Z 1215/1224 VRB04KT CAVOK"
    },
    {
      "icao": "LROP",
      "alert": "OK",
      "vis_m": 9999,
      "fzfg": false,
      "metar_trigger": false,
      "taf_trigger": false,
      "metar": "METAR LROP 121500Z VRB02KT CAVOK 27/16 Q1013 NOSIG",
      "taf": "TAF LROP 121100Z 1212/1312 VRB04KT CAVOK"
    },
    {
      "icao": "LRSB",
      "alert": "OK",
      "vis_m": 9999,
      "fzfg": false,
      "metar_trigger": false,
      "taf_trigger": false,
      "metar": "METAR LRSB 121500Z 26004KT 210V300 9999 SCT085 22/16 Q1016",
      "taf": "TAF LRSB 121100Z 1212/1312 30014KT 9999 SCT045"
    },
    {
      "icao": "LRSM",
      "alert": "OK",
      "vis_m": 9999,
      "fzfg": false,
      "metar_trigger": false,
      "taf_trigger": false,
      "metar": "METAR LRSM 121500Z AUTO 32012KT 9999 BKN090/// 21/12 Q1016",
      "taf": ""
    },
    {
      "icao": "LRSV",
      "alert": "OK",
      "vis_m": 9999,
      "fzfg": false,
      "metar_trigger": false,
      "taf_trigger": false,
      "metar": "METAR LRSV 121500Z VRB02KT 9999 FEW048 22/12 Q1015",
      "taf": "TAF LRSV 121400Z 1215/1224 VRB04KT CAVOK"
    },
    {
      "icao": "LRTM",
      "alert": "OK",
      "vis_m": 9999,
      "fzfg": false,
      "metar_trigger": false,
      "taf_trigger": false,
      "metar": "METAR LRTM 121500Z 14003KT 110V180 9999 VCSH FEW032 SCT044 FEW046CB 22/17 Q1015",
      "taf": "TAF LRTM 121400Z 1215/1224 VRB04KT 9999 SCT040CB"
    },
    {
      "icao": "LRTR",
      "alert": "OK",
      "vis_m": 9999,
      "fzfg": false,
      "metar_trigger": false,
      "taf_trigger": false,
      "metar": "METAR LRTR 121500Z 32009KT 290V360 CAVOK 27/08 Q1015 NOSIG",
      "taf": "TAF LRTR 121100Z 1212/1312 VRB04KT CAVOK"
    },
    {
      "icao": "LTAC",
      "alert": "OK",
      "vis_m": 9999,
      "fzfg": false,
      "metar_trigger": false,
      "taf_trigger": false,
      "metar": "METAR LTAC 121520Z VRB05KT CAVOK 31/05 Q1014 NOSIG RMK RWY21C 32005KT 250V350 RWY03L VRB04KT RWY21R 28005KT 220V360 RWY03R 30005KT 250V350 RWY21L 17007KT 110V220",
      "taf": "TAF LTAC 121040Z 1212/1312 VRB02KT CAVOK"
    },
    {
      "icao": "LTFM",
      "alert": "OK",
      "vis_m": 9999,
      "fzfg": false,
      "metar_trigger": false,
      "taf_trigger": false,
      "metar": "METAR LTFM 121520Z 06014KT 030V090 CAVOK 26/17 Q1014 NOSIG RMK RWY17L 06014KT RWY34L 05012KT 010V080 RWY16R 07014KT RWY36 06014KT RWY18 06013KT",
      "taf": ""
    },
    {
      "icao": "LUKK",
      "alert": "OK",
      "vis_m": 9999,
      "fzfg": false,
      "metar_trigger": false,
      "taf_trigger": false,
      "metar": "METAR LUKK 121500Z 27005KT 190V350 CAVOK 27/11 Q1013 NOSIG",
      "taf": "TAF LUKK 121118Z 1212/1312 VRB05KT CAVOK"
    },
    {
      "icao": "LWOH",
      "alert": "OK",
      "vis_m": 9999,
      "fzfg": false,
      "metar_trigger": false,
      "taf_trigger": false,
      "metar": "METAR LWOH 121520Z 24008KT 200V280 9999 FEW040 30/14 Q1016",
      "taf": "TAF LWOH 121130Z 1212/1312 16006KT 9999 FEW040"
    },
    {
      "icao": "LWSK",
      "alert": "OK",
      "vis_m": 9999,
      "fzfg": false,
      "metar_trigger": false,
      "taf_trigger": false,
      "metar": "METAR LWSK 121520Z 15005KT 120V200 9999 FEW035TCU SCT060 22/18 Q1015 RETS NOSIG",
      "taf": "TAF LWSK 121450Z 1215/1315 34010KT 9999 SCT040"
    },
    {
      "icao": "LYBE",
      "alert": "OK",
      "vis_m": 9999,
      "fzfg": false,
      "metar_trigger": false,
      "taf_trigger": false,
      "metar": "METAR LYBE 121500Z VRB03KT 9999 SCT040 27/16 Q1016 NOSIG",
      "taf": "TAF LYBE 121100Z 1212/1312 26007KT 9999 SCT035 TX28/1312Z TN16/1303Z"
    },
    {
      "icao": "LYNI",
      "alert": "OK",
      "vis_m": 9999,
      "fzfg": false,
      "metar_trigger": false,
      "taf_trigger": false,
      "metar": "METAR LYNI 121500Z 34006KT 300V020 9999 FEW030 25/18 Q1016 NOSIG",
      "taf": "TAF LYNI 121100Z 1212/1312 33015KT 9999 SCT040 TX28/1214Z TN15/1303Z"
    },
    {
      "icao": "LYPG",
      "alert": "OK",
      "vis_m": 9999,
      "fzfg": false,
      "metar_trigger": false,
      "taf_trigger": false,
      "metar": "METAR LYPG 121500Z 20005KT 150V240 9999 FEW050 32/15 Q1013 NOSIG",
      "taf": "TAF LYPG 121100Z 1212/1312 18007KT 9999 SCT040 SCT080 TX31/1312Z TN23/1303Z"
    },
    {
      "icao": "LZIB",
      "alert": "OK",
      "vis_m": 9999,
      "fzfg": false,
      "metar_trigger": false,
      "taf_trigger": false,
      "metar": "METAR LZIB 121500Z 32014KT CAVOK 27/11 Q1017 NOSIG",
      "taf": "TAF LZIB 121115Z 1212/1312 32015KT CAVOK"
    },
    {
      "icao": "LZKZ",
      "alert": "OK",
      "vis_m": 9999,
      "fzfg": false,
      "metar_trigger": false,
      "taf_trigger": false,
      "metar": "METAR LZKZ 121500Z 36008KT 9999 -SHRA FEW048 20/12 Q1016 TEMPO SHRA",
      "taf": "TAF LZKZ 121115Z 1212/1312 36004KT CAVOK"
    },
    {
      "icao": "LZTT",
      "alert": "OK",
      "vis_m": 9999,
      "fzfg": false,
      "metar_trigger": false,
      "taf_trigger": false,
      "metar": "METAR LZTT 121500Z 29005KT 270V340 9999 -SHRA SCT012 BKN050 14/13 Q1018 RESHRA NOSIG",
      "taf": "TAF LZTT 121115Z 1212/1312 27005KT 9999 FEW015 SCT055"
    },
    {
      "icao": "OEJN",
      "alert": "OK",
      "vis_m": 9999,
      "fzfg": false,
      "metar_trigger": false,
      "taf_trigger": false,
      "metar": "METAR OEJN 121500Z 30009KT CAVOK 34/22 Q1003 NOSIG",
      "taf": "TAF OEJN 121100Z 1212/1318 32016KT CAVOK"
    },
    {
      "icao": "OEMA",
      "alert": "OK",
      "vis_m": 9999,
      "fzfg": false,
      "metar_trigger": false,
      "taf_trigger": false,
      "metar": "METAR OEMA 121500Z 31013KT 9999 FEW040 45/M07 Q1006 NOSIG",
      "taf": "TAF OEMA 121100Z 1212/1318 30012KT CAVOK"
    },
    {
      "icao": "OJAI",
      "alert": "OK",
      "vis_m": 5000,
      "fzfg": false,
      "metar_trigger": false,
      "taf_trigger": false,
      "metar": "METAR OJAI 121500Z 27011KT 5000 HZ NSC 32/14 Q1011 NOSIG",
      "taf": "TAF OJAI 121100Z 1212/1318 30010KT 5000 HZ NSC"
    },
    {
      "icao": "OMAA",
      "alert": "OK",
      "vis_m": 9999,
      "fzfg": false,
      "metar_trigger": false,
      "taf_trigger": false,
      "metar": "METAR OMAA 121500Z 27005KT CAVOK 37/24 Q0996 NOSIG",
      "taf": "TAF OMAA 121100Z 1212/1318 30010KT 8000 NSC"
    },
    {
      "icao": "OMDB",
      "alert": "OK",
      "vis_m": 9999,
      "fzfg": false,
      "metar_trigger": false,
      "taf_trigger": false,
      "metar": "METAR OMDB 121500Z 27007KT 160V310 CAVOK 36/26 Q0996 NOSIG",
      "taf": "TAF OMDB 121100Z 1212/1318 29012KT 8000 NSC"
    },
    {
      "icao": "UAAA",
      "alert": "OK",
      "vis_m": 9999,
      "fzfg": false,
      "metar_trigger": false,
      "taf_trigger": false,
      "metar": "METAR UAAA 121500Z 21003MPS 170V240 9999 FEW050CB BKN200 29/10 Q1004 NOSIG",
      "taf": "TAF UAAA 121103Z 1212/1312 22003G08MPS 9999 FEW050CB SCT100 TX33/1310Z TN20/1301Z"
    },
    {
      "icao": "UBBB",
      "alert": "OK",
      "vis_m": 9999,
      "fzfg": false,
      "metar_trigger": false,
      "taf_trigger": false,
      "metar": "METAR UBBB 121500Z 33012KT CAVOK 28/21 Q1009 NOSIG",
      "taf": "TAF UBBB 121051Z 1212/1312 34012KT CAVOK TX30/1212Z TN24/1301Z"
    },
    {
      "icao": "UDSG",
      "alert": "OK",
      "vis_m": 9999,
      "fzfg": false,
      "metar_trigger": false,
      "taf_trigger": false,
      "metar": "METAR UDSG 121500Z 07019KT 9999 FEW049 22/16 Q1017 NOSIG",
      "taf": "TAF UDSG 121100Z 1212/1312 05006KT 9999 FEW050"
    },
    {
      "icao": "UDYZ",
      "alert": "OK",
      "vis_m": 9999,
      "fzfg": false,
      "metar_trigger": false,
      "taf_trigger": false,
      "metar": "METAR UDYZ 121500Z 03020KT 9999 FEW043CB 31/16 Q1009 TEMPO 03024G34KT",
      "taf": "TAF UDYZ 121100Z 1212/1312 03006KT 9999 FEW040"
    },
    {
      "icao": "UGKO",
      "alert": "OK",
      "vis_m": 9999,
      "fzfg": false,
      "metar_trigger": false,
      "taf_trigger": false,
      "metar": "METAR UGKO 121500Z 27008KT 230V300 9999 SCT039 BKN050 23/20 Q1013 NOSIG",
      "taf": "TAF UGKO 121100Z 1212/1312 26007KT 9999 BKN050 TX28/1311Z TN21/1302Z"
    }
  ]
}