{
  "ts_utc": "2026-01-17T05:53:07Z",
  "threshold_m": 150,
  "source": "stations_override.txt (ICAO list) + aviationweather.gov (METAR/TAF raw)",
  "station_count": 159,
  "stations": [
    {
      "icao": "BIKF",
      "alert": "OK",
      "vis_m": 9999,
      "fzfg": false,
      "metar_trigger": false,
      "taf_trigger": false,
      "metar": "METAR BIKF 170530Z 07006KT CAVOK M02/M04 Q1011",
      "taf": "TAF BIKF 170439Z 1706/1806 05007KT CAVOK TX06/1800Z TNM02/1706Z"
    },
    {
      "icao": "BKPR",
      "alert": "OK",
      "vis_m": null,
      "fzfg": false,
      "metar_trigger": false,
      "taf_trigger": false,
      "metar": "",
      "taf": "TAF BKPR 170530Z 1706/1806 36009KT 9999 SCT006 BKN030"
    },
    {
      "icao": "EBCI",
      "alert": "OK",
      "vis_m": 9999,
      "fzfg": false,
      "metar_trigger": false,
      "taf_trigger": false,
      "metar": "METAR EBCI 170520Z 16005KT 9999 SCT019 08/06 Q1014 NOSIG",
      "taf": "TAF EBCI 170516Z 1706/1812 13004KT 9999 SCT012 BKN014"
    },
    {
      "icao": "EDDB",
      "alert": "OK",
      "vis_m": 1600,
      "fzfg": false,
      "metar_trigger": false,
      "taf_trigger": false,
      "metar": "METAR EDDB 170520Z AUTO 10007KT 1600 1400 R06L/P2000N R06R/P2000N BR OVC001 M00/M00 Q1023 TEMPO 1200 BR",
      "taf": "TAF EDDB 170500Z 1706/1806 11007KT 2000 BR BKN002"
    },
    {
      "icao": "EDDH",
      "alert": "OK",
      "vis_m": 9999,
      "fzfg": false,
      "metar_trigger": false,
      "taf_trigger": false,
      "metar": "METAR EDDH 170520Z AUTO 12005KT 080V180 CAVOK 03/02 Q1020 NOSIG",
      "taf": "TAF EDDH 170500Z 1706/1812 11005KT CAVOK"
    },
    {
      "icao": "EDDK",
      "alert": "OK",
      "vis_m": 9999,
      "fzfg": false,
      "metar_trigger": false,
      "taf_trigger": false,
      "metar": "METAR EDDK 170520Z AUTO 10006KT 080V140 CAVOK 07/03 Q1017 NOSIG",
      "taf": "TAF EDDK 170500Z 1706/1812 12007KT CAVOK"
    },
    {
      "icao": "EDDN",
      "alert": "OK",
      "vis_m": 9999,
      "fzfg": false,
      "metar_trigger": false,
      "taf_trigger": false,
      "metar": "METAR EDDN 170520Z AUTO 13006KT 9999 OVC008 00/M02 Q1020 NOSIG",
      "taf": "TAF EDDN 170500Z 1706/1806 11006KT 9999 OVC008"
    },
    {
      "icao": "EDDS",
      "alert": "OK",
      "vis_m": 9999,
      "fzfg": false,
      "metar_trigger": false,
      "taf_trigger": false,
      "metar": "METAR EDDS 170520Z AUTO 09005KT CAVOK 00/M02 Q1017 NOSIG",
      "taf": "TAF EDDS 170500Z 1706/1806 VRB03KT CAVOK"
    },
    {
      "icao": "EDFH",
      "alert": "OK",
      "vis_m": 9999,
      "fzfg": false,
      "metar_trigger": false,
      "taf_trigger": false,
      "metar": "METAR EDFH 170520Z 14009KT CAVOK 03/02 Q1017",
      "taf": "TAF EDFH 170500Z 1706/1806 14008KT CAVOK"
    },
    {
      "icao": "EDJA",
      "alert": "OK",
      "vis_m": 1000,
      "fzfg": true,
      "metar_trigger": false,
      "taf_trigger": false,
      "metar": "METAR EDJA 170520Z 03005KT 1000 R06/1800D FZFG VV/// M02/M03 Q1017",
      "taf": "TAF EDJA 170500Z 1706/1715 05004KT 3000 BR OVC002"
    },
    {
      "icao": "EDLW",
      "alert": "OK",
      "vis_m": 9999,
      "fzfg": false,
      "metar_trigger": false,
      "taf_trigger": false,
      "metar": "METAR EDLW 170520Z VRB02KT CAVOK 06/03 Q1017",
      "taf": "TAF EDLW 170500Z 1706/1806 10004KT CAVOK"
    },
    {
      "icao": "EDNY",
      "alert": "OK",
      "vis_m": 9999,
      "fzfg": false,
      "metar_trigger": false,
      "taf_trigger": false,
      "metar": "METAR EDNY 170520Z 05006KT CAVOK 01/M00 Q1018",
      "taf": "TAF EDNY 170500Z 1706/1715 04005KT CAVOK"
    },
    {
      "icao": "EDSB",
      "alert": "OK",
      "vis_m": 9999,
      "fzfg": false,
      "metar_trigger": false,
      "taf_trigger": false,
      "metar": "METAR EDSB 170520Z 36004KT CAVOK 04/02 Q1017",
      "taf": "TAF EDSB 170500Z 1706/1806 VRB03KT CAVOK"
    },
    {
      "icao": "EETN",
      "alert": "OK",
      "vis_m": 9999,
      "fzfg": false,
      "metar_trigger": false,
      "taf_trigger": false,
      "metar": "METAR EETN 170550Z 18007KT 9999 OVC008 M08/M10 Q1031 NOSIG",
      "taf": "TAF EETN 170530Z 1706/1806 18010KT 9999 OVC010"
    },
    {
      "icao": "EFTU",
      "alert": "OK",
      "vis_m": 3700,
      "fzfg": false,
      "metar_trigger": false,
      "taf_trigger": false,
      "metar": "METAR EFTU 170550Z AUTO 18011KT 3700 +FZDZ OVC002 M01/M01 Q1026",
      "taf": "TAF EFTU 170524Z 1706/1806 18012G22KT 2500 -FZDZ OVC002"
    },
    {
      "icao": "EGBB",
      "alert": "OK",
      "vis_m": 9999,
      "fzfg": false,
      "metar_trigger": false,
      "taf_trigger": false,
      "metar": "METAR EGBB 170520Z 16004KT 9999 BKN007 06/05 Q1010",
      "taf": "TAF EGBB 170454Z 1706/1806 14007KT 9999 FEW012 SCT025"
    },
    {
      "icao": "EGGP",
      "alert": "OK",
      "vis_m": 9999,
      "fzfg": false,
      "metar_trigger": false,
      "taf_trigger": false,
      "metar": "METAR EGGP 170520Z 12005KT 090V150 9999 BKN010 06/05 Q1009",
      "taf": "TAF EGGP 170457Z 1706/1806 14007KT 9999 SCT025"
    },
    {
      "icao": "EGGW",
      "alert": "OK",
      "vis_m": 3100,
      "fzfg": false,
      "metar_trigger": false,
      "taf_trigger": false,
      "metar": "METAR EGGW 170520Z AUTO 14008KT 3100 BR OVC002/// //////TCU 07/06 Q1010",
      "taf": "TAF EGGW 170454Z 1706/1806 14007KT 9999 BKN008"
    },
    {
      "icao": "EGKK",
      "alert": "OK",
      "vis_m": 9999,
      "fzfg": false,
      "metar_trigger": false,
      "taf_trigger": false,
      "metar": "METAR EGKK 170520Z 14004KT 9999 SCT011 SCT039 08/08 Q1011",
      "taf": "TAF EGKK 170453Z 1706/1812 15006KT 9999 SCT030"
    },
    {
      "icao": "EGNM",
      "alert": "OK",
      "vis_m": 150,
      "fzfg": false,
      "metar_trigger": false,
      "taf_trigger": false,
      "metar": "METAR EGNM 170520Z 12006KT 0150 -RA FG VV/// 04/04 Q1010",
      "taf": "TAF EGNM 170500Z 1706/1806 13006KT 0300 FG VV///"
    },
    {
      "icao": "EGPD",
      "alert": "OK",
      "vis_m": 9999,
      "fzfg": false,
      "metar_trigger": false,
      "taf_trigger": false,
      "metar": "METAR EGPD 170520Z COR AUTO 15009KT 9999 FEW015 OVC020 06/04 Q1013 NOSIG",
      "taf": "TAF EGPD 170502Z 1706/1806 14006KT 9999 SCT010"
    },
    {
      "icao": "EGPF",
      "alert": "OK",
      "vis_m": 9000,
      "fzfg": false,
      "metar_trigger": false,
      "taf_trigger": false,
      "metar": "METAR EGPF 170520Z AUTO 08009KT 9000 FEW038 OVC046 04/03 Q1010",
      "taf": "TAF EGPF 170457Z 1706/1806 07008KT 9999 FEW030"
    },
    {
      "icao": "EHBK",
      "alert": "OK",
      "vis_m": 9999,
      "fzfg": false,
      "metar_trigger": false,
      "taf_trigger": false,
      "metar": "METAR EHBK 170525Z AUTO 16004KT 9999 NSC 08/05 Q1015 NOSIG",
      "taf": "TAF EHBK 170502Z 1706/1812 16006KT 9999 BKN040"
    },
    {
      "icao": "EHEH",
      "alert": "OK",
      "vis_m": 9999,
      "fzfg": false,
      "metar_trigger": false,
      "taf_trigger": false,
      "metar": "METAR EHEH 170525Z AUTO 13004KT 9999 OVC170 08/06 Q1015 BLU NOSIG RMK TRENDE REMOTE BY EHWX",
      "taf": "TAF EHEH 162333Z 1700/1806 13005KT 9999 FEW030 BKN045"
    },
    {
      "icao": "EKBI",
      "alert": "OK",
      "vis_m": 9999,
      "fzfg": false,
      "metar_trigger": false,
      "taf_trigger": false,
      "metar": "METAR EKBI 170520Z AUTO 09011KT 9999 -DZ OVC031/// 05/04 Q1021",
      "taf": "TAF EKBI 170527Z 1706/1806 11010KT 9000 BKN020"
    },
    {
      "icao": "EKCH",
      "alert": "OK",
      "vis_m": 300,
      "fzfg": false,
      "metar_trigger": false,
      "taf_trigger": false,
      "metar": "METAR EKCH 170520Z 12010KT 0300 R22L/0900U R04L/0900N R12/0800N FG VV002 02/02 Q1025 TEMPO 0500",
      "taf": "TAF EKCH 170527Z 1706/1806 13010KT 0100 FG VV001"
    },
    {
      "icao": "ENAL",
      "alert": "OK",
      "vis_m": 9999,
      "fzfg": false,
      "metar_trigger": false,
      "taf_trigger": false,
      "metar": "METAR ENAL 170520Z AUTO 17005KT 9999 FEW052/// 05/01 Q1019",
      "taf": "TAF ENAL 170500Z 1706/1715 16008KT 9999 BKN050"
    },
    {
      "icao": "ENBR",
      "alert": "OK",
      "vis_m": 9999,
      "fzfg": false,
      "metar_trigger": false,
      "taf_trigger": false,
      "metar": "METAR ENBR 170520Z 11007KT 9999 BKN025 04/02 Q1020 RMK WIND 1200FT 14013KT",
      "taf": "TAF ENBR 170500Z 1706/1806 11008KT 9999 BKN025"
    },
    {
      "icao": "ENGM",
      "alert": "OK",
      "vis_m": 7000,
      "fzfg": true,
      "metar_trigger": false,
      "taf_trigger": false,
      "metar": "METAR ENGM 170520Z 11004KT 050V200 7000 0750SE R19R/1400U R01R/1200D R19L/P2000N R01L/P2000N PRFG BKN001 01/00 Q1021 TEMPO 0800 FZFG VV002",
      "taf": "TAF ENGM 170500Z 1706/1806 VRB03KT 6000 SCT003"
    },
    {
      "icao": "ENHD",
      "alert": "OK",
      "vis_m": 9999,
      "fzfg": false,
      "metar_trigger": false,
      "taf_trigger": false,
      "metar": "METAR ENHD 170520Z AUTO 12011KT 9999 FEW013/// OVC032/// 05/03 Q1020",
      "taf": "TAF ENHD 170500Z 1706/1715 12012KT 9999 FEW025 BKN040"
    },
    {
      "icao": "ENTC",
      "alert": "OK",
      "vis_m": 9999,
      "fzfg": false,
      "metar_trigger": false,
      "taf_trigger": false,
      "metar": "METAR ENTC 170520Z VRB01KT CAVOK M08/M10 Q1013 RMK WIND 2600FT 19006KT",
      "taf": "TAF ENTC 170500Z 1706/1806 06010KT CAVOK"
    },
    {
      "icao": "ENTO",
      "alert": "OK",
      "vis_m": 9999,
      "fzfg": false,
      "metar_trigger": false,
      "taf_trigger": false,
      "metar": "METAR ENTO 170520Z AUTO 24004KT 9999 NCD 01/01 Q1022",
      "taf": "TAF ENTO 170500Z 1706/1806 24005KT 9999 FEW008"
    },
    {
      "icao": "ENVA",
      "alert": "OK",
      "vis_m": 9999,
      "fzfg": false,
      "metar_trigger": false,
      "taf_trigger": false,
      "metar": "METAR ENVA 170520Z 24009KT 9999 -RA BKN023 04/02 Q1018 RMK WIND 670FT 23015KT",
      "taf": "TAF ENVA 170500Z 1706/1806 22008KT 9999 FEW012 BKN025"
    },
    {
      "icao": "ENZV",
      "alert": "OK",
      "vis_m": 9999,
      "fzfg": false,
      "metar_trigger": false,
      "taf_trigger": false,
      "metar": "METAR ENZV 170520Z 11007KT 9999 FEW044 04/02 Q1020",
      "taf": "TAF ENZV 170500Z 1706/1806 12008KT 9999 FEW025 SCT040"
    },
    {
      "icao": "EPGD",
      "alert": "OK",
      "vis_m": 500,
      "fzfg": true,
      "metar_trigger": false,
      "taf_trigger": false,
      "metar": "METAR EPGD 170530Z 17008KT 0500 R29/1300N FZFG OVC001 M05/M05 Q1028",
      "taf": "TAF EPGD 170530Z 1706/1806 16010KT 1200 BR OVC002"
    },
    {
      "icao": "EPKK",
      "alert": "OK",
      "vis_m": 150,
      "fzfg": true,
      "metar_trigger": false,
      "taf_trigger": false,
      "metar": "METAR EPKK 170530Z 07008KT 0150 R25/0600N FZFG OVC001 M04/M05 Q1028",
      "taf": "TAF EPKK 170530Z 1706/1806 06010KT 0200 FZFG OVC001"
    },
    {
      "icao": "EPKT",
      "alert": "OK",
      "vis_m": 200,
      "fzfg": true,
      "metar_trigger": false,
      "taf_trigger": false,
      "metar": "METAR EPKT 170530Z 10008KT 0200 R26/0800N FZFG OVC001 M02/M02 Q1027",
      "taf": "TAF EPKT 170530Z 1706/1806 11008KT 0200 FZFG OVC001"
    },
    {
      "icao": "EPLB",
      "alert": "OK",
      "vis_m": 9999,
      "fzfg": false,
      "metar_trigger": false,
      "taf_trigger": false,
      "metar": "METAR EPLB 170530Z 09006KT CAVOK M14/M16 Q1033",
      "taf": "TAF EPLB 170530Z 1706/1806 11010KT CAVOK"
    },
    {
      "icao": "EPMO",
      "alert": "OK",
      "vis_m": 8000,
      "fzfg": false,
      "metar_trigger": false,
      "taf_trigger": false,
      "metar": "METAR EPMO 170530Z 08007KT 8000 SCT009 M11/M13 Q1032",
      "taf": "TAF EPMO 170530Z 1706/1806 10009KT 8000 FEW010"
    },
    {
      "icao": "EPPO",
      "alert": "OK",
      "vis_m": 1400,
      "fzfg": false,
      "metar_trigger": false,
      "taf_trigger": false,
      "metar": "METAR EPPO 170530Z 11009KT 1400 R28/P2000U BR OVC002 01/00 Q1026",
      "taf": "TAF EPPO 170530Z 1706/1806 13010KT 1500 BR OVC002"
    },
    {
      "icao": "EPRA",
      "alert": "OK",
      "vis_m": 9999,
      "fzfg": false,
      "metar_trigger": false,
      "taf_trigger": false,
      "metar": "METAR EPRA 170530Z 12007KT CAVOK M11/M13 Q1031",
      "taf": "TAF EPRA 170530Z 1706/1715 13008KT CAVOK"
    },
    {
      "icao": "EPRZ",
      "alert": "OK",
      "vis_m": 9999,
      "fzfg": false,
      "metar_trigger": false,
      "taf_trigger": false,
      "metar": "METAR EPRZ 170530Z 09011KT CAVOK M11/M13 Q1031",
      "taf": "TAF EPRZ 170530Z 1706/1806 09012KT CAVOK"
    },
    {
      "icao": "EPSC",
      "alert": "OK",
      "vis_m": 1800,
      "fzfg": false,
      "metar_trigger": false,
      "taf_trigger": false,
      "metar": "METAR EPSC 170530Z 13013KT 1800 BR OVC002 01/01 Q1025",
      "taf": "TAF EPSC 170530Z 1706/1806 13012KT 1500 BR OVC002"
    },
    {
      "icao": "EPSY",
      "alert": "OK",
      "vis_m": 9000,
      "fzfg": false,
      "metar_trigger": false,
      "taf_trigger": false,
      "metar": "METAR EPSY 170530Z 14005KT 100V190 9000 BKN007 M10/M13 Q1032",
      "taf": "TAF EPSY 170530Z 1706/1715 13008KT 8000 BKN007"
    },
    {
      "icao": "EPWA",
      "alert": "OK",
      "vis_m": 9999,
      "fzfg": false,
      "metar_trigger": false,
      "taf_trigger": false,
      "metar": "METAR EPWA 170530Z 12009KT 9999 BKN010 M10/M13 Q1032 BECMG SCT010",
      "taf": "TAF EPWA 170530Z 1706/1806 11010KT 9999 FEW010"
    },
    {
      "icao": "EPWR",
      "alert": "OK",
      "vis_m": 400,
      "fzfg": false,
      "metar_trigger": false,
      "taf_trigger": false,
      "metar": "METAR EPWR 170530Z 12013KT 0400 R29/1400N FG OVC001 00/00 Q1026",
      "taf": "TAF EPWR 170530Z 1706/1806 12010KT 0500 FG OVC002"
    },
    {
      "icao": "ESGG",
      "alert": "OK",
      "vis_m": 500,
      "fzfg": false,
      "metar_trigger": false,
      "taf_trigger": false,
      "metar": "METAR ESGG 170520Z 13005KT 0500 R03/P2000N R21/P2000N FG VV004 02/02 Q1023",
      "taf": "TAF ESGG 170530Z 1706/1806 20008KT 9999 BKN006"
    },
    {
      "icao": "ESKN",
      "alert": "OK",
      "vis_m": 3600,
      "fzfg": false,
      "metar_trigger": false,
      "taf_trigger": false,
      "metar": "METAR ESKN 170520Z 18006KT 3600 BR SCT003 BKN023 02/02 Q1024",
      "taf": "TAF ESKN 170530Z 1706/1806 18006KT 0300 FG VV002"
    },
    {
      "icao": "ESMS",
      "alert": "OK",
      "vis_m": 100,
      "fzfg": false,
      "metar_trigger": false,
      "taf_trigger": false,
      "metar": "METAR ESMS 170520Z 11007KT 0100 R17/0600N R35/0600N FG VV001 02/02 Q1024",
      "taf": "TAF ESMS 170527Z 1706/1806 13008KT 0100 FG VV001"
    },
    {
      "icao": "ESSA",
      "alert": "OK",
      "vis_m": 6000,
      "fzfg": false,
      "metar_trigger": false,
      "taf_trigger": false,
      "metar": "METAR ESSA 170520Z 18008KT 6000 BKN007 OVC024 02/02 Q1023 TEMPO 3000 SCT004 BKN025",
      "taf": "TAF ESSA 170530Z 1706/1806 18010KT 6000 SCT007 BKN025"
    },
    {
      "icao": "EYKA",
      "alert": "OK",
      "vis_m": 9999,
      "fzfg": false,
      "metar_trigger": false,
      "taf_trigger": false,
      "metar": "METAR EYKA 170550Z 18006KT 120V240 CAVOK M12/M16 Q1036",
      "taf": "TAF EYKA 170502Z 1706/1806 16010KT 9000 NSC"
    },
    {
      "icao": "EYPA",
      "alert": "OK",
      "vis_m": 9999,
      "fzfg": false,
      "metar_trigger": false,
      "taf_trigger": false,
      "metar": "METAR EYPA 170550Z 16011KT 130V190 CAVOK M10/M13 Q1032",
      "taf": "TAF EYPA 170509Z 1706/1806 15012KT 7000 NSC"
    },
    {
      "icao": "EYVI",
      "alert": "OK",
      "vis_m": 9999,
      "fzfg": false,
      "metar_trigger": false,
      "taf_trigger": false,
      "metar": "METAR EYVI 170550Z 16010KT CAVOK M13/M17 Q1037 NOSIG",
      "taf": "TAF EYVI 170501Z 1706/1806 16010KT 8000 NSC"
    },
    {
      "icao": "GCFV",
      "alert": "OK",
      "vis_m": 9999,
      "fzfg": false,
      "metar_trigger": false,
      "taf_trigger": false,
      "metar": "METAR GCFV 170530Z AUTO 34012KT 9999 FEW039 15/12 Q1021",
      "taf": "TAF GCFV 170200Z 1703/1803 35009KT 9999 SCT035 TX20/1714Z TN15/1706Z"
    },
    {
      "icao": "GCLP",
      "alert": "OK",
      "vis_m": 9999,
      "fzfg": false,
      "metar_trigger": false,
      "taf_trigger": false,
      "metar": "METAR GCLP 170530Z 34013KT 9999 BKN035 16/12 Q1022 NOSIG",
      "taf": "TAF GCLP 170200Z 1703/1803 36017KT 9999 SCT035 TX21/1714Z TN15/1706Z"
    },
    {
      "icao": "GCTS",
      "alert": "OK",
      "vis_m": 9999,
      "fzfg": false,
      "metar_trigger": false,
      "taf_trigger": false,
      "metar": "METAR GCTS 170530Z 05002KT 9999 FEW030 BKN040 17/10 Q1022 NOSIG",
      "taf": "TAF GCTS 170200Z 1703/1803 35006KT 9999 FEW035 TX22/1714Z TN14/1706Z"
    },
    {
      "icao": "GMAD",
      "alert": "OK",
      "vis_m": 9999,
      "fzfg": false,
      "metar_trigger": false,
      "taf_trigger": false,
      "metar": "METAR GMAD 170530Z 21007KT CAVOK 11/09 Q1017 NOSIG",
      "taf": "TAF GMAD 170500Z 1706/1812 22006KT CAVOK"
    },
    {
      "icao": "GMMN",
      "alert": "OK",
      "vis_m": 8000,
      "fzfg": false,
      "metar_trigger": false,
      "taf_trigger": false,
      "metar": "METAR GMMN 170530Z 22010KT 8000 SCT006 BKN020 08/07 Q1016 NOSIG",
      "taf": "TAF GMMN 170500Z 1706/1812 24008KT 8000 SCT006 BKN020"
    },
    {
      "icao": "GMMX",
      "alert": "OK",
      "vis_m": 4000,
      "fzfg": false,
      "metar_trigger": false,
      "taf_trigger": false,
      "metar": "METAR GMMX 170530Z 23007KT 4000 RA SCT013 BKN020 09/08 Q1018 NOSIG",
      "taf": "TAF GMMX 170500Z 1706/1812 34017KT 3000 SHRA SCT013 BKN020 FEW030TCU"
    },
    {
      "icao": "HEGN",
      "alert": "OK",
      "vis_m": 9999,
      "fzfg": false,
      "metar_trigger": false,
      "taf_trigger": false,
      "metar": "METAR HEGN 170500Z 30008KT CAVOK 12/03 Q1018 NOSIG",
      "taf": "TAF HEGN 170500Z 1706/1812 28010KT CAVOK"
    },
    {
      "icao": "HEMA",
      "alert": "OK",
      "vis_m": 9999,
      "fzfg": false,
      "metar_trigger": false,
      "taf_trigger": false,
      "metar": "METAR HEMA 170500Z 31012KT CAVOK 14/08 Q1017 NOSIG",
      "taf": "TAF HEMA 170500Z 1706/1812 29008KT CAVOK"
    },
    {
      "icao": "HESH",
      "alert": "OK",
      "vis_m": 9999,
      "fzfg": false,
      "metar_trigger": false,
      "taf_trigger": false,
      "metar": "METAR HESH 170500Z 33007KT CAVOK 15/06 Q1016 NOSIG",
      "taf": "TAF HESH 170500Z 1706/1812 31008KT CAVOK"
    },
    {
      "icao": "HESX",
      "alert": "OK",
      "vis_m": 100,
      "fzfg": false,
      "metar_trigger": false,
      "taf_trigger": false,
      "metar": "METAR HESX 170500Z 00000KT 0100 R34/0100 FG NSC 08/07 Q1019 NOSIG",
      "taf": "TAF HESX 170512Z 1706/1812 VRB03KT 6000 NSC"
    },
    {
      "icao": "LATI",
      "alert": "OK",
      "vis_m": 8000,
      "fzfg": false,
      "metar_trigger": false,
      "taf_trigger": false,
      "metar": "METAR LATI 170550Z 00000KT 8000 NSC 03/02 Q1021 NOSIG",
      "taf": "TAF LATI 170500Z 1706/1806 VRB04KT CAVOK TX17/1712Z TN01/1804Z"
    },
    {
      "icao": "LBPD",
      "alert": "OK",
      "vis_m": 9999,
      "fzfg": false,
      "metar_trigger": false,
      "taf_trigger": false,
      "metar": "METAR LBPD 170530Z AUTO 09006KT 9999 NCD M04/M06 Q1032 NOSIG",
      "taf": "TAF LBPD 170500Z 1706/1806 10010KT 9999 SCT040"
    },
    {
      "icao": "LBSF",
      "alert": "OK",
      "vis_m": 9999,
      "fzfg": false,
      "metar_trigger": false,
      "taf_trigger": false,
      "metar": "METAR LBSF 170530Z 09011KT 9999 FEW018 BKN037 M02/M04 Q1028 NOSIG",
      "taf": "TAF LBSF 170500Z 1706/1806 10012KT 9999 SCT015 BKN030"
    },
    {
      "icao": "LBWN",
      "alert": "OK",
      "vis_m": 9999,
      "fzfg": false,
      "metar_trigger": false,
      "taf_trigger": false,
      "metar": "METAR LBWN 170530Z AUTO 31006KT 270V350 9999 SCT026/// M04/M07 Q1032 NOSIG",
      "taf": "TAF LBWN 170500Z 1706/1806 35013KT 9999 BKN020"
    },
    {
      "icao": "LCLK",
      "alert": "OK",
      "vis_m": 9999,
      "fzfg": false,
      "metar_trigger": false,
      "taf_trigger": false,
      "metar": "METAR LCLK 170530Z 31006KT 9999 FEW030 SCT050 12/10 Q1017 NOSIG",
      "taf": "TAF LCLK 170530Z 1706/1806 31006KT 9999 -RA FEW030 SCT045"
    },
    {
      "icao": "LCPH",
      "alert": "OK",
      "vis_m": 9999,
      "fzfg": false,
      "metar_trigger": false,
      "taf_trigger": false,
      "metar": "METAR LCPH 170530Z 07005KT 9999 SCT025 SCT028 BKN050 12/10 Q1018 NOSIG",
      "taf": "TAF LCPH 170530Z 1706/1806 04007KT 8000 -RA FEW020 SCT030 BKN045"
    },
    {
      "icao": "LEAL",
      "alert": "OK",
      "vis_m": 9999,
      "fzfg": false,
      "metar_trigger": false,
      "taf_trigger": false,
      "metar": "METAR LEAL 170530Z VRB01KT 9999 -RA SCT015 BKN030 12/12 Q1009 RERA NOSIG",
      "taf": "TAF LEAL 170500Z 1706/1806 VRB04KT 9999 FEW020 TX14/1713Z TN07/1706Z"
    },
    {
      "icao": "LEBB",
      "alert": "OK",
      "vis_m": 9999,
      "fzfg": false,
      "metar_trigger": false,
      "taf_trigger": false,
      "metar": "METAR LEBB 170530Z 08004KT 9999 BKN043 06/05 Q1011 NOSIG",
      "taf": "TAF LEBB 170500Z 1706/1806 10005KT 9999 FEW020 BKN040 TX09/1712Z TN05/1706Z"
    },
    {
      "icao": "LEBL",
      "alert": "OK",
      "vis_m": 9999,
      "fzfg": false,
      "metar_trigger": false,
      "taf_trigger": false,
      "metar": "METAR LEBL 170530Z 11009KT 9999 FEW015 SCT045 14/13 Q1010 NOSIG",
      "taf": "TAF LEBL 170500Z 1706/1806 11012KT 9000 SCT010 BKN050 TX16/1712Z TN14/1706Z"
    },
    {
      "icao": "LECH",
      "alert": "OK",
      "vis_m": 9000,
      "fzfg": false,
      "metar_trigger": false,
      "taf_trigger": false,
      "metar": "METAR LECH 170530Z AUTO 03008KT 360V060 9000 FEW009 BKN015 09/08 Q1008",
      "taf": ""
    },
    {
      "icao": "LEMD",
      "alert": "OK",
      "vis_m": 9999,
      "fzfg": false,
      "metar_trigger": false,
      "taf_trigger": false,
      "metar": "METAR LEMD 170530Z 20002KT 9999 -RA FEW014 BKN020 OVC030 04/04 Q1008 NOSIG",
      "taf": "TAF LEMD 170500Z 1706/1812 VRB04KT 9999 SCT035 TX07/1714Z TNM01/1808Z"
    },
    {
      "icao": "LEMG",
      "alert": "OK",
      "vis_m": 9999,
      "fzfg": false,
      "metar_trigger": false,
      "taf_trigger": false,
      "metar": "METAR LEMG 170530Z 28005KT 9999 FEW025 07/04 Q1012 NOSIG",
      "taf": "TAF LEMG 170500Z 1706/1806 27006KT 9999 FEW030 TX15/1714Z TN06/1806Z"
    },
    {
      "icao": "LEVC",
      "alert": "OK",
      "vis_m": 9999,
      "fzfg": false,
      "metar_trigger": false,
      "taf_trigger": false,
      "metar": "METAR LEVC 170530Z 30005KT 9999 BKN064 09/08 Q1009 NOSIG",
      "taf": "TAF LEVC 170500Z 1706/1806 VRB04KT 9999 FEW060 TX13/1712Z TN04/1706Z"
    },
    {
      "icao": "LEXJ",
      "alert": "OK",
      "vis_m": 9999,
      "fzfg": false,
      "metar_trigger": false,
      "taf_trigger": false,
      "metar": "METAR LEXJ 170530Z VRB01KT 9999 -RA BKN040 08/06 Q1011",
      "taf": "TAF LEXJ 170200Z 1703/1803 22007KT 9999 BKN040 TX11/1714Z TN07/1802Z"
    },
    {
      "icao": "LEZG",
      "alert": "OK",
      "vis_m": 3000,
      "fzfg": false,
      "metar_trigger": false,
      "taf_trigger": false,
      "metar": "METAR LEZG 170530Z 26004KT 230V290 3000 BR OVC006 07/07 Q1010 NOSIG",
      "taf": "TAF LEZG 170500Z 1706/1806 VRB04KT 9999 FEW060 TX09/1714Z TN04/1706Z"
    },
    {
      "icao": "LEZL",
      "alert": "OK",
      "vis_m": 9000,
      "fzfg": false,
      "metar_trigger": false,
      "taf_trigger": false,
      "metar": "METAR LEZL 170530Z 00000KT 9000 NSC 06/06 Q1013 NOSIG",
      "taf": "TAF LEZL 170200Z 1703/1803 VRB03KT CAVOK TX13/1715Z TN05/1707Z"
    },
    {
      "icao": "LFBD",
      "alert": "OK",
      "vis_m": 9999,
      "fzfg": false,
      "metar_trigger": false,
      "taf_trigger": false,
      "metar": "METAR LFBD 170530Z AUTO 13006KT 9999 FEW003 BKN084 OVC230 06/06 Q1011 TEMPO 0500 FG VV///",
      "taf": "TAF LFBD 170500Z 1706/1812 VRB03KT CAVOK TX10/1812Z TN05/1706Z"
    },
    {
      "icao": "LFLL",
      "alert": "OK",
      "vis_m": 9999,
      "fzfg": false,
      "metar_trigger": false,
      "taf_trigger": false,
      "metar": "METAR LFLL 170530Z 14010KT CAVOK 08/03 Q1014 NOSIG",
      "taf": "TAF LFLL 170500Z 1706/1812 14008KT CAVOK"
    },
    {
      "icao": "LFLS",
      "alert": "OK",
      "vis_m": 9999,
      "fzfg": false,
      "metar_trigger": false,
      "taf_trigger": false,
      "metar": "METAR LFLS 170530Z AUTO 08009KT 9999 -RA FEW060 OVC070 07/04 Q1014 TEMPO 4500 RA",
      "taf": "TAF LFLS 170200Z 1703/1803 09010KT 9999 BKN060"
    },
    {
      "icao": "LFMN",
      "alert": "OK",
      "vis_m": 9999,
      "fzfg": false,
      "metar_trigger": false,
      "taf_trigger": false,
      "metar": "METAR LFMN 170530Z 36010KT 9999 -RA BKN040 BKN065 10/08 Q1017 NOSIG",
      "taf": "TAF LFMN 170200Z 1703/1809 34012KT 9999 SCT030 BKN100"
    },
    {
      "icao": "LFOB",
      "alert": "OK",
      "vis_m": 5000,
      "fzfg": false,
      "metar_trigger": false,
      "taf_trigger": false,
      "metar": "METAR LFOB 170530Z AUTO 11005KT 5000 BR OVC006 07/07 Q1013 TEMPO 0900 FG VV///",
      "taf": "TAF LFOB 170500Z 1706/1806 11005KT 8000 OVC006"
    },
    {
      "icao": "LFPO",
      "alert": "OK",
      "vis_m": 2800,
      "fzfg": false,
      "metar_trigger": false,
      "taf_trigger": false,
      "metar": "METAR LFPO 170530Z AUTO 00000KT 2800 0400 R02/1200D R25/0900U R07/1100U R24/P2000 R06/1600D BCFG VV/// 07/07 Q1013 TEMPO BKN002",
      "taf": ""
    },
    {
      "icao": "LFSB",
      "alert": "OK",
      "vis_m": 9999,
      "fzfg": false,
      "metar_trigger": false,
      "taf_trigger": false,
      "metar": "METAR LFSB 170530Z AUTO 18004KT CAVOK 04/02 Q1017 NOSIG",
      "taf": "TAF LFSB 170500Z 1706/1806 16003KT CAVOK"
    },
    {
      "icao": "LGAV",
      "alert": "OK",
      "vis_m": 9000,
      "fzfg": false,
      "metar_trigger": false,
      "taf_trigger": false,
      "metar": "METAR LGAV 170520Z 04019G31KT 9000 SCT015 BKN025 10/05 Q1023 NOSIG",
      "taf": "TAF LGAV 170500Z 1706/1806 03018G28KT 9000 FEW010 SCT018 BKN025"
    },
    {
      "icao": "LGTS",
      "alert": "OK",
      "vis_m": 9999,
      "fzfg": false,
      "metar_trigger": false,
      "taf_trigger": false,
      "metar": "METAR LGTS 170520Z 12006KT 9999 SCT025 08/02 Q1027 NOSIG",
      "taf": "TAF LGTS 170500Z 1706/1806 08013KT 9999 FEW012 BKN025"
    },
    {
      "icao": "LHBP",
      "alert": "OK",
      "vis_m": 9999,
      "fzfg": false,
      "metar_trigger": false,
      "taf_trigger": false,
      "metar": "METAR LHBP 170530Z 09007KT 9999 OVC033 01/M00 Q1029 NOSIG",
      "taf": "TAF LHBP 170515Z 1706/1806 08007KT 9999 BKN030"
    },
    {
      "icao": "LHDC",
      "alert": "OK",
      "vis_m": 900,
      "fzfg": false,
      "metar_trigger": false,
      "taf_trigger": false,
      "metar": "METAR LHDC 170515Z AUTO VRB02KT 0900 R04/1100N FG VV004 01/01 Q1030",
      "taf": "TAF LHDC 170515Z 1706/1715 VRB03KT 0300 FG VV001"
    },
    {
      "icao": "LIBD",
      "alert": "OK",
      "vis_m": 6000,
      "fzfg": false,
      "metar_trigger": false,
      "taf_trigger": false,
      "metar": "METAR LIBD 170520Z 21003KT 6000 SCT015 BKN045 08/08 Q1021",
      "taf": "TAF LIBD 170500Z 1706/1806 VRB05KT 9999 FEW030"
    },
    {
      "icao": "LIBG",
      "alert": "OK",
      "vis_m": null,
      "fzfg": false,
      "metar_trigger": false,
      "taf_trigger": false,
      "metar": "",
      "taf": ""
    },
    {
      "icao": "LIBP",
      "alert": "OK",
      "vis_m": 3600,
      "fzfg": false,
      "metar_trigger": false,
      "taf_trigger": false,
      "metar": "METAR LIBP 170520Z AUTO VRB02KT 3600 BR NCD 05/05 Q1021",
      "taf": "TAF LIBP 170500Z 1706/1806 VRB03KT 0300 FG OVC002"
    },
    {
      "icao": "LIBR",
      "alert": "OK",
      "vis_m": 3000,
      "fzfg": false,
      "metar_trigger": false,
      "taf_trigger": false,
      "metar": "METAR LIBR 170520Z 30006KT 3000 BR NSC 09/09 Q1020",
      "taf": "TAF LIBR 170500Z 1706/1806 VRB05KT 3000 BR BKN010"
    },
    {
      "icao": "LICA",
      "alert": "OK",
      "vis_m": 9999,
      "fzfg": false,
      "metar_trigger": false,
      "taf_trigger": false,
      "metar": "METAR LICA 170520Z AUTO 05009KT 9999 -RA OVC082/// 12/11 Q1018",
      "taf": "TAF LICA 170500Z 1706/1806 08012KT CAVOK"
    },
    {
      "icao": "LICC",
      "alert": "OK",
      "vis_m": 9999,
      "fzfg": false,
      "metar_trigger": false,
      "taf_trigger": false,
      "metar": "METAR LICC 170520Z 10003KT 050V150 9999 -RA FEW020 BKN040 11/10 Q1016",
      "taf": "TAF LICC 170500Z 1706/1806 06010KT 8000 RA SCT020 BKN050"
    },
    {
      "icao": "LICJ",
      "alert": "OK",
      "vis_m": 9999,
      "fzfg": false,
      "metar_trigger": false,
      "taf_trigger": false,
      "metar": "METAR LICJ 170520Z 08003KT 010V150 CAVOK 12/09 Q1015",
      "taf": "TAF LICJ 170500Z 1706/1806 10012KT 9999 SCT060"
    },
    {
      "icao": "LIMC",
      "alert": "OK",
      "vis_m": 3000,
      "fzfg": false,
      "metar_trigger": false,
      "taf_trigger": false,
      "metar": "METAR LIMC 170520Z 09004KT 3000 -DZ BR OVC010 07/06 Q1022 NOSIG",
      "taf": "TAF LIMC 170500Z 1706/1812 VRB03KT 3000 BR BKN020"
    },
    {
      "icao": "LIME",
      "alert": "OK",
      "vis_m": 1500,
      "fzfg": false,
      "metar_trigger": false,
      "taf_trigger": false,
      "metar": "METAR LIME 170520Z 02003KT 320V060 1500 BR SCT050 06/06 Q1022 NOSIG",
      "taf": "TAF LIME 170500Z 1706/1806 VRB04KT 1500 BCFG BKN008"
    },
    {
      "icao": "LIMF",
      "alert": "OK",
      "vis_m": 8000,
      "fzfg": false,
      "metar_trigger": false,
      "taf_trigger": false,
      "metar": "METAR LIMF 170520Z 33005KT 8000 RA BKN010 OVC014 07/04 Q1022",
      "taf": "TAF LIMF 170500Z 1706/1806 VRB03KT 2500 -RA BKN040"
    },
    {
      "icao": "LIMJ",
      "alert": "OK",
      "vis_m": 9999,
      "fzfg": false,
      "metar_trigger": false,
      "taf_trigger": false,
      "metar": "METAR LIMJ 170520Z 04015KT 9999 FEW080 09/05 Q1019",
      "taf": "TAF LIMJ 170500Z 1706/1806 03017KT 8000 SCT030"
    },
    {
      "icao": "LIPE",
      "alert": "OK",
      "vis_m": 500,
      "fzfg": false,
      "metar_trigger": false,
      "taf_trigger": false,
      "metar": "METAR LIPE 170520Z VRB02KT 0500 R12/P2000N R30/1700D FG BKN003 06/06 Q1022",
      "taf": "TAF LIPE 170500Z 1706/1806 VRB04KT 2000 BR BKN020"
    },
    {
      "icao": "LIPH",
      "alert": "OK",
      "vis_m": 2100,
      "fzfg": false,
      "metar_trigger": false,
      "taf_trigger": false,
      "metar": "METAR LIPH 170520Z AUTO VRB01KT 2100 BR OVC008/// 05/05 Q1023",
      "taf": "TAF LIPH 170500Z 1706/1806 03007KT 7000 SCT040"
    },
    {
      "icao": "LIPQ",
      "alert": "OK",
      "vis_m": 200,
      "fzfg": false,
      "metar_trigger": false,
      "taf_trigger": false,
      "metar": "METAR LIPQ 170520Z AUTO 01003KT 0200 R09/0600N FG VV002 08/08 Q1022",
      "taf": "TAF LIPQ 170500Z 1706/1806 03007KT 2500 BR BKN020"
    },
    {
      "icao": "LIPR",
      "alert": "OK",
      "vis_m": 1400,
      "fzfg": false,
      "metar_trigger": false,
      "taf_trigger": false,
      "metar": "METAR LIPR 170520Z AUTO 29004KT 1400 R30/P2000N BR OVC003/// 07/06 Q1022",
      "taf": "TAF LIPR 170500Z 1706/1806 VRB04KT 0300 FG OVC003"
    },
    {
      "icao": "LIPX",
      "alert": "OK",
      "vis_m": 200,
      "fzfg": false,
      "metar_trigger": false,
      "taf_trigger": false,
      "metar": "METAR LIPX 170520Z VRB01KT 0200 R04/0175N FG VV004 03/03 Q1023",
      "taf": "TAF LIPX 170500Z 1706/1806 VRB04KT 2000 BR BKN012"
    },
    {
      "icao": "LIPY",
      "alert": "OK",
      "vis_m": 1200,
      "fzfg": false,
      "metar_trigger": false,
      "taf_trigger": false,
      "metar": "METAR LIPY 170520Z AUTO VRB01KT 1200 R22/P2000N BR OVC003/// 09/09 Q1021",
      "taf": "TAF LIPY 170500Z 1706/1806 VRB05KT 0300 FG OVC001"
    },
    {
      "icao": "LIPZ",
      "alert": "OK",
      "vis_m": 2000,
      "fzfg": false,
      "metar_trigger": false,
      "taf_trigger": false,
      "metar": "METAR LIPZ 170520Z 32002KT 2000 BR OVC008 06/06 Q1023 NOSIG",
      "taf": "TAF LIPZ 170500Z 1706/1812 VRB04KT 6000 SCT030"
    },
    {
      "icao": "LIRF",
      "alert": "OK",
      "vis_m": 9999,
      "fzfg": false,
      "metar_trigger": false,
      "taf_trigger": false,
      "metar": "METAR LIRF 170520Z 05005KT CAVOK 07/05 Q1018 NOSIG",
      "taf": "TAF LIRF 170500Z 1706/1812 05008KT CAVOK"
    },
    {
      "icao": "LIRN",
      "alert": "OK",
      "vis_m": 9999,
      "fzfg": false,
      "metar_trigger": false,
      "taf_trigger": false,
      "metar": "METAR LIRN 170520Z 36006KT CAVOK 08/04 Q1018 NOSIG",
      "taf": "TAF LIRN 170500Z 1706/1806 05007KT CAVOK"
    },
    {
      "icao": "LIRP",
      "alert": "OK",
      "vis_m": 9999,
      "fzfg": false,
      "metar_trigger": false,
      "taf_trigger": false,
      "metar": "METAR LIRP 170515Z 12008KT CAVOK 09/07 Q1018 NOSIG",
      "taf": "TAF LIRP 170500Z 1706/1806 12005KT CAVOK"
    },
    {
      "icao": "LIRZ",
      "alert": "OK",
      "vis_m": 250,
      "fzfg": true,
      "metar_trigger": false,
      "taf_trigger": false,
      "metar": "METAR LIRZ 170520Z AUTO 00000KT 0250 0150S R01/0450N FZFG VV001 M00/M00 Q1019",
      "taf": "TAF LIRZ 170500Z 1706/1806 VRB05KT CAVOK"
    },
    {
      "icao": "LJLJ",
      "alert": "OK",
      "vis_m": 5000,
      "fzfg": false,
      "metar_trigger": false,
      "taf_trigger": false,
      "metar": "METAR LJLJ 170530Z 09003KT 5000 BR OVC003 03/02 Q1023 NOSIG",
      "taf": "TAF LJLJ 170500Z 1706/1806 30004KT 6000 FEW005 OVC015"
    },
    {
      "icao": "LKMT",
      "alert": "OK",
      "vis_m": 400,
      "fzfg": true,
      "metar_trigger": false,
      "taf_trigger": false,
      "metar": "METAR LKMT 170530Z 05004KT 0400 R22/0550N R04/0550N FZFG VV002 M01/M01 Q1026 NOSIG",
      "taf": "TAF LKMT 170500Z 1706/1806 VRB02KT 0300 FZFG VV002"
    },
    {
      "icao": "LKPR",
      "alert": "OK",
      "vis_m": 750,
      "fzfg": false,
      "metar_trigger": false,
      "taf_trigger": false,
      "metar": "METAR LKPR 170530Z 07007KT 0750 R24/0750N R30/0750U -DZ FG VV002 01/01 Q1022 NOSIG",
      "taf": "TAF LKPR 170500Z 1706/1812 11005KT 0400 FG SCT001 BKN002"
    },
    {
      "icao": "LLBG",
      "alert": "OK",
      "vis_m": 9999,
      "fzfg": false,
      "metar_trigger": false,
      "taf_trigger": false,
      "metar": "METAR LLBG 170520Z VRB03KT CAVOK 09/06 Q1018 NOSIG RMK FEW058",
      "taf": "TAF LLBG 170506Z 1706/1806 VRB03KT 9999 SCT050"
    },
    {
      "icao": "LMML",
      "alert": "OK",
      "vis_m": 9999,
      "fzfg": false,
      "metar_trigger": false,
      "taf_trigger": false,
      "metar": "METAR LMML 170545Z VRB03KT 9999 FEW020 13/08 Q1015 NOSIG",
      "taf": "TAF LMML 170500Z 1706/1806 VRB06KT 9999 FEW017"
    },
    {
      "icao": "LOWW",
      "alert": "OK",
      "vis_m": 2000,
      "fzfg": false,
      "metar_trigger": false,
      "taf_trigger": false,
      "metar": "METAR LOWW 170520Z 13017KT 2000 BR FEW001 BKN002 01/01 Q1025 TEMPO 1400 BCFG",
      "taf": "TAF LOWW 170515Z 1706/1812 14010KT 3000 BR SCT001 OVC002 TX02/1713Z TNM03/1807Z"
    },
    {
      "icao": "LPFR",
      "alert": "OK",
      "vis_m": 9999,
      "fzfg": false,
      "metar_trigger": false,
      "taf_trigger": false,
      "metar": "METAR LPFR 170530Z 33004KT CAVOK 06/05 Q1014",
      "taf": "TAF LPFR 170500Z 1706/1806 30007KT 9999 SCT030"
    },
    {
      "icao": "LPMA",
      "alert": "OK",
      "vis_m": 9999,
      "fzfg": false,
      "metar_trigger": false,
      "taf_trigger": false,
      "metar": "METAR LPMA 170530Z COR 34010KT 280V030 9999 SCT015 15/10 Q1022",
      "taf": "TAF LPMA 170500Z 1706/1806 32010KT 9999 SCT015"
    },
    {
      "icao": "LPPR",
      "alert": "OK",
      "vis_m": 5000,
      "fzfg": false,
      "metar_trigger": false,
      "taf_trigger": false,
      "metar": "METAR LPPR 170530Z 09005KT 030V170 5000 -RA BR SCT002 SCT010 BKN030 05/05 Q1012 RERA",
      "taf": "TAF LPPR 170500Z 1706/1806 12007KT 9999 FEW008 BKN035"
    },
    {
      "icao": "LPPS",
      "alert": "OK",
      "vis_m": 9999,
      "fzfg": false,
      "metar_trigger": false,
      "taf_trigger": false,
      "metar": "METAR LPPS 170530Z 35024KT 9999 SCT014 15/10 Q1022",
      "taf": "TAF LPPS 170500Z 1706/1812 34018KT 9999 SCT015"
    },
    {
      "icao": "LPPT",
      "alert": "OK",
      "vis_m": 9999,
      "fzfg": false,
      "metar_trigger": false,
      "taf_trigger": false,
      "metar": "METAR LPPT 170530Z 26008KT 9999 VCSH FEW020 FEW025TCU SCT032 08/06 Q1013",
      "taf": "TAF LPPT 170500Z 1706/1812 31007KT 9999 FEW018 SCT030"
    },
    {
      "icao": "LQBK",
      "alert": "OK",
      "vis_m": 6000,
      "fzfg": false,
      "metar_trigger": false,
      "taf_trigger": false,
      "metar": "METAR LQBK 170530Z 31003KT 6000 NSC 02/01 Q1025 TEMPO 3000 BR",
      "taf": "TAF LQBK 170500Z 1706/1806 04005KT 9999 SCT020 TX05/1714Z TNM03/1805Z"
    },
    {
      "icao": "LQSA",
      "alert": "OK",
      "vis_m": 300,
      "fzfg": true,
      "metar_trigger": false,
      "taf_trigger": false,
      "metar": "METAR LQSA 170530Z 12001KT 0300 R11/0600U FZFG VV003 M03/M03 Q1025 NOSIG",
      "taf": "TAF LQSA 170500Z 1706/1806 VRB02KT 0300 FZFG BKN002 TX03/1714Z TNM04/1806Z"
    },
    {
      "icao": "LQTZ",
      "alert": "OK",
      "vis_m": 9999,
      "fzfg": false,
      "metar_trigger": false,
      "taf_trigger": false,
      "metar": "METAR LQTZ 170530Z 13005KT CAVOK 02/02 Q1025",
      "taf": "TAF LQTZ 170500Z 1706/1806 12005KT CAVOK TX06/1713Z TNM03/1805Z"
    },
    {
      "icao": "LRBC",
      "alert": "OK",
      "vis_m": 5000,
      "fzfg": false,
      "metar_trigger": false,
      "taf_trigger": false,
      "metar": "METAR LRBC 170530Z 02002KT 5000 BR NSC M13/M16 Q1035",
      "taf": "TAF LRBC 170500Z 1706/1715 03006KT 5000 BR NSC"
    },
    {
      "icao": "LRBS",
      "alert": "OK",
      "vis_m": 8000,
      "fzfg": false,
      "metar_trigger": false,
      "taf_trigger": false,
      "metar": "METAR LRBS 170530Z 00000KT 8000 NSC M09/M11 Q1035 NOSIG",
      "taf": "TAF LRBS 170500Z 1706/1806 VRB04KT CAVOK"
    },
    {
      "icao": "LRBV",
      "alert": "OK",
      "vis_m": 9999,
      "fzfg": false,
      "metar_trigger": false,
      "taf_trigger": false,
      "metar": "METAR LRBV 170530Z 21006KT CAVOK M12/M14 Q1030",
      "taf": "TAF LRBV 170500Z 1706/1715 VRB04KT CAVOK"
    },
    {
      "icao": "LRCL",
      "alert": "OK",
      "vis_m": 9999,
      "fzfg": false,
      "metar_trigger": false,
      "taf_trigger": false,
      "metar": "METAR LRCL 170530Z 08005KT CAVOK M11/M12 Q1031",
      "taf": "TAF LRCL 170500Z 1706/1715 08007KT CAVOK"
    },
    {
      "icao": "LRCV",
      "alert": "OK",
      "vis_m": 9999,
      "fzfg": false,
      "metar_trigger": false,
      "taf_trigger": false,
      "metar": "METAR LRCV 170530Z 11005KT CAVOK M07/M08 Q1034",
      "taf": "TAF LRCV 170500Z 1706/1715 11005KT CAVOK"
    },
    {
      "icao": "LRIA",
      "alert": "OK",
      "vis_m": 7000,
      "fzfg": false,
      "metar_trigger": false,
      "taf_trigger": false,
      "metar": "METAR LRIA 170530Z 28004KT 7000 NSC M16/M18 Q1036",
      "taf": "TAF LRIA 170500Z 1706/1715 VRB04KT 5000 BR NSC"
    },
    {
      "icao": "LROP",
      "alert": "OK",
      "vis_m": 7000,
      "fzfg": false,
      "metar_trigger": false,
      "taf_trigger": false,
      "metar": "METAR LROP 170530Z 13002KT 7000 NSC M10/M12 Q1035 NOSIG",
      "taf": "TAF LROP 170500Z 1706/1806 VRB04KT CAVOK"
    },
    {
      "icao": "LRSB",
      "alert": "OK",
      "vis_m": 9999,
      "fzfg": false,
      "metar_trigger": false,
      "taf_trigger": false,
      "metar": "METAR LRSB 170530Z VRB02KT CAVOK M08/M08 Q1029",
      "taf": "TAF LRSB 170500Z 1706/1806 VRB04KT CAVOK"
    },
    {
      "icao": "LRSM",
      "alert": "OK",
      "vis_m": 9999,
      "fzfg": false,
      "metar_trigger": false,
      "taf_trigger": false,
      "metar": "METAR LRSM 170530Z AUTO 06005KT 9999 NCD M08/M11 Q1031",
      "taf": ""
    },
    {
      "icao": "LRSV",
      "alert": "OK",
      "vis_m": 9999,
      "fzfg": false,
      "metar_trigger": false,
      "taf_trigger": false,
      "metar": "METAR LRSV 170530Z 01004KT CAVOK M11/M16 Q1033",
      "taf": "TAF LRSV 170500Z 1706/1715 VRB04KT CAVOK"
    },
    {
      "icao": "LRTM",
      "alert": "OK",
      "vis_m": 9999,
      "fzfg": false,
      "metar_trigger": false,
      "taf_trigger": false,
      "metar": "METAR LRTM 170530Z 09005KT CAVOK M13/M15 Q1031",
      "taf": "TAF LRTM 170500Z 1706/1715 10004KT CAVOK"
    },
    {
      "icao": "LRTR",
      "alert": "OK",
      "vis_m": 9999,
      "fzfg": false,
      "metar_trigger": false,
      "taf_trigger": false,
      "metar": "METAR LRTR 170530Z 08006KT 9999 FEW035 BKN045 M02/M05 Q1030",
      "taf": "TAF LRTR 170500Z 1706/1806 08006KT 9999 BKN045"
    },
    {
      "icao": "LTAC",
      "alert": "OK",
      "vis_m": 9999,
      "fzfg": false,
      "metar_trigger": false,
      "taf_trigger": false,
      "metar": "METAR LTAC 170520Z 33007KT 9999 FEW040 M05/M09 Q1021 NOSIG RMK RWY21C 31006KT RWY03L 32005KT RWY21R 29004KT RWY03R 29004KT 260V330 RWY21L 33004KT 280V010",
      "taf": "TAF LTAC 170440Z 1706/1806 34008KT 9999 SCT040 BKN100"
    },
    {
      "icao": "LTFM",
      "alert": "OK",
      "vis_m": 9999,
      "fzfg": false,
      "metar_trigger": false,
      "taf_trigger": false,
      "metar": "METAR LTFM 170520Z 05016KT 9999 -SHRA SCT012 BKN025 05/M02 Q1029 NOSIG RMK RWY17L 05015KT RWY34L 04013KT RWY16R 04014KT RWY36 03018KT RWY18 05014KT",
      "taf": "TAF LTFM 170440Z 1706/1812 04018KT 9999 -SHRA SCT014 BKN025 BKN080"
    },
    {
      "icao": "LUKK",
      "alert": "OK",
      "vis_m": 9999,
      "fzfg": false,
      "metar_trigger": false,
      "taf_trigger": false,
      "metar": "METAR LUKK 170530Z 02006KT CAVOK M14/M17 Q1035 NOSIG",
      "taf": "TAF LUKK 170514Z 1706/1806 01009KT CAVOK"
    },
    {
      "icao": "LWOH",
      "alert": "OK",
      "vis_m": 9999,
      "fzfg": false,
      "metar_trigger": false,
      "taf_trigger": false,
      "metar": "METAR LWOH 170550Z VRB02KT 9999 FEW035 BKN070 01/M01 Q1023",
      "taf": "TAF LWOH 170530Z 1706/1806 VRB02KT 9999 FEW035 SCT070"
    },
    {
      "icao": "LWSK",
      "alert": "OK",
      "vis_m": 3500,
      "fzfg": false,
      "metar_trigger": false,
      "taf_trigger": false,
      "metar": "METAR LWSK 170550Z VRB01KT 3500 BR OVC033 M01/M02 Q1027 NOSIG",
      "taf": "TAF LWSK 170530Z 1706/1806 VRB02KT 5000 BR SCT020 BKN035"
    },
    {
      "icao": "LYBE",
      "alert": "OK",
      "vis_m": 9999,
      "fzfg": false,
      "metar_trigger": false,
      "taf_trigger": false,
      "metar": "METAR LYBE 170530Z 11012KT CAVOK M00/M04 Q1028 NOSIG",
      "taf": "TAF LYBE 170500Z 1706/1806 11014KT CAVOK TX04/1712Z TNM05/1806Z"
    },
    {
      "icao": "LYNI",
      "alert": "OK",
      "vis_m": 9999,
      "fzfg": false,
      "metar_trigger": false,
      "taf_trigger": false,
      "metar": "METAR LYNI 170530Z 04006KT 360V070 CAVOK M01/M04 Q1029 NOSIG",
      "taf": "TAF LYNI 170500Z 1706/1806 05008KT 9999 SCT040 TX03/1712Z TNM04/1806Z"
    },
    {
      "icao": "LYPG",
      "alert": "OK",
      "vis_m": 300,
      "fzfg": false,
      "metar_trigger": false,
      "taf_trigger": false,
      "metar": "METAR LYPG 170530Z 00000KT 0300 R18/0600D R36/0500N FG NSC 01/01 Q1023 NOSIG",
      "taf": ""
    },
    {
      "icao": "LZIB",
      "alert": "OK",
      "vis_m": 5000,
      "fzfg": false,
      "metar_trigger": false,
      "taf_trigger": false,
      "metar": "METAR LZIB 170530Z 04008KT 5000 BR BKN007 OVC008 01/01 Q1027 NOSIG",
      "taf": "TAF LZIB 170515Z 1706/1806 06008KT 9999 BKN018 OVC022"
    },
    {
      "icao": "LZKZ",
      "alert": "OK",
      "vis_m": 9999,
      "fzfg": false,
      "metar_trigger": false,
      "taf_trigger": false,
      "metar": "METAR LZKZ 170530Z 33006KT CAVOK M00/M05 Q1030 NOSIG",
      "taf": "TAF LZKZ 170515Z 1706/1806 32006KT CAVOK"
    },
    {
      "icao": "LZTT",
      "alert": "OK",
      "vis_m": 2000,
      "fzfg": false,
      "metar_trigger": false,
      "taf_trigger": false,
      "metar": "METAR LZTT 170530Z VRB02KT 2000 BR OVC005 M01/M01 Q1027",
      "taf": "TAF LZTT 170515Z 1706/1806 VRB02KT 9999 OVC012"
    },
    {
      "icao": "OEJN",
      "alert": "OK",
      "vis_m": 9999,
      "fzfg": false,
      "metar_trigger": false,
      "taf_trigger": false,
      "metar": "METAR OEJN 170500Z 00000KT CAVOK 23/12 Q1014 NOSIG",
      "taf": "TAF OEJN 170500Z 1706/1812 28012KT 7000 FEW040"
    },
    {
      "icao": "OEMA",
      "alert": "OK",
      "vis_m": 9999,
      "fzfg": false,
      "metar_trigger": false,
      "taf_trigger": false,
      "metar": "METAR OEMA 170500Z 03006KT CAVOK 14/01 Q1020 NOSIG",
      "taf": "TAF OEMA 170500Z 1706/1812 09010KT CAVOK"
    },
    {
      "icao": "OJAI",
      "alert": "OK",
      "vis_m": 2500,
      "fzfg": false,
      "metar_trigger": false,
      "taf_trigger": false,
      "metar": "METAR OJAI 170500Z 01003KT 2500 BR NSC 04/03 Q1019 NOSIG",
      "taf": "TAF OJAI 170448Z 1706/1812 06005KT 2000 BR FEW035"
    },
    {
      "icao": "OMAA",
      "alert": "OK",
      "vis_m": 9999,
      "fzfg": false,
      "metar_trigger": false,
      "taf_trigger": false,
      "metar": "METAR OMAA 170500Z 29012KT 9999 FEW035 19/11 Q1020 NOSIG",
      "taf": "TAF OMAA 170500Z 1706/1812 31013KT 9999 SCT040"
    },
    {
      "icao": "OMDB",
      "alert": "OK",
      "vis_m": 9999,
      "fzfg": false,
      "metar_trigger": false,
      "taf_trigger": false,
      "metar": "METAR OMDB 170530Z 27012KT 9999 BKN035 21/12 Q1019 NOSIG",
      "taf": "TAF OMDB 170500Z 1706/1812 28012KT 8000 SCT040"
    },
    {
      "icao": "UAAA",
      "alert": "OK",
      "vis_m": 9999,
      "fzfg": false,
      "metar_trigger": false,
      "taf_trigger": false,
      "metar": "METAR UAAA 170530Z 29003MPS 9999 SCT050CB BKN100 M17/M20 Q1029 NOSIG",
      "taf": "TAF UAAA 170501Z 1706/1806 28003MPS 5000 BR BKN020CB OVC040 TXM15/1708Z TNM20/1803Z"
    },
    {
      "icao": "UBBB",
      "alert": "OK",
      "vis_m": 9999,
      "fzfg": false,
      "metar_trigger": false,
      "taf_trigger": false,
      "metar": "METAR UBBB 170530Z 32008KT 9999 SCT009 OVC019 05/03 Q1025 NOSIG",
      "taf": "TAF UBBB 170459Z 1706/1806 33010KT 9999 BKN020 TX07/1710Z TN02/1801Z"
    },
    {
      "icao": "UDSG",
      "alert": "OK",
      "vis_m": 3100,
      "fzfg": false,
      "metar_trigger": false,
      "taf_trigger": false,
      "metar": "METAR UDSG 170530Z 04003KT 3100 -SN BR OVC040 M11/M13 Q1020 NOSIG",
      "taf": "TAF UDSG 170500Z 1706/1806 VRB06KT 2000 BR BKN020"
    },
    {
      "icao": "UDYZ",
      "alert": "OK",
      "vis_m": 9000,
      "fzfg": false,
      "metar_trigger": false,
      "taf_trigger": false,
      "metar": "METAR UDYZ 170530Z 18001KT 9000 FEW046 M05/M07 Q1022 NOSIG",
      "taf": "TAF UDYZ 170500Z 1706/1806 24006KT 6000 SCT040"
    },
    {
      "icao": "UGKO",
      "alert": "OK",
      "vis_m": 9999,
      "fzfg": false,
      "metar_trigger": false,
      "taf_trigger": false,
      "metar": "METAR UGKO 170530Z VRB02KT 9999 SCT025 OVC072 02/02 Q1022 NOSIG",
      "taf": "TAF UGKO 170500Z 1706/1806 09007KT 9999 SCT012 OVC040 TX04/1711Z TN00/1806Z"
    }
  ]
}