{
  "ts_utc": "2026-05-15T13:01:42Z",
  "threshold_m": 150,
  "source": "stations_override.txt (ICAO list) + aviationweather.gov (METAR/TAF raw)",
  "station_count": 159,
  "stations": [
    {
      "icao": "BIKF",
      "alert": "OK",
      "vis_m": 9999,
      "fzfg": false,
      "metar_trigger": false,
      "taf_trigger": false,
      "metar": "METAR BIKF 151230Z 14029KT 9999 BKN009 BKN043 OVC071 08/07 Q1005",
      "taf": "TAF BIKF 151036Z 1512/1612 13022G32KT 9999 -DZRA SCT008 OVC012 TX08/1512Z TN06/1609Z"
    },
    {
      "icao": "BKPR",
      "alert": "OK",
      "vis_m": 9999,
      "fzfg": false,
      "metar_trigger": false,
      "taf_trigger": false,
      "metar": "METAR BKPR 151300Z 21016KT 9999 FEW050 SCT080 20/07 Q1006 NOSIG",
      "taf": "TAF BKPR 151130Z 1512/1612 24008KT 9999 SCT040"
    },
    {
      "icao": "EBCI",
      "alert": "OK",
      "vis_m": 9999,
      "fzfg": false,
      "metar_trigger": false,
      "taf_trigger": false,
      "metar": "METAR EBCI 151250Z 32004KT 270V010 9999 FEW030 10/04 Q1005 TEMPO 4000 SHRAGS SCT022CB",
      "taf": "TAF EBCI 151100Z 1512/1618 32009KT 9999 FEW020TCU SCT040"
    },
    {
      "icao": "EDDB",
      "alert": "OK",
      "vis_m": 9999,
      "fzfg": false,
      "metar_trigger": false,
      "taf_trigger": false,
      "metar": "METAR EDDB 151250Z AUTO 25005KT 200V320 CAVOK 15/04 Q1001 NOSIG",
      "taf": "TAF EDDB 151100Z 1512/1612 28005KT 9999 SCT040"
    },
    {
      "icao": "EDDH",
      "alert": "OK",
      "vis_m": 9999,
      "fzfg": false,
      "metar_trigger": false,
      "taf_trigger": false,
      "metar": "METAR EDDH 151250Z AUTO 24013KT 190V280 9999 VCSH FEW048 FEW///CB 14/03 Q1000 TEMPO 25015G25KT SHRA SCT025CB",
      "taf": "TAF EDDH 151100Z 1512/1618 24010KT 9999 SCT035"
    },
    {
      "icao": "EDDK",
      "alert": "OK",
      "vis_m": 9999,
      "fzfg": false,
      "metar_trigger": false,
      "taf_trigger": false,
      "metar": "METAR EDDK 151250Z AUTO 30011KT 260V320 9999 -SHRA FEW046 FEW///CB 12/04 Q1003 RESHRA TEMPO SHRA",
      "taf": "TAF EDDK 151100Z 1512/1618 30009KT 9999 SCT040"
    },
    {
      "icao": "EDDN",
      "alert": "OK",
      "vis_m": 9999,
      "fzfg": false,
      "metar_trigger": false,
      "taf_trigger": false,
      "metar": "METAR EDDN 151250Z AUTO VRB03KT 9999 FEW030 14/04 Q1001 RESHRA TEMPO SHRA SCT030CB",
      "taf": "TAF EDDN 151100Z 1512/1612 29008KT 9999 SCT030 BKN045"
    },
    {
      "icao": "EDDS",
      "alert": "OK",
      "vis_m": 9999,
      "fzfg": false,
      "metar_trigger": false,
      "taf_trigger": false,
      "metar": "METAR EDDS 151250Z AUTO 32008KT 290V360 9999 VCSH FEW026 FEW///TCU 12/05 Q1002 TEMPO SHRA",
      "taf": "TAF EDDS 151100Z 1512/1612 30006KT 9999 BKN035"
    },
    {
      "icao": "EDFH",
      "alert": "OK",
      "vis_m": 9999,
      "fzfg": false,
      "metar_trigger": false,
      "taf_trigger": false,
      "metar": "METAR EDFH 151250Z 28010KT 250V340 9999 FEW028 BKN033 09/03 Q1003",
      "taf": "TAF EDFH 151100Z 1512/1612 30007KT 9999 BKN030"
    },
    {
      "icao": "EDJA",
      "alert": "OK",
      "vis_m": 9999,
      "fzfg": false,
      "metar_trigger": false,
      "taf_trigger": false,
      "metar": "METAR EDJA 151250Z 28007KT 250V310 9999 FEW037 11/01 Q1001",
      "taf": "TAF EDJA 151100Z 1512/1521 29004KT 9999 SCT030"
    },
    {
      "icao": "EDLW",
      "alert": "OK",
      "vis_m": 9999,
      "fzfg": false,
      "metar_trigger": false,
      "taf_trigger": false,
      "metar": "METAR EDLW 151250Z 25006KT 190V350 9999 FEW045 13/05 Q1002",
      "taf": "TAF EDLW 151100Z 1512/1612 25006KT 9999 SCT040"
    },
    {
      "icao": "EDNY",
      "alert": "OK",
      "vis_m": 9999,
      "fzfg": false,
      "metar_trigger": false,
      "taf_trigger": false,
      "metar": "METAR EDNY 151250Z 25007KT 9999 SCT036 12/03 Q1001",
      "taf": "TAF EDNY 151100Z 1512/1521 25005KT 9999 SCT030"
    },
    {
      "icao": "EDSB",
      "alert": "OK",
      "vis_m": 9999,
      "fzfg": false,
      "metar_trigger": false,
      "taf_trigger": false,
      "metar": "METAR EDSB 151250Z 13005KT 070V170 9999 FEW015 11/06 Q1003",
      "taf": "TAF EDSB 151100Z 1512/1612 31005KT 9999 BKN030"
    },
    {
      "icao": "EETN",
      "alert": "OK",
      "vis_m": 9999,
      "fzfg": false,
      "metar_trigger": false,
      "taf_trigger": false,
      "metar": "METAR EETN 151250Z 06012KT 030V090 CAVOK 16/03 Q1006 NOSIG",
      "taf": "TAF EETN 151130Z 1512/1612 05012KT CAVOK"
    },
    {
      "icao": "EFTU",
      "alert": "OK",
      "vis_m": 9999,
      "fzfg": false,
      "metar_trigger": false,
      "taf_trigger": false,
      "metar": "METAR EFTU 151250Z AUTO 17006KT 120V210 9999 BKN044 17/06 Q1006",
      "taf": "TAF EFTU 151126Z 1512/1612 16005KT CAVOK"
    },
    {
      "icao": "EGBB",
      "alert": "OK",
      "vis_m": 9999,
      "fzfg": false,
      "metar_trigger": false,
      "taf_trigger": false,
      "metar": "METAR EGBB 151250Z 33014KT CAVOK 12/M00 Q1008",
      "taf": "TAF EGBB 151053Z 1512/1612 32011KT 9999 SCT040"
    },
    {
      "icao": "EGGP",
      "alert": "OK",
      "vis_m": 9999,
      "fzfg": false,
      "metar_trigger": false,
      "taf_trigger": false,
      "metar": "METAR EGGP 151250Z 27013KT 9999 SCT030 11/02 Q1009",
      "taf": "TAF EGGP 151054Z 1512/1612 32010KT 9999 SCT040"
    },
    {
      "icao": "EGGW",
      "alert": "OK",
      "vis_m": 9999,
      "fzfg": false,
      "metar_trigger": false,
      "taf_trigger": false,
      "metar": "METAR EGGW 151250Z AUTO 33011KT 290V010 9999 NCD 13/00 Q1007",
      "taf": ""
    },
    {
      "icao": "EGKK",
      "alert": "OK",
      "vis_m": 9999,
      "fzfg": false,
      "metar_trigger": false,
      "taf_trigger": false,
      "metar": "METAR EGKK 151250Z 30007KT 260V010 9999 BKN039 13/03 Q1007",
      "taf": "TAF EGKK 151057Z 1512/1618 31010KT 9999 SCT035"
    },
    {
      "icao": "EGNM",
      "alert": "OK",
      "vis_m": 9999,
      "fzfg": false,
      "metar_trigger": false,
      "taf_trigger": false,
      "metar": "METAR EGNM 151250Z 31009KT 270V350 9999 SCT048 09/M02 Q1007",
      "taf": "TAF EGNM 151054Z 1512/1612 31011KT 9999 FEW035"
    },
    {
      "icao": "EGPD",
      "alert": "OK",
      "vis_m": 9999,
      "fzfg": false,
      "metar_trigger": false,
      "taf_trigger": false,
      "metar": "METAR EGPD 151250Z COR AUTO 32020KT 9999 SCT038 SCT049 11/01 Q1005 NOSIG",
      "taf": "TAF EGPD 151100Z 1512/1612 33018G30KT 9999 FEW025 SCT035"
    },
    {
      "icao": "EGPF",
      "alert": "OK",
      "vis_m": 9999,
      "fzfg": false,
      "metar_trigger": false,
      "taf_trigger": false,
      "metar": "METAR EGPF 151250Z AUTO 28010KT 9999 NCD 11/01 Q1008",
      "taf": "TAF EGPF 151057Z 1512/1612 30010KT 9999 SCT030"
    },
    {
      "icao": "EHBK",
      "alert": "OK",
      "vis_m": 9999,
      "fzfg": false,
      "metar_trigger": false,
      "taf_trigger": false,
      "metar": "METAR EHBK 151255Z AUTO 30010KT 240V350 9999 NSC 10/04 Q1004 TEMPO 4000 SHRA SCT022CB",
      "taf": "TAF EHBK 151113Z 1512/1618 27007KT 9999 SCT035"
    },
    {
      "icao": "EHEH",
      "alert": "OK",
      "vis_m": 9999,
      "fzfg": false,
      "metar_trigger": false,
      "taf_trigger": false,
      "metar": "METAR EHEH 151225Z AUTO 31006KT 210V010 9999 SCT031 SCT040 OVC120 12/02 Q1004 BLU TEMPO FEW015 SCT020CB SCT025",
      "taf": "TAF EHEH 151130Z 1512/1618 29006KT 9999 SCT030"
    },
    {
      "icao": "EKBI",
      "alert": "OK",
      "vis_m": 9999,
      "fzfg": false,
      "metar_trigger": false,
      "taf_trigger": false,
      "metar": "METAR EKBI 151251Z 21014KT 9999 -RA FEW015 FEW018CB BKN035 09/06 Q0997",
      "taf": "TAF EKBI 151127Z 1512/1612 18012KT 9999 BKN020"
    },
    {
      "icao": "EKCH",
      "alert": "OK",
      "vis_m": 9999,
      "fzfg": false,
      "metar_trigger": false,
      "taf_trigger": false,
      "metar": "METAR EKCH 151250Z AUTO 15013KT 9999 NCD 12/03 Q1001 NOSIG",
      "taf": "TAF EKCH 151127Z 1512/1612 17010KT 9999 SCT030"
    },
    {
      "icao": "ENAL",
      "alert": "OK",
      "vis_m": 9999,
      "fzfg": false,
      "metar_trigger": false,
      "taf_trigger": false,
      "metar": "METAR ENAL 151250Z 03005KT CAVOK 16/02 Q0996",
      "taf": "TAF ENAL 151100Z 1512/1521 14008KT 9999 FEW050"
    },
    {
      "icao": "ENBR",
      "alert": "OK",
      "vis_m": 9999,
      "fzfg": false,
      "metar_trigger": false,
      "taf_trigger": false,
      "metar": "METAR ENBR 151250Z 09008KT 050V120 9999 BKN053 12/M00 Q0994 NOSIG RMK WIND 1200FT 13014KT",
      "taf": ""
    },
    {
      "icao": "ENGM",
      "alert": "OK",
      "vis_m": 9999,
      "fzfg": false,
      "metar_trigger": false,
      "taf_trigger": false,
      "metar": "METAR ENGM 151250Z 22012KT 9999 -SHRA FEW013CB SCT021 BKN042 07/04 Q1000 TEMPO VRB05KT",
      "taf": ""
    },
    {
      "icao": "ENHD",
      "alert": "OK",
      "vis_m": 9999,
      "fzfg": false,
      "metar_trigger": false,
      "taf_trigger": false,
      "metar": "METAR ENHD 151250Z 10008KT 060V160 9999 BKN045 12/02 Q0993",
      "taf": "TAF ENHD 151100Z 1512/1521 28008KT CAVOK"
    },
    {
      "icao": "ENTC",
      "alert": "OK",
      "vis_m": 9999,
      "fzfg": false,
      "metar_trigger": false,
      "taf_trigger": false,
      "metar": "METAR ENTC 151250Z 19018KT CAVOK 14/M00 Q1005 NOSIG RMK WIND 2600FT 17039KT",
      "taf": "TAF ENTC 151100Z 1512/1612 19015KT CAVOK"
    },
    {
      "icao": "ENTO",
      "alert": "OK",
      "vis_m": 9999,
      "fzfg": false,
      "metar_trigger": false,
      "taf_trigger": false,
      "metar": "METAR ENTO 151250Z 16008KT 9999 -SHRA FEW026 08/05 Q0999 NOSIG",
      "taf": "TAF ENTO 151100Z 1512/1612 15010KT 9999 FEW010 SCT050"
    },
    {
      "icao": "ENVA",
      "alert": "OK",
      "vis_m": 9999,
      "fzfg": false,
      "metar_trigger": false,
      "taf_trigger": false,
      "metar": "METAR ENVA 151250Z 16010KT 130V210 CAVOK 16/02 Q0999 NOSIG RMK WIND 670FT 17018KT",
      "taf": "TAF ENVA 151100Z 1512/1612 13012KT 9999 SCT050"
    },
    {
      "icao": "ENZV",
      "alert": "OK",
      "vis_m": 9999,
      "fzfg": false,
      "metar_trigger": false,
      "taf_trigger": false,
      "metar": "METAR ENZV 151250Z 13009KT 100V180 9999 BKN037 11/02 Q0993 RERA NOSIG",
      "taf": "TAF ENZV 151100Z 1512/1612 12005KT 9999 -SHRA SCT035 BKN040"
    },
    {
      "icao": "EPGD",
      "alert": "OK",
      "vis_m": 9999,
      "fzfg": false,
      "metar_trigger": false,
      "taf_trigger": false,
      "metar": "METAR EPGD 151230Z 29004KT 250V320 9999 -RA FEW007 13/09 Q1000",
      "taf": "TAF EPGD 151130Z 1512/1612 VRB04KT 9999 SCT020"
    },
    {
      "icao": "EPKK",
      "alert": "OK",
      "vis_m": 9999,
      "fzfg": false,
      "metar_trigger": false,
      "taf_trigger": false,
      "metar": "METAR EPKK 151230Z 32005KT 9999 FEW026TCU SCT060 14/09 Q1001 RETSRA",
      "taf": "TAF EPKK 151130Z 1512/1612 26005KT 9999 SCT048"
    },
    {
      "icao": "EPKT",
      "alert": "OK",
      "vis_m": 9999,
      "fzfg": false,
      "metar_trigger": false,
      "taf_trigger": false,
      "metar": "METAR EPKT 151230Z 22015KT 9999 FEW035TCU 14/08 Q1000",
      "taf": "TAF EPKT 151130Z 1512/1612 20008KT 9999 BKN030"
    },
    {
      "icao": "EPLB",
      "alert": "OK",
      "vis_m": 9999,
      "fzfg": false,
      "metar_trigger": false,
      "taf_trigger": false,
      "metar": "METAR EPLB 151230Z 17010KT 140V210 CAVOK 21/04 Q1002",
      "taf": "TAF EPLB 151130Z 1512/1612 18012KT CAVOK"
    },
    {
      "icao": "EPMO",
      "alert": "OK",
      "vis_m": 9999,
      "fzfg": false,
      "metar_trigger": false,
      "taf_trigger": false,
      "metar": "METAR EPMO 151230Z 13007KT 110V180 CAVOK 19/05 Q1000",
      "taf": "TAF EPMO 151130Z 1512/1612 15012KT CAVOK"
    },
    {
      "icao": "EPPO",
      "alert": "OK",
      "vis_m": 9999,
      "fzfg": false,
      "metar_trigger": false,
      "taf_trigger": false,
      "metar": "METAR EPPO 151230Z 36006KT 9999 -RA BKN006 11/09 Q1000",
      "taf": "TAF EPPO 151130Z 1512/1612 34010KT 9999 BKN026"
    },
    {
      "icao": "EPRA",
      "alert": "OK",
      "vis_m": 9999,
      "fzfg": false,
      "metar_trigger": false,
      "taf_trigger": false,
      "metar": "METAR EPRA 151230Z 16016KT CAVOK 18/05 Q1000",
      "taf": "TAF EPRA 151130Z 1512/1521 17010KT CAVOK"
    },
    {
      "icao": "EPRZ",
      "alert": "OK",
      "vis_m": 9999,
      "fzfg": false,
      "metar_trigger": false,
      "taf_trigger": false,
      "metar": "METAR EPRZ 151230Z 15008KT 9999 SCT050CB 18/06 Q1002",
      "taf": "TAF EPRZ 151130Z 1512/1612 19014KT CAVOK"
    },
    {
      "icao": "EPSC",
      "alert": "OK",
      "vis_m": 9999,
      "fzfg": false,
      "metar_trigger": false,
      "taf_trigger": false,
      "metar": "METAR EPSC 151230Z 14006KT 9999 -SHRA FEW002 SCT034TCU BKN045 12/09 Q1000",
      "taf": "TAF EPSC 151130Z 1512/1612 VRB04KT CAVOK"
    },
    {
      "icao": "EPSY",
      "alert": "OK",
      "vis_m": 9999,
      "fzfg": false,
      "metar_trigger": false,
      "taf_trigger": false,
      "metar": "METAR EPSY 151230Z 16012KT 120V200 CAVOK 20/03 Q1000",
      "taf": "TAF EPSY 151130Z 1512/1521 15010KT CAVOK"
    },
    {
      "icao": "EPWA",
      "alert": "OK",
      "vis_m": 9999,
      "fzfg": false,
      "metar_trigger": false,
      "taf_trigger": false,
      "metar": "METAR EPWA 151230Z 12009KT 9999 -SHRA SCT050CB 18/07 Q1000 TEMPO 4000 SHRA",
      "taf": "TAF EPWA 151130Z 1512/1612 15012KT CAVOK"
    },
    {
      "icao": "EPWR",
      "alert": "OK",
      "vis_m": 9999,
      "fzfg": false,
      "metar_trigger": false,
      "taf_trigger": false,
      "metar": "METAR EPWR 151230Z 31008KT 9999 SCT013TCU BKN020 13/09 Q1000",
      "taf": "TAF EPWR 151130Z 1512/1612 31010KT 9999 BKN020"
    },
    {
      "icao": "ESGG",
      "alert": "OK",
      "vis_m": 9999,
      "fzfg": false,
      "metar_trigger": false,
      "taf_trigger": false,
      "metar": "METAR ESGG 151250Z 20012KT 9999 SCT046 12/01 Q0999",
      "taf": "TAF ESGG 151130Z 1512/1612 16015KT 9999 SCT040"
    },
    {
      "icao": "ESKN",
      "alert": "OK",
      "vis_m": 9999,
      "fzfg": false,
      "metar_trigger": false,
      "taf_trigger": false,
      "metar": "METAR ESKN 151250Z 12011KT 9999 FEW014 BKN100 10/06 Q1004",
      "taf": "TAF ESKN 151130Z 1512/1612 13012KT 9999 FEW020"
    },
    {
      "icao": "ESMS",
      "alert": "OK",
      "vis_m": 9999,
      "fzfg": false,
      "metar_trigger": false,
      "taf_trigger": false,
      "metar": "METAR ESMS 151250Z 19009KT 9999 SCT032 12/04 Q1001",
      "taf": "TAF ESMS 151127Z 1512/1612 15008KT 9999 SCT025"
    },
    {
      "icao": "ESSA",
      "alert": "OK",
      "vis_m": 9999,
      "fzfg": false,
      "metar_trigger": false,
      "taf_trigger": false,
      "metar": "METAR ESSA 151250Z 13011KT 9999 FEW040 14/05 Q1004 NOSIG",
      "taf": "TAF ESSA 151130Z 1512/1612 14010KT 9999 SCT040"
    },
    {
      "icao": "EYKA",
      "alert": "OK",
      "vis_m": 9999,
      "fzfg": false,
      "metar_trigger": false,
      "taf_trigger": false,
      "metar": "METAR EYKA 151250Z 05006KT 010V080 CAVOK 20/05 Q1002",
      "taf": "TAF EYKA 151100Z 1512/1612 VRB05KT 9000 NSC"
    },
    {
      "icao": "EYPA",
      "alert": "OK",
      "vis_m": 9999,
      "fzfg": false,
      "metar_trigger": false,
      "taf_trigger": false,
      "metar": "METAR EYPA 151250Z VRB05KT CAVOK 21/05 Q1002",
      "taf": "TAF EYPA 151100Z 1512/1612 VRB05KT 9000 NSC"
    },
    {
      "icao": "EYVI",
      "alert": "OK",
      "vis_m": 9999,
      "fzfg": false,
      "metar_trigger": false,
      "taf_trigger": false,
      "metar": "METAR EYVI 151250Z 03007KT 360V070 CAVOK 20/04 Q1003 NOSIG",
      "taf": "TAF EYVI 151100Z 1512/1612 VRB03KT 9000 NSC"
    },
    {
      "icao": "GCFV",
      "alert": "OK",
      "vis_m": 9999,
      "fzfg": false,
      "metar_trigger": false,
      "taf_trigger": false,
      "metar": "METAR GCFV 151230Z 03019KT 9999 SCT030 BKN045 24/13 Q1018",
      "taf": "TAF GCFV 150800Z 1509/1609 01017KT 9999 SCT035 TX24/1514Z TN17/1606Z"
    },
    {
      "icao": "GCLP",
      "alert": "OK",
      "vis_m": 9999,
      "fzfg": false,
      "metar_trigger": false,
      "taf_trigger": false,
      "metar": "METAR GCLP 151230Z 02023G34KT 9999 FEW035 22/13 Q1019 NOSIG",
      "taf": "TAF GCLP 150800Z 1509/1609 01023KT 9999 BKN030 TX23/1514Z TN17/1606Z"
    },
    {
      "icao": "GCTS",
      "alert": "OK",
      "vis_m": 9999,
      "fzfg": false,
      "metar_trigger": false,
      "taf_trigger": false,
      "metar": "METAR GCTS 151230Z 09019KT 060V130 9999 BKN050 22/11 Q1020 NOSIG",
      "taf": "TAF GCTS 150800Z 1509/1609 34007KT 9999 SCT035 TX23/1514Z TN15/1606Z"
    },
    {
      "icao": "GMAD",
      "alert": "OK",
      "vis_m": 9999,
      "fzfg": false,
      "metar_trigger": false,
      "taf_trigger": false,
      "metar": "METAR GMAD 151230Z 25012KT 9999 FEW030 24/09 Q1011 NOSIG",
      "taf": "TAF GMAD 151100Z 1512/1618 26010KT 8000 SCT026 SCT100"
    },
    {
      "icao": "GMMN",
      "alert": "OK",
      "vis_m": 9999,
      "fzfg": false,
      "metar_trigger": false,
      "taf_trigger": false,
      "metar": "METAR GMMN 151230Z 33009KT 290V030 9999 BKN020 22/12 Q1015 NOSIG",
      "taf": "TAF GMMN 151100Z 1512/1618 32010KT 9999 BKN020"
    },
    {
      "icao": "GMMX",
      "alert": "OK",
      "vis_m": 9999,
      "fzfg": false,
      "metar_trigger": false,
      "taf_trigger": false,
      "metar": "METAR GMMX 151230Z 35005KT 280V090 9999 SCT023 SCT080 21/09 Q1014 NOSIG",
      "taf": "TAF GMMX 151100Z 1512/1618 36006KT 9999 SCT023 BKN080"
    },
    {
      "icao": "HEGN",
      "alert": "OK",
      "vis_m": 9999,
      "fzfg": false,
      "metar_trigger": false,
      "taf_trigger": false,
      "metar": "METAR HEGN 151200Z 36010KT CAVOK 34/08 Q1007 NOSIG",
      "taf": "TAF HEGN 151100Z 1512/1618 35012G22KT 6000 NSC"
    },
    {
      "icao": "HEMA",
      "alert": "OK",
      "vis_m": 9999,
      "fzfg": false,
      "metar_trigger": false,
      "taf_trigger": false,
      "metar": "METAR HEMA 151200Z 36013KT CAVOK 34/07 Q1006 NOSIG",
      "taf": "TAF HEMA 151100Z 1512/1618 36012G22KT 6000 NSC"
    },
    {
      "icao": "HESH",
      "alert": "OK",
      "vis_m": 9999,
      "fzfg": false,
      "metar_trigger": false,
      "taf_trigger": false,
      "metar": "METAR HESH 151200Z 02008KT CAVOK 35/07 Q1006 NOSIG",
      "taf": "TAF HESH 151100Z 1512/1618 01014KT CAVOK"
    },
    {
      "icao": "HESX",
      "alert": "OK",
      "vis_m": 9999,
      "fzfg": false,
      "metar_trigger": false,
      "taf_trigger": false,
      "metar": "METAR HESX 151200Z 32011KT CAVOK 29/06 Q1011 NOSIG",
      "taf": "TAF HESX 151100Z 1512/1618 34010KT CAVOK"
    },
    {
      "icao": "LATI",
      "alert": "OK",
      "vis_m": 9999,
      "fzfg": false,
      "metar_trigger": false,
      "taf_trigger": false,
      "metar": "METAR LATI 151250Z 23011KT 200V260 9999 FEW050 23/09 Q1008 NOSIG",
      "taf": "TAF LATI 151100Z 1512/1612 21010KT 9999 SCT040 BKN090 TX23/1512Z TN14/1604Z"
    },
    {
      "icao": "LBPD",
      "alert": "OK",
      "vis_m": 9999,
      "fzfg": false,
      "metar_trigger": false,
      "taf_trigger": false,
      "metar": "METAR LBPD 151230Z AUTO 11009KT 9999 FEW058/// BKN100/// 23/13 Q1006 NOSIG",
      "taf": "TAF LBPD 151100Z 1512/1612 12010KT 9999 SCT070"
    },
    {
      "icao": "LBSF",
      "alert": "OK",
      "vis_m": 9999,
      "fzfg": false,
      "metar_trigger": false,
      "taf_trigger": false,
      "metar": "METAR LBSF 151230Z 35007KT 320V030 9999 SCT070 19/09 Q1007 NOSIG",
      "taf": "TAF LBSF 151100Z 1512/1612 VRB04KT 9999 SCT060"
    },
    {
      "icao": "LBWN",
      "alert": "OK",
      "vis_m": 9999,
      "fzfg": false,
      "metar_trigger": false,
      "taf_trigger": false,
      "metar": "METAR LBWN 151230Z 10013KT 9999 FEW040 19/10 Q1007 NOSIG",
      "taf": "TAF LBWN 151100Z 1512/1612 12010KT 9999 SCT045"
    },
    {
      "icao": "LCLK",
      "alert": "OK",
      "vis_m": 9999,
      "fzfg": false,
      "metar_trigger": false,
      "taf_trigger": false,
      "metar": "METAR LCLK 151230Z 22021KT 9999 SCT025 SCT060 25/18 Q1005 NOSIG",
      "taf": "TAF LCLK 151130Z 1512/1612 22024KT 9999 FEW025 SCT060"
    },
    {
      "icao": "LCPH",
      "alert": "OK",
      "vis_m": 9999,
      "fzfg": false,
      "metar_trigger": false,
      "taf_trigger": false,
      "metar": "METAR LCPH 151230Z 28014KT 250V320 9999 FEW011 SCT017 22/18 Q1007 NOSIG",
      "taf": "TAF LCPH 151130Z 1512/1612 29016KT 9999 FEW012 SCT020"
    },
    {
      "icao": "LEAL",
      "alert": "OK",
      "vis_m": 9999,
      "fzfg": false,
      "metar_trigger": false,
      "taf_trigger": false,
      "metar": "METAR LEAL 151230Z 31012KT 270V350 9999 FEW012 OVC070 23/05 Q1005 NOSIG",
      "taf": "TAF LEAL 151100Z 1512/1612 30009KT 9999 FEW015 BKN060 TX26/1512Z TN11/1606Z"
    },
    {
      "icao": "LEBB",
      "alert": "OK",
      "vis_m": 9999,
      "fzfg": false,
      "metar_trigger": false,
      "taf_trigger": false,
      "metar": "METAR LEBB 151230Z 29013KT 250V330 9999 VCSH FEW030CB 15/07 Q1013 NOSIG",
      "taf": "TAF LEBB 151100Z 1512/1612 31009KT 9999 FEW020 BKN040 TX15/1513Z TN07/1603Z"
    },
    {
      "icao": "LEBL",
      "alert": "OK",
      "vis_m": 9999,
      "fzfg": false,
      "metar_trigger": false,
      "taf_trigger": false,
      "metar": "METAR LEBL 151230Z 20010KT 170V230 9999 FEW020 16/06 Q1005 NOSIG",
      "taf": "TAF LEBL 151100Z 1512/1612 22010KT 9999 FEW020 TX19/1512Z TN11/1605Z"
    },
    {
      "icao": "LECH",
      "alert": "OK",
      "vis_m": 9999,
      "fzfg": false,
      "metar_trigger": false,
      "taf_trigger": false,
      "metar": "METAR LECH 151230Z AUTO 30005G17KT 230V350 CAVOK 14/03 Q1007",
      "taf": "TAF LECH 151100Z 1512/1612 33010KT 9999 FEW040 TX21/1514Z TN07/1606Z"
    },
    {
      "icao": "LEMD",
      "alert": "OK",
      "vis_m": 9999,
      "fzfg": false,
      "metar_trigger": false,
      "taf_trigger": false,
      "metar": "METAR LEMD 151230Z 35015KT 290V030 9999 SCT050 BKN070 13/04 Q1011 NOSIG",
      "taf": ""
    },
    {
      "icao": "LEMG",
      "alert": "OK",
      "vis_m": 9999,
      "fzfg": false,
      "metar_trigger": false,
      "taf_trigger": false,
      "metar": "METAR LEMG 151230Z 28008KT 9999 FEW080 26/06 Q1008 NOSIG",
      "taf": "TAF LEMG 151100Z 1512/1612 29012KT CAVOK TX27/1514Z TN16/1607Z"
    },
    {
      "icao": "LEVC",
      "alert": "OK",
      "vis_m": 9999,
      "fzfg": false,
      "metar_trigger": false,
      "taf_trigger": false,
      "metar": "METAR LEVC 151230Z 34012KT 9999 -RA FEW020 FEW030TCU BKN060 18/05 Q1008 NOSIG",
      "taf": "TAF LEVC 151100Z 1512/1612 30009KT 9999 FEW040 TX21/1512Z TN09/1606Z"
    },
    {
      "icao": "LEXJ",
      "alert": "OK",
      "vis_m": 9999,
      "fzfg": false,
      "metar_trigger": false,
      "taf_trigger": false,
      "metar": "METAR LEXJ 151230Z 35010KT 290V050 9999 FEW035TCU 15/07 Q1014",
      "taf": "TAF LEXJ 150800Z 1509/1609 32009KT 9999 SCT025 BKN040 TX16/1515Z TN10/1603Z"
    },
    {
      "icao": "LEZG",
      "alert": "OK",
      "vis_m": 9999,
      "fzfg": false,
      "metar_trigger": false,
      "taf_trigger": false,
      "metar": "METAR LEZG 151230Z 31022KT 280V340 9999 FEW040 15/06 Q1009 NOSIG",
      "taf": "TAF LEZG 151100Z 1512/1612 32020KT 9999 FEW030 TX18/1518Z TN08/1605Z"
    },
    {
      "icao": "LEZL",
      "alert": "OK",
      "vis_m": 9999,
      "fzfg": false,
      "metar_trigger": false,
      "taf_trigger": false,
      "metar": "METAR LEZL 151230Z 28008KT 200V350 CAVOK 25/09 Q1010 NOSIG",
      "taf": "TAF LEZL 150800Z 1509/1609 28006KT CAVOK TX29/1515Z TN14/1607Z"
    },
    {
      "icao": "LFBD",
      "alert": "OK",
      "vis_m": 9999,
      "fzfg": false,
      "metar_trigger": false,
      "taf_trigger": false,
      "metar": "METAR LFBD 151230Z AUTO 36007KT 320V020 CAVOK 16/07 Q1010 TEMPO 33015G30KT 2000 -TSRA BKN012 BKN020CB",
      "taf": "TAF LFBD 151100Z 1512/1618 36010KT 9999 BKN030 TX16/1514Z TN07/1606Z"
    },
    {
      "icao": "LFLL",
      "alert": "OK",
      "vis_m": 9999,
      "fzfg": false,
      "metar_trigger": false,
      "taf_trigger": false,
      "metar": "METAR LFLL 151234Z VRB03KT 9999 VCSH FEW010 SCT020 FEW026CB BKN033 09/06 Q1005 RETSGS NOSIG",
      "taf": "TAF LFLL 151100Z 1512/1618 32008KT 9999 FEW030 BKN050"
    },
    {
      "icao": "LFLS",
      "alert": "OK",
      "vis_m": 9999,
      "fzfg": false,
      "metar_trigger": false,
      "taf_trigger": false,
      "metar": "METAR LFLS 151230Z AUTO VRB03KT 9999 -RA FEW031/// SCT037/// BKN043/// ///TCU 08/05 Q1005 TEMPO 34015G30KT 1500 TSGS BKN025CB",
      "taf": ""
    },
    {
      "icao": "LFMN",
      "alert": "OK",
      "vis_m": 9999,
      "fzfg": false,
      "metar_trigger": false,
      "taf_trigger": false,
      "metar": "METAR LFMN 151230Z 20020KT 9999 FEW060TCU BKN230 18/08 Q0997 NOSIG",
      "taf": "TAF LFMN 150800Z 1509/1615 23020G30KT CAVOK"
    },
    {
      "icao": "LFOB",
      "alert": "OK",
      "vis_m": 9999,
      "fzfg": false,
      "metar_trigger": false,
      "taf_trigger": false,
      "metar": "METAR LFOB 151230Z AUTO VRB05KT 9999 BKN028/// BKN036/// BKN110/// ///CB 12/05 Q1007 TEMPO 4000 SHRA",
      "taf": "TAF LFOB 151100Z 1512/1612 32008KT 9999 BKN025"
    },
    {
      "icao": "LFPO",
      "alert": "OK",
      "vis_m": 9999,
      "fzfg": false,
      "metar_trigger": false,
      "taf_trigger": false,
      "metar": "METAR LFPO 151230Z 29015KT 9999 -SHRA SCT043CB BKN050 BKN260 10/05 Q1007 TEMPO 32015G30KT SHRA BKN040CB",
      "taf": "TAF LFPO 151100Z 1512/1618 32008KT 9999 BKN040"
    },
    {
      "icao": "LFSB",
      "alert": "OK",
      "vis_m": 9999,
      "fzfg": false,
      "metar_trigger": false,
      "taf_trigger": false,
      "metar": "METAR LFSB 151230Z AUTO 29005KT 240V360 9999 FEW034/// SCT049/// BKN058/// ///CB 12/04 Q1003 TEMPO 4000 TSRA",
      "taf": "TAF LFSB 151100Z 1512/1612 31007KT 9999 FEW040 BKN050"
    },
    {
      "icao": "LGAV",
      "alert": "OK",
      "vis_m": 9999,
      "fzfg": false,
      "metar_trigger": false,
      "taf_trigger": false,
      "metar": "METAR LGAV 151250Z 18010KT 9999 SCT030 24/10 Q1008 NOSIG",
      "taf": "TAF LGAV 151100Z 1512/1612 25010KT 9999 FEW025"
    },
    {
      "icao": "LGTS",
      "alert": "OK",
      "vis_m": 9999,
      "fzfg": false,
      "metar_trigger": false,
      "taf_trigger": false,
      "metar": "METAR LGTS 151250Z 18011KT 9999 SCT030 24/13 Q1007 NOSIG",
      "taf": "TAF LGTS 151100Z 1512/1612 16013KT 9999 FEW030"
    },
    {
      "icao": "LHBP",
      "alert": "OK",
      "vis_m": 9999,
      "fzfg": false,
      "metar_trigger": false,
      "taf_trigger": false,
      "metar": "METAR LHBP 151230Z 24006KT 180V280 CAVOK 20/07 Q1002 TEMPO SHRA SCT050TCU",
      "taf": "TAF LHBP 151115Z 1512/1612 21009KT CAVOK"
    },
    {
      "icao": "LHDC",
      "alert": "OK",
      "vis_m": 9999,
      "fzfg": false,
      "metar_trigger": false,
      "taf_trigger": false,
      "metar": "METAR LHDC 151215Z AUTO 20010KT 140V260 CAVOK 22/06 Q1003 NOSIG",
      "taf": "TAF LHDC 151115Z 1512/1521 18011KT CAVOK"
    },
    {
      "icao": "LIBD",
      "alert": "OK",
      "vis_m": 9999,
      "fzfg": false,
      "metar_trigger": false,
      "taf_trigger": false,
      "metar": "METAR LIBD 151250Z 18007KT 140V210 9999 FEW045 25/10 Q1004",
      "taf": "TAF LIBD 151100Z 1512/1612 19013KT 9999 SCT040"
    },
    {
      "icao": "LIBG",
      "alert": "OK",
      "vis_m": 9999,
      "fzfg": false,
      "metar_trigger": false,
      "taf_trigger": false,
      "metar": "METAR LIBG 151150Z 18010KT 150V220 CAVOK 23/12 Q1006",
      "taf": "TAF LIBG 151100Z 1512/1521 16014KT 9999 FEW040"
    },
    {
      "icao": "LIBP",
      "alert": "OK",
      "vis_m": 9999,
      "fzfg": false,
      "metar_trigger": false,
      "taf_trigger": false,
      "metar": "METAR LIBP 151250Z AUTO 24017G28KT 9999 NCD 24/07 Q1000",
      "taf": "TAF LIBP 151100Z 1512/1612 22015KT 9999 FEW020 SCT070"
    },
    {
      "icao": "LIBR",
      "alert": "OK",
      "vis_m": 9999,
      "fzfg": false,
      "metar_trigger": false,
      "taf_trigger": false,
      "metar": "METAR LIBR 151250Z 22013KT CAVOK 25/07 Q1006",
      "taf": "TAF LIBR 151100Z 1512/1612 17015KT 9999 FEW040"
    },
    {
      "icao": "LICA",
      "alert": "OK",
      "vis_m": 9999,
      "fzfg": false,
      "metar_trigger": false,
      "taf_trigger": false,
      "metar": "METAR LICA 151250Z AUTO 08018KT 9999 NCD 24/15 Q1005",
      "taf": "TAF LICA 151100Z 1512/1612 08014KT 9999 SCT025"
    },
    {
      "icao": "LICC",
      "alert": "OK",
      "vis_m": 9999,
      "fzfg": false,
      "metar_trigger": false,
      "taf_trigger": false,
      "metar": "METAR LICC 151250Z 11009KT 9999 SCT050 24/17 Q1006",
      "taf": "TAF LICC 151100Z 1512/1612 25010KT 9999 SCT050"
    },
    {
      "icao": "LICJ",
      "alert": "OK",
      "vis_m": 9999,
      "fzfg": false,
      "metar_trigger": false,
      "taf_trigger": false,
      "metar": "METAR LICJ 151250Z 21012KT 9999 FEW040 26/14 Q1004",
      "taf": "TAF LICJ 151100Z 1512/1612 01010KT 9999 SCT040"
    },
    {
      "icao": "LIMC",
      "alert": "OK",
      "vis_m": 9999,
      "fzfg": false,
      "metar_trigger": false,
      "taf_trigger": false,
      "metar": "METAR LIMC 151250Z 08005KT 9999 BKN030 11/08 Q1000 NOSIG",
      "taf": "TAF LIMC 151100Z 1512/1618 VRB05KT 9999 FEW015 BKN040"
    },
    {
      "icao": "LIME",
      "alert": "OK",
      "vis_m": 9999,
      "fzfg": false,
      "metar_trigger": false,
      "taf_trigger": false,
      "metar": "METAR LIME 151250Z 31005KT 9999 -RA FEW008 BKN030 10/09 Q1000 RERA NOSIG",
      "taf": "TAF LIME 151100Z 1512/1612 12007KT 9999 SCT040"
    },
    {
      "icao": "LIMF",
      "alert": "OK",
      "vis_m": 9999,
      "fzfg": false,
      "metar_trigger": false,
      "taf_trigger": false,
      "metar": "METAR LIMF 151250Z 06008KT 9999 4000E -TSRA FEW010 SCT020CB BKN060 09/08 Q1000",
      "taf": "TAF LIMF 151100Z 1512/1612 VRB05KT 9999 SCT030"
    },
    {
      "icao": "LIMJ",
      "alert": "OK",
      "vis_m": 9999,
      "fzfg": false,
      "metar_trigger": false,
      "taf_trigger": false,
      "metar": "METAR LIMJ 151250Z 07007KT 010V160 9999 FEW024 BKN030 17/08 Q0999",
      "taf": "TAF LIMJ 151100Z 1512/1612 20012KT 9999 SCT040"
    },
    {
      "icao": "LIPE",
      "alert": "OK",
      "vis_m": 7000,
      "fzfg": false,
      "metar_trigger": false,
      "taf_trigger": false,
      "metar": "METAR LIPE 151250Z 36008KT 7000 -RA SCT009 BKN025 13/12 Q1000",
      "taf": "TAF LIPE 151100Z 1512/1612 VRB05KT 7000 RA BKN060"
    },
    {
      "icao": "LIPH",
      "alert": "OK",
      "vis_m": 9999,
      "fzfg": false,
      "metar_trigger": false,
      "taf_trigger": false,
      "metar": "METAR LIPH 151250Z 02005KT 350V050 9999 -RA SCT010 BKN050 12/11 Q1001",
      "taf": "TAF LIPH 151100Z 1512/1612 VRB06KT 7000 RA SCT010 BKN045"
    },
    {
      "icao": "LIPQ",
      "alert": "OK",
      "vis_m": 9999,
      "fzfg": false,
      "metar_trigger": false,
      "taf_trigger": false,
      "metar": "METAR LIPQ 151250Z AUTO 36005KT 320V040 9999 -RA SCT023/// OVC035/// 14/12 Q1001",
      "taf": "TAF LIPQ 151100Z 1512/1612 19010KT 8000 RA SCT020 BKN060"
    },
    {
      "icao": "LIPR",
      "alert": "OK",
      "vis_m": 9999,
      "fzfg": false,
      "metar_trigger": false,
      "taf_trigger": false,
      "metar": "METAR LIPR 151250Z 22012KT 9999 SCT045 BKN070 17/10 Q0999",
      "taf": "TAF LIPR 151100Z 1512/1612 VRB05KT 8000 FEW030 SCT060"
    },
    {
      "icao": "LIPX",
      "alert": "OK",
      "vis_m": 9999,
      "fzfg": false,
      "metar_trigger": false,
      "taf_trigger": false,
      "metar": "METAR LIPX 151250Z 05005KT 9999 -RA BKN050 11/08 Q1000",
      "taf": "TAF LIPX 151100Z 1512/1612 08010KT 9999 BKN030"
    },
    {
      "icao": "LIPY",
      "alert": "OK",
      "vis_m": 9999,
      "fzfg": false,
      "metar_trigger": false,
      "taf_trigger": false,
      "metar": "METAR LIPY 151250Z AUTO 24013KT 9999 FEW064/// BKN091/// 19/09 Q1000",
      "taf": "TAF LIPY 151100Z 1512/1612 22013KT 9999 BKN070"
    },
    {
      "icao": "LIPZ",
      "alert": "OK",
      "vis_m": 9999,
      "fzfg": false,
      "metar_trigger": false,
      "taf_trigger": false,
      "metar": "METAR LIPZ 151250Z 02008KT 9999 -RA FEW010 BKN040 12/10 Q1001 NOSIG",
      "taf": "TAF LIPZ 151100Z 1512/1618 04008KT 7000 RA SCT020 BKN060"
    },
    {
      "icao": "LIRF",
      "alert": "OK",
      "vis_m": 9999,
      "fzfg": false,
      "metar_trigger": false,
      "taf_trigger": false,
      "metar": "METAR LIRF 151250Z 18009KT 150V210 9999 FEW025 20/15 Q1003 TEMPO RA",
      "taf": "TAF LIRF 151100Z 1512/1618 24014KT 9999 BKN030"
    },
    {
      "icao": "LIRN",
      "alert": "OK",
      "vis_m": 9999,
      "fzfg": false,
      "metar_trigger": false,
      "taf_trigger": false,
      "metar": "METAR LIRN 151250Z 18014KT 160V220 9999 SCT030 21/14 Q1005 NOSIG",
      "taf": "TAF LIRN 151100Z 1512/1612 21012KT 9999 BKN035"
    },
    {
      "icao": "LIRP",
      "alert": "OK",
      "vis_m": 9999,
      "fzfg": false,
      "metar_trigger": false,
      "taf_trigger": false,
      "metar": "METAR LIRP 151245Z 26009KT 9999 SCT025 BKN050 14/11 Q1001 NOSIG",
      "taf": "TAF LIRP 151100Z 1512/1612 25010KT 9999 SCT020 SCT080"
    },
    {
      "icao": "LIRZ",
      "alert": "OK",
      "vis_m": 9999,
      "fzfg": false,
      "metar_trigger": false,
      "taf_trigger": false,
      "metar": "METAR LIRZ 151250Z AUTO 19009KT 150V210 9999 FEW042/// BKN061/// 16/09 Q1002",
      "taf": "TAF LIRZ 151100Z 1512/1612 20012KT 9999 SCT030"
    },
    {
      "icao": "LJLJ",
      "alert": "OK",
      "vis_m": 9999,
      "fzfg": false,
      "metar_trigger": false,
      "taf_trigger": false,
      "metar": "METAR LJLJ 151230Z 09003KT 050V110 9999 -SHRA FEW003 SCT030TCU BKN040 10/09 Q1002 RESHRA NOSIG",
      "taf": "TAF LJLJ 151100Z 1512/1612 32004KT 9999 SCT030 BKN050"
    },
    {
      "icao": "LKMT",
      "alert": "OK",
      "vis_m": 9999,
      "fzfg": false,
      "metar_trigger": false,
      "taf_trigger": false,
      "metar": "METAR LKMT 151230Z 20010KT 9999 FEW017 BKN036 12/10 Q1001 NOSIG",
      "taf": "TAF LKMT 151100Z 1512/1612 25010KT 9999 BKN030"
    },
    {
      "icao": "LKPR",
      "alert": "OK",
      "vis_m": 9999,
      "fzfg": false,
      "metar_trigger": false,
      "taf_trigger": false,
      "metar": "METAR LKPR 151230Z VRB04KT 9999 SCT048 14/02 Q1000 NOSIG",
      "taf": "TAF LKPR 151100Z 1512/1618 34004KT 9999 BKN045"
    },
    {
      "icao": "LLBG",
      "alert": "OK",
      "vis_m": 9999,
      "fzfg": false,
      "metar_trigger": false,
      "taf_trigger": false,
      "metar": "METAR LLBG 151250Z 28010KT 250V320 CAVOK 23/12 Q1009 NOSIG",
      "taf": "TAF LLBG 151103Z 1512/1612 30010KT 9999 SCT025 TX24/1512Z TN18/1604Z"
    },
    {
      "icao": "LMML",
      "alert": "OK",
      "vis_m": 9999,
      "fzfg": false,
      "metar_trigger": false,
      "taf_trigger": false,
      "metar": "METAR LMML 151245Z 20009KT 150V230 CAVOK 22/17 Q1007 NOSIG",
      "taf": "TAF LMML 151100Z 1512/1612 18015KT 9999 FEW015"
    },
    {
      "icao": "LOWW",
      "alert": "OK",
      "vis_m": 9999,
      "fzfg": false,
      "metar_trigger": false,
      "taf_trigger": false,
      "metar": "METAR LOWW 151250Z VRB02KT 9999 FEW040 15/06 Q1002 NOSIG",
      "taf": "TAF LOWW 151115Z 1512/1618 28007KT 9999 FEW020 BKN030 TX14/1514Z TN09/1605Z"
    },
    {
      "icao": "LPFR",
      "alert": "OK",
      "vis_m": 9999,
      "fzfg": false,
      "metar_trigger": false,
      "taf_trigger": false,
      "metar": "METAR LPFR 151230Z 33008KT 280V010 9999 FEW025 22/09 Q1013",
      "taf": "TAF LPFR 151100Z 1512/1612 33010KT CAVOK"
    },
    {
      "icao": "LPMA",
      "alert": "OK",
      "vis_m": 9999,
      "fzfg": false,
      "metar_trigger": false,
      "taf_trigger": false,
      "metar": "METAR LPMA 151230Z 03011G22KT 350V090 9999 SCT015 BKN030 17/11 Q1023",
      "taf": "TAF LPMA 151100Z 1512/1612 01013KT 9999 SCT015 SCT030"
    },
    {
      "icao": "LPPR",
      "alert": "OK",
      "vis_m": 9999,
      "fzfg": false,
      "metar_trigger": false,
      "taf_trigger": false,
      "metar": "METAR LPPR 151230Z 30010KT 9999 SCT022 16/10 Q1015",
      "taf": "TAF LPPR 151100Z 1512/1612 34015KT 9999 SCT030"
    },
    {
      "icao": "LPPS",
      "alert": "OK",
      "vis_m": 9999,
      "fzfg": false,
      "metar_trigger": false,
      "taf_trigger": false,
      "metar": "METAR LPPS 151230Z 01015KT 9999 FEW015 BKN035 18/11 Q1023",
      "taf": "TAF LPPS 151100Z 1512/1618 01015KT 9999 SCT014 BKN030"
    },
    {
      "icao": "LPPT",
      "alert": "OK",
      "vis_m": 9999,
      "fzfg": false,
      "metar_trigger": false,
      "taf_trigger": false,
      "metar": "METAR LPPT 151230Z 34017KT 9999 SCT034 18/10 Q1015",
      "taf": "TAF LPPT 151100Z 1512/1618 35015KT 9999 SCT035"
    },
    {
      "icao": "LQBK",
      "alert": "OK",
      "vis_m": 9999,
      "fzfg": false,
      "metar_trigger": false,
      "taf_trigger": false,
      "metar": "METAR LQBK 151230Z 29006KT 230V340 9999 TS FEW030CB BKN047 16/10 Q1001 TEMPO 4000 TSRA",
      "taf": "TAF LQBK 151100Z 1512/1612 16006KT 9999 SCT040 TX23/1513Z TN11/1604Z"
    },
    {
      "icao": "LQSA",
      "alert": "OK",
      "vis_m": 9999,
      "fzfg": false,
      "metar_trigger": false,
      "taf_trigger": false,
      "metar": "METAR LQSA 151230Z 14016KT 9999 SCT060 18/08 Q1004 NOSIG",
      "taf": "TAF LQSA 151100Z 1512/1612 15009KT 9999 BKN050 TX20/1513Z TN10/1605Z"
    },
    {
      "icao": "LQTZ",
      "alert": "OK",
      "vis_m": 9999,
      "fzfg": false,
      "metar_trigger": false,
      "taf_trigger": false,
      "metar": "METAR LQTZ 151230Z VRB03KT 9999 BKN060 20/10 Q1002",
      "taf": "TAF LQTZ 151100Z 1512/1612 12006KT CAVOK TX22/1513Z TN09/1603Z"
    },
    {
      "icao": "LRBC",
      "alert": "OK",
      "vis_m": 9999,
      "fzfg": false,
      "metar_trigger": false,
      "taf_trigger": false,
      "metar": "METAR LRBC 151230Z 18009KT CAVOK 21/07 Q1005",
      "taf": "TAF LRBC 151100Z 1512/1521 16008KT CAVOK"
    },
    {
      "icao": "LRBS",
      "alert": "OK",
      "vis_m": 9999,
      "fzfg": false,
      "metar_trigger": false,
      "taf_trigger": false,
      "metar": "METAR LRBS 151230Z 28005KT 220V010 CAVOK 23/05 Q1006 NOSIG",
      "taf": "TAF LRBS 151100Z 1512/1612 VRB04KT CAVOK"
    },
    {
      "icao": "LRBV",
      "alert": "OK",
      "vis_m": 9999,
      "fzfg": false,
      "metar_trigger": false,
      "taf_trigger": false,
      "metar": "METAR LRBV 151230Z 27004KT 230V310 9999 FEW050TCU 19/06 Q1005",
      "taf": "TAF LRBV 151100Z 1512/1521 VRB04KT CAVOK"
    },
    {
      "icao": "LRCL",
      "alert": "OK",
      "vis_m": 9999,
      "fzfg": false,
      "metar_trigger": false,
      "taf_trigger": false,
      "metar": "METAR LRCL 151230Z 15010KT 110V170 9999 -SHRA FEW060CB SCT071 21/10 Q1004",
      "taf": "TAF LRCL 151100Z 1512/1521 14010KT CAVOK"
    },
    {
      "icao": "LRCV",
      "alert": "OK",
      "vis_m": 9999,
      "fzfg": false,
      "metar_trigger": false,
      "taf_trigger": false,
      "metar": "METAR LRCV 151230Z 11004KT 9999 FEW046 22/10 Q1006",
      "taf": "TAF LRCV 151100Z 1512/1521 11005KT CAVOK"
    },
    {
      "icao": "LRIA",
      "alert": "OK",
      "vis_m": 9999,
      "fzfg": false,
      "metar_trigger": false,
      "taf_trigger": false,
      "metar": "METAR LRIA 151230Z 18004KT 100V250 CAVOK 21/04 Q1005",
      "taf": "TAF LRIA 151100Z 1512/1521 VRB04KT CAVOK"
    },
    {
      "icao": "LROP",
      "alert": "OK",
      "vis_m": 9999,
      "fzfg": false,
      "metar_trigger": false,
      "taf_trigger": false,
      "metar": "METAR LROP 151230Z VRB04KT CAVOK 23/04 Q1006 NOSIG",
      "taf": "TAF LROP 151100Z 1512/1612 VRB04KT CAVOK"
    },
    {
      "icao": "LRSB",
      "alert": "OK",
      "vis_m": 9999,
      "fzfg": false,
      "metar_trigger": false,
      "taf_trigger": false,
      "metar": "METAR LRSB 151230Z 24003KT 220V280 9999 SCT045 SCT080 19/08 Q1004 NOSIG",
      "taf": "TAF LRSB 151100Z 1512/1612 VRB04KT 9999 SCT055"
    },
    {
      "icao": "LRSM",
      "alert": "OK",
      "vis_m": 9999,
      "fzfg": false,
      "metar_trigger": false,
      "taf_trigger": false,
      "metar": "METAR LRSM 151230Z 20008KT CAVOK 21/09 Q1004",
      "taf": "TAF LRSM 151100Z 1512/1521 VRB04KT CAVOK"
    },
    {
      "icao": "LRSV",
      "alert": "OK",
      "vis_m": 9999,
      "fzfg": false,
      "metar_trigger": false,
      "taf_trigger": false,
      "metar": "METAR LRSV 151230Z 12009KT 090V160 CAVOK 19/06 Q1004",
      "taf": "TAF LRSV 151100Z 1512/1521 14006KT CAVOK"
    },
    {
      "icao": "LRTM",
      "alert": "OK",
      "vis_m": 9999,
      "fzfg": false,
      "metar_trigger": false,
      "taf_trigger": false,
      "metar": "METAR LRTM 151230Z 28003KT 240V350 CAVOK 21/10 Q1004",
      "taf": "TAF LRTM 151100Z 1512/1521 VRB04KT CAVOK"
    },
    {
      "icao": "LRTR",
      "alert": "OK",
      "vis_m": 9999,
      "fzfg": false,
      "metar_trigger": false,
      "taf_trigger": false,
      "metar": "METAR LRTR 151230Z 19008KT 140V240 CAVOK 23/07 Q1003",
      "taf": "TAF LRTR 151100Z 1512/1612 18012KT CAVOK"
    },
    {
      "icao": "LTAC",
      "alert": "OK",
      "vis_m": 9999,
      "fzfg": false,
      "metar_trigger": false,
      "taf_trigger": false,
      "metar": "METAR LTAC 151250Z 27008KT 230V290 9999 SCT035 SCT080 15/05 Q1007 NOSIG RMK RWY21C 28010KT 240V310 RWY03L 29006KT 240V330 RWY21R 26010KT 230V290 RWY03R 29008KT RWY21L 28010KT 250V320",
      "taf": "TAF LTAC 151040Z 1512/1612 27012KT 9999 SCT040 SCT100"
    },
    {
      "icao": "LTFM",
      "alert": "OK",
      "vis_m": 9999,
      "fzfg": false,
      "metar_trigger": false,
      "taf_trigger": false,
      "metar": "METAR LTFM 151250Z 03011KT 9999 FEW040 19/07 Q1008 NOSIG RMK RWY17L 09012KT RWY34L 06009KT 020V080 RWY16R 08010KT RWY36 06011KT RWY18 07010KT",
      "taf": "TAF LTFM 151040Z 1512/1618 10009KT 9999 SCT040"
    },
    {
      "icao": "LUKK",
      "alert": "OK",
      "vis_m": 9999,
      "fzfg": false,
      "metar_trigger": false,
      "taf_trigger": false,
      "metar": "METAR LUKK 151230Z 20007KT CAVOK 21/04 Q1005 NOSIG",
      "taf": "TAF LUKK 151105Z 1512/1612 VRB06KT CAVOK"
    },
    {
      "icao": "LWOH",
      "alert": "OK",
      "vis_m": 9999,
      "fzfg": false,
      "metar_trigger": false,
      "taf_trigger": false,
      "metar": "METAR LWOH 151250Z 15009KT 9999 SCT040 17/09 Q1009",
      "taf": "TAF LWOH 151150Z 1512/1612 15008KT 9999 SCT040"
    },
    {
      "icao": "LWSK",
      "alert": "OK",
      "vis_m": 9999,
      "fzfg": false,
      "metar_trigger": false,
      "taf_trigger": false,
      "metar": "METAR LWSK 151250Z 13007KT 050V200 9999 FEW045 SCT090 24/09 Q1005 NOSIG",
      "taf": "TAF LWSK 151150Z 1512/1612 VRB02KT 9999 FEW050 SCT080"
    },
    {
      "icao": "LYBE",
      "alert": "OK",
      "vis_m": 9999,
      "fzfg": false,
      "metar_trigger": false,
      "taf_trigger": false,
      "metar": "METAR LYBE 151230Z 16005KT 110V260 CAVOK 23/08 Q1003 NOSIG",
      "taf": "TAF LYBE 151100Z 1512/1612 20010KT 9999 SCT045 TX24/1513Z TN14/1604Z"
    },
    {
      "icao": "LYNI",
      "alert": "OK",
      "vis_m": 9999,
      "fzfg": false,
      "metar_trigger": false,
      "taf_trigger": false,
      "metar": "METAR LYNI 151230Z 18006KT 120V240 9999 SCT050 SCT090 23/09 Q1004 NOSIG",
      "taf": "TAF LYNI 151100Z 1512/1612 21007KT 9999 SCT060 TX25/1513Z TN10/1604Z"
    },
    {
      "icao": "LYPG",
      "alert": "OK",
      "vis_m": 9999,
      "fzfg": false,
      "metar_trigger": false,
      "taf_trigger": false,
      "metar": "METAR LYPG 151230Z 13012KT 100V160 9999 FEW030 BKN050 21/11 Q1007 NOSIG",
      "taf": "TAF LYPG 151100Z 1512/1612 16012KT 9999 FEW025 BKN040 TX22/1513Z TN14/1604Z"
    },
    {
      "icao": "LZIB",
      "alert": "OK",
      "vis_m": 9999,
      "fzfg": false,
      "metar_trigger": false,
      "taf_trigger": false,
      "metar": "METAR LZIB 151230Z 28005KT 230V350 9999 FEW032 15/07 Q1002 NOSIG",
      "taf": "TAF LZIB 151115Z 1512/1612 28008KT 9999 SCT025 BKN040"
    },
    {
      "icao": "LZKZ",
      "alert": "OK",
      "vis_m": 9999,
      "fzfg": false,
      "metar_trigger": false,
      "taf_trigger": false,
      "metar": "METAR LZKZ 151230Z 20011KT 180V240 CAVOK 18/08 Q1002 NOSIG",
      "taf": "TAF LZKZ 151115Z 1512/1612 20009KT 9999 SCT040"
    },
    {
      "icao": "LZTT",
      "alert": "OK",
      "vis_m": 9999,
      "fzfg": false,
      "metar_trigger": false,
      "taf_trigger": false,
      "metar": "METAR LZTT 151230Z 28010KT 250V310 9999 BKN053 13/06 Q1002 NOSIG",
      "taf": "TAF LZTT 151115Z 1512/1612 VRB02KT 9999 SCT045"
    },
    {
      "icao": "OEJN",
      "alert": "OK",
      "vis_m": 9999,
      "fzfg": false,
      "metar_trigger": false,
      "taf_trigger": false,
      "metar": "METAR OEJN 151200Z 33015KT CAVOK 41/M01 Q1004 NOSIG",
      "taf": "TAF OEJN 151100Z 1512/1618 32012KT CAVOK"
    },
    {
      "icao": "OEMA",
      "alert": "OK",
      "vis_m": 9999,
      "fzfg": false,
      "metar_trigger": false,
      "taf_trigger": false,
      "metar": "METAR OEMA 151200Z 25008KT CAVOK 40/M06 Q1009 NOSIG",
      "taf": "TAF OEMA 151100Z 1512/1618 30012KT CAVOK"
    },
    {
      "icao": "OJAI",
      "alert": "OK",
      "vis_m": 3500,
      "fzfg": false,
      "metar_trigger": false,
      "taf_trigger": false,
      "metar": "METAR OJAI 151200Z 28017KT 3500 BLDU NSC 25/09 Q1011 NOSIG",
      "taf": "TAF OJAI 151045Z 1512/1618 28018G28KT 2000 BLDU NSC"
    },
    {
      "icao": "OMAA",
      "alert": "OK",
      "vis_m": 9999,
      "fzfg": false,
      "metar_trigger": false,
      "taf_trigger": false,
      "metar": "METAR OMAA 151230Z 30016KT CAVOK 35/08 Q1001 NOSIG",
      "taf": "TAF OMAA 151100Z 1512/1618 32018KT 8000 NSC"
    },
    {
      "icao": "OMDB",
      "alert": "OK",
      "vis_m": 9999,
      "fzfg": false,
      "metar_trigger": false,
      "taf_trigger": false,
      "metar": "METAR OMDB 151230Z 26011KT 230V290 CAVOK 33/18 Q1001 NOSIG",
      "taf": "TAF OMDB 151100Z 1512/1618 27014KT 8000 NSC"
    },
    {
      "icao": "UAAA",
      "alert": "OK",
      "vis_m": 9999,
      "fzfg": false,
      "metar_trigger": false,
      "taf_trigger": false,
      "metar": "METAR UAAA 151230Z 02004MPS 9999 FEW200 19/M01 Q1017 NOSIG",
      "taf": "TAF UAAA 151102Z 1512/1612 04002G07MPS 9999 FEW050CB SCT100 TX24/1606Z TN06/1601Z"
    },
    {
      "icao": "UBBB",
      "alert": "OK",
      "vis_m": 9999,
      "fzfg": false,
      "metar_trigger": false,
      "taf_trigger": false,
      "metar": "METAR UBBB 151230Z 19014KT CAVOK 23/16 Q1000 NOSIG",
      "taf": "TAF UBBB 151053Z 1512/1612 16010KT 9999 FEW020 TX22/1512Z TN15/1600Z"
    },
    {
      "icao": "UDSG",
      "alert": "OK",
      "vis_m": 9999,
      "fzfg": false,
      "metar_trigger": false,
      "taf_trigger": false,
      "metar": "METAR UDSG 151230Z 21008KT 180V250 9999 BKN040CB 14/03 Q1008 NOSIG",
      "taf": "TAF UDSG 151058Z 1512/1612 24008KT 9999 BKN040"
    },
    {
      "icao": "UDYZ",
      "alert": "OK",
      "vis_m": 9999,
      "fzfg": false,
      "metar_trigger": false,
      "taf_trigger": false,
      "metar": "METAR UDYZ 151230Z 01005KT 9999 BKN043CB 18/09 Q1006 NOSIG",
      "taf": "TAF UDYZ 151100Z 1512/1612 21006KT 9999 BKN040"
    },
    {
      "icao": "UGKO",
      "alert": "OK",
      "vis_m": 5000,
      "fzfg": false,
      "metar_trigger": false,
      "taf_trigger": false,
      "metar": "METAR UGKO 151230Z 26013KT 5000 SHRA SCT009 BKN056CB BKN092 15/14 Q1006 NOSIG",
      "taf": "TAF UGKO 151100Z 1512/1612 26010KT 9999 BKN050 TX15/1512Z TN12/1602Z"
    }
  ]
}