{
  "ts_utc": "2026-07-14T23:12:07Z",
  "threshold_m": 150,
  "source": "stations_override.txt (ICAO list) + aviationweather.gov (METAR/TAF raw)",
  "station_count": 159,
  "stations": [
    {
      "icao": "BIKF",
      "alert": "OK",
      "vis_m": 3000,
      "fzfg": false,
      "metar_trigger": false,
      "taf_trigger": false,
      "metar": "METAR BIKF 142300Z 15022KT 3000 -DZ BR OVC003 11/10 Q1016",
      "taf": "TAF BIKF 142234Z 1500/1600 16022KT 4000 RADZ BKN004 OVC010 TX12/1515Z TN10/1503Z"
    },
    {
      "icao": "BKPR",
      "alert": "OK",
      "vis_m": 9999,
      "fzfg": false,
      "metar_trigger": false,
      "taf_trigger": false,
      "metar": "METAR BKPR 142300Z 03002KT CAVOK 19/14 Q1020 NOSIG",
      "taf": "TAF BKPR 141730Z 1418/1518 02006KT 9999 FEW050"
    },
    {
      "icao": "EBCI",
      "alert": "OK",
      "vis_m": 9999,
      "fzfg": false,
      "metar_trigger": false,
      "taf_trigger": false,
      "metar": "METAR EBCI 142250Z 05008KT CAVOK 22/12 Q1020 NOSIG",
      "taf": "TAF EBCI 141700Z 1418/1524 04010KT CAVOK"
    },
    {
      "icao": "EDDB",
      "alert": "OK",
      "vis_m": 9999,
      "fzfg": false,
      "metar_trigger": false,
      "taf_trigger": false,
      "metar": "METAR EDDB 142250Z AUTO 03007KT CAVOK 19/12 Q1020 NOSIG",
      "taf": "TAF EDDB 141700Z 1418/1518 VRB03KT CAVOK"
    },
    {
      "icao": "EDDH",
      "alert": "OK",
      "vis_m": 9999,
      "fzfg": false,
      "metar_trigger": false,
      "taf_trigger": false,
      "metar": "METAR EDDH 142250Z AUTO 06005KT CAVOK 18/13 Q1023 NOSIG",
      "taf": "TAF EDDH 141700Z 1418/1524 05010KT CAVOK"
    },
    {
      "icao": "EDDK",
      "alert": "OK",
      "vis_m": 9999,
      "fzfg": false,
      "metar_trigger": false,
      "taf_trigger": false,
      "metar": "METAR EDDK 142250Z AUTO 04006KT CAVOK 21/15 Q1019 NOSIG",
      "taf": "TAF EDDK 141700Z 1418/1524 03009KT CAVOK"
    },
    {
      "icao": "EDDN",
      "alert": "OK",
      "vis_m": 3800,
      "fzfg": false,
      "metar_trigger": false,
      "taf_trigger": false,
      "metar": "METAR EDDN 142250Z AUTO VRB02KT 3800 1600 BR NSC 16/16 Q1019",
      "taf": ""
    },
    {
      "icao": "EDDS",
      "alert": "OK",
      "vis_m": 9999,
      "fzfg": false,
      "metar_trigger": false,
      "taf_trigger": false,
      "metar": "METAR EDDS 142250Z AUTO 05004KT 020V080 CAVOK 22/14 Q1018",
      "taf": "TAF EDDS 141700Z 1418/1518 33007KT 9999 FEW040"
    },
    {
      "icao": "EDFH",
      "alert": "OK",
      "vis_m": 9999,
      "fzfg": false,
      "metar_trigger": false,
      "taf_trigger": false,
      "metar": "METAR EDFH 142250Z 03004KT 360V070 CAVOK 18/14 Q1020",
      "taf": "TAF EDFH 141700Z 1418/1518 04008KT 9999 FEW040"
    },
    {
      "icao": "EDJA",
      "alert": "OK",
      "vis_m": 9999,
      "fzfg": false,
      "metar_trigger": false,
      "taf_trigger": false,
      "metar": "METAR EDJA 142250Z AUTO 19004KT 9999 // FEW099/// BKN130/// 17/16 Q1020",
      "taf": "TAF EDJA 141700Z 1418/1503 VRB03KT CAVOK"
    },
    {
      "icao": "EDLW",
      "alert": "OK",
      "vis_m": 9999,
      "fzfg": false,
      "metar_trigger": false,
      "taf_trigger": false,
      "metar": "METAR EDLW 142250Z AUTO 07006KT 9999 // NCD 18/14 Q1020",
      "taf": "TAF EDLW 141700Z 1418/1518 05008KT CAVOK"
    },
    {
      "icao": "EDNY",
      "alert": "OK",
      "vis_m": 9999,
      "fzfg": false,
      "metar_trigger": false,
      "taf_trigger": false,
      "metar": "METAR EDNY 142250Z AUTO VRB02KT 9999 // FEW064/// BKN190/// 19/18 Q1019",
      "taf": "TAF EDNY 141700Z 1418/1503 VRB03KT CAVOK"
    },
    {
      "icao": "EDSB",
      "alert": "OK",
      "vis_m": 9999,
      "fzfg": false,
      "metar_trigger": false,
      "taf_trigger": false,
      "metar": "METAR EDSB 142250Z AUTO 05002KT 9999 // FEW093/// 22/17 Q1016",
      "taf": "TAF EDSB 141700Z 1418/1518 02006KT 9999 FEW040"
    },
    {
      "icao": "EETN",
      "alert": "OK",
      "vis_m": 9999,
      "fzfg": false,
      "metar_trigger": false,
      "taf_trigger": false,
      "metar": "METAR EETN 142250Z 26004KT CAVOK 16/15 Q1020",
      "taf": "TAF EETN 141730Z 1418/1518 29006KT CAVOK"
    },
    {
      "icao": "EFTU",
      "alert": "OK",
      "vis_m": 9999,
      "fzfg": false,
      "metar_trigger": false,
      "taf_trigger": false,
      "metar": "METAR EFTU 142250Z AUTO 30004KT CAVOK 13/12 Q1020",
      "taf": "TAF EFTU 142033Z 1421/1521 30005KT CAVOK"
    },
    {
      "icao": "EGBB",
      "alert": "OK",
      "vis_m": 9999,
      "fzfg": false,
      "metar_trigger": false,
      "taf_trigger": false,
      "metar": "METAR EGBB 142250Z 04012KT 9999 SCT013 17/14 Q1025",
      "taf": "TAF EGBB 141656Z 1418/1518 04010KT 9999 SCT020"
    },
    {
      "icao": "EGGP",
      "alert": "OK",
      "vis_m": 9999,
      "fzfg": false,
      "metar_trigger": false,
      "taf_trigger": false,
      "metar": "METAR EGGP 142250Z 08010KT CAVOK 18/13 Q1025",
      "taf": "TAF EGGP 141655Z 1418/1518 09008KT 9999 FEW045"
    },
    {
      "icao": "EGGW",
      "alert": "OK",
      "vis_m": 9999,
      "fzfg": false,
      "metar_trigger": false,
      "taf_trigger": false,
      "metar": "METAR EGGW 142250Z AUTO 03013KT 9999 OVC006 16/15 Q1024",
      "taf": "TAF EGGW 141700Z 1418/1518 04012KT 9999 FEW025"
    },
    {
      "icao": "EGKK",
      "alert": "OK",
      "vis_m": 9999,
      "fzfg": false,
      "metar_trigger": false,
      "taf_trigger": false,
      "metar": "METAR EGKK 142250Z 05010KT CAVOK 21/15 Q1022",
      "taf": "TAF EGKK 141701Z 1418/1524 05012KT 9999 FEW035"
    },
    {
      "icao": "EGNM",
      "alert": "OK",
      "vis_m": 9999,
      "fzfg": false,
      "metar_trigger": false,
      "taf_trigger": false,
      "metar": "METAR EGNM 142250Z 03006KT 9999 BKN009 14/12 Q1027",
      "taf": ""
    },
    {
      "icao": "EGPD",
      "alert": "OK",
      "vis_m": 9999,
      "fzfg": false,
      "metar_trigger": false,
      "taf_trigger": false,
      "metar": "METAR EGPD 142250Z AUTO VRB02KT 9999 OVC009 13/11 Q1029",
      "taf": ""
    },
    {
      "icao": "EGPF",
      "alert": "OK",
      "vis_m": 9999,
      "fzfg": false,
      "metar_trigger": false,
      "taf_trigger": false,
      "metar": "METAR EGPF 142250Z AUTO 07010KT 9999 NCD 13/11 Q1028",
      "taf": "TAF EGPF 141649Z 1418/1518 07008KT 9999 FEW020"
    },
    {
      "icao": "EHBK",
      "alert": "OK",
      "vis_m": 9999,
      "fzfg": false,
      "metar_trigger": false,
      "taf_trigger": false,
      "metar": "METAR EHBK 142255Z AUTO 04007KT 9999 NSC 22/14 Q1019",
      "taf": "TAF EHBK 141713Z 1418/1524 05010KT CAVOK"
    },
    {
      "icao": "EHEH",
      "alert": "OK",
      "vis_m": 9999,
      "fzfg": false,
      "metar_trigger": false,
      "taf_trigger": false,
      "metar": "METAR EHEH 142255Z AUTO 02006KT 360V060 9999 OVC210 22/13 Q1020 BLU",
      "taf": "TAF EHEH 141721Z 1418/1524 03010KT CAVOK"
    },
    {
      "icao": "EKBI",
      "alert": "OK",
      "vis_m": 9999,
      "fzfg": false,
      "metar_trigger": false,
      "taf_trigger": false,
      "metar": "METAR EKBI 142250Z AUTO 36001KT 9999 NCD 13/11 Q1025",
      "taf": "TAF EKBI 142027Z 1421/1521 03004KT CAVOK"
    },
    {
      "icao": "EKCH",
      "alert": "OK",
      "vis_m": 9999,
      "fzfg": false,
      "metar_trigger": false,
      "taf_trigger": false,
      "metar": "METAR EKCH 142250Z AUTO 01005KT 9999 NCD 18/13 Q1023 NOSIG",
      "taf": "TAF EKCH 142027Z 1421/1521 34007KT CAVOK"
    },
    {
      "icao": "ENAL",
      "alert": "OK",
      "vis_m": 9999,
      "fzfg": false,
      "metar_trigger": false,
      "taf_trigger": false,
      "metar": "METAR ENAL 142250Z AUTO 05007KT 9999 OVC006/// 12/11 Q1028",
      "taf": "TAF ENAL 142000Z 1421/1506 04009KT 9999 BKN009"
    },
    {
      "icao": "ENBR",
      "alert": "OK",
      "vis_m": 9999,
      "fzfg": false,
      "metar_trigger": false,
      "taf_trigger": false,
      "metar": "METAR ENBR 142250Z 33006KT 9999 VCFG NSC 11/11 Q1026 RMK WIND 1200FT 35006KT",
      "taf": "TAF ENBR 141700Z 1418/1518 33008KT CAVOK"
    },
    {
      "icao": "ENGM",
      "alert": "OK",
      "vis_m": 9999,
      "fzfg": false,
      "metar_trigger": false,
      "taf_trigger": false,
      "metar": "METAR ENGM 142250Z 02005KT CAVOK 17/10 Q1024",
      "taf": "TAF ENGM 141700Z 1418/1518 02005KT CAVOK"
    },
    {
      "icao": "ENHD",
      "alert": "OK",
      "vis_m": 4100,
      "fzfg": false,
      "metar_trigger": false,
      "taf_trigger": false,
      "metar": "METAR ENHD 142250Z AUTO 35011KT 4100 SCT002/// OVC003/// 12/11 Q1025",
      "taf": "TAF ENHD 141400Z 1415/1422 34012KT CAVOK"
    },
    {
      "icao": "ENTC",
      "alert": "OK",
      "vis_m": 9999,
      "fzfg": false,
      "metar_trigger": false,
      "taf_trigger": false,
      "metar": "METAR ENTC 142250Z AUTO 23005KT 9999 -RA FEW008/// BKN019/// OVC025/// 08/06 Q1019 RMK WIND 2600FT 23010KT",
      "taf": "TAF ENTC 141700Z 1418/1518 19006KT 9999 -DZ SCT010 BKN020"
    },
    {
      "icao": "ENTO",
      "alert": "OK",
      "vis_m": 9999,
      "fzfg": false,
      "metar_trigger": false,
      "taf_trigger": false,
      "metar": "METAR ENTO 142250Z AUTO VRB01KT 9999 // NCD 19/11 Q1024",
      "taf": "TAF ENTO 141700Z 1418/1518 18010KT CAVOK"
    },
    {
      "icao": "ENVA",
      "alert": "OK",
      "vis_m": 9999,
      "fzfg": false,
      "metar_trigger": false,
      "taf_trigger": false,
      "metar": "METAR ENVA 142250Z AUTO VRB02KT 9999 NCD 13/12 Q1027 RMK WIND 670FT 30006KT",
      "taf": "TAF ENVA 141700Z 1418/1518 27009KT CAVOK"
    },
    {
      "icao": "ENZV",
      "alert": "OK",
      "vis_m": 9000,
      "fzfg": false,
      "metar_trigger": false,
      "taf_trigger": false,
      "metar": "METAR ENZV 142250Z AUTO 29004KT 9000 NCD 13/12 Q1025",
      "taf": ""
    },
    {
      "icao": "EPGD",
      "alert": "OK",
      "vis_m": 9999,
      "fzfg": false,
      "metar_trigger": false,
      "taf_trigger": false,
      "metar": "METAR EPGD 142300Z 31004KT 280V350 CAVOK 12/11 Q1022",
      "taf": "TAF EPGD 141730Z 1418/1518 01010KT CAVOK"
    },
    {
      "icao": "EPKK",
      "alert": "OK",
      "vis_m": 9999,
      "fzfg": false,
      "metar_trigger": false,
      "taf_trigger": false,
      "metar": "METAR EPKK 142300Z 05004KT CAVOK 17/15 Q1018",
      "taf": "TAF EPKK 142030Z 1421/1521 05006KT CAVOK"
    },
    {
      "icao": "EPKT",
      "alert": "OK",
      "vis_m": 9999,
      "fzfg": false,
      "metar_trigger": false,
      "taf_trigger": false,
      "metar": "METAR EPKT 142300Z 03001KT CAVOK 16/16 Q1019",
      "taf": "TAF EPKT 141730Z 1418/1518 12006KT CAVOK"
    },
    {
      "icao": "EPLB",
      "alert": "OK",
      "vis_m": 9999,
      "fzfg": false,
      "metar_trigger": false,
      "taf_trigger": false,
      "metar": "METAR EPLB 142300Z 04006KT CAVOK 20/18 Q1019",
      "taf": "TAF EPLB 141730Z 1418/1518 36006KT CAVOK"
    },
    {
      "icao": "EPMO",
      "alert": "OK",
      "vis_m": 9999,
      "fzfg": false,
      "metar_trigger": false,
      "taf_trigger": false,
      "metar": "METAR EPMO 142300Z 02005KT CAVOK 16/14 Q1020",
      "taf": "TAF EPMO 141730Z 1418/1518 02010KT CAVOK"
    },
    {
      "icao": "EPPO",
      "alert": "OK",
      "vis_m": 9999,
      "fzfg": false,
      "metar_trigger": false,
      "taf_trigger": false,
      "metar": "METAR EPPO 142300Z 04006KT CAVOK 20/11 Q1021",
      "taf": ""
    },
    {
      "icao": "EPRA",
      "alert": "OK",
      "vis_m": 9999,
      "fzfg": false,
      "metar_trigger": false,
      "taf_trigger": false,
      "metar": "METAR EPRA 142300Z 02004KT CAVOK 19/15 Q1019",
      "taf": "TAF EPRA 142030Z 1421/1506 02004KT CAVOK"
    },
    {
      "icao": "EPRZ",
      "alert": "OK",
      "vis_m": 8000,
      "fzfg": false,
      "metar_trigger": false,
      "taf_trigger": false,
      "metar": "METAR EPRZ 142300Z 26003KT 8000 NSC 17/17 Q1019",
      "taf": "TAF EPRZ 141730Z 1418/1518 VRB02KT CAVOK"
    },
    {
      "icao": "EPSC",
      "alert": "OK",
      "vis_m": 9999,
      "fzfg": false,
      "metar_trigger": false,
      "taf_trigger": false,
      "metar": "METAR EPSC 142300Z 02004KT 360V060 CAVOK 16/12 Q1022",
      "taf": "TAF EPSC 141730Z 1418/1518 02010KT CAVOK"
    },
    {
      "icao": "EPSY",
      "alert": "OK",
      "vis_m": 9999,
      "fzfg": false,
      "metar_trigger": false,
      "taf_trigger": false,
      "metar": "METAR EPSY 142300Z 36005KT CAVOK 13/13 Q1021",
      "taf": "TAF EPSY 142030Z 1421/1506 36006KT CAVOK"
    },
    {
      "icao": "EPWA",
      "alert": "OK",
      "vis_m": 9999,
      "fzfg": false,
      "metar_trigger": false,
      "taf_trigger": false,
      "metar": "METAR EPWA 142300Z 06006KT CAVOK 20/14 Q1019 NOSIG",
      "taf": "TAF EPWA 142030Z 1421/1521 01005KT CAVOK"
    },
    {
      "icao": "EPWR",
      "alert": "OK",
      "vis_m": 9999,
      "fzfg": false,
      "metar_trigger": false,
      "taf_trigger": false,
      "metar": "METAR EPWR 142300Z 31004KT 290V350 CAVOK 20/15 Q1018",
      "taf": "TAF EPWR 142030Z 1421/1521 33005KT CAVOK"
    },
    {
      "icao": "ESGG",
      "alert": "OK",
      "vis_m": 9999,
      "fzfg": false,
      "metar_trigger": false,
      "taf_trigger": false,
      "metar": "METAR ESGG 142250Z 04005KT CAVOK 17/11 Q1024",
      "taf": "TAF ESGG 142030Z 1421/1521 35005KT CAVOK"
    },
    {
      "icao": "ESKN",
      "alert": "OK",
      "vis_m": 9999,
      "fzfg": false,
      "metar_trigger": false,
      "taf_trigger": false,
      "metar": "METAR ESKN 142250Z 08003KT CAVOK 15/13 Q1022",
      "taf": "TAF ESKN 142030Z 1421/1521 12004KT CAVOK"
    },
    {
      "icao": "ESMS",
      "alert": "OK",
      "vis_m": 9999,
      "fzfg": false,
      "metar_trigger": false,
      "taf_trigger": false,
      "metar": "METAR ESMS 142250Z 12008KT CAVOK 16/15 Q1023",
      "taf": "TAF ESMS 142027Z 1421/1521 35005KT CAVOK"
    },
    {
      "icao": "ESSA",
      "alert": "OK",
      "vis_m": 9999,
      "fzfg": false,
      "metar_trigger": false,
      "taf_trigger": false,
      "metar": "METAR ESSA 142250Z 22004KT CAVOK 14/09 Q1022 NOSIG",
      "taf": "TAF ESSA 142030Z 1421/1521 24004KT CAVOK"
    },
    {
      "icao": "EYKA",
      "alert": "OK",
      "vis_m": 9999,
      "fzfg": false,
      "metar_trigger": false,
      "taf_trigger": false,
      "metar": "METAR EYKA 142250Z AUTO 35005KT 9999 NCD 18/17 Q1019",
      "taf": "TAF EYKA 141714Z 1418/1518 36005KT 9000 SCT030"
    },
    {
      "icao": "EYPA",
      "alert": "OK",
      "vis_m": 9999,
      "fzfg": false,
      "metar_trigger": false,
      "taf_trigger": false,
      "metar": "METAR EYPA 142250Z AUTO 04003KT 010V070 9999 BKN056/// 17/15 Q1021",
      "taf": "TAF EYPA 142301Z 1500/1524 VRB03KT 9000 FEW030"
    },
    {
      "icao": "EYVI",
      "alert": "OK",
      "vis_m": 9999,
      "fzfg": false,
      "metar_trigger": false,
      "taf_trigger": false,
      "metar": "METAR EYVI 142250Z 03003KT CAVOK 15/15 Q1019 TEMPO 5000 MIFG BR",
      "taf": "TAF EYVI 141725Z 1418/1518 VRB03KT 9000 FEW030"
    },
    {
      "icao": "GCFV",
      "alert": "OK",
      "vis_m": 9999,
      "fzfg": false,
      "metar_trigger": false,
      "taf_trigger": false,
      "metar": "METAR GCFV 142300Z AUTO 03013KT 9999 FEW013 23/20 Q1018",
      "taf": "TAF GCFV 142000Z 1421/1521 03012KT 9999 FEW015 TX28/1514Z TN22/1506Z"
    },
    {
      "icao": "GCLP",
      "alert": "OK",
      "vis_m": 9999,
      "fzfg": false,
      "metar_trigger": false,
      "taf_trigger": false,
      "metar": "METAR GCLP 142300Z 36014KT 9999 FEW020 23/19 Q1018 NOSIG",
      "taf": "TAF GCLP 142000Z 1421/1521 01015KT 9999 FEW020 TX29/1514Z TN21/1506Z"
    },
    {
      "icao": "GCTS",
      "alert": "OK",
      "vis_m": 9999,
      "fzfg": false,
      "metar_trigger": false,
      "taf_trigger": false,
      "metar": "METAR GCTS 142300Z 06009KT CAVOK 23/18 Q1019 NOSIG",
      "taf": "TAF GCTS 142000Z 1421/1521 05009KT 9999 FEW030 TX30/1514Z TN21/1506Z"
    },
    {
      "icao": "GMAD",
      "alert": "OK",
      "vis_m": 9999,
      "fzfg": false,
      "metar_trigger": false,
      "taf_trigger": false,
      "metar": "METAR GMAD 142300Z 00000KT CAVOK 22/18 Q1016 NOSIG",
      "taf": "TAF GMAD 141700Z 1418/1524 20008KT 8000 NSC"
    },
    {
      "icao": "GMMN",
      "alert": "OK",
      "vis_m": 9999,
      "fzfg": false,
      "metar_trigger": false,
      "taf_trigger": false,
      "metar": "METAR GMMN 142300Z 04009KT 010V070 CAVOK 22/18 Q1019 NOSIG",
      "taf": "TAF GMMN 141700Z 1418/1524 36012KT CAVOK"
    },
    {
      "icao": "GMMX",
      "alert": "OK",
      "vis_m": 9999,
      "fzfg": false,
      "metar_trigger": false,
      "taf_trigger": false,
      "metar": "METAR GMMX 142300Z 14005KT 100V170 CAVOK 31/18 Q1018 NOSIG",
      "taf": "TAF GMMX 141700Z 1418/1524 24006KT 8000 SCT033 SCT100"
    },
    {
      "icao": "HEGN",
      "alert": "OK",
      "vis_m": 9999,
      "fzfg": false,
      "metar_trigger": false,
      "taf_trigger": false,
      "metar": "METAR HEGN 142200Z 28009KT CAVOK 31/06 Q1006 NOSIG",
      "taf": "TAF HEGN 142300Z 1500/1606 30012KT CAVOK"
    },
    {
      "icao": "HEMA",
      "alert": "OK",
      "vis_m": 9999,
      "fzfg": false,
      "metar_trigger": false,
      "taf_trigger": false,
      "metar": "METAR HEMA 142200Z 24006KT CAVOK 29/05 Q1005 NOSIG",
      "taf": "TAF HEMA 142300Z 1500/1606 26010KT CAVOK"
    },
    {
      "icao": "HESH",
      "alert": "OK",
      "vis_m": 9999,
      "fzfg": false,
      "metar_trigger": false,
      "taf_trigger": false,
      "metar": "METAR HESH 142200Z 02005KT CAVOK 32/13 Q1005 NOSIG",
      "taf": "TAF HESH 142300Z 1500/1606 34010KT CAVOK"
    },
    {
      "icao": "HESX",
      "alert": "OK",
      "vis_m": 9999,
      "fzfg": false,
      "metar_trigger": false,
      "taf_trigger": false,
      "metar": "METAR HESX 142200Z 32004KT CAVOK 23/19 Q1010 NOSIG",
      "taf": "TAF HESX 142300Z 1500/1606 32009KT CAVOK"
    },
    {
      "icao": "LATI",
      "alert": "OK",
      "vis_m": 9999,
      "fzfg": false,
      "metar_trigger": false,
      "taf_trigger": false,
      "metar": "METAR LATI 142250Z 18005KT CAVOK 22/13 Q1016 NOSIG",
      "taf": "TAF LATI 142300Z 1500/1524 VRB03KT CAVOK TX35/1511Z TN18/1504Z"
    },
    {
      "icao": "LBPD",
      "alert": "OK",
      "vis_m": 9999,
      "fzfg": false,
      "metar_trigger": false,
      "taf_trigger": false,
      "metar": "METAR LBPD 142300Z AUTO 26003KT 9999 NCD 21/12 Q1017",
      "taf": "TAF LBPD 141700Z 1418/1518 01010KT CAVOK"
    },
    {
      "icao": "LBSF",
      "alert": "OK",
      "vis_m": 9999,
      "fzfg": false,
      "metar_trigger": false,
      "taf_trigger": false,
      "metar": "METAR LBSF 142300Z AUTO VRB01KT 9999 NCD 16/13 Q1019 NOSIG",
      "taf": "TAF LBSF 141700Z 1418/1518 31010KT CAVOK"
    },
    {
      "icao": "LBWN",
      "alert": "OK",
      "vis_m": 9999,
      "fzfg": false,
      "metar_trigger": false,
      "taf_trigger": false,
      "metar": "METAR LBWN 142300Z AUTO 36003KT 9999 NCD 20/16 Q1015 NOSIG",
      "taf": "TAF LBWN 141700Z 1418/1518 35008KT 9999 SCT045"
    },
    {
      "icao": "LCLK",
      "alert": "OK",
      "vis_m": 9999,
      "fzfg": false,
      "metar_trigger": false,
      "taf_trigger": false,
      "metar": "METAR LCLK 142300Z VRB01KT CAVOK 24/20 Q1006 NOSIG",
      "taf": "TAF LCLK 141730Z 1418/1518 22010KT 9999 FEW025"
    },
    {
      "icao": "LCPH",
      "alert": "OK",
      "vis_m": 9999,
      "fzfg": false,
      "metar_trigger": false,
      "taf_trigger": false,
      "metar": "METAR LCPH 142300Z AUTO 01006KT 010V080 9999 NCD 24/16 Q1006 TEMPO BKN009",
      "taf": "TAF LCPH 141730Z 1418/1518 28010KT 9999 FEW020"
    },
    {
      "icao": "LEAL",
      "alert": "OK",
      "vis_m": 9999,
      "fzfg": false,
      "metar_trigger": false,
      "taf_trigger": false,
      "metar": "METAR LEAL 142300Z VRB01KT CAVOK 28/22 Q1017 NOSIG",
      "taf": "TAF LEAL 141700Z 1418/1518 11007KT CAVOK TX37/1515Z TN25/1505Z"
    },
    {
      "icao": "LEBB",
      "alert": "OK",
      "vis_m": 9999,
      "fzfg": false,
      "metar_trigger": false,
      "taf_trigger": false,
      "metar": "METAR LEBB 142300Z AUTO VRB02KT 9999 FEW013 BKN026 24/22 Q1017",
      "taf": "TAF LEBB 141700Z 1418/1518 32008KT 9999 FEW020 TX28/1514Z TN22/1505Z"
    },
    {
      "icao": "LEBL",
      "alert": "OK",
      "vis_m": 9000,
      "fzfg": false,
      "metar_trigger": false,
      "taf_trigger": false,
      "metar": "METAR LEBL 142300Z 23008KT 9000 FEW020 27/26 Q1016 NOSIG",
      "taf": "TAF LEBL 141700Z 1418/1518 23010KT 9999 FEW020 TX34/1512Z TN25/1506Z"
    },
    {
      "icao": "LECH",
      "alert": "OK",
      "vis_m": 8000,
      "fzfg": false,
      "metar_trigger": false,
      "taf_trigger": false,
      "metar": "METAR LECH 142300Z AUTO 21003KT 8000 NCD 24/22 Q1018",
      "taf": "TAF LECH 141700Z 1418/1518 13007KT 9999 SCT010 TX38/1515Z TN22/1505Z"
    },
    {
      "icao": "LEMD",
      "alert": "OK",
      "vis_m": 9999,
      "fzfg": false,
      "metar_trigger": false,
      "taf_trigger": false,
      "metar": "METAR LEMD 142300Z 25004KT CAVOK 30/03 Q1018 NOSIG",
      "taf": "TAF LEMD 141700Z 1418/1524 20012KT CAVOK TX37/1516Z TN20/1505Z"
    },
    {
      "icao": "LEMG",
      "alert": "OK",
      "vis_m": 9999,
      "fzfg": false,
      "metar_trigger": false,
      "taf_trigger": false,
      "metar": "METAR LEMG 142300Z 27001KT CAVOK 23/16 Q1017 NOSIG",
      "taf": "TAF LEMG 141700Z 1418/1518 08012KT CAVOK TX38/1514Z TN22/1505Z"
    },
    {
      "icao": "LEVC",
      "alert": "OK",
      "vis_m": 9999,
      "fzfg": false,
      "metar_trigger": false,
      "taf_trigger": false,
      "metar": "METAR LEVC 142300Z 31004KT 290V350 9999 FEW030 27/24 Q1017 NOSIG",
      "taf": ""
    },
    {
      "icao": "LEXJ",
      "alert": "OK",
      "vis_m": 8000,
      "fzfg": false,
      "metar_trigger": false,
      "taf_trigger": false,
      "metar": "METAR LEXJ 142300Z AUTO VRB02KT 8000 BKN018 OVC030 23/22 Q1017",
      "taf": "TAF LEXJ 142000Z 1421/1521 26006KT 9999 FEW030 TX28/1513Z TN20/1505Z"
    },
    {
      "icao": "LEZG",
      "alert": "OK",
      "vis_m": 9999,
      "fzfg": false,
      "metar_trigger": false,
      "taf_trigger": false,
      "metar": "METAR LEZG 142300Z 08006KT CAVOK 29/22 Q1014 NOSIG",
      "taf": "TAF LEZG 141700Z 1418/1518 11009KT CAVOK TX42/1515Z TN24/1505Z"
    },
    {
      "icao": "LEZL",
      "alert": "OK",
      "vis_m": 9999,
      "fzfg": false,
      "metar_trigger": false,
      "taf_trigger": false,
      "metar": "METAR LEZL 142300Z 21005KT 170V240 CAVOK 22/17 Q1018 NOSIG",
      "taf": "TAF LEZL 142000Z 1421/1521 23010KT CAVOK TX36/1515Z TN18/1505Z"
    },
    {
      "icao": "LFBD",
      "alert": "OK",
      "vis_m": 9999,
      "fzfg": false,
      "metar_trigger": false,
      "taf_trigger": false,
      "metar": "METAR LFBD 142300Z AUTO 36005KT CAVOK 27/17 Q1015 TEMPO 3000 TSRA BKN060CB",
      "taf": ""
    },
    {
      "icao": "LFLL",
      "alert": "OK",
      "vis_m": 9999,
      "fzfg": false,
      "metar_trigger": false,
      "taf_trigger": false,
      "metar": "METAR LFLL 142300Z VRB01KT CAVOK 29/15 Q1016 NOSIG",
      "taf": "TAF LFLL 141700Z 1418/1524 05005KT CAVOK"
    },
    {
      "icao": "LFLS",
      "alert": "OK",
      "vis_m": 9999,
      "fzfg": false,
      "metar_trigger": false,
      "taf_trigger": false,
      "metar": "METAR LFLS 142300Z AUTO 04005KT CAVOK 22/14 Q1017",
      "taf": "TAF LFLS 141400Z 1415/1515 27005KT CAVOK"
    },
    {
      "icao": "LFMN",
      "alert": "OK",
      "vis_m": 9999,
      "fzfg": false,
      "metar_trigger": false,
      "taf_trigger": false,
      "metar": "METAR LFMN 142300Z 03006KT CAVOK 27/22 Q1016 NOSIG",
      "taf": "TAF LFMN 142000Z 1421/1603 VRB05KT CAVOK"
    },
    {
      "icao": "LFOB",
      "alert": "OK",
      "vis_m": 9999,
      "fzfg": false,
      "metar_trigger": false,
      "taf_trigger": false,
      "metar": "METAR LFOB 142300Z AUTO 02009KT CAVOK 24/16 Q1018 NOSIG",
      "taf": "TAF LFOB 141700Z 1418/1518 04008KT CAVOK"
    },
    {
      "icao": "LFPO",
      "alert": "OK",
      "vis_m": 9999,
      "fzfg": false,
      "metar_trigger": false,
      "taf_trigger": false,
      "metar": "METAR LFPO 142300Z AUTO 04008KT CAVOK 28/15 Q1017 NOSIG",
      "taf": "TAF LFPO 141700Z 1418/1524 02008KT CAVOK"
    },
    {
      "icao": "LFSB",
      "alert": "OK",
      "vis_m": 9999,
      "fzfg": false,
      "metar_trigger": false,
      "taf_trigger": false,
      "metar": "METAR LFSB 142300Z AUTO VRB01KT CAVOK 22/17 Q1016 NOSIG",
      "taf": ""
    },
    {
      "icao": "LGAV",
      "alert": "OK",
      "vis_m": 9999,
      "fzfg": false,
      "metar_trigger": false,
      "taf_trigger": false,
      "metar": "METAR LGAV 142250Z 30004KT 260V350 CAVOK 25/10 Q1016 NOSIG",
      "taf": "TAF LGAV 142300Z 1500/1524 35007KT 9999 FEW025"
    },
    {
      "icao": "LGTS",
      "alert": "OK",
      "vis_m": 9999,
      "fzfg": false,
      "metar_trigger": false,
      "taf_trigger": false,
      "metar": "METAR LGTS 142250Z 09004KT CAVOK 23/17 Q1016 NOSIG",
      "taf": "TAF LGTS 142300Z 1500/1524 VRB03KT 9999 FEW030"
    },
    {
      "icao": "LHBP",
      "alert": "OK",
      "vis_m": 9999,
      "fzfg": false,
      "metar_trigger": false,
      "taf_trigger": false,
      "metar": "METAR LHBP 142300Z 05005KT 9999 VCSH FEW090TCU OVC120 26/14 Q1015 NOSIG",
      "taf": "TAF LHBP 141715Z 1418/1518 12006KT CAVOK"
    },
    {
      "icao": "LHDC",
      "alert": "OK",
      "vis_m": 9999,
      "fzfg": false,
      "metar_trigger": false,
      "taf_trigger": false,
      "metar": "METAR LHDC 142245Z AUTO 08003KT 060V140 CAVOK 22/16 Q1016",
      "taf": "TAF LHDC 141715Z 1418/1503 03007KT CAVOK"
    },
    {
      "icao": "LIBD",
      "alert": "OK",
      "vis_m": 9999,
      "fzfg": false,
      "metar_trigger": false,
      "taf_trigger": false,
      "metar": "METAR LIBD 142250Z 22008KT CAVOK 28/13 Q1015",
      "taf": "TAF LIBD 141700Z 1418/1518 09010KT CAVOK"
    },
    {
      "icao": "LIBG",
      "alert": "OK",
      "vis_m": 9999,
      "fzfg": false,
      "metar_trigger": false,
      "taf_trigger": false,
      "metar": "METAR LIBG 142250Z AUTO VRB02KT 9999 NCD 23/17 Q1016",
      "taf": "TAF LIBG 141700Z 1418/1518 VRB05KT 9999 FEW030"
    },
    {
      "icao": "LIBP",
      "alert": "OK",
      "vis_m": 9999,
      "fzfg": false,
      "metar_trigger": false,
      "taf_trigger": false,
      "metar": "METAR LIBP 142250Z AUTO 22005KT 9999 NCD 23/19 Q1015",
      "taf": "TAF LIBP 141700Z 1418/1518 VRB05KT 9999 FEW050"
    },
    {
      "icao": "LIBR",
      "alert": "OK",
      "vis_m": 9999,
      "fzfg": false,
      "metar_trigger": false,
      "taf_trigger": false,
      "metar": "METAR LIBR 142250Z 15004KT CAVOK 26/15 Q1016",
      "taf": "TAF LIBR 141700Z 1418/1518 VRB05KT CAVOK"
    },
    {
      "icao": "LICA",
      "alert": "OK",
      "vis_m": 9999,
      "fzfg": false,
      "metar_trigger": false,
      "taf_trigger": false,
      "metar": "METAR LICA 142250Z AUTO VRB02KT 9999 SCT011/// 25/23 Q1017",
      "taf": "TAF LICA 141700Z 1418/1518 27013KT 9999 FEW020"
    },
    {
      "icao": "LICC",
      "alert": "OK",
      "vis_m": 9999,
      "fzfg": false,
      "metar_trigger": false,
      "taf_trigger": false,
      "metar": "METAR LICC 142250Z 24006KT CAVOK 25/16 Q1017",
      "taf": "TAF LICC 141700Z 1418/1518 08010KT CAVOK"
    },
    {
      "icao": "LICJ",
      "alert": "OK",
      "vis_m": 9999,
      "fzfg": false,
      "metar_trigger": false,
      "taf_trigger": false,
      "metar": "METAR LICJ 142250Z AUTO VRB02KT 9999 NCD 27/22 Q1016",
      "taf": "TAF LICJ 141700Z 1418/1518 04010KT CAVOK"
    },
    {
      "icao": "LIMC",
      "alert": "OK",
      "vis_m": 9999,
      "fzfg": false,
      "metar_trigger": false,
      "taf_trigger": false,
      "metar": "METAR LIMC 142250Z 03004KT 9999 SCT070 27/17 Q1017 NOSIG",
      "taf": "TAF LIMC 141700Z 1418/1524 17010KT 9999 FEW060"
    },
    {
      "icao": "LIME",
      "alert": "OK",
      "vis_m": 9999,
      "fzfg": false,
      "metar_trigger": false,
      "taf_trigger": false,
      "metar": "METAR LIME 142250Z 36011KT 320V040 9999 VCTS FEW045CB BKN065 25/18 Q1018 TEMPO 4000 TSRA",
      "taf": "TAF LIME 141700Z 1418/1518 VRB05KT 9999 FEW060"
    },
    {
      "icao": "LIMF",
      "alert": "OK",
      "vis_m": 9999,
      "fzfg": false,
      "metar_trigger": false,
      "taf_trigger": false,
      "metar": "METAR LIMF 142250Z 36004KT CAVOK 27/20 Q1017",
      "taf": "TAF LIMF 141700Z 1418/1518 VRB05KT CAVOK"
    },
    {
      "icao": "LIMJ",
      "alert": "OK",
      "vis_m": 9999,
      "fzfg": false,
      "metar_trigger": false,
      "taf_trigger": false,
      "metar": "METAR LIMJ 142250Z 06004KT CAVOK 27/22 Q1016",
      "taf": "TAF LIMJ 141700Z 1418/1518 VRB06KT 9999 FEW020"
    },
    {
      "icao": "LIPE",
      "alert": "OK",
      "vis_m": 9999,
      "fzfg": false,
      "metar_trigger": false,
      "taf_trigger": false,
      "metar": "METAR LIPE 142250Z AUTO 10007KT 9999 FEW012/// 26/24 Q1015",
      "taf": "TAF LIPE 141700Z 1418/1518 VRB05KT CAVOK"
    },
    {
      "icao": "LIPH",
      "alert": "OK",
      "vis_m": 9999,
      "fzfg": false,
      "metar_trigger": false,
      "taf_trigger": false,
      "metar": "METAR LIPH 142250Z AUTO VRB02KT 9999 BKN190/// 23/21 Q1016",
      "taf": "TAF LIPH 141700Z 1418/1518 16010KT 9999 FEW050"
    },
    {
      "icao": "LIPQ",
      "alert": "OK",
      "vis_m": 9999,
      "fzfg": false,
      "metar_trigger": false,
      "taf_trigger": false,
      "metar": "METAR LIPQ 142250Z AUTO 31005KT 9999 SCT150/// BKN230/// 22/21 Q1015",
      "taf": "TAF LIPQ 141700Z 1418/1518 VRB05KT 9999 FEW050"
    },
    {
      "icao": "LIPR",
      "alert": "OK",
      "vis_m": 9999,
      "fzfg": false,
      "metar_trigger": false,
      "taf_trigger": false,
      "metar": "METAR LIPR 142250Z AUTO 29003KT 230V350 9999 NCD 25/21 Q1015",
      "taf": "TAF LIPR 141700Z 1418/1518 10010KT CAVOK"
    },
    {
      "icao": "LIPX",
      "alert": "OK",
      "vis_m": 9999,
      "fzfg": false,
      "metar_trigger": false,
      "taf_trigger": false,
      "metar": "METAR LIPX 142250Z 07003KT 040V110 CAVOK 26/18 Q1016",
      "taf": "TAF LIPX 141700Z 1418/1518 VRB05KT CAVOK"
    },
    {
      "icao": "LIPY",
      "alert": "OK",
      "vis_m": 9999,
      "fzfg": false,
      "metar_trigger": false,
      "taf_trigger": false,
      "metar": "METAR LIPY 142250Z AUTO 22008KT 9999 NCD 30/15 Q1015",
      "taf": "TAF LIPY 141700Z 1418/1518 12013KT 9999 FEW050"
    },
    {
      "icao": "LIPZ",
      "alert": "OK",
      "vis_m": 9999,
      "fzfg": false,
      "metar_trigger": false,
      "taf_trigger": false,
      "metar": "METAR LIPZ 142250Z 02006KT 340V040 CAVOK 24/20 Q1015 NOSIG",
      "taf": "TAF LIPZ 141700Z 1418/1524 03012KT 9999 FEW045"
    },
    {
      "icao": "LIRF",
      "alert": "OK",
      "vis_m": 9999,
      "fzfg": false,
      "metar_trigger": false,
      "taf_trigger": false,
      "metar": "METAR LIRF 142250Z 09003KT CAVOK 24/19 Q1017 NOSIG",
      "taf": "TAF LIRF 141700Z 1418/1524 19010KT CAVOK"
    },
    {
      "icao": "LIRN",
      "alert": "OK",
      "vis_m": 9999,
      "fzfg": false,
      "metar_trigger": false,
      "taf_trigger": false,
      "metar": "METAR LIRN 142250Z VRB01KT CAVOK 26/22 Q1018 NOSIG",
      "taf": "TAF LIRN 141700Z 1418/1518 VRB05KT CAVOK"
    },
    {
      "icao": "LIRP",
      "alert": "OK",
      "vis_m": 9999,
      "fzfg": false,
      "metar_trigger": false,
      "taf_trigger": false,
      "metar": "METAR LIRP 142245Z 11003KT CAVOK 25/23 Q1016 NOSIG",
      "taf": "TAF LIRP 141700Z 1418/1518 28005KT CAVOK"
    },
    {
      "icao": "LIRZ",
      "alert": "OK",
      "vis_m": 9999,
      "fzfg": false,
      "metar_trigger": false,
      "taf_trigger": false,
      "metar": "METAR LIRZ 142250Z AUTO 04003KT 9999 NCD 23/15 Q1018",
      "taf": "TAF LIRZ 141700Z 1418/1518 22012KT CAVOK"
    },
    {
      "icao": "LJLJ",
      "alert": "OK",
      "vis_m": 9999,
      "fzfg": false,
      "metar_trigger": false,
      "taf_trigger": false,
      "metar": "METAR LJLJ 142300Z VRB01KT 9999 FEW060 BKN160 19/18 Q1017 NOSIG",
      "taf": "TAF LJLJ 142300Z 1500/1600 30003KT 9999 FEW060"
    },
    {
      "icao": "LKMT",
      "alert": "OK",
      "vis_m": 9999,
      "fzfg": false,
      "metar_trigger": false,
      "taf_trigger": false,
      "metar": "METAR LKMT 142300Z 00000KT CAVOK 19/17 Q1018 NOSIG",
      "taf": "TAF LKMT 141700Z 1418/1518 02008KT CAVOK"
    },
    {
      "icao": "LKPR",
      "alert": "OK",
      "vis_m": 9999,
      "fzfg": false,
      "metar_trigger": false,
      "taf_trigger": false,
      "metar": "METAR LKPR 142300Z 35002KT CAVOK 17/16 Q1019 NOSIG",
      "taf": "TAF LKPR 142000Z 1421/1603 01006KT CAVOK"
    },
    {
      "icao": "LLBG",
      "alert": "OK",
      "vis_m": 9999,
      "fzfg": false,
      "metar_trigger": false,
      "taf_trigger": false,
      "metar": "METAR LLBG 142250Z 13005KT 9999 FEW020 26/21 Q1007 NOSIG",
      "taf": "TAF LLBG 142301Z 1500/1524 VRB04KT 9999 FEW018 TX32/1511Z TN22/1503Z"
    },
    {
      "icao": "LMML",
      "alert": "OK",
      "vis_m": 9999,
      "fzfg": false,
      "metar_trigger": false,
      "taf_trigger": false,
      "metar": "METAR LMML 142245Z 22005KT CAVOK 26/20 Q1018 NOSIG",
      "taf": "TAF LMML 142300Z 1500/1524 26010KT 9999 FEW012"
    },
    {
      "icao": "LOWW",
      "alert": "OK",
      "vis_m": 9999,
      "fzfg": false,
      "metar_trigger": false,
      "taf_trigger": false,
      "metar": "METAR LOWW 142250Z 33008KT CAVOK 22/15 Q1017 NOSIG",
      "taf": "TAF LOWW 142015Z 1421/1603 24007KT CAVOK TX31/1514Z TN18/1603Z"
    },
    {
      "icao": "LPFR",
      "alert": "OK",
      "vis_m": 9999,
      "fzfg": false,
      "metar_trigger": false,
      "taf_trigger": false,
      "metar": "METAR LPFR 142300Z 27010KT CAVOK 21/16 Q1018",
      "taf": "TAF LPFR 141700Z 1418/1518 24013KT CAVOK"
    },
    {
      "icao": "LPMA",
      "alert": "OK",
      "vis_m": 9999,
      "fzfg": false,
      "metar_trigger": false,
      "taf_trigger": false,
      "metar": "METAR LPMA 142300Z VRB02KT 9999 FEW015 22/19 Q1019",
      "taf": "TAF LPMA 141700Z 1418/1518 19010KT 9999 SCT015 SCT030"
    },
    {
      "icao": "LPPR",
      "alert": "OK",
      "vis_m": 9999,
      "fzfg": false,
      "metar_trigger": false,
      "taf_trigger": false,
      "metar": "METAR LPPR 142300Z 04003KT 340V090 9999 FEW007 19/18 Q1019",
      "taf": "TAF LPPR 141700Z 1418/1518 29010KT 9999 SCT015"
    },
    {
      "icao": "LPPS",
      "alert": "OK",
      "vis_m": 9999,
      "fzfg": false,
      "metar_trigger": false,
      "taf_trigger": false,
      "metar": "METAR LPPS 142300Z 15003KT 9999 FEW014 22/19 Q1020",
      "taf": "TAF LPPS 141700Z 1418/1524 18010KT 9999 SCT015"
    },
    {
      "icao": "LPPT",
      "alert": "OK",
      "vis_m": 9999,
      "fzfg": false,
      "metar_trigger": false,
      "taf_trigger": false,
      "metar": "METAR LPPT 142300Z 30006KT CAVOK 20/16 Q1019 NOSIG",
      "taf": "TAF LPPT 141700Z 1418/1524 30010KT 9999 FEW030"
    },
    {
      "icao": "LQBK",
      "alert": "OK",
      "vis_m": 9999,
      "fzfg": false,
      "metar_trigger": false,
      "taf_trigger": false,
      "metar": "METAR LQBK 142300Z 33004KT CAVOK 20/17 Q1016 NOSIG",
      "taf": "TAF LQBK 142300Z 1500/1524 14005KT CAVOK TX33/1514Z TN17/1503Z"
    },
    {
      "icao": "LQSA",
      "alert": "OK",
      "vis_m": 9999,
      "fzfg": false,
      "metar_trigger": false,
      "taf_trigger": false,
      "metar": "METAR LQSA 142300Z VRB01KT CAVOK 20/16 Q1018",
      "taf": "TAF LQSA 142300Z 1500/1524 VRB02KT CAVOK TX32/1513Z TN16/1503Z"
    },
    {
      "icao": "LQTZ",
      "alert": "OK",
      "vis_m": 9999,
      "fzfg": false,
      "metar_trigger": false,
      "taf_trigger": false,
      "metar": "METAR LQTZ 142300Z 15005KT 110V190 9999 -RA SCT060 20/20 Q1017 RETS",
      "taf": "TAF LQTZ 142300Z 1500/1524 VRB02KT CAVOK TX32/1514Z TN16/1503Z"
    },
    {
      "icao": "LRBC",
      "alert": "OK",
      "vis_m": 9999,
      "fzfg": false,
      "metar_trigger": false,
      "taf_trigger": false,
      "metar": "METAR LRBC 142300Z 36006KT CAVOK 18/17 Q1017",
      "taf": "TAF LRBC 142000Z 1421/1506 33006KT CAVOK"
    },
    {
      "icao": "LRBS",
      "alert": "OK",
      "vis_m": 9999,
      "fzfg": false,
      "metar_trigger": false,
      "taf_trigger": false,
      "metar": "METAR LRBS 142300Z 27001KT CAVOK 21/17 Q1016 NOSIG",
      "taf": "TAF LRBS 141700Z 1418/1518 04010KT CAVOK"
    },
    {
      "icao": "LRBV",
      "alert": "OK",
      "vis_m": 5000,
      "fzfg": false,
      "metar_trigger": false,
      "taf_trigger": false,
      "metar": "METAR LRBV 142300Z AUTO VRB02KT 5000 0300 R21/0325N UP VV002 14/14 Q1020",
      "taf": "TAF LRBV 141700Z 1418/1503 VRB04KT 9999 SCT045"
    },
    {
      "icao": "LRCL",
      "alert": "OK",
      "vis_m": 9999,
      "fzfg": false,
      "metar_trigger": false,
      "taf_trigger": false,
      "metar": "METAR LRCL 142300Z 08002KT CAVOK 17/15 Q1018",
      "taf": "TAF LRCL 142000Z 1421/1506 VRB04KT CAVOK"
    },
    {
      "icao": "LRCV",
      "alert": "OK",
      "vis_m": 9999,
      "fzfg": false,
      "metar_trigger": false,
      "taf_trigger": false,
      "metar": "METAR LRCV 142300Z 07009KT CAVOK 21/16 Q1017",
      "taf": "TAF LRCV 142000Z 1421/1506 VRB04KT CAVOK"
    },
    {
      "icao": "LRIA",
      "alert": "OK",
      "vis_m": 9999,
      "fzfg": false,
      "metar_trigger": false,
      "taf_trigger": false,
      "metar": "METAR LRIA 142300Z 26007KT CAVOK 19/17 Q1016",
      "taf": "TAF LRIA 142000Z 1421/1506 30006KT CAVOK"
    },
    {
      "icao": "LROP",
      "alert": "OK",
      "vis_m": 9999,
      "fzfg": false,
      "metar_trigger": false,
      "taf_trigger": false,
      "metar": "METAR LROP 142300Z 27004KT CAVOK 20/17 Q1017 NOSIG",
      "taf": "TAF LROP 141700Z 1418/1518 04010KT CAVOK"
    },
    {
      "icao": "LRSB",
      "alert": "OK",
      "vis_m": 9999,
      "fzfg": false,
      "metar_trigger": false,
      "taf_trigger": false,
      "metar": "METAR LRSB 142300Z 12005KT CAVOK 17/16 Q1019",
      "taf": "TAF LRSB 141700Z 1418/1518 VRB04KT 9999 SCT050"
    },
    {
      "icao": "LRSM",
      "alert": "OK",
      "vis_m": 9999,
      "fzfg": false,
      "metar_trigger": false,
      "taf_trigger": false,
      "metar": "METAR LRSM 142300Z AUTO 08003KT 9999 NCD 18/15 Q1017",
      "taf": "TAF LRSM 142000Z 1421/1506 VRB04KT CAVOK"
    },
    {
      "icao": "LRSV",
      "alert": "OK",
      "vis_m": 9999,
      "fzfg": false,
      "metar_trigger": false,
      "taf_trigger": false,
      "metar": "METAR LRSV 142300Z 30009KT CAVOK 19/15 Q1018",
      "taf": "TAF LRSV 142000Z 1421/1506 30010KT CAVOK"
    },
    {
      "icao": "LRTM",
      "alert": "OK",
      "vis_m": 9999,
      "fzfg": false,
      "metar_trigger": false,
      "taf_trigger": false,
      "metar": "METAR LRTM 142300Z 09004KT CAVOK 15/15 Q1019",
      "taf": "TAF LRTM 142000Z 1421/1506 VRB04KT CAVOK"
    },
    {
      "icao": "LRTR",
      "alert": "OK",
      "vis_m": 9999,
      "fzfg": false,
      "metar_trigger": false,
      "taf_trigger": false,
      "metar": "METAR LRTR 142300Z 36006KT CAVOK 18/15 Q1016",
      "taf": "TAF LRTR 141700Z 1418/1518 VRB04KT CAVOK"
    },
    {
      "icao": "LTAC",
      "alert": "OK",
      "vis_m": 9999,
      "fzfg": false,
      "metar_trigger": false,
      "taf_trigger": false,
      "metar": "METAR LTAC 142250Z 04006KT CAVOK 15/10 Q1018 NOSIG RMK RWY21C 02007KT RWY03L 02007KT RWY21R 36007KT RWY03R 02005KT RWY21L 01005KT",
      "taf": "TAF LTAC 142240Z 1500/1524 VRB02KT CAVOK"
    },
    {
      "icao": "LTFM",
      "alert": "OK",
      "vis_m": 9999,
      "fzfg": false,
      "metar_trigger": false,
      "taf_trigger": false,
      "metar": "METAR LTFM 142250Z 19004KT 160V240 CAVOK 20/17 Q1016 NOSIG RMK RWY17L 20005KT 160V230 RWY34L VRB02KT RWY16R 17005KT RWY36 18003KT RWY18 19005KT",
      "taf": "TAF LTFM 142240Z 1500/1606 21006KT CAVOK"
    },
    {
      "icao": "LUKK",
      "alert": "OK",
      "vis_m": 9999,
      "fzfg": false,
      "metar_trigger": false,
      "taf_trigger": false,
      "metar": "METAR LUKK 142300Z 01004KT CAVOK 18/18 Q1015 NOSIG",
      "taf": "TAF LUKK 142309Z 1500/1524 34006KT CAVOK"
    },
    {
      "icao": "LWOH",
      "alert": "OK",
      "vis_m": 9999,
      "fzfg": false,
      "metar_trigger": false,
      "taf_trigger": false,
      "metar": "METAR LWOH 142250Z 33004KT CAVOK 15/12 Q1020",
      "taf": "TAF LWOH 142020Z 1421/1521 33006KT CAVOK"
    },
    {
      "icao": "LWSK",
      "alert": "OK",
      "vis_m": 9999,
      "fzfg": false,
      "metar_trigger": false,
      "taf_trigger": false,
      "metar": "METAR LWSK 142250Z VRB01KT CAVOK 19/14 Q1018 NOSIG",
      "taf": "TAF LWSK 142020Z 1421/1521 VRB02KT CAVOK"
    },
    {
      "icao": "LYBE",
      "alert": "OK",
      "vis_m": 9999,
      "fzfg": false,
      "metar_trigger": false,
      "taf_trigger": false,
      "metar": "METAR LYBE 142300Z 17004KT CAVOK 24/16 Q1016 NOSIG",
      "taf": "TAF LYBE 141700Z 1418/1518 08005KT CAVOK TX33/1514Z TN21/1503Z"
    },
    {
      "icao": "LYNI",
      "alert": "OK",
      "vis_m": 9999,
      "fzfg": false,
      "metar_trigger": false,
      "taf_trigger": false,
      "metar": "METAR LYNI 142300Z 09003KT CAVOK 20/15 Q1017 NOSIG",
      "taf": "TAF LYNI 141700Z 1418/1518 33005KT CAVOK TX33/1514Z TN14/1503Z"
    },
    {
      "icao": "LYPG",
      "alert": "OK",
      "vis_m": 9999,
      "fzfg": false,
      "metar_trigger": false,
      "taf_trigger": false,
      "metar": "METAR LYPG 142300Z VRB01KT CAVOK 25/17 Q1015 NOSIG",
      "taf": "TAF LYPG 141700Z 1418/1518 36005KT CAVOK TX35/1513Z TN23/1503Z"
    },
    {
      "icao": "LZIB",
      "alert": "OK",
      "vis_m": 9999,
      "fzfg": false,
      "metar_trigger": false,
      "taf_trigger": false,
      "metar": "METAR LZIB 142300Z 01003KT 9999 TSRA FEW061CB 23/19 Q1016 BECMG NSW",
      "taf": ""
    },
    {
      "icao": "LZKZ",
      "alert": "OK",
      "vis_m": 9999,
      "fzfg": false,
      "metar_trigger": false,
      "taf_trigger": false,
      "metar": "METAR LZKZ 142300Z 10004KT CAVOK 22/18 Q1018 NOSIG",
      "taf": ""
    },
    {
      "icao": "LZTT",
      "alert": "OK",
      "vis_m": 9999,
      "fzfg": false,
      "metar_trigger": false,
      "taf_trigger": false,
      "metar": "METAR LZTT 142300Z VRB02KT CAVOK 15/15 Q1020",
      "taf": ""
    },
    {
      "icao": "OEJN",
      "alert": "OK",
      "vis_m": 9999,
      "fzfg": false,
      "metar_trigger": false,
      "taf_trigger": false,
      "metar": "METAR OEJN 142300Z 13003KT 9999 FEW040 32/12 Q1003 NOSIG",
      "taf": "TAF OEJN 141700Z 1418/1524 36005KT CAVOK"
    },
    {
      "icao": "OEMA",
      "alert": "OK",
      "vis_m": 9999,
      "fzfg": false,
      "metar_trigger": false,
      "taf_trigger": false,
      "metar": "METAR OEMA 142300Z 21003KT CAVOK 37/04 Q1008 NOSIG",
      "taf": "TAF OEMA 141700Z 1418/1524 29010KT CAVOK"
    },
    {
      "icao": "OJAI",
      "alert": "OK",
      "vis_m": 5000,
      "fzfg": false,
      "metar_trigger": false,
      "taf_trigger": false,
      "metar": "METAR OJAI 142300Z 32006KT 5000 HZ NSC 20/12 Q1011 NOSIG",
      "taf": "TAF OJAI 142250Z 1500/1606 30008KT 5000 HZ NSC"
    },
    {
      "icao": "OMAA",
      "alert": "OK",
      "vis_m": 8000,
      "fzfg": false,
      "metar_trigger": false,
      "taf_trigger": false,
      "metar": "METAR OMAA 142300Z 33007KT 8000 NSC 33/30 Q0995 NOSIG",
      "taf": "TAF OMAA 142300Z 1500/1606 02008KT 8000 NSC"
    },
    {
      "icao": "OMDB",
      "alert": "OK",
      "vis_m": 9000,
      "fzfg": false,
      "metar_trigger": false,
      "taf_trigger": false,
      "metar": "METAR OMDB 142300Z 34009KT 320V020 9000 NSC 36/27 Q0995 NOSIG",
      "taf": "TAF OMDB 142300Z 1500/1606 02008KT CAVOK"
    },
    {
      "icao": "UAAA",
      "alert": "OK",
      "vis_m": 9999,
      "fzfg": false,
      "metar_trigger": false,
      "taf_trigger": false,
      "metar": "METAR UAAA 142300Z 10001MPS 9999 FEW100 19/11 Q1009 NOSIG",
      "taf": "TAF UAAA 141701Z 1418/1518 16003MPS 9999 SCT100 TX36/1510Z TN20/1501Z"
    },
    {
      "icao": "UBBB",
      "alert": "OK",
      "vis_m": 9999,
      "fzfg": false,
      "metar_trigger": false,
      "taf_trigger": false,
      "metar": "METAR UBBB 142300Z 34010KT 9999 FEW060CB 27/18 Q1005 NOSIG",
      "taf": "TAF UBBB 142303Z 1500/1524 33014KT 9999 SCT040 TX32/1510Z TN24/1501Z"
    },
    {
      "icao": "UDSG",
      "alert": "OK",
      "vis_m": 9999,
      "fzfg": false,
      "metar_trigger": false,
      "taf_trigger": false,
      "metar": "METAR UDSG 142300Z 35006KT 9999 NSC 19/15 Q1016 NOSIG",
      "taf": "TAF UDSG 141658Z 1418/1518 06008KT 9999 FEW050"
    },
    {
      "icao": "UDYZ",
      "alert": "OK",
      "vis_m": 9999,
      "fzfg": false,
      "metar_trigger": false,
      "taf_trigger": false,
      "metar": "METAR UDYZ 142300Z 03011KT 9999 NSC 27/16 Q1008 NOSIG",
      "taf": "TAF UDYZ 141700Z 1418/1518 05006KT 9999 NSC"
    },
    {
      "icao": "UGKO",
      "alert": "OK",
      "vis_m": 9999,
      "fzfg": false,
      "metar_trigger": false,
      "taf_trigger": false,
      "metar": "METAR UGKO 142300Z VRB02KT 9999 BKN050 20/20 Q1012 NOSIG",
      "taf": "TAF UGKO 142300Z 1500/1524 25007KT 9999 SCT015 OVC030 TX26/1511Z TN20/1502Z"
    }
  ]
}