{
  "ts_utc": "2026-02-28T22:43:10Z",
  "threshold_m": 150,
  "source": "stations_override.txt (ICAO list) + aviationweather.gov (METAR/TAF raw)",
  "station_count": 159,
  "stations": [
    {
      "icao": "BIKF",
      "alert": "OK",
      "vis_m": 9999,
      "fzfg": false,
      "metar_trigger": false,
      "taf_trigger": false,
      "metar": "METAR BIKF 282230Z 05008KT 9999 -SN SCT006 OVC020 M01/M01 Q1001",
      "taf": "TAF BIKF 281959Z 2821/0121 06007KT 9999 FEW020 BKN040 TXM01/0114Z TNM03/0121Z"
    },
    {
      "icao": "BKPR",
      "alert": "OK",
      "vis_m": 9999,
      "fzfg": false,
      "metar_trigger": false,
      "taf_trigger": false,
      "metar": "METAR BKPR 282230Z VRB01KT CAVOK 02/01 Q1025 NOSIG",
      "taf": "TAF BKPR 281730Z 2818/0118 17007KT CAVOK"
    },
    {
      "icao": "EBCI",
      "alert": "OK",
      "vis_m": 9999,
      "fzfg": false,
      "metar_trigger": false,
      "taf_trigger": false,
      "metar": "METAR EBCI 282220Z 22008KT 9999 FEW032 06/01 Q1024 NOSIG",
      "taf": "TAF EBCI 281710Z 2818/0124 25008KT 9999 FEW020"
    },
    {
      "icao": "EDDB",
      "alert": "OK",
      "vis_m": 9999,
      "fzfg": false,
      "metar_trigger": false,
      "taf_trigger": false,
      "metar": "METAR EDDB 282220Z AUTO 23010KT CAVOK 11/05 Q1019 NOSIG",
      "taf": "TAF EDDB 281700Z 2818/0118 24008KT CAVOK"
    },
    {
      "icao": "EDDH",
      "alert": "OK",
      "vis_m": 9999,
      "fzfg": false,
      "metar_trigger": false,
      "taf_trigger": false,
      "metar": "METAR EDDH 282220Z AUTO 25018G31KT 9999 BKN021 BKN033 08/03 Q1017 NOSIG",
      "taf": ""
    },
    {
      "icao": "EDDK",
      "alert": "OK",
      "vis_m": 9999,
      "fzfg": false,
      "metar_trigger": false,
      "taf_trigger": false,
      "metar": "METAR EDDK 282220Z AUTO 22007KT CAVOK 07/03 Q1024 NOSIG",
      "taf": "TAF EDDK 281700Z 2818/0124 23013KT 9999 BKN040"
    },
    {
      "icao": "EDDN",
      "alert": "OK",
      "vis_m": 9999,
      "fzfg": false,
      "metar_trigger": false,
      "taf_trigger": false,
      "metar": "METAR EDDN 282220Z AUTO 26007KT CAVOK 10/04 Q1024 NOSIG",
      "taf": "TAF EDDN 281700Z 2818/0118 26005KT 9999 FEW040"
    },
    {
      "icao": "EDDS",
      "alert": "OK",
      "vis_m": 9999,
      "fzfg": false,
      "metar_trigger": false,
      "taf_trigger": false,
      "metar": "METAR EDDS 282220Z AUTO VRB01KT CAVOK 08/05 Q1024",
      "taf": "TAF EDDS 281700Z 2818/0118 25007KT 9999 BKN040"
    },
    {
      "icao": "EDFH",
      "alert": "OK",
      "vis_m": 9999,
      "fzfg": false,
      "metar_trigger": false,
      "taf_trigger": false,
      "metar": "METAR EDFH 282220Z 29004KT 9999 FEW040 05/02 Q1024",
      "taf": "TAF EDFH 281700Z 2818/0118 25010KT 9999 SCT035"
    },
    {
      "icao": "EDJA",
      "alert": "OK",
      "vis_m": 9999,
      "fzfg": false,
      "metar_trigger": false,
      "taf_trigger": false,
      "metar": "METAR EDJA 282220Z AUTO VRB02KT 9999 // OVC036/// 07/05 Q1024",
      "taf": "TAF EDJA 281700Z 2818/0103 22006KT 9999 BKN035"
    },
    {
      "icao": "EDLW",
      "alert": "OK",
      "vis_m": 9999,
      "fzfg": false,
      "metar_trigger": false,
      "taf_trigger": false,
      "metar": "METAR EDLW 282220Z AUTO 23010KT 9999 // FEW015/// SCT045/// BKN068/// 07/05 Q1022",
      "taf": "TAF EDLW 281700Z 2818/0118 22015G25KT 9999 BKN035"
    },
    {
      "icao": "EDNY",
      "alert": "OK",
      "vis_m": 9999,
      "fzfg": false,
      "metar_trigger": false,
      "taf_trigger": false,
      "metar": "METAR EDNY 282220Z AUTO 24005KT 9999 // OVC040/// 08/04 Q1025",
      "taf": "TAF EDNY 281700Z 2818/0103 24005KT 9999 BKN035"
    },
    {
      "icao": "EDSB",
      "alert": "OK",
      "vis_m": 9999,
      "fzfg": false,
      "metar_trigger": false,
      "taf_trigger": false,
      "metar": "METAR EDSB 282220Z AUTO 20005KT 9999 R21///// // FEW200/// 07/05 Q1025",
      "taf": "TAF EDSB 281700Z 2818/0118 22006KT CAVOK"
    },
    {
      "icao": "EETN",
      "alert": "OK",
      "vis_m": 600,
      "fzfg": false,
      "metar_trigger": false,
      "taf_trigger": false,
      "metar": "METAR EETN 282220Z 10004KT 0600 R08/1700N -DZ FG VV002 01/01 Q1016",
      "taf": ""
    },
    {
      "icao": "EFTU",
      "alert": "OK",
      "vis_m": 7000,
      "fzfg": false,
      "metar_trigger": false,
      "taf_trigger": false,
      "metar": "METAR EFTU 282220Z AUTO 11007KT 7000 OVC002 M00/M00 Q1015",
      "taf": ""
    },
    {
      "icao": "EGBB",
      "alert": "OK",
      "vis_m": 9999,
      "fzfg": false,
      "metar_trigger": false,
      "taf_trigger": false,
      "metar": "METAR EGBB 282220Z 17004KT CAVOK 04/01 Q1018",
      "taf": "TAF EGBB 281657Z 2818/0118 27010KT 9999 SCT045"
    },
    {
      "icao": "EGGP",
      "alert": "OK",
      "vis_m": 9999,
      "fzfg": false,
      "metar_trigger": false,
      "taf_trigger": false,
      "metar": "METAR EGGP 282220Z 16008KT 130V190 9999 SCT047 06/01 Q1016",
      "taf": "TAF EGGP 281657Z 2818/0118 28009KT 9999 SCT020"
    },
    {
      "icao": "EGGW",
      "alert": "OK",
      "vis_m": 9999,
      "fzfg": false,
      "metar_trigger": false,
      "taf_trigger": false,
      "metar": "METAR EGGW 282220Z AUTO 19006KT 9999 NCD 04/01 Q1019",
      "taf": "TAF EGGW 281659Z 2818/0118 24007KT 9999 SCT040"
    },
    {
      "icao": "EGKK",
      "alert": "OK",
      "vis_m": 9999,
      "fzfg": false,
      "metar_trigger": false,
      "taf_trigger": false,
      "metar": "METAR EGKK 282220Z 21005KT CAVOK 07/05 Q1021",
      "taf": "TAF EGKK 281652Z 2818/0124 28015KT 9999 FEW018 SCT025"
    },
    {
      "icao": "EGNM",
      "alert": "OK",
      "vis_m": 9999,
      "fzfg": false,
      "metar_trigger": false,
      "taf_trigger": false,
      "metar": "METAR EGNM 282220Z 16005KT CAVOK 01/M02 Q1015",
      "taf": "TAF EGNM 281655Z 2818/0118 27012KT 9999 SCT016"
    },
    {
      "icao": "EGPD",
      "alert": "OK",
      "vis_m": 9999,
      "fzfg": false,
      "metar_trigger": false,
      "taf_trigger": false,
      "metar": "METAR EGPD 282220Z COR AUTO 18006KT 9999 SCT045 02/01 Q1011 NOSIG",
      "taf": ""
    },
    {
      "icao": "EGPF",
      "alert": "OK",
      "vis_m": 9999,
      "fzfg": false,
      "metar_trigger": false,
      "taf_trigger": false,
      "metar": "METAR EGPF 282220Z AUTO 11004KT 070V150 9999 -RA OVC026/// //////TCU 05/02 Q1011",
      "taf": "TAF EGPF 281655Z 2818/0118 15006KT 9999 FEW020 SCT035"
    },
    {
      "icao": "EHBK",
      "alert": "OK",
      "vis_m": 9999,
      "fzfg": false,
      "metar_trigger": false,
      "taf_trigger": false,
      "metar": "METAR EHBK 282225Z AUTO 23008KT 9999 NCD 06/02 Q1023",
      "taf": "TAF EHBK 281715Z 2818/0124 24010KT 9999 BKN030"
    },
    {
      "icao": "EHEH",
      "alert": "OK",
      "vis_m": 9999,
      "fzfg": false,
      "metar_trigger": false,
      "taf_trigger": false,
      "metar": "METAR EHEH 282225Z AUTO 20005KT 9999 BKN022 OVC025 07/06 Q1023 WHT",
      "taf": "TAF EHEH 281750Z 2818/0124 24015G25KT 9999 BKN018"
    },
    {
      "icao": "EKBI",
      "alert": "OK",
      "vis_m": 8000,
      "fzfg": false,
      "metar_trigger": false,
      "taf_trigger": false,
      "metar": "METAR EKBI 282220Z AUTO 20011KT 8000 DZRA OVC004/// 05/05 Q1010",
      "taf": "TAF EKBI 282027Z 2821/0121 20010KT 8000 -RA BKN020"
    },
    {
      "icao": "EKCH",
      "alert": "OK",
      "vis_m": 9999,
      "fzfg": false,
      "metar_trigger": false,
      "taf_trigger": false,
      "metar": "METAR EKCH 282220Z AUTO 18012KT 9999 FEW051/// OVC089/// 05/03 Q1013 NOSIG",
      "taf": "TAF EKCH 282027Z 2821/0121 17008KT 9999 BKN040"
    },
    {
      "icao": "ENAL",
      "alert": "OK",
      "vis_m": 9999,
      "fzfg": false,
      "metar_trigger": false,
      "taf_trigger": false,
      "metar": "METAR ENAL 282220Z AUTO 16006KT 9999 NCD M01/M03 Q1011",
      "taf": "TAF ENAL 282000Z 2821/0106 14005KT CAVOK"
    },
    {
      "icao": "ENBR",
      "alert": "OK",
      "vis_m": 9999,
      "fzfg": false,
      "metar_trigger": false,
      "taf_trigger": false,
      "metar": "METAR ENBR 282220Z VRB01KT CAVOK M01/M04 Q1009 RMK WIND 1200FT 04006KT",
      "taf": "TAF ENBR 281700Z 2818/0118 35008KT CAVOK"
    },
    {
      "icao": "ENGM",
      "alert": "OK",
      "vis_m": 4300,
      "fzfg": false,
      "metar_trigger": false,
      "taf_trigger": false,
      "metar": "METAR ENGM 282150Z 03007KT 4300 -SN FEW004 OVC021 M00/M01 Q1010 TEMPO 2000 -SN VV007",
      "taf": ""
    },
    {
      "icao": "ENHD",
      "alert": "OK",
      "vis_m": 9999,
      "fzfg": false,
      "metar_trigger": false,
      "taf_trigger": false,
      "metar": "METAR ENHD 282220Z AUTO 23003KT 200V260 9999 NCD 03/01 Q1009",
      "taf": "TAF ENHD 281400Z 2815/2823 35010KT CAVOK"
    },
    {
      "icao": "ENTC",
      "alert": "OK",
      "vis_m": 9999,
      "fzfg": false,
      "metar_trigger": false,
      "taf_trigger": false,
      "metar": "METAR ENTC 282220Z AUTO 20020KT 9999 SCT029/// 02/M04 Q1003 RMK WIND 2600FT 18028KT",
      "taf": "TAF ENTC 281700Z 2818/0118 22015KT 9999 FEW025 BKN050"
    },
    {
      "icao": "ENTO",
      "alert": "OK",
      "vis_m": 3200,
      "fzfg": false,
      "metar_trigger": false,
      "taf_trigger": false,
      "metar": "METAR ENTO 282220Z AUTO 01010KT 3200 +RA BKN002/// OVC003/// 00/00 Q1009 REDZ",
      "taf": ""
    },
    {
      "icao": "ENVA",
      "alert": "OK",
      "vis_m": 9999,
      "fzfg": false,
      "metar_trigger": false,
      "taf_trigger": false,
      "metar": "METAR ENVA 282220Z 12006KT CAVOK M01/M06 Q1014 RMK WIND 670FT 14011KT",
      "taf": "TAF ENVA 281700Z 2818/0118 10005KT CAVOK"
    },
    {
      "icao": "ENZV",
      "alert": "OK",
      "vis_m": 9999,
      "fzfg": false,
      "metar_trigger": false,
      "taf_trigger": false,
      "metar": "METAR ENZV 282220Z 34003KT 9999 -SHRA FEW021 BKN043 02/01 Q1010",
      "taf": "TAF ENZV 281700Z 2818/0118 36007KT 9999 -RA FEW015 BKN040"
    },
    {
      "icao": "EPGD",
      "alert": "OK",
      "vis_m": 9999,
      "fzfg": false,
      "metar_trigger": false,
      "taf_trigger": false,
      "metar": "METAR EPGD 282230Z 26005KT CAVOK 06/04 Q1017",
      "taf": "TAF EPGD 281730Z 2818/0118 20010KT CAVOK"
    },
    {
      "icao": "EPKK",
      "alert": "OK",
      "vis_m": 8000,
      "fzfg": false,
      "metar_trigger": false,
      "taf_trigger": false,
      "metar": "METAR EPKK 282230Z VRB01KT 8000 NSC 02/01 Q1022",
      "taf": "TAF EPKK 282030Z 2821/0121 VRB02KT CAVOK"
    },
    {
      "icao": "EPKT",
      "alert": "OK",
      "vis_m": 9999,
      "fzfg": false,
      "metar_trigger": false,
      "taf_trigger": false,
      "metar": "METAR EPKT 282230Z 21009KT CAVOK 07/02 Q1022",
      "taf": "TAF EPKT 281730Z 2818/0118 19008KT CAVOK"
    },
    {
      "icao": "EPLB",
      "alert": "OK",
      "vis_m": 9999,
      "fzfg": false,
      "metar_trigger": false,
      "taf_trigger": false,
      "metar": "METAR EPLB 282230Z VRB02KT CAVOK 04/00 Q1022",
      "taf": "TAF EPLB 281730Z 2818/0118 17005KT CAVOK"
    },
    {
      "icao": "EPMO",
      "alert": "OK",
      "vis_m": 9999,
      "fzfg": false,
      "metar_trigger": false,
      "taf_trigger": false,
      "metar": "METAR EPMO 282230Z 17006KT CAVOK 06/03 Q1020",
      "taf": "TAF EPMO 281730Z 2818/0118 17005KT CAVOK"
    },
    {
      "icao": "EPPO",
      "alert": "OK",
      "vis_m": 9999,
      "fzfg": false,
      "metar_trigger": false,
      "taf_trigger": false,
      "metar": "METAR EPPO 282230Z 25004KT CAVOK 08/04 Q1019",
      "taf": "TAF EPPO 281730Z 2818/0118 20006KT CAVOK"
    },
    {
      "icao": "EPRA",
      "alert": "OK",
      "vis_m": 9999,
      "fzfg": false,
      "metar_trigger": false,
      "taf_trigger": false,
      "metar": "METAR EPRA 282230Z 17007KT CAVOK 04/00 Q1021",
      "taf": "TAF EPRA 282030Z 2821/0106 19008KT CAVOK"
    },
    {
      "icao": "EPRZ",
      "alert": "OK",
      "vis_m": 9999,
      "fzfg": false,
      "metar_trigger": false,
      "taf_trigger": false,
      "metar": "METAR EPRZ 282230Z 19009KT CAVOK 06/M01 Q1023",
      "taf": "TAF EPRZ 281730Z 2818/0118 18007KT CAVOK"
    },
    {
      "icao": "EPSC",
      "alert": "OK",
      "vis_m": 9999,
      "fzfg": false,
      "metar_trigger": false,
      "taf_trigger": false,
      "metar": "METAR EPSC 282230Z 19004KT 150V240 CAVOK 11/06 Q1017",
      "taf": "TAF EPSC 281730Z 2818/0118 17008KT CAVOK"
    },
    {
      "icao": "EPSY",
      "alert": "OK",
      "vis_m": 250,
      "fzfg": true,
      "metar_trigger": false,
      "taf_trigger": false,
      "metar": "METAR EPSY 282230Z 36001KT 0250 0250N R01/0300N FZFG FEW006 M01/M01 Q1019",
      "taf": ""
    },
    {
      "icao": "EPWA",
      "alert": "OK",
      "vis_m": 9999,
      "fzfg": false,
      "metar_trigger": false,
      "taf_trigger": false,
      "metar": "METAR EPWA 282230Z 16003KT CAVOK 04/02 Q1021 NOSIG",
      "taf": "TAF EPWA 282030Z 2821/0121 16005KT CAVOK"
    },
    {
      "icao": "EPWR",
      "alert": "OK",
      "vis_m": 9999,
      "fzfg": false,
      "metar_trigger": false,
      "taf_trigger": false,
      "metar": "METAR EPWR 282230Z 23006KT CAVOK 08/03 Q1021",
      "taf": "TAF EPWR 282030Z 2821/0121 22008KT CAVOK"
    },
    {
      "icao": "ESGG",
      "alert": "OK",
      "vis_m": 2200,
      "fzfg": false,
      "metar_trigger": false,
      "taf_trigger": false,
      "metar": "METAR ESGG 282220Z 18010KT 2200 BKN002 05/05 Q1009",
      "taf": "TAF ESGG 282030Z 2821/0121 19008KT 5000 -RADZ OVC002"
    },
    {
      "icao": "ESKN",
      "alert": "OK",
      "vis_m": 3500,
      "fzfg": false,
      "metar_trigger": false,
      "taf_trigger": false,
      "metar": "METAR ESKN 282220Z 08006KT 3500 -DZ BR OVC003 02/02 Q1012",
      "taf": "TAF ESKN 282030Z 2821/0121 VRB02KT 9999 BKN003"
    },
    {
      "icao": "ESMS",
      "alert": "OK",
      "vis_m": 9999,
      "fzfg": false,
      "metar_trigger": false,
      "taf_trigger": false,
      "metar": "METAR ESMS 282220Z 19009KT CAVOK 05/04 Q1013",
      "taf": "TAF ESMS 282027Z 2821/0121 19006KT 7000 BKN040"
    },
    {
      "icao": "ESSA",
      "alert": "OK",
      "vis_m": 300,
      "fzfg": false,
      "metar_trigger": false,
      "taf_trigger": false,
      "metar": "METAR ESSA 282220Z 07004KT 0300 R01L/1200N R19R/1100N R01R/P2000N R19L/1900N FG OVC002 00/00 Q1013 TEMPO 2500 RADZ",
      "taf": "TAF ESSA 282030Z 2821/0121 26007KT 9999 OVC002"
    },
    {
      "icao": "EYKA",
      "alert": "OK",
      "vis_m": 9000,
      "fzfg": false,
      "metar_trigger": false,
      "taf_trigger": false,
      "metar": "METAR EYKA 282220Z 19003KT 150V230 9000 NSC 05/02 Q1019",
      "taf": "TAF EYKA 281704Z 2818/0118 VRB04KT 5000 BR SCT005"
    },
    {
      "icao": "EYPA",
      "alert": "OK",
      "vis_m": 5000,
      "fzfg": false,
      "metar_trigger": false,
      "taf_trigger": false,
      "metar": "METAR EYPA 282220Z 18005KT 5000 BR NSC 04/04 Q1017",
      "taf": "TAF EYPA 281700Z 2818/0118 VRB04KT 5000 BR SCT005"
    },
    {
      "icao": "EYVI",
      "alert": "OK",
      "vis_m": 9999,
      "fzfg": false,
      "metar_trigger": false,
      "taf_trigger": false,
      "metar": "METAR EYVI 282220Z 18005KT CAVOK 03/01 Q1020 NOSIG",
      "taf": "TAF EYVI 281708Z 2818/0118 VRB05KT 5000 BR SCT005"
    },
    {
      "icao": "GCFV",
      "alert": "OK",
      "vis_m": 9999,
      "fzfg": false,
      "metar_trigger": false,
      "taf_trigger": false,
      "metar": "METAR GCFV 282230Z 36016KT 9999 BKN030 17/11 Q1020",
      "taf": "TAF GCFV 282000Z 2821/0121 02022KT 9999 SCT025 TX21/0114Z TN15/0106Z"
    },
    {
      "icao": "GCLP",
      "alert": "OK",
      "vis_m": 9999,
      "fzfg": false,
      "metar_trigger": false,
      "taf_trigger": false,
      "metar": "METAR GCLP 282230Z 01017KT 9999 BKN029 BKN038 17/11 Q1020 NOSIG",
      "taf": "TAF GCLP 282000Z 2821/0121 01025KT 9999 SCT030 TX21/0114Z TN16/0106Z"
    },
    {
      "icao": "GCTS",
      "alert": "OK",
      "vis_m": 9999,
      "fzfg": false,
      "metar_trigger": false,
      "taf_trigger": false,
      "metar": "METAR GCTS 282230Z 06013KT 9999 BKN035 18/08 Q1021 NOSIG",
      "taf": "TAF GCTS 282000Z 2821/0121 06018KT 9999 FEW035 TX22/0114Z TN17/0106Z"
    },
    {
      "icao": "GMAD",
      "alert": "OK",
      "vis_m": 6000,
      "fzfg": false,
      "metar_trigger": false,
      "taf_trigger": false,
      "metar": "METAR GMAD 282230Z 00000KT 6000 NSC 16/14 Q1014 NOSIG",
      "taf": ""
    },
    {
      "icao": "GMMN",
      "alert": "OK",
      "vis_m": 9999,
      "fzfg": false,
      "metar_trigger": false,
      "taf_trigger": false,
      "metar": "METAR GMMN 282230Z 03007KT 9999 BKN013 14/11 Q1020 NOSIG",
      "taf": "TAF GMMN 281700Z 2818/0124 02012KT 9999 BKN015"
    },
    {
      "icao": "GMMX",
      "alert": "OK",
      "vis_m": 7000,
      "fzfg": false,
      "metar_trigger": false,
      "taf_trigger": false,
      "metar": "METAR GMMX 282230Z 02006KT 340V050 7000 SCT020 BKN200 14/11 Q1018 NOSIG",
      "taf": "TAF GMMX 281700Z 2818/0124 04006KT 8000 BKN020"
    },
    {
      "icao": "HEGN",
      "alert": "OK",
      "vis_m": 9999,
      "fzfg": false,
      "metar_trigger": false,
      "taf_trigger": false,
      "metar": "METAR HEGN 282200Z 28011KT CAVOK 14/02 Q1016 NOSIG",
      "taf": "TAF HEGN 281700Z 2818/0124 34018KT CAVOK"
    },
    {
      "icao": "HEMA",
      "alert": "OK",
      "vis_m": 9999,
      "fzfg": false,
      "metar_trigger": false,
      "taf_trigger": false,
      "metar": "METAR HEMA 282200Z 30010KT CAVOK 16/04 Q1015 NOSIG",
      "taf": "TAF HEMA 281700Z 2818/0124 33015KT CAVOK"
    },
    {
      "icao": "HESH",
      "alert": "OK",
      "vis_m": 9999,
      "fzfg": false,
      "metar_trigger": false,
      "taf_trigger": false,
      "metar": "METAR HESH 282200Z 34017KT CAVOK 17/M01 Q1014 NOSIG",
      "taf": "TAF HESH 281700Z 2818/0124 35015KT CAVOK"
    },
    {
      "icao": "HESX",
      "alert": "OK",
      "vis_m": 9999,
      "fzfg": false,
      "metar_trigger": false,
      "taf_trigger": false,
      "metar": "METAR HESX 282200Z 01006KT CAVOK 08/04 Q1019 NOSIG",
      "taf": "TAF HESX 281700Z 2818/0124 02010KT 9999 SCT025"
    },
    {
      "icao": "LATI",
      "alert": "OK",
      "vis_m": 6000,
      "fzfg": false,
      "metar_trigger": false,
      "taf_trigger": false,
      "metar": "METAR LATI 282220Z 15003KT 6000 2500S BCFG NSC 07/05 Q1025 NOSIG",
      "taf": "TAF LATI 281700Z 2818/0118 VRB03KT CAVOK TX18/0112Z TN06/0105Z"
    },
    {
      "icao": "LBPD",
      "alert": "OK",
      "vis_m": 4800,
      "fzfg": false,
      "metar_trigger": false,
      "taf_trigger": false,
      "metar": "METAR LBPD 282230Z AUTO 28003KT 4800 BR NCD M03/M03 Q1029",
      "taf": "TAF LBPD 281700Z 2818/0118 VRB03KT CAVOK"
    },
    {
      "icao": "LBSF",
      "alert": "OK",
      "vis_m": 9999,
      "fzfg": false,
      "metar_trigger": false,
      "taf_trigger": false,
      "metar": "METAR LBSF 282230Z AUTO 14006KT 9999 NCD M02/M07 Q1027 NOSIG",
      "taf": "TAF LBSF 281700Z 2818/0118 10012KT CAVOK"
    },
    {
      "icao": "LBWN",
      "alert": "OK",
      "vis_m": 9999,
      "fzfg": false,
      "metar_trigger": false,
      "taf_trigger": false,
      "metar": "METAR LBWN 282230Z AUTO 00000KT 9999 OVC013/// 02/01 Q1030 NOSIG",
      "taf": "TAF LBWN 281700Z 2818/0118 VRB03KT 9999 BKN020"
    },
    {
      "icao": "LCLK",
      "alert": "OK",
      "vis_m": 9999,
      "fzfg": false,
      "metar_trigger": false,
      "taf_trigger": false,
      "metar": "METAR LCLK 282230Z 30008KT 9999 FEW040 07/04 Q1019 NOSIG",
      "taf": "TAF LCLK 281730Z 2818/0118 34008KT 9999 FEW030 SCT060"
    },
    {
      "icao": "LCPH",
      "alert": "OK",
      "vis_m": 9999,
      "fzfg": false,
      "metar_trigger": false,
      "taf_trigger": false,
      "metar": "METAR LCPH 282230Z 01008KT 9999 FEW025 08/00 Q1019 NOSIG",
      "taf": "TAF LCPH 281730Z 2818/0118 04008KT 9999 FEW030 SCT060"
    },
    {
      "icao": "LEAL",
      "alert": "OK",
      "vis_m": 9999,
      "fzfg": false,
      "metar_trigger": false,
      "taf_trigger": false,
      "metar": "METAR LEAL 282230Z 07008KT 9999 BKN048 15/11 Q1025 NOSIG",
      "taf": "TAF LEAL 281700Z 2818/0118 06012KT 9999 BKN030 TX17/0112Z TN07/0107Z"
    },
    {
      "icao": "LEBB",
      "alert": "OK",
      "vis_m": 9999,
      "fzfg": false,
      "metar_trigger": false,
      "taf_trigger": false,
      "metar": "METAR LEBB 282230Z 09003KT CAVOK 06/05 Q1028 NOSIG",
      "taf": "TAF LEBB 281700Z 2818/0118 13006KT 9999 SCT030 TX19/0115Z TN02/0106Z"
    },
    {
      "icao": "LEBL",
      "alert": "OK",
      "vis_m": 9999,
      "fzfg": false,
      "metar_trigger": false,
      "taf_trigger": false,
      "metar": "METAR LEBL 282230Z 00000KT 9999 FEW015 BKN027 BKN033 13/10 Q1026 NOSIG",
      "taf": "TAF LEBL 281700Z 2818/0118 09010KT 9999 FEW020 BKN050 TX16/0113Z TN10/0106Z"
    },
    {
      "icao": "LECH",
      "alert": "OK",
      "vis_m": 9999,
      "fzfg": false,
      "metar_trigger": false,
      "taf_trigger": false,
      "metar": "METAR LECH 282230Z AUTO 05006KT 020V080 9999 OVC038 11/07 Q1026",
      "taf": ""
    },
    {
      "icao": "LEMD",
      "alert": "OK",
      "vis_m": 9999,
      "fzfg": false,
      "metar_trigger": false,
      "taf_trigger": false,
      "metar": "METAR LEMD 282230Z VRB02KT 9999 SCT075 10/05 Q1024 NOSIG",
      "taf": "TAF LEMD 281700Z 2818/0124 VRB05KT 9999 FEW040 TX16/0115Z TN02/0107Z"
    },
    {
      "icao": "LEMG",
      "alert": "OK",
      "vis_m": 9999,
      "fzfg": false,
      "metar_trigger": false,
      "taf_trigger": false,
      "metar": "METAR LEMG 282230Z VRB02KT 9999 FEW020 OVC040 13/11 Q1024 NOSIG",
      "taf": "TAF LEMG 281700Z 2818/0118 13010KT 9999 SCT025 TX17/0114Z TN13/0106Z"
    },
    {
      "icao": "LEVC",
      "alert": "OK",
      "vis_m": 9999,
      "fzfg": false,
      "metar_trigger": false,
      "taf_trigger": false,
      "metar": "METAR LEVC 282230Z 02003KT 300V070 9999 FEW020 BKN048 13/09 Q1026 NOSIG",
      "taf": "TAF LEVC 281700Z 2818/0118 07007KT 9999 BKN020 TX17/0112Z TN06/0107Z"
    },
    {
      "icao": "LEXJ",
      "alert": "OK",
      "vis_m": 9999,
      "fzfg": false,
      "metar_trigger": false,
      "taf_trigger": false,
      "metar": "METAR LEXJ 282230Z 16001KT CAVOK 06/04 Q1028",
      "taf": "TAF LEXJ 282000Z 2821/0121 20006KT CAVOK TX19/0115Z TN05/0105Z"
    },
    {
      "icao": "LEZG",
      "alert": "OK",
      "vis_m": 9999,
      "fzfg": false,
      "metar_trigger": false,
      "taf_trigger": false,
      "metar": "METAR LEZG 282230Z 27008KT CAVOK 08/05 Q1026 NOSIG",
      "taf": "TAF LEZG 281700Z 2818/0118 32010KT CAVOK TX17/0115Z TN03/0106Z"
    },
    {
      "icao": "LEZL",
      "alert": "OK",
      "vis_m": 9999,
      "fzfg": false,
      "metar_trigger": false,
      "taf_trigger": false,
      "metar": "METAR LEZL 282230Z 23004KT CAVOK 14/12 Q1022 NOSIG",
      "taf": "TAF LEZL 282000Z 2821/0121 22005KT CAVOK TX22/0115Z TN09/0107Z"
    },
    {
      "icao": "LFBD",
      "alert": "OK",
      "vis_m": 9999,
      "fzfg": false,
      "metar_trigger": false,
      "taf_trigger": false,
      "metar": "METAR LFBD 282230Z AUTO 19002KT CAVOK 06/05 Q1027 TEMPO 1500 MIFG",
      "taf": "TAF LFBD 281700Z 2818/0124 26005KT CAVOK TX17/0114Z TN02/0106Z"
    },
    {
      "icao": "LFLL",
      "alert": "OK",
      "vis_m": 9999,
      "fzfg": false,
      "metar_trigger": false,
      "taf_trigger": false,
      "metar": "METAR LFLL 282230Z VRB02KT CAVOK 08/07 Q1026 NOSIG",
      "taf": ""
    },
    {
      "icao": "LFLS",
      "alert": "OK",
      "vis_m": 9999,
      "fzfg": false,
      "metar_trigger": false,
      "taf_trigger": false,
      "metar": "METAR LFLS 282230Z AUTO 22003KT 9999 OVC062 07/06 Q1026",
      "taf": "TAF LFLS 281400Z 2815/0115 VRB03KT 9999 BKN030"
    },
    {
      "icao": "LFMN",
      "alert": "OK",
      "vis_m": 9999,
      "fzfg": false,
      "metar_trigger": false,
      "taf_trigger": false,
      "metar": "METAR LFMN 282230Z 15003KT 9999 SCT020 BKN210 13/10 Q1024 NOSIG",
      "taf": "TAF LFMN 282000Z 2821/0203 09003KT 9999 SCT018 BKN050"
    },
    {
      "icao": "LFOB",
      "alert": "OK",
      "vis_m": 9999,
      "fzfg": false,
      "metar_trigger": false,
      "taf_trigger": false,
      "metar": "METAR LFOB 282230Z AUTO VRB03KT CAVOK 02/02 Q1024 TEMPO 0700 BCFG",
      "taf": "TAF LFOB 281700Z 2818/0118 24008KT CAVOK"
    },
    {
      "icao": "LFPO",
      "alert": "OK",
      "vis_m": 9999,
      "fzfg": false,
      "metar_trigger": false,
      "taf_trigger": false,
      "metar": "METAR LFPO 282230Z AUTO VRB02KT CAVOK 07/03 Q1024 NOSIG",
      "taf": "TAF LFPO 281700Z 2818/0124 27008KT 9999 FEW040"
    },
    {
      "icao": "LFSB",
      "alert": "OK",
      "vis_m": 9999,
      "fzfg": false,
      "metar_trigger": false,
      "taf_trigger": false,
      "metar": "METAR LFSB 282230Z AUTO 15003KT CAVOK 08/06 Q1026 NOSIG",
      "taf": ""
    },
    {
      "icao": "LGAV",
      "alert": "OK",
      "vis_m": 9999,
      "fzfg": false,
      "metar_trigger": false,
      "taf_trigger": false,
      "metar": "METAR LGAV 282220Z 35013KT 9999 SCT040 09/02 Q1025 NOSIG",
      "taf": "TAF LGAV 281700Z 2818/0118 36015KT 9999 SCT020"
    },
    {
      "icao": "LGTS",
      "alert": "OK",
      "vis_m": 9999,
      "fzfg": false,
      "metar_trigger": false,
      "taf_trigger": false,
      "metar": "METAR LGTS 282220Z 09004KT 9999 FEW020 05/05 Q1028 NOSIG",
      "taf": "TAF LGTS 281700Z 2818/0118 12006KT 9999 FEW030"
    },
    {
      "icao": "LHBP",
      "alert": "OK",
      "vis_m": 9999,
      "fzfg": false,
      "metar_trigger": false,
      "taf_trigger": false,
      "metar": "METAR LHBP 282230Z 09003KT CAVOK 02/M02 Q1025 NOSIG",
      "taf": "TAF LHBP 281715Z 2818/0118 10006KT CAVOK"
    },
    {
      "icao": "LHDC",
      "alert": "OK",
      "vis_m": 7000,
      "fzfg": false,
      "metar_trigger": false,
      "taf_trigger": false,
      "metar": "METAR LHDC 282215Z AUTO 35002KT 7000 NCD 02/M00 Q1026",
      "taf": "TAF LHDC 281415Z 2815/2824 VRB03KT CAVOK"
    },
    {
      "icao": "LIBD",
      "alert": "OK",
      "vis_m": 5000,
      "fzfg": false,
      "metar_trigger": false,
      "taf_trigger": false,
      "metar": "METAR LIBD 282220Z AUTO 22004KT 5000 2200SW // FEW039/// 08/08 Q1024",
      "taf": "TAF LIBD 281700Z 2818/0118 VRB05KT 7000 SCT025"
    },
    {
      "icao": "LIBG",
      "alert": "OK",
      "vis_m": null,
      "fzfg": false,
      "metar_trigger": false,
      "taf_trigger": false,
      "metar": "",
      "taf": "TAF LIBG 281700Z 2818/0103 VRB05KT 9999 SCT020"
    },
    {
      "icao": "LIBP",
      "alert": "OK",
      "vis_m": 9999,
      "fzfg": false,
      "metar_trigger": false,
      "taf_trigger": false,
      "metar": "METAR LIBP 282220Z 00000KT 9999 OVC030 12/11 Q1024",
      "taf": "TAF LIBP 281700Z 2818/0118 VRB05KT 4000 BR BKN012"
    },
    {
      "icao": "LIBR",
      "alert": "OK",
      "vis_m": 9999,
      "fzfg": false,
      "metar_trigger": false,
      "taf_trigger": false,
      "metar": "METAR LIBR 282220Z 29003KT 9999 BKN030 12/10 Q1024",
      "taf": "TAF LIBR 281700Z 2818/0118 VRB05KT 9999 BKN015"
    },
    {
      "icao": "LICA",
      "alert": "OK",
      "vis_m": 9999,
      "fzfg": false,
      "metar_trigger": false,
      "taf_trigger": false,
      "metar": "METAR LICA 282220Z 07004KT CAVOK 09/08 Q1024",
      "taf": "TAF LICA 281700Z 2818/0118 VRB04KT 8000 FEW015"
    },
    {
      "icao": "LICC",
      "alert": "OK",
      "vis_m": 6000,
      "fzfg": false,
      "metar_trigger": false,
      "taf_trigger": false,
      "metar": "METAR LICC 282220Z VRB02KT 6000 NSC 12/10 Q1024",
      "taf": "TAF LICC 281700Z 2818/0118 VRB05KT 8000 FEW025"
    },
    {
      "icao": "LICJ",
      "alert": "OK",
      "vis_m": 9999,
      "fzfg": false,
      "metar_trigger": false,
      "taf_trigger": false,
      "metar": "METAR LICJ 282220Z 11003KT CAVOK 11/09 Q1023",
      "taf": "TAF LICJ 281700Z 2818/0118 08010KT 9999 FEW015"
    },
    {
      "icao": "LIMC",
      "alert": "OK",
      "vis_m": 9000,
      "fzfg": false,
      "metar_trigger": false,
      "taf_trigger": false,
      "metar": "METAR LIMC 282220Z 02001KT 9000 SCT050 09/07 Q1024 NOSIG",
      "taf": "TAF LIMC 281700Z 2818/0124 VRB04KT 9999 SCT030"
    },
    {
      "icao": "LIME",
      "alert": "OK",
      "vis_m": 9999,
      "fzfg": false,
      "metar_trigger": false,
      "taf_trigger": false,
      "metar": "METAR LIME 282220Z VRB01KT 9999 BKN035 11/07 Q1024 NOSIG",
      "taf": "TAF LIME 281700Z 2818/0118 VRB05KT 6000 BKN030"
    },
    {
      "icao": "LIMF",
      "alert": "OK",
      "vis_m": 7000,
      "fzfg": false,
      "metar_trigger": false,
      "taf_trigger": false,
      "metar": "METAR LIMF 282220Z 31004KT 7000 FEW060 09/06 Q1023",
      "taf": "TAF LIMF 281700Z 2818/0118 VRB04KT 6000 BKN030"
    },
    {
      "icao": "LIMJ",
      "alert": "OK",
      "vis_m": 9999,
      "fzfg": false,
      "metar_trigger": false,
      "taf_trigger": false,
      "metar": "METAR LIMJ 282220Z VRB02KT 9999 BKN060 13/09 Q1024",
      "taf": "TAF LIMJ 281700Z 2818/0118 VRB05KT 9999 SCT020 BKN030"
    },
    {
      "icao": "LIPE",
      "alert": "OK",
      "vis_m": 2500,
      "fzfg": false,
      "metar_trigger": false,
      "taf_trigger": false,
      "metar": "METAR LIPE 282220Z 11004KT 2500 MIFG NSC 09/09 Q1024",
      "taf": "TAF LIPE 281700Z 2818/0118 VRB04KT 9999 FEW050"
    },
    {
      "icao": "LIPH",
      "alert": "OK",
      "vis_m": 100,
      "fzfg": false,
      "metar_trigger": false,
      "taf_trigger": false,
      "metar": "METAR LIPH 282220Z AUTO 10003KT 0100 R07/0550N // VV002 08/08 Q1025",
      "taf": "TAF LIPH 281700Z 2818/0118 VRB04KT 0200 FG BKN003"
    },
    {
      "icao": "LIPQ",
      "alert": "OK",
      "vis_m": 300,
      "fzfg": false,
      "metar_trigger": false,
      "taf_trigger": false,
      "metar": "METAR LIPQ 282220Z 16002KT 0300 R09/0900D FG OVC002 09/09 Q1025",
      "taf": "TAF LIPQ 281700Z 2818/0118 VRB04KT 0150 FG OVC001"
    },
    {
      "icao": "LIPR",
      "alert": "OK",
      "vis_m": 1500,
      "fzfg": false,
      "metar_trigger": false,
      "taf_trigger": false,
      "metar": "METAR LIPR 282220Z AUTO 21002KT 1500 // VV011 06/06 Q1024",
      "taf": "TAF LIPR 281700Z 2818/0118 VRB04KT 8000 FEW050"
    },
    {
      "icao": "LIPX",
      "alert": "OK",
      "vis_m": 2500,
      "fzfg": false,
      "metar_trigger": false,
      "taf_trigger": false,
      "metar": "METAR LIPX 282220Z 09002KT 2500 BR SCT006 BKN015 10/10 Q1024",
      "taf": "TAF LIPX 281700Z 2818/0118 VRB05KT 9000 SCT030"
    },
    {
      "icao": "LIPY",
      "alert": "OK",
      "vis_m": 2000,
      "fzfg": false,
      "metar_trigger": false,
      "taf_trigger": false,
      "metar": "METAR LIPY 282220Z 24003KT 2000 BCFG BKN003 09/09 Q1024",
      "taf": "TAF LIPY 281700Z 2818/0118 VRB04KT 3000 BR BKN015"
    },
    {
      "icao": "LIPZ",
      "alert": "OK",
      "vis_m": 300,
      "fzfg": false,
      "metar_trigger": false,
      "taf_trigger": false,
      "metar": "METAR LIPZ 282220Z 03005KT 0300 R04R/0700D FG VV002 09/09 Q1025 NOSIG",
      "taf": "TAF LIPZ 281700Z 2818/0124 VRB04KT 0250 FG OVC001"
    },
    {
      "icao": "LIRF",
      "alert": "OK",
      "vis_m": 9999,
      "fzfg": false,
      "metar_trigger": false,
      "taf_trigger": false,
      "metar": "METAR LIRF 282220Z 07004KT CAVOK 08/07 Q1024 NOSIG",
      "taf": "TAF LIRF 281700Z 2818/0124 VRB06KT 9999 FEW035"
    },
    {
      "icao": "LIRN",
      "alert": "OK",
      "vis_m": 9999,
      "fzfg": false,
      "metar_trigger": false,
      "taf_trigger": false,
      "metar": "METAR LIRN 282220Z VRB01KT 9999 BKN070 11/07 Q1024 NOSIG",
      "taf": "TAF LIRN 281700Z 2818/0118 VRB05KT 8000 FEW020"
    },
    {
      "icao": "LIRP",
      "alert": "OK",
      "vis_m": 9999,
      "fzfg": false,
      "metar_trigger": false,
      "taf_trigger": false,
      "metar": "METAR LIRP 282215Z VRB01KT 9999 BKN040 08/08 Q1025 NOSIG",
      "taf": "TAF LIRP 281700Z 2818/0118 10004KT CAVOK"
    },
    {
      "icao": "LIRZ",
      "alert": "OK",
      "vis_m": 9999,
      "fzfg": false,
      "metar_trigger": false,
      "taf_trigger": false,
      "metar": "METAR LIRZ 282220Z AUTO VRB01KT 9999 // OVC042/// 08/06 Q1024",
      "taf": "TAF LIRZ 281700Z 2818/0118 VRB05KT 9999 FEW035"
    },
    {
      "icao": "LJLJ",
      "alert": "OK",
      "vis_m": 9999,
      "fzfg": false,
      "metar_trigger": false,
      "taf_trigger": false,
      "metar": "METAR LJLJ 282230Z 29002KT CAVOK 03/02 Q1024 NOSIG",
      "taf": "TAF LJLJ 281700Z 2818/0118 VRB02KT 9999 FEW060"
    },
    {
      "icao": "LKMT",
      "alert": "OK",
      "vis_m": 9999,
      "fzfg": false,
      "metar_trigger": false,
      "taf_trigger": false,
      "metar": "METAR LKMT 282230Z 25006KT CAVOK 05/01 Q1023 NOSIG",
      "taf": "TAF LKMT 281700Z 2818/0118 23010KT CAVOK"
    },
    {
      "icao": "LKPR",
      "alert": "OK",
      "vis_m": 4500,
      "fzfg": false,
      "metar_trigger": false,
      "taf_trigger": false,
      "metar": "METAR LKPR 282230Z VRB02KT 4500 BR NSC 03/02 Q1022 NOSIG",
      "taf": "TAF LKPR 282000Z 2821/0203 25003KT 0350 FG VV001"
    },
    {
      "icao": "LLBG",
      "alert": "OK",
      "vis_m": 9999,
      "fzfg": false,
      "metar_trigger": false,
      "taf_trigger": false,
      "metar": "METAR LLBG 282220Z VRB01KT CAVOK 10/05 Q1018 NOSIG",
      "taf": "TAF LLBG 281701Z 2818/0118 VRB04KT CAVOK TX17/0112Z TN06/0103Z"
    },
    {
      "icao": "LMML",
      "alert": "OK",
      "vis_m": 9999,
      "fzfg": false,
      "metar_trigger": false,
      "taf_trigger": false,
      "metar": "METAR LMML 282215Z VRB02KT 9999 FEW015 12/11 Q1024 NOSIG",
      "taf": "TAF LMML 281700Z 2818/0118 VRB05KT 9999 SCT015"
    },
    {
      "icao": "LOWW",
      "alert": "OK",
      "vis_m": 9999,
      "fzfg": false,
      "metar_trigger": false,
      "taf_trigger": false,
      "metar": "METAR LOWW 282220Z 19004KT CAVOK 04/01 Q1023 NOSIG",
      "taf": "TAF LOWW 282015Z 2821/0203 13008KT CAVOK TX12/0114Z TN02/0105Z"
    },
    {
      "icao": "LPFR",
      "alert": "OK",
      "vis_m": 9999,
      "fzfg": false,
      "metar_trigger": false,
      "taf_trigger": false,
      "metar": "METAR LPFR 282230Z VRB01KT CAVOK 13/06 Q1021",
      "taf": "TAF LPFR 281700Z 2818/0118 20008KT CAVOK"
    },
    {
      "icao": "LPMA",
      "alert": "OK",
      "vis_m": 9999,
      "fzfg": false,
      "metar_trigger": false,
      "taf_trigger": false,
      "metar": "METAR LPMA 282230Z 02015KT 340V050 9999 SCT015 15/09 Q1026",
      "taf": "TAF LPMA 281700Z 2818/0118 01015KT 9999 SCT015"
    },
    {
      "icao": "LPPR",
      "alert": "OK",
      "vis_m": 9999,
      "fzfg": false,
      "metar_trigger": false,
      "taf_trigger": false,
      "metar": "METAR LPPR 282230Z 36003KT 340V040 CAVOK 07/06 Q1025",
      "taf": "TAF LPPR 281700Z 2818/0118 33013KT CAVOK"
    },
    {
      "icao": "LPPS",
      "alert": "OK",
      "vis_m": 9999,
      "fzfg": false,
      "metar_trigger": false,
      "taf_trigger": false,
      "metar": "METAR LPPS 282230Z 01012KT 340V040 9999 SCT014 BKN030 14/10 Q1026",
      "taf": "TAF LPPS 281700Z 2818/0124 03015KT 9999 FEW015 BKN030"
    },
    {
      "icao": "LPPT",
      "alert": "OK",
      "vis_m": 9999,
      "fzfg": false,
      "metar_trigger": false,
      "taf_trigger": false,
      "metar": "METAR LPPT 282230Z 33010KT CAVOK 10/07 Q1024",
      "taf": "TAF LPPT 281700Z 2818/0124 35012KT CAVOK"
    },
    {
      "icao": "LQBK",
      "alert": "OK",
      "vis_m": 9999,
      "fzfg": false,
      "metar_trigger": false,
      "taf_trigger": false,
      "metar": "METAR LQBK 282230Z 00000KT CAVOK 03/02 Q1023 NOSIG",
      "taf": ""
    },
    {
      "icao": "LQSA",
      "alert": "OK",
      "vis_m": 9999,
      "fzfg": false,
      "metar_trigger": false,
      "taf_trigger": false,
      "metar": "METAR LQSA 282230Z VRB01KT CAVOK 03/02 Q1024",
      "taf": ""
    },
    {
      "icao": "LQTZ",
      "alert": "OK",
      "vis_m": 9999,
      "fzfg": false,
      "metar_trigger": false,
      "taf_trigger": false,
      "metar": "METAR LQTZ 282230Z 10003KT CAVOK 02/01 Q1024",
      "taf": ""
    },
    {
      "icao": "LRBC",
      "alert": "OK",
      "vis_m": 250,
      "fzfg": true,
      "metar_trigger": false,
      "taf_trigger": false,
      "metar": "METAR LRBC 282230Z 15011KT 0250 R16/0800N FZFG VV002 M01/M01 Q1028",
      "taf": "TAF LRBC 282000Z 2821/0106 16010KT 0300 FZFG VV001"
    },
    {
      "icao": "LRBS",
      "alert": "OK",
      "vis_m": 600,
      "fzfg": true,
      "metar_trigger": false,
      "taf_trigger": false,
      "metar": "METAR LRBS 282230Z 29004KT 260V330 0600 R07/1800D FZFG OVC001 M02/M03 Q1031 NOSIG",
      "taf": "TAF LRBS 281700Z 2818/0118 VRB04KT 3000 BR OVC005"
    },
    {
      "icao": "LRBV",
      "alert": "OK",
      "vis_m": 9000,
      "fzfg": false,
      "metar_trigger": false,
      "taf_trigger": false,
      "metar": "METAR LRBV 282230Z AUTO VRB02KT 9000 NCD M02/M03 Q1026",
      "taf": "TAF LRBV 282000Z 2821/0106 VRB04KT CAVOK"
    },
    {
      "icao": "LRCL",
      "alert": "OK",
      "vis_m": 9999,
      "fzfg": false,
      "metar_trigger": false,
      "taf_trigger": false,
      "metar": "METAR LRCL 282230Z 00000KT CAVOK M02/M04 Q1026",
      "taf": "TAF LRCL 282000Z 2821/0106 VRB04KT CAVOK"
    },
    {
      "icao": "LRCV",
      "alert": "OK",
      "vis_m": 1700,
      "fzfg": true,
      "metar_trigger": false,
      "taf_trigger": false,
      "metar": "METAR LRCV 282230Z 35003KT 300V040 1700 BR OVC002 M01/M01 Q1030",
      "taf": "TAF LRCV 282000Z 2821/0106 VRB04KT 0200 FZFG VV001"
    },
    {
      "icao": "LRIA",
      "alert": "OK",
      "vis_m": 2000,
      "fzfg": false,
      "metar_trigger": false,
      "taf_trigger": false,
      "metar": "METAR LRIA 282230Z 10006KT 2000 BR BKN001 M02/M03 Q1028",
      "taf": "TAF LRIA 282000Z 2821/0106 12005KT 5000 BR NSC"
    },
    {
      "icao": "LROP",
      "alert": "OK",
      "vis_m": 300,
      "fzfg": true,
      "metar_trigger": false,
      "taf_trigger": false,
      "metar": "METAR LROP 282230Z 26003KT 220V310 0300 R08R/0700U R08L/0600U FZFG VV001 M02/M02 Q1030 NOSIG",
      "taf": ""
    },
    {
      "icao": "LRSB",
      "alert": "OK",
      "vis_m": 9999,
      "fzfg": false,
      "metar_trigger": false,
      "taf_trigger": false,
      "metar": "METAR LRSB 282230Z 27002KT CAVOK M01/M03 Q1025",
      "taf": "TAF LRSB 281700Z 2818/0118 VRB04KT CAVOK"
    },
    {
      "icao": "LRSM",
      "alert": "OK",
      "vis_m": 9999,
      "fzfg": false,
      "metar_trigger": false,
      "taf_trigger": false,
      "metar": "METAR LRSM 282230Z AUTO 08004KT 9999 NCD M00/M02 Q1026",
      "taf": ""
    },
    {
      "icao": "LRSV",
      "alert": "OK",
      "vis_m": 400,
      "fzfg": true,
      "metar_trigger": false,
      "taf_trigger": false,
      "metar": "METAR LRSV 282230Z COR 12003KT 0400 R34/0500N FZFG VV001 M03/M04 Q1025",
      "taf": "TAF LRSV 282000Z 2821/0106 18005KT 0300 FZFG VV001"
    },
    {
      "icao": "LRTM",
      "alert": "OK",
      "vis_m": 9999,
      "fzfg": false,
      "metar_trigger": false,
      "taf_trigger": false,
      "metar": "METAR LRTM 282230Z AUTO 09005KT 9999 NCD M01/M03 Q1026",
      "taf": "TAF LRTM 281400Z 2815/2824 VRB04KT CAVOK"
    },
    {
      "icao": "LRTR",
      "alert": "OK",
      "vis_m": 9999,
      "fzfg": false,
      "metar_trigger": false,
      "taf_trigger": false,
      "metar": "METAR LRTR 282230Z 09007KT CAVOK 02/00 Q1026",
      "taf": "TAF LRTR 281700Z 2818/0118 VRB04KT CAVOK"
    },
    {
      "icao": "LTAC",
      "alert": "OK",
      "vis_m": 9999,
      "fzfg": false,
      "metar_trigger": false,
      "taf_trigger": false,
      "metar": "METAR LTAC 282220Z 07005KT 9999 FEW035 00/M04 Q1022 NOSIG RMK RWY21C 08003KT RWY03L 07004KT RWY21R 07002KT RWY03R 04006KT RWY21L 06002KT",
      "taf": "TAF LTAC 281640Z 2818/0118 01008KT 9999 SCT040"
    },
    {
      "icao": "LTFM",
      "alert": "OK",
      "vis_m": 9999,
      "fzfg": false,
      "metar_trigger": false,
      "taf_trigger": false,
      "metar": "METAR LTFM 282220Z 03005KT 9999 FEW016 BKN025 04/01 Q1028 NOSIG RMK RWY17L 03008KT RWY34L 03007KT RWY16R 03009KT RWY36 04006KT RWY18 04007KT",
      "taf": "TAF LTFM 281640Z 2818/0124 02012KT 9999 SCT016 BKN025"
    },
    {
      "icao": "LUKK",
      "alert": "OK",
      "vis_m": 9999,
      "fzfg": false,
      "metar_trigger": false,
      "taf_trigger": false,
      "metar": "METAR LUKK 282230Z 21003KT CAVOK M01/M02 Q1029 BECMG 5000 BR",
      "taf": "TAF LUKK 281718Z 2818/0118 VRB04KT CAVOK"
    },
    {
      "icao": "LWOH",
      "alert": "OK",
      "vis_m": null,
      "fzfg": false,
      "metar_trigger": false,
      "taf_trigger": false,
      "metar": "",
      "taf": "TAF LWOH 282030Z 2821/0121 VRB02KT CAVOK"
    },
    {
      "icao": "LWSK",
      "alert": "OK",
      "vis_m": 9999,
      "fzfg": false,
      "metar_trigger": false,
      "taf_trigger": false,
      "metar": "METAR LWSK 282220Z VRB02KT CAVOK 02/M00 Q1027 NOSIG",
      "taf": "TAF LWSK 282030Z 2821/0121 VRB02KT CAVOK"
    },
    {
      "icao": "LYBE",
      "alert": "OK",
      "vis_m": 9999,
      "fzfg": false,
      "metar_trigger": false,
      "taf_trigger": false,
      "metar": "METAR LYBE 282230Z 10005KT CAVOK 04/M02 Q1025 NOSIG",
      "taf": "TAF LYBE 281700Z 2818/0118 08007KT CAVOK TX16/0113Z TN01/0106Z"
    },
    {
      "icao": "LYNI",
      "alert": "OK",
      "vis_m": 9999,
      "fzfg": false,
      "metar_trigger": false,
      "taf_trigger": false,
      "metar": "METAR LYNI 282230Z 30003KT 280V350 CAVOK M02/M02 Q1027 NOSIG",
      "taf": "TAF LYNI 281700Z 2818/0118 07007KT CAVOK TX17/0113Z TNM03/0105Z"
    },
    {
      "icao": "LYPG",
      "alert": "OK",
      "vis_m": 9999,
      "fzfg": false,
      "metar_trigger": false,
      "taf_trigger": false,
      "metar": "METAR LYPG 282230Z 36003KT CAVOK 07/05 Q1025 NOSIG",
      "taf": "TAF LYPG 281700Z 2818/0118 VRB02KT 7000 NSC TX18/0113Z TN02/0105Z"
    },
    {
      "icao": "LZIB",
      "alert": "OK",
      "vis_m": 9999,
      "fzfg": false,
      "metar_trigger": false,
      "taf_trigger": false,
      "metar": "METAR LZIB 282230Z 02005KT CAVOK 05/00 Q1024 NOSIG",
      "taf": "TAF LZIB 281715Z 2818/0118 11008KT CAVOK"
    },
    {
      "icao": "LZKZ",
      "alert": "OK",
      "vis_m": 9999,
      "fzfg": false,
      "metar_trigger": false,
      "taf_trigger": false,
      "metar": "METAR LZKZ 282230Z 00000KT CAVOK 01/M01 Q1025 NOSIG",
      "taf": "TAF LZKZ 281715Z 2818/0118 VRB02KT CAVOK"
    },
    {
      "icao": "LZTT",
      "alert": "OK",
      "vis_m": 9999,
      "fzfg": false,
      "metar_trigger": false,
      "taf_trigger": false,
      "metar": "METAR LZTT 282230Z 33003KT CAVOK M03/M03 Q1023",
      "taf": "TAF LZTT 281715Z 2818/0118 VRB02KT CAVOK"
    },
    {
      "icao": "OEJN",
      "alert": "OK",
      "vis_m": 9999,
      "fzfg": false,
      "metar_trigger": false,
      "taf_trigger": false,
      "metar": "METAR OEJN 282200Z 01005KT CAVOK 21/12 Q1011 NOSIG",
      "taf": "TAF OEJN 281700Z 2818/0124 36006KT CAVOK"
    },
    {
      "icao": "OEMA",
      "alert": "OK",
      "vis_m": 9999,
      "fzfg": false,
      "metar_trigger": false,
      "taf_trigger": false,
      "metar": "METAR OEMA 282200Z 25008KT CAVOK 21/01 Q1013 NOSIG",
      "taf": "TAF OEMA 281700Z 2818/0124 27010KT CAVOK"
    },
    {
      "icao": "OJAI",
      "alert": "OK",
      "vis_m": 5000,
      "fzfg": false,
      "metar_trigger": false,
      "taf_trigger": false,
      "metar": "METAR OJAI 282200Z 30005KT 5000 HZ NSC 03/M02 Q1019 NOSIG",
      "taf": "TAF OJAI 281700Z 2818/0124 31006KT 5000 HZ FEW030"
    },
    {
      "icao": "OMAA",
      "alert": "OK",
      "vis_m": 9999,
      "fzfg": false,
      "metar_trigger": false,
      "taf_trigger": false,
      "metar": "METAR OMAA 282230Z 09007KT CAVOK 20/10 Q1009 NOSIG",
      "taf": "TAF OMAA 281700Z 2818/0200 08005KT 8000 NSC"
    },
    {
      "icao": "OMDB",
      "alert": "OK",
      "vis_m": 7000,
      "fzfg": false,
      "metar_trigger": false,
      "taf_trigger": false,
      "metar": "METAR OMDB 282230Z 09003KT 7000 NSC 21/17 Q1009 NOSIG",
      "taf": "TAF OMDB 281700Z 2818/0200 35010KT 8000 NSC"
    },
    {
      "icao": "UAAA",
      "alert": "OK",
      "vis_m": 9999,
      "fzfg": false,
      "metar_trigger": false,
      "taf_trigger": false,
      "metar": "METAR UAAA 282230Z 01001MPS 9999 OVC023 M10/M13 Q1025 NOSIG",
      "taf": "TAF UAAA 281704Z 2818/0118 34003MPS 3100 BR FU BKN011 OVC050 TXM06/0108Z TNM15/0102Z"
    },
    {
      "icao": "UBBB",
      "alert": "OK",
      "vis_m": 9999,
      "fzfg": false,
      "metar_trigger": false,
      "taf_trigger": false,
      "metar": "METAR UBBB 282230Z 32014KT 9999 BKN048 03/00 Q1021 NOSIG",
      "taf": "TAF UBBB 281700Z 2818/0118 33018KT 9999 SCT015 BKN030 TX07/0110Z TN02/0101Z"
    },
    {
      "icao": "UDSG",
      "alert": "OK",
      "vis_m": 9000,
      "fzfg": false,
      "metar_trigger": false,
      "taf_trigger": false,
      "metar": "METAR UDSG 282230Z 08003KT 9000 OVC033 M05/M05 Q1016 NOSIG",
      "taf": "TAF UDSG 281658Z 2818/0118 VRB06KT 5000 BR BKN030"
    },
    {
      "icao": "UDYZ",
      "alert": "OK",
      "vis_m": 9999,
      "fzfg": false,
      "metar_trigger": false,
      "taf_trigger": false,
      "metar": "METAR UDYZ 282230Z 02004KT 9999 SCT011 BKN036 02/M00 Q1018 NOSIG",
      "taf": "TAF UDYZ 281700Z 2818/0118 VRB06KT 6000 SCT030"
    },
    {
      "icao": "UGKO",
      "alert": "OK",
      "vis_m": 9999,
      "fzfg": false,
      "metar_trigger": false,
      "taf_trigger": false,
      "metar": "METAR UGKO 282230Z 26007KT 9999 SCT022 OVC055 05/03 Q1021 NOSIG",
      "taf": "TAF UGKO 281700Z 2818/0118 26010KT 9999 SCT020 OVC030 TX07/0112Z TN04/0102Z"
    }
  ]
}