{
  "ts_utc": "2026-05-13T12:33:48Z",
  "threshold_m": 150,
  "source": "stations_override.txt (ICAO list) + aviationweather.gov (METAR/TAF raw)",
  "station_count": 159,
  "stations": [
    {
      "icao": "BIKF",
      "alert": "OK",
      "vis_m": 9999,
      "fzfg": false,
      "metar_trigger": false,
      "taf_trigger": false,
      "metar": "METAR BIKF 131200Z 25005KT 210V280 9999 -DZ BKN021 05/M00 Q1016",
      "taf": "TAF BIKF 131031Z 1312/1412 34005KT 9999 BKN028 TX07/1316Z TN02/1402Z"
    },
    {
      "icao": "BKPR",
      "alert": "OK",
      "vis_m": 9999,
      "fzfg": false,
      "metar_trigger": false,
      "taf_trigger": false,
      "metar": "METAR BKPR 131230Z 03003KT 330V110 9999 BKN035 11/03 Q1009 NOSIG",
      "taf": "TAF BKPR 131130Z 1312/1412 03007KT 9999 BKN040"
    },
    {
      "icao": "EBCI",
      "alert": "OK",
      "vis_m": 9999,
      "fzfg": false,
      "metar_trigger": false,
      "taf_trigger": false,
      "metar": "METAR EBCI 131220Z 23012KT 9999 FEW016TCU 11/08 Q1002 NOSIG",
      "taf": "TAF EBCI 131120Z 1312/1418 26009KT 9999 SCT025CB SCT045"
    },
    {
      "icao": "EDDB",
      "alert": "OK",
      "vis_m": 9999,
      "fzfg": false,
      "metar_trigger": false,
      "taf_trigger": false,
      "metar": "METAR EDDB 131220Z AUTO 26012KT 220V280 9999 -SHRA SCT030 SCT038 FEW///TCU 13/06 Q1000 TEMPO 27015G25KT SHRA",
      "taf": "TAF EDDB 131100Z 1312/1412 26009KT 9999 SCT014 BKN020"
    },
    {
      "icao": "EDDH",
      "alert": "OK",
      "vis_m": 9999,
      "fzfg": false,
      "metar_trigger": false,
      "taf_trigger": false,
      "metar": "METAR EDDH 131220Z AUTO 28010KT 250V320 9999 SCT040 13/04 Q0999 TEMPO 29015G25KT SHRA",
      "taf": "TAF EDDH 131100Z 1312/1418 28009KT 9999 BKN030"
    },
    {
      "icao": "EDDK",
      "alert": "OK",
      "vis_m": 9999,
      "fzfg": false,
      "metar_trigger": false,
      "taf_trigger": false,
      "metar": "METAR EDDK 131220Z AUTO 19010KT 9999 -SHRA SCT046 FEW///CB 13/04 Q1002 TEMPO 24015G25KT SHRA BKN030CB",
      "taf": "TAF EDDK 131100Z 1312/1418 24011KT 9999 SCT040"
    },
    {
      "icao": "EDDN",
      "alert": "OK",
      "vis_m": 9999,
      "fzfg": false,
      "metar_trigger": false,
      "taf_trigger": false,
      "metar": "METAR EDDN 131220Z AUTO 25012KT 9999 SCT047 13/03 Q1005 NOSIG",
      "taf": "TAF EDDN 131100Z 1312/1412 26012KT CAVOK"
    },
    {
      "icao": "EDDS",
      "alert": "OK",
      "vis_m": 9999,
      "fzfg": false,
      "metar_trigger": false,
      "taf_trigger": false,
      "metar": "METAR EDDS 131220Z AUTO 24013KT 170V280 CAVOK 13/02 Q1006 NOSIG",
      "taf": "TAF EDDS 131100Z 1312/1412 23012KT 9999 SCT045"
    },
    {
      "icao": "EDFH",
      "alert": "OK",
      "vis_m": 9999,
      "fzfg": false,
      "metar_trigger": false,
      "taf_trigger": false,
      "metar": "METAR EDFH 131220Z 23012KT 200V270 9999 SCT028 10/05 Q1003",
      "taf": "TAF EDFH 131100Z 1312/1412 25012KT 9999 BKN025"
    },
    {
      "icao": "EDJA",
      "alert": "OK",
      "vis_m": 9999,
      "fzfg": false,
      "metar_trigger": false,
      "taf_trigger": false,
      "metar": "METAR EDJA 131220Z 24015G28KT 210V270 9999 BKN058 12/01 Q1007",
      "taf": "TAF EDJA 131100Z 1312/1321 24015G25KT 9999 SCT045"
    },
    {
      "icao": "EDLW",
      "alert": "OK",
      "vis_m": 9999,
      "fzfg": false,
      "metar_trigger": false,
      "taf_trigger": false,
      "metar": "METAR EDLW 131220Z VRB03KT 9999 FEW016CB BKN041 BKN047 10/07 Q1001",
      "taf": "TAF EDLW 131100Z 1312/1412 23010KT 9999 SCT040"
    },
    {
      "icao": "EDNY",
      "alert": "OK",
      "vis_m": 9999,
      "fzfg": false,
      "metar_trigger": false,
      "taf_trigger": false,
      "metar": "METAR EDNY 131220Z 25011KT 220V280 CAVOK 14/03 Q1008",
      "taf": "TAF EDNY 131100Z 1312/1321 25012KT CAVOK"
    },
    {
      "icao": "EDSB",
      "alert": "OK",
      "vis_m": 9999,
      "fzfg": false,
      "metar_trigger": false,
      "taf_trigger": false,
      "metar": "METAR EDSB 131220Z 20017KT CAVOK 14/04 Q1006",
      "taf": "TAF EDSB 131100Z 1312/1412 20012KT 9999 SCT045"
    },
    {
      "icao": "EETN",
      "alert": "OK",
      "vis_m": 9999,
      "fzfg": false,
      "metar_trigger": false,
      "taf_trigger": false,
      "metar": "METAR EETN 131220Z 08005KT CAVOK 16/11 Q0994 TEMPO FEW030CB",
      "taf": ""
    },
    {
      "icao": "EFTU",
      "alert": "OK",
      "vis_m": 9999,
      "fzfg": false,
      "metar_trigger": false,
      "taf_trigger": false,
      "metar": "METAR EFTU 131220Z AUTO 10005KT 080V140 9999 OVC008 13/12 Q0995",
      "taf": "TAF EFTU 131128Z 1312/1412 09005KT 9999 -RA OVC006"
    },
    {
      "icao": "EGBB",
      "alert": "OK",
      "vis_m": 9999,
      "fzfg": false,
      "metar_trigger": false,
      "taf_trigger": false,
      "metar": "METAR EGBB 131220Z 30017G37KT 280V340 9999 VCSH FEW016 BKN030CB 08/04 Q1001 RESHRA",
      "taf": "TAF EGBB 131058Z 1312/1412 31014KT 9999 FEW045"
    },
    {
      "icao": "EGGP",
      "alert": "OK",
      "vis_m": 9999,
      "fzfg": false,
      "metar_trigger": false,
      "taf_trigger": false,
      "metar": "METAR EGGP 131220Z 30018G29KT 9999 VCSH SCT025 BKN036TCU 10/04 Q1001",
      "taf": "TAF EGGP 131101Z 1312/1412 30020G32KT 9999 FEW020 SCT025"
    },
    {
      "icao": "EGGW",
      "alert": "OK",
      "vis_m": 9999,
      "fzfg": false,
      "metar_trigger": false,
      "taf_trigger": false,
      "metar": "METAR EGGW 131220Z AUTO 31016KT 9999 FEW029/// //////CB 11/03 Q1000",
      "taf": "TAF EGGW 131101Z 1312/1412 27015KT 9999 SCT030"
    },
    {
      "icao": "EGKK",
      "alert": "OK",
      "vis_m": 9999,
      "fzfg": false,
      "metar_trigger": false,
      "taf_trigger": false,
      "metar": "METAR EGKK 131220Z 28017KT 9999 VCSH FEW022 SCT045CB 11/06 Q1002",
      "taf": "TAF EGKK 131058Z 1312/1418 26012KT 9999 SCT035"
    },
    {
      "icao": "EGNM",
      "alert": "OK",
      "vis_m": 9999,
      "fzfg": false,
      "metar_trigger": false,
      "taf_trigger": false,
      "metar": "METAR EGNM 131220Z 31017KT 9999 VCSH SCT020CB SCT028 11/04 Q0998",
      "taf": "TAF EGNM 131105Z 1312/1412 32014KT 9999 SCT020"
    },
    {
      "icao": "EGPD",
      "alert": "OK",
      "vis_m": 9999,
      "fzfg": false,
      "metar_trigger": false,
      "taf_trigger": false,
      "metar": "METAR EGPD 131220Z 01013KT 9999 VCSH FEW036 11/04 Q1000 TEMPO SHRA",
      "taf": "TAF EGPD 131054Z 1312/1412 02010KT 9999 FEW030 SCT040"
    },
    {
      "icao": "EGPF",
      "alert": "OK",
      "vis_m": 9999,
      "fzfg": false,
      "metar_trigger": false,
      "taf_trigger": false,
      "metar": "METAR EGPF 131220Z AUTO 29012KT 9999 FEW038/// //////CB 14/05 Q1001",
      "taf": "TAF EGPF 131100Z 1312/1412 31012KT 9999 SCT020"
    },
    {
      "icao": "EHBK",
      "alert": "OK",
      "vis_m": 9999,
      "fzfg": false,
      "metar_trigger": false,
      "taf_trigger": false,
      "metar": "METAR EHBK 131225Z AUTO 22013KT 180V250 9999 FEW015CB 10/07 Q1002 TEMPO 22019G30KT 4000 SHRA FEW020CB",
      "taf": "TAF EHBK 131054Z 1312/1418 23012KT 9999 BKN030"
    },
    {
      "icao": "EHEH",
      "alert": "OK",
      "vis_m": 9999,
      "fzfg": false,
      "metar_trigger": false,
      "taf_trigger": false,
      "metar": "METAR EHEH 131225Z AUTO 24004KT 180V310 9999 FEW009 SCT010 FEW015CB BKN016 10/08 Q1001 REDZ BLU TEMPO 4500 SHRA SCT025CB",
      "taf": "TAF EHEH 131117Z 1312/1418 35008KT 9999 BKN030"
    },
    {
      "icao": "EKBI",
      "alert": "OK",
      "vis_m": 9999,
      "fzfg": false,
      "metar_trigger": false,
      "taf_trigger": false,
      "metar": "METAR EKBI 131220Z 31010KT 280V340 9999 BKN020CB BKN040 08/05 Q0998",
      "taf": "TAF EKBI 131127Z 1312/1412 28008KT 9999 BKN020"
    },
    {
      "icao": "EKCH",
      "alert": "OK",
      "vis_m": 9999,
      "fzfg": false,
      "metar_trigger": false,
      "taf_trigger": false,
      "metar": "METAR EKCH 131220Z 18005KT 130V210 9999 FEW014 OVC036 08/05 Q0998 NOSIG",
      "taf": "TAF EKCH 131127Z 1312/1412 12006KT 9999 BKN025"
    },
    {
      "icao": "ENAL",
      "alert": "OK",
      "vis_m": 9999,
      "fzfg": false,
      "metar_trigger": false,
      "taf_trigger": false,
      "metar": "METAR ENAL 131220Z 30008KT 9999 FEW020 10/05 Q1001",
      "taf": "TAF ENAL 131100Z 1312/1321 34008KT 9999 FEW020"
    },
    {
      "icao": "ENBR",
      "alert": "OK",
      "vis_m": 9999,
      "fzfg": false,
      "metar_trigger": false,
      "taf_trigger": false,
      "metar": "METAR ENBR 131220Z 23005KT 200V290 9999 SCT034 11/04 Q0999 BECMG 29010KT RMK WIND 1200FT 28003KT",
      "taf": "TAF ENBR 131100Z 1312/1412 23005KT 9999 SCT035"
    },
    {
      "icao": "ENGM",
      "alert": "OK",
      "vis_m": 9999,
      "fzfg": false,
      "metar_trigger": false,
      "taf_trigger": false,
      "metar": "METAR ENGM 131220Z 03013KT 360V070 CAVOK 13/M03 Q0996 NOSIG",
      "taf": "TAF ENGM 131100Z 1312/1412 01010KT 9999 FEW035 BKN045"
    },
    {
      "icao": "ENHD",
      "alert": "OK",
      "vis_m": 9999,
      "fzfg": false,
      "metar_trigger": false,
      "taf_trigger": false,
      "metar": "METAR ENHD 131220Z 30008KT 270V340 9999 SCT046 10/04 Q0999",
      "taf": "TAF ENHD 131100Z 1312/1321 34010KT 9999 FEW018 SCT038"
    },
    {
      "icao": "ENTC",
      "alert": "OK",
      "vis_m": 9999,
      "fzfg": false,
      "metar_trigger": false,
      "taf_trigger": false,
      "metar": "METAR ENTC 131220Z 28009KT 9999 BKN043 08/03 Q1007 NOSIG RMK WIND 2600FT 25011KT",
      "taf": "TAF ENTC 131100Z 1312/1412 27012KT 9999 BKN030"
    },
    {
      "icao": "ENTO",
      "alert": "OK",
      "vis_m": 9999,
      "fzfg": false,
      "metar_trigger": false,
      "taf_trigger": false,
      "metar": "METAR ENTO 131220Z 02006KT 350V050 9999 VCSH BKN050TCU 12/01 Q0997 TEMPO SHRA BKN010",
      "taf": "TAF ENTO 131100Z 1312/1412 35008KT 9999 -SHRA FEW020"
    },
    {
      "icao": "ENVA",
      "alert": "OK",
      "vis_m": 9999,
      "fzfg": false,
      "metar_trigger": false,
      "taf_trigger": false,
      "metar": "METAR ENVA 131150Z 09004KT CAVOK 17/M06 Q1000 NOSIG RMK WIND 670FT 14011G22KT",
      "taf": "TAF ENVA 131100Z 1312/1412 12008KT CAVOK"
    },
    {
      "icao": "ENZV",
      "alert": "OK",
      "vis_m": 9999,
      "fzfg": false,
      "metar_trigger": false,
      "taf_trigger": false,
      "metar": "METAR ENZV 131220Z 31011KT 9999 VCSH FEW012CB SCT024 11/05 Q0999 NOSIG",
      "taf": "TAF ENZV 131100Z 1312/1412 31010KT 9999 SCT020 BKN040"
    },
    {
      "icao": "EPGD",
      "alert": "OK",
      "vis_m": 9999,
      "fzfg": false,
      "metar_trigger": false,
      "taf_trigger": false,
      "metar": "METAR EPGD 131230Z 24013KT 9999 -SHRA FEW003 BKN015CB 08/06 Q0999",
      "taf": "TAF EPGD 131130Z 1312/1412 24010KT 9999 SCT014 BKN025"
    },
    {
      "icao": "EPKK",
      "alert": "OK",
      "vis_m": 9999,
      "fzfg": false,
      "metar_trigger": false,
      "taf_trigger": false,
      "metar": "METAR EPKK 131230Z 25014KT 9999 FEW045 BKN052 12/01 Q1005",
      "taf": "TAF EPKK 131130Z 1312/1412 24013KT 9999 SCT040 BKN050"
    },
    {
      "icao": "EPKT",
      "alert": "OK",
      "vis_m": 9999,
      "fzfg": false,
      "metar_trigger": false,
      "taf_trigger": false,
      "metar": "METAR EPKT 131230Z 23014KT 200V260 9999 SCT042 12/02 Q1005",
      "taf": "TAF EPKT 131130Z 1312/1412 26012KT 9999 BKN040"
    },
    {
      "icao": "EPLB",
      "alert": "OK",
      "vis_m": 9999,
      "fzfg": false,
      "metar_trigger": false,
      "taf_trigger": false,
      "metar": "METAR EPLB 131230Z 27014KT 9999 BKN041 12/02 Q1004",
      "taf": "TAF EPLB 131130Z 1312/1412 27014KT 9999 SCT045"
    },
    {
      "icao": "EPMO",
      "alert": "OK",
      "vis_m": 9999,
      "fzfg": false,
      "metar_trigger": false,
      "taf_trigger": false,
      "metar": "METAR EPMO 131230Z 24011KT 200V280 9999 SCT033 11/04 Q1003",
      "taf": "TAF EPMO 131130Z 1312/1412 25012KT 9999 BKN035"
    },
    {
      "icao": "EPPO",
      "alert": "OK",
      "vis_m": 9999,
      "fzfg": false,
      "metar_trigger": false,
      "taf_trigger": false,
      "metar": "METAR EPPO 131230Z 23012KT 9999 BKN028 11/04 Q1002",
      "taf": "TAF EPPO 131130Z 1312/1412 23010KT 9999 BKN030"
    },
    {
      "icao": "EPRA",
      "alert": "OK",
      "vis_m": 9999,
      "fzfg": false,
      "metar_trigger": false,
      "taf_trigger": false,
      "metar": "METAR EPRA 131230Z 26014KT 9999 BKN045 11/00 Q1004",
      "taf": "TAF EPRA 131130Z 1312/1321 26014KT 9999 BKN040"
    },
    {
      "icao": "EPRZ",
      "alert": "OK",
      "vis_m": 9999,
      "fzfg": false,
      "metar_trigger": false,
      "taf_trigger": false,
      "metar": "METAR EPRZ 131230Z 25014KT 9999 SCT046 11/02 Q1006",
      "taf": "TAF EPRZ 131130Z 1312/1412 25014KT 9999 BKN035"
    },
    {
      "icao": "EPSC",
      "alert": "OK",
      "vis_m": 9999,
      "fzfg": false,
      "metar_trigger": false,
      "taf_trigger": false,
      "metar": "METAR EPSC 131230Z 18007KT 140V210 9999 SCT010TCU BKN012 10/07 Q0999",
      "taf": "TAF EPSC 131130Z 1312/1412 20010KT 9999 BKN020"
    },
    {
      "icao": "EPSY",
      "alert": "OK",
      "vis_m": 9999,
      "fzfg": false,
      "metar_trigger": false,
      "taf_trigger": false,
      "metar": "METAR EPSY 131230Z 22012KT 9999 SCT028 10/04 Q1001",
      "taf": "TAF EPSY 131130Z 1312/1321 23010KT 9999 BKN030"
    },
    {
      "icao": "EPWA",
      "alert": "OK",
      "vis_m": 9999,
      "fzfg": false,
      "metar_trigger": false,
      "taf_trigger": false,
      "metar": "METAR EPWA 131230Z 23011KT 200V260 9999 SCT035 11/03 Q1003 NOSIG",
      "taf": "TAF EPWA 131130Z 1312/1412 25012KT 9999 BKN035"
    },
    {
      "icao": "EPWR",
      "alert": "OK",
      "vis_m": 9999,
      "fzfg": false,
      "metar_trigger": false,
      "taf_trigger": false,
      "metar": "METAR EPWR 131230Z 24012KT 210V270 9999 FEW040 SCT045 13/04 Q1003",
      "taf": "TAF EPWR 131130Z 1312/1412 24010KT 9999 BKN035"
    },
    {
      "icao": "ESGG",
      "alert": "OK",
      "vis_m": 9999,
      "fzfg": false,
      "metar_trigger": false,
      "taf_trigger": false,
      "metar": "METAR ESGG 131220Z 36007KT 320V040 9999 SHRA BKN024CB 07/05 Q0996",
      "taf": "TAF ESGG 131130Z 1312/1412 25008KT 9999 BKN035"
    },
    {
      "icao": "ESKN",
      "alert": "OK",
      "vis_m": 9999,
      "fzfg": false,
      "metar_trigger": false,
      "taf_trigger": false,
      "metar": "METAR ESKN 131220Z 36005KT 320V050 9999 -RA SCT007 BKN011 07/07 Q0994",
      "taf": "TAF ESKN 131130Z 1312/1412 32006KT 9999 SCT006 OVC010"
    },
    {
      "icao": "ESMS",
      "alert": "OK",
      "vis_m": 9999,
      "fzfg": false,
      "metar_trigger": false,
      "taf_trigger": false,
      "metar": "METAR ESMS 131220Z 22005KT 9999 -RA SCT015 BKN020 08/05 Q0997",
      "taf": "TAF ESMS 131127Z 1312/1412 16005KT 9999 BKN025"
    },
    {
      "icao": "ESSA",
      "alert": "OK",
      "vis_m": 9999,
      "fzfg": false,
      "metar_trigger": false,
      "taf_trigger": false,
      "metar": "METAR ESSA 131220Z 02008KT 9999 BKN005 07/06 Q0994 TEMPO BKN005",
      "taf": "TAF ESSA 131130Z 1312/1412 36008KT 9999 OVC005"
    },
    {
      "icao": "EYKA",
      "alert": "OK",
      "vis_m": 9999,
      "fzfg": false,
      "metar_trigger": false,
      "taf_trigger": false,
      "metar": "METAR EYKA 131220Z 28010KT CAVOK 11/07 Q0998",
      "taf": "TAF EYKA 131100Z 1312/1412 26008KT 8000 SCT015 BKN030"
    },
    {
      "icao": "EYPA",
      "alert": "OK",
      "vis_m": 9999,
      "fzfg": false,
      "metar_trigger": false,
      "taf_trigger": false,
      "metar": "METAR EYPA 131220Z 21007KT 190V250 9999 FEW006 OVC017 08/07 Q0998",
      "taf": "TAF EYPA 131100Z 1312/1412 24007KT 6000 BKN005"
    },
    {
      "icao": "EYVI",
      "alert": "OK",
      "vis_m": 9999,
      "fzfg": false,
      "metar_trigger": false,
      "taf_trigger": false,
      "metar": "METAR EYVI 131220Z 28007KT 240V310 9999 -RA SCT014 OVC033 09/07 Q0998 NOSIG",
      "taf": "TAF EYVI 131100Z 1312/1412 26010KT 5000 -RA BR SCT010 BKN015"
    },
    {
      "icao": "GCFV",
      "alert": "OK",
      "vis_m": 9999,
      "fzfg": false,
      "metar_trigger": false,
      "taf_trigger": false,
      "metar": "METAR GCFV 131200Z 06012KT 9999 FEW030 22/13 Q1020",
      "taf": "TAF GCFV 130800Z 1309/1409 05013KT 9999 SCT025 TX23/1314Z TN17/1406Z"
    },
    {
      "icao": "GCLP",
      "alert": "OK",
      "vis_m": 9999,
      "fzfg": false,
      "metar_trigger": false,
      "taf_trigger": false,
      "metar": "METAR GCLP 131200Z 03019KT 9999 FEW030 22/13 Q1020 NOSIG",
      "taf": "TAF GCLP 130800Z 1309/1409 02018KT 9999 SCT030 TX23/1314Z TN17/1406Z"
    },
    {
      "icao": "GCTS",
      "alert": "OK",
      "vis_m": 9999,
      "fzfg": false,
      "metar_trigger": false,
      "taf_trigger": false,
      "metar": "METAR GCTS 131200Z 11018KT 9999 FEW030 23/12 Q1021 NOSIG",
      "taf": "TAF GCTS 130800Z 1309/1409 09015KT 9999 SCT030 TX24/1314Z TN16/1406Z"
    },
    {
      "icao": "GMAD",
      "alert": "OK",
      "vis_m": 9999,
      "fzfg": false,
      "metar_trigger": false,
      "taf_trigger": false,
      "metar": "METAR GMAD 131230Z 27010KT 240V300 CAVOK 24/12 Q1017 NOSIG",
      "taf": "TAF GMAD 131100Z 1312/1418 27012KT CAVOK"
    },
    {
      "icao": "GMMN",
      "alert": "OK",
      "vis_m": 9999,
      "fzfg": false,
      "metar_trigger": false,
      "taf_trigger": false,
      "metar": "METAR GMMN 131230Z 01010KT 320V060 CAVOK 24/14 Q1019 NOSIG",
      "taf": "TAF GMMN 131100Z 1312/1418 03005KT CAVOK"
    },
    {
      "icao": "GMMX",
      "alert": "OK",
      "vis_m": 9999,
      "fzfg": false,
      "metar_trigger": false,
      "taf_trigger": false,
      "metar": "METAR GMMX 131230Z VRB04KT 9999 FEW100 SCT200 26/11 Q1018 NOSIG",
      "taf": "TAF GMMX 131100Z 1312/1418 28006KT CAVOK"
    },
    {
      "icao": "HEGN",
      "alert": "OK",
      "vis_m": 4000,
      "fzfg": false,
      "metar_trigger": false,
      "taf_trigger": false,
      "metar": "METAR HEGN 131200Z 35019KT 4000 SA NSC 35/08 Q1008 NOSIG",
      "taf": "TAF HEGN 131100Z 1312/1418 35012G22KT 6000 NSC"
    },
    {
      "icao": "HEMA",
      "alert": "OK",
      "vis_m": 6000,
      "fzfg": false,
      "metar_trigger": false,
      "taf_trigger": false,
      "metar": "METAR HEMA 131200Z 35017KT 6000 NSC 34/13 Q1008 NOSIG",
      "taf": "TAF HEMA 131100Z 1312/1418 36012G22KT 6000 NSC"
    },
    {
      "icao": "HESH",
      "alert": "OK",
      "vis_m": 9999,
      "fzfg": false,
      "metar_trigger": false,
      "taf_trigger": false,
      "metar": "METAR HESH 131200Z 36016KT CAVOK 35/13 Q1008 NOSIG",
      "taf": "TAF HESH 131100Z 1312/1418 01012G22KT CAVOK"
    },
    {
      "icao": "HESX",
      "alert": "OK",
      "vis_m": 9999,
      "fzfg": false,
      "metar_trigger": false,
      "taf_trigger": false,
      "metar": "METAR HESX 131200Z 07008KT CAVOK 32/08 Q1013 NOSIG",
      "taf": "TAF HESX 131100Z 1312/1418 34011KT CAVOK"
    },
    {
      "icao": "LATI",
      "alert": "OK",
      "vis_m": 9999,
      "fzfg": false,
      "metar_trigger": false,
      "taf_trigger": false,
      "metar": "METAR LATI 131220Z 35007KT 9999 FEW045 BKN073 20/10 Q1007 NOSIG",
      "taf": "TAF LATI 131100Z 1312/1412 25012KT 9999 SCT060 BKN080 TX23/1312Z TN13/1404Z"
    },
    {
      "icao": "LBPD",
      "alert": "OK",
      "vis_m": 9999,
      "fzfg": false,
      "metar_trigger": false,
      "taf_trigger": false,
      "metar": "METAR LBPD 131230Z AUTO 28018KT 9999 NCD 18/06 Q1006 NOSIG",
      "taf": "TAF LBPD 131100Z 1312/1412 28016KT 9999 SCT040 BKN060"
    },
    {
      "icao": "LBSF",
      "alert": "OK",
      "vis_m": 9999,
      "fzfg": false,
      "metar_trigger": false,
      "taf_trigger": false,
      "metar": "METAR LBSF 131230Z 29010KT 270V330 9999 BKN058 12/01 Q1009 NOSIG",
      "taf": "TAF LBSF 131100Z 1312/1412 30014KT 9999 SCT040 BKN060"
    },
    {
      "icao": "LBWN",
      "alert": "OK",
      "vis_m": 9999,
      "fzfg": false,
      "metar_trigger": false,
      "taf_trigger": false,
      "metar": "METAR LBWN 131230Z 28019KT 9999 FEW033 17/04 Q1004 NOSIG",
      "taf": "TAF LBWN 131100Z 1312/1412 28020KT CAVOK"
    },
    {
      "icao": "LCLK",
      "alert": "OK",
      "vis_m": 9999,
      "fzfg": false,
      "metar_trigger": false,
      "taf_trigger": false,
      "metar": "METAR LCLK 131230Z 20011KT 160V230 9999 FEW020 30/18 Q1006 NOSIG",
      "taf": "TAF LCLK 131130Z 1312/1412 21016KT 9999 FEW010"
    },
    {
      "icao": "LCPH",
      "alert": "OK",
      "vis_m": 9999,
      "fzfg": false,
      "metar_trigger": false,
      "taf_trigger": false,
      "metar": "METAR LCPH 131230Z 30009KT 250V320 9999 FEW012 23/19 Q1009 NOSIG",
      "taf": "TAF LCPH 131130Z 1312/1412 26015KT 8000 FEW003 SCT009"
    },
    {
      "icao": "LEAL",
      "alert": "OK",
      "vis_m": 9999,
      "fzfg": false,
      "metar_trigger": false,
      "taf_trigger": false,
      "metar": "METAR LEAL 131200Z 29010KT 250V330 9999 FEW013 SCT065 27/07 Q1015 NOSIG",
      "taf": "TAF LEAL 131100Z 1312/1412 28010KT 9999 FEW020 TX28/1312Z TN16/1406Z"
    },
    {
      "icao": "LEBB",
      "alert": "OK",
      "vis_m": 9999,
      "fzfg": false,
      "metar_trigger": false,
      "taf_trigger": false,
      "metar": "METAR LEBB 131200Z 29010KT 260V330 9999 SCT030 BKN043 17/10 Q1019 NOSIG",
      "taf": "TAF LEBB 131100Z 1312/1412 29009KT 9999 SCT030 TX17/1314Z TN11/1408Z"
    },
    {
      "icao": "LEBL",
      "alert": "OK",
      "vis_m": 9999,
      "fzfg": false,
      "metar_trigger": false,
      "taf_trigger": false,
      "metar": "METAR LEBL 131200Z 19010KT 140V220 9999 FEW040 19/10 Q1014 NOSIG",
      "taf": "TAF LEBL 131100Z 1312/1412 VRB04KT 9999 FEW025 TX21/1312Z TN13/1405Z"
    },
    {
      "icao": "LECH",
      "alert": "OK",
      "vis_m": 9000,
      "fzfg": false,
      "metar_trigger": false,
      "taf_trigger": false,
      "metar": "METAR LECH 131200Z AUTO 13012KT 100V170 9000 FEW066 21/09 Q1015",
      "taf": "TAF LECH 131100Z 1312/1412 VRB03KT 9999 FEW060 TX22/1314Z TN09/1406Z"
    },
    {
      "icao": "LEMD",
      "alert": "OK",
      "vis_m": 9999,
      "fzfg": false,
      "metar_trigger": false,
      "taf_trigger": false,
      "metar": "METAR LEMD 131200Z 30006KT 220V340 9999 FEW045 BKN077 18/07 Q1018 NOSIG",
      "taf": ""
    },
    {
      "icao": "LEMG",
      "alert": "OK",
      "vis_m": 9999,
      "fzfg": false,
      "metar_trigger": false,
      "taf_trigger": false,
      "metar": "METAR LEMG 131200Z 30007KT 220V020 9999 FEW050 24/08 Q1018 NOSIG",
      "taf": "TAF LEMG 131100Z 1312/1412 30010KT 9999 FEW050 TX26/1314Z TN15/1406Z"
    },
    {
      "icao": "LEVC",
      "alert": "OK",
      "vis_m": 9999,
      "fzfg": false,
      "metar_trigger": false,
      "taf_trigger": false,
      "metar": "METAR LEVC 131200Z 28008KT 250V330 9999 FEW060 26/07 Q1014 NOSIG",
      "taf": "TAF LEVC 131100Z 1312/1412 VRB03KT 9999 FEW060 TX27/1312Z TN14/1406Z"
    },
    {
      "icao": "LEXJ",
      "alert": "OK",
      "vis_m": 9999,
      "fzfg": false,
      "metar_trigger": false,
      "taf_trigger": false,
      "metar": "METAR LEXJ 131200Z 30012KT 9999 FEW025 SCT050 BKN068 16/10 Q1020",
      "taf": "TAF LEXJ 130800Z 1309/1409 28009KT 9999 FEW020 BKN040 TX17/1314Z TN12/1406Z"
    },
    {
      "icao": "LEZG",
      "alert": "OK",
      "vis_m": 9999,
      "fzfg": false,
      "metar_trigger": false,
      "taf_trigger": false,
      "metar": "METAR LEZG 131200Z 30022KT 270V330 9999 FEW040 19/07 Q1016 NOSIG",
      "taf": "TAF LEZG 131100Z 1312/1412 30012KT 9999 FEW040 TX20/1318Z TN10/1405Z"
    },
    {
      "icao": "LEZL",
      "alert": "OK",
      "vis_m": 9999,
      "fzfg": false,
      "metar_trigger": false,
      "taf_trigger": false,
      "metar": "METAR LEZL 131200Z 26003KT 9999 SCT045 23/10 Q1019 NOSIG",
      "taf": "TAF LEZL 130800Z 1309/1409 VRB02KT 9999 FEW040 TX26/1315Z TN12/1406Z"
    },
    {
      "icao": "LFBD",
      "alert": "OK",
      "vis_m": 9999,
      "fzfg": false,
      "metar_trigger": false,
      "taf_trigger": false,
      "metar": "METAR LFBD 131230Z AUTO 30017KT 9999 FEW041 SCT047 BKN060 17/08 Q1016 TEMPO 29015G25KT 4500 -SHRA BKN030TCU",
      "taf": "TAF LFBD 131100Z 1312/1418 29010KT 9999 BKN040 TX19/1314Z TN11/1404Z"
    },
    {
      "icao": "LFLL",
      "alert": "OK",
      "vis_m": 9999,
      "fzfg": false,
      "metar_trigger": false,
      "taf_trigger": false,
      "metar": "METAR LFLL 131230Z 28004KT 210V360 9999 FEW047 BKN066 16/03 Q1012 NOSIG",
      "taf": "TAF LFLL 131100Z 1312/1418 29006KT 9999 SCT045 BKN060"
    },
    {
      "icao": "LFLS",
      "alert": "OK",
      "vis_m": 9999,
      "fzfg": false,
      "metar_trigger": false,
      "taf_trigger": false,
      "metar": "METAR LFLS 131230Z AUTO VRB02KT 9999 FEW042 BKN052 OVC062 14/05 Q1012 NOSIG",
      "taf": "TAF LFLS 130800Z 1309/1409 VRB05KT CAVOK"
    },
    {
      "icao": "LFMN",
      "alert": "OK",
      "vis_m": 9999,
      "fzfg": false,
      "metar_trigger": false,
      "taf_trigger": false,
      "metar": "METAR LFMN 131230Z 19013KT 9999 FEW033 SCT080 BKN200 19/13 Q1007 NOSIG",
      "taf": "TAF LFMN 130800Z 1309/1415 18008KT 9999 BKN100"
    },
    {
      "icao": "LFOB",
      "alert": "OK",
      "vis_m": 9999,
      "fzfg": false,
      "metar_trigger": false,
      "taf_trigger": false,
      "metar": "METAR LFOB 131230Z AUTO 27012KT 240V310 9999 BKN035/// BKN041/// BKN054/// ///CB 13/07 Q1005 TEMPO 27020G35KT 2000 SHRAGS BKN014CB BKN025",
      "taf": "TAF LFOB 131100Z 1312/1412 26010KT 9999 SCT020 BKN040"
    },
    {
      "icao": "LFPO",
      "alert": "OK",
      "vis_m": 9999,
      "fzfg": false,
      "metar_trigger": false,
      "taf_trigger": false,
      "metar": "METAR LFPO 131230Z 26014KT 9999 FEW020TCU BKN026 BKN066 13/07 Q1007 TEMPO 2000 TSRA BKN030CB",
      "taf": "TAF LFPO 131100Z 1312/1418 25014KT 9999 FEW040TCU BKN043 BKN130"
    },
    {
      "icao": "LFSB",
      "alert": "OK",
      "vis_m": 9999,
      "fzfg": false,
      "metar_trigger": false,
      "taf_trigger": false,
      "metar": "METAR LFSB 131230Z AUTO 24010KT 190V280 CAVOK 16/04 Q1008 TEMPO 26015G25KT",
      "taf": ""
    },
    {
      "icao": "LGAV",
      "alert": "OK",
      "vis_m": 9999,
      "fzfg": false,
      "metar_trigger": false,
      "taf_trigger": false,
      "metar": "METAR LGAV 131220Z 21012KT 9999 FEW030 27/06 Q1005 NOSIG",
      "taf": "TAF LGAV 131100Z 1312/1412 19010KT 9999 FEW025"
    },
    {
      "icao": "LGTS",
      "alert": "OK",
      "vis_m": 9999,
      "fzfg": false,
      "metar_trigger": false,
      "taf_trigger": false,
      "metar": "METAR LGTS 131220Z 30006KT 9999 FEW018 SCT025 27/10 Q1003 NOSIG",
      "taf": "TAF LGTS 131100Z 1312/1412 33013KT 9999 FEW030"
    },
    {
      "icao": "LHBP",
      "alert": "OK",
      "vis_m": 9999,
      "fzfg": false,
      "metar_trigger": false,
      "taf_trigger": false,
      "metar": "METAR LHBP 131230Z 29009G19KT 250V320 CAVOK 16/M01 Q1007 NOSIG",
      "taf": "TAF LHBP 131115Z 1312/1412 30015G25KT CAVOK"
    },
    {
      "icao": "LHDC",
      "alert": "OK",
      "vis_m": 9999,
      "fzfg": false,
      "metar_trigger": false,
      "taf_trigger": false,
      "metar": "METAR LHDC 131215Z AUTO 23008KT 160V320 CAVOK 14/03 Q1007 NOSIG",
      "taf": "TAF LHDC 131115Z 1312/1321 27008KT 9999 BKN040"
    },
    {
      "icao": "LIBD",
      "alert": "OK",
      "vis_m": 8000,
      "fzfg": false,
      "metar_trigger": false,
      "taf_trigger": false,
      "metar": "METAR LIBD 131220Z 14007KT 100V160 8000 -TSRA FEW010CB BKN030 15/15 Q1008 RERA",
      "taf": "TAF LIBD 131100Z 1312/1412 VRB06KT 9999 SCT030"
    },
    {
      "icao": "LIBG",
      "alert": "OK",
      "vis_m": 9999,
      "fzfg": false,
      "metar_trigger": false,
      "taf_trigger": false,
      "metar": "METAR LIBG 131150Z 23010KT 190V250 9999 SCT040 19/14 Q1007",
      "taf": "TAF LIBG 131100Z 1312/1321 24010KT CAVOK"
    },
    {
      "icao": "LIBP",
      "alert": "OK",
      "vis_m": 9999,
      "fzfg": false,
      "metar_trigger": false,
      "taf_trigger": false,
      "metar": "METAR LIBP 131220Z AUTO 09008KT 9999 BKN093/// 18/06 Q1008",
      "taf": "TAF LIBP 131100Z 1312/1412 08010KT 9999 BKN040"
    },
    {
      "icao": "LIBR",
      "alert": "OK",
      "vis_m": 9999,
      "fzfg": false,
      "metar_trigger": false,
      "taf_trigger": false,
      "metar": "METAR LIBR 131220Z 07005KT 030V100 9999 SCT040 18/14 Q1008",
      "taf": "TAF LIBR 131100Z 1312/1412 VRB06KT CAVOK"
    },
    {
      "icao": "LICA",
      "alert": "OK",
      "vis_m": 9999,
      "fzfg": false,
      "metar_trigger": false,
      "taf_trigger": false,
      "metar": "METAR LICA 131220Z AUTO 26011KT 220V280 9999 FEW019/// 22/16 Q1009",
      "taf": "TAF LICA 131100Z 1312/1412 27013KT 9999 SCT015"
    },
    {
      "icao": "LICC",
      "alert": "OK",
      "vis_m": 9999,
      "fzfg": false,
      "metar_trigger": false,
      "taf_trigger": false,
      "metar": "METAR LICC 131220Z 09010KT 060V120 9999 FEW050 24/18 Q1008",
      "taf": "TAF LICC 131100Z 1312/1412 10012KT CAVOK"
    },
    {
      "icao": "LICJ",
      "alert": "OK",
      "vis_m": 9999,
      "fzfg": false,
      "metar_trigger": false,
      "taf_trigger": false,
      "metar": "METAR LICJ 131220Z 28015KT 9999 FEW025 20/16 Q1010",
      "taf": "TAF LICJ 131100Z 1312/1412 26016KT CAVOK"
    },
    {
      "icao": "LIMC",
      "alert": "OK",
      "vis_m": 9999,
      "fzfg": false,
      "metar_trigger": false,
      "taf_trigger": false,
      "metar": "METAR LIMC 131220Z VRB04KT 9999 SCT060 17/03 Q1008 NOSIG",
      "taf": "TAF LIMC 131100Z 1312/1418 14010KT 9999 SCT070"
    },
    {
      "icao": "LIME",
      "alert": "OK",
      "vis_m": 9999,
      "fzfg": false,
      "metar_trigger": false,
      "taf_trigger": false,
      "metar": "METAR LIME 131220Z 16005KT 100V260 9999 FEW035 18/01 Q1008 NOSIG",
      "taf": "TAF LIME 131100Z 1312/1412 15010KT 9999 FEW070"
    },
    {
      "icao": "LIMF",
      "alert": "OK",
      "vis_m": 9999,
      "fzfg": false,
      "metar_trigger": false,
      "taf_trigger": false,
      "metar": "METAR LIMF 131220Z VRB02KT 9999 SCT035 BKN060 16/07 Q1008",
      "taf": "TAF LIMF 131100Z 1312/1412 06010KT 9999 BKN060"
    },
    {
      "icao": "LIMJ",
      "alert": "OK",
      "vis_m": 9999,
      "fzfg": false,
      "metar_trigger": false,
      "taf_trigger": false,
      "metar": "METAR LIMJ 131220Z 04009KT 360V080 9999 FEW030 21/08 Q1006",
      "taf": "TAF LIMJ 131100Z 1312/1412 02010KT CAVOK"
    },
    {
      "icao": "LIPE",
      "alert": "OK",
      "vis_m": 9999,
      "fzfg": false,
      "metar_trigger": false,
      "taf_trigger": false,
      "metar": "METAR LIPE 131220Z 10009KT 040V140 9999 BKN040 19/10 Q1007",
      "taf": "TAF LIPE 131100Z 1312/1412 10010KT 9999 SCT035"
    },
    {
      "icao": "LIPH",
      "alert": "OK",
      "vis_m": 9999,
      "fzfg": false,
      "metar_trigger": false,
      "taf_trigger": false,
      "metar": "METAR LIPH 131220Z VRB03KT 9999 FEW040 18/06 Q1008",
      "taf": "TAF LIPH 131100Z 1312/1412 17007KT CAVOK"
    },
    {
      "icao": "LIPQ",
      "alert": "OK",
      "vis_m": 9999,
      "fzfg": false,
      "metar_trigger": false,
      "taf_trigger": false,
      "metar": "METAR LIPQ 131220Z AUTO VRB04KT 9999 NCD 18/03 Q1008",
      "taf": "TAF LIPQ 131100Z 1312/1412 VRB04KT CAVOK"
    },
    {
      "icao": "LIPR",
      "alert": "OK",
      "vis_m": 9999,
      "fzfg": false,
      "metar_trigger": false,
      "taf_trigger": false,
      "metar": "METAR LIPR 131220Z 11013KT 070V130 9999 FEW050 18/07 Q1007",
      "taf": "TAF LIPR 131100Z 1312/1412 11010KT 9999 SCT030"
    },
    {
      "icao": "LIPX",
      "alert": "OK",
      "vis_m": 9999,
      "fzfg": false,
      "metar_trigger": false,
      "taf_trigger": false,
      "metar": "METAR LIPX 131220Z 17005KT 130V260 9999 SCT050 18/06 Q1008",
      "taf": "TAF LIPX 131100Z 1312/1412 12010KT CAVOK"
    },
    {
      "icao": "LIPY",
      "alert": "OK",
      "vis_m": 9999,
      "fzfg": false,
      "metar_trigger": false,
      "taf_trigger": false,
      "metar": "METAR LIPY 131220Z AUTO 07012KT 9999 NCD 18/07 Q1007",
      "taf": "TAF LIPY 131100Z 1312/1412 11010KT 9999 SCT040"
    },
    {
      "icao": "LIPZ",
      "alert": "OK",
      "vis_m": 9999,
      "fzfg": false,
      "metar_trigger": false,
      "taf_trigger": false,
      "metar": "METAR LIPZ 131220Z 17005KT 120V200 9999 FEW030 17/04 Q1008 NOSIG",
      "taf": "TAF LIPZ 131100Z 1312/1418 16010KT CAVOK"
    },
    {
      "icao": "LIRF",
      "alert": "OK",
      "vis_m": 9999,
      "fzfg": false,
      "metar_trigger": false,
      "taf_trigger": false,
      "metar": "METAR LIRF 131220Z 26009KT 220V300 CAVOK 20/13 Q1007 NOSIG",
      "taf": "TAF LIRF 131100Z 1312/1418 26013KT 9999 FEW030"
    },
    {
      "icao": "LIRN",
      "alert": "OK",
      "vis_m": 9999,
      "fzfg": false,
      "metar_trigger": false,
      "taf_trigger": false,
      "metar": "METAR LIRN 131220Z 19012KT 150V210 9999 SCT040 21/13 Q1008 NOSIG",
      "taf": "TAF LIRN 131100Z 1312/1412 22010KT 9999 SCT025"
    },
    {
      "icao": "LIRP",
      "alert": "OK",
      "vis_m": 9999,
      "fzfg": false,
      "metar_trigger": false,
      "taf_trigger": false,
      "metar": "METAR LIRP 131215Z 28009KT CAVOK 19/10 Q1007 NOSIG",
      "taf": "TAF LIRP 131100Z 1312/1412 27008KT 9999 SCT030"
    },
    {
      "icao": "LIRZ",
      "alert": "OK",
      "vis_m": 9999,
      "fzfg": false,
      "metar_trigger": false,
      "taf_trigger": false,
      "metar": "METAR LIRZ 131220Z AUTO 26005KT 170V310 9999 BKN072/// 18/10 Q1006",
      "taf": "TAF LIRZ 131100Z 1312/1412 VRB05KT 9999 SCT030"
    },
    {
      "icao": "LJLJ",
      "alert": "OK",
      "vis_m": 9999,
      "fzfg": false,
      "metar_trigger": false,
      "taf_trigger": false,
      "metar": "METAR LJLJ 131200Z 16004KT 100V260 9999 FEW055 15/02 Q1008 NOSIG",
      "taf": "TAF LJLJ 131100Z 1312/1412 10005KT 9999 FEW045"
    },
    {
      "icao": "LKMT",
      "alert": "OK",
      "vis_m": 9999,
      "fzfg": false,
      "metar_trigger": false,
      "taf_trigger": false,
      "metar": "METAR LKMT 131230Z 22014KT CAVOK 14/03 Q1006 NOSIG",
      "taf": "TAF LKMT 131100Z 1312/1412 23013KT 9999 SCT040"
    },
    {
      "icao": "LKPR",
      "alert": "OK",
      "vis_m": 9999,
      "fzfg": false,
      "metar_trigger": false,
      "taf_trigger": false,
      "metar": "METAR LKPR 131230Z 24014KT 9999 BKN049 12/02 Q1004 NOSIG",
      "taf": "TAF LKPR 131100Z 1312/1418 23014KT CAVOK"
    },
    {
      "icao": "LLBG",
      "alert": "OK",
      "vis_m": 9999,
      "fzfg": false,
      "metar_trigger": false,
      "taf_trigger": false,
      "metar": "METAR LLBG 131220Z 28010KT CAVOK 26/16 Q1011 NOSIG",
      "taf": "TAF LLBG 131102Z 1312/1412 27012KT CAVOK TX26/1312Z TN18/1403Z"
    },
    {
      "icao": "LMML",
      "alert": "OK",
      "vis_m": 9999,
      "fzfg": false,
      "metar_trigger": false,
      "taf_trigger": false,
      "metar": "METAR LMML 131215Z 27018KT 9999 FEW020 24/14 Q1012 NOSIG",
      "taf": "TAF LMML 131100Z 1312/1412 30016KT 9999 FEW015"
    },
    {
      "icao": "LOWW",
      "alert": "OK",
      "vis_m": 9999,
      "fzfg": false,
      "metar_trigger": false,
      "taf_trigger": false,
      "metar": "METAR LOWW 131220Z 34007KT 280V050 CAVOK 17/01 Q1006 NOSIG",
      "taf": "TAF LOWW 131115Z 1312/1418 28010KT 9999 FEW050 TX16/1315Z TN08/1403Z"
    },
    {
      "icao": "LPFR",
      "alert": "OK",
      "vis_m": 9999,
      "fzfg": false,
      "metar_trigger": false,
      "taf_trigger": false,
      "metar": "METAR LPFR 131200Z 23009KT 9999 FEW020 19/14 Q1020",
      "taf": "TAF LPFR 131100Z 1312/1412 24015KT 9999 SCT020"
    },
    {
      "icao": "LPMA",
      "alert": "OK",
      "vis_m": 9999,
      "fzfg": false,
      "metar_trigger": false,
      "taf_trigger": false,
      "metar": "METAR LPMA 131200Z 20008KT 9999 SCT016 20/14 Q1023",
      "taf": "TAF LPMA 131100Z 1312/1412 VRB05KT 9999 SCT015"
    },
    {
      "icao": "LPPR",
      "alert": "OK",
      "vis_m": 9999,
      "fzfg": false,
      "metar_trigger": false,
      "taf_trigger": false,
      "metar": "METAR LPPR 131200Z 27007KT 230V300 9999 SCT019 FEW025CB 18/13 Q1020",
      "taf": "TAF LPPR 131100Z 1312/1412 26007KT 9999 SCT018"
    },
    {
      "icao": "LPPS",
      "alert": "OK",
      "vis_m": 9999,
      "fzfg": false,
      "metar_trigger": false,
      "taf_trigger": false,
      "metar": "METAR LPPS 131200Z 35008KT 310V040 9999 FEW015 19/13 Q1023",
      "taf": "TAF LPPS 131100Z 1312/1418 33010KT 9999 SCT015"
    },
    {
      "icao": "LPPT",
      "alert": "OK",
      "vis_m": 9999,
      "fzfg": false,
      "metar_trigger": false,
      "taf_trigger": false,
      "metar": "METAR LPPT 131200Z VRB02KT 9999 FEW018 FEW025TCU BKN045 19/13 Q1020",
      "taf": "TAF LPPT 131100Z 1312/1418 VRB05KT 9999 FEW020"
    },
    {
      "icao": "LQBK",
      "alert": "OK",
      "vis_m": 9999,
      "fzfg": false,
      "metar_trigger": false,
      "taf_trigger": false,
      "metar": "METAR LQBK 131200Z 35004KT 260V070 CAVOK 16/02 Q1009 NOSIG",
      "taf": "TAF LQBK 131100Z 1312/1412 03006KT CAVOK TX18/1412Z TN03/1404Z"
    },
    {
      "icao": "LQSA",
      "alert": "OK",
      "vis_m": 9999,
      "fzfg": false,
      "metar_trigger": false,
      "taf_trigger": false,
      "metar": "METAR LQSA 131200Z VRB02KT 9999 SCT045 14/M01 Q1008 NOSIG",
      "taf": "TAF LQSA 131100Z 1312/1412 VRB02KT 9999 SCT060 TX21/1412Z TN03/1404Z"
    },
    {
      "icao": "LQTZ",
      "alert": "OK",
      "vis_m": 9999,
      "fzfg": false,
      "metar_trigger": false,
      "taf_trigger": false,
      "metar": "METAR LQTZ 131200Z VRB02KT 9999 FEW055 15/01 Q1009",
      "taf": "TAF LQTZ 131100Z 1312/1412 04005KT 9999 FEW050 TX17/1412Z TN02/1404Z"
    },
    {
      "icao": "LRBC",
      "alert": "OK",
      "vis_m": 9999,
      "fzfg": false,
      "metar_trigger": false,
      "taf_trigger": false,
      "metar": "METAR LRBC 131200Z 35009KT 330V030 9999 -SHRA BKN026 FEW032CB 12/08 Q1004",
      "taf": "TAF LRBC 131100Z 1312/1321 34010KT 9999 SCT015 BKN030"
    },
    {
      "icao": "LRBS",
      "alert": "OK",
      "vis_m": 9999,
      "fzfg": false,
      "metar_trigger": false,
      "taf_trigger": false,
      "metar": "METAR LRBS 131200Z 28009KT 240V340 9999 SCT034 BKN044 15/06 Q1004 NOSIG",
      "taf": "TAF LRBS 131100Z 1312/1412 27014KT CAVOK"
    },
    {
      "icao": "LRBV",
      "alert": "OK",
      "vis_m": 9000,
      "fzfg": false,
      "metar_trigger": false,
      "taf_trigger": false,
      "metar": "METAR LRBV 131200Z 30011KT 270V330 9000 -DZ FEW011 BKN019 OVC025 07/05 Q1007",
      "taf": "TAF LRBV 131100Z 1312/1321 30012KT 9999 BKN015 SCT025CB BKN030"
    },
    {
      "icao": "LRCL",
      "alert": "OK",
      "vis_m": 9999,
      "fzfg": false,
      "metar_trigger": false,
      "taf_trigger": false,
      "metar": "METAR LRCL 131200Z 29009KT 250V330 9999 BKN022 10/05 Q1007",
      "taf": "TAF LRCL 131100Z 1312/1321 28012KT 9999 OVC025"
    },
    {
      "icao": "LRCV",
      "alert": "OK",
      "vis_m": 9999,
      "fzfg": false,
      "metar_trigger": false,
      "taf_trigger": false,
      "metar": "METAR LRCV 131200Z 28017KT CAVOK 16/04 Q1006",
      "taf": "TAF LRCV 131100Z 1312/1321 28018KT CAVOK"
    },
    {
      "icao": "LRIA",
      "alert": "OK",
      "vis_m": 9999,
      "fzfg": false,
      "metar_trigger": false,
      "taf_trigger": false,
      "metar": "METAR LRIA 131200Z 30010KT 9999 SCT016 BKN022 OVC032 12/07 Q1004",
      "taf": "TAF LRIA 131100Z 1312/1321 31012KT 9999 SCT015 BKN030"
    },
    {
      "icao": "LROP",
      "alert": "OK",
      "vis_m": 9999,
      "fzfg": false,
      "metar_trigger": false,
      "taf_trigger": false,
      "metar": "METAR LROP 131200Z 26012KT CAVOK 15/07 Q1004 NOSIG",
      "taf": "TAF LROP 131100Z 1312/1412 27014KT CAVOK"
    },
    {
      "icao": "LRSB",
      "alert": "OK",
      "vis_m": 9999,
      "fzfg": false,
      "metar_trigger": false,
      "taf_trigger": false,
      "metar": "METAR LRSB 131200Z 30015KT 9999 SCT050 BKN075 10/04 Q1007 NOSIG",
      "taf": "TAF LRSB 131100Z 1312/1412 30018KT 9999 BKN050"
    },
    {
      "icao": "LRSM",
      "alert": "OK",
      "vis_m": 9999,
      "fzfg": false,
      "metar_trigger": false,
      "taf_trigger": false,
      "metar": "METAR LRSM 131200Z 27011KT 9999 SCT034 13/06 Q1007",
      "taf": "TAF LRSM 131100Z 1312/1321 28010KT 9999 SCT035"
    },
    {
      "icao": "LRSV",
      "alert": "OK",
      "vis_m": 9999,
      "fzfg": false,
      "metar_trigger": false,
      "taf_trigger": false,
      "metar": "METAR LRSV 131200Z 29012KT 9999 BKN030 10/05 Q1004",
      "taf": "TAF LRSV 131100Z 1312/1321 32012KT 9999 SCT015 BKN030"
    },
    {
      "icao": "LRTM",
      "alert": "OK",
      "vis_m": 9999,
      "fzfg": false,
      "metar_trigger": false,
      "taf_trigger": false,
      "metar": "METAR LRTM 131200Z 27009KT 220V300 9999 SCT021 BKN042 10/06 Q1007",
      "taf": "TAF LRTM 131100Z 1312/1321 28012KT 9999 BKN030"
    },
    {
      "icao": "LRTR",
      "alert": "OK",
      "vis_m": 9999,
      "fzfg": false,
      "metar_trigger": false,
      "taf_trigger": false,
      "metar": "METAR LRTR 131200Z 29010KT 9999 BKN048 15/03 Q1009",
      "taf": "TAF LRTR 131100Z 1312/1412 29010KT CAVOK"
    },
    {
      "icao": "LTAC",
      "alert": "OK",
      "vis_m": 9999,
      "fzfg": false,
      "metar_trigger": false,
      "taf_trigger": false,
      "metar": "METAR LTAC 131220Z 27015KT 9999 SCT040 SCT100 22/08 Q1006 NOSIG RMK RWY21C 26016KT RWY03L 26013KT RWY21R 25015KT 220V280 RWY03R 24013KT 200V260 RWY21L 26015KT",
      "taf": ""
    },
    {
      "icao": "LTFM",
      "alert": "OK",
      "vis_m": 9999,
      "fzfg": false,
      "metar_trigger": false,
      "taf_trigger": false,
      "metar": "METAR LTFM 131220Z 08011KT 9999 SCT035 BKN080 20/11 Q1005 NOSIG RMK RWY17L 09014KT RWY34L 09010KT 050V110 RWY16R 09012KT RWY36 10011KT 020V120 RWY18 10013KT",
      "taf": "TAF LTFM 131040Z 1312/1418 07012KT 9999 SCT035 BKN080"
    },
    {
      "icao": "LUKK",
      "alert": "OK",
      "vis_m": 9999,
      "fzfg": false,
      "metar_trigger": false,
      "taf_trigger": false,
      "metar": "METAR LUKK 131200Z 35007KT 310V030 9999 OVC021 15/11 Q1002 TEMPO SCT035CB",
      "taf": "TAF LUKK 131101Z 1312/1412 34012KT 9999 BKN025"
    },
    {
      "icao": "LWOH",
      "alert": "OK",
      "vis_m": 9999,
      "fzfg": false,
      "metar_trigger": false,
      "taf_trigger": false,
      "metar": "METAR LWOH 131220Z 35005KT 310V010 9999 -RA FEW035 BKN040 14/11 Q1007",
      "taf": "TAF LWOH 130830Z 1312/1412 27010KT 9999 BKN035"
    },
    {
      "icao": "LWSK",
      "alert": "OK",
      "vis_m": 9999,
      "fzfg": false,
      "metar_trigger": false,
      "taf_trigger": false,
      "metar": "METAR LWSK 131220Z 02014KT 350V050 9999 FEW090 17/05 Q1008 NOSIG",
      "taf": "TAF LWSK 131130Z 1312/1412 02010KT 9999 FEW040 SCT090"
    },
    {
      "icao": "LYBE",
      "alert": "OK",
      "vis_m": 9999,
      "fzfg": false,
      "metar_trigger": false,
      "taf_trigger": false,
      "metar": "METAR LYBE 131200Z 32006KT 260V010 9999 FEW045 14/03 Q1010 NOSIG",
      "taf": "TAF LYBE 131100Z 1312/1412 31007KT CAVOK TX20/1412Z TN06/1404Z"
    },
    {
      "icao": "LYNI",
      "alert": "OK",
      "vis_m": 9999,
      "fzfg": false,
      "metar_trigger": false,
      "taf_trigger": false,
      "metar": "METAR LYNI 131200Z 33010KT 280V020 9999 SCT040 15/03 Q1009 NOSIG",
      "taf": "TAF LYNI 131100Z 1312/1412 32008KT 9999 SCT040 BKN080 TX20/1412Z TN05/1404Z"
    },
    {
      "icao": "LYPG",
      "alert": "OK",
      "vis_m": 9999,
      "fzfg": false,
      "metar_trigger": false,
      "taf_trigger": false,
      "metar": "METAR LYPG 131200Z 20013KT 120V220 9999 SCT040 SCT090 23/04 Q1006 NOSIG",
      "taf": "TAF LYPG 131100Z 1312/1412 18009KT 9999 SCT040 TX22/1313Z TN12/1404Z"
    },
    {
      "icao": "LZIB",
      "alert": "OK",
      "vis_m": 9999,
      "fzfg": false,
      "metar_trigger": false,
      "taf_trigger": false,
      "metar": "METAR LZIB 131230Z 23008KT 180V280 CAVOK 17/M01 Q1006 NOSIG",
      "taf": "TAF LZIB 131115Z 1312/1412 28009KT CAVOK"
    },
    {
      "icao": "LZKZ",
      "alert": "OK",
      "vis_m": 9999,
      "fzfg": false,
      "metar_trigger": false,
      "taf_trigger": false,
      "metar": "METAR LZKZ 131230Z 27005KT 210V330 CAVOK 15/02 Q1006 NOSIG",
      "taf": "TAF LZKZ 131115Z 1312/1412 21009KT CAVOK"
    },
    {
      "icao": "LZTT",
      "alert": "OK",
      "vis_m": 9999,
      "fzfg": false,
      "metar_trigger": false,
      "taf_trigger": false,
      "metar": "METAR LZTT 131230Z 26015KT 220V280 9999 SCT040 11/00 Q1005 NOSIG",
      "taf": "TAF LZTT 131115Z 1312/1412 27014KT 9999 SCT035"
    },
    {
      "icao": "OEJN",
      "alert": "OK",
      "vis_m": 9999,
      "fzfg": false,
      "metar_trigger": false,
      "taf_trigger": false,
      "metar": "METAR OEJN 131200Z 29010KT CAVOK 37/11 Q1005 NOSIG",
      "taf": "TAF OEJN 131100Z 1312/1418 32012KT CAVOK"
    },
    {
      "icao": "OEMA",
      "alert": "OK",
      "vis_m": 9999,
      "fzfg": false,
      "metar_trigger": false,
      "taf_trigger": false,
      "metar": "METAR OEMA 131200Z 24008KT CAVOK 41/M04 Q1009 NOSIG",
      "taf": "TAF OEMA 131100Z 1312/1418 27015KT CAVOK"
    },
    {
      "icao": "OJAI",
      "alert": "OK",
      "vis_m": 4000,
      "fzfg": false,
      "metar_trigger": false,
      "taf_trigger": false,
      "metar": "METAR OJAI 131200Z 28012KT 4000 DU NSC 30/08 Q1015 NOSIG",
      "taf": "TAF OJAI 131100Z 1312/1418 25012KT 5000 HZ NSC"
    },
    {
      "icao": "OMAA",
      "alert": "OK",
      "vis_m": 9999,
      "fzfg": false,
      "metar_trigger": false,
      "taf_trigger": false,
      "metar": "METAR OMAA 131230Z 31015KT CAVOK 37/10 Q1002 NOSIG",
      "taf": "TAF OMAA 131100Z 1312/1418 32012KT 8000 NSC"
    },
    {
      "icao": "OMDB",
      "alert": "OK",
      "vis_m": 9999,
      "fzfg": false,
      "metar_trigger": false,
      "taf_trigger": false,
      "metar": "METAR OMDB 131230Z 28013KT CAVOK 36/15 Q1001 NOSIG",
      "taf": "TAF OMDB 131100Z 1312/1418 28013KT CAVOK"
    },
    {
      "icao": "UAAA",
      "alert": "OK",
      "vis_m": 9999,
      "fzfg": false,
      "metar_trigger": false,
      "taf_trigger": false,
      "metar": "METAR UAAA 131200Z 01003MPS 9999 FEW050CB SCT100 19/06 Q1018 NOSIG",
      "taf": "TAF UAAA 131101Z 1312/1412 20003MPS 9999 FEW050CB SCT100 TX21/1406Z TN08/1401Z"
    },
    {
      "icao": "UBBB",
      "alert": "OK",
      "vis_m": 9999,
      "fzfg": false,
      "metar_trigger": false,
      "taf_trigger": false,
      "metar": "METAR UBBB 131230Z 18010KT CAVOK 27/14 Q1000 NOSIG",
      "taf": "TAF UBBB 131050Z 1312/1412 19008KT 9999 FEW040 TX27/1312Z TN15/1401Z"
    },
    {
      "icao": "UDSG",
      "alert": "OK",
      "vis_m": 9999,
      "fzfg": false,
      "metar_trigger": false,
      "taf_trigger": false,
      "metar": "METAR UDSG 131200Z 13013KT 9999 VCTS BKN036CB 11/08 Q1010 TEMPO -TSRA",
      "taf": "TAF UDSG 131100Z 1312/1412 27006KT 9999 SCT040"
    },
    {
      "icao": "UDYZ",
      "alert": "OK",
      "vis_m": 9999,
      "fzfg": false,
      "metar_trigger": false,
      "taf_trigger": false,
      "metar": "METAR UDYZ 131200Z 04005KT 9999 BKN043CB 23/11 Q1004 TEMPO -TSRA",
      "taf": "TAF UDYZ 131100Z 1312/1412 24006KT 9999 SCT040"
    },
    {
      "icao": "UGKO",
      "alert": "OK",
      "vis_m": 9999,
      "fzfg": false,
      "metar_trigger": false,
      "taf_trigger": false,
      "metar": "METAR UGKO 131200Z VRB02KT 9999 SCT022CB BKN082 17/15 Q1006 NOSIG",
      "taf": "TAF UGKO 131100Z 1312/1412 25010KT 9999 SCT033 BKN050 TX29/1411Z TN12/1402Z"
    }
  ]
}