{
  "ts_utc": "2026-07-09T21:58:17Z",
  "threshold_m": 150,
  "source": "stations_override.txt (ICAO list) + aviationweather.gov (METAR/TAF raw)",
  "station_count": 159,
  "stations": [
    {
      "icao": "BIKF",
      "alert": "OK",
      "vis_m": 9999,
      "fzfg": false,
      "metar_trigger": false,
      "taf_trigger": false,
      "metar": "METAR BIKF 092130Z 26011KT 9999 FEW011 BKN055 10/08 Q1000",
      "taf": "TAF BIKF 091954Z 0921/1021 27012KT 9999 -SHRA FEW010 BKN025 TX11/1014Z TN08/1001Z"
    },
    {
      "icao": "BKPR",
      "alert": "OK",
      "vis_m": null,
      "fzfg": false,
      "metar_trigger": false,
      "taf_trigger": false,
      "metar": "",
      "taf": "TAF BKPR 091730Z 0918/1018 33008KT CAVOK"
    },
    {
      "icao": "EBCI",
      "alert": "OK",
      "vis_m": 9999,
      "fzfg": false,
      "metar_trigger": false,
      "taf_trigger": false,
      "metar": "METAR EBCI 092150Z 06006KT CAVOK 21/14 Q1017 NOSIG",
      "taf": "TAF EBCI 091700Z 0918/1024 06005KT CAVOK"
    },
    {
      "icao": "EDDB",
      "alert": "OK",
      "vis_m": 9999,
      "fzfg": false,
      "metar_trigger": false,
      "taf_trigger": false,
      "metar": "METAR EDDB 092150Z AUTO 26004KT CAVOK 16/13 Q1016 NOSIG",
      "taf": "TAF EDDB 091700Z 0918/1018 31010KT CAVOK"
    },
    {
      "icao": "EDDH",
      "alert": "OK",
      "vis_m": 9999,
      "fzfg": false,
      "metar_trigger": false,
      "taf_trigger": false,
      "metar": "METAR EDDH 092150Z AUTO 31008KT 280V340 9999 OVC014 16/13 Q1017 TEMPO OVC015",
      "taf": "TAF EDDH 091700Z 0918/1024 30009KT 9999 FEW020"
    },
    {
      "icao": "EDDK",
      "alert": "OK",
      "vis_m": 9999,
      "fzfg": false,
      "metar_trigger": false,
      "taf_trigger": false,
      "metar": "METAR EDDK 092150Z AUTO 06005KT CAVOK 16/13 Q1018 NOSIG",
      "taf": "TAF EDDK 091700Z 0918/1024 35007KT CAVOK"
    },
    {
      "icao": "EDDN",
      "alert": "OK",
      "vis_m": 9999,
      "fzfg": false,
      "metar_trigger": false,
      "taf_trigger": false,
      "metar": "METAR EDDN 092150Z AUTO 35002KT CAVOK 16/13 Q1017",
      "taf": "TAF EDDN 091700Z 0918/1018 36006KT CAVOK"
    },
    {
      "icao": "EDDS",
      "alert": "OK",
      "vis_m": 9999,
      "fzfg": false,
      "metar_trigger": false,
      "taf_trigger": false,
      "metar": "METAR EDDS 092150Z AUTO 06002KT CAVOK 19/12 Q1016",
      "taf": "TAF EDDS 091700Z 0918/1018 02006KT CAVOK"
    },
    {
      "icao": "EDFH",
      "alert": "OK",
      "vis_m": 9999,
      "fzfg": false,
      "metar_trigger": false,
      "taf_trigger": false,
      "metar": "METAR EDFH 092150Z 02008KT CAVOK 18/13 Q1018",
      "taf": "TAF EDFH 091700Z 0918/1018 02008KT CAVOK"
    },
    {
      "icao": "EDJA",
      "alert": "OK",
      "vis_m": 9999,
      "fzfg": false,
      "metar_trigger": false,
      "taf_trigger": false,
      "metar": "METAR EDJA 092150Z AUTO 07004KT 9999 // NCD 16/13 Q1018",
      "taf": "TAF EDJA 091700Z 0918/1003 05004KT CAVOK"
    },
    {
      "icao": "EDLW",
      "alert": "OK",
      "vis_m": 9999,
      "fzfg": false,
      "metar_trigger": false,
      "taf_trigger": false,
      "metar": "METAR EDLW 092150Z AUTO 02003KT 360V060 9999 // NCD 16/14 Q1018",
      "taf": "TAF EDLW 091700Z 0918/1018 03005KT 9999 FEW035"
    },
    {
      "icao": "EDNY",
      "alert": "OK",
      "vis_m": 9999,
      "fzfg": false,
      "metar_trigger": false,
      "taf_trigger": false,
      "metar": "METAR EDNY 092150Z AUTO 05005KT 9999 // NCD 22/13 Q1016",
      "taf": "TAF EDNY 091700Z 0918/1003 04006KT CAVOK"
    },
    {
      "icao": "EDSB",
      "alert": "OK",
      "vis_m": 9999,
      "fzfg": false,
      "metar_trigger": false,
      "taf_trigger": false,
      "metar": "METAR EDSB 092150Z AUTO 02006KT 9999 // NCD 22/13 Q1015",
      "taf": "TAF EDSB 091700Z 0918/1018 02009KT CAVOK"
    },
    {
      "icao": "EETN",
      "alert": "OK",
      "vis_m": 9999,
      "fzfg": false,
      "metar_trigger": false,
      "taf_trigger": false,
      "metar": "METAR EETN 092150Z 06004KT CAVOK 15/14 Q1011 NOSIG",
      "taf": "TAF EETN 091730Z 0918/1018 06007KT 9999 FEW025"
    },
    {
      "icao": "EFTU",
      "alert": "OK",
      "vis_m": 9999,
      "fzfg": false,
      "metar_trigger": false,
      "taf_trigger": false,
      "metar": "METAR EFTU 092150Z AUTO 02003KT CAVOK 14/14 Q1012",
      "taf": "TAF EFTU 092037Z 0921/1021 33003KT CAVOK"
    },
    {
      "icao": "EGBB",
      "alert": "OK",
      "vis_m": 9999,
      "fzfg": false,
      "metar_trigger": false,
      "taf_trigger": false,
      "metar": "METAR EGBB 092150Z 34006KT CAVOK 24/14 Q1017",
      "taf": "TAF EGBB 091658Z 0918/1018 VRB04KT CAVOK"
    },
    {
      "icao": "EGGP",
      "alert": "OK",
      "vis_m": 7000,
      "fzfg": false,
      "metar_trigger": false,
      "taf_trigger": false,
      "metar": "METAR EGGP 092150Z 31007KT 7000 NSC 16/14 Q1018",
      "taf": ""
    },
    {
      "icao": "EGGW",
      "alert": "OK",
      "vis_m": 9999,
      "fzfg": false,
      "metar_trigger": false,
      "taf_trigger": false,
      "metar": "METAR EGGW 092150Z AUTO 13007KT 9999 NCD 23/16 Q1017",
      "taf": "TAF EGGW 091649Z 0918/1018 17007KT CAVOK"
    },
    {
      "icao": "EGKK",
      "alert": "OK",
      "vis_m": 9999,
      "fzfg": false,
      "metar_trigger": false,
      "taf_trigger": false,
      "metar": "METAR EGKK 092150Z 13005KT CAVOK 25/16 Q1017",
      "taf": "TAF EGKK 091654Z 0918/1024 20010KT CAVOK"
    },
    {
      "icao": "EGNM",
      "alert": "OK",
      "vis_m": 9999,
      "fzfg": false,
      "metar_trigger": false,
      "taf_trigger": false,
      "metar": "METAR EGNM 092150Z 27007KT CAVOK 19/16 Q1018",
      "taf": ""
    },
    {
      "icao": "EGPD",
      "alert": "OK",
      "vis_m": 9999,
      "fzfg": false,
      "metar_trigger": false,
      "taf_trigger": false,
      "metar": "METAR EGPD 092150Z AUTO 01003KT 9999 NCD 15/13 Q1018",
      "taf": "TAF EGPD 091658Z 0918/1018 09008KT 9999 FEW040"
    },
    {
      "icao": "EGPF",
      "alert": "OK",
      "vis_m": 9999,
      "fzfg": false,
      "metar_trigger": false,
      "taf_trigger": false,
      "metar": "METAR EGPF 092150Z AUTO 28007KT 9999 NCD 17/14 Q1019",
      "taf": "TAF EGPF 091651Z 0918/1018 29006KT 9999 FEW025"
    },
    {
      "icao": "EHBK",
      "alert": "OK",
      "vis_m": 9999,
      "fzfg": false,
      "metar_trigger": false,
      "taf_trigger": false,
      "metar": "METAR EHBK 092125Z AUTO 06006KT 9999 NCD 20/14 Q1017",
      "taf": "TAF EHBK 091700Z 0918/1024 06007KT CAVOK"
    },
    {
      "icao": "EHEH",
      "alert": "OK",
      "vis_m": 9999,
      "fzfg": false,
      "metar_trigger": false,
      "taf_trigger": false,
      "metar": "METAR EHEH 092125Z AUTO 05005KT 9999 BKN320 20/15 Q1018 BLU",
      "taf": "TAF EHEH 091715Z 0918/1024 06006KT CAVOK"
    },
    {
      "icao": "EKBI",
      "alert": "OK",
      "vis_m": 9999,
      "fzfg": false,
      "metar_trigger": false,
      "taf_trigger": false,
      "metar": "METAR EKBI 092150Z AUTO 30005KT 270V330 9999 BKN005/// 14/13 Q1017",
      "taf": "TAF EKBI 092027Z 0921/1021 30006KT CAVOK"
    },
    {
      "icao": "EKCH",
      "alert": "OK",
      "vis_m": 9999,
      "fzfg": false,
      "metar_trigger": false,
      "taf_trigger": false,
      "metar": "METAR EKCH 092150Z AUTO 31005KT 290V020 9999 NCD 18/09 Q1015 NOSIG",
      "taf": "TAF EKCH 092027Z 0921/1021 33008KT CAVOK"
    },
    {
      "icao": "ENAL",
      "alert": "OK",
      "vis_m": 9999,
      "fzfg": false,
      "metar_trigger": false,
      "taf_trigger": false,
      "metar": "METAR ENAL 092150Z AUTO 25009KT 9999 OVC045/// 15/12 Q1017",
      "taf": "TAF ENAL 092000Z 0921/1006 26012KT 9999 FEW020 BKN040"
    },
    {
      "icao": "ENBR",
      "alert": "OK",
      "vis_m": 9999,
      "fzfg": false,
      "metar_trigger": false,
      "taf_trigger": false,
      "metar": "METAR ENBR 092150Z 34005KT 9999 FEW025 13/12 Q1018 RMK WIND 1200FT 36011KT",
      "taf": "TAF ENBR 091700Z 0918/1018 33008KT 9999 FEW030"
    },
    {
      "icao": "ENGM",
      "alert": "OK",
      "vis_m": 9999,
      "fzfg": false,
      "metar_trigger": false,
      "taf_trigger": false,
      "metar": "METAR ENGM 092150Z 34003KT CAVOK 18/12 Q1015",
      "taf": "TAF ENGM 091700Z 0918/1018 36004KT CAVOK"
    },
    {
      "icao": "ENHD",
      "alert": "OK",
      "vis_m": 9999,
      "fzfg": false,
      "metar_trigger": false,
      "taf_trigger": false,
      "metar": "METAR ENHD 092150Z AUTO 34011KT 9999 NCD 14/13 Q1017",
      "taf": "TAF ENHD 091400Z 0915/0922 34012KT 9999 FEW010"
    },
    {
      "icao": "ENTC",
      "alert": "OK",
      "vis_m": 9999,
      "fzfg": false,
      "metar_trigger": false,
      "taf_trigger": false,
      "metar": "METAR ENTC 092150Z 00000KT 9999 BKN059 11/09 Q1013 RMK WIND 2600FT 19021KT",
      "taf": "TAF ENTC 091700Z 0918/1018 26008KT 9999 SCT018 BKN030"
    },
    {
      "icao": "ENTO",
      "alert": "OK",
      "vis_m": 3500,
      "fzfg": false,
      "metar_trigger": false,
      "taf_trigger": false,
      "metar": "METAR ENTO 092150Z AUTO 29003KT 260V340 3500 // NCD 17/08 Q1015",
      "taf": "TAF ENTO 091700Z 0918/1018 22010KT CAVOK"
    },
    {
      "icao": "ENVA",
      "alert": "OK",
      "vis_m": 9999,
      "fzfg": false,
      "metar_trigger": false,
      "taf_trigger": false,
      "metar": "METAR ENVA 092150Z VRB01KT 9999 BKN032 14/13 Q1018 RMK WIND 670FT 00000KT",
      "taf": "TAF ENVA 091700Z 0918/1018 VRB05KT 9999 BKN030"
    },
    {
      "icao": "ENZV",
      "alert": "OK",
      "vis_m": 9999,
      "fzfg": false,
      "metar_trigger": false,
      "taf_trigger": false,
      "metar": "METAR ENZV 092150Z 30004KT CAVOK 16/13 Q1017",
      "taf": "TAF ENZV 091700Z 0918/1018 32008KT 9999 FEW030"
    },
    {
      "icao": "EPGD",
      "alert": "OK",
      "vis_m": 9999,
      "fzfg": false,
      "metar_trigger": false,
      "taf_trigger": false,
      "metar": "METAR EPGD 092130Z 31009KT CAVOK 13/11 Q1013",
      "taf": "TAF EPGD 091730Z 0918/1018 32016KT CAVOK"
    },
    {
      "icao": "EPKK",
      "alert": "OK",
      "vis_m": 9999,
      "fzfg": false,
      "metar_trigger": false,
      "taf_trigger": false,
      "metar": "METAR EPKK 092130Z 24003KT CAVOK 13/10 Q1014",
      "taf": "TAF EPKK 092030Z 0921/1021 29007KT CAVOK"
    },
    {
      "icao": "EPKT",
      "alert": "OK",
      "vis_m": 9999,
      "fzfg": false,
      "metar_trigger": false,
      "taf_trigger": false,
      "metar": "METAR EPKT 092130Z 26002KT CAVOK 10/10 Q1014",
      "taf": "TAF EPKT 091730Z 0918/1018 30006KT CAVOK"
    },
    {
      "icao": "EPLB",
      "alert": "OK",
      "vis_m": 9999,
      "fzfg": false,
      "metar_trigger": false,
      "taf_trigger": false,
      "metar": "METAR EPLB 092130Z 27008KT CAVOK 15/11 Q1011",
      "taf": "TAF EPLB 091730Z 0918/1018 29010KT 9999 BKN030"
    },
    {
      "icao": "EPMO",
      "alert": "OK",
      "vis_m": 9999,
      "fzfg": false,
      "metar_trigger": false,
      "taf_trigger": false,
      "metar": "METAR EPMO 092130Z 29008KT 9999 FEW048 15/11 Q1012",
      "taf": "TAF EPMO 091730Z 0918/1018 29012KT 9999 SCT040"
    },
    {
      "icao": "EPPO",
      "alert": "OK",
      "vis_m": 9999,
      "fzfg": false,
      "metar_trigger": false,
      "taf_trigger": false,
      "metar": "METAR EPPO 092130Z 32004KT CAVOK 15/08 Q1015",
      "taf": "TAF EPPO 091730Z 0918/1018 32012KT CAVOK"
    },
    {
      "icao": "EPRA",
      "alert": "OK",
      "vis_m": 9999,
      "fzfg": false,
      "metar_trigger": false,
      "taf_trigger": false,
      "metar": "METAR EPRA 092130Z 28006KT CAVOK 16/10 Q1012",
      "taf": "TAF EPRA 092030Z 0921/1006 27006KT CAVOK"
    },
    {
      "icao": "EPRZ",
      "alert": "OK",
      "vis_m": 9999,
      "fzfg": false,
      "metar_trigger": false,
      "taf_trigger": false,
      "metar": "METAR EPRZ 092130Z 25005KT CAVOK 14/13 Q1013",
      "taf": "TAF EPRZ 091730Z 0918/1018 27008KT CAVOK"
    },
    {
      "icao": "EPSC",
      "alert": "OK",
      "vis_m": 9999,
      "fzfg": false,
      "metar_trigger": false,
      "taf_trigger": false,
      "metar": "METAR EPSC 092130Z VRB01KT CAVOK 14/13 Q1015",
      "taf": "TAF EPSC 091730Z 0918/1018 34010KT CAVOK"
    },
    {
      "icao": "EPSY",
      "alert": "OK",
      "vis_m": 9999,
      "fzfg": false,
      "metar_trigger": false,
      "taf_trigger": false,
      "metar": "METAR EPSY 092130Z 31010KT 9999 BKN017 14/11 Q1010",
      "taf": "TAF EPSY 092030Z 0921/1006 31010KT 9999 SCT030"
    },
    {
      "icao": "EPWA",
      "alert": "OK",
      "vis_m": 9999,
      "fzfg": false,
      "metar_trigger": false,
      "taf_trigger": false,
      "metar": "METAR EPWA 092130Z 29007KT 9999 -RA NSC 14/13 Q1012 NOSIG",
      "taf": "TAF EPWA 092030Z 0921/1021 29010KT 9999 SCT040"
    },
    {
      "icao": "EPWR",
      "alert": "OK",
      "vis_m": 9999,
      "fzfg": false,
      "metar_trigger": false,
      "taf_trigger": false,
      "metar": "METAR EPWR 092130Z 28004KT CAVOK 16/10 Q1015",
      "taf": "TAF EPWR 092030Z 0921/1021 31004KT CAVOK"
    },
    {
      "icao": "ESGG",
      "alert": "OK",
      "vis_m": 9999,
      "fzfg": false,
      "metar_trigger": false,
      "taf_trigger": false,
      "metar": "METAR ESGG 092150Z 32004KT CAVOK 17/08 Q1015",
      "taf": "TAF ESGG 092030Z 0921/1021 32006KT CAVOK"
    },
    {
      "icao": "ESKN",
      "alert": "OK",
      "vis_m": 9999,
      "fzfg": false,
      "metar_trigger": false,
      "taf_trigger": false,
      "metar": "METAR ESKN 092150Z 35004KT 330V030 CAVOK 16/10 Q1014",
      "taf": "TAF ESKN 092030Z 0921/1021 35010KT CAVOK"
    },
    {
      "icao": "ESMS",
      "alert": "OK",
      "vis_m": 9999,
      "fzfg": false,
      "metar_trigger": false,
      "taf_trigger": false,
      "metar": "METAR ESMS 092150Z 29005KT CAVOK 14/09 Q1015",
      "taf": "TAF ESMS 092027Z 0921/1021 33008KT CAVOK"
    },
    {
      "icao": "ESSA",
      "alert": "OK",
      "vis_m": 9999,
      "fzfg": false,
      "metar_trigger": false,
      "taf_trigger": false,
      "metar": "METAR ESSA 092150Z 35004KT CAVOK 10/07 Q1014 NOSIG",
      "taf": "TAF ESSA 092030Z 0921/1021 36010KT CAVOK"
    },
    {
      "icao": "EYKA",
      "alert": "OK",
      "vis_m": 9999,
      "fzfg": false,
      "metar_trigger": false,
      "taf_trigger": false,
      "metar": "METAR EYKA 092150Z 28003KT 9999 FEW025 SCT043 14/12 Q1006",
      "taf": "TAF EYKA 091700Z 0918/1018 VRB03KT 8000 SCT010 SCT015"
    },
    {
      "icao": "EYPA",
      "alert": "OK",
      "vis_m": 9999,
      "fzfg": false,
      "metar_trigger": false,
      "taf_trigger": false,
      "metar": "METAR EYPA 092150Z 01005KT 330V040 CAVOK 15/13 Q1009",
      "taf": "TAF EYPA 091700Z 0918/1018 35009KT 8000 FEW010 SCT015"
    },
    {
      "icao": "EYVI",
      "alert": "OK",
      "vis_m": 7000,
      "fzfg": false,
      "metar_trigger": false,
      "taf_trigger": false,
      "metar": "METAR EYVI 092150Z VRB01KT 7000 NSC 10/10 Q1006 TEMPO 0600 FG",
      "taf": "TAF EYVI 091713Z 0918/1018 VRB03KT 5000 BR FEW010 SCT015"
    },
    {
      "icao": "GCFV",
      "alert": "OK",
      "vis_m": 9999,
      "fzfg": false,
      "metar_trigger": false,
      "taf_trigger": false,
      "metar": "METAR GCFV 092130Z 35018KT 9999 FEW022 23/18 Q1017",
      "taf": "TAF GCFV 092000Z 0921/1021 36013KT 9999 SCT020 TX26/1014Z TN21/1006Z"
    },
    {
      "icao": "GCLP",
      "alert": "OK",
      "vis_m": 9999,
      "fzfg": false,
      "metar_trigger": false,
      "taf_trigger": false,
      "metar": "METAR GCLP 092130Z 01024KT 9999 FEW025 23/18 Q1017 NOSIG",
      "taf": "TAF GCLP 092000Z 0921/1021 01020KT 9999 FEW025 TX26/1014Z TN19/1006Z"
    },
    {
      "icao": "GCTS",
      "alert": "OK",
      "vis_m": 9999,
      "fzfg": false,
      "metar_trigger": false,
      "taf_trigger": false,
      "metar": "METAR GCTS 092130Z VRB02KT 9999 FEW025 23/19 Q1018 NOSIG",
      "taf": "TAF GCTS 092000Z 0921/1021 04006KT CAVOK TX27/1014Z TN19/1006Z"
    },
    {
      "icao": "GMAD",
      "alert": "OK",
      "vis_m": 8000,
      "fzfg": false,
      "metar_trigger": false,
      "taf_trigger": false,
      "metar": "METAR GMAD 092130Z 19010KT 8000 BKN010 22/19 Q1013 NOSIG",
      "taf": "TAF GMAD 091700Z 0918/1024 26015KT 8000 SCT013"
    },
    {
      "icao": "GMMN",
      "alert": "OK",
      "vis_m": 9999,
      "fzfg": false,
      "metar_trigger": false,
      "taf_trigger": false,
      "metar": "METAR GMMN 092130Z 35007KT 9999 FEW020 21/17 Q1016 NOSIG",
      "taf": "TAF GMMN 091700Z 0918/1024 34011KT CAVOK"
    },
    {
      "icao": "GMMX",
      "alert": "OK",
      "vis_m": 9999,
      "fzfg": false,
      "metar_trigger": false,
      "taf_trigger": false,
      "metar": "METAR GMMX 092130Z 31008KT 270V350 CAVOK 28/16 Q1015 NOSIG",
      "taf": "TAF GMMX 091700Z 0918/1024 28006KT CAVOK"
    },
    {
      "icao": "HEGN",
      "alert": "OK",
      "vis_m": 9999,
      "fzfg": false,
      "metar_trigger": false,
      "taf_trigger": false,
      "metar": "METAR HEGN 092100Z 28010KT CAVOK 31/05 Q1008 NOSIG",
      "taf": "TAF HEGN 091700Z 0918/1024 30014KT CAVOK"
    },
    {
      "icao": "HEMA",
      "alert": "OK",
      "vis_m": 9999,
      "fzfg": false,
      "metar_trigger": false,
      "taf_trigger": false,
      "metar": "METAR HEMA 092100Z 24008KT CAVOK 29/10 Q1008 NOSIG",
      "taf": "TAF HEMA 091700Z 0918/1024 32014KT CAVOK"
    },
    {
      "icao": "HESH",
      "alert": "OK",
      "vis_m": 9999,
      "fzfg": false,
      "metar_trigger": false,
      "taf_trigger": false,
      "metar": "METAR HESH 092100Z 03004KT CAVOK 30/09 Q1006 NOSIG",
      "taf": "TAF HESH 091700Z 0918/1024 35012KT CAVOK"
    },
    {
      "icao": "HESX",
      "alert": "OK",
      "vis_m": 9999,
      "fzfg": false,
      "metar_trigger": false,
      "taf_trigger": false,
      "metar": "METAR HESX 092100Z 05005KT CAVOK 26/15 Q1010 NOSIG",
      "taf": "TAF HESX 091700Z 0918/1024 34010KT CAVOK"
    },
    {
      "icao": "LATI",
      "alert": "OK",
      "vis_m": 9999,
      "fzfg": false,
      "metar_trigger": false,
      "taf_trigger": false,
      "metar": "METAR LATI 092150Z VRB02KT CAVOK 20/14 Q1011 NOSIG",
      "taf": "TAF LATI 091700Z 0918/1018 34010KT CAVOK TX34/1011Z TN18/1004Z"
    },
    {
      "icao": "LBPD",
      "alert": "OK",
      "vis_m": 9999,
      "fzfg": false,
      "metar_trigger": false,
      "taf_trigger": false,
      "metar": "METAR LBPD 092130Z AUTO 07003KT 040V100 9999 BKN095/// 19/12 Q1012",
      "taf": "TAF LBPD 091700Z 0918/1018 30012KT 9999 SCT060"
    },
    {
      "icao": "LBSF",
      "alert": "OK",
      "vis_m": 9999,
      "fzfg": false,
      "metar_trigger": false,
      "taf_trigger": false,
      "metar": "METAR LBSF 092130Z AUTO 30005KT 9999 NCD 16/05 Q1015 NOSIG",
      "taf": "TAF LBSF 091700Z 0918/1018 29010KT 9999 SCT060"
    },
    {
      "icao": "LBWN",
      "alert": "OK",
      "vis_m": 9999,
      "fzfg": false,
      "metar_trigger": false,
      "taf_trigger": false,
      "metar": "METAR LBWN 092130Z AUTO 04017KT 9999 NSC 17/12 Q1011 NOSIG",
      "taf": "TAF LBWN 091700Z 0918/1018 VRB04KT 9999 SCT040"
    },
    {
      "icao": "LCLK",
      "alert": "OK",
      "vis_m": 9999,
      "fzfg": false,
      "metar_trigger": false,
      "taf_trigger": false,
      "metar": "METAR LCLK 092130Z 22005KT CAVOK 25/23 Q1007 NOSIG",
      "taf": "TAF LCLK 091730Z 0918/1018 24007KT 9999 FEW018"
    },
    {
      "icao": "LCPH",
      "alert": "OK",
      "vis_m": 9999,
      "fzfg": false,
      "metar_trigger": false,
      "taf_trigger": false,
      "metar": "METAR LCPH 092130Z 01006KT 9999 FEW018 24/20 Q1007 NOSIG",
      "taf": "TAF LCPH 091730Z 0918/1018 02007KT 9999 FEW018"
    },
    {
      "icao": "LEAL",
      "alert": "OK",
      "vis_m": 9999,
      "fzfg": false,
      "metar_trigger": false,
      "taf_trigger": false,
      "metar": "METAR LEAL 092130Z 12002KT CAVOK 27/23 Q1010 NOSIG",
      "taf": ""
    },
    {
      "icao": "LEBB",
      "alert": "OK",
      "vis_m": 9999,
      "fzfg": false,
      "metar_trigger": false,
      "taf_trigger": false,
      "metar": "METAR LEBB 092130Z 31005KT 9999 OVC019CB 25/22 Q1012 TEMPO TSRA",
      "taf": ""
    },
    {
      "icao": "LEBL",
      "alert": "OK",
      "vis_m": 9999,
      "fzfg": false,
      "metar_trigger": false,
      "taf_trigger": false,
      "metar": "METAR LEBL 092130Z 36002KT CAVOK 28/17 Q1011 NOSIG",
      "taf": "TAF LEBL 091700Z 0918/1018 16007KT CAVOK TX35/1012Z TN24/1006Z"
    },
    {
      "icao": "LECH",
      "alert": "OK",
      "vis_m": 9999,
      "fzfg": false,
      "metar_trigger": false,
      "taf_trigger": false,
      "metar": "METAR LECH 092130Z AUTO 03006KT CAVOK 25/20 Q1012",
      "taf": "TAF LECH 091700Z 0918/1018 09008KT CAVOK TX35/1012Z TN20/1006Z"
    },
    {
      "icao": "LEMD",
      "alert": "OK",
      "vis_m": 9999,
      "fzfg": false,
      "metar_trigger": false,
      "taf_trigger": false,
      "metar": "METAR LEMD 092130Z 27006KT 240V300 CAVOK 32/02 Q1010 NOSIG",
      "taf": "TAF LEMD 091700Z 0918/1024 VRB04KT CAVOK TX36/1016Z TN20/1005Z"
    },
    {
      "icao": "LEMG",
      "alert": "OK",
      "vis_m": 9999,
      "fzfg": false,
      "metar_trigger": false,
      "taf_trigger": false,
      "metar": "METAR LEMG 092130Z 29009KT CAVOK 30/05 Q1010 NOSIG",
      "taf": "TAF LEMG 091700Z 0918/1018 18010KT CAVOK TX36/1014Z TN20/1005Z"
    },
    {
      "icao": "LEVC",
      "alert": "OK",
      "vis_m": 9999,
      "fzfg": false,
      "metar_trigger": false,
      "taf_trigger": false,
      "metar": "METAR LEVC 092130Z 07005KT 030V110 CAVOK 27/24 Q1009 NOSIG",
      "taf": "TAF LEVC 091700Z 0918/1018 07009KT 9999 FEW015 TX32/1014Z TN22/1006Z"
    },
    {
      "icao": "LEXJ",
      "alert": "OK",
      "vis_m": 9999,
      "fzfg": false,
      "metar_trigger": false,
      "taf_trigger": false,
      "metar": "METAR LEXJ 092130Z AUTO 00000KT 9999 OVC016 23/21 Q1012",
      "taf": "TAF LEXJ 092000Z 0921/1021 VRB03KT 9999 BKN018 TX27/1013Z TN22/1005Z"
    },
    {
      "icao": "LEZG",
      "alert": "OK",
      "vis_m": 9999,
      "fzfg": false,
      "metar_trigger": false,
      "taf_trigger": false,
      "metar": "METAR LEZG 092130Z 17008KT 110V210 CAVOK 34/05 Q1008 TEMPO TS FEW120CB",
      "taf": ""
    },
    {
      "icao": "LEZL",
      "alert": "OK",
      "vis_m": 9999,
      "fzfg": false,
      "metar_trigger": false,
      "taf_trigger": false,
      "metar": "METAR LEZL 092130Z 21008KT 190V250 CAVOK 24/19 Q1012 NOSIG",
      "taf": "TAF LEZL 092000Z 0921/1021 22009KT CAVOK TX34/1015Z TN18/1005Z"
    },
    {
      "icao": "LFBD",
      "alert": "OK",
      "vis_m": 9999,
      "fzfg": false,
      "metar_trigger": false,
      "taf_trigger": false,
      "metar": "METAR LFBD 092130Z AUTO 32003KT 270V340 CAVOK 30/16 Q1010 NOSIG",
      "taf": "TAF LFBD 091700Z 0918/1024 02010KT CAVOK TX37/1015Z TN24/1006Z"
    },
    {
      "icao": "LFLL",
      "alert": "OK",
      "vis_m": 9999,
      "fzfg": false,
      "metar_trigger": false,
      "taf_trigger": false,
      "metar": "METAR LFLL 092130Z 27004KT CAVOK 27/11 Q1012 NOSIG",
      "taf": "TAF LFLL 091700Z 0918/1024 35012KT CAVOK"
    },
    {
      "icao": "LFLS",
      "alert": "OK",
      "vis_m": 9999,
      "fzfg": false,
      "metar_trigger": false,
      "taf_trigger": false,
      "metar": "METAR LFLS 092130Z AUTO VRB02KT CAVOK 23/11 Q1013",
      "taf": "TAF LFLS 091400Z 0915/1015 35010KT CAVOK"
    },
    {
      "icao": "LFMN",
      "alert": "OK",
      "vis_m": 9999,
      "fzfg": false,
      "metar_trigger": false,
      "taf_trigger": false,
      "metar": "METAR LFMN 092130Z 31006KT CAVOK 28/18 Q1010 NOSIG",
      "taf": "TAF LFMN 092000Z 0921/1103 VRB03KT CAVOK"
    },
    {
      "icao": "LFOB",
      "alert": "OK",
      "vis_m": 9999,
      "fzfg": false,
      "metar_trigger": false,
      "taf_trigger": false,
      "metar": "METAR LFOB 092130Z AUTO 05006KT CAVOK 23/15 Q1016 NOSIG",
      "taf": "TAF LFOB 091700Z 0918/1018 04010KT CAVOK"
    },
    {
      "icao": "LFPO",
      "alert": "OK",
      "vis_m": 9999,
      "fzfg": false,
      "metar_trigger": false,
      "taf_trigger": false,
      "metar": "METAR LFPO 092130Z AUTO 04010KT CAVOK 28/12 Q1015 NOSIG",
      "taf": "TAF LFPO 091700Z 0918/1024 04010KT CAVOK"
    },
    {
      "icao": "LFSB",
      "alert": "OK",
      "vis_m": 9999,
      "fzfg": false,
      "metar_trigger": false,
      "taf_trigger": false,
      "metar": "METAR LFSB 092130Z AUTO 33008KT 9999 FEW008 22/12 Q1014 NOSIG",
      "taf": "TAF LFSB 091700Z 0918/1018 36010KT CAVOK"
    },
    {
      "icao": "LGAV",
      "alert": "OK",
      "vis_m": 9999,
      "fzfg": false,
      "metar_trigger": false,
      "taf_trigger": false,
      "metar": "METAR LGAV 092120Z VRB01KT 9999 FEW025 24/18 Q1011 NOSIG",
      "taf": "TAF LGAV 091700Z 0918/1018 04008KT 9999 FEW025 SCT070"
    },
    {
      "icao": "LGTS",
      "alert": "OK",
      "vis_m": 9999,
      "fzfg": false,
      "metar_trigger": false,
      "taf_trigger": false,
      "metar": "METAR LGTS 092150Z 12005KT 9999 FEW020 24/19 Q1010 NOSIG",
      "taf": "TAF LGTS 091700Z 0918/1018 VRB03KT 9999 FEW030"
    },
    {
      "icao": "LHBP",
      "alert": "OK",
      "vis_m": 9999,
      "fzfg": false,
      "metar_trigger": false,
      "taf_trigger": false,
      "metar": "METAR LHBP 092130Z VRB01KT CAVOK 19/07 Q1014 NOSIG",
      "taf": "TAF LHBP 091715Z 0918/1018 02009KT CAVOK"
    },
    {
      "icao": "LHDC",
      "alert": "OK",
      "vis_m": 9999,
      "fzfg": false,
      "metar_trigger": false,
      "taf_trigger": false,
      "metar": "METAR LHDC 092115Z AUTO 04005KT CAVOK 16/08 Q1014",
      "taf": "TAF LHDC 091715Z 0918/1003 35007KT CAVOK"
    },
    {
      "icao": "LIBD",
      "alert": "OK",
      "vis_m": 9999,
      "fzfg": false,
      "metar_trigger": false,
      "taf_trigger": false,
      "metar": "METAR LIBD 092150Z 25004KT CAVOK 22/13 Q1012",
      "taf": "TAF LIBD 091700Z 0918/1018 30005KT CAVOK"
    },
    {
      "icao": "LIBG",
      "alert": "OK",
      "vis_m": 9999,
      "fzfg": false,
      "metar_trigger": false,
      "taf_trigger": false,
      "metar": "METAR LIBG 092150Z AUTO 35007KT 9999 NCD 24/13 Q1012",
      "taf": "TAF LIBG 091700Z 0918/1018 36010KT CAVOK"
    },
    {
      "icao": "LIBP",
      "alert": "OK",
      "vis_m": 9999,
      "fzfg": false,
      "metar_trigger": false,
      "taf_trigger": false,
      "metar": "METAR LIBP 092150Z AUTO VRB01KT 9999 NCD 21/14 Q1013",
      "taf": "TAF LIBP 091700Z 0918/1018 VRB05KT CAVOK"
    },
    {
      "icao": "LIBR",
      "alert": "OK",
      "vis_m": 9999,
      "fzfg": false,
      "metar_trigger": false,
      "taf_trigger": false,
      "metar": "METAR LIBR 092150Z 32010KT CAVOK 26/17 Q1011",
      "taf": "TAF LIBR 091700Z 0918/1018 35012KT CAVOK"
    },
    {
      "icao": "LICA",
      "alert": "OK",
      "vis_m": 9999,
      "fzfg": false,
      "metar_trigger": false,
      "taf_trigger": false,
      "metar": "METAR LICA 092150Z AUTO 09005KT 9999 NCD 23/21 Q1012",
      "taf": "TAF LICA 091700Z 0918/1018 26006KT 9999 FEW070"
    },
    {
      "icao": "LICC",
      "alert": "OK",
      "vis_m": 9999,
      "fzfg": false,
      "metar_trigger": false,
      "taf_trigger": false,
      "metar": "METAR LICC 092150Z 07007KT CAVOK 27/19 Q1011",
      "taf": "TAF LICC 091700Z 0918/1018 09010KT CAVOK"
    },
    {
      "icao": "LICJ",
      "alert": "OK",
      "vis_m": 9999,
      "fzfg": false,
      "metar_trigger": false,
      "taf_trigger": false,
      "metar": "METAR LICJ 092150Z 00000KT CAVOK 26/20 Q1010",
      "taf": "TAF LICJ 091700Z 0918/1018 06010KT CAVOK"
    },
    {
      "icao": "LIMC",
      "alert": "OK",
      "vis_m": 9999,
      "fzfg": false,
      "metar_trigger": false,
      "taf_trigger": false,
      "metar": "METAR LIMC 092150Z 03004KT CAVOK 25/17 Q1012 NOSIG",
      "taf": "TAF LIMC 091700Z 0918/1024 VRB06KT CAVOK"
    },
    {
      "icao": "LIME",
      "alert": "OK",
      "vis_m": 9999,
      "fzfg": false,
      "metar_trigger": false,
      "taf_trigger": false,
      "metar": "METAR LIME 092150Z 01004KT CAVOK 26/16 Q1012 NOSIG",
      "taf": "TAF LIME 091700Z 0918/1018 VRB05KT CAVOK"
    },
    {
      "icao": "LIMF",
      "alert": "OK",
      "vis_m": 9999,
      "fzfg": false,
      "metar_trigger": false,
      "taf_trigger": false,
      "metar": "METAR LIMF 092150Z 34006KT CAVOK 27/17 Q1012",
      "taf": "TAF LIMF 091700Z 0918/1018 VRB05KT CAVOK"
    },
    {
      "icao": "LIMJ",
      "alert": "OK",
      "vis_m": 9999,
      "fzfg": false,
      "metar_trigger": false,
      "taf_trigger": false,
      "metar": "METAR LIMJ 092150Z VRB01KT CAVOK 27/21 Q1010",
      "taf": "TAF LIMJ 091700Z 0918/1018 VRB05KT 9999 FEW020"
    },
    {
      "icao": "LIPE",
      "alert": "OK",
      "vis_m": 9999,
      "fzfg": false,
      "metar_trigger": false,
      "taf_trigger": false,
      "metar": "METAR LIPE 092150Z AUTO 09007KT 9999 NCD 25/16 Q1011",
      "taf": "TAF LIPE 091700Z 0918/1018 10010KT CAVOK"
    },
    {
      "icao": "LIPH",
      "alert": "OK",
      "vis_m": 9999,
      "fzfg": false,
      "metar_trigger": false,
      "taf_trigger": false,
      "metar": "METAR LIPH 092150Z AUTO VRB02KT 9999 OVC053/// 26/20 Q1013",
      "taf": "TAF LIPH 091700Z 0918/1018 15010KT 9999 FEW055"
    },
    {
      "icao": "LIPQ",
      "alert": "OK",
      "vis_m": 9999,
      "fzfg": false,
      "metar_trigger": false,
      "taf_trigger": false,
      "metar": "METAR LIPQ 092150Z AUTO VRB02KT 9999 BKN087/// 23/19 Q1013",
      "taf": "TAF LIPQ 091700Z 0918/1018 VRB05KT 9999 SCT055"
    },
    {
      "icao": "LIPR",
      "alert": "OK",
      "vis_m": 9999,
      "fzfg": false,
      "metar_trigger": false,
      "taf_trigger": false,
      "metar": "METAR LIPR 092050Z 11004KT CAVOK 26/17 Q1011",
      "taf": "TAF LIPR 091700Z 0918/1018 10010KT CAVOK"
    },
    {
      "icao": "LIPX",
      "alert": "OK",
      "vis_m": 9999,
      "fzfg": false,
      "metar_trigger": false,
      "taf_trigger": false,
      "metar": "METAR LIPX 092150Z 09005KT CAVOK 26/15 Q1012",
      "taf": "TAF LIPX 091700Z 0918/1018 VRB05KT CAVOK"
    },
    {
      "icao": "LIPY",
      "alert": "OK",
      "vis_m": 9999,
      "fzfg": false,
      "metar_trigger": false,
      "taf_trigger": false,
      "metar": "METAR LIPY 092150Z AUTO 23005KT 9999 NCD 22/15 Q1012",
      "taf": "TAF LIPY 091700Z 0918/1018 11010KT CAVOK"
    },
    {
      "icao": "LIPZ",
      "alert": "OK",
      "vis_m": 9999,
      "fzfg": false,
      "metar_trigger": false,
      "taf_trigger": false,
      "metar": "METAR LIPZ 092150Z 09005KT 9999 SCT060 26/20 Q1013 NOSIG",
      "taf": "TAF LIPZ 091700Z 0918/1024 15010KT 9999 FEW055"
    },
    {
      "icao": "LIRF",
      "alert": "OK",
      "vis_m": 9999,
      "fzfg": false,
      "metar_trigger": false,
      "taf_trigger": false,
      "metar": "METAR LIRF 092150Z VRB02KT CAVOK 24/23 Q1011 NOSIG",
      "taf": "TAF LIRF 091700Z 0918/1024 VRB05KT CAVOK"
    },
    {
      "icao": "LIRN",
      "alert": "OK",
      "vis_m": 9999,
      "fzfg": false,
      "metar_trigger": false,
      "taf_trigger": false,
      "metar": "METAR LIRN 092150Z 05002KT CAVOK 27/18 Q1012 NOSIG",
      "taf": "TAF LIRN 091700Z 0918/1018 VRB05KT 9999 SCT050"
    },
    {
      "icao": "LIRP",
      "alert": "OK",
      "vis_m": 9999,
      "fzfg": false,
      "metar_trigger": false,
      "taf_trigger": false,
      "metar": "METAR LIRP 092145Z 21004KT CAVOK 22/20 Q1011 NOSIG",
      "taf": "TAF LIRP 091700Z 0918/1018 28010KT CAVOK"
    },
    {
      "icao": "LIRZ",
      "alert": "OK",
      "vis_m": 9999,
      "fzfg": false,
      "metar_trigger": false,
      "taf_trigger": false,
      "metar": "METAR LIRZ 092150Z AUTO 34004KT 300V010 9999 NCD 25/16 Q1012",
      "taf": "TAF LIRZ 091700Z 0918/1018 07012KT 9999 FEW050"
    },
    {
      "icao": "LJLJ",
      "alert": "OK",
      "vis_m": 9999,
      "fzfg": false,
      "metar_trigger": false,
      "taf_trigger": false,
      "metar": "METAR LJLJ 092130Z VRB01KT 9999 FEW060 BKN080 21/16 Q1015 NOSIG",
      "taf": "TAF LJLJ 091700Z 0918/1018 VRB02KT 9999 FEW080 SCT100"
    },
    {
      "icao": "LKMT",
      "alert": "OK",
      "vis_m": 9999,
      "fzfg": false,
      "metar_trigger": false,
      "taf_trigger": false,
      "metar": "METAR LKMT 092130Z 24002KT CAVOK 16/10 Q1015 NOSIG",
      "taf": "TAF LKMT 091700Z 0918/1018 20004KT CAVOK"
    },
    {
      "icao": "LKPR",
      "alert": "OK",
      "vis_m": 9999,
      "fzfg": false,
      "metar_trigger": false,
      "taf_trigger": false,
      "metar": "METAR LKPR 092130Z 29005KT CAVOK 13/09 Q1017 NOSIG",
      "taf": "TAF LKPR 092000Z 0921/1103 31005KT CAVOK"
    },
    {
      "icao": "LLBG",
      "alert": "OK",
      "vis_m": 9999,
      "fzfg": false,
      "metar_trigger": false,
      "taf_trigger": false,
      "metar": "METAR LLBG 092150Z 15005KT 9999 FEW025 26/20 Q1009 NOSIG",
      "taf": "TAF LLBG 091601Z 0918/1018 28008KT 9999 FEW035 TX31/1012Z TN22/1004Z"
    },
    {
      "icao": "LMML",
      "alert": "OK",
      "vis_m": 9999,
      "fzfg": false,
      "metar_trigger": false,
      "taf_trigger": false,
      "metar": "METAR LMML 092145Z 20003KT CAVOK 24/20 Q1011 NOSIG",
      "taf": "TAF LMML 091700Z 0918/1018 29010KT 9999 FEW015"
    },
    {
      "icao": "LOWW",
      "alert": "OK",
      "vis_m": 9999,
      "fzfg": false,
      "metar_trigger": false,
      "taf_trigger": false,
      "metar": "METAR LOWW 092150Z 32005KT 300V360 CAVOK 19/05 Q1015 NOSIG",
      "taf": "TAF LOWW 092015Z 0921/1103 35010KT CAVOK TX29/1014Z TN13/1003Z"
    },
    {
      "icao": "LPFR",
      "alert": "OK",
      "vis_m": 9999,
      "fzfg": false,
      "metar_trigger": false,
      "taf_trigger": false,
      "metar": "METAR LPFR 092130Z 28009KT CAVOK 23/15 Q1011",
      "taf": "TAF LPFR 091700Z 0918/1018 24015KT CAVOK"
    },
    {
      "icao": "LPMA",
      "alert": "OK",
      "vis_m": 9999,
      "fzfg": false,
      "metar_trigger": false,
      "taf_trigger": false,
      "metar": "METAR LPMA 092130Z 34005KT 300V040 9999 SCT015 22/17 Q1019",
      "taf": "TAF LPMA 091700Z 0918/1018 19007KT 9999 SCT015"
    },
    {
      "icao": "LPPR",
      "alert": "OK",
      "vis_m": 9999,
      "fzfg": false,
      "metar_trigger": false,
      "taf_trigger": false,
      "metar": "METAR LPPR 092130Z 32004KT 290V350 9999 BKN015 OVC018 18/15 Q1014",
      "taf": "TAF LPPR 091700Z 0918/1018 32008KT 9999 BKN015"
    },
    {
      "icao": "LPPS",
      "alert": "OK",
      "vis_m": 9999,
      "fzfg": false,
      "metar_trigger": false,
      "taf_trigger": false,
      "metar": "METAR LPPS 092130Z 34010KT 9999 SCT014 22/18 Q1019",
      "taf": "TAF LPPS 091700Z 0918/1024 33012KT 9999 SCT015"
    },
    {
      "icao": "LPPT",
      "alert": "OK",
      "vis_m": 9999,
      "fzfg": false,
      "metar_trigger": false,
      "taf_trigger": false,
      "metar": "METAR LPPT 092130Z 31010KT 280V340 9999 FEW018 19/15 Q1014 NOSIG",
      "taf": "TAF LPPT 091700Z 0918/1024 30010KT CAVOK"
    },
    {
      "icao": "LQBK",
      "alert": "OK",
      "vis_m": 9999,
      "fzfg": false,
      "metar_trigger": false,
      "taf_trigger": false,
      "metar": "METAR LQBK 092130Z 00000KT CAVOK 16/13 Q1015 NOSIG",
      "taf": "TAF LQBK 091700Z 0918/1018 16005KT CAVOK TX30/1014Z TN14/1003Z"
    },
    {
      "icao": "LQSA",
      "alert": "OK",
      "vis_m": 9999,
      "fzfg": false,
      "metar_trigger": false,
      "taf_trigger": false,
      "metar": "METAR LQSA 092130Z VRB02KT CAVOK 16/10 Q1016",
      "taf": "TAF LQSA 091700Z 0918/1018 VRB02KT CAVOK TX30/1014Z TN12/1003Z"
    },
    {
      "icao": "LQTZ",
      "alert": "OK",
      "vis_m": 9999,
      "fzfg": false,
      "metar_trigger": false,
      "taf_trigger": false,
      "metar": "METAR LQTZ 092130Z 30001KT CAVOK 14/14 Q1015",
      "taf": "TAF LQTZ 091700Z 0918/1018 VRB02KT CAVOK TX28/1013Z TN13/1003Z"
    },
    {
      "icao": "LRBC",
      "alert": "OK",
      "vis_m": 9999,
      "fzfg": false,
      "metar_trigger": false,
      "taf_trigger": false,
      "metar": "METAR LRBC 092130Z 32006KT CAVOK 13/12 Q1012",
      "taf": "TAF LRBC 092000Z 0921/1006 31010KT CAVOK"
    },
    {
      "icao": "LRBS",
      "alert": "OK",
      "vis_m": 9999,
      "fzfg": false,
      "metar_trigger": false,
      "taf_trigger": false,
      "metar": "METAR LRBS 092130Z VRB02KT CAVOK 14/13 Q1012 NOSIG",
      "taf": "TAF LRBS 091700Z 0918/1018 VRB04KT CAVOK"
    },
    {
      "icao": "LRBV",
      "alert": "OK",
      "vis_m": 9999,
      "fzfg": false,
      "metar_trigger": false,
      "taf_trigger": false,
      "metar": "METAR LRBV 092130Z AUTO 23008KT 9999 FEW078/// SCT120/// OVC160/// 12/09 Q1013",
      "taf": "TAF LRBV 091700Z 0918/1003 27006KT CAVOK"
    },
    {
      "icao": "LRCL",
      "alert": "OK",
      "vis_m": 9999,
      "fzfg": false,
      "metar_trigger": false,
      "taf_trigger": false,
      "metar": "METAR LRCL 092130Z 26005KT 220V290 9999 SCT055 14/11 Q1013",
      "taf": "TAF LRCL 092000Z 0921/1006 28006KT 9999 SCT050"
    },
    {
      "icao": "LRCV",
      "alert": "OK",
      "vis_m": 9999,
      "fzfg": false,
      "metar_trigger": false,
      "taf_trigger": false,
      "metar": "METAR LRCV 092130Z 12008KT CAVOK 15/13 Q1012",
      "taf": "TAF LRCV 092000Z 0921/1006 VRB04KT CAVOK"
    },
    {
      "icao": "LRIA",
      "alert": "OK",
      "vis_m": 9999,
      "fzfg": false,
      "metar_trigger": false,
      "taf_trigger": false,
      "metar": "METAR LRIA 092130Z 25003KT 210V300 CAVOK 14/11 Q1012",
      "taf": "TAF LRIA 092000Z 0921/1006 27006KT CAVOK"
    },
    {
      "icao": "LROP",
      "alert": "OK",
      "vis_m": 9999,
      "fzfg": false,
      "metar_trigger": false,
      "taf_trigger": false,
      "metar": "METAR LROP 092130Z 26004KT CAVOK 14/14 Q1012 NOSIG",
      "taf": "TAF LROP 091700Z 0918/1018 VRB04KT CAVOK"
    },
    {
      "icao": "LRSB",
      "alert": "OK",
      "vis_m": 9999,
      "fzfg": false,
      "metar_trigger": false,
      "taf_trigger": false,
      "metar": "METAR LRSB 092130Z VRB01KT 9999 FEW085 13/12 Q1013",
      "taf": ""
    },
    {
      "icao": "LRSM",
      "alert": "OK",
      "vis_m": 9999,
      "fzfg": false,
      "metar_trigger": false,
      "taf_trigger": false,
      "metar": "METAR LRSM 092130Z AUTO 30006KT 9999 FEW120/// SCT130/// BKN180/// 14/10 Q1013",
      "taf": "TAF LRSM 092000Z 0921/1006 32006KT CAVOK"
    },
    {
      "icao": "LRSV",
      "alert": "OK",
      "vis_m": 9999,
      "fzfg": false,
      "metar_trigger": false,
      "taf_trigger": false,
      "metar": "METAR LRSV 092130Z 25007KT CAVOK 12/11 Q1012",
      "taf": "TAF LRSV 092000Z 0921/1006 30006KT 9999 SCT040"
    },
    {
      "icao": "LRTM",
      "alert": "OK",
      "vis_m": 9999,
      "fzfg": false,
      "metar_trigger": false,
      "taf_trigger": false,
      "metar": "METAR LRTM 092130Z 25003KT CAVOK 14/12 Q1013",
      "taf": "TAF LRTM 092000Z 0921/1006 VRB04KT CAVOK"
    },
    {
      "icao": "LRTR",
      "alert": "OK",
      "vis_m": 9999,
      "fzfg": false,
      "metar_trigger": false,
      "taf_trigger": false,
      "metar": "METAR LRTR 092130Z 35004KT CAVOK 16/10 Q1013",
      "taf": "TAF LRTR 091700Z 0918/1018 01010KT CAVOK"
    },
    {
      "icao": "LTAC",
      "alert": "OK",
      "vis_m": 9999,
      "fzfg": false,
      "metar_trigger": false,
      "taf_trigger": false,
      "metar": "METAR LTAC 092150Z 29004KT 240V020 CAVOK 20/10 Q1011 NOSIG",
      "taf": "TAF LTAC 091640Z 0918/1018 VRB02KT 9999 FEW040 SCT100"
    },
    {
      "icao": "LTFM",
      "alert": "OK",
      "vis_m": 9999,
      "fzfg": false,
      "metar_trigger": false,
      "taf_trigger": false,
      "metar": "METAR LTFM 092150Z VRB04KT CAVOK 19/17 Q1011 NOSIG",
      "taf": "TAF LTFM 091640Z 0918/1024 VRB02KT 9999 FEW035 SCT100"
    },
    {
      "icao": "LUKK",
      "alert": "OK",
      "vis_m": 9999,
      "fzfg": false,
      "metar_trigger": false,
      "taf_trigger": false,
      "metar": "METAR LUKK 092130Z 36005KT 320V040 CAVOK 18/10 Q1011 NOSIG",
      "taf": "TAF LUKK 091715Z 0918/1018 VRB05KT CAVOK"
    },
    {
      "icao": "LWOH",
      "alert": "OK",
      "vis_m": 9999,
      "fzfg": false,
      "metar_trigger": false,
      "taf_trigger": false,
      "metar": "METAR LWOH 092150Z 33004KT 300V360 CAVOK 15/09 Q1015",
      "taf": "TAF LWOH 092030Z 0921/1021 34008KT 9999 FEW045"
    },
    {
      "icao": "LWSK",
      "alert": "OK",
      "vis_m": 9999,
      "fzfg": false,
      "metar_trigger": false,
      "taf_trigger": false,
      "metar": "METAR LWSK 092150Z 01004KT 330V040 CAVOK 20/08 Q1014 NOSIG",
      "taf": "TAF LWSK 092030Z 0921/1021 VRB02KT CAVOK"
    },
    {
      "icao": "LYBE",
      "alert": "OK",
      "vis_m": 9999,
      "fzfg": false,
      "metar_trigger": false,
      "taf_trigger": false,
      "metar": "METAR LYBE 092130Z 32004KT CAVOK 17/08 Q1014 NOSIG",
      "taf": "TAF LYBE 091700Z 0918/1018 30007KT CAVOK TX29/1014Z TN14/1003Z"
    },
    {
      "icao": "LYNI",
      "alert": "OK",
      "vis_m": 9999,
      "fzfg": false,
      "metar_trigger": false,
      "taf_trigger": false,
      "metar": "METAR LYNI 092130Z VRB02KT CAVOK 17/08 Q1014 NOSIG",
      "taf": "TAF LYNI 091700Z 0918/1018 01004KT CAVOK TX30/1014Z TN12/1003Z"
    },
    {
      "icao": "LYPG",
      "alert": "OK",
      "vis_m": 9999,
      "fzfg": false,
      "metar_trigger": false,
      "taf_trigger": false,
      "metar": "METAR LYPG 092130Z 34006KT CAVOK 26/07 Q1011 NOSIG",
      "taf": "TAF LYPG 091700Z 0918/1018 36012KT 9999 FEW050 TX33/1013Z TN24/1003Z"
    },
    {
      "icao": "LZIB",
      "alert": "OK",
      "vis_m": 9999,
      "fzfg": false,
      "metar_trigger": false,
      "taf_trigger": false,
      "metar": "METAR LZIB 092130Z 02005KT CAVOK 17/08 Q1014 NOSIG",
      "taf": "TAF LZIB 091715Z 0918/1018 33014KT 9999 FEW040"
    },
    {
      "icao": "LZKZ",
      "alert": "OK",
      "vis_m": 9999,
      "fzfg": false,
      "metar_trigger": false,
      "taf_trigger": false,
      "metar": "METAR LZKZ 092130Z VRB01KT CAVOK 14/11 Q1014 NOSIG",
      "taf": "TAF LZKZ 091715Z 0918/1018 36008KT 9999 FEW045"
    },
    {
      "icao": "LZTT",
      "alert": "OK",
      "vis_m": 9999,
      "fzfg": false,
      "metar_trigger": false,
      "taf_trigger": false,
      "metar": "METAR LZTT 092130Z VRB03KT 9999 SCT050 BKN079 12/09 Q1015",
      "taf": "TAF LZTT 091715Z 0918/1018 28008KT 9999 FEW040"
    },
    {
      "icao": "OEJN",
      "alert": "OK",
      "vis_m": 9999,
      "fzfg": false,
      "metar_trigger": false,
      "taf_trigger": false,
      "metar": "METAR OEJN 092100Z 36010KT CAVOK 33/11 Q1004 NOSIG",
      "taf": "TAF OEJN 091700Z 0918/1024 35010KT 7000 NSC"
    },
    {
      "icao": "OEMA",
      "alert": "OK",
      "vis_m": 9999,
      "fzfg": false,
      "metar_trigger": false,
      "taf_trigger": false,
      "metar": "METAR OEMA 092100Z 29007KT CAVOK 36/01 Q1011 NOSIG",
      "taf": "TAF OEMA 091700Z 0918/1024 30005KT CAVOK"
    },
    {
      "icao": "OJAI",
      "alert": "OK",
      "vis_m": 5000,
      "fzfg": false,
      "metar_trigger": false,
      "taf_trigger": false,
      "metar": "METAR OJAI 092100Z 28006KT 5000 HZ NSC 19/12 Q1013 NOSIG",
      "taf": "TAF OJAI 091700Z 0918/1024 29008KT 5000 HZ NSC"
    },
    {
      "icao": "OMAA",
      "alert": "OK",
      "vis_m": 9999,
      "fzfg": false,
      "metar_trigger": false,
      "taf_trigger": false,
      "metar": "METAR OMAA 092130Z 31003KT CAVOK 33/25 Q0998 NOSIG",
      "taf": "TAF OMAA 091700Z 0918/1100 29008KT 8000 NSC"
    },
    {
      "icao": "OMDB",
      "alert": "OK",
      "vis_m": 9999,
      "fzfg": false,
      "metar_trigger": false,
      "taf_trigger": false,
      "metar": "METAR OMDB 092130Z 24005KT CAVOK 33/28 Q0998 NOSIG",
      "taf": "TAF OMDB 091700Z 0918/1100 26010KT 8000 NSC"
    },
    {
      "icao": "UAAA",
      "alert": "OK",
      "vis_m": 9999,
      "fzfg": false,
      "metar_trigger": false,
      "taf_trigger": false,
      "metar": "METAR UAAA 092130Z 20001MPS 9999 SCT100 19/14 Q1012 NOSIG",
      "taf": "TAF UAAA 091703Z 0918/1018 18003MPS 9999 FEW050CB SCT100 TX34/1010Z TN19/1002Z"
    },
    {
      "icao": "UBBB",
      "alert": "OK",
      "vis_m": 9999,
      "fzfg": false,
      "metar_trigger": false,
      "taf_trigger": false,
      "metar": "METAR UBBB 092130Z 32004KT CAVOK 23/20 Q1008 NOSIG",
      "taf": "TAF UBBB 091702Z 0918/1018 33008KT CAVOK TX31/1010Z TN21/1001Z"
    },
    {
      "icao": "UDSG",
      "alert": "OK",
      "vis_m": 9999,
      "fzfg": false,
      "metar_trigger": false,
      "taf_trigger": false,
      "metar": "METAR UDSG 092130Z VRB02KT 9999 FEW049 17/14 Q1017 NOSIG",
      "taf": "TAF UDSG 091658Z 0918/1018 VRB06KT 9999 FEW050"
    },
    {
      "icao": "UDYZ",
      "alert": "OK",
      "vis_m": 9999,
      "fzfg": false,
      "metar_trigger": false,
      "taf_trigger": false,
      "metar": "METAR UDYZ 092130Z 02006KT 9999 FEW046 24/15 Q1010 NOSIG",
      "taf": "TAF UDYZ 091700Z 0918/1018 04006KT 9999 FEW040"
    },
    {
      "icao": "UGKO",
      "alert": "OK",
      "vis_m": 9999,
      "fzfg": false,
      "metar_trigger": false,
      "taf_trigger": false,
      "metar": "METAR UGKO 092130Z VRB02KT 9999 BKN024 23/20 Q1007 NOSIG",
      "taf": "TAF UGKO 091700Z 0918/1018 25006KT CAVOK TX32/1011Z TN19/1002Z"
    }
  ]
}