{
  "ts_utc": "2025-12-28T05:52:35Z",
  "threshold_m": 150,
  "source": "stations_override.txt (ICAO list) + aviationweather.gov (METAR/TAF raw)",
  "station_count": 159,
  "stations": [
    {
      "icao": "BIKF",
      "alert": "OK",
      "vis_m": 9999,
      "fzfg": false,
      "metar_trigger": false,
      "taf_trigger": false,
      "metar": "METAR BIKF 280530Z 24012KT 9999 SCT005 OVC039 07/07 Q1036",
      "taf": "TAF BIKF 280454Z 2806/2906 24012KT 9999 BKN015 TX07/2812Z TN03/2904Z"
    },
    {
      "icao": "BKPR",
      "alert": "OK",
      "vis_m": 9999,
      "fzfg": false,
      "metar_trigger": false,
      "taf_trigger": false,
      "metar": "METAR BKPR 280530Z 14005KT 110V170 9999 FEW040 M04/M04 Q1015 NOSIG",
      "taf": "TAF BKPR 280530Z 2806/2906 34009KT 9999 FEW040"
    },
    {
      "icao": "EBCI",
      "alert": "OK",
      "vis_m": 3500,
      "fzfg": false,
      "metar_trigger": false,
      "taf_trigger": false,
      "metar": "METAR EBCI 280520Z 03006KT 3500 BR BKN017 02/02 Q1030 NOSIG",
      "taf": "TAF EBCI 280520Z 2806/2912 06005KT 3000 BR BKN019"
    },
    {
      "icao": "EDDB",
      "alert": "OK",
      "vis_m": 9999,
      "fzfg": false,
      "metar_trigger": false,
      "taf_trigger": false,
      "metar": "METAR EDDB 280520Z AUTO 30007KT CAVOK M02/M03 Q1029 NOSIG",
      "taf": "TAF EDDB 280500Z 2806/2906 32007KT CAVOK"
    },
    {
      "icao": "EDDH",
      "alert": "OK",
      "vis_m": 550,
      "fzfg": true,
      "metar_trigger": false,
      "taf_trigger": false,
      "metar": "METAR EDDH 280520Z AUTO VRB02KT 0550 0350 R23/0800U R33/0700N FZFG VV004 M05/M05 Q1032 TEMPO 0700",
      "taf": "TAF EDDH 280500Z 2806/2912 VRB03KT 0300 FZFG OVC001"
    },
    {
      "icao": "EDDK",
      "alert": "OK",
      "vis_m": 300,
      "fzfg": true,
      "metar_trigger": false,
      "taf_trigger": false,
      "metar": "METAR EDDK 280520Z AUTO VRB02KT 0300 0200 R13L/0375D R24/0450D FZFG VV002 M01/M02 Q1031 TEMPO 0900",
      "taf": "TAF EDDK 280500Z 2806/2912 VRB03KT 9999 OVC020"
    },
    {
      "icao": "EDDN",
      "alert": "OK",
      "vis_m": 9999,
      "fzfg": false,
      "metar_trigger": false,
      "taf_trigger": false,
      "metar": "METAR EDDN 280520Z AUTO 08003KT 020V110 CAVOK M06/M08 Q1029 NOSIG",
      "taf": "TAF EDDN 280500Z 2806/2906 03003KT CAVOK"
    },
    {
      "icao": "EDDS",
      "alert": "OK",
      "vis_m": 9000,
      "fzfg": false,
      "metar_trigger": false,
      "taf_trigger": false,
      "metar": "METAR EDDS 280520Z AUTO 31003KT 9000 NCD M07/M08 Q1028 NOSIG",
      "taf": "TAF EDDS 280500Z 2806/2906 VRB03KT CAVOK"
    },
    {
      "icao": "EDFH",
      "alert": "OK",
      "vis_m": 9999,
      "fzfg": false,
      "metar_trigger": false,
      "taf_trigger": false,
      "metar": "METAR EDFH 280520Z COR 09007KT 050V130 9999 OVC008 M00/M01 Q1028",
      "taf": "TAF EDFH 280500Z 2806/2906 09010KT 9999 OVC008"
    },
    {
      "icao": "EDJA",
      "alert": "OK",
      "vis_m": 900,
      "fzfg": true,
      "metar_trigger": false,
      "taf_trigger": false,
      "metar": "METAR EDJA 280520Z 01008KT 0900 R06/1100U FZFG VV/// M06/M07 Q1027",
      "taf": "TAF EDJA 280500Z 2806/2815 04001KT 0300 FZFG BKN001"
    },
    {
      "icao": "EDLW",
      "alert": "OK",
      "vis_m": 9999,
      "fzfg": false,
      "metar_trigger": false,
      "taf_trigger": false,
      "metar": "METAR EDLW 280520Z 00000KT CAVOK 00/M00 Q1031",
      "taf": "TAF EDLW 280500Z 2806/2906 VRB03KT 8000 SCT020"
    },
    {
      "icao": "EDNY",
      "alert": "OK",
      "vis_m": 6000,
      "fzfg": false,
      "metar_trigger": false,
      "taf_trigger": false,
      "metar": "METAR EDNY 280520Z AUTO VRB02KT 6000 // OVC004/// M03/M03 Q1028",
      "taf": "TAF EDNY 280500Z 2806/2815 05003KT 7000 OVC004"
    },
    {
      "icao": "EDSB",
      "alert": "OK",
      "vis_m": 9999,
      "fzfg": false,
      "metar_trigger": false,
      "taf_trigger": false,
      "metar": "METAR EDSB 280520Z 03011KT CAVOK M01/M02 Q1029",
      "taf": "TAF EDSB 280500Z 2806/2906 03010KT CAVOK"
    },
    {
      "icao": "EETN",
      "alert": "OK",
      "vis_m": 9999,
      "fzfg": false,
      "metar_trigger": false,
      "taf_trigger": false,
      "metar": "METAR EETN 280550Z 34017G27KT 310V010 9999 OVC036 01/M07 Q1008 TEMPO 34020G30KT",
      "taf": "TAF EETN 280530Z 2806/2906 34020G32KT 9999 BKN030"
    },
    {
      "icao": "EFTU",
      "alert": "OK",
      "vis_m": 9999,
      "fzfg": false,
      "metar_trigger": false,
      "taf_trigger": false,
      "metar": "METAR EFTU 280550Z AUTO 34010KT 300V010 CAVOK M01/M10 Q1013",
      "taf": "TAF EFTU 280524Z 2806/2906 35011KT CAVOK"
    },
    {
      "icao": "EGBB",
      "alert": "OK",
      "vis_m": 9999,
      "fzfg": false,
      "metar_trigger": false,
      "taf_trigger": false,
      "metar": "METAR EGBB 280520Z 07007KT 9999 OVC021 06/02 Q1035",
      "taf": "TAF EGBB 280453Z 2806/2906 07009KT 9999 BKN020"
    },
    {
      "icao": "EGGP",
      "alert": "OK",
      "vis_m": 9999,
      "fzfg": false,
      "metar_trigger": false,
      "taf_trigger": false,
      "metar": "METAR EGGP 280520Z 10005KT 070V130 9999 OVC025 05/01 Q1036",
      "taf": "TAF EGGP 280501Z 2806/2906 09008KT 9999 BKN026"
    },
    {
      "icao": "EGGW",
      "alert": "OK",
      "vis_m": 9999,
      "fzfg": false,
      "metar_trigger": false,
      "taf_trigger": false,
      "metar": "METAR EGGW 280520Z AUTO 06009KT 9999 OVC018 05/02 Q1033",
      "taf": "TAF EGGW 280506Z 2806/2906 04012KT 9999 SCT020"
    },
    {
      "icao": "EGKK",
      "alert": "OK",
      "vis_m": 9999,
      "fzfg": false,
      "metar_trigger": false,
      "taf_trigger": false,
      "metar": "METAR EGKK 280520Z 04011KT 9999 BKN021 06/04 Q1032",
      "taf": "TAF EGKK 280454Z 2806/2912 04010KT 9999 BKN020"
    },
    {
      "icao": "EGNM",
      "alert": "OK",
      "vis_m": 9999,
      "fzfg": false,
      "metar_trigger": false,
      "taf_trigger": false,
      "metar": "METAR EGNM 280520Z 05006KT 9999 BKN018 05/02 Q1036",
      "taf": "TAF EGNM 280500Z 2806/2906 05008KT 9999 BKN020"
    },
    {
      "icao": "EGPD",
      "alert": "OK",
      "vis_m": 9999,
      "fzfg": false,
      "metar_trigger": false,
      "taf_trigger": false,
      "metar": "METAR EGPD 280520Z COR AUTO 35003KT 310V040 9999 OVC024 03/01 Q1039 NOSIG",
      "taf": "TAF EGPD 280456Z 2806/2906 30004KT 9999 BKN025"
    },
    {
      "icao": "EGPF",
      "alert": "OK",
      "vis_m": 9999,
      "fzfg": false,
      "metar_trigger": false,
      "taf_trigger": false,
      "metar": "METAR EGPF 280520Z AUTO 05003KT 9999 OVC027 05/02 Q1039",
      "taf": "TAF EGPF 280456Z 2806/2906 05006KT 9999 BKN030"
    },
    {
      "icao": "EHBK",
      "alert": "OK",
      "vis_m": 4600,
      "fzfg": false,
      "metar_trigger": false,
      "taf_trigger": false,
      "metar": "METAR EHBK 280525Z AUTO 06004KT 4600 BR BKN018/// OVC021/// 02/02 Q1030 NOSIG",
      "taf": "TAF EHBK 280517Z 2806/2912 05005KT 4000 BR BKN020"
    },
    {
      "icao": "EHEH",
      "alert": "OK",
      "vis_m": 9999,
      "fzfg": false,
      "metar_trigger": false,
      "taf_trigger": false,
      "metar": "METAR EHEH 280525Z AUTO 05003KT 030V090 9999 BKN022 OVC025 04/01 Q1032 WHT NOSIG RMK TREND REMOTE BY EHWX",
      "taf": ""
    },
    {
      "icao": "EKBI",
      "alert": "OK",
      "vis_m": 400,
      "fzfg": true,
      "metar_trigger": false,
      "taf_trigger": false,
      "metar": "METAR EKBI 280520Z AUTO 27001KT 0400 R09/1100N R27/P1500D FZFG NCD M06/M06 Q1032",
      "taf": "TAF EKBI 280527Z 2806/2906 31005KT 0250 FZFG BKN002"
    },
    {
      "icao": "EKCH",
      "alert": "OK",
      "vis_m": 9999,
      "fzfg": false,
      "metar_trigger": false,
      "taf_trigger": false,
      "metar": "METAR EKCH 280520Z AUTO 34012KT 310V020 9999 NCD 01/M05 Q1030 NOSIG",
      "taf": "TAF EKCH 280527Z 2806/2906 34015KT CAVOK"
    },
    {
      "icao": "ENAL",
      "alert": "OK",
      "vis_m": 9999,
      "fzfg": false,
      "metar_trigger": false,
      "taf_trigger": false,
      "metar": "METAR ENAL 280520Z AUTO 25017KT 9999 SCT026/// BKN033/// BKN041/// 05/M00 Q1032",
      "taf": "TAF ENAL 280500Z 2806/2815 25018KT 9999 FEW020 BKN035"
    },
    {
      "icao": "ENBR",
      "alert": "OK",
      "vis_m": 9999,
      "fzfg": false,
      "metar_trigger": false,
      "taf_trigger": false,
      "metar": "METAR ENBR 280520Z 03006KT CAVOK 00/M02 Q1035 RMK WIND 1200FT 01012KT",
      "taf": ""
    },
    {
      "icao": "ENGM",
      "alert": "OK",
      "vis_m": 9999,
      "fzfg": false,
      "metar_trigger": false,
      "taf_trigger": false,
      "metar": "METAR ENGM 280520Z 21003KT 180V240 CAVOK M03/M08 Q1027 NOSIG",
      "taf": "TAF ENGM 280500Z 2806/2906 VRB03KT CAVOK"
    },
    {
      "icao": "ENHD",
      "alert": "OK",
      "vis_m": 9999,
      "fzfg": false,
      "metar_trigger": false,
      "taf_trigger": false,
      "metar": "METAR ENHD 280520Z AUTO 36014KT 9999 NCD 03/M02 Q1034",
      "taf": "TAF ENHD 280500Z 2806/2815 35018KT CAVOK"
    },
    {
      "icao": "ENTC",
      "alert": "OK",
      "vis_m": 9999,
      "fzfg": false,
      "metar_trigger": false,
      "taf_trigger": false,
      "metar": "METAR ENTC 280520Z 19016G27KT 160V220 9999 -SHSN FEW009 SCT013 BKN017 M01/M03 Q0997 RMK WIND 2600FT 30043G57KT",
      "taf": "TAF ENTC 280500Z 2806/2906 27018KT 9999 -SHSNRA FEW012 SCT020CB BKN040"
    },
    {
      "icao": "ENTO",
      "alert": "OK",
      "vis_m": 9999,
      "fzfg": false,
      "metar_trigger": false,
      "taf_trigger": false,
      "metar": "METAR ENTO 280520Z AUTO VRB02KT 9999 NCD M01/M07 Q1029",
      "taf": "TAF ENTO 280500Z 2806/2906 28008KT CAVOK"
    },
    {
      "icao": "ENVA",
      "alert": "OK",
      "vis_m": 9999,
      "fzfg": false,
      "metar_trigger": false,
      "taf_trigger": false,
      "metar": "METAR ENVA 280520Z 26023KT 9999 FEW030 BKN045 04/00 Q1024 RMK WIND 670FT 27024G41KT",
      "taf": "TAF ENVA 280500Z 2806/2906 27030KT 9999 FEW020TCU BKN030"
    },
    {
      "icao": "ENZV",
      "alert": "OK",
      "vis_m": 9999,
      "fzfg": false,
      "metar_trigger": false,
      "taf_trigger": false,
      "metar": "METAR ENZV 280520Z 03008KT CAVOK 03/M02 Q1033",
      "taf": "TAF ENZV 280500Z 2806/2906 35010KT CAVOK"
    },
    {
      "icao": "EPGD",
      "alert": "OK",
      "vis_m": 9999,
      "fzfg": false,
      "metar_trigger": false,
      "taf_trigger": false,
      "metar": "METAR EPGD 280530Z 33016KT 9999 BKN032 03/M04 Q1020",
      "taf": "TAF EPGD 280530Z 2806/2906 34018KT 9999 SCT040"
    },
    {
      "icao": "EPKK",
      "alert": "OK",
      "vis_m": 9999,
      "fzfg": false,
      "metar_trigger": false,
      "taf_trigger": false,
      "metar": "METAR EPKK 280530Z 27013KT 9999 FEW016 BKN055 00/M02 Q1020",
      "taf": "TAF EPKK 280530Z 2806/2906 28011KT 9999 SCT015 BKN040"
    },
    {
      "icao": "EPKT",
      "alert": "OK",
      "vis_m": 9999,
      "fzfg": false,
      "metar_trigger": false,
      "taf_trigger": false,
      "metar": "METAR EPKT 280530Z 29011KT 9999 FEW009 M01/M02 Q1020",
      "taf": "TAF EPKT 280530Z 2806/2906 32012KT 9999 SCT009 BKN015"
    },
    {
      "icao": "EPLB",
      "alert": "OK",
      "vis_m": 9999,
      "fzfg": false,
      "metar_trigger": false,
      "taf_trigger": false,
      "metar": "METAR EPLB 280530Z 29017KT 9999 -SN SCT028 BKN033 01/M02 Q1011",
      "taf": "TAF EPLB 280530Z 2806/2906 30015KT 9999 SCT032"
    },
    {
      "icao": "EPMO",
      "alert": "OK",
      "vis_m": 9999,
      "fzfg": false,
      "metar_trigger": false,
      "taf_trigger": false,
      "metar": "METAR EPMO 280530Z 29013KT 9999 BKN040 02/M02 Q1015",
      "taf": "TAF EPMO 280530Z 2806/2906 29014KT 9999 BKN042"
    },
    {
      "icao": "EPPO",
      "alert": "OK",
      "vis_m": 9999,
      "fzfg": false,
      "metar_trigger": false,
      "taf_trigger": false,
      "metar": "METAR EPPO 280530Z 30009KT 9999 BKN042 M00/M03 Q1024",
      "taf": "TAF EPPO 280530Z 2806/2906 31010KT 9999 BKN040"
    },
    {
      "icao": "EPRA",
      "alert": "OK",
      "vis_m": 9999,
      "fzfg": false,
      "metar_trigger": false,
      "taf_trigger": false,
      "metar": "METAR EPRA 280530Z 31017G27KT 9999 BKN044 01/M03 Q1015",
      "taf": "TAF EPRA 280530Z 2806/2815 30015KT 9999 BKN040"
    },
    {
      "icao": "EPRZ",
      "alert": "OK",
      "vis_m": 9999,
      "fzfg": false,
      "metar_trigger": false,
      "taf_trigger": false,
      "metar": "METAR EPRZ 280530Z 29018KT 9999 FEW018 01/M02 Q1014",
      "taf": "TAF EPRZ 280530Z 2806/2906 29017KT 9999 SCT017"
    },
    {
      "icao": "EPSC",
      "alert": "OK",
      "vis_m": 9999,
      "fzfg": false,
      "metar_trigger": false,
      "taf_trigger": false,
      "metar": "METAR EPSC 280530Z 30006KT 9999 FEW036 M02/M04 Q1026",
      "taf": "TAF EPSC 280530Z 2806/2906 29008KT CAVOK"
    },
    {
      "icao": "EPSY",
      "alert": "OK",
      "vis_m": 6000,
      "fzfg": false,
      "metar_trigger": false,
      "taf_trigger": false,
      "metar": "METAR EPSY 280530Z 33017KT 6000 -RASN BKN016 02/M02 Q1014",
      "taf": "TAF EPSY 280530Z 2806/2815 33015KT 9999 BKN030"
    },
    {
      "icao": "EPWA",
      "alert": "OK",
      "vis_m": 9999,
      "fzfg": false,
      "metar_trigger": false,
      "taf_trigger": false,
      "metar": "METAR EPWA 280530Z 29016KT 9999 BKN044 02/M02 Q1015 NOSIG",
      "taf": "TAF EPWA 280530Z 2806/2906 29015KT 9999 BKN048"
    },
    {
      "icao": "EPWR",
      "alert": "OK",
      "vis_m": 9999,
      "fzfg": false,
      "metar_trigger": false,
      "taf_trigger": false,
      "metar": "METAR EPWR 280530Z 29012KT 9999 FEW045 M01/M02 Q1024",
      "taf": "TAF EPWR 280530Z 2806/2906 31012KT 9999 SCT040"
    },
    {
      "icao": "ESGG",
      "alert": "OK",
      "vis_m": 9999,
      "fzfg": false,
      "metar_trigger": false,
      "taf_trigger": false,
      "metar": "METAR ESGG 280520Z 28005KT CAVOK M01/M06 Q1028",
      "taf": "TAF ESGG 280530Z 2806/2906 28005KT CAVOK"
    },
    {
      "icao": "ESKN",
      "alert": "OK",
      "vis_m": 9999,
      "fzfg": false,
      "metar_trigger": false,
      "taf_trigger": false,
      "metar": "METAR ESKN 280520Z 32012KT CAVOK 01/M07 Q1023",
      "taf": "TAF ESKN 280530Z 2806/2906 32015KT CAVOK"
    },
    {
      "icao": "ESMS",
      "alert": "OK",
      "vis_m": 9999,
      "fzfg": false,
      "metar_trigger": false,
      "taf_trigger": false,
      "metar": "METAR ESMS 280520Z 32009KT CAVOK M02/M05 Q1028",
      "taf": "TAF ESMS 280527Z 2806/2906 34012KT CAVOK"
    },
    {
      "icao": "ESSA",
      "alert": "OK",
      "vis_m": 9999,
      "fzfg": false,
      "metar_trigger": false,
      "taf_trigger": false,
      "metar": "METAR ESSA 280520Z 30010KT CAVOK M00/M07 Q1021 NOSIG",
      "taf": "TAF ESSA 280530Z 2806/2906 31010KT CAVOK"
    },
    {
      "icao": "EYKA",
      "alert": "OK",
      "vis_m": 9999,
      "fzfg": false,
      "metar_trigger": false,
      "taf_trigger": false,
      "metar": "METAR EYKA 280550Z 33011G22KT 250V060 9999 -RA SCT027 BKN046 02/M02 Q1006",
      "taf": "TAF EYKA 280507Z 2806/2906 32014G24KT 9000 BKN020"
    },
    {
      "icao": "EYPA",
      "alert": "OK",
      "vis_m": 9999,
      "fzfg": false,
      "metar_trigger": false,
      "taf_trigger": false,
      "metar": "METAR EYPA 280550Z 36015G31KT 330V030 9999 OVC045 04/M02 Q1014",
      "taf": "TAF EYPA 280509Z 2806/2906 35015G30KT 9000 BKN030"
    },
    {
      "icao": "EYVI",
      "alert": "OK",
      "vis_m": 3400,
      "fzfg": false,
      "metar_trigger": false,
      "taf_trigger": false,
      "metar": "METAR EYVI 280550Z 33015G26KT 3400 SHSNRA BKN008CB 00/M01 Q1002 TEMPO 1500 SHSN",
      "taf": ""
    },
    {
      "icao": "GCFV",
      "alert": "OK",
      "vis_m": 9999,
      "fzfg": false,
      "metar_trigger": false,
      "taf_trigger": false,
      "metar": "METAR GCFV 280530Z AUTO 18004KT 150V220 9999 BKN022 16/13 Q1017",
      "taf": "TAF GCFV 280200Z 2803/2903 24005KT 9999 SCT030 TX22/2814Z TN13/2806Z"
    },
    {
      "icao": "GCLP",
      "alert": "OK",
      "vis_m": 9999,
      "fzfg": false,
      "metar_trigger": false,
      "taf_trigger": false,
      "metar": "METAR GCLP 280530Z 31005KT 9999 BKN040 17/09 Q1018 NOSIG",
      "taf": "TAF GCLP 280200Z 2803/2903 27005KT 9999 SCT035 TX22/2814Z TN14/2806Z"
    },
    {
      "icao": "GCTS",
      "alert": "OK",
      "vis_m": 9999,
      "fzfg": false,
      "metar_trigger": false,
      "taf_trigger": false,
      "metar": "METAR GCTS 280530Z 36010KT 9999 SCT040 15/08 Q1019 NOSIG",
      "taf": "TAF GCTS 280200Z 2803/2903 VRB06KT 9999 SCT035 TX23/2814Z TN14/2806Z"
    },
    {
      "icao": "GMAD",
      "alert": "OK",
      "vis_m": 6000,
      "fzfg": false,
      "metar_trigger": false,
      "taf_trigger": false,
      "metar": "METAR GMAD 280530Z 19006KT 6000 -RA BKN020TCU BKN080 13/13 Q1014 NOSIG",
      "taf": "TAF GMAD 280500Z 2806/2912 22005KT 6000 BKN020 BKN080"
    },
    {
      "icao": "GMMN",
      "alert": "OK",
      "vis_m": 9999,
      "fzfg": false,
      "metar_trigger": false,
      "taf_trigger": false,
      "metar": "METAR GMMN 280530Z 20013KT 9999 BKN016TCU 11/09 Q1010 NOSIG",
      "taf": "TAF GMMN 280500Z 2806/2912 20013KT 9999 BKN016TCU"
    },
    {
      "icao": "GMMX",
      "alert": "OK",
      "vis_m": 6000,
      "fzfg": false,
      "metar_trigger": false,
      "taf_trigger": false,
      "metar": "METAR GMMX 280530Z 23007KT 6000 SCT010 BKN016 10/08 Q1013 TEMPO 3000 RA",
      "taf": "TAF GMMX 280500Z 2806/2912 20006KT 6000 SCT010 BKN016"
    },
    {
      "icao": "HEGN",
      "alert": "OK",
      "vis_m": 9999,
      "fzfg": false,
      "metar_trigger": false,
      "taf_trigger": false,
      "metar": "METAR HEGN 280500Z 29009KT CAVOK 14/02 Q1014 NOSIG",
      "taf": "TAF HEGN 280500Z 2806/2912 34015KT CAVOK"
    },
    {
      "icao": "HEMA",
      "alert": "OK",
      "vis_m": 9999,
      "fzfg": false,
      "metar_trigger": false,
      "taf_trigger": false,
      "metar": "METAR HEMA 280500Z 25008KT CAVOK 13/01 Q1013 NOSIG",
      "taf": "TAF HEMA 280500Z 2806/2912 35014KT CAVOK"
    },
    {
      "icao": "HESH",
      "alert": "OK",
      "vis_m": 9999,
      "fzfg": false,
      "metar_trigger": false,
      "taf_trigger": false,
      "metar": "METAR HESH 280500Z 28005KT CAVOK 17/05 Q1011 NOSIG",
      "taf": "TAF HESH 280500Z 2806/2912 01012KT CAVOK"
    },
    {
      "icao": "HESX",
      "alert": "OK",
      "vis_m": 9999,
      "fzfg": false,
      "metar_trigger": false,
      "taf_trigger": false,
      "metar": "METAR HESX 280500Z 21009KT CAVOK 09/07 Q1013 NOSIG",
      "taf": "TAF HESX 280500Z 2806/2912 26008KT 9999 FEW025"
    },
    {
      "icao": "LATI",
      "alert": "OK",
      "vis_m": 9999,
      "fzfg": false,
      "metar_trigger": false,
      "taf_trigger": false,
      "metar": "METAR LATI 280550Z 16003KT 9999 BKN034 02/M02 Q1017 NOSIG",
      "taf": "TAF LATI 280500Z 2806/2906 VRB05KT 9999 SCT030 TX15/2812Z TNM02/2904Z"
    },
    {
      "icao": "LBPD",
      "alert": "OK",
      "vis_m": 9999,
      "fzfg": false,
      "metar_trigger": false,
      "taf_trigger": false,
      "metar": "METAR LBPD 280530Z AUTO 28025KT 9999 NCD 06/M06 Q1007 NOSIG",
      "taf": "TAF LBPD 280500Z 2806/2906 28018KT 9999 SCT035"
    },
    {
      "icao": "LBSF",
      "alert": "OK",
      "vis_m": 9999,
      "fzfg": false,
      "metar_trigger": false,
      "taf_trigger": false,
      "metar": "METAR LBSF 280530Z 30011KT 9999 BKN027 03/M04 Q1011 NOSIG",
      "taf": "TAF LBSF 280500Z 2806/2906 29016KT 9999 SCT015 BKN030"
    },
    {
      "icao": "LBWN",
      "alert": "OK",
      "vis_m": 9999,
      "fzfg": false,
      "metar_trigger": false,
      "taf_trigger": false,
      "metar": "METAR LBWN 280530Z AUTO 29018KT 9999 SCT025/// 02/M02 Q1006 NOSIG",
      "taf": "TAF LBWN 280500Z 2806/2906 29016G28KT 9999 SCT030"
    },
    {
      "icao": "LCLK",
      "alert": "OK",
      "vis_m": 9999,
      "fzfg": false,
      "metar_trigger": false,
      "taf_trigger": false,
      "metar": "METAR LCLK 280530Z 30006KT 9999 FEW025 07/04 Q1009 NOSIG",
      "taf": "TAF LCLK 280530Z 2806/2906 33008KT 9999 FEW030 SCT060"
    },
    {
      "icao": "LCPH",
      "alert": "OK",
      "vis_m": 9999,
      "fzfg": false,
      "metar_trigger": false,
      "taf_trigger": false,
      "metar": "METAR LCPH 280530Z 08004KT 9999 FEW030 07/02 Q1009 NOSIG",
      "taf": "TAF LCPH 280530Z 2806/2906 02008KT 9999 FEW030 SCT060"
    },
    {
      "icao": "LEAL",
      "alert": "OK",
      "vis_m": 9999,
      "fzfg": false,
      "metar_trigger": false,
      "taf_trigger": false,
      "metar": "METAR LEAL 280530Z 05011KT 9999 -DZ SCT020 SCT034 14/10 Q1014 NOSIG",
      "taf": "TAF LEAL 280500Z 2806/2906 04010KT 9999 SCT020 TX15/2813Z TN11/2806Z"
    },
    {
      "icao": "LEBB",
      "alert": "OK",
      "vis_m": 9999,
      "fzfg": false,
      "metar_trigger": false,
      "taf_trigger": false,
      "metar": "METAR LEBB 280530Z 14002KT 9999 SCT050 07/07 Q1018 NOSIG",
      "taf": "TAF LEBB 280500Z 2806/2906 12008KT CAVOK TX14/2814Z TN03/2903Z"
    },
    {
      "icao": "LEBL",
      "alert": "OK",
      "vis_m": 9999,
      "fzfg": false,
      "metar_trigger": false,
      "taf_trigger": false,
      "metar": "METAR LEBL 280530Z 34006KT 9999 FEW030 10/10 Q1019 NOSIG",
      "taf": "TAF LEBL 280500Z 2806/2906 07012KT 9999 SCT014 TX15/2812Z TN11/2807Z"
    },
    {
      "icao": "LECH",
      "alert": "OK",
      "vis_m": 9999,
      "fzfg": false,
      "metar_trigger": false,
      "taf_trigger": false,
      "metar": "METAR LECH 280530Z AUTO 02006KT 350V050 9999 FEW011 SCT032 09/08 Q1017",
      "taf": ""
    },
    {
      "icao": "LEMD",
      "alert": "OK",
      "vis_m": 9999,
      "fzfg": false,
      "metar_trigger": false,
      "taf_trigger": false,
      "metar": "METAR LEMD 280530Z 35003KT 9999 FEW045 BKN050 07/04 Q1015 NOSIG",
      "taf": "TAF LEMD 280500Z 2806/2912 09006KT 9999 SCT040 BKN045 TX12/2815Z TN03/2906Z"
    },
    {
      "icao": "LEMG",
      "alert": "OK",
      "vis_m": 9999,
      "fzfg": false,
      "metar_trigger": false,
      "taf_trigger": false,
      "metar": "SPECI LEMG 280547Z 29004KT 260V330 9999 -RA FEW016 SCT024 BKN056 09/09 Q1011 RERA NOSIG",
      "taf": "TAF LEMG 280500Z 2806/2906 VRB03KT 9999 FEW020 TX16/2814Z TN12/2806Z"
    },
    {
      "icao": "LEVC",
      "alert": "OK",
      "vis_m": 9999,
      "fzfg": false,
      "metar_trigger": false,
      "taf_trigger": false,
      "metar": "METAR LEVC 280530Z 35004KT 300V020 9999 -DZ FEW021 09/08 Q1016 NOSIG",
      "taf": "TAF LEVC 280500Z 2806/2906 02005KT 9999 FEW015 BKN040 TX13/2813Z TN09/2806Z"
    },
    {
      "icao": "LEXJ",
      "alert": "OK",
      "vis_m": 9999,
      "fzfg": false,
      "metar_trigger": false,
      "taf_trigger": false,
      "metar": "METAR LEXJ 280530Z 08003KT 040V130 9999 FEW055 11/06 Q1017",
      "taf": "TAF LEXJ 280200Z 2803/2903 10009KT CAVOK TX15/2814Z TN06/2807Z"
    },
    {
      "icao": "LEZG",
      "alert": "OK",
      "vis_m": 9000,
      "fzfg": false,
      "metar_trigger": false,
      "taf_trigger": false,
      "metar": "METAR LEZG 280530Z 35002KT 9000 FEW010 BKN025 08/08 Q1018 NOSIG",
      "taf": "TAF LEZG 280500Z 2806/2906 13006KT 9999 SCT015 BKN025 TX11/2814Z TN05/2806Z"
    },
    {
      "icao": "LEZL",
      "alert": "OK",
      "vis_m": 9999,
      "fzfg": false,
      "metar_trigger": false,
      "taf_trigger": false,
      "metar": "METAR LEZL 280530Z 08008KT CAVOK 10/09 Q1010 NOSIG",
      "taf": "TAF LEZL 280200Z 2803/2903 09005KT CAVOK TX17/2815Z TN08/2806Z"
    },
    {
      "icao": "LFBD",
      "alert": "OK",
      "vis_m": 9999,
      "fzfg": false,
      "metar_trigger": false,
      "taf_trigger": false,
      "metar": "METAR LFBD 280530Z AUTO 04005KT CAVOK 04/01 Q1021 NOSIG",
      "taf": "TAF LFBD 280500Z 2806/2912 05005KT CAVOK TX12/2814Z TN01/2905Z"
    },
    {
      "icao": "LFLL",
      "alert": "OK",
      "vis_m": 6000,
      "fzfg": false,
      "metar_trigger": false,
      "taf_trigger": false,
      "metar": "METAR LFLL 280530Z VRB02KT 6000 OVC006 00/M01 Q1025 TEMPO 4000 BR OVC004",
      "taf": "TAF LFLL 280500Z 2806/2912 VRB03KT 6000 OVC006"
    },
    {
      "icao": "LFLS",
      "alert": "OK",
      "vis_m": 8000,
      "fzfg": false,
      "metar_trigger": false,
      "taf_trigger": false,
      "metar": "METAR LFLS 280530Z AUTO 02004KT 8000 OVC008 M01/M02 Q1024 TEMPO 4000 BR BKN004",
      "taf": "TAF LFLS 280200Z 2803/2903 04005KT 6000 SCT008"
    },
    {
      "icao": "LFMN",
      "alert": "OK",
      "vis_m": 9999,
      "fzfg": false,
      "metar_trigger": false,
      "taf_trigger": false,
      "metar": "METAR LFMN 280530Z 32017KT CAVOK 08/M04 Q1019 NOSIG",
      "taf": "TAF LFMN 280200Z 2803/2909 33012KT CAVOK"
    },
    {
      "icao": "LFOB",
      "alert": "OK",
      "vis_m": 9999,
      "fzfg": false,
      "metar_trigger": false,
      "taf_trigger": false,
      "metar": "METAR LFOB 280530Z AUTO 05010KT 9999 OVC005 02/02 Q1030",
      "taf": "TAF LFOB 272300Z 2800/2824 02006KT 8000 NSC"
    },
    {
      "icao": "LFPO",
      "alert": "OK",
      "vis_m": 6000,
      "fzfg": false,
      "metar_trigger": false,
      "taf_trigger": false,
      "metar": "METAR LFPO 280530Z 03009KT 6000 BKN006 M00/M01 Q1029 TEMPO 4000 BR BKN004",
      "taf": "TAF LFPO 280500Z 2806/2912 02008KT 6000 BKN006"
    },
    {
      "icao": "LFSB",
      "alert": "OK",
      "vis_m": 6000,
      "fzfg": false,
      "metar_trigger": false,
      "taf_trigger": false,
      "metar": "METAR LFSB 280530Z AUTO 32003KT 300V360 6000 OVC012 M01/M02 Q1028 TEMPO 3000 BR OVC003",
      "taf": "TAF LFSB 280500Z 2806/2906 33004KT 7000 BKN015"
    },
    {
      "icao": "LGAV",
      "alert": "OK",
      "vis_m": 9999,
      "fzfg": false,
      "metar_trigger": false,
      "taf_trigger": false,
      "metar": "METAR LGAV 280520Z VRB02KT 9999 FEW020 06/03 Q1014 NOSIG",
      "taf": "TAF LGAV 280500Z 2806/2906 28010KT 9999 FEW020"
    },
    {
      "icao": "LGTS",
      "alert": "OK",
      "vis_m": 9999,
      "fzfg": false,
      "metar_trigger": false,
      "taf_trigger": false,
      "metar": "METAR LGTS 280520Z 28005KT CAVOK 05/01 Q1013 NOSIG",
      "taf": "TAF LGTS 280500Z 2806/2906 33015KT 9999 FEW030"
    },
    {
      "icao": "LHBP",
      "alert": "OK",
      "vis_m": 9999,
      "fzfg": false,
      "metar_trigger": false,
      "taf_trigger": false,
      "metar": "METAR LHBP 280530Z 31014KT CAVOK 00/M03 Q1019 NOSIG",
      "taf": "TAF LHBP 280515Z 2806/2906 31012G22KT CAVOK"
    },
    {
      "icao": "LHDC",
      "alert": "OK",
      "vis_m": 9999,
      "fzfg": false,
      "metar_trigger": false,
      "taf_trigger": false,
      "metar": "METAR LHDC 280515Z AUTO 32008KT CAVOK M00/M04 Q1016 NOSIG",
      "taf": "TAF LHDC 280515Z 2806/2815 29010KT CAVOK"
    },
    {
      "icao": "LIBD",
      "alert": "OK",
      "vis_m": 9999,
      "fzfg": false,
      "metar_trigger": false,
      "taf_trigger": false,
      "metar": "METAR LIBD 280520Z 26008KT CAVOK 06/04 Q1018",
      "taf": "TAF LIBD 280500Z 2806/2906 28010KT 9999 FEW030"
    },
    {
      "icao": "LIBG",
      "alert": "OK",
      "vis_m": null,
      "fzfg": false,
      "metar_trigger": false,
      "taf_trigger": false,
      "metar": "",
      "taf": ""
    },
    {
      "icao": "LIBP",
      "alert": "OK",
      "vis_m": 9999,
      "fzfg": false,
      "metar_trigger": false,
      "taf_trigger": false,
      "metar": "METAR LIBP 280520Z AUTO 25007KT 9999 NCD 02/01 Q1020",
      "taf": "TAF LIBP 280500Z 2806/2906 VRB06KT CAVOK"
    },
    {
      "icao": "LIBR",
      "alert": "OK",
      "vis_m": 9999,
      "fzfg": false,
      "metar_trigger": false,
      "taf_trigger": false,
      "metar": "METAR LIBR 280520Z 31011KT CAVOK 09/07 Q1017",
      "taf": "TAF LIBR 280500Z 2806/2906 33013KT 9999 FEW025"
    },
    {
      "icao": "LICA",
      "alert": "OK",
      "vis_m": 9999,
      "fzfg": false,
      "metar_trigger": false,
      "taf_trigger": false,
      "metar": "METAR LICA 280520Z AUTO 07006KT 9999 FEW028/// 05/04 Q1019",
      "taf": "TAF LICA 280500Z 2806/2906 07008KT CAVOK"
    },
    {
      "icao": "LICC",
      "alert": "OK",
      "vis_m": 9999,
      "fzfg": false,
      "metar_trigger": false,
      "taf_trigger": false,
      "metar": "METAR LICC 280520Z 23006KT CAVOK 07/05 Q1019",
      "taf": "TAF LICC 280500Z 2806/2906 28008KT 9999 FEW030"
    },
    {
      "icao": "LICJ",
      "alert": "OK",
      "vis_m": 9999,
      "fzfg": false,
      "metar_trigger": false,
      "taf_trigger": false,
      "metar": "METAR LICJ 280520Z 19004KT 160V220 CAVOK 10/09 Q1019",
      "taf": "TAF LICJ 280500Z 2806/2906 VRB05KT 9999 FEW040"
    },
    {
      "icao": "LIMC",
      "alert": "OK",
      "vis_m": 9999,
      "fzfg": false,
      "metar_trigger": false,
      "taf_trigger": false,
      "metar": "METAR LIMC 280520Z 02007KT CAVOK M00/M01 Q1018 NOSIG",
      "taf": "TAF LIMC 280500Z 2806/2912 VRB05KT 6000 FEW030"
    },
    {
      "icao": "LIME",
      "alert": "OK",
      "vis_m": 9999,
      "fzfg": false,
      "metar_trigger": false,
      "taf_trigger": false,
      "metar": "METAR LIME 280520Z AUTO 01005KT 9999 NCD 02/M01 Q1018",
      "taf": "TAF LIME 280500Z 2806/2906 VRB05KT CAVOK"
    },
    {
      "icao": "LIMF",
      "alert": "OK",
      "vis_m": 9999,
      "fzfg": false,
      "metar_trigger": false,
      "taf_trigger": false,
      "metar": "METAR LIMF 280520Z 36004KT CAVOK 00/M04 Q1018",
      "taf": "TAF LIMF 280500Z 2806/2906 VRB06KT CAVOK"
    },
    {
      "icao": "LIMJ",
      "alert": "OK",
      "vis_m": 9999,
      "fzfg": false,
      "metar_trigger": false,
      "taf_trigger": false,
      "metar": "METAR LIMJ 280520Z AUTO 08004KT 010V120 9999 NCD 06/M02 Q1019",
      "taf": "TAF LIMJ 280500Z 2806/2906 03012KT CAVOK"
    },
    {
      "icao": "LIPE",
      "alert": "OK",
      "vis_m": 9999,
      "fzfg": false,
      "metar_trigger": false,
      "taf_trigger": false,
      "metar": "METAR LIPE 280520Z 20010KT 180V250 CAVOK 03/M02 Q1018",
      "taf": "TAF LIPE 280500Z 2806/2906 VRB06KT CAVOK"
    },
    {
      "icao": "LIPH",
      "alert": "OK",
      "vis_m": 9999,
      "fzfg": false,
      "metar_trigger": false,
      "taf_trigger": false,
      "metar": "METAR LIPH 280520Z AUTO VRB02KT 9999 NCD 00/M01 Q1018",
      "taf": "TAF LIPH 280500Z 2806/2906 VRB05KT CAVOK"
    },
    {
      "icao": "LIPQ",
      "alert": "OK",
      "vis_m": 9999,
      "fzfg": false,
      "metar_trigger": false,
      "taf_trigger": false,
      "metar": "METAR LIPQ 280520Z AUTO 33002KT 9999 NCD M02/M03 Q1018",
      "taf": "TAF LIPQ 280500Z 2806/2906 VRB05KT CAVOK"
    },
    {
      "icao": "LIPR",
      "alert": "OK",
      "vis_m": 9999,
      "fzfg": false,
      "metar_trigger": false,
      "taf_trigger": false,
      "metar": "METAR LIPR 280520Z AUTO VRB01KT 9999 NCD M01/M02 Q1019",
      "taf": "TAF LIPR 280500Z 2806/2906 VRB06KT CAVOK"
    },
    {
      "icao": "LIPX",
      "alert": "OK",
      "vis_m": 9999,
      "fzfg": false,
      "metar_trigger": false,
      "taf_trigger": false,
      "metar": "METAR LIPX 280520Z 34005KT CAVOK M01/M02 Q1018",
      "taf": "TAF LIPX 280500Z 2806/2906 VRB06KT CAVOK"
    },
    {
      "icao": "LIPY",
      "alert": "OK",
      "vis_m": 9999,
      "fzfg": false,
      "metar_trigger": false,
      "taf_trigger": false,
      "metar": "METAR LIPY 280520Z AUTO 19004KT 170V230 9999 NCD 03/M01 Q1019",
      "taf": "TAF LIPY 280500Z 2806/2906 VRB05KT CAVOK"
    },
    {
      "icao": "LIPZ",
      "alert": "OK",
      "vis_m": 9999,
      "fzfg": false,
      "metar_trigger": false,
      "taf_trigger": false,
      "metar": "METAR LIPZ 280520Z 05004KT CAVOK M01/M01 Q1018 NOSIG",
      "taf": "TAF LIPZ 280500Z 2806/2912 VRB05KT CAVOK"
    },
    {
      "icao": "LIRF",
      "alert": "OK",
      "vis_m": 9999,
      "fzfg": false,
      "metar_trigger": false,
      "taf_trigger": false,
      "metar": "METAR LIRF 280520Z 09004KT CAVOK 02/01 Q1019 NOSIG",
      "taf": "TAF LIRF 280500Z 2806/2912 04008KT CAVOK"
    },
    {
      "icao": "LIRN",
      "alert": "OK",
      "vis_m": 9999,
      "fzfg": false,
      "metar_trigger": false,
      "taf_trigger": false,
      "metar": "METAR LIRN 280520Z 01003KT CAVOK 03/01 Q1019 NOSIG",
      "taf": "TAF LIRN 280500Z 2806/2906 02007KT CAVOK"
    },
    {
      "icao": "LIRP",
      "alert": "OK",
      "vis_m": 9999,
      "fzfg": false,
      "metar_trigger": false,
      "taf_trigger": false,
      "metar": "METAR LIRP 280515Z 14004KT CAVOK M01/M01 Q1020 NOSIG",
      "taf": "TAF LIRP 280500Z 2806/2906 12005KT CAVOK"
    },
    {
      "icao": "LIRZ",
      "alert": "OK",
      "vis_m": 9999,
      "fzfg": false,
      "metar_trigger": false,
      "taf_trigger": false,
      "metar": "METAR LIRZ 280520Z AUTO 03005KT 9999 NCD M02/M03 Q1020",
      "taf": "TAF LIRZ 280500Z 2806/2906 VRB06KT CAVOK"
    },
    {
      "icao": "LJLJ",
      "alert": "OK",
      "vis_m": 600,
      "fzfg": true,
      "metar_trigger": false,
      "taf_trigger": false,
      "metar": "METAR LJLJ 280530Z VRB02KT 0600 R30/1000N FZFG VV001 M03/M03 Q1022 NOSIG",
      "taf": "TAF LJLJ 280500Z 2806/2906 30002KT 0400 FZFG VV002"
    },
    {
      "icao": "LKMT",
      "alert": "OK",
      "vis_m": 9999,
      "fzfg": false,
      "metar_trigger": false,
      "taf_trigger": false,
      "metar": "METAR LKMT 280530Z 34009KT 9999 SCT018 BKN047 01/M02 Q1023 NOSIG",
      "taf": "TAF LKMT 280500Z 2806/2906 35010KT 9999 BKN040"
    },
    {
      "icao": "LKPR",
      "alert": "OK",
      "vis_m": 9999,
      "fzfg": false,
      "metar_trigger": false,
      "taf_trigger": false,
      "metar": "METAR LKPR 280530Z 25005KT CAVOK M01/M04 Q1027 NOSIG",
      "taf": "TAF LKPR 280500Z 2806/2912 30009KT CAVOK"
    },
    {
      "icao": "LLBG",
      "alert": "OK",
      "vis_m": 9999,
      "fzfg": false,
      "metar_trigger": false,
      "taf_trigger": false,
      "metar": "METAR LLBG 280520Z 28011KT 9999 VCTS FEW///CB BKN039 16/07 Q1008 TEMPO 5000 RA FEW025TCU BKN030 RMK CB OBS NW OF AD",
      "taf": "TAF LLBG 280502Z 2806/2906 27013KT 9999 SCT035"
    },
    {
      "icao": "LMML",
      "alert": "OK",
      "vis_m": 9999,
      "fzfg": false,
      "metar_trigger": false,
      "taf_trigger": false,
      "metar": "METAR LMML 280545Z 08005KT 040V100 9999 FEW025 12/09 Q1019 NOSIG",
      "taf": "TAF LMML 280500Z 2806/2906 07006KT 9999 FEW020"
    },
    {
      "icao": "LOWW",
      "alert": "OK",
      "vis_m": 9999,
      "fzfg": false,
      "metar_trigger": false,
      "taf_trigger": false,
      "metar": "METAR LOWW 280520Z 32018KT 9999 BKN038 03/M02 Q1024 NOSIG",
      "taf": "TAF LOWW 280515Z 2806/2912 31015KT 9999 SCT030 TX04/2813Z TNM04/2905Z"
    },
    {
      "icao": "LPFR",
      "alert": "OK",
      "vis_m": 9999,
      "fzfg": false,
      "metar_trigger": false,
      "taf_trigger": false,
      "metar": "METAR LPFR 280530Z 07010KT 9999 FEW012 FEW025CB SCT032 10/08 Q1006",
      "taf": "TAF LPFR 280500Z 2806/2906 07012KT 9999 FEW012 SCT035"
    },
    {
      "icao": "LPMA",
      "alert": "OK",
      "vis_m": 9999,
      "fzfg": false,
      "metar_trigger": false,
      "taf_trigger": false,
      "metar": "METAR LPMA 280530Z 32006KT 260V010 9999 SCT016 16/07 Q1016",
      "taf": "TAF LPMA 280500Z 2806/2906 VRB05KT 9999 SCT015"
    },
    {
      "icao": "LPPR",
      "alert": "OK",
      "vis_m": 9999,
      "fzfg": false,
      "metar_trigger": false,
      "taf_trigger": false,
      "metar": "METAR LPPR 280530Z 07003KT 360V120 CAVOK 09/04 Q1012",
      "taf": "TAF LPPR 280500Z 2806/2906 VRB02KT CAVOK"
    },
    {
      "icao": "LPPS",
      "alert": "OK",
      "vis_m": 9999,
      "fzfg": false,
      "metar_trigger": false,
      "taf_trigger": false,
      "metar": "METAR LPPS 280530Z 33015KT 9999 SCT015 15/08 Q1016",
      "taf": "TAF LPPS 280500Z 2806/2912 33013KT 9999 SCT015"
    },
    {
      "icao": "LPPT",
      "alert": "OK",
      "vis_m": 9999,
      "fzfg": false,
      "metar_trigger": false,
      "taf_trigger": false,
      "metar": "METAR LPPT 280530Z 04010KT 9999 FEW008 SCT011 08/08 Q1009",
      "taf": "TAF LPPT 280500Z 2806/2912 05010KT 9999 FEW015 BKN030"
    },
    {
      "icao": "LQBK",
      "alert": "OK",
      "vis_m": 9999,
      "fzfg": false,
      "metar_trigger": false,
      "taf_trigger": false,
      "metar": "METAR LQBK 280530Z 15007KT 9999 4000N SCT009 M03/M03 Q1023 NOSIG",
      "taf": "TAF LQBK 280500Z 2806/2906 30005KT CAVOK TX06/2813Z TNM05/2905Z"
    },
    {
      "icao": "LQSA",
      "alert": "OK",
      "vis_m": 9999,
      "fzfg": false,
      "metar_trigger": false,
      "taf_trigger": false,
      "metar": "METAR LQSA 280530Z VRB02KT 9999 OVC008 M01/M02 Q1021 NOSIG",
      "taf": "TAF LQSA 280500Z 2806/2906 VRB02KT 9999 OVC008 TX03/2813Z TNM08/2905Z"
    },
    {
      "icao": "LQTZ",
      "alert": "OK",
      "vis_m": 6000,
      "fzfg": false,
      "metar_trigger": false,
      "taf_trigger": false,
      "metar": "METAR LQTZ 280530Z 01006KT 330V040 6000 BKN055 M02/M02 Q1022",
      "taf": "TAF LQTZ 280500Z 2806/2906 36005KT 9999 SCT030 TX02/2813Z TNM08/2905Z"
    },
    {
      "icao": "LRBC",
      "alert": "OK",
      "vis_m": 9999,
      "fzfg": false,
      "metar_trigger": false,
      "taf_trigger": false,
      "metar": "METAR LRBC 280530Z COR 32015KT 9999 BKN053 02/M05 Q1006",
      "taf": "TAF LRBC 280500Z 2806/2815 31020KT 9999 SCT045"
    },
    {
      "icao": "LRBS",
      "alert": "OK",
      "vis_m": 9999,
      "fzfg": false,
      "metar_trigger": false,
      "taf_trigger": false,
      "metar": "METAR LRBS 280530Z 28003KT 240V330 CAVOK M03/M03 Q1007 NOSIG",
      "taf": "TAF LRBS 280500Z 2806/2906 27009KT CAVOK"
    },
    {
      "icao": "LRBV",
      "alert": "OK",
      "vis_m": 9999,
      "fzfg": false,
      "metar_trigger": false,
      "taf_trigger": false,
      "metar": "METAR LRBV 280530Z 31017G31KT 9999 -SN FEW010 BKN015 BKN020 M01/M04 Q1008",
      "taf": "TAF LRBV 280500Z 2806/2815 31018G30KT 9999 -SN BKN015 BKN020"
    },
    {
      "icao": "LRCL",
      "alert": "OK",
      "vis_m": 9999,
      "fzfg": false,
      "metar_trigger": false,
      "taf_trigger": false,
      "metar": "METAR LRCL 280530Z 29014KT 9999 FEW023 SCT068 M00/M04 Q1012",
      "taf": "TAF LRCL 280500Z 2806/2815 30014KT 9999 BKN025"
    },
    {
      "icao": "LRCV",
      "alert": "OK",
      "vis_m": 9999,
      "fzfg": false,
      "metar_trigger": false,
      "taf_trigger": false,
      "metar": "METAR LRCV 280530Z 28017KT CAVOK 02/M00 Q1008",
      "taf": "TAF LRCV 280500Z 2806/2815 29015KT CAVOK"
    },
    {
      "icao": "LRIA",
      "alert": "OK",
      "vis_m": 9999,
      "fzfg": false,
      "metar_trigger": false,
      "taf_trigger": false,
      "metar": "METAR LRIA 280530Z 30018G28KT 270V340 9999 FEW020 BKN043 01/M02 Q1005",
      "taf": "TAF LRIA 280500Z 2806/2815 31020KT 9999 BKN035"
    },
    {
      "icao": "LROP",
      "alert": "OK",
      "vis_m": 9999,
      "fzfg": false,
      "metar_trigger": false,
      "taf_trigger": false,
      "metar": "METAR LROP 280530Z 24004KT CAVOK M04/M04 Q1007 NOSIG",
      "taf": "TAF LROP 280500Z 2806/2906 27009KT CAVOK"
    },
    {
      "icao": "LRSB",
      "alert": "OK",
      "vis_m": 9999,
      "fzfg": false,
      "metar_trigger": false,
      "taf_trigger": false,
      "metar": "METAR LRSB 280530Z 32013KT 9999 FEW029 SCT046 M00/M02 Q1011 NOSIG",
      "taf": "TAF LRSB 280500Z 2806/2906 31012KT 9999 SCT010 BKN030"
    },
    {
      "icao": "LRSM",
      "alert": "OK",
      "vis_m": 9999,
      "fzfg": false,
      "metar_trigger": false,
      "taf_trigger": false,
      "metar": "METAR LRSM 280530Z 31011KT 9999 -SN NSC 01/M03 Q1014",
      "taf": "TAF LRSM 280500Z 2806/2815 31015KT 9999 SCT015 BKN030"
    },
    {
      "icao": "LRSV",
      "alert": "OK",
      "vis_m": 9999,
      "fzfg": false,
      "metar_trigger": false,
      "taf_trigger": false,
      "metar": "METAR LRSV 280530Z COR 31021G31KT 9999 -SN DRSN SCT012 BKN026 M00/M04 Q1004",
      "taf": "TAF LRSV 280500Z 2806/2815 32020KT 9999 BKN015 OVC025"
    },
    {
      "icao": "LRTM",
      "alert": "OK",
      "vis_m": 9999,
      "fzfg": false,
      "metar_trigger": false,
      "taf_trigger": false,
      "metar": "METAR LRTM 280530Z 28011KT 9999 FEW010 SCT017 BKN035 M00/M03 Q1011",
      "taf": "TAF LRTM 280500Z 2806/2815 30014KT 9999 SCT010 BKN035"
    },
    {
      "icao": "LRTR",
      "alert": "OK",
      "vis_m": 7000,
      "fzfg": false,
      "metar_trigger": false,
      "taf_trigger": false,
      "metar": "METAR LRTR 280530Z 34009KT 7000 NSC M01/M01 Q1017 NOSIG",
      "taf": "TAF LRTR 280500Z 2806/2906 32010KT 9999 SCT025"
    },
    {
      "icao": "LTAC",
      "alert": "OK",
      "vis_m": 9999,
      "fzfg": false,
      "metar_trigger": false,
      "taf_trigger": false,
      "metar": "METAR LTAC 280520Z 25011KT 9999 FEW015 BKN035 BKN100 M02/M05 Q1007 NOSIG RMK RWY21C 24011KT RWY03L 25010KT RWY21R 24010KT RWY03R 22010KT RWY21L 24011KT",
      "taf": "TAF LTAC 280440Z 2806/2906 VRB02KT 9999 SCT030 BKN080"
    },
    {
      "icao": "LTFM",
      "alert": "OK",
      "vis_m": 9999,
      "fzfg": false,
      "metar_trigger": false,
      "taf_trigger": false,
      "metar": "METAR LTFM 280520Z 22020KT 9999 BKN023 06/02 Q1007 NOSIG RMK RWY17L 22017KT RWY34L 21018KT RWY16R 22015KT RWY36 22018KT RWY18 23022KT",
      "taf": "TAF LTFM 280440Z 2806/2912 22020G30KT 9999 BKN022"
    },
    {
      "icao": "LUKK",
      "alert": "OK",
      "vis_m": 9999,
      "fzfg": false,
      "metar_trigger": false,
      "taf_trigger": false,
      "metar": "METAR LUKK 280530Z 34018G28KT 310V010 9999 SCT029 01/M04 Q1002 TEMPO 34025G40KT",
      "taf": "TAF LUKK 280525Z 2806/2906 31018G28KT 9999 BKN015"
    },
    {
      "icao": "LWOH",
      "alert": "OK",
      "vis_m": null,
      "fzfg": false,
      "metar_trigger": false,
      "taf_trigger": false,
      "metar": "",
      "taf": "TAF LWOH 280545Z 2806/2906 32005KT CAVOK"
    },
    {
      "icao": "LWSK",
      "alert": "OK",
      "vis_m": 7000,
      "fzfg": false,
      "metar_trigger": false,
      "taf_trigger": false,
      "metar": "METAR LWSK 280550Z VRB01KT 7000 NSC M06/M07 Q1016 NOSIG",
      "taf": "TAF LWSK 280545Z 2806/2906 01005KT CAVOK"
    },
    {
      "icao": "LYBE",
      "alert": "OK",
      "vis_m": 9999,
      "fzfg": false,
      "metar_trigger": false,
      "taf_trigger": false,
      "metar": "METAR LYBE 280530Z 32018KT 9999 FEW027 02/M02 Q1019 NOSIG",
      "taf": "TAF LYBE 280500Z 2806/2906 32015KT 9999 BKN025 TX04/2812Z TNM03/2906Z"
    },
    {
      "icao": "LYNI",
      "alert": "OK",
      "vis_m": 8000,
      "fzfg": false,
      "metar_trigger": false,
      "taf_trigger": false,
      "metar": "METAR LYNI 280530Z 00000KT 8000 SCT007 BKN037 M01/M01 Q1015 BECMG 32020KT",
      "taf": "TAF LYNI 280500Z 2806/2906 32017KT 9999 BKN030 TX03/2812Z TNM02/2906Z"
    },
    {
      "icao": "LYPG",
      "alert": "OK",
      "vis_m": 9999,
      "fzfg": false,
      "metar_trigger": false,
      "taf_trigger": false,
      "metar": "METAR LYPG 280530Z VRB02KT CAVOK M01/M03 Q1017 NOSIG",
      "taf": "TAF LYPG 280500Z 2806/2906 34005KT CAVOK TX13/2813Z TNM00/2806Z"
    },
    {
      "icao": "LZIB",
      "alert": "OK",
      "vis_m": 9999,
      "fzfg": false,
      "metar_trigger": false,
      "taf_trigger": false,
      "metar": "METAR LZIB 280530Z 31012KT 280V340 9999 FEW023 SCT048 03/M02 Q1023 NOSIG",
      "taf": "TAF LZIB 280515Z 2806/2906 30014KT 9999 FEW045"
    },
    {
      "icao": "LZKZ",
      "alert": "OK",
      "vis_m": 9999,
      "fzfg": false,
      "metar_trigger": false,
      "taf_trigger": false,
      "metar": "METAR LZKZ 280530Z 33019G31KT CAVOK 02/M06 Q1015 NOSIG",
      "taf": "TAF LZKZ 280515Z 2806/2906 35012KT 9999 SCT045"
    },
    {
      "icao": "LZTT",
      "alert": "OK",
      "vis_m": 9999,
      "fzfg": false,
      "metar_trigger": false,
      "taf_trigger": false,
      "metar": "METAR LZTT 280530Z 28012KT 250V310 9999 FEW010 SCT050 M01/M09 Q1015",
      "taf": "TAF LZTT 280515Z 2806/2906 26014KT 9999 BKN050"
    },
    {
      "icao": "OEJN",
      "alert": "OK",
      "vis_m": 9999,
      "fzfg": false,
      "metar_trigger": false,
      "taf_trigger": false,
      "metar": "METAR OEJN 280500Z 04004KT CAVOK 22/17 Q1012 NOSIG",
      "taf": "TAF OEJN 280500Z 2806/2912 36006KT CAVOK"
    },
    {
      "icao": "OEMA",
      "alert": "OK",
      "vis_m": 9999,
      "fzfg": false,
      "metar_trigger": false,
      "taf_trigger": false,
      "metar": "METAR OEMA 280500Z 02003KT CAVOK 15/02 Q1015 NOSIG",
      "taf": "TAF OEMA 280500Z 2806/2912 28010KT CAVOK"
    },
    {
      "icao": "OJAI",
      "alert": "OK",
      "vis_m": 2500,
      "fzfg": false,
      "metar_trigger": false,
      "taf_trigger": false,
      "metar": "SPECI OJAI 280509Z 23018KT 2500 -RA FEW025 SCT080 08/07 Q1009 NOSIG",
      "taf": "TAF OJAI 280500Z 2806/2912 29018G30KT 3000 RA BR FEW020TCU BKN025"
    },
    {
      "icao": "OMAA",
      "alert": "OK",
      "vis_m": 8000,
      "fzfg": false,
      "metar_trigger": false,
      "taf_trigger": false,
      "metar": "METAR OMAA 280500Z 13007KT 8000 NSC 21/12 Q1015 NOSIG",
      "taf": "TAF OMAA 280500Z 2806/2912 16012KT 8000 NSC"
    },
    {
      "icao": "OMDB",
      "alert": "OK",
      "vis_m": 6000,
      "fzfg": false,
      "metar_trigger": false,
      "taf_trigger": false,
      "metar": "METAR OMDB 280530Z 09005KT 060V140 6000 NSC 22/15 Q1015 NOSIG",
      "taf": "TAF OMDB 280500Z 2806/2912 18008KT 8000 NSC"
    },
    {
      "icao": "UAAA",
      "alert": "OK",
      "vis_m": 1600,
      "fzfg": false,
      "metar_trigger": false,
      "taf_trigger": false,
      "metar": "METAR UAAA 280530Z 00000MPS 1600 R23L/1600U BR OVC002 M02/M03 Q1016 NOSIG RMK QBB080",
      "taf": "TAF UAAA 280508Z 2806/2906 28003MPS 3100 BR BKN011 OVC100 TX01/2809Z TNM03/2901Z"
    },
    {
      "icao": "UBBB",
      "alert": "OK",
      "vis_m": 9999,
      "fzfg": false,
      "metar_trigger": false,
      "taf_trigger": false,
      "metar": "METAR UBBB 280530Z 34016KT 9999 SCT014 OVC025 06/03 Q1004 NOSIG",
      "taf": "TAF UBBB 280502Z 2806/2906 33018G28KT 9999 SCT012 BKN020 TX06/2808Z TN02/2902Z"
    },
    {
      "icao": "UDSG",
      "alert": "OK",
      "vis_m": 9999,
      "fzfg": false,
      "metar_trigger": false,
      "taf_trigger": false,
      "metar": "METAR UDSG 280530Z 05003KT 360V080 9999 BKN046 M08/M11 Q1002 NOSIG",
      "taf": "TAF UDSG 280500Z 2806/2906 VRB06KT 5000 BR BKN030"
    },
    {
      "icao": "UDYZ",
      "alert": "OK",
      "vis_m": 9999,
      "fzfg": false,
      "metar_trigger": false,
      "taf_trigger": false,
      "metar": "METAR UDYZ 280530Z 02001KT 9999 BKN046 M03/M04 Q1002 NOSIG",
      "taf": "TAF UDYZ 280500Z 2806/2906 24006KT 6000 SCT040"
    },
    {
      "icao": "UGKO",
      "alert": "OK",
      "vis_m": 9999,
      "fzfg": false,
      "metar_trigger": false,
      "taf_trigger": false,
      "metar": "METAR UGKO 280530Z VRB02KT 9999 SCT012CB OVC021 01/01 Q1007 NOSIG",
      "taf": "TAF UGKO 280500Z 2806/2906 09007KT 9999 SCT015 OVC045 TX04/2811Z TNM01/2904Z"
    }
  ]
}