{
  "ts_utc": "2026-03-03T09:51:53Z",
  "threshold_m": 150,
  "source": "stations_override.txt (ICAO list) + aviationweather.gov (METAR/TAF raw)",
  "station_count": 159,
  "stations": [
    {
      "icao": "BIKF",
      "alert": "OK",
      "vis_m": 9999,
      "fzfg": false,
      "metar_trigger": false,
      "taf_trigger": false,
      "metar": "METAR BIKF 030930Z 09018KT CAVOK M00/M05 Q1002",
      "taf": "TAF BIKF 030750Z 0309/0409 11018G30KT 9999 SCT040 TX07/0318Z TNM01/0408Z"
    },
    {
      "icao": "BKPR",
      "alert": "OK",
      "vis_m": null,
      "fzfg": false,
      "metar_trigger": false,
      "taf_trigger": false,
      "metar": "",
      "taf": "TAF BKPR 030530Z 0306/0406 04006KT 9999 BKN070"
    },
    {
      "icao": "EBCI",
      "alert": "OK",
      "vis_m": 9999,
      "fzfg": false,
      "metar_trigger": false,
      "taf_trigger": false,
      "metar": "METAR EBCI 030920Z 17003KT 140V210 CAVOK 13/05 Q1026 NOSIG",
      "taf": "TAF EBCI 030515Z 0306/0412 16004KT CAVOK"
    },
    {
      "icao": "EDDB",
      "alert": "OK",
      "vis_m": 9999,
      "fzfg": false,
      "metar_trigger": false,
      "taf_trigger": false,
      "metar": "METAR EDDB 030920Z AUTO 17004KT 130V210 CAVOK 09/02 Q1027 NOSIG",
      "taf": "TAF EDDB 030500Z 0306/0406 15005KT CAVOK"
    },
    {
      "icao": "EDDH",
      "alert": "OK",
      "vis_m": 9999,
      "fzfg": false,
      "metar_trigger": false,
      "taf_trigger": false,
      "metar": "METAR EDDH 030920Z AUTO 20005KT CAVOK 12/05 Q1024 NOSIG",
      "taf": "TAF EDDH 030500Z 0306/0412 VRB02KT CAVOK"
    },
    {
      "icao": "EDDK",
      "alert": "OK",
      "vis_m": 9999,
      "fzfg": false,
      "metar_trigger": false,
      "taf_trigger": false,
      "metar": "METAR EDDK 030920Z AUTO 15005KT 110V180 CAVOK 12/04 Q1026 NOSIG",
      "taf": "TAF EDDK 030500Z 0306/0412 VRB03KT CAVOK"
    },
    {
      "icao": "EDDN",
      "alert": "OK",
      "vis_m": 9999,
      "fzfg": false,
      "metar_trigger": false,
      "taf_trigger": false,
      "metar": "METAR EDDN 030920Z AUTO VRB02KT CAVOK 07/02 Q1027 NOSIG",
      "taf": "TAF EDDN 030500Z 0306/0406 VRB03KT 8000 NSC"
    },
    {
      "icao": "EDDS",
      "alert": "OK",
      "vis_m": 9999,
      "fzfg": false,
      "metar_trigger": false,
      "taf_trigger": false,
      "metar": "METAR EDDS 030920Z AUTO VRB02KT CAVOK 06/03 Q1026 NOSIG",
      "taf": "TAF EDDS 030500Z 0306/0406 VRB03KT CAVOK"
    },
    {
      "icao": "EDFH",
      "alert": "OK",
      "vis_m": 9999,
      "fzfg": false,
      "metar_trigger": false,
      "taf_trigger": false,
      "metar": "METAR EDFH 030920Z 14005KT CAVOK 11/04 Q1026",
      "taf": "TAF EDFH 030500Z 0306/0406 15006KT CAVOK"
    },
    {
      "icao": "EDJA",
      "alert": "OK",
      "vis_m": 9999,
      "fzfg": false,
      "metar_trigger": false,
      "taf_trigger": false,
      "metar": "METAR EDJA 030920Z 24005KT 210V270 CAVOK 06/05 Q1026",
      "taf": "TAF EDJA 030800Z 0309/0318 32003KT CAVOK"
    },
    {
      "icao": "EDLW",
      "alert": "OK",
      "vis_m": 9999,
      "fzfg": false,
      "metar_trigger": false,
      "taf_trigger": false,
      "metar": "METAR EDLW 030920Z 19006KT CAVOK 14/05 Q1025",
      "taf": "TAF EDLW 030500Z 0306/0406 17008KT CAVOK"
    },
    {
      "icao": "EDNY",
      "alert": "OK",
      "vis_m": 450,
      "fzfg": false,
      "metar_trigger": false,
      "taf_trigger": false,
      "metar": "METAR EDNY 030920Z VRB02KT 0450 R24/0500N FG VV/// 04/04 Q1027",
      "taf": "TAF EDNY 030800Z 0309/0318 VRB03KT 0500 FG VV001"
    },
    {
      "icao": "EDSB",
      "alert": "OK",
      "vis_m": 9999,
      "fzfg": false,
      "metar_trigger": false,
      "taf_trigger": false,
      "metar": "METAR EDSB 030920Z 00000KT CAVOK 09/05 Q1027",
      "taf": "TAF EDSB 030500Z 0306/0406 VRB03KT CAVOK"
    },
    {
      "icao": "EETN",
      "alert": "OK",
      "vis_m": 9999,
      "fzfg": false,
      "metar_trigger": false,
      "taf_trigger": false,
      "metar": "METAR EETN 030950Z 19011KT 9999 SCT006 SCT020 BKN048 00/M01 Q1020 NOSIG",
      "taf": "TAF EETN 030530Z 0306/0406 22010KT 9999 OVC002"
    },
    {
      "icao": "EFTU",
      "alert": "OK",
      "vis_m": 9999,
      "fzfg": false,
      "metar_trigger": false,
      "taf_trigger": false,
      "metar": "METAR EFTU 030920Z AUTO 19009KT 9999 -FZRA OVC010 01/M01 Q1017 REFZDZ",
      "taf": "TAF EFTU 030831Z 0309/0409 18012G22KT 9999 -FZRA BKN012"
    },
    {
      "icao": "EGBB",
      "alert": "OK",
      "vis_m": 9999,
      "fzfg": false,
      "metar_trigger": false,
      "taf_trigger": false,
      "metar": "METAR EGBB 030920Z 02007KT 360V060 9999 BKN043 09/06 Q1027",
      "taf": ""
    },
    {
      "icao": "EGGP",
      "alert": "OK",
      "vis_m": 9999,
      "fzfg": false,
      "metar_trigger": false,
      "taf_trigger": false,
      "metar": "METAR EGGP 030920Z 03006KT 360V060 CAVOK 07/04 Q1028",
      "taf": "TAF EGGP 030501Z 0306/0406 34005KT 9999 FEW030"
    },
    {
      "icao": "EGGW",
      "alert": "OK",
      "vis_m": 9999,
      "fzfg": false,
      "metar_trigger": false,
      "taf_trigger": false,
      "metar": "METAR EGGW 030920Z AUTO 05007KT 010V090 9999 BKN049 10/07 Q1026",
      "taf": "TAF EGGW 030455Z 0306/0406 VRB05KT 9999 BKN040"
    },
    {
      "icao": "EGKK",
      "alert": "OK",
      "vis_m": 9999,
      "fzfg": false,
      "metar_trigger": false,
      "taf_trigger": false,
      "metar": "METAR EGKK 030920Z 04003KT 010V070 CAVOK 10/08 Q1026",
      "taf": "TAF EGKK 030455Z 0306/0412 VRB02KT 9999 FEW030"
    },
    {
      "icao": "EGNM",
      "alert": "OK",
      "vis_m": 9999,
      "fzfg": false,
      "metar_trigger": false,
      "taf_trigger": false,
      "metar": "METAR EGNM 030920Z 03006KT CAVOK 06/M01 Q1027",
      "taf": "TAF EGNM 030524Z 0306/0406 30006KT 9999 SCT018"
    },
    {
      "icao": "EGPD",
      "alert": "OK",
      "vis_m": 9999,
      "fzfg": false,
      "metar_trigger": false,
      "taf_trigger": false,
      "metar": "METAR EGPD 030920Z COR AUTO 23008KT 9999 NCD 08/M01 Q1025 NOSIG",
      "taf": "TAF EGPD 030457Z 0306/0406 26009KT 9999 FEW040"
    },
    {
      "icao": "EGPF",
      "alert": "OK",
      "vis_m": 9999,
      "fzfg": false,
      "metar_trigger": false,
      "taf_trigger": false,
      "metar": "METAR EGPF 030920Z AUTO VRB02KT 9999 NCD 05/03 Q1028",
      "taf": "TAF EGPF 030503Z 0306/0406 24007KT 9999 FEW030"
    },
    {
      "icao": "EHBK",
      "alert": "OK",
      "vis_m": 9999,
      "fzfg": false,
      "metar_trigger": false,
      "taf_trigger": false,
      "metar": "METAR EHBK 030925Z AUTO 22007KT 9999 NCD 13/07 Q1025 NOSIG",
      "taf": "TAF EHBK 030508Z 0306/0412 20005KT CAVOK"
    },
    {
      "icao": "EHEH",
      "alert": "OK",
      "vis_m": 9999,
      "fzfg": false,
      "metar_trigger": false,
      "taf_trigger": false,
      "metar": "METAR EHEH 030925Z AUTO 18003KT 140V220 9999 NCD 13/06 Q1025 BLU NOSIG RMK TREND REMOTE BY EHWX",
      "taf": "TAF EHEH 030547Z 0306/0412 VRB02KT CAVOK"
    },
    {
      "icao": "EKBI",
      "alert": "OK",
      "vis_m": 9999,
      "fzfg": false,
      "metar_trigger": false,
      "taf_trigger": false,
      "metar": "METAR EKBI 030850Z AUTO 27009KT 9999 FEW016/// 07/05 Q1023",
      "taf": "TAF EKBI 030827Z 0309/0409 30008KT 9999 SCT030"
    },
    {
      "icao": "EKCH",
      "alert": "OK",
      "vis_m": 9999,
      "fzfg": false,
      "metar_trigger": false,
      "taf_trigger": false,
      "metar": "METAR EKCH 030920Z AUTO 21008KT 9999 BKN130/// 09/04 Q1023 NOSIG",
      "taf": "TAF EKCH 030827Z 0309/0409 22008KT CAVOK"
    },
    {
      "icao": "ENAL",
      "alert": "OK",
      "vis_m": 9999,
      "fzfg": false,
      "metar_trigger": false,
      "taf_trigger": false,
      "metar": "METAR ENAL 030920Z 23024KT 9999 -RA SCT013 BKN021 04/02 Q1007",
      "taf": "TAF ENAL 030800Z 0309/0318 23025KT 9999 -SHRA FEW015TCU BKN025"
    },
    {
      "icao": "ENBR",
      "alert": "OK",
      "vis_m": 9999,
      "fzfg": false,
      "metar_trigger": false,
      "taf_trigger": false,
      "metar": "METAR ENBR 030920Z 23011KT 9999 VCSH FEW030TCU SCT045 04/01 Q1015 TEMPO 25015G25KT SHRA BKN020CB RMK WIND 1200FT 26018KT",
      "taf": "TAF ENBR 030500Z 0306/0406 25012KT 9999 -SHRA FEW020TCU BKN030"
    },
    {
      "icao": "ENGM",
      "alert": "OK",
      "vis_m": 3000,
      "fzfg": false,
      "metar_trigger": false,
      "taf_trigger": false,
      "metar": "METAR ENGM 030920Z 20010KT 3000 R19R/P2000N R01R/1000U R19L/1200U R01L/P2000N BR BKN002 02/01 Q1011 BECMG 9999 FEW003",
      "taf": "TAF ENGM 030500Z 0306/0406 19010KT 1500 BR SCT002 BKN005"
    },
    {
      "icao": "ENHD",
      "alert": "OK",
      "vis_m": 9999,
      "fzfg": false,
      "metar_trigger": false,
      "taf_trigger": false,
      "metar": "METAR ENHD 030920Z 26018KT 9999 FEW028 06/02 Q1018",
      "taf": "TAF ENHD 030800Z 0309/0318 27018KT 9999 FEW015 SCT035"
    },
    {
      "icao": "ENTC",
      "alert": "OK",
      "vis_m": 8000,
      "fzfg": false,
      "metar_trigger": false,
      "taf_trigger": false,
      "metar": "METAR ENTC 030920Z 20020KT 8000 -SN SCT017 OVC023 00/M01 Q0997 TEMPO 4000 -SNRA VV012 RMK WIND 2600FT 18031KT",
      "taf": ""
    },
    {
      "icao": "ENTO",
      "alert": "OK",
      "vis_m": 9999,
      "fzfg": false,
      "metar_trigger": false,
      "taf_trigger": false,
      "metar": "METAR ENTO 030920Z 22014KT 9999 SCT004 03/03 Q1014 NOSIG",
      "taf": ""
    },
    {
      "icao": "ENVA",
      "alert": "OK",
      "vis_m": 9999,
      "fzfg": false,
      "metar_trigger": false,
      "taf_trigger": false,
      "metar": "METAR ENVA 030920Z 25012KT 200V280 9999 FEW034 SCT045 BKN055 05/01 Q1004 RERA TEMPO 26018G28KT SHRA BKN014CB RMK WIND 670FT 26017G29KT",
      "taf": ""
    },
    {
      "icao": "ENZV",
      "alert": "OK",
      "vis_m": 9999,
      "fzfg": false,
      "metar_trigger": false,
      "taf_trigger": false,
      "metar": "METAR ENZV 030920Z 26011KT 9999 -SHRA FEW032 SCT044 06/03 Q1019 TEMPO SHRA BKN020CB",
      "taf": "TAF ENZV 030500Z 0306/0406 27015KT 9999 FEW020 BKN040"
    },
    {
      "icao": "EPGD",
      "alert": "OK",
      "vis_m": 9999,
      "fzfg": false,
      "metar_trigger": false,
      "taf_trigger": false,
      "metar": "METAR EPGD 030930Z 22005KT 9999 SCT039 09/03 Q1025",
      "taf": "TAF EPGD 030530Z 0306/0406 23005KT 9999 BKN035"
    },
    {
      "icao": "EPKK",
      "alert": "OK",
      "vis_m": 9999,
      "fzfg": false,
      "metar_trigger": false,
      "taf_trigger": false,
      "metar": "METAR EPKK 030930Z VRB01KT CAVOK 09/M00 Q1028",
      "taf": "TAF EPKK 030830Z 0309/0409 26002KT CAVOK"
    },
    {
      "icao": "EPKT",
      "alert": "OK",
      "vis_m": 9999,
      "fzfg": false,
      "metar_trigger": false,
      "taf_trigger": false,
      "metar": "METAR EPKT 030930Z VRB02KT CAVOK 11/00 Q1028",
      "taf": "TAF EPKT 030530Z 0306/0406 VRB02KT CAVOK"
    },
    {
      "icao": "EPLB",
      "alert": "OK",
      "vis_m": 9999,
      "fzfg": false,
      "metar_trigger": false,
      "taf_trigger": false,
      "metar": "METAR EPLB 030930Z 29004KT 9999 FEW016 SCT028 BKN048 07/03 Q1027",
      "taf": "TAF EPLB 030530Z 0306/0406 29005KT 9999 BKN045"
    },
    {
      "icao": "EPMO",
      "alert": "OK",
      "vis_m": 9999,
      "fzfg": false,
      "metar_trigger": false,
      "taf_trigger": false,
      "metar": "METAR EPMO 030930Z 19004KT 9999 FEW045 09/04 Q1027",
      "taf": "TAF EPMO 030530Z 0306/0406 27004KT CAVOK"
    },
    {
      "icao": "EPPO",
      "alert": "OK",
      "vis_m": 9999,
      "fzfg": false,
      "metar_trigger": false,
      "taf_trigger": false,
      "metar": "METAR EPPO 030930Z 25006KT CAVOK 11/M01 Q1027",
      "taf": "TAF EPPO 030530Z 0306/0406 15002KT 8000 NSC"
    },
    {
      "icao": "EPRA",
      "alert": "OK",
      "vis_m": 9999,
      "fzfg": false,
      "metar_trigger": false,
      "taf_trigger": false,
      "metar": "METAR EPRA 030930Z 33003KT 230V020 CAVOK 09/M00 Q1028",
      "taf": "TAF EPRA 030830Z 0309/0318 30006KT CAVOK"
    },
    {
      "icao": "EPRZ",
      "alert": "OK",
      "vis_m": 9999,
      "fzfg": false,
      "metar_trigger": false,
      "taf_trigger": false,
      "metar": "METAR EPRZ 030930Z 26005KT 220V300 CAVOK 09/02 Q1028",
      "taf": "TAF EPRZ 030530Z 0306/0406 26003KT CAVOK"
    },
    {
      "icao": "EPSC",
      "alert": "OK",
      "vis_m": 9999,
      "fzfg": false,
      "metar_trigger": false,
      "taf_trigger": false,
      "metar": "METAR EPSC 030930Z 15005KT CAVOK 08/00 Q1026",
      "taf": "TAF EPSC 030530Z 0306/0406 13004KT CAVOK"
    },
    {
      "icao": "EPSY",
      "alert": "OK",
      "vis_m": 3900,
      "fzfg": false,
      "metar_trigger": false,
      "taf_trigger": false,
      "metar": "METAR EPSY 030930Z 20004KT 3900 -DZ BR BKN003 06/05 Q1027",
      "taf": "TAF EPSY 030830Z 0309/0318 21006KT 8000 BKN010"
    },
    {
      "icao": "EPWA",
      "alert": "OK",
      "vis_m": 9999,
      "fzfg": false,
      "metar_trigger": false,
      "taf_trigger": false,
      "metar": "METAR EPWA 030930Z VRB02KT 9999 BKN041 10/03 Q1027 NOSIG",
      "taf": "TAF EPWA 030830Z 0309/0409 27006KT CAVOK"
    },
    {
      "icao": "EPWR",
      "alert": "OK",
      "vis_m": 9999,
      "fzfg": false,
      "metar_trigger": false,
      "taf_trigger": false,
      "metar": "METAR EPWR 030930Z 10003KT 080V140 CAVOK 09/01 Q1028",
      "taf": "TAF EPWR 030830Z 0309/0409 11003KT CAVOK"
    },
    {
      "icao": "ESGG",
      "alert": "OK",
      "vis_m": 9999,
      "fzfg": false,
      "metar_trigger": false,
      "taf_trigger": false,
      "metar": "METAR ESGG 030920Z 22011KT 9999 OVC011 05/03 Q1018",
      "taf": "TAF ESGG 030830Z 0309/0409 20013KT CAVOK"
    },
    {
      "icao": "ESKN",
      "alert": "OK",
      "vis_m": 9999,
      "fzfg": false,
      "metar_trigger": false,
      "taf_trigger": false,
      "metar": "METAR ESKN 030920Z 20010KT 170V230 CAVOK 09/06 Q1016",
      "taf": "TAF ESKN 030830Z 0309/0409 15005KT CAVOK"
    },
    {
      "icao": "ESMS",
      "alert": "OK",
      "vis_m": 9999,
      "fzfg": false,
      "metar_trigger": false,
      "taf_trigger": false,
      "metar": "METAR ESMS 030920Z 21008KT CAVOK 08/04 Q1023",
      "taf": "TAF ESMS 030827Z 0309/0409 21007KT 9999 FEW020"
    },
    {
      "icao": "ESSA",
      "alert": "OK",
      "vis_m": 9999,
      "fzfg": false,
      "metar_trigger": false,
      "taf_trigger": false,
      "metar": "METAR ESSA 030920Z 21012KT CAVOK 07/04 Q1014 NOSIG",
      "taf": "TAF ESSA 030830Z 0309/0409 18010KT 9999 SCT008"
    },
    {
      "icao": "EYKA",
      "alert": "OK",
      "vis_m": 7000,
      "fzfg": false,
      "metar_trigger": false,
      "taf_trigger": false,
      "metar": "METAR EYKA 030950Z 26004KT 230V290 7000 OVC004 M01/M02 Q1027",
      "taf": ""
    },
    {
      "icao": "EYPA",
      "alert": "OK",
      "vis_m": 6000,
      "fzfg": false,
      "metar_trigger": false,
      "taf_trigger": false,
      "metar": "METAR EYPA 030950Z 18007KT 6000 OVC004 02/02 Q1025",
      "taf": "TAF EYPA 030515Z 0306/0406 VRB04KT 9000 BKN025"
    },
    {
      "icao": "EYVI",
      "alert": "OK",
      "vis_m": 9999,
      "fzfg": false,
      "metar_trigger": false,
      "taf_trigger": false,
      "metar": "METAR EYVI 030920Z 34003KT 270V020 9999 BKN007 M01/M02 Q1026 NOSIG",
      "taf": "TAF EYVI 030503Z 0306/0406 VRB04KT 9000 BKN005 OVC015"
    },
    {
      "icao": "GCFV",
      "alert": "OK",
      "vis_m": 9999,
      "fzfg": false,
      "metar_trigger": false,
      "taf_trigger": false,
      "metar": "METAR GCFV 030930Z 32013KT 280V350 9999 FEW020 SCT035 17/06 Q1017",
      "taf": "TAF GCFV 030800Z 0309/0409 31011KT 9999 SCT040 TX19/0314Z TN14/0406Z"
    },
    {
      "icao": "GCLP",
      "alert": "OK",
      "vis_m": 9999,
      "fzfg": false,
      "metar_trigger": false,
      "taf_trigger": false,
      "metar": "METAR GCLP 030930Z COR 34010KT 320V030 9999 SCT045 16/07 Q1018 NOSIG",
      "taf": "TAF GCLP 030800Z 0309/0409 35022KT 9999 SCT040 TX20/0314Z TN13/0406Z"
    },
    {
      "icao": "GCTS",
      "alert": "OK",
      "vis_m": 9999,
      "fzfg": false,
      "metar_trigger": false,
      "taf_trigger": false,
      "metar": "METAR GCTS 030930Z 07007KT 020V110 9999 SCT035 18/05 Q1018 NOSIG",
      "taf": "TAF GCTS 030800Z 0309/0409 VRB06KT 9999 SCT035 TX20/0314Z TN14/0406Z"
    },
    {
      "icao": "GMAD",
      "alert": "OK",
      "vis_m": 8000,
      "fzfg": false,
      "metar_trigger": false,
      "taf_trigger": false,
      "metar": "METAR GMAD 030930Z 18011KT 8000 SCT020TCU BKN080 13/10 Q1012 TEMPO 4000 RA",
      "taf": ""
    },
    {
      "icao": "GMMN",
      "alert": "OK",
      "vis_m": 9999,
      "fzfg": false,
      "metar_trigger": false,
      "taf_trigger": false,
      "metar": "METAR GMMN 030930Z 19013KT 9999 BKN030 10/08 Q1009 RERA NOSIG",
      "taf": "TAF GMMN 030500Z 0306/0412 26008KT 8000 SCT006 BKN016TCU"
    },
    {
      "icao": "GMMX",
      "alert": "OK",
      "vis_m": 6000,
      "fzfg": false,
      "metar_trigger": false,
      "taf_trigger": false,
      "metar": "METAR GMMX 030930Z 19004KT 140V230 6000 SCT013 BKN023 09/07 Q1010 TEMPO 1500 SHRA",
      "taf": "TAF GMMX 030500Z 0306/0412 24008KT 8000 BKN020"
    },
    {
      "icao": "HEGN",
      "alert": "OK",
      "vis_m": 9999,
      "fzfg": false,
      "metar_trigger": false,
      "taf_trigger": false,
      "metar": "METAR HEGN 030900Z 34017KT CAVOK 19/06 Q1020 NOSIG",
      "taf": "TAF HEGN 030500Z 0306/0412 32008G20KT CAVOK"
    },
    {
      "icao": "HEMA",
      "alert": "OK",
      "vis_m": 9999,
      "fzfg": false,
      "metar_trigger": false,
      "taf_trigger": false,
      "metar": "METAR HEMA 030900Z 34022KT CAVOK 21/09 Q1018 NOSIG",
      "taf": "TAF HEMA 030500Z 0306/0412 33008G20KT CAVOK"
    },
    {
      "icao": "HESH",
      "alert": "OK",
      "vis_m": 9999,
      "fzfg": false,
      "metar_trigger": false,
      "taf_trigger": false,
      "metar": "METAR HESH 030900Z 01014KT CAVOK 21/03 Q1019 NOSIG",
      "taf": "TAF HESH 030500Z 0306/0412 35006G18KT CAVOK"
    },
    {
      "icao": "HESX",
      "alert": "OK",
      "vis_m": 9999,
      "fzfg": false,
      "metar_trigger": false,
      "taf_trigger": false,
      "metar": "METAR HESX 030900Z 03012KT 9999 FEW020 17/05 Q1024 NOSIG",
      "taf": "TAF HESX 030500Z 0306/0412 02009KT 9999 FEW025"
    },
    {
      "icao": "LATI",
      "alert": "OK",
      "vis_m": 9999,
      "fzfg": false,
      "metar_trigger": false,
      "taf_trigger": false,
      "metar": "METAR LATI 030950Z VRB01KT CAVOK 16/05 Q1027 NOSIG",
      "taf": "TAF LATI 030500Z 0306/0406 VRB03KT CAVOK TX19/0312Z TN06/0405Z"
    },
    {
      "icao": "LBPD",
      "alert": "OK",
      "vis_m": 9999,
      "fzfg": false,
      "metar_trigger": false,
      "taf_trigger": false,
      "metar": "METAR LBPD 030930Z AUTO 04004KT 010V070 9999 OVC150/// 12/05 Q1026 NOSIG",
      "taf": "TAF LBPD 030500Z 0306/0406 VRB03KT CAVOK"
    },
    {
      "icao": "LBSF",
      "alert": "OK",
      "vis_m": 9999,
      "fzfg": false,
      "metar_trigger": false,
      "taf_trigger": false,
      "metar": "METAR LBSF 030930Z 30004KT 260V360 CAVOK 08/02 Q1027 NOSIG",
      "taf": "TAF LBSF 030500Z 0306/0406 VRB03KT CAVOK"
    },
    {
      "icao": "LBWN",
      "alert": "OK",
      "vis_m": 9999,
      "fzfg": false,
      "metar_trigger": false,
      "taf_trigger": false,
      "metar": "METAR LBWN 030930Z 35008KT 300V020 CAVOK 09/04 Q1027 NOSIG",
      "taf": "TAF LBWN 030500Z 0306/0406 35010KT 9999 SCT045"
    },
    {
      "icao": "LCLK",
      "alert": "OK",
      "vis_m": 9999,
      "fzfg": false,
      "metar_trigger": false,
      "taf_trigger": false,
      "metar": "METAR LCLK 030930Z 09005KT 060V120 9999 FEW025 19/05 Q1024 NOSIG",
      "taf": "TAF LCLK 030530Z 0306/0406 33007KT 9999 FEW030"
    },
    {
      "icao": "LCPH",
      "alert": "OK",
      "vis_m": 9999,
      "fzfg": false,
      "metar_trigger": false,
      "taf_trigger": false,
      "metar": "METAR LCPH 030930Z 26005KT 230V320 9999 FEW020 18/05 Q1024 NOSIG",
      "taf": "TAF LCPH 030530Z 0306/0406 02008KT 9999 FEW030"
    },
    {
      "icao": "LEAL",
      "alert": "OK",
      "vis_m": 9999,
      "fzfg": false,
      "metar_trigger": false,
      "taf_trigger": false,
      "metar": "METAR LEAL 030930Z 07011KT CAVOK 18/12 Q1015 NOSIG",
      "taf": "TAF LEAL 030500Z 0306/0406 05007KT 9999 FEW020 TX21/0312Z TN13/0307Z"
    },
    {
      "icao": "LEBB",
      "alert": "OK",
      "vis_m": 9999,
      "fzfg": false,
      "metar_trigger": false,
      "taf_trigger": false,
      "metar": "METAR LEBB 030930Z 10007KT 070V140 CAVOK 16/09 Q1019 NOSIG",
      "taf": "TAF LEBB 030500Z 0306/0406 14009KT CAVOK TX21/0315Z TN09/0406Z"
    },
    {
      "icao": "LEBL",
      "alert": "OK",
      "vis_m": 9999,
      "fzfg": false,
      "metar_trigger": false,
      "taf_trigger": false,
      "metar": "METAR LEBL 030930Z 06016KT 9999 FEW015 SCT019 15/10 Q1021 NOSIG",
      "taf": ""
    },
    {
      "icao": "LECH",
      "alert": "OK",
      "vis_m": 9000,
      "fzfg": false,
      "metar_trigger": false,
      "taf_trigger": false,
      "metar": "METAR LECH 030930Z AUTO 04011KT 010V070 9000 OVC014 11/09 Q1020",
      "taf": ""
    },
    {
      "icao": "LEMD",
      "alert": "OK",
      "vis_m": 9999,
      "fzfg": false,
      "metar_trigger": false,
      "taf_trigger": false,
      "metar": "METAR LEMD 030930Z 04004KT 350V120 9999 BKN075 12/06 Q1017 NOSIG",
      "taf": ""
    },
    {
      "icao": "LEMG",
      "alert": "OK",
      "vis_m": 6000,
      "fzfg": false,
      "metar_trigger": false,
      "taf_trigger": false,
      "metar": "METAR LEMG 030930Z 29006KT 260V330 6000 FEW035 13/11 Q1011 NOSIG",
      "taf": "TAF LEMG 030500Z 0306/0406 29010KT 9999 FEW020 TX19/0314Z TN13/0307Z"
    },
    {
      "icao": "LEVC",
      "alert": "OK",
      "vis_m": 9999,
      "fzfg": false,
      "metar_trigger": false,
      "taf_trigger": false,
      "metar": "METAR LEVC 030930Z 05011KT 350V070 9999 OVC023 14/09 Q1019 NOSIG",
      "taf": "TAF LEVC 030500Z 0306/0406 05010KT 9999 SCT015 TX16/0312Z TN12/0307Z"
    },
    {
      "icao": "LEXJ",
      "alert": "OK",
      "vis_m": 9999,
      "fzfg": false,
      "metar_trigger": false,
      "taf_trigger": false,
      "metar": "METAR LEXJ 030930Z VRB01KT CAVOK 13/07 Q1018",
      "taf": "TAF LEXJ 030800Z 0309/0409 17007KT CAVOK TX20/0313Z TN09/0407Z"
    },
    {
      "icao": "LEZG",
      "alert": "OK",
      "vis_m": 6000,
      "fzfg": false,
      "metar_trigger": false,
      "taf_trigger": false,
      "metar": "METAR LEZG 030930Z VRB02KT 6000 BKN025 11/10 Q1022 NOSIG",
      "taf": "TAF LEZG 030500Z 0306/0406 VRB04KT 9999 FEW030 TX18/0315Z TN08/0306Z"
    },
    {
      "icao": "LEZL",
      "alert": "OK",
      "vis_m": 9999,
      "fzfg": false,
      "metar_trigger": false,
      "taf_trigger": false,
      "metar": "METAR LEZL 030930Z 06013KT CAVOK 16/09 Q1010 NOSIG",
      "taf": "TAF LEZL 030800Z 0309/0409 07010KT CAVOK TX23/0315Z TN11/0407Z"
    },
    {
      "icao": "LFBD",
      "alert": "OK",
      "vis_m": 9999,
      "fzfg": false,
      "metar_trigger": false,
      "taf_trigger": false,
      "metar": "METAR LFBD 030930Z AUTO 12010KT CAVOK 13/09 Q1021 NOSIG",
      "taf": "TAF LFBD 030500Z 0306/0412 10008KT CAVOK TX18/0314Z TN07/0306Z"
    },
    {
      "icao": "LFLL",
      "alert": "OK",
      "vis_m": 9999,
      "fzfg": false,
      "metar_trigger": false,
      "taf_trigger": false,
      "metar": "METAR LFLL 030930Z 13006KT 100V160 9999 FEW050 13/07 Q1026 NOSIG",
      "taf": "TAF LFLL 030500Z 0306/0412 16007KT CAVOK"
    },
    {
      "icao": "LFLS",
      "alert": "OK",
      "vis_m": 9999,
      "fzfg": false,
      "metar_trigger": false,
      "taf_trigger": false,
      "metar": "METAR LFLS 030930Z AUTO 06007KT CAVOK 11/05 Q1025 NOSIG",
      "taf": "TAF LFLS 030800Z 0309/0409 09006KT CAVOK"
    },
    {
      "icao": "LFMN",
      "alert": "OK",
      "vis_m": 9999,
      "fzfg": false,
      "metar_trigger": false,
      "taf_trigger": false,
      "metar": "METAR LFMN 030930Z VRB03KT CAVOK 15/04 Q1026 BECMG 08015KT",
      "taf": "TAF LFMN 030800Z 0309/0415 34010KT CAVOK"
    },
    {
      "icao": "LFOB",
      "alert": "OK",
      "vis_m": 9999,
      "fzfg": false,
      "metar_trigger": false,
      "taf_trigger": false,
      "metar": "METAR LFOB 030930Z AUTO VRB02KT CAVOK 11/08 Q1025 NOSIG",
      "taf": "TAF LFOB 030500Z 0306/0406 VRB02KT CAVOK"
    },
    {
      "icao": "LFPO",
      "alert": "OK",
      "vis_m": 9999,
      "fzfg": false,
      "metar_trigger": false,
      "taf_trigger": false,
      "metar": "METAR LFPO 030930Z VRB02KT CAVOK 12/06 Q1025 NOSIG",
      "taf": "TAF LFPO 030500Z 0306/0412 VRB02KT CAVOK"
    },
    {
      "icao": "LFSB",
      "alert": "OK",
      "vis_m": 9999,
      "fzfg": false,
      "metar_trigger": false,
      "taf_trigger": false,
      "metar": "METAR LFSB 030930Z AUTO VRB02KT CAVOK 11/05 Q1027 NOSIG",
      "taf": "TAF LFSB 030500Z 0306/0406 18003KT CAVOK"
    },
    {
      "icao": "LGAV",
      "alert": "OK",
      "vis_m": 9999,
      "fzfg": false,
      "metar_trigger": false,
      "taf_trigger": false,
      "metar": "METAR LGAV 030920Z VRB03KT CAVOK 16/07 Q1026 NOSIG",
      "taf": "TAF LGAV 030500Z 0306/0406 VRB05KT 9999 FEW020"
    },
    {
      "icao": "LGTS",
      "alert": "OK",
      "vis_m": 9000,
      "fzfg": false,
      "metar_trigger": false,
      "taf_trigger": false,
      "metar": "METAR LGTS 030920Z 26005KT 9000 FEW018 12/08 Q1026 NOSIG",
      "taf": "TAF LGTS 030500Z 0306/0406 VRB03KT 9999 FEW025"
    },
    {
      "icao": "LHBP",
      "alert": "OK",
      "vis_m": 9999,
      "fzfg": false,
      "metar_trigger": false,
      "taf_trigger": false,
      "metar": "METAR LHBP 030930Z VRB02KT CAVOK 12/02 Q1029 NOSIG",
      "taf": "TAF LHBP 030515Z 0306/0406 VRB03KT CAVOK"
    },
    {
      "icao": "LHDC",
      "alert": "OK",
      "vis_m": 9999,
      "fzfg": false,
      "metar_trigger": false,
      "taf_trigger": false,
      "metar": "METAR LHDC 030915Z AUTO 01005KT 320V050 CAVOK 11/M00 Q1028 NOSIG",
      "taf": "TAF LHDC 030815Z 0309/0318 VRB03KT CAVOK"
    },
    {
      "icao": "LIBD",
      "alert": "OK",
      "vis_m": 5000,
      "fzfg": false,
      "metar_trigger": false,
      "taf_trigger": false,
      "metar": "METAR LIBD 030920Z 34004KT 300V020 5000 BR FEW008 BKN020 13/11 Q1028",
      "taf": "TAF LIBD 030500Z 0306/0406 VRB05KT 7000 SCT030"
    },
    {
      "icao": "LIBG",
      "alert": "OK",
      "vis_m": 9999,
      "fzfg": false,
      "metar_trigger": false,
      "taf_trigger": false,
      "metar": "METAR LIBG 030850Z VRB01KT CAVOK 15/12 Q1027",
      "taf": "TAF LIBG 030800Z 0309/0318 VRB06KT 9999 FEW020"
    },
    {
      "icao": "LIBP",
      "alert": "OK",
      "vis_m": 5000,
      "fzfg": false,
      "metar_trigger": false,
      "taf_trigger": false,
      "metar": "METAR LIBP 030920Z VRB02KT 5000 BR NSC 14/10 Q1028",
      "taf": "TAF LIBP 030500Z 0306/0406 VRB05KT 7000 FEW040"
    },
    {
      "icao": "LIBR",
      "alert": "OK",
      "vis_m": 6000,
      "fzfg": false,
      "metar_trigger": false,
      "taf_trigger": false,
      "metar": "METAR LIBR 030920Z 32006KT 6000 SCT025 14/12 Q1027",
      "taf": "TAF LIBR 030500Z 0306/0406 VRB05KT 7000 SCT020"
    },
    {
      "icao": "LICA",
      "alert": "OK",
      "vis_m": 9999,
      "fzfg": false,
      "metar_trigger": false,
      "taf_trigger": false,
      "metar": "METAR LICA 030920Z 09007KT CAVOK 16/12 Q1027",
      "taf": "TAF LICA 030500Z 0306/0406 VRB05KT CAVOK"
    },
    {
      "icao": "LICC",
      "alert": "OK",
      "vis_m": 9999,
      "fzfg": false,
      "metar_trigger": false,
      "taf_trigger": false,
      "metar": "METAR LICC 030920Z 23004KT 200V260 CAVOK 15/14 Q1027",
      "taf": "TAF LICC 030500Z 0306/0406 VRB05KT CAVOK"
    },
    {
      "icao": "LICJ",
      "alert": "OK",
      "vis_m": 9999,
      "fzfg": false,
      "metar_trigger": false,
      "taf_trigger": false,
      "metar": "METAR LICJ 030920Z 29003KT CAVOK 15/09 Q1025",
      "taf": "TAF LICJ 030500Z 0306/0406 VRB05KT 9999 FEW020"
    },
    {
      "icao": "LIMC",
      "alert": "OK",
      "vis_m": 9999,
      "fzfg": false,
      "metar_trigger": false,
      "taf_trigger": false,
      "metar": "METAR LIMC 030920Z VRB02KT 9999 SCT040 SCT080 12/08 Q1028 NOSIG",
      "taf": "TAF LIMC 030500Z 0306/0412 VRB05KT 9000 SCT010 BKN030"
    },
    {
      "icao": "LIME",
      "alert": "OK",
      "vis_m": 9999,
      "fzfg": false,
      "metar_trigger": false,
      "taf_trigger": false,
      "metar": "METAR LIME 030920Z 20003KT 140V240 9999 FEW035 12/07 Q1028 NOSIG",
      "taf": "TAF LIME 030500Z 0306/0406 VRB05KT 8000 BKN030"
    },
    {
      "icao": "LIMF",
      "alert": "OK",
      "vis_m": 2500,
      "fzfg": false,
      "metar_trigger": false,
      "taf_trigger": false,
      "metar": "METAR LIMF 030920Z VRB02KT 2500 BR SCT012 BKN040 11/08 Q1028",
      "taf": "TAF LIMF 030500Z 0306/0406 VRB04KT 3000 BR BKN030"
    },
    {
      "icao": "LIMJ",
      "alert": "OK",
      "vis_m": 9999,
      "fzfg": false,
      "metar_trigger": false,
      "taf_trigger": false,
      "metar": "METAR LIMJ 030920Z 04011KT CAVOK 14/08 Q1027",
      "taf": "TAF LIMJ 030500Z 0306/0406 03008KT 9999 SCT040"
    },
    {
      "icao": "LIPE",
      "alert": "OK",
      "vis_m": 4000,
      "fzfg": false,
      "metar_trigger": false,
      "taf_trigger": false,
      "metar": "METAR LIPE 030920Z 01003KT 290V060 4000 BR BKN007 10/09 Q1028",
      "taf": "TAF LIPE 030500Z 0306/0406 VRB04KT 1500 BR BKN004"
    },
    {
      "icao": "LIPH",
      "alert": "OK",
      "vis_m": 3500,
      "fzfg": false,
      "metar_trigger": false,
      "taf_trigger": false,
      "metar": "METAR LIPH 030920Z VRB02KT 3500 BR SCT007 BKN030 12/10 Q1028",
      "taf": "TAF LIPH 030500Z 0306/0406 VRB04KT 3000 BR BKN010"
    },
    {
      "icao": "LIPQ",
      "alert": "OK",
      "vis_m": 9999,
      "fzfg": false,
      "metar_trigger": false,
      "taf_trigger": false,
      "metar": "METAR LIPQ 030920Z VRB01KT 9999 RA SCT016 BKN025 11/09 Q1029",
      "taf": "TAF LIPQ 030500Z 0306/0406 VRB05KT 6000 SCT030"
    },
    {
      "icao": "LIPR",
      "alert": "OK",
      "vis_m": 3000,
      "fzfg": false,
      "metar_trigger": false,
      "taf_trigger": false,
      "metar": "METAR LIPR 030920Z 27003KT 230V300 3000 BR BKN004 09/09 Q1029",
      "taf": "TAF LIPR 030500Z 0306/0406 VRB05KT 0500 FG OVC002"
    },
    {
      "icao": "LIPX",
      "alert": "OK",
      "vis_m": 3000,
      "fzfg": false,
      "metar_trigger": false,
      "taf_trigger": false,
      "metar": "METAR LIPX 030920Z 23004KT 180V270 3000 BR SCT005 BKN020 11/10 Q1028",
      "taf": "TAF LIPX 030500Z 0306/0406 VRB05KT 4000 BR BKN030"
    },
    {
      "icao": "LIPY",
      "alert": "OK",
      "vis_m": 2000,
      "fzfg": false,
      "metar_trigger": false,
      "taf_trigger": false,
      "metar": "METAR LIPY 030920Z 35004KT 310V060 2000 BR OVC005 10/10 Q1028",
      "taf": "TAF LIPY 030500Z 0306/0406 VRB05KT 0500 FG OVC002"
    },
    {
      "icao": "LIPZ",
      "alert": "OK",
      "vis_m": 4500,
      "fzfg": false,
      "metar_trigger": false,
      "taf_trigger": false,
      "metar": "METAR LIPZ 030920Z VRB01KT 4500 BR SCT005 SCT030 12/10 Q1028 BECMG 6000",
      "taf": "TAF LIPZ 030500Z 0306/0412 VRB04KT 3000 BR BKN010"
    },
    {
      "icao": "LIRF",
      "alert": "OK",
      "vis_m": 9999,
      "fzfg": false,
      "metar_trigger": false,
      "taf_trigger": false,
      "metar": "METAR LIRF 030920Z 07006KT CAVOK 15/10 Q1027 NOSIG",
      "taf": "TAF LIRF 030500Z 0306/0412 VRB05KT 9999 FEW030"
    },
    {
      "icao": "LIRN",
      "alert": "OK",
      "vis_m": 8000,
      "fzfg": false,
      "metar_trigger": false,
      "taf_trigger": false,
      "metar": "METAR LIRN 030920Z VRB02KT 8000 NSC 15/09 Q1027 NOSIG",
      "taf": "TAF LIRN 030500Z 0306/0406 VRB04KT 8000 NSC"
    },
    {
      "icao": "LIRP",
      "alert": "OK",
      "vis_m": 9999,
      "fzfg": false,
      "metar_trigger": false,
      "taf_trigger": false,
      "metar": "METAR LIRP 030915Z 10008KT 9999 FEW030 SCT060 13/11 Q1027 NOSIG",
      "taf": "TAF LIRP 030500Z 0306/0406 VRB03KT 9999 BKN030"
    },
    {
      "icao": "LIRZ",
      "alert": "OK",
      "vis_m": 9999,
      "fzfg": false,
      "metar_trigger": false,
      "taf_trigger": false,
      "metar": "METAR LIRZ 030920Z VRB01KT 9999 BKN050 11/10 Q1028",
      "taf": "TAF LIRZ 030500Z 0306/0406 VRB05KT 7000 BKN040"
    },
    {
      "icao": "LJLJ",
      "alert": "OK",
      "vis_m": 9999,
      "fzfg": false,
      "metar_trigger": false,
      "taf_trigger": false,
      "metar": "METAR LJLJ 030930Z 08002KT 9999 FEW025 10/05 Q1027 NOSIG",
      "taf": "TAF LJLJ 030500Z 0306/0406 VRB02KT 9999 FEW030"
    },
    {
      "icao": "LKMT",
      "alert": "OK",
      "vis_m": 9999,
      "fzfg": false,
      "metar_trigger": false,
      "taf_trigger": false,
      "metar": "METAR LKMT 030930Z VRB01KT CAVOK 08/03 Q1028 NOSIG",
      "taf": "TAF LKMT 030500Z 0306/0406 23003KT CAVOK"
    },
    {
      "icao": "LKPR",
      "alert": "OK",
      "vis_m": 300,
      "fzfg": true,
      "metar_trigger": false,
      "taf_trigger": false,
      "metar": "METAR LKPR 030930Z VRB01KT 0300 R24/0650U R30/0325N FG VV001 01/01 Q1028 NOSIG",
      "taf": "TAF LKPR 030800Z 0309/0415 VRB02KT 0250 FZFG VV001"
    },
    {
      "icao": "LLBG",
      "alert": "OK",
      "vis_m": 9999,
      "fzfg": false,
      "metar_trigger": false,
      "taf_trigger": false,
      "metar": "METAR LLBG 030950Z VRB03KT CAVOK 20/M01 Q1022 NOSIG",
      "taf": "TAF LLBG 030513Z 0306/0406 VRB04KT CAVOK TX21/0311Z TN07/0404Z"
    },
    {
      "icao": "LMML",
      "alert": "OK",
      "vis_m": 9999,
      "fzfg": false,
      "metar_trigger": false,
      "taf_trigger": false,
      "metar": "METAR LMML 030945Z 13011KT 9999 FEW019 16/12 Q1026 NOSIG",
      "taf": "TAF LMML 030500Z 0306/0406 14010KT 9999 FEW020"
    },
    {
      "icao": "LOWW",
      "alert": "OK",
      "vis_m": 9999,
      "fzfg": false,
      "metar_trigger": false,
      "taf_trigger": false,
      "metar": "METAR LOWW 030920Z 15003KT 110V180 CAVOK 07/04 Q1028 BECMG FM1100 13007KT",
      "taf": "TAF LOWW 030815Z 0309/0415 VRB04KT CAVOK TX13/0314Z TN02/0405Z"
    },
    {
      "icao": "LPFR",
      "alert": "OK",
      "vis_m": 9999,
      "fzfg": false,
      "metar_trigger": false,
      "taf_trigger": false,
      "metar": "METAR LPFR 030930Z 07013G23KT 9999 SCT025 16/10 Q1009",
      "taf": "TAF LPFR 030500Z 0306/0406 09013KT 9999 SCT015 BKN030"
    },
    {
      "icao": "LPMA",
      "alert": "OK",
      "vis_m": 9999,
      "fzfg": false,
      "metar_trigger": false,
      "taf_trigger": false,
      "metar": "METAR LPMA 030930Z 35020G36KT 310V020 9999 BKN015 FEW018CB 13/07 Q1017",
      "taf": "TAF LPMA 030500Z 0306/0406 35017G27KT 9999 SCT015"
    },
    {
      "icao": "LPPR",
      "alert": "OK",
      "vis_m": 9999,
      "fzfg": false,
      "metar_trigger": false,
      "taf_trigger": false,
      "metar": "METAR LPPR 030930Z VRB02KT CAVOK 14/09 Q1015",
      "taf": "TAF LPPR 030500Z 0306/0406 06008KT 9999 SCT020"
    },
    {
      "icao": "LPPS",
      "alert": "OK",
      "vis_m": 9999,
      "fzfg": false,
      "metar_trigger": false,
      "taf_trigger": false,
      "metar": "METAR LPPS 030930Z 34021G37KT 9999 SHRA SCT015 FEW018CB SCT030 13/08 Q1017",
      "taf": "TAF LPPS 030500Z 0306/0412 34020KT 9999 SCT015"
    },
    {
      "icao": "LPPT",
      "alert": "OK",
      "vis_m": 9999,
      "fzfg": false,
      "metar_trigger": false,
      "taf_trigger": false,
      "metar": "METAR LPPT 030930Z 04013KT 360V080 9999 FEW042 13/10 Q1012",
      "taf": "TAF LPPT 030500Z 0306/0412 06008KT 9999 BKN015"
    },
    {
      "icao": "LQBK",
      "alert": "OK",
      "vis_m": 9999,
      "fzfg": false,
      "metar_trigger": false,
      "taf_trigger": false,
      "metar": "METAR LQBK 030930Z VRB03KT 9999 FEW030 14/04 Q1028 NOSIG",
      "taf": "TAF LQBK 030500Z 0306/0406 03005KT CAVOK TX16/0314Z TN04/0306Z"
    },
    {
      "icao": "LQSA",
      "alert": "OK",
      "vis_m": 9999,
      "fzfg": false,
      "metar_trigger": false,
      "taf_trigger": false,
      "metar": "METAR LQSA 030930Z VRB02KT 9999 SCT050 10/04 Q1028 NOSIG",
      "taf": "TAF LQSA 030500Z 0306/0406 VRB02KT 9999 SCT055 TX16/0314Z TN01/0405Z"
    },
    {
      "icao": "LQTZ",
      "alert": "OK",
      "vis_m": 9999,
      "fzfg": false,
      "metar_trigger": false,
      "taf_trigger": false,
      "metar": "METAR LQTZ 030930Z VRB02KT 9999 SCT050 10/06 Q1028",
      "taf": "TAF LQTZ 030500Z 0306/0406 VRB02KT 9999 SCT050 TX15/0314Z TN03/0306Z"
    },
    {
      "icao": "LRBC",
      "alert": "OK",
      "vis_m": 9999,
      "fzfg": false,
      "metar_trigger": false,
      "taf_trigger": false,
      "metar": "METAR LRBC 030930Z 03006KT 340V110 CAVOK 11/05 Q1026",
      "taf": "TAF LRBC 030800Z 0309/0318 VRB04KT CAVOK"
    },
    {
      "icao": "LRBS",
      "alert": "OK",
      "vis_m": 8000,
      "fzfg": false,
      "metar_trigger": false,
      "taf_trigger": false,
      "metar": "METAR LRBS 030930Z 25004KT 200V290 8000 NSC 07/02 Q1029 NOSIG",
      "taf": "TAF LRBS 030500Z 0306/0406 25004KT 5000 BR NSC"
    },
    {
      "icao": "LRBV",
      "alert": "OK",
      "vis_m": 9999,
      "fzfg": false,
      "metar_trigger": false,
      "taf_trigger": false,
      "metar": "METAR LRBV 030930Z 06003KT 010V120 9999 BKN047 06/00 Q1027",
      "taf": "TAF LRBV 030800Z 0309/0318 VRB04KT 9999 SCT045"
    },
    {
      "icao": "LRCL",
      "alert": "OK",
      "vis_m": 9999,
      "fzfg": false,
      "metar_trigger": false,
      "taf_trigger": false,
      "metar": "METAR LRCL 030930Z 08004KT 040V130 CAVOK 08/01 Q1027",
      "taf": "TAF LRCL 030800Z 0309/0318 VRB04KT CAVOK"
    },
    {
      "icao": "LRCV",
      "alert": "OK",
      "vis_m": 9999,
      "fzfg": false,
      "metar_trigger": false,
      "taf_trigger": false,
      "metar": "METAR LRCV 030930Z 10005KT CAVOK 08/04 Q1029",
      "taf": "TAF LRCV 030800Z 0309/0318 VRB04KT CAVOK"
    },
    {
      "icao": "LRIA",
      "alert": "OK",
      "vis_m": 9999,
      "fzfg": false,
      "metar_trigger": false,
      "taf_trigger": false,
      "metar": "METAR LRIA 030930Z 30007KT 260V340 CAVOK 09/01 Q1026",
      "taf": "TAF LRIA 030800Z 0309/0318 VRB04KT CAVOK"
    },
    {
      "icao": "LROP",
      "alert": "OK",
      "vis_m": 8000,
      "fzfg": false,
      "metar_trigger": false,
      "taf_trigger": false,
      "metar": "METAR LROP 030930Z COR 26006KT 230V290 8000 NSC 07/01 Q1028 NOSIG",
      "taf": "TAF LROP 030500Z 0306/0406 25004KT 3000 BR NSC"
    },
    {
      "icao": "LRSB",
      "alert": "OK",
      "vis_m": 9999,
      "fzfg": false,
      "metar_trigger": false,
      "taf_trigger": false,
      "metar": "METAR LRSB 030930Z VRB02KT CAVOK 10/00 Q1027",
      "taf": "TAF LRSB 030500Z 0306/0406 VRB04KT CAVOK"
    },
    {
      "icao": "LRSM",
      "alert": "OK",
      "vis_m": 9999,
      "fzfg": false,
      "metar_trigger": false,
      "taf_trigger": false,
      "metar": "METAR LRSM 030930Z VRB02KT CAVOK 07/03 Q1029",
      "taf": "TAF LRSM 030800Z 0309/0318 VRB04KT CAVOK"
    },
    {
      "icao": "LRSV",
      "alert": "OK",
      "vis_m": 9999,
      "fzfg": false,
      "metar_trigger": false,
      "taf_trigger": false,
      "metar": "METAR LRSV 030930Z 29009KT CAVOK 08/M02 Q1025",
      "taf": "TAF LRSV 030800Z 0309/0318 27010KT CAVOK"
    },
    {
      "icao": "LRTM",
      "alert": "OK",
      "vis_m": 9000,
      "fzfg": false,
      "metar_trigger": false,
      "taf_trigger": false,
      "metar": "METAR LRTM 030930Z VRB02KT 9000 FEW014 09/02 Q1027",
      "taf": "TAF LRTM 030800Z 0309/0318 VRB04KT CAVOK"
    },
    {
      "icao": "LRTR",
      "alert": "OK",
      "vis_m": 9999,
      "fzfg": false,
      "metar_trigger": false,
      "taf_trigger": false,
      "metar": "METAR LRTR 030930Z VRB03KT CAVOK 09/05 Q1028",
      "taf": "TAF LRTR 030500Z 0306/0406 VRB04KT CAVOK"
    },
    {
      "icao": "LTAC",
      "alert": "OK",
      "vis_m": 9999,
      "fzfg": false,
      "metar_trigger": false,
      "taf_trigger": false,
      "metar": "METAR LTAC 030920Z 27007KT 9999 FEW040 BKN180 10/M02 Q1023 NOSIG RMK RWY21C 24005KT RWY03L 21003KT RWY21R 26006KT RWY03R 22006KT 180V250 RWY21L 23006KT 180V270",
      "taf": "TAF LTAC 030440Z 0306/0406 VRB02KT CAVOK"
    },
    {
      "icao": "LTFM",
      "alert": "OK",
      "vis_m": 8000,
      "fzfg": false,
      "metar_trigger": false,
      "taf_trigger": false,
      "metar": "METAR LTFM 030920Z 33013KT 8000 BKN005 07/05 Q1026 NOSIG RMK RWY17L 33010KT RWY34L 33012KT RWY16R 33008KT RWY36 33011KT RWY18 32011KT 300V360",
      "taf": ""
    },
    {
      "icao": "LUKK",
      "alert": "OK",
      "vis_m": 9999,
      "fzfg": false,
      "metar_trigger": false,
      "taf_trigger": false,
      "metar": "METAR LUKK 030930Z 32014KT CAVOK 10/M01 Q1025 NOSIG",
      "taf": "TAF LUKK 030517Z 0306/0406 32008KT CAVOK"
    },
    {
      "icao": "LWOH",
      "alert": "OK",
      "vis_m": 9999,
      "fzfg": false,
      "metar_trigger": false,
      "taf_trigger": false,
      "metar": "METAR LWOH 030950Z 16005KT 130V210 CAVOK 10/04 Q1027",
      "taf": "TAF LWOH 030830Z 0309/0409 VRB02KT 9999 FEW040 SCT100"
    },
    {
      "icao": "LWSK",
      "alert": "OK",
      "vis_m": 9999,
      "fzfg": false,
      "metar_trigger": false,
      "taf_trigger": false,
      "metar": "METAR LWSK 030920Z 33003KT 270V030 CAVOK 14/06 Q1027 NOSIG",
      "taf": "TAF LWSK 030830Z 0309/0409 VRB02KT CAVOK"
    },
    {
      "icao": "LYBE",
      "alert": "OK",
      "vis_m": 6000,
      "fzfg": false,
      "metar_trigger": false,
      "taf_trigger": false,
      "metar": "METAR LYBE 030930Z VRB02KT 6000 NSC 10/05 Q1029 NOSIG",
      "taf": "TAF LYBE 030500Z 0306/0406 VRB02KT 7000 NSC TX16/0313Z TN02/0405Z"
    },
    {
      "icao": "LYNI",
      "alert": "OK",
      "vis_m": 9999,
      "fzfg": false,
      "metar_trigger": false,
      "taf_trigger": false,
      "metar": "METAR LYNI 030930Z VRB02KT 9999 FEW090 11/05 Q1028 BECMG FM1030 32012KT",
      "taf": "TAF LYNI 030500Z 0306/0406 09003KT CAVOK TX16/0313Z TN02/0405Z"
    },
    {
      "icao": "LYPG",
      "alert": "OK",
      "vis_m": 9999,
      "fzfg": false,
      "metar_trigger": false,
      "taf_trigger": false,
      "metar": "METAR LYPG 030930Z VRB01KT CAVOK 14/07 Q1028 NOSIG",
      "taf": "TAF LYPG 030500Z 0306/0406 17005KT CAVOK TX18/0313Z TN06/0405Z"
    },
    {
      "icao": "LZIB",
      "alert": "OK",
      "vis_m": 9999,
      "fzfg": false,
      "metar_trigger": false,
      "taf_trigger": false,
      "metar": "METAR LZIB 030930Z 08005KT 040V120 CAVOK 09/04 Q1028 NOSIG",
      "taf": "TAF LZIB 030515Z 0306/0406 05006KT CAVOK"
    },
    {
      "icao": "LZKZ",
      "alert": "OK",
      "vis_m": 9999,
      "fzfg": false,
      "metar_trigger": false,
      "taf_trigger": false,
      "metar": "METAR LZKZ 030930Z VRB02KT CAVOK 09/02 Q1028 NOSIG",
      "taf": "TAF LZKZ 030515Z 0306/0406 VRB02KT CAVOK"
    },
    {
      "icao": "LZTT",
      "alert": "OK",
      "vis_m": 9999,
      "fzfg": false,
      "metar_trigger": false,
      "taf_trigger": false,
      "metar": "METAR LZTT 030930Z 08003KT 040V140 9999 FEW053 07/02 Q1027 NOSIG",
      "taf": ""
    },
    {
      "icao": "OEJN",
      "alert": "OK",
      "vis_m": 9999,
      "fzfg": false,
      "metar_trigger": false,
      "taf_trigger": false,
      "metar": "METAR OEJN 030900Z 36015KT 9999 FEW040 25/07 Q1015 NOSIG",
      "taf": "TAF OEJN 030500Z 0306/0412 04007KT CAVOK"
    },
    {
      "icao": "OEMA",
      "alert": "OK",
      "vis_m": 9999,
      "fzfg": false,
      "metar_trigger": false,
      "taf_trigger": false,
      "metar": "METAR OEMA 030900Z 01005KT 9999 FEW035 20/M02 Q1017 NOSIG",
      "taf": "TAF OEMA 030500Z 0306/0412 30010KT 7000 NSC"
    },
    {
      "icao": "OJAI",
      "alert": "OK",
      "vis_m": 5000,
      "fzfg": false,
      "metar_trigger": false,
      "taf_trigger": false,
      "metar": "METAR OJAI 030900Z 13009KT 5000 HZ NSC 13/M06 Q1024 NOSIG",
      "taf": "TAF OJAI 030500Z 0306/0412 09012KT 5000 HZ NSC"
    },
    {
      "icao": "OMAA",
      "alert": "OK",
      "vis_m": 9999,
      "fzfg": false,
      "metar_trigger": false,
      "taf_trigger": false,
      "metar": "METAR OMAA 030930Z 20007KT 140V230 CAVOK 33/11 Q1010 NOSIG",
      "taf": "TAF OMAA 030500Z 0306/0412 22007KT 8000 NSC"
    },
    {
      "icao": "OMDB",
      "alert": "OK",
      "vis_m": 9999,
      "fzfg": false,
      "metar_trigger": false,
      "taf_trigger": false,
      "metar": "METAR OMDB 030930Z 22008KT 150V300 CAVOK 35/06 Q1010 NOSIG",
      "taf": "TAF OMDB 030500Z 0306/0412 19008KT 8000 NSC"
    },
    {
      "icao": "UAAA",
      "alert": "OK",
      "vis_m": 2400,
      "fzfg": false,
      "metar_trigger": false,
      "taf_trigger": false,
      "metar": "METAR UAAA 030930Z 09002MPS 060V120 2400 BR OVC006 02/01 Q1024 NOSIG RMK QBB180",
      "taf": "TAF UAAA 030505Z 0306/0406 04003G08MPS 6000 FEW006 BKN015CB OVC050 TX03/0310Z TNM03/0324Z"
    },
    {
      "icao": "UBBB",
      "alert": "OK",
      "vis_m": 9999,
      "fzfg": false,
      "metar_trigger": false,
      "taf_trigger": false,
      "metar": "METAR UBBB 030930Z 35004KT 300V030 CAVOK 11/03 Q1020 NOSIG",
      "taf": "TAF UBBB 030502Z 0306/0406 19006KT 9999 SCT013 SCT035 TX11/0310Z TN05/0401Z"
    },
    {
      "icao": "UDSG",
      "alert": "OK",
      "vis_m": 9999,
      "fzfg": false,
      "metar_trigger": false,
      "taf_trigger": false,
      "metar": "METAR UDSG 030930Z 16002KT 9999 NSC M03/M08 Q1022 NOSIG",
      "taf": "TAF UDSG 030458Z 0306/0406 VRB06KT 9999 FEW050"
    },
    {
      "icao": "UDYZ",
      "alert": "OK",
      "vis_m": 9999,
      "fzfg": false,
      "metar_trigger": false,
      "taf_trigger": false,
      "metar": "METAR UDYZ 030930Z VRB01KT 9999 NSC 07/M05 Q1022 NOSIG",
      "taf": "TAF UDYZ 030500Z 0306/0406 16006KT 9999 FEW040"
    },
    {
      "icao": "UGKO",
      "alert": "OK",
      "vis_m": 9999,
      "fzfg": false,
      "metar_trigger": false,
      "taf_trigger": false,
      "metar": "METAR UGKO 030930Z 07006KT CAVOK 10/03 Q1022 NOSIG",
      "taf": "TAF UGKO 030500Z 0306/0406 08007KT 9999 BKN050 TX12/0311Z TN04/0403Z"
    }
  ]
}