{
  "ts_utc": "2026-04-11T15:26:11Z",
  "threshold_m": 150,
  "source": "stations_override.txt (ICAO list) + aviationweather.gov (METAR/TAF raw)",
  "station_count": 159,
  "stations": [
    {
      "icao": "BIKF",
      "alert": "OK",
      "vis_m": 9999,
      "fzfg": false,
      "metar_trigger": false,
      "taf_trigger": false,
      "metar": "METAR BIKF 111500Z 02022KT 9999 FEW022 BKN230 03/M03 Q1004",
      "taf": "TAF BIKF 111335Z 1115/1215 02025G37KT 9999 FEW017 SCT024 TX04/1213Z TN01/1203Z"
    },
    {
      "icao": "BKPR",
      "alert": "OK",
      "vis_m": null,
      "fzfg": false,
      "metar_trigger": false,
      "taf_trigger": false,
      "metar": "",
      "taf": "TAF BKPR 111130Z 1112/1212 01007KT 9999 SCT040"
    },
    {
      "icao": "EBCI",
      "alert": "OK",
      "vis_m": 6000,
      "fzfg": false,
      "metar_trigger": false,
      "taf_trigger": false,
      "metar": "METAR EBCI 111450Z 21011KT 6000 -SHRA SCT012 BKN016 14/12 Q1008 TEMPO 21017G28KT 3500 MODSHRA SCT014TCU",
      "taf": "TAF EBCI 111106Z 1112/1218 17012KT 9999 FEW040"
    },
    {
      "icao": "EDDB",
      "alert": "OK",
      "vis_m": 9999,
      "fzfg": false,
      "metar_trigger": false,
      "taf_trigger": false,
      "metar": "METAR EDDB 111520Z AUTO 13011KT 100V160 CAVOK 14/M03 Q1017 NOSIG",
      "taf": "TAF EDDB 111100Z 1112/1212 12008KT CAVOK"
    },
    {
      "icao": "EDDH",
      "alert": "OK",
      "vis_m": 9999,
      "fzfg": false,
      "metar_trigger": false,
      "taf_trigger": false,
      "metar": "METAR EDDH 111520Z AUTO 13017KT 090V170 CAVOK 14/02 Q1013 TEMPO 16015G25KT",
      "taf": "TAF EDDH 111100Z 1112/1218 12012KT 9999 FEW040"
    },
    {
      "icao": "EDDK",
      "alert": "OK",
      "vis_m": 9999,
      "fzfg": false,
      "metar_trigger": false,
      "taf_trigger": false,
      "metar": "METAR EDDK 111520Z AUTO 14013KT 110V170 9999 FEW030 18/07 Q1008 BECMG 14008KT",
      "taf": "TAF EDDK 111100Z 1112/1218 14013KT 9999 SCT020 BKN040"
    },
    {
      "icao": "EDDN",
      "alert": "OK",
      "vis_m": 9999,
      "fzfg": false,
      "metar_trigger": false,
      "taf_trigger": false,
      "metar": "METAR EDDN 111520Z AUTO 13005KT 090V200 CAVOK 17/02 Q1013 NOSIG",
      "taf": "TAF EDDN 111100Z 1112/1212 12009KT CAVOK"
    },
    {
      "icao": "EDDS",
      "alert": "OK",
      "vis_m": 9999,
      "fzfg": false,
      "metar_trigger": false,
      "taf_trigger": false,
      "metar": "METAR EDDS 111520Z AUTO 07005KT 030V130 CAVOK 21/07 Q1010 NOSIG",
      "taf": "TAF EDDS 111100Z 1112/1212 10005KT 9999 FEW040"
    },
    {
      "icao": "EDFH",
      "alert": "OK",
      "vis_m": 9999,
      "fzfg": false,
      "metar_trigger": false,
      "taf_trigger": false,
      "metar": "METAR EDFH 111450Z 15011KT CAVOK 16/07 Q1010",
      "taf": "TAF EDFH 111100Z 1112/1212 14010KT 9999 FEW040"
    },
    {
      "icao": "EDJA",
      "alert": "OK",
      "vis_m": 9999,
      "fzfg": false,
      "metar_trigger": false,
      "taf_trigger": false,
      "metar": "METAR EDJA 111450Z 34003KT 280V040 CAVOK 19/10 Q1012",
      "taf": "TAF EDJA 111400Z 1115/1124 04005KT CAVOK"
    },
    {
      "icao": "EDLW",
      "alert": "OK",
      "vis_m": 9999,
      "fzfg": false,
      "metar_trigger": false,
      "taf_trigger": false,
      "metar": "METAR EDLW 111450Z 13010KT 100V160 CAVOK 19/05 Q1007",
      "taf": "TAF EDLW 111100Z 1112/1212 15012KT 9999 SCT020 BKN040"
    },
    {
      "icao": "EDNY",
      "alert": "OK",
      "vis_m": 9999,
      "fzfg": false,
      "metar_trigger": false,
      "taf_trigger": false,
      "metar": "METAR EDNY 111450Z 24006KT CAVOK 20/11 Q1011",
      "taf": "TAF EDNY 111400Z 1115/1124 24005KT CAVOK"
    },
    {
      "icao": "EDSB",
      "alert": "OK",
      "vis_m": 9999,
      "fzfg": false,
      "metar_trigger": false,
      "taf_trigger": false,
      "metar": "METAR EDSB 111450Z 35006KT CAVOK 22/10 Q1009",
      "taf": "TAF EDSB 111100Z 1112/1212 34005KT 9999 FEW045"
    },
    {
      "icao": "EETN",
      "alert": "OK",
      "vis_m": 9999,
      "fzfg": false,
      "metar_trigger": false,
      "taf_trigger": false,
      "metar": "METAR EETN 111520Z 06011KT CAVOK 08/M11 Q1023 NOSIG",
      "taf": "TAF EETN 111130Z 1112/1212 05010KT CAVOK"
    },
    {
      "icao": "EFTU",
      "alert": "OK",
      "vis_m": 9999,
      "fzfg": false,
      "metar_trigger": false,
      "taf_trigger": false,
      "metar": "METAR EFTU 111520Z AUTO 10004KT 030V190 CAVOK 12/M11 Q1024",
      "taf": "TAF EFTU 111431Z 1115/1215 15005KT CAVOK"
    },
    {
      "icao": "EGBB",
      "alert": "OK",
      "vis_m": 9999,
      "fzfg": false,
      "metar_trigger": false,
      "taf_trigger": false,
      "metar": "METAR EGBB 111520Z 20008KT 160V240 9999 VCSH FEW027 SCT047CB 07/03 Q1004 RERA",
      "taf": "TAF EGBB 111102Z 1112/1212 23013KT 9999 FEW045"
    },
    {
      "icao": "EGGP",
      "alert": "OK",
      "vis_m": 9999,
      "fzfg": false,
      "metar_trigger": false,
      "taf_trigger": false,
      "metar": "METAR EGGP 111520Z 20008KT 160V230 9999 FEW034 SCT044 09/04 Q1000",
      "taf": "TAF EGGP 111101Z 1112/1212 22015KT 9999 SCT030"
    },
    {
      "icao": "EGGW",
      "alert": "OK",
      "vis_m": 9999,
      "fzfg": false,
      "metar_trigger": false,
      "taf_trigger": false,
      "metar": "METAR EGGW 111520Z AUTO 25013KT 9999 NCD 10/00 Q1006",
      "taf": "TAF EGGW 111054Z 1112/1212 28012KT 9999 SCT040"
    },
    {
      "icao": "EGKK",
      "alert": "OK",
      "vis_m": 9999,
      "fzfg": false,
      "metar_trigger": false,
      "taf_trigger": false,
      "metar": "METAR EGKK 111520Z 23017KT 180V270 9999 FEW048 12/M01 Q1008",
      "taf": "TAF EGKK 111055Z 1112/1218 28013KT 9999 SCT030"
    },
    {
      "icao": "EGNM",
      "alert": "OK",
      "vis_m": 9999,
      "fzfg": false,
      "metar_trigger": false,
      "taf_trigger": false,
      "metar": "METAR EGNM 111520Z 23011KT 190V250 9999 VCSH SCT033 SCT043 07/03 Q1000",
      "taf": ""
    },
    {
      "icao": "EGPD",
      "alert": "OK",
      "vis_m": 9999,
      "fzfg": false,
      "metar_trigger": false,
      "taf_trigger": false,
      "metar": "METAR EGPD 111520Z COR 15014KT 120V180 9999 FEW025 09/03 Q0993 NOSIG",
      "taf": "TAF EGPD 111058Z 1112/1212 16012KT 9999 SCT020"
    },
    {
      "icao": "EGPF",
      "alert": "OK",
      "vis_m": 9999,
      "fzfg": false,
      "metar_trigger": false,
      "taf_trigger": false,
      "metar": "METAR EGPF 111520Z AUTO 18016G28KT 9999 SCT040 BKN048 10/02 Q0992",
      "taf": "TAF EGPF 111053Z 1112/1212 18015G25KT 9999 SCT030"
    },
    {
      "icao": "EHBK",
      "alert": "OK",
      "vis_m": 9999,
      "fzfg": false,
      "metar_trigger": false,
      "taf_trigger": false,
      "metar": "METAR EHBK 111455Z AUTO 21014KT 180V240 9999 NSC 20/09 Q1006 TEMPO 6000 SHRA FEW040CB",
      "taf": "TAF EHBK 111101Z 1112/1218 17012KT CAVOK"
    },
    {
      "icao": "EHEH",
      "alert": "OK",
      "vis_m": 9999,
      "fzfg": false,
      "metar_trigger": false,
      "taf_trigger": false,
      "metar": "METAR EHEH 111455Z AUTO 22012G26KT 190V250 9999 -RA FEW039CB OVC053 20/10 Q1005 BLU TEMPO 23015G25KT 4000 SHRA SCT040CB",
      "taf": "TAF EHEH 111120Z 1112/1218 13011KT CAVOK"
    },
    {
      "icao": "EKBI",
      "alert": "OK",
      "vis_m": 9999,
      "fzfg": false,
      "metar_trigger": false,
      "taf_trigger": false,
      "metar": "METAR EKBI 111520Z AUTO 13014KT 100V160 9999 NCD 11/M01 Q1013",
      "taf": "TAF EKBI 111427Z 1115/1215 13015G25KT 9999 FEW025"
    },
    {
      "icao": "EKCH",
      "alert": "OK",
      "vis_m": 9999,
      "fzfg": false,
      "metar_trigger": false,
      "taf_trigger": false,
      "metar": "METAR EKCH 111520Z AUTO 14012KT 9999 NCD 08/00 Q1019 NOSIG",
      "taf": "TAF EKCH 111427Z 1115/1215 12015KT 9999 SCT030"
    },
    {
      "icao": "ENAL",
      "alert": "OK",
      "vis_m": 9999,
      "fzfg": false,
      "metar_trigger": false,
      "taf_trigger": false,
      "metar": "METAR ENAL 111450Z 13006KT CAVOK 13/M03 Q1012",
      "taf": "TAF ENAL 111400Z 1115/1124 12008KT CAVOK"
    },
    {
      "icao": "ENBR",
      "alert": "OK",
      "vis_m": 9999,
      "fzfg": false,
      "metar_trigger": false,
      "taf_trigger": false,
      "metar": "METAR ENBR 111450Z 13016KT 100V160 CAVOK 10/M04 Q1010 NOSIG RMK WIND 1200FT 13027KT",
      "taf": "TAF ENBR 111100Z 1112/1212 14015KT CAVOK"
    },
    {
      "icao": "ENGM",
      "alert": "OK",
      "vis_m": 9999,
      "fzfg": false,
      "metar_trigger": false,
      "taf_trigger": false,
      "metar": "METAR ENGM 111450Z 13010KT 090V160 CAVOK 09/M05 Q1019 NOSIG",
      "taf": "TAF ENGM 111100Z 1112/1212 16012KT 9999 SCT045"
    },
    {
      "icao": "ENHD",
      "alert": "OK",
      "vis_m": 9999,
      "fzfg": false,
      "metar_trigger": false,
      "taf_trigger": false,
      "metar": "METAR ENHD 111450Z 13023G33KT CAVOK 09/M00 Q1010",
      "taf": "TAF ENHD 111400Z 1115/1122 13025KT CAVOK"
    },
    {
      "icao": "ENTC",
      "alert": "OK",
      "vis_m": 9999,
      "fzfg": false,
      "metar_trigger": false,
      "taf_trigger": false,
      "metar": "METAR ENTC 111450Z 36006KT CAVOK 10/M04 Q1022 NOSIG RMK WIND 2600FT VRB02KT",
      "taf": "TAF ENTC 111100Z 1112/1212 02006KT CAVOK"
    },
    {
      "icao": "ENTO",
      "alert": "OK",
      "vis_m": 9999,
      "fzfg": false,
      "metar_trigger": false,
      "taf_trigger": false,
      "metar": "METAR ENTO 111450Z 18005KT 140V220 9999 FEW045 08/01 Q1020 NOSIG",
      "taf": "TAF ENTO 111100Z 1112/1212 15005KT 9999 BKN020"
    },
    {
      "icao": "ENVA",
      "alert": "OK",
      "vis_m": 9999,
      "fzfg": false,
      "metar_trigger": false,
      "taf_trigger": false,
      "metar": "METAR ENVA 111450Z 14014KT CAVOK 11/M03 Q1018 WS R09 RMK WIND 670FT 16022G34KT",
      "taf": "TAF ENVA 111100Z 1112/1212 14015KT CAVOK"
    },
    {
      "icao": "ENZV",
      "alert": "OK",
      "vis_m": 9999,
      "fzfg": false,
      "metar_trigger": false,
      "taf_trigger": false,
      "metar": "METAR ENZV 111450Z 13020KT 9999 NSC 09/M02 Q1011 TEMPO 14022G35KT",
      "taf": "TAF ENZV 111100Z 1112/1212 14020KT 9999 SCT030"
    },
    {
      "icao": "EPGD",
      "alert": "OK",
      "vis_m": 9999,
      "fzfg": false,
      "metar_trigger": false,
      "taf_trigger": false,
      "metar": "METAR EPGD 111500Z 05011KT CAVOK 07/M03 Q1020",
      "taf": "TAF EPGD 111130Z 1112/1212 07009KT CAVOK"
    },
    {
      "icao": "EPKK",
      "alert": "OK",
      "vis_m": 9999,
      "fzfg": false,
      "metar_trigger": false,
      "taf_trigger": false,
      "metar": "METAR EPKK 111500Z 04004KT 9999 BKN060 09/M04 Q1019",
      "taf": "TAF EPKK 111430Z 1115/1215 VRB02KT 9999 BKN055"
    },
    {
      "icao": "EPKT",
      "alert": "OK",
      "vis_m": 9999,
      "fzfg": false,
      "metar_trigger": false,
      "taf_trigger": false,
      "metar": "METAR EPKT 111500Z 13003KT 090V180 CAVOK 09/M06 Q1018",
      "taf": "TAF EPKT 111130Z 1112/1212 35005KT CAVOK"
    },
    {
      "icao": "EPLB",
      "alert": "OK",
      "vis_m": 9999,
      "fzfg": false,
      "metar_trigger": false,
      "taf_trigger": false,
      "metar": "METAR EPLB 111500Z 31008KT CAVOK 09/M05 Q1017",
      "taf": "TAF EPLB 111130Z 1112/1212 33005KT CAVOK"
    },
    {
      "icao": "EPMO",
      "alert": "OK",
      "vis_m": 9999,
      "fzfg": false,
      "metar_trigger": false,
      "taf_trigger": false,
      "metar": "METAR EPMO 111500Z 32007KT 280V360 CAVOK 12/M02 Q1018",
      "taf": "TAF EPMO 111130Z 1112/1212 34005KT CAVOK"
    },
    {
      "icao": "EPPO",
      "alert": "OK",
      "vis_m": 9999,
      "fzfg": false,
      "metar_trigger": false,
      "taf_trigger": false,
      "metar": "METAR EPPO 111500Z 03004KT 020V190 CAVOK 13/M05 Q1019",
      "taf": "TAF EPPO 111130Z 1112/1212 VRB04KT CAVOK"
    },
    {
      "icao": "EPRA",
      "alert": "OK",
      "vis_m": 9999,
      "fzfg": false,
      "metar_trigger": false,
      "taf_trigger": false,
      "metar": "METAR EPRA 111500Z 33006KT 290V010 CAVOK 09/M03 Q1018",
      "taf": "TAF EPRA 111430Z 1115/1124 31006KT CAVOK"
    },
    {
      "icao": "EPRZ",
      "alert": "OK",
      "vis_m": 9999,
      "fzfg": false,
      "metar_trigger": false,
      "taf_trigger": false,
      "metar": "METAR EPRZ 111500Z 33007KT 310V010 CAVOK 08/M03 Q1018",
      "taf": "TAF EPRZ 111130Z 1112/1212 32010KT CAVOK"
    },
    {
      "icao": "EPSC",
      "alert": "OK",
      "vis_m": 9999,
      "fzfg": false,
      "metar_trigger": false,
      "taf_trigger": false,
      "metar": "METAR EPSC 111500Z 15007KT 080V200 CAVOK 14/M03 Q1018",
      "taf": "TAF EPSC 111130Z 1112/1212 14007KT CAVOK"
    },
    {
      "icao": "EPSY",
      "alert": "OK",
      "vis_m": 9999,
      "fzfg": false,
      "metar_trigger": false,
      "taf_trigger": false,
      "metar": "METAR EPSY 111500Z 01009KT 340V060 CAVOK 11/M04 Q1018",
      "taf": "TAF EPSY 111430Z 1115/1124 01008KT CAVOK"
    },
    {
      "icao": "EPWA",
      "alert": "OK",
      "vis_m": 9999,
      "fzfg": false,
      "metar_trigger": false,
      "taf_trigger": false,
      "metar": "METAR EPWA 111500Z 29004KT 210V020 CAVOK 12/M04 Q1018 NOSIG",
      "taf": "TAF EPWA 111430Z 1115/1215 34005KT CAVOK"
    },
    {
      "icao": "EPWR",
      "alert": "OK",
      "vis_m": 9999,
      "fzfg": false,
      "metar_trigger": false,
      "taf_trigger": false,
      "metar": "METAR EPWR 111500Z 04005KT 350V070 CAVOK 13/M05 Q1018",
      "taf": "TAF EPWR 111430Z 1115/1215 VRB03KT CAVOK"
    },
    {
      "icao": "ESGG",
      "alert": "OK",
      "vis_m": 9999,
      "fzfg": false,
      "metar_trigger": false,
      "taf_trigger": false,
      "metar": "METAR ESGG 111520Z 13009KT 100V160 CAVOK 11/M02 Q1018",
      "taf": "TAF ESGG 111430Z 1115/1215 17005KT 9999 SCT045"
    },
    {
      "icao": "ESKN",
      "alert": "OK",
      "vis_m": 9999,
      "fzfg": false,
      "metar_trigger": false,
      "taf_trigger": false,
      "metar": "METAR ESKN 111520Z 12009KT CAVOK 07/M03 Q1023",
      "taf": "TAF ESKN 111430Z 1115/1215 11009KT CAVOK"
    },
    {
      "icao": "ESMS",
      "alert": "OK",
      "vis_m": 9999,
      "fzfg": false,
      "metar_trigger": false,
      "taf_trigger": false,
      "metar": "METAR ESMS 111520Z 11012KT CAVOK 08/M03 Q1019",
      "taf": "TAF ESMS 111427Z 1115/1215 14010KT 9999 SCT030"
    },
    {
      "icao": "ESSA",
      "alert": "OK",
      "vis_m": 9999,
      "fzfg": false,
      "metar_trigger": false,
      "taf_trigger": false,
      "metar": "METAR ESSA 111520Z 15008KT 110V170 CAVOK 10/M07 Q1023 NOSIG",
      "taf": "TAF ESSA 111430Z 1115/1215 14008KT CAVOK"
    },
    {
      "icao": "EYKA",
      "alert": "OK",
      "vis_m": 9999,
      "fzfg": false,
      "metar_trigger": false,
      "taf_trigger": false,
      "metar": "METAR EYKA 111520Z 02010KT CAVOK 12/M01 Q1018",
      "taf": "TAF EYKA 111105Z 1112/1212 03014KT 9000 BKN035"
    },
    {
      "icao": "EYPA",
      "alert": "OK",
      "vis_m": 9999,
      "fzfg": false,
      "metar_trigger": false,
      "taf_trigger": false,
      "metar": "METAR EYPA 111520Z 35006KT 260V030 CAVOK 07/M00 Q1020",
      "taf": "TAF EYPA 111105Z 1112/1212 VRB04KT 9000 NSC"
    },
    {
      "icao": "EYVI",
      "alert": "OK",
      "vis_m": 9999,
      "fzfg": false,
      "metar_trigger": false,
      "taf_trigger": false,
      "metar": "METAR EYVI 111520Z 06006KT CAVOK 07/M00 Q1018 NOSIG",
      "taf": "TAF EYVI 111110Z 1112/1212 04010KT 9000 BKN035"
    },
    {
      "icao": "GCFV",
      "alert": "OK",
      "vis_m": 9999,
      "fzfg": false,
      "metar_trigger": false,
      "taf_trigger": false,
      "metar": "METAR GCFV 111500Z 33016KT 9999 SCT020 OVC035 19/13 Q1020",
      "taf": "TAF GCFV 111400Z 1115/1215 36014KT 9999 SCT030 BKN040 TX21/1214Z TN16/1206Z"
    },
    {
      "icao": "GCLP",
      "alert": "OK",
      "vis_m": 9999,
      "fzfg": false,
      "metar_trigger": false,
      "taf_trigger": false,
      "metar": "METAR GCLP 111500Z 01022KT 9999 FEW030 SCT038 21/11 Q1020 WS ALL RWY NOSIG",
      "taf": "TAF GCLP 111400Z 1115/1215 35020KT 9999 SCT035 TX20/1214Z TN16/1206Z"
    },
    {
      "icao": "GCTS",
      "alert": "OK",
      "vis_m": 9999,
      "fzfg": false,
      "metar_trigger": false,
      "taf_trigger": false,
      "metar": "METAR GCTS 111500Z 18005KT 130V250 9999 SCT035 21/14 Q1021 NOSIG",
      "taf": "TAF GCTS 111400Z 1115/1215 22010KT 9999 BKN030 TX23/1214Z TN15/1206Z"
    },
    {
      "icao": "GMAD",
      "alert": "OK",
      "vis_m": 8000,
      "fzfg": false,
      "metar_trigger": false,
      "taf_trigger": false,
      "metar": "METAR GMAD 111500Z 25018KT 8000 FEW020 22/12 Q1014 NOSIG",
      "taf": "TAF GMAD 111100Z 1112/1218 27012KT 8000 SCT020"
    },
    {
      "icao": "GMMN",
      "alert": "OK",
      "vis_m": 9999,
      "fzfg": false,
      "metar_trigger": false,
      "taf_trigger": false,
      "metar": "METAR GMMN 111500Z 29013KT 250V320 9999 BKN030 19/12 Q1015 NOSIG",
      "taf": "TAF GMMN 111100Z 1112/1218 28010KT 9999 BKN020"
    },
    {
      "icao": "GMMX",
      "alert": "OK",
      "vis_m": 9999,
      "fzfg": false,
      "metar_trigger": false,
      "taf_trigger": false,
      "metar": "METAR GMMX 111500Z VRB03KT 9999 SCT026 SCT080 18/11 Q1016 NOSIG",
      "taf": "TAF GMMX 111100Z 1112/1218 06008KT 8000 SCT026 SCT080"
    },
    {
      "icao": "HEGN",
      "alert": "OK",
      "vis_m": 9999,
      "fzfg": false,
      "metar_trigger": false,
      "taf_trigger": false,
      "metar": "METAR HEGN 111500Z 36012KT CAVOK 27/04 Q1014 NOSIG",
      "taf": "TAF HEGN 111100Z 1112/1218 01015KT CAVOK"
    },
    {
      "icao": "HEMA",
      "alert": "OK",
      "vis_m": 9999,
      "fzfg": false,
      "metar_trigger": false,
      "taf_trigger": false,
      "metar": "METAR HEMA 111500Z 36013KT CAVOK 25/07 Q1014 NOSIG",
      "taf": "TAF HEMA 111100Z 1112/1218 01010G20KT CAVOK"
    },
    {
      "icao": "HESH",
      "alert": "OK",
      "vis_m": 9999,
      "fzfg": false,
      "metar_trigger": false,
      "taf_trigger": false,
      "metar": "METAR HESH 111500Z 03006KT CAVOK 27/06 Q1013 NOSIG",
      "taf": "TAF HESH 111100Z 1112/1218 11010KT CAVOK"
    },
    {
      "icao": "HESX",
      "alert": "OK",
      "vis_m": 9999,
      "fzfg": false,
      "metar_trigger": false,
      "taf_trigger": false,
      "metar": "METAR HESX 111500Z 32004KT CAVOK 24/07 Q1016 NOSIG",
      "taf": "TAF HESX 111100Z 1112/1218 30009KT CAVOK"
    },
    {
      "icao": "LATI",
      "alert": "OK",
      "vis_m": 9999,
      "fzfg": false,
      "metar_trigger": false,
      "taf_trigger": false,
      "metar": "METAR LATI 111520Z 34008KT 320V020 CAVOK 20/00 Q1015 NOSIG",
      "taf": "TAF LATI 111100Z 1112/1212 29010KT CAVOK TX25/1212Z TN07/1204Z"
    },
    {
      "icao": "LBPD",
      "alert": "OK",
      "vis_m": 9999,
      "fzfg": false,
      "metar_trigger": false,
      "taf_trigger": false,
      "metar": "METAR LBPD 111500Z AUTO 00000KT 9999 OVC090/// 10/05 Q1017 NOSIG",
      "taf": "TAF LBPD 111100Z 1112/1212 VRB04KT 9999 BKN060"
    },
    {
      "icao": "LBSF",
      "alert": "OK",
      "vis_m": 9999,
      "fzfg": false,
      "metar_trigger": false,
      "taf_trigger": false,
      "metar": "METAR LBSF 111500Z AUTO 00000KT 9999 FEW049/// SCT070/// BKN082/// 10/04 Q1016 NOSIG",
      "taf": "TAF LBSF 111100Z 1112/1212 29012KT 9999 BKN025"
    },
    {
      "icao": "LBWN",
      "alert": "OK",
      "vis_m": 9999,
      "fzfg": false,
      "metar_trigger": false,
      "taf_trigger": false,
      "metar": "METAR LBWN 111500Z 14009KT 9999 FEW049 10/02 Q1018 NOSIG",
      "taf": "TAF LBWN 111100Z 1112/1212 11012KT 9999 SCT030 SCT045"
    },
    {
      "icao": "LCLK",
      "alert": "OK",
      "vis_m": 9999,
      "fzfg": false,
      "metar_trigger": false,
      "taf_trigger": false,
      "metar": "METAR LCLK 111500Z 24007KT 200V270 9999 FEW040 SCT050 19/12 Q1014 NOSIG",
      "taf": "TAF LCLK 111130Z 1112/1212 22018KT 9999 FEW030"
    },
    {
      "icao": "LCPH",
      "alert": "OK",
      "vis_m": 9999,
      "fzfg": false,
      "metar_trigger": false,
      "taf_trigger": false,
      "metar": "METAR LCPH 111500Z 31013KT 250V320 9999 FEW025 18/10 Q1015 NOSIG",
      "taf": "TAF LCPH 111130Z 1112/1212 29015KT 9999 FEW025"
    },
    {
      "icao": "LEAL",
      "alert": "OK",
      "vis_m": 9999,
      "fzfg": false,
      "metar_trigger": false,
      "taf_trigger": false,
      "metar": "METAR LEAL 111500Z VRB03KT CAVOK 21/11 Q1006 NOSIG",
      "taf": "TAF LEAL 111100Z 1112/1212 VRB05KT CAVOK TX24/1113Z TN12/1206Z"
    },
    {
      "icao": "LEBB",
      "alert": "OK",
      "vis_m": 8000,
      "fzfg": false,
      "metar_trigger": false,
      "taf_trigger": false,
      "metar": "METAR LEBB 111500Z COR 30006KT 280V340 8000 -RA SCT019 BKN026 OVC034 11/09 Q1020 NOSIG",
      "taf": "TAF LEBB 111100Z 1112/1212 30009KT 9999 BKN020 TX13/1112Z TN09/1206Z"
    },
    {
      "icao": "LEBL",
      "alert": "OK",
      "vis_m": 9999,
      "fzfg": false,
      "metar_trigger": false,
      "taf_trigger": false,
      "metar": "METAR LEBL 111500Z 11004KT 080V140 CAVOK 23/06 Q1010 NOSIG",
      "taf": "TAF LEBL 111100Z 1112/1212 16008KT CAVOK TX23/1112Z TN11/1206Z"
    },
    {
      "icao": "LECH",
      "alert": "OK",
      "vis_m": 9999,
      "fzfg": false,
      "metar_trigger": false,
      "taf_trigger": false,
      "metar": "METAR LECH 111500Z AUTO 10007KT 060V120 CAVOK 22/01 Q1010",
      "taf": "TAF LECH 111100Z 1112/1212 VRB04KT CAVOK TX26/1114Z TN08/1206Z"
    },
    {
      "icao": "LEMD",
      "alert": "OK",
      "vis_m": 9999,
      "fzfg": false,
      "metar_trigger": false,
      "taf_trigger": false,
      "metar": "METAR LEMD 111500Z 35011KT CAVOK 23/06 Q1010 NOSIG",
      "taf": ""
    },
    {
      "icao": "LEMG",
      "alert": "OK",
      "vis_m": 9999,
      "fzfg": false,
      "metar_trigger": false,
      "taf_trigger": false,
      "metar": "METAR LEMG 111500Z 14007KT 100V190 9999 FEW035 SCT070 21/13 Q1009 NOSIG",
      "taf": ""
    },
    {
      "icao": "LEVC",
      "alert": "OK",
      "vis_m": 9999,
      "fzfg": false,
      "metar_trigger": false,
      "taf_trigger": false,
      "metar": "METAR LEVC 111500Z 09009KT 050V130 CAVOK 22/05 Q1009 NOSIG",
      "taf": "TAF LEVC 111100Z 1112/1212 08009KT CAVOK TX23/1113Z TN11/1206Z"
    },
    {
      "icao": "LEXJ",
      "alert": "OK",
      "vis_m": 9999,
      "fzfg": false,
      "metar_trigger": false,
      "taf_trigger": false,
      "metar": "METAR LEXJ 111500Z 05002KT 9999 FEW020 BKN035 OVC047 11/06 Q1020",
      "taf": "TAF LEXJ 111400Z 1115/1215 30010KT 9999 BKN040 TX15/1214Z TN09/1206Z"
    },
    {
      "icao": "LEZG",
      "alert": "OK",
      "vis_m": 9999,
      "fzfg": false,
      "metar_trigger": false,
      "taf_trigger": false,
      "metar": "METAR LEZG 111500Z 30022G32KT CAVOK 19/09 Q1011 NOSIG",
      "taf": "TAF LEZG 111100Z 1112/1212 11007KT CAVOK TX27/1113Z TN07/1206Z"
    },
    {
      "icao": "LEZL",
      "alert": "OK",
      "vis_m": 9999,
      "fzfg": false,
      "metar_trigger": false,
      "taf_trigger": false,
      "metar": "METAR LEZL 111500Z 21009KT 170V240 CAVOK 22/16 Q1010 NOSIG",
      "taf": "TAF LEZL 111400Z 1115/1215 20010KT 9999 FEW030 TX22/1115Z TN12/1206Z"
    },
    {
      "icao": "LFBD",
      "alert": "OK",
      "vis_m": 7000,
      "fzfg": false,
      "metar_trigger": false,
      "taf_trigger": false,
      "metar": "METAR LFBD 111500Z AUTO 32008KT 7000 -RA FEW008/// BKN036/// BKN046/// ///CB 11/09 Q1017 TEMPO 4000 RA BKN008 FEW015CB BKN020TCU",
      "taf": ""
    },
    {
      "icao": "LFLL",
      "alert": "OK",
      "vis_m": 9999,
      "fzfg": false,
      "metar_trigger": false,
      "taf_trigger": false,
      "metar": "METAR LFLL 111500Z VRB02KT 9999 FEW100TCU BKN130 BKN260 25/08 Q1009 TEMPO -SHRA",
      "taf": "TAF LFLL 111100Z 1112/1218 18010KT CAVOK"
    },
    {
      "icao": "LFLS",
      "alert": "OK",
      "vis_m": 9999,
      "fzfg": false,
      "metar_trigger": false,
      "taf_trigger": false,
      "metar": "METAR LFLS 111500Z AUTO 08005KT 050V130 CAVOK 24/11 Q1010 TEMPO VRB15G35KT 4000 TSRAGS BKN040 BKN090CB",
      "taf": "TAF LFLS 111400Z 1115/1215 VRB05KT CAVOK"
    },
    {
      "icao": "LFMN",
      "alert": "OK",
      "vis_m": 9999,
      "fzfg": false,
      "metar_trigger": false,
      "taf_trigger": false,
      "metar": "METAR LFMN 111500Z 13005KT CAVOK 18/14 Q1013 NOSIG",
      "taf": "TAF LFMN 111400Z 1115/1221 12005KT CAVOK"
    },
    {
      "icao": "LFOB",
      "alert": "OK",
      "vis_m": 9999,
      "fzfg": false,
      "metar_trigger": false,
      "taf_trigger": false,
      "metar": "METAR LFOB 111500Z AUTO 28016KT 9999 FEW026 OVC041 09/05 Q1012 TEMPO 30020G30KT 4000 SHRA BKN012 BKN020 SCT025TCU",
      "taf": ""
    },
    {
      "icao": "LFPO",
      "alert": "OK",
      "vis_m": 9999,
      "fzfg": false,
      "metar_trigger": false,
      "taf_trigger": false,
      "metar": "METAR LFPO 111500Z 32018KT 9999 -RA BKN016 10/06 Q1012 TEMPO BKN015",
      "taf": "TAF LFPO 111100Z 1112/1218 24012KT 9999 SCT025"
    },
    {
      "icao": "LFSB",
      "alert": "OK",
      "vis_m": 9999,
      "fzfg": false,
      "metar_trigger": false,
      "taf_trigger": false,
      "metar": "METAR LFSB 111500Z AUTO 29010KT 260V330 9999 ///CB 24/10 Q1010 TEMPO 29015G25KT SHRA",
      "taf": "TAF LFSB 111100Z 1112/1212 26005KT CAVOK"
    },
    {
      "icao": "LGAV",
      "alert": "OK",
      "vis_m": 9999,
      "fzfg": false,
      "metar_trigger": false,
      "taf_trigger": false,
      "metar": "METAR LGAV 111520Z 09005KT 9999 SCT030 BKN050 16/08 Q1017 NOSIG",
      "taf": "TAF LGAV 111100Z 1112/1212 10010KT 9999 SCT025 SCT070"
    },
    {
      "icao": "LGTS",
      "alert": "OK",
      "vis_m": 9999,
      "fzfg": false,
      "metar_trigger": false,
      "taf_trigger": false,
      "metar": "METAR LGTS 111450Z 31004KT 9999 FEW020 BKN035 14/09 Q1018 NOSIG",
      "taf": "TAF LGTS 111100Z 1112/1212 15013KT 9999 SCT025"
    },
    {
      "icao": "LHBP",
      "alert": "OK",
      "vis_m": 9999,
      "fzfg": false,
      "metar_trigger": false,
      "taf_trigger": false,
      "metar": "METAR LHBP 111500Z 19003KT 140V220 CAVOK 13/M03 Q1016 NOSIG",
      "taf": "TAF LHBP 111115Z 1112/1212 VRB03KT CAVOK"
    },
    {
      "icao": "LHDC",
      "alert": "OK",
      "vis_m": 9999,
      "fzfg": false,
      "metar_trigger": false,
      "taf_trigger": false,
      "metar": "METAR LHDC 111445Z AUTO 35005KT 240V040 CAVOK 12/M04 Q1017 NOSIG",
      "taf": "TAF LHDC 111415Z 1115/1124 VRB05KT CAVOK"
    },
    {
      "icao": "LIBD",
      "alert": "OK",
      "vis_m": 9999,
      "fzfg": false,
      "metar_trigger": false,
      "taf_trigger": false,
      "metar": "METAR LIBD 111450Z 06006KT CAVOK 18/13 Q1014",
      "taf": "TAF LIBD 111100Z 1112/1212 07010KT 9999 FEW040"
    },
    {
      "icao": "LIBG",
      "alert": "OK",
      "vis_m": 9999,
      "fzfg": false,
      "metar_trigger": false,
      "taf_trigger": false,
      "metar": "METAR LIBG 111450Z 16008KT 9999 FEW030 21/15 Q1014",
      "taf": "TAF LIBG 111400Z 1115/1124 20008KT CAVOK"
    },
    {
      "icao": "LIBP",
      "alert": "OK",
      "vis_m": 9999,
      "fzfg": false,
      "metar_trigger": false,
      "taf_trigger": false,
      "metar": "METAR LIBP 111450Z AUTO 06008KT 030V100 9999 NCD 19/13 Q1013",
      "taf": "TAF LIBP 111100Z 1112/1212 09010KT 9999 FEW030"
    },
    {
      "icao": "LIBR",
      "alert": "OK",
      "vis_m": 9999,
      "fzfg": false,
      "metar_trigger": false,
      "taf_trigger": false,
      "metar": "METAR LIBR 111450Z 12007KT CAVOK 19/14 Q1014",
      "taf": "TAF LIBR 111100Z 1112/1212 08010KT 8000 FEW030"
    },
    {
      "icao": "LICA",
      "alert": "OK",
      "vis_m": 9999,
      "fzfg": false,
      "metar_trigger": false,
      "taf_trigger": false,
      "metar": "METAR LICA 111450Z AUTO 22005KT 180V250 9999 NCD 21/11 Q1014",
      "taf": "TAF LICA 111100Z 1112/1212 28012KT CAVOK"
    },
    {
      "icao": "LICC",
      "alert": "OK",
      "vis_m": 9999,
      "fzfg": false,
      "metar_trigger": false,
      "taf_trigger": false,
      "metar": "METAR LICC 111450Z 06010KT CAVOK 23/16 Q1013",
      "taf": "TAF LICC 111100Z 1112/1212 10012KT CAVOK"
    },
    {
      "icao": "LICJ",
      "alert": "OK",
      "vis_m": 9999,
      "fzfg": false,
      "metar_trigger": false,
      "taf_trigger": false,
      "metar": "METAR LICJ 111450Z 03006KT 350V050 CAVOK 20/11 Q1013",
      "taf": "TAF LICJ 111100Z 1112/1212 28010KT CAVOK"
    },
    {
      "icao": "LIMC",
      "alert": "OK",
      "vis_m": 9999,
      "fzfg": false,
      "metar_trigger": false,
      "taf_trigger": false,
      "metar": "METAR LIMC 111450Z VRB04KT CAVOK 21/04 Q1014 NOSIG",
      "taf": "TAF LIMC 111100Z 1112/1218 VRB05KT 9999 SCT045"
    },
    {
      "icao": "LIME",
      "alert": "OK",
      "vis_m": 9999,
      "fzfg": false,
      "metar_trigger": false,
      "taf_trigger": false,
      "metar": "METAR LIME 111450Z 19005KT 120V250 CAVOK 20/06 Q1014 NOSIG",
      "taf": "TAF LIME 111100Z 1112/1212 VRB05KT 9999 SCT040"
    },
    {
      "icao": "LIMF",
      "alert": "OK",
      "vis_m": 9999,
      "fzfg": false,
      "metar_trigger": false,
      "taf_trigger": false,
      "metar": "METAR LIMF 111450Z VRB03KT CAVOK 20/07 Q1014",
      "taf": "TAF LIMF 111100Z 1112/1212 VRB05KT 9999 SCT025"
    },
    {
      "icao": "LIMJ",
      "alert": "OK",
      "vis_m": 9999,
      "fzfg": false,
      "metar_trigger": false,
      "taf_trigger": false,
      "metar": "METAR LIMJ 111450Z 21004KT CAVOK 17/14 Q1014",
      "taf": "TAF LIMJ 111100Z 1112/1212 VRB05KT 9999 FEW030"
    },
    {
      "icao": "LIPE",
      "alert": "OK",
      "vis_m": 9999,
      "fzfg": false,
      "metar_trigger": false,
      "taf_trigger": false,
      "metar": "METAR LIPE 111450Z 06005KT 020V100 9999 FEW030 20/12 Q1013",
      "taf": "TAF LIPE 111100Z 1112/1212 VRB04KT 7000 SCT020"
    },
    {
      "icao": "LIPH",
      "alert": "OK",
      "vis_m": 9999,
      "fzfg": false,
      "metar_trigger": false,
      "taf_trigger": false,
      "metar": "METAR LIPH 111450Z VRB04KT CAVOK 21/07 Q1014",
      "taf": "TAF LIPH 111100Z 1112/1212 VRB05KT 9999 FEW060"
    },
    {
      "icao": "LIPQ",
      "alert": "OK",
      "vis_m": 9999,
      "fzfg": false,
      "metar_trigger": false,
      "taf_trigger": false,
      "metar": "METAR LIPQ 111450Z AUTO 22008KT 190V260 9999 NCD 20/04 Q1014",
      "taf": "TAF LIPQ 111100Z 1112/1212 22010KT 9999 FEW060"
    },
    {
      "icao": "LIPR",
      "alert": "OK",
      "vis_m": 9999,
      "fzfg": false,
      "metar_trigger": false,
      "taf_trigger": false,
      "metar": "METAR LIPR 111450Z 09006KT 040V130 CAVOK 16/13 Q1014",
      "taf": "TAF LIPR 111100Z 1112/1212 05010KT 8000 SCT014"
    },
    {
      "icao": "LIPX",
      "alert": "OK",
      "vis_m": 9999,
      "fzfg": false,
      "metar_trigger": false,
      "taf_trigger": false,
      "metar": "METAR LIPX 111450Z 15004KT 070V220 CAVOK 22/05 Q1013",
      "taf": "TAF LIPX 111100Z 1112/1212 11010KT CAVOK"
    },
    {
      "icao": "LIPY",
      "alert": "OK",
      "vis_m": 9999,
      "fzfg": false,
      "metar_trigger": false,
      "taf_trigger": false,
      "metar": "METAR LIPY 111450Z AUTO 10005KT 040V180 9999 NCD 20/13 Q1013",
      "taf": "TAF LIPY 111100Z 1112/1212 10012KT 9999 FEW030"
    },
    {
      "icao": "LIPZ",
      "alert": "OK",
      "vis_m": 9999,
      "fzfg": false,
      "metar_trigger": false,
      "taf_trigger": false,
      "metar": "METAR LIPZ 111450Z 15007KT CAVOK 17/10 Q1014 NOSIG",
      "taf": "TAF LIPZ 111100Z 1112/1218 15010KT CAVOK"
    },
    {
      "icao": "LIRF",
      "alert": "OK",
      "vis_m": 9999,
      "fzfg": false,
      "metar_trigger": false,
      "taf_trigger": false,
      "metar": "METAR LIRF 111450Z 24007KT 210V270 9999 FEW010 18/15 Q1014 NOSIG",
      "taf": "TAF LIRF 111100Z 1112/1218 23010KT CAVOK"
    },
    {
      "icao": "LIRN",
      "alert": "OK",
      "vis_m": 9999,
      "fzfg": false,
      "metar_trigger": false,
      "taf_trigger": false,
      "metar": "METAR LIRN 111450Z AUTO 19010KT 9999 NCD 20/09 Q1013",
      "taf": "TAF LIRN 111100Z 1112/1212 23010KT CAVOK"
    },
    {
      "icao": "LIRP",
      "alert": "OK",
      "vis_m": 9999,
      "fzfg": false,
      "metar_trigger": false,
      "taf_trigger": false,
      "metar": "METAR LIRP 111445Z 26007KT 9999 FEW030 20/13 Q1014 NOSIG",
      "taf": "TAF LIRP 111100Z 1112/1212 27005KT 9999 SCT030"
    },
    {
      "icao": "LIRZ",
      "alert": "OK",
      "vis_m": 9999,
      "fzfg": false,
      "metar_trigger": false,
      "taf_trigger": false,
      "metar": "METAR LIRZ 111450Z AUTO 29005KT 250V010 9999 NCD 24/11 Q1012",
      "taf": "TAF LIRZ 111100Z 1112/1212 VRB05KT CAVOK"
    },
    {
      "icao": "LJLJ",
      "alert": "OK",
      "vis_m": 9999,
      "fzfg": false,
      "metar_trigger": false,
      "taf_trigger": false,
      "metar": "METAR LJLJ 111500Z 06004KT 010V080 9999 FEW040 SCT250 17/05 Q1014 NOSIG",
      "taf": "TAF LJLJ 111100Z 1112/1212 10004KT 9999 FEW040"
    },
    {
      "icao": "LKMT",
      "alert": "OK",
      "vis_m": 9999,
      "fzfg": false,
      "metar_trigger": false,
      "taf_trigger": false,
      "metar": "METAR LKMT 111500Z 02008KT CAVOK 10/M05 Q1018 NOSIG",
      "taf": "TAF LKMT 111100Z 1112/1212 04006KT CAVOK"
    },
    {
      "icao": "LKPR",
      "alert": "OK",
      "vis_m": 9999,
      "fzfg": false,
      "metar_trigger": false,
      "taf_trigger": false,
      "metar": "METAR LKPR 111500Z 08006KT 030V110 CAVOK 11/M02 Q1016 NOSIG",
      "taf": "TAF LKPR 111400Z 1115/1221 08006KT CAVOK"
    },
    {
      "icao": "LLBG",
      "alert": "OK",
      "vis_m": 9999,
      "fzfg": false,
      "metar_trigger": false,
      "taf_trigger": false,
      "metar": "METAR LLBG 111520Z 29012KT 9999 FEW027 18/11 Q1016 NOSIG",
      "taf": "TAF LLBG 111106Z 1112/1212 28012KT 9999 FEW030 TX21/1112Z TN11/1203Z"
    },
    {
      "icao": "LMML",
      "alert": "OK",
      "vis_m": 9999,
      "fzfg": false,
      "metar_trigger": false,
      "taf_trigger": false,
      "metar": "METAR LMML 111515Z 19004KT 140V230 CAVOK 25/05 Q1014 NOSIG",
      "taf": "TAF LMML 111100Z 1112/1212 12008KT CAVOK"
    },
    {
      "icao": "LOWW",
      "alert": "OK",
      "vis_m": 9999,
      "fzfg": false,
      "metar_trigger": false,
      "taf_trigger": false,
      "metar": "METAR LOWW 111450Z 05006KT 010V080 9999 FEW048 13/M01 Q1017 NOSIG",
      "taf": "TAF LOWW 111415Z 1115/1221 05005KT 9999 SCT040 TX17/1214Z TN04/1204Z"
    },
    {
      "icao": "LPFR",
      "alert": "OK",
      "vis_m": 9999,
      "fzfg": false,
      "metar_trigger": false,
      "taf_trigger": false,
      "metar": "METAR LPFR 111500Z VRB03KT CAVOK 24/14 Q1010",
      "taf": "TAF LPFR 111100Z 1112/1212 24010KT 9999 FEW025"
    },
    {
      "icao": "LPMA",
      "alert": "OK",
      "vis_m": 9999,
      "fzfg": false,
      "metar_trigger": false,
      "taf_trigger": false,
      "metar": "METAR LPMA 111500Z VRB06G16KT 9999 SCT015 19/13 Q1023",
      "taf": "TAF LPMA 111100Z 1112/1212 36015KT 9999 SCT015"
    },
    {
      "icao": "LPPR",
      "alert": "OK",
      "vis_m": 9999,
      "fzfg": false,
      "metar_trigger": false,
      "taf_trigger": false,
      "metar": "METAR LPPR 111500Z 34021G32KT 9999 FEW048 15/08 Q1016",
      "taf": "TAF LPPR 111100Z 1112/1212 34018KT 9999 FEW025"
    },
    {
      "icao": "LPPS",
      "alert": "OK",
      "vis_m": 9999,
      "fzfg": false,
      "metar_trigger": false,
      "taf_trigger": false,
      "metar": "METAR LPPS 111500Z 02012KT 350V050 9999 -SHRA FEW005 BKN010 16/14 Q1023",
      "taf": "TAF LPPS 111100Z 1112/1218 01018KT 9999 SCT015 BKN030"
    },
    {
      "icao": "LPPT",
      "alert": "OK",
      "vis_m": null,
      "fzfg": false,
      "metar_trigger": false,
      "taf_trigger": false,
      "metar": "METAR LPPT 111500Z 34022G32KT R02/P2000 SCT028 15/08 Q1015",
      "taf": "TAF LPPT 111100Z 1112/1218 34018KT 9999 SCT020"
    },
    {
      "icao": "LQBK",
      "alert": "OK",
      "vis_m": 9999,
      "fzfg": false,
      "metar_trigger": false,
      "taf_trigger": false,
      "metar": "METAR LQBK 111500Z 01004KT 310V060 CAVOK 17/05 Q1015",
      "taf": "TAF LQBK 111100Z 1112/1212 06005KT CAVOK TX18/1212Z TN05/1204Z"
    },
    {
      "icao": "LQSA",
      "alert": "OK",
      "vis_m": 9999,
      "fzfg": false,
      "metar_trigger": false,
      "taf_trigger": false,
      "metar": "METAR LQSA 111500Z 32004KT 290V050 CAVOK 18/M01 Q1014 NOSIG",
      "taf": ""
    },
    {
      "icao": "LQTZ",
      "alert": "OK",
      "vis_m": 9999,
      "fzfg": false,
      "metar_trigger": false,
      "taf_trigger": false,
      "metar": "METAR LQTZ 111500Z 11008KT 9999 FEW065 17/06 Q1015",
      "taf": "TAF LQTZ 111100Z 1112/1212 03007KT 9999 SCT050 TX19/1212Z TN06/1204Z"
    },
    {
      "icao": "LRBC",
      "alert": "OK",
      "vis_m": 9999,
      "fzfg": false,
      "metar_trigger": false,
      "taf_trigger": false,
      "metar": "METAR LRBC 111500Z 16004KT 130V190 CAVOK 11/M01 Q1016",
      "taf": "TAF LRBC 111400Z 1115/1124 VRB04KT 9999 BKN060"
    },
    {
      "icao": "LRBS",
      "alert": "OK",
      "vis_m": 9999,
      "fzfg": false,
      "metar_trigger": false,
      "taf_trigger": false,
      "metar": "METAR LRBS 111500Z 22009KT 180V250 9999 FEW035 10/03 Q1017 NOSIG",
      "taf": "TAF LRBS 111100Z 1112/1212 VRB04KT CAVOK"
    },
    {
      "icao": "LRBV",
      "alert": "OK",
      "vis_m": 9999,
      "fzfg": false,
      "metar_trigger": false,
      "taf_trigger": false,
      "metar": "METAR LRBV 111500Z 01005KT 320V040 9999 SCT060 BKN082 09/M02 Q1016",
      "taf": "TAF LRBV 111400Z 1115/1124 VRB04KT 9999 BKN050"
    },
    {
      "icao": "LRCL",
      "alert": "OK",
      "vis_m": 9999,
      "fzfg": false,
      "metar_trigger": false,
      "taf_trigger": false,
      "metar": "METAR LRCL 111500Z 00000KT CAVOK 11/M06 Q1016",
      "taf": "TAF LRCL 111400Z 1115/1124 29006KT CAVOK"
    },
    {
      "icao": "LRCV",
      "alert": "OK",
      "vis_m": 9999,
      "fzfg": false,
      "metar_trigger": false,
      "taf_trigger": false,
      "metar": "METAR LRCV 111500Z 15006KT 9999 FEW049 10/04 Q1017",
      "taf": "TAF LRCV 111400Z 1115/1124 VRB04KT 9999 BKN040"
    },
    {
      "icao": "LRIA",
      "alert": "OK",
      "vis_m": 9999,
      "fzfg": false,
      "metar_trigger": false,
      "taf_trigger": false,
      "metar": "METAR LRIA 111500Z 01005KT 330V030 CAVOK 11/M03 Q1017",
      "taf": "TAF LRIA 111400Z 1115/1124 VRB04KT CAVOK"
    },
    {
      "icao": "LROP",
      "alert": "OK",
      "vis_m": 9999,
      "fzfg": false,
      "metar_trigger": false,
      "taf_trigger": false,
      "metar": "METAR LROP 111500Z 23009KT CAVOK 11/M01 Q1017 NOSIG",
      "taf": "TAF LROP 111100Z 1112/1212 VRB04KT CAVOK"
    },
    {
      "icao": "LRSB",
      "alert": "OK",
      "vis_m": 9999,
      "fzfg": false,
      "metar_trigger": false,
      "taf_trigger": false,
      "metar": "METAR LRSB 111500Z 02007KT 340V050 9999 FEW065 10/M05 Q1016 NOSIG",
      "taf": "TAF LRSB 111100Z 1112/1212 VRB04KT 9999 SCT060"
    },
    {
      "icao": "LRSM",
      "alert": "OK",
      "vis_m": 9999,
      "fzfg": false,
      "metar_trigger": false,
      "taf_trigger": false,
      "metar": "METAR LRSM 111500Z 33007KT CAVOK 12/M05 Q1017",
      "taf": "TAF LRSM 111400Z 1115/1124 35007KT CAVOK"
    },
    {
      "icao": "LRSV",
      "alert": "OK",
      "vis_m": 9999,
      "fzfg": false,
      "metar_trigger": false,
      "taf_trigger": false,
      "metar": "METAR LRSV 111500Z VRB02KT CAVOK 08/M03 Q1016",
      "taf": "TAF LRSV 111400Z 1115/1124 VRB04KT 9999 BKN045"
    },
    {
      "icao": "LRTM",
      "alert": "OK",
      "vis_m": 9999,
      "fzfg": false,
      "metar_trigger": false,
      "taf_trigger": false,
      "metar": "METAR LRTM 111500Z 29006KT 250V330 CAVOK 12/M05 Q1016",
      "taf": "TAF LRTM 111400Z 1115/1124 30007KT CAVOK"
    },
    {
      "icao": "LRTR",
      "alert": "OK",
      "vis_m": 9999,
      "fzfg": false,
      "metar_trigger": false,
      "taf_trigger": false,
      "metar": "METAR LRTR 111500Z 01004KT 350V050 CAVOK 12/01 Q1017 NOSIG",
      "taf": "TAF LRTR 111100Z 1112/1212 VRB04KT CAVOK"
    },
    {
      "icao": "LTAC",
      "alert": "OK",
      "vis_m": 9999,
      "fzfg": false,
      "metar_trigger": false,
      "taf_trigger": false,
      "metar": "METAR LTAC 111450Z 34010KT 310V010 9999 -SHRA BKN035 06/M04 Q1015 NOSIG RMK RWY21C 28013KT RWY03L 33007KT 270V030 RWY21R 27011KT RWY03R 02007KT 320V120 RWY21L 28012KT",
      "taf": "TAF LTAC 111040Z 1112/1212 VRB02KT 9999 SCT040"
    },
    {
      "icao": "LTFM",
      "alert": "OK",
      "vis_m": 9999,
      "fzfg": false,
      "metar_trigger": false,
      "taf_trigger": false,
      "metar": "METAR LTFM 111450Z 08012KT 030V090 CAVOK 11/01 Q1018 NOSIG RMK RWY17L 09013KT RWY34L 07012KT RWY16R 09012KT RWY36 08011KT RWY18 10013KT",
      "taf": "TAF LTFM 111040Z 1112/1218 07012KT 9999 FEW035 BKN100"
    },
    {
      "icao": "LUKK",
      "alert": "OK",
      "vis_m": 9999,
      "fzfg": false,
      "metar_trigger": false,
      "taf_trigger": false,
      "metar": "METAR LUKK 111500Z VRB02KT CAVOK 11/M01 Q1017 TEMPO 24015G25KT SCT040CB",
      "taf": "TAF LUKK 111101Z 1112/1212 26008KT 9999 SCT040"
    },
    {
      "icao": "LWOH",
      "alert": "OK",
      "vis_m": 9999,
      "fzfg": false,
      "metar_trigger": false,
      "taf_trigger": false,
      "metar": "METAR LWOH 111450Z 15004KT 120V180 9999 FEW040 SCT090 16/04 Q1015",
      "taf": "TAF LWOH 111420Z 1115/1215 16005KT 9999 FEW050 SCT080"
    },
    {
      "icao": "LWSK",
      "alert": "OK",
      "vis_m": 9999,
      "fzfg": false,
      "metar_trigger": false,
      "taf_trigger": false,
      "metar": "METAR LWSK 111520Z 02006KT 310V040 9999 FEW080 17/07 Q1015 NOSIG",
      "taf": "TAF LWSK 111420Z 1115/1215 VRB03KT 9999 FEW080"
    },
    {
      "icao": "LYBE",
      "alert": "OK",
      "vis_m": 9999,
      "fzfg": false,
      "metar_trigger": false,
      "taf_trigger": false,
      "metar": "METAR LYBE 111500Z 34006KT 280V010 CAVOK 14/02 Q1017 NOSIG",
      "taf": "TAF LYBE 111100Z 1112/1212 35010KT 9999 BKN040 TX17/1212Z TN03/1204Z"
    },
    {
      "icao": "LYNI",
      "alert": "OK",
      "vis_m": 9999,
      "fzfg": false,
      "metar_trigger": false,
      "taf_trigger": false,
      "metar": "METAR LYNI 111500Z 33016KT 300V360 9999 FEW033 14/03 Q1016 NOSIG",
      "taf": "TAF LYNI 111100Z 1112/1212 34012KT 9999 BKN050 TX16/1212Z TN03/1205Z"
    },
    {
      "icao": "LYPG",
      "alert": "OK",
      "vis_m": 9999,
      "fzfg": false,
      "metar_trigger": false,
      "taf_trigger": false,
      "metar": "METAR LYPG 111500Z 19008KT 170V230 9999 FEW050 21/04 Q1014 NOSIG",
      "taf": "TAF LYPG 111100Z 1112/1212 18007KT 9999 FEW050 TX23/1212Z TN10/1204Z"
    },
    {
      "icao": "LZIB",
      "alert": "OK",
      "vis_m": 9999,
      "fzfg": false,
      "metar_trigger": false,
      "taf_trigger": false,
      "metar": "METAR LZIB 111500Z VRB03KT CAVOK 14/M02 Q1016 NOSIG",
      "taf": "TAF LZIB 111115Z 1112/1212 04006KT 9999 FEW035"
    },
    {
      "icao": "LZKZ",
      "alert": "OK",
      "vis_m": 9999,
      "fzfg": false,
      "metar_trigger": false,
      "taf_trigger": false,
      "metar": "METAR LZKZ 111500Z 36007KT CAVOK 10/M06 Q1017 NOSIG",
      "taf": "TAF LZKZ 111115Z 1112/1212 01008KT CAVOK"
    },
    {
      "icao": "LZTT",
      "alert": "OK",
      "vis_m": 9999,
      "fzfg": false,
      "metar_trigger": false,
      "taf_trigger": false,
      "metar": "METAR LZTT 111500Z 05012KT 9999 SCT066 08/M06 Q1016 NOSIG",
      "taf": "TAF LZTT 111115Z 1112/1212 06007KT 9999 FEW050"
    },
    {
      "icao": "OEJN",
      "alert": "OK",
      "vis_m": 9999,
      "fzfg": false,
      "metar_trigger": false,
      "taf_trigger": false,
      "metar": "METAR OEJN 111500Z 33018KT CAVOK 28/07 Q1011 NOSIG",
      "taf": "TAF OEJN 111100Z 1112/1218 32016KT 7000 NSC"
    },
    {
      "icao": "OEMA",
      "alert": "OK",
      "vis_m": 9999,
      "fzfg": false,
      "metar_trigger": false,
      "taf_trigger": false,
      "metar": "METAR OEMA 111500Z 26008KT CAVOK 31/M13 Q1012 NOSIG",
      "taf": "TAF OEMA 111100Z 1112/1218 27014KT CAVOK"
    },
    {
      "icao": "OJAI",
      "alert": "OK",
      "vis_m": 5000,
      "fzfg": false,
      "metar_trigger": false,
      "taf_trigger": false,
      "metar": "METAR OJAI 111400Z 26012KT 5000 HZ FEW030 17/05 Q1016 NOSIG",
      "taf": "TAF OJAI 111100Z 1112/1218 26012KT 5000 HZ SCT030"
    },
    {
      "icao": "OMAA",
      "alert": "OK",
      "vis_m": null,
      "fzfg": false,
      "metar_trigger": false,
      "taf_trigger": false,
      "metar": "",
      "taf": ""
    },
    {
      "icao": "OMDB",
      "alert": "OK",
      "vis_m": null,
      "fzfg": false,
      "metar_trigger": false,
      "taf_trigger": false,
      "metar": "",
      "taf": ""
    },
    {
      "icao": "UAAA",
      "alert": "OK",
      "vis_m": 5000,
      "fzfg": false,
      "metar_trigger": false,
      "taf_trigger": false,
      "metar": "SPECI UAAA 111515Z 19002MPS 5000 BR SCT100 BKN200 12/07 Q1023 NOSIG",
      "taf": "TAF UAAA 111102Z 1112/1212 18002G07MPS 9999 SCT050CB BKN100 TX19/1208Z TN08/1201Z"
    },
    {
      "icao": "UBBB",
      "alert": "OK",
      "vis_m": 9999,
      "fzfg": false,
      "metar_trigger": false,
      "taf_trigger": false,
      "metar": "METAR UBBB 111500Z 35012KT CAVOK 10/07 Q1016 NOSIG",
      "taf": "TAF UBBB 111048Z 1112/1212 34014G24KT CAVOK TX14/1110Z TN07/1201Z"
    },
    {
      "icao": "UDSG",
      "alert": "OK",
      "vis_m": 9999,
      "fzfg": false,
      "metar_trigger": false,
      "taf_trigger": false,
      "metar": "METAR UDSG 111500Z 16010KT 9999 -SHRA BKN040CB 08/03 Q1013 NOSIG",
      "taf": "TAF UDSG 111100Z 1112/1212 36006KT 9999 BKN030"
    },
    {
      "icao": "UDYZ",
      "alert": "OK",
      "vis_m": 9999,
      "fzfg": false,
      "metar_trigger": false,
      "taf_trigger": false,
      "metar": "METAR UDYZ 111500Z 30006KT 9999 BKN043CB 16/05 Q1010 NOSIG",
      "taf": "TAF UDYZ 111100Z 1112/1212 24006KT 9999 SCT040"
    },
    {
      "icao": "UGKO",
      "alert": "OK",
      "vis_m": 9999,
      "fzfg": false,
      "metar_trigger": false,
      "taf_trigger": false,
      "metar": "METAR UGKO 111500Z 24008KT 9999 -SHRA SCT033CB BKN040 08/07 Q1018 NOSIG",
      "taf": "TAF UGKO 111100Z 1112/1212 26007KT 9999 SCT020 BKN045 TX12/1211Z TN06/1203Z"
    }
  ]
}