{
  "ts_utc": "2026-01-07T14:50:18Z",
  "threshold_m": 150,
  "source": "stations_override.txt (ICAO list) + aviationweather.gov (METAR/TAF raw)",
  "station_count": 159,
  "stations": [
    {
      "icao": "BIKF",
      "alert": "OK",
      "vis_m": 9999,
      "fzfg": false,
      "metar_trigger": false,
      "taf_trigger": false,
      "metar": "METAR BIKF 071430Z 08021KT CAVOK M03/M11 Q1005",
      "taf": "TAF BIKF 071332Z 0715/0815 07018KT 9999 FEW035 SCT045 TX02/0812Z TNM04/0720Z"
    },
    {
      "icao": "BKPR",
      "alert": "OK",
      "vis_m": 9999,
      "fzfg": false,
      "metar_trigger": false,
      "taf_trigger": false,
      "metar": "METAR BKPR 071430Z 34013KT 9999 BKN055 03/03 Q1003 NOSIG",
      "taf": ""
    },
    {
      "icao": "EBCI",
      "alert": "OK",
      "vis_m": 3500,
      "fzfg": false,
      "metar_trigger": false,
      "taf_trigger": false,
      "metar": "METAR EBCI 071420Z 20015KT 3500 -SHSN BKN012 M02/M04 Q1006 TEMPO 20016G26KT",
      "taf": ""
    },
    {
      "icao": "EDDB",
      "alert": "OK",
      "vis_m": 9999,
      "fzfg": false,
      "metar_trigger": false,
      "taf_trigger": false,
      "metar": "METAR EDDB 071420Z AUTO 15007KT CAVOK M04/M07 Q1013 NOSIG",
      "taf": "TAF EDDB 071100Z 0712/0812 16007KT CAVOK"
    },
    {
      "icao": "EDDH",
      "alert": "OK",
      "vis_m": 9999,
      "fzfg": false,
      "metar_trigger": false,
      "taf_trigger": false,
      "metar": "METAR EDDH 071420Z AUTO 15014KT CAVOK M01/M05 Q1006 NOSIG",
      "taf": "TAF EDDH 071100Z 0712/0818 17012KT 9999 BKN025"
    },
    {
      "icao": "EDDK",
      "alert": "OK",
      "vis_m": 9999,
      "fzfg": false,
      "metar_trigger": false,
      "taf_trigger": false,
      "metar": "METAR EDDK 071420Z AUTO 17012KT 9999 FEW017 BKN036 OVC047 M01/M05 Q1008 TEMPO 2000 SN BKN008",
      "taf": "TAF EDDK 071100Z 0712/0818 15012KT 9999 SCT020 BKN030"
    },
    {
      "icao": "EDDN",
      "alert": "OK",
      "vis_m": 9999,
      "fzfg": false,
      "metar_trigger": false,
      "taf_trigger": false,
      "metar": "METAR EDDN 071420Z AUTO 19006KT 170V230 9999 FEW033 M03/M10 Q1012 NOSIG",
      "taf": "TAF EDDN 071100Z 0712/0812 15006KT CAVOK"
    },
    {
      "icao": "EDDS",
      "alert": "OK",
      "vis_m": 9999,
      "fzfg": false,
      "metar_trigger": false,
      "taf_trigger": false,
      "metar": "METAR EDDS 071420Z AUTO 16005KT 130V190 CAVOK M02/M08 Q1010 NOSIG",
      "taf": "TAF EDDS 071100Z 0712/0812 14004KT CAVOK"
    },
    {
      "icao": "EDFH",
      "alert": "OK",
      "vis_m": 7000,
      "fzfg": false,
      "metar_trigger": false,
      "taf_trigger": false,
      "metar": "METAR EDFH 071420Z 20010KT 7000 -SN FEW022 BKN048 M04/M07 Q1007",
      "taf": "TAF EDFH 071100Z 0712/0812 21013KT 9999 SCT010"
    },
    {
      "icao": "EDJA",
      "alert": "OK",
      "vis_m": 9999,
      "fzfg": false,
      "metar_trigger": false,
      "taf_trigger": false,
      "metar": "METAR EDJA 071420Z 18003KT CAVOK M04/M09 Q1010",
      "taf": "TAF EDJA 071400Z 0715/0724 20004KT CAVOK"
    },
    {
      "icao": "EDLW",
      "alert": "OK",
      "vis_m": 9000,
      "fzfg": false,
      "metar_trigger": false,
      "taf_trigger": false,
      "metar": "METAR EDLW 071420Z 18019KT 9000 VCSH FEW036 M01/M05 Q1005",
      "taf": "TAF EDLW 071100Z 0712/0812 18015G25KT 9999 SCT015 BKN030"
    },
    {
      "icao": "EDNY",
      "alert": "OK",
      "vis_m": 9999,
      "fzfg": false,
      "metar_trigger": false,
      "taf_trigger": false,
      "metar": "METAR EDNY 071420Z COR 24003KT CAVOK M03/M07 Q1012",
      "taf": "TAF EDNY 071400Z 0715/0724 04002KT 9999 BKN025"
    },
    {
      "icao": "EDSB",
      "alert": "OK",
      "vis_m": 9999,
      "fzfg": false,
      "metar_trigger": false,
      "taf_trigger": false,
      "metar": "METAR EDSB 071420Z 21007KT CAVOK M01/M07 Q1012",
      "taf": "TAF EDSB 071100Z 0712/0812 22007KT CAVOK"
    },
    {
      "icao": "EETN",
      "alert": "OK",
      "vis_m": 9999,
      "fzfg": false,
      "metar_trigger": false,
      "taf_trigger": false,
      "metar": "METAR EETN 071420Z VRB01KT 9999 FEW017 BKN024 M07/M08 Q1015 TEMPO BKN014",
      "taf": "TAF EETN 071130Z 0712/0812 VRB02KT 9999 BKN018"
    },
    {
      "icao": "EFTU",
      "alert": "OK",
      "vis_m": 9999,
      "fzfg": false,
      "metar_trigger": false,
      "taf_trigger": false,
      "metar": "METAR EFTU 071420Z AUTO 09011KT 9999 OVC034 M06/M08 Q1015",
      "taf": "TAF EFTU 071425Z 0715/0815 09011KT 9999 BKN035"
    },
    {
      "icao": "EGBB",
      "alert": "OK",
      "vis_m": 9999,
      "fzfg": false,
      "metar_trigger": false,
      "taf_trigger": false,
      "metar": "METAR EGBB 071420Z COR 29012KT 9999 VCSH SCT038CB 05/M02 Q1004",
      "taf": "TAF EGBB 071105Z 0712/0812 28012KT 9999 SCT025"
    },
    {
      "icao": "EGGP",
      "alert": "OK",
      "vis_m": 9999,
      "fzfg": false,
      "metar_trigger": false,
      "taf_trigger": false,
      "metar": "METAR EGGP 071420Z 31014KT 9999 -RA SCT026 BKN033 05/00 Q1004",
      "taf": "TAF EGGP 071055Z 0712/0812 29015KT 9999 FEW025"
    },
    {
      "icao": "EGGW",
      "alert": "OK",
      "vis_m": 9999,
      "fzfg": false,
      "metar_trigger": false,
      "taf_trigger": false,
      "metar": "METAR EGGW 071420Z AUTO 29017KT 9999 SCT038 05/M01 Q1003",
      "taf": "TAF EGGW 071056Z 0712/0812 28012KT 9999 SCT030"
    },
    {
      "icao": "EGKK",
      "alert": "OK",
      "vis_m": 9999,
      "fzfg": false,
      "metar_trigger": false,
      "taf_trigger": false,
      "metar": "METAR EGKK 071420Z 27011KT 9999 FEW032 06/01 Q1005",
      "taf": "TAF EGKK 071100Z 0712/0818 27010KT 9999 FEW030"
    },
    {
      "icao": "EGNM",
      "alert": "OK",
      "vis_m": 9999,
      "fzfg": false,
      "metar_trigger": false,
      "taf_trigger": false,
      "metar": "METAR EGNM 071420Z 28020KT 9999 FEW016 04/M00 Q1000",
      "taf": "TAF EGNM 071055Z 0712/0812 28015KT 9999 FEW015"
    },
    {
      "icao": "EGPD",
      "alert": "OK",
      "vis_m": 9999,
      "fzfg": false,
      "metar_trigger": false,
      "taf_trigger": false,
      "metar": "METAR EGPD 071420Z AUTO 31008KT 9999 SCT025/// BKN034/// //////TCU 02/00 Q1002 TEMPO SHRA BKN014",
      "taf": "TAF EGPD 071102Z 0712/0812 03009KT 9999 BKN024"
    },
    {
      "icao": "EGPF",
      "alert": "OK",
      "vis_m": 9999,
      "fzfg": false,
      "metar_trigger": false,
      "taf_trigger": false,
      "metar": "METAR EGPF 071420Z AUTO 28009KT 9999 NCD 04/M00 Q1003",
      "taf": "TAF EGPF 071056Z 0712/0812 29010KT 9999 FEW035"
    },
    {
      "icao": "EHBK",
      "alert": "OK",
      "vis_m": 9999,
      "fzfg": false,
      "metar_trigger": false,
      "taf_trigger": false,
      "metar": "METAR EHBK 071425Z AUTO 20021KT 9999 OVC025 M01/M04 Q1005 NOSIG",
      "taf": "TAF EHBK 071124Z 0712/0818 20017KT 2500 -SN BKN025"
    },
    {
      "icao": "EHEH",
      "alert": "OK",
      "vis_m": 9999,
      "fzfg": false,
      "metar_trigger": false,
      "taf_trigger": false,
      "metar": "METAR EHEH 071425Z AUTO 19014KT 9999 OVC016 M00/M03 Q1004 WHT TEMPO 19017G27KT 2500 -SN FEW002 BKN004 OVC008",
      "taf": "TAF EHEH 071117Z 0712/0818 19015G25KT 2500 -SN FEW002 SCT005 BKN008"
    },
    {
      "icao": "EKBI",
      "alert": "OK",
      "vis_m": 3700,
      "fzfg": false,
      "metar_trigger": false,
      "taf_trigger": false,
      "metar": "METAR EKBI 071420Z AUTO 16012KT 3700 -SN OVC008/// M01/M02 Q1002",
      "taf": "TAF EKBI 071427Z 0715/0815 17010KT 5000 -SN SCT005 BKN010"
    },
    {
      "icao": "EKCH",
      "alert": "OK",
      "vis_m": 9999,
      "fzfg": false,
      "metar_trigger": false,
      "taf_trigger": false,
      "metar": "METAR EKCH 071420Z AUTO 18018KT 9999 BKN018/// M00/M04 Q1008 TEMPO 17015G25KT",
      "taf": "TAF EKCH 071427Z 0715/0815 17015KT 9999 BKN018"
    },
    {
      "icao": "ENAL",
      "alert": "OK",
      "vis_m": 9999,
      "fzfg": false,
      "metar_trigger": false,
      "taf_trigger": false,
      "metar": "METAR ENAL 071420Z 12012KT CAVOK M03/M11 Q1007",
      "taf": "TAF ENAL 071400Z 0715/0724 14009KT CAVOK"
    },
    {
      "icao": "ENBR",
      "alert": "OK",
      "vis_m": 9999,
      "fzfg": false,
      "metar_trigger": false,
      "taf_trigger": false,
      "metar": "METAR ENBR 071420Z 07001KT CAVOK M05/M13 Q1005 NOSIG RMK WIND 1200FT 04004KT",
      "taf": "TAF ENBR 071100Z 0712/0812 06005KT CAVOK"
    },
    {
      "icao": "ENGM",
      "alert": "OK",
      "vis_m": 9999,
      "fzfg": false,
      "metar_trigger": false,
      "taf_trigger": false,
      "metar": "METAR ENGM 071420Z 04004KT 9999 -SN FEW011 SCT031 M09/M11 Q1007 NOSIG",
      "taf": "TAF ENGM 071100Z 0712/0812 01003KT 9999 FEW015 BKN020"
    },
    {
      "icao": "ENHD",
      "alert": "OK",
      "vis_m": 9999,
      "fzfg": false,
      "metar_trigger": false,
      "taf_trigger": false,
      "metar": "METAR ENHD 071420Z 09011KT CAVOK M05/M13 Q1004",
      "taf": "TAF ENHD 071400Z 0715/0723 07008KT CAVOK"
    },
    {
      "icao": "ENTC",
      "alert": "OK",
      "vis_m": 9999,
      "fzfg": false,
      "metar_trigger": false,
      "taf_trigger": false,
      "metar": "METAR ENTC 071420Z 09004KT 060V140 CAVOK M12/M14 Q1023 NOSIG RMK WIND 2600FT 16017KT",
      "taf": "TAF ENTC 071100Z 0712/0812 VRB05KT CAVOK"
    },
    {
      "icao": "ENTO",
      "alert": "OK",
      "vis_m": 9999,
      "fzfg": false,
      "metar_trigger": false,
      "taf_trigger": false,
      "metar": "METAR ENTO 071420Z 36013KT 9999 OVC026 M09/M11 Q1007 NOSIG",
      "taf": ""
    },
    {
      "icao": "ENVA",
      "alert": "OK",
      "vis_m": 9999,
      "fzfg": false,
      "metar_trigger": false,
      "taf_trigger": false,
      "metar": "METAR ENVA 071420Z 07008KT 9999 VCSH FEW029 M08/M13 Q1013 NOSIG RMK WIND 670FT 08010KT",
      "taf": "TAF ENVA 071100Z 0712/0812 11008KT 9999 FEW025"
    },
    {
      "icao": "ENZV",
      "alert": "OK",
      "vis_m": 9999,
      "fzfg": false,
      "metar_trigger": false,
      "taf_trigger": false,
      "metar": "METAR ENZV 071420Z 08003KT CAVOK M03/M12 Q1004 NOSIG",
      "taf": "TAF ENZV 071100Z 0712/0812 08006KT CAVOK"
    },
    {
      "icao": "EPGD",
      "alert": "OK",
      "vis_m": 8000,
      "fzfg": false,
      "metar_trigger": false,
      "taf_trigger": false,
      "metar": "METAR EPGD 071430Z 22006KT 180V250 8000 BKN004 M07/M07 Q1015",
      "taf": "TAF EPGD 071130Z 0712/0812 23005KT 8000 NSC"
    },
    {
      "icao": "EPKK",
      "alert": "OK",
      "vis_m": 9999,
      "fzfg": false,
      "metar_trigger": false,
      "taf_trigger": false,
      "metar": "METAR EPKK 071430Z 03004KT 340V040 9999 BKN026 M04/M09 Q1014",
      "taf": "TAF EPKK 071430Z 0715/0815 04003KT 9999 BKN030"
    },
    {
      "icao": "EPKT",
      "alert": "OK",
      "vis_m": 9999,
      "fzfg": false,
      "metar_trigger": false,
      "taf_trigger": false,
      "metar": "METAR EPKT 071430Z 04002KT 9999 OVC018 M04/M09 Q1014",
      "taf": "TAF EPKT 071130Z 0712/0812 04005KT 9999 BKN018"
    },
    {
      "icao": "EPLB",
      "alert": "OK",
      "vis_m": 2800,
      "fzfg": false,
      "metar_trigger": false,
      "taf_trigger": false,
      "metar": "METAR EPLB 071430Z 36003KT 2800 -SN BR BKN046 M04/M05 Q1014",
      "taf": "TAF EPLB 071130Z 0712/0812 02007KT 3500 -SN BR SCT020 BKN045"
    },
    {
      "icao": "EPMO",
      "alert": "OK",
      "vis_m": 1100,
      "fzfg": false,
      "metar_trigger": false,
      "taf_trigger": false,
      "metar": "METAR EPMO 071430Z VRB02KT 1100 R08/1500N BR OVC001 M09/M09 Q1016",
      "taf": ""
    },
    {
      "icao": "EPPO",
      "alert": "OK",
      "vis_m": 6000,
      "fzfg": false,
      "metar_trigger": false,
      "taf_trigger": false,
      "metar": "METAR EPPO 071430Z 11003KT 6000 NSC M04/M06 Q1015",
      "taf": ""
    },
    {
      "icao": "EPRA",
      "alert": "OK",
      "vis_m": 4700,
      "fzfg": false,
      "metar_trigger": false,
      "taf_trigger": false,
      "metar": "METAR EPRA 071430Z 35005KT 4700 BR NSC M07/M09 Q1015",
      "taf": "TAF EPRA 071430Z 0715/0724 34005KT 4000 BR NSC"
    },
    {
      "icao": "EPRZ",
      "alert": "OK",
      "vis_m": 3500,
      "fzfg": false,
      "metar_trigger": false,
      "taf_trigger": false,
      "metar": "METAR EPRZ 071430Z 02007KT 3500 -SN BR BKN008 OVC026 M04/M06 Q1013",
      "taf": "TAF EPRZ 071130Z 0712/0812 01007KT 3500 -SN BR OVC045"
    },
    {
      "icao": "EPSC",
      "alert": "OK",
      "vis_m": 9999,
      "fzfg": false,
      "metar_trigger": false,
      "taf_trigger": false,
      "metar": "METAR EPSC 071430Z 15010KT CAVOK M04/M08 Q1013",
      "taf": "TAF EPSC 071130Z 0712/0812 14012KT 9999 BKN030"
    },
    {
      "icao": "EPSY",
      "alert": "OK",
      "vis_m": 4000,
      "fzfg": false,
      "metar_trigger": false,
      "taf_trigger": false,
      "metar": "METAR EPSY 071430Z VRB02KT 4000 BR NSC M12/M13 Q1016",
      "taf": "TAF EPSY 071430Z 0715/0724 VRB02KT 3000 BR NSC"
    },
    {
      "icao": "EPWA",
      "alert": "OK",
      "vis_m": 3000,
      "fzfg": false,
      "metar_trigger": false,
      "taf_trigger": false,
      "metar": "METAR EPWA 071430Z 32005KT 290V010 3000 BR BKN003 M09/M10 Q1016 TEMPO BKN005",
      "taf": "TAF EPWA 071430Z 0715/0815 01003KT 3000 BR BKN005"
    },
    {
      "icao": "EPWR",
      "alert": "OK",
      "vis_m": 9999,
      "fzfg": false,
      "metar_trigger": false,
      "taf_trigger": false,
      "metar": "METAR EPWR 071430Z 19002KT 9999 FEW015 BKN023 M02/M06 Q1015",
      "taf": "TAF EPWR 071430Z 0715/0815 VRB02KT 9999 BKN025"
    },
    {
      "icao": "ESGG",
      "alert": "OK",
      "vis_m": 9999,
      "fzfg": false,
      "metar_trigger": false,
      "taf_trigger": false,
      "metar": "METAR ESGG 071420Z 16005KT 9999 OVC032 M01/M03 Q1005",
      "taf": "TAF ESGG 071430Z 0715/0815 16009KT 5000 -SN SCT005 BKN015"
    },
    {
      "icao": "ESKN",
      "alert": "OK",
      "vis_m": 9999,
      "fzfg": false,
      "metar_trigger": false,
      "taf_trigger": false,
      "metar": "METAR ESKN 071420Z 08005KT 9999 SCT021 BKN059 M07/M07 Q1011",
      "taf": "TAF ESKN 071430Z 0715/0815 11005KT 9999 BKN015"
    },
    {
      "icao": "ESMS",
      "alert": "OK",
      "vis_m": 9999,
      "fzfg": false,
      "metar_trigger": false,
      "taf_trigger": false,
      "metar": "METAR ESMS 071420Z 18013KT 9999 FEW020 M02/M04 Q1009",
      "taf": "TAF ESMS 071427Z 0715/0815 20012KT 9999 BKN018"
    },
    {
      "icao": "ESSA",
      "alert": "OK",
      "vis_m": 9999,
      "fzfg": false,
      "metar_trigger": false,
      "taf_trigger": false,
      "metar": "METAR ESSA 071420Z 16006KT 9999 OVC004 M08/M08 Q1012 TEMPO BKN008",
      "taf": "TAF ESSA 071430Z 0715/0815 12006KT 9999 BKN008"
    },
    {
      "icao": "EYKA",
      "alert": "OK",
      "vis_m": 3400,
      "fzfg": false,
      "metar_trigger": false,
      "taf_trigger": false,
      "metar": "METAR EYKA 071420Z VRB02KT 3400 BR OVC003 M06/M07 Q1016",
      "taf": "TAF EYKA 071124Z 0712/0812 VRB04KT 3000 BR OVC002"
    },
    {
      "icao": "EYPA",
      "alert": "OK",
      "vis_m": 5000,
      "fzfg": false,
      "metar_trigger": false,
      "taf_trigger": false,
      "metar": "METAR EYPA 071420Z 15005KT 5000 BR NSC M09/M09 Q1016",
      "taf": "TAF EYPA 071100Z 0712/0812 VRB04KT 5000 BR SCT005"
    },
    {
      "icao": "EYVI",
      "alert": "OK",
      "vis_m": 1500,
      "fzfg": true,
      "metar_trigger": false,
      "taf_trigger": false,
      "metar": "METAR EYVI 071420Z VRB02KT 1500 R01/1400VP2000D BR OVC001 M06/M07 Q1015 TEMPO 0800 FZFG",
      "taf": ""
    },
    {
      "icao": "GCFV",
      "alert": "OK",
      "vis_m": 9999,
      "fzfg": false,
      "metar_trigger": false,
      "taf_trigger": false,
      "metar": "METAR GCFV 071430Z 03024KT 9999 SCT035 19/09 Q1027",
      "taf": "TAF GCFV 071400Z 0715/0815 04023KT 9999 FEW035 TX20/0814Z TN14/0806Z"
    },
    {
      "icao": "GCLP",
      "alert": "OK",
      "vis_m": 9999,
      "fzfg": false,
      "metar_trigger": false,
      "taf_trigger": false,
      "metar": "METAR GCLP 071430Z 02022KT 9999 FEW030 BKN050 19/10 Q1027 NOSIG",
      "taf": "TAF GCLP 071400Z 0715/0815 03025KT 9999 BKN035 TX20/0814Z TN14/0806Z"
    },
    {
      "icao": "GCTS",
      "alert": "OK",
      "vis_m": 9999,
      "fzfg": false,
      "metar_trigger": false,
      "taf_trigger": false,
      "metar": "METAR GCTS 071430Z 08024G34KT 9999 FEW035 21/07 Q1027 NOSIG",
      "taf": ""
    },
    {
      "icao": "GMAD",
      "alert": "OK",
      "vis_m": 9999,
      "fzfg": false,
      "metar_trigger": false,
      "taf_trigger": false,
      "metar": "METAR GMAD 071430Z 26003KT CAVOK 17/08 Q1024 NOSIG",
      "taf": "TAF GMAD 071100Z 0712/0818 22006KT CAVOK"
    },
    {
      "icao": "GMMN",
      "alert": "OK",
      "vis_m": 9999,
      "fzfg": false,
      "metar_trigger": false,
      "taf_trigger": false,
      "metar": "METAR GMMN 071430Z VRB02KT 9999 SCT040 14/06 Q1029 NOSIG",
      "taf": "TAF GMMN 071100Z 0712/0818 24011KT 9999 SCT040"
    },
    {
      "icao": "GMMX",
      "alert": "OK",
      "vis_m": 9999,
      "fzfg": false,
      "metar_trigger": false,
      "taf_trigger": false,
      "metar": "METAR GMMX 071430Z 10006KT 020V140 CAVOK 13/02 Q1028 NOSIG",
      "taf": "TAF GMMX 071100Z 0712/0818 06006KT 8000 NSC"
    },
    {
      "icao": "HEGN",
      "alert": "OK",
      "vis_m": 9999,
      "fzfg": false,
      "metar_trigger": false,
      "taf_trigger": false,
      "metar": "METAR HEGN 071400Z 36004KT CAVOK 25/10 Q1019 NOSIG",
      "taf": "TAF HEGN 071100Z 0712/0818 36014KT CAVOK"
    },
    {
      "icao": "HEMA",
      "alert": "OK",
      "vis_m": 4000,
      "fzfg": false,
      "metar_trigger": false,
      "taf_trigger": false,
      "metar": "METAR HEMA 071400Z 35016KT 4000 SA NSC 24/16 Q1018 NOSIG",
      "taf": "TAF HEMA 071100Z 0712/0818 36016KT 6000 NSC"
    },
    {
      "icao": "HESH",
      "alert": "OK",
      "vis_m": 9999,
      "fzfg": false,
      "metar_trigger": false,
      "taf_trigger": false,
      "metar": "METAR HESH 071400Z 03006KT CAVOK 25/11 Q1018 NOSIG",
      "taf": "TAF HESH 071100Z 0712/0818 01012KT CAVOK"
    },
    {
      "icao": "HESX",
      "alert": "OK",
      "vis_m": 6000,
      "fzfg": false,
      "metar_trigger": false,
      "taf_trigger": false,
      "metar": "METAR HESX 071400Z 03007KT 6000 NSC 22/06 Q1019 NOSIG",
      "taf": ""
    },
    {
      "icao": "LATI",
      "alert": "OK",
      "vis_m": null,
      "fzfg": false,
      "metar_trigger": false,
      "taf_trigger": false,
      "metar": "",
      "taf": "TAF LATI 071100Z 0712/0812 15010KT 9999 SCT040 BKN060 TX16/0712Z TN06/0806Z"
    },
    {
      "icao": "LBPD",
      "alert": "OK",
      "vis_m": 6000,
      "fzfg": false,
      "metar_trigger": false,
      "taf_trigger": false,
      "metar": "METAR LBPD 071430Z AUTO 32006KT 6000 OVC070/// 11/11 Q1006 TEMPO 5000 BR",
      "taf": "TAF LBPD 071100Z 0712/0812 VRB03KT 3000 BR OVC004"
    },
    {
      "icao": "LBSF",
      "alert": "OK",
      "vis_m": 9999,
      "fzfg": false,
      "metar_trigger": false,
      "taf_trigger": false,
      "metar": "METAR LBSF 071430Z 01005KT 300V030 9999 FEW020 SCT035 BKN054 09/07 Q1006 RERA NOSIG",
      "taf": ""
    },
    {
      "icao": "LBWN",
      "alert": "OK",
      "vis_m": 9999,
      "fzfg": false,
      "metar_trigger": false,
      "taf_trigger": false,
      "metar": "METAR LBWN 071430Z AUTO 21007KT 9999 NSC 16/10 Q1006 NOSIG",
      "taf": "TAF LBWN 071100Z 0712/0812 19012KT 9999 SCT020 BKN040"
    },
    {
      "icao": "LCLK",
      "alert": "OK",
      "vis_m": 9999,
      "fzfg": false,
      "metar_trigger": false,
      "taf_trigger": false,
      "metar": "METAR LCLK 071430Z 11004KT CAVOK 18/14 Q1021 NOSIG",
      "taf": "TAF LCLK 071130Z 0712/0812 09010KT 9999 FEW040"
    },
    {
      "icao": "LCPH",
      "alert": "OK",
      "vis_m": 9999,
      "fzfg": false,
      "metar_trigger": false,
      "taf_trigger": false,
      "metar": "METAR LCPH 071430Z 15011KT CAVOK 19/14 Q1021 NOSIG",
      "taf": "TAF LCPH 071130Z 0712/0812 15015KT 9999 FEW040"
    },
    {
      "icao": "LEAL",
      "alert": "OK",
      "vis_m": 9999,
      "fzfg": false,
      "metar_trigger": false,
      "taf_trigger": false,
      "metar": "METAR LEAL 071430Z 28011KT 240V300 CAVOK 14/M02 Q1021 NOSIG",
      "taf": "TAF LEAL 071100Z 0712/0812 29012KT CAVOK TX13/0714Z TN07/0806Z"
    },
    {
      "icao": "LEBB",
      "alert": "OK",
      "vis_m": 9999,
      "fzfg": false,
      "metar_trigger": false,
      "taf_trigger": false,
      "metar": "METAR LEBB 071430Z VRB02KT 9999 -RA FEW005 BKN018 08/07 Q1020 RERA TEMPO 3000 RA",
      "taf": "TAF LEBB 071100Z 0712/0812 22005KT 9999 SCT020 BKN030 TX11/0714Z TN08/0806Z"
    },
    {
      "icao": "LEBL",
      "alert": "OK",
      "vis_m": 9999,
      "fzfg": false,
      "metar_trigger": false,
      "taf_trigger": false,
      "metar": "METAR LEBL 071430Z 24005KT 200V310 CAVOK 09/M01 Q1017 NOSIG",
      "taf": ""
    },
    {
      "icao": "LECH",
      "alert": "OK",
      "vis_m": 9999,
      "fzfg": false,
      "metar_trigger": false,
      "taf_trigger": false,
      "metar": "METAR LECH 071430Z AUTO 03003KT CAVOK 11/M05 Q1018",
      "taf": ""
    },
    {
      "icao": "LEMD",
      "alert": "OK",
      "vis_m": 9999,
      "fzfg": false,
      "metar_trigger": false,
      "taf_trigger": false,
      "metar": "METAR LEMD 071430Z 14002KT 9999 FEW060 08/M00 Q1021 NOSIG",
      "taf": "TAF LEMD 071100Z 0712/0818 25005KT CAVOK TX08/0715Z TNM02/0806Z"
    },
    {
      "icao": "LEMG",
      "alert": "OK",
      "vis_m": 9999,
      "fzfg": false,
      "metar_trigger": false,
      "taf_trigger": false,
      "metar": "METAR LEMG 071430Z 30012KT 260V320 CAVOK 13/M00 Q1025 NOSIG",
      "taf": "TAF LEMG 071100Z 0712/0812 29012KT 9999 FEW040 TX13/0714Z TN06/0806Z"
    },
    {
      "icao": "LEVC",
      "alert": "OK",
      "vis_m": 9999,
      "fzfg": false,
      "metar_trigger": false,
      "taf_trigger": false,
      "metar": "METAR LEVC 071430Z 26015KT CAVOK 13/M02 Q1019 NOSIG",
      "taf": "TAF LEVC 071100Z 0712/0812 25012KT CAVOK TX13/0714Z TN06/0806Z"
    },
    {
      "icao": "LEXJ",
      "alert": "OK",
      "vis_m": 9000,
      "fzfg": false,
      "metar_trigger": false,
      "taf_trigger": false,
      "metar": "METAR LEXJ 071430Z 32019G29KT 290V010 9000 SCT036 BKN043 BKN053 12/07 Q1021",
      "taf": "TAF LEXJ 071400Z 0715/0815 24009KT 9999 BKN020 TX12/0813Z TN08/0802Z"
    },
    {
      "icao": "LEZG",
      "alert": "OK",
      "vis_m": 9999,
      "fzfg": false,
      "metar_trigger": false,
      "taf_trigger": false,
      "metar": "METAR LEZG 071430Z 29011KT 9999 SCT050 BKN060 08/M02 Q1020 NOSIG",
      "taf": "TAF LEZG 071100Z 0712/0812 30007KT 9999 FEW030 TX08/0715Z TN05/0806Z"
    },
    {
      "icao": "LEZL",
      "alert": "OK",
      "vis_m": 9999,
      "fzfg": false,
      "metar_trigger": false,
      "taf_trigger": false,
      "metar": "METAR LEZL 071430Z VRB01KT 9999 BKN047 10/03 Q1027 NOSIG",
      "taf": "TAF LEZL 071400Z 0715/0815 25004KT 9999 FEW030 TX14/0815Z TN03/0807Z"
    },
    {
      "icao": "LFBD",
      "alert": "OK",
      "vis_m": 9999,
      "fzfg": false,
      "metar_trigger": false,
      "taf_trigger": false,
      "metar": "METAR LFBD 071430Z AUTO VRB02KT 9999 FEW015/// SCT047/// BKN100/// ///TCU 07/06 Q1015",
      "taf": "TAF LFBD 070500Z 0706/0812 19005KT CAVOK TX10/0800Z TNM01/0706Z"
    },
    {
      "icao": "LFLL",
      "alert": "OK",
      "vis_m": 9999,
      "fzfg": false,
      "metar_trigger": false,
      "taf_trigger": false,
      "metar": "METAR LFLL 071430Z 14009KT CAVOK M00/M07 Q1014 NOSIG",
      "taf": "TAF LFLL 071100Z 0712/0818 16005KT CAVOK"
    },
    {
      "icao": "LFLS",
      "alert": "OK",
      "vis_m": 9999,
      "fzfg": false,
      "metar_trigger": false,
      "taf_trigger": false,
      "metar": "METAR LFLS 071430Z AUTO 11004KT 9999 FEW050 OVC060 M01/M07 Q1014 TEMPO 1200 SN BKN009",
      "taf": "TAF LFLS 071400Z 0715/0815 VRB05KT CAVOK"
    },
    {
      "icao": "LFMN",
      "alert": "OK",
      "vis_m": 9999,
      "fzfg": false,
      "metar_trigger": false,
      "taf_trigger": false,
      "metar": "METAR LFMN 071430Z 24015KT 9999 FEW040 10/M02 Q1010 NOSIG",
      "taf": "TAF LFMN 071400Z 0715/0821 24012KT CAVOK"
    },
    {
      "icao": "LFOB",
      "alert": "OK",
      "vis_m": 9999,
      "fzfg": false,
      "metar_trigger": false,
      "taf_trigger": false,
      "metar": "METAR LFOB 071430Z AUTO 23007KT 9999 FEW019 03/01 Q1007 NOSIG",
      "taf": ""
    },
    {
      "icao": "LFPO",
      "alert": "OK",
      "vis_m": 9999,
      "fzfg": false,
      "metar_trigger": false,
      "taf_trigger": false,
      "metar": "METAR LFPO 071430Z AUTO 25008KT 210V270 9999 FEW010 SCT062 01/00 Q1009 NOSIG",
      "taf": "TAF LFPO 071100Z 0712/0818 22012KT 9999 BKN009"
    },
    {
      "icao": "LFSB",
      "alert": "OK",
      "vis_m": 9999,
      "fzfg": false,
      "metar_trigger": false,
      "taf_trigger": false,
      "metar": "METAR LFSB 071430Z AUTO 13008KT CAVOK M01/M07 Q1012 NOSIG",
      "taf": "TAF LFSB 071100Z 0712/0812 16005KT CAVOK"
    },
    {
      "icao": "LGAV",
      "alert": "OK",
      "vis_m": 9999,
      "fzfg": false,
      "metar_trigger": false,
      "taf_trigger": false,
      "metar": "METAR LGAV 071420Z 20019KT 9999 FEW025 19/10 Q1009 NOSIG",
      "taf": "TAF LGAV 071100Z 0712/0812 20015KT 9999 FEW020 SCT030"
    },
    {
      "icao": "LGTS",
      "alert": "OK",
      "vis_m": 9999,
      "fzfg": false,
      "metar_trigger": false,
      "taf_trigger": false,
      "metar": "METAR LGTS 071420Z VRB03KT 9999 FEW025 17/12 Q1006 NOSIG",
      "taf": "TAF LGTS 071100Z 0712/0812 16013KT 9999 SCT025"
    },
    {
      "icao": "LHBP",
      "alert": "OK",
      "vis_m": 9000,
      "fzfg": false,
      "metar_trigger": false,
      "taf_trigger": false,
      "metar": "METAR LHBP 071430Z 31006KT 9000 -SN SCT048 OVC080 M02/M04 Q1011 NOSIG",
      "taf": "TAF LHBP 071115Z 0712/0812 33005KT 9999 BKN040"
    },
    {
      "icao": "LHDC",
      "alert": "OK",
      "vis_m": 9999,
      "fzfg": false,
      "metar_trigger": false,
      "taf_trigger": false,
      "metar": "METAR LHDC 071415Z AUTO 36006KT 330V030 9999 OVC030 M01/M06 Q1011 BECMG 6000 -SN",
      "taf": "TAF LHDC 071415Z 0715/0724 36006KT 9999 OVC025"
    },
    {
      "icao": "LIBD",
      "alert": "OK",
      "vis_m": 8000,
      "fzfg": false,
      "metar_trigger": false,
      "taf_trigger": false,
      "metar": "METAR LIBD 071420Z 28006KT 8000 -RA FEW015 BKN030 07/06 Q1004",
      "taf": "TAF LIBD 071100Z 0712/0812 28012KT 4000 RA BKN020"
    },
    {
      "icao": "LIBG",
      "alert": "OK",
      "vis_m": 7000,
      "fzfg": false,
      "metar_trigger": false,
      "taf_trigger": false,
      "metar": "SPECI LIBG 071429Z 35007KT 7000 RA FEW010 BKN020 10/10 Q1003",
      "taf": "TAF LIBG 071400Z 0715/0724 35012KT 9999 SCT015"
    },
    {
      "icao": "LIBP",
      "alert": "OK",
      "vis_m": 9999,
      "fzfg": false,
      "metar_trigger": false,
      "taf_trigger": false,
      "metar": "METAR LIBP 071420Z AUTO 33007KT 270V350 9999 BKN042/// BKN110/// 06/M00 Q1008",
      "taf": "TAF LIBP 071100Z 0712/0812 30007KT 9999 BKN030"
    },
    {
      "icao": "LIBR",
      "alert": "OK",
      "vis_m": 9000,
      "fzfg": false,
      "metar_trigger": false,
      "taf_trigger": false,
      "metar": "METAR LIBR 071420Z 34007KT 9000 BKN008 OVC030 11/10 Q1003",
      "taf": "TAF LIBR 071100Z 0712/0812 33008KT 6000 RA BKN016"
    },
    {
      "icao": "LICA",
      "alert": "OK",
      "vis_m": 8000,
      "fzfg": false,
      "metar_trigger": false,
      "taf_trigger": false,
      "metar": "METAR LICA 071420Z AUTO 29015KT 8000 RA FEW023/// BKN035/// 11/09 Q1006",
      "taf": "TAF LICA 071100Z 0712/0812 27013KT 9999 RA SCT050"
    },
    {
      "icao": "LICC",
      "alert": "OK",
      "vis_m": 9999,
      "fzfg": false,
      "metar_trigger": false,
      "taf_trigger": false,
      "metar": "METAR LICC 071420Z 25013KT 9999 FEW040 BKN070 14/12 Q1005",
      "taf": "TAF LICC 071100Z 0712/0812 26013KT 9999 SCT050"
    },
    {
      "icao": "LICJ",
      "alert": "OK",
      "vis_m": 9999,
      "fzfg": false,
      "metar_trigger": false,
      "taf_trigger": false,
      "metar": "METAR LICJ 071420Z 27024KT 9999 FEW030 SCT040 13/05 Q1009",
      "taf": "TAF LICJ 071100Z 0712/0812 27018KT 9999 SCT030"
    },
    {
      "icao": "LIMC",
      "alert": "OK",
      "vis_m": 9999,
      "fzfg": false,
      "metar_trigger": false,
      "taf_trigger": false,
      "metar": "METAR LIMC 071420Z 22006KT 190V260 CAVOK 02/M02 Q1010 NOSIG",
      "taf": "TAF LIMC 071100Z 0712/0818 VRB04KT CAVOK"
    },
    {
      "icao": "LIME",
      "alert": "OK",
      "vis_m": 9999,
      "fzfg": false,
      "metar_trigger": false,
      "taf_trigger": false,
      "metar": "METAR LIME 071420Z 23006KT 190V260 CAVOK 03/M03 Q1010 NOSIG",
      "taf": "TAF LIME 071100Z 0712/0812 VRB04KT CAVOK"
    },
    {
      "icao": "LIMF",
      "alert": "OK",
      "vis_m": 9999,
      "fzfg": false,
      "metar_trigger": false,
      "taf_trigger": false,
      "metar": "METAR LIMF 071420Z 19005KT CAVOK 04/M08 Q1010",
      "taf": "TAF LIMF 071100Z 0712/0812 VRB03KT CAVOK"
    },
    {
      "icao": "LIMJ",
      "alert": "OK",
      "vis_m": 9999,
      "fzfg": false,
      "metar_trigger": false,
      "taf_trigger": false,
      "metar": "METAR LIMJ 071420Z VRB04KT CAVOK 08/M14 Q1010",
      "taf": "TAF LIMJ 071100Z 0712/0812 04017KT CAVOK"
    },
    {
      "icao": "LIPE",
      "alert": "OK",
      "vis_m": 9999,
      "fzfg": false,
      "metar_trigger": false,
      "taf_trigger": false,
      "metar": "METAR LIPE 071420Z 28005KT CAVOK 03/M01 Q1011",
      "taf": "TAF LIPE 071100Z 0712/0812 26007KT 9999 BKN030"
    },
    {
      "icao": "LIPH",
      "alert": "OK",
      "vis_m": 9999,
      "fzfg": false,
      "metar_trigger": false,
      "taf_trigger": false,
      "metar": "METAR LIPH 071420Z 20004KT 160V230 CAVOK 06/M08 Q1010",
      "taf": "TAF LIPH 071100Z 0712/0812 VRB05KT CAVOK"
    },
    {
      "icao": "LIPQ",
      "alert": "OK",
      "vis_m": 9999,
      "fzfg": false,
      "metar_trigger": false,
      "taf_trigger": false,
      "metar": "METAR LIPQ 071420Z AUTO 12008KT 9999 NCD 03/M05 Q1010",
      "taf": "TAF LIPQ 071100Z 0712/0812 08006KT 9999 SCT070"
    },
    {
      "icao": "LIPR",
      "alert": "OK",
      "vis_m": 9999,
      "fzfg": false,
      "metar_trigger": false,
      "taf_trigger": false,
      "metar": "METAR LIPR 071420Z 28011KT 9999 BKN030 02/M02 Q1010",
      "taf": "TAF LIPR 071100Z 0712/0812 30012KT 9999 BKN030"
    },
    {
      "icao": "LIPX",
      "alert": "OK",
      "vis_m": 9999,
      "fzfg": false,
      "metar_trigger": false,
      "taf_trigger": false,
      "metar": "METAR LIPX 071420Z 24007KT CAVOK 05/M05 Q1010",
      "taf": "TAF LIPX 071100Z 0712/0812 VRB05KT CAVOK"
    },
    {
      "icao": "LIPY",
      "alert": "OK",
      "vis_m": 9999,
      "fzfg": false,
      "metar_trigger": false,
      "taf_trigger": false,
      "metar": "METAR LIPY 071420Z AUTO 30008KT 9999 -RA OVC034/// 02/M01 Q1009",
      "taf": "TAF LIPY 071100Z 0712/0812 33013KT 9999 BKN020"
    },
    {
      "icao": "LIPZ",
      "alert": "OK",
      "vis_m": 9999,
      "fzfg": false,
      "metar_trigger": false,
      "taf_trigger": false,
      "metar": "METAR LIPZ 071420Z 09006KT CAVOK 05/M07 Q1011 NOSIG",
      "taf": "TAF LIPZ 071100Z 0712/0818 VRB05KT CAVOK"
    },
    {
      "icao": "LIRF",
      "alert": "OK",
      "vis_m": 9999,
      "fzfg": false,
      "metar_trigger": false,
      "taf_trigger": false,
      "metar": "METAR LIRF 071420Z 01006KT 9999 -SHRA SCT030 08/03 Q1006 NOSIG",
      "taf": "TAF LIRF 071100Z 0712/0818 01010KT 9999 FEW040"
    },
    {
      "icao": "LIRN",
      "alert": "OK",
      "vis_m": 9000,
      "fzfg": false,
      "metar_trigger": false,
      "taf_trigger": false,
      "metar": "METAR LIRN 071420Z VRB01KT 9000 SCT030 BKN080 11/05 Q1004 NOSIG",
      "taf": "TAF LIRN 071100Z 0712/0812 28012KT 9999 SCT030"
    },
    {
      "icao": "LIRP",
      "alert": "OK",
      "vis_m": 9999,
      "fzfg": false,
      "metar_trigger": false,
      "taf_trigger": false,
      "metar": "METAR LIRP 071415Z 12009KT CAVOK 06/M05 Q1009 NOSIG",
      "taf": "TAF LIRP 071100Z 0712/0812 12007KT CAVOK"
    },
    {
      "icao": "LIRZ",
      "alert": "OK",
      "vis_m": 9999,
      "fzfg": false,
      "metar_trigger": false,
      "taf_trigger": false,
      "metar": "METAR LIRZ 071420Z AUTO 01011KT 9999 OVC039/// 03/M01 Q1007",
      "taf": "TAF LIRZ 071100Z 0712/0812 01013KT 9999 BKN040"
    },
    {
      "icao": "LJLJ",
      "alert": "OK",
      "vis_m": 8000,
      "fzfg": false,
      "metar_trigger": false,
      "taf_trigger": false,
      "metar": "METAR LJLJ 071430Z 07002KT 8000 -SN FEW006 BKN020 BKN065 M04/M06 Q1011 NOSIG",
      "taf": "TAF LJLJ 071100Z 0712/0812 VRB02KT 9999 FEW005 BKN080"
    },
    {
      "icao": "LKMT",
      "alert": "OK",
      "vis_m": 9999,
      "fzfg": false,
      "metar_trigger": false,
      "taf_trigger": false,
      "metar": "METAR LKMT 071430Z 03009KT 9999 OVC021 M04/M08 Q1014 NOSIG",
      "taf": "TAF LKMT 071100Z 0712/0812 02007KT 9999 BKN030"
    },
    {
      "icao": "LKPR",
      "alert": "OK",
      "vis_m": 9999,
      "fzfg": false,
      "metar_trigger": false,
      "taf_trigger": false,
      "metar": "METAR LKPR 071430Z 20008KT 9999 BKN030 M05/M10 Q1013 NOSIG",
      "taf": "TAF LKPR 071400Z 0715/0821 21006KT 9999 BKN025"
    },
    {
      "icao": "LLBG",
      "alert": "OK",
      "vis_m": 9999,
      "fzfg": false,
      "metar_trigger": false,
      "taf_trigger": false,
      "metar": "METAR LLBG 071420Z 28005KT CAVOK 20/13 Q1020 NOSIG",
      "taf": "TAF LLBG 071102Z 0712/0812 33006KT CAVOK"
    },
    {
      "icao": "LMML",
      "alert": "OK",
      "vis_m": 9999,
      "fzfg": false,
      "metar_trigger": false,
      "taf_trigger": false,
      "metar": "METAR LMML 071445Z 30014KT 9999 VCSH FEW012 BKN030 12/09 Q1009 TEMPO 6000 RA BKN009",
      "taf": "TAF LMML 071100Z 0712/0812 28015KT 9999 SCT018"
    },
    {
      "icao": "LOWW",
      "alert": "OK",
      "vis_m": 9999,
      "fzfg": false,
      "metar_trigger": false,
      "taf_trigger": false,
      "metar": "METAR LOWW 071420Z 36012KT 9999 FEW032 BKN034 M02/M10 Q1014 NOSIG",
      "taf": "TAF LOWW 071415Z 0715/0821 32010KT 9999 FEW040 TXM02/0814Z TNM06/0805Z"
    },
    {
      "icao": "LPFR",
      "alert": "OK",
      "vis_m": 9999,
      "fzfg": false,
      "metar_trigger": false,
      "taf_trigger": false,
      "metar": "METAR LPFR 071430Z 03010KT 9999 FEW003 SCT008 12/11 Q1026",
      "taf": ""
    },
    {
      "icao": "LPMA",
      "alert": "OK",
      "vis_m": 9999,
      "fzfg": false,
      "metar_trigger": false,
      "taf_trigger": false,
      "metar": "METAR LPMA 071430Z 01012KT 330V040 9999 SCT015 17/08 Q1032",
      "taf": "TAF LPMA 071100Z 0712/0812 02012KT 9999 SCT015"
    },
    {
      "icao": "LPPR",
      "alert": "OK",
      "vis_m": 9999,
      "fzfg": false,
      "metar_trigger": false,
      "taf_trigger": false,
      "metar": "METAR LPPR 071430Z 32007KT 280V350 9999 SCT030 13/09 Q1026",
      "taf": "TAF LPPR 071100Z 0712/0812 01005KT 9999 SCT015"
    },
    {
      "icao": "LPPS",
      "alert": "OK",
      "vis_m": 9999,
      "fzfg": false,
      "metar_trigger": false,
      "taf_trigger": false,
      "metar": "METAR LPPS 071430Z 03011KT 350V080 9999 SCT015 16/08 Q1032",
      "taf": "TAF LPPS 071100Z 0712/0818 02012KT 9999 SCT015"
    },
    {
      "icao": "LPPT",
      "alert": "OK",
      "vis_m": 9999,
      "fzfg": false,
      "metar_trigger": false,
      "taf_trigger": false,
      "metar": "METAR LPPT 071430Z 35014KT 9999 FEW025 SCT032 14/07 Q1026",
      "taf": "TAF LPPT 071100Z 0712/0818 34012KT 9999 SCT025"
    },
    {
      "icao": "LQBK",
      "alert": "OK",
      "vis_m": 9999,
      "fzfg": false,
      "metar_trigger": false,
      "taf_trigger": false,
      "metar": "METAR LQBK 071430Z 31004KT 9999 FEW010 BKN035 M03/M04 Q1012 RESN NOSIG",
      "taf": "TAF LQBK 071100Z 0712/0812 35006KT 7000 -SN SCT020 BKN030 TXM02/0713Z TNM07/0805Z"
    },
    {
      "icao": "LQSA",
      "alert": "OK",
      "vis_m": 6000,
      "fzfg": false,
      "metar_trigger": false,
      "taf_trigger": false,
      "metar": "METAR LQSA 071430Z 31004KT 6000 -SN FEW018 SCT025 OVC035 M03/M04 Q1008 NOSIG",
      "taf": "TAF LQSA 071100Z 0712/0812 29005KT 7000 -SN SCT012 OVC030 TXM03/0712Z TNM07/0806Z"
    },
    {
      "icao": "LQTZ",
      "alert": "OK",
      "vis_m": 6000,
      "fzfg": false,
      "metar_trigger": false,
      "taf_trigger": false,
      "metar": "METAR LQTZ 071430Z 30004KT 6000 FEW010 SCT020 OVC035 M03/M04 Q1011",
      "taf": "TAF LQTZ 071100Z 0712/0812 27007KT 9999 SCT010 BKN020 OVC040 TXM01/0812Z TNM05/0805Z"
    },
    {
      "icao": "LRBC",
      "alert": "OK",
      "vis_m": 4000,
      "fzfg": false,
      "metar_trigger": false,
      "taf_trigger": false,
      "metar": "METAR LRBC 071430Z 35009KT 4000 BR OVC004 00/M01 Q1009",
      "taf": "TAF LRBC 071400Z 0715/0724 35008KT 5000 BR OVC004"
    },
    {
      "icao": "LRBS",
      "alert": "OK",
      "vis_m": 800,
      "fzfg": false,
      "metar_trigger": false,
      "taf_trigger": false,
      "metar": "METAR LRBS 071430Z 27003KT 240V300 0800 R07/1500N FG OVC001 04/04 Q1008 BECMG 1500 -RA BR",
      "taf": "TAF LRBS 071100Z 0712/0812 07006KT 0600 FG OVC001"
    },
    {
      "icao": "LRBV",
      "alert": "OK",
      "vis_m": 6000,
      "fzfg": false,
      "metar_trigger": false,
      "taf_trigger": false,
      "metar": "METAR LRBV 071430Z 31010KT 6000 SCT004 OVC011 01/01 Q1006",
      "taf": "TAF LRBV 071400Z 0715/0724 30008KT 9999 BKN035"
    },
    {
      "icao": "LRCL",
      "alert": "OK",
      "vis_m": 9999,
      "fzfg": false,
      "metar_trigger": false,
      "taf_trigger": false,
      "metar": "METAR LRCL 071430Z 01003KT 340V050 9999 BKN011 OVC023 M00/M02 Q1009",
      "taf": "TAF LRCL 071400Z 0715/0724 36009KT 9999 BKN010 BKN035"
    },
    {
      "icao": "LRCV",
      "alert": "OK",
      "vis_m": 3500,
      "fzfg": false,
      "metar_trigger": false,
      "taf_trigger": false,
      "metar": "METAR LRCV 071430Z 00000KT 3500 BR OVC002 03/03 Q1008",
      "taf": "TAF LRCV 071400Z 0715/0724 VRB04KT 3000 -RA BR OVC002"
    },
    {
      "icao": "LRIA",
      "alert": "OK",
      "vis_m": 2000,
      "fzfg": false,
      "metar_trigger": false,
      "taf_trigger": false,
      "metar": "METAR LRIA 071430Z 31007KT 2000 BR OVC001 M00/M00 Q1010",
      "taf": "TAF LRIA 071400Z 0715/0724 30006KT 3000 BR VV001"
    },
    {
      "icao": "LROP",
      "alert": "OK",
      "vis_m": 1300,
      "fzfg": false,
      "metar_trigger": false,
      "taf_trigger": false,
      "metar": "METAR LROP 071430Z VRB03KT 1300 R08R/1900U R08L/1300D BR BKN001 OVC002 05/05 Q1008 BECMG 3000",
      "taf": "TAF LROP 071100Z 0712/0812 07006KT 0600 FG OVC001"
    },
    {
      "icao": "LRSB",
      "alert": "OK",
      "vis_m": 9999,
      "fzfg": false,
      "metar_trigger": false,
      "taf_trigger": false,
      "metar": "METAR LRSB 071430Z 36005KT 9999 FEW013 OVC019 01/M01 Q1007",
      "taf": "TAF LRSB 071100Z 0712/0812 VRB04KT 9999 BKN010 OVC020"
    },
    {
      "icao": "LRSM",
      "alert": "OK",
      "vis_m": 7000,
      "fzfg": false,
      "metar_trigger": false,
      "taf_trigger": false,
      "metar": "METAR LRSM 071430Z VRB02KT 7000 FEW004 OVC007 M02/M03 Q1010",
      "taf": "TAF LRSM 071400Z 0715/0724 VRB04KT 9999 BKN010 OVC030"
    },
    {
      "icao": "LRSV",
      "alert": "OK",
      "vis_m": 6000,
      "fzfg": false,
      "metar_trigger": false,
      "taf_trigger": false,
      "metar": "METAR LRSV 071430Z 33009KT 6000 SCT007 OVC020 M02/M03 Q1009",
      "taf": "TAF LRSV 071400Z 0715/0724 34010KT 5000 BR OVC020"
    },
    {
      "icao": "LRTM",
      "alert": "OK",
      "vis_m": 9999,
      "fzfg": false,
      "metar_trigger": false,
      "taf_trigger": false,
      "metar": "METAR LRTM 071430Z 29003KT 250V320 9999 FEW007 SCT009 BKN013 01/M00 Q1008",
      "taf": "TAF LRTM 071400Z 0715/0724 VRB04KT 9999 BKN010 BKN035"
    },
    {
      "icao": "LRTR",
      "alert": "OK",
      "vis_m": 3000,
      "fzfg": false,
      "metar_trigger": false,
      "taf_trigger": false,
      "metar": "METAR LRTR 071430Z 30005KT 3000 -SN BR FEW003 BKN006 OVC011 M02/M02 Q1011",
      "taf": "TAF LRTR 071100Z 0712/0812 VRB04KT 3000 BR BKN005 OVC015"
    },
    {
      "icao": "LTAC",
      "alert": "OK",
      "vis_m": 9999,
      "fzfg": false,
      "metar_trigger": false,
      "taf_trigger": false,
      "metar": "METAR LTAC 071420Z 06003KT 020V100 9999 FEW040 SCT100 10/03 Q1018 NOSIG RMK RWY21C 05004KT RWY03L 04005KT RWY21R 04004KT 010V070 RWY03R VRB02KT RWY21L 04004KT",
      "taf": "TAF LTAC 071040Z 0712/0812 VRB02KT 9999 SCT040 SCT100"
    },
    {
      "icao": "LTFM",
      "alert": "OK",
      "vis_m": 9999,
      "fzfg": false,
      "metar_trigger": false,
      "taf_trigger": false,
      "metar": "METAR LTFM 071420Z 21016KT 9999 -SHRA SCT040 BKN080 17/09 Q1010 NOSIG RMK RWY17L 21016KT RWY34L 19013KT RWY16R 20013KT RWY36 21017KT RWY18 22018KT",
      "taf": "TAF LTFM 071040Z 0712/0818 20015G25KT 9999 SCT040 BKN080"
    },
    {
      "icao": "LUKK",
      "alert": "OK",
      "vis_m": 9000,
      "fzfg": false,
      "metar_trigger": false,
      "taf_trigger": false,
      "metar": "METAR LUKK 071430Z 36008KT 9000 BKN005 OVC009 02/02 Q1008 NOSIG",
      "taf": "TAF LUKK 071114Z 0712/0812 35006KT 0800 -DZ FG VV002"
    },
    {
      "icao": "LWOH",
      "alert": "OK",
      "vis_m": null,
      "fzfg": false,
      "metar_trigger": false,
      "taf_trigger": false,
      "metar": "",
      "taf": "TAF LWOH 071420Z 0715/0815 VRB02KT 9999 RA SCT010 OVC040"
    },
    {
      "icao": "LWSK",
      "alert": "OK",
      "vis_m": null,
      "fzfg": false,
      "metar_trigger": false,
      "taf_trigger": false,
      "metar": "",
      "taf": "TAF LWSK 071420Z 0715/0815 VRB02KT 6000 RA FEW015 SCT040 BKN070"
    },
    {
      "icao": "LYBE",
      "alert": "OK",
      "vis_m": 1200,
      "fzfg": false,
      "metar_trigger": false,
      "taf_trigger": false,
      "metar": "METAR LYBE 071430Z 31005KT 1200 R12L/1500N R30R/1400U SN BKN004 OVC027 M03/M03 Q1011 NOSIG",
      "taf": "TAF LYBE 071100Z 0712/0812 27008KT 7000 BKN007 BKN035 TXM01/0713Z TNM04/0806Z"
    },
    {
      "icao": "LYNI",
      "alert": "OK",
      "vis_m": 9999,
      "fzfg": false,
      "metar_trigger": false,
      "taf_trigger": false,
      "metar": "METAR LYNI 071430Z 34011KT 310V010 9999 SCT013 OVC020 M02/M04 Q1009 NOSIG",
      "taf": "TAF LYNI 071100Z 0712/0812 34014KT 9999 SCT008 BKN012 BKN030 TXM01/0712Z TNM04/0806Z"
    },
    {
      "icao": "LYPG",
      "alert": "OK",
      "vis_m": 8000,
      "fzfg": false,
      "metar_trigger": false,
      "taf_trigger": false,
      "metar": "METAR LYPG 071430Z 33009KT 300V010 8000 -RA FEW010 SCT030 OVC070 11/08 Q1003 RERA NOSIG",
      "taf": "TAF LYPG 071100Z 0712/0812 15007KT 9999 FEW020 BKN034 OVC070 TX13/0712Z TN03/0806Z"
    },
    {
      "icao": "LZIB",
      "alert": "OK",
      "vis_m": 9999,
      "fzfg": false,
      "metar_trigger": false,
      "taf_trigger": false,
      "metar": "METAR LZIB 071430Z 33014KT 9999 FEW030 M02/M08 Q1013 NOSIG",
      "taf": "TAF LZIB 071115Z 0712/0812 33009KT 9999 FEW035"
    },
    {
      "icao": "LZKZ",
      "alert": "OK",
      "vis_m": 9999,
      "fzfg": false,
      "metar_trigger": false,
      "taf_trigger": false,
      "metar": "METAR LZKZ 071430Z 36018KT 9999 OVC046 M03/M07 Q1011 NOSIG",
      "taf": ""
    },
    {
      "icao": "LZTT",
      "alert": "OK",
      "vis_m": 9999,
      "fzfg": false,
      "metar_trigger": false,
      "taf_trigger": false,
      "metar": "METAR LZTT 071430Z 09010KT 9999 FEW016 BKN046 M07/M10 Q1009 NOSIG",
      "taf": ""
    },
    {
      "icao": "OEJN",
      "alert": "OK",
      "vis_m": 8000,
      "fzfg": false,
      "metar_trigger": false,
      "taf_trigger": false,
      "metar": "METAR OEJN 071400Z 25009KT 8000 NSC 28/18 Q1015 NOSIG",
      "taf": "TAF OEJN 071100Z 0712/0818 26010KT 7000 FEW040"
    },
    {
      "icao": "OEMA",
      "alert": "OK",
      "vis_m": 9999,
      "fzfg": false,
      "metar_trigger": false,
      "taf_trigger": false,
      "metar": "METAR OEMA 071400Z 10005KT CAVOK 27/00 Q1022 NOSIG",
      "taf": "TAF OEMA 071100Z 0712/0818 10010KT 8000 NSC"
    },
    {
      "icao": "OJAI",
      "alert": "OK",
      "vis_m": 5000,
      "fzfg": false,
      "metar_trigger": false,
      "taf_trigger": false,
      "metar": "METAR OJAI 071400Z 08006KT 5000 HZ NSC 17/05 Q1024 NOSIG",
      "taf": "TAF OJAI 071100Z 0712/0818 07010KT 5000 HZ NSC"
    },
    {
      "icao": "OMAA",
      "alert": "OK",
      "vis_m": 9999,
      "fzfg": false,
      "metar_trigger": false,
      "taf_trigger": false,
      "metar": "METAR OMAA 071400Z 31011KT CAVOK 22/13 Q1020 NOSIG",
      "taf": "TAF OMAA 071100Z 0712/0818 34011KT 9999 FEW040"
    },
    {
      "icao": "OMDB",
      "alert": "OK",
      "vis_m": 9999,
      "fzfg": false,
      "metar_trigger": false,
      "taf_trigger": false,
      "metar": "METAR OMDB 071430Z 34008KT 310V010 CAVOK 23/10 Q1020 NOSIG",
      "taf": "TAF OMDB 071100Z 0712/0818 34010KT 8000 FEW045"
    },
    {
      "icao": "UAAA",
      "alert": "OK",
      "vis_m": 500,
      "fzfg": true,
      "metar_trigger": false,
      "taf_trigger": false,
      "metar": "SPECI UAAA 071434Z VRB01MPS 0500 R23L/1500 FZFG VV002 M04/M05 Q1032 NOSIG RMK QBB070",
      "taf": "TAF UAAA 071102Z 0712/0812 VRB01MPS 0600 FZFG VV003 TXM01/0809Z TNM05/0801Z"
    },
    {
      "icao": "UBBB",
      "alert": "OK",
      "vis_m": 100,
      "fzfg": false,
      "metar_trigger": false,
      "taf_trigger": false,
      "metar": "METAR UBBB 071430Z 16004KT 0100 R34/0300 R35/0300 FG VV001 06/06 Q1021 NOSIG",
      "taf": ""
    },
    {
      "icao": "UDSG",
      "alert": "OK",
      "vis_m": 4500,
      "fzfg": false,
      "metar_trigger": false,
      "taf_trigger": false,
      "metar": "METAR UDSG 071430Z 27001KT 4500 BR FEW049 M10/M12 Q1025 NOSIG",
      "taf": "TAF UDSG 071058Z 0712/0812 VRB06KT 5000 BR FEW040"
    },
    {
      "icao": "UDYZ",
      "alert": "OK",
      "vis_m": 3300,
      "fzfg": false,
      "metar_trigger": false,
      "taf_trigger": false,
      "metar": "METAR UDYZ 071430Z 34003KT 3300 BR NSC M05/M09 Q1028 NOSIG",
      "taf": "TAF UDYZ 071100Z 0712/0812 22006KT 2300 BR NSC"
    },
    {
      "icao": "UGKO",
      "alert": "OK",
      "vis_m": 9999,
      "fzfg": false,
      "metar_trigger": false,
      "taf_trigger": false,
      "metar": "METAR UGKO 071430Z 08005KT CAVOK 10/M02 Q1017 NOSIG",
      "taf": "TAF UGKO 071100Z 0712/0812 09010KT CAVOK TX18/0812Z TN06/0722Z"
    }
  ]
}