{
  "ts_utc": "2026-07-02T20:13:29Z",
  "threshold_m": 150,
  "source": "stations_override.txt (ICAO list) + aviationweather.gov (METAR/TAF raw)",
  "station_count": 159,
  "stations": [
    {
      "icao": "BIKF",
      "alert": "OK",
      "vis_m": 9999,
      "fzfg": false,
      "metar_trigger": false,
      "taf_trigger": false,
      "metar": "METAR BIKF 022000Z 25013KT 9999 SCT023TCU SCT038 BKN130 10/05 Q1002",
      "taf": "TAF BIKF 021952Z 0221/0321 23018KT 9999 FEW025 SCT045 TX12/0314Z TN07/0302Z"
    },
    {
      "icao": "BKPR",
      "alert": "OK",
      "vis_m": 9999,
      "fzfg": false,
      "metar_trigger": false,
      "taf_trigger": false,
      "metar": "METAR BKPR 022000Z 28005KT 9999 BKN065 20/19 Q1016 NOSIG",
      "taf": "TAF BKPR 021730Z 0218/0318 36008KT 9999 FEW040 SCT080"
    },
    {
      "icao": "EBCI",
      "alert": "OK",
      "vis_m": 9999,
      "fzfg": false,
      "metar_trigger": false,
      "taf_trigger": false,
      "metar": "METAR EBCI 021950Z 36007KT 9999 FEW045 20/14 Q1024 NOSIG",
      "taf": "TAF EBCI 021707Z 0218/0324 33006KT 9999 FEW035"
    },
    {
      "icao": "EDDB",
      "alert": "OK",
      "vis_m": 9999,
      "fzfg": false,
      "metar_trigger": false,
      "taf_trigger": false,
      "metar": "METAR EDDB 021950Z AUTO 27010KT 240V320 9999 SCT026 BKN042 20/16 Q1016 NOSIG",
      "taf": "TAF EDDB 021700Z 0218/0318 29015G25KT 9999 BKN030"
    },
    {
      "icao": "EDDH",
      "alert": "OK",
      "vis_m": 9999,
      "fzfg": false,
      "metar_trigger": false,
      "taf_trigger": false,
      "metar": "METAR EDDH 021950Z AUTO 29014KT 260V320 9999 SCT024 BKN030 BKN039 17/12 Q1017 TEMPO 28015G25KT",
      "taf": "TAF EDDH 021700Z 0218/0324 28010KT 9999 SCT025"
    },
    {
      "icao": "EDDK",
      "alert": "OK",
      "vis_m": 9999,
      "fzfg": false,
      "metar_trigger": false,
      "taf_trigger": false,
      "metar": "METAR EDDK 021950Z AUTO 33012KT 9999 FEW039 18/11 Q1023 BECMG 31005KT",
      "taf": "TAF EDDK 021700Z 0218/0324 31010KT CAVOK"
    },
    {
      "icao": "EDDN",
      "alert": "OK",
      "vis_m": 9999,
      "fzfg": false,
      "metar_trigger": false,
      "taf_trigger": false,
      "metar": "METAR EDDN 021950Z AUTO 26005KT CAVOK 24/12 Q1019 NOSIG",
      "taf": "TAF EDDN 021700Z 0218/0318 28006KT CAVOK"
    },
    {
      "icao": "EDDS",
      "alert": "OK",
      "vis_m": 9999,
      "fzfg": false,
      "metar_trigger": false,
      "taf_trigger": false,
      "metar": "METAR EDDS 021950Z AUTO 29007KT CAVOK 24/11 Q1021 NOSIG",
      "taf": "TAF EDDS 021700Z 0218/0318 31007KT CAVOK"
    },
    {
      "icao": "EDFH",
      "alert": "OK",
      "vis_m": 9999,
      "fzfg": false,
      "metar_trigger": false,
      "taf_trigger": false,
      "metar": "METAR EDFH 021950Z 31009KT 9999 FEW022 18/13 Q1023",
      "taf": "TAF EDFH 021700Z 0218/0318 30012KT 9999 BKN035"
    },
    {
      "icao": "EDJA",
      "alert": "OK",
      "vis_m": 9999,
      "fzfg": false,
      "metar_trigger": false,
      "taf_trigger": false,
      "metar": "METAR EDJA 021950Z 22006KT CAVOK 19/11 Q1022",
      "taf": "TAF EDJA 021700Z 0218/0303 23006KT CAVOK"
    },
    {
      "icao": "EDLW",
      "alert": "OK",
      "vis_m": 9999,
      "fzfg": false,
      "metar_trigger": false,
      "taf_trigger": false,
      "metar": "METAR EDLW 021950Z 28005KT 230V340 CAVOK 17/10 Q1022",
      "taf": "TAF EDLW 021700Z 0218/0318 28007KT CAVOK"
    },
    {
      "icao": "EDNY",
      "alert": "OK",
      "vis_m": 9999,
      "fzfg": false,
      "metar_trigger": false,
      "taf_trigger": false,
      "metar": "METAR EDNY 021950Z 26004KT 230V290 CAVOK 23/11 Q1022",
      "taf": "TAF EDNY 021700Z 0218/0303 23006KT CAVOK"
    },
    {
      "icao": "EDSB",
      "alert": "OK",
      "vis_m": 9999,
      "fzfg": false,
      "metar_trigger": false,
      "taf_trigger": false,
      "metar": "METAR EDSB 021950Z 30004KT 210V340 CAVOK 25/14 Q1021",
      "taf": "TAF EDSB 021700Z 0218/0318 29005KT CAVOK"
    },
    {
      "icao": "EETN",
      "alert": "OK",
      "vis_m": 9999,
      "fzfg": false,
      "metar_trigger": false,
      "taf_trigger": false,
      "metar": "METAR EETN 021950Z 25005KT 9999 FEW012 17/16 Q1008 TEMPO BKN009",
      "taf": "TAF EETN 021730Z 0218/0318 VRB02KT 9999 SCT030"
    },
    {
      "icao": "EFTU",
      "alert": "OK",
      "vis_m": 9999,
      "fzfg": false,
      "metar_trigger": false,
      "taf_trigger": false,
      "metar": "METAR EFTU 021950Z AUTO 24004KT CAVOK 18/14 Q1007",
      "taf": "TAF EFTU 021727Z 0218/0318 17005KT 9999 FEW030"
    },
    {
      "icao": "EGBB",
      "alert": "OK",
      "vis_m": 9999,
      "fzfg": false,
      "metar_trigger": false,
      "taf_trigger": false,
      "metar": "METAR EGBB 021950Z 32011KT CAVOK 17/07 Q1027",
      "taf": "TAF EGBB 021655Z 0218/0318 32012KT 9999 FEW040"
    },
    {
      "icao": "EGGP",
      "alert": "OK",
      "vis_m": 9999,
      "fzfg": false,
      "metar_trigger": false,
      "taf_trigger": false,
      "metar": "METAR EGGP 021950Z 29010KT 9999 FEW027 16/10 Q1027",
      "taf": "TAF EGGP 021657Z 0218/0318 28011KT 9999 FEW025"
    },
    {
      "icao": "EGGW",
      "alert": "OK",
      "vis_m": 9999,
      "fzfg": false,
      "metar_trigger": false,
      "taf_trigger": false,
      "metar": "METAR EGGW 021950Z AUTO 36010KT 310V010 9999 NCD 17/08 Q1026",
      "taf": "TAF EGGW 021654Z 0218/0318 33013KT CAVOK"
    },
    {
      "icao": "EGKK",
      "alert": "OK",
      "vis_m": 9999,
      "fzfg": false,
      "metar_trigger": false,
      "taf_trigger": false,
      "metar": "METAR EGKK 021950Z 34009KT CAVOK 23/08 Q1025",
      "taf": "TAF EGKK 021651Z 0218/0324 32012KT 9999 FEW045"
    },
    {
      "icao": "EGNM",
      "alert": "OK",
      "vis_m": 9999,
      "fzfg": false,
      "metar_trigger": false,
      "taf_trigger": false,
      "metar": "METAR EGNM 021950Z 28018KT 9999 FEW034 14/07 Q1025",
      "taf": "TAF EGNM 021656Z 0218/0318 27012KT 9999 FEW030"
    },
    {
      "icao": "EGPD",
      "alert": "OK",
      "vis_m": 9999,
      "fzfg": false,
      "metar_trigger": false,
      "taf_trigger": false,
      "metar": "METAR EGPD 021950Z AUTO 30011KT 9999 FEW046 15/06 Q1020",
      "taf": "TAF EGPD 021654Z 0218/0318 29015G25KT 9999 SCT030"
    },
    {
      "icao": "EGPF",
      "alert": "OK",
      "vis_m": 9999,
      "fzfg": false,
      "metar_trigger": false,
      "taf_trigger": false,
      "metar": "METAR EGPF 021950Z AUTO 27011KT 9999 BKN036 14/08 Q1025",
      "taf": "TAF EGPF 021646Z 0218/0318 27020G32KT 9999 BKN045"
    },
    {
      "icao": "EHBK",
      "alert": "OK",
      "vis_m": 9999,
      "fzfg": false,
      "metar_trigger": false,
      "taf_trigger": false,
      "metar": "METAR EHBK 021955Z AUTO 36005KT 320V050 9999 NCD 18/11 Q1023 NOSIG",
      "taf": "TAF EHBK 021704Z 0218/0324 33006KT 9999 SCT022"
    },
    {
      "icao": "EHEH",
      "alert": "OK",
      "vis_m": 9999,
      "fzfg": false,
      "metar_trigger": false,
      "taf_trigger": false,
      "metar": "METAR EHEH 021955Z AUTO VRB02KT 9999 NCD 17/10 Q1024 BLU NOSIG RMK TREND REMOTE BY EHWX",
      "taf": "TAF EHEH 021723Z 0218/0324 33008G18KT 9999 FEW038"
    },
    {
      "icao": "EKBI",
      "alert": "OK",
      "vis_m": 9999,
      "fzfg": false,
      "metar_trigger": false,
      "taf_trigger": false,
      "metar": "METAR EKBI 021950Z 27017KT 9999 -SHRA BKN019 BKN020CB 14/12 Q1012",
      "taf": "TAF EKBI 021727Z 0218/0318 28016KT 9999 BKN020"
    },
    {
      "icao": "EKCH",
      "alert": "OK",
      "vis_m": 9999,
      "fzfg": false,
      "metar_trigger": false,
      "taf_trigger": false,
      "metar": "METAR EKCH 021950Z AUTO 26016KT 9999 -RA BKN023/// BKN079/// 17/13 Q1010 TEMPO 24016G28KT BKN018TCU",
      "taf": "TAF EKCH 021727Z 0218/0318 26016KT 9999 SCT025"
    },
    {
      "icao": "ENAL",
      "alert": "OK",
      "vis_m": 9999,
      "fzfg": false,
      "metar_trigger": false,
      "taf_trigger": false,
      "metar": "METAR ENAL 021950Z 28004KT 9999 -RA FEW062 14/13 Q1003",
      "taf": "TAF ENAL 021700Z 0218/0303 34005KT 9999 FEW004 SCT040"
    },
    {
      "icao": "ENBR",
      "alert": "OK",
      "vis_m": 2500,
      "fzfg": false,
      "metar_trigger": false,
      "taf_trigger": false,
      "metar": "METAR ENBR 021950Z 29003KT 210V330 2500 SHRA SCT003 BKN005 13/13 Q1003 RMK WIND 1200FT 30010KT",
      "taf": ""
    },
    {
      "icao": "ENGM",
      "alert": "OK",
      "vis_m": 4000,
      "fzfg": false,
      "metar_trigger": false,
      "taf_trigger": false,
      "metar": "METAR ENGM 021950Z 06007KT 4000 -RA BKN005 13/12 Q1001 TEMPO 6000",
      "taf": ""
    },
    {
      "icao": "ENHD",
      "alert": "OK",
      "vis_m": 9999,
      "fzfg": false,
      "metar_trigger": false,
      "taf_trigger": false,
      "metar": "METAR ENHD 021950Z 30016KT 9999 -RA FEW006 SCT009 BKN015 14/12 Q1004",
      "taf": "TAF ENHD 021400Z 0215/0222 30015KT 9999 -RA FEW008 BKN015"
    },
    {
      "icao": "ENTC",
      "alert": "OK",
      "vis_m": 9999,
      "fzfg": false,
      "metar_trigger": false,
      "taf_trigger": false,
      "metar": "METAR ENTC 021950Z 03009KT CAVOK 11/05 Q1009 NOSIG RMK WIND 2600FT VRB02KT",
      "taf": "TAF ENTC 021700Z 0218/0318 02009KT CAVOK"
    },
    {
      "icao": "ENTO",
      "alert": "OK",
      "vis_m": 9999,
      "fzfg": false,
      "metar_trigger": false,
      "taf_trigger": false,
      "metar": "METAR ENTO 021950Z 26003KT 220V300 9999 SCT008 16/16 Q1000 TEMPO SHRA BKN014 SCT020CB",
      "taf": "TAF ENTO 021700Z 0218/0318 24005KT 9999 -SHRA FEW010 BKN030"
    },
    {
      "icao": "ENVA",
      "alert": "OK",
      "vis_m": 9999,
      "fzfg": false,
      "metar_trigger": false,
      "taf_trigger": false,
      "metar": "METAR ENVA 021950Z 09006KT 060V140 CAVOK 18/09 Q1003 RMK WIND 670FT 14010KT",
      "taf": ""
    },
    {
      "icao": "ENZV",
      "alert": "OK",
      "vis_m": 9999,
      "fzfg": false,
      "metar_trigger": false,
      "taf_trigger": false,
      "metar": "METAR ENZV 021950Z 30014KT 9999 FEW008 SCT011 BKN031 15/13 Q1004",
      "taf": "TAF ENZV 021700Z 0218/0318 28015KT 9999 -SHRA FEW008 BKN018"
    },
    {
      "icao": "EPGD",
      "alert": "OK",
      "vis_m": 9999,
      "fzfg": false,
      "metar_trigger": false,
      "taf_trigger": false,
      "metar": "METAR EPGD 022000Z 15003KT 140V220 9999 -SHRA FEW013TCU SCT044 18/15 Q1013",
      "taf": "TAF EPGD 021730Z 0218/0318 08010KT CAVOK"
    },
    {
      "icao": "EPKK",
      "alert": "OK",
      "vis_m": 9999,
      "fzfg": false,
      "metar_trigger": false,
      "taf_trigger": false,
      "metar": "METAR EPKK 022000Z 28002KT 9999 FEW063 19/13 Q1017",
      "taf": "TAF EPKK 021730Z 0218/0318 30004KT CAVOK"
    },
    {
      "icao": "EPKT",
      "alert": "OK",
      "vis_m": 9999,
      "fzfg": false,
      "metar_trigger": false,
      "taf_trigger": false,
      "metar": "METAR EPKT 022000Z 30001KT CAVOK 16/13 Q1017",
      "taf": "TAF EPKT 021730Z 0218/0318 VRB02KT CAVOK"
    },
    {
      "icao": "EPLB",
      "alert": "OK",
      "vis_m": 9999,
      "fzfg": false,
      "metar_trigger": false,
      "taf_trigger": false,
      "metar": "METAR EPLB 022000Z 29001KT CAVOK 16/13 Q1015",
      "taf": "TAF EPLB 021730Z 0218/0318 VRB02KT CAVOK"
    },
    {
      "icao": "EPMO",
      "alert": "OK",
      "vis_m": 9999,
      "fzfg": false,
      "metar_trigger": false,
      "taf_trigger": false,
      "metar": "METAR EPMO 022000Z 24005KT CAVOK 21/12 Q1014",
      "taf": "TAF EPMO 021730Z 0218/0318 31010KT CAVOK"
    },
    {
      "icao": "EPPO",
      "alert": "OK",
      "vis_m": 9999,
      "fzfg": false,
      "metar_trigger": false,
      "taf_trigger": false,
      "metar": "METAR EPPO 022000Z 20005KT CAVOK 22/14 Q1014",
      "taf": "TAF EPPO 021730Z 0218/0318 26010KT CAVOK"
    },
    {
      "icao": "EPRA",
      "alert": "OK",
      "vis_m": 9999,
      "fzfg": false,
      "metar_trigger": false,
      "taf_trigger": false,
      "metar": "METAR EPRA 022000Z 22002KT CAVOK 22/14 Q1015",
      "taf": "TAF EPRA 021730Z 0218/0303 30005KT CAVOK"
    },
    {
      "icao": "EPRZ",
      "alert": "OK",
      "vis_m": 9999,
      "fzfg": false,
      "metar_trigger": false,
      "taf_trigger": false,
      "metar": "METAR EPRZ 022000Z 26002KT CAVOK 19/11 Q1016",
      "taf": "TAF EPRZ 021730Z 0218/0318 32007KT CAVOK"
    },
    {
      "icao": "EPSC",
      "alert": "OK",
      "vis_m": 9999,
      "fzfg": false,
      "metar_trigger": false,
      "taf_trigger": false,
      "metar": "METAR EPSC 022000Z 25004KT 220V280 9999 FEW011 BKN023 BKN026 18/17 Q1014",
      "taf": "TAF EPSC 021730Z 0218/0318 24010KT 9999 SCT042"
    },
    {
      "icao": "EPSY",
      "alert": "OK",
      "vis_m": 9999,
      "fzfg": false,
      "metar_trigger": false,
      "taf_trigger": false,
      "metar": "METAR EPSY 022000Z 20003KT CAVOK 17/14 Q1014",
      "taf": "TAF EPSY 021730Z 0218/0303 28006KT CAVOK"
    },
    {
      "icao": "EPWA",
      "alert": "OK",
      "vis_m": 9999,
      "fzfg": false,
      "metar_trigger": false,
      "taf_trigger": false,
      "metar": "METAR EPWA 022000Z 25005KT CAVOK 21/12 Q1015 NOSIG",
      "taf": "TAF EPWA 021730Z 0218/0318 31010KT CAVOK"
    },
    {
      "icao": "EPWR",
      "alert": "OK",
      "vis_m": 9999,
      "fzfg": false,
      "metar_trigger": false,
      "taf_trigger": false,
      "metar": "METAR EPWR 022000Z 24005KT CAVOK 21/12 Q1016",
      "taf": "TAF EPWR 021730Z 0218/0318 28011KT CAVOK"
    },
    {
      "icao": "ESGG",
      "alert": "OK",
      "vis_m": 9999,
      "fzfg": false,
      "metar_trigger": false,
      "taf_trigger": false,
      "metar": "METAR ESGG 021950Z 24009KT 9999 BKN020 14/13 Q1003",
      "taf": "TAF ESGG 021730Z 0218/0318 24012KT 9999 SCT010 BKN020"
    },
    {
      "icao": "ESKN",
      "alert": "OK",
      "vis_m": 6000,
      "fzfg": false,
      "metar_trigger": false,
      "taf_trigger": false,
      "metar": "METAR ESKN 021950Z 17007KT 6000 -RA FEW021 SCT061CB BKN077 14/14 Q1005",
      "taf": "TAF ESKN 021730Z 0218/0318 18005KT 9999 -RA BKN045"
    },
    {
      "icao": "ESMS",
      "alert": "OK",
      "vis_m": 9999,
      "fzfg": false,
      "metar_trigger": false,
      "taf_trigger": false,
      "metar": "METAR ESMS 021950Z 25012KT CAVOK 17/14 Q1009",
      "taf": "TAF ESMS 021727Z 0218/0318 25013KT 9999 BKN025"
    },
    {
      "icao": "ESSA",
      "alert": "OK",
      "vis_m": 9999,
      "fzfg": false,
      "metar_trigger": false,
      "taf_trigger": false,
      "metar": "METAR ESSA 021950Z 13004KT CAVOK 17/09 Q1004 NOSIG",
      "taf": ""
    },
    {
      "icao": "EYKA",
      "alert": "OK",
      "vis_m": 9000,
      "fzfg": false,
      "metar_trigger": false,
      "taf_trigger": false,
      "metar": "METAR EYKA 021950Z 28002KT 9000 NSC 18/14 Q1013",
      "taf": "TAF EYKA 021700Z 0218/0318 VRB03KT 9000 NSC"
    },
    {
      "icao": "EYPA",
      "alert": "OK",
      "vis_m": 9999,
      "fzfg": false,
      "metar_trigger": false,
      "taf_trigger": false,
      "metar": "METAR EYPA 021950Z 21004KT 180V240 CAVOK 19/15 Q1011",
      "taf": "TAF EYPA 021700Z 0218/0318 VRB03KT 9000 BKN020"
    },
    {
      "icao": "EYVI",
      "alert": "OK",
      "vis_m": 9999,
      "fzfg": false,
      "metar_trigger": false,
      "taf_trigger": false,
      "metar": "METAR EYVI 021950Z 19003KT CAVOK 15/14 Q1013 NOSIG",
      "taf": "TAF EYVI 021700Z 0218/0318 VRB03KT 9000 NSC"
    },
    {
      "icao": "GCFV",
      "alert": "OK",
      "vis_m": 9999,
      "fzfg": false,
      "metar_trigger": false,
      "taf_trigger": false,
      "metar": "METAR GCFV 022000Z 30012KT 9999 FEW018 24/19 Q1013",
      "taf": ""
    },
    {
      "icao": "GCLP",
      "alert": "OK",
      "vis_m": 9999,
      "fzfg": false,
      "metar_trigger": false,
      "taf_trigger": false,
      "metar": "METAR GCLP 022000Z 01015KT 9999 FEW020 SCT030 23/19 Q1014 NOSIG",
      "taf": "TAF GCLP 021400Z 0215/0315 36022KT 9999 FEW020 TX26/0314Z TN20/0306Z"
    },
    {
      "icao": "GCTS",
      "alert": "OK",
      "vis_m": 9999,
      "fzfg": false,
      "metar_trigger": false,
      "taf_trigger": false,
      "metar": "METAR GCTS 022000Z 21005KT 160V250 9999 BKN028 23/19 Q1015 NOSIG",
      "taf": ""
    },
    {
      "icao": "GMAD",
      "alert": "OK",
      "vis_m": 6000,
      "fzfg": false,
      "metar_trigger": false,
      "taf_trigger": false,
      "metar": "METAR GMAD 022000Z 05003KT 6000 FEW013 BKN100 25/18 Q1012 NOSIG",
      "taf": "TAF GMAD 021700Z 0218/0324 22010KT 8000 SCT013 BKN080"
    },
    {
      "icao": "GMMN",
      "alert": "OK",
      "vis_m": 9999,
      "fzfg": false,
      "metar_trigger": false,
      "taf_trigger": false,
      "metar": "METAR GMMN 022000Z 33003KT CAVOK 31/17 Q1013 NOSIG",
      "taf": "TAF GMMN 021700Z 0218/0324 34010KT CAVOK"
    },
    {
      "icao": "GMMX",
      "alert": "OK",
      "vis_m": 9999,
      "fzfg": false,
      "metar_trigger": false,
      "taf_trigger": false,
      "metar": "METAR GMMX 022000Z 34006KT 300V010 9999 FEW030 37/15 Q1014 NOSIG",
      "taf": "TAF GMMX 021700Z 0218/0324 24006KT 8000 SCT033 SCT100"
    },
    {
      "icao": "HEGN",
      "alert": "OK",
      "vis_m": 9999,
      "fzfg": false,
      "metar_trigger": false,
      "taf_trigger": false,
      "metar": "METAR HEGN 021900Z 31009KT CAVOK 33/03 Q1005 NOSIG",
      "taf": "TAF HEGN 021700Z 0218/0324 32010G20KT CAVOK"
    },
    {
      "icao": "HEMA",
      "alert": "OK",
      "vis_m": 9999,
      "fzfg": false,
      "metar_trigger": false,
      "taf_trigger": false,
      "metar": "METAR HEMA 021900Z 32006KT CAVOK 30/10 Q1005 NOSIG",
      "taf": "TAF HEMA 021700Z 0218/0324 31010G20KT CAVOK"
    },
    {
      "icao": "HESH",
      "alert": "OK",
      "vis_m": 9999,
      "fzfg": false,
      "metar_trigger": false,
      "taf_trigger": false,
      "metar": "METAR HESH 021900Z 34012KT CAVOK 34/13 Q1003 NOSIG",
      "taf": "TAF HESH 021700Z 0218/0324 01010G20KT CAVOK"
    },
    {
      "icao": "HESX",
      "alert": "OK",
      "vis_m": 9999,
      "fzfg": false,
      "metar_trigger": false,
      "taf_trigger": false,
      "metar": "METAR HESX 021900Z 03009KT CAVOK 27/18 Q1010 NOSIG",
      "taf": "TAF HESX 021700Z 0218/0324 35015KT CAVOK"
    },
    {
      "icao": "LATI",
      "alert": "OK",
      "vis_m": 9999,
      "fzfg": false,
      "metar_trigger": false,
      "taf_trigger": false,
      "metar": "METAR LATI 021950Z 18002KT CAVOK 25/21 Q1011 NOSIG",
      "taf": "TAF LATI 021700Z 0218/0318 VRB05KT CAVOK TX34/0312Z TN21/0304Z"
    },
    {
      "icao": "LBPD",
      "alert": "OK",
      "vis_m": 9999,
      "fzfg": false,
      "metar_trigger": false,
      "taf_trigger": false,
      "metar": "METAR LBPD 022000Z AUTO 09006KT 9999 FEW110/// BKN190/// 23/19 Q1012",
      "taf": "TAF LBPD 021700Z 0218/0318 28010KT 9999 SCT070"
    },
    {
      "icao": "LBSF",
      "alert": "OK",
      "vis_m": 9999,
      "fzfg": false,
      "metar_trigger": false,
      "taf_trigger": false,
      "metar": "METAR LBSF 022000Z AUTO 28007KT 9999 FEW056/// SCT082/// 21/16 Q1015 NOSIG",
      "taf": "TAF LBSF 021700Z 0218/0318 28010KT 9999 SCT060"
    },
    {
      "icao": "LBWN",
      "alert": "OK",
      "vis_m": 7000,
      "fzfg": false,
      "metar_trigger": false,
      "taf_trigger": false,
      "metar": "METAR LBWN 022000Z AUTO 27008KT 7000 NSC 20/18 Q1010 NOSIG",
      "taf": "TAF LBWN 021700Z 0218/0318 VRB03KT 9999 SCT045"
    },
    {
      "icao": "LCLK",
      "alert": "OK",
      "vis_m": 9999,
      "fzfg": false,
      "metar_trigger": false,
      "taf_trigger": false,
      "metar": "METAR LCLK 022000Z 22009KT 9999 FEW012 26/25 Q1006 NOSIG",
      "taf": "TAF LCLK 021730Z 0218/0318 22014KT 9999 FEW025"
    },
    {
      "icao": "LCPH",
      "alert": "OK",
      "vis_m": 9999,
      "fzfg": false,
      "metar_trigger": false,
      "taf_trigger": false,
      "metar": "METAR LCPH 022000Z AUTO 32009KT 9999 NCD 26/23 Q1006 NOSIG",
      "taf": "TAF LCPH 021730Z 0218/0318 30012KT 9999 FEW020"
    },
    {
      "icao": "LEAL",
      "alert": "OK",
      "vis_m": 9999,
      "fzfg": false,
      "metar_trigger": false,
      "taf_trigger": false,
      "metar": "METAR LEAL 022000Z 12003KT 100V160 9999 FEW020 27/22 Q1020 NOSIG",
      "taf": "TAF LEAL 021700Z 0218/0318 09010KT 9999 FEW015 TX33/0312Z TN21/0305Z"
    },
    {
      "icao": "LEBB",
      "alert": "OK",
      "vis_m": 9999,
      "fzfg": false,
      "metar_trigger": false,
      "taf_trigger": false,
      "metar": "METAR LEBB 022000Z 33004KT 300V360 9999 FEW034 22/17 Q1029 NOSIG",
      "taf": "TAF LEBB 021700Z 0218/0318 34009KT 9999 BKN025 TX23/0312Z TN19/0305Z"
    },
    {
      "icao": "LEBL",
      "alert": "OK",
      "vis_m": 9999,
      "fzfg": false,
      "metar_trigger": false,
      "taf_trigger": false,
      "metar": "METAR LEBL 022000Z 23011KT CAVOK 26/19 Q1019 NOSIG",
      "taf": "TAF LEBL 021700Z 0218/0318 21008KT 9999 FEW025 TX31/0313Z TN23/0306Z"
    },
    {
      "icao": "LECH",
      "alert": "OK",
      "vis_m": 9999,
      "fzfg": false,
      "metar_trigger": false,
      "taf_trigger": false,
      "metar": "METAR LECH 022000Z AUTO 23006KT CAVOK 24/17 Q1021",
      "taf": "TAF LECH 021700Z 0218/0318 21008KT CAVOK TX34/0312Z TN18/0305Z"
    },
    {
      "icao": "LEMD",
      "alert": "OK",
      "vis_m": 9999,
      "fzfg": false,
      "metar_trigger": false,
      "taf_trigger": false,
      "metar": "METAR LEMD 022000Z 06010G22KT 360V140 CAVOK 29/08 Q1021 NOSIG",
      "taf": "TAF LEMD 021700Z 0218/0324 04010KT CAVOK TX37/0316Z TN17/0305Z"
    },
    {
      "icao": "LEMG",
      "alert": "OK",
      "vis_m": 9999,
      "fzfg": false,
      "metar_trigger": false,
      "taf_trigger": false,
      "metar": "METAR LEMG 022000Z 09005KT 020V170 CAVOK 26/21 Q1018 NOSIG",
      "taf": "TAF LEMG 021700Z 0218/0318 13010KT CAVOK TX28/0314Z TN20/0305Z"
    },
    {
      "icao": "LEVC",
      "alert": "OK",
      "vis_m": 9999,
      "fzfg": false,
      "metar_trigger": false,
      "taf_trigger": false,
      "metar": "METAR LEVC 022000Z 14005KT CAVOK 26/21 Q1020 NOSIG",
      "taf": "TAF LEVC 021700Z 0218/0318 13010KT 9999 FEW020 TX32/0312Z TN22/0305Z"
    },
    {
      "icao": "LEXJ",
      "alert": "OK",
      "vis_m": 9999,
      "fzfg": false,
      "metar_trigger": false,
      "taf_trigger": false,
      "metar": "METAR LEXJ 022000Z VRB02KT 9999 FEW030 21/17 Q1029",
      "taf": "TAF LEXJ 021400Z 0215/0315 VRB03KT 9999 SCT025 TX25/0313Z TN17/0304Z"
    },
    {
      "icao": "LEZG",
      "alert": "OK",
      "vis_m": 9999,
      "fzfg": false,
      "metar_trigger": false,
      "taf_trigger": false,
      "metar": "METAR LEZG 022000Z 29027G38KT CAVOK 23/13 Q1022 NOSIG",
      "taf": "TAF LEZG 021700Z 0218/0318 30020KT CAVOK TX35/0314Z TN18/0305Z"
    },
    {
      "icao": "LEZL",
      "alert": "OK",
      "vis_m": 9999,
      "fzfg": false,
      "metar_trigger": false,
      "taf_trigger": false,
      "metar": "METAR LEZL 022000Z 22009KT CAVOK 36/18 Q1014 NOSIG",
      "taf": "TAF LEZL 021400Z 0215/0315 VRB03KT CAVOK TX43/0215Z TN24/0305Z"
    },
    {
      "icao": "LFBD",
      "alert": "OK",
      "vis_m": 9999,
      "fzfg": false,
      "metar_trigger": false,
      "taf_trigger": false,
      "metar": "METAR LFBD 022000Z AUTO 31010KT 9999 OVC015 21/17 Q1027 BECMG BKN010",
      "taf": "TAF LFBD 021700Z 0218/0324 33010KT CAVOK TX31/0315Z TN18/0305Z"
    },
    {
      "icao": "LFLL",
      "alert": "OK",
      "vis_m": 9999,
      "fzfg": false,
      "metar_trigger": false,
      "taf_trigger": false,
      "metar": "METAR LFLL 022000Z 01006KT CAVOK 25/10 Q1022 NOSIG",
      "taf": "TAF LFLL 021700Z 0218/0324 35010KT CAVOK"
    },
    {
      "icao": "LFLS",
      "alert": "OK",
      "vis_m": 9999,
      "fzfg": false,
      "metar_trigger": false,
      "taf_trigger": false,
      "metar": "METAR LFLS 022000Z AUTO 36009KT CAVOK 24/09 Q1022",
      "taf": "TAF LFLS 021400Z 0215/0315 35012KT CAVOK"
    },
    {
      "icao": "LFMN",
      "alert": "OK",
      "vis_m": 9999,
      "fzfg": false,
      "metar_trigger": false,
      "taf_trigger": false,
      "metar": "METAR LFMN 022000Z 25005KT CAVOK 27/18 Q1015 BECMG 33010KT",
      "taf": "TAF LFMN 021400Z 0215/0321 20010KT CAVOK"
    },
    {
      "icao": "LFOB",
      "alert": "OK",
      "vis_m": 9999,
      "fzfg": false,
      "metar_trigger": false,
      "taf_trigger": false,
      "metar": "METAR LFOB 022000Z AUTO 29006KT CAVOK 18/14 Q1025 NOSIG",
      "taf": "TAF LFOB 021700Z 0218/0318 31010KT 9999 SCT040"
    },
    {
      "icao": "LFPO",
      "alert": "OK",
      "vis_m": 9999,
      "fzfg": false,
      "metar_trigger": false,
      "taf_trigger": false,
      "metar": "METAR LFPO 022000Z AUTO 33008KT 300V360 CAVOK 21/12 Q1025 NOSIG",
      "taf": "TAF LFPO 021700Z 0218/0324 32010KT 9999 BKN040"
    },
    {
      "icao": "LFSB",
      "alert": "OK",
      "vis_m": 9999,
      "fzfg": false,
      "metar_trigger": false,
      "taf_trigger": false,
      "metar": "METAR LFSB 022000Z AUTO 26008KT CAVOK 23/11 Q1022 NOSIG",
      "taf": "TAF LFSB 021700Z 0218/0318 26010KT CAVOK"
    },
    {
      "icao": "LGAV",
      "alert": "OK",
      "vis_m": 9999,
      "fzfg": false,
      "metar_trigger": false,
      "taf_trigger": false,
      "metar": "METAR LGAV 021950Z 00000KT CAVOK 26/14 Q1010 NOSIG",
      "taf": "TAF LGAV 021700Z 0218/0318 VRB05KT 9999 FEW025"
    },
    {
      "icao": "LGTS",
      "alert": "OK",
      "vis_m": 9999,
      "fzfg": false,
      "metar_trigger": false,
      "taf_trigger": false,
      "metar": "METAR LGTS 021950Z 11004KT 9999 FEW025 26/19 Q1009 NOSIG",
      "taf": "TAF LGTS 021700Z 0218/0318 VRB03KT 9999 FEW030"
    },
    {
      "icao": "LHBP",
      "alert": "OK",
      "vis_m": 9999,
      "fzfg": false,
      "metar_trigger": false,
      "taf_trigger": false,
      "metar": "SPECI LHBP 022002Z 08009KT 050V110 9999 -SHRA SCT052 SCT058CB BKN080 24/18 Q1016 RETSRA NOSIG",
      "taf": ""
    },
    {
      "icao": "LHDC",
      "alert": "OK",
      "vis_m": 9999,
      "fzfg": false,
      "metar_trigger": false,
      "taf_trigger": false,
      "metar": "METAR LHDC 021945Z AUTO 01012KT CAVOK 22/15 Q1015 NOSIG",
      "taf": "TAF LHDC 021715Z 0218/0303 01009KT CAVOK"
    },
    {
      "icao": "LIBD",
      "alert": "OK",
      "vis_m": 9999,
      "fzfg": false,
      "metar_trigger": false,
      "taf_trigger": false,
      "metar": "METAR LIBD 021950Z 26006KT CAVOK 25/20 Q1012",
      "taf": "TAF LIBD 021700Z 0218/0318 29010KT 9999 FEW015"
    },
    {
      "icao": "LIBG",
      "alert": "OK",
      "vis_m": 9999,
      "fzfg": false,
      "metar_trigger": false,
      "taf_trigger": false,
      "metar": "METAR LIBG 021950Z AUTO 28004KT 9999 NCD 24/22 Q1012",
      "taf": "TAF LIBG 021700Z 0218/0318 VRB05KT 9999 SCT030"
    },
    {
      "icao": "LIBP",
      "alert": "OK",
      "vis_m": 9999,
      "fzfg": false,
      "metar_trigger": false,
      "taf_trigger": false,
      "metar": "METAR LIBP 021950Z AUTO 23005KT 9999 NCD 24/19 Q1015",
      "taf": "TAF LIBP 021700Z 0218/0318 28010KT 9999 SCT060"
    },
    {
      "icao": "LIBR",
      "alert": "OK",
      "vis_m": 9999,
      "fzfg": false,
      "metar_trigger": false,
      "taf_trigger": false,
      "metar": "METAR LIBR 021950Z 34007KT 9999 FEW020 27/24 Q1011",
      "taf": "TAF LIBR 021700Z 0218/0318 35013KT CAVOK"
    },
    {
      "icao": "LICA",
      "alert": "OK",
      "vis_m": 9999,
      "fzfg": false,
      "metar_trigger": false,
      "taf_trigger": false,
      "metar": "METAR LICA 021950Z AUTO 22003KT 9999 BKN064/// BKN140/// 28/24 Q1012",
      "taf": "TAF LICA 021700Z 0218/0318 26010KT 9999 SCT030"
    },
    {
      "icao": "LICC",
      "alert": "OK",
      "vis_m": 9999,
      "fzfg": false,
      "metar_trigger": false,
      "taf_trigger": false,
      "metar": "METAR LICC 021950Z 12004KT 9999 FEW070 28/18 Q1011",
      "taf": "TAF LICC 021700Z 0218/0318 07010KT 9999 SCT040"
    },
    {
      "icao": "LICJ",
      "alert": "OK",
      "vis_m": 9999,
      "fzfg": false,
      "metar_trigger": false,
      "taf_trigger": false,
      "metar": "METAR LICJ 021950Z 22005KT 9999 FEW030 27/22 Q1012",
      "taf": "TAF LICJ 021700Z 0218/0318 27015KT 9999 SCT030"
    },
    {
      "icao": "LIMC",
      "alert": "OK",
      "vis_m": 9999,
      "fzfg": false,
      "metar_trigger": false,
      "taf_trigger": false,
      "metar": "METAR LIMC 021950Z 13002KT CAVOK 26/10 Q1016 NOSIG",
      "taf": "TAF LIMC 021700Z 0218/0324 21007KT CAVOK"
    },
    {
      "icao": "LIME",
      "alert": "OK",
      "vis_m": 9999,
      "fzfg": false,
      "metar_trigger": false,
      "taf_trigger": false,
      "metar": "METAR LIME 021950Z 17003KT 090V210 CAVOK 27/13 Q1016 NOSIG",
      "taf": "TAF LIME 021700Z 0218/0318 20010KT CAVOK"
    },
    {
      "icao": "LIMF",
      "alert": "OK",
      "vis_m": 9999,
      "fzfg": false,
      "metar_trigger": false,
      "taf_trigger": false,
      "metar": "METAR LIMF 021950Z 27004KT CAVOK 28/11 Q1016",
      "taf": "TAF LIMF 021700Z 0218/0318 VRB05KT CAVOK"
    },
    {
      "icao": "LIMJ",
      "alert": "OK",
      "vis_m": 9999,
      "fzfg": false,
      "metar_trigger": false,
      "taf_trigger": false,
      "metar": "METAR LIMJ 021950Z 35008KT CAVOK 27/14 Q1014",
      "taf": "TAF LIMJ 021700Z 0218/0318 VRB05KT CAVOK"
    },
    {
      "icao": "LIPE",
      "alert": "OK",
      "vis_m": 9999,
      "fzfg": false,
      "metar_trigger": false,
      "taf_trigger": false,
      "metar": "METAR LIPE 021950Z 36002KT CAVOK 24/18 Q1015",
      "taf": "TAF LIPE 021700Z 0218/0318 VRB05KT 9999 FEW050"
    },
    {
      "icao": "LIPH",
      "alert": "OK",
      "vis_m": 9999,
      "fzfg": false,
      "metar_trigger": false,
      "taf_trigger": false,
      "metar": "METAR LIPH 021950Z 27004KT CAVOK 27/16 Q1015",
      "taf": "TAF LIPH 021700Z 0218/0318 VRB05KT CAVOK"
    },
    {
      "icao": "LIPQ",
      "alert": "OK",
      "vis_m": 9999,
      "fzfg": false,
      "metar_trigger": false,
      "taf_trigger": false,
      "metar": "METAR LIPQ 021950Z AUTO 07003KT 9999 NCD 26/18 Q1015",
      "taf": "TAF LIPQ 021700Z 0218/0318 VRB06KT CAVOK"
    },
    {
      "icao": "LIPR",
      "alert": "OK",
      "vis_m": 9999,
      "fzfg": false,
      "metar_trigger": false,
      "taf_trigger": false,
      "metar": "METAR LIPR 021950Z VRB02KT CAVOK 25/16 Q1015",
      "taf": "TAF LIPR 021700Z 0218/0318 VRB05KT 9999 FEW050"
    },
    {
      "icao": "LIPX",
      "alert": "OK",
      "vis_m": 9999,
      "fzfg": false,
      "metar_trigger": false,
      "taf_trigger": false,
      "metar": "METAR LIPX 021950Z VRB02KT CAVOK 25/18 Q1015",
      "taf": "TAF LIPX 021700Z 0218/0318 VRB05KT 9999 FEW060"
    },
    {
      "icao": "LIPY",
      "alert": "OK",
      "vis_m": 9999,
      "fzfg": false,
      "metar_trigger": false,
      "taf_trigger": false,
      "metar": "METAR LIPY 021950Z AUTO 24003KT 9999 NCD 24/17 Q1015",
      "taf": "TAF LIPY 021700Z 0218/0318 35012KT 9999 FEW090"
    },
    {
      "icao": "LIPZ",
      "alert": "OK",
      "vis_m": 9999,
      "fzfg": false,
      "metar_trigger": false,
      "taf_trigger": false,
      "metar": "METAR LIPZ 021950Z 32004KT 300V010 CAVOK 27/17 Q1015 NOSIG",
      "taf": "TAF LIPZ 021700Z 0218/0324 VRB06KT CAVOK"
    },
    {
      "icao": "LIRF",
      "alert": "OK",
      "vis_m": 9999,
      "fzfg": false,
      "metar_trigger": false,
      "taf_trigger": false,
      "metar": "METAR LIRF 021950Z 30003KT CAVOK 24/20 Q1012 NOSIG",
      "taf": "TAF LIRF 021700Z 0218/0324 06012KT 9999 SCT030"
    },
    {
      "icao": "LIRN",
      "alert": "OK",
      "vis_m": 9999,
      "fzfg": false,
      "metar_trigger": false,
      "taf_trigger": false,
      "metar": "METAR LIRN 021950Z 01005KT 250V030 CAVOK 26/18 Q1012 NOSIG",
      "taf": "TAF LIRN 021700Z 0218/0318 04013KT 9999 SCT040"
    },
    {
      "icao": "LIRP",
      "alert": "OK",
      "vis_m": 9999,
      "fzfg": false,
      "metar_trigger": false,
      "taf_trigger": false,
      "metar": "METAR LIRP 021945Z 12005KT CAVOK 25/15 Q1014 NOSIG",
      "taf": "TAF LIRP 021700Z 0218/0318 08008KT CAVOK"
    },
    {
      "icao": "LIRZ",
      "alert": "OK",
      "vis_m": 9999,
      "fzfg": false,
      "metar_trigger": false,
      "taf_trigger": false,
      "metar": "METAR LIRZ 021950Z AUTO 03008KT 9999 NCD 23/17 Q1015",
      "taf": "TAF LIRZ 021700Z 0218/0318 02012KT 9999 SCT040"
    },
    {
      "icao": "LJLJ",
      "alert": "OK",
      "vis_m": 9999,
      "fzfg": false,
      "metar_trigger": false,
      "taf_trigger": false,
      "metar": "METAR LJLJ 022000Z 04007KT 9999 FEW080 21/15 Q1018 NOSIG",
      "taf": "TAF LJLJ 021700Z 0218/0318 12004KT 9999 FEW060"
    },
    {
      "icao": "LKMT",
      "alert": "OK",
      "vis_m": 9999,
      "fzfg": false,
      "metar_trigger": false,
      "taf_trigger": false,
      "metar": "METAR LKMT 022000Z 22004KT CAVOK 21/13 Q1017 NOSIG",
      "taf": "TAF LKMT 021700Z 0218/0318 03006KT CAVOK"
    },
    {
      "icao": "LKPR",
      "alert": "OK",
      "vis_m": 9999,
      "fzfg": false,
      "metar_trigger": false,
      "taf_trigger": false,
      "metar": "METAR LKPR 022000Z 24007KT CAVOK 19/13 Q1018 NOSIG",
      "taf": "TAF LKPR 022000Z 0221/0403 24008KT CAVOK"
    },
    {
      "icao": "LLBG",
      "alert": "OK",
      "vis_m": 9999,
      "fzfg": false,
      "metar_trigger": false,
      "taf_trigger": false,
      "metar": "METAR LLBG 021950Z 28005KT 9999 FEW027 26/20 Q1008 NOSIG",
      "taf": "TAF LLBG 021704Z 0218/0318 30006KT 9999 FEW025 TX31/0312Z TN23/0303Z"
    },
    {
      "icao": "LMML",
      "alert": "OK",
      "vis_m": 9999,
      "fzfg": false,
      "metar_trigger": false,
      "taf_trigger": false,
      "metar": "METAR LMML 021945Z 29012KT CAVOK 26/20 Q1014 NOSIG",
      "taf": "TAF LMML 021700Z 0218/0318 29015KT 9999 FEW015"
    },
    {
      "icao": "LOWW",
      "alert": "OK",
      "vis_m": 9999,
      "fzfg": false,
      "metar_trigger": false,
      "taf_trigger": false,
      "metar": "METAR LOWW 021950Z 33007KT CAVOK 23/09 Q1018 NOSIG",
      "taf": "TAF LOWW 021715Z 0218/0324 31012KT 9999 FEW050 TX27/0314Z TN17/0324Z"
    },
    {
      "icao": "LPFR",
      "alert": "OK",
      "vis_m": 9999,
      "fzfg": false,
      "metar_trigger": false,
      "taf_trigger": false,
      "metar": "METAR LPFR 022000Z 26004KT CAVOK 28/20 Q1015",
      "taf": ""
    },
    {
      "icao": "LPMA",
      "alert": "OK",
      "vis_m": 9999,
      "fzfg": false,
      "metar_trigger": false,
      "taf_trigger": false,
      "metar": "METAR LPMA 022000Z 21004KT 120V240 9999 FEW013 22/19 Q1017",
      "taf": "TAF LPMA 021700Z 0218/0318 20008KT 9999 SCT015"
    },
    {
      "icao": "LPPR",
      "alert": "OK",
      "vis_m": 9999,
      "fzfg": false,
      "metar_trigger": false,
      "taf_trigger": false,
      "metar": "METAR LPPR 022000Z 05005KT CAVOK 34/10 Q1018",
      "taf": "TAF LPPR 021700Z 0218/0318 08010KT CAVOK"
    },
    {
      "icao": "LPPS",
      "alert": "OK",
      "vis_m": 9999,
      "fzfg": false,
      "metar_trigger": false,
      "taf_trigger": false,
      "metar": "METAR LPPS 022000Z 01018KT 9999 SCT012 21/17 Q1017",
      "taf": "TAF LPPS 021700Z 0218/0324 02012KT 9999 SCT015"
    },
    {
      "icao": "LPPT",
      "alert": "OK",
      "vis_m": 9999,
      "fzfg": false,
      "metar_trigger": false,
      "taf_trigger": false,
      "metar": "METAR LPPT 022000Z 33008KT CAVOK 34/12 Q1016 NOSIG",
      "taf": "TAF LPPT 021700Z 0218/0324 31013KT CAVOK"
    },
    {
      "icao": "LQBK",
      "alert": "OK",
      "vis_m": 9999,
      "fzfg": false,
      "metar_trigger": false,
      "taf_trigger": false,
      "metar": "METAR LQBK 022000Z VRB02KT CAVOK 22/16 Q1017 NOSIG",
      "taf": "TAF LQBK 021700Z 0218/0318 22005KT 9999 SCT045 TX27/0314Z TN15/0303Z"
    },
    {
      "icao": "LQSA",
      "alert": "OK",
      "vis_m": 9999,
      "fzfg": false,
      "metar_trigger": false,
      "taf_trigger": false,
      "metar": "METAR LQSA 022000Z 34004KT 9999 FEW022 BKN027 19/16 Q1018 NOSIG",
      "taf": "TAF LQSA 021700Z 0218/0318 28006KT 9999 BKN045 TX25/0313Z TN15/0304Z"
    },
    {
      "icao": "LQTZ",
      "alert": "OK",
      "vis_m": 9999,
      "fzfg": false,
      "metar_trigger": false,
      "taf_trigger": false,
      "metar": "METAR LQTZ 022000Z VRB02KT 9999 BKN055 18/18 Q1018",
      "taf": "TAF LQTZ 021700Z 0218/0318 27005KT 9999 SCT015 BKN035 TX27/0314Z TN16/0303Z"
    },
    {
      "icao": "LRBC",
      "alert": "OK",
      "vis_m": 9999,
      "fzfg": false,
      "metar_trigger": false,
      "taf_trigger": false,
      "metar": "METAR LRBC 022000Z 33015KT 9999 FEW055CB 25/18 Q1011",
      "taf": "TAF LRBC 021700Z 0218/0303 VRB04KT CAVOK"
    },
    {
      "icao": "LRBS",
      "alert": "OK",
      "vis_m": 9999,
      "fzfg": false,
      "metar_trigger": false,
      "taf_trigger": false,
      "metar": "METAR LRBS 022000Z 21005KT 150V250 CAVOK 25/18 Q1010 NOSIG",
      "taf": "TAF LRBS 021700Z 0218/0318 VRB04KT CAVOK"
    },
    {
      "icao": "LRBV",
      "alert": "OK",
      "vis_m": 9999,
      "fzfg": false,
      "metar_trigger": false,
      "taf_trigger": false,
      "metar": "METAR LRBV 022000Z 21010KT 9999 SCT062 17/15 Q1015",
      "taf": "TAF LRBV 021700Z 0218/0303 VRB04KT 9999 SCT055"
    },
    {
      "icao": "LRCL",
      "alert": "OK",
      "vis_m": 9999,
      "fzfg": false,
      "metar_trigger": false,
      "taf_trigger": false,
      "metar": "METAR LRCL 022000Z VRB01KT 9999 SCT050 20/18 Q1014",
      "taf": "TAF LRCL 021700Z 0218/0303 28009KT 9999 SCT045"
    },
    {
      "icao": "LRCV",
      "alert": "OK",
      "vis_m": 9999,
      "fzfg": false,
      "metar_trigger": false,
      "taf_trigger": false,
      "metar": "METAR LRCV 022000Z 23005KT CAVOK 23/19 Q1012",
      "taf": "TAF LRCV 021700Z 0218/0303 26005KT CAVOK"
    },
    {
      "icao": "LRIA",
      "alert": "OK",
      "vis_m": 9999,
      "fzfg": false,
      "metar_trigger": false,
      "taf_trigger": false,
      "metar": "METAR LRIA 022000Z 32015KT CAVOK 24/17 Q1011",
      "taf": "TAF LRIA 021700Z 0218/0303 VRB04KT CAVOK"
    },
    {
      "icao": "LROP",
      "alert": "OK",
      "vis_m": 9999,
      "fzfg": false,
      "metar_trigger": false,
      "taf_trigger": false,
      "metar": "METAR LROP 022000Z 21008KT CAVOK 24/20 Q1010 NOSIG",
      "taf": "TAF LROP 021700Z 0218/0318 VRB04KT CAVOK"
    },
    {
      "icao": "LRSB",
      "alert": "OK",
      "vis_m": 9999,
      "fzfg": false,
      "metar_trigger": false,
      "taf_trigger": false,
      "metar": "METAR LRSB 022000Z 23003KT 9999 -RA FEW025 OVC070 19/19 Q1015",
      "taf": "TAF LRSB 021700Z 0218/0318 VRB04KT 9999 SCT045"
    },
    {
      "icao": "LRSM",
      "alert": "OK",
      "vis_m": 9999,
      "fzfg": false,
      "metar_trigger": false,
      "taf_trigger": false,
      "metar": "METAR LRSM 022000Z 32007KT 9999 FEW039 21/17 Q1013",
      "taf": "TAF LRSM 021700Z 0218/0303 36008KT CAVOK"
    },
    {
      "icao": "LRSV",
      "alert": "OK",
      "vis_m": 9999,
      "fzfg": false,
      "metar_trigger": false,
      "taf_trigger": false,
      "metar": "METAR LRSV 022000Z 30014KT 9999 FEW047CB 21/18 Q1013",
      "taf": "TAF LRSV 021700Z 0218/0303 31015KT CAVOK"
    },
    {
      "icao": "LRTM",
      "alert": "OK",
      "vis_m": 9999,
      "fzfg": false,
      "metar_trigger": false,
      "taf_trigger": false,
      "metar": "METAR LRTM 022000Z 28003KT 9999 SCT042 FEW045CB 20/19 Q1014",
      "taf": "TAF LRTM 021700Z 0218/0303 28009KT 9999 SCT045"
    },
    {
      "icao": "LRTR",
      "alert": "OK",
      "vis_m": 9999,
      "fzfg": false,
      "metar_trigger": false,
      "taf_trigger": false,
      "metar": "METAR LRTR 022000Z 30003KT 270V330 9999 -RA NSC 21/21 Q1013 NOSIG",
      "taf": "TAF LRTR 021700Z 0218/0318 36008KT 9999 SCT050CB"
    },
    {
      "icao": "LTAC",
      "alert": "OK",
      "vis_m": 9999,
      "fzfg": false,
      "metar_trigger": false,
      "taf_trigger": false,
      "metar": "METAR LTAC 021950Z 06006KT CAVOK 24/11 Q1011 NOSIG RMK RWY21C 08004KT RWY03L 05006KT RWY21R 05005KT RWY03R 04005KT RWY21L 06003KT",
      "taf": "TAF LTAC 021640Z 0218/0318 VRB02KT CAVOK"
    },
    {
      "icao": "LTFM",
      "alert": "OK",
      "vis_m": 9999,
      "fzfg": false,
      "metar_trigger": false,
      "taf_trigger": false,
      "metar": "METAR LTFM 021950Z 08008KT 9999 SCT012 25/21 Q1010 NOSIG RMK RWY17L 07007KT RWY34L 07008KT RWY16R 06007KT RWY36 08006KT RWY18 09008KT",
      "taf": "TAF LTFM 021640Z 0218/0324 04012KT CAVOK"
    },
    {
      "icao": "LUKK",
      "alert": "OK",
      "vis_m": 9999,
      "fzfg": false,
      "metar_trigger": false,
      "taf_trigger": false,
      "metar": "METAR LUKK 022000Z 25003KT CAVOK 23/19 Q1010 NOSIG",
      "taf": "TAF LUKK 021709Z 0218/0318 VRB05KT CAVOK"
    },
    {
      "icao": "LWOH",
      "alert": "OK",
      "vis_m": 9999,
      "fzfg": false,
      "metar_trigger": false,
      "taf_trigger": false,
      "metar": "METAR LWOH 021950Z VRB02KT 9999 FEW045 18/17 Q1016",
      "taf": "TAF LWOH 021705Z 0218/0318 VRB02KT 9999 SCT050 SCT090"
    },
    {
      "icao": "LWSK",
      "alert": "OK",
      "vis_m": 9999,
      "fzfg": false,
      "metar_trigger": false,
      "taf_trigger": false,
      "metar": "METAR LWSK 021950Z 01007KT 350V060 9999 FEW055 BKN090 24/18 Q1013 NOSIG",
      "taf": "TAF LWSK 021705Z 0218/0318 03006KT 9999 SCT050 BKN060"
    },
    {
      "icao": "LYBE",
      "alert": "OK",
      "vis_m": 9999,
      "fzfg": false,
      "metar_trigger": false,
      "taf_trigger": false,
      "metar": "METAR LYBE 022000Z 29006KT 9999 -SHRA FEW040TCU SCT046 21/20 Q1015 RESHRA NOSIG",
      "taf": ""
    },
    {
      "icao": "LYNI",
      "alert": "OK",
      "vis_m": 9999,
      "fzfg": false,
      "metar_trigger": false,
      "taf_trigger": false,
      "metar": "METAR LYNI 022000Z 30010KT 260V330 9999 SCT030 BKN083 23/19 Q1014 NOSIG",
      "taf": "TAF LYNI 021700Z 0218/0318 30008KT 9999 BKN023 TX26/0314Z TN19/0303Z"
    },
    {
      "icao": "LYPG",
      "alert": "OK",
      "vis_m": 9999,
      "fzfg": false,
      "metar_trigger": false,
      "taf_trigger": false,
      "metar": "METAR LYPG 022000Z 33003KT 300V020 9999 SCT050 26/20 Q1011 NOSIG",
      "taf": "TAF LYPG 021700Z 0218/0318 36010KT 9999 FEW060 TX34/0313Z TN24/0303Z"
    },
    {
      "icao": "LZIB",
      "alert": "OK",
      "vis_m": 9999,
      "fzfg": false,
      "metar_trigger": false,
      "taf_trigger": false,
      "metar": "METAR LZIB 022000Z 31007KT CAVOK 25/09 Q1017 NOSIG",
      "taf": "TAF LZIB 021715Z 0218/0318 34013KT CAVOK"
    },
    {
      "icao": "LZKZ",
      "alert": "OK",
      "vis_m": 9999,
      "fzfg": false,
      "metar_trigger": false,
      "taf_trigger": false,
      "metar": "METAR LZKZ 022000Z 02010KT CAVOK 20/12 Q1016 NOSIG",
      "taf": "TAF LZKZ 021715Z 0218/0318 01014KT CAVOK"
    },
    {
      "icao": "LZTT",
      "alert": "OK",
      "vis_m": 9999,
      "fzfg": false,
      "metar_trigger": false,
      "taf_trigger": false,
      "metar": "METAR LZTT 022000Z 26003KT 240V300 9999 FEW043 13/12 Q1018",
      "taf": "TAF LZTT 021715Z 0218/0318 07007KT CAVOK"
    },
    {
      "icao": "OEJN",
      "alert": "OK",
      "vis_m": 9999,
      "fzfg": false,
      "metar_trigger": false,
      "taf_trigger": false,
      "metar": "METAR OEJN 022000Z 33006KT CAVOK 33/19 Q1003 NOSIG",
      "taf": "TAF OEJN 021700Z 0218/0324 02006KT CAVOK"
    },
    {
      "icao": "OEMA",
      "alert": "OK",
      "vis_m": 9999,
      "fzfg": false,
      "metar_trigger": false,
      "taf_trigger": false,
      "metar": "METAR OEMA 022000Z 31007KT CAVOK 39/M02 Q1008 NOSIG",
      "taf": "TAF OEMA 021700Z 0218/0324 29006KT CAVOK"
    },
    {
      "icao": "OJAI",
      "alert": "OK",
      "vis_m": 4000,
      "fzfg": false,
      "metar_trigger": false,
      "taf_trigger": false,
      "metar": "METAR OJAI 022000Z 29009KT 4000 DU NSC 21/13 Q1012 NOSIG",
      "taf": "TAF OJAI 021700Z 0218/0324 29011KT 4000 HZ NSC"
    },
    {
      "icao": "OMAA",
      "alert": "OK",
      "vis_m": 9999,
      "fzfg": false,
      "metar_trigger": false,
      "taf_trigger": false,
      "metar": "METAR OMAA 022000Z 30002KT CAVOK 32/26 Q0998 NOSIG",
      "taf": "TAF OMAA 021700Z 0218/0400 VRB02KT 8000 NSC"
    },
    {
      "icao": "OMDB",
      "alert": "OK",
      "vis_m": 9999,
      "fzfg": false,
      "metar_trigger": false,
      "taf_trigger": false,
      "metar": "METAR OMDB 022000Z 23003KT 150V270 CAVOK 35/24 Q0998 NOSIG",
      "taf": "TAF OMDB 021700Z 0218/0400 VRB02KT 8000 NSC"
    },
    {
      "icao": "UAAA",
      "alert": "OK",
      "vis_m": 9999,
      "fzfg": false,
      "metar_trigger": false,
      "taf_trigger": false,
      "metar": "METAR UAAA 022000Z 09002MPS 9999 BKN041CB OVC100 17/15 Q1012 NOSIG",
      "taf": "TAF UAAA 021702Z 0218/0318 22003G08MPS 9999 BKN040CB OVC100 TX20/0310Z TN17/0301Z"
    },
    {
      "icao": "UBBB",
      "alert": "OK",
      "vis_m": 9999,
      "fzfg": false,
      "metar_trigger": false,
      "taf_trigger": false,
      "metar": "METAR UBBB 022000Z 26004KT 220V330 CAVOK 24/21 Q1009 NOSIG",
      "taf": "TAF UBBB 021655Z 0218/0318 22005KT CAVOK TX31/0309Z TN22/0301Z"
    },
    {
      "icao": "UDSG",
      "alert": "OK",
      "vis_m": 9999,
      "fzfg": false,
      "metar_trigger": false,
      "taf_trigger": false,
      "metar": "METAR UDSG 022000Z 11002KT 9999 NSC 18/13 Q1016 NOSIG",
      "taf": "TAF UDSG 021658Z 0218/0318 06006KT 9999 FEW050"
    },
    {
      "icao": "UDYZ",
      "alert": "OK",
      "vis_m": 9999,
      "fzfg": false,
      "metar_trigger": false,
      "taf_trigger": false,
      "metar": "METAR UDYZ 022000Z 03014KT 9999 NSC 26/14 Q1009 NOSIG",
      "taf": "TAF UDYZ 021700Z 0218/0318 06006KT 9999 NSC"
    },
    {
      "icao": "UGKO",
      "alert": "OK",
      "vis_m": 9999,
      "fzfg": false,
      "metar_trigger": false,
      "taf_trigger": false,
      "metar": "METAR UGKO 022000Z AUTO 03004KT 9999 FEW040/// 22/20 Q1007 NOSIG",
      "taf": "TAF UGKO 021700Z 0218/0318 26007KT CAVOK TX31/0311Z TN19/0302Z"
    }
  ]
}