{
  "ts_utc": "2026-01-29T11:51:44Z",
  "threshold_m": 150,
  "source": "stations_override.txt (ICAO list) + aviationweather.gov (METAR/TAF raw)",
  "station_count": 159,
  "stations": [
    {
      "icao": "BIKF",
      "alert": "OK",
      "vis_m": 9999,
      "fzfg": false,
      "metar_trigger": false,
      "taf_trigger": false,
      "metar": "METAR BIKF 291130Z 06018KT 9999 SCT043 BKN060 03/M00 Q0998",
      "taf": "TAF BIKF 291030Z 2912/3012 06013KT 9999 FEW025 TX05/2915Z TN01/3009Z"
    },
    {
      "icao": "BKPR",
      "alert": "OK",
      "vis_m": 9999,
      "fzfg": false,
      "metar_trigger": false,
      "taf_trigger": false,
      "metar": "METAR BKPR 291130Z 10004KT 9999 BKN075 09/05 Q0994 NOSIG",
      "taf": "TAF BKPR 291130Z 2912/3012 13008KT 9999 SCT030 BKN050"
    },
    {
      "icao": "EBCI",
      "alert": "OK",
      "vis_m": 3500,
      "fzfg": false,
      "metar_trigger": false,
      "taf_trigger": false,
      "metar": "METAR EBCI 291120Z VRB02KT 3500 BR BKN004 BKN005 02/01 Q0999 BECMG 6000 BKN007",
      "taf": "TAF EBCI 291120Z 2912/3018 VRB03KT 6000 BKN007"
    },
    {
      "icao": "EDDB",
      "alert": "OK",
      "vis_m": 7000,
      "fzfg": false,
      "metar_trigger": false,
      "taf_trigger": false,
      "metar": "METAR EDDB 291120Z AUTO 07011KT 7000 BKN009 M01/M03 Q1003 NOSIG",
      "taf": "TAF EDDB 291100Z 2912/3012 07010KT 8000 BKN010"
    },
    {
      "icao": "EDDH",
      "alert": "OK",
      "vis_m": 9999,
      "fzfg": false,
      "metar_trigger": false,
      "taf_trigger": false,
      "metar": "METAR EDDH 291120Z AUTO 09012KT 9999 OVC010 M00/M02 Q1004 TEMPO OVC009",
      "taf": "TAF EDDH 291100Z 2912/3018 08010KT 9999 OVC012"
    },
    {
      "icao": "EDDK",
      "alert": "OK",
      "vis_m": 9999,
      "fzfg": false,
      "metar_trigger": false,
      "taf_trigger": false,
      "metar": "METAR EDDK 291120Z AUTO VRB01KT 9999 FEW009 OVC013 02/01 Q0999 TEMPO 4000 BKN008",
      "taf": "TAF EDDK 291100Z 2912/3018 11004KT 8000 OVC010"
    },
    {
      "icao": "EDDN",
      "alert": "OK",
      "vis_m": 7000,
      "fzfg": false,
      "metar_trigger": false,
      "taf_trigger": false,
      "metar": "METAR EDDN 291120Z AUTO 36004KT 7000 -SN BKN004 BKN016 01/M00 Q0997 NOSIG",
      "taf": "TAF EDDN 291100Z 2912/3012 VRB03KT 5000 BR SCT004 OVC006"
    },
    {
      "icao": "EDDS",
      "alert": "OK",
      "vis_m": 6000,
      "fzfg": false,
      "metar_trigger": false,
      "taf_trigger": false,
      "metar": "METAR EDDS 291120Z AUTO VRB01KT 6000 -RADZ BKN004 OVC013 02/00 Q0997 TEMPO 2000 RASN",
      "taf": "TAF EDDS 291100Z 2912/3012 VRB03KT 6000 OVC013"
    },
    {
      "icao": "EDFH",
      "alert": "OK",
      "vis_m": 6000,
      "fzfg": false,
      "metar_trigger": false,
      "taf_trigger": false,
      "metar": "METAR EDFH 291120Z VRB02KT 6000 -DZ OVC002 01/00 Q0997",
      "taf": "TAF EDFH 291100Z 2912/3012 23003KT 3000 BR OVC005"
    },
    {
      "icao": "EDJA",
      "alert": "OK",
      "vis_m": 6000,
      "fzfg": false,
      "metar_trigger": false,
      "taf_trigger": false,
      "metar": "METAR EDJA 291120Z COR 23010KT 6000 BKN005 BKN027 OVC048 01/00 Q0997",
      "taf": "TAF EDJA 291100Z 2912/2921 23009KT 7000 OVC006"
    },
    {
      "icao": "EDLW",
      "alert": "OK",
      "vis_m": 3300,
      "fzfg": false,
      "metar_trigger": false,
      "taf_trigger": false,
      "metar": "METAR EDLW 291120Z 03005KT 3300 -SN BKN004 BKN015 00/M00 Q0999",
      "taf": "TAF EDLW 291100Z 2912/3012 07006KT 6000 OVC007"
    },
    {
      "icao": "EDNY",
      "alert": "OK",
      "vis_m": 9999,
      "fzfg": false,
      "metar_trigger": false,
      "taf_trigger": false,
      "metar": "METAR EDNY 291120Z 25006KT 230V290 9999 BKN010 OVC040 04/02 Q0999",
      "taf": "TAF EDNY 291100Z 2912/2921 25006KT 9999 BKN011"
    },
    {
      "icao": "EDSB",
      "alert": "OK",
      "vis_m": 4400,
      "fzfg": false,
      "metar_trigger": false,
      "taf_trigger": false,
      "metar": "METAR EDSB 291120Z 22007KT 4400 -DZ BR BKN004 OVC013 04/03 Q0999",
      "taf": "TAF EDSB 291100Z 2912/3012 21006KT 8000 OVC013"
    },
    {
      "icao": "EETN",
      "alert": "OK",
      "vis_m": 9999,
      "fzfg": false,
      "metar_trigger": false,
      "taf_trigger": false,
      "metar": "METAR EETN 291150Z 09009KT CAVOK M08/M11 Q1020 NOSIG",
      "taf": "TAF EETN 291130Z 2912/3012 10010KT CAVOK"
    },
    {
      "icao": "EFTU",
      "alert": "OK",
      "vis_m": 9999,
      "fzfg": false,
      "metar_trigger": false,
      "taf_trigger": false,
      "metar": "METAR EFTU 291120Z AUTO 08006KT CAVOK M11/M14 Q1021",
      "taf": "TAF EFTU 291126Z 2912/3012 07006KT CAVOK"
    },
    {
      "icao": "EGBB",
      "alert": "OK",
      "vis_m": 9000,
      "fzfg": false,
      "metar_trigger": false,
      "taf_trigger": false,
      "metar": "METAR EGBB 291120Z 13012KT 9000 BKN010 05/04 Q0996",
      "taf": "TAF EGBB 291058Z 2912/3012 12008KT 9999 BKN008"
    },
    {
      "icao": "EGGP",
      "alert": "OK",
      "vis_m": 9000,
      "fzfg": false,
      "metar_trigger": false,
      "taf_trigger": false,
      "metar": "METAR EGGP 291120Z 12013KT 9000 BKN017 BKN020 05/03 Q0996",
      "taf": "TAF EGGP 291058Z 2912/3012 14012KT 9999 FEW012 SCT020"
    },
    {
      "icao": "EGGW",
      "alert": "OK",
      "vis_m": 7000,
      "fzfg": false,
      "metar_trigger": false,
      "taf_trigger": false,
      "metar": "METAR EGGW 291120Z AUTO 12009KT 7000 OVC006 04/03 Q0997",
      "taf": "TAF EGGW 291056Z 2912/3012 12008KT 9999 BKN020"
    },
    {
      "icao": "EGKK",
      "alert": "OK",
      "vis_m": 9999,
      "fzfg": false,
      "metar_trigger": false,
      "taf_trigger": false,
      "metar": "METAR EGKK 291120Z 11007KT 9999 SCT012 BKN016 06/05 Q0997",
      "taf": "TAF EGKK 291058Z 2912/3018 12007KT 9999 SCT012"
    },
    {
      "icao": "EGNM",
      "alert": "OK",
      "vis_m": 5000,
      "fzfg": false,
      "metar_trigger": false,
      "taf_trigger": false,
      "metar": "METAR EGNM 291120Z 11009KT 5000 -RA BR SCT006 BKN008 02/02 Q0998",
      "taf": "TAF EGNM 291058Z 2912/3012 11009KT 6000 BKN005"
    },
    {
      "icao": "EGPD",
      "alert": "OK",
      "vis_m": 9999,
      "fzfg": false,
      "metar_trigger": false,
      "taf_trigger": false,
      "metar": "METAR EGPD 291120Z AUTO 15016KT 9999 BKN015 BKN026 05/02 Q1001 TEMPO BKN014",
      "taf": "TAF EGPD 291100Z 2912/3012 13012KT 9999 SCT015 BKN030"
    },
    {
      "icao": "EGPF",
      "alert": "OK",
      "vis_m": 9999,
      "fzfg": false,
      "metar_trigger": false,
      "taf_trigger": false,
      "metar": "METAR EGPF 291120Z AUTO 08010KT 060V140 9999 BKN028 06/03 Q0997",
      "taf": "TAF EGPF 291056Z 2912/3012 07007KT 9999 FEW018 SCT040"
    },
    {
      "icao": "EHBK",
      "alert": "OK",
      "vis_m": 6000,
      "fzfg": false,
      "metar_trigger": false,
      "taf_trigger": false,
      "metar": "METAR EHBK 291125Z AUTO 30003KT 270V350 6000 FEW007 SCT008 BKN009 01/M01 Q0999 NOSIG",
      "taf": "TAF EHBK 291120Z 2912/3018 VRB02KT 6000 BKN006"
    },
    {
      "icao": "EHEH",
      "alert": "OK",
      "vis_m": null,
      "fzfg": false,
      "metar_trigger": false,
      "taf_trigger": false,
      "metar": "",
      "taf": "TAF EHEH 290513Z 2906/3012 02006KT 4000 BR -SN BKN006 OVC008"
    },
    {
      "icao": "EKBI",
      "alert": "OK",
      "vis_m": 9999,
      "fzfg": false,
      "metar_trigger": false,
      "taf_trigger": false,
      "metar": "METAR EKBI 291120Z AUTO 07014G27KT 9999 OVC023/// M02/M06 Q1008",
      "taf": "TAF EKBI 291127Z 2912/3012 08015KT 9999 BKN020"
    },
    {
      "icao": "EKCH",
      "alert": "OK",
      "vis_m": 9999,
      "fzfg": false,
      "metar_trigger": false,
      "taf_trigger": false,
      "metar": "METAR EKCH 291120Z AUTO 09015KT 9999 OVC026/// M01/M06 Q1010 NOSIG",
      "taf": "TAF EKCH 291127Z 2912/3012 08012KT 9999 BKN022"
    },
    {
      "icao": "ENAL",
      "alert": "OK",
      "vis_m": 9999,
      "fzfg": false,
      "metar_trigger": false,
      "taf_trigger": false,
      "metar": "METAR ENAL 291120Z 14012KT 9999 SCT030 M01/M06 Q1012",
      "taf": "TAF ENAL 291100Z 2912/2921 14008KT 9999 FEW030"
    },
    {
      "icao": "ENBR",
      "alert": "OK",
      "vis_m": 9999,
      "fzfg": false,
      "metar_trigger": false,
      "taf_trigger": false,
      "metar": "METAR ENBR 291120Z 12004KT 9999 FEW033 M02/M07 Q1012 NOSIG RMK WIND 1200FT 17006KT",
      "taf": "TAF ENBR 291100Z 2912/3012 VRB03KT 9999 SCT030"
    },
    {
      "icao": "ENGM",
      "alert": "OK",
      "vis_m": 9999,
      "fzfg": false,
      "metar_trigger": false,
      "taf_trigger": false,
      "metar": "METAR ENGM 291120Z 03005KT 9999 SCT017 M11/M14 Q1017 TEMPO BKN012",
      "taf": "TAF ENGM 291100Z 2912/3012 02007KT 9999 BKN015"
    },
    {
      "icao": "ENHD",
      "alert": "OK",
      "vis_m": 9999,
      "fzfg": false,
      "metar_trigger": false,
      "taf_trigger": false,
      "metar": "METAR ENHD 291120Z 11005KT CAVOK M02/M13 Q1012",
      "taf": "TAF ENHD 291100Z 2912/2921 10008KT CAVOK"
    },
    {
      "icao": "ENTC",
      "alert": "OK",
      "vis_m": 9999,
      "fzfg": false,
      "metar_trigger": false,
      "taf_trigger": false,
      "metar": "METAR ENTC 291120Z 22008KT 9999 FEW008 SCT064 M07/M09 Q1021 NOSIG RMK WIND 2600FT 27010KT",
      "taf": "TAF ENTC 291100Z 2912/3012 22005KT 9999 SCT008 BKN035"
    },
    {
      "icao": "ENTO",
      "alert": "OK",
      "vis_m": 9999,
      "fzfg": false,
      "metar_trigger": false,
      "taf_trigger": false,
      "metar": "METAR ENTO 291120Z 03010KT 360V060 9999 -SHSN OVC014 M08/M11 Q1017 RESN NOSIG",
      "taf": "TAF ENTO 291100Z 2912/3012 02008KT 9999 -SN BKN025"
    },
    {
      "icao": "ENVA",
      "alert": "OK",
      "vis_m": 9999,
      "fzfg": false,
      "metar_trigger": false,
      "taf_trigger": false,
      "metar": "METAR ENVA 291120Z 12006KT CAVOK M13/M19 Q1017 NOSIG RMK WIND 670FT 09009KT",
      "taf": "TAF ENVA 291100Z 2912/3012 13008KT CAVOK"
    },
    {
      "icao": "ENZV",
      "alert": "OK",
      "vis_m": 9999,
      "fzfg": false,
      "metar_trigger": false,
      "taf_trigger": false,
      "metar": "METAR ENZV 291120Z 14009KT CAVOK M03/M14 Q1013 NOSIG",
      "taf": "TAF ENZV 291100Z 2912/3012 11005KT CAVOK"
    },
    {
      "icao": "EPGD",
      "alert": "OK",
      "vis_m": 9999,
      "fzfg": false,
      "metar_trigger": false,
      "taf_trigger": false,
      "metar": "METAR EPGD 291130Z 07011KT 9999 -SG OVC004 M07/M08 Q1008",
      "taf": "TAF EPGD 291130Z 2912/3012 08010KT 9999 OVC006"
    },
    {
      "icao": "EPKK",
      "alert": "OK",
      "vis_m": 9999,
      "fzfg": false,
      "metar_trigger": false,
      "taf_trigger": false,
      "metar": "METAR EPKK 291130Z 06012KT 9999 OVC008 M00/M02 Q1001",
      "taf": "TAF EPKK 291130Z 2912/3012 06011KT 8000 OVC008"
    },
    {
      "icao": "EPKT",
      "alert": "OK",
      "vis_m": 9999,
      "fzfg": false,
      "metar_trigger": false,
      "taf_trigger": false,
      "metar": "METAR EPKT 291130Z 06010KT 9999 SCT011 OVC014 M00/M03 Q1000",
      "taf": "TAF EPKT 291130Z 2912/3012 06011KT 9999 BKN013"
    },
    {
      "icao": "EPLB",
      "alert": "OK",
      "vis_m": 8000,
      "fzfg": false,
      "metar_trigger": false,
      "taf_trigger": false,
      "metar": "METAR EPLB 291130Z 03006KT 8000 BKN006 OVC016 M00/M01 Q1003",
      "taf": "TAF EPLB 291130Z 2912/3012 02008KT 7000 BKN016"
    },
    {
      "icao": "EPMO",
      "alert": "OK",
      "vis_m": 6000,
      "fzfg": false,
      "metar_trigger": false,
      "taf_trigger": false,
      "metar": "METAR EPMO 291130Z 05010KT 6000 SCT010 BKN029 M05/M06 Q1005",
      "taf": "TAF EPMO 291130Z 2912/3012 02008KT 7000 SCT010 BKN028"
    },
    {
      "icao": "EPPO",
      "alert": "OK",
      "vis_m": 9999,
      "fzfg": false,
      "metar_trigger": false,
      "taf_trigger": false,
      "metar": "METAR EPPO 291130Z 05007KT 9999 SCT009 OVC024 M05/M07 Q1005",
      "taf": "TAF EPPO 291130Z 2912/3012 06008KT 9999 OVC009"
    },
    {
      "icao": "EPRA",
      "alert": "OK",
      "vis_m": 7000,
      "fzfg": false,
      "metar_trigger": false,
      "taf_trigger": false,
      "metar": "METAR EPRA 291130Z 03006KT 7000 BKN006 OVC015 M01/M02 Q1003",
      "taf": "TAF EPRA 291130Z 2912/2921 04008KT 8000 BKN006 OVC015"
    },
    {
      "icao": "EPRZ",
      "alert": "OK",
      "vis_m": 9999,
      "fzfg": false,
      "metar_trigger": false,
      "taf_trigger": false,
      "metar": "METAR EPRZ 291130Z 07009KT 9999 OVC007 M01/M02 Q1001",
      "taf": "TAF EPRZ 291130Z 2912/3012 06010KT 9999 OVC012"
    },
    {
      "icao": "EPSC",
      "alert": "OK",
      "vis_m": 9999,
      "fzfg": false,
      "metar_trigger": false,
      "taf_trigger": false,
      "metar": "METAR EPSC 291130Z 05007KT 020V080 9999 SCT007 OVC009 M04/M05 Q1006",
      "taf": "TAF EPSC 291130Z 2912/3012 07010KT 9999 BKN006"
    },
    {
      "icao": "EPSY",
      "alert": "OK",
      "vis_m": 7000,
      "fzfg": false,
      "metar_trigger": false,
      "taf_trigger": false,
      "metar": "METAR EPSY 291130Z 03009KT 7000 -SG OVC007 M08/M09 Q1007",
      "taf": "TAF EPSY 291130Z 2912/2921 04010KT 8000 BKN007"
    },
    {
      "icao": "EPWA",
      "alert": "OK",
      "vis_m": 8000,
      "fzfg": false,
      "metar_trigger": false,
      "taf_trigger": false,
      "metar": "METAR EPWA 291130Z 04007KT 360V100 8000 BKN010 OVC029 M03/M05 Q1005 NOSIG",
      "taf": "TAF EPWA 291130Z 2912/3012 03008KT 8000 SCT008 BKN025"
    },
    {
      "icao": "EPWR",
      "alert": "OK",
      "vis_m": 9999,
      "fzfg": false,
      "metar_trigger": false,
      "taf_trigger": false,
      "metar": "METAR EPWR 291130Z 09006KT 9999 BKN014 01/M02 Q1002",
      "taf": "TAF EPWR 291130Z 2912/3012 08008KT 9999 OVC013"
    },
    {
      "icao": "ESGG",
      "alert": "OK",
      "vis_m": 9999,
      "fzfg": false,
      "metar_trigger": false,
      "taf_trigger": false,
      "metar": "METAR ESGG 291120Z 10010KT 9999 OVC028 M03/M10 Q1013",
      "taf": "TAF ESGG 291130Z 2912/3012 08010KT 9999 OVC025"
    },
    {
      "icao": "ESKN",
      "alert": "OK",
      "vis_m": 9999,
      "fzfg": false,
      "metar_trigger": false,
      "taf_trigger": false,
      "metar": "METAR ESKN 291120Z 09012KT 9999 BKN035 M03/M08 Q1016",
      "taf": "TAF ESKN 291130Z 2912/3012 08009KT 9999 BKN030"
    },
    {
      "icao": "ESMS",
      "alert": "OK",
      "vis_m": 9999,
      "fzfg": false,
      "metar_trigger": false,
      "taf_trigger": false,
      "metar": "METAR ESMS 291120Z 08013KT 9999 OVC021 M02/M06 Q1009",
      "taf": "TAF ESMS 291127Z 2912/3012 08018KT 9999 OVC020"
    },
    {
      "icao": "ESSA",
      "alert": "OK",
      "vis_m": 9999,
      "fzfg": false,
      "metar_trigger": false,
      "taf_trigger": false,
      "metar": "METAR ESSA 291120Z 03011KT 9999 -SN SCT018 BKN023 M06/M08 Q1018 NOSIG",
      "taf": "TAF ESSA 291130Z 2912/3012 05009KT 9999 BKN020"
    },
    {
      "icao": "EYKA",
      "alert": "OK",
      "vis_m": 9999,
      "fzfg": false,
      "metar_trigger": false,
      "taf_trigger": false,
      "metar": "METAR EYKA 291150Z 02007KT 330V060 9999 -SN BKN013 OVC022 M10/M13 Q1010",
      "taf": "TAF EYKA 291102Z 2912/3012 VRB04KT 9000 OVC015"
    },
    {
      "icao": "EYPA",
      "alert": "OK",
      "vis_m": 9999,
      "fzfg": false,
      "metar_trigger": false,
      "taf_trigger": false,
      "metar": "METAR EYPA 291150Z 06010KT CAVOK M09/M14 Q1012",
      "taf": "TAF EYPA 291100Z 2912/3012 07013KT 9000 NSC"
    },
    {
      "icao": "EYVI",
      "alert": "OK",
      "vis_m": 9000,
      "fzfg": false,
      "metar_trigger": false,
      "taf_trigger": false,
      "metar": "METAR EYVI 291150Z 04010KT 9000 -SN OVC012 M10/M12 Q1008 NOSIG",
      "taf": "TAF EYVI 291100Z 2912/3012 06011KT 7000 BKN010"
    },
    {
      "icao": "GCFV",
      "alert": "OK",
      "vis_m": 9999,
      "fzfg": false,
      "metar_trigger": false,
      "taf_trigger": false,
      "metar": "METAR GCFV 291130Z 32009KT 260V350 9999 BKN032 21/13 Q1025",
      "taf": "TAF GCFV 290800Z 2909/3009 33008KT 9999 BKN030 TX23/2914Z TN15/3006Z"
    },
    {
      "icao": "GCLP",
      "alert": "OK",
      "vis_m": 9999,
      "fzfg": false,
      "metar_trigger": false,
      "taf_trigger": false,
      "metar": "METAR GCLP 291130Z 36010KT 9999 BKN030 20/13 Q1025 NOSIG",
      "taf": ""
    },
    {
      "icao": "GCTS",
      "alert": "OK",
      "vis_m": 9999,
      "fzfg": false,
      "metar_trigger": false,
      "taf_trigger": false,
      "metar": "METAR GCTS 291130Z 13005KT 100V170 9999 BKN035 20/15 Q1026 NOSIG",
      "taf": ""
    },
    {
      "icao": "GMAD",
      "alert": "OK",
      "vis_m": 8000,
      "fzfg": false,
      "metar_trigger": false,
      "taf_trigger": false,
      "metar": "METAR GMAD 291130Z 13005KT 090V170 8000 SCT020 19/17 Q1022 NOSIG",
      "taf": "TAF GMAD 291100Z 2912/3018 28012KT 8000 SCT020 BKN080"
    },
    {
      "icao": "GMMN",
      "alert": "OK",
      "vis_m": 9999,
      "fzfg": false,
      "metar_trigger": false,
      "taf_trigger": false,
      "metar": "METAR GMMN 291130Z 23013KT 210V270 9999 BKN007 17/15 Q1022 NOSIG",
      "taf": "TAF GMMN 291100Z 2912/3018 23013KT 9999 BKN008"
    },
    {
      "icao": "GMMX",
      "alert": "OK",
      "vis_m": 8000,
      "fzfg": false,
      "metar_trigger": false,
      "taf_trigger": false,
      "metar": "METAR GMMX 291130Z VRB02KT 8000 SCT010 BKN016 15/13 Q1023 NOSIG",
      "taf": "TAF GMMX 291100Z 2912/3018 24010KT 8000 SCT020 SCT080"
    },
    {
      "icao": "HEGN",
      "alert": "OK",
      "vis_m": 9999,
      "fzfg": false,
      "metar_trigger": false,
      "taf_trigger": false,
      "metar": "METAR HEGN 291100Z 08004KT CAVOK 22/05 Q1019 NOSIG",
      "taf": "TAF HEGN 291100Z 2912/3018 06008KT CAVOK"
    },
    {
      "icao": "HEMA",
      "alert": "OK",
      "vis_m": 4000,
      "fzfg": false,
      "metar_trigger": false,
      "taf_trigger": false,
      "metar": "METAR HEMA 291100Z 04007KT 4000 DU NSC 22/09 Q1018 NOSIG",
      "taf": "TAF HEMA 291100Z 2912/3018 05008KT 6000 NSC"
    },
    {
      "icao": "HESH",
      "alert": "OK",
      "vis_m": 9999,
      "fzfg": false,
      "metar_trigger": false,
      "taf_trigger": false,
      "metar": "METAR HESH 291100Z 09005KT CAVOK 23/07 Q1019 NOSIG",
      "taf": "TAF HESH 291100Z 2912/3018 35008KT CAVOK"
    },
    {
      "icao": "HESX",
      "alert": "OK",
      "vis_m": 9999,
      "fzfg": false,
      "metar_trigger": false,
      "taf_trigger": false,
      "metar": "METAR HESX 291100Z 21009KT CAVOK 19/04 Q1019 NOSIG",
      "taf": "TAF HESX 291100Z 2912/3018 19012KT 9999 SCT025"
    },
    {
      "icao": "LATI",
      "alert": "OK",
      "vis_m": 9999,
      "fzfg": false,
      "metar_trigger": false,
      "taf_trigger": false,
      "metar": "METAR LATI 291150Z 35005KT 9999 BKN068 14/08 Q0992 NOSIG",
      "taf": "TAF LATI 291100Z 2912/3012 VRB05KT 9999 SCT040 BKN070 TX15/2912Z TN08/3005Z"
    },
    {
      "icao": "LBPD",
      "alert": "OK",
      "vis_m": 9999,
      "fzfg": false,
      "metar_trigger": false,
      "taf_trigger": false,
      "metar": "METAR LBPD 291130Z AUTO 29006KT 9999 SCT015/// OVC019/// 07/07 Q0996 NOSIG",
      "taf": "TAF LBPD 291100Z 2912/3012 VRB04KT 9999 -RA SCT020 BKN030"
    },
    {
      "icao": "LBSF",
      "alert": "OK",
      "vis_m": 9999,
      "fzfg": false,
      "metar_trigger": false,
      "taf_trigger": false,
      "metar": "METAR LBSF 291130Z 13005KT 110V170 9999 SCT048 OVC081 09/04 Q0996 NOSIG",
      "taf": "TAF LBSF 291100Z 2912/3012 12010KT 9999 SCT030 BKN050"
    },
    {
      "icao": "LBWN",
      "alert": "OK",
      "vis_m": 9000,
      "fzfg": false,
      "metar_trigger": false,
      "taf_trigger": false,
      "metar": "METAR LBWN 291130Z AUTO 11008KT 9000 RA BKN021/// 11/11 Q0998 TEMPO 5000 RA",
      "taf": "TAF LBWN 291100Z 2912/3012 09010KT 4000 RA BKN010 OVC030"
    },
    {
      "icao": "LCLK",
      "alert": "OK",
      "vis_m": 9999,
      "fzfg": false,
      "metar_trigger": false,
      "taf_trigger": false,
      "metar": "METAR LCLK 291130Z 20014KT 9999 FEW020 19/14 Q1015 NOSIG",
      "taf": "TAF LCLK 291130Z 2912/3012 22018KT 9999 FEW030 SCT040"
    },
    {
      "icao": "LCPH",
      "alert": "OK",
      "vis_m": 9999,
      "fzfg": false,
      "metar_trigger": false,
      "taf_trigger": false,
      "metar": "METAR LCPH 291130Z 17007KT 160V240 9999 SCT036 BKN045 18/14 Q1015 NOSIG",
      "taf": "TAF LCPH 291130Z 2912/3012 18016KT 9999 FEW030 SCT040"
    },
    {
      "icao": "LEAL",
      "alert": "OK",
      "vis_m": 9999,
      "fzfg": false,
      "metar_trigger": false,
      "taf_trigger": false,
      "metar": "METAR LEAL 291130Z 20004KT 160V230 9999 SCT069 18/08 Q1005 NOSIG",
      "taf": "TAF LEAL 291100Z 2912/3012 22010KT 9999 FEW040 TX21/2914Z TN11/3006Z"
    },
    {
      "icao": "LEBB",
      "alert": "OK",
      "vis_m": 9999,
      "fzfg": false,
      "metar_trigger": false,
      "taf_trigger": false,
      "metar": "METAR LEBB 291130Z 22007KT 170V260 9999 BKN065 15/07 Q0999 NOSIG",
      "taf": "TAF LEBB 291100Z 2912/3012 22009KT 9999 FEW030 TX17/2915Z TN08/3003Z"
    },
    {
      "icao": "LEBL",
      "alert": "OK",
      "vis_m": 9999,
      "fzfg": false,
      "metar_trigger": false,
      "taf_trigger": false,
      "metar": "METAR LEBL 291130Z 25012KT 9999 FEW047 14/07 Q1001 NOSIG",
      "taf": "TAF LEBL 291100Z 2912/3012 VRB04KT 9999 FEW025 TX15/2912Z TN09/3006Z"
    },
    {
      "icao": "LECH",
      "alert": "OK",
      "vis_m": 9999,
      "fzfg": false,
      "metar_trigger": false,
      "taf_trigger": false,
      "metar": "METAR LECH 291130Z AUTO 04003KT 360V100 CAVOK 11/05 Q1002",
      "taf": ""
    },
    {
      "icao": "LEMD",
      "alert": "OK",
      "vis_m": 4500,
      "fzfg": false,
      "metar_trigger": false,
      "taf_trigger": false,
      "metar": "SPECI LEMD 291149Z 22005KT 190V270 4500 DZ FEW009 OVC050 12/12 Q1003 TEMPO RA",
      "taf": "TAF LEMD 291100Z 2912/3018 24010KT 9999 SCT020 TX14/2915Z TN05/3007Z"
    },
    {
      "icao": "LEMG",
      "alert": "OK",
      "vis_m": 9999,
      "fzfg": false,
      "metar_trigger": false,
      "taf_trigger": false,
      "metar": "METAR LEMG 291130Z 21005KT 160V260 9999 FEW030 SCT050 21/14 Q1012 NOSIG",
      "taf": "TAF LEMG 291100Z 2912/3012 29007KT 9999 FEW020 BKN025 TX22/2914Z TN11/3006Z"
    },
    {
      "icao": "LEVC",
      "alert": "OK",
      "vis_m": 9999,
      "fzfg": false,
      "metar_trigger": false,
      "taf_trigger": false,
      "metar": "METAR LEVC 291130Z 28017KT 240V310 9999 FEW050 21/10 Q1002 NOSIG",
      "taf": "TAF LEVC 291100Z 2912/3012 27009KT 9999 FEW030 TX22/2914Z TN12/3006Z"
    },
    {
      "icao": "LEXJ",
      "alert": "OK",
      "vis_m": 9999,
      "fzfg": false,
      "metar_trigger": false,
      "taf_trigger": false,
      "metar": "METAR LEXJ 291130Z 22006KT 190V250 9999 FEW050 15/06 Q0998",
      "taf": "TAF LEXJ 290800Z 2909/3009 22009KT 9999 FEW040 TX16/2914Z TN09/3005Z"
    },
    {
      "icao": "LEZG",
      "alert": "OK",
      "vis_m": 9999,
      "fzfg": false,
      "metar_trigger": false,
      "taf_trigger": false,
      "metar": "METAR LEZG 291130Z 08006KT 040V110 9999 4000SW BCFG FEW070 08/08 Q1002 NOSIG",
      "taf": "TAF LEZG 291100Z 2912/3012 10006KT 9999 FEW040 TX14/2913Z TN08/3006Z"
    },
    {
      "icao": "LEZL",
      "alert": "OK",
      "vis_m": 9999,
      "fzfg": false,
      "metar_trigger": false,
      "taf_trigger": false,
      "metar": "METAR LEZL 291130Z 24018KT 9999 BKN012 18/16 Q1012 NOSIG",
      "taf": "TAF LEZL 290800Z 2909/3009 24012KT 8000 FEW010 BKN016 TX18/2915Z TN10/3007Z"
    },
    {
      "icao": "LFBD",
      "alert": "OK",
      "vis_m": 9999,
      "fzfg": false,
      "metar_trigger": false,
      "taf_trigger": false,
      "metar": "METAR LFBD 291130Z AUTO 21012KT 9999 -RA FEW031 SCT047 OVC058 10/07 Q0998 TEMPO 4000 SHRA BKN010 BKN030TCU",
      "taf": "TAF LFBD 291100Z 2912/3018 20010KT CAVOK TX12/2915Z TN08/2912Z"
    },
    {
      "icao": "LFLL",
      "alert": "OK",
      "vis_m": 9999,
      "fzfg": false,
      "metar_trigger": false,
      "taf_trigger": false,
      "metar": "METAR LFLL 291130Z VRB02KT 8000 FEW005 07/05 Q1000 BECMG CAVOK",
      "taf": "TAF LFLL 291100Z 2912/3018 VRB02KT CAVOK"
    },
    {
      "icao": "LFLS",
      "alert": "OK",
      "vis_m": 9999,
      "fzfg": false,
      "metar_trigger": false,
      "taf_trigger": false,
      "metar": "METAR LFLS 291130Z AUTO 29004KT 260V340 9999 FEW009 BKN025 06/04 Q1000 NOSIG",
      "taf": "TAF LFLS 290800Z 2909/3009 VRB03KT CAVOK"
    },
    {
      "icao": "LFMN",
      "alert": "OK",
      "vis_m": 9999,
      "fzfg": false,
      "metar_trigger": false,
      "taf_trigger": false,
      "metar": "METAR LFMN 291130Z 24005KT 200V280 CAVOK 12/04 Q0995 NOSIG",
      "taf": "TAF LFMN 290800Z 2909/3015 33010KT CAVOK"
    },
    {
      "icao": "LFOB",
      "alert": "OK",
      "vis_m": 350,
      "fzfg": false,
      "metar_trigger": false,
      "taf_trigger": false,
      "metar": "METAR LFOB 291130Z AUTO 13006KT 0350 0300 R30/0400N R12/0400N FG VV/// 01/01 Q0998 BECMG 9999 NSW BKN008 OVC012",
      "taf": "TAF LFOB 291100Z 2912/3012 16007KT 3000 BR OVC003"
    },
    {
      "icao": "LFPO",
      "alert": "OK",
      "vis_m": 2000,
      "fzfg": false,
      "metar_trigger": false,
      "taf_trigger": false,
      "metar": "METAR LFPO 291130Z 15005KT 110V200 2000 BR OVC003 03/03 Q0999 BECMG 4000 BR BKN004",
      "taf": "TAF LFPO 291100Z 2912/3018 16005KT 9999 BKN004"
    },
    {
      "icao": "LFSB",
      "alert": "OK",
      "vis_m": 9999,
      "fzfg": false,
      "metar_trigger": false,
      "taf_trigger": false,
      "metar": "METAR LFSB 291130Z AUTO 27006KT 240V330 9999 BKN017 OVC025 06/04 Q0999 NOSIG",
      "taf": "TAF LFSB 291100Z 2912/3012 17004KT 9999 SCT015 BKN030"
    },
    {
      "icao": "LGAV",
      "alert": "OK",
      "vis_m": 9999,
      "fzfg": false,
      "metar_trigger": false,
      "taf_trigger": false,
      "metar": "METAR LGAV 291120Z 19017KT 9999 SCT018TCU BKN035 BKN070 17/11 Q0995 NOSIG",
      "taf": "TAF LGAV 291100Z 2912/3012 19020KT 9999 SCT018 BKN070"
    },
    {
      "icao": "LGTS",
      "alert": "OK",
      "vis_m": 4000,
      "fzfg": false,
      "metar_trigger": false,
      "taf_trigger": false,
      "metar": "METAR LGTS 291120Z VRB01KT 4000 -RA SCT005 BKN020 10/10 Q0995 NOSIG",
      "taf": "TAF LGTS 291100Z 2912/3012 34010KT 9999 SCT008 BKN025"
    },
    {
      "icao": "LHBP",
      "alert": "OK",
      "vis_m": 9999,
      "fzfg": false,
      "metar_trigger": false,
      "taf_trigger": false,
      "metar": "METAR LHBP 291130Z 05006KT 020V080 9999 -RA OVC006 05/04 Q0996 NOSIG",
      "taf": "TAF LHBP 291115Z 2912/3012 06007KT 8000 -RA SCT006 OVC020"
    },
    {
      "icao": "LHDC",
      "alert": "OK",
      "vis_m": 9999,
      "fzfg": false,
      "metar_trigger": false,
      "taf_trigger": false,
      "metar": "METAR LHDC 291115Z AUTO 07008KT 9999 -DZ FEW037 SCT060 BKN098 07/06 Q0996 NOSIG",
      "taf": "TAF LHDC 291115Z 2912/2921 07009KT 9999 BKN040"
    },
    {
      "icao": "LIBD",
      "alert": "OK",
      "vis_m": 9999,
      "fzfg": false,
      "metar_trigger": false,
      "taf_trigger": false,
      "metar": "METAR LIBD 291120Z 31007KT 9999 SCT045 11/09 Q0994",
      "taf": "TAF LIBD 291100Z 2912/3012 29012KT 9999 FEW020 SCT050"
    },
    {
      "icao": "LIBG",
      "alert": "OK",
      "vis_m": 9999,
      "fzfg": false,
      "metar_trigger": false,
      "taf_trigger": false,
      "metar": "METAR LIBG 291050Z 02008KT 9999 FEW025 14/07 Q0993",
      "taf": "TAF LIBG 291100Z 2912/2921 33015KT 9999 SCT030"
    },
    {
      "icao": "LIBP",
      "alert": "OK",
      "vis_m": 9999,
      "fzfg": false,
      "metar_trigger": false,
      "taf_trigger": false,
      "metar": "METAR LIBP 291120Z AUTO 21010KT 9999 BKN120/// 13/04 Q0995",
      "taf": "TAF LIBP 291100Z 2912/3012 36010KT 9999 SCT060"
    },
    {
      "icao": "LIBR",
      "alert": "OK",
      "vis_m": 9999,
      "fzfg": false,
      "metar_trigger": false,
      "taf_trigger": false,
      "metar": "METAR LIBR 291120Z 01007KT 9999 -RA BKN025 12/10 Q0993",
      "taf": "TAF LIBR 291100Z 2912/3012 33015KT 9999 SCT020"
    },
    {
      "icao": "LICA",
      "alert": "OK",
      "vis_m": 7000,
      "fzfg": false,
      "metar_trigger": false,
      "taf_trigger": false,
      "metar": "METAR LICA 291120Z AUTO 28027KT 7000 R28/1300U -RA BKN014/// BKN056/// 13/12 Q0995",
      "taf": "TAF LICA 291100Z 2912/3012 27022G34KT 9999 BKN020"
    },
    {
      "icao": "LICC",
      "alert": "OK",
      "vis_m": 9999,
      "fzfg": false,
      "metar_trigger": false,
      "taf_trigger": false,
      "metar": "METAR LICC 291120Z 28022G35KT 9999 SCT040 17/14 Q0998",
      "taf": "TAF LICC 291100Z 2912/3012 26025G37KT 9999 SCT030"
    },
    {
      "icao": "LICJ",
      "alert": "OK",
      "vis_m": 9999,
      "fzfg": false,
      "metar_trigger": false,
      "taf_trigger": false,
      "metar": "METAR LICJ 291120Z 27021KT 9999 SCT035 14/08 Q1002",
      "taf": "TAF LICJ 291100Z 2912/3012 29026G36KT 9999 SCT040"
    },
    {
      "icao": "LIMC",
      "alert": "OK",
      "vis_m": 800,
      "fzfg": false,
      "metar_trigger": false,
      "taf_trigger": false,
      "metar": "METAR LIMC 291120Z VRB01KT 0800 R35R/1500D R17L/1700N R35L/1200U FG VV002 04/04 Q0996 BECMG 1500 BR",
      "taf": "TAF LIMC 291100Z 2912/3018 VRB05KT 1200 BCFG OVC005"
    },
    {
      "icao": "LIME",
      "alert": "OK",
      "vis_m": 6000,
      "fzfg": false,
      "metar_trigger": false,
      "taf_trigger": false,
      "metar": "METAR LIME 291120Z VRB01KT 6000 SCT007 BKN040 06/05 Q0996 NOSIG",
      "taf": "TAF LIME 291100Z 2912/3012 VRB04KT 6000 SCT015"
    },
    {
      "icao": "LIMF",
      "alert": "OK",
      "vis_m": 6000,
      "fzfg": false,
      "metar_trigger": false,
      "taf_trigger": false,
      "metar": "METAR LIMF 291120Z VRB03KT 6000 NSC 08/04 Q0995",
      "taf": "TAF LIMF 291100Z 2912/3012 VRB04KT 7000 SCT020"
    },
    {
      "icao": "LIMJ",
      "alert": "OK",
      "vis_m": 9999,
      "fzfg": false,
      "metar_trigger": false,
      "taf_trigger": false,
      "metar": "METAR LIMJ 291120Z 30008KT 9999 FEW020 13/03 Q0995",
      "taf": "TAF LIMJ 291100Z 2912/3012 04010KT 9999 SCT040"
    },
    {
      "icao": "LIPE",
      "alert": "OK",
      "vis_m": 9999,
      "fzfg": false,
      "metar_trigger": false,
      "taf_trigger": false,
      "metar": "METAR LIPE 291120Z 29005KT 270V330 9999 BKN014 08/05 Q0996",
      "taf": "TAF LIPE 291100Z 2912/3012 VRB05KT 8000 SCT020"
    },
    {
      "icao": "LIPH",
      "alert": "OK",
      "vis_m": 8000,
      "fzfg": false,
      "metar_trigger": false,
      "taf_trigger": false,
      "metar": "METAR LIPH 291120Z 10005KT 8000 BKN007 07/07 Q0996",
      "taf": "TAF LIPH 291100Z 2912/3012 VRB05KT 6000 BKN003"
    },
    {
      "icao": "LIPQ",
      "alert": "OK",
      "vis_m": 9999,
      "fzfg": false,
      "metar_trigger": false,
      "taf_trigger": false,
      "metar": "METAR LIPQ 291120Z AUTO VRB01KT 9999 BKN010/// BKN027/// BKN071/// 11/08 Q0996",
      "taf": "TAF LIPQ 291100Z 2912/3012 VRB05KT 9999 OVC010"
    },
    {
      "icao": "LIPR",
      "alert": "OK",
      "vis_m": 2000,
      "fzfg": false,
      "metar_trigger": false,
      "taf_trigger": false,
      "metar": "METAR LIPR 291120Z 32006KT 290V350 2000 BR BKN002 06/06 Q0996",
      "taf": "TAF LIPR 291100Z 2912/3012 VRB05KT 2000 BR BKN002"
    },
    {
      "icao": "LIPX",
      "alert": "OK",
      "vis_m": 4000,
      "fzfg": false,
      "metar_trigger": false,
      "taf_trigger": false,
      "metar": "METAR LIPX 291120Z VRB01KT 4000 BR SCT005 BKN006 07/06 Q0996",
      "taf": "TAF LIPX 291100Z 2912/3012 24006KT 4000 BR SCT020"
    },
    {
      "icao": "LIPY",
      "alert": "OK",
      "vis_m": 9999,
      "fzfg": false,
      "metar_trigger": false,
      "taf_trigger": false,
      "metar": "METAR LIPY 291120Z AUTO 24005KT 9999 BKN130/// 13/06 Q0995",
      "taf": "TAF LIPY 291100Z 2912/3012 VRB06KT CAVOK"
    },
    {
      "icao": "LIPZ",
      "alert": "OK",
      "vis_m": 1500,
      "fzfg": false,
      "metar_trigger": false,
      "taf_trigger": false,
      "metar": "METAR LIPZ 291120Z 09003KT 1500 BR BKN001 06/06 Q0996 BECMG 5000 BR",
      "taf": "TAF LIPZ 291100Z 2912/3018 24006KT 1000 BR BKN003"
    },
    {
      "icao": "LIRF",
      "alert": "OK",
      "vis_m": 9999,
      "fzfg": false,
      "metar_trigger": false,
      "taf_trigger": false,
      "metar": "METAR LIRF 291120Z 22007KT 170V270 9999 SCT025 14/08 Q0995 NOSIG",
      "taf": "TAF LIRF 291100Z 2912/3018 18009KT 9999 SCT030"
    },
    {
      "icao": "LIRN",
      "alert": "OK",
      "vis_m": 9999,
      "fzfg": false,
      "metar_trigger": false,
      "taf_trigger": false,
      "metar": "METAR LIRN 291120Z 33004KT 270V020 9999 BKN055 12/06 Q0996 NOSIG",
      "taf": "TAF LIRN 291100Z 2912/3012 32013KT 9999 SCT030"
    },
    {
      "icao": "LIRP",
      "alert": "OK",
      "vis_m": 9999,
      "fzfg": false,
      "metar_trigger": false,
      "taf_trigger": false,
      "metar": "METAR LIRP 291115Z 04003KT 9999 BKN015 11/09 Q0995 NOSIG",
      "taf": "TAF LIRP 291100Z 2912/3012 12005KT 9999 SCT020"
    },
    {
      "icao": "LIRZ",
      "alert": "OK",
      "vis_m": 9999,
      "fzfg": false,
      "metar_trigger": false,
      "taf_trigger": false,
      "metar": "METAR LIRZ 291120Z AUTO 16003KT 100V230 9999 FEW020/// 12/07 Q0995",
      "taf": "TAF LIRZ 291100Z 2912/3012 VRB05KT 7000 BKN025"
    },
    {
      "icao": "LJLJ",
      "alert": "OK",
      "vis_m": 9999,
      "fzfg": false,
      "metar_trigger": false,
      "taf_trigger": false,
      "metar": "METAR LJLJ 291130Z 10004KT 9999 SCT003 OVC010 06/05 Q0995 NOSIG",
      "taf": "TAF LJLJ 291100Z 2912/3012 29005KT 9999 BKN003 OVC010"
    },
    {
      "icao": "LKMT",
      "alert": "OK",
      "vis_m": 4000,
      "fzfg": false,
      "metar_trigger": false,
      "taf_trigger": false,
      "metar": "METAR LKMT 291130Z 04010KT 4000 -SN BR OVC007 M00/M01 Q1000 NOSIG",
      "taf": "TAF LKMT 291100Z 2912/3012 03008KT 4500 BR OVC006"
    },
    {
      "icao": "LKPR",
      "alert": "OK",
      "vis_m": 2800,
      "fzfg": false,
      "metar_trigger": false,
      "taf_trigger": false,
      "metar": "METAR LKPR 291130Z 08009KT 2800 -SN BR BKN003 OVC005 M01/M01 Q0998 NOSIG",
      "taf": "TAF LKPR 291100Z 2912/3018 06009KT 3000 -SN BR OVC005"
    },
    {
      "icao": "LLBG",
      "alert": "OK",
      "vis_m": 9999,
      "fzfg": false,
      "metar_trigger": false,
      "taf_trigger": false,
      "metar": "METAR LLBG 291120Z 23006KT 200V270 9999 FEW045 19/09 Q1018 NOSIG RMK SCT072",
      "taf": "TAF LLBG 291102Z 2912/3012 18010KT 9999 SCT035"
    },
    {
      "icao": "LMML",
      "alert": "OK",
      "vis_m": 9999,
      "fzfg": false,
      "metar_trigger": false,
      "taf_trigger": false,
      "metar": "METAR LMML 291145Z 27026G43KT 9999 FEW021 15/11 Q1004 NOSIG",
      "taf": "TAF LMML 291100Z 2912/3012 27028G38KT 9999 FEW018"
    },
    {
      "icao": "LOWW",
      "alert": "OK",
      "vis_m": 9000,
      "fzfg": false,
      "metar_trigger": false,
      "taf_trigger": false,
      "metar": "METAR LOWW 291120Z 02006KT 9000 -RA FEW002 SCT003 BKN006 03/02 Q0998 TEMPO FEW002 BKN003",
      "taf": "TAF LOWW 291115Z 2912/3018 34007KT 9999 -RA SCT006 BKN015 TX03/3012Z TNM00/3006Z"
    },
    {
      "icao": "LPFR",
      "alert": "OK",
      "vis_m": 8000,
      "fzfg": false,
      "metar_trigger": false,
      "taf_trigger": false,
      "metar": "METAR LPFR 291130Z 24019KT 8000 BKN005 BKN008 16/15 Q1013",
      "taf": "TAF LPFR 291100Z 2912/3012 25018KT 8000 SCT006 BKN012"
    },
    {
      "icao": "LPMA",
      "alert": "OK",
      "vis_m": 9999,
      "fzfg": false,
      "metar_trigger": false,
      "taf_trigger": false,
      "metar": "METAR LPMA 291130Z 17004KT 110V220 9999 FEW014 20/15 Q1023",
      "taf": "TAF LPMA 291100Z 2912/3012 VRB05KT 9999 SCT015"
    },
    {
      "icao": "LPPR",
      "alert": "OK",
      "vis_m": 9000,
      "fzfg": false,
      "metar_trigger": false,
      "taf_trigger": false,
      "metar": "METAR LPPR 291130Z 21009KT 180V240 9000 FEW016 BKN030 14/13 Q1005",
      "taf": "TAF LPPR 291100Z 2912/3012 25013KT 9999 SCT020"
    },
    {
      "icao": "LPPS",
      "alert": "OK",
      "vis_m": 9999,
      "fzfg": false,
      "metar_trigger": false,
      "taf_trigger": false,
      "metar": "METAR LPPS 291130Z 28015KT 9999 SCT011 19/16 Q1023",
      "taf": "TAF LPPS 291100Z 2912/3018 28013KT 9999 SCT012"
    },
    {
      "icao": "LPPT",
      "alert": "OK",
      "vis_m": 2000,
      "fzfg": false,
      "metar_trigger": false,
      "taf_trigger": false,
      "metar": "METAR LPPT 291130Z 24012KT 2000 RADZ BR FEW002 BKN004 16/16 Q1010 REDZ WS R20",
      "taf": "TAF LPPT 291100Z 2912/3018 25015KT 6000 -RA SCT004 BKN008"
    },
    {
      "icao": "LQBK",
      "alert": "OK",
      "vis_m": 9999,
      "fzfg": false,
      "metar_trigger": false,
      "taf_trigger": false,
      "metar": "METAR LQBK 291130Z 02005KT 9999 FEW020 10/07 Q0995 NOSIG",
      "taf": "TAF LQBK 291100Z 2912/3012 VRB03KT 9999 SCT045 TX11/2913Z TN02/3006Z"
    },
    {
      "icao": "LQSA",
      "alert": "OK",
      "vis_m": 9999,
      "fzfg": false,
      "metar_trigger": false,
      "taf_trigger": false,
      "metar": "METAR LQSA 291130Z VRB02KT CAVOK 11/03 Q0994 NOSIG",
      "taf": "TAF LQSA 291100Z 2912/3012 VRB02KT 9999 SCT050 TX12/2914Z TN03/3005Z"
    },
    {
      "icao": "LQTZ",
      "alert": "OK",
      "vis_m": 9999,
      "fzfg": false,
      "metar_trigger": false,
      "taf_trigger": false,
      "metar": "METAR LQTZ 291130Z 31004KT 250V010 9999 FEW060 14/03 Q0994",
      "taf": "TAF LQTZ 291100Z 2912/3012 27005KT 9999 SCT050 TX15/2913Z TN02/3006Z"
    },
    {
      "icao": "LRBC",
      "alert": "OK",
      "vis_m": 9999,
      "fzfg": false,
      "metar_trigger": false,
      "taf_trigger": false,
      "metar": "METAR LRBC 291130Z 35009KT 9999 OVC005 04/04 Q0999",
      "taf": "TAF LRBC 291100Z 2912/2921 35008KT 9999 OVC005"
    },
    {
      "icao": "LRBS",
      "alert": "OK",
      "vis_m": 9999,
      "fzfg": false,
      "metar_trigger": false,
      "taf_trigger": false,
      "metar": "METAR LRBS 291130Z 08004KT 030V110 CAVOK 12/05 Q0997 NOSIG",
      "taf": "TAF LRBS 291100Z 2912/3012 VRB04KT CAVOK"
    },
    {
      "icao": "LRBV",
      "alert": "OK",
      "vis_m": 9999,
      "fzfg": false,
      "metar_trigger": false,
      "taf_trigger": false,
      "metar": "METAR LRBV 291130Z 07007KT CAVOK 10/02 Q0995",
      "taf": "TAF LRBV 291100Z 2912/2921 08005KT CAVOK"
    },
    {
      "icao": "LRCL",
      "alert": "OK",
      "vis_m": 3000,
      "fzfg": false,
      "metar_trigger": false,
      "taf_trigger": false,
      "metar": "METAR LRCL 291130Z 06005KT 3000 -RA BR SCT003 OVC015 03/02 Q0997",
      "taf": "TAF LRCL 291100Z 2912/2921 VRB04KT 2000 -RA BR BKN005 OVC020"
    },
    {
      "icao": "LRCV",
      "alert": "OK",
      "vis_m": 9999,
      "fzfg": false,
      "metar_trigger": false,
      "taf_trigger": false,
      "metar": "METAR LRCV 291130Z 10007KT CAVOK 09/05 Q0997",
      "taf": "TAF LRCV 291100Z 2912/2921 VRB04KT CAVOK"
    },
    {
      "icao": "LRIA",
      "alert": "OK",
      "vis_m": 1900,
      "fzfg": false,
      "metar_trigger": false,
      "taf_trigger": false,
      "metar": "METAR LRIA 291130Z COR 32005KT 1900 BR OVC001 02/02 Q0999",
      "taf": "TAF LRIA 291100Z 2912/2921 32007KT 1500 BR OVC001"
    },
    {
      "icao": "LROP",
      "alert": "OK",
      "vis_m": 9999,
      "fzfg": false,
      "metar_trigger": false,
      "taf_trigger": false,
      "metar": "METAR LROP 291130Z 09004KT 050V120 CAVOK 12/04 Q0997 NOSIG",
      "taf": "TAF LROP 291100Z 2912/3012 VRB04KT CAVOK"
    },
    {
      "icao": "LRSB",
      "alert": "OK",
      "vis_m": 9999,
      "fzfg": false,
      "metar_trigger": false,
      "taf_trigger": false,
      "metar": "METAR LRSB 291130Z 10005KT 070V160 9999 FEW065 10/03 Q0995 NOSIG",
      "taf": "TAF LRSB 291100Z 2912/3012 VRB04KT CAVOK"
    },
    {
      "icao": "LRSM",
      "alert": "OK",
      "vis_m": 9999,
      "fzfg": false,
      "metar_trigger": false,
      "taf_trigger": false,
      "metar": "METAR LRSM 291130Z 14006KT 9999 -RA FEW030 OVC037 07/04 Q0997",
      "taf": "TAF LRSM 291100Z 2912/2921 VRB04KT 9999 BKN040"
    },
    {
      "icao": "LRSV",
      "alert": "OK",
      "vis_m": 3000,
      "fzfg": false,
      "metar_trigger": false,
      "taf_trigger": false,
      "metar": "METAR LRSV 291130Z 35006KT 3000 BR OVC004 00/M00 Q0998",
      "taf": "TAF LRSV 291100Z 2912/2921 35006KT 3000 BR OVC005"
    },
    {
      "icao": "LRTM",
      "alert": "OK",
      "vis_m": 6000,
      "fzfg": false,
      "metar_trigger": false,
      "taf_trigger": false,
      "metar": "METAR LRTM 291130Z 09004KT 6000 FEW014 SCT037 04/02 Q0997",
      "taf": "TAF LRTM 291100Z 2912/2921 VRB04KT 5000 BR SCT010 BKN035"
    },
    {
      "icao": "LRTR",
      "alert": "OK",
      "vis_m": 9999,
      "fzfg": false,
      "metar_trigger": false,
      "taf_trigger": false,
      "metar": "METAR LRTR 291130Z 15006KT 9999 FEW038 10/07 Q0995 NOSIG",
      "taf": "TAF LRTR 291100Z 2912/3012 VRB04KT CAVOK"
    },
    {
      "icao": "LTAC",
      "alert": "OK",
      "vis_m": 9999,
      "fzfg": false,
      "metar_trigger": false,
      "taf_trigger": false,
      "metar": "METAR LTAC 291120Z 03004KT 360V060 9999 SCT040 BKN100 06/03 Q1009 NOSIG RMK RWY21C 06003KT RWY03L 04004KT RWY21R 03004KT 330V070 RWY03R 03003KT RWY21L 02003KT 320V060",
      "taf": "TAF LTAC 291040Z 2912/3012 17013KT 9999 SCT033 BKN090"
    },
    {
      "icao": "LTFM",
      "alert": "OK",
      "vis_m": 9999,
      "fzfg": false,
      "metar_trigger": false,
      "taf_trigger": false,
      "metar": "METAR LTFM 291120Z 19016KT 9999 -SHRA BKN032 BKN100 14/08 Q1000 NOSIG RMK RWY17L 18018KT RWY34L 18015KT RWY16R 19015KT RWY36 19017KT RWY18 19020KT",
      "taf": "TAF LTFM 291040Z 2912/3018 15015G25KT 9999 SCT035 BKN100"
    },
    {
      "icao": "LUKK",
      "alert": "OK",
      "vis_m": 300,
      "fzfg": false,
      "metar_trigger": false,
      "taf_trigger": false,
      "metar": "METAR LUKK 291130Z 17001KT 0300 0200SW R08/0275N FG VV001 03/03 Q0998 NOSIG",
      "taf": "TAF LUKK 291114Z 2912/3012 VRB04KT 0300 FG VV001"
    },
    {
      "icao": "LWOH",
      "alert": "OK",
      "vis_m": 9999,
      "fzfg": false,
      "metar_trigger": false,
      "taf_trigger": false,
      "metar": "METAR LWOH 291150Z 34007KT 9999 -RA SCT020 OVC037 08/06 Q0993",
      "taf": "TAF LWOH 291140Z 2912/3012 VRB02KT 9999 FEW020 SCT035 OVC040"
    },
    {
      "icao": "LWSK",
      "alert": "OK",
      "vis_m": 6000,
      "fzfg": false,
      "metar_trigger": false,
      "taf_trigger": false,
      "metar": "METAR LWSK 291150Z VRB01KT 6000 -RA FEW020 SCT035 OVC070 06/05 Q0995 NOSIG",
      "taf": "TAF LWSK 291140Z 2912/3012 VRB02KT 5000 RA FEW020 SCT035 OVC070"
    },
    {
      "icao": "LYBE",
      "alert": "OK",
      "vis_m": 9999,
      "fzfg": false,
      "metar_trigger": false,
      "taf_trigger": false,
      "metar": "METAR LYBE 291130Z 24006KT 180V270 CAVOK 14/04 Q0995 NOSIG",
      "taf": "TAF LYBE 291100Z 2912/3012 19005KT CAVOK TX14/2913Z TN04/3006Z"
    },
    {
      "icao": "LYNI",
      "alert": "OK",
      "vis_m": 9999,
      "fzfg": false,
      "metar_trigger": false,
      "taf_trigger": false,
      "metar": "METAR LYNI 291130Z 00000KT CAVOK 14/04 Q0994 NOSIG",
      "taf": "TAF LYNI 291100Z 2912/3012 04007KT 9999 BKN080 TX15/2913Z TN04/3006Z"
    },
    {
      "icao": "LYPG",
      "alert": "OK",
      "vis_m": 9999,
      "fzfg": false,
      "metar_trigger": false,
      "taf_trigger": false,
      "metar": "METAR LYPG 291130Z 33003KT 300V360 9999 FEW013 SCT050 OVC080 11/08 Q0993 NOSIG",
      "taf": "TAF LYPG 291100Z 2912/3012 18005KT 9999 FEW020 SCT050 BKN083 TX13/2913Z TN06/3005Z"
    },
    {
      "icao": "LZIB",
      "alert": "OK",
      "vis_m": 9999,
      "fzfg": false,
      "metar_trigger": false,
      "taf_trigger": false,
      "metar": "METAR LZIB 291130Z 29007KT 9999 -RA FEW009 BKN014 BKN020 04/03 Q0997 NOSIG",
      "taf": "TAF LZIB 291115Z 2912/3012 32005KT 9999 -RA FEW010 BKN016 OVC020"
    },
    {
      "icao": "LZKZ",
      "alert": "OK",
      "vis_m": 9999,
      "fzfg": false,
      "metar_trigger": false,
      "taf_trigger": false,
      "metar": "METAR LZKZ 291130Z 36014KT 9999 -RA FEW005 BKN038 OVC046 04/01 Q0997 NOSIG",
      "taf": "TAF LZKZ 291115Z 2912/3012 01013KT 9999 FEW005 OVC030"
    },
    {
      "icao": "LZTT",
      "alert": "OK",
      "vis_m": 5000,
      "fzfg": false,
      "metar_trigger": false,
      "taf_trigger": false,
      "metar": "METAR LZTT 291130Z 08005KT 5000 -SN FEW004 SCT010 OVC018 01/M00 Q0997 NOSIG",
      "taf": "TAF LZTT 291115Z 2912/3012 07007KT 6000 -SN SCT010 BKN020"
    },
    {
      "icao": "OEJN",
      "alert": "OK",
      "vis_m": 9999,
      "fzfg": false,
      "metar_trigger": false,
      "taf_trigger": false,
      "metar": "METAR OEJN 291100Z 30008KT CAVOK 29/09 Q1014 NOSIG",
      "taf": "TAF OEJN 291100Z 2912/3018 30015KT CAVOK"
    },
    {
      "icao": "OEMA",
      "alert": "OK",
      "vis_m": 9999,
      "fzfg": false,
      "metar_trigger": false,
      "taf_trigger": false,
      "metar": "METAR OEMA 291100Z 13007KT CAVOK 23/M05 Q1020 NOSIG",
      "taf": "TAF OEMA 291100Z 2912/3018 09010KT CAVOK"
    },
    {
      "icao": "OJAI",
      "alert": "OK",
      "vis_m": 4000,
      "fzfg": false,
      "metar_trigger": false,
      "taf_trigger": false,
      "metar": "METAR OJAI 291100Z 24012KT 4000 BR SCT030 12/05 Q1020 NOSIG",
      "taf": "TAF OJAI 290955Z 2912/3018 26012KT 5000 HZ SCT025 SCT030"
    },
    {
      "icao": "OMAA",
      "alert": "OK",
      "vis_m": 9999,
      "fzfg": false,
      "metar_trigger": false,
      "taf_trigger": false,
      "metar": "METAR OMAA 291130Z 31010KT 280V340 CAVOK 26/09 Q1015 NOSIG",
      "taf": "TAF OMAA 291100Z 2912/3018 32010KT 8000 NSC"
    },
    {
      "icao": "OMDB",
      "alert": "OK",
      "vis_m": 9999,
      "fzfg": false,
      "metar_trigger": false,
      "taf_trigger": false,
      "metar": "METAR OMDB 291130Z 28009KT 220V320 CAVOK 26/08 Q1016 NOSIG",
      "taf": "TAF OMDB 291100Z 2912/3018 29012KT 8000 FEW045"
    },
    {
      "icao": "UAAA",
      "alert": "OK",
      "vis_m": 2600,
      "fzfg": false,
      "metar_trigger": false,
      "taf_trigger": false,
      "metar": "METAR UAAA 291130Z 02002MPS 2600 BR OVC014 M01/M02 Q1028 NOSIG",
      "taf": "TAF UAAA 291105Z 2912/3012 02002MPS 1100 BR BKN004 OVC011 TXM01/3008Z TNM06/3002Z"
    },
    {
      "icao": "UBBB",
      "alert": "OK",
      "vis_m": 9999,
      "fzfg": false,
      "metar_trigger": false,
      "taf_trigger": false,
      "metar": "METAR UBBB 291130Z 15008KT 9999 FEW023 07/04 Q1013 NOSIG",
      "taf": "TAF UBBB 291048Z 2912/3012 17006KT 9999 BKN030 TX07/2912Z TN04/3001Z"
    },
    {
      "icao": "UDSG",
      "alert": "OK",
      "vis_m": 7000,
      "fzfg": false,
      "metar_trigger": false,
      "taf_trigger": false,
      "metar": "METAR UDSG 291130Z 13003KT 7000 NSC M04/M08 Q1015 NOSIG",
      "taf": "TAF UDSG 291100Z 2912/3012 VRB06KT 5000 BR FEW040"
    },
    {
      "icao": "UDYZ",
      "alert": "OK",
      "vis_m": 4200,
      "fzfg": false,
      "metar_trigger": false,
      "taf_trigger": false,
      "metar": "METAR UDYZ 291130Z 14003KT 070V170 4200 BR FEW019 00/M06 Q1017 NOSIG",
      "taf": "TAF UDYZ 291100Z 2912/3012 VRB04KT 2300 BR FEW020"
    },
    {
      "icao": "UGKO",
      "alert": "OK",
      "vis_m": 9999,
      "fzfg": false,
      "metar_trigger": false,
      "taf_trigger": false,
      "metar": "METAR UGKO 291130Z VRB02KT CAVOK 16/M01 Q1010 NOSIG",
      "taf": "TAF UGKO 291100Z 2912/3012 09007KT CAVOK TX17/2912Z TN05/3003Z"
    }
  ]
}