{
  "ts_utc": "2026-05-10T06:41:26Z",
  "threshold_m": 150,
  "source": "stations_override.txt (ICAO list) + aviationweather.gov (METAR/TAF raw)",
  "station_count": 159,
  "stations": [
    {
      "icao": "BIKF",
      "alert": "OK",
      "vis_m": 1500,
      "fzfg": false,
      "metar_trigger": false,
      "taf_trigger": false,
      "metar": "METAR BIKF 100630Z 30004KT 1500 BR OVC003 06/06 Q1021",
      "taf": "TAF BIKF 100455Z 1006/1106 27005KT 9999 BKN008 OVC014 TX07/1013Z TN06/1106Z"
    },
    {
      "icao": "BKPR",
      "alert": "OK",
      "vis_m": 300,
      "fzfg": false,
      "metar_trigger": false,
      "taf_trigger": false,
      "metar": "METAR BKPR 100630Z 03003KT 0300 R17/0550N R35/0550N FG BKN003 10/10 Q1018 BECMG 3000 BR SCT010",
      "taf": "TAF BKPR 100530Z 1006/1106 24006KT 0200 FG BKN003"
    },
    {
      "icao": "EBCI",
      "alert": "OK",
      "vis_m": 9999,
      "fzfg": false,
      "metar_trigger": false,
      "taf_trigger": false,
      "metar": "METAR EBCI 100620Z 02011KT 340V040 CAVOK 11/07 Q1014 NOSIG",
      "taf": "TAF EBCI 100501Z 1006/1112 04008KT CAVOK"
    },
    {
      "icao": "EDDB",
      "alert": "OK",
      "vis_m": 9999,
      "fzfg": false,
      "metar_trigger": false,
      "taf_trigger": false,
      "metar": "METAR EDDB 100620Z AUTO 12003KT 090V150 CAVOK 11/08 Q1015 NOSIG",
      "taf": "TAF EDDB 100500Z 1006/1106 12005KT CAVOK"
    },
    {
      "icao": "EDDH",
      "alert": "OK",
      "vis_m": 9999,
      "fzfg": false,
      "metar_trigger": false,
      "taf_trigger": false,
      "metar": "METAR EDDH 100620Z AUTO VRB01KT CAVOK 13/07 Q1015 NOSIG",
      "taf": "TAF EDDH 100500Z 1006/1112 VRB03KT 9999 SCT040"
    },
    {
      "icao": "EDDK",
      "alert": "OK",
      "vis_m": 9999,
      "fzfg": false,
      "metar_trigger": false,
      "taf_trigger": false,
      "metar": "METAR EDDK 100620Z AUTO VRB02KT CAVOK 12/08 Q1013 NOSIG",
      "taf": "TAF EDDK 100500Z 1006/1112 VRB03KT CAVOK"
    },
    {
      "icao": "EDDN",
      "alert": "OK",
      "vis_m": 9999,
      "fzfg": false,
      "metar_trigger": false,
      "taf_trigger": false,
      "metar": "METAR EDDN 100620Z AUTO 13004KT 090V190 CAVOK 15/08 Q1013 NOSIG",
      "taf": "TAF EDDN 100500Z 1006/1106 08007KT CAVOK"
    },
    {
      "icao": "EDDS",
      "alert": "OK",
      "vis_m": 9999,
      "fzfg": false,
      "metar_trigger": false,
      "taf_trigger": false,
      "metar": "METAR EDDS 100620Z AUTO 08003KT 040V140 CAVOK 15/08 Q1011 NOSIG",
      "taf": "TAF EDDS 100500Z 1006/1106 VRB03KT CAVOK"
    },
    {
      "icao": "EDFH",
      "alert": "OK",
      "vis_m": 9999,
      "fzfg": false,
      "metar_trigger": false,
      "taf_trigger": false,
      "metar": "METAR EDFH 100620Z 10003KT 050V140 CAVOK 14/08 Q1012",
      "taf": "TAF EDFH 100500Z 1006/1106 07006KT CAVOK"
    },
    {
      "icao": "EDJA",
      "alert": "OK",
      "vis_m": 9999,
      "fzfg": false,
      "metar_trigger": false,
      "taf_trigger": false,
      "metar": "METAR EDJA 100620Z VRB02KT CAVOK 10/07 Q1012",
      "taf": "TAF EDJA 100500Z 1006/1015 VRB02KT CAVOK"
    },
    {
      "icao": "EDLW",
      "alert": "OK",
      "vis_m": 9999,
      "fzfg": false,
      "metar_trigger": false,
      "taf_trigger": false,
      "metar": "METAR EDLW 100620Z VRB02KT CAVOK 12/09 Q1013",
      "taf": "TAF EDLW 100500Z 1006/1106 VRB03KT CAVOK"
    },
    {
      "icao": "EDNY",
      "alert": "OK",
      "vis_m": 9999,
      "fzfg": false,
      "metar_trigger": false,
      "taf_trigger": false,
      "metar": "METAR EDNY 100620Z 04005KT CAVOK 14/08 Q1011",
      "taf": "TAF EDNY 100500Z 1006/1015 05006KT CAVOK"
    },
    {
      "icao": "EDSB",
      "alert": "OK",
      "vis_m": 9999,
      "fzfg": false,
      "metar_trigger": false,
      "taf_trigger": false,
      "metar": "METAR EDSB 100620Z 02005KT 350V050 CAVOK 13/10 Q1011",
      "taf": "TAF EDSB 100500Z 1006/1106 02006KT CAVOK"
    },
    {
      "icao": "EETN",
      "alert": "OK",
      "vis_m": 9999,
      "fzfg": false,
      "metar_trigger": false,
      "taf_trigger": false,
      "metar": "METAR EETN 100620Z 12003KT CAVOK 10/01 Q1018 NOSIG",
      "taf": "TAF EETN 100530Z 1006/1106 12006KT CAVOK"
    },
    {
      "icao": "EFTU",
      "alert": "OK",
      "vis_m": 9999,
      "fzfg": false,
      "metar_trigger": false,
      "taf_trigger": false,
      "metar": "METAR EFTU 100620Z AUTO 18006KT 130V210 CAVOK 11/M02 Q1018",
      "taf": "TAF EFTU 100535Z 1006/1106 17009KT CAVOK"
    },
    {
      "icao": "EGBB",
      "alert": "OK",
      "vis_m": 9999,
      "fzfg": false,
      "metar_trigger": false,
      "taf_trigger": false,
      "metar": "METAR EGBB 100620Z 04011KT 360V070 9999 OVC014 08/04 Q1020",
      "taf": "TAF EGBB 100454Z 1006/1106 03010KT 9999 BKN012"
    },
    {
      "icao": "EGGP",
      "alert": "OK",
      "vis_m": 9999,
      "fzfg": false,
      "metar_trigger": false,
      "taf_trigger": false,
      "metar": "METAR EGGP 100620Z 05008KT CAVOK 07/03 Q1022",
      "taf": "TAF EGGP 100456Z 1006/1106 05008KT 9999 FEW030"
    },
    {
      "icao": "EGGW",
      "alert": "OK",
      "vis_m": 9999,
      "fzfg": false,
      "metar_trigger": false,
      "taf_trigger": false,
      "metar": "METAR EGGW 100620Z AUTO 03013KT 9999 BKN007 08/07 Q1018",
      "taf": "TAF EGGW 100458Z 1006/1106 03010KT 9999 BKN006"
    },
    {
      "icao": "EGKK",
      "alert": "OK",
      "vis_m": 9999,
      "fzfg": false,
      "metar_trigger": false,
      "taf_trigger": false,
      "metar": "METAR EGKK 100620Z 05009KT 9999 FEW035 10/07 Q1017",
      "taf": "TAF EGKK 100503Z 1006/1112 03012KT CAVOK"
    },
    {
      "icao": "EGNM",
      "alert": "OK",
      "vis_m": 9999,
      "fzfg": false,
      "metar_trigger": false,
      "taf_trigger": false,
      "metar": "METAR EGNM 100620Z 02009KT CAVOK 05/03 Q1021",
      "taf": "TAF EGNM 100455Z 1006/1106 03009KT 9999 FEW015"
    },
    {
      "icao": "EGPD",
      "alert": "OK",
      "vis_m": 9999,
      "fzfg": false,
      "metar_trigger": false,
      "taf_trigger": false,
      "metar": "METAR EGPD 100620Z COR AUTO 26010KT 9999 NCD 05/M01 Q1022 NOSIG",
      "taf": "TAF EGPD 100456Z 1006/1106 29008KT 9999 SCT030"
    },
    {
      "icao": "EGPF",
      "alert": "OK",
      "vis_m": 9999,
      "fzfg": false,
      "metar_trigger": false,
      "taf_trigger": false,
      "metar": "METAR EGPF 100620Z AUTO VRB02KT 9999 NCD 05/05 Q1024",
      "taf": "TAF EGPF 100500Z 1006/1106 VRB03KT 9999 FEW030"
    },
    {
      "icao": "EHBK",
      "alert": "OK",
      "vis_m": 9999,
      "fzfg": false,
      "metar_trigger": false,
      "taf_trigger": false,
      "metar": "METAR EHBK 100625Z AUTO 36006KT 330V030 9999 NSC 11/08 Q1014 NOSIG",
      "taf": "TAF EHBK 100450Z 1006/1112 02008KT CAVOK"
    },
    {
      "icao": "EHEH",
      "alert": "OK",
      "vis_m": 9999,
      "fzfg": false,
      "metar_trigger": false,
      "taf_trigger": false,
      "metar": "METAR EHEH 100625Z AUTO 01006KT 330V050 9999 OVC230 11/08 Q1015 BLU NOSIG RMK TREND REMOTE BY EHWX",
      "taf": "TAF EHEH 100500Z 1006/1112 01004KT CAVOK"
    },
    {
      "icao": "EKBI",
      "alert": "OK",
      "vis_m": 9999,
      "fzfg": false,
      "metar_trigger": false,
      "taf_trigger": false,
      "metar": "METAR EKBI 100620Z AUTO 02005KT 350V050 9999 FEW067/// 09/05 Q1015",
      "taf": "TAF EKBI 100527Z 1006/1106 11006KT CAVOK"
    },
    {
      "icao": "EKCH",
      "alert": "OK",
      "vis_m": 9999,
      "fzfg": false,
      "metar_trigger": false,
      "taf_trigger": false,
      "metar": "METAR EKCH 100620Z AUTO 14007KT 9999 OVC063/// 09/05 Q1015 NOSIG",
      "taf": "TAF EKCH 100527Z 1006/1106 16006KT CAVOK"
    },
    {
      "icao": "ENAL",
      "alert": "OK",
      "vis_m": 9999,
      "fzfg": false,
      "metar_trigger": false,
      "taf_trigger": false,
      "metar": "METAR ENAL 100620Z 24019KT 9999 FEW035 05/M02 Q1014",
      "taf": "TAF ENAL 100500Z 1006/1015 23015KT 9999 -SHRA FEW015 BKN025"
    },
    {
      "icao": "ENBR",
      "alert": "OK",
      "vis_m": 9999,
      "fzfg": false,
      "metar_trigger": false,
      "taf_trigger": false,
      "metar": "METAR ENBR 100620Z 12002KT 9999 FEW009 SCT013CB BKN025 04/02 Q1016 TEMPO SHRA BKN012 SCT020CB RMK WIND 1200FT VRB02KT",
      "taf": "TAF ENBR 100500Z 1006/1106 26005KT 9999 -SHRA FEW018 BKN035"
    },
    {
      "icao": "ENGM",
      "alert": "OK",
      "vis_m": 9999,
      "fzfg": false,
      "metar_trigger": false,
      "taf_trigger": false,
      "metar": "METAR ENGM 100620Z 07004KT 020V110 9999 -RA FEW013 SCT029 BKN035 04/01 Q1013 TEMPO BKN013",
      "taf": "TAF ENGM 100500Z 1006/1106 36005KT 9999 BKN040"
    },
    {
      "icao": "ENHD",
      "alert": "OK",
      "vis_m": 9999,
      "fzfg": false,
      "metar_trigger": false,
      "taf_trigger": false,
      "metar": "METAR ENHD 100620Z AUTO 30008KT 9999 BKN043/// 06/02 Q1017",
      "taf": "TAF ENHD 100500Z 1006/1015 33005KT 9999 -RA FEW008 BKN020"
    },
    {
      "icao": "ENTC",
      "alert": "OK",
      "vis_m": 9999,
      "fzfg": false,
      "metar_trigger": false,
      "taf_trigger": false,
      "metar": "METAR ENTC 100620Z 20003KT CAVOK 07/01 Q1007 RMK WIND 2600FT 20011KT",
      "taf": "TAF ENTC 100500Z 1006/1106 18005KT 9999 FEW020 BKN050"
    },
    {
      "icao": "ENTO",
      "alert": "OK",
      "vis_m": 9999,
      "fzfg": false,
      "metar_trigger": false,
      "taf_trigger": false,
      "metar": "METAR ENTO 100620Z 34007KT 9999 -SHRA FEW010 SCT028 BKN039 05/05 Q1014 TEMPO RA BKN010",
      "taf": "TAF ENTO 100500Z 1006/1106 35008KT 9999 BKN040"
    },
    {
      "icao": "ENVA",
      "alert": "OK",
      "vis_m": 9999,
      "fzfg": false,
      "metar_trigger": false,
      "taf_trigger": false,
      "metar": "METAR ENVA 100620Z 23006KT 200V310 CAVOK 06/04 Q1012 NOSIG RMK WIND 670FT VRB03KT",
      "taf": "TAF ENVA 100500Z 1006/1106 09005KT 9999 SCT045"
    },
    {
      "icao": "ENZV",
      "alert": "OK",
      "vis_m": 9999,
      "fzfg": false,
      "metar_trigger": false,
      "taf_trigger": false,
      "metar": "METAR ENZV 100620Z 33004KT 9999 SCT033 06/02 Q1017 NOSIG",
      "taf": "TAF ENZV 100500Z 1006/1106 34005KT 9999 FEW010 SCT035"
    },
    {
      "icao": "EPGD",
      "alert": "OK",
      "vis_m": 9999,
      "fzfg": false,
      "metar_trigger": false,
      "taf_trigger": false,
      "metar": "METAR EPGD 100630Z VRB03KT CAVOK 11/03 Q1017",
      "taf": "TAF EPGD 100530Z 1006/1106 VRB03KT CAVOK"
    },
    {
      "icao": "EPKK",
      "alert": "OK",
      "vis_m": 9999,
      "fzfg": false,
      "metar_trigger": false,
      "taf_trigger": false,
      "metar": "METAR EPKK 100630Z 08008KT CAVOK 10/07 Q1018",
      "taf": "TAF EPKK 100530Z 1006/1106 06008KT 4500 BR BKN003"
    },
    {
      "icao": "EPKT",
      "alert": "OK",
      "vis_m": 9999,
      "fzfg": false,
      "metar_trigger": false,
      "taf_trigger": false,
      "metar": "METAR EPKT 100630Z 10009KT CAVOK 11/06 Q1017",
      "taf": "TAF EPKT 100530Z 1006/1106 06003KT CAVOK"
    },
    {
      "icao": "EPLB",
      "alert": "OK",
      "vis_m": 9999,
      "fzfg": false,
      "metar_trigger": false,
      "taf_trigger": false,
      "metar": "METAR EPLB 100630Z VRB02KT 9999 SCT042 10/03 Q1018",
      "taf": "TAF EPLB 100530Z 1006/1106 VRB03KT CAVOK"
    },
    {
      "icao": "EPMO",
      "alert": "OK",
      "vis_m": 9999,
      "fzfg": false,
      "metar_trigger": false,
      "taf_trigger": false,
      "metar": "METAR EPMO 100630Z 08005KT 040V100 CAVOK 12/05 Q1018",
      "taf": "TAF EPMO 100530Z 1006/1106 VRB02KT CAVOK"
    },
    {
      "icao": "EPPO",
      "alert": "OK",
      "vis_m": 9999,
      "fzfg": false,
      "metar_trigger": false,
      "taf_trigger": false,
      "metar": "METAR EPPO 100630Z 15004KT 130V200 CAVOK 14/06 Q1017",
      "taf": "TAF EPPO 100530Z 1006/1106 VRB02KT CAVOK"
    },
    {
      "icao": "EPRA",
      "alert": "OK",
      "vis_m": 9999,
      "fzfg": false,
      "metar_trigger": false,
      "taf_trigger": false,
      "metar": "METAR EPRA 100630Z 21005KT 180V240 9999 SCT040 11/06 Q1018",
      "taf": "TAF EPRA 100530Z 1006/1015 18008KT 9999 SCT040"
    },
    {
      "icao": "EPRZ",
      "alert": "OK",
      "vis_m": 9999,
      "fzfg": false,
      "metar_trigger": false,
      "taf_trigger": false,
      "metar": "METAR EPRZ 100630Z 13004KT 9999 FEW002 10/08 Q1019",
      "taf": "TAF EPRZ 100530Z 1006/1106 VRB02KT 0200 FG BKN001"
    },
    {
      "icao": "EPSC",
      "alert": "OK",
      "vis_m": 9999,
      "fzfg": false,
      "metar_trigger": false,
      "taf_trigger": false,
      "metar": "METAR EPSC 100630Z 16008KT CAVOK 13/06 Q1016",
      "taf": "TAF EPSC 100530Z 1006/1106 VRB02KT CAVOK"
    },
    {
      "icao": "EPSY",
      "alert": "OK",
      "vis_m": 9999,
      "fzfg": false,
      "metar_trigger": false,
      "taf_trigger": false,
      "metar": "METAR EPSY 100630Z VRB02KT CAVOK 10/03 Q1018",
      "taf": "TAF EPSY 100530Z 1006/1015 VRB02KT CAVOK"
    },
    {
      "icao": "EPWA",
      "alert": "OK",
      "vis_m": 9999,
      "fzfg": false,
      "metar_trigger": false,
      "taf_trigger": false,
      "metar": "METAR EPWA 100630Z 11006KT CAVOK 12/03 Q1018 NOSIG",
      "taf": "TAF EPWA 100530Z 1006/1106 VRB02KT CAVOK"
    },
    {
      "icao": "EPWR",
      "alert": "OK",
      "vis_m": 9999,
      "fzfg": false,
      "metar_trigger": false,
      "taf_trigger": false,
      "metar": "METAR EPWR 100630Z 12007KT CAVOK 11/08 Q1017",
      "taf": "TAF EPWR 100530Z 1006/1106 17010KT CAVOK"
    },
    {
      "icao": "ESGG",
      "alert": "OK",
      "vis_m": 9999,
      "fzfg": false,
      "metar_trigger": false,
      "taf_trigger": false,
      "metar": "METAR ESGG 100620Z 19008KT CAVOK 09/04 Q1014",
      "taf": "TAF ESGG 100530Z 1006/1106 16006KT CAVOK"
    },
    {
      "icao": "ESKN",
      "alert": "OK",
      "vis_m": 9999,
      "fzfg": false,
      "metar_trigger": false,
      "taf_trigger": false,
      "metar": "METAR ESKN 100620Z 13008KT CAVOK 10/05 Q1015",
      "taf": "TAF ESKN 100530Z 1006/1106 14008KT CAVOK"
    },
    {
      "icao": "ESMS",
      "alert": "OK",
      "vis_m": 9999,
      "fzfg": false,
      "metar_trigger": false,
      "taf_trigger": false,
      "metar": "METAR ESMS 100620Z 11003KT CAVOK 08/01 Q1015",
      "taf": "TAF ESMS 100527Z 1006/1106 14010KT CAVOK"
    },
    {
      "icao": "ESSA",
      "alert": "OK",
      "vis_m": 9999,
      "fzfg": false,
      "metar_trigger": false,
      "taf_trigger": false,
      "metar": "METAR ESSA 100620Z 15009KT CAVOK 10/M01 Q1015 NOSIG",
      "taf": "TAF ESSA 100530Z 1006/1106 15009KT CAVOK"
    },
    {
      "icao": "EYKA",
      "alert": "OK",
      "vis_m": 8000,
      "fzfg": false,
      "metar_trigger": false,
      "taf_trigger": false,
      "metar": "METAR EYKA 100620Z 32005KT 300V360 8000 OVC007 07/06 Q1016",
      "taf": "TAF EYKA 100500Z 1006/1106 VRB03KT 5000 BR OVC005"
    },
    {
      "icao": "EYPA",
      "alert": "OK",
      "vis_m": 9999,
      "fzfg": false,
      "metar_trigger": false,
      "taf_trigger": false,
      "metar": "METAR EYPA 100620Z VRB03KT CAVOK 10/03 Q1018",
      "taf": "TAF EYPA 100500Z 1006/1106 VRB03KT 9000 NSC"
    },
    {
      "icao": "EYVI",
      "alert": "OK",
      "vis_m": 6000,
      "fzfg": false,
      "metar_trigger": false,
      "taf_trigger": false,
      "metar": "METAR EYVI 100620Z 31004KT 260V340 6000 -DZ OVC003 06/06 Q1015 NOSIG",
      "taf": "TAF EYVI 100520Z 1006/1106 30005KT 6000 OVC005"
    },
    {
      "icao": "GCFV",
      "alert": "OK",
      "vis_m": 9999,
      "fzfg": false,
      "metar_trigger": false,
      "taf_trigger": false,
      "metar": "METAR GCFV 100630Z 31006KT 9999 FEW020 17/12 Q1017",
      "taf": "TAF GCFV 100200Z 1003/1103 32005KT 9999 SCT035 TX24/1014Z TN17/1006Z"
    },
    {
      "icao": "GCLP",
      "alert": "OK",
      "vis_m": 9999,
      "fzfg": false,
      "metar_trigger": false,
      "taf_trigger": false,
      "metar": "METAR GCLP 100630Z 33008KT 9999 FEW025 17/13 Q1017 NOSIG",
      "taf": "TAF GCLP 100200Z 1003/1103 33005KT 9999 SCT030 TX23/1014Z TN17/1006Z"
    },
    {
      "icao": "GCTS",
      "alert": "OK",
      "vis_m": 9999,
      "fzfg": false,
      "metar_trigger": false,
      "taf_trigger": false,
      "metar": "METAR GCTS 100630Z 09002KT 9999 SCT025 BKN050 19/14 Q1017 NOSIG",
      "taf": "TAF GCTS 100200Z 1003/1103 05005KT 9999 BKN040 TX25/1014Z TN18/1006Z"
    },
    {
      "icao": "GMAD",
      "alert": "OK",
      "vis_m": 9999,
      "fzfg": false,
      "metar_trigger": false,
      "taf_trigger": false,
      "metar": "METAR GMAD 100630Z 00000KT 9999 SCT010 SCT016 13/12 Q1017 NOSIG",
      "taf": "TAF GMAD 100500Z 1006/1112 07004KT 8000 SCT026"
    },
    {
      "icao": "GMMN",
      "alert": "OK",
      "vis_m": 9999,
      "fzfg": false,
      "metar_trigger": false,
      "taf_trigger": false,
      "metar": "METAR GMMN 100630Z 18008KT 9999 FEW020 14/12 Q1017 NOSIG",
      "taf": "TAF GMMN 100500Z 1006/1112 18008KT 9999 FEW020"
    },
    {
      "icao": "GMMX",
      "alert": "OK",
      "vis_m": 9999,
      "fzfg": false,
      "metar_trigger": false,
      "taf_trigger": false,
      "metar": "METAR GMMX 100630Z VRB02KT CAVOK 13/10 Q1017 NOSIG",
      "taf": "TAF GMMX 100500Z 1006/1112 26006KT 8000 SCT023"
    },
    {
      "icao": "HEGN",
      "alert": "OK",
      "vis_m": null,
      "fzfg": false,
      "metar_trigger": false,
      "taf_trigger": false,
      "metar": "",
      "taf": "TAF HEGN 100500Z 1006/1112 33010G20KT CAVOK"
    },
    {
      "icao": "HEMA",
      "alert": "OK",
      "vis_m": null,
      "fzfg": false,
      "metar_trigger": false,
      "taf_trigger": false,
      "metar": "",
      "taf": "TAF HEMA 100500Z 1006/1112 32010G20KT CAVOK"
    },
    {
      "icao": "HESH",
      "alert": "OK",
      "vis_m": null,
      "fzfg": false,
      "metar_trigger": false,
      "taf_trigger": false,
      "metar": "",
      "taf": "TAF HESH 100500Z 1006/1112 36010G20KT CAVOK"
    },
    {
      "icao": "HESX",
      "alert": "OK",
      "vis_m": null,
      "fzfg": false,
      "metar_trigger": false,
      "taf_trigger": false,
      "metar": "",
      "taf": "TAF HESX 100500Z 1006/1112 03010KT CAVOK"
    },
    {
      "icao": "LATI",
      "alert": "OK",
      "vis_m": 9999,
      "fzfg": false,
      "metar_trigger": false,
      "taf_trigger": false,
      "metar": "METAR LATI 100620Z 17003KT 140V200 9999 SCT160 17/12 Q1017 NOSIG",
      "taf": "TAF LATI 100500Z 1006/1106 VRB05KT 9999 SCT060 TX23/1013Z TN15/1104Z"
    },
    {
      "icao": "LBPD",
      "alert": "OK",
      "vis_m": 9999,
      "fzfg": false,
      "metar_trigger": false,
      "taf_trigger": false,
      "metar": "METAR LBPD 100630Z AUTO 34003KT 260V060 9999 NCD 19/14 Q1015 NOSIG",
      "taf": "TAF LBPD 100500Z 1006/1106 VRB04KT 9999 SCT050"
    },
    {
      "icao": "LBSF",
      "alert": "OK",
      "vis_m": 9999,
      "fzfg": false,
      "metar_trigger": false,
      "taf_trigger": false,
      "metar": "METAR LBSF 100630Z 32008KT 290V010 9999 FEW036 16/12 Q1017 NOSIG",
      "taf": "TAF LBSF 100500Z 1006/1106 32010KT 9999 SCT040"
    },
    {
      "icao": "LBWN",
      "alert": "OK",
      "vis_m": 9999,
      "fzfg": false,
      "metar_trigger": false,
      "taf_trigger": false,
      "metar": "METAR LBWN 100630Z 30008KT 9999 SCT015 OVC033 17/16 Q1014 NOSIG",
      "taf": "TAF LBWN 100500Z 1006/1106 30010KT 9999 BKN015 BKN040"
    },
    {
      "icao": "LCLK",
      "alert": "OK",
      "vis_m": 9999,
      "fzfg": false,
      "metar_trigger": false,
      "taf_trigger": false,
      "metar": "METAR LCLK 100630Z 19007KT 160V220 CAVOK 24/18 Q1015 NOSIG",
      "taf": "TAF LCLK 100530Z 1006/1106 14006KT CAVOK"
    },
    {
      "icao": "LCPH",
      "alert": "OK",
      "vis_m": 9999,
      "fzfg": false,
      "metar_trigger": false,
      "taf_trigger": false,
      "metar": "METAR LCPH 100630Z 31006KT 250V320 CAVOK 22/16 Q1015 NOSIG",
      "taf": "TAF LCPH 100530Z 1006/1106 05005KT CAVOK"
    },
    {
      "icao": "LEAL",
      "alert": "OK",
      "vis_m": 9999,
      "fzfg": false,
      "metar_trigger": false,
      "taf_trigger": false,
      "metar": "METAR LEAL 100630Z 00000KT CAVOK 17/15 Q1015 NOSIG",
      "taf": "TAF LEAL 100500Z 1006/1106 VRB04KT 9999 FEW035 TX26/1012Z TN13/1105Z"
    },
    {
      "icao": "LEBB",
      "alert": "OK",
      "vis_m": 9999,
      "fzfg": false,
      "metar_trigger": false,
      "taf_trigger": false,
      "metar": "METAR LEBB 100630Z VRB02KT CAVOK 17/09 Q1009 NOSIG",
      "taf": "TAF LEBB 100500Z 1006/1106 24009KT CAVOK TX20/1015Z TN10/1104Z"
    },
    {
      "icao": "LEBL",
      "alert": "OK",
      "vis_m": 9999,
      "fzfg": false,
      "metar_trigger": false,
      "taf_trigger": false,
      "metar": "METAR LEBL 100630Z 25009KT 230V290 9999 FEW021 16/15 Q1012 NOSIG",
      "taf": "TAF LEBL 100500Z 1006/1106 VRB04KT 9999 FEW050 TX21/1013Z TN13/1006Z"
    },
    {
      "icao": "LECH",
      "alert": "OK",
      "vis_m": 7000,
      "fzfg": false,
      "metar_trigger": false,
      "taf_trigger": false,
      "metar": "METAR LECH 100630Z 19005KT 7000 3000SW BCFG NSC 11/11 Q1014",
      "taf": ""
    },
    {
      "icao": "LEMD",
      "alert": "OK",
      "vis_m": 9999,
      "fzfg": false,
      "metar_trigger": false,
      "taf_trigger": false,
      "metar": "METAR LEMD 100630Z VRB01KT 9999 SCT035 BKN045 10/10 Q1013 NOSIG",
      "taf": "TAF LEMD 100500Z 1006/1112 20007KT 9999 SCT030 TX16/1015Z TN07/1105Z"
    },
    {
      "icao": "LEMG",
      "alert": "OK",
      "vis_m": 9999,
      "fzfg": false,
      "metar_trigger": false,
      "taf_trigger": false,
      "metar": "METAR LEMG 100630Z 00000KT 9999 FEW024 SCT045 15/14 Q1015 NOSIG",
      "taf": "TAF LEMG 100500Z 1006/1106 16006KT 9999 FEW015 SCT030 TX22/1014Z TN13/1106Z"
    },
    {
      "icao": "LEVC",
      "alert": "OK",
      "vis_m": 9999,
      "fzfg": false,
      "metar_trigger": false,
      "taf_trigger": false,
      "metar": "METAR LEVC 100630Z 23009KT 9999 FEW020 15/12 Q1014 NOSIG",
      "taf": "TAF LEVC 100500Z 1006/1106 VRB04KT 9999 FEW020 TX24/1012Z TN13/1105Z"
    },
    {
      "icao": "LEXJ",
      "alert": "OK",
      "vis_m": 9999,
      "fzfg": false,
      "metar_trigger": false,
      "taf_trigger": false,
      "metar": "METAR LEXJ 100630Z 25004KT 9999 FEW050 16/09 Q1008",
      "taf": "TAF LEXJ 100200Z 1003/1103 21009KT 9999 FEW050 TX21/1014Z TN12/1103Z"
    },
    {
      "icao": "LEZG",
      "alert": "OK",
      "vis_m": 9999,
      "fzfg": false,
      "metar_trigger": false,
      "taf_trigger": false,
      "metar": "METAR LEZG 100630Z 04006KT 9999 FEW089 14/11 Q1012 BECMG 22015KT",
      "taf": "TAF LEZG 100500Z 1006/1106 VRB04KT 9999 FEW020 TX23/1014Z TN10/1105Z"
    },
    {
      "icao": "LEZL",
      "alert": "OK",
      "vis_m": 9999,
      "fzfg": false,
      "metar_trigger": false,
      "taf_trigger": false,
      "metar": "METAR LEZL 100630Z 19006KT 150V230 9999 -RA FEW010 BKN025 17/15 Q1013 NOSIG",
      "taf": "TAF LEZL 100200Z 1003/1103 20008KT 9999 SCT030 TX22/1015Z TN12/1007Z"
    },
    {
      "icao": "LFBD",
      "alert": "OK",
      "vis_m": 9999,
      "fzfg": false,
      "metar_trigger": false,
      "taf_trigger": false,
      "metar": "METAR LFBD 100630Z AUTO 16007KT CAVOK 16/11 Q1008 TEMPO 24015G25KT 4500 -SHRA FEW020CB BKN040TCU",
      "taf": "TAF LFBD 100500Z 1006/1112 16010KT CAVOK TX22/1013Z TN11/1105Z"
    },
    {
      "icao": "LFLL",
      "alert": "OK",
      "vis_m": 9999,
      "fzfg": false,
      "metar_trigger": false,
      "taf_trigger": false,
      "metar": "METAR LFLL 100630Z 11004KT 9999 -RA FEW016 BKN083 14/12 Q1012 NOSIG",
      "taf": "TAF LFLL 100500Z 1006/1112 18005KT CAVOK"
    },
    {
      "icao": "LFLS",
      "alert": "OK",
      "vis_m": 9999,
      "fzfg": false,
      "metar_trigger": false,
      "taf_trigger": false,
      "metar": "METAR LFLS 100630Z AUTO 07005KT 9999 -RA FEW006 SCT050 OVC076 13/12 Q1012 TEMPO 2000 TSRA SCT060CB",
      "taf": "TAF LFLS 100200Z 1003/1103 VRB02KT CAVOK"
    },
    {
      "icao": "LFMN",
      "alert": "OK",
      "vis_m": 9999,
      "fzfg": false,
      "metar_trigger": false,
      "taf_trigger": false,
      "metar": "METAR LFMN 100630Z 10021KT 9999 BKN070 SCT200 19/14 Q1011 NOSIG",
      "taf": "TAF LFMN 100200Z 1003/1109 09020KT 9999 BKN030"
    },
    {
      "icao": "LFOB",
      "alert": "OK",
      "vis_m": 9999,
      "fzfg": false,
      "metar_trigger": false,
      "taf_trigger": false,
      "metar": "METAR LFOB 100630Z AUTO 03010KT CAVOK 12/08 Q1011 TEMPO 4000 SHRA BKN030TCU",
      "taf": "TAF LFOB 100500Z 1006/1106 03012KT 9999 SCT040"
    },
    {
      "icao": "LFPO",
      "alert": "OK",
      "vis_m": 9999,
      "fzfg": false,
      "metar_trigger": false,
      "taf_trigger": false,
      "metar": "METAR LFPO 100630Z 02006KT 9999 FEW030 BKN080CB BKN100 13/10 Q1010 NOSIG",
      "taf": "TAF LFPO 100500Z 1006/1112 04010KT CAVOK"
    },
    {
      "icao": "LFSB",
      "alert": "OK",
      "vis_m": 9999,
      "fzfg": false,
      "metar_trigger": false,
      "taf_trigger": false,
      "metar": "METAR LFSB 100630Z AUTO VRB02KT CAVOK 15/11 Q1010 NOSIG",
      "taf": ""
    },
    {
      "icao": "LGAV",
      "alert": "OK",
      "vis_m": 9999,
      "fzfg": false,
      "metar_trigger": false,
      "taf_trigger": false,
      "metar": "METAR LGAV 100620Z VRB01KT CAVOK 20/13 Q1016 NOSIG",
      "taf": "TAF LGAV 100500Z 1006/1106 VRB05KT 9999 FEW025"
    },
    {
      "icao": "LGTS",
      "alert": "OK",
      "vis_m": 9000,
      "fzfg": false,
      "metar_trigger": false,
      "taf_trigger": false,
      "metar": "METAR LGTS 100620Z 28008KT 9000 4500SE BR FEW005 18/15 Q1016 NOSIG",
      "taf": "TAF LGTS 100500Z 1006/1106 VRB03KT 9999 FEW025"
    },
    {
      "icao": "LHBP",
      "alert": "OK",
      "vis_m": 9999,
      "fzfg": false,
      "metar_trigger": false,
      "taf_trigger": false,
      "metar": "METAR LHBP 100630Z 11009KT CAVOK 15/05 Q1017 NOSIG",
      "taf": "TAF LHBP 100515Z 1006/1106 08008KT CAVOK"
    },
    {
      "icao": "LHDC",
      "alert": "OK",
      "vis_m": 9999,
      "fzfg": false,
      "metar_trigger": false,
      "taf_trigger": false,
      "metar": "METAR LHDC 100615Z AUTO 03005KT 350V080 CAVOK 13/07 Q1016 NOSIG",
      "taf": "TAF LHDC 100515Z 1006/1015 05007KT CAVOK"
    },
    {
      "icao": "LIBD",
      "alert": "OK",
      "vis_m": 9000,
      "fzfg": false,
      "metar_trigger": false,
      "taf_trigger": false,
      "metar": "METAR LIBD 100620Z VRB02KT 9000 NSC 16/14 Q1015",
      "taf": "TAF LIBD 092342Z 1000/1024 20005KT CAVOK"
    },
    {
      "icao": "LIBG",
      "alert": "OK",
      "vis_m": 9999,
      "fzfg": false,
      "metar_trigger": false,
      "taf_trigger": false,
      "metar": "SPECI LIBG 100600Z VRB02KT CAVOK 15/15 Q1016",
      "taf": "TAF LIBG 100612Z 1007/1015 VRB05KT CAVOK"
    },
    {
      "icao": "LIBP",
      "alert": "OK",
      "vis_m": 9999,
      "fzfg": false,
      "metar_trigger": false,
      "taf_trigger": false,
      "metar": "METAR LIBP 100620Z AUTO VRB01KT 9999 -RA FEW074/// OVC098/// 15/15 Q1015",
      "taf": "TAF LIBP 092342Z 1000/1024 VRB05KT 9999 FEW080"
    },
    {
      "icao": "LIBR",
      "alert": "OK",
      "vis_m": 9999,
      "fzfg": false,
      "metar_trigger": false,
      "taf_trigger": false,
      "metar": "METAR LIBR 100620Z 14006KT CAVOK 16/14 Q1016",
      "taf": "TAF LIBR 092343Z 1000/1024 25005KT CAVOK"
    },
    {
      "icao": "LICA",
      "alert": "OK",
      "vis_m": 9999,
      "fzfg": false,
      "metar_trigger": false,
      "taf_trigger": false,
      "metar": "METAR LICA 100620Z AUTO 05011KT 9999 FEW079/// BKN110/// 18/15 Q1016",
      "taf": "TAF LICA 092352Z 1000/1024 08015KT 9999 FEW080"
    },
    {
      "icao": "LICC",
      "alert": "OK",
      "vis_m": 9999,
      "fzfg": false,
      "metar_trigger": false,
      "taf_trigger": false,
      "metar": "METAR LICC 100620Z 07011KT 9999 FEW020 SCT120 20/16 Q1016",
      "taf": "TAF LICC 092349Z 1000/1024 VRB05KT 9999 SCT025"
    },
    {
      "icao": "LICJ",
      "alert": "OK",
      "vis_m": 9999,
      "fzfg": false,
      "metar_trigger": false,
      "taf_trigger": false,
      "metar": "METAR LICJ 100620Z 21006KT 180V240 CAVOK 20/18 Q1013",
      "taf": "TAF LICJ 092350Z 1000/1024 VRB05KT 9999 FEW040"
    },
    {
      "icao": "LIMC",
      "alert": "OK",
      "vis_m": 9999,
      "fzfg": false,
      "metar_trigger": false,
      "taf_trigger": false,
      "metar": "METAR LIMC 100620Z 35009KT 9999 BKN060 14/13 Q1014 NOSIG",
      "taf": "TAF LIMC 100500Z 1006/1112 VRB05KT 4000 RA BKN050"
    },
    {
      "icao": "LIME",
      "alert": "OK",
      "vis_m": 9999,
      "fzfg": false,
      "metar_trigger": false,
      "taf_trigger": false,
      "metar": "METAR LIME 100620Z VRB04KT 9999 -RA SCT050 BKN080 15/11 Q1014 NOSIG",
      "taf": "TAF LIME 092342Z 1000/1024 VRB05KT 9999 SCT050"
    },
    {
      "icao": "LIMF",
      "alert": "OK",
      "vis_m": 4000,
      "fzfg": false,
      "metar_trigger": false,
      "taf_trigger": false,
      "metar": "METAR LIMF 100620Z VRB02KT 4000 -RA BR SCT005 BKN020 OVC050 14/14 Q1014",
      "taf": "TAF LIMF 092345Z 1000/1024 VRB05KT 9999 BKN050"
    },
    {
      "icao": "LIMJ",
      "alert": "OK",
      "vis_m": 9999,
      "fzfg": false,
      "metar_trigger": false,
      "taf_trigger": false,
      "metar": "METAR LIMJ 100620Z 05007KT 350V070 9999 SCT050 18/13 Q1013",
      "taf": "TAF LIMJ 092346Z 1000/1024 VRB05KT 9999 SCT020"
    },
    {
      "icao": "LIPE",
      "alert": "OK",
      "vis_m": 9999,
      "fzfg": false,
      "metar_trigger": false,
      "taf_trigger": false,
      "metar": "METAR LIPE 100620Z 12006KT 9999 FEW040 SCT070 16/14 Q1013",
      "taf": "TAF LIPE 092341Z 1000/1024 VRB05KT 9999 FEW060"
    },
    {
      "icao": "LIPH",
      "alert": "OK",
      "vis_m": 9999,
      "fzfg": false,
      "metar_trigger": false,
      "taf_trigger": false,
      "metar": "METAR LIPH 100620Z 06004KT 020V080 CAVOK 17/11 Q1014",
      "taf": "TAF LIPH 092340Z 1000/1024 VRB05KT CAVOK"
    },
    {
      "icao": "LIPQ",
      "alert": "OK",
      "vis_m": 9999,
      "fzfg": false,
      "metar_trigger": false,
      "taf_trigger": false,
      "metar": "METAR LIPQ 100620Z AUTO 08004KT 050V110 9999 NCD 17/12 Q1014",
      "taf": "TAF LIPQ 092340Z 1000/1024 VRB05KT CAVOK"
    },
    {
      "icao": "LIPR",
      "alert": "OK",
      "vis_m": 9999,
      "fzfg": false,
      "metar_trigger": false,
      "taf_trigger": false,
      "metar": "METAR LIPR 100620Z 17004KT 140V200 9999 BKN070 17/15 Q1013",
      "taf": "TAF LIPR 092341Z 1000/1024 VRB05KT 9999 FEW060"
    },
    {
      "icao": "LIPX",
      "alert": "OK",
      "vis_m": 9999,
      "fzfg": false,
      "metar_trigger": false,
      "taf_trigger": false,
      "metar": "METAR LIPX 100620Z 13004KT 9999 FEW070 17/13 Q1013",
      "taf": "TAF LIPX 092343Z 1000/1024 VRB05KT 9999 SCT040"
    },
    {
      "icao": "LIPY",
      "alert": "OK",
      "vis_m": 9999,
      "fzfg": false,
      "metar_trigger": false,
      "taf_trigger": false,
      "metar": "METAR LIPY 100620Z AUTO 13004KT 100V180 9999 SCT120/// 18/13 Q1013",
      "taf": "TAF LIPY 092341Z 1000/1024 VRB05KT 9999 FEW060"
    },
    {
      "icao": "LIPZ",
      "alert": "OK",
      "vis_m": 9999,
      "fzfg": false,
      "metar_trigger": false,
      "taf_trigger": false,
      "metar": "METAR LIPZ 100620Z 05006KT 9999 SCT065 15/13 Q1014 NOSIG",
      "taf": "TAF LIPZ 100500Z 1006/1112 VRB05KT 9999 FEW060"
    },
    {
      "icao": "LIRF",
      "alert": "OK",
      "vis_m": 9999,
      "fzfg": false,
      "metar_trigger": false,
      "taf_trigger": false,
      "metar": "METAR LIRF 100620Z 06008KT 9999 FEW050 16/15 Q1013 NOSIG",
      "taf": "TAF LIRF 100500Z 1006/1112 10010KT 9999 SCT040"
    },
    {
      "icao": "LIRN",
      "alert": "OK",
      "vis_m": 9999,
      "fzfg": false,
      "metar_trigger": false,
      "taf_trigger": false,
      "metar": "METAR LIRN 100620Z 35005KT 320V030 CAVOK 19/14 Q1014 NOSIG",
      "taf": "TAF LIRN 092351Z 1000/1024 VRB05KT 9999 FEW050"
    },
    {
      "icao": "LIRP",
      "alert": "OK",
      "vis_m": 7000,
      "fzfg": false,
      "metar_trigger": false,
      "taf_trigger": false,
      "metar": "METAR LIRP 100615Z 10008KT 7000 -RA SCT030 BKN050 15/13 Q1014 NOSIG",
      "taf": "TAF LIRP 100500Z 1006/1106 08005KT 9999 FEW020 SCT070"
    },
    {
      "icao": "LIRZ",
      "alert": "OK",
      "vis_m": 9999,
      "fzfg": false,
      "metar_trigger": false,
      "taf_trigger": false,
      "metar": "METAR LIRZ 100620Z AUTO VRB01KT 9999 -RA BKN071/// 15/14 Q1015",
      "taf": "TAF LIRZ 092350Z 1000/1024 VRB05KT 9999 FEW060"
    },
    {
      "icao": "LJLJ",
      "alert": "OK",
      "vis_m": 9999,
      "fzfg": false,
      "metar_trigger": false,
      "taf_trigger": false,
      "metar": "METAR LJLJ 100630Z VRB02KT 9999 FEW044 BKN200 14/09 Q1016 NOSIG",
      "taf": "TAF LJLJ 100500Z 1006/1106 VRB02KT 9999 SCT060"
    },
    {
      "icao": "LKMT",
      "alert": "OK",
      "vis_m": 1600,
      "fzfg": false,
      "metar_trigger": false,
      "taf_trigger": false,
      "metar": "METAR LKMT 100630Z VRB02KT 1600 BR OVC003 07/07 Q1017 BECMG 4000 BR BKN005",
      "taf": "TAF LKMT 100500Z 1006/1106 VRB02KT 0200 FG VV002"
    },
    {
      "icao": "LKPR",
      "alert": "OK",
      "vis_m": 9999,
      "fzfg": false,
      "metar_trigger": false,
      "taf_trigger": false,
      "metar": "METAR LKPR 100630Z VRB02KT CAVOK 12/06 Q1016 NOSIG",
      "taf": "TAF LKPR 100500Z 1006/1112 09005KT CAVOK"
    },
    {
      "icao": "LLBG",
      "alert": "OK",
      "vis_m": 9999,
      "fzfg": false,
      "metar_trigger": false,
      "taf_trigger": false,
      "metar": "METAR LLBG 100620Z VRB02KT CAVOK 23/12 Q1015 NOSIG",
      "taf": "TAF LLBG 100501Z 1006/1106 VRB03KT CAVOK TX28/1011Z TN16/1104Z"
    },
    {
      "icao": "LMML",
      "alert": "OK",
      "vis_m": 9999,
      "fzfg": false,
      "metar_trigger": false,
      "taf_trigger": false,
      "metar": "METAR LMML 100615Z 09016G26KT 060V120 CAVOK 20/15 Q1013 NOSIG",
      "taf": "TAF LMML 100500Z 1006/1106 08017KT 9999 FEW012"
    },
    {
      "icao": "LOWW",
      "alert": "OK",
      "vis_m": 9999,
      "fzfg": false,
      "metar_trigger": false,
      "taf_trigger": false,
      "metar": "METAR LOWW 100620Z VRB02KT CAVOK 12/06 Q1017 NOSIG",
      "taf": "TAF LOWW 100515Z 1006/1112 12003KT CAVOK TX23/1014Z TN11/1006Z"
    },
    {
      "icao": "LPFR",
      "alert": "OK",
      "vis_m": 9999,
      "fzfg": false,
      "metar_trigger": false,
      "taf_trigger": false,
      "metar": "METAR LPFR 100630Z 22011KT 9999 FEW018 FEW020CB 17/14 Q1012",
      "taf": "TAF LPFR 100500Z 1006/1106 23012KT 9999 SCT020"
    },
    {
      "icao": "LPMA",
      "alert": "OK",
      "vis_m": 9999,
      "fzfg": false,
      "metar_trigger": false,
      "taf_trigger": false,
      "metar": "METAR LPMA 100630Z 33005KT 9999 FEW015 14/08 Q1015",
      "taf": "TAF LPMA 100500Z 1006/1106 VRB05KT 9999 SCT015"
    },
    {
      "icao": "LPPR",
      "alert": "OK",
      "vis_m": 9999,
      "fzfg": false,
      "metar_trigger": false,
      "taf_trigger": false,
      "metar": "METAR LPPR 100630Z 17013KT 9999 VCSH FEW016 FEW025CB 13/11 Q1007",
      "taf": "TAF LPPR 100500Z 1006/1106 15010KT 9999 SCT020"
    },
    {
      "icao": "LPPS",
      "alert": "OK",
      "vis_m": 9999,
      "fzfg": false,
      "metar_trigger": false,
      "taf_trigger": false,
      "metar": "METAR LPPS 100630Z 27013KT 9999 SCT015 16/09 Q1015",
      "taf": "TAF LPPS 100500Z 1006/1112 27013KT 9999 SCT015"
    },
    {
      "icao": "LPPT",
      "alert": "OK",
      "vis_m": 9999,
      "fzfg": false,
      "metar_trigger": false,
      "taf_trigger": false,
      "metar": "METAR LPPT 100630Z 19006KT 140V210 9999 FEW028 13/10 Q1009",
      "taf": "TAF LPPT 100500Z 1006/1112 21010KT 9999 SCT020"
    },
    {
      "icao": "LQBK",
      "alert": "OK",
      "vis_m": 9999,
      "fzfg": false,
      "metar_trigger": false,
      "taf_trigger": false,
      "metar": "METAR LQBK 100630Z VRB03KT CAVOK 16/10 Q1016 NOSIG",
      "taf": "TAF LQBK 100500Z 1006/1106 16005KT CAVOK TX25/1013Z TN12/1104Z"
    },
    {
      "icao": "LQSA",
      "alert": "OK",
      "vis_m": 8000,
      "fzfg": false,
      "metar_trigger": false,
      "taf_trigger": false,
      "metar": "METAR LQSA 100630Z VRB01KT 8000 SCT004 BKN008 10/08 Q1018 BECMG SCT015",
      "taf": "TAF LQSA 100500Z 1006/1106 VRB02KT 3000 BR BKN004 TX23/1013Z TN09/1104Z"
    },
    {
      "icao": "LQTZ",
      "alert": "OK",
      "vis_m": 3000,
      "fzfg": false,
      "metar_trigger": false,
      "taf_trigger": false,
      "metar": "METAR LQTZ 100630Z VRB01KT 3000 BR FEW001 11/11 Q1016",
      "taf": "TAF LQTZ 100500Z 1006/1106 10005KT CAVOK TX25/1013Z TN10/1104Z"
    },
    {
      "icao": "LRBC",
      "alert": "OK",
      "vis_m": 9999,
      "fzfg": false,
      "metar_trigger": false,
      "taf_trigger": false,
      "metar": "METAR LRBC 100630Z 33010KT 9999 -RA BKN014 OVC045 13/13 Q1016",
      "taf": "TAF LRBC 100500Z 1006/1015 33012KT 9999 SCT015 BKN040"
    },
    {
      "icao": "LRBS",
      "alert": "OK",
      "vis_m": 9999,
      "fzfg": false,
      "metar_trigger": false,
      "taf_trigger": false,
      "metar": "METAR LRBS 100630Z VRB02KT 9999 -RA FEW005 SCT020 OVC040 15/14 Q1016 NOSIG",
      "taf": "TAF LRBS 100500Z 1006/1106 24005KT 5000 RA BR BKN035"
    },
    {
      "icao": "LRBV",
      "alert": "OK",
      "vis_m": 9999,
      "fzfg": false,
      "metar_trigger": false,
      "taf_trigger": false,
      "metar": "METAR LRBV 100630Z 31004KT 260V360 9999 FEW011 SCT080 13/11 Q1016",
      "taf": "TAF LRBV 100500Z 1006/1015 30009KT 9999 SCT030"
    },
    {
      "icao": "LRCL",
      "alert": "OK",
      "vis_m": 5000,
      "fzfg": false,
      "metar_trigger": false,
      "taf_trigger": false,
      "metar": "METAR LRCL 100630Z 06004KT 030V090 5000 BR SCT002 12/11 Q1016",
      "taf": ""
    },
    {
      "icao": "LRCV",
      "alert": "OK",
      "vis_m": 1300,
      "fzfg": false,
      "metar_trigger": false,
      "taf_trigger": false,
      "metar": "METAR LRCV 100630Z 27003KT 1300 R26/P2000 BR OVC002 15/15 Q1016",
      "taf": "TAF LRCV 100500Z 1006/1015 VRB04KT 0300 FG VV002"
    },
    {
      "icao": "LRIA",
      "alert": "OK",
      "vis_m": 6000,
      "fzfg": false,
      "metar_trigger": false,
      "taf_trigger": false,
      "metar": "METAR LRIA 100630Z 29011KT 6000 -RA OVC005 13/12 Q1015",
      "taf": "TAF LRIA 100500Z 1006/1015 32012KT 9999 OVC010"
    },
    {
      "icao": "LROP",
      "alert": "OK",
      "vis_m": 7000,
      "fzfg": false,
      "metar_trigger": false,
      "taf_trigger": false,
      "metar": "METAR LROP 100630Z 00000KT 7000 FEW005 BKN015 BKN022 15/14 Q1016 NOSIG",
      "taf": "TAF LROP 100500Z 1006/1106 24005KT 3000 RA BR BKN035"
    },
    {
      "icao": "LRSB",
      "alert": "OK",
      "vis_m": 9999,
      "fzfg": false,
      "metar_trigger": false,
      "taf_trigger": false,
      "metar": "METAR LRSB 100630Z VRB02KT CAVOK 16/12 Q1016 NOSIG",
      "taf": "TAF LRSB 100500Z 1006/1106 VRB04KT CAVOK"
    },
    {
      "icao": "LRSM",
      "alert": "OK",
      "vis_m": 9999,
      "fzfg": false,
      "metar_trigger": false,
      "taf_trigger": false,
      "metar": "METAR LRSM 100630Z AUTO VRB01KT 9999 NCD 14/09 Q1016",
      "taf": ""
    },
    {
      "icao": "LRSV",
      "alert": "OK",
      "vis_m": 6000,
      "fzfg": false,
      "metar_trigger": false,
      "taf_trigger": false,
      "metar": "METAR LRSV 100630Z 31010KT 6000 BKN005 BKN030 10/10 Q1016",
      "taf": "TAF LRSV 100500Z 1006/1015 32014KT 3000 BR BKN005 BKN030"
    },
    {
      "icao": "LRTM",
      "alert": "OK",
      "vis_m": 1000,
      "fzfg": false,
      "metar_trigger": false,
      "taf_trigger": false,
      "metar": "METAR LRTM 100630Z VRB02KT 1000 R07/1500D BR SCT003 BKN006 12/11 Q1017",
      "taf": "TAF LRTM 100500Z 1006/1015 25005KT 0150 FG OVC001"
    },
    {
      "icao": "LRTR",
      "alert": "OK",
      "vis_m": 9999,
      "fzfg": false,
      "metar_trigger": false,
      "taf_trigger": false,
      "metar": "METAR LRTR 100630Z 15006KT CAVOK 16/13 Q1016 NOSIG",
      "taf": "TAF LRTR 100500Z 1006/1106 10007KT CAVOK"
    },
    {
      "icao": "LTAC",
      "alert": "OK",
      "vis_m": 9999,
      "fzfg": false,
      "metar_trigger": false,
      "taf_trigger": false,
      "metar": "METAR LTAC 100620Z VRB03KT 9999 FEW013 SCT040 BKN100 15/11 Q1018 NOSIG RMK RWY21C 15003KT 110V220 RWY03L VRB02KT RWY21R VRB02KT RWY03R 18003KT 140V250 RWY21L VRB02KT",
      "taf": "TAF LTAC 100440Z 1006/1106 VRB02KT 9999 SCT040 SCT100"
    },
    {
      "icao": "LTFM",
      "alert": "OK",
      "vis_m": 9999,
      "fzfg": false,
      "metar_trigger": false,
      "taf_trigger": false,
      "metar": "METAR LTFM 100620Z 36008KT 330V030 9999 FEW040 SCT090 18/13 Q1015 NOSIG RMK RWY17L 34007KT 300V020 RWY34L 36009KT RWY16R 36006KT 320V020 RWY36 36008KT RWY18 35006KT 300V020",
      "taf": "TAF LTFM 100440Z 1006/1112 33008KT 9999 FEW040 BKN090"
    },
    {
      "icao": "LUKK",
      "alert": "OK",
      "vis_m": 9999,
      "fzfg": false,
      "metar_trigger": false,
      "taf_trigger": false,
      "metar": "METAR LUKK 100630Z 21005KT 9999 -RA FEW008 BKN028 15/14 Q1014 NOSIG",
      "taf": "TAF LUKK 100501Z 1006/1106 VRB06KT 9999 SCT040"
    },
    {
      "icao": "LWOH",
      "alert": "OK",
      "vis_m": 9999,
      "fzfg": false,
      "metar_trigger": false,
      "taf_trigger": false,
      "metar": "METAR LWOH 100620Z VRB02KT 9999 SCT008 SCT020 13/11 Q1019",
      "taf": "TAF LWOH 100540Z 1006/1106 VRB02KT 9999 SCT015"
    },
    {
      "icao": "LWSK",
      "alert": "OK",
      "vis_m": 9999,
      "fzfg": false,
      "metar_trigger": false,
      "taf_trigger": false,
      "metar": "METAR LWSK 100550Z VRB02KT CAVOK 15/11 Q1018 NOSIG",
      "taf": ""
    },
    {
      "icao": "LYBE",
      "alert": "OK",
      "vis_m": 9999,
      "fzfg": false,
      "metar_trigger": false,
      "taf_trigger": false,
      "metar": "METAR LYBE 100630Z 21005KT 180V240 CAVOK 17/13 Q1016 NOSIG",
      "taf": "TAF LYBE 100500Z 1006/1106 16005KT 9999 SCT040 TX26/1014Z TN14/1103Z"
    },
    {
      "icao": "LYNI",
      "alert": "OK",
      "vis_m": 8000,
      "fzfg": false,
      "metar_trigger": false,
      "taf_trigger": false,
      "metar": "METAR LYNI 100630Z 11004KT 070V150 8000 BKN004 13/13 Q1018 BECMG SCT006",
      "taf": "TAF LYNI 100500Z 1006/1106 15004KT 1500 BR BKN006 TX24/1013Z TN11/1103Z"
    },
    {
      "icao": "LYPG",
      "alert": "OK",
      "vis_m": 9999,
      "fzfg": false,
      "metar_trigger": false,
      "taf_trigger": false,
      "metar": "METAR LYPG 100630Z VRB01KT 9999 FEW023 SCT080 19/11 Q1016 NOSIG",
      "taf": "TAF LYPG 100500Z 1006/1106 18008KT 9999 FEW050 BKN090 TX23/1014Z TN15/1104Z"
    },
    {
      "icao": "LZIB",
      "alert": "OK",
      "vis_m": 9999,
      "fzfg": false,
      "metar_trigger": false,
      "taf_trigger": false,
      "metar": "METAR LZIB 100630Z 05004KT 020V100 CAVOK 13/06 Q1016 NOSIG",
      "taf": "TAF LZIB 100515Z 1006/1106 VRB02KT CAVOK"
    },
    {
      "icao": "LZKZ",
      "alert": "OK",
      "vis_m": 9999,
      "fzfg": false,
      "metar_trigger": false,
      "taf_trigger": false,
      "metar": "METAR LZKZ 100630Z 01014KT CAVOK 13/05 Q1017 NOSIG",
      "taf": "TAF LZKZ 100515Z 1006/1106 02012KT CAVOK"
    },
    {
      "icao": "LZTT",
      "alert": "OK",
      "vis_m": 9999,
      "fzfg": false,
      "metar_trigger": false,
      "taf_trigger": false,
      "metar": "METAR LZTT 100630Z 11004KT 070V160 9999 FEW016 BKN033 09/03 Q1017 NOSIG",
      "taf": "TAF LZTT 100515Z 1006/1106 VRB02KT 9999 SCT035"
    },
    {
      "icao": "OEJN",
      "alert": "OK",
      "vis_m": 9999,
      "fzfg": false,
      "metar_trigger": false,
      "taf_trigger": false,
      "metar": "METAR OEJN 100600Z 33005KT CAVOK 30/22 Q1009 NOSIG",
      "taf": "TAF OEJN 100500Z 1006/1112 24012KT CAVOK"
    },
    {
      "icao": "OEMA",
      "alert": "OK",
      "vis_m": 9999,
      "fzfg": false,
      "metar_trigger": false,
      "taf_trigger": false,
      "metar": "METAR OEMA 100600Z VRB02KT CAVOK 33/01 Q1015 NOSIG",
      "taf": "TAF OEMA 100500Z 1006/1112 22012KT 7000 FEW040"
    },
    {
      "icao": "OJAI",
      "alert": "OK",
      "vis_m": 5000,
      "fzfg": false,
      "metar_trigger": false,
      "taf_trigger": false,
      "metar": "METAR OJAI 100600Z 14004KT 5000 HZ NSC 21/08 Q1019 NOSIG",
      "taf": "TAF OJAI 100500Z 1006/1112 29010KT 6000 NSC"
    },
    {
      "icao": "OMAA",
      "alert": "OK",
      "vis_m": 9999,
      "fzfg": false,
      "metar_trigger": false,
      "taf_trigger": false,
      "metar": "METAR OMAA 100630Z 29012KT CAVOK 34/15 Q1009 NOSIG",
      "taf": "TAF OMAA 100500Z 1006/1112 30014KT 8000 NSC"
    },
    {
      "icao": "OMDB",
      "alert": "OK",
      "vis_m": 9999,
      "fzfg": false,
      "metar_trigger": false,
      "taf_trigger": false,
      "metar": "METAR OMDB 100630Z 28011KT 260V320 CAVOK 34/18 Q1008 NOSIG",
      "taf": "TAF OMDB 100500Z 1006/1112 21007KT CAVOK"
    },
    {
      "icao": "UAAA",
      "alert": "OK",
      "vis_m": 9999,
      "fzfg": false,
      "metar_trigger": false,
      "taf_trigger": false,
      "metar": "METAR UAAA 100630Z 22002MPS 190V260 9999 -SHRA BKN037CB OVC100 19/15 Q1015 NOSIG",
      "taf": "TAF UAAA 100501Z 1006/1106 23003G08MPS 9999 BKN050CB OVC100 TX22/1006Z TN12/1100Z"
    },
    {
      "icao": "UBBB",
      "alert": "OK",
      "vis_m": 9999,
      "fzfg": false,
      "metar_trigger": false,
      "taf_trigger": false,
      "metar": "METAR UBBB 100630Z VRB02KT CAVOK 26/11 Q1018 NOSIG",
      "taf": "TAF UBBB 100500Z 1006/1106 VRB04KT CAVOK TX26/1010Z TN14/1101Z"
    },
    {
      "icao": "UDSG",
      "alert": "OK",
      "vis_m": 9999,
      "fzfg": false,
      "metar_trigger": false,
      "taf_trigger": false,
      "metar": "METAR UDSG 100630Z 25005KT 9999 FEW049 15/03 Q1023 NOSIG",
      "taf": "TAF UDSG 100458Z 1006/1106 23006KT 9999 SCT050"
    },
    {
      "icao": "UDYZ",
      "alert": "OK",
      "vis_m": null,
      "fzfg": false,
      "metar_trigger": false,
      "taf_trigger": false,
      "metar": "",
      "taf": "TAF UDYZ 100500Z 1006/1106 20006KT 9999 FEW040"
    },
    {
      "icao": "UGKO",
      "alert": "OK",
      "vis_m": 9999,
      "fzfg": false,
      "metar_trigger": false,
      "taf_trigger": false,
      "metar": "METAR UGKO 100630Z 09015G25KT CAVOK 24/11 Q1013 NOSIG",
      "taf": "TAF UGKO 100500Z 1006/1106 09010KT CAVOK TX29/1011Z TN13/1102Z"
    }
  ]
}