{
  "ts_utc": "2026-01-04T04:55:38Z",
  "threshold_m": 150,
  "source": "stations_override.txt (ICAO list) + aviationweather.gov (METAR/TAF raw)",
  "station_count": 159,
  "stations": [
    {
      "icao": "BIKF",
      "alert": "OK",
      "vis_m": 9999,
      "fzfg": false,
      "metar_trigger": false,
      "taf_trigger": false,
      "metar": "METAR BIKF 040430Z 01005KT CAVOK M03/M08 Q1028",
      "taf": "TAF BIKF 040444Z 0406/0506 01008KT CAVOK TX02/0506Z TNM04/0406Z"
    },
    {
      "icao": "BKPR",
      "alert": "OK",
      "vis_m": 9999,
      "fzfg": false,
      "metar_trigger": false,
      "taf_trigger": false,
      "metar": "METAR BKPR 040430Z 34005KT 9999 SCT040 BKN055 04/03 Q1005 NOSIG",
      "taf": "TAF BKPR 032330Z 0400/0424 17008KT 9999 FEW012 BKN030"
    },
    {
      "icao": "EBCI",
      "alert": "OK",
      "vis_m": 9999,
      "fzfg": false,
      "metar_trigger": false,
      "taf_trigger": false,
      "metar": "METAR EBCI 040420Z 25009KT 9999 FEW020 M02/M04 Q1010 NOSIG",
      "taf": "TAF EBCI 032300Z 0400/0506 26008KT 9999 FEW015 SCT035"
    },
    {
      "icao": "EDDB",
      "alert": "OK",
      "vis_m": 9999,
      "fzfg": false,
      "metar_trigger": false,
      "taf_trigger": false,
      "metar": "METAR EDDB 040450Z AUTO 26009KT 9999 FEW047 M05/M07 Q1002 NOSIG",
      "taf": "TAF EDDB 032300Z 0400/0424 25015G25KT 9999 BKN025"
    },
    {
      "icao": "EDDH",
      "alert": "OK",
      "vis_m": 9999,
      "fzfg": false,
      "metar_trigger": false,
      "taf_trigger": false,
      "metar": "METAR EDDH 040450Z AUTO 23004KT 9999 FEW001 M07/M07 Q1001 TEMPO BKN005",
      "taf": "TAF EDDH 032300Z 0400/0506 27005KT 9999 FEW035"
    },
    {
      "icao": "EDDK",
      "alert": "OK",
      "vis_m": 9999,
      "fzfg": false,
      "metar_trigger": false,
      "taf_trigger": false,
      "metar": "METAR EDDK 040450Z AUTO 25014KT 9999 FEW011 BKN033 BKN043 01/M02 Q1008 RESHSN NOSIG",
      "taf": "TAF EDDK 032300Z 0400/0506 24008KT 9999 SCT007 BKN020"
    },
    {
      "icao": "EDDN",
      "alert": "OK",
      "vis_m": 9999,
      "fzfg": false,
      "metar_trigger": false,
      "taf_trigger": false,
      "metar": "METAR EDDN 040450Z AUTO 24014KT 9999 BKN022 M02/M07 Q1009",
      "taf": "TAF EDDN 032300Z 0400/0424 24010KT 9999 BKN015"
    },
    {
      "icao": "EDDS",
      "alert": "OK",
      "vis_m": 9999,
      "fzfg": false,
      "metar_trigger": false,
      "taf_trigger": false,
      "metar": "METAR EDDS 040450Z AUTO 22006KT 140V250 9999 OVC027 M02/M07 Q1010",
      "taf": "TAF EDDS 032300Z 0400/0424 22006KT 9999 FEW020 BKN040"
    },
    {
      "icao": "EDFH",
      "alert": "OK",
      "vis_m": 9999,
      "fzfg": false,
      "metar_trigger": false,
      "taf_trigger": false,
      "metar": "METAR EDFH 040420Z 26014KT 9999 BKN011 M02/M04 Q1007",
      "taf": "TAF EDFH 032300Z 0400/0424 27011KT 9999 BKN030"
    },
    {
      "icao": "EDJA",
      "alert": "OK",
      "vis_m": 9999,
      "fzfg": false,
      "metar_trigger": false,
      "taf_trigger": false,
      "metar": "METAR EDJA 040420Z AUTO 23007KT 9999 // FEW140/// M07/M09 Q1010",
      "taf": "TAF EDJA 040200Z 0403/0412 23010KT CAVOK"
    },
    {
      "icao": "EDLW",
      "alert": "OK",
      "vis_m": 9999,
      "fzfg": false,
      "metar_trigger": false,
      "taf_trigger": false,
      "metar": "METAR EDLW 040420Z 24011KT 9999 BKN009 01/M01 Q1005",
      "taf": "TAF EDLW 040420Z 0405/0424 24013KT 9999 SCT008 BKN012"
    },
    {
      "icao": "EDNY",
      "alert": "OK",
      "vis_m": 9999,
      "fzfg": false,
      "metar_trigger": false,
      "taf_trigger": false,
      "metar": "METAR EDNY 040420Z AUTO VRB01KT 9999 // FEW020/// M08/M09 Q1012",
      "taf": "TAF EDNY 031700Z 0318/0403 25005KT 9999 BKN030"
    },
    {
      "icao": "EDSB",
      "alert": "OK",
      "vis_m": 9999,
      "fzfg": false,
      "metar_trigger": false,
      "taf_trigger": false,
      "metar": "METAR EDSB 040420Z 21008KT 9999 OVC025 M02/M05 Q1012",
      "taf": "TAF EDSB 032300Z 0400/0424 21008KT 9999 BKN040"
    },
    {
      "icao": "EETN",
      "alert": "OK",
      "vis_m": 3800,
      "fzfg": false,
      "metar_trigger": false,
      "taf_trigger": false,
      "metar": "METAR EETN 040450Z 07010KT 3800 SN OVC008 M03/M04 Q0994 TEMPO 2000",
      "taf": "TAF EETN 032330Z 0400/0424 06012KT 4000 SN BKN012 OVC020"
    },
    {
      "icao": "EFTU",
      "alert": "OK",
      "vis_m": 9999,
      "fzfg": false,
      "metar_trigger": false,
      "taf_trigger": false,
      "metar": "METAR EFTU 040450Z AUTO 05008KT 030V090 CAVOK M12/M15 Q0997",
      "taf": "TAF EFTU 040235Z 0403/0503 05009KT CAVOK"
    },
    {
      "icao": "EGBB",
      "alert": "OK",
      "vis_m": 9999,
      "fzfg": false,
      "metar_trigger": false,
      "taf_trigger": false,
      "metar": "METAR EGBB 040420Z 26004KT CAVOK M03/M06 Q1013",
      "taf": "TAF EGBB 032256Z 0400/0424 29008KT 9999 FEW035"
    },
    {
      "icao": "EGGP",
      "alert": "OK",
      "vis_m": 9999,
      "fzfg": false,
      "metar_trigger": false,
      "taf_trigger": false,
      "metar": "METAR EGGP 040450Z 33005KT CAVOK M01/M06 Q1013",
      "taf": "TAF EGGP 032256Z 0400/0424 31009KT 9999 FEW035"
    },
    {
      "icao": "EGGW",
      "alert": "OK",
      "vis_m": 9999,
      "fzfg": false,
      "metar_trigger": false,
      "taf_trigger": false,
      "metar": "METAR EGGW 040420Z AUTO 28010KT 9999 NCD M04/M07 Q1012",
      "taf": "TAF EGGW 032258Z 0400/0424 30012KT 9999 FEW025"
    },
    {
      "icao": "EGKK",
      "alert": "OK",
      "vis_m": 9999,
      "fzfg": false,
      "metar_trigger": false,
      "taf_trigger": false,
      "metar": "METAR EGKK 040420Z 28006KT CAVOK M03/M06 Q1014",
      "taf": ""
    },
    {
      "icao": "EGNM",
      "alert": "OK",
      "vis_m": 9999,
      "fzfg": false,
      "metar_trigger": false,
      "taf_trigger": false,
      "metar": "METAR EGNM 040450Z 28013KT CAVOK M03/M08 Q1011",
      "taf": "TAF EGNM 032257Z 0400/0424 30015KT 9999 FEW045"
    },
    {
      "icao": "EGPD",
      "alert": "OK",
      "vis_m": 9999,
      "fzfg": false,
      "metar_trigger": false,
      "taf_trigger": false,
      "metar": "METAR EGPD 040420Z AUTO 29014KT 9999 -SN FEW017 SCT039 M01/M04 Q1008 TEMPO 1800 SHSN",
      "taf": "TAF EGPD 032254Z 0400/0424 31012KT 9999 FEW012"
    },
    {
      "icao": "EGPF",
      "alert": "OK",
      "vis_m": 9999,
      "fzfg": false,
      "metar_trigger": false,
      "taf_trigger": false,
      "metar": "METAR EGPF 040420Z AUTO 25005KT 9999 NCD M03/M05 Q1013",
      "taf": "TAF EGPF 032259Z 0400/0424 28007KT CAVOK"
    },
    {
      "icao": "EHBK",
      "alert": "OK",
      "vis_m": 9999,
      "fzfg": false,
      "metar_trigger": false,
      "taf_trigger": false,
      "metar": "METAR EHBK 040425Z COR AUTO 23013KT 9999 FEW017 SCT020 BKN030 M00/M02 Q1009 NOSIG",
      "taf": "TAF EHBK 032314Z 0400/0506 24011KT 9999 BKN008"
    },
    {
      "icao": "EHEH",
      "alert": "OK",
      "vis_m": 9999,
      "fzfg": false,
      "metar_trigger": false,
      "taf_trigger": false,
      "metar": "METAR EHEH 040425Z AUTO 25011KT 220V280 9999 FEW015CB SCT050 BKN087 01/M01 Q1007 BLU",
      "taf": "TAF EHEH 032311Z 0400/0506 24010KT 9999 SCT020 BKN030"
    },
    {
      "icao": "EKBI",
      "alert": "OK",
      "vis_m": 9999,
      "fzfg": false,
      "metar_trigger": false,
      "taf_trigger": false,
      "metar": "METAR EKBI 040450Z AUTO VRB01KT 9999 NCD M11/M13 Q0999",
      "taf": "TAF EKBI 040227Z 0403/0503 26005KT 9999 FEW030"
    },
    {
      "icao": "EKCH",
      "alert": "OK",
      "vis_m": 9999,
      "fzfg": false,
      "metar_trigger": false,
      "taf_trigger": false,
      "metar": "METAR EKCH 040450Z 28010KT 9999 -SHSN NSC M03/M05 Q0996 TEMPO 3000 SHSN BKN014",
      "taf": "TAF EKCH 040227Z 0403/0503 28010KT 9999 -SHSN BKN040"
    },
    {
      "icao": "ENAL",
      "alert": "OK",
      "vis_m": 9999,
      "fzfg": false,
      "metar_trigger": false,
      "taf_trigger": false,
      "metar": "METAR ENAL 040420Z AUTO 15007KT 9999 NCD M06/M12 Q1000",
      "taf": "TAF ENAL 040200Z 0403/0412 13009KT CAVOK"
    },
    {
      "icao": "ENBR",
      "alert": "OK",
      "vis_m": 9999,
      "fzfg": false,
      "metar_trigger": false,
      "taf_trigger": false,
      "metar": "METAR ENBR 040420Z 09003KT 050V110 CAVOK M10/M14 Q1000 RMK WIND 1200FT 15006KT",
      "taf": "TAF ENBR 032300Z 0400/0424 08005KT CAVOK"
    },
    {
      "icao": "ENGM",
      "alert": "OK",
      "vis_m": 7000,
      "fzfg": false,
      "metar_trigger": false,
      "taf_trigger": false,
      "metar": "METAR ENGM 040420Z 01012KT 7000 -SN FEW027 BKN046 M08/M11 Q0999",
      "taf": "TAF ENGM 032300Z 0400/0424 01015KT 9000 -SN FEW020 BKN035"
    },
    {
      "icao": "ENHD",
      "alert": "OK",
      "vis_m": 9999,
      "fzfg": false,
      "metar_trigger": false,
      "taf_trigger": false,
      "metar": "METAR ENHD 040420Z AUTO 10007KT 9999 NCD M09/M12 Q1000",
      "taf": "TAF ENHD 040200Z 0403/0412 09009KT CAVOK"
    },
    {
      "icao": "ENTC",
      "alert": "OK",
      "vis_m": 9999,
      "fzfg": false,
      "metar_trigger": false,
      "taf_trigger": false,
      "metar": "METAR ENTC 040420Z AUTO VRB02KT 9999 OVC009/// M11/M13 Q1007 RMK WIND 2600FT 08007KT",
      "taf": "TAF ENTC 032300Z 0400/0424 19009KT 9999 FEW040"
    },
    {
      "icao": "ENTO",
      "alert": "OK",
      "vis_m": 8000,
      "fzfg": false,
      "metar_trigger": false,
      "taf_trigger": false,
      "metar": "METAR ENTO 040420Z AUTO 36011KT 8000 -SN BKN021/// OVC030/// M07/M10 Q0999",
      "taf": "TAF ENTO 032300Z 0400/0424 36012KT 6000 -SN BKN020"
    },
    {
      "icao": "ENVA",
      "alert": "OK",
      "vis_m": 9999,
      "fzfg": false,
      "metar_trigger": false,
      "taf_trigger": false,
      "metar": "METAR ENVA 040420Z AUTO 11007KT 9999 NCD M11/M15 Q1006 RMK WIND 670FT 10007KT",
      "taf": "TAF ENVA 032300Z 0400/0424 12009KT CAVOK"
    },
    {
      "icao": "ENZV",
      "alert": "OK",
      "vis_m": 9999,
      "fzfg": false,
      "metar_trigger": false,
      "taf_trigger": false,
      "metar": "METAR ENZV 040420Z VRB02KT CAVOK M11/M14 Q1000",
      "taf": "TAF ENZV 032300Z 0400/0424 VRB03KT CAVOK"
    },
    {
      "icao": "EPGD",
      "alert": "OK",
      "vis_m": 9999,
      "fzfg": false,
      "metar_trigger": false,
      "taf_trigger": false,
      "metar": "METAR EPGD 040430Z VRB02KT 9999 FEW048 M08/M09 Q0994",
      "taf": "TAF EPGD 032330Z 0400/0424 22005KT CAVOK"
    },
    {
      "icao": "EPKK",
      "alert": "OK",
      "vis_m": 9999,
      "fzfg": false,
      "metar_trigger": false,
      "taf_trigger": false,
      "metar": "METAR EPKK 040430Z 23005KT CAVOK M03/M09 Q1005",
      "taf": "TAF EPKK 040230Z 0403/0503 24008KT CAVOK"
    },
    {
      "icao": "EPKT",
      "alert": "OK",
      "vis_m": 9999,
      "fzfg": false,
      "metar_trigger": false,
      "taf_trigger": false,
      "metar": "METAR EPKT 040430Z 21012KT CAVOK M04/M09 Q1004",
      "taf": "TAF EPKT 032330Z 0400/0424 21015KT CAVOK"
    },
    {
      "icao": "EPLB",
      "alert": "OK",
      "vis_m": 9999,
      "fzfg": false,
      "metar_trigger": false,
      "taf_trigger": false,
      "metar": "METAR EPLB 040430Z 22013KT CAVOK M03/M08 Q1003",
      "taf": "TAF EPLB 032330Z 0400/0424 22015KT 9999 SCT040"
    },
    {
      "icao": "EPMO",
      "alert": "OK",
      "vis_m": 9999,
      "fzfg": false,
      "metar_trigger": false,
      "taf_trigger": false,
      "metar": "METAR EPMO 040430Z 21012KT 9999 BKN022 BKN035 M01/M04 Q0999",
      "taf": "TAF EPMO 032330Z 0400/0424 22014KT CAVOK"
    },
    {
      "icao": "EPPO",
      "alert": "OK",
      "vis_m": 9999,
      "fzfg": false,
      "metar_trigger": false,
      "taf_trigger": false,
      "metar": "METAR EPPO 040430Z 26019KT 9999 -SN DRSN OVC020 M02/M05 Q0998",
      "taf": ""
    },
    {
      "icao": "EPRA",
      "alert": "OK",
      "vis_m": 9999,
      "fzfg": false,
      "metar_trigger": false,
      "taf_trigger": false,
      "metar": "METAR EPRA 040430Z 24011KT 9999 SCT036 M02/M07 Q1002",
      "taf": "TAF EPRA 040230Z 0403/0412 22014KT 9999 SCT040"
    },
    {
      "icao": "EPRZ",
      "alert": "OK",
      "vis_m": 9999,
      "fzfg": false,
      "metar_trigger": false,
      "taf_trigger": false,
      "metar": "METAR EPRZ 040430Z 21011KT CAVOK M02/M08 Q1005",
      "taf": "TAF EPRZ 032330Z 0400/0424 18008KT CAVOK"
    },
    {
      "icao": "EPSC",
      "alert": "OK",
      "vis_m": 9999,
      "fzfg": false,
      "metar_trigger": false,
      "taf_trigger": false,
      "metar": "METAR EPSC 040430Z 26012KT 9999 FEW015 SCT027 BKN039 M03/M05 Q0998",
      "taf": "TAF EPSC 032330Z 0400/0424 18006KT 7000 -SN BKN020"
    },
    {
      "icao": "EPSY",
      "alert": "OK",
      "vis_m": 9999,
      "fzfg": false,
      "metar_trigger": false,
      "taf_trigger": false,
      "metar": "METAR EPSY 040430Z 21013KT 9999 OVC012 M02/M04 Q0997",
      "taf": "TAF EPSY 040230Z 0403/0412 22010KT 7000 BKN030"
    },
    {
      "icao": "EPWA",
      "alert": "OK",
      "vis_m": 9999,
      "fzfg": false,
      "metar_trigger": false,
      "taf_trigger": false,
      "metar": "METAR EPWA 040430Z 20009KT 9999 BKN044 M01/M04 Q1000 NOSIG",
      "taf": "TAF EPWA 040230Z 0403/0503 20010KT 9999 BKN030"
    },
    {
      "icao": "EPWR",
      "alert": "OK",
      "vis_m": 9999,
      "fzfg": false,
      "metar_trigger": false,
      "taf_trigger": false,
      "metar": "METAR EPWR 040430Z 23013KT 200V260 9999 FEW043 00/M06 Q1002",
      "taf": "TAF EPWR 040230Z 0403/0503 23012KT 9999 BKN030"
    },
    {
      "icao": "ESGG",
      "alert": "OK",
      "vis_m": 9999,
      "fzfg": false,
      "metar_trigger": false,
      "taf_trigger": false,
      "metar": "METAR ESGG 040420Z 35010KT 9999 -SN OVC005 M07/M08 Q0994",
      "taf": "TAF ESGG 040230Z 0403/0503 35010KT 9999 SCT012 BKN020"
    },
    {
      "icao": "ESKN",
      "alert": "OK",
      "vis_m": 9999,
      "fzfg": false,
      "metar_trigger": false,
      "taf_trigger": false,
      "metar": "METAR ESKN 040450Z 01009KT 340V060 9999 OVC010 M03/M04 Q0993",
      "taf": "TAF ESKN 040230Z 0403/0503 02012KT 8000 -SN SCT006 BKN020"
    },
    {
      "icao": "ESMS",
      "alert": "OK",
      "vis_m": 4500,
      "fzfg": false,
      "metar_trigger": false,
      "taf_trigger": false,
      "metar": "METAR ESMS 040420Z 29007KT 4500 -SN FEW005 BKN015 M04/M05 Q0994",
      "taf": "TAF ESMS 040227Z 0403/0503 30010KT 9999 -SHSN BKN016"
    },
    {
      "icao": "ESSA",
      "alert": "OK",
      "vis_m": 9999,
      "fzfg": false,
      "metar_trigger": false,
      "taf_trigger": false,
      "metar": "METAR ESSA 040450Z 03015KT 9999 OVC008 M04/M05 Q0995 NOSIG",
      "taf": ""
    },
    {
      "icao": "EYKA",
      "alert": "OK",
      "vis_m": 9000,
      "fzfg": false,
      "metar_trigger": false,
      "taf_trigger": false,
      "metar": "METAR EYKA 040450Z 19004KT 150V260 9000 BKN017 OVC022 M03/M04 Q0997",
      "taf": "TAF EYKA 032302Z 0400/0424 VRB04KT 8000 SCT010"
    },
    {
      "icao": "EYPA",
      "alert": "OK",
      "vis_m": 1400,
      "fzfg": false,
      "metar_trigger": false,
      "taf_trigger": false,
      "metar": "METAR EYPA 040450Z 23008KT 190V290 1400 R19/P2000N +SHSN FEW007 SCT013CB BKN039 M01/M01 Q0993",
      "taf": "TAF EYPA 032303Z 0400/0424 25010KT 9000 BKN020"
    },
    {
      "icao": "EYVI",
      "alert": "OK",
      "vis_m": 9000,
      "fzfg": false,
      "metar_trigger": false,
      "taf_trigger": false,
      "metar": "METAR EYVI 040450Z 20010KT 9000 SCT004 BKN030 M03/M04 Q0997 TEMPO 1500 SN BR",
      "taf": "TAF EYVI 032302Z 0400/0424 18010KT 8000 OVC010"
    },
    {
      "icao": "GCFV",
      "alert": "OK",
      "vis_m": 9999,
      "fzfg": false,
      "metar_trigger": false,
      "taf_trigger": false,
      "metar": "METAR GCFV 040430Z AUTO 26012KT CAVOK 18/14 Q1008",
      "taf": "TAF GCFV 040200Z 0403/0503 29015KT 9999 FEW020 SCT035 TX22/0414Z TN17/0406Z"
    },
    {
      "icao": "GCLP",
      "alert": "OK",
      "vis_m": 9999,
      "fzfg": false,
      "metar_trigger": false,
      "taf_trigger": false,
      "metar": "METAR GCLP 040430Z 32005KT 9999 FEW030 16/12 Q1009 NOSIG",
      "taf": "TAF GCLP 040200Z 0403/0503 33005KT 9999 FEW020 SCT035 TX21/0414Z TN16/0406Z"
    },
    {
      "icao": "GCTS",
      "alert": "OK",
      "vis_m": 9999,
      "fzfg": false,
      "metar_trigger": false,
      "taf_trigger": false,
      "metar": "METAR GCTS 040430Z 03004KT 9999 FEW030 16/12 Q1009 R/SNOCLO NOSIG",
      "taf": "TAF GCTS 040200Z 0403/0503 30007KT 9999 SCT030 TX25/0414Z TN17/0406Z"
    },
    {
      "icao": "GMAD",
      "alert": "OK",
      "vis_m": 6000,
      "fzfg": false,
      "metar_trigger": false,
      "taf_trigger": false,
      "metar": "METAR GMAD 040430Z 20015KT 6000 FEW010 SCT016 BKN026TCU 16/15 Q1004 TEMPO 4000 RA",
      "taf": ""
    },
    {
      "icao": "GMMN",
      "alert": "OK",
      "vis_m": 9999,
      "fzfg": false,
      "metar_trigger": false,
      "taf_trigger": false,
      "metar": "METAR GMMN 040430Z 23016KT 200V260 9999 BKN012 BKN016TCU 14/13 Q0998 NOSIG",
      "taf": "TAF GMMN 032300Z 0400/0506 20018KT 9999 SCT013 BKN020TCU"
    },
    {
      "icao": "GMMX",
      "alert": "OK",
      "vis_m": 9999,
      "fzfg": false,
      "metar_trigger": false,
      "taf_trigger": false,
      "metar": "METAR GMMX 040430Z 25007KT 9999 SCT016 BKN080 14/10 Q1001 NOSIG",
      "taf": "TAF GMMX 032300Z 0400/0506 14006KT 8000 SCT016 SCT023"
    },
    {
      "icao": "HEGN",
      "alert": "OK",
      "vis_m": 9999,
      "fzfg": false,
      "metar_trigger": false,
      "taf_trigger": false,
      "metar": "METAR HEGN 040400Z 31008KT CAVOK 13/03 Q1021 NOSIG",
      "taf": "TAF HEGN 032300Z 0400/0506 30010KT CAVOK"
    },
    {
      "icao": "HEMA",
      "alert": "OK",
      "vis_m": 9999,
      "fzfg": false,
      "metar_trigger": false,
      "taf_trigger": false,
      "metar": "METAR HEMA 040400Z 31018KT CAVOK 18/12 Q1019 NOSIG",
      "taf": "TAF HEMA 032300Z 0400/0506 26010KT CAVOK"
    },
    {
      "icao": "HESH",
      "alert": "OK",
      "vis_m": 9999,
      "fzfg": false,
      "metar_trigger": false,
      "taf_trigger": false,
      "metar": "METAR HESH 040400Z 36008KT CAVOK 18/05 Q1021 NOSIG",
      "taf": "TAF HESH 032300Z 0400/0506 32010KT CAVOK"
    },
    {
      "icao": "HESX",
      "alert": "OK",
      "vis_m": 4000,
      "fzfg": false,
      "metar_trigger": false,
      "taf_trigger": false,
      "metar": "METAR HESX 040400Z 02004KT 4000 BR NSC 07/05 Q1022 NOSIG",
      "taf": "TAF HESX 032300Z 0400/0506 04010KT CAVOK"
    },
    {
      "icao": "LATI",
      "alert": "OK",
      "vis_m": 9999,
      "fzfg": false,
      "metar_trigger": false,
      "taf_trigger": false,
      "metar": "METAR LATI 040450Z 17011KT 130V200 9999 SCT025 OVC078 16/09 Q1010 NOSIG",
      "taf": "TAF LATI 032300Z 0400/0424 16014KT 9999 SCT025 BKN050 TX17/0412Z TN11/0405Z"
    },
    {
      "icao": "LBPD",
      "alert": "OK",
      "vis_m": 9999,
      "fzfg": false,
      "metar_trigger": false,
      "taf_trigger": false,
      "metar": "METAR LBPD 040430Z AUTO VRB03KT 9999 FEW240/// 05/05 Q1008 NOSIG",
      "taf": "TAF LBPD 032300Z 0400/0424 VRB03KT 9999 SCT020 BKN080"
    },
    {
      "icao": "LBSF",
      "alert": "OK",
      "vis_m": 9999,
      "fzfg": false,
      "metar_trigger": false,
      "taf_trigger": false,
      "metar": "METAR LBSF 040430Z 19015G29KT 150V240 9999 SCT082 14/04 Q1005 TEMPO 21025G35KT",
      "taf": "TAF LBSF 032300Z 0400/0424 VRB03KT 9999 SCT025 BKN050"
    },
    {
      "icao": "LBWN",
      "alert": "OK",
      "vis_m": 9999,
      "fzfg": false,
      "metar_trigger": false,
      "taf_trigger": false,
      "metar": "METAR LBWN 040430Z AUTO 12011KT 9999 FEW011/// SCT013/// OVC017/// 07/06 Q1010 NOSIG",
      "taf": "TAF LBWN 032300Z 0400/0424 VRB03KT 9999 BKN040"
    },
    {
      "icao": "LCLK",
      "alert": "OK",
      "vis_m": 9999,
      "fzfg": false,
      "metar_trigger": false,
      "taf_trigger": false,
      "metar": "METAR LCLK 040430Z 31006KT 9999 FEW030 08/06 Q1027 NOSIG",
      "taf": "TAF LCLK 032330Z 0400/0500 32006KT 9999 FEW030"
    },
    {
      "icao": "LCPH",
      "alert": "OK",
      "vis_m": 9999,
      "fzfg": false,
      "metar_trigger": false,
      "taf_trigger": false,
      "metar": "METAR LCPH 040430Z 05006KT 010V080 9999 FEW035 BKN050 10/06 Q1027 NOSIG",
      "taf": "TAF LCPH 032330Z 0400/0500 06008KT 9999 SCT040"
    },
    {
      "icao": "LEAL",
      "alert": "OK",
      "vis_m": 9999,
      "fzfg": false,
      "metar_trigger": false,
      "taf_trigger": false,
      "metar": "METAR LEAL 040430Z 30003KT CAVOK 11/11 Q1001 NOSIG",
      "taf": "TAF LEAL 032300Z 0400/0424 30003KT 9999 FEW020 TX15/0414Z TN11/0406Z"
    },
    {
      "icao": "LEBB",
      "alert": "OK",
      "vis_m": 9999,
      "fzfg": false,
      "metar_trigger": false,
      "taf_trigger": false,
      "metar": "METAR LEBB 040430Z VRB01KT 9999 FEW030 03/02 Q1012 NOSIG",
      "taf": "TAF LEBB 032300Z 0400/0424 VRB03KT 9000 SCT015 BKN025 TX07/0413Z TN00/0406Z"
    },
    {
      "icao": "LEBL",
      "alert": "OK",
      "vis_m": 7000,
      "fzfg": false,
      "metar_trigger": false,
      "taf_trigger": false,
      "metar": "METAR LEBL 040430Z 06011KT 7000 -RA BKN033 08/05 Q1006 NOSIG",
      "taf": ""
    },
    {
      "icao": "LECH",
      "alert": "OK",
      "vis_m": 2900,
      "fzfg": false,
      "metar_trigger": false,
      "taf_trigger": false,
      "metar": "METAR LECH 040430Z AUTO 03008KT 340V070 2900 BR OVC003 08/08 Q1004",
      "taf": ""
    },
    {
      "icao": "LEMD",
      "alert": "OK",
      "vis_m": 9999,
      "fzfg": false,
      "metar_trigger": false,
      "taf_trigger": false,
      "metar": "METAR LEMD 040430Z VRB02KT 9999 FEW037 SCT047 06/06 Q1002 NOSIG",
      "taf": "TAF LEMD 032300Z 0400/0506 VRB03KT 9999 FEW045 TX09/0414Z TN03/0407Z"
    },
    {
      "icao": "LEMG",
      "alert": "OK",
      "vis_m": 9999,
      "fzfg": false,
      "metar_trigger": false,
      "taf_trigger": false,
      "metar": "METAR LEMG 040430Z 09014KT 9999 FEW020 BKN035 14/12 Q0998 NOSIG",
      "taf": "TAF LEMG 032300Z 0400/0424 11015KT 9999 SCT015 TX18/0414Z TN11/0407Z"
    },
    {
      "icao": "LEVC",
      "alert": "OK",
      "vis_m": 9999,
      "fzfg": false,
      "metar_trigger": false,
      "taf_trigger": false,
      "metar": "METAR LEVC 040430Z 03009KT 9999 -RA OVC014 12/10 Q1003 NOSIG",
      "taf": "TAF LEVC 032300Z 0400/0424 03009KT 9999 SCT020 TX12/0414Z TN08/0406Z"
    },
    {
      "icao": "LEXJ",
      "alert": "OK",
      "vis_m": 9999,
      "fzfg": false,
      "metar_trigger": false,
      "taf_trigger": false,
      "metar": "METAR LEXJ 040430Z 11003KT 080V140 9999 FEW030 05/00 Q1013",
      "taf": "TAF LEXJ 040200Z 0403/0503 12009KT 9000 SCT025 BKN035 TX08/0415Z TN02/0408Z"
    },
    {
      "icao": "LEZG",
      "alert": "OK",
      "vis_m": 7000,
      "fzfg": false,
      "metar_trigger": false,
      "taf_trigger": false,
      "metar": "METAR LEZG 040430Z 29016KT 260V320 7000 BKN040 OVC045 05/03 Q1006 NOSIG",
      "taf": "TAF LEZG 032300Z 0400/0424 31010KT 9999 BKN050 TX06/0415Z TN02/0406Z"
    },
    {
      "icao": "LEZL",
      "alert": "OK",
      "vis_m": 9000,
      "fzfg": false,
      "metar_trigger": false,
      "taf_trigger": false,
      "metar": "METAR LEZL 040430Z 08008KT 9000 -RA FEW033 SCT041 13/13 Q0998 NOSIG",
      "taf": "TAF LEZL 040200Z 0403/0503 08010KT 9999 SCT030 TX16/0415Z TN09/0407Z"
    },
    {
      "icao": "LFBD",
      "alert": "OK",
      "vis_m": 9999,
      "fzfg": true,
      "metar_trigger": false,
      "taf_trigger": false,
      "metar": "METAR LFBD 040430Z AUTO 03006KT CAVOK M03/M03 Q1014 TEMPO 0500 FZFG VV///",
      "taf": "TAF LFBD 032300Z 0400/0506 01005KT CAVOK TX03/0414Z TNM04/0407Z"
    },
    {
      "icao": "LFLL",
      "alert": "OK",
      "vis_m": 9999,
      "fzfg": false,
      "metar_trigger": false,
      "taf_trigger": false,
      "metar": "METAR LFLL 040430Z 33008KT 9999 FEW009 M04/M05 Q1011 NOSIG",
      "taf": "TAF LFLL 032300Z 0400/0506 35010KT CAVOK"
    },
    {
      "icao": "LFLS",
      "alert": "OK",
      "vis_m": 9999,
      "fzfg": false,
      "metar_trigger": false,
      "taf_trigger": false,
      "metar": "METAR LFLS 040430Z AUTO 36005KT 320V040 9999 BKN009 M03/M05 Q1010 NOSIG",
      "taf": "TAF LFLS 040200Z 0403/0503 02004KT 9999 SCT008"
    },
    {
      "icao": "LFMN",
      "alert": "OK",
      "vis_m": 9999,
      "fzfg": false,
      "metar_trigger": false,
      "taf_trigger": false,
      "metar": "METAR LFMN 040430Z COR 33012KT 9999 FEW036 SCT200 05/M02 Q1002 NOSIG",
      "taf": "TAF LFMN 040200Z 0403/0509 33010KT 9999 FEW030 BKN200"
    },
    {
      "icao": "LFOB",
      "alert": "OK",
      "vis_m": 9999,
      "fzfg": false,
      "metar_trigger": false,
      "taf_trigger": false,
      "metar": "METAR LFOB 040430Z AUTO 25006KT CAVOK M02/M03 Q1013 TEMPO 4000 BR VV///",
      "taf": "TAF LFOB 032300Z 0400/0424 28004KT 9999 BKN030"
    },
    {
      "icao": "LFPO",
      "alert": "OK",
      "vis_m": 9999,
      "fzfg": false,
      "metar_trigger": false,
      "taf_trigger": false,
      "metar": "METAR LFPO 040430Z AUTO 23002KT 9999 BKN043 M03/M05 Q1014",
      "taf": ""
    },
    {
      "icao": "LFSB",
      "alert": "OK",
      "vis_m": 9999,
      "fzfg": false,
      "metar_trigger": false,
      "taf_trigger": false,
      "metar": "METAR LFSB 040430Z AUTO 10004KT 9999 OVC043 M03/M05 Q1013 TEMPO BKN010",
      "taf": "TAF LFSB 032300Z 0400/0424 25006KT 9999 FEW015"
    },
    {
      "icao": "LGAV",
      "alert": "OK",
      "vis_m": 9999,
      "fzfg": false,
      "metar_trigger": false,
      "taf_trigger": false,
      "metar": "METAR LGAV 040420Z 19005KT 9999 FEW025 SCT060 16/11 Q1018 NOSIG",
      "taf": "TAF LGAV 032300Z 0400/0424 21015KT 9999 FEW025 SCT060"
    },
    {
      "icao": "LGTS",
      "alert": "OK",
      "vis_m": 9999,
      "fzfg": false,
      "metar_trigger": false,
      "taf_trigger": false,
      "metar": "METAR LGTS 040420Z 12009KT 9999 FEW025 14/09 Q1011 NOSIG",
      "taf": "TAF LGTS 032300Z 0400/0424 VRB03KT 9999 FEW025"
    },
    {
      "icao": "LHBP",
      "alert": "OK",
      "vis_m": 9999,
      "fzfg": false,
      "metar_trigger": false,
      "taf_trigger": false,
      "metar": "METAR LHBP 040430Z 09001KT 9999 -SN NSC M02/M02 Q1008 NOSIG",
      "taf": "TAF LHBP 032315Z 0400/0424 VRB03KT 7000 SCT045 BKN100"
    },
    {
      "icao": "LHDC",
      "alert": "OK",
      "vis_m": 9999,
      "fzfg": false,
      "metar_trigger": false,
      "taf_trigger": false,
      "metar": "METAR LHDC 040415Z AUTO 34007KT 9999 -SN NSC M02/M04 Q1009",
      "taf": ""
    },
    {
      "icao": "LIBD",
      "alert": "OK",
      "vis_m": 9999,
      "fzfg": false,
      "metar_trigger": false,
      "taf_trigger": false,
      "metar": "METAR LIBD 040420Z 14006KT CAVOK 14/08 Q1006",
      "taf": "TAF LIBD 032300Z 0400/0424 19012KT 9999 FEW040"
    },
    {
      "icao": "LIBG",
      "alert": "OK",
      "vis_m": null,
      "fzfg": false,
      "metar_trigger": false,
      "taf_trigger": false,
      "metar": "",
      "taf": "TAF LIBG 031700Z 0318/0403 21006KT 9999 FEW040"
    },
    {
      "icao": "LIBP",
      "alert": "OK",
      "vis_m": 8000,
      "fzfg": false,
      "metar_trigger": false,
      "taf_trigger": false,
      "metar": "METAR LIBP 040420Z AUTO 03004KT 330V110 8000 DZ OVC067/// 10/09 Q1003",
      "taf": "TAF LIBP 032300Z 0400/0424 VRB05KT 9999 SCT070"
    },
    {
      "icao": "LIBR",
      "alert": "OK",
      "vis_m": 9999,
      "fzfg": false,
      "metar_trigger": false,
      "taf_trigger": false,
      "metar": "METAR LIBR 040420Z 19012KT CAVOK 15/13 Q1008",
      "taf": "TAF LIBR 032300Z 0400/0424 19011KT 9999 FEW030"
    },
    {
      "icao": "LICA",
      "alert": "OK",
      "vis_m": 9999,
      "fzfg": false,
      "metar_trigger": false,
      "taf_trigger": false,
      "metar": "METAR LICA 040420Z AUTO 06005KT 9999 FEW190/// 08/07 Q1009",
      "taf": "TAF LICA 032300Z 0400/0424 08010KT 9999 FEW050"
    },
    {
      "icao": "LICC",
      "alert": "OK",
      "vis_m": 9999,
      "fzfg": false,
      "metar_trigger": false,
      "taf_trigger": false,
      "metar": "METAR LICC 040420Z 20006KT 9999 SCT030 11/08 Q1010",
      "taf": "TAF LICC 032300Z 0400/0424 26008KT 9999 SCT030"
    },
    {
      "icao": "LICJ",
      "alert": "OK",
      "vis_m": 9999,
      "fzfg": false,
      "metar_trigger": false,
      "taf_trigger": false,
      "metar": "METAR LICJ 040420Z AUTO 19024KT 9999 BKN170/// 18/05 Q1005",
      "taf": "TAF LICJ 032300Z 0400/0424 19020G40KT CAVOK"
    },
    {
      "icao": "LIMC",
      "alert": "OK",
      "vis_m": 6000,
      "fzfg": false,
      "metar_trigger": false,
      "taf_trigger": false,
      "metar": "METAR LIMC 040420Z VRB02KT 6000 R35R/0750N R17L/P2000N R35L/0700N BCFG SCT001 M06/M06 Q1006 NOSIG",
      "taf": "TAF LIMC 032300Z 0400/0506 VRB04KT 4000 BR BKN001"
    },
    {
      "icao": "LIME",
      "alert": "OK",
      "vis_m": 9999,
      "fzfg": false,
      "metar_trigger": false,
      "taf_trigger": false,
      "metar": "METAR LIME 040420Z 01003KT CAVOK M03/M05 Q1005 NOSIG",
      "taf": "TAF LIME 032300Z 0400/0424 VRB04KT 4000 BR BKN003"
    },
    {
      "icao": "LIMF",
      "alert": "OK",
      "vis_m": 6000,
      "fzfg": false,
      "metar_trigger": false,
      "taf_trigger": false,
      "metar": "METAR LIMF 040420Z VRB02KT 6000 NSC M05/M07 Q1005",
      "taf": "TAF LIMF 032300Z 0400/0424 VRB04KT 4000 BR BKN003"
    },
    {
      "icao": "LIMJ",
      "alert": "OK",
      "vis_m": 9999,
      "fzfg": false,
      "metar_trigger": false,
      "taf_trigger": false,
      "metar": "METAR LIMJ 040420Z 03014KT 9999 BKN050 07/M02 Q1003",
      "taf": "TAF LIMJ 032300Z 0400/0424 03015KT 9999 FEW030"
    },
    {
      "icao": "LIPE",
      "alert": "OK",
      "vis_m": 500,
      "fzfg": false,
      "metar_trigger": false,
      "taf_trigger": false,
      "metar": "METAR LIPE 040420Z 27006KT 0500 R12/P2000N R30/P2000N FG VV001 01/01 Q1006",
      "taf": "TAF LIPE 032300Z 0400/0424 28005KT 1500 BR BKN005"
    },
    {
      "icao": "LIPH",
      "alert": "OK",
      "vis_m": 9999,
      "fzfg": false,
      "metar_trigger": false,
      "taf_trigger": false,
      "metar": "METAR LIPH 040420Z AUTO 33005KT 9999 OVC088/// 03/M02 Q1006",
      "taf": "TAF LIPH 032300Z 0400/0424 VRB05KT 9999 FEW040"
    },
    {
      "icao": "LIPQ",
      "alert": "OK",
      "vis_m": 9999,
      "fzfg": false,
      "metar_trigger": false,
      "taf_trigger": false,
      "metar": "METAR LIPQ 040420Z AUTO 03004KT 350V070 9999 FEW038/// BKN049/// OVC093/// 04/01 Q1005",
      "taf": "TAF LIPQ 032300Z 0400/0424 VRB05KT 9999 SCT030"
    },
    {
      "icao": "LIPR",
      "alert": "OK",
      "vis_m": 900,
      "fzfg": false,
      "metar_trigger": false,
      "taf_trigger": false,
      "metar": "METAR LIPR 040420Z AUTO 32010KT 0900 R30/1500U -RA FG BKN002/// 02/02 Q1005",
      "taf": "TAF LIPR 032300Z 0400/0424 VRB05KT 0500 FG BKN002"
    },
    {
      "icao": "LIPX",
      "alert": "OK",
      "vis_m": 7000,
      "fzfg": false,
      "metar_trigger": false,
      "taf_trigger": false,
      "metar": "METAR LIPX 040420Z 29002KT 7000 BKN070 M00/M00 Q1005",
      "taf": "TAF LIPX 032300Z 0400/0424 VRB04KT 4000 BR BKN003"
    },
    {
      "icao": "LIPY",
      "alert": "OK",
      "vis_m": 2800,
      "fzfg": false,
      "metar_trigger": false,
      "taf_trigger": false,
      "metar": "METAR LIPY 040420Z AUTO 29004KT 240V320 2800 -RA BR OVC003/// 06/06 Q1004",
      "taf": "TAF LIPY 032300Z 0400/0424 VRB05KT 1500 BR BKN010"
    },
    {
      "icao": "LIPZ",
      "alert": "OK",
      "vis_m": 9999,
      "fzfg": false,
      "metar_trigger": false,
      "taf_trigger": false,
      "metar": "METAR LIPZ 040420Z 01008KT 9999 BKN070 03/M02 Q1005 NOSIG",
      "taf": "TAF LIPZ 032300Z 0400/0506 VRB05KT 8000 FEW040"
    },
    {
      "icao": "LIRF",
      "alert": "OK",
      "vis_m": 6000,
      "fzfg": false,
      "metar_trigger": false,
      "taf_trigger": false,
      "metar": "METAR LIRF 040420Z VRB02KT 6000 SCT010 12/12 Q1004 NOSIG",
      "taf": "TAF LIRF 032300Z 0400/0506 21008KT 9999 SCT020 SCT030"
    },
    {
      "icao": "LIRN",
      "alert": "OK",
      "vis_m": 9999,
      "fzfg": false,
      "metar_trigger": false,
      "taf_trigger": false,
      "metar": "METAR LIRN 040420Z 20007KT 170V230 9999 SCT025 15/12 Q1006 NOSIG",
      "taf": "TAF LIRN 032300Z 0400/0424 19014KT 9999 SCT030"
    },
    {
      "icao": "LIRP",
      "alert": "OK",
      "vis_m": 9999,
      "fzfg": false,
      "metar_trigger": false,
      "taf_trigger": false,
      "metar": "METAR LIRP 040415Z 08005KT 9999 SCT030 07/06 Q1003 NOSIG",
      "taf": "TAF LIRP 032300Z 0400/0424 22012KT 9999 FEW020 SCT040"
    },
    {
      "icao": "LIRZ",
      "alert": "OK",
      "vis_m": 9999,
      "fzfg": false,
      "metar_trigger": false,
      "taf_trigger": false,
      "metar": "METAR LIRZ 040420Z AUTO 36002KT 9999 -DZRA OVC015/// 09/08 Q1003",
      "taf": "TAF LIRZ 032300Z 0400/0424 19008KT 9999 BKN020"
    },
    {
      "icao": "LJLJ",
      "alert": "OK",
      "vis_m": 6000,
      "fzfg": false,
      "metar_trigger": false,
      "taf_trigger": false,
      "metar": "METAR LJLJ 040430Z 00000KT 6000 -SN FEW005 SCT020 OVC050 00/M00 Q1007 NOSIG",
      "taf": "TAF LJLJ 032300Z 0400/0500 VRB02KT 9999 FEW025 BKN040"
    },
    {
      "icao": "LKMT",
      "alert": "OK",
      "vis_m": 9999,
      "fzfg": false,
      "metar_trigger": false,
      "taf_trigger": false,
      "metar": "METAR LKMT 040430Z 21009KT 9999 SCT037 M03/M08 Q1006 NOSIG",
      "taf": "TAF LKMT 032300Z 0400/0424 21014KT CAVOK"
    },
    {
      "icao": "LKPR",
      "alert": "OK",
      "vis_m": 9999,
      "fzfg": false,
      "metar_trigger": false,
      "taf_trigger": false,
      "metar": "METAR LKPR 040430Z 23022G32KT 9999 FEW023 BKN045 M03/M07 Q1005 NOSIG",
      "taf": "TAF LKPR 040200Z 0403/0509 22016KT 9999 SCT030"
    },
    {
      "icao": "LLBG",
      "alert": "OK",
      "vis_m": 9999,
      "fzfg": false,
      "metar_trigger": false,
      "taf_trigger": false,
      "metar": "METAR LLBG 040450Z 04004KT CAVOK 09/04 Q1025 NOSIG RMK FCST 1000FT-WIND 120/25KT",
      "taf": "TAF LLBG 032314Z 0400/0424 11005KT CAVOK"
    },
    {
      "icao": "LMML",
      "alert": "OK",
      "vis_m": 9999,
      "fzfg": false,
      "metar_trigger": false,
      "taf_trigger": false,
      "metar": "METAR LMML 040445Z 18008KT CAVOK 16/14 Q1011 NOSIG",
      "taf": "TAF LMML 032300Z 0400/0424 19013KT 9999 FEW015"
    },
    {
      "icao": "LOWW",
      "alert": "OK",
      "vis_m": 9999,
      "fzfg": false,
      "metar_trigger": false,
      "taf_trigger": false,
      "metar": "METAR LOWW 040420Z 30015G25KT CAVOK M00/M08 Q1009 NOSIG",
      "taf": ""
    },
    {
      "icao": "LPFR",
      "alert": "OK",
      "vis_m": 9999,
      "fzfg": false,
      "metar_trigger": false,
      "taf_trigger": false,
      "metar": "METAR LPFR 040430Z 04020KT 9999 FEW009 SCT022 14/12 Q0994",
      "taf": "TAF LPFR 032300Z 0400/0424 08015KT 9999 SCT015 SCT030"
    },
    {
      "icao": "LPMA",
      "alert": "OK",
      "vis_m": 9999,
      "fzfg": false,
      "metar_trigger": false,
      "taf_trigger": false,
      "metar": "METAR LPMA 040430Z 35005KT 320V050 9999 SCT015 18/11 Q1006",
      "taf": "TAF LPMA 032300Z 0400/0424 31010KT 9999 SCT015"
    },
    {
      "icao": "LPPR",
      "alert": "OK",
      "vis_m": 9999,
      "fzfg": false,
      "metar_trigger": false,
      "taf_trigger": false,
      "metar": "METAR LPPR 040430Z 04003KT 010V070 CAVOK 13/09 Q1002",
      "taf": "TAF LPPR 032300Z 0400/0424 08007KT CAVOK"
    },
    {
      "icao": "LPPS",
      "alert": "OK",
      "vis_m": 9999,
      "fzfg": false,
      "metar_trigger": false,
      "taf_trigger": false,
      "metar": "METAR LPPS 040430Z 32013KT 9999 VCSH FEW012 FEW015TCU BKN030 16/14 Q1005",
      "taf": "TAF LPPS 032300Z 0400/0506 32015KT 9999 SCT015 SCT030"
    },
    {
      "icao": "LPPT",
      "alert": "OK",
      "vis_m": 9999,
      "fzfg": false,
      "metar_trigger": false,
      "taf_trigger": false,
      "metar": "METAR LPPT 040430Z 04012KT 9999 FEW018 SCT028 12/10 Q0999",
      "taf": "TAF LPPT 032300Z 0400/0506 05010KT 9999 SCT008 BKN015"
    },
    {
      "icao": "LQBK",
      "alert": "OK",
      "vis_m": 9999,
      "fzfg": false,
      "metar_trigger": false,
      "taf_trigger": false,
      "metar": "METAR LQBK 040430Z 27008KT 9999 -RA OVC015 02/00 Q1007 BECMG 33010KT 5000 SN BKN010 OVC030",
      "taf": "TAF LQBK 032300Z 0400/0424 34005KT 6000 SCT015 BKN030 TX01/0412Z TNM01/0402Z"
    },
    {
      "icao": "LQSA",
      "alert": "OK",
      "vis_m": 1500,
      "fzfg": false,
      "metar_trigger": false,
      "taf_trigger": false,
      "metar": "METAR LQSA 040430Z VRB01KT 1500 -RA BR BKN003 OVC025 01/01 Q1003 TEMPO RA",
      "taf": "TAF LQSA 032300Z 0400/0424 24006KT 2000 -RA BR BKN005 OVC015 TX02/0413Z TNM02/0418Z"
    },
    {
      "icao": "LQTZ",
      "alert": "OK",
      "vis_m": 3600,
      "fzfg": false,
      "metar_trigger": false,
      "taf_trigger": false,
      "metar": "METAR LQTZ 040430Z 29004KT 3600 -RA BR FEW015 BKN043 00/00 Q1006",
      "taf": "TAF LQTZ 032300Z 0400/0424 27005KT 8000 SCT013 BKN033 TX02/0400Z TNM02/0423Z"
    },
    {
      "icao": "LRBC",
      "alert": "OK",
      "vis_m": 9999,
      "fzfg": false,
      "metar_trigger": false,
      "taf_trigger": false,
      "metar": "METAR LRBC 040430Z 16008KT CAVOK 01/M04 Q1009",
      "taf": "TAF LRBC 040200Z 0403/0412 16012KT CAVOK"
    },
    {
      "icao": "LRBS",
      "alert": "OK",
      "vis_m": 3000,
      "fzfg": false,
      "metar_trigger": false,
      "taf_trigger": false,
      "metar": "METAR LRBS 040430Z 04006KT 010V070 3000 -RA BR OVC002 02/01 Q1010 NOSIG",
      "taf": "TAF LRBS 032300Z 0400/0424 VRB04KT 5000 BR SCT005"
    },
    {
      "icao": "LRBV",
      "alert": "OK",
      "vis_m": 9999,
      "fzfg": false,
      "metar_trigger": false,
      "taf_trigger": false,
      "metar": "METAR LRBV 040430Z AUTO 13005KT 090V160 9999 FEW033/// BKN047/// M02/M03 Q1006",
      "taf": "TAF LRBV 040200Z 0403/0412 10006KT 9999 BKN040"
    },
    {
      "icao": "LRCL",
      "alert": "OK",
      "vis_m": 9999,
      "fzfg": false,
      "metar_trigger": false,
      "taf_trigger": false,
      "metar": "METAR LRCL 040430Z 12003KT 9999 OVC004 M06/M07 Q1007",
      "taf": "TAF LRCL 040200Z 0403/0412 VRB04KT 9999 OVC005"
    },
    {
      "icao": "LRCV",
      "alert": "OK",
      "vis_m": 4500,
      "fzfg": false,
      "metar_trigger": false,
      "taf_trigger": false,
      "metar": "METAR LRCV 040430Z 08009KT 4500 RA BR BKN003 OVC016 01/01 Q1009",
      "taf": "TAF LRCV 040200Z 0403/0412 06008KT 5000 -RA BR OVC030"
    },
    {
      "icao": "LRIA",
      "alert": "OK",
      "vis_m": 9999,
      "fzfg": false,
      "metar_trigger": false,
      "taf_trigger": false,
      "metar": "METAR LRIA 040430Z 09009KT CAVOK M01/M04 Q1010",
      "taf": "TAF LRIA 040200Z 0403/0412 VRB04KT CAVOK"
    },
    {
      "icao": "LROP",
      "alert": "OK",
      "vis_m": 2000,
      "fzfg": false,
      "metar_trigger": false,
      "taf_trigger": false,
      "metar": "METAR LROP 040430Z 05009KT 2000 RA BR BKN001 OVC025 01/01 Q1010 TEMPO 3000 BKN002 OVC025",
      "taf": ""
    },
    {
      "icao": "LRSB",
      "alert": "OK",
      "vis_m": 9999,
      "fzfg": false,
      "metar_trigger": false,
      "taf_trigger": false,
      "metar": "METAR LRSB 040430Z VRB02KT 9999 OVC070 M02/M03 Q1006",
      "taf": "TAF LRSB 032300Z 0400/0424 VRB03KT 9999 SCT045"
    },
    {
      "icao": "LRSM",
      "alert": "OK",
      "vis_m": 9999,
      "fzfg": false,
      "metar_trigger": false,
      "taf_trigger": false,
      "metar": "METAR LRSM 040430Z AUTO 07008KT 9999 OVC100/// M03/M05 Q1008",
      "taf": "TAF LRSM 040200Z 0403/0412 VRB04KT CAVOK"
    },
    {
      "icao": "LRSV",
      "alert": "OK",
      "vis_m": 9999,
      "fzfg": false,
      "metar_trigger": false,
      "taf_trigger": false,
      "metar": "METAR LRSV 040430Z 19004KT CAVOK M03/M08 Q1007",
      "taf": "TAF LRSV 040200Z 0403/0412 17006KT CAVOK"
    },
    {
      "icao": "LRTM",
      "alert": "OK",
      "vis_m": 9999,
      "fzfg": false,
      "metar_trigger": false,
      "taf_trigger": false,
      "metar": "METAR LRTM 040430Z AUTO 08003KT 9999 BKN070/// OVC085/// M05/M06 Q1007",
      "taf": "TAF LRTM 040200Z 0403/0412 VRB04KT 9999 BKN040"
    },
    {
      "icao": "LRTR",
      "alert": "OK",
      "vis_m": 8000,
      "fzfg": false,
      "metar_trigger": false,
      "taf_trigger": false,
      "metar": "METAR LRTR 040430Z 35007KT 8000 -SN OVC025 00/00 Q1007",
      "taf": "TAF LRTR 032300Z 0400/0424 VRB04KT 5000 BR SCT005"
    },
    {
      "icao": "LTAC",
      "alert": "OK",
      "vis_m": 6000,
      "fzfg": false,
      "metar_trigger": false,
      "taf_trigger": false,
      "metar": "METAR LTAC 040420Z VRB01KT 6000 SCT033 BKN080 M00/M03 Q1022 NOSIG RMK RWY21C VRB01KT RWY03L VRB02KT RWY21R 00000KT RWY03R VRB02KT RWY21L 00000KT",
      "taf": "TAF LTAC 032240Z 0400/0424 VRB02KT 8000 SCT035 BKN100"
    },
    {
      "icao": "LTFM",
      "alert": "OK",
      "vis_m": 9999,
      "fzfg": false,
      "metar_trigger": false,
      "taf_trigger": false,
      "metar": "METAR LTFM 040420Z 20025KT CAVOK 13/09 Q1014 NOSIG RMK RWY17L 20022G32KT RWY34L 19024G34KT RWY16R 20022KT RWY36 21028KT RWY18 21029KT",
      "taf": "TAF LTFM 032240Z 0400/0506 21026G46KT 9999 BKN035"
    },
    {
      "icao": "LUKK",
      "alert": "OK",
      "vis_m": 9999,
      "fzfg": false,
      "metar_trigger": false,
      "taf_trigger": false,
      "metar": "METAR LUKK 040430Z 09003KT CAVOK M03/M04 Q1012 NOSIG",
      "taf": "TAF LUKK 032313Z 0400/0424 VRB06KT CAVOK"
    },
    {
      "icao": "LWOH",
      "alert": "OK",
      "vis_m": null,
      "fzfg": false,
      "metar_trigger": false,
      "taf_trigger": false,
      "metar": "",
      "taf": "TAF LWOH 040250Z 0403/0503 14010KT 9999 SCT020 BKN035"
    },
    {
      "icao": "LWSK",
      "alert": "OK",
      "vis_m": 9999,
      "fzfg": false,
      "metar_trigger": false,
      "taf_trigger": false,
      "metar": "METAR LWSK 040450Z VRB03KT 9999 BKN075 03/02 Q1007 NOSIG",
      "taf": "TAF LWSK 040250Z 0403/0503 VRB02KT 9999 SCT040 BKN060"
    },
    {
      "icao": "LYBE",
      "alert": "OK",
      "vis_m": 6000,
      "fzfg": false,
      "metar_trigger": false,
      "taf_trigger": false,
      "metar": "METAR LYBE 040430Z 02006KT 6000 -RA BKN007 02/01 Q1005 TEMPO RASN BKN004",
      "taf": "TAF LYBE 032300Z 0400/0424 10010KT 9999 SCT040 TX02/0405Z TNM01/0418Z"
    },
    {
      "icao": "LYNI",
      "alert": "OK",
      "vis_m": 8000,
      "fzfg": false,
      "metar_trigger": false,
      "taf_trigger": false,
      "metar": "METAR LYNI 040430Z VRB01KT 8000 SCT008 BKN060 BKN090 02/02 Q1006 NOSIG",
      "taf": "TAF LYNI 032300Z 0400/0424 23005KT 8000 SCT040 OVC070 TX13/0411Z TNM01/0422Z"
    },
    {
      "icao": "LYPG",
      "alert": "OK",
      "vis_m": 7000,
      "fzfg": false,
      "metar_trigger": false,
      "taf_trigger": false,
      "metar": "METAR LYPG 040430Z 16010KT 7000 RA FEW020 SCT040 OVC070 13/12 Q1007 RERA NOSIG",
      "taf": "TAF LYPG 032300Z 0400/0424 14008KT 6000 RA FEW020 SCT040 OVC070 TX13/0413Z TN11/0406Z"
    },
    {
      "icao": "LZIB",
      "alert": "OK",
      "vis_m": 9999,
      "fzfg": false,
      "metar_trigger": false,
      "taf_trigger": false,
      "metar": "METAR LZIB 040430Z 29012KT 9999 FEW040 00/M07 Q1009 NOSIG",
      "taf": "TAF LZIB 032315Z 0400/0500 20007KT CAVOK"
    },
    {
      "icao": "LZKZ",
      "alert": "OK",
      "vis_m": 9999,
      "fzfg": false,
      "metar_trigger": false,
      "taf_trigger": false,
      "metar": "METAR LZKZ 040430Z 25004KT 210V280 9999 FEW020 M03/M05 Q1007 NOSIG",
      "taf": "TAF LZKZ 032315Z 0400/0500 22005KT 9999 SCT005"
    },
    {
      "icao": "LZTT",
      "alert": "OK",
      "vis_m": 9999,
      "fzfg": false,
      "metar_trigger": false,
      "taf_trigger": false,
      "metar": "METAR LZTT 040430Z 24009KT 9999 FEW046 M05/M10 Q1003",
      "taf": "TAF LZTT 032315Z 0400/0500 26012KT CAVOK"
    },
    {
      "icao": "OEJN",
      "alert": "OK",
      "vis_m": 9999,
      "fzfg": false,
      "metar_trigger": false,
      "taf_trigger": false,
      "metar": "METAR OEJN 040400Z 00000KT CAVOK 22/14 Q1015 NOSIG",
      "taf": "TAF OEJN 032300Z 0400/0506 VRB03KT 7000 NSC"
    },
    {
      "icao": "OEMA",
      "alert": "OK",
      "vis_m": 9999,
      "fzfg": false,
      "metar_trigger": false,
      "taf_trigger": false,
      "metar": "METAR OEMA 040400Z 03010KT CAVOK 14/02 Q1026 NOSIG",
      "taf": "TAF OEMA 032300Z 0400/0506 09015KT 7000 NSC"
    },
    {
      "icao": "OJAI",
      "alert": "OK",
      "vis_m": 5000,
      "fzfg": false,
      "metar_trigger": false,
      "taf_trigger": false,
      "metar": "METAR OJAI 040400Z 07012KT 5000 HZ NSC 02/00 Q1028 NOSIG",
      "taf": "TAF OJAI 032300Z 0400/0506 12008KT 4000 BR NSC"
    },
    {
      "icao": "OMAA",
      "alert": "OK",
      "vis_m": 8000,
      "fzfg": false,
      "metar_trigger": false,
      "taf_trigger": false,
      "metar": "METAR OMAA 040400Z 19005KT 8000 NSC 16/14 Q1020 TEMPO 4000 HZ",
      "taf": "TAF OMAA 032300Z 0400/0506 23005KT 8000 NSC"
    },
    {
      "icao": "OMDB",
      "alert": "OK",
      "vis_m": 5000,
      "fzfg": false,
      "metar_trigger": false,
      "taf_trigger": false,
      "metar": "METAR OMDB 040430Z 19007KT 140V210 5000 HZ NSC 18/16 Q1020 NOSIG",
      "taf": ""
    },
    {
      "icao": "UAAA",
      "alert": "OK",
      "vis_m": 9999,
      "fzfg": false,
      "metar_trigger": false,
      "taf_trigger": false,
      "metar": "METAR UAAA 040430Z 22005MPS 9999 SCT100 04/M01 Q1028 NOSIG",
      "taf": ""
    },
    {
      "icao": "UBBB",
      "alert": "OK",
      "vis_m": 9999,
      "fzfg": false,
      "metar_trigger": false,
      "taf_trigger": false,
      "metar": "METAR UBBB 040430Z 20020KT CAVOK 04/M04 Q1021 NOSIG",
      "taf": "TAF UBBB 032257Z 0400/0424 19020G30KT CAVOK TX09/0409Z TN03/0401Z"
    },
    {
      "icao": "UDSG",
      "alert": "OK",
      "vis_m": 9999,
      "fzfg": false,
      "metar_trigger": false,
      "taf_trigger": false,
      "metar": "METAR UDSG 040430Z 10002KT 9999 NSC M23/M25 Q1030 NOSIG",
      "taf": "TAF UDSG 032258Z 0400/0424 VRB06KT 5000 BR FEW040"
    },
    {
      "icao": "UDYZ",
      "alert": "OK",
      "vis_m": 8000,
      "fzfg": false,
      "metar_trigger": false,
      "taf_trigger": false,
      "metar": "METAR UDYZ 040430Z 03002KT 8000 NSC M16/M18 Q1034 NOSIG",
      "taf": "TAF UDYZ 032300Z 0400/0424 VRB04KT 6000 NSC"
    },
    {
      "icao": "UGKO",
      "alert": "OK",
      "vis_m": 9999,
      "fzfg": false,
      "metar_trigger": false,
      "taf_trigger": false,
      "metar": "METAR UGKO 040430Z 11007KT 9999 BKN093 02/M05 Q1025 NOSIG",
      "taf": "TAF UGKO 032300Z 0400/0424 09008KT CAVOK TX08/0412Z TNM02/0402Z"
    }
  ]
}