{
  "ts_utc": "2026-04-17T15:15:39Z",
  "threshold_m": 150,
  "source": "stations_override.txt (ICAO list) + aviationweather.gov (METAR/TAF raw)",
  "station_count": 159,
  "stations": [
    {
      "icao": "BIKF",
      "alert": "OK",
      "vis_m": 9999,
      "fzfg": false,
      "metar_trigger": false,
      "taf_trigger": false,
      "metar": "METAR BIKF 171500Z 24009KT 210V270 9999 SCT025 07/01 Q1001",
      "taf": "TAF BIKF 171331Z 1715/1815 22006KT 9999 -SHRA SCT015 BKN030 TX08/1715Z TN01/1807Z"
    },
    {
      "icao": "BKPR",
      "alert": "OK",
      "vis_m": 9999,
      "fzfg": false,
      "metar_trigger": false,
      "taf_trigger": false,
      "metar": "METAR BKPR 171500Z 35015KT 9999 FEW050 19/08 Q1013 NOSIG",
      "taf": ""
    },
    {
      "icao": "EBCI",
      "alert": "OK",
      "vis_m": 9999,
      "fzfg": false,
      "metar_trigger": false,
      "taf_trigger": false,
      "metar": "METAR EBCI 171450Z 25007KT 230V290 9999 SCT045 18/06 Q1021 NOSIG",
      "taf": "TAF EBCI 171100Z 1712/1818 25003KT CAVOK"
    },
    {
      "icao": "EDDB",
      "alert": "OK",
      "vis_m": 9999,
      "fzfg": false,
      "metar_trigger": false,
      "taf_trigger": false,
      "metar": "METAR EDDB 171450Z AUTO 36006KT 310V050 CAVOK 20/04 Q1022 NOSIG",
      "taf": "TAF EDDB 171100Z 1712/1812 36006KT CAVOK"
    },
    {
      "icao": "EDDH",
      "alert": "OK",
      "vis_m": 9999,
      "fzfg": false,
      "metar_trigger": false,
      "taf_trigger": false,
      "metar": "METAR EDDH 171450Z AUTO 10008KT 060V140 CAVOK 18/08 Q1021 NOSIG",
      "taf": "TAF EDDH 171100Z 1712/1818 13004KT 9999 FEW040"
    },
    {
      "icao": "EDDK",
      "alert": "OK",
      "vis_m": 9999,
      "fzfg": false,
      "metar_trigger": false,
      "taf_trigger": false,
      "metar": "METAR EDDK 171450Z AUTO 29005KT 230V330 CAVOK 21/08 Q1020 NOSIG",
      "taf": "TAF EDDK 171100Z 1712/1818 28005KT CAVOK"
    },
    {
      "icao": "EDDN",
      "alert": "OK",
      "vis_m": 9999,
      "fzfg": false,
      "metar_trigger": false,
      "taf_trigger": false,
      "metar": "METAR EDDN 171450Z AUTO 09004KT 030V140 CAVOK 21/07 Q1020 NOSIG",
      "taf": "TAF EDDN 171100Z 1712/1812 VRB03KT CAVOK"
    },
    {
      "icao": "EDDS",
      "alert": "OK",
      "vis_m": 9999,
      "fzfg": false,
      "metar_trigger": false,
      "taf_trigger": false,
      "metar": "METAR EDDS 171450Z AUTO 08004KT 030V170 CAVOK 22/06 Q1019 NOSIG",
      "taf": "TAF EDDS 171100Z 1712/1812 VRB03KT CAVOK"
    },
    {
      "icao": "EDFH",
      "alert": "OK",
      "vis_m": 9999,
      "fzfg": false,
      "metar_trigger": false,
      "taf_trigger": false,
      "metar": "METAR EDFH 171450Z 31005KT 270V350 9999 FEW047 18/07 Q1021",
      "taf": "TAF EDFH 171100Z 1712/1812 VRB03KT CAVOK"
    },
    {
      "icao": "EDJA",
      "alert": "OK",
      "vis_m": 9999,
      "fzfg": false,
      "metar_trigger": false,
      "taf_trigger": false,
      "metar": "METAR EDJA 171450Z 05008KT CAVOK 19/06 Q1020",
      "taf": "TAF EDJA 171400Z 1715/1724 04007KT CAVOK"
    },
    {
      "icao": "EDLW",
      "alert": "OK",
      "vis_m": 9999,
      "fzfg": false,
      "metar_trigger": false,
      "taf_trigger": false,
      "metar": "METAR EDLW 171450Z 34004KT 260V050 CAVOK 20/10 Q1020",
      "taf": "TAF EDLW 171100Z 1712/1812 30004KT CAVOK"
    },
    {
      "icao": "EDNY",
      "alert": "OK",
      "vis_m": 9999,
      "fzfg": false,
      "metar_trigger": false,
      "taf_trigger": false,
      "metar": "METAR EDNY 171450Z 24007KT 200V280 9999 FEW058 21/07 Q1019",
      "taf": "TAF EDNY 171400Z 1715/1724 23005KT CAVOK"
    },
    {
      "icao": "EDSB",
      "alert": "OK",
      "vis_m": 9999,
      "fzfg": false,
      "metar_trigger": false,
      "taf_trigger": false,
      "metar": "METAR EDSB 171450Z 35004KT 280V050 CAVOK 22/08 Q1019",
      "taf": "TAF EDSB 171100Z 1712/1812 VRB03KT CAVOK"
    },
    {
      "icao": "EETN",
      "alert": "OK",
      "vis_m": 9999,
      "fzfg": false,
      "metar_trigger": false,
      "taf_trigger": false,
      "metar": "METAR EETN 171450Z 02007KT 360V060 CAVOK 14/M03 Q1020 NOSIG",
      "taf": "TAF EETN 171130Z 1712/1812 05013KT CAVOK"
    },
    {
      "icao": "EFTU",
      "alert": "OK",
      "vis_m": 9999,
      "fzfg": false,
      "metar_trigger": false,
      "taf_trigger": false,
      "metar": "METAR EFTU 171450Z AUTO 03007KT 330V060 CAVOK 16/M04 Q1021",
      "taf": "TAF EFTU 171429Z 1715/1815 02007KT CAVOK"
    },
    {
      "icao": "EGBB",
      "alert": "OK",
      "vis_m": 9000,
      "fzfg": false,
      "metar_trigger": false,
      "taf_trigger": false,
      "metar": "METAR EGBB 171450Z 2007KT 160V250 9000 FEW020 OVC033 RA 13/10 Q1016",
      "taf": "TAF EGBB 171056Z 1712/1812 19009KT 9999 SCT025"
    },
    {
      "icao": "EGGP",
      "alert": "OK",
      "vis_m": 9999,
      "fzfg": false,
      "metar_trigger": false,
      "taf_trigger": false,
      "metar": "METAR EGGP 171450Z 19007KT 160V230 9999 BKN033 14/09 Q1014",
      "taf": ""
    },
    {
      "icao": "EGGW",
      "alert": "OK",
      "vis_m": 9999,
      "fzfg": false,
      "metar_trigger": false,
      "taf_trigger": false,
      "metar": "METAR EGGW 171450Z AUTO 21011KT 180V240 9999 BKN040 16/08 Q1018",
      "taf": "TAF EGGW 171057Z 1712/1812 20012KT 9999 SCT035"
    },
    {
      "icao": "EGKK",
      "alert": "OK",
      "vis_m": 9999,
      "fzfg": false,
      "metar_trigger": false,
      "taf_trigger": false,
      "metar": "METAR EGKK 171450Z 22013KT 180V250 9999 FEW042 16/07 Q1019",
      "taf": "TAF EGKK 171055Z 1712/1818 21013KT 9999 SCT030"
    },
    {
      "icao": "EGNM",
      "alert": "OK",
      "vis_m": 8000,
      "fzfg": false,
      "metar_trigger": false,
      "taf_trigger": false,
      "metar": "METAR EGNM 171450Z 23012KT 190V260 8000 -SHRA SCT019 BKN023 11/10 Q1014",
      "taf": "TAF EGNM 171059Z 1712/1812 22013KT 9999 SCT025"
    },
    {
      "icao": "EGPD",
      "alert": "OK",
      "vis_m": 9999,
      "fzfg": false,
      "metar_trigger": false,
      "taf_trigger": false,
      "metar": "METAR EGPD 171450Z AUTO 16017KT 9999 //////TCU 12/08 Q1007",
      "taf": ""
    },
    {
      "icao": "EGPF",
      "alert": "OK",
      "vis_m": 9999,
      "fzfg": false,
      "metar_trigger": false,
      "taf_trigger": false,
      "metar": "METAR EGPF 171450Z 20018KT 9999 BKN034CB 12/09 Q1008",
      "taf": ""
    },
    {
      "icao": "EHBK",
      "alert": "OK",
      "vis_m": 9999,
      "fzfg": false,
      "metar_trigger": false,
      "taf_trigger": false,
      "metar": "METAR EHBK 171455Z AUTO 26004KT 210V330 9999 NSC 19/08 Q1020 NOSIG",
      "taf": "TAF EHBK 171112Z 1712/1818 VRB02KT CAVOK"
    },
    {
      "icao": "EHEH",
      "alert": "OK",
      "vis_m": 9999,
      "fzfg": false,
      "metar_trigger": false,
      "taf_trigger": false,
      "metar": "METAR EHEH 171455Z AUTO 09003KT 9999 SCT280 OVC360 20/05 Q1020 BLU NOSIG",
      "taf": "TAF EHEH 171144Z 1712/1818 21004KT 9999 SCT050"
    },
    {
      "icao": "EKBI",
      "alert": "OK",
      "vis_m": 9999,
      "fzfg": false,
      "metar_trigger": false,
      "taf_trigger": false,
      "metar": "METAR EKBI 171450Z AUTO 13007KT 110V170 9999 SCT041/// OVC059/// 15/07 Q1023",
      "taf": "TAF EKBI 171427Z 1715/1815 13006KT 9999 SCT020"
    },
    {
      "icao": "EKCH",
      "alert": "OK",
      "vis_m": 9999,
      "fzfg": false,
      "metar_trigger": false,
      "taf_trigger": false,
      "metar": "METAR EKCH 171450Z AUTO 18006KT 9999 NCD 12/02 Q1024 NOSIG",
      "taf": "TAF EKCH 171427Z 1715/1815 16006KT 9999 FEW035"
    },
    {
      "icao": "ENAL",
      "alert": "OK",
      "vis_m": 9999,
      "fzfg": false,
      "metar_trigger": false,
      "taf_trigger": false,
      "metar": "METAR ENAL 171450Z 06010KT CAVOK 13/01 Q1019",
      "taf": "TAF ENAL 171400Z 1715/1724 05007KT CAVOK"
    },
    {
      "icao": "ENBR",
      "alert": "OK",
      "vis_m": 9999,
      "fzfg": false,
      "metar_trigger": false,
      "taf_trigger": false,
      "metar": "METAR ENBR 171450Z 14012KT 9999 SCT048 13/02 Q1019 NOSIG RMK WIND 1200FT 14017KT",
      "taf": "TAF ENBR 171100Z 1712/1812 15012KT 9999 SCT045"
    },
    {
      "icao": "ENGM",
      "alert": "OK",
      "vis_m": 9999,
      "fzfg": false,
      "metar_trigger": false,
      "taf_trigger": false,
      "metar": "METAR ENGM 171450Z 21011KT 180V240 CAVOK 14/01 Q1023 NOSIG",
      "taf": "TAF ENGM 171100Z 1712/1812 18010KT 9999 FEW040"
    },
    {
      "icao": "ENHD",
      "alert": "OK",
      "vis_m": 9999,
      "fzfg": false,
      "metar_trigger": false,
      "taf_trigger": false,
      "metar": "METAR ENHD 171450Z 14012KT 9999 SCT044 12/05 Q1019",
      "taf": "TAF ENHD 171400Z 1715/1722 14015KT 9999 -RA BKN040"
    },
    {
      "icao": "ENTC",
      "alert": "OK",
      "vis_m": 9999,
      "fzfg": false,
      "metar_trigger": false,
      "taf_trigger": false,
      "metar": "METAR ENTC 171450Z 01005KT CAVOK 09/M01 Q1025 NOSIG RMK WIND 2600FT 19008KT",
      "taf": "TAF ENTC 171100Z 1712/1812 23006KT CAVOK"
    },
    {
      "icao": "ENTO",
      "alert": "OK",
      "vis_m": 9999,
      "fzfg": false,
      "metar_trigger": false,
      "taf_trigger": false,
      "metar": "METAR ENTO 171450Z 17007KT 130V200 CAVOK 13/05 Q1024 NOSIG",
      "taf": "TAF ENTO 171100Z 1712/1812 18010KT 9999 FEW040"
    },
    {
      "icao": "ENVA",
      "alert": "OK",
      "vis_m": 9999,
      "fzfg": false,
      "metar_trigger": false,
      "taf_trigger": false,
      "metar": "METAR ENVA 171450Z 16011KT CAVOK 17/01 Q1021 NOSIG RMK WIND 670FT 18018KT",
      "taf": "TAF ENVA 171100Z 1712/1812 14008KT CAVOK"
    },
    {
      "icao": "ENZV",
      "alert": "OK",
      "vis_m": 9999,
      "fzfg": false,
      "metar_trigger": false,
      "taf_trigger": false,
      "metar": "METAR ENZV 171450Z 16017KT 9999 FEW040 13/05 Q1020 NOSIG",
      "taf": "TAF ENZV 171100Z 1712/1812 16015KT 9999 FEW025"
    },
    {
      "icao": "EPGD",
      "alert": "OK",
      "vis_m": 9999,
      "fzfg": false,
      "metar_trigger": false,
      "taf_trigger": false,
      "metar": "METAR EPGD 171500Z 36009KT 320V030 9999 SCT032 12/04 Q1023",
      "taf": "TAF EPGD 171130Z 1712/1812 33006KT CAVOK"
    },
    {
      "icao": "EPKK",
      "alert": "OK",
      "vis_m": 9999,
      "fzfg": false,
      "metar_trigger": false,
      "taf_trigger": false,
      "metar": "METAR EPKK 171500Z 35013KT 9999 FEW056 17/02 Q1019",
      "taf": "TAF EPKK 171430Z 1715/1815 34010KT CAVOK"
    },
    {
      "icao": "EPKT",
      "alert": "OK",
      "vis_m": 9999,
      "fzfg": false,
      "metar_trigger": false,
      "taf_trigger": false,
      "metar": "METAR EPKT 171500Z 33011KT 300V360 CAVOK 16/02 Q1020",
      "taf": "TAF EPKT 171130Z 1712/1812 33010KT CAVOK"
    },
    {
      "icao": "EPLB",
      "alert": "OK",
      "vis_m": 9999,
      "fzfg": false,
      "metar_trigger": false,
      "taf_trigger": false,
      "metar": "METAR EPLB 171500Z 35010KT 310V020 CAVOK 14/01 Q1018",
      "taf": "TAF EPLB 171130Z 1712/1812 32010KT CAVOK"
    },
    {
      "icao": "EPMO",
      "alert": "OK",
      "vis_m": 9999,
      "fzfg": false,
      "metar_trigger": false,
      "taf_trigger": false,
      "metar": "METAR EPMO 171500Z 34009KT 300V020 9999 FEW040 13/05 Q1021",
      "taf": "TAF EPMO 171130Z 1712/1812 33012KT CAVOK"
    },
    {
      "icao": "EPPO",
      "alert": "OK",
      "vis_m": 9999,
      "fzfg": false,
      "metar_trigger": false,
      "taf_trigger": false,
      "metar": "METAR EPPO 171500Z 31007KT 280V350 CAVOK 17/00 Q1022",
      "taf": "TAF EPPO 171130Z 1712/1812 02010KT CAVOK"
    },
    {
      "icao": "EPRA",
      "alert": "OK",
      "vis_m": 9999,
      "fzfg": false,
      "metar_trigger": false,
      "taf_trigger": false,
      "metar": "METAR EPRA 171500Z 36013KT CAVOK 14/01 Q1019",
      "taf": "TAF EPRA 171430Z 1715/1724 33012KT CAVOK"
    },
    {
      "icao": "EPRZ",
      "alert": "OK",
      "vis_m": 9999,
      "fzfg": false,
      "metar_trigger": false,
      "taf_trigger": false,
      "metar": "METAR EPRZ 171500Z 34014KT 310V010 CAVOK 16/M02 Q1018",
      "taf": "TAF EPRZ 171130Z 1712/1812 34013KT CAVOK"
    },
    {
      "icao": "EPSC",
      "alert": "OK",
      "vis_m": 9999,
      "fzfg": false,
      "metar_trigger": false,
      "taf_trigger": false,
      "metar": "METAR EPSC 171500Z 05004KT 320V120 CAVOK 17/00 Q1023",
      "taf": "TAF EPSC 171130Z 1712/1812 33010KT CAVOK"
    },
    {
      "icao": "EPSY",
      "alert": "OK",
      "vis_m": 9999,
      "fzfg": false,
      "metar_trigger": false,
      "taf_trigger": false,
      "metar": "METAR EPSY 171500Z 34009KT 9999 OVC013 08/05 Q1022",
      "taf": "TAF EPSY 171430Z 1715/1724 33008KT 9999 BKN013"
    },
    {
      "icao": "EPWA",
      "alert": "OK",
      "vis_m": 9999,
      "fzfg": false,
      "metar_trigger": false,
      "taf_trigger": false,
      "metar": "METAR EPWA 171500Z 35010KT 320V050 9999 FEW036 13/04 Q1020 NOSIG",
      "taf": "TAF EPWA 171430Z 1715/1815 33010KT CAVOK"
    },
    {
      "icao": "EPWR",
      "alert": "OK",
      "vis_m": 9999,
      "fzfg": false,
      "metar_trigger": false,
      "taf_trigger": false,
      "metar": "METAR EPWR 171500Z 34010KT 300V020 CAVOK 18/03 Q1021",
      "taf": "TAF EPWR 171430Z 1715/1815 01010KT CAVOK"
    },
    {
      "icao": "ESGG",
      "alert": "OK",
      "vis_m": 9999,
      "fzfg": false,
      "metar_trigger": false,
      "taf_trigger": false,
      "metar": "METAR ESGG 171450Z 25007KT 220V280 CAVOK 14/04 Q1023",
      "taf": "TAF ESGG 171430Z 1715/1815 27010KT CAVOK"
    },
    {
      "icao": "ESKN",
      "alert": "OK",
      "vis_m": 9999,
      "fzfg": false,
      "metar_trigger": false,
      "taf_trigger": false,
      "metar": "METAR ESKN 171450Z 32005KT 260V010 CAVOK 16/03 Q1023",
      "taf": "TAF ESKN 171430Z 1715/1815 34005KT CAVOK"
    },
    {
      "icao": "ESMS",
      "alert": "OK",
      "vis_m": 9999,
      "fzfg": false,
      "metar_trigger": false,
      "taf_trigger": false,
      "metar": "METAR ESMS 171450Z 21009KT CAVOK 14/03 Q1023",
      "taf": "TAF ESMS 171427Z 1715/1815 22010KT 9999 SCT040"
    },
    {
      "icao": "ESSA",
      "alert": "OK",
      "vis_m": 9999,
      "fzfg": false,
      "metar_trigger": false,
      "taf_trigger": false,
      "metar": "METAR ESSA 171450Z 33007KT CAVOK 13/M01 Q1023 NOSIG",
      "taf": "TAF ESSA 171430Z 1715/1815 01007KT CAVOK"
    },
    {
      "icao": "EYKA",
      "alert": "OK",
      "vis_m": 9999,
      "fzfg": false,
      "metar_trigger": false,
      "taf_trigger": false,
      "metar": "METAR EYKA 171450Z 30008KT 9999 SCT036CB BKN043 14/07 Q1017",
      "taf": "TAF EYKA 171100Z 1712/1812 VRB04KT 9000 BKN020"
    },
    {
      "icao": "EYPA",
      "alert": "OK",
      "vis_m": 9999,
      "fzfg": false,
      "metar_trigger": false,
      "taf_trigger": false,
      "metar": "METAR EYPA 171450Z 30004KT 250V340 CAVOK 08/05 Q1021",
      "taf": "TAF EYPA 171100Z 1712/1812 VRB04KT 9000 NSC"
    },
    {
      "icao": "EYVI",
      "alert": "OK",
      "vis_m": 9999,
      "fzfg": false,
      "metar_trigger": false,
      "taf_trigger": false,
      "metar": "METAR EYVI 171450Z 29007KT 260V320 9999 SCT016 SCT022 BKN027 10/08 Q1016 NOSIG",
      "taf": "TAF EYVI 171110Z 1712/1812 33010KT 5000 BR OVC002"
    },
    {
      "icao": "GCFV",
      "alert": "OK",
      "vis_m": 9999,
      "fzfg": false,
      "metar_trigger": false,
      "taf_trigger": false,
      "metar": "METAR GCFV 171500Z 03009KT 360V060 9999 FEW010 21/17 Q1014",
      "taf": "TAF GCFV 171400Z 1715/1815 05010KT 8000 NSC TX29/1814Z TN18/1806Z"
    },
    {
      "icao": "GCLP",
      "alert": "OK",
      "vis_m": 9999,
      "fzfg": false,
      "metar_trigger": false,
      "taf_trigger": false,
      "metar": "METAR GCLP 171500Z 03017KT 9999 FEW020 22/17 Q1014 NOSIG",
      "taf": "TAF GCLP 171400Z 1715/1815 02014KT 8000 NSC TX29/1814Z TN20/1806Z"
    },
    {
      "icao": "GCTS",
      "alert": "OK",
      "vis_m": 9999,
      "fzfg": false,
      "metar_trigger": false,
      "taf_trigger": false,
      "metar": "METAR GCTS 171500Z 09020KT CAVOK 25/16 Q1013 NOSIG",
      "taf": "TAF GCTS 171400Z 1715/1815 09018KT 8000 NSC TX30/1814Z TN22/1806Z"
    },
    {
      "icao": "GMAD",
      "alert": "OK",
      "vis_m": 8000,
      "fzfg": false,
      "metar_trigger": false,
      "taf_trigger": false,
      "metar": "METAR GMAD 171500Z 28011KT 8000 NSC 29/14 Q1012 NOSIG",
      "taf": "TAF GMAD 171100Z 1712/1818 26008KT CAVOK"
    },
    {
      "icao": "GMMN",
      "alert": "OK",
      "vis_m": 9999,
      "fzfg": false,
      "metar_trigger": false,
      "taf_trigger": false,
      "metar": "METAR GMMN 171500Z 35010KT 320V030 CAVOK 28/16 Q1014 NOSIG",
      "taf": "TAF GMMN 171100Z 1712/1818 34004KT CAVOK"
    },
    {
      "icao": "GMMX",
      "alert": "OK",
      "vis_m": 9999,
      "fzfg": false,
      "metar_trigger": false,
      "taf_trigger": false,
      "metar": "METAR GMMX 171500Z VRB05KT CAVOK 32/10 Q1014 NOSIG",
      "taf": "TAF GMMX 171100Z 1712/1818 36006KT CAVOK"
    },
    {
      "icao": "HEGN",
      "alert": "OK",
      "vis_m": null,
      "fzfg": false,
      "metar_trigger": false,
      "taf_trigger": false,
      "metar": "",
      "taf": "TAF HEGN 171100Z 1712/1818 12012G22KT 6000 SCT025"
    },
    {
      "icao": "HEMA",
      "alert": "OK",
      "vis_m": null,
      "fzfg": false,
      "metar_trigger": false,
      "taf_trigger": false,
      "metar": "",
      "taf": "TAF HEMA 171100Z 1712/1818 12012G22KT 6000 SCT025"
    },
    {
      "icao": "HESH",
      "alert": "OK",
      "vis_m": null,
      "fzfg": false,
      "metar_trigger": false,
      "taf_trigger": false,
      "metar": "",
      "taf": "TAF HESH 171100Z 1712/1818 18012G22KT 6000 SCT025"
    },
    {
      "icao": "HESX",
      "alert": "OK",
      "vis_m": null,
      "fzfg": false,
      "metar_trigger": false,
      "taf_trigger": false,
      "metar": "",
      "taf": "TAF HESX 171150Z 1712/1818 26014KT 6000 NSC"
    },
    {
      "icao": "LATI",
      "alert": "OK",
      "vis_m": 9999,
      "fzfg": false,
      "metar_trigger": false,
      "taf_trigger": false,
      "metar": "METAR LATI 171450Z 31014KT 9999 FEW098 25/10 Q1008 NOSIG",
      "taf": "TAF LATI 171100Z 1712/1812 34012KT CAVOK TX28/1712Z TN12/1804Z"
    },
    {
      "icao": "LBPD",
      "alert": "OK",
      "vis_m": 9999,
      "fzfg": false,
      "metar_trigger": false,
      "taf_trigger": false,
      "metar": "METAR LBPD 171500Z AUTO 11010KT 9999 NCD 20/03 Q1012 NOSIG",
      "taf": "TAF LBPD 171100Z 1712/1812 VRB04KT 9999 SCT050"
    },
    {
      "icao": "LBSF",
      "alert": "OK",
      "vis_m": 9999,
      "fzfg": false,
      "metar_trigger": false,
      "taf_trigger": false,
      "metar": "METAR LBSF 171500Z AUTO 06011KT 030V090 9999 NCD 21/06 Q1012 NOSIG",
      "taf": "TAF LBSF 171100Z 1712/1812 03012KT 9999 SCT050"
    },
    {
      "icao": "LBWN",
      "alert": "OK",
      "vis_m": 9999,
      "fzfg": false,
      "metar_trigger": false,
      "taf_trigger": false,
      "metar": "METAR LBWN 171500Z AUTO 14012KT 9999 NCD 16/03 Q1014 NOSIG",
      "taf": "TAF LBWN 171100Z 1712/1812 08014KT CAVOK"
    },
    {
      "icao": "LCLK",
      "alert": "OK",
      "vis_m": 9999,
      "fzfg": false,
      "metar_trigger": false,
      "taf_trigger": false,
      "metar": "METAR LCLK 171500Z 04015KT 9999 FEW030TCU 22/17 Q1003 RETS BECMG 5000 DU",
      "taf": ""
    },
    {
      "icao": "LCPH",
      "alert": "OK",
      "vis_m": 1000,
      "fzfg": false,
      "metar_trigger": false,
      "taf_trigger": false,
      "metar": "METAR LCPH 171500Z 25006KT 1000 R29/1200 R11/1500 DU FEW030 20/16 Q1003 BECMG 0800 DU",
      "taf": ""
    },
    {
      "icao": "LEAL",
      "alert": "OK",
      "vis_m": 9999,
      "fzfg": false,
      "metar_trigger": false,
      "taf_trigger": false,
      "metar": "METAR LEAL 171500Z 11008KT 080V170 CAVOK 23/06 Q1019 NOSIG",
      "taf": ""
    },
    {
      "icao": "LEBB",
      "alert": "OK",
      "vis_m": 9999,
      "fzfg": false,
      "metar_trigger": false,
      "taf_trigger": false,
      "metar": "METAR LEBB 171500Z 28011KT 9999 FEW025 18/14 Q1020 NOSIG",
      "taf": "TAF LEBB 171100Z 1712/1812 31009KT 9999 SCT030 TX21/1712Z TN11/1806Z"
    },
    {
      "icao": "LEBL",
      "alert": "OK",
      "vis_m": 9999,
      "fzfg": false,
      "metar_trigger": false,
      "taf_trigger": false,
      "metar": "METAR LEBL 171500Z 20008KT CAVOK 19/12 Q1019 NOSIG",
      "taf": "TAF LEBL 171100Z 1712/1812 21010KT CAVOK TX22/1812Z TN12/1805Z"
    },
    {
      "icao": "LECH",
      "alert": "OK",
      "vis_m": 9999,
      "fzfg": false,
      "metar_trigger": false,
      "taf_trigger": false,
      "metar": "METAR LECH 171500Z AUTO 13009KT 100V160 CAVOK 22/11 Q1019",
      "taf": "TAF LECH 171100Z 1712/1812 12009KT CAVOK TX25/1713Z TN11/1805Z"
    },
    {
      "icao": "LEMD",
      "alert": "OK",
      "vis_m": 9999,
      "fzfg": false,
      "metar_trigger": false,
      "taf_trigger": false,
      "metar": "METAR LEMD 171500Z 19007KT 150V290 9999 FEW060 26/05 Q1018 NOSIG",
      "taf": "TAF LEMD 171100Z 1712/1818 VRB04KT CAVOK TX27/1716Z TN09/1806Z"
    },
    {
      "icao": "LEMG",
      "alert": "OK",
      "vis_m": 9999,
      "fzfg": false,
      "metar_trigger": false,
      "taf_trigger": false,
      "metar": "METAR LEMG 171500Z 13007KT 100V170 CAVOK 21/09 Q1018 NOSIG",
      "taf": "TAF LEMG 171100Z 1712/1812 13010KT CAVOK TX23/1715Z TN12/1806Z"
    },
    {
      "icao": "LEVC",
      "alert": "OK",
      "vis_m": 9999,
      "fzfg": false,
      "metar_trigger": false,
      "taf_trigger": false,
      "metar": "METAR LEVC 171500Z 08009KT 040V110 9999 FEW045 22/11 Q1018 NOSIG",
      "taf": "TAF LEVC 171100Z 1712/1812 10009KT CAVOK TX25/1712Z TN12/1805Z"
    },
    {
      "icao": "LEXJ",
      "alert": "OK",
      "vis_m": 9999,
      "fzfg": false,
      "metar_trigger": false,
      "taf_trigger": false,
      "metar": "METAR LEXJ 171500Z 35005KT 290V040 9999 FEW020 SCT028 17/12 Q1020",
      "taf": "TAF LEXJ 171400Z 1715/1815 06008KT 9000 BKN015 TX18/1814Z TN12/1804Z"
    },
    {
      "icao": "LEZG",
      "alert": "OK",
      "vis_m": 9999,
      "fzfg": false,
      "metar_trigger": false,
      "taf_trigger": false,
      "metar": "METAR LEZG 171500Z 06003KT 330V120 9999 FEW030 27/06 Q1017 NOSIG",
      "taf": "TAF LEZG 171100Z 1712/1812 VRB04KT CAVOK TX29/1714Z TN14/1805Z"
    },
    {
      "icao": "LEZL",
      "alert": "OK",
      "vis_m": 9999,
      "fzfg": false,
      "metar_trigger": false,
      "taf_trigger": false,
      "metar": "METAR LEZL 171500Z 23004KT CAVOK 31/09 Q1015 NOSIG",
      "taf": "TAF LEZL 171400Z 1715/1815 13005KT CAVOK TX32/1815Z TN14/1806Z"
    },
    {
      "icao": "LFBD",
      "alert": "OK",
      "vis_m": 9999,
      "fzfg": false,
      "metar_trigger": false,
      "taf_trigger": false,
      "metar": "METAR LFBD 171500Z AUTO VRB03KT CAVOK 27/10 Q1018 NOSIG",
      "taf": "TAF LFBD 171100Z 1712/1818 19005KT CAVOK TX26/1715Z TN11/1805Z"
    },
    {
      "icao": "LFLL",
      "alert": "OK",
      "vis_m": 9999,
      "fzfg": false,
      "metar_trigger": false,
      "taf_trigger": false,
      "metar": "METAR LFLL 171500Z 36010KT 9999 FEW046 SCT260 22/07 Q1019 NOSIG",
      "taf": "TAF LFLL 171100Z 1712/1818 35006KT CAVOK"
    },
    {
      "icao": "LFLS",
      "alert": "OK",
      "vis_m": 9999,
      "fzfg": false,
      "metar_trigger": false,
      "taf_trigger": false,
      "metar": "METAR LFLS 171500Z AUTO 33006KT 300V360 CAVOK 21/09 Q1019 NOSIG",
      "taf": "TAF LFLS 171400Z 1715/1815 36005KT CAVOK"
    },
    {
      "icao": "LFMN",
      "alert": "OK",
      "vis_m": 9999,
      "fzfg": false,
      "metar_trigger": false,
      "taf_trigger": false,
      "metar": "METAR LFMN 171500Z 12003KT CAVOK 20/16 Q1017 NOSIG",
      "taf": "TAF LFMN 171400Z 1715/1821 15006KT CAVOK"
    },
    {
      "icao": "LFOB",
      "alert": "OK",
      "vis_m": 9999,
      "fzfg": false,
      "metar_trigger": false,
      "taf_trigger": false,
      "metar": "METAR LFOB 171500Z AUTO 21007KT 9999 FEW041 OVC078 18/10 Q1021 TEMPO SCT035TCU",
      "taf": "TAF LFOB 171100Z 1712/1812 21005KT CAVOK"
    },
    {
      "icao": "LFPO",
      "alert": "OK",
      "vis_m": 9999,
      "fzfg": false,
      "metar_trigger": false,
      "taf_trigger": false,
      "metar": "METAR LFPO 171500Z 28003KT 230V020 CAVOK 21/07 Q1020 NOSIG",
      "taf": "TAF LFPO 171100Z 1712/1818 24003KT CAVOK"
    },
    {
      "icao": "LFSB",
      "alert": "OK",
      "vis_m": 9999,
      "fzfg": false,
      "metar_trigger": false,
      "taf_trigger": false,
      "metar": "METAR LFSB 171500Z AUTO VRB03KT CAVOK 22/08 Q1019 NOSIG",
      "taf": "TAF LFSB 171112Z 1712/1812 VRB03KT 9999 FEW040 BKN250"
    },
    {
      "icao": "LGAV",
      "alert": "OK",
      "vis_m": 9999,
      "fzfg": false,
      "metar_trigger": false,
      "taf_trigger": false,
      "metar": "METAR LGAV 171450Z 01014KT 340V050 9999 FEW025 21/02 Q1007 NOSIG",
      "taf": "TAF LGAV 171100Z 1712/1812 01015KT 9999 FEW020"
    },
    {
      "icao": "LGTS",
      "alert": "OK",
      "vis_m": 9999,
      "fzfg": false,
      "metar_trigger": false,
      "taf_trigger": false,
      "metar": "METAR LGTS 171450Z 17008KT 9999 FEW025 22/13 Q1009 NOSIG",
      "taf": "TAF LGTS 171100Z 1712/1812 VRB03KT 9999 FEW025"
    },
    {
      "icao": "LHBP",
      "alert": "OK",
      "vis_m": 9999,
      "fzfg": false,
      "metar_trigger": false,
      "taf_trigger": false,
      "metar": "METAR LHBP 171500Z 32013KT CAVOK 21/01 Q1017 NOSIG",
      "taf": "TAF LHBP 171115Z 1712/1812 34009KT CAVOK"
    },
    {
      "icao": "LHDC",
      "alert": "OK",
      "vis_m": 9999,
      "fzfg": false,
      "metar_trigger": false,
      "taf_trigger": false,
      "metar": "METAR LHDC 171445Z AUTO 35011KT 320V030 CAVOK 20/02 Q1016 NOSIG",
      "taf": "TAF LHDC 171415Z 1715/1724 02009KT CAVOK"
    },
    {
      "icao": "LIBD",
      "alert": "OK",
      "vis_m": 9999,
      "fzfg": false,
      "metar_trigger": false,
      "taf_trigger": false,
      "metar": "METAR LIBD 171450Z 32011KT 290V350 CAVOK 22/09 Q1013",
      "taf": "TAF LIBD 171100Z 1712/1812 34013KT CAVOK"
    },
    {
      "icao": "LIBG",
      "alert": "OK",
      "vis_m": 9999,
      "fzfg": false,
      "metar_trigger": false,
      "taf_trigger": false,
      "metar": "METAR LIBG 171450Z 35010KT CAVOK 23/13 Q1011",
      "taf": "TAF LIBG 171400Z 1715/1724 34014KT CAVOK"
    },
    {
      "icao": "LIBP",
      "alert": "OK",
      "vis_m": 9999,
      "fzfg": false,
      "metar_trigger": false,
      "taf_trigger": false,
      "metar": "METAR LIBP 171450Z AUTO 01007KT 320V040 9999 NCD 20/11 Q1016",
      "taf": "TAF LIBP 171100Z 1712/1812 01012KT CAVOK"
    },
    {
      "icao": "LIBR",
      "alert": "OK",
      "vis_m": 9999,
      "fzfg": false,
      "metar_trigger": false,
      "taf_trigger": false,
      "metar": "METAR LIBR 171450Z 32019KT CAVOK 18/15 Q1011",
      "taf": "TAF LIBR 171100Z 1712/1812 32016KT CAVOK"
    },
    {
      "icao": "LICA",
      "alert": "OK",
      "vis_m": 9999,
      "fzfg": false,
      "metar_trigger": false,
      "taf_trigger": false,
      "metar": "METAR LICA 171450Z AUTO 25009KT 9999 FEW011/// SCT037/// 19/16 Q1014",
      "taf": "TAF LICA 171100Z 1712/1812 26012KT 9999 BKN020"
    },
    {
      "icao": "LICC",
      "alert": "OK",
      "vis_m": 9999,
      "fzfg": false,
      "metar_trigger": false,
      "taf_trigger": false,
      "metar": "METAR LICC 171450Z 06010KT CAVOK 22/19 Q1012",
      "taf": "TAF LICC 171100Z 1712/1812 08010KT CAVOK"
    },
    {
      "icao": "LICJ",
      "alert": "OK",
      "vis_m": 9999,
      "fzfg": false,
      "metar_trigger": false,
      "taf_trigger": false,
      "metar": "METAR LICJ 171450Z 34007KT 9999 SCT009 18/16 Q1015",
      "taf": "TAF LICJ 171100Z 1712/1812 33010KT CAVOK"
    },
    {
      "icao": "LIMC",
      "alert": "OK",
      "vis_m": 9999,
      "fzfg": false,
      "metar_trigger": false,
      "taf_trigger": false,
      "metar": "METAR LIMC 171450Z 21005KT 160V280 9999 FEW050 23/11 Q1017 NOSIG",
      "taf": "TAF LIMC 171100Z 1712/1818 VRB05KT 9999 SCT040"
    },
    {
      "icao": "LIME",
      "alert": "OK",
      "vis_m": 9999,
      "fzfg": false,
      "metar_trigger": false,
      "taf_trigger": false,
      "metar": "METAR LIME 171450Z VRB04KT 9999 FEW045 23/10 Q1017 NOSIG",
      "taf": "TAF LIME 171100Z 1712/1812 VRB05KT 9999 SCT050"
    },
    {
      "icao": "LIMF",
      "alert": "OK",
      "vis_m": 9999,
      "fzfg": false,
      "metar_trigger": false,
      "taf_trigger": false,
      "metar": "METAR LIMF 171450Z VRB02KT 9999 FEW040 22/13 Q1017",
      "taf": "TAF LIMF 171100Z 1712/1812 VRB05KT 9999 SCT040"
    },
    {
      "icao": "LIMJ",
      "alert": "OK",
      "vis_m": 9999,
      "fzfg": false,
      "metar_trigger": false,
      "taf_trigger": false,
      "metar": "METAR LIMJ 171450Z 25004KT 210V270 CAVOK 20/15 Q1016",
      "taf": "TAF LIMJ 171100Z 1712/1812 VRB05KT 9999 SCT030"
    },
    {
      "icao": "LIPE",
      "alert": "OK",
      "vis_m": 9999,
      "fzfg": false,
      "metar_trigger": false,
      "taf_trigger": false,
      "metar": "METAR LIPE 171450Z VRB03KT CAVOK 23/13 Q1017",
      "taf": "TAF LIPE 171100Z 1712/1812 08010KT CAVOK"
    },
    {
      "icao": "LIPH",
      "alert": "OK",
      "vis_m": 9999,
      "fzfg": false,
      "metar_trigger": false,
      "taf_trigger": false,
      "metar": "METAR LIPH 171450Z 20002KT 090V260 CAVOK 24/08 Q1017",
      "taf": "TAF LIPH 171100Z 1712/1812 14010KT 9999 FEW060"
    },
    {
      "icao": "LIPQ",
      "alert": "OK",
      "vis_m": 9999,
      "fzfg": false,
      "metar_trigger": false,
      "taf_trigger": false,
      "metar": "METAR LIPQ 171450Z AUTO VRB04KT 9999 FEW086/// 25/06 Q1016",
      "taf": "TAF LIPQ 171100Z 1712/1812 10010KT 9999 FEW060"
    },
    {
      "icao": "LIPR",
      "alert": "OK",
      "vis_m": 9999,
      "fzfg": false,
      "metar_trigger": false,
      "taf_trigger": false,
      "metar": "METAR LIPR 171450Z 03005KT CAVOK 20/09 Q1017",
      "taf": "TAF LIPR 171100Z 1712/1812 02010KT CAVOK"
    },
    {
      "icao": "LIPX",
      "alert": "OK",
      "vis_m": 9999,
      "fzfg": false,
      "metar_trigger": false,
      "taf_trigger": false,
      "metar": "METAR LIPX 171450Z 16005KT 080V230 9999 FEW040 24/09 Q1017",
      "taf": "TAF LIPX 171100Z 1712/1812 10010KT 9999 FEW040"
    },
    {
      "icao": "LIPY",
      "alert": "OK",
      "vis_m": 9999,
      "fzfg": false,
      "metar_trigger": false,
      "taf_trigger": false,
      "metar": "METAR LIPY 171450Z AUTO 33010KT 9999 NCD 19/13 Q1017",
      "taf": "TAF LIPY 171100Z 1712/1812 34010KT CAVOK"
    },
    {
      "icao": "LIPZ",
      "alert": "OK",
      "vis_m": 9999,
      "fzfg": false,
      "metar_trigger": false,
      "taf_trigger": false,
      "metar": "METAR LIPZ 171450Z 23007KT CAVOK 22/10 Q1017 NOSIG",
      "taf": "TAF LIPZ 171100Z 1712/1818 15010KT CAVOK"
    },
    {
      "icao": "LIRF",
      "alert": "OK",
      "vis_m": 9999,
      "fzfg": false,
      "metar_trigger": false,
      "taf_trigger": false,
      "metar": "METAR LIRF 171450Z 28013KT CAVOK 22/13 Q1013 NOSIG",
      "taf": "TAF LIRF 171100Z 1712/1818 28013KT CAVOK"
    },
    {
      "icao": "LIRN",
      "alert": "OK",
      "vis_m": 9999,
      "fzfg": false,
      "metar_trigger": false,
      "taf_trigger": false,
      "metar": "METAR LIRN 171450Z 04007KT 9999 FEW040 26/10 Q1013",
      "taf": "TAF LIRN 171100Z 1712/1812 05012KT 9999 FEW040"
    },
    {
      "icao": "LIRP",
      "alert": "OK",
      "vis_m": 9999,
      "fzfg": false,
      "metar_trigger": false,
      "taf_trigger": false,
      "metar": "METAR LIRP 171445Z 30011KT 9999 FEW040 23/12 Q1016 NOSIG",
      "taf": "TAF LIRP 171100Z 1712/1812 28012KT CAVOK"
    },
    {
      "icao": "LIRZ",
      "alert": "OK",
      "vis_m": 9999,
      "fzfg": false,
      "metar_trigger": false,
      "taf_trigger": false,
      "metar": "METAR LIRZ 171450Z AUTO 04013KT 9999 NCD 23/10 Q1015",
      "taf": "TAF LIRZ 171100Z 1712/1812 04012KT CAVOK"
    },
    {
      "icao": "LJLJ",
      "alert": "OK",
      "vis_m": 9999,
      "fzfg": false,
      "metar_trigger": false,
      "taf_trigger": false,
      "metar": "METAR LJLJ 171500Z 11007KT 070V150 9999 FEW060 SCT095 20/05 Q1018 NOSIG",
      "taf": "TAF LJLJ 171100Z 1712/1812 12005KT 9999 FEW040 SCT060"
    },
    {
      "icao": "LKMT",
      "alert": "OK",
      "vis_m": 9999,
      "fzfg": false,
      "metar_trigger": false,
      "taf_trigger": false,
      "metar": "METAR LKMT 171500Z 01009KT CAVOK 16/07 Q1020 NOSIG",
      "taf": "TAF LKMT 171100Z 1712/1812 02008KT 9999 FEW045"
    },
    {
      "icao": "LKPR",
      "alert": "OK",
      "vis_m": 9999,
      "fzfg": false,
      "metar_trigger": false,
      "taf_trigger": false,
      "metar": "METAR LKPR 171500Z 35010KT 310V010 CAVOK 18/03 Q1021 NOSIG",
      "taf": "TAF LKPR 171400Z 1715/1821 36008KT CAVOK"
    },
    {
      "icao": "LLBG",
      "alert": "OK",
      "vis_m": 2500,
      "fzfg": false,
      "metar_trigger": false,
      "taf_trigger": false,
      "metar": "METAR LLBG 171450Z 30009KT 2500 DU FEW080TCU 24/09 Q1004 TEMPO 1500 DU",
      "taf": "TAF LLBG 171103Z 1712/1812 30015KT 4000 DU NSC TX26/1712Z TN17/1804Z"
    },
    {
      "icao": "LMML",
      "alert": "OK",
      "vis_m": 9999,
      "fzfg": false,
      "metar_trigger": false,
      "taf_trigger": false,
      "metar": "METAR LMML 171515Z 30010KT 270V330 CAVOK 22/12 Q1013 NOSIG",
      "taf": "TAF LMML 171100Z 1712/1812 29009KT CAVOK"
    },
    {
      "icao": "LOWW",
      "alert": "OK",
      "vis_m": 9999,
      "fzfg": false,
      "metar_trigger": false,
      "taf_trigger": false,
      "metar": "METAR LOWW 171450Z 36014KT CAVOK 20/05 Q1019 NOSIG",
      "taf": "TAF LOWW 171415Z 1715/1821 35005KT CAVOK TX20/1715Z TN07/1804Z"
    },
    {
      "icao": "LPFR",
      "alert": "OK",
      "vis_m": 9999,
      "fzfg": false,
      "metar_trigger": false,
      "taf_trigger": false,
      "metar": "METAR LPFR 171500Z 12008KT CAVOK 24/10 Q1016",
      "taf": "TAF LPFR 171100Z 1712/1812 10013KT CAVOK"
    },
    {
      "icao": "LPMA",
      "alert": "OK",
      "vis_m": 9999,
      "fzfg": false,
      "metar_trigger": false,
      "taf_trigger": false,
      "metar": "METAR LPMA 171500Z 04014KT 9999 FEW016 20/12 Q1018",
      "taf": "TAF LPMA 171100Z 1712/1812 02013KT 9999 SCT016"
    },
    {
      "icao": "LPPR",
      "alert": "OK",
      "vis_m": 9999,
      "fzfg": false,
      "metar_trigger": false,
      "taf_trigger": false,
      "metar": "METAR LPPR 171500Z 32010KT CAVOK 17/10 Q1019",
      "taf": "TAF LPPR 171100Z 1712/1812 29007KT 9999 SCT015"
    },
    {
      "icao": "LPPS",
      "alert": "OK",
      "vis_m": 9999,
      "fzfg": false,
      "metar_trigger": false,
      "taf_trigger": false,
      "metar": "METAR LPPS 171500Z 08010KT 9999 SCT014 BKN030 17/13 Q1018",
      "taf": "TAF LPPS 171100Z 1712/1818 06012KT 9999 FEW015 BKN030"
    },
    {
      "icao": "LPPT",
      "alert": "OK",
      "vis_m": 9999,
      "fzfg": false,
      "metar_trigger": false,
      "taf_trigger": false,
      "metar": "METAR LPPT 171500Z 07006KT 010V120 9999 FEW048 26/13 Q1017",
      "taf": "TAF LPPT 171100Z 1712/1818 07005KT CAVOK"
    },
    {
      "icao": "LQBK",
      "alert": "OK",
      "vis_m": 9999,
      "fzfg": false,
      "metar_trigger": false,
      "taf_trigger": false,
      "metar": "METAR LQBK 171500Z 36006KT 9999 FEW047 22/06 Q1017 NOSIG",
      "taf": "TAF LQBK 171100Z 1712/1812 VRB02KT 9999 SCT040 TX23/1714Z TN08/1804Z"
    },
    {
      "icao": "LQSA",
      "alert": "OK",
      "vis_m": 9999,
      "fzfg": false,
      "metar_trigger": false,
      "taf_trigger": false,
      "metar": "METAR LQSA 171500Z 01005KT 340V070 9999 SCT055 19/04 Q1016 NOSIG",
      "taf": "TAF LQSA 171100Z 1712/1812 30005KT 9999 SCT050 TX20/1714Z TN08/1804Z"
    },
    {
      "icao": "LQTZ",
      "alert": "OK",
      "vis_m": 9999,
      "fzfg": false,
      "metar_trigger": false,
      "taf_trigger": false,
      "metar": "METAR LQTZ 171500Z 04006KT 350V070 9999 FEW065 20/07 Q1017",
      "taf": "TAF LQTZ 171100Z 1712/1812 33005KT 9999 SCT055 TX22/1713Z TN09/1804Z"
    },
    {
      "icao": "LRBC",
      "alert": "OK",
      "vis_m": 7000,
      "fzfg": false,
      "metar_trigger": false,
      "taf_trigger": false,
      "metar": "METAR LRBC 171500Z 33006KT 7000 -RA FEW015 SCT036 OVC064 12/11 Q1016",
      "taf": "TAF LRBC 171400Z 1715/1724 36010KT 9999 SCT015 BKN035"
    },
    {
      "icao": "LRBS",
      "alert": "OK",
      "vis_m": 9999,
      "fzfg": false,
      "metar_trigger": false,
      "taf_trigger": false,
      "metar": "METAR LRBS 171500Z 08009KT CAVOK 20/04 Q1014 NOSIG",
      "taf": "TAF LRBS 171100Z 1712/1812 08004KT CAVOK"
    },
    {
      "icao": "LRBV",
      "alert": "OK",
      "vis_m": 9999,
      "fzfg": false,
      "metar_trigger": false,
      "taf_trigger": false,
      "metar": "METAR LRBV 171500Z 22011KT 9999 SCT036 SCT075 12/09 Q1015",
      "taf": "TAF LRBV 171400Z 1715/1724 VRB04KT 9999 BKN050"
    },
    {
      "icao": "LRCL",
      "alert": "OK",
      "vis_m": 9999,
      "fzfg": false,
      "metar_trigger": false,
      "taf_trigger": false,
      "metar": "METAR LRCL 171500Z 32011KT 290V350 CAVOK 19/02 Q1014",
      "taf": "TAF LRCL 171400Z 1715/1724 32010KT CAVOK"
    },
    {
      "icao": "LRCV",
      "alert": "OK",
      "vis_m": 9999,
      "fzfg": false,
      "metar_trigger": false,
      "taf_trigger": false,
      "metar": "METAR LRCV 171500Z 03015KT 9999 TS SCT049CB 17/11 Q1014",
      "taf": "TAF LRCV 171400Z 1715/1724 28005KT CAVOK"
    },
    {
      "icao": "LRIA",
      "alert": "OK",
      "vis_m": 9999,
      "fzfg": false,
      "metar_trigger": false,
      "taf_trigger": false,
      "metar": "METAR LRIA 171500Z VRB02KT 9999 SCT011 13/09 Q1016",
      "taf": "TAF LRIA 171400Z 1715/1724 VRB04KT 9999 SCT015 SCT035"
    },
    {
      "icao": "LROP",
      "alert": "OK",
      "vis_m": 9999,
      "fzfg": false,
      "metar_trigger": false,
      "taf_trigger": false,
      "metar": "METAR LROP 171500Z 05008KT 010V090 CAVOK 19/01 Q1014 NOSIG",
      "taf": "TAF LROP 171100Z 1712/1812 08004KT CAVOK"
    },
    {
      "icao": "LRSB",
      "alert": "OK",
      "vis_m": 9999,
      "fzfg": false,
      "metar_trigger": false,
      "taf_trigger": false,
      "metar": "METAR LRSB 171500Z 24006KT 9999 BKN070 16/11 Q1015",
      "taf": "TAF LRSB 171100Z 1712/1812 34008KT 9999 BKN035"
    },
    {
      "icao": "LRSM",
      "alert": "OK",
      "vis_m": 9999,
      "fzfg": false,
      "metar_trigger": false,
      "taf_trigger": false,
      "metar": "METAR LRSM 171500Z 33018KT CAVOK 21/01 Q1015",
      "taf": "TAF LRSM 171400Z 1715/1724 34012KT CAVOK"
    },
    {
      "icao": "LRSV",
      "alert": "OK",
      "vis_m": 9999,
      "fzfg": false,
      "metar_trigger": false,
      "taf_trigger": false,
      "metar": "METAR LRSV 171500Z 20006KT 9999 FEW040 13/07 Q1016",
      "taf": "TAF LRSV 171400Z 1715/1724 VRB04KT 9999 SCT035"
    },
    {
      "icao": "LRTM",
      "alert": "OK",
      "vis_m": 9999,
      "fzfg": false,
      "metar_trigger": false,
      "taf_trigger": false,
      "metar": "METAR LRTM 171500Z 30008KT 250V330 9999 FEW035 FEW037CB 19/06 Q1014",
      "taf": "TAF LRTM 171400Z 1715/1724 VRB04KT CAVOK"
    },
    {
      "icao": "LRTR",
      "alert": "OK",
      "vis_m": 9999,
      "fzfg": false,
      "metar_trigger": false,
      "taf_trigger": false,
      "metar": "METAR LRTR 171500Z 01011KT CAVOK 21/06 Q1015",
      "taf": "TAF LRTR 171100Z 1712/1812 36012KT CAVOK"
    },
    {
      "icao": "LTAC",
      "alert": "OK",
      "vis_m": 9999,
      "fzfg": false,
      "metar_trigger": false,
      "taf_trigger": false,
      "metar": "METAR LTAC 171450Z 08010KT 9999 FEW040 BKN180 19/01 Q1008 NOSIG RMK RWY21C 07008KT RWY03L 07009KT RWY21R 05007KT RWY03R 05011KT RWY21L 07008KT",
      "taf": "TAF LTAC 171040Z 1712/1812 05009KT 9999 SCT040 SCT100"
    },
    {
      "icao": "LTFM",
      "alert": "OK",
      "vis_m": 9999,
      "fzfg": false,
      "metar_trigger": false,
      "taf_trigger": false,
      "metar": "METAR LTFM 171450Z 02019KT 9999 SCT016 BKN022 BKN180 12/09 Q1011 NOSIG RMK RWY17L 02016KT RWY34L 01019KT RWY16R 02015KT RWY36 03018KT RWY18 03015KT",
      "taf": "TAF LTFM 171040Z 1712/1818 02020KT 9999 BKN016"
    },
    {
      "icao": "LUKK",
      "alert": "OK",
      "vis_m": 9999,
      "fzfg": false,
      "metar_trigger": false,
      "taf_trigger": false,
      "metar": "METAR LUKK 171500Z 02005KT 350V060 CAVOK 15/08 Q1015 NOSIG",
      "taf": "TAF LUKK 171032Z 1712/1812 VRB06KT 9999 SCT040"
    },
    {
      "icao": "LWOH",
      "alert": "OK",
      "vis_m": 9999,
      "fzfg": false,
      "metar_trigger": false,
      "taf_trigger": false,
      "metar": "METAR LWOH 171450Z 22005KT 180V280 9999 SCT040 20/08 Q1011",
      "taf": "TAF LWOH 171135Z 1712/1812 36010KT 9999 SCT050"
    },
    {
      "icao": "LWSK",
      "alert": "OK",
      "vis_m": 9999,
      "fzfg": false,
      "metar_trigger": false,
      "taf_trigger": false,
      "metar": "METAR LWSK 171450Z 36013KT 9999 FEW060 25/09 Q1010 NOSIG",
      "taf": "TAF LWSK 171135Z 1712/1812 01014KT CAVOK"
    },
    {
      "icao": "LYBE",
      "alert": "OK",
      "vis_m": 9999,
      "fzfg": false,
      "metar_trigger": false,
      "taf_trigger": false,
      "metar": "METAR LYBE 171500Z 01009KT CAVOK 21/06 Q1016 NOSIG",
      "taf": "TAF LYBE 171100Z 1712/1812 35009KT 9999 SCT045 TX23/1713Z TN08/1804Z"
    },
    {
      "icao": "LYNI",
      "alert": "OK",
      "vis_m": 9999,
      "fzfg": false,
      "metar_trigger": false,
      "taf_trigger": false,
      "metar": "METAR LYNI 171500Z 32013KT 9999 FEW050 21/09 Q1013 NOSIG",
      "taf": "TAF LYNI 171100Z 1712/1812 32018KT 9999 SCT050 TX23/1712Z TN10/1804Z"
    },
    {
      "icao": "LYPG",
      "alert": "OK",
      "vis_m": 9999,
      "fzfg": false,
      "metar_trigger": false,
      "taf_trigger": false,
      "metar": "METAR LYPG 171500Z 36016KT 330V030 CAVOK 27/06 Q1009 NOSIG",
      "taf": "TAF LYPG 171100Z 1712/1812 36015KT CAVOK TX28/1713Z TN19/1804Z"
    },
    {
      "icao": "LZIB",
      "alert": "OK",
      "vis_m": 9999,
      "fzfg": false,
      "metar_trigger": false,
      "taf_trigger": false,
      "metar": "METAR LZIB 171500Z 33012KT 300V360 CAVOK 21/03 Q1018 NOSIG",
      "taf": "TAF LZIB 171115Z 1712/1812 32010KT CAVOK"
    },
    {
      "icao": "LZKZ",
      "alert": "OK",
      "vis_m": 9999,
      "fzfg": false,
      "metar_trigger": false,
      "taf_trigger": false,
      "metar": "METAR LZKZ 171500Z 35016KT CAVOK 19/M01 Q1017 NOSIG",
      "taf": "TAF LZKZ 171115Z 1712/1812 02009KT CAVOK"
    },
    {
      "icao": "LZTT",
      "alert": "OK",
      "vis_m": 9999,
      "fzfg": false,
      "metar_trigger": false,
      "taf_trigger": false,
      "metar": "METAR LZTT 171500Z 35007KT 310V030 9999 FEW046 SCT056 13/01 Q1018 NOSIG",
      "taf": "TAF LZTT 171115Z 1712/1812 07007KT 9999 BKN050"
    },
    {
      "icao": "OEJN",
      "alert": "OK",
      "vis_m": 5000,
      "fzfg": false,
      "metar_trigger": false,
      "taf_trigger": false,
      "metar": "METAR OEJN 171500Z 17016KT 5000 BLDU NSC 37/10 Q1004 NOSIG",
      "taf": "TAF OEJN 171100Z 1712/1818 19022KT 7000 FEW040"
    },
    {
      "icao": "OEMA",
      "alert": "OK",
      "vis_m": 9999,
      "fzfg": false,
      "metar_trigger": false,
      "taf_trigger": false,
      "metar": "METAR OEMA 171500Z 24009KT 9999 SCT040 35/07 Q1009 NOSIG",
      "taf": "TAF OEMA 171100Z 1712/1818 23015KT 7000 SCT040"
    },
    {
      "icao": "OJAI",
      "alert": "OK",
      "vis_m": null,
      "fzfg": false,
      "metar_trigger": false,
      "taf_trigger": false,
      "metar": "",
      "taf": "TAF OJAI 171047Z 1712/1818 12010KT 5000 HZ SCT045"
    },
    {
      "icao": "OMAA",
      "alert": "OK",
      "vis_m": null,
      "fzfg": false,
      "metar_trigger": false,
      "taf_trigger": false,
      "metar": "",
      "taf": ""
    },
    {
      "icao": "OMDB",
      "alert": "OK",
      "vis_m": null,
      "fzfg": false,
      "metar_trigger": false,
      "taf_trigger": false,
      "metar": "",
      "taf": ""
    },
    {
      "icao": "UAAA",
      "alert": "OK",
      "vis_m": 9999,
      "fzfg": false,
      "metar_trigger": false,
      "taf_trigger": false,
      "metar": "METAR UAAA 171500Z 18005MPS 9999 -SHRA BKN041CB OVC100 08/05 Q1024 NOSIG",
      "taf": "TAF UAAA 171103Z 1712/1812 24003MPS 6000 BKN020CB OVC050 TX12/1809Z TN04/1801Z"
    },
    {
      "icao": "UBBB",
      "alert": "OK",
      "vis_m": 9999,
      "fzfg": false,
      "metar_trigger": false,
      "taf_trigger": false,
      "metar": "METAR UBBB 171500Z 17014KT 9999 SCT013 14/11 Q1020 NOSIG",
      "taf": "TAF UBBB 171052Z 1712/1812 18012KT 9999 SCT025 TX15/1712Z TN09/1801Z"
    },
    {
      "icao": "UDSG",
      "alert": "OK",
      "vis_m": 9999,
      "fzfg": false,
      "metar_trigger": false,
      "taf_trigger": false,
      "metar": "METAR UDSG 171500Z 23003KT 9999 NSC 13/M03 Q1018 NOSIG",
      "taf": "TAF UDSG 171058Z 1712/1812 VRB06KT 9999 FEW050"
    },
    {
      "icao": "UDYZ",
      "alert": "OK",
      "vis_m": 9999,
      "fzfg": false,
      "metar_trigger": false,
      "taf_trigger": false,
      "metar": "METAR UDYZ 171500Z VRB01KT 9999 NSC 18/M02 Q1016 NOSIG",
      "taf": "TAF UDYZ 171100Z 1712/1812 VRB06KT 9999 FEW050"
    },
    {
      "icao": "UGKO",
      "alert": "OK",
      "vis_m": 9999,
      "fzfg": false,
      "metar_trigger": false,
      "taf_trigger": false,
      "metar": "METAR UGKO 171500Z 08020KT CAVOK 22/02 Q1010 NOSIG",
      "taf": "TAF UGKO 171100Z 1712/1812 08019G29KT CAVOK TX24/1712Z TN14/1803Z"
    }
  ]
}