{
  "ts_utc": "2025-12-27T07:00:16Z",
  "threshold_m": 150,
  "source": "stations_override.txt (ICAO list) + aviationweather.gov (METAR/TAF raw)",
  "station_count": 159,
  "stations": [
    {
      "icao": "BIKF",
      "alert": "OK",
      "vis_m": 9999,
      "fzfg": false,
      "metar_trigger": false,
      "taf_trigger": false,
      "metar": "METAR BIKF 270630Z 14009KT 9999 BKN028 02/00 Q1045",
      "taf": "TAF BIKF 270445Z 2706/2806 18014KT 9999 SCT015 BKN025 TX07/2718Z TN02/2706Z"
    },
    {
      "icao": "BKPR",
      "alert": "OK",
      "vis_m": null,
      "fzfg": false,
      "metar_trigger": false,
      "taf_trigger": false,
      "metar": "",
      "taf": "TAF BKPR 270530Z 2706/2806 VRB05KT 9999 BKN025"
    },
    {
      "icao": "EBCI",
      "alert": "OK",
      "vis_m": 9999,
      "fzfg": false,
      "metar_trigger": false,
      "taf_trigger": false,
      "metar": "METAR EBCI 270650Z 05006KT 330V080 CAVOK M03/M04 Q1030 NOSIG",
      "taf": "TAF EBCI 270501Z 2706/2812 05005KT CAVOK"
    },
    {
      "icao": "EDDB",
      "alert": "OK",
      "vis_m": 5000,
      "fzfg": false,
      "metar_trigger": false,
      "taf_trigger": false,
      "metar": "METAR EDDB 270650Z AUTO 27008KT 5000 BR OVC003 M01/M01 Q1032 TEMPO 3000 BR",
      "taf": "TAF EDDB 270500Z 2706/2806 26004KT 4000 BR OVC006"
    },
    {
      "icao": "EDDH",
      "alert": "OK",
      "vis_m": 7000,
      "fzfg": false,
      "metar_trigger": false,
      "taf_trigger": false,
      "metar": "METAR EDDH 270650Z AUTO 25005KT 7000 BKN007 03/03 Q1032 BECMG BKN012",
      "taf": ""
    },
    {
      "icao": "EDDK",
      "alert": "OK",
      "vis_m": 9999,
      "fzfg": false,
      "metar_trigger": false,
      "taf_trigger": false,
      "metar": "METAR EDDK 270650Z AUTO 07003KT 050V190 CAVOK M06/M07 Q1032 NOSIG",
      "taf": "TAF EDDK 270500Z 2706/2812 VRB03KT CAVOK"
    },
    {
      "icao": "EDDN",
      "alert": "OK",
      "vis_m": 9999,
      "fzfg": false,
      "metar_trigger": false,
      "taf_trigger": false,
      "metar": "METAR EDDN 270650Z AUTO VRB01KT CAVOK M06/M07 Q1030 NOSIG",
      "taf": "TAF EDDN 270500Z 2706/2806 VRB03KT CAVOK"
    },
    {
      "icao": "EDDS",
      "alert": "OK",
      "vis_m": 9999,
      "fzfg": false,
      "metar_trigger": false,
      "taf_trigger": false,
      "metar": "METAR EDDS 270650Z AUTO VRB01KT CAVOK M05/M07 Q1028 NOSIG",
      "taf": "TAF EDDS 270500Z 2706/2806 VRB03KT CAVOK"
    },
    {
      "icao": "EDFH",
      "alert": "OK",
      "vis_m": 9999,
      "fzfg": false,
      "metar_trigger": false,
      "taf_trigger": false,
      "metar": "METAR EDFH 270650Z 12007KT 080V140 CAVOK 00/M07 Q1029",
      "taf": "TAF EDFH 270500Z 2706/2806 10011KT CAVOK"
    },
    {
      "icao": "EDJA",
      "alert": "OK",
      "vis_m": 3000,
      "fzfg": false,
      "metar_trigger": false,
      "taf_trigger": false,
      "metar": "METAR EDJA 270650Z 08003KT 040V120 3000 BR BKN002 M03/M04 Q1027",
      "taf": "TAF EDJA 270500Z 2706/2715 VRB03KT 6000 OVC004"
    },
    {
      "icao": "EDLW",
      "alert": "OK",
      "vis_m": 9999,
      "fzfg": false,
      "metar_trigger": false,
      "taf_trigger": false,
      "metar": "METAR EDLW 270650Z 01003KT 330V040 CAVOK M04/M06 Q1032",
      "taf": "TAF EDLW 270500Z 2706/2806 VRB03KT CAVOK"
    },
    {
      "icao": "EDNY",
      "alert": "OK",
      "vis_m": 9999,
      "fzfg": false,
      "metar_trigger": false,
      "taf_trigger": false,
      "metar": "METAR EDNY 270650Z 07004KT 9999 SCT010 BKN013 M02/M04 Q1029",
      "taf": "TAF EDNY 270500Z 2706/2715 VRB03KT 9999 BKN012"
    },
    {
      "icao": "EDSB",
      "alert": "OK",
      "vis_m": 4100,
      "fzfg": false,
      "metar_trigger": false,
      "taf_trigger": false,
      "metar": "METAR EDSB 270650Z 15003KT 4100 BR BCFG FEW004 M04/M05 Q1030",
      "taf": "TAF EDSB 270500Z 2706/2806 20004KT 7000 NSC"
    },
    {
      "icao": "EETN",
      "alert": "OK",
      "vis_m": 9999,
      "fzfg": false,
      "metar_trigger": false,
      "taf_trigger": false,
      "metar": "METAR EETN 270650Z 27013KT 9999 -RA BKN009 05/04 Q1005 TEMPO BKN010",
      "taf": "TAF EETN 270530Z 2706/2806 26016G28KT 9999 BKN008 BKN015"
    },
    {
      "icao": "EFTU",
      "alert": "OK",
      "vis_m": 9999,
      "fzfg": false,
      "metar_trigger": false,
      "taf_trigger": false,
      "metar": "METAR EFTU 270650Z AUTO 30011KT CAVOK 03/02 Q1006",
      "taf": "TAF EFTU 270529Z 2706/2806 29012KT CAVOK"
    },
    {
      "icao": "EGBB",
      "alert": "OK",
      "vis_m": 6000,
      "fzfg": false,
      "metar_trigger": false,
      "taf_trigger": false,
      "metar": "METAR EGBB 270650Z 02009KT 6000 OVC004 02/02 Q1036",
      "taf": ""
    },
    {
      "icao": "EGGP",
      "alert": "OK",
      "vis_m": 9999,
      "fzfg": false,
      "metar_trigger": false,
      "taf_trigger": false,
      "metar": "METAR EGGP 270650Z 02007KT 360V060 CAVOK 02/M00 Q1038",
      "taf": "TAF EGGP 270457Z 2706/2806 05008KT CAVOK"
    },
    {
      "icao": "EGGW",
      "alert": "OK",
      "vis_m": 9999,
      "fzfg": false,
      "metar_trigger": false,
      "taf_trigger": false,
      "metar": "METAR EGGW 270650Z AUTO 03010KT 9999 NCD M00/M01 Q1034",
      "taf": "TAF EGGW 270457Z 2706/2806 03008KT 9999 FEW010"
    },
    {
      "icao": "EGKK",
      "alert": "OK",
      "vis_m": 9999,
      "fzfg": false,
      "metar_trigger": false,
      "taf_trigger": false,
      "metar": "METAR EGKK 270650Z 03009KT CAVOK 04/03 Q1032",
      "taf": "TAF EGKK 270456Z 2706/2812 04009KT 9999 BKN007"
    },
    {
      "icao": "EGNM",
      "alert": "OK",
      "vis_m": 9999,
      "fzfg": false,
      "metar_trigger": false,
      "taf_trigger": false,
      "metar": "METAR EGNM 270650Z 03008KT 9999 SCT013 SCT020 04/02 Q1039",
      "taf": "TAF EGNM 270456Z 2706/2806 05008KT CAVOK"
    },
    {
      "icao": "EGPD",
      "alert": "OK",
      "vis_m": 9999,
      "fzfg": false,
      "metar_trigger": false,
      "taf_trigger": false,
      "metar": "METAR EGPD 270650Z COR 30008KT 9999 OVC017 05/03 Q1042 NOSIG",
      "taf": "TAF EGPD 270454Z 2706/2806 33006KT 9999 BKN015"
    },
    {
      "icao": "EGPF",
      "alert": "OK",
      "vis_m": 9999,
      "fzfg": false,
      "metar_trigger": false,
      "taf_trigger": false,
      "metar": "METAR EGPF 270650Z AUTO 07008KT 9999 OVC015 05/03 Q1042",
      "taf": "TAF EGPF 270500Z 2706/2806 07008KT 9999 SCT025"
    },
    {
      "icao": "EHBK",
      "alert": "OK",
      "vis_m": 9999,
      "fzfg": false,
      "metar_trigger": false,
      "taf_trigger": false,
      "metar": "METAR EHBK 270655Z AUTO 05010KT 9999 NCD M03/M04 Q1031 NOSIG",
      "taf": "TAF EHBK 270512Z 2706/2812 05007KT CAVOK"
    },
    {
      "icao": "EHEH",
      "alert": "OK",
      "vis_m": 9999,
      "fzfg": false,
      "metar_trigger": false,
      "taf_trigger": false,
      "metar": "METAR EHEH 270625Z AUTO 04006KT 9999 BKN370 M03/M09 Q1033 BLU NOSIG RMK TREND REMOTE BY EHWX",
      "taf": "TAF EHEH 270508Z 2706/2812 04006KT CAVOK"
    },
    {
      "icao": "EKBI",
      "alert": "OK",
      "vis_m": 9999,
      "fzfg": false,
      "metar_trigger": false,
      "taf_trigger": false,
      "metar": "METAR EKBI 270650Z AUTO 29014KT 9999 OVC008/// 06/06 Q1030",
      "taf": "TAF EKBI 270527Z 2706/2806 29012KT 9999 OVC008"
    },
    {
      "icao": "EKCH",
      "alert": "OK",
      "vis_m": 9999,
      "fzfg": false,
      "metar_trigger": false,
      "taf_trigger": false,
      "metar": "METAR EKCH 270650Z 27014KT 9999 OVC005 04/03 Q1026 BECMG BKN010",
      "taf": "TAF EKCH 270527Z 2706/2806 28012KT 9999 OVC005"
    },
    {
      "icao": "ENAL",
      "alert": "OK",
      "vis_m": 9999,
      "fzfg": false,
      "metar_trigger": false,
      "taf_trigger": false,
      "metar": "METAR ENAL 270650Z 32014G24KT 300V360 9999 FEW034 SCT042 BKN052 05/M02 Q1035",
      "taf": "TAF ENAL 270500Z 2706/2715 30018KT 9999 FEW030 BKN040"
    },
    {
      "icao": "ENBR",
      "alert": "OK",
      "vis_m": 9999,
      "fzfg": false,
      "metar_trigger": false,
      "taf_trigger": false,
      "metar": "METAR ENBR 270650Z 34016KT 9999 FEW033 SCT045 05/01 Q1035 TEMPO 33018G28KT RMK WIND 1200FT 34032KT",
      "taf": "TAF ENBR 270500Z 2706/2806 35015KT 9999 FEW040"
    },
    {
      "icao": "ENGM",
      "alert": "OK",
      "vis_m": 9999,
      "fzfg": false,
      "metar_trigger": false,
      "taf_trigger": false,
      "metar": "METAR ENGM 270650Z 05003KT 360V100 CAVOK M02/M05 Q1022 NOSIG",
      "taf": "TAF ENGM 270500Z 2706/2806 VRB03KT CAVOK"
    },
    {
      "icao": "ENHD",
      "alert": "OK",
      "vis_m": 9999,
      "fzfg": false,
      "metar_trigger": false,
      "taf_trigger": false,
      "metar": "METAR ENHD 270650Z AUTO 35024KT 9999 SCT034/// 07/02 Q1033",
      "taf": "TAF ENHD 270500Z 2706/2715 35020KT 9999 BKN030"
    },
    {
      "icao": "ENTC",
      "alert": "OK",
      "vis_m": 9999,
      "fzfg": false,
      "metar_trigger": false,
      "taf_trigger": false,
      "metar": "METAR ENTC 270650Z 23012KT 9999 -DZ OVC042 02/M00 Q0990 TEMPO 34035G50KT 2000 SHSNRA BKN008 SCT020CB RMK WIND 2600FT 25005KT",
      "taf": "TAF ENTC 270500Z 2706/2806 22015KT 9999 -SHSNRA FEW012 SCT020 BKN040"
    },
    {
      "icao": "ENTO",
      "alert": "OK",
      "vis_m": 9999,
      "fzfg": false,
      "metar_trigger": false,
      "taf_trigger": false,
      "metar": "METAR ENTO 270650Z 28006KT CAVOK 04/M03 Q1023 NOSIG",
      "taf": "TAF ENTO 270500Z 2706/2806 30008KT CAVOK"
    },
    {
      "icao": "ENVA",
      "alert": "OK",
      "vis_m": 9999,
      "fzfg": false,
      "metar_trigger": false,
      "taf_trigger": false,
      "metar": "METAR ENVA 270650Z 29029KT 9999 -DZRA OVC034CB 03/M00 Q1023 TEMPO 29030G40KT 2000 SHRASN BKN012CB RMK WIND 670FT 30038G51KT",
      "taf": "TAF ENVA 270500Z 2706/2806 29030G45KT 9999 -SHRA SCT012 BKN030"
    },
    {
      "icao": "ENZV",
      "alert": "OK",
      "vis_m": 9999,
      "fzfg": false,
      "metar_trigger": false,
      "taf_trigger": false,
      "metar": "METAR ENZV 270650Z 35018KT 9999 FEW017 SCT021 BKN026 07/04 Q1033 TEMPO 33025G35KT",
      "taf": "TAF ENZV 270500Z 2706/2806 33018KT 9999 FEW008"
    },
    {
      "icao": "EPGD",
      "alert": "OK",
      "vis_m": 7000,
      "fzfg": false,
      "metar_trigger": false,
      "taf_trigger": false,
      "metar": "METAR EPGD 270630Z 27014KT 7000 OVC002 03/03 Q1023",
      "taf": "TAF EPGD 270530Z 2706/2806 28013KT 9999 OVC003"
    },
    {
      "icao": "EPKK",
      "alert": "OK",
      "vis_m": 5000,
      "fzfg": false,
      "metar_trigger": false,
      "taf_trigger": false,
      "metar": "METAR EPKK 270630Z 25008KT 5000 -SN BR FEW007 OVC011 M02/M03 Q1028",
      "taf": "TAF EPKK 270530Z 2706/2806 25005KT 5000 BR OVC011"
    },
    {
      "icao": "EPKT",
      "alert": "OK",
      "vis_m": 1100,
      "fzfg": false,
      "metar_trigger": false,
      "taf_trigger": false,
      "metar": "METAR EPKT 270630Z 27007KT 1100 R26/P2000N -SN BR OVC002 M03/M04 Q1028",
      "taf": ""
    },
    {
      "icao": "EPLB",
      "alert": "OK",
      "vis_m": 3200,
      "fzfg": false,
      "metar_trigger": false,
      "taf_trigger": false,
      "metar": "METAR EPLB 270630Z 29013KT 3200 -DZ BR OVC002 01/01 Q1024",
      "taf": "TAF EPLB 270530Z 2706/2806 28010KT 4000 BR OVC003"
    },
    {
      "icao": "EPMO",
      "alert": "OK",
      "vis_m": 3000,
      "fzfg": false,
      "metar_trigger": false,
      "taf_trigger": false,
      "metar": "METAR EPMO 270630Z 26013KT 3000 -DZ BR OVC003 01/01 Q1025",
      "taf": ""
    },
    {
      "icao": "EPPO",
      "alert": "OK",
      "vis_m": 3100,
      "fzfg": false,
      "metar_trigger": false,
      "taf_trigger": false,
      "metar": "METAR EPPO 270630Z 27010KT 3100 -FZDZ BR OVC002 M00/M01 Q1028",
      "taf": "TAF EPPO 270530Z 2706/2806 28008KT 5000 BR OVC002"
    },
    {
      "icao": "EPRA",
      "alert": "OK",
      "vis_m": 2500,
      "fzfg": false,
      "metar_trigger": false,
      "taf_trigger": false,
      "metar": "METAR EPRA 270630Z 27010KT 2500 BR OVC003 M00/M01 Q1025",
      "taf": ""
    },
    {
      "icao": "EPRZ",
      "alert": "OK",
      "vis_m": 5000,
      "fzfg": false,
      "metar_trigger": false,
      "taf_trigger": false,
      "metar": "METAR EPRZ 270630Z 27011KT 5000 -FZDZ BR OVC004 M01/M01 Q1026",
      "taf": "TAF EPRZ 270530Z 2706/2806 27010KT 5000 BR OVC003"
    },
    {
      "icao": "EPSC",
      "alert": "OK",
      "vis_m": 2600,
      "fzfg": false,
      "metar_trigger": false,
      "taf_trigger": false,
      "metar": "METAR EPSC 270630Z 26006KT 2600 BR OVC002 01/01 Q1029",
      "taf": "TAF EPSC 270530Z 2706/2806 26009KT 3500 BR OVC002"
    },
    {
      "icao": "EPSY",
      "alert": "OK",
      "vis_m": 4100,
      "fzfg": false,
      "metar_trigger": false,
      "taf_trigger": false,
      "metar": "METAR EPSY 270630Z 28006KT 240V310 4100 BR OVC001 03/02 Q1023",
      "taf": "TAF EPSY 270530Z 2706/2715 28010KT 4000 BR OVC002"
    },
    {
      "icao": "EPWA",
      "alert": "OK",
      "vis_m": 1700,
      "fzfg": false,
      "metar_trigger": false,
      "taf_trigger": false,
      "metar": "METAR EPWA 270630Z 27012KT 1700 -DZ BR OVC001 00/00 Q1025 TEMPO 1200 BR",
      "taf": "TAF EPWA 270530Z 2706/2806 27010KT 2500 BR OVC002"
    },
    {
      "icao": "EPWR",
      "alert": "OK",
      "vis_m": 7000,
      "fzfg": false,
      "metar_trigger": false,
      "taf_trigger": false,
      "metar": "METAR EPWR 270630Z 28006KT 7000 -SG SCT006 BKN011 M02/M02 Q1030",
      "taf": "TAF EPWR 270530Z 2706/2806 27006KT 7000 BKN011"
    },
    {
      "icao": "ESGG",
      "alert": "OK",
      "vis_m": 600,
      "fzfg": false,
      "metar_trigger": false,
      "taf_trigger": false,
      "metar": "METAR ESGG 270650Z 25008KT 220V290 0600 R03/1800D R21/P2000N FG VV002 05/04 Q1022",
      "taf": "TAF ESGG 270530Z 2706/2806 24009KT 0100 FG VV002"
    },
    {
      "icao": "ESKN",
      "alert": "OK",
      "vis_m": 9999,
      "fzfg": false,
      "metar_trigger": false,
      "taf_trigger": false,
      "metar": "METAR ESKN 270650Z 30011KT CAVOK 03/00 Q1016",
      "taf": "TAF ESKN 270530Z 2706/2806 29012KT CAVOK"
    },
    {
      "icao": "ESMS",
      "alert": "OK",
      "vis_m": 5000,
      "fzfg": false,
      "metar_trigger": false,
      "taf_trigger": false,
      "metar": "METAR ESMS 270650Z 27010KT 5000 BR OVC003 03/03 Q1025",
      "taf": ""
    },
    {
      "icao": "ESSA",
      "alert": "OK",
      "vis_m": 9999,
      "fzfg": false,
      "metar_trigger": false,
      "taf_trigger": false,
      "metar": "METAR ESSA 270650Z 27007KT CAVOK M00/M03 Q1014 NOSIG",
      "taf": "TAF ESSA 270530Z 2706/2806 27010KT CAVOK"
    },
    {
      "icao": "EYKA",
      "alert": "OK",
      "vis_m": 9000,
      "fzfg": false,
      "metar_trigger": false,
      "taf_trigger": false,
      "metar": "METAR EYKA 270650Z 28012KT 240V310 9000 OVC003 04/04 Q1016",
      "taf": "TAF EYKA 270527Z 2706/2806 27013KT 5000 -DZ BR OVC005"
    },
    {
      "icao": "EYPA",
      "alert": "OK",
      "vis_m": 9999,
      "fzfg": false,
      "metar_trigger": false,
      "taf_trigger": false,
      "metar": "METAR EYPA 270650Z 24005KT 180V310 9999 BKN009 06/05 Q1015",
      "taf": "TAF EYPA 270526Z 2706/2806 27007G17KT 9000 SCT015"
    },
    {
      "icao": "EYVI",
      "alert": "OK",
      "vis_m": 7000,
      "fzfg": false,
      "metar_trigger": false,
      "taf_trigger": false,
      "metar": "METAR EYVI 270650Z 28009KT 250V320 7000 OVC004 03/02 Q1015 NOSIG",
      "taf": "TAF EYVI 270520Z 2706/2806 30008KT 5000 BR OVC002"
    },
    {
      "icao": "GCFV",
      "alert": "OK",
      "vis_m": 9999,
      "fzfg": false,
      "metar_trigger": false,
      "taf_trigger": false,
      "metar": "METAR GCFV 270630Z 21006KT 9999 FEW025 14/10 Q1017",
      "taf": "TAF GCFV 270200Z 2703/2803 27005KT 9999 SCT025 TX22/2714Z TN14/2706Z"
    },
    {
      "icao": "GCLP",
      "alert": "OK",
      "vis_m": 9999,
      "fzfg": false,
      "metar_trigger": false,
      "taf_trigger": false,
      "metar": "METAR GCLP 270630Z 27006KT 240V320 9999 FEW050 15/09 Q1018 NOSIG",
      "taf": "TAF GCLP 270200Z 2703/2803 28005KT 9999 SCT030 TX20/2714Z TN14/2706Z"
    },
    {
      "icao": "GCTS",
      "alert": "OK",
      "vis_m": 9999,
      "fzfg": false,
      "metar_trigger": false,
      "taf_trigger": false,
      "metar": "METAR GCTS 270630Z 36009KT 9999 FEW040 15/07 Q1018 NOSIG",
      "taf": "TAF GCTS 270200Z 2703/2803 36005KT 9999 FEW040 TX23/2714Z TN15/2706Z"
    },
    {
      "icao": "GMAD",
      "alert": "OK",
      "vis_m": 8000,
      "fzfg": false,
      "metar_trigger": false,
      "taf_trigger": false,
      "metar": "METAR GMAD 270630Z 00000KT 8000 BKN020 BKN080 11/11 Q1015 NOSIG",
      "taf": "TAF GMAD 270500Z 2706/2812 02003KT 9999 FEW020 SCT08"
    },
    {
      "icao": "GMMN",
      "alert": "OK",
      "vis_m": 8000,
      "fzfg": false,
      "metar_trigger": false,
      "taf_trigger": false,
      "metar": "METAR GMMN 270630Z 20014KT 8000 RA SCT003 BKN016TCU 11/10 Q1010 TEMPO 5000",
      "taf": ""
    },
    {
      "icao": "GMMX",
      "alert": "OK",
      "vis_m": 8000,
      "fzfg": false,
      "metar_trigger": false,
      "taf_trigger": false,
      "metar": "METAR GMMX 270630Z 11004KT 8000 SCT023 SCT080 08/05 Q1011 NOSIG",
      "taf": "TAF GMMX 270500Z 2706/2812 26006KT 8000 SCT023 BKN090"
    },
    {
      "icao": "HEGN",
      "alert": "OK",
      "vis_m": 9999,
      "fzfg": false,
      "metar_trigger": false,
      "taf_trigger": false,
      "metar": "METAR HEGN 270600Z 30011KT CAVOK 17/10 Q1014 NOSIG",
      "taf": "TAF HEGN 270500Z 2706/2812 34016KT CAVOK"
    },
    {
      "icao": "HEMA",
      "alert": "OK",
      "vis_m": 9999,
      "fzfg": false,
      "metar_trigger": false,
      "taf_trigger": false,
      "metar": "METAR HEMA 270600Z 30009KT CAVOK 19/08 Q1013 NOSIG",
      "taf": "TAF HEMA 270500Z 2706/2812 35016KT CAVOK"
    },
    {
      "icao": "HESH",
      "alert": "OK",
      "vis_m": 9999,
      "fzfg": false,
      "metar_trigger": false,
      "taf_trigger": false,
      "metar": "METAR HESH 270600Z 34005KT CAVOK 19/07 Q1013 NOSIG",
      "taf": "TAF HESH 270500Z 2706/2812 36014KT CAVOK"
    },
    {
      "icao": "HESX",
      "alert": "OK",
      "vis_m": 9999,
      "fzfg": false,
      "metar_trigger": false,
      "taf_trigger": false,
      "metar": "METAR HESX 270600Z 22006KT CAVOK 11/09 Q1015 NOSIG",
      "taf": "TAF HESX 270500Z 2706/2812 VRB03KT 6000 NSC"
    },
    {
      "icao": "LATI",
      "alert": "OK",
      "vis_m": 9999,
      "fzfg": false,
      "metar_trigger": false,
      "taf_trigger": false,
      "metar": "METAR LATI 270650Z VRB02KT CAVOK 01/M01 Q1021 NOSIG",
      "taf": "TAF LATI 270500Z 2706/2806 VRB05KT CAVOK TX15/2712Z TN00/2805Z"
    },
    {
      "icao": "LBPD",
      "alert": "OK",
      "vis_m": 9999,
      "fzfg": false,
      "metar_trigger": false,
      "taf_trigger": false,
      "metar": "METAR LBPD 270630Z AUTO 28013KT 9999 FEW200/// 05/M02 Q1022 NOSIG",
      "taf": "TAF LBPD 270500Z 2706/2806 29018KT 9999 SCT020"
    },
    {
      "icao": "LBSF",
      "alert": "OK",
      "vis_m": 9999,
      "fzfg": false,
      "metar_trigger": false,
      "taf_trigger": false,
      "metar": "METAR LBSF 270630Z 29012KT 9999 OVC015 01/M03 Q1024 NOSIG",
      "taf": "TAF LBSF 270500Z 2706/2806 29016KT 9999 BKN015"
    },
    {
      "icao": "LBWN",
      "alert": "OK",
      "vis_m": 9999,
      "fzfg": false,
      "metar_trigger": false,
      "taf_trigger": false,
      "metar": "METAR LBWN 270630Z 27007KT 9999 FEW026 M01/M02 Q1021 NOSIG",
      "taf": "TAF LBWN 270500Z 2706/2806 32012KT 9999 SCT030"
    },
    {
      "icao": "LCLK",
      "alert": "OK",
      "vis_m": 9999,
      "fzfg": false,
      "metar_trigger": false,
      "taf_trigger": false,
      "metar": "METAR LCLK 270630Z 28004KT 9999 FEW020 FEW025CB FEW030TCU SCT035 15/10 Q1008 NOSIG RMK DISTANT CB TO NE",
      "taf": "TAF LCLK 270530Z 2706/2806 28009KT 9999 FEW025"
    },
    {
      "icao": "LCPH",
      "alert": "OK",
      "vis_m": 9999,
      "fzfg": false,
      "metar_trigger": false,
      "taf_trigger": false,
      "metar": "METAR LCPH 270630Z 34006KT 310V010 9999 TS FEW030 FEW035TCU FEW038CB SCT050 17/11 Q1009 NOSIG",
      "taf": "TAF LCPH 270530Z 2706/2806 29009KT 9999 FEW020 SCT035"
    },
    {
      "icao": "LEAL",
      "alert": "OK",
      "vis_m": 9999,
      "fzfg": false,
      "metar_trigger": false,
      "taf_trigger": false,
      "metar": "METAR LEAL 270630Z 30005KT 280V010 9999 FEW048 09/07 Q1015 NOSIG",
      "taf": "TAF LEAL 270500Z 2706/2806 31005KT 9999 SCT030 TX15/2713Z TN07/2706Z"
    },
    {
      "icao": "LEBB",
      "alert": "OK",
      "vis_m": 250,
      "fzfg": false,
      "metar_trigger": false,
      "taf_trigger": false,
      "metar": "METAR LEBB 270630Z 07003KT 0250 R30/0750N R12/0650N FG BKN002 05/05 Q1018 NOSIG",
      "taf": ""
    },
    {
      "icao": "LEBL",
      "alert": "OK",
      "vis_m": 9000,
      "fzfg": false,
      "metar_trigger": false,
      "taf_trigger": false,
      "metar": "METAR LEBL 270630Z 06018KT 9000 BKN018 BKN050 13/12 Q1017 NOSIG",
      "taf": "TAF LEBL 270500Z 2706/2806 07012KT 9999 SCT014 TX14/2712Z TN11/2706Z"
    },
    {
      "icao": "LECH",
      "alert": "OK",
      "vis_m": 9999,
      "fzfg": false,
      "metar_trigger": false,
      "taf_trigger": false,
      "metar": "METAR LECH 270630Z AUTO 02005KT 340V080 9999 -RA FEW002 BKN047 BKN058 08/08 Q1016",
      "taf": ""
    },
    {
      "icao": "LEMD",
      "alert": "OK",
      "vis_m": 9999,
      "fzfg": false,
      "metar_trigger": false,
      "taf_trigger": false,
      "metar": "METAR LEMD 270630Z VRB02KT 9999 SCT042 M01/M01 Q1015 NOSIG",
      "taf": "TAF LEMD 270500Z 2706/2812 VRB03KT CAVOK TX12/2715Z TN00/2706Z"
    },
    {
      "icao": "LEMG",
      "alert": "OK",
      "vis_m": 9999,
      "fzfg": false,
      "metar_trigger": false,
      "taf_trigger": false,
      "metar": "METAR LEMG 270630Z 29008KT 9999 FEW045 SCT058 04/03 Q1013 NOSIG",
      "taf": "TAF LEMG 270500Z 2706/2806 29005KT 9999 FEW045 TX15/2714Z TN05/2706Z"
    },
    {
      "icao": "LEVC",
      "alert": "OK",
      "vis_m": 9999,
      "fzfg": false,
      "metar_trigger": false,
      "taf_trigger": false,
      "metar": "METAR LEVC 270630Z 32003KT 9999 SCT015 FEW025CB BKN050 10/09 Q1016 NOSIG",
      "taf": "TAF LEVC 270500Z 2706/2806 VRB05KT 9999 FEW025 BKN030 TX14/2713Z TN07/2706Z"
    },
    {
      "icao": "LEXJ",
      "alert": "OK",
      "vis_m": 9000,
      "fzfg": false,
      "metar_trigger": false,
      "taf_trigger": false,
      "metar": "METAR LEXJ 270630Z 17002KT 9000 BCFG NSC 04/04 Q1017",
      "taf": "TAF LEXJ 270200Z 2703/2803 VRB03KT 9999 FEW045 TX13/2714Z TN03/2708Z"
    },
    {
      "icao": "LEZG",
      "alert": "OK",
      "vis_m": 5000,
      "fzfg": false,
      "metar_trigger": false,
      "taf_trigger": false,
      "metar": "METAR LEZG 270630Z COR 00000KT 5000 -RA OVC010 07/07 Q1018 NOSIG",
      "taf": "TAF LEZG 270500Z 2706/2806 VRB05KT 9999 FEW015 BKN020 TX12/2714Z TN05/2706Z"
    },
    {
      "icao": "LEZL",
      "alert": "OK",
      "vis_m": 9999,
      "fzfg": false,
      "metar_trigger": false,
      "taf_trigger": false,
      "metar": "METAR LEZL 270630Z 06006KT CAVOK 06/06 Q1012 NOSIG",
      "taf": "TAF LEZL 270200Z 2703/2803 07007KT 9999 FEW030 TX16/2715Z TN05/2706Z"
    },
    {
      "icao": "LFBD",
      "alert": "OK",
      "vis_m": 9999,
      "fzfg": false,
      "metar_trigger": false,
      "taf_trigger": false,
      "metar": "METAR LFBD 270630Z AUTO 06006KT CAVOK 06/01 Q1021 NOSIG",
      "taf": "TAF LFBD 270500Z 2706/2812 06005KT CAVOK TX12/2714Z TN03/2707Z"
    },
    {
      "icao": "LFLL",
      "alert": "OK",
      "vis_m": 6000,
      "fzfg": false,
      "metar_trigger": false,
      "taf_trigger": false,
      "metar": "METAR LFLL 270630Z AUTO 00000KT 6000 BKN008 01/00 Q1026",
      "taf": ""
    },
    {
      "icao": "LFLS",
      "alert": "OK",
      "vis_m": 8000,
      "fzfg": false,
      "metar_trigger": false,
      "taf_trigger": false,
      "metar": "METAR LFLS 270630Z AUTO 08009KT 8000 FEW010 M00/M01 Q1025",
      "taf": "TAF LFLS 270200Z 2706/2803 09006KT 8000 FEW010"
    },
    {
      "icao": "LFMN",
      "alert": "OK",
      "vis_m": 9999,
      "fzfg": false,
      "metar_trigger": false,
      "taf_trigger": false,
      "metar": "METAR LFMN 270630Z 33015KT CAVOK 07/M00 Q1023 NOSIG",
      "taf": "TAF LFMN 270200Z 2703/2809 33010KT CAVOK"
    },
    {
      "icao": "LFOB",
      "alert": "OK",
      "vis_m": 8000,
      "fzfg": false,
      "metar_trigger": false,
      "taf_trigger": false,
      "metar": "METAR LFOB 270630Z AUTO 03007KT 8000 NSC M03/M04 Q1028 NOSIG",
      "taf": "TAF LFOB 270500Z 2706/2806 01006KT 8000 NSC"
    },
    {
      "icao": "LFPO",
      "alert": "OK",
      "vis_m": 9999,
      "fzfg": false,
      "metar_trigger": false,
      "taf_trigger": false,
      "metar": "METAR LFPO 270630Z AUTO 04009KT CAVOK M00/M03 Q1026 NOSIG",
      "taf": "TAF LFPO 270500Z 2706/2812 03008KT CAVOK"
    },
    {
      "icao": "LFSB",
      "alert": "OK",
      "vis_m": 9999,
      "fzfg": false,
      "metar_trigger": false,
      "taf_trigger": false,
      "metar": "METAR LFSB 270630Z AUTO 11008KT 9999 OVC016 00/M02 Q1028 NOSIG",
      "taf": "TAF LFSB 270500Z 2706/2806 11008KT 9999 BKN014"
    },
    {
      "icao": "LGAV",
      "alert": "OK",
      "vis_m": 9999,
      "fzfg": false,
      "metar_trigger": false,
      "taf_trigger": false,
      "metar": "METAR LGAV 270650Z 34005KT 9999 FEW018 BKN025 11/06 Q1019 NOSIG",
      "taf": "TAF LGAV 270500Z 2706/2806 35010KT 9999 FEW020 SCT040"
    },
    {
      "icao": "LGTS",
      "alert": "OK",
      "vis_m": 9999,
      "fzfg": false,
      "metar_trigger": false,
      "taf_trigger": false,
      "metar": "METAR LGTS 270650Z 33015G25KT CAVOK 07/01 Q1023 NOSIG",
      "taf": "TAF LGTS 270500Z 2706/2806 33015KT 9999 FEW025"
    },
    {
      "icao": "LHBP",
      "alert": "OK",
      "vis_m": 6000,
      "fzfg": false,
      "metar_trigger": false,
      "taf_trigger": false,
      "metar": "METAR LHBP 270630Z VRB02KT 6000 NSC M07/M08 Q1028 TEMPO 4000 BR",
      "taf": "TAF LHBP 270515Z 2706/2806 VRB02KT 6000 NSC"
    },
    {
      "icao": "LHDC",
      "alert": "OK",
      "vis_m": 9999,
      "fzfg": false,
      "metar_trigger": false,
      "taf_trigger": false,
      "metar": "METAR LHDC 270615Z AUTO VRB02KT CAVOK M02/M04 Q1028 NOSIG",
      "taf": "TAF LHDC 270515Z 2706/2715 32005KT CAVOK"
    },
    {
      "icao": "LIBD",
      "alert": "OK",
      "vis_m": 9999,
      "fzfg": false,
      "metar_trigger": false,
      "taf_trigger": false,
      "metar": "METAR LIBD 270650Z 26006KT 9999 SCT023 08/06 Q1023",
      "taf": "TAF LIBD 270500Z 2706/2806 26007KT 9999 FEW020"
    },
    {
      "icao": "LIBG",
      "alert": "OK",
      "vis_m": null,
      "fzfg": false,
      "metar_trigger": false,
      "taf_trigger": false,
      "metar": "",
      "taf": ""
    },
    {
      "icao": "LIBP",
      "alert": "OK",
      "vis_m": 9999,
      "fzfg": false,
      "metar_trigger": false,
      "taf_trigger": false,
      "metar": "METAR LIBP 270650Z AUTO 20005KT 9999 OVC031/// 08/06 Q1027",
      "taf": "TAF LIBP 270500Z 2706/2806 VRB05KT 9999 BKN030"
    },
    {
      "icao": "LIBR",
      "alert": "OK",
      "vis_m": 9999,
      "fzfg": false,
      "metar_trigger": false,
      "taf_trigger": false,
      "metar": "METAR LIBR 270650Z 36014KT 9999 BKN028 13/08 Q1021",
      "taf": "TAF LIBR 270500Z 2706/2806 35015KT 9999 FEW030"
    },
    {
      "icao": "LICA",
      "alert": "OK",
      "vis_m": 9999,
      "fzfg": false,
      "metar_trigger": false,
      "taf_trigger": false,
      "metar": "METAR LICA 270650Z AUTO 04008KT 9999 NCD 10/06 Q1020",
      "taf": "TAF LICA 270500Z 2706/2806 04010KT CAVOK"
    },
    {
      "icao": "LICC",
      "alert": "OK",
      "vis_m": 9999,
      "fzfg": false,
      "metar_trigger": false,
      "taf_trigger": false,
      "metar": "METAR LICC 270650Z 06020KT 9999 BKN020 15/13 Q1019",
      "taf": "TAF LICC 270500Z 2706/2806 07016KT 9999 SCT040"
    },
    {
      "icao": "LICJ",
      "alert": "OK",
      "vis_m": 9999,
      "fzfg": false,
      "metar_trigger": false,
      "taf_trigger": false,
      "metar": "METAR LICJ 270650Z 17003KT CAVOK 13/07 Q1018",
      "taf": "TAF LICJ 270500Z 2706/2806 15007KT 9999 FEW040"
    },
    {
      "icao": "LIMC",
      "alert": "OK",
      "vis_m": 9999,
      "fzfg": false,
      "metar_trigger": false,
      "taf_trigger": false,
      "metar": "METAR LIMC 270650Z 03003KT 360V060 9999 MIFG NSC 00/00 Q1028 NOSIG",
      "taf": "TAF LIMC 270500Z 2706/2812 VRB05KT 7000 FEW030"
    },
    {
      "icao": "LIME",
      "alert": "OK",
      "vis_m": 9999,
      "fzfg": false,
      "metar_trigger": false,
      "taf_trigger": false,
      "metar": "METAR LIME 270650Z 03004KT CAVOK 02/01 Q1028 NOSIG",
      "taf": "TAF LIME 270500Z 2706/2806 VRB05KT 7000 FEW030"
    },
    {
      "icao": "LIMF",
      "alert": "OK",
      "vis_m": 9999,
      "fzfg": false,
      "metar_trigger": false,
      "taf_trigger": false,
      "metar": "METAR LIMF 270650Z 27005KT CAVOK 01/M01 Q1028",
      "taf": "TAF LIMF 270500Z 2706/2806 VRB05KT 9999 FEW040"
    },
    {
      "icao": "LIMJ",
      "alert": "OK",
      "vis_m": 9999,
      "fzfg": false,
      "metar_trigger": false,
      "taf_trigger": false,
      "metar": "METAR LIMJ 270650Z 04020KT CAVOK 08/01 Q1025",
      "taf": "TAF LIMJ 270500Z 2706/2806 03015KT CAVOK"
    },
    {
      "icao": "LIPE",
      "alert": "OK",
      "vis_m": 9999,
      "fzfg": false,
      "metar_trigger": false,
      "taf_trigger": false,
      "metar": "METAR LIPE 270650Z 21005KT 200V280 CAVOK 01/00 Q1029",
      "taf": "TAF LIPE 270500Z 2706/2806 VRB05KT CAVOK"
    },
    {
      "icao": "LIPH",
      "alert": "OK",
      "vis_m": 9999,
      "fzfg": false,
      "metar_trigger": false,
      "taf_trigger": false,
      "metar": "METAR LIPH 270650Z 26002KT CAVOK M00/M01 Q1027",
      "taf": "TAF LIPH 270500Z 2706/2806 VRB03KT CAVOK"
    },
    {
      "icao": "LIPQ",
      "alert": "OK",
      "vis_m": 9999,
      "fzfg": false,
      "metar_trigger": false,
      "taf_trigger": false,
      "metar": "METAR LIPQ 270650Z AUTO 36006KT 9999 NCD M02/M03 Q1027",
      "taf": "TAF LIPQ 270500Z 2706/2806 VRB04KT CAVOK"
    },
    {
      "icao": "LIPR",
      "alert": "OK",
      "vis_m": 9999,
      "fzfg": false,
      "metar_trigger": false,
      "taf_trigger": false,
      "metar": "METAR LIPR 270650Z 30009KT CAVOK 05/02 Q1028",
      "taf": "TAF LIPR 270500Z 2706/2806 29010KT 9999 FEW020"
    },
    {
      "icao": "LIPX",
      "alert": "OK",
      "vis_m": 9999,
      "fzfg": false,
      "metar_trigger": false,
      "taf_trigger": false,
      "metar": "METAR LIPX 270650Z 30006KT 260V330 CAVOK 03/M02 Q1027",
      "taf": "TAF LIPX 270500Z 2706/2806 VRB05KT 7000 NSC"
    },
    {
      "icao": "LIPY",
      "alert": "OK",
      "vis_m": 9999,
      "fzfg": false,
      "metar_trigger": false,
      "taf_trigger": false,
      "metar": "METAR LIPY 270650Z AUTO 30007KT 9999 BKN031/// 07/03 Q1027",
      "taf": "TAF LIPY 270500Z 2706/2806 VRB05KT 9999 BKN030"
    },
    {
      "icao": "LIPZ",
      "alert": "OK",
      "vis_m": 9999,
      "fzfg": false,
      "metar_trigger": false,
      "taf_trigger": false,
      "metar": "METAR LIPZ 270650Z 29004KT 220V300 CAVOK 02/M00 Q1027 NOSIG",
      "taf": "TAF LIPZ 270500Z 2706/2812 VRB05KT CAVOK"
    },
    {
      "icao": "LIRF",
      "alert": "OK",
      "vis_m": 9999,
      "fzfg": false,
      "metar_trigger": false,
      "taf_trigger": false,
      "metar": "METAR LIRF 270650Z 02008KT CAVOK 06/03 Q1023 NOSIG",
      "taf": "TAF LIRF 270500Z 2706/2812 05010KT CAVOK"
    },
    {
      "icao": "LIRN",
      "alert": "OK",
      "vis_m": 9999,
      "fzfg": false,
      "metar_trigger": false,
      "taf_trigger": false,
      "metar": "METAR LIRN 270650Z AUTO VRB05KT 9999 NCD 08/04 Q1022",
      "taf": "TAF LIRN 270500Z 2706/2806 03011KT CAVOK"
    },
    {
      "icao": "LIRP",
      "alert": "OK",
      "vis_m": 9999,
      "fzfg": false,
      "metar_trigger": false,
      "taf_trigger": false,
      "metar": "METAR LIRP 270645Z 09003KT CAVOK 04/02 Q1025 NOSIG",
      "taf": "TAF LIRP 270500Z 2706/2806 11009KT CAVOK"
    },
    {
      "icao": "LIRZ",
      "alert": "OK",
      "vis_m": 9999,
      "fzfg": false,
      "metar_trigger": false,
      "taf_trigger": false,
      "metar": "METAR LIRZ 270650Z AUTO 01009KT 9999 NCD 04/02 Q1025",
      "taf": "TAF LIRZ 270500Z 2706/2806 01010KT 9999 FEW030"
    },
    {
      "icao": "LJLJ",
      "alert": "OK",
      "vis_m": 400,
      "fzfg": true,
      "metar_trigger": false,
      "taf_trigger": false,
      "metar": "METAR LJLJ 270630Z VRB01KT 0400 R30/0700N FZFG VV001 M03/M04 Q1029 NOSIG",
      "taf": "TAF LJLJ 270500Z 2706/2806 30002KT 0400 FZFG VV002"
    },
    {
      "icao": "LKMT",
      "alert": "OK",
      "vis_m": 7000,
      "fzfg": false,
      "metar_trigger": false,
      "taf_trigger": false,
      "metar": "METAR LKMT 270630Z 03003KT 7000 OVC007 M03/M04 Q1030 NOSIG",
      "taf": "TAF LKMT 270500Z 2706/2806 02004KT 4000 BR OVC011"
    },
    {
      "icao": "LKPR",
      "alert": "OK",
      "vis_m": 9999,
      "fzfg": false,
      "metar_trigger": false,
      "taf_trigger": false,
      "metar": "METAR LKPR 270630Z 20004KT CAVOK M05/M06 Q1030 NOSIG",
      "taf": "TAF LKPR 270500Z 2706/2812 23004KT CAVOK"
    },
    {
      "icao": "LLBG",
      "alert": "OK",
      "vis_m": 9999,
      "fzfg": false,
      "metar_trigger": false,
      "taf_trigger": false,
      "metar": "METAR LLBG 270650Z 18009KT 9999 FEW025TCU SCT035 15/13 Q1012 NOSIG RMK RERA",
      "taf": "TAF LLBG 270501Z 2706/2806 22012KT 9999 SCT030"
    },
    {
      "icao": "LMML",
      "alert": "OK",
      "vis_m": 9999,
      "fzfg": false,
      "metar_trigger": false,
      "taf_trigger": false,
      "metar": "METAR LMML 270645Z 08012KT 9999 FEW021 15/12 Q1017 NOSIG",
      "taf": "TAF LMML 270500Z 2706/2806 09015KT 9999 SCT020"
    },
    {
      "icao": "LOWW",
      "alert": "OK",
      "vis_m": 9999,
      "fzfg": false,
      "metar_trigger": false,
      "taf_trigger": false,
      "metar": "METAR LOWW 270650Z 33005KT CAVOK M04/M06 Q1030 NOSIG",
      "taf": "TAF LOWW 270515Z 2706/2812 34007KT CAVOK TX04/2812Z TNM02/2707Z"
    },
    {
      "icao": "LPFR",
      "alert": "OK",
      "vis_m": 9999,
      "fzfg": false,
      "metar_trigger": false,
      "taf_trigger": false,
      "metar": "METAR LPFR 270630Z 06016KT 9999 FEW015 BKN025 10/06 Q1008",
      "taf": "TAF LPFR 270500Z 2706/2806 06015KT CAVOK"
    },
    {
      "icao": "LPMA",
      "alert": "OK",
      "vis_m": 9999,
      "fzfg": false,
      "metar_trigger": false,
      "taf_trigger": false,
      "metar": "METAR LPMA 270630Z 34008KT 310V010 9999 -SHRA FEW015 15/10 Q1014",
      "taf": "TAF LPMA 270500Z 2706/2806 33008KT 9999 SCT015"
    },
    {
      "icao": "LPPR",
      "alert": "OK",
      "vis_m": 9999,
      "fzfg": false,
      "metar_trigger": false,
      "taf_trigger": false,
      "metar": "METAR LPPR 270630Z VRB05KT CAVOK 06/00 Q1012",
      "taf": "TAF LPPR 270500Z 2706/2806 09010KT CAVOK"
    },
    {
      "icao": "LPPS",
      "alert": "OK",
      "vis_m": 9999,
      "fzfg": false,
      "metar_trigger": false,
      "taf_trigger": false,
      "metar": "METAR LPPS 270630Z 33014KT 9999 BKN014 15/10 Q1014",
      "taf": "TAF LPPS 270500Z 2706/2812 30017KT 9999 SCT015"
    },
    {
      "icao": "LPPT",
      "alert": "OK",
      "vis_m": 9999,
      "fzfg": false,
      "metar_trigger": false,
      "taf_trigger": false,
      "metar": "METAR LPPT 270630Z 06009KT CAVOK 04/02 Q1010",
      "taf": "TAF LPPT 270500Z 2706/2812 05013KT 9999 FEW030"
    },
    {
      "icao": "LQBK",
      "alert": "OK",
      "vis_m": 6000,
      "fzfg": false,
      "metar_trigger": false,
      "taf_trigger": false,
      "metar": "METAR LQBK 270630Z 18002KT 6000 NSC M02/M02 Q1030 NOSIG",
      "taf": "TAF LQBK 270500Z 2706/2806 34005KT 9999 SCT035 TX03/2713Z TNM03/2805Z"
    },
    {
      "icao": "LQSA",
      "alert": "OK",
      "vis_m": 7000,
      "fzfg": false,
      "metar_trigger": false,
      "taf_trigger": false,
      "metar": "METAR LQSA 270630Z 30003KT 7000 BKN015 OVC020 00/M01 Q1029 NOSIG",
      "taf": "TAF LQSA 270500Z 2706/2806 VRB02KT 9999 SCT025 TX04/2713Z TNM04/2805Z"
    },
    {
      "icao": "LQTZ",
      "alert": "OK",
      "vis_m": 5000,
      "fzfg": false,
      "metar_trigger": false,
      "taf_trigger": false,
      "metar": "METAR LQTZ 270630Z 00000KT 5000 BR OVC022 01/01 Q1029",
      "taf": "TAF LQTZ 270500Z 2706/2806 30005KT 7000 FEW010 BKN025 TX03/2713Z TNM04/2805Z"
    },
    {
      "icao": "LRBC",
      "alert": "OK",
      "vis_m": 9999,
      "fzfg": false,
      "metar_trigger": false,
      "taf_trigger": false,
      "metar": "METAR LRBC 270630Z 35018KT 9999 BKN029 01/M02 Q1022",
      "taf": "TAF LRBC 270500Z 2706/2715 32014KT 9999 SCT025"
    },
    {
      "icao": "LRBS",
      "alert": "OK",
      "vis_m": 400,
      "fzfg": true,
      "metar_trigger": false,
      "taf_trigger": false,
      "metar": "METAR LRBS 270630Z 19005KT 140V220 0400 R07/1600D FZFG VV001 M02/M03 Q1023 NOSIG",
      "taf": "TAF LRBS 270500Z 2706/2806 VRB04KT 0800 FZFG OVC002"
    },
    {
      "icao": "LRBV",
      "alert": "OK",
      "vis_m": 9999,
      "fzfg": false,
      "metar_trigger": false,
      "taf_trigger": false,
      "metar": "METAR LRBV 270630Z 31013KT 280V340 9999 SCT019 OVC025 M00/M03 Q1022",
      "taf": "TAF LRBV 270500Z 2706/2715 31012KT 9999 BKN020"
    },
    {
      "icao": "LRCL",
      "alert": "OK",
      "vis_m": 9999,
      "fzfg": false,
      "metar_trigger": false,
      "taf_trigger": false,
      "metar": "METAR LRCL 270630Z 29007KT 9999 SCT017 M01/M04 Q1025",
      "taf": "TAF LRCL 270500Z 2706/2715 30008KT 9999 BKN020"
    },
    {
      "icao": "LRCV",
      "alert": "OK",
      "vis_m": 9999,
      "fzfg": false,
      "metar_trigger": false,
      "taf_trigger": false,
      "metar": "METAR LRCV 270630Z 28010KT CAVOK M03/M04 Q1021",
      "taf": "TAF LRCV 270500Z 2706/2715 28007KT CAVOK"
    },
    {
      "icao": "LRIA",
      "alert": "OK",
      "vis_m": 9999,
      "fzfg": false,
      "metar_trigger": false,
      "taf_trigger": false,
      "metar": "METAR LRIA 270630Z 30014KT 9999 BKN017 OVC028 01/M01 Q1020",
      "taf": "TAF LRIA 270500Z 2706/2715 30015KT 9999 OVC020"
    },
    {
      "icao": "LROP",
      "alert": "OK",
      "vis_m": 400,
      "fzfg": true,
      "metar_trigger": false,
      "taf_trigger": false,
      "metar": "METAR LROP 270630Z 21004KT 180V260 0400 R08R/1400N R08L/1500U FZFG OVC001 M02/M02 Q1022 NOSIG",
      "taf": "TAF LROP 270500Z 2706/2806 VRB04KT 0300 FZFG OVC001"
    },
    {
      "icao": "LRSB",
      "alert": "OK",
      "vis_m": 9999,
      "fzfg": false,
      "metar_trigger": false,
      "taf_trigger": false,
      "metar": "METAR LRSB 270630Z VRB02KT 9999 FEW017 M04/M04 Q1024",
      "taf": "TAF LRSB 270500Z 2706/2806 VRB04KT 9999 SCT015 BKN025"
    },
    {
      "icao": "LRSM",
      "alert": "OK",
      "vis_m": 9999,
      "fzfg": false,
      "metar_trigger": false,
      "taf_trigger": false,
      "metar": "METAR LRSM 270630Z AUTO 22001KT 9999 NCD M04/M05 Q1026",
      "taf": ""
    },
    {
      "icao": "LRSV",
      "alert": "OK",
      "vis_m": 9999,
      "fzfg": false,
      "metar_trigger": false,
      "taf_trigger": false,
      "metar": "METAR LRSV 270630Z 33023KT 9999 BKN014 M00/M03 Q1020",
      "taf": "TAF LRSV 270500Z 2706/2715 33020KT 9999 BKN015"
    },
    {
      "icao": "LRTM",
      "alert": "OK",
      "vis_m": 9999,
      "fzfg": false,
      "metar_trigger": false,
      "taf_trigger": false,
      "metar": "METAR LRTM 270630Z 29007KT 9999 SCT022 OVC025 00/M03 Q1025",
      "taf": "TAF LRTM 270500Z 2706/2715 30011KT 9999 BKN025"
    },
    {
      "icao": "LRTR",
      "alert": "OK",
      "vis_m": 1000,
      "fzfg": true,
      "metar_trigger": false,
      "taf_trigger": false,
      "metar": "METAR LRTR 270630Z 26006KT 1000 R29/P2000 BR SCT001 OVC002 M01/M01 Q1028",
      "taf": "TAF LRTR 270500Z 2706/2806 VRB04KT 0300 FZFG VV001"
    },
    {
      "icao": "LTAC",
      "alert": "OK",
      "vis_m": 9999,
      "fzfg": false,
      "metar_trigger": false,
      "taf_trigger": false,
      "metar": "SPECI LTAC 270625Z 30009KT 260V330 9999 -SN BKN030 BKN080 00/M03 Q1011 NOSIG",
      "taf": "TAF LTAC 270440Z 2706/2806 31012KT 9999 BKN025 BKN080"
    },
    {
      "icao": "LTFM",
      "alert": "OK",
      "vis_m": 9999,
      "fzfg": false,
      "metar_trigger": false,
      "taf_trigger": false,
      "metar": "METAR LTFM 270620Z 35021KT 9999 -RASN SCT016 BKN020 05/M01 Q1020 NOSIG RMK RWY17L 34022G32KT RWY34L 34020KT RWY16R 34019KT RWY36 35022KT RWY18 35022KT",
      "taf": "TAF LTFM 270440Z 2706/2812 35022G35KT 9999 -RASN SCT016 BKN024"
    },
    {
      "icao": "LUKK",
      "alert": "OK",
      "vis_m": 9999,
      "fzfg": false,
      "metar_trigger": false,
      "taf_trigger": false,
      "metar": "METAR LUKK 270630Z 34009KT 310V020 9999 -RASN FEW019 SCT029 OVC037 01/M01 Q1018 TEMPO BKN012",
      "taf": "TAF LUKK 270523Z 2706/2806 33012KT 9999 BKN015"
    },
    {
      "icao": "LWOH",
      "alert": "OK",
      "vis_m": 9999,
      "fzfg": false,
      "metar_trigger": false,
      "taf_trigger": false,
      "metar": "METAR LWOH 270650Z 35007KT 290V020 CAVOK 02/M02 Q1022",
      "taf": "TAF LWOH 270540Z 2706/2806 34012KT 9999 FEW020 SCT040"
    },
    {
      "icao": "LWSK",
      "alert": "OK",
      "vis_m": 9999,
      "fzfg": false,
      "metar_trigger": false,
      "taf_trigger": false,
      "metar": "METAR LWSK 270650Z VRB02KT 9999 FEW030 SCT050 03/M01 Q1026 NOSIG",
      "taf": "TAF LWSK 270540Z 2706/2806 02012KT 9999 SCT020 BKN050"
    },
    {
      "icao": "LYBE",
      "alert": "OK",
      "vis_m": 6000,
      "fzfg": false,
      "metar_trigger": false,
      "taf_trigger": false,
      "metar": "METAR LYBE 270630Z 28008KT 6000 OVC003 00/M00 Q1030 NOSIG",
      "taf": "TAF LYBE 270500Z 2706/2806 29007KT 9999 BKN010 TX03/2713Z TNM00/2805Z"
    },
    {
      "icao": "LYNI",
      "alert": "OK",
      "vis_m": 9999,
      "fzfg": false,
      "metar_trigger": false,
      "taf_trigger": false,
      "metar": "METAR LYNI 270630Z VRB02KT 9999 SCT010 OVC015 02/M00 Q1028 NOSIG",
      "taf": "TAF LYNI 270500Z 2706/2806 31007KT 9999 OVC015 TX02/2712Z TNM01/2802Z"
    },
    {
      "icao": "LYPG",
      "alert": "OK",
      "vis_m": 9999,
      "fzfg": false,
      "metar_trigger": false,
      "taf_trigger": false,
      "metar": "METAR LYPG 270630Z VRB02KT CAVOK 03/01 Q1023 NOSIG",
      "taf": "TAF LYPG 270500Z 2706/2806 34008KT CAVOK TX15/2713Z TN02/2801Z"
    },
    {
      "icao": "LZIB",
      "alert": "OK",
      "vis_m": 9999,
      "fzfg": false,
      "metar_trigger": false,
      "taf_trigger": false,
      "metar": "METAR LZIB 270630Z 29008KT CAVOK M01/M05 Q1029 NOSIG",
      "taf": "TAF LZIB 270515Z 2706/2806 30006KT CAVOK"
    },
    {
      "icao": "LZKZ",
      "alert": "OK",
      "vis_m": 9999,
      "fzfg": false,
      "metar_trigger": false,
      "taf_trigger": false,
      "metar": "METAR LZKZ 270630Z VRB02KT CAVOK M03/M05 Q1027 NOSIG",
      "taf": "TAF LZKZ 270515Z 2706/2806 21005KT CAVOK"
    },
    {
      "icao": "LZTT",
      "alert": "OK",
      "vis_m": 9999,
      "fzfg": false,
      "metar_trigger": false,
      "taf_trigger": false,
      "metar": "METAR LZTT 270630Z 29004KT CAVOK M09/M10 Q1025 NOSIG",
      "taf": "TAF LZTT 270515Z 2706/2806 28005KT CAVOK"
    },
    {
      "icao": "OEJN",
      "alert": "OK",
      "vis_m": 9999,
      "fzfg": false,
      "metar_trigger": false,
      "taf_trigger": false,
      "metar": "METAR OEJN 270600Z 03005KT 9999 FEW040 25/21 Q1012 NOSIG",
      "taf": "TAF OEJN 270500Z 2706/2812 36010KT 7000 FEW040"
    },
    {
      "icao": "OEMA",
      "alert": "OK",
      "vis_m": 9999,
      "fzfg": false,
      "metar_trigger": false,
      "taf_trigger": false,
      "metar": "METAR OEMA 270600Z VRB01KT CAVOK 18/12 Q1015 NOSIG",
      "taf": "TAF OEMA 270500Z 2706/2812 27010KT CAVOK"
    },
    {
      "icao": "OJAI",
      "alert": "OK",
      "vis_m": 1200,
      "fzfg": false,
      "metar_trigger": false,
      "taf_trigger": false,
      "metar": "METAR OJAI 270600Z 14003KT 1200 BR FEW020 BKN025 07/06 Q1014 NOSIG",
      "taf": "TAF OJAI 270422Z 2706/2812 27006KT 4000 RA SCT030 BKN035"
    },
    {
      "icao": "OMAA",
      "alert": "OK",
      "vis_m": 5000,
      "fzfg": false,
      "metar_trigger": false,
      "taf_trigger": false,
      "metar": "METAR OMAA 270600Z 15003KT 5000 HZ NSC 22/17 Q1016 BECMG 7000 NSW",
      "taf": "TAF OMAA 270500Z 2706/2812 14005KT 4000 HZ NSC"
    },
    {
      "icao": "OMDB",
      "alert": "OK",
      "vis_m": 9999,
      "fzfg": false,
      "metar_trigger": false,
      "taf_trigger": false,
      "metar": "METAR OMDB 270630Z 12006KT 090V160 CAVOK 23/12 Q1016 NOSIG",
      "taf": "TAF OMDB 270500Z 2706/2812 12005KT 8000 NSC"
    },
    {
      "icao": "UAAA",
      "alert": "OK",
      "vis_m": 5000,
      "fzfg": false,
      "metar_trigger": false,
      "taf_trigger": false,
      "metar": "METAR UAAA 270630Z VRB01MPS 5000 BR BKN006 OVC100 M00/M02 Q1020 NOSIG RMK QBB190",
      "taf": "TAF UAAA 270504Z 2706/2806 05003MPS 3100 BR BKN011 OVC030 TX00/2709Z TNM03/2801Z"
    },
    {
      "icao": "UBBB",
      "alert": "OK",
      "vis_m": 9999,
      "fzfg": false,
      "metar_trigger": false,
      "taf_trigger": false,
      "metar": "METAR UBBB 270630Z 18012KT CAVOK 07/03 Q1007 NOSIG",
      "taf": "TAF UBBB 270513Z 2706/2806 19014KT 9999 SCT025 TX09/2710Z TN04/2802Z"
    },
    {
      "icao": "UDSG",
      "alert": "OK",
      "vis_m": 4900,
      "fzfg": false,
      "metar_trigger": false,
      "taf_trigger": false,
      "metar": "METAR UDSG 270630Z 03002KT 4900 BR FEW006 OVC036 M01/M01 Q1005 NOSIG",
      "taf": "TAF UDSG 270500Z 2706/2806 VRB06KT 2000 BR OVC020"
    },
    {
      "icao": "UDYZ",
      "alert": "OK",
      "vis_m": 2200,
      "fzfg": false,
      "metar_trigger": false,
      "taf_trigger": false,
      "metar": "METAR UDYZ 270630Z 00000KT 2200 BR BKN046 02/M00 Q1007 NOSIG",
      "taf": "TAF UDYZ 270500Z 2706/2806 28006KT 1500 BR SCT030"
    },
    {
      "icao": "UGKO",
      "alert": "OK",
      "vis_m": 7000,
      "fzfg": false,
      "metar_trigger": false,
      "taf_trigger": false,
      "metar": "METAR UGKO 270630Z 09005KT 7000 -SHRA SCT034CB OVC051 04/04 Q1008 NOSIG",
      "taf": "TAF UGKO 270500Z 2706/2806 24007KT 9999 OVC050 TX06/2711Z TN00/2803Z"
    }
  ]
}