{
  "ts_utc": "2026-01-01T09:34:38Z",
  "threshold_m": 150,
  "source": "stations_override.txt (ICAO list) + aviationweather.gov (METAR/TAF raw)",
  "station_count": 159,
  "stations": [
    {
      "icao": "BIKF",
      "alert": "OK",
      "vis_m": 9999,
      "fzfg": false,
      "metar_trigger": false,
      "taf_trigger": false,
      "metar": "METAR BIKF 010930Z 33005KT 9999 BKN020 04/02 Q1021",
      "taf": "TAF BIKF 010731Z 0109/0209 28008KT 9999 SCT020 TX04/0110Z TNM05/0206Z"
    },
    {
      "icao": "BKPR",
      "alert": "OK",
      "vis_m": 9999,
      "fzfg": false,
      "metar_trigger": false,
      "taf_trigger": false,
      "metar": "METAR BKPR 010930Z 15004KT 9999 FEW060 M03/M11 Q1020 NOSIG",
      "taf": "TAF BKPR 010530Z 0106/0206 25009KT CAVOK"
    },
    {
      "icao": "EBCI",
      "alert": "OK",
      "vis_m": 9999,
      "fzfg": false,
      "metar_trigger": false,
      "taf_trigger": false,
      "metar": "METAR EBCI 010920Z 24013KT 9999 BKN009 02/00 Q1010 TEMPO BKN012",
      "taf": "TAF EBCI 010511Z 0106/0212 25012KT 7000 SCT012 BKN018"
    },
    {
      "icao": "EDDB",
      "alert": "OK",
      "vis_m": 9999,
      "fzfg": false,
      "metar_trigger": false,
      "taf_trigger": false,
      "metar": "METAR EDDB 010920Z AUTO 22019KT 9999 SCT026 OVC034 02/M01 Q1000 TEMPO 23020G30KT",
      "taf": "TAF EDDB 010500Z 0106/0206 26015G25KT 9999 BKN015"
    },
    {
      "icao": "EDDH",
      "alert": "OK",
      "vis_m": 9999,
      "fzfg": false,
      "metar_trigger": false,
      "taf_trigger": false,
      "metar": "METAR EDDH 010920Z AUTO 23020G35KT 200V270 9999 -RADZ OVC013 04/01 Q0994 TEMPO 24025G40KT 3000 RA BKN008",
      "taf": "TAF EDDH 010500Z 0106/0212 25015G25KT 9999 BKN015"
    },
    {
      "icao": "EDDK",
      "alert": "OK",
      "vis_m": 9999,
      "fzfg": false,
      "metar_trigger": false,
      "taf_trigger": false,
      "metar": "METAR EDDK 010920Z AUTO 23010KT 9999 SCT020 BKN025 OVC037 03/M00 Q1008 BECMG 25015G25KT",
      "taf": "TAF EDDK 010500Z 0106/0212 25013KT 9999 BKN025"
    },
    {
      "icao": "EDDN",
      "alert": "OK",
      "vis_m": 9999,
      "fzfg": false,
      "metar_trigger": false,
      "taf_trigger": false,
      "metar": "METAR EDDN 010920Z AUTO 25012KT 9999 BKN018 00/M04 Q1010 NOSIG",
      "taf": "TAF EDDN 010500Z 0106/0206 24008KT 9999 SCT015 BKN020"
    },
    {
      "icao": "EDDS",
      "alert": "OK",
      "vis_m": 9999,
      "fzfg": false,
      "metar_trigger": false,
      "taf_trigger": false,
      "metar": "METAR EDDS 010920Z AUTO 21004KT 150V270 CAVOK M01/M07 Q1011 NOSIG",
      "taf": "TAF EDDS 010500Z 0106/0206 VRB03KT 9999 SCT025"
    },
    {
      "icao": "EDFH",
      "alert": "OK",
      "vis_m": 9999,
      "fzfg": false,
      "metar_trigger": false,
      "taf_trigger": false,
      "metar": "METAR EDFH 010920Z 26019KT 9999 OVC008 M01/M03 Q1009",
      "taf": "TAF EDFH 010500Z 0106/0206 26015G25KT 9999 BKN007"
    },
    {
      "icao": "EDJA",
      "alert": "OK",
      "vis_m": 9999,
      "fzfg": false,
      "metar_trigger": false,
      "taf_trigger": false,
      "metar": "METAR EDJA 010920Z 23010KT CAVOK M04/M08 Q1012",
      "taf": "TAF EDJA 010800Z 0109/0118 22009KT CAVOK"
    },
    {
      "icao": "EDLW",
      "alert": "OK",
      "vis_m": 9999,
      "fzfg": false,
      "metar_trigger": false,
      "taf_trigger": false,
      "metar": "METAR EDLW 010920Z 23024G34KT 9999 OVC027 03/M02 Q1005",
      "taf": "TAF EDLW 010500Z 0106/0206 23015G25KT 9999 BKN025"
    },
    {
      "icao": "EDNY",
      "alert": "OK",
      "vis_m": 6000,
      "fzfg": false,
      "metar_trigger": false,
      "taf_trigger": false,
      "metar": "METAR EDNY 010920Z AUTO 00000KT 6000 // NCD M03/M06 Q1015",
      "taf": "TAF EDNY 010800Z 0109/0118 VRB03KT CAVOK"
    },
    {
      "icao": "EDSB",
      "alert": "OK",
      "vis_m": 9999,
      "fzfg": false,
      "metar_trigger": false,
      "taf_trigger": false,
      "metar": "METAR EDSB 010920Z 20014KT 9999 BKN022 M02/M07 Q1015",
      "taf": "TAF EDSB 010500Z 0106/0206 22008KT 9999 SCT030"
    },
    {
      "icao": "EETN",
      "alert": "OK",
      "vis_m": 9999,
      "fzfg": false,
      "metar_trigger": false,
      "taf_trigger": false,
      "metar": "METAR EETN 010920Z 14007KT CAVOK M10/M14 Q0996 NOSIG",
      "taf": "TAF EETN 010530Z 0106/0206 16010KT 9999 SCT030"
    },
    {
      "icao": "EFTU",
      "alert": "OK",
      "vis_m": 9999,
      "fzfg": false,
      "metar_trigger": false,
      "taf_trigger": false,
      "metar": "METAR EFTU 010920Z AUTO 11011KT CAVOK M08/M11 Q0993",
      "taf": "TAF EFTU 010838Z 0109/0209 11012KT CAVOK"
    },
    {
      "icao": "EGBB",
      "alert": "OK",
      "vis_m": 9999,
      "fzfg": false,
      "metar_trigger": false,
      "taf_trigger": false,
      "metar": "METAR EGBB 010920Z 27009KT 240V300 9999 3500E -RADZ FEW007 BKN014 05/03 Q1010",
      "taf": "TAF EGBB 010459Z 0106/0206 28010KT 9999 SCT030"
    },
    {
      "icao": "EGGP",
      "alert": "OK",
      "vis_m": 9999,
      "fzfg": false,
      "metar_trigger": false,
      "taf_trigger": false,
      "metar": "METAR EGGP 010920Z 31012KT 9999 FEW024 SCT037 05/01 Q1010",
      "taf": "TAF EGGP 010457Z 0106/0206 26012KT 9999 SCT035"
    },
    {
      "icao": "EGGW",
      "alert": "OK",
      "vis_m": 9999,
      "fzfg": false,
      "metar_trigger": false,
      "taf_trigger": false,
      "metar": "METAR EGGW 010920Z AUTO 27016KT 9999 FEW027 BKN031 02/M00 Q1009",
      "taf": "TAF EGGW 010502Z 0106/0206 27014KT 9999 SCT030"
    },
    {
      "icao": "EGKK",
      "alert": "OK",
      "vis_m": 9999,
      "fzfg": false,
      "metar_trigger": false,
      "taf_trigger": false,
      "metar": "METAR EGKK 010920Z 25008KT CAVOK 02/M00 Q1011",
      "taf": "TAF EGKK 010500Z 0106/0212 26005KT 9999 SCT030"
    },
    {
      "icao": "EGNM",
      "alert": "OK",
      "vis_m": 9999,
      "fzfg": false,
      "metar_trigger": false,
      "taf_trigger": false,
      "metar": "METAR EGNM 010920Z 29018KT CAVOK 02/M01 Q1006",
      "taf": "TAF EGNM 010454Z 0106/0206 29015KT 9999 SCT030"
    },
    {
      "icao": "EGPD",
      "alert": "OK",
      "vis_m": 9999,
      "fzfg": false,
      "metar_trigger": false,
      "taf_trigger": false,
      "metar": "METAR EGPD 010920Z AUTO 31016KT 9999 FEW038/// //////TCU 02/M00 Q1002",
      "taf": "TAF EGPD 010454Z 0106/0206 30016G32KT 9999 SCT015"
    },
    {
      "icao": "EGPF",
      "alert": "OK",
      "vis_m": 9999,
      "fzfg": false,
      "metar_trigger": false,
      "taf_trigger": false,
      "metar": "METAR EGPF 010920Z AUTO 28007KT 240V310 9999 NCD 04/M01 Q1008",
      "taf": "TAF EGPF 010457Z 0106/0206 30010KT 9999 FEW035"
    },
    {
      "icao": "EHBK",
      "alert": "OK",
      "vis_m": 9999,
      "fzfg": false,
      "metar_trigger": false,
      "taf_trigger": false,
      "metar": "METAR EHBK 010925Z AUTO 24015KT 210V280 9999 DZRA SCT010 BKN013 OVC016 02/01 Q1008 NOSIG",
      "taf": "TAF EHBK 010522Z 0106/0212 24015G28KT 9999 BKN018"
    },
    {
      "icao": "EHEH",
      "alert": "OK",
      "vis_m": 9999,
      "fzfg": false,
      "metar_trigger": false,
      "taf_trigger": false,
      "metar": "METAR EHEH 010925Z AUTO 24020KT 200V280 9999 BKN021 OVC025 03/M01 Q1006 WHT TEMPO 26017G28KT RMK TREND REMOTE BY EHWX",
      "taf": "TAF EHEH 010604Z 0106/0212 24015G28KT 9999 OVC025"
    },
    {
      "icao": "EKBI",
      "alert": "OK",
      "vis_m": 9999,
      "fzfg": false,
      "metar_trigger": false,
      "taf_trigger": false,
      "metar": "METAR EKBI 010920Z 25016G28KT 210V280 9999 -SHRA SCT014 SCT020CB 03/02 Q0984",
      "taf": "TAF EKBI 010827Z 0109/0209 25013KT 9999 BKN015"
    },
    {
      "icao": "EKCH",
      "alert": "OK",
      "vis_m": 9999,
      "fzfg": false,
      "metar_trigger": false,
      "taf_trigger": false,
      "metar": "METAR EKCH 010920Z 24015KT 9999 -RA SCT010 BKN095 04/02 Q0986 NOSIG",
      "taf": "TAF EKCH 010827Z 0109/0209 25016KT 9999 BKN015"
    },
    {
      "icao": "ENAL",
      "alert": "OK",
      "vis_m": 4900,
      "fzfg": false,
      "metar_trigger": false,
      "taf_trigger": false,
      "metar": "METAR ENAL 010920Z AUTO 07023KT 4900 +RASN BKN004/// BKN006/// OVC013/// 01/00 Q0979",
      "taf": "TAF ENAL 010800Z 0109/0118 14008KT 9999 -SHRASN FEW015 BKN025"
    },
    {
      "icao": "ENBR",
      "alert": "OK",
      "vis_m": 9000,
      "fzfg": false,
      "metar_trigger": false,
      "taf_trigger": false,
      "metar": "METAR ENBR 010920Z 11004KT 070V150 9000 -SHRASN FEW003 BKN010 00/00 Q0977 TEMPO 34015G25KT 1200 SHSNRAGS BKN007 RMK WIND 1200FT 33032G43KT",
      "taf": "TAF ENBR 010500Z 0106/0206 VRB04KT 9999 -SHSNRA FEW005 SCT015TCU BKN018"
    },
    {
      "icao": "ENGM",
      "alert": "OK",
      "vis_m": 9999,
      "fzfg": true,
      "metar_trigger": false,
      "taf_trigger": false,
      "metar": "METAR ENGM 010920Z 35005KT 9999 BKN013 M01/M03 Q0974 TEMPO BKN008",
      "taf": "TAF ENGM 010500Z 0106/0206 36006KT 0350 FZFG VV002"
    },
    {
      "icao": "ENHD",
      "alert": "OK",
      "vis_m": 9999,
      "fzfg": false,
      "metar_trigger": false,
      "taf_trigger": false,
      "metar": "METAR ENHD 010920Z AUTO 35011KT 9999 -RA SCT010/// BKN015/// BKN024/// 03/02 Q0979",
      "taf": "TAF ENHD 010800Z 0109/0118 33012KT 9999 FEW015 SCT030"
    },
    {
      "icao": "ENTC",
      "alert": "OK",
      "vis_m": 9999,
      "fzfg": false,
      "metar_trigger": false,
      "taf_trigger": false,
      "metar": "METAR ENTC 010920Z 18005KT 140V200 CAVOK M12/M16 Q0999 NOSIG RMK WIND 2600FT 17010KT",
      "taf": "TAF ENTC 010500Z 0106/0206 24006KT CAVOK"
    },
    {
      "icao": "ENTO",
      "alert": "OK",
      "vis_m": 9999,
      "fzfg": false,
      "metar_trigger": false,
      "taf_trigger": false,
      "metar": "METAR ENTO 010920Z 30004KT 9999 -SHRA BKN028 01/00 Q0975 RESN NOSIG",
      "taf": "TAF ENTO 010500Z 0106/0206 22006KT 9999 FEW008"
    },
    {
      "icao": "ENVA",
      "alert": "OK",
      "vis_m": 9999,
      "fzfg": false,
      "metar_trigger": false,
      "taf_trigger": false,
      "metar": "METAR ENVA 010920Z 07011KT CAVOK M02/M07 Q0981 NOSIG RMK WIND 670FT 07013KT",
      "taf": "TAF ENVA 010500Z 0106/0206 07012KT 9999 -SN FEW020 BKN035"
    },
    {
      "icao": "ENZV",
      "alert": "OK",
      "vis_m": 9999,
      "fzfg": false,
      "metar_trigger": false,
      "taf_trigger": false,
      "metar": "METAR ENZV 010920Z 33015KT 9999 FEW015 SCT021 BKN030 04/01 Q0980 RERA TEMPO 33028G40KT 2000 SHSNRAGS VV007",
      "taf": "TAF ENZV 010500Z 0106/0206 31008KT 9999 -SHRA FEW010 SCT015CB BKN025"
    },
    {
      "icao": "EPGD",
      "alert": "OK",
      "vis_m": 9999,
      "fzfg": false,
      "metar_trigger": false,
      "taf_trigger": false,
      "metar": "METAR EPGD 010930Z 21014KT 9999 -RA BKN004 01/00 Q0992",
      "taf": "TAF EPGD 010530Z 0106/0206 20012KT 9999 OVC002"
    },
    {
      "icao": "EPKK",
      "alert": "OK",
      "vis_m": 4000,
      "fzfg": false,
      "metar_trigger": false,
      "taf_trigger": false,
      "metar": "METAR EPKK 010930Z 24004KT 4000 -SN BR SCT003 SCT006 BKN011 M00/M01 Q1006 RESN",
      "taf": ""
    },
    {
      "icao": "EPKT",
      "alert": "OK",
      "vis_m": 9999,
      "fzfg": false,
      "metar_trigger": false,
      "taf_trigger": false,
      "metar": "METAR EPKT 010930Z 22013KT 9999 BKN007 OVC023 00/M01 Q1005",
      "taf": "TAF EPKT 010530Z 0106/0206 24007KT 6000 BKN020"
    },
    {
      "icao": "EPLB",
      "alert": "OK",
      "vis_m": 9999,
      "fzfg": false,
      "metar_trigger": false,
      "taf_trigger": false,
      "metar": "METAR EPLB 010930Z 21011KT 9999 FEW009 OVC028 M02/M03 Q1005",
      "taf": "TAF EPLB 010530Z 0106/0206 18008KT 8000 BKN010 BKN015"
    },
    {
      "icao": "EPMO",
      "alert": "OK",
      "vis_m": 800,
      "fzfg": true,
      "metar_trigger": false,
      "taf_trigger": false,
      "metar": "METAR EPMO 010930Z 18009KT 0800 R08/1100D SN FZFG BKN006 M01/M01 Q1000",
      "taf": "TAF EPMO 010530Z 0106/0206 18009KT 5000 -SN BR BKN005 BKN010"
    },
    {
      "icao": "EPPO",
      "alert": "OK",
      "vis_m": 9999,
      "fzfg": false,
      "metar_trigger": false,
      "taf_trigger": false,
      "metar": "METAR EPPO 010930Z 25013KT 9999 BKN014 OVC033 02/M01 Q0999",
      "taf": "TAF EPPO 010530Z 0106/0206 21005KT 1400 -RASN -DZ BR BKN001"
    },
    {
      "icao": "EPRA",
      "alert": "OK",
      "vis_m": 9999,
      "fzfg": false,
      "metar_trigger": false,
      "taf_trigger": false,
      "metar": "METAR EPRA 010930Z 21010KT 9999 SCT016 BKN027 M01/M03 Q1003",
      "taf": "TAF EPRA 010830Z 0109/0118 23012KT 9999 BKN025"
    },
    {
      "icao": "EPRZ",
      "alert": "OK",
      "vis_m": 9999,
      "fzfg": false,
      "metar_trigger": false,
      "taf_trigger": false,
      "metar": "METAR EPRZ 010930Z 22010KT 190V250 9999 -SN BKN023 OVC040 M02/M06 Q1007",
      "taf": ""
    },
    {
      "icao": "EPSC",
      "alert": "OK",
      "vis_m": 9000,
      "fzfg": false,
      "metar_trigger": false,
      "taf_trigger": false,
      "metar": "METAR EPSC 010930Z 22012KT 180V240 9000 -RA FEW006 OVC009 01/M00 Q0995",
      "taf": "TAF EPSC 010530Z 0106/0206 23015KT 9999 BKN007"
    },
    {
      "icao": "EPSY",
      "alert": "OK",
      "vis_m": 1900,
      "fzfg": false,
      "metar_trigger": false,
      "taf_trigger": false,
      "metar": "METAR EPSY 010930Z 18013KT 1900 -SNRA BR OVC002 M02/M03 Q0998",
      "taf": "TAF EPSY 010830Z 0109/0118 17010KT 2000 -SNRA BR OVC003"
    },
    {
      "icao": "EPWA",
      "alert": "OK",
      "vis_m": 9999,
      "fzfg": false,
      "metar_trigger": false,
      "taf_trigger": false,
      "metar": "METAR EPWA 010930Z 18007KT 9999 -SN FEW009 BKN037 M01/M02 Q1001 TEMPO 3000 -FZRA BKN004",
      "taf": "TAF EPWA 010830Z 0109/0209 17006KT 6000 BKN007 BKN012"
    },
    {
      "icao": "EPWR",
      "alert": "OK",
      "vis_m": 9999,
      "fzfg": false,
      "metar_trigger": false,
      "taf_trigger": false,
      "metar": "METAR EPWR 010930Z 24009KT 9999 BKN027 OVC032 02/M01 Q1004",
      "taf": "TAF EPWR 010830Z 0109/0209 27012KT 9999 BKN030"
    },
    {
      "icao": "ESGG",
      "alert": "OK",
      "vis_m": 9999,
      "fzfg": false,
      "metar_trigger": false,
      "taf_trigger": false,
      "metar": "METAR ESGG 010920Z 23012KT 9999 BKN008 OVC012 02/01 Q0978 RERA",
      "taf": "TAF ESGG 010830Z 0109/0209 23013G23KT 9999 SCT004 BKN008"
    },
    {
      "icao": "ESKN",
      "alert": "OK",
      "vis_m": 2400,
      "fzfg": false,
      "metar_trigger": false,
      "taf_trigger": false,
      "metar": "METAR ESKN 010920Z 15007KT 2400 -SN BKN003 00/00 Q0979",
      "taf": "TAF ESKN 010830Z 0109/0209 16015G25KT 3000 -SN VV010"
    },
    {
      "icao": "ESMS",
      "alert": "OK",
      "vis_m": 9999,
      "fzfg": false,
      "metar_trigger": false,
      "taf_trigger": false,
      "metar": "METAR ESMS 010920Z 25020KT 9999 -DZ OVC008 04/03 Q0985",
      "taf": "TAF ESMS 010827Z 0109/0209 24016KT 9999 SCT008 BKN015"
    },
    {
      "icao": "ESSA",
      "alert": "OK",
      "vis_m": 1300,
      "fzfg": false,
      "metar_trigger": false,
      "taf_trigger": false,
      "metar": "METAR ESSA 010920Z 13017G28KT 1300 -SN VV012 M01/M02 Q0981 TEMPO 3000",
      "taf": "TAF ESSA 010830Z 0109/0209 13020G30KT 0700 SN VV006"
    },
    {
      "icao": "EYKA",
      "alert": "OK",
      "vis_m": 9999,
      "fzfg": false,
      "metar_trigger": false,
      "taf_trigger": false,
      "metar": "METAR EYKA 010920Z 17008KT 130V220 CAVOK M07/M13 Q1000",
      "taf": "TAF EYKA 010508Z 0106/0206 18012KT 9000 SCT020"
    },
    {
      "icao": "EYPA",
      "alert": "OK",
      "vis_m": 1900,
      "fzfg": false,
      "metar_trigger": false,
      "taf_trigger": false,
      "metar": "METAR EYPA 010920Z 16015KT 1900 +SN OVC007 M06/M07 Q0993",
      "taf": ""
    },
    {
      "icao": "EYVI",
      "alert": "OK",
      "vis_m": 9999,
      "fzfg": false,
      "metar_trigger": false,
      "taf_trigger": false,
      "metar": "METAR EYVI 010920Z COR 18010KT CAVOK M11/M14 Q1002 NOSIG",
      "taf": "TAF EYVI 010500Z 0106/0206 18010KT 9000 NSC"
    },
    {
      "icao": "GCFV",
      "alert": "OK",
      "vis_m": 9999,
      "fzfg": false,
      "metar_trigger": false,
      "taf_trigger": false,
      "metar": "METAR GCFV 010900Z 23006KT CAVOK 18/11 Q1012",
      "taf": "TAF GCFV 010800Z 0109/0209 21015KT 9999 FEW025 TX21/0114Z TN16/0206Z"
    },
    {
      "icao": "GCLP",
      "alert": "OK",
      "vis_m": 9999,
      "fzfg": false,
      "metar_trigger": false,
      "taf_trigger": false,
      "metar": "METAR GCLP 010900Z 18018KT 9999 FEW025 19/13 Q1011 NOSIG",
      "taf": "TAF GCLP 010800Z 0109/0209 21022KT 9999 SCT025 TX21/0114Z TN15/0206Z"
    },
    {
      "icao": "GCTS",
      "alert": "OK",
      "vis_m": 9999,
      "fzfg": false,
      "metar_trigger": false,
      "taf_trigger": false,
      "metar": "METAR GCTS 010900Z 28009KT 9999 SCT025 19/14 Q1012 NOSIG",
      "taf": "TAF GCTS 010800Z 0109/0209 24016KT 9999 FEW020 TX22/0114Z TN17/0206Z"
    },
    {
      "icao": "GMAD",
      "alert": "OK",
      "vis_m": 9999,
      "fzfg": false,
      "metar_trigger": false,
      "taf_trigger": false,
      "metar": "METAR GMAD 010930Z 05008KT CAVOK 15/12 Q1016 NOSIG",
      "taf": "TAF GMAD 010500Z 0106/0212 06009KT CAVOK"
    },
    {
      "icao": "GMMN",
      "alert": "OK",
      "vis_m": 5000,
      "fzfg": false,
      "metar_trigger": false,
      "taf_trigger": false,
      "metar": "METAR GMMN 010930Z VRB02KT 5000 FEW020 BKN200 14/13 Q1015 BECMG 8000",
      "taf": "TAF GMMN 010500Z 0106/0212 15005KT 6000 FEW020"
    },
    {
      "icao": "GMMX",
      "alert": "OK",
      "vis_m": 8000,
      "fzfg": false,
      "metar_trigger": false,
      "taf_trigger": false,
      "metar": "METAR GMMX 010930Z 10008KT 8000 NSC 13/10 Q1015 NOSIG",
      "taf": "TAF GMMX 010500Z 0106/0212 06006KT 8000 NSC"
    },
    {
      "icao": "HEGN",
      "alert": "OK",
      "vis_m": 9999,
      "fzfg": false,
      "metar_trigger": false,
      "taf_trigger": false,
      "metar": "METAR HEGN 010900Z 35006KT CAVOK 23/M00 Q1017 NOSIG",
      "taf": "TAF HEGN 010500Z 0106/0212 27008KT CAVOK"
    },
    {
      "icao": "HEMA",
      "alert": "OK",
      "vis_m": 9999,
      "fzfg": false,
      "metar_trigger": false,
      "taf_trigger": false,
      "metar": "METAR HEMA 010900Z 04005KT CAVOK 27/13 Q1016 NOSIG",
      "taf": "TAF HEMA 010500Z 0106/0212 25010KT CAVOK"
    },
    {
      "icao": "HESH",
      "alert": "OK",
      "vis_m": 9999,
      "fzfg": false,
      "metar_trigger": false,
      "taf_trigger": false,
      "metar": "METAR HESH 010900Z 21008KT CAVOK 26/02 Q1015 NOSIG",
      "taf": "TAF HESH 010500Z 0106/0212 26008KT CAVOK"
    },
    {
      "icao": "HESX",
      "alert": "OK",
      "vis_m": 9999,
      "fzfg": false,
      "metar_trigger": false,
      "taf_trigger": false,
      "metar": "METAR HESX 010900Z 24008KT CAVOK 17/04 Q1015 NOSIG",
      "taf": "TAF HESX 010550Z 0106/0212 24010KT 6000 FEW025 SCT070"
    },
    {
      "icao": "LATI",
      "alert": "OK",
      "vis_m": 9999,
      "fzfg": false,
      "metar_trigger": false,
      "taf_trigger": false,
      "metar": "METAR LATI 010920Z 15005KT CAVOK 04/M12 Q1023 NOSIG",
      "taf": ""
    },
    {
      "icao": "LBPD",
      "alert": "OK",
      "vis_m": 9999,
      "fzfg": false,
      "metar_trigger": false,
      "taf_trigger": false,
      "metar": "METAR LBPD 010930Z AUTO 31013KT 9999 NCD 01/M14 Q1020 NOSIG",
      "taf": "TAF LBPD 010500Z 0106/0206 28016KT CAVOK"
    },
    {
      "icao": "LBSF",
      "alert": "OK",
      "vis_m": 9999,
      "fzfg": false,
      "metar_trigger": false,
      "taf_trigger": false,
      "metar": "METAR LBSF 010930Z VRB02KT 9999 SCT082 M04/M10 Q1019 NOSIG",
      "taf": "TAF LBSF 010500Z 0106/0206 VRB04KT CAVOK"
    },
    {
      "icao": "LBWN",
      "alert": "OK",
      "vis_m": 9999,
      "fzfg": false,
      "metar_trigger": false,
      "taf_trigger": false,
      "metar": "METAR LBWN 010930Z AUTO 28016KT 9999 NCD 00/M09 Q1019 NOSIG",
      "taf": "TAF LBWN 010500Z 0106/0206 27010KT CAVOK"
    },
    {
      "icao": "LCLK",
      "alert": "OK",
      "vis_m": 9999,
      "fzfg": false,
      "metar_trigger": false,
      "taf_trigger": false,
      "metar": "METAR LCLK 010900Z 33009KT 9999 FEW025 19/09 Q1008 NOSIG",
      "taf": "TAF LCLK 010530Z 0106/0206 27010KT 9999 FEW025 SCT050"
    },
    {
      "icao": "LCPH",
      "alert": "OK",
      "vis_m": 9999,
      "fzfg": false,
      "metar_trigger": false,
      "taf_trigger": false,
      "metar": "METAR LCPH 010900Z 32017KT 9999 SCT041 BKN050 OVC060 16/07 Q1010 NOSIG",
      "taf": "TAF LCPH 010530Z 0106/0206 29020KT 9999 FEW025TCU FEW030CB SCT040"
    },
    {
      "icao": "LEAL",
      "alert": "OK",
      "vis_m": 9999,
      "fzfg": false,
      "metar_trigger": false,
      "taf_trigger": false,
      "metar": "METAR LEAL 010900Z VRB01KT 9999 FEW030 12/08 Q1020 NOSIG",
      "taf": "TAF LEAL 010500Z 0106/0206 VRB04KT 9999 BKN040 TX15/0114Z TN07/0106Z"
    },
    {
      "icao": "LEBB",
      "alert": "OK",
      "vis_m": 9999,
      "fzfg": false,
      "metar_trigger": false,
      "taf_trigger": false,
      "metar": "METAR LEBB 010900Z 17009KT 110V230 CAVOK 07/02 Q1016 NOSIG",
      "taf": "TAF LEBB 010500Z 0106/0206 13006KT CAVOK TX13/0114Z TN01/0106Z"
    },
    {
      "icao": "LEBL",
      "alert": "OK",
      "vis_m": 9999,
      "fzfg": false,
      "metar_trigger": false,
      "taf_trigger": false,
      "metar": "METAR LEBL 010900Z 33011G21KT 290V350 9999 FEW020 05/02 Q1019 NOSIG",
      "taf": "TAF LEBL 010500Z 0106/0206 34009KT 9999 SCT020 TX13/0112Z TN02/0106Z"
    },
    {
      "icao": "LECH",
      "alert": "OK",
      "vis_m": 8000,
      "fzfg": false,
      "metar_trigger": false,
      "taf_trigger": false,
      "metar": "METAR LECH 010900Z AUTO VRB02KT 8000 NCD 05/03 Q1019",
      "taf": ""
    },
    {
      "icao": "LEMD",
      "alert": "OK",
      "vis_m": 9999,
      "fzfg": false,
      "metar_trigger": false,
      "taf_trigger": false,
      "metar": "METAR LEMD 010900Z VRB01KT 9999 BKN030 M00/M02 Q1018 NOSIG",
      "taf": "TAF LEMD 010500Z 0106/0212 VRB03KT CAVOK TX06/0115Z TNM03/0108Z"
    },
    {
      "icao": "LEMG",
      "alert": "OK",
      "vis_m": 5000,
      "fzfg": false,
      "metar_trigger": false,
      "taf_trigger": false,
      "metar": "SPECI LEMG 010917Z 09008KT 060V120 5000 -RA BR BKN020 OVC025 13/11 Q1018 RERA NOSIG",
      "taf": "TAF LEMG 010500Z 0106/0206 12008KT 9999 BKN025 TX17/0114Z TN11/0107Z"
    },
    {
      "icao": "LEVC",
      "alert": "OK",
      "vis_m": 9999,
      "fzfg": false,
      "metar_trigger": false,
      "taf_trigger": false,
      "metar": "METAR LEVC 010900Z 29003KT 9999 FEW026 06/04 Q1020 NOSIG",
      "taf": "TAF LEVC 010500Z 0106/0206 VRB04KT 9999 FEW035 TX15/0114Z TN05/0106Z"
    },
    {
      "icao": "LEXJ",
      "alert": "OK",
      "vis_m": 9999,
      "fzfg": false,
      "metar_trigger": false,
      "taf_trigger": false,
      "metar": "METAR LEXJ 010900Z 17001KT CAVOK 02/01 Q1015",
      "taf": "TAF LEXJ 010800Z 0109/0209 VRB03KT CAVOK TX10/0114Z TN01/0109Z"
    },
    {
      "icao": "LEZG",
      "alert": "OK",
      "vis_m": 2000,
      "fzfg": false,
      "metar_trigger": false,
      "taf_trigger": false,
      "metar": "METAR LEZG 010900Z 10006KT 2000 BR OVC003 02/02 Q1019 NOSIG",
      "taf": ""
    },
    {
      "icao": "LEZL",
      "alert": "OK",
      "vis_m": 9000,
      "fzfg": false,
      "metar_trigger": false,
      "taf_trigger": false,
      "metar": "METAR LEZL 010900Z 06007KT 9000 -DZ OVC031 10/09 Q1016 NOSIG",
      "taf": "TAF LEZL 010800Z 0109/0209 04007KT 9999 BKN040 TX18/0114Z TN09/0207Z"
    },
    {
      "icao": "LFBD",
      "alert": "OK",
      "vis_m": 550,
      "fzfg": true,
      "metar_trigger": false,
      "taf_trigger": false,
      "metar": "METAR LFBD 010930Z AUTO 15008KT 0550 0500 R23/0900D R05/0800U R29/0700N FZFG VV/// M01/M01 Q1018 BECMG 9999 NSW BKN005",
      "taf": ""
    },
    {
      "icao": "LFLL",
      "alert": "OK",
      "vis_m": 9999,
      "fzfg": false,
      "metar_trigger": false,
      "taf_trigger": false,
      "metar": "METAR LFLL 010930Z 18004KT 150V220 CAVOK M02/M06 Q1017 NOSIG",
      "taf": "TAF LFLL 010500Z 0106/0212 15005KT 7000 NSC"
    },
    {
      "icao": "LFLS",
      "alert": "OK",
      "vis_m": 9999,
      "fzfg": false,
      "metar_trigger": false,
      "taf_trigger": false,
      "metar": "METAR LFLS 010930Z AUTO 09008KT CAVOK M02/M04 Q1016 NOSIG",
      "taf": "TAF LFLS 010800Z 0109/0209 VRB03KT CAVOK"
    },
    {
      "icao": "LFMN",
      "alert": "OK",
      "vis_m": 9999,
      "fzfg": false,
      "metar_trigger": false,
      "taf_trigger": false,
      "metar": "METAR LFMN 010930Z 32011KT 9999 SCT040 BKN060 06/M01 Q1018 NOSIG",
      "taf": "TAF LFMN 010800Z 0109/0215 26008KT 9999 FEW040 SCT060"
    },
    {
      "icao": "LFOB",
      "alert": "OK",
      "vis_m": 9999,
      "fzfg": false,
      "metar_trigger": false,
      "taf_trigger": false,
      "metar": "METAR LFOB 010930Z AUTO 24010KT 9999 BKN020 BKN027 OVC033 02/M00 Q1014 TEMPO 4000 -RADZ BKN014",
      "taf": "TAF LFOB 010500Z 0106/0206 24009KT 9999 BKN020"
    },
    {
      "icao": "LFPO",
      "alert": "OK",
      "vis_m": 7000,
      "fzfg": false,
      "metar_trigger": false,
      "taf_trigger": false,
      "metar": "METAR LFPO 010930Z AUTO 19007KT 7000 FEW028 M01/M01 Q1015",
      "taf": ""
    },
    {
      "icao": "LFSB",
      "alert": "OK",
      "vis_m": 9999,
      "fzfg": false,
      "metar_trigger": false,
      "taf_trigger": false,
      "metar": "METAR LFSB 010930Z AUTO 15006KT 130V190 CAVOK M03/M07 Q1016 NOSIG",
      "taf": "TAF LFSB 010500Z 0106/0206 18005KT CAVOK"
    },
    {
      "icao": "LGAV",
      "alert": "OK",
      "vis_m": 9999,
      "fzfg": false,
      "metar_trigger": false,
      "taf_trigger": false,
      "metar": "METAR LGAV 010920Z 01013KT 9999 SCT025 06/M06 Q1022 NOSIG",
      "taf": "TAF LGAV 010500Z 0106/0206 36014KT 9999 FEW020 SCT070"
    },
    {
      "icao": "LGTS",
      "alert": "OK",
      "vis_m": 9999,
      "fzfg": false,
      "metar_trigger": false,
      "taf_trigger": false,
      "metar": "METAR LGTS 010920Z 31010KT CAVOK 03/M10 Q1024 NOSIG",
      "taf": "TAF LGTS 010500Z 0106/0206 34015KT 9999 FEW030"
    },
    {
      "icao": "LHBP",
      "alert": "OK",
      "vis_m": 9999,
      "fzfg": false,
      "metar_trigger": false,
      "taf_trigger": false,
      "metar": "METAR LHBP 010930Z 25009KT 9999 -SN BKN032 00/M01 Q1013 NOSIG",
      "taf": "TAF LHBP 010515Z 0106/0206 26009KT 9999 SCT025 BKN070"
    },
    {
      "icao": "LHDC",
      "alert": "OK",
      "vis_m": 9999,
      "fzfg": false,
      "metar_trigger": false,
      "taf_trigger": false,
      "metar": "METAR LHDC 010915Z AUTO 19011KT 160V220 9999 BKN014 M01/M02 Q1014 NOSIG",
      "taf": "TAF LHDC 010815Z 0109/0118 17012KT 9999 BKN025"
    },
    {
      "icao": "LIBD",
      "alert": "OK",
      "vis_m": 9999,
      "fzfg": false,
      "metar_trigger": false,
      "taf_trigger": false,
      "metar": "METAR LIBD 010920Z 18005KT 140V210 CAVOK 08/M02 Q1022",
      "taf": "TAF LIBD 010500Z 0106/0206 26007KT 9999 FEW050"
    },
    {
      "icao": "LIBG",
      "alert": "OK",
      "vis_m": 9999,
      "fzfg": false,
      "metar_trigger": false,
      "taf_trigger": false,
      "metar": "METAR LIBG 010850Z VRB01KT CAVOK 05/01 Q1022",
      "taf": "TAF LIBG 010800Z 0109/0118 VRB05KT CAVOK"
    },
    {
      "icao": "LIBP",
      "alert": "OK",
      "vis_m": 9999,
      "fzfg": false,
      "metar_trigger": false,
      "taf_trigger": false,
      "metar": "METAR LIBP 010920Z AUTO 23004KT 180V250 9999 NCD 06/M05 Q1020",
      "taf": "TAF LIBP 010500Z 0106/0206 VRB05KT CAVOK"
    },
    {
      "icao": "LIBR",
      "alert": "OK",
      "vis_m": 9999,
      "fzfg": false,
      "metar_trigger": false,
      "taf_trigger": false,
      "metar": "METAR LIBR 010920Z 07006KT 030V090 CAVOK 09/M02 Q1022",
      "taf": "TAF LIBR 010500Z 0106/0206 35010KT 9999 FEW030"
    },
    {
      "icao": "LICA",
      "alert": "OK",
      "vis_m": 9999,
      "fzfg": false,
      "metar_trigger": false,
      "taf_trigger": false,
      "metar": "METAR LICA 010920Z AUTO 06016KT 9999 SCT041/// 09/M03 Q1022",
      "taf": "TAF LICA 010500Z 0106/0206 07013KT CAVOK"
    },
    {
      "icao": "LICC",
      "alert": "OK",
      "vis_m": 9999,
      "fzfg": false,
      "metar_trigger": false,
      "taf_trigger": false,
      "metar": "METAR LICC 010920Z VRB01KT 9999 BKN025 11/09 Q1022",
      "taf": "TAF LICC 010500Z 0106/0206 VRB05KT 9999 SCT030"
    },
    {
      "icao": "LICJ",
      "alert": "OK",
      "vis_m": 9999,
      "fzfg": false,
      "metar_trigger": false,
      "taf_trigger": false,
      "metar": "METAR LICJ 010920Z 10003KT 050V150 CAVOK 13/07 Q1020",
      "taf": "TAF LICJ 010500Z 0106/0206 VRB06KT CAVOK"
    },
    {
      "icao": "LIMC",
      "alert": "OK",
      "vis_m": 8000,
      "fzfg": false,
      "metar_trigger": false,
      "taf_trigger": false,
      "metar": "METAR LIMC 010920Z 03002KT 8000 SCT035 SCT050 01/M00 Q1018 NOSIG",
      "taf": "TAF LIMC 010500Z 0106/0212 VRB04KT 9999 SCT040"
    },
    {
      "icao": "LIME",
      "alert": "OK",
      "vis_m": 9999,
      "fzfg": false,
      "metar_trigger": false,
      "taf_trigger": false,
      "metar": "METAR LIME 010920Z VRB02KT CAVOK 02/M02 Q1017 NOSIG",
      "taf": "TAF LIME 010500Z 0106/0206 VRB04KT 9999 SCT040"
    },
    {
      "icao": "LIMF",
      "alert": "OK",
      "vis_m": 3000,
      "fzfg": false,
      "metar_trigger": false,
      "taf_trigger": false,
      "metar": "METAR LIMF 010920Z VRB01KT 3000 BR BKN040 02/00 Q1017",
      "taf": ""
    },
    {
      "icao": "LIMJ",
      "alert": "OK",
      "vis_m": 9999,
      "fzfg": false,
      "metar_trigger": false,
      "taf_trigger": false,
      "metar": "METAR LIMJ 010920Z 14016KT 9999 FEW028 BKN045 11/05 Q1017",
      "taf": "TAF LIMJ 010500Z 0106/0206 14014KT 9999 BKN030"
    },
    {
      "icao": "LIPE",
      "alert": "OK",
      "vis_m": 9999,
      "fzfg": false,
      "metar_trigger": false,
      "taf_trigger": false,
      "metar": "METAR LIPE 010920Z 24003KT 200V270 CAVOK 02/M02 Q1019",
      "taf": "TAF LIPE 010500Z 0106/0206 VRB05KT CAVOK"
    },
    {
      "icao": "LIPH",
      "alert": "OK",
      "vis_m": 9999,
      "fzfg": false,
      "metar_trigger": false,
      "taf_trigger": false,
      "metar": "METAR LIPH 010920Z VRB01KT 9999 BKN040 01/M03 Q1019",
      "taf": "TAF LIPH 010500Z 0106/0206 VRB04KT CAVOK"
    },
    {
      "icao": "LIPQ",
      "alert": "OK",
      "vis_m": 9999,
      "fzfg": false,
      "metar_trigger": false,
      "taf_trigger": false,
      "metar": "METAR LIPQ 010920Z AUTO VRB01KT 9999 BKN061/// 05/M00 Q1019",
      "taf": "TAF LIPQ 010500Z 0106/0206 VRB05KT CAVOK"
    },
    {
      "icao": "LIPR",
      "alert": "OK",
      "vis_m": 9999,
      "fzfg": false,
      "metar_trigger": false,
      "taf_trigger": false,
      "metar": "METAR LIPR 010920Z 31004KT CAVOK 03/M01 Q1019",
      "taf": "TAF LIPR 010500Z 0106/0206 VRB05KT CAVOK"
    },
    {
      "icao": "LIPX",
      "alert": "OK",
      "vis_m": 8000,
      "fzfg": false,
      "metar_trigger": false,
      "taf_trigger": false,
      "metar": "METAR LIPX 010920Z VRB01KT 8000 NSC M00/M03 Q1019",
      "taf": "TAF LIPX 010500Z 0106/0206 VRB04KT 9999 SCT050"
    },
    {
      "icao": "LIPY",
      "alert": "OK",
      "vis_m": 9999,
      "fzfg": false,
      "metar_trigger": false,
      "taf_trigger": false,
      "metar": "METAR LIPY 010920Z AUTO 24003KT 210V270 9999 NCD 04/M02 Q1019",
      "taf": "TAF LIPY 010500Z 0106/0206 VRB05KT CAVOK"
    },
    {
      "icao": "LIPZ",
      "alert": "OK",
      "vis_m": 9999,
      "fzfg": false,
      "metar_trigger": false,
      "taf_trigger": false,
      "metar": "METAR LIPZ 010920Z VRB02KT 9999 FEW045 BKN055 02/M03 Q1019 NOSIG",
      "taf": "TAF LIPZ 010500Z 0106/0212 VRB05KT CAVOK"
    },
    {
      "icao": "LIRF",
      "alert": "OK",
      "vis_m": 9999,
      "fzfg": false,
      "metar_trigger": false,
      "taf_trigger": false,
      "metar": "METAR LIRF 010920Z 10008KT 9999 FEW055 07/M00 Q1020 NOSIG",
      "taf": "TAF LIRF 010500Z 0106/0212 08008KT 9999 FEW040"
    },
    {
      "icao": "LIRN",
      "alert": "OK",
      "vis_m": 9999,
      "fzfg": false,
      "metar_trigger": false,
      "taf_trigger": false,
      "metar": "METAR LIRN 010920Z 02003KT 350V050 CAVOK 05/M07 Q1021 NOSIG",
      "taf": "TAF LIRN 010500Z 0106/0206 VRB06KT CAVOK"
    },
    {
      "icao": "LIRP",
      "alert": "OK",
      "vis_m": 9999,
      "fzfg": false,
      "metar_trigger": false,
      "taf_trigger": false,
      "metar": "METAR LIRP 010915Z 12008KT 9999 BKN050 03/M01 Q1019 NOSIG",
      "taf": "TAF LIRP 010500Z 0106/0206 12007KT CAVOK"
    },
    {
      "icao": "LIRZ",
      "alert": "OK",
      "vis_m": 9999,
      "fzfg": false,
      "metar_trigger": false,
      "taf_trigger": false,
      "metar": "METAR LIRZ 010920Z AUTO VRB02KT 9999 BKN029/// M01/M04 Q1020",
      "taf": "TAF LIRZ 010500Z 0106/0206 VRB03KT 9999 FEW035"
    },
    {
      "icao": "LJLJ",
      "alert": "OK",
      "vis_m": 9999,
      "fzfg": false,
      "metar_trigger": false,
      "taf_trigger": false,
      "metar": "METAR LJLJ 010930Z 33001KT 9999 FEW035 BKN042 M05/M06 Q1016 NOSIG",
      "taf": "TAF LJLJ 010500Z 0106/0206 VRB02KT CAVOK"
    },
    {
      "icao": "LKMT",
      "alert": "OK",
      "vis_m": 9999,
      "fzfg": false,
      "metar_trigger": false,
      "taf_trigger": false,
      "metar": "METAR LKMT 010930Z 22020KT 9999 OVC017 01/M01 Q1007 NOSIG",
      "taf": "TAF LKMT 010500Z 0106/0206 22010KT 9999 BKN030"
    },
    {
      "icao": "LKPR",
      "alert": "OK",
      "vis_m": 9999,
      "fzfg": false,
      "metar_trigger": false,
      "taf_trigger": false,
      "metar": "METAR LKPR 010930Z 22022KT 9999 BKN024 00/M04 Q1006 NOSIG",
      "taf": "TAF LKPR 010800Z 0109/0215 22018KT 9999 BKN023"
    },
    {
      "icao": "LLBG",
      "alert": "OK",
      "vis_m": 9999,
      "fzfg": false,
      "metar_trigger": false,
      "taf_trigger": false,
      "metar": "METAR LLBG 010920Z 19011KT 9999 SHRA FEW025TCU BKN035 16/10 Q1013 NOSIG",
      "taf": "TAF LLBG 010503Z 0106/0206 19012KT 9999 BKN035"
    },
    {
      "icao": "LMML",
      "alert": "OK",
      "vis_m": 9999,
      "fzfg": false,
      "metar_trigger": false,
      "taf_trigger": false,
      "metar": "METAR LMML 010915Z 08011KT 9999 SCT019 13/10 Q1020 NOSIG",
      "taf": "TAF LMML 010500Z 0106/0206 10012KT 9999 SCT018"
    },
    {
      "icao": "LOWW",
      "alert": "OK",
      "vis_m": 9999,
      "fzfg": false,
      "metar_trigger": false,
      "taf_trigger": false,
      "metar": "METAR LOWW 010920Z 21005KT 170V250 CAVOK 04/M07 Q1012 NOSIG",
      "taf": "TAF LOWW 010815Z 0109/0215 17006KT CAVOK TX06/0212Z TN00/0120Z"
    },
    {
      "icao": "LPFR",
      "alert": "OK",
      "vis_m": 9999,
      "fzfg": false,
      "metar_trigger": false,
      "taf_trigger": false,
      "metar": "METAR LPFR 010900Z 06010KT 040V100 9999 FEW008 SCT012 BKN040 13/12 Q1014",
      "taf": "TAF LPFR 010500Z 0106/0206 07012KT 9999 BKN020"
    },
    {
      "icao": "LPMA",
      "alert": "OK",
      "vis_m": 9999,
      "fzfg": false,
      "metar_trigger": false,
      "taf_trigger": false,
      "metar": "METAR LPMA 010900Z 21016KT 9999 SCT011 BKN033 18/14 Q1002",
      "taf": "TAF LPMA 010500Z 0106/0206 21022KT 9999 BKN015"
    },
    {
      "icao": "LPPR",
      "alert": "OK",
      "vis_m": 9999,
      "fzfg": false,
      "metar_trigger": false,
      "taf_trigger": false,
      "metar": "METAR LPPR 010900Z 11012KT 9999 -RA BKN049 07/04 Q1013",
      "taf": "TAF LPPR 010500Z 0106/0206 11013KT CAVOK"
    },
    {
      "icao": "LPPS",
      "alert": "OK",
      "vis_m": 6000,
      "fzfg": false,
      "metar_trigger": false,
      "taf_trigger": false,
      "metar": "METAR LPPS 010900Z 20024KT 6000 -RADZ BKN010 17/16 Q1003",
      "taf": "TAF LPPS 010500Z 0106/0212 19020KT 9999 SCT012 BKN030"
    },
    {
      "icao": "LPPT",
      "alert": "OK",
      "vis_m": 9999,
      "fzfg": false,
      "metar_trigger": false,
      "taf_trigger": false,
      "metar": "METAR LPPT 010900Z 06005G17KT 9999 FEW010 BKN030 08/07 Q1013",
      "taf": "TAF LPPT 010500Z 0106/0212 08005KT 9999 BKN030"
    },
    {
      "icao": "LQBK",
      "alert": "OK",
      "vis_m": 9999,
      "fzfg": false,
      "metar_trigger": false,
      "taf_trigger": false,
      "metar": "METAR LQBK 010930Z 11006KT 090V170 CAVOK 04/M08 Q1017 NOSIG",
      "taf": "TAF LQBK 010500Z 0106/0206 15005KT CAVOK TX07/0206Z TNM01/0106Z"
    },
    {
      "icao": "LQSA",
      "alert": "OK",
      "vis_m": 9999,
      "fzfg": false,
      "metar_trigger": false,
      "taf_trigger": false,
      "metar": "METAR LQSA 010930Z VRB02KT CAVOK M03/M10 Q1019 NOSIG",
      "taf": "TAF LQSA 010500Z 0106/0206 29005KT 9999 FEW050 TX02/0112Z TNM08/0106Z"
    },
    {
      "icao": "LQTZ",
      "alert": "OK",
      "vis_m": 9999,
      "fzfg": false,
      "metar_trigger": false,
      "taf_trigger": false,
      "metar": "METAR LQTZ 010930Z VRB02KT CAVOK 01/M07 Q1018",
      "taf": "TAF LQTZ 010500Z 0106/0206 14005KT CAVOK TX06/0113Z TNM05/0106Z"
    },
    {
      "icao": "LRBC",
      "alert": "OK",
      "vis_m": 9999,
      "fzfg": false,
      "metar_trigger": false,
      "taf_trigger": false,
      "metar": "METAR LRBC 010900Z VRB07KT CAVOK M02/M15 Q1014",
      "taf": "TAF LRBC 010800Z 0109/0118 23010KT CAVOK"
    },
    {
      "icao": "LRBS",
      "alert": "OK",
      "vis_m": 9999,
      "fzfg": false,
      "metar_trigger": false,
      "taf_trigger": false,
      "metar": "METAR LRBS 010900Z 25010KT CAVOK M02/M09 Q1019 NOSIG",
      "taf": "TAF LRBS 010500Z 0106/0206 VRB04KT CAVOK"
    },
    {
      "icao": "LRBV",
      "alert": "OK",
      "vis_m": 7000,
      "fzfg": false,
      "metar_trigger": false,
      "taf_trigger": false,
      "metar": "METAR LRBV 010900Z VRB02KT 7000 -SN BKN036 OVC052 M07/M12 Q1014",
      "taf": "TAF LRBV 010800Z 0109/0118 22006KT 9999 SCT030 BKN055"
    },
    {
      "icao": "LRCL",
      "alert": "OK",
      "vis_m": 9999,
      "fzfg": false,
      "metar_trigger": false,
      "taf_trigger": false,
      "metar": "METAR LRCL 010900Z 10003KT 9999 BKN038 BKN050 M05/M09 Q1015",
      "taf": "TAF LRCL 010800Z 0109/0118 VRB04KT 9999 BKN040"
    },
    {
      "icao": "LRCV",
      "alert": "OK",
      "vis_m": 9999,
      "fzfg": false,
      "metar_trigger": false,
      "taf_trigger": false,
      "metar": "METAR LRCV 010900Z 27007KT CAVOK M01/M07 Q1018",
      "taf": "TAF LRCV 010800Z 0109/0118 28008KT CAVOK"
    },
    {
      "icao": "LRIA",
      "alert": "OK",
      "vis_m": 9999,
      "fzfg": false,
      "metar_trigger": false,
      "taf_trigger": false,
      "metar": "METAR LRIA 010900Z 22007KT CAVOK M01/M12 Q1013",
      "taf": "TAF LRIA 010800Z 0109/0118 23008KT CAVOK"
    },
    {
      "icao": "LROP",
      "alert": "OK",
      "vis_m": 9999,
      "fzfg": false,
      "metar_trigger": false,
      "taf_trigger": false,
      "metar": "METAR LROP 010900Z 25011KT CAVOK M01/M12 Q1018 NOSIG",
      "taf": "TAF LROP 010500Z 0106/0206 VRB04KT CAVOK"
    },
    {
      "icao": "LRSB",
      "alert": "OK",
      "vis_m": 9999,
      "fzfg": false,
      "metar_trigger": false,
      "taf_trigger": false,
      "metar": "METAR LRSB 010900Z VRB02KT 9999 SCT034 BKN060 M05/M10 Q1014 NOSIG",
      "taf": "TAF LRSB 010500Z 0106/0206 VRB04KT 9999 BKN045"
    },
    {
      "icao": "LRSM",
      "alert": "OK",
      "vis_m": 9999,
      "fzfg": false,
      "metar_trigger": false,
      "taf_trigger": false,
      "metar": "METAR LRSM 010900Z AUTO 22008KT 9999 OVC013/// M01/M04 Q1014",
      "taf": ""
    },
    {
      "icao": "LRSV",
      "alert": "OK",
      "vis_m": 9999,
      "fzfg": false,
      "metar_trigger": false,
      "taf_trigger": false,
      "metar": "METAR LRSV 010900Z 23009KT CAVOK M03/M10 Q1009",
      "taf": "TAF LRSV 010800Z 0109/0118 24010KT CAVOK"
    },
    {
      "icao": "LRTM",
      "alert": "OK",
      "vis_m": 9999,
      "fzfg": false,
      "metar_trigger": false,
      "taf_trigger": false,
      "metar": "METAR LRTM 010900Z 05005KT 9999 -SN FEW042 SCT049 M04/M07 Q1015",
      "taf": "TAF LRTM 010800Z 0109/0118 07006KT 9999 BKN050"
    },
    {
      "icao": "LRTR",
      "alert": "OK",
      "vis_m": 9999,
      "fzfg": false,
      "metar_trigger": false,
      "taf_trigger": false,
      "metar": "METAR LRTR 010900Z 18009KT 9999 -SN OVC028 M02/M05 Q1017",
      "taf": "TAF LRTR 010500Z 0106/0206 18012KT 9999 SCT020 OVC030"
    },
    {
      "icao": "LTAC",
      "alert": "OK",
      "vis_m": 9999,
      "fzfg": false,
      "metar_trigger": false,
      "taf_trigger": false,
      "metar": "METAR LTAC 010920Z 31009KT 280V350 9999 SCT040 M04/M09 Q1009 NOSIG RMK RWY21C 27011KT RWY03L 31009KT RWY21R 27009KT 230V290 RWY03R 29006KT 230V350 RWY21L 27010KT",
      "taf": ""
    },
    {
      "icao": "LTFM",
      "alert": "OK",
      "vis_m": 2800,
      "fzfg": false,
      "metar_trigger": false,
      "taf_trigger": false,
      "metar": "METAR LTFM 010920Z 31008KT 2800 1200N R35R/1400U R17L/P1500N R34L/P1500N R36/1100N SHSN FEW004 FEW018CB BKN025 M01/M02 Q1019 BECMG TL0950 9999 NSW RMK RWY17L 35007KT 320V020 RWY34L 31004KT 250V340 RWY16R VRB04KT RWY36 33011KT RWY18 35011KT",
      "taf": "TAF LTFM 010440Z 0106/0212 31015KT 9999 BKN025"
    },
    {
      "icao": "LUKK",
      "alert": "OK",
      "vis_m": 9999,
      "fzfg": false,
      "metar_trigger": false,
      "taf_trigger": false,
      "metar": "METAR LUKK 010930Z 26011KT CAVOK M03/M11 Q1013 NOSIG",
      "taf": "TAF LUKK 010516Z 0106/0206 23009KT CAVOK"
    },
    {
      "icao": "LWOH",
      "alert": "OK",
      "vis_m": 9999,
      "fzfg": false,
      "metar_trigger": false,
      "taf_trigger": false,
      "metar": "METAR LWOH 010920Z 32003KT 280V030 CAVOK M01/M13 Q1020",
      "taf": "TAF LWOH 010815Z 0109/0209 VRB03KT CAVOK"
    },
    {
      "icao": "LWSK",
      "alert": "OK",
      "vis_m": 9999,
      "fzfg": false,
      "metar_trigger": false,
      "taf_trigger": false,
      "metar": "METAR LWSK 010930Z 27003KT 210V340 CAVOK M01/M11 Q1023 NOSIG",
      "taf": "TAF LWSK 010815Z 0109/0209 VRB02KT CAVOK"
    },
    {
      "icao": "LYBE",
      "alert": "OK",
      "vis_m": 9999,
      "fzfg": false,
      "metar_trigger": false,
      "taf_trigger": false,
      "metar": "METAR LYBE 010930Z 18006KT CAVOK 02/M08 Q1018 NOSIG",
      "taf": "TAF LYBE 010500Z 0106/0206 19006KT 9999 BKN035 TX06/0112Z TNM02/0106Z"
    },
    {
      "icao": "LYNI",
      "alert": "OK",
      "vis_m": 9999,
      "fzfg": false,
      "metar_trigger": false,
      "taf_trigger": false,
      "metar": "METAR LYNI 010930Z VRB02KT 9999 FEW040 BKN090 M02/M09 Q1021 NOSIG",
      "taf": "TAF LYNI 010500Z 0106/0206 18005KT 9999 SCT040 TX02/0113Z TNM06/0106Z"
    },
    {
      "icao": "LYPG",
      "alert": "OK",
      "vis_m": 9999,
      "fzfg": false,
      "metar_trigger": false,
      "taf_trigger": false,
      "metar": "METAR LYPG 010930Z VRB02KT CAVOK 03/M13 Q1023 NOSIG",
      "taf": "TAF LYPG 010500Z 0106/0206 36005KT CAVOK TX07/0114Z TNM05/0106Z"
    },
    {
      "icao": "LZIB",
      "alert": "OK",
      "vis_m": 9999,
      "fzfg": false,
      "metar_trigger": false,
      "taf_trigger": false,
      "metar": "METAR LZIB 010930Z 28008KT 9999 FEW024 03/M04 Q1012 NOSIG",
      "taf": "TAF LZIB 010515Z 0106/0206 26015KT 9999 FEW040"
    },
    {
      "icao": "LZKZ",
      "alert": "OK",
      "vis_m": 9999,
      "fzfg": false,
      "metar_trigger": false,
      "taf_trigger": false,
      "metar": "METAR LZKZ 010930Z 22006KT 190V250 9999 BKN007 M03/M05 Q1011 TEMPO BKN004",
      "taf": ""
    },
    {
      "icao": "LZTT",
      "alert": "OK",
      "vis_m": 8000,
      "fzfg": false,
      "metar_trigger": false,
      "taf_trigger": false,
      "metar": "METAR LZTT 010930Z 15006KT 8000 -SN BKN016 OVC020 M05/M07 Q1006 NOSIG",
      "taf": ""
    },
    {
      "icao": "OEJN",
      "alert": "OK",
      "vis_m": 9999,
      "fzfg": false,
      "metar_trigger": false,
      "taf_trigger": false,
      "metar": "METAR OEJN 010900Z 30003KT CAVOK 28/12 Q1016 NOSIG",
      "taf": "TAF OEJN 010500Z 0106/0212 32010KT CAVOK"
    },
    {
      "icao": "OEMA",
      "alert": "OK",
      "vis_m": 9999,
      "fzfg": false,
      "metar_trigger": false,
      "taf_trigger": false,
      "metar": "METAR OEMA 010900Z 29005KT CAVOK 23/M06 Q1020 NOSIG",
      "taf": "TAF OEMA 010500Z 0106/0212 30010KT CAVOK"
    },
    {
      "icao": "OJAI",
      "alert": "OK",
      "vis_m": 4000,
      "fzfg": false,
      "metar_trigger": false,
      "taf_trigger": false,
      "metar": "METAR OJAI 010900Z 24020KT 4000 BLDU NSC 13/05 Q1014 NOSIG",
      "taf": "TAF OJAI 010500Z 0106/0212 24014KT 5000 HZ SCT035"
    },
    {
      "icao": "OMAA",
      "alert": "OK",
      "vis_m": 9999,
      "fzfg": false,
      "metar_trigger": false,
      "taf_trigger": false,
      "metar": "METAR OMAA 010900Z 31010KT 270V350 9999 FEW040 22/11 Q1017 NOSIG",
      "taf": "TAF OMAA 010500Z 0106/0212 22005KT 8000 FEW040"
    },
    {
      "icao": "OMDB",
      "alert": "OK",
      "vis_m": 9999,
      "fzfg": false,
      "metar_trigger": false,
      "taf_trigger": false,
      "metar": "METAR OMDB 010930Z 32008KT 280V350 CAVOK 23/09 Q1017 NOSIG",
      "taf": "TAF OMDB 010500Z 0106/0212 20005KT 8000 NSC"
    },
    {
      "icao": "UAAA",
      "alert": "OK",
      "vis_m": 5000,
      "fzfg": false,
      "metar_trigger": false,
      "taf_trigger": false,
      "metar": "SPECI UAAA 010906Z 02003MPS 5000 BR OVC004 01/M00 Q1022 NOSIG RMK QBB140",
      "taf": "TAF UAAA 010501Z 0106/0206 02003MPS 4000 BR BKN011 OVC020 TX02/0109Z TNM03/0202Z"
    },
    {
      "icao": "UBBB",
      "alert": "OK",
      "vis_m": 9999,
      "fzfg": false,
      "metar_trigger": false,
      "taf_trigger": false,
      "metar": "METAR UBBB 010930Z 33026KT 9999 SCT014 OVC024 06/02 Q1011 NOSIG",
      "taf": "TAF UBBB 010459Z 0106/0206 33018G28KT 9999 SCT025 TX07/0110Z TN04/0203Z"
    },
    {
      "icao": "UDSG",
      "alert": "OK",
      "vis_m": 7000,
      "fzfg": false,
      "metar_trigger": false,
      "taf_trigger": false,
      "metar": "METAR UDSG 010900Z 30002KT 7000 -SN OVC023 M03/M04 Q1005 NOSIG",
      "taf": "TAF UDSG 010500Z 0106/0206 VRB06KT 2000 BR OVC020"
    },
    {
      "icao": "UDYZ",
      "alert": "OK",
      "vis_m": 3500,
      "fzfg": false,
      "metar_trigger": false,
      "taf_trigger": false,
      "metar": "METAR UDYZ 010900Z VRB01KT 3500 BR BKN022 M00/M03 Q1007 NOSIG",
      "taf": "TAF UDYZ 010500Z 0106/0206 VRB06KT 1500 BR BKN020"
    },
    {
      "icao": "UGKO",
      "alert": "OK",
      "vis_m": 9999,
      "fzfg": false,
      "metar_trigger": false,
      "taf_trigger": false,
      "metar": "METAR UGKO 010900Z VRB02KT 9999 SCT045 02/01 Q1007 NOSIG",
      "taf": "TAF UGKO 010500Z 0106/0206 26007KT 9999 SCT015 OVC040 TX02/0111Z TNM03/0204Z"
    }
  ]
}