{
  "ts_utc": "2026-01-02T22:48:17Z",
  "threshold_m": 150,
  "source": "stations_override.txt (ICAO list) + aviationweather.gov (METAR/TAF raw)",
  "station_count": 159,
  "stations": [
    {
      "icao": "BIKF",
      "alert": "OK",
      "vis_m": 9999,
      "fzfg": false,
      "metar_trigger": false,
      "taf_trigger": false,
      "metar": "METAR BIKF 022230Z 04007KT CAVOK M05/M08 Q1028",
      "taf": "TAF BIKF 022246Z 0300/0400 07006KT CAVOK TXM00/0318Z TNM08/0309Z"
    },
    {
      "icao": "BKPR",
      "alert": "OK",
      "vis_m": 9999,
      "fzfg": false,
      "metar_trigger": false,
      "taf_trigger": false,
      "metar": "METAR BKPR 022230Z 19009KT 9999 FEW025 BKN040 03/01 Q1006 NOSIG",
      "taf": "TAF BKPR 021730Z 0218/0318 19008KT 9999 BKN030"
    },
    {
      "icao": "EBCI",
      "alert": "OK",
      "vis_m": 9999,
      "fzfg": false,
      "metar_trigger": false,
      "taf_trigger": false,
      "metar": "METAR EBCI 022220Z 25009KT 9999 FEW036 M01/M03 Q1006 NOSIG",
      "taf": "TAF EBCI 021720Z 0218/0324 27010KT 9999 FEW020 BKN040"
    },
    {
      "icao": "EDDB",
      "alert": "OK",
      "vis_m": 9999,
      "fzfg": false,
      "metar_trigger": false,
      "taf_trigger": false,
      "metar": "METAR EDDB 022220Z AUTO 27019KT 9999 BKN020 OVC028 01/M02 Q0990 TEMPO 26020G30KT 4000 -SHSN BKN009 BKN015TCU",
      "taf": "TAF EDDB 021700Z 0218/0318 25015G25KT 9999 SCT020 BKN040"
    },
    {
      "icao": "EDDH",
      "alert": "OK",
      "vis_m": 9999,
      "fzfg": false,
      "metar_trigger": false,
      "taf_trigger": false,
      "metar": "METAR EDDH 022220Z AUTO 27007KT 9999 FEW048 M01/M04 Q0993 NOSIG",
      "taf": "TAF EDDH 021700Z 0218/0324 29010KT 8000 BKN020"
    },
    {
      "icao": "EDDK",
      "alert": "OK",
      "vis_m": 9999,
      "fzfg": false,
      "metar_trigger": false,
      "taf_trigger": false,
      "metar": "METAR EDDK 022220Z AUTO 28010KT 9999 BKN015 01/M01 Q1003 NOSIG",
      "taf": "TAF EDDK 021700Z 0218/0324 26011KT 9999 BKN003"
    },
    {
      "icao": "EDDN",
      "alert": "OK",
      "vis_m": 9999,
      "fzfg": false,
      "metar_trigger": false,
      "taf_trigger": false,
      "metar": "METAR EDDN 022220Z AUTO 28008KT 9999 OVC019 M01/M04 Q1002",
      "taf": "TAF EDDN 021700Z 0218/0318 26012KT 7000 SCT007 BKN015"
    },
    {
      "icao": "EDDS",
      "alert": "OK",
      "vis_m": 9999,
      "fzfg": false,
      "metar_trigger": false,
      "taf_trigger": false,
      "metar": "METAR EDDS 022220Z AUTO 27010KT CAVOK M01/M06 Q1004",
      "taf": "TAF EDDS 021700Z 0218/0318 23008KT 8000 BKN020"
    },
    {
      "icao": "EDFH",
      "alert": "OK",
      "vis_m": 9999,
      "fzfg": false,
      "metar_trigger": false,
      "taf_trigger": false,
      "metar": "METAR EDFH 022220Z 26012KT 9999 FEW013 BKN023 M02/M04 Q1003",
      "taf": ""
    },
    {
      "icao": "EDJA",
      "alert": "OK",
      "vis_m": 9999,
      "fzfg": false,
      "metar_trigger": false,
      "taf_trigger": false,
      "metar": "METAR EDJA 022220Z AUTO 29012KT 9999 // FEW025/// SCT029/// OVC081/// M02/M05 Q1003 ATIS",
      "taf": ""
    },
    {
      "icao": "EDLW",
      "alert": "OK",
      "vis_m": 9999,
      "fzfg": false,
      "metar_trigger": false,
      "taf_trigger": false,
      "metar": "METAR EDLW 022220Z AUTO 25011KT 220V280 9999 // FEW014/// BKN074/// BKN093/// 01/M01 Q1000",
      "taf": "TAF EDLW 021700Z 0218/0318 24012KT 9999 SCT010 BKN035"
    },
    {
      "icao": "EDNY",
      "alert": "OK",
      "vis_m": 4000,
      "fzfg": false,
      "metar_trigger": false,
      "taf_trigger": false,
      "metar": "METAR EDNY 022220Z AUTO 26009KT 230V290 4000 // FEW006/// BKN026/// OVC032/// 00/M00 Q1005",
      "taf": "TAF EDNY 021400Z 0215/0224 25008KT 9999 BKN030"
    },
    {
      "icao": "EDSB",
      "alert": "OK",
      "vis_m": 9999,
      "fzfg": false,
      "metar_trigger": false,
      "taf_trigger": false,
      "metar": "METAR EDSB 022220Z 20007KT 9999 SCT038 00/M02 Q1007",
      "taf": "TAF EDSB 021700Z 0218/0318 22007KT 8000 BKN010"
    },
    {
      "icao": "EETN",
      "alert": "OK",
      "vis_m": 9999,
      "fzfg": false,
      "metar_trigger": false,
      "taf_trigger": false,
      "metar": "METAR EETN 022220Z 11010KT 9999 OVC008 M05/M06 Q0985",
      "taf": ""
    },
    {
      "icao": "EFTU",
      "alert": "OK",
      "vis_m": 9999,
      "fzfg": false,
      "metar_trigger": false,
      "taf_trigger": false,
      "metar": "METAR EFTU 022220Z AUTO 08012KT 9999 OVC011 M07/M09 Q0985",
      "taf": "TAF EFTU 022029Z 0221/0321 07014KT 8000 -SN OVC013"
    },
    {
      "icao": "EGBB",
      "alert": "OK",
      "vis_m": 9999,
      "fzfg": false,
      "metar_trigger": false,
      "taf_trigger": false,
      "metar": "METAR EGBB 022220Z 29006KT CAVOK 01/M01 Q1008",
      "taf": "TAF EGBB 021657Z 0218/0318 30009KT CAVOK"
    },
    {
      "icao": "EGGP",
      "alert": "OK",
      "vis_m": 9999,
      "fzfg": false,
      "metar_trigger": false,
      "taf_trigger": false,
      "metar": "METAR EGGP 022220Z 31013KT 280V340 9999 -RA SCT028 SCT045 02/M02 Q1008",
      "taf": "TAF EGGP 021656Z 0218/0318 32009KT 9999 SCT030"
    },
    {
      "icao": "EGGW",
      "alert": "OK",
      "vis_m": 9999,
      "fzfg": false,
      "metar_trigger": false,
      "taf_trigger": false,
      "metar": "METAR EGGW 022220Z AUTO 28012KT 9999 NCD M01/M03 Q1007",
      "taf": "TAF EGGW 021655Z 0218/0318 30012KT 9999 FEW025"
    },
    {
      "icao": "EGKK",
      "alert": "OK",
      "vis_m": 9999,
      "fzfg": false,
      "metar_trigger": false,
      "taf_trigger": false,
      "metar": "METAR EGKK 022220Z 27006KT CAVOK M00/M03 Q1009",
      "taf": "TAF EGKK 021656Z 0218/0324 30010KT 9999 FEW025"
    },
    {
      "icao": "EGNM",
      "alert": "OK",
      "vis_m": 9999,
      "fzfg": false,
      "metar_trigger": false,
      "taf_trigger": false,
      "metar": "METAR EGNM 022220Z 29011KT CAVOK M02/M05 Q1005",
      "taf": "TAF EGNM 021656Z 0218/0318 30009KT 9999 FEW030"
    },
    {
      "icao": "EGPD",
      "alert": "OK",
      "vis_m": 1200,
      "fzfg": false,
      "metar_trigger": false,
      "taf_trigger": false,
      "metar": "METAR EGPD 022220Z COR AUTO 30020KT 1200 R34/P1500N SN BKN013 BKN022 BKN036 M01/M03 Q1005 NOSIG",
      "taf": "TAF EGPD 021657Z 0218/0318 31012KT 9999 SCT012"
    },
    {
      "icao": "EGPF",
      "alert": "OK",
      "vis_m": 9999,
      "fzfg": false,
      "metar_trigger": false,
      "taf_trigger": false,
      "metar": "METAR EGPF 022220Z AUTO 29004KT 9999 NCD M01/M04 Q1010",
      "taf": "TAF EGPF 021701Z 0218/0318 29009KT 9999 FEW035"
    },
    {
      "icao": "EHBK",
      "alert": "OK",
      "vis_m": 9999,
      "fzfg": false,
      "metar_trigger": false,
      "taf_trigger": false,
      "metar": "METAR EHBK 022225Z AUTO 24006KT 210V270 9999 NCD M00/M01 Q1004",
      "taf": "TAF EHBK 021720Z 0218/0324 26009KT 9999 SCT040"
    },
    {
      "icao": "EHEH",
      "alert": "OK",
      "vis_m": 9999,
      "fzfg": false,
      "metar_trigger": false,
      "taf_trigger": false,
      "metar": "METAR EHEH 022225Z AUTO 23009KT 200V310 9999 FEW033 01/M00 Q1003 BLU NOSIG RMK TREND REMOTE BY EHWX",
      "taf": ""
    },
    {
      "icao": "EKBI",
      "alert": "OK",
      "vis_m": 9999,
      "fzfg": false,
      "metar_trigger": false,
      "taf_trigger": false,
      "metar": "METAR EKBI 022220Z AUTO 30006KT 270V330 9999 NCD M04/M08 Q0991",
      "taf": "TAF EKBI 022027Z 0221/0321 30010KT 9999 FEW020"
    },
    {
      "icao": "EKCH",
      "alert": "OK",
      "vis_m": 3000,
      "fzfg": false,
      "metar_trigger": false,
      "taf_trigger": false,
      "metar": "METAR EKCH 022220Z 31015KT 3000 -SN BKN010 BKN018 M01/M04 Q0985 TEMPO 8000 BKN020",
      "taf": "TAF EKCH 022027Z 0221/0321 30012KT 9999 BKN020"
    },
    {
      "icao": "ENAL",
      "alert": "OK",
      "vis_m": 9999,
      "fzfg": false,
      "metar_trigger": false,
      "taf_trigger": false,
      "metar": "METAR ENAL 022220Z 06021KT 9999 SCT029 M04/M09 Q0998",
      "taf": "TAF ENAL 022000Z 0221/0306 06022KT 9999 FEW010 SCT030"
    },
    {
      "icao": "ENBR",
      "alert": "OK",
      "vis_m": 9999,
      "fzfg": false,
      "metar_trigger": false,
      "taf_trigger": false,
      "metar": "METAR ENBR 022220Z 01002KT CAVOK M06/M09 Q0994 RMK WIND 1200FT 03007KT",
      "taf": "TAF ENBR 021700Z 0218/0318 08005KT CAVOK"
    },
    {
      "icao": "ENGM",
      "alert": "OK",
      "vis_m": 9999,
      "fzfg": false,
      "metar_trigger": false,
      "taf_trigger": false,
      "metar": "METAR ENGM 022220Z 36016KT 9999 FEW022 M08/M13 Q0991",
      "taf": "TAF ENGM 021700Z 0218/0318 36018KT 8000 -SN FEW030 BKN045"
    },
    {
      "icao": "ENHD",
      "alert": "OK",
      "vis_m": 9999,
      "fzfg": false,
      "metar_trigger": false,
      "taf_trigger": false,
      "metar": "METAR ENHD 022220Z AUTO 06004KT 030V090 9999 NCD M04/M10 Q0994",
      "taf": "TAF ENHD 021400Z 0215/0223 01015KT CAVOK"
    },
    {
      "icao": "ENTC",
      "alert": "OK",
      "vis_m": 9999,
      "fzfg": false,
      "metar_trigger": false,
      "taf_trigger": false,
      "metar": "METAR ENTC 022220Z 13003KT 080V160 9999 -SHSN FEW023 SCT034 BKN052 M04/M06 Q1000 RMK WIND 2600FT 34027KT",
      "taf": ""
    },
    {
      "icao": "ENTO",
      "alert": "OK",
      "vis_m": 9999,
      "fzfg": false,
      "metar_trigger": false,
      "taf_trigger": false,
      "metar": "METAR ENTO 022220Z AUTO 36014KT 9999 OVC020/// M07/M12 Q0991",
      "taf": "TAF ENTO 021700Z 0218/0318 36015KT 9999 SCT035"
    },
    {
      "icao": "ENVA",
      "alert": "OK",
      "vis_m": 9999,
      "fzfg": false,
      "metar_trigger": false,
      "taf_trigger": false,
      "metar": "METAR ENVA 022220Z 13005KT CAVOK M10/M11 Q1001 RMK WIND 670FT 12005KT",
      "taf": "TAF ENVA 021700Z 0218/0318 07007KT 9999 FEW035 BKN055"
    },
    {
      "icao": "ENZV",
      "alert": "OK",
      "vis_m": 9999,
      "fzfg": false,
      "metar_trigger": false,
      "taf_trigger": false,
      "metar": "METAR ENZV 022220Z 03003KT CAVOK M03/M10 Q0994",
      "taf": "TAF ENZV 021700Z 0218/0318 36012KT CAVOK"
    },
    {
      "icao": "EPGD",
      "alert": "OK",
      "vis_m": 9999,
      "fzfg": false,
      "metar_trigger": false,
      "taf_trigger": false,
      "metar": "METAR EPGD 022230Z 22010KT 9999 -SHSN FEW010TCU BKN022 00/M01 Q0984",
      "taf": "TAF EPGD 021730Z 0218/0318 24014KT 9999 SCT012 BKN025"
    },
    {
      "icao": "EPKK",
      "alert": "OK",
      "vis_m": 9999,
      "fzfg": false,
      "metar_trigger": false,
      "taf_trigger": false,
      "metar": "METAR EPKK 022230Z 25012KT 9999 BKN046 00/M07 Q0995",
      "taf": "TAF EPKK 022030Z 0221/0321 23015KT 9999 BKN030"
    },
    {
      "icao": "EPKT",
      "alert": "OK",
      "vis_m": 9999,
      "fzfg": false,
      "metar_trigger": false,
      "taf_trigger": false,
      "metar": "METAR EPKT 022230Z 21012KT 9999 BKN042 M00/M06 Q0994",
      "taf": ""
    },
    {
      "icao": "EPLB",
      "alert": "OK",
      "vis_m": 4500,
      "fzfg": false,
      "metar_trigger": false,
      "taf_trigger": false,
      "metar": "METAR EPLB 022230Z 23013KT 4500 SN BR SCT006 BKN010 M00/M01 Q0993",
      "taf": "TAF EPLB 021730Z 0218/0318 22014KT 9999 BKN030"
    },
    {
      "icao": "EPMO",
      "alert": "OK",
      "vis_m": 3000,
      "fzfg": false,
      "metar_trigger": false,
      "taf_trigger": false,
      "metar": "METAR EPMO 022230Z 23012KT 3000 -SN BR BKN007 00/00 Q0990",
      "taf": "TAF EPMO 021730Z 0218/0318 23012KT 7000 -SN BKN016"
    },
    {
      "icao": "EPPO",
      "alert": "OK",
      "vis_m": 9999,
      "fzfg": false,
      "metar_trigger": false,
      "taf_trigger": false,
      "metar": "METAR EPPO 022230Z 23010KT 9999 SCT011 BKN038 00/M02 Q0989",
      "taf": "TAF EPPO 021730Z 0218/0318 24015KT 9999 BKN025"
    },
    {
      "icao": "EPRA",
      "alert": "OK",
      "vis_m": 6000,
      "fzfg": false,
      "metar_trigger": false,
      "taf_trigger": false,
      "metar": "METAR EPRA 022230Z 25014KT 6000 -SN SCT009 BKN017 OVC023 M00/M02 Q0992",
      "taf": "TAF EPRA 022030Z 0221/0306 24012KT 8000 -SN BKN030"
    },
    {
      "icao": "EPRZ",
      "alert": "OK",
      "vis_m": 9999,
      "fzfg": false,
      "metar_trigger": false,
      "taf_trigger": false,
      "metar": "METAR EPRZ 022230Z 23010KT CAVOK M00/M06 Q0996",
      "taf": "TAF EPRZ 021730Z 0218/0318 20010KT 9999 SCT040"
    },
    {
      "icao": "EPSC",
      "alert": "OK",
      "vis_m": 9999,
      "fzfg": false,
      "metar_trigger": false,
      "taf_trigger": false,
      "metar": "METAR EPSC 022230Z 24009KT 9999 BKN019 01/M03 Q0986",
      "taf": "TAF EPSC 021730Z 0218/0318 24012KT 9999 BKN020"
    },
    {
      "icao": "EPSY",
      "alert": "OK",
      "vis_m": 9999,
      "fzfg": false,
      "metar_trigger": false,
      "taf_trigger": false,
      "metar": "METAR EPSY 022230Z 20009KT 9999 BKN015 00/M01 Q0987",
      "taf": "TAF EPSY 022030Z 0221/0306 21010KT 9999 BKN020"
    },
    {
      "icao": "EPWA",
      "alert": "OK",
      "vis_m": 7000,
      "fzfg": false,
      "metar_trigger": false,
      "taf_trigger": false,
      "metar": "METAR EPWA 022230Z 24015KT 7000 -SN BKN013 OVC018 01/M01 Q0990 TEMPO 3000 SN BKN008",
      "taf": "TAF EPWA 022030Z 0221/0321 23012KT 9999 BKN020"
    },
    {
      "icao": "EPWR",
      "alert": "OK",
      "vis_m": 9999,
      "fzfg": false,
      "metar_trigger": false,
      "taf_trigger": false,
      "metar": "METAR EPWR 022230Z 22011KT 9999 FEW027CB BKN039 01/M05 Q0993",
      "taf": "TAF EPWR 022030Z 0221/0321 24013KT 9999 OVC045"
    },
    {
      "icao": "ESGG",
      "alert": "OK",
      "vis_m": 9999,
      "fzfg": false,
      "metar_trigger": false,
      "taf_trigger": false,
      "metar": "METAR ESGG 022220Z 35014KT 9999 BKN009 M06/M08 Q0985",
      "taf": "TAF ESGG 022030Z 0221/0321 36014G24KT 5000 -SN SCT009 BKN016"
    },
    {
      "icao": "ESKN",
      "alert": "OK",
      "vis_m": 9999,
      "fzfg": false,
      "metar_trigger": false,
      "taf_trigger": false,
      "metar": "METAR ESKN 022220Z 36009KT 9999 -SN OVC008 M03/M04 Q0980",
      "taf": "TAF ESKN 022030Z 0221/0321 01010KT 9000 -SN BKN008"
    },
    {
      "icao": "ESMS",
      "alert": "OK",
      "vis_m": 6000,
      "fzfg": false,
      "metar_trigger": false,
      "taf_trigger": false,
      "metar": "METAR ESMS 022220Z 32015KT 6000 -SN SCT007 BKN029 M02/M03 Q0982",
      "taf": "TAF ESMS 022027Z 0221/0321 31010KT 9999 BKN020"
    },
    {
      "icao": "ESSA",
      "alert": "OK",
      "vis_m": 9000,
      "fzfg": false,
      "metar_trigger": false,
      "taf_trigger": false,
      "metar": "METAR ESSA 022220Z 02015KT 9000 -SN OVC007 M03/M05 Q0982 TEMPO 1000 SN VV015",
      "taf": "TAF ESSA 022030Z 0221/0321 02015G25KT 8000 -SN BKN006"
    },
    {
      "icao": "EYKA",
      "alert": "OK",
      "vis_m": 9999,
      "fzfg": false,
      "metar_trigger": false,
      "taf_trigger": false,
      "metar": "METAR EYKA 022220Z 22006KT 170V250 9999 OVC008 01/M00 Q0986",
      "taf": "TAF EYKA 021714Z 0218/0318 VRB04KT 6000 SCT005 OVC015"
    },
    {
      "icao": "EYPA",
      "alert": "OK",
      "vis_m": 9999,
      "fzfg": false,
      "metar_trigger": false,
      "taf_trigger": false,
      "metar": "METAR EYPA 022220Z 26006KT 210V320 9999 OVC046 03/M03 Q0982",
      "taf": "TAF EYPA 021713Z 0218/0318 22010KT 9000 BKN010 BKN020"
    },
    {
      "icao": "EYVI",
      "alert": "OK",
      "vis_m": 7000,
      "fzfg": false,
      "metar_trigger": false,
      "taf_trigger": false,
      "metar": "METAR EYVI 022220Z 20011KT 7000 -SN OVC004 M00/M01 Q0987 TEMPO 0800 +SN",
      "taf": "TAF EYVI 021715Z 0218/0318 18012KT 1500 SN OVC005"
    },
    {
      "icao": "GCFV",
      "alert": "OK",
      "vis_m": 9999,
      "fzfg": false,
      "metar_trigger": false,
      "taf_trigger": false,
      "metar": "METAR GCFV 022230Z 26007KT 170V300 9999 FEW035 19/13 Q1007",
      "taf": "TAF GCFV 022000Z 0221/0321 27008KT 9999 SCT030 TX22/0314Z TN17/0306Z"
    },
    {
      "icao": "GCLP",
      "alert": "OK",
      "vis_m": 9999,
      "fzfg": false,
      "metar_trigger": false,
      "taf_trigger": false,
      "metar": "METAR GCLP 022230Z 10006KT 010V160 9999 FEW030 19/14 Q1007 NOSIG",
      "taf": "TAF GCLP 022000Z 0221/0321 23010KT 9999 SCT035 TX23/0314Z TN17/0306Z"
    },
    {
      "icao": "GCTS",
      "alert": "OK",
      "vis_m": 9999,
      "fzfg": false,
      "metar_trigger": false,
      "taf_trigger": false,
      "metar": "METAR GCTS 022230Z 30022KT 9999 FEW030 19/11 Q1006 NOSIG",
      "taf": ""
    },
    {
      "icao": "GMAD",
      "alert": "OK",
      "vis_m": 6000,
      "fzfg": false,
      "metar_trigger": false,
      "taf_trigger": false,
      "metar": "METAR GMAD 022230Z 22020KT 6000 -SHRA SCT006 SCT020TCU BKN100 17/16 Q1007 NOSIG",
      "taf": "TAF GMAD 021700Z 0218/0324 18008KT 8000 SCT020 BKN080"
    },
    {
      "icao": "GMMN",
      "alert": "OK",
      "vis_m": 9999,
      "fzfg": false,
      "metar_trigger": false,
      "taf_trigger": false,
      "metar": "METAR GMMN 022231Z 25013KT 9999 RA SCT020 SCT030TCU 14/11 Q1006 TEMPO 2000 RA",
      "taf": "TAF GMMN 021700Z 0218/0324 22006KT FEW030 BKN200"
    },
    {
      "icao": "GMMX",
      "alert": "OK",
      "vis_m": 8000,
      "fzfg": false,
      "metar_trigger": false,
      "taf_trigger": false,
      "metar": "METAR GMMX 022230Z 32015G27KT 270V010 8000 FEW020 BKN090 17/10 Q1004 NOSIG",
      "taf": "TAF GMMX 021700Z 0218/0324 20022G42KT 8000 SCT020 SCT100"
    },
    {
      "icao": "HEGN",
      "alert": "OK",
      "vis_m": 9999,
      "fzfg": false,
      "metar_trigger": false,
      "taf_trigger": false,
      "metar": "METAR HEGN 022200Z 30010KT CAVOK 14/08 Q1022 NOSIG",
      "taf": "TAF HEGN 021700Z 0218/0324 34018KT CAVOK"
    },
    {
      "icao": "HEMA",
      "alert": "OK",
      "vis_m": 9999,
      "fzfg": false,
      "metar_trigger": false,
      "taf_trigger": false,
      "metar": "METAR HEMA 022200Z 30012KT CAVOK 18/11 Q1019 NOSIG",
      "taf": "TAF HEMA 021700Z 0218/0324 33015KT CAVOK"
    },
    {
      "icao": "HESH",
      "alert": "OK",
      "vis_m": 9999,
      "fzfg": false,
      "metar_trigger": false,
      "taf_trigger": false,
      "metar": "METAR HESH 022200Z 35016KT CAVOK 18/07 Q1021 NOSIG",
      "taf": "TAF HESH 021700Z 0218/0324 30010KT CAVOK"
    },
    {
      "icao": "HESX",
      "alert": "OK",
      "vis_m": 9999,
      "fzfg": false,
      "metar_trigger": false,
      "taf_trigger": false,
      "metar": "METAR HESX 022200Z 03003KT CAVOK 07/04 Q1026 NOSIG",
      "taf": "TAF HESX 021700Z 0218/0324 01010KT 9999 SCT025"
    },
    {
      "icao": "LATI",
      "alert": "OK",
      "vis_m": null,
      "fzfg": false,
      "metar_trigger": false,
      "taf_trigger": false,
      "metar": "",
      "taf": "TAF LATI 021700Z 0218/0318 16012KT 9999 RA FEW025 BKN040 OVC060 TX10/0310Z TN04/0305Z"
    },
    {
      "icao": "LBPD",
      "alert": "OK",
      "vis_m": 9999,
      "fzfg": false,
      "metar_trigger": false,
      "taf_trigger": false,
      "metar": "METAR LBPD 022230Z AUTO VRB02KT 9999 NCD M04/M07 Q1011",
      "taf": "TAF LBPD 021700Z 0218/0318 VRB03KT 9999 SCT060"
    },
    {
      "icao": "LBSF",
      "alert": "OK",
      "vis_m": 9999,
      "fzfg": false,
      "metar_trigger": false,
      "taf_trigger": false,
      "metar": "METAR LBSF 022230Z AUTO 32006KT 250V010 9999 FEW058/// OVC073/// 06/M03 Q1007 WS ALL RWY NOSIG",
      "taf": ""
    },
    {
      "icao": "LBWN",
      "alert": "OK",
      "vis_m": 9999,
      "fzfg": false,
      "metar_trigger": false,
      "taf_trigger": false,
      "metar": "METAR LBWN 022230Z AUTO 34004KT 280V010 9999 NSC 06/M02 Q1009 NOSIG",
      "taf": "TAF LBWN 021700Z 0218/0318 29010KT CAVOK"
    },
    {
      "icao": "LCLK",
      "alert": "OK",
      "vis_m": 9999,
      "fzfg": false,
      "metar_trigger": false,
      "taf_trigger": false,
      "metar": "METAR LCLK 022230Z 31007KT 9999 SCT050 08/05 Q1025 NOSIG",
      "taf": "TAF LCLK 021730Z 0218/0318 33007KT 9999 FEW030"
    },
    {
      "icao": "LCPH",
      "alert": "OK",
      "vis_m": 9999,
      "fzfg": false,
      "metar_trigger": false,
      "taf_trigger": false,
      "metar": "METAR LCPH 022230Z AUTO 07008KT 010V080 9999 FEW049 08/02 Q1025 NOSIG",
      "taf": "TAF LCPH 021730Z 0218/0318 04009KT 9999 FEW030"
    },
    {
      "icao": "LEAL",
      "alert": "OK",
      "vis_m": 9999,
      "fzfg": false,
      "metar_trigger": false,
      "taf_trigger": false,
      "metar": "METAR LEAL 022230Z 27004KT CAVOK 09/09 Q1009 NOSIG",
      "taf": "TAF LEAL 021700Z 0218/0318 VRB05KT CAVOK TX17/0314Z TN09/0306Z"
    },
    {
      "icao": "LEBB",
      "alert": "OK",
      "vis_m": 8000,
      "fzfg": false,
      "metar_trigger": false,
      "taf_trigger": false,
      "metar": "METAR LEBB 022230Z 11004KT 8000 -RA SCT021 SCT042 OVC067 08/08 Q1010 NOSIG",
      "taf": "TAF LEBB 021700Z 0218/0318 VRB03KT 9999 SCT070 TX09/0314Z TN06/0308Z"
    },
    {
      "icao": "LEBL",
      "alert": "OK",
      "vis_m": 9999,
      "fzfg": false,
      "metar_trigger": false,
      "taf_trigger": false,
      "metar": "METAR LEBL 022230Z 34010KT 9999 FEW020 08/04 Q1008 NOSIG",
      "taf": "TAF LEBL 021700Z 0218/0318 34009KT 9999 FEW015 TX15/0312Z TN05/0306Z"
    },
    {
      "icao": "LECH",
      "alert": "OK",
      "vis_m": 7000,
      "fzfg": false,
      "metar_trigger": false,
      "taf_trigger": false,
      "metar": "METAR LECH 022230Z AUTO VRB01KT 7000 NSC 08/08 Q1008",
      "taf": ""
    },
    {
      "icao": "LEMD",
      "alert": "OK",
      "vis_m": 7000,
      "fzfg": false,
      "metar_trigger": false,
      "taf_trigger": false,
      "metar": "METAR LEMD 022230Z 35003KT 7000 NSC 06/06 Q1008 NOSIG",
      "taf": "TAF LEMD 021700Z 0218/0324 VRB04KT CAVOK TX13/0314Z TN05/0307Z"
    },
    {
      "icao": "LEMG",
      "alert": "OK",
      "vis_m": 9999,
      "fzfg": false,
      "metar_trigger": false,
      "taf_trigger": false,
      "metar": "METAR LEMG 022230Z 29004KT CAVOK 10/09 Q1006 NOSIG",
      "taf": "TAF LEMG 021700Z 0218/0318 13010KT 9999 FEW015 TX18/0314Z TN10/0307Z"
    },
    {
      "icao": "LEVC",
      "alert": "OK",
      "vis_m": 9999,
      "fzfg": false,
      "metar_trigger": false,
      "taf_trigger": false,
      "metar": "METAR LEVC 022230Z 27003KT CAVOK 09/09 Q1008 NOSIG",
      "taf": "TAF LEVC 021700Z 0218/0318 VRB05KT CAVOK TX16/0314Z TN09/0306Z"
    },
    {
      "icao": "LEXJ",
      "alert": "OK",
      "vis_m": 6000,
      "fzfg": false,
      "metar_trigger": false,
      "taf_trigger": false,
      "metar": "METAR LEXJ 022230Z AUTO 08007KT 040V130 6000 SCT012 OVC020 09/08 Q1009 RERA",
      "taf": ""
    },
    {
      "icao": "LEZG",
      "alert": "OK",
      "vis_m": 4000,
      "fzfg": false,
      "metar_trigger": false,
      "taf_trigger": false,
      "metar": "METAR LEZG 022230Z 12003KT 4000 BR FEW006 SCT060 05/05 Q1009 NOSIG",
      "taf": "TAF LEZG 021700Z 0218/0318 VRB04KT CAVOK TX11/0315Z TN05/0306Z"
    },
    {
      "icao": "LEZL",
      "alert": "OK",
      "vis_m": 9999,
      "fzfg": false,
      "metar_trigger": false,
      "taf_trigger": false,
      "metar": "METAR LEZL 022230Z 28004KT 250V320 CAVOK 13/11 Q1004 NOSIG",
      "taf": "TAF LEZL 022000Z 0221/0321 08008KT 9999 FEW030 TX19/0315Z TN12/0307Z"
    },
    {
      "icao": "LFBD",
      "alert": "OK",
      "vis_m": 500,
      "fzfg": true,
      "metar_trigger": false,
      "taf_trigger": false,
      "metar": "METAR LFBD 022230Z AUTO 09003KT 040V120 0500 0400 R23/0500N R05/0600U R29/0600U FZFG VV/// M02/M02 Q1012 NOSIG",
      "taf": ""
    },
    {
      "icao": "LFLL",
      "alert": "OK",
      "vis_m": 9999,
      "fzfg": false,
      "metar_trigger": false,
      "taf_trigger": false,
      "metar": "METAR LFLL 022230Z 14009KT CAVOK 01/M03 Q1009 NOSIG",
      "taf": "TAF LFLL 021700Z 0218/0324 VRB03KT 9999 BKN040"
    },
    {
      "icao": "LFLS",
      "alert": "OK",
      "vis_m": 9999,
      "fzfg": false,
      "metar_trigger": false,
      "taf_trigger": false,
      "metar": "METAR LFLS 022230Z AUTO 09006KT 9999 FEW047 M04/M05 Q1009",
      "taf": "TAF LFLS 021400Z 0215/0315 VRB03KT CAVOK"
    },
    {
      "icao": "LFMN",
      "alert": "OK",
      "vis_m": 9999,
      "fzfg": false,
      "metar_trigger": false,
      "taf_trigger": false,
      "metar": "METAR LFMN 022230Z 33009KT CAVOK 08/M03 Q0999 WS R04R WS R04L TEMPO 25015KT",
      "taf": "TAF LFMN 022000Z 0221/0403 33010KT CAVOK"
    },
    {
      "icao": "LFOB",
      "alert": "OK",
      "vis_m": 9999,
      "fzfg": false,
      "metar_trigger": false,
      "taf_trigger": false,
      "metar": "METAR LFOB 022230Z AUTO 26003KT 9999 FEW032 M03/M04 Q1009",
      "taf": ""
    },
    {
      "icao": "LFPO",
      "alert": "OK",
      "vis_m": 9999,
      "fzfg": false,
      "metar_trigger": false,
      "taf_trigger": false,
      "metar": "METAR LFPO 022230Z AUTO 28006KT CAVOK M01/M02 Q1010",
      "taf": "TAF LFPO 021700Z 0218/0324 28005KT CAVOK"
    },
    {
      "icao": "LFSB",
      "alert": "OK",
      "vis_m": 9999,
      "fzfg": false,
      "metar_trigger": false,
      "taf_trigger": false,
      "metar": "METAR LFSB 022230Z AUTO 26011KT 9999 BKN056 BKN066 OVC078 01/M01 Q1007 NOSIG",
      "taf": ""
    },
    {
      "icao": "LGAV",
      "alert": "OK",
      "vis_m": 9999,
      "fzfg": false,
      "metar_trigger": false,
      "taf_trigger": false,
      "metar": "METAR LGAV 022220Z 24005KT 9999 FEW025 10/04 Q1018 NOSIG",
      "taf": "TAF LGAV 021700Z 0218/0318 23013KT 9999 FEW025"
    },
    {
      "icao": "LGTS",
      "alert": "OK",
      "vis_m": 9999,
      "fzfg": false,
      "metar_trigger": false,
      "taf_trigger": false,
      "metar": "METAR LGTS 022220Z VRB02KT 9999 FEW025 02/00 Q1014 NOSIG",
      "taf": "TAF LGTS 021700Z 0218/0318 VRB03KT 9999 FEW030"
    },
    {
      "icao": "LHBP",
      "alert": "OK",
      "vis_m": 9999,
      "fzfg": false,
      "metar_trigger": false,
      "taf_trigger": false,
      "metar": "METAR LHBP 022230Z 19004KT CAVOK 02/M04 Q1001 NOSIG",
      "taf": "TAF LHBP 021715Z 0218/0318 27005KT CAVOK"
    },
    {
      "icao": "LHDC",
      "alert": "OK",
      "vis_m": 9999,
      "fzfg": false,
      "metar_trigger": false,
      "taf_trigger": false,
      "metar": "METAR LHDC 022215Z AUTO 22006KT 9999 FEW003 00/M00 Q1002",
      "taf": "TAF LHDC 021415Z 0215/0224 19013KT 9999 SCT040 BKN080"
    },
    {
      "icao": "LIBD",
      "alert": "OK",
      "vis_m": 9999,
      "fzfg": false,
      "metar_trigger": false,
      "taf_trigger": false,
      "metar": "METAR LIBD 022220Z 16003KT CAVOK 10/05 Q1007",
      "taf": "TAF LIBD 021700Z 0218/0318 23011KT 9999 SCT040"
    },
    {
      "icao": "LIBG",
      "alert": "OK",
      "vis_m": null,
      "fzfg": false,
      "metar_trigger": false,
      "taf_trigger": false,
      "metar": "",
      "taf": "TAF LIBG 021700Z 0218/0303 22012KT CAVOK"
    },
    {
      "icao": "LIBP",
      "alert": "OK",
      "vis_m": 9999,
      "fzfg": false,
      "metar_trigger": false,
      "taf_trigger": false,
      "metar": "METAR LIBP 022220Z AUTO 24015G25KT 9999 NCD 15/03 Q1002",
      "taf": "TAF LIBP 021700Z 0218/0318 23018G30KT 9999 FEW040"
    },
    {
      "icao": "LIBR",
      "alert": "OK",
      "vis_m": 9999,
      "fzfg": false,
      "metar_trigger": false,
      "taf_trigger": false,
      "metar": "METAR LIBR 022220Z 18008KT CAVOK 12/09 Q1009",
      "taf": "TAF LIBR 021700Z 0218/0318 21015KT 9999 FEW040"
    },
    {
      "icao": "LICA",
      "alert": "OK",
      "vis_m": 9999,
      "fzfg": false,
      "metar_trigger": false,
      "taf_trigger": false,
      "metar": "METAR LICA 022220Z AUTO 11003KT 010V160 9999 NCD 09/06 Q1012",
      "taf": "TAF LICA 021700Z 0218/0318 08006KT 9999 SCT040"
    },
    {
      "icao": "LICC",
      "alert": "OK",
      "vis_m": 9999,
      "fzfg": false,
      "metar_trigger": false,
      "taf_trigger": false,
      "metar": "METAR LICC 022220Z 26013KT 9999 FEW030 BKN050 14/10 Q1013",
      "taf": "TAF LICC 021700Z 0218/0318 25014KT 9999 SCT050"
    },
    {
      "icao": "LICJ",
      "alert": "OK",
      "vis_m": 9999,
      "fzfg": false,
      "metar_trigger": false,
      "taf_trigger": false,
      "metar": "METAR LICJ 022220Z 19020KT CAVOK 16/08 Q1010",
      "taf": "TAF LICJ 021700Z 0218/0318 20020G40KT 9999 FEW040"
    },
    {
      "icao": "LIMC",
      "alert": "OK",
      "vis_m": 9999,
      "fzfg": false,
      "metar_trigger": false,
      "taf_trigger": false,
      "metar": "METAR LIMC 022220Z 03003KT CAVOK M01/M02 Q1001 NOSIG",
      "taf": "TAF LIMC 021700Z 0218/0324 VRB04KT 7000 FEW050"
    },
    {
      "icao": "LIME",
      "alert": "OK",
      "vis_m": 350,
      "fzfg": false,
      "metar_trigger": false,
      "taf_trigger": false,
      "metar": "METAR LIME 022220Z VRB01KT 0350 R28/P2000N FG VV002 01/01 Q1001 NOSIG",
      "taf": "TAF LIME 021700Z 0218/0318 VRB04KT 5000 BR NSC"
    },
    {
      "icao": "LIMF",
      "alert": "OK",
      "vis_m": 9999,
      "fzfg": false,
      "metar_trigger": false,
      "taf_trigger": false,
      "metar": "METAR LIMF 022220Z VRB02KT CAVOK M00/M04 Q1000",
      "taf": "TAF LIMF 021700Z 0218/0318 VRB04KT CAVOK"
    },
    {
      "icao": "LIMJ",
      "alert": "OK",
      "vis_m": 9999,
      "fzfg": false,
      "metar_trigger": false,
      "taf_trigger": false,
      "metar": "METAR LIMJ 022220Z 12012KT 9999 SCT030 13/07 Q0999",
      "taf": "TAF LIMJ 021700Z 0218/0318 14016KT 9999 SCT030"
    },
    {
      "icao": "LIPE",
      "alert": "OK",
      "vis_m": 50,
      "fzfg": false,
      "metar_trigger": false,
      "taf_trigger": false,
      "metar": "METAR LIPE 022220Z 25005KT 0050 R12/0300N R30/0275N FG VV001 02/02 Q1001",
      "taf": ""
    },
    {
      "icao": "LIPH",
      "alert": "OK",
      "vis_m": 9000,
      "fzfg": false,
      "metar_trigger": false,
      "taf_trigger": false,
      "metar": "METAR LIPH 022220Z AUTO VRB01KT 9000 BKN048/// 01/M01 Q1001",
      "taf": "TAF LIPH 021700Z 0218/0318 VRB04KT 9999 SCT040"
    },
    {
      "icao": "LIPQ",
      "alert": "OK",
      "vis_m": 9999,
      "fzfg": false,
      "metar_trigger": false,
      "taf_trigger": false,
      "metar": "METAR LIPQ 022220Z AUTO 01003KT 9999 BKN016/// 05/02 Q1000",
      "taf": "TAF LIPQ 021700Z 0218/0318 VRB05KT 9999 BKN040"
    },
    {
      "icao": "LIPR",
      "alert": "OK",
      "vis_m": 9999,
      "fzfg": false,
      "metar_trigger": false,
      "taf_trigger": false,
      "metar": "METAR LIPR 022220Z AUTO 35004KT 230V030 9999 FEW076/// 04/02 Q1000",
      "taf": ""
    },
    {
      "icao": "LIPX",
      "alert": "OK",
      "vis_m": 4000,
      "fzfg": false,
      "metar_trigger": false,
      "taf_trigger": false,
      "metar": "METAR LIPX 022220Z VRB01KT 4000 BR BKN045 00/M00 Q1001",
      "taf": "TAF LIPX 021700Z 0218/0318 VRB04KT 2000 BR BKN003"
    },
    {
      "icao": "LIPY",
      "alert": "OK",
      "vis_m": 9999,
      "fzfg": false,
      "metar_trigger": false,
      "taf_trigger": false,
      "metar": "METAR LIPY 022220Z AUTO 18003KT 120V220 9999 FEW060/// 12/04 Q1001",
      "taf": "TAF LIPY 021700Z 0218/0318 22010KT 9999 SCT040"
    },
    {
      "icao": "LIPZ",
      "alert": "OK",
      "vis_m": 8000,
      "fzfg": false,
      "metar_trigger": false,
      "taf_trigger": false,
      "metar": "METAR LIPZ 022220Z 34004KT 310V010 8000 BKN050 01/M01 Q1001 NOSIG",
      "taf": "TAF LIPZ 021700Z 0218/0324 VRB05KT 9999 BKN050"
    },
    {
      "icao": "LIRF",
      "alert": "OK",
      "vis_m": 9999,
      "fzfg": false,
      "metar_trigger": false,
      "taf_trigger": false,
      "metar": "METAR LIRF 022220Z 23014KT 9999 FEW035 14/08 Q1006 NOSIG",
      "taf": "TAF LIRF 021700Z 0218/0324 23015KT 9999 RA SCT040"
    },
    {
      "icao": "LIRN",
      "alert": "OK",
      "vis_m": 9999,
      "fzfg": false,
      "metar_trigger": false,
      "taf_trigger": false,
      "metar": "METAR LIRN 022220Z 22013KT 9999 FEW030 14/09 Q1008 NOSIG",
      "taf": "TAF LIRN 021700Z 0218/0318 23013KT 9999 FEW030 SCT050"
    },
    {
      "icao": "LIRP",
      "alert": "OK",
      "vis_m": 9999,
      "fzfg": false,
      "metar_trigger": false,
      "taf_trigger": false,
      "metar": "METAR LIRP 022215Z 23015KT 9999 BKN030 12/07 Q1002 NOSIG",
      "taf": "TAF LIRP 021700Z 0218/0318 23012KT 9999 BKN030"
    },
    {
      "icao": "LIRZ",
      "alert": "OK",
      "vis_m": 9999,
      "fzfg": false,
      "metar_trigger": false,
      "taf_trigger": false,
      "metar": "METAR LIRZ 022220Z AUTO 19007KT 9999 FEW022/// 10/08 Q1003",
      "taf": "TAF LIRZ 021700Z 0218/0318 20013KT 9999 FEW020 SCT040"
    },
    {
      "icao": "LJLJ",
      "alert": "OK",
      "vis_m": 9999,
      "fzfg": false,
      "metar_trigger": false,
      "taf_trigger": false,
      "metar": "METAR LJLJ 022230Z 29004KT 9999 FEW013 BKN033 OVC045 01/01 Q0999 NOSIG",
      "taf": "TAF LJLJ 021700Z 0218/0318 30004KT 9999 BKN035"
    },
    {
      "icao": "LKMT",
      "alert": "OK",
      "vis_m": 9999,
      "fzfg": false,
      "metar_trigger": false,
      "taf_trigger": false,
      "metar": "METAR LKMT 022230Z 22021KT CAVOK M00/M05 Q0996 NOSIG",
      "taf": "TAF LKMT 021700Z 0218/0318 22016KT 9999 SCT030"
    },
    {
      "icao": "LKPR",
      "alert": "OK",
      "vis_m": 9999,
      "fzfg": false,
      "metar_trigger": false,
      "taf_trigger": false,
      "metar": "METAR LKPR 022230Z 22020KT CAVOK M02/M05 Q0995 NOSIG",
      "taf": "TAF LKPR 022000Z 0221/0403 23017KT 9999 SCT035"
    },
    {
      "icao": "LLBG",
      "alert": "OK",
      "vis_m": 9999,
      "fzfg": false,
      "metar_trigger": false,
      "taf_trigger": false,
      "metar": "METAR LLBG 022220Z VRB02KT 9999 BKN040 12/08 Q1024 NOSIG",
      "taf": "TAF LLBG 021703Z 0218/0318 14006KT 9999 SCT040"
    },
    {
      "icao": "LMML",
      "alert": "OK",
      "vis_m": 9999,
      "fzfg": false,
      "metar_trigger": false,
      "taf_trigger": false,
      "metar": "METAR LMML 022245Z 22016KT 9999 FEW034 15/09 Q1016 NOSIG",
      "taf": "TAF LMML 021700Z 0218/0318 22020KT 9999 FEW020"
    },
    {
      "icao": "LOWW",
      "alert": "OK",
      "vis_m": 9999,
      "fzfg": false,
      "metar_trigger": false,
      "taf_trigger": false,
      "metar": "METAR LOWW 022220Z 24008KT CAVOK 02/M05 Q1000 NOSIG",
      "taf": ""
    },
    {
      "icao": "LPFR",
      "alert": "OK",
      "vis_m": 7000,
      "fzfg": false,
      "metar_trigger": false,
      "taf_trigger": false,
      "metar": "METAR LPFR 022230Z 16021KT 7000 -RA SCT018 BKN040 15/13 Q1001",
      "taf": "TAF LPFR 021700Z 0218/0318 15018KT 9999 FEW020 SCT040"
    },
    {
      "icao": "LPMA",
      "alert": "OK",
      "vis_m": 9999,
      "fzfg": false,
      "metar_trigger": false,
      "taf_trigger": false,
      "metar": "METAR LPMA 022230Z VRB03KT 9999 FEW014 15/11 Q0998",
      "taf": "TAF LPMA 021700Z 0218/0318 VRB05KT 9999 SCT015"
    },
    {
      "icao": "LPPR",
      "alert": "OK",
      "vis_m": 9999,
      "fzfg": false,
      "metar_trigger": false,
      "taf_trigger": false,
      "metar": "METAR LPPR 022230Z 10007KT 060V130 9999 FEW045 14/10 Q1002",
      "taf": "TAF LPPR 021700Z 0218/0318 11012KT 9999 FEW020 BKN035"
    },
    {
      "icao": "LPPS",
      "alert": "OK",
      "vis_m": 9999,
      "fzfg": false,
      "metar_trigger": false,
      "taf_trigger": false,
      "metar": "METAR LPPS 022230Z 27017KT 9999 SCT014 FEW018CB SCT030 17/12 Q0998",
      "taf": "TAF LPPS 021700Z 0218/0324 27020KT 9999 SCT015 SCT030"
    },
    {
      "icao": "LPPT",
      "alert": "OK",
      "vis_m": 9999,
      "fzfg": false,
      "metar_trigger": false,
      "taf_trigger": false,
      "metar": "METAR LPPT 022230Z 13013KT 9999 -RA FEW020 SCT028 13/12 Q0998",
      "taf": "TAF LPPT 021700Z 0218/0324 13012KT 9999 SCT012 BKN025"
    },
    {
      "icao": "LQBK",
      "alert": "OK",
      "vis_m": 9999,
      "fzfg": false,
      "metar_trigger": false,
      "taf_trigger": false,
      "metar": "METAR LQBK 022230Z 23006KT 170V270 CAVOK 10/04 Q1000 NOSIG",
      "taf": "TAF LQBK 021700Z 0218/0318 16005KT CAVOK TX08/0218Z TNM00/0318Z"
    },
    {
      "icao": "LQSA",
      "alert": "OK",
      "vis_m": 9999,
      "fzfg": false,
      "metar_trigger": false,
      "taf_trigger": false,
      "metar": "METAR LQSA 022230Z 09004KT 020V130 9999 BKN035 05/05 Q1002",
      "taf": "TAF LQSA 021700Z 0218/0318 20005KT 9999 FEW030 BKN050 TX10/0313Z TN01/0304Z"
    },
    {
      "icao": "LQTZ",
      "alert": "OK",
      "vis_m": 9999,
      "fzfg": false,
      "metar_trigger": false,
      "taf_trigger": false,
      "metar": "METAR LQTZ 022230Z VRB03KT CAVOK 08/02 Q1000",
      "taf": "TAF LQTZ 021700Z 0218/0318 27005KT 9999 SCT040 TX10/0218Z TN00/0305Z"
    },
    {
      "icao": "LRBC",
      "alert": "OK",
      "vis_m": 9999,
      "fzfg": false,
      "metar_trigger": false,
      "taf_trigger": false,
      "metar": "METAR LRBC 022230Z 27003KT 240V300 CAVOK M02/M06 Q1000",
      "taf": "TAF LRBC 022000Z 0221/0306 VRB04KT CAVOK"
    },
    {
      "icao": "LRBS",
      "alert": "OK",
      "vis_m": 9999,
      "fzfg": false,
      "metar_trigger": false,
      "taf_trigger": false,
      "metar": "METAR LRBS 022230Z 00000KT CAVOK 01/M04 Q1005 NOSIG",
      "taf": ""
    },
    {
      "icao": "LRBV",
      "alert": "OK",
      "vis_m": 9999,
      "fzfg": false,
      "metar_trigger": false,
      "taf_trigger": false,
      "metar": "METAR LRBV 022230Z AUTO 21026KT 9999 FEW087/// 04/M00 Q1000",
      "taf": ""
    },
    {
      "icao": "LRCL",
      "alert": "OK",
      "vis_m": 1500,
      "fzfg": false,
      "metar_trigger": false,
      "taf_trigger": false,
      "metar": "METAR LRCL 022230Z VRB01KT 1500 SN BR SCT005 BKN010 OVC018 00/M00 Q1003",
      "taf": ""
    },
    {
      "icao": "LRCV",
      "alert": "OK",
      "vis_m": 9999,
      "fzfg": false,
      "metar_trigger": false,
      "taf_trigger": false,
      "metar": "METAR LRCV 022230Z 02002KT CAVOK 00/M02 Q1005",
      "taf": ""
    },
    {
      "icao": "LRIA",
      "alert": "OK",
      "vis_m": 9999,
      "fzfg": false,
      "metar_trigger": false,
      "taf_trigger": false,
      "metar": "METAR LRIA 022230Z 11007KT CAVOK 01/M03 Q1000",
      "taf": "TAF LRIA 022000Z 0221/0306 VRB04KT CAVOK"
    },
    {
      "icao": "LROP",
      "alert": "OK",
      "vis_m": 9999,
      "fzfg": false,
      "metar_trigger": false,
      "taf_trigger": false,
      "metar": "METAR LROP 022230Z VRB01KT CAVOK M01/M06 Q1005 NOSIG",
      "taf": ""
    },
    {
      "icao": "LRSB",
      "alert": "OK",
      "vis_m": 3000,
      "fzfg": false,
      "metar_trigger": false,
      "taf_trigger": false,
      "metar": "METAR LRSB 022230Z 28004KT 3000 -SN OVC006 01/01 Q1002",
      "taf": ""
    },
    {
      "icao": "LRSM",
      "alert": "OK",
      "vis_m": 9999,
      "fzfg": false,
      "metar_trigger": false,
      "taf_trigger": false,
      "metar": "METAR LRSM 022230Z AUTO 20007KT 9999 SCT100/// OVC120/// 01/M01 Q1001",
      "taf": "TAF LRSM 021100Z 0212/0221 22012KT 9999 SCT015 BKN030"
    },
    {
      "icao": "LRSV",
      "alert": "OK",
      "vis_m": 9999,
      "fzfg": false,
      "metar_trigger": false,
      "taf_trigger": false,
      "metar": "METAR LRSV 022230Z 22007KT CAVOK 03/M03 Q0999",
      "taf": "TAF LRSV 022000Z 0221/0306 23006KT 9999 SCT045"
    },
    {
      "icao": "LRTM",
      "alert": "OK",
      "vis_m": 1900,
      "fzfg": false,
      "metar_trigger": false,
      "taf_trigger": false,
      "metar": "METAR LRTM 022230Z AUTO 18001KT 1900 R25////// SN VV005 00/M00 Q1003",
      "taf": "TAF LRTM 021400Z 0215/0224 20007KT 9999 BKN040"
    },
    {
      "icao": "LRTR",
      "alert": "OK",
      "vis_m": 6000,
      "fzfg": false,
      "metar_trigger": false,
      "taf_trigger": false,
      "metar": "METAR LRTR 022230Z 03004KT 6000 -RA SCT015 OVC030 01/01 Q1003",
      "taf": "TAF LRTR 021700Z 0218/0318 19010KT 9999 -RA BKN045"
    },
    {
      "icao": "LTAC",
      "alert": "OK",
      "vis_m": 9999,
      "fzfg": false,
      "metar_trigger": false,
      "taf_trigger": false,
      "metar": "METAR LTAC 022220Z VRB02KT CAVOK M11/M14 Q1021 NOSIG RMK RWY21C 03002KT RWY03L 03002KT RWY21R 03002KT RWY03R 00000KT RWY21L 04003KT 360V070",
      "taf": "TAF LTAC 021640Z 0218/0318 VRB02KT CAVOK"
    },
    {
      "icao": "LTFM",
      "alert": "OK",
      "vis_m": 9999,
      "fzfg": false,
      "metar_trigger": false,
      "taf_trigger": false,
      "metar": "METAR LTFM 022220Z 21028KT CAVOK 08/M00 Q1014 NOSIG RMK RWY17L 20020KT RWY34L 20026KT RWY16R 20019G29KT RWY36 20022KT RWY18 20021KT",
      "taf": "TAF LTFM 021640Z 0218/0324 21023G35KT CAVOK"
    },
    {
      "icao": "LUKK",
      "alert": "OK",
      "vis_m": 9999,
      "fzfg": false,
      "metar_trigger": false,
      "taf_trigger": false,
      "metar": "METAR LUKK 022230Z 23003KT 150V280 CAVOK 04/M03 Q1001 NOSIG",
      "taf": "TAF LUKK 021711Z 0218/0318 22012KT CAVOK"
    },
    {
      "icao": "LWOH",
      "alert": "OK",
      "vis_m": null,
      "fzfg": false,
      "metar_trigger": false,
      "taf_trigger": false,
      "metar": "",
      "taf": "TAF LWOH 022035Z 0221/0321 16010KT 9999 SCT015 OVC035"
    },
    {
      "icao": "LWSK",
      "alert": "OK",
      "vis_m": 9999,
      "fzfg": false,
      "metar_trigger": false,
      "taf_trigger": false,
      "metar": "METAR LWSK 022220Z 04003KT 010V100 9999 BKN068 M02/M06 Q1010 NOSIG",
      "taf": "TAF LWSK 022035Z 0221/0321 VRB02KT 9999 SCT050 BKN070"
    },
    {
      "icao": "LYBE",
      "alert": "OK",
      "vis_m": 9999,
      "fzfg": false,
      "metar_trigger": false,
      "taf_trigger": false,
      "metar": "METAR LYBE 022230Z 09009KT CAVOK 04/01 Q1002 NOSIG",
      "taf": ""
    },
    {
      "icao": "LYNI",
      "alert": "OK",
      "vis_m": 9999,
      "fzfg": false,
      "metar_trigger": false,
      "taf_trigger": false,
      "metar": "METAR LYNI 022230Z VRB02KT 9999 BKN040 06/M02 Q1007 NOSIG",
      "taf": "TAF LYNI 021700Z 0218/0318 16009KT 9999 BKN040 TX08/0309Z TN01/0318Z"
    },
    {
      "icao": "LYPG",
      "alert": "OK",
      "vis_m": 6000,
      "fzfg": false,
      "metar_trigger": false,
      "taf_trigger": false,
      "metar": "METAR LYPG 022230Z 11002KT 6000 RA FEW030 SCT040 BKN080 06/06 Q1008 TEMPO 4000",
      "taf": "TAF LYPG 021700Z 0218/0318 36006KT 9999 FEW030 BKN040 OVC080 TX09/0313Z TN03/0218Z"
    },
    {
      "icao": "LZIB",
      "alert": "OK",
      "vis_m": 9999,
      "fzfg": false,
      "metar_trigger": false,
      "taf_trigger": false,
      "metar": "METAR LZIB 022230Z 22006KT CAVOK M00/M04 Q1000 NOSIG",
      "taf": "TAF LZIB 021715Z 0218/0318 26014KT CAVOK"
    },
    {
      "icao": "LZKZ",
      "alert": "OK",
      "vis_m": 9999,
      "fzfg": false,
      "metar_trigger": false,
      "taf_trigger": false,
      "metar": "METAR LZKZ 022230Z 24005KT 200V280 CAVOK M04/M07 Q0999 NOSIG",
      "taf": ""
    },
    {
      "icao": "LZTT",
      "alert": "OK",
      "vis_m": 9999,
      "fzfg": false,
      "metar_trigger": false,
      "taf_trigger": false,
      "metar": "METAR LZTT 022230Z 26012KT 9999 SCT043 M03/M09 Q0996",
      "taf": "TAF LZTT 021715Z 0218/0318 26015KT 9999 BKN030"
    },
    {
      "icao": "OEJN",
      "alert": "OK",
      "vis_m": 9999,
      "fzfg": false,
      "metar_trigger": false,
      "taf_trigger": false,
      "metar": "METAR OEJN 022200Z 34004KT CAVOK 24/17 Q1015 NOSIG",
      "taf": "TAF OEJN 021700Z 0218/0324 02008KT CAVOK"
    },
    {
      "icao": "OEMA",
      "alert": "OK",
      "vis_m": 9999,
      "fzfg": false,
      "metar_trigger": false,
      "taf_trigger": false,
      "metar": "METAR OEMA 022200Z 02005KT CAVOK 17/M04 Q1020 NOSIG",
      "taf": "TAF OEMA 021700Z 0218/0324 VRB03KT 9999 FEW040"
    },
    {
      "icao": "OJAI",
      "alert": "OK",
      "vis_m": 4000,
      "fzfg": false,
      "metar_trigger": false,
      "taf_trigger": false,
      "metar": "METAR OJAI 022200Z 03002KT 4000 BR NSC 04/03 Q1025 NOSIG",
      "taf": "TAF OJAI 021648Z 0218/0324 26008KT 4000 BR FEW040"
    },
    {
      "icao": "OMAA",
      "alert": "OK",
      "vis_m": 9999,
      "fzfg": false,
      "metar_trigger": false,
      "taf_trigger": false,
      "metar": "METAR OMAA 022200Z 27002KT CAVOK 17/15 Q1019 NOSIG",
      "taf": "TAF OMAA 021700Z 0218/0400 VRB02KT 8000 NSC"
    },
    {
      "icao": "OMDB",
      "alert": "OK",
      "vis_m": 9000,
      "fzfg": false,
      "metar_trigger": false,
      "taf_trigger": false,
      "metar": "METAR OMDB 022230Z 17004KT 9000 NSC 19/15 Q1019 NOSIG",
      "taf": "TAF OMDB 021700Z 0218/0400 19005KT 8000 NSC"
    },
    {
      "icao": "UAAA",
      "alert": "CRITICAL",
      "vis_m": 100,
      "fzfg": true,
      "metar_trigger": true,
      "taf_trigger": false,
      "metar": "METAR UAAA 022230Z 00000MPS 0100 R23L/0450N FZFG VV001 M02/M03 Q1020 NOSIG RMK QBB050",
      "taf": ""
    },
    {
      "icao": "UBBB",
      "alert": "OK",
      "vis_m": 9999,
      "fzfg": false,
      "metar_trigger": false,
      "taf_trigger": false,
      "metar": "METAR UBBB 022230Z 00000KT CAVOK 01/M00 Q1030 NOSIG",
      "taf": "TAF UBBB 021659Z 0218/0318 34008KT 9999 SCT012 FEW030CB BKN030 TX07/0310Z TN00/0302Z"
    },
    {
      "icao": "UDSG",
      "alert": "OK",
      "vis_m": 9999,
      "fzfg": false,
      "metar_trigger": false,
      "taf_trigger": false,
      "metar": "METAR UDSG 022230Z 09005KT 9999 NSC M28/M31 Q1025 NOSIG",
      "taf": "TAF UDSG 021658Z 0218/0318 VRB06KT 9999 FEW040"
    },
    {
      "icao": "UDYZ",
      "alert": "OK",
      "vis_m": 5000,
      "fzfg": false,
      "metar_trigger": false,
      "taf_trigger": false,
      "metar": "METAR UDYZ 022230Z 02003KT 350V070 5000 BR NSC M12/M17 Q1027 NOSIG",
      "taf": ""
    },
    {
      "icao": "UGKO",
      "alert": "OK",
      "vis_m": 9999,
      "fzfg": false,
      "metar_trigger": false,
      "taf_trigger": false,
      "metar": "METAR UGKO 022230Z 09018KT CAVOK 00/M08 Q1023 NOSIG",
      "taf": "TAF UGKO 021700Z 0218/0318 08017KT CAVOK TX05/0311Z TNM04/0303Z"
    }
  ]
}