{
  "ts_utc": "2026-02-25T20:58:02Z",
  "threshold_m": 150,
  "source": "stations_override.txt (ICAO list) + aviationweather.gov (METAR/TAF raw)",
  "station_count": 159,
  "stations": [
    {
      "icao": "BIKF",
      "alert": "OK",
      "vis_m": 9999,
      "fzfg": false,
      "metar_trigger": false,
      "taf_trigger": false,
      "metar": "METAR BIKF 252030Z 17024KT 9999 VCSH FEW014 BKN020 BKN033 03/M01 Q0990",
      "taf": "TAF BIKF 251949Z 2521/2621 16025G38KT 9999 -SHRA SCT015 BKN025 TX06/2607Z TNM02/2619Z"
    },
    {
      "icao": "BKPR",
      "alert": "OK",
      "vis_m": null,
      "fzfg": false,
      "metar_trigger": false,
      "taf_trigger": false,
      "metar": "",
      "taf": "TAF BKPR 251730Z 2518/2618 33008KT CAVOK"
    },
    {
      "icao": "EBCI",
      "alert": "OK",
      "vis_m": 9999,
      "fzfg": false,
      "metar_trigger": false,
      "taf_trigger": false,
      "metar": "METAR EBCI 252050Z 17010KT CAVOK 12/09 Q1020 NOSIG",
      "taf": "TAF EBCI 251700Z 2518/2624 18007KT CAVOK"
    },
    {
      "icao": "EDDB",
      "alert": "OK",
      "vis_m": 9999,
      "fzfg": false,
      "metar_trigger": false,
      "taf_trigger": false,
      "metar": "METAR EDDB 252050Z AUTO 13008KT CAVOK 04/03 Q1025 NOSIG",
      "taf": "TAF EDDB 251700Z 2518/2618 11006KT CAVOK"
    },
    {
      "icao": "EDDH",
      "alert": "OK",
      "vis_m": 9999,
      "fzfg": false,
      "metar_trigger": false,
      "taf_trigger": false,
      "metar": "METAR EDDH 252050Z AUTO 15009KT CAVOK 10/08 Q1020 NOSIG",
      "taf": "TAF EDDH 251700Z 2518/2624 15007KT CAVOK"
    },
    {
      "icao": "EDDK",
      "alert": "OK",
      "vis_m": 9999,
      "fzfg": false,
      "metar_trigger": false,
      "taf_trigger": false,
      "metar": "METAR EDDK 252050Z AUTO 12007KT CAVOK 11/08 Q1021 NOSIG",
      "taf": "TAF EDDK 251700Z 2518/2624 12008KT CAVOK"
    },
    {
      "icao": "EDDN",
      "alert": "OK",
      "vis_m": 9999,
      "fzfg": false,
      "metar_trigger": false,
      "taf_trigger": false,
      "metar": "METAR EDDN 252050Z AUTO 11008KT 9999 OVC007 07/05 Q1025 NOSIG",
      "taf": ""
    },
    {
      "icao": "EDDS",
      "alert": "OK",
      "vis_m": 9999,
      "fzfg": false,
      "metar_trigger": false,
      "taf_trigger": false,
      "metar": "METAR EDDS 252050Z AUTO 11002KT CAVOK 07/06 Q1022 NOSIG",
      "taf": "TAF EDDS 251700Z 2518/2618 VRB03KT CAVOK"
    },
    {
      "icao": "EDFH",
      "alert": "OK",
      "vis_m": 6000,
      "fzfg": false,
      "metar_trigger": false,
      "taf_trigger": false,
      "metar": "METAR EDFH 252050Z 13012KT 6000 NSC 08/07 Q1022",
      "taf": "TAF EDFH 251700Z 2518/2618 14010KT CAVOK"
    },
    {
      "icao": "EDJA",
      "alert": "OK",
      "vis_m": null,
      "fzfg": false,
      "metar_trigger": false,
      "taf_trigger": false,
      "metar": "",
      "taf": ""
    },
    {
      "icao": "EDLW",
      "alert": "OK",
      "vis_m": 9999,
      "fzfg": false,
      "metar_trigger": false,
      "taf_trigger": false,
      "metar": "METAR EDLW 252050Z 16013KT CAVOK 12/07 Q1020",
      "taf": "TAF EDLW 251700Z 2518/2618 16008KT CAVOK"
    },
    {
      "icao": "EDNY",
      "alert": "OK",
      "vis_m": 9999,
      "fzfg": false,
      "metar_trigger": false,
      "taf_trigger": false,
      "metar": "METAR EDNY 252050Z 05003KT CAVOK 04/03 Q1024",
      "taf": "TAF EDNY 251700Z 2518/2603 VRB02KT CAVOK"
    },
    {
      "icao": "EDSB",
      "alert": "OK",
      "vis_m": 450,
      "fzfg": false,
      "metar_trigger": false,
      "taf_trigger": false,
      "metar": "METAR EDSB 252050Z 20004KT 0450 R21/0600N FG VV/// 09/08 Q1023",
      "taf": ""
    },
    {
      "icao": "EETN",
      "alert": "OK",
      "vis_m": 9999,
      "fzfg": false,
      "metar_trigger": false,
      "taf_trigger": false,
      "metar": "METAR EETN 252050Z 18008KT CAVOK M03/M10 Q1026 NOSIG",
      "taf": "TAF EETN 251730Z 2518/2618 18010KT CAVOK"
    },
    {
      "icao": "EFTU",
      "alert": "OK",
      "vis_m": 9999,
      "fzfg": false,
      "metar_trigger": false,
      "taf_trigger": false,
      "metar": "METAR EFTU 252050Z AUTO 19008KT 150V230 CAVOK M03/M04 Q1022",
      "taf": "TAF EFTU 252036Z 2521/2621 19012G22KT 9999 BKN040"
    },
    {
      "icao": "EGBB",
      "alert": "OK",
      "vis_m": 9999,
      "fzfg": false,
      "metar_trigger": false,
      "taf_trigger": false,
      "metar": "METAR EGBB 252050Z 18007KT 150V210 9999 BKN033 13/09 Q1014",
      "taf": "TAF EGBB 251652Z 2518/2618 20010KT 9999 SCT030"
    },
    {
      "icao": "EGGP",
      "alert": "OK",
      "vis_m": 5000,
      "fzfg": false,
      "metar_trigger": false,
      "taf_trigger": false,
      "metar": "METAR EGGP 252050Z 20008KT 5000 -RA BKN024 BKN035 11/10 Q1012",
      "taf": "TAF EGGP 251657Z 2518/2618 22012KT 9999 SCT025"
    },
    {
      "icao": "EGGW",
      "alert": "OK",
      "vis_m": 9999,
      "fzfg": false,
      "metar_trigger": false,
      "taf_trigger": false,
      "metar": "METAR EGGW 252050Z AUTO 20006KT 9999 NCD 10/08 Q1016",
      "taf": "TAF EGGW 251701Z 2518/2618 22009KT 9999 SCT018"
    },
    {
      "icao": "EGKK",
      "alert": "OK",
      "vis_m": 9999,
      "fzfg": false,
      "metar_trigger": false,
      "taf_trigger": false,
      "metar": "METAR EGKK 252050Z 22002KT CAVOK 09/08 Q1017",
      "taf": "TAF EGKK 251655Z 2518/2624 20004KT CAVOK"
    },
    {
      "icao": "EGNM",
      "alert": "OK",
      "vis_m": 9999,
      "fzfg": false,
      "metar_trigger": false,
      "taf_trigger": false,
      "metar": "METAR EGNM 252050Z 20011KT 170V240 9999 BKN020 12/09 Q1010",
      "taf": "TAF EGNM 251656Z 2518/2618 21011KT 9999 SCT020"
    },
    {
      "icao": "EGPD",
      "alert": "OK",
      "vis_m": 9999,
      "fzfg": false,
      "metar_trigger": false,
      "taf_trigger": false,
      "metar": "METAR EGPD 252050Z COR AUTO 22008KT 9999 SCT033 11/08 Q1004 NOSIG",
      "taf": "TAF EGPD 251659Z 2518/2618 19009KT 9999 FEW018"
    },
    {
      "icao": "EGPF",
      "alert": "OK",
      "vis_m": 9999,
      "fzfg": false,
      "metar_trigger": false,
      "taf_trigger": false,
      "metar": "METAR EGPF 252050Z AUTO 22011KT 9999 SCT007/// BKN021/// BKN025/// //////TCU 10/10 Q1006",
      "taf": "TAF EGPF 251700Z 2518/2618 19007KT 9999 SCT025"
    },
    {
      "icao": "EHBK",
      "alert": "OK",
      "vis_m": 9999,
      "fzfg": false,
      "metar_trigger": false,
      "taf_trigger": false,
      "metar": "METAR EHBK 252025Z AUTO 20008KT 9999 NSC 11/07 Q1019 NOSIG",
      "taf": "TAF EHBK 251720Z 2518/2624 15005KT CAVOK"
    },
    {
      "icao": "EHEH",
      "alert": "OK",
      "vis_m": 9999,
      "fzfg": false,
      "metar_trigger": false,
      "taf_trigger": false,
      "metar": "METAR EHEH 252025Z AUTO 17007KT 9999 NCD 13/09 Q1019 BLU NOSIG RMK TREND REMOTE BY EHWX",
      "taf": "TAF EHEH 251757Z 2518/2624 16005KT CAVOK"
    },
    {
      "icao": "EKBI",
      "alert": "OK",
      "vis_m": 6000,
      "fzfg": false,
      "metar_trigger": false,
      "taf_trigger": false,
      "metar": "METAR EKBI 252050Z AUTO 13007KT 6000 NCD 05/05 Q1017",
      "taf": "TAF EKBI 252027Z 2521/2621 13008KT 7000 BKN020"
    },
    {
      "icao": "EKCH",
      "alert": "OK",
      "vis_m": 3500,
      "fzfg": false,
      "metar_trigger": false,
      "taf_trigger": false,
      "metar": "METAR EKCH 252050Z 16011KT 3500 BR OVC003 01/01 Q1022 TEMPO 2000",
      "taf": "TAF EKCH 252027Z 2521/2621 13012KT 9999 SCT006 BKN030"
    },
    {
      "icao": "ENAL",
      "alert": "OK",
      "vis_m": 9999,
      "fzfg": false,
      "metar_trigger": false,
      "taf_trigger": false,
      "metar": "METAR ENAL 252050Z 14008KT 9999 -RA FEW030 BKN037 06/05 Q1004",
      "taf": "TAF ENAL 252000Z 2521/2606 14007KT 9999 -RA FEW020 BKN030"
    },
    {
      "icao": "ENBR",
      "alert": "OK",
      "vis_m": 9000,
      "fzfg": false,
      "metar_trigger": false,
      "taf_trigger": false,
      "metar": "METAR ENBR 252050Z 16015KT 9000 RA FEW003 BKN007 06/05 Q1006 RMK WIND 1200FT 16025KTWIND RWY 35 16013KT",
      "taf": "TAF ENBR 251700Z 2518/2618 16018KT 8000 -RADZ SCT004 BKN008"
    },
    {
      "icao": "ENGM",
      "alert": "OK",
      "vis_m": 7000,
      "fzfg": false,
      "metar_trigger": false,
      "taf_trigger": false,
      "metar": "METAR ENGM 252050Z 20008KT 7000 OVC004 M00/M01 Q1013 REFZDZ TEMPO 4500 -FZDZ BR",
      "taf": "TAF ENGM 251700Z 2518/2618 19008KT 4000 BKN003"
    },
    {
      "icao": "ENHD",
      "alert": "OK",
      "vis_m": 9999,
      "fzfg": false,
      "metar_trigger": false,
      "taf_trigger": false,
      "metar": "METAR ENHD 252050Z 16016KT 9999 -SHRA FEW003 SCT004 OVC006 06/04 Q1008 RERA",
      "taf": "TAF ENHD 251400Z 2515/2523 16018KT 9999 SCT006 BKN012"
    },
    {
      "icao": "ENTC",
      "alert": "OK",
      "vis_m": 9999,
      "fzfg": false,
      "metar_trigger": false,
      "taf_trigger": false,
      "metar": "METAR ENTC 252050Z 19016KT 9999 FEW068 M04/M12 Q1003 TEMPO DRSN RMK WIND 2600FT 17019KT",
      "taf": "TAF ENTC 251700Z 2518/2618 20025KT CAVOK"
    },
    {
      "icao": "ENTO",
      "alert": "OK",
      "vis_m": 1600,
      "fzfg": false,
      "metar_trigger": false,
      "taf_trigger": false,
      "metar": "METAR ENTO 252050Z 18011KT 1600 DZ VV003 01/01 Q1014 NOSIG",
      "taf": ""
    },
    {
      "icao": "ENVA",
      "alert": "OK",
      "vis_m": 9999,
      "fzfg": false,
      "metar_trigger": false,
      "taf_trigger": false,
      "metar": "METAR ENVA 252050Z 10006KT 9999 -DZRA BKN031 OVC038 03/01 Q1007 RMK WIND 670FT 15015KT",
      "taf": "TAF ENVA 251700Z 2518/2618 09007KT 9999 -DZRA FEW020 BKN040"
    },
    {
      "icao": "ENZV",
      "alert": "OK",
      "vis_m": 9999,
      "fzfg": false,
      "metar_trigger": false,
      "taf_trigger": false,
      "metar": "METAR ENZV 252050Z 16015KT 9999 OVC009 06/04 Q1009",
      "taf": ""
    },
    {
      "icao": "EPGD",
      "alert": "OK",
      "vis_m": 9999,
      "fzfg": false,
      "metar_trigger": false,
      "taf_trigger": false,
      "metar": "METAR EPGD 252030Z 15005KT CAVOK M02/M04 Q1027",
      "taf": "TAF EPGD 251730Z 2518/2618 VRB02KT CAVOK"
    },
    {
      "icao": "EPKK",
      "alert": "OK",
      "vis_m": 9999,
      "fzfg": false,
      "metar_trigger": false,
      "taf_trigger": false,
      "metar": "METAR EPKK 252030Z 07001KT CAVOK M02/M05 Q1028",
      "taf": "TAF EPKK 252030Z 2521/2621 VRB02KT CAVOK"
    },
    {
      "icao": "EPKT",
      "alert": "OK",
      "vis_m": 2300,
      "fzfg": false,
      "metar_trigger": false,
      "taf_trigger": false,
      "metar": "METAR EPKT 252030Z VRB01KT 2300 0200N BCFG BR NSC M04/M04 Q1027",
      "taf": ""
    },
    {
      "icao": "EPLB",
      "alert": "OK",
      "vis_m": 9999,
      "fzfg": false,
      "metar_trigger": false,
      "taf_trigger": false,
      "metar": "METAR EPLB 252030Z 02004KT 9999 OVC018 M01/M04 Q1028",
      "taf": "TAF EPLB 251730Z 2518/2618 02010KT 9999 BKN020"
    },
    {
      "icao": "EPMO",
      "alert": "OK",
      "vis_m": 9999,
      "fzfg": false,
      "metar_trigger": false,
      "taf_trigger": false,
      "metar": "METAR EPMO 252030Z 05004KT 340V110 9999 BKN019 M01/M04 Q1029",
      "taf": "TAF EPMO 251730Z 2518/2618 03004KT 9999 SCT025"
    },
    {
      "icao": "EPPO",
      "alert": "OK",
      "vis_m": 9999,
      "fzfg": false,
      "metar_trigger": false,
      "taf_trigger": false,
      "metar": "METAR EPPO 252030Z 13007KT CAVOK 00/M03 Q1027",
      "taf": "TAF EPPO 251730Z 2518/2618 14005KT CAVOK"
    },
    {
      "icao": "EPRA",
      "alert": "OK",
      "vis_m": 9999,
      "fzfg": false,
      "metar_trigger": false,
      "taf_trigger": false,
      "metar": "METAR EPRA 252030Z 05004KT 9999 BKN026 M00/M04 Q1028",
      "taf": "TAF EPRA 252030Z 2521/2606 08005KT 9999 BKN035"
    },
    {
      "icao": "EPRZ",
      "alert": "OK",
      "vis_m": 9999,
      "fzfg": false,
      "metar_trigger": false,
      "taf_trigger": false,
      "metar": "METAR EPRZ 252030Z 03008KT 9999 OVC033 01/M03 Q1028",
      "taf": "TAF EPRZ 251730Z 2518/2618 36010KT 9999 BKN040"
    },
    {
      "icao": "EPSC",
      "alert": "OK",
      "vis_m": 9999,
      "fzfg": false,
      "metar_trigger": false,
      "taf_trigger": false,
      "metar": "METAR EPSC 252030Z 13011KT CAVOK 02/M00 Q1025",
      "taf": "TAF EPSC 251730Z 2518/2618 13006KT CAVOK"
    },
    {
      "icao": "EPSY",
      "alert": "OK",
      "vis_m": 9999,
      "fzfg": false,
      "metar_trigger": false,
      "taf_trigger": false,
      "metar": "METAR EPSY 252030Z 00000KT 9999 SCT022 M04/M05 Q1029",
      "taf": "TAF EPSY 252030Z 2521/2606 17005KT 9999 BKN025"
    },
    {
      "icao": "EPWA",
      "alert": "OK",
      "vis_m": 9999,
      "fzfg": false,
      "metar_trigger": false,
      "taf_trigger": false,
      "metar": "METAR EPWA 252030Z 07004KT 020V100 9999 BKN022 M00/M04 Q1029 NOSIG",
      "taf": "TAF EPWA 252030Z 2521/2621 VRB03KT 9999 BKN021"
    },
    {
      "icao": "EPWR",
      "alert": "OK",
      "vis_m": 9999,
      "fzfg": false,
      "metar_trigger": false,
      "taf_trigger": false,
      "metar": "METAR EPWR 252030Z 13006KT 9999 BKN018 01/00 Q1027",
      "taf": "TAF EPWR 252030Z 2521/2621 13005KT CAVOK"
    },
    {
      "icao": "ESGG",
      "alert": "OK",
      "vis_m": 550,
      "fzfg": false,
      "metar_trigger": false,
      "taf_trigger": false,
      "metar": "METAR ESGG 252050Z 18014KT 0550 R03/1800N R21/1700N FG VV003 01/01 Q1018",
      "taf": "TAF ESGG 252030Z 2521/2621 18013KT 3000 BR OVC004"
    },
    {
      "icao": "ESKN",
      "alert": "OK",
      "vis_m": 9999,
      "fzfg": false,
      "metar_trigger": false,
      "taf_trigger": false,
      "metar": "METAR ESKN 252050Z 17007KT 9999 OVC017 00/M02 Q1020",
      "taf": "TAF ESKN 252030Z 2521/2621 18008KT 9999 FEW012 BKN018"
    },
    {
      "icao": "ESMS",
      "alert": "OK",
      "vis_m": 5000,
      "fzfg": false,
      "metar_trigger": false,
      "taf_trigger": false,
      "metar": "METAR ESMS 252050Z 14010KT 5000 BR OVC005 01/01 Q1022",
      "taf": "TAF ESMS 252027Z 2521/2621 13010KT 9999 FEW005 BKN020"
    },
    {
      "icao": "ESSA",
      "alert": "OK",
      "vis_m": null,
      "fzfg": false,
      "metar_trigger": false,
      "taf_trigger": false,
      "metar": "",
      "taf": "TAF ESSA 252030Z 2521/2621 18015KT 9999 -SN SCT014 BKN015"
    },
    {
      "icao": "EYKA",
      "alert": "OK",
      "vis_m": 9999,
      "fzfg": false,
      "metar_trigger": false,
      "taf_trigger": false,
      "metar": "METAR EYKA 252050Z 13003KT 090V190 9999 OVC017 M02/M06 Q1029",
      "taf": "TAF EYKA 251700Z 2518/2618 VRB03KT 9000 OVC015"
    },
    {
      "icao": "EYPA",
      "alert": "OK",
      "vis_m": 9999,
      "fzfg": false,
      "metar_trigger": false,
      "taf_trigger": false,
      "metar": "METAR EYPA 252050Z 16005KT CAVOK M05/M07 Q1028",
      "taf": "TAF EYPA 251700Z 2518/2618 VRB04KT 9000 NSC"
    },
    {
      "icao": "EYVI",
      "alert": "OK",
      "vis_m": 9999,
      "fzfg": false,
      "metar_trigger": false,
      "taf_trigger": false,
      "metar": "METAR EYVI 252050Z 03004KT 9999 OVC020 M02/M06 Q1028 NOSIG",
      "taf": "TAF EYVI 251700Z 2518/2618 VRB03KT 9000 OVC015"
    },
    {
      "icao": "GCFV",
      "alert": "OK",
      "vis_m": 9999,
      "fzfg": false,
      "metar_trigger": false,
      "taf_trigger": false,
      "metar": "METAR GCFV 252030Z COR 35014KT 9999 FEW035 BKN040 17/13 Q1018",
      "taf": "TAF GCFV 252000Z 2521/2621 33015KT 9999 SCT020 TX20/2614Z TN13/2606Z"
    },
    {
      "icao": "GCLP",
      "alert": "OK",
      "vis_m": 9999,
      "fzfg": false,
      "metar_trigger": false,
      "taf_trigger": false,
      "metar": "METAR GCLP 252030Z 35017KT 9999 SCT040 18/12 Q1018 WS ALL RWY NOSIG",
      "taf": "TAF GCLP 252000Z 2521/2621 36022KT 9999 SCT020 TX19/2614Z TN13/2606Z"
    },
    {
      "icao": "GCTS",
      "alert": "OK",
      "vis_m": 9999,
      "fzfg": false,
      "metar_trigger": false,
      "taf_trigger": false,
      "metar": "METAR GCTS 252030Z 28008KT 9999 BKN045 20/11 Q1018 NOSIG",
      "taf": "TAF GCTS 252000Z 2521/2621 VRB08KT 9999 FEW020 TX22/2614Z TN14/2606Z"
    },
    {
      "icao": "GMAD",
      "alert": "OK",
      "vis_m": 9999,
      "fzfg": false,
      "metar_trigger": false,
      "taf_trigger": false,
      "metar": "METAR GMAD 252030Z 21006KT CAVOK 16/15 Q1015 NOSIG",
      "taf": "TAF GMAD 251700Z 2518/2624 24012KT 9999 SCT026 BKN080"
    },
    {
      "icao": "GMMN",
      "alert": "OK",
      "vis_m": 9999,
      "fzfg": false,
      "metar_trigger": false,
      "taf_trigger": false,
      "metar": "METAR GMMN 252030Z 02004KT 350V070 CAVOK 15/12 Q1017 NOSIG",
      "taf": "TAF GMMN 251700Z 2518/2624 34006KT CAVOK"
    },
    {
      "icao": "GMMX",
      "alert": "OK",
      "vis_m": 9999,
      "fzfg": false,
      "metar_trigger": false,
      "taf_trigger": false,
      "metar": "METAR GMMX 252030Z 04003KT 350V060 9999 SCT026 SCT080 17/10 Q1017 NOSIG",
      "taf": "TAF GMMX 251700Z 2518/2624 06006KT 8000 FEW023 SCT100"
    },
    {
      "icao": "HEGN",
      "alert": "OK",
      "vis_m": 9999,
      "fzfg": false,
      "metar_trigger": false,
      "taf_trigger": false,
      "metar": "METAR HEGN 252000Z 29007KT CAVOK 17/01 Q1019 NOSIG",
      "taf": "TAF HEGN 251713Z 2518/2624 30012KT CAVOK"
    },
    {
      "icao": "HEMA",
      "alert": "OK",
      "vis_m": 9999,
      "fzfg": false,
      "metar_trigger": false,
      "taf_trigger": false,
      "metar": "METAR HEMA 252000Z 30009KT CAVOK 18/11 Q1018 NOSIG",
      "taf": "TAF HEMA 251700Z 2518/2624 36015KT CAVOK"
    },
    {
      "icao": "HESH",
      "alert": "OK",
      "vis_m": 9999,
      "fzfg": false,
      "metar_trigger": false,
      "taf_trigger": false,
      "metar": "METAR HESH 252000Z 34004KT CAVOK 19/08 Q1018 NOSIG",
      "taf": "TAF HESH 251713Z 2518/2624 14008KT CAVOK"
    },
    {
      "icao": "HESX",
      "alert": "OK",
      "vis_m": 9999,
      "fzfg": false,
      "metar_trigger": false,
      "taf_trigger": false,
      "metar": "METAR HESX 252000Z 22003KT CAVOK 14/02 Q1019 NOSIG",
      "taf": "TAF HESX 251700Z 2518/2624 27008KT CAVOK"
    },
    {
      "icao": "LATI",
      "alert": "OK",
      "vis_m": 9999,
      "fzfg": false,
      "metar_trigger": false,
      "taf_trigger": false,
      "metar": "METAR LATI 252050Z 17004KT CAVOK 06/01 Q1024 NOSIG",
      "taf": "TAF LATI 251700Z 2518/2618 34008KT CAVOK TX19/2612Z TN05/2605Z"
    },
    {
      "icao": "LBPD",
      "alert": "OK",
      "vis_m": 9999,
      "fzfg": false,
      "metar_trigger": false,
      "taf_trigger": false,
      "metar": "METAR LBPD 252030Z AUTO 28015KT 9999 FEW066/// BKN079/// OVC130/// 09/M01 Q1021",
      "taf": "TAF LBPD 251700Z 2518/2618 28014KT 9999 SCT070"
    },
    {
      "icao": "LBSF",
      "alert": "OK",
      "vis_m": 9999,
      "fzfg": false,
      "metar_trigger": false,
      "taf_trigger": false,
      "metar": "METAR LBSF 252030Z AUTO 30009KT 9999 NCD 06/M01 Q1022 NOSIG",
      "taf": "TAF LBSF 251700Z 2518/2618 29018KT 9999 SCT050"
    },
    {
      "icao": "LBWN",
      "alert": "OK",
      "vis_m": 9999,
      "fzfg": false,
      "metar_trigger": false,
      "taf_trigger": false,
      "metar": "METAR LBWN 252030Z AUTO 20004KT 9999 -RA FEW030/// SCT035/// OVC040/// 04/04 Q1021 RERA TEMPO 4000 RA",
      "taf": "TAF LBWN 251700Z 2518/2618 VRB04KT 9999 SCT030 BKN045"
    },
    {
      "icao": "LCLK",
      "alert": "OK",
      "vis_m": 9999,
      "fzfg": false,
      "metar_trigger": false,
      "taf_trigger": false,
      "metar": "METAR LCLK 252030Z 24011KT 9999 FEW030 SCT060 15/13 Q1012 NOSIG",
      "taf": "TAF LCLK 251730Z 2518/2618 23018KT 9999 FEW020TCU SCT050"
    },
    {
      "icao": "LCPH",
      "alert": "OK",
      "vis_m": 9999,
      "fzfg": false,
      "metar_trigger": false,
      "taf_trigger": false,
      "metar": "METAR LCPH 252030Z 27019KT 250V320 9999 TS FEW020 FEW025CB BKN040 17/13 Q1013 NOSIG",
      "taf": "TAF LCPH 251730Z 2518/2618 26018KT 9999 FEW018 BKN040"
    },
    {
      "icao": "LEAL",
      "alert": "OK",
      "vis_m": 9999,
      "fzfg": false,
      "metar_trigger": false,
      "taf_trigger": false,
      "metar": "METAR LEAL 252030Z 02004KT CAVOK 13/13 Q1022 NOSIG",
      "taf": "TAF LEAL 251700Z 2518/2618 08010KT 9999 FEW015 TX21/2612Z TN07/2605Z"
    },
    {
      "icao": "LEBB",
      "alert": "OK",
      "vis_m": 9999,
      "fzfg": false,
      "metar_trigger": false,
      "taf_trigger": false,
      "metar": "METAR LEBB 252030Z 09003KT CAVOK 12/08 Q1023 NOSIG",
      "taf": "TAF LEBB 251700Z 2518/2618 13008KT CAVOK TX23/2614Z TN07/2606Z"
    },
    {
      "icao": "LEBL",
      "alert": "OK",
      "vis_m": 9999,
      "fzfg": false,
      "metar_trigger": false,
      "taf_trigger": false,
      "metar": "SPECI LEBL 252052Z 06008KT 9999 BKN008 13/12 Q1024 NOSIG",
      "taf": ""
    },
    {
      "icao": "LECH",
      "alert": "OK",
      "vis_m": 5000,
      "fzfg": false,
      "metar_trigger": false,
      "taf_trigger": false,
      "metar": "METAR LECH 252030Z AUTO 35002KT 5000 BR NCD 08/07 Q1024",
      "taf": ""
    },
    {
      "icao": "LEMD",
      "alert": "OK",
      "vis_m": 9999,
      "fzfg": false,
      "metar_trigger": false,
      "taf_trigger": false,
      "metar": "METAR LEMD 252030Z 34003KT CAVOK 12/04 Q1021 NOSIG",
      "taf": "TAF LEMD 251700Z 2518/2624 VRB04KT CAVOK TX21/2615Z TN04/2607Z"
    },
    {
      "icao": "LEMG",
      "alert": "OK",
      "vis_m": 8000,
      "fzfg": false,
      "metar_trigger": false,
      "taf_trigger": false,
      "metar": "METAR LEMG 252030Z 29005KT 8000 FEW005 11/10 Q1020 NOSIG",
      "taf": "TAF LEMG 251700Z 2518/2618 13010KT 9999 FEW015 TX20/2614Z TN08/2607Z"
    },
    {
      "icao": "LEVC",
      "alert": "OK",
      "vis_m": 9999,
      "fzfg": false,
      "metar_trigger": false,
      "taf_trigger": false,
      "metar": "METAR LEVC 252030Z 06006KT 9999 OVC013 13/11 Q1024 NOSIG",
      "taf": "TAF LEVC 251700Z 2518/2618 07010KT 9999 FEW015 TX21/2612Z TN06/2605Z"
    },
    {
      "icao": "LEXJ",
      "alert": "OK",
      "vis_m": 9999,
      "fzfg": false,
      "metar_trigger": false,
      "taf_trigger": false,
      "metar": "METAR LEXJ 252030Z VRB02KT CAVOK 12/08 Q1022",
      "taf": "TAF LEXJ 252000Z 2521/2621 22009KT CAVOK TX17/2614Z TN08/2606Z"
    },
    {
      "icao": "LEZG",
      "alert": "OK",
      "vis_m": 9999,
      "fzfg": false,
      "metar_trigger": false,
      "taf_trigger": false,
      "metar": "METAR LEZG 252030Z 10005KT CAVOK 14/08 Q1021 NOSIG",
      "taf": "TAF LEZG 251700Z 2518/2618 11010KT CAVOK TX20/2615Z TN05/2606Z"
    },
    {
      "icao": "LEZL",
      "alert": "OK",
      "vis_m": 9999,
      "fzfg": false,
      "metar_trigger": false,
      "taf_trigger": false,
      "metar": "METAR LEZL 252030Z 00000KT CAVOK 16/11 Q1018 NOSIG",
      "taf": "TAF LEZL 252000Z 2521/2621 VRB02KT CAVOK TX24/2615Z TN09/2607Z"
    },
    {
      "icao": "LFBD",
      "alert": "OK",
      "vis_m": 9999,
      "fzfg": false,
      "metar_trigger": false,
      "taf_trigger": false,
      "metar": "METAR LFBD 252030Z AUTO 17007KT CAVOK 15/09 Q1020 BECMG 4000 BR",
      "taf": "TAF LFBD 251700Z 2518/2624 12010KT CAVOK TX20/2615Z TN07/2606Z"
    },
    {
      "icao": "LFLL",
      "alert": "OK",
      "vis_m": 9999,
      "fzfg": false,
      "metar_trigger": false,
      "taf_trigger": false,
      "metar": "METAR LFLL 252037Z 17012KT CAVOK 11/07 Q1023 NOSIG",
      "taf": "TAF LFLL 251700Z 2518/2624 17010KT CAVOK"
    },
    {
      "icao": "LFLS",
      "alert": "OK",
      "vis_m": 9999,
      "fzfg": false,
      "metar_trigger": false,
      "taf_trigger": false,
      "metar": "METAR LFLS 252030Z AUTO 21006KT CAVOK 10/07 Q1024",
      "taf": "TAF LFLS 251400Z 2515/2615 20010KT CAVOK"
    },
    {
      "icao": "LFMN",
      "alert": "OK",
      "vis_m": 8000,
      "fzfg": false,
      "metar_trigger": false,
      "taf_trigger": false,
      "metar": "METAR LFMN 252030Z 32007KT 8000 FEW033 12/09 Q1026 NOSIG",
      "taf": "TAF LFMN 252000Z 2521/2703 34010KT 9999 FEW030"
    },
    {
      "icao": "LFOB",
      "alert": "OK",
      "vis_m": 9999,
      "fzfg": false,
      "metar_trigger": false,
      "taf_trigger": false,
      "metar": "METAR LFOB 252030Z AUTO 11003KT CAVOK 11/09 Q1019 TEMPO 4000 BR OVC004",
      "taf": ""
    },
    {
      "icao": "LFPO",
      "alert": "OK",
      "vis_m": 9999,
      "fzfg": false,
      "metar_trigger": false,
      "taf_trigger": false,
      "metar": "METAR LFPO 252030Z 19004KT CAVOK 15/09 Q1019 NOSIG",
      "taf": "TAF LFPO 251700Z 2518/2624 17005KT CAVOK"
    },
    {
      "icao": "LFSB",
      "alert": "OK",
      "vis_m": 5000,
      "fzfg": false,
      "metar_trigger": false,
      "taf_trigger": false,
      "metar": "METAR LFSB 252030Z AUTO 30003KT 5000 0700 R15/P2000 R33/P2000 BCFG NSC 08/07 Q1023 NOSIG",
      "taf": ""
    },
    {
      "icao": "LGAV",
      "alert": "OK",
      "vis_m": 9999,
      "fzfg": false,
      "metar_trigger": false,
      "taf_trigger": false,
      "metar": "METAR LGAV 252050Z VRB03KT 9999 FEW025 06/01 Q1023 NOSIG",
      "taf": "TAF LGAV 251700Z 2518/2618 01012KT 9999 FEW020"
    },
    {
      "icao": "LGTS",
      "alert": "OK",
      "vis_m": 9999,
      "fzfg": false,
      "metar_trigger": false,
      "taf_trigger": false,
      "metar": "METAR LGTS 252050Z 26006KT 9999 FEW030 11/03 Q1022 NOSIG",
      "taf": "TAF LGTS 251700Z 2518/2618 34015KT 9999 FEW030"
    },
    {
      "icao": "LHBP",
      "alert": "OK",
      "vis_m": 9999,
      "fzfg": false,
      "metar_trigger": false,
      "taf_trigger": false,
      "metar": "METAR LHBP 252030Z 01007KT CAVOK 06/M01 Q1025 BECMG FM2100 08012KT",
      "taf": "TAF LHBP 251715Z 2518/2618 33007KT CAVOK"
    },
    {
      "icao": "LHDC",
      "alert": "OK",
      "vis_m": 9999,
      "fzfg": false,
      "metar_trigger": false,
      "taf_trigger": false,
      "metar": "METAR LHDC 252015Z AUTO 03013KT CAVOK 03/M02 Q1026",
      "taf": "TAF LHDC 251415Z 2515/2524 22007KT CAVOK"
    },
    {
      "icao": "LIBD",
      "alert": "OK",
      "vis_m": 9999,
      "fzfg": false,
      "metar_trigger": false,
      "taf_trigger": false,
      "metar": "METAR LIBD 252050Z 23005KT CAVOK 05/04 Q1025",
      "taf": "TAF LIBD 251700Z 2518/2618 25006KT CAVOK"
    },
    {
      "icao": "LIBG",
      "alert": "OK",
      "vis_m": null,
      "fzfg": false,
      "metar_trigger": false,
      "taf_trigger": false,
      "metar": "",
      "taf": "TAF LIBG 251700Z 2518/2603 35006KT CAVOK"
    },
    {
      "icao": "LIBP",
      "alert": "OK",
      "vis_m": 7000,
      "fzfg": false,
      "metar_trigger": false,
      "taf_trigger": false,
      "metar": "METAR LIBP 252050Z AUTO 22003KT 7000 NCD 08/08 Q1027",
      "taf": "TAF LIBP 251700Z 2518/2618 VRB05KT CAVOK"
    },
    {
      "icao": "LIBR",
      "alert": "OK",
      "vis_m": 9999,
      "fzfg": false,
      "metar_trigger": false,
      "taf_trigger": false,
      "metar": "METAR LIBR 252050Z 34007KT CAVOK 13/06 Q1024",
      "taf": "TAF LIBR 251700Z 2518/2618 35010KT CAVOK"
    },
    {
      "icao": "LICA",
      "alert": "OK",
      "vis_m": 7000,
      "fzfg": false,
      "metar_trigger": false,
      "taf_trigger": false,
      "metar": "METAR LICA 252050Z AUTO 06003KT 7000 NCD 09/08 Q1025",
      "taf": "TAF LICA 251700Z 2518/2618 VRB05KT 9999 FEW030"
    },
    {
      "icao": "LICC",
      "alert": "OK",
      "vis_m": 9999,
      "fzfg": false,
      "metar_trigger": false,
      "taf_trigger": false,
      "metar": "METAR LICC 252050Z VRB01KT 9999 BKN040 14/11 Q1025",
      "taf": "TAF LICC 251700Z 2518/2618 VRB05KT CAVOK"
    },
    {
      "icao": "LICJ",
      "alert": "OK",
      "vis_m": 9999,
      "fzfg": false,
      "metar_trigger": false,
      "taf_trigger": false,
      "metar": "METAR LICJ 252050Z 19003KT CAVOK 13/11 Q1025",
      "taf": "TAF LICJ 251700Z 2518/2618 08010KT CAVOK"
    },
    {
      "icao": "LIMC",
      "alert": "OK",
      "vis_m": 9999,
      "fzfg": false,
      "metar_trigger": false,
      "taf_trigger": false,
      "metar": "METAR LIMC 252050Z 35002KT CAVOK 06/05 Q1027 NOSIG",
      "taf": "TAF LIMC 251700Z 2518/2624 VRB04KT 7000 BKN030"
    },
    {
      "icao": "LIME",
      "alert": "OK",
      "vis_m": 9999,
      "fzfg": false,
      "metar_trigger": false,
      "taf_trigger": false,
      "metar": "METAR LIME 252050Z AUTO VRB01KT 9999 NCD 08/06 Q1026",
      "taf": "TAF LIME 251700Z 2518/2618 VRB05KT 8000 SCT035"
    },
    {
      "icao": "LIMF",
      "alert": "OK",
      "vis_m": 5000,
      "fzfg": false,
      "metar_trigger": false,
      "taf_trigger": false,
      "metar": "METAR LIMF 252050Z VRB02KT 5000 BR NSC 09/04 Q1027",
      "taf": "TAF LIMF 251700Z 2518/2618 VRB04KT 5000 BR BKN025"
    },
    {
      "icao": "LIMJ",
      "alert": "OK",
      "vis_m": 9999,
      "fzfg": false,
      "metar_trigger": false,
      "taf_trigger": false,
      "metar": "METAR LIMJ 252050Z 03011KT CAVOK 13/08 Q1026",
      "taf": "TAF LIMJ 251700Z 2518/2618 04012KT 9999 FEW030"
    },
    {
      "icao": "LIPE",
      "alert": "OK",
      "vis_m": 5000,
      "fzfg": false,
      "metar_trigger": false,
      "taf_trigger": false,
      "metar": "METAR LIPE 252050Z 25003KT 5000 BR BKN033 13/10 Q1026",
      "taf": "TAF LIPE 251700Z 2518/2618 VRB03KT 6000 BKN040"
    },
    {
      "icao": "LIPH",
      "alert": "OK",
      "vis_m": 6000,
      "fzfg": false,
      "metar_trigger": false,
      "taf_trigger": false,
      "metar": "METAR LIPH 252050Z VRB01KT 6000 MIFG NSC 08/08 Q1026",
      "taf": "TAF LIPH 251700Z 2518/2618 VRB04KT CAVOK"
    },
    {
      "icao": "LIPQ",
      "alert": "OK",
      "vis_m": 8000,
      "fzfg": false,
      "metar_trigger": false,
      "taf_trigger": false,
      "metar": "METAR LIPQ 252050Z AUTO 06001KT 8000 NCD 06/05 Q1026",
      "taf": "TAF LIPQ 251700Z 2518/2618 VRB04KT CAVOK"
    },
    {
      "icao": "LIPR",
      "alert": "OK",
      "vis_m": 6000,
      "fzfg": false,
      "metar_trigger": false,
      "taf_trigger": false,
      "metar": "METAR LIPR 252050Z 21002KT 6000 BKN040 12/11 Q1026",
      "taf": "TAF LIPR 251700Z 2518/2618 VRB04KT 4000 BR BKN030"
    },
    {
      "icao": "LIPX",
      "alert": "OK",
      "vis_m": 9000,
      "fzfg": false,
      "metar_trigger": false,
      "taf_trigger": false,
      "metar": "METAR LIPX 252050Z 33004KT 9000 NSC 09/07 Q1026",
      "taf": "TAF LIPX 251700Z 2518/2618 VRB05KT 8000 BKN035"
    },
    {
      "icao": "LIPY",
      "alert": "OK",
      "vis_m": 5000,
      "fzfg": false,
      "metar_trigger": false,
      "taf_trigger": false,
      "metar": "METAR LIPY 252050Z AUTO 17003KT 5000 BR FEW043/// 09/09 Q1026",
      "taf": ""
    },
    {
      "icao": "LIPZ",
      "alert": "OK",
      "vis_m": 9999,
      "fzfg": false,
      "metar_trigger": false,
      "taf_trigger": false,
      "metar": "METAR LIPZ 252050Z 22005KT CAVOK 10/09 Q1026 NOSIG",
      "taf": "TAF LIPZ 251700Z 2518/2624 VRB04KT CAVOK"
    },
    {
      "icao": "LIRF",
      "alert": "OK",
      "vis_m": 9999,
      "fzfg": false,
      "metar_trigger": false,
      "taf_trigger": false,
      "metar": "METAR LIRF 252050Z 02001KT 9999 R16L/P2000N R16R/0450D R25/P2000N R34R/P2000N MIFG NSC 11/11 Q1025 NOSIG",
      "taf": "TAF LIRF 251700Z 2518/2624 VRB05KT 9999 FEW030"
    },
    {
      "icao": "LIRN",
      "alert": "OK",
      "vis_m": 9999,
      "fzfg": false,
      "metar_trigger": false,
      "taf_trigger": false,
      "metar": "METAR LIRN 252050Z VRB01KT CAVOK 13/10 Q1025 NOSIG",
      "taf": "TAF LIRN 251700Z 2518/2618 VRB05KT CAVOK"
    },
    {
      "icao": "LIRP",
      "alert": "OK",
      "vis_m": 4000,
      "fzfg": false,
      "metar_trigger": false,
      "taf_trigger": false,
      "metar": "METAR LIRP 252045Z VRB01KT 4000 BR NSC 10/10 Q1026 TEMPO 3000",
      "taf": "TAF LIRP 251700Z 2518/2618 27006KT 9999 MIFG FEW030"
    },
    {
      "icao": "LIRZ",
      "alert": "OK",
      "vis_m": 9999,
      "fzfg": false,
      "metar_trigger": false,
      "taf_trigger": false,
      "metar": "METAR LIRZ 252050Z AUTO VRB01KT 9999 NCD 08/07 Q1026",
      "taf": "TAF LIRZ 251700Z 2518/2618 VRB05KT 8000 FEW030"
    },
    {
      "icao": "LJLJ",
      "alert": "OK",
      "vis_m": 9999,
      "fzfg": false,
      "metar_trigger": false,
      "taf_trigger": false,
      "metar": "METAR LJLJ 252030Z VRB02KT CAVOK 04/03 Q1025 NOSIG",
      "taf": "TAF LJLJ 251700Z 2518/2618 VRB02KT CAVOK"
    },
    {
      "icao": "LKMT",
      "alert": "OK",
      "vis_m": 9999,
      "fzfg": false,
      "metar_trigger": false,
      "taf_trigger": false,
      "metar": "METAR LKMT 252030Z 06006KT 9999 OVC026 04/02 Q1027 NOSIG",
      "taf": "TAF LKMT 251700Z 2518/2618 02007KT CAVOK"
    },
    {
      "icao": "LKPR",
      "alert": "OK",
      "vis_m": 9999,
      "fzfg": false,
      "metar_trigger": false,
      "taf_trigger": false,
      "metar": "METAR LKPR 252030Z 18004KT CAVOK 03/02 Q1025 NOSIG",
      "taf": "TAF LKPR 252000Z 2521/2703 17005KT CAVOK"
    },
    {
      "icao": "LLBG",
      "alert": "OK",
      "vis_m": 9999,
      "fzfg": false,
      "metar_trigger": false,
      "taf_trigger": false,
      "metar": "METAR LLBG 252050Z 15008KT CAVOK 13/08 Q1018 NOSIG",
      "taf": "TAF LLBG 251703Z 2518/2618 16007KT 9999 FEW040 TX18/2612Z TN12/2604Z"
    },
    {
      "icao": "LMML",
      "alert": "OK",
      "vis_m": 9999,
      "fzfg": false,
      "metar_trigger": false,
      "taf_trigger": false,
      "metar": "METAR LMML 252045Z 07006KT 9999 FEW015 13/12 Q1025 NOSIG",
      "taf": ""
    },
    {
      "icao": "LOWW",
      "alert": "OK",
      "vis_m": 9999,
      "fzfg": false,
      "metar_trigger": false,
      "taf_trigger": false,
      "metar": "METAR LOWW 252050Z 36005KT CAVOK 06/03 Q1026 NOSIG",
      "taf": "TAF LOWW 252015Z 2521/2703 VRB04KT CAVOK TX09/2614Z TN00/2605Z"
    },
    {
      "icao": "LPFR",
      "alert": "OK",
      "vis_m": 9999,
      "fzfg": false,
      "metar_trigger": false,
      "taf_trigger": false,
      "metar": "METAR LPFR 252030Z 08007G18KT 050V120 9999 FEW025 15/13 Q1018",
      "taf": "TAF LPFR 251700Z 2518/2618 06007KT 9999 SCT008 SCT020"
    },
    {
      "icao": "LPMA",
      "alert": "OK",
      "vis_m": 9999,
      "fzfg": false,
      "metar_trigger": false,
      "taf_trigger": false,
      "metar": "METAR LPMA 252030Z 36015G27KT 330V040 9999 BKN015 FEW018CB 15/09 Q1021",
      "taf": "TAF LPMA 251700Z 2518/2618 01015KT 9999 SCT015"
    },
    {
      "icao": "LPPR",
      "alert": "OK",
      "vis_m": 5000,
      "fzfg": false,
      "metar_trigger": false,
      "taf_trigger": false,
      "metar": "METAR LPPR 252030Z 36003KT 5000 BR NSC 11/10 Q1021",
      "taf": "TAF LPPR 251700Z 2518/2618 VRB02KT 9999 SCT030"
    },
    {
      "icao": "LPPS",
      "alert": "OK",
      "vis_m": 9999,
      "fzfg": false,
      "metar_trigger": false,
      "taf_trigger": false,
      "metar": "METAR LPPS 252030Z 36018KT 9999 FEW013 SCT030 14/11 Q1022",
      "taf": "TAF LPPS 251700Z 2518/2624 01015KT 9999 SCT015 SCT030"
    },
    {
      "icao": "LPPT",
      "alert": "OK",
      "vis_m": 9999,
      "fzfg": false,
      "metar_trigger": false,
      "taf_trigger": false,
      "metar": "METAR LPPT 252030Z 33009KT CAVOK 13/12 Q1019",
      "taf": "TAF LPPT 251700Z 2518/2624 35008KT 9999 FEW015"
    },
    {
      "icao": "LQBK",
      "alert": "OK",
      "vis_m": 9999,
      "fzfg": false,
      "metar_trigger": false,
      "taf_trigger": false,
      "metar": "METAR LQBK 252030Z 15004KT CAVOK 04/01 Q1025 NOSIG",
      "taf": "TAF LQBK 251700Z 2518/2618 17004KT CAVOK TX15/2613Z TN01/2606Z"
    },
    {
      "icao": "LQSA",
      "alert": "OK",
      "vis_m": 9999,
      "fzfg": false,
      "metar_trigger": false,
      "taf_trigger": false,
      "metar": "METAR LQSA 252030Z 00000KT CAVOK 02/00 Q1025 NOSIG",
      "taf": "TAF LQSA 251700Z 2518/2618 VRB02KT CAVOK TX15/2614Z TNM00/2606Z"
    },
    {
      "icao": "LQTZ",
      "alert": "OK",
      "vis_m": 9999,
      "fzfg": false,
      "metar_trigger": false,
      "taf_trigger": false,
      "metar": "METAR LQTZ 252030Z VRB02KT CAVOK 03/01 Q1026",
      "taf": "TAF LQTZ 251700Z 2518/2618 VRB02KT CAVOK TX14/2614Z TN01/2606Z"
    },
    {
      "icao": "LRBC",
      "alert": "OK",
      "vis_m": 9999,
      "fzfg": false,
      "metar_trigger": false,
      "taf_trigger": false,
      "metar": "METAR LRBC 252030Z 35019KT 9999 OVC015 01/M00 Q1024",
      "taf": "TAF LRBC 252000Z 2521/2606 34012KT 9999 BKN030"
    },
    {
      "icao": "LRBS",
      "alert": "OK",
      "vis_m": 9999,
      "fzfg": false,
      "metar_trigger": false,
      "taf_trigger": false,
      "metar": "METAR LRBS 252030Z VRB02KT CAVOK 02/01 Q1022 NOSIG",
      "taf": "TAF LRBS 251700Z 2518/2618 07010KT CAVOK"
    },
    {
      "icao": "LRBV",
      "alert": "OK",
      "vis_m": 9999,
      "fzfg": false,
      "metar_trigger": false,
      "taf_trigger": false,
      "metar": "METAR LRBV 252030Z 32008KT 9999 -SN BKN017 BKN028 01/M01 Q1021",
      "taf": "TAF LRBV 252000Z 2521/2606 27008KT 9999 BKN020 BKN040"
    },
    {
      "icao": "LRCL",
      "alert": "OK",
      "vis_m": 9999,
      "fzfg": false,
      "metar_trigger": false,
      "taf_trigger": false,
      "metar": "METAR LRCL 252030Z 29007KT 9999 FEW059 02/M01 Q1023",
      "taf": "TAF LRCL 252000Z 2521/2606 28008KT 9999 BKN040"
    },
    {
      "icao": "LRCV",
      "alert": "OK",
      "vis_m": 9999,
      "fzfg": false,
      "metar_trigger": false,
      "taf_trigger": false,
      "metar": "METAR LRCV 252030Z 27007KT CAVOK 05/02 Q1022",
      "taf": "TAF LRCV 252000Z 2521/2606 26008KT CAVOK"
    },
    {
      "icao": "LRIA",
      "alert": "OK",
      "vis_m": 9999,
      "fzfg": false,
      "metar_trigger": false,
      "taf_trigger": false,
      "metar": "METAR LRIA 252030Z 34014KT 9999 -SN OVC010 01/M01 Q1024 RESN",
      "taf": "TAF LRIA 252000Z 2521/2606 32013KT 9999 BKN030"
    },
    {
      "icao": "LROP",
      "alert": "OK",
      "vis_m": 8000,
      "fzfg": false,
      "metar_trigger": false,
      "taf_trigger": false,
      "metar": "METAR LROP 252030Z 02005KT 8000 NSC 02/00 Q1022 NOSIG",
      "taf": "TAF LROP 251700Z 2518/2618 07010KT CAVOK"
    },
    {
      "icao": "LRSB",
      "alert": "OK",
      "vis_m": 9999,
      "fzfg": false,
      "metar_trigger": false,
      "taf_trigger": false,
      "metar": "METAR LRSB 252030Z 32006KT 9999 FEW034 BKN055 02/01 Q1022",
      "taf": "TAF LRSB 251700Z 2518/2618 VRB04KT 9999 BKN045"
    },
    {
      "icao": "LRSM",
      "alert": "OK",
      "vis_m": 9999,
      "fzfg": false,
      "metar_trigger": false,
      "taf_trigger": false,
      "metar": "METAR LRSM 252030Z AUTO 34007KT 9999 NCD 01/M03 Q1026",
      "taf": "TAF LRSM 251400Z 2515/2524 25010KT 9999 BKN045"
    },
    {
      "icao": "LRSV",
      "alert": "OK",
      "vis_m": 9999,
      "fzfg": false,
      "metar_trigger": false,
      "taf_trigger": false,
      "metar": "METAR LRSV 252030Z 31011KT 9999 -SN BKN012 M01/M03 Q1023",
      "taf": "TAF LRSV 252000Z 2521/2606 32014KT 9999 BKN030"
    },
    {
      "icao": "LRTM",
      "alert": "OK",
      "vis_m": 9999,
      "fzfg": false,
      "metar_trigger": false,
      "taf_trigger": false,
      "metar": "METAR LRTM 252030Z AUTO 21004KT 180V240 9999 FEW020/// 01/00 Q1023",
      "taf": "TAF LRTM 251400Z 2515/2524 29010KT 9999 BKN040"
    },
    {
      "icao": "LRTR",
      "alert": "OK",
      "vis_m": 8000,
      "fzfg": false,
      "metar_trigger": false,
      "taf_trigger": false,
      "metar": "METAR LRTR 252030Z 34002KT 8000 NSC 02/02 Q1024",
      "taf": "TAF LRTR 251700Z 2518/2618 VRB03KT 9999 BKN045"
    },
    {
      "icao": "LTAC",
      "alert": "OK",
      "vis_m": 9999,
      "fzfg": false,
      "metar_trigger": false,
      "taf_trigger": false,
      "metar": "METAR LTAC 252050Z VRB02KT 9999 SCT040 SCT100 01/M03 Q1016 NOSIG",
      "taf": "TAF LTAC 251640Z 2518/2618 30007KT 9999 SCT040 BKN100"
    },
    {
      "icao": "LTFM",
      "alert": "OK",
      "vis_m": 9999,
      "fzfg": false,
      "metar_trigger": false,
      "taf_trigger": false,
      "metar": "METAR LTFM 252050Z 24003KT 180V300 9999 -SHRA FEW012 BKN025 06/02 Q1021 NOSIG",
      "taf": "TAF LTFM 251640Z 2518/2624 01010KT 9999 BKN032"
    },
    {
      "icao": "LUKK",
      "alert": "OK",
      "vis_m": 9999,
      "fzfg": false,
      "metar_trigger": false,
      "taf_trigger": false,
      "metar": "METAR LUKK 252030Z 35003KT 320V020 CAVOK M00/M04 Q1022 NOSIG",
      "taf": "TAF LUKK 251721Z 2518/2618 36008KT 9999 SCT025"
    },
    {
      "icao": "LWOH",
      "alert": "OK",
      "vis_m": 9999,
      "fzfg": false,
      "metar_trigger": false,
      "taf_trigger": false,
      "metar": "METAR LWOH 251950Z VRB02KT CAVOK 03/M03 Q1023",
      "taf": "TAF LWOH 252030Z 2521/2621 VRB03KT CAVOK"
    },
    {
      "icao": "LWSK",
      "alert": "OK",
      "vis_m": 9999,
      "fzfg": false,
      "metar_trigger": false,
      "taf_trigger": false,
      "metar": "METAR LWSK 252050Z 10004KT 070V140 CAVOK 03/M01 Q1024 NOSIG",
      "taf": "TAF LWSK 252030Z 2521/2621 16006KT CAVOK"
    },
    {
      "icao": "LYBE",
      "alert": "OK",
      "vis_m": 9999,
      "fzfg": false,
      "metar_trigger": false,
      "taf_trigger": false,
      "metar": "METAR LYBE 252030Z 32003KT CAVOK 06/03 Q1025 NOSIG",
      "taf": "TAF LYBE 251700Z 2518/2618 31006KT 9999 BKN040 TX10/2613Z TN00/2606Z"
    },
    {
      "icao": "LYNI",
      "alert": "OK",
      "vis_m": 9999,
      "fzfg": false,
      "metar_trigger": false,
      "taf_trigger": false,
      "metar": "METAR LYNI 252030Z 30003KT CAVOK 04/02 Q1024 NOSIG",
      "taf": "TAF LYNI 251700Z 2518/2618 03005KT 9999 BKN033 TX10/2613Z TN02/2606Z"
    },
    {
      "icao": "LYPG",
      "alert": "OK",
      "vis_m": 9999,
      "fzfg": false,
      "metar_trigger": false,
      "taf_trigger": false,
      "metar": "METAR LYPG 252030Z 35002KT CAVOK 08/M00 Q1024 NOSIG",
      "taf": "TAF LYPG 251700Z 2518/2618 VRB02KT CAVOK TX19/2613Z TN07/2521Z"
    },
    {
      "icao": "LZIB",
      "alert": "OK",
      "vis_m": 9999,
      "fzfg": false,
      "metar_trigger": false,
      "taf_trigger": false,
      "metar": "METAR LZIB 252030Z VRB03KT CAVOK 05/02 Q1026 NOSIG",
      "taf": "TAF LZIB 251715Z 2518/2618 34006KT CAVOK"
    },
    {
      "icao": "LZKZ",
      "alert": "OK",
      "vis_m": 9999,
      "fzfg": false,
      "metar_trigger": false,
      "taf_trigger": false,
      "metar": "METAR LZKZ 252030Z 35007KT CAVOK 02/M05 Q1027 NOSIG",
      "taf": "TAF LZKZ 251715Z 2518/2618 02011KT 9999 FEW040"
    },
    {
      "icao": "LZTT",
      "alert": "OK",
      "vis_m": 9999,
      "fzfg": false,
      "metar_trigger": false,
      "taf_trigger": false,
      "metar": "METAR LZTT 252030Z 16005KT 9999 SCT032 M01/M03 Q1024",
      "taf": "TAF LZTT 251715Z 2518/2618 24005KT 9999 FEW035"
    },
    {
      "icao": "OEJN",
      "alert": "OK",
      "vis_m": 9999,
      "fzfg": false,
      "metar_trigger": false,
      "taf_trigger": false,
      "metar": "METAR OEJN 252000Z 34007KT CAVOK 25/12 Q1014 NOSIG",
      "taf": "TAF OEJN 251700Z 2518/2624 02010KT CAVOK"
    },
    {
      "icao": "OEMA",
      "alert": "OK",
      "vis_m": 9999,
      "fzfg": false,
      "metar_trigger": false,
      "taf_trigger": false,
      "metar": "METAR OEMA 252000Z 35004KT CAVOK 20/M04 Q1019 NOSIG",
      "taf": "TAF OEMA 251700Z 2518/2624 08008KT CAVOK"
    },
    {
      "icao": "OJAI",
      "alert": "OK",
      "vis_m": 4000,
      "fzfg": false,
      "metar_trigger": false,
      "taf_trigger": false,
      "metar": "METAR OJAI 252000Z 24003KT 4000 HZ NSC 07/02 Q1019 NOSIG",
      "taf": "TAF OJAI 251700Z 2518/2624 28012KT 5000 HZ SCT030"
    },
    {
      "icao": "OMAA",
      "alert": "OK",
      "vis_m": 8000,
      "fzfg": false,
      "metar_trigger": false,
      "taf_trigger": false,
      "metar": "METAR OMAA 252030Z 30004KT 8000 FEW015 22/19 Q1014 TEMPO BKN014",
      "taf": "TAF OMAA 251700Z 2518/2700 31010KT 8000 FEW010"
    },
    {
      "icao": "OMDB",
      "alert": "OK",
      "vis_m": 7000,
      "fzfg": false,
      "metar_trigger": false,
      "taf_trigger": false,
      "metar": "METAR OMDB 252030Z 23004KT 7000 NSC 24/20 Q1014 NOSIG",
      "taf": "TAF OMDB 251700Z 2518/2700 20005KT 7000 NSC"
    },
    {
      "icao": "UAAA",
      "alert": "OK",
      "vis_m": 5000,
      "fzfg": false,
      "metar_trigger": false,
      "taf_trigger": false,
      "metar": "METAR UAAA 252030Z 33002MPS 300V020 5000 BR FU OVC011 M03/M05 Q1013 NOSIG",
      "taf": "TAF UAAA 251706Z 2518/2618 32002MPS 3100 BR BKN015CB OVC030 TX01/2608Z TNM07/2602Z"
    },
    {
      "icao": "UBBB",
      "alert": "OK",
      "vis_m": 9999,
      "fzfg": false,
      "metar_trigger": false,
      "taf_trigger": false,
      "metar": "METAR UBBB 252030Z 07004KT 9999 BKN010 OVC033 06/05 Q1017 NOSIG",
      "taf": "TAF UBBB 251657Z 2518/2618 VRB04KT 6000 BKN007 OVC017 TX11/2610Z TN04/2601Z"
    },
    {
      "icao": "UDSG",
      "alert": "OK",
      "vis_m": 9999,
      "fzfg": false,
      "metar_trigger": false,
      "taf_trigger": false,
      "metar": "METAR UDSG 252030Z 20001KT 9999 BKN036 02/M04 Q1015 NOSIG",
      "taf": "TAF UDSG 251658Z 2518/2618 VRB06KT 5000 BR BKN030"
    },
    {
      "icao": "UDYZ",
      "alert": "OK",
      "vis_m": 9999,
      "fzfg": false,
      "metar_trigger": false,
      "taf_trigger": false,
      "metar": "METAR UDYZ 252030Z 01004KT 9999 FEW046 03/M02 Q1015 NOSIG",
      "taf": "TAF UDYZ 251700Z 2518/2618 04006KT 9999 FEW040"
    },
    {
      "icao": "UGKO",
      "alert": "OK",
      "vis_m": 9999,
      "fzfg": false,
      "metar_trigger": false,
      "taf_trigger": false,
      "metar": "METAR UGKO 252030Z AUTO 26009KT 9999 SCT084/// 08/06 Q1015 NOSIG",
      "taf": "TAF UGKO 251700Z 2518/2618 27007KT 9999 SCT023 OVC050 TX11/2518Z TN04/2618Z"
    }
  ]
}