{
  "ts_utc": "2026-03-31T07:08:41Z",
  "threshold_m": 150,
  "source": "stations_override.txt (ICAO list) + aviationweather.gov (METAR/TAF raw)",
  "station_count": 159,
  "stations": [
    {
      "icao": "BIKF",
      "alert": "OK",
      "vis_m": 500,
      "fzfg": false,
      "metar_trigger": false,
      "taf_trigger": false,
      "metar": "METAR BIKF 310700Z 29024KT 0500 R01/1100N SN BKN003 OVC030 M00/M00 Q0999",
      "taf": "TAF BIKF 310451Z 3106/0106 32014KT 9999 -SN BKN012 TX02/3116Z TNM00/0101Z"
    },
    {
      "icao": "BKPR",
      "alert": "OK",
      "vis_m": 9999,
      "fzfg": false,
      "metar_trigger": false,
      "taf_trigger": false,
      "metar": "METAR BKPR 310700Z 01011KT 9999 BKN035 04/01 Q1009 NOSIG",
      "taf": "TAF BKPR 310530Z 3106/0106 03010KT 9999 SCT020 BKN040"
    },
    {
      "icao": "EBCI",
      "alert": "OK",
      "vis_m": 9999,
      "fzfg": false,
      "metar_trigger": false,
      "taf_trigger": false,
      "metar": "METAR EBCI 310650Z 21006KT CAVOK 03/01 Q1028 NOSIG",
      "taf": "TAF EBCI 310500Z 3106/0112 24004KT 9999 FEW030"
    },
    {
      "icao": "EDDB",
      "alert": "OK",
      "vis_m": 9999,
      "fzfg": false,
      "metar_trigger": false,
      "taf_trigger": false,
      "metar": "METAR EDDB 310650Z AUTO 28007KT 260V320 9999 BKN010 OVC038 04/03 Q1021 BECMG BKN015",
      "taf": "TAF EDDB 310500Z 3106/0106 28006KT 9999 BKN035"
    },
    {
      "icao": "EDDH",
      "alert": "OK",
      "vis_m": 9999,
      "fzfg": false,
      "metar_trigger": false,
      "taf_trigger": false,
      "metar": "METAR EDDH 310650Z AUTO 27010KT 240V310 9999 BKN013 BKN019 BKN023 06/04 Q1021 BECMG BKN015",
      "taf": "TAF EDDH 310500Z 3106/0112 27008KT 9999 BKN015"
    },
    {
      "icao": "EDDK",
      "alert": "OK",
      "vis_m": 9999,
      "fzfg": false,
      "metar_trigger": false,
      "taf_trigger": false,
      "metar": "METAR EDDK 310650Z AUTO 00000KT 9999 FEW026 BKN045 04/02 Q1027 NOSIG",
      "taf": "TAF EDDK 310500Z 3106/0112 26003KT 9999 SCT040"
    },
    {
      "icao": "EDDN",
      "alert": "OK",
      "vis_m": 9999,
      "fzfg": false,
      "metar_trigger": false,
      "taf_trigger": false,
      "metar": "METAR EDDN 310650Z AUTO 32007KT 9999 FEW017 OVC041 03/00 Q1024 TEMPO BKN012",
      "taf": "TAF EDDN 310500Z 3106/0106 31004KT 9999 SCT008 BKN040"
    },
    {
      "icao": "EDDS",
      "alert": "OK",
      "vis_m": 9999,
      "fzfg": false,
      "metar_trigger": false,
      "taf_trigger": false,
      "metar": "METAR EDDS 310650Z AUTO 33007KT 300V360 9999 OVC039 03/M00 Q1024 NOSIG",
      "taf": "TAF EDDS 310500Z 3106/0106 31007KT 9999 BKN015"
    },
    {
      "icao": "EDFH",
      "alert": "OK",
      "vis_m": 9999,
      "fzfg": false,
      "metar_trigger": false,
      "taf_trigger": false,
      "metar": "METAR EDFH 310650Z 27006KT 9999 VCSH FEW003 BKN007 BKN013TCU 02/01 Q1025",
      "taf": ""
    },
    {
      "icao": "EDJA",
      "alert": "OK",
      "vis_m": 9999,
      "fzfg": false,
      "metar_trigger": false,
      "taf_trigger": false,
      "metar": "METAR EDJA 310650Z 35007KT 9999 FEW009 SCT014 OVC036 01/M01 Q1023",
      "taf": "TAF EDJA 310500Z 3106/3115 35007KT 9999 FEW009 OVC015"
    },
    {
      "icao": "EDLW",
      "alert": "OK",
      "vis_m": 9999,
      "fzfg": false,
      "metar_trigger": false,
      "taf_trigger": false,
      "metar": "METAR EDLW 310650Z 26005KT 230V290 9999 BKN035 05/02 Q1025",
      "taf": "TAF EDLW 310500Z 3106/0106 25005KT 9999 SCT025"
    },
    {
      "icao": "EDNY",
      "alert": "OK",
      "vis_m": 9999,
      "fzfg": false,
      "metar_trigger": false,
      "taf_trigger": false,
      "metar": "METAR EDNY 310650Z VRB02KT 9999 -RASN FEW010 SCT013 OVC017 01/01 Q1024",
      "taf": "TAF EDNY 310500Z 3106/3115 36005KT 9999 SCT010 BKN020"
    },
    {
      "icao": "EDSB",
      "alert": "OK",
      "vis_m": 9999,
      "fzfg": false,
      "metar_trigger": false,
      "taf_trigger": false,
      "metar": "METAR EDSB 310650Z VRB02KT 9999 FEW029 OVC048 04/02 Q1027",
      "taf": "TAF EDSB 310500Z 3106/0106 VRB03KT 9999 BKN035"
    },
    {
      "icao": "EETN",
      "alert": "OK",
      "vis_m": 9999,
      "fzfg": false,
      "metar_trigger": false,
      "taf_trigger": false,
      "metar": "METAR EETN 310650Z 31003KT CAVOK 05/01 Q1013 NOSIG",
      "taf": "TAF EETN 310530Z 3106/0106 32005KT CAVOK"
    },
    {
      "icao": "EFTU",
      "alert": "OK",
      "vis_m": 9999,
      "fzfg": false,
      "metar_trigger": false,
      "taf_trigger": false,
      "metar": "METAR EFTU 310650Z AUTO 17003KT 9999 BKN041 01/M01 Q1013 RESG",
      "taf": "TAF EFTU 310527Z 3106/0106 13005KT CAVOK"
    },
    {
      "icao": "EGBB",
      "alert": "OK",
      "vis_m": 9999,
      "fzfg": false,
      "metar_trigger": false,
      "taf_trigger": false,
      "metar": "METAR EGBB 310650Z 28007KT 250V310 9999 BKN011 11/08 Q1029",
      "taf": "TAF EGBB 310459Z 3106/0106 28009KT 9999 SCT020"
    },
    {
      "icao": "EGGP",
      "alert": "OK",
      "vis_m": 9999,
      "fzfg": false,
      "metar_trigger": false,
      "taf_trigger": false,
      "metar": "METAR EGGP 310650Z 29010KT 9999 FEW012 SCT021 10/09 Q1029",
      "taf": "TAF EGGP 310456Z 3106/0106 29010KT 9999 SCT025"
    },
    {
      "icao": "EGGW",
      "alert": "OK",
      "vis_m": 9999,
      "fzfg": false,
      "metar_trigger": false,
      "taf_trigger": false,
      "metar": "METAR EGGW 310650Z AUTO 28011KT 9999 BKN014 BKN019 08/06 Q1029",
      "taf": "TAF EGGW 310459Z 3106/0106 28008KT 9999 SCT020"
    },
    {
      "icao": "EGKK",
      "alert": "OK",
      "vis_m": 9999,
      "fzfg": false,
      "metar_trigger": false,
      "taf_trigger": false,
      "metar": "METAR EGKK 310650Z 22004KT 180V240 9999 BKN018 09/05 Q1030",
      "taf": "TAF EGKK 310453Z 3106/0112 26006KT 9999 BKN025"
    },
    {
      "icao": "EGNM",
      "alert": "OK",
      "vis_m": 9999,
      "fzfg": false,
      "metar_trigger": false,
      "taf_trigger": false,
      "metar": "METAR EGNM 310650Z 28015KT 9999 SCT003 BKN004 09/08 Q1027",
      "taf": "TAF EGNM 310455Z 3106/0106 27009KT 9999 SCT025"
    },
    {
      "icao": "EGPD",
      "alert": "OK",
      "vis_m": 9999,
      "fzfg": false,
      "metar_trigger": false,
      "taf_trigger": false,
      "metar": "METAR EGPD 310650Z COR AUTO VRB01KT 9999 NCD 07/04 Q1022 NOSIG",
      "taf": "TAF EGPD 310455Z 3106/0106 VRB03KT 9999 SCT020"
    },
    {
      "icao": "EGPF",
      "alert": "OK",
      "vis_m": 9999,
      "fzfg": false,
      "metar_trigger": false,
      "taf_trigger": false,
      "metar": "METAR EGPF 310650Z AUTO 23010KT 9999 SCT009 BKN013 OVC020 10/09 Q1026",
      "taf": ""
    },
    {
      "icao": "EHBK",
      "alert": "OK",
      "vis_m": 9999,
      "fzfg": false,
      "metar_trigger": false,
      "taf_trigger": false,
      "metar": "METAR EHBK 310655Z AUTO 22008KT 9999 NSC 03/02 Q1027 NOSIG",
      "taf": "TAF EHBK 310513Z 3106/0112 29005KT 9999 SCT030"
    },
    {
      "icao": "EHEH",
      "alert": "OK",
      "vis_m": 9999,
      "fzfg": false,
      "metar_trigger": false,
      "taf_trigger": false,
      "metar": "METAR EHEH 310655Z AUTO 26003KT 230V290 9999 OVC078 04/03 Q1027 BLU NOSIG RMK TREND REMOTE BY EHWX",
      "taf": "TAF EHEH 310528Z 3106/0112 25003KT CAVOK"
    },
    {
      "icao": "EKBI",
      "alert": "OK",
      "vis_m": 9999,
      "fzfg": false,
      "metar_trigger": false,
      "taf_trigger": false,
      "metar": "METAR EKBI 310650Z AUTO 29014KT 9999 BKN015/// 06/04 Q1018",
      "taf": "TAF EKBI 310527Z 3106/0106 30012KT 9999 BKN012"
    },
    {
      "icao": "EKCH",
      "alert": "OK",
      "vis_m": 9999,
      "fzfg": false,
      "metar_trigger": false,
      "taf_trigger": false,
      "metar": "METAR EKCH 310650Z AUTO 26009KT 9999 OVC023/// 06/04 Q1015 NOSIG",
      "taf": "TAF EKCH 310527Z 3106/0106 26010KT 9999 SCT020"
    },
    {
      "icao": "ENAL",
      "alert": "OK",
      "vis_m": 9999,
      "fzfg": false,
      "metar_trigger": false,
      "taf_trigger": false,
      "metar": "METAR ENAL 310650Z 25009KT 9999 -DZ SCT019 BKN024 06/04 Q1015",
      "taf": "TAF ENAL 310500Z 3106/3115 22012KT 9999 BKN030"
    },
    {
      "icao": "ENBR",
      "alert": "OK",
      "vis_m": 9999,
      "fzfg": false,
      "metar_trigger": false,
      "taf_trigger": false,
      "metar": "METAR ENBR 310650Z 34004KT 300V010 9999 4500NE -RADZ FEW005 SCT008 BKN014 04/03 Q1018 BECMG BKN020 RMK WIND 1200FT 33012KT",
      "taf": ""
    },
    {
      "icao": "ENGM",
      "alert": "OK",
      "vis_m": 9999,
      "fzfg": false,
      "metar_trigger": false,
      "taf_trigger": false,
      "metar": "METAR ENGM 310650Z VRB02KT 9999 FEW010 02/M01 Q1012 NOSIG",
      "taf": "TAF ENGM 310500Z 3106/0106 02005KT 9999 FEW005"
    },
    {
      "icao": "ENHD",
      "alert": "OK",
      "vis_m": 9999,
      "fzfg": false,
      "metar_trigger": false,
      "taf_trigger": false,
      "metar": "METAR ENHD 310650Z 32010KT 9999 FEW008 SCT011 BKN014 06/04 Q1018",
      "taf": ""
    },
    {
      "icao": "ENTC",
      "alert": "OK",
      "vis_m": 9999,
      "fzfg": false,
      "metar_trigger": false,
      "taf_trigger": false,
      "metar": "METAR ENTC 310650Z 20018KT 9999 FEW032 BKN043 04/M01 Q1004 TEMPO 4000 -SHRASN BKN014 RMK WIND 2600FT 19023KT",
      "taf": ""
    },
    {
      "icao": "ENTO",
      "alert": "OK",
      "vis_m": 9999,
      "fzfg": false,
      "metar_trigger": false,
      "taf_trigger": false,
      "metar": "METAR ENTO 310650Z 34005KT CAVOK 06/M03 Q1013 NOSIG",
      "taf": "TAF ENTO 310500Z 3106/0106 35008KT CAVOK"
    },
    {
      "icao": "ENVA",
      "alert": "OK",
      "vis_m": 9999,
      "fzfg": false,
      "metar_trigger": false,
      "taf_trigger": false,
      "metar": "METAR ENVA 310650Z 08006KT 9999 FEW028 01/M02 Q1013 NOSIG RMK WIND 670FT 20007KT",
      "taf": "TAF ENVA 310500Z 3106/0106 16008KT 9999 SCT020"
    },
    {
      "icao": "ENZV",
      "alert": "OK",
      "vis_m": 9999,
      "fzfg": false,
      "metar_trigger": false,
      "taf_trigger": false,
      "metar": "METAR ENZV 310650Z 33010KT 9999 FEW012 BKN035 06/04 Q1019 NOSIG",
      "taf": ""
    },
    {
      "icao": "EPGD",
      "alert": "OK",
      "vis_m": 9999,
      "fzfg": false,
      "metar_trigger": false,
      "taf_trigger": false,
      "metar": "METAR EPGD 310700Z 30009KT 9999 BKN002 02/02 Q1016",
      "taf": "TAF EPGD 310530Z 3106/0106 29010KT 9999 OVC005"
    },
    {
      "icao": "EPKK",
      "alert": "OK",
      "vis_m": 8000,
      "fzfg": false,
      "metar_trigger": false,
      "taf_trigger": false,
      "metar": "METAR EPKK 310700Z 31006KT 8000 -RA SCT015 BKN030 04/02 Q1014",
      "taf": "TAF EPKK 310530Z 3106/0106 32009KT 5000 -RA FEW010 BKN015"
    },
    {
      "icao": "EPKT",
      "alert": "OK",
      "vis_m": 8000,
      "fzfg": false,
      "metar_trigger": false,
      "taf_trigger": false,
      "metar": "METAR EPKT 310700Z 34009KT 8000 -RA SCT005 OVC007 03/02 Q1015",
      "taf": "TAF EPKT 310530Z 3106/0106 34010KT 5000 -RA BR BKN005"
    },
    {
      "icao": "EPLB",
      "alert": "OK",
      "vis_m": 9999,
      "fzfg": false,
      "metar_trigger": false,
      "taf_trigger": false,
      "metar": "METAR EPLB 310700Z 32007KT 300V360 9999 -RA FEW034 SCT041 06/04 Q1011",
      "taf": "TAF EPLB 310530Z 3106/0106 33010KT 9999 -RA NSC"
    },
    {
      "icao": "EPMO",
      "alert": "OK",
      "vis_m": 9999,
      "fzfg": false,
      "metar_trigger": false,
      "taf_trigger": false,
      "metar": "METAR EPMO 310700Z 33012KT CAVOK 06/02 Q1014",
      "taf": "TAF EPMO 310530Z 3106/0106 33007KT CAVOK"
    },
    {
      "icao": "EPPO",
      "alert": "OK",
      "vis_m": 9000,
      "fzfg": false,
      "metar_trigger": false,
      "taf_trigger": false,
      "metar": "METAR EPPO 310700Z 30007KT 9000 BKN005 03/02 Q1018",
      "taf": "TAF EPPO 310530Z 3106/0106 32006KT 9999 BKN004"
    },
    {
      "icao": "EPRA",
      "alert": "OK",
      "vis_m": 9999,
      "fzfg": false,
      "metar_trigger": false,
      "taf_trigger": false,
      "metar": "METAR EPRA 310700Z 33010G20KT 290V350 9999 -RA BKN037 06/00 Q1013",
      "taf": "TAF EPRA 310530Z 3106/3115 34010KT 9999 BKN040"
    },
    {
      "icao": "EPRZ",
      "alert": "OK",
      "vis_m": 9999,
      "fzfg": false,
      "metar_trigger": false,
      "taf_trigger": false,
      "metar": "METAR EPRZ 310700Z 29006KT 270V330 9999 -RA BKN038 06/02 Q1011",
      "taf": "TAF EPRZ 310530Z 3106/0106 32010KT 9999 BKN048"
    },
    {
      "icao": "EPSC",
      "alert": "OK",
      "vis_m": 9999,
      "fzfg": false,
      "metar_trigger": false,
      "taf_trigger": false,
      "metar": "METAR EPSC 310700Z 24004KT 180V280 9999 FEW005 BKN006 04/03 Q1019",
      "taf": "TAF EPSC 310530Z 3106/0106 29010KT 9999 BKN018"
    },
    {
      "icao": "EPSY",
      "alert": "OK",
      "vis_m": 9999,
      "fzfg": false,
      "metar_trigger": false,
      "taf_trigger": false,
      "metar": "METAR EPSY 310700Z 34008KT 310V020 CAVOK 05/02 Q1014",
      "taf": "TAF EPSY 310530Z 3106/3115 34008KT CAVOK"
    },
    {
      "icao": "EPWA",
      "alert": "OK",
      "vis_m": 9999,
      "fzfg": false,
      "metar_trigger": false,
      "taf_trigger": false,
      "metar": "METAR EPWA 310700Z 34011KT CAVOK 07/01 Q1014 NOSIG",
      "taf": "TAF EPWA 310530Z 3106/0106 33009KT CAVOK"
    },
    {
      "icao": "EPWR",
      "alert": "OK",
      "vis_m": 9999,
      "fzfg": false,
      "metar_trigger": false,
      "taf_trigger": false,
      "metar": "METAR EPWR 310700Z 31013KT 9999 BKN012 BKN037 04/02 Q1019",
      "taf": "TAF EPWR 310530Z 3106/0106 31010KT 9999 BKN040"
    },
    {
      "icao": "ESGG",
      "alert": "OK",
      "vis_m": 9999,
      "fzfg": false,
      "metar_trigger": false,
      "taf_trigger": false,
      "metar": "METAR ESGG 310650Z 32007KT CAVOK 05/03 Q1011",
      "taf": "TAF ESGG 310530Z 3106/0106 25005KT CAVOK"
    },
    {
      "icao": "ESKN",
      "alert": "OK",
      "vis_m": 9999,
      "fzfg": false,
      "metar_trigger": false,
      "taf_trigger": false,
      "metar": "METAR ESKN 310650Z VRB03KT CAVOK 03/03 Q1012",
      "taf": "TAF ESKN 310530Z 3106/0106 22005KT 9000 NSC"
    },
    {
      "icao": "ESMS",
      "alert": "OK",
      "vis_m": 6000,
      "fzfg": false,
      "metar_trigger": false,
      "taf_trigger": false,
      "metar": "METAR ESMS 310650Z 25012KT 6000 -RA FEW008 BKN014 05/05 Q1014",
      "taf": "TAF ESMS 310527Z 3106/0106 29010KT 9999 BKN015"
    },
    {
      "icao": "ESSA",
      "alert": "OK",
      "vis_m": 9999,
      "fzfg": false,
      "metar_trigger": false,
      "taf_trigger": false,
      "metar": "METAR ESSA 310650Z 21006KT 9999 BKN007 03/02 Q1011 NOSIG",
      "taf": "TAF ESSA 310530Z 3106/0106 18008KT 9999 SCT010"
    },
    {
      "icao": "EYKA",
      "alert": "OK",
      "vis_m": 9999,
      "fzfg": false,
      "metar_trigger": false,
      "taf_trigger": false,
      "metar": "METAR EYKA 310650Z 36004KT 330V100 CAVOK 08/01 Q1012",
      "taf": "TAF EYKA 310500Z 3106/0106 VRB04KT 9000 NSC"
    },
    {
      "icao": "EYPA",
      "alert": "OK",
      "vis_m": 450,
      "fzfg": false,
      "metar_trigger": false,
      "taf_trigger": false,
      "metar": "METAR EYPA 310650Z VRB02KT 0450 R19/0500N FG OVC002 02/02 Q1015",
      "taf": ""
    },
    {
      "icao": "EYVI",
      "alert": "OK",
      "vis_m": 9999,
      "fzfg": false,
      "metar_trigger": false,
      "taf_trigger": false,
      "metar": "METAR EYVI 310650Z 34012KT 9999 -RA NSC 06/03 Q1010 NOSIG",
      "taf": "TAF EYVI 310501Z 3106/0106 35016KT 5000 RA BR SCT010 OVC025"
    },
    {
      "icao": "GCFV",
      "alert": "OK",
      "vis_m": 6000,
      "fzfg": false,
      "metar_trigger": false,
      "taf_trigger": false,
      "metar": "METAR GCFV 310700Z 05010KT 6000 NSC 18/14 Q1019",
      "taf": ""
    },
    {
      "icao": "GCLP",
      "alert": "OK",
      "vis_m": 4000,
      "fzfg": false,
      "metar_trigger": false,
      "taf_trigger": false,
      "metar": "METAR GCLP 310700Z 34011KT 4000 HZ FEW025 18/12 Q1018 NOSIG",
      "taf": "TAF GCLP 310200Z 3103/0103 35013KT 9999 FEW030 TX24/3114Z TN17/3106Z"
    },
    {
      "icao": "GCTS",
      "alert": "OK",
      "vis_m": 3200,
      "fzfg": false,
      "metar_trigger": false,
      "taf_trigger": false,
      "metar": "METAR GCTS 310700Z 07015KT 3200 HZ FEW030 18/09 Q1017 NOSIG",
      "taf": ""
    },
    {
      "icao": "GMAD",
      "alert": "OK",
      "vis_m": 6000,
      "fzfg": false,
      "metar_trigger": false,
      "taf_trigger": false,
      "metar": "METAR GMAD 310700Z 11004KT 6000 NSC 14/12 Q1019 NOSIG",
      "taf": "TAF GMAD 310500Z 3106/0112 06005KT 6000 NSC"
    },
    {
      "icao": "GMMN",
      "alert": "OK",
      "vis_m": 9999,
      "fzfg": false,
      "metar_trigger": false,
      "taf_trigger": false,
      "metar": "METAR GMMN 310700Z 10007KT CAVOK 08/04 Q1022 NOSIG",
      "taf": "TAF GMMN 310500Z 3106/0112 05006KT CAVOK"
    },
    {
      "icao": "GMMX",
      "alert": "OK",
      "vis_m": 9999,
      "fzfg": false,
      "metar_trigger": false,
      "taf_trigger": false,
      "metar": "METAR GMMX 310700Z VRB01KT CAVOK 10/05 Q1021 NOSIG",
      "taf": "TAF GMMX 310500Z 3106/0112 08006KT 8000 NSC"
    },
    {
      "icao": "HEGN",
      "alert": "OK",
      "vis_m": 9999,
      "fzfg": false,
      "metar_trigger": false,
      "taf_trigger": false,
      "metar": "METAR HEGN 310600Z 30010KT 9999 SCT025 21/05 Q1013 NOSIG",
      "taf": "TAF HEGN 310500Z 3106/0112 36010KT CAVOK"
    },
    {
      "icao": "HEMA",
      "alert": "OK",
      "vis_m": 9999,
      "fzfg": false,
      "metar_trigger": false,
      "taf_trigger": false,
      "metar": "METAR HEMA 310600Z 34014KT CAVOK 23/06 Q1013 NOSIG",
      "taf": "TAF HEMA 310500Z 3106/0112 33011KT CAVOK"
    },
    {
      "icao": "HESH",
      "alert": "OK",
      "vis_m": 9999,
      "fzfg": false,
      "metar_trigger": false,
      "taf_trigger": false,
      "metar": "METAR HESH 310600Z 35012KT CAVOK 22/09 Q1013 NOSIG",
      "taf": "TAF HESH 310500Z 3106/0112 01009KT CAVOK"
    },
    {
      "icao": "HESX",
      "alert": "OK",
      "vis_m": 9999,
      "fzfg": false,
      "metar_trigger": false,
      "taf_trigger": false,
      "metar": "METAR HESX 310600Z 10007KT CAVOK 15/10 Q1013 NOSIG",
      "taf": "TAF HESX 310500Z 3106/0112 07009KT CAVOK"
    },
    {
      "icao": "LATI",
      "alert": "OK",
      "vis_m": 9999,
      "fzfg": false,
      "metar_trigger": false,
      "taf_trigger": false,
      "metar": "METAR LATI 310650Z 00000KT 9999 SCT130 11/05 Q1006 NOSIG",
      "taf": "TAF LATI 310500Z 3106/0106 VRB05KT CAVOK TX18/3111Z TN06/0104Z"
    },
    {
      "icao": "LBPD",
      "alert": "OK",
      "vis_m": 9999,
      "fzfg": false,
      "metar_trigger": false,
      "taf_trigger": false,
      "metar": "METAR LBPD 310700Z AUTO 28012KT 9999 SCT100/// 10/04 Q1008 NOSIG",
      "taf": "TAF LBPD 310500Z 3106/0106 28012KT 9999 OVC060"
    },
    {
      "icao": "LBSF",
      "alert": "OK",
      "vis_m": 9999,
      "fzfg": false,
      "metar_trigger": false,
      "taf_trigger": false,
      "metar": "METAR LBSF 310700Z 30010KT 270V330 9999 OVC014 04/01 Q1009 TEMPO BKN010",
      "taf": "TAF LBSF 310500Z 3106/0106 28012KT 9999 SCT015 BKN030"
    },
    {
      "icao": "LBWN",
      "alert": "OK",
      "vis_m": 9999,
      "fzfg": false,
      "metar_trigger": false,
      "taf_trigger": false,
      "metar": "METAR LBWN 310700Z AUTO 29013KT 9999 BKN030/// 11/05 Q1007 NOSIG",
      "taf": "TAF LBWN 310500Z 3106/0106 27012KT 9999 BKN040"
    },
    {
      "icao": "LCLK",
      "alert": "OK",
      "vis_m": 9999,
      "fzfg": false,
      "metar_trigger": false,
      "taf_trigger": false,
      "metar": "METAR LCLK 310700Z 08007KT 9999 FEW035 18/11 Q1012 NOSIG",
      "taf": "TAF LCLK 310530Z 3106/0106 26005KT 9999 FEW025"
    },
    {
      "icao": "LCPH",
      "alert": "OK",
      "vis_m": 9999,
      "fzfg": false,
      "metar_trigger": false,
      "taf_trigger": false,
      "metar": "METAR LCPH 310700Z VRB03KT 9999 FEW030 18/11 Q1012 NOSIG",
      "taf": "TAF LCPH 310530Z 3106/0106 27006KT 9999 FEW030 SCT045"
    },
    {
      "icao": "LEAL",
      "alert": "OK",
      "vis_m": 9999,
      "fzfg": false,
      "metar_trigger": false,
      "taf_trigger": false,
      "metar": "METAR LEAL 310700Z 28005KT CAVOK 14/07 Q1020 NOSIG",
      "taf": "TAF LEAL 310500Z 3106/0106 32007KT CAVOK TX20/3112Z TN08/0105Z"
    },
    {
      "icao": "LEBB",
      "alert": "OK",
      "vis_m": 9000,
      "fzfg": false,
      "metar_trigger": false,
      "taf_trigger": false,
      "metar": "METAR LEBB 310700Z 35006KT 320V020 9000 -RA SCT019 BKN025 OVC032 11/10 Q1033 NOSIG",
      "taf": "TAF LEBB 310500Z 3106/0106 34009KT 9999 FEW015 BKN025 TX12/3110Z TN10/3107Z"
    },
    {
      "icao": "LEBL",
      "alert": "OK",
      "vis_m": 9999,
      "fzfg": false,
      "metar_trigger": false,
      "taf_trigger": false,
      "metar": "METAR LEBL 310700Z 32009KT 220V360 9999 FEW020 13/06 Q1018 NOSIG",
      "taf": "TAF LEBL 310500Z 3106/0106 VRB04KT CAVOK TX17/3112Z TN09/3106Z"
    },
    {
      "icao": "LECH",
      "alert": "OK",
      "vis_m": 9000,
      "fzfg": false,
      "metar_trigger": false,
      "taf_trigger": false,
      "metar": "METAR LECH 310700Z AUTO 33027G44KT 290V010 9000 NCD 13/02 Q1018",
      "taf": ""
    },
    {
      "icao": "LEMD",
      "alert": "OK",
      "vis_m": 9999,
      "fzfg": false,
      "metar_trigger": false,
      "taf_trigger": false,
      "metar": "METAR LEMD 310700Z 36009KT 340V050 CAVOK 10/02 Q1026 NOSIG",
      "taf": "TAF LEMD 310500Z 3106/0112 36012KT CAVOK TX20/3115Z TN06/0106Z"
    },
    {
      "icao": "LEMG",
      "alert": "OK",
      "vis_m": 9999,
      "fzfg": false,
      "metar_trigger": false,
      "taf_trigger": false,
      "metar": "METAR LEMG 310700Z 28016KT CAVOK 15/03 Q1022 NOSIG",
      "taf": "TAF LEMG 310500Z 3106/0106 29008KT CAVOK TX23/3113Z TN10/3107Z"
    },
    {
      "icao": "LEVC",
      "alert": "OK",
      "vis_m": 9999,
      "fzfg": false,
      "metar_trigger": false,
      "taf_trigger": false,
      "metar": "METAR LEVC 310700Z 30007KT 250V340 CAVOK 16/03 Q1020 NOSIG",
      "taf": "TAF LEVC 310500Z 3106/0106 VRB04KT CAVOK TX24/3112Z TN08/0105Z"
    },
    {
      "icao": "LEXJ",
      "alert": "OK",
      "vis_m": 8000,
      "fzfg": false,
      "metar_trigger": false,
      "taf_trigger": false,
      "metar": "METAR LEXJ 310700Z 30004KT 270V350 8000 SCT023 BKN046 11/08 Q1034",
      "taf": ""
    },
    {
      "icao": "LEZG",
      "alert": "OK",
      "vis_m": 9999,
      "fzfg": false,
      "metar_trigger": false,
      "taf_trigger": false,
      "metar": "METAR LEZG 310700Z 30028G39KT 9999 FEW040 11/03 Q1025 NOSIG",
      "taf": "TAF LEZG 310500Z 3106/0106 32020KT 9999 FEW045 TX17/3114Z TN09/0105Z"
    },
    {
      "icao": "LEZL",
      "alert": "OK",
      "vis_m": 9999,
      "fzfg": false,
      "metar_trigger": false,
      "taf_trigger": false,
      "metar": "METAR LEZL 310700Z 12005KT 080V150 CAVOK 10/06 Q1024 NOSIG",
      "taf": "TAF LEZL 310200Z 3103/0103 VRB02KT CAVOK TX29/3115Z TN10/3107Z"
    },
    {
      "icao": "LFBD",
      "alert": "OK",
      "vis_m": 9999,
      "fzfg": false,
      "metar_trigger": false,
      "taf_trigger": false,
      "metar": "METAR LFBD 310700Z AUTO VRB03KT CAVOK 06/05 Q1032 NOSIG",
      "taf": "TAF LFBD 310500Z 3106/0112 35005KT 9999 SCT040 TX15/3114Z TN05/3106Z"
    },
    {
      "icao": "LFLL",
      "alert": "OK",
      "vis_m": 9999,
      "fzfg": false,
      "metar_trigger": false,
      "taf_trigger": false,
      "metar": "METAR LFLL 310700Z 36018KT 9999 BKN016 05/01 Q1026 TEMPO SCT017",
      "taf": "TAF LFLL 310500Z 3106/0112 35010KT 9999 BKN040"
    },
    {
      "icao": "LFLS",
      "alert": "OK",
      "vis_m": 9999,
      "fzfg": false,
      "metar_trigger": false,
      "taf_trigger": false,
      "metar": "METAR LFLS 310700Z AUTO 34018KT 9999 FEW014 SCT076 04/01 Q1024 TEMPO 35020G30KT BKN009",
      "taf": "TAF LFLS 310200Z 3103/0103 35014KT 9999 SCT030"
    },
    {
      "icao": "LFMN",
      "alert": "OK",
      "vis_m": 9999,
      "fzfg": false,
      "metar_trigger": false,
      "taf_trigger": false,
      "metar": "METAR LFMN 310700Z 33005KT CAVOK 12/M03 Q1013 NOSIG",
      "taf": "TAF LFMN 310200Z 3103/0109 33010KT CAVOK"
    },
    {
      "icao": "LFOB",
      "alert": "OK",
      "vis_m": 9999,
      "fzfg": false,
      "metar_trigger": false,
      "taf_trigger": false,
      "metar": "METAR LFOB 310700Z AUTO 30006KT CAVOK 07/05 Q1030 NOSIG",
      "taf": "TAF LFOB 310500Z 3106/0106 32007KT 9999 SCT030"
    },
    {
      "icao": "LFPO",
      "alert": "OK",
      "vis_m": 9999,
      "fzfg": false,
      "metar_trigger": false,
      "taf_trigger": false,
      "metar": "METAR LFPO 310700Z 28004KT CAVOK 08/04 Q1030 NOSIG",
      "taf": "TAF LFPO 310500Z 3106/0112 33006KT CAVOK"
    },
    {
      "icao": "LFSB",
      "alert": "OK",
      "vis_m": 9999,
      "fzfg": false,
      "metar_trigger": false,
      "taf_trigger": false,
      "metar": "METAR LFSB 310700Z AUTO VRB02KT 9999 FEW018 OVC026 04/01 Q1026 NOSIG",
      "taf": "TAF LFSB 310500Z 3106/0106 35005KT 9999 FEW015 BKN025"
    },
    {
      "icao": "LGAV",
      "alert": "OK",
      "vis_m": 9999,
      "fzfg": false,
      "metar_trigger": false,
      "taf_trigger": false,
      "metar": "METAR LGAV 310650Z VRB01KT 9999 SCT025 BKN060 13/09 Q1007 NOSIG",
      "taf": "TAF LGAV 310500Z 3106/0106 VRB05KT 9999 FEW025"
    },
    {
      "icao": "LGTS",
      "alert": "OK",
      "vis_m": 9999,
      "fzfg": false,
      "metar_trigger": false,
      "taf_trigger": false,
      "metar": "METAR LGTS 310650Z VRB02KT 9999 SCT020 13/09 Q1007 NOSIG",
      "taf": "TAF LGTS 310500Z 3106/0106 VRB03KT 9999 SCT025"
    },
    {
      "icao": "LHBP",
      "alert": "OK",
      "vis_m": 9999,
      "fzfg": false,
      "metar_trigger": false,
      "taf_trigger": false,
      "metar": "METAR LHBP 310700Z 35008KT 9999 OVC012 05/03 Q1011 NOSIG",
      "taf": "TAF LHBP 310515Z 3106/0106 33008KT 9999 SCT020 OVC040"
    },
    {
      "icao": "LHDC",
      "alert": "OK",
      "vis_m": 9000,
      "fzfg": false,
      "metar_trigger": false,
      "taf_trigger": false,
      "metar": "METAR LHDC 310645Z AUTO 02004KT 340V050 9000 OVC010 06/04 Q1010 TEMPO BKN009",
      "taf": "TAF LHDC 310515Z 3106/3115 02008KT 9999 OVC020"
    },
    {
      "icao": "LIBD",
      "alert": "OK",
      "vis_m": 7000,
      "fzfg": false,
      "metar_trigger": false,
      "taf_trigger": false,
      "metar": "METAR LIBD 310650Z 25004KT 200V290 7000 -RA OVC012 08/07 Q1004",
      "taf": "TAF LIBD 310500Z 3106/0106 34008KT 9999 SCT030"
    },
    {
      "icao": "LIBG",
      "alert": "OK",
      "vis_m": 9999,
      "fzfg": false,
      "metar_trigger": false,
      "taf_trigger": false,
      "metar": "METAR LIBG 310650Z 05008KT 9999 SCT020 11/11 Q1003",
      "taf": "TAF LIBG 310615Z 3107/3115 04010KT 9999 SCT020"
    },
    {
      "icao": "LIBP",
      "alert": "OK",
      "vis_m": 9999,
      "fzfg": false,
      "metar_trigger": false,
      "taf_trigger": false,
      "metar": "METAR LIBP 310650Z AUTO 01011KT 330V040 9999 RA OVC026/// 09/06 Q1008",
      "taf": "TAF LIBP 310500Z 3106/0106 34015KT 9999 SCT030"
    },
    {
      "icao": "LIBR",
      "alert": "OK",
      "vis_m": 6000,
      "fzfg": false,
      "metar_trigger": false,
      "taf_trigger": false,
      "metar": "METAR LIBR 310650Z 08011KT 6000 VCSH SCT010 BKN020 11/09 Q1004",
      "taf": "TAF LIBR 310500Z 3106/0106 14014KT 9999 BKN030"
    },
    {
      "icao": "LICA",
      "alert": "OK",
      "vis_m": 9999,
      "fzfg": false,
      "metar_trigger": false,
      "taf_trigger": false,
      "metar": "METAR LICA 310650Z AUTO 07009KT 9999 NCD 11/09 Q1002",
      "taf": "TAF LICA 310500Z 3106/0106 08013KT 9999 SCT020"
    },
    {
      "icao": "LICC",
      "alert": "OK",
      "vis_m": 8000,
      "fzfg": false,
      "metar_trigger": false,
      "taf_trigger": false,
      "metar": "METAR LICC 310650Z 26003KT 230V290 8000 -DZ SCT040 BKN070 10/07 Q1002",
      "taf": "TAF LICC 310500Z 3106/0106 26005KT 9999 SCT040"
    },
    {
      "icao": "LICJ",
      "alert": "OK",
      "vis_m": 6000,
      "fzfg": false,
      "metar_trigger": false,
      "taf_trigger": false,
      "metar": "METAR LICJ 310650Z 31012KT 280V340 6000 RA FEW007 SCT017 11/08 Q0999",
      "taf": "TAF LICJ 310500Z 3106/0106 21015KT 9999 SCT030"
    },
    {
      "icao": "LIMC",
      "alert": "OK",
      "vis_m": 9999,
      "fzfg": false,
      "metar_trigger": false,
      "taf_trigger": false,
      "metar": "METAR LIMC 310650Z 34013KT CAVOK 09/M04 Q1016 NOSIG",
      "taf": "TAF LIMC 310500Z 3106/0112 01011KT CAVOK"
    },
    {
      "icao": "LIME",
      "alert": "OK",
      "vis_m": 9999,
      "fzfg": false,
      "metar_trigger": false,
      "taf_trigger": false,
      "metar": "METAR LIME 310650Z VRB02KT 9999 FEW050 10/M08 Q1014 BECMG 03010KT",
      "taf": "TAF LIME 310500Z 3106/0106 01014KT 9999 SCT040"
    },
    {
      "icao": "LIMF",
      "alert": "OK",
      "vis_m": 9999,
      "fzfg": false,
      "metar_trigger": false,
      "taf_trigger": false,
      "metar": "METAR LIMF 310650Z 29003KT CAVOK 06/M02 Q1016",
      "taf": "TAF LIMF 310500Z 3106/0106 VRB05KT CAVOK"
    },
    {
      "icao": "LIMJ",
      "alert": "OK",
      "vis_m": 9999,
      "fzfg": false,
      "metar_trigger": false,
      "taf_trigger": false,
      "metar": "METAR LIMJ 310650Z 03013KT 360V060 CAVOK 11/M06 Q1014",
      "taf": "TAF LIMJ 310500Z 3106/0106 02016KT CAVOK"
    },
    {
      "icao": "LIPE",
      "alert": "OK",
      "vis_m": 9999,
      "fzfg": false,
      "metar_trigger": false,
      "taf_trigger": false,
      "metar": "METAR LIPE 310650Z 27008KT CAVOK 08/05 Q1013",
      "taf": ""
    },
    {
      "icao": "LIPH",
      "alert": "OK",
      "vis_m": 9999,
      "fzfg": false,
      "metar_trigger": false,
      "taf_trigger": false,
      "metar": "METAR LIPH 310650Z VRB01KT CAVOK 08/01 Q1013",
      "taf": "TAF LIPH 310500Z 3106/0106 VRB06KT 9999 SCT040"
    },
    {
      "icao": "LIPQ",
      "alert": "OK",
      "vis_m": 9999,
      "fzfg": false,
      "metar_trigger": false,
      "taf_trigger": false,
      "metar": "METAR LIPQ 310650Z AUTO VRB02KT 9999 NCD 06/01 Q1013",
      "taf": ""
    },
    {
      "icao": "LIPR",
      "alert": "OK",
      "vis_m": 9999,
      "fzfg": false,
      "metar_trigger": false,
      "taf_trigger": false,
      "metar": "METAR LIPR 310650Z 05011KT 9999 FEW040 BKN070 11/00 Q1012",
      "taf": "TAF LIPR 310500Z 3106/0106 03007KT 9999 BKN070"
    },
    {
      "icao": "LIPX",
      "alert": "OK",
      "vis_m": 9999,
      "fzfg": false,
      "metar_trigger": false,
      "taf_trigger": false,
      "metar": "METAR LIPX 310650Z 35012KT 320V020 CAVOK 12/M11 Q1013",
      "taf": "TAF LIPX 310500Z 3106/0106 04015KT CAVOK"
    },
    {
      "icao": "LIPY",
      "alert": "OK",
      "vis_m": 9999,
      "fzfg": false,
      "metar_trigger": false,
      "taf_trigger": false,
      "metar": "METAR LIPY 310650Z AUTO 03018KT 9999 FEW041/// 11/03 Q1010",
      "taf": "TAF LIPY 310500Z 3106/0106 03015KT 9999 SCT040"
    },
    {
      "icao": "LIPZ",
      "alert": "OK",
      "vis_m": 9999,
      "fzfg": false,
      "metar_trigger": false,
      "taf_trigger": false,
      "metar": "METAR LIPZ 310650Z 35004KT CAVOK 09/01 Q1013 NOSIG",
      "taf": "TAF LIPZ 310500Z 3106/0112 03008KT 9999 SCT040"
    },
    {
      "icao": "LIRF",
      "alert": "OK",
      "vis_m": 9999,
      "fzfg": false,
      "metar_trigger": false,
      "taf_trigger": false,
      "metar": "METAR LIRF 310650Z 01017KT CAVOK 10/02 Q1004 NOSIG",
      "taf": "TAF LIRF 310500Z 3106/0112 01015KT 9999 SCT040"
    },
    {
      "icao": "LIRN",
      "alert": "OK",
      "vis_m": 9999,
      "fzfg": false,
      "metar_trigger": false,
      "taf_trigger": false,
      "metar": "METAR LIRN 310650Z 05007KT 9999 FEW030 BKN070 09/04 Q1002 NOSIG",
      "taf": "TAF LIRN 310500Z 3106/0106 04012KT 9999 SCT040"
    },
    {
      "icao": "LIRP",
      "alert": "OK",
      "vis_m": 9999,
      "fzfg": false,
      "metar_trigger": false,
      "taf_trigger": false,
      "metar": "METAR LIRP 310645Z VRB02KT CAVOK 08/03 Q1012 NOSIG",
      "taf": "TAF LIRP 310500Z 3106/0106 05005KT 9999 SCT080"
    },
    {
      "icao": "LIRZ",
      "alert": "OK",
      "vis_m": 9999,
      "fzfg": false,
      "metar_trigger": false,
      "taf_trigger": false,
      "metar": "METAR LIRZ 310650Z AUTO 03021KT 9999 FEW110/// 09/01 Q1007",
      "taf": "TAF LIRZ 310500Z 3106/0106 03010KT 9999 SCT030"
    },
    {
      "icao": "LJLJ",
      "alert": "OK",
      "vis_m": 9999,
      "fzfg": true,
      "metar_trigger": false,
      "taf_trigger": false,
      "metar": "METAR LJLJ 310700Z VRB02KT 9999 FEW002 SCT160 03/02 Q1013 NOSIG",
      "taf": "TAF LJLJ 310500Z 3106/0106 VRB02KT 0800 FZFG BKN001"
    },
    {
      "icao": "LKMT",
      "alert": "OK",
      "vis_m": 7000,
      "fzfg": false,
      "metar_trigger": false,
      "taf_trigger": false,
      "metar": "METAR LKMT 310700Z 01009KT 7000 -RA BKN008 OVC024 04/03 Q1016 NOSIG",
      "taf": "TAF LKMT 310500Z 3106/0106 02008KT 9999 -RA BKN017 OVC035"
    },
    {
      "icao": "LKPR",
      "alert": "OK",
      "vis_m": 9999,
      "fzfg": false,
      "metar_trigger": false,
      "taf_trigger": false,
      "metar": "METAR LKPR 310700Z 32011KT 9999 SCT012 BKN037 03/01 Q1020 NOSIG",
      "taf": "TAF LKPR 310500Z 3106/0112 30007KT 9999 SCT018 BKN020"
    },
    {
      "icao": "LLBG",
      "alert": "OK",
      "vis_m": 9999,
      "fzfg": false,
      "metar_trigger": false,
      "taf_trigger": false,
      "metar": "METAR LLBG 310650Z 21008KT 9999 SCT025 18/12 Q1014 NOSIG",
      "taf": "TAF LLBG 310501Z 3106/0106 VRB04KT 9999 SCT035 TX21/3112Z TN13/0101Z"
    },
    {
      "icao": "LMML",
      "alert": "OK",
      "vis_m": 9999,
      "fzfg": false,
      "metar_trigger": false,
      "taf_trigger": false,
      "metar": "METAR LMML 310645Z 23016G26KT 190V260 9999 -SHRA SCT020TCU 13/09 Q1004 NOSIG",
      "taf": "TAF LMML 310500Z 3106/0106 25012KT 9999 SCT022"
    },
    {
      "icao": "LOWW",
      "alert": "OK",
      "vis_m": 9999,
      "fzfg": false,
      "metar_trigger": false,
      "taf_trigger": false,
      "metar": "METAR LOWW 310650Z 33016KT 9999 -RA FEW010 BKN015 04/02 Q1016 NOSIG",
      "taf": "TAF LOWW 310515Z 3106/0112 32015KT 9999 BKN030 TX11/0112Z TN04/0104Z"
    },
    {
      "icao": "LPFR",
      "alert": "OK",
      "vis_m": 9999,
      "fzfg": false,
      "metar_trigger": false,
      "taf_trigger": false,
      "metar": "METAR LPFR 310700Z 01003KT 340V050 CAVOK 15/07 Q1024",
      "taf": "TAF LPFR 310500Z 3106/0106 VRB05KT CAVOK"
    },
    {
      "icao": "LPMA",
      "alert": "OK",
      "vis_m": 9999,
      "fzfg": false,
      "metar_trigger": false,
      "taf_trigger": false,
      "metar": "METAR LPMA 310700Z 01014KT 340V040 9999 SCT015 16/10 Q1024",
      "taf": "TAF LPMA 310500Z 3106/0106 01015KT 9999 SCT015"
    },
    {
      "icao": "LPPR",
      "alert": "OK",
      "vis_m": 9999,
      "fzfg": false,
      "metar_trigger": false,
      "taf_trigger": false,
      "metar": "METAR LPPR 310700Z 07005KT 320V110 CAVOK 11/08 Q1029",
      "taf": "TAF LPPR 310500Z 3106/0106 04005KT CAVOK"
    },
    {
      "icao": "LPPS",
      "alert": "OK",
      "vis_m": 9999,
      "fzfg": false,
      "metar_trigger": false,
      "taf_trigger": false,
      "metar": "METAR LPPS 310700Z 08018KT 9999 FEW015 15/10 Q1024",
      "taf": "TAF LPPS 310500Z 3106/0112 08015KT 9999 SCT015"
    },
    {
      "icao": "LPPT",
      "alert": "OK",
      "vis_m": 9999,
      "fzfg": false,
      "metar_trigger": false,
      "taf_trigger": false,
      "metar": "METAR LPPT 310700Z 03005KT CAVOK 14/07 Q1026",
      "taf": "TAF LPPT 310500Z 3106/0112 03005KT CAVOK"
    },
    {
      "icao": "LQBK",
      "alert": "OK",
      "vis_m": 9999,
      "fzfg": false,
      "metar_trigger": false,
      "taf_trigger": false,
      "metar": "METAR LQBK 310700Z VRB02KT 9999 BKN030 05/02 Q1013 NOSIG",
      "taf": "TAF LQBK 310500Z 3106/0106 36005KT 9999 SCT015 OVC030 TX06/3114Z TN03/3106Z"
    },
    {
      "icao": "LQSA",
      "alert": "OK",
      "vis_m": 5000,
      "fzfg": false,
      "metar_trigger": false,
      "taf_trigger": false,
      "metar": "METAR LQSA 310700Z 29004KT 5000 RA SCT004 BKN010 OVC022 02/01 Q1011 NOSIG",
      "taf": "TAF LQSA 310500Z 3106/0106 30007KT 7000 -RA SCT015 BKN030 TX07/3113Z TN01/0105Z"
    },
    {
      "icao": "LQTZ",
      "alert": "OK",
      "vis_m": 700,
      "fzfg": false,
      "metar_trigger": false,
      "taf_trigger": false,
      "metar": "METAR LQTZ 310700Z 33002KT 0700 R09/1100U FG FEW002 OVC009 02/02 Q1013",
      "taf": "TAF LQTZ 310500Z 3106/0106 28005KT 9999 SCT012 BKN025 TX07/3113Z TN01/3106Z"
    },
    {
      "icao": "LRBC",
      "alert": "OK",
      "vis_m": 9999,
      "fzfg": false,
      "metar_trigger": false,
      "taf_trigger": false,
      "metar": "METAR LRBC 310700Z VRB01KT 9999 -RA BKN012 OVC037 09/07 Q1006",
      "taf": "TAF LRBC 310500Z 3106/3115 33007KT 9999 OVC040"
    },
    {
      "icao": "LRBS",
      "alert": "OK",
      "vis_m": 9999,
      "fzfg": false,
      "metar_trigger": false,
      "taf_trigger": false,
      "metar": "METAR LRBS 310700Z 25007KT 9999 OVC007 06/05 Q1007 BECMG BKN010 BKN025",
      "taf": "TAF LRBS 310500Z 3106/0106 25008KT 9999 BKN010 BKN035"
    },
    {
      "icao": "LRBV",
      "alert": "OK",
      "vis_m": 9999,
      "fzfg": false,
      "metar_trigger": false,
      "taf_trigger": false,
      "metar": "METAR LRBV 310700Z 30008KT 9999 -RADZ SCT008 BKN014 OVC027 06/04 Q1007",
      "taf": "TAF LRBV 310500Z 3106/3115 29010KT 9999 BKN020 BKN035"
    },
    {
      "icao": "LRCL",
      "alert": "OK",
      "vis_m": 9999,
      "fzfg": false,
      "metar_trigger": false,
      "taf_trigger": false,
      "metar": "METAR LRCL 310700Z 31003KT 9999 -RA FEW012 OVC027 07/04 Q1008",
      "taf": "TAF LRCL 310500Z 3106/3115 31006KT 9999 BKN020 BKN035"
    },
    {
      "icao": "LRCV",
      "alert": "OK",
      "vis_m": 9999,
      "fzfg": false,
      "metar_trigger": false,
      "taf_trigger": false,
      "metar": "METAR LRCV 310700Z 25011KT 9999 OVC027 07/03 Q1007",
      "taf": "TAF LRCV 310500Z 3106/3115 25012KT 9999 BKN025"
    },
    {
      "icao": "LRIA",
      "alert": "OK",
      "vis_m": 4400,
      "fzfg": false,
      "metar_trigger": false,
      "taf_trigger": false,
      "metar": "METAR LRIA 310700Z 30011KT 4400 -RA BR OVC005 08/07 Q1005",
      "taf": "TAF LRIA 310500Z 3106/3115 30012KT 5000 -RA BR BKN015 OVC040"
    },
    {
      "icao": "LROP",
      "alert": "OK",
      "vis_m": 9000,
      "fzfg": false,
      "metar_trigger": false,
      "taf_trigger": false,
      "metar": "METAR LROP 310700Z 24007KT 9000 BKN007 BKN029 07/07 Q1007 NOSIG",
      "taf": "TAF LROP 310500Z 3106/0106 23008KT 9999 SCT020 OVC045"
    },
    {
      "icao": "LRSB",
      "alert": "OK",
      "vis_m": 9999,
      "fzfg": false,
      "metar_trigger": false,
      "taf_trigger": false,
      "metar": "METAR LRSB 310700Z 30003KT 250V360 9999 -RA FEW012 OVC030 07/03 Q1008",
      "taf": "TAF LRSB 310500Z 3106/0106 30006KT 9999 SCT010 OVC035"
    },
    {
      "icao": "LRSM",
      "alert": "OK",
      "vis_m": 5000,
      "fzfg": false,
      "metar_trigger": false,
      "taf_trigger": false,
      "metar": "METAR LRSM 310700Z 25007KT 5000 -RA BR SCT005 OVC008 06/05 Q1009",
      "taf": "TAF LRSM 310500Z 3106/3115 25008KT 5000 -RADZ BR BKN005 OVC015"
    },
    {
      "icao": "LRSV",
      "alert": "OK",
      "vis_m": 8000,
      "fzfg": false,
      "metar_trigger": false,
      "taf_trigger": false,
      "metar": "METAR LRSV 310700Z 30012KT 8000 -RA SCT008 SCT033 BKN044 06/05 Q1005",
      "taf": "TAF LRSV 310500Z 3106/3115 32012KT 9999 OVC040"
    },
    {
      "icao": "LRTM",
      "alert": "OK",
      "vis_m": 7000,
      "fzfg": false,
      "metar_trigger": false,
      "taf_trigger": false,
      "metar": "METAR LRTM 310700Z COR 25007KT 7000 -RA FEW007 BKN012 OVC021 07/06 Q1008",
      "taf": "TAF LRTM 310500Z 3106/3115 23008KT 9999 BKN010 OVC025"
    },
    {
      "icao": "LRTR",
      "alert": "OK",
      "vis_m": 9999,
      "fzfg": false,
      "metar_trigger": false,
      "taf_trigger": false,
      "metar": "METAR LRTR 310700Z 26004KT 9999 SCT006 SCT017 OVC034 06/06 Q1011 NOSIG",
      "taf": "TAF LRTR 310500Z 3106/0106 24006KT 9999 BKN015 BKN025"
    },
    {
      "icao": "LTAC",
      "alert": "OK",
      "vis_m": 9999,
      "fzfg": false,
      "metar_trigger": false,
      "taf_trigger": false,
      "metar": "METAR LTAC 310650Z VRB03KT 9999 FEW015 SCT025 BKN080 08/04 Q1011 NOSIG RMK RWY21C 19003KT 140V220 RWY03L 22003KT 160V280 RWY21R 21003KT 160V240 RWY03R 17004KT 140V210 RWY21L 18004KT 150V240",
      "taf": "TAF LTAC 310440Z 3106/0106 VRB02KT 9999 BKN020"
    },
    {
      "icao": "LTFM",
      "alert": "OK",
      "vis_m": 9999,
      "fzfg": false,
      "metar_trigger": false,
      "taf_trigger": false,
      "metar": "METAR LTFM 310650Z 20010KT 9999 SCT040 BKN080 11/09 Q1008 NOSIG RMK RWY17L 19013KT RWY34L 19010KT RWY16R 20008KT RWY36 20010KT RWY18 20010KT",
      "taf": "TAF LTFM 310440Z 3106/0112 21012KT 9999 SCT040 BKN080"
    },
    {
      "icao": "LUKK",
      "alert": "OK",
      "vis_m": 9999,
      "fzfg": false,
      "metar_trigger": false,
      "taf_trigger": false,
      "metar": "METAR LUKK 310700Z 32009KT 9999 -RA OVC009 09/08 Q1003 TEMPO 5000 RA BKN006",
      "taf": "TAF LUKK 310514Z 3106/0106 31009KT 9999 BKN007 OVC015"
    },
    {
      "icao": "LWOH",
      "alert": "OK",
      "vis_m": 9999,
      "fzfg": false,
      "metar_trigger": false,
      "taf_trigger": false,
      "metar": "METAR LWOH 310650Z COR 33006KT 290V020 9999 FEW040 08/04 Q1006",
      "taf": ""
    },
    {
      "icao": "LWSK",
      "alert": "OK",
      "vis_m": 9999,
      "fzfg": false,
      "metar_trigger": false,
      "taf_trigger": false,
      "metar": "METAR LWSK 310650Z 32006KT 280V010 9999 FEW023 BKN050 08/04 Q1009 NOSIG",
      "taf": ""
    },
    {
      "icao": "LYBE",
      "alert": "OK",
      "vis_m": 9999,
      "fzfg": false,
      "metar_trigger": false,
      "taf_trigger": false,
      "metar": "METAR LYBE 310700Z 28009KT 9999 SCT008 SCT043 06/04 Q1012 NOSIG",
      "taf": "TAF LYBE 310500Z 3106/0106 27010KT 9999 SCT015 BKN027 TX09/3113Z TN04/3106Z"
    },
    {
      "icao": "LYNI",
      "alert": "OK",
      "vis_m": 9999,
      "fzfg": false,
      "metar_trigger": false,
      "taf_trigger": false,
      "metar": "METAR LYNI 310700Z 31005KT 280V020 9999 BKN010 OVC020 05/04 Q1011 NOSIG",
      "taf": "TAF LYNI 310500Z 3106/0106 32010KT 9999 SCT016 BKN023 TX10/3112Z TN04/3106Z"
    },
    {
      "icao": "LYPG",
      "alert": "OK",
      "vis_m": 9999,
      "fzfg": false,
      "metar_trigger": false,
      "taf_trigger": false,
      "metar": "METAR LYPG 310700Z 04004KT 020V080 9999 SCT080 13/02 Q1006 NOSIG",
      "taf": "TAF LYPG 310500Z 3106/0106 34006KT 9999 SCT040 BKN080 TX14/3114Z TN08/3106Z"
    },
    {
      "icao": "LZIB",
      "alert": "OK",
      "vis_m": 9999,
      "fzfg": false,
      "metar_trigger": false,
      "taf_trigger": false,
      "metar": "METAR LZIB 310700Z 33015KT 9999 FEW010 SCT017 06/02 Q1014 NOSIG",
      "taf": "TAF LZIB 310515Z 3106/0106 32014KT 9999 SCT040"
    },
    {
      "icao": "LZKZ",
      "alert": "OK",
      "vis_m": 9999,
      "fzfg": false,
      "metar_trigger": false,
      "taf_trigger": false,
      "metar": "METAR LZKZ 310700Z 35015KT 9999 -RA OVC040 04/02 Q1010 NOSIG",
      "taf": "TAF LZKZ 310515Z 3106/0106 01016KT 9999 BKN040"
    },
    {
      "icao": "LZTT",
      "alert": "OK",
      "vis_m": 2500,
      "fzfg": false,
      "metar_trigger": false,
      "taf_trigger": false,
      "metar": "METAR LZTT 310700Z 22003KT 170V250 2500 -SN BR BKN005 OVC016 00/00 Q1010 BECMG 4500 -SNRA BR",
      "taf": "TAF LZTT 310515Z 3106/0106 VRB02KT 4500 BR BKN016"
    },
    {
      "icao": "OEJN",
      "alert": "OK",
      "vis_m": 9999,
      "fzfg": false,
      "metar_trigger": false,
      "taf_trigger": false,
      "metar": "METAR OEJN 310700Z 33004KT CAVOK 31/12 Q1011 NOSIG",
      "taf": "TAF OEJN 310500Z 3106/0112 32012KT CAVOK"
    },
    {
      "icao": "OEMA",
      "alert": "OK",
      "vis_m": 9999,
      "fzfg": false,
      "metar_trigger": false,
      "taf_trigger": false,
      "metar": "METAR OEMA 310700Z VRB02KT CAVOK 27/05 Q1015 NOSIG",
      "taf": "TAF OEMA 310500Z 3106/0112 36010KT CAVOK"
    },
    {
      "icao": "OJAI",
      "alert": "OK",
      "vis_m": 3500,
      "fzfg": false,
      "metar_trigger": false,
      "taf_trigger": false,
      "metar": "METAR OJAI 310700Z 19004KT 3500 BR BKN035 11/08 Q1016 NOSIG",
      "taf": "TAF OJAI 310450Z 3106/0112 27010KT 5000 HZ SCT035"
    },
    {
      "icao": "OMAA",
      "alert": "OK",
      "vis_m": null,
      "fzfg": false,
      "metar_trigger": false,
      "taf_trigger": false,
      "metar": "",
      "taf": ""
    },
    {
      "icao": "OMDB",
      "alert": "OK",
      "vis_m": null,
      "fzfg": false,
      "metar_trigger": false,
      "taf_trigger": false,
      "metar": "",
      "taf": ""
    },
    {
      "icao": "UAAA",
      "alert": "OK",
      "vis_m": 9999,
      "fzfg": false,
      "metar_trigger": false,
      "taf_trigger": false,
      "metar": "METAR UAAA 310700Z 34002MPS 9999 SCT100 BKN200 23/01 Q1010 NOSIG",
      "taf": "TAF UAAA 310502Z 3106/0106 34003MPS 9999 FEW050CB BKN100 TX24/3109Z TN08/0101Z"
    },
    {
      "icao": "UBBB",
      "alert": "OK",
      "vis_m": 9999,
      "fzfg": false,
      "metar_trigger": false,
      "taf_trigger": false,
      "metar": "METAR UBBB 310700Z 01004KT 9999 FEW024 16/11 Q1003 NOSIG",
      "taf": "TAF UBBB 310457Z 3106/0106 15006KT 9999 SCT025 TX16/3110Z TN08/0101Z"
    },
    {
      "icao": "UDSG",
      "alert": "OK",
      "vis_m": 9999,
      "fzfg": false,
      "metar_trigger": false,
      "taf_trigger": false,
      "metar": "METAR UDSG 310700Z 13004KT 090V160 9999 BKN049 07/M01 Q1009 NOSIG",
      "taf": "TAF UDSG 310458Z 3106/0106 27006KT 9999 SCT040"
    },
    {
      "icao": "UDYZ",
      "alert": "OK",
      "vis_m": 9999,
      "fzfg": false,
      "metar_trigger": false,
      "taf_trigger": false,
      "metar": "METAR UDYZ 310700Z 25008KT 9999 FEW046 12/03 Q1008 NOSIG",
      "taf": "TAF UDYZ 310500Z 3106/0106 24006KT 9999 SCT040"
    },
    {
      "icao": "UGKO",
      "alert": "OK",
      "vis_m": 9999,
      "fzfg": false,
      "metar_trigger": false,
      "taf_trigger": false,
      "metar": "METAR UGKO 310700Z VRB02KT CAVOK 11/11 Q1009 NOSIG",
      "taf": "TAF UGKO 310500Z 3106/0106 26007KT CAVOK TX18/3111Z TN05/0103Z"
    }
  ]
}