{
  "ts_utc": "2026-02-02T17:57:45Z",
  "threshold_m": 150,
  "source": "stations_override.txt (ICAO list) + aviationweather.gov (METAR/TAF raw)",
  "station_count": 159,
  "stations": [
    {
      "icao": "BIKF",
      "alert": "OK",
      "vis_m": 9999,
      "fzfg": false,
      "metar_trigger": false,
      "taf_trigger": false,
      "metar": "METAR BIKF 021730Z 09011KT 9999 FEW023 BKN036 BKN240 07/04 Q1004",
      "taf": "TAF BIKF 021650Z 0218/0318 09017KT 9999 FEW020 BKN035 TX07/0218Z TN04/0306Z"
    },
    {
      "icao": "BKPR",
      "alert": "OK",
      "vis_m": null,
      "fzfg": false,
      "metar_trigger": false,
      "taf_trigger": false,
      "metar": "",
      "taf": "TAF BKPR 021730Z 0218/0318 15006KT 9999 BKN030"
    },
    {
      "icao": "EBCI",
      "alert": "OK",
      "vis_m": 9999,
      "fzfg": false,
      "metar_trigger": false,
      "taf_trigger": false,
      "metar": "METAR EBCI 021750Z 10009KT 9999 SCT020 05/03 Q0996 NOSIG",
      "taf": "TAF EBCI 021720Z 0218/0324 12005KT 9999 FEW020 BKN035"
    },
    {
      "icao": "EDDB",
      "alert": "OK",
      "vis_m": 9999,
      "fzfg": false,
      "metar_trigger": false,
      "taf_trigger": false,
      "metar": "METAR EDDB 021750Z AUTO 09012KT 9999 BKN017 OVC044 M08/M12 Q1013 TEMPO BKN013",
      "taf": "TAF EDDB 021700Z 0218/0318 08012KT 9999 BKN030"
    },
    {
      "icao": "EDDH",
      "alert": "OK",
      "vis_m": 9999,
      "fzfg": false,
      "metar_trigger": false,
      "taf_trigger": false,
      "metar": "METAR EDDH 021750Z AUTO 10011KT 060V120 9999 BKN017 OVC036 M08/M11 Q1011 NOSIG",
      "taf": "TAF EDDH 021700Z 0218/0324 09013KT 9999 BKN020"
    },
    {
      "icao": "EDDK",
      "alert": "OK",
      "vis_m": 9999,
      "fzfg": false,
      "metar_trigger": false,
      "taf_trigger": false,
      "metar": "METAR EDDK 021750Z AUTO 11011KT 080V140 9999 BKN024 04/M02 Q1001 NOSIG",
      "taf": "TAF EDDK 021700Z 0218/0324 11010KT 9999 BKN025"
    },
    {
      "icao": "EDDN",
      "alert": "OK",
      "vis_m": 9999,
      "fzfg": false,
      "metar_trigger": false,
      "taf_trigger": false,
      "metar": "METAR EDDN 021750Z AUTO 09006KT 9999 OVC025 00/M03 Q1003 NOSIG",
      "taf": "TAF EDDN 021700Z 0218/0318 10007KT 9999 SCT015 BKN035"
    },
    {
      "icao": "EDDS",
      "alert": "OK",
      "vis_m": 9999,
      "fzfg": false,
      "metar_trigger": false,
      "taf_trigger": false,
      "metar": "METAR EDDS 021750Z AUTO 07007KT 9999 FEW016 01/M01 Q1000 NOSIG",
      "taf": "TAF EDDS 021700Z 0218/0318 07003KT 9999 FEW015"
    },
    {
      "icao": "EDFH",
      "alert": "OK",
      "vis_m": 6000,
      "fzfg": false,
      "metar_trigger": false,
      "taf_trigger": false,
      "metar": "METAR EDFH 021750Z 11013KT 080V140 6000 SCT002 BKN003 M00/M00 Q0999",
      "taf": "TAF EDFH 021700Z 0218/0318 12013KT 7000 OVC004"
    },
    {
      "icao": "EDJA",
      "alert": "OK",
      "vis_m": 9999,
      "fzfg": false,
      "metar_trigger": false,
      "taf_trigger": false,
      "metar": "METAR EDJA 021750Z 05007KT CAVOK 00/M01 Q1000",
      "taf": "TAF EDJA 021700Z 0218/0303 06006KT CAVOK"
    },
    {
      "icao": "EDLW",
      "alert": "OK",
      "vis_m": 9999,
      "fzfg": false,
      "metar_trigger": false,
      "taf_trigger": false,
      "metar": "METAR EDLW 021750Z 07009KT CAVOK 02/M02 Q1002",
      "taf": "TAF EDLW 021700Z 0218/0318 07009KT 9999 SCT030"
    },
    {
      "icao": "EDNY",
      "alert": "OK",
      "vis_m": 9999,
      "fzfg": false,
      "metar_trigger": false,
      "taf_trigger": false,
      "metar": "METAR EDNY 021750Z 03008KT CAVOK 05/02 Q0999",
      "taf": "TAF EDNY 021700Z 0218/0303 04003KT CAVOK"
    },
    {
      "icao": "EDSB",
      "alert": "OK",
      "vis_m": 7000,
      "fzfg": false,
      "metar_trigger": false,
      "taf_trigger": false,
      "metar": "METAR EDSB 021750Z 02012KT 7000 NSC 02/01 Q0999",
      "taf": "TAF EDSB 021700Z 0218/0318 03010KT 9999 BKN008"
    },
    {
      "icao": "EETN",
      "alert": "OK",
      "vis_m": 9999,
      "fzfg": false,
      "metar_trigger": false,
      "taf_trigger": false,
      "metar": "METAR EETN 021750Z 35007KT CAVOK M09/M14 Q1024 NOSIG",
      "taf": "TAF EETN 021730Z 0218/0318 03012KT CAVOK"
    },
    {
      "icao": "EFTU",
      "alert": "OK",
      "vis_m": 9999,
      "fzfg": false,
      "metar_trigger": false,
      "taf_trigger": false,
      "metar": "METAR EFTU 021750Z AUTO 02003KT CAVOK M17/M20 Q1027",
      "taf": "TAF EFTU 021735Z 0218/0318 01004KT CAVOK"
    },
    {
      "icao": "EGBB",
      "alert": "OK",
      "vis_m": 5000,
      "fzfg": false,
      "metar_trigger": false,
      "taf_trigger": false,
      "metar": "METAR EGBB 021750Z 09010KT 5000 -RADZ BKN008 06/05 Q0995",
      "taf": "TAF EGBB 021659Z 0218/0318 08012KT 9999 BKN012"
    },
    {
      "icao": "EGGP",
      "alert": "OK",
      "vis_m": 8000,
      "fzfg": false,
      "metar_trigger": false,
      "taf_trigger": false,
      "metar": "METAR EGGP 021750Z 09013KT 8000 FEW016 BKN022 BKN028 06/03 Q0996",
      "taf": "TAF EGGP 021655Z 0218/0318 10014KT 9999 BKN030"
    },
    {
      "icao": "EGGW",
      "alert": "OK",
      "vis_m": 9999,
      "fzfg": false,
      "metar_trigger": false,
      "taf_trigger": false,
      "metar": "METAR EGGW 021750Z AUTO 09011KT 060V120 9999 BKN009 OVC027 06/05 Q0994",
      "taf": "TAF EGGW 021656Z 0218/0318 09009KT 9999 BKN015"
    },
    {
      "icao": "EGKK",
      "alert": "OK",
      "vis_m": 9999,
      "fzfg": false,
      "metar_trigger": false,
      "taf_trigger": false,
      "metar": "METAR EGKK 021750Z 09009KT 9999 SCT015 06/05 Q0993",
      "taf": "TAF EGKK 021657Z 0218/0324 08010KT 9999 SCT015 BKN030"
    },
    {
      "icao": "EGNM",
      "alert": "OK",
      "vis_m": 900,
      "fzfg": false,
      "metar_trigger": false,
      "taf_trigger": false,
      "metar": "METAR EGNM 021750Z 07009G20KT 030V100 0900 R14/P1500N FG OVC001 03/03 Q0998",
      "taf": "TAF EGNM 021656Z 0218/0318 10015KT 3600 BR OVC005"
    },
    {
      "icao": "EGPD",
      "alert": "OK",
      "vis_m": 5000,
      "fzfg": false,
      "metar_trigger": false,
      "taf_trigger": false,
      "metar": "METAR EGPD 021750Z AUTO 11014KT 5000 -RADZ BKN007/// OVC020/// //////TCU 04/02 Q1006 RERA TEMPO BKN004",
      "taf": "TAF EGPD 021654Z 0218/0318 11013KT 9999 SCT012 BKN018"
    },
    {
      "icao": "EGPF",
      "alert": "OK",
      "vis_m": 9999,
      "fzfg": false,
      "metar_trigger": false,
      "taf_trigger": false,
      "metar": "METAR EGPF 021750Z AUTO 07014KT 9999 SCT025 BKN029 06/04 Q1000",
      "taf": "TAF EGPF 021701Z 0218/0318 08012KT 9999 SCT030"
    },
    {
      "icao": "EHBK",
      "alert": "OK",
      "vis_m": 9999,
      "fzfg": false,
      "metar_trigger": false,
      "taf_trigger": false,
      "metar": "METAR EHBK 021725Z AUTO 09009KT 9999 NCD 04/02 Q0999 NOSIG",
      "taf": "TAF EHBK 021718Z 0218/0324 09012KT CAVOK"
    },
    {
      "icao": "EHEH",
      "alert": "OK",
      "vis_m": null,
      "fzfg": false,
      "metar_trigger": false,
      "taf_trigger": false,
      "metar": "",
      "taf": "TAF EHEH 021126Z 0212/0318 09010KT 9999 BKN030"
    },
    {
      "icao": "EKBI",
      "alert": "OK",
      "vis_m": 9999,
      "fzfg": false,
      "metar_trigger": false,
      "taf_trigger": false,
      "metar": "METAR EKBI 021750Z AUTO 09019G34KT 9999 FEW028/// M05/M10 Q1014",
      "taf": "TAF EKBI 021727Z 0218/0318 10020KT 9999 SCT025"
    },
    {
      "icao": "EKCH",
      "alert": "OK",
      "vis_m": 9999,
      "fzfg": false,
      "metar_trigger": false,
      "taf_trigger": false,
      "metar": "METAR EKCH 021750Z AUTO 09021KT 9999 NCD M05/M10 Q1018 TEMPO 10018G28KT",
      "taf": "TAF EKCH 021727Z 0218/0318 10018KT 9999 SCT025"
    },
    {
      "icao": "ENAL",
      "alert": "OK",
      "vis_m": 9999,
      "fzfg": false,
      "metar_trigger": false,
      "taf_trigger": false,
      "metar": "METAR ENAL 021750Z 14010KT CAVOK M03/M10 Q1019",
      "taf": "TAF ENAL 021700Z 0218/0303 15008KT CAVOK"
    },
    {
      "icao": "ENBR",
      "alert": "OK",
      "vis_m": 9999,
      "fzfg": false,
      "metar_trigger": false,
      "taf_trigger": false,
      "metar": "METAR ENBR 021750Z 08006KT 9999 SCT045 M04/M16 Q1019 NOSIG RMK WIND 1200FT 11007KT",
      "taf": "TAF ENBR 021700Z 0218/0318 09005KT 9999 SCT045"
    },
    {
      "icao": "ENGM",
      "alert": "OK",
      "vis_m": 9999,
      "fzfg": false,
      "metar_trigger": false,
      "taf_trigger": false,
      "metar": "METAR ENGM 021750Z 08005KT 9999 -SN BKN032 M08/M12 Q1024 NOSIG",
      "taf": "TAF ENGM 021700Z 0218/0318 05005KT 9999 -SN BKN030"
    },
    {
      "icao": "ENHD",
      "alert": "OK",
      "vis_m": 9999,
      "fzfg": false,
      "metar_trigger": false,
      "taf_trigger": false,
      "metar": "METAR ENHD 021750Z 11013KT CAVOK M04/M15 Q1019",
      "taf": "TAF ENHD 021400Z 0215/0223 12010KT CAVOK"
    },
    {
      "icao": "ENTC",
      "alert": "OK",
      "vis_m": 9999,
      "fzfg": false,
      "metar_trigger": false,
      "taf_trigger": false,
      "metar": "METAR ENTC 021750Z 19009KT 9999 BKN042 M00/M03 Q1023 NOSIG RMK WIND 2600FT 27006KT",
      "taf": "TAF ENTC 021700Z 0218/0318 20009KT 9999 FEW025 BKN035"
    },
    {
      "icao": "ENTO",
      "alert": "OK",
      "vis_m": 2900,
      "fzfg": false,
      "metar_trigger": false,
      "taf_trigger": false,
      "metar": "METAR ENTO 021750Z 06005KT 2900 -SN OVC028 M07/M09 Q1024 TEMPO 6000",
      "taf": "TAF ENTO 021700Z 0218/0318 07005KT 8000 -SN BKN025"
    },
    {
      "icao": "ENVA",
      "alert": "OK",
      "vis_m": 9999,
      "fzfg": false,
      "metar_trigger": false,
      "taf_trigger": false,
      "metar": "METAR ENVA 021750Z 08007KT 050V110 CAVOK M07/M15 Q1021 NOSIG RMK WIND 670FT 13012KT",
      "taf": "TAF ENVA 021700Z 0218/0318 09007KT CAVOK"
    },
    {
      "icao": "ENZV",
      "alert": "OK",
      "vis_m": 9999,
      "fzfg": false,
      "metar_trigger": false,
      "taf_trigger": false,
      "metar": "METAR ENZV 021750Z 09008KT CAVOK M04/M13 Q1019 NOSIG",
      "taf": ""
    },
    {
      "icao": "EPGD",
      "alert": "OK",
      "vis_m": 9999,
      "fzfg": false,
      "metar_trigger": false,
      "taf_trigger": false,
      "metar": "METAR EPGD 021730Z 08008KT CAVOK M14/M23 Q1021",
      "taf": "TAF EPGD 021730Z 0218/0318 09010KT CAVOK"
    },
    {
      "icao": "EPKK",
      "alert": "OK",
      "vis_m": 9999,
      "fzfg": false,
      "metar_trigger": false,
      "taf_trigger": false,
      "metar": "METAR EPKK 021730Z 06011KT CAVOK M10/M15 Q1014",
      "taf": "TAF EPKK 021730Z 0218/0318 06010KT CAVOK"
    },
    {
      "icao": "EPKT",
      "alert": "OK",
      "vis_m": 9999,
      "fzfg": false,
      "metar_trigger": false,
      "taf_trigger": false,
      "metar": "METAR EPKT 021730Z 09014KT CAVOK M09/M16 Q1013",
      "taf": "TAF EPKT 021730Z 0218/0318 09010KT CAVOK"
    },
    {
      "icao": "EPLB",
      "alert": "OK",
      "vis_m": 9999,
      "fzfg": false,
      "metar_trigger": false,
      "taf_trigger": false,
      "metar": "METAR EPLB 021730Z 00000KT CAVOK M16/M20 Q1018",
      "taf": "TAF EPLB 021730Z 0218/0318 06006KT CAVOK"
    },
    {
      "icao": "EPMO",
      "alert": "OK",
      "vis_m": 9999,
      "fzfg": false,
      "metar_trigger": false,
      "taf_trigger": false,
      "metar": "METAR EPMO 021730Z 06009KT CAVOK M17/M21 Q1020",
      "taf": "TAF EPMO 021730Z 0218/0318 06008KT CAVOK"
    },
    {
      "icao": "EPPO",
      "alert": "OK",
      "vis_m": 9999,
      "fzfg": false,
      "metar_trigger": false,
      "taf_trigger": false,
      "metar": "METAR EPPO 021730Z 08014KT 9999 OVC032 M09/M18 Q1016",
      "taf": "TAF EPPO 021730Z 0218/0318 09014KT 9999 OVC035"
    },
    {
      "icao": "EPRA",
      "alert": "OK",
      "vis_m": 9999,
      "fzfg": false,
      "metar_trigger": false,
      "taf_trigger": false,
      "metar": "METAR EPRA 021730Z 06007KT CAVOK M16/M22 Q1018",
      "taf": "TAF EPRA 021730Z 0218/0303 08008KT CAVOK"
    },
    {
      "icao": "EPRZ",
      "alert": "OK",
      "vis_m": 9999,
      "fzfg": false,
      "metar_trigger": false,
      "taf_trigger": false,
      "metar": "METAR EPRZ 021730Z 05008KT 9999 BKN026 M10/M17 Q1016",
      "taf": "TAF EPRZ 021730Z 0218/0318 09010KT 9999 OVC020"
    },
    {
      "icao": "EPSC",
      "alert": "OK",
      "vis_m": 9999,
      "fzfg": false,
      "metar_trigger": false,
      "taf_trigger": false,
      "metar": "METAR EPSC 021730Z 09010KT 9999 BKN025 M09/M16 Q1016",
      "taf": "TAF EPSC 021730Z 0218/0318 08012KT 9999 SCT025"
    },
    {
      "icao": "EPSY",
      "alert": "OK",
      "vis_m": 9999,
      "fzfg": false,
      "metar_trigger": false,
      "taf_trigger": false,
      "metar": "METAR EPSY 021730Z 03004KT CAVOK M16/M21 Q1021",
      "taf": "TAF EPSY 021730Z 0218/0303 02004KT CAVOK"
    },
    {
      "icao": "EPWA",
      "alert": "OK",
      "vis_m": 9999,
      "fzfg": false,
      "metar_trigger": false,
      "taf_trigger": false,
      "metar": "METAR EPWA 021730Z 07007KT CAVOK M13/M19 Q1019 NOSIG",
      "taf": "TAF EPWA 021730Z 0218/0318 07008KT CAVOK"
    },
    {
      "icao": "EPWR",
      "alert": "OK",
      "vis_m": 9999,
      "fzfg": false,
      "metar_trigger": false,
      "taf_trigger": false,
      "metar": "METAR EPWR 021730Z 10007KT 9999 OVC030 M05/M12 Q1013",
      "taf": "TAF EPWR 021730Z 0218/0318 10007KT 9999 OVC030"
    },
    {
      "icao": "ESGG",
      "alert": "OK",
      "vis_m": 9999,
      "fzfg": false,
      "metar_trigger": false,
      "taf_trigger": false,
      "metar": "METAR ESGG 021750Z 08007KT 050V110 CAVOK M08/M13 Q1021",
      "taf": "TAF ESGG 021730Z 0218/0318 10010KT CAVOK"
    },
    {
      "icao": "ESKN",
      "alert": "OK",
      "vis_m": 9999,
      "fzfg": false,
      "metar_trigger": false,
      "taf_trigger": false,
      "metar": "METAR ESKN 021750Z 03005KT 9999 -SN FEW010 BKN025 M06/M08 Q1026",
      "taf": "TAF ESKN 021730Z 0218/0318 07005KT 9000 -SN BKN025"
    },
    {
      "icao": "ESMS",
      "alert": "OK",
      "vis_m": 9999,
      "fzfg": false,
      "metar_trigger": false,
      "taf_trigger": false,
      "metar": "METAR ESMS 021750Z 10017KT CAVOK M05/M11 Q1018",
      "taf": "TAF ESMS 021727Z 0218/0318 10018KT 9999 SCT025"
    },
    {
      "icao": "ESSA",
      "alert": "OK",
      "vis_m": 9999,
      "fzfg": false,
      "metar_trigger": false,
      "taf_trigger": false,
      "metar": "METAR ESSA 021750Z 06005KT 9999 FEW018 SCT023 BKN033 M10/M13 Q1027 NOSIG",
      "taf": "TAF ESSA 021730Z 0218/0318 04005KT 9999 BKN025"
    },
    {
      "icao": "EYKA",
      "alert": "OK",
      "vis_m": 8000,
      "fzfg": false,
      "metar_trigger": false,
      "taf_trigger": false,
      "metar": "METAR EYKA 021750Z 24002KT 8000 NSC M18/M20 Q1021",
      "taf": "TAF EYKA 021700Z 0218/0318 VRB04KT 5000 BR NSC"
    },
    {
      "icao": "EYPA",
      "alert": "OK",
      "vis_m": 9999,
      "fzfg": false,
      "metar_trigger": false,
      "taf_trigger": false,
      "metar": "METAR EYPA 021750Z 01004KT CAVOK M16/M18 Q1024",
      "taf": "TAF EYPA 021700Z 0218/0318 VRB04KT 6000 NSC"
    },
    {
      "icao": "EYVI",
      "alert": "OK",
      "vis_m": 8000,
      "fzfg": false,
      "metar_trigger": false,
      "taf_trigger": false,
      "metar": "METAR EYVI 021750Z VRB02KT 8000 NSC M18/M20 Q1018 NOSIG",
      "taf": "TAF EYVI 021700Z 0218/0318 VRB04KT 5000 BR NSC"
    },
    {
      "icao": "GCFV",
      "alert": "OK",
      "vis_m": 9999,
      "fzfg": false,
      "metar_trigger": false,
      "taf_trigger": false,
      "metar": "METAR GCFV 021730Z 31013KT 280V350 9999 VCSH SCT025 BKN030TCU 19/13 Q1016",
      "taf": "TAF GCFV 021400Z 0215/0315 33014KT 9999 SCT030 TX22/0314Z TN16/0306Z"
    },
    {
      "icao": "GCLP",
      "alert": "OK",
      "vis_m": 9999,
      "fzfg": false,
      "metar_trigger": false,
      "taf_trigger": false,
      "metar": "METAR GCLP 021730Z 01018KT 9999 FEW018 SCT025 BKN038 18/14 Q1016 NOSIG",
      "taf": "TAF GCLP 021400Z 0215/0315 35018KT 9999 SCT030 TX22/0314Z TN15/0306Z"
    },
    {
      "icao": "GCTS",
      "alert": "OK",
      "vis_m": 9999,
      "fzfg": false,
      "metar_trigger": false,
      "taf_trigger": false,
      "metar": "METAR GCTS 021730Z 10010KT 9999 BKN030 21/13 Q1016 NOSIG",
      "taf": "TAF GCTS 021400Z 0215/0315 12008KT 9999 BKN030 TX23/0314Z TN15/0306Z"
    },
    {
      "icao": "GMAD",
      "alert": "OK",
      "vis_m": 1500,
      "fzfg": false,
      "metar_trigger": false,
      "taf_trigger": false,
      "metar": "METAR GMAD 021730Z 32006KT 1500 R27/1700N DZ BKN003 BKN016 14/14 Q1013 NOSIG",
      "taf": "TAF GMAD 021700Z 0218/0324 30008KT 6000 BKN003 BKN016"
    },
    {
      "icao": "GMMN",
      "alert": "OK",
      "vis_m": 9999,
      "fzfg": false,
      "metar_trigger": false,
      "taf_trigger": false,
      "metar": "METAR GMMN 021730Z 25008KT 9999 BKN020 14/11 Q1012 NOSIG",
      "taf": "TAF GMMN 021700Z 0218/0324 26010KT 9999 BKN020"
    },
    {
      "icao": "GMMX",
      "alert": "OK",
      "vis_m": 6000,
      "fzfg": false,
      "metar_trigger": false,
      "taf_trigger": false,
      "metar": "METAR GMMX 021730Z 22005KT 180V260 6000 SCT013 BKN020 11/09 Q1014 TEMPO 2500 RA",
      "taf": "TAF GMMX 021700Z 0218/0324 22006KT 5000 SCT013 BKN020"
    },
    {
      "icao": "HEGN",
      "alert": "OK",
      "vis_m": 9999,
      "fzfg": false,
      "metar_trigger": false,
      "taf_trigger": false,
      "metar": "METAR HEGN 021700Z 00000KT CAVOK 23/17 Q1015 NOSIG",
      "taf": "TAF HEGN 021700Z 0218/0324 32010G25KT CAVOK"
    },
    {
      "icao": "HEMA",
      "alert": "OK",
      "vis_m": 9999,
      "fzfg": false,
      "metar_trigger": false,
      "taf_trigger": false,
      "metar": "METAR HEMA 021700Z 15003KT CAVOK 23/18 Q1014 NOSIG",
      "taf": "TAF HEMA 021700Z 0218/0324 31008G20KT CAVOK"
    },
    {
      "icao": "HESH",
      "alert": "OK",
      "vis_m": 9999,
      "fzfg": false,
      "metar_trigger": false,
      "taf_trigger": false,
      "metar": "METAR HESH 021700Z 16012KT CAVOK 24/15 Q1013 NOSIG",
      "taf": "TAF HESH 021700Z 0218/0324 33008G20KT CAVOK"
    },
    {
      "icao": "HESX",
      "alert": "OK",
      "vis_m": 9999,
      "fzfg": false,
      "metar_trigger": false,
      "taf_trigger": false,
      "metar": "METAR HESX 021700Z 27008KT CAVOK 19/03 Q1017 NOSIG",
      "taf": "TAF HESX 021700Z 0218/0324 26011KT CAVOK"
    },
    {
      "icao": "LATI",
      "alert": "OK",
      "vis_m": 9999,
      "fzfg": false,
      "metar_trigger": false,
      "taf_trigger": false,
      "metar": "METAR LATI 021750Z 16004KT 9999 SCT036 BKN062 09/05 Q1012 NOSIG",
      "taf": "TAF LATI 021700Z 0218/0318 VRB05KT 9999 FEW040 BKN080 TX16/0312Z TN05/0304Z"
    },
    {
      "icao": "LBPD",
      "alert": "OK",
      "vis_m": 9999,
      "fzfg": false,
      "metar_trigger": false,
      "taf_trigger": false,
      "metar": "METAR LBPD 021730Z AUTO 07005KT 9999 OVC036/// M00/M00 Q1014 NOSIG",
      "taf": "TAF LBPD 021700Z 0218/0318 10010KT 7000 SCT015 BKN040"
    },
    {
      "icao": "LBSF",
      "alert": "OK",
      "vis_m": 9999,
      "fzfg": false,
      "metar_trigger": false,
      "taf_trigger": false,
      "metar": "METAR LBSF 021730Z AUTO VRB03KT 9999 FEW022/// BKN036/// OVC041/// M03/M05 Q1012 NOSIG",
      "taf": "TAF LBSF 021700Z 0218/0318 VRB03KT 8000 BKN020 OVC040"
    },
    {
      "icao": "LBWN",
      "alert": "OK",
      "vis_m": 9999,
      "fzfg": false,
      "metar_trigger": false,
      "taf_trigger": false,
      "metar": "METAR LBWN 021730Z AUTO 27006KT 230V300 9999 -SN BKN044/// M06/M09 Q1016 NOSIG",
      "taf": "TAF LBWN 021700Z 0218/0318 34010KT 9999 SCT020 BKN040"
    },
    {
      "icao": "LCLK",
      "alert": "OK",
      "vis_m": 9999,
      "fzfg": false,
      "metar_trigger": false,
      "taf_trigger": false,
      "metar": "METAR LCLK 021730Z 22007KT 190V250 9999 FEW030 16/13 Q1012 NOSIG",
      "taf": "TAF LCLK 021730Z 0218/0318 23014KT 9999 FEW020"
    },
    {
      "icao": "LCPH",
      "alert": "OK",
      "vis_m": 9999,
      "fzfg": false,
      "metar_trigger": false,
      "taf_trigger": false,
      "metar": "METAR LCPH 021730Z 26015KT 250V320 9999 FEW025TCU BKN035 17/13 Q1012 NOSIG",
      "taf": "TAF LCPH 021730Z 0218/0318 25020KT 9999 DU FEW020"
    },
    {
      "icao": "LEAL",
      "alert": "OK",
      "vis_m": 9999,
      "fzfg": false,
      "metar_trigger": false,
      "taf_trigger": false,
      "metar": "METAR LEAL 021730Z 23013KT 200V260 CAVOK 15/03 Q1000 NOSIG",
      "taf": "TAF LEAL 021700Z 0218/0318 25015KT 9999 FEW030 TX16/0313Z TN05/0306Z"
    },
    {
      "icao": "LEBB",
      "alert": "OK",
      "vis_m": 9999,
      "fzfg": false,
      "metar_trigger": false,
      "taf_trigger": false,
      "metar": "METAR LEBB 021730Z 20012G23KT 120V250 9999 FEW060 14/04 Q0989 NOSIG",
      "taf": "TAF LEBB 021700Z 0218/0318 21009KT 9999 SCT040 TX14/0314Z TN09/0307Z"
    },
    {
      "icao": "LEBL",
      "alert": "OK",
      "vis_m": 4000,
      "fzfg": false,
      "metar_trigger": false,
      "taf_trigger": false,
      "metar": "METAR LEBL 021730Z 34004KT 300V040 4000 DZ BR BKN009 11/11 Q0993 NOSIG",
      "taf": "TAF LEBL 021700Z 0218/0318 VRB04KT 9999 SCT015 TX15/0314Z TN08/0306Z"
    },
    {
      "icao": "LECH",
      "alert": "OK",
      "vis_m": 9000,
      "fzfg": false,
      "metar_trigger": false,
      "taf_trigger": false,
      "metar": "METAR LECH 021730Z AUTO 26011KT 230V300 9000 NSC 12/03 Q0995",
      "taf": ""
    },
    {
      "icao": "LEMD",
      "alert": "OK",
      "vis_m": 9999,
      "fzfg": false,
      "metar_trigger": false,
      "taf_trigger": false,
      "metar": "METAR LEMD 021730Z 22013G23KT 190V260 9999 SCT018 BKN025 06/03 Q0997 NOSIG",
      "taf": "TAF LEMD 021700Z 0218/0324 22010KT 9999 SCT020 TX08/0314Z TN04/0306Z"
    },
    {
      "icao": "LEMG",
      "alert": "OK",
      "vis_m": 9999,
      "fzfg": false,
      "metar_trigger": false,
      "taf_trigger": false,
      "metar": "METAR LEMG 021730Z 16003KT 120V240 9999 FEW040 12/09 Q1006 NOSIG",
      "taf": "TAF LEMG 021700Z 0218/0318 29005KT 9999 SCT025 TX17/0314Z TN09/0307Z"
    },
    {
      "icao": "LEVC",
      "alert": "OK",
      "vis_m": 9999,
      "fzfg": false,
      "metar_trigger": false,
      "taf_trigger": false,
      "metar": "METAR LEVC 021730Z 25009KT 220V290 9999 FEW020 SCT047 13/04 Q0998 NOSIG",
      "taf": ""
    },
    {
      "icao": "LEXJ",
      "alert": "OK",
      "vis_m": 9999,
      "fzfg": false,
      "metar_trigger": false,
      "taf_trigger": false,
      "metar": "METAR LEXJ 021730Z 33003KT 200V360 9999 SCT051 11/07 Q0989",
      "taf": ""
    },
    {
      "icao": "LEZG",
      "alert": "OK",
      "vis_m": 9999,
      "fzfg": false,
      "metar_trigger": false,
      "taf_trigger": false,
      "metar": "METAR LEZG 021730Z 20008KT 9999 SCT070 BKN080 10/06 Q0994 NOSIG",
      "taf": "TAF LEZG 021700Z 0218/0318 23009KT 9999 FEW050 TX13/0314Z TN04/0306Z"
    },
    {
      "icao": "LEZL",
      "alert": "OK",
      "vis_m": 9999,
      "fzfg": false,
      "metar_trigger": false,
      "taf_trigger": false,
      "metar": "METAR LEZL 021730Z 24018KT CAVOK 14/05 Q1005 NOSIG",
      "taf": "TAF LEZL 021400Z 0215/0315 23009KT 9999 SCT025 TX16/0215Z TN10/0307Z"
    },
    {
      "icao": "LFBD",
      "alert": "OK",
      "vis_m": 9999,
      "fzfg": false,
      "metar_trigger": false,
      "taf_trigger": false,
      "metar": "METAR LFBD 021730Z AUTO 21010KT 9999 -RA FEW028/// BKN066/// OVC078/// ///TCU 12/10 Q0989 TEMPO VRB20G35KT 1500 RA BKN020",
      "taf": "TAF LFBD 021700Z 0218/0324 20010KT CAVOK TX13/0314Z TN06/0307Z"
    },
    {
      "icao": "LFLL",
      "alert": "OK",
      "vis_m": 9999,
      "fzfg": false,
      "metar_trigger": false,
      "taf_trigger": false,
      "metar": "METAR LFLL 021730Z 13008KT 9999 -RA FEW050 BKN070 09/06 Q0995 NOSIG",
      "taf": "TAF LFLL 021700Z 0218/0324 16008KT CAVOK"
    },
    {
      "icao": "LFLS",
      "alert": "OK",
      "vis_m": 9999,
      "fzfg": false,
      "metar_trigger": false,
      "taf_trigger": false,
      "metar": "METAR LFLS 021730Z AUTO VRB03KT 9999 FEW049 OVC100 08/06 Q0995 NOSIG",
      "taf": "TAF LFLS 021400Z 0215/0315 21010KT 9999 BKN050"
    },
    {
      "icao": "LFMN",
      "alert": "OK",
      "vis_m": 9999,
      "fzfg": false,
      "metar_trigger": false,
      "taf_trigger": false,
      "metar": "METAR LFMN 021730Z COR 34004KT 9999 FEW011 BKN036 08/07 Q1004 NOSIG",
      "taf": ""
    },
    {
      "icao": "LFOB",
      "alert": "OK",
      "vis_m": 9999,
      "fzfg": false,
      "metar_trigger": false,
      "taf_trigger": false,
      "metar": "METAR LFOB 021730Z AUTO 09010KT 9999 OVC033 07/05 Q0993 NOSIG",
      "taf": "TAF LFOB 021700Z 0218/0318 10010KT 9999 BKN030"
    },
    {
      "icao": "LFPO",
      "alert": "OK",
      "vis_m": 9999,
      "fzfg": false,
      "metar_trigger": false,
      "taf_trigger": false,
      "metar": "METAR LFPO 021730Z 09008KT 9999 BKN043 OVC120 09/06 Q0993 NOSIG",
      "taf": "TAF LFPO 021700Z 0218/0324 10008KT 9999 SCT025"
    },
    {
      "icao": "LFSB",
      "alert": "OK",
      "vis_m": 9999,
      "fzfg": false,
      "metar_trigger": false,
      "taf_trigger": false,
      "metar": "METAR LFSB 021730Z AUTO 02003KT 340V070 9999 FEW054 06/04 Q0998 NOSIG",
      "taf": "TAF LFSB 021700Z 0218/0318 04004KT CAVOK"
    },
    {
      "icao": "LGAV",
      "alert": "OK",
      "vis_m": 9999,
      "fzfg": false,
      "metar_trigger": false,
      "taf_trigger": false,
      "metar": "METAR LGAV 021750Z VRB01KT 9999 FEW020 SCT040 10/06 Q1012 NOSIG",
      "taf": "TAF LGAV 021700Z 0218/0318 VRB05KT 9999 SCT020"
    },
    {
      "icao": "LGTS",
      "alert": "OK",
      "vis_m": 9999,
      "fzfg": false,
      "metar_trigger": false,
      "taf_trigger": false,
      "metar": "METAR LGTS 021750Z 31003KT 9999 FEW025 09/04 Q1013 NOSIG",
      "taf": "TAF LGTS 021700Z 0218/0318 14013KT 9999 BKN030"
    },
    {
      "icao": "LHBP",
      "alert": "OK",
      "vis_m": 9999,
      "fzfg": false,
      "metar_trigger": false,
      "taf_trigger": false,
      "metar": "METAR LHBP 021730Z 14006KT 9999 SCT026 BKN100 01/M02 Q1012 NOSIG",
      "taf": "TAF LHBP 021715Z 0218/0318 12006KT 9999 BKN040"
    },
    {
      "icao": "LHDC",
      "alert": "OK",
      "vis_m": 9999,
      "fzfg": false,
      "metar_trigger": false,
      "taf_trigger": false,
      "metar": "METAR LHDC 021715Z AUTO 20007KT 9999 BKN009 M01/M02 Q1014 NOSIG",
      "taf": "TAF LHDC 021715Z 0218/0303 20006KT 9999 SCT008 BKN020"
    },
    {
      "icao": "LIBD",
      "alert": "OK",
      "vis_m": 9999,
      "fzfg": false,
      "metar_trigger": false,
      "taf_trigger": false,
      "metar": "METAR LIBD 021750Z 16003KT 110V220 CAVOK 08/05 Q1011",
      "taf": "TAF LIBD 021700Z 0218/0318 18010KT 9999 FEW030"
    },
    {
      "icao": "LIBG",
      "alert": "OK",
      "vis_m": 9999,
      "fzfg": false,
      "metar_trigger": false,
      "taf_trigger": false,
      "metar": "METAR LIBG 021650Z 08003KT CAVOK 09/04 Q1011",
      "taf": "TAF LIBG 021700Z 0218/0303 VRB05KT 9999 FEW040"
    },
    {
      "icao": "LIBP",
      "alert": "OK",
      "vis_m": 9999,
      "fzfg": false,
      "metar_trigger": false,
      "taf_trigger": false,
      "metar": "METAR LIBP 021750Z AUTO VRB01KT 9999 SCT240/// 08/03 Q1009",
      "taf": "TAF LIBP 021700Z 0218/0318 VRB05KT 9999 FEW030"
    },
    {
      "icao": "LIBR",
      "alert": "OK",
      "vis_m": 9999,
      "fzfg": false,
      "metar_trigger": false,
      "taf_trigger": false,
      "metar": "METAR LIBR 021750Z 20006KT CAVOK 10/05 Q1012",
      "taf": "TAF LIBR 021700Z 0218/0318 VRB05KT 9999 FEW030"
    },
    {
      "icao": "LICA",
      "alert": "OK",
      "vis_m": 9999,
      "fzfg": false,
      "metar_trigger": false,
      "taf_trigger": false,
      "metar": "METAR LICA 021750Z AUTO 15002KT 9999 FEW037/// BKN057/// 11/09 Q1012",
      "taf": "TAF LICA 021700Z 0218/0318 VRB05KT 9999 SCT025"
    },
    {
      "icao": "LICC",
      "alert": "OK",
      "vis_m": 9999,
      "fzfg": false,
      "metar_trigger": false,
      "taf_trigger": false,
      "metar": "METAR LICC 021750Z 27003KT CAVOK 12/08 Q1013",
      "taf": "TAF LICC 021700Z 0218/0318 24014KT 9999 FEW040"
    },
    {
      "icao": "LICJ",
      "alert": "OK",
      "vis_m": 9999,
      "fzfg": false,
      "metar_trigger": false,
      "taf_trigger": false,
      "metar": "METAR LICJ 021750Z 20010KT 170V250 CAVOK 14/06 Q1010",
      "taf": "TAF LICJ 021700Z 0218/0318 20013KT 9999 SCT030"
    },
    {
      "icao": "LIMC",
      "alert": "OK",
      "vis_m": 4000,
      "fzfg": false,
      "metar_trigger": false,
      "taf_trigger": false,
      "metar": "METAR LIMC 021750Z 20003KT 4000 DZ BR FEW005 BKN025 05/04 Q1007 BECMG RA",
      "taf": "TAF LIMC 021700Z 0218/0324 VRB05KT 3000 RA OVC010"
    },
    {
      "icao": "LIME",
      "alert": "OK",
      "vis_m": 5000,
      "fzfg": false,
      "metar_trigger": false,
      "taf_trigger": false,
      "metar": "METAR LIME 021750Z 19003KT 160V220 5000 RA BR FEW018 BKN030 05/03 Q1007 NOSIG",
      "taf": "TAF LIME 021700Z 0218/0318 VRB05KT 3000 RA OVC015"
    },
    {
      "icao": "LIMF",
      "alert": "OK",
      "vis_m": 4000,
      "fzfg": false,
      "metar_trigger": false,
      "taf_trigger": false,
      "metar": "METAR LIMF 021750Z 03002KT 4000 -DZ BR OVC045 05/02 Q1007",
      "taf": "TAF LIMF 021700Z 0218/0318 VRB05KT 3000 RA OVC010"
    },
    {
      "icao": "LIMJ",
      "alert": "OK",
      "vis_m": 7000,
      "fzfg": false,
      "metar_trigger": false,
      "taf_trigger": false,
      "metar": "METAR LIMJ 021750Z 04014KT 7000 -RA FEW018 BKN026 06/04 Q1006",
      "taf": "TAF LIMJ 021700Z 0218/0318 04015KT 7000 RA BKN015"
    },
    {
      "icao": "LIPE",
      "alert": "OK",
      "vis_m": 9999,
      "fzfg": false,
      "metar_trigger": false,
      "taf_trigger": false,
      "metar": "METAR LIPE 021750Z 07005KT 9999 BKN035 07/04 Q1007",
      "taf": "TAF LIPE 021700Z 0218/0318 VRB05KT 8000 SCT040"
    },
    {
      "icao": "LIPH",
      "alert": "OK",
      "vis_m": 9999,
      "fzfg": false,
      "metar_trigger": false,
      "taf_trigger": false,
      "metar": "METAR LIPH 021750Z VRB01KT 9999 BKN050 07/01 Q1008",
      "taf": "TAF LIPH 021700Z 0218/0318 VRB05KT 9999 BKN040"
    },
    {
      "icao": "LIPQ",
      "alert": "OK",
      "vis_m": 9999,
      "fzfg": false,
      "metar_trigger": false,
      "taf_trigger": false,
      "metar": "METAR LIPQ 021750Z AUTO 12004KT 9999 OVC054/// 07/02 Q1008",
      "taf": "TAF LIPQ 021700Z 0218/0318 VRB05KT 9999 BKN040"
    },
    {
      "icao": "LIPR",
      "alert": "OK",
      "vis_m": 9999,
      "fzfg": false,
      "metar_trigger": false,
      "taf_trigger": false,
      "metar": "METAR LIPR 021750Z 14003KT 9999 SCT070 08/05 Q1007",
      "taf": "TAF LIPR 021700Z 0218/0318 14010KT 9999 SCT040"
    },
    {
      "icao": "LIPX",
      "alert": "OK",
      "vis_m": 8000,
      "fzfg": false,
      "metar_trigger": false,
      "taf_trigger": false,
      "metar": "METAR LIPX 021750Z 03003KT 8000 -RA OVC043 05/04 Q1008",
      "taf": "TAF LIPX 021700Z 0218/0318 VRB05KT 6000 RA OVC030"
    },
    {
      "icao": "LIPY",
      "alert": "OK",
      "vis_m": 9999,
      "fzfg": false,
      "metar_trigger": false,
      "taf_trigger": false,
      "metar": "METAR LIPY 021750Z AUTO 15007KT 120V190 9999 SCT089/// BKN120/// BKN150/// 09/04 Q1008",
      "taf": "TAF LIPY 021700Z 0218/0318 14010KT 9999 FEW040"
    },
    {
      "icao": "LIPZ",
      "alert": "OK",
      "vis_m": 9999,
      "fzfg": false,
      "metar_trigger": false,
      "taf_trigger": false,
      "metar": "METAR LIPZ 021750Z 05002KT 9999 BKN060 07/02 Q1008 NOSIG",
      "taf": "TAF LIPZ 021700Z 0218/0324 VRB05KT 9999 SCT040"
    },
    {
      "icao": "LIRF",
      "alert": "OK",
      "vis_m": 9999,
      "fzfg": false,
      "metar_trigger": false,
      "taf_trigger": false,
      "metar": "METAR LIRF 021750Z 14008KT CAVOK 11/06 Q1008 NOSIG",
      "taf": "TAF LIRF 021700Z 0218/0324 16015KT CAVOK"
    },
    {
      "icao": "LIRN",
      "alert": "OK",
      "vis_m": 9999,
      "fzfg": false,
      "metar_trigger": false,
      "taf_trigger": false,
      "metar": "METAR LIRN 021750Z VRB02KT 9999 FEW025 11/06 Q1010 NOSIG",
      "taf": "TAF LIRN 021700Z 0218/0318 VRB05KT 9999 SCT030"
    },
    {
      "icao": "LIRP",
      "alert": "OK",
      "vis_m": 9999,
      "fzfg": false,
      "metar_trigger": false,
      "taf_trigger": false,
      "metar": "METAR LIRP 021745Z 13002KT 9999 SCT030 SCT040 08/05 Q1007 NOSIG",
      "taf": "TAF LIRP 021700Z 0218/0318 13007KT 9999 SCT030 BKN040"
    },
    {
      "icao": "LIRZ",
      "alert": "OK",
      "vis_m": 9999,
      "fzfg": false,
      "metar_trigger": false,
      "taf_trigger": false,
      "metar": "METAR LIRZ 021750Z AUTO 04004KT 9999 BKN150/// 07/04 Q1007",
      "taf": "TAF LIRZ 021700Z 0218/0318 VRB06KT 9999 SCT040"
    },
    {
      "icao": "LJLJ",
      "alert": "OK",
      "vis_m": 9999,
      "fzfg": false,
      "metar_trigger": false,
      "taf_trigger": false,
      "metar": "METAR LJLJ 021730Z VRB01KT 9999 FEW030 BKN043 M00/M01 Q1008 NOSIG",
      "taf": "TAF LJLJ 021700Z 0218/0318 VRB02KT 9999 SCT030"
    },
    {
      "icao": "LKMT",
      "alert": "OK",
      "vis_m": 9999,
      "fzfg": false,
      "metar_trigger": false,
      "taf_trigger": false,
      "metar": "METAR LKMT 021730Z 03008KT 9999 OVC032 M07/M10 Q1012 NOSIG",
      "taf": "TAF LKMT 021700Z 0218/0318 03006KT 9999 OVC035"
    },
    {
      "icao": "LKPR",
      "alert": "OK",
      "vis_m": 7000,
      "fzfg": false,
      "metar_trigger": false,
      "taf_trigger": false,
      "metar": "METAR LKPR 021730Z 09010KT 7000 FEW014 OVC017 M01/M02 Q1006 NOSIG",
      "taf": "TAF LKPR 021700Z 0218/0324 08008KT 8000 SCT009 OVC014"
    },
    {
      "icao": "LLBG",
      "alert": "OK",
      "vis_m": 6000,
      "fzfg": false,
      "metar_trigger": false,
      "taf_trigger": false,
      "metar": "METAR LLBG 021750Z 24006KT 6000 NSC 17/10 Q1017 NOSIG",
      "taf": "TAF LLBG 021702Z 0218/0318 24005KT 5000 DU NSC"
    },
    {
      "icao": "LMML",
      "alert": "OK",
      "vis_m": 9999,
      "fzfg": false,
      "metar_trigger": false,
      "taf_trigger": false,
      "metar": "METAR LMML 021745Z 20007KT 170V230 CAVOK 14/10 Q1013 NOSIG",
      "taf": "TAF LMML 021700Z 0218/0318 22012KT 9999 FEW020"
    },
    {
      "icao": "LOWW",
      "alert": "OK",
      "vis_m": 9999,
      "fzfg": false,
      "metar_trigger": false,
      "taf_trigger": false,
      "metar": "METAR LOWW 021750Z 15017KT 9999 FEW010 BKN013 02/M00 Q1007 NOSIG",
      "taf": "TAF LOWW 021715Z 0218/0324 13015KT 8000 BKN012 TX02/0218Z TNM00/0308Z"
    },
    {
      "icao": "LPFR",
      "alert": "OK",
      "vis_m": 9999,
      "fzfg": false,
      "metar_trigger": false,
      "taf_trigger": false,
      "metar": "METAR LPFR 021730Z 28019KT 9999 FEW012 FEW020CB BKN030 13/08 Q1005",
      "taf": "TAF LPFR 021700Z 0218/0318 27018KT 9999 FEW018 SCT030"
    },
    {
      "icao": "LPMA",
      "alert": "OK",
      "vis_m": 9999,
      "fzfg": false,
      "metar_trigger": false,
      "taf_trigger": false,
      "metar": "METAR LPMA 021730Z 24004KT 140V270 9999 BKN015 17/09 Q1014",
      "taf": "TAF LPMA 021700Z 0218/0318 VRB05KT 9999 SCT015"
    },
    {
      "icao": "LPPR",
      "alert": "OK",
      "vis_m": 9999,
      "fzfg": false,
      "metar_trigger": false,
      "taf_trigger": false,
      "metar": "METAR LPPR 021730Z 25010KT 220V290 9999 -SHRA FEW015 FEW018CB BKN030 09/07 Q0995 RESHRA",
      "taf": "TAF LPPR 021700Z 0218/0318 25012KT 9999 FEW015 SCT030"
    },
    {
      "icao": "LPPS",
      "alert": "OK",
      "vis_m": 9999,
      "fzfg": false,
      "metar_trigger": false,
      "taf_trigger": false,
      "metar": "METAR LPPS 021730Z 31016KT 9999 FEW015 FEW018TCU 15/12 Q1014",
      "taf": "TAF LPPS 021700Z 0218/0324 30020KT 9999 SCT015 SCT030"
    },
    {
      "icao": "LPPT",
      "alert": "OK",
      "vis_m": 9999,
      "fzfg": false,
      "metar_trigger": false,
      "taf_trigger": false,
      "metar": "METAR LPPT 021730Z 25012KT 9999 FEW025 12/07 Q1001",
      "taf": "TAF LPPT 021700Z 0218/0324 26013KT 9999 FEW018 SCT025"
    },
    {
      "icao": "LQBK",
      "alert": "OK",
      "vis_m": 9999,
      "fzfg": false,
      "metar_trigger": false,
      "taf_trigger": false,
      "metar": "METAR LQBK 021730Z 01003KT 9999 BKN012 OVC017 01/M01 Q1011 NOSIG",
      "taf": "TAF LQBK 021700Z 0218/0318 07005KT 9999 BKN012 TX08/0314Z TNM01/0305Z"
    },
    {
      "icao": "LQSA",
      "alert": "OK",
      "vis_m": 9999,
      "fzfg": false,
      "metar_trigger": false,
      "taf_trigger": false,
      "metar": "METAR LQSA 021730Z VRB02KT CAVOK M00/M01 Q1009 NOSIG",
      "taf": "TAF LQSA 021700Z 0218/0318 VRB02KT CAVOK TX11/0314Z TNM03/0301Z"
    },
    {
      "icao": "LQTZ",
      "alert": "OK",
      "vis_m": 9999,
      "fzfg": false,
      "metar_trigger": false,
      "taf_trigger": false,
      "metar": "METAR LQTZ 021730Z 12007KT 9999 BKN025 01/M01 Q1011",
      "taf": "TAF LQTZ 021700Z 0218/0318 06005KT 9999 BKN020 TX10/0314Z TNM02/0305Z"
    },
    {
      "icao": "LRBC",
      "alert": "OK",
      "vis_m": 9999,
      "fzfg": false,
      "metar_trigger": false,
      "taf_trigger": false,
      "metar": "METAR LRBC 021730Z 33006KT CAVOK M07/M13 Q1017",
      "taf": "TAF LRBC 021700Z 0218/0303 01008KT CAVOK"
    },
    {
      "icao": "LRBS",
      "alert": "OK",
      "vis_m": 9999,
      "fzfg": false,
      "metar_trigger": false,
      "taf_trigger": false,
      "metar": "METAR LRBS 021730Z 31005KT 270V340 CAVOK M05/M10 Q1018 TEMPO 5000 -SN",
      "taf": "TAF LRBS 021700Z 0218/0318 VRB04KT 9999 BKN045"
    },
    {
      "icao": "LRBV",
      "alert": "OK",
      "vis_m": 9999,
      "fzfg": false,
      "metar_trigger": false,
      "taf_trigger": false,
      "metar": "METAR LRBV 021730Z 06004KT 9999 SCT025 M02/M07 Q1011",
      "taf": "TAF LRBV 021700Z 0218/0303 VRB04KT 9999 SCT030"
    },
    {
      "icao": "LRCL",
      "alert": "OK",
      "vis_m": 3000,
      "fzfg": false,
      "metar_trigger": false,
      "taf_trigger": false,
      "metar": "METAR LRCL 021730Z VRB01KT 3000 -SN BR OVC010 00/M01 Q1012",
      "taf": "TAF LRCL 021700Z 0218/0303 VRB04KT 3000 -SN BKN010 OVC030"
    },
    {
      "icao": "LRCV",
      "alert": "OK",
      "vis_m": 9999,
      "fzfg": false,
      "metar_trigger": false,
      "taf_trigger": false,
      "metar": "METAR LRCV 021730Z 16003KT 9999 -SN FEW038 BKN043 M07/M09 Q1017",
      "taf": "TAF LRCV 021700Z 0218/0303 VRB04KT 9999 SCT040"
    },
    {
      "icao": "LRIA",
      "alert": "OK",
      "vis_m": 9999,
      "fzfg": false,
      "metar_trigger": false,
      "taf_trigger": false,
      "metar": "METAR LRIA 021730Z 36004KT CAVOK M09/M15 Q1018",
      "taf": "TAF LRIA 021700Z 0218/0303 01006KT CAVOK"
    },
    {
      "icao": "LROP",
      "alert": "OK",
      "vis_m": 9999,
      "fzfg": false,
      "metar_trigger": false,
      "taf_trigger": false,
      "metar": "METAR LROP 021730Z 31005KT CAVOK M05/M11 Q1017 TEMPO 5000 -SN",
      "taf": "TAF LROP 021700Z 0218/0318 VRB04KT 9999 BKN045"
    },
    {
      "icao": "LRSB",
      "alert": "OK",
      "vis_m": 9999,
      "fzfg": false,
      "metar_trigger": false,
      "taf_trigger": false,
      "metar": "METAR LRSB 021730Z 10003KT 9999 BKN020 OVC040 M00/M03 Q1011",
      "taf": "TAF LRSB 021700Z 0218/0318 VRB04KT 9999 BKN020 OVC040"
    },
    {
      "icao": "LRSM",
      "alert": "OK",
      "vis_m": 6000,
      "fzfg": false,
      "metar_trigger": false,
      "taf_trigger": false,
      "metar": "METAR LRSM 021730Z AUTO 24008KT 6000 SG SCT004/// OVC006/// M00/M02 Q1013",
      "taf": "TAF LRSM 021400Z 0215/0224 24006KT 9999 BKN010 OVC030"
    },
    {
      "icao": "LRSV",
      "alert": "OK",
      "vis_m": 9999,
      "fzfg": false,
      "metar_trigger": false,
      "taf_trigger": false,
      "metar": "METAR LRSV 021730Z 03005KT CAVOK M12/M15 Q1015",
      "taf": "TAF LRSV 021700Z 0218/0303 06006KT CAVOK"
    },
    {
      "icao": "LRTM",
      "alert": "OK",
      "vis_m": 9999,
      "fzfg": false,
      "metar_trigger": false,
      "taf_trigger": false,
      "metar": "METAR LRTM 021730Z AUTO 23003KT 9999 BKN020/// 00/M01 Q1012",
      "taf": "TAF LRTM 021700Z 0218/0303 VRB04KT 9999 SCT020"
    },
    {
      "icao": "LRTR",
      "alert": "OK",
      "vis_m": 9999,
      "fzfg": false,
      "metar_trigger": false,
      "taf_trigger": false,
      "metar": "METAR LRTR 021730Z 11005KT 9999 SCT010 M02/M02 Q1014",
      "taf": "TAF LRTR 021700Z 0218/0318 VRB04KT 9999 SCT010"
    },
    {
      "icao": "LTAC",
      "alert": "OK",
      "vis_m": 9999,
      "fzfg": false,
      "metar_trigger": false,
      "taf_trigger": false,
      "metar": "METAR LTAC 021750Z 22004KT 9999 -SHRA FEW030CB BKN035 BKN080 06/05 Q1005 NOSIG",
      "taf": "TAF LTAC 021640Z 0218/0318 VRB02KT 9999 SCT040 BKN100"
    },
    {
      "icao": "LTFM",
      "alert": "OK",
      "vis_m": 9999,
      "fzfg": false,
      "metar_trigger": false,
      "taf_trigger": false,
      "metar": "METAR LTFM 021750Z 35021KT 9999 -SHRASN BKN007 BKN022 02/00 Q1014 NOSIG",
      "taf": "TAF LTFM 021640Z 0218/0324 34020G32KT 9999 -SHRASN BKN007 BKN022"
    },
    {
      "icao": "LUKK",
      "alert": "OK",
      "vis_m": 9999,
      "fzfg": false,
      "metar_trigger": false,
      "taf_trigger": false,
      "metar": "METAR LUKK 021730Z 02010KT CAVOK M09/M15 Q1018 NOSIG",
      "taf": "TAF LUKK 021703Z 0218/0318 VRB06KT CAVOK"
    },
    {
      "icao": "LWOH",
      "alert": "OK",
      "vis_m": 6000,
      "fzfg": false,
      "metar_trigger": false,
      "taf_trigger": false,
      "metar": "METAR LWOH 021750Z VRB02KT 6000 -RA SCT010 OVC030 03/03 Q1010",
      "taf": "TAF LWOH 021735Z 0218/0318 VRB03KT 9999 SCT015 BKN035"
    },
    {
      "icao": "LWSK",
      "alert": "OK",
      "vis_m": 9999,
      "fzfg": false,
      "metar_trigger": false,
      "taf_trigger": false,
      "metar": "METAR LWSK 021750Z 03006KT 9999 FEW040 BKN070 02/M01 Q1013 NOSIG",
      "taf": "TAF LWSK 021735Z 0218/0318 VRB03KT 9999 FEW040 SCT080"
    },
    {
      "icao": "LYBE",
      "alert": "OK",
      "vis_m": 9999,
      "fzfg": false,
      "metar_trigger": false,
      "taf_trigger": false,
      "metar": "METAR LYBE 021730Z 11009KT CAVOK M01/M05 Q1013 NOSIG",
      "taf": "TAF LYBE 021700Z 0218/0318 12009KT CAVOK TX05/0312Z TNM03/0306Z"
    },
    {
      "icao": "LYNI",
      "alert": "OK",
      "vis_m": 9999,
      "fzfg": false,
      "metar_trigger": false,
      "taf_trigger": false,
      "metar": "METAR LYNI 021730Z 11004KT 9999 SCT033 BKN085 M02/M06 Q1014 NOSIG",
      "taf": "TAF LYNI 021700Z 0218/0318 09006KT 9999 SCT030 TX06/0312Z TNM05/0306Z"
    },
    {
      "icao": "LYPG",
      "alert": "OK",
      "vis_m": 9999,
      "fzfg": false,
      "metar_trigger": false,
      "taf_trigger": false,
      "metar": "METAR LYPG 021730Z VRB02KT 9999 SCT040 SCT070 05/03 Q1011 NOSIG",
      "taf": "TAF LYPG 021700Z 0218/0318 24005KT 9999 SCT050 TX09/0312Z TN02/0302Z"
    },
    {
      "icao": "LZIB",
      "alert": "OK",
      "vis_m": 9000,
      "fzfg": false,
      "metar_trigger": false,
      "taf_trigger": false,
      "metar": "METAR LZIB 021730Z 12010KT 9000 BKN008 BKN014 02/01 Q1009 NOSIG",
      "taf": "TAF LZIB 021715Z 0218/0318 12012KT 9999 BKN008 OVC013"
    },
    {
      "icao": "LZKZ",
      "alert": "OK",
      "vis_m": 9999,
      "fzfg": false,
      "metar_trigger": false,
      "taf_trigger": false,
      "metar": "METAR LZKZ 021730Z 07005KT 9999 OVC016 M02/M08 Q1012 TEMPO BKN014",
      "taf": "TAF LZKZ 021715Z 0218/0318 04005KT 9999 BKN018"
    },
    {
      "icao": "LZTT",
      "alert": "OK",
      "vis_m": 9999,
      "fzfg": false,
      "metar_trigger": false,
      "taf_trigger": false,
      "metar": "METAR LZTT 021730Z 10004KT 9999 FEW011 BKN014 M03/M05 Q1009 BECMG BKN012",
      "taf": "TAF LZTT 021715Z 0218/0318 VRB02KT 9999 SCT013 BKN040"
    },
    {
      "icao": "OEJN",
      "alert": "OK",
      "vis_m": 9999,
      "fzfg": false,
      "metar_trigger": false,
      "taf_trigger": false,
      "metar": "METAR OEJN 021700Z 28004KT CAVOK 27/20 Q1014 NOSIG",
      "taf": "TAF OEJN 021700Z 0218/0324 02006KT 7000 FEW040"
    },
    {
      "icao": "OEMA",
      "alert": "OK",
      "vis_m": 9999,
      "fzfg": false,
      "metar_trigger": false,
      "taf_trigger": false,
      "metar": "METAR OEMA 021700Z 25010KT CAVOK 27/13 Q1017 NOSIG",
      "taf": "TAF OEMA 021700Z 0218/0324 VRB03KT 9999 FEW040"
    },
    {
      "icao": "OJAI",
      "alert": "OK",
      "vis_m": 3000,
      "fzfg": false,
      "metar_trigger": false,
      "taf_trigger": false,
      "metar": "METAR OJAI 021700Z 27010KT 3000 HZ NSC 14/03 Q1017 NOSIG",
      "taf": "TAF OJAI 021700Z 0218/0324 27012KT 3000 HZ NSC"
    },
    {
      "icao": "OMAA",
      "alert": "OK",
      "vis_m": 9999,
      "fzfg": false,
      "metar_trigger": false,
      "taf_trigger": false,
      "metar": "METAR OMAA 021730Z 35003KT CAVOK 22/08 Q1018 NOSIG",
      "taf": "TAF OMAA 021700Z 0218/0400 02005KT 8000 NSC"
    },
    {
      "icao": "OMDB",
      "alert": "OK",
      "vis_m": 9999,
      "fzfg": false,
      "metar_trigger": false,
      "taf_trigger": false,
      "metar": "METAR OMDB 021730Z 01004KT 330V130 CAVOK 22/12 Q1019 NOSIG",
      "taf": "TAF OMDB 021700Z 0218/0400 09005KT 8000 NSC"
    },
    {
      "icao": "UAAA",
      "alert": "OK",
      "vis_m": 2700,
      "fzfg": false,
      "metar_trigger": false,
      "taf_trigger": false,
      "metar": "METAR UAAA 021730Z 13002MPS 2700 BR FU SCT200 M01/M05 Q1017 NOSIG",
      "taf": "TAF UAAA 021703Z 0218/0318 20003MPS 1500 BR FU SCT050 BKN100 TX06/0309Z TNM06/0302Z"
    },
    {
      "icao": "UBBB",
      "alert": "OK",
      "vis_m": 9999,
      "fzfg": false,
      "metar_trigger": false,
      "taf_trigger": false,
      "metar": "METAR UBBB 021730Z 18024G34KT 9999 BKN010 09/07 Q1011 NOSIG",
      "taf": "TAF UBBB 021710Z 0218/0318 19022G32KT 8000 BKN012 BKN030 TX10/0310Z TN06/0300Z"
    },
    {
      "icao": "UDSG",
      "alert": "OK",
      "vis_m": 1900,
      "fzfg": false,
      "metar_trigger": false,
      "taf_trigger": false,
      "metar": "METAR UDSG 021730Z 12003KT 1900 SNRA BR OVC030 00/00 Q1015 NOSIG",
      "taf": "TAF UDSG 021700Z 0218/0318 VRB06KT 1500 BR OVC020"
    },
    {
      "icao": "UDYZ",
      "alert": "OK",
      "vis_m": 500,
      "fzfg": false,
      "metar_trigger": false,
      "taf_trigger": false,
      "metar": "METAR UDYZ 021730Z 33001KT 0500 0450W R08/1300U -SHRA FG BKN036CB 01/01 Q1016 NOSIG",
      "taf": ""
    },
    {
      "icao": "UGKO",
      "alert": "OK",
      "vis_m": 9999,
      "fzfg": false,
      "metar_trigger": false,
      "taf_trigger": false,
      "metar": "METAR UGKO 021730Z 08023G35KT 9999 BKN052 12/05 Q1005 NOSIG",
      "taf": "TAF UGKO 021700Z 0218/0318 08017KT 9999 BKN050 TX11/0218Z TN05/0318Z"
    }
  ]
}