{
  "ts_utc": "2026-03-29T23:31:54Z",
  "threshold_m": 150,
  "source": "stations_override.txt (ICAO list) + aviationweather.gov (METAR/TAF raw)",
  "station_count": 159,
  "stations": [
    {
      "icao": "BIKF",
      "alert": "OK",
      "vis_m": 9000,
      "fzfg": false,
      "metar_trigger": false,
      "taf_trigger": false,
      "metar": "METAR BIKF 292300Z 32007KT 9000 -DZ FEW009 BKN021 02/02 Q0992",
      "taf": "TAF BIKF 292301Z 3000/3100 30007KT 9999 -SHRA FEW015 BKN030 TX04/3013Z TN00/3005Z"
    },
    {
      "icao": "BKPR",
      "alert": "OK",
      "vis_m": 9999,
      "fzfg": false,
      "metar_trigger": false,
      "taf_trigger": false,
      "metar": "METAR BKPR 292330Z 36006KT 9999 BKN040 05/01 Q1014 NOSIG",
      "taf": "TAF BKPR 292330Z 3000/3024 34008KT 9999 BKN040"
    },
    {
      "icao": "EBCI",
      "alert": "OK",
      "vis_m": 5000,
      "fzfg": false,
      "metar_trigger": false,
      "taf_trigger": false,
      "metar": "METAR EBCI 292320Z 23016KT 5000 -RA BKN008 BKN017 06/05 Q1020 BECMG 29013KT FEW016",
      "taf": "TAF EBCI 292304Z 3000/3106 23015G27KT 9999 SCT006 BKN008"
    },
    {
      "icao": "EDDB",
      "alert": "OK",
      "vis_m": 9999,
      "fzfg": false,
      "metar_trigger": false,
      "taf_trigger": false,
      "metar": "METAR EDDB 292320Z AUTO 20010KT CAVOK 04/00 Q1018 NOSIG",
      "taf": "TAF EDDB 292300Z 3000/3024 20011KT 9999 SCT040"
    },
    {
      "icao": "EDDH",
      "alert": "OK",
      "vis_m": 9999,
      "fzfg": false,
      "metar_trigger": false,
      "taf_trigger": false,
      "metar": "METAR EDDH 292320Z AUTO 20016KT 9999 -RADZ BKN017 BKN023 BKN028 05/02 Q1011 TEMPO 22020G30KT",
      "taf": "TAF EDDH 292300Z 3000/3106 20015G30KT 9999 SCT013 BKN020"
    },
    {
      "icao": "EDDK",
      "alert": "OK",
      "vis_m": 9999,
      "fzfg": false,
      "metar_trigger": false,
      "taf_trigger": false,
      "metar": "METAR EDDK 292320Z AUTO 22010G22KT 9999 RA SCT020 BKN027 06/03 Q1019 NOSIG",
      "taf": "TAF EDDK 292300Z 3000/3106 23010KT 9999 BKN025"
    },
    {
      "icao": "EDDN",
      "alert": "OK",
      "vis_m": 9999,
      "fzfg": false,
      "metar_trigger": false,
      "taf_trigger": false,
      "metar": "METAR EDDN 292320Z AUTO 20005KT CAVOK 03/M01 Q1023",
      "taf": "TAF EDDN 292300Z 3000/3024 17007KT 9999 SCT030"
    },
    {
      "icao": "EDDS",
      "alert": "OK",
      "vis_m": 9999,
      "fzfg": false,
      "metar_trigger": false,
      "taf_trigger": false,
      "metar": "METAR EDDS 292320Z AUTO 22004KT 150V290 CAVOK 03/M02 Q1024",
      "taf": "TAF EDDS 292300Z 3000/3024 20005KT 9999 BKN020"
    },
    {
      "icao": "EDFH",
      "alert": "OK",
      "vis_m": 9999,
      "fzfg": false,
      "metar_trigger": false,
      "taf_trigger": false,
      "metar": "METAR EDFH 292320Z 24013KT 9999 -RA FEW027 SCT037 04/M01 Q1020",
      "taf": "TAF EDFH 292300Z 3000/3024 24015G25KT 9999 BKN015"
    },
    {
      "icao": "EDJA",
      "alert": "OK",
      "vis_m": 9999,
      "fzfg": false,
      "metar_trigger": false,
      "taf_trigger": false,
      "metar": "METAR EDJA 292320Z AUTO 19005KT 9999 // FEW170/// BKN230/// M00/M01 Q1024",
      "taf": "TAF EDJA 291700Z 2918/3003 19004KT 9999 BKN045"
    },
    {
      "icao": "EDLW",
      "alert": "OK",
      "vis_m": 9999,
      "fzfg": false,
      "metar_trigger": false,
      "taf_trigger": false,
      "metar": "METAR EDLW 292320Z AUTO 21017KT 9999 // OVC011/// 04/03 Q1016",
      "taf": "TAF EDLW 291700Z 2918/3018 22013KT 9999 BKN040"
    },
    {
      "icao": "EDNY",
      "alert": "OK",
      "vis_m": 9999,
      "fzfg": false,
      "metar_trigger": false,
      "taf_trigger": false,
      "metar": "METAR EDNY 292320Z AUTO VRB01KT 9999 // BKN230/// 00/M00 Q1026",
      "taf": "TAF EDNY 291700Z 2918/3003 VRB03KT 9999 SCT050"
    },
    {
      "icao": "EDSB",
      "alert": "OK",
      "vis_m": 9999,
      "fzfg": false,
      "metar_trigger": false,
      "taf_trigger": false,
      "metar": "METAR EDSB 292320Z AUTO 20009KT 9999 // FEW054/// OVC100/// 05/00 Q1025",
      "taf": "TAF EDSB 292300Z 3000/3024 21012KT 9999 BKN020"
    },
    {
      "icao": "EETN",
      "alert": "OK",
      "vis_m": 9999,
      "fzfg": false,
      "metar_trigger": false,
      "taf_trigger": false,
      "metar": "METAR EETN 292320Z 19005KT CAVOK M00/M01 Q1014",
      "taf": "TAF EETN 291730Z 2918/3018 21007KT 9999 BKN030"
    },
    {
      "icao": "EFTU",
      "alert": "OK",
      "vis_m": 9999,
      "fzfg": false,
      "metar_trigger": false,
      "taf_trigger": false,
      "metar": "METAR EFTU 292320Z AUTO 19009KT 9999 BKN004 01/00 Q1011",
      "taf": "TAF EFTU 292037Z 2921/3021 19009KT 9999 BKN007"
    },
    {
      "icao": "EGBB",
      "alert": "OK",
      "vis_m": 9999,
      "fzfg": false,
      "metar_trigger": false,
      "taf_trigger": false,
      "metar": "METAR EGBB 292320Z 29008KT 9999 BKN049 09/03 Q1020",
      "taf": "TAF EGBB 292258Z 3000/3024 29012KT 9999 SCT040"
    },
    {
      "icao": "EGGP",
      "alert": "OK",
      "vis_m": 9999,
      "fzfg": false,
      "metar_trigger": false,
      "taf_trigger": false,
      "metar": "METAR EGGP 292320Z 29019KT 9999 FEW031 BKN043 09/02 Q1020",
      "taf": "TAF EGGP 292259Z 3000/3024 27018G30KT 9999 SCT030"
    },
    {
      "icao": "EGGW",
      "alert": "OK",
      "vis_m": 9999,
      "fzfg": false,
      "metar_trigger": false,
      "taf_trigger": false,
      "metar": "METAR EGGW 292320Z AUTO 27011KT 9999 FEW046 07/06 Q1019",
      "taf": "TAF EGGW 292253Z 3000/3024 28010KT 9999 FEW035"
    },
    {
      "icao": "EGKK",
      "alert": "OK",
      "vis_m": 9999,
      "fzfg": false,
      "metar_trigger": false,
      "taf_trigger": false,
      "metar": "METAR EGKK 292320Z 24010KT 9999 FEW014 09/07 Q1021",
      "taf": "TAF EGKK 292255Z 3000/3106 24009KT 9999 FEW030"
    },
    {
      "icao": "EGNM",
      "alert": "OK",
      "vis_m": 9999,
      "fzfg": false,
      "metar_trigger": false,
      "taf_trigger": false,
      "metar": "METAR EGNM 292320Z 29018KT 9999 -SHRA SCT015 BKN032 04/02 Q1017",
      "taf": "TAF EGNM 292258Z 3000/3024 29015G25KT 9999 SCT030"
    },
    {
      "icao": "EGPD",
      "alert": "OK",
      "vis_m": 9999,
      "fzfg": false,
      "metar_trigger": false,
      "taf_trigger": false,
      "metar": "METAR EGPD 292320Z COR AUTO 26011KT 230V290 9999 NCD 04/M01 Q1008 NOSIG",
      "taf": "TAF EGPD 292252Z 3000/3024 28013KT 9999 FEW018"
    },
    {
      "icao": "EGPF",
      "alert": "OK",
      "vis_m": 9999,
      "fzfg": false,
      "metar_trigger": false,
      "taf_trigger": false,
      "metar": "METAR EGPF 292320Z AUTO 29006KT 250V320 9999 -RA SCT027/// BKN036/// //////TCU 05/02 Q1014",
      "taf": "TAF EGPF 292254Z 3000/3024 27012KT 9999 SCT025"
    },
    {
      "icao": "EHBK",
      "alert": "OK",
      "vis_m": 9999,
      "fzfg": false,
      "metar_trigger": false,
      "taf_trigger": false,
      "metar": "METAR EHBK 292325Z AUTO 23018KT 200V260 9999 -RA FEW007 SCT008 BKN010 FEW015CB 06/04 Q1018 REDZRA",
      "taf": "TAF EHBK 292302Z 3000/3106 23015G25KT 9999 BKN008"
    },
    {
      "icao": "EHEH",
      "alert": "OK",
      "vis_m": 9999,
      "fzfg": false,
      "metar_trigger": false,
      "taf_trigger": false,
      "metar": "METAR EHEH 292325Z AUTO 22014KT 190V270 9999 FEW007 BKN013 OVC016 07/06 Q1016 REDZ GRN",
      "taf": ""
    },
    {
      "icao": "EKBI",
      "alert": "OK",
      "vis_m": 9999,
      "fzfg": false,
      "metar_trigger": false,
      "taf_trigger": false,
      "metar": "METAR EKBI 292320Z AUTO 19014KT 9999 RA OVC007/// 04/03 Q1004",
      "taf": "TAF EKBI 292327Z 3000/3024 19015G28KT 4000 RA BKN008 SCT020CB"
    },
    {
      "icao": "EKCH",
      "alert": "OK",
      "vis_m": 9999,
      "fzfg": false,
      "metar_trigger": false,
      "taf_trigger": false,
      "metar": "METAR EKCH 292320Z AUTO 20015G25KT 9999 OVC027/// 05/02 Q1011 TEMPO 19015G25KT",
      "taf": "TAF EKCH 292327Z 3000/3024 19013KT 9999 SCT015 BKN025"
    },
    {
      "icao": "ENAL",
      "alert": "OK",
      "vis_m": 9999,
      "fzfg": false,
      "metar_trigger": false,
      "taf_trigger": false,
      "metar": "METAR ENAL 292320Z AUTO 19010KT 9999 -RA FEW030/// SCT042/// 05/02 Q0993",
      "taf": "TAF ENAL 291400Z 2915/2922 19012KT 9999 SCT040"
    },
    {
      "icao": "ENBR",
      "alert": "OK",
      "vis_m": 9999,
      "fzfg": false,
      "metar_trigger": false,
      "taf_trigger": false,
      "metar": "METAR ENBR 292320Z 13004KT 9999 FEW013 SCT025 BKN052 03/02 Q0997 RMK WIND 1200FT 25013KT",
      "taf": ""
    },
    {
      "icao": "ENGM",
      "alert": "OK",
      "vis_m": 7000,
      "fzfg": false,
      "metar_trigger": false,
      "taf_trigger": false,
      "metar": "METAR ENGM 292320Z 16011KT 7000 -SNRA BKN005 01/M00 Q1000",
      "taf": "TAF ENGM 291700Z 2918/3018 20012KT 9999 BKN030"
    },
    {
      "icao": "ENHD",
      "alert": "OK",
      "vis_m": 9999,
      "fzfg": false,
      "metar_trigger": false,
      "taf_trigger": false,
      "metar": "METAR ENHD 292320Z AUTO 26019KT 9999 FEW017/// SCT022/// 05/02 Q0999",
      "taf": "TAF ENHD 291400Z 2915/2922 18022G35KT 4000 RA BR BKN008"
    },
    {
      "icao": "ENTC",
      "alert": "OK",
      "vis_m": 9999,
      "fzfg": false,
      "metar_trigger": false,
      "taf_trigger": false,
      "metar": "METAR ENTC 292320Z 10002KT 9999 NSC M00/M02 Q1000 RMK WIND 2600FT 19019KT",
      "taf": "TAF ENTC 291700Z 2918/3018 21015KT 9999 FEW017 BKN030"
    },
    {
      "icao": "ENTO",
      "alert": "OK",
      "vis_m": 8000,
      "fzfg": false,
      "metar_trigger": false,
      "taf_trigger": false,
      "metar": "METAR ENTO 292320Z AUTO 19016KT 8000 RA SCT005/// BKN007/// 02/02 Q1000 REDZRA",
      "taf": "TAF ENTO 291700Z 2918/3018 21012KT 9999 BKN030"
    },
    {
      "icao": "ENVA",
      "alert": "OK",
      "vis_m": 9999,
      "fzfg": false,
      "metar_trigger": false,
      "taf_trigger": false,
      "metar": "METAR ENVA 292320Z AUTO 16013KT 120V190 9999 NCD 07/M02 Q0994 RMK WIND 670FT 17023G41KT",
      "taf": "TAF ENVA 291700Z 2918/3018 14008KT 9999 FEW045"
    },
    {
      "icao": "ENZV",
      "alert": "OK",
      "vis_m": 9999,
      "fzfg": false,
      "metar_trigger": false,
      "taf_trigger": false,
      "metar": "METAR ENZV 292320Z 26004KT 9999 FEW015CB SCT020 05/02 Q1000",
      "taf": ""
    },
    {
      "icao": "EPGD",
      "alert": "OK",
      "vis_m": 9999,
      "fzfg": false,
      "metar_trigger": false,
      "taf_trigger": false,
      "metar": "METAR EPGD 292300Z 20004KT CAVOK 02/M01 Q1018",
      "taf": "TAF EPGD 292330Z 3000/3024 VRB03KT CAVOK"
    },
    {
      "icao": "EPKK",
      "alert": "OK",
      "vis_m": 9999,
      "fzfg": false,
      "metar_trigger": false,
      "taf_trigger": false,
      "metar": "METAR EPKK 292300Z 25006KT 9999 -RA OVC018 05/03 Q1020",
      "taf": "TAF EPKK 292330Z 3000/3024 25007KT 9999 BKN016"
    },
    {
      "icao": "EPKT",
      "alert": "OK",
      "vis_m": 9999,
      "fzfg": false,
      "metar_trigger": false,
      "taf_trigger": false,
      "metar": "METAR EPKT 292300Z 26006KT 9999 SCT006 03/02 Q1020",
      "taf": "TAF EPKT 292330Z 3000/3024 26007KT 9999 FEW007"
    },
    {
      "icao": "EPLB",
      "alert": "OK",
      "vis_m": 9999,
      "fzfg": false,
      "metar_trigger": false,
      "taf_trigger": false,
      "metar": "METAR EPLB 292300Z 32008KT CAVOK 10/03 Q1015",
      "taf": "TAF EPLB 292330Z 3000/3024 32008KT CAVOK"
    },
    {
      "icao": "EPMO",
      "alert": "OK",
      "vis_m": 9999,
      "fzfg": false,
      "metar_trigger": false,
      "taf_trigger": false,
      "metar": "METAR EPMO 292300Z 31006KT CAVOK 03/00 Q1018",
      "taf": "TAF EPMO 292330Z 3000/3024 30010KT CAVOK"
    },
    {
      "icao": "EPPO",
      "alert": "OK",
      "vis_m": 9999,
      "fzfg": false,
      "metar_trigger": false,
      "taf_trigger": false,
      "metar": "METAR EPPO 292300Z 23002KT CAVOK 01/M02 Q1020",
      "taf": "TAF EPPO 292330Z 3000/3024 25003KT CAVOK"
    },
    {
      "icao": "EPRA",
      "alert": "OK",
      "vis_m": 9999,
      "fzfg": false,
      "metar_trigger": false,
      "taf_trigger": false,
      "metar": "METAR EPRA 292300Z 31009KT CAVOK 06/01 Q1017",
      "taf": "TAF EPRA 292330Z 3000/3009 30008KT CAVOK"
    },
    {
      "icao": "EPRZ",
      "alert": "OK",
      "vis_m": 9999,
      "fzfg": false,
      "metar_trigger": false,
      "taf_trigger": false,
      "metar": "METAR EPRZ 292300Z 27011KT CAVOK 09/04 Q1016",
      "taf": "TAF EPRZ 292330Z 3000/3024 28010KT CAVOK"
    },
    {
      "icao": "EPSC",
      "alert": "OK",
      "vis_m": 9999,
      "fzfg": false,
      "metar_trigger": false,
      "taf_trigger": false,
      "metar": "METAR EPSC 292300Z 15006KT CAVOK 03/M00 Q1018",
      "taf": "TAF EPSC 292330Z 3000/3024 18010KT CAVOK"
    },
    {
      "icao": "EPSY",
      "alert": "OK",
      "vis_m": 9999,
      "fzfg": false,
      "metar_trigger": false,
      "taf_trigger": false,
      "metar": "METAR EPSY 292300Z 33004KT CAVOK 03/01 Q1018",
      "taf": "TAF EPSY 292330Z 3000/3009 33006KT CAVOK"
    },
    {
      "icao": "EPWA",
      "alert": "OK",
      "vis_m": 9999,
      "fzfg": false,
      "metar_trigger": false,
      "taf_trigger": false,
      "metar": "METAR EPWA 292300Z 31007KT CAVOK 04/01 Q1018 NOSIG",
      "taf": "TAF EPWA 292330Z 3000/3024 30010KT CAVOK"
    },
    {
      "icao": "EPWR",
      "alert": "OK",
      "vis_m": 9999,
      "fzfg": false,
      "metar_trigger": false,
      "taf_trigger": false,
      "metar": "METAR EPWR 292300Z 27005KT CAVOK 05/01 Q1021",
      "taf": "TAF EPWR 292330Z 3000/3024 26005KT CAVOK"
    },
    {
      "icao": "ESGG",
      "alert": "OK",
      "vis_m": 5000,
      "fzfg": false,
      "metar_trigger": false,
      "taf_trigger": false,
      "metar": "METAR ESGG 292320Z 18015KT 5000 -RA OVC006 02/01 Q1005",
      "taf": ""
    },
    {
      "icao": "ESKN",
      "alert": "OK",
      "vis_m": 9999,
      "fzfg": false,
      "metar_trigger": false,
      "taf_trigger": false,
      "metar": "METAR ESKN 292320Z 17007KT CAVOK 04/00 Q1009",
      "taf": "TAF ESKN 292030Z 2921/3021 20012KT CAVOK"
    },
    {
      "icao": "ESMS",
      "alert": "OK",
      "vis_m": 9999,
      "fzfg": false,
      "metar_trigger": false,
      "taf_trigger": false,
      "metar": "METAR ESMS 292320Z 19013KT CAVOK 05/01 Q1011",
      "taf": "TAF ESMS 292027Z 2921/3021 21010KT 9999 FEW030"
    },
    {
      "icao": "ESSA",
      "alert": "OK",
      "vis_m": 9999,
      "fzfg": false,
      "metar_trigger": false,
      "taf_trigger": false,
      "metar": "METAR ESSA 292320Z 18007KT CAVOK 01/M02 Q1009 NOSIG",
      "taf": "TAF ESSA 292030Z 2921/3021 19009KT CAVOK"
    },
    {
      "icao": "EYKA",
      "alert": "OK",
      "vis_m": 9999,
      "fzfg": false,
      "metar_trigger": false,
      "taf_trigger": false,
      "metar": "METAR EYKA 292320Z AUTO 32003KT 270V360 9999 NCD 04/00 Q1017",
      "taf": "TAF EYKA 292312Z 3000/3024 VRB03KT 9000 NSC"
    },
    {
      "icao": "EYPA",
      "alert": "OK",
      "vis_m": 2300,
      "fzfg": false,
      "metar_trigger": false,
      "taf_trigger": false,
      "metar": "METAR EYPA 292320Z AUTO 24003KT 160V290 2300 BR VV002 01/01 Q1018",
      "taf": "TAF EYPA 292313Z 3000/3024 VRB03KT 3000 BR OVC002"
    },
    {
      "icao": "EYVI",
      "alert": "OK",
      "vis_m": 9999,
      "fzfg": false,
      "metar_trigger": false,
      "taf_trigger": false,
      "metar": "METAR EYVI 292320Z 33007KT CAVOK 07/02 Q1015 NOSIG",
      "taf": "TAF EYVI 292300Z 3000/3024 34006KT 9000 NSC"
    },
    {
      "icao": "GCFV",
      "alert": "OK",
      "vis_m": 9999,
      "fzfg": false,
      "metar_trigger": false,
      "taf_trigger": false,
      "metar": "METAR GCFV 292300Z 02020KT CAVOK 18/13 Q1019",
      "taf": "TAF GCFV 292000Z 2921/3021 03016KT 9999 FEW025 TX21/3014Z TN16/3006Z"
    },
    {
      "icao": "GCLP",
      "alert": "OK",
      "vis_m": 9999,
      "fzfg": false,
      "metar_trigger": false,
      "taf_trigger": false,
      "metar": "METAR GCLP 292300Z 01018KT 9999 SCT020 BKN030 18/14 Q1020 NOSIG",
      "taf": "TAF GCLP 292000Z 2921/3021 01021KT 9999 SCT025 TX21/3014Z TN17/3006Z"
    },
    {
      "icao": "GCTS",
      "alert": "OK",
      "vis_m": 9999,
      "fzfg": false,
      "metar_trigger": false,
      "taf_trigger": false,
      "metar": "METAR GCTS 292300Z 07021KT CAVOK 18/11 Q1019 WS R07 NOSIG",
      "taf": "TAF GCTS 292000Z 2921/3021 05018KT CAVOK TX24/3014Z TN17/3006Z"
    },
    {
      "icao": "GMAD",
      "alert": "OK",
      "vis_m": 8000,
      "fzfg": false,
      "metar_trigger": false,
      "taf_trigger": false,
      "metar": "METAR GMAD 292300Z 03003KT 8000 NSC 14/13 Q1014 NOSIG",
      "taf": "TAF GMAD 292300Z 3000/3106 03003KT 8000 NSC"
    },
    {
      "icao": "GMMN",
      "alert": "OK",
      "vis_m": 9999,
      "fzfg": false,
      "metar_trigger": false,
      "taf_trigger": false,
      "metar": "METAR GMMN 292300Z 19004KT 160V220 CAVOK 09/07 Q1022 NOSIG",
      "taf": "TAF GMMN 292300Z 3000/3106 04004KT CAVOK"
    },
    {
      "icao": "GMMX",
      "alert": "OK",
      "vis_m": 9999,
      "fzfg": false,
      "metar_trigger": false,
      "taf_trigger": false,
      "metar": "METAR GMMX 292300Z 04010KT 9999 FEW026 15/05 Q1020 NOSIG",
      "taf": "TAF GMMX 291700Z 2918/3024 04006KT CAVOK"
    },
    {
      "icao": "HEGN",
      "alert": "OK",
      "vis_m": 9999,
      "fzfg": false,
      "metar_trigger": false,
      "taf_trigger": false,
      "metar": "METAR HEGN 292300Z 31010KT 9999 BKN025 22/13 Q1010 NOSIG",
      "taf": "TAF HEGN 292300Z 3000/3106 34015G25KT 9999 SCT025"
    },
    {
      "icao": "HEMA",
      "alert": "OK",
      "vis_m": 9999,
      "fzfg": false,
      "metar_trigger": false,
      "taf_trigger": false,
      "metar": "METAR HEMA 292300Z 36003KT CAVOK 23/14 Q1008 NOSIG",
      "taf": "TAF HEMA 292300Z 3000/3106 33015G25KT 9999 SCT025"
    },
    {
      "icao": "HESH",
      "alert": "OK",
      "vis_m": 9999,
      "fzfg": false,
      "metar_trigger": false,
      "taf_trigger": false,
      "metar": "METAR HESH 292300Z 15007KT CAVOK 21/15 Q1010 NOSIG",
      "taf": "TAF HESH 292300Z 3000/3106 32008KT 9999 SCT025"
    },
    {
      "icao": "HESX",
      "alert": "OK",
      "vis_m": 9999,
      "fzfg": false,
      "metar_trigger": false,
      "taf_trigger": false,
      "metar": "METAR HESX 292300Z 04004KT CAVOK 12/09 Q1014 NOSIG",
      "taf": "TAF HESX 292300Z 3000/3106 03005KT CAVOK"
    },
    {
      "icao": "LATI",
      "alert": "OK",
      "vis_m": 9999,
      "fzfg": false,
      "metar_trigger": false,
      "taf_trigger": false,
      "metar": "METAR LATI 292320Z VRB02KT CAVOK 07/04 Q1013 NOSIG",
      "taf": "TAF LATI 292300Z 3000/3024 VRB03KT CAVOK TX18/3012Z TN04/3004Z"
    },
    {
      "icao": "LBPD",
      "alert": "OK",
      "vis_m": 9999,
      "fzfg": false,
      "metar_trigger": false,
      "taf_trigger": false,
      "metar": "METAR LBPD 292330Z AUTO 28020G34KT 9999 FEW098/// OVC170/// 10/02 Q1008",
      "taf": "TAF LBPD 292300Z 3000/3024 28020G30KT 9999 SCT040 BKN060"
    },
    {
      "icao": "LBSF",
      "alert": "OK",
      "vis_m": 9999,
      "fzfg": false,
      "metar_trigger": false,
      "taf_trigger": false,
      "metar": "METAR LBSF 292330Z AUTO 29012KT 9999 -SHRA OVC012/// 05/02 Q1012 NOSIG",
      "taf": "TAF LBSF 292300Z 3000/3024 28016KT 9999 SCT020 BKN030 BKN040"
    },
    {
      "icao": "LBWN",
      "alert": "OK",
      "vis_m": 9999,
      "fzfg": false,
      "metar_trigger": false,
      "taf_trigger": false,
      "metar": "METAR LBWN 292330Z AUTO 34020KT 9999 -RA FEW009/// 11/11 Q1003 NOSIG",
      "taf": "TAF LBWN 292300Z 3000/3024 34012KT 7000 RA SCT010 BKN015 OVC025"
    },
    {
      "icao": "LCLK",
      "alert": "OK",
      "vis_m": 9999,
      "fzfg": false,
      "metar_trigger": false,
      "taf_trigger": false,
      "metar": "METAR LCLK 292300Z 23008KT 9999 FEW025CB 14/10 Q1007 NOSIG RMK CB TO N",
      "taf": "TAF LCLK 292330Z 3000/3100 24010KT 9999 FEW030"
    },
    {
      "icao": "LCPH",
      "alert": "OK",
      "vis_m": 9999,
      "fzfg": false,
      "metar_trigger": false,
      "taf_trigger": false,
      "metar": "METAR LCPH 292300Z 29016KT 250V320 9999 SCT030 BKN040 16/10 Q1008 NOSIG",
      "taf": "TAF LCPH 292330Z 3000/3100 29018KT 9999 FEW025 SCT035"
    },
    {
      "icao": "LEAL",
      "alert": "OK",
      "vis_m": 9999,
      "fzfg": false,
      "metar_trigger": false,
      "taf_trigger": false,
      "metar": "METAR LEAL 292300Z 34010KT 310V010 CAVOK 13/M06 Q1025 NOSIG",
      "taf": "TAF LEAL 292300Z 3000/3024 33007KT 9999 FEW025 TX17/3012Z TN07/3006Z"
    },
    {
      "icao": "LEBB",
      "alert": "OK",
      "vis_m": 9999,
      "fzfg": false,
      "metar_trigger": false,
      "taf_trigger": false,
      "metar": "METAR LEBB 292300Z AUTO VRB01KT 9999 FEW040 SCT046 07/03 Q1036",
      "taf": "TAF LEBB 292300Z 3000/3024 31009KT 9999 SCT020 BKN035 TX12/3018Z TN06/3000Z"
    },
    {
      "icao": "LEBL",
      "alert": "OK",
      "vis_m": 9999,
      "fzfg": false,
      "metar_trigger": false,
      "taf_trigger": false,
      "metar": "METAR LEBL 292300Z 32008KT CAVOK 08/M02 Q1024 NOSIG",
      "taf": "TAF LEBL 292300Z 3000/3024 34007KT CAVOK TX21/3012Z TN07/3006Z"
    },
    {
      "icao": "LECH",
      "alert": "OK",
      "vis_m": 9000,
      "fzfg": false,
      "metar_trigger": false,
      "taf_trigger": false,
      "metar": "METAR LECH 292300Z AUTO 33022G32KT 290V360 9000 NCD 08/M04 Q1025",
      "taf": "TAF LECH 292300Z 3000/3024 33015KT 9999 FEW030 TX21/3013Z TN06/3006Z"
    },
    {
      "icao": "LEMD",
      "alert": "OK",
      "vis_m": 9999,
      "fzfg": false,
      "metar_trigger": false,
      "taf_trigger": false,
      "metar": "METAR LEMD 292300Z 05005KT 360V110 CAVOK 05/M07 Q1030 NOSIG",
      "taf": "TAF LEMD 292300Z 3000/3106 VRB04KT CAVOK TX20/3016Z TN00/3006Z"
    },
    {
      "icao": "LEMG",
      "alert": "OK",
      "vis_m": 9999,
      "fzfg": false,
      "metar_trigger": false,
      "taf_trigger": false,
      "metar": "METAR LEMG 292300Z 10010KT 060V120 9999 FEW045 13/05 Q1026 NOSIG",
      "taf": "TAF LEMG 292300Z 3000/3024 11010KT 9999 FEW050 TX19/3013Z TN09/3007Z"
    },
    {
      "icao": "LEVC",
      "alert": "OK",
      "vis_m": 9999,
      "fzfg": false,
      "metar_trigger": false,
      "taf_trigger": false,
      "metar": "METAR LEVC 292300Z 31016KT CAVOK 11/M05 Q1026 NOSIG",
      "taf": "TAF LEVC 292300Z 3000/3024 30009KT 9999 FEW025 TX22/3013Z TN05/3006Z"
    },
    {
      "icao": "LEXJ",
      "alert": "OK",
      "vis_m": 9999,
      "fzfg": false,
      "metar_trigger": false,
      "taf_trigger": false,
      "metar": "METAR LEXJ 292300Z AUTO 36003KT 300V050 9999 FEW038 10/03 Q1036",
      "taf": "TAF LEXJ 292000Z 2921/3021 31009KT 9999 SCT035 TX13/3021Z TN09/3003Z"
    },
    {
      "icao": "LEZG",
      "alert": "OK",
      "vis_m": 9999,
      "fzfg": false,
      "metar_trigger": false,
      "taf_trigger": false,
      "metar": "METAR LEZG 292300Z 29019KT CAVOK 07/M00 Q1029 NOSIG",
      "taf": "TAF LEZG 292300Z 3000/3024 34020KT 9999 FEW045 TX17/3014Z TN06/3006Z"
    },
    {
      "icao": "LEZL",
      "alert": "OK",
      "vis_m": 9999,
      "fzfg": false,
      "metar_trigger": false,
      "taf_trigger": false,
      "metar": "METAR LEZL 292300Z 06007KT CAVOK 13/00 Q1027 NOSIG",
      "taf": "TAF LEZL 292000Z 2921/3021 04008KT CAVOK TX22/3015Z TN08/3007Z"
    },
    {
      "icao": "LFBD",
      "alert": "OK",
      "vis_m": 9999,
      "fzfg": false,
      "metar_trigger": false,
      "taf_trigger": false,
      "metar": "METAR LFBD 292300Z AUTO 25005KT CAVOK 06/03 Q1034 NOSIG",
      "taf": "TAF LFBD 292300Z 3000/3106 30005KT CAVOK TX15/3014Z TN04/3002Z"
    },
    {
      "icao": "LFLL",
      "alert": "OK",
      "vis_m": 9999,
      "fzfg": false,
      "metar_trigger": false,
      "taf_trigger": false,
      "metar": "METAR LFLL 292300Z 32005KT CAVOK 04/M01 Q1029 NOSIG",
      "taf": "TAF LFLL 292300Z 3000/3106 VRB04KT CAVOK"
    },
    {
      "icao": "LFLS",
      "alert": "OK",
      "vis_m": 9999,
      "fzfg": false,
      "metar_trigger": false,
      "taf_trigger": false,
      "metar": "METAR LFLS 292300Z AUTO 36004KT 320V040 CAVOK 04/M01 Q1028",
      "taf": "TAF LFLS 291400Z 2915/3015 34020KT 9999 BKN050"
    },
    {
      "icao": "LFMN",
      "alert": "OK",
      "vis_m": 9999,
      "fzfg": false,
      "metar_trigger": false,
      "taf_trigger": false,
      "metar": "METAR LFMN 292300Z 33011KT CAVOK 12/00 Q1019 NOSIG",
      "taf": "TAF LFMN 292000Z 2921/3103 33010KT CAVOK"
    },
    {
      "icao": "LFOB",
      "alert": "OK",
      "vis_m": 9999,
      "fzfg": false,
      "metar_trigger": false,
      "taf_trigger": false,
      "metar": "METAR LFOB 292300Z AUTO 25012KT 210V270 9999 OVC017 08/05 Q1025 TEMPO 27015G25KT 2500 RADZ BKN003 OVC008",
      "taf": "TAF LFOB 292300Z 3000/3024 27012KT 9999 BKN017"
    },
    {
      "icao": "LFPO",
      "alert": "OK",
      "vis_m": 9999,
      "fzfg": false,
      "metar_trigger": false,
      "taf_trigger": false,
      "metar": "METAR LFPO 292300Z 25012KT 9999 BKN033 09/03 Q1027 NOSIG",
      "taf": "TAF LFPO 292300Z 3000/3106 25012KT 9999 BKN025"
    },
    {
      "icao": "LFSB",
      "alert": "OK",
      "vis_m": 9999,
      "fzfg": false,
      "metar_trigger": false,
      "taf_trigger": false,
      "metar": "METAR LFSB 292300Z AUTO 14003KT CAVOK 02/M01 Q1027 NOSIG",
      "taf": "TAF LFSB 292302Z 3000/3024 18005KT 9999 FEW040 BKN100"
    },
    {
      "icao": "LGAV",
      "alert": "OK",
      "vis_m": 9999,
      "fzfg": false,
      "metar_trigger": false,
      "taf_trigger": false,
      "metar": "METAR LGAV 292320Z VRB02KT 9999 FEW025 06/04 Q1010 NOSIG",
      "taf": "TAF LGAV 292300Z 3000/3024 VRB05KT 9999 FEW030 SCT070"
    },
    {
      "icao": "LGTS",
      "alert": "OK",
      "vis_m": 9999,
      "fzfg": false,
      "metar_trigger": false,
      "taf_trigger": false,
      "metar": "METAR LGTS 292320Z 34021G32KT 9999 FEW025 12/04 Q1010 NOSIG",
      "taf": "TAF LGTS 292300Z 3000/3024 34015KT 9999 FEW025"
    },
    {
      "icao": "LHBP",
      "alert": "OK",
      "vis_m": 9999,
      "fzfg": false,
      "metar_trigger": false,
      "taf_trigger": false,
      "metar": "METAR LHBP 292300Z 32010KT 9999 -RA OVC047 06/05 Q1016 NOSIG",
      "taf": "TAF LHBP 292315Z 3000/3024 32011KT 9999 -RA OVC045"
    },
    {
      "icao": "LHDC",
      "alert": "OK",
      "vis_m": 9999,
      "fzfg": false,
      "metar_trigger": false,
      "taf_trigger": false,
      "metar": "METAR LHDC 292245Z AUTO 02012KT 350V050 9999 -RA NSC 10/06 Q1014",
      "taf": "TAF LHDC 291715Z 2918/3003 02015G25KT CAVOK"
    },
    {
      "icao": "LIBD",
      "alert": "OK",
      "vis_m": 9999,
      "fzfg": false,
      "metar_trigger": false,
      "taf_trigger": false,
      "metar": "METAR LIBD 292320Z 27008KT CAVOK 09/06 Q1015",
      "taf": "TAF LIBD 292300Z 3000/3024 28012KT 9999 SCT030"
    },
    {
      "icao": "LIBG",
      "alert": "OK",
      "vis_m": null,
      "fzfg": false,
      "metar_trigger": false,
      "taf_trigger": false,
      "metar": "",
      "taf": "TAF LIBG 291400Z 2915/2924 34013KT 9999 SCT030"
    },
    {
      "icao": "LIBP",
      "alert": "OK",
      "vis_m": 9999,
      "fzfg": false,
      "metar_trigger": false,
      "taf_trigger": false,
      "metar": "METAR LIBP 292320Z AUTO 24004KT 9999 OVC049/// 07/06 Q1019",
      "taf": "TAF LIBP 292300Z 3000/3024 27010KT CAVOK"
    },
    {
      "icao": "LIBR",
      "alert": "OK",
      "vis_m": 9999,
      "fzfg": false,
      "metar_trigger": false,
      "taf_trigger": false,
      "metar": "METAR LIBR 292320Z 34009KT CAVOK 13/07 Q1013",
      "taf": "TAF LIBR 292300Z 3000/3024 33016KT CAVOK"
    },
    {
      "icao": "LICA",
      "alert": "OK",
      "vis_m": 9999,
      "fzfg": false,
      "metar_trigger": false,
      "taf_trigger": false,
      "metar": "METAR LICA 292320Z AUTO 09005KT 9999 FEW065/// 08/07 Q1015",
      "taf": "TAF LICA 292300Z 3000/3024 VRB05KT 9999 SCT030"
    },
    {
      "icao": "LICC",
      "alert": "OK",
      "vis_m": 9999,
      "fzfg": false,
      "metar_trigger": false,
      "taf_trigger": false,
      "metar": "METAR LICC 292320Z 03005KT 9999 BKN070 14/08 Q1014",
      "taf": "TAF LICC 292300Z 3000/3024 VRB05KT 9999 SCT040"
    },
    {
      "icao": "LICJ",
      "alert": "OK",
      "vis_m": 9999,
      "fzfg": false,
      "metar_trigger": false,
      "taf_trigger": false,
      "metar": "METAR LICJ 292320Z 13003KT 9999 FEW030 12/06 Q1014",
      "taf": "TAF LICJ 292300Z 3000/3024 VRB05KT 9999 SCT040"
    },
    {
      "icao": "LIMC",
      "alert": "OK",
      "vis_m": 9999,
      "fzfg": false,
      "metar_trigger": false,
      "taf_trigger": false,
      "metar": "METAR LIMC 292320Z 01004KT 330V060 CAVOK 08/M06 Q1020 NOSIG",
      "taf": "TAF LIMC 292300Z 3000/3106 34006KT CAVOK"
    },
    {
      "icao": "LIME",
      "alert": "OK",
      "vis_m": 9999,
      "fzfg": false,
      "metar_trigger": false,
      "taf_trigger": false,
      "metar": "METAR LIME 292320Z 36005KT CAVOK 08/M01 Q1020 NOSIG",
      "taf": "TAF LIME 292300Z 3000/3024 01006KT CAVOK"
    },
    {
      "icao": "LIMF",
      "alert": "OK",
      "vis_m": 9999,
      "fzfg": false,
      "metar_trigger": false,
      "taf_trigger": false,
      "metar": "METAR LIMF 292320Z 36004KT CAVOK 07/M02 Q1020",
      "taf": "TAF LIMF 292300Z 3000/3024 VRB05KT CAVOK"
    },
    {
      "icao": "LIMJ",
      "alert": "OK",
      "vis_m": 9999,
      "fzfg": false,
      "metar_trigger": false,
      "taf_trigger": false,
      "metar": "METAR LIMJ 292320Z 03009KT CAVOK 14/M04 Q1018",
      "taf": "TAF LIMJ 292300Z 3000/3024 02007KT CAVOK"
    },
    {
      "icao": "LIPE",
      "alert": "OK",
      "vis_m": 9999,
      "fzfg": false,
      "metar_trigger": false,
      "taf_trigger": false,
      "metar": "METAR LIPE 292320Z 19007KT CAVOK 08/03 Q1019",
      "taf": "TAF LIPE 292300Z 3000/3024 VRB05KT CAVOK"
    },
    {
      "icao": "LIPH",
      "alert": "OK",
      "vis_m": 9999,
      "fzfg": false,
      "metar_trigger": false,
      "taf_trigger": false,
      "metar": "METAR LIPH 292320Z AUTO VRB01KT 9999 NCD 07/05 Q1019",
      "taf": "TAF LIPH 292300Z 3000/3024 VRB05KT CAVOK"
    },
    {
      "icao": "LIPQ",
      "alert": "OK",
      "vis_m": 9999,
      "fzfg": false,
      "metar_trigger": false,
      "taf_trigger": false,
      "metar": "METAR LIPQ 292320Z AUTO VRB02KT 9999 NCD 05/01 Q1019",
      "taf": "TAF LIPQ 292300Z 3000/3024 VRB05KT CAVOK"
    },
    {
      "icao": "LIPR",
      "alert": "OK",
      "vis_m": 9999,
      "fzfg": false,
      "metar_trigger": false,
      "taf_trigger": false,
      "metar": "METAR LIPR 292320Z AUTO 21003KT 9999 SCT076/// 06/03 Q1019",
      "taf": "TAF LIPR 292300Z 3000/3024 VRB05KT 9999 BKN070"
    },
    {
      "icao": "LIPX",
      "alert": "OK",
      "vis_m": 9999,
      "fzfg": false,
      "metar_trigger": false,
      "taf_trigger": false,
      "metar": "METAR LIPX 292320Z 31005KT CAVOK 10/M02 Q1019",
      "taf": "TAF LIPX 292300Z 3000/3024 VRB05KT CAVOK"
    },
    {
      "icao": "LIPY",
      "alert": "OK",
      "vis_m": 9999,
      "fzfg": false,
      "metar_trigger": false,
      "taf_trigger": false,
      "metar": "METAR LIPY 292320Z AUTO VRB02KT 9999 NCD 06/04 Q1019",
      "taf": "TAF LIPY 292300Z 3000/3024 VRB05KT CAVOK"
    },
    {
      "icao": "LIPZ",
      "alert": "OK",
      "vis_m": 9999,
      "fzfg": false,
      "metar_trigger": false,
      "taf_trigger": false,
      "metar": "METAR LIPZ 292320Z VRB02KT CAVOK 09/03 Q1019 NOSIG",
      "taf": "TAF LIPZ 292300Z 3000/3106 VRB05KT CAVOK"
    },
    {
      "icao": "LIRF",
      "alert": "OK",
      "vis_m": 9999,
      "fzfg": false,
      "metar_trigger": false,
      "taf_trigger": false,
      "metar": "METAR LIRF 292320Z 04004KT CAVOK 09/06 Q1016 NOSIG",
      "taf": "TAF LIRF 292300Z 3000/3106 04006KT 9999 FEW030"
    },
    {
      "icao": "LIRN",
      "alert": "OK",
      "vis_m": 9999,
      "fzfg": false,
      "metar_trigger": false,
      "taf_trigger": false,
      "metar": "METAR LIRN 292320Z 01005KT CAVOK 11/03 Q1016 NOSIG",
      "taf": "TAF LIRN 292300Z 3000/3024 05008KT 9999 SCT050"
    },
    {
      "icao": "LIRP",
      "alert": "OK",
      "vis_m": 9999,
      "fzfg": false,
      "metar_trigger": false,
      "taf_trigger": false,
      "metar": "METAR LIRP 292315Z 16006KT CAVOK 08/02 Q1018 NOSIG",
      "taf": "TAF LIRP 292300Z 3000/3024 08003KT CAVOK"
    },
    {
      "icao": "LIRZ",
      "alert": "OK",
      "vis_m": 9999,
      "fzfg": false,
      "metar_trigger": false,
      "taf_trigger": false,
      "metar": "METAR LIRZ 292320Z AUTO 36008KT 9999 NCD 07/03 Q1018",
      "taf": "TAF LIRZ 292300Z 3000/3024 VRB05KT 9999 SCT060"
    },
    {
      "icao": "LJLJ",
      "alert": "OK",
      "vis_m": 9999,
      "fzfg": false,
      "metar_trigger": false,
      "taf_trigger": false,
      "metar": "METAR LJLJ 292300Z 09003KT 040V120 9999 FEW070 04/M03 Q1020 NOSIG",
      "taf": "TAF LJLJ 292300Z 3000/3100 34005KT 9999 FEW070"
    },
    {
      "icao": "LKMT",
      "alert": "OK",
      "vis_m": 9999,
      "fzfg": false,
      "metar_trigger": false,
      "taf_trigger": false,
      "metar": "METAR LKMT 292300Z VRB02KT 9999 OVC036 05/02 Q1021 NOSIG",
      "taf": "TAF LKMT 292300Z 3000/3024 01005KT 9999 BKN030"
    },
    {
      "icao": "LKPR",
      "alert": "OK",
      "vis_m": 9999,
      "fzfg": false,
      "metar_trigger": false,
      "taf_trigger": false,
      "metar": "METAR LKPR 292300Z 18008KT CAVOK 00/M03 Q1022 NOSIG",
      "taf": "TAF LKPR 292300Z 3000/3106 20008KT CAVOK"
    },
    {
      "icao": "LLBG",
      "alert": "OK",
      "vis_m": 9999,
      "fzfg": false,
      "metar_trigger": false,
      "taf_trigger": false,
      "metar": "METAR LLBG 292320Z 15006KT 9999 SCT030 13/09 Q1011 NOSIG",
      "taf": "TAF LLBG 292312Z 3000/3024 16005KT 9999 SCT035 TX19/3012Z TN11/3004Z"
    },
    {
      "icao": "LMML",
      "alert": "OK",
      "vis_m": 9999,
      "fzfg": false,
      "metar_trigger": false,
      "taf_trigger": false,
      "metar": "METAR LMML 292315Z 26002KT 9999 FEW025 10/08 Q1014 NOSIG",
      "taf": "TAF LMML 292300Z 3000/3024 27007KT 9999 SCT025"
    },
    {
      "icao": "LOWW",
      "alert": "OK",
      "vis_m": 9999,
      "fzfg": false,
      "metar_trigger": false,
      "taf_trigger": false,
      "metar": "METAR LOWW 292320Z 30011KT 9999 FEW048 BKN050 06/02 Q1022 NOSIG",
      "taf": "TAF LOWW 292315Z 3000/3106 32015KT 9999 BKN035 TX09/3012Z TN03/3005Z"
    },
    {
      "icao": "LPFR",
      "alert": "OK",
      "vis_m": 9999,
      "fzfg": false,
      "metar_trigger": false,
      "taf_trigger": false,
      "metar": "METAR LPFR 292300Z 02009KT CAVOK 16/M02 Q1026",
      "taf": "TAF LPFR 292300Z 3000/3024 02010KT CAVOK"
    },
    {
      "icao": "LPMA",
      "alert": "OK",
      "vis_m": 9999,
      "fzfg": false,
      "metar_trigger": false,
      "taf_trigger": false,
      "metar": "METAR LPMA 292300Z 01018KT 9999 FEW015 17/08 Q1026",
      "taf": "TAF LPMA 292300Z 3000/3024 01018G30KT 9999 SCT015"
    },
    {
      "icao": "LPPR",
      "alert": "OK",
      "vis_m": 9999,
      "fzfg": false,
      "metar_trigger": false,
      "taf_trigger": false,
      "metar": "METAR LPPR 292300Z 02010KT CAVOK 13/03 Q1031",
      "taf": "TAF LPPR 292300Z 3000/3024 03010KT CAVOK"
    },
    {
      "icao": "LPPS",
      "alert": "OK",
      "vis_m": 9999,
      "fzfg": false,
      "metar_trigger": false,
      "taf_trigger": false,
      "metar": "METAR LPPS 292300Z 04020G32KT 9999 FEW014 16/12 Q1027",
      "taf": "TAF LPPS 292300Z 3000/3106 05017KT 9999 SCT015 SCT030"
    },
    {
      "icao": "LPPT",
      "alert": "OK",
      "vis_m": 9999,
      "fzfg": false,
      "metar_trigger": false,
      "taf_trigger": false,
      "metar": "METAR LPPT 292300Z 34009KT CAVOK 13/06 Q1029",
      "taf": "TAF LPPT 292300Z 3000/3106 36008KT CAVOK"
    },
    {
      "icao": "LQBK",
      "alert": "OK",
      "vis_m": 9999,
      "fzfg": false,
      "metar_trigger": false,
      "taf_trigger": false,
      "metar": "METAR LQBK 292300Z 28008KT 9999 SCT017 OVC027 06/03 Q1020 NOSIG",
      "taf": "TAF LQBK 292300Z 3000/3024 28008KT 9999 -RA OVC030 TX07/3013Z TN04/3005Z"
    },
    {
      "icao": "LQSA",
      "alert": "OK",
      "vis_m": 9999,
      "fzfg": false,
      "metar_trigger": false,
      "taf_trigger": false,
      "metar": "METAR LQSA 292300Z VRB02KT 9999 BKN015 BKN030 03/02 Q1018",
      "taf": "TAF LQSA 292300Z 3000/3024 32006KT 9999 SCT020 BKN040 TX05/3013Z TN01/3005Z"
    },
    {
      "icao": "LQTZ",
      "alert": "OK",
      "vis_m": 3000,
      "fzfg": false,
      "metar_trigger": false,
      "taf_trigger": false,
      "metar": "METAR LQTZ 292300Z 29006KT 3000 -DZ BR OVC007 03/03 Q1018",
      "taf": "TAF LQTZ 292300Z 3000/3024 29008KT 5000 -RA BR BKN010 OVC020 TX04/3013Z TN02/3005Z"
    },
    {
      "icao": "LRBC",
      "alert": "OK",
      "vis_m": 9999,
      "fzfg": false,
      "metar_trigger": false,
      "taf_trigger": false,
      "metar": "METAR LRBC 292300Z 34013KT 9999 -RA FEW015 BKN024 OVC061 10/09 Q1010",
      "taf": "TAF LRBC 292300Z 3000/3009 34012KT 9999 SCT015 BKN025"
    },
    {
      "icao": "LRBS",
      "alert": "OK",
      "vis_m": 9999,
      "fzfg": false,
      "metar_trigger": false,
      "taf_trigger": false,
      "metar": "METAR LRBS 292300Z 31004KT 280V340 9999 -RA SCT040 09/09 Q1008 NOSIG",
      "taf": "TAF LRBS 292300Z 3000/3024 31006KT 9999 BKN035"
    },
    {
      "icao": "LRBV",
      "alert": "OK",
      "vis_m": 6000,
      "fzfg": false,
      "metar_trigger": false,
      "taf_trigger": false,
      "metar": "METAR LRBV 292300Z AUTO 30009KT 6000 -RA SCT011/// OVC020/// 07/06 Q1011",
      "taf": "TAF LRBV 292000Z 2921/3006 28008KT 9999 BKN020"
    },
    {
      "icao": "LRCL",
      "alert": "OK",
      "vis_m": 9999,
      "fzfg": false,
      "metar_trigger": false,
      "taf_trigger": false,
      "metar": "METAR LRCL 292300Z VRB02KT 9999 -RA OVC053 09/08 Q1012",
      "taf": "TAF LRCL 292300Z 3000/3009 VRB04KT 9999 OVC045"
    },
    {
      "icao": "LRCV",
      "alert": "OK",
      "vis_m": 9999,
      "fzfg": false,
      "metar_trigger": false,
      "taf_trigger": false,
      "metar": "METAR LRCV 292300Z 26006KT 9999 BKN049 08/08 Q1010",
      "taf": "TAF LRCV 292300Z 3000/3009 27008KT 9999 BKN040"
    },
    {
      "icao": "LRIA",
      "alert": "OK",
      "vis_m": 9999,
      "fzfg": false,
      "metar_trigger": false,
      "taf_trigger": false,
      "metar": "METAR LRIA 292300Z 34009KT CAVOK 11/08 Q1010",
      "taf": "TAF LRIA 292300Z 3000/3009 33010KT CAVOK"
    },
    {
      "icao": "LROP",
      "alert": "OK",
      "vis_m": 9999,
      "fzfg": false,
      "metar_trigger": false,
      "taf_trigger": false,
      "metar": "METAR LROP 292300Z 31004KT 280V340 9999 -RA SCT035 09/09 Q1008 NOSIG",
      "taf": "TAF LROP 292300Z 3000/3024 31006KT 9999 BKN035"
    },
    {
      "icao": "LRSB",
      "alert": "OK",
      "vis_m": 9999,
      "fzfg": false,
      "metar_trigger": false,
      "taf_trigger": false,
      "metar": "METAR LRSB 292300Z 26004KT 9999 -RA FEW005 SCT011 BKN030 08/08 Q1012",
      "taf": "TAF LRSB 292300Z 3000/3024 VRB04KT 9999 BKN025"
    },
    {
      "icao": "LRSM",
      "alert": "OK",
      "vis_m": 9999,
      "fzfg": false,
      "metar_trigger": false,
      "taf_trigger": false,
      "metar": "METAR LRSM 292300Z AUTO 34006KT 9999 OVC060/// 10/08 Q1013",
      "taf": ""
    },
    {
      "icao": "LRSV",
      "alert": "OK",
      "vis_m": 9999,
      "fzfg": false,
      "metar_trigger": false,
      "taf_trigger": false,
      "metar": "METAR LRSV 292300Z 32010KT 9999 BKN026 09/07 Q1011",
      "taf": "TAF LRSV 292300Z 3000/3009 32012KT 9999 BKN035"
    },
    {
      "icao": "LRTM",
      "alert": "OK",
      "vis_m": 9999,
      "fzfg": false,
      "metar_trigger": false,
      "taf_trigger": false,
      "metar": "METAR LRTM 292300Z 26005KT 9999 -RA BKN049 09/08 Q1011",
      "taf": "TAF LRTM 292300Z 3000/3009 VRB04KT 9999 OVC045"
    },
    {
      "icao": "LRTR",
      "alert": "OK",
      "vis_m": 4500,
      "fzfg": false,
      "metar_trigger": false,
      "taf_trigger": false,
      "metar": "METAR LRTR 292300Z 34008KT 4500 BR BKN009 OVC021 09/09 Q1013",
      "taf": "TAF LRTR 292300Z 3000/3024 34008KT 5000 BR BKN010 OVC020"
    },
    {
      "icao": "LTAC",
      "alert": "OK",
      "vis_m": 9999,
      "fzfg": false,
      "metar_trigger": false,
      "taf_trigger": false,
      "metar": "METAR LTAC 292320Z 26010KT 9999 FEW017 SCT040 BKN100 05/02 Q1003 NOSIG RMK RWY21C 27005KT RWY03L 26006KT 220V280 RWY21R 25005KT RWY03R 23008KT RWY21L 25007KT",
      "taf": "TAF LTAC 292240Z 3000/3024 24012KT 9999 SCT040 BKN100"
    },
    {
      "icao": "LTFM",
      "alert": "OK",
      "vis_m": 7000,
      "fzfg": false,
      "metar_trigger": false,
      "taf_trigger": false,
      "metar": "METAR LTFM 292320Z 26009KT 220V290 7000 -RA BKN009 BKN020 08/07 Q1003 NOSIG RMK RWY17L 25010KT RWY34L 24007KT RWY16R 25008KT RWY36 25009KT RWY18 26012G26KT 150V270",
      "taf": "TAF LTFM 292240Z 3000/3106 26012KT 6000 -RA BKN007 BKN020"
    },
    {
      "icao": "LUKK",
      "alert": "OK",
      "vis_m": 9999,
      "fzfg": false,
      "metar_trigger": false,
      "taf_trigger": false,
      "metar": "METAR LUKK 292300Z 36013G24KT CAVOK 12/07 Q1007 NOSIG",
      "taf": "TAF LUKK 292314Z 3000/3024 35012KT 9999 SCT040"
    },
    {
      "icao": "LWOH",
      "alert": "OK",
      "vis_m": null,
      "fzfg": false,
      "metar_trigger": false,
      "taf_trigger": false,
      "metar": "",
      "taf": "TAF LWOH 292330Z 3000/3024 34005KT 9999 FEW040"
    },
    {
      "icao": "LWSK",
      "alert": "OK",
      "vis_m": 9999,
      "fzfg": false,
      "metar_trigger": false,
      "taf_trigger": false,
      "metar": "METAR LWSK 292320Z 02004KT 350V050 9999 BKN050 08/03 Q1014 NOSIG",
      "taf": "TAF LWSK 292330Z 3000/3024 02005KT 9999 BKN050"
    },
    {
      "icao": "LYBE",
      "alert": "OK",
      "vis_m": 8000,
      "fzfg": false,
      "metar_trigger": false,
      "taf_trigger": false,
      "metar": "METAR LYBE 292300Z 28015KT 8000 -RA BKN004 06/05 Q1016 NOSIG",
      "taf": "TAF LYBE 292300Z 3000/3024 27012KT 7000 BKN006 BKN027 TX07/3012Z TN04/3006Z"
    },
    {
      "icao": "LYNI",
      "alert": "OK",
      "vis_m": 8000,
      "fzfg": false,
      "metar_trigger": false,
      "taf_trigger": false,
      "metar": "METAR LYNI 292300Z 30006KT 240V350 8000 -DZ SCT007 OVC012 05/05 Q1015 NOSIG",
      "taf": "TAF LYNI 292300Z 3000/3024 32006KT 9999 BKN017 BKN030 TX09/3013Z TN04/3006Z"
    },
    {
      "icao": "LYPG",
      "alert": "OK",
      "vis_m": 9999,
      "fzfg": false,
      "metar_trigger": false,
      "taf_trigger": false,
      "metar": "METAR LYPG 292300Z 33010KT CAVOK 10/M00 Q1014 NOSIG",
      "taf": "TAF LYPG 292300Z 3000/3024 34008KT CAVOK TX18/3013Z TN07/3004Z"
    },
    {
      "icao": "LZIB",
      "alert": "OK",
      "vis_m": 9999,
      "fzfg": false,
      "metar_trigger": false,
      "taf_trigger": false,
      "metar": "METAR LZIB 292300Z 33011KT 290V360 9999 FEW028 07/01 Q1021 NOSIG",
      "taf": "TAF LZIB 292315Z 3000/3100 33010KT 9999 FEW028"
    },
    {
      "icao": "LZKZ",
      "alert": "OK",
      "vis_m": 9999,
      "fzfg": false,
      "metar_trigger": false,
      "taf_trigger": false,
      "metar": "METAR LZKZ 292300Z 36018KT CAVOK 09/03 Q1015 NOSIG",
      "taf": "TAF LZKZ 292315Z 3000/3100 01016KT CAVOK"
    },
    {
      "icao": "LZTT",
      "alert": "OK",
      "vis_m": 9999,
      "fzfg": false,
      "metar_trigger": false,
      "taf_trigger": false,
      "metar": "METAR LZTT 292300Z 27014KT 9999 -RA FEW010 BKN040 OVC070 03/02 Q1017",
      "taf": "TAF LZTT 292315Z 3000/3100 26010KT 9999 FEW010 BKN038"
    },
    {
      "icao": "OEJN",
      "alert": "OK",
      "vis_m": 9999,
      "fzfg": false,
      "metar_trigger": false,
      "taf_trigger": false,
      "metar": "METAR OEJN 292300Z VRB02KT CAVOK 22/13 Q1008 NOSIG",
      "taf": "TAF OEJN 292300Z 3000/3106 VRB03KT CAVOK"
    },
    {
      "icao": "OEMA",
      "alert": "OK",
      "vis_m": 9999,
      "fzfg": false,
      "metar_trigger": false,
      "taf_trigger": false,
      "metar": "METAR OEMA 292300Z 20006KT CAVOK 25/07 Q1012 NOSIG",
      "taf": "TAF OEMA 292300Z 3000/3106 VRB03KT 9999 SCT040"
    },
    {
      "icao": "OJAI",
      "alert": "OK",
      "vis_m": 4000,
      "fzfg": false,
      "metar_trigger": false,
      "taf_trigger": false,
      "metar": "METAR OJAI 292300Z 19004KT 4000 BR NSC 07/05 Q1013 NOSIG",
      "taf": "TAF OJAI 292300Z 3000/3106 26010KT 4000 BR FEW025 BKN030"
    },
    {
      "icao": "OMAA",
      "alert": "OK",
      "vis_m": null,
      "fzfg": false,
      "metar_trigger": false,
      "taf_trigger": false,
      "metar": "",
      "taf": ""
    },
    {
      "icao": "OMDB",
      "alert": "OK",
      "vis_m": null,
      "fzfg": false,
      "metar_trigger": false,
      "taf_trigger": false,
      "metar": "",
      "taf": ""
    },
    {
      "icao": "UAAA",
      "alert": "OK",
      "vis_m": 9999,
      "fzfg": false,
      "metar_trigger": false,
      "taf_trigger": false,
      "metar": "METAR UAAA 292300Z 17001MPS 9999 FEW200 06/00 Q1010 NOSIG",
      "taf": "TAF UAAA 292303Z 3000/3024 34002MPS 9999 FEW100 TX25/3010Z TN04/3001Z"
    },
    {
      "icao": "UBBB",
      "alert": "OK",
      "vis_m": 600,
      "fzfg": false,
      "metar_trigger": false,
      "taf_trigger": false,
      "metar": "METAR UBBB 292300Z 15008KT 0600 R17/1500D PRFG VV002 11/11 Q1001 NOSIG",
      "taf": "TAF UBBB 292304Z 3000/3024 15008KT 0800 FG VV002 TX17/3010Z TN08/3001Z"
    },
    {
      "icao": "UDSG",
      "alert": "OK",
      "vis_m": 9999,
      "fzfg": false,
      "metar_trigger": false,
      "taf_trigger": false,
      "metar": "METAR UDSG 292300Z 29001KT 9999 BKN026CB 05/05 Q1004 NOSIG",
      "taf": "TAF UDSG 292258Z 3000/3024 24006KT 9999 BKN040"
    },
    {
      "icao": "UDYZ",
      "alert": "OK",
      "vis_m": 9000,
      "fzfg": false,
      "metar_trigger": false,
      "taf_trigger": false,
      "metar": "METAR UDYZ 292300Z 22002KT 9000 -SHRA BKN043CB 09/08 Q1003 NOSIG",
      "taf": "TAF UDYZ 292300Z 3000/3024 20004KT 9999 SCT040"
    },
    {
      "icao": "UGKO",
      "alert": "OK",
      "vis_m": 9999,
      "fzfg": false,
      "metar_trigger": false,
      "taf_trigger": false,
      "metar": "METAR UGKO 292300Z 26008KT 9999 -RA SCT034 BKN065 12/09 Q1001 NOSIG",
      "taf": "TAF UGKO 292300Z 3000/3024 25007KT 9999 -RA SCT030 BKN050 TX12/3000Z TN09/3024Z"
    }
  ]
}