{
  "ts_utc": "2026-03-02T20:56:40Z",
  "threshold_m": 150,
  "source": "stations_override.txt (ICAO list) + aviationweather.gov (METAR/TAF raw)",
  "station_count": 159,
  "stations": [
    {
      "icao": "BIKF",
      "alert": "OK",
      "vis_m": 9999,
      "fzfg": false,
      "metar_trigger": false,
      "taf_trigger": false,
      "metar": "METAR BIKF 022030Z 35009KT 9999 FEW032 M03/M09 Q1008",
      "taf": "TAF BIKF 021951Z 0221/0321 VRB03KT 9999 BKN030 TX07/0317Z TNM08/0300Z"
    },
    {
      "icao": "BKPR",
      "alert": "OK",
      "vis_m": null,
      "fzfg": false,
      "metar_trigger": false,
      "taf_trigger": false,
      "metar": "",
      "taf": "TAF BKPR 021730Z 0218/0318 34007KT 9999 SCT040"
    },
    {
      "icao": "EBCI",
      "alert": "OK",
      "vis_m": 9999,
      "fzfg": false,
      "metar_trigger": false,
      "taf_trigger": false,
      "metar": "METAR EBCI 022020Z 16004KT CAVOK 11/04 Q1021 NOSIG",
      "taf": "TAF EBCI 021700Z 0218/0324 17005KT CAVOK"
    },
    {
      "icao": "EDDB",
      "alert": "OK",
      "vis_m": 9999,
      "fzfg": false,
      "metar_trigger": false,
      "taf_trigger": false,
      "metar": "METAR EDDB 022050Z AUTO 16006KT CAVOK 07/M00 Q1025 NOSIG",
      "taf": "TAF EDDB 021700Z 0218/0318 17005KT CAVOK"
    },
    {
      "icao": "EDDH",
      "alert": "OK",
      "vis_m": 9999,
      "fzfg": false,
      "metar_trigger": false,
      "taf_trigger": false,
      "metar": "METAR EDDH 022050Z AUTO 14005KT CAVOK 08/03 Q1023 NOSIG",
      "taf": "TAF EDDH 021700Z 0218/0324 16004KT CAVOK"
    },
    {
      "icao": "EDDK",
      "alert": "OK",
      "vis_m": 9999,
      "fzfg": false,
      "metar_trigger": false,
      "taf_trigger": false,
      "metar": "METAR EDDK 022050Z AUTO 12007KT CAVOK 11/03 Q1022 NOSIG",
      "taf": "TAF EDDK 021700Z 0218/0324 13005KT CAVOK"
    },
    {
      "icao": "EDDN",
      "alert": "OK",
      "vis_m": 9999,
      "fzfg": false,
      "metar_trigger": false,
      "taf_trigger": false,
      "metar": "METAR EDDN 022050Z AUTO VRB02KT CAVOK 04/02 Q1024 NOSIG",
      "taf": "TAF EDDN 021700Z 0218/0318 VRB03KT CAVOK"
    },
    {
      "icao": "EDDS",
      "alert": "OK",
      "vis_m": 9999,
      "fzfg": false,
      "metar_trigger": false,
      "taf_trigger": false,
      "metar": "METAR EDDS 022050Z AUTO VRB01KT CAVOK 05/03 Q1023 NOSIG",
      "taf": "TAF EDDS 021700Z 0218/0318 VRB03KT CAVOK"
    },
    {
      "icao": "EDFH",
      "alert": "OK",
      "vis_m": 9999,
      "fzfg": false,
      "metar_trigger": false,
      "taf_trigger": false,
      "metar": "METAR EDFH 022020Z 14008KT CAVOK 07/03 Q1023",
      "taf": "TAF EDFH 021700Z 0218/0318 14008KT CAVOK"
    },
    {
      "icao": "EDJA",
      "alert": "OK",
      "vis_m": 6000,
      "fzfg": false,
      "metar_trigger": false,
      "taf_trigger": false,
      "metar": "METAR EDJA 022020Z 01002KT 6000 NSC 03/02 Q1023",
      "taf": "TAF EDJA 021700Z 0218/0303 05006KT CAVOK"
    },
    {
      "icao": "EDLW",
      "alert": "OK",
      "vis_m": 9999,
      "fzfg": false,
      "metar_trigger": false,
      "taf_trigger": false,
      "metar": "METAR EDLW 022020Z 16006KT CAVOK 11/02 Q1022",
      "taf": "TAF EDLW 021700Z 0218/0318 16006KT CAVOK"
    },
    {
      "icao": "EDNY",
      "alert": "OK",
      "vis_m": 6000,
      "fzfg": false,
      "metar_trigger": false,
      "taf_trigger": false,
      "metar": "METAR EDNY 022020Z VRB01KT 6000 FEW002 02/01 Q1023",
      "taf": "TAF EDNY 021700Z 0218/0303 VRB02KT CAVOK"
    },
    {
      "icao": "EDSB",
      "alert": "OK",
      "vis_m": 9999,
      "fzfg": false,
      "metar_trigger": false,
      "taf_trigger": false,
      "metar": "METAR EDSB 022020Z 03002KT CAVOK 07/03 Q1022",
      "taf": "TAF EDSB 021700Z 0218/0318 02004KT CAVOK"
    },
    {
      "icao": "EETN",
      "alert": "OK",
      "vis_m": 9999,
      "fzfg": false,
      "metar_trigger": false,
      "taf_trigger": false,
      "metar": "METAR EETN 022050Z 35005KT 9999 OVC011 01/M00 Q1021 NOSIG",
      "taf": "TAF EETN 021730Z 0218/0318 33012KT 9999 OVC010"
    },
    {
      "icao": "EFTU",
      "alert": "OK",
      "vis_m": 9999,
      "fzfg": false,
      "metar_trigger": false,
      "taf_trigger": false,
      "metar": "METAR EFTU 022050Z AUTO 13003KT 100V210 9999 OVC005 M01/M02 Q1021",
      "taf": "TAF EFTU 022038Z 0221/0321 VRB02KT 9999 BKN004"
    },
    {
      "icao": "EGBB",
      "alert": "OK",
      "vis_m": 9999,
      "fzfg": false,
      "metar_trigger": false,
      "taf_trigger": false,
      "metar": "METAR EGBB 022050Z 29006KT 9999 BKN025 10/07 Q1018",
      "taf": "TAF EGBB 021700Z 0218/0318 18010KT 9999 FEW035"
    },
    {
      "icao": "EGGP",
      "alert": "OK",
      "vis_m": 9999,
      "fzfg": false,
      "metar_trigger": false,
      "taf_trigger": false,
      "metar": "METAR EGGP 022050Z 25004KT CAVOK 07/04 Q1018",
      "taf": "TAF EGGP 021655Z 0218/0318 VRB04KT 9999 SCT030"
    },
    {
      "icao": "EGGW",
      "alert": "OK",
      "vis_m": 9999,
      "fzfg": false,
      "metar_trigger": false,
      "taf_trigger": false,
      "metar": "METAR EGGW 022050Z AUTO 21004KT 9999 NCD 08/06 Q1018",
      "taf": "TAF EGGW 021657Z 0218/0318 18010KT 9999 SCT025"
    },
    {
      "icao": "EGKK",
      "alert": "OK",
      "vis_m": 9999,
      "fzfg": false,
      "metar_trigger": false,
      "taf_trigger": false,
      "metar": "METAR EGKK 022050Z 16002KT CAVOK 08/06 Q1019",
      "taf": "TAF EGKK 021654Z 0218/0324 19010KT 9999 FEW030"
    },
    {
      "icao": "EGNM",
      "alert": "OK",
      "vis_m": 9999,
      "fzfg": false,
      "metar_trigger": false,
      "taf_trigger": false,
      "metar": "METAR EGNM 022050Z 27011KT 9999 FEW015 08/06 Q1016",
      "taf": "TAF EGNM 021655Z 0218/0318 26005KT 9999 SCT040"
    },
    {
      "icao": "EGPD",
      "alert": "OK",
      "vis_m": 9999,
      "fzfg": false,
      "metar_trigger": false,
      "taf_trigger": false,
      "metar": "METAR EGPD 022050Z COR 23012KT 9999 FEW039 08/03 Q1008 TEMPO RA",
      "taf": "TAF EGPD 021654Z 0218/0318 20015KT 9999 FEW040"
    },
    {
      "icao": "EGPF",
      "alert": "OK",
      "vis_m": 9999,
      "fzfg": false,
      "metar_trigger": false,
      "taf_trigger": false,
      "metar": "METAR EGPF 022050Z AUTO 27009KT 240V300 9999 BKN038 07/02 Q1015",
      "taf": ""
    },
    {
      "icao": "EHBK",
      "alert": "OK",
      "vis_m": 9999,
      "fzfg": false,
      "metar_trigger": false,
      "taf_trigger": false,
      "metar": "METAR EHBK 022025Z AUTO 16005KT 9999 NCD 11/05 Q1021 NOSIG",
      "taf": "TAF EHBK 021714Z 0218/0324 15005KT CAVOK"
    },
    {
      "icao": "EHEH",
      "alert": "OK",
      "vis_m": 9999,
      "fzfg": false,
      "metar_trigger": false,
      "taf_trigger": false,
      "metar": "METAR EHEH 022025Z AUTO 15005KT 9999 NCD 10/04 Q1021 BLU NOSIG RMK TREND REMOTE BY EHWX",
      "taf": "TAF EHEH 021719Z 0218/0324 15007KT CAVOK"
    },
    {
      "icao": "EKBI",
      "alert": "OK",
      "vis_m": 9999,
      "fzfg": false,
      "metar_trigger": false,
      "taf_trigger": false,
      "metar": "METAR EKBI 022050Z AUTO 15006KT 9999 NCD 08/04 Q1021",
      "taf": "TAF EKBI 022027Z 0221/0321 18008KT CAVOK"
    },
    {
      "icao": "EKCH",
      "alert": "OK",
      "vis_m": 9999,
      "fzfg": false,
      "metar_trigger": false,
      "taf_trigger": false,
      "metar": "METAR EKCH 022050Z AUTO 17005KT 9999 NCD 04/02 Q1024 NOSIG",
      "taf": "TAF EKCH 022027Z 0221/0321 16005KT CAVOK"
    },
    {
      "icao": "ENAL",
      "alert": "OK",
      "vis_m": 9999,
      "fzfg": false,
      "metar_trigger": false,
      "taf_trigger": false,
      "metar": "METAR ENAL 022020Z 23010KT 9999 -RA SCT034 BKN055 08/05 Q1003",
      "taf": "TAF ENAL 022000Z 0221/0306 21012KT 9999 -RA BKN050"
    },
    {
      "icao": "ENBR",
      "alert": "OK",
      "vis_m": 5000,
      "fzfg": false,
      "metar_trigger": false,
      "taf_trigger": false,
      "metar": "METAR ENBR 022020Z 16021KT 5000 RA OVC005 06/05 Q1009 TEMPO 16022G32KT 2500 RADZ BR BKN003 RMK WIND 1200FT 16030G41KT",
      "taf": "TAF ENBR 021700Z 0218/0318 16020G30KT 8000 -RA SCT005 BKN010"
    },
    {
      "icao": "ENGM",
      "alert": "OK",
      "vis_m": 750,
      "fzfg": false,
      "metar_trigger": false,
      "taf_trigger": false,
      "metar": "METAR ENGM 022020Z 20010KT 0750 0600NE R19R/1000N R01R/0750N R19L/0700N R01L/0900U -RA FG VV002 02/01 Q1015 TEMPO 0500 -DZ FG VV001",
      "taf": ""
    },
    {
      "icao": "ENHD",
      "alert": "OK",
      "vis_m": 9000,
      "fzfg": false,
      "metar_trigger": false,
      "taf_trigger": false,
      "metar": "METAR ENHD 022020Z 16019G31KT 9000 OVC006 07/05 Q1010",
      "taf": "TAF ENHD 021400Z 0215/0223 16020KT 9000 SCT005 BKN010"
    },
    {
      "icao": "ENTC",
      "alert": "OK",
      "vis_m": 9999,
      "fzfg": false,
      "metar_trigger": false,
      "taf_trigger": false,
      "metar": "METAR ENTC 022020Z 07002KT CAVOK M02/M03 Q1011 NOSIG RMK WIND 2600FT 16018KT",
      "taf": "TAF ENTC 021700Z 0218/0318 19007KT 9999 FEW035"
    },
    {
      "icao": "ENTO",
      "alert": "OK",
      "vis_m": 300,
      "fzfg": false,
      "metar_trigger": false,
      "taf_trigger": false,
      "metar": "METAR ENTO 022020Z 19008KT 0300 R18/1200N R36/1600N FG VV003 03/03 Q1017 TEMPO 0800 FG",
      "taf": ""
    },
    {
      "icao": "ENVA",
      "alert": "OK",
      "vis_m": 9999,
      "fzfg": false,
      "metar_trigger": false,
      "taf_trigger": false,
      "metar": "METAR ENVA 022020Z 06005KT 350V100 9999 -RA FEW036 06/01 Q1006 NOSIG RMK WIND 670FT 13009KT",
      "taf": "TAF ENVA 021700Z 0218/0318 14008KT 9999 SCT045"
    },
    {
      "icao": "ENZV",
      "alert": "OK",
      "vis_m": 9999,
      "fzfg": false,
      "metar_trigger": false,
      "taf_trigger": false,
      "metar": "METAR ENZV 022020Z 16018KT 9999 OVC009 07/05 Q1012 TEMPO 16020G30KT",
      "taf": "TAF ENZV 021700Z 0218/0318 16020G30KT 9000 BKN010"
    },
    {
      "icao": "EPGD",
      "alert": "OK",
      "vis_m": 9999,
      "fzfg": false,
      "metar_trigger": false,
      "taf_trigger": false,
      "metar": "METAR EPGD 022030Z 22003KT 9999 SCT015 BKN030 06/02 Q1025",
      "taf": "TAF EPGD 021730Z 0218/0318 28005KT CAVOK"
    },
    {
      "icao": "EPKK",
      "alert": "OK",
      "vis_m": 9999,
      "fzfg": false,
      "metar_trigger": false,
      "taf_trigger": false,
      "metar": "METAR EPKK 022030Z VRB01KT CAVOK 02/M01 Q1027",
      "taf": "TAF EPKK 022030Z 0221/0321 VRB02KT CAVOK"
    },
    {
      "icao": "EPKT",
      "alert": "OK",
      "vis_m": 9999,
      "fzfg": false,
      "metar_trigger": false,
      "taf_trigger": false,
      "metar": "METAR EPKT 022030Z 06001KT CAVOK M01/M03 Q1027",
      "taf": "TAF EPKT 021730Z 0218/0318 VRB02KT CAVOK"
    },
    {
      "icao": "EPLB",
      "alert": "OK",
      "vis_m": 9999,
      "fzfg": false,
      "metar_trigger": false,
      "taf_trigger": false,
      "metar": "METAR EPLB 022030Z 27006KT CAVOK 03/00 Q1026",
      "taf": "TAF EPLB 021730Z 0218/0318 26006KT CAVOK"
    },
    {
      "icao": "EPMO",
      "alert": "OK",
      "vis_m": 9999,
      "fzfg": false,
      "metar_trigger": false,
      "taf_trigger": false,
      "metar": "METAR EPMO 022030Z 22006KT CAVOK 06/01 Q1025",
      "taf": "TAF EPMO 021730Z 0218/0318 26004KT CAVOK"
    },
    {
      "icao": "EPPO",
      "alert": "OK",
      "vis_m": 9999,
      "fzfg": false,
      "metar_trigger": false,
      "taf_trigger": false,
      "metar": "METAR EPPO 022030Z 19002KT CAVOK 03/M00 Q1026",
      "taf": "TAF EPPO 021730Z 0218/0318 VRB02KT CAVOK"
    },
    {
      "icao": "EPRA",
      "alert": "OK",
      "vis_m": 8000,
      "fzfg": false,
      "metar_trigger": false,
      "taf_trigger": false,
      "metar": "METAR EPRA 022030Z 26006KT 8000 NSC 03/M01 Q1026",
      "taf": "TAF EPRA 022030Z 0221/0306 VRB03KT 8000 NSC"
    },
    {
      "icao": "EPRZ",
      "alert": "OK",
      "vis_m": 7000,
      "fzfg": false,
      "metar_trigger": false,
      "taf_trigger": false,
      "metar": "METAR EPRZ 022030Z 22002KT 7000 NSC 02/M00 Q1027",
      "taf": "TAF EPRZ 021730Z 0218/0318 27003KT CAVOK"
    },
    {
      "icao": "EPSC",
      "alert": "OK",
      "vis_m": 9999,
      "fzfg": false,
      "metar_trigger": false,
      "taf_trigger": false,
      "metar": "METAR EPSC 022030Z 11006KT CAVOK 04/02 Q1025",
      "taf": "TAF EPSC 021730Z 0218/0318 14004KT CAVOK"
    },
    {
      "icao": "EPSY",
      "alert": "OK",
      "vis_m": 9999,
      "fzfg": false,
      "metar_trigger": false,
      "taf_trigger": false,
      "metar": "METAR EPSY 022030Z VRB02KT 9999 BKN041 03/01 Q1025",
      "taf": "TAF EPSY 022030Z 0221/0306 28004KT 9999 BKN040"
    },
    {
      "icao": "EPWA",
      "alert": "OK",
      "vis_m": 9999,
      "fzfg": false,
      "metar_trigger": false,
      "taf_trigger": false,
      "metar": "METAR EPWA 022030Z 24004KT CAVOK 05/M00 Q1025 NOSIG",
      "taf": "TAF EPWA 022030Z 0221/0321 25005KT CAVOK"
    },
    {
      "icao": "EPWR",
      "alert": "OK",
      "vis_m": 9999,
      "fzfg": false,
      "metar_trigger": false,
      "taf_trigger": false,
      "metar": "METAR EPWR 022030Z 12002KT CAVOK 01/M01 Q1026",
      "taf": "TAF EPWR 022030Z 0221/0321 10002KT CAVOK"
    },
    {
      "icao": "ESGG",
      "alert": "OK",
      "vis_m": 5000,
      "fzfg": false,
      "metar_trigger": false,
      "taf_trigger": false,
      "metar": "METAR ESGG 022050Z 18010KT 5000 BR SCT046 06/05 Q1021",
      "taf": "TAF ESGG 022030Z 0221/0321 18010KT 3000 BR BKN003"
    },
    {
      "icao": "ESKN",
      "alert": "OK",
      "vis_m": 9999,
      "fzfg": false,
      "metar_trigger": false,
      "taf_trigger": false,
      "metar": "METAR ESKN 022050Z 15004KT 9999 -RA SCT011 BKN020 BKN027 02/M01 Q1022",
      "taf": "TAF ESKN 022030Z 0221/0321 16005KT 9999 BKN030"
    },
    {
      "icao": "ESMS",
      "alert": "OK",
      "vis_m": 9999,
      "fzfg": false,
      "metar_trigger": false,
      "taf_trigger": false,
      "metar": "METAR ESMS 022050Z 18005KT CAVOK 03/03 Q1024",
      "taf": "TAF ESMS 022027Z 0221/0321 14005KT CAVOK"
    },
    {
      "icao": "ESSA",
      "alert": "OK",
      "vis_m": 9999,
      "fzfg": false,
      "metar_trigger": false,
      "taf_trigger": false,
      "metar": "METAR ESSA 022050Z 17005KT CAVOK 00/M02 Q1022 NOSIG",
      "taf": "TAF ESSA 022030Z 0221/0321 17003KT CAVOK"
    },
    {
      "icao": "EYKA",
      "alert": "OK",
      "vis_m": 9999,
      "fzfg": false,
      "metar_trigger": false,
      "taf_trigger": false,
      "metar": "METAR EYKA 022050Z 28006KT CAVOK M00/M02 Q1023",
      "taf": "TAF EYKA 021700Z 0218/0318 VRB04KT 5000 BR SCT005"
    },
    {
      "icao": "EYPA",
      "alert": "OK",
      "vis_m": 550,
      "fzfg": true,
      "metar_trigger": false,
      "taf_trigger": false,
      "metar": "METAR EYPA 022050Z 17001KT 0550 R19/0650N FZFG VV001 M03/M03 Q1025",
      "taf": ""
    },
    {
      "icao": "EYVI",
      "alert": "OK",
      "vis_m": 9999,
      "fzfg": false,
      "metar_trigger": false,
      "taf_trigger": false,
      "metar": "METAR EYVI 022050Z 30006KT 9999 BKN036 01/M02 Q1021 NOSIG",
      "taf": "TAF EYVI 021711Z 0218/0318 VRB04KT 5000 BR SCT030"
    },
    {
      "icao": "GCFV",
      "alert": "OK",
      "vis_m": 9999,
      "fzfg": false,
      "metar_trigger": false,
      "taf_trigger": false,
      "metar": "METAR GCFV 022030Z 27010KT 9999 FEW025 BKN030 18/12 Q1015",
      "taf": "TAF GCFV 022000Z 0221/0321 36018KT 9999 BKN025 TX19/0314Z TN13/0306Z"
    },
    {
      "icao": "GCLP",
      "alert": "OK",
      "vis_m": 9999,
      "fzfg": false,
      "metar_trigger": false,
      "taf_trigger": false,
      "metar": "METAR GCLP 022030Z VRB01KT 9999 FEW045 BKN060 18/11 Q1017 BECMG 35022KT",
      "taf": "TAF GCLP 022000Z 0221/0321 35022KT 9999 BKN020 TX20/0314Z TN14/0306Z"
    },
    {
      "icao": "GCTS",
      "alert": "OK",
      "vis_m": 9999,
      "fzfg": false,
      "metar_trigger": false,
      "taf_trigger": false,
      "metar": "METAR GCTS 022030Z 07015KT 9999 SCT045 17/11 Q1017 NOSIG",
      "taf": "TAF GCTS 022000Z 0221/0321 VRB06KT 9999 SCT030 TX20/0314Z TN12/0306Z"
    },
    {
      "icao": "GMAD",
      "alert": "OK",
      "vis_m": 6000,
      "fzfg": false,
      "metar_trigger": false,
      "taf_trigger": false,
      "metar": "METAR GMAD 022030Z 28010KT 6000 SCT013 BKN100 15/12 Q1012 NOSIG",
      "taf": "TAF GMAD 021700Z 0218/0324 24010KT 8000 SCT016 BKN080"
    },
    {
      "icao": "GMMN",
      "alert": "OK",
      "vis_m": 9999,
      "fzfg": false,
      "metar_trigger": false,
      "taf_trigger": false,
      "metar": "METAR GMMN 022030Z 18004KT 9999 BKN030 13/11 Q1010 NOSIG",
      "taf": "TAF GMMN 021700Z 0218/0324 28008KT 9999 BKN016"
    },
    {
      "icao": "GMMX",
      "alert": "OK",
      "vis_m": 8000,
      "fzfg": false,
      "metar_trigger": false,
      "taf_trigger": false,
      "metar": "METAR GMMX 022030Z 28010KT 8000 BKN023 14/10 Q1011 NOSIG",
      "taf": "TAF GMMX 021700Z 0218/0324 06006KT 8000 SCT030 SCT200"
    },
    {
      "icao": "HEGN",
      "alert": "OK",
      "vis_m": 9999,
      "fzfg": false,
      "metar_trigger": false,
      "taf_trigger": false,
      "metar": "METAR HEGN 022000Z 32010KT CAVOK 16/03 Q1017 NOSIG",
      "taf": "TAF HEGN 021700Z 0218/0324 32008G18KT CAVOK"
    },
    {
      "icao": "HEMA",
      "alert": "OK",
      "vis_m": 9999,
      "fzfg": false,
      "metar_trigger": false,
      "taf_trigger": false,
      "metar": "METAR HEMA 022000Z 30008KT CAVOK 17/07 Q1016 NOSIG",
      "taf": "TAF HEMA 021700Z 0218/0324 33008G18KT CAVOK"
    },
    {
      "icao": "HESH",
      "alert": "OK",
      "vis_m": 9999,
      "fzfg": false,
      "metar_trigger": false,
      "taf_trigger": false,
      "metar": "METAR HESH 022000Z 35014KT CAVOK 19/07 Q1015 NOSIG",
      "taf": "TAF HESH 021700Z 0218/0324 36012KT CAVOK"
    },
    {
      "icao": "HESX",
      "alert": "OK",
      "vis_m": 9999,
      "fzfg": false,
      "metar_trigger": false,
      "taf_trigger": false,
      "metar": "METAR HESX 022000Z 01007KT CAVOK 12/06 Q1022 NOSIG",
      "taf": "TAF HESX 021700Z 0218/0324 02010KT 9999 SCT025"
    },
    {
      "icao": "LATI",
      "alert": "OK",
      "vis_m": 6000,
      "fzfg": false,
      "metar_trigger": false,
      "taf_trigger": false,
      "metar": "METAR LATI 022050Z 00000KT 6000 BKN180 09/07 Q1027 NOSIG",
      "taf": "TAF LATI 021700Z 0218/0318 VRB03KT CAVOK TX19/0312Z TN06/0304Z"
    },
    {
      "icao": "LBPD",
      "alert": "OK",
      "vis_m": 9999,
      "fzfg": false,
      "metar_trigger": false,
      "taf_trigger": false,
      "metar": "METAR LBPD 022030Z AUTO VRB02KT 9999 SCT220/// 06/03 Q1024",
      "taf": "TAF LBPD 021700Z 0218/0318 VRB03KT CAVOK"
    },
    {
      "icao": "LBSF",
      "alert": "OK",
      "vis_m": 9999,
      "fzfg": false,
      "metar_trigger": false,
      "taf_trigger": false,
      "metar": "METAR LBSF 022030Z AUTO 18003KT 130V300 9999 NSC 05/01 Q1024 NOSIG",
      "taf": "TAF LBSF 021700Z 0218/0318 VRB04KT CAVOK"
    },
    {
      "icao": "LBWN",
      "alert": "OK",
      "vis_m": 9999,
      "fzfg": false,
      "metar_trigger": false,
      "taf_trigger": false,
      "metar": "METAR LBWN 022030Z AUTO VRB02KT 9999 NSC 04/04 Q1024 NOSIG",
      "taf": "TAF LBWN 021700Z 0218/0318 VRB04KT 9999 SCT045"
    },
    {
      "icao": "LCLK",
      "alert": "OK",
      "vis_m": 9999,
      "fzfg": false,
      "metar_trigger": false,
      "taf_trigger": false,
      "metar": "METAR LCLK 022030Z 30006KT 9999 FEW060 08/04 Q1023 NOSIG",
      "taf": "TAF LCLK 021730Z 0218/0318 32006KT 9999 FEW040"
    },
    {
      "icao": "LCPH",
      "alert": "OK",
      "vis_m": 9999,
      "fzfg": false,
      "metar_trigger": false,
      "taf_trigger": false,
      "metar": "METAR LCPH 022030Z 02007KT CAVOK 11/03 Q1023 NOSIG",
      "taf": "TAF LCPH 021730Z 0218/0318 02008KT 9999 FEW040"
    },
    {
      "icao": "LEAL",
      "alert": "OK",
      "vis_m": 9999,
      "fzfg": false,
      "metar_trigger": false,
      "taf_trigger": false,
      "metar": "METAR LEAL 022030Z 07015KT 9999 OVC065 16/12 Q1016 NOSIG",
      "taf": "TAF LEAL 021700Z 0218/0318 05014KT 9999 SCT020 TX21/0312Z TN13/0307Z"
    },
    {
      "icao": "LEBB",
      "alert": "OK",
      "vis_m": 9999,
      "fzfg": false,
      "metar_trigger": false,
      "taf_trigger": false,
      "metar": "METAR LEBB 022030Z 10005KT 020V160 CAVOK 16/07 Q1014 NOSIG",
      "taf": "TAF LEBB 021700Z 0218/0318 14009KT CAVOK TX20/0315Z TN08/0306Z"
    },
    {
      "icao": "LEBL",
      "alert": "OK",
      "vis_m": 9999,
      "fzfg": false,
      "metar_trigger": false,
      "taf_trigger": false,
      "metar": "METAR LEBL 022030Z 06005KT 9999 FEW012 SCT032 13/11 Q1021 NOSIG",
      "taf": "TAF LEBL 021700Z 0218/0318 11008KT 9999 FEW040 TX17/0312Z TN12/0306Z"
    },
    {
      "icao": "LECH",
      "alert": "OK",
      "vis_m": 9000,
      "fzfg": false,
      "metar_trigger": false,
      "taf_trigger": false,
      "metar": "METAR LECH 022030Z AUTO 06006KT 9000 SCT004 SCT014 BKN019 10/10 Q1019",
      "taf": ""
    },
    {
      "icao": "LEMD",
      "alert": "OK",
      "vis_m": 9999,
      "fzfg": false,
      "metar_trigger": false,
      "taf_trigger": false,
      "metar": "METAR LEMD 022030Z 12005KT 080V160 9999 SCT070 11/05 Q1015 NOSIG",
      "taf": "TAF LEMD 021700Z 0218/0324 15010KT CAVOK TX18/0315Z TN07/0307Z"
    },
    {
      "icao": "LEMG",
      "alert": "OK",
      "vis_m": 9000,
      "fzfg": false,
      "metar_trigger": false,
      "taf_trigger": false,
      "metar": "METAR LEMG 022030Z 18003KT 140V230 9000 FEW018 14/11 Q1012 NOSIG",
      "taf": "TAF LEMG 021700Z 0218/0318 18007KT 9999 SCT020 TX19/0314Z TN13/0307Z"
    },
    {
      "icao": "LEVC",
      "alert": "OK",
      "vis_m": 9999,
      "fzfg": false,
      "metar_trigger": false,
      "taf_trigger": false,
      "metar": "METAR LEVC 022030Z 06004KT 020V090 9999 -RA FEW012 BKN015 13/11 Q1019 NOSIG",
      "taf": ""
    },
    {
      "icao": "LEXJ",
      "alert": "OK",
      "vis_m": 9999,
      "fzfg": false,
      "metar_trigger": false,
      "taf_trigger": false,
      "metar": "METAR LEXJ 022030Z VRB01KT CAVOK 13/06 Q1012",
      "taf": "TAF LEXJ 022000Z 0221/0321 VRB03KT CAVOK TX21/0315Z TN09/0304Z"
    },
    {
      "icao": "LEZG",
      "alert": "OK",
      "vis_m": 9999,
      "fzfg": false,
      "metar_trigger": false,
      "taf_trigger": false,
      "metar": "METAR LEZG 022030Z 11009KT 9999 SCT018 12/09 Q1018 NOSIG",
      "taf": "TAF LEZG 021700Z 0218/0318 10014KT 9999 SCT015 TX18/0315Z TN08/0306Z"
    },
    {
      "icao": "LEZL",
      "alert": "OK",
      "vis_m": 9999,
      "fzfg": false,
      "metar_trigger": false,
      "taf_trigger": false,
      "metar": "METAR LEZL 022030Z 19003KT 150V240 CAVOK 17/09 Q1010 NOSIG",
      "taf": "TAF LEZL 022000Z 0221/0321 VRB03KT CAVOK TX23/0315Z TN10/0307Z"
    },
    {
      "icao": "LFBD",
      "alert": "OK",
      "vis_m": 9999,
      "fzfg": false,
      "metar_trigger": false,
      "taf_trigger": false,
      "metar": "METAR LFBD 022030Z AUTO 12011KT CAVOK 14/08 Q1016 NOSIG",
      "taf": "TAF LFBD 021700Z 0218/0324 12010KT CAVOK TX18/0314Z TN06/0305Z"
    },
    {
      "icao": "LFLL",
      "alert": "OK",
      "vis_m": 9999,
      "fzfg": false,
      "metar_trigger": false,
      "taf_trigger": false,
      "metar": "METAR LFLL 022030Z 13008KT CAVOK 10/05 Q1022 NOSIG",
      "taf": "TAF LFLL 021700Z 0218/0324 18009KT CAVOK"
    },
    {
      "icao": "LFLS",
      "alert": "OK",
      "vis_m": 9999,
      "fzfg": false,
      "metar_trigger": false,
      "taf_trigger": false,
      "metar": "METAR LFLS 022030Z AUTO 09003KT CAVOK 08/05 Q1022 TEMPO BKN012",
      "taf": "TAF LFLS 021400Z 0215/0315 23008KT CAVOK"
    },
    {
      "icao": "LFMN",
      "alert": "OK",
      "vis_m": 9999,
      "fzfg": false,
      "metar_trigger": false,
      "taf_trigger": false,
      "metar": "METAR LFMN 022030Z 03010KT CAVOK 13/08 Q1024 BECMG 33010KT",
      "taf": "TAF LFMN 022000Z 0221/0403 06010KT CAVOK"
    },
    {
      "icao": "LFOB",
      "alert": "OK",
      "vis_m": 9999,
      "fzfg": false,
      "metar_trigger": false,
      "taf_trigger": false,
      "metar": "METAR LFOB 022030Z AUTO 11004KT CAVOK 08/05 Q1020 NOSIG",
      "taf": "TAF LFOB 021700Z 0218/0318 15010KT CAVOK"
    },
    {
      "icao": "LFPO",
      "alert": "OK",
      "vis_m": 9999,
      "fzfg": false,
      "metar_trigger": false,
      "taf_trigger": false,
      "metar": "METAR LFPO 022030Z 00000KT CAVOK 11/04 Q1020 NOSIG",
      "taf": "TAF LFPO 021700Z 0218/0324 14003KT CAVOK"
    },
    {
      "icao": "LFSB",
      "alert": "OK",
      "vis_m": 9999,
      "fzfg": false,
      "metar_trigger": false,
      "taf_trigger": false,
      "metar": "METAR LFSB 022030Z AUTO 28001KT CAVOK 06/04 Q1023 NOSIG",
      "taf": "TAF LFSB 021700Z 0218/0318 19003KT CAVOK"
    },
    {
      "icao": "LGAV",
      "alert": "OK",
      "vis_m": 9999,
      "fzfg": false,
      "metar_trigger": false,
      "taf_trigger": false,
      "metar": "METAR LGAV 022050Z 00000KT CAVOK 05/04 Q1026 NOSIG",
      "taf": "TAF LGAV 021700Z 0218/0318 VRB05KT 9999 FEW025"
    },
    {
      "icao": "LGTS",
      "alert": "OK",
      "vis_m": 9999,
      "fzfg": false,
      "metar_trigger": false,
      "taf_trigger": false,
      "metar": "METAR LGTS 022020Z 11006KT CAVOK 07/06 Q1025 NOSIG",
      "taf": "TAF LGTS 021700Z 0218/0318 VRB03KT 9999 FEW025"
    },
    {
      "icao": "LHBP",
      "alert": "OK",
      "vis_m": 9999,
      "fzfg": false,
      "metar_trigger": false,
      "taf_trigger": false,
      "metar": "METAR LHBP 022030Z 08003KT CAVOK 05/00 Q1026 NOSIG",
      "taf": "TAF LHBP 021715Z 0218/0318 VRB03KT CAVOK"
    },
    {
      "icao": "LHDC",
      "alert": "OK",
      "vis_m": 8000,
      "fzfg": false,
      "metar_trigger": false,
      "taf_trigger": false,
      "metar": "METAR LHDC 022015Z AUTO 01002KT 8000 NCD 03/01 Q1026",
      "taf": "TAF LHDC 021415Z 0215/0224 VRB01KT CAVOK"
    },
    {
      "icao": "LIBD",
      "alert": "OK",
      "vis_m": 7000,
      "fzfg": false,
      "metar_trigger": false,
      "taf_trigger": false,
      "metar": "METAR LIBD 022020Z 22006KT 7000 NSC 08/07 Q1026",
      "taf": "TAF LIBD 021700Z 0218/0318 VRB05KT 7000 SCT035"
    },
    {
      "icao": "LIBG",
      "alert": "OK",
      "vis_m": null,
      "fzfg": false,
      "metar_trigger": false,
      "taf_trigger": false,
      "metar": "",
      "taf": "TAF LIBG 021700Z 0218/0303 VRB06KT 9999 FEW015"
    },
    {
      "icao": "LIBP",
      "alert": "OK",
      "vis_m": 6000,
      "fzfg": false,
      "metar_trigger": false,
      "taf_trigger": false,
      "metar": "METAR LIBP 022020Z 05001KT 6000 NSC 11/11 Q1026",
      "taf": "TAF LIBP 021700Z 0218/0318 VRB05KT 6000 FEW040"
    },
    {
      "icao": "LIBR",
      "alert": "OK",
      "vis_m": 9999,
      "fzfg": false,
      "metar_trigger": false,
      "taf_trigger": false,
      "metar": "METAR LIBR 022020Z 22003KT CAVOK 12/10 Q1026",
      "taf": "TAF LIBR 021700Z 0218/0318 14006KT 8000 SCT040"
    },
    {
      "icao": "LICA",
      "alert": "OK",
      "vis_m": 9999,
      "fzfg": false,
      "metar_trigger": false,
      "taf_trigger": false,
      "metar": "METAR LICA 022020Z 07005KT CAVOK 08/07 Q1026",
      "taf": "TAF LICA 021700Z 0218/0318 VRB05KT 8000 SCT040"
    },
    {
      "icao": "LICC",
      "alert": "OK",
      "vis_m": 9999,
      "fzfg": false,
      "metar_trigger": false,
      "taf_trigger": false,
      "metar": "METAR LICC 022020Z 31003KT 220V020 9999 SCT025 14/11 Q1026",
      "taf": "TAF LICC 021700Z 0218/0318 VRB05KT 9999 SCT040"
    },
    {
      "icao": "LICJ",
      "alert": "OK",
      "vis_m": 9999,
      "fzfg": false,
      "metar_trigger": false,
      "taf_trigger": false,
      "metar": "METAR LICJ 022020Z 33002KT CAVOK 15/11 Q1025",
      "taf": "TAF LICJ 021700Z 0218/0318 07010KT 9999 FEW020"
    },
    {
      "icao": "LIMC",
      "alert": "OK",
      "vis_m": 9999,
      "fzfg": false,
      "metar_trigger": false,
      "taf_trigger": false,
      "metar": "METAR LIMC 022020Z 02004KT 9999 SCT050 SCT080 09/08 Q1026 NOSIG",
      "taf": "TAF LIMC 021700Z 0218/0324 VRB05KT 7000 SCT010 BKN030"
    },
    {
      "icao": "LIME",
      "alert": "OK",
      "vis_m": 6000,
      "fzfg": false,
      "metar_trigger": false,
      "taf_trigger": false,
      "metar": "METAR LIME 022020Z 12005KT 6000 SCT025 SCT080 11/09 Q1026 NOSIG",
      "taf": "TAF LIME 021700Z 0218/0318 VRB05KT 8000 BKN030"
    },
    {
      "icao": "LIMF",
      "alert": "OK",
      "vis_m": 4000,
      "fzfg": false,
      "metar_trigger": false,
      "taf_trigger": false,
      "metar": "METAR LIMF 022020Z 02004KT 4000 BR BKN010 BKN050 10/08 Q1026",
      "taf": "TAF LIMF 021700Z 0218/0318 VRB04KT 6000 BKN030"
    },
    {
      "icao": "LIMJ",
      "alert": "OK",
      "vis_m": 9999,
      "fzfg": false,
      "metar_trigger": false,
      "taf_trigger": false,
      "metar": "METAR LIMJ 022020Z 07003KT 020V180 9999 FEW050 12/08 Q1025",
      "taf": "TAF LIMJ 021700Z 0218/0318 VRB04KT 9999 SCT040"
    },
    {
      "icao": "LIPE",
      "alert": "OK",
      "vis_m": 5000,
      "fzfg": false,
      "metar_trigger": false,
      "taf_trigger": false,
      "metar": "METAR LIPE 022020Z 11006KT 5000 BR BKN065 10/09 Q1026",
      "taf": "TAF LIPE 021700Z 0218/0318 VRB04KT 7000 BKN040"
    },
    {
      "icao": "LIPH",
      "alert": "OK",
      "vis_m": 7000,
      "fzfg": false,
      "metar_trigger": false,
      "taf_trigger": false,
      "metar": "METAR LIPH 022020Z VRB02KT 7000 SCT060 10/09 Q1027",
      "taf": "TAF LIPH 021700Z 0218/0318 VRB04KT 6000 BKN040"
    },
    {
      "icao": "LIPQ",
      "alert": "OK",
      "vis_m": 9999,
      "fzfg": false,
      "metar_trigger": false,
      "taf_trigger": false,
      "metar": "METAR LIPQ 022020Z 11002KT 9999 FEW070 08/08 Q1027",
      "taf": "TAF LIPQ 021700Z 0218/0318 VRB05KT 7000 BKN040"
    },
    {
      "icao": "LIPR",
      "alert": "OK",
      "vis_m": 2500,
      "fzfg": false,
      "metar_trigger": false,
      "taf_trigger": false,
      "metar": "METAR LIPR 022020Z 24004KT 2500 BR FEW003 09/09 Q1026",
      "taf": "TAF LIPR 021700Z 0218/0318 VRB05KT 0400 FG OVC001"
    },
    {
      "icao": "LIPX",
      "alert": "OK",
      "vis_m": 8000,
      "fzfg": false,
      "metar_trigger": false,
      "taf_trigger": false,
      "metar": "METAR LIPX 022020Z 33003KT 8000 BKN020 11/09 Q1026",
      "taf": "TAF LIPX 021700Z 0218/0318 VRB05KT 6000 BKN030"
    },
    {
      "icao": "LIPY",
      "alert": "OK",
      "vis_m": 5000,
      "fzfg": false,
      "metar_trigger": false,
      "taf_trigger": false,
      "metar": "METAR LIPY 022020Z 18004KT 5000 RA NSC 11/10 Q1026",
      "taf": "TAF LIPY 021700Z 0218/0318 VRB05KT 5000 BR NSC"
    },
    {
      "icao": "LIPZ",
      "alert": "OK",
      "vis_m": 9999,
      "fzfg": false,
      "metar_trigger": false,
      "taf_trigger": false,
      "metar": "METAR LIPZ 022020Z 07002KT CAVOK 10/09 Q1026 NOSIG",
      "taf": ""
    },
    {
      "icao": "LIRF",
      "alert": "OK",
      "vis_m": 9999,
      "fzfg": false,
      "metar_trigger": false,
      "taf_trigger": false,
      "metar": "METAR LIRF 022020Z 13005KT 9999 FEW050 13/11 Q1026 NOSIG",
      "taf": "TAF LIRF 021700Z 0218/0324 14010KT 9999 SCT030"
    },
    {
      "icao": "LIRN",
      "alert": "OK",
      "vis_m": 9999,
      "fzfg": false,
      "metar_trigger": false,
      "taf_trigger": false,
      "metar": "METAR LIRN 022020Z VRB01KT CAVOK 12/09 Q1026 NOSIG",
      "taf": "TAF LIRN 021700Z 0218/0318 VRB04KT 8000 SCT030"
    },
    {
      "icao": "LIRP",
      "alert": "OK",
      "vis_m": 9999,
      "fzfg": false,
      "metar_trigger": false,
      "taf_trigger": false,
      "metar": "METAR LIRP 022015Z 10007KT 9999 BKN070 11/09 Q1025 NOSIG",
      "taf": "TAF LIRP 021700Z 0218/0318 08005KT 9999 FEW025 BKN070"
    },
    {
      "icao": "LIRZ",
      "alert": "OK",
      "vis_m": 9999,
      "fzfg": false,
      "metar_trigger": false,
      "taf_trigger": false,
      "metar": "METAR LIRZ 022020Z 16002KT 9999 -RA BKN050 10/09 Q1026",
      "taf": "TAF LIRZ 021700Z 0218/0318 VRB05KT 7000 BKN040"
    },
    {
      "icao": "LJLJ",
      "alert": "OK",
      "vis_m": 9999,
      "fzfg": false,
      "metar_trigger": false,
      "taf_trigger": false,
      "metar": "METAR LJLJ 022030Z VRB02KT 9999 FEW027 SCT063 BKN085 08/06 Q1026 NOSIG",
      "taf": "TAF LJLJ 021700Z 0218/0318 VRB02KT 9999 FEW033 BKN050"
    },
    {
      "icao": "LKMT",
      "alert": "OK",
      "vis_m": 9999,
      "fzfg": false,
      "metar_trigger": false,
      "taf_trigger": false,
      "metar": "METAR LKMT 022030Z 00000KT CAVOK 03/01 Q1026 NOSIG",
      "taf": "TAF LKMT 021700Z 0218/0318 04006KT CAVOK"
    },
    {
      "icao": "LKPR",
      "alert": "OK",
      "vis_m": 400,
      "fzfg": true,
      "metar_trigger": false,
      "taf_trigger": false,
      "metar": "METAR LKPR 022030Z 21003KT 160V230 0400 R24/0500N R30/0350N FZFG VV001 M01/M01 Q1026 NOSIG",
      "taf": "TAF LKPR 022000Z 0221/0403 VRB02KT 0300 FG VV001"
    },
    {
      "icao": "LLBG",
      "alert": "OK",
      "vis_m": 9999,
      "fzfg": false,
      "metar_trigger": false,
      "taf_trigger": false,
      "metar": "METAR LLBG 022050Z VRB03KT CAVOK 12/06 Q1021 NOSIG",
      "taf": "TAF LLBG 021705Z 0218/0318 02005KT CAVOK TX21/0311Z TN07/0304Z"
    },
    {
      "icao": "LMML",
      "alert": "OK",
      "vis_m": 9999,
      "fzfg": false,
      "metar_trigger": false,
      "taf_trigger": false,
      "metar": "METAR LMML 022045Z 13009KT 9999 FEW013 14/12 Q1025 NOSIG",
      "taf": "TAF LMML 021700Z 0218/0318 15010KT 9999 FEW017"
    },
    {
      "icao": "LOWW",
      "alert": "OK",
      "vis_m": 9999,
      "fzfg": false,
      "metar_trigger": false,
      "taf_trigger": false,
      "metar": "METAR LOWW 022020Z 12003KT CAVOK 06/03 Q1025 NOSIG",
      "taf": "TAF LOWW 022015Z 0221/0403 VRB04KT CAVOK TX14/0314Z TN02/0305Z"
    },
    {
      "icao": "LPFR",
      "alert": "OK",
      "vis_m": 9999,
      "fzfg": false,
      "metar_trigger": false,
      "taf_trigger": false,
      "metar": "METAR LPFR 022030Z 12012KT 9999 SCT008 BKN018 16/14 Q1008",
      "taf": "TAF LPFR 021700Z 0218/0318 13013KT 9999 SCT015"
    },
    {
      "icao": "LPMA",
      "alert": "OK",
      "vis_m": 9999,
      "fzfg": false,
      "metar_trigger": false,
      "taf_trigger": false,
      "metar": "METAR LPMA 022030Z 35018G30KT 310V010 9999 SCT015 14/03 Q1018",
      "taf": "TAF LPMA 021700Z 0218/0318 VRB10G23KT 9999 SCT015"
    },
    {
      "icao": "LPPR",
      "alert": "OK",
      "vis_m": 9999,
      "fzfg": false,
      "metar_trigger": false,
      "taf_trigger": false,
      "metar": "METAR LPPR 022030Z 36009KT 340V040 9999 FEW012 BKN046 12/10 Q1010",
      "taf": "TAF LPPR 021700Z 0218/0318 VRB05KT 9999 SCT020"
    },
    {
      "icao": "LPPS",
      "alert": "OK",
      "vis_m": 9999,
      "fzfg": false,
      "metar_trigger": false,
      "taf_trigger": false,
      "metar": "METAR LPPS 022030Z 33022KT 9999 FEW015 FEW018TCU 14/05 Q1018",
      "taf": "TAF LPPS 021700Z 0218/0324 34020KT 9999 SCT015 SCT030"
    },
    {
      "icao": "LPPT",
      "alert": "OK",
      "vis_m": 9999,
      "fzfg": false,
      "metar_trigger": false,
      "taf_trigger": false,
      "metar": "METAR LPPT 022030Z 35008KT 9999 -SHRA FEW020CB FEW022 SCT030 12/11 Q1008",
      "taf": "TAF LPPT 021700Z 0218/0324 30008KT 9999 BKN025"
    },
    {
      "icao": "LQBK",
      "alert": "OK",
      "vis_m": 9999,
      "fzfg": false,
      "metar_trigger": false,
      "taf_trigger": false,
      "metar": "METAR LQBK 022030Z VRB01KT CAVOK 09/05 Q1026 NOSIG",
      "taf": "TAF LQBK 021700Z 0218/0318 15005KT CAVOK TX16/0314Z TN04/0305Z"
    },
    {
      "icao": "LQSA",
      "alert": "OK",
      "vis_m": 9999,
      "fzfg": false,
      "metar_trigger": false,
      "taf_trigger": false,
      "metar": "METAR LQSA 022030Z VRB02KT 9999 BKN065 06/05 Q1026 NOSIG",
      "taf": "TAF LQSA 021700Z 0218/0318 VRB02KT 9999 SCT055 TX15/0314Z TN03/0305Z"
    },
    {
      "icao": "LQTZ",
      "alert": "OK",
      "vis_m": 7000,
      "fzfg": false,
      "metar_trigger": false,
      "taf_trigger": false,
      "metar": "METAR LQTZ 022030Z 00000KT 7000 BKN055 08/05 Q1026",
      "taf": ""
    },
    {
      "icao": "LRBC",
      "alert": "OK",
      "vis_m": 8000,
      "fzfg": false,
      "metar_trigger": false,
      "taf_trigger": false,
      "metar": "METAR LRBC 022030Z 35004KT 8000 BKN035 07/05 Q1027",
      "taf": "TAF LRBC 022000Z 0221/0306 34006KT 5000 BR BKN035"
    },
    {
      "icao": "LRBS",
      "alert": "OK",
      "vis_m": 600,
      "fzfg": true,
      "metar_trigger": false,
      "taf_trigger": false,
      "metar": "METAR LRBS 022030Z 25002KT 0600 R07/1100D FZFG VV001 M01/M01 Q1026 NOSIG",
      "taf": "TAF LRBS 021700Z 0218/0318 VRB04KT 5000 BR NSC"
    },
    {
      "icao": "LRBV",
      "alert": "OK",
      "vis_m": 9999,
      "fzfg": false,
      "metar_trigger": false,
      "taf_trigger": false,
      "metar": "METAR LRBV 022030Z 21007KT CAVOK 03/M00 Q1025",
      "taf": "TAF LRBV 022000Z 0221/0306 22009KT CAVOK"
    },
    {
      "icao": "LRCL",
      "alert": "OK",
      "vis_m": 9999,
      "fzfg": false,
      "metar_trigger": false,
      "taf_trigger": false,
      "metar": "METAR LRCL 022030Z 00000KT CAVOK 03/M01 Q1025",
      "taf": "TAF LRCL 022000Z 0221/0306 VRB04KT CAVOK"
    },
    {
      "icao": "LRCV",
      "alert": "OK",
      "vis_m": 2900,
      "fzfg": false,
      "metar_trigger": false,
      "taf_trigger": false,
      "metar": "METAR LRCV 022030Z VRB01KT 2900 BR NSC 01/01 Q1026",
      "taf": "TAF LRCV 022000Z 0221/0306 VRB04KT 3000 BR NSC"
    },
    {
      "icao": "LRIA",
      "alert": "OK",
      "vis_m": 9999,
      "fzfg": false,
      "metar_trigger": false,
      "taf_trigger": false,
      "metar": "METAR LRIA 022030Z 28005KT 250V310 9999 OVC038 04/02 Q1027",
      "taf": "TAF LRIA 022000Z 0221/0306 30007KT 9999 BKN035"
    },
    {
      "icao": "LROP",
      "alert": "OK",
      "vis_m": 2000,
      "fzfg": true,
      "metar_trigger": false,
      "taf_trigger": false,
      "metar": "METAR LROP 022030Z 24004KT 2000 BR SCT003 M01/M01 Q1026 BECMG 0800 FZFG",
      "taf": "TAF LROP 021700Z 0218/0318 VRB04KT 5000 BR NSC"
    },
    {
      "icao": "LRSB",
      "alert": "OK",
      "vis_m": 9999,
      "fzfg": false,
      "metar_trigger": false,
      "taf_trigger": false,
      "metar": "METAR LRSB 022030Z 31003KT 250V340 CAVOK 04/M01 Q1025",
      "taf": "TAF LRSB 021700Z 0218/0318 VRB04KT CAVOK"
    },
    {
      "icao": "LRSM",
      "alert": "OK",
      "vis_m": 9999,
      "fzfg": false,
      "metar_trigger": false,
      "taf_trigger": false,
      "metar": "METAR LRSM 022030Z AUTO 21006KT 9999 NCD 03/00 Q1026",
      "taf": "TAF LRSM 021400Z 0215/0224 VRB04KT CAVOK"
    },
    {
      "icao": "LRSV",
      "alert": "OK",
      "vis_m": 9999,
      "fzfg": false,
      "metar_trigger": false,
      "taf_trigger": false,
      "metar": "METAR LRSV 022030Z 32006KT 9999 BKN024 04/02 Q1026",
      "taf": "TAF LRSV 022000Z 0221/0306 30006KT 9999 BKN025"
    },
    {
      "icao": "LRTM",
      "alert": "OK",
      "vis_m": 9000,
      "fzfg": false,
      "metar_trigger": false,
      "taf_trigger": false,
      "metar": "METAR LRTM 022030Z AUTO 26002KT 9000 NCD 03/00 Q1025",
      "taf": "TAF LRTM 021400Z 0215/0224 VRB04KT CAVOK"
    },
    {
      "icao": "LRTR",
      "alert": "OK",
      "vis_m": 9999,
      "fzfg": false,
      "metar_trigger": false,
      "taf_trigger": false,
      "metar": "METAR LRTR 022030Z 01005KT CAVOK 05/04 Q1026",
      "taf": "TAF LRTR 021700Z 0218/0318 VRB04KT CAVOK"
    },
    {
      "icao": "LTAC",
      "alert": "OK",
      "vis_m": 9999,
      "fzfg": false,
      "metar_trigger": false,
      "taf_trigger": false,
      "metar": "METAR LTAC 022020Z 09003KT CAVOK 03/M03 Q1025 NOSIG RMK RWY21C VRB01KT RWY03L VRB02KT RWY21R VRB01KT RWY03R VRB01KT RWY21L VRB02KT",
      "taf": "TAF LTAC 021640Z 0218/0318 VRB02KT CAVOK"
    },
    {
      "icao": "LTFM",
      "alert": "OK",
      "vis_m": 9999,
      "fzfg": false,
      "metar_trigger": false,
      "taf_trigger": false,
      "metar": "METAR LTFM 022020Z 20005KT CAVOK 05/03 Q1024 NOSIG RMK RWY17L 24002KT RWY34L 21005KT 170V250 RWY16R 23003KT RWY36 19004KT RWY18 20006KT",
      "taf": "TAF LTFM 021640Z 0218/0324 VRB02KT CAVOK"
    },
    {
      "icao": "LUKK",
      "alert": "OK",
      "vis_m": 9999,
      "fzfg": false,
      "metar_trigger": false,
      "taf_trigger": false,
      "metar": "METAR LUKK 022030Z 32003KT 300V020 CAVOK 04/02 Q1025 NOSIG",
      "taf": "TAF LUKK 021705Z 0218/0318 34008KT 9999 SCT030"
    },
    {
      "icao": "LWOH",
      "alert": "OK",
      "vis_m": 9999,
      "fzfg": false,
      "metar_trigger": false,
      "taf_trigger": false,
      "metar": "METAR LWOH 021950Z 07004KT 360V130 9999 FEW040 08/03 Q1025",
      "taf": "TAF LWOH 022030Z 0221/0321 VRB02KT 9999 FEW040"
    },
    {
      "icao": "LWSK",
      "alert": "OK",
      "vis_m": 9999,
      "fzfg": false,
      "metar_trigger": false,
      "taf_trigger": false,
      "metar": "METAR LWSK 022050Z VRB01KT CAVOK 05/02 Q1025 NOSIG",
      "taf": "TAF LWSK 022030Z 0221/0321 VRB02KT CAVOK"
    },
    {
      "icao": "LYBE",
      "alert": "OK",
      "vis_m": 8000,
      "fzfg": false,
      "metar_trigger": false,
      "taf_trigger": false,
      "metar": "METAR LYBE 022030Z 16003KT 120V180 8000 NSC 06/02 Q1026 NOSIG",
      "taf": "TAF LYBE 021700Z 0218/0318 22004KT 7000 NSC TX16/0313Z TN03/0305Z"
    },
    {
      "icao": "LYNI",
      "alert": "OK",
      "vis_m": 9999,
      "fzfg": false,
      "metar_trigger": false,
      "taf_trigger": false,
      "metar": "METAR LYNI 022030Z VRB02KT CAVOK 11/03 Q1025 NOSIG",
      "taf": "TAF LYNI 021700Z 0218/0318 36003KT CAVOK TX16/0313Z TN04/0305Z"
    },
    {
      "icao": "LYPG",
      "alert": "OK",
      "vis_m": 9999,
      "fzfg": false,
      "metar_trigger": false,
      "taf_trigger": false,
      "metar": "METAR LYPG 022030Z 01003KT CAVOK 10/07 Q1026 NOSIG",
      "taf": "TAF LYPG 021700Z 0218/0318 35005KT 9999 FEW034 TX19/0314Z TN06/0305Z"
    },
    {
      "icao": "LZIB",
      "alert": "OK",
      "vis_m": 9999,
      "fzfg": false,
      "metar_trigger": false,
      "taf_trigger": false,
      "metar": "METAR LZIB 022030Z 26002KT CAVOK 05/03 Q1025 NOSIG",
      "taf": "TAF LZIB 021715Z 0218/0318 VRB02KT CAVOK"
    },
    {
      "icao": "LZKZ",
      "alert": "OK",
      "vis_m": 9999,
      "fzfg": false,
      "metar_trigger": false,
      "taf_trigger": false,
      "metar": "METAR LZKZ 022030Z 02006KT CAVOK 08/02 Q1026 NOSIG",
      "taf": "TAF LZKZ 021715Z 0218/0318 01006KT CAVOK"
    },
    {
      "icao": "LZTT",
      "alert": "OK",
      "vis_m": 9999,
      "fzfg": false,
      "metar_trigger": false,
      "taf_trigger": false,
      "metar": "METAR LZTT 022030Z 30003KT 9999 BKN029 02/M00 Q1026",
      "taf": "TAF LZTT 021715Z 0218/0318 VRB02KT 9999 SCT020"
    },
    {
      "icao": "OEJN",
      "alert": "OK",
      "vis_m": 9999,
      "fzfg": false,
      "metar_trigger": false,
      "taf_trigger": false,
      "metar": "METAR OEJN 022000Z 36007KT CAVOK 21/10 Q1013 NOSIG",
      "taf": "TAF OEJN 021700Z 0218/0324 35005KT CAVOK"
    },
    {
      "icao": "OEMA",
      "alert": "OK",
      "vis_m": 9999,
      "fzfg": false,
      "metar_trigger": false,
      "taf_trigger": false,
      "metar": "METAR OEMA 022000Z 24010KT CAVOK 20/03 Q1015 NOSIG",
      "taf": "TAF OEMA 021700Z 0218/0324 30008KT CAVOK"
    },
    {
      "icao": "OJAI",
      "alert": "OK",
      "vis_m": 5000,
      "fzfg": false,
      "metar_trigger": false,
      "taf_trigger": false,
      "metar": "METAR OJAI 022000Z 02010KT 5000 HZ NSC 09/M02 Q1021 NOSIG",
      "taf": "TAF OJAI 021650Z 0218/0324 VRB02KT 5000 HZ NSC"
    },
    {
      "icao": "OMAA",
      "alert": "OK",
      "vis_m": 9999,
      "fzfg": false,
      "metar_trigger": false,
      "taf_trigger": false,
      "metar": "METAR OMAA 022030Z 07003KT CAVOK 26/09 Q1010 NOSIG",
      "taf": "TAF OMAA 021700Z 0218/0400 04006KT 8000 NSC"
    },
    {
      "icao": "OMDB",
      "alert": "OK",
      "vis_m": 9999,
      "fzfg": false,
      "metar_trigger": false,
      "taf_trigger": false,
      "metar": "METAR OMDB 022030Z 07002KT CAVOK 28/08 Q1010 NOSIG",
      "taf": "TAF OMDB 021700Z 0218/0400 07005KT 8000 NSC"
    },
    {
      "icao": "UAAA",
      "alert": "OK",
      "vis_m": 1200,
      "fzfg": false,
      "metar_trigger": false,
      "taf_trigger": false,
      "metar": "METAR UAAA 022030Z 26003MPS 230V290 1200 R23L/P2000D -FZRA BR SCT007 BKN023CB OVC100 M00/M01 Q1021 NOSIG",
      "taf": "TAF UAAA 021701Z 0218/0318 24003MPS 2000 -SHRASN BR BKN011CB OVC050 TX03/0310Z TNM01/0302Z"
    },
    {
      "icao": "UBBB",
      "alert": "OK",
      "vis_m": 9999,
      "fzfg": false,
      "metar_trigger": false,
      "taf_trigger": false,
      "metar": "METAR UBBB 022030Z 18006KT CAVOK 05/04 Q1023 NOSIG",
      "taf": "TAF UBBB 021702Z 0218/0318 18006KT 9999 SCT015 TX10/0310Z TN01/0301Z"
    },
    {
      "icao": "UDSG",
      "alert": "OK",
      "vis_m": 9999,
      "fzfg": false,
      "metar_trigger": false,
      "taf_trigger": false,
      "metar": "METAR UDSG 022030Z 05001KT 9999 NSC M10/M12 Q1022 NOSIG",
      "taf": "TAF UDSG 021700Z 0218/0318 VRB06KT 9999 FEW050"
    },
    {
      "icao": "UDYZ",
      "alert": "OK",
      "vis_m": 9999,
      "fzfg": false,
      "metar_trigger": false,
      "taf_trigger": false,
      "metar": "METAR UDYZ 022030Z 04006KT 9999 NSC 01/M06 Q1023 NOSIG",
      "taf": "TAF UDYZ 021700Z 0218/0318 04006KT 9999 FEW040"
    },
    {
      "icao": "UGKO",
      "alert": "OK",
      "vis_m": 9999,
      "fzfg": false,
      "metar_trigger": false,
      "taf_trigger": false,
      "metar": "METAR UGKO 022030Z 06004KT 9999 BKN026 05/04 Q1027 NOSIG",
      "taf": "TAF UGKO 021700Z 0218/0318 25007KT 9999 BKN050 TX12/0311Z TN02/0304Z"
    }
  ]
}