{
  "ts_utc": "2026-06-02T15:11:19Z",
  "threshold_m": 150,
  "source": "stations_override.txt (ICAO list) + aviationweather.gov (METAR/TAF raw)",
  "station_count": 159,
  "stations": [
    {
      "icao": "BIKF",
      "alert": "OK",
      "vis_m": 9999,
      "fzfg": false,
      "metar_trigger": false,
      "taf_trigger": false,
      "metar": "METAR BIKF 021500Z 16012KT 9999 FEW040 SCT060 BKN090 12/09 Q1000",
      "taf": "TAF BIKF 021339Z 0215/0315 16010KT 9999 SCT014 BKN040 TX13/0215Z TN08/0300Z"
    },
    {
      "icao": "BKPR",
      "alert": "OK",
      "vis_m": 9999,
      "fzfg": false,
      "metar_trigger": false,
      "taf_trigger": false,
      "metar": "METAR BKPR 021500Z 24012KT 9999 SCT040 26/12 Q1013 NOSIG",
      "taf": "TAF BKPR 021130Z 0212/0312 22008KT 9999 SCT040"
    },
    {
      "icao": "EBCI",
      "alert": "OK",
      "vis_m": 9999,
      "fzfg": false,
      "metar_trigger": false,
      "taf_trigger": false,
      "metar": "METAR EBCI 021450Z AUTO 23010KT 9999 -RA FEW010/// 15/14 Q1006",
      "taf": "TAF EBCI 021110Z 0212/0318 25010KT 9999 SCT040"
    },
    {
      "icao": "EDDB",
      "alert": "OK",
      "vis_m": 9999,
      "fzfg": false,
      "metar_trigger": false,
      "taf_trigger": false,
      "metar": "METAR EDDB 021450Z AUTO 13009KT 090V170 CAVOK 26/11 Q1007 NOSIG",
      "taf": "TAF EDDB 021100Z 0212/0312 14007KT 9999 SCT030"
    },
    {
      "icao": "EDDH",
      "alert": "OK",
      "vis_m": 9999,
      "fzfg": false,
      "metar_trigger": false,
      "taf_trigger": false,
      "metar": "METAR EDDH 021450Z AUTO 15012KT CAVOK 25/12 Q1004 NOSIG",
      "taf": "TAF EDDH 021100Z 0212/0318 16012KT CAVOK"
    },
    {
      "icao": "EDDK",
      "alert": "OK",
      "vis_m": 9999,
      "fzfg": false,
      "metar_trigger": false,
      "taf_trigger": false,
      "metar": "METAR EDDK 021450Z AUTO 19012KT 150V220 9999 VCSH FEW///CB 21/15 Q1004 TEMPO 22020G35KT 4000 TSRAGR",
      "taf": "TAF EDDK 021100Z 0212/0318 16009KT 9999 SCT030"
    },
    {
      "icao": "EDDN",
      "alert": "OK",
      "vis_m": 9999,
      "fzfg": false,
      "metar_trigger": false,
      "taf_trigger": false,
      "metar": "METAR EDDN 021450Z AUTO 20006KT 150V270 CAVOK 26/09 Q1006 NOSIG",
      "taf": "TAF EDDN 021100Z 0212/0312 16010KT CAVOK"
    },
    {
      "icao": "EDDS",
      "alert": "OK",
      "vis_m": 9999,
      "fzfg": false,
      "metar_trigger": false,
      "taf_trigger": false,
      "metar": "METAR EDDS 021450Z AUTO 30006KT 9999 SHRA VCTS FEW024 SCT///CB 20/15 Q1007 RETS TEMPO TSRA",
      "taf": "TAF EDDS 021100Z 0212/0312 24007KT CAVOK"
    },
    {
      "icao": "EDFH",
      "alert": "OK",
      "vis_m": 9999,
      "fzfg": false,
      "metar_trigger": false,
      "taf_trigger": false,
      "metar": "METAR EDFH 021450Z 19010KT 9999 VCSH FEW029CB 16/14 Q1007",
      "taf": "TAF EDFH 021100Z 0212/0312 18006KT CAVOK"
    },
    {
      "icao": "EDJA",
      "alert": "OK",
      "vis_m": 9999,
      "fzfg": false,
      "metar_trigger": false,
      "taf_trigger": false,
      "metar": "METAR EDJA 021450Z 20011KT 170V230 9999 FEW054 25/10 Q1007",
      "taf": "TAF EDJA 021400Z 0215/0224 23012KT 9999 FEW050"
    },
    {
      "icao": "EDLW",
      "alert": "OK",
      "vis_m": 9999,
      "fzfg": false,
      "metar_trigger": false,
      "taf_trigger": false,
      "metar": "METAR EDLW 021450Z 20010KT 170V230 9999 23/15 Q1003",
      "taf": "TAF EDLW 021100Z 0212/0312 21009KT 9999 SCT030"
    },
    {
      "icao": "EDNY",
      "alert": "OK",
      "vis_m": 8000,
      "fzfg": false,
      "metar_trigger": false,
      "taf_trigger": false,
      "metar": "METAR EDNY 021450Z 27012G25KT 230V330 8000 TSRA FEW036 BKN045CB 18/11 Q1008",
      "taf": "TAF EDNY 021400Z 0215/0224 23007KT 9999 FEW055"
    },
    {
      "icao": "EDSB",
      "alert": "OK",
      "vis_m": 8000,
      "fzfg": false,
      "metar_trigger": false,
      "taf_trigger": false,
      "metar": "METAR EDSB 021450Z 28004KT 240V330 8000 -SHRA FEW010 SCT021TCU OVC024 16/15 Q1009 RESHRA",
      "taf": "TAF EDSB 021100Z 0212/0312 23007KT CAVOK"
    },
    {
      "icao": "EETN",
      "alert": "OK",
      "vis_m": 9999,
      "fzfg": false,
      "metar_trigger": false,
      "taf_trigger": false,
      "metar": "METAR EETN 021450Z 33006KT CAVOK 18/10 Q1012 NOSIG",
      "taf": "TAF EETN 021130Z 0212/0312 32010KT CAVOK"
    },
    {
      "icao": "EFTU",
      "alert": "OK",
      "vis_m": 9999,
      "fzfg": false,
      "metar_trigger": false,
      "taf_trigger": false,
      "metar": "METAR EFTU 021450Z AUTO 22011KT 180V250 9999 FEW036 18/09 Q1011",
      "taf": "TAF EFTU 021437Z 0215/0315 22009KT CAVOK"
    },
    {
      "icao": "EGBB",
      "alert": "OK",
      "vis_m": 9999,
      "fzfg": false,
      "metar_trigger": false,
      "taf_trigger": false,
      "metar": "METAR EGBB 021450Z 25008KT 230V290 9999 SCT028CB 17/11 Q1002",
      "taf": "TAF EGBB 021058Z 0212/0312 26008KT 9999 SCT030"
    },
    {
      "icao": "EGGP",
      "alert": "OK",
      "vis_m": 9999,
      "fzfg": false,
      "metar_trigger": false,
      "taf_trigger": false,
      "metar": "METAR EGGP 021450Z 28015KT 9999 FEW018 SCT025 17/12 Q1002",
      "taf": "TAF EGGP 021104Z 0212/0312 27011KT 9999 SCT025"
    },
    {
      "icao": "EGGW",
      "alert": "OK",
      "vis_m": 9999,
      "fzfg": false,
      "metar_trigger": false,
      "taf_trigger": false,
      "metar": "METAR EGGW 021450Z COR 22011KT 9999 VCTS BKN160CB 17/12 Q1002",
      "taf": "TAF EGGW 021104Z 0212/0312 26012KT 9999 FEW025"
    },
    {
      "icao": "EGKK",
      "alert": "OK",
      "vis_m": 9999,
      "fzfg": false,
      "metar_trigger": false,
      "taf_trigger": false,
      "metar": "METAR EGKK 021450Z 22005KT 190V270 9999 FEW030 FEW048CB 15/13 Q1004",
      "taf": "TAF EGKK 021103Z 0212/0318 25010KT 9999 SCT030"
    },
    {
      "icao": "EGNM",
      "alert": "OK",
      "vis_m": 9999,
      "fzfg": false,
      "metar_trigger": false,
      "taf_trigger": false,
      "metar": "METAR EGNM 021450Z 28014KT 9999 SCT022 17/11 Q1001",
      "taf": "TAF EGNM 021104Z 0212/0312 27009KT 9999 SCT025"
    },
    {
      "icao": "EGPD",
      "alert": "OK",
      "vis_m": 9999,
      "fzfg": false,
      "metar_trigger": false,
      "taf_trigger": false,
      "metar": "METAR EGPD 021450Z 36007KT 9999 SCT008CB BKN011 OVC022 17/14 Q0998 TEMPO 3000 TSRA BKN008CB",
      "taf": ""
    },
    {
      "icao": "EGPF",
      "alert": "OK",
      "vis_m": 9999,
      "fzfg": false,
      "metar_trigger": false,
      "taf_trigger": false,
      "metar": "METAR EGPF 021450Z AUTO 30010KT 9999 BKN023/// //////CB 18/13 Q0999",
      "taf": "TAF EGPF 021103Z 0212/0312 28009KT 9999 BKN025"
    },
    {
      "icao": "EHBK",
      "alert": "OK",
      "vis_m": 9999,
      "fzfg": false,
      "metar_trigger": false,
      "taf_trigger": false,
      "metar": "METAR EHBK 021455Z AUTO 22012KT 180V250 9999 FEW026 20/14 Q1005 NOSIG",
      "taf": "TAF EHBK 021109Z 0212/0318 21010KT CAVOK"
    },
    {
      "icao": "EHEH",
      "alert": "OK",
      "vis_m": 9999,
      "fzfg": false,
      "metar_trigger": false,
      "taf_trigger": false,
      "metar": "METAR EHEH 021455Z AUTO 22010KT 180V260 9999 OVC084 20/15 Q1003 BLU TEMPO 4500 SHRA FEW015 SCT025CB",
      "taf": "TAF EHEH 021135Z 0212/0318 24008KT 9999 SCT028"
    },
    {
      "icao": "EKBI",
      "alert": "OK",
      "vis_m": 9999,
      "fzfg": false,
      "metar_trigger": false,
      "taf_trigger": false,
      "metar": "METAR EKBI 021450Z AUTO 12011KT 9999 BKN170/// 21/12 Q1006",
      "taf": "TAF EKBI 021427Z 0215/0315 16010KT 9999 BKN045"
    },
    {
      "icao": "EKCH",
      "alert": "OK",
      "vis_m": 9999,
      "fzfg": false,
      "metar_trigger": false,
      "taf_trigger": false,
      "metar": "METAR EKCH 021450Z AUTO 14012KT 9999 NCD 21/10 Q1009 NOSIG",
      "taf": "TAF EKCH 021427Z 0215/0315 13012KT 9999 FEW040"
    },
    {
      "icao": "ENAL",
      "alert": "OK",
      "vis_m": 9999,
      "fzfg": false,
      "metar_trigger": false,
      "taf_trigger": false,
      "metar": "METAR ENAL 021450Z 03006KT CAVOK 15/10 Q1004",
      "taf": "TAF ENAL 021400Z 0215/0224 04005KT 9999 SCT050"
    },
    {
      "icao": "ENBR",
      "alert": "OK",
      "vis_m": 9999,
      "fzfg": false,
      "metar_trigger": false,
      "taf_trigger": false,
      "metar": "METAR ENBR 021450Z 20005KT 150V220 9999 -SHRA FEW021CB BKN041 14/12 Q1003 TEMPO SHRA BKN020CB RMK WIND 1200FT 15010KT",
      "taf": "TAF ENBR 021100Z 0212/0312 13008KT 9999 -RA BKN030"
    },
    {
      "icao": "ENGM",
      "alert": "OK",
      "vis_m": 9999,
      "fzfg": false,
      "metar_trigger": false,
      "taf_trigger": false,
      "metar": "METAR ENGM 021450Z 19013KT 9999 BKN030 15/10 Q1008 NOSIG",
      "taf": "TAF ENGM 021100Z 0212/0312 20008KT 9999 BKN030"
    },
    {
      "icao": "ENHD",
      "alert": "OK",
      "vis_m": 9999,
      "fzfg": false,
      "metar_trigger": false,
      "taf_trigger": false,
      "metar": "METAR ENHD 021450Z 12015KT 9999 -RA FEW015 BKN020 14/13 Q1003",
      "taf": "TAF ENHD 021400Z 0215/0222 13012KT 9999 -RA BKN030"
    },
    {
      "icao": "ENTC",
      "alert": "OK",
      "vis_m": 9999,
      "fzfg": false,
      "metar_trigger": false,
      "taf_trigger": false,
      "metar": "METAR ENTC 021450Z 02010KT 9999 FEW062 17/04 Q1008 NOSIG RMK WIND 2600FT 15010KT",
      "taf": ""
    },
    {
      "icao": "ENTO",
      "alert": "OK",
      "vis_m": 9000,
      "fzfg": false,
      "metar_trigger": false,
      "taf_trigger": false,
      "metar": "METAR ENTO 021450Z 16005KT 9000 -DZ SCT008 OVC012 14/14 Q1009 TEMPO 4000 DZRA BR BKN008",
      "taf": "TAF ENTO 021100Z 0212/0312 17008KT 9999 BKN015"
    },
    {
      "icao": "ENVA",
      "alert": "OK",
      "vis_m": 9999,
      "fzfg": false,
      "metar_trigger": false,
      "taf_trigger": false,
      "metar": "METAR ENVA 021450Z VRB02KT CAVOK 22/09 Q1003 NOSIG RMK WIND 670FT 36003KT",
      "taf": "TAF ENVA 021100Z 0212/0312 09006KT 9999 SCT030"
    },
    {
      "icao": "ENZV",
      "alert": "OK",
      "vis_m": 9999,
      "fzfg": false,
      "metar_trigger": false,
      "taf_trigger": false,
      "metar": "METAR ENZV 021450Z 15016KT 9999 SCT026 18/12 Q1003 TEMPO SHRA SCT040CB",
      "taf": "TAF ENZV 021100Z 0212/0312 14012KT 9999 -RA FEW015 BKN025"
    },
    {
      "icao": "EPGD",
      "alert": "OK",
      "vis_m": 9999,
      "fzfg": false,
      "metar_trigger": false,
      "taf_trigger": false,
      "metar": "METAR EPGD 021500Z 06011KT 030V090 9999 FEW043 19/08 Q1012",
      "taf": "TAF EPGD 021130Z 0212/0312 06010KT CAVOK"
    },
    {
      "icao": "EPKK",
      "alert": "OK",
      "vis_m": 9999,
      "fzfg": false,
      "metar_trigger": false,
      "taf_trigger": false,
      "metar": "METAR EPKK 021500Z 05005KT 350V100 9999 FEW065 24/10 Q1011",
      "taf": "TAF EPKK 021430Z 0215/0315 03004KT CAVOK"
    },
    {
      "icao": "EPKT",
      "alert": "OK",
      "vis_m": 9999,
      "fzfg": false,
      "metar_trigger": false,
      "taf_trigger": false,
      "metar": "METAR EPKT 021500Z 01003KT 330V050 CAVOK 23/09 Q1011",
      "taf": "TAF EPKT 021130Z 0212/0312 01007KT 9999 SCT043"
    },
    {
      "icao": "EPLB",
      "alert": "OK",
      "vis_m": 9999,
      "fzfg": false,
      "metar_trigger": false,
      "taf_trigger": false,
      "metar": "METAR EPLB 021500Z 13007KT 110V170 9999 FEW025 SCT036 18/13 Q1013",
      "taf": "TAF EPLB 021130Z 0212/0312 11010KT 9999 SCT038"
    },
    {
      "icao": "EPMO",
      "alert": "OK",
      "vis_m": 9999,
      "fzfg": false,
      "metar_trigger": false,
      "taf_trigger": false,
      "metar": "METAR EPMO 021500Z 08006KT 040V130 9999 FEW045 22/14 Q1012",
      "taf": "TAF EPMO 021130Z 0212/0312 VRB03KT 9999 SCT045"
    },
    {
      "icao": "EPPO",
      "alert": "OK",
      "vis_m": 9999,
      "fzfg": false,
      "metar_trigger": false,
      "taf_trigger": false,
      "metar": "METAR EPPO 021500Z 14006KT 120V180 CAVOK 25/07 Q1010",
      "taf": "TAF EPPO 021130Z 0212/0312 VRB02KT CAVOK"
    },
    {
      "icao": "EPRA",
      "alert": "OK",
      "vis_m": 9999,
      "fzfg": false,
      "metar_trigger": false,
      "taf_trigger": false,
      "metar": "METAR EPRA 021500Z 10010KT 9999 SCT040 20/12 Q1012",
      "taf": "TAF EPRA 021430Z 0215/0224 12010KT 9999 SCT040"
    },
    {
      "icao": "EPRZ",
      "alert": "OK",
      "vis_m": 9999,
      "fzfg": false,
      "metar_trigger": false,
      "taf_trigger": false,
      "metar": "METAR EPRZ 021500Z 06011KT 9999 FEW020 19/13 Q1012",
      "taf": "TAF EPRZ 021130Z 0212/0312 09007KT 9999 SCT030"
    },
    {
      "icao": "EPSC",
      "alert": "OK",
      "vis_m": 9999,
      "fzfg": false,
      "metar_trigger": false,
      "taf_trigger": false,
      "metar": "METAR EPSC 021500Z 12007KT 100V160 CAVOK 23/10 Q1009",
      "taf": "TAF EPSC 021130Z 0212/0312 13007KT 9999 FEW040"
    },
    {
      "icao": "EPSY",
      "alert": "OK",
      "vis_m": 9999,
      "fzfg": false,
      "metar_trigger": false,
      "taf_trigger": false,
      "metar": "METAR EPSY 021500Z 08003KT 360V130 9999 FEW041 21/12 Q1012",
      "taf": "TAF EPSY 021430Z 0215/0224 13006KT 9999 SCT040"
    },
    {
      "icao": "EPWA",
      "alert": "OK",
      "vis_m": 9999,
      "fzfg": false,
      "metar_trigger": false,
      "taf_trigger": false,
      "metar": "METAR EPWA 021500Z 11009KT CAVOK 22/11 Q1011 NOSIG",
      "taf": "TAF EPWA 021430Z 0215/0315 VRB05KT CAVOK"
    },
    {
      "icao": "EPWR",
      "alert": "OK",
      "vis_m": 9999,
      "fzfg": false,
      "metar_trigger": false,
      "taf_trigger": false,
      "metar": "METAR EPWR 021500Z 12009KT CAVOK 25/07 Q1009",
      "taf": "TAF EPWR 021430Z 0215/0315 12007KT CAVOK"
    },
    {
      "icao": "ESGG",
      "alert": "OK",
      "vis_m": 9999,
      "fzfg": false,
      "metar_trigger": false,
      "taf_trigger": false,
      "metar": "METAR ESGG 021450Z 15002KT CAVOK 18/11 Q1009",
      "taf": "TAF ESGG 021430Z 0215/0315 14005KT 9999 BKN040"
    },
    {
      "icao": "ESKN",
      "alert": "OK",
      "vis_m": 9999,
      "fzfg": false,
      "metar_trigger": false,
      "taf_trigger": false,
      "metar": "METAR ESKN 021450Z 13005KT 100V170 9999 -RA BKN067 18/11 Q1011",
      "taf": "TAF ESKN 021430Z 0215/0315 15008KT CAVOK"
    },
    {
      "icao": "ESMS",
      "alert": "OK",
      "vis_m": 9999,
      "fzfg": false,
      "metar_trigger": false,
      "taf_trigger": false,
      "metar": "METAR ESMS 021450Z 12012KT CAVOK 20/10 Q1009",
      "taf": "TAF ESMS 021427Z 0215/0315 14010KT 9999 FEW040"
    },
    {
      "icao": "ESSA",
      "alert": "OK",
      "vis_m": 9999,
      "fzfg": false,
      "metar_trigger": false,
      "taf_trigger": false,
      "metar": "METAR ESSA 021450Z 23014KT CAVOK 18/09 Q1010 NOSIG",
      "taf": "TAF ESSA 021430Z 0215/0315 23012KT CAVOK"
    },
    {
      "icao": "EYKA",
      "alert": "OK",
      "vis_m": 9999,
      "fzfg": false,
      "metar_trigger": false,
      "taf_trigger": false,
      "metar": "METAR EYKA 021450Z 14008KT 110V170 CAVOK 23/08 Q1013",
      "taf": "TAF EYKA 021100Z 0212/0312 VRB03KT 9000 NSC"
    },
    {
      "icao": "EYPA",
      "alert": "OK",
      "vis_m": 9999,
      "fzfg": false,
      "metar_trigger": false,
      "taf_trigger": false,
      "metar": "METAR EYPA 021450Z 31003KT 260V010 CAVOK 18/05 Q1013",
      "taf": "TAF EYPA 021100Z 0212/0312 VRB03KT 9000 NSC"
    },
    {
      "icao": "EYVI",
      "alert": "OK",
      "vis_m": 9999,
      "fzfg": false,
      "metar_trigger": false,
      "taf_trigger": false,
      "metar": "METAR EYVI 021450Z 19007KT CAVOK 22/07 Q1014 NOSIG",
      "taf": "TAF EYVI 021100Z 0212/0312 17008KT 9000 NSC"
    },
    {
      "icao": "GCFV",
      "alert": "OK",
      "vis_m": 9999,
      "fzfg": false,
      "metar_trigger": false,
      "taf_trigger": false,
      "metar": "METAR GCFV 021500Z 03018KT 360V060 9999 FEW024 25/17 Q1019",
      "taf": "TAF GCFV 021400Z 0215/0315 02016KT 9999 FEW025 TX25/0314Z TN19/0306Z"
    },
    {
      "icao": "GCLP",
      "alert": "OK",
      "vis_m": 9999,
      "fzfg": false,
      "metar_trigger": false,
      "taf_trigger": false,
      "metar": "METAR GCLP 021500Z 01028G38KT 9999 FEW025 25/17 Q1020 NOSIG",
      "taf": "TAF GCLP 021400Z 0215/0315 01026KT 9999 SCT025 TX24/0314Z TN19/0306Z"
    },
    {
      "icao": "GCTS",
      "alert": "OK",
      "vis_m": 9999,
      "fzfg": false,
      "metar_trigger": false,
      "taf_trigger": false,
      "metar": "METAR GCTS 021500Z 09023KT 9999 FEW025 25/16 Q1021 NOSIG",
      "taf": "TAF GCTS 021400Z 0215/0315 09020KT 9999 FEW025 TX26/0314Z TN19/0306Z"
    },
    {
      "icao": "GMAD",
      "alert": "OK",
      "vis_m": 8000,
      "fzfg": false,
      "metar_trigger": false,
      "taf_trigger": false,
      "metar": "METAR GMAD 021500Z 25013KT 8000 FEW016 26/17 Q1014 NOSIG",
      "taf": "TAF GMAD 021100Z 0212/0318 28004KT 8000 SCT016"
    },
    {
      "icao": "GMMN",
      "alert": "OK",
      "vis_m": 9999,
      "fzfg": false,
      "metar_trigger": false,
      "taf_trigger": false,
      "metar": "METAR GMMN 021500Z 36013KT 310V040 CAVOK 25/18 Q1019 NOSIG",
      "taf": "TAF GMMN 021100Z 0212/0318 36008KT CAVOK"
    },
    {
      "icao": "GMMX",
      "alert": "OK",
      "vis_m": 9999,
      "fzfg": false,
      "metar_trigger": false,
      "taf_trigger": false,
      "metar": "METAR GMMX 021500Z 36008G22KT 300V050 9999 FEW040 36/12 Q1016 NOSIG",
      "taf": "TAF GMMX 021100Z 0212/0318 32011KT CAVOK"
    },
    {
      "icao": "HEGN",
      "alert": "OK",
      "vis_m": 9999,
      "fzfg": false,
      "metar_trigger": false,
      "taf_trigger": false,
      "metar": "METAR HEGN 021400Z 36014KT CAVOK 37/07 Q1012 NOSIG",
      "taf": "TAF HEGN 021100Z 0212/0318 36015KT CAVOK"
    },
    {
      "icao": "HEMA",
      "alert": "OK",
      "vis_m": 9999,
      "fzfg": false,
      "metar_trigger": false,
      "taf_trigger": false,
      "metar": "METAR HEMA 021400Z 35018KT CAVOK 35/06 Q1012 NOSIG",
      "taf": "TAF HEMA 021100Z 0212/0318 01015KT CAVOK"
    },
    {
      "icao": "HESH",
      "alert": "OK",
      "vis_m": 9999,
      "fzfg": false,
      "metar_trigger": false,
      "taf_trigger": false,
      "metar": "METAR HESH 021400Z 35014KT CAVOK 35/08 Q1012 NOSIG",
      "taf": "TAF HESH 021100Z 0212/0318 02015KT CAVOK"
    },
    {
      "icao": "HESX",
      "alert": "OK",
      "vis_m": 9999,
      "fzfg": false,
      "metar_trigger": false,
      "taf_trigger": false,
      "metar": "METAR HESX 021400Z 02012KT CAVOK 35/08 Q1015 NOSIG",
      "taf": "TAF HESX 021100Z 0212/0318 08008KT CAVOK"
    },
    {
      "icao": "LATI",
      "alert": "OK",
      "vis_m": 9999,
      "fzfg": false,
      "metar_trigger": false,
      "taf_trigger": false,
      "metar": "METAR LATI 021450Z 21007KT 170V250 9999 FEW092 26/13 Q1014 NOSIG",
      "taf": "TAF LATI 021100Z 0212/0312 24012KT 9999 SCT030 BKN080 TX30/0312Z TN17/0304Z"
    },
    {
      "icao": "LBPD",
      "alert": "OK",
      "vis_m": 9999,
      "fzfg": false,
      "metar_trigger": false,
      "taf_trigger": false,
      "metar": "METAR LBPD 021500Z AUTO 14011KT 9999 //////CB 23/15 Q1013 NOSIG",
      "taf": "TAF LBPD 021100Z 0212/0312 VRB03KT 9999 SCT060"
    },
    {
      "icao": "LBSF",
      "alert": "OK",
      "vis_m": 9999,
      "fzfg": false,
      "metar_trigger": false,
      "taf_trigger": false,
      "metar": "METAR LBSF 021500Z AUTO 15004KT 100V200 9999 FEW041/// SCT058/// 22/13 Q1014 NOSIG",
      "taf": "TAF LBSF 021100Z 0212/0312 VRB03KT 9999 SCT015 BKN050"
    },
    {
      "icao": "LBWN",
      "alert": "OK",
      "vis_m": 7000,
      "fzfg": false,
      "metar_trigger": false,
      "taf_trigger": false,
      "metar": "METAR LBWN 021500Z 11007KT 7000 -SHRA VCTS FEW030CB BKN040 17/17 Q1014 RETSRA TEMPO 2500 SHRA SCT030TCU",
      "taf": "TAF LBWN 021100Z 0212/0312 11010KT 9999 SCT007 BKN045"
    },
    {
      "icao": "LCLK",
      "alert": "OK",
      "vis_m": 9999,
      "fzfg": false,
      "metar_trigger": false,
      "taf_trigger": false,
      "metar": "METAR LCLK 021500Z 21014KT 9999 FEW030 29/17 Q1014 NOSIG",
      "taf": "TAF LCLK 021130Z 0212/0312 20015KT CAVOK"
    },
    {
      "icao": "LCPH",
      "alert": "OK",
      "vis_m": 9999,
      "fzfg": false,
      "metar_trigger": false,
      "taf_trigger": false,
      "metar": "METAR LCPH 021500Z 31013KT 9999 FEW030 24/18 Q1015 NOSIG",
      "taf": "TAF LCPH 021130Z 0212/0312 29015KT CAVOK"
    },
    {
      "icao": "LEAL",
      "alert": "OK",
      "vis_m": 9999,
      "fzfg": false,
      "metar_trigger": false,
      "taf_trigger": false,
      "metar": "METAR LEAL 021500Z VRB04KT CAVOK 33/17 Q1010 NOSIG",
      "taf": "TAF LEAL 021100Z 0212/0312 18012KT CAVOK TX34/0212Z TN21/0306Z"
    },
    {
      "icao": "LEBB",
      "alert": "OK",
      "vis_m": 9999,
      "fzfg": false,
      "metar_trigger": false,
      "taf_trigger": false,
      "metar": "METAR LEBB 021500Z 31011KT 280V340 9999 SCT025 BKN037 BKN050 19/14 Q1021 NOSIG",
      "taf": "TAF LEBB 021100Z 0212/0312 29009KT 9999 SCT020 BKN040 TX25/0312Z TN14/0305Z"
    },
    {
      "icao": "LEBL",
      "alert": "OK",
      "vis_m": 9999,
      "fzfg": false,
      "metar_trigger": false,
      "taf_trigger": false,
      "metar": "METAR LEBL 021500Z 11006KT 060V150 9999 FEW017 26/21 Q1012 NOSIG",
      "taf": "TAF LEBL 021100Z 0212/0312 18006KT 9999 FEW020 TX27/0212Z TN20/0306Z"
    },
    {
      "icao": "LECH",
      "alert": "OK",
      "vis_m": 9999,
      "fzfg": false,
      "metar_trigger": false,
      "taf_trigger": false,
      "metar": "METAR LECH 021500Z AUTO 11006KT 080V150 9999 VCTS //////CB 27/17 Q1012",
      "taf": ""
    },
    {
      "icao": "LEMD",
      "alert": "OK",
      "vis_m": 9999,
      "fzfg": false,
      "metar_trigger": false,
      "taf_trigger": false,
      "metar": "METAR LEMD 021500Z 27015KT 240V310 CAVOK 30/05 Q1015 NOSIG",
      "taf": "TAF LEMD 021100Z 0212/0318 27010KT CAVOK TX32/0216Z TN14/0305Z"
    },
    {
      "icao": "LEMG",
      "alert": "OK",
      "vis_m": 9999,
      "fzfg": false,
      "metar_trigger": false,
      "taf_trigger": false,
      "metar": "METAR LEMG 021500Z 30014KT 260V340 CAVOK 36/08 Q1013 NOSIG",
      "taf": "TAF LEMG 021100Z 0212/0312 30012KT CAVOK TX38/0214Z TN25/0305Z"
    },
    {
      "icao": "LEVC",
      "alert": "OK",
      "vis_m": 9999,
      "fzfg": false,
      "metar_trigger": false,
      "taf_trigger": false,
      "metar": "METAR LEVC 021500Z 09011KT 050V130 CAVOK 28/18 Q1011 NOSIG",
      "taf": "TAF LEVC 021100Z 0212/0312 10010KT CAVOK TX32/0212Z TN19/0306Z"
    },
    {
      "icao": "LEXJ",
      "alert": "OK",
      "vis_m": 9999,
      "fzfg": false,
      "metar_trigger": false,
      "taf_trigger": false,
      "metar": "METAR LEXJ 021500Z 32012KT 280V020 9999 SCT025 BKN045 19/13 Q1021",
      "taf": "TAF LEXJ 021400Z 0215/0315 28009KT 9999 SCT030 BKN060 TX24/0312Z TN15/0305Z"
    },
    {
      "icao": "LEZG",
      "alert": "OK",
      "vis_m": 9999,
      "fzfg": false,
      "metar_trigger": false,
      "taf_trigger": false,
      "metar": "METAR LEZG 021500Z 30017G28KT 260V340 9999 FEW050 26/12 Q1015 NOSIG",
      "taf": "TAF LEZG 021100Z 0212/0312 30020KT 9999 FEW040 TX28/0214Z TN14/0306Z"
    },
    {
      "icao": "LEZL",
      "alert": "OK",
      "vis_m": 9999,
      "fzfg": false,
      "metar_trigger": false,
      "taf_trigger": false,
      "metar": "METAR LEZL 021500Z 25008KT 190V290 CAVOK 34/10 Q1014 NOSIG",
      "taf": "TAF LEZL 021400Z 0215/0315 27008KT CAVOK TX37/0315Z TN20/0307Z"
    },
    {
      "icao": "LFBD",
      "alert": "OK",
      "vis_m": 9999,
      "fzfg": false,
      "metar_trigger": false,
      "taf_trigger": false,
      "metar": "METAR LFBD 021500Z AUTO 29017KT 9999 FEW039 SCT056 BKN068 21/12 Q1017 TEMPO 28015G30KT 4000 SHRA BKN020TCU",
      "taf": "TAF LFBD 021100Z 0212/0318 28010KT 9999 SCT040 TX23/0312Z TN15/0305Z"
    },
    {
      "icao": "LFLL",
      "alert": "OK",
      "vis_m": 9999,
      "fzfg": false,
      "metar_trigger": false,
      "taf_trigger": false,
      "metar": "METAR LFLL 021500Z VRB01KT 9999 FEW031CB BKN230 19/15 Q1011 RETSRA NOSIG",
      "taf": "TAF LFLL 021100Z 0212/0318 VRB05KT 9999 SCT040 BKN060"
    },
    {
      "icao": "LFLS",
      "alert": "OK",
      "vis_m": 9999,
      "fzfg": false,
      "metar_trigger": false,
      "taf_trigger": false,
      "metar": "METAR LFLS 021500Z AUTO 21013KT 180V240 9999 RA VCTS FEW037/// BKN054/// BKN092/// ///CB 19/14 Q1012 TEMPO VRB18G30KT 4000 TSRAGS",
      "taf": "TAF LFLS 021400Z 0215/0315 24010KT CAVOK"
    },
    {
      "icao": "LFMN",
      "alert": "OK",
      "vis_m": 3000,
      "fzfg": false,
      "metar_trigger": false,
      "taf_trigger": false,
      "metar": "METAR LFMN 021500Z 33017KT 3000 -TSRA FEW020 SCT033 SCT060CB BKN066 19/17 Q1010 TEMPO VRB15G25KT 3000 TSRA SCT050CB",
      "taf": "TAF LFMN 021400Z 0215/0321 22012KT CAVOK"
    },
    {
      "icao": "LFOB",
      "alert": "OK",
      "vis_m": 9999,
      "fzfg": false,
      "metar_trigger": false,
      "taf_trigger": false,
      "metar": "METAR LFOB 021500Z AUTO 28014KT 240V300 9999 SCT034/// BKN040/// BKN066/// ///CB 18/12 Q1007 TEMPO 26015G25KT 4000 SHRA",
      "taf": "TAF LFOB 021100Z 0212/0312 23010KT 9999 BKN050"
    },
    {
      "icao": "LFPO",
      "alert": "OK",
      "vis_m": 9999,
      "fzfg": false,
      "metar_trigger": false,
      "taf_trigger": false,
      "metar": "METAR LFPO 021500Z 26013KT 230V290 9999 FEW033 FEW040CB BKN090 20/12 Q1008 TEMPO 27015G30KT 2000 TSRAGS BKN025CB",
      "taf": "TAF LFPO 021100Z 0212/0318 24010KT 9999 BKN030"
    },
    {
      "icao": "LFSB",
      "alert": "OK",
      "vis_m": 9999,
      "fzfg": false,
      "metar_trigger": false,
      "taf_trigger": false,
      "metar": "METAR LFSB 021500Z AUTO 27006KT 240V300 9999 -RA FEW016/// BKN048/// BKN066/// ///CB 18/16 Q1010 TEMPO 4000 SHRA",
      "taf": "TAF LFSB 021100Z 0212/0312 25008KT CAVOK"
    },
    {
      "icao": "LGAV",
      "alert": "OK",
      "vis_m": 9999,
      "fzfg": false,
      "metar_trigger": false,
      "taf_trigger": false,
      "metar": "METAR LGAV 021450Z 21013KT 9999 FEW025 29/14 Q1013 NOSIG",
      "taf": "TAF LGAV 021100Z 0212/0312 17010KT CAVOK"
    },
    {
      "icao": "LGTS",
      "alert": "OK",
      "vis_m": 9999,
      "fzfg": false,
      "metar_trigger": false,
      "taf_trigger": false,
      "metar": "METAR LGTS 021450Z 19012KT 9999 FEW020TCU SCT035 29/18 Q1011 NOSIG",
      "taf": "TAF LGTS 021100Z 0212/0312 17013KT 9999 FEW025"
    },
    {
      "icao": "LHBP",
      "alert": "OK",
      "vis_m": 9999,
      "fzfg": false,
      "metar_trigger": false,
      "taf_trigger": false,
      "metar": "METAR LHBP 021500Z 18010KT 140V220 CAVOK 27/10 Q1010 NOSIG",
      "taf": "TAF LHBP 021115Z 0212/0312 18006KT CAVOK"
    },
    {
      "icao": "LHDC",
      "alert": "OK",
      "vis_m": 9999,
      "fzfg": false,
      "metar_trigger": false,
      "taf_trigger": false,
      "metar": "METAR LHDC 021445Z AUTO VRB03KT CAVOK 24/11 Q1011 NOSIG",
      "taf": "TAF LHDC 021415Z 0215/0224 VRB04KT CAVOK"
    },
    {
      "icao": "LIBD",
      "alert": "OK",
      "vis_m": 9999,
      "fzfg": false,
      "metar_trigger": false,
      "taf_trigger": false,
      "metar": "METAR LIBD 021450Z 07006KT 9999 -RA FEW035 22/20 Q1013",
      "taf": "TAF LIBD 021100Z 0212/0312 08013KT 9999 FEW040"
    },
    {
      "icao": "LIBG",
      "alert": "OK",
      "vis_m": 9999,
      "fzfg": false,
      "metar_trigger": false,
      "taf_trigger": false,
      "metar": "METAR LIBG 021450Z AUTO 17007KT 140V200 9999 NCD 29/14 Q1013",
      "taf": "TAF LIBG 021100Z 0212/0312 19010KT CAVOK"
    },
    {
      "icao": "LIBP",
      "alert": "OK",
      "vis_m": 9999,
      "fzfg": false,
      "metar_trigger": false,
      "taf_trigger": false,
      "metar": "METAR LIBP 021450Z AUTO 11005KT 070V150 9999 FEW083/// SCT110/// BKN230/// 24/18 Q1012",
      "taf": "TAF LIBP 021100Z 0212/0312 10012KT 9999 SCT040"
    },
    {
      "icao": "LIBR",
      "alert": "OK",
      "vis_m": 9999,
      "fzfg": false,
      "metar_trigger": false,
      "taf_trigger": false,
      "metar": "METAR LIBR 021450Z 10009KT CAVOK 24/19 Q1013",
      "taf": "TAF LIBR 021100Z 0212/0312 09010KT 9999 FEW030"
    },
    {
      "icao": "LICA",
      "alert": "OK",
      "vis_m": 9999,
      "fzfg": false,
      "metar_trigger": false,
      "taf_trigger": false,
      "metar": "METAR LICA 021450Z AUTO 26008KT 9999 NCD 28/14 Q1014",
      "taf": "TAF LICA 021100Z 0212/0312 27010KT CAVOK"
    },
    {
      "icao": "LICC",
      "alert": "OK",
      "vis_m": 9999,
      "fzfg": false,
      "metar_trigger": false,
      "taf_trigger": false,
      "metar": "METAR LICC 021450Z 07014KT 9999 FEW080 28/17 Q1014",
      "taf": "TAF LICC 021100Z 0212/0312 08012KT 9999 FEW040"
    },
    {
      "icao": "LICJ",
      "alert": "OK",
      "vis_m": 9999,
      "fzfg": false,
      "metar_trigger": false,
      "taf_trigger": false,
      "metar": "METAR LICJ 021450Z 29009KT CAVOK 25/20 Q1014",
      "taf": "TAF LICJ 021100Z 0212/0312 32010KT CAVOK"
    },
    {
      "icao": "LIMC",
      "alert": "OK",
      "vis_m": 9999,
      "fzfg": false,
      "metar_trigger": false,
      "taf_trigger": false,
      "metar": "METAR LIMC 021450Z 14009KT 9999 -RA SCT030 BKN060 21/15 Q1010 TEMPO TSRA",
      "taf": "TAF LIMC 021100Z 0212/0318 11012KT 9999 BKN020"
    },
    {
      "icao": "LIME",
      "alert": "OK",
      "vis_m": 9999,
      "fzfg": false,
      "metar_trigger": false,
      "taf_trigger": false,
      "metar": "METAR LIME 021450Z 09004KT 9999 SCT035 BKN065 21/16 Q1009 NOSIG",
      "taf": "TAF LIME 021100Z 0212/0312 12012KT 9999 SCT030 BKN050"
    },
    {
      "icao": "LIMF",
      "alert": "OK",
      "vis_m": 9999,
      "fzfg": false,
      "metar_trigger": false,
      "taf_trigger": false,
      "metar": "METAR LIMF 021450Z 04006KT 350V060 9999 SCT030 BKN070 18/17 Q1010",
      "taf": "TAF LIMF 021100Z 0212/0312 04010KT 9999 SCT030"
    },
    {
      "icao": "LIMJ",
      "alert": "OK",
      "vis_m": 9999,
      "fzfg": false,
      "metar_trigger": false,
      "taf_trigger": false,
      "metar": "METAR LIMJ 021450Z 15013KT 9999 BKN014 BKN027 22/21 Q1010",
      "taf": "TAF LIMJ 021100Z 0212/0312 18012KT 9999 BKN020"
    },
    {
      "icao": "LIPE",
      "alert": "OK",
      "vis_m": 9999,
      "fzfg": false,
      "metar_trigger": false,
      "taf_trigger": false,
      "metar": "METAR LIPE 021450Z 19011KT 9999 FEW040TCU SCT050 29/15 Q1007",
      "taf": "TAF LIPE 021100Z 0212/0312 VRB06KT 9999 SCT040"
    },
    {
      "icao": "LIPH",
      "alert": "OK",
      "vis_m": 9999,
      "fzfg": false,
      "metar_trigger": false,
      "taf_trigger": false,
      "metar": "METAR LIPH 021450Z 11007KT 080V140 9999 FEW030 SCT050 23/17 Q1011",
      "taf": "TAF LIPH 021100Z 0212/0312 14010KT 9999 FEW020"
    },
    {
      "icao": "LIPQ",
      "alert": "OK",
      "vis_m": 9999,
      "fzfg": false,
      "metar_trigger": false,
      "taf_trigger": false,
      "metar": "METAR LIPQ 021450Z AUTO 23005KT 9999 BKN062/// 24/17 Q1011",
      "taf": "TAF LIPQ 021100Z 0212/0312 21007KT 9999 SCT060"
    },
    {
      "icao": "LIPR",
      "alert": "OK",
      "vis_m": 9999,
      "fzfg": false,
      "metar_trigger": false,
      "taf_trigger": false,
      "metar": "METAR LIPR 021450Z 17008KT 150V210 9999 FEW040TCU SCT050 29/17 Q1009",
      "taf": "TAF LIPR 021100Z 0212/0312 08010KT 9999 SCT050"
    },
    {
      "icao": "LIPX",
      "alert": "OK",
      "vis_m": 9999,
      "fzfg": false,
      "metar_trigger": false,
      "taf_trigger": false,
      "metar": "METAR LIPX 021450Z 06007KT 030V090 9999 -RA FEW020 SCT040 BKN070 20/17 Q1010 RETS",
      "taf": "TAF LIPX 021100Z 0212/0312 10012KT 9999 BKN045"
    },
    {
      "icao": "LIPY",
      "alert": "OK",
      "vis_m": 9999,
      "fzfg": false,
      "metar_trigger": false,
      "taf_trigger": false,
      "metar": "METAR LIPY 021450Z AUTO 14009KT 100V180 9999 NCD 27/17 Q1010",
      "taf": "TAF LIPY 021100Z 0212/0312 12011KT 9999 SCT050"
    },
    {
      "icao": "LIPZ",
      "alert": "OK",
      "vis_m": 9999,
      "fzfg": false,
      "metar_trigger": false,
      "taf_trigger": false,
      "metar": "METAR LIPZ 021450Z 10004KT 9999 -RA FEW010 SCT020 22/20 Q1011 NOSIG",
      "taf": "TAF LIPZ 021100Z 0212/0318 14010KT 9999 SCT040"
    },
    {
      "icao": "LIRF",
      "alert": "OK",
      "vis_m": 9999,
      "fzfg": false,
      "metar_trigger": false,
      "taf_trigger": false,
      "metar": "METAR LIRF 021450Z 17011KT 9999 SCT025 26/20 Q1012 NOSIG",
      "taf": "TAF LIRF 021100Z 0212/0318 19015KT 9999 FEW020"
    },
    {
      "icao": "LIRN",
      "alert": "OK",
      "vis_m": 9999,
      "fzfg": false,
      "metar_trigger": false,
      "taf_trigger": false,
      "metar": "METAR LIRN 021450Z 19015KT 160V230 9999 FEW040 25/19 Q1014 NOSIG",
      "taf": "TAF LIRN 021100Z 0212/0312 21013KT 9999 FEW040"
    },
    {
      "icao": "LIRP",
      "alert": "OK",
      "vis_m": 9999,
      "fzfg": false,
      "metar_trigger": false,
      "taf_trigger": false,
      "metar": "METAR LIRP 021445Z 23012KT 9999 SCT030 25/17 Q1011 NOSIG",
      "taf": "TAF LIRP 021100Z 0212/0312 24010KT 9999 SCT030"
    },
    {
      "icao": "LIRZ",
      "alert": "OK",
      "vis_m": 9999,
      "fzfg": false,
      "metar_trigger": false,
      "taf_trigger": false,
      "metar": "METAR LIRZ 021450Z AUTO 21014KT 9999 VCTS SCT045/// 28/17 Q1010",
      "taf": "TAF LIRZ 021100Z 0212/0312 22015KT 9999 SCT010 SCT040"
    },
    {
      "icao": "LJLJ",
      "alert": "OK",
      "vis_m": 9999,
      "fzfg": false,
      "metar_trigger": false,
      "taf_trigger": false,
      "metar": "METAR LJLJ 021500Z 28006KT 9999 FEW050 SCT093 BKN110 23/12 Q1012 NOSIG",
      "taf": "TAF LJLJ 021100Z 0212/0312 12005KT 9999 SCT050"
    },
    {
      "icao": "LKMT",
      "alert": "OK",
      "vis_m": 9999,
      "fzfg": false,
      "metar_trigger": false,
      "taf_trigger": false,
      "metar": "METAR LKMT 021500Z VRB03KT CAVOK 24/08 Q1011 NOSIG",
      "taf": "TAF LKMT 021100Z 0212/0312 VRB02KT CAVOK"
    },
    {
      "icao": "LKPR",
      "alert": "OK",
      "vis_m": 9999,
      "fzfg": false,
      "metar_trigger": false,
      "taf_trigger": false,
      "metar": "METAR LKPR 021500Z 16006KT 100V210 CAVOK 25/09 Q1008 NOSIG",
      "taf": "TAF LKPR 021400Z 0215/0321 15008KT CAVOK"
    },
    {
      "icao": "LLBG",
      "alert": "OK",
      "vis_m": 9999,
      "fzfg": false,
      "metar_trigger": false,
      "taf_trigger": false,
      "metar": "METAR LLBG 021450Z 32010KT CAVOK 26/17 Q1016 NOSIG",
      "taf": "TAF LLBG 021110Z 0212/0312 31010KT CAVOK TX29/0212Z TN18/0303Z"
    },
    {
      "icao": "LMML",
      "alert": "OK",
      "vis_m": 9999,
      "fzfg": false,
      "metar_trigger": false,
      "taf_trigger": false,
      "metar": "METAR LMML 021445Z 23009KT 200V260 CAVOK 28/15 Q1016 NOSIG",
      "taf": "TAF LMML 021100Z 0212/0312 25010KT 9999 FEW012"
    },
    {
      "icao": "LOWW",
      "alert": "OK",
      "vis_m": 9999,
      "fzfg": false,
      "metar_trigger": false,
      "taf_trigger": false,
      "metar": "METAR LOWW 021450Z 14012KT 110V170 9999 FEW050 26/12 Q1009 NOSIG",
      "taf": "TAF LOWW 021415Z 0215/0321 14010KT 9999 FEW045 TX26/0215Z TN16/0321Z"
    },
    {
      "icao": "LPFR",
      "alert": "OK",
      "vis_m": 9999,
      "fzfg": false,
      "metar_trigger": false,
      "taf_trigger": false,
      "metar": "METAR LPFR 021500Z 30009KT 230V360 CAVOK 31/09 Q1017",
      "taf": "TAF LPFR 021100Z 0212/0312 30015KT CAVOK"
    },
    {
      "icao": "LPMA",
      "alert": "OK",
      "vis_m": 9999,
      "fzfg": false,
      "metar_trigger": false,
      "taf_trigger": false,
      "metar": "METAR LPMA 021500Z 02022KT 9999 FEW012 23/17 Q1025",
      "taf": "TAF LPMA 021100Z 0212/0312 01018KT 9999 SCT015"
    },
    {
      "icao": "LPPR",
      "alert": "OK",
      "vis_m": 9999,
      "fzfg": false,
      "metar_trigger": false,
      "taf_trigger": false,
      "metar": "METAR LPPR 021500Z 32015KT 290V350 9999 FEW020 20/11 Q1022",
      "taf": "TAF LPPR 021100Z 0212/0312 32013KT 9999 SCT020"
    },
    {
      "icao": "LPPS",
      "alert": "OK",
      "vis_m": 9999,
      "fzfg": false,
      "metar_trigger": false,
      "taf_trigger": false,
      "metar": "METAR LPPS 021500Z 02015KT 9999 FEW005 BKN009 21/17 Q1026",
      "taf": "TAF LPPS 021100Z 0212/0318 01013KT 9999 SCT012 BKN025"
    },
    {
      "icao": "LPPT",
      "alert": "OK",
      "vis_m": 9999,
      "fzfg": false,
      "metar_trigger": false,
      "taf_trigger": false,
      "metar": "METAR LPPT 021500Z 34018KT 310V010 9999 FEW035 22/11 Q1022",
      "taf": "TAF LPPT 021100Z 0212/0318 33015KT 9999 SCT020"
    },
    {
      "icao": "LQBK",
      "alert": "OK",
      "vis_m": 9999,
      "fzfg": false,
      "metar_trigger": false,
      "taf_trigger": false,
      "metar": "METAR LQBK 021500Z VRB03KT CAVOK 26/11 Q1012 NOSIG",
      "taf": "TAF LQBK 021100Z 0212/0312 VRB03KT CAVOK TX26/0214Z TN12/0304Z"
    },
    {
      "icao": "LQSA",
      "alert": "OK",
      "vis_m": 9999,
      "fzfg": false,
      "metar_trigger": false,
      "taf_trigger": false,
      "metar": "METAR LQSA 021500Z 31004KT 260V350 9999 SCT050 25/11 Q1013 NOSIG",
      "taf": "TAF LQSA 021100Z 0212/0312 13006KT CAVOK TX26/0214Z TN12/0303Z"
    },
    {
      "icao": "LQTZ",
      "alert": "OK",
      "vis_m": 9999,
      "fzfg": false,
      "metar_trigger": false,
      "taf_trigger": false,
      "metar": "METAR LQTZ 021500Z VRB04KT 9999 FEW060 26/12 Q1012",
      "taf": "TAF LQTZ 021100Z 0212/0312 06006KT CAVOK TX27/0214Z TN15/0304Z"
    },
    {
      "icao": "LRBC",
      "alert": "OK",
      "vis_m": 9999,
      "fzfg": false,
      "metar_trigger": false,
      "taf_trigger": false,
      "metar": "METAR LRBC 021500Z 10003KT 9999 OVC008 18/17 Q1011",
      "taf": "TAF LRBC 021400Z 0215/0224 VRB04KT 9999 BKN010 OVC035"
    },
    {
      "icao": "LRBS",
      "alert": "OK",
      "vis_m": 9999,
      "fzfg": false,
      "metar_trigger": false,
      "taf_trigger": false,
      "metar": "METAR LRBS 021500Z 24011KT 200V260 9999 SCT040 23/15 Q1011 NOSIG",
      "taf": "TAF LRBS 021100Z 0212/0312 24012KT 9999 SCT035"
    },
    {
      "icao": "LRBV",
      "alert": "OK",
      "vis_m": 9999,
      "fzfg": false,
      "metar_trigger": false,
      "taf_trigger": false,
      "metar": "METAR LRBV 021500Z 22010KT 9999 TS VCSH FEW030 SCT038CB BKN061 17/15 Q1012",
      "taf": "TAF LRBV 021400Z 0215/0224 22010KT 9999 SCT025 BKN060"
    },
    {
      "icao": "LRCL",
      "alert": "OK",
      "vis_m": 9999,
      "fzfg": false,
      "metar_trigger": false,
      "taf_trigger": false,
      "metar": "METAR LRCL 021500Z 32006KT 280V010 9999 FEW029 SCT039CB BKN053 21/15 Q1012",
      "taf": "TAF LRCL 021400Z 0215/0224 VRB04KT 9999 FEW040CB BKN050"
    },
    {
      "icao": "LRCV",
      "alert": "OK",
      "vis_m": 9999,
      "fzfg": false,
      "metar_trigger": false,
      "taf_trigger": false,
      "metar": "METAR LRCV 021500Z 27014KT 9999 FEW047 23/13 Q1011",
      "taf": "TAF LRCV 021400Z 0215/0224 27012KT CAVOK"
    },
    {
      "icao": "LRIA",
      "alert": "OK",
      "vis_m": 9999,
      "fzfg": false,
      "metar_trigger": false,
      "taf_trigger": false,
      "metar": "METAR LRIA 021500Z 11014KT 9999 -RA OVC004 14/13 Q1013",
      "taf": "TAF LRIA 021400Z 0215/0224 11015KT 9999 BKN005 OVC020"
    },
    {
      "icao": "LROP",
      "alert": "OK",
      "vis_m": 9999,
      "fzfg": false,
      "metar_trigger": false,
      "taf_trigger": false,
      "metar": "METAR LROP 021500Z 22012KT 9999 BKN038 FEW050TCU 24/16 Q1011 TEMPO VRB20KT TS",
      "taf": "TAF LROP 021100Z 0212/0312 24012KT 9999 SCT035"
    },
    {
      "icao": "LRSB",
      "alert": "OK",
      "vis_m": 9999,
      "fzfg": false,
      "metar_trigger": false,
      "taf_trigger": false,
      "metar": "METAR LRSB 021500Z 31012KT 9999 FEW035CB BKN070 21/14 Q1012",
      "taf": "TAF LRSB 021100Z 0212/0312 31010KT 9999 BKN060"
    },
    {
      "icao": "LRSM",
      "alert": "OK",
      "vis_m": 9999,
      "fzfg": false,
      "metar_trigger": false,
      "taf_trigger": false,
      "metar": "METAR LRSM 021500Z 35007KT 9999 SCT040 23/15 Q1010",
      "taf": "TAF LRSM 021400Z 0215/0224 VRB04KT 9999 FEW030CB"
    },
    {
      "icao": "LRSV",
      "alert": "OK",
      "vis_m": 9999,
      "fzfg": false,
      "metar_trigger": false,
      "taf_trigger": false,
      "metar": "METAR LRSV 021500Z 12011KT 9999 -RA BKN004 13/13 Q1012",
      "taf": "TAF LRSV 021400Z 0215/0224 12010KT 9999 BKN005 OVC020"
    },
    {
      "icao": "LRTM",
      "alert": "OK",
      "vis_m": 9999,
      "fzfg": false,
      "metar_trigger": false,
      "taf_trigger": false,
      "metar": "METAR LRTM 021500Z 20003KT 140V270 9999 VCSH SCT015 FEW043CB 19/16 Q1012",
      "taf": "TAF LRTM 021400Z 0215/0224 VRB04KT 9999 BKN045"
    },
    {
      "icao": "LRTR",
      "alert": "OK",
      "vis_m": 9999,
      "fzfg": false,
      "metar_trigger": false,
      "taf_trigger": false,
      "metar": "METAR LRTR 021500Z VRB02KT 9999 FEW032 SCT045 24/14 Q1012",
      "taf": "TAF LRTR 021100Z 0212/0312 VRB04KT 9999 SCT015 BKN030"
    },
    {
      "icao": "LTAC",
      "alert": "OK",
      "vis_m": 9999,
      "fzfg": false,
      "metar_trigger": false,
      "taf_trigger": false,
      "metar": "METAR LTAC 021450Z 26007KT 220V290 9999 SCT040 25/08 Q1017 NOSIG RMK RWY21C 24005KT 200V290 RWY03L 23005KT 200V270 RWY21R 23006KT 190V310 RWY03R 25008KT 220V290 RWY21L 26006KT 210V290",
      "taf": "TAF LTAC 021040Z 0212/0312 VRB02KT 9999 SCT040"
    },
    {
      "icao": "LTFM",
      "alert": "OK",
      "vis_m": 9999,
      "fzfg": false,
      "metar_trigger": false,
      "taf_trigger": false,
      "metar": "METAR LTFM 021450Z 26008KT 9999 FEW035 BKN100 29/12 Q1013 NOSIG RMK RWY17L 24007KT RWY34L 23007KT RWY16R 25006KT RWY36 25007KT 220V290 RWY18 VRB06KT",
      "taf": "TAF LTFM 021040Z 0212/0318 20010KT 9999 SCT035 BKN100"
    },
    {
      "icao": "LUKK",
      "alert": "OK",
      "vis_m": 9999,
      "fzfg": false,
      "metar_trigger": false,
      "taf_trigger": false,
      "metar": "METAR LUKK 021500Z 12011KT 090V150 9999 -RA BKN010 OVC015 14/13 Q1015 NOSIG",
      "taf": "TAF LUKK 021117Z 0212/0312 10012KT 9999 BKN015"
    },
    {
      "icao": "LWOH",
      "alert": "OK",
      "vis_m": 9999,
      "fzfg": false,
      "metar_trigger": false,
      "taf_trigger": false,
      "metar": "METAR LWOH 021450Z 20005KT 150V250 9999 FEW045 25/13 Q1015",
      "taf": "TAF LWOH 021430Z 0215/0315 22010KT 9999 SCT040"
    },
    {
      "icao": "LWSK",
      "alert": "OK",
      "vis_m": 9999,
      "fzfg": false,
      "metar_trigger": false,
      "taf_trigger": false,
      "metar": "METAR LWSK 021450Z 19004KT 130V270 9999 FEW050 27/15 Q1012 NOSIG",
      "taf": "TAF LWSK 021430Z 0215/0315 VRB02KT 9999 FEW050 SCT100"
    },
    {
      "icao": "LYBE",
      "alert": "OK",
      "vis_m": 9999,
      "fzfg": false,
      "metar_trigger": false,
      "taf_trigger": false,
      "metar": "METAR LYBE 021500Z 26010KT CAVOK 26/12 Q1012 NOSIG",
      "taf": "TAF LYBE 021100Z 0212/0312 28010KT 9999 SCT045 TX27/0312Z TN16/0303Z"
    },
    {
      "icao": "LYNI",
      "alert": "OK",
      "vis_m": 9999,
      "fzfg": false,
      "metar_trigger": false,
      "taf_trigger": false,
      "metar": "METAR LYNI 021500Z 33005KT 270V030 9999 FEW040 24/14 Q1013 NOSIG",
      "taf": "TAF LYNI 021100Z 0212/0312 30005KT 9999 SCT040 TX27/0312Z TN12/0303Z"
    },
    {
      "icao": "LYPG",
      "alert": "OK",
      "vis_m": 9999,
      "fzfg": false,
      "metar_trigger": false,
      "taf_trigger": false,
      "metar": "METAR LYPG 021500Z 18007KT 140V210 9999 SCT030 27/16 Q1012 NOSIG",
      "taf": "TAF LYPG 021100Z 0212/0312 18010KT 9999 SCT030 TX27/0214Z TN18/0303Z"
    },
    {
      "icao": "LZIB",
      "alert": "OK",
      "vis_m": 9999,
      "fzfg": false,
      "metar_trigger": false,
      "taf_trigger": false,
      "metar": "METAR LZIB 021500Z 16009KT 130V200 CAVOK 26/10 Q1009 NOSIG",
      "taf": "TAF LZIB 021115Z 0212/0312 19005KT 9999 FEW045"
    },
    {
      "icao": "LZKZ",
      "alert": "OK",
      "vis_m": 9999,
      "fzfg": false,
      "metar_trigger": false,
      "taf_trigger": false,
      "metar": "METAR LZKZ 021500Z 34007KT CAVOK 23/10 Q1011 NOSIG",
      "taf": "TAF LZKZ 021115Z 0212/0312 02008KT 9999 FEW040"
    },
    {
      "icao": "LZTT",
      "alert": "OK",
      "vis_m": 9999,
      "fzfg": false,
      "metar_trigger": false,
      "taf_trigger": false,
      "metar": "METAR LZTT 021500Z 07004KT 030V130 9999 FEW040 SCT063 21/09 Q1012 NOSIG",
      "taf": "TAF LZTT 021115Z 0212/0312 09005KT 9999 SCT040"
    },
    {
      "icao": "OEJN",
      "alert": "OK",
      "vis_m": 9999,
      "fzfg": false,
      "metar_trigger": false,
      "taf_trigger": false,
      "metar": "METAR OEJN 021500Z 32012KT CAVOK 33/21 Q1008 NOSIG",
      "taf": "TAF OEJN 021100Z 0212/0318 34015KT CAVOK"
    },
    {
      "icao": "OEMA",
      "alert": "OK",
      "vis_m": 9999,
      "fzfg": false,
      "metar_trigger": false,
      "taf_trigger": false,
      "metar": "METAR OEMA 021500Z 31008KT CAVOK 43/M02 Q1012 NOSIG",
      "taf": "TAF OEMA 021100Z 0212/0318 27012KT CAVOK"
    },
    {
      "icao": "OJAI",
      "alert": "OK",
      "vis_m": 5000,
      "fzfg": false,
      "metar_trigger": false,
      "taf_trigger": false,
      "metar": "METAR OJAI 021500Z 28014KT 5000 HZ NSC 27/10 Q1018 NOSIG",
      "taf": "TAF OJAI 021100Z 0212/0318 29010KT 5000 HZ NSC"
    },
    {
      "icao": "OMAA",
      "alert": "OK",
      "vis_m": 9999,
      "fzfg": false,
      "metar_trigger": false,
      "taf_trigger": false,
      "metar": "METAR OMAA 021500Z 28010KT CAVOK 36/18 Q1004 NOSIG",
      "taf": "TAF OMAA 021100Z 0212/0318 28015KT 8000 NSC"
    },
    {
      "icao": "OMDB",
      "alert": "OK",
      "vis_m": 9999,
      "fzfg": false,
      "metar_trigger": false,
      "taf_trigger": false,
      "metar": "METAR OMDB 021500Z 26007KT CAVOK 34/25 Q1003 NOSIG",
      "taf": "TAF OMDB 021100Z 0212/0318 27012KT CAVOK"
    },
    {
      "icao": "UAAA",
      "alert": "OK",
      "vis_m": 9999,
      "fzfg": false,
      "metar_trigger": false,
      "taf_trigger": false,
      "metar": "METAR UAAA 021500Z 26003MPS 230V300 9999 SCT050CB BKN100 25/11 Q1012 NOSIG",
      "taf": "TAF UAAA 021107Z 0212/0312 22003G08MPS 9999 SCT050CB BKN100 TX29/0310Z TN17/0301Z"
    },
    {
      "icao": "UBBB",
      "alert": "OK",
      "vis_m": 9999,
      "fzfg": false,
      "metar_trigger": false,
      "taf_trigger": false,
      "metar": "METAR UBBB 021500Z 34018KT 9999 FEW060CB 16/10 Q1020 NOSIG",
      "taf": "TAF UBBB 021043Z 0212/0312 33024G34KT 9999 SCT020 TX19/0212Z TN15/0301Z"
    },
    {
      "icao": "UDSG",
      "alert": "OK",
      "vis_m": 9999,
      "fzfg": false,
      "metar_trigger": false,
      "taf_trigger": false,
      "metar": "METAR UDSG 021500Z 35010KT 9999 NSC 16/M02 Q1023 NOSIG",
      "taf": "TAF UDSG 021100Z 0212/0312 36006KT 9999 SCT040"
    },
    {
      "icao": "UDYZ",
      "alert": "OK",
      "vis_m": 9999,
      "fzfg": false,
      "metar_trigger": false,
      "taf_trigger": false,
      "metar": "METAR UDYZ 021500Z 25010KT 9999 SCT043CB 25/04 Q1017 NOSIG",
      "taf": "TAF UDYZ 021100Z 0212/0312 24006KT 9999 SCT040"
    },
    {
      "icao": "UGKO",
      "alert": "OK",
      "vis_m": 9999,
      "fzfg": false,
      "metar_trigger": false,
      "taf_trigger": false,
      "metar": "METAR UGKO 021500Z 30005KT 260V340 CAVOK 22/11 Q1020 NOSIG",
      "taf": "TAF UGKO 021100Z 0212/0312 27010KT 9999 SCT070 TX28/0311Z TN11/0302Z"
    }
  ]
}