{
  "ts_utc": "2025-12-29T08:17:30Z",
  "threshold_m": 150,
  "source": "stations_override.txt (ICAO list) + aviationweather.gov (METAR/TAF raw)",
  "station_count": 159,
  "stations": [
    {
      "icao": "BIKF",
      "alert": "OK",
      "vis_m": 9999,
      "fzfg": false,
      "metar_trigger": false,
      "taf_trigger": false,
      "metar": "METAR BIKF 290800Z 01002KT 9999 MIFG SCT010 03/03 Q1039",
      "taf": "TAF BIKF 290733Z 2909/3009 29005KT 9999 SCT015 BKN025 TX06/2918Z TN03/3002Z"
    },
    {
      "icao": "BKPR",
      "alert": "OK",
      "vis_m": 9999,
      "fzfg": false,
      "metar_trigger": false,
      "taf_trigger": false,
      "metar": "METAR BKPR 290800Z VRB02KT CAVOK M03/M06 Q1022 NOSIG",
      "taf": "TAF BKPR 290530Z 2906/3006 26006KT CAVOK"
    },
    {
      "icao": "EBCI",
      "alert": "OK",
      "vis_m": 1600,
      "fzfg": true,
      "metar_trigger": false,
      "taf_trigger": false,
      "metar": "METAR EBCI 290750Z 03005KT 1600 BR SCT001 BKN009 M03/M03 Q1026 TEMPO 0900 FZFG BKN001",
      "taf": "TAF EBCI 290515Z 2906/3012 04003KT 0400 FZFG BKN001"
    },
    {
      "icao": "EDDB",
      "alert": "OK",
      "vis_m": 9999,
      "fzfg": false,
      "metar_trigger": false,
      "taf_trigger": false,
      "metar": "METAR EDDB 290750Z AUTO 28011KT 9999 BKN024 02/01 Q1018 NOSIG",
      "taf": ""
    },
    {
      "icao": "EDDH",
      "alert": "OK",
      "vis_m": 9999,
      "fzfg": false,
      "metar_trigger": false,
      "taf_trigger": false,
      "metar": "METAR EDDH 290750Z AUTO 29009KT 9999 FEW019 OVC027 06/03 Q1020 NOSIG",
      "taf": "TAF EDDH 290500Z 2906/3012 30010KT 9999 BKN020"
    },
    {
      "icao": "EDDK",
      "alert": "OK",
      "vis_m": 9999,
      "fzfg": false,
      "metar_trigger": false,
      "taf_trigger": false,
      "metar": "METAR EDDK 290750Z AUTO VRB02KT 9999 BKN003 OVC016 M04/M05 Q1026 TEMPO 4000 BR",
      "taf": "TAF EDDK 290500Z 2906/3012 30004KT 9999 SCT004 BKN015"
    },
    {
      "icao": "EDDN",
      "alert": "OK",
      "vis_m": 9999,
      "fzfg": false,
      "metar_trigger": false,
      "taf_trigger": false,
      "metar": "METAR EDDN 290750Z AUTO 18001KT 9999 FEW001 M08/M09 Q1023 NOSIG",
      "taf": "TAF EDDN 290500Z 2906/3006 11004KT CAVOK"
    },
    {
      "icao": "EDDS",
      "alert": "OK",
      "vis_m": 9000,
      "fzfg": false,
      "metar_trigger": false,
      "taf_trigger": false,
      "metar": "METAR EDDS 290750Z AUTO VRB02KT 9000 NCD M09/M10 Q1022 TEMPO 3000 BR",
      "taf": "TAF EDDS 290500Z 2906/3006 VRB03KT CAVOK"
    },
    {
      "icao": "EDFH",
      "alert": "OK",
      "vis_m": 9999,
      "fzfg": false,
      "metar_trigger": false,
      "taf_trigger": false,
      "metar": "METAR EDFH 290750Z 03004KT 360V060 CAVOK M03/M08 Q1023",
      "taf": "TAF EDFH 290500Z 2906/3006 07007KT CAVOK"
    },
    {
      "icao": "EDJA",
      "alert": "OK",
      "vis_m": 2600,
      "fzfg": false,
      "metar_trigger": false,
      "taf_trigger": false,
      "metar": "METAR EDJA 290750Z 21005KT 180V240 2600 BR BKN002 OVC028 M04/M05 Q1022",
      "taf": ""
    },
    {
      "icao": "EDLW",
      "alert": "OK",
      "vis_m": 9999,
      "fzfg": false,
      "metar_trigger": false,
      "taf_trigger": false,
      "metar": "METAR EDLW 290750Z COR 19004KT 9999 OVC017 M01/M02 Q1025",
      "taf": "TAF EDLW 290500Z 2906/3006 16005KT 9999 OVC020"
    },
    {
      "icao": "EDNY",
      "alert": "OK",
      "vis_m": 9000,
      "fzfg": false,
      "metar_trigger": false,
      "taf_trigger": false,
      "metar": "METAR EDNY 290750Z 01003KT 9000 SCT007 OVC009 M02/M03 Q1023",
      "taf": "TAF EDNY 290500Z 2906/2915 06005KT 9000 OVC006"
    },
    {
      "icao": "EDSB",
      "alert": "OK",
      "vis_m": 600,
      "fzfg": true,
      "metar_trigger": false,
      "taf_trigger": false,
      "metar": "METAR EDSB 290750Z 21003KT 160V250 0600 R21/0600N FZFG VV/// M05/M05 Q1025",
      "taf": "TAF EDSB 290500Z 2906/3006 VRB03KT CAVOK"
    },
    {
      "icao": "EETN",
      "alert": "OK",
      "vis_m": 9999,
      "fzfg": false,
      "metar_trigger": false,
      "taf_trigger": false,
      "metar": "METAR EETN 290750Z 32012KT 280V340 9999 FEW025CB BKN039 01/M04 Q0995 TEMPO 31018G30KT 3000 SHSN",
      "taf": "TAF EETN 290530Z 2906/3006 32015G25KT 9999 SCT030"
    },
    {
      "icao": "EFTU",
      "alert": "OK",
      "vis_m": 9999,
      "fzfg": false,
      "metar_trigger": false,
      "taf_trigger": false,
      "metar": "METAR EFTU 290750Z AUTO 34010G22KT 280V020 9999 -SHSN FEW019 BKN049 M02/M06 Q0998",
      "taf": ""
    },
    {
      "icao": "EGBB",
      "alert": "OK",
      "vis_m": 9999,
      "fzfg": false,
      "metar_trigger": false,
      "taf_trigger": false,
      "metar": "METAR EGBB 290750Z VRB06KT 9999 OVC020 05/01 Q1030",
      "taf": "TAF EGBB 290459Z 2906/3006 05007KT 9999 BKN018"
    },
    {
      "icao": "EGGP",
      "alert": "OK",
      "vis_m": 9999,
      "fzfg": false,
      "metar_trigger": false,
      "taf_trigger": false,
      "metar": "METAR EGGP 290750Z 09008KT 9999 OVC023 05/00 Q1031",
      "taf": "TAF EGGP 290454Z 2906/3006 07007KT 9999 BKN020"
    },
    {
      "icao": "EGGW",
      "alert": "OK",
      "vis_m": 9999,
      "fzfg": false,
      "metar_trigger": false,
      "taf_trigger": false,
      "metar": "METAR EGGW 290750Z AUTO 06009KT 030V100 9999 OVC016 04/01 Q1029",
      "taf": "TAF EGGW 290452Z 2906/3006 03010KT 9999 SCT016"
    },
    {
      "icao": "EGKK",
      "alert": "OK",
      "vis_m": 9999,
      "fzfg": false,
      "metar_trigger": false,
      "taf_trigger": false,
      "metar": "METAR EGKK 290750Z 03009KT 9999 BKN024 04/02 Q1028",
      "taf": "TAF EGKK 290451Z 2906/3012 03006KT 9999 SCT020"
    },
    {
      "icao": "EGNM",
      "alert": "OK",
      "vis_m": 9999,
      "fzfg": false,
      "metar_trigger": false,
      "taf_trigger": false,
      "metar": "METAR EGNM 290750Z 04006KT 020V080 9999 OVC017 04/01 Q1031",
      "taf": "TAF EGNM 290455Z 2906/3006 03005KT 9999 BKN018"
    },
    {
      "icao": "EGPD",
      "alert": "OK",
      "vis_m": 9999,
      "fzfg": false,
      "metar_trigger": false,
      "taf_trigger": false,
      "metar": "METAR EGPD 290750Z AUTO 31009KT 9999 SCT018 BKN024 OVC039 05/02 Q1032 TEMPO BKN012",
      "taf": ""
    },
    {
      "icao": "EGPF",
      "alert": "OK",
      "vis_m": 9999,
      "fzfg": false,
      "metar_trigger": false,
      "taf_trigger": false,
      "metar": "METAR EGPF 290750Z AUTO 36002KT 9999 BKN025 01/M00 Q1033",
      "taf": "TAF EGPF 290454Z 2906/3006 05004KT 9999 BKN018"
    },
    {
      "icao": "EHBK",
      "alert": "OK",
      "vis_m": 3300,
      "fzfg": false,
      "metar_trigger": false,
      "taf_trigger": false,
      "metar": "METAR EHBK 290755Z AUTO 29001KT 3300 BR OVC016/// M02/M02 Q1026 TEMPO 2500",
      "taf": ""
    },
    {
      "icao": "EHEH",
      "alert": "OK",
      "vis_m": 6000,
      "fzfg": false,
      "metar_trigger": false,
      "taf_trigger": false,
      "metar": "METAR EHEH 290755Z AUTO VRB02KT 6000 BR OVC017 M01/M01 Q1027 WHT BECMG 9999 NSW RMK TREND REMOTE BY EHWX",
      "taf": "TAF EHEH 290542Z 2906/3012 27003KT 4000 BR FEW001 BKN018"
    },
    {
      "icao": "EKBI",
      "alert": "OK",
      "vis_m": 9999,
      "fzfg": false,
      "metar_trigger": false,
      "taf_trigger": false,
      "metar": "METAR EKBI 290750Z AUTO 29007KT 240V320 9999 NCD 03/02 Q1019",
      "taf": "TAF EKBI 290527Z 2906/3006 31010KT 9999 SCT025"
    },
    {
      "icao": "EKCH",
      "alert": "OK",
      "vis_m": 9999,
      "fzfg": false,
      "metar_trigger": false,
      "taf_trigger": false,
      "metar": "METAR EKCH 290750Z AUTO 29009KT 9999 NCD 02/02 Q1016 NOSIG",
      "taf": "TAF EKCH 290527Z 2906/3006 29010KT CAVOK"
    },
    {
      "icao": "ENAL",
      "alert": "OK",
      "vis_m": 9999,
      "fzfg": false,
      "metar_trigger": false,
      "taf_trigger": false,
      "metar": "METAR ENAL 290750Z 36018KT 320V030 9999 VCSH FEW031 SCT043 BKN059 01/M05 Q1025",
      "taf": "TAF ENAL 290500Z 2906/2915 34015KT 9999 FEW020 BKN035"
    },
    {
      "icao": "ENBR",
      "alert": "OK",
      "vis_m": 9999,
      "fzfg": false,
      "metar_trigger": false,
      "taf_trigger": false,
      "metar": "METAR ENBR 290750Z 34012KT 9999 FEW021 02/M04 Q1024 TEMPO 33018G28KT RMK WIND 1200FT 35023KT",
      "taf": "TAF ENBR 290500Z 2906/3006 34012KT 9999 -SHRA FEW004 BKN020"
    },
    {
      "icao": "ENGM",
      "alert": "OK",
      "vis_m": 9999,
      "fzfg": false,
      "metar_trigger": false,
      "taf_trigger": false,
      "metar": "METAR ENGM 290750Z 35009KT CAVOK M00/M09 Q1016 NOSIG",
      "taf": "TAF ENGM 290500Z 2906/3006 34008KT CAVOK"
    },
    {
      "icao": "ENHD",
      "alert": "OK",
      "vis_m": 9999,
      "fzfg": false,
      "metar_trigger": false,
      "taf_trigger": false,
      "metar": "METAR ENHD 290750Z 35023KT 9999 -SHRA FEW020CB SCT030 04/01 Q1024",
      "taf": ""
    },
    {
      "icao": "ENTC",
      "alert": "OK",
      "vis_m": 9999,
      "fzfg": false,
      "metar_trigger": false,
      "taf_trigger": false,
      "metar": "METAR ENTC 290750Z 36022KT 9999 -SHSN FEW010 BKN021 M03/M06 Q1004 35018KT 0700 SHSN VV006 RMK WIND 2600FT 36041KT",
      "taf": "TAF ENTC 290500Z 2906/3006 36012KT 9999 -SHSN SCT020CB BKN030"
    },
    {
      "icao": "ENTO",
      "alert": "OK",
      "vis_m": 9999,
      "fzfg": false,
      "metar_trigger": false,
      "taf_trigger": false,
      "metar": "METAR ENTO 290750Z 33007KT CAVOK 02/M08 Q1017 NOSIG",
      "taf": "TAF ENTO 290500Z 2906/3006 28005KT CAVOK"
    },
    {
      "icao": "ENVA",
      "alert": "OK",
      "vis_m": 9999,
      "fzfg": false,
      "metar_trigger": false,
      "taf_trigger": false,
      "metar": "METAR ENVA 290750Z 29023KT 9999 -SHSN FEW028CB SCT052 00/M05 Q1016 TEMPO 29022G32KT 0600 SHSN VV007 RMK WIND 670FT 30033G47KT",
      "taf": "TAF ENVA 290500Z 2906/3006 29018KT 9999 FEW015 BKN025"
    },
    {
      "icao": "ENZV",
      "alert": "OK",
      "vis_m": 9999,
      "fzfg": false,
      "metar_trigger": false,
      "taf_trigger": false,
      "metar": "METAR ENZV 290750Z 35015KT 9999 BKN037 04/M01 Q1024 TEMPO 35020G30KT",
      "taf": ""
    },
    {
      "icao": "EPGD",
      "alert": "OK",
      "vis_m": 9999,
      "fzfg": false,
      "metar_trigger": false,
      "taf_trigger": false,
      "metar": "METAR EPGD 290800Z 28013KT 9999 FEW009 02/01 Q1009",
      "taf": "TAF EPGD 290530Z 2906/3006 29012KT 9999 BKN020"
    },
    {
      "icao": "EPKK",
      "alert": "OK",
      "vis_m": 9999,
      "fzfg": false,
      "metar_trigger": false,
      "taf_trigger": false,
      "metar": "METAR EPKK 290800Z 25014KT 9999 OVC016 M02/M06 Q1015",
      "taf": "TAF EPKK 290530Z 2906/3006 26012KT 9999 BKN015"
    },
    {
      "icao": "EPKT",
      "alert": "OK",
      "vis_m": 9999,
      "fzfg": false,
      "metar_trigger": false,
      "taf_trigger": false,
      "metar": "METAR EPKT 290800Z 27011KT 9999 OVC007 M02/M04 Q1015",
      "taf": "TAF EPKT 290530Z 2906/3006 26012KT 9999 BKN009"
    },
    {
      "icao": "EPLB",
      "alert": "OK",
      "vis_m": 9999,
      "fzfg": false,
      "metar_trigger": false,
      "taf_trigger": false,
      "metar": "METAR EPLB 290800Z 28013KT 9999 BKN011 OVC014 M02/M03 Q1010",
      "taf": "TAF EPLB 290530Z 2906/3006 29014KT 9999 BKN030"
    },
    {
      "icao": "EPMO",
      "alert": "OK",
      "vis_m": 9999,
      "fzfg": false,
      "metar_trigger": false,
      "taf_trigger": false,
      "metar": "METAR EPMO 290800Z 27012KT 9999 BKN007 M00/M01 Q1011",
      "taf": "TAF EPMO 290530Z 2906/3006 27012KT 9999 OVC007"
    },
    {
      "icao": "EPPO",
      "alert": "OK",
      "vis_m": 9999,
      "fzfg": false,
      "metar_trigger": false,
      "taf_trigger": false,
      "metar": "METAR EPPO 290800Z 26010KT 9999 FEW007 OVC023 01/M00 Q1015",
      "taf": "TAF EPPO 290530Z 2906/3006 29010KT 9999 OVC008"
    },
    {
      "icao": "EPRA",
      "alert": "OK",
      "vis_m": 9999,
      "fzfg": false,
      "metar_trigger": false,
      "taf_trigger": false,
      "metar": "METAR EPRA 290800Z 29011KT 9999 OVC008 M01/M03 Q1012",
      "taf": "TAF EPRA 290530Z 2906/2915 28012KT 9999 OVC012"
    },
    {
      "icao": "EPRZ",
      "alert": "OK",
      "vis_m": 9999,
      "fzfg": false,
      "metar_trigger": false,
      "taf_trigger": false,
      "metar": "METAR EPRZ 290800Z 27017KT 9999 BKN023 M01/M06 Q1012",
      "taf": "TAF EPRZ 290530Z 2906/3006 27014KT 9999 BKN015"
    },
    {
      "icao": "EPSC",
      "alert": "OK",
      "vis_m": 9999,
      "fzfg": false,
      "metar_trigger": false,
      "taf_trigger": false,
      "metar": "METAR EPSC 290800Z 27007KT 9999 FEW012 BKN015 02/01 Q1015",
      "taf": "TAF EPSC 290530Z 2906/3006 29010KT 9999 SCT012 BKN018"
    },
    {
      "icao": "EPSY",
      "alert": "OK",
      "vis_m": 9999,
      "fzfg": false,
      "metar_trigger": false,
      "taf_trigger": false,
      "metar": "METAR EPSY 290800Z 26008KT 230V300 9999 BKN007 00/M01 Q1008",
      "taf": "TAF EPSY 290530Z 2906/2915 27010KT 9999 BKN006"
    },
    {
      "icao": "EPWA",
      "alert": "OK",
      "vis_m": 9999,
      "fzfg": false,
      "metar_trigger": false,
      "taf_trigger": false,
      "metar": "METAR EPWA 290800Z 27012KT 9999 -SN OVC008 M00/M02 Q1011 NOSIG",
      "taf": "TAF EPWA 290530Z 2906/3006 26012KT 9999 OVC008"
    },
    {
      "icao": "EPWR",
      "alert": "OK",
      "vis_m": 3000,
      "fzfg": false,
      "metar_trigger": false,
      "taf_trigger": false,
      "metar": "METAR EPWR 290800Z 27014KT 3000 -SN DRSN BR FEW006 BKN009 BKN012 M00/M01 Q1017",
      "taf": ""
    },
    {
      "icao": "ESGG",
      "alert": "OK",
      "vis_m": 9999,
      "fzfg": false,
      "metar_trigger": false,
      "taf_trigger": false,
      "metar": "METAR ESGG 290750Z 02009KT CAVOK 00/M03 Q1015",
      "taf": "TAF ESGG 290530Z 2906/3006 35006KT CAVOK"
    },
    {
      "icao": "ESKN",
      "alert": "OK",
      "vis_m": 9999,
      "fzfg": false,
      "metar_trigger": false,
      "taf_trigger": false,
      "metar": "METAR ESKN 290750Z 31014G25KT CAVOK 00/M08 Q1010",
      "taf": "TAF ESKN 290530Z 2906/3006 32013KT CAVOK"
    },
    {
      "icao": "ESMS",
      "alert": "OK",
      "vis_m": 9999,
      "fzfg": false,
      "metar_trigger": false,
      "taf_trigger": false,
      "metar": "METAR ESMS 290750Z 31008KT CAVOK 02/02 Q1014",
      "taf": "TAF ESMS 290527Z 2906/3006 31010KT CAVOK"
    },
    {
      "icao": "ESSA",
      "alert": "OK",
      "vis_m": 9999,
      "fzfg": false,
      "metar_trigger": false,
      "taf_trigger": false,
      "metar": "METAR ESSA 290750Z 30016KT CAVOK M02/M13 Q1007 NOSIG",
      "taf": "TAF ESSA 290530Z 2906/3006 32015G25KT 9999 SCT040"
    },
    {
      "icao": "EYKA",
      "alert": "OK",
      "vis_m": 9999,
      "fzfg": false,
      "metar_trigger": false,
      "taf_trigger": false,
      "metar": "METAR EYKA 290750Z 25011KT 9999 BKN026 01/M00 Q1002",
      "taf": "TAF EYKA 290500Z 2906/3006 28010KT 6000 BKN025"
    },
    {
      "icao": "EYPA",
      "alert": "OK",
      "vis_m": 9999,
      "fzfg": false,
      "metar_trigger": false,
      "taf_trigger": false,
      "metar": "METAR EYPA 290750Z 35009G21KT 310V090 CAVOK 05/M01 Q1004",
      "taf": "TAF EYPA 290500Z 2906/3006 32010KT 9000 BKN025"
    },
    {
      "icao": "EYVI",
      "alert": "OK",
      "vis_m": 9999,
      "fzfg": false,
      "metar_trigger": false,
      "taf_trigger": false,
      "metar": "METAR EYVI 290750Z 27008KT 9999 -SNRA OVC008 00/M01 Q1001 NOSIG",
      "taf": ""
    },
    {
      "icao": "GCFV",
      "alert": "OK",
      "vis_m": 9999,
      "fzfg": false,
      "metar_trigger": false,
      "taf_trigger": false,
      "metar": "METAR GCFV 290800Z 29007KT 9999 FEW045 14/10 Q1021",
      "taf": "TAF GCFV 290200Z 2903/3003 31005KT 9999 FEW030 TX21/2914Z TN14/2906Z"
    },
    {
      "icao": "GCLP",
      "alert": "OK",
      "vis_m": 9999,
      "fzfg": false,
      "metar_trigger": false,
      "taf_trigger": false,
      "metar": "METAR GCLP 290800Z 29005KT 270V340 9999 SCT045 16/12 Q1020 NOSIG",
      "taf": "TAF GCLP 290200Z 2903/3003 31005KT 9999 SCT030 TX21/2914Z TN15/2906Z"
    },
    {
      "icao": "GCTS",
      "alert": "OK",
      "vis_m": 9999,
      "fzfg": false,
      "metar_trigger": false,
      "taf_trigger": false,
      "metar": "METAR GCTS 290800Z 01008KT 9999 FEW030 15/09 Q1020 NOSIG",
      "taf": "TAF GCTS 290200Z 2903/3003 01005KT 9999 SCT035 TX23/2914Z TN16/2906Z"
    },
    {
      "icao": "GMAD",
      "alert": "OK",
      "vis_m": 9999,
      "fzfg": false,
      "metar_trigger": false,
      "taf_trigger": false,
      "metar": "METAR GMAD 290800Z 07003KT 9999 FEW020 SCT200 08/08 Q1019 NOSIG",
      "taf": "TAF GMAD 290500Z 2906/3012 07004KT 8000 SCT020 SCT080"
    },
    {
      "icao": "GMMN",
      "alert": "OK",
      "vis_m": 9999,
      "fzfg": false,
      "metar_trigger": false,
      "taf_trigger": false,
      "metar": "METAR GMMN 290800Z 21007KT 9999 BKN020 10/09 Q1019 NOSIG",
      "taf": "TAF GMMN 290500Z 2906/3012 22008KT 9999 SCT004 BKN023"
    },
    {
      "icao": "GMMX",
      "alert": "OK",
      "vis_m": 9999,
      "fzfg": false,
      "metar_trigger": false,
      "taf_trigger": false,
      "metar": "METAR GMMX 290800Z VRB02KT 9999 SCT020 SCT090 07/06 Q1019 NOSIG",
      "taf": "TAF GMMX 290500Z 2906/3012 20006KT 8000 SCT026 SCT090"
    },
    {
      "icao": "HEGN",
      "alert": "OK",
      "vis_m": 9999,
      "fzfg": false,
      "metar_trigger": false,
      "taf_trigger": false,
      "metar": "METAR HEGN 290700Z 30013KT CAVOK 18/07 Q1018 NOSIG",
      "taf": "TAF HEGN 290500Z 2906/3012 35014KT CAVOK"
    },
    {
      "icao": "HEMA",
      "alert": "OK",
      "vis_m": 9999,
      "fzfg": false,
      "metar_trigger": false,
      "taf_trigger": false,
      "metar": "METAR HEMA 290700Z 32008KT CAVOK 21/02 Q1017 NOSIG",
      "taf": "TAF HEMA 290500Z 2906/3012 36014KT CAVOK"
    },
    {
      "icao": "HESH",
      "alert": "OK",
      "vis_m": 9999,
      "fzfg": false,
      "metar_trigger": false,
      "taf_trigger": false,
      "metar": "METAR HESH 290700Z 26004KT CAVOK 19/10 Q1017 NOSIG",
      "taf": "TAF HESH 290500Z 2906/3012 02012KT CAVOK"
    },
    {
      "icao": "HESX",
      "alert": "OK",
      "vis_m": 9999,
      "fzfg": false,
      "metar_trigger": false,
      "taf_trigger": false,
      "metar": "METAR HESX 290700Z 24010KT CAVOK 13/07 Q1017 NOSIG",
      "taf": "TAF HESX 290501Z 2906/3012 22010KT CAVOK"
    },
    {
      "icao": "LATI",
      "alert": "OK",
      "vis_m": null,
      "fzfg": false,
      "metar_trigger": false,
      "taf_trigger": false,
      "metar": "",
      "taf": "TAF LATI 290500Z 2906/3006 VRB05KT CAVOK TX14/2912Z TNM03/3005Z"
    },
    {
      "icao": "LBPD",
      "alert": "OK",
      "vis_m": 9999,
      "fzfg": false,
      "metar_trigger": false,
      "taf_trigger": false,
      "metar": "METAR LBPD 290800Z AUTO 29020KT 9999 NCD 04/M06 Q1017 NOSIG",
      "taf": "TAF LBPD 290500Z 2906/3006 28020G32KT CAVOK"
    },
    {
      "icao": "LBSF",
      "alert": "OK",
      "vis_m": 9999,
      "fzfg": false,
      "metar_trigger": false,
      "taf_trigger": false,
      "metar": "METAR LBSF 290800Z 29015KT 9999 FEW030 M00/M06 Q1020 NOSIG",
      "taf": "TAF LBSF 290500Z 2906/3006 29014KT 9999 SCT025"
    },
    {
      "icao": "LBWN",
      "alert": "OK",
      "vis_m": 9999,
      "fzfg": false,
      "metar_trigger": false,
      "taf_trigger": false,
      "metar": "METAR LBWN 290800Z 26013KT 9999 FEW015 02/M03 Q1015 NOSIG",
      "taf": "TAF LBWN 290500Z 2906/3006 27016KT 9999 SCT045"
    },
    {
      "icao": "LCLK",
      "alert": "OK",
      "vis_m": 9999,
      "fzfg": false,
      "metar_trigger": false,
      "taf_trigger": false,
      "metar": "METAR LCLK 290800Z 02011KT 9999 FEW025 15/06 Q1010 NOSIG",
      "taf": "TAF LCLK 290530Z 2906/3006 36012KT 9999 FEW030"
    },
    {
      "icao": "LCPH",
      "alert": "OK",
      "vis_m": 8000,
      "fzfg": false,
      "metar_trigger": false,
      "taf_trigger": false,
      "metar": "METAR LCPH 290800Z AUTO 34012KT 8000 NCD 17/05 Q1011 NOSIG",
      "taf": "TAF LCPH 290530Z 2906/3006 33017KT 9999 FEW030"
    },
    {
      "icao": "LEAL",
      "alert": "OK",
      "vis_m": 9999,
      "fzfg": false,
      "metar_trigger": false,
      "taf_trigger": false,
      "metar": "METAR LEAL 290800Z 31004KT 280V340 9999 FEW023TCU SCT028 12/09 Q1018 NOSIG",
      "taf": "TAF LEAL 290500Z 2906/3006 02006KT 9999 BKN030 TX16/2913Z TN08/2906Z"
    },
    {
      "icao": "LEBB",
      "alert": "OK",
      "vis_m": 9999,
      "fzfg": false,
      "metar_trigger": false,
      "taf_trigger": false,
      "metar": "METAR LEBB 290800Z 09004KT 060V120 CAVOK 05/04 Q1020 NOSIG",
      "taf": "TAF LEBB 290500Z 2906/3006 11008KT 9999 FEW040 TX15/2914Z TN04/2908Z"
    },
    {
      "icao": "LEBL",
      "alert": "OK",
      "vis_m": 9999,
      "fzfg": false,
      "metar_trigger": false,
      "taf_trigger": false,
      "metar": "METAR LEBL 290800Z 33006KT 9999 FEW018 BKN050 11/10 Q1020 NOSIG",
      "taf": "TAF LEBL 290500Z 2906/3006 34006KT 9999 SCT025 TX15/2912Z TN08/2907Z"
    },
    {
      "icao": "LECH",
      "alert": "OK",
      "vis_m": 9999,
      "fzfg": false,
      "metar_trigger": false,
      "taf_trigger": false,
      "metar": "METAR LECH 290800Z AUTO 04003KT 360V090 9999 SCT050 07/06 Q1019",
      "taf": ""
    },
    {
      "icao": "LEMD",
      "alert": "OK",
      "vis_m": 9999,
      "fzfg": false,
      "metar_trigger": false,
      "taf_trigger": false,
      "metar": "METAR LEMD 290800Z VRB01KT 9999 SCT050 06/04 Q1019 NOSIG",
      "taf": "TAF LEMD 290500Z 2906/3012 VRB04KT 9999 SCT040 TX11/2915Z TNM01/3007Z"
    },
    {
      "icao": "LEMG",
      "alert": "OK",
      "vis_m": 9999,
      "fzfg": false,
      "metar_trigger": false,
      "taf_trigger": false,
      "metar": "METAR LEMG 290800Z 30009KT CAVOK 06/06 Q1017 NOSIG",
      "taf": "TAF LEMG 290500Z 2906/3006 29006KT CAVOK TX16/2914Z TN09/2906Z"
    },
    {
      "icao": "LEVC",
      "alert": "OK",
      "vis_m": 9999,
      "fzfg": false,
      "metar_trigger": false,
      "taf_trigger": false,
      "metar": "METAR LEVC 290800Z 25002KT CAVOK 07/06 Q1020 NOSIG",
      "taf": "TAF LEVC 290500Z 2906/3006 31006KT 9999 SCT050 TX15/2913Z TN06/2906Z"
    },
    {
      "icao": "LEXJ",
      "alert": "OK",
      "vis_m": 9999,
      "fzfg": false,
      "metar_trigger": false,
      "taf_trigger": false,
      "metar": "METAR LEXJ 290800Z 00000KT CAVOK 04/04 Q1020",
      "taf": "TAF LEXJ 290200Z 2903/3003 22009KT CAVOK TX17/2913Z TN04/2906Z"
    },
    {
      "icao": "LEZG",
      "alert": "OK",
      "vis_m": 100,
      "fzfg": false,
      "metar_trigger": false,
      "taf_trigger": false,
      "metar": "METAR LEZG 290800Z 34001KT 0100 R30R/0500D R12R/0300N R30L/0400D R12L/0350N FG VV001 04/04 Q1020 NOSIG",
      "taf": ""
    },
    {
      "icao": "LEZL",
      "alert": "OK",
      "vis_m": 9999,
      "fzfg": false,
      "metar_trigger": false,
      "taf_trigger": false,
      "metar": "METAR LEZL 290800Z 05001KT CAVOK 06/06 Q1018 NOSIG",
      "taf": "TAF LEZL 290200Z 2903/3003 03006KT CAVOK TX16/2915Z TN05/2906Z"
    },
    {
      "icao": "LFBD",
      "alert": "OK",
      "vis_m": 6000,
      "fzfg": false,
      "metar_trigger": false,
      "taf_trigger": false,
      "metar": "METAR LFBD 290800Z AUTO 04002KT 6000 NSC M01/M01 Q1021 NOSIG",
      "taf": "TAF LFBD 290500Z 2906/3012 06005KT CAVOK TX11/2913Z TN00/2906Z"
    },
    {
      "icao": "LFLL",
      "alert": "OK",
      "vis_m": 5000,
      "fzfg": false,
      "metar_trigger": false,
      "taf_trigger": false,
      "metar": "METAR LFLL 290800Z VRB02KT 5000 OVC007 M00/M02 Q1023 NOSIG",
      "taf": "TAF LFLL 290500Z 2906/3012 VRB03KT 7000 OVC008"
    },
    {
      "icao": "LFLS",
      "alert": "OK",
      "vis_m": 3100,
      "fzfg": false,
      "metar_trigger": false,
      "taf_trigger": false,
      "metar": "METAR LFLS 290800Z AUTO 09011KT 3100 BR OVC003 M02/M03 Q1022",
      "taf": ""
    },
    {
      "icao": "LFMN",
      "alert": "OK",
      "vis_m": 9999,
      "fzfg": false,
      "metar_trigger": false,
      "taf_trigger": false,
      "metar": "METAR LFMN 290800Z 33016KT CAVOK 06/M03 Q1020 NOSIG",
      "taf": "TAF LFMN 290200Z 2903/3009 33012KT CAVOK"
    },
    {
      "icao": "LFOB",
      "alert": "OK",
      "vis_m": 5000,
      "fzfg": false,
      "metar_trigger": false,
      "taf_trigger": false,
      "metar": "METAR LFOB 290800Z AUTO 03009KT 350V070 5000 BR NSC M03/M03 Q1025",
      "taf": ""
    },
    {
      "icao": "LFPO",
      "alert": "OK",
      "vis_m": 9999,
      "fzfg": false,
      "metar_trigger": false,
      "taf_trigger": false,
      "metar": "METAR LFPO 290800Z 03004KT CAVOK M03/M05 Q1025 NOSIG",
      "taf": "TAF LFPO 290500Z 2906/3012 01005KT CAVOK"
    },
    {
      "icao": "LFSB",
      "alert": "OK",
      "vis_m": 6000,
      "fzfg": true,
      "metar_trigger": false,
      "taf_trigger": false,
      "metar": "METAR LFSB 290800Z AUTO 33004KT 6000 OVC014 M05/M06 Q1024 TEMPO 0500 FZFG VV///",
      "taf": ""
    },
    {
      "icao": "LGAV",
      "alert": "OK",
      "vis_m": 9999,
      "fzfg": false,
      "metar_trigger": false,
      "taf_trigger": false,
      "metar": "METAR LGAV 290750Z VRB02KT 9999 FEW025 10/02 Q1019 NOSIG",
      "taf": "TAF LGAV 290500Z 2906/3006 VRB05KT 9999 FEW020"
    },
    {
      "icao": "LGTS",
      "alert": "OK",
      "vis_m": 9999,
      "fzfg": false,
      "metar_trigger": false,
      "taf_trigger": false,
      "metar": "METAR LGTS 290750Z 33015KT CAVOK 06/M03 Q1020 NOSIG",
      "taf": "TAF LGTS 290500Z 2906/3006 33020G35KT 9999 FEW030"
    },
    {
      "icao": "LHBP",
      "alert": "OK",
      "vis_m": 9999,
      "fzfg": false,
      "metar_trigger": false,
      "taf_trigger": false,
      "metar": "METAR LHBP 290800Z 29010KT CAVOK 00/M06 Q1017 NOSIG",
      "taf": "TAF LHBP 290515Z 2906/3006 28009KT CAVOK"
    },
    {
      "icao": "LHDC",
      "alert": "OK",
      "vis_m": 9999,
      "fzfg": false,
      "metar_trigger": false,
      "taf_trigger": false,
      "metar": "METAR LHDC 290745Z AUTO 18009KT CAVOK M04/M05 Q1017 NOSIG",
      "taf": "TAF LHDC 290515Z 2906/2915 18004KT CAVOK"
    },
    {
      "icao": "LIBD",
      "alert": "OK",
      "vis_m": 9999,
      "fzfg": false,
      "metar_trigger": false,
      "taf_trigger": false,
      "metar": "METAR LIBD 290750Z 28007KT CAVOK 09/07 Q1020",
      "taf": "TAF LIBD 290500Z 2906/3006 28012KT CAVOK"
    },
    {
      "icao": "LIBG",
      "alert": "OK",
      "vis_m": 9999,
      "fzfg": false,
      "metar_trigger": false,
      "taf_trigger": false,
      "metar": "METAR LIBG 290750Z 28005KT 240V310 CAVOK 08/08 Q1020",
      "taf": "TAF LIBG 290500Z 2908/2915 VRB05KT CAVOK"
    },
    {
      "icao": "LIBP",
      "alert": "OK",
      "vis_m": 9999,
      "fzfg": false,
      "metar_trigger": false,
      "taf_trigger": false,
      "metar": "METAR LIBP 290750Z AUTO 25007KT 9999 NCD 03/M01 Q1022",
      "taf": "TAF LIBP 290500Z 2906/3006 VRB05KT CAVOK"
    },
    {
      "icao": "LIBR",
      "alert": "OK",
      "vis_m": 9999,
      "fzfg": false,
      "metar_trigger": false,
      "taf_trigger": false,
      "metar": "METAR LIBR 290750Z 35012KT CAVOK 13/04 Q1019",
      "taf": "TAF LIBR 290500Z 2906/3006 33015KT CAVOK"
    },
    {
      "icao": "LICA",
      "alert": "OK",
      "vis_m": 9999,
      "fzfg": false,
      "metar_trigger": false,
      "taf_trigger": false,
      "metar": "METAR LICA 290750Z AUTO 08006KT 9999 NCD 09/08 Q1021",
      "taf": "TAF LICA 290500Z 2906/3006 07006KT 9999 FEW030"
    },
    {
      "icao": "LICC",
      "alert": "OK",
      "vis_m": 9999,
      "fzfg": false,
      "metar_trigger": false,
      "taf_trigger": false,
      "metar": "METAR LICC 290750Z 23009KT CAVOK 06/04 Q1021",
      "taf": "TAF LICC 290500Z 2906/3006 VRB05KT 9999 FEW040"
    },
    {
      "icao": "LICJ",
      "alert": "OK",
      "vis_m": 9999,
      "fzfg": false,
      "metar_trigger": false,
      "taf_trigger": false,
      "metar": "METAR LICJ 290750Z VRB02KT CAVOK 10/06 Q1020",
      "taf": "TAF LICJ 290500Z 2906/3006 VRB05KT CAVOK"
    },
    {
      "icao": "LIMC",
      "alert": "OK",
      "vis_m": 9999,
      "fzfg": false,
      "metar_trigger": false,
      "taf_trigger": false,
      "metar": "METAR LIMC 290750Z 01004KT CAVOK M01/M02 Q1021 NOSIG",
      "taf": "TAF LIMC 290500Z 2906/3012 VRB04KT CAVOK"
    },
    {
      "icao": "LIME",
      "alert": "OK",
      "vis_m": 9999,
      "fzfg": false,
      "metar_trigger": false,
      "taf_trigger": false,
      "metar": "METAR LIME 290750Z 02003KT 360V060 CAVOK 01/M02 Q1021 NOSIG",
      "taf": "TAF LIME 290500Z 2906/3006 VRB05KT CAVOK"
    },
    {
      "icao": "LIMF",
      "alert": "OK",
      "vis_m": 9999,
      "fzfg": false,
      "metar_trigger": false,
      "taf_trigger": false,
      "metar": "METAR LIMF 290750Z 29003KT CAVOK 01/M04 Q1021",
      "taf": "TAF LIMF 290500Z 2906/3006 VRB05KT CAVOK"
    },
    {
      "icao": "LIMJ",
      "alert": "OK",
      "vis_m": 9999,
      "fzfg": false,
      "metar_trigger": false,
      "taf_trigger": false,
      "metar": "METAR LIMJ 290750Z 03013KT CAVOK 11/M02 Q1020",
      "taf": "TAF LIMJ 290500Z 2906/3006 01015KT CAVOK"
    },
    {
      "icao": "LIPE",
      "alert": "OK",
      "vis_m": 9000,
      "fzfg": false,
      "metar_trigger": false,
      "taf_trigger": false,
      "metar": "METAR LIPE 290750Z VRB02KT 9000 FEW010 M01/M01 Q1022",
      "taf": "TAF LIPE 290500Z 2906/3006 VRB06KT 6000 NSC"
    },
    {
      "icao": "LIPH",
      "alert": "OK",
      "vis_m": 8000,
      "fzfg": false,
      "metar_trigger": false,
      "taf_trigger": false,
      "metar": "METAR LIPH 290750Z 35001KT 8000 NSC M01/M01 Q1021",
      "taf": ""
    },
    {
      "icao": "LIPQ",
      "alert": "OK",
      "vis_m": 9999,
      "fzfg": false,
      "metar_trigger": false,
      "taf_trigger": false,
      "metar": "METAR LIPQ 290750Z AUTO 03003KT 9999 NCD 00/M02 Q1021",
      "taf": "TAF LIPQ 290500Z 2906/3006 VRB05KT CAVOK"
    },
    {
      "icao": "LIPR",
      "alert": "OK",
      "vis_m": 9999,
      "fzfg": false,
      "metar_trigger": false,
      "taf_trigger": false,
      "metar": "METAR LIPR 290750Z 20004KT CAVOK M00/M01 Q1022",
      "taf": "TAF LIPR 290500Z 2906/3006 VRB05KT CAVOK"
    },
    {
      "icao": "LIPX",
      "alert": "CRITICAL",
      "vis_m": 50,
      "fzfg": true,
      "metar_trigger": true,
      "taf_trigger": false,
      "metar": "METAR LIPX 290750Z VRB01KT 0050 R04/0175N FZFG VV001 M04/M04 Q1021",
      "taf": "TAF LIPX 290500Z 2906/3006 VRB05KT CAVOK"
    },
    {
      "icao": "LIPY",
      "alert": "OK",
      "vis_m": 9999,
      "fzfg": false,
      "metar_trigger": false,
      "taf_trigger": false,
      "metar": "METAR LIPY 290750Z AUTO VRB02KT 9999 NCD 03/02 Q1022",
      "taf": "TAF LIPY 290500Z 2906/3006 VRB05KT CAVOK"
    },
    {
      "icao": "LIPZ",
      "alert": "OK",
      "vis_m": 8000,
      "fzfg": false,
      "metar_trigger": false,
      "taf_trigger": false,
      "metar": "METAR LIPZ 290750Z 26003KT 240V300 8000 NSC 00/M00 Q1021 NOSIG",
      "taf": "TAF LIPZ 290500Z 2906/3012 VRB05KT CAVOK"
    },
    {
      "icao": "LIRF",
      "alert": "OK",
      "vis_m": 9999,
      "fzfg": false,
      "metar_trigger": false,
      "taf_trigger": false,
      "metar": "METAR LIRF 290750Z 07003KT CAVOK 02/00 Q1020 NOSIG",
      "taf": "TAF LIRF 290500Z 2906/3012 07006KT CAVOK"
    },
    {
      "icao": "LIRN",
      "alert": "OK",
      "vis_m": 9999,
      "fzfg": false,
      "metar_trigger": false,
      "taf_trigger": false,
      "metar": "METAR LIRN 290750Z 28002KT CAVOK 06/02 Q1020 NOSIG",
      "taf": "TAF LIRN 290500Z 2906/3006 VRB05KT CAVOK"
    },
    {
      "icao": "LIRP",
      "alert": "OK",
      "vis_m": 9999,
      "fzfg": false,
      "metar_trigger": false,
      "taf_trigger": false,
      "metar": "METAR LIRP 290745Z 14004KT CAVOK 00/00 Q1019 NOSIG",
      "taf": "TAF LIRP 290500Z 2906/3006 12005KT CAVOK"
    },
    {
      "icao": "LIRZ",
      "alert": "OK",
      "vis_m": 9999,
      "fzfg": false,
      "metar_trigger": false,
      "taf_trigger": false,
      "metar": "METAR LIRZ 290750Z AUTO VRB01KT 9999 NCD M01/M02 Q1021",
      "taf": "TAF LIRZ 290500Z 2906/3006 VRB05KT 8000 NSC"
    },
    {
      "icao": "LJLJ",
      "alert": "OK",
      "vis_m": 7000,
      "fzfg": false,
      "metar_trigger": false,
      "taf_trigger": false,
      "metar": "METAR LJLJ 290800Z VRB02KT 7000 OVC003 M02/M03 Q1020 NOSIG",
      "taf": "TAF LJLJ 290500Z 2906/3006 VRB02KT 7000 OVC005"
    },
    {
      "icao": "LKMT",
      "alert": "OK",
      "vis_m": 9999,
      "fzfg": false,
      "metar_trigger": false,
      "taf_trigger": false,
      "metar": "METAR LKMT 290800Z 19006KT 9999 OVC021 M03/M05 Q1018 TEMPO OVC017",
      "taf": "TAF LKMT 290500Z 2906/3006 23008KT CAVOK"
    },
    {
      "icao": "LKPR",
      "alert": "OK",
      "vis_m": 9999,
      "fzfg": false,
      "metar_trigger": false,
      "taf_trigger": false,
      "metar": "METAR LKPR 290800Z 21009KT 9999 SCT015 M04/M06 Q1019 TEMPO BKN015",
      "taf": "TAF LKPR 290500Z 2906/3012 23008KT CAVOK"
    },
    {
      "icao": "LLBG",
      "alert": "OK",
      "vis_m": 9999,
      "fzfg": false,
      "metar_trigger": false,
      "taf_trigger": false,
      "metar": "METAR LLBG 290750Z 19011KT 9999 DZ FEW015TCU BKN019 13/11 Q1012 RESHRA TEMPO 24020G30KT TSRA FEW025CB BKN030",
      "taf": "TAF LLBG 290505Z 2906/3006 21012KT 9999 SCT030 BKN040"
    },
    {
      "icao": "LMML",
      "alert": "OK",
      "vis_m": 9999,
      "fzfg": false,
      "metar_trigger": false,
      "taf_trigger": false,
      "metar": "METAR LMML 290815Z 12002KT 9999 FEW026 14/12 Q1021 NOSIG",
      "taf": "TAF LMML 290500Z 2906/3006 VRB05KT 9999 SCT020"
    },
    {
      "icao": "LOWW",
      "alert": "OK",
      "vis_m": 9999,
      "fzfg": false,
      "metar_trigger": false,
      "taf_trigger": false,
      "metar": "METAR LOWW 290750Z VRB01KT CAVOK M03/M06 Q1019 NOSIG",
      "taf": "TAF LOWW 290815Z 2909/3015 30010KT CAVOK TX04/2913Z TNM01/2909Z"
    },
    {
      "icao": "LPFR",
      "alert": "OK",
      "vis_m": 9999,
      "fzfg": false,
      "metar_trigger": false,
      "taf_trigger": false,
      "metar": "METAR LPFR 290800Z 03004KT CAVOK 08/06 Q1018",
      "taf": "TAF LPFR 290510Z 2906/3006 VRB02KT CAVOK"
    },
    {
      "icao": "LPMA",
      "alert": "OK",
      "vis_m": 9999,
      "fzfg": false,
      "metar_trigger": false,
      "taf_trigger": false,
      "metar": "METAR LPMA 290800Z 24007KT 9999 BKN015 16/11 Q1019",
      "taf": "TAF LPMA 290510Z 2906/3006 VRB05KT 9999 SCT016"
    },
    {
      "icao": "LPPR",
      "alert": "OK",
      "vis_m": 9999,
      "fzfg": false,
      "metar_trigger": false,
      "taf_trigger": false,
      "metar": "METAR LPPR 290800Z 11009KT 070V130 CAVOK 08/05 Q1019",
      "taf": "TAF LPPR 290510Z 2906/3006 10007KT CAVOK"
    },
    {
      "icao": "LPPS",
      "alert": "OK",
      "vis_m": 9999,
      "fzfg": false,
      "metar_trigger": false,
      "taf_trigger": false,
      "metar": "METAR LPPS 290800Z 16007KT 9999 FEW015 16/10 Q1019",
      "taf": "TAF LPPS 290510Z 2906/3012 VRB05KT 9999 SCT015"
    },
    {
      "icao": "LPPT",
      "alert": "OK",
      "vis_m": 9999,
      "fzfg": false,
      "metar_trigger": false,
      "taf_trigger": false,
      "metar": "METAR LPPT 290800Z VRB02KT 9999 FEW005 07/06 Q1019",
      "taf": "TAF LPPT 290510Z 2906/3012 06005KT CAVOK"
    },
    {
      "icao": "LQBK",
      "alert": "OK",
      "vis_m": 500,
      "fzfg": true,
      "metar_trigger": false,
      "taf_trigger": false,
      "metar": "METAR LQBK 290800Z VRB02KT 0500 R16/0600N FZFG BKN003 M06/M06 Q1022 NOSIG",
      "taf": ""
    },
    {
      "icao": "LQSA",
      "alert": "OK",
      "vis_m": 9999,
      "fzfg": false,
      "metar_trigger": false,
      "taf_trigger": false,
      "metar": "METAR LQSA 290800Z VRB02KT CAVOK M05/M06 Q1023 NOSIG",
      "taf": "TAF LQSA 290500Z 2906/3006 VRB02KT CAVOK TX04/2913Z TNM08/2906Z"
    },
    {
      "icao": "LQTZ",
      "alert": "OK",
      "vis_m": 5000,
      "fzfg": false,
      "metar_trigger": false,
      "taf_trigger": false,
      "metar": "METAR LQTZ 290800Z 00000KT 5000 BR NSC M03/M04 Q1022",
      "taf": "TAF LQTZ 290500Z 2906/3006 33005KT CAVOK TX05/2913Z TNM07/2906Z"
    },
    {
      "icao": "LRBC",
      "alert": "OK",
      "vis_m": 9999,
      "fzfg": false,
      "metar_trigger": false,
      "taf_trigger": false,
      "metar": "METAR LRBC 290800Z 27009KT 9999 BKN058 02/M05 Q1011",
      "taf": ""
    },
    {
      "icao": "LRBS",
      "alert": "OK",
      "vis_m": 9999,
      "fzfg": false,
      "metar_trigger": false,
      "taf_trigger": false,
      "metar": "METAR LRBS 290800Z 27008KT 230V320 CAVOK 03/M06 Q1014 NOSIG",
      "taf": "TAF LRBS 290500Z 2906/3006 26012KT CAVOK"
    },
    {
      "icao": "LRBV",
      "alert": "OK",
      "vis_m": 9999,
      "fzfg": false,
      "metar_trigger": false,
      "taf_trigger": false,
      "metar": "METAR LRBV 290800Z 30013KT 9999 SCT045 M00/M08 Q1013",
      "taf": "TAF LRBV 290500Z 2906/2915 29018KT 9999 BKN035"
    },
    {
      "icao": "LRCL",
      "alert": "OK",
      "vis_m": 9999,
      "fzfg": false,
      "metar_trigger": false,
      "taf_trigger": false,
      "metar": "METAR LRCL 290800Z 26005KT CAVOK M01/M07 Q1016",
      "taf": "TAF LRCL 290500Z 2906/2915 28008KT CAVOK"
    },
    {
      "icao": "LRCV",
      "alert": "OK",
      "vis_m": 9999,
      "fzfg": false,
      "metar_trigger": false,
      "taf_trigger": false,
      "metar": "METAR LRCV 290800Z 29020KT CAVOK 00/M04 Q1016",
      "taf": "TAF LRCV 290500Z 2906/2915 28016KT CAVOK"
    },
    {
      "icao": "LRIA",
      "alert": "OK",
      "vis_m": 9999,
      "fzfg": false,
      "metar_trigger": false,
      "taf_trigger": false,
      "metar": "METAR LRIA 290800Z 29019KT 9999 SCT036 02/M04 Q1009",
      "taf": "TAF LRIA 290500Z 2906/2915 31012KT 9999 BKN030"
    },
    {
      "icao": "LROP",
      "alert": "OK",
      "vis_m": 9999,
      "fzfg": false,
      "metar_trigger": false,
      "taf_trigger": false,
      "metar": "METAR LROP 290800Z 28016KT CAVOK 03/M08 Q1014 NOSIG",
      "taf": "TAF LROP 290500Z 2906/3006 25012KT CAVOK"
    },
    {
      "icao": "LRSB",
      "alert": "OK",
      "vis_m": 9999,
      "fzfg": false,
      "metar_trigger": false,
      "taf_trigger": false,
      "metar": "METAR LRSB 290800Z VRB02KT CAVOK M00/M05 Q1015",
      "taf": "TAF LRSB 290500Z 2906/3006 31012KT 9999 SCT050"
    },
    {
      "icao": "LRSM",
      "alert": "OK",
      "vis_m": 9999,
      "fzfg": false,
      "metar_trigger": false,
      "taf_trigger": false,
      "metar": "METAR LRSM 290800Z 26007KT CAVOK M02/M05 Q1017",
      "taf": "TAF LRSM 290500Z 2906/2915 25012KT 9999 SCT040"
    },
    {
      "icao": "LRSV",
      "alert": "OK",
      "vis_m": 9999,
      "fzfg": false,
      "metar_trigger": false,
      "taf_trigger": false,
      "metar": "METAR LRSV 290800Z 31014KT 280V340 9999 BKN032 M00/M06 Q1009",
      "taf": ""
    },
    {
      "icao": "LRTM",
      "alert": "OK",
      "vis_m": 9999,
      "fzfg": false,
      "metar_trigger": false,
      "taf_trigger": false,
      "metar": "METAR LRTM 290800Z 22010KT 9999 FEW042 M00/M05 Q1016",
      "taf": "TAF LRTM 290500Z 2906/2915 24012KT 9999 BKN045"
    },
    {
      "icao": "LRTR",
      "alert": "OK",
      "vis_m": 9999,
      "fzfg": false,
      "metar_trigger": false,
      "taf_trigger": false,
      "metar": "METAR LRTR 290800Z 17005KT 9999 FEW010 M03/M03 Q1020",
      "taf": "TAF LRTR 290500Z 2906/3006 VRB04KT CAVOK"
    },
    {
      "icao": "LTAC",
      "alert": "OK",
      "vis_m": 9999,
      "fzfg": false,
      "metar_trigger": false,
      "taf_trigger": false,
      "metar": "METAR LTAC 290750Z 27013KT 9999 FEW019 SCT032 BKN100 M02/M05 Q1009 NOSIG RMK RWY21C 27014KT RWY03L 26010KT 230V290 RWY21R 26012KT RWY03R 25009KT RWY21L 25014KT",
      "taf": "TAF LTAC 290440Z 2906/3006 26015KT 9999 SCT040 BKN100"
    },
    {
      "icao": "LTFM",
      "alert": "OK",
      "vis_m": 9999,
      "fzfg": false,
      "metar_trigger": false,
      "taf_trigger": false,
      "metar": "METAR LTFM 290750Z 28014KT 9999 FEW030 04/M04 Q1016 NOSIG RMK RWY17L 28013KT RWY34L 28011KT RWY16R 28011KT RWY36 28010KT RWY18 29013KT",
      "taf": "TAF LTFM 290440Z 2906/3012 28012KT CAVOK"
    },
    {
      "icao": "LUKK",
      "alert": "OK",
      "vis_m": 9999,
      "fzfg": false,
      "metar_trigger": false,
      "taf_trigger": false,
      "metar": "METAR LUKK 290800Z 33019G30KT 9999 FEW026 BKN032 BKN040 01/M04 Q1007 TEMPO 33022G36KT",
      "taf": "TAF LUKK 290515Z 2906/3006 32016G26KT 9999 SCT015 BKN030"
    },
    {
      "icao": "LWOH",
      "alert": "OK",
      "vis_m": 9999,
      "fzfg": false,
      "metar_trigger": false,
      "taf_trigger": false,
      "metar": "METAR LWOH 290750Z 32004KT 270V010 CAVOK M01/M06 Q1020",
      "taf": "TAF LWOH 290550Z 2906/3006 33005KT CAVOK"
    },
    {
      "icao": "LWSK",
      "alert": "OK",
      "vis_m": null,
      "fzfg": false,
      "metar_trigger": false,
      "taf_trigger": false,
      "metar": "",
      "taf": "TAF LWSK 290550Z 2906/3006 01008KT CAVOK"
    },
    {
      "icao": "LYBE",
      "alert": "OK",
      "vis_m": 9999,
      "fzfg": false,
      "metar_trigger": false,
      "taf_trigger": false,
      "metar": "METAR LYBE 290800Z 24003KT CAVOK M01/M03 Q1022 NOSIG",
      "taf": "TAF LYBE 290500Z 2906/3006 24007KT CAVOK TX06/2912Z TNM04/3006Z"
    },
    {
      "icao": "LYNI",
      "alert": "OK",
      "vis_m": 9999,
      "fzfg": false,
      "metar_trigger": false,
      "taf_trigger": false,
      "metar": "METAR LYNI 290800Z 21004KT 160V270 CAVOK 01/M04 Q1023 NOSIG",
      "taf": "TAF LYNI 290500Z 2906/3006 20004KT CAVOK TX06/2912Z TNM05/3006Z"
    },
    {
      "icao": "LYPG",
      "alert": "OK",
      "vis_m": 9999,
      "fzfg": false,
      "metar_trigger": false,
      "taf_trigger": false,
      "metar": "METAR LYPG 290800Z VRB01KT CAVOK 03/M05 Q1021 NOSIG",
      "taf": "TAF LYPG 290500Z 2906/3006 16005KT CAVOK TX12/2913Z TNM01/3005Z"
    },
    {
      "icao": "LZIB",
      "alert": "OK",
      "vis_m": 9999,
      "fzfg": false,
      "metar_trigger": false,
      "taf_trigger": false,
      "metar": "METAR LZIB 290800Z 27015KT CAVOK 01/M07 Q1018 NOSIG",
      "taf": "TAF LZIB 290515Z 2906/3006 30007KT CAVOK"
    },
    {
      "icao": "LZKZ",
      "alert": "OK",
      "vis_m": 9999,
      "fzfg": false,
      "metar_trigger": false,
      "taf_trigger": false,
      "metar": "METAR LZKZ 290800Z 35003KT CAVOK M04/M07 Q1015 NOSIG",
      "taf": "TAF LZKZ 290515Z 2906/3006 VRB02KT CAVOK"
    },
    {
      "icao": "LZTT",
      "alert": "OK",
      "vis_m": 9999,
      "fzfg": false,
      "metar_trigger": false,
      "taf_trigger": false,
      "metar": "METAR LZTT 290800Z VRB05KT CAVOK M04/M10 Q1011 NOSIG",
      "taf": ""
    },
    {
      "icao": "OEJN",
      "alert": "OK",
      "vis_m": 9999,
      "fzfg": false,
      "metar_trigger": false,
      "taf_trigger": false,
      "metar": "METAR OEJN 290800Z 34006KT CAVOK 26/14 Q1016 NOSIG",
      "taf": "TAF OEJN 290500Z 2906/3012 30012KT CAVOK"
    },
    {
      "icao": "OEMA",
      "alert": "OK",
      "vis_m": 9999,
      "fzfg": false,
      "metar_trigger": false,
      "taf_trigger": false,
      "metar": "METAR OEMA 290800Z VRB02KT CAVOK 19/04 Q1019 NOSIG",
      "taf": "TAF OEMA 290500Z 2906/3012 28018KT 7000 NSC"
    },
    {
      "icao": "OJAI",
      "alert": "OK",
      "vis_m": 3000,
      "fzfg": false,
      "metar_trigger": false,
      "taf_trigger": false,
      "metar": "METAR OJAI 290800Z 24018KT 3000 BR SCT025 BKN030 09/07 Q1012 NOSIG",
      "taf": "TAF OJAI 290500Z 2906/3012 29018G36KT 3000 RA BR SCT025TCU BKN030"
    },
    {
      "icao": "OMAA",
      "alert": "OK",
      "vis_m": 9999,
      "fzfg": false,
      "metar_trigger": false,
      "taf_trigger": false,
      "metar": "METAR OMAA 290800Z 19012KT 160V220 CAVOK 27/15 Q1013 BECMG 25011KT",
      "taf": "TAF OMAA 290500Z 2906/3012 18010KT 8000 NSC"
    },
    {
      "icao": "OMDB",
      "alert": "OK",
      "vis_m": 5000,
      "fzfg": false,
      "metar_trigger": false,
      "taf_trigger": false,
      "metar": "METAR OMDB 290800Z 20012KT 170V230 5000 DU NSC 27/17 Q1012 TEMPO 18020G30KT 4000",
      "taf": "TAF OMDB 290500Z 2906/3012 19015KT 8000 NSC"
    },
    {
      "icao": "UAAA",
      "alert": "OK",
      "vis_m": 2900,
      "fzfg": false,
      "metar_trigger": false,
      "taf_trigger": false,
      "metar": "METAR UAAA 290800Z 35002MPS 330V030 2900 FU FEW100 06/M01 Q1012 NOSIG",
      "taf": "TAF UAAA 290501Z 2906/3006 05003MPS 3100 BR FU SCT050 BKN100 TX04/2909Z TNM03/3001Z"
    },
    {
      "icao": "UBBB",
      "alert": "OK",
      "vis_m": 9999,
      "fzfg": false,
      "metar_trigger": false,
      "taf_trigger": false,
      "metar": "METAR UBBB 290800Z 26016KT CAVOK 10/M04 Q1000 NOSIG",
      "taf": "TAF UBBB 290503Z 2906/3006 22006KT CAVOK TX08/2910Z TN02/3002Z"
    },
    {
      "icao": "UDSG",
      "alert": "OK",
      "vis_m": 3400,
      "fzfg": false,
      "metar_trigger": false,
      "taf_trigger": false,
      "metar": "METAR UDSG 290800Z 06002KT 3400 -SN BR OVC030 M07/M10 Q1003 NOSIG",
      "taf": "TAF UDSG 290458Z 2906/3006 VRB06KT 5000 BR BKN030"
    },
    {
      "icao": "UDYZ",
      "alert": "OK",
      "vis_m": 5000,
      "fzfg": false,
      "metar_trigger": false,
      "taf_trigger": false,
      "metar": "METAR UDYZ 290800Z 25006KT 5000 -SN BR BKN033 M04/M06 Q1006 NOSIG",
      "taf": "TAF UDYZ 290500Z 2906/3006 20006KT 9999 SCT040"
    },
    {
      "icao": "UGKO",
      "alert": "OK",
      "vis_m": 1000,
      "fzfg": false,
      "metar_trigger": false,
      "taf_trigger": false,
      "metar": "METAR UGKO 290800Z VRB02KT 1000 R07/1300U SHSN VV017 M00/M01 Q1006 NOSIG",
      "taf": ""
    }
  ]
}