{
  "ts_utc": "2026-03-08T15:33:57Z",
  "threshold_m": 150,
  "source": "stations_override.txt (ICAO list) + aviationweather.gov (METAR/TAF raw)",
  "station_count": 159,
  "stations": [
    {
      "icao": "BIKF",
      "alert": "OK",
      "vis_m": 9999,
      "fzfg": false,
      "metar_trigger": false,
      "taf_trigger": false,
      "metar": "METAR BIKF 081500Z 17009KT 9999 FEW022 BKN074 BKN120 00/00 Q0998",
      "taf": "TAF BIKF 081352Z 0815/0915 20010KT 9999 SCT015 BKN035 TX03/0816Z TNM01/0824Z"
    },
    {
      "icao": "BKPR",
      "alert": "OK",
      "vis_m": 9999,
      "fzfg": false,
      "metar_trigger": false,
      "taf_trigger": false,
      "metar": "METAR BKPR 081530Z 07012KT 9999 BKN060 13/04 Q1025 NOSIG",
      "taf": ""
    },
    {
      "icao": "EBCI",
      "alert": "OK",
      "vis_m": 9999,
      "fzfg": false,
      "metar_trigger": false,
      "taf_trigger": false,
      "metar": "METAR EBCI 081520Z 34004KT 250V020 CAVOK 17/07 Q1022 NOSIG",
      "taf": "TAF EBCI 081115Z 0812/0918 VRB03KT CAVOK"
    },
    {
      "icao": "EDDB",
      "alert": "OK",
      "vis_m": 9999,
      "fzfg": false,
      "metar_trigger": false,
      "taf_trigger": false,
      "metar": "METAR EDDB 081520Z AUTO 13008KT 100V170 CAVOK 16/01 Q1027 NOSIG",
      "taf": "TAF EDDB 081100Z 0812/0912 10006KT CAVOK"
    },
    {
      "icao": "EDDH",
      "alert": "OK",
      "vis_m": 9999,
      "fzfg": false,
      "metar_trigger": false,
      "taf_trigger": false,
      "metar": "METAR EDDH 081520Z AUTO 12010KT 090V150 CAVOK 16/04 Q1025 NOSIG",
      "taf": "TAF EDDH 081100Z 0812/0918 11007KT CAVOK"
    },
    {
      "icao": "EDDK",
      "alert": "OK",
      "vis_m": 9999,
      "fzfg": false,
      "metar_trigger": false,
      "taf_trigger": false,
      "metar": "METAR EDDK 081520Z AUTO 17005KT CAVOK 19/03 Q1022 NOSIG",
      "taf": "TAF EDDK 081100Z 0812/0918 13004KT CAVOK"
    },
    {
      "icao": "EDDN",
      "alert": "OK",
      "vis_m": 9999,
      "fzfg": false,
      "metar_trigger": false,
      "taf_trigger": false,
      "metar": "METAR EDDN 081520Z AUTO 10006KT 030V130 CAVOK 16/06 Q1023 NOSIG",
      "taf": "TAF EDDN 081100Z 0812/0912 11004KT CAVOK"
    },
    {
      "icao": "EDDS",
      "alert": "OK",
      "vis_m": 9999,
      "fzfg": false,
      "metar_trigger": false,
      "taf_trigger": false,
      "metar": "METAR EDDS 081520Z AUTO 36004KT 340V040 CAVOK 16/01 Q1022 NOSIG",
      "taf": "TAF EDDS 081100Z 0812/0912 VRB03KT CAVOK"
    },
    {
      "icao": "EDFH",
      "alert": "OK",
      "vis_m": 9999,
      "fzfg": false,
      "metar_trigger": false,
      "taf_trigger": false,
      "metar": "METAR EDFH 081520Z 12006KT 080V170 CAVOK 15/02 Q1023",
      "taf": "TAF EDFH 081100Z 0812/0912 14007KT CAVOK"
    },
    {
      "icao": "EDJA",
      "alert": "OK",
      "vis_m": 9999,
      "fzfg": false,
      "metar_trigger": false,
      "taf_trigger": false,
      "metar": "METAR EDJA 081520Z 02003KT 340V040 CAVOK 14/04 Q1023",
      "taf": "TAF EDJA 081400Z 0815/0824 VRB03KT CAVOK"
    },
    {
      "icao": "EDLW",
      "alert": "OK",
      "vis_m": 9999,
      "fzfg": false,
      "metar_trigger": false,
      "taf_trigger": false,
      "metar": "METAR EDLW 081520Z 03005KT CAVOK 18/05 Q1022",
      "taf": "TAF EDLW 081100Z 0812/0912 05004KT CAVOK"
    },
    {
      "icao": "EDNY",
      "alert": "OK",
      "vis_m": 9999,
      "fzfg": false,
      "metar_trigger": false,
      "taf_trigger": false,
      "metar": "METAR EDNY 081520Z 24005KT CAVOK 12/06 Q1023",
      "taf": "TAF EDNY 081400Z 0815/0824 VRB03KT CAVOK"
    },
    {
      "icao": "EDSB",
      "alert": "OK",
      "vis_m": 9999,
      "fzfg": false,
      "metar_trigger": false,
      "taf_trigger": false,
      "metar": "METAR EDSB 081520Z 36003KT 310V030 CAVOK 16/07 Q1022",
      "taf": "TAF EDSB 081100Z 0812/0912 VRB03KT CAVOK"
    },
    {
      "icao": "EETN",
      "alert": "OK",
      "vis_m": 9999,
      "fzfg": false,
      "metar_trigger": false,
      "taf_trigger": false,
      "metar": "METAR EETN 081520Z 26011KT CAVOK 06/01 Q1029 NOSIG",
      "taf": "TAF EETN 081130Z 0812/0912 24008KT CAVOK"
    },
    {
      "icao": "EFTU",
      "alert": "OK",
      "vis_m": 9999,
      "fzfg": false,
      "metar_trigger": false,
      "taf_trigger": false,
      "metar": "METAR EFTU 081520Z AUTO 24006KT CAVOK 06/01 Q1028",
      "taf": "TAF EFTU 081435Z 0815/0915 28008KT CAVOK"
    },
    {
      "icao": "EGBB",
      "alert": "OK",
      "vis_m": 5000,
      "fzfg": false,
      "metar_trigger": false,
      "taf_trigger": false,
      "metar": "METAR EGBB 081520Z 15006KT 5000 BR OVC006 09/08 Q1021",
      "taf": ""
    },
    {
      "icao": "EGGP",
      "alert": "OK",
      "vis_m": 7000,
      "fzfg": false,
      "metar_trigger": false,
      "taf_trigger": false,
      "metar": "METAR EGGP 081520Z 14003KT 100V160 7000 OVC009 09/08 Q1020",
      "taf": ""
    },
    {
      "icao": "EGGW",
      "alert": "OK",
      "vis_m": 2200,
      "fzfg": false,
      "metar_trigger": false,
      "taf_trigger": false,
      "metar": "METAR EGGW 081520Z AUTO 13005KT 2200 BR OVC003 08/08 Q1022",
      "taf": ""
    },
    {
      "icao": "EGKK",
      "alert": "OK",
      "vis_m": 5000,
      "fzfg": false,
      "metar_trigger": false,
      "taf_trigger": false,
      "metar": "METAR EGKK 081520Z 06003KT 010V090 5000 HZ BKN007 09/08 Q1022",
      "taf": "TAF EGKK 081101Z 0812/0918 12005KT 3000 BR BKN003"
    },
    {
      "icao": "EGNM",
      "alert": "OK",
      "vis_m": 4000,
      "fzfg": false,
      "metar_trigger": false,
      "taf_trigger": false,
      "metar": "METAR EGNM 081520Z 14007KT 110V170 4000 BR SCT003 OVC004 09/08 Q1021",
      "taf": "TAF EGNM 081104Z 0812/0912 14004KT 7000 SCT007 BKN012"
    },
    {
      "icao": "EGPD",
      "alert": "OK",
      "vis_m": 9999,
      "fzfg": false,
      "metar_trigger": false,
      "taf_trigger": false,
      "metar": "METAR EGPD 081520Z COR AUTO 21012KT 9999 FEW032 09/02 Q1018 NOSIG",
      "taf": "TAF EGPD 081052Z 0812/0912 19009KT 9999 FEW030"
    },
    {
      "icao": "EGPF",
      "alert": "OK",
      "vis_m": 9999,
      "fzfg": false,
      "metar_trigger": false,
      "taf_trigger": false,
      "metar": "METAR EGPF 081520Z AUTO 19007KT 9999 NCD 11/03 Q1019",
      "taf": ""
    },
    {
      "icao": "EHBK",
      "alert": "OK",
      "vis_m": 9999,
      "fzfg": false,
      "metar_trigger": false,
      "taf_trigger": false,
      "metar": "METAR EHBK 081525Z AUTO 03005KT 9999 NCD 16/09 Q1022 NOSIG",
      "taf": "TAF EHBK 081058Z 0812/0918 VRB02KT CAVOK"
    },
    {
      "icao": "EHEH",
      "alert": "OK",
      "vis_m": 9999,
      "fzfg": false,
      "metar_trigger": false,
      "taf_trigger": false,
      "metar": "METAR EHEH 081525Z AUTO 08003KT 040V130 9999 NCD 17/06 Q1022 BLU NOSIG RMK TREND REMOTE BY EHWX",
      "taf": "TAF EHEH 081100Z 0812/0918 VRB03KT 6000 NSC"
    },
    {
      "icao": "EKBI",
      "alert": "OK",
      "vis_m": 7000,
      "fzfg": false,
      "metar_trigger": false,
      "taf_trigger": false,
      "metar": "METAR EKBI 081521Z 00000KT 7000 FEW076 10/08 Q1026",
      "taf": "TAF EKBI 081427Z 0815/0915 13003KT 6000 BKN005"
    },
    {
      "icao": "EKCH",
      "alert": "OK",
      "vis_m": 9999,
      "fzfg": false,
      "metar_trigger": false,
      "taf_trigger": false,
      "metar": "METAR EKCH 081520Z AUTO 19003KT 9999 NCD 08/02 Q1028 NOSIG",
      "taf": "TAF EKCH 081427Z 0815/0915 13006KT CAVOK"
    },
    {
      "icao": "ENAL",
      "alert": "OK",
      "vis_m": 9999,
      "fzfg": false,
      "metar_trigger": false,
      "taf_trigger": false,
      "metar": "METAR ENAL 081520Z 04003KT 350V060 9999 BKN042 06/02 Q1021",
      "taf": "TAF ENAL 081400Z 0815/0824 33008KT 9999 FEW030 BKN060"
    },
    {
      "icao": "ENBR",
      "alert": "OK",
      "vis_m": 2600,
      "fzfg": false,
      "metar_trigger": false,
      "taf_trigger": false,
      "metar": "METAR ENBR 081520Z 16007KT 2600 DZRA BR VV004 05/05 Q1023 TEMPO 3000 -DZRA BR BKN006 RMK WIND 1200FT 20008KT",
      "taf": "TAF ENBR 081100Z 0812/0912 VRB05KT 6000 SCT008 BKN015"
    },
    {
      "icao": "ENGM",
      "alert": "OK",
      "vis_m": 9999,
      "fzfg": false,
      "metar_trigger": false,
      "taf_trigger": false,
      "metar": "METAR ENGM 081520Z VRB02KT 9999 -DZ FEW013 BKN025 04/02 Q1025 TEMPO BKN008",
      "taf": "TAF ENGM 081100Z 0812/0912 03005KT 7000 BKN004"
    },
    {
      "icao": "ENHD",
      "alert": "OK",
      "vis_m": 6000,
      "fzfg": false,
      "metar_trigger": false,
      "taf_trigger": false,
      "metar": "METAR ENHD 081520Z 18013KT 6000 VCSH BKN004 BKN006 OVC011 05/04 Q1023",
      "taf": ""
    },
    {
      "icao": "ENTC",
      "alert": "OK",
      "vis_m": 9999,
      "fzfg": false,
      "metar_trigger": false,
      "taf_trigger": false,
      "metar": "METAR ENTC 081520Z 21009KT 9999 SCT045 04/01 Q1017 NOSIG RMK WIND 2600FT 22008KT",
      "taf": "TAF ENTC 081100Z 0812/0912 21009KT 9999 FEW015 BKN040"
    },
    {
      "icao": "ENTO",
      "alert": "OK",
      "vis_m": 3000,
      "fzfg": false,
      "metar_trigger": false,
      "taf_trigger": false,
      "metar": "METAR ENTO 081520Z VRB02KT 3000 BR VV003 03/03 Q1025 NOSIG",
      "taf": "TAF ENTO 081100Z 0812/0912 01005KT 9999 BKN030"
    },
    {
      "icao": "ENVA",
      "alert": "OK",
      "vis_m": 9999,
      "fzfg": false,
      "metar_trigger": false,
      "taf_trigger": false,
      "metar": "METAR ENVA 081520Z 25008KT CAVOK 05/01 Q1023 RMK WIND 670FT 28003KT",
      "taf": "TAF ENVA 081100Z 0812/0912 12008KT CAVOK"
    },
    {
      "icao": "ENZV",
      "alert": "OK",
      "vis_m": 9999,
      "fzfg": false,
      "metar_trigger": false,
      "taf_trigger": false,
      "metar": "METAR ENZV 081520Z 17008KT 9999 FEW015 OVC026 05/04 Q1024 TEMPO BKN012",
      "taf": ""
    },
    {
      "icao": "EPGD",
      "alert": "OK",
      "vis_m": 9999,
      "fzfg": false,
      "metar_trigger": false,
      "taf_trigger": false,
      "metar": "METAR EPGD 081530Z 20005KT CAVOK 14/M03 Q1030",
      "taf": "TAF EPGD 081130Z 0812/0912 19006KT CAVOK"
    },
    {
      "icao": "EPKK",
      "alert": "OK",
      "vis_m": 9999,
      "fzfg": false,
      "metar_trigger": false,
      "taf_trigger": false,
      "metar": "METAR EPKK 081530Z 07014KT CAVOK 11/M01 Q1030",
      "taf": "TAF EPKK 081430Z 0815/0915 07014KT CAVOK"
    },
    {
      "icao": "EPKT",
      "alert": "OK",
      "vis_m": 9999,
      "fzfg": false,
      "metar_trigger": false,
      "taf_trigger": false,
      "metar": "METAR EPKT 081530Z 08011KT CAVOK 11/M02 Q1029",
      "taf": "TAF EPKT 081130Z 0812/0912 10012KT CAVOK"
    },
    {
      "icao": "EPLB",
      "alert": "OK",
      "vis_m": 9999,
      "fzfg": false,
      "metar_trigger": false,
      "taf_trigger": false,
      "metar": "METAR EPLB 081530Z 11003KT CAVOK 12/01 Q1032",
      "taf": "TAF EPLB 081130Z 0812/0912 13007KT CAVOK"
    },
    {
      "icao": "EPMO",
      "alert": "OK",
      "vis_m": 9999,
      "fzfg": false,
      "metar_trigger": false,
      "taf_trigger": false,
      "metar": "METAR EPMO 081530Z 13004KT 090V170 CAVOK 13/M03 Q1032",
      "taf": "TAF EPMO 081130Z 0812/0912 13006KT CAVOK"
    },
    {
      "icao": "EPPO",
      "alert": "OK",
      "vis_m": 9999,
      "fzfg": false,
      "metar_trigger": false,
      "taf_trigger": false,
      "metar": "METAR EPPO 081530Z 10010KT CAVOK 14/M03 Q1029",
      "taf": "TAF EPPO 081130Z 0812/0912 13008KT CAVOK"
    },
    {
      "icao": "EPRA",
      "alert": "OK",
      "vis_m": 9999,
      "fzfg": false,
      "metar_trigger": false,
      "taf_trigger": false,
      "metar": "METAR EPRA 081530Z 10005KT CAVOK 12/M02 Q1031",
      "taf": "TAF EPRA 081430Z 0815/0824 10010KT CAVOK"
    },
    {
      "icao": "EPRZ",
      "alert": "OK",
      "vis_m": 9999,
      "fzfg": false,
      "metar_trigger": false,
      "taf_trigger": false,
      "metar": "METAR EPRZ 081530Z 09009KT CAVOK 11/00 Q1031",
      "taf": "TAF EPRZ 081130Z 0812/0912 07008KT CAVOK"
    },
    {
      "icao": "EPSC",
      "alert": "OK",
      "vis_m": 9999,
      "fzfg": false,
      "metar_trigger": false,
      "taf_trigger": false,
      "metar": "METAR EPSC 081530Z 15004KT CAVOK 13/M01 Q1028",
      "taf": "TAF EPSC 081130Z 0812/0912 12010KT CAVOK"
    },
    {
      "icao": "EPSY",
      "alert": "OK",
      "vis_m": 9999,
      "fzfg": false,
      "metar_trigger": false,
      "taf_trigger": false,
      "metar": "METAR EPSY 081530Z 21005KT CAVOK 12/M04 Q1032",
      "taf": "TAF EPSY 081430Z 0815/0824 VRB02KT CAVOK"
    },
    {
      "icao": "EPWA",
      "alert": "OK",
      "vis_m": 9999,
      "fzfg": false,
      "metar_trigger": false,
      "taf_trigger": false,
      "metar": "METAR EPWA 081530Z 13006KT CAVOK 13/M02 Q1032 NOSIG",
      "taf": "TAF EPWA 081430Z 0815/0915 13007KT CAVOK"
    },
    {
      "icao": "EPWR",
      "alert": "OK",
      "vis_m": 9999,
      "fzfg": false,
      "metar_trigger": false,
      "taf_trigger": false,
      "metar": "METAR EPWR 081530Z 08005KT CAVOK 15/M02 Q1028",
      "taf": "TAF EPWR 081430Z 0815/0915 13007KT CAVOK"
    },
    {
      "icao": "ESGG",
      "alert": "OK",
      "vis_m": 9999,
      "fzfg": false,
      "metar_trigger": false,
      "taf_trigger": false,
      "metar": "METAR ESGG 081520Z 18005KT 9999 FEW043 BKN072 OVC110 08/05 Q1026",
      "taf": "TAF ESGG 081430Z 0815/0915 16007KT 9999 BKN040"
    },
    {
      "icao": "ESKN",
      "alert": "OK",
      "vis_m": 9999,
      "fzfg": false,
      "metar_trigger": false,
      "taf_trigger": false,
      "metar": "METAR ESKN 081520Z 13006KT CAVOK 06/01 Q1028",
      "taf": "TAF ESKN 081430Z 0815/0915 13004KT CAVOK"
    },
    {
      "icao": "ESMS",
      "alert": "OK",
      "vis_m": 9999,
      "fzfg": false,
      "metar_trigger": false,
      "taf_trigger": false,
      "metar": "METAR ESMS 081520Z 13005KT CAVOK 09/01 Q1028",
      "taf": "TAF ESMS 081427Z 0815/0915 13008KT CAVOK"
    },
    {
      "icao": "ESSA",
      "alert": "OK",
      "vis_m": 9999,
      "fzfg": false,
      "metar_trigger": false,
      "taf_trigger": false,
      "metar": "METAR ESSA 081520Z 17008KT CAVOK 10/02 Q1027 NOSIG",
      "taf": "TAF ESSA 081430Z 0815/0915 20006KT CAVOK"
    },
    {
      "icao": "EYKA",
      "alert": "OK",
      "vis_m": 9999,
      "fzfg": false,
      "metar_trigger": false,
      "taf_trigger": false,
      "metar": "METAR EYKA 081520Z 17004KT CAVOK 11/M02 Q1032",
      "taf": "TAF EYKA 081100Z 0812/0912 VRB04KT 8000 NSC"
    },
    {
      "icao": "EYPA",
      "alert": "OK",
      "vis_m": 9999,
      "fzfg": false,
      "metar_trigger": false,
      "taf_trigger": false,
      "metar": "METAR EYPA 081520Z VRB01KT CAVOK 10/00 Q1032",
      "taf": "TAF EYPA 081100Z 0812/0912 VRB05KT 8000 NSC"
    },
    {
      "icao": "EYVI",
      "alert": "OK",
      "vis_m": 9999,
      "fzfg": false,
      "metar_trigger": false,
      "taf_trigger": false,
      "metar": "METAR EYVI 081520Z 23005KT CAVOK 11/M05 Q1032 NOSIG",
      "taf": "TAF EYVI 081100Z 0812/0912 VRB05KT 9000 NSC"
    },
    {
      "icao": "GCFV",
      "alert": "OK",
      "vis_m": 9999,
      "fzfg": false,
      "metar_trigger": false,
      "taf_trigger": false,
      "metar": "METAR GCFV 081500Z 03015KT 9999 SCT035 19/11 Q1021",
      "taf": "TAF GCFV 081400Z 0815/0915 04017KT 9999 SCT035 TX20/0914Z TN15/0906Z"
    },
    {
      "icao": "GCLP",
      "alert": "OK",
      "vis_m": 9999,
      "fzfg": false,
      "metar_trigger": false,
      "taf_trigger": false,
      "metar": "METAR GCLP 081500Z 01022KT 9999 FEW035 BKN045 19/09 Q1021 NOSIG",
      "taf": "TAF GCLP 081400Z 0815/0915 02023KT 9999 BKN040 TX20/0914Z TN15/0906Z"
    },
    {
      "icao": "GCTS",
      "alert": "OK",
      "vis_m": 9999,
      "fzfg": false,
      "metar_trigger": false,
      "taf_trigger": false,
      "metar": "METAR GCTS 081500Z 09025KT 9999 SCT045 20/09 Q1022 NOSIG",
      "taf": "TAF GCTS 081400Z 0815/0915 09026KT 9999 SCT045 TX22/0914Z TN14/0906Z"
    },
    {
      "icao": "GMAD",
      "alert": "OK",
      "vis_m": 9999,
      "fzfg": false,
      "metar_trigger": false,
      "taf_trigger": false,
      "metar": "METAR GMAD 081530Z 25012KT 9999 FEW030 20/08 Q1016 NOSIG",
      "taf": "TAF GMAD 081100Z 0812/0918 26012KT CAVOK"
    },
    {
      "icao": "GMMN",
      "alert": "OK",
      "vis_m": 9999,
      "fzfg": false,
      "metar_trigger": false,
      "taf_trigger": false,
      "metar": "METAR GMMN 081530Z 36008KT 330V040 9999 BKN030 17/12 Q1020 NOSIG",
      "taf": "TAF GMMN 080500Z 0806/0912 16004KT 3000 BR BKN020"
    },
    {
      "icao": "GMMX",
      "alert": "OK",
      "vis_m": 9999,
      "fzfg": false,
      "metar_trigger": false,
      "taf_trigger": false,
      "metar": "METAR GMMX 081530Z 08005KT 010V180 9999 SCT023 18/04 Q1019 NOSIG",
      "taf": "TAF GMMX 081100Z 0812/0918 06006KT 8000 SCT020 BKN040"
    },
    {
      "icao": "HEGN",
      "alert": "OK",
      "vis_m": null,
      "fzfg": false,
      "metar_trigger": false,
      "taf_trigger": false,
      "metar": "",
      "taf": "TAF HEGN 081100Z 0812/0918 35010G24KT CAVOK"
    },
    {
      "icao": "HEMA",
      "alert": "OK",
      "vis_m": null,
      "fzfg": false,
      "metar_trigger": false,
      "taf_trigger": false,
      "metar": "",
      "taf": "TAF HEMA 081100Z 0812/0918 36010G24KT CAVOK"
    },
    {
      "icao": "HESH",
      "alert": "OK",
      "vis_m": null,
      "fzfg": false,
      "metar_trigger": false,
      "taf_trigger": false,
      "metar": "",
      "taf": "TAF HESH 081100Z 0812/0918 01010G22KT CAVOK"
    },
    {
      "icao": "HESX",
      "alert": "OK",
      "vis_m": null,
      "fzfg": false,
      "metar_trigger": false,
      "taf_trigger": false,
      "metar": "",
      "taf": "TAF HESX 081100Z 0812/0918 35009KT CAVOK"
    },
    {
      "icao": "LATI",
      "alert": "OK",
      "vis_m": 9999,
      "fzfg": false,
      "metar_trigger": false,
      "taf_trigger": false,
      "metar": "METAR LATI 081520Z 34008KT 9999 SCT100 16/06 Q1024 NOSIG",
      "taf": "TAF LATI 081100Z 0812/0912 33008KT 9999 SCT120 TX21/0813Z TN08/0904Z"
    },
    {
      "icao": "LBPD",
      "alert": "OK",
      "vis_m": 9999,
      "fzfg": false,
      "metar_trigger": false,
      "taf_trigger": false,
      "metar": "METAR LBPD 081530Z AUTO 10010KT 9999 NCD 12/01 Q1028 NOSIG",
      "taf": "TAF LBPD 081100Z 0812/0912 11010KT CAVOK"
    },
    {
      "icao": "LBSF",
      "alert": "OK",
      "vis_m": 9999,
      "fzfg": false,
      "metar_trigger": false,
      "taf_trigger": false,
      "metar": "METAR LBSF 081530Z 06009KT 030V090 CAVOK 13/M01 Q1026 NOSIG",
      "taf": "TAF LBSF 081100Z 0812/0912 05010KT CAVOK"
    },
    {
      "icao": "LBWN",
      "alert": "OK",
      "vis_m": 9999,
      "fzfg": false,
      "metar_trigger": false,
      "taf_trigger": false,
      "metar": "METAR LBWN 081530Z 13008KT CAVOK 07/01 Q1031 NOSIG",
      "taf": "TAF LBWN 081100Z 0812/0912 12010KT 9999 SCT030"
    },
    {
      "icao": "LCLK",
      "alert": "OK",
      "vis_m": 9999,
      "fzfg": false,
      "metar_trigger": false,
      "taf_trigger": false,
      "metar": "METAR LCLK 081530Z 20005KT 9999 FEW030 15/06 Q1019 NOSIG",
      "taf": ""
    },
    {
      "icao": "LCPH",
      "alert": "OK",
      "vis_m": 9999,
      "fzfg": false,
      "metar_trigger": false,
      "taf_trigger": false,
      "metar": "METAR LCPH 081530Z 33011KT 9999 FEW040 16/M01 Q1019 NOSIG",
      "taf": "TAF LCPH 081130Z 0812/0912 29014KT 9999 FEW020"
    },
    {
      "icao": "LEAL",
      "alert": "OK",
      "vis_m": 9999,
      "fzfg": false,
      "metar_trigger": false,
      "taf_trigger": false,
      "metar": "METAR LEAL 081500Z 10008KT 070V160 9999 FEW030 BKN061 17/08 Q1021 NOSIG",
      "taf": "TAF LEAL 081100Z 0812/0912 13007KT 9999 SCT030 TX17/0813Z TN07/0906Z"
    },
    {
      "icao": "LEBB",
      "alert": "OK",
      "vis_m": 9999,
      "fzfg": false,
      "metar_trigger": false,
      "taf_trigger": false,
      "metar": "METAR LEBB 081500Z 02005KT 330V050 9999 FEW041 16/09 Q1020 NOSIG",
      "taf": "TAF LEBB 081100Z 0812/0912 12007KT 9999 FEW020 SCT060 TX17/0815Z TN07/0907Z"
    },
    {
      "icao": "LEBL",
      "alert": "OK",
      "vis_m": 9999,
      "fzfg": false,
      "metar_trigger": false,
      "taf_trigger": false,
      "metar": "METAR LEBL 081500Z 12007KT 9999 FEW015 15/11 Q1021 NOSIG",
      "taf": "TAF LEBL 081100Z 0812/0912 33005KT 9999 FEW015 BKN040 TX16/0812Z TN09/0906Z"
    },
    {
      "icao": "LECH",
      "alert": "OK",
      "vis_m": 9000,
      "fzfg": false,
      "metar_trigger": false,
      "taf_trigger": false,
      "metar": "METAR LECH 081500Z AUTO 12006KT 080V150 9000 FEW015 SCT050 12/09 Q1021",
      "taf": ""
    },
    {
      "icao": "LEMD",
      "alert": "OK",
      "vis_m": 9999,
      "fzfg": false,
      "metar_trigger": false,
      "taf_trigger": false,
      "metar": "METAR LEMD 081500Z 14003KT 060V200 9999 SCT060 12/04 Q1019 NOSIG",
      "taf": "TAF LEMD 081100Z 0812/0918 VRB04KT 9999 FEW015 SCT030 TX13/0815Z TN02/0904Z"
    },
    {
      "icao": "LEMG",
      "alert": "OK",
      "vis_m": 6000,
      "fzfg": false,
      "metar_trigger": false,
      "taf_trigger": false,
      "metar": "SPECI LEMG 081526Z 15006KT 110V200 6000 SHRA FEW021 SCT025TCU BKN046 14/11 Q1020 NOSIG",
      "taf": "TAF LEMG 081100Z 0812/0912 13010KT 9999 SCT030 TX16/0814Z TN08/0907Z"
    },
    {
      "icao": "LEVC",
      "alert": "OK",
      "vis_m": 9999,
      "fzfg": false,
      "metar_trigger": false,
      "taf_trigger": false,
      "metar": "METAR LEVC 081500Z 12005KT 080V180 9999 FEW024 15/09 Q1021 NOSIG",
      "taf": "TAF LEVC 081100Z 0812/0912 VRB04KT 9999 SCT025 TX16/0813Z TN07/0906Z"
    },
    {
      "icao": "LEXJ",
      "alert": "OK",
      "vis_m": 9999,
      "fzfg": false,
      "metar_trigger": false,
      "taf_trigger": false,
      "metar": "METAR LEXJ 081500Z 05005KT 340V110 9999 FEW025 13/08 Q1020",
      "taf": "TAF LEXJ 081400Z 0815/0915 24005KT 9999 FEW030 TX13/0815Z TN07/0905Z"
    },
    {
      "icao": "LEZG",
      "alert": "OK",
      "vis_m": 9999,
      "fzfg": false,
      "metar_trigger": false,
      "taf_trigger": false,
      "metar": "METAR LEZG 081500Z 12005KT 080V170 9999 VCSH FEW025TCU BKN040 14/06 Q1020 NOSIG",
      "taf": "TAF LEZG 081100Z 0812/0912 VRB04KT 9999 SCT025 TX14/0814Z TN04/0906Z"
    },
    {
      "icao": "LEZL",
      "alert": "OK",
      "vis_m": 9999,
      "fzfg": false,
      "metar_trigger": false,
      "taf_trigger": false,
      "metar": "METAR LEZL 081500Z 18003KT 9999 SCT040 19/10 Q1019 NOSIG",
      "taf": "TAF LEZL 081400Z 0815/0915 29005KT 9999 FEW030 TX19/0815Z TN12/0907Z"
    },
    {
      "icao": "LFBD",
      "alert": "OK",
      "vis_m": 9999,
      "fzfg": false,
      "metar_trigger": false,
      "taf_trigger": false,
      "metar": "METAR LFBD 081530Z AUTO 15007KT 9999 FEW025 BKN043 BKN066 14/09 Q1020 TEMPO 4000 -SHRA BKN020TCU",
      "taf": "TAF LFBD 081100Z 0812/0918 12005KT 9999 BKN040 TX16/0814Z TN05/0905Z"
    },
    {
      "icao": "LFLL",
      "alert": "OK",
      "vis_m": 9999,
      "fzfg": false,
      "metar_trigger": false,
      "taf_trigger": false,
      "metar": "METAR LFLL 081530Z VRB03KT CAVOK 18/03 Q1022 NOSIG",
      "taf": "TAF LFLL 081100Z 0812/0918 19005KT CAVOK"
    },
    {
      "icao": "LFLS",
      "alert": "OK",
      "vis_m": 9999,
      "fzfg": false,
      "metar_trigger": false,
      "taf_trigger": false,
      "metar": "METAR LFLS 081530Z AUTO 26006KT CAVOK 16/06 Q1022 TEMPO 24015G25KT SHRA FEW030CB BKN040TCU",
      "taf": "TAF LFLS 081400Z 0815/0915 VRB04KT CAVOK"
    },
    {
      "icao": "LFMN",
      "alert": "OK",
      "vis_m": 9999,
      "fzfg": false,
      "metar_trigger": false,
      "taf_trigger": false,
      "metar": "METAR LFMN 081530Z 09009KT 9999 FEW031 SCT260 16/11 Q1024 NOSIG",
      "taf": "TAF LFMN 081400Z 0815/0921 09008KT 9999 FEW110 SCT260"
    },
    {
      "icao": "LFOB",
      "alert": "OK",
      "vis_m": 5000,
      "fzfg": false,
      "metar_trigger": false,
      "taf_trigger": false,
      "metar": "METAR LFOB 081530Z AUTO VRB03KT 5000 BR NSC 13/10 Q1022 NOSIG",
      "taf": ""
    },
    {
      "icao": "LFPO",
      "alert": "OK",
      "vis_m": 9999,
      "fzfg": false,
      "metar_trigger": false,
      "taf_trigger": false,
      "metar": "METAR LFPO 081530Z 18005KT 150V210 CAVOK 18/09 Q1021 NOSIG",
      "taf": "TAF LFPO 081100Z 0812/0918 VRB02KT CAVOK"
    },
    {
      "icao": "LFSB",
      "alert": "OK",
      "vis_m": 9999,
      "fzfg": false,
      "metar_trigger": false,
      "taf_trigger": false,
      "metar": "METAR LFSB 081530Z AUTO 32005KT 300V360 CAVOK 18/07 Q1022 NOSIG",
      "taf": "TAF LFSB 081100Z 0812/0912 16004KT CAVOK"
    },
    {
      "icao": "LGAV",
      "alert": "OK",
      "vis_m": 9999,
      "fzfg": false,
      "metar_trigger": false,
      "taf_trigger": false,
      "metar": "METAR LGAV 081520Z 02015KT 9999 FEW030 13/06 Q1025 NOSIG",
      "taf": "TAF LGAV 081100Z 0812/0912 02015KT 9999 FEW025"
    },
    {
      "icao": "LGTS",
      "alert": "OK",
      "vis_m": 9999,
      "fzfg": false,
      "metar_trigger": false,
      "taf_trigger": false,
      "metar": "METAR LGTS 081520Z 18005KT 9999 SCT025 14/08 Q1027 NOSIG",
      "taf": "TAF LGTS 081100Z 0812/0912 14013KT 9999 SCT020"
    },
    {
      "icao": "LHBP",
      "alert": "OK",
      "vis_m": 9999,
      "fzfg": false,
      "metar_trigger": false,
      "taf_trigger": false,
      "metar": "METAR LHBP 081530Z 09006KT CAVOK 16/M02 Q1027 NOSIG",
      "taf": "TAF LHBP 081115Z 0812/0912 10006KT CAVOK"
    },
    {
      "icao": "LHDC",
      "alert": "OK",
      "vis_m": 9999,
      "fzfg": false,
      "metar_trigger": false,
      "taf_trigger": false,
      "metar": "METAR LHDC 081515Z AUTO 07006KT CAVOK 16/M01 Q1027 NOSIG",
      "taf": "TAF LHDC 081415Z 0815/0824 07006KT CAVOK"
    },
    {
      "icao": "LIBD",
      "alert": "OK",
      "vis_m": 9999,
      "fzfg": false,
      "metar_trigger": false,
      "taf_trigger": false,
      "metar": "METAR LIBD 081520Z 36005KT 310V050 9999 FEW015 15/11 Q1024",
      "taf": "TAF LIBD 081100Z 0812/0912 VRB05KT 9999 BKN040"
    },
    {
      "icao": "LIBG",
      "alert": "OK",
      "vis_m": 9999,
      "fzfg": false,
      "metar_trigger": false,
      "taf_trigger": false,
      "metar": "METAR LIBG 081450Z 06009KT 9999 SCT030 15/11 Q1024",
      "taf": "TAF LIBG 081400Z 0815/0824 VRB05KT 9999 SCT030"
    },
    {
      "icao": "LIBP",
      "alert": "OK",
      "vis_m": 9999,
      "fzfg": false,
      "metar_trigger": false,
      "taf_trigger": false,
      "metar": "METAR LIBP 081520Z AUTO 08006KT 9999 BKN013/// 14/12 Q1026",
      "taf": "TAF LIBP 081100Z 0812/0912 VRB04KT 9999 BKN025"
    },
    {
      "icao": "LIBR",
      "alert": "OK",
      "vis_m": 9999,
      "fzfg": false,
      "metar_trigger": false,
      "taf_trigger": false,
      "metar": "METAR LIBR 081520Z 09007KT 9999 SCT025 14/11 Q1024",
      "taf": "TAF LIBR 081100Z 0812/0912 VRB04KT 8000 BKN020"
    },
    {
      "icao": "LICA",
      "alert": "OK",
      "vis_m": 9999,
      "fzfg": false,
      "metar_trigger": false,
      "taf_trigger": false,
      "metar": "METAR LICA 081520Z AUTO 26003KT 230V290 9999 NCD 17/12 Q1023",
      "taf": "TAF LICA 081100Z 0812/0912 25010KT 9999 SCT040"
    },
    {
      "icao": "LICC",
      "alert": "OK",
      "vis_m": 9999,
      "fzfg": false,
      "metar_trigger": false,
      "taf_trigger": false,
      "metar": "METAR LICC 081520Z 08010KT 9999 FEW020 17/15 Q1023",
      "taf": "TAF LICC 081100Z 0812/0912 09012KT 9999 SCT015"
    },
    {
      "icao": "LICJ",
      "alert": "OK",
      "vis_m": 9999,
      "fzfg": false,
      "metar_trigger": false,
      "taf_trigger": false,
      "metar": "METAR LICJ 081520Z 05015KT CAVOK 16/13 Q1022",
      "taf": "TAF LICJ 081100Z 0812/0912 05013KT 9999 FEW030"
    },
    {
      "icao": "LIMC",
      "alert": "OK",
      "vis_m": 9999,
      "fzfg": false,
      "metar_trigger": false,
      "taf_trigger": false,
      "metar": "METAR LIMC 081520Z VRB04KT CAVOK 16/03 Q1025 NOSIG",
      "taf": "TAF LIMC 081100Z 0812/0918 VRB05KT CAVOK"
    },
    {
      "icao": "LIME",
      "alert": "OK",
      "vis_m": 9999,
      "fzfg": false,
      "metar_trigger": false,
      "taf_trigger": false,
      "metar": "METAR LIME 081520Z 21005KT 160V250 CAVOK 15/05 Q1025 NOSIG",
      "taf": "TAF LIME 081100Z 0812/0912 VRB05KT 9999 FEW030"
    },
    {
      "icao": "LIMF",
      "alert": "OK",
      "vis_m": 9999,
      "fzfg": false,
      "metar_trigger": false,
      "taf_trigger": false,
      "metar": "METAR LIMF 081520Z VRB01KT CAVOK 18/03 Q1025",
      "taf": "TAF LIMF 081100Z 0812/0912 VRB04KT CAVOK"
    },
    {
      "icao": "LIMJ",
      "alert": "OK",
      "vis_m": 9999,
      "fzfg": false,
      "metar_trigger": false,
      "taf_trigger": false,
      "metar": "METAR LIMJ 081520Z 12004KT 9999 FEW012 BKN070 15/11 Q1025",
      "taf": "TAF LIMJ 081100Z 0812/0912 VRB05KT 9999 SCT030"
    },
    {
      "icao": "LIPE",
      "alert": "OK",
      "vis_m": 8000,
      "fzfg": false,
      "metar_trigger": false,
      "taf_trigger": false,
      "metar": "METAR LIPE 081520Z 10005KT 070V140 8000 FEW020 14/09 Q1026",
      "taf": "TAF LIPE 081100Z 0812/0912 VRB04KT 8000 SCT050"
    },
    {
      "icao": "LIPH",
      "alert": "OK",
      "vis_m": 9999,
      "fzfg": false,
      "metar_trigger": false,
      "taf_trigger": false,
      "metar": "METAR LIPH 081520Z VRB01KT CAVOK 17/05 Q1025",
      "taf": "TAF LIPH 081100Z 0812/0912 VRB03KT CAVOK"
    },
    {
      "icao": "LIPQ",
      "alert": "OK",
      "vis_m": 9999,
      "fzfg": false,
      "metar_trigger": false,
      "taf_trigger": false,
      "metar": "METAR LIPQ 081520Z AUTO 24007KT 9999 NCD 17/10 Q1025",
      "taf": "TAF LIPQ 081100Z 0812/0912 VRB04KT CAVOK"
    },
    {
      "icao": "LIPR",
      "alert": "OK",
      "vis_m": 8000,
      "fzfg": false,
      "metar_trigger": false,
      "taf_trigger": false,
      "metar": "METAR LIPR 081520Z 05004KT 020V080 8000 NSC 12/10 Q1026",
      "taf": "TAF LIPR 081100Z 0812/0912 VRB06KT 8000 NSC"
    },
    {
      "icao": "LIPX",
      "alert": "OK",
      "vis_m": 9999,
      "fzfg": false,
      "metar_trigger": false,
      "taf_trigger": false,
      "metar": "METAR LIPX 081520Z 18004KT 120V210 CAVOK 15/09 Q1026",
      "taf": "TAF LIPX 081100Z 0812/0912 VRB05KT CAVOK"
    },
    {
      "icao": "LIPY",
      "alert": "OK",
      "vis_m": 9999,
      "fzfg": false,
      "metar_trigger": false,
      "taf_trigger": false,
      "metar": "METAR LIPY 081520Z AUTO 04006KT 9999 NCD 13/11 Q1026",
      "taf": ""
    },
    {
      "icao": "LIPZ",
      "alert": "OK",
      "vis_m": 9999,
      "fzfg": false,
      "metar_trigger": false,
      "taf_trigger": false,
      "metar": "METAR LIPZ 081520Z 20006KT CAVOK 15/07 Q1026 NOSIG",
      "taf": "TAF LIPZ 081100Z 0812/0918 VRB04KT 6000 NSC"
    },
    {
      "icao": "LIRF",
      "alert": "OK",
      "vis_m": 9999,
      "fzfg": false,
      "metar_trigger": false,
      "taf_trigger": false,
      "metar": "METAR LIRF 081520Z 27008KT 9999 FEW035TCU 17/11 Q1024 NOSIG",
      "taf": "TAF LIRF 081100Z 0812/0918 27010KT 9999 SCT040"
    },
    {
      "icao": "LIRN",
      "alert": "OK",
      "vis_m": 9999,
      "fzfg": false,
      "metar_trigger": false,
      "taf_trigger": false,
      "metar": "METAR LIRN 081520Z VRB02KT 9999 SCT040 17/12 Q1024 NOSIG",
      "taf": "TAF LIRN 081100Z 0812/0912 VRB05KT 9999 SCT040"
    },
    {
      "icao": "LIRP",
      "alert": "OK",
      "vis_m": 9999,
      "fzfg": false,
      "metar_trigger": false,
      "taf_trigger": false,
      "metar": "METAR LIRP 081515Z 18003KT 9999 FEW030 17/10 Q1024 NOSIG",
      "taf": "TAF LIRP 081100Z 0812/0912 17007KT 9999 SCT040 SCT060"
    },
    {
      "icao": "LIRZ",
      "alert": "OK",
      "vis_m": 9999,
      "fzfg": false,
      "metar_trigger": false,
      "taf_trigger": false,
      "metar": "METAR LIRZ 081520Z AUTO 30008KT 9999 SCT066/// BKN110/// 14/10 Q1024",
      "taf": "TAF LIRZ 081100Z 0812/0912 VRB05KT 9999 SCT030"
    },
    {
      "icao": "LJLJ",
      "alert": "OK",
      "vis_m": 9999,
      "fzfg": false,
      "metar_trigger": false,
      "taf_trigger": false,
      "metar": "METAR LJLJ 081500Z 10005KT 070V130 9999 FEW070 17/00 Q1025 NOSIG",
      "taf": "TAF LJLJ 081100Z 0812/0912 10004KT 9999 FEW070"
    },
    {
      "icao": "LKMT",
      "alert": "OK",
      "vis_m": 9999,
      "fzfg": false,
      "metar_trigger": false,
      "taf_trigger": false,
      "metar": "METAR LKMT 081530Z 02005KT CAVOK 11/01 Q1027 NOSIG",
      "taf": "TAF LKMT 081100Z 0812/0912 04002KT CAVOK"
    },
    {
      "icao": "LKPR",
      "alert": "OK",
      "vis_m": 9999,
      "fzfg": false,
      "metar_trigger": false,
      "taf_trigger": false,
      "metar": "METAR LKPR 081530Z 08012KT CAVOK 13/02 Q1025 NOSIG",
      "taf": "TAF LKPR 081400Z 0815/0921 11006KT CAVOK"
    },
    {
      "icao": "LLBG",
      "alert": "OK",
      "vis_m": 9999,
      "fzfg": false,
      "metar_trigger": false,
      "taf_trigger": false,
      "metar": "METAR LLBG 081520Z 34011KT 9999 FEW050 16/03 Q1019 NOSIG",
      "taf": "TAF LLBG 081103Z 0812/0912 33015KT 9999 FEW045 TX19/0812Z TN08/0904Z"
    },
    {
      "icao": "LMML",
      "alert": "OK",
      "vis_m": 9999,
      "fzfg": false,
      "metar_trigger": false,
      "taf_trigger": false,
      "metar": "METAR LMML 081515Z 08014KT 9999 FEW015 18/13 Q1021 NOSIG",
      "taf": "TAF LMML 081100Z 0812/0912 09015KT 9999 SCT013"
    },
    {
      "icao": "LOWW",
      "alert": "OK",
      "vis_m": 9999,
      "fzfg": false,
      "metar_trigger": false,
      "taf_trigger": false,
      "metar": "METAR LOWW 081520Z 15009KT CAVOK 16/00 Q1026 NOSIG",
      "taf": "TAF LOWW 081415Z 0815/0921 13007KT CAVOK TX16/0815Z TN05/0905Z"
    },
    {
      "icao": "LPFR",
      "alert": "OK",
      "vis_m": 9999,
      "fzfg": false,
      "metar_trigger": false,
      "taf_trigger": false,
      "metar": "METAR LPFR 081500Z 22008KT 9999 FEW030 16/11 Q1020",
      "taf": "TAF LPFR 081100Z 0812/0912 20007KT 9999 SCT035"
    },
    {
      "icao": "LPMA",
      "alert": "OK",
      "vis_m": 9999,
      "fzfg": false,
      "metar_trigger": false,
      "taf_trigger": false,
      "metar": "METAR LPMA 081500Z 01013KT 330V040 9999 SCT015 SCT030 16/08 Q1026",
      "taf": "TAF LPMA 081100Z 0812/0912 01012KT 9999 SCT015 SCT030"
    },
    {
      "icao": "LPPR",
      "alert": "OK",
      "vis_m": 9999,
      "fzfg": false,
      "metar_trigger": false,
      "taf_trigger": false,
      "metar": "METAR LPPR 081500Z 30007KT 260V340 9999 FEW012 13/09 Q1021",
      "taf": "TAF LPPR 081100Z 0812/0912 26005KT 9999 SCT018"
    },
    {
      "icao": "LPPS",
      "alert": "OK",
      "vis_m": 9999,
      "fzfg": false,
      "metar_trigger": false,
      "taf_trigger": false,
      "metar": "METAR LPPS 081500Z 36013KT 320V020 9999 SCT014 SCT030 15/09 Q1026",
      "taf": "TAF LPPS 081100Z 0812/0918 05010KT 9999 FEW013 BKN030"
    },
    {
      "icao": "LPPT",
      "alert": "OK",
      "vis_m": 9999,
      "fzfg": false,
      "metar_trigger": false,
      "taf_trigger": false,
      "metar": "METAR LPPT 081500Z 32011KT 280V350 9999 FEW026 BKN044 15/09 Q1021",
      "taf": "TAF LPPT 081100Z 0812/0918 33012KT 9999 FEW028"
    },
    {
      "icao": "LQBK",
      "alert": "OK",
      "vis_m": 9999,
      "fzfg": false,
      "metar_trigger": false,
      "taf_trigger": false,
      "metar": "METAR LQBK 081500Z 36007KT 330V030 CAVOK 18/M02 Q1025 NOSIG",
      "taf": ""
    },
    {
      "icao": "LQSA",
      "alert": "OK",
      "vis_m": 9999,
      "fzfg": false,
      "metar_trigger": false,
      "taf_trigger": false,
      "metar": "METAR LQSA 081500Z 11007KT 9999 SCT060 14/02 Q1024 NOSIG",
      "taf": ""
    },
    {
      "icao": "LQTZ",
      "alert": "OK",
      "vis_m": 9999,
      "fzfg": false,
      "metar_trigger": false,
      "taf_trigger": false,
      "metar": "METAR LQTZ 081500Z 09008KT 050V120 9999 FEW065 17/02 Q1025",
      "taf": "TAF LQTZ 081100Z 0812/0912 VRB02KT CAVOK TX18/0813Z TNM02/0905Z"
    },
    {
      "icao": "LRBC",
      "alert": "OK",
      "vis_m": 9999,
      "fzfg": false,
      "metar_trigger": false,
      "taf_trigger": false,
      "metar": "METAR LRBC 081500Z 33008KT CAVOK 12/M02 Q1031",
      "taf": "TAF LRBC 081400Z 0815/0824 01008KT CAVOK"
    },
    {
      "icao": "LRBS",
      "alert": "OK",
      "vis_m": 9999,
      "fzfg": false,
      "metar_trigger": false,
      "taf_trigger": false,
      "metar": "METAR LRBS 081500Z 10009KT 070V130 CAVOK 12/01 Q1031 NOSIG",
      "taf": "TAF LRBS 081100Z 0812/0912 08010KT CAVOK"
    },
    {
      "icao": "LRBV",
      "alert": "OK",
      "vis_m": 9999,
      "fzfg": false,
      "metar_trigger": false,
      "taf_trigger": false,
      "metar": "METAR LRBV 081500Z 08010KT CAVOK 11/M02 Q1028",
      "taf": "TAF LRBV 081400Z 0815/0824 08008KT CAVOK"
    },
    {
      "icao": "LRCL",
      "alert": "OK",
      "vis_m": 9999,
      "fzfg": false,
      "metar_trigger": false,
      "taf_trigger": false,
      "metar": "METAR LRCL 081500Z 13006KT 090V150 CAVOK 15/M04 Q1027",
      "taf": "TAF LRCL 081400Z 0815/0824 VRB04KT CAVOK"
    },
    {
      "icao": "LRCV",
      "alert": "OK",
      "vis_m": 9999,
      "fzfg": false,
      "metar_trigger": false,
      "taf_trigger": false,
      "metar": "METAR LRCV 081500Z 09009KT CAVOK 12/03 Q1029",
      "taf": "TAF LRCV 081400Z 0815/0824 08008KT CAVOK"
    },
    {
      "icao": "LRIA",
      "alert": "OK",
      "vis_m": 9999,
      "fzfg": false,
      "metar_trigger": false,
      "taf_trigger": false,
      "metar": "METAR LRIA 081500Z 01007KT CAVOK 13/M03 Q1031",
      "taf": "TAF LRIA 081400Z 0815/0824 01008KT CAVOK"
    },
    {
      "icao": "LROP",
      "alert": "OK",
      "vis_m": 9999,
      "fzfg": false,
      "metar_trigger": false,
      "taf_trigger": false,
      "metar": "METAR LROP 081500Z 11010KT CAVOK 12/M02 Q1030 NOSIG",
      "taf": "TAF LROP 081100Z 0812/0912 08010KT CAVOK"
    },
    {
      "icao": "LRSB",
      "alert": "OK",
      "vis_m": 9999,
      "fzfg": false,
      "metar_trigger": false,
      "taf_trigger": false,
      "metar": "METAR LRSB 081500Z 15009KT CAVOK 15/M00 Q1027",
      "taf": "TAF LRSB 081100Z 0812/0912 10008KT CAVOK"
    },
    {
      "icao": "LRSM",
      "alert": "OK",
      "vis_m": 9999,
      "fzfg": false,
      "metar_trigger": false,
      "taf_trigger": false,
      "metar": "METAR LRSM 081500Z 03005KT CAVOK 16/M00 Q1027",
      "taf": "TAF LRSM 081400Z 0815/0824 VRB04KT CAVOK"
    },
    {
      "icao": "LRSV",
      "alert": "OK",
      "vis_m": 9999,
      "fzfg": false,
      "metar_trigger": false,
      "taf_trigger": false,
      "metar": "METAR LRSV 081500Z 05006KT CAVOK 10/M03 Q1031",
      "taf": "TAF LRSV 081400Z 0815/0824 03006KT CAVOK"
    },
    {
      "icao": "LRTM",
      "alert": "OK",
      "vis_m": 9999,
      "fzfg": false,
      "metar_trigger": false,
      "taf_trigger": false,
      "metar": "METAR LRTM 081500Z VRB02KT CAVOK 16/M03 Q1027",
      "taf": "TAF LRTM 081400Z 0815/0824 VRB04KT CAVOK"
    },
    {
      "icao": "LRTR",
      "alert": "OK",
      "vis_m": 9999,
      "fzfg": false,
      "metar_trigger": false,
      "taf_trigger": false,
      "metar": "METAR LRTR 081500Z 36004KT 330V030 CAVOK 16/03 Q1026",
      "taf": "TAF LRTR 081100Z 0812/0912 31008KT CAVOK"
    },
    {
      "icao": "LTAC",
      "alert": "OK",
      "vis_m": 9999,
      "fzfg": false,
      "metar_trigger": false,
      "taf_trigger": false,
      "metar": "METAR LTAC 081520Z 05005KT CAVOK 07/M07 Q1023 NOSIG RMK RWY21C 03006KT RWY03L 04004KT 010V080 RWY21R 03006KT RWY03R 02006KT RWY21L 04005KT",
      "taf": "TAF LTAC 081040Z 0812/0912 03008KT 9999 SCT040"
    },
    {
      "icao": "LTFM",
      "alert": "OK",
      "vis_m": 9999,
      "fzfg": false,
      "metar_trigger": false,
      "taf_trigger": false,
      "metar": "METAR LTFM 081520Z 04016KT 9999 BKN028 07/03 Q1029 NOSIG RMK RWY17L 05013KT RWY34L 03014KT RWY16R 04014KT RWY36 05015KT RWY18 06013KT",
      "taf": "TAF LTFM 081040Z 0812/0918 05015KT 9999 BKN028"
    },
    {
      "icao": "LUKK",
      "alert": "OK",
      "vis_m": 9999,
      "fzfg": false,
      "metar_trigger": false,
      "taf_trigger": false,
      "metar": "METAR LUKK 081500Z 06008KT CAVOK 11/M01 Q1031 NOSIG",
      "taf": "TAF LUKK 081116Z 0812/0912 VRB05KT CAVOK"
    },
    {
      "icao": "LWOH",
      "alert": "OK",
      "vis_m": 9999,
      "fzfg": false,
      "metar_trigger": false,
      "taf_trigger": false,
      "metar": "METAR LWOH 081520Z 04006KT 340V070 9999 SCT040 BKN090 13/03 Q1024",
      "taf": "TAF LWOH 081445Z 0815/0915 VRB02KT 9999 SCT040 BKN090"
    },
    {
      "icao": "LWSK",
      "alert": "OK",
      "vis_m": 9999,
      "fzfg": false,
      "metar_trigger": false,
      "taf_trigger": false,
      "metar": "METAR LWSK 081520Z 36005KT 310V030 9999 SCT100 18/05 Q1024 NOSIG",
      "taf": "TAF LWSK 081445Z 0815/0915 VRB02KT 9999 SCT050 SCT100"
    },
    {
      "icao": "LYBE",
      "alert": "OK",
      "vis_m": 9999,
      "fzfg": false,
      "metar_trigger": false,
      "taf_trigger": false,
      "metar": "METAR LYBE 081500Z 08008KT 050V110 CAVOK 17/01 Q1026 NOSIG",
      "taf": "TAF LYBE 081100Z 0812/0912 10008KT CAVOK TX19/0813Z TN06/0905Z"
    },
    {
      "icao": "LYNI",
      "alert": "OK",
      "vis_m": 9999,
      "fzfg": false,
      "metar_trigger": false,
      "taf_trigger": false,
      "metar": "METAR LYNI 081500Z 05009KT 010V070 CAVOK 16/02 Q1025 NOSIG",
      "taf": "TAF LYNI 081100Z 0812/0912 05008KT CAVOK TX18/0813Z TN04/0905Z"
    },
    {
      "icao": "LYPG",
      "alert": "OK",
      "vis_m": 9999,
      "fzfg": false,
      "metar_trigger": false,
      "taf_trigger": false,
      "metar": "METAR LYPG 081500Z 16003KT 110V220 9999 FEW043 19/03 Q1023 NOSIG",
      "taf": "TAF LYPG 081100Z 0812/0912 17007KT 9999 SCT050 TX18/0813Z TN07/0905Z"
    },
    {
      "icao": "LZIB",
      "alert": "OK",
      "vis_m": 9999,
      "fzfg": false,
      "metar_trigger": false,
      "taf_trigger": false,
      "metar": "METAR LZIB 081530Z 13005KT CAVOK 15/M01 Q1026 NOSIG",
      "taf": "TAF LZIB 081115Z 0812/0912 07008KT CAVOK"
    },
    {
      "icao": "LZKZ",
      "alert": "OK",
      "vis_m": 9999,
      "fzfg": false,
      "metar_trigger": false,
      "taf_trigger": false,
      "metar": "METAR LZKZ 081530Z 07005KT CAVOK 13/M02 Q1028 NOSIG",
      "taf": "TAF LZKZ 081115Z 0812/0912 01010KT CAVOK"
    },
    {
      "icao": "LZTT",
      "alert": "OK",
      "vis_m": 9999,
      "fzfg": false,
      "metar_trigger": false,
      "taf_trigger": false,
      "metar": "METAR LZTT 081530Z VRB02KT CAVOK 10/M01 Q1028 NOSIG",
      "taf": "TAF LZTT 081115Z 0812/0912 10008KT CAVOK"
    },
    {
      "icao": "OEJN",
      "alert": "OK",
      "vis_m": 9999,
      "fzfg": false,
      "metar_trigger": false,
      "taf_trigger": false,
      "metar": "METAR OEJN 081500Z 33014KT CAVOK 26/13 Q1011 NOSIG",
      "taf": "TAF OEJN 081100Z 0812/0918 30012KT CAVOK"
    },
    {
      "icao": "OEMA",
      "alert": "OK",
      "vis_m": 9999,
      "fzfg": false,
      "metar_trigger": false,
      "taf_trigger": false,
      "metar": "METAR OEMA 081500Z 28006KT CAVOK 27/M07 Q1013 NOSIG",
      "taf": "TAF OEMA 081100Z 0812/0918 27008KT CAVOK"
    },
    {
      "icao": "OJAI",
      "alert": "OK",
      "vis_m": null,
      "fzfg": false,
      "metar_trigger": false,
      "taf_trigger": false,
      "metar": "",
      "taf": "TAF OJAI 081035Z 0812/0918 30010KT 5000 HZ FEW030"
    },
    {
      "icao": "OMAA",
      "alert": "OK",
      "vis_m": null,
      "fzfg": false,
      "metar_trigger": false,
      "taf_trigger": false,
      "metar": "",
      "taf": ""
    },
    {
      "icao": "OMDB",
      "alert": "OK",
      "vis_m": null,
      "fzfg": false,
      "metar_trigger": false,
      "taf_trigger": false,
      "metar": "",
      "taf": ""
    },
    {
      "icao": "UAAA",
      "alert": "OK",
      "vis_m": 2600,
      "fzfg": false,
      "metar_trigger": false,
      "taf_trigger": false,
      "metar": "METAR UAAA 081500Z 17002MPS 2600 BR FU SCT100 OVC200 08/03 Q1021 NOSIG",
      "taf": "TAF UAAA 081101Z 0812/0912 17003MPS 3100 BR FU SCT050 BKN100 TX15/0909Z TN02/0902Z"
    },
    {
      "icao": "UBBB",
      "alert": "OK",
      "vis_m": 9999,
      "fzfg": false,
      "metar_trigger": false,
      "taf_trigger": false,
      "metar": "METAR UBBB 081530Z 02006KT CAVOK 06/02 Q1025 NOSIG",
      "taf": "TAF UBBB 081055Z 0812/0912 04010KT 9999 BKN020 TX07/0812Z TN04/0901Z"
    },
    {
      "icao": "UDSG",
      "alert": "OK",
      "vis_m": 9999,
      "fzfg": false,
      "metar_trigger": false,
      "taf_trigger": false,
      "metar": "METAR UDSG 081500Z 35008KT 9999 BKN049 M02/M09 Q1020 NOSIG",
      "taf": "TAF UDSG 081058Z 0812/0912 VRB06KT 9999 BKN040"
    },
    {
      "icao": "UDYZ",
      "alert": "OK",
      "vis_m": 9999,
      "fzfg": false,
      "metar_trigger": false,
      "taf_trigger": false,
      "metar": "METAR UDYZ 081500Z 34001KT 9999 FEW046 04/M02 Q1019 NOSIG",
      "taf": "TAF UDYZ 081100Z 0812/0912 22006KT 9999 BKN030"
    },
    {
      "icao": "UGKO",
      "alert": "OK",
      "vis_m": 9999,
      "fzfg": false,
      "metar_trigger": false,
      "taf_trigger": false,
      "metar": "METAR UGKO 081500Z 23010KT 9999 SCT034 BKN089 06/02 Q1027 NOSIG",
      "taf": "TAF UGKO 081100Z 0812/0912 25010KT 9999 SCT024 BKN050 TX08/0812Z TN02/0903Z"
    }
  ]
}