{
  "ts_utc": "2026-05-30T20:08:06Z",
  "threshold_m": 150,
  "source": "stations_override.txt (ICAO list) + aviationweather.gov (METAR/TAF raw)",
  "station_count": 159,
  "stations": [
    {
      "icao": "BIKF",
      "alert": "OK",
      "vis_m": 9999,
      "fzfg": false,
      "metar_trigger": false,
      "taf_trigger": false,
      "metar": "METAR BIKF 302000Z 03008KT 9999 -DZ FEW022 BKN033 OVC044 08/07 Q1006",
      "taf": "TAF BIKF 301958Z 3021/3121 04008KT 9999 -RA FEW018 BKN040 TX12/3112Z TN07/3100Z"
    },
    {
      "icao": "BKPR",
      "alert": "OK",
      "vis_m": 9999,
      "fzfg": false,
      "metar_trigger": false,
      "taf_trigger": false,
      "metar": "METAR BKPR 302000Z 31005KT 9999 BKN085 19/08 Q1017 NOSIG",
      "taf": "TAF BKPR 301730Z 3018/3118 29008KT CAVOK"
    },
    {
      "icao": "EBCI",
      "alert": "OK",
      "vis_m": 9999,
      "fzfg": false,
      "metar_trigger": false,
      "taf_trigger": false,
      "metar": "METAR EBCI 301950Z 09011KT 9999 -SHRA FEW025CB BKN040 18/15 Q1017 RETS TEMPO 15015G27KT 2500 TSRA",
      "taf": "TAF EBCI 301700Z 3018/3124 VRB04KT 9999 FEW040CB"
    },
    {
      "icao": "EDDB",
      "alert": "OK",
      "vis_m": 9999,
      "fzfg": false,
      "metar_trigger": false,
      "taf_trigger": false,
      "metar": "METAR EDDB 301950Z AUTO 27005KT CAVOK 20/13 Q1016 NOSIG",
      "taf": "TAF EDDB 301700Z 3018/3118 30012KT CAVOK"
    },
    {
      "icao": "EDDH",
      "alert": "OK",
      "vis_m": 9999,
      "fzfg": false,
      "metar_trigger": false,
      "taf_trigger": false,
      "metar": "METAR EDDH 301950Z AUTO 29006KT CAVOK 16/10 Q1017 NOSIG",
      "taf": "TAF EDDH 301700Z 3018/3124 30011KT CAVOK"
    },
    {
      "icao": "EDDK",
      "alert": "OK",
      "vis_m": 9999,
      "fzfg": false,
      "metar_trigger": false,
      "taf_trigger": false,
      "metar": "METAR EDDK 301950Z AUTO 07004KT CAVOK 21/17 Q1016 NOSIG",
      "taf": "TAF EDDK 301700Z 3018/3124 VRB03KT CAVOK"
    },
    {
      "icao": "EDDN",
      "alert": "OK",
      "vis_m": 9999,
      "fzfg": false,
      "metar_trigger": false,
      "taf_trigger": false,
      "metar": "METAR EDDN 301950Z AUTO 27004KT CAVOK 22/13 Q1018 NOSIG",
      "taf": ""
    },
    {
      "icao": "EDDS",
      "alert": "OK",
      "vis_m": 9999,
      "fzfg": false,
      "metar_trigger": false,
      "taf_trigger": false,
      "metar": "METAR EDDS 301950Z AUTO VRB02KT CAVOK 23/12 Q1018 NOSIG",
      "taf": "TAF EDDS 301700Z 3018/3118 01006KT CAVOK"
    },
    {
      "icao": "EDFH",
      "alert": "OK",
      "vis_m": 9999,
      "fzfg": false,
      "metar_trigger": false,
      "taf_trigger": false,
      "metar": "METAR EDFH 301950Z 18004KT 140V220 CAVOK 18/14 Q1019",
      "taf": ""
    },
    {
      "icao": "EDJA",
      "alert": "OK",
      "vis_m": 9999,
      "fzfg": false,
      "metar_trigger": false,
      "taf_trigger": false,
      "metar": "METAR EDJA 301950Z 07003KT CAVOK 20/13 Q1020",
      "taf": "TAF EDJA 301700Z 3018/3103 04006KT CAVOK"
    },
    {
      "icao": "EDLW",
      "alert": "OK",
      "vis_m": 9999,
      "fzfg": false,
      "metar_trigger": false,
      "taf_trigger": false,
      "metar": "METAR EDLW 301950Z 08006KT CAVOK 20/14 Q1017",
      "taf": "TAF EDLW 301700Z 3018/3118 VRB03KT CAVOK"
    },
    {
      "icao": "EDNY",
      "alert": "OK",
      "vis_m": 9999,
      "fzfg": false,
      "metar_trigger": false,
      "taf_trigger": false,
      "metar": "METAR EDNY 301950Z 01004KT 320V060 CAVOK 21/12 Q1018",
      "taf": ""
    },
    {
      "icao": "EDSB",
      "alert": "OK",
      "vis_m": 9999,
      "fzfg": false,
      "metar_trigger": false,
      "taf_trigger": false,
      "metar": "METAR EDSB 301950Z 00000KT CAVOK 24/16 Q1017",
      "taf": "TAF EDSB 301700Z 3018/3118 02005KT CAVOK"
    },
    {
      "icao": "EETN",
      "alert": "OK",
      "vis_m": 9999,
      "fzfg": false,
      "metar_trigger": false,
      "taf_trigger": false,
      "metar": "METAR EETN 301950Z 25003KT CAVOK 13/05 Q1009 NOSIG",
      "taf": "TAF EETN 301730Z 3018/3118 30010KT CAVOK"
    },
    {
      "icao": "EFTU",
      "alert": "OK",
      "vis_m": 9999,
      "fzfg": false,
      "metar_trigger": false,
      "taf_trigger": false,
      "metar": "METAR EFTU 301950Z AUTO 31004KT CAVOK 14/02 Q1009",
      "taf": "TAF EFTU 301729Z 3018/3118 32006KT CAVOK"
    },
    {
      "icao": "EGBB",
      "alert": "OK",
      "vis_m": 9999,
      "fzfg": false,
      "metar_trigger": false,
      "taf_trigger": false,
      "metar": "METAR EGBB 301950Z 24004KT CAVOK 21/08 Q1016",
      "taf": "TAF EGBB 301655Z 3018/3118 26006KT CAVOK"
    },
    {
      "icao": "EGGP",
      "alert": "OK",
      "vis_m": 9999,
      "fzfg": false,
      "metar_trigger": false,
      "taf_trigger": false,
      "metar": "METAR EGGP 301950Z 31008KT 9999 VCSH FEW036 16/10 Q1017",
      "taf": ""
    },
    {
      "icao": "EGGW",
      "alert": "OK",
      "vis_m": 9999,
      "fzfg": false,
      "metar_trigger": false,
      "taf_trigger": false,
      "metar": "METAR EGGW 301950Z AUTO 36004KT 300V020 9999 NCD 22/10 Q1016",
      "taf": "TAF EGGW 301659Z 3018/3118 27006KT CAVOK"
    },
    {
      "icao": "EGKK",
      "alert": "OK",
      "vis_m": 9999,
      "fzfg": false,
      "metar_trigger": false,
      "taf_trigger": false,
      "metar": "METAR EGKK 301950Z 22005KT CAVOK 22/12 Q1016",
      "taf": "TAF EGKK 301701Z 3018/3124 26007KT CAVOK"
    },
    {
      "icao": "EGNM",
      "alert": "OK",
      "vis_m": 9999,
      "fzfg": false,
      "metar_trigger": false,
      "taf_trigger": false,
      "metar": "METAR EGNM 301950Z 28009KT CAVOK 16/09 Q1016",
      "taf": "TAF EGNM 301658Z 3018/3118 29010KT CAVOK"
    },
    {
      "icao": "EGPD",
      "alert": "OK",
      "vis_m": 9999,
      "fzfg": false,
      "metar_trigger": false,
      "taf_trigger": false,
      "metar": "METAR EGPD 301950Z COR AUTO 15005KT 100V180 9999 NCD 14/11 Q1014 NOSIG",
      "taf": "TAF EGPD 301656Z 3018/3118 18009KT 9999 SCT030"
    },
    {
      "icao": "EGPF",
      "alert": "OK",
      "vis_m": 9999,
      "fzfg": false,
      "metar_trigger": false,
      "taf_trigger": false,
      "metar": "METAR EGPF 301950Z AUTO 35004KT 9999 BKN037/// //////TCU 13/12 Q1015",
      "taf": ""
    },
    {
      "icao": "EHBK",
      "alert": "OK",
      "vis_m": 9999,
      "fzfg": false,
      "metar_trigger": false,
      "taf_trigger": false,
      "metar": "METAR EHBK 301955Z AUTO 22006KT 200V260 9999 NSC 23/18 Q1017 TEMPO 3000 TSRA SHRA SCT050CB",
      "taf": "TAF EHBK 301715Z 3018/3124 VRB02KT CAVOK"
    },
    {
      "icao": "EHEH",
      "alert": "OK",
      "vis_m": 9999,
      "fzfg": false,
      "metar_trigger": false,
      "taf_trigger": false,
      "metar": "METAR EHEH 301955Z AUTO 09005KT 350V130 9999 OVC230 23/12 Q1016 BLU NOSIG RMK TREND REMOTE BY EHWX",
      "taf": "TAF EHEH 301732Z 3018/3124 07005KT CAVOK"
    },
    {
      "icao": "EKBI",
      "alert": "OK",
      "vis_m": 9999,
      "fzfg": false,
      "metar_trigger": false,
      "taf_trigger": false,
      "metar": "METAR EKBI 301950Z AUTO 28009KT 9999 BKN013/// 13/10 Q1016",
      "taf": ""
    },
    {
      "icao": "EKCH",
      "alert": "OK",
      "vis_m": 9999,
      "fzfg": false,
      "metar_trigger": false,
      "taf_trigger": false,
      "metar": "METAR EKCH 301950Z AUTO 31011KT 270V330 9999 FEW028/// OVC045/// 16/09 Q1014 NOSIG",
      "taf": "TAF EKCH 301727Z 3018/3118 30013KT 9999 BKN040"
    },
    {
      "icao": "ENAL",
      "alert": "OK",
      "vis_m": 9999,
      "fzfg": false,
      "metar_trigger": false,
      "taf_trigger": false,
      "metar": "METAR ENAL 301950Z 00000KT 9999 8000W -RADZ FEW004 BKN016 11/10 Q1015",
      "taf": "TAF ENAL 301700Z 3018/3103 32005KT 9999 SCT004 BKN012"
    },
    {
      "icao": "ENBR",
      "alert": "OK",
      "vis_m": 9999,
      "fzfg": false,
      "metar_trigger": false,
      "taf_trigger": false,
      "metar": "METAR ENBR 301950Z 20005KT 9999 FEW010 BKN020 11/09 Q1015 RMK WIND 1200FT VRB02KT",
      "taf": "TAF ENBR 301700Z 3018/3118 22005KT 9999 SCT006 BKN016"
    },
    {
      "icao": "ENGM",
      "alert": "OK",
      "vis_m": 9999,
      "fzfg": false,
      "metar_trigger": false,
      "taf_trigger": false,
      "metar": "METAR ENGM 301950Z 36007KT CAVOK 18/07 Q1011 NOSIG",
      "taf": "TAF ENGM 301700Z 3018/3118 36010KT CAVOK"
    },
    {
      "icao": "ENHD",
      "alert": "OK",
      "vis_m": 9999,
      "fzfg": false,
      "metar_trigger": false,
      "taf_trigger": false,
      "metar": "METAR ENHD 301950Z 29006KT 9999 SCT020 BKN028 11/10 Q1015",
      "taf": ""
    },
    {
      "icao": "ENTC",
      "alert": "OK",
      "vis_m": 9999,
      "fzfg": false,
      "metar_trigger": false,
      "taf_trigger": false,
      "metar": "METAR ENTC 301950Z 02008KT 350V050 9999 FEW035 07/00 Q1020 RMK WIND 2600FT 35008KT",
      "taf": "TAF ENTC 301700Z 3018/3118 01009KT 9999 SCT040"
    },
    {
      "icao": "ENTO",
      "alert": "OK",
      "vis_m": 9999,
      "fzfg": false,
      "metar_trigger": false,
      "taf_trigger": false,
      "metar": "METAR ENTO 301950Z 22003KT CAVOK 19/09 Q1011 NOSIG",
      "taf": "TAF ENTO 301700Z 3018/3118 18010KT CAVOK"
    },
    {
      "icao": "ENVA",
      "alert": "OK",
      "vis_m": 9999,
      "fzfg": false,
      "metar_trigger": false,
      "taf_trigger": false,
      "metar": "METAR ENVA 301950Z 30005KT 9999 BKN037 13/10 Q1015 RMK WIND 670FT 29006KT",
      "taf": "TAF ENVA 301700Z 3018/3118 27008KT 9999 SCT020 BKN025"
    },
    {
      "icao": "ENZV",
      "alert": "OK",
      "vis_m": 9999,
      "fzfg": false,
      "metar_trigger": false,
      "taf_trigger": false,
      "metar": "METAR ENZV 301950Z 30005KT 9999 FEW009 BKN011 12/10 Q1015 TEMPO BKN006",
      "taf": "TAF ENZV 301700Z 3018/3118 30008KT 8000 SCT006 BKN018"
    },
    {
      "icao": "EPGD",
      "alert": "OK",
      "vis_m": 9999,
      "fzfg": false,
      "metar_trigger": false,
      "taf_trigger": false,
      "metar": "METAR EPGD 302000Z 28010KT 9999 FEW046 14/11 Q1012",
      "taf": "TAF EPGD 301730Z 3018/3118 31015KT 9999 SCT038"
    },
    {
      "icao": "EPKK",
      "alert": "OK",
      "vis_m": 9999,
      "fzfg": false,
      "metar_trigger": false,
      "taf_trigger": false,
      "metar": "METAR EPKK 302000Z 23004KT 9999 FEW050 14/13 Q1013",
      "taf": "TAF EPKK 301730Z 3018/3118 26007KT 9999 BKN040"
    },
    {
      "icao": "EPKT",
      "alert": "OK",
      "vis_m": 2300,
      "fzfg": false,
      "metar_trigger": false,
      "taf_trigger": false,
      "metar": "METAR EPKT 302000Z 29004KT 2300 0450NE R26/1100U PRFG BR FEW048 13/13 Q1014",
      "taf": ""
    },
    {
      "icao": "EPLB",
      "alert": "OK",
      "vis_m": 9999,
      "fzfg": false,
      "metar_trigger": false,
      "taf_trigger": false,
      "metar": "METAR EPLB 302000Z 30007KT 9999 FEW033 18/14 Q1010",
      "taf": "TAF EPLB 301730Z 3018/3118 30010KT CAVOK"
    },
    {
      "icao": "EPMO",
      "alert": "OK",
      "vis_m": 9999,
      "fzfg": false,
      "metar_trigger": false,
      "taf_trigger": false,
      "metar": "METAR EPMO 302000Z 01005KT 330V040 9999 SCT045 17/11 Q1011",
      "taf": "TAF EPMO 301730Z 3018/3118 29012KT 9999 SCT030"
    },
    {
      "icao": "EPPO",
      "alert": "OK",
      "vis_m": 9999,
      "fzfg": false,
      "metar_trigger": false,
      "taf_trigger": false,
      "metar": "METAR EPPO 302000Z 31007KT 9999 OVC044 17/11 Q1015",
      "taf": "TAF EPPO 301730Z 3018/3118 33010KT CAVOK"
    },
    {
      "icao": "EPRA",
      "alert": "OK",
      "vis_m": 9999,
      "fzfg": false,
      "metar_trigger": false,
      "taf_trigger": false,
      "metar": "METAR EPRA 302000Z 30006KT CAVOK 18/13 Q1011",
      "taf": "TAF EPRA 301730Z 3018/3103 30008KT 9999 SCT040"
    },
    {
      "icao": "EPRZ",
      "alert": "OK",
      "vis_m": 9999,
      "fzfg": false,
      "metar_trigger": false,
      "taf_trigger": false,
      "metar": "METAR EPRZ 302000Z 26010KT 9999 FEW023CB 16/15 Q1011",
      "taf": "TAF EPRZ 301730Z 3018/3118 27007KT 9999 BKN007"
    },
    {
      "icao": "EPSC",
      "alert": "OK",
      "vis_m": 9999,
      "fzfg": false,
      "metar_trigger": false,
      "taf_trigger": false,
      "metar": "METAR EPSC 302000Z 28009KT 9999 FEW032 OVC048 17/11 Q1015",
      "taf": "TAF EPSC 301730Z 3018/3118 30010KT 9999 BKN035"
    },
    {
      "icao": "EPSY",
      "alert": "OK",
      "vis_m": 9999,
      "fzfg": false,
      "metar_trigger": false,
      "taf_trigger": false,
      "metar": "METAR EPSY 302000Z 32004KT 300V360 CAVOK 15/10 Q1011",
      "taf": "TAF EPSY 301730Z 3018/3103 32010KT 9999 SCT040"
    },
    {
      "icao": "EPWA",
      "alert": "OK",
      "vis_m": 9999,
      "fzfg": false,
      "metar_trigger": false,
      "taf_trigger": false,
      "metar": "METAR EPWA 302000Z 35008KT 9999 FEW048 19/12 Q1011 NOSIG",
      "taf": "TAF EPWA 301730Z 3018/3118 30012KT 9999 SCT030"
    },
    {
      "icao": "EPWR",
      "alert": "OK",
      "vis_m": 9999,
      "fzfg": false,
      "metar_trigger": false,
      "taf_trigger": false,
      "metar": "METAR EPWR 302000Z 33008KT CAVOK 19/09 Q1015",
      "taf": "TAF EPWR 301730Z 3018/3118 33015KT CAVOK"
    },
    {
      "icao": "ESGG",
      "alert": "OK",
      "vis_m": 9999,
      "fzfg": false,
      "metar_trigger": false,
      "taf_trigger": false,
      "metar": "METAR ESGG 301950Z 24006KT 9999 FEW011 13/11 Q1012",
      "taf": "TAF ESGG 301730Z 3018/3118 27011KT 9999 SCT015"
    },
    {
      "icao": "ESKN",
      "alert": "OK",
      "vis_m": 9999,
      "fzfg": false,
      "metar_trigger": false,
      "taf_trigger": false,
      "metar": "METAR ESKN 301950Z 07003KT CAVOK 12/10 Q1010",
      "taf": ""
    },
    {
      "icao": "ESMS",
      "alert": "OK",
      "vis_m": 9999,
      "fzfg": false,
      "metar_trigger": false,
      "taf_trigger": false,
      "metar": "METAR ESMS 301950Z 31008KT CAVOK 15/11 Q1013",
      "taf": "TAF ESMS 301727Z 3018/3118 30010KT 9999 BKN040"
    },
    {
      "icao": "ESSA",
      "alert": "OK",
      "vis_m": 9999,
      "fzfg": false,
      "metar_trigger": false,
      "taf_trigger": false,
      "metar": "METAR ESSA 301950Z 21005KT CAVOK 15/05 Q1010 NOSIG",
      "taf": "TAF ESSA 301730Z 3018/3118 20010KT CAVOK"
    },
    {
      "icao": "EYKA",
      "alert": "OK",
      "vis_m": 9999,
      "fzfg": false,
      "metar_trigger": false,
      "taf_trigger": false,
      "metar": "METAR EYKA 301950Z 06001KT CAVOK 12/08 Q1008",
      "taf": "TAF EYKA 301703Z 3018/3118 VRB03KT 9000 NSC"
    },
    {
      "icao": "EYPA",
      "alert": "OK",
      "vis_m": 9999,
      "fzfg": false,
      "metar_trigger": false,
      "taf_trigger": false,
      "metar": "METAR EYPA 301950Z 00000KT CAVOK 08/07 Q1010",
      "taf": "TAF EYPA 301703Z 3018/3118 VRB03KT 9000 NSC"
    },
    {
      "icao": "EYVI",
      "alert": "OK",
      "vis_m": 9999,
      "fzfg": false,
      "metar_trigger": false,
      "taf_trigger": false,
      "metar": "METAR EYVI 301950Z 27004KT CAVOK 14/07 Q1008 NOSIG",
      "taf": "TAF EYVI 301703Z 3018/3118 VRB03KT 9000 SCT045"
    },
    {
      "icao": "GCFV",
      "alert": "OK",
      "vis_m": 9999,
      "fzfg": false,
      "metar_trigger": false,
      "taf_trigger": false,
      "metar": "METAR GCFV 302000Z 36017KT 9999 OVC025 22/15 Q1020",
      "taf": "TAF GCFV 301400Z 3015/3115 03014KT 9999 SCT020 TX24/3114Z TN18/3106Z"
    },
    {
      "icao": "GCLP",
      "alert": "OK",
      "vis_m": 9999,
      "fzfg": false,
      "metar_trigger": false,
      "taf_trigger": false,
      "metar": "METAR GCLP 302000Z 36024KT 9999 BKN025 21/14 Q1021 NOSIG",
      "taf": "TAF GCLP 301400Z 3015/3115 36025KT 9999 BKN020 TX23/3114Z TN18/3106Z"
    },
    {
      "icao": "GCTS",
      "alert": "OK",
      "vis_m": 9999,
      "fzfg": false,
      "metar_trigger": false,
      "taf_trigger": false,
      "metar": "METAR GCTS 302000Z 07013KT 9999 FEW030 21/14 Q1021 NOSIG",
      "taf": "TAF GCTS 301400Z 3015/3115 09022KT 9999 FEW030 TX25/3114Z TN17/3106Z"
    },
    {
      "icao": "GMAD",
      "alert": "OK",
      "vis_m": 8000,
      "fzfg": false,
      "metar_trigger": false,
      "taf_trigger": false,
      "metar": "METAR GMAD 302000Z 19010KT 8000 SCT016 20/16 Q1017 NOSIG",
      "taf": "TAF GMAD 301700Z 3018/3124 20010KT 8000 BKN016"
    },
    {
      "icao": "GMMN",
      "alert": "OK",
      "vis_m": 9999,
      "fzfg": false,
      "metar_trigger": false,
      "taf_trigger": false,
      "metar": "METAR GMMN 302000Z 32006KT CAVOK 21/17 Q1019 NOSIG",
      "taf": "TAF GMMN 301700Z 3018/3124 34010KT CAVOK"
    },
    {
      "icao": "GMMX",
      "alert": "OK",
      "vis_m": 8000,
      "fzfg": false,
      "metar_trigger": false,
      "taf_trigger": false,
      "metar": "METAR GMMX 302000Z 01008KT 310V050 8000 SCT026 FEW030TCU 28/17 Q1018 NOSIG",
      "taf": "TAF GMMX 301700Z 3018/3124 06006KT 8000 SCT033 SCT100"
    },
    {
      "icao": "HEGN",
      "alert": "OK",
      "vis_m": 9999,
      "fzfg": false,
      "metar_trigger": false,
      "taf_trigger": false,
      "metar": "METAR HEGN 301900Z 32012KT CAVOK 29/11 Q1010 NOSIG",
      "taf": "TAF HEGN 301700Z 3018/3124 32015KT CAVOK"
    },
    {
      "icao": "HEMA",
      "alert": "OK",
      "vis_m": 9999,
      "fzfg": false,
      "metar_trigger": false,
      "taf_trigger": false,
      "metar": "METAR HEMA 301900Z 35008KT CAVOK 28/05 Q1010 NOSIG",
      "taf": "TAF HEMA 301700Z 3018/3124 33008G20KT CAVOK"
    },
    {
      "icao": "HESH",
      "alert": "OK",
      "vis_m": 9999,
      "fzfg": false,
      "metar_trigger": false,
      "taf_trigger": false,
      "metar": "METAR HESH 301900Z 34010KT CAVOK 31/10 Q1009 NOSIG",
      "taf": "TAF HESH 301700Z 3018/3124 34013KT CAVOK"
    },
    {
      "icao": "HESX",
      "alert": "OK",
      "vis_m": 9999,
      "fzfg": false,
      "metar_trigger": false,
      "taf_trigger": false,
      "metar": "METAR HESX 301900Z 36009KT CAVOK 26/13 Q1013 NOSIG",
      "taf": "TAF HESX 301700Z 3018/3124 35010KT CAVOK"
    },
    {
      "icao": "LATI",
      "alert": "OK",
      "vis_m": 9999,
      "fzfg": false,
      "metar_trigger": false,
      "taf_trigger": false,
      "metar": "METAR LATI 301950Z 00000KT CAVOK 18/11 Q1017 NOSIG",
      "taf": "TAF LATI 301700Z 3018/3118 33008KT CAVOK TX31/3111Z TN13/3104Z"
    },
    {
      "icao": "LBPD",
      "alert": "OK",
      "vis_m": 9999,
      "fzfg": false,
      "metar_trigger": false,
      "taf_trigger": false,
      "metar": "METAR LBPD 302000Z AUTO VRB02KT 9999 NCD 18/08 Q1014",
      "taf": "TAF LBPD 301700Z 3018/3118 28015KT 9999 SCT080"
    },
    {
      "icao": "LBSF",
      "alert": "OK",
      "vis_m": 9999,
      "fzfg": false,
      "metar_trigger": false,
      "taf_trigger": false,
      "metar": "METAR LBSF 302000Z AUTO 30004KT 9999 NSC 17/07 Q1016 NOSIG",
      "taf": "TAF LBSF 301700Z 3018/3118 30012KT 9999 SCT070"
    },
    {
      "icao": "LBWN",
      "alert": "OK",
      "vis_m": 9999,
      "fzfg": false,
      "metar_trigger": false,
      "taf_trigger": false,
      "metar": "METAR LBWN 302000Z AUTO 00000KT 9999 NCD 13/13 Q1013 NOSIG",
      "taf": "TAF LBWN 301700Z 3018/3118 11010KT 9999 SCT045"
    },
    {
      "icao": "LCLK",
      "alert": "OK",
      "vis_m": 9999,
      "fzfg": false,
      "metar_trigger": false,
      "taf_trigger": false,
      "metar": "METAR LCLK 302000Z 20007KT CAVOK 21/20 Q1012 NOSIG",
      "taf": "TAF LCLK 301730Z 3018/3118 20010KT 9999 FEW030"
    },
    {
      "icao": "LCPH",
      "alert": "OK",
      "vis_m": 8000,
      "fzfg": false,
      "metar_trigger": false,
      "taf_trigger": false,
      "metar": "METAR LCPH 302000Z AUTO 00000KT 8000 OVC015 22/19 Q1012 NOSIG",
      "taf": "TAF LCPH 301730Z 3018/3118 05007KT 9999 FEW009"
    },
    {
      "icao": "LEAL",
      "alert": "OK",
      "vis_m": 9999,
      "fzfg": false,
      "metar_trigger": false,
      "taf_trigger": false,
      "metar": "METAR LEAL 302000Z 10003KT 070V140 CAVOK 24/15 Q1018 NOSIG",
      "taf": "TAF LEAL 301700Z 3018/3118 18010KT CAVOK TX30/3112Z TN19/3106Z"
    },
    {
      "icao": "LEBB",
      "alert": "OK",
      "vis_m": 9999,
      "fzfg": false,
      "metar_trigger": false,
      "taf_trigger": false,
      "metar": "METAR LEBB 302000Z 32007KT 290V350 9999 FEW021 BKN029 18/16 Q1024 NOSIG",
      "taf": "TAF LEBB 301700Z 3018/3118 32009KT 9000 BKN016 TX22/3113Z TN15/3105Z"
    },
    {
      "icao": "LEBL",
      "alert": "OK",
      "vis_m": 9999,
      "fzfg": false,
      "metar_trigger": false,
      "taf_trigger": false,
      "metar": "METAR LEBL 302000Z VRB02KT 9999 FEW025 23/19 Q1019 NOSIG",
      "taf": "TAF LEBL 301700Z 3018/3118 12007KT 9999 FEW010 TX27/3112Z TN20/3105Z"
    },
    {
      "icao": "LECH",
      "alert": "OK",
      "vis_m": 9999,
      "fzfg": false,
      "metar_trigger": false,
      "taf_trigger": false,
      "metar": "METAR LECH 302000Z AUTO 10006KT 070V130 CAVOK 20/19 Q1020",
      "taf": "TAF LECH 301700Z 3018/3118 10010KT CAVOK TX32/3113Z TN16/3106Z"
    },
    {
      "icao": "LEMD",
      "alert": "OK",
      "vis_m": 9999,
      "fzfg": false,
      "metar_trigger": false,
      "taf_trigger": false,
      "metar": "METAR LEMD 302000Z 26007KT 230V290 CAVOK 31/07 Q1019 NOSIG",
      "taf": "TAF LEMD 301700Z 3018/3124 VRB04KT CAVOK TX36/3116Z TN17/3105Z"
    },
    {
      "icao": "LEMG",
      "alert": "OK",
      "vis_m": 9999,
      "fzfg": false,
      "metar_trigger": false,
      "taf_trigger": false,
      "metar": "METAR LEMG 302000Z 00000KT CAVOK 22/15 Q1018 NOSIG",
      "taf": "TAF LEMG 301700Z 3018/3118 13010KT CAVOK TX29/3114Z TN17/3106Z"
    },
    {
      "icao": "LEVC",
      "alert": "OK",
      "vis_m": 9999,
      "fzfg": false,
      "metar_trigger": false,
      "taf_trigger": false,
      "metar": "METAR LEVC 302000Z 13005KT 100V170 CAVOK 24/19 Q1018 NOSIG",
      "taf": "TAF LEVC 301700Z 3018/3118 06012KT 9999 FEW015 TX31/3112Z TN19/3106Z"
    },
    {
      "icao": "LEXJ",
      "alert": "OK",
      "vis_m": 9999,
      "fzfg": false,
      "metar_trigger": false,
      "taf_trigger": false,
      "metar": "METAR LEXJ 302000Z 26005KT 9999 FEW030 17/14 Q1024",
      "taf": "TAF LEXJ 301400Z 3015/3115 29009KT 9999 BKN018 TX23/3114Z TN15/3105Z"
    },
    {
      "icao": "LEZG",
      "alert": "OK",
      "vis_m": 9999,
      "fzfg": false,
      "metar_trigger": false,
      "taf_trigger": false,
      "metar": "METAR LEZG 302000Z 27007KT CAVOK 30/14 Q1017 NOSIG",
      "taf": "TAF LEZG 301700Z 3018/3118 32012KT CAVOK TX33/3115Z TN17/3106Z"
    },
    {
      "icao": "LEZL",
      "alert": "OK",
      "vis_m": 9999,
      "fzfg": false,
      "metar_trigger": false,
      "taf_trigger": false,
      "metar": "METAR LEZL 302000Z 22009KT CAVOK 30/14 Q1017 NOSIG",
      "taf": "TAF LEZL 301400Z 3015/3115 23010KT CAVOK TX39/3015Z TN19/3106Z"
    },
    {
      "icao": "LFBD",
      "alert": "OK",
      "vis_m": 9999,
      "fzfg": false,
      "metar_trigger": false,
      "taf_trigger": false,
      "metar": "METAR LFBD 302000Z AUTO 23007KT 9999 BKN014 OVC020 19/16 Q1022 NOSIG",
      "taf": ""
    },
    {
      "icao": "LFLL",
      "alert": "OK",
      "vis_m": 9999,
      "fzfg": false,
      "metar_trigger": false,
      "taf_trigger": false,
      "metar": "METAR LFLL 302000Z 00000KT CAVOK 26/15 Q1018 NOSIG",
      "taf": "TAF LFLL 301700Z 3018/3124 VRB05KT CAVOK"
    },
    {
      "icao": "LFLS",
      "alert": "OK",
      "vis_m": 9999,
      "fzfg": false,
      "metar_trigger": false,
      "taf_trigger": false,
      "metar": "METAR LFLS 302000Z AUTO 10004KT CAVOK 19/15 Q1019",
      "taf": "TAF LFLS 301400Z 3015/3115 VRB03KT CAVOK"
    },
    {
      "icao": "LFMN",
      "alert": "OK",
      "vis_m": 9999,
      "fzfg": false,
      "metar_trigger": false,
      "taf_trigger": false,
      "metar": "METAR LFMN 302000Z 19003KT CAVOK 23/20 Q1017 NOSIG",
      "taf": "TAF LFMN 301400Z 3015/3121 VRB04KT CAVOK"
    },
    {
      "icao": "LFOB",
      "alert": "OK",
      "vis_m": 9999,
      "fzfg": false,
      "metar_trigger": false,
      "taf_trigger": false,
      "metar": "METAR LFOB 302000Z AUTO 03004KT 340V100 9999 ///CB 23/19 Q1016 TEMPO VRB15G25KT 3500 TSRAGS",
      "taf": "TAF LFOB 301700Z 3018/3118 28010KT CAVOK"
    },
    {
      "icao": "LFPO",
      "alert": "OK",
      "vis_m": 9999,
      "fzfg": false,
      "metar_trigger": false,
      "taf_trigger": false,
      "metar": "METAR LFPO 302000Z AUTO 23003KT CAVOK 26/16 Q1016 TEMPO VRB15G30KT 2000 TSRAGR BKN080CB",
      "taf": "TAF LFPO 301700Z 3018/3124 VRB05KT CAVOK"
    },
    {
      "icao": "LFSB",
      "alert": "OK",
      "vis_m": 9999,
      "fzfg": false,
      "metar_trigger": false,
      "taf_trigger": false,
      "metar": "METAR LFSB 302000Z AUTO VRB02KT CAVOK 21/14 Q1017 NOSIG",
      "taf": "TAF LFSB 301700Z 3018/3118 36005KT CAVOK"
    },
    {
      "icao": "LGAV",
      "alert": "OK",
      "vis_m": 9999,
      "fzfg": false,
      "metar_trigger": false,
      "taf_trigger": false,
      "metar": "METAR LGAV 301950Z 28003KT 9999 FEW025 20/09 Q1016 NOSIG",
      "taf": "TAF LGAV 301700Z 3018/3118 24008KT 9999 FEW025"
    },
    {
      "icao": "LGTS",
      "alert": "OK",
      "vis_m": 9999,
      "fzfg": false,
      "metar_trigger": false,
      "taf_trigger": false,
      "metar": "METAR LGTS 301950Z 12005KT CAVOK 19/14 Q1014 NOSIG",
      "taf": "TAF LGTS 301700Z 3018/3118 VRB03KT 9999 FEW025"
    },
    {
      "icao": "LHBP",
      "alert": "OK",
      "vis_m": 9999,
      "fzfg": false,
      "metar_trigger": false,
      "taf_trigger": false,
      "metar": "METAR LHBP 302000Z 24004KT CAVOK 19/11 Q1013 NOSIG",
      "taf": "TAF LHBP 301715Z 3018/3118 33008KT CAVOK"
    },
    {
      "icao": "LHDC",
      "alert": "OK",
      "vis_m": 9999,
      "fzfg": false,
      "metar_trigger": false,
      "taf_trigger": false,
      "metar": "METAR LHDC 301945Z AUTO 16003KT CAVOK 17/11 Q1013 NOSIG",
      "taf": "TAF LHDC 301715Z 3018/3103 31009KT CAVOK"
    },
    {
      "icao": "LIBD",
      "alert": "OK",
      "vis_m": 9999,
      "fzfg": false,
      "metar_trigger": false,
      "taf_trigger": false,
      "metar": "METAR LIBD 301950Z 26003KT CAVOK 17/12 Q1017",
      "taf": "TAF LIBD 301700Z 3018/3118 VRB05KT CAVOK"
    },
    {
      "icao": "LIBG",
      "alert": "OK",
      "vis_m": null,
      "fzfg": false,
      "metar_trigger": false,
      "taf_trigger": false,
      "metar": "",
      "taf": "TAF LIBG 301700Z 3018/3118 VRB05KT CAVOK"
    },
    {
      "icao": "LIBP",
      "alert": "OK",
      "vis_m": 9999,
      "fzfg": false,
      "metar_trigger": false,
      "taf_trigger": false,
      "metar": "METAR LIBP 301950Z AUTO 21002KT 9999 NCD 19/14 Q1017",
      "taf": "TAF LIBP 301700Z 3018/3118 VRB05KT CAVOK"
    },
    {
      "icao": "LIBR",
      "alert": "OK",
      "vis_m": 9999,
      "fzfg": false,
      "metar_trigger": false,
      "taf_trigger": false,
      "metar": "METAR LIBR 301950Z 32006KT CAVOK 20/18 Q1016",
      "taf": "TAF LIBR 301700Z 3018/3118 VRB05KT CAVOK"
    },
    {
      "icao": "LICA",
      "alert": "OK",
      "vis_m": 9999,
      "fzfg": false,
      "metar_trigger": false,
      "taf_trigger": false,
      "metar": "METAR LICA 301950Z AUTO VRB02KT 9999 NCD 20/18 Q1017",
      "taf": "TAF LICA 301700Z 3018/3118 VRB05KT 9999 FEW015"
    },
    {
      "icao": "LICC",
      "alert": "OK",
      "vis_m": 9999,
      "fzfg": false,
      "metar_trigger": false,
      "taf_trigger": false,
      "metar": "METAR LICC 301950Z 05007KT CAVOK 22/14 Q1017",
      "taf": "TAF LICC 301700Z 3018/3118 VRB05KT 9999 FEW060"
    },
    {
      "icao": "LICJ",
      "alert": "OK",
      "vis_m": 9999,
      "fzfg": false,
      "metar_trigger": false,
      "taf_trigger": false,
      "metar": "METAR LICJ 301950Z 05008KT CAVOK 23/19 Q1017",
      "taf": "TAF LICJ 301700Z 3018/3118 03010KT CAVOK"
    },
    {
      "icao": "LIMC",
      "alert": "OK",
      "vis_m": 9999,
      "fzfg": false,
      "metar_trigger": false,
      "taf_trigger": false,
      "metar": "METAR LIMC 301950Z VRB02KT CAVOK 23/16 Q1017 NOSIG",
      "taf": "TAF LIMC 301700Z 3018/3124 VRB06KT CAVOK"
    },
    {
      "icao": "LIME",
      "alert": "OK",
      "vis_m": 9999,
      "fzfg": false,
      "metar_trigger": false,
      "taf_trigger": false,
      "metar": "METAR LIME 301950Z 02005KT CAVOK 26/16 Q1017 NOSIG",
      "taf": "TAF LIME 301700Z 3018/3118 VRB05KT CAVOK"
    },
    {
      "icao": "LIMF",
      "alert": "OK",
      "vis_m": 9999,
      "fzfg": false,
      "metar_trigger": false,
      "taf_trigger": false,
      "metar": "METAR LIMF 301950Z VRB02KT CAVOK 26/16 Q1017",
      "taf": "TAF LIMF 301700Z 3018/3118 VRB06KT CAVOK"
    },
    {
      "icao": "LIMJ",
      "alert": "OK",
      "vis_m": 9999,
      "fzfg": false,
      "metar_trigger": false,
      "taf_trigger": false,
      "metar": "METAR LIMJ 301950Z 28003KT CAVOK 24/19 Q1017",
      "taf": "TAF LIMJ 301700Z 3018/3118 VRB05KT CAVOK"
    },
    {
      "icao": "LIPE",
      "alert": "OK",
      "vis_m": 9999,
      "fzfg": false,
      "metar_trigger": false,
      "taf_trigger": false,
      "metar": "METAR LIPE 301950Z 10002KT CAVOK 24/15 Q1015",
      "taf": "TAF LIPE 301700Z 3018/3118 VRB05KT CAVOK"
    },
    {
      "icao": "LIPH",
      "alert": "OK",
      "vis_m": 9999,
      "fzfg": false,
      "metar_trigger": false,
      "taf_trigger": false,
      "metar": "METAR LIPH 301950Z 15003KT CAVOK 25/18 Q1016",
      "taf": "TAF LIPH 301700Z 3018/3118 VRB05KT CAVOK"
    },
    {
      "icao": "LIPQ",
      "alert": "OK",
      "vis_m": 9999,
      "fzfg": false,
      "metar_trigger": false,
      "taf_trigger": false,
      "metar": "METAR LIPQ 301950Z AUTO 10003KT 9999 NCD 22/18 Q1016",
      "taf": "TAF LIPQ 301700Z 3018/3118 VRB05KT CAVOK"
    },
    {
      "icao": "LIPR",
      "alert": "OK",
      "vis_m": 9999,
      "fzfg": false,
      "metar_trigger": false,
      "taf_trigger": false,
      "metar": "METAR LIPR 301950Z 17002KT CAVOK 23/17 Q1016",
      "taf": "TAF LIPR 301700Z 3018/3118 VRB05KT CAVOK"
    },
    {
      "icao": "LIPX",
      "alert": "OK",
      "vis_m": 9999,
      "fzfg": false,
      "metar_trigger": false,
      "taf_trigger": false,
      "metar": "METAR LIPX 301950Z 23003KT 200V260 CAVOK 25/18 Q1015",
      "taf": "TAF LIPX 301700Z 3018/3118 VRB04KT CAVOK"
    },
    {
      "icao": "LIPY",
      "alert": "OK",
      "vis_m": 9999,
      "fzfg": false,
      "metar_trigger": false,
      "taf_trigger": false,
      "metar": "METAR LIPY 301950Z AUTO 17004KT 9999 NCD 21/16 Q1016",
      "taf": "TAF LIPY 301700Z 3018/3118 VRB05KT CAVOK"
    },
    {
      "icao": "LIPZ",
      "alert": "OK",
      "vis_m": 9999,
      "fzfg": false,
      "metar_trigger": false,
      "taf_trigger": false,
      "metar": "METAR LIPZ 301950Z 18004KT CAVOK 25/18 Q1016 NOSIG",
      "taf": "TAF LIPZ 301700Z 3018/3124 VRB05KT CAVOK"
    },
    {
      "icao": "LIRF",
      "alert": "OK",
      "vis_m": 9999,
      "fzfg": false,
      "metar_trigger": false,
      "taf_trigger": false,
      "metar": "METAR LIRF 301950Z 28002KT CAVOK 20/19 Q1017 NOSIG",
      "taf": "TAF LIRF 301700Z 3018/3124 27010KT CAVOK"
    },
    {
      "icao": "LIRN",
      "alert": "OK",
      "vis_m": 9999,
      "fzfg": false,
      "metar_trigger": false,
      "taf_trigger": false,
      "metar": "METAR LIRN 301950Z 23004KT CAVOK 24/09 Q1018 NOSIG",
      "taf": "TAF LIRN 301700Z 3018/3118 30010KT CAVOK"
    },
    {
      "icao": "LIRP",
      "alert": "OK",
      "vis_m": 9999,
      "fzfg": false,
      "metar_trigger": false,
      "taf_trigger": false,
      "metar": "METAR LIRP 301945Z 25003KT CAVOK 22/17 Q1017 NOSIG",
      "taf": "TAF LIRP 301700Z 3018/3118 30008KT 9999 SCT030"
    },
    {
      "icao": "LIRZ",
      "alert": "OK",
      "vis_m": 9999,
      "fzfg": false,
      "metar_trigger": false,
      "taf_trigger": false,
      "metar": "METAR LIRZ 301950Z AUTO 01007KT 9999 NCD 21/14 Q1017",
      "taf": "TAF LIRZ 301700Z 3018/3118 VRB05KT CAVOK"
    },
    {
      "icao": "LJLJ",
      "alert": "OK",
      "vis_m": 9999,
      "fzfg": false,
      "metar_trigger": false,
      "taf_trigger": false,
      "metar": "METAR LJLJ 302000Z 05001KT 9999 VCTS FEW050CB SCT100 BKN250 20/15 Q1018 TEMPO SHRA",
      "taf": "TAF LJLJ 301700Z 3018/3118 30003KT 9999 FEW060"
    },
    {
      "icao": "LKMT",
      "alert": "OK",
      "vis_m": 9999,
      "fzfg": false,
      "metar_trigger": false,
      "taf_trigger": false,
      "metar": "METAR LKMT 302000Z VRB02KT CAVOK 15/13 Q1015 NOSIG",
      "taf": "TAF LKMT 301700Z 3018/3118 22006KT CAVOK"
    },
    {
      "icao": "LKPR",
      "alert": "OK",
      "vis_m": 9999,
      "fzfg": false,
      "metar_trigger": false,
      "taf_trigger": false,
      "metar": "METAR LKPR 302000Z 35009KT CAVOK 15/09 Q1017 NOSIG",
      "taf": "TAF LKPR 301700Z 3018/3124 27007KT CAVOK"
    },
    {
      "icao": "LLBG",
      "alert": "OK",
      "vis_m": 9999,
      "fzfg": false,
      "metar_trigger": false,
      "taf_trigger": false,
      "metar": "METAR LLBG 301950Z 04004KT 9999 FEW020 22/18 Q1013 NOSIG",
      "taf": "TAF LLBG 301708Z 3018/3118 VRB04KT 9999 FEW017 TX28/3111Z TN19/3103Z"
    },
    {
      "icao": "LMML",
      "alert": "OK",
      "vis_m": 9999,
      "fzfg": false,
      "metar_trigger": false,
      "taf_trigger": false,
      "metar": "METAR LMML 301945Z 17006KT CAVOK 22/16 Q1017 NOSIG",
      "taf": "TAF LMML 301700Z 3018/3118 VRB05KT CAVOK"
    },
    {
      "icao": "LOWW",
      "alert": "OK",
      "vis_m": 9999,
      "fzfg": false,
      "metar_trigger": false,
      "taf_trigger": false,
      "metar": "METAR LOWW 301950Z 30014KT CAVOK 21/13 Q1015 NOSIG",
      "taf": "TAF LOWW 301715Z 3018/3124 30010KT 9999 FEW050 TX26/3111Z TN16/3103Z"
    },
    {
      "icao": "LPFR",
      "alert": "OK",
      "vis_m": 9999,
      "fzfg": false,
      "metar_trigger": false,
      "taf_trigger": false,
      "metar": "METAR LPFR 302000Z 29006KT CAVOK 27/17 Q1017",
      "taf": "TAF LPFR 301700Z 3018/3118 25008KT CAVOK"
    },
    {
      "icao": "LPMA",
      "alert": "OK",
      "vis_m": 9999,
      "fzfg": false,
      "metar_trigger": false,
      "taf_trigger": false,
      "metar": "METAR LPMA 302000Z 36011G22KT 310V030 9999 FEW015 19/12 Q1024",
      "taf": "TAF LPMA 301700Z 3018/3118 01013KT 9999 SCT015"
    },
    {
      "icao": "LPPR",
      "alert": "OK",
      "vis_m": 9999,
      "fzfg": false,
      "metar_trigger": false,
      "taf_trigger": false,
      "metar": "METAR LPPR 302000Z 33010KT 9999 FEW013 17/14 Q1022",
      "taf": "TAF LPPR 301700Z 3018/3118 32013KT 9999 SCT015"
    },
    {
      "icao": "LPPS",
      "alert": "OK",
      "vis_m": 9999,
      "fzfg": false,
      "metar_trigger": false,
      "taf_trigger": false,
      "metar": "METAR LPPS 302000Z 01017KT 9999 SCT015 18/13 Q1025",
      "taf": "TAF LPPS 301700Z 3018/3124 01013KT 9999 SCT015"
    },
    {
      "icao": "LPPT",
      "alert": "OK",
      "vis_m": 9999,
      "fzfg": false,
      "metar_trigger": false,
      "taf_trigger": false,
      "metar": "METAR LPPT 302000Z 32012KT 9999 FEW010 18/14 Q1021",
      "taf": "TAF LPPT 301700Z 3018/3124 33013KT CAVOK"
    },
    {
      "icao": "LQBK",
      "alert": "OK",
      "vis_m": 9999,
      "fzfg": false,
      "metar_trigger": false,
      "taf_trigger": false,
      "metar": "METAR LQBK 302000Z 14005KT CAVOK 20/13 Q1016 NOSIG",
      "taf": "TAF LQBK 301700Z 3018/3118 20005KT CAVOK TX28/3114Z TN14/3104Z"
    },
    {
      "icao": "LQSA",
      "alert": "OK",
      "vis_m": 9999,
      "fzfg": false,
      "metar_trigger": false,
      "taf_trigger": false,
      "metar": "METAR LQSA 302000Z 17002KT CAVOK 16/09 Q1018 NOSIG",
      "taf": "TAF LQSA 301700Z 3018/3118 VRB02KT CAVOK TX26/3113Z TN12/3104Z"
    },
    {
      "icao": "LQTZ",
      "alert": "OK",
      "vis_m": 9999,
      "fzfg": false,
      "metar_trigger": false,
      "taf_trigger": false,
      "metar": "METAR LQTZ 302000Z VRB02KT CAVOK 15/12 Q1017",
      "taf": "TAF LQTZ 301700Z 3018/3118 27006KT CAVOK TX27/3114Z TN10/3103Z"
    },
    {
      "icao": "LRBC",
      "alert": "OK",
      "vis_m": 9999,
      "fzfg": false,
      "metar_trigger": false,
      "taf_trigger": false,
      "metar": "METAR LRBC 302000Z 16007KT CAVOK 14/11 Q1010",
      "taf": "TAF LRBC 301700Z 3018/3103 VRB04KT CAVOK"
    },
    {
      "icao": "LRBS",
      "alert": "OK",
      "vis_m": 9999,
      "fzfg": false,
      "metar_trigger": false,
      "taf_trigger": false,
      "metar": "METAR LRBS 302000Z 10008KT CAVOK 16/11 Q1011 NOSIG",
      "taf": "TAF LRBS 301700Z 3018/3118 VRB04KT CAVOK"
    },
    {
      "icao": "LRBV",
      "alert": "OK",
      "vis_m": 9999,
      "fzfg": false,
      "metar_trigger": false,
      "taf_trigger": false,
      "metar": "METAR LRBV 302000Z 26003KT 9999 BKN077 16/06 Q1013",
      "taf": "TAF LRBV 301700Z 3018/3103 29008KT CAVOK"
    },
    {
      "icao": "LRCL",
      "alert": "OK",
      "vis_m": 9999,
      "fzfg": false,
      "metar_trigger": false,
      "taf_trigger": false,
      "metar": "METAR LRCL 302000Z 29008KT 260V350 CAVOK 18/08 Q1013",
      "taf": "TAF LRCL 301700Z 3018/3103 30010KT CAVOK"
    },
    {
      "icao": "LRCV",
      "alert": "OK",
      "vis_m": 9999,
      "fzfg": false,
      "metar_trigger": false,
      "taf_trigger": false,
      "metar": "METAR LRCV 302000Z 29007KT CAVOK 17/10 Q1012",
      "taf": "TAF LRCV 301700Z 3018/3103 30008KT CAVOK"
    },
    {
      "icao": "LRIA",
      "alert": "OK",
      "vis_m": 9999,
      "fzfg": false,
      "metar_trigger": false,
      "taf_trigger": false,
      "metar": "METAR LRIA 302000Z 21003KT CAVOK 15/07 Q1009",
      "taf": "TAF LRIA 301700Z 3018/3103 VRB04KT CAVOK"
    },
    {
      "icao": "LROP",
      "alert": "OK",
      "vis_m": 9999,
      "fzfg": false,
      "metar_trigger": false,
      "taf_trigger": false,
      "metar": "METAR LROP 302000Z 08005KT CAVOK 15/12 Q1012 NOSIG",
      "taf": "TAF LROP 301700Z 3018/3118 VRB04KT CAVOK"
    },
    {
      "icao": "LRSB",
      "alert": "OK",
      "vis_m": 9999,
      "fzfg": false,
      "metar_trigger": false,
      "taf_trigger": false,
      "metar": "METAR LRSB 302000Z 27004KT CAVOK 13/08 Q1013",
      "taf": "TAF LRSB 301700Z 3018/3118 29010KT 9999 SCT050"
    },
    {
      "icao": "LRSM",
      "alert": "OK",
      "vis_m": 9999,
      "fzfg": false,
      "metar_trigger": false,
      "taf_trigger": false,
      "metar": "METAR LRSM 302000Z AUTO 28004KT 9999 FEW070/// BKN085/// 18/12 Q1013 REDZ",
      "taf": "TAF LRSM 301400Z 3015/3024 33012KT CAVOK"
    },
    {
      "icao": "LRSV",
      "alert": "OK",
      "vis_m": 9999,
      "fzfg": false,
      "metar_trigger": false,
      "taf_trigger": false,
      "metar": "METAR LRSV 302000Z 26009KT CAVOK 17/07 Q1009",
      "taf": "TAF LRSV 301700Z 3018/3103 31008KT CAVOK"
    },
    {
      "icao": "LRTM",
      "alert": "OK",
      "vis_m": 9999,
      "fzfg": false,
      "metar_trigger": false,
      "taf_trigger": false,
      "metar": "METAR LRTM 302000Z 28011KT CAVOK 19/08 Q1012",
      "taf": "TAF LRTM 301700Z 3018/3103 29008KT CAVOK"
    },
    {
      "icao": "LRTR",
      "alert": "OK",
      "vis_m": 9999,
      "fzfg": false,
      "metar_trigger": false,
      "taf_trigger": false,
      "metar": "METAR LRTR 302000Z 30004KT CAVOK 17/11 Q1014",
      "taf": "TAF LRTR 301700Z 3018/3118 VRB04KT CAVOK"
    },
    {
      "icao": "LTAC",
      "alert": "OK",
      "vis_m": 9999,
      "fzfg": false,
      "metar_trigger": false,
      "taf_trigger": false,
      "metar": "METAR LTAC 301950Z 27003KT 9999 SCT040 11/04 Q1015 NOSIG RMK RWY21C 26005KT RWY03L 30003KT 270V330 RWY21R 25004KT RWY03R 25005KT 220V280 RWY21L 25006KT",
      "taf": "TAF LTAC 301640Z 3018/3118 25007KT 9999 SCT040"
    },
    {
      "icao": "LTFM",
      "alert": "OK",
      "vis_m": 9999,
      "fzfg": false,
      "metar_trigger": false,
      "taf_trigger": false,
      "metar": "METAR LTFM 301950Z 30007KT 9999 SCT040 20/12 Q1014 NOSIG RMK RWY17L VRB05KT RWY34L 30004KT RWY16R 30005KT RWY36 31008KT RWY18 30006KT 200V360",
      "taf": "TAF LTFM 301640Z 3018/3124 23012KT 9999 SCT040"
    },
    {
      "icao": "LUKK",
      "alert": "OK",
      "vis_m": 9999,
      "fzfg": false,
      "metar_trigger": false,
      "taf_trigger": false,
      "metar": "METAR LUKK 302000Z 11003KT CAVOK 11/08 Q1010 NOSIG",
      "taf": "TAF LUKK 301703Z 3018/3118 VRB05KT CAVOK"
    },
    {
      "icao": "LWOH",
      "alert": "OK",
      "vis_m": 9999,
      "fzfg": false,
      "metar_trigger": false,
      "taf_trigger": false,
      "metar": "METAR LWOH 301950Z 10004KT 060V120 CAVOK 17/12 Q1018",
      "taf": "TAF LWOH 302005Z 3021/3121 32006KT CAVOK"
    },
    {
      "icao": "LWSK",
      "alert": "OK",
      "vis_m": 9999,
      "fzfg": false,
      "metar_trigger": false,
      "taf_trigger": false,
      "metar": "METAR LWSK 301950Z 03007KT CAVOK 20/09 Q1015 NOSIG",
      "taf": "TAF LWSK 302005Z 3021/3121 VRB03KT CAVOK"
    },
    {
      "icao": "LYBE",
      "alert": "OK",
      "vis_m": 9999,
      "fzfg": false,
      "metar_trigger": false,
      "taf_trigger": false,
      "metar": "METAR LYBE 302000Z 31006KT CAVOK 19/11 Q1015 NOSIG",
      "taf": "TAF LYBE 301700Z 3018/3118 26006KT CAVOK TX30/3113Z TN15/3104Z"
    },
    {
      "icao": "LYNI",
      "alert": "OK",
      "vis_m": 9999,
      "fzfg": false,
      "metar_trigger": false,
      "taf_trigger": false,
      "metar": "METAR LYNI 302000Z VRB02KT CAVOK 20/10 Q1015 NOSIG",
      "taf": "TAF LYNI 301700Z 3018/3118 10005KT CAVOK TX28/3113Z TN12/3104Z"
    },
    {
      "icao": "LYPG",
      "alert": "OK",
      "vis_m": 9999,
      "fzfg": false,
      "metar_trigger": false,
      "taf_trigger": false,
      "metar": "METAR LYPG 302000Z 21004KT 180V240 CAVOK 21/11 Q1016 NOSIG",
      "taf": "TAF LYPG 301700Z 3018/3118 36008KT CAVOK TX30/3114Z TN18/3103Z"
    },
    {
      "icao": "LZIB",
      "alert": "OK",
      "vis_m": 9999,
      "fzfg": false,
      "metar_trigger": false,
      "taf_trigger": false,
      "metar": "METAR LZIB 302000Z 29015KT 9999 FEW048 21/15 Q1014 NOSIG",
      "taf": ""
    },
    {
      "icao": "LZKZ",
      "alert": "OK",
      "vis_m": 9999,
      "fzfg": false,
      "metar_trigger": false,
      "taf_trigger": false,
      "metar": "METAR LZKZ 302000Z 30004KT CAVOK 16/14 Q1013 NOSIG",
      "taf": "TAF LZKZ 301715Z 3018/3118 35010KT CAVOK"
    },
    {
      "icao": "LZTT",
      "alert": "OK",
      "vis_m": 9999,
      "fzfg": false,
      "metar_trigger": false,
      "taf_trigger": false,
      "metar": "METAR LZTT 302000Z 19004KT 130V220 9999 -SHRA FEW016 BKN053 13/13 Q1014",
      "taf": ""
    },
    {
      "icao": "OEJN",
      "alert": "OK",
      "vis_m": 9999,
      "fzfg": false,
      "metar_trigger": false,
      "taf_trigger": false,
      "metar": "METAR OEJN 302000Z 36007KT CAVOK 29/15 Q1007 NOSIG",
      "taf": "TAF OEJN 301700Z 3018/3124 36010KT CAVOK"
    },
    {
      "icao": "OEMA",
      "alert": "OK",
      "vis_m": 9999,
      "fzfg": false,
      "metar_trigger": false,
      "taf_trigger": false,
      "metar": "METAR OEMA 302000Z 25009KT CAVOK 35/02 Q1012 NOSIG",
      "taf": "TAF OEMA 301700Z 3018/3124 27006KT CAVOK"
    },
    {
      "icao": "OJAI",
      "alert": "OK",
      "vis_m": 5000,
      "fzfg": false,
      "metar_trigger": false,
      "taf_trigger": false,
      "metar": "METAR OJAI 302000Z 27006KT 5000 HZ NSC 18/06 Q1017 NOSIG",
      "taf": "TAF OJAI 301700Z 3018/3124 29010KT 5000 HZ NSC"
    },
    {
      "icao": "OMAA",
      "alert": "OK",
      "vis_m": 9999,
      "fzfg": false,
      "metar_trigger": false,
      "taf_trigger": false,
      "metar": "METAR OMAA 302000Z 27005KT CAVOK 31/22 Q1004 NOSIG",
      "taf": "TAF OMAA 301700Z 3018/0100 24005KT 8000 NSC"
    },
    {
      "icao": "OMDB",
      "alert": "OK",
      "vis_m": 9999,
      "fzfg": false,
      "metar_trigger": false,
      "taf_trigger": false,
      "metar": "METAR OMDB 302000Z 19008KT 160V220 CAVOK 33/17 Q1002 NOSIG",
      "taf": "TAF OMDB 301700Z 3018/0100 20007KT CAVOK"
    },
    {
      "icao": "UAAA",
      "alert": "OK",
      "vis_m": 9999,
      "fzfg": false,
      "metar_trigger": false,
      "taf_trigger": false,
      "metar": "METAR UAAA 302000Z 29003MPS 240V010 9999 SCT050CB BKN100 22/11 Q1009 NOSIG",
      "taf": "TAF UAAA 301702Z 3018/3118 17003MPS 9999 SCT050CB BKN100 TX31/3110Z TN17/3101Z"
    },
    {
      "icao": "UBBB",
      "alert": "OK",
      "vis_m": 9999,
      "fzfg": false,
      "metar_trigger": false,
      "taf_trigger": false,
      "metar": "METAR UBBB 302000Z 00000KT 9999 FEW035CB BKN035 15/13 Q1013 NOSIG",
      "taf": "TAF UBBB 301705Z 3018/3118 33005KT 9999 SCT012 FEW050CB TX22/3110Z TN13/3100Z"
    },
    {
      "icao": "UDSG",
      "alert": "OK",
      "vis_m": 9999,
      "fzfg": false,
      "metar_trigger": false,
      "taf_trigger": false,
      "metar": "METAR UDSG 302000Z 34004KT 9999 FEW049 05/00 Q1016 NOSIG",
      "taf": "TAF UDSG 301658Z 3018/3118 VRB06KT 9999 FEW050"
    },
    {
      "icao": "UDYZ",
      "alert": "OK",
      "vis_m": 9999,
      "fzfg": false,
      "metar_trigger": false,
      "taf_trigger": false,
      "metar": "METAR UDYZ 302000Z 28004KT 9999 FEW046 14/03 Q1013 NOSIG",
      "taf": "TAF UDYZ 301700Z 3018/3118 06006KT 9999 FEW040"
    },
    {
      "icao": "UGKO",
      "alert": "OK",
      "vis_m": 9999,
      "fzfg": false,
      "metar_trigger": false,
      "taf_trigger": false,
      "metar": "METAR UGKO 302000Z 08008KT CAVOK 10/08 Q1015 NOSIG",
      "taf": "TAF UGKO 301700Z 3018/3118 09007KT CAVOK TX17/3111Z TN10/3102Z"
    }
  ]
}