{
  "ts_utc": "2026-02-07T15:44:15Z",
  "threshold_m": 150,
  "source": "stations_override.txt (ICAO list) + aviationweather.gov (METAR/TAF raw)",
  "station_count": 159,
  "stations": [
    {
      "icao": "BIKF",
      "alert": "OK",
      "vis_m": 9999,
      "fzfg": false,
      "metar_trigger": false,
      "taf_trigger": false,
      "metar": "METAR BIKF 071530Z 06003KT CAVOK 03/M01 Q1009",
      "taf": "TAF BIKF 071305Z 0715/0815 09008KT CAVOK TX03/0715Z TNM03/0803Z"
    },
    {
      "icao": "BKPR",
      "alert": "OK",
      "vis_m": 9999,
      "fzfg": false,
      "metar_trigger": false,
      "taf_trigger": false,
      "metar": "METAR BKPR 071530Z 23024KT 9999 SCT050 11/05 Q1004 NOSIG",
      "taf": "TAF BKPR 071130Z 0712/0812 25008KT 9999 BKN040"
    },
    {
      "icao": "EBCI",
      "alert": "OK",
      "vis_m": 9999,
      "fzfg": false,
      "metar_trigger": false,
      "taf_trigger": false,
      "metar": "METAR EBCI 071520Z 18009KT 9999 FEW026 11/04 Q1002 NOSIG",
      "taf": "TAF EBCI 071115Z 0712/0818 18009KT 9999 FEW020 SCT040"
    },
    {
      "icao": "EDDB",
      "alert": "OK",
      "vis_m": 2500,
      "fzfg": false,
      "metar_trigger": false,
      "taf_trigger": false,
      "metar": "METAR EDDB 071520Z AUTO 04003KT 2500 BR OVC004 03/02 Q1006 NOSIG",
      "taf": "TAF EDDB 071100Z 0712/0812 06005KT 3000 BR OVC005"
    },
    {
      "icao": "EDDH",
      "alert": "OK",
      "vis_m": 6000,
      "fzfg": false,
      "metar_trigger": false,
      "taf_trigger": false,
      "metar": "METAR EDDH 071520Z AUTO 07007KT 6000 -SHRA BKN005 FEW///TCU 02/01 Q1007 TEMPO 4000 BR BKN004",
      "taf": ""
    },
    {
      "icao": "EDDK",
      "alert": "OK",
      "vis_m": 9999,
      "fzfg": false,
      "metar_trigger": false,
      "taf_trigger": false,
      "metar": "METAR EDDK 071520Z AUTO 14005KT 100V160 CAVOK 13/05 Q1004 NOSIG",
      "taf": "TAF EDDK 071100Z 0712/0818 12006KT 9999 FEW035"
    },
    {
      "icao": "EDDN",
      "alert": "OK",
      "vis_m": 6000,
      "fzfg": false,
      "metar_trigger": false,
      "taf_trigger": false,
      "metar": "METAR EDDN 071520Z AUTO 35003KT 6000 BKN005 05/05 Q1005 TEMPO 4000 BR BKN003",
      "taf": ""
    },
    {
      "icao": "EDDS",
      "alert": "OK",
      "vis_m": 9999,
      "fzfg": false,
      "metar_trigger": false,
      "taf_trigger": false,
      "metar": "METAR EDDS 071520Z AUTO 03005KT 9999 FEW035 11/05 Q1004 NOSIG",
      "taf": "TAF EDDS 071100Z 0712/0812 VRB03KT 9999 FEW045"
    },
    {
      "icao": "EDFH",
      "alert": "OK",
      "vis_m": 9999,
      "fzfg": false,
      "metar_trigger": false,
      "taf_trigger": false,
      "metar": "METAR EDFH 071520Z 29005KT 9999 FEW010 07/05 Q1004",
      "taf": "TAF EDFH 071100Z 0712/0812 25007KT 9999 BKN010"
    },
    {
      "icao": "EDJA",
      "alert": "OK",
      "vis_m": 9999,
      "fzfg": false,
      "metar_trigger": false,
      "taf_trigger": false,
      "metar": "METAR EDJA 071520Z 36004KT 9999 BKN044 08/03 Q1004",
      "taf": "TAF EDJA 071400Z 0715/0724 VRB03KT 9999 FEW020 BKN040"
    },
    {
      "icao": "EDLW",
      "alert": "OK",
      "vis_m": 9999,
      "fzfg": false,
      "metar_trigger": false,
      "taf_trigger": false,
      "metar": "METAR EDLW 071520Z 22003KT 160V270 CAVOK 12/05 Q1004",
      "taf": "TAF EDLW 071100Z 0712/0812 21006KT 9999 FEW025"
    },
    {
      "icao": "EDNY",
      "alert": "OK",
      "vis_m": 9999,
      "fzfg": false,
      "metar_trigger": false,
      "taf_trigger": false,
      "metar": "METAR EDNY 071520Z VRB02KT 9999 FEW033 BKN042 BKN051 10/04 Q1004",
      "taf": "TAF EDNY 071400Z 0715/0724 VRB02KT 9999 FEW025"
    },
    {
      "icao": "EDSB",
      "alert": "OK",
      "vis_m": 9999,
      "fzfg": false,
      "metar_trigger": false,
      "taf_trigger": false,
      "metar": "METAR EDSB 071520Z 01005KT CAVOK 12/07 Q1004",
      "taf": "TAF EDSB 071100Z 0712/0812 30004KT 9999 FEW030"
    },
    {
      "icao": "EETN",
      "alert": "OK",
      "vis_m": 9000,
      "fzfg": false,
      "metar_trigger": false,
      "taf_trigger": false,
      "metar": "METAR EETN 071520Z 06008KT 020V090 9000 -SN OVC004 M10/M11 Q1017 TEMPO 4000 SN",
      "taf": "TAF EETN 071130Z 0712/0812 05008KT 9999 BKN006"
    },
    {
      "icao": "EFTU",
      "alert": "OK",
      "vis_m": 9999,
      "fzfg": false,
      "metar_trigger": false,
      "taf_trigger": false,
      "metar": "METAR EFTU 071520Z AUTO 04005KT CAVOK M12/M14 Q1019",
      "taf": "TAF EFTU 071426Z 0715/0815 05003KT CAVOK"
    },
    {
      "icao": "EGBB",
      "alert": "OK",
      "vis_m": 9999,
      "fzfg": false,
      "metar_trigger": false,
      "taf_trigger": false,
      "metar": "METAR EGBB 071520Z 14011KT 9999 -RA BKN014 10/08 Q0992",
      "taf": "TAF EGBB 071059Z 0712/0812 15010KT 9999 SCT013 BKN020"
    },
    {
      "icao": "EGGP",
      "alert": "OK",
      "vis_m": 9999,
      "fzfg": false,
      "metar_trigger": false,
      "taf_trigger": false,
      "metar": "METAR EGGP 071520Z 11010KT 9999 SCT030 BKN044 09/07 Q0991",
      "taf": "TAF EGGP 071106Z 0712/0812 10010KT 9999 BKN016"
    },
    {
      "icao": "EGGW",
      "alert": "OK",
      "vis_m": 9999,
      "fzfg": false,
      "metar_trigger": false,
      "taf_trigger": false,
      "metar": "METAR EGGW 071520Z AUTO 17010KT 140V200 9999 BKN009 BKN014 09/08 Q0994",
      "taf": "TAF EGGW 071058Z 0712/0812 17008KT 9999 FEW004 SCT008"
    },
    {
      "icao": "EGKK",
      "alert": "OK",
      "vis_m": 9999,
      "fzfg": false,
      "metar_trigger": false,
      "taf_trigger": false,
      "metar": "METAR EGKK 071520Z 19009KT 160V230 9999 BKN009 BKN016 10/09 Q0996",
      "taf": ""
    },
    {
      "icao": "EGNM",
      "alert": "OK",
      "vis_m": 1700,
      "fzfg": false,
      "metar_trigger": false,
      "taf_trigger": false,
      "metar": "METAR EGNM 071520Z 10010KT 1700 -RA BR OVC002 07/07 Q0993",
      "taf": ""
    },
    {
      "icao": "EGPD",
      "alert": "OK",
      "vis_m": 4000,
      "fzfg": false,
      "metar_trigger": false,
      "taf_trigger": false,
      "metar": "METAR EGPD 071520Z 11010KT 4000 BR OVC002 06/06 Q0998 REDZ TEMPO 2000",
      "taf": ""
    },
    {
      "icao": "EGPF",
      "alert": "OK",
      "vis_m": 9999,
      "fzfg": false,
      "metar_trigger": false,
      "taf_trigger": false,
      "metar": "METAR EGPF 071520Z AUTO 06011KT 9999 FEW010 OVC036 07/06 Q0995",
      "taf": "TAF EGPF 071059Z 0712/0812 07009KT 9999 BKN020"
    },
    {
      "icao": "EHBK",
      "alert": "OK",
      "vis_m": 9999,
      "fzfg": false,
      "metar_trigger": false,
      "taf_trigger": false,
      "metar": "METAR EHBK 071525Z AUTO 16008KT 9999 NSC 11/06 Q1003 NOSIG",
      "taf": "TAF EHBK 071109Z 0712/0818 17008KT CAVOK"
    },
    {
      "icao": "EHEH",
      "alert": "OK",
      "vis_m": 9999,
      "fzfg": false,
      "metar_trigger": false,
      "taf_trigger": false,
      "metar": "METAR EHEH 071525Z AUTO 17008KT 120V200 9999 OVC240 12/06 Q1003 BLU NOSIG RMK TREND REMOTE BY EHWX",
      "taf": "TAF EHEH 071123Z 0712/0818 19007KT CAVOK"
    },
    {
      "icao": "EKBI",
      "alert": "OK",
      "vis_m": 9999,
      "fzfg": false,
      "metar_trigger": false,
      "taf_trigger": false,
      "metar": "METAR EKBI 071520Z AUTO 09013KT 9999 -SN BKN008/// OVC026/// 00/M01 Q1009",
      "taf": "TAF EKBI 071427Z 0715/0815 09014KT 9999 BKN007"
    },
    {
      "icao": "EKCH",
      "alert": "OK",
      "vis_m": 9999,
      "fzfg": false,
      "metar_trigger": false,
      "taf_trigger": false,
      "metar": "METAR EKCH 071520Z 07009KT 9999 FEW013 OVC019 00/M02 Q1011 TEMPO 4000 -SN BKN008",
      "taf": ""
    },
    {
      "icao": "ENAL",
      "alert": "OK",
      "vis_m": 9999,
      "fzfg": false,
      "metar_trigger": false,
      "taf_trigger": false,
      "metar": "METAR ENAL 071520Z 25005KT CAVOK 02/M05 Q1012",
      "taf": "TAF ENAL 071400Z 0715/0724 VRB04KT CAVOK"
    },
    {
      "icao": "ENBR",
      "alert": "OK",
      "vis_m": 9999,
      "fzfg": false,
      "metar_trigger": false,
      "taf_trigger": false,
      "metar": "METAR ENBR 071520Z 35003KT 9999 SCT025 BKN038 01/00 Q1011 NOSIG RMK WIND 1200FT 04008KT",
      "taf": "TAF ENBR 071100Z 0712/0812 VRB03KT 9999 SCT050"
    },
    {
      "icao": "ENGM",
      "alert": "OK",
      "vis_m": 9999,
      "fzfg": false,
      "metar_trigger": false,
      "taf_trigger": false,
      "metar": "METAR ENGM 071520Z 03007KT 9999 BKN037 M05/M09 Q1019 NOSIG",
      "taf": "TAF ENGM 071100Z 0712/0812 02008KT 9999 BKN020"
    },
    {
      "icao": "ENHD",
      "alert": "OK",
      "vis_m": 9999,
      "fzfg": false,
      "metar_trigger": false,
      "taf_trigger": false,
      "metar": "METAR ENHD 071520Z 10016KT CAVOK 05/M06 Q1010",
      "taf": "TAF ENHD 071400Z 0715/0723 10010KT CAVOK"
    },
    {
      "icao": "ENTC",
      "alert": "OK",
      "vis_m": 9999,
      "fzfg": false,
      "metar_trigger": false,
      "taf_trigger": false,
      "metar": "METAR ENTC 071520Z 21004KT 170V250 CAVOK M05/M07 Q1023 NOSIG RMK WIND 2600FT 23003KT",
      "taf": "TAF ENTC 071100Z 0712/0812 18005KT CAVOK"
    },
    {
      "icao": "ENTO",
      "alert": "OK",
      "vis_m": 9999,
      "fzfg": false,
      "metar_trigger": false,
      "taf_trigger": false,
      "metar": "METAR ENTO 071520Z 01011KT 9999 OVC032 M04/M06 Q1018 NOSIG",
      "taf": "TAF ENTO 071100Z 0712/0812 02012KT 9000 -SN BKN015"
    },
    {
      "icao": "ENVA",
      "alert": "OK",
      "vis_m": 9999,
      "fzfg": false,
      "metar_trigger": false,
      "taf_trigger": false,
      "metar": "METAR ENVA 071520Z 12006KT CAVOK M04/M17 Q1018 RMK WIND 670FT 11011KT",
      "taf": "TAF ENVA 071100Z 0712/0812 10008KT CAVOK"
    },
    {
      "icao": "ENZV",
      "alert": "OK",
      "vis_m": 9999,
      "fzfg": false,
      "metar_trigger": false,
      "taf_trigger": false,
      "metar": "METAR ENZV 071520Z 10015KT CAVOK 04/M04 Q1010 NOSIG",
      "taf": ""
    },
    {
      "icao": "EPGD",
      "alert": "OK",
      "vis_m": 6000,
      "fzfg": false,
      "metar_trigger": false,
      "taf_trigger": false,
      "metar": "METAR EPGD 071530Z 04006KT 6000 -SN SCT004 OVC006 M02/M03 Q1008",
      "taf": "TAF EPGD 071130Z 0712/0812 05006KT 7000 OVC006"
    },
    {
      "icao": "EPKK",
      "alert": "OK",
      "vis_m": 1800,
      "fzfg": false,
      "metar_trigger": false,
      "taf_trigger": false,
      "metar": "METAR EPKK 071530Z 22005KT 1800 BR OVC007 03/02 Q1004",
      "taf": "TAF EPKK 071430Z 0715/0815 22004KT 2000 BR OVC009"
    },
    {
      "icao": "EPKT",
      "alert": "OK",
      "vis_m": 9999,
      "fzfg": false,
      "metar_trigger": false,
      "taf_trigger": false,
      "metar": "METAR EPKT 071530Z 32003KT 9999 -RA FEW015 BKN027 02/01 Q1004",
      "taf": ""
    },
    {
      "icao": "EPLB",
      "alert": "OK",
      "vis_m": 3000,
      "fzfg": false,
      "metar_trigger": false,
      "taf_trigger": false,
      "metar": "METAR EPLB 071530Z 08005KT 3000 -FZRA BR SCT004 BKN006 OVC009 M00/M00 Q1005",
      "taf": "TAF EPLB 071130Z 0712/0812 06005KT 5000 BR BKN005"
    },
    {
      "icao": "EPMO",
      "alert": "OK",
      "vis_m": 1200,
      "fzfg": false,
      "metar_trigger": false,
      "taf_trigger": false,
      "metar": "METAR EPMO 071530Z 02003KT 1200 R08/1400N BR OVC002 M00/M00 Q1006",
      "taf": "TAF EPMO 071130Z 0712/0812 04005KT 1500 BR OVC002"
    },
    {
      "icao": "EPPO",
      "alert": "OK",
      "vis_m": 3600,
      "fzfg": false,
      "metar_trigger": false,
      "taf_trigger": false,
      "metar": "METAR EPPO 071530Z 04004KT 3600 BR OVC003 01/M00 Q1006",
      "taf": ""
    },
    {
      "icao": "EPRA",
      "alert": "OK",
      "vis_m": 1500,
      "fzfg": false,
      "metar_trigger": false,
      "taf_trigger": false,
      "metar": "METAR EPRA 071530Z 07003KT 1500 0900N R25/1400D BR OVC002 01/00 Q1005",
      "taf": "TAF EPRA 071430Z 0715/0724 04005KT 4000 BR OVC005"
    },
    {
      "icao": "EPRZ",
      "alert": "OK",
      "vis_m": 100,
      "fzfg": false,
      "metar_trigger": false,
      "taf_trigger": false,
      "metar": "METAR EPRZ 071530Z 25003KT 0100 R27/0350N FG VV001 01/01 Q1004",
      "taf": ""
    },
    {
      "icao": "EPSC",
      "alert": "OK",
      "vis_m": 6000,
      "fzfg": false,
      "metar_trigger": false,
      "taf_trigger": false,
      "metar": "METAR EPSC 071530Z 02003KT 340V060 6000 SCT005 BKN007 01/M00 Q1008",
      "taf": ""
    },
    {
      "icao": "EPSY",
      "alert": "OK",
      "vis_m": 2300,
      "fzfg": false,
      "metar_trigger": false,
      "taf_trigger": false,
      "metar": "METAR EPSY 071530Z 04005KT 2300 BR BKN002 OVC003 M02/M02 Q1006",
      "taf": "TAF EPSY 071430Z 0715/0724 03005KT 3000 BR OVC003"
    },
    {
      "icao": "EPWA",
      "alert": "OK",
      "vis_m": 2100,
      "fzfg": false,
      "metar_trigger": false,
      "taf_trigger": false,
      "metar": "METAR EPWA 071530Z 05004KT 010V080 2100 -DZ BR OVC004 01/01 Q1005 NOSIG",
      "taf": "TAF EPWA 071430Z 0715/0815 04004KT 2000 -DZ BR OVC003"
    },
    {
      "icao": "EPWR",
      "alert": "OK",
      "vis_m": 6000,
      "fzfg": false,
      "metar_trigger": false,
      "taf_trigger": false,
      "metar": "METAR EPWR 071530Z 04003KT 6000 OVC008 03/02 Q1005",
      "taf": "TAF EPWR 071430Z 0715/0815 35003KT 5000 BR OVC008"
    },
    {
      "icao": "ESGG",
      "alert": "OK",
      "vis_m": 9999,
      "fzfg": false,
      "metar_trigger": false,
      "taf_trigger": false,
      "metar": "METAR ESGG 071520Z 07012KT 9999 BKN011 M01/M03 Q1013",
      "taf": "TAF ESGG 071430Z 0715/0815 07010KT 9999 BKN018"
    },
    {
      "icao": "ESKN",
      "alert": "OK",
      "vis_m": 9999,
      "fzfg": false,
      "metar_trigger": false,
      "taf_trigger": false,
      "metar": "METAR ESKN 071520Z 02007KT 340V050 CAVOK M04/M09 Q1018",
      "taf": "TAF ESKN 071430Z 0715/0815 03010KT CAVOK"
    },
    {
      "icao": "ESMS",
      "alert": "OK",
      "vis_m": 3100,
      "fzfg": false,
      "metar_trigger": false,
      "taf_trigger": false,
      "metar": "METAR ESMS 071520Z 07010KT 3100 -SN BKN009 OVC013 M00/M01 Q1010",
      "taf": "TAF ESMS 071427Z 0715/0815 07014KT 9999 OVC008"
    },
    {
      "icao": "ESSA",
      "alert": "OK",
      "vis_m": 9999,
      "fzfg": false,
      "metar_trigger": false,
      "taf_trigger": false,
      "metar": "METAR ESSA 071520Z 36009KT 9999 BKN018 M05/M08 Q1019 NOSIG",
      "taf": "TAF ESSA 071430Z 0715/0815 03010KT 9999 BKN018"
    },
    {
      "icao": "EYKA",
      "alert": "OK",
      "vis_m": 2400,
      "fzfg": false,
      "metar_trigger": false,
      "taf_trigger": false,
      "metar": "METAR EYKA 071520Z 04004KT 010V070 2400 -SN BR OVC008 M02/M03 Q1009",
      "taf": "TAF EYKA 071103Z 0712/0812 06010KT 5000 -SN BR SCT010 OVC020"
    },
    {
      "icao": "EYPA",
      "alert": "OK",
      "vis_m": 6000,
      "fzfg": false,
      "metar_trigger": false,
      "taf_trigger": false,
      "metar": "METAR EYPA 071520Z 06006KT 6000 -SN OVC049 M04/M06 Q1011",
      "taf": "TAF EYPA 071102Z 0712/0812 05012KT 9000 SCT010 OVC025"
    },
    {
      "icao": "EYVI",
      "alert": "OK",
      "vis_m": 9000,
      "fzfg": false,
      "metar_trigger": false,
      "taf_trigger": false,
      "metar": "METAR EYVI 071520Z 05007KT 9000 -SN FEW010 M03/M05 Q1008 NOSIG",
      "taf": "TAF EYVI 071106Z 0712/0812 05008KT 5000 -SN BR SCT010 OVC020"
    },
    {
      "icao": "GCFV",
      "alert": "OK",
      "vis_m": 9999,
      "fzfg": false,
      "metar_trigger": false,
      "taf_trigger": false,
      "metar": "METAR GCFV 071530Z 08006KT 050V120 CAVOK 19/12 Q1024",
      "taf": "TAF GCFV 071400Z 0715/0815 08005KT 9999 FEW030 TX22/0814Z TN13/0806Z"
    },
    {
      "icao": "GCLP",
      "alert": "OK",
      "vis_m": 9999,
      "fzfg": false,
      "metar_trigger": false,
      "taf_trigger": false,
      "metar": "METAR GCLP 071530Z 06009KT 010V080 9999 FEW037 20/12 Q1024 NOSIG",
      "taf": "TAF GCLP 071400Z 0715/0815 04010KT 9999 FEW035 TX22/0814Z TN15/0806Z"
    },
    {
      "icao": "GCTS",
      "alert": "OK",
      "vis_m": 9999,
      "fzfg": false,
      "metar_trigger": false,
      "taf_trigger": false,
      "metar": "METAR GCTS 071530Z 21009KT 190V250 9999 FEW035 21/13 Q1024 NOSIG",
      "taf": "TAF GCTS 071400Z 0715/0815 19005KT 9999 SCT030 TX23/0814Z TN13/0806Z"
    },
    {
      "icao": "GMAD",
      "alert": "OK",
      "vis_m": 9999,
      "fzfg": false,
      "metar_trigger": false,
      "taf_trigger": false,
      "metar": "METAR GMAD 071530Z 22005KT 180V250 CAVOK 21/10 Q1022 NOSIG",
      "taf": "TAF GMAD 071100Z 0712/0818 28012KT 8000 SCT020"
    },
    {
      "icao": "GMMN",
      "alert": "OK",
      "vis_m": 9999,
      "fzfg": false,
      "metar_trigger": false,
      "taf_trigger": false,
      "metar": "METAR GMMN 071530Z 24017KT 9999 SCT023 17/11 Q1019 NOSIG",
      "taf": "TAF GMMN 071100Z 0712/0818 22016KT 9999 SCT020"
    },
    {
      "icao": "GMMX",
      "alert": "OK",
      "vis_m": 9999,
      "fzfg": false,
      "metar_trigger": false,
      "taf_trigger": false,
      "metar": "METAR GMMX 071530Z 26007KT 230V290 CAVOK 18/09 Q1021 NOSIG",
      "taf": "TAF GMMX 071100Z 0712/0818 22006KT 8000 NSC"
    },
    {
      "icao": "HEGN",
      "alert": "OK",
      "vis_m": 9999,
      "fzfg": false,
      "metar_trigger": false,
      "taf_trigger": false,
      "metar": "METAR HEGN 071500Z 14005KT CAVOK 25/07 Q1014 NOSIG",
      "taf": "TAF HEGN 071100Z 0712/0818 13008KT CAVOK"
    },
    {
      "icao": "HEMA",
      "alert": "OK",
      "vis_m": 9999,
      "fzfg": false,
      "metar_trigger": false,
      "taf_trigger": false,
      "metar": "METAR HEMA 071500Z 08003KT CAVOK 25/14 Q1015 NOSIG",
      "taf": "TAF HEMA 071100Z 0712/0818 14008KT CAVOK"
    },
    {
      "icao": "HESH",
      "alert": "OK",
      "vis_m": 9999,
      "fzfg": false,
      "metar_trigger": false,
      "taf_trigger": false,
      "metar": "METAR HESH 071500Z 09007KT CAVOK 25/16 Q1014 NOSIG",
      "taf": "TAF HESH 071100Z 0712/0818 14008KT CAVOK"
    },
    {
      "icao": "HESX",
      "alert": "OK",
      "vis_m": 9999,
      "fzfg": false,
      "metar_trigger": false,
      "taf_trigger": false,
      "metar": "METAR HESX 071500Z 27008KT CAVOK 25/03 Q1014 NOSIG",
      "taf": ""
    },
    {
      "icao": "LATI",
      "alert": "OK",
      "vis_m": 9999,
      "fzfg": false,
      "metar_trigger": false,
      "taf_trigger": false,
      "metar": "METAR LATI 071520Z 22009KT 190V250 9999 BKN078 16/07 Q1008 NOSIG",
      "taf": "TAF LATI 071100Z 0712/0812 22010KT 9999 FEW025CB SCT040 BKN060 TX16/0712Z TN09/0802Z"
    },
    {
      "icao": "LBPD",
      "alert": "OK",
      "vis_m": 9999,
      "fzfg": false,
      "metar_trigger": false,
      "taf_trigger": false,
      "metar": "METAR LBPD 071530Z AUTO 30008KT 9999 -RA FEW042/// SCT067/// OVC077/// 13/08 Q1004 NOSIG",
      "taf": "TAF LBPD 071100Z 0712/0812 31010KT 9999 BKN050"
    },
    {
      "icao": "LBSF",
      "alert": "OK",
      "vis_m": 8000,
      "fzfg": false,
      "metar_trigger": false,
      "taf_trigger": false,
      "metar": "METAR LBSF 071530Z 31006KT 8000 -RA SCT034 BKN047 OVC054 08/06 Q1005 RERA NOSIG",
      "taf": "TAF LBSF 071100Z 0712/0812 32010KT 9999 SCT030 BKN050"
    },
    {
      "icao": "LBWN",
      "alert": "OK",
      "vis_m": 9999,
      "fzfg": false,
      "metar_trigger": false,
      "taf_trigger": false,
      "metar": "METAR LBWN 071530Z AUTO 34004KT 9999 BKN017/// 09/07 Q1004 NOSIG",
      "taf": "TAF LBWN 071100Z 0712/0812 30010KT 9999 BKN012 BKN030"
    },
    {
      "icao": "LCLK",
      "alert": "OK",
      "vis_m": 9999,
      "fzfg": false,
      "metar_trigger": false,
      "taf_trigger": false,
      "metar": "METAR LCLK 071530Z 24013KT 9999 FEW030 19/16 Q1007 NOSIG",
      "taf": "TAF LCLK 071130Z 0712/0812 22020KT 9999 FEW025 SCT040"
    },
    {
      "icao": "LCPH",
      "alert": "OK",
      "vis_m": 9999,
      "fzfg": false,
      "metar_trigger": false,
      "taf_trigger": false,
      "metar": "METAR LCPH 071530Z 32008KT 9999 FEW012 18/16 Q1009 NOSIG",
      "taf": "TAF LCPH 071130Z 0712/0812 26016KT 9999 FEW018 SCT030"
    },
    {
      "icao": "LEAL",
      "alert": "OK",
      "vis_m": 9999,
      "fzfg": false,
      "metar_trigger": false,
      "taf_trigger": false,
      "metar": "METAR LEAL 071530Z 19007KT 150V240 CAVOK 16/05 Q1010 NOSIG",
      "taf": "TAF LEAL 071100Z 0712/0812 22012KT 9999 FEW040 TX16/0714Z TN08/0806Z"
    },
    {
      "icao": "LEBB",
      "alert": "OK",
      "vis_m": 9999,
      "fzfg": false,
      "metar_trigger": false,
      "taf_trigger": false,
      "metar": "METAR LEBB 071530Z 16009KT 120V210 9999 FEW035 14/02 Q1000 NOSIG",
      "taf": "TAF LEBB 071100Z 0712/0812 20010KT CAVOK TX14/0714Z TN07/0804Z"
    },
    {
      "icao": "LEBL",
      "alert": "OK",
      "vis_m": 9999,
      "fzfg": false,
      "metar_trigger": false,
      "taf_trigger": false,
      "metar": "METAR LEBL 071530Z 26016KT CAVOK 16/03 Q1007 NOSIG",
      "taf": "TAF LEBL 071100Z 0712/0812 29009KT 9999 FEW025 TX16/0713Z TN07/0806Z"
    },
    {
      "icao": "LECH",
      "alert": "OK",
      "vis_m": 9999,
      "fzfg": false,
      "metar_trigger": false,
      "taf_trigger": false,
      "metar": "METAR LECH 071530Z AUTO 22013KT CAVOK 13/M01 Q1007",
      "taf": ""
    },
    {
      "icao": "LEMD",
      "alert": "OK",
      "vis_m": 4000,
      "fzfg": false,
      "metar_trigger": false,
      "taf_trigger": false,
      "metar": "METAR LEMD 071530Z 10003KT 040V150 4000 -RA BKN014 OVC020 04/04 Q1004 RERA NOSIG",
      "taf": ""
    },
    {
      "icao": "LEMG",
      "alert": "OK",
      "vis_m": 6000,
      "fzfg": false,
      "metar_trigger": false,
      "taf_trigger": false,
      "metar": "METAR LEMG 071530Z 21015G30KT 170V250 6000 -SHRA FEW020CB BKN030 BKN040 14/11 Q1011 NOSIG",
      "taf": ""
    },
    {
      "icao": "LEVC",
      "alert": "OK",
      "vis_m": 9999,
      "fzfg": false,
      "metar_trigger": false,
      "taf_trigger": false,
      "metar": "METAR LEVC 071530Z 25010KT 9999 FEW035 15/02 Q1009 NOSIG",
      "taf": "TAF LEVC 071100Z 0712/0812 27014KT 9999 SCT035 TX16/0714Z TN08/0806Z"
    },
    {
      "icao": "LEXJ",
      "alert": "OK",
      "vis_m": 9999,
      "fzfg": false,
      "metar_trigger": false,
      "taf_trigger": false,
      "metar": "METAR LEXJ 071530Z 18013G23KT 160V250 CAVOK 13/02 Q0999",
      "taf": "TAF LEXJ 071400Z 0715/0815 20009KT 9999 SCT050 TX13/0715Z TN07/0719Z"
    },
    {
      "icao": "LEZG",
      "alert": "OK",
      "vis_m": 9999,
      "fzfg": false,
      "metar_trigger": false,
      "taf_trigger": false,
      "metar": "METAR LEZG 071530Z 20003KT 160V240 9999 FEW050 13/02 Q1006 NOSIG",
      "taf": "TAF LEZG 071100Z 0712/0812 24012KT 9999 FEW050 TX13/0715Z TN05/0806Z"
    },
    {
      "icao": "LEZL",
      "alert": "OK",
      "vis_m": 9000,
      "fzfg": false,
      "metar_trigger": false,
      "taf_trigger": false,
      "metar": "METAR LEZL 071530Z 22017KT 9000 SCT029 BKN044 13/11 Q1008 NOSIG",
      "taf": "TAF LEZL 071400Z 0715/0815 24018KT 9999 SCT030 SCT040 TX14/0815Z TN09/0807Z"
    },
    {
      "icao": "LFBD",
      "alert": "OK",
      "vis_m": 9999,
      "fzfg": false,
      "metar_trigger": false,
      "taf_trigger": false,
      "metar": "METAR LFBD 071530Z AUTO 18008KT 140V220 CAVOK 14/06 Q1002 NOSIG",
      "taf": ""
    },
    {
      "icao": "LFLL",
      "alert": "OK",
      "vis_m": 9999,
      "fzfg": false,
      "metar_trigger": false,
      "taf_trigger": false,
      "metar": "METAR LFLL 071530Z 00000KT 9999 FEW018 BKN190 10/06 Q1004 NOSIG",
      "taf": "TAF LFLL 071100Z 0712/0818 VRB04KT 9999 FEW015 BKN100"
    },
    {
      "icao": "LFLS",
      "alert": "OK",
      "vis_m": 9999,
      "fzfg": false,
      "metar_trigger": false,
      "taf_trigger": false,
      "metar": "METAR LFLS 071530Z AUTO 23006KT 200V260 9999 BKN028 BKN160 11/06 Q1004 NOSIG",
      "taf": "TAF LFLS 071400Z 0715/0815 VRB03KT CAVOK"
    },
    {
      "icao": "LFMN",
      "alert": "OK",
      "vis_m": 9999,
      "fzfg": false,
      "metar_trigger": false,
      "taf_trigger": false,
      "metar": "METAR LFMN 071530Z 11005KT 9999 -RA SCT023 BKN073 13/10 Q1003 NOSIG",
      "taf": "TAF LFMN 071400Z 0715/0821 09010KT 9999 BKN030"
    },
    {
      "icao": "LFOB",
      "alert": "OK",
      "vis_m": 9999,
      "fzfg": false,
      "metar_trigger": false,
      "taf_trigger": false,
      "metar": "METAR LFOB 071530Z AUTO 18013KT 9999 FEW039 BKN046 BKN180 12/06 Q1001 NOSIG",
      "taf": "TAF LFOB 071100Z 0712/0812 19012KT 9999 SCT020"
    },
    {
      "icao": "LFPO",
      "alert": "OK",
      "vis_m": 9999,
      "fzfg": false,
      "metar_trigger": false,
      "taf_trigger": false,
      "metar": "METAR LFPO 071530Z 20008KT 170V240 9999 SCT033 SCT230 13/06 Q1002 NOSIG",
      "taf": "TAF LFPO 071100Z 0712/0818 19010KT 9999 BKN030"
    },
    {
      "icao": "LFSB",
      "alert": "OK",
      "vis_m": 9999,
      "fzfg": false,
      "metar_trigger": false,
      "taf_trigger": false,
      "metar": "METAR LFSB 071530Z AUTO 34002KT CAVOK 12/05 Q1004 NOSIG",
      "taf": "TAF LFSB 071100Z 0712/0812 17005KT CAVOK"
    },
    {
      "icao": "LGAV",
      "alert": "OK",
      "vis_m": 9999,
      "fzfg": false,
      "metar_trigger": false,
      "taf_trigger": false,
      "metar": "METAR LGAV 071520Z 20012KT CAVOK 17/10 Q1007 NOSIG",
      "taf": "TAF LGAV 071100Z 0712/0812 26014KT 9999 FEW020"
    },
    {
      "icao": "LGTS",
      "alert": "OK",
      "vis_m": 9999,
      "fzfg": false,
      "metar_trigger": false,
      "taf_trigger": false,
      "metar": "METAR LGTS 071520Z VRB01KT 9999 FEW018 19/10 Q1004 NOSIG",
      "taf": "TAF LGTS 071100Z 0712/0812 VRB03KT 4000 BR SCT005"
    },
    {
      "icao": "LHBP",
      "alert": "OK",
      "vis_m": 9999,
      "fzfg": false,
      "metar_trigger": false,
      "taf_trigger": false,
      "metar": "METAR LHBP 071530Z 32008KT 9999 FEW026 BKN160 07/03 Q1004 NOSIG",
      "taf": "TAF LHBP 071115Z 0712/0812 29008KT 9999 BKN028"
    },
    {
      "icao": "LHDC",
      "alert": "OK",
      "vis_m": 9999,
      "fzfg": false,
      "metar_trigger": false,
      "taf_trigger": false,
      "metar": "METAR LHDC 071515Z AUTO 27005KT 9999 BKN023 07/05 Q1004 NOSIG",
      "taf": "TAF LHDC 071415Z 0715/0724 24008KT 9999 BKN020"
    },
    {
      "icao": "LIBD",
      "alert": "OK",
      "vis_m": 8000,
      "fzfg": false,
      "metar_trigger": false,
      "taf_trigger": false,
      "metar": "METAR LIBD 071520Z 14009KT 8000 -RA VCSH FEW015 SCT045 14/10 Q1006",
      "taf": "TAF LIBD 071100Z 0712/0812 VRB06KT 9999 SCT045"
    },
    {
      "icao": "LIBG",
      "alert": "OK",
      "vis_m": 9999,
      "fzfg": false,
      "metar_trigger": false,
      "taf_trigger": false,
      "metar": "METAR LIBG 071450Z 19007KT CAVOK 16/10 Q1006",
      "taf": "TAF LIBG 071400Z 0715/0724 22010KT 9999 SCT040"
    },
    {
      "icao": "LIBP",
      "alert": "OK",
      "vis_m": 9999,
      "fzfg": false,
      "metar_trigger": false,
      "taf_trigger": false,
      "metar": "METAR LIBP 071520Z AUTO 08005KT 030V110 9999 OVC070/// 15/06 Q1005",
      "taf": "TAF LIBP 071100Z 0712/0812 VRB05KT 9999 FEW050"
    },
    {
      "icao": "LIBR",
      "alert": "OK",
      "vis_m": 9999,
      "fzfg": false,
      "metar_trigger": false,
      "taf_trigger": false,
      "metar": "METAR LIBR 071520Z 22010KT CAVOK 17/09 Q1006",
      "taf": "TAF LIBR 071100Z 0712/0812 24010KT 9999 SCT040"
    },
    {
      "icao": "LICA",
      "alert": "OK",
      "vis_m": 9999,
      "fzfg": false,
      "metar_trigger": false,
      "taf_trigger": false,
      "metar": "METAR LICA 071520Z AUTO 25009KT 9999 -RA OVC024/// 15/12 Q1009",
      "taf": "TAF LICA 071100Z 0712/0812 27015KT 9999 SCT015"
    },
    {
      "icao": "LICC",
      "alert": "OK",
      "vis_m": 9999,
      "fzfg": false,
      "metar_trigger": false,
      "taf_trigger": false,
      "metar": "METAR LICC 071520Z 26015KT 9999 BKN120 18/13 Q1009",
      "taf": "TAF LICC 071100Z 0712/0812 26015KT 9999 SCT050"
    },
    {
      "icao": "LICJ",
      "alert": "OK",
      "vis_m": 9999,
      "fzfg": false,
      "metar_trigger": false,
      "taf_trigger": false,
      "metar": "METAR LICJ 071520Z 22011KT 9999 SCT070 15/11 Q1010",
      "taf": "TAF LICJ 071100Z 0712/0812 23018G28KT 9999 BKN030"
    },
    {
      "icao": "LIMC",
      "alert": "OK",
      "vis_m": 9999,
      "fzfg": false,
      "metar_trigger": false,
      "taf_trigger": false,
      "metar": "METAR LIMC 071520Z 24004KT 190V260 9999 BKN065 11/07 Q1004 NOSIG",
      "taf": "TAF LIMC 071100Z 0712/0818 VRB05KT CAVOK"
    },
    {
      "icao": "LIME",
      "alert": "OK",
      "vis_m": 9999,
      "fzfg": false,
      "metar_trigger": false,
      "taf_trigger": false,
      "metar": "METAR LIME 071450Z VRB02KT 9999 SCT040 SCT060 11/07 Q1004 NOSIG",
      "taf": "TAF LIME 071100Z 0712/0812 VRB05KT 9999 SCT090"
    },
    {
      "icao": "LIMF",
      "alert": "OK",
      "vis_m": 9999,
      "fzfg": false,
      "metar_trigger": false,
      "taf_trigger": false,
      "metar": "METAR LIMF 071520Z 22004KT 190V250 9999 FEW030 12/06 Q1004",
      "taf": "TAF LIMF 071100Z 0712/0812 VRB05KT CAVOK"
    },
    {
      "icao": "LIMJ",
      "alert": "OK",
      "vis_m": 9999,
      "fzfg": false,
      "metar_trigger": false,
      "taf_trigger": false,
      "metar": "METAR LIMJ 071520Z 14012KT 9999 SCT024 BKN036 13/09 Q1004",
      "taf": "TAF LIMJ 071100Z 0712/0812 VRB06KT 9999 SCT040"
    },
    {
      "icao": "LIPE",
      "alert": "OK",
      "vis_m": 9999,
      "fzfg": false,
      "metar_trigger": false,
      "taf_trigger": false,
      "metar": "METAR LIPE 071520Z 09006KT 9999 SCT060 11/09 Q1004",
      "taf": "TAF LIPE 071100Z 0712/0812 VRB05KT 9000 SCT030"
    },
    {
      "icao": "LIPH",
      "alert": "OK",
      "vis_m": 7000,
      "fzfg": false,
      "metar_trigger": false,
      "taf_trigger": false,
      "metar": "METAR LIPH 071520Z 06006KT 7000 BKN060 11/09 Q1005",
      "taf": "TAF LIPH 071100Z 0712/0812 VRB05KT 6000 SCT020"
    },
    {
      "icao": "LIPQ",
      "alert": "OK",
      "vis_m": 9999,
      "fzfg": false,
      "metar_trigger": false,
      "taf_trigger": false,
      "metar": "METAR LIPQ 071520Z AUTO 06005KT 020V080 9999 -RA OVC053/// 10/09 Q1005",
      "taf": "TAF LIPQ 071100Z 0712/0812 VRB05KT 8000 BKN050"
    },
    {
      "icao": "LIPR",
      "alert": "OK",
      "vis_m": 9999,
      "fzfg": false,
      "metar_trigger": false,
      "taf_trigger": false,
      "metar": "METAR LIPR 071520Z 03005KT 9999 VCSH FEW030 BKN050 11/08 Q1004",
      "taf": "TAF LIPR 071100Z 0712/0812 VRB05KT 9999 SCT030"
    },
    {
      "icao": "LIPX",
      "alert": "OK",
      "vis_m": 9999,
      "fzfg": false,
      "metar_trigger": false,
      "taf_trigger": false,
      "metar": "METAR LIPX 071520Z 11005KT 070V140 9999 FEW050 13/09 Q1004",
      "taf": "TAF LIPX 071100Z 0712/0812 VRB05KT 9999 SCT050"
    },
    {
      "icao": "LIPY",
      "alert": "OK",
      "vis_m": 8000,
      "fzfg": false,
      "metar_trigger": false,
      "taf_trigger": false,
      "metar": "METAR LIPY 071520Z AUTO 13006KT 100V180 8000 RA OVC042/// 12/10 Q1005",
      "taf": "TAF LIPY 071100Z 0712/0812 VRB05KT 9999 SCT040"
    },
    {
      "icao": "LIPZ",
      "alert": "OK",
      "vis_m": 6000,
      "fzfg": false,
      "metar_trigger": false,
      "taf_trigger": false,
      "metar": "METAR LIPZ 071520Z 08006KT 6000 SCT009 SCT050 11/09 Q1005 NOSIG",
      "taf": "TAF LIPZ 071100Z 0712/0818 VRB05KT 2000 BR BKN003 BKN060"
    },
    {
      "icao": "LIRF",
      "alert": "OK",
      "vis_m": 8000,
      "fzfg": false,
      "metar_trigger": false,
      "taf_trigger": false,
      "metar": "METAR LIRF 071520Z 27014KT 8000 TSRA FEW010CB SCT030 13/10 Q1005 NOSIG",
      "taf": "TAF LIRF 071100Z 0712/0818 16012KT 9999 SCT030"
    },
    {
      "icao": "LIRN",
      "alert": "OK",
      "vis_m": 8000,
      "fzfg": false,
      "metar_trigger": false,
      "taf_trigger": false,
      "metar": "METAR LIRN 071520Z 19006KT 140V230 8000 -RA SCT015 BKN040 15/12 Q1006 NOSIG",
      "taf": "TAF LIRN 071100Z 0712/0812 19010KT 9999 SCT040"
    },
    {
      "icao": "LIRP",
      "alert": "OK",
      "vis_m": 9999,
      "fzfg": false,
      "metar_trigger": false,
      "taf_trigger": false,
      "metar": "METAR LIRP 071515Z VRB02KT 9999 -RA FEW010TCU SCT020 12/11 Q1005 TEMPO 5000",
      "taf": "TAF LIRP 071100Z 0712/0812 28005KT 9999 SCT040"
    },
    {
      "icao": "LIRZ",
      "alert": "OK",
      "vis_m": 9999,
      "fzfg": false,
      "metar_trigger": false,
      "taf_trigger": false,
      "metar": "METAR LIRZ 071520Z AUTO 14007KT 9999 -RA SCT053/// BKN080/// 10/08 Q1005",
      "taf": "TAF LIRZ 071100Z 0712/0812 18010KT 9999 BKN030"
    },
    {
      "icao": "LJLJ",
      "alert": "OK",
      "vis_m": 9999,
      "fzfg": false,
      "metar_trigger": false,
      "taf_trigger": false,
      "metar": "METAR LJLJ 071530Z 30008KT 9999 -RA BKN040 08/06 Q1005 NOSIG",
      "taf": "TAF LJLJ 071100Z 0712/0812 VRB02KT 9999 SCT005 BKN060"
    },
    {
      "icao": "LKMT",
      "alert": "OK",
      "vis_m": 400,
      "fzfg": false,
      "metar_trigger": false,
      "taf_trigger": false,
      "metar": "METAR LKMT 071530Z 10001KT 0400 R22/0650N R04/0800N -DZ FG VV003 03/03 Q1005 NOSIG",
      "taf": "TAF LKMT 071100Z 0712/0812 23006KT 2100 BR OVC007"
    },
    {
      "icao": "LKPR",
      "alert": "OK",
      "vis_m": 2000,
      "fzfg": false,
      "metar_trigger": false,
      "taf_trigger": false,
      "metar": "METAR LKPR 071530Z 05004KT 2000 BR SCT002 BKN003 OVC010 03/03 Q1004 NOSIG",
      "taf": "TAF LKPR 071400Z 0715/0821 34002KT 2500 BR OVC003"
    },
    {
      "icao": "LLBG",
      "alert": "OK",
      "vis_m": 9999,
      "fzfg": false,
      "metar_trigger": false,
      "taf_trigger": false,
      "metar": "METAR LLBG 071520Z 23008KT CAVOK 22/09 Q1013 NOSIG",
      "taf": "TAF LLBG 071102Z 0712/0812 24015KT CAVOK"
    },
    {
      "icao": "LMML",
      "alert": "OK",
      "vis_m": null,
      "fzfg": false,
      "metar_trigger": false,
      "taf_trigger": false,
      "metar": "",
      "taf": "TAF LMML 071100Z 0712/0812 26008KT 9999 FEW020"
    },
    {
      "icao": "LOWW",
      "alert": "OK",
      "vis_m": 9999,
      "fzfg": false,
      "metar_trigger": false,
      "taf_trigger": false,
      "metar": "METAR LOWW 071520Z 05004KT 020V080 9999 SCT050 08/04 Q1005 NOSIG",
      "taf": "TAF LOWW 071415Z 0715/0821 VRB03KT 9999 BKN025 TX08/0715Z TN03/0821Z"
    },
    {
      "icao": "LPFR",
      "alert": "OK",
      "vis_m": 9999,
      "fzfg": false,
      "metar_trigger": false,
      "taf_trigger": false,
      "metar": "METAR LPFR 071530Z 29013G23KT 250V320 9999 4000E -SHRA FEW008 SCT015CB BKN020 12/12 Q1008 RESHRA",
      "taf": "TAF LPFR 071100Z 0712/0812 23023KT 6000 -RA SCT008 BKN018"
    },
    {
      "icao": "LPMA",
      "alert": "OK",
      "vis_m": 9999,
      "fzfg": false,
      "metar_trigger": false,
      "taf_trigger": false,
      "metar": "METAR LPMA 071530Z 24011KT 200V270 9999 FEW015 20/13 Q1020",
      "taf": "TAF LPMA 071100Z 0712/0812 23010KT 9999 SCT015"
    },
    {
      "icao": "LPPR",
      "alert": "OK",
      "vis_m": 8000,
      "fzfg": false,
      "metar_trigger": false,
      "taf_trigger": false,
      "metar": "METAR LPPR 071530Z 21020G31KT 8000 -SHRA FEW010 FEW017CB BKN020 13/10 Q0992",
      "taf": "TAF LPPR 071100Z 0712/0812 18018KT 8000 -RA SCT012 BKN025"
    },
    {
      "icao": "LPPS",
      "alert": "OK",
      "vis_m": 9999,
      "fzfg": false,
      "metar_trigger": false,
      "taf_trigger": false,
      "metar": "METAR LPPS 071530Z 27018KT 9999 FEW014 19/15 Q1019",
      "taf": "TAF LPPS 071100Z 0712/0818 27018KT 9999 SCT015"
    },
    {
      "icao": "LPPT",
      "alert": "OK",
      "vis_m": 8000,
      "fzfg": false,
      "metar_trigger": false,
      "taf_trigger": false,
      "metar": "METAR LPPT 071530Z 27024G38KT 8000 VCSH FEW015 SCT028 FEW032CB 13/10 Q1003 RESHRA WS R20",
      "taf": "TAF LPPT 071100Z 0712/0818 27018KT 9999 SCT025"
    },
    {
      "icao": "LQBK",
      "alert": "OK",
      "vis_m": 9999,
      "fzfg": false,
      "metar_trigger": false,
      "taf_trigger": false,
      "metar": "METAR LQBK 071530Z 15004KT CAVOK 11/08 Q1005 NOSIG",
      "taf": "TAF LQBK 071100Z 0712/0812 VRB02KT 7000 SCT030 BKN045 TX12/0713Z TN04/0805Z"
    },
    {
      "icao": "LQSA",
      "alert": "OK",
      "vis_m": 8000,
      "fzfg": false,
      "metar_trigger": false,
      "taf_trigger": false,
      "metar": "METAR LQSA 071530Z 31004KT 8000 SCT015 BKN030 07/07 Q1006 NOSIG",
      "taf": "TAF LQSA 071100Z 0712/0812 VRB02KT 4000 RA BR BKN004 BKN030 TX08/0713Z TN02/0805Z"
    },
    {
      "icao": "LQTZ",
      "alert": "OK",
      "vis_m": 3500,
      "fzfg": false,
      "metar_trigger": false,
      "taf_trigger": false,
      "metar": "METAR LQTZ 071530Z VRB02KT 3500 -RA BR OVC020 09/09 Q1006",
      "taf": "TAF LQTZ 071100Z 0712/0812 VRB02KT 7000 SCT012 BKN035 TX10/0713Z TN03/0805Z"
    },
    {
      "icao": "LRBC",
      "alert": "OK",
      "vis_m": 6000,
      "fzfg": false,
      "metar_trigger": false,
      "taf_trigger": false,
      "metar": "METAR LRBC 071530Z VRB02KT 6000 FEW010 BKN069 02/01 Q1004",
      "taf": "TAF LRBC 071400Z 0715/0724 VRB04KT 7000 OVC010"
    },
    {
      "icao": "LRBS",
      "alert": "OK",
      "vis_m": 9999,
      "fzfg": false,
      "metar_trigger": false,
      "taf_trigger": false,
      "metar": "METAR LRBS 071530Z 27008KT 250V310 9999 OVC009 06/04 Q1005 NOSIG",
      "taf": "TAF LRBS 071100Z 0712/0812 24010KT 9999 OVC010"
    },
    {
      "icao": "LRBV",
      "alert": "OK",
      "vis_m": 9999,
      "fzfg": false,
      "metar_trigger": false,
      "taf_trigger": false,
      "metar": "METAR LRBV 071530Z 34002KT 9999 FEW020 SCT033 BKN049 06/04 Q1003",
      "taf": "TAF LRBV 071400Z 0715/0724 VRB04KT 9999 BKN015 BKN035"
    },
    {
      "icao": "LRCL",
      "alert": "OK",
      "vis_m": 9999,
      "fzfg": false,
      "metar_trigger": false,
      "taf_trigger": false,
      "metar": "METAR LRCL 071530Z VRB01KT 9999 OVC059 08/05 Q1003",
      "taf": "TAF LRCL 071400Z 0715/0724 VRB04KT 9999 BKN040"
    },
    {
      "icao": "LRCV",
      "alert": "OK",
      "vis_m": 9999,
      "fzfg": false,
      "metar_trigger": false,
      "taf_trigger": false,
      "metar": "METAR LRCV 071530Z 24003KT 9999 BKN011 BKN030 05/04 Q1004",
      "taf": "TAF LRCV 071400Z 0715/0724 VRB04KT 9999 BKN010 BKN025"
    },
    {
      "icao": "LRIA",
      "alert": "OK",
      "vis_m": 9999,
      "fzfg": false,
      "metar_trigger": false,
      "taf_trigger": false,
      "metar": "METAR LRIA 071530Z 29003KT 9999 FEW007 SCT019 M00/M01 Q1004",
      "taf": "TAF LRIA 071400Z 0715/0724 VRB04KT 9999 SCT005 OVC010"
    },
    {
      "icao": "LROP",
      "alert": "OK",
      "vis_m": 9999,
      "fzfg": false,
      "metar_trigger": false,
      "taf_trigger": false,
      "metar": "METAR LROP 071530Z 26006KT 9999 OVC009 06/05 Q1004 NOSIG",
      "taf": "TAF LROP 071100Z 0712/0812 24010KT 9999 OVC010"
    },
    {
      "icao": "LRSB",
      "alert": "OK",
      "vis_m": 9999,
      "fzfg": false,
      "metar_trigger": false,
      "taf_trigger": false,
      "metar": "METAR LRSB 071530Z VRB02KT 9999 FEW078 07/05 Q1003",
      "taf": "TAF LRSB 071100Z 0712/0812 VRB04KT 9999 BKN035"
    },
    {
      "icao": "LRSM",
      "alert": "OK",
      "vis_m": 9999,
      "fzfg": false,
      "metar_trigger": false,
      "taf_trigger": false,
      "metar": "METAR LRSM 071530Z AUTO 24005KT 9999 SCT028/// BKN032/// 08/06 Q1004",
      "taf": ""
    },
    {
      "icao": "LRSV",
      "alert": "OK",
      "vis_m": 1500,
      "fzfg": false,
      "metar_trigger": false,
      "taf_trigger": false,
      "metar": "METAR LRSV 071530Z 00000KT 1500 BR SCT002 OVC039 M01/M01 Q1003",
      "taf": "TAF LRSV 071400Z 0715/0724 VRB04KT 1500 BR BKN002"
    },
    {
      "icao": "LRTM",
      "alert": "OK",
      "vis_m": 9999,
      "fzfg": false,
      "metar_trigger": false,
      "taf_trigger": false,
      "metar": "METAR LRTM 071530Z VRB02KT 9999 -SHRA FEW016 SCT021 BKN032 SCT040CB 07/06 Q1003",
      "taf": "TAF LRTM 071400Z 0715/0724 VRB04KT 9999 BKN030"
    },
    {
      "icao": "LRTR",
      "alert": "OK",
      "vis_m": 9999,
      "fzfg": false,
      "metar_trigger": false,
      "taf_trigger": false,
      "metar": "METAR LRTR 071530Z 31003KT 9999 FEW016 SCT028 09/08 Q1005 NOSIG",
      "taf": "TAF LRTR 071100Z 0712/0812 VRB04KT CAVOK"
    },
    {
      "icao": "LTAC",
      "alert": "OK",
      "vis_m": 9999,
      "fzfg": false,
      "metar_trigger": false,
      "taf_trigger": false,
      "metar": "METAR LTAC 071520Z 21009KT 9999 SCT035 BKN080 08/05 Q1005 NOSIG RMK RWY21C 22009KT RWY03L 21008KT RWY21R 21009KT 170V230 RWY03R 20010KT RWY21L 22011KT",
      "taf": "TAF LTAC 071040Z 0712/0812 23009KT 9999 SCT040 SCT100"
    },
    {
      "icao": "LTFM",
      "alert": "OK",
      "vis_m": 6000,
      "fzfg": false,
      "metar_trigger": false,
      "taf_trigger": false,
      "metar": "METAR LTFM 071520Z 07007KT 6000 BKN004 BKN022 08/07 Q1004 NOSIG RMK RWY17L 08007KT RWY34L 07007KT RWY16R 08007KT RWY36 08007KT 040V100 RWY18 09006KT",
      "taf": ""
    },
    {
      "icao": "LUKK",
      "alert": "OK",
      "vis_m": 9999,
      "fzfg": false,
      "metar_trigger": false,
      "taf_trigger": false,
      "metar": "METAR LUKK 071530Z 34004KT 9999 OVC010 00/M01 Q1004 NOSIG",
      "taf": "TAF LUKK 071110Z 0712/0812 34005KT 9999 OVC008"
    },
    {
      "icao": "LWOH",
      "alert": "OK",
      "vis_m": 9999,
      "fzfg": false,
      "metar_trigger": false,
      "taf_trigger": false,
      "metar": "METAR LWOH 071520Z 17011KT 150V210 9999 BKN040 10/06 Q1007",
      "taf": ""
    },
    {
      "icao": "LWSK",
      "alert": "OK",
      "vis_m": 9999,
      "fzfg": false,
      "metar_trigger": false,
      "taf_trigger": false,
      "metar": "METAR LWSK 071526Z COR 35002KT 9999 FEW033 13/09 Q1005 NOSIG",
      "taf": ""
    },
    {
      "icao": "LYBE",
      "alert": "OK",
      "vis_m": 8000,
      "fzfg": false,
      "metar_trigger": false,
      "taf_trigger": false,
      "metar": "METAR LYBE 071530Z 24003KT 8000 NSC 10/07 Q1005 NOSIG",
      "taf": "TAF LYBE 071100Z 0712/0812 25006KT 4000 BR BKN007 TX11/0713Z TN05/0806Z"
    },
    {
      "icao": "LYNI",
      "alert": "OK",
      "vis_m": 8000,
      "fzfg": false,
      "metar_trigger": false,
      "taf_trigger": false,
      "metar": "METAR LYNI 071530Z 03002KT 8000 -RA FEW015 BKN033 BKN067 09/08 Q1005 NOSIG",
      "taf": "TAF LYNI 071100Z 0712/0812 32005KT 8000 SCT012 BKN030 TX10/0713Z TN05/0806Z"
    },
    {
      "icao": "LYPG",
      "alert": "OK",
      "vis_m": 9999,
      "fzfg": false,
      "metar_trigger": false,
      "taf_trigger": false,
      "metar": "METAR LYPG 071530Z 21003KT 160V230 9999 RA FEW016 BKN040 11/10 Q1007 NOSIG",
      "taf": "TAF LYPG 071100Z 0712/0812 18006KT 9999 FEW010 BKN050 TX15/0713Z TN09/0806Z"
    },
    {
      "icao": "LZIB",
      "alert": "OK",
      "vis_m": 9999,
      "fzfg": false,
      "metar_trigger": false,
      "taf_trigger": false,
      "metar": "METAR LZIB 071530Z 29006KT 260V330 CAVOK 08/04 Q1004 NOSIG",
      "taf": "TAF LZIB 071115Z 0712/0812 28006KT 9999 SCT015 BKN020"
    },
    {
      "icao": "LZKZ",
      "alert": "OK",
      "vis_m": 9999,
      "fzfg": false,
      "metar_trigger": false,
      "taf_trigger": false,
      "metar": "METAR LZKZ 071530Z 02005KT 9999 OVC012 05/04 Q1003 NOSIG",
      "taf": "TAF LZKZ 071115Z 0712/0812 02005KT 9999 SCT012 OVC025"
    },
    {
      "icao": "LZTT",
      "alert": "OK",
      "vis_m": 9999,
      "fzfg": false,
      "metar_trigger": false,
      "taf_trigger": false,
      "metar": "METAR LZTT 071530Z 27006KT 9999 FEW006 BKN016 OVC040 03/02 Q1002 NOSIG",
      "taf": "TAF LZTT 071115Z 0712/0812 VRB02KT 4000 BR FEW003 SCT008 OVC016"
    },
    {
      "icao": "OEJN",
      "alert": "OK",
      "vis_m": 9999,
      "fzfg": false,
      "metar_trigger": false,
      "taf_trigger": false,
      "metar": "METAR OEJN 071500Z 31009KT CAVOK 27/17 Q1014 NOSIG",
      "taf": "TAF OEJN 071100Z 0712/0818 30012KT 9999 SCT040"
    },
    {
      "icao": "OEMA",
      "alert": "OK",
      "vis_m": 9999,
      "fzfg": false,
      "metar_trigger": false,
      "taf_trigger": false,
      "metar": "METAR OEMA 071500Z 27006KT CAVOK 27/M02 Q1017 NOSIG",
      "taf": "TAF OEMA 071100Z 0712/0818 30012KT CAVOK"
    },
    {
      "icao": "OJAI",
      "alert": "OK",
      "vis_m": 3000,
      "fzfg": false,
      "metar_trigger": false,
      "taf_trigger": false,
      "metar": "METAR OJAI 071500Z 25020KT 3000 BLDU SCT030 17/07 Q1014 NOSIG",
      "taf": "TAF OJAI 071056Z 0712/0818 26014KT 4000 DU FEW040"
    },
    {
      "icao": "OMAA",
      "alert": "OK",
      "vis_m": 9999,
      "fzfg": false,
      "metar_trigger": false,
      "taf_trigger": false,
      "metar": "METAR OMAA 071530Z 35011KT CAVOK 23/17 Q1016 NOSIG",
      "taf": "TAF OMAA 071100Z 0712/0818 31010KT 8000 NSC"
    },
    {
      "icao": "OMDB",
      "alert": "OK",
      "vis_m": 9999,
      "fzfg": false,
      "metar_trigger": false,
      "taf_trigger": false,
      "metar": "METAR OMDB 071530Z 33009KT CAVOK 24/15 Q1016 NOSIG",
      "taf": "TAF OMDB 071100Z 0712/0818 33010KT 8000 NSC"
    },
    {
      "icao": "UAAA",
      "alert": "OK",
      "vis_m": 5000,
      "fzfg": false,
      "metar_trigger": false,
      "taf_trigger": false,
      "metar": "METAR UAAA 071530Z 33002MPS 5000 -SHSN BR SCT007 BKN019CB OVC100 M02/M03 Q1026 NOSIG",
      "taf": "TAF UAAA 071108Z 0712/0812 01003MPS 3100 -SHSN BR BKN020CB OVC100 TX00/0807Z TNM04/0802Z"
    },
    {
      "icao": "UBBB",
      "alert": "OK",
      "vis_m": 9999,
      "fzfg": false,
      "metar_trigger": false,
      "taf_trigger": false,
      "metar": "METAR UBBB 071530Z 19022G32KT CAVOK 08/04 Q1005 WS R16 NOSIG",
      "taf": "TAF UBBB 071049Z 0712/0812 18020G30KT 9999 SCT030 TX10/0712Z TN03/0801Z"
    },
    {
      "icao": "UDSG",
      "alert": "OK",
      "vis_m": 9000,
      "fzfg": false,
      "metar_trigger": false,
      "taf_trigger": false,
      "metar": "METAR UDSG 071530Z 17005KT 080V250 9000 BKN023 00/M01 Q1010 NOSIG",
      "taf": "TAF UDSG 071058Z 0712/0812 VRB06KT 5000 BR OVC030"
    },
    {
      "icao": "UDYZ",
      "alert": "OK",
      "vis_m": 6000,
      "fzfg": false,
      "metar_trigger": false,
      "taf_trigger": false,
      "metar": "METAR UDYZ 071530Z 30002KT 6000 BKN043 05/02 Q1010 NOSIG",
      "taf": "TAF UDYZ 071100Z 0712/0812 VRB06KT 6000 BKN040"
    },
    {
      "icao": "UGKO",
      "alert": "OK",
      "vis_m": 9999,
      "fzfg": false,
      "metar_trigger": false,
      "taf_trigger": false,
      "metar": "METAR UGKO 071530Z 09007KT CAVOK 12/01 Q1003 NOSIG",
      "taf": "TAF UGKO 071100Z 0712/0812 09010KT CAVOK TX16/0712Z TN08/0803Z"
    }
  ]
}