{
  "ts_utc": "2026-04-03T12:31:39Z",
  "threshold_m": 150,
  "source": "stations_override.txt (ICAO list) + aviationweather.gov (METAR/TAF raw)",
  "station_count": 159,
  "stations": [
    {
      "icao": "BIKF",
      "alert": "OK",
      "vis_m": 9999,
      "fzfg": false,
      "metar_trigger": false,
      "taf_trigger": false,
      "metar": "METAR BIKF 031200Z 12019KT 9999 -SHSN SCT017CB BKN150 M01/M02 Q0993",
      "taf": "TAF BIKF 031040Z 0312/0412 11012KT 9999 FEW015CB BKN030 TX03/0316Z TNM02/0406Z"
    },
    {
      "icao": "BKPR",
      "alert": "OK",
      "vis_m": 9999,
      "fzfg": false,
      "metar_trigger": false,
      "taf_trigger": false,
      "metar": "METAR BKPR 031230Z 02010KT 9999 -RA SCT013 BKN030 10/08 Q1007 NOSIG",
      "taf": "TAF BKPR 031130Z 0312/0412 36007KT 9999 SCT012 BKN030"
    },
    {
      "icao": "EBCI",
      "alert": "OK",
      "vis_m": 9999,
      "fzfg": false,
      "metar_trigger": false,
      "taf_trigger": false,
      "metar": "METAR EBCI 031220Z 21016KT 9999 SCT025 BKN035 11/05 Q1016 NOSIG",
      "taf": "TAF EBCI 031102Z 0312/0418 22013KT 8000 -RA BKN018"
    },
    {
      "icao": "EDDB",
      "alert": "OK",
      "vis_m": 9999,
      "fzfg": false,
      "metar_trigger": false,
      "taf_trigger": false,
      "metar": "METAR EDDB 031220Z AUTO 29009KT 9999 OVC038 08/00 Q1016 NOSIG",
      "taf": "TAF EDDB 031100Z 0312/0412 28010KT 9999 BKN035"
    },
    {
      "icao": "EDDH",
      "alert": "OK",
      "vis_m": 9999,
      "fzfg": false,
      "metar_trigger": false,
      "taf_trigger": false,
      "metar": "METAR EDDH 031220Z AUTO 23011KT 180V260 CAVOK 10/00 Q1014 NOSIG",
      "taf": "TAF EDDH 031100Z 0312/0418 21010KT 9999 SCT035"
    },
    {
      "icao": "EDDK",
      "alert": "OK",
      "vis_m": 9999,
      "fzfg": false,
      "metar_trigger": false,
      "taf_trigger": false,
      "metar": "METAR EDDK 031220Z AUTO 19009KT 150V220 CAVOK 12/03 Q1017 NOSIG",
      "taf": "TAF EDDK 031100Z 0312/0418 21008KT 9999 SCT030"
    },
    {
      "icao": "EDDN",
      "alert": "OK",
      "vis_m": 9999,
      "fzfg": false,
      "metar_trigger": false,
      "taf_trigger": false,
      "metar": "METAR EDDN 031220Z AUTO 27011KT 230V300 9999 FEW040 12/03 Q1017 NOSIG",
      "taf": "TAF EDDN 031100Z 0312/0412 23007KT CAVOK"
    },
    {
      "icao": "EDDS",
      "alert": "OK",
      "vis_m": 9999,
      "fzfg": false,
      "metar_trigger": false,
      "taf_trigger": false,
      "metar": "METAR EDDS 031220Z AUTO 25009KT 210V290 9999 SCT048 13/01 Q1017 NOSIG",
      "taf": "TAF EDDS 031100Z 0312/0412 22007KT CAVOK"
    },
    {
      "icao": "EDFH",
      "alert": "OK",
      "vis_m": 9999,
      "fzfg": false,
      "metar_trigger": false,
      "taf_trigger": false,
      "metar": "METAR EDFH 031220Z 24010KT 210V280 CAVOK 08/01 Q1017",
      "taf": "TAF EDFH 031100Z 0312/0412 25011KT 9999 SCT025"
    },
    {
      "icao": "EDJA",
      "alert": "OK",
      "vis_m": 9999,
      "fzfg": false,
      "metar_trigger": false,
      "taf_trigger": false,
      "metar": "METAR EDJA 031220Z 24011KT 200V290 9999 FEW047 BKN058 11/01 Q1018",
      "taf": "TAF EDJA 031100Z 0312/0321 24008KT CAVOK"
    },
    {
      "icao": "EDLW",
      "alert": "OK",
      "vis_m": 9999,
      "fzfg": false,
      "metar_trigger": false,
      "taf_trigger": false,
      "metar": "METAR EDLW 031220Z 22013KT 9999 FEW027 10/03 Q1015",
      "taf": "TAF EDLW 031100Z 0312/0412 21012KT 9999 SCT030"
    },
    {
      "icao": "EDNY",
      "alert": "OK",
      "vis_m": 9999,
      "fzfg": false,
      "metar_trigger": false,
      "taf_trigger": false,
      "metar": "METAR EDNY 031220Z 27006KT 210V340 CAVOK 12/03 Q1020",
      "taf": "TAF EDNY 031100Z 0312/0321 22006KT CAVOK"
    },
    {
      "icao": "EDSB",
      "alert": "OK",
      "vis_m": 9999,
      "fzfg": false,
      "metar_trigger": false,
      "taf_trigger": false,
      "metar": "METAR EDSB 031220Z 23008KT 200V280 9999 FEW038 SCT047 13/04 Q1019",
      "taf": "TAF EDSB 031100Z 0312/0412 22009KT CAVOK"
    },
    {
      "icao": "EETN",
      "alert": "OK",
      "vis_m": 4400,
      "fzfg": false,
      "metar_trigger": false,
      "taf_trigger": false,
      "metar": "METAR EETN 031220Z 34004KT 4400 -RA BR BKN011 OVC033 05/05 Q1007 NOSIG",
      "taf": "TAF EETN 031130Z 0312/0412 22005KT 9000 SCT006 OVC010"
    },
    {
      "icao": "EFTU",
      "alert": "OK",
      "vis_m": 9999,
      "fzfg": false,
      "metar_trigger": false,
      "taf_trigger": false,
      "metar": "METAR EFTU 031220Z AUTO VRB03KT CAVOK 09/M04 Q1006",
      "taf": "TAF EFTU 031123Z 0312/0412 04004KT CAVOK"
    },
    {
      "icao": "EGBB",
      "alert": "OK",
      "vis_m": 9999,
      "fzfg": false,
      "metar_trigger": false,
      "taf_trigger": false,
      "metar": "METAR EGBB 031220Z 23012KT 190V260 9999 BKN020 15/10 Q1006",
      "taf": "TAF EGBB 031114Z 0312/0412 23015G25KT 9999 BKN012"
    },
    {
      "icao": "EGGP",
      "alert": "OK",
      "vis_m": 9999,
      "fzfg": false,
      "metar_trigger": false,
      "taf_trigger": false,
      "metar": "METAR EGGP 031220Z 24021KT 9999 BKN023 14/09 Q1003",
      "taf": "TAF EGGP 031059Z 0312/0412 26015G25KT 9999 FEW015 SCT025"
    },
    {
      "icao": "EGGW",
      "alert": "OK",
      "vis_m": 9999,
      "fzfg": false,
      "metar_trigger": false,
      "taf_trigger": false,
      "metar": "METAR EGGW 031220Z AUTO 22011KT 9999 OVC019 13/10 Q1008",
      "taf": "TAF EGGW 031054Z 0312/0412 20013KT 9999 BKN010"
    },
    {
      "icao": "EGKK",
      "alert": "OK",
      "vis_m": 9999,
      "fzfg": false,
      "metar_trigger": false,
      "taf_trigger": false,
      "metar": "METAR EGKK 031220Z 22011KT 9999 BKN014 12/11 Q1011",
      "taf": ""
    },
    {
      "icao": "EGNM",
      "alert": "OK",
      "vis_m": 9999,
      "fzfg": false,
      "metar_trigger": false,
      "taf_trigger": false,
      "metar": "METAR EGNM 031220Z 23022G35KT 9999 VCSH SCT016 SCT020 14/09 Q1000",
      "taf": "TAF EGNM 031104Z 0312/0412 25019G32KT 9999 FEW015 SCT030"
    },
    {
      "icao": "EGPD",
      "alert": "OK",
      "vis_m": 9999,
      "fzfg": false,
      "metar_trigger": false,
      "taf_trigger": false,
      "metar": "METAR EGPD 031220Z COR 22005KT 180V240 9999 SCT037 BKN045 10/01 Q0996 NOSIG",
      "taf": "TAF EGPD 031055Z 0312/0412 27009KT 9999 SCT035"
    },
    {
      "icao": "EGPF",
      "alert": "OK",
      "vis_m": 9000,
      "fzfg": false,
      "metar_trigger": false,
      "taf_trigger": false,
      "metar": "METAR EGPF 031220Z AUTO 24013KT 9000 -RA BKN019/// BKN024/// OVC031/// //////CB 07/05 Q0999",
      "taf": ""
    },
    {
      "icao": "EHBK",
      "alert": "OK",
      "vis_m": 9999,
      "fzfg": false,
      "metar_trigger": false,
      "taf_trigger": false,
      "metar": "METAR EHBK 031225Z AUTO 21016KT 180V260 9999 NSC 11/04 Q1016 NOSIG",
      "taf": "TAF EHBK 031123Z 0312/0418 22014KT 9999 SCT025"
    },
    {
      "icao": "EHEH",
      "alert": "OK",
      "vis_m": 9999,
      "fzfg": false,
      "metar_trigger": false,
      "taf_trigger": false,
      "metar": "METAR EHEH 031225Z AUTO 21015KT 190V250 9999 FEW040 SCT046 OVC130 13/03 Q1014 BLU NOSIG RMK TREND REMOTE BY EHWX",
      "taf": "TAF EHEH 031102Z 0312/0418 21010G22KT CAVOK"
    },
    {
      "icao": "EKBI",
      "alert": "OK",
      "vis_m": 9999,
      "fzfg": false,
      "metar_trigger": false,
      "taf_trigger": false,
      "metar": "METAR EKBI 031220Z AUTO 22013KT 9999 BKN031/// BKN071/// 08/01 Q1011",
      "taf": "TAF EKBI 031127Z 0312/0412 22012KT 9999 BKN030"
    },
    {
      "icao": "EKCH",
      "alert": "OK",
      "vis_m": 9999,
      "fzfg": false,
      "metar_trigger": false,
      "taf_trigger": false,
      "metar": "METAR EKCH 031220Z AUTO 26011KT 9999 OVC031/// 06/M01 Q1012 NOSIG",
      "taf": "TAF EKCH 031127Z 0312/0412 26015KT 9999 BKN030"
    },
    {
      "icao": "ENAL",
      "alert": "OK",
      "vis_m": 9999,
      "fzfg": false,
      "metar_trigger": false,
      "taf_trigger": false,
      "metar": "METAR ENAL 031220Z 13010KT CAVOK 05/M07 Q1001",
      "taf": "TAF ENAL 031100Z 0312/0321 12012KT CAVOK"
    },
    {
      "icao": "ENBR",
      "alert": "OK",
      "vis_m": 9999,
      "fzfg": false,
      "metar_trigger": false,
      "taf_trigger": false,
      "metar": "METAR ENBR 031220Z 14020KT 9999 -RA FEW010 SCT014 BKN020 03/M00 Q1000 TEMPO 15022G35KT RMK WIND 1200FT 13038KT",
      "taf": ""
    },
    {
      "icao": "ENGM",
      "alert": "OK",
      "vis_m": 9999,
      "fzfg": false,
      "metar_trigger": false,
      "taf_trigger": false,
      "metar": "METAR ENGM 031220Z 07003KT 330V130 9999 -RASN FEW013 BKN015 02/M01 Q1008 NOSIG",
      "taf": ""
    },
    {
      "icao": "ENHD",
      "alert": "OK",
      "vis_m": 9999,
      "fzfg": false,
      "metar_trigger": false,
      "taf_trigger": false,
      "metar": "METAR ENHD 031220Z 14023KT 9999 -RA SCT010 BKN019 04/02 Q1001",
      "taf": "TAF ENHD 031100Z 0312/0321 14025G35KT 9999 -RA SCT015 BKN025"
    },
    {
      "icao": "ENTC",
      "alert": "OK",
      "vis_m": 9999,
      "fzfg": false,
      "metar_trigger": false,
      "taf_trigger": false,
      "metar": "METAR ENTC 031220Z 21007KT 9999 -SHSN FEW013 SCT027 BKN043 02/M03 Q1008 NOSIG RMK WIND 2600FT 30022KT",
      "taf": "TAF ENTC 031100Z 0312/0412 22008KT 9999 FEW015 SCT025 BKN035"
    },
    {
      "icao": "ENTO",
      "alert": "OK",
      "vis_m": 9999,
      "fzfg": false,
      "metar_trigger": false,
      "taf_trigger": false,
      "metar": "METAR ENTO 031220Z 04005KT 9999 OVC016 03/00 Q1008 NOSIG",
      "taf": "TAF ENTO 031100Z 0312/0412 01005KT 9999 BKN015"
    },
    {
      "icao": "ENVA",
      "alert": "OK",
      "vis_m": 9999,
      "fzfg": false,
      "metar_trigger": false,
      "taf_trigger": false,
      "metar": "METAR ENVA 031220Z 16012KT 120V180 CAVOK 07/M08 Q1005 TEMPO 16015G25KT RMK WIND 670FT 16018KT",
      "taf": "TAF ENVA 031100Z 0312/0412 12008KT 9999 FEW020"
    },
    {
      "icao": "ENZV",
      "alert": "OK",
      "vis_m": 9999,
      "fzfg": false,
      "metar_trigger": false,
      "taf_trigger": false,
      "metar": "METAR ENZV 031220Z 13021KT 9999 -RA SCT022 BKN028 OVC038 04/01 Q1002 TEMPO 15025G35KT",
      "taf": "TAF ENZV 031100Z 0312/0412 15025G35KT 9999 -RA FEW015 BKN025"
    },
    {
      "icao": "EPGD",
      "alert": "OK",
      "vis_m": 9999,
      "fzfg": false,
      "metar_trigger": false,
      "taf_trigger": false,
      "metar": "METAR EPGD 031200Z 27017KT 9999 BKN033 07/M02 Q1012",
      "taf": "TAF EPGD 031130Z 0312/0412 27012KT 9999 BKN030"
    },
    {
      "icao": "EPKK",
      "alert": "OK",
      "vis_m": 9999,
      "fzfg": false,
      "metar_trigger": false,
      "taf_trigger": false,
      "metar": "METAR EPKK 031200Z 29010KT 9999 SCT068 14/M03 Q1013",
      "taf": "TAF EPKK 031130Z 0312/0412 30010KT CAVOK"
    },
    {
      "icao": "EPKT",
      "alert": "OK",
      "vis_m": 9999,
      "fzfg": false,
      "metar_trigger": false,
      "taf_trigger": false,
      "metar": "METAR EPKT 031200Z 34010KT 310V010 CAVOK 13/M02 Q1014",
      "taf": "TAF EPKT 031130Z 0312/0412 32010KT CAVOK"
    },
    {
      "icao": "EPLB",
      "alert": "OK",
      "vis_m": 9999,
      "fzfg": false,
      "metar_trigger": false,
      "taf_trigger": false,
      "metar": "METAR EPLB 031200Z 30012KT CAVOK 14/M04 Q1011",
      "taf": "TAF EPLB 031130Z 0312/0412 32010KT CAVOK"
    },
    {
      "icao": "EPMO",
      "alert": "OK",
      "vis_m": 9999,
      "fzfg": false,
      "metar_trigger": false,
      "taf_trigger": false,
      "metar": "METAR EPMO 031200Z 27012KT CAVOK 13/M01 Q1012",
      "taf": "TAF EPMO 031130Z 0312/0412 26013KT CAVOK"
    },
    {
      "icao": "EPPO",
      "alert": "OK",
      "vis_m": 9999,
      "fzfg": false,
      "metar_trigger": false,
      "taf_trigger": false,
      "metar": "METAR EPPO 031200Z 26012KT 240V300 9999 SCT035 SCT045 11/01 Q1014",
      "taf": "TAF EPPO 031130Z 0312/0412 27012KT 9999 BKN030"
    },
    {
      "icao": "EPRA",
      "alert": "OK",
      "vis_m": 9999,
      "fzfg": false,
      "metar_trigger": false,
      "taf_trigger": false,
      "metar": "METAR EPRA 031200Z 32014KT 280V010 CAVOK 12/M01 Q1013",
      "taf": "TAF EPRA 031130Z 0312/0321 31014KT CAVOK"
    },
    {
      "icao": "EPRZ",
      "alert": "OK",
      "vis_m": 9999,
      "fzfg": false,
      "metar_trigger": false,
      "taf_trigger": false,
      "metar": "METAR EPRZ 031200Z 30009KT 280V360 CAVOK 15/M04 Q1012",
      "taf": "TAF EPRZ 031130Z 0312/0412 32010KT CAVOK"
    },
    {
      "icao": "EPSC",
      "alert": "OK",
      "vis_m": 9999,
      "fzfg": false,
      "metar_trigger": false,
      "taf_trigger": false,
      "metar": "METAR EPSC 031200Z 27011KT 9999 OVC034 06/M02 Q1015",
      "taf": "TAF EPSC 031130Z 0312/0412 26010KT 9999 BKN030"
    },
    {
      "icao": "EPSY",
      "alert": "OK",
      "vis_m": 9999,
      "fzfg": false,
      "metar_trigger": false,
      "taf_trigger": false,
      "metar": "METAR EPSY 031200Z 26012KT 220V310 CAVOK 12/M02 Q1011",
      "taf": "TAF EPSY 031130Z 0312/0321 27010KT 9999 SCT040"
    },
    {
      "icao": "EPWA",
      "alert": "OK",
      "vis_m": 9999,
      "fzfg": false,
      "metar_trigger": false,
      "taf_trigger": false,
      "metar": "METAR EPWA 031200Z 27016KT CAVOK 12/M01 Q1012 NOSIG",
      "taf": "TAF EPWA 031130Z 0312/0412 26010KT CAVOK"
    },
    {
      "icao": "EPWR",
      "alert": "OK",
      "vis_m": 9999,
      "fzfg": false,
      "metar_trigger": false,
      "taf_trigger": false,
      "metar": "METAR EPWR 031200Z 28015KT 9999 SCT028TCU 13/04 Q1015",
      "taf": "TAF EPWR 031130Z 0312/0412 29012KT 9999 BKN033"
    },
    {
      "icao": "ESGG",
      "alert": "OK",
      "vis_m": 9999,
      "fzfg": false,
      "metar_trigger": false,
      "taf_trigger": false,
      "metar": "METAR ESGG 031220Z 26008KT 9999 SCT011 BKN017 OVC022 04/01 Q1008",
      "taf": "TAF ESGG 031130Z 0312/0412 27009KT 9999 BKN020"
    },
    {
      "icao": "ESKN",
      "alert": "OK",
      "vis_m": 9999,
      "fzfg": false,
      "metar_trigger": false,
      "taf_trigger": false,
      "metar": "METAR ESKN 031220Z 01004KT 340V050 9999 -DZ SCT005 BKN008 04/04 Q1007",
      "taf": "TAF ESKN 031130Z 0312/0412 01004KT 9000 -RA BKN006"
    },
    {
      "icao": "ESMS",
      "alert": "OK",
      "vis_m": 9999,
      "fzfg": false,
      "metar_trigger": false,
      "taf_trigger": false,
      "metar": "METAR ESMS 031220Z 26015KT 9999 BKN027 05/M01 Q1011",
      "taf": "TAF ESMS 031127Z 0312/0412 27015KT 9999 BKN025"
    },
    {
      "icao": "ESSA",
      "alert": "OK",
      "vis_m": 9999,
      "fzfg": false,
      "metar_trigger": false,
      "taf_trigger": false,
      "metar": "METAR ESSA 031220Z 06009KT 9999 -DZ BKN009 OVC017 03/01 Q1008 TEMPO SCT010",
      "taf": "TAF ESSA 031130Z 0312/0412 06010KT 9999 BKN020"
    },
    {
      "icao": "EYKA",
      "alert": "OK",
      "vis_m": 9999,
      "fzfg": false,
      "metar_trigger": false,
      "taf_trigger": false,
      "metar": "METAR EYKA 031220Z VRB06KT CAVOK 12/M01 Q1010",
      "taf": "TAF EYKA 031100Z 0312/0412 VRB04KT 9000 SCT045"
    },
    {
      "icao": "EYPA",
      "alert": "OK",
      "vis_m": 8000,
      "fzfg": false,
      "metar_trigger": false,
      "taf_trigger": false,
      "metar": "METAR EYPA 031220Z 25005KT 200V300 8000 FEW004 BKN019 OVC023 04/03 Q1011",
      "taf": "TAF EYPA 031100Z 0312/0412 23010KT 8000 BKN030"
    },
    {
      "icao": "EYVI",
      "alert": "OK",
      "vis_m": 9999,
      "fzfg": false,
      "metar_trigger": false,
      "taf_trigger": false,
      "metar": "METAR EYVI 031220Z 31012KT CAVOK 12/M06 Q1010 NOSIG",
      "taf": "TAF EYVI 031100Z 0312/0412 VRB04KT 9000 NSC"
    },
    {
      "icao": "GCFV",
      "alert": "OK",
      "vis_m": 9999,
      "fzfg": false,
      "metar_trigger": false,
      "taf_trigger": false,
      "metar": "METAR GCFV 031200Z 04010KT CAVOK 21/13 Q1018",
      "taf": "TAF GCFV 030800Z 0309/0409 05012KT 9999 FEW020 TX24/0314Z TN15/0406Z"
    },
    {
      "icao": "GCLP",
      "alert": "OK",
      "vis_m": 9999,
      "fzfg": false,
      "metar_trigger": false,
      "taf_trigger": false,
      "metar": "METAR GCLP 031200Z 03020KT 9999 FEW035 21/15 Q1019 NOSIG",
      "taf": "TAF GCLP 030800Z 0309/0409 02018KT 9999 FEW025 TX23/0314Z TN16/0406Z"
    },
    {
      "icao": "GCTS",
      "alert": "OK",
      "vis_m": 9999,
      "fzfg": false,
      "metar_trigger": false,
      "taf_trigger": false,
      "metar": "METAR GCTS 031200Z 08012KT CAVOK 24/10 Q1019 WS R07 NOSIG",
      "taf": "TAF GCTS 030800Z 0309/0409 07015KT CAVOK TX24/0314Z TN16/0406Z"
    },
    {
      "icao": "GMAD",
      "alert": "OK",
      "vis_m": 8000,
      "fzfg": false,
      "metar_trigger": false,
      "taf_trigger": false,
      "metar": "METAR GMAD 031200Z 26007KT 220V300 8000 NSC 26/15 Q1015 NOSIG",
      "taf": "TAF GMAD 031100Z 0312/0418 28012KT 8000 NSC"
    },
    {
      "icao": "GMMN",
      "alert": "OK",
      "vis_m": 9999,
      "fzfg": false,
      "metar_trigger": false,
      "taf_trigger": false,
      "metar": "METAR GMMN 031200Z 05009KT 360V100 CAVOK 24/13 Q1020 NOSIG",
      "taf": "TAF GMMN 031100Z 0312/0418 04012KT CAVOK"
    },
    {
      "icao": "GMMX",
      "alert": "OK",
      "vis_m": 9999,
      "fzfg": false,
      "metar_trigger": false,
      "taf_trigger": false,
      "metar": "METAR GMMX 031200Z VRB05KT CAVOK 26/07 Q1018 NOSIG",
      "taf": "TAF GMMX 031100Z 0312/0418 08006KT CAVOK"
    },
    {
      "icao": "HEGN",
      "alert": "OK",
      "vis_m": null,
      "fzfg": false,
      "metar_trigger": false,
      "taf_trigger": false,
      "metar": "",
      "taf": "TAF HEGN 031100Z 0312/0418 34013G26KT 6000 SCT020 BKN070"
    },
    {
      "icao": "HEMA",
      "alert": "OK",
      "vis_m": null,
      "fzfg": false,
      "metar_trigger": false,
      "taf_trigger": false,
      "metar": "",
      "taf": "TAF HEMA 031100Z 0312/0418 35010G22KT 6000 SCT020 BKN070"
    },
    {
      "icao": "HESH",
      "alert": "OK",
      "vis_m": null,
      "fzfg": false,
      "metar_trigger": false,
      "taf_trigger": false,
      "metar": "",
      "taf": "TAF HESH 031100Z 0312/0418 36008G20KT 6000 SCT020"
    },
    {
      "icao": "HESX",
      "alert": "OK",
      "vis_m": null,
      "fzfg": false,
      "metar_trigger": false,
      "taf_trigger": false,
      "metar": "",
      "taf": "TAF HESX 031100Z 0312/0418 26008KT CAVOK"
    },
    {
      "icao": "LATI",
      "alert": "OK",
      "vis_m": 9999,
      "fzfg": false,
      "metar_trigger": false,
      "taf_trigger": false,
      "metar": "METAR LATI 031220Z 24010KT 200V290 9999 SCT068 20/09 Q1004 BECMG 32010KT",
      "taf": "TAF LATI 031100Z 0312/0412 31010KT 9999 SCT060 TX21/0412Z TN08/0404Z"
    },
    {
      "icao": "LBPD",
      "alert": "OK",
      "vis_m": 9999,
      "fzfg": false,
      "metar_trigger": false,
      "taf_trigger": false,
      "metar": "METAR LBPD 031230Z AUTO 15003KT 120V240 9999 OVC048/// 14/07 Q1005 NOSIG",
      "taf": "TAF LBPD 031100Z 0312/0412 VRB03KT 9999 BKN040"
    },
    {
      "icao": "LBSF",
      "alert": "OK",
      "vis_m": 9999,
      "fzfg": false,
      "metar_trigger": false,
      "taf_trigger": false,
      "metar": "METAR LBSF 031230Z 36006KT 320V050 9999 VCSH FEW029TCU SCT037 BKN055 BKN083 13/06 Q1005 NOSIG",
      "taf": "TAF LBSF 031100Z 0312/0412 35010KT 9999 SCT015 BKN035"
    },
    {
      "icao": "LBWN",
      "alert": "OK",
      "vis_m": 9999,
      "fzfg": false,
      "metar_trigger": false,
      "taf_trigger": false,
      "metar": "METAR LBWN 031230Z 14015KT 9999 FEW008 13/11 Q1005 NOSIG",
      "taf": "TAF LBWN 031100Z 0312/0412 12010KT 9999 SCT005 BKN015"
    },
    {
      "icao": "LCLK",
      "alert": "OK",
      "vis_m": 2500,
      "fzfg": false,
      "metar_trigger": false,
      "taf_trigger": false,
      "metar": "METAR LCLK 031200Z 21022KT 2500 DU FEW030 21/15 Q1013 BECMG 3000 DU",
      "taf": "TAF LCLK 031130Z 0312/0412 22020KT 5000 DU FEW025 SCT040"
    },
    {
      "icao": "LCPH",
      "alert": "OK",
      "vis_m": 2000,
      "fzfg": false,
      "metar_trigger": false,
      "taf_trigger": false,
      "metar": "METAR LCPH 031200Z 25008KT 2000 DU NSC 19/14 Q1014 BECMG 3000 DU",
      "taf": "TAF LCPH 031130Z 0312/0412 24014KT 5000 DU FEW030"
    },
    {
      "icao": "LEAL",
      "alert": "OK",
      "vis_m": 9999,
      "fzfg": false,
      "metar_trigger": false,
      "taf_trigger": false,
      "metar": "METAR LEAL 031200Z VRB05KT CAVOK 22/02 Q1021 NOSIG",
      "taf": "TAF LEAL 031100Z 0312/0412 11010KT CAVOK TX20/0312Z TN08/0405Z"
    },
    {
      "icao": "LEBB",
      "alert": "OK",
      "vis_m": 9999,
      "fzfg": false,
      "metar_trigger": false,
      "taf_trigger": false,
      "metar": "METAR LEBB 031200Z 28005KT 200V350 9999 SCT030 16/09 Q1027 NOSIG",
      "taf": "TAF LEBB 031100Z 0312/0412 31007KT 9999 FEW040 TX25/0412Z TN06/0405Z"
    },
    {
      "icao": "LEBL",
      "alert": "OK",
      "vis_m": 9999,
      "fzfg": false,
      "metar_trigger": false,
      "taf_trigger": false,
      "metar": "METAR LEBL 031200Z 21010KT 9999 FEW030 17/04 Q1020 NOSIG",
      "taf": "TAF LEBL 031100Z 0312/0412 20009KT 9999 FEW020 TX19/0312Z TN09/0406Z"
    },
    {
      "icao": "LECH",
      "alert": "OK",
      "vis_m": 9999,
      "fzfg": false,
      "metar_trigger": false,
      "taf_trigger": false,
      "metar": "METAR LECH 031200Z AUTO VRB04KT CAVOK 18/M00 Q1021",
      "taf": "TAF LECH 031100Z 0312/0412 VRB04KT CAVOK TX22/0313Z TN09/0406Z"
    },
    {
      "icao": "LEMD",
      "alert": "OK",
      "vis_m": 9999,
      "fzfg": false,
      "metar_trigger": false,
      "taf_trigger": false,
      "metar": "METAR LEMD 031200Z 34007KT 310V060 CAVOK 18/M01 Q1023 NOSIG",
      "taf": "TAF LEMD 031100Z 0312/0418 36010KT CAVOK TX22/0315Z TN05/0406Z"
    },
    {
      "icao": "LEMG",
      "alert": "OK",
      "vis_m": 9999,
      "fzfg": false,
      "metar_trigger": false,
      "taf_trigger": false,
      "metar": "METAR LEMG 031200Z 12008KT 070V160 CAVOK 18/13 Q1022 NOSIG",
      "taf": "TAF LEMG 031100Z 0312/0412 13010KT 9999 FEW020 TX22/0314Z TN11/0407Z"
    },
    {
      "icao": "LEVC",
      "alert": "OK",
      "vis_m": 9999,
      "fzfg": false,
      "metar_trigger": false,
      "taf_trigger": false,
      "metar": "METAR LEVC 031200Z 13007KT 090V170 CAVOK 21/01 Q1021 NOSIG",
      "taf": "TAF LEVC 031100Z 0312/0412 30007KT CAVOK TX22/0314Z TN08/0405Z"
    },
    {
      "icao": "LEXJ",
      "alert": "OK",
      "vis_m": 9999,
      "fzfg": false,
      "metar_trigger": false,
      "taf_trigger": false,
      "metar": "METAR LEXJ 031200Z 02007KT 340V070 9999 FEW030 BKN075 15/09 Q1027",
      "taf": "TAF LEXJ 030800Z 0309/0409 32008KT 9999 SCT025 BKN045 TX16/0314Z TN09/0405Z"
    },
    {
      "icao": "LEZG",
      "alert": "OK",
      "vis_m": 9999,
      "fzfg": false,
      "metar_trigger": false,
      "taf_trigger": false,
      "metar": "METAR LEZG 031200Z 30022KT 9999 SCT030 16/04 Q1022 NOSIG",
      "taf": "TAF LEZG 031100Z 0312/0412 30015KT CAVOK TX20/0314Z TN10/0406Z"
    },
    {
      "icao": "LEZL",
      "alert": "OK",
      "vis_m": 9999,
      "fzfg": false,
      "metar_trigger": false,
      "taf_trigger": false,
      "metar": "METAR LEZL 031200Z 05010KT 020V100 CAVOK 24/01 Q1022 NOSIG",
      "taf": "TAF LEZL 030800Z 0309/0409 06010KT CAVOK TX27/0316Z TN09/0407Z"
    },
    {
      "icao": "LFBD",
      "alert": "OK",
      "vis_m": 9999,
      "fzfg": false,
      "metar_trigger": false,
      "taf_trigger": false,
      "metar": "METAR LFBD 031200Z AUTO 28010KT 9999 BKN030/// BKN039/// OVC062/// ///TCU 14/07 Q1026 BECMG BKN025",
      "taf": "TAF LFBD 031100Z 0312/0418 28010KT 9999 BKN030 TX23/0415Z TN08/0403Z"
    },
    {
      "icao": "LFLL",
      "alert": "OK",
      "vis_m": 9999,
      "fzfg": false,
      "metar_trigger": false,
      "taf_trigger": false,
      "metar": "METAR LFLL 031200Z 35010KT 9999 SCT046 15/03 Q1021 NOSIG",
      "taf": "TAF LFLL 031100Z 0312/0418 36010KT 9999 SCT045"
    },
    {
      "icao": "LFLS",
      "alert": "OK",
      "vis_m": 9999,
      "fzfg": false,
      "metar_trigger": false,
      "taf_trigger": false,
      "metar": "METAR LFLS 031200Z AUTO 33013KT 300V360 9999 BKN049 13/03 Q1021 NOSIG",
      "taf": "TAF LFLS 030800Z 0309/0409 35010KT CAVOK"
    },
    {
      "icao": "LFMN",
      "alert": "OK",
      "vis_m": 9999,
      "fzfg": false,
      "metar_trigger": false,
      "taf_trigger": false,
      "metar": "METAR LFMN 031200Z 19008KT CAVOK 18/09 Q1014 NOSIG",
      "taf": "TAF LFMN 030800Z 0309/0415 33005KT CAVOK"
    },
    {
      "icao": "LFOB",
      "alert": "OK",
      "vis_m": 9999,
      "fzfg": false,
      "metar_trigger": false,
      "taf_trigger": false,
      "metar": "METAR LFOB 031200Z AUTO 22010KT 9999 OVC019 11/07 Q1018 TEMPO 4500 -RA BECMG BKN014 OVC020",
      "taf": "TAF LFOB 031100Z 0312/0412 21010G20KT 9999 BKN017 OVC030"
    },
    {
      "icao": "LFPO",
      "alert": "OK",
      "vis_m": 9999,
      "fzfg": false,
      "metar_trigger": false,
      "taf_trigger": false,
      "metar": "METAR LFPO 031200Z 22010KT 190V260 9999 BKN026 BKN050 13/06 Q1019 NOSIG",
      "taf": "TAF LFPO 031100Z 0312/0418 22010KT 9999 BKN045"
    },
    {
      "icao": "LFSB",
      "alert": "OK",
      "vis_m": 9999,
      "fzfg": false,
      "metar_trigger": false,
      "taf_trigger": false,
      "metar": "METAR LFSB 031200Z AUTO 28009KT 230V320 9999 FEW049 SCT056 BKN180 15/03 Q1020 NOSIG",
      "taf": "TAF LFSB 031103Z 0312/0412 28010KT 9999 SCT045"
    },
    {
      "icao": "LGAV",
      "alert": "OK",
      "vis_m": 9999,
      "fzfg": false,
      "metar_trigger": false,
      "taf_trigger": false,
      "metar": "METAR LGAV 031220Z 25009KT 9999 FEW018 BKN030 17/10 Q1003 NOSIG",
      "taf": "TAF LGAV 031100Z 0312/0412 19010KT 9999 FEW018 SCT035"
    },
    {
      "icao": "LGTS",
      "alert": "OK",
      "vis_m": 9999,
      "fzfg": false,
      "metar_trigger": false,
      "taf_trigger": false,
      "metar": "METAR LGTS 031220Z VRB02KT 9999 FEW016TCU SCT030 14/10 Q1004 TEMPO 5000 SHRA",
      "taf": "TAF LGTS 031100Z 0312/0412 33005KT 9999 SCT030"
    },
    {
      "icao": "LHBP",
      "alert": "OK",
      "vis_m": 9999,
      "fzfg": false,
      "metar_trigger": false,
      "taf_trigger": false,
      "metar": "METAR LHBP 031200Z 35009KT 300V020 CAVOK 17/03 Q1011 NOSIG",
      "taf": "TAF LHBP 031115Z 0312/0412 34011KT CAVOK"
    },
    {
      "icao": "LHDC",
      "alert": "OK",
      "vis_m": 9999,
      "fzfg": false,
      "metar_trigger": false,
      "taf_trigger": false,
      "metar": "METAR LHDC 031145Z AUTO 02014G25KT 320V060 CAVOK 18/03 Q1008 NOSIG",
      "taf": "TAF LHDC 031115Z 0312/0321 01016G26KT CAVOK"
    },
    {
      "icao": "LIBD",
      "alert": "OK",
      "vis_m": 9999,
      "fzfg": false,
      "metar_trigger": false,
      "taf_trigger": false,
      "metar": "METAR LIBD 031220Z 32010KT 290V360 9999 FEW025 16/10 Q1007",
      "taf": "TAF LIBD 031100Z 0312/0412 34012KT 9999 SCT030"
    },
    {
      "icao": "LIBG",
      "alert": "OK",
      "vis_m": 9999,
      "fzfg": false,
      "metar_trigger": false,
      "taf_trigger": false,
      "metar": "METAR LIBG 031150Z 35006KT 9999 SCT040 17/07 Q1005",
      "taf": "TAF LIBG 031100Z 0312/0321 33007KT 9999 SCT030"
    },
    {
      "icao": "LIBP",
      "alert": "OK",
      "vis_m": 9999,
      "fzfg": false,
      "metar_trigger": false,
      "taf_trigger": false,
      "metar": "METAR LIBP 031220Z AUTO 36011G21KT 320V030 9999 BKN060/// 14/07 Q1012",
      "taf": "TAF LIBP 031100Z 0312/0412 35013KT 9999 SCT030 OVC050"
    },
    {
      "icao": "LIBR",
      "alert": "OK",
      "vis_m": 9999,
      "fzfg": false,
      "metar_trigger": false,
      "taf_trigger": false,
      "metar": "METAR LIBR 031220Z 34010KT CAVOK 16/10 Q1006",
      "taf": "TAF LIBR 031100Z 0312/0412 33013KT 9999 BKN035"
    },
    {
      "icao": "LICA",
      "alert": "OK",
      "vis_m": 9999,
      "fzfg": false,
      "metar_trigger": false,
      "taf_trigger": false,
      "metar": "METAR LICA 031220Z AUTO 25008KT 220V280 9999 SCT056/// BKN089/// 16/10 Q1007",
      "taf": "TAF LICA 031100Z 0312/0412 26012KT 9999 BKN030"
    },
    {
      "icao": "LICC",
      "alert": "OK",
      "vis_m": 9999,
      "fzfg": false,
      "metar_trigger": false,
      "taf_trigger": false,
      "metar": "METAR LICC 031220Z 03008KT 360V070 9999 BKN060 16/13 Q1007",
      "taf": "TAF LICC 031100Z 0312/0412 09012KT 9999 SCT030"
    },
    {
      "icao": "LICJ",
      "alert": "OK",
      "vis_m": 9999,
      "fzfg": false,
      "metar_trigger": false,
      "taf_trigger": false,
      "metar": "METAR LICJ 031220Z VRB02KT 9999 FEW025 15/10 Q1009",
      "taf": "TAF LICJ 031100Z 0312/0412 33012KT 9999 SCT030"
    },
    {
      "icao": "LIMC",
      "alert": "OK",
      "vis_m": 9999,
      "fzfg": false,
      "metar_trigger": false,
      "taf_trigger": false,
      "metar": "METAR LIMC 031220Z VRB06KT CAVOK 21/M05 Q1013 NOSIG",
      "taf": "TAF LIMC 031100Z 0312/0418 VRB05KT CAVOK"
    },
    {
      "icao": "LIME",
      "alert": "OK",
      "vis_m": 9999,
      "fzfg": false,
      "metar_trigger": false,
      "taf_trigger": false,
      "metar": "METAR LIME 031220Z 23008KT 190V280 CAVOK 19/00 Q1013 NOSIG",
      "taf": "TAF LIME 031100Z 0312/0412 VRB05KT CAVOK"
    },
    {
      "icao": "LIMF",
      "alert": "OK",
      "vis_m": 9999,
      "fzfg": false,
      "metar_trigger": false,
      "taf_trigger": false,
      "metar": "METAR LIMF 031220Z 20005KT 150V240 CAVOK 20/M02 Q1013",
      "taf": "TAF LIMF 031100Z 0312/0412 VRB05KT CAVOK"
    },
    {
      "icao": "LIMJ",
      "alert": "OK",
      "vis_m": 9999,
      "fzfg": false,
      "metar_trigger": false,
      "taf_trigger": false,
      "metar": "METAR LIMJ 031220Z 35009KT 320V030 CAVOK 23/M04 Q1012",
      "taf": "TAF LIMJ 031100Z 0312/0412 03010KT CAVOK"
    },
    {
      "icao": "LIPE",
      "alert": "OK",
      "vis_m": 9999,
      "fzfg": false,
      "metar_trigger": false,
      "taf_trigger": false,
      "metar": "METAR LIPE 031220Z 36004KT 310V050 CAVOK 19/06 Q1013",
      "taf": "TAF LIPE 031100Z 0312/0412 30010KT 9999 SCT060"
    },
    {
      "icao": "LIPH",
      "alert": "OK",
      "vis_m": 9999,
      "fzfg": false,
      "metar_trigger": false,
      "taf_trigger": false,
      "metar": "METAR LIPH 031220Z 19007KT 160V250 CAVOK 20/03 Q1012",
      "taf": "TAF LIPH 031100Z 0312/0412 19010KT 9999 FEW060"
    },
    {
      "icao": "LIPQ",
      "alert": "OK",
      "vis_m": 9999,
      "fzfg": false,
      "metar_trigger": false,
      "taf_trigger": false,
      "metar": "METAR LIPQ 031220Z AUTO 22011KT 9999 NCD 20/01 Q1012",
      "taf": "TAF LIPQ 031100Z 0312/0412 VRB05KT 9999 FEW060"
    },
    {
      "icao": "LIPR",
      "alert": "OK",
      "vis_m": 9999,
      "fzfg": false,
      "metar_trigger": false,
      "taf_trigger": false,
      "metar": "METAR LIPR 031220Z 35008KT 320V030 CAVOK 17/03 Q1013",
      "taf": "TAF LIPR 031100Z 0312/0412 36012KT 9999 FEW060"
    },
    {
      "icao": "LIPX",
      "alert": "OK",
      "vis_m": 9999,
      "fzfg": false,
      "metar_trigger": false,
      "taf_trigger": false,
      "metar": "METAR LIPX 031220Z 25008KT 210V290 CAVOK 21/M01 Q1012",
      "taf": "TAF LIPX 031100Z 0312/0412 VRB05KT CAVOK"
    },
    {
      "icao": "LIPY",
      "alert": "OK",
      "vis_m": 9999,
      "fzfg": false,
      "metar_trigger": false,
      "taf_trigger": false,
      "metar": "METAR LIPY 031220Z AUTO 33012KT 9999 NCD 16/09 Q1013",
      "taf": "TAF LIPY 031100Z 0312/0412 34013KT 9999 SCT060"
    },
    {
      "icao": "LIPZ",
      "alert": "OK",
      "vis_m": 9999,
      "fzfg": false,
      "metar_trigger": false,
      "taf_trigger": false,
      "metar": "METAR LIPZ 031220Z 17005KT CAVOK 18/03 Q1013 NOSIG",
      "taf": "TAF LIPZ 031100Z 0312/0418 18010KT CAVOK"
    },
    {
      "icao": "LIRF",
      "alert": "OK",
      "vis_m": 9999,
      "fzfg": false,
      "metar_trigger": false,
      "taf_trigger": false,
      "metar": "METAR LIRF 031220Z 36008KT 320V040 CAVOK 20/08 Q1009 NOSIG",
      "taf": "TAF LIRF 031100Z 0312/0418 02012KT CAVOK"
    },
    {
      "icao": "LIRN",
      "alert": "OK",
      "vis_m": 9999,
      "fzfg": false,
      "metar_trigger": false,
      "taf_trigger": false,
      "metar": "METAR LIRN 031220Z 02011KT 340V040 9999 BKN050 15/06 Q1009 NOSIG",
      "taf": "TAF LIRN 031100Z 0312/0412 03012KT 9999 SCT050"
    },
    {
      "icao": "LIRP",
      "alert": "OK",
      "vis_m": 9999,
      "fzfg": false,
      "metar_trigger": false,
      "taf_trigger": false,
      "metar": "METAR LIRP 031215Z 28009KT CAVOK 20/04 Q1012 NOSIG",
      "taf": "TAF LIRP 031100Z 0312/0412 10005KT 9999 FEW050"
    },
    {
      "icao": "LIRZ",
      "alert": "OK",
      "vis_m": 9999,
      "fzfg": false,
      "metar_trigger": false,
      "taf_trigger": false,
      "metar": "METAR LIRZ 031220Z AUTO 04013KT 010V070 9999 NCD 16/04 Q1012",
      "taf": "TAF LIRZ 031100Z 0312/0412 02015KT 9999 SCT040"
    },
    {
      "icao": "LJLJ",
      "alert": "OK",
      "vis_m": 9999,
      "fzfg": false,
      "metar_trigger": false,
      "taf_trigger": false,
      "metar": "METAR LJLJ 031200Z COR 12006KT 070V190 9999 FEW070 17/M02 Q1013 NOSIG",
      "taf": "TAF LJLJ 031100Z 0312/0412 10005KT 9999 FEW060"
    },
    {
      "icao": "LKMT",
      "alert": "OK",
      "vis_m": 9999,
      "fzfg": false,
      "metar_trigger": false,
      "taf_trigger": false,
      "metar": "METAR LKMT 031200Z 02008KT 340V050 CAVOK 13/M01 Q1015 NOSIG",
      "taf": "TAF LKMT 031100Z 0312/0412 01008KT CAVOK"
    },
    {
      "icao": "LKPR",
      "alert": "OK",
      "vis_m": 9999,
      "fzfg": false,
      "metar_trigger": false,
      "taf_trigger": false,
      "metar": "METAR LKPR 031200Z 27005KT 9999 FEW042 BKN048 11/02 Q1016 NOSIG",
      "taf": "TAF LKPR 031100Z 0312/0418 26008KT CAVOK"
    },
    {
      "icao": "LLBG",
      "alert": "OK",
      "vis_m": 5000,
      "fzfg": false,
      "metar_trigger": false,
      "taf_trigger": false,
      "metar": "METAR LLBG 031220Z 30008KT 5000 DU NSC 23/M01 Q1016 NOSIG",
      "taf": "TAF LLBG 031103Z 0312/0412 27010KT 5000 DU NSC TX21/0312Z TN13/0404Z"
    },
    {
      "icao": "LMML",
      "alert": "OK",
      "vis_m": 9999,
      "fzfg": false,
      "metar_trigger": false,
      "taf_trigger": false,
      "metar": "METAR LMML 031215Z 28021KT 9999 FEW018TCU SCT024 15/12 Q1009 NOSIG",
      "taf": "TAF LMML 031100Z 0312/0412 28018G28KT 9999 FEW025"
    },
    {
      "icao": "LOWW",
      "alert": "OK",
      "vis_m": 9999,
      "fzfg": false,
      "metar_trigger": false,
      "taf_trigger": false,
      "metar": "METAR LOWW 031220Z 32019KT 290V360 CAVOK 16/01 Q1015 NOSIG",
      "taf": "TAF LOWW 031115Z 0312/0418 31015G25KT CAVOK TX15/0415Z TN06/0402Z"
    },
    {
      "icao": "LPFR",
      "alert": "OK",
      "vis_m": 9999,
      "fzfg": false,
      "metar_trigger": false,
      "taf_trigger": false,
      "metar": "METAR LPFR 031200Z 12011KT CAVOK 22/08 Q1022",
      "taf": "TAF LPFR 031100Z 0312/0412 11013KT CAVOK"
    },
    {
      "icao": "LPMA",
      "alert": "OK",
      "vis_m": 9999,
      "fzfg": false,
      "metar_trigger": false,
      "taf_trigger": false,
      "metar": "METAR LPMA 031200Z 04019KT 9999 FEW016 18/12 Q1023",
      "taf": "TAF LPMA 031100Z 0312/0412 03015KT 9999 SCT015"
    },
    {
      "icao": "LPPR",
      "alert": "OK",
      "vis_m": 9999,
      "fzfg": false,
      "metar_trigger": false,
      "taf_trigger": false,
      "metar": "METAR LPPR 031200Z 30006KT 270V330 CAVOK 18/08 Q1024",
      "taf": "TAF LPPR 031100Z 0312/0412 31010KT CAVOK"
    },
    {
      "icao": "LPPS",
      "alert": "OK",
      "vis_m": 9999,
      "fzfg": false,
      "metar_trigger": false,
      "taf_trigger": false,
      "metar": "METAR LPPS 031200Z 08016KT 9999 FEW014 18/13 Q1023",
      "taf": "TAF LPPS 031100Z 0312/0418 06012KT 9999 SCT013"
    },
    {
      "icao": "LPPT",
      "alert": "OK",
      "vis_m": 9999,
      "fzfg": false,
      "metar_trigger": false,
      "taf_trigger": false,
      "metar": "METAR LPPT 031200Z 07006KT 040V100 CAVOK 21/13 Q1023",
      "taf": "TAF LPPT 031100Z 0312/0418 06007KT CAVOK"
    },
    {
      "icao": "LQBK",
      "alert": "OK",
      "vis_m": 9999,
      "fzfg": false,
      "metar_trigger": false,
      "taf_trigger": false,
      "metar": "METAR LQBK 031200Z 32011KT CAVOK 14/01 Q1012 NOSIG",
      "taf": "TAF LQBK 031100Z 0312/0412 29007KT CAVOK TX14/0313Z TN05/0406Z"
    },
    {
      "icao": "LQSA",
      "alert": "OK",
      "vis_m": 9999,
      "fzfg": false,
      "metar_trigger": false,
      "taf_trigger": false,
      "metar": "METAR LQSA 031200Z 29007KT 9999 -RA SCT019 OVC025 07/04 Q1011 NOSIG",
      "taf": "TAF LQSA 031100Z 0312/0412 28005KT 9999 SCT020 BKN045 TX12/0412Z TN03/0404Z"
    },
    {
      "icao": "LQTZ",
      "alert": "OK",
      "vis_m": 7000,
      "fzfg": false,
      "metar_trigger": false,
      "taf_trigger": false,
      "metar": "METAR LQTZ 031200Z 29009KT 7000 -RA BKN030 07/06 Q1011",
      "taf": "TAF LQTZ 031100Z 0312/0412 29005KT 9999 SCT015 BKN025 TX08/0313Z TN04/0405Z"
    },
    {
      "icao": "LRBC",
      "alert": "OK",
      "vis_m": 9999,
      "fzfg": false,
      "metar_trigger": false,
      "taf_trigger": false,
      "metar": "METAR LRBC 031200Z 33012KT 9999 BKN010 BKN062 12/10 Q1007",
      "taf": "TAF LRBC 031100Z 0312/0321 35010KT 9999 BKN010 OVC030"
    },
    {
      "icao": "LRBS",
      "alert": "OK",
      "vis_m": 9999,
      "fzfg": false,
      "metar_trigger": false,
      "taf_trigger": false,
      "metar": "METAR LRBS 031200Z 06009KT 020V100 9999 BKN049 14/09 Q1006 NOSIG",
      "taf": "TAF LRBS 031100Z 0312/0412 07006KT 9999 BKN030"
    },
    {
      "icao": "LRBV",
      "alert": "OK",
      "vis_m": 9999,
      "fzfg": false,
      "metar_trigger": false,
      "taf_trigger": false,
      "metar": "METAR LRBV 031200Z 03008KT 9999 SCT025 FEW030CB BKN045 12/08 Q1006",
      "taf": "TAF LRBV 031100Z 0312/0321 VRB04KT 9999 SCT030 BKN050"
    },
    {
      "icao": "LRCL",
      "alert": "OK",
      "vis_m": 9999,
      "fzfg": false,
      "metar_trigger": false,
      "taf_trigger": false,
      "metar": "METAR LRCL 031200Z 27008KT 9999 -RA OVC044 11/08 Q1008",
      "taf": "TAF LRCL 031100Z 0312/0321 VRB04KT 9999 SCT015 OVC040"
    },
    {
      "icao": "LRCV",
      "alert": "OK",
      "vis_m": 9999,
      "fzfg": false,
      "metar_trigger": false,
      "taf_trigger": false,
      "metar": "METAR LRCV 031200Z 09006KT 9999 FEW008 SCT012 BKN023 12/10 Q1006",
      "taf": "TAF LRCV 031100Z 0312/0321 VRB04KT 9999 BKN010 OVC020"
    },
    {
      "icao": "LRIA",
      "alert": "OK",
      "vis_m": 9999,
      "fzfg": false,
      "metar_trigger": false,
      "taf_trigger": false,
      "metar": "METAR LRIA 031200Z 31009KT 9999 BKN010 13/10 Q1007",
      "taf": "TAF LRIA 031100Z 0312/0321 32009KT 9999 BKN010"
    },
    {
      "icao": "LROP",
      "alert": "OK",
      "vis_m": 9999,
      "fzfg": false,
      "metar_trigger": false,
      "taf_trigger": false,
      "metar": "METAR LROP 031200Z 06009KT 9999 FEW013 BKN041 14/08 Q1006 NOSIG",
      "taf": "TAF LROP 031100Z 0312/0412 07006KT 9999 BKN030"
    },
    {
      "icao": "LRSB",
      "alert": "OK",
      "vis_m": 9999,
      "fzfg": false,
      "metar_trigger": false,
      "taf_trigger": false,
      "metar": "METAR LRSB 031200Z 34006KT 9999 FEW010 FEW030CB BKN048 12/09 Q1007",
      "taf": "TAF LRSB 031100Z 0312/0412 VRB04KT 9999 SCT030 BKN050"
    },
    {
      "icao": "LRSM",
      "alert": "OK",
      "vis_m": 9999,
      "fzfg": false,
      "metar_trigger": false,
      "taf_trigger": false,
      "metar": "METAR LRSM 031200Z 01006KT 330V050 9999 -RA SCT045 18/06 Q1007",
      "taf": "TAF LRSM 031100Z 0312/0321 02010KT CAVOK"
    },
    {
      "icao": "LRSV",
      "alert": "OK",
      "vis_m": 8000,
      "fzfg": false,
      "metar_trigger": false,
      "taf_trigger": false,
      "metar": "METAR LRSV 031200Z 29009KT 8000 -RA BKN018 BKN040 09/08 Q1008",
      "taf": "TAF LRSV 031100Z 0312/0321 32012KT 5000 -RA BR SCT015 BKN040"
    },
    {
      "icao": "LRTM",
      "alert": "OK",
      "vis_m": 9999,
      "fzfg": false,
      "metar_trigger": false,
      "taf_trigger": false,
      "metar": "METAR LRTM 031200Z 32005KT 280V360 9999 -RA FEW017 SCT023 BKN043 13/09 Q1007",
      "taf": "TAF LRTM 031100Z 0312/0321 VRB04KT 9999 SCT015 OVC040"
    },
    {
      "icao": "LRTR",
      "alert": "OK",
      "vis_m": 9999,
      "fzfg": false,
      "metar_trigger": false,
      "taf_trigger": false,
      "metar": "METAR LRTR 031200Z 03005KT 360V060 9999 FEW025 15/10 Q1008 NOSIG",
      "taf": "TAF LRTR 031100Z 0312/0412 01008KT 9999 SCT035"
    },
    {
      "icao": "LTAC",
      "alert": "OK",
      "vis_m": 9999,
      "fzfg": false,
      "metar_trigger": false,
      "taf_trigger": false,
      "metar": "METAR LTAC 031220Z 28008G21KT 230V320 9999 SCT040 SCT100 12/04 Q1007 NOSIG RMK RWY21C 29010KT RWY03L 28007KT 230V300 RWY21R 28009KT 240V310 RWY03R 23015KT RWY21L 29011KT",
      "taf": "TAF LTAC 031040Z 0312/0412 24018KT 9999 SCT040 SCT100"
    },
    {
      "icao": "LTFM",
      "alert": "OK",
      "vis_m": 9999,
      "fzfg": false,
      "metar_trigger": false,
      "taf_trigger": false,
      "metar": "METAR LTFM 031220Z 21018KT 9999 SCT035 BKN100 18/08 Q1005 NOSIG RMK RWY17L 22014KT RWY34L 21016KT RWY16R 21015KT RWY36 23016KT RWY18 23018KT",
      "taf": "TAF LTFM 031040Z 0312/0418 22018G28KT 9999 SCT035 BKN100"
    },
    {
      "icao": "LUKK",
      "alert": "OK",
      "vis_m": 9999,
      "fzfg": false,
      "metar_trigger": false,
      "taf_trigger": false,
      "metar": "METAR LUKK 031200Z 09003KT 340V130 9999 BKN049 15/09 Q1006 TEMPO SCT045CB",
      "taf": "TAF LUKK 031122Z 0312/0412 VRB06KT 9999 BKN020"
    },
    {
      "icao": "LWOH",
      "alert": "OK",
      "vis_m": 9999,
      "fzfg": false,
      "metar_trigger": false,
      "taf_trigger": false,
      "metar": "METAR LWOH 031220Z 14008KT 100V180 9999 SCT040 SCT080 11/06 Q1005",
      "taf": "TAF LWOH 031120Z 0312/0412 35008KT 9999 FEW040 SCT080"
    },
    {
      "icao": "LWSK",
      "alert": "OK",
      "vis_m": 9999,
      "fzfg": false,
      "metar_trigger": false,
      "taf_trigger": false,
      "metar": "METAR LWSK 031220Z 26005KT 200V320 9999 SCT040 BKN080 13/08 Q1006 NOSIG",
      "taf": "TAF LWSK 031120Z 0312/0412 32005KT 9999 FEW030 SCT080"
    },
    {
      "icao": "LYBE",
      "alert": "OK",
      "vis_m": 6000,
      "fzfg": false,
      "metar_trigger": false,
      "taf_trigger": false,
      "metar": "METAR LYBE 031200Z 31005KT 6000 -RA SCT012 BKN033 10/09 Q1009 NOSIG",
      "taf": "TAF LYBE 031100Z 0312/0412 30008KT 8000 SCT012 BKN035 TX17/0412Z TN06/0406Z"
    },
    {
      "icao": "LYNI",
      "alert": "OK",
      "vis_m": 7000,
      "fzfg": false,
      "metar_trigger": false,
      "taf_trigger": false,
      "metar": "METAR LYNI 031200Z 32011KT 290V350 7000 -RA FEW006 BKN015 OVC033 11/10 Q1007 NOSIG",
      "taf": "TAF LYNI 031100Z 0312/0412 32015KT 9999 BKN013 BKN033 TX13/0412Z TN07/0405Z"
    },
    {
      "icao": "LYPG",
      "alert": "OK",
      "vis_m": 9999,
      "fzfg": false,
      "metar_trigger": false,
      "taf_trigger": false,
      "metar": "METAR LYPG 031200Z 35015KT 310V040 9999 FEW040 SCT060 20/03 Q1004 NOSIG",
      "taf": "TAF LYPG 031100Z 0312/0412 36012KT 9999 FEW040 SCT080 TX20/0313Z TN10/0405Z"
    },
    {
      "icao": "LZIB",
      "alert": "OK",
      "vis_m": 9999,
      "fzfg": false,
      "metar_trigger": false,
      "taf_trigger": false,
      "metar": "METAR LZIB 031230Z 33020KT CAVOK 15/M05 Q1014 NOSIG",
      "taf": "TAF LZIB 031115Z 0312/0412 33014KT CAVOK"
    },
    {
      "icao": "LZKZ",
      "alert": "OK",
      "vis_m": 9999,
      "fzfg": false,
      "metar_trigger": false,
      "taf_trigger": false,
      "metar": "METAR LZKZ 031230Z 01018KT CAVOK 15/00 Q1011 NOSIG",
      "taf": "TAF LZKZ 031115Z 0312/0412 01017KT CAVOK"
    },
    {
      "icao": "LZTT",
      "alert": "OK",
      "vis_m": 9999,
      "fzfg": false,
      "metar_trigger": false,
      "taf_trigger": false,
      "metar": "METAR LZTT 031230Z 13004KT 080V180 9999 FEW043 12/00 Q1011 NOSIG",
      "taf": "TAF LZTT 031115Z 0312/0412 21006KT 9999 FEW040"
    },
    {
      "icao": "OEJN",
      "alert": "OK",
      "vis_m": 9999,
      "fzfg": false,
      "metar_trigger": false,
      "taf_trigger": false,
      "metar": "METAR OEJN 031200Z 28011KT CAVOK 34/15 Q1008 NOSIG",
      "taf": "TAF OEJN 031100Z 0312/0418 30010KT CAVOK"
    },
    {
      "icao": "OEMA",
      "alert": "OK",
      "vis_m": 9999,
      "fzfg": false,
      "metar_trigger": false,
      "taf_trigger": false,
      "metar": "METAR OEMA 031200Z 23005KT 9999 FEW045 36/05 Q1013 NOSIG",
      "taf": "TAF OEMA 031100Z 0312/0418 28016KT 7000 SCT045"
    },
    {
      "icao": "OJAI",
      "alert": "OK",
      "vis_m": 700,
      "fzfg": false,
      "metar_trigger": false,
      "taf_trigger": false,
      "metar": "METAR OJAI 031200Z 28014KT 0700 DU FEW020 BKN025 16/04 Q1017 NOSIG",
      "taf": "TAF OJAI 031200Z 0312/0418 28012KT 2500 DU FEW030"
    },
    {
      "icao": "OMAA",
      "alert": "OK",
      "vis_m": null,
      "fzfg": false,
      "metar_trigger": false,
      "taf_trigger": false,
      "metar": "",
      "taf": ""
    },
    {
      "icao": "OMDB",
      "alert": "OK",
      "vis_m": null,
      "fzfg": false,
      "metar_trigger": false,
      "taf_trigger": false,
      "metar": "",
      "taf": ""
    },
    {
      "icao": "UAAA",
      "alert": "OK",
      "vis_m": 9999,
      "fzfg": false,
      "metar_trigger": false,
      "taf_trigger": false,
      "metar": "METAR UAAA 031200Z 36005MPS 9999 BKN200 23/05 Q1005 NOSIG",
      "taf": "TAF UAAA 031103Z 0312/0412 17003MPS 9999 SCT100 TX27/0410Z TN10/0401Z"
    },
    {
      "icao": "UBBB",
      "alert": "OK",
      "vis_m": 9999,
      "fzfg": false,
      "metar_trigger": false,
      "taf_trigger": false,
      "metar": "METAR UBBB 031230Z 15020KT CAVOK 16/12 Q1003 NOSIG",
      "taf": "TAF UBBB 031050Z 0312/0412 17016KT 9999 SCT020 TX18/0312Z TN11/0401Z"
    },
    {
      "icao": "UDSG",
      "alert": "OK",
      "vis_m": 9999,
      "fzfg": false,
      "metar_trigger": false,
      "taf_trigger": false,
      "metar": "METAR UDSG 031200Z 20015KT 9999 FEW049CB 14/03 Q1011 NOSIG",
      "taf": "TAF UDSG 031100Z 0312/0412 21006KT 9999 SCT040"
    },
    {
      "icao": "UDYZ",
      "alert": "OK",
      "vis_m": 9999,
      "fzfg": false,
      "metar_trigger": false,
      "taf_trigger": false,
      "metar": "METAR UDYZ 031200Z 09003KT 040V160 9999 SCT043CB 18/06 Q1009 NOSIG",
      "taf": "TAF UDYZ 031100Z 0312/0412 23006KT 9999 SCT040"
    },
    {
      "icao": "UGKO",
      "alert": "OK",
      "vis_m": 9999,
      "fzfg": false,
      "metar_trigger": false,
      "taf_trigger": false,
      "metar": "METAR UGKO 031200Z VRB03KT 9999 BKN058 25/08 Q1002 NOSIG",
      "taf": "TAF UGKO 031100Z 0312/0412 25010KT 9999 BKN050 TX24/0312Z TN11/0403Z"
    }
  ]
}