{
  "ts_utc": "2026-02-07T18:00:28Z",
  "threshold_m": 150,
  "source": "stations_override.txt (ICAO list) + aviationweather.gov (METAR/TAF raw)",
  "station_count": 159,
  "stations": [
    {
      "icao": "BIKF",
      "alert": "OK",
      "vis_m": 9999,
      "fzfg": false,
      "metar_trigger": false,
      "taf_trigger": false,
      "metar": "METAR BIKF 071730Z 03004KT 9999 FEW034 BKN056 03/M02 Q1009",
      "taf": "TAF BIKF 071624Z 0718/0818 05008KT 9999 FEW025 TX02/0718Z TNM03/0806Z"
    },
    {
      "icao": "BKPR",
      "alert": "OK",
      "vis_m": null,
      "fzfg": false,
      "metar_trigger": false,
      "taf_trigger": false,
      "metar": "",
      "taf": "TAF BKPR 071730Z 0718/0818 28008KT 9999 SCT070"
    },
    {
      "icao": "EBCI",
      "alert": "OK",
      "vis_m": 9999,
      "fzfg": false,
      "metar_trigger": false,
      "taf_trigger": false,
      "metar": "METAR EBCI 071750Z 15006KT 9999 FEW026 08/05 Q1003 NOSIG",
      "taf": "TAF EBCI 071708Z 0718/0824 17007KT 9999 FEW025 SCT045"
    },
    {
      "icao": "EDDB",
      "alert": "OK",
      "vis_m": 3500,
      "fzfg": false,
      "metar_trigger": false,
      "taf_trigger": false,
      "metar": "METAR EDDB 071750Z AUTO 05006KT 3500 BR BKN003 OVC017 01/01 Q1007 TEMPO 2500 BR",
      "taf": "TAF EDDB 071700Z 0718/0818 05006KT 3500 BR OVC003"
    },
    {
      "icao": "EDDH",
      "alert": "OK",
      "vis_m": 6000,
      "fzfg": false,
      "metar_trigger": false,
      "taf_trigger": false,
      "metar": "METAR EDDH 071750Z AUTO 08008KT 6000 -RA OVC004 01/01 Q1008 TEMPO 4000",
      "taf": "TAF EDDH 071700Z 0718/0824 08006KT 6000 OVC005"
    },
    {
      "icao": "EDDK",
      "alert": "OK",
      "vis_m": 9999,
      "fzfg": false,
      "metar_trigger": false,
      "taf_trigger": false,
      "metar": "METAR EDDK 071750Z AUTO 11004KT 9999 SCT041 09/06 Q1005 NOSIG",
      "taf": "TAF EDDK 071700Z 0718/0824 12005KT CAVOK"
    },
    {
      "icao": "EDDN",
      "alert": "OK",
      "vis_m": 700,
      "fzfg": false,
      "metar_trigger": false,
      "taf_trigger": false,
      "metar": "METAR EDDN 071750Z AUTO 34002KT 0700 0450 R28/1000D FG BKN002 OVC015 05/04 Q1006 NOSIG",
      "taf": "TAF EDDN 071700Z 0718/0818 VRB03KT 0900 FG OVC004"
    },
    {
      "icao": "EDDS",
      "alert": "OK",
      "vis_m": 9999,
      "fzfg": false,
      "metar_trigger": false,
      "taf_trigger": false,
      "metar": "METAR EDDS 071750Z AUTO 34005KT 9999 FEW036 07/05 Q1005 NOSIG",
      "taf": "TAF EDDS 071700Z 0718/0818 03005KT 9999 BKN030"
    },
    {
      "icao": "EDFH",
      "alert": "OK",
      "vis_m": 9999,
      "fzfg": false,
      "metar_trigger": false,
      "taf_trigger": false,
      "metar": "METAR EDFH 071750Z 04002KT 9999 BCFG NSC 04/04 Q1005",
      "taf": "TAF EDFH 071700Z 0718/0818 14004KT 9999 SCT012"
    },
    {
      "icao": "EDJA",
      "alert": "OK",
      "vis_m": 9999,
      "fzfg": false,
      "metar_trigger": false,
      "taf_trigger": false,
      "metar": "METAR EDJA 071750Z 04006KT 9999 FEW027 SCT044 04/02 Q1005",
      "taf": "TAF EDJA 071700Z 0718/0803 VRB03KT 9999 FEW030"
    },
    {
      "icao": "EDLW",
      "alert": "OK",
      "vis_m": 9999,
      "fzfg": false,
      "metar_trigger": false,
      "taf_trigger": false,
      "metar": "METAR EDLW 071750Z 17005KT CAVOK 08/05 Q1005",
      "taf": "TAF EDLW 071700Z 0718/0818 14004KT 9999 FEW030"
    },
    {
      "icao": "EDNY",
      "alert": "OK",
      "vis_m": 9999,
      "fzfg": false,
      "metar_trigger": false,
      "taf_trigger": false,
      "metar": "METAR EDNY 071750Z 00000KT CAVOK 05/02 Q1005",
      "taf": "TAF EDNY 071700Z 0718/0803 04003KT 9999 FEW040"
    },
    {
      "icao": "EDSB",
      "alert": "OK",
      "vis_m": 9999,
      "fzfg": false,
      "metar_trigger": false,
      "taf_trigger": false,
      "metar": "METAR EDSB 071750Z 02005KT CAVOK 07/06 Q1005",
      "taf": "TAF EDSB 071700Z 0718/0818 03005KT CAVOK"
    },
    {
      "icao": "EETN",
      "alert": "OK",
      "vis_m": 6000,
      "fzfg": false,
      "metar_trigger": false,
      "taf_trigger": false,
      "metar": "METAR EETN 071750Z 05010KT 6000 -SG OVC004 M09/M09 Q1019 TEMPO 3000 SG",
      "taf": "TAF EETN 071730Z 0718/0818 05009KT 9999 BKN008"
    },
    {
      "icao": "EFTU",
      "alert": "OK",
      "vis_m": 9999,
      "fzfg": false,
      "metar_trigger": false,
      "taf_trigger": false,
      "metar": "METAR EFTU 071750Z AUTO 07008KT 9999 -SHSN OVC007 M12/M13 Q1021",
      "taf": "TAF EFTU 071730Z 0718/0818 06010KT 9999 BKN006"
    },
    {
      "icao": "EGBB",
      "alert": "OK",
      "vis_m": 6000,
      "fzfg": false,
      "metar_trigger": false,
      "taf_trigger": false,
      "metar": "METAR EGBB 071750Z 15014KT 6000 -RA BKN011 09/08 Q0992",
      "taf": "TAF EGBB 071659Z 0718/0818 17009KT 9999 SCT017"
    },
    {
      "icao": "EGGP",
      "alert": "OK",
      "vis_m": 9999,
      "fzfg": false,
      "metar_trigger": false,
      "taf_trigger": false,
      "metar": "METAR EGGP 071750Z 09010KT 9999 -RA FEW015 SCT022 BKN041 08/07 Q0991",
      "taf": "TAF EGGP 071706Z 0718/0818 10010KT 9999 BKN016"
    },
    {
      "icao": "EGGW",
      "alert": "OK",
      "vis_m": 9999,
      "fzfg": false,
      "metar_trigger": false,
      "taf_trigger": false,
      "metar": "METAR EGGW 071750Z AUTO 17010KT 150V220 9999 OVC009 09/08 Q0996",
      "taf": "TAF EGGW 071654Z 0718/0818 17008KT 9999 SCT008 BKN015"
    },
    {
      "icao": "EGKK",
      "alert": "OK",
      "vis_m": 9999,
      "fzfg": false,
      "metar_trigger": false,
      "taf_trigger": false,
      "metar": "METAR EGKK 071750Z 18008KT 9999 BKN019 BKN027 10/09 Q0997",
      "taf": "TAF EGKK 071657Z 0718/0824 18009KT 9999 SCT015"
    },
    {
      "icao": "EGNM",
      "alert": "OK",
      "vis_m": 2500,
      "fzfg": false,
      "metar_trigger": false,
      "taf_trigger": false,
      "metar": "METAR EGNM 071750Z 11010KT 2500 -RA BR OVC002 07/07 Q0994",
      "taf": "TAF EGNM 071706Z 0718/0818 11010KT 6000 BKN005"
    },
    {
      "icao": "EGPD",
      "alert": "OK",
      "vis_m": 3000,
      "fzfg": false,
      "metar_trigger": false,
      "taf_trigger": false,
      "metar": "METAR EGPD 071750Z 14006KT 3000 -DZ BKN003 OVC006 06/06 Q0999 TEMPO 2000 BR BKN002",
      "taf": "TAF EGPD 071658Z 0718/0818 11010KT 8000 SCT002 BKN008"
    },
    {
      "icao": "EGPF",
      "alert": "OK",
      "vis_m": 9999,
      "fzfg": false,
      "metar_trigger": false,
      "taf_trigger": false,
      "metar": "METAR EGPF 071750Z AUTO 06009KT 9999 OVC024 07/05 Q0996",
      "taf": "TAF EGPF 071654Z 0718/0818 07010KT 9999 BKN020"
    },
    {
      "icao": "EHBK",
      "alert": "OK",
      "vis_m": 9999,
      "fzfg": false,
      "metar_trigger": false,
      "taf_trigger": false,
      "metar": "METAR EHBK 071755Z AUTO 15008KT 110V180 9999 NSC 09/05 Q1004 NOSIG",
      "taf": "TAF EHBK 071716Z 0718/0824 15005KT CAVOK"
    },
    {
      "icao": "EHEH",
      "alert": "OK",
      "vis_m": 9999,
      "fzfg": false,
      "metar_trigger": false,
      "taf_trigger": false,
      "metar": "METAR EHEH 071725Z AUTO 15004KT 100V220 9999 OVC180 09/05 Q1004 BLU NOSIG RMK TREND REMOTE BY EHWX",
      "taf": "TAF EHEH 071123Z 0712/0818 19007KT CAVOK"
    },
    {
      "icao": "EKBI",
      "alert": "OK",
      "vis_m": 6000,
      "fzfg": false,
      "metar_trigger": false,
      "taf_trigger": false,
      "metar": "METAR EKBI 071750Z AUTO 08015KT 6000 -SN OVC007/// M00/M01 Q1010",
      "taf": "TAF EKBI 071727Z 0718/0818 09014KT 9999 BKN007"
    },
    {
      "icao": "EKCH",
      "alert": "OK",
      "vis_m": 2000,
      "fzfg": false,
      "metar_trigger": false,
      "taf_trigger": false,
      "metar": "METAR EKCH 071750Z 07009KT 2000 SN FEW005 BKN007 M00/M01 Q1013 BECMG 7000 -SN BKN008",
      "taf": "TAF EKCH 071727Z 0718/0818 07012KT 9999 OVC015"
    },
    {
      "icao": "ENAL",
      "alert": "OK",
      "vis_m": 9999,
      "fzfg": false,
      "metar_trigger": false,
      "taf_trigger": false,
      "metar": "METAR ENAL 071750Z 17005KT CAVOK M01/M04 Q1013",
      "taf": "TAF ENAL 071700Z 0718/0803 VRB04KT CAVOK"
    },
    {
      "icao": "ENBR",
      "alert": "OK",
      "vis_m": 9999,
      "fzfg": false,
      "metar_trigger": false,
      "taf_trigger": false,
      "metar": "METAR ENBR 071750Z 00000KT 9999 FEW050 01/M00 Q1011 NOSIG RMK WIND 1200FT 11007KT",
      "taf": "TAF ENBR 071700Z 0718/0818 VRB03KT CAVOK"
    },
    {
      "icao": "ENGM",
      "alert": "OK",
      "vis_m": 9999,
      "fzfg": false,
      "metar_trigger": false,
      "taf_trigger": false,
      "metar": "METAR ENGM 071750Z 04006KT 9999 BKN034 M07/M10 Q1020 NOSIG",
      "taf": ""
    },
    {
      "icao": "ENHD",
      "alert": "OK",
      "vis_m": 9999,
      "fzfg": false,
      "metar_trigger": false,
      "taf_trigger": false,
      "metar": "METAR ENHD 071750Z 10016KT CAVOK 04/M06 Q1011",
      "taf": "TAF ENHD 071400Z 0715/0723 10010KT CAVOK"
    },
    {
      "icao": "ENTC",
      "alert": "OK",
      "vis_m": 9999,
      "fzfg": false,
      "metar_trigger": false,
      "taf_trigger": false,
      "metar": "METAR ENTC 071750Z 23007KT CAVOK M05/M07 Q1022 NOSIG RMK WIND 2600FT 21006KT",
      "taf": "TAF ENTC 071700Z 0718/0818 18005KT 9999 FEW040"
    },
    {
      "icao": "ENTO",
      "alert": "OK",
      "vis_m": 9999,
      "fzfg": false,
      "metar_trigger": false,
      "taf_trigger": false,
      "metar": "METAR ENTO 071750Z 01006KT 9999 OVC037 M04/M06 Q1019 NOSIG",
      "taf": "TAF ENTO 071700Z 0718/0818 02010KT 9999 FEW040"
    },
    {
      "icao": "ENVA",
      "alert": "OK",
      "vis_m": 9999,
      "fzfg": false,
      "metar_trigger": false,
      "taf_trigger": false,
      "metar": "METAR ENVA 071750Z 08008KT 040V100 CAVOK M05/M14 Q1019 RMK WIND 670FT 11012KT",
      "taf": "TAF ENVA 071700Z 0718/0818 10007KT CAVOK"
    },
    {
      "icao": "ENZV",
      "alert": "OK",
      "vis_m": 9999,
      "fzfg": false,
      "metar_trigger": false,
      "taf_trigger": false,
      "metar": "METAR ENZV 071750Z 09009KT CAVOK 03/M06 Q1011 NOSIG",
      "taf": "TAF ENZV 071700Z 0718/0818 12012KT CAVOK"
    },
    {
      "icao": "EPGD",
      "alert": "OK",
      "vis_m": 4300,
      "fzfg": false,
      "metar_trigger": false,
      "taf_trigger": false,
      "metar": "METAR EPGD 071730Z 03006KT 010V090 4300 -SN BR SCT003 OVC005 M02/M03 Q1008",
      "taf": "TAF EPGD 071730Z 0718/0818 06007KT 4000 -SN BR OVC006"
    },
    {
      "icao": "EPKK",
      "alert": "OK",
      "vis_m": 1500,
      "fzfg": false,
      "metar_trigger": false,
      "taf_trigger": false,
      "metar": "METAR EPKK 071730Z 24004KT 1500 BR FEW005 OVC008 02/02 Q1005",
      "taf": "TAF EPKK 071730Z 0718/0818 22004KT 1600 BR OVC008"
    },
    {
      "icao": "EPKT",
      "alert": "OK",
      "vis_m": 3700,
      "fzfg": false,
      "metar_trigger": false,
      "taf_trigger": false,
      "metar": "METAR EPKT 071730Z 34002KT 3700 -RA BR BKN004 OVC010 02/01 Q1005",
      "taf": "TAF EPKT 071730Z 0718/0818 29003KT 5000 BR OVC007"
    },
    {
      "icao": "EPLB",
      "alert": "OK",
      "vis_m": 4200,
      "fzfg": false,
      "metar_trigger": false,
      "taf_trigger": false,
      "metar": "METAR EPLB 071730Z 07004KT 4200 -FZRA BR FEW004 SCT006 BKN011 M00/M01 Q1005",
      "taf": "TAF EPLB 071730Z 0718/0818 06005KT 5000 BR SCT004 BKN007"
    },
    {
      "icao": "EPMO",
      "alert": "OK",
      "vis_m": 1300,
      "fzfg": false,
      "metar_trigger": false,
      "taf_trigger": false,
      "metar": "METAR EPMO 071730Z 04005KT 1300 R08/1400N -FZDZ BR OVC002 M00/M00 Q1006",
      "taf": "TAF EPMO 071730Z 0718/0818 04005KT 2000 BR OVC003"
    },
    {
      "icao": "EPPO",
      "alert": "OK",
      "vis_m": 450,
      "fzfg": false,
      "metar_trigger": false,
      "taf_trigger": false,
      "metar": "METAR EPPO 071730Z 06005KT 0450 R28/1400D FG OVC001 00/M00 Q1007",
      "taf": "TAF EPPO 071730Z 0718/0818 03003KT 2000 BR OVC002"
    },
    {
      "icao": "EPRA",
      "alert": "OK",
      "vis_m": 2000,
      "fzfg": false,
      "metar_trigger": false,
      "taf_trigger": false,
      "metar": "METAR EPRA 071730Z 03002KT 2000 BR OVC002 01/00 Q1006",
      "taf": "TAF EPRA 071730Z 0718/0803 04005KT 3500 BR OVC004"
    },
    {
      "icao": "EPRZ",
      "alert": "OK",
      "vis_m": 100,
      "fzfg": false,
      "metar_trigger": false,
      "taf_trigger": false,
      "metar": "METAR EPRZ 071730Z 30002KT 0100 R27/0400N FG VV001 01/01 Q1005",
      "taf": "TAF EPRZ 071730Z 0718/0818 30002KT 0100 FG OVC001"
    },
    {
      "icao": "EPSC",
      "alert": "OK",
      "vis_m": 3900,
      "fzfg": false,
      "metar_trigger": false,
      "taf_trigger": false,
      "metar": "METAR EPSC 071730Z 02006KT 350V070 3900 -FZDZ BR SCT003 OVC005 00/M00 Q1008",
      "taf": "TAF EPSC 071730Z 0718/0818 05005KT 4000 BR OVC006"
    },
    {
      "icao": "EPSY",
      "alert": "OK",
      "vis_m": 2700,
      "fzfg": false,
      "metar_trigger": false,
      "taf_trigger": false,
      "metar": "METAR EPSY 071730Z 03004KT 2700 -FZDZ BR BKN002 OVC005 M02/M02 Q1007",
      "taf": "TAF EPSY 071730Z 0718/0803 03005KT 3500 BR OVC003"
    },
    {
      "icao": "EPWA",
      "alert": "OK",
      "vis_m": 3300,
      "fzfg": false,
      "metar_trigger": false,
      "taf_trigger": false,
      "metar": "METAR EPWA 071730Z 06005KT 030V110 3300 -DZ BR OVC003 01/00 Q1006 TEMPO 2500 BR",
      "taf": "TAF EPWA 071730Z 0718/0818 04004KT 2000 -DZ BR OVC003"
    },
    {
      "icao": "EPWR",
      "alert": "OK",
      "vis_m": 4500,
      "fzfg": false,
      "metar_trigger": false,
      "taf_trigger": false,
      "metar": "METAR EPWR 071730Z 02003KT 4500 BR OVC006 02/02 Q1006",
      "taf": "TAF EPWR 071730Z 0718/0818 03002KT 5000 BR OVC006"
    },
    {
      "icao": "ESGG",
      "alert": "OK",
      "vis_m": 9999,
      "fzfg": false,
      "metar_trigger": false,
      "taf_trigger": false,
      "metar": "METAR ESGG 071750Z 08011KT 9999 BKN011 M01/M04 Q1015",
      "taf": "TAF ESGG 071730Z 0718/0818 07010KT 9999 BKN010"
    },
    {
      "icao": "ESKN",
      "alert": "OK",
      "vis_m": 9999,
      "fzfg": false,
      "metar_trigger": false,
      "taf_trigger": false,
      "metar": "METAR ESKN 071750Z 35005KT 320V020 CAVOK M06/M09 Q1019",
      "taf": "TAF ESKN 071730Z 0718/0818 01010KT CAVOK"
    },
    {
      "icao": "ESMS",
      "alert": "OK",
      "vis_m": 7000,
      "fzfg": false,
      "metar_trigger": false,
      "taf_trigger": false,
      "metar": "METAR ESMS 071750Z 07016KT 7000 OVC009 M00/M01 Q1011",
      "taf": "TAF ESMS 071727Z 0718/0818 07014KT 9999 BKN012"
    },
    {
      "icao": "ESSA",
      "alert": "OK",
      "vis_m": 9999,
      "fzfg": false,
      "metar_trigger": false,
      "taf_trigger": false,
      "metar": "METAR ESSA 071750Z 01008KT CAVOK M08/M09 Q1020 NOSIG",
      "taf": "TAF ESSA 071730Z 0718/0818 36007KT CAVOK"
    },
    {
      "icao": "EYKA",
      "alert": "OK",
      "vis_m": 2300,
      "fzfg": false,
      "metar_trigger": false,
      "taf_trigger": false,
      "metar": "METAR EYKA 071750Z 03004KT 360V070 2300 -SN BR SCT007 BKN040 OVC048 M03/M04 Q1009",
      "taf": "TAF EYKA 071715Z 0718/0818 05008KT 5000 -SN BR SCT010 OVC025"
    },
    {
      "icao": "EYPA",
      "alert": "OK",
      "vis_m": 9999,
      "fzfg": false,
      "metar_trigger": false,
      "taf_trigger": false,
      "metar": "METAR EYPA 071750Z 06008KT 9999 -SHSN FEW012CB BKN048 M04/M06 Q1012",
      "taf": "TAF EYPA 071714Z 0718/0818 06010KT 8000 BKN030"
    },
    {
      "icao": "EYVI",
      "alert": "OK",
      "vis_m": 6000,
      "fzfg": false,
      "metar_trigger": false,
      "taf_trigger": false,
      "metar": "METAR EYVI 071750Z 05008KT 6000 -SN SCT007 M04/M05 Q1008 TEMPO 3000 -SN BR",
      "taf": "TAF EYVI 071716Z 0718/0818 06010KT 5000 -SN BR SCT010 BKN030"
    },
    {
      "icao": "GCFV",
      "alert": "OK",
      "vis_m": 9999,
      "fzfg": false,
      "metar_trigger": false,
      "taf_trigger": false,
      "metar": "METAR GCFV 071730Z 14004KT 100V180 CAVOK 19/12 Q1024",
      "taf": "TAF GCFV 071400Z 0715/0815 08005KT 9999 FEW030 TX22/0814Z TN13/0806Z"
    },
    {
      "icao": "GCLP",
      "alert": "OK",
      "vis_m": 9999,
      "fzfg": false,
      "metar_trigger": false,
      "taf_trigger": false,
      "metar": "METAR GCLP 071730Z 04013KT 9999 FEW035 20/13 Q1024 NOSIG",
      "taf": "TAF GCLP 071400Z 0715/0815 04010KT 9999 FEW035 TX22/0814Z TN15/0806Z"
    },
    {
      "icao": "GCTS",
      "alert": "OK",
      "vis_m": 9999,
      "fzfg": false,
      "metar_trigger": false,
      "taf_trigger": false,
      "metar": "METAR GCTS 071730Z 24009KT 9999 FEW035 20/11 Q1024 NOSIG",
      "taf": "TAF GCTS 071400Z 0715/0815 19005KT 9999 SCT030 TX23/0814Z TN13/0806Z"
    },
    {
      "icao": "GMAD",
      "alert": "OK",
      "vis_m": 9999,
      "fzfg": false,
      "metar_trigger": false,
      "taf_trigger": false,
      "metar": "METAR GMAD 071730Z 27012KT CAVOK 16/13 Q1023 NOSIG",
      "taf": "TAF GMAD 071700Z 0718/0824 26008KT 9999 SCT020 SCT080"
    },
    {
      "icao": "GMMN",
      "alert": "OK",
      "vis_m": 9999,
      "fzfg": false,
      "metar_trigger": false,
      "taf_trigger": false,
      "metar": "METAR GMMN 071730Z 23018KT 190V250 9999 BKN026 15/12 Q1020 NOSIG",
      "taf": "TAF GMMN 071700Z 0718/0824 22018G35KT 9999 BKN026"
    },
    {
      "icao": "GMMX",
      "alert": "OK",
      "vis_m": 9999,
      "fzfg": false,
      "metar_trigger": false,
      "taf_trigger": false,
      "metar": "METAR GMMX 071730Z 28013KT 9999 SCT080 SCT200 16/07 Q1022 NOSIG",
      "taf": "TAF GMMX 071700Z 0718/0824 24015KT 9999 SCT026 SCT100"
    },
    {
      "icao": "HEGN",
      "alert": "OK",
      "vis_m": 9999,
      "fzfg": false,
      "metar_trigger": false,
      "taf_trigger": false,
      "metar": "METAR HEGN 071700Z 00000KT CAVOK 24/16 Q1015 NOSIG",
      "taf": "TAF HEGN 071700Z 0718/0824 25007KT CAVOK"
    },
    {
      "icao": "HEMA",
      "alert": "OK",
      "vis_m": 9999,
      "fzfg": false,
      "metar_trigger": false,
      "taf_trigger": false,
      "metar": "METAR HEMA 071700Z 33003KT CAVOK 24/13 Q1015 NOSIG",
      "taf": "TAF HEMA 071700Z 0718/0824 14008KT CAVOK"
    },
    {
      "icao": "HESH",
      "alert": "OK",
      "vis_m": 9999,
      "fzfg": false,
      "metar_trigger": false,
      "taf_trigger": false,
      "metar": "METAR HESH 071700Z 09006KT CAVOK 23/19 Q1015 NOSIG",
      "taf": "TAF HESH 071700Z 0718/0824 26008KT CAVOK"
    },
    {
      "icao": "HESX",
      "alert": "OK",
      "vis_m": 9999,
      "fzfg": false,
      "metar_trigger": false,
      "taf_trigger": false,
      "metar": "METAR HESX 071700Z 28008KT CAVOK 22/02 Q1015 NOSIG",
      "taf": "TAF HESX 071700Z 0718/0824 23009KT CAVOK"
    },
    {
      "icao": "LATI",
      "alert": "OK",
      "vis_m": 9999,
      "fzfg": false,
      "metar_trigger": false,
      "taf_trigger": false,
      "metar": "METAR LATI 071750Z 16005KT 9999 SCT070 BKN120 12/08 Q1008 NOSIG",
      "taf": "TAF LATI 071700Z 0718/0818 VRB05KT 9999 SCT040 OVC080 TX16/0812Z TN10/0805Z"
    },
    {
      "icao": "LBPD",
      "alert": "OK",
      "vis_m": 9999,
      "fzfg": false,
      "metar_trigger": false,
      "taf_trigger": false,
      "metar": "METAR LBPD 071730Z AUTO 27006KT 9999 -SHRA FEW020/// BKN058/// OVC091/// 11/08 Q1005 NOSIG",
      "taf": "TAF LBPD 071700Z 0718/0818 29008KT 9999 BKN050"
    },
    {
      "icao": "LBSF",
      "alert": "OK",
      "vis_m": 6000,
      "fzfg": false,
      "metar_trigger": false,
      "taf_trigger": false,
      "metar": "METAR LBSF 071730Z AUTO 28006KT 230V040 6000 +SHRA FEW013/// BKN031/// OVC060/// 08/06 Q1005 RETS TEMPO 4000 TSRA FEW025CB",
      "taf": "TAF LBSF 071700Z 0718/0818 VRB04KT 9999 SCT030 BKN050"
    },
    {
      "icao": "LBWN",
      "alert": "OK",
      "vis_m": 9999,
      "fzfg": false,
      "metar_trigger": false,
      "taf_trigger": false,
      "metar": "METAR LBWN 071730Z AUTO 13004KT 9999 -RA BKN018/// BKN026/// OVC044/// 06/06 Q1006 NOSIG",
      "taf": "TAF LBWN 071700Z 0718/0818 VRB03KT 9999 BKN015 BKN030"
    },
    {
      "icao": "LCLK",
      "alert": "OK",
      "vis_m": 9999,
      "fzfg": false,
      "metar_trigger": false,
      "taf_trigger": false,
      "metar": "METAR LCLK 071730Z 32005KT 270V360 CAVOK 16/14 Q1009 NOSIG",
      "taf": "TAF LCLK 071730Z 0718/0818 22010KT 9999 FEW025"
    },
    {
      "icao": "LCPH",
      "alert": "OK",
      "vis_m": 9000,
      "fzfg": false,
      "metar_trigger": false,
      "taf_trigger": false,
      "metar": "METAR LCPH 071730Z 31008KT 9000 FEW025 17/15 Q1009 NOSIG",
      "taf": "TAF LCPH 071730Z 0718/0818 30010KT 9999 FEW020"
    },
    {
      "icao": "LEAL",
      "alert": "OK",
      "vis_m": 9999,
      "fzfg": false,
      "metar_trigger": false,
      "taf_trigger": false,
      "metar": "METAR LEAL 071730Z 21005KT 160V250 CAVOK 15/09 Q1009 NOSIG",
      "taf": "TAF LEAL 071700Z 0718/0818 22012KT 9999 FEW040 TX17/0814Z TN08/0806Z"
    },
    {
      "icao": "LEBB",
      "alert": "OK",
      "vis_m": 9999,
      "fzfg": false,
      "metar_trigger": false,
      "taf_trigger": false,
      "metar": "METAR LEBB 071730Z 12010KT 080V150 9999 FEW035 14/02 Q0999 NOSIG",
      "taf": "TAF LEBB 071700Z 0718/0818 13009KT 9999 FEW050 TX12/0814Z TN08/0804Z"
    },
    {
      "icao": "LEBL",
      "alert": "OK",
      "vis_m": 9999,
      "fzfg": false,
      "metar_trigger": false,
      "taf_trigger": false,
      "metar": "METAR LEBL 071730Z 25012KT CAVOK 13/08 Q1007 NOSIG",
      "taf": "TAF LEBL 071700Z 0718/0818 29009KT 9999 FEW025 TX16/0813Z TN07/0806Z"
    },
    {
      "icao": "LECH",
      "alert": "OK",
      "vis_m": 9999,
      "fzfg": false,
      "metar_trigger": false,
      "taf_trigger": false,
      "metar": "METAR LECH 071730Z AUTO 22009KT 9999 BKN070 11/02 Q1007",
      "taf": ""
    },
    {
      "icao": "LEMD",
      "alert": "OK",
      "vis_m": 2900,
      "fzfg": false,
      "metar_trigger": false,
      "taf_trigger": false,
      "metar": "METAR LEMD 071730Z 33005KT 2900 -RA BR FEW003 BKN008 BKN013 05/05 Q1002 NOSIG",
      "taf": "TAF LEMD 071700Z 0718/0824 VRB04KT 9999 BKN020 TX10/0815Z TN02/0719Z"
    },
    {
      "icao": "LEMG",
      "alert": "OK",
      "vis_m": 6000,
      "fzfg": false,
      "metar_trigger": false,
      "taf_trigger": false,
      "metar": "SPECI LEMG 071746Z 16004KT 6000 SHRA FEW035CB SCT060 BKN070 11/10 Q1012 NOSIG",
      "taf": "TAF LEMG 071700Z 0718/0818 23015KT 9999 FEW040 TX17/0814Z TN09/0806Z"
    },
    {
      "icao": "LEVC",
      "alert": "OK",
      "vis_m": 9999,
      "fzfg": false,
      "metar_trigger": false,
      "taf_trigger": false,
      "metar": "METAR LEVC 071730Z 29007KT 9999 BKN062 12/05 Q1008 NOSIG",
      "taf": "TAF LEVC 071700Z 0718/0818 30006KT 9999 SCT035 TX18/0814Z TN08/0806Z"
    },
    {
      "icao": "LEXJ",
      "alert": "OK",
      "vis_m": 9999,
      "fzfg": false,
      "metar_trigger": false,
      "taf_trigger": false,
      "metar": "METAR LEXJ 071730Z 10004KT 9999 FEW070 13/01 Q0998",
      "taf": "TAF LEXJ 071400Z 0715/0815 20009KT 9999 SCT050 TX13/0715Z TN07/0719Z"
    },
    {
      "icao": "LEZG",
      "alert": "OK",
      "vis_m": 9999,
      "fzfg": false,
      "metar_trigger": false,
      "taf_trigger": false,
      "metar": "METAR LEZG 071730Z 13003KT 070V220 9999 SCT050 BKN075 12/02 Q1004 NOSIG",
      "taf": "TAF LEZG 071700Z 0718/0818 10007KT 9999 FEW050 TX13/0815Z TN05/0806Z"
    },
    {
      "icao": "LEZL",
      "alert": "OK",
      "vis_m": 8000,
      "fzfg": false,
      "metar_trigger": false,
      "taf_trigger": false,
      "metar": "METAR LEZL 071730Z 22016KT 170V260 8000 FEW017 SCT022 BKN038 14/12 Q1009 NOSIG",
      "taf": "TAF LEZL 071400Z 0715/0815 24018KT 9999 SCT030 SCT040 TX14/0815Z TN09/0807Z"
    },
    {
      "icao": "LFBD",
      "alert": "OK",
      "vis_m": 9999,
      "fzfg": false,
      "metar_trigger": false,
      "taf_trigger": false,
      "metar": "METAR LFBD 071730Z AUTO 13005KT 9999 FEW047 11/05 Q1002 NOSIG",
      "taf": "TAF LFBD 071700Z 0718/0824 12005KT CAVOK TX12/0814Z TN06/0806Z"
    },
    {
      "icao": "LFLL",
      "alert": "OK",
      "vis_m": 9999,
      "fzfg": false,
      "metar_trigger": false,
      "taf_trigger": false,
      "metar": "METAR LFLL 071730Z 12003KT 070V140 CAVOK 09/05 Q1005 NOSIG",
      "taf": "TAF LFLL 071700Z 0718/0824 VRB03KT CAVOK"
    },
    {
      "icao": "LFLS",
      "alert": "OK",
      "vis_m": 9999,
      "fzfg": false,
      "metar_trigger": false,
      "taf_trigger": false,
      "metar": "METAR LFLS 071730Z AUTO 07005KT 9999 FEW022 06/05 Q1004 NOSIG",
      "taf": "TAF LFLS 071400Z 0715/0815 VRB03KT CAVOK"
    },
    {
      "icao": "LFMN",
      "alert": "OK",
      "vis_m": 9999,
      "fzfg": false,
      "metar_trigger": false,
      "taf_trigger": false,
      "metar": "METAR LFMN 071730Z 23004KT 190V270 9999 -RA FEW020 BKN083 12/09 Q1005 NOSIG",
      "taf": "TAF LFMN 071400Z 0715/0821 09010KT 9999 BKN030"
    },
    {
      "icao": "LFOB",
      "alert": "OK",
      "vis_m": 9999,
      "fzfg": false,
      "metar_trigger": false,
      "taf_trigger": false,
      "metar": "METAR LFOB 071730Z AUTO 17009KT CAVOK 10/06 Q1001 NOSIG",
      "taf": "TAF LFOB 071700Z 0718/0818 18010KT 9999 SCT030"
    },
    {
      "icao": "LFPO",
      "alert": "OK",
      "vis_m": 9999,
      "fzfg": false,
      "metar_trigger": false,
      "taf_trigger": false,
      "metar": "METAR LFPO 071730Z 16004KT CAVOK 11/05 Q1002 NOSIG",
      "taf": "TAF LFPO 071700Z 0718/0824 17008KT CAVOK"
    },
    {
      "icao": "LFSB",
      "alert": "OK",
      "vis_m": 9999,
      "fzfg": false,
      "metar_trigger": false,
      "taf_trigger": false,
      "metar": "METAR LFSB 071730Z AUTO VRB02KT CAVOK 06/04 Q1005 NOSIG",
      "taf": "TAF LFSB 071700Z 0718/0818 VRB03KT CAVOK"
    },
    {
      "icao": "LGAV",
      "alert": "OK",
      "vis_m": 9999,
      "fzfg": false,
      "metar_trigger": false,
      "taf_trigger": false,
      "metar": "METAR LGAV 071720Z VRB03KT CAVOK 14/09 Q1008 NOSIG",
      "taf": "TAF LGAV 071700Z 0718/0818 23012KT 9999 FEW020"
    },
    {
      "icao": "LGTS",
      "alert": "OK",
      "vis_m": 9999,
      "fzfg": false,
      "metar_trigger": false,
      "taf_trigger": false,
      "metar": "METAR LGTS 071750Z 11004KT 9999 FEW018 12/09 Q1005 NOSIG",
      "taf": "TAF LGTS 071700Z 0718/0818 33010KT 9999 FEW025"
    },
    {
      "icao": "LHBP",
      "alert": "OK",
      "vis_m": 9999,
      "fzfg": false,
      "metar_trigger": false,
      "taf_trigger": false,
      "metar": "METAR LHBP 071730Z 28005KT CAVOK 06/03 Q1005 NOSIG",
      "taf": "TAF LHBP 071715Z 0718/0818 29005KT CAVOK"
    },
    {
      "icao": "LHDC",
      "alert": "OK",
      "vis_m": 9999,
      "fzfg": false,
      "metar_trigger": false,
      "taf_trigger": false,
      "metar": "METAR LHDC 071715Z AUTO 23002KT 9999 BKN021 07/05 Q1004 NOSIG",
      "taf": "TAF LHDC 071415Z 0715/0724 24008KT 9999 BKN020"
    },
    {
      "icao": "LIBD",
      "alert": "OK",
      "vis_m": 9999,
      "fzfg": false,
      "metar_trigger": false,
      "taf_trigger": false,
      "metar": "METAR LIBD 071750Z 03005KT 9999 -RA VCSH FEW015 SCT045 12/10 Q1006 RERA",
      "taf": "TAF LIBD 071700Z 0718/0818 24006KT 9999 SCT040"
    },
    {
      "icao": "LIBG",
      "alert": "OK",
      "vis_m": 9999,
      "fzfg": false,
      "metar_trigger": false,
      "taf_trigger": false,
      "metar": "METAR LIBG 071650Z 18007KT 160V220 CAVOK 15/10 Q1007",
      "taf": "TAF LIBG 071700Z 0718/0803 20010KT 9999 SCT040"
    },
    {
      "icao": "LIBP",
      "alert": "OK",
      "vis_m": 9999,
      "fzfg": false,
      "metar_trigger": false,
      "taf_trigger": false,
      "metar": "METAR LIBP 071750Z AUTO 22004KT 9999 -RA OVC054/// 11/10 Q1006 RERA",
      "taf": "TAF LIBP 071700Z 0718/0818 VRB05KT 9999 SCT060"
    },
    {
      "icao": "LIBR",
      "alert": "OK",
      "vis_m": 9999,
      "fzfg": false,
      "metar_trigger": false,
      "taf_trigger": false,
      "metar": "METAR LIBR 071750Z 22009KT CAVOK 15/10 Q1007",
      "taf": "TAF LIBR 071700Z 0718/0818 22012KT 9999 SCT040"
    },
    {
      "icao": "LICA",
      "alert": "OK",
      "vis_m": 9999,
      "fzfg": false,
      "metar_trigger": false,
      "taf_trigger": false,
      "metar": "METAR LICA 071750Z AUTO 26016KT 9999 -RA FEW019/// OVC070/// 15/13 Q1010",
      "taf": "TAF LICA 071700Z 0718/0818 27015KT 9999 SCT015"
    },
    {
      "icao": "LICC",
      "alert": "OK",
      "vis_m": 9999,
      "fzfg": false,
      "metar_trigger": false,
      "taf_trigger": false,
      "metar": "METAR LICC 071750Z 27010KT 9999 -RA SCT070 BKN110 14/10 Q1011",
      "taf": "TAF LICC 071700Z 0718/0818 26015KT 9999 SCT050"
    },
    {
      "icao": "LICJ",
      "alert": "OK",
      "vis_m": 9000,
      "fzfg": false,
      "metar_trigger": false,
      "taf_trigger": false,
      "metar": "METAR LICJ 071750Z 26020KT 9000 RA BKN030 14/11 Q1011",
      "taf": "TAF LICJ 071700Z 0718/0818 23018G28KT 9999 BKN030"
    },
    {
      "icao": "LIMC",
      "alert": "OK",
      "vis_m": 9999,
      "fzfg": false,
      "metar_trigger": false,
      "taf_trigger": false,
      "metar": "METAR LIMC 071750Z 09002KT CAVOK 07/06 Q1005 NOSIG",
      "taf": "TAF LIMC 071700Z 0718/0824 VRB04KT 9999 SCT050"
    },
    {
      "icao": "LIME",
      "alert": "OK",
      "vis_m": 9999,
      "fzfg": false,
      "metar_trigger": false,
      "taf_trigger": false,
      "metar": "METAR LIME 071750Z VRB01KT 9999 BKN065 10/08 Q1005 NOSIG",
      "taf": "TAF LIME 071700Z 0718/0818 VRB04KT 9999 SCT050"
    },
    {
      "icao": "LIMF",
      "alert": "OK",
      "vis_m": 9999,
      "fzfg": false,
      "metar_trigger": false,
      "taf_trigger": false,
      "metar": "METAR LIMF 071750Z VRB01KT 9999 SCT060 08/05 Q1005",
      "taf": "TAF LIMF 071700Z 0718/0818 VRB04KT 9999 SCT050"
    },
    {
      "icao": "LIMJ",
      "alert": "OK",
      "vis_m": 9999,
      "fzfg": false,
      "metar_trigger": false,
      "taf_trigger": false,
      "metar": "METAR LIMJ 071750Z 08005KT 9999 -RA SCT016 SCT024 BKN040 12/09 Q1005",
      "taf": "TAF LIMJ 071700Z 0718/0818 04007KT 9999 SCT020"
    },
    {
      "icao": "LIPE",
      "alert": "OK",
      "vis_m": 9999,
      "fzfg": false,
      "metar_trigger": false,
      "taf_trigger": false,
      "metar": "METAR LIPE 071750Z 08004KT CAVOK 10/09 Q1005",
      "taf": "TAF LIPE 071700Z 0718/0818 VRB05KT 7000 SCT060"
    },
    {
      "icao": "LIPH",
      "alert": "OK",
      "vis_m": 6000,
      "fzfg": false,
      "metar_trigger": false,
      "taf_trigger": false,
      "metar": "METAR LIPH 071750Z VRB01KT 6000 FEW050 08/08 Q1005",
      "taf": "TAF LIPH 071700Z 0718/0818 VRB05KT 4000 BR SCT060"
    },
    {
      "icao": "LIPQ",
      "alert": "OK",
      "vis_m": 9999,
      "fzfg": false,
      "metar_trigger": false,
      "taf_trigger": false,
      "metar": "METAR LIPQ 071750Z AUTO 01003KT 9999 OVC065/// 09/08 Q1005",
      "taf": "TAF LIPQ 071700Z 0718/0818 VRB05KT 9999 BKN050"
    },
    {
      "icao": "LIPR",
      "alert": "OK",
      "vis_m": 9999,
      "fzfg": false,
      "metar_trigger": false,
      "taf_trigger": false,
      "metar": "METAR LIPR 071750Z 22005KT 9999 -RA BKN050 10/08 Q1006",
      "taf": "TAF LIPR 071700Z 0718/0818 VRB05KT 7000 SCT050"
    },
    {
      "icao": "LIPX",
      "alert": "OK",
      "vis_m": 7000,
      "fzfg": false,
      "metar_trigger": false,
      "taf_trigger": false,
      "metar": "METAR LIPX 071750Z 11004KT 7000 NSC 10/08 Q1005",
      "taf": "TAF LIPX 071700Z 0718/0818 VRB04KT 6000 NSC"
    },
    {
      "icao": "LIPY",
      "alert": "OK",
      "vis_m": 9999,
      "fzfg": false,
      "metar_trigger": false,
      "taf_trigger": false,
      "metar": "METAR LIPY 071750Z AUTO 14003KT 110V180 9999 OVC055/// 12/08 Q1005",
      "taf": "TAF LIPY 071700Z 0718/0818 VRB05KT 9999 SCT040"
    },
    {
      "icao": "LIPZ",
      "alert": "OK",
      "vis_m": 9999,
      "fzfg": false,
      "metar_trigger": false,
      "taf_trigger": false,
      "metar": "METAR LIPZ 071750Z 01003KT 9999 SCT065 10/08 Q1005 NOSIG",
      "taf": "TAF LIPZ 071700Z 0718/0824 VRB05KT 3000 BR NSC"
    },
    {
      "icao": "LIRF",
      "alert": "OK",
      "vis_m": 9999,
      "fzfg": false,
      "metar_trigger": false,
      "taf_trigger": false,
      "metar": "METAR LIRF 071750Z 07006KT 9999 FEW015 11/10 Q1006 NOSIG",
      "taf": "TAF LIRF 071700Z 0718/0824 24012KT 9999 SCT030"
    },
    {
      "icao": "LIRN",
      "alert": "OK",
      "vis_m": 9999,
      "fzfg": false,
      "metar_trigger": false,
      "taf_trigger": false,
      "metar": "METAR LIRN 071750Z 25005KT 9999 BKN045 13/11 Q1006 NOSIG",
      "taf": "TAF LIRN 071700Z 0718/0818 19010KT 9999 SCT040"
    },
    {
      "icao": "LIRP",
      "alert": "OK",
      "vis_m": 9999,
      "fzfg": false,
      "metar_trigger": false,
      "taf_trigger": false,
      "metar": "METAR LIRP 071745Z 01004KT 9999 -RA BKN020 SCT060 11/10 Q1005 NOSIG",
      "taf": "TAF LIRP 071700Z 0718/0818 28005KT 9999 BKN030"
    },
    {
      "icao": "LIRZ",
      "alert": "OK",
      "vis_m": 9999,
      "fzfg": false,
      "metar_trigger": false,
      "taf_trigger": false,
      "metar": "METAR LIRZ 071750Z AUTO VRB02KT 9999 -RA BKN048/// 09/08 Q1006",
      "taf": "TAF LIRZ 071700Z 0718/0818 VRB05KT 9999 RA BKN030"
    },
    {
      "icao": "LJLJ",
      "alert": "OK",
      "vis_m": 9999,
      "fzfg": false,
      "metar_trigger": false,
      "taf_trigger": false,
      "metar": "METAR LJLJ 071730Z 29007KT 9999 BKN040 06/05 Q1005 NOSIG",
      "taf": "TAF LJLJ 071700Z 0718/0818 VRB02KT 9999 BKN040"
    },
    {
      "icao": "LKMT",
      "alert": "OK",
      "vis_m": 500,
      "fzfg": false,
      "metar_trigger": false,
      "taf_trigger": false,
      "metar": "METAR LKMT 071730Z 15001KT 0500 R22/0900N R04/0800U -DZ FG BKN002 OVC005 03/03 Q1005 NOSIG",
      "taf": "TAF LKMT 071700Z 0718/0818 03003KT 0800 -DZ FG OVC005"
    },
    {
      "icao": "LKPR",
      "alert": "OK",
      "vis_m": 5000,
      "fzfg": false,
      "metar_trigger": false,
      "taf_trigger": false,
      "metar": "METAR LKPR 071730Z 09003KT 310V120 5000 BR OVC018 03/03 Q1005 NOSIG",
      "taf": "TAF LKPR 071700Z 0718/0824 VRB02KT 4000 BR SCT006 OVC017"
    },
    {
      "icao": "LLBG",
      "alert": "OK",
      "vis_m": 9999,
      "fzfg": false,
      "metar_trigger": false,
      "taf_trigger": false,
      "metar": "METAR LLBG 071750Z VRB03KT CAVOK 20/12 Q1014 NOSIG",
      "taf": "TAF LLBG 071701Z 0718/0818 VRB04KT CAVOK"
    },
    {
      "icao": "LMML",
      "alert": "OK",
      "vis_m": 9999,
      "fzfg": false,
      "metar_trigger": false,
      "taf_trigger": false,
      "metar": "METAR LMML 071745Z 30016KT 9999 -RA FEW020 13/11 Q1013 NOSIG",
      "taf": "TAF LMML 071700Z 0718/0818 29015KT 9999 FEW020"
    },
    {
      "icao": "LOWW",
      "alert": "OK",
      "vis_m": 9999,
      "fzfg": false,
      "metar_trigger": false,
      "taf_trigger": false,
      "metar": "METAR LOWW 071750Z 02003KT 9999 FEW026 BKN050 06/04 Q1006 NOSIG",
      "taf": "TAF LOWW 071715Z 0718/0824 VRB03KT 9999 SCT025 TX07/0813Z TN02/0824Z"
    },
    {
      "icao": "LPFR",
      "alert": "OK",
      "vis_m": 8000,
      "fzfg": false,
      "metar_trigger": false,
      "taf_trigger": false,
      "metar": "METAR LPFR 071730Z 25020KT 8000 VCSH FEW012 FEW020CB 15/12 Q1008",
      "taf": "TAF LPFR 071700Z 0718/0818 27015KT 9999 SCT025"
    },
    {
      "icao": "LPMA",
      "alert": "OK",
      "vis_m": 9999,
      "fzfg": false,
      "metar_trigger": false,
      "taf_trigger": false,
      "metar": "METAR LPMA 071730Z 02005KT 330V040 9999 FEW015 20/12 Q1020",
      "taf": "TAF LPMA 071700Z 0718/0818 23010KT 9999 SCT015"
    },
    {
      "icao": "LPPR",
      "alert": "OK",
      "vis_m": 8000,
      "fzfg": false,
      "metar_trigger": false,
      "taf_trigger": false,
      "metar": "METAR LPPR 071730Z 22009KT 200V260 8000 -RADZ SCT004 FEW015TCU BKN030 12/11 Q0991",
      "taf": "TAF LPPR 071700Z 0718/0818 25015KT 8000 -RA SCT012 BKN025"
    },
    {
      "icao": "LPPS",
      "alert": "OK",
      "vis_m": 9999,
      "fzfg": false,
      "metar_trigger": false,
      "taf_trigger": false,
      "metar": "METAR LPPS 071730Z 27017KT 9999 FEW013 18/15 Q1021",
      "taf": "TAF LPPS 071700Z 0718/0824 27018KT 9999 SCT015"
    },
    {
      "icao": "LPPT",
      "alert": "OK",
      "vis_m": 9999,
      "fzfg": false,
      "metar_trigger": false,
      "taf_trigger": false,
      "metar": "METAR LPPT 071730Z 27020G31KT 230V300 9999 FEW020 FEW025TCU 12/09 Q1004 RESHRA WS R20",
      "taf": "TAF LPPT 071700Z 0718/0824 28020KT 9999 SCT025"
    },
    {
      "icao": "LQBK",
      "alert": "OK",
      "vis_m": 9999,
      "fzfg": false,
      "metar_trigger": false,
      "taf_trigger": false,
      "metar": "METAR LQBK 071730Z 14005KT CAVOK 09/07 Q1006 NOSIG",
      "taf": "TAF LQBK 071700Z 0718/0818 VRB02KT 9999 BKN020 TX11/0814Z TN05/0805Z"
    },
    {
      "icao": "LQSA",
      "alert": "OK",
      "vis_m": 9999,
      "fzfg": false,
      "metar_trigger": false,
      "taf_trigger": false,
      "metar": "METAR LQSA 071730Z 11001KT 9999 -RA SCT020 BKN035 06/06 Q1007 NOSIG",
      "taf": "TAF LQSA 071700Z 0718/0818 VRB02KT 9999 SCT015 BKN035 TX10/0813Z TN02/0805Z"
    },
    {
      "icao": "LQTZ",
      "alert": "OK",
      "vis_m": 2500,
      "fzfg": false,
      "metar_trigger": false,
      "taf_trigger": false,
      "metar": "METAR LQTZ 071730Z VRB02KT 2500 BR BKN015 08/08 Q1006",
      "taf": "TAF LQTZ 071700Z 0718/0818 VRB02KT 2000 BR BKN012 SCT030 TX11/0813Z TN03/0805Z"
    },
    {
      "icao": "LRBC",
      "alert": "OK",
      "vis_m": 7000,
      "fzfg": false,
      "metar_trigger": false,
      "taf_trigger": false,
      "metar": "METAR LRBC 071730Z 34003KT 7000 OVC009 01/01 Q1005",
      "taf": "TAF LRBC 071700Z 0718/0803 VRB04KT 5000 BR OVC010"
    },
    {
      "icao": "LRBS",
      "alert": "OK",
      "vis_m": 9000,
      "fzfg": false,
      "metar_trigger": false,
      "taf_trigger": false,
      "metar": "METAR LRBS 071730Z 26008KT 9000 OVC010 06/04 Q1006 NOSIG",
      "taf": "TAF LRBS 071700Z 0718/0818 26007KT 9999 OVC010"
    },
    {
      "icao": "LRBV",
      "alert": "OK",
      "vis_m": 7000,
      "fzfg": false,
      "metar_trigger": false,
      "taf_trigger": false,
      "metar": "METAR LRBV 071730Z 23003KT 7000 FEW025 SCT053 04/03 Q1004",
      "taf": "TAF LRBV 071700Z 0718/0803 VRB04KT 9999 SCT030 BKN060"
    },
    {
      "icao": "LRCL",
      "alert": "OK",
      "vis_m": 9999,
      "fzfg": false,
      "metar_trigger": false,
      "taf_trigger": false,
      "metar": "METAR LRCL 071730Z 00000KT 9999 OVC060 06/04 Q1004",
      "taf": "TAF LRCL 071700Z 0718/0803 VRB04KT 9999 OVC060"
    },
    {
      "icao": "LRCV",
      "alert": "OK",
      "vis_m": 5000,
      "fzfg": false,
      "metar_trigger": false,
      "taf_trigger": false,
      "metar": "METAR LRCV 071730Z 14001KT 5000 BR FEW011 04/04 Q1005",
      "taf": "TAF LRCV 071700Z 0718/0803 VRB04KT 5000 BR SCT010"
    },
    {
      "icao": "LRIA",
      "alert": "OK",
      "vis_m": 9999,
      "fzfg": false,
      "metar_trigger": false,
      "taf_trigger": false,
      "metar": "METAR LRIA 071730Z 29003KT 9999 FEW007 M00/M02 Q1005",
      "taf": "TAF LRIA 071700Z 0718/0803 VRB04KT 9999 SCT005"
    },
    {
      "icao": "LROP",
      "alert": "OK",
      "vis_m": 8000,
      "fzfg": false,
      "metar_trigger": false,
      "taf_trigger": false,
      "metar": "METAR LROP 071730Z 25007KT 8000 OVC011 06/05 Q1005 NOSIG",
      "taf": "TAF LROP 071700Z 0718/0818 26010KT 9999 OVC010"
    },
    {
      "icao": "LRSB",
      "alert": "OK",
      "vis_m": 9000,
      "fzfg": false,
      "metar_trigger": false,
      "taf_trigger": false,
      "metar": "METAR LRSB 071730Z 22004KT 9000 BKN065 05/05 Q1004",
      "taf": "TAF LRSB 071700Z 0718/0818 VRB04KT CAVOK"
    },
    {
      "icao": "LRSM",
      "alert": "OK",
      "vis_m": 9000,
      "fzfg": false,
      "metar_trigger": false,
      "taf_trigger": false,
      "metar": "METAR LRSM 071730Z AUTO 25006KT 9000 FEW014/// OVC027/// ///// Q1004",
      "taf": ""
    },
    {
      "icao": "LRSV",
      "alert": "OK",
      "vis_m": 2000,
      "fzfg": false,
      "metar_trigger": false,
      "taf_trigger": false,
      "metar": "METAR LRSV 071730Z 21003KT 2000 BR FEW011 FEW048 M00/M00 Q1003",
      "taf": "TAF LRSV 071700Z 0718/0803 VRB04KT 1500 BR SCT005 BKN040"
    },
    {
      "icao": "LRTM",
      "alert": "OK",
      "vis_m": 6000,
      "fzfg": false,
      "metar_trigger": false,
      "taf_trigger": false,
      "metar": "METAR LRTM 071730Z AUTO 21001KT 6000 BKN042/// BKN049/// 06/06 Q1004",
      "taf": "TAF LRTM 071700Z 0718/0803 VRB04KT 9999 BKN035"
    },
    {
      "icao": "LRTR",
      "alert": "OK",
      "vis_m": 9999,
      "fzfg": false,
      "metar_trigger": false,
      "taf_trigger": false,
      "metar": "METAR LRTR 071730Z 00000KT 9999 BKN026 08/08 Q1006",
      "taf": "TAF LRTR 071700Z 0718/0818 VRB04KT 9999 SCT025"
    },
    {
      "icao": "LTAC",
      "alert": "OK",
      "vis_m": 9999,
      "fzfg": false,
      "metar_trigger": false,
      "taf_trigger": false,
      "metar": "METAR LTAC 071750Z 21007KT 9999 SCT040 BKN090 06/04 Q1006 NOSIG RMK RWY21C 16003KT 130V190 RWY03L 20006KT RWY21R 15003KT RWY03R 18004KT 130V230 RWY21L 18006KT",
      "taf": "TAF LTAC 071640Z 0718/0818 23009KT 9999 SCT040 SCT100"
    },
    {
      "icao": "LTFM",
      "alert": "OK",
      "vis_m": 8000,
      "fzfg": false,
      "metar_trigger": false,
      "taf_trigger": false,
      "metar": "METAR LTFM 071750Z 08005KT 8000 BKN004 BKN022 08/07 Q1006 NOSIG RMK RWY17L 08006KT RWY34L 07004KT RWY16R 09005KT RWY36 07005KT 010V100 RWY18 10006KT",
      "taf": "TAF LTFM 071640Z 0718/0824 09012KT 6000 BKN008 BKN022"
    },
    {
      "icao": "LUKK",
      "alert": "OK",
      "vis_m": 9999,
      "fzfg": false,
      "metar_trigger": false,
      "taf_trigger": false,
      "metar": "METAR LUKK 071730Z VRB02KT 9999 BKN010 M00/M01 Q1005 NOSIG",
      "taf": "TAF LUKK 071724Z 0718/0818 33005KT 9999 OVC008"
    },
    {
      "icao": "LWOH",
      "alert": "OK",
      "vis_m": 9999,
      "fzfg": false,
      "metar_trigger": false,
      "taf_trigger": false,
      "metar": "METAR LWOH 071750Z 17012KT 150V210 9999 SCT040 10/05 Q1008",
      "taf": "TAF LWOH 071720Z 0718/0818 18008KT 9999 BKN040"
    },
    {
      "icao": "LWSK",
      "alert": "OK",
      "vis_m": 9999,
      "fzfg": false,
      "metar_trigger": false,
      "taf_trigger": false,
      "metar": "METAR LWSK 071750Z 11003KT 080V150 9999 FEW050 08/07 Q1006 NOSIG",
      "taf": "TAF LWSK 071720Z 0718/0818 33010KT 9999 FEW030 SCT080"
    },
    {
      "icao": "LYBE",
      "alert": "OK",
      "vis_m": 6000,
      "fzfg": false,
      "metar_trigger": false,
      "taf_trigger": false,
      "metar": "METAR LYBE 071730Z 23003KT 6000 BKN020 09/07 Q1006 NOSIG",
      "taf": "TAF LYBE 071700Z 0718/0818 23004KT 7000 SCT015 BKN025 TX11/0813Z TN05/0806Z"
    },
    {
      "icao": "LYNI",
      "alert": "OK",
      "vis_m": 2000,
      "fzfg": false,
      "metar_trigger": false,
      "taf_trigger": false,
      "metar": "METAR LYNI 071730Z 00000KT 2000 0600SW R29/1700U R11/1100U BCFG BR SCT013 BKN040 08/08 Q1006 TEMPO 0600 FG",
      "taf": "TAF LYNI 071700Z 0718/0818 32005KT 6000 SCT012 BKN030 TX10/0813Z TN05/0806Z"
    },
    {
      "icao": "LYPG",
      "alert": "OK",
      "vis_m": 8000,
      "fzfg": false,
      "metar_trigger": false,
      "taf_trigger": false,
      "metar": "METAR LYPG 071730Z 32001KT 8000 FEW010 SCT040 BKN080 10/10 Q1007 TEMPO 2000 BR",
      "taf": "TAF LYPG 071700Z 0718/0818 36005KT 9999 FEW010 SCT040 BKN080 TX14/0813Z TN09/0806Z"
    },
    {
      "icao": "LZIB",
      "alert": "OK",
      "vis_m": 9999,
      "fzfg": false,
      "metar_trigger": false,
      "taf_trigger": false,
      "metar": "METAR LZIB 071730Z 27003KT CAVOK 06/03 Q1005 NOSIG",
      "taf": "TAF LZIB 071715Z 0718/0818 28005KT 9999 FEW015 SCT030"
    },
    {
      "icao": "LZKZ",
      "alert": "OK",
      "vis_m": 9999,
      "fzfg": false,
      "metar_trigger": false,
      "taf_trigger": false,
      "metar": "METAR LZKZ 071730Z 09001KT 9999 BKN015 OVC021 05/04 Q1004 NOSIG",
      "taf": "TAF LZKZ 071715Z 0718/0818 02005KT 7000 SCT008 SCT012 OVC020"
    },
    {
      "icao": "LZTT",
      "alert": "OK",
      "vis_m": 9999,
      "fzfg": false,
      "metar_trigger": false,
      "taf_trigger": false,
      "metar": "METAR LZTT 071730Z 28007KT 9999 BKN003 OVC023 03/02 Q1003 NOSIG",
      "taf": "TAF LZTT 071715Z 0718/0818 VRB02KT 7000 FEW005 SCT008 OVC016"
    },
    {
      "icao": "OEJN",
      "alert": "OK",
      "vis_m": 9999,
      "fzfg": false,
      "metar_trigger": false,
      "taf_trigger": false,
      "metar": "METAR OEJN 071700Z 32009KT CAVOK 26/16 Q1015 NOSIG",
      "taf": "TAF OEJN 071700Z 0718/0824 03005KT 7000 NSC"
    },
    {
      "icao": "OEMA",
      "alert": "OK",
      "vis_m": 9999,
      "fzfg": false,
      "metar_trigger": false,
      "taf_trigger": false,
      "metar": "METAR OEMA 071700Z 29003KT CAVOK 24/M01 Q1017 NOSIG",
      "taf": "TAF OEMA 071700Z 0718/0824 VRB03KT CAVOK"
    },
    {
      "icao": "OJAI",
      "alert": "OK",
      "vis_m": 4000,
      "fzfg": false,
      "metar_trigger": false,
      "taf_trigger": false,
      "metar": "METAR OJAI 071700Z 26010KT 4000 HZ NSC 15/07 Q1015 NOSIG",
      "taf": "TAF OJAI 071700Z 0718/0824 25012KT 5000 HZ NSC"
    },
    {
      "icao": "OMAA",
      "alert": "OK",
      "vis_m": 9999,
      "fzfg": false,
      "metar_trigger": false,
      "taf_trigger": false,
      "metar": "METAR OMAA 071730Z 04008KT 350V070 CAVOK 22/17 Q1016 NOSIG",
      "taf": "TAF OMAA 071700Z 0718/0900 02007KT 8000 NSC"
    },
    {
      "icao": "OMDB",
      "alert": "OK",
      "vis_m": 9999,
      "fzfg": false,
      "metar_trigger": false,
      "taf_trigger": false,
      "metar": "METAR OMDB 071730Z 02006KT 350V060 CAVOK 23/17 Q1017 NOSIG",
      "taf": "TAF OMDB 071700Z 0718/0900 34010KT 8000 NSC"
    },
    {
      "icao": "UAAA",
      "alert": "OK",
      "vis_m": 1300,
      "fzfg": false,
      "metar_trigger": false,
      "taf_trigger": false,
      "metar": "METAR UAAA 071730Z 24002MPS 210V280 1300 R05R/P2000N -SHSN BR BKN022CB OVC100 M02/M03 Q1027 NOSIG",
      "taf": "TAF UAAA 071702Z 0718/0818 01003MPS 3100 -SHSN BR BKN011CB OVC100 TX00/0807Z TNM04/0802Z"
    },
    {
      "icao": "UBBB",
      "alert": "OK",
      "vis_m": 9999,
      "fzfg": false,
      "metar_trigger": false,
      "taf_trigger": false,
      "metar": "METAR UBBB 071730Z 20018G28KT CAVOK 08/03 Q1005 NOSIG",
      "taf": "TAF UBBB 071656Z 0718/0818 18016G26KT 9999 SCT030 TX06/0810Z TN03/0801Z"
    },
    {
      "icao": "UDSG",
      "alert": "OK",
      "vis_m": 8000,
      "fzfg": false,
      "metar_trigger": false,
      "taf_trigger": false,
      "metar": "METAR UDSG 071730Z 32004KT 8000 BKN023 M00/M01 Q1009 NOSIG",
      "taf": "TAF UDSG 071658Z 0718/0818 VRB06KT 5000 BR OVC030"
    },
    {
      "icao": "UDYZ",
      "alert": "OK",
      "vis_m": 4200,
      "fzfg": false,
      "metar_trigger": false,
      "taf_trigger": false,
      "metar": "METAR UDYZ 071730Z 31001KT 4200 BR BKN043 04/02 Q1009 NOSIG",
      "taf": "TAF UDYZ 071700Z 0718/0818 VRB04KT 3500 BR BKN040"
    },
    {
      "icao": "UGKO",
      "alert": "OK",
      "vis_m": 9999,
      "fzfg": false,
      "metar_trigger": false,
      "taf_trigger": false,
      "metar": "METAR UGKO 071730Z 09008KT CAVOK 11/02 Q1003 NOSIG",
      "taf": "TAF UGKO 071700Z 0718/0818 25007KT CAVOK TX11/0718Z TN08/0803Z"
    }
  ]
}