{
  "ts_utc": "2025-12-31T21:47:33Z",
  "threshold_m": 150,
  "source": "stations_override.txt (ICAO list) + aviationweather.gov (METAR/TAF raw)",
  "station_count": 159,
  "stations": [
    {
      "icao": "BIKF",
      "alert": "OK",
      "vis_m": 9999,
      "fzfg": false,
      "metar_trigger": false,
      "taf_trigger": false,
      "metar": "METAR BIKF 312130Z 08007KT CAVOK 01/M02 Q1028",
      "taf": "TAF BIKF 311943Z 3121/0121 01008KT CAVOK TX04/0110Z TNM03/0102Z"
    },
    {
      "icao": "BKPR",
      "alert": "OK",
      "vis_m": 9999,
      "fzfg": false,
      "metar_trigger": false,
      "taf_trigger": false,
      "metar": "METAR BKPR 312130Z 28007KT CAVOK M08/M13 Q1018 NOSIG",
      "taf": "TAF BKPR 311730Z 3118/0118 27006KT CAVOK"
    },
    {
      "icao": "EBCI",
      "alert": "OK",
      "vis_m": 2500,
      "fzfg": false,
      "metar_trigger": false,
      "taf_trigger": false,
      "metar": "METAR EBCI 312120Z 24011KT 2500 BR BKN003 01/00 Q1021 NOSIG",
      "taf": "TAF EBCI 311712Z 3118/0124 25008KT 7000 SCT008 SCT015"
    },
    {
      "icao": "EDDB",
      "alert": "OK",
      "vis_m": 9999,
      "fzfg": false,
      "metar_trigger": false,
      "taf_trigger": false,
      "metar": "METAR EDDB 312120Z AUTO 26010KT 9999 FEW010 BKN039 02/01 Q1010 TEMPO BKN007",
      "taf": "TAF EDDB 311700Z 3118/0118 28008KT 9999 SCT009 BKN020"
    },
    {
      "icao": "EDDH",
      "alert": "OK",
      "vis_m": 7000,
      "fzfg": false,
      "metar_trigger": false,
      "taf_trigger": false,
      "metar": "METAR EDDH 312120Z AUTO 27009KT 240V310 7000 SHRA BKN005 FEW///TCU 06/05 Q1010 TEMPO 25015G25KT 2500 RADZ BKN004",
      "taf": "TAF EDDH 311700Z 3118/0124 28009KT 9999 BKN020"
    },
    {
      "icao": "EDDK",
      "alert": "OK",
      "vis_m": 9999,
      "fzfg": false,
      "metar_trigger": false,
      "taf_trigger": false,
      "metar": "METAR EDDK 312120Z AUTO 25008KT 9999 SCT014 SCT019 OVC027 03/01 Q1020 NOSIG",
      "taf": "TAF EDDK 311700Z 3118/0124 25007KT 9999 BKN008"
    },
    {
      "icao": "EDDN",
      "alert": "OK",
      "vis_m": 9999,
      "fzfg": false,
      "metar_trigger": false,
      "taf_trigger": false,
      "metar": "METAR EDDN 312120Z AUTO 27008KT 9999 OVC017 01/M03 Q1019",
      "taf": "TAF EDDN 311700Z 3118/0118 25010KT 9999 OVC015"
    },
    {
      "icao": "EDDS",
      "alert": "OK",
      "vis_m": 9999,
      "fzfg": false,
      "metar_trigger": false,
      "taf_trigger": false,
      "metar": "METAR EDDS 312120Z AUTO 24004KT 190V290 9999 FEW026 M03/M07 Q1020",
      "taf": "TAF EDDS 311700Z 3118/0118 22004KT 9999 BKN030"
    },
    {
      "icao": "EDFH",
      "alert": "OK",
      "vis_m": 2000,
      "fzfg": false,
      "metar_trigger": false,
      "taf_trigger": false,
      "metar": "METAR EDFH 312120Z 26009KT 2000 BR OVC001 M01/M01 Q1019",
      "taf": ""
    },
    {
      "icao": "EDJA",
      "alert": "OK",
      "vis_m": 9999,
      "fzfg": false,
      "metar_trigger": false,
      "taf_trigger": false,
      "metar": "METAR EDJA 312120Z 22006KT CAVOK M06/M09 Q1020",
      "taf": "TAF EDJA 311700Z 3118/0103 22007KT CAVOK"
    },
    {
      "icao": "EDLW",
      "alert": "OK",
      "vis_m": 9999,
      "fzfg": false,
      "metar_trigger": false,
      "taf_trigger": false,
      "metar": "METAR EDLW 312120Z AUTO 23011KT 9999 // FEW010/// SCT012/// OVC021/// 02/01 Q1017",
      "taf": "TAF EDLW 311700Z 3118/0118 23010KT 4000 -DZ OVC007"
    },
    {
      "icao": "EDNY",
      "alert": "OK",
      "vis_m": 9999,
      "fzfg": false,
      "metar_trigger": false,
      "taf_trigger": false,
      "metar": "METAR EDNY 312120Z AUTO 00000KT 9999 // NCD M08/M08 Q1022",
      "taf": "TAF EDNY 311700Z 3118/0103 VRB02KT CAVOK"
    },
    {
      "icao": "EDSB",
      "alert": "OK",
      "vis_m": 9999,
      "fzfg": false,
      "metar_trigger": false,
      "taf_trigger": false,
      "metar": "METAR EDSB 312120Z 21005KT 9999 FEW041 M03/M07 Q1024",
      "taf": "TAF EDSB 311700Z 3118/0118 20005KT 9999 BKN030"
    },
    {
      "icao": "EETN",
      "alert": "OK",
      "vis_m": 9999,
      "fzfg": false,
      "metar_trigger": false,
      "taf_trigger": false,
      "metar": "METAR EETN 312120Z 36003KT 9999 SCT039 M06/M13 Q1003 NOSIG",
      "taf": "TAF EETN 311730Z 3118/0118 35005KT 9999 SCT012"
    },
    {
      "icao": "EFTU",
      "alert": "OK",
      "vis_m": 9999,
      "fzfg": false,
      "metar_trigger": false,
      "taf_trigger": false,
      "metar": "METAR EFTU 312120Z AUTO 10003KT 9999 -SHSN OVC001 M16/M17 Q1003",
      "taf": "TAF EFTU 312027Z 3121/0121 VRB01KT 9999 SCT001"
    },
    {
      "icao": "EGBB",
      "alert": "OK",
      "vis_m": 9999,
      "fzfg": false,
      "metar_trigger": false,
      "taf_trigger": false,
      "metar": "METAR EGBB 312120Z 26008KT 9999 BKN025 02/M01 Q1020",
      "taf": "TAF EGBB 311659Z 3118/0118 27006KT 9999 FEW030"
    },
    {
      "icao": "EGGP",
      "alert": "OK",
      "vis_m": 9999,
      "fzfg": false,
      "metar_trigger": false,
      "taf_trigger": false,
      "metar": "METAR EGGP 312120Z 27018KT 9999 OVC027 04/M01 Q1020",
      "taf": ""
    },
    {
      "icao": "EGGW",
      "alert": "OK",
      "vis_m": 9999,
      "fzfg": false,
      "metar_trigger": false,
      "taf_trigger": false,
      "metar": "METAR EGGW 312120Z AUTO 24010KT 9999 NCD 00/M02 Q1020",
      "taf": "TAF EGGW 311658Z 3118/0118 26006KT 9999 FEW025"
    },
    {
      "icao": "EGKK",
      "alert": "OK",
      "vis_m": 9999,
      "fzfg": false,
      "metar_trigger": false,
      "taf_trigger": false,
      "metar": "METAR EGKK 312120Z 23006KT CAVOK M01/M02 Q1023",
      "taf": ""
    },
    {
      "icao": "EGNM",
      "alert": "OK",
      "vis_m": 9999,
      "fzfg": false,
      "metar_trigger": false,
      "taf_trigger": false,
      "metar": "METAR EGNM 312120Z 26018KT 9999 FEW018 04/01 Q1016",
      "taf": "TAF EGNM 311700Z 3118/0118 28018KT 9999 SCT030"
    },
    {
      "icao": "EGPD",
      "alert": "OK",
      "vis_m": 9999,
      "fzfg": false,
      "metar_trigger": false,
      "taf_trigger": false,
      "metar": "METAR EGPD 312120Z AUTO 28017KT 9999 -RA FEW028 SCT049 06/02 Q1007 TEMPO 4000 RA",
      "taf": "TAF EGPD 311702Z 3118/0118 27015G28KT 9999 SCT030"
    },
    {
      "icao": "EGPF",
      "alert": "OK",
      "vis_m": 9999,
      "fzfg": false,
      "metar_trigger": false,
      "taf_trigger": false,
      "metar": "METAR EGPF 312120Z AUTO 24015KT 9999 OVC021/// //////TCU 07/04 Q1014",
      "taf": ""
    },
    {
      "icao": "EHBK",
      "alert": "OK",
      "vis_m": 9999,
      "fzfg": false,
      "metar_trigger": false,
      "taf_trigger": false,
      "metar": "METAR EHBK 312125Z AUTO 23011KT 9999 FEW021 OVC026 02/00 Q1020 NOSIG",
      "taf": "TAF EHBK 311715Z 3118/0124 24007KT 9999 BKN020"
    },
    {
      "icao": "EHEH",
      "alert": "OK",
      "vis_m": 9999,
      "fzfg": false,
      "metar_trigger": false,
      "taf_trigger": false,
      "metar": "METAR EHEH 312125Z AUTO 22008KT 190V250 9999 BKN024 OVC027 02/01 Q1019 WHT",
      "taf": "TAF EHEH 311732Z 3118/0124 26008KT 9999 BKN025"
    },
    {
      "icao": "EKBI",
      "alert": "OK",
      "vis_m": 9999,
      "fzfg": false,
      "metar_trigger": false,
      "taf_trigger": false,
      "metar": "METAR EKBI 312120Z AUTO 25012KT 190V270 9999 RA OVC006/// 05/05 Q1004",
      "taf": "TAF EKBI 312027Z 3121/0121 25005KT 9999 BKN015"
    },
    {
      "icao": "EKCH",
      "alert": "OK",
      "vis_m": 100,
      "fzfg": false,
      "metar_trigger": false,
      "taf_trigger": false,
      "metar": "METAR EKCH 312120Z 21006KT 0100 R22L/0900D R04L/1400U R12/0800N FG VV001 02/01 Q1005 TEMPO 0500 BKN005",
      "taf": ""
    },
    {
      "icao": "ENAL",
      "alert": "OK",
      "vis_m": 9999,
      "fzfg": false,
      "metar_trigger": false,
      "taf_trigger": false,
      "metar": "METAR ENAL 312120Z AUTO 29011KT 260V320 9999 -RA FEW012/// BKN020/// BKN037/// 03/02 Q0986",
      "taf": "TAF ENAL 312000Z 3121/0106 26012KT 9999 -RA FEW005 SCT010 BKN018"
    },
    {
      "icao": "ENBR",
      "alert": "OK",
      "vis_m": 9999,
      "fzfg": false,
      "metar_trigger": false,
      "taf_trigger": false,
      "metar": "METAR ENBR 312120Z 31010KT 9999 VCSH SCT013CB BKN024 05/03 Q0990 RMK WIND 1200FT 31017KT",
      "taf": "TAF ENBR 311700Z 3118/0118 24012KT 9999 -SHRA SCT005 BKN015TCU"
    },
    {
      "icao": "ENGM",
      "alert": "OK",
      "vis_m": 9999,
      "fzfg": false,
      "metar_trigger": false,
      "taf_trigger": false,
      "metar": "METAR ENGM 312120Z 16008KT 9999 -SN OVC007 M03/M04 Q0993 NOSIG",
      "taf": "TAF ENGM 311700Z 3118/0118 15008KT 9999 BKN030"
    },
    {
      "icao": "ENHD",
      "alert": "OK",
      "vis_m": 9999,
      "fzfg": false,
      "metar_trigger": false,
      "taf_trigger": false,
      "metar": "METAR ENHD 312120Z AUTO 28024G37KT 9999 -RA SCT015/// BKN024/// BKN032/// 06/04 Q0992",
      "taf": "TAF ENHD 311100Z 3112/3118 VRB05KT 9999 -SHRA FEW015 BKN030"
    },
    {
      "icao": "ENTC",
      "alert": "OK",
      "vis_m": 9999,
      "fzfg": false,
      "metar_trigger": false,
      "taf_trigger": false,
      "metar": "METAR ENTC 312120Z 19004KT 130V250 9999 FEW012 M11/M12 Q1002 NOSIG RMK WIND 2600FT 07004KT",
      "taf": "TAF ENTC 311700Z 3118/0118 20006KT 9999 FEW010"
    },
    {
      "icao": "ENTO",
      "alert": "OK",
      "vis_m": 9999,
      "fzfg": false,
      "metar_trigger": false,
      "taf_trigger": false,
      "metar": "METAR ENTO 312120Z AUTO 19008KT 9999 NCD 01/M02 Q0994",
      "taf": "TAF ENTO 311700Z 3118/0118 19008KT 9999 BKN030"
    },
    {
      "icao": "ENVA",
      "alert": "OK",
      "vis_m": 9999,
      "fzfg": false,
      "metar_trigger": false,
      "taf_trigger": false,
      "metar": "METAR ENVA 312120Z 10008KT 9999 FEW025 02/M03 Q0987 RMK WIND 670FT 15014KT",
      "taf": "TAF ENVA 311700Z 3118/0118 13007KT 9999 -SNRA FEW020 BKN035"
    },
    {
      "icao": "ENZV",
      "alert": "OK",
      "vis_m": 9000,
      "fzfg": false,
      "metar_trigger": false,
      "taf_trigger": false,
      "metar": "METAR ENZV 312120Z 26020KT 9000 -SHRA OVC034 08/04 Q0994",
      "taf": ""
    },
    {
      "icao": "EPGD",
      "alert": "OK",
      "vis_m": 5000,
      "fzfg": false,
      "metar_trigger": false,
      "taf_trigger": false,
      "metar": "METAR EPGD 312130Z 22003KT 5000 BR BKN009 M05/M05 Q1006",
      "taf": ""
    },
    {
      "icao": "EPKK",
      "alert": "OK",
      "vis_m": 9999,
      "fzfg": false,
      "metar_trigger": false,
      "taf_trigger": false,
      "metar": "METAR EPKK 312130Z 22004KT 9999 BKN019 M04/M05 Q1009",
      "taf": "TAF EPKK 312030Z 3121/0121 24008KT 9999 BKN020"
    },
    {
      "icao": "EPKT",
      "alert": "OK",
      "vis_m": 9999,
      "fzfg": false,
      "metar_trigger": false,
      "taf_trigger": false,
      "metar": "METAR EPKT 312130Z 24009KT 9999 OVC007 M03/M04 Q1009",
      "taf": "TAF EPKT 311730Z 3118/0118 24007KT 9999 BKN030"
    },
    {
      "icao": "EPLB",
      "alert": "OK",
      "vis_m": 3500,
      "fzfg": false,
      "metar_trigger": false,
      "taf_trigger": false,
      "metar": "METAR EPLB 312130Z 31004KT 280V340 3500 -SN BR BKN008 OVC012 M04/M04 Q1008",
      "taf": "TAF EPLB 311730Z 3118/0118 VRB02KT 9999 SCT022"
    },
    {
      "icao": "EPMO",
      "alert": "OK",
      "vis_m": 5000,
      "fzfg": false,
      "metar_trigger": false,
      "taf_trigger": false,
      "metar": "METAR EPMO 312130Z VRB02KT 5000 BR BKN011 OVC024 M04/M04 Q1008",
      "taf": "TAF EPMO 311730Z 3118/0118 VRB02KT 2000 SHSN BKN007 BKN015CB"
    },
    {
      "icao": "EPPO",
      "alert": "OK",
      "vis_m": 9999,
      "fzfg": false,
      "metar_trigger": false,
      "taf_trigger": false,
      "metar": "METAR EPPO 312130Z 27005KT 9999 BKN004 BKN017 M01/M02 Q1009",
      "taf": ""
    },
    {
      "icao": "EPRA",
      "alert": "OK",
      "vis_m": 9999,
      "fzfg": false,
      "metar_trigger": false,
      "taf_trigger": false,
      "metar": "METAR EPRA 312130Z 28006KT 9999 BKN016 M03/M05 Q1008",
      "taf": "TAF EPRA 312030Z 3121/0106 25010KT 9999 BKN020"
    },
    {
      "icao": "EPRZ",
      "alert": "OK",
      "vis_m": 7000,
      "fzfg": false,
      "metar_trigger": false,
      "taf_trigger": false,
      "metar": "METAR EPRZ 312130Z 21004KT 7000 -SHSN SCT028CB SCT043 M05/M06 Q1010",
      "taf": "TAF EPRZ 311730Z 3118/0118 27010KT 9999 BKN020"
    },
    {
      "icao": "EPSC",
      "alert": "OK",
      "vis_m": 500,
      "fzfg": true,
      "metar_trigger": false,
      "taf_trigger": false,
      "metar": "METAR EPSC 312130Z 17003KT 0500 R31/1400N FZFG NSC M03/M03 Q1008",
      "taf": ""
    },
    {
      "icao": "EPSY",
      "alert": "OK",
      "vis_m": 8000,
      "fzfg": false,
      "metar_trigger": false,
      "taf_trigger": false,
      "metar": "METAR EPSY 312130Z VRB02KT 8000 BKN030 M14/M15 Q1008",
      "taf": "TAF EPSY 312030Z 3121/0106 VRB02KT 6000 SCT030"
    },
    {
      "icao": "EPWA",
      "alert": "OK",
      "vis_m": 8000,
      "fzfg": false,
      "metar_trigger": false,
      "taf_trigger": false,
      "metar": "METAR EPWA 312130Z 25001KT 8000 BKN019 M03/M04 Q1008 NOSIG",
      "taf": "TAF EPWA 312030Z 3121/0121 VRB02KT 7000 BKN018"
    },
    {
      "icao": "EPWR",
      "alert": "OK",
      "vis_m": 9999,
      "fzfg": false,
      "metar_trigger": false,
      "taf_trigger": false,
      "metar": "METAR EPWR 312130Z 30008KT 9999 -SN FEW006 SCT013 BKN030 01/00 Q1010",
      "taf": "TAF EPWR 312030Z 3121/0121 30012KT 9999 -SN FEW003 BKN006"
    },
    {
      "icao": "ESGG",
      "alert": "OK",
      "vis_m": 9999,
      "fzfg": false,
      "metar_trigger": false,
      "taf_trigger": false,
      "metar": "METAR ESGG 312120Z 16010KT 9999 SCT014 OVC019 M01/M03 Q0999",
      "taf": "TAF ESGG 312030Z 3121/0121 18010KT CAVOK"
    },
    {
      "icao": "ESKN",
      "alert": "OK",
      "vis_m": 9999,
      "fzfg": false,
      "metar_trigger": false,
      "taf_trigger": false,
      "metar": "METAR ESKN 312120Z VRB01KT 9999 OVC003 M06/M07 Q1003",
      "taf": "TAF ESKN 312030Z 3121/0121 VRB03KT 2000 BR OVC003"
    },
    {
      "icao": "ESMS",
      "alert": "OK",
      "vis_m": 9999,
      "fzfg": false,
      "metar_trigger": false,
      "taf_trigger": false,
      "metar": "METAR ESMS 312120Z 18005KT CAVOK M04/M04 Q1005",
      "taf": "TAF ESMS 312027Z 3121/0121 VRB02KT 9999 BKN020"
    },
    {
      "icao": "ESSA",
      "alert": "OK",
      "vis_m": 2100,
      "fzfg": false,
      "metar_trigger": false,
      "taf_trigger": false,
      "metar": "METAR ESSA 312120Z 16005KT 2100 BR BKN002 M08/M09 Q1002 NOSIG",
      "taf": "TAF ESSA 312030Z 3121/0121 17007KT 9999 BKN004"
    },
    {
      "icao": "EYKA",
      "alert": "OK",
      "vis_m": 9999,
      "fzfg": false,
      "metar_trigger": false,
      "taf_trigger": false,
      "metar": "METAR EYKA 312120Z 28002KT CAVOK M12/M14 Q1008",
      "taf": "TAF EYKA 311700Z 3118/0118 VRB03KT 9000 NSC"
    },
    {
      "icao": "EYPA",
      "alert": "OK",
      "vis_m": 9999,
      "fzfg": false,
      "metar_trigger": false,
      "taf_trigger": false,
      "metar": "METAR EYPA 312120Z AUTO 16006KT 9999 BKN079/// M09/M15 Q1007",
      "taf": "TAF EYPA 311700Z 3118/0118 VRB02KT 9000 NSC"
    },
    {
      "icao": "EYVI",
      "alert": "OK",
      "vis_m": 9999,
      "fzfg": false,
      "metar_trigger": false,
      "taf_trigger": false,
      "metar": "METAR EYVI 312120Z VRB02KT CAVOK M13/M16 Q1006 NOSIG",
      "taf": "TAF EYVI 311700Z 3118/0118 VRB03KT 9000 NSC"
    },
    {
      "icao": "GCFV",
      "alert": "OK",
      "vis_m": 9999,
      "fzfg": false,
      "metar_trigger": false,
      "taf_trigger": false,
      "metar": "METAR GCFV 312130Z 26004KT 9999 FEW015 15/13 Q1017",
      "taf": "TAF GCFV 312000Z 3121/0121 18003KT 9999 FEW010 TX21/0114Z TN15/0106Z"
    },
    {
      "icao": "GCLP",
      "alert": "OK",
      "vis_m": 9999,
      "fzfg": false,
      "metar_trigger": false,
      "taf_trigger": false,
      "metar": "METAR GCLP 312130Z VRB02KT CAVOK 17/13 Q1016 NOSIG",
      "taf": "TAF GCLP 312000Z 3121/0121 19012KT 9999 FEW020 TX21/0114Z TN16/0106Z"
    },
    {
      "icao": "GCTS",
      "alert": "OK",
      "vis_m": 9999,
      "fzfg": false,
      "metar_trigger": false,
      "taf_trigger": false,
      "metar": "METAR GCTS 312130Z 29008KT 9999 SCT025 18/12 Q1016 NOSIG",
      "taf": "TAF GCTS 312000Z 3121/0121 28010KT 9999 FEW020 TX22/0114Z TN16/0106Z"
    },
    {
      "icao": "GMAD",
      "alert": "OK",
      "vis_m": 9999,
      "fzfg": false,
      "metar_trigger": false,
      "taf_trigger": false,
      "metar": "METAR GMAD 312130Z 13003KT CAVOK 13/13 Q1018 NOSIG",
      "taf": "TAF GMAD 311700Z 3118/0124 25003KT 9999 FEW040 SCT200"
    },
    {
      "icao": "GMMN",
      "alert": "OK",
      "vis_m": 9999,
      "fzfg": false,
      "metar_trigger": false,
      "taf_trigger": false,
      "metar": "METAR GMMN 312130Z 22007KT 9999 BKN026 15/14 Q1019 NOSIG",
      "taf": "TAF GMMN 311700Z 3118/0124 22010KT 6000 DZ SCT004 BKN016"
    },
    {
      "icao": "GMMX",
      "alert": "OK",
      "vis_m": 9999,
      "fzfg": false,
      "metar_trigger": false,
      "taf_trigger": false,
      "metar": "METAR GMMX 312130Z 24003KT 210V320 9999 SCT026 14/13 Q1019 NOSIG",
      "taf": "TAF GMMX 311700Z 3118/0124 28008KT 8000 SCT026"
    },
    {
      "icao": "HEGN",
      "alert": "OK",
      "vis_m": 9999,
      "fzfg": false,
      "metar_trigger": false,
      "taf_trigger": false,
      "metar": "METAR HEGN 312100Z 00000KT CAVOK 14/05 Q1015 NOSIG",
      "taf": "TAF HEGN 311700Z 3118/0124 11010KT CAVOK"
    },
    {
      "icao": "HEMA",
      "alert": "OK",
      "vis_m": 9999,
      "fzfg": false,
      "metar_trigger": false,
      "taf_trigger": false,
      "metar": "METAR HEMA 312100Z 24007KT CAVOK 17/11 Q1015 NOSIG",
      "taf": "TAF HEMA 311700Z 3118/0124 13010KT CAVOK"
    },
    {
      "icao": "HESH",
      "alert": "OK",
      "vis_m": 9999,
      "fzfg": false,
      "metar_trigger": false,
      "taf_trigger": false,
      "metar": "METAR HESH 312100Z 23003KT CAVOK 18/08 Q1015 NOSIG",
      "taf": "TAF HESH 311700Z 3118/0124 21010KT 9999 SCT025"
    },
    {
      "icao": "HESX",
      "alert": "OK",
      "vis_m": 9999,
      "fzfg": false,
      "metar_trigger": false,
      "taf_trigger": false,
      "metar": "METAR HESX 312100Z 21009KT CAVOK 13/01 Q1013 NOSIG",
      "taf": "TAF HESX 311700Z 3118/0124 23010KT 9999 SCT025"
    },
    {
      "icao": "LATI",
      "alert": "OK",
      "vis_m": 9999,
      "fzfg": false,
      "metar_trigger": false,
      "taf_trigger": false,
      "metar": "METAR LATI 312120Z VRB03KT CAVOK M01/M12 Q1019 NOSIG",
      "taf": "TAF LATI 311700Z 3118/0118 32010KT CAVOK TX07/0112Z TNM06/0105Z"
    },
    {
      "icao": "LBPD",
      "alert": "OK",
      "vis_m": 9999,
      "fzfg": false,
      "metar_trigger": false,
      "taf_trigger": false,
      "metar": "METAR LBPD 312130Z AUTO 28013KT 9999 OVC093/// M02/M12 Q1016",
      "taf": "TAF LBPD 311700Z 3118/0118 28016KT 9999 SCT030"
    },
    {
      "icao": "LBSF",
      "alert": "OK",
      "vis_m": 9999,
      "fzfg": false,
      "metar_trigger": false,
      "taf_trigger": false,
      "metar": "METAR LBSF 312130Z AUTO 28010KT 9999 FEW069/// M06/M12 Q1015 NOSIG",
      "taf": "TAF LBSF 311700Z 3118/0118 28014KT 9999 SCT030"
    },
    {
      "icao": "LBWN",
      "alert": "OK",
      "vis_m": 9999,
      "fzfg": false,
      "metar_trigger": false,
      "taf_trigger": false,
      "metar": "METAR LBWN 312130Z AUTO 28007KT 9999 NSC M03/M08 Q1014 NOSIG",
      "taf": "TAF LBWN 311700Z 3118/0118 27010KT 9999 SCT045"
    },
    {
      "icao": "LCLK",
      "alert": "OK",
      "vis_m": 9999,
      "fzfg": false,
      "metar_trigger": false,
      "taf_trigger": false,
      "metar": "METAR LCLK 312130Z 23011KT 9999 FEW025 14/10 Q1006 NOSIG",
      "taf": "TAF LCLK 311730Z 3118/0118 25011KT 9999 FEW020 SCT040"
    },
    {
      "icao": "LCPH",
      "alert": "OK",
      "vis_m": 9999,
      "fzfg": false,
      "metar_trigger": false,
      "taf_trigger": false,
      "metar": "METAR LCPH 312130Z 28017KT 250V320 9999 FEW020 FEW025TCU FEW030CB SCT040 17/11 Q1007 RERA NOSIG",
      "taf": "TAF LCPH 311730Z 3118/0118 26020KT 9999 SCT020 BKN040"
    },
    {
      "icao": "LEAL",
      "alert": "OK",
      "vis_m": 9999,
      "fzfg": false,
      "metar_trigger": false,
      "taf_trigger": false,
      "metar": "METAR LEAL 312130Z 01005KT 350V050 9999 FEW025 BKN040 12/08 Q1021 NOSIG",
      "taf": "TAF LEAL 311700Z 3118/0118 VRB04KT 9999 BKN035 TX15/0114Z TN07/0106Z"
    },
    {
      "icao": "LEBB",
      "alert": "OK",
      "vis_m": 9999,
      "fzfg": false,
      "metar_trigger": false,
      "taf_trigger": false,
      "metar": "METAR LEBB 312130Z 07003KT 010V120 9999 BKN033 07/04 Q1020 NOSIG",
      "taf": "TAF LEBB 311700Z 3118/0118 12006KT 9999 FEW030 TX13/0114Z TNM00/0100Z"
    },
    {
      "icao": "LEBL",
      "alert": "OK",
      "vis_m": 9999,
      "fzfg": false,
      "metar_trigger": false,
      "taf_trigger": false,
      "metar": "METAR LEBL 312130Z 33010KT 9999 BKN025 BKN047 08/04 Q1021 NOSIG",
      "taf": "TAF LEBL 311700Z 3118/0118 34008KT 9999 FEW020 TX13/0112Z TN04/0106Z"
    },
    {
      "icao": "LECH",
      "alert": "OK",
      "vis_m": 9000,
      "fzfg": false,
      "metar_trigger": false,
      "taf_trigger": false,
      "metar": "METAR LECH 312130Z AUTO 04002KT 9000 BKN030 OVC043 07/05 Q1021",
      "taf": ""
    },
    {
      "icao": "LEMD",
      "alert": "OK",
      "vis_m": 9999,
      "fzfg": false,
      "metar_trigger": false,
      "taf_trigger": false,
      "metar": "METAR LEMD 312130Z 35003KT CAVOK 01/M00 Q1019 NOSIG",
      "taf": "TAF LEMD 311700Z 3118/0124 VRB03KT CAVOK TX06/0115Z TNM03/0108Z"
    },
    {
      "icao": "LEMG",
      "alert": "OK",
      "vis_m": 9999,
      "fzfg": false,
      "metar_trigger": false,
      "taf_trigger": false,
      "metar": "METAR LEMG 312130Z 08004KT 050V110 9999 SCT020 BKN030 13/10 Q1019 NOSIG",
      "taf": "TAF LEMG 311700Z 3118/0118 12005KT 9999 BKN020 TX17/0114Z TN13/0107Z"
    },
    {
      "icao": "LEVC",
      "alert": "OK",
      "vis_m": 9999,
      "fzfg": false,
      "metar_trigger": false,
      "taf_trigger": false,
      "metar": "METAR LEVC 312130Z 32005KT 9999 SCT025 06/05 Q1021 NOSIG",
      "taf": "TAF LEVC 311700Z 3118/0118 VRB04KT 9999 BKN025 TX15/0114Z TN05/0106Z"
    },
    {
      "icao": "LEXJ",
      "alert": "OK",
      "vis_m": 8000,
      "fzfg": false,
      "metar_trigger": false,
      "taf_trigger": false,
      "metar": "METAR LEXJ 312130Z 19003KT 8000 OVC028 07/04 Q1020",
      "taf": "TAF LEXJ 312000Z 3121/0121 22006KT 9999 FEW030 TX11/0114Z TN01/0104Z"
    },
    {
      "icao": "LEZG",
      "alert": "OK",
      "vis_m": 9999,
      "fzfg": false,
      "metar_trigger": false,
      "taf_trigger": false,
      "metar": "METAR LEZG 312130Z 11005KT CAVOK 03/02 Q1021 NOSIG",
      "taf": "TAF LEZG 311700Z 3118/0118 VRB03KT CAVOK TX09/0114Z TNM00/0106Z"
    },
    {
      "icao": "LEZL",
      "alert": "OK",
      "vis_m": 9999,
      "fzfg": false,
      "metar_trigger": false,
      "taf_trigger": false,
      "metar": "METAR LEZL 312130Z 04004KT CAVOK 10/09 Q1018 NOSIG",
      "taf": "TAF LEZL 312000Z 3121/0121 02004KT CAVOK TX16/0114Z TN09/0107Z"
    },
    {
      "icao": "LFBD",
      "alert": "OK",
      "vis_m": 400,
      "fzfg": true,
      "metar_trigger": false,
      "taf_trigger": false,
      "metar": "METAR LFBD 312130Z AUTO VRB03KT 0400 0350 R23/0400N R05/0550N R29/0375N FZFG VV/// M03/M04 Q1022 NOSIG",
      "taf": ""
    },
    {
      "icao": "LFLL",
      "alert": "OK",
      "vis_m": 9999,
      "fzfg": false,
      "metar_trigger": false,
      "taf_trigger": false,
      "metar": "METAR LFLL 312130Z 14006KT CAVOK M03/M05 Q1023 NOSIG",
      "taf": "TAF LFLL 311700Z 3118/0124 VRB02KT CAVOK"
    },
    {
      "icao": "LFLS",
      "alert": "OK",
      "vis_m": 9999,
      "fzfg": false,
      "metar_trigger": false,
      "taf_trigger": false,
      "metar": "METAR LFLS 312130Z AUTO 13003KT 080V160 CAVOK M07/M08 Q1022",
      "taf": "TAF LFLS 311400Z 3115/0115 VRB02KT CAVOK"
    },
    {
      "icao": "LFMN",
      "alert": "OK",
      "vis_m": 9999,
      "fzfg": false,
      "metar_trigger": false,
      "taf_trigger": false,
      "metar": "METAR LFMN 312130Z 34008KT 9999 SCT050 07/01 Q1020 NOSIG",
      "taf": "TAF LFMN 312000Z 3121/0203 33010KT 9999 BKN050"
    },
    {
      "icao": "LFOB",
      "alert": "OK",
      "vis_m": 6000,
      "fzfg": false,
      "metar_trigger": false,
      "taf_trigger": false,
      "metar": "METAR LFOB 312130Z AUTO VRB02KT 6000 OVC026 M00/M00 Q1024 TEMPO 0800 FG VV///",
      "taf": "TAF LFOB 311700Z 3118/0118 VRB03KT 9999 BKN035"
    },
    {
      "icao": "LFPO",
      "alert": "OK",
      "vis_m": 6000,
      "fzfg": false,
      "metar_trigger": false,
      "taf_trigger": false,
      "metar": "METAR LFPO 312130Z AUTO 24004KT 6000 NSC M02/M02 Q1024 BECMG 4000 BR",
      "taf": ""
    },
    {
      "icao": "LFSB",
      "alert": "OK",
      "vis_m": 8000,
      "fzfg": false,
      "metar_trigger": false,
      "taf_trigger": false,
      "metar": "METAR LFSB 312130Z AUTO 17003KT 8000 NSC M06/M07 Q1023 NOSIG",
      "taf": "TAF LFSB 311700Z 3118/0118 VRB03KT CAVOK"
    },
    {
      "icao": "LGAV",
      "alert": "OK",
      "vis_m": 9999,
      "fzfg": false,
      "metar_trigger": false,
      "taf_trigger": false,
      "metar": "METAR LGAV 312120Z 01010KT 9999 BKN025 BKN070 05/01 Q1015 NOSIG",
      "taf": "TAF LGAV 311700Z 3118/0118 02015KT 9999 BKN025 BKN070"
    },
    {
      "icao": "LGTS",
      "alert": "OK",
      "vis_m": 9999,
      "fzfg": false,
      "metar_trigger": false,
      "taf_trigger": false,
      "metar": "METAR LGTS 312120Z 31024G34KT 9999 FEW025 02/M09 Q1018 NOSIG",
      "taf": ""
    },
    {
      "icao": "LHBP",
      "alert": "OK",
      "vis_m": 4400,
      "fzfg": false,
      "metar_trigger": false,
      "taf_trigger": false,
      "metar": "METAR LHBP 312130Z 23010KT 4400 -SN BKN007 OVC014 M02/M03 Q1014 TEMPO 2500 SN",
      "taf": "TAF LHBP 311715Z 3118/0118 30010KT CAVOK"
    },
    {
      "icao": "LHDC",
      "alert": "OK",
      "vis_m": 9999,
      "fzfg": false,
      "metar_trigger": false,
      "taf_trigger": false,
      "metar": "METAR LHDC 312115Z AUTO 18008KT CAVOK M05/M08 Q1015",
      "taf": "TAF LHDC 311415Z 3115/3124 27005KT CAVOK"
    },
    {
      "icao": "LIBD",
      "alert": "OK",
      "vis_m": 9999,
      "fzfg": false,
      "metar_trigger": false,
      "taf_trigger": false,
      "metar": "METAR LIBD 312120Z 24008KT 9999 FEW040 00/M04 Q1020",
      "taf": "TAF LIBD 311700Z 3118/0118 36015KT 9999 FEW050"
    },
    {
      "icao": "LIBG",
      "alert": "OK",
      "vis_m": null,
      "fzfg": false,
      "metar_trigger": false,
      "taf_trigger": false,
      "metar": "",
      "taf": "TAF LIBG 311700Z 3118/0103 35007KT CAVOK"
    },
    {
      "icao": "LIBP",
      "alert": "OK",
      "vis_m": 9999,
      "fzfg": false,
      "metar_trigger": false,
      "taf_trigger": false,
      "metar": "METAR LIBP 312120Z AUTO 25005KT 9999 NCD M00/M03 Q1021",
      "taf": "TAF LIBP 311700Z 3118/0118 VRB05KT 9999 SCT045"
    },
    {
      "icao": "LIBR",
      "alert": "OK",
      "vis_m": 9000,
      "fzfg": false,
      "metar_trigger": false,
      "taf_trigger": false,
      "metar": "METAR LIBR 312120Z 01015KT 9000 NSC 07/M05 Q1019",
      "taf": "TAF LIBR 311700Z 3118/0118 35016KT 9999 FEW030"
    },
    {
      "icao": "LICA",
      "alert": "OK",
      "vis_m": 9999,
      "fzfg": false,
      "metar_trigger": false,
      "taf_trigger": false,
      "metar": "METAR LICA 312120Z AUTO 02015KT 9999 NCD 07/M09 Q1019",
      "taf": "TAF LICA 311700Z 3118/0118 09012KT CAVOK"
    },
    {
      "icao": "LICC",
      "alert": "OK",
      "vis_m": 8000,
      "fzfg": false,
      "metar_trigger": false,
      "taf_trigger": false,
      "metar": "METAR LICC 312120Z 06007KT 8000 -RA FEW010 BKN025 11/08 Q1018 RERA",
      "taf": "TAF LICC 311700Z 3118/0118 08008KT 9999 BKN030"
    },
    {
      "icao": "LICJ",
      "alert": "OK",
      "vis_m": 9999,
      "fzfg": false,
      "metar_trigger": false,
      "taf_trigger": false,
      "metar": "METAR LICJ 312120Z 08013KT CAVOK 12/07 Q1017",
      "taf": ""
    },
    {
      "icao": "LIMC",
      "alert": "OK",
      "vis_m": 9999,
      "fzfg": false,
      "metar_trigger": false,
      "taf_trigger": false,
      "metar": "METAR LIMC 312120Z VRB02KT CAVOK M02/M02 Q1020 NOSIG",
      "taf": "TAF LIMC 311700Z 3118/0124 VRB04KT 9999 SCT040"
    },
    {
      "icao": "LIME",
      "alert": "OK",
      "vis_m": 9999,
      "fzfg": false,
      "metar_trigger": false,
      "taf_trigger": false,
      "metar": "METAR LIME 312120Z 01003KT 320V040 9999 FEW040 01/M02 Q1020 NOSIG",
      "taf": "TAF LIME 311700Z 3118/0118 VRB04KT 9999 FEW045"
    },
    {
      "icao": "LIMF",
      "alert": "OK",
      "vis_m": 9999,
      "fzfg": false,
      "metar_trigger": false,
      "taf_trigger": false,
      "metar": "METAR LIMF 312120Z VRB01KT 9999 BKN030 03/00 Q1019",
      "taf": "TAF LIMF 311700Z 3118/0118 VRB04KT 7000 BKN040"
    },
    {
      "icao": "LIMJ",
      "alert": "OK",
      "vis_m": 9999,
      "fzfg": false,
      "metar_trigger": false,
      "taf_trigger": false,
      "metar": "METAR LIMJ 312120Z 02003KT 280V060 CAVOK 06/M03 Q1020",
      "taf": "TAF LIMJ 311700Z 3118/0118 03012KT 9999 SCT040"
    },
    {
      "icao": "LIPE",
      "alert": "OK",
      "vis_m": 9999,
      "fzfg": false,
      "metar_trigger": false,
      "taf_trigger": false,
      "metar": "METAR LIPE 312120Z 21005KT CAVOK 01/M01 Q1020",
      "taf": "TAF LIPE 311700Z 3118/0118 VRB04KT CAVOK"
    },
    {
      "icao": "LIPH",
      "alert": "OK",
      "vis_m": 9999,
      "fzfg": false,
      "metar_trigger": false,
      "taf_trigger": false,
      "metar": "METAR LIPH 312120Z 24001KT CAVOK M01/M03 Q1020",
      "taf": "TAF LIPH 311700Z 3118/0118 VRB04KT 9999 FEW040"
    },
    {
      "icao": "LIPQ",
      "alert": "OK",
      "vis_m": 9999,
      "fzfg": false,
      "metar_trigger": false,
      "taf_trigger": false,
      "metar": "METAR LIPQ 312120Z AUTO 36003KT 9999 NCD M02/M05 Q1020",
      "taf": "TAF LIPQ 311700Z 3118/0118 VRB05KT 9999 SCT040"
    },
    {
      "icao": "LIPR",
      "alert": "OK",
      "vis_m": 9999,
      "fzfg": false,
      "metar_trigger": false,
      "taf_trigger": false,
      "metar": "METAR LIPR 312120Z AUTO 24002KT 9999 NCD M01/M03 Q1020",
      "taf": "TAF LIPR 311700Z 3118/0118 VRB05KT CAVOK"
    },
    {
      "icao": "LIPX",
      "alert": "OK",
      "vis_m": 9999,
      "fzfg": false,
      "metar_trigger": false,
      "taf_trigger": false,
      "metar": "METAR LIPX 312120Z 34004KT CAVOK M02/M04 Q1020",
      "taf": "TAF LIPX 311700Z 3118/0118 VRB04KT CAVOK"
    },
    {
      "icao": "LIPY",
      "alert": "OK",
      "vis_m": 9999,
      "fzfg": false,
      "metar_trigger": false,
      "taf_trigger": false,
      "metar": "METAR LIPY 312120Z AUTO 21003KT 9999 NCD 01/M03 Q1021",
      "taf": "TAF LIPY 311700Z 3118/0118 VRB05KT CAVOK"
    },
    {
      "icao": "LIPZ",
      "alert": "OK",
      "vis_m": 9999,
      "fzfg": false,
      "metar_trigger": false,
      "taf_trigger": false,
      "metar": "METAR LIPZ 312120Z VRB02KT CAVOK M01/M05 Q1020 NOSIG",
      "taf": "TAF LIPZ 311700Z 3118/0124 VRB05KT 9999 FEW035"
    },
    {
      "icao": "LIRF",
      "alert": "OK",
      "vis_m": 9999,
      "fzfg": false,
      "metar_trigger": false,
      "taf_trigger": false,
      "metar": "METAR LIRF 312120Z 03004KT 9999 FEW040 02/M02 Q1020 NOSIG",
      "taf": "TAF LIRF 311700Z 3118/0124 05009KT 9999 SCT035"
    },
    {
      "icao": "LIRN",
      "alert": "OK",
      "vis_m": 9999,
      "fzfg": false,
      "metar_trigger": false,
      "taf_trigger": false,
      "metar": "METAR LIRN 312120Z AUTO 02006KT 9999 NCD 03/M07 Q1020",
      "taf": "TAF LIRN 311700Z 3118/0118 05010KT CAVOK"
    },
    {
      "icao": "LIRP",
      "alert": "OK",
      "vis_m": 9999,
      "fzfg": false,
      "metar_trigger": false,
      "taf_trigger": false,
      "metar": "METAR LIRP 312115Z 20003KT CAVOK 01/M02 Q1020 NOSIG",
      "taf": "TAF LIRP 311700Z 3118/0118 12007KT CAVOK"
    },
    {
      "icao": "LIRZ",
      "alert": "OK",
      "vis_m": 9999,
      "fzfg": false,
      "metar_trigger": false,
      "taf_trigger": false,
      "metar": "METAR LIRZ 312120Z AUTO 03004KT 9999 NCD M01/M05 Q1019",
      "taf": "TAF LIRZ 311700Z 3118/0118 VRB05KT CAVOK"
    },
    {
      "icao": "LJLJ",
      "alert": "OK",
      "vis_m": 9999,
      "fzfg": false,
      "metar_trigger": false,
      "taf_trigger": false,
      "metar": "METAR LJLJ 312130Z VRB01KT CAVOK M08/M09 Q1017 NOSIG",
      "taf": "TAF LJLJ 311700Z 3118/0118 VRB02KT CAVOK"
    },
    {
      "icao": "LKMT",
      "alert": "OK",
      "vis_m": 5000,
      "fzfg": false,
      "metar_trigger": false,
      "taf_trigger": false,
      "metar": "METAR LKMT 312130Z 23014KT 5000 -SN SCT019 OVC028 M02/M03 Q1010 NOSIG",
      "taf": "TAF LKMT 311700Z 3118/0118 21012KT 5000 -SN SCT010 BKN030"
    },
    {
      "icao": "LKPR",
      "alert": "OK",
      "vis_m": 9999,
      "fzfg": false,
      "metar_trigger": false,
      "taf_trigger": false,
      "metar": "METAR LKPR 312130Z 22018KT 9999 BKN021 M00/M02 Q1012 NOSIG",
      "taf": "TAF LKPR 312000Z 3121/0203 24017KT 9999 SCT030"
    },
    {
      "icao": "LLBG",
      "alert": "OK",
      "vis_m": 9999,
      "fzfg": false,
      "metar_trigger": false,
      "taf_trigger": false,
      "metar": "METAR LLBG 312120Z 18011KT 9999 FEW050 14/06 Q1011 NOSIG",
      "taf": "TAF LLBG 311703Z 3118/0118 17008KT 9999 SCT040"
    },
    {
      "icao": "LMML",
      "alert": "OK",
      "vis_m": 9999,
      "fzfg": false,
      "metar_trigger": false,
      "taf_trigger": false,
      "metar": "METAR LMML 312145Z 08005KT 9999 FEW010 12/10 Q1017 NOSIG",
      "taf": "TAF LMML 311700Z 3118/0118 08012KT 9999 SCT018"
    },
    {
      "icao": "LOWW",
      "alert": "OK",
      "vis_m": 9999,
      "fzfg": false,
      "metar_trigger": false,
      "taf_trigger": false,
      "metar": "METAR LOWW 312120Z 29023KT 9999 SCT036 BKN038 01/M05 Q1014 NOSIG",
      "taf": "TAF LOWW 312015Z 3121/0203 28025G35KT 9999 BKN030 TX05/0111Z TNM00/0122Z"
    },
    {
      "icao": "LPFR",
      "alert": "OK",
      "vis_m": 9999,
      "fzfg": false,
      "metar_trigger": false,
      "taf_trigger": false,
      "metar": "METAR LPFR 312130Z 07006KT CAVOK 13/10 Q1017",
      "taf": "TAF LPFR 311700Z 3118/0118 08012KT 9999 FEW010 SCT025"
    },
    {
      "icao": "LPMA",
      "alert": "OK",
      "vis_m": 9999,
      "fzfg": false,
      "metar_trigger": false,
      "taf_trigger": false,
      "metar": "METAR LPMA 312130Z 21024KT 9999 -RA BKN013 19/17 Q1011",
      "taf": "TAF LPMA 311700Z 3118/0118 22020KT 9999 BKN015"
    },
    {
      "icao": "LPPR",
      "alert": "OK",
      "vis_m": 9999,
      "fzfg": false,
      "metar_trigger": false,
      "taf_trigger": false,
      "metar": "METAR LPPR 312130Z 11010KT CAVOK 09/03 Q1017",
      "taf": "TAF LPPR 311700Z 3118/0118 VRB02KT CAVOK"
    },
    {
      "icao": "LPPS",
      "alert": "OK",
      "vis_m": 9999,
      "fzfg": false,
      "metar_trigger": false,
      "taf_trigger": false,
      "metar": "METAR LPPS 312130Z 18017KT 9999 SCT013 19/16 Q1011",
      "taf": "TAF LPPS 311700Z 3118/0124 19018KT 9999 SCT010"
    },
    {
      "icao": "LPPT",
      "alert": "OK",
      "vis_m": 9999,
      "fzfg": false,
      "metar_trigger": false,
      "taf_trigger": false,
      "metar": "METAR LPPT 312130Z 06003KT 9999 FEW010 10/08 Q1017",
      "taf": "TAF LPPT 311700Z 3118/0124 06005KT 9999 FEW010"
    },
    {
      "icao": "LQBK",
      "alert": "OK",
      "vis_m": 9999,
      "fzfg": false,
      "metar_trigger": false,
      "taf_trigger": false,
      "metar": "METAR LQBK 312130Z 21010KT CAVOK M00/M13 Q1018 NOSIG",
      "taf": "TAF LQBK 311700Z 3118/0118 16005KT CAVOK TX06/0113Z TNM05/0106Z"
    },
    {
      "icao": "LQSA",
      "alert": "OK",
      "vis_m": 9999,
      "fzfg": false,
      "metar_trigger": false,
      "taf_trigger": false,
      "metar": "METAR LQSA 312130Z VRB03KT CAVOK M09/M12 Q1019",
      "taf": "TAF LQSA 311700Z 3118/0118 29005KT 9999 FEW050 TX02/0112Z TNM10/0104Z"
    },
    {
      "icao": "LQTZ",
      "alert": "OK",
      "vis_m": 9999,
      "fzfg": false,
      "metar_trigger": false,
      "taf_trigger": false,
      "metar": "METAR LQTZ 312130Z 03001KT CAVOK M08/M09 Q1019",
      "taf": "TAF LQTZ 311700Z 3118/0118 27005KT CAVOK TX05/0113Z TNM06/0106Z"
    },
    {
      "icao": "LRBC",
      "alert": "OK",
      "vis_m": 9999,
      "fzfg": false,
      "metar_trigger": false,
      "taf_trigger": false,
      "metar": "METAR LRBC 312130Z 28003KT CAVOK M07/M13 Q1013",
      "taf": "TAF LRBC 312000Z 3121/0106 VRB04KT CAVOK"
    },
    {
      "icao": "LRBS",
      "alert": "OK",
      "vis_m": 9999,
      "fzfg": false,
      "metar_trigger": false,
      "taf_trigger": false,
      "metar": "METAR LRBS 312130Z 29003KT 260V360 CAVOK M03/M07 Q1014 NOSIG",
      "taf": "TAF LRBS 311700Z 3118/0118 24010KT CAVOK"
    },
    {
      "icao": "LRBV",
      "alert": "OK",
      "vis_m": 5000,
      "fzfg": false,
      "metar_trigger": false,
      "taf_trigger": false,
      "metar": "METAR LRBV 312130Z AUTO 28007KT 240V310 5000 SG SCT020/// BKN030/// OVC040/// M06/M09 Q1013",
      "taf": "TAF LRBV 312000Z 3121/0106 28008KT 9999 SCT025 BKN045"
    },
    {
      "icao": "LRCL",
      "alert": "OK",
      "vis_m": 9999,
      "fzfg": false,
      "metar_trigger": false,
      "taf_trigger": false,
      "metar": "METAR LRCL 312130Z 26004KT 230V310 9999 FEW055 M08/M12 Q1014",
      "taf": "TAF LRCL 312000Z 3121/0106 29008KT 9999 BKN050"
    },
    {
      "icao": "LRCV",
      "alert": "OK",
      "vis_m": 9999,
      "fzfg": false,
      "metar_trigger": false,
      "taf_trigger": false,
      "metar": "METAR LRCV 312130Z 29008KT CAVOK M05/M08 Q1015",
      "taf": "TAF LRCV 312000Z 3121/0106 29010KT CAVOK"
    },
    {
      "icao": "LRIA",
      "alert": "OK",
      "vis_m": 9999,
      "fzfg": false,
      "metar_trigger": false,
      "taf_trigger": false,
      "metar": "METAR LRIA 312130Z 24004KT 220V280 CAVOK M05/M10 Q1012",
      "taf": "TAF LRIA 312000Z 3121/0106 29006KT CAVOK"
    },
    {
      "icao": "LROP",
      "alert": "OK",
      "vis_m": 9999,
      "fzfg": false,
      "metar_trigger": false,
      "taf_trigger": false,
      "metar": "METAR LROP 312130Z 22003KT 180V270 CAVOK M04/M09 Q1014 NOSIG",
      "taf": "TAF LROP 311700Z 3118/0118 24010KT CAVOK"
    },
    {
      "icao": "LRSB",
      "alert": "OK",
      "vis_m": 9999,
      "fzfg": false,
      "metar_trigger": false,
      "taf_trigger": false,
      "metar": "METAR LRSB 312130Z 27008KT 9999 FEW065 M07/M11 Q1014",
      "taf": "TAF LRSB 311700Z 3118/0118 30010KT 9999 BKN045"
    },
    {
      "icao": "LRSM",
      "alert": "OK",
      "vis_m": 9999,
      "fzfg": false,
      "metar_trigger": false,
      "taf_trigger": false,
      "metar": "METAR LRSM 312130Z AUTO 22007KT 9999 SCT130/// BKN140/// M05/M08 Q1014",
      "taf": "TAF LRSM 311100Z 3112/3121 26014KT 9999 SCT030"
    },
    {
      "icao": "LRSV",
      "alert": "OK",
      "vis_m": 9999,
      "fzfg": false,
      "metar_trigger": false,
      "taf_trigger": false,
      "metar": "METAR LRSV 312130Z 27007KT CAVOK M06/M10 Q1010",
      "taf": "TAF LRSV 312000Z 3121/0106 29006KT CAVOK"
    },
    {
      "icao": "LRTM",
      "alert": "OK",
      "vis_m": 9999,
      "fzfg": false,
      "metar_trigger": false,
      "taf_trigger": false,
      "metar": "METAR LRTM 312130Z AUTO 22006KT 9999 R25////// NCD M07/M10 Q1015",
      "taf": "TAF LRTM 311400Z 3115/3124 28012KT 9999 SCT025 BKN040"
    },
    {
      "icao": "LRTR",
      "alert": "OK",
      "vis_m": 9999,
      "fzfg": false,
      "metar_trigger": false,
      "taf_trigger": false,
      "metar": "METAR LRTR 312130Z 16002KT 9999 SCT045 M06/M08 Q1017",
      "taf": "TAF LRTR 311700Z 3118/0118 29006KT 9999 SCT045"
    },
    {
      "icao": "LTAC",
      "alert": "OK",
      "vis_m": 9999,
      "fzfg": false,
      "metar_trigger": false,
      "taf_trigger": false,
      "metar": "METAR LTAC 312120Z 03008KT 9999 SCT035 BKN080 M05/M10 Q1007 NOSIG RMK RWY21C 01008KT RWY03L 02008KT RWY21R 01008KT RWY03R 01009KT RWY21L 02006KT",
      "taf": "TAF LTAC 311640Z 3118/0118 VRB02KT 9999 SCT040 BKN100"
    },
    {
      "icao": "LTFM",
      "alert": "OK",
      "vis_m": 9999,
      "fzfg": false,
      "metar_trigger": false,
      "taf_trigger": false,
      "metar": "METAR LTFM 312120Z 29011KT 9999 FEW030 SCT080 M01/M07 Q1014 NOSIG RMK RWY17L 27011KT RWY34L 28009KT RWY16R 26009KT RWY36 28010KT RWY18 28012KT",
      "taf": "TAF LTFM 311640Z 3118/0124 33008KT CAVOK"
    },
    {
      "icao": "LUKK",
      "alert": "OK",
      "vis_m": 9999,
      "fzfg": false,
      "metar_trigger": false,
      "taf_trigger": false,
      "metar": "METAR LUKK 312130Z 32010KT CAVOK M05/M10 Q1011 NOSIG",
      "taf": "TAF LUKK 311720Z 3118/0118 28010KT 9999 SCT030"
    },
    {
      "icao": "LWOH",
      "alert": "OK",
      "vis_m": null,
      "fzfg": false,
      "metar_trigger": false,
      "taf_trigger": false,
      "metar": "",
      "taf": "TAF LWOH 312010Z 3121/0121 VRB02KT CAVOK"
    },
    {
      "icao": "LWSK",
      "alert": "OK",
      "vis_m": 9999,
      "fzfg": false,
      "metar_trigger": false,
      "taf_trigger": false,
      "metar": "METAR LWSK 312130Z 12003KT CAVOK M08/M13 Q1020 NOSIG",
      "taf": "TAF LWSK 312010Z 3121/0121 02010KT CAVOK"
    },
    {
      "icao": "LYBE",
      "alert": "OK",
      "vis_m": 9999,
      "fzfg": false,
      "metar_trigger": false,
      "taf_trigger": false,
      "metar": "METAR LYBE 312130Z 19005KT CAVOK M04/M08 Q1019 NOSIG",
      "taf": "TAF LYBE 311700Z 3118/0118 25008KT CAVOK TX05/0112Z TNM04/3123Z"
    },
    {
      "icao": "LYNI",
      "alert": "OK",
      "vis_m": 9999,
      "fzfg": false,
      "metar_trigger": false,
      "taf_trigger": false,
      "metar": "METAR LYNI 312130Z 14003KT 9999 FEW025 SCT040 BKN067 M04/M06 Q1019 NOSIG",
      "taf": "TAF LYNI 311700Z 3118/0118 31010KT 9999 SCT040 BKN070 TX02/0112Z TNM06/0106Z"
    },
    {
      "icao": "LYPG",
      "alert": "OK",
      "vis_m": 9999,
      "fzfg": false,
      "metar_trigger": false,
      "taf_trigger": false,
      "metar": "METAR LYPG 312130Z 35012KT CAVOK M00/M14 Q1021 NOSIG",
      "taf": "TAF LYPG 311700Z 3118/0118 36015G25KT CAVOK TX05/0112Z TNM05/0106Z"
    },
    {
      "icao": "LZIB",
      "alert": "OK",
      "vis_m": 9999,
      "fzfg": false,
      "metar_trigger": false,
      "taf_trigger": false,
      "metar": "METAR LZIB 312130Z 27012KT 9999 -RASN FEW028 OVC032 01/M03 Q1014 NOSIG",
      "taf": "TAF LZIB 311715Z 3118/0118 29016KT 9999 SCT020 BKN030"
    },
    {
      "icao": "LZKZ",
      "alert": "OK",
      "vis_m": 9999,
      "fzfg": false,
      "metar_trigger": false,
      "taf_trigger": false,
      "metar": "METAR LZKZ 312130Z 20006KT CAVOK M04/M08 Q1011 NOSIG",
      "taf": "TAF LZKZ 311715Z 3118/0118 26005KT 9999 BKN030"
    },
    {
      "icao": "LZTT",
      "alert": "OK",
      "vis_m": 9999,
      "fzfg": false,
      "metar_trigger": false,
      "taf_trigger": false,
      "metar": "METAR LZTT 312130Z 24009KT 9999 -SN SCT050 M06/M09 Q1007",
      "taf": "TAF LZTT 311715Z 3118/0118 27015KT 9999 SCT030 BKN045"
    },
    {
      "icao": "OEJN",
      "alert": "OK",
      "vis_m": 9999,
      "fzfg": false,
      "metar_trigger": false,
      "taf_trigger": false,
      "metar": "METAR OEJN 312100Z 00000KT CAVOK 22/14 Q1015 NOSIG",
      "taf": "TAF OEJN 311700Z 3118/0124 03008KT CAVOK"
    },
    {
      "icao": "OEMA",
      "alert": "OK",
      "vis_m": 9999,
      "fzfg": false,
      "metar_trigger": false,
      "taf_trigger": false,
      "metar": "METAR OEMA 312100Z 07002KT CAVOK 18/M03 Q1018 NOSIG",
      "taf": "TAF OEMA 311700Z 3118/0124 27010KT CAVOK"
    },
    {
      "icao": "OJAI",
      "alert": "OK",
      "vis_m": 5000,
      "fzfg": false,
      "metar_trigger": false,
      "taf_trigger": false,
      "metar": "METAR OJAI 312100Z 26009KT 5000 HZ NSC 08/02 Q1013 NOSIG",
      "taf": "TAF OJAI 311700Z 3118/0124 24014KT 5000 HZ SCT035"
    },
    {
      "icao": "OMAA",
      "alert": "OK",
      "vis_m": 9999,
      "fzfg": false,
      "metar_trigger": false,
      "taf_trigger": false,
      "metar": "METAR OMAA 312100Z 31008KT 9999 SCT040 19/10 Q1017 NOSIG",
      "taf": "TAF OMAA 311700Z 3118/0200 22005KT 8000 SCT040"
    },
    {
      "icao": "OMDB",
      "alert": "OK",
      "vis_m": 9999,
      "fzfg": false,
      "metar_trigger": false,
      "taf_trigger": false,
      "metar": "METAR OMDB 312130Z 15004KT 9999 FEW045 19/10 Q1017 NOSIG",
      "taf": "TAF OMDB 311700Z 3118/0200 26010KT 8000 FEW040"
    },
    {
      "icao": "UAAA",
      "alert": "OK",
      "vis_m": 2400,
      "fzfg": false,
      "metar_trigger": false,
      "taf_trigger": false,
      "metar": "METAR UAAA 312130Z 21002MPS 2400 -SHRASN BR BKN017CB OVC100 01/00 Q1024 NOSIG",
      "taf": "TAF UAAA 311712Z 3118/0118 25003MPS 3100 -SHRASN BR BKN005 OVC015CB TX01/0109Z TNM01/0101Z"
    },
    {
      "icao": "UBBB",
      "alert": "OK",
      "vis_m": 9999,
      "fzfg": false,
      "metar_trigger": false,
      "taf_trigger": false,
      "metar": "METAR UBBB 312130Z 29012KT CAVOK 05/02 Q1006 NOSIG",
      "taf": "TAF UBBB 311702Z 3118/0118 26005KT 9999 SCT040 TX07/0110Z TN04/0103Z"
    },
    {
      "icao": "UDSG",
      "alert": "OK",
      "vis_m": 1200,
      "fzfg": false,
      "metar_trigger": false,
      "taf_trigger": false,
      "metar": "METAR UDSG 312130Z 07002KT 1200 R02/P2000N SN BR OVC016 M07/M07 Q1008 NOSIG",
      "taf": "TAF UDSG 311700Z 3118/0118 VRB06KT 2000 BR OVC020"
    },
    {
      "icao": "UDYZ",
      "alert": "OK",
      "vis_m": 1000,
      "fzfg": false,
      "metar_trigger": false,
      "taf_trigger": false,
      "metar": "METAR UDYZ 312130Z 03003KT 1000 0800N R08/P2000N SHSN BCFG OVC020CB M02/M02 Q1010 NOSIG",
      "taf": "TAF UDYZ 311700Z 3118/0118 04006KT 6000 BKN040"
    },
    {
      "icao": "UGKO",
      "alert": "OK",
      "vis_m": 6000,
      "fzfg": false,
      "metar_trigger": false,
      "taf_trigger": false,
      "metar": "METAR UGKO 312130Z VRB02KT 6000 -RA SCT013 OVC040 01/01 Q1009 NOSIG",
      "taf": "TAF UGKO 311700Z 3118/0118 08006KT 9999 SCT020 OVC050 TX03/0111Z TNM00/0103Z"
    }
  ]
}