{
  "ts_utc": "2026-05-04T21:54:09Z",
  "threshold_m": 150,
  "source": "stations_override.txt (ICAO list) + aviationweather.gov (METAR/TAF raw)",
  "station_count": 159,
  "stations": [
    {
      "icao": "BIKF",
      "alert": "OK",
      "vis_m": 9999,
      "fzfg": false,
      "metar_trigger": false,
      "taf_trigger": false,
      "metar": "METAR BIKF 042130Z 02008KT CAVOK 01/M08 Q1025",
      "taf": "TAF BIKF 041951Z 0421/0521 02012KT 9999 FEW040 TX05/0514Z TNM00/0506Z"
    },
    {
      "icao": "BKPR",
      "alert": "OK",
      "vis_m": null,
      "fzfg": false,
      "metar_trigger": false,
      "taf_trigger": false,
      "metar": "",
      "taf": "TAF BKPR 041730Z 0418/0518 VRB05KT CAVOK"
    },
    {
      "icao": "EBCI",
      "alert": "OK",
      "vis_m": 9999,
      "fzfg": false,
      "metar_trigger": false,
      "taf_trigger": false,
      "metar": "METAR EBCI 042120Z 18003KT 9999 -SHRA SCT013 BKN016 13/11 Q1012 TEMPO 4000 SHRA BKN013",
      "taf": "TAF EBCI 041707Z 0418/0524 01003KT 8000 SCT020TCU SCT030"
    },
    {
      "icao": "EDDB",
      "alert": "OK",
      "vis_m": 9999,
      "fzfg": false,
      "metar_trigger": false,
      "taf_trigger": false,
      "metar": "METAR EDDB 042120Z AUTO 03006KT CAVOK 16/11 Q1012 NOSIG",
      "taf": "TAF EDDB 041700Z 0418/0518 32006KT 9999 SCT030"
    },
    {
      "icao": "EDDH",
      "alert": "OK",
      "vis_m": 9999,
      "fzfg": false,
      "metar_trigger": false,
      "taf_trigger": false,
      "metar": "METAR EDDH 042120Z AUTO 32005KT CAVOK 11/09 Q1013 NOSIG",
      "taf": "TAF EDDH 041700Z 0418/0524 32007KT 9999 SCT025"
    },
    {
      "icao": "EDDK",
      "alert": "OK",
      "vis_m": 9999,
      "fzfg": false,
      "metar_trigger": false,
      "taf_trigger": false,
      "metar": "METAR EDDK 042120Z AUTO VRB02KT 9999 -SHRA FEW022 FEW///TCU 14/13 Q1013 NOSIG",
      "taf": "TAF EDDK 041700Z 0418/0524 14003KT 9999 SCT030"
    },
    {
      "icao": "EDDN",
      "alert": "OK",
      "vis_m": 9999,
      "fzfg": false,
      "metar_trigger": false,
      "taf_trigger": false,
      "metar": "METAR EDDN 042120Z AUTO 31005KT CAVOK 17/09 Q1012",
      "taf": "TAF EDDN 041700Z 0418/0518 01005KT CAVOK"
    },
    {
      "icao": "EDDS",
      "alert": "OK",
      "vis_m": 9999,
      "fzfg": false,
      "metar_trigger": false,
      "taf_trigger": false,
      "metar": "METAR EDDS 042120Z AUTO VRB01KT CAVOK 15/08 Q1012",
      "taf": "TAF EDDS 041700Z 0418/0518 33006KT 9999 FEW045"
    },
    {
      "icao": "EDFH",
      "alert": "OK",
      "vis_m": 9999,
      "fzfg": false,
      "metar_trigger": false,
      "taf_trigger": false,
      "metar": "METAR EDFH 042120Z VRB02KT 9999 FEW039 SCT044 11/10 Q1013",
      "taf": "TAF EDFH 041700Z 0418/0518 15004KT 9999 FEW045"
    },
    {
      "icao": "EDJA",
      "alert": "OK",
      "vis_m": 9999,
      "fzfg": false,
      "metar_trigger": false,
      "taf_trigger": false,
      "metar": "METAR EDJA 042120Z AUTO 02004KT 9999 // FEW130/// SCT200/// 13/08 Q1013",
      "taf": "TAF EDJA 041700Z 0418/0503 36005KT CAVOK"
    },
    {
      "icao": "EDLW",
      "alert": "OK",
      "vis_m": 9999,
      "fzfg": false,
      "metar_trigger": false,
      "taf_trigger": false,
      "metar": "METAR EDLW 042120Z AUTO 23002KT 9999 // BKN058/// OVC069/// 14/13 Q1013",
      "taf": "TAF EDLW 041700Z 0418/0518 18003KT 9999 BKN030"
    },
    {
      "icao": "EDNY",
      "alert": "OK",
      "vis_m": 9999,
      "fzfg": false,
      "metar_trigger": false,
      "taf_trigger": false,
      "metar": "METAR EDNY 042120Z AUTO 24006KT 210V270 9999 // BKN190/// BKN240/// 13/10 Q1013",
      "taf": "TAF EDNY 041700Z 0418/0503 24005KT CAVOK"
    },
    {
      "icao": "EDSB",
      "alert": "OK",
      "vis_m": 9999,
      "fzfg": false,
      "metar_trigger": false,
      "taf_trigger": false,
      "metar": "METAR EDSB 042128Z COR 20005KT CAVOK 15/11 Q1013",
      "taf": "TAF EDSB 041700Z 0418/0518 VRB03KT CAVOK"
    },
    {
      "icao": "EETN",
      "alert": "OK",
      "vis_m": 9999,
      "fzfg": false,
      "metar_trigger": false,
      "taf_trigger": false,
      "metar": "METAR EETN 042150Z 23009KT 9999 BKN005 08/07 Q1004 TEMPO BKN004",
      "taf": "TAF EETN 041730Z 0418/0518 24010KT 9999 BKN010"
    },
    {
      "icao": "EFTU",
      "alert": "OK",
      "vis_m": 9999,
      "fzfg": false,
      "metar_trigger": false,
      "taf_trigger": false,
      "metar": "METAR EFTU 042150Z AUTO 24005KT 9999 BKN001 06/06 Q1001",
      "taf": "TAF EFTU 042037Z 0421/0521 23004KT 9999 BKN003"
    },
    {
      "icao": "EGBB",
      "alert": "OK",
      "vis_m": 9999,
      "fzfg": false,
      "metar_trigger": false,
      "taf_trigger": false,
      "metar": "METAR EGBB 042120Z VRB01KT 9999 BKN037 11/08 Q1016",
      "taf": "TAF EGBB 041704Z 0418/0518 03006KT 9999 SCT025"
    },
    {
      "icao": "EGGP",
      "alert": "OK",
      "vis_m": 9999,
      "fzfg": false,
      "metar_trigger": false,
      "taf_trigger": false,
      "metar": "METAR EGGP 042120Z 31005KT CAVOK 09/04 Q1016",
      "taf": "TAF EGGP 041700Z 0418/0518 33008KT 9999 SCT030"
    },
    {
      "icao": "EGGW",
      "alert": "OK",
      "vis_m": 9999,
      "fzfg": false,
      "metar_trigger": false,
      "taf_trigger": false,
      "metar": "METAR EGGW 042120Z AUTO 02006KT 320V070 9999 OVC030 11/09 Q1015",
      "taf": ""
    },
    {
      "icao": "EGKK",
      "alert": "OK",
      "vis_m": 9999,
      "fzfg": false,
      "metar_trigger": false,
      "taf_trigger": false,
      "metar": "METAR EGKK 042120Z 08006KT 9999 BKN026 13/11 Q1014",
      "taf": "TAF EGKK 041655Z 0418/0524 06007KT 9999 SCT025"
    },
    {
      "icao": "EGNM",
      "alert": "OK",
      "vis_m": 9999,
      "fzfg": false,
      "metar_trigger": false,
      "taf_trigger": false,
      "metar": "METAR EGNM 042120Z 27010KT 9999 FEW040 09/06 Q1015",
      "taf": "TAF EGNM 041654Z 0418/0518 30004KT 9999 SCT030"
    },
    {
      "icao": "EGPD",
      "alert": "OK",
      "vis_m": 9999,
      "fzfg": false,
      "metar_trigger": false,
      "taf_trigger": false,
      "metar": "METAR EGPD 042120Z COR AUTO 26002KT 9999 -RA BKN038 BKN045 09/07 Q1014 NOSIG",
      "taf": ""
    },
    {
      "icao": "EGPF",
      "alert": "OK",
      "vis_m": 9999,
      "fzfg": false,
      "metar_trigger": false,
      "taf_trigger": false,
      "metar": "METAR EGPF 042120Z AUTO 26004KT 9999 OVC046 10/05 Q1016",
      "taf": "TAF EGPF 041659Z 0418/0518 29007KT 9999 SCT040"
    },
    {
      "icao": "EHBK",
      "alert": "OK",
      "vis_m": 9999,
      "fzfg": false,
      "metar_trigger": false,
      "taf_trigger": false,
      "metar": "METAR EHBK 042125Z AUTO 18004KT 9999 FEW015CB OVC039 14/12 Q1012",
      "taf": "TAF EHBK 041710Z 0418/0524 20005KT 9999 -RA BKN030"
    },
    {
      "icao": "EHEH",
      "alert": "OK",
      "vis_m": 8000,
      "fzfg": false,
      "metar_trigger": false,
      "taf_trigger": false,
      "metar": "METAR EHEH 042125Z AUTO 00000KT 8000 DZ SCT006 BKN007 BKN010 FEW015CB 14/14 Q1012 GRN TEMPO 4000 SHRA RA FEW010 SCT015 SCT025CB",
      "taf": "TAF EHEH 041740Z 0418/0524 VRB02KT 9999 SCT030"
    },
    {
      "icao": "EKBI",
      "alert": "OK",
      "vis_m": 9999,
      "fzfg": false,
      "metar_trigger": false,
      "taf_trigger": false,
      "metar": "METAR EKBI 042120Z AUTO 26004KT 9999 NCD 04/03 Q1013",
      "taf": "TAF EKBI 042027Z 0421/0521 29008KT CAVOK"
    },
    {
      "icao": "EKCH",
      "alert": "OK",
      "vis_m": 9999,
      "fzfg": false,
      "metar_trigger": false,
      "taf_trigger": false,
      "metar": "METAR EKCH 042120Z AUTO 27004KT 220V310 9999 NCD 10/04 Q1012 NOSIG",
      "taf": "TAF EKCH 042027Z 0421/0521 32006KT CAVOK"
    },
    {
      "icao": "ENAL",
      "alert": "OK",
      "vis_m": 9999,
      "fzfg": false,
      "metar_trigger": false,
      "taf_trigger": false,
      "metar": "METAR ENAL 042120Z 29010KT 250V320 9999 FEW015TCU SCT045 03/M00 Q1009",
      "taf": ""
    },
    {
      "icao": "ENBR",
      "alert": "OK",
      "vis_m": 9999,
      "fzfg": false,
      "metar_trigger": false,
      "taf_trigger": false,
      "metar": "METAR ENBR 042120Z 35004KT 9999 FEW018 SCT032 01/M01 Q1012 RMK WIND 1200FT 32019KT",
      "taf": "TAF ENBR 041700Z 0418/0518 33008KT 9999 FEW020 BKN030"
    },
    {
      "icao": "ENGM",
      "alert": "OK",
      "vis_m": 9999,
      "fzfg": false,
      "metar_trigger": false,
      "taf_trigger": false,
      "metar": "METAR ENGM 042120Z 30004KT 240V340 CAVOK 03/M02 Q1005",
      "taf": ""
    },
    {
      "icao": "ENHD",
      "alert": "OK",
      "vis_m": 9999,
      "fzfg": false,
      "metar_trigger": false,
      "taf_trigger": false,
      "metar": "METAR ENHD 042120Z AUTO 35012KT 310V020 9999 FEW031/// BKN043/// 05/00 Q1012",
      "taf": "TAF ENHD 041400Z 0415/0422 22015KT 9999 SCT010 BKN025"
    },
    {
      "icao": "ENTC",
      "alert": "OK",
      "vis_m": 9999,
      "fzfg": false,
      "metar_trigger": false,
      "taf_trigger": false,
      "metar": "METAR ENTC 042120Z 05006KT CAVOK 03/M02 Q0996 RMK WIND 2600FT 07009KT",
      "taf": ""
    },
    {
      "icao": "ENTO",
      "alert": "OK",
      "vis_m": 9999,
      "fzfg": false,
      "metar_trigger": false,
      "taf_trigger": false,
      "metar": "METAR ENTO 042120Z 28008KT 250V320 CAVOK 08/M02 Q1006",
      "taf": "TAF ENTO 041700Z 0418/0518 23014KT CAVOK"
    },
    {
      "icao": "ENVA",
      "alert": "OK",
      "vis_m": 9000,
      "fzfg": false,
      "metar_trigger": false,
      "taf_trigger": false,
      "metar": "METAR ENVA 042120Z 31014KT 9000 -SHRASN VV012 02/01 Q1004 RMK WIND 670FT 29021KT",
      "taf": "TAF ENVA 041700Z 0418/0518 27020KT 9999 FEW040 BKN050"
    },
    {
      "icao": "ENZV",
      "alert": "OK",
      "vis_m": 9999,
      "fzfg": false,
      "metar_trigger": false,
      "taf_trigger": false,
      "metar": "METAR ENZV 042120Z 34008KT CAVOK 04/M01 Q1012",
      "taf": "TAF ENZV 041700Z 0418/0518 33009KT 9999 FEW012 SCT030"
    },
    {
      "icao": "EPGD",
      "alert": "OK",
      "vis_m": 9999,
      "fzfg": false,
      "metar_trigger": false,
      "taf_trigger": false,
      "metar": "METAR EPGD 042130Z 26007KT CAVOK 11/09 Q1012",
      "taf": "TAF EPGD 041730Z 0418/0518 28013KT CAVOK"
    },
    {
      "icao": "EPKK",
      "alert": "OK",
      "vis_m": 9999,
      "fzfg": false,
      "metar_trigger": false,
      "taf_trigger": false,
      "metar": "METAR EPKK 042130Z 26002KT CAVOK 14/02 Q1013",
      "taf": "TAF EPKK 042030Z 0421/0521 VRB02KT CAVOK"
    },
    {
      "icao": "EPKT",
      "alert": "OK",
      "vis_m": 9999,
      "fzfg": false,
      "metar_trigger": false,
      "taf_trigger": false,
      "metar": "METAR EPKT 042130Z 20006KT CAVOK 17/02 Q1013",
      "taf": "TAF EPKT 041730Z 0418/0518 25010KT CAVOK"
    },
    {
      "icao": "EPLB",
      "alert": "OK",
      "vis_m": 9999,
      "fzfg": false,
      "metar_trigger": false,
      "taf_trigger": false,
      "metar": "METAR EPLB 042130Z 22010KT CAVOK 17/03 Q1012",
      "taf": "TAF EPLB 041730Z 0418/0518 24008KT CAVOK"
    },
    {
      "icao": "EPMO",
      "alert": "OK",
      "vis_m": 9999,
      "fzfg": false,
      "metar_trigger": false,
      "taf_trigger": false,
      "metar": "METAR EPMO 042130Z 35003KT CAVOK 17/09 Q1011",
      "taf": "TAF EPMO 041730Z 0418/0518 21010KT CAVOK"
    },
    {
      "icao": "EPPO",
      "alert": "OK",
      "vis_m": 9999,
      "fzfg": false,
      "metar_trigger": false,
      "taf_trigger": false,
      "metar": "METAR EPPO 042130Z 01005KT CAVOK 16/10 Q1012",
      "taf": "TAF EPPO 041730Z 0418/0518 33005KT CAVOK"
    },
    {
      "icao": "EPRA",
      "alert": "OK",
      "vis_m": 9999,
      "fzfg": false,
      "metar_trigger": false,
      "taf_trigger": false,
      "metar": "METAR EPRA 042130Z 25006KT CAVOK 16/04 Q1012",
      "taf": "TAF EPRA 042030Z 0421/0506 22005KT CAVOK"
    },
    {
      "icao": "EPRZ",
      "alert": "OK",
      "vis_m": 9999,
      "fzfg": false,
      "metar_trigger": false,
      "taf_trigger": false,
      "metar": "METAR EPRZ 042130Z 21006KT CAVOK 17/03 Q1013",
      "taf": "TAF EPRZ 041730Z 0418/0518 18008KT CAVOK"
    },
    {
      "icao": "EPSC",
      "alert": "OK",
      "vis_m": 9999,
      "fzfg": false,
      "metar_trigger": false,
      "taf_trigger": false,
      "metar": "METAR EPSC 042130Z VRB01KT CAVOK 10/08 Q1012",
      "taf": "TAF EPSC 041730Z 0418/0518 01006KT CAVOK"
    },
    {
      "icao": "EPSY",
      "alert": "OK",
      "vis_m": 9999,
      "fzfg": false,
      "metar_trigger": false,
      "taf_trigger": false,
      "metar": "METAR EPSY 042130Z 36005KT CAVOK 14/11 Q1012",
      "taf": "TAF EPSY 042030Z 0421/0506 01008KT CAVOK"
    },
    {
      "icao": "EPWA",
      "alert": "OK",
      "vis_m": 9999,
      "fzfg": false,
      "metar_trigger": false,
      "taf_trigger": false,
      "metar": "METAR EPWA 042130Z 31005KT 270V330 CAVOK 17/07 Q1011 NOSIG",
      "taf": "TAF EPWA 042030Z 0421/0521 VRB02KT CAVOK"
    },
    {
      "icao": "EPWR",
      "alert": "OK",
      "vis_m": 9999,
      "fzfg": false,
      "metar_trigger": false,
      "taf_trigger": false,
      "metar": "METAR EPWR 042130Z VRB01KT CAVOK 15/09 Q1011",
      "taf": "TAF EPWR 042030Z 0421/0521 29005KT CAVOK"
    },
    {
      "icao": "ESGG",
      "alert": "OK",
      "vis_m": 9999,
      "fzfg": false,
      "metar_trigger": false,
      "taf_trigger": false,
      "metar": "METAR ESGG 042120Z 25011KT 9999 BKN015 08/05 Q1009",
      "taf": ""
    },
    {
      "icao": "ESKN",
      "alert": "OK",
      "vis_m": 9999,
      "fzfg": false,
      "metar_trigger": false,
      "taf_trigger": false,
      "metar": "METAR ESKN 042120Z 23009KT CAVOK 09/M01 Q1005",
      "taf": "TAF ESKN 042030Z 0421/0521 24005KT CAVOK"
    },
    {
      "icao": "ESMS",
      "alert": "OK",
      "vis_m": 9999,
      "fzfg": false,
      "metar_trigger": false,
      "taf_trigger": false,
      "metar": "METAR ESMS 042120Z 29005KT CAVOK 09/03 Q1011",
      "taf": "TAF ESMS 042027Z 0421/0521 28006KT CAVOK"
    },
    {
      "icao": "ESSA",
      "alert": "OK",
      "vis_m": 9999,
      "fzfg": false,
      "metar_trigger": false,
      "taf_trigger": false,
      "metar": "METAR ESSA 042120Z 22011KT CAVOK 10/M00 Q1002 NOSIG",
      "taf": "TAF ESSA 042030Z 0421/0521 22010KT CAVOK"
    },
    {
      "icao": "EYKA",
      "alert": "OK",
      "vis_m": 9999,
      "fzfg": false,
      "metar_trigger": false,
      "taf_trigger": false,
      "metar": "METAR EYKA 042150Z 26007KT CAVOK 14/08 Q1010",
      "taf": "TAF EYKA 041700Z 0418/0518 VRB03KT 9000 NSC"
    },
    {
      "icao": "EYPA",
      "alert": "OK",
      "vis_m": 8000,
      "fzfg": false,
      "metar_trigger": false,
      "taf_trigger": false,
      "metar": "METAR EYPA 042150Z 22004KT 180V260 8000 FEW006 07/07 Q1010",
      "taf": "TAF EYPA 041700Z 0418/0518 VRB03KT 1500 BR OVC002"
    },
    {
      "icao": "EYVI",
      "alert": "OK",
      "vis_m": 9999,
      "fzfg": false,
      "metar_trigger": false,
      "taf_trigger": false,
      "metar": "METAR EYVI 042150Z 30004KT CAVOK 16/11 Q1011 NOSIG",
      "taf": "TAF EYVI 041703Z 0418/0518 VRB03KT 9000 NSC"
    },
    {
      "icao": "GCFV",
      "alert": "OK",
      "vis_m": 9999,
      "fzfg": false,
      "metar_trigger": false,
      "taf_trigger": false,
      "metar": "METAR GCFV 042130Z 02011KT 9999 SCT018 19/16 Q1016",
      "taf": "TAF GCFV 042000Z 0421/0521 03010KT 9999 SCT020 TX22/0514Z TN18/0506Z"
    },
    {
      "icao": "GCLP",
      "alert": "OK",
      "vis_m": 9999,
      "fzfg": false,
      "metar_trigger": false,
      "taf_trigger": false,
      "metar": "METAR GCLP 042130Z 01012KT 9999 FEW040 20/16 Q1016 NOSIG",
      "taf": "TAF GCLP 042000Z 0421/0521 01012KT 9999 SCT020 TX24/0514Z TN18/0506Z"
    },
    {
      "icao": "GCTS",
      "alert": "OK",
      "vis_m": 9999,
      "fzfg": false,
      "metar_trigger": false,
      "taf_trigger": false,
      "metar": "METAR GCTS 042130Z 07008KT 9999 FEW025 21/13 Q1017 NOSIG",
      "taf": "TAF GCTS 042000Z 0421/0521 06010KT 9999 FEW025 TX24/0514Z TN18/0506Z"
    },
    {
      "icao": "GMAD",
      "alert": "OK",
      "vis_m": 8000,
      "fzfg": false,
      "metar_trigger": false,
      "taf_trigger": false,
      "metar": "METAR GMAD 042130Z 21011KT 8000 NSC 18/14 Q1012 NOSIG",
      "taf": "TAF GMAD 041700Z 0418/0524 20006KT 8000 NSC"
    },
    {
      "icao": "GMMN",
      "alert": "OK",
      "vis_m": 9999,
      "fzfg": false,
      "metar_trigger": false,
      "taf_trigger": false,
      "metar": "METAR GMMN 042130Z 03007KT 9999 FEW026 16/12 Q1018 NOSIG",
      "taf": "TAF GMMN 041700Z 0418/0524 34010KT 9999 SCT030"
    },
    {
      "icao": "GMMX",
      "alert": "OK",
      "vis_m": 9999,
      "fzfg": false,
      "metar_trigger": false,
      "taf_trigger": false,
      "metar": "METAR GMMX 042130Z 04010KT 360V080 9999 BKN030 19/11 Q1016 NOSIG",
      "taf": "TAF GMMX 041700Z 0418/0524 34006KT 9999 SCT040"
    },
    {
      "icao": "HEGN",
      "alert": "OK",
      "vis_m": 9999,
      "fzfg": false,
      "metar_trigger": false,
      "taf_trigger": false,
      "metar": "METAR HEGN 042100Z 31011KT CAVOK 22/04 Q1014 NOSIG",
      "taf": "TAF HEGN 041700Z 0418/0524 33010G20KT CAVOK"
    },
    {
      "icao": "HEMA",
      "alert": "OK",
      "vis_m": 9999,
      "fzfg": false,
      "metar_trigger": false,
      "taf_trigger": false,
      "metar": "METAR HEMA 042100Z 32012KT CAVOK 22/11 Q1013 NOSIG",
      "taf": "TAF HEMA 041700Z 0418/0524 34010G20KT CAVOK"
    },
    {
      "icao": "HESH",
      "alert": "OK",
      "vis_m": 9999,
      "fzfg": false,
      "metar_trigger": false,
      "taf_trigger": false,
      "metar": "METAR HESH 042100Z 34012KT CAVOK 24/10 Q1012 NOSIG",
      "taf": "TAF HESH 041700Z 0418/0524 36010G20KT CAVOK"
    },
    {
      "icao": "HESX",
      "alert": "OK",
      "vis_m": 9999,
      "fzfg": false,
      "metar_trigger": false,
      "taf_trigger": false,
      "metar": "METAR HESX 042100Z 35006KT CAVOK 14/06 Q1018 NOSIG",
      "taf": "TAF HESX 041700Z 0418/0524 30010KT 9999 FEW020"
    },
    {
      "icao": "LATI",
      "alert": "OK",
      "vis_m": 9999,
      "fzfg": false,
      "metar_trigger": false,
      "taf_trigger": false,
      "metar": "METAR LATI 042150Z 16005KT CAVOK 10/05 Q1019 NOSIG",
      "taf": "TAF LATI 041700Z 0418/0518 VRB03KT CAVOK TX24/0511Z TN06/0504Z"
    },
    {
      "icao": "LBPD",
      "alert": "OK",
      "vis_m": 9999,
      "fzfg": false,
      "metar_trigger": false,
      "taf_trigger": false,
      "metar": "METAR LBPD 042130Z AUTO VRB01KT 9999 BKN085/// OVC120/// 13/08 Q1016",
      "taf": "TAF LBPD 041700Z 0418/0518 33012KT 9999 SCT080"
    },
    {
      "icao": "LBSF",
      "alert": "OK",
      "vis_m": 9999,
      "fzfg": false,
      "metar_trigger": false,
      "taf_trigger": false,
      "metar": "METAR LBSF 042130Z AUTO 18003KT 9999 FEW089/// 08/04 Q1018 NOSIG",
      "taf": "TAF LBSF 041700Z 0418/0518 VRB04KT 9999 SCT080"
    },
    {
      "icao": "LBWN",
      "alert": "OK",
      "vis_m": 9999,
      "fzfg": false,
      "metar_trigger": false,
      "taf_trigger": false,
      "metar": "METAR LBWN 042130Z AUTO VRB02KT 9999 NCD 06/02 Q1016 NOSIG",
      "taf": "TAF LBWN 041700Z 0418/0518 VRB03KT CAVOK"
    },
    {
      "icao": "LCLK",
      "alert": "OK",
      "vis_m": 9999,
      "fzfg": false,
      "metar_trigger": false,
      "taf_trigger": false,
      "metar": "METAR LCLK 042130Z 30005KT 250V340 9999 FEW050 13/10 Q1010 NOSIG",
      "taf": "TAF LCLK 041730Z 0418/0518 28008KT 9999 FEW025 SCT045"
    },
    {
      "icao": "LCPH",
      "alert": "OK",
      "vis_m": 9999,
      "fzfg": false,
      "metar_trigger": false,
      "taf_trigger": false,
      "metar": "METAR LCPH 042130Z 08006KT 9999 FEW035 BKN060 13/11 Q1011 NOSIG",
      "taf": "TAF LCPH 041730Z 0418/0518 35008KT 9999 FEW025 SCT040"
    },
    {
      "icao": "LEAL",
      "alert": "OK",
      "vis_m": 9999,
      "fzfg": false,
      "metar_trigger": false,
      "taf_trigger": false,
      "metar": "METAR LEAL 042130Z VRB02KT CAVOK 19/15 Q1012 NOSIG",
      "taf": "TAF LEAL 041700Z 0418/0518 18009KT 9999 SCT020 TX25/0512Z TN15/0505Z"
    },
    {
      "icao": "LEBB",
      "alert": "OK",
      "vis_m": 9999,
      "fzfg": false,
      "metar_trigger": false,
      "taf_trigger": false,
      "metar": "METAR LEBB 042130Z VRB01KT 9999 SCT021 SCT045 14/12 Q1015 NOSIG",
      "taf": "TAF LEBB 041700Z 0418/0518 29009KT 9999 SCT020 BKN050 TX17/0512Z TN11/0506Z"
    },
    {
      "icao": "LEBL",
      "alert": "OK",
      "vis_m": 9999,
      "fzfg": false,
      "metar_trigger": false,
      "taf_trigger": false,
      "metar": "METAR LEBL 042130Z 30006KT 9999 FEW030 15/13 Q1012 NOSIG",
      "taf": ""
    },
    {
      "icao": "LECH",
      "alert": "OK",
      "vis_m": 4800,
      "fzfg": false,
      "metar_trigger": false,
      "taf_trigger": false,
      "metar": "METAR LECH 042130Z AUTO VRB02KT 4800 BR NCD 13/12 Q1013",
      "taf": "TAF LECH 041700Z 0418/0518 18010KT 9999 SCT025 TX22/0514Z TN13/0505Z"
    },
    {
      "icao": "LEMD",
      "alert": "OK",
      "vis_m": 9999,
      "fzfg": false,
      "metar_trigger": false,
      "taf_trigger": false,
      "metar": "METAR LEMD 042130Z 25006KT 9999 FEW070 14/04 Q1013 NOSIG",
      "taf": ""
    },
    {
      "icao": "LEMG",
      "alert": "OK",
      "vis_m": 9999,
      "fzfg": false,
      "metar_trigger": false,
      "taf_trigger": false,
      "metar": "METAR LEMG 042130Z 29008KT 260V320 CAVOK 19/06 Q1014 NOSIG",
      "taf": "TAF LEMG 041700Z 0418/0518 29009KT 9999 FEW045 TX26/0514Z TN15/0507Z"
    },
    {
      "icao": "LEVC",
      "alert": "OK",
      "vis_m": 9999,
      "fzfg": false,
      "metar_trigger": false,
      "taf_trigger": false,
      "metar": "METAR LEVC 042130Z 12003KT 090V150 9999 FEW010 17/15 Q1012 NOSIG",
      "taf": "TAF LEVC 041700Z 0418/0518 16010KT 9999 SCT020 TX26/0512Z TN12/0505Z"
    },
    {
      "icao": "LEXJ",
      "alert": "OK",
      "vis_m": 9999,
      "fzfg": false,
      "metar_trigger": false,
      "taf_trigger": false,
      "metar": "METAR LEXJ 042130Z AUTO 24005KT 200V280 9999 -RA BKN070 BKN080 11/10 Q1016",
      "taf": "TAF LEXJ 042000Z 0421/0521 26009KT 9999 SCT030 BKN050 TX17/0513Z TN11/0505Z"
    },
    {
      "icao": "LEZG",
      "alert": "OK",
      "vis_m": 9999,
      "fzfg": false,
      "metar_trigger": false,
      "taf_trigger": false,
      "metar": "METAR LEZG 042130Z 27009KT 9999 FEW085 13/11 Q1013 NOSIG",
      "taf": "TAF LEZG 041700Z 0418/0518 27010KT 9999 SCT030 TX19/0514Z TN10/0505Z"
    },
    {
      "icao": "LEZL",
      "alert": "OK",
      "vis_m": 9999,
      "fzfg": false,
      "metar_trigger": false,
      "taf_trigger": false,
      "metar": "METAR LEZL 042130Z 20005KT 170V230 CAVOK 18/11 Q1015 NOSIG",
      "taf": "TAF LEZL 042000Z 0421/0521 24010KT CAVOK TX27/0515Z TN12/0507Z"
    },
    {
      "icao": "LFBD",
      "alert": "OK",
      "vis_m": 9999,
      "fzfg": false,
      "metar_trigger": false,
      "taf_trigger": false,
      "metar": "METAR LFBD 042130Z AUTO 26005KT CAVOK 13/11 Q1013 NOSIG",
      "taf": "TAF LFBD 041700Z 0418/0524 30010KT 9999 BKN030 TX16/0512Z TN10/0505Z"
    },
    {
      "icao": "LFLL",
      "alert": "OK",
      "vis_m": 9000,
      "fzfg": false,
      "metar_trigger": false,
      "taf_trigger": false,
      "metar": "METAR LFLL 042130Z 15004KT 9000 RA FEW063TCU BKN080 13/12 Q1012 TEMPO 4000 RA",
      "taf": "TAF LFLL 041700Z 0418/0524 16007KT 9999 -RA FEW007 OVC060"
    },
    {
      "icao": "LFLS",
      "alert": "OK",
      "vis_m": 5000,
      "fzfg": false,
      "metar_trigger": false,
      "taf_trigger": false,
      "metar": "METAR LFLS 042130Z AUTO 24005KT 5000 BR BKN002/// BKN017/// BKN074/// ///CB 12/11 Q1013",
      "taf": "TAF LFLS 041400Z 0415/0515 VRB02KT 9999 BKN050"
    },
    {
      "icao": "LFMN",
      "alert": "OK",
      "vis_m": 9999,
      "fzfg": false,
      "metar_trigger": false,
      "taf_trigger": false,
      "metar": "METAR LFMN 042130Z 01006KT 9999 -RA SCT030 BKN040 BKN050 16/13 Q1015 NOSIG",
      "taf": "TAF LFMN 042000Z 0421/0603 36010KT 9999 BKN050"
    },
    {
      "icao": "LFOB",
      "alert": "OK",
      "vis_m": 5000,
      "fzfg": false,
      "metar_trigger": false,
      "taf_trigger": false,
      "metar": "METAR LFOB 042130Z AUTO 34006KT 5000 BR BKN007 BKN080 BKN100 14/13 Q1012 NOSIG",
      "taf": ""
    },
    {
      "icao": "LFPO",
      "alert": "OK",
      "vis_m": 7000,
      "fzfg": false,
      "metar_trigger": false,
      "taf_trigger": false,
      "metar": "METAR LFPO 042130Z AUTO 35003KT 7000 BKN008 BKN068 OVC084 15/14 Q1011 BECMG FEW013 BKN050",
      "taf": "TAF LFPO 041700Z 0418/0524 36005KT 9999 FEW013 BKN050"
    },
    {
      "icao": "LFSB",
      "alert": "OK",
      "vis_m": 4500,
      "fzfg": false,
      "metar_trigger": false,
      "taf_trigger": false,
      "metar": "METAR LFSB 042130Z AUTO 00000KT 4500 1600 BR NSC 13/12 Q1013 BECMG 9999 NSW",
      "taf": ""
    },
    {
      "icao": "LGAV",
      "alert": "OK",
      "vis_m": 9999,
      "fzfg": false,
      "metar_trigger": false,
      "taf_trigger": false,
      "metar": "METAR LGAV 042120Z 28004KT 260V320 9999 FEW030 10/04 Q1018 NOSIG",
      "taf": "TAF LGAV 041700Z 0418/0518 VRB05KT 9999 FEW025"
    },
    {
      "icao": "LGTS",
      "alert": "OK",
      "vis_m": 9999,
      "fzfg": false,
      "metar_trigger": false,
      "taf_trigger": false,
      "metar": "METAR LGTS 042120Z 11007KT CAVOK 10/06 Q1017 NOSIG",
      "taf": "TAF LGTS 041700Z 0418/0518 VRB03KT CAVOK"
    },
    {
      "icao": "LHBP",
      "alert": "OK",
      "vis_m": 9999,
      "fzfg": false,
      "metar_trigger": false,
      "taf_trigger": false,
      "metar": "METAR LHBP 042130Z 11004KT CAVOK 13/02 Q1015 NOSIG",
      "taf": "TAF LHBP 041715Z 0418/0518 18007KT CAVOK"
    },
    {
      "icao": "LHDC",
      "alert": "OK",
      "vis_m": 9999,
      "fzfg": false,
      "metar_trigger": false,
      "taf_trigger": false,
      "metar": "METAR LHDC 042115Z AUTO 15001KT CAVOK 13/03 Q1016",
      "taf": "TAF LHDC 041415Z 0415/0424 20006KT CAVOK"
    },
    {
      "icao": "LIBD",
      "alert": "OK",
      "vis_m": 9999,
      "fzfg": false,
      "metar_trigger": false,
      "taf_trigger": false,
      "metar": "METAR LIBD 042120Z 22004KT CAVOK 14/09 Q1017",
      "taf": "TAF LIBD 041700Z 0418/0518 VRB05KT CAVOK"
    },
    {
      "icao": "LIBG",
      "alert": "OK",
      "vis_m": null,
      "fzfg": false,
      "metar_trigger": false,
      "taf_trigger": false,
      "metar": "",
      "taf": "TAF LIBG 041400Z 0415/0424 VRB05KT CAVOK"
    },
    {
      "icao": "LIBP",
      "alert": "OK",
      "vis_m": 9999,
      "fzfg": false,
      "metar_trigger": false,
      "taf_trigger": false,
      "metar": "METAR LIBP 042120Z AUTO 22004KT 9999 NCD 14/13 Q1017",
      "taf": "TAF LIBP 041700Z 0418/0518 VRB05KT CAVOK"
    },
    {
      "icao": "LIBR",
      "alert": "OK",
      "vis_m": 9999,
      "fzfg": false,
      "metar_trigger": false,
      "taf_trigger": false,
      "metar": "METAR LIBR 042120Z 17003KT 130V190 CAVOK 16/13 Q1018",
      "taf": "TAF LIBR 041700Z 0418/0518 14006KT CAVOK"
    },
    {
      "icao": "LICA",
      "alert": "OK",
      "vis_m": 9999,
      "fzfg": false,
      "metar_trigger": false,
      "taf_trigger": false,
      "metar": "METAR LICA 042120Z AUTO 08005KT 9999 NCD 13/12 Q1019",
      "taf": "TAF LICA 041700Z 0418/0518 VRB05KT 9999 FEW020"
    },
    {
      "icao": "LICC",
      "alert": "OK",
      "vis_m": 9999,
      "fzfg": false,
      "metar_trigger": false,
      "taf_trigger": false,
      "metar": "METAR LICC 042120Z 25007KT CAVOK 17/10 Q1019",
      "taf": "TAF LICC 041700Z 0418/0518 24007KT CAVOK"
    },
    {
      "icao": "LICJ",
      "alert": "OK",
      "vis_m": 9999,
      "fzfg": false,
      "metar_trigger": false,
      "taf_trigger": false,
      "metar": "METAR LICJ 042120Z 22006KT CAVOK 17/13 Q1018",
      "taf": "TAF LICJ 041700Z 0418/0518 05010KT CAVOK"
    },
    {
      "icao": "LIMC",
      "alert": "OK",
      "vis_m": 9999,
      "fzfg": false,
      "metar_trigger": false,
      "taf_trigger": false,
      "metar": "METAR LIMC 042120Z 22004KT 190V260 9999 BKN070 17/10 Q1016 NOSIG",
      "taf": "TAF LIMC 041700Z 0418/0524 VRB05KT 9999 SCT030"
    },
    {
      "icao": "LIME",
      "alert": "OK",
      "vis_m": 9999,
      "fzfg": false,
      "metar_trigger": false,
      "taf_trigger": false,
      "metar": "METAR LIME 042120Z 30004KT CAVOK 15/06 Q1016 NOSIG",
      "taf": "TAF LIME 041700Z 0418/0518 25006KT 9999 BKN040"
    },
    {
      "icao": "LIMF",
      "alert": "OK",
      "vis_m": 9999,
      "fzfg": false,
      "metar_trigger": false,
      "taf_trigger": false,
      "metar": "METAR LIMF 042120Z 29009KT 9999 SCT040 BKN090 14/07 Q1017",
      "taf": ""
    },
    {
      "icao": "LIMJ",
      "alert": "OK",
      "vis_m": 9999,
      "fzfg": false,
      "metar_trigger": false,
      "taf_trigger": false,
      "metar": "METAR LIMJ 042120Z 12012KT 9999 FEW020 SCT040 BKN060 18/15 Q1017",
      "taf": "TAF LIMJ 041700Z 0418/0518 15008KT 9999 SCT020"
    },
    {
      "icao": "LIPE",
      "alert": "OK",
      "vis_m": 9999,
      "fzfg": false,
      "metar_trigger": false,
      "taf_trigger": false,
      "metar": "METAR LIPE 042120Z 19006KT CAVOK 20/09 Q1015",
      "taf": "TAF LIPE 041700Z 0418/0518 19010KT CAVOK"
    },
    {
      "icao": "LIPH",
      "alert": "OK",
      "vis_m": 9999,
      "fzfg": false,
      "metar_trigger": false,
      "taf_trigger": false,
      "metar": "METAR LIPH 042120Z AUTO 04004KT 9999 FEW077/// 17/11 Q1016",
      "taf": "TAF LIPH 041700Z 0418/0518 16010KT CAVOK"
    },
    {
      "icao": "LIPQ",
      "alert": "OK",
      "vis_m": 9999,
      "fzfg": false,
      "metar_trigger": false,
      "taf_trigger": false,
      "metar": "METAR LIPQ 042120Z AUTO VRB01KT 9999 FEW180/// SCT230/// 13/10 Q1017",
      "taf": "TAF LIPQ 041700Z 0418/0518 VRB05KT CAVOK"
    },
    {
      "icao": "LIPR",
      "alert": "OK",
      "vis_m": 9999,
      "fzfg": false,
      "metar_trigger": false,
      "taf_trigger": false,
      "metar": "METAR LIPR 042120Z AUTO 19005KT 9999 NCD 17/09 Q1016",
      "taf": "TAF LIPR 041700Z 0418/0518 16010KT CAVOK"
    },
    {
      "icao": "LIPX",
      "alert": "OK",
      "vis_m": 9999,
      "fzfg": false,
      "metar_trigger": false,
      "taf_trigger": false,
      "metar": "METAR LIPX 042120Z 02004KT CAVOK 14/07 Q1015",
      "taf": "TAF LIPX 041700Z 0418/0518 VRB05KT 9999 SCT030"
    },
    {
      "icao": "LIPY",
      "alert": "OK",
      "vis_m": 9999,
      "fzfg": false,
      "metar_trigger": false,
      "taf_trigger": false,
      "metar": "METAR LIPY 042120Z AUTO 22003KT 9999 SCT081/// 15/10 Q1017",
      "taf": "TAF LIPY 041700Z 0418/0518 VRB05KT CAVOK"
    },
    {
      "icao": "LIPZ",
      "alert": "OK",
      "vis_m": 9999,
      "fzfg": false,
      "metar_trigger": false,
      "taf_trigger": false,
      "metar": "METAR LIPZ 042120Z 11004KT CAVOK 17/14 Q1016 NOSIG",
      "taf": "TAF LIPZ 041700Z 0418/0524 17010KT CAVOK"
    },
    {
      "icao": "LIRF",
      "alert": "OK",
      "vis_m": 9999,
      "fzfg": false,
      "metar_trigger": false,
      "taf_trigger": false,
      "metar": "METAR LIRF 042120Z 14006KT CAVOK 17/13 Q1018 NOSIG",
      "taf": "TAF LIRF 041700Z 0418/0524 17013KT 9999 SCT040"
    },
    {
      "icao": "LIRN",
      "alert": "OK",
      "vis_m": 9999,
      "fzfg": false,
      "metar_trigger": false,
      "taf_trigger": false,
      "metar": "METAR LIRN 042120Z 34004KT 310V010 CAVOK 17/09 Q1019 NOSIG",
      "taf": "TAF LIRN 041700Z 0418/0518 VRB05KT 9999 FEW050"
    },
    {
      "icao": "LIRP",
      "alert": "OK",
      "vis_m": 9999,
      "fzfg": false,
      "metar_trigger": false,
      "taf_trigger": false,
      "metar": "METAR LIRP 042115Z 10006KT 9999 BKN080 16/11 Q1017 NOSIG",
      "taf": "TAF LIRP 041700Z 0418/0518 20007KT 9999 SCT030 BKN070"
    },
    {
      "icao": "LIRZ",
      "alert": "OK",
      "vis_m": 9999,
      "fzfg": false,
      "metar_trigger": false,
      "taf_trigger": false,
      "metar": "METAR LIRZ 042120Z AUTO 03004KT 320V060 9999 NCD 10/07 Q1018",
      "taf": "TAF LIRZ 041700Z 0418/0518 VRB05KT 9999 SCT060"
    },
    {
      "icao": "LJLJ",
      "alert": "OK",
      "vis_m": 9999,
      "fzfg": false,
      "metar_trigger": false,
      "taf_trigger": false,
      "metar": "METAR LJLJ 042130Z 34003KT 310V010 CAVOK 14/06 Q1016 NOSIG",
      "taf": "TAF LJLJ 041700Z 0418/0518 VRB02KT CAVOK"
    },
    {
      "icao": "LKMT",
      "alert": "OK",
      "vis_m": 9999,
      "fzfg": false,
      "metar_trigger": false,
      "taf_trigger": false,
      "metar": "METAR LKMT 042130Z 07003KT 040V100 CAVOK 11/03 Q1013 NOSIG",
      "taf": "TAF LKMT 041700Z 0418/0518 20016KT CAVOK"
    },
    {
      "icao": "LKPR",
      "alert": "OK",
      "vis_m": 9999,
      "fzfg": false,
      "metar_trigger": false,
      "taf_trigger": false,
      "metar": "METAR LKPR 042130Z VRB02KT 9999 -SHRA NSC 15/08 Q1012 TEMPO SCT060TCU",
      "taf": "TAF LKPR 042000Z 0421/0603 VRB02KT CAVOK"
    },
    {
      "icao": "LLBG",
      "alert": "OK",
      "vis_m": 9999,
      "fzfg": false,
      "metar_trigger": false,
      "taf_trigger": false,
      "metar": "METAR LLBG 042150Z 26014KT 9999 SCT050 17/07 Q1015 NOSIG RMK SCT070",
      "taf": "TAF LLBG 041704Z 0418/0518 20007KT 9999 SCT035 TX20/0511Z TN15/0503Z"
    },
    {
      "icao": "LMML",
      "alert": "OK",
      "vis_m": 9999,
      "fzfg": false,
      "metar_trigger": false,
      "taf_trigger": false,
      "metar": "METAR LMML 042145Z 15006KT 9999 FEW020 15/12 Q1020 NOSIG",
      "taf": "TAF LMML 041700Z 0418/0518 17008KT 9999 FEW020"
    },
    {
      "icao": "LOWW",
      "alert": "OK",
      "vis_m": 9999,
      "fzfg": false,
      "metar_trigger": false,
      "taf_trigger": false,
      "metar": "METAR LOWW 042120Z 14008KT CAVOK 17/06 Q1011 NOSIG",
      "taf": "TAF LOWW 042015Z 0421/0603 15010KT CAVOK TX27/0513Z TN14/0504Z"
    },
    {
      "icao": "LPFR",
      "alert": "OK",
      "vis_m": 9999,
      "fzfg": false,
      "metar_trigger": false,
      "taf_trigger": false,
      "metar": "METAR LPFR 042130Z 30011KT CAVOK 16/09 Q1017",
      "taf": "TAF LPFR 041700Z 0418/0518 24018KT 9999 FEW025"
    },
    {
      "icao": "LPMA",
      "alert": "OK",
      "vis_m": 9999,
      "fzfg": false,
      "metar_trigger": false,
      "taf_trigger": false,
      "metar": "METAR LPMA 042130Z 06003KT 010V110 9999 VCSH BKN008 19/17 Q1017",
      "taf": ""
    },
    {
      "icao": "LPPR",
      "alert": "OK",
      "vis_m": 9999,
      "fzfg": false,
      "metar_trigger": false,
      "taf_trigger": false,
      "metar": "METAR LPPR 042130Z 33005KT 9999 FEW025 13/09 Q1017",
      "taf": "TAF LPPR 041700Z 0418/0518 30010KT 9999 SCT025"
    },
    {
      "icao": "LPPS",
      "alert": "OK",
      "vis_m": 9999,
      "fzfg": false,
      "metar_trigger": false,
      "taf_trigger": false,
      "metar": "METAR LPPS 042130Z 13004KT 9999 -RA FEW004 BKN009 19/17 Q1017",
      "taf": ""
    },
    {
      "icao": "LPPT",
      "alert": "OK",
      "vis_m": 9999,
      "fzfg": false,
      "metar_trigger": false,
      "taf_trigger": false,
      "metar": "METAR LPPT 042130Z 30005KT 9999 FEW015 13/09 Q1019",
      "taf": "TAF LPPT 041700Z 0418/0524 33012KT 9999 SCT030"
    },
    {
      "icao": "LQBK",
      "alert": "OK",
      "vis_m": 9999,
      "fzfg": false,
      "metar_trigger": false,
      "taf_trigger": false,
      "metar": "METAR LQBK 042130Z VRB02KT CAVOK 10/04 Q1016 NOSIG",
      "taf": "TAF LQBK 041700Z 0418/0518 20005KT CAVOK TX25/0513Z TN06/0504Z"
    },
    {
      "icao": "LQSA",
      "alert": "OK",
      "vis_m": 9999,
      "fzfg": false,
      "metar_trigger": false,
      "taf_trigger": false,
      "metar": "METAR LQSA 042130Z 15001KT CAVOK 10/04 Q1018",
      "taf": "TAF LQSA 041700Z 0418/0518 15005KT CAVOK TX23/0514Z TN05/0504Z"
    },
    {
      "icao": "LQTZ",
      "alert": "OK",
      "vis_m": 9999,
      "fzfg": false,
      "metar_trigger": false,
      "taf_trigger": false,
      "metar": "METAR LQTZ 042130Z 34003KT 280V350 CAVOK 09/06 Q1016",
      "taf": "TAF LQTZ 041700Z 0418/0518 VRB02KT CAVOK TX27/0513Z TN06/0504Z"
    },
    {
      "icao": "LRBC",
      "alert": "OK",
      "vis_m": 9999,
      "fzfg": false,
      "metar_trigger": false,
      "taf_trigger": false,
      "metar": "METAR LRBC 042130Z 18003KT 150V220 CAVOK 10/03 Q1015",
      "taf": "TAF LRBC 042000Z 0421/0506 VRB04KT CAVOK"
    },
    {
      "icao": "LRBS",
      "alert": "OK",
      "vis_m": 9999,
      "fzfg": false,
      "metar_trigger": false,
      "taf_trigger": false,
      "metar": "METAR LRBS 042130Z 02003KT CAVOK 11/07 Q1015 NOSIG",
      "taf": "TAF LRBS 041700Z 0418/0518 VRB04KT CAVOK"
    },
    {
      "icao": "LRBV",
      "alert": "OK",
      "vis_m": 9999,
      "fzfg": false,
      "metar_trigger": false,
      "taf_trigger": false,
      "metar": "METAR LRBV 042130Z AUTO 21007KT 9999 NCD 10/06 Q1016 REDZ",
      "taf": "TAF LRBV 041700Z 0418/0503 VRB04KT 9999 FEW045CB"
    },
    {
      "icao": "LRCL",
      "alert": "OK",
      "vis_m": 9999,
      "fzfg": false,
      "metar_trigger": false,
      "taf_trigger": false,
      "metar": "METAR LRCL 042130Z 27006KT CAVOK 12/03 Q1017",
      "taf": "TAF LRCL 042000Z 0421/0506 VRB04KT CAVOK"
    },
    {
      "icao": "LRCV",
      "alert": "OK",
      "vis_m": 9999,
      "fzfg": false,
      "metar_trigger": false,
      "taf_trigger": false,
      "metar": "METAR LRCV 042130Z 01005KT 340V060 CAVOK 12/07 Q1015",
      "taf": "TAF LRCV 042000Z 0421/0506 31008KT CAVOK"
    },
    {
      "icao": "LRIA",
      "alert": "OK",
      "vis_m": 9999,
      "fzfg": false,
      "metar_trigger": false,
      "taf_trigger": false,
      "metar": "METAR LRIA 042130Z 19005KT CAVOK 16/03 Q1015",
      "taf": "TAF LRIA 042000Z 0421/0506 VRB04KT CAVOK"
    },
    {
      "icao": "LROP",
      "alert": "OK",
      "vis_m": 9999,
      "fzfg": false,
      "metar_trigger": false,
      "taf_trigger": false,
      "metar": "METAR LROP 042130Z 05003KT 360V080 CAVOK 12/08 Q1015 NOSIG",
      "taf": "TAF LROP 041700Z 0418/0518 VRB04KT CAVOK"
    },
    {
      "icao": "LRSB",
      "alert": "OK",
      "vis_m": 9999,
      "fzfg": false,
      "metar_trigger": false,
      "taf_trigger": false,
      "metar": "METAR LRSB 042130Z 25004KT CAVOK 11/05 Q1017",
      "taf": "TAF LRSB 041700Z 0418/0518 33006KT CAVOK"
    },
    {
      "icao": "LRSM",
      "alert": "OK",
      "vis_m": 9999,
      "fzfg": false,
      "metar_trigger": false,
      "taf_trigger": false,
      "metar": "METAR LRSM 042130Z AUTO 21006KT 9999 NCD 12/03 Q1016",
      "taf": "TAF LRSM 041400Z 0415/0424 VRB04KT CAVOK"
    },
    {
      "icao": "LRSV",
      "alert": "OK",
      "vis_m": 9999,
      "fzfg": false,
      "metar_trigger": false,
      "taf_trigger": false,
      "metar": "METAR LRSV 042130Z 23006KT CAVOK 15/04 Q1015",
      "taf": "TAF LRSV 042000Z 0421/0506 VRB04KT CAVOK"
    },
    {
      "icao": "LRTM",
      "alert": "OK",
      "vis_m": 9999,
      "fzfg": false,
      "metar_trigger": false,
      "taf_trigger": false,
      "metar": "METAR LRTM 042130Z 28003KT CAVOK 11/04 Q1016",
      "taf": "TAF LRTM 042000Z 0421/0506 VRB04KT CAVOK"
    },
    {
      "icao": "LRTR",
      "alert": "OK",
      "vis_m": 9999,
      "fzfg": false,
      "metar_trigger": false,
      "taf_trigger": false,
      "metar": "METAR LRTR 042130Z VRB02KT CAVOK 09/04 Q1016",
      "taf": "TAF LRTR 041700Z 0418/0518 VRB04KT CAVOK"
    },
    {
      "icao": "LTAC",
      "alert": "OK",
      "vis_m": 9999,
      "fzfg": false,
      "metar_trigger": false,
      "taf_trigger": false,
      "metar": "METAR LTAC 042120Z 24005KT 9999 SCT040 BKN100 02/00 Q1011 NOSIG RMK RWY21C 21003KT RWY03L 23005KT RWY21R 00000KT RWY03R 21004KT RWY21L 17004KT",
      "taf": "TAF LTAC 041640Z 0418/0518 32008KT 9999 SCT040 BKN100"
    },
    {
      "icao": "LTFM",
      "alert": "OK",
      "vis_m": 9999,
      "fzfg": false,
      "metar_trigger": false,
      "taf_trigger": false,
      "metar": "METAR LTFM 042120Z 31005KT 280V340 CAVOK 11/02 Q1015 NOSIG RMK RWY17L 29006KT RWY34L 29006KT RWY16R VRB02KT RWY36 32007KT RWY18 31004KT",
      "taf": "TAF LTFM 041640Z 0418/0524 34012KT CAVOK"
    },
    {
      "icao": "LUKK",
      "alert": "OK",
      "vis_m": 9999,
      "fzfg": false,
      "metar_trigger": false,
      "taf_trigger": false,
      "metar": "METAR LUKK 042130Z 28007KT CAVOK 12/02 Q1015 NOSIG",
      "taf": "TAF LUKK 041702Z 0418/0518 VRB04KT CAVOK"
    },
    {
      "icao": "LWOH",
      "alert": "OK",
      "vis_m": null,
      "fzfg": false,
      "metar_trigger": false,
      "taf_trigger": false,
      "metar": "",
      "taf": "TAF LWOH 042030Z 0421/0521 VRB02KT CAVOK"
    },
    {
      "icao": "LWSK",
      "alert": "OK",
      "vis_m": 9999,
      "fzfg": false,
      "metar_trigger": false,
      "taf_trigger": false,
      "metar": "METAR LWSK 042150Z 03003KT CAVOK 08/03 Q1018 NOSIG",
      "taf": "TAF LWSK 042030Z 0421/0521 VRB02KT CAVOK"
    },
    {
      "icao": "LYBE",
      "alert": "OK",
      "vis_m": 9999,
      "fzfg": false,
      "metar_trigger": false,
      "taf_trigger": false,
      "metar": "METAR LYBE 042130Z 16005KT CAVOK 15/03 Q1016 NOSIG",
      "taf": "TAF LYBE 041700Z 0418/0518 13005KT CAVOK TX28/0513Z TN09/0504Z"
    },
    {
      "icao": "LYNI",
      "alert": "OK",
      "vis_m": 9999,
      "fzfg": false,
      "metar_trigger": false,
      "taf_trigger": false,
      "metar": "METAR LYNI 042130Z 10003KT 080V140 CAVOK 12/05 Q1018 NOSIG",
      "taf": "TAF LYNI 041700Z 0418/0518 18004KT CAVOK TX27/0513Z TN05/0504Z"
    },
    {
      "icao": "LYPG",
      "alert": "OK",
      "vis_m": 9999,
      "fzfg": false,
      "metar_trigger": false,
      "taf_trigger": false,
      "metar": "METAR LYPG 042130Z 21001KT CAVOK 15/06 Q1019 NOSIG",
      "taf": "TAF LYPG 041700Z 0418/0518 35004KT CAVOK TX25/0514Z TN09/0503Z"
    },
    {
      "icao": "LZIB",
      "alert": "OK",
      "vis_m": 9999,
      "fzfg": false,
      "metar_trigger": false,
      "taf_trigger": false,
      "metar": "METAR LZIB 042130Z VRB01KT CAVOK 17/04 Q1012 NOSIG",
      "taf": "TAF LZIB 041715Z 0418/0518 17012KT CAVOK"
    },
    {
      "icao": "LZKZ",
      "alert": "OK",
      "vis_m": 9999,
      "fzfg": false,
      "metar_trigger": false,
      "taf_trigger": false,
      "metar": "METAR LZKZ 042130Z 35004KT CAVOK 12/03 Q1015 NOSIG",
      "taf": "TAF LZKZ 041715Z 0418/0518 21013KT CAVOK"
    },
    {
      "icao": "LZTT",
      "alert": "OK",
      "vis_m": 9999,
      "fzfg": false,
      "metar_trigger": false,
      "taf_trigger": false,
      "metar": "METAR LZTT 042130Z 26005KT CAVOK 11/M01 Q1016",
      "taf": "TAF LZTT 041715Z 0418/0518 25013KT CAVOK"
    },
    {
      "icao": "OEJN",
      "alert": "OK",
      "vis_m": 9999,
      "fzfg": false,
      "metar_trigger": false,
      "taf_trigger": false,
      "metar": "METAR OEJN 042100Z 34009KT CAVOK 27/21 Q1008 NOSIG",
      "taf": "TAF OEJN 041700Z 0418/0524 36006KT 7000 NSC"
    },
    {
      "icao": "OEMA",
      "alert": "OK",
      "vis_m": 9999,
      "fzfg": false,
      "metar_trigger": false,
      "taf_trigger": false,
      "metar": "METAR OEMA 042100Z 27010KT CAVOK 33/05 Q1013 NOSIG",
      "taf": "TAF OEMA 041700Z 0418/0524 34005KT CAVOK"
    },
    {
      "icao": "OJAI",
      "alert": "OK",
      "vis_m": 4000,
      "fzfg": false,
      "metar_trigger": false,
      "taf_trigger": false,
      "metar": "METAR OJAI 042100Z 25011KT 4000 DU SCT030 11/06 Q1017 NOSIG",
      "taf": "TAF OJAI 041658Z 0418/0524 26018KT 4000 BLDU SCT030"
    },
    {
      "icao": "OMAA",
      "alert": "OK",
      "vis_m": 9999,
      "fzfg": false,
      "metar_trigger": false,
      "taf_trigger": false,
      "metar": "METAR OMAA 042130Z 26004KT CAVOK 28/19 Q1004 NOSIG",
      "taf": "TAF OMAA 041700Z 0418/0600 18005KT 8000 NSC"
    },
    {
      "icao": "OMDB",
      "alert": "OK",
      "vis_m": 9999,
      "fzfg": false,
      "metar_trigger": false,
      "taf_trigger": false,
      "metar": "METAR OMDB 042130Z 19006KT CAVOK 28/19 Q1004 NOSIG",
      "taf": "TAF OMDB 041700Z 0418/0600 19005KT CAVOK"
    },
    {
      "icao": "UAAA",
      "alert": "OK",
      "vis_m": 9999,
      "fzfg": false,
      "metar_trigger": false,
      "taf_trigger": false,
      "metar": "METAR UAAA 042130Z 19002MPS 9999 FEW200 10/08 Q1017 NOSIG",
      "taf": "TAF UAAA 041700Z 0418/0518 21002MPS 9999 SCT100 TX23/0508Z TN10/0501Z"
    },
    {
      "icao": "UBBB",
      "alert": "OK",
      "vis_m": 9999,
      "fzfg": false,
      "metar_trigger": false,
      "taf_trigger": false,
      "metar": "METAR UBBB 042130Z 35010KT 9999 FEW008 10/09 Q1009 NOSIG",
      "taf": "TAF UBBB 041706Z 0418/0518 32012KT 9999 BKN010 BKN030 TX18/0510Z TN09/0501Z"
    },
    {
      "icao": "UDSG",
      "alert": "OK",
      "vis_m": 9999,
      "fzfg": false,
      "metar_trigger": false,
      "taf_trigger": false,
      "metar": "METAR UDSG 042130Z 19004KT 140V250 9999 SCT043CB 08/02 Q1011 NOSIG",
      "taf": "TAF UDSG 041700Z 0418/0518 23006KT 9999 SCT040"
    },
    {
      "icao": "UDYZ",
      "alert": "OK",
      "vis_m": 9999,
      "fzfg": false,
      "metar_trigger": false,
      "taf_trigger": false,
      "metar": "METAR UDYZ 042130Z 27009KT 9999 SCT043CB 15/02 Q1008 NOSIG",
      "taf": "TAF UDYZ 041700Z 0418/0518 02006KT 9999 SCT040"
    },
    {
      "icao": "UGKO",
      "alert": "OK",
      "vis_m": 9999,
      "fzfg": false,
      "metar_trigger": false,
      "taf_trigger": false,
      "metar": "METAR UGKO 042130Z VRB04KT 9999 BKN090 11/09 Q1008 NOSIG",
      "taf": "TAF UGKO 041700Z 0418/0518 26007KT 9999 SCT020 BKN040 TX17/0511Z TN10/0503Z"
    }
  ]
}