{
  "ts_utc": "2026-03-28T22:49:50Z",
  "threshold_m": 150,
  "source": "stations_override.txt (ICAO list) + aviationweather.gov (METAR/TAF raw)",
  "station_count": 159,
  "stations": [
    {
      "icao": "BIKF",
      "alert": "OK",
      "vis_m": 9999,
      "fzfg": false,
      "metar_trigger": false,
      "taf_trigger": false,
      "metar": "METAR BIKF 282230Z 15010KT 9999 -RA FEW014 BKN026 03/02 Q0976",
      "taf": "TAF BIKF 281952Z 2821/2921 12044G58KT 2500 -RASN BR OVC009 TX04/2912Z TN01/2906Z"
    },
    {
      "icao": "BKPR",
      "alert": "OK",
      "vis_m": 9999,
      "fzfg": false,
      "metar_trigger": false,
      "taf_trigger": false,
      "metar": "METAR BKPR 282230Z 04002KT 9999 BKN025 02/02 Q1005 NOSIG",
      "taf": "TAF BKPR 281730Z 2818/2918 35008KT 9999 SCT010 BKN025"
    },
    {
      "icao": "EBCI",
      "alert": "OK",
      "vis_m": 9999,
      "fzfg": false,
      "metar_trigger": false,
      "taf_trigger": false,
      "metar": "METAR EBCI 282220Z 34008KT 300V360 9999 -SHRA FEW025TCU SCT047 04/01 Q1027 TEMPO 4000 SHRA",
      "taf": "TAF EBCI 281700Z 2818/2924 30010KT 9999 SCT030"
    },
    {
      "icao": "EDDB",
      "alert": "OK",
      "vis_m": 9999,
      "fzfg": false,
      "metar_trigger": false,
      "taf_trigger": false,
      "metar": "METAR EDDB 282220Z AUTO 34008KT 9999 -RA SCT010 BKN015 BKN020 04/03 Q1020 TEMPO BKN009",
      "taf": "TAF EDDB 281700Z 2818/2918 29006KT 9999 SCT020 BKN030"
    },
    {
      "icao": "EDDH",
      "alert": "OK",
      "vis_m": 9999,
      "fzfg": false,
      "metar_trigger": false,
      "taf_trigger": false,
      "metar": "METAR EDDH 282220Z AUTO 24002KT CAVOK 01/00 Q1021 NOSIG",
      "taf": "TAF EDDH 281700Z 2818/2924 27006KT 9999 SCT025"
    },
    {
      "icao": "EDDK",
      "alert": "OK",
      "vis_m": 9999,
      "fzfg": false,
      "metar_trigger": false,
      "taf_trigger": false,
      "metar": "METAR EDDK 282220Z AUTO 33003KT CAVOK 02/M01 Q1024 NOSIG",
      "taf": "TAF EDDK 281700Z 2818/2924 31006KT 9999 SCT030"
    },
    {
      "icao": "EDDN",
      "alert": "OK",
      "vis_m": 8000,
      "fzfg": false,
      "metar_trigger": false,
      "taf_trigger": false,
      "metar": "METAR EDDN 282220Z AUTO 31006KT 280V350 8000 -RADZ OVC004 01/00 Q1021",
      "taf": ""
    },
    {
      "icao": "EDDS",
      "alert": "OK",
      "vis_m": 9999,
      "fzfg": false,
      "metar_trigger": false,
      "taf_trigger": false,
      "metar": "METAR EDDS 282220Z AUTO 31009KT 280V340 9999 BKN009 BKN012 OVC016 03/01 Q1022",
      "taf": "TAF EDDS 281700Z 2818/2918 28005KT 9999 BKN020"
    },
    {
      "icao": "EDFH",
      "alert": "OK",
      "vis_m": 9999,
      "fzfg": false,
      "metar_trigger": false,
      "taf_trigger": false,
      "metar": "METAR EDFH 282220Z 29004KT 9999 FEW026 00/M01 Q1023",
      "taf": "TAF EDFH 281700Z 2818/2918 32006KT 9999 SCT015"
    },
    {
      "icao": "EDJA",
      "alert": "OK",
      "vis_m": 5000,
      "fzfg": false,
      "metar_trigger": false,
      "taf_trigger": false,
      "metar": "METAR EDJA 282150Z 27005KT 5000 BKN003 BKN011 OVC018 00/M00 Q1020",
      "taf": "TAF EDJA 281700Z 2818/2903 27007KT 8000 SCT005 OVC015"
    },
    {
      "icao": "EDLW",
      "alert": "OK",
      "vis_m": 9999,
      "fzfg": false,
      "metar_trigger": false,
      "taf_trigger": false,
      "metar": "METAR EDLW 282220Z AUTO 22006KT 9999 // NCD 02/M00 Q1023",
      "taf": "TAF EDLW 281700Z 2818/2918 30004KT 9999 SCT030"
    },
    {
      "icao": "EDNY",
      "alert": "OK",
      "vis_m": 9999,
      "fzfg": false,
      "metar_trigger": false,
      "taf_trigger": false,
      "metar": "METAR EDNY 282220Z AUTO 27003KT 230V310 9999 // SCT006/// BKN021/// OVC026/// 01/01 Q1022",
      "taf": "TAF EDNY 281700Z 2818/2903 24005KT 9999 SCT009 OVC020"
    },
    {
      "icao": "EDSB",
      "alert": "OK",
      "vis_m": 9000,
      "fzfg": false,
      "metar_trigger": false,
      "taf_trigger": false,
      "metar": "METAR EDSB 282220Z 22003KT 180V260 9000 -RA FEW010 OVC032 03/03 Q1024",
      "taf": "TAF EDSB 281700Z 2818/2918 21006KT 9999 BKN020"
    },
    {
      "icao": "EETN",
      "alert": "OK",
      "vis_m": 9999,
      "fzfg": false,
      "metar_trigger": false,
      "taf_trigger": false,
      "metar": "METAR EETN 282220Z VRB01KT CAVOK M01/M02 Q1018",
      "taf": "TAF EETN 281730Z 2818/2918 20007KT CAVOK"
    },
    {
      "icao": "EFTU",
      "alert": "OK",
      "vis_m": 9999,
      "fzfg": false,
      "metar_trigger": false,
      "taf_trigger": false,
      "metar": "METAR EFTU 282220Z AUTO 19008KT 9999 BKN007 OVC029 02/01 Q1015",
      "taf": "TAF EFTU 282035Z 2821/2921 19007KT 9999 BKN007"
    },
    {
      "icao": "EGBB",
      "alert": "OK",
      "vis_m": 9999,
      "fzfg": false,
      "metar_trigger": false,
      "taf_trigger": false,
      "metar": "METAR EGBB 282220Z 30008KT 9999 -RA FEW033 SCT045 05/01 Q1031",
      "taf": ""
    },
    {
      "icao": "EGGP",
      "alert": "OK",
      "vis_m": 9999,
      "fzfg": false,
      "metar_trigger": false,
      "taf_trigger": false,
      "metar": "METAR EGGP 282220Z 28008KT 9999 FEW039 06/02 Q1030",
      "taf": "TAF EGGP 281700Z 2818/2918 29016KT 9999 FEW030"
    },
    {
      "icao": "EGGW",
      "alert": "OK",
      "vis_m": 9999,
      "fzfg": false,
      "metar_trigger": false,
      "taf_trigger": false,
      "metar": "METAR EGGW 282220Z AUTO 30012KT 9999 NCD 04/M01 Q1029",
      "taf": "TAF EGGW 281702Z 2818/2918 32016KT 9999 FEW045"
    },
    {
      "icao": "EGKK",
      "alert": "OK",
      "vis_m": 9999,
      "fzfg": false,
      "metar_trigger": false,
      "taf_trigger": false,
      "metar": "METAR EGKK 282220Z COR 31005KT 250V330 CAVOK 05/M01 Q1030",
      "taf": "TAF EGKK 281701Z 2818/2924 30010KT 9999 FEW045"
    },
    {
      "icao": "EGNM",
      "alert": "OK",
      "vis_m": 9999,
      "fzfg": false,
      "metar_trigger": false,
      "taf_trigger": false,
      "metar": "METAR EGNM 282220Z 29008KT 9999 FEW020 02/M00 Q1028",
      "taf": ""
    },
    {
      "icao": "EGPD",
      "alert": "OK",
      "vis_m": 9999,
      "fzfg": false,
      "metar_trigger": false,
      "taf_trigger": false,
      "metar": "METAR EGPD 282220Z COR AUTO 27011KT 9999 NCD 04/M04 Q1022 NOSIG",
      "taf": "TAF EGPD 281658Z 2818/2918 28018G28KT 9999 FEW040"
    },
    {
      "icao": "EGPF",
      "alert": "OK",
      "vis_m": 9999,
      "fzfg": false,
      "metar_trigger": false,
      "taf_trigger": false,
      "metar": "METAR EGPF 282220Z AUTO 09003KT 9999 NCD 04/02 Q1026",
      "taf": ""
    },
    {
      "icao": "EHBK",
      "alert": "OK",
      "vis_m": 9999,
      "fzfg": false,
      "metar_trigger": false,
      "taf_trigger": false,
      "metar": "METAR EHBK 282225Z AUTO 27006KT 230V320 9999 OVC022/// 04/01 Q1025",
      "taf": "TAF EHBK 281724Z 2818/2924 30006KT 9999 SCT040"
    },
    {
      "icao": "EHEH",
      "alert": "OK",
      "vis_m": 9000,
      "fzfg": false,
      "metar_trigger": false,
      "taf_trigger": false,
      "metar": "METAR EHEH 282225Z AUTO 29005KT 230V360 9000 -RA FEW001 FEW015CB SCT033 04/03 Q1025 RERA BLU",
      "taf": ""
    },
    {
      "icao": "EKBI",
      "alert": "OK",
      "vis_m": 9999,
      "fzfg": false,
      "metar_trigger": false,
      "taf_trigger": false,
      "metar": "METAR EKBI 282220Z AUTO 17001KT 9999 -DZ OVC015/// 01/01 Q1019 REFZRA",
      "taf": "TAF EKBI 282027Z 2821/2921 25005KT 9999 SCT030"
    },
    {
      "icao": "EKCH",
      "alert": "OK",
      "vis_m": 9999,
      "fzfg": false,
      "metar_trigger": false,
      "taf_trigger": false,
      "metar": "METAR EKCH 282220Z AUTO 24006KT 9999 SCT190/// 03/02 Q1018 NOSIG",
      "taf": "TAF EKCH 282027Z 2821/2921 27002KT 9999 SCT025"
    },
    {
      "icao": "ENAL",
      "alert": "OK",
      "vis_m": 9999,
      "fzfg": false,
      "metar_trigger": false,
      "taf_trigger": false,
      "metar": "METAR ENAL 282220Z AUTO 21019KT 9999 FEW040/// 06/M00 Q1007",
      "taf": "TAF ENAL 282000Z 2821/2906 19015KT 9999 FEW025TCU SCT040"
    },
    {
      "icao": "ENBR",
      "alert": "OK",
      "vis_m": 9999,
      "fzfg": false,
      "metar_trigger": false,
      "taf_trigger": false,
      "metar": "METAR ENBR 282220Z 12006KT 9999 -SHRA FEW015 SCT022 BKN033 03/01 Q1012 RMK WIND 1200FT 15011KT",
      "taf": ""
    },
    {
      "icao": "ENGM",
      "alert": "OK",
      "vis_m": 9999,
      "fzfg": false,
      "metar_trigger": false,
      "taf_trigger": false,
      "metar": "METAR ENGM 282220Z VRB02KT CAVOK 01/M01 Q1011",
      "taf": "TAF ENGM 281700Z 2818/2918 20004KT 9999 FEW040"
    },
    {
      "icao": "ENHD",
      "alert": "OK",
      "vis_m": 9999,
      "fzfg": false,
      "metar_trigger": false,
      "taf_trigger": false,
      "metar": "METAR ENHD 282220Z AUTO 22011KT 9999 FEW006/// SCT013/// BKN031/// 05/04 Q1013",
      "taf": "TAF ENHD 281400Z 2815/2823 25012KT 9999 -SHRA FEW012TCU BKN025"
    },
    {
      "icao": "ENTC",
      "alert": "OK",
      "vis_m": 9999,
      "fzfg": false,
      "metar_trigger": false,
      "taf_trigger": false,
      "metar": "METAR ENTC 282220Z 19012KT 9999 BKN047 03/M02 Q1001 RMK WIND 2600FT 18013KT",
      "taf": "TAF ENTC 281700Z 2818/2918 22006KT 9999 FEW020 BKN035"
    },
    {
      "icao": "ENTO",
      "alert": "OK",
      "vis_m": 9999,
      "fzfg": false,
      "metar_trigger": false,
      "taf_trigger": false,
      "metar": "METAR ENTO 282220Z AUTO 25005KT 220V280 9999 // NCD 03/M01 Q1012",
      "taf": "TAF ENTO 281700Z 2818/2918 21008KT 9999 SCT015"
    },
    {
      "icao": "ENVA",
      "alert": "OK",
      "vis_m": 9999,
      "fzfg": false,
      "metar_trigger": false,
      "taf_trigger": false,
      "metar": "METAR ENVA 282220Z 12006KT CAVOK 01/M03 Q1007 RMK WIND 670FT 15011KT",
      "taf": "TAF ENVA 281700Z 2818/2918 17008KT CAVOK"
    },
    {
      "icao": "ENZV",
      "alert": "OK",
      "vis_m": 9999,
      "fzfg": false,
      "metar_trigger": false,
      "taf_trigger": false,
      "metar": "METAR ENZV 282220Z 21009KT 9999 -DZRA FEW008 SCT020 BKN029 05/03 Q1014",
      "taf": ""
    },
    {
      "icao": "EPGD",
      "alert": "OK",
      "vis_m": 9999,
      "fzfg": false,
      "metar_trigger": false,
      "taf_trigger": false,
      "metar": "METAR EPGD 282230Z VRB01KT 9999 -RA FEW012 BKN035 04/01 Q1017",
      "taf": "TAF EPGD 281730Z 2818/2918 VRB03KT CAVOK"
    },
    {
      "icao": "EPKK",
      "alert": "OK",
      "vis_m": 4900,
      "fzfg": false,
      "metar_trigger": false,
      "taf_trigger": false,
      "metar": "METAR EPKK 282230Z 23006KT 4900 BR BKN008 04/03 Q1013",
      "taf": "TAF EPKK 282030Z 2821/2921 23005KT 4000 BR BKN012"
    },
    {
      "icao": "EPKT",
      "alert": "OK",
      "vis_m": 9999,
      "fzfg": false,
      "metar_trigger": false,
      "taf_trigger": false,
      "metar": "METAR EPKT 282230Z 31006KT 9999 3700NW -RA FEW003 SCT025 BKN045 03/02 Q1014 RERA",
      "taf": ""
    },
    {
      "icao": "EPLB",
      "alert": "OK",
      "vis_m": 9999,
      "fzfg": false,
      "metar_trigger": false,
      "taf_trigger": false,
      "metar": "METAR EPLB 282230Z 03008KT CAVOK 10/02 Q1012",
      "taf": "TAF EPLB 281730Z 2818/2918 05007KT CAVOK"
    },
    {
      "icao": "EPMO",
      "alert": "OK",
      "vis_m": 9999,
      "fzfg": false,
      "metar_trigger": false,
      "taf_trigger": false,
      "metar": "METAR EPMO 282230Z 36007KT CAVOK 07/03 Q1014",
      "taf": "TAF EPMO 281730Z 2818/2918 36007KT CAVOK"
    },
    {
      "icao": "EPPO",
      "alert": "OK",
      "vis_m": 9999,
      "fzfg": false,
      "metar_trigger": false,
      "taf_trigger": false,
      "metar": "METAR EPPO 282230Z 20003KT CAVOK 06/01 Q1018",
      "taf": "TAF EPPO 281730Z 2818/2918 33002KT 9999 BKN040"
    },
    {
      "icao": "EPRA",
      "alert": "OK",
      "vis_m": 9999,
      "fzfg": false,
      "metar_trigger": false,
      "taf_trigger": false,
      "metar": "METAR EPRA 282230Z 35004KT CAVOK 09/03 Q1013",
      "taf": "TAF EPRA 282030Z 2821/2906 35008KT CAVOK"
    },
    {
      "icao": "EPRZ",
      "alert": "OK",
      "vis_m": 2400,
      "fzfg": false,
      "metar_trigger": false,
      "taf_trigger": false,
      "metar": "METAR EPRZ 282230Z 27005KT 2400 BR FEW002 06/06 Q1011",
      "taf": ""
    },
    {
      "icao": "EPSC",
      "alert": "OK",
      "vis_m": 9999,
      "fzfg": false,
      "metar_trigger": false,
      "taf_trigger": false,
      "metar": "METAR EPSC 282230Z 30006KT 9999 OVC009 04/03 Q1019",
      "taf": "TAF EPSC 281730Z 2818/2918 31005KT CAVOK"
    },
    {
      "icao": "EPSY",
      "alert": "OK",
      "vis_m": 9999,
      "fzfg": false,
      "metar_trigger": false,
      "taf_trigger": false,
      "metar": "METAR EPSY 282230Z 01003KT CAVOK 03/00 Q1016",
      "taf": "TAF EPSY 282030Z 2821/2906 01005KT CAVOK"
    },
    {
      "icao": "EPWA",
      "alert": "OK",
      "vis_m": 9999,
      "fzfg": false,
      "metar_trigger": false,
      "taf_trigger": false,
      "metar": "METAR EPWA 282230Z 04008KT 010V070 CAVOK 11/04 Q1014 NOSIG",
      "taf": "TAF EPWA 282030Z 2821/2921 36007KT CAVOK"
    },
    {
      "icao": "EPWR",
      "alert": "OK",
      "vis_m": 9999,
      "fzfg": false,
      "metar_trigger": false,
      "taf_trigger": false,
      "metar": "METAR EPWR 282230Z 30009KT 9999 -RA BKN024 BKN030 04/03 Q1018",
      "taf": "TAF EPWR 282030Z 2821/2921 32005KT 6000 BKN025"
    },
    {
      "icao": "ESGG",
      "alert": "OK",
      "vis_m": 9000,
      "fzfg": false,
      "metar_trigger": false,
      "taf_trigger": false,
      "metar": "METAR ESGG 282220Z 20006KT 9000 NSC 01/01 Q1016",
      "taf": "TAF ESGG 282030Z 2821/2921 22005KT 9999 FEW020"
    },
    {
      "icao": "ESKN",
      "alert": "OK",
      "vis_m": 9999,
      "fzfg": false,
      "metar_trigger": false,
      "taf_trigger": false,
      "metar": "METAR ESKN 282220Z 23005KT CAVOK 01/01 Q1014",
      "taf": "TAF ESKN 282030Z 2821/2921 22006KT CAVOK"
    },
    {
      "icao": "ESMS",
      "alert": "OK",
      "vis_m": 5000,
      "fzfg": false,
      "metar_trigger": false,
      "taf_trigger": false,
      "metar": "METAR ESMS 282220Z 24005KT 5000 BR BKN049 02/02 Q1017",
      "taf": "TAF ESMS 282027Z 2821/2921 22002KT 7000 SCT004"
    },
    {
      "icao": "ESSA",
      "alert": "OK",
      "vis_m": 9999,
      "fzfg": false,
      "metar_trigger": false,
      "taf_trigger": false,
      "metar": "METAR ESSA 282220Z 23007KT CAVOK 04/02 Q1013 NOSIG",
      "taf": "TAF ESSA 282030Z 2821/2921 21006KT CAVOK"
    },
    {
      "icao": "EYKA",
      "alert": "OK",
      "vis_m": 9999,
      "fzfg": false,
      "metar_trigger": false,
      "taf_trigger": false,
      "metar": "METAR EYKA 282220Z VRB01KT CAVOK 04/01 Q1017",
      "taf": "TAF EYKA 281708Z 2818/2918 VRB04KT 9000 NSC"
    },
    {
      "icao": "EYPA",
      "alert": "OK",
      "vis_m": 9999,
      "fzfg": false,
      "metar_trigger": false,
      "taf_trigger": false,
      "metar": "METAR EYPA 282220Z VRB02KT CAVOK M02/M02 Q1018",
      "taf": ""
    },
    {
      "icao": "EYVI",
      "alert": "OK",
      "vis_m": 9999,
      "fzfg": false,
      "metar_trigger": false,
      "taf_trigger": false,
      "metar": "METAR EYVI 282220Z 34003KT CAVOK 03/M01 Q1016 NOSIG",
      "taf": "TAF EYVI 281709Z 2818/2918 VRB04KT 9000 NSC"
    },
    {
      "icao": "GCFV",
      "alert": "OK",
      "vis_m": 9999,
      "fzfg": false,
      "metar_trigger": false,
      "taf_trigger": false,
      "metar": "METAR GCFV 282230Z 02014KT 9999 FEW022 BKN027 18/13 Q1020",
      "taf": "TAF GCFV 282000Z 2821/2921 01011KT 9999 SCT020 TX22/2914Z TN16/2906Z"
    },
    {
      "icao": "GCLP",
      "alert": "OK",
      "vis_m": 9999,
      "fzfg": false,
      "metar_trigger": false,
      "taf_trigger": false,
      "metar": "METAR GCLP 282230Z 36016KT 9999 BKN025 18/12 Q1020 NOSIG",
      "taf": "TAF GCLP 282000Z 2821/2921 36020KT 9999 FEW020 TX22/2914Z TN17/2906Z"
    },
    {
      "icao": "GCTS",
      "alert": "OK",
      "vis_m": 9999,
      "fzfg": false,
      "metar_trigger": false,
      "taf_trigger": false,
      "metar": "METAR GCTS 282230Z 05011KT 020V080 9999 FEW025 18/10 Q1021 NOSIG",
      "taf": "TAF GCTS 282000Z 2821/2921 03012KT 9999 FEW025 TX24/2914Z TN16/2906Z"
    },
    {
      "icao": "GMAD",
      "alert": "OK",
      "vis_m": 6000,
      "fzfg": false,
      "metar_trigger": false,
      "taf_trigger": false,
      "metar": "METAR GMAD 282230Z 05005KT 6000 SCT020 14/13 Q1017 NOSIG",
      "taf": "TAF GMAD 281700Z 2818/2924 20010KT 8000 SCT020"
    },
    {
      "icao": "GMMN",
      "alert": "OK",
      "vis_m": 9999,
      "fzfg": false,
      "metar_trigger": false,
      "taf_trigger": false,
      "metar": "METAR GMMN 282230Z 03005KT CAVOK 13/11 Q1020 NOSIG",
      "taf": "TAF GMMN 281700Z 2818/2924 02014KT 9999 SCT020"
    },
    {
      "icao": "GMMX",
      "alert": "OK",
      "vis_m": 8000,
      "fzfg": false,
      "metar_trigger": false,
      "taf_trigger": false,
      "metar": "METAR GMMX 282230Z 04004KT 020V080 8000 SCT026 17/13 Q1018 NOSIG",
      "taf": "TAF GMMX 281700Z 2818/2924 04006KT 8000 SCT020"
    },
    {
      "icao": "HEGN",
      "alert": "OK",
      "vis_m": 9999,
      "fzfg": false,
      "metar_trigger": false,
      "taf_trigger": false,
      "metar": "METAR HEGN 282200Z 13005KT CAVOK 21/13 Q1011 NOSIG",
      "taf": "TAF HEGN 281700Z 2818/2924 13010KT CAVOK"
    },
    {
      "icao": "HEMA",
      "alert": "OK",
      "vis_m": 9999,
      "fzfg": false,
      "metar_trigger": false,
      "taf_trigger": false,
      "metar": "METAR HEMA 282200Z 19004KT CAVOK 19/11 Q1012 NOSIG",
      "taf": "TAF HEMA 281700Z 2818/2924 11010KT CAVOK"
    },
    {
      "icao": "HESH",
      "alert": "OK",
      "vis_m": 9999,
      "fzfg": false,
      "metar_trigger": false,
      "taf_trigger": false,
      "metar": "METAR HESH 282200Z 22002KT CAVOK 20/13 Q1012 NOSIG",
      "taf": "TAF HESH 281700Z 2818/2924 15010KT CAVOK"
    },
    {
      "icao": "HESX",
      "alert": "OK",
      "vis_m": 9999,
      "fzfg": false,
      "metar_trigger": false,
      "taf_trigger": false,
      "metar": "METAR HESX 282200Z 20016KT CAVOK 24/M01 Q1007 NOSIG",
      "taf": "TAF HESX 281700Z 2818/2924 19011KT 9999 SCT025"
    },
    {
      "icao": "LATI",
      "alert": "OK",
      "vis_m": null,
      "fzfg": false,
      "metar_trigger": false,
      "taf_trigger": false,
      "metar": "",
      "taf": "TAF LATI 281700Z 2818/2918 VRB03KT 9999 SCT100 TX19/2913Z TN04/2904Z"
    },
    {
      "icao": "LBPD",
      "alert": "OK",
      "vis_m": 9999,
      "fzfg": false,
      "metar_trigger": false,
      "taf_trigger": false,
      "metar": "METAR LBPD 282230Z AUTO 30009KT 9999 FEW060/// BKN093/// 07/05 Q1002",
      "taf": "TAF LBPD 281700Z 2818/2918 28014KT 9999 BKN040"
    },
    {
      "icao": "LBSF",
      "alert": "OK",
      "vis_m": 9999,
      "fzfg": false,
      "metar_trigger": false,
      "taf_trigger": false,
      "metar": "METAR LBSF 282230Z AUTO 28008KT 9999 SCT020/// OVC023/// 02/M00 Q1003 NOSIG",
      "taf": "TAF LBSF 281700Z 2818/2918 28012KT 9999 SCT020 BKN030"
    },
    {
      "icao": "LBWN",
      "alert": "OK",
      "vis_m": 9999,
      "fzfg": false,
      "metar_trigger": false,
      "taf_trigger": false,
      "metar": "METAR LBWN 282230Z AUTO 08005KT 9999 OVC008/// 09/09 Q1001 NOSIG",
      "taf": "TAF LBWN 281700Z 2818/2918 09010KT 9999 SCT007 BKN010 OVC015"
    },
    {
      "icao": "LCLK",
      "alert": "OK",
      "vis_m": 9999,
      "fzfg": false,
      "metar_trigger": false,
      "taf_trigger": false,
      "metar": "METAR LCLK 282230Z 14011KT CAVOK 18/15 Q1005 NOSIG",
      "taf": "TAF LCLK 281730Z 2818/2918 15009KT 9999 FEW050"
    },
    {
      "icao": "LCPH",
      "alert": "OK",
      "vis_m": 9999,
      "fzfg": false,
      "metar_trigger": false,
      "taf_trigger": false,
      "metar": "METAR LCPH 282230Z 10017KT 090V160 CAVOK 17/10 Q1003 NOSIG",
      "taf": "TAF LCPH 281730Z 2818/2918 09009KT 9999 FEW045"
    },
    {
      "icao": "LEAL",
      "alert": "OK",
      "vis_m": 9999,
      "fzfg": false,
      "metar_trigger": false,
      "taf_trigger": false,
      "metar": "METAR LEAL 282230Z 29005KT 9999 FEW046 SCT070 14/11 Q1021 NOSIG",
      "taf": "TAF LEAL 281700Z 2818/2918 18010KT 9999 FEW025 TX18/2912Z TN09/2906Z"
    },
    {
      "icao": "LEBB",
      "alert": "OK",
      "vis_m": 7000,
      "fzfg": false,
      "metar_trigger": false,
      "taf_trigger": false,
      "metar": "METAR LEBB 282230Z 34008KT 290V030 7000 -RA SCT035 BKN060 09/05 Q1034 NOSIG",
      "taf": "TAF LEBB 281700Z 2818/2918 32009KT 9999 SCT010 BKN025 TX12/2912Z TN07/2905Z"
    },
    {
      "icao": "LEBL",
      "alert": "OK",
      "vis_m": 9999,
      "fzfg": false,
      "metar_trigger": false,
      "taf_trigger": false,
      "metar": "METAR LEBL 282230Z 04006KT CAVOK 14/12 Q1017 NOSIG",
      "taf": "TAF LEBL 281700Z 2818/2918 22012KT 9999 FEW025 TX18/2913Z TN09/2906Z"
    },
    {
      "icao": "LECH",
      "alert": "OK",
      "vis_m": 9000,
      "fzfg": false,
      "metar_trigger": false,
      "taf_trigger": false,
      "metar": "METAR LECH 282230Z AUTO 35020G34KT 290V050 9000 NCD 10/M03 Q1019",
      "taf": "TAF LECH 281700Z 2818/2918 33020KT 9999 FEW030 TX16/2913Z TN07/2906Z"
    },
    {
      "icao": "LEMD",
      "alert": "OK",
      "vis_m": 9999,
      "fzfg": false,
      "metar_trigger": false,
      "taf_trigger": false,
      "metar": "METAR LEMD 282230Z 36012G22KT 330V030 CAVOK 08/M02 Q1027 NOSIG",
      "taf": ""
    },
    {
      "icao": "LEMG",
      "alert": "OK",
      "vis_m": 9999,
      "fzfg": false,
      "metar_trigger": false,
      "taf_trigger": false,
      "metar": "METAR LEMG 282230Z 29005KT CAVOK 12/09 Q1021 NOSIG",
      "taf": "TAF LEMG 281700Z 2818/2918 13010KT 9999 FEW030 TX22/2913Z TN10/2907Z"
    },
    {
      "icao": "LEVC",
      "alert": "OK",
      "vis_m": 9999,
      "fzfg": false,
      "metar_trigger": false,
      "taf_trigger": false,
      "metar": "METAR LEVC 282230Z 32020G30KT CAVOK 14/M02 Q1021 NOSIG",
      "taf": ""
    },
    {
      "icao": "LEXJ",
      "alert": "OK",
      "vis_m": 9999,
      "fzfg": false,
      "metar_trigger": false,
      "taf_trigger": false,
      "metar": "METAR LEXJ 282230Z AUTO VRB01KT 9999 FEW031 BKN039 08/06 Q1035",
      "taf": ""
    },
    {
      "icao": "LEZG",
      "alert": "OK",
      "vis_m": 9999,
      "fzfg": false,
      "metar_trigger": false,
      "taf_trigger": false,
      "metar": "METAR LEZG 282230Z 29027G37KT CAVOK 08/M01 Q1027 NOSIG",
      "taf": "TAF LEZG 281700Z 2818/2918 31020KT 9999 FEW045 TX15/2914Z TN05/2906Z"
    },
    {
      "icao": "LEZL",
      "alert": "OK",
      "vis_m": 9999,
      "fzfg": false,
      "metar_trigger": false,
      "taf_trigger": false,
      "metar": "METAR LEZL 282230Z 04007KT CAVOK 16/05 Q1022 NOSIG",
      "taf": "TAF LEZL 282000Z 2821/2921 03008KT CAVOK TX22/2915Z TN12/2907Z"
    },
    {
      "icao": "LFBD",
      "alert": "OK",
      "vis_m": 9999,
      "fzfg": false,
      "metar_trigger": false,
      "taf_trigger": false,
      "metar": "METAR LFBD 282230Z AUTO 36012KT CAVOK 08/M00 Q1031 NOSIG",
      "taf": "TAF LFBD 281700Z 2818/2924 35010KT CAVOK TX13/2915Z TN03/2905Z"
    },
    {
      "icao": "LFLL",
      "alert": "OK",
      "vis_m": 9999,
      "fzfg": false,
      "metar_trigger": false,
      "taf_trigger": false,
      "metar": "METAR LFLL 282230Z 35017KT 9999 -RA FEW011 BKN030 BKN053 05/03 Q1023 NOSIG",
      "taf": "TAF LFLL 281700Z 2818/2924 35010KT 9999 BKN025"
    },
    {
      "icao": "LFLS",
      "alert": "OK",
      "vis_m": 9999,
      "fzfg": false,
      "metar_trigger": false,
      "taf_trigger": false,
      "metar": "METAR LFLS 282230Z AUTO 34017KT CAVOK 05/02 Q1021",
      "taf": ""
    },
    {
      "icao": "LFMN",
      "alert": "OK",
      "vis_m": 9999,
      "fzfg": false,
      "metar_trigger": false,
      "taf_trigger": false,
      "metar": "METAR LFMN 282230Z 04007KT CAVOK 13/05 Q1009 NOSIG",
      "taf": "TAF LFMN 282000Z 2821/3003 02010KT CAVOK"
    },
    {
      "icao": "LFOB",
      "alert": "OK",
      "vis_m": 9999,
      "fzfg": false,
      "metar_trigger": false,
      "taf_trigger": false,
      "metar": "METAR LFOB 282230Z AUTO 26003KT CAVOK 02/01 Q1029 TEMPO 4000 BR BECMG 33010KT",
      "taf": "TAF LFOB 281700Z 2818/2918 33010KT 9999 SCT035"
    },
    {
      "icao": "LFPO",
      "alert": "OK",
      "vis_m": 9999,
      "fzfg": false,
      "metar_trigger": false,
      "taf_trigger": false,
      "metar": "METAR LFPO 282230Z VRB02KT CAVOK 04/02 Q1029 TEMPO 4000 -SHRA SCT030TCU",
      "taf": ""
    },
    {
      "icao": "LFSB",
      "alert": "OK",
      "vis_m": 9999,
      "fzfg": false,
      "metar_trigger": false,
      "taf_trigger": false,
      "metar": "METAR LFSB 282230Z AUTO VRB02KT 9999 DZ SCT020 BKN026 BKN032 04/02 Q1024 TEMPO 3500 -DZ OVC006",
      "taf": "TAF LFSB 281700Z 2818/2918 28005KT 9999 FEW015 BKN020"
    },
    {
      "icao": "LGAV",
      "alert": "OK",
      "vis_m": 9999,
      "fzfg": false,
      "metar_trigger": false,
      "taf_trigger": false,
      "metar": "METAR LGAV 282220Z VRB02KT 9999 FEW020 05/03 Q1002 NOSIG",
      "taf": "TAF LGAV 281700Z 2818/2918 VRB05KT 9999 FEW020 SCT070"
    },
    {
      "icao": "LGTS",
      "alert": "OK",
      "vis_m": 9999,
      "fzfg": false,
      "metar_trigger": false,
      "taf_trigger": false,
      "metar": "METAR LGTS 282220Z 35014KT 9999 FEW025 10/02 Q1002 NOSIG",
      "taf": "TAF LGTS 281700Z 2818/2918 VRB03KT 9999 SCT025"
    },
    {
      "icao": "LHBP",
      "alert": "OK",
      "vis_m": 8000,
      "fzfg": false,
      "metar_trigger": false,
      "taf_trigger": false,
      "metar": "METAR LHBP 282230Z 33013KT 8000 -SHRA SCT040 BKN070 07/05 Q1008 NOSIG",
      "taf": "TAF LHBP 281715Z 2818/2918 30010KT CAVOK"
    },
    {
      "icao": "LHDC",
      "alert": "OK",
      "vis_m": 9999,
      "fzfg": false,
      "metar_trigger": false,
      "taf_trigger": false,
      "metar": "METAR LHDC 282215Z AUTO 01013KT 340V040 CAVOK 11/06 Q1004",
      "taf": "TAF LHDC 281415Z 2815/2824 03009KT CAVOK"
    },
    {
      "icao": "LIBD",
      "alert": "OK",
      "vis_m": 9999,
      "fzfg": false,
      "metar_trigger": false,
      "taf_trigger": false,
      "metar": "METAR LIBD 282220Z 28010KT 9999 BKN035 09/06 Q1007",
      "taf": "TAF LIBD 281700Z 2818/2918 34015KT 9999 BKN030"
    },
    {
      "icao": "LIBG",
      "alert": "OK",
      "vis_m": null,
      "fzfg": false,
      "metar_trigger": false,
      "taf_trigger": false,
      "metar": "",
      "taf": "TAF LIBG 281700Z 2818/2903 30010KT 9999 SCT030"
    },
    {
      "icao": "LIBP",
      "alert": "OK",
      "vis_m": 9999,
      "fzfg": false,
      "metar_trigger": false,
      "taf_trigger": false,
      "metar": "METAR LIBP 282220Z AUTO 23005KT 9999 NCD 04/04 Q1010",
      "taf": "TAF LIBP 281700Z 2818/2918 34010KT 9999 FEW060"
    },
    {
      "icao": "LIBR",
      "alert": "OK",
      "vis_m": 9999,
      "fzfg": false,
      "metar_trigger": false,
      "taf_trigger": false,
      "metar": "METAR LIBR 282220Z 34014KT 9999 SCT035 12/05 Q1005",
      "taf": "TAF LIBR 281700Z 2818/2918 33018KT 9999 FEW020 SCT030"
    },
    {
      "icao": "LICA",
      "alert": "OK",
      "vis_m": 9999,
      "fzfg": false,
      "metar_trigger": false,
      "taf_trigger": false,
      "metar": "METAR LICA 282220Z AUTO 28009KT 9999 SCT081/// 11/05 Q1008",
      "taf": "TAF LICA 281700Z 2818/2918 28015KT 9999 SCT040"
    },
    {
      "icao": "LICC",
      "alert": "OK",
      "vis_m": 9999,
      "fzfg": false,
      "metar_trigger": false,
      "taf_trigger": false,
      "metar": "METAR LICC 282220Z 26007KT 200V310 CAVOK 10/05 Q1009",
      "taf": "TAF LICC 281700Z 2818/2918 26013KT 9999 FEW040"
    },
    {
      "icao": "LICJ",
      "alert": "OK",
      "vis_m": 9999,
      "fzfg": false,
      "metar_trigger": false,
      "taf_trigger": false,
      "metar": "METAR LICJ 282220Z 32012KT 9999 FEW050 14/06 Q1011",
      "taf": "TAF LICJ 281700Z 2818/2918 32016KT 9999 SCT030"
    },
    {
      "icao": "LIMC",
      "alert": "OK",
      "vis_m": 9999,
      "fzfg": false,
      "metar_trigger": false,
      "taf_trigger": false,
      "metar": "METAR LIMC 282220Z 36008KT 320V050 CAVOK 15/M06 Q1010 NOSIG",
      "taf": "TAF LIMC 281700Z 2818/2924 VRB05KT CAVOK"
    },
    {
      "icao": "LIME",
      "alert": "OK",
      "vis_m": 9999,
      "fzfg": false,
      "metar_trigger": false,
      "taf_trigger": false,
      "metar": "METAR LIME 282220Z 03003KT CAVOK 09/01 Q1009 NOSIG",
      "taf": "TAF LIME 281700Z 2818/2918 VRB05KT CAVOK"
    },
    {
      "icao": "LIMF",
      "alert": "OK",
      "vis_m": 9999,
      "fzfg": false,
      "metar_trigger": false,
      "taf_trigger": false,
      "metar": "METAR LIMF 282220Z 30002KT 9999 SCT110 11/01 Q1010",
      "taf": "TAF LIMF 281700Z 2818/2918 VRB05KT 9999 FEW060"
    },
    {
      "icao": "LIMJ",
      "alert": "OK",
      "vis_m": 9999,
      "fzfg": false,
      "metar_trigger": false,
      "taf_trigger": false,
      "metar": "METAR LIMJ 282220Z 05007KT 340V070 CAVOK 13/04 Q1010",
      "taf": "TAF LIMJ 281700Z 2818/2918 VRB05KT CAVOK"
    },
    {
      "icao": "LIPE",
      "alert": "OK",
      "vis_m": 9999,
      "fzfg": false,
      "metar_trigger": false,
      "taf_trigger": false,
      "metar": "METAR LIPE 282220Z 20008KT CAVOK 09/01 Q1010",
      "taf": "TAF LIPE 281700Z 2818/2918 VRB05KT CAVOK"
    },
    {
      "icao": "LIPH",
      "alert": "OK",
      "vis_m": 9999,
      "fzfg": false,
      "metar_trigger": false,
      "taf_trigger": false,
      "metar": "METAR LIPH 282220Z AUTO VRB01KT 9999 FEW100/// BKN110/// 09/03 Q1010",
      "taf": "TAF LIPH 281700Z 2818/2918 VRB05KT CAVOK"
    },
    {
      "icao": "LIPQ",
      "alert": "OK",
      "vis_m": 9999,
      "fzfg": false,
      "metar_trigger": false,
      "taf_trigger": false,
      "metar": "METAR LIPQ 282220Z AUTO VRB02KT 9999 NCD 07/02 Q1010",
      "taf": "TAF LIPQ 281700Z 2818/2918 VRB05KT 9999 FEW080"
    },
    {
      "icao": "LIPR",
      "alert": "OK",
      "vis_m": 9999,
      "fzfg": false,
      "metar_trigger": false,
      "taf_trigger": false,
      "metar": "METAR LIPR 282220Z AUTO 23004KT 9999 NCD 05/01 Q1010",
      "taf": "TAF LIPR 281700Z 2818/2918 VRB05KT CAVOK"
    },
    {
      "icao": "LIPX",
      "alert": "OK",
      "vis_m": 9999,
      "fzfg": false,
      "metar_trigger": false,
      "taf_trigger": false,
      "metar": "METAR LIPX 282220Z 36003KT CAVOK 07/01 Q1010",
      "taf": "TAF LIPX 281700Z 2818/2918 VRB04KT CAVOK"
    },
    {
      "icao": "LIPY",
      "alert": "OK",
      "vis_m": 9999,
      "fzfg": false,
      "metar_trigger": false,
      "taf_trigger": false,
      "metar": "METAR LIPY 282220Z AUTO 19004KT 9999 NCD 05/02 Q1010",
      "taf": "TAF LIPY 281700Z 2818/2918 VRB05KT CAVOK"
    },
    {
      "icao": "LIPZ",
      "alert": "OK",
      "vis_m": 9999,
      "fzfg": false,
      "metar_trigger": false,
      "taf_trigger": false,
      "metar": "METAR LIPZ 282220Z 04002KT CAVOK 10/04 Q1010 NOSIG",
      "taf": "TAF LIPZ 281700Z 2818/2924 VRB06KT CAVOK"
    },
    {
      "icao": "LIRF",
      "alert": "OK",
      "vis_m": 9999,
      "fzfg": false,
      "metar_trigger": false,
      "taf_trigger": false,
      "metar": "METAR LIRF 282220Z 34008KT CAVOK 09/02 Q1009 NOSIG",
      "taf": "TAF LIRF 281700Z 2818/2924 31012KT CAVOK"
    },
    {
      "icao": "LIRN",
      "alert": "OK",
      "vis_m": 9999,
      "fzfg": false,
      "metar_trigger": false,
      "taf_trigger": false,
      "metar": "METAR LIRN 282220Z 03004KT CAVOK 08/03 Q1008 NOSIG",
      "taf": "TAF LIRN 281700Z 2818/2918 VRB06KT 9999 SCT050"
    },
    {
      "icao": "LIRP",
      "alert": "OK",
      "vis_m": 9999,
      "fzfg": false,
      "metar_trigger": false,
      "taf_trigger": false,
      "metar": "METAR LIRP 282215Z VRB01KT CAVOK 07/05 Q1010 NOSIG",
      "taf": "TAF LIRP 281700Z 2818/2918 27010KT 9999 FEW030"
    },
    {
      "icao": "LIRZ",
      "alert": "OK",
      "vis_m": 9999,
      "fzfg": false,
      "metar_trigger": false,
      "taf_trigger": false,
      "metar": "METAR LIRZ 282220Z AUTO 36010KT 9999 NCD 04/00 Q1010",
      "taf": "TAF LIRZ 281700Z 2818/2918 VRB05KT 9999 FEW050"
    },
    {
      "icao": "LJLJ",
      "alert": "OK",
      "vis_m": 9999,
      "fzfg": false,
      "metar_trigger": false,
      "taf_trigger": false,
      "metar": "METAR LJLJ 282230Z VRB02KT 9999 BKN080 04/M01 Q1011 NOSIG",
      "taf": "TAF LJLJ 281700Z 2818/2918 35010KT 9999 FEW080"
    },
    {
      "icao": "LKMT",
      "alert": "OK",
      "vis_m": 9999,
      "fzfg": false,
      "metar_trigger": false,
      "taf_trigger": false,
      "metar": "METAR LKMT 282230Z 02007KT 350V050 9999 FEW015 OVC032 03/02 Q1016 NOSIG",
      "taf": "TAF LKMT 281700Z 2818/2918 36010KT 9999 OVC025"
    },
    {
      "icao": "LKPR",
      "alert": "OK",
      "vis_m": 9999,
      "fzfg": false,
      "metar_trigger": false,
      "taf_trigger": false,
      "metar": "METAR LKPR 282230Z 29009KT CAVOK 04/M00 Q1018 NOSIG",
      "taf": "TAF LKPR 282000Z 2821/3003 30008KT CAVOK"
    },
    {
      "icao": "LLBG",
      "alert": "OK",
      "vis_m": 9999,
      "fzfg": false,
      "metar_trigger": false,
      "taf_trigger": false,
      "metar": "METAR LLBG 282220Z VRB02KT CAVOK 16/08 Q1007 NOSIG RMK SCT120",
      "taf": "TAF LLBG 281701Z 2818/2918 15005KT CAVOK TX18/2912Z TN14/2903Z"
    },
    {
      "icao": "LMML",
      "alert": "OK",
      "vis_m": 9999,
      "fzfg": false,
      "metar_trigger": false,
      "taf_trigger": false,
      "metar": "METAR LMML 282245Z 29013KT 9999 FEW025 12/07 Q1011 NOSIG",
      "taf": "TAF LMML 281700Z 2818/2918 30020G30KT 9999 SCT025"
    },
    {
      "icao": "LOWW",
      "alert": "OK",
      "vis_m": 9999,
      "fzfg": false,
      "metar_trigger": false,
      "taf_trigger": false,
      "metar": "METAR LOWW 282220Z 33014KT 9999 FEW040 BKN044 06/M01 Q1015 NOSIG",
      "taf": "TAF LOWW 282015Z 2821/3003 32014KT 9999 BKN040 TX06/2914Z TN04/2906Z"
    },
    {
      "icao": "LPFR",
      "alert": "OK",
      "vis_m": 9999,
      "fzfg": false,
      "metar_trigger": false,
      "taf_trigger": false,
      "metar": "METAR LPFR 282230Z 02011KT CAVOK 19/05 Q1022",
      "taf": "TAF LPFR 281700Z 2818/2918 25008KT CAVOK"
    },
    {
      "icao": "LPMA",
      "alert": "OK",
      "vis_m": 9999,
      "fzfg": false,
      "metar_trigger": false,
      "taf_trigger": false,
      "metar": "METAR LPMA 282230Z 02015KT 350V050 9999 BKN015 16/10 Q1025",
      "taf": "TAF LPMA 281700Z 2818/2918 01015KT 9999 SCT015"
    },
    {
      "icao": "LPPR",
      "alert": "OK",
      "vis_m": 9999,
      "fzfg": false,
      "metar_trigger": false,
      "taf_trigger": false,
      "metar": "METAR LPPR 282230Z 03014KT CAVOK 14/05 Q1028",
      "taf": "TAF LPPR 281700Z 2818/2918 31007KT CAVOK"
    },
    {
      "icao": "LPPS",
      "alert": "OK",
      "vis_m": 9999,
      "fzfg": false,
      "metar_trigger": false,
      "taf_trigger": false,
      "metar": "METAR LPPS 282230Z 04010KT 010V070 9999 SCT015 BKN030 15/12 Q1026",
      "taf": "TAF LPPS 281700Z 2818/2924 03013KT 9999 SCT014 SCT030"
    },
    {
      "icao": "LPPT",
      "alert": "OK",
      "vis_m": 9999,
      "fzfg": false,
      "metar_trigger": false,
      "taf_trigger": false,
      "metar": "METAR LPPT 282230Z 02010KT CAVOK 16/04 Q1026",
      "taf": "TAF LPPT 281700Z 2818/2924 34012KT CAVOK"
    },
    {
      "icao": "LQBK",
      "alert": "OK",
      "vis_m": 9999,
      "fzfg": false,
      "metar_trigger": false,
      "taf_trigger": false,
      "metar": "METAR LQBK 282230Z 27011KT 9999 RA OVC027 04/01 Q1011 NOSIG",
      "taf": ""
    },
    {
      "icao": "LQSA",
      "alert": "OK",
      "vis_m": 9999,
      "fzfg": false,
      "metar_trigger": false,
      "taf_trigger": false,
      "metar": "METAR LQSA 282230Z 01004KT 9999 -SN BKN017 OVC035 02/01 Q1008",
      "taf": "TAF LQSA 281700Z 2818/2918 29007KT 8000 -RA SCT015 BKN030 TX04/2913Z TN01/2906Z"
    },
    {
      "icao": "LQTZ",
      "alert": "OK",
      "vis_m": 3500,
      "fzfg": false,
      "metar_trigger": false,
      "taf_trigger": false,
      "metar": "METAR LQTZ 282230Z 31005KT 3500 -SN BR OVC008 00/00 Q1009",
      "taf": ""
    },
    {
      "icao": "LRBC",
      "alert": "OK",
      "vis_m": 9999,
      "fzfg": false,
      "metar_trigger": false,
      "taf_trigger": false,
      "metar": "METAR LRBC 282230Z 01005KT CAVOK 08/07 Q1005",
      "taf": "TAF LRBC 282000Z 2821/2906 36005KT 9999 SCT015 OVC045"
    },
    {
      "icao": "LRBS",
      "alert": "OK",
      "vis_m": 9999,
      "fzfg": false,
      "metar_trigger": false,
      "taf_trigger": false,
      "metar": "METAR LRBS 282230Z 05006KT 010V070 9999 BKN006 08/08 Q1003 NOSIG",
      "taf": "TAF LRBS 281700Z 2818/2918 05008KT 9999 BKN010 BKN030"
    },
    {
      "icao": "LRBV",
      "alert": "OK",
      "vis_m": 9999,
      "fzfg": false,
      "metar_trigger": false,
      "taf_trigger": false,
      "metar": "METAR LRBV 282230Z AUTO 22003KT 9999 FEW015/// OVC020/// 05/04 Q1004",
      "taf": "TAF LRBV 282000Z 2821/2906 VRB04KT 9999 BKN010"
    },
    {
      "icao": "LRCL",
      "alert": "OK",
      "vis_m": 9999,
      "fzfg": false,
      "metar_trigger": false,
      "taf_trigger": false,
      "metar": "METAR LRCL 282230Z 00000KT 9999 -RA FEW014 OVC034 08/07 Q1004",
      "taf": "TAF LRCL 282000Z 2821/2906 VRB04KT 9999 OVC035"
    },
    {
      "icao": "LRCV",
      "alert": "OK",
      "vis_m": 9999,
      "fzfg": false,
      "metar_trigger": false,
      "taf_trigger": false,
      "metar": "METAR LRCV 282230Z 34004KT 9999 OVC010 08/07 Q1003",
      "taf": "TAF LRCV 282000Z 2821/2906 VRB04KT 9999 BKN045"
    },
    {
      "icao": "LRIA",
      "alert": "OK",
      "vis_m": 9999,
      "fzfg": false,
      "metar_trigger": false,
      "taf_trigger": false,
      "metar": "METAR LRIA 282230Z 07004KT 9999 -RA OVC049 09/08 Q1006",
      "taf": "TAF LRIA 282000Z 2821/2906 VRB04KT 9999 BKN040"
    },
    {
      "icao": "LROP",
      "alert": "OK",
      "vis_m": 9999,
      "fzfg": false,
      "metar_trigger": false,
      "taf_trigger": false,
      "metar": "METAR LROP 282230Z 06008KT 9999 BKN007 OVC015 09/09 Q1003 NOSIG",
      "taf": "TAF LROP 281700Z 2818/2918 05008KT 9999 BKN010 BKN030"
    },
    {
      "icao": "LRSB",
      "alert": "OK",
      "vis_m": 9999,
      "fzfg": false,
      "metar_trigger": false,
      "taf_trigger": false,
      "metar": "METAR LRSB 282230Z 28003KT 9999 BKN012 BKN040 06/05 Q1003",
      "taf": "TAF LRSB 281700Z 2818/2918 VRB04KT 9999 BKN030"
    },
    {
      "icao": "LRSM",
      "alert": "OK",
      "vis_m": 9999,
      "fzfg": false,
      "metar_trigger": false,
      "taf_trigger": false,
      "metar": "METAR LRSM 282230Z AUTO 20010KT 9999 SCT065/// BKN080/// BKN120/// 11/06 Q1005",
      "taf": ""
    },
    {
      "icao": "LRSV",
      "alert": "OK",
      "vis_m": 3000,
      "fzfg": false,
      "metar_trigger": false,
      "taf_trigger": false,
      "metar": "METAR LRSV 282230Z 06006KT 3000 SHRA BKN007 SCT035CB 08/08 Q1006",
      "taf": "TAF LRSV 282000Z 2821/2906 09006KT 9999 BKN010 BKN030"
    },
    {
      "icao": "LRTM",
      "alert": "OK",
      "vis_m": 9999,
      "fzfg": false,
      "metar_trigger": false,
      "taf_trigger": false,
      "metar": "METAR LRTM 282230Z 05003KT 9999 FEW012 SCT030 BKN040 07/06 Q1004",
      "taf": "TAF LRTM 282000Z 2821/2906 VRB04KT 9999 OVC040"
    },
    {
      "icao": "LRTR",
      "alert": "OK",
      "vis_m": 9999,
      "fzfg": false,
      "metar_trigger": false,
      "taf_trigger": false,
      "metar": "METAR LRTR 282230Z VRB01KT 9999 -DZ BKN004 BKN015 08/08 Q1004",
      "taf": "TAF LRTR 281700Z 2818/2918 VRB04KT 9999 BKN040"
    },
    {
      "icao": "LTAC",
      "alert": "OK",
      "vis_m": 9999,
      "fzfg": false,
      "metar_trigger": false,
      "taf_trigger": false,
      "metar": "METAR LTAC 282220Z 17011KT 9999 -SHRA BKN035 BKN080 10/05 Q1003 NOSIG RMK RWY21C 16012KT RWY03L 17010KT RWY21R 16012KT RWY03R 16011KT RWY21L 16012KT",
      "taf": "TAF LTAC 281640Z 2818/2918 20009KT 9999 SCT035 BKN090"
    },
    {
      "icao": "LTFM",
      "alert": "OK",
      "vis_m": 4000,
      "fzfg": false,
      "metar_trigger": false,
      "taf_trigger": false,
      "metar": "METAR LTFM 282220Z 08006KT 4000 -RA BR BKN003 BKN020 09/08 Q1000 NOSIG RMK RWY17L 09007KT RWY34L 07006KT RWY16R 09006KT RWY36 08005KT 030V110 RWY18 10006KT",
      "taf": "TAF LTFM 281640Z 2818/2924 16012KT 9999 -RA SCT006 BKN025"
    },
    {
      "icao": "LUKK",
      "alert": "OK",
      "vis_m": 9999,
      "fzfg": false,
      "metar_trigger": false,
      "taf_trigger": false,
      "metar": "METAR LUKK 282230Z 36002KT 9999 OVC030 09/08 Q1006 NOSIG",
      "taf": "TAF LUKK 281716Z 2818/2918 VRB06KT 9999 BKN030"
    },
    {
      "icao": "LWOH",
      "alert": "OK",
      "vis_m": null,
      "fzfg": false,
      "metar_trigger": false,
      "taf_trigger": false,
      "metar": "",
      "taf": "TAF LWOH 282045Z 2821/2921 33006KT 9999 FEW020 SCT035 BKN090"
    },
    {
      "icao": "LWSK",
      "alert": "OK",
      "vis_m": 9999,
      "fzfg": false,
      "metar_trigger": false,
      "taf_trigger": false,
      "metar": "METAR LWSK 282150Z 01006KT 9999 SCT035 BKN070 06/01 Q1005 NOSIG",
      "taf": "TAF LWSK 282045Z 2821/2921 01005KT 9999 BKN035 BKN070"
    },
    {
      "icao": "LYBE",
      "alert": "OK",
      "vis_m": 9999,
      "fzfg": false,
      "metar_trigger": false,
      "taf_trigger": false,
      "metar": "METAR LYBE 282230Z 26015KT 9999 -RA BKN004 05/04 Q1006 NOSIG",
      "taf": ""
    },
    {
      "icao": "LYNI",
      "alert": "OK",
      "vis_m": 5000,
      "fzfg": false,
      "metar_trigger": false,
      "taf_trigger": false,
      "metar": "METAR LYNI 282230Z VRB01KT 5000 DZ BR BKN003 OVC009 03/03 Q1006 NOSIG",
      "taf": "TAF LYNI 281700Z 2818/2918 24004KT 8000 BKN010 BKN025 TX08/2912Z TN02/2818Z"
    },
    {
      "icao": "LYPG",
      "alert": "OK",
      "vis_m": 9999,
      "fzfg": false,
      "metar_trigger": false,
      "taf_trigger": false,
      "metar": "METAR LYPG 282230Z 33009KT 9999 SCT080 08/M00 Q1005 NOSIG",
      "taf": "TAF LYPG 281700Z 2818/2918 32008KT 9999 FEW030 SCT080 TX17/2913Z TN07/2904Z"
    },
    {
      "icao": "LZIB",
      "alert": "OK",
      "vis_m": 9999,
      "fzfg": false,
      "metar_trigger": false,
      "taf_trigger": false,
      "metar": "METAR LZIB 282230Z 35008KT 310V030 9999 -RA FEW044 06/00 Q1013 NOSIG",
      "taf": "TAF LZIB 281715Z 2818/2918 33015KT 9999 FEW035"
    },
    {
      "icao": "LZKZ",
      "alert": "OK",
      "vis_m": 9999,
      "fzfg": false,
      "metar_trigger": false,
      "taf_trigger": false,
      "metar": "METAR LZKZ 282230Z 36018KT CAVOK 10/05 Q1007 NOSIG",
      "taf": "TAF LZKZ 281715Z 2818/2918 01020KT 9999 FEW025 BKN040"
    },
    {
      "icao": "LZTT",
      "alert": "OK",
      "vis_m": 9999,
      "fzfg": false,
      "metar_trigger": false,
      "taf_trigger": false,
      "metar": "METAR LZTT 282230Z 29009KT 9999 FEW005 BKN060 03/02 Q1010",
      "taf": ""
    },
    {
      "icao": "OEJN",
      "alert": "OK",
      "vis_m": 9999,
      "fzfg": false,
      "metar_trigger": false,
      "taf_trigger": false,
      "metar": "METAR OEJN 282200Z 36004KT CAVOK 21/12 Q1011 NOSIG",
      "taf": "TAF OEJN 281700Z 2818/2924 01006KT CAVOK"
    },
    {
      "icao": "OEMA",
      "alert": "OK",
      "vis_m": 9999,
      "fzfg": false,
      "metar_trigger": false,
      "taf_trigger": false,
      "metar": "METAR OEMA 282200Z 17004KT CAVOK 23/04 Q1014 NOSIG",
      "taf": "TAF OEMA 281700Z 2818/2924 VRB03KT CAVOK"
    },
    {
      "icao": "OJAI",
      "alert": "OK",
      "vis_m": 5000,
      "fzfg": false,
      "metar_trigger": false,
      "taf_trigger": false,
      "metar": "METAR OJAI 282200Z 00000KT 5000 BR NSC 09/07 Q1011 NOSIG",
      "taf": "TAF OJAI 281700Z 2818/2924 24012KT 5000 HZ FEW035"
    },
    {
      "icao": "OMAA",
      "alert": "OK",
      "vis_m": null,
      "fzfg": false,
      "metar_trigger": false,
      "taf_trigger": false,
      "metar": "",
      "taf": ""
    },
    {
      "icao": "OMDB",
      "alert": "OK",
      "vis_m": null,
      "fzfg": false,
      "metar_trigger": false,
      "taf_trigger": false,
      "metar": "",
      "taf": ""
    },
    {
      "icao": "UAAA",
      "alert": "OK",
      "vis_m": 6000,
      "fzfg": false,
      "metar_trigger": false,
      "taf_trigger": false,
      "metar": "METAR UAAA 282230Z 00000MPS 6000 NSC 05/00 Q1008 NOSIG",
      "taf": "TAF UAAA 281701Z 2818/2918 19003MPS 9999 FEW100 TX20/2910Z TN04/2901Z"
    },
    {
      "icao": "UBBB",
      "alert": "OK",
      "vis_m": 9999,
      "fzfg": false,
      "metar_trigger": false,
      "taf_trigger": false,
      "metar": "METAR UBBB 282230Z 21012KT 9999 SCT003 SCT040CB OVC040 12/11 Q1001 NOSIG",
      "taf": "TAF UBBB 281659Z 2818/2918 20010KT 9999 -SHRA SCT008 SCT030CB OVC030 TX15/2911Z TN11/2901Z"
    },
    {
      "icao": "UDSG",
      "alert": "OK",
      "vis_m": 9999,
      "fzfg": false,
      "metar_trigger": false,
      "taf_trigger": false,
      "metar": "METAR UDSG 282230Z 26001KT 9999 FEW043CB BKN049 05/M02 Q1007 NOSIG",
      "taf": ""
    },
    {
      "icao": "UDYZ",
      "alert": "OK",
      "vis_m": 9999,
      "fzfg": false,
      "metar_trigger": false,
      "taf_trigger": false,
      "metar": "METAR UDYZ 282230Z 14008KT 9999 -SHRA BKN043CB 10/04 Q1004 NOSIG",
      "taf": "TAF UDYZ 281700Z 2818/2918 04006KT 6000 SCT040"
    },
    {
      "icao": "UGKO",
      "alert": "OK",
      "vis_m": 9999,
      "fzfg": false,
      "metar_trigger": false,
      "taf_trigger": false,
      "metar": "METAR UGKO 282230Z VRB02KT CAVOK 08/07 Q1005 NOSIG",
      "taf": "TAF UGKO 281700Z 2818/2918 08007KT 9999 BKN050 TX18/2911Z TN06/2903Z"
    }
  ]
}