{
  "ts_utc": "2025-12-21T04:55:33Z",
  "threshold_m": 150,
  "source": "stations_override.txt (ICAO list) + aviationweather.gov (METAR/TAF raw)",
  "station_count": 114,
  "stations": [
    {
      "icao": "BIKF",
      "alert": "OK",
      "vis_m": 9999,
      "fzfg": false,
      "metar_trigger": false,
      "taf_trigger": false,
      "metar": "METAR BIKF 210430Z 12018KT 9999 FEW012 BKN021 09/07 Q1007",
      "taf": "TAF BIKF 210445Z 2106/2206 11018G28KT 9999 BKN025 TX09/2106Z TN06/2205Z"
    },
    {
      "icao": "BKPR",
      "alert": "OK",
      "vis_m": 250,
      "fzfg": true,
      "metar_trigger": false,
      "taf_trigger": false,
      "metar": "METAR BKPR 210430Z 14005KT 0250 R17/0800N R35/0300N FZFG BKN002 M01/M01 Q1019 NOSIG",
      "taf": "TAF BKPR 202330Z 2100/2124 VRB03KT 0150 FZFG BKN002"
    },
    {
      "icao": "EBBR",
      "alert": "OK",
      "vis_m": 7000,
      "fzfg": false,
      "metar_trigger": false,
      "taf_trigger": false,
      "metar": "METAR EBBR 210420Z 11004KT 7000 FEW013 07/06 Q1010 TEMPO 4000 BR BKN012",
      "taf": ""
    },
    {
      "icao": "EBCI",
      "alert": "OK",
      "vis_m": 9999,
      "fzfg": false,
      "metar_trigger": false,
      "taf_trigger": false,
      "metar": "METAR EBCI 210420Z COR 13003KT 100V160 9999 SCT009 BKN011 10/09 Q1010 TEMPO 3000 BR BKN006",
      "taf": ""
    },
    {
      "icao": "EDDB",
      "alert": "OK",
      "vis_m": 4800,
      "fzfg": false,
      "metar_trigger": false,
      "taf_trigger": false,
      "metar": "METAR EDDB 210450Z AUTO 10007KT 4800 BR OVC002 07/07 Q1018 TEMPO 0600 VV002",
      "taf": ""
    },
    {
      "icao": "EDDH",
      "alert": "OK",
      "vis_m": 9999,
      "fzfg": false,
      "metar_trigger": false,
      "taf_trigger": false,
      "metar": "METAR EDDH 210450Z AUTO 10008KT 9999 BKN006 OVC043 05/04 Q1017 TEMPO BKN004",
      "taf": "TAF EDDH 202300Z 2100/2206 09010KT 9000 OVC003"
    },
    {
      "icao": "EDDK",
      "alert": "OK",
      "vis_m": 9999,
      "fzfg": false,
      "metar_trigger": false,
      "taf_trigger": false,
      "metar": "METAR EDDK 210450Z AUTO 08005KT 060V120 9999 SHRA FEW049 FEW///TCU 08/07 Q1013 BECMG NSW",
      "taf": "TAF EDDK 202300Z 2100/2206 11007KT 9999 BKN025"
    },
    {
      "icao": "EDDN",
      "alert": "OK",
      "vis_m": 7000,
      "fzfg": false,
      "metar_trigger": false,
      "taf_trigger": false,
      "metar": "METAR EDDN 210450Z AUTO 13004KT 7000 1500 BR NSC 00/M00 Q1015",
      "taf": "TAF EDDN 202300Z 2100/2124 11005KT CAVOK"
    },
    {
      "icao": "EDFH",
      "alert": "OK",
      "vis_m": 700,
      "fzfg": false,
      "metar_trigger": false,
      "taf_trigger": false,
      "metar": "METAR EDFH 210420Z 14011KT 0700 R21/0800N FG SCT000 05/05 Q1012",
      "taf": "TAF EDFH 202300Z 2100/2124 13012KT 0300 FG VV001"
    },
    {
      "icao": "EDJA",
      "alert": "OK",
      "vis_m": 500,
      "fzfg": true,
      "metar_trigger": false,
      "taf_trigger": false,
      "metar": "METAR EDJA 210420Z AUTO 00000KT 0500 0400 R24/0650U // VV/// M03/M04 Q1012",
      "taf": "TAF EDJA 210200Z 2103/2112 VRB03KT 0800 FZFG VV001"
    },
    {
      "icao": "EDLW",
      "alert": "OK",
      "vis_m": 9999,
      "fzfg": false,
      "metar_trigger": false,
      "taf_trigger": false,
      "metar": "METAR EDLW 210420Z 10007KT 9999 FEW048 09/07 Q1012",
      "taf": "TAF EDLW 210425Z 2105/2124 08007KT CAVOK"
    },
    {
      "icao": "EDSB",
      "alert": "OK",
      "vis_m": 400,
      "fzfg": false,
      "metar_trigger": false,
      "taf_trigger": false,
      "metar": "METAR EDSB 210420Z 02002KT 0400 R21/0400N FG VV/// 04/04 Q1013",
      "taf": "TAF EDSB 202300Z 2100/2124 03003KT 0300 FG VV002"
    },
    {
      "icao": "EETN",
      "alert": "OK",
      "vis_m": 9999,
      "fzfg": false,
      "metar_trigger": false,
      "taf_trigger": false,
      "metar": "METAR EETN 210450Z 30014KT 9999 SCT014 FEW020CB OVC027 06/03 Q1007 NOSIG",
      "taf": "TAF EETN 202330Z 2100/2124 26014KT 9999 BKN015 BKN025"
    },
    {
      "icao": "EFHK",
      "alert": "OK",
      "vis_m": 9999,
      "fzfg": false,
      "metar_trigger": false,
      "taf_trigger": false,
      "metar": "METAR EFHK 210450Z 30012KT 9999 FEW008 BKN013 BKN020 05/03 Q1005 NOSIG",
      "taf": "TAF EFHK 210226Z 2103/2203 26010KT 9999 SCT012 BKN020"
    },
    {
      "icao": "EFTU",
      "alert": "OK",
      "vis_m": 9999,
      "fzfg": false,
      "metar_trigger": false,
      "taf_trigger": false,
      "metar": "METAR EFTU 210450Z AUTO 32009KT 290V010 9999 OVC013 05/02 Q1009",
      "taf": "TAF EFTU 210226Z 2103/2203 31009KT 9999 OVC017"
    },
    {
      "icao": "EGGW",
      "alert": "OK",
      "vis_m": 300,
      "fzfg": false,
      "metar_trigger": false,
      "taf_trigger": false,
      "metar": "METAR EGGW 210420Z AUTO 11006KT 0300 R07/0800N BCFG OVC002 07/07 Q1007",
      "taf": "TAF EGGW 202258Z 2100/2124 12007KT 6000 BKN005"
    },
    {
      "icao": "EGKK",
      "alert": "OK",
      "vis_m": 7000,
      "fzfg": false,
      "metar_trigger": false,
      "taf_trigger": false,
      "metar": "METAR EGKK 210420Z 11004KT 7000 SCT004 SCT010 08/08 Q1007",
      "taf": ""
    },
    {
      "icao": "EHEH",
      "alert": "OK",
      "vis_m": 4900,
      "fzfg": false,
      "metar_trigger": false,
      "taf_trigger": false,
      "metar": "SPECI EHEH 210430Z AUTO 12003KT 090V160 4900 BR SCT018 BKN024 BKN095 08/07 Q1011 GRN",
      "taf": "TAF EHEH 202335Z 2100/2206 11005KT 6000 SCT022"
    },
    {
      "icao": "EKBI",
      "alert": "OK",
      "vis_m": 9000,
      "fzfg": false,
      "metar_trigger": false,
      "taf_trigger": false,
      "metar": "METAR EKBI 210450Z AUTO 11008KT 9000 OVC005/// 05/04 Q1019",
      "taf": "TAF EKBI 210227Z 2103/2203 10008KT 3000 BR BKN003"
    },
    {
      "icao": "EKCH",
      "alert": "OK",
      "vis_m": 9999,
      "fzfg": false,
      "metar_trigger": false,
      "taf_trigger": false,
      "metar": "METAR EKCH 210450Z 13006KT 9999 OVC009 05/04 Q1021 NOSIG",
      "taf": "TAF EKCH 210227Z 2103/2203 16004KT 8000 BKN006"
    },
    {
      "icao": "ENTO",
      "alert": "OK",
      "vis_m": 9999,
      "fzfg": false,
      "metar_trigger": false,
      "taf_trigger": false,
      "metar": "METAR ENTO 210420Z AUTO 36006KT 9999 NCD M00/M02 Q1020",
      "taf": "TAF ENTO 202300Z 2100/2124 35007KT CAVOK"
    },
    {
      "icao": "EPGD",
      "alert": "OK",
      "vis_m": 9999,
      "fzfg": false,
      "metar_trigger": false,
      "taf_trigger": false,
      "metar": "METAR EPGD 210430Z 25004KT 9999 OVC021 05/02 Q1020",
      "taf": "TAF EPGD 202330Z 2100/2124 25005KT 9999 BKN020"
    },
    {
      "icao": "EPKK",
      "alert": "OK",
      "vis_m": 2600,
      "fzfg": false,
      "metar_trigger": false,
      "taf_trigger": false,
      "metar": "METAR EPKK 210430Z 21001KT 2600 BR BKN005 OVC015 03/02 Q1019",
      "taf": "TAF EPKK 210230Z 2103/2203 VRB02KT 4000 BR BKN012"
    },
    {
      "icao": "EPKT",
      "alert": "OK",
      "vis_m": 300,
      "fzfg": false,
      "metar_trigger": false,
      "taf_trigger": false,
      "metar": "METAR EPKT 210430Z 06001KT 0300 R26/1200U -DZ FG FEW001 OVC003 04/04 Q1019",
      "taf": "TAF EPKT 202330Z 2100/2124 VRB02KT 1500 BR OVC012"
    },
    {
      "icao": "EPWA",
      "alert": "OK",
      "vis_m": 9999,
      "fzfg": false,
      "metar_trigger": false,
      "taf_trigger": false,
      "metar": "METAR EPWA 210430Z 03005KT 9999 BKN015 04/04 Q1020 TEMPO BKN012",
      "taf": ""
    },
    {
      "icao": "EPWR",
      "alert": "OK",
      "vis_m": 3600,
      "fzfg": false,
      "metar_trigger": false,
      "taf_trigger": false,
      "metar": "METAR EPWR 210430Z VRB02KT 3600 BR FEW010 BKN035 04/03 Q1019",
      "taf": ""
    },
    {
      "icao": "ESGG",
      "alert": "OK",
      "vis_m": 300,
      "fzfg": false,
      "metar_trigger": false,
      "taf_trigger": false,
      "metar": "METAR ESGG 210420Z VRB02KT 0300 R03/1800D R21/1100D FG OVC002 05/04 Q1020",
      "taf": ""
    },
    {
      "icao": "ESKN",
      "alert": "OK",
      "vis_m": 9999,
      "fzfg": false,
      "metar_trigger": false,
      "taf_trigger": false,
      "metar": "METAR ESKN 210420Z 28006KT CAVOK 00/M00 Q1017",
      "taf": "TAF ESKN 210230Z 2103/2203 28007KT CAVOK"
    },
    {
      "icao": "ESMX",
      "alert": "OK",
      "vis_m": 9000,
      "fzfg": false,
      "metar_trigger": false,
      "taf_trigger": false,
      "metar": "METAR ESMX 210420Z AUTO 35004KT 9000 SCT013/// BKN017/// 03/03 Q1019",
      "taf": ""
    },
    {
      "icao": "EVRA",
      "alert": "OK",
      "vis_m": 9999,
      "fzfg": false,
      "metar_trigger": false,
      "taf_trigger": false,
      "metar": "METAR EVRA 210450Z 27004KT 230V010 9999 BKN026 06/04 Q1013 NOSIG",
      "taf": "TAF EVRA 210202Z 2103/2203 21007KT 9999 BKN015"
    },
    {
      "icao": "EYKA",
      "alert": "OK",
      "vis_m": 9999,
      "fzfg": false,
      "metar_trigger": false,
      "taf_trigger": false,
      "metar": "METAR EYKA 210450Z 24007KT 9999 OVC033 05/03 Q1017",
      "taf": "TAF EYKA 202300Z 2100/2124 24008KT 9000 SCT010 OVC015"
    },
    {
      "icao": "EYVI",
      "alert": "OK",
      "vis_m": 9999,
      "fzfg": false,
      "metar_trigger": false,
      "taf_trigger": false,
      "metar": "METAR EYVI 210450Z 24007KT 9999 OVC026 03/03 Q1017 NOSIG",
      "taf": "TAF EYVI 202300Z 2100/2124 VRB04KT 9000 SCT010 OVC015"
    },
    {
      "icao": "GCLP",
      "alert": "OK",
      "vis_m": 9999,
      "fzfg": false,
      "metar_trigger": false,
      "taf_trigger": false,
      "metar": "METAR GCLP 210430Z 35008KT 9999 FEW025 BKN040 16/12 Q1020 NOSIG",
      "taf": "TAF GCLP 210200Z 2103/2203 36013KT 9999 SCT035 TX21/2114Z TN15/2106Z"
    },
    {
      "icao": "GCTS",
      "alert": "OK",
      "vis_m": 9999,
      "fzfg": false,
      "metar_trigger": false,
      "taf_trigger": false,
      "metar": "METAR GCTS 210430Z 04007KT 9999 SCT035 17/09 Q1021 NOSIG",
      "taf": "TAF GCTS 210200Z 2103/2203 05009KT 9999 SCT035 TX22/2114Z TN15/2106Z"
    },
    {
      "icao": "HECA",
      "alert": "OK",
      "vis_m": 6000,
      "fzfg": false,
      "metar_trigger": false,
      "taf_trigger": false,
      "metar": "METAR HECA 210430Z 17007KT 6000 NSC 14/03 Q1013 NOSIG",
      "taf": ""
    },
    {
      "icao": "HEGN",
      "alert": "OK",
      "vis_m": 9999,
      "fzfg": false,
      "metar_trigger": false,
      "taf_trigger": false,
      "metar": "METAR HEGN 210400Z 00000KT CAVOK 13/08 Q1015 NOSIG",
      "taf": ""
    },
    {
      "icao": "HESH",
      "alert": "OK",
      "vis_m": null,
      "fzfg": false,
      "metar_trigger": false,
      "taf_trigger": false,
      "metar": "",
      "taf": ""
    },
    {
      "icao": "HESX",
      "alert": "OK",
      "vis_m": 6000,
      "fzfg": false,
      "metar_trigger": false,
      "taf_trigger": false,
      "metar": "METAR HESX 210400Z 19004KT 6000 NSC 13/07 Q1013 NOSIG",
      "taf": ""
    },
    {
      "icao": "LATI",
      "alert": "OK",
      "vis_m": 9999,
      "fzfg": false,
      "metar_trigger": false,
      "taf_trigger": false,
      "metar": "METAR LATI 210450Z 15003KT CAVOK 01/M00 Q1016 NOSIG",
      "taf": "TAF LATI 202300Z 2100/2124 VRB03KT 6000 NSC TX17/2112Z TN01/2105Z"
    },
    {
      "icao": "LBSF",
      "alert": "OK",
      "vis_m": 900,
      "fzfg": true,
      "metar_trigger": false,
      "taf_trigger": false,
      "metar": "METAR LBSF 210430Z 30002KT 0900 R27/0800U FZFG FEW009 SCT031 M01/M01 Q1018 NOSIG",
      "taf": ""
    },
    {
      "icao": "LBWN",
      "alert": "OK",
      "vis_m": 9999,
      "fzfg": false,
      "metar_trigger": false,
      "taf_trigger": false,
      "metar": "METAR LBWN 210430Z AUTO 29003KT 9999 FEW014/// OVC037/// 06/06 Q1019 NOSIG",
      "taf": "TAF LBWN 202300Z 2100/2124 02010KT 7000 BKN008 OVC015"
    },
    {
      "icao": "LCLK",
      "alert": "OK",
      "vis_m": 9999,
      "fzfg": false,
      "metar_trigger": false,
      "taf_trigger": false,
      "metar": "METAR LCLK 210430Z 32005KT 9999 FEW030 BKN050 16/13 Q1015 NOSIG",
      "taf": "TAF LCLK 202330Z 2100/2200 04007KT 9999 SCT030"
    },
    {
      "icao": "LDDU",
      "alert": "OK",
      "vis_m": 9999,
      "fzfg": false,
      "metar_trigger": false,
      "taf_trigger": false,
      "metar": "METAR LDDU 210430Z 06005KT CAVOK 08/05 Q1015 NOSIG",
      "taf": "TAF LDDU 202325Z 2100/2124 05004KT CAVOK TX15/2112Z TN09/2105Z"
    },
    {
      "icao": "LDSP",
      "alert": "OK",
      "vis_m": 9999,
      "fzfg": false,
      "metar_trigger": false,
      "taf_trigger": false,
      "metar": "METAR LDSP 210430Z AUTO 31003KT CAVOK 08/02 Q1015 NOSIG",
      "taf": "TAF LDSP 202325Z 2100/2124 VRB02KT CAVOK TX16/2113Z TN07/2106Z"
    },
    {
      "icao": "LDZA",
      "alert": "OK",
      "vis_m": 3000,
      "fzfg": false,
      "metar_trigger": false,
      "taf_trigger": false,
      "metar": "METAR LDZA 210430Z 06003KT 020V100 3000 BR OVC003 03/02 Q1020 NOSIG",
      "taf": "TAF LDZA 202325Z 2100/2124 VRB02KT 2000 BR OVC003 TX05/2113Z TN03/2100Z"
    },
    {
      "icao": "LEAL",
      "alert": "OK",
      "vis_m": 9999,
      "fzfg": false,
      "metar_trigger": false,
      "taf_trigger": false,
      "metar": "METAR LEAL 210430Z 27007KT 230V290 CAVOK 11/06 Q1010 NOSIG",
      "taf": "TAF LEAL 202300Z 2100/2124 31012KT 9999 FEW030 TX15/2112Z TN08/2106Z"
    },
    {
      "icao": "LEBL",
      "alert": "OK",
      "vis_m": 9999,
      "fzfg": false,
      "metar_trigger": false,
      "taf_trigger": false,
      "metar": "METAR LEBL 210430Z 30008KT 9999 FEW030 BKN050 11/10 Q1007 NOSIG",
      "taf": "TAF LEBL 202300Z 2100/2124 33008KT 9999 FEW030 BKN050 TX16/2112Z TN09/2106Z"
    },
    {
      "icao": "LECH",
      "alert": "OK",
      "vis_m": 6000,
      "fzfg": false,
      "metar_trigger": false,
      "taf_trigger": false,
      "metar": "METAR LECH 210430Z AUTO 19003KT 6000 NCD 05/05 Q1008",
      "taf": ""
    },
    {
      "icao": "LEMD",
      "alert": "OK",
      "vis_m": 9999,
      "fzfg": false,
      "metar_trigger": false,
      "taf_trigger": false,
      "metar": "METAR LEMD 210430Z 17011KT 9999 4000N RA FEW008 SCT012 BKN017 06/06 Q1004 NOSIG",
      "taf": ""
    },
    {
      "icao": "LEMG",
      "alert": "OK",
      "vis_m": 9999,
      "fzfg": false,
      "metar_trigger": false,
      "taf_trigger": false,
      "metar": "METAR LEMG 210430Z 32003KT 260V350 9999 -RA SCT030 BKN040 08/06 Q1012 NOSIG",
      "taf": "TAF LEMG 202300Z 2100/2124 30006KT 9999 FEW030 TX13/2114Z TN05/2106Z"
    },
    {
      "icao": "LERS",
      "alert": "OK",
      "vis_m": 9999,
      "fzfg": false,
      "metar_trigger": false,
      "taf_trigger": false,
      "metar": "METAR LERS 210430Z AUTO 36003KT 320V030 CAVOK 08/07 Q1008",
      "taf": "TAF LERS 210200Z 2103/2203 36005KT 9999 FEW020 TX15/2112Z TN06/2106Z"
    },
    {
      "icao": "LEVC",
      "alert": "OK",
      "vis_m": 9999,
      "fzfg": false,
      "metar_trigger": false,
      "taf_trigger": false,
      "metar": "METAR LEVC 210430Z 24009KT CAVOK 08/04 Q1009 NOSIG",
      "taf": "TAF LEVC 202300Z 2100/2124 26008KT 9999 FEW040 TX16/2112Z TN06/2107Z"
    },
    {
      "icao": "LFLL",
      "alert": "OK",
      "vis_m": 9999,
      "fzfg": false,
      "metar_trigger": false,
      "taf_trigger": false,
      "metar": "METAR LFLL 210430Z 16008KT CAVOK 08/06 Q1010 NOSIG",
      "taf": "TAF LFLL 202300Z 2100/2206 14006KT CAVOK"
    },
    {
      "icao": "LFMN",
      "alert": "OK",
      "vis_m": 9999,
      "fzfg": false,
      "metar_trigger": false,
      "taf_trigger": false,
      "metar": "METAR LFMN 210430Z 32010KT 9999 BKN058 OVC150 12/10 Q1012 NOSIG",
      "taf": "TAF LFMN 210200Z 2103/2209 33010KT 9999 BKN050"
    },
    {
      "icao": "LFOB",
      "alert": "OK",
      "vis_m": 4600,
      "fzfg": false,
      "metar_trigger": false,
      "taf_trigger": false,
      "metar": "METAR LFOB 210430Z AUTO 12006KT 4600 BR OVC003 09/09 Q1008 TEMPO 0500 FG VV///",
      "taf": "TAF LFOB 202300Z 2100/2124 13005KT 6000 OVC006"
    },
    {
      "icao": "LFPO",
      "alert": "OK",
      "vis_m": 8000,
      "fzfg": false,
      "metar_trigger": false,
      "taf_trigger": false,
      "metar": "METAR LFPO 210430Z 05002KT 8000 NSC 09/09 Q1008 TEMPO 4000 BR",
      "taf": "TAF LFPO 202300Z 2100/2206 16005KT 8000 FEW005 BKN093 OVC160"
    },
    {
      "icao": "LFSB",
      "alert": "OK",
      "vis_m": 9999,
      "fzfg": false,
      "metar_trigger": false,
      "taf_trigger": false,
      "metar": "METAR LFSB 210430Z AUTO 00000KT CAVOK 01/01 Q1012 TEMPO 0500 FG VV///",
      "taf": "TAF LFSB 202300Z 2100/2124 VRB02KT CAVOK"
    },
    {
      "icao": "LGAV",
      "alert": "OK",
      "vis_m": 9999,
      "fzfg": false,
      "metar_trigger": false,
      "taf_trigger": false,
      "metar": "METAR LGAV 210420Z 01009KT 9999 SCT025 13/09 Q1015 NOSIG",
      "taf": "TAF LGAV 202300Z 2100/2124 02012KT 9999 SCT025"
    },
    {
      "icao": "LGIR",
      "alert": "OK",
      "vis_m": 9999,
      "fzfg": false,
      "metar_trigger": false,
      "taf_trigger": false,
      "metar": "METAR LGIR 210420Z 19004KT 9999 FEW018 BKN025 BKN080 10/09 Q1012 NOSIG",
      "taf": "TAF LGIR 202300Z 2100/2124 18008KT 9999 SCT020 BKN080"
    },
    {
      "icao": "LGKR",
      "alert": "OK",
      "vis_m": 8000,
      "fzfg": false,
      "metar_trigger": false,
      "taf_trigger": false,
      "metar": "METAR LGKR 210420Z 00000KT 8000 FEW010 07/06 Q1014 NOSIG",
      "taf": "TAF LGKR 202300Z 2100/2124 VRB05KT 9999 SCT015"
    },
    {
      "icao": "LGRP",
      "alert": "OK",
      "vis_m": 9999,
      "fzfg": false,
      "metar_trigger": false,
      "taf_trigger": false,
      "metar": "METAR LGRP 210420Z VRB04KT 9999 VCTS FEW018CB BKN020 16/14 Q1012 WS R06 NOSIG",
      "taf": "TAF LGRP 202300Z 2100/2124 VRB05KT 9999 FEW018 SCT020"
    },
    {
      "icao": "LGTS",
      "alert": "OK",
      "vis_m": 7000,
      "fzfg": false,
      "metar_trigger": false,
      "taf_trigger": false,
      "metar": "METAR LGTS 210420Z VRB02KT 7000 SCT008 07/07 Q1018 NOSIG",
      "taf": "TAF LGTS 202300Z 2100/2124 VRB03KT 8000 FEW010"
    },
    {
      "icao": "LGZA",
      "alert": "OK",
      "vis_m": null,
      "fzfg": false,
      "metar_trigger": false,
      "taf_trigger": false,
      "metar": "",
      "taf": "TAF LGZA 210200Z 2103/2112 VRB05KT 9999 SCT020 BKN070"
    },
    {
      "icao": "LHBP",
      "alert": "OK",
      "vis_m": 7000,
      "fzfg": false,
      "metar_trigger": false,
      "taf_trigger": false,
      "metar": "METAR LHBP 210430Z 35002KT 7000 OVC006 05/03 Q1020 NOSIG",
      "taf": "TAF LHBP 202315Z 2100/2124 VRB03KT 8000 OVC010"
    },
    {
      "icao": "LHDC",
      "alert": "OK",
      "vis_m": 5000,
      "fzfg": false,
      "metar_trigger": false,
      "taf_trigger": false,
      "metar": "METAR LHDC 210415Z AUTO 19004KT 5000 BR OVC009 05/05 Q1020",
      "taf": ""
    },
    {
      "icao": "LIBD",
      "alert": "OK",
      "vis_m": 9999,
      "fzfg": false,
      "metar_trigger": false,
      "taf_trigger": false,
      "metar": "METAR LIBD 210420Z 22005KT 9999 SCT020 08/07 Q1015",
      "taf": "TAF LIBD 202300Z 2100/2124 VRB04KT 9999 SCT040"
    },
    {
      "icao": "LICC",
      "alert": "OK",
      "vis_m": 9999,
      "fzfg": false,
      "metar_trigger": false,
      "taf_trigger": false,
      "metar": "METAR LICC 210420Z 04006KT 9999 BKN020 15/13 Q1012",
      "taf": "TAF LICC 202300Z 2100/2124 05008KT 9999 SCT020"
    },
    {
      "icao": "LICJ",
      "alert": "OK",
      "vis_m": 9999,
      "fzfg": false,
      "metar_trigger": false,
      "taf_trigger": false,
      "metar": "METAR LICJ 210420Z 18003KT 150V210 CAVOK 14/11 Q1011",
      "taf": "TAF LICJ 202300Z 2100/2124 VRB06KT 9999 SCT040"
    },
    {
      "icao": "LIEO",
      "alert": "OK",
      "vis_m": 9999,
      "fzfg": false,
      "metar_trigger": false,
      "taf_trigger": false,
      "metar": "METAR LIEO 210420Z VRB01KT 9999 SCT025 10/10 Q1012",
      "taf": "TAF LIEO 202300Z 2100/2124 VRB05KT 9999 BKN020"
    },
    {
      "icao": "LIMC",
      "alert": "OK",
      "vis_m": 9999,
      "fzfg": false,
      "metar_trigger": false,
      "taf_trigger": false,
      "metar": "METAR LIMC 210420Z 02003KT 9999 BKN059 07/07 Q1016 NOSIG",
      "taf": "TAF LIMC 202300Z 2100/2206 VRB03KT 2000 BR SCT003 BKN050"
    },
    {
      "icao": "LIME",
      "alert": "OK",
      "vis_m": 7000,
      "fzfg": false,
      "metar_trigger": false,
      "taf_trigger": false,
      "metar": "METAR LIME 210420Z 03001KT 7000 SCT003 04/04 Q1016 NOSIG",
      "taf": "TAF LIME 202300Z 2100/2124 VRB03KT 9000 BKN060"
    },
    {
      "icao": "LIPH",
      "alert": "OK",
      "vis_m": 6000,
      "fzfg": false,
      "metar_trigger": false,
      "taf_trigger": false,
      "metar": "METAR LIPH 210420Z AUTO 27002KT 6000 NCD 02/02 Q1016",
      "taf": "TAF LIPH 202300Z 2100/2124 VRB04KT 8000 FEW030"
    },
    {
      "icao": "LIPQ",
      "alert": "OK",
      "vis_m": 9999,
      "fzfg": false,
      "metar_trigger": false,
      "taf_trigger": false,
      "metar": "METAR LIPQ 210420Z AUTO VRB02KT 9999 NCD 01/01 Q1016",
      "taf": "TAF LIPQ 202300Z 2100/2124 VRB04KT CAVOK"
    },
    {
      "icao": "LIPX",
      "alert": "OK",
      "vis_m": 200,
      "fzfg": false,
      "metar_trigger": false,
      "taf_trigger": false,
      "metar": "METAR LIPX 210420Z VRB01KT 0200 R04/0325N FG VV002 02/02 Q1016",
      "taf": "TAF LIPX 202300Z 2100/2124 VRB03KT 7000 FEW003"
    },
    {
      "icao": "LIPY",
      "alert": "OK",
      "vis_m": 5000,
      "fzfg": false,
      "metar_trigger": false,
      "taf_trigger": false,
      "metar": "METAR LIPY 210420Z AUTO VRB02KT 5000 BR FEW007/// OVC038/// 11/10 Q1016",
      "taf": "TAF LIPY 202300Z 2100/2124 VRB05KT 8000 OVC013"
    },
    {
      "icao": "LIPZ",
      "alert": "OK",
      "vis_m": 9999,
      "fzfg": false,
      "metar_trigger": false,
      "taf_trigger": false,
      "metar": "METAR LIPZ 210420Z 01004KT CAVOK 04/03 Q1016 NOSIG",
      "taf": "TAF LIPZ 202300Z 2100/2206 VRB04KT 8000 FEW020"
    },
    {
      "icao": "LIRA",
      "alert": "OK",
      "vis_m": 9999,
      "fzfg": false,
      "metar_trigger": false,
      "taf_trigger": false,
      "metar": "METAR LIRA 210420Z 05003KT CAVOK 07/06 Q1013",
      "taf": "TAF LIRA 202300Z 2100/2124 VRB05KT CAVOK"
    },
    {
      "icao": "LIRN",
      "alert": "OK",
      "vis_m": 9999,
      "fzfg": false,
      "metar_trigger": false,
      "taf_trigger": false,
      "metar": "METAR LIRN 210420Z 36004KT CAVOK 09/07 Q1013 NOSIG",
      "taf": "TAF LIRN 202300Z 2100/2124 05006KT CAVOK"
    },
    {
      "icao": "LLBG",
      "alert": "OK",
      "vis_m": 9999,
      "fzfg": false,
      "metar_trigger": false,
      "taf_trigger": false,
      "metar": "METAR LLBG 210450Z VRB02KT CAVOK 11/08 Q1014 NOSIG",
      "taf": "TAF LLBG 202308Z 2100/2124 VRB04KT CAVOK"
    },
    {
      "icao": "LMML",
      "alert": "OK",
      "vis_m": 9999,
      "fzfg": false,
      "metar_trigger": false,
      "taf_trigger": false,
      "metar": "METAR LMML 210445Z 15004KT 9999 FEW015 SCT049 15/14 Q1011 NOSIG",
      "taf": "TAF LMML 202300Z 2100/2124 13007KT 9999 SCT014"
    },
    {
      "icao": "LOWW",
      "alert": "OK",
      "vis_m": 2800,
      "fzfg": false,
      "metar_trigger": false,
      "taf_trigger": false,
      "metar": "METAR LOWW 210420Z 14007KT 2800 DZ BR VV002 01/01 Q1019 TEMPO 3000 -DZ BR",
      "taf": "TAF LOWW 210215Z 2103/2209 14007KT 3000 BR SCT001 OVC002 TX04/2201Z TN01/2106Z"
    },
    {
      "icao": "LPFR",
      "alert": "OK",
      "vis_m": 9999,
      "fzfg": false,
      "metar_trigger": false,
      "taf_trigger": false,
      "metar": "METAR LPFR 210430Z 26019KT 9999 FEW014 FEW018CB 14/11 Q1010",
      "taf": "TAF LPFR 202300Z 2100/2124 VRB05KT 9999 SCT020"
    },
    {
      "icao": "LPPR",
      "alert": "OK",
      "vis_m": 9999,
      "fzfg": false,
      "metar_trigger": false,
      "taf_trigger": false,
      "metar": "METAR LPPR 210430Z 01003KT 9999 FEW040 06/04 Q1006",
      "taf": "TAF LPPR 202300Z 2100/2124 26010KT 9999 SCT018"
    },
    {
      "icao": "LPPT",
      "alert": "OK",
      "vis_m": 9999,
      "fzfg": false,
      "metar_trigger": false,
      "taf_trigger": false,
      "metar": "METAR LPPT 210430Z 29006KT 260V320 9999 -RA FEW015 SCT022 09/07 Q1009",
      "taf": "TAF LPPT 202300Z 2100/2206 24010KT 9999 SCT025"
    },
    {
      "icao": "LQSA",
      "alert": "OK",
      "vis_m": 6000,
      "fzfg": false,
      "metar_trigger": false,
      "taf_trigger": false,
      "metar": "METAR LQSA 210430Z 12005KT 6000 BKN004 01/01 Q1018 NOSIG",
      "taf": "TAF LQSA 202300Z 2100/2124 VRB02KT 3000 BR BKN003 TX04/2113Z TNM01/2105Z"
    },
    {
      "icao": "LQTZ",
      "alert": "OK",
      "vis_m": 600,
      "fzfg": false,
      "metar_trigger": false,
      "taf_trigger": false,
      "metar": "METAR LQTZ 210430Z 12003KT 0600 R09/0550N FG VV003 03/03 Q1019",
      "taf": ""
    },
    {
      "icao": "LRCL",
      "alert": "OK",
      "vis_m": 7000,
      "fzfg": false,
      "metar_trigger": false,
      "taf_trigger": false,
      "metar": "METAR LRCL 210430Z 06002KT 7000 BKN005 02/02 Q1019",
      "taf": "TAF LRCL 210200Z 2103/2112 VRB04KT 3000 BR NSC"
    },
    {
      "icao": "LRCV",
      "alert": "OK",
      "vis_m": 300,
      "fzfg": false,
      "metar_trigger": false,
      "taf_trigger": false,
      "metar": "METAR LRCV 210430Z 00000KT 0300 R26/0400N FG VV002 03/03 Q1020",
      "taf": "TAF LRCV 210200Z 2103/2112 VRB04KT 0200 FG VV001"
    },
    {
      "icao": "LRIA",
      "alert": "OK",
      "vis_m": 300,
      "fzfg": false,
      "metar_trigger": false,
      "taf_trigger": false,
      "metar": "METAR LRIA 210430Z 11006KT 0300 R14/0700N FG VV001 01/01 Q1020",
      "taf": "TAF LRIA 210200Z 2103/2112 11006KT 0400 FG OVC002"
    },
    {
      "icao": "LROP",
      "alert": "OK",
      "vis_m": 3000,
      "fzfg": false,
      "metar_trigger": false,
      "taf_trigger": false,
      "metar": "METAR LROP 210430Z VRB02KT 3000 BR OVC002 02/02 Q1020 TEMPO 1500 BR",
      "taf": ""
    },
    {
      "icao": "LRSB",
      "alert": "OK",
      "vis_m": 150,
      "fzfg": false,
      "metar_trigger": false,
      "taf_trigger": false,
      "metar": "METAR LRSB 210430Z VRB01KT 0150 R27/0375N BCFG BKN003 M04/M04 Q1019",
      "taf": ""
    },
    {
      "icao": "LRTR",
      "alert": "OK",
      "vis_m": 1200,
      "fzfg": false,
      "metar_trigger": false,
      "taf_trigger": false,
      "metar": "METAR LRTR 210430Z 34006KT 1200 R11/P2000 BR OVC002 04/04 Q1020",
      "taf": "TAF LRTR 202300Z 2100/2124 VRB04KT 0200 FG VV001"
    },
    {
      "icao": "LTAF",
      "alert": "OK",
      "vis_m": 9999,
      "fzfg": false,
      "metar_trigger": false,
      "taf_trigger": false,
      "metar": "METAR LTAF 210420Z VRB02KT CAVOK 09/05 Q1018 NOSIG RMK RWY23 VRB02KT 4AC100",
      "taf": "TAF LTAF 202240Z 2100/2124 02008KT CAVOK"
    },
    {
      "icao": "LTAI",
      "alert": "OK",
      "vis_m": 4500,
      "fzfg": false,
      "metar_trigger": false,
      "taf_trigger": false,
      "metar": "SPECI LTAI 210439Z 27006KT 200V360 4500 TSRA SCT012CB BKN025 12/09 Q1015 BECMG TL0520 9999 NSW",
      "taf": "TAF LTAI 202240Z 2100/2124 34009KT 9999 BKN025 BKN090"
    },
    {
      "icao": "LTFM",
      "alert": "OK",
      "vis_m": 9999,
      "fzfg": false,
      "metar_trigger": false,
      "taf_trigger": false,
      "metar": "METAR LTFM 210420Z 09004KT 9999 FEW018 BKN032 BKN100 12/08 Q1017 NOSIG RMK RWY17L 10002KT RWY34L 07004KT RWY16R 09001KT RWY36 VRB02KT RWY18 15002KT",
      "taf": "TAF LTFM 202240Z 2100/2206 05008KT 9999 SCT016 BKN022"
    },
    {
      "icao": "LUBL",
      "alert": "OK",
      "vis_m": null,
      "fzfg": false,
      "metar_trigger": false,
      "taf_trigger": false,
      "metar": "",
      "taf": ""
    },
    {
      "icao": "LUKK",
      "alert": "OK",
      "vis_m": 450,
      "fzfg": true,
      "metar_trigger": false,
      "taf_trigger": false,
      "metar": "METAR LUKK 210430Z VRB01KT 0450 R08/0600N FZFG VV001 M01/M01 Q1020 NOSIG",
      "taf": "TAF LUKK 202317Z 2100/2124 VRB04KT 0300 FZFG VV001"
    },
    {
      "icao": "LWSK",
      "alert": "OK",
      "vis_m": 400,
      "fzfg": true,
      "metar_trigger": false,
      "taf_trigger": false,
      "metar": "METAR LWSK 210450Z VRB02KT 0400 R34/0600N FZFG VV002 M01/M02 Q1020 NOSIG",
      "taf": "TAF LWSK 210230Z 2103/2203 VRB02KT 0200 FZFG VV002"
    },
    {
      "icao": "LYBE",
      "alert": "OK",
      "vis_m": 4000,
      "fzfg": false,
      "metar_trigger": false,
      "taf_trigger": false,
      "metar": "METAR LYBE 210430Z VRB02KT 4000 BR OVC010 04/04 Q1020 NOSIG",
      "taf": "TAF LYBE 202300Z 2100/2124 06004KT 0500 FG VV001 TX05/2113Z TN03/2106Z"
    },
    {
      "icao": "LZIB",
      "alert": "OK",
      "vis_m": 8000,
      "fzfg": false,
      "metar_trigger": false,
      "taf_trigger": false,
      "metar": "METAR LZIB 210430Z 10003KT 070V130 8000 -DZ OVC004 03/03 Q1020 NOSIG",
      "taf": ""
    },
    {
      "icao": "LZKZ",
      "alert": "OK",
      "vis_m": 9999,
      "fzfg": false,
      "metar_trigger": false,
      "taf_trigger": false,
      "metar": "METAR LZKZ 210430Z VRB01KT 9999 OVC007 03/03 Q1019 NOSIG",
      "taf": "TAF LZKZ 202315Z 2100/2200 VRB02KT 5000 SCT011 BKN030"
    },
    {
      "icao": "LZTT",
      "alert": "OK",
      "vis_m": 9999,
      "fzfg": false,
      "metar_trigger": false,
      "taf_trigger": false,
      "metar": "METAR LZTT 210430Z 30003KT 9999 FEW033 M04/M04 Q1018",
      "taf": ""
    },
    {
      "icao": "OEJN",
      "alert": "OK",
      "vis_m": 9999,
      "fzfg": false,
      "metar_trigger": false,
      "taf_trigger": false,
      "metar": "METAR OEJN 210400Z 11004KT CAVOK 22/00 Q1012 NOSIG",
      "taf": "TAF OEJN 202300Z 2100/2206 06008KT CAVOK"
    },
    {
      "icao": "OEMA",
      "alert": "OK",
      "vis_m": 9999,
      "fzfg": false,
      "metar_trigger": false,
      "taf_trigger": false,
      "metar": "METAR OEMA 210400Z 06010KT CAVOK 11/M07 Q1021 NOSIG",
      "taf": "TAF OEMA 202300Z 2100/2206 09010KT CAVOK"
    },
    {
      "icao": "OERK",
      "alert": "OK",
      "vis_m": 9999,
      "fzfg": false,
      "metar_trigger": false,
      "taf_trigger": false,
      "metar": "METAR OERK 210400Z 27002KT CAVOK 05/01 Q1022 NOSIG",
      "taf": "TAF OERK 202300Z 2100/2206 30008KT 7000 NSC"
    },
    {
      "icao": "OJAI",
      "alert": "OK",
      "vis_m": 4000,
      "fzfg": false,
      "metar_trigger": false,
      "taf_trigger": false,
      "metar": "METAR OJAI 210400Z 11010KT 4000 BR NSC 06/04 Q1018 NOSIG",
      "taf": "TAF OJAI 202300Z 2100/2206 13006KT 4000 BR NSC"
    },
    {
      "icao": "OKBK",
      "alert": "OK",
      "vis_m": null,
      "fzfg": false,
      "metar_trigger": false,
      "taf_trigger": false,
      "metar": "",
      "taf": ""
    },
    {
      "icao": "OMAA",
      "alert": "OK",
      "vis_m": 9999,
      "fzfg": false,
      "metar_trigger": false,
      "taf_trigger": false,
      "metar": "METAR OMAA 210400Z 15005KT CAVOK 13/06 Q1019 NOSIG",
      "taf": "TAF OMAA 202300Z 2100/2206 19006KT 9999 FEW040"
    },
    {
      "icao": "UAAA",
      "alert": "OK",
      "vis_m": 5000,
      "fzfg": false,
      "metar_trigger": false,
      "taf_trigger": false,
      "metar": "METAR UAAA 210430Z 06002MPS 5000 -SN BR SCT012 OVC021 M00/M02 Q1021 NOSIG",
      "taf": "TAF UAAA 202301Z 2100/2124 06003MPS 3100 BR BKN015CB OVC050 TX00/2107Z TNM03/2101Z"
    },
    {
      "icao": "UCFM",
      "alert": "OK",
      "vis_m": 450,
      "fzfg": true,
      "metar_trigger": false,
      "taf_trigger": false,
      "metar": "METAR UCFM 210430Z 35001MPS 0450 0400E R07/0500N -SN FZFG OVC010 M01/M01 Q1022 NOSIG",
      "taf": "TAF UCFM 202251Z 2100/2124 12003MPS 1000 BR FEW004 BKN040CB"
    },
    {
      "icao": "UDYZ",
      "alert": "OK",
      "vis_m": 4200,
      "fzfg": false,
      "metar_trigger": false,
      "taf_trigger": false,
      "metar": "METAR UDYZ 210430Z 00000KT 4200 BR NSC M06/M08 Q1026 NOSIG",
      "taf": "TAF UDYZ 202300Z 2100/2124 VRB04KT 3500 BR NSC"
    },
    {
      "icao": "UGTB",
      "alert": "OK",
      "vis_m": 6000,
      "fzfg": false,
      "metar_trigger": false,
      "taf_trigger": false,
      "metar": "METAR UGTB 210430Z 00000KT 6000 FEW017 OVC025 01/M01 Q1027 NOSIG",
      "taf": ""
    },
    {
      "icao": "UKKK",
      "alert": "OK",
      "vis_m": null,
      "fzfg": false,
      "metar_trigger": false,
      "taf_trigger": false,
      "metar": "",
      "taf": ""
    },
    {
      "icao": "UTTT",
      "alert": "OK",
      "vis_m": null,
      "fzfg": false,
      "metar_trigger": false,
      "taf_trigger": false,
      "metar": "",
      "taf": ""
    }
  ]
}