{
  "ts_utc": "2026-05-18T09:54:23Z",
  "threshold_m": 150,
  "source": "stations_override.txt (ICAO list) + aviationweather.gov (METAR/TAF raw)",
  "station_count": 159,
  "stations": [
    {
      "icao": "BIKF",
      "alert": "OK",
      "vis_m": 9999,
      "fzfg": false,
      "metar_trigger": false,
      "taf_trigger": false,
      "metar": "METAR BIKF 180930Z 06007KT CAVOK 08/00 Q1012",
      "taf": "TAF BIKF 180434Z 1806/1906 11007KT CAVOK TX11/1815Z TN02/1904Z"
    },
    {
      "icao": "BKPR",
      "alert": "OK",
      "vis_m": null,
      "fzfg": false,
      "metar_trigger": false,
      "taf_trigger": false,
      "metar": "",
      "taf": "TAF BKPR 180530Z 1806/1906 01007KT 9999 FEW050"
    },
    {
      "icao": "EBCI",
      "alert": "OK",
      "vis_m": 9999,
      "fzfg": false,
      "metar_trigger": false,
      "taf_trigger": false,
      "metar": "METAR EBCI 180920Z 24008KT 9999 SCT021 12/07 Q1014 NOSIG",
      "taf": "TAF EBCI 180509Z 1806/1912 22006KT 9999 FEW020 SCT040"
    },
    {
      "icao": "EDDB",
      "alert": "OK",
      "vis_m": 9999,
      "fzfg": false,
      "metar_trigger": false,
      "taf_trigger": false,
      "metar": "METAR EDDB 180920Z AUTO 14011KT 100V170 CAVOK 17/07 Q1015 NOSIG",
      "taf": ""
    },
    {
      "icao": "EDDH",
      "alert": "OK",
      "vis_m": 9999,
      "fzfg": false,
      "metar_trigger": false,
      "taf_trigger": false,
      "metar": "METAR EDDH 180920Z AUTO 15013KT 120V190 CAVOK 18/07 Q1013 BECMG 21010KT",
      "taf": "TAF EDDH 180500Z 1806/1912 12005KT 9999 BKN045"
    },
    {
      "icao": "EDDK",
      "alert": "OK",
      "vis_m": 9999,
      "fzfg": false,
      "metar_trigger": false,
      "taf_trigger": false,
      "metar": "METAR EDDK 180920Z AUTO 27005KT 9999 SHRA FEW009 SCT015 BKN049 FEW///CB 10/09 Q1014 TEMPO NSW BKN012",
      "taf": ""
    },
    {
      "icao": "EDDN",
      "alert": "OK",
      "vis_m": 9999,
      "fzfg": false,
      "metar_trigger": false,
      "taf_trigger": false,
      "metar": "METAR EDDN 180920Z AUTO VRB05KT CAVOK 19/03 Q1014 NOSIG",
      "taf": "TAF EDDN 180500Z 1806/1906 13005KT CAVOK"
    },
    {
      "icao": "EDDS",
      "alert": "OK",
      "vis_m": 9999,
      "fzfg": false,
      "metar_trigger": false,
      "taf_trigger": false,
      "metar": "METAR EDDS 180920Z AUTO 14005KT 100V180 9999 VCSH FEW011 FEW///TCU 11/08 Q1015 TEMPO SHRA",
      "taf": "TAF EDDS 180500Z 1806/1906 VRB02KT CAVOK"
    },
    {
      "icao": "EDFH",
      "alert": "OK",
      "vis_m": 8000,
      "fzfg": false,
      "metar_trigger": false,
      "taf_trigger": false,
      "metar": "METAR EDFH 180920Z 28010KT 240V320 8000 -RA BKN002 BKN014 OVC032 09/08 Q1014",
      "taf": ""
    },
    {
      "icao": "EDJA",
      "alert": "OK",
      "vis_m": 9999,
      "fzfg": false,
      "metar_trigger": false,
      "taf_trigger": false,
      "metar": "METAR EDJA 180920Z 30007KT 260V330 9999 SCT050 BKN060 14/04 Q1015",
      "taf": "TAF EDJA 180800Z 1809/1818 25007KT 9999 SCT035"
    },
    {
      "icao": "EDLW",
      "alert": "OK",
      "vis_m": 9999,
      "fzfg": false,
      "metar_trigger": false,
      "taf_trigger": false,
      "metar": "METAR EDLW 180920Z 21004KT 9999 FEW007 OVC037 11/10 Q1013",
      "taf": "TAF EDLW 180500Z 1806/1906 18005KT 9999 BKN040"
    },
    {
      "icao": "EDNY",
      "alert": "OK",
      "vis_m": 9999,
      "fzfg": false,
      "metar_trigger": false,
      "taf_trigger": false,
      "metar": "METAR EDNY 180920Z 28006KT CAVOK 15/07 Q1016",
      "taf": "TAF EDNY 180800Z 1809/1818 25006KT 9999 SCT045"
    },
    {
      "icao": "EDSB",
      "alert": "OK",
      "vis_m": 9999,
      "fzfg": false,
      "metar_trigger": false,
      "taf_trigger": false,
      "metar": "METAR EDSB 180920Z 20010KT 170V240 9999 FEW022 BKN026 15/08 Q1015",
      "taf": "TAF EDSB 180500Z 1806/1906 VRB02KT CAVOK"
    },
    {
      "icao": "EETN",
      "alert": "OK",
      "vis_m": 9999,
      "fzfg": false,
      "metar_trigger": false,
      "taf_trigger": false,
      "metar": "METAR EETN 180950Z 04008KT CAVOK 14/05 Q1020 NOSIG",
      "taf": "TAF EETN 180530Z 1806/1906 03010KT CAVOK"
    },
    {
      "icao": "EFTU",
      "alert": "OK",
      "vis_m": 9999,
      "fzfg": false,
      "metar_trigger": false,
      "taf_trigger": false,
      "metar": "METAR EFTU 180950Z AUTO 05006KT 360V100 9999 FEW041 SCT046 15/04 Q1021",
      "taf": "TAF EFTU 180828Z 1809/1909 06006KT 9999 FEW035"
    },
    {
      "icao": "EGBB",
      "alert": "OK",
      "vis_m": 9999,
      "fzfg": false,
      "metar_trigger": false,
      "taf_trigger": false,
      "metar": "METAR EGBB 180920Z 22005KT 170V290 9999 BKN018 11/06 Q1010",
      "taf": ""
    },
    {
      "icao": "EGGP",
      "alert": "OK",
      "vis_m": 9999,
      "fzfg": false,
      "metar_trigger": false,
      "taf_trigger": false,
      "metar": "METAR EGGP 180920Z 18003KT 140V230 9999 VCSH FEW027 BKN034TCU 10/06 Q1008",
      "taf": ""
    },
    {
      "icao": "EGGW",
      "alert": "OK",
      "vis_m": 9999,
      "fzfg": false,
      "metar_trigger": false,
      "taf_trigger": false,
      "metar": "METAR EGGW 180920Z AUTO 22009KT 180V240 9999 BKN028 BKN035 11/05 Q1011",
      "taf": "TAF EGGW 180457Z 1806/1906 22006KT 9999 SCT035"
    },
    {
      "icao": "EGKK",
      "alert": "OK",
      "vis_m": 9999,
      "fzfg": false,
      "metar_trigger": false,
      "taf_trigger": false,
      "metar": "METAR EGKK 180920Z 25012KT 9999 BKN034 13/06 Q1012",
      "taf": "TAF EGKK 180454Z 1806/1912 24005KT 9999 FEW045"
    },
    {
      "icao": "EGNM",
      "alert": "OK",
      "vis_m": 9999,
      "fzfg": false,
      "metar_trigger": false,
      "taf_trigger": false,
      "metar": "METAR EGNM 180920Z 21005KT 9999 SCT008 SCT018 09/06 Q1008",
      "taf": "TAF EGNM 180455Z 1806/1906 15005KT 9999 FEW035"
    },
    {
      "icao": "EGPD",
      "alert": "OK",
      "vis_m": 9999,
      "fzfg": false,
      "metar_trigger": false,
      "taf_trigger": false,
      "metar": "METAR EGPD 180920Z COR AUTO 14011KT 100V160 9999 NCD 13/06 Q1008 NOSIG",
      "taf": ""
    },
    {
      "icao": "EGPF",
      "alert": "OK",
      "vis_m": 9999,
      "fzfg": false,
      "metar_trigger": false,
      "taf_trigger": false,
      "metar": "METAR EGPF 180920Z AUTO VRB02KT 9999 FEW028 11/08 Q1007",
      "taf": ""
    },
    {
      "icao": "EHBK",
      "alert": "OK",
      "vis_m": 9999,
      "fzfg": false,
      "metar_trigger": false,
      "taf_trigger": false,
      "metar": "METAR EHBK 180925Z AUTO 23008KT 190V270 9999 SCT015 BKN019 BKN038 13/09 Q1014 NOSIG",
      "taf": "TAF EHBK 180506Z 1806/1912 23006KT 9999 BKN045"
    },
    {
      "icao": "EHEH",
      "alert": "OK",
      "vis_m": 9999,
      "fzfg": false,
      "metar_trigger": false,
      "taf_trigger": false,
      "metar": "METAR EHEH 180925Z AUTO 22008KT 180V260 9999 SCT018 BKN021 BKN024 14/09 Q1013 WHT BECMG SCT020",
      "taf": "TAF EHEH 180538Z 1806/1912 22006KT CAVOK"
    },
    {
      "icao": "EKBI",
      "alert": "OK",
      "vis_m": 9999,
      "fzfg": false,
      "metar_trigger": false,
      "taf_trigger": false,
      "metar": "METAR EKBI 180920Z AUTO 13011KT 100V160 9999 BKN079/// 15/08 Q1014",
      "taf": "TAF EKBI 180827Z 1809/1909 13010KT 9999 BKN040"
    },
    {
      "icao": "EKCH",
      "alert": "OK",
      "vis_m": 9999,
      "fzfg": false,
      "metar_trigger": false,
      "taf_trigger": false,
      "metar": "METAR EKCH 180920Z AUTO 13011KT 9999 NCD 16/09 Q1017 NOSIG",
      "taf": "TAF EKCH 180827Z 1809/1909 14012KT CAVOK"
    },
    {
      "icao": "ENAL",
      "alert": "OK",
      "vis_m": 9999,
      "fzfg": false,
      "metar_trigger": false,
      "taf_trigger": false,
      "metar": "METAR ENAL 180920Z 03005KT 9999 SCT061 14/08 Q1015",
      "taf": "TAF ENAL 180800Z 1809/1818 06005KT 9999 BKN060"
    },
    {
      "icao": "ENBR",
      "alert": "OK",
      "vis_m": 9999,
      "fzfg": false,
      "metar_trigger": false,
      "taf_trigger": false,
      "metar": "METAR ENBR 180920Z 17006KT 140V260 9999 SCT043 12/06 Q1015 NOSIG RMK WIND 1200FT 14008KT",
      "taf": ""
    },
    {
      "icao": "ENGM",
      "alert": "OK",
      "vis_m": 9999,
      "fzfg": false,
      "metar_trigger": false,
      "taf_trigger": false,
      "metar": "METAR ENGM 180920Z 15004KT 120V190 CAVOK 12/04 Q1019 NOSIG",
      "taf": "TAF ENGM 180500Z 1806/1906 VRB03KT 9999 FEW020 BKN045"
    },
    {
      "icao": "ENHD",
      "alert": "OK",
      "vis_m": 9999,
      "fzfg": false,
      "metar_trigger": false,
      "taf_trigger": false,
      "metar": "METAR ENHD 180920Z 22006KT 9999 FEW020 13/08 Q1014",
      "taf": ""
    },
    {
      "icao": "ENTC",
      "alert": "OK",
      "vis_m": 9999,
      "fzfg": false,
      "metar_trigger": false,
      "taf_trigger": false,
      "metar": "METAR ENTC 180920Z 02007KT 9999 -RA FEW010 BKN015 OVC020 06/03 Q1018 TEMPO FEW008 BKN012 RMK WIND 2600FT 15005KT",
      "taf": ""
    },
    {
      "icao": "ENTO",
      "alert": "OK",
      "vis_m": 9999,
      "fzfg": false,
      "metar_trigger": false,
      "taf_trigger": false,
      "metar": "METAR ENTO 180920Z 09004KT 060V140 9999 OVC045 12/07 Q1018 NOSIG",
      "taf": "TAF ENTO 180500Z 1806/1906 11007KT 9999 FEW015 BKN040"
    },
    {
      "icao": "ENVA",
      "alert": "OK",
      "vis_m": 9999,
      "fzfg": false,
      "metar_trigger": false,
      "taf_trigger": false,
      "metar": "METAR ENVA 180920Z 13009KT 100V170 CAVOK 17/05 Q1016 NOSIG RMK WIND 670FT 14015KT",
      "taf": "TAF ENVA 180500Z 1806/1906 12009KT CAVOK"
    },
    {
      "icao": "ENZV",
      "alert": "OK",
      "vis_m": 9999,
      "fzfg": false,
      "metar_trigger": false,
      "taf_trigger": false,
      "metar": "METAR ENZV 180920Z 29007KT CAVOK 11/07 Q1014 NOSIG",
      "taf": ""
    },
    {
      "icao": "EPGD",
      "alert": "OK",
      "vis_m": 9999,
      "fzfg": false,
      "metar_trigger": false,
      "taf_trigger": false,
      "metar": "METAR EPGD 180930Z 03011KT 360V070 CAVOK 14/04 Q1017",
      "taf": "TAF EPGD 180530Z 1806/1906 03003KT CAVOK"
    },
    {
      "icao": "EPKK",
      "alert": "OK",
      "vis_m": 9999,
      "fzfg": false,
      "metar_trigger": false,
      "taf_trigger": false,
      "metar": "METAR EPKK 180930Z 24006KT 9999 -RA BKN013 10/08 Q1014",
      "taf": "TAF EPKK 180830Z 1809/1909 25008KT 9999 BKN012"
    },
    {
      "icao": "EPKT",
      "alert": "OK",
      "vis_m": 9999,
      "fzfg": false,
      "metar_trigger": false,
      "taf_trigger": false,
      "metar": "METAR EPKT 180930Z 27006KT 9999 -SHRA FEW003 BKN006 FEW013CB 09/08 Q1014",
      "taf": ""
    },
    {
      "icao": "EPLB",
      "alert": "OK",
      "vis_m": 9999,
      "fzfg": false,
      "metar_trigger": false,
      "taf_trigger": false,
      "metar": "METAR EPLB 180930Z 28009KT 9999 FEW009 BKN012 13/10 Q1012",
      "taf": "TAF EPLB 180530Z 1806/1906 32008KT 9999 OVC007"
    },
    {
      "icao": "EPMO",
      "alert": "OK",
      "vis_m": 9999,
      "fzfg": false,
      "metar_trigger": false,
      "taf_trigger": false,
      "metar": "METAR EPMO 180930Z 32006KT 240V010 9999 BKN024 16/10 Q1013",
      "taf": "TAF EPMO 172330Z 1800/1824 36005KT 9999 BKN020"
    },
    {
      "icao": "EPPO",
      "alert": "OK",
      "vis_m": 9999,
      "fzfg": false,
      "metar_trigger": false,
      "taf_trigger": false,
      "metar": "METAR EPPO 180930Z 33006KT 9999 -RA NSC 11/07 Q1016",
      "taf": "TAF EPPO 172330Z 1800/1824 15006KT 9999 BKN040"
    },
    {
      "icao": "EPRA",
      "alert": "OK",
      "vis_m": 9999,
      "fzfg": false,
      "metar_trigger": false,
      "taf_trigger": false,
      "metar": "METAR EPRA 180930Z 33009KT 9999 SCT012 BKN017 13/09 Q1013",
      "taf": "TAF EPRA 180830Z 1809/1818 30010KT 9999 BKN025"
    },
    {
      "icao": "EPRZ",
      "alert": "OK",
      "vis_m": 9999,
      "fzfg": false,
      "metar_trigger": false,
      "taf_trigger": false,
      "metar": "METAR EPRZ 180930Z 26011KT 9999 OVC008 11/10 Q1013",
      "taf": ""
    },
    {
      "icao": "EPSC",
      "alert": "OK",
      "vis_m": 9999,
      "fzfg": false,
      "metar_trigger": false,
      "taf_trigger": false,
      "metar": "METAR EPSC 180930Z 10009KT 9999 FEW037 15/05 Q1017",
      "taf": "TAF EPSC 172330Z 1800/1824 10005KT CAVOK"
    },
    {
      "icao": "EPSY",
      "alert": "OK",
      "vis_m": 9999,
      "fzfg": false,
      "metar_trigger": false,
      "taf_trigger": false,
      "metar": "METAR EPSY 180930Z 01010KT 330V060 9999 SCT015 15/08 Q1013",
      "taf": "TAF EPSY 180830Z 1809/1818 02010KT 9999 BKN030"
    },
    {
      "icao": "EPWA",
      "alert": "OK",
      "vis_m": 9999,
      "fzfg": false,
      "metar_trigger": false,
      "taf_trigger": false,
      "metar": "METAR EPWA 180930Z 28005KT 240V320 9999 BKN018 14/09 Q1012 NOSIG",
      "taf": "TAF EPWA 180830Z 1809/1909 35010KT 9999 BKN020"
    },
    {
      "icao": "EPWR",
      "alert": "OK",
      "vis_m": 9999,
      "fzfg": false,
      "metar_trigger": false,
      "taf_trigger": false,
      "metar": "METAR EPWR 180930Z 36008KT 9999 FEW019 BKN046 11/06 Q1016",
      "taf": "TAF EPWR 180830Z 1809/1909 33005KT 9999 BKN016 BKN040"
    },
    {
      "icao": "ESGG",
      "alert": "OK",
      "vis_m": 9999,
      "fzfg": false,
      "metar_trigger": false,
      "taf_trigger": false,
      "metar": "METAR ESGG 180920Z 11008KT CAVOK 12/06 Q1017",
      "taf": "TAF ESGG 180830Z 1809/1909 12008KT CAVOK"
    },
    {
      "icao": "ESKN",
      "alert": "OK",
      "vis_m": 9999,
      "fzfg": false,
      "metar_trigger": false,
      "taf_trigger": false,
      "metar": "METAR ESKN 180920Z 14007KT 9999 FEW040 BKN100 14/05 Q1020",
      "taf": "TAF ESKN 180830Z 1809/1909 13007KT CAVOK"
    },
    {
      "icao": "ESMS",
      "alert": "OK",
      "vis_m": 9999,
      "fzfg": false,
      "metar_trigger": false,
      "taf_trigger": false,
      "metar": "METAR ESMS 180920Z 15013KT CAVOK 14/06 Q1017",
      "taf": "TAF ESMS 180827Z 1809/1909 13010KT 9999 FEW040"
    },
    {
      "icao": "ESSA",
      "alert": "OK",
      "vis_m": 9999,
      "fzfg": false,
      "metar_trigger": false,
      "taf_trigger": false,
      "metar": "METAR ESSA 180920Z 30004KT 260V340 CAVOK 15/02 Q1020 TEMPO FEW050TCU",
      "taf": "TAF ESSA 180830Z 1809/1909 05005KT 9999 SCT040"
    },
    {
      "icao": "EYKA",
      "alert": "OK",
      "vis_m": 9999,
      "fzfg": false,
      "metar_trigger": false,
      "taf_trigger": false,
      "metar": "METAR EYKA 180950Z 36009KT 330V030 9999 SCT032 13/09 Q1012",
      "taf": "TAF EYKA 180500Z 1806/1906 36010KT 9000 NSC"
    },
    {
      "icao": "EYPA",
      "alert": "OK",
      "vis_m": 9999,
      "fzfg": false,
      "metar_trigger": false,
      "taf_trigger": false,
      "metar": "METAR EYPA 180950Z 31004KT 230V360 9999 SCT096CB 14/07 Q1016",
      "taf": "TAF EYPA 180500Z 1806/1906 01010KT 9000 NSC"
    },
    {
      "icao": "EYVI",
      "alert": "OK",
      "vis_m": 9999,
      "fzfg": false,
      "metar_trigger": false,
      "taf_trigger": false,
      "metar": "METAR EYVI 180950Z 35012KT 9999 VCSH SCT005 BKN034CB 13/12 Q1011 NOSIG",
      "taf": "TAF EYVI 180500Z 1806/1906 36010KT 6000 SCT005 BKN020"
    },
    {
      "icao": "GCFV",
      "alert": "OK",
      "vis_m": 9999,
      "fzfg": false,
      "metar_trigger": false,
      "taf_trigger": false,
      "metar": "METAR GCFV 180930Z 03018KT 9999 FEW030 BKN045 21/13 Q1021",
      "taf": "TAF GCFV 180800Z 1809/1909 03018KT 9999 BKN040 TX23/1814Z TN17/1906Z"
    },
    {
      "icao": "GCLP",
      "alert": "OK",
      "vis_m": 9999,
      "fzfg": false,
      "metar_trigger": false,
      "taf_trigger": false,
      "metar": "METAR GCLP 180930Z 36017G27KT 330V040 9999 FEW030 BKN047 21/12 Q1021 NOSIG",
      "taf": "TAF GCLP 180800Z 1809/1909 01025KT 9999 FEW040 TX23/1814Z TN18/1906Z"
    },
    {
      "icao": "GCTS",
      "alert": "OK",
      "vis_m": 9999,
      "fzfg": false,
      "metar_trigger": false,
      "taf_trigger": false,
      "metar": "METAR GCTS 180930Z 01004KT 280V060 9999 SCT040 21/10 Q1022 NOSIG",
      "taf": "TAF GCTS 180800Z 1809/1909 06008KT 9999 SCT040 TX24/1814Z TN16/1906Z"
    },
    {
      "icao": "GMAD",
      "alert": "OK",
      "vis_m": 9999,
      "fzfg": false,
      "metar_trigger": false,
      "taf_trigger": false,
      "metar": "METAR GMAD 180930Z 24005KT 190V280 CAVOK 21/12 Q1016 NOSIG",
      "taf": "TAF GMAD 180500Z 1806/1912 21005KT 8000 FEW020"
    },
    {
      "icao": "GMMN",
      "alert": "OK",
      "vis_m": 9999,
      "fzfg": false,
      "metar_trigger": false,
      "taf_trigger": false,
      "metar": "METAR GMMN 180930Z 01006KT 310V050 9999 BKN030 19/13 Q1021 NOSIG",
      "taf": "TAF GMMN 180500Z 1806/1912 14004KT 9999 SCT020 SCT040"
    },
    {
      "icao": "GMMX",
      "alert": "OK",
      "vis_m": 9999,
      "fzfg": false,
      "metar_trigger": false,
      "taf_trigger": false,
      "metar": "METAR GMMX 180930Z VRB04KT 9999 FEW033 19/11 Q1019 NOSIG",
      "taf": "TAF GMMX 180500Z 1806/1912 04006KT 8000 SCT026 SCT090"
    },
    {
      "icao": "HEGN",
      "alert": "OK",
      "vis_m": 9999,
      "fzfg": false,
      "metar_trigger": false,
      "taf_trigger": false,
      "metar": "METAR HEGN 180900Z 12010KT 9999 SCT020 SCT025 31/19 Q1008 NOSIG",
      "taf": "TAF HEGN 180500Z 1806/1912 13012KT CAVOK"
    },
    {
      "icao": "HEMA",
      "alert": "OK",
      "vis_m": 9999,
      "fzfg": false,
      "metar_trigger": false,
      "taf_trigger": false,
      "metar": "METAR HEMA 180900Z 12012KT CAVOK 38/07 Q1009 NOSIG",
      "taf": "TAF HEMA 180500Z 1806/1912 12012KT CAVOK"
    },
    {
      "icao": "HESH",
      "alert": "OK",
      "vis_m": null,
      "fzfg": false,
      "metar_trigger": false,
      "taf_trigger": false,
      "metar": "",
      "taf": "TAF HESH 180500Z 1806/1912 18010KT CAVOK"
    },
    {
      "icao": "HESX",
      "alert": "OK",
      "vis_m": 9999,
      "fzfg": false,
      "metar_trigger": false,
      "taf_trigger": false,
      "metar": "METAR HESX 180900Z 35008KT CAVOK 31/11 Q1011 NOSIG",
      "taf": "TAF HESX 180500Z 1806/1912 36012KT CAVOK"
    },
    {
      "icao": "LATI",
      "alert": "OK",
      "vis_m": 9999,
      "fzfg": false,
      "metar_trigger": false,
      "taf_trigger": false,
      "metar": "METAR LATI 180950Z VRB04KT 9999 FEW032 22/13 Q1014 NOSIG",
      "taf": "TAF LATI 180500Z 1806/1906 VRB03KT CAVOK TX25/1812Z TN09/1904Z"
    },
    {
      "icao": "LBPD",
      "alert": "OK",
      "vis_m": 9999,
      "fzfg": false,
      "metar_trigger": false,
      "taf_trigger": false,
      "metar": "METAR LBPD 180930Z AUTO 30018KT 9999 NCD 21/09 Q1013 NOSIG",
      "taf": "TAF LBPD 180500Z 1806/1906 29014KT 9999 SCT030 BKN060"
    },
    {
      "icao": "LBSF",
      "alert": "OK",
      "vis_m": 9999,
      "fzfg": false,
      "metar_trigger": false,
      "taf_trigger": false,
      "metar": "METAR LBSF 180930Z 30012KT 260V320 9999 OVC026 13/07 Q1016 NOSIG",
      "taf": "TAF LBSF 180500Z 1806/1906 29012KT 9999 SCT015 BKN025 OVC040"
    },
    {
      "icao": "LBWN",
      "alert": "OK",
      "vis_m": 9999,
      "fzfg": false,
      "metar_trigger": false,
      "taf_trigger": false,
      "metar": "METAR LBWN 180930Z 26016KT 9999 FEW033 20/13 Q1011 NOSIG",
      "taf": "TAF LBWN 180500Z 1806/1906 28010KT 9999 SCT020 SCT045"
    },
    {
      "icao": "LCLK",
      "alert": "OK",
      "vis_m": 9999,
      "fzfg": false,
      "metar_trigger": false,
      "taf_trigger": false,
      "metar": "METAR LCLK 180930Z 18013KT 9999 FEW025 25/19 Q1007 NOSIG",
      "taf": "TAF LCLK 180530Z 1806/1906 32005KT 9999 FEW020"
    },
    {
      "icao": "LCPH",
      "alert": "OK",
      "vis_m": 9999,
      "fzfg": false,
      "metar_trigger": false,
      "taf_trigger": false,
      "metar": "METAR LCPH 180930Z 31019KT 9999 FEW025 23/18 Q1008 NOSIG",
      "taf": "TAF LCPH 180530Z 1806/1906 30017KT 9999 SCT012"
    },
    {
      "icao": "LEAL",
      "alert": "OK",
      "vis_m": 9999,
      "fzfg": false,
      "metar_trigger": false,
      "taf_trigger": false,
      "metar": "METAR LEAL 180930Z 21005KT 130V250 CAVOK 23/11 Q1018 NOSIG",
      "taf": "TAF LEAL 180500Z 1806/1906 VRB03KT 9999 FEW060 TX23/1812Z TN15/1905Z"
    },
    {
      "icao": "LEBB",
      "alert": "OK",
      "vis_m": 9999,
      "fzfg": false,
      "metar_trigger": false,
      "taf_trigger": false,
      "metar": "METAR LEBB 180930Z VRB02KT 9999 SCT065 16/10 Q1019 NOSIG",
      "taf": "TAF LEBB 180500Z 1806/1906 13006KT 9999 FEW040 TX19/1814Z TN10/1806Z"
    },
    {
      "icao": "LEBL",
      "alert": "OK",
      "vis_m": 9999,
      "fzfg": false,
      "metar_trigger": false,
      "taf_trigger": false,
      "metar": "METAR LEBL 180930Z 19009KT 9999 FEW020 BKN045 19/15 Q1018 NOSIG",
      "taf": "TAF LEBL 180500Z 1806/1906 34007KT 9999 BKN025 TX21/1812Z TN15/1806Z"
    },
    {
      "icao": "LECH",
      "alert": "OK",
      "vis_m": 9999,
      "fzfg": false,
      "metar_trigger": false,
      "taf_trigger": false,
      "metar": "METAR LECH 180930Z AUTO 12007KT 090V160 9999 FEW027 19/12 Q1018",
      "taf": "TAF LECH 180500Z 1806/1906 VRB04KT 9999 FEW020 TX22/1812Z TN10/1905Z"
    },
    {
      "icao": "LEMD",
      "alert": "OK",
      "vis_m": 9999,
      "fzfg": false,
      "metar_trigger": false,
      "taf_trigger": false,
      "metar": "METAR LEMD 180930Z 15003KT 080V220 CAVOK 17/07 Q1018 NOSIG",
      "taf": ""
    },
    {
      "icao": "LEMG",
      "alert": "OK",
      "vis_m": 9999,
      "fzfg": false,
      "metar_trigger": false,
      "taf_trigger": false,
      "metar": "METAR LEMG 180930Z 16008KT 110V270 9999 FEW045 21/12 Q1019 NOSIG",
      "taf": ""
    },
    {
      "icao": "LEVC",
      "alert": "OK",
      "vis_m": 9999,
      "fzfg": false,
      "metar_trigger": false,
      "taf_trigger": false,
      "metar": "METAR LEVC 180930Z 10002KT CAVOK 21/11 Q1018 NOSIG",
      "taf": "TAF LEVC 180500Z 1806/1906 VRB03KT 9999 FEW060 TX24/1814Z TN15/1806Z"
    },
    {
      "icao": "LEXJ",
      "alert": "OK",
      "vis_m": 9999,
      "fzfg": false,
      "metar_trigger": false,
      "taf_trigger": false,
      "metar": "METAR LEXJ 180930Z 11003KT 050V160 CAVOK 16/09 Q1019",
      "taf": "TAF LEXJ 180800Z 1809/1909 04008KT 9999 FEW030 TX22/1909Z TN13/1904Z"
    },
    {
      "icao": "LEZG",
      "alert": "OK",
      "vis_m": 9999,
      "fzfg": false,
      "metar_trigger": false,
      "taf_trigger": false,
      "metar": "METAR LEZG 180930Z 33003KT CAVOK 17/09 Q1018 NOSIG",
      "taf": "TAF LEZG 180500Z 1806/1906 28010KT CAVOK TX25/1815Z TN11/1806Z"
    },
    {
      "icao": "LEZL",
      "alert": "OK",
      "vis_m": 9999,
      "fzfg": false,
      "metar_trigger": false,
      "taf_trigger": false,
      "metar": "METAR LEZL 180930Z 21003KT CAVOK 21/13 Q1020 NOSIG",
      "taf": "TAF LEZL 180800Z 1809/1909 VRB03KT CAVOK TX28/1815Z TN13/1906Z"
    },
    {
      "icao": "LFBD",
      "alert": "OK",
      "vis_m": 9999,
      "fzfg": false,
      "metar_trigger": false,
      "taf_trigger": false,
      "metar": "METAR LFBD 180930Z AUTO 26006KT 210V300 9999 BKN030/// BKN037/// BKN064/// ///TCU 16/08 Q1018 TEMPO 3000 SHRA",
      "taf": "TAF LFBD 180500Z 1806/1912 VRB03KT CAVOK TX19/1813Z TN10/1806Z"
    },
    {
      "icao": "LFLL",
      "alert": "OK",
      "vis_m": 9999,
      "fzfg": false,
      "metar_trigger": false,
      "taf_trigger": false,
      "metar": "METAR LFLL 180930Z 31004KT 250V010 9999 FEW028 FEW036TCU SCT070 BKN260 15/08 Q1017 NOSIG",
      "taf": "TAF LFLL 180500Z 1806/1912 VRB02KT 9999 BKN045"
    },
    {
      "icao": "LFLS",
      "alert": "OK",
      "vis_m": 9999,
      "fzfg": false,
      "metar_trigger": false,
      "taf_trigger": false,
      "metar": "METAR LFLS 180930Z AUTO 36006KT 9999 SCT023 BKN034 OVC062 14/09 Q1017 TEMPO FEW025TCU BKN040",
      "taf": "TAF LFLS 180800Z 1809/1909 VRB02KT 9999 BKN045"
    },
    {
      "icao": "LFMN",
      "alert": "OK",
      "vis_m": 9999,
      "fzfg": false,
      "metar_trigger": false,
      "taf_trigger": false,
      "metar": "METAR LFMN 180930Z 11007KT 9999 FEW033 18/12 Q1016 NOSIG",
      "taf": "TAF LFMN 180800Z 1809/1915 12008KT CAVOK"
    },
    {
      "icao": "LFOB",
      "alert": "OK",
      "vis_m": 9999,
      "fzfg": false,
      "metar_trigger": false,
      "taf_trigger": false,
      "metar": "METAR LFOB 180930Z AUTO 23007KT 170V280 9999 BKN025/// BKN046/// BKN054/// ///TCU 13/08 Q1015 TEMPO 2000 SHRA SCT013 BKN025CB",
      "taf": "TAF LFOB 180500Z 1806/1906 24008KT 9999 BKN030"
    },
    {
      "icao": "LFPO",
      "alert": "OK",
      "vis_m": 9999,
      "fzfg": false,
      "metar_trigger": false,
      "taf_trigger": false,
      "metar": "METAR LFPO 180930Z 26005KT 230V310 9999 SCT021 BKN053 BKN160 14/09 Q1016 NOSIG",
      "taf": "TAF LFPO 180500Z 1806/1912 25005KT CAVOK"
    },
    {
      "icao": "LFSB",
      "alert": "OK",
      "vis_m": 9999,
      "fzfg": false,
      "metar_trigger": false,
      "taf_trigger": false,
      "metar": "METAR LFSB 180930Z AUTO 14004KT 9999 -RA FEW015/// SCT025/// BKN052/// ///CB 12/10 Q1017 TEMPO 29010KT SHRA",
      "taf": "TAF LFSB 180500Z 1806/1906 15004KT CAVOK"
    },
    {
      "icao": "LGAV",
      "alert": "OK",
      "vis_m": 9999,
      "fzfg": false,
      "metar_trigger": false,
      "taf_trigger": false,
      "metar": "METAR LGAV 180920Z 08012KT 9999 FEW025 23/08 Q1013 NOSIG",
      "taf": "TAF LGAV 180500Z 1806/1906 VRB03KT 9999 FEW030"
    },
    {
      "icao": "LGTS",
      "alert": "OK",
      "vis_m": 9999,
      "fzfg": false,
      "metar_trigger": false,
      "taf_trigger": false,
      "metar": "METAR LGTS 180920Z 30007KT 9999 FEW025 22/10 Q1013 NOSIG",
      "taf": "TAF LGTS 180500Z 1806/1906 33015KT 9999 FEW030"
    },
    {
      "icao": "LHBP",
      "alert": "OK",
      "vis_m": 9999,
      "fzfg": false,
      "metar_trigger": false,
      "taf_trigger": false,
      "metar": "METAR LHBP 180930Z 34005KT 300V010 9999 FEW024 SCT043 13/08 Q1014 NOSIG",
      "taf": "TAF LHBP 180515Z 1806/1906 31008KT 9999 FEW008 BKN020"
    },
    {
      "icao": "LHDC",
      "alert": "OK",
      "vis_m": 9999,
      "fzfg": false,
      "metar_trigger": false,
      "taf_trigger": false,
      "metar": "METAR LHDC 180915Z AUTO 17011KT 140V210 9999 BKN010 BKN038 14/11 Q1013 NOSIG",
      "taf": ""
    },
    {
      "icao": "LIBD",
      "alert": "OK",
      "vis_m": 9999,
      "fzfg": false,
      "metar_trigger": false,
      "taf_trigger": false,
      "metar": "METAR LIBD 180920Z 36007KT 320V060 CAVOK 20/05 Q1016",
      "taf": "TAF LIBD 180500Z 1806/1906 28007KT CAVOK"
    },
    {
      "icao": "LIBG",
      "alert": "OK",
      "vis_m": 9999,
      "fzfg": false,
      "metar_trigger": false,
      "taf_trigger": false,
      "metar": "METAR LIBG 180850Z 01009KT CAVOK 22/06 Q1015",
      "taf": "TAF LIBG 180800Z 1809/1818 35010KT CAVOK"
    },
    {
      "icao": "LIBP",
      "alert": "OK",
      "vis_m": 9999,
      "fzfg": false,
      "metar_trigger": false,
      "taf_trigger": false,
      "metar": "METAR LIBP 180920Z AUTO 08009KT 040V100 9999 FEW100/// 22/06 Q1015",
      "taf": "TAF LIBP 180500Z 1806/1906 VRB05KT CAVOK"
    },
    {
      "icao": "LIBR",
      "alert": "OK",
      "vis_m": 9999,
      "fzfg": false,
      "metar_trigger": false,
      "taf_trigger": false,
      "metar": "METAR LIBR 180920Z 33013KT CAVOK 20/15 Q1015",
      "taf": "TAF LIBR 180500Z 1806/1906 30013KT CAVOK"
    },
    {
      "icao": "LICA",
      "alert": "OK",
      "vis_m": 9999,
      "fzfg": false,
      "metar_trigger": false,
      "taf_trigger": false,
      "metar": "METAR LICA 180920Z AUTO 24011KT 210V270 9999 FEW024/// 21/13 Q1017",
      "taf": "TAF LICA 180500Z 1806/1906 VRB05KT CAVOK"
    },
    {
      "icao": "LICC",
      "alert": "OK",
      "vis_m": 9999,
      "fzfg": false,
      "metar_trigger": false,
      "taf_trigger": false,
      "metar": "METAR LICC 180920Z 10009KT 9999 FEW050 21/14 Q1016",
      "taf": "TAF LICC 180500Z 1806/1906 VRB05KT 9999 SCT040"
    },
    {
      "icao": "LICJ",
      "alert": "OK",
      "vis_m": 9999,
      "fzfg": false,
      "metar_trigger": false,
      "taf_trigger": false,
      "metar": "METAR LICJ 180920Z 01009KT 9999 FEW030 19/12 Q1017",
      "taf": "TAF LICJ 180500Z 1806/1906 VRB05KT CAVOK"
    },
    {
      "icao": "LIMC",
      "alert": "OK",
      "vis_m": 9999,
      "fzfg": false,
      "metar_trigger": false,
      "taf_trigger": false,
      "metar": "METAR LIMC 180920Z 22003KT 130V280 9999 SCT090 17/09 Q1016 NOSIG",
      "taf": "TAF LIMC 180500Z 1806/1912 VRB05KT 9999 FEW060"
    },
    {
      "icao": "LIME",
      "alert": "OK",
      "vis_m": 9999,
      "fzfg": false,
      "metar_trigger": false,
      "taf_trigger": false,
      "metar": "METAR LIME 180920Z 18004KT 130V240 9999 FEW100 18/08 Q1015 NOSIG",
      "taf": "TAF LIME 180500Z 1806/1906 VRB06KT 9999 FEW040"
    },
    {
      "icao": "LIMF",
      "alert": "OK",
      "vis_m": 9999,
      "fzfg": false,
      "metar_trigger": false,
      "taf_trigger": false,
      "metar": "METAR LIMF 180920Z 06006KT 030V090 9999 SCT100 16/07 Q1015",
      "taf": "TAF LIMF 180500Z 1806/1906 VRB05KT 9999 FEW030"
    },
    {
      "icao": "LIMJ",
      "alert": "OK",
      "vis_m": 9999,
      "fzfg": false,
      "metar_trigger": false,
      "taf_trigger": false,
      "metar": "METAR LIMJ 180920Z 16007KT 9999 FEW028 17/11 Q1016",
      "taf": "TAF LIMJ 180500Z 1806/1906 VRB05KT 9999 SCT020"
    },
    {
      "icao": "LIPE",
      "alert": "OK",
      "vis_m": 9999,
      "fzfg": false,
      "metar_trigger": false,
      "taf_trigger": false,
      "metar": "METAR LIPE 180920Z 29005KT 220V010 CAVOK 20/06 Q1015",
      "taf": "TAF LIPE 180500Z 1806/1906 VRB05KT 9999 FEW040"
    },
    {
      "icao": "LIPH",
      "alert": "OK",
      "vis_m": 9999,
      "fzfg": false,
      "metar_trigger": false,
      "taf_trigger": false,
      "metar": "METAR LIPH 180920Z VRB03KT CAVOK 19/10 Q1015",
      "taf": "TAF LIPH 180500Z 1806/1906 VRB05KT 9999 SCT030"
    },
    {
      "icao": "LIPQ",
      "alert": "OK",
      "vis_m": 9999,
      "fzfg": false,
      "metar_trigger": false,
      "taf_trigger": false,
      "metar": "METAR LIPQ 180920Z AUTO VRB03KT 9999 NCD 20/07 Q1015",
      "taf": "TAF LIPQ 180500Z 1806/1906 VRB05KT CAVOK"
    },
    {
      "icao": "LIPR",
      "alert": "OK",
      "vis_m": 9999,
      "fzfg": false,
      "metar_trigger": false,
      "taf_trigger": false,
      "metar": "METAR LIPR 180920Z 04008KT CAVOK 19/07 Q1015",
      "taf": "TAF LIPR 180500Z 1806/1906 VRB05KT 9999 FEW040"
    },
    {
      "icao": "LIPX",
      "alert": "OK",
      "vis_m": 9999,
      "fzfg": false,
      "metar_trigger": false,
      "taf_trigger": false,
      "metar": "METAR LIPX 180920Z 08003KT 360V140 CAVOK 19/09 Q1015",
      "taf": "TAF LIPX 180500Z 1806/1906 VRB06KT 9999 FEW040"
    },
    {
      "icao": "LIPY",
      "alert": "OK",
      "vis_m": 9999,
      "fzfg": false,
      "metar_trigger": false,
      "taf_trigger": false,
      "metar": "METAR LIPY 180920Z AUTO 01006KT 330V050 9999 NCD 20/11 Q1015",
      "taf": "TAF LIPY 180500Z 1806/1906 VRB05KT 9999 FEW040"
    },
    {
      "icao": "LIPZ",
      "alert": "OK",
      "vis_m": 9999,
      "fzfg": false,
      "metar_trigger": false,
      "taf_trigger": false,
      "metar": "METAR LIPZ 180920Z 12004KT 070V170 9999 FEW020 19/12 Q1015 NOSIG",
      "taf": "TAF LIPZ 180500Z 1806/1912 VRB05KT 9999 SCT030"
    },
    {
      "icao": "LIRF",
      "alert": "OK",
      "vis_m": 9999,
      "fzfg": false,
      "metar_trigger": false,
      "taf_trigger": false,
      "metar": "METAR LIRF 180920Z 20008KT 9999 FEW035 20/11 Q1016 NOSIG",
      "taf": "TAF LIRF 180500Z 1806/1912 VRB05KT CAVOK"
    },
    {
      "icao": "LIRN",
      "alert": "OK",
      "vis_m": 9999,
      "fzfg": false,
      "metar_trigger": false,
      "taf_trigger": false,
      "metar": "METAR LIRN 180920Z 18008KT 140V220 9999 SCT040 19/11 Q1017 NOSIG",
      "taf": "TAF LIRN 180500Z 1806/1906 VRB04KT CAVOK"
    },
    {
      "icao": "LIRP",
      "alert": "OK",
      "vis_m": 9999,
      "fzfg": false,
      "metar_trigger": false,
      "taf_trigger": false,
      "metar": "METAR LIRP 180915Z VRB03KT 9999 SCT025 18/11 Q1017 NOSIG",
      "taf": "TAF LIRP 180500Z 1806/1906 VRB03KT 9999 FEW025"
    },
    {
      "icao": "LIRZ",
      "alert": "OK",
      "vis_m": 9999,
      "fzfg": false,
      "metar_trigger": false,
      "taf_trigger": false,
      "metar": "METAR LIRZ 180920Z AUTO VRB03KT 9999 NCD 19/11 Q1016",
      "taf": "TAF LIRZ 172300Z 1800/1824 VRB05KT 9999 SCT040"
    },
    {
      "icao": "LJLJ",
      "alert": "OK",
      "vis_m": 9999,
      "fzfg": false,
      "metar_trigger": false,
      "taf_trigger": false,
      "metar": "METAR LJLJ 180930Z 32005KT 240V030 9999 FEW045 17/06 Q1015 NOSIG",
      "taf": "TAF LJLJ 180500Z 1806/1906 30003KT 9999 FEW055"
    },
    {
      "icao": "LKMT",
      "alert": "OK",
      "vis_m": 9999,
      "fzfg": false,
      "metar_trigger": false,
      "taf_trigger": false,
      "metar": "METAR LKMT 180930Z 33003KT 300V360 9999 SCT012 BKN017 OVC024 10/08 Q1015 NOSIG",
      "taf": "TAF LKMT 180500Z 1806/1906 VRB02KT 9999 BKN008"
    },
    {
      "icao": "LKPR",
      "alert": "OK",
      "vis_m": 9999,
      "fzfg": false,
      "metar_trigger": false,
      "taf_trigger": false,
      "metar": "METAR LKPR 180930Z VRB04KT 9999 SCT048 16/03 Q1015 NOSIG",
      "taf": "TAF LKPR 180800Z 1809/1915 30004KT CAVOK"
    },
    {
      "icao": "LLBG",
      "alert": "OK",
      "vis_m": 9999,
      "fzfg": false,
      "metar_trigger": false,
      "taf_trigger": false,
      "metar": "METAR LLBG 180950Z 33009KT 300V010 CAVOK 33/05 Q1009 NOSIG",
      "taf": "TAF LLBG 180503Z 1806/1906 29010KT CAVOK TX33/1812Z TN19/1904Z"
    },
    {
      "icao": "LMML",
      "alert": "OK",
      "vis_m": 9999,
      "fzfg": false,
      "metar_trigger": false,
      "taf_trigger": false,
      "metar": "METAR LMML 180945Z 17009KT 140V210 9999 FEW025 20/12 Q1017 NOSIG",
      "taf": "TAF LMML 172300Z 1800/1824 30008KT 9999 FEW020"
    },
    {
      "icao": "LOWW",
      "alert": "OK",
      "vis_m": 9999,
      "fzfg": false,
      "metar_trigger": false,
      "taf_trigger": false,
      "metar": "METAR LOWW 180920Z VRB04KT 9999 FEW034 16/06 Q1015 NOSIG",
      "taf": "TAF LOWW 180815Z 1809/1915 35010KT CAVOK TX21/1914Z TN07/1903Z"
    },
    {
      "icao": "LPFR",
      "alert": "OK",
      "vis_m": 9999,
      "fzfg": false,
      "metar_trigger": false,
      "taf_trigger": false,
      "metar": "METAR LPFR 180930Z 29005KT 240V350 CAVOK 19/08 Q1020",
      "taf": "TAF LPFR 180500Z 1806/1906 31008KT CAVOK"
    },
    {
      "icao": "LPMA",
      "alert": "OK",
      "vis_m": 9999,
      "fzfg": false,
      "metar_trigger": false,
      "taf_trigger": false,
      "metar": "METAR LPMA 180930Z 01004KT 270V080 9999 BKN013 19/15 Q1024",
      "taf": "TAF LPMA 180500Z 1806/1906 01010KT 9999 SCT015"
    },
    {
      "icao": "LPPR",
      "alert": "OK",
      "vis_m": 9999,
      "fzfg": false,
      "metar_trigger": false,
      "taf_trigger": false,
      "metar": "METAR LPPR 180930Z 32007KT 290V350 9999 FEW020 15/10 Q1020",
      "taf": "TAF LPPR 180500Z 1806/1906 VRB02KT 9999 FEW020"
    },
    {
      "icao": "LPPS",
      "alert": "OK",
      "vis_m": 9999,
      "fzfg": false,
      "metar_trigger": false,
      "taf_trigger": false,
      "metar": "METAR LPPS 180930Z 36011KT 9999 SCT014 19/15 Q1024",
      "taf": "TAF LPPS 180500Z 1806/1912 35012KT 9999 SCT015"
    },
    {
      "icao": "LPPT",
      "alert": "OK",
      "vis_m": 9999,
      "fzfg": false,
      "metar_trigger": false,
      "taf_trigger": false,
      "metar": "METAR LPPT 180930Z 35010KT 9999 BKN030 17/09 Q1021",
      "taf": "TAF LPPT 180500Z 1806/1912 33005KT 9999 FEW020"
    },
    {
      "icao": "LQBK",
      "alert": "OK",
      "vis_m": 9999,
      "fzfg": false,
      "metar_trigger": false,
      "taf_trigger": false,
      "metar": "METAR LQBK 180930Z VRB03KT CAVOK 19/06 Q1016 NOSIG",
      "taf": "TAF LQBK 172300Z 1800/1824 20004KT CAVOK TX21/1814Z TN05/1804Z"
    },
    {
      "icao": "LQSA",
      "alert": "OK",
      "vis_m": 9999,
      "fzfg": false,
      "metar_trigger": false,
      "taf_trigger": false,
      "metar": "METAR LQSA 180930Z VRB02KT 9999 SCT050 11/06 Q1017 NOSIG",
      "taf": ""
    },
    {
      "icao": "LQTZ",
      "alert": "OK",
      "vis_m": 9999,
      "fzfg": false,
      "metar_trigger": false,
      "taf_trigger": false,
      "metar": "METAR LQTZ 180930Z 23004KT 150V260 9999 FEW050 17/06 Q1016",
      "taf": "TAF LQTZ 172300Z 1800/1824 30005KT CAVOK TX29/1814Z TN03/1804Z"
    },
    {
      "icao": "LRBC",
      "alert": "OK",
      "vis_m": 9999,
      "fzfg": false,
      "metar_trigger": false,
      "taf_trigger": false,
      "metar": "METAR LRBC 180930Z 34009KT 300V360 CAVOK 22/11 Q1009",
      "taf": "TAF LRBC 180800Z 1809/1818 35014KT CAVOK"
    },
    {
      "icao": "LRBS",
      "alert": "OK",
      "vis_m": 9999,
      "fzfg": false,
      "metar_trigger": false,
      "taf_trigger": false,
      "metar": "METAR LRBS 180930Z 26014KT 240V300 CAVOK 20/13 Q1011 NOSIG",
      "taf": "TAF LRBS 180500Z 1806/1906 25010KT CAVOK"
    },
    {
      "icao": "LRBV",
      "alert": "OK",
      "vis_m": 9999,
      "fzfg": false,
      "metar_trigger": false,
      "taf_trigger": false,
      "metar": "METAR LRBV 180930Z 34005KT 290V050 9999 SCT025 BKN037 16/11 Q1013",
      "taf": "TAF LRBV 180800Z 1809/1818 31006KT CAVOK"
    },
    {
      "icao": "LRCL",
      "alert": "OK",
      "vis_m": 9999,
      "fzfg": false,
      "metar_trigger": false,
      "taf_trigger": false,
      "metar": "METAR LRCL 180930Z 34006KT 270V040 9999 SCT024 SCT056 18/12 Q1012",
      "taf": "TAF LRCL 180800Z 1809/1818 VRB04KT CAVOK"
    },
    {
      "icao": "LRCV",
      "alert": "OK",
      "vis_m": 9999,
      "fzfg": false,
      "metar_trigger": false,
      "taf_trigger": false,
      "metar": "METAR LRCV 180930Z 28012KT 9999 SCT025 18/12 Q1013",
      "taf": "TAF LRCV 180800Z 1809/1818 27010KT CAVOK"
    },
    {
      "icao": "LRIA",
      "alert": "OK",
      "vis_m": 9999,
      "fzfg": false,
      "metar_trigger": false,
      "taf_trigger": false,
      "metar": "METAR LRIA 180930Z 30010KT 260V350 CAVOK 20/12 Q1008",
      "taf": "TAF LRIA 180800Z 1809/1818 30012KT CAVOK"
    },
    {
      "icao": "LROP",
      "alert": "OK",
      "vis_m": 9999,
      "fzfg": false,
      "metar_trigger": false,
      "taf_trigger": false,
      "metar": "METAR LROP 180930Z 26013KT CAVOK 21/15 Q1011 NOSIG",
      "taf": "TAF LROP 180500Z 1806/1906 25010KT CAVOK"
    },
    {
      "icao": "LRSB",
      "alert": "OK",
      "vis_m": 9999,
      "fzfg": false,
      "metar_trigger": false,
      "taf_trigger": false,
      "metar": "METAR LRSB 180930Z 34007KT 300V020 9999 FEW027 SCT040 18/11 Q1013 NOSIG",
      "taf": "TAF LRSB 180500Z 1806/1906 VRB04KT CAVOK"
    },
    {
      "icao": "LRSM",
      "alert": "OK",
      "vis_m": 9999,
      "fzfg": false,
      "metar_trigger": false,
      "taf_trigger": false,
      "metar": "METAR LRSM 180930Z 33005KT 290V350 9999 BKN027 17/11 Q1013",
      "taf": "TAF LRSM 180800Z 1809/1818 27008KT 9999 BKN025"
    },
    {
      "icao": "LRSV",
      "alert": "OK",
      "vis_m": 9999,
      "fzfg": false,
      "metar_trigger": false,
      "taf_trigger": false,
      "metar": "METAR LRSV 180930Z 31010KT 280V340 CAVOK 20/12 Q1009",
      "taf": "TAF LRSV 180800Z 1809/1818 31015KT CAVOK"
    },
    {
      "icao": "LRTM",
      "alert": "OK",
      "vis_m": 9999,
      "fzfg": false,
      "metar_trigger": false,
      "taf_trigger": false,
      "metar": "METAR LRTM 180930Z 30005KT 250V340 9999 FEW030 BKN035 20/13 Q1012",
      "taf": "TAF LRTM 180800Z 1809/1818 29006KT CAVOK"
    },
    {
      "icao": "LRTR",
      "alert": "OK",
      "vis_m": 9999,
      "fzfg": false,
      "metar_trigger": false,
      "taf_trigger": false,
      "metar": "METAR LRTR 180930Z 15006KT 120V180 9999 SCT014 BKN017 OVC027 13/10 Q1015",
      "taf": "TAF LRTR 180500Z 1806/1906 24006KT 9999 BKN015 OVC035"
    },
    {
      "icao": "LTAC",
      "alert": "OK",
      "vis_m": 9999,
      "fzfg": false,
      "metar_trigger": false,
      "taf_trigger": false,
      "metar": "METAR LTAC 180920Z 28010KT 9999 SCT033 BKN090 13/06 Q1011 NOSIG RMK RWY21C 28009KT RWY03L 28008KT 240V300 RWY21R 27008KT 240V300 RWY03R 27008KT RWY21L 27010KT",
      "taf": "TAF LTAC 180440Z 1806/1906 VRB02KT 9999 SCT040 SCT100"
    },
    {
      "icao": "LTFM",
      "alert": "OK",
      "vis_m": 9999,
      "fzfg": false,
      "metar_trigger": false,
      "taf_trigger": false,
      "metar": "METAR LTFM 180920Z 01009KT 320V030 9999 SCT040 19/11 Q1012 NOSIG RMK RWY17L 36007KT 320V040 RWY34L 33009KT 280V360 RWY16R 02006KT 340V050 RWY36 35009KT RWY18 35008KT 310V010",
      "taf": "TAF LTFM 180440Z 1806/1912 30010KT 9999 SCT040"
    },
    {
      "icao": "LUKK",
      "alert": "OK",
      "vis_m": 9999,
      "fzfg": false,
      "metar_trigger": false,
      "taf_trigger": false,
      "metar": "METAR LUKK 180930Z 34009KT 280V030 9999 FEW040 SCT048 22/12 Q1007 NOSIG",
      "taf": "TAF LUKK 172316Z 1800/1824 VRB05KT 9999 SCT040"
    },
    {
      "icao": "LWOH",
      "alert": "OK",
      "vis_m": 9999,
      "fzfg": false,
      "metar_trigger": false,
      "taf_trigger": false,
      "metar": "METAR LWOH 180950Z 16006KT 9999 FEW035 SCT040 14/09 Q1015",
      "taf": "TAF LWOH 180855Z 1809/1909 VRB02KT 9999 SCT040"
    },
    {
      "icao": "LWSK",
      "alert": "OK",
      "vis_m": 9999,
      "fzfg": false,
      "metar_trigger": false,
      "taf_trigger": false,
      "metar": "METAR LWSK 180950Z 33005KT 230V020 9999 BKN040 19/08 Q1015 NOSIG",
      "taf": "TAF LWSK 180855Z 1809/1909 VRB02KT 9999 BKN060"
    },
    {
      "icao": "LYBE",
      "alert": "OK",
      "vis_m": 9999,
      "fzfg": false,
      "metar_trigger": false,
      "taf_trigger": false,
      "metar": "METAR LYBE 180930Z 27009KT 240V310 9999 FEW043 17/09 Q1016 NOSIG",
      "taf": "TAF LYBE 172300Z 1800/1824 28008KT CAVOK TX20/1813Z TN08/1804Z"
    },
    {
      "icao": "LYNI",
      "alert": "OK",
      "vis_m": 9999,
      "fzfg": false,
      "metar_trigger": false,
      "taf_trigger": false,
      "metar": "METAR LYNI 180930Z 33007KT 290V360 9999 FEW033 BKN043 16/08 Q1016 NOSIG",
      "taf": "TAF LYNI 172300Z 1800/1824 33006KT 9999 SCT015 BKN025 TX21/1813Z TN09/1804Z"
    },
    {
      "icao": "LYPG",
      "alert": "OK",
      "vis_m": 9999,
      "fzfg": false,
      "metar_trigger": false,
      "taf_trigger": false,
      "metar": "METAR LYPG 180930Z VRB06KT 9999 FEW040 21/07 Q1014 NOSIG",
      "taf": "TAF LYPG 172300Z 1800/1824 33008KT CAVOK TX23/1813Z TN13/1804Z"
    },
    {
      "icao": "LZIB",
      "alert": "OK",
      "vis_m": 9999,
      "fzfg": false,
      "metar_trigger": false,
      "taf_trigger": false,
      "metar": "METAR LZIB 180930Z 29007KT 250V360 9999 FEW041 16/07 Q1015 NOSIG",
      "taf": "TAF LZIB 180515Z 1806/1906 31012KT CAVOK"
    },
    {
      "icao": "LZKZ",
      "alert": "OK",
      "vis_m": 9999,
      "fzfg": false,
      "metar_trigger": false,
      "taf_trigger": false,
      "metar": "METAR LZKZ 180930Z 25004KT 210V270 9999 FEW030 15/10 Q1013 NOSIG",
      "taf": ""
    },
    {
      "icao": "LZTT",
      "alert": "OK",
      "vis_m": 9999,
      "fzfg": false,
      "metar_trigger": false,
      "taf_trigger": false,
      "metar": "METAR LZTT 180930Z VRB03KT 9999 -RA FEW010 SCT017 BKN065 10/07 Q1013 NOSIG",
      "taf": ""
    },
    {
      "icao": "OEJN",
      "alert": "OK",
      "vis_m": 8000,
      "fzfg": false,
      "metar_trigger": false,
      "taf_trigger": false,
      "metar": "METAR OEJN 180900Z 04015KT 8000 NSC 45/M03 Q1007 NOSIG",
      "taf": "TAF OEJN 180500Z 1806/1912 08015KT 7000 NSC"
    },
    {
      "icao": "OEMA",
      "alert": "OK",
      "vis_m": 9999,
      "fzfg": false,
      "metar_trigger": false,
      "taf_trigger": false,
      "metar": "METAR OEMA 180900Z VRB02KT CAVOK 38/M02 Q1016 NOSIG",
      "taf": "TAF OEMA 180500Z 1806/1912 10008KT CAVOK"
    },
    {
      "icao": "OJAI",
      "alert": "OK",
      "vis_m": 4000,
      "fzfg": false,
      "metar_trigger": false,
      "taf_trigger": false,
      "metar": "METAR OJAI 180900Z 26016KT 4000 BLDU NSC 32/06 Q1013 NOSIG",
      "taf": "TAF OJAI 180500Z 1806/1912 25012KT 5000 HZ NSC"
    },
    {
      "icao": "OMAA",
      "alert": "OK",
      "vis_m": 9999,
      "fzfg": false,
      "metar_trigger": false,
      "taf_trigger": false,
      "metar": "METAR OMAA 180930Z 30017KT CAVOK 33/14 Q1007 NOSIG",
      "taf": "TAF OMAA 180500Z 1806/1912 32014KT 8000 NSC"
    },
    {
      "icao": "OMDB",
      "alert": "OK",
      "vis_m": 9999,
      "fzfg": false,
      "metar_trigger": false,
      "taf_trigger": false,
      "metar": "METAR OMDB 180930Z 27012KT 230V310 CAVOK 33/14 Q1006 NOSIG",
      "taf": "TAF OMDB 180500Z 1806/1912 31012KT 8000 NSC"
    },
    {
      "icao": "UAAA",
      "alert": "OK",
      "vis_m": 9999,
      "fzfg": false,
      "metar_trigger": false,
      "taf_trigger": false,
      "metar": "METAR UAAA 180930Z 08002MPS 9999 SCT050 BKN100 BKN200 27/05 Q1009 NOSIG",
      "taf": "TAF UAAA 180502Z 1806/1906 33003MPS 9999 SCT100 TX26/1810Z TN12/1901Z"
    },
    {
      "icao": "UBBB",
      "alert": "OK",
      "vis_m": 9999,
      "fzfg": false,
      "metar_trigger": false,
      "taf_trigger": false,
      "metar": "METAR UBBB 180930Z 18014KT 150V210 9999 BKN017 21/16 Q1000 NOSIG",
      "taf": "TAF UBBB 180459Z 1806/1906 18012KT 9999 SCT015 SCT040 TX22/1810Z TN16/1901Z"
    },
    {
      "icao": "UDSG",
      "alert": "OK",
      "vis_m": 9999,
      "fzfg": false,
      "metar_trigger": false,
      "taf_trigger": false,
      "metar": "METAR UDSG 180930Z 22013KT 9999 BKN049CB 14/06 Q1008 NOSIG",
      "taf": "TAF UDSG 180458Z 1806/1906 24006KT 9999 SCT040"
    },
    {
      "icao": "UDYZ",
      "alert": "OK",
      "vis_m": 9999,
      "fzfg": false,
      "metar_trigger": false,
      "taf_trigger": false,
      "metar": "METAR UDYZ 180930Z 23008KT 9999 -SHRA BKN043CB 18/09 Q1006 NOSIG",
      "taf": ""
    },
    {
      "icao": "UGKO",
      "alert": "OK",
      "vis_m": 9999,
      "fzfg": false,
      "metar_trigger": false,
      "taf_trigger": false,
      "metar": "METAR UGKO 180930Z 26017G27KT 9999 SCT023 OVC028 18/12 Q1006 NOSIG",
      "taf": "TAF UGKO 180500Z 1806/1906 26010KT 9999 BKN050 TX19/1811Z TN13/1902Z"
    }
  ]
}