{
  "ts_utc": "2025-12-28T12:43:01Z",
  "threshold_m": 150,
  "source": "stations_override.txt (ICAO list) + aviationweather.gov (METAR/TAF raw)",
  "station_count": 159,
  "stations": [
    {
      "icao": "BIKF",
      "alert": "OK",
      "vis_m": 9999,
      "fzfg": false,
      "metar_trigger": false,
      "taf_trigger": false,
      "metar": "METAR BIKF 281230Z 24010KT 9999 SCT016 BKN047 07/06 Q1036",
      "taf": "TAF BIKF 281030Z 2812/2912 25013KT 8000 -DZRA SCT007 BKN014 OVC024 TX07/2815Z TN03/2911Z"
    },
    {
      "icao": "BKPR",
      "alert": "OK",
      "vis_m": 9999,
      "fzfg": false,
      "metar_trigger": false,
      "taf_trigger": false,
      "metar": "METAR BKPR 281230Z 35019KT 9999 FEW050 03/M05 Q1018 NOSIG",
      "taf": "TAF BKPR 281130Z 2812/2912 01012KT CAVOK"
    },
    {
      "icao": "EBCI",
      "alert": "OK",
      "vis_m": 9999,
      "fzfg": false,
      "metar_trigger": false,
      "taf_trigger": false,
      "metar": "METAR EBCI 281220Z 06013KT 9999 FEW014 03/M00 Q1029 NOSIG",
      "taf": "TAF EBCI 281100Z 2812/2918 06006KT CAVOK"
    },
    {
      "icao": "EDDB",
      "alert": "OK",
      "vis_m": 9999,
      "fzfg": false,
      "metar_trigger": false,
      "taf_trigger": false,
      "metar": "METAR EDDB 281220Z AUTO 29008KT CAVOK 03/M02 Q1029 NOSIG",
      "taf": "TAF EDDB 281100Z 2812/2912 28007KT CAVOK"
    },
    {
      "icao": "EDDH",
      "alert": "OK",
      "vis_m": 9999,
      "fzfg": false,
      "metar_trigger": false,
      "taf_trigger": false,
      "metar": "METAR EDDH 281220Z AUTO 32003KT CAVOK 04/02 Q1031 NOSIG",
      "taf": "TAF EDDH 281100Z 2812/2918 25002KT CAVOK"
    },
    {
      "icao": "EDDK",
      "alert": "OK",
      "vis_m": 9999,
      "fzfg": false,
      "metar_trigger": false,
      "taf_trigger": false,
      "metar": "METAR EDDK 281220Z AUTO 28003KT 240V340 CAVOK 02/M00 Q1031 NOSIG",
      "taf": ""
    },
    {
      "icao": "EDDN",
      "alert": "OK",
      "vis_m": 9999,
      "fzfg": false,
      "metar_trigger": false,
      "taf_trigger": false,
      "metar": "METAR EDDN 281220Z AUTO 32003KT 280V360 CAVOK 04/M02 Q1029 NOSIG",
      "taf": "TAF EDDN 281100Z 2812/2912 VRB03KT CAVOK"
    },
    {
      "icao": "EDDS",
      "alert": "OK",
      "vis_m": 9999,
      "fzfg": false,
      "metar_trigger": false,
      "taf_trigger": false,
      "metar": "METAR EDDS 281220Z AUTO 07006KT CAVOK 02/M02 Q1027 NOSIG",
      "taf": "TAF EDDS 281100Z 2812/2912 06005KT CAVOK"
    },
    {
      "icao": "EDFH",
      "alert": "OK",
      "vis_m": 9999,
      "fzfg": false,
      "metar_trigger": false,
      "taf_trigger": false,
      "metar": "METAR EDFH 281220Z 09009KT 060V120 CAVOK 03/M01 Q1028",
      "taf": "TAF EDFH 281100Z 2812/2912 09008KT CAVOK"
    },
    {
      "icao": "EDJA",
      "alert": "OK",
      "vis_m": 9000,
      "fzfg": false,
      "metar_trigger": false,
      "taf_trigger": false,
      "metar": "METAR EDJA 281220Z 05008KT 9000 OVC003 M03/M04 Q1026",
      "taf": "TAF EDJA 281100Z 2812/2821 05009KT 8000 BKN003"
    },
    {
      "icao": "EDLW",
      "alert": "OK",
      "vis_m": 200,
      "fzfg": true,
      "metar_trigger": false,
      "taf_trigger": false,
      "metar": "METAR EDLW 281220Z VRB02KT 0200 0150 R06/0275N FZFG NCD M02/M02 Q1032",
      "taf": ""
    },
    {
      "icao": "EDNY",
      "alert": "OK",
      "vis_m": 9999,
      "fzfg": false,
      "metar_trigger": false,
      "taf_trigger": false,
      "metar": "METAR EDNY 281220Z 02012KT 9999 FEW014 00/M03 Q1027",
      "taf": "TAF EDNY 281100Z 2812/2821 04008KT 9999 FEW014"
    },
    {
      "icao": "EDSB",
      "alert": "OK",
      "vis_m": 9999,
      "fzfg": false,
      "metar_trigger": false,
      "taf_trigger": false,
      "metar": "METAR EDSB 281220Z 04015KT CAVOK 04/M01 Q1028",
      "taf": "TAF EDSB 281100Z 2812/2912 VRB03KT CAVOK"
    },
    {
      "icao": "EETN",
      "alert": "OK",
      "vis_m": 9999,
      "fzfg": false,
      "metar_trigger": false,
      "taf_trigger": false,
      "metar": "METAR EETN 281220Z 34016G26KT CAVOK M00/M09 Q1009 NOSIG",
      "taf": "TAF EETN 281130Z 2812/2912 33016KT 9999 FEW030"
    },
    {
      "icao": "EFTU",
      "alert": "OK",
      "vis_m": 9999,
      "fzfg": false,
      "metar_trigger": false,
      "taf_trigger": false,
      "metar": "METAR EFTU 281220Z AUTO 29005KT 270V330 9999 FEW015 M01/M03 Q1009",
      "taf": "TAF EFTU 281123Z 2812/2912 30008KT 9999 FEW035"
    },
    {
      "icao": "EGBB",
      "alert": "OK",
      "vis_m": 9999,
      "fzfg": false,
      "metar_trigger": false,
      "taf_trigger": false,
      "metar": "METAR EGBB 281220Z 07009KT 040V100 9999 OVC018 06/02 Q1034",
      "taf": "TAF EGBB 281053Z 2812/2912 06009KT 9999 BKN020"
    },
    {
      "icao": "EGGP",
      "alert": "OK",
      "vis_m": 9999,
      "fzfg": false,
      "metar_trigger": false,
      "taf_trigger": false,
      "metar": "METAR EGGP 281220Z 09006KT 9999 BKN023 06/01 Q1035",
      "taf": "TAF EGGP 281056Z 2812/2912 09008KT 9999 BKN023"
    },
    {
      "icao": "EGGW",
      "alert": "OK",
      "vis_m": 9999,
      "fzfg": false,
      "metar_trigger": false,
      "taf_trigger": false,
      "metar": "METAR EGGW 281220Z AUTO 05010KT 9999 OVC018 06/02 Q1032",
      "taf": "TAF EGGW 281100Z 2812/2912 04012KT 9999 SCT020"
    },
    {
      "icao": "EGKK",
      "alert": "OK",
      "vis_m": 9999,
      "fzfg": false,
      "metar_trigger": false,
      "taf_trigger": false,
      "metar": "METAR EGKK 281220Z 04009KT 9999 BKN020 07/04 Q1031",
      "taf": "TAF EGKK 281057Z 2812/2918 04009KT 9999 BKN022"
    },
    {
      "icao": "EGNM",
      "alert": "OK",
      "vis_m": 9999,
      "fzfg": false,
      "metar_trigger": false,
      "taf_trigger": false,
      "metar": "METAR EGNM 281220Z 06008KT 9999 BKN016 05/02 Q1035",
      "taf": "TAF EGNM 281056Z 2812/2912 06007KT 9999 BKN018"
    },
    {
      "icao": "EGPD",
      "alert": "OK",
      "vis_m": 9999,
      "fzfg": false,
      "metar_trigger": false,
      "taf_trigger": false,
      "metar": "METAR EGPD 281220Z COR AUTO 27005KT 250V320 9999 OVC021 05/01 Q1037 NOSIG",
      "taf": "TAF EGPD 281054Z 2812/2912 29005KT 9999 SCT020"
    },
    {
      "icao": "EGPF",
      "alert": "OK",
      "vis_m": 9999,
      "fzfg": false,
      "metar_trigger": false,
      "taf_trigger": false,
      "metar": "METAR EGPF 281220Z AUTO 09007KT 9999 OVC023 06/02 Q1037",
      "taf": "TAF EGPF 281100Z 2812/2912 05004KT 9999 BKN025"
    },
    {
      "icao": "EHBK",
      "alert": "OK",
      "vis_m": 9999,
      "fzfg": false,
      "metar_trigger": false,
      "taf_trigger": false,
      "metar": "METAR EHBK 281225Z AUTO 06010KT 9999 NCD 05/01 Q1031 NOSIG",
      "taf": "TAF EHBK 281119Z 2812/2918 05008KT CAVOK"
    },
    {
      "icao": "EHEH",
      "alert": "OK",
      "vis_m": 9999,
      "fzfg": false,
      "metar_trigger": false,
      "taf_trigger": false,
      "metar": "METAR EHEH 281225Z AUTO 05008KT 9999 NCD 06/01 Q1032 BLU NOSIG RMK TREND REMOTE BY EHWX",
      "taf": "TAF EHEH 281146Z 2812/2918 06007KT CAVOK"
    },
    {
      "icao": "EKBI",
      "alert": "OK",
      "vis_m": 9999,
      "fzfg": false,
      "metar_trigger": false,
      "taf_trigger": false,
      "metar": "METAR EKBI 281220Z AUTO 24009KT 9999 SCT010/// 04/04 Q1029",
      "taf": "TAF EKBI 281127Z 2812/2912 24004KT CAVOK"
    },
    {
      "icao": "EKCH",
      "alert": "OK",
      "vis_m": 9999,
      "fzfg": false,
      "metar_trigger": false,
      "taf_trigger": false,
      "metar": "METAR EKCH 281220Z AUTO 28011KT 260V340 9999 NCD 05/M01 Q1027 NOSIG",
      "taf": "TAF EKCH 281127Z 2812/2912 29008KT CAVOK"
    },
    {
      "icao": "ENAL",
      "alert": "OK",
      "vis_m": 9999,
      "fzfg": false,
      "metar_trigger": false,
      "taf_trigger": false,
      "metar": "METAR ENAL 281220Z 25017KT 9999 -DZRA FEW010 BKN025 06/04 Q1026",
      "taf": "TAF ENAL 281100Z 2812/2821 25018KT 9999 FEW020 BKN035"
    },
    {
      "icao": "ENBR",
      "alert": "OK",
      "vis_m": 9999,
      "fzfg": false,
      "metar_trigger": false,
      "taf_trigger": false,
      "metar": "METAR ENBR 281220Z 00000KT 9999 FEW016 BKN029 02/M01 Q1031 NOSIG RMK WIND 1200FT 03005KT",
      "taf": "TAF ENBR 281100Z 2812/2912 VRB05KT 9999 -SHRA FEW015TCU BKN030"
    },
    {
      "icao": "ENGM",
      "alert": "OK",
      "vis_m": 9999,
      "fzfg": false,
      "metar_trigger": false,
      "taf_trigger": false,
      "metar": "METAR ENGM 281220Z 04003KT CAVOK M05/M08 Q1021 NOSIG",
      "taf": "TAF ENGM 281100Z 2812/2912 VRB03KT CAVOK"
    },
    {
      "icao": "ENHD",
      "alert": "OK",
      "vis_m": 9999,
      "fzfg": false,
      "metar_trigger": false,
      "taf_trigger": false,
      "metar": "METAR ENHD 281220Z 36016KT 9999 BKN031 05/M00 Q1031",
      "taf": "TAF ENHD 281100Z 2812/2821 36015KT 9999 SCT040"
    },
    {
      "icao": "ENTC",
      "alert": "OK",
      "vis_m": 8000,
      "fzfg": false,
      "metar_trigger": false,
      "taf_trigger": false,
      "metar": "METAR ENTC 281220Z 26009KT 220V310 8000 -SN OVC029 M01/M04 Q0993 TEMPO 28015G28KT 1500 -SHSN VV009 RMK WIND 2600FT 30037G49KT",
      "taf": "TAF ENTC 281100Z 2812/2912 29012KT 9999 -SHSNRA FEW012 SCT020CB BKN040"
    },
    {
      "icao": "ENTO",
      "alert": "OK",
      "vis_m": 9999,
      "fzfg": false,
      "metar_trigger": false,
      "taf_trigger": false,
      "metar": "METAR ENTO 281220Z 25004KT 220V290 CAVOK 03/M06 Q1022 NOSIG",
      "taf": "TAF ENTO 281100Z 2812/2912 24008KT CAVOK"
    },
    {
      "icao": "ENVA",
      "alert": "OK",
      "vis_m": 9999,
      "fzfg": false,
      "metar_trigger": false,
      "taf_trigger": false,
      "metar": "METAR ENVA 281220Z 28034KT 9999 -DZRA BKN028 05/03 Q1016 TEMPO 27034G44KT 4000 SHRA BKN012CB RMK WIND 670FT 28038G53KT",
      "taf": "TAF ENVA 281100Z 2812/2912 26022KT 9999 FEW015TCU BKN030"
    },
    {
      "icao": "ENZV",
      "alert": "OK",
      "vis_m": 9999,
      "fzfg": false,
      "metar_trigger": false,
      "taf_trigger": false,
      "metar": "METAR ENZV 281220Z 35017KT 9999 BKN031 04/M01 Q1031 NOSIG",
      "taf": "TAF ENZV 281100Z 2812/2912 35008KT CAVOK"
    },
    {
      "icao": "EPGD",
      "alert": "OK",
      "vis_m": 9999,
      "fzfg": false,
      "metar_trigger": false,
      "taf_trigger": false,
      "metar": "METAR EPGD 281230Z 31018KT 9999 BKN025 03/M02 Q1020",
      "taf": "TAF EPGD 281130Z 2812/2912 34018KT 9999 BKN025"
    },
    {
      "icao": "EPKK",
      "alert": "OK",
      "vis_m": 9999,
      "fzfg": false,
      "metar_trigger": false,
      "taf_trigger": false,
      "metar": "METAR EPKK 281230Z 27014KT 9999 FEW023 OVC040 01/M04 Q1021",
      "taf": "TAF EPKK 281130Z 2812/2912 27013KT 9999 SCT025 OVC040"
    },
    {
      "icao": "EPKT",
      "alert": "OK",
      "vis_m": 9999,
      "fzfg": false,
      "metar_trigger": false,
      "taf_trigger": false,
      "metar": "METAR EPKT 281230Z 30011KT 9999 BKN039 00/M04 Q1022",
      "taf": "TAF EPKT 281130Z 2812/2912 29012KT 9999 BKN036"
    },
    {
      "icao": "EPLB",
      "alert": "OK",
      "vis_m": 9999,
      "fzfg": false,
      "metar_trigger": false,
      "taf_trigger": false,
      "metar": "METAR EPLB 281230Z 31013KT 9999 FEW021 BKN028 01/M01 Q1013",
      "taf": "TAF EPLB 281130Z 2812/2912 30015KT 9999 BKN024"
    },
    {
      "icao": "EPMO",
      "alert": "OK",
      "vis_m": 9999,
      "fzfg": false,
      "metar_trigger": false,
      "taf_trigger": false,
      "metar": "METAR EPMO 281230Z 29016G26KT 260V320 9999 BKN040 03/M03 Q1017",
      "taf": "TAF EPMO 281130Z 2812/2912 30015KT 9999 BKN035"
    },
    {
      "icao": "EPPO",
      "alert": "OK",
      "vis_m": 9999,
      "fzfg": false,
      "metar_trigger": false,
      "taf_trigger": false,
      "metar": "METAR EPPO 281230Z 30012KT CAVOK 03/M03 Q1025",
      "taf": "TAF EPPO 281130Z 2812/2912 31010KT CAVOK"
    },
    {
      "icao": "EPRA",
      "alert": "OK",
      "vis_m": 9999,
      "fzfg": false,
      "metar_trigger": false,
      "taf_trigger": false,
      "metar": "METAR EPRA 281230Z 31018KT 280V340 9999 BKN038 01/M04 Q1016",
      "taf": "TAF EPRA 281130Z 2812/2821 30015KT 9999 BKN030"
    },
    {
      "icao": "EPRZ",
      "alert": "OK",
      "vis_m": 9999,
      "fzfg": false,
      "metar_trigger": false,
      "taf_trigger": false,
      "metar": "METAR EPRZ 281230Z 29018KT 9999 BKN024 02/M04 Q1016",
      "taf": "TAF EPRZ 281130Z 2812/2912 28014KT 9999 BKN020"
    },
    {
      "icao": "EPSC",
      "alert": "OK",
      "vis_m": 9999,
      "fzfg": false,
      "metar_trigger": false,
      "taf_trigger": false,
      "metar": "METAR EPSC 281230Z 29011KT CAVOK 03/M01 Q1027",
      "taf": "TAF EPSC 281130Z 2812/2912 27008KT CAVOK"
    },
    {
      "icao": "EPSY",
      "alert": "OK",
      "vis_m": 9999,
      "fzfg": false,
      "metar_trigger": false,
      "taf_trigger": false,
      "metar": "METAR EPSY 281230Z 33014G28KT 290V010 9999 SCT027 BKN033 03/M02 Q1015",
      "taf": "TAF EPSY 281130Z 2812/2821 33015KT 9999 BKN035"
    },
    {
      "icao": "EPWA",
      "alert": "OK",
      "vis_m": 9999,
      "fzfg": false,
      "metar_trigger": false,
      "taf_trigger": false,
      "metar": "METAR EPWA 281230Z 29020G31KT 9999 BKN038 03/M03 Q1017 NOSIG",
      "taf": "TAF EPWA 281130Z 2812/2912 30015KT 9999 BKN040"
    },
    {
      "icao": "EPWR",
      "alert": "OK",
      "vis_m": 9999,
      "fzfg": false,
      "metar_trigger": false,
      "taf_trigger": false,
      "metar": "METAR EPWR 281230Z 30016KT 9999 BKN033 02/M02 Q1026",
      "taf": "TAF EPWR 281130Z 2812/2912 30012KT 9999 BKN036"
    },
    {
      "icao": "ESGG",
      "alert": "OK",
      "vis_m": 9999,
      "fzfg": false,
      "metar_trigger": false,
      "taf_trigger": false,
      "metar": "METAR ESGG 281220Z 24009KT CAVOK 04/00 Q1023",
      "taf": ""
    },
    {
      "icao": "ESKN",
      "alert": "OK",
      "vis_m": 9999,
      "fzfg": false,
      "metar_trigger": false,
      "taf_trigger": false,
      "metar": "METAR ESKN 281220Z 27014KT CAVOK 02/M04 Q1019",
      "taf": "TAF ESKN 281130Z 2812/2912 26010KT CAVOK"
    },
    {
      "icao": "ESMS",
      "alert": "OK",
      "vis_m": 9999,
      "fzfg": false,
      "metar_trigger": false,
      "taf_trigger": false,
      "metar": "METAR ESMS 281220Z 31008KT CAVOK 04/M02 Q1026",
      "taf": "TAF ESMS 281127Z 2812/2912 30010KT CAVOK"
    },
    {
      "icao": "ESSA",
      "alert": "OK",
      "vis_m": 9999,
      "fzfg": false,
      "metar_trigger": false,
      "taf_trigger": false,
      "metar": "METAR ESSA 281220Z 28009KT CAVOK 02/M05 Q1016 NOSIG",
      "taf": "TAF ESSA 281130Z 2812/2912 28010KT CAVOK"
    },
    {
      "icao": "EYKA",
      "alert": "OK",
      "vis_m": 9999,
      "fzfg": false,
      "metar_trigger": false,
      "taf_trigger": false,
      "metar": "METAR EYKA 281220Z VRB10G21KT 9999 BKN037 01/M07 Q1009",
      "taf": "TAF EYKA 281100Z 2812/2912 32012G22KT 9000 SCT035"
    },
    {
      "icao": "EYPA",
      "alert": "OK",
      "vis_m": 9999,
      "fzfg": false,
      "metar_trigger": false,
      "taf_trigger": false,
      "metar": "METAR EYPA 281220Z 36015G30KT 310V040 9999 SCT039 05/M04 Q1014",
      "taf": "TAF EYPA 281100Z 2812/2912 35014G25KT 9000 SCT035"
    },
    {
      "icao": "EYVI",
      "alert": "OK",
      "vis_m": 9999,
      "fzfg": false,
      "metar_trigger": false,
      "taf_trigger": false,
      "metar": "METAR EYVI 281220Z 33014KT 290V360 9999 OVC014 M00/M03 Q1005 NOSIG",
      "taf": "TAF EYVI 281100Z 2812/2912 33015G25KT 9000 BKN015"
    },
    {
      "icao": "GCFV",
      "alert": "OK",
      "vis_m": 9999,
      "fzfg": false,
      "metar_trigger": false,
      "taf_trigger": false,
      "metar": "METAR GCFV 281230Z 32011G23KT 280V350 9999 FEW030 SCT035 21/11 Q1019",
      "taf": "TAF GCFV 280800Z 2809/2909 20005KT 9999 SCT030 TX22/2814Z TN13/2906Z"
    },
    {
      "icao": "GCLP",
      "alert": "OK",
      "vis_m": 9999,
      "fzfg": false,
      "metar_trigger": false,
      "taf_trigger": false,
      "metar": "METAR GCLP 281230Z 14006KT 080V160 9999 BKN040 20/13 Q1019 NOSIG",
      "taf": ""
    },
    {
      "icao": "GCTS",
      "alert": "OK",
      "vis_m": 9999,
      "fzfg": false,
      "metar_trigger": false,
      "taf_trigger": false,
      "metar": "METAR GCTS 281230Z 16005KT 120V200 9999 SCT040 21/11 Q1020 NOSIG",
      "taf": "TAF GCTS 280800Z 2809/2909 13007KT 9999 SCT040 TX23/2814Z TN15/2906Z"
    },
    {
      "icao": "GMAD",
      "alert": "OK",
      "vis_m": 8000,
      "fzfg": false,
      "metar_trigger": false,
      "taf_trigger": false,
      "metar": "METAR GMAD 281230Z 26013KT 8000 FEW016TCU BKN100 16/14 Q1016 NOSIG",
      "taf": "TAF GMAD 281100Z 2812/2918 26008KT 6000 BKN020TCU BKN080"
    },
    {
      "icao": "GMMN",
      "alert": "OK",
      "vis_m": 6000,
      "fzfg": false,
      "metar_trigger": false,
      "taf_trigger": false,
      "metar": "METAR GMMN 281230Z 22018KT 200V260 6000 RA BKN026 13/10 Q1012 NOSIG",
      "taf": "TAF GMMN 281100Z 2812/2918 22018KT 9999 SCT026"
    },
    {
      "icao": "GMMX",
      "alert": "OK",
      "vis_m": 8000,
      "fzfg": false,
      "metar_trigger": false,
      "taf_trigger": false,
      "metar": "METAR GMMX 281230Z 24017G32KT 210V280 8000 -RA SCT013 BKN020 13/09 Q1015 NOSIG",
      "taf": "TAF GMMX 281100Z 2812/2918 24010KT 6000 SCT013 BKN020"
    },
    {
      "icao": "HEGN",
      "alert": "OK",
      "vis_m": 9999,
      "fzfg": false,
      "metar_trigger": false,
      "taf_trigger": false,
      "metar": "METAR HEGN 281200Z 35008KT CAVOK 23/05 Q1012 NOSIG",
      "taf": "TAF HEGN 281100Z 2812/2918 34015KT CAVOK"
    },
    {
      "icao": "HEMA",
      "alert": "OK",
      "vis_m": 9999,
      "fzfg": false,
      "metar_trigger": false,
      "taf_trigger": false,
      "metar": "METAR HEMA 281200Z 01011KT CAVOK 23/01 Q1012 NOSIG",
      "taf": "TAF HEMA 281100Z 2812/2918 35014KT CAVOK"
    },
    {
      "icao": "HESH",
      "alert": "OK",
      "vis_m": 9999,
      "fzfg": false,
      "metar_trigger": false,
      "taf_trigger": false,
      "metar": "METAR HESH 281200Z 07006KT CAVOK 23/09 Q1011 NOSIG",
      "taf": "TAF HESH 281100Z 2812/2918 01012KT CAVOK"
    },
    {
      "icao": "HESX",
      "alert": "OK",
      "vis_m": 9999,
      "fzfg": false,
      "metar_trigger": false,
      "taf_trigger": false,
      "metar": "METAR HESX 281200Z 30012KT 9999 SCT020 18/06 Q1012 NOSIG",
      "taf": "TAF HESX 281100Z 2812/2918 30010KT 9999 SCT025"
    },
    {
      "icao": "LATI",
      "alert": "OK",
      "vis_m": 9999,
      "fzfg": false,
      "metar_trigger": false,
      "taf_trigger": false,
      "metar": "METAR LATI 281220Z 32006KT 280V010 CAVOK 14/02 Q1014 NOSIG",
      "taf": "TAF LATI 281100Z 2812/2912 VRB03KT CAVOK TX15/2812Z TNM02/2904Z"
    },
    {
      "icao": "LBPD",
      "alert": "OK",
      "vis_m": 9999,
      "fzfg": false,
      "metar_trigger": false,
      "taf_trigger": false,
      "metar": "METAR LBPD 281230Z AUTO 30030KT 9999 SCT046/// BKN053/// 08/M03 Q1011 NOSIG",
      "taf": "TAF LBPD 281100Z 2812/2912 30028G40KT 9999 BKN050"
    },
    {
      "icao": "LBSF",
      "alert": "OK",
      "vis_m": 9999,
      "fzfg": false,
      "metar_trigger": false,
      "taf_trigger": false,
      "metar": "METAR LBSF 281230Z 28022KT 9999 SCT028 02/M06 Q1014 WS ALL RWY NOSIG",
      "taf": "TAF LBSF 281100Z 2812/2912 29030G42KT 9999 BKN030"
    },
    {
      "icao": "LBWN",
      "alert": "OK",
      "vis_m": 9999,
      "fzfg": false,
      "metar_trigger": false,
      "taf_trigger": false,
      "metar": "METAR LBWN 281230Z 28014KT 9999 SCT027 04/00 Q1009 NOSIG",
      "taf": "TAF LBWN 281100Z 2812/2912 27014KT 9999 SCT025 SCT045"
    },
    {
      "icao": "LCLK",
      "alert": "OK",
      "vis_m": 9999,
      "fzfg": false,
      "metar_trigger": false,
      "taf_trigger": false,
      "metar": "METAR LCLK 281230Z 20008KT 160V230 9999 FEW025 16/06 Q1007 NOSIG",
      "taf": "TAF LCLK 281130Z 2812/2912 21012KT 9999 FEW030 SCT060"
    },
    {
      "icao": "LCPH",
      "alert": "OK",
      "vis_m": 9999,
      "fzfg": false,
      "metar_trigger": false,
      "taf_trigger": false,
      "metar": "METAR LCPH 281230Z 31016KT 9999 BKN045 14/04 Q1008 NOSIG",
      "taf": "TAF LCPH 281130Z 2812/2912 30014KT 9999 FEW030 SCT060"
    },
    {
      "icao": "LEAL",
      "alert": "OK",
      "vis_m": 9999,
      "fzfg": false,
      "metar_trigger": false,
      "taf_trigger": false,
      "metar": "METAR LEAL 281230Z 06014KT 040V100 9999 FEW020TCU BKN020 17/15 Q1014 NOSIG",
      "taf": "TAF LEAL 281100Z 2812/2912 06014KT 9999 BKN020 TX17/2813Z TN08/2906Z"
    },
    {
      "icao": "LEBB",
      "alert": "OK",
      "vis_m": 9999,
      "fzfg": false,
      "metar_trigger": false,
      "taf_trigger": false,
      "metar": "METAR LEBB 281230Z 12007KT 340V150 9999 FEW045 17/07 Q1019 NOSIG",
      "taf": "TAF LEBB 281100Z 2812/2912 11008KT 9999 FEW040 TX15/2814Z TN04/2908Z"
    },
    {
      "icao": "LEBL",
      "alert": "OK",
      "vis_m": 9999,
      "fzfg": false,
      "metar_trigger": false,
      "taf_trigger": false,
      "metar": "METAR LEBL 281230Z 08011KT 050V110 9999 SCT017 15/12 Q1019 NOSIG",
      "taf": "TAF LEBL 281100Z 2812/2912 07012KT 9999 FEW020 TX15/2812Z TN08/2907Z"
    },
    {
      "icao": "LECH",
      "alert": "OK",
      "vis_m": 9999,
      "fzfg": false,
      "metar_trigger": false,
      "taf_trigger": false,
      "metar": "METAR LECH 281230Z AUTO 01005KT 330V050 9999 OVC010 11/09 Q1018",
      "taf": ""
    },
    {
      "icao": "LEMD",
      "alert": "OK",
      "vis_m": 9999,
      "fzfg": false,
      "metar_trigger": false,
      "taf_trigger": false,
      "metar": "METAR LEMD 281230Z 03003KT 330V100 9999 FEW038 BKN055 11/03 Q1015 NOSIG",
      "taf": "TAF LEMD 281100Z 2812/2918 02006KT 9999 SCT040 TX12/2815Z TN03/2907Z"
    },
    {
      "icao": "LEMG",
      "alert": "OK",
      "vis_m": 9999,
      "fzfg": false,
      "metar_trigger": false,
      "taf_trigger": false,
      "metar": "METAR LEMG 281230Z VRB02KT 9999 FEW025 SCT050 14/10 Q1012 NOSIG",
      "taf": "TAF LEMG 281100Z 2812/2912 VRB03KT 9999 FEW015 SCT040 TX16/2814Z TN09/2906Z"
    },
    {
      "icao": "LEVC",
      "alert": "OK",
      "vis_m": 9999,
      "fzfg": false,
      "metar_trigger": false,
      "taf_trigger": false,
      "metar": "METAR LEVC 281230Z 11008KT 070V140 9999 VCTS SCT014 SCT025CB BKN050 13/11 Q1017 TEMPO 2500 TSRA SCT025CB",
      "taf": "TAF LEVC 281100Z 2812/2912 05010KT 9999 FEW015 SCT020 BKN025 TX14/2813Z TN06/2906Z"
    },
    {
      "icao": "LEXJ",
      "alert": "OK",
      "vis_m": 9999,
      "fzfg": false,
      "metar_trigger": false,
      "taf_trigger": false,
      "metar": "METAR LEXJ 281230Z VRB02KT CAVOK 15/07 Q1018",
      "taf": "TAF LEXJ 280800Z 2809/2909 10009KT CAVOK TX15/2814Z TN07/2809Z"
    },
    {
      "icao": "LEZG",
      "alert": "OK",
      "vis_m": 9999,
      "fzfg": false,
      "metar_trigger": false,
      "taf_trigger": false,
      "metar": "METAR LEZG 281230Z 13003KT 100V160 9999 FEW025 SCT040 BKN050 11/09 Q1019 NOSIG",
      "taf": "TAF LEZG 281100Z 2812/2912 28006KT 9999 BKN030 OVC050 TX10/2814Z TN06/2906Z"
    },
    {
      "icao": "LEZL",
      "alert": "OK",
      "vis_m": 9999,
      "fzfg": false,
      "metar_trigger": false,
      "taf_trigger": false,
      "metar": "METAR LEZL 281230Z VRB02KT 9999 FEW030 15/08 Q1012 NOSIG",
      "taf": "TAF LEZL 280800Z 2809/2909 08005KT CAVOK TX17/2815Z TN05/2906Z"
    },
    {
      "icao": "LFBD",
      "alert": "OK",
      "vis_m": 9999,
      "fzfg": false,
      "metar_trigger": false,
      "taf_trigger": false,
      "metar": "METAR LFBD 281230Z AUTO 05007KT CAVOK 11/02 Q1020 NOSIG",
      "taf": "TAF LFBD 281100Z 2812/2918 04005KT CAVOK TX11/2815Z TN01/2906Z"
    },
    {
      "icao": "LFLL",
      "alert": "OK",
      "vis_m": 9000,
      "fzfg": false,
      "metar_trigger": false,
      "taf_trigger": false,
      "metar": "METAR LFLL 281230Z 03003KT 360V070 9000 OVC004 M00/M01 Q1024 NOSIG",
      "taf": "TAF LFLL 281100Z 2812/2918 VRB03KT 6000 OVC006"
    },
    {
      "icao": "LFLS",
      "alert": "OK",
      "vis_m": 9999,
      "fzfg": false,
      "metar_trigger": false,
      "taf_trigger": false,
      "metar": "METAR LFLS 281230Z AUTO 06004KT 030V100 CAVOK 03/00 Q1022 TEMPO BKN009",
      "taf": ""
    },
    {
      "icao": "LFMN",
      "alert": "OK",
      "vis_m": 9999,
      "fzfg": false,
      "metar_trigger": false,
      "taf_trigger": false,
      "metar": "METAR LFMN 281230Z 19004KT CAVOK 15/03 Q1018 NOSIG",
      "taf": ""
    },
    {
      "icao": "LFOB",
      "alert": "OK",
      "vis_m": 9999,
      "fzfg": false,
      "metar_trigger": false,
      "taf_trigger": false,
      "metar": "METAR LFOB 281230Z AUTO 05008KT 9999 OVC015 04/01 Q1028",
      "taf": ""
    },
    {
      "icao": "LFPO",
      "alert": "OK",
      "vis_m": 9999,
      "fzfg": false,
      "metar_trigger": false,
      "taf_trigger": false,
      "metar": "METAR LFPO 281230Z AUTO 04011KT 9999 OVC010 02/M00 Q1028",
      "taf": "TAF LFPO 280500Z 2806/2912 02008KT 6000 BKN006"
    },
    {
      "icao": "LFSB",
      "alert": "OK",
      "vis_m": 6000,
      "fzfg": false,
      "metar_trigger": false,
      "taf_trigger": false,
      "metar": "METAR LFSB 281230Z AUTO 34008KT 6000 OVC006 00/M01 Q1026 TEMPO 3000 BR BKN003",
      "taf": "TAF LFSB 281100Z 2812/2912 34006KT 6000 BKN015"
    },
    {
      "icao": "LGAV",
      "alert": "OK",
      "vis_m": 9999,
      "fzfg": false,
      "metar_trigger": false,
      "taf_trigger": false,
      "metar": "METAR LGAV 281220Z 26009KT CAVOK 17/05 Q1009 NOSIG",
      "taf": "TAF LGAV 281100Z 2812/2912 28010KT 9999 FEW020"
    },
    {
      "icao": "LGTS",
      "alert": "OK",
      "vis_m": 9999,
      "fzfg": false,
      "metar_trigger": false,
      "taf_trigger": false,
      "metar": "METAR LGTS 281220Z 31030G40KT 9999 FEW025 14/M00 Q1009 NOSIG",
      "taf": "TAF LGTS 281100Z 2812/2912 33030G45KT 9999 FEW030"
    },
    {
      "icao": "LHBP",
      "alert": "OK",
      "vis_m": 9999,
      "fzfg": false,
      "metar_trigger": false,
      "taf_trigger": false,
      "metar": "METAR LHBP 281230Z 31020G30KT 9999 FEW038 04/M04 Q1020 NOSIG",
      "taf": "TAF LHBP 281115Z 2812/2912 31020G30KT 9999 FEW040"
    },
    {
      "icao": "LHDC",
      "alert": "OK",
      "vis_m": 9999,
      "fzfg": false,
      "metar_trigger": false,
      "taf_trigger": false,
      "metar": "METAR LHDC 281215Z AUTO 32014G24KT 290V360 CAVOK 05/M04 Q1018 NOSIG",
      "taf": "TAF LHDC 281115Z 2812/2821 30014KT CAVOK"
    },
    {
      "icao": "LIBD",
      "alert": "OK",
      "vis_m": 9999,
      "fzfg": false,
      "metar_trigger": false,
      "taf_trigger": false,
      "metar": "METAR LIBD 281220Z 31009KT 270V340 9999 SCT025 13/07 Q1018",
      "taf": "TAF LIBD 281100Z 2812/2912 28012KT CAVOK"
    },
    {
      "icao": "LIBG",
      "alert": "OK",
      "vis_m": 9999,
      "fzfg": false,
      "metar_trigger": false,
      "taf_trigger": false,
      "metar": "METAR LIBG 281150Z 31007KT 9999 FEW030 13/10 Q1017",
      "taf": "TAF LIBG 281100Z 2812/2821 35013KT CAVOK"
    },
    {
      "icao": "LIBP",
      "alert": "OK",
      "vis_m": 9999,
      "fzfg": false,
      "metar_trigger": false,
      "taf_trigger": false,
      "metar": "METAR LIBP 281220Z AUTO VRB03KT 9999 NCD 15/02 Q1020",
      "taf": "TAF LIBP 281100Z 2812/2912 VRB05KT CAVOK"
    },
    {
      "icao": "LIBR",
      "alert": "OK",
      "vis_m": 9999,
      "fzfg": false,
      "metar_trigger": false,
      "taf_trigger": false,
      "metar": "METAR LIBR 281220Z 32017KT 9999 BKN015 13/09 Q1016",
      "taf": "TAF LIBR 281100Z 2812/2912 33013KT 9999 FEW025"
    },
    {
      "icao": "LICA",
      "alert": "OK",
      "vis_m": 9999,
      "fzfg": false,
      "metar_trigger": false,
      "taf_trigger": false,
      "metar": "METAR LICA 281220Z AUTO 27012KT 9999 NCD 16/09 Q1018",
      "taf": "TAF LICA 281100Z 2812/2912 27010KT CAVOK"
    },
    {
      "icao": "LICC",
      "alert": "OK",
      "vis_m": 9999,
      "fzfg": false,
      "metar_trigger": false,
      "taf_trigger": false,
      "metar": "METAR LICC 281220Z 24006KT CAVOK 17/15 Q1017",
      "taf": "TAF LICC 281100Z 2812/2912 VRB06KT 9999 FEW030"
    },
    {
      "icao": "LICJ",
      "alert": "OK",
      "vis_m": 9999,
      "fzfg": false,
      "metar_trigger": false,
      "taf_trigger": false,
      "metar": "METAR LICJ 281220Z 36005KT CAVOK 15/11 Q1018",
      "taf": "TAF LICJ 281100Z 2812/2912 04010KT CAVOK"
    },
    {
      "icao": "LIMC",
      "alert": "OK",
      "vis_m": 9999,
      "fzfg": false,
      "metar_trigger": false,
      "taf_trigger": false,
      "metar": "METAR LIMC 281220Z 13004KT 090V150 CAVOK 12/M00 Q1018 NOSIG",
      "taf": "TAF LIMC 281100Z 2812/2918 VRB05KT CAVOK"
    },
    {
      "icao": "LIME",
      "alert": "OK",
      "vis_m": 9999,
      "fzfg": false,
      "metar_trigger": false,
      "taf_trigger": false,
      "metar": "METAR LIME 281220Z 11005KT CAVOK 11/01 Q1019 NOSIG",
      "taf": "TAF LIME 281100Z 2812/2912 VRB05KT CAVOK"
    },
    {
      "icao": "LIMF",
      "alert": "OK",
      "vis_m": 9999,
      "fzfg": false,
      "metar_trigger": false,
      "taf_trigger": false,
      "metar": "METAR LIMF 281220Z VRB02KT CAVOK 11/M03 Q1018",
      "taf": "TAF LIMF 281100Z 2812/2912 VRB05KT CAVOK"
    },
    {
      "icao": "LIMJ",
      "alert": "OK",
      "vis_m": 9999,
      "fzfg": false,
      "metar_trigger": false,
      "taf_trigger": false,
      "metar": "METAR LIMJ 281220Z 16004KT CAVOK 14/09 Q1019",
      "taf": "TAF LIMJ 281100Z 2812/2912 03012KT CAVOK"
    },
    {
      "icao": "LIPE",
      "alert": "OK",
      "vis_m": 9999,
      "fzfg": false,
      "metar_trigger": false,
      "taf_trigger": false,
      "metar": "METAR LIPE 281220Z 33004KT 290V360 CAVOK 09/03 Q1020",
      "taf": "TAF LIPE 281100Z 2812/2912 VRB06KT CAVOK"
    },
    {
      "icao": "LIPH",
      "alert": "OK",
      "vis_m": 9999,
      "fzfg": false,
      "metar_trigger": false,
      "taf_trigger": false,
      "metar": "METAR LIPH 281220Z 04004KT 350V070 CAVOK 12/01 Q1020",
      "taf": "TAF LIPH 281100Z 2812/2912 VRB05KT CAVOK"
    },
    {
      "icao": "LIPQ",
      "alert": "OK",
      "vis_m": 9999,
      "fzfg": false,
      "metar_trigger": false,
      "taf_trigger": false,
      "metar": "METAR LIPQ 281220Z AUTO 18004KT 140V210 9999 NCD 13/01 Q1020",
      "taf": "TAF LIPQ 281100Z 2812/2912 VRB05KT CAVOK"
    },
    {
      "icao": "LIPR",
      "alert": "OK",
      "vis_m": 9999,
      "fzfg": false,
      "metar_trigger": false,
      "taf_trigger": false,
      "metar": "METAR LIPR 281220Z 05006KT CAVOK 11/M00 Q1020",
      "taf": "TAF LIPR 281100Z 2812/2912 VRB06KT CAVOK"
    },
    {
      "icao": "LIPX",
      "alert": "OK",
      "vis_m": 9999,
      "fzfg": false,
      "metar_trigger": false,
      "taf_trigger": false,
      "metar": "METAR LIPX 281220Z VRB02KT CAVOK 11/03 Q1019",
      "taf": "TAF LIPX 281100Z 2812/2912 VRB06KT CAVOK"
    },
    {
      "icao": "LIPY",
      "alert": "OK",
      "vis_m": 9999,
      "fzfg": false,
      "metar_trigger": false,
      "taf_trigger": false,
      "metar": "METAR LIPY 281220Z AUTO VRB02KT 9999 NCD 13/06 Q1020",
      "taf": "TAF LIPY 281100Z 2812/2912 VRB05KT CAVOK"
    },
    {
      "icao": "LIPZ",
      "alert": "OK",
      "vis_m": 9999,
      "fzfg": false,
      "metar_trigger": false,
      "taf_trigger": false,
      "metar": "METAR LIPZ 281220Z 04007KT 010V070 CAVOK 11/02 Q1020 NOSIG",
      "taf": "TAF LIPZ 281100Z 2812/2918 VRB05KT CAVOK"
    },
    {
      "icao": "LIRF",
      "alert": "OK",
      "vis_m": 9999,
      "fzfg": false,
      "metar_trigger": false,
      "taf_trigger": false,
      "metar": "METAR LIRF 281220Z VRB02KT CAVOK 13/05 Q1019 NOSIG",
      "taf": "TAF LIRF 281100Z 2812/2918 02005KT CAVOK"
    },
    {
      "icao": "LIRN",
      "alert": "OK",
      "vis_m": 9999,
      "fzfg": false,
      "metar_trigger": false,
      "taf_trigger": false,
      "metar": "METAR LIRN 281220Z 29005KT 240V330 CAVOK 14/04 Q1019 NOSIG",
      "taf": "TAF LIRN 281100Z 2812/2912 VRB05KT CAVOK"
    },
    {
      "icao": "LIRP",
      "alert": "OK",
      "vis_m": 9999,
      "fzfg": false,
      "metar_trigger": false,
      "taf_trigger": false,
      "metar": "METAR LIRP 281215Z 12006KT CAVOK 10/03 Q1019 NOSIG",
      "taf": "TAF LIRP 281100Z 2812/2912 12005KT CAVOK"
    },
    {
      "icao": "LIRZ",
      "alert": "OK",
      "vis_m": 9999,
      "fzfg": false,
      "metar_trigger": false,
      "taf_trigger": false,
      "metar": "METAR LIRZ 281220Z AUTO VRB01KT 9999 NCD 08/01 Q1019",
      "taf": "TAF LIRZ 281100Z 2812/2912 VRB05KT CAVOK"
    },
    {
      "icao": "LJLJ",
      "alert": "OK",
      "vis_m": 8000,
      "fzfg": false,
      "metar_trigger": false,
      "taf_trigger": false,
      "metar": "METAR LJLJ 281230Z 10003KT 070V150 8000 FEW005 OVC013 00/M00 Q1024 NOSIG",
      "taf": "TAF LJLJ 281100Z 2812/2912 29003KT 8000 FEW004 OVC012"
    },
    {
      "icao": "LKMT",
      "alert": "OK",
      "vis_m": 9999,
      "fzfg": false,
      "metar_trigger": false,
      "taf_trigger": false,
      "metar": "METAR LKMT 281230Z 34009KT 310V020 9999 BKN034 01/M05 Q1025 NOSIG",
      "taf": "TAF LKMT 281100Z 2812/2912 35010KT 9999 BKN043"
    },
    {
      "icao": "LKPR",
      "alert": "OK",
      "vis_m": 9999,
      "fzfg": false,
      "metar_trigger": false,
      "taf_trigger": false,
      "metar": "METAR LKPR 281230Z 28008KT 240V310 9999 SCT022 02/M03 Q1027 NOSIG",
      "taf": "TAF LKPR 281100Z 2812/2918 28008KT 9999 FEW020"
    },
    {
      "icao": "LLBG",
      "alert": "OK",
      "vis_m": 9999,
      "fzfg": false,
      "metar_trigger": false,
      "taf_trigger": false,
      "metar": "METAR LLBG 281220Z 28012KT 9999 -RA SCT035 BKN045 16/10 Q1009 TEMPO 28012KT 7000 RA FEW025TCU BKN030",
      "taf": "TAF LLBG 281126Z 2812/2912 29012KT 9999 SCT035"
    },
    {
      "icao": "LMML",
      "alert": "OK",
      "vis_m": 9999,
      "fzfg": false,
      "metar_trigger": false,
      "taf_trigger": false,
      "metar": "METAR LMML 281215Z 12004KT 070V200 9999 FEW030 17/11 Q1018 NOSIG",
      "taf": "TAF LMML 281100Z 2812/2912 VRB07KT 9999 FEW019"
    },
    {
      "icao": "LOWW",
      "alert": "OK",
      "vis_m": 9999,
      "fzfg": false,
      "metar_trigger": false,
      "taf_trigger": false,
      "metar": "METAR LOWW 281220Z 34017KT 9999 FEW032 BKN034 03/M04 Q1025 NOSIG",
      "taf": "TAF LOWW 281115Z 2812/2918 32020G30KT 9999 SCT035 TX04/2812Z TNM04/2906Z"
    },
    {
      "icao": "LPFR",
      "alert": "OK",
      "vis_m": 9000,
      "fzfg": false,
      "metar_trigger": false,
      "taf_trigger": false,
      "metar": "METAR LPFR 281230Z 06012KT 9000 -RA FEW012 FEW018CB BKN040 12/10 Q1010",
      "taf": "TAF LPFR 281100Z 2812/2912 14015KT 9999 SCT015 FEW020CB BKN030"
    },
    {
      "icao": "LPMA",
      "alert": "OK",
      "vis_m": 9999,
      "fzfg": false,
      "metar_trigger": false,
      "taf_trigger": false,
      "metar": "METAR LPMA 281230Z 35005KT 270V050 9999 SCT015 18/07 Q1019",
      "taf": "TAF LPMA 281100Z 2812/2912 35008KT 9999 SCT015"
    },
    {
      "icao": "LPPR",
      "alert": "OK",
      "vis_m": 9999,
      "fzfg": false,
      "metar_trigger": false,
      "taf_trigger": false,
      "metar": "METAR LPPR 281230Z 05005KT 020V080 CAVOK 13/06 Q1015",
      "taf": "TAF LPPR 281100Z 2812/2912 08005KT CAVOK"
    },
    {
      "icao": "LPPS",
      "alert": "OK",
      "vis_m": 9999,
      "fzfg": false,
      "metar_trigger": false,
      "taf_trigger": false,
      "metar": "METAR LPPS 281230Z 36011KT 9999 FEW014 18/08 Q1019",
      "taf": "TAF LPPS 281100Z 2812/2918 34013KT 9999 SCT015"
    },
    {
      "icao": "LPPT",
      "alert": "OK",
      "vis_m": 9999,
      "fzfg": false,
      "metar_trigger": false,
      "taf_trigger": false,
      "metar": "METAR LPPT 281230Z 07011KT 030V110 9999 FEW015 12/09 Q1013",
      "taf": "TAF LPPT 281100Z 2812/2918 06015KT 9999 FEW020"
    },
    {
      "icao": "LQBK",
      "alert": "OK",
      "vis_m": 9999,
      "fzfg": false,
      "metar_trigger": false,
      "taf_trigger": false,
      "metar": "METAR LQBK 281230Z 30008KT 260V330 9999 FEW030 05/M02 Q1024 NOSIG",
      "taf": "TAF LQBK 281100Z 2812/2912 18005KT CAVOK TX07/2813Z TNM05/2905Z"
    },
    {
      "icao": "LQSA",
      "alert": "OK",
      "vis_m": 9999,
      "fzfg": false,
      "metar_trigger": false,
      "taf_trigger": false,
      "metar": "METAR LQSA 281230Z 33010KT 9999 SCT035 03/M05 Q1021 NOSIG",
      "taf": "TAF LQSA 281100Z 2812/2912 31012KT 9999 SCT040 TX04/2813Z TNM08/2905Z"
    },
    {
      "icao": "LQTZ",
      "alert": "OK",
      "vis_m": 9999,
      "fzfg": false,
      "metar_trigger": false,
      "taf_trigger": false,
      "metar": "METAR LQTZ 281230Z 30008KT 9999 FEW030 BKN040 04/M01 Q1023",
      "taf": "TAF LQTZ 281100Z 2812/2912 36006KT 9999 SCT035 TX05/2813Z TNM07/2905Z"
    },
    {
      "icao": "LRBC",
      "alert": "OK",
      "vis_m": 9999,
      "fzfg": false,
      "metar_trigger": false,
      "taf_trigger": false,
      "metar": "METAR LRBC 281230Z 32019KT 9999 -SN OVC040 03/M03 Q1007",
      "taf": "TAF LRBC 281100Z 2812/2821 31018KT 9999 BKN050"
    },
    {
      "icao": "LRBS",
      "alert": "OK",
      "vis_m": 9999,
      "fzfg": false,
      "metar_trigger": false,
      "taf_trigger": false,
      "metar": "METAR LRBS 281230Z 31007KT 260V020 9999 FEW005 07/M04 Q1010 NOSIG",
      "taf": "TAF LRBS 281100Z 2812/2912 26010KT CAVOK"
    },
    {
      "icao": "LRBV",
      "alert": "OK",
      "vis_m": 9999,
      "fzfg": false,
      "metar_trigger": false,
      "taf_trigger": false,
      "metar": "METAR LRBV 281230Z 30014G26KT 9999 BKN025 BKN031 M00/M05 Q1009",
      "taf": "TAF LRBV 281100Z 2812/2821 30018KT 9999 BKN020"
    },
    {
      "icao": "LRCL",
      "alert": "OK",
      "vis_m": 9999,
      "fzfg": false,
      "metar_trigger": false,
      "taf_trigger": false,
      "metar": "METAR LRCL 281230Z 29019KT 9999 OVC040 02/M05 Q1014",
      "taf": "TAF LRCL 281100Z 2812/2821 29020KT 9999 SCT030 BKN065"
    },
    {
      "icao": "LRCV",
      "alert": "OK",
      "vis_m": 9999,
      "fzfg": false,
      "metar_trigger": false,
      "taf_trigger": false,
      "metar": "METAR LRCV 281230Z 34012KT 9999 FEW040 04/M04 Q1013",
      "taf": "TAF LRCV 281100Z 2812/2821 33012KT CAVOK"
    },
    {
      "icao": "LRIA",
      "alert": "OK",
      "vis_m": 7000,
      "fzfg": false,
      "metar_trigger": false,
      "taf_trigger": false,
      "metar": "METAR LRIA 281230Z 30020G33KT 7000 -SN BKN015 02/M01 Q1004",
      "taf": "TAF LRIA 281100Z 2812/2821 31025G40KT 9999 BKN030"
    },
    {
      "icao": "LROP",
      "alert": "OK",
      "vis_m": 9999,
      "fzfg": false,
      "metar_trigger": false,
      "taf_trigger": false,
      "metar": "METAR LROP 281230Z 31014KT CAVOK 06/M10 Q1010 NOSIG",
      "taf": "TAF LROP 281100Z 2812/2912 27011KT CAVOK"
    },
    {
      "icao": "LRSB",
      "alert": "OK",
      "vis_m": 9999,
      "fzfg": false,
      "metar_trigger": false,
      "taf_trigger": false,
      "metar": "METAR LRSB 281230Z 29018KT 9999 SCT030 BKN048 02/M05 Q1013 NOSIG",
      "taf": "TAF LRSB 281100Z 2812/2912 30015KT 9999 BKN050"
    },
    {
      "icao": "LRSM",
      "alert": "OK",
      "vis_m": 9999,
      "fzfg": false,
      "metar_trigger": false,
      "taf_trigger": false,
      "metar": "METAR LRSM 281230Z 32019KT 9999 FEW038 BKN048 04/M04 Q1016",
      "taf": "TAF LRSM 281100Z 2812/2821 31015KT 9999 BKN030"
    },
    {
      "icao": "LRSV",
      "alert": "OK",
      "vis_m": 700,
      "fzfg": false,
      "metar_trigger": false,
      "taf_trigger": false,
      "metar": "METAR LRSV 281230Z 30022KT 0700 R34/1100D SN BLSN BKN014 BKN026 M01/M02 Q1005",
      "taf": "TAF LRSV 281100Z 2812/2821 31022KT 3000 -SN DRSN SCT010 BKN030"
    },
    {
      "icao": "LRTM",
      "alert": "OK",
      "vis_m": 9999,
      "fzfg": false,
      "metar_trigger": false,
      "taf_trigger": false,
      "metar": "METAR LRTM 281230Z 28017KT 9999 BKN033 BKN046 02/M05 Q1013",
      "taf": "TAF LRTM 281100Z 2812/2821 29019KT 9999 SCT025"
    },
    {
      "icao": "LRTR",
      "alert": "OK",
      "vis_m": 9999,
      "fzfg": false,
      "metar_trigger": false,
      "taf_trigger": false,
      "metar": "METAR LRTR 281230Z 30009KT CAVOK 04/M01 Q1020 NOSIG",
      "taf": "TAF LRTR 281100Z 2812/2912 31012KT CAVOK"
    },
    {
      "icao": "LTAC",
      "alert": "OK",
      "vis_m": 9999,
      "fzfg": false,
      "metar_trigger": false,
      "taf_trigger": false,
      "metar": "METAR LTAC 281220Z 24016KT 9999 SCT033 BKN080 01/M06 Q1002 NOSIG RMK RWY21C 23018KT RWY03L 23016KT RWY21R 22017KT RWY03R 23015KT RWY21L 23018KT",
      "taf": "TAF LTAC 281040Z 2812/2912 25015KT 9999 SCT030 BKN080"
    },
    {
      "icao": "LTFM",
      "alert": "OK",
      "vis_m": 9999,
      "fzfg": false,
      "metar_trigger": false,
      "taf_trigger": false,
      "metar": "METAR LTFM 281220Z 35025KT 9999 -SHRA SCT012 BKN022 04/01 Q1010 NOSIG RMK RWY17L 35021KT RWY34L 35022KT RWY16R 35022KT RWY36 36024KT RWY18 01021KT",
      "taf": "TAF LTFM 281040Z 2812/2918 32017G27KT 9999 SCT017 BKN025"
    },
    {
      "icao": "LUKK",
      "alert": "OK",
      "vis_m": 9999,
      "fzfg": false,
      "metar_trigger": false,
      "taf_trigger": false,
      "metar": "METAR LUKK 281230Z 33020KT 9999 -SHSN SCT015CB OVC028 01/M01 Q1001 TEMPO 34024G36KT 4000 SHSN BLSN BKN010 SCT025CB",
      "taf": "TAF LUKK 281106Z 2812/2912 32018G28KT 9999 BKN020"
    },
    {
      "icao": "LWOH",
      "alert": "OK",
      "vis_m": 9999,
      "fzfg": false,
      "metar_trigger": false,
      "taf_trigger": false,
      "metar": "METAR LWOH 281220Z 17004KT 100V250 CAVOK 09/M00 Q1013",
      "taf": "TAF LWOH 281110Z 2812/2912 16008KT CAVOK"
    },
    {
      "icao": "LWSK",
      "alert": "OK",
      "vis_m": 9999,
      "fzfg": false,
      "metar_trigger": false,
      "taf_trigger": false,
      "metar": "METAR LWSK 281220Z 36020G30KT 9999 FEW060 07/M04 Q1016 NOSIG",
      "taf": "TAF LWSK 281110Z 2812/2912 01015KT CAVOK"
    },
    {
      "icao": "LYBE",
      "alert": "OK",
      "vis_m": 9999,
      "fzfg": false,
      "metar_trigger": false,
      "taf_trigger": false,
      "metar": "METAR LYBE 281230Z 31014KT 9999 SCT025 04/M01 Q1022 NOSIG",
      "taf": "TAF LYBE 281100Z 2812/2912 29013KT 9999 SCT030 TX06/2912Z TNM03/2906Z"
    },
    {
      "icao": "LYNI",
      "alert": "OK",
      "vis_m": 9999,
      "fzfg": false,
      "metar_trigger": false,
      "taf_trigger": false,
      "metar": "METAR LYNI 281230Z 31016KT 290V350 9999 BKN037 04/M04 Q1019 NOSIG",
      "taf": "TAF LYNI 281100Z 2812/2912 29016KT 9999 BKN030 TX06/2912Z TNM03/2906Z"
    },
    {
      "icao": "LYPG",
      "alert": "OK",
      "vis_m": 9999,
      "fzfg": false,
      "metar_trigger": false,
      "taf_trigger": false,
      "metar": "METAR LYPG 281230Z 34006KT 290V020 CAVOK 14/M04 Q1015 TEMPO 36016KT",
      "taf": "TAF LYPG 281100Z 2812/2912 35009KT CAVOK TX13/2813Z TN01/2906Z"
    },
    {
      "icao": "LZIB",
      "alert": "OK",
      "vis_m": 9999,
      "fzfg": false,
      "metar_trigger": false,
      "taf_trigger": false,
      "metar": "METAR LZIB 281230Z 31018KT 9999 BKN037 04/M04 Q1025 NOSIG",
      "taf": "TAF LZIB 281115Z 2812/2912 32015KT 9999 SCT035 BKN038"
    },
    {
      "icao": "LZKZ",
      "alert": "OK",
      "vis_m": 9999,
      "fzfg": false,
      "metar_trigger": false,
      "taf_trigger": false,
      "metar": "METAR LZKZ 281230Z 31010KT 9999 BKN046 03/M06 Q1018 NOSIG",
      "taf": "TAF LZKZ 281115Z 2812/2912 35015KT 9999 BKN047"
    },
    {
      "icao": "LZTT",
      "alert": "OK",
      "vis_m": 9999,
      "fzfg": false,
      "metar_trigger": false,
      "taf_trigger": false,
      "metar": "METAR LZTT 281230Z 27021KT 9999 FEW020 SCT050 00/M08 Q1014 NOSIG",
      "taf": "TAF LZTT 281115Z 2812/2912 28017KT 9999 FEW016 SCT050"
    },
    {
      "icao": "OEJN",
      "alert": "OK",
      "vis_m": 9999,
      "fzfg": false,
      "metar_trigger": false,
      "taf_trigger": false,
      "metar": "METAR OEJN 281200Z 32011KT 9999 FEW040 28/16 Q1010 NOSIG",
      "taf": "TAF OEJN 281100Z 2812/2918 33010KT CAVOK"
    },
    {
      "icao": "OEMA",
      "alert": "OK",
      "vis_m": 9999,
      "fzfg": false,
      "metar_trigger": false,
      "taf_trigger": false,
      "metar": "METAR OEMA 281200Z 29011KT 9999 FEW040 24/M01 Q1012 NOSIG",
      "taf": "TAF OEMA 281100Z 2812/2918 29014KT CAVOK"
    },
    {
      "icao": "OJAI",
      "alert": "OK",
      "vis_m": 3500,
      "fzfg": false,
      "metar_trigger": false,
      "taf_trigger": false,
      "metar": "METAR OJAI 281200Z 28015KT 3500 BR SCT030 SCT035 09/08 Q1009 NOSIG",
      "taf": "TAF OJAI 281100Z 2812/2918 29018G30KT 3000 RA BR SCT020TCU BKN030"
    },
    {
      "icao": "OMAA",
      "alert": "OK",
      "vis_m": 9999,
      "fzfg": false,
      "metar_trigger": false,
      "taf_trigger": false,
      "metar": "METAR OMAA 281200Z 15013KT CAVOK 27/11 Q1010 NOSIG",
      "taf": "TAF OMAA 281100Z 2812/2918 17012KT 8000 NSC"
    },
    {
      "icao": "OMDB",
      "alert": "OK",
      "vis_m": 9999,
      "fzfg": false,
      "metar_trigger": false,
      "taf_trigger": false,
      "metar": "METAR OMDB 281230Z 19009KT 160V220 9999 FEW045 27/12 Q1010 NOSIG",
      "taf": "TAF OMDB 281100Z 2812/2918 18008KT 8000 NSC"
    },
    {
      "icao": "UAAA",
      "alert": "OK",
      "vis_m": 1400,
      "fzfg": false,
      "metar_trigger": false,
      "taf_trigger": false,
      "metar": "SPECI UAAA 281235Z 22001MPS 1400 R05R/P2000N BR SCT100 BKN200 M01/M03 Q1015 NOSIG",
      "taf": "TAF UAAA 281109Z 2812/2912 20003MPS 1200 BR FU SCT050 BKN100 TX02/2909Z TNM03/2901Z"
    },
    {
      "icao": "UBBB",
      "alert": "OK",
      "vis_m": 9999,
      "fzfg": false,
      "metar_trigger": false,
      "taf_trigger": false,
      "metar": "METAR UBBB 281230Z 32008KT 9999 SCT015 OVC024 05/04 Q1002 NOSIG",
      "taf": "TAF UBBB 281055Z 2812/2912 32012KT 9999 SCT012 BKN020 TX06/2812Z TN02/2902Z"
    },
    {
      "icao": "UDSG",
      "alert": "OK",
      "vis_m": 9999,
      "fzfg": false,
      "metar_trigger": false,
      "taf_trigger": false,
      "metar": "METAR UDSG 281230Z 20004KT 9999 NSC M05/M11 Q1001 NOSIG",
      "taf": "TAF UDSG 281100Z 2812/2912 VRB06KT 9999 SCT040"
    },
    {
      "icao": "UDYZ",
      "alert": "OK",
      "vis_m": 9999,
      "fzfg": false,
      "metar_trigger": false,
      "taf_trigger": false,
      "metar": "METAR UDYZ 281230Z 00000KT 9999 FEW046 01/M05 Q1001 NOSIG",
      "taf": "TAF UDYZ 281100Z 2812/2912 VRB04KT 6000 FEW040"
    },
    {
      "icao": "UGKO",
      "alert": "OK",
      "vis_m": 9999,
      "fzfg": false,
      "metar_trigger": false,
      "taf_trigger": false,
      "metar": "METAR UGKO 281230Z 06005KT 9999 -RA SCT011 BKN054 01/01 Q1004 NOSIG",
      "taf": "TAF UGKO 281100Z 2812/2912 08007KT 9999 SCT015 OVC045 TX02/2812Z TNM01/2904Z"
    }
  ]
}